station,valid,metar
ZBHH,2010-01-01 00:00,ZBHH 010000Z AUTO 00000KT 2SM M12/M19 A2980 RMK SLP198 T11211191 52006 IEM_DS3505
ZBHH,2010-01-01 01:00,ZBHH 010100Z AUTO 05002KT 4SM M12/M19 A2983 RMK T11201190 IEM_DS3505
ZBHH,2010-01-01 02:00,ZBHH 010200Z AUTO 06002KT 4SM M09/M16 A2983 RMK T10901160 IEM_DS3505
ZBHH,2010-01-01 03:00,ZBHH 010300Z AUTO 14002KT 3SM M07/M18 A2983 RMK SLP196 T10691179 52006 IEM_DS3505
ZBHH,2010-01-01 04:00,ZBHH 010400Z AUTO 20002KT 4SM M06/M15 A2980 RMK T10601150 IEM_DS3505
ZBHH,2010-01-01 05:00,ZBHH 010500Z AUTO 30002KT 4SM M05/M15 A2977 RMK T10501150 IEM_DS3505
ZBHH,2010-01-01 06:00,ZBHH 010600Z AUTO 34002KT 3SM M04/M17 A2977 RMK SLP175 T10441166 57014 IEM_DS3505
ZBHH,2010-01-01 07:00,ZBHH 010700Z AUTO 25004KT 2SM M04/M15 A2977 RMK T10401150 IEM_DS3505
ZBHH,2010-01-01 08:00,ZBHH 010800Z AUTO 27002KT 2SM M04/M15 A2980 RMK T10401150 IEM_DS3505
ZBHH,2010-01-01 09:00,ZBHH 010900Z AUTO 32002KT 3SM M04/M17 A2980 RMK SLP186 T10451170 52011 IEM_DS3505
ZBHH,2010-01-01 10:00,ZBHH 011000Z AUTO 04004KT 4SM M07/M11 A2983 RMK T10701110 IEM_DS3505
ZBHH,2010-01-01 11:00,ZBHH 011100Z AUTO 04004KT 3SM M08/M10 A2985 RMK T10801100 IEM_DS3505
ZBHH,2010-01-01 12:00,ZBHH 011200Z AUTO 07002KT 6SM M06/M11 A2988 RMK SLP211 T10621110 52020 IEM_DS3505
ZBHH,2010-01-01 13:00,ZBHH 011300Z AUTO 03002KT 3SM M08/M10 A2988 RMK T10801100 IEM_DS3505
ZBHH,2010-01-01 14:00,ZBHH 011400Z AUTO 33012KT 7SM M06/M11 A2991 RMK T10601110 IEM_DS3505
ZBHH,2010-01-01 15:00,ZBHH 011500Z AUTO 32008KT 19SM M07/M14 RMK SLP220 T10661137 52019 IEM_DS3505
ZBHH,2010-01-01 17:00,ZBHH 011700Z AUTO 36014KT 6SM M10/M14 A2997 RMK T11001140 IEM_DS3505
ZBHH,2010-01-01 18:00,ZBHH 011800Z AUTO 32004KT 19SM M08/M16 A2997 RMK SLP230 T10831155 52010 IEM_DS3505
ZBHH,2010-01-01 19:00,ZBHH 011900Z AUTO 02010KT 6SM M10/M15 A3000 RMK T11001150 IEM_DS3505
ZBHH,2010-01-01 20:00,ZBHH 012000Z AUTO 02006KT 6SM M11/M16 A3000 RMK T11101160 IEM_DS3505
ZBHH,2010-01-01 21:00,ZBHH 012100Z AUTO 25002KT 12SM M10/M17 A3000 RMK SLP240 T11011168 52005 IEM_DS3505
ZBHH,2010-01-01 22:00,ZBHH 012200Z AUTO 09004KT 6SM M15/M18 A3000 RMK T11501180 IEM_DS3505
ZBHH,2010-01-01 23:00,ZBHH 012300Z AUTO 08006KT 7SM M16/M19 A3000 RMK T11601190 IEM_DS3505
ZBHH,2010-01-02 00:00,ZBHH 020000Z AUTO 00000KT 9SM M13/M17 A3000 RMK SLP264 T11331171 52009 IEM_DS3505
ZBHH,2010-01-02 01:00,ZBHH 020100Z AUTO 11004KT 7SM M13/M17 A3003 RMK T11301170 IEM_DS3505
ZBHH,2010-01-02 02:00,ZBHH 020200Z AUTO 10002KT 6SM M10/M16 A3003 RMK T11001160 IEM_DS3505
ZBHH,2010-01-02 03:00,ZBHH 020300Z AUTO 29002KT 6SM M07/M15 A3003 RMK SLP255 T10671154 52007 IEM_DS3505
ZBHH,2010-01-02 04:00,ZBHH 020400Z AUTO 21002KT 7SM M07/M15 A3003 RMK T10701150 IEM_DS3505
ZBHH,2010-01-02 05:00,ZBHH 020500Z AUTO 26002KT 7SM M05/M14 A3000 RMK T10501140 IEM_DS3505
ZBHH,2010-01-02 06:00,ZBHH 020600Z AUTO 27002KT 6SM M04/M14 A2997 RMK SLP232 T10441138 57019 IEM_DS3505
ZBHH,2010-01-02 07:00,ZBHH 020700Z AUTO 21006KT 7SM M05/M11 A2997 RMK T10501110 IEM_DS3505
ZBHH,2010-01-02 08:00,ZBHH 020800Z AUTO 20004KT 4SM M05/M11 A2997 RMK T10501110 IEM_DS3505
ZBHH,2010-01-02 09:00,ZBHH 020900Z AUTO 32002KT 4SM M05/M12 A2997 RMK SLP237 T10501122 57001 IEM_DS3505
ZBHH,2010-01-02 10:00,ZBHH 021000Z AUTO 05004KT 4SM M06/M11 A2997 RMK T10601110 IEM_DS3505
ZBHH,2010-01-02 11:00,ZBHH 021100Z AUTO 07004KT 4SM M07/M12 A2994 RMK T10701120 IEM_DS3505
ZBHH,2010-01-02 12:00,ZBHH 021200Z AUTO 09002KT 3SM M06/M10 A2994 RMK SLP234 T10591101 57012 IEM_DS3505
ZBHH,2010-01-02 13:00,ZBHH 021300Z AUTO 02002KT 3SM M08/M10 A2991 RMK T10801100 IEM_DS3505
ZBHH,2010-01-02 14:00,ZBHH 021400Z AUTO 04004KT 3SM M08/M09 A2988 RMK T10801090 IEM_DS3505
ZBHH,2010-01-02 15:00,ZBHH 021500Z AUTO 07002KT 3SM M06/M08 A2985 RMK SLP191 T10651084 57024 IEM_DS3505
ZBHH,2010-01-02 16:00,ZBHH 021600Z AUTO 07004KT 3SM M07/M08 A2980 RMK T10701080 IEM_DS3505
ZBHH,2010-01-02 17:00,ZBHH 021700Z AUTO 06004KT 1 1/2SM M07/M08 A2977 RMK T10701080 IEM_DS3505
ZBHH,2010-01-02 18:00,ZBHH 021800Z AUTO 07002KT 3SM M06/M08 A2974 RMK 60004 SLP144 T10631078 57036 IEM_DS3505
ZBHH,2010-01-02 19:00,ZBHH 021900Z AUTO 09004KT 4SM M07/M07 A2971 RMK T10701070 IEM_DS3505
ZBHH,2010-01-02 20:00,ZBHH 022000Z AUTO 07004KT 4SM M07/M08 A2965 RMK T10701080 IEM_DS3505
ZBHH,2010-01-02 21:00,ZBHH 022100Z AUTO 04002KT 5SM M06/M08 A2962 RMK 70006 SLP108 T10621079 57032 IEM_DS3505
ZBHH,2010-01-02 22:00,ZBHH 022200Z AUTO 36002KT 4SM M08/M08 A2962 RMK T10801080 IEM_DS3505
ZBHH,2010-01-02 23:00,ZBHH 022300Z AUTO 07002KT 4SM M07/M08 A2959 RMK T10701080 IEM_DS3505
ZBHH,2010-01-03 00:00,ZBHH 030000Z AUTO 02002KT 4SM M05/M07 A2956 RMK 60000 70006 SLP085 T10521067 57020 IEM_DS3505
ZBHH,2010-01-03 01:00,ZBHH 030100Z AUTO 33002KT 1SM M06/M07 A2956 RMK T10601070 IEM_DS3505
ZBHH,2010-01-03 02:00,ZBHH 030200Z AUTO 25002KT 1SM M05/M06 A2959 RMK T10501060 IEM_DS3505
ZBHH,2010-01-03 03:00,ZBHH 030300Z AUTO 25006KT 3SM M04/M06 A2962 RMK SLP106 T10421063 52019 IEM_DS3505
ZBHH,2010-01-03 04:00,ZBHH 030400Z AUTO 29008KT 1 1/4SM M04/M05 A2965 RMK T10401050 IEM_DS3505
ZBHH,2010-01-03 05:00,ZBHH 030500Z AUTO 34017G27KT 7SM M07/M12 A2968 RMK T10701120 IEM_DS3505
ZBHH,2010-01-03 06:00,ZBHH 030600Z AUTO 32017G37KT 2SM M10/M17 A2971 RMK 60000 SLP164 T11031174 52038 IEM_DS3505
ZBHH,2010-01-03 07:00,ZBHH 030700Z AUTO 34019G29KT 7SM M14/M19 A2985 RMK T11401190 IEM_DS3505
ZBHH,2010-01-03 08:00,ZBHH 030800Z AUTO 31006KT 7SM M15/M20 A2991 RMK T11501200 IEM_DS3505
ZBHH,2010-01-03 09:00,ZBHH 030900Z AUTO 32010KT 6SM M15/M21 A2991 RMK SLP243 T11521212 52079 IEM_DS3505
ZBHH,2010-01-03 10:00,ZBHH 031000Z AUTO 34014G25KT 7SM M16/M22 A3003 RMK T11601220 IEM_DS3505
ZBHH,2010-01-03 11:00,ZBHH 031100Z AUTO 33012KT 7SM M16/M23 A3009 RMK T11601230 IEM_DS3505
ZBHH,2010-01-03 12:00,ZBHH 031200Z AUTO 32012KT 12SM M17/M25 A3012 RMK SLP309 T11711251 52055 IEM_DS3505
ZBHH,2010-01-03 13:00,ZBHH 031300Z AUTO 01014KT 7SM M18/M25 A3015 RMK T11801250 IEM_DS3505
ZBHH,2010-01-03 14:00,ZBHH 031400Z AUTO 01016KT 7SM M19/M26 A3018 RMK T11901260 IEM_DS3505
ZBHH,2010-01-03 15:00,ZBHH 031500Z AUTO 34010KT 12SM M19/M26 A3021 RMK SLP340 T11891259 52025 IEM_DS3505
ZBHH,2010-01-03 16:00,ZBHH 031600Z AUTO 36019KT 7SM M20/M27 A3024 RMK T12001270 IEM_DS3505
ZBHH,2010-01-03 17:00,ZBHH 031700Z AUTO 02012KT 7SM M21/M28 A3024 RMK T12101280 IEM_DS3505
ZBHH,2010-01-03 18:00,ZBHH 031800Z AUTO 29010KT 19SM M21/M30 A3024 RMK SLP378 T12121298 52013 IEM_DS3505
ZBHH,2010-01-03 19:00,ZBHH 031900Z AUTO 35014KT 6SM M22/M30 A3024 RMK T12201300 IEM_DS3505
ZBHH,2010-01-03 20:00,ZBHH 032000Z AUTO 34010KT 6SM M23/M31 A3024 RMK T12301310 IEM_DS3505
ZBHH,2010-01-03 21:00,ZBHH 032100Z AUTO 36002KT 19SM M22/M31 A3024 RMK 70002 SLP403 T12241307 52007 IEM_DS3505
ZBHH,2010-01-03 22:00,ZBHH 032200Z AUTO 35012G21KT 6SM M24/M32 A3027 RMK T12401320 IEM_DS3505
ZBHH,2010-01-03 23:00,ZBHH 032300Z AUTO 34016KT 6SM M24/M31 A3030 RMK T12401310 IEM_DS3505
ZBHH,2010-01-04 00:00,ZBHH 040000Z AUTO 14002KT 9SM M23/M31 A3030 RMK 70002 SLP419 T12311313 52007 IEM_DS3505
ZBHH,2010-01-04 01:00,ZBHH 040100Z AUTO 36012KT 6SM M23/M31 A3030 RMK T12301310 IEM_DS3505
ZBHH,2010-01-04 02:00,ZBHH 040200Z AUTO 26002KT 6SM M23/M29 A3033 RMK T12301290 IEM_DS3505
ZBHH,2010-01-04 03:00,ZBHH 040300Z AUTO 32002KT 19SM M20/M29 A3033 RMK SLP428 T11951287 52013 IEM_DS3505
ZBHH,2010-01-04 04:00,ZBHH 040400Z AUTO 04002KT 6SM M20/M28 A3033 RMK T12001280 IEM_DS3505
ZBHH,2010-01-04 05:00,ZBHH 040500Z AUTO 10002KT 6SM M19/M27 A3030 RMK T11901270 IEM_DS3505
ZBHH,2010-01-04 06:00,ZBHH 040600Z AUTO 16002KT 19SM M16/M25 A3027 RMK SLP396 T11561251 57024 IEM_DS3505
ZBHH,2010-01-04 07:00,ZBHH 040700Z AUTO 04002KT 6SM M16/M25 A3027 RMK T11601250 IEM_DS3505
ZBHH,2010-01-04 08:00,ZBHH 040800Z AUTO 18004KT 6SM M17/M25 A3027 RMK T11701250 IEM_DS3505
ZBHH,2010-01-04 09:00,ZBHH 040900Z AUTO 18004KT 9SM M17/M24 A3027 RMK SLP404 T11691242 52001 IEM_DS3505
ZBHH,2010-01-04 10:00,ZBHH 041000Z AUTO 16002KT 6SM M19/M25 A3027 RMK T11901250 IEM_DS3505
ZBHH,2010-01-04 11:00,ZBHH 041100Z AUTO 07006KT 6SM M21/M26 A3027 RMK T12101260 IEM_DS3505
ZBHH,2010-01-04 12:00,ZBHH 041200Z AUTO 04004KT 9SM M19/M26 A3027 RMK SLP412 T11881262 54000 IEM_DS3505
ZBHH,2010-01-04 13:00,ZBHH 041300Z AUTO 10004KT 6SM M23/M28 A3027 RMK T12301280 IEM_DS3505
ZBHH,2010-01-04 14:00,ZBHH 041400Z AUTO 09006KT 6SM M24/M29 A3027 RMK T12401290 IEM_DS3505
ZBHH,2010-01-04 15:00,ZBHH 041500Z AUTO 07002KT 12SM M20/M26 A3027 RMK SLP410 T11991259 52005 IEM_DS3505
ZBHH,2010-01-04 16:00,ZBHH 041600Z AUTO 09008KT 6SM M26/M30 A3027 RMK T12601300 IEM_DS3505
ZBHH,2010-01-04 17:00,ZBHH 041700Z AUTO 09008KT 6SM M25/M30 A3027 RMK T12501300 IEM_DS3505
ZBHH,2010-01-04 18:00,ZBHH 041800Z AUTO 07002KT 19SM M22/M28 A3024 RMK SLP389 T12151279 57013 IEM_DS3505
ZBHH,2010-01-04 19:00,ZBHH 041900Z AUTO 09002KT 7SM M25/M30 A3024 RMK T12501300 IEM_DS3505
ZBHH,2010-01-04 20:00,ZBHH 042000Z AUTO 08006KT 7SM M24/M29 A3024 RMK T12401290 IEM_DS3505
ZBHH,2010-01-04 21:00,ZBHH 042100Z AUTO 11002KT 19SM M20/M26 A3021 RMK SLP384 T12041265 57005 IEM_DS3505
ZBHH,2010-01-04 22:00,ZBHH 042200Z AUTO 07002KT 7SM M22/M27 A3021 RMK T12201270 IEM_DS3505
ZBHH,2010-01-04 23:00,ZBHH 042300Z AUTO 10004KT 7SM M21/M27 A3021 RMK T12101270 IEM_DS3505
ZBHH,2010-01-05 00:00,ZBHH 050000Z AUTO 09002KT 6SM M19/M26 A3024 RMK SLP385 T11861256 52001 IEM_DS3505
ZBHH,2010-01-05 01:00,ZBHH 050100Z AUTO 08006KT 6SM M21/M26 A3024 RMK T12101260 IEM_DS3505
ZBHH,2010-01-05 02:00,ZBHH 050200Z AUTO 11002KT 6SM M18/M24 A3024 RMK T11801240 IEM_DS3505
ZBHH,2010-01-05 03:00,ZBHH 050300Z AUTO 07002KT 6SM M15/M25 A3021 RMK SLP377 T11471250 54000 IEM_DS3505
ZBHH,2010-01-05 04:00,ZBHH 050400Z AUTO 15002KT 6SM M14/M23 A3018 RMK T11401230 IEM_DS3505
ZBHH,2010-01-05 05:00,ZBHH 050500Z AUTO 13002KT 6SM M14/M21 A3015 RMK T11401210 IEM_DS3505
ZBHH,2010-01-05 06:00,ZBHH 050600Z AUTO 22002KT 6SM M11/M22 A3012 RMK SLP340 T11141220 57028 IEM_DS3505
ZBHH,2010-01-05 07:00,ZBHH 050700Z AUTO 25002KT 6SM M12/M20 A3012 RMK T11201200 IEM_DS3505
ZBHH,2010-01-05 08:00,ZBHH 050800Z AUTO 08002KT 6SM M13/M20 A3012 RMK T11301200 IEM_DS3505
ZBHH,2010-01-05 09:00,ZBHH 050900Z AUTO 09002KT 6SM M12/M22 A3012 RMK SLP341 T11251217 52001 IEM_DS3505
ZBHH,2010-01-05 10:00,ZBHH 051000Z AUTO 10002KT 6SM M14/M20 A3015 RMK T11401200 IEM_DS3505
ZBHH,2010-01-05 11:00,ZBHH 051100Z AUTO 09006KT 6SM M16/M22 A3015 RMK T11601220 IEM_DS3505
ZBHH,2010-01-05 12:00,ZBHH 051200Z AUTO 11004KT 9SM M14/M22 A3018 RMK SLP355 T11421217 52012 IEM_DS3505
ZBHH,2010-01-05 13:00,ZBHH 051300Z AUTO 08004KT 6SM M19/M23 A3018 RMK T11901230 IEM_DS3505
ZBHH,2010-01-05 14:00,ZBHH 051400Z AUTO 10006KT 6SM M19/M24 A3018 RMK T11901240 IEM_DS3505
ZBHH,2010-01-05 15:00,ZBHH 051500Z AUTO 09002KT 7SM M16/M21 A3018 RMK SLP347 T11621213 57002 IEM_DS3505
ZBHH,2010-01-05 16:00,ZBHH 051600Z AUTO 10006KT 6SM M20/M24 A3015 RMK T12001240 IEM_DS3505
ZBHH,2010-01-05 17:00,ZBHH 051700Z AUTO 09004KT 6SM M20/M24 A3018 RMK T12001240 IEM_DS3505
ZBHH,2010-01-05 18:00,ZBHH 051800Z AUTO 09002KT 6SM M15/M21 A3018 RMK SLP338 T11521210 52002 IEM_DS3505
ZBHH,2010-01-05 19:00,ZBHH 051900Z AUTO 09006KT 6SM M17/M21 A3018 RMK T11701210 IEM_DS3505
ZBHH,2010-01-05 20:00,ZBHH 052000Z AUTO 08006KT 6SM M17/M21 A3015 RMK T11701210 IEM_DS3505
ZBHH,2010-01-05 21:00,ZBHH 052100Z AUTO 09002KT 6SM M16/M22 A3015 RMK SLP336 T11591215 57006 IEM_DS3505
ZBHH,2010-01-05 22:00,ZBHH 052200Z AUTO 08006KT 6SM M19/M23 A3015 RMK T11901230 IEM_DS3505
ZBHH,2010-01-05 23:00,ZBHH 052300Z AUTO 07004KT 6SM M18/M22 A3015 RMK T11801220 IEM_DS3505
ZBHH,2010-01-06 00:00,ZBHH 060000Z AUTO 16002KT 4SM M15/M20 A3015 RMK SLP342 T11491197 52004 IEM_DS3505
ZBHH,2010-01-06 01:00,ZBHH 060100Z AUTO 09006KT 5SM M16/M20 A3018 RMK T11601200 IEM_DS3505
ZBHH,2010-01-06 02:00,ZBHH 060200Z AUTO 09006KT 3SM M14/M18 A3018 RMK T11401180 IEM_DS3505
ZBHH,2010-01-06 03:00,ZBHH 060300Z AUTO 29002KT 6SM M11/M16 A3021 RMK SLP351 T11121159 52012 IEM_DS3505
ZBHH,2010-01-06 04:00,ZBHH 060400Z AUTO 07004KT 4SM M11/M14 A3018 RMK T11101140 IEM_DS3505
ZBHH,2010-01-06 05:00,ZBHH 060500Z AUTO 02002KT 5SM M09/M14 A3015 RMK T10901140 IEM_DS3505
ZBHH,2010-01-06 06:00,ZBHH 060600Z AUTO 34002KT 6SM M09/M14 A3012 RMK 60000 SLP316 T10861142 57022 IEM_DS3505
ZBHH,2010-01-06 07:00,ZBHH 060700Z AUTO 07002KT 4SM M09/M13 A3012 RMK T10901130 IEM_DS3505
ZBHH,2010-01-06 08:00,ZBHH 060800Z AUTO 08002KT 4SM M09/M13 A3015 RMK T10901130 IEM_DS3505
ZBHH,2010-01-06 09:00,ZBHH 060900Z AUTO 27002KT 6SM M09/M12 A3015 RMK SLP329 T10911122 52008 IEM_DS3505
ZBHH,2010-01-06 10:00,ZBHH 061000Z AUTO 04002KT 3SM M10/M12 A3018 RMK T11001120 IEM_DS3505
ZBHH,2010-01-06 11:00,ZBHH 061100Z AUTO 11004KT 4SM M10/M12 A3018 RMK T11001120 IEM_DS3505
ZBHH,2010-01-06 12:00,ZBHH 061200Z AUTO 07004KT 6SM M09/M12 A3021 RMK 60000 SLP342 T10941125 52013 IEM_DS3505
ZBHH,2010-01-06 13:00,ZBHH 061300Z AUTO 05002KT 4SM M11/M12 A3021 RMK T11101120 IEM_DS3505
ZBHH,2010-01-06 14:00,ZBHH 061400Z AUTO 00000KT 4SM M12/M14 A3021 RMK T11201140 IEM_DS3505
ZBHH,2010-01-06 15:00,ZBHH 061500Z AUTO 00000KT 6SM M11/M13 A3024 RMK SLP343 T11091134 52006 IEM_DS3505
ZBHH,2010-01-06 16:00,ZBHH 061600Z AUTO 10002KT 4SM M15/M17 A3021 RMK T11501170 IEM_DS3505
ZBHH,2010-01-06 17:00,ZBHH 061700Z AUTO 09004KT 4SM M15/M18 A3021 RMK T11501180 IEM_DS3505
ZBHH,2010-01-06 18:00,ZBHH 061800Z AUTO 09004KT 6SM M13/M17 A3021 RMK 60000 SLP341 T11321168 57001 IEM_DS3505
ZBHH,2010-01-06 19:00,ZBHH 061900Z AUTO 09004KT 4SM M18/M20 A3024 RMK T11801200 IEM_DS3505
ZBHH,2010-01-06 20:00,ZBHH 062000Z AUTO 06004KT 4SM M17/M20 A3024 RMK T11701200 IEM_DS3505
ZBHH,2010-01-06 21:00,ZBHH 062100Z AUTO 09002KT 6SM M14/M17 A3024 RMK 70001 SLP351 T11381171 52006 IEM_DS3505
ZBHH,2010-01-06 22:00,ZBHH 062200Z AUTO 07004KT 3SM M15/M18 A3024 RMK T11501180 IEM_DS3505
ZBHH,2010-01-06 23:00,ZBHH 062300Z AUTO 08004KT 3SM M16/M18 A3024 RMK T11601180 IEM_DS3505
ZBHH,2010-01-07 00:00,ZBHH 070000Z AUTO 09002KT 6SM M14/M17 A3027 RMK 70001 SLP361 T11401167 52008 IEM_DS3505
ZBHH,2010-01-07 01:00,ZBHH 070100Z AUTO 07008KT 1 1/2SM M15/M17 A3027 RMK T11501170 IEM_DS3505
ZBHH,2010-01-07 02:00,ZBHH 070200Z AUTO 13002KT 1 1/2SM M14/M16 A3027 RMK T11401160 IEM_DS3505
ZBHH,2010-01-07 03:00,ZBHH 070300Z AUTO 07004KT 5SM M11/M16 A3027 RMK SLP356 T11131155 57002 IEM_DS3505
ZBHH,2010-01-07 04:00,ZBHH 070400Z AUTO 18002KT 1 1/4SM M11/M14 A3024 RMK T11101140 IEM_DS3505
ZBHH,2010-01-07 05:00,ZBHH 070500Z AUTO 20004KT 1 1/4SM M10/M13 A3021 RMK T11001130 IEM_DS3505
ZBHH,2010-01-07 06:00,ZBHH 070600Z AUTO 25004KT 4SM M10/M13 A3018 RMK 60001 SLP334 T10951134 57020 IEM_DS3505
ZBHH,2010-01-07 07:00,ZBHH 070700Z AUTO 07002KT 1SM M10/M13 A3018 RMK T11001130 IEM_DS3505
ZBHH,2010-01-07 08:00,ZBHH 070800Z AUTO 12002KT 1SM M10/M13 A3018 RMK T11001130 IEM_DS3505
ZBHH,2010-01-07 09:00,ZBHH 070900Z AUTO 07002KT 4SM M10/M14 A3015 RMK SLP329 T11031136 57008 IEM_DS3505
ZBHH,2010-01-07 10:00,ZBHH 071000Z AUTO 06002KT 2SM M12/M14 A3015 RMK T11201140 IEM_DS3505
ZBHH,2010-01-07 11:00,ZBHH 071100Z AUTO 02004KT 2 1/2SM M13/M14 A3015 RMK T11301140 IEM_DS3505
ZBHH,2010-01-07 12:00,ZBHH 071200Z AUTO 07004KT 6SM M11/M14 A3012 RMK 60000 SLP320 T11061138 57009 IEM_DS3505
ZBHH,2010-01-07 13:00,ZBHH 071300Z AUTO 01002KT 2 1/2SM M12/M14 A3012 RMK T11201140 IEM_DS3505
ZBHH,2010-01-07 14:00,ZBHH 071400Z AUTO 08002KT 2 1/2SM M13/M15 A3009 RMK T11301150 IEM_DS3505
ZBHH,2010-01-07 15:00,ZBHH 071500Z AUTO 00000KT 6SM M12/M15 A3009 RMK SLP295 T11181147 57018 IEM_DS3505
ZBHH,2010-01-07 16:00,ZBHH 071600Z AUTO 08004KT 3SM M14/M16 A3006 RMK T11401160 IEM_DS3505
ZBHH,2010-01-07 17:00,ZBHH 071700Z AUTO 08006KT 3SM M12/M14 A3000 RMK T11201140 IEM_DS3505
ZBHH,2010-01-07 18:00,ZBHH 071800Z AUTO 07002KT 6SM M12/M14 A3000 RMK SLP259 T11161139 57027 IEM_DS3505
ZBHH,2010-01-07 19:00,ZBHH 071900Z AUTO 08004KT 4SM M13/M15 A2997 RMK T11301150 IEM_DS3505
ZBHH,2010-01-07 20:00,ZBHH 072000Z AUTO 06004KT 4SM M13/M15 A2994 RMK T11301150 IEM_DS3505
ZBHH,2010-01-07 21:00,ZBHH 072100Z AUTO 32002KT 6SM M13/M14 A2991 RMK 70002 SLP234 T11271144 57026 IEM_DS3505
ZBHH,2010-01-07 22:00,ZBHH 072200Z AUTO 08006KT 4SM M13/M15 A2988 RMK T11301150 IEM_DS3505
ZBHH,2010-01-07 23:00,ZBHH 072300Z AUTO 03002KT 4SM M13/M15 A2988 RMK T11301150 IEM_DS3505
ZBHH,2010-01-08 00:00,ZBHH 080000Z AUTO 09002KT 3SM M11/M13 A2988 RMK 70002 SLP220 T11101130 57009 IEM_DS3505
ZBHH,2010-01-08 01:00,ZBHH 080100Z AUTO 09006KT 2 1/2SM M10/M12 A2985 RMK T11001120 IEM_DS3505
ZBHH,2010-01-08 02:00,ZBHH 080200Z AUTO 05004KT 2SM M08/M11 A2985 RMK T10801110 IEM_DS3505
ZBHH,2010-01-08 03:00,ZBHH 080300Z AUTO 00000KT 5SM M05/M09 A2983 RMK SLP197 T10501093 57009 IEM_DS3505
ZBHH,2010-01-08 04:00,ZBHH 080400Z AUTO 02002KT 1 1/2SM M05/M09 A2983 RMK T10501090 IEM_DS3505
ZBHH,2010-01-08 05:00,ZBHH 080500Z AUTO 21002KT 1 1/4SM M03/M08 A2983 RMK T10301080 IEM_DS3505
ZBHH,2010-01-08 06:00,ZBHH 080600Z AUTO 27002KT 5SM M00/M09 A2980 RMK SLP169 T10021086 57013 IEM_DS3505
ZBHH,2010-01-08 07:00,ZBHH 080700Z AUTO 22006KT 3SM M01/M07 A2983 RMK T10101070 IEM_DS3505
ZBHH,2010-01-08 08:00,ZBHH 080800Z AUTO 36016KT 7SM M06/M12 A2985 RMK T10601120 IEM_DS3505
ZBHH,2010-01-08 09:00,ZBHH 080900Z AUTO 34008KT 5SM M07/M14 A2988 RMK SLP222 T10661144 52029 IEM_DS3505
ZBHH,2010-01-08 10:00,ZBHH 081000Z AUTO 34019KT 7SM M10/M15 A2994 RMK T11001150 IEM_DS3505
ZBHH,2010-01-08 11:00,ZBHH 081100Z AUTO 34019KT 7SM M10/M16 A2997 RMK T11001160 IEM_DS3505
ZBHH,2010-01-08 12:00,ZBHH 081200Z AUTO 29010KT 19SM M10/M18 A3000 RMK SLP268 T10991177 52037 IEM_DS3505
ZBHH,2010-01-08 13:00,ZBHH 081300Z AUTO 36012KT 7SM M10/M16 A3003 RMK T11001160 IEM_DS3505
ZBHH,2010-01-08 14:00,ZBHH 081400Z AUTO 35012KT 7SM M11/M17 A3003 RMK T11101170 IEM_DS3505
ZBHH,2010-01-08 15:00,ZBHH 081500Z AUTO 32008KT 19SM M10/M18 A3006 RMK SLP273 T11031183 52017 IEM_DS3505
ZBHH,2010-01-08 16:00,ZBHH 081600Z AUTO 34010KT 7SM M10/M17 A3009 RMK T11001170 IEM_DS3505
ZBHH,2010-01-08 17:00,ZBHH 081700Z AUTO 33016KT 7SM M11/M18 A3009 RMK T11101180 IEM_DS3505
ZBHH,2010-01-08 18:00,ZBHH 081800Z AUTO 34006KT 19SM M10/M18 A3009 RMK SLP270 T11021184 52008 IEM_DS3505
ZBHH,2010-01-08 19:00,ZBHH 081900Z AUTO 34014KT 7SM M11/M17 A3009 RMK T11101170 IEM_DS3505
ZBHH,2010-01-08 20:00,ZBHH 082000Z AUTO 35004KT 7SM M11/M17 A3009 RMK T11101170 IEM_DS3505
ZBHH,2010-01-08 21:00,ZBHH 082100Z AUTO 34008KT 19SM M10/M16 A3009 RMK SLP284 T11011162 57002 IEM_DS3505
ZBHH,2010-01-08 22:00,ZBHH 082200Z AUTO 05004KT 7SM M16/M19 A3009 RMK T11601190 IEM_DS3505
ZBHH,2010-01-08 23:00,ZBHH 082300Z AUTO 07004KT 6SM M17/M20 A3012 RMK T11701200 IEM_DS3505
ZBHH,2010-01-09 00:00,ZBHH 090000Z AUTO 07002KT 19SM M13/M18 A3015 RMK SLP317 T11301178 52015 IEM_DS3505
ZBHH,2010-01-09 01:00,ZBHH 090100Z AUTO 30002KT 6SM M17/M20 A3018 RMK T11701200 IEM_DS3505
ZBHH,2010-01-09 02:00,ZBHH 090200Z AUTO 07004KT 6SM M12/M17 A3021 RMK T11201170 IEM_DS3505
ZBHH,2010-01-09 03:00,ZBHH 090300Z AUTO 22004KT 9SM M09/M16 A3021 RMK SLP336 T10921159 52024 IEM_DS3505
ZBHH,2010-01-09 04:00,ZBHH 090400Z AUTO 30002KT 6SM M09/M15 A3021 RMK T10901150 IEM_DS3505
ZBHH,2010-01-09 05:00,ZBHH 090500Z AUTO 06002KT 6SM M07/M15 A3015 RMK T10701150 IEM_DS3505
ZBHH,2010-01-09 06:00,ZBHH 090600Z AUTO 27004KT 6SM M07/M15 A3015 RMK SLP304 T10731152 57023 IEM_DS3505
ZBHH,2010-01-09 07:00,ZBHH 090700Z AUTO 27006KT 6SM M07/M14 A3015 RMK T10701140 IEM_DS3505
ZBHH,2010-01-09 08:00,ZBHH 090800Z AUTO 05004KT 6SM M06/M14 A3015 RMK T10601140 IEM_DS3505
ZBHH,2010-01-09 09:00,ZBHH 090900Z AUTO 09002KT 9SM M06/M15 A3018 RMK SLP307 T10631150 52005 IEM_DS3505
ZBHH,2010-01-09 10:00,ZBHH 091000Z AUTO 07004KT 6SM M09/M15 A3018 RMK T10901150 IEM_DS3505
ZBHH,2010-01-09 11:00,ZBHH 091100Z AUTO 36002KT 6SM M10/M15 A3021 RMK T11001150 IEM_DS3505
ZBHH,2010-01-09 12:00,ZBHH 091200Z AUTO 27002KT 5SM M09/M15 A3024 RMK SLP344 T10921146 52019 IEM_DS3505
ZBHH,2010-01-09 13:00,ZBHH 091300Z AUTO 09006KT 6SM M15/M17 A3024 RMK T11501170 IEM_DS3505
ZBHH,2010-01-09 14:00,ZBHH 091400Z AUTO 06004KT 6SM M14/M17 A3024 RMK T11401170 IEM_DS3505
ZBHH,2010-01-09 15:00,ZBHH 091500Z AUTO 09002KT 5SM M11/M15 A3024 RMK SLP342 T11131153 52002 IEM_DS3505
ZBHH,2010-01-09 16:00,ZBHH 091600Z AUTO 07006KT 6SM M16/M19 A3021 RMK T11601190 IEM_DS3505
ZBHH,2010-01-09 17:00,ZBHH 091700Z AUTO 06002KT 6SM M15/M18 A3024 RMK T11501180 IEM_DS3505
ZBHH,2010-01-09 18:00,ZBHH 091800Z AUTO 34002KT 5SM M12/M15 A3024 RMK SLP340 T11221154 52001 IEM_DS3505
ZBHH,2010-01-09 19:00,ZBHH 091900Z AUTO 12002KT 6SM M18/M20 A3024 RMK T11801200 IEM_DS3505
ZBHH,2010-01-09 20:00,ZBHH 092000Z AUTO 07004KT 6SM M17/M20 A3024 RMK T11701200 IEM_DS3505
ZBHH,2010-01-09 21:00,ZBHH 092100Z AUTO 02002KT 5SM M13/M16 A3024 RMK SLP344 T11281163 52004 IEM_DS3505
ZBHH,2010-01-09 22:00,ZBHH 092200Z AUTO 12002KT 6SM M16/M19 A3027 RMK T11601190 IEM_DS3505
ZBHH,2010-01-09 23:00,ZBHH 092300Z AUTO 09002KT 6SM M15/M18 A3027 RMK T11501180 IEM_DS3505
ZBHH,2010-01-10 00:00,ZBHH 100000Z AUTO 32002KT 3SM M12/M15 A3030 RMK SLP363 T11181153 52012 IEM_DS3505
ZBHH,2010-01-10 01:00,ZBHH 100100Z AUTO 00000KT 3SM M14/M16 A3030 RMK T11401160 IEM_DS3505
ZBHH,2010-01-10 02:00,ZBHH 100200Z AUTO 14002KT 3SM M12/M15 A3030 RMK T11201150 IEM_DS3505
ZBHH,2010-01-10 03:00,ZBHH 100300Z AUTO 22004KT 4SM M09/M14 A3030 RMK SLP370 T10901140 52008 IEM_DS3505
ZBHH,2010-01-10 04:00,ZBHH 100400Z AUTO 24004KT 4SM M08/M13 A3030 RMK T10801130 IEM_DS3505
ZBHH,2010-01-10 05:00,ZBHH 100500Z AUTO 34014KT 7SM M07/M14 A3027 RMK T10701140 IEM_DS3505
ZBHH,2010-01-10 06:00,ZBHH 100600Z AUTO 29006KT 4SM M07/M16 A3030 RMK SLP364 T10681162 57002 IEM_DS3505
ZBHH,2010-01-10 07:00,ZBHH 100700Z AUTO 35016KT 7SM M10/M17 A3033 RMK T11001170 IEM_DS3505
ZBHH,2010-01-10 08:00,ZBHH 100800Z AUTO 36016KT 7SM M11/M18 A3036 RMK T11101180 IEM_DS3505
ZBHH,2010-01-10 09:00,ZBHH 100900Z AUTO 34006KT 6SM M11/M19 A3039 RMK SLP394 T11061190 52016 IEM_DS3505
ZBHH,2010-01-10 10:00,ZBHH 101000Z AUTO 35010KT 7SM M13/M20 A3039 RMK T11301200 IEM_DS3505
ZBHH,2010-01-10 11:00,ZBHH 101100Z AUTO 34017KT 6SM M14/M21 A3042 RMK T11401210 IEM_DS3505
ZBHH,2010-01-10 12:00,ZBHH 101200Z AUTO 02002KT 19SM M13/M21 A3045 RMK SLP429 T11341212 52026 IEM_DS3505
ZBHH,2010-01-10 13:00,ZBHH 101300Z AUTO 34016KT 6SM M15/M22 A3045 RMK T11501220 IEM_DS3505
ZBHH,2010-01-10 14:00,ZBHH 101400Z AUTO 35012KT 6SM M15/M21 A3045 RMK T11501210 IEM_DS3505
ZBHH,2010-01-10 15:00,ZBHH 101500Z AUTO 04002KT 19SM M15/M22 A3047 RMK SLP434 T11471224 52008 IEM_DS3505
ZBHH,2010-01-10 16:00,ZBHH 101600Z AUTO 01008KT 6SM M15/M23 A3047 RMK T11501230 IEM_DS3505
ZBHH,2010-01-10 17:00,ZBHH 101700Z AUTO 32012KT 6SM M17/M23 A3045 RMK T11701230 IEM_DS3505
ZBHH,2010-01-10 18:00,ZBHH 101800Z AUTO 32002KT 19SM M16/M26 A3045 RMK SLP426 T11621256 57006 IEM_DS3505
ZBHH,2010-01-10 19:00,ZBHH 101900Z AUTO 35016KT 6SM M17/M26 A3045 RMK T11701260 IEM_DS3505
ZBHH,2010-01-10 20:00,ZBHH 102000Z AUTO 01012KT 6SM M17/M26 A3045 RMK T11701260 IEM_DS3505
ZBHH,2010-01-10 21:00,ZBHH 102100Z AUTO 09004KT 19SM M18/M27 A3045 RMK SLP436 T11751271 57003 IEM_DS3505
ZBHH,2010-01-10 22:00,ZBHH 102200Z AUTO 09004KT 6SM M22/M27 A3045 RMK T12201270 IEM_DS3505
ZBHH,2010-01-10 23:00,ZBHH 102300Z AUTO 07006KT 6SM M24/M28 A3045 RMK T12401280 IEM_DS3505
ZBHH,2010-01-11 00:00,ZBHH 110000Z AUTO 18004KT 19SM M18/M24 A3045 RMK SLP448 T11811242 52002 IEM_DS3505
ZBHH,2010-01-11 01:00,ZBHH 110100Z AUTO 11002KT 6SM M21/M27 A3045 RMK T12101270 IEM_DS3505
ZBHH,2010-01-11 02:00,ZBHH 110200Z AUTO 13002KT 6SM M18/M26 A3045 RMK T11801260 IEM_DS3505
ZBHH,2010-01-11 03:00,ZBHH 110300Z AUTO 25004KT 12SM M16/M24 A3045 RMK SLP449 T11561239 52004 IEM_DS3505
ZBHH,2010-01-11 04:00,ZBHH 110400Z AUTO 23006KT 4SM M15/M23 A3042 RMK T11501230 IEM_DS3505
ZBHH,2010-01-11 05:00,ZBHH 110500Z AUTO 25006KT 4SM M13/M21 A3039 RMK T11301210 IEM_DS3505
ZBHH,2010-01-11 06:00,ZBHH 110600Z AUTO 25004KT 9SM M12/M20 A3036 RMK SLP404 T11251203 57035 IEM_DS3505
ZBHH,2010-01-11 07:00,ZBHH 110700Z AUTO 28004KT 4SM M12/M17 A3033 RMK T11201170 IEM_DS3505
ZBHH,2010-01-11 08:00,ZBHH 110800Z AUTO 36004KT 3SM M13/M16 A3033 RMK T11301160 IEM_DS3505
ZBHH,2010-01-11 09:00,ZBHH 110900Z AUTO 36002KT 5SM M12/M15 A3030 RMK SLP392 T11211148 57013 IEM_DS3505
ZBHH,2010-01-11 10:00,ZBHH 111000Z AUTO 00000KT 2 1/2SM M13/M15 A3030 RMK T11301150 IEM_DS3505
ZBHH,2010-01-11 11:00,ZBHH 111100Z AUTO 02006KT 7SM M13/M17 A3030 RMK T11301170 IEM_DS3505
ZBHH,2010-01-11 12:00,ZBHH 111200Z AUTO 34006KT 12SM M13/M21 A3033 RMK 60001 SLP404 T11341209 52006 IEM_DS3505
ZBHH,2010-01-11 13:00,ZBHH 111300Z AUTO 36008KT 7SM M16/M22 A3033 RMK T11601220 IEM_DS3505
ZBHH,2010-01-11 14:00,ZBHH 111400Z AUTO 36012KT 6SM M17/M22 A3033 RMK T11701220 IEM_DS3505
ZBHH,2010-01-11 15:00,ZBHH 111500Z AUTO 34006KT 19SM M17/M24 A3033 RMK SLP400 T11701245 57006 IEM_DS3505
ZBHH,2010-01-11 16:00,ZBHH 111600Z AUTO 01010KT 6SM M18/M24 A3030 RMK T11801240 IEM_DS3505
ZBHH,2010-01-11 17:00,ZBHH 111700Z AUTO 01008KT 6SM M19/M25 A3027 RMK T11901250 IEM_DS3505
ZBHH,2010-01-11 18:00,ZBHH 111800Z AUTO 36004KT 19SM M18/M27 A3027 RMK SLP380 T11821268 57013 IEM_DS3505
ZBHH,2010-01-11 19:00,ZBHH 111900Z AUTO 35008KT 6SM M20/M26 A3027 RMK T12001260 IEM_DS3505
ZBHH,2010-01-11 20:00,ZBHH 112000Z AUTO 36010KT 6SM M20/M27 A3027 RMK T12001270 IEM_DS3505
ZBHH,2010-01-11 21:00,ZBHH 112100Z AUTO 29008KT 19SM M20/M28 A3024 RMK 70001 SLP381 T12001284 57003 IEM_DS3505
ZBHH,2010-01-11 22:00,ZBHH 112200Z AUTO 35014KT 6SM M22/M29 A3024 RMK T12201290 IEM_DS3505
ZBHH,2010-01-11 23:00,ZBHH 112300Z AUTO 35010KT 6SM M22/M29 A3024 RMK T12201290 IEM_DS3505
ZBHH,2010-01-12 00:00,ZBHH 120000Z AUTO 32010KT 19SM M22/M31 A3027 RMK 70001 SLP391 T12191311 52001 IEM_DS3505
ZBHH,2010-01-12 01:00,ZBHH 120100Z AUTO 36019G29KT 7SM M22/M30 A3027 RMK T12201300 IEM_DS3505
ZBHH,2010-01-12 02:00,ZBHH 120200Z AUTO 36014KT 7SM M22/M30 A3033 RMK T12201300 IEM_DS3505
ZBHH,2010-01-12 03:00,ZBHH 120300Z AUTO 34006KT 19SM M20/M30 A3036 RMK SLP431 T12041303 52030 IEM_DS3505
ZBHH,2010-01-12 04:00,ZBHH 120400Z AUTO 36012KT 6SM M21/M29 A3036 RMK T12101290 IEM_DS3505
ZBHH,2010-01-12 05:00,ZBHH 120500Z AUTO 35016KT 6SM M21/M29 A3033 RMK T12101290 IEM_DS3505
ZBHH,2010-01-12 06:00,ZBHH 120600Z AUTO 29008KT 19SM M18/M30 A3033 RMK SLP423 T11841298 57005 IEM_DS3505
ZBHH,2010-01-12 07:00,ZBHH 120700Z AUTO 34016KT 6SM M19/M28 A3033 RMK T11901280 IEM_DS3505
ZBHH,2010-01-12 08:00,ZBHH 120800Z AUTO 36012KT 6SM M19/M28 A3036 RMK T11901280 IEM_DS3505
ZBHH,2010-01-12 09:00,ZBHH 120900Z AUTO 36008KT 19SM M19/M28 A3039 RMK SLP442 T11861278 52011 IEM_DS3505
ZBHH,2010-01-12 10:00,ZBHH 121000Z AUTO 36010KT 6SM M20/M29 A3039 RMK T12001290 IEM_DS3505
ZBHH,2010-01-12 11:00,ZBHH 121100Z AUTO 35004KT 6SM M21/M29 A3042 RMK T12101290 IEM_DS3505
ZBHH,2010-01-12 12:00,ZBHH 121200Z AUTO 32008KT 19SM M20/M28 A3039 RMK SLP461 T11971284 52009 IEM_DS3505
ZBHH,2010-01-12 13:00,ZBHH 121300Z AUTO 35008KT 6SM M22/M29 A3042 RMK T12201290 IEM_DS3505
ZBHH,2010-01-12 14:00,ZBHH 121400Z AUTO 35008KT 6SM M22/M29 A3042 RMK T12201290 IEM_DS3505
ZBHH,2010-01-12 15:00,ZBHH 121500Z AUTO 25002KT 19SM M21/M29 A3042 RMK SLP463 T12071289 52003 IEM_DS3505
ZBHH,2010-01-12 16:00,ZBHH 121600Z AUTO 01010KT 6SM M21/M29 A3042 RMK T12101290 IEM_DS3505
ZBHH,2010-01-12 17:00,ZBHH 121700Z AUTO 35008KT 6SM M22/M30 A3039 RMK T12201300 IEM_DS3505
ZBHH,2010-01-12 18:00,ZBHH 121800Z AUTO 27002KT 19SM M22/M27 A3039 RMK SLP448 T12171274 57010 IEM_DS3505
ZBHH,2010-01-12 19:00,ZBHH 121900Z AUTO 10002KT 6SM M27/M32 A3036 RMK T12701320 IEM_DS3505
ZBHH,2010-01-12 20:00,ZBHH 122000Z AUTO 09004KT 6SM M28/M33 A3036 RMK T12801330 IEM_DS3505
ZBHH,2010-01-12 21:00,ZBHH 122100Z AUTO 32002KT 19SM M23/M28 A3033 RMK SLP436 T12281284 57014 IEM_DS3505
ZBHH,2010-01-12 22:00,ZBHH 122200Z AUTO 04006KT 6SM M28/M33 A3033 RMK T12801330 IEM_DS3505
ZBHH,2010-01-12 23:00,ZBHH 122300Z AUTO 07004KT 6SM M30/M34 A3033 RMK T13001340 IEM_DS3505
ZBHH,2010-01-13 00:00,ZBHH 130000Z AUTO 09004KT 4SM M24/M29 A3033 RMK SLP439 T12371293 57002 IEM_DS3505
ZBHH,2010-01-13 01:00,ZBHH 130100Z AUTO 09004KT 6SM M26/M30 A3033 RMK T12601300 IEM_DS3505
ZBHH,2010-01-13 02:00,ZBHH 130200Z AUTO 09004KT 6SM M22/M28 A3033 RMK T12201280 IEM_DS3505
ZBHH,2010-01-13 03:00,ZBHH 130300Z AUTO 04004KT 3SM M20/M28 A3033 RMK SLP427 T11951275 57003 IEM_DS3505
ZBHH,2010-01-13 04:00,ZBHH 130400Z AUTO 14004KT 6SM M18/M26 A3027 RMK T11801260 IEM_DS3505
ZBHH,2010-01-13 05:00,ZBHH 130500Z AUTO 25004KT 6SM M17/M26 A3021 RMK T11701260 IEM_DS3505
ZBHH,2010-01-13 06:00,ZBHH 130600Z AUTO 14002KT 5SM M16/M26 A3018 RMK SLP367 T11571260 57045 IEM_DS3505
ZBHH,2010-01-13 07:00,ZBHH 130700Z AUTO 28004KT 6SM M15/M25 A3015 RMK T11501250 IEM_DS3505
ZBHH,2010-01-13 08:00,ZBHH 130800Z AUTO 05002KT 6SM M15/M25 A3012 RMK T11501250 IEM_DS3505
ZBHH,2010-01-13 09:00,ZBHH 130900Z AUTO 07004KT 9SM M15/M26 A3009 RMK SLP341 T11531259 57024 IEM_DS3505
ZBHH,2010-01-13 10:00,ZBHH 131000Z AUTO 06004KT 7SM M16/M25 A3009 RMK T11601250 IEM_DS3505
ZBHH,2010-01-13 11:00,ZBHH 131100Z AUTO 10002KT 7SM M16/M25 A3009 RMK T11601250 IEM_DS3505
ZBHH,2010-01-13 12:00,ZBHH 131200Z AUTO 04002KT 7SM M15/M26 A3006 RMK SLP330 T11511257 57011 IEM_DS3505
ZBHH,2010-01-13 13:00,ZBHH 131300Z AUTO 02002KT 7SM M17/M24 A3003 RMK T11701240 IEM_DS3505
ZBHH,2010-01-13 14:00,ZBHH 131400Z AUTO 06004KT 7SM M18/M25 A3003 RMK T11801250 IEM_DS3505
ZBHH,2010-01-13 15:00,ZBHH 131500Z AUTO 04002KT 9SM M16/M24 A3000 RMK SLP304 T11571244 57014 IEM_DS3505
ZBHH,2010-01-13 16:00,ZBHH 131600Z AUTO 09002KT 7SM M20/M25 A3000 RMK T12001250 IEM_DS3505
ZBHH,2010-01-13 17:00,ZBHH 131700Z AUTO 02004KT 7SM M20/M26 A2997 RMK T12001260 IEM_DS3505
ZBHH,2010-01-13 18:00,ZBHH 131800Z AUTO 00000KT 9SM M18/M24 A2997 RMK SLP283 T11771236 57014 IEM_DS3505
ZBHH,2010-01-13 19:00,ZBHH 131900Z AUTO 07006KT 7SM M23/M27 A2997 RMK T12301270 IEM_DS3505
ZBHH,2010-01-13 20:00,ZBHH 132000Z AUTO 04006KT 7SM M20/M25 A2997 RMK T12001250 IEM_DS3505
ZBHH,2010-01-13 21:00,ZBHH 132100Z AUTO 27002KT 9SM M17/M22 A2997 RMK SLP288 T11691219 52007 IEM_DS3505
ZBHH,2010-01-13 22:00,ZBHH 132200Z AUTO 05004KT 7SM M20/M25 A3000 RMK T12001250 IEM_DS3505
ZBHH,2010-01-13 23:00,ZBHH 132300Z AUTO 02002KT 7SM M19/M24 A3003 RMK T11901240 IEM_DS3505
ZBHH,2010-01-14 00:00,ZBHH 140000Z AUTO 04002KT 6SM M17/M22 A3006 RMK SLP317 T11701222 52026 IEM_DS3505
ZBHH,2010-01-14 01:00,ZBHH 140100Z AUTO 10002KT 4SM M19/M23 A3009 RMK T11901230 IEM_DS3505
ZBHH,2010-01-14 02:00,ZBHH 140200Z AUTO 13002KT 4SM M16/M22 A3012 RMK T11601220 IEM_DS3505
ZBHH,2010-01-14 03:00,ZBHH 140300Z AUTO 18002KT 3SM M13/M21 A3015 RMK SLP329 T11271207 52019 IEM_DS3505
ZBHH,2010-01-14 04:00,ZBHH 140400Z AUTO 22004KT 4SM M11/M20 A3015 RMK T11101200 IEM_DS3505
ZBHH,2010-01-14 05:00,ZBHH 140500Z AUTO 25008KT 4SM M09/M19 A3015 RMK T10901190 IEM_DS3505
ZBHH,2010-01-14 06:00,ZBHH 140600Z AUTO 20002KT 4SM M07/M20 A3015 RMK SLP330 T10701199 52010 IEM_DS3505
ZBHH,2010-01-14 07:00,ZBHH 140700Z AUTO 33010KT 6SM M08/M15 A3021 RMK T10801150 IEM_DS3505
ZBHH,2010-01-14 08:00,ZBHH 140800Z AUTO 33012KT 6SM M08/M15 A3024 RMK T10801150 IEM_DS3505
ZBHH,2010-01-14 09:00,ZBHH 140900Z AUTO 02006KT 19SM M08/M18 A3027 RMK SLP361 T10801176 52026 IEM_DS3505
ZBHH,2010-01-14 10:00,ZBHH 141000Z AUTO 36010KT 6SM M10/M16 A3027 RMK T11001160 IEM_DS3505
ZBHH,2010-01-14 11:00,ZBHH 141100Z AUTO 35008KT 6SM M11/M17 A3030 RMK T11101170 IEM_DS3505
ZBHH,2010-01-14 12:00,ZBHH 141200Z AUTO 29008KT 19SM M11/M21 A3033 RMK SLP400 T11091213 52027 IEM_DS3505
ZBHH,2010-01-14 13:00,ZBHH 141300Z AUTO 32014KT 6SM M13/M20 A3036 RMK T11301200 IEM_DS3505
ZBHH,2010-01-14 14:00,ZBHH 141400Z AUTO 30008KT 6SM M13/M20 A3036 RMK T11301200 IEM_DS3505
ZBHH,2010-01-14 15:00,ZBHH 141500Z AUTO 32006KT 19SM M12/M22 A3039 RMK SLP409 T11251222 52014 IEM_DS3505
ZBHH,2010-01-14 16:00,ZBHH 141600Z AUTO 06006KT 6SM M16/M22 A3039 RMK T11601220 IEM_DS3505
ZBHH,2010-01-14 17:00,ZBHH 141700Z AUTO 08004KT 6SM M19/M23 A3039 RMK T11901230 IEM_DS3505
ZBHH,2010-01-14 18:00,ZBHH 141800Z AUTO 09002KT 19SM M14/M21 A3042 RMK SLP398 T11401213 52001 IEM_DS3505
ZBHH,2010-01-14 19:00,ZBHH 141900Z AUTO 07006KT 6SM M21/M25 A3042 RMK T12101250 IEM_DS3505
ZBHH,2010-01-14 21:00,ZBHH 142100Z AUTO 09002KT 19SM M17/M23 RMK SLP413 T11691226 52004 IEM_DS3505
ZBHH,2010-01-14 23:00,ZBHH 142300Z AUTO 04002KT 6SM M23/M26 A3045 RMK T12301260 IEM_DS3505
ZBHH,2010-01-15 00:00,ZBHH 150000Z AUTO 02002KT 5SM M17/M22 A3045 RMK SLP439 T11691219 52015 IEM_DS3505
ZBHH,2010-01-15 01:00,ZBHH 150100Z AUTO 07004KT 6SM M20/M24 A3047 RMK T12001240 IEM_DS3505
ZBHH,2010-01-15 02:00,ZBHH 150200Z AUTO 09004KT 6SM M15/M22 A3047 RMK T11501220 IEM_DS3505
ZBHH,2010-01-15 03:00,ZBHH 150300Z AUTO 11004KT 6SM M11/M22 A3047 RMK SLP435 T11061219 52008 IEM_DS3505
ZBHH,2010-01-15 04:00,ZBHH 150400Z AUTO 16002KT 6SM M09/M20 A3045 RMK T10901200 IEM_DS3505
ZBHH,2010-01-15 05:00,ZBHH 150500Z AUTO 23004KT 6SM M08/M19 A3042 RMK T10801190 IEM_DS3505
ZBHH,2010-01-15 06:00,ZBHH 150600Z AUTO 22002KT 6SM M07/M20 A3039 RMK SLP395 T10691201 57030 IEM_DS3505
ZBHH,2010-01-15 07:00,ZBHH 150700Z AUTO 33002KT 6SM M07/M18 A3036 RMK T10701180 IEM_DS3505
ZBHH,2010-01-15 08:00,ZBHH 150800Z AUTO 14002KT 6SM M06/M19 A3033 RMK T10601190 IEM_DS3505
ZBHH,2010-01-15 09:00,ZBHH 150900Z AUTO 07002KT 6SM M08/M20 A3033 RMK SLP390 T10791197 57013 IEM_DS3505
ZBHH,2010-01-15 10:00,ZBHH 151000Z AUTO 36004KT 6SM M10/M19 A3033 RMK T11001190 IEM_DS3505
ZBHH,2010-01-15 11:00,ZBHH 151100Z AUTO 02006KT 6SM M13/M19 A3033 RMK T11301190 IEM_DS3505
ZBHH,2010-01-15 12:00,ZBHH 151200Z AUTO 32002KT 19SM M11/M20 A3033 RMK SLP392 T11111195 57006 IEM_DS3505
ZBHH,2010-01-15 13:00,ZBHH 151300Z AUTO 08004KT 6SM M15/M21 A3033 RMK T11501210 IEM_DS3505
ZBHH,2010-01-15 14:00,ZBHH 151400Z AUTO 08006KT 6SM M15/M21 A3030 RMK T11501210 IEM_DS3505
ZBHH,2010-01-15 15:00,ZBHH 151500Z AUTO 07002KT 6SM M11/M18 A3030 RMK SLP367 T11121182 57007 IEM_DS3505
ZBHH,2010-01-15 16:00,ZBHH 151600Z AUTO 08006KT 6SM M15/M21 A3027 RMK T11501210 IEM_DS3505
ZBHH,2010-01-15 17:00,ZBHH 151700Z AUTO 07004KT 6SM M15/M21 A3027 RMK T11501210 IEM_DS3505
ZBHH,2010-01-15 18:00,ZBHH 151800Z AUTO 36002KT 5SM M11/M19 A3024 RMK SLP341 T11071191 57013 IEM_DS3505
ZBHH,2010-01-15 19:00,ZBHH 151900Z AUTO 07006KT 6SM M14/M19 A3024 RMK T11401190 IEM_DS3505
ZBHH,2010-01-15 20:00,ZBHH 152000Z AUTO 07006KT 6SM M13/M19 A3021 RMK T11301190 IEM_DS3505
ZBHH,2010-01-15 21:00,ZBHH 152100Z AUTO 36002KT 9SM M11/M19 A3024 RMK SLP338 T11131194 57006 IEM_DS3505
ZBHH,2010-01-15 22:00,ZBHH 152200Z AUTO 04004KT 6SM M15/M21 A3024 RMK T11501210 IEM_DS3505
ZBHH,2010-01-15 23:00,ZBHH 152300Z AUTO 07004KT 6SM M17/M22 A3024 RMK T11701220 IEM_DS3505
ZBHH,2010-01-16 00:00,ZBHH 160000Z AUTO 00000KT 5SM M13/M19 A3024 RMK SLP357 T11331188 52004 IEM_DS3505
ZBHH,2010-01-16 01:00,ZBHH 160100Z AUTO 08006KT 6SM M12/M19 A3027 RMK T11201190 IEM_DS3505
ZBHH,2010-01-16 02:00,ZBHH 160200Z AUTO 08004KT 6SM M08/M18 A3027 RMK T10801180 IEM_DS3505
ZBHH,2010-01-16 03:00,ZBHH 160300Z AUTO 09002KT 9SM M04/M19 A3030 RMK SLP347 T10351186 52014 IEM_DS3505
ZBHH,2010-01-16 04:00,ZBHH 160400Z AUTO 16002KT 6SM M03/M18 A3027 RMK T10301180 IEM_DS3505
ZBHH,2010-01-16 05:00,ZBHH 160500Z AUTO 19004KT 6SM M01/M17 A3024 RMK T10101170 IEM_DS3505
ZBHH,2010-01-16 06:00,ZBHH 160600Z AUTO 09002KT 9SM M01/M21 A3024 RMK SLP320 T10061208 57016 IEM_DS3505
ZBHH,2010-01-16 07:00,ZBHH 160700Z AUTO 18004KT 6SM 00/M16 A3024 RMK T00001160 IEM_DS3505
ZBHH,2010-01-16 08:00,ZBHH 160800Z AUTO 23002KT 6SM 00/M17 A3024 RMK T00001170 IEM_DS3505
ZBHH,2010-01-16 09:00,ZBHH 160900Z AUTO 04002KT 9SM M01/M18 A3024 RMK SLP326 T10111177 52003 IEM_DS3505
ZBHH,2010-01-16 10:00,ZBHH 161000Z AUTO 04002KT 6SM M05/M16 A3027 RMK T10501160 IEM_DS3505
ZBHH,2010-01-16 11:00,ZBHH 161100Z AUTO 04006KT 6SM M08/M16 A3027 RMK T10801160 IEM_DS3505
ZBHH,2010-01-16 12:00,ZBHH 161200Z AUTO 00000KT 9SM M06/M17 A3027 RMK SLP351 T10641172 52005 IEM_DS3505
ZBHH,2010-01-16 13:00,ZBHH 161300Z AUTO 07004KT 5SM M11/M18 A3027 RMK T11101180 IEM_DS3505
ZBHH,2010-01-16 14:00,ZBHH 161400Z AUTO 11002KT 5SM M11/M17 A3030 RMK T11101170 IEM_DS3505
ZBHH,2010-01-16 15:00,ZBHH 161500Z AUTO 36002KT 12SM M09/M16 A3030 RMK SLP339 T10921157 52005 IEM_DS3505
ZBHH,2010-01-16 16:00,ZBHH 161600Z AUTO 08004KT 6SM M14/M19 A3027 RMK T11401190 IEM_DS3505
ZBHH,2010-01-16 17:00,ZBHH 161700Z AUTO 08002KT 6SM M12/M17 A3027 RMK T11201170 IEM_DS3505
ZBHH,2010-01-16 18:00,ZBHH 161800Z AUTO 00000KT 12SM M10/M16 A3027 RMK SLP330 T11041159 57004 IEM_DS3505
ZBHH,2010-01-16 19:00,ZBHH 161900Z AUTO 05006KT 6SM M15/M19 A3027 RMK T11501190 IEM_DS3505
ZBHH,2010-01-16 20:00,ZBHH 162000Z AUTO 07004KT 6SM M16/M20 A3024 RMK T11601200 IEM_DS3505
ZBHH,2010-01-16 21:00,ZBHH 162100Z AUTO 00000KT 12SM M12/M17 A3024 RMK SLP325 T11171168 57008 IEM_DS3505
ZBHH,2010-01-16 22:00,ZBHH 162200Z AUTO 07006KT 6SM M16/M19 A3024 RMK T11601190 IEM_DS3505
ZBHH,2010-01-16 23:00,ZBHH 162300Z AUTO 07004KT 6SM M14/M18 A3024 RMK T11401180 IEM_DS3505
ZBHH,2010-01-17 00:00,ZBHH 170000Z AUTO 00000KT 4SM M12/M16 A3024 RMK SLP342 T11191161 52002 IEM_DS3505
ZBHH,2010-01-17 01:00,ZBHH 170100Z AUTO 08004KT 3SM M13/M17 A3027 RMK T11301170 IEM_DS3505
ZBHH,2010-01-17 02:00,ZBHH 170200Z AUTO 10004KT 3SM M08/M14 A3027 RMK T10801140 IEM_DS3505
ZBHH,2010-01-17 03:00,ZBHH 170300Z AUTO 09002KT 4SM M03/M15 A3027 RMK SLP335 T10261146 52009 IEM_DS3505
ZBHH,2010-01-17 04:00,ZBHH 170400Z AUTO 14002KT 4SM M01/M12 A3027 RMK T10101120 IEM_DS3505
ZBHH,2010-01-17 05:00,ZBHH 170500Z AUTO 16002KT 4SM 00/M12 A3024 RMK T00001120 IEM_DS3505
ZBHH,2010-01-17 06:00,ZBHH 170600Z AUTO 09002KT 4SM 00/M14 A3021 RMK SLP311 T00031137 57017 IEM_DS3505
ZBHH,2010-01-17 07:00,ZBHH 170700Z AUTO 28002KT 4SM 02/M13 A3021 RMK T00201130 IEM_DS3505
ZBHH,2010-01-17 08:00,ZBHH 170800Z AUTO 32002KT 3SM 01/M13 A3021 RMK T00101130 IEM_DS3505
ZBHH,2010-01-17 09:00,ZBHH 170900Z AUTO 07002KT 4SM 00/M14 A3024 RMK SLP316 T00011139 52001 IEM_DS3505
ZBHH,2010-01-17 10:00,ZBHH 171000Z AUTO 02002KT 4SM M02/M12 A3024 RMK T10201120 IEM_DS3505
ZBHH,2010-01-17 11:00,ZBHH 171100Z AUTO 04006KT 3SM M07/M13 A3024 RMK T10701130 IEM_DS3505
ZBHH,2010-01-17 12:00,ZBHH 171200Z AUTO 18002KT 5SM M04/M13 A3024 RMK SLP332 T10431134 52003 IEM_DS3505
ZBHH,2010-01-17 13:00,ZBHH 171300Z AUTO 07004KT 3SM M08/M13 A3024 RMK T10801130 IEM_DS3505
ZBHH,2010-01-17 14:00,ZBHH 171400Z AUTO 06008KT 4SM M10/M14 A3024 RMK T11001140 IEM_DS3505
ZBHH,2010-01-17 15:00,ZBHH 171500Z AUTO 02002KT 6SM M07/M13 A3024 RMK SLP318 T10691128 52003 IEM_DS3505
ZBHH,2010-01-17 16:00,ZBHH 171600Z AUTO 07006KT 4SM M12/M16 A3027 RMK T11201160 IEM_DS3505
ZBHH,2010-01-17 17:00,ZBHH 171700Z AUTO 06008KT 4SM M11/M15 A3024 RMK T11101150 IEM_DS3505
ZBHH,2010-01-17 18:00,ZBHH 171800Z AUTO 36002KT 9SM M09/M13 A3024 RMK SLP309 T10891130 57006 IEM_DS3505
ZBHH,2010-01-17 19:00,ZBHH 171900Z AUTO 04004KT 4SM M11/M15 A3021 RMK T11101150 IEM_DS3505
ZBHH,2010-01-17 20:00,ZBHH 172000Z AUTO 08006KT 4SM M12/M15 A3018 RMK T11201150 IEM_DS3505
ZBHH,2010-01-17 21:00,ZBHH 172100Z AUTO 09002KT 6SM M10/M14 A3015 RMK SLP287 T11051136 57023 IEM_DS3505
ZBHH,2010-01-17 22:00,ZBHH 172200Z AUTO 07008KT 5SM M13/M17 A3015 RMK T11301170 IEM_DS3505
ZBHH,2010-01-17 23:00,ZBHH 172300Z AUTO 09004KT 5SM M13/M16 A3015 RMK T11301160 IEM_DS3505
ZBHH,2010-01-18 00:00,ZBHH 180000Z AUTO 07002KT 3SM M10/M14 A3012 RMK SLP288 T10981137 57007 IEM_DS3505
ZBHH,2010-01-18 01:00,ZBHH 180100Z AUTO 07004KT 4SM M10/M14 A3015 RMK T11001140 IEM_DS3505
ZBHH,2010-01-18 02:00,ZBHH 180200Z AUTO 03002KT 3SM M06/M12 A3015 RMK T10601120 IEM_DS3505
ZBHH,2010-01-18 03:00,ZBHH 180300Z AUTO 09002KT 4SM M01/M11 A3012 RMK SLP274 T10071114 52002 IEM_DS3505
ZBHH,2010-01-18 04:00,ZBHH 180400Z AUTO 01002KT 4SM 02/M12 A3009 RMK T00201120 IEM_DS3505
ZBHH,2010-01-18 05:00,ZBHH 180500Z AUTO 34002KT 4SM 04/M11 A3006 RMK T00401110 IEM_DS3505
ZBHH,2010-01-18 06:00,ZBHH 180600Z AUTO 09004KT 5SM 06/M11 A3003 RMK SLP223 T00621114 57034 IEM_DS3505
ZBHH,2010-01-18 07:00,ZBHH 180700Z AUTO 09002KT 5SM A3000 RMK IEM_DS3505
ZBHH,2010-01-18 08:00,ZBHH 180800Z AUTO 04002KT 5SM 07/M11 A2997 RMK T00701110 IEM_DS3505
ZBHH,2010-01-18 09:00,ZBHH 180900Z AUTO 00000KT 4SM 04/M10 A2994 RMK SLP208 T00411096 57021 IEM_DS3505
ZBHH,2010-01-18 10:00,ZBHH 181000Z AUTO 06004KT 4SM 01/M12 A2994 RMK T00101120 IEM_DS3505
ZBHH,2010-01-18 11:00,ZBHH 181100Z AUTO 07006KT 4SM M02/M11 A2994 RMK T10201110 IEM_DS3505
ZBHH,2010-01-18 12:00,ZBHH 181200Z 07002MPS 9999 FEW040 M02/M10 Q1013 NOSIG
ZBHH,2010-01-18 13:00,ZBHH 181300Z AUTO 07010KT 7SM M04/M11 A2991 RMK T10401110 IEM_DS3505
ZBHH,2010-01-18 14:00,ZBHH 181400Z AUTO 07004KT 7SM M01/M09 A2994 RMK T10101090 IEM_DS3505
ZBHH,2010-01-18 15:00,ZBHH 181500Z AUTO 04002KT 3SM M04/M09 A2994 RMK SLP197 T10381094 52002 IEM_DS3505
ZBHH,2010-01-18 16:00,ZBHH 181600Z AUTO 06006KT 7SM M06/M11 A2994 RMK T10601110 IEM_DS3505
ZBHH,2010-01-18 17:00,ZBHH 181700Z AUTO 07006KT 7SM M04/M10 A2991 RMK T10401100 IEM_DS3505
ZBHH,2010-01-18 18:00,ZBHH 181800Z AUTO 02002KT 5SM M02/M11 A2991 RMK SLP173 T10251108 57003 IEM_DS3505
ZBHH,2010-01-18 19:00,ZBHH 181900Z AUTO 06006KT 7SM M05/M11 A2991 RMK T10501110 IEM_DS3505
ZBHH,2010-01-18 20:00,ZBHH 182000Z AUTO 07006KT 7SM M06/M12 A2991 RMK T10601120 IEM_DS3505
ZBHH,2010-01-18 21:00,ZBHH 182100Z AUTO 00000KT 6SM M05/M11 A2991 RMK SLP180 T10501107 57004 IEM_DS3505
ZBHH,2010-01-18 22:00,ZBHH 182200Z AUTO 07004KT 7SM M08/M13 A2991 RMK T10801130 IEM_DS3505
ZBHH,2010-01-18 23:00,ZBHH 182300Z AUTO 06006KT 7SM M09/M13 A2994 RMK T10901130 IEM_DS3505
ZBHH,2010-01-19 00:00,ZBHH 190000Z AUTO 00000KT 4SM M06/M11 A2994 RMK SLP211 T10641113 52011 IEM_DS3505
ZBHH,2010-01-19 01:00,ZBHH 190100Z AUTO 07004KT 3SM M09/M12 A2997 RMK T10901120 IEM_DS3505
ZBHH,2010-01-19 02:00,ZBHH 190200Z AUTO 10004KT 3SM M02/M09 A2997 RMK T10201090 IEM_DS3505
ZBHH,2010-01-19 03:00,ZBHH 190300Z AUTO 09002KT 4SM 02/M10 A3000 RMK SLP208 T00251101 52013 IEM_DS3505
ZBHH,2010-01-19 04:00,ZBHH 190400Z AUTO 14004KT 3SM 05/M09 A2997 RMK T00501090 IEM_DS3505
ZBHH,2010-01-19 05:00,ZBHH 190500Z AUTO 28002KT 3SM 06/M09 A2994 RMK T00601090 IEM_DS3505
ZBHH,2010-01-19 06:00,ZBHH 190600Z AUTO 14002KT 4SM 06/M10 A2994 RMK SLP179 T00631104 57015 IEM_DS3505
ZBHH,2010-01-19 07:00,ZBHH 190700Z AUTO 19004KT 3SM 06/M07 A2994 RMK T00601070 IEM_DS3505
ZBHH,2010-01-19 08:00,ZBHH 190800Z AUTO 26006KT 2 1/2SM 05/M07 A2997 RMK T00501070 IEM_DS3505
ZBHH,2010-01-19 09:00,ZBHH 190900Z AUTO 36010KT 5SM 05/M09 A2997 RMK SLP204 T00481094 52014 IEM_DS3505
ZBHH,2010-01-19 10:00,ZBHH 191000Z AUTO 35016KT 6SM 02/M08 A3000 RMK T00201080 IEM_DS3505
ZBHH,2010-01-19 11:00,ZBHH 191100Z AUTO 35023KT 6SM 00/M08 A3003 RMK T00001080 IEM_DS3505
ZBHH,2010-01-19 12:00,ZBHH 191200Z AUTO 32010KT 19SM M02/M10 A3009 RMK SLP256 T10181101 52028 IEM_DS3505
ZBHH,2010-01-19 13:00,ZBHH 191300Z AUTO 35023G33KT 6SM M03/M09 A3012 RMK T10301090 IEM_DS3505
ZBHH,2010-01-19 14:00,ZBHH 191400Z AUTO 36023G33KT 6SM M06/M13 A3018 RMK T10601130 IEM_DS3505
ZBHH,2010-01-19 15:00,ZBHH 191500Z AUTO 32012G35KT 19SM M08/M16 A3021 RMK SLP296 T10751164 52042 IEM_DS3505
ZBHH,2010-01-19 16:00,ZBHH 191600Z AUTO 35023G33KT 6SM M09/M16 A3027 RMK T10901160 IEM_DS3505
ZBHH,2010-01-19 17:00,ZBHH 191700Z AUTO 36025G35KT 6SM M10/M17 A3030 RMK T11001170 IEM_DS3505
ZBHH,2010-01-19 18:00,ZBHH 191800Z AUTO 32004G33KT 19SM M09/M19 A3030 RMK SLP323 T10911186 52028 IEM_DS3505
ZBHH,2010-01-19 19:00,ZBHH 191900Z AUTO 35023G33KT 7SM M11/M19 A3030 RMK T11101190 IEM_DS3505
ZBHH,2010-01-19 20:00,ZBHH 192000Z AUTO 34023G33KT 7SM M12/M19 A3030 RMK T11201190 IEM_DS3505
ZBHH,2010-01-19 21:00,ZBHH 192100Z AUTO 29010G33KT 12SM M12/M21 A3030 RMK SLP339 T11161209 52006 IEM_DS3505
ZBHH,2010-01-19 22:00,ZBHH 192200Z AUTO 34023G33KT 7SM M12/M20 A3036 RMK T11201200 IEM_DS3505
ZBHH,2010-01-19 23:00,ZBHH 192300Z AUTO 34023KT 7SM M13/M20 A3039 RMK T11301200 IEM_DS3505
ZBHH,2010-01-20 00:00,ZBHH 200000Z AUTO 32006KT 16SM M13/M22 A3042 RMK SLP398 T11281220 52034 IEM_DS3505
ZBHH,2010-01-20 01:00,ZBHH 200100Z AUTO 35023KT 7SM M14/M21 A3045 RMK T11401210 IEM_DS3505
ZBHH,2010-01-20 02:00,ZBHH 200200Z AUTO 34016G25KT 7SM M13/M21 A3047 RMK T11301210 IEM_DS3505
ZBHH,2010-01-20 03:00,ZBHH 200300Z AUTO 29004G25KT 19SM M12/M22 A3047 RMK T11151219 52019 IEM_DS3505
ZBHH,2010-01-20 04:00,ZBHH 200400Z AUTO 34017G27KT 6SM M12/M21 A3047 RMK T11201210 IEM_DS3505
ZBHH,2010-01-20 05:00,ZBHH 200500Z AUTO 34016G25KT 6SM M11/M21 A3047 RMK T11101210 IEM_DS3505
ZBHH,2010-01-20 06:00,ZBHH 200600Z AUTO 07004G27KT 19SM M10/M22 A3045 RMK SLP423 T11011220 57008 IEM_DS3505
ZBHH,2010-01-20 07:00,ZBHH 200700Z AUTO 34017G27KT 6SM M12/M21 A3045 RMK T11201210 IEM_DS3505
ZBHH,2010-01-20 08:00,ZBHH 200800Z AUTO 34017G27KT 7SM M12/M22 A3045 RMK T11201220 IEM_DS3505
ZBHH,2010-01-20 09:00,ZBHH 200900Z AUTO 00000KT 19SM M13/M23 A3047 RMK SLP440 T11261226 52003 IEM_DS3505
ZBHH,2010-01-20 10:00,ZBHH 201000Z AUTO 33012G21KT 7SM M14/M23 A3050 RMK T11401230 IEM_DS3505
ZBHH,2010-01-20 11:00,ZBHH 201100Z AUTO 32012G21KT 7SM M15/M23 A3056 RMK T11501230 IEM_DS3505
ZBHH,2010-01-20 12:00,ZBHH 201200Z AUTO 00000KT 12SM M15/M24 A3056 RMK SLP483 T11511237 52028 IEM_DS3505
ZBHH,2010-01-20 13:00,ZBHH 201300Z AUTO 36016KT 7SM M16/M23 A3056 RMK T11601230 IEM_DS3505
ZBHH,2010-01-20 14:00,ZBHH 201400Z AUTO 35012KT 6SM M16/M23 A3056 RMK T11601230 IEM_DS3505
ZBHH,2010-01-20 15:00,ZBHH 201500Z AUTO 00000KT 19SM M16/M24 A3053 RMK SLP471 T11641238 57010 IEM_DS3505
ZBHH,2010-01-20 16:00,ZBHH 201600Z AUTO 35010KT 6SM M17/M24 A3053 RMK T11701240 IEM_DS3505
ZBHH,2010-01-20 17:00,ZBHH 201700Z AUTO 34016KT 6SM M17/M24 A3053 RMK T11701240 IEM_DS3505
ZBHH,2010-01-20 18:00,ZBHH 201800Z AUTO 00000KT 19SM M17/M26 A3053 RMK SLP467 T11711255 57002 IEM_DS3505
ZBHH,2010-01-20 19:00,ZBHH 201900Z AUTO 36010KT 6SM M18/M25 A3053 RMK T11801250 IEM_DS3505
ZBHH,2010-01-20 20:00,ZBHH 202000Z AUTO 36010KT 6SM M18/M25 A3053 RMK T11801250 IEM_DS3505
ZBHH,2010-01-20 21:00,ZBHH 202100Z AUTO 00000KT 19SM M18/M27 A3050 RMK SLP465 T11781274 57009 IEM_DS3505
ZBHH,2010-01-20 22:00,ZBHH 202200Z AUTO 07006KT 6SM M21/M26 A3050 RMK T12101260 IEM_DS3505
ZBHH,2010-01-20 23:00,ZBHH 202300Z AUTO 11002KT 6SM M22/M27 A3050 RMK T12201270 IEM_DS3505
ZBHH,2010-01-21 00:00,ZBHH 210000Z AUTO 00000KT 19SM M18/M26 A3050 RMK SLP468 T11841261 57005 IEM_DS3505
ZBHH,2010-01-21 01:00,ZBHH 210100Z AUTO 07004KT 6SM M20/M26 A3050 RMK T12001260 IEM_DS3505
ZBHH,2010-01-21 02:00,ZBHH 210200Z AUTO 12002KT 6SM M17/M25 A3050 RMK T11701250 IEM_DS3505
ZBHH,2010-01-21 03:00,ZBHH 210300Z AUTO 00000KT 6SM M14/M24 A3047 RMK SLP460 T11411237 54000 IEM_DS3505
ZBHH,2010-01-21 04:00,ZBHH 210400Z AUTO 26002KT 6SM M13/M25 A3045 RMK T11301250 IEM_DS3505
ZBHH,2010-01-21 05:00,ZBHH 210500Z AUTO 23006KT 6SM M12/M25 A3042 RMK T11201250 IEM_DS3505
ZBHH,2010-01-21 06:00,ZBHH 210600Z AUTO 00000KT 7SM M11/M24 A3039 RMK SLP427 T11141245 57024 IEM_DS3505
ZBHH,2010-01-21 07:00,ZBHH 210700Z AUTO 23006KT 6SM M10/M24 A3039 RMK T11001240 IEM_DS3505
ZBHH,2010-01-21 08:00,ZBHH 210800Z AUTO 23008KT 6SM M11/M23 A3039 RMK T11101230 IEM_DS3505
ZBHH,2010-01-21 09:00,ZBHH 210900Z AUTO 00000KT 7SM M11/M23 A3042 RMK SLP429 T11081230 52002 IEM_DS3505
ZBHH,2010-01-21 10:00,ZBHH 211000Z AUTO 23006KT 6SM M11/M21 A3042 RMK T11101210 IEM_DS3505
ZBHH,2010-01-21 11:00,ZBHH 211100Z AUTO 36012KT 6SM M12/M22 A3045 RMK T11201220 IEM_DS3505
ZBHH,2010-01-21 12:00,ZBHH 211200Z AUTO 34008KT 12SM M12/M24 A3047 RMK SLP459 T11211241 52021 IEM_DS3505
ZBHH,2010-01-21 13:00,ZBHH 211300Z AUTO 30014KT 6SM M14/M25 A3050 RMK T11401250 IEM_DS3505
ZBHH,2010-01-21 14:00,ZBHH 211400Z AUTO 28010KT 6SM M15/M26 A3056 RMK T11501260 IEM_DS3505
ZBHH,2010-01-21 15:00,ZBHH 211500Z AUTO 29006KT 12SM M15/M28 A3056 RMK SLP486 T11501280 52027 IEM_DS3505
ZBHH,2010-01-21 16:00,ZBHH 211600Z AUTO 27010KT 6SM M16/M27 A3059 RMK T11601270 IEM_DS3505
ZBHH,2010-01-21 17:00,ZBHH 211700Z AUTO 28010KT 6SM M16/M27 A3059 RMK T11601270 IEM_DS3505
ZBHH,2010-01-21 18:00,ZBHH 211800Z AUTO 25002KT 19SM M15/M28 A3059 RMK SLP478 T11541284 57001 IEM_DS3505
ZBHH,2010-01-21 19:00,ZBHH 211900Z AUTO 05008KT 6SM M17/M27 A3056 RMK T11701270 IEM_DS3505
ZBHH,2010-01-21 20:00,ZBHH 212000Z AUTO 28006KT 6SM M16/M26 A3053 RMK T11601260 IEM_DS3505
ZBHH,2010-01-21 21:00,ZBHH 212100Z AUTO 29002KT 19SM M16/M27 A3053 RMK SLP467 T11621270 57010 IEM_DS3505
ZBHH,2010-01-21 22:00,ZBHH 212200Z AUTO 21006KT 6SM M19/M27 A3053 RMK T11901270 IEM_DS3505
ZBHH,2010-01-21 23:00,ZBHH 212300Z AUTO 12004KT 6SM M20/M26 A3053 RMK T12001260 IEM_DS3505
ZBHH,2010-01-22 00:00,ZBHH 220000Z AUTO 20002KT 6SM M17/M25 A3053 RMK SLP476 T11701247 52002 IEM_DS3505
ZBHH,2010-01-22 01:00,ZBHH 220100Z AUTO 11002KT 6SM M19/M25 A3056 RMK T11901250 IEM_DS3505
ZBHH,2010-01-22 02:00,ZBHH 220200Z AUTO 16004KT 6SM M17/M23 A3056 RMK T11701230 IEM_DS3505
ZBHH,2010-01-22 03:00,ZBHH 220300Z AUTO 18004KT 12SM M13/M24 A3056 RMK SLP478 T11341236 52004 IEM_DS3505
ZBHH,2010-01-22 04:00,ZBHH 220400Z AUTO 22010KT 6SM M13/M23 A3053 RMK T11301230 IEM_DS3505
ZBHH,2010-01-22 05:00,ZBHH 220500Z AUTO 22008KT 5SM M11/M23 A3050 RMK T11101230 IEM_DS3505
ZBHH,2010-01-22 06:00,ZBHH 220600Z AUTO 25008KT 12SM M09/M24 A3047 RMK SLP435 T10911243 57028 IEM_DS3505
ZBHH,2010-01-22 07:00,ZBHH 220700Z AUTO 29012KT 6SM M09/M22 A3045 RMK T10901220 IEM_DS3505
ZBHH,2010-01-22 08:00,ZBHH 220800Z AUTO 31014KT 6SM M09/M21 A3045 RMK T10901210 IEM_DS3505
ZBHH,2010-01-22 09:00,ZBHH 220900Z AUTO 27004KT 12SM M09/M23 A3045 RMK SLP427 T10931230 57010 IEM_DS3505
ZBHH,2010-01-22 10:00,ZBHH 221000Z AUTO 32012KT 6SM M11/M21 A3045 RMK T11101210 IEM_DS3505
ZBHH,2010-01-22 11:00,ZBHH 221100Z AUTO 36006KT 6SM M12/M22 A3045 RMK T11201220 IEM_DS3505
ZBHH,2010-01-22 12:00,ZBHH 221200Z AUTO 34002KT 19SM M12/M23 A3045 RMK SLP445 T11171229 52008 IEM_DS3505
ZBHH,2010-01-22 13:00,ZBHH 221300Z AUTO 35006KT 6SM M14/M22 A3047 RMK T11401220 IEM_DS3505
ZBHH,2010-01-22 14:00,ZBHH 221400Z AUTO 02004KT 6SM M14/M23 A3047 RMK T11401230 IEM_DS3505
ZBHH,2010-01-22 15:00,ZBHH 221500Z AUTO 34004KT 19SM M13/M24 A3045 RMK SLP431 T11281236 57006 IEM_DS3505
ZBHH,2010-01-22 16:00,ZBHH 221600Z AUTO 01008KT 6SM M14/M23 A3045 RMK T11401230 IEM_DS3505
ZBHH,2010-01-22 17:00,ZBHH 221700Z AUTO 16002KT 6SM M17/M24 A3045 RMK T11701240 IEM_DS3505
ZBHH,2010-01-22 18:00,ZBHH 221800Z AUTO 27002KT 19SM M16/M23 A3045 RMK SLP425 T11621234 57003 IEM_DS3505
ZBHH,2010-01-22 19:00,ZBHH 221900Z AUTO 13002KT 6SM M21/M26 A3042 RMK T12101260 IEM_DS3505
ZBHH,2010-01-22 20:00,ZBHH 222000Z AUTO 06002KT 6SM M22/M27 A3042 RMK T12201270 IEM_DS3505
ZBHH,2010-01-22 21:00,ZBHH 222100Z AUTO 27004KT 19SM M17/M23 A3039 RMK SLP411 T11671230 57014 IEM_DS3505
ZBHH,2010-01-22 22:00,ZBHH 222200Z AUTO 05004KT 6SM M24/M28 A3036 RMK T12401280 IEM_DS3505
ZBHH,2010-01-22 23:00,ZBHH 222300Z AUTO 08004KT 6SM M23/M28 A3036 RMK T12301280 IEM_DS3505
ZBHH,2010-01-23 00:00,ZBHH 230000Z AUTO 09004KT 6SM M18/M24 A3039 RMK SLP415 T11751236 57004 IEM_DS3505
ZBHH,2010-01-23 01:00,ZBHH 230100Z AUTO 04004KT 4SM M20/M25 A3039 RMK T12001250 IEM_DS3505
ZBHH,2010-01-23 02:00,ZBHH 230200Z AUTO 00000KT 6SM M15/M23 A3039 RMK T11501230 IEM_DS3505
ZBHH,2010-01-23 03:00,ZBHH 230300Z AUTO 11004KT 19SM M13/M24 A3036 RMK SLP399 T11321237 57006 IEM_DS3505
ZBHH,2010-01-23 04:00,ZBHH 230400Z AUTO 15002KT 6SM M13/M23 A3033 RMK T11301230 IEM_DS3505
ZBHH,2010-01-23 05:00,ZBHH 230500Z AUTO 23004KT 6SM M11/M22 A3027 RMK T11101220 IEM_DS3505
ZBHH,2010-01-23 06:00,ZBHH 230600Z AUTO 25002KT 19SM M10/M24 A3021 RMK SLP354 T10991235 57040 IEM_DS3505
ZBHH,2010-01-23 07:00,ZBHH 230700Z AUTO 23006KT 6SM M09/M22 A3018 RMK T10901220 IEM_DS3505
ZBHH,2010-01-23 08:00,ZBHH 230800Z AUTO 25004KT 6SM M09/M22 A3018 RMK T10901220 IEM_DS3505
ZBHH,2010-01-23 09:00,ZBHH 230900Z AUTO 27004KT 19SM M10/M24 A3015 RMK SLP329 T10961236 57022 IEM_DS3505
ZBHH,2010-01-23 10:00,ZBHH 231000Z AUTO 03004KT 6SM M11/M23 A3015 RMK T11101230 IEM_DS3505
ZBHH,2010-01-23 11:00,ZBHH 231100Z AUTO 04006KT 6SM M14/M24 A3012 RMK T11401240 IEM_DS3505
ZBHH,2010-01-23 12:00,ZBHH 231200Z AUTO 09002KT 19SM M12/M23 A3012 RMK SLP322 T11181233 57013 IEM_DS3505
ZBHH,2010-01-23 13:00,ZBHH 231300Z AUTO 09004KT 6SM M16/M24 A3012 RMK T11601240 IEM_DS3505
ZBHH,2010-01-23 14:00,ZBHH 231400Z AUTO 05006KT 6SM M17/M25 A3009 RMK T11701250 IEM_DS3505
ZBHH,2010-01-23 15:00,ZBHH 231500Z AUTO 09002KT 19SM M14/M23 A3009 RMK SLP307 T11391233 57008 IEM_DS3505
ZBHH,2010-01-23 16:00,ZBHH 231600Z AUTO 04004KT 6SM M20/M27 A3006 RMK T12001270 IEM_DS3505
ZBHH,2010-01-23 17:00,ZBHH 231700Z AUTO 09002KT 6SM M20/M27 A3006 RMK T12001270 IEM_DS3505
ZBHH,2010-01-23 18:00,ZBHH 231800Z AUTO 25002KT 19SM M16/M23 A3003 RMK SLP290 T11591233 57012 IEM_DS3505
ZBHH,2010-01-23 19:00,ZBHH 231900Z AUTO 06004KT 6SM M22/M27 A3003 RMK T12201270 IEM_DS3505
ZBHH,2010-01-23 20:00,ZBHH 232000Z AUTO 07002KT 6SM M22/M27 A3003 RMK T12201270 IEM_DS3505
ZBHH,2010-01-23 21:00,ZBHH 232100Z AUTO 04002KT 6SM M16/M23 A3003 RMK SLP280 T11581232 57007 IEM_DS3505
ZBHH,2010-01-23 22:00,ZBHH 232200Z AUTO 02004KT 6SM M22/M27 A3003 RMK T12201270 IEM_DS3505
ZBHH,2010-01-23 23:00,ZBHH 232300Z AUTO 02004KT 6SM M21/M27 A3003 RMK T12101270 IEM_DS3505
ZBHH,2010-01-24 00:00,ZBHH 240000Z AUTO 32002KT 3SM M16/M23 A3006 RMK SLP307 T11651230 52016 IEM_DS3505
ZBHH,2010-01-24 01:00,ZBHH 240100Z AUTO 06004KT 3SM M19/M25 A3009 RMK T11901250 IEM_DS3505
ZBHH,2010-01-24 02:00,ZBHH 240200Z AUTO 10002KT 3SM M13/M23 A3012 RMK T11301230 IEM_DS3505
ZBHH,2010-01-24 03:00,ZBHH 240300Z AUTO 20004KT 3SM M10/M22 A3015 RMK SLP319 T10971217 52022 IEM_DS3505
ZBHH,2010-01-24 04:00,ZBHH 240400Z AUTO 27010KT 4SM M07/M21 A3012 RMK T10701210 IEM_DS3505
ZBHH,2010-01-24 05:00,ZBHH 240500Z AUTO 31016KT 6SM M06/M21 A3015 RMK T10601210 IEM_DS3505
ZBHH,2010-01-24 06:00,ZBHH 240600Z AUTO 34010G27KT 12SM M06/M23 A3015 RMK SLP324 T10631227 52007 IEM_DS3505
ZBHH,2010-01-24 07:00,ZBHH 240700Z AUTO 34019KT 6SM M07/M21 A3018 RMK T10701210 IEM_DS3505
ZBHH,2010-01-24 08:00,ZBHH 240800Z AUTO 33019KT 6SM M10/M21 A3024 RMK T11001210 IEM_DS3505
ZBHH,2010-01-24 09:00,ZBHH 240900Z AUTO 34008KT 19SM M11/M22 A3027 RMK SLP377 T11071220 52036 IEM_DS3505
ZBHH,2010-01-24 10:00,ZBHH 241000Z AUTO 33012KT 6SM M12/M20 A3030 RMK T11201200 IEM_DS3505
ZBHH,2010-01-24 11:00,ZBHH 241100Z AUTO 01006KT 6SM M13/M21 A3036 RMK T11301210 IEM_DS3505
ZBHH,2010-01-24 12:00,ZBHH 241200Z AUTO 29006KT 19SM M12/M25 A3039 RMK SLP415 T11241247 52028 IEM_DS3505
ZBHH,2010-01-24 13:00,ZBHH 241300Z AUTO 32008KT 6SM M13/M24 A3039 RMK T11301240 IEM_DS3505
ZBHH,2010-01-24 14:00,ZBHH 241400Z AUTO 32014KT 6SM M14/M24 A3042 RMK T11401240 IEM_DS3505
ZBHH,2010-01-24 15:00,ZBHH 241500Z AUTO 29008KT 19SM M14/M24 A3045 RMK SLP426 T11451243 52021 IEM_DS3505
ZBHH,2010-01-24 16:00,ZBHH 241600Z AUTO 01008KT 6SM M15/M24 A3045 RMK T11501240 IEM_DS3505
ZBHH,2010-01-24 17:00,ZBHH 241700Z AUTO 27002KT 6SM M16/M24 A3045 RMK T11601240 IEM_DS3505
ZBHH,2010-01-24 18:00,ZBHH 241800Z AUTO 32008KT 19SM M14/M25 A3045 RMK SLP419 T11431252 52002 IEM_DS3505
ZBHH,2010-01-24 19:00,ZBHH 241900Z AUTO 35006KT 6SM M16/M24 A3045 RMK T11601240 IEM_DS3505
ZBHH,2010-01-24 20:00,ZBHH 242000Z AUTO 36002KT 6SM M16/M24 A3045 RMK T11601240 IEM_DS3505
ZBHH,2010-01-24 21:00,ZBHH 242100Z AUTO 25002KT 19SM M16/M24 A3047 RMK SLP442 T11621242 52005 IEM_DS3505
ZBHH,2010-01-24 22:00,ZBHH 242200Z AUTO 20004KT 6SM M20/M26 A3047 RMK T12001260 IEM_DS3505
ZBHH,2010-01-24 23:00,ZBHH 242300Z AUTO 13002KT 6SM M20/M25 A3047 RMK T12001250 IEM_DS3505
ZBHH,2010-01-25 00:00,ZBHH 250000Z AUTO 09004KT 6SM M18/M25 A3050 RMK SLP461 T11791248 52008 IEM_DS3505
ZBHH,2010-01-25 01:00,ZBHH 250100Z AUTO 09004KT 4SM M20/M25 A3050 RMK T12001250 IEM_DS3505
ZBHH,2010-01-25 02:00,ZBHH 250200Z AUTO 15002KT 6SM M16/M24 A3050 RMK T11601240 IEM_DS3505
ZBHH,2010-01-25 03:00,ZBHH 250300Z AUTO 04002KT 3SM M14/M24 A3050 RMK SLP457 T11361238 52002 IEM_DS3505
ZBHH,2010-01-25 04:00,ZBHH 250400Z AUTO 23004KT 6SM M13/M22 A3047 RMK T11301220 IEM_DS3505
ZBHH,2010-01-25 05:00,ZBHH 250500Z AUTO 21004KT 6SM M11/M22 A3042 RMK T11101220 IEM_DS3505
ZBHH,2010-01-25 06:00,ZBHH 250600Z AUTO 18004KT 6SM M10/M24 A3039 RMK SLP407 T11041243 57035 IEM_DS3505
ZBHH,2010-01-25 07:00,ZBHH 250700Z AUTO 27004KT 6SM M09/M24 A3036 RMK T10901240 IEM_DS3505
ZBHH,2010-01-25 08:00,ZBHH 250800Z AUTO 29004KT 6SM M09/M23 A3036 RMK T10901230 IEM_DS3505
ZBHH,2010-01-25 09:00,ZBHH 250900Z AUTO 20002KT 16SM M09/M24 A3033 RMK SLP391 T10891241 57015 IEM_DS3505
ZBHH,2010-01-25 10:00,ZBHH 251000Z AUTO 03004KT 6SM M11/M24 A3033 RMK T11101240 IEM_DS3505
ZBHH,2010-01-25 11:00,ZBHH 251100Z AUTO 05006KT 5SM M14/M25 A3033 RMK T11401250 IEM_DS3505
ZBHH,2010-01-25 12:00,ZBHH 251200Z AUTO 32002KT 19SM M12/M24 A3033 RMK SLP395 T11151239 57007 IEM_DS3505
ZBHH,2010-01-25 13:00,ZBHH 251300Z AUTO 06006KT 6SM M17/M26 A3033 RMK T11701260 IEM_DS3505
ZBHH,2010-01-25 14:00,ZBHH 251400Z AUTO 05006KT 6SM M19/M27 A3030 RMK T11901270 IEM_DS3505
ZBHH,2010-01-25 15:00,ZBHH 251500Z AUTO 36002KT 19SM M14/M24 A3030 RMK SLP382 T11391235 57007 IEM_DS3505
ZBHH,2010-01-25 16:00,ZBHH 251600Z AUTO 08004KT 6SM M20/M26 A3030 RMK T12001260 IEM_DS3505
ZBHH,2010-01-25 17:00,ZBHH 251700Z AUTO 06008KT 6SM M18/M25 A3027 RMK T11801250 IEM_DS3505
ZBHH,2010-01-25 18:00,ZBHH 251800Z AUTO 09002KT 19SM M16/M23 A3024 RMK SLP363 T11651230 57015 IEM_DS3505
ZBHH,2010-01-25 19:00,ZBHH 251900Z AUTO 07006KT 6SM M21/M27 A3024 RMK T12101270 IEM_DS3505
ZBHH,2010-01-25 20:00,ZBHH 252000Z AUTO 08004KT 6SM M21/M27 A3021 RMK T12101270 IEM_DS3505
ZBHH,2010-01-25 21:00,ZBHH 252100Z AUTO 00000KT 19SM M18/M24 A3018 RMK SLP341 T11821241 57019 IEM_DS3505
ZBHH,2010-01-25 22:00,ZBHH 252200Z AUTO 07004KT 6SM M21/M28 A3015 RMK T12101280 IEM_DS3505
ZBHH,2010-01-25 23:00,ZBHH 252300Z AUTO 07006KT 6SM M22/M28 A3015 RMK T12201280 IEM_DS3505
ZBHH,2010-01-26 00:00,ZBHH 260000Z AUTO 07002KT 9SM M17/M23 A3015 RMK SLP328 T11711232 57015 IEM_DS3505
ZBHH,2010-01-26 01:00,ZBHH 260100Z AUTO 07004KT 6SM M18/M25 A3015 RMK T11801250 IEM_DS3505
ZBHH,2010-01-26 02:00,ZBHH 260200Z AUTO 08002KT 6SM M12/M23 A3015 RMK T11201230 IEM_DS3505
ZBHH,2010-01-26 03:00,ZBHH 260300Z AUTO 09004KT 12SM M08/M24 A3012 RMK SLP309 T10791236 57001 IEM_DS3505
ZBHH,2010-01-26 04:00,ZBHH 260400Z AUTO 04004KT 6SM M06/M23 A3006 RMK T10601230 IEM_DS3505
ZBHH,2010-01-26 05:00,ZBHH 260500Z AUTO 20002KT 6SM M04/M22 A3003 RMK T10401220 IEM_DS3505
ZBHH,2010-01-26 06:00,ZBHH 260600Z AUTO 09002KT 19SM M03/M24 A2997 RMK SLP253 T10331237 57044 IEM_DS3505
ZBHH,2010-01-26 07:00,ZBHH 260700Z AUTO 13002KT 6SM M03/M21 A2994 RMK T10301210 IEM_DS3505
ZBHH,2010-01-26 08:00,ZBHH 260800Z AUTO 28004KT 6SM M03/M21 A2994 RMK T10301210 IEM_DS3505
ZBHH,2010-01-26 09:00,ZBHH 260900Z AUTO 27002KT 9SM M03/M22 A2991 RMK SLP242 T10321224 57013 IEM_DS3505
ZBHH,2010-01-26 10:00,ZBHH 261000Z AUTO 00000KT 7SM M04/M21 A2994 RMK T10401210 IEM_DS3505
ZBHH,2010-01-26 11:00,ZBHH 261100Z AUTO 03004KT 7SM M04/M21 A2991 RMK T10401210 IEM_DS3505
ZBHH,2010-01-26 12:00,ZBHH 261200Z AUTO 09002KT 6SM M04/M22 A2994 RMK SLP235 T10371223 57005 IEM_DS3505
ZBHH,2010-01-26 13:00,ZBHH 261300Z AUTO 17002KT 4SM M05/M20 A2994 RMK T10501200 IEM_DS3505
ZBHH,2010-01-26 14:00,ZBHH 261400Z AUTO 33002KT 4SM M05/M20 A2994 RMK T10501200 IEM_DS3505
ZBHH,2010-01-26 15:00,ZBHH 261500Z AUTO 25002KT 6SM M05/M15 A2994 RMK SLP222 T10471154 52007 IEM_DS3505
ZBHH,2010-01-26 16:00,ZBHH 261600Z AUTO 16002KT 2SM M07/M08 A2994 RMK T10701080 IEM_DS3505
ZBHH,2010-01-26 17:00,ZBHH 261700Z AUTO 22002KT 4SM M08/M09 A2994 RMK T10801090 IEM_DS3505
ZBHH,2010-01-26 18:00,ZBHH 261800Z AUTO 02002KT 6SM M07/M11 A2994 RMK SLP210 T10661108 57004 IEM_DS3505
ZBHH,2010-01-26 19:00,ZBHH 261900Z AUTO 08002KT 4SM M09/M10 A2994 RMK T10901100 IEM_DS3505
ZBHH,2010-01-26 20:00,ZBHH 262000Z AUTO 05004KT 3SM M12/M12 A2991 RMK T11201120 IEM_DS3505
ZBHH,2010-01-26 21:00,ZBHH 262100Z AUTO 04004KT 6SM M09/M11 A2991 RMK SLP211 T10891107 57004 IEM_DS3505
ZBHH,2010-01-26 22:00,ZBHH 262200Z AUTO 07006KT 4SM M16/M18 A2991 RMK T11601180 IEM_DS3505
ZBHH,2010-01-26 23:00,ZBHH 262300Z AUTO 09006KT 4SM M18/M20 A2991 RMK T11801200 IEM_DS3505
ZBHH,2010-01-27 00:00,ZBHH 270000Z AUTO 00000KT 3SM M10/M12 A2994 RMK SLP227 T11011118 52010 IEM_DS3505
ZBHH,2010-01-27 01:00,ZBHH 270100Z AUTO 08006KT 2 1/2SM M15/M16 A3000 RMK T11501160 IEM_DS3505
ZBHH,2010-01-27 02:00,ZBHH 270200Z AUTO 09004KT 4SM M10/M13 A2997 RMK T11001130 IEM_DS3505
ZBHH,2010-01-27 03:00,ZBHH 270300Z AUTO 16002KT 2 1/2SM M06/M15 A3000 RMK SLP232 T10611153 52011 IEM_DS3505
ZBHH,2010-01-27 04:00,ZBHH 270400Z AUTO 20006KT 4SM M06/M12 A2997 RMK T10601120 IEM_DS3505
ZBHH,2010-01-27 05:00,ZBHH 270500Z AUTO 22004KT 4SM M04/M11 A2997 RMK T10401110 IEM_DS3505
ZBHH,2010-01-27 06:00,ZBHH 270600Z AUTO 25002KT 4SM M03/M14 A2994 RMK SLP215 T10271135 57011 IEM_DS3505
ZBHH,2010-01-27 07:00,ZBHH 270700Z AUTO 25006KT 3SM M03/M11 A2994 RMK T10301110 IEM_DS3505
ZBHH,2010-01-27 08:00,ZBHH 270800Z AUTO 27002KT 3SM M03/M11 A2994 RMK T10301110 IEM_DS3505
ZBHH,2010-01-27 09:00,ZBHH 270900Z AUTO 36002KT 4SM M02/M13 A2997 RMK SLP228 T10201126 52007 IEM_DS3505
ZBHH,2010-01-27 10:00,ZBHH 271000Z AUTO 06006KT 4SM M05/M10 A3000 RMK T10501100 IEM_DS3505
ZBHH,2010-01-27 11:00,ZBHH 271100Z AUTO 02008KT 7SM M04/M10 A3003 RMK T10401100 IEM_DS3505
ZBHH,2010-01-27 12:00,ZBHH 271200Z AUTO 27004KT 12SM M05/M13 A3003 RMK SLP256 T10461134 52016 IEM_DS3505
ZBHH,2010-01-27 13:00,ZBHH 271300Z AUTO 01010KT 7SM M06/M12 A3003 RMK T10601120 IEM_DS3505
ZBHH,2010-01-27 14:00,ZBHH 271400Z AUTO 36012KT 7SM M07/M13 A3006 RMK T10701130 IEM_DS3505
ZBHH,2010-01-27 15:00,ZBHH 271500Z AUTO 32006KT 19SM M07/M16 A3009 RMK SLP270 T10711163 52016 IEM_DS3505
ZBHH,2010-01-27 16:00,ZBHH 271600Z AUTO 36016KT 7SM M09/M16 A3012 RMK T10901160 IEM_DS3505
ZBHH,2010-01-27 17:00,ZBHH 271700Z AUTO 36016KT 7SM M10/M17 A3012 RMK T11001170 IEM_DS3505
ZBHH,2010-01-27 18:00,ZBHH 271800Z AUTO 29008KT 19SM M11/M20 A3012 RMK SLP292 T11111204 52018 IEM_DS3505
ZBHH,2010-01-27 19:00,ZBHH 271900Z AUTO 35014KT 7SM M12/M18 A3015 RMK T11201180 IEM_DS3505
ZBHH,2010-01-27 20:00,ZBHH 272000Z AUTO 36014KT 7SM M13/M19 A3015 RMK T11301190 IEM_DS3505
ZBHH,2010-01-27 21:00,ZBHH 272100Z AUTO 29004KT 19SM M13/M21 A3015 RMK SLP302 T11281206 52006 IEM_DS3505
ZBHH,2010-01-27 22:00,ZBHH 272200Z AUTO 34016KT 6SM M14/M19 A3015 RMK T11401190 IEM_DS3505
ZBHH,2010-01-27 23:00,ZBHH 272300Z AUTO 33010KT 6SM M14/M20 A3018 RMK T11401200 IEM_DS3505
ZBHH,2010-01-28 00:00,ZBHH 280000Z AUTO 02002KT 19SM M14/M21 A3021 RMK SLP328 T11401211 52014 IEM_DS3505
ZBHH,2010-01-28 01:00,ZBHH 280100Z AUTO 33012KT 6SM M13/M20 A3024 RMK T11301200 IEM_DS3505
ZBHH,2010-01-28 02:00,ZBHH 280200Z AUTO 33014KT 6SM M12/M20 A3024 RMK T11201200 IEM_DS3505
ZBHH,2010-01-28 03:00,ZBHH 280300Z AUTO 32008KT 19SM M10/M23 A3027 RMK SLP350 T11031228 52022 IEM_DS3505
ZBHH,2010-01-28 04:00,ZBHH 280400Z AUTO 35012KT 6SM M11/M20 A3030 RMK T11101200 IEM_DS3505
ZBHH,2010-01-28 05:00,ZBHH 280500Z AUTO 35012KT 6SM M09/M19 A3027 RMK T10901190 IEM_DS3505
ZBHH,2010-01-28 06:00,ZBHH 280600Z AUTO 18004KT 19SM M06/M22 A3024 RMK SLP335 T10581222 57012 IEM_DS3505
ZBHH,2010-01-28 07:00,ZBHH 280700Z AUTO 17004KT 6SM M06/M20 A3021 RMK T10601200 IEM_DS3505
ZBHH,2010-01-28 08:00,ZBHH 280800Z AUTO 32014KT 6SM M06/M22 A3021 RMK T10601220 IEM_DS3505
ZBHH,2010-01-28 09:00,ZBHH 280900Z AUTO 32008KT 19SM M07/M23 A3024 RMK SLP341 T10701229 57001 IEM_DS3505
ZBHH,2010-01-28 10:00,ZBHH 281000Z AUTO 34008KT 6SM M09/M21 A3024 RMK T10901210 IEM_DS3505
ZBHH,2010-01-28 11:00,ZBHH 281100Z AUTO 35012KT 6SM M10/M21 A3027 RMK T11001210 IEM_DS3505
ZBHH,2010-01-28 12:00,ZBHH 281200Z AUTO 34006G25KT 19SM M09/M24 A3030 RMK SLP368 T10931241 52015 IEM_DS3505
ZBHH,2010-01-28 13:00,ZBHH 281300Z AUTO 29008KT 6SM M11/M22 A3030 RMK T11101220 IEM_DS3505
ZBHH,2010-01-28 14:00,ZBHH 281400Z AUTO 31006KT 6SM M11/M22 A3030 RMK T11101220 IEM_DS3505
ZBHH,2010-01-28 15:00,ZBHH 281500Z AUTO 29002KT 19SM M11/M24 A3030 RMK SLP366 T11071235 52004 IEM_DS3505
ZBHH,2010-01-28 16:00,ZBHH 281600Z AUTO 23004KT 6SM M14/M23 A3030 RMK T11401230 IEM_DS3505
ZBHH,2010-01-28 17:00,ZBHH 281700Z AUTO 16004KT 6SM M16/M23 A3030 RMK T11601230 IEM_DS3505
ZBHH,2010-01-28 18:00,ZBHH 281800Z AUTO 29002KT 19SM M14/M22 A3027 RMK SLP350 T11351224 57010 IEM_DS3505
ZBHH,2010-01-28 19:00,ZBHH 281900Z AUTO 08004KT 6SM M20/M24 A3027 RMK T12001240 IEM_DS3505
ZBHH,2010-01-28 20:00,ZBHH 282000Z AUTO 06006KT 6SM M22/M25 A3027 RMK T12201250 IEM_DS3505
ZBHH,2010-01-28 21:00,ZBHH 282100Z AUTO 04004KT 12SM M17/M23 A3024 RMK SLP354 T11661231 57007 IEM_DS3505
ZBHH,2010-01-28 22:00,ZBHH 282200Z AUTO 04006KT 6SM M22/M25 A3024 RMK T12201250 IEM_DS3505
ZBHH,2010-01-28 23:00,ZBHH 282300Z AUTO 06006KT 6SM M23/M27 A3024 RMK T12301270 IEM_DS3505
ZBHH,2010-01-29 00:00,ZBHH 290000Z AUTO 00000KT 12SM M16/M23 A3024 RMK SLP363 T11591227 52004 IEM_DS3505
ZBHH,2010-01-29 01:00,ZBHH 290100Z AUTO 08004KT 6SM M18/M22 A3024 RMK T11801220 IEM_DS3505
ZBHH,2010-01-29 02:00,ZBHH 290200Z AUTO 20002KT 6SM M13/M20 A3027 RMK T11301200 IEM_DS3505
ZBHH,2010-01-29 03:00,ZBHH 290300Z AUTO 02002KT 5SM M10/M21 A3027 RMK SLP351 T11021212 54000 IEM_DS3505
ZBHH,2010-01-29 04:00,ZBHH 290400Z AUTO 19004KT 2 1/2SM M10/M19 A3024 RMK T11001190 IEM_DS3505
ZBHH,2010-01-29 05:00,ZBHH 290500Z AUTO 26002KT 6SM M09/M19 A3018 RMK T10901190 IEM_DS3505
ZBHH,2010-01-29 06:00,ZBHH 290600Z AUTO 18004KT 2SM M07/M21 A3015 RMK SLP315 T10681207 57030 IEM_DS3505
ZBHH,2010-01-29 07:00,ZBHH 290700Z AUTO 25006KT 6SM M06/M19 A3012 RMK T10601190 IEM_DS3505
ZBHH,2010-01-29 08:00,ZBHH 290800Z AUTO 23004KT 6SM M06/M19 A3012 RMK T10601190 IEM_DS3505
ZBHH,2010-01-29 09:00,ZBHH 290900Z AUTO 00000KT 4SM M06/M21 A3009 RMK SLP305 T10601212 57014 IEM_DS3505
ZBHH,2010-01-29 10:00,ZBHH 291000Z AUTO 28002KT 5SM M08/M20 A3009 RMK T10801200 IEM_DS3505
ZBHH,2010-01-29 11:00,ZBHH 291100Z AUTO 04008KT 5SM M11/M20 A3012 RMK T11101200 IEM_DS3505
ZBHH,2010-01-29 12:00,ZBHH 291200Z AUTO 34002KT 5SM M09/M21 A3012 RMK SLP308 T10881212 57002 IEM_DS3505
ZBHH,2010-01-29 13:00,ZBHH 291300Z AUTO 06004KT 6SM M16/M22 A3009 RMK T11601220 IEM_DS3505
ZBHH,2010-01-29 14:00,ZBHH 291400Z AUTO 06006KT 6SM M15/M21 A3012 RMK T11501210 IEM_DS3505
ZBHH,2010-01-29 15:00,ZBHH 291500Z AUTO 09002KT 6SM M12/M20 A3012 RMK SLP303 T11171203 52002 IEM_DS3505
ZBHH,2010-01-29 16:00,ZBHH 291600Z AUTO 03004KT 6SM M17/M22 A3009 RMK T11701220 IEM_DS3505
ZBHH,2010-01-29 17:00,ZBHH 291700Z AUTO 07004KT 6SM M20/M24 A3009 RMK T12001240 IEM_DS3505
ZBHH,2010-01-29 18:00,ZBHH 291800Z AUTO 36002KT 5SM M14/M21 A3009 RMK SLP290 T11421213 57009 IEM_DS3505
ZBHH,2010-01-29 19:00,ZBHH 291900Z AUTO 06006KT 6SM M20/M24 A3009 RMK T12001240 IEM_DS3505
ZBHH,2010-01-29 20:00,ZBHH 292000Z AUTO 08006KT 6SM M21/M24 A3006 RMK T12101240 IEM_DS3505
ZBHH,2010-01-29 21:00,ZBHH 292100Z AUTO 04002KT 6SM M14/M22 A3006 RMK SLP281 T11431225 57007 IEM_DS3505
ZBHH,2010-01-29 22:00,ZBHH 292200Z AUTO 06006KT 6SM M22/M25 A3006 RMK T12201250 IEM_DS3505
ZBHH,2010-01-29 23:00,ZBHH 292300Z AUTO 07004KT 6SM M23/M27 A3006 RMK T12301270 IEM_DS3505
ZBHH,2010-01-30 00:00,ZBHH 300000Z AUTO 02002KT 6SM M15/M22 A3009 RMK SLP297 T11491221 52006 IEM_DS3505
ZBHH,2010-01-30 01:00,ZBHH 300100Z AUTO 07004KT 6SM M19/M23 A3009 RMK T11901230 IEM_DS3505
ZBHH,2010-01-30 02:00,ZBHH 300200Z AUTO 11004KT 4SM M13/M20 A3009 RMK T11301200 IEM_DS3505
ZBHH,2010-01-30 03:00,ZBHH 300300Z AUTO 18004KT 4SM M09/M22 A3009 RMK SLP294 T10941217 52004 IEM_DS3505
ZBHH,2010-01-30 04:00,ZBHH 300400Z AUTO 21004KT 6SM M09/M20 A3009 RMK T10901200 IEM_DS3505
ZBHH,2010-01-30 05:00,ZBHH 300500Z AUTO 19002KT 6SM M07/M19 A3003 RMK T10701190 IEM_DS3505
ZBHH,2010-01-30 06:00,ZBHH 300600Z AUTO 29004KT 4SM M06/M21 A3003 RMK SLP269 T10561212 57019 IEM_DS3505
ZBHH,2010-01-30 07:00,ZBHH 300700Z AUTO 29004KT 6SM M05/M19 A3003 RMK T10501190 IEM_DS3505
ZBHH,2010-01-30 08:00,ZBHH 300800Z AUTO 26004KT 6SM M05/M19 A3003 RMK T10501190 IEM_DS3505
ZBHH,2010-01-30 09:00,ZBHH 300900Z AUTO 00000KT 5SM M05/M21 A3003 RMK SLP273 T10481209 52005 IEM_DS3505
ZBHH,2010-01-30 10:00,ZBHH 301000Z AUTO 01002KT 3SM M08/M20 A3006 RMK T10801200 IEM_DS3505
ZBHH,2010-01-30 11:00,ZBHH 301100Z AUTO 04006KT 4SM M10/M20 A3009 RMK T11001200 IEM_DS3505
ZBHH,2010-01-30 12:00,ZBHH 301200Z AUTO 36002KT 6SM M09/M20 A3009 RMK SLP301 T10861201 52014 IEM_DS3505
ZBHH,2010-01-30 13:00,ZBHH 301300Z AUTO 06004KT 4SM M15/M22 A3012 RMK T11501220 IEM_DS3505
ZBHH,2010-01-30 14:00,ZBHH 301400Z AUTO 10006KT 5SM M15/M21 A3012 RMK T11501210 IEM_DS3505
ZBHH,2010-01-30 15:00,ZBHH 301500Z AUTO 27002KT 9SM M10/M20 A3015 RMK SLP306 T10971197 52015 IEM_DS3505
ZBHH,2010-01-30 16:00,ZBHH 301600Z AUTO 36008KT 6SM M09/M18 A3015 RMK T10901180 IEM_DS3505
ZBHH,2010-01-30 17:00,ZBHH 301700Z AUTO 36010KT 6SM M08/M19 A3015 RMK T10801190 IEM_DS3505
ZBHH,2010-01-30 18:00,ZBHH 301800Z AUTO 14002KT 9SM M11/M19 A3015 RMK SLP301 T11071189 52002 IEM_DS3505
ZBHH,2010-01-30 19:00,ZBHH 301900Z AUTO 01004KT 6SM M11/M21 A3012 RMK T11101210 IEM_DS3505
ZBHH,2010-01-30 20:00,ZBHH 302000Z AUTO 07002KT 6SM M14/M21 A3015 RMK T11401210 IEM_DS3505
ZBHH,2010-01-30 21:00,ZBHH 302100Z AUTO 25002KT 9SM M13/M19 A3018 RMK SLP313 T11331190 52006 IEM_DS3505
ZBHH,2010-01-30 22:00,ZBHH 302200Z AUTO 08004KT 6SM M18/M22 A3015 RMK T11801220 IEM_DS3505
ZBHH,2010-01-30 23:00,ZBHH 302300Z AUTO 12004KT 6SM M18/M22 A3018 RMK T11801220 IEM_DS3505
ZBHH,2010-01-31 00:00,ZBHH 310000Z AUTO 09002KT 9SM M13/M20 A3018 RMK SLP324 T11331202 52001 IEM_DS3505
ZBHH,2010-01-31 01:00,ZBHH 310100Z AUTO 08002KT 6SM M14/M20 A3018 RMK T11401200 IEM_DS3505
ZBHH,2010-01-31 02:00,ZBHH 310200Z AUTO 02004KT 6SM M10/M19 A3018 RMK T11001190 IEM_DS3505
ZBHH,2010-01-31 03:00,ZBHH 310300Z AUTO 11002KT 6SM M06/M20 A3015 RMK SLP304 T10581202 57003 IEM_DS3505
ZBHH,2010-01-31 04:00,ZBHH 310400Z AUTO 32002KT 6SM M04/M18 A3015 RMK T10401180 IEM_DS3505
ZBHH,2010-01-31 05:00,ZBHH 310500Z AUTO 34002KT 6SM M03/M19 A3009 RMK T10301190 IEM_DS3505
ZBHH,2010-01-31 06:00,ZBHH 310600Z AUTO 25002KT 7SM M02/M21 A3003 RMK SLP258 T10241207 57034 IEM_DS3505
ZBHH,2010-01-31 07:00,ZBHH 310700Z AUTO 27004KT 6SM M01/M18 A3003 RMK T10101180 IEM_DS3505
ZBHH,2010-01-31 08:00,ZBHH 310800Z AUTO 24006KT 6SM M02/M18 A3003 RMK T10201180 IEM_DS3505
ZBHH,2010-01-31 09:00,ZBHH 310900Z AUTO 18006KT 9SM M03/M20 A3003 RMK SLP266 T10281196 54000 IEM_DS3505
ZBHH,2010-01-31 10:00,ZBHH 311000Z AUTO 25004KT 4SM M04/M19 A3006 RMK T10401190 IEM_DS3505
ZBHH,2010-01-31 11:00,ZBHH 311100Z AUTO 31002KT 4SM M05/M18 A3006 RMK T10501180 IEM_DS3505
ZBHH,2010-01-31 12:00,ZBHH 311200Z AUTO 00000KT 9SM M04/M20 A3006 RMK SLP270 T10431197 54000 IEM_DS3505
ZBHH,2010-01-31 13:00,ZBHH 311300Z AUTO 10004KT 4SM M07/M19 A3006 RMK T10701190 IEM_DS3505
ZBHH,2010-01-31 14:00,ZBHH 311400Z AUTO 06002KT 4SM M07/M18 A3006 RMK T10701180 IEM_DS3505
ZBHH,2010-01-31 15:00,ZBHH 311500Z AUTO 09002KT 5SM M05/M19 A3006 RMK SLP260 T10531191 52006 IEM_DS3505
ZBHH,2010-01-31 16:00,ZBHH 311600Z AUTO 07004KT 6SM M10/M18 A3006 RMK T11001180 IEM_DS3505
ZBHH,2010-01-31 17:00,ZBHH 311700Z AUTO 04004KT 6SM M11/M18 A3006 RMK T11101180 IEM_DS3505
ZBHH,2010-01-31 18:00,ZBHH 311800Z AUTO 34008KT 5SM M05/M19 A3006 RMK SLP246 T10541188 57005 IEM_DS3505
ZBHH,2010-01-31 19:00,ZBHH 311900Z AUTO 11002KT 6SM M13/M19 A3006 RMK T11301190 IEM_DS3505
ZBHH,2010-01-31 20:00,ZBHH 312000Z AUTO 34010KT 6SM M08/M17 A3003 RMK T10801170 IEM_DS3505
ZBHH,2010-01-31 21:00,ZBHH 312100Z AUTO 34006KT 5SM M07/M19 A3006 RMK SLP254 T10701192 52003 IEM_DS3505
ZBHH,2010-01-31 22:00,ZBHH 312200Z AUTO 36010KT 6SM M09/M18 A3006 RMK T10901180 IEM_DS3505
ZBHH,2010-01-31 23:00,ZBHH 312300Z AUTO 36012KT 6SM M10/M17 A3009 RMK T11001170 IEM_DS3505
ZBHH,2010-02-01 00:00,ZBHH 010000Z AUTO 27002KT 6SM M09/M19 A3009 RMK SLP275 T10921187 52010 IEM_DS3505
ZBHH,2010-02-01 01:00,ZBHH 010100Z AUTO 34004KT 6SM M09/M17 A3009 RMK T10901170 IEM_DS3505
ZBHH,2010-02-01 02:00,ZBHH 010200Z AUTO 08002KT 6SM M08/M16 A3012 RMK T10801160 IEM_DS3505
ZBHH,2010-02-01 03:00,ZBHH 010300Z AUTO 14004KT 19SM M05/M18 A3012 RMK SLP275 T10481179 52007 IEM_DS3505
ZBHH,2010-02-01 04:00,ZBHH 010400Z AUTO 22004KT 6SM M05/M16 A3012 RMK T10501160 IEM_DS3505
ZBHH,2010-02-01 05:00,ZBHH 010500Z AUTO 35010KT 6SM M04/M16 A3009 RMK T10401160 IEM_DS3505
ZBHH,2010-02-01 06:00,ZBHH 010600Z AUTO 04004KT 19SM M02/M18 A3006 RMK SLP250 T10181179 57015 IEM_DS3505
ZBHH,2010-02-01 07:00,ZBHH 010700Z AUTO 36010KT 7SM M03/M16 A3006 RMK T10301160 IEM_DS3505
ZBHH,2010-02-01 08:00,ZBHH 010800Z AUTO 35012KT 7SM M04/M17 A3006 RMK T10401170 IEM_DS3505
ZBHH,2010-02-01 09:00,ZBHH 010900Z AUTO 32004KT 19SM M03/M18 A3006 RMK SLP259 T10341185 52001 IEM_DS3505
ZBHH,2010-02-01 10:00,ZBHH 011000Z AUTO 36010KT 7SM M06/M18 A3009 RMK T10601180 IEM_DS3505
ZBHH,2010-02-01 11:00,ZBHH 011100Z AUTO 02006KT 7SM M08/M17 A3012 RMK T10801170 IEM_DS3505
ZBHH,2010-02-01 12:00,ZBHH 011200Z AUTO 27002KT 19SM M07/M18 A3012 RMK SLP288 T10681181 52012 IEM_DS3505
ZBHH,2010-02-01 13:00,ZBHH 011300Z AUTO 03004KT 7SM M09/M17 A3012 RMK T10901170 IEM_DS3505
ZBHH,2010-02-01 14:00,ZBHH 011400Z AUTO 08004KT 7SM M11/M18 A3012 RMK T11101180 IEM_DS3505
ZBHH,2010-02-01 15:00,ZBHH 011500Z AUTO 00000KT 19SM M09/M18 A3009 RMK SLP274 T10861179 57006 IEM_DS3505
ZBHH,2010-02-01 16:00,ZBHH 011600Z AUTO 09004KT 7SM M12/M18 A3009 RMK T11201180 IEM_DS3505
ZBHH,2010-02-01 17:00,ZBHH 011700Z AUTO 07006KT 7SM M13/M18 A3009 RMK T11301180 IEM_DS3505
ZBHH,2010-02-01 18:00,ZBHH 011800Z AUTO 09004KT 19SM M10/M18 A3009 RMK SLP271 T10981180 52001 IEM_DS3505
ZBHH,2010-02-01 19:00,ZBHH 011900Z AUTO 09004KT 7SM M12/M18 A3012 RMK T11201180 IEM_DS3505
ZBHH,2010-02-01 20:00,ZBHH 012000Z AUTO 09004KT 7SM M11/M17 A3012 RMK T11101170 IEM_DS3505
ZBHH,2010-02-01 21:00,ZBHH 012100Z AUTO 04002KT 19SM M10/M19 A3012 RMK SLP279 T11001187 52003 IEM_DS3505
ZBHH,2010-02-01 22:00,ZBHH 012200Z AUTO 35004KT 7SM M11/M18 A3012 RMK T11101180 IEM_DS3505
ZBHH,2010-02-01 23:00,ZBHH 012300Z AUTO 04002KT 7SM M12/M16 A3012 RMK T11201160 IEM_DS3505
ZBHH,2010-02-02 00:00,ZBHH 020000Z AUTO 32004KT 7SM M12/M20 A3015 RMK SLP308 T11191202 52014 IEM_DS3505
ZBHH,2010-02-02 01:00,ZBHH 020100Z AUTO 35010KT 7SM M11/M19 A3018 RMK T11101190 IEM_DS3505
ZBHH,2010-02-02 02:00,ZBHH 020200Z AUTO 35008KT 6SM M10/M18 A3018 RMK T11001180 IEM_DS3505
ZBHH,2010-02-02 03:00,ZBHH 020300Z AUTO 32004KT 19SM M08/M20 A3018 RMK SLP315 T10751200 52012 IEM_DS3505
ZBHH,2010-02-02 04:00,ZBHH 020400Z AUTO 31014KT 6SM M08/M18 A3018 RMK T10801180 IEM_DS3505
ZBHH,2010-02-02 05:00,ZBHH 020500Z AUTO 31012KT 7SM M07/M18 A3015 RMK T10701180 IEM_DS3505
ZBHH,2010-02-02 06:00,ZBHH 020600Z AUTO 32012KT 19SM M06/M19 A3015 RMK SLP303 T10621192 57011 IEM_DS3505
ZBHH,2010-02-02 07:00,ZBHH 020700Z AUTO 34014KT 7SM M06/M18 A3015 RMK T10601180 IEM_DS3505
ZBHH,2010-02-02 08:00,ZBHH 020800Z AUTO 34014KT 7SM M07/M18 A3015 RMK T10701180 IEM_DS3505
ZBHH,2010-02-02 09:00,ZBHH 020900Z AUTO 34010KT 19SM M08/M18 A3018 RMK SLP314 T10761180 52006 IEM_DS3505
ZBHH,2010-02-02 10:00,ZBHH 021000Z AUTO 36010KT 7SM M09/M18 A3018 RMK T10901180 IEM_DS3505
ZBHH,2010-02-02 11:00,ZBHH 021100Z AUTO 35010KT 7SM M10/M18 A3021 RMK T11001180 IEM_DS3505
ZBHH,2010-02-02 12:00,ZBHH 021200Z AUTO 32004KT 19SM M10/M19 A3021 RMK SLP337 T10951192 52012 IEM_DS3505
ZBHH,2010-02-02 13:00,ZBHH 021300Z AUTO 35006KT 6SM M11/M18 A3021 RMK T11101180 IEM_DS3505
ZBHH,2010-02-02 14:00,ZBHH 021400Z AUTO 35010KT 6SM M11/M18 A3021 RMK T11101180 IEM_DS3505
ZBHH,2010-02-02 15:00,ZBHH 021500Z AUTO 27006KT 19SM M11/M19 A3021 RMK SLP332 T11131190 52001 IEM_DS3505
ZBHH,2010-02-02 16:00,ZBHH 021600Z AUTO 01010KT 7SM M12/M18 A3021 RMK T11201180 IEM_DS3505
ZBHH,2010-02-02 17:00,ZBHH 021700Z AUTO 01012KT 7SM M13/M18 A3021 RMK T11301180 IEM_DS3505
ZBHH,2010-02-02 18:00,ZBHH 021800Z AUTO 32008KT 19SM M12/M20 A3021 RMK SLP325 T11201201 57004 IEM_DS3505
ZBHH,2010-02-02 19:00,ZBHH 021900Z AUTO 36012KT 7SM M14/M19 A3021 RMK T11401190 IEM_DS3505
ZBHH,2010-02-02 20:00,ZBHH 022000Z AUTO 36010KT 7SM M13/M19 A3021 RMK T11301190 IEM_DS3505
ZBHH,2010-02-02 21:00,ZBHH 022100Z AUTO 25002KT 19SM M14/M20 A3021 RMK SLP331 T11371204 57002 IEM_DS3505
ZBHH,2010-02-02 22:00,ZBHH 022200Z AUTO 11004KT 6SM M17/M21 A3021 RMK T11701210 IEM_DS3505
ZBHH,2010-02-02 23:00,ZBHH 022300Z AUTO 10002KT 6SM M19/M22 A3021 RMK T11901220 IEM_DS3505
ZBHH,2010-02-03 00:00,ZBHH 030000Z AUTO 25002KT 6SM M14/M21 A3021 RMK SLP344 T11441209 52005 IEM_DS3505
ZBHH,2010-02-03 01:00,ZBHH 030100Z AUTO 11004KT 6SM M16/M21 A3021 RMK T11601210 IEM_DS3505
ZBHH,2010-02-03 02:00,ZBHH 030200Z AUTO 14004KT 6SM M13/M20 A3021 RMK T11301200 IEM_DS3505
ZBHH,2010-02-03 03:00,ZBHH 030300Z AUTO 22006KT 19SM M10/M20 A3021 RMK SLP333 T10971205 57003 IEM_DS3505
ZBHH,2010-02-03 04:00,ZBHH 030400Z AUTO 23006KT 6SM M09/M20 A3018 RMK T10901200 IEM_DS3505
ZBHH,2010-02-03 05:00,ZBHH 030500Z AUTO 20008KT 6SM M08/M19 A3018 RMK T10801190 IEM_DS3505
ZBHH,2010-02-03 06:00,ZBHH 030600Z AUTO 18008KT 19SM M07/M20 A3015 RMK SLP308 T10691201 57017 IEM_DS3505
ZBHH,2010-02-03 07:00,ZBHH 030700Z AUTO 23006KT 6SM M07/M19 A3012 RMK T10701190 IEM_DS3505
ZBHH,2010-02-03 08:00,ZBHH 030800Z AUTO 26006KT 6SM M07/M19 A3012 RMK T10701190 IEM_DS3505
ZBHH,2010-02-03 09:00,ZBHH 030900Z AUTO 25006KT 19SM M06/M20 A3012 RMK SLP307 T10651198 57004 IEM_DS3505
ZBHH,2010-02-03 10:00,ZBHH 031000Z AUTO 22004KT 6SM M08/M19 A3015 RMK T10801190 IEM_DS3505
ZBHH,2010-02-03 11:00,ZBHH 031100Z AUTO 01006KT 6SM M09/M19 A3015 RMK T10901190 IEM_DS3505
ZBHH,2010-02-03 12:00,ZBHH 031200Z AUTO 34002KT 12SM M09/M19 A3018 RMK SLP328 T10911191 52011 IEM_DS3505
ZBHH,2010-02-03 13:00,ZBHH 031300Z AUTO 03004KT 6SM M11/M19 A3018 RMK T11101190 IEM_DS3505
ZBHH,2010-02-03 14:00,ZBHH 031400Z AUTO 09002KT 6SM M15/M21 A3018 RMK T11501210 IEM_DS3505
ZBHH,2010-02-03 15:00,ZBHH 031500Z AUTO 25002KT 19SM M12/M20 A3018 RMK SLP319 T11151201 57003 IEM_DS3505
ZBHH,2010-02-03 16:00,ZBHH 031600Z AUTO 07006KT 6SM M16/M21 A3015 RMK T11601210 IEM_DS3505
ZBHH,2010-02-03 18:00,ZBHH 031800Z AUTO 36002KT 19SM M13/M20 A3015 RMK SLP310 T11341197 57005 IEM_DS3505
ZBHH,2010-02-03 19:00,ZBHH 031900Z AUTO 03008KT 6SM M17/M21 A3012 RMK T11701210 IEM_DS3505
ZBHH,2010-02-03 20:00,ZBHH 032000Z AUTO 08006KT 6SM M19/M24 A3012 RMK T11901240 IEM_DS3505
ZBHH,2010-02-03 21:00,ZBHH 032100Z AUTO 09002KT 19SM M14/M21 A3012 RMK SLP304 T11391210 57006 IEM_DS3505
ZBHH,2010-02-03 22:00,ZBHH 032200Z AUTO 06006KT 6SM M20/M24 A3012 RMK T12001240 IEM_DS3505
ZBHH,2010-02-03 23:00,ZBHH 032300Z AUTO 08004KT 6SM M19/M23 A3012 RMK T11901230 IEM_DS3505
ZBHH,2010-02-04 00:00,ZBHH 040000Z AUTO 09004KT 9SM M14/M21 A3012 RMK SLP306 T11391210 57004 IEM_DS3505
ZBHH,2010-02-04 01:00,ZBHH 040100Z AUTO 07004KT 6SM M15/M21 A3012 RMK T11501210 IEM_DS3505
ZBHH,2010-02-04 02:00,ZBHH 040200Z AUTO 08004KT 6SM M11/M20 A3009 RMK T11101200 IEM_DS3505
ZBHH,2010-02-04 03:00,ZBHH 040300Z AUTO 16002KT 7SM M08/M20 A3009 RMK SLP289 T10771205 57006 IEM_DS3505
ZBHH,2010-02-04 04:00,ZBHH 040400Z AUTO 19004KT 6SM M06/M18 A3006 RMK T10601180 IEM_DS3505
ZBHH,2010-02-04 05:00,ZBHH 040500Z AUTO 16002KT 6SM M04/M18 A3003 RMK T10401180 IEM_DS3505
ZBHH,2010-02-04 06:00,ZBHH 040600Z AUTO 07004KT 9SM M03/M19 A3000 RMK SLP250 T10301190 57028 IEM_DS3505
ZBHH,2010-02-04 07:00,ZBHH 040700Z AUTO 21004KT 7SM M03/M17 A2997 RMK T10301170 IEM_DS3505
ZBHH,2010-02-04 08:00,ZBHH 040800Z AUTO 21002KT 7SM M02/M16 A2997 RMK T10201160 IEM_DS3505
ZBHH,2010-02-04 09:00,ZBHH 040900Z AUTO 20002KT 7SM M02/M18 A2997 RMK SLP246 T10251181 57003 IEM_DS3505
ZBHH,2010-02-04 10:00,ZBHH 041000Z AUTO 19002KT 7SM M05/M17 A3000 RMK T10501170 IEM_DS3505
ZBHH,2010-02-04 11:00,ZBHH 041100Z AUTO 00000KT 7SM M05/M17 A3000 RMK T10501170 IEM_DS3505
ZBHH,2010-02-04 12:00,ZBHH 041200Z AUTO 36002KT 2 1/2SM M06/M18 A3003 RMK SLP265 T10581182 52009 IEM_DS3505
ZBHH,2010-02-04 13:00,ZBHH 041300Z AUTO 07006KT 6SM M10/M18 A3003 RMK T11001180 IEM_DS3505
ZBHH,2010-02-04 14:00,ZBHH 041400Z AUTO 06008KT 6SM M11/M18 A3003 RMK T11101180 IEM_DS3505
ZBHH,2010-02-04 15:00,ZBHH 041500Z AUTO 00000KT 4SM M09/M16 A3003 RMK SLP263 T10861160 52006 IEM_DS3505
ZBHH,2010-02-04 16:00,ZBHH 041600Z AUTO 04004KT 6SM M12/M17 A3003 RMK T11201170 IEM_DS3505
ZBHH,2010-02-04 17:00,ZBHH 041700Z AUTO 08008KT 6SM M13/M17 A3003 RMK T11301170 IEM_DS3505
ZBHH,2010-02-04 18:00,ZBHH 041800Z AUTO 00000KT 6SM M10/M16 A3003 RMK SLP251 T11001161 57003 IEM_DS3505
ZBHH,2010-02-04 19:00,ZBHH 041900Z AUTO 06006KT 6SM M13/M18 A3003 RMK T11301180 IEM_DS3505
ZBHH,2010-02-04 20:00,ZBHH 042000Z AUTO 08006KT 6SM M14/M18 A3003 RMK T11401180 IEM_DS3505
ZBHH,2010-02-04 21:00,ZBHH 042100Z AUTO 09004KT 19SM M10/M16 A3003 RMK SLP250 T11051158 57001 IEM_DS3505
ZBHH,2010-02-04 22:00,ZBHH 042200Z AUTO 08006KT 6SM M14/M18 A3003 RMK T11401180 IEM_DS3505
ZBHH,2010-02-04 23:00,ZBHH 042300Z AUTO 08008KT 6SM M13/M17 A3003 RMK T11301170 IEM_DS3505
ZBHH,2010-02-05 00:00,ZBHH 050000Z AUTO 09002KT 12SM M12/M16 A3003 RMK SLP269 T11171161 52006 IEM_DS3505
ZBHH,2010-02-05 01:00,ZBHH 050100Z AUTO 07006KT 6SM M11/M16 A3006 RMK T11101160 IEM_DS3505
ZBHH,2010-02-05 02:00,ZBHH 050200Z AUTO 09006KT 6SM M06/M15 A3006 RMK T10601150 IEM_DS3505
ZBHH,2010-02-05 03:00,ZBHH 050300Z AUTO 34002KT 12SM M03/M15 A3006 RMK SLP261 T10261146 52008 IEM_DS3505
ZBHH,2010-02-05 04:00,ZBHH 050400Z AUTO 30002KT 6SM M01/M13 A3006 RMK T10101130 IEM_DS3505
ZBHH,2010-02-05 05:00,ZBHH 050500Z AUTO 33002KT 6SM 00/M12 A3003 RMK T00001120 IEM_DS3505
ZBHH,2010-02-05 06:00,ZBHH 050600Z AUTO 20004KT 12SM 01/M13 A3000 RMK SLP235 T00111134 57018 IEM_DS3505
ZBHH,2010-02-05 07:00,ZBHH 050700Z AUTO 30004KT 6SM 02/M13 A3000 RMK T00201130 IEM_DS3505
ZBHH,2010-02-05 08:00,ZBHH 050800Z AUTO 20002KT 6SM 03/M13 A3000 RMK T00301130 IEM_DS3505
ZBHH,2010-02-05 09:00,ZBHH 050900Z AUTO 04002KT 9SM 02/M13 A3000 RMK SLP234 T00161133 57001 IEM_DS3505
ZBHH,2010-02-05 10:00,ZBHH 051000Z AUTO 35002KT 6SM 00/M13 A3003 RMK T00001130 IEM_DS3505
ZBHH,2010-02-05 11:00,ZBHH 051100Z AUTO 03006KT 6SM M03/M12 A3003 RMK T10301120 IEM_DS3505
ZBHH,2010-02-05 12:00,ZBHH 051200Z AUTO 36002KT 9SM M03/M13 A3003 RMK SLP258 T10261129 52009 IEM_DS3505
ZBHH,2010-02-05 13:00,ZBHH 051300Z AUTO 04008KT 6SM M09/M16 A3006 RMK T10901160 IEM_DS3505
ZBHH,2010-02-05 14:00,ZBHH 051400Z AUTO 05006KT 6SM M10/M15 A3006 RMK T11001150 IEM_DS3505
ZBHH,2010-02-05 15:00,ZBHH 051500Z AUTO 00000KT 5SM M06/M13 A3006 RMK SLP250 T10651128 52005 IEM_DS3505
ZBHH,2010-02-05 16:00,ZBHH 051600Z AUTO 07008KT 6SM M09/M14 A3003 RMK T10901140 IEM_DS3505
ZBHH,2010-02-05 17:00,ZBHH 051700Z AUTO 07004KT 6SM M11/M16 A3000 RMK T11101160 IEM_DS3505
ZBHH,2010-02-05 18:00,ZBHH 051800Z AUTO 11002KT 6SM M07/M14 A3000 RMK SLP219 T10721136 57021 IEM_DS3505
ZBHH,2010-02-05 19:00,ZBHH 051900Z AUTO 09006KT 6SM M11/M15 A2997 RMK T11101150 IEM_DS3505
ZBHH,2010-02-05 20:00,ZBHH 052000Z AUTO 09006KT 6SM M09/M14 A2994 RMK T10901140 IEM_DS3505
ZBHH,2010-02-05 21:00,ZBHH 052100Z AUTO 00000KT 6SM M08/M14 A2994 RMK SLP204 T10821144 57014 IEM_DS3505
ZBHH,2010-02-05 22:00,ZBHH 052200Z AUTO 07006KT 6SM M10/M15 A2991 RMK T11001150 IEM_DS3505
ZBHH,2010-02-05 23:00,ZBHH 052300Z AUTO 07006KT 7SM M12/M16 A2991 RMK T11201160 IEM_DS3505
ZBHH,2010-02-06 00:00,ZBHH 060000Z AUTO 02002KT 6SM M06/M14 A2991 RMK SLP198 T10631136 57010 IEM_DS3505
ZBHH,2010-02-06 01:00,ZBHH 060100Z AUTO 10004KT 2 1/2SM M07/M13 A2991 RMK T10701130 IEM_DS3505
ZBHH,2010-02-06 02:00,ZBHH 060200Z AUTO 14004KT 2SM M05/M11 A2988 RMK T10501110 IEM_DS3505
ZBHH,2010-02-06 03:00,ZBHH 060300Z AUTO 07004KT 5SM M04/M12 A2985 RMK SLP189 T10401115 57012 IEM_DS3505
ZBHH,2010-02-06 04:00,ZBHH 060400Z AUTO 15006KT 2SM M02/M08 A2985 RMK T10201080 IEM_DS3505
ZBHH,2010-02-06 05:00,ZBHH 060500Z AUTO 16008KT 2SM M02/M08 A2980 RMK T10201080 IEM_DS3505
ZBHH,2010-02-06 06:00,ZBHH 060600Z AUTO 07002KT 4SM M02/M09 A2977 RMK SLP152 T10201094 57029 IEM_DS3505
ZBHH,2010-02-06 07:00,ZBHH 060700Z AUTO 15006KT 2SM M01/M07 A2977 RMK T10101070 IEM_DS3505
ZBHH,2010-02-06 08:00,ZBHH 060800Z AUTO 19006KT 2 1/2SM 00/M08 A2977 RMK T00001080 IEM_DS3505
ZBHH,2010-02-06 09:00,ZBHH 060900Z AUTO 18004KT 2 1/2SM M02/M04 A2980 RMK SLP159 T10211044 52003 IEM_DS3505
ZBHH,2010-02-06 10:00,ZBHH 061000Z AUTO 10006KT 1SM M03/M04 A2980 RMK T10301040 IEM_DS3505
ZBHH,2010-02-06 11:00,ZBHH 061100Z AUTO 11004KT 1 1/2SM M03/M04 A2980 RMK T10301040 IEM_DS3505
ZBHH,2010-02-06 12:00,ZBHH 061200Z AUTO 09002KT 4SM M02/M04 A2985 RMK 60002 SLP175 T10191035 52019 IEM_DS3505
ZBHH,2010-02-06 13:00,ZBHH 061300Z AUTO 14002KT 1SM M03/M04 A2985 RMK T10301040 IEM_DS3505
ZBHH,2010-02-06 14:00,ZBHH 061400Z AUTO 22008KT 1SM M02/M03 A2988 RMK T10201030 IEM_DS3505
ZBHH,2010-02-06 15:00,ZBHH 061500Z AUTO 25006KT 4SM M01/M03 A2988 RMK SLP182 T10071027 52014 IEM_DS3505
ZBHH,2010-02-06 16:00,ZBHH 061600Z AUTO 18006KT 1 1/4SM M03/M03 A2988 RMK T10301030 IEM_DS3505
ZBHH,2010-02-06 17:00,ZBHH 061700Z AUTO 24004KT 1 1/4SM M03/M04 A2991 RMK T10301040 IEM_DS3505
ZBHH,2010-02-06 18:00,ZBHH 061800Z AUTO 22004KT 4SM M02/M04 A2991 RMK 60004 SLP196 T10211038 52013 IEM_DS3505
ZBHH,2010-02-06 19:00,ZBHH 061900Z AUTO 20004KT 1 1/2SM M03/M03 A2994 RMK T10301030 IEM_DS3505
ZBHH,2010-02-06 20:00,ZBHH 062000Z AUTO 20006KT 1 1/2SM M03/M04 A2994 RMK T10301040 IEM_DS3505
ZBHH,2010-02-06 21:00,ZBHH 062100Z AUTO 25002KT 2 1/2SM M04/M05 A2994 RMK 70007 SLP197 T10361049 57002 IEM_DS3505
ZBHH,2010-02-06 22:00,ZBHH 062200Z AUTO 17004KT 3SM M05/M06 A2994 RMK T10501060 IEM_DS3505
ZBHH,2010-02-06 23:00,ZBHH 062300Z AUTO 13004KT 2 1/2SM M08/M09 A2994 RMK T10801090 IEM_DS3505
ZBHH,2010-02-07 00:00,ZBHH 070000Z AUTO 04002KT 1 1/4SM M04/M06 A2994 RMK 70007 SLP205 T10381056 52007 IEM_DS3505
ZBHH,2010-02-07 01:00,ZBHH 070100Z AUTO 12004KT 1SM M09/M10 A2994 RMK T10901100 IEM_DS3505
ZBHH,2010-02-07 02:00,ZBHH 070200Z AUTO 03002KT 1 1/2SM M05/M07 A2997 RMK T10501070 IEM_DS3505
ZBHH,2010-02-07 03:00,ZBHH 070300Z AUTO 04002KT 3SM M03/M06 A2997 RMK SLP208 T10271060 52007 IEM_DS3505
ZBHH,2010-02-07 04:00,ZBHH 070400Z AUTO 16002KT 1 1/2SM M02/M06 A2997 RMK T10201060 IEM_DS3505
ZBHH,2010-02-07 05:00,ZBHH 070500Z AUTO 14004KT 2SM M01/M06 A2994 RMK T10101060 IEM_DS3505
ZBHH,2010-02-07 06:00,ZBHH 070600Z AUTO 09004KT 5SM 01/M07 A2991 RMK SLP181 T00101066 57018 IEM_DS3505
ZBHH,2010-02-07 07:00,ZBHH 070700Z AUTO 23004KT 2 1/2SM 01/M07 A2988 RMK T00101070 IEM_DS3505
ZBHH,2010-02-07 08:00,ZBHH 070800Z AUTO 25008KT 2 1/2SM 01/M09 A2988 RMK T00101090 IEM_DS3505
ZBHH,2010-02-07 09:00,ZBHH 070900Z AUTO 25002KT 6SM 01/M10 A2988 RMK SLP176 T00131105 57007 IEM_DS3505
ZBHH,2010-02-07 10:00,ZBHH 071000Z AUTO 05004KT 2 1/2SM 00/M06 A2988 RMK T00001060 IEM_DS3505
ZBHH,2010-02-07 11:00,ZBHH 071100Z AUTO 04004KT 3SM 00/M07 A2994 RMK T00001070 IEM_DS3505
ZBHH,2010-02-07 12:00,ZBHH 071200Z AUTO 09002KT 4SM M00/M07 A2994 RMK SLP199 T10041072 52016 IEM_DS3505
ZBHH,2010-02-07 13:00,ZBHH 071300Z AUTO 08004KT 3SM M04/M07 A2991 RMK T10401070 IEM_DS3505
ZBHH,2010-02-07 14:00,ZBHH 071400Z AUTO 10004KT 3SM M04/M07 A2994 RMK T10401070 IEM_DS3505
ZBHH,2010-02-07 15:00,ZBHH 071500Z AUTO 00000KT 6SM M02/M08 A2994 RMK SLP203 T10251080 52001 IEM_DS3505
ZBHH,2010-02-07 16:00,ZBHH 071600Z AUTO 03004KT 3SM M07/M09 A2991 RMK T10701090 IEM_DS3505
ZBHH,2010-02-07 17:00,ZBHH 071700Z AUTO 06002KT 3SM M07/M10 A2991 RMK T10701100 IEM_DS3505
ZBHH,2010-02-07 18:00,ZBHH 071800Z AUTO 00000KT 6SM M05/M09 A2991 RMK SLP189 T10531090 57010 IEM_DS3505
ZBHH,2010-02-07 19:00,ZBHH 071900Z AUTO 09004KT 4SM M09/M11 A2991 RMK T10901110 IEM_DS3505
ZBHH,2010-02-07 20:00,ZBHH 072000Z AUTO 04006KT 4SM M07/M10 A2991 RMK T10701100 IEM_DS3505
ZBHH,2010-02-07 21:00,ZBHH 072100Z AUTO 07002KT 6SM M04/M10 A2988 RMK SLP180 T10451099 57006 IEM_DS3505
ZBHH,2010-02-07 22:00,ZBHH 072200Z AUTO 07004KT 4SM M07/M09 A2988 RMK T10701090 IEM_DS3505
ZBHH,2010-02-07 23:00,ZBHH 072300Z AUTO 07006KT 4SM M06/M09 A2991 RMK T10601090 IEM_DS3505
ZBHH,2010-02-08 00:00,ZBHH 080000Z AUTO 07002KT 5SM M03/M09 A2994 RMK SLP193 T10311091 52011 IEM_DS3505
ZBHH,2010-02-08 01:00,ZBHH 080100Z AUTO 08004KT 3SM M04/M07 A2991 RMK T10401070 IEM_DS3505
ZBHH,2010-02-08 02:00,ZBHH 080200Z AUTO 11004KT 4SM M01/M07 A2991 RMK T10101070 IEM_DS3505
ZBHH,2010-02-08 03:00,ZBHH 080300Z AUTO 07004KT 6SM 02/M09 A2994 RMK SLP187 T00221091 52002 IEM_DS3505
ZBHH,2010-02-08 04:00,ZBHH 080400Z AUTO 11002KT 7SM 03/M08 A2994 RMK T00301080 IEM_DS3505
ZBHH,2010-02-08 05:00,ZBHH 080500Z AUTO 04004KT 7SM 04/M08 A2988 RMK T00401080 IEM_DS3505
ZBHH,2010-02-08 06:00,ZBHH 080600Z AUTO 04004KT 6SM 06/M08 A2985 RMK SLP153 T00591084 57028 IEM_DS3505
ZBHH,2010-02-08 07:00,ZBHH 080700Z AUTO 03004KT 7SM 06/M09 A2983 RMK T00601090 IEM_DS3505
ZBHH,2010-02-08 08:00,ZBHH 080800Z AUTO 02004KT 7SM 06/M09 A2983 RMK T00601090 IEM_DS3505
ZBHH,2010-02-08 09:00,ZBHH 080900Z AUTO 02004KT 6SM 05/M09 A2985 RMK SLP155 T00491086 52001 IEM_DS3505
ZBHH,2010-02-08 10:00,ZBHH 081000Z AUTO 36006KT 7SM 03/M08 A2985 RMK T00301080 IEM_DS3505
ZBHH,2010-02-08 11:00,ZBHH 081100Z AUTO 05006KT 6SM 01/M07 A2985 RMK T00101070 IEM_DS3505
ZBHH,2010-02-08 12:00,ZBHH 081200Z AUTO 29002KT 9SM 02/M09 A2985 RMK SLP164 T00151086 52004 IEM_DS3505
ZBHH,2010-02-08 13:00,ZBHH 081300Z AUTO 04010KT 6SM 00/M08 A2988 RMK T00001080 IEM_DS3505
ZBHH,2010-02-08 14:00,ZBHH 081400Z AUTO 03006KT 6SM M01/M08 A2988 RMK T10101080 IEM_DS3505
ZBHH,2010-02-08 15:00,ZBHH 081500Z AUTO 27002KT 12SM M02/M11 A2991 RMK SLP178 T10151108 52017 IEM_DS3505
ZBHH,2010-02-08 16:00,ZBHH 081600Z AUTO 06008KT 6SM M02/M10 A2991 RMK T10201100 IEM_DS3505
ZBHH,2010-02-08 17:00,ZBHH 081700Z AUTO 08010KT 6SM M03/M11 A2991 RMK T10301110 IEM_DS3505
ZBHH,2010-02-08 18:00,ZBHH 081800Z AUTO 25002KT 19SM M03/M12 A2991 RMK SLP167 T10301120 57005 IEM_DS3505
ZBHH,2010-02-08 19:00,ZBHH 081900Z AUTO 03008KT 6SM M04/M11 A2991 RMK T10401110 IEM_DS3505
ZBHH,2010-02-08 20:00,ZBHH 082000Z AUTO 05002KT 6SM M06/M12 A2991 RMK T10601120 IEM_DS3505
ZBHH,2010-02-08 21:00,ZBHH 082100Z AUTO 29004KT 19SM M07/M16 A2994 RMK SLP190 T10671156 52010 IEM_DS3505
ZBHH,2010-02-08 22:00,ZBHH 082200Z AUTO 35006KT 6SM M07/M14 A2994 RMK T10701140 IEM_DS3505
ZBHH,2010-02-08 23:00,ZBHH 082300Z AUTO 35012KT 6SM M08/M15 A2997 RMK T10801150 IEM_DS3505
ZBHH,2010-02-09 00:00,ZBHH 090000Z AUTO 29008KT 5SM M09/M17 A3000 RMK SLP230 T10881171 52023 IEM_DS3505
ZBHH,2010-02-09 01:00,ZBHH 090100Z AUTO 01006KT 6SM M07/M15 A3000 RMK T10701150 IEM_DS3505
ZBHH,2010-02-09 02:00,ZBHH 090200Z AUTO 35010KT 6SM M06/M15 A3003 RMK T10601150 IEM_DS3505
ZBHH,2010-02-09 03:00,ZBHH 090300Z AUTO 25002KT 12SM M04/M16 A3003 RMK SLP236 T10411160 52009 IEM_DS3505
ZBHH,2010-02-09 04:00,ZBHH 090400Z AUTO 08012KT 6SM M02/M14 A3003 RMK T10201140 IEM_DS3505
ZBHH,2010-02-09 05:00,ZBHH 090500Z AUTO 09014KT 6SM M02/M13 A3000 RMK T10201130 IEM_DS3505
ZBHH,2010-02-09 06:00,ZBHH 090600Z AUTO 32010KT 19SM M03/M16 A3003 RMK SLP234 T10341160 57003 IEM_DS3505
ZBHH,2010-02-09 07:00,ZBHH 090700Z AUTO 02012KT 6SM M02/M13 A3003 RMK T10201130 IEM_DS3505
ZBHH,2010-02-09 08:00,ZBHH 090800Z AUTO 02010KT 6SM M03/M14 A3003 RMK T10301140 IEM_DS3505
ZBHH,2010-02-09 09:00,ZBHH 090900Z AUTO 02004KT 19SM M04/M18 A3006 RMK SLP259 T10411176 52012 IEM_DS3505
ZBHH,2010-02-09 10:00,ZBHH 091000Z AUTO 06006KT 6SM M05/M17 A3009 RMK T10501170 IEM_DS3505
ZBHH,2010-02-09 11:00,ZBHH 091100Z AUTO 36012KT 6SM M07/M19 A3015 RMK T10701190 IEM_DS3505
ZBHH,2010-02-09 12:00,ZBHH 091200Z AUTO 34004KT 12SM M08/M22 A3018 RMK SLP310 T10781216 52031 IEM_DS3505
ZBHH,2010-02-09 13:00,ZBHH 091300Z AUTO 01012KT 6SM M08/M21 A3018 RMK T10801210 IEM_DS3505
ZBHH,2010-02-09 14:00,ZBHH 091400Z AUTO 02010KT 6SM M09/M23 A3021 RMK T10901230 IEM_DS3505
ZBHH,2010-02-09 15:00,ZBHH 091500Z AUTO 27002KT 12SM M09/M25 A3021 RMK SLP313 T10931253 52010 IEM_DS3505
ZBHH,2010-02-09 16:00,ZBHH 091600Z AUTO 02008KT 6SM M10/M22 A3021 RMK T11001220 IEM_DS3505
ZBHH,2010-02-09 17:00,ZBHH 091700Z AUTO 04008KT 6SM M10/M22 A3024 RMK T11001220 IEM_DS3505
ZBHH,2010-02-09 18:00,ZBHH 091800Z AUTO 29004KT 12SM M10/M25 A3021 RMK SLP315 T11011252 52002 IEM_DS3505
ZBHH,2010-02-09 19:00,ZBHH 091900Z AUTO 03010KT 6SM M10/M23 A3021 RMK T11001230 IEM_DS3505
ZBHH,2010-02-09 20:00,ZBHH 092000Z AUTO 03008KT 6SM M11/M22 A3021 RMK T11101220 IEM_DS3505
ZBHH,2010-02-09 21:00,ZBHH 092100Z AUTO 32002KT 12SM M12/M25 A3018 RMK SLP316 T11221249 57006 IEM_DS3505
ZBHH,2010-02-09 22:00,ZBHH 092200Z AUTO 03008KT 6SM M14/M23 A3021 RMK T11401230 IEM_DS3505
ZBHH,2010-02-09 23:00,ZBHH 092300Z AUTO 03010KT 6SM M13/M23 A3021 RMK T11301230 IEM_DS3505
ZBHH,2010-02-10 00:00,ZBHH 100000Z AUTO 29002KT 12SM M13/M26 A3024 RMK SLP348 T11341263 52017 IEM_DS3505
ZBHH,2010-02-10 01:00,ZBHH 100100Z AUTO 03006KT 7SM M12/M25 A3024 RMK T11201250 IEM_DS3505
ZBHH,2010-02-10 02:00,ZBHH 100200Z AUTO 02002KT 7SM M10/M29 A3024 RMK T11001290 IEM_DS3505
ZBHH,2010-02-10 03:00,ZBHH 100300Z AUTO 09006KT 19SM M09/M28 A3024 RMK SLP340 T10911275 57001 IEM_DS3505
ZBHH,2010-02-10 04:00,ZBHH 100400Z AUTO 09016KT 7SM M07/M30 A3024 RMK T10701300 IEM_DS3505
ZBHH,2010-02-10 05:00,ZBHH 100500Z AUTO 10016KT 7SM M07/M28 A3021 RMK T10701280 IEM_DS3505
ZBHH,2010-02-10 06:00,ZBHH 100600Z AUTO 09004KT 19SM M06/M28 A3021 RMK SLP321 T10601278 57011 IEM_DS3505
ZBHH,2010-02-10 07:00,ZBHH 100700Z AUTO 10016KT 7SM M06/M28 A3021 RMK T10601280 IEM_DS3505
ZBHH,2010-02-10 08:00,ZBHH 100800Z AUTO 10016KT 7SM M07/M26 A3021 RMK T10701260 IEM_DS3505
ZBHH,2010-02-10 09:00,ZBHH 100900Z AUTO 14002KT 12SM M06/M28 A3021 RMK SLP334 T10591284 52007 IEM_DS3505
ZBHH,2010-02-10 10:00,ZBHH 101000Z AUTO 04010KT 7SM M07/M28 A3027 RMK T10701280 IEM_DS3505
ZBHH,2010-02-10 11:00,ZBHH 101100Z AUTO 08012KT 7SM M09/M28 A3030 RMK T10901280 IEM_DS3505
ZBHH,2010-02-10 12:00,ZBHH 101200Z AUTO 27004KT 9SM M09/M25 A3033 RMK SLP380 T10941250 52029 IEM_DS3505
ZBHH,2010-02-10 13:00,ZBHH 101300Z AUTO 10012KT 7SM M11/M25 A3036 RMK T11101250 IEM_DS3505
ZBHH,2010-02-10 14:00,ZBHH 101400Z AUTO 07012KT 7SM M11/M25 A3039 RMK T11101250 IEM_DS3505
ZBHH,2010-02-10 15:00,ZBHH 101500Z AUTO 29004KT 12SM M11/M24 A3039 RMK SLP395 T11101245 52019 IEM_DS3505
ZBHH,2010-02-10 16:00,ZBHH 101600Z AUTO 05008KT 7SM M11/M23 A3039 RMK T11101230 IEM_DS3505
ZBHH,2010-02-10 17:00,ZBHH 101700Z AUTO 01008KT 7SM M12/M22 A3042 RMK T11201220 IEM_DS3505
ZBHH,2010-02-10 18:00,ZBHH 101800Z AUTO 29006KT 12SM M12/M24 A3042 RMK SLP399 T11241238 52008 IEM_DS3505
ZBHH,2010-02-10 19:00,ZBHH 101900Z AUTO 36010KT 7SM M13/M22 A3042 RMK T11301220 IEM_DS3505
ZBHH,2010-02-10 20:00,ZBHH 102000Z AUTO 36010KT 7SM M13/M22 A3042 RMK T11301220 IEM_DS3505
ZBHH,2010-02-10 21:00,ZBHH 102100Z AUTO 22002KT 12SM M13/M25 A3042 RMK SLP400 T11281254 54000 IEM_DS3505
ZBHH,2010-02-10 22:00,ZBHH 102200Z AUTO 11006KT 7SM M14/M25 A3042 RMK T11401250 IEM_DS3505
ZBHH,2010-02-10 23:00,ZBHH 102300Z AUTO 07008KT 7SM M14/M25 A3042 RMK T11401250 IEM_DS3505
ZBHH,2010-02-11 00:00,ZBHH 110000Z AUTO 25002KT 6SM M14/M26 A3045 RMK SLP425 T11351257 52012 IEM_DS3505
ZBHH,2010-02-11 01:00,ZBHH 110100Z AUTO 09002KT 7SM M13/M25 A3047 RMK T11301250 IEM_DS3505
ZBHH,2010-02-11 02:00,ZBHH 110200Z AUTO 03010KT 7SM M12/M24 A3045 RMK T11201240 IEM_DS3505
ZBHH,2010-02-11 03:00,ZBHH 110300Z AUTO 34004KT 9SM M12/M26 A3045 RMK SLP423 T11151264 57001 IEM_DS3505
ZBHH,2010-02-11 04:00,ZBHH 110400Z AUTO 31004KT 7SM M11/M25 A3042 RMK T11101250 IEM_DS3505
ZBHH,2010-02-11 05:00,ZBHH 110500Z AUTO 28002KT 7SM M10/M26 A3042 RMK T11001260 IEM_DS3505
ZBHH,2010-02-11 06:00,ZBHH 110600Z AUTO 29002KT 7SM M09/M27 A3039 RMK SLP405 T10941267 57014 IEM_DS3505
ZBHH,2010-02-11 07:00,ZBHH 110700Z AUTO 00000KT 7SM M09/M25 A3039 RMK T10901250 IEM_DS3505
ZBHH,2010-02-11 08:00,ZBHH 110800Z AUTO 01004KT 7SM M09/M24 A3039 RMK T10901240 IEM_DS3505
ZBHH,2010-02-11 09:00,ZBHH 110900Z AUTO 29006KT 7SM M09/M25 A3039 RMK SLP402 T10901246 57003 IEM_DS3505
ZBHH,2010-02-11 10:00,ZBHH 111000Z AUTO 36008KT 7SM M09/M25 A3039 RMK T10901250 IEM_DS3505
ZBHH,2010-02-11 11:00,ZBHH 111100Z AUTO 35006KT 7SM M11/M22 A3042 RMK T11101220 IEM_DS3505
ZBHH,2010-02-11 12:00,ZBHH 111200Z AUTO 32004KT 19SM M12/M24 A3045 RMK SLP427 T11161240 52014 IEM_DS3505
ZBHH,2010-02-11 13:00,ZBHH 111300Z AUTO 01010KT 7SM M12/M21 A3045 RMK T11201210 IEM_DS3505
ZBHH,2010-02-11 14:00,ZBHH 111400Z AUTO 02008KT 7SM M12/M22 A3045 RMK T11201220 IEM_DS3505
ZBHH,2010-02-11 15:00,ZBHH 111500Z AUTO 29004KT 19SM M13/M24 A3045 RMK SLP431 T11301235 52005 IEM_DS3505
ZBHH,2010-02-11 16:00,ZBHH 111600Z AUTO 04004KT 7SM M14/M22 A3042 RMK T11401220 IEM_DS3505
ZBHH,2010-02-11 17:00,ZBHH 111700Z AUTO 09004KT 7SM M16/M23 A3042 RMK T11601230 IEM_DS3505
ZBHH,2010-02-11 18:00,ZBHH 111800Z AUTO 27002KT 19SM M15/M25 A3042 RMK SLP414 T11481246 57014 IEM_DS3505
ZBHH,2010-02-11 19:00,ZBHH 111900Z AUTO 02004KT 7SM M15/M23 A3042 RMK T11501230 IEM_DS3505
ZBHH,2010-02-11 20:00,ZBHH 112000Z AUTO 10002KT 7SM M18/M25 A3042 RMK T11801250 IEM_DS3505
ZBHH,2010-02-11 21:00,ZBHH 112100Z AUTO 00000KT 19SM M16/M25 A3042 RMK SLP420 T11561248 52004 IEM_DS3505
ZBHH,2010-02-11 22:00,ZBHH 112200Z AUTO 09006KT 7SM M19/M25 A3042 RMK T11901250 IEM_DS3505
ZBHH,2010-02-11 23:00,ZBHH 112300Z AUTO 11002KT 7SM M19/M25 A3042 RMK T11901250 IEM_DS3505
ZBHH,2010-02-12 00:00,ZBHH 120000Z AUTO 07002KT 12SM M15/M24 A3042 RMK SLP423 T11541237 57003 IEM_DS3505
ZBHH,2010-02-12 01:00,ZBHH 120100Z AUTO 09002KT 7SM M16/M23 A3042 RMK T11601230 IEM_DS3505
ZBHH,2010-02-12 02:00,ZBHH 120200Z AUTO 15002KT 6SM M14/M23 A3042 RMK T11401230 IEM_DS3505
ZBHH,2010-02-12 03:00,ZBHH 120300Z AUTO 20004KT 9SM M11/M23 A3039 RMK SLP407 T11091231 57006 IEM_DS3505
ZBHH,2010-02-12 04:00,ZBHH 120400Z AUTO 21006KT 6SM M11/M22 A3039 RMK T11101220 IEM_DS3505
ZBHH,2010-02-12 05:00,ZBHH 120500Z AUTO 24004KT 6SM M09/M20 A3033 RMK T10901200 IEM_DS3505
ZBHH,2010-02-12 06:00,ZBHH 120600Z AUTO 20004KT 12SM M08/M22 A3030 RMK SLP376 T10801222 57025 IEM_DS3505
ZBHH,2010-02-12 07:00,ZBHH 120700Z AUTO 24006KT 6SM M08/M21 A3027 RMK T10801210 IEM_DS3505
ZBHH,2010-02-12 08:00,ZBHH 120800Z AUTO 26006KT 6SM M08/M21 A3027 RMK T10801210 IEM_DS3505
ZBHH,2010-02-12 09:00,ZBHH 120900Z AUTO 25004KT 12SM M07/M22 A3024 RMK SLP354 T10741224 57019 IEM_DS3505
ZBHH,2010-02-12 10:00,ZBHH 121000Z AUTO 23002KT 6SM M09/M22 A3024 RMK T10901220 IEM_DS3505
ZBHH,2010-02-12 11:00,ZBHH 121100Z AUTO 21002KT 6SM M10/M22 A3027 RMK T11001220 IEM_DS3505
ZBHH,2010-02-12 12:00,ZBHH 121200Z AUTO 22002KT 12SM M10/M22 A3027 RMK SLP361 T10951221 52001 IEM_DS3505
ZBHH,2010-02-12 13:00,ZBHH 121300Z AUTO 06004KT 6SM M14/M23 A3027 RMK T11401230 IEM_DS3505
ZBHH,2010-02-12 15:00,ZBHH 121500Z AUTO 09004KT 12SM M12/M22 A3027 RMK SLP353 T11161222 57001 IEM_DS3505
ZBHH,2010-02-12 16:00,ZBHH 121600Z AUTO 09004KT 6SM M15/M23 A3024 RMK T11501230 IEM_DS3505
ZBHH,2010-02-12 17:00,ZBHH 121700Z AUTO 06004KT 6SM M18/M25 A3024 RMK T11801250 IEM_DS3505
ZBHH,2010-02-12 18:00,ZBHH 121800Z AUTO 09002KT 12SM M13/M22 A3024 RMK SLP345 T11341216 57004 IEM_DS3505
ZBHH,2010-02-12 19:00,ZBHH 121900Z AUTO 08006KT 6SM M19/M24 A3024 RMK T11901240 IEM_DS3505
ZBHH,2010-02-12 20:00,ZBHH 122000Z AUTO 07004KT 6SM M20/M24 A3021 RMK T12001240 IEM_DS3505
ZBHH,2010-02-12 21:00,ZBHH 122100Z AUTO 07004KT 12SM M15/M21 A3018 RMK SLP333 T11501210 57013 IEM_DS3505
ZBHH,2010-02-12 22:00,ZBHH 122200Z AUTO 05004KT 7SM M19/M23 A3021 RMK T11901230 IEM_DS3505
ZBHH,2010-02-12 23:00,ZBHH 122300Z AUTO 08004KT 7SM M20/M24 A3021 RMK T12001240 IEM_DS3505
ZBHH,2010-02-13 00:00,ZBHH 130000Z AUTO 09004KT 5SM M15/M20 A3021 RMK SLP348 T11511204 52008 IEM_DS3505
ZBHH,2010-02-13 01:00,ZBHH 130100Z AUTO 09004KT 4SM M15/M19 A3021 RMK T11501190 IEM_DS3505
ZBHH,2010-02-13 02:00,ZBHH 130200Z AUTO 12002KT 5SM M11/M17 A3021 RMK T11101170 IEM_DS3505
ZBHH,2010-02-13 03:00,ZBHH 130300Z AUTO 25004KT 6SM M10/M17 A3021 RMK SLP339 T11031172 57002 IEM_DS3505
ZBHH,2010-02-13 04:00,ZBHH 130400Z AUTO 28004KT 2 1/2SM M09/M16 A3021 RMK T10901160 IEM_DS3505
ZBHH,2010-02-13 05:00,ZBHH 130500Z AUTO 4SM M07/M16 A3018 RMK T10701160 IEM_DS3505
ZBHH,2010-02-13 06:00,ZBHH 130600Z AUTO 36002KT 7SM M06/M17 A3015 RMK SLP313 T10611166 57017 IEM_DS3505
ZBHH,2010-02-13 07:00,ZBHH 130700Z AUTO 15004KT 4SM M05/M15 A3012 RMK T10501150 IEM_DS3505
ZBHH,2010-02-13 08:00,ZBHH 130800Z AUTO 21002KT 5SM M04/M16 A3012 RMK T10401160 IEM_DS3505
ZBHH,2010-02-13 09:00,ZBHH 130900Z AUTO 22002KT 6SM M04/M18 A3012 RMK SLP304 T10431175 57007 IEM_DS3505
ZBHH,2010-02-13 10:00,ZBHH 131000Z AUTO 32004KT 3SM M06/M17 A3015 RMK T10601170 IEM_DS3505
ZBHH,2010-02-13 11:00,ZBHH 131100Z AUTO 30002KT 3SM M06/M16 A3015 RMK T10601160 IEM_DS3505
ZBHH,2010-02-13 12:00,ZBHH 131200Z AUTO 29004KT 19SM M07/M19 A3021 RMK SLP336 T10701192 52021 IEM_DS3505
ZBHH,2010-02-13 13:00,ZBHH 131300Z AUTO 36012KT 6SM M09/M19 A3024 RMK T10901190 IEM_DS3505
ZBHH,2010-02-13 14:00,ZBHH 131400Z AUTO 02008KT 6SM M10/M20 A3027 RMK T11001200 IEM_DS3505
ZBHH,2010-02-13 15:00,ZBHH 131500Z AUTO 29006KT 19SM M10/M23 A3027 RMK SLP359 T11041233 52023 IEM_DS3505
ZBHH,2010-02-13 16:00,ZBHH 131600Z AUTO 02014KT 6SM M11/M23 A3030 RMK T11101230 IEM_DS3505
ZBHH,2010-02-13 17:00,ZBHH 131700Z AUTO 36012KT 6SM M12/M22 A3030 RMK T11201220 IEM_DS3505
ZBHH,2010-02-13 18:00,ZBHH 131800Z AUTO 32004KT 19SM M12/M24 A3030 RMK SLP357 T11191240 52005 IEM_DS3505
ZBHH,2010-02-13 19:00,ZBHH 131900Z AUTO 36010KT 6SM M13/M22 A3030 RMK T11301220 IEM_DS3505
ZBHH,2010-02-13 20:00,ZBHH 132000Z AUTO 36012KT 6SM M13/M25 A3030 RMK T11301250 IEM_DS3505
ZBHH,2010-02-13 21:00,ZBHH 132100Z AUTO 32004KT 19SM M14/M26 A3033 RMK SLP366 T11361264 52008 IEM_DS3505
ZBHH,2010-02-13 22:00,ZBHH 132200Z AUTO 33008KT 6SM M14/M26 A3033 RMK T11401260 IEM_DS3505
ZBHH,2010-02-13 23:00,ZBHH 132300Z AUTO 34010KT 6SM M15/M27 A3033 RMK T11501270 IEM_DS3505
ZBHH,2010-02-14 00:00,ZBHH 140000Z AUTO 32004KT 19SM M14/M28 A3036 RMK SLP386 T11451276 52009 IEM_DS3505
ZBHH,2010-02-14 01:00,ZBHH 140100Z AUTO 34012KT 6SM M15/M28 A3036 RMK T11501280 IEM_DS3505
ZBHH,2010-02-14 02:00,ZBHH 140200Z AUTO 34012KT 6SM M13/M27 A3036 RMK T11301270 IEM_DS3505
ZBHH,2010-02-14 03:00,ZBHH 140300Z AUTO 04006KT 11SM M11/M28 A3036 RMK SLP393 T11091280 52007 IEM_DS3505
ZBHH,2010-02-14 04:00,ZBHH 140400Z AUTO 31008KT 6SM M10/M27 A3036 RMK T11001270 IEM_DS3505
ZBHH,2010-02-14 05:00,ZBHH 140500Z AUTO 34006KT 6SM M09/M27 A3030 RMK T10901270 IEM_DS3505
ZBHH,2010-02-14 06:00,ZBHH 140600Z AUTO 32006KT 12SM M08/M30 A3027 RMK SLP361 T10821303 57025 IEM_DS3505
ZBHH,2010-02-14 07:00,ZBHH 140700Z AUTO 35012KT 6SM M09/M28 A3027 RMK T10901280 IEM_DS3505
ZBHH,2010-02-14 08:00,ZBHH 140800Z AUTO 35010KT 6SM M09/M28 A3027 RMK T10901280 IEM_DS3505
ZBHH,2010-02-14 09:00,ZBHH 140900Z AUTO 34004KT 12SM M08/M30 A3027 RMK SLP361 T10751297 57003 IEM_DS3505
ZBHH,2010-02-14 10:00,ZBHH 141000Z AUTO 36008KT 6SM M10/M27 A3030 RMK T11001270 IEM_DS3505
ZBHH,2010-02-14 11:00,ZBHH 141100Z AUTO 02006KT 6SM M11/M27 A3033 RMK T11101270 IEM_DS3505
ZBHH,2010-02-14 12:00,ZBHH 141200Z AUTO 32004KT 12SM M11/M28 A3036 RMK SLP395 T11131279 52019 IEM_DS3505
ZBHH,2010-02-14 13:00,ZBHH 141300Z AUTO 04006KT 6SM M14/M27 A3036 RMK T11401270 IEM_DS3505
ZBHH,2010-02-14 14:00,ZBHH 141400Z AUTO 04006KT 6SM M15/M28 A3036 RMK T11501280 IEM_DS3505
ZBHH,2010-02-14 15:00,ZBHH 141500Z AUTO 34004KT 19SM M13/M28 A3036 RMK SLP394 T11281275 52004 IEM_DS3505
ZBHH,2010-02-14 16:00,ZBHH 141600Z AUTO 09004KT 6SM M18/M28 A3036 RMK T11801280 IEM_DS3505
ZBHH,2010-02-14 17:00,ZBHH 141700Z AUTO 07006KT 6SM M18/M29 A3036 RMK T11801290 IEM_DS3505
ZBHH,2010-02-14 18:00,ZBHH 141800Z AUTO 09002KT 19SM M15/M28 A3039 RMK SLP397 T11531276 52003 IEM_DS3505
ZBHH,2010-02-14 19:00,ZBHH 141900Z AUTO 07004KT 6SM M21/M30 A3036 RMK T12101300 IEM_DS3505
ZBHH,2010-02-14 20:00,ZBHH 142000Z AUTO 08006KT 6SM M21/M30 A3036 RMK T12101300 IEM_DS3505
ZBHH,2010-02-14 21:00,ZBHH 142100Z AUTO 09002KT 12SM M16/M28 A3036 RMK SLP387 T11581281 57008 IEM_DS3505
ZBHH,2010-02-14 22:00,ZBHH 142200Z AUTO 08006KT 6SM M20/M29 A3033 RMK T12001290 IEM_DS3505
ZBHH,2010-02-14 23:00,ZBHH 142300Z AUTO 07004KT 6SM M20/M28 A3036 RMK T12001280 IEM_DS3505
ZBHH,2010-02-15 00:00,ZBHH 150000Z AUTO 02002KT 19SM M16/M27 A3036 RMK SLP408 T11571274 52009 IEM_DS3505
ZBHH,2010-02-15 01:00,ZBHH 150100Z AUTO 08004KT 6SM M16/M27 A3039 RMK T11601270 IEM_DS3505
ZBHH,2010-02-15 02:00,ZBHH 150200Z AUTO 16002KT 6SM M13/M26 A3039 RMK T11301260 IEM_DS3505
ZBHH,2010-02-15 03:00,ZBHH 150300Z AUTO 25004KT 19SM M10/M26 A3039 RMK SLP403 T11001263 52006 IEM_DS3505
ZBHH,2010-02-15 04:00,ZBHH 150400Z AUTO 24002KT 6SM M09/M23 A3036 RMK T10901230 IEM_DS3505
ZBHH,2010-02-15 05:00,ZBHH 150500Z AUTO 25004KT 6SM M08/M24 A3033 RMK T10801240 IEM_DS3505
ZBHH,2010-02-15 06:00,ZBHH 150600Z AUTO 22004KT 19SM M06/M24 A3030 RMK SLP367 T10641237 57029 IEM_DS3505
ZBHH,2010-02-15 07:00,ZBHH 150700Z AUTO 24006KT 6SM M06/M22 A3027 RMK T10601220 IEM_DS3505
ZBHH,2010-02-15 08:00,ZBHH 150800Z AUTO 21006KT 6SM M05/M21 A3024 RMK T10501210 IEM_DS3505
ZBHH,2010-02-15 09:00,ZBHH 150900Z AUTO 22008KT 9SM M05/M23 A3024 RMK SLP351 T10541228 57013 IEM_DS3505
ZBHH,2010-02-15 10:00,ZBHH 151000Z AUTO 24006KT 6SM M07/M21 A3024 RMK T10701210 IEM_DS3505
ZBHH,2010-02-15 11:00,ZBHH 151100Z AUTO 21004KT 6SM M09/M21 A3027 RMK T10901210 IEM_DS3505
ZBHH,2010-02-15 12:00,ZBHH 151200Z AUTO 32002KT 12SM M08/M22 A3027 RMK SLP365 T10801225 52007 IEM_DS3505
ZBHH,2010-02-15 13:00,ZBHH 151300Z AUTO 03008KT 6SM M12/M22 A3030 RMK T11201220 IEM_DS3505
ZBHH,2010-02-15 14:00,ZBHH 151400Z AUTO 07006KT 6SM M14/M24 A3030 RMK T11401240 IEM_DS3505
ZBHH,2010-02-15 15:00,ZBHH 151500Z AUTO 09004KT 12SM M10/M22 A3030 RMK SLP359 T11011223 52003 IEM_DS3505
ZBHH,2010-02-15 16:00,ZBHH 151600Z AUTO 07006KT 6SM M16/M24 A3030 RMK T11601240 IEM_DS3505
ZBHH,2010-02-15 17:00,ZBHH 151700Z AUTO 06004KT 6SM M18/M26 A3030 RMK T11801260 IEM_DS3505
ZBHH,2010-02-15 18:00,ZBHH 151800Z AUTO 09002KT 19SM M12/M22 A3027 RMK SLP351 T11251217 57004 IEM_DS3505
ZBHH,2010-02-15 19:00,ZBHH 151900Z AUTO 08004KT 6SM M19/M25 A3027 RMK T11901250 IEM_DS3505
ZBHH,2010-02-15 20:00,ZBHH 152000Z AUTO 07006KT 6SM M20/M25 A3027 RMK T12001250 IEM_DS3505
ZBHH,2010-02-15 21:00,ZBHH 152100Z AUTO 04002KT 19SM M13/M21 A3027 RMK SLP343 T11341207 57007 IEM_DS3505
ZBHH,2010-02-15 22:00,ZBHH 152200Z AUTO 07006KT 6SM M21/M25 A3027 RMK T12101250 IEM_DS3505
ZBHH,2010-02-15 23:00,ZBHH 152300Z AUTO 06004KT 6SM M20/M24 A3024 RMK T12001240 IEM_DS3505
ZBHH,2010-02-16 00:00,ZBHH 160000Z AUTO 04002KT 7SM M15/M18 A3027 RMK SLP357 T11461185 52003 IEM_DS3505
ZBHH,2010-02-16 01:00,ZBHH 160100Z AUTO 08004KT 4SM M14/M17 A3030 RMK T11401170 IEM_DS3505
ZBHH,2010-02-16 02:00,ZBHH 160200Z AUTO 13004KT 3SM M11/M15 A3030 RMK T11101150 IEM_DS3505
ZBHH,2010-02-16 03:00,ZBHH 160300Z AUTO 34004KT 5SM M10/M16 A3030 RMK SLP359 T10961165 52009 IEM_DS3505
ZBHH,2010-02-16 04:00,ZBHH 160400Z AUTO 24006KT 2 1/2SM M08/M15 A3027 RMK T10801150 IEM_DS3505
ZBHH,2010-02-16 05:00,ZBHH 160500Z AUTO 24010KT 4SM M06/M15 A3021 RMK T10601150 IEM_DS3505
ZBHH,2010-02-16 06:00,ZBHH 160600Z AUTO 22010KT 9SM M05/M19 A3018 RMK SLP317 T10481190 57031 IEM_DS3505
ZBHH,2010-02-16 07:00,ZBHH 160700Z AUTO 24014KT 6SM M04/M16 A3015 RMK T10401160 IEM_DS3505
ZBHH,2010-02-16 08:00,ZBHH 160800Z AUTO 23014KT 6SM M05/M16 A3015 RMK T10501160 IEM_DS3505
ZBHH,2010-02-16 09:00,ZBHH 160900Z AUTO 25008KT 12SM M04/M18 A3015 RMK SLP301 T10361179 57014 IEM_DS3505
ZBHH,2010-02-16 10:00,ZBHH 161000Z AUTO 23008KT 6SM M05/M16 A3012 RMK T10501160 IEM_DS3505
ZBHH,2010-02-16 11:00,ZBHH 161100Z AUTO 24010KT 6SM M05/M16 A3012 RMK T10501160 IEM_DS3505
ZBHH,2010-02-16 12:00,ZBHH 161200Z AUTO 29002KT 9SM M05/M17 A3012 RMK SLP302 T10511169 57005 IEM_DS3505
ZBHH,2010-02-16 13:00,ZBHH 161300Z AUTO 35016KT 5SM M08/M10 A3015 RMK T10801100 IEM_DS3505
ZBHH,2010-02-16 14:00,ZBHH 161400Z AUTO 33010G19KT 7SM M08/M14 A3018 RMK T10801140 IEM_DS3505
ZBHH,2010-02-16 15:00,ZBHH 161500Z AUTO 32014G25KT 9SM M09/M18 A3015 RMK SLP311 T10881176 52011 IEM_DS3505
ZBHH,2010-02-16 16:00,ZBHH 161600Z AUTO 32008KT 7SM M10/M16 A3018 RMK T11001160 IEM_DS3505
ZBHH,2010-02-16 17:00,ZBHH 161700Z AUTO 33017G29KT 7SM M11/M17 A3021 RMK T11101170 IEM_DS3505
ZBHH,2010-02-16 18:00,ZBHH 161800Z AUTO 29008KT 12SM M12/M18 A3024 RMK 60001 SLP339 T11151183 52029 IEM_DS3505
ZBHH,2010-02-16 19:00,ZBHH 161900Z AUTO 34010G19KT 7SM M12/M20 A3027 RMK T11201200 IEM_DS3505
ZBHH,2010-02-16 20:00,ZBHH 162000Z AUTO 30008KT 6SM M13/M21 A3027 RMK T11301210 IEM_DS3505
ZBHH,2010-02-16 21:00,ZBHH 162100Z AUTO 34008KT 19SM M13/M24 A3027 RMK 70001 SLP344 T11311236 52004 IEM_DS3505
ZBHH,2010-02-16 22:00,ZBHH 162200Z AUTO 33010KT 6SM M15/M23 A3030 RMK T11501230 IEM_DS3505
ZBHH,2010-02-16 23:00,ZBHH 162300Z AUTO 35004KT 6SM M16/M23 A3030 RMK T11601230 IEM_DS3505
ZBHH,2010-02-17 00:00,ZBHH 170000Z AUTO 25002KT 19SM M14/M25 A3030 RMK 70001 SLP362 T11401247 52010 IEM_DS3505
ZBHH,2010-02-17 01:00,ZBHH 170100Z AUTO 05004KT 6SM M13/M22 A3030 RMK T11301220 IEM_DS3505
ZBHH,2010-02-17 02:00,ZBHH 170200Z AUTO 20008KT 6SM M11/M21 A3030 RMK T11101210 IEM_DS3505
ZBHH,2010-02-17 03:00,ZBHH 170300Z AUTO 27004KT 19SM M09/M23 A3030 RMK SLP356 T10911228 57003 IEM_DS3505
ZBHH,2010-02-17 04:00,ZBHH 170400Z AUTO 24010KT 6SM M08/M21 A3027 RMK T10801210 IEM_DS3505
ZBHH,2010-02-17 05:00,ZBHH 170500Z AUTO 26010KT 6SM M07/M22 A3024 RMK T10701220 IEM_DS3505
ZBHH,2010-02-17 06:00,ZBHH 170600Z AUTO 25008KT 19SM M05/M22 A3021 RMK SLP325 T10511221 57024 IEM_DS3505
ZBHH,2010-02-17 07:00,ZBHH 170700Z AUTO 27016KT 7SM M05/M21 A3018 RMK T10501210 IEM_DS3505
ZBHH,2010-02-17 08:00,ZBHH 170800Z AUTO 28016G25KT 7SM M03/M21 A3018 RMK T10301210 IEM_DS3505
ZBHH,2010-02-17 09:00,ZBHH 170900Z AUTO 27010KT 19SM M04/M23 A3018 RMK SLP314 T10421233 57011 IEM_DS3505
ZBHH,2010-02-17 10:00,ZBHH 171000Z AUTO 29014KT 7SM M05/M20 A3018 RMK T10501200 IEM_DS3505
ZBHH,2010-02-17 11:00,ZBHH 171100Z AUTO 28014KT 7SM M06/M20 A3018 RMK T10601200 IEM_DS3505
ZBHH,2010-02-17 12:00,ZBHH 171200Z AUTO 29002KT 19SM M07/M22 A3021 RMK SLP331 T10671218 52007 IEM_DS3505
ZBHH,2010-02-17 13:00,ZBHH 171300Z AUTO 32010KT 7SM M08/M21 A3021 RMK T10801210 IEM_DS3505
ZBHH,2010-02-17 14:00,ZBHH 171400Z AUTO 30008KT 6SM M08/M21 A3024 RMK T10801210 IEM_DS3505
ZBHH,2010-02-17 15:00,ZBHH 171500Z AUTO 07002KT 19SM M09/M23 A3024 RMK SLP331 T10911228 52006 IEM_DS3505
ZBHH,2010-02-17 16:00,ZBHH 171600Z AUTO 07002KT 6SM M11/M22 A3021 RMK T11101220 IEM_DS3505
ZBHH,2010-02-17 17:00,ZBHH 171700Z AUTO 10004KT 6SM M13/M22 A3021 RMK T11301220 IEM_DS3505
ZBHH,2010-02-17 18:00,ZBHH 171800Z AUTO 00000KT 19SM M11/M21 A3021 RMK SLP321 T11141212 57005 IEM_DS3505
ZBHH,2010-02-17 19:00,ZBHH 171900Z AUTO 11004KT 6SM M15/M22 A3021 RMK T11501220 IEM_DS3505
ZBHH,2010-02-17 20:00,ZBHH 172000Z AUTO 07004KT 6SM M17/M23 A3018 RMK T11701230 IEM_DS3505
ZBHH,2010-02-17 21:00,ZBHH 172100Z AUTO 04004KT 19SM M14/M22 A3018 RMK SLP317 T11381220 57007 IEM_DS3505
ZBHH,2010-02-17 22:00,ZBHH 172200Z AUTO 07006KT 6SM M20/M25 A3018 RMK T12001250 IEM_DS3505
ZBHH,2010-02-17 23:00,ZBHH 172300Z AUTO 08004KT 6SM M19/M24 A3018 RMK T11901240 IEM_DS3505
ZBHH,2010-02-18 00:00,ZBHH 180000Z AUTO 09004KT 6SM M14/M21 A3018 RMK SLP329 T11401207 52004 IEM_DS3505
ZBHH,2010-02-18 01:00,ZBHH 180100Z AUTO 09002KT 6SM M13/M18 A3021 RMK T11301180 IEM_DS3505
ZBHH,2010-02-18 02:00,ZBHH 180200Z AUTO 07002KT 7SM M12/M17 A3018 RMK T11201170 IEM_DS3505
ZBHH,2010-02-18 03:00,ZBHH 180300Z AUTO 14002KT 6SM M11/M19 A3018 RMK SLP321 T11071191 57005 IEM_DS3505
ZBHH,2010-02-18 04:00,ZBHH 180400Z AUTO 19004KT 7SM M09/M17 A3015 RMK T10901170 IEM_DS3505
ZBHH,2010-02-18 05:00,ZBHH 180500Z AUTO 21004KT 7SM M08/M18 A3015 RMK T10801180 IEM_DS3505
ZBHH,2010-02-18 06:00,ZBHH 180600Z AUTO 32002KT 6SM M05/M18 A3012 RMK SLP292 T10531184 57018 IEM_DS3505
ZBHH,2010-02-18 07:00,ZBHH 180700Z AUTO 27006KT 7SM M05/M16 A3009 RMK T10501160 IEM_DS3505
ZBHH,2010-02-18 08:00,ZBHH 180800Z AUTO 34002KT 7SM M04/M17 A3006 RMK T10401170 IEM_DS3505
ZBHH,2010-02-18 09:00,ZBHH 180900Z AUTO 27004KT 7SM M00/M18 A3006 RMK SLP265 T10021183 57017 IEM_DS3505
ZBHH,2010-02-18 10:00,ZBHH 181000Z AUTO 07004KT 6SM M05/M17 A3006 RMK T10501170 IEM_DS3505
ZBHH,2010-02-18 11:00,ZBHH 181100Z AUTO 33002KT 6SM M06/M18 A3006 RMK T10601180 IEM_DS3505
ZBHH,2010-02-18 12:00,ZBHH 181200Z AUTO 25004KT 16SM M03/M19 A3006 RMK SLP277 T10291193 52004 IEM_DS3505
ZBHH,2010-02-18 13:00,ZBHH 181300Z AUTO 26006KT 6SM M05/M18 A3006 RMK T10501180 IEM_DS3505
ZBHH,2010-02-18 14:00,ZBHH 181400Z AUTO 19004KT 6SM M07/M18 A3006 RMK T10701180 IEM_DS3505
ZBHH,2010-02-18 15:00,ZBHH 181500Z AUTO 00000KT 19SM M08/M19 A3006 RMK SLP276 T10761189 57004 IEM_DS3505
ZBHH,2010-02-18 16:00,ZBHH 181600Z AUTO 13004KT 6SM M12/M19 A3006 RMK T11201190 IEM_DS3505
ZBHH,2010-02-18 17:00,ZBHH 181700Z AUTO 08006KT 6SM M14/M20 A3006 RMK T11401200 IEM_DS3505
ZBHH,2010-02-18 18:00,ZBHH 181800Z AUTO 04004KT 12SM M09/M19 A3003 RMK SLP254 T10931190 57011 IEM_DS3505
ZBHH,2010-02-18 19:00,ZBHH 181900Z AUTO 09006KT 6SM M16/M22 A3003 RMK T11601220 IEM_DS3505
ZBHH,2010-02-18 20:00,ZBHH 182000Z AUTO 07006KT 6SM M17/M23 A3000 RMK T11701230 IEM_DS3505
ZBHH,2010-02-18 21:00,ZBHH 182100Z AUTO 07004KT 19SM M11/M19 A3000 RMK SLP234 T11141189 57011 IEM_DS3505
ZBHH,2010-02-18 22:00,ZBHH 182200Z AUTO 07004KT 6SM M18/M23 A3000 RMK T11801230 IEM_DS3505
ZBHH,2010-02-18 23:00,ZBHH 182300Z AUTO 07006KT 6SM M18/M22 A2997 RMK T11801220 IEM_DS3505
ZBHH,2010-02-19 00:00,ZBHH 190000Z AUTO 00000KT 19SM M12/M18 A3000 RMK SLP245 T11241180 52001 IEM_DS3505
ZBHH,2010-02-19 01:00,ZBHH 190100Z AUTO 11004KT 6SM M10/M15 A3000 RMK T11001150 IEM_DS3505
ZBHH,2010-02-19 03:00,ZBHH 190300Z AUTO 07002KT 12SM M05/M15 RMK SLP238 T10531146 54000 IEM_DS3505
ZBHH,2010-02-19 05:00,ZBHH 190500Z AUTO 26004KT 6SM M03/M12 A2994 RMK T10301120 IEM_DS3505
ZBHH,2010-02-19 06:00,ZBHH 190600Z AUTO 14004KT 12SM M01/M14 A2991 RMK SLP207 T10081137 57021 IEM_DS3505
ZBHH,2010-02-19 07:00,ZBHH 190700Z AUTO 23004KT 4SM 00/M13 A2988 RMK T00001130 IEM_DS3505
ZBHH,2010-02-19 08:00,ZBHH 190800Z AUTO 25006KT 6SM 01/M14 A2988 RMK T00101140 IEM_DS3505
ZBHH,2010-02-19 09:00,ZBHH 190900Z AUTO 22006KT 19SM 02/M15 A2985 RMK SLP181 T00181148 57022 IEM_DS3505
ZBHH,2010-02-19 10:00,ZBHH 191000Z AUTO 26004KT 6SM 00/M14 A2985 RMK T00001140 IEM_DS3505
ZBHH,2010-02-19 11:00,ZBHH 191100Z AUTO 06006KT 5SM M04/M15 A2985 RMK T10401150 IEM_DS3505
ZBHH,2010-02-19 12:00,ZBHH 191200Z AUTO 04002KT 12SM M02/M14 A2985 RMK SLP196 T10231144 52002 IEM_DS3505
ZBHH,2010-02-19 13:00,ZBHH 191300Z AUTO 10002KT 6SM M08/M16 A2985 RMK T10801160 IEM_DS3505
ZBHH,2010-02-19 14:00,ZBHH 191400Z AUTO 04006KT 6SM M09/M17 A2985 RMK T10901170 IEM_DS3505
ZBHH,2010-02-19 15:00,ZBHH 191500Z AUTO 36002KT 12SM M06/M14 A2985 RMK SLP186 T10601143 57001 IEM_DS3505
ZBHH,2010-02-19 16:00,ZBHH 191600Z AUTO 08004KT 6SM M10/M17 A2985 RMK T11001170 IEM_DS3505
ZBHH,2010-02-19 17:00,ZBHH 191700Z AUTO 05006KT 6SM M11/M18 A2985 RMK T11101180 IEM_DS3505
ZBHH,2010-02-19 18:00,ZBHH 191800Z AUTO 04002KT 19SM M08/M16 A2985 RMK SLP177 T10811158 57003 IEM_DS3505
ZBHH,2010-02-19 19:00,ZBHH 191900Z AUTO 06006KT 6SM M12/M17 A2985 RMK T11201170 IEM_DS3505
ZBHH,2010-02-19 20:00,ZBHH 192000Z AUTO 06006KT 6SM M12/M18 A2983 RMK T11201180 IEM_DS3505
ZBHH,2010-02-19 21:00,ZBHH 192100Z AUTO 36002KT 19SM M10/M16 A2983 RMK SLP164 T10971156 57009 IEM_DS3505
ZBHH,2010-02-19 22:00,ZBHH 192200Z AUTO 04004KT 6SM M14/M18 A2983 RMK T11401180 IEM_DS3505
ZBHH,2010-02-19 23:00,ZBHH 192300Z AUTO 06004KT 6SM M14/M18 A2983 RMK T11401180 IEM_DS3505
ZBHH,2010-02-20 00:00,ZBHH 200000Z AUTO 11002KT 9SM M09/M15 A2983 RMK SLP177 T10871149 52005 IEM_DS3505
ZBHH,2010-02-20 01:00,ZBHH 200100Z AUTO 07006KT 5SM M06/M13 A2983 RMK T10601130 IEM_DS3505
ZBHH,2010-02-20 02:00,ZBHH 200200Z AUTO 15004KT 5SM M03/M11 A2985 RMK T10301110 IEM_DS3505
ZBHH,2010-02-20 03:00,ZBHH 200300Z AUTO 34002KT 6SM M01/M13 A2983 RMK SLP167 T10081130 54000 IEM_DS3505
ZBHH,2010-02-20 04:00,ZBHH 200400Z AUTO 18002KT 6SM 00/M12 A2983 RMK T00001120 IEM_DS3505
ZBHH,2010-02-20 05:00,ZBHH 200500Z AUTO 25002KT 6SM 01/M12 A2980 RMK T00101120 IEM_DS3505
ZBHH,2010-02-20 06:00,ZBHH 200600Z AUTO 25002KT 12SM 03/M13 A2977 RMK SLP138 T00271127 57022 IEM_DS3505
ZBHH,2010-02-20 07:00,ZBHH 200700Z AUTO 24002KT 6SM 04/M13 A2974 RMK T00401130 IEM_DS3505
ZBHH,2010-02-20 08:00,ZBHH 200800Z AUTO 29004KT 6SM 04/M13 A2974 RMK T00401130 IEM_DS3505
ZBHH,2010-02-20 09:00,ZBHH 200900Z AUTO 36002KT 6SM 03/M13 A2974 RMK SLP136 T00321127 57004 IEM_DS3505
ZBHH,2010-02-20 10:00,ZBHH 201000Z AUTO 04004KT 4SM 02/M13 A2974 RMK T00201130 IEM_DS3505
ZBHH,2010-02-20 11:00,ZBHH 201100Z AUTO 09002KT 4SM 02/M13 A2977 RMK T00201130 IEM_DS3505
ZBHH,2010-02-20 12:00,ZBHH 201200Z AUTO 02002KT 12SM 01/M13 A2980 RMK SLP153 T00141127 52013 IEM_DS3505
ZBHH,2010-02-20 13:00,ZBHH 201300Z AUTO 03006KT 5SM M02/M13 A2980 RMK T10201130 IEM_DS3505
ZBHH,2010-02-20 14:00,ZBHH 201400Z AUTO 04006KT 6SM M06/M13 A2983 RMK T10601130 IEM_DS3505
ZBHH,2010-02-20 15:00,ZBHH 201500Z AUTO 09002KT 19SM M03/M12 A2983 RMK SLP153 T10271122 52008 IEM_DS3505
ZBHH,2010-02-20 16:00,ZBHH 201600Z AUTO 09006KT 6SM M07/M14 A2983 RMK T10701140 IEM_DS3505
ZBHH,2010-02-20 17:00,ZBHH 201700Z AUTO 09004KT 6SM M07/M14 A2985 RMK T10701140 IEM_DS3505
ZBHH,2010-02-20 18:00,ZBHH 201800Z AUTO 32004KT 19SM 00/M14 A2988 RMK SLP159 T00011139 52019 IEM_DS3505
ZBHH,2010-02-20 19:00,ZBHH 201900Z AUTO 34010KT 6SM M02/M12 A2988 RMK T10201120 IEM_DS3505
ZBHH,2010-02-20 20:00,ZBHH 202000Z AUTO 35010KT 6SM M02/M12 A2988 RMK T10201120 IEM_DS3505
ZBHH,2010-02-20 21:00,ZBHH 202100Z AUTO 09002KT 19SM M04/M14 A2985 RMK SLP165 T10381137 57002 IEM_DS3505
ZBHH,2010-02-20 22:00,ZBHH 202200Z AUTO 01008KT 6SM M04/M13 A2988 RMK T10401130 IEM_DS3505
ZBHH,2010-02-20 23:00,ZBHH 202300Z AUTO 02010KT 6SM M05/M13 A2988 RMK T10501130 IEM_DS3505
ZBHH,2010-02-21 00:00,ZBHH 210000Z AUTO 25002KT 5SM M05/M13 A2991 RMK SLP187 T10541126 52012 IEM_DS3505
ZBHH,2010-02-21 01:00,ZBHH 210100Z AUTO 13004KT 6SM M05/M13 A2994 RMK T10501130 IEM_DS3505
ZBHH,2010-02-21 02:00,ZBHH 210200Z AUTO 24002KT 6SM M02/M12 A2994 RMK T10201120 IEM_DS3505
ZBHH,2010-02-21 03:00,ZBHH 210300Z AUTO 22004KT 12SM 00/M12 A2994 RMK SLP195 T00011119 52010 IEM_DS3505
ZBHH,2010-02-21 04:00,ZBHH 210400Z AUTO 26002KT 6SM 02/M13 A2991 RMK T00201130 IEM_DS3505
ZBHH,2010-02-21 05:00,ZBHH 210500Z AUTO 23008KT 6SM 03/M13 A2991 RMK T00301130 IEM_DS3505
ZBHH,2010-02-21 06:00,ZBHH 210600Z AUTO 20004KT 19SM 05/M13 A2988 RMK SLP154 T00501134 57020 IEM_DS3505
ZBHH,2010-02-21 07:00,ZBHH 210700Z AUTO 26012KT 6SM 06/M13 A2985 RMK T00601130 IEM_DS3505
ZBHH,2010-02-21 08:00,ZBHH 210800Z AUTO 24016KT 6SM 06/M14 A2985 RMK T00601140 IEM_DS3505
ZBHH,2010-02-21 09:00,ZBHH 210900Z AUTO 25008KT 6SM 06/M15 A2988 RMK SLP160 T00621151 54000 IEM_DS3505
ZBHH,2010-02-21 10:00,ZBHH 211000Z AUTO 24012KT 7SM 05/M15 A2988 RMK T00501150 IEM_DS3505
ZBHH,2010-02-21 11:00,ZBHH 211100Z AUTO 28006KT 7SM 02/M14 A2994 RMK T00201140 IEM_DS3505
ZBHH,2010-02-21 12:00,ZBHH 211200Z AUTO 02004KT 9SM 03/M15 A2997 RMK SLP201 T00301146 52025 IEM_DS3505
ZBHH,2010-02-21 13:00,ZBHH 211300Z AUTO 36006KT 6SM M01/M14 A2997 RMK T10101140 IEM_DS3505
ZBHH,2010-02-21 14:00,ZBHH 211400Z AUTO 03006KT 6SM M02/M13 A2997 RMK T10201130 IEM_DS3505
ZBHH,2010-02-21 15:00,ZBHH 211500Z AUTO 25002KT 9SM M02/M14 A3000 RMK SLP212 T10251142 52010 IEM_DS3505
ZBHH,2010-02-21 16:00,ZBHH 211600Z AUTO 08004KT 6SM M07/M15 A3000 RMK T10701150 IEM_DS3505
ZBHH,2010-02-21 17:00,ZBHH 211700Z AUTO 08004KT 6SM M09/M17 A3000 RMK T10901170 IEM_DS3505
ZBHH,2010-02-21 18:00,ZBHH 211800Z AUTO 29002KT 12SM M04/M14 A2997 RMK SLP203 T10361141 54000 IEM_DS3505
ZBHH,2010-02-21 19:00,ZBHH 211900Z AUTO 04004KT 6SM M11/M17 A2997 RMK T11101170 IEM_DS3505
ZBHH,2010-02-21 20:00,ZBHH 212000Z AUTO 09004KT 6SM M10/M16 A2997 RMK T11001160 IEM_DS3505
ZBHH,2010-02-21 21:00,ZBHH 212100Z AUTO 09002KT 9SM M07/M14 A2994 RMK SLP194 T10681141 57012 IEM_DS3505
ZBHH,2010-02-21 22:00,ZBHH 212200Z AUTO 09006KT 6SM M11/M16 A2997 RMK T11101160 IEM_DS3505
ZBHH,2010-02-21 23:00,ZBHH 212300Z AUTO 04006KT 6SM M11/M16 A2994 RMK T11101160 IEM_DS3505
ZBHH,2010-02-22 00:00,ZBHH 220000Z AUTO 07002KT 9SM M06/M15 A2994 RMK SLP200 T10591146 54000 IEM_DS3505
ZBHH,2010-02-22 01:00,ZBHH 220100Z AUTO 10004KT 6SM M05/M13 A2994 RMK T10501130 IEM_DS3505
ZBHH,2010-02-22 02:00,ZBHH 220200Z AUTO 16004KT 6SM M02/M12 A2994 RMK T10201120 IEM_DS3505
ZBHH,2010-02-22 03:00,ZBHH 220300Z AUTO 02002KT 9SM 00/M14 A2991 RMK SLP185 T00021142 57011 IEM_DS3505
ZBHH,2010-02-22 04:00,ZBHH 220400Z AUTO 24006KT 6SM 02/M13 A2988 RMK T00201130 IEM_DS3505
ZBHH,2010-02-22 05:00,ZBHH 220500Z AUTO 25012KT 6SM 04/M12 A2983 RMK T00401120 IEM_DS3505
ZBHH,2010-02-22 06:00,ZBHH 220600Z AUTO 22010KT 9SM 06/M11 A2980 RMK SLP131 T00621114 57037 IEM_DS3505
ZBHH,2010-02-22 07:00,ZBHH 220700Z AUTO 25016KT 6SM 07/M11 A2977 RMK T00701110 IEM_DS3505
ZBHH,2010-02-22 08:00,ZBHH 220800Z AUTO 24017KT 6SM 08/M11 A2974 RMK T00801110 IEM_DS3505
ZBHH,2010-02-22 09:00,ZBHH 220900Z AUTO 25006KT 12SM 08/M10 A2971 RMK SLP109 T00841100 57022 IEM_DS3505
ZBHH,2010-02-22 10:00,ZBHH 221000Z AUTO 24008KT 4SM 06/M10 A2971 RMK T00601100 IEM_DS3505
ZBHH,2010-02-22 11:00,ZBHH 221100Z AUTO 22008KT 6SM 04/M11 A2971 RMK T00401110 IEM_DS3505
ZBHH,2010-02-22 12:00,ZBHH 221200Z AUTO 25006KT 16SM 06/M10 A2974 RMK SLP112 T00621097 54000 IEM_DS3505
ZBHH,2010-02-22 13:00,ZBHH 221300Z AUTO 06004KT 6SM M02/M11 A2974 RMK T10201110 IEM_DS3505
ZBHH,2010-02-22 14:00,ZBHH 221400Z AUTO 04004KT 6SM M02/M11 A2974 RMK T10201110 IEM_DS3505
ZBHH,2010-02-22 15:00,ZBHH 221500Z AUTO 07002KT 16SM 00/M10 A2974 RMK SLP110 T00001097 57002 IEM_DS3505
ZBHH,2010-02-22 16:00,ZBHH 221600Z AUTO 07004KT 6SM M03/M11 A2971 RMK T10301110 IEM_DS3505
ZBHH,2010-02-22 17:00,ZBHH 221700Z AUTO 09004KT 6SM M06/M13 A2968 RMK T10601130 IEM_DS3505
ZBHH,2010-02-22 18:00,ZBHH 221800Z AUTO 00000KT 19SM M02/M10 A2968 RMK SLP084 T10251105 57015 IEM_DS3505
ZBHH,2010-02-22 19:00,ZBHH 221900Z AUTO 09006KT 6SM M08/M13 A2965 RMK T10801130 IEM_DS3505
ZBHH,2010-02-22 20:00,ZBHH 222000Z AUTO 06008KT 6SM M07/M13 A2965 RMK T10701130 IEM_DS3505
ZBHH,2010-02-22 21:00,ZBHH 222100Z AUTO 07004KT 19SM M02/M10 A2962 RMK SLP062 T10251105 57015 IEM_DS3505
ZBHH,2010-02-22 22:00,ZBHH 222200Z AUTO 07006KT 6SM M08/M13 A2962 RMK T10801130 IEM_DS3505
ZBHH,2010-02-22 23:00,ZBHH 222300Z AUTO 04006KT 7SM M07/M12 A2959 RMK T10701120 IEM_DS3505
ZBHH,2010-02-23 00:00,ZBHH 230000Z AUTO 00000KT 6SM M02/M10 A2962 RMK SLP061 T10251098 57005 IEM_DS3505
ZBHH,2010-02-23 01:00,ZBHH 230100Z AUTO 06006KT 4SM 00/M09 A2959 RMK T00001090 IEM_DS3505
ZBHH,2010-02-23 02:00,ZBHH 230200Z AUTO 11002KT 5SM 05/M06 A2959 RMK T00501060 IEM_DS3505
ZBHH,2010-02-23 03:00,ZBHH 230300Z AUTO 16002KT 4SM 08/M07 A2956 RMK SLP040 T00761069 57011 IEM_DS3505
ZBHH,2010-02-23 04:00,ZBHH 230400Z AUTO 20002KT 6SM 08/M06 A2956 RMK T00801060 IEM_DS3505
ZBHH,2010-02-23 05:00,ZBHH 230500Z AUTO 30006KT 6SM 10/M06 A2953 RMK T01001060 IEM_DS3505
ZBHH,2010-02-23 06:00,ZBHH 230600Z AUTO 22004KT 4SM 11/M06 A2947 RMK SLP007 T01131065 57026 IEM_DS3505
ZBHH,2010-02-23 07:00,ZBHH 230700Z AUTO 35008KT 6SM 11/M06 A2944 RMK T01101060 IEM_DS3505
ZBHH,2010-02-23 08:00,ZBHH 230800Z AUTO 03006KT 7SM 11/M06 A2941 RMK T01101060 IEM_DS3505
ZBHH,2010-02-23 09:00,ZBHH 230900Z AUTO 04002KT 6SM 13/M06 A2938 RMK SLP977 T01281062 57024 IEM_DS3505
ZBHH,2010-02-23 10:00,ZBHH 231000Z AUTO 13002KT 6SM 10/M08 A2941 RMK T01001080 IEM_DS3505
ZBHH,2010-02-23 11:00,ZBHH 231100Z AUTO 5SM 05/M08 A2941 RMK T00501080 IEM_DS3505
ZBHH,2010-02-23 12:00,ZBHH 231200Z AUTO 04002KT 5SM 06/M07 A2944 RMK SLP002 T00581071 52008 IEM_DS3505
ZBHH,2010-02-23 13:00,ZBHH 231300Z AUTO 03004KT 5SM 00/M09 A2944 RMK T00001090 IEM_DS3505
ZBHH,2010-02-23 14:00,ZBHH 231400Z AUTO 03004KT 6SM 01/M10 A2944 RMK T00101100 IEM_DS3505
ZBHH,2010-02-23 15:00,ZBHH 231500Z AUTO 00000KT 12SM 03/M06 A2944 RMK SLP992 T00281063 52006 IEM_DS3505
ZBHH,2010-02-23 16:00,ZBHH 231600Z AUTO 02004KT 6SM 02/M09 A2944 RMK T00201090 IEM_DS3505
ZBHH,2010-02-23 17:00,ZBHH 231700Z AUTO 05006KT 6SM M02/M10 A2944 RMK T10201100 IEM_DS3505
ZBHH,2010-02-23 18:00,ZBHH 231800Z AUTO 36002KT 12SM 00/M07 A2947 RMK SLP995 T00031068 52005 IEM_DS3505
ZBHH,2010-02-23 19:00,ZBHH 231900Z AUTO 06004KT 6SM M04/M10 A2950 RMK T10401100 IEM_DS3505
ZBHH,2010-02-23 20:00,ZBHH 232000Z AUTO 05004KT 6SM M03/M09 A2950 RMK T10301090 IEM_DS3505
ZBHH,2010-02-23 21:00,ZBHH 232100Z AUTO 00000KT 12SM 04/M08 A2953 RMK SLP001 T00391081 52015 IEM_DS3505
ZBHH,2010-02-23 22:00,ZBHH 232200Z AUTO 09006KT 6SM 00/M07 A2953 RMK T00001070 IEM_DS3505
ZBHH,2010-02-23 23:00,ZBHH 232300Z AUTO 04004KT 7SM 00/M09 A2956 RMK T00001090 IEM_DS3505
ZBHH,2010-02-24 00:00,ZBHH 240000Z AUTO 14002KT 6SM 04/M08 A2959 RMK SLP037 T00391075 52018 IEM_DS3505
ZBHH,2010-02-24 01:00,ZBHH 240100Z AUTO 00000KT 7SM 03/M08 A2962 RMK T00301080 IEM_DS3505
ZBHH,2010-02-24 02:00,ZBHH 240200Z AUTO 08002KT 6SM 08/M06 A2962 RMK T00801060 IEM_DS3505
ZBHH,2010-02-24 03:00,ZBHH 240300Z AUTO 22004KT 12SM 10/M06 A2962 RMK SLP046 T01031065 52015 IEM_DS3505
ZBHH,2010-02-24 04:00,ZBHH 240400Z AUTO 24006KT 6SM 11/M04 A2962 RMK T01101040 IEM_DS3505
ZBHH,2010-02-24 05:00,ZBHH 240500Z AUTO 24012KT 7SM 12/M05 A2962 RMK T01201050 IEM_DS3505
ZBHH,2010-02-24 06:00,ZBHH 240600Z AUTO 20006KT 12SM 13/M06 A2962 RMK SLP047 T01311055 52001 IEM_DS3505
ZBHH,2010-02-24 07:00,ZBHH 240700Z AUTO 24008KT 7SM 13/M05 A2962 RMK T01301050 IEM_DS3505
ZBHH,2010-02-24 08:00,ZBHH 240800Z AUTO 33017KT 7SM 13/M14 A2962 RMK T01301140 IEM_DS3505
ZBHH,2010-02-24 09:00,ZBHH 240900Z AUTO 27004KT 19SM 13/M14 A2965 RMK SLP048 T01341136 52009 IEM_DS3505
ZBHH,2010-02-24 10:00,ZBHH 241000Z AUTO 30012KT 6SM 11/M15 A2968 RMK T01101150 IEM_DS3505
ZBHH,2010-02-24 11:00,ZBHH 241100Z AUTO 33010KT 6SM 09/M16 A2974 RMK T00901160 IEM_DS3505
ZBHH,2010-02-24 12:00,ZBHH 241200Z AUTO 29004KT 19SM 06/M10 A2977 RMK SLP104 T00641099 52035 IEM_DS3505
ZBHH,2010-02-24 13:00,ZBHH 241300Z AUTO 35008KT 6SM 05/M10 A2980 RMK T00501100 IEM_DS3505
ZBHH,2010-02-24 14:00,ZBHH 241400Z AUTO 36010KT 6SM 04/M11 A2983 RMK T00401110 IEM_DS3505
ZBHH,2010-02-24 15:00,ZBHH 241500Z AUTO 29004KT 19SM 05/M11 A2983 RMK SLP115 T00481109 52019 IEM_DS3505
ZBHH,2010-02-24 16:00,ZBHH 241600Z AUTO 34006KT 6SM 02/M11 A2983 RMK T00201110 IEM_DS3505
ZBHH,2010-02-24 17:00,ZBHH 241700Z AUTO 01006KT 6SM 02/M12 A2985 RMK T00201120 IEM_DS3505
ZBHH,2010-02-24 18:00,ZBHH 241800Z AUTO 25004KT 12SM 02/M11 A2985 RMK SLP127 T00201108 52011 IEM_DS3505
ZBHH,2010-02-24 19:00,ZBHH 241900Z AUTO 16002KT 6SM M03/M11 A2988 RMK T10301110 IEM_DS3505
ZBHH,2010-02-24 20:00,ZBHH 242000Z AUTO 10002KT 6SM M03/M12 A2988 RMK T10301120 IEM_DS3505
ZBHH,2010-02-24 21:00,ZBHH 242100Z AUTO 09002KT 19SM M00/M10 A2991 RMK SLP139 T10041103 52006 IEM_DS3505
ZBHH,2010-02-24 22:00,ZBHH 242200Z AUTO 14004KT 6SM M05/M12 A2991 RMK T10501120 IEM_DS3505
ZBHH,2010-02-24 23:00,ZBHH 242300Z AUTO 07004KT 6SM M06/M12 A2991 RMK T10601120 IEM_DS3505
ZBHH,2010-02-25 00:00,ZBHH 250000Z AUTO 18002KT 12SM M01/M11 A2994 RMK SLP170 T10101109 52012 IEM_DS3505
ZBHH,2010-02-25 01:00,ZBHH 250100Z AUTO 14004KT 6SM 00/M10 A2994 RMK T00001100 IEM_DS3505
ZBHH,2010-02-25 02:00,ZBHH 250200Z AUTO 36004KT 6SM 04/M12 A2991 RMK T00401120 IEM_DS3505
ZBHH,2010-02-25 03:00,ZBHH 250300Z AUTO 18006KT 16SM 06/M12 A2991 RMK SLP155 T00571118 57003 IEM_DS3505
ZBHH,2010-02-25 04:00,ZBHH 250400Z AUTO 24010KT 6SM 07/M11 A2991 RMK T00701110 IEM_DS3505
ZBHH,2010-02-25 05:00,ZBHH 250500Z AUTO 24010KT 6SM 08/M10 A2988 RMK T00801100 IEM_DS3505
ZBHH,2010-02-25 06:00,ZBHH 250600Z AUTO 18008KT 19SM 09/M10 A2985 RMK SLP131 T00911099 57020 IEM_DS3505
ZBHH,2010-02-25 07:00,ZBHH 250700Z AUTO 24012KT 6SM 10/M09 A2983 RMK T01001090 IEM_DS3505
ZBHH,2010-02-25 08:00,ZBHH 250800Z AUTO 23014KT 6SM 10/M08 A2983 RMK T01001080 IEM_DS3505
ZBHH,2010-02-25 09:00,ZBHH 250900Z AUTO 25006KT 19SM 10/M09 A2983 RMK SLP123 T00991087 57010 IEM_DS3505
ZBHH,2010-02-25 10:00,ZBHH 251000Z AUTO 20004KT 6SM 08/M08 A2983 RMK T00801080 IEM_DS3505
ZBHH,2010-02-25 11:00,ZBHH 251100Z AUTO 13002KT 6SM 07/M08 A2983 RMK T00701080 IEM_DS3505
ZBHH,2010-02-25 12:00,ZBHH 251200Z AUTO 02002KT 6SM 05/M09 A2983 RMK SLP141 T00521086 52005 IEM_DS3505
ZBHH,2010-02-25 13:00,ZBHH 251300Z AUTO 08004KT 6SM M01/M11 A2985 RMK T10101110 IEM_DS3505
ZBHH,2010-02-25 14:00,ZBHH 251400Z AUTO 06006KT 6SM 00/M10 A2985 RMK T00001100 IEM_DS3505
ZBHH,2010-02-25 15:00,ZBHH 251500Z AUTO 32002KT 6SM 03/M09 A2985 RMK SLP142 T00301087 52010 IEM_DS3505
ZBHH,2010-02-25 16:00,ZBHH 251600Z AUTO 10004KT 6SM 02/M09 A2985 RMK T00201090 IEM_DS3505
ZBHH,2010-02-25 17:00,ZBHH 251700Z AUTO 07006KT 6SM 02/M08 A2985 RMK T00201080 IEM_DS3505
ZBHH,2010-02-25 18:00,ZBHH 251800Z AUTO 00000KT 6SM 01/M08 A2985 RMK SLP135 T00111082 57003 IEM_DS3505
ZBHH,2010-02-25 19:00,ZBHH 251900Z AUTO 04004KT 6SM M02/M09 A2985 RMK T10201090 IEM_DS3505
ZBHH,2010-02-25 20:00,ZBHH 252000Z AUTO 07006KT 6SM M02/M09 A2985 RMK T10201090 IEM_DS3505
ZBHH,2010-02-25 21:00,ZBHH 252100Z AUTO 00000KT 19SM 01/M08 A2985 RMK SLP131 T00141081 57001 IEM_DS3505
ZBHH,2010-02-25 22:00,ZBHH 252200Z AUTO 07004KT 6SM M02/M09 A2985 RMK T10201090 IEM_DS3505
ZBHH,2010-02-25 23:00,ZBHH 252300Z AUTO 06008KT 6SM 00/M08 A2985 RMK T00001080 IEM_DS3505
ZBHH,2010-02-26 00:00,ZBHH 260000Z AUTO 09004KT 9SM 00/M08 A2988 RMK SLP154 T00001082 52007 IEM_DS3505
ZBHH,2010-02-26 01:00,ZBHH 260100Z AUTO 07012KT 6SM 03/M08 A2988 RMK T00301080 IEM_DS3505
ZBHH,2010-02-26 02:00,ZBHH 260200Z AUTO 08014KT 6SM 05/M08 A2988 RMK T00501080 IEM_DS3505
ZBHH,2010-02-26 03:00,ZBHH 260300Z AUTO 07006KT 12SM 08/M08 A2985 RMK SLP138 T00791078 57002 IEM_DS3505
ZBHH,2010-02-26 04:00,ZBHH 260400Z AUTO 6SM 09/M07 A2985 RMK T00901070 IEM_DS3505
ZBHH,2010-02-26 05:00,ZBHH 260500Z AUTO 35002KT 6SM 09/M07 A2983 RMK T00901070 IEM_DS3505
ZBHH,2010-02-26 06:00,ZBHH 260600Z AUTO 16002KT 9SM 10/M07 A2980 RMK SLP115 T00951072 57021 IEM_DS3505
ZBHH,2010-02-26 07:00,ZBHH 260700Z AUTO 15002KT 6SM 10/M07 A2977 RMK T01001070 IEM_DS3505
ZBHH,2010-02-26 08:00,ZBHH 260800Z AUTO 16002KT 7SM 10/M07 A2974 RMK T01001070 IEM_DS3505
ZBHH,2010-02-26 09:00,ZBHH 260900Z AUTO 18002KT 6SM 11/M06 A2974 RMK SLP089 T01091064 57019 IEM_DS3505
ZBHH,2010-02-26 10:00,ZBHH 261000Z AUTO 10002KT 7SM 10/M07 A2974 RMK T01001070 IEM_DS3505
ZBHH,2010-02-26 11:00,ZBHH 261100Z AUTO 08004KT 7SM 08/M07 A2974 RMK T00801070 IEM_DS3505
ZBHH,2010-02-26 12:00,ZBHH 261200Z AUTO 25002KT 9SM 09/M06 A2977 RMK SLP105 T00871063 52007 IEM_DS3505
ZBHH,2010-02-26 13:00,ZBHH 261300Z AUTO 04004KT 7SM 06/M07 A2977 RMK T00601070 IEM_DS3505
ZBHH,2010-02-26 14:00,ZBHH 261400Z AUTO 00000KT 7SM 05/M07 A2977 RMK T00501070 IEM_DS3505
ZBHH,2010-02-26 15:00,ZBHH 261500Z AUTO 27002KT 9SM 06/M08 A2977 RMK SLP096 T00651075 52003 IEM_DS3505
ZBHH,2010-02-26 16:00,ZBHH 261600Z AUTO 14002KT 7SM 03/M07 A2977 RMK T00301070 IEM_DS3505
ZBHH,2010-02-26 17:00,ZBHH 261700Z AUTO 07002KT 7SM 04/M06 A2977 RMK T00401060 IEM_DS3505
ZBHH,2010-02-26 18:00,ZBHH 261800Z AUTO 25002KT 9SM 05/M07 A2977 RMK SLP093 T00481070 57003 IEM_DS3505
ZBHH,2010-02-26 19:00,ZBHH 261900Z AUTO 10004KT 7SM 01/M07 A2977 RMK T00101070 IEM_DS3505
ZBHH,2010-02-26 20:00,ZBHH 262000Z AUTO 08004KT 7SM 00/M07 A2974 RMK T00001070 IEM_DS3505
ZBHH,2010-02-26 21:00,ZBHH 262100Z AUTO 09002KT 12SM 02/M06 A2974 RMK SLP082 T00221061 57012 IEM_DS3505
ZBHH,2010-02-26 22:00,ZBHH 262200Z AUTO 09004KT 7SM M01/M07 A2974 RMK T10101070 IEM_DS3505
ZBHH,2010-02-26 23:00,ZBHH 262300Z AUTO 09004KT 7SM M02/M08 A2974 RMK T10201080 IEM_DS3505
ZBHH,2010-02-27 00:00,ZBHH 270000Z AUTO 07002KT 9SM 02/M06 A2977 RMK SLP096 T00231058 52008 IEM_DS3505
ZBHH,2010-02-27 01:00,ZBHH 270100Z AUTO 05002KT 7SM 03/M06 A2977 RMK T00301060 IEM_DS3505
ZBHH,2010-02-27 02:00,ZBHH 270200Z AUTO 27002KT 7SM 04/M05 A2977 RMK T00401050 IEM_DS3505
ZBHH,2010-02-27 03:00,ZBHH 270300Z AUTO 11002KT 9SM 07/M06 A2977 RMK SLP090 T00731057 52001 IEM_DS3505
ZBHH,2010-02-27 04:00,ZBHH 270400Z AUTO 26006KT 4SM 08/M05 A2974 RMK T00801050 IEM_DS3505
ZBHH,2010-02-27 05:00,ZBHH 270500Z AUTO 25006KT 5SM 10/M05 A2971 RMK T01001050 IEM_DS3505
ZBHH,2010-02-27 06:00,ZBHH 270600Z AUTO 20008KT 12SM 12/M06 A2965 RMK SLP055 T01161063 57026 IEM_DS3505
ZBHH,2010-02-27 07:00,ZBHH 270700Z AUTO 23014KT 7SM 12/M07 A2965 RMK T01201070 IEM_DS3505
ZBHH,2010-02-27 08:00,ZBHH 270800Z AUTO 25012KT 7SM 11/M06 A2968 RMK T01101060 IEM_DS3505
ZBHH,2010-02-27 09:00,ZBHH 270900Z AUTO 34010KT 7SM 10/M06 A2971 RMK SLP081 T00961055 52014 IEM_DS3505
ZBHH,2010-02-27 10:00,ZBHH 271000Z AUTO 35017G27KT 7SM 05/M03 A2974 RMK T00501030 IEM_DS3505
ZBHH,2010-02-27 11:00,ZBHH 271100Z AUTO 35019KT 7SM 03/M03 A2980 RMK T00301030 IEM_DS3505
ZBHH,2010-02-27 12:00,ZBHH 271200Z AUTO 29006KT 19SM 02/M07 A2983 RMK SLP145 T00171069 52040 IEM_DS3505
ZBHH,2010-02-27 13:00,ZBHH 271300Z AUTO 35012KT 7SM 01/M08 A2988 RMK T00101080 IEM_DS3505
ZBHH,2010-02-27 14:00,ZBHH 271400Z AUTO 35012KT 7SM 01/M08 A2991 RMK T00101080 IEM_DS3505
ZBHH,2010-02-27 15:00,ZBHH 271500Z AUTO 11004KT 19SM M00/M12 A2991 RMK SLP167 T10041123 52025 IEM_DS3505
ZBHH,2010-02-27 16:00,ZBHH 271600Z AUTO 34012KT 7SM M01/M11 A2994 RMK T10101110 IEM_DS3505
ZBHH,2010-02-27 17:00,ZBHH 271700Z AUTO 36010KT 7SM 00/M13 A2997 RMK T00001130 IEM_DS3505
ZBHH,2010-02-27 18:00,ZBHH 271800Z AUTO 22004KT 19SM M02/M17 A2997 RMK SLP180 T10151172 52018 IEM_DS3505
ZBHH,2010-02-27 19:00,ZBHH 271900Z AUTO 34006KT 7SM M02/M16 A3000 RMK T10201160 IEM_DS3505
ZBHH,2010-02-27 20:00,ZBHH 272000Z AUTO 03004KT 7SM M03/M16 A2997 RMK T10301160 IEM_DS3505
ZBHH,2010-02-27 21:00,ZBHH 272100Z AUTO 29002KT 19SM M03/M19 A2997 RMK SLP183 T10291189 57004 IEM_DS3505
ZBHH,2010-02-27 22:00,ZBHH 272200Z AUTO 05006KT 7SM M03/M19 A2997 RMK T10301190 IEM_DS3505
ZBHH,2010-02-27 23:00,ZBHH 272300Z AUTO 07002KT 7SM M03/M19 A3000 RMK T10301190 IEM_DS3505
ZBHH,2010-02-28 00:00,ZBHH 280000Z AUTO 29004KT 19SM M03/M20 A3000 RMK SLP218 T10271200 52014 IEM_DS3505
ZBHH,2010-02-28 01:00,ZBHH 280100Z AUTO 09004KT 7SM M02/M19 A3003 RMK T10201190 IEM_DS3505
ZBHH,2010-02-28 02:00,ZBHH 280200Z AUTO 08012KT 7SM M01/M22 A3000 RMK T10101220 IEM_DS3505
ZBHH,2010-02-28 03:00,ZBHH 280300Z AUTO 02002KT 9SM M01/M20 A3000 RMK SLP215 T10061197 57002 IEM_DS3505
ZBHH,2010-02-28 04:00,ZBHH 280400Z AUTO 10012KT 7SM M01/M20 A2997 RMK T10101200 IEM_DS3505
ZBHH,2010-02-28 05:00,ZBHH 280500Z AUTO 08012KT 7SM 00/M23 A2997 RMK T00001230 IEM_DS3505
ZBHH,2010-02-28 06:00,ZBHH 280600Z AUTO 09004KT 9SM 01/M24 A2994 RMK SLP191 T00111235 57020 IEM_DS3505
ZBHH,2010-02-28 07:00,ZBHH 280700Z AUTO 10010KT 7SM 01/M22 A2994 RMK T00101220 IEM_DS3505
ZBHH,2010-02-28 08:00,ZBHH 280800Z AUTO 10008KT 7SM 01/M22 A2994 RMK T00101220 IEM_DS3505
ZBHH,2010-02-28 09:00,ZBHH 280900Z AUTO 18002KT 9SM M00/M12 A2994 RMK SLP205 T10021122 52006 IEM_DS3505
ZBHH,2010-02-28 10:00,ZBHH 281000Z AUTO 23004KT 7SM M01/ A2997 RMK IEM_DS3505
ZBHH,2010-02-28 11:00,ZBHH 281100Z AUTO 14002KT 7SM M02/M18 A3000 RMK T10201180 IEM_DS3505
ZBHH,2010-02-28 12:00,ZBHH 281200Z AUTO 00000KT 4SM M02/ A3000 RMK SLP224 52015 IEM_DS3505
ZBHH,2010-02-28 13:00,ZBHH 281300Z AUTO 10004KT 7SM M04/M18 A3003 RMK T10401180 IEM_DS3505
ZBHH,2010-02-28 14:00,ZBHH 281400Z AUTO 11004KT 7SM M04/M18 A3003 RMK T10401180 IEM_DS3505
ZBHH,2010-02-28 15:00,ZBHH 281500Z AUTO 04002KT 5SM M03/M19 A3000 RMK SLP221 T10331192 57002 IEM_DS3505
ZBHH,2010-02-28 16:00,ZBHH 281600Z AUTO 10004KT 7SM M06/M18 A3000 RMK T10601180 IEM_DS3505
ZBHH,2010-02-28 17:00,ZBHH 281700Z AUTO 06006KT 7SM M08/M19 A2997 RMK T10801190 IEM_DS3505
ZBHH,2010-02-28 18:00,ZBHH 281800Z AUTO 09002KT 19SM M05/M19 A2997 RMK SLP213 T10531191 57008 IEM_DS3505
ZBHH,2010-02-28 19:00,ZBHH 281900Z AUTO 05006KT 7SM M07/M17 A2997 RMK T10701170 IEM_DS3505
ZBHH,2010-02-28 20:00,ZBHH 282000Z AUTO 05006KT 7SM M08/M17 A2994 RMK T10801170 IEM_DS3505
ZBHH,2010-02-28 21:00,ZBHH 282100Z AUTO 34002KT 9SM M06/M16 A2997 RMK SLP213 T10571163 57004 IEM_DS3505
ZBHH,2010-02-28 22:00,ZBHH 282200Z AUTO 07002KT 7SM M07/M16 A2997 RMK T10701160 IEM_DS3505
ZBHH,2010-02-28 23:00,ZBHH 282300Z AUTO 07002KT 7SM M06/M15 A2997 RMK T10601150 IEM_DS3505
ZBHH,2010-03-01 00:00,ZBHH 010000Z AUTO 04004KT 7SM M04/M13 A2997 RMK SLP215 T10431134 52002 IEM_DS3505
ZBHH,2010-03-01 01:00,ZBHH 010100Z AUTO 16002KT 2SM M04/M07 A2997 RMK T10401070 IEM_DS3505
ZBHH,2010-03-01 02:00,ZBHH 010200Z AUTO 16002KT 2SM M04/M06 A2994 RMK T10401060 IEM_DS3505
ZBHH,2010-03-01 03:00,ZBHH 010300Z AUTO 09002KT 5SM M03/M08 A2994 RMK SLP199 T10281075 57014 IEM_DS3505
ZBHH,2010-03-01 04:00,ZBHH 010400Z AUTO 16002KT 2 1/2SM M02/M05 A2991 RMK T10201050 IEM_DS3505
ZBHH,2010-03-01 05:00,ZBHH 010500Z AUTO 22002KT 2 1/2SM M02/M05 A2988 RMK T10201050 IEM_DS3505
ZBHH,2010-03-01 06:00,ZBHH 010600Z AUTO 20008KT 5SM M01/M06 A2985 RMK 60000 SLP174 T10061060 57022 IEM_DS3505
ZBHH,2010-03-01 07:00,ZBHH 010700Z AUTO 24008KT 4SM M01/M04 A2985 RMK T10101040 IEM_DS3505
ZBHH,2010-03-01 08:00,ZBHH 010800Z AUTO 23006KT 2 1/2SM M01/M03 A2985 RMK T10101030 IEM_DS3505
ZBHH,2010-03-01 09:00,ZBHH 010900Z AUTO 18006KT 6SM 01/M04 A2985 RMK SLP168 T00071041 57003 IEM_DS3505
ZBHH,2010-03-01 10:00,ZBHH 011000Z AUTO 23004KT 2 1/2SM 00/M03 A2985 RMK T00001030 IEM_DS3505
ZBHH,2010-03-01 11:00,ZBHH 011100Z AUTO 22004KT 3SM M01/M03 A2988 RMK T10101030 IEM_DS3505
ZBHH,2010-03-01 12:00,ZBHH 011200Z AUTO 22002KT 9SM M01/M04 A2991 RMK SLP196 T10141044 52023 IEM_DS3505
ZBHH,2010-03-01 13:00,ZBHH 011300Z AUTO 23004KT 3SM M04/M05 A2994 RMK T10401050 IEM_DS3505
ZBHH,2010-03-01 14:00,ZBHH 011400Z AUTO 03006KT 2 1/2SM M04/M04 A2997 RMK T10401040 IEM_DS3505
ZBHH,2010-03-01 15:00,ZBHH 011500Z AUTO 34006KT 19SM M00/M16 A3000 RMK SLP217 T10041159 52024 IEM_DS3505
ZBHH,2010-03-01 16:00,ZBHH 011600Z AUTO 33012KT 4SM M02/M14 A3000 RMK T10201140 IEM_DS3505
ZBHH,2010-03-01 17:00,ZBHH 011700Z AUTO 35012KT 4SM M03/M14 A3003 RMK T10301140 IEM_DS3505
ZBHH,2010-03-01 18:00,ZBHH 011800Z AUTO 32008KT 19SM M04/M17 A3006 RMK SLP241 T10401169 52018 IEM_DS3505
ZBHH,2010-03-01 19:00,ZBHH 011900Z AUTO 34010KT 6SM M06/M16 A3006 RMK T10601160 IEM_DS3505
ZBHH,2010-03-01 20:00,ZBHH 012000Z AUTO 33006KT 6SM M06/M17 A3006 RMK T10601170 IEM_DS3505
ZBHH,2010-03-01 21:00,ZBHH 012100Z AUTO 32006KT 19SM M06/M19 A3009 RMK 70000 SLP247 T10581192 52004 IEM_DS3505
ZBHH,2010-03-01 22:00,ZBHH 012200Z AUTO 36010KT 6SM M08/M17 A3009 RMK T10801170 IEM_DS3505
ZBHH,2010-03-01 23:00,ZBHH 012300Z AUTO 36010KT 6SM M09/M17 A3012 RMK T10901170 IEM_DS3505
ZBHH,2010-03-02 00:00,ZBHH 020000Z AUTO 09002KT 12SM M07/M19 A3012 RMK 70000 SLP274 T10741187 52015 IEM_DS3505
ZBHH,2010-03-02 01:00,ZBHH 020100Z AUTO 07006KT 6SM M06/M16 A3015 RMK T10601160 IEM_DS3505
ZBHH,2010-03-02 02:00,ZBHH 020200Z AUTO 09004KT 6SM M03/M17 A3012 RMK T10301170 IEM_DS3505
ZBHH,2010-03-02 03:00,ZBHH 020300Z AUTO 18004KT 9SM M01/M20 A3012 RMK SLP258 T10121202 52002 IEM_DS3505
ZBHH,2010-03-02 04:00,ZBHH 020400Z AUTO 22002KT 6SM 00/M19 A3012 RMK T00001190 IEM_DS3505
ZBHH,2010-03-02 05:00,ZBHH 020500Z AUTO 25004KT 6SM 01/M22 A3009 RMK T00101220 IEM_DS3505
ZBHH,2010-03-02 06:00,ZBHH 020600Z AUTO 22006KT 12SM 01/M22 A3009 RMK SLP246 T00111220 57013 IEM_DS3505
ZBHH,2010-03-02 07:00,ZBHH 020700Z AUTO 22010KT 6SM 02/M21 A3009 RMK T00201210 IEM_DS3505
ZBHH,2010-03-02 08:00,ZBHH 020800Z AUTO 23008G17KT 6SM 02/M21 A3006 RMK T00201210 IEM_DS3505
ZBHH,2010-03-02 09:00,ZBHH 020900Z AUTO 25004KT 12SM 02/M20 A3006 RMK SLP237 T00161196 57011 IEM_DS3505
ZBHH,2010-03-02 10:00,ZBHH 021000Z AUTO 24006KT 6SM 00/M21 A3006 RMK T00001210 IEM_DS3505
ZBHH,2010-03-02 11:00,ZBHH 021100Z AUTO 22004KT 5SM M01/M18 A3006 RMK T10101180 IEM_DS3505
ZBHH,2010-03-02 12:00,ZBHH 021200Z AUTO 16002KT 19SM M01/M20 A3006 RMK SLP255 T10081199 52007 IEM_DS3505
ZBHH,2010-03-02 13:00,ZBHH 021300Z AUTO 07004KT 5SM M06/M20 A3009 RMK T10601200 IEM_DS3505
ZBHH,2010-03-02 14:00,ZBHH 021400Z AUTO 07006KT 6SM M06/M20 A3009 RMK T10601200 IEM_DS3505
ZBHH,2010-03-02 15:00,ZBHH 021500Z AUTO 04002KT 19SM M03/M19 A3009 RMK SLP253 T10271191 52008 IEM_DS3505
ZBHH,2010-03-02 16:00,ZBHH 021600Z AUTO 05006KT 6SM M07/M19 A3009 RMK T10701190 IEM_DS3505
ZBHH,2010-03-02 17:00,ZBHH 021700Z AUTO 04006KT 6SM M07/M18 A3006 RMK T10701180 IEM_DS3505
ZBHH,2010-03-02 18:00,ZBHH 021800Z AUTO 04002KT 12SM M04/M18 A3006 RMK SLP236 T10391178 57013 IEM_DS3505
ZBHH,2010-03-02 19:00,ZBHH 021900Z AUTO 06004KT 6SM M08/M19 A3003 RMK T10801190 IEM_DS3505
ZBHH,2010-03-02 20:00,ZBHH 022000Z AUTO 07006KT 6SM M08/M17 A3000 RMK T10801170 IEM_DS3505
ZBHH,2010-03-02 21:00,ZBHH 022100Z AUTO 00000KT 19SM M06/M18 A3000 RMK SLP221 T10551176 57015 IEM_DS3505
ZBHH,2010-03-02 22:00,ZBHH 022200Z AUTO 08004KT 6SM M08/M16 A3003 RMK T10801160 IEM_DS3505
ZBHH,2010-03-02 23:00,ZBHH 022300Z AUTO 08004KT 6SM M08/M16 A3003 RMK T10801160 IEM_DS3505
ZBHH,2010-03-03 00:00,ZBHH 030000Z AUTO 09002KT 4SM M04/M15 A3000 RMK SLP228 T10431147 52003 IEM_DS3505
ZBHH,2010-03-03 01:00,ZBHH 030100Z AUTO 06004KT 6SM M03/M13 A3003 RMK T10301130 IEM_DS3505
ZBHH,2010-03-03 02:00,ZBHH 030200Z AUTO 15004KT 6SM 01/M15 A3000 RMK T00101150 IEM_DS3505
ZBHH,2010-03-03 03:00,ZBHH 030300Z AUTO 34002KT 9SM 03/M15 A3000 RMK SLP210 T00301151 57004 IEM_DS3505
ZBHH,2010-03-03 04:00,ZBHH 030400Z AUTO 28004KT 6SM 04/M14 A2997 RMK T00401140 IEM_DS3505
ZBHH,2010-03-03 05:00,ZBHH 030500Z AUTO 6SM 05/M18 A2994 RMK T00501180 IEM_DS3505
ZBHH,2010-03-03 06:00,ZBHH 030600Z AUTO 20006KT 12SM 07/M20 A2988 RMK SLP163 T00721203 57035 IEM_DS3505
ZBHH,2010-03-03 07:00,ZBHH 030700Z AUTO 23006KT 6SM 07/M16 A2985 RMK T00701160 IEM_DS3505
ZBHH,2010-03-03 08:00,ZBHH 030800Z AUTO 27008KT 7SM 07/M13 A2983 RMK T00701130 IEM_DS3505
ZBHH,2010-03-03 09:00,ZBHH 030900Z AUTO 29006KT 12SM 05/M06 A2983 RMK SLP152 T00531063 57017 IEM_DS3505
ZBHH,2010-03-03 10:00,ZBHH 031000Z AUTO 27012KT 7SM 05/M05 A2983 RMK T00501050 IEM_DS3505
ZBHH,2010-03-03 12:00,ZBHH 031200Z AUTO 25006KT 6SM 05/M01 A2985 RMK SLP157 T00481008 52006 IEM_DS3505
ZBHH,2010-03-03 13:00,ZBHH 031300Z AUTO 26010KT 5SM 03/01 A2985 RMK T00300010 IEM_DS3505
ZBHH,2010-03-03 14:00,ZBHH 031400Z AUTO 26008KT 5SM 02/01 A2985 RMK T00200010 IEM_DS3505
ZBHH,2010-03-03 15:00,ZBHH 031500Z AUTO 22006KT 5SM 02/M00 A2985 RMK SLP145 T00151003 57002 IEM_DS3505
ZBHH,2010-03-03 16:00,ZBHH 031600Z AUTO 18002KT 1/2SM 00/00 A2983 RMK T00000000 IEM_DS3505
ZBHH,2010-03-03 17:00,ZBHH 031700Z AUTO 24002KT 1 1/4SM 00/00 A2983 RMK T00000000 IEM_DS3505
ZBHH,2010-03-03 18:00,ZBHH 031800Z AUTO 20004KT 4SM 00/M00 A2980 RMK 60008 SLP119 T00041005 57016 IEM_DS3505
ZBHH,2010-03-03 19:00,ZBHH 031900Z AUTO 22006KT 1SM 00/00 A2977 RMK T00000000 IEM_DS3505
ZBHH,2010-03-03 20:00,ZBHH 032000Z AUTO 23004KT 1 1/2SM 00/00 A2977 RMK T00000000 IEM_DS3505
ZBHH,2010-03-03 21:00,ZBHH 032100Z AUTO 32006KT 5SM M01/M02 A2977 RMK 70006 SLP117 T10091023 57009 IEM_DS3505
ZBHH,2010-03-03 22:00,ZBHH 032200Z AUTO 32008KT 7SM M02/M02 A2977 RMK T10201020 IEM_DS3505
ZBHH,2010-03-03 23:00,ZBHH 032300Z AUTO 33012KT 7SM M01/M03 A2977 RMK T10101030 IEM_DS3505
ZBHH,2010-03-04 00:00,ZBHH 040000Z AUTO 00000KT 6SM M02/M09 A2980 RMK 60028 70033 SLP133 T10161088 52012 IEM_DS3505
ZBHH,2010-03-04 01:00,ZBHH 040100Z AUTO 35008KT 7SM M02/M07 A2983 RMK T10201070 IEM_DS3505
ZBHH,2010-03-04 02:00,ZBHH 040200Z AUTO 35006KT 7SM M01/M07 A2985 RMK T10101070 IEM_DS3505
ZBHH,2010-03-04 03:00,ZBHH 040300Z AUTO 00000KT 6SM M01/M16 A2985 RMK SLP157 T10141163 52014 IEM_DS3505
ZBHH,2010-03-04 04:00,ZBHH 040400Z AUTO 32014KT 7SM M02/M14 A2985 RMK T10201140 IEM_DS3505
ZBHH,2010-03-04 05:00,ZBHH 040500Z AUTO 32012KT 7SM M01/M14 A2985 RMK T10101140 IEM_DS3505
ZBHH,2010-03-04 06:00,ZBHH 040600Z AUTO 00000KT 12SM 00/M18 A2985 RMK SLP153 T00051182 57002 IEM_DS3505
ZBHH,2010-03-04 07:00,ZBHH 040700Z AUTO 33014KT 7SM M01/M15 A2983 RMK T10101150 IEM_DS3505
ZBHH,2010-03-04 08:00,ZBHH 040800Z AUTO 32016KT 6SM M01/M15 A2985 RMK T10101150 IEM_DS3505
ZBHH,2010-03-04 09:00,ZBHH 040900Z AUTO 32010KT 19SM M01/M19 A2988 RMK SLP173 T10111186 52012 IEM_DS3505
ZBHH,2010-03-04 10:00,ZBHH 041000Z AUTO 35016KT 7SM M06/M12 A2991 RMK T10601120 IEM_DS3505
ZBHH,2010-03-04 11:00,ZBHH 041100Z AUTO 35017G27KT 7SM M07/M14 A2994 RMK T10701140 IEM_DS3505
ZBHH,2010-03-04 12:00,ZBHH 041200Z AUTO 34006KT 12SM M08/M18 A3000 RMK SLP232 T10781182 52035 IEM_DS3505
ZBHH,2010-03-04 13:00,ZBHH 041300Z AUTO 36010KT 7SM M10/M16 A3006 RMK T11001160 IEM_DS3505
ZBHH,2010-03-04 14:00,ZBHH 041400Z AUTO 36012KT 7SM M11/M18 A3012 RMK T11101180 IEM_DS3505
ZBHH,2010-03-04 15:00,ZBHH 041500Z AUTO 36008KT 19SM M12/M20 A3015 RMK SLP295 T11181195 52047 IEM_DS3505
ZBHH,2010-03-04 16:00,ZBHH 041600Z AUTO 36010KT 6SM M12/M20 A3015 RMK T11201200 IEM_DS3505
ZBHH,2010-03-04 17:00,ZBHH 041700Z AUTO 01008KT 6SM M13/M21 A3015 RMK T11301210 IEM_DS3505
ZBHH,2010-03-04 18:00,ZBHH 041800Z AUTO 36002KT 19SM M13/M22 A3018 RMK SLP301 T11321219 52006 IEM_DS3505
ZBHH,2010-03-04 19:00,ZBHH 041900Z AUTO 01006KT 6SM M14/M23 A3018 RMK T11401230 IEM_DS3505
ZBHH,2010-03-04 20:00,ZBHH 042000Z AUTO 31002KT 6SM M15/M23 A3018 RMK T11501230 IEM_DS3505
ZBHH,2010-03-04 21:00,ZBHH 042100Z AUTO 29002KT 19SM M15/M22 A3021 RMK 70026 SLP321 T11481220 52010 IEM_DS3505
ZBHH,2010-03-04 22:00,ZBHH 042200Z AUTO 02006KT 6SM M18/M23 A3021 RMK T11801230 IEM_DS3505
ZBHH,2010-03-04 23:00,ZBHH 042300Z AUTO 06006KT 6SM M19/M25 A3024 RMK T11901250 IEM_DS3505
ZBHH,2010-03-05 00:00,ZBHH 050000Z AUTO 29002KT 19SM M14/M22 A3024 RMK SLP344 T11451222 52006 IEM_DS3505
ZBHH,2010-03-05 01:00,ZBHH 050100Z AUTO 06006KT 6SM M17/M23 A3024 RMK T11701230 IEM_DS3505
ZBHH,2010-03-05 02:00,ZBHH 050200Z AUTO 10006KT 6SM M13/M21 A3024 RMK T11301210 IEM_DS3505
ZBHH,2010-03-05 03:00,ZBHH 050300Z AUTO 09004KT 19SM M10/M24 A3024 RMK SLP343 T11011237 54000 IEM_DS3505
ZBHH,2010-03-05 04:00,ZBHH 050400Z AUTO 10010KT 6SM M11/M23 A3021 RMK T11101230 IEM_DS3505
ZBHH,2010-03-05 05:00,ZBHH 050500Z AUTO 10010KT 6SM M09/M19 A3021 RMK T10901190 IEM_DS3505
ZBHH,2010-03-05 06:00,ZBHH 050600Z AUTO 04008KT 16SM M08/M25 A3018 RMK SLP320 T10751251 57018 IEM_DS3505
ZBHH,2010-03-05 07:00,ZBHH 050700Z AUTO 08012KT 6SM M08/M21 A3015 RMK T10801210 IEM_DS3505
ZBHH,2010-03-05 08:00,ZBHH 050800Z AUTO 11010KT 6SM M07/M20 A3015 RMK T10701200 IEM_DS3505
ZBHH,2010-03-05 09:00,ZBHH 050900Z AUTO 09004KT 9SM M06/M24 A3015 RMK SLP321 T10651238 54000 IEM_DS3505
ZBHH,2010-03-05 10:00,ZBHH 051000Z AUTO 00000KT 6SM M07/M17 A3018 RMK T10701170 IEM_DS3505
ZBHH,2010-03-05 11:00,ZBHH 051100Z AUTO 33002KT 6SM M07/M20 A3021 RMK T10701200 IEM_DS3505
ZBHH,2010-03-05 12:00,ZBHH 051200Z AUTO 36004KT 6SM M07/M21 A3021 RMK SLP335 T10691208 52012 IEM_DS3505
ZBHH,2010-03-05 13:00,ZBHH 051300Z AUTO 07004KT 6SM M10/M16 A3021 RMK T11001160 IEM_DS3505
ZBHH,2010-03-05 14:00,ZBHH 051400Z AUTO 09004KT 7SM M10/M16 A3021 RMK T11001160 IEM_DS3505
ZBHH,2010-03-05 15:00,ZBHH 051500Z AUTO 07004KT 9SM M08/M19 A3024 RMK SLP332 T10791191 52005 IEM_DS3505
ZBHH,2010-03-05 16:00,ZBHH 051600Z AUTO 04006KT 6SM M11/M18 A3024 RMK T11101180 IEM_DS3505
ZBHH,2010-03-05 17:00,ZBHH 051700Z AUTO 08004KT 6SM M13/M18 A3024 RMK T11301180 IEM_DS3505
ZBHH,2010-03-05 18:00,ZBHH 051800Z AUTO 09004KT 19SM M08/M21 A3024 RMK SLP327 T10831211 52001 IEM_DS3505
ZBHH,2010-03-05 19:00,ZBHH 051900Z AUTO 07006KT 6SM M12/M18 A3024 RMK T11201180 IEM_DS3505
ZBHH,2010-03-05 20:00,ZBHH 052000Z AUTO 07008KT 6SM M12/M18 A3021 RMK T11201180 IEM_DS3505
ZBHH,2010-03-05 21:00,ZBHH 052100Z AUTO 04002KT 19SM M10/M19 A3021 RMK SLP324 T10971189 57004 IEM_DS3505
ZBHH,2010-03-05 22:00,ZBHH 052200Z AUTO 08008KT 7SM M11/M15 A3021 RMK T11101150 IEM_DS3505
ZBHH,2010-03-05 23:00,ZBHH 052300Z AUTO 06004KT 3SM M11/M14 A3024 RMK T11101140 IEM_DS3505
ZBHH,2010-03-06 00:00,ZBHH 060000Z AUTO 11002KT 6SM M09/M13 A3024 RMK 60000 70000 SLP337 T10911129 52012 IEM_DS3505
ZBHH,2010-03-06 01:00,ZBHH 060100Z AUTO 11004KT 1 1/4SM M10/M12 A3027 RMK T11001120 IEM_DS3505
ZBHH,2010-03-06 02:00,ZBHH 060200Z AUTO 11004KT 2 1/2SM M09/M11 A3027 RMK T10901110 IEM_DS3505
ZBHH,2010-03-06 03:00,ZBHH 060300Z AUTO 07002KT 9SM M07/M11 A3024 RMK SLP331 T10671114 57002 IEM_DS3505
ZBHH,2010-03-06 04:00,ZBHH 060400Z AUTO 19002KT 6SM M06/M11 A3024 RMK T10601110 IEM_DS3505
ZBHH,2010-03-06 05:00,ZBHH 060500Z AUTO 15004KT 6SM M05/M11 A3024 RMK T10501110 IEM_DS3505
ZBHH,2010-03-06 06:00,ZBHH 060600Z AUTO 27004KT 9SM M04/M12 A3021 RMK 60000 SLP308 T10351115 57014 IEM_DS3505
ZBHH,2010-03-06 07:00,ZBHH 060700Z AUTO 17002KT 6SM M04/M11 A3018 RMK T10401110 IEM_DS3505
ZBHH,2010-03-06 08:00,ZBHH 060800Z AUTO 21002KT 6SM M03/M11 A3018 RMK T10301110 IEM_DS3505
ZBHH,2010-03-06 09:00,ZBHH 060900Z AUTO 09002KT 9SM M02/M12 A3018 RMK SLP297 T10201118 57009 IEM_DS3505
ZBHH,2010-03-06 10:00,ZBHH 061000Z AUTO 07004KT 6SM M04/M10 A3018 RMK T10401100 IEM_DS3505
ZBHH,2010-03-06 11:00,ZBHH 061100Z AUTO 08002KT 6SM M05/M10 A3018 RMK T10501100 IEM_DS3505
ZBHH,2010-03-06 12:00,ZBHH 061200Z AUTO 07004KT 19SM M05/M12 A3021 RMK SLP321 T10461116 52016 IEM_DS3505
ZBHH,2010-03-06 13:00,ZBHH 061300Z AUTO 06004KT 6SM M08/M11 A3024 RMK T10801110 IEM_DS3505
ZBHH,2010-03-06 14:00,ZBHH 061400Z AUTO 05006KT 6SM M08/M12 A3024 RMK T10801120 IEM_DS3505
ZBHH,2010-03-06 15:00,ZBHH 061500Z AUTO 32002KT 12SM M06/M11 A3021 RMK SLP318 T10571114 52001 IEM_DS3505
ZBHH,2010-03-06 16:00,ZBHH 061600Z AUTO 06004KT 6SM M10/M13 A3021 RMK T11001130 IEM_DS3505
ZBHH,2010-03-06 17:00,ZBHH 061700Z AUTO 06008KT 7SM M09/M13 A3021 RMK T10901130 IEM_DS3505
ZBHH,2010-03-06 18:00,ZBHH 061800Z AUTO 00000KT 12SM M06/M12 A3021 RMK SLP302 T10571116 57007 IEM_DS3505
ZBHH,2010-03-06 19:00,ZBHH 061900Z AUTO 10006KT 7SM M08/M11 A3021 RMK T10801110 IEM_DS3505
ZBHH,2010-03-06 20:00,ZBHH 062000Z AUTO 08008KT 7SM M07/M10 A3018 RMK T10701100 IEM_DS3505
ZBHH,2010-03-06 21:00,ZBHH 062100Z AUTO 09004KT 12SM M05/M10 A3015 RMK 70000 SLP280 T10511105 57015 IEM_DS3505
ZBHH,2010-03-06 22:00,ZBHH 062200Z AUTO 08006KT 3SM M07/M08 A3015 RMK T10701080 IEM_DS3505
ZBHH,2010-03-06 23:00,ZBHH 062300Z AUTO 07006KT 2 1/2SM M06/M08 A3015 RMK T10601080 IEM_DS3505
ZBHH,2010-03-07 00:00,ZBHH 070000Z AUTO 07004KT 6SM M05/M07 A3015 RMK 60002 70002 SLP283 T10481068 57002 IEM_DS3505
ZBHH,2010-03-07 01:00,ZBHH 070100Z AUTO 08008KT 1SM M05/M06 A3015 RMK T10501060 IEM_DS3505
ZBHH,2010-03-07 02:00,ZBHH 070200Z AUTO 08010KT 1SM M04/M05 A3015 RMK T10401050 IEM_DS3505
ZBHH,2010-03-07 03:00,ZBHH 070300Z AUTO 07006KT 1 1/4SM M03/M05 A3012 RMK SLP274 T10291051 57006 IEM_DS3505
ZBHH,2010-03-07 04:00,ZBHH 070400Z AUTO 08010KT 4SM M02/M05 A3009 RMK T10201050 IEM_DS3505
ZBHH,2010-03-07 05:00,ZBHH 070500Z AUTO 08008KT 5SM M01/M05 A3006 RMK T10101050 IEM_DS3505
ZBHH,2010-03-07 06:00,ZBHH 070600Z AUTO 32004KT 1 1/4SM M01/M04 A3006 RMK 60004 SLP248 T10121037 57019 IEM_DS3505
ZBHH,2010-03-07 07:00,ZBHH 070700Z AUTO 01006KT 2SM M01/M02 A3006 RMK T10101020 IEM_DS3505
ZBHH,2010-03-07 08:00,ZBHH 070800Z AUTO 08008KT 2 1/2SM M01/M02 A3003 RMK T10101020 IEM_DS3505
ZBHH,2010-03-07 09:00,ZBHH 070900Z AUTO 02004KT 1 1/4SM M01/M03 A3006 RMK SLP244 T10111028 57002 IEM_DS3505
ZBHH,2010-03-07 10:00,ZBHH 071000Z AUTO 10010KT 2 1/2SM M02/M05 A3006 RMK T10201050 IEM_DS3505
ZBHH,2010-03-07 11:00,ZBHH 071100Z AUTO 05010KT 1 1/4SM M04/M06 A3012 RMK T10401060 IEM_DS3505
ZBHH,2010-03-07 12:00,ZBHH 071200Z AUTO 32004KT 1 1/4SM M06/M08 A3018 RMK 60016 SLP303 T10651080 52040 IEM_DS3505
ZBHH,2010-03-07 13:00,ZBHH 071300Z AUTO 03012KT 4SM M06/M09 A3021 RMK T10601090 IEM_DS3505
ZBHH,2010-03-07 14:00,ZBHH 071400Z AUTO 03012KT 7SM M07/M12 A3027 RMK T10701120 IEM_DS3505
ZBHH,2010-03-07 15:00,ZBHH 071500Z AUTO 32006KT 3SM M09/M12 A3030 RMK SLP340 T10871117 52032 IEM_DS3505
ZBHH,2010-03-07 16:00,ZBHH 071600Z AUTO 01012KT 2 1/2SM M09/M10 A3030 RMK T10901100 IEM_DS3505
ZBHH,2010-03-07 17:00,ZBHH 071700Z AUTO 01016KT 2 1/2SM M10/M11 A3030 RMK T11001110 IEM_DS3505
ZBHH,2010-03-07 18:00,ZBHH 071800Z AUTO 29004KT 12SM M11/M16 A3033 RMK 60008 SLP356 T11061165 52013 IEM_DS3505
ZBHH,2010-03-07 19:00,ZBHH 071900Z AUTO 36014KT 7SM M10/M14 A3033 RMK T11001140 IEM_DS3505
ZBHH,2010-03-07 20:00,ZBHH 072000Z AUTO 36016KT 7SM M10/M15 A3036 RMK T11001150 IEM_DS3505
ZBHH,2010-03-07 21:00,ZBHH 072100Z AUTO 32004KT 12SM M12/M18 A3036 RMK 70029 SLP371 T11171181 52011 IEM_DS3505
ZBHH,2010-03-07 22:00,ZBHH 072200Z AUTO 36014KT 7SM M12/M19 A3039 RMK T11201190 IEM_DS3505
ZBHH,2010-03-07 23:00,ZBHH 072300Z AUTO 36017KT 7SM M12/M19 A3045 RMK T11201190 IEM_DS3505
ZBHH,2010-03-08 00:00,ZBHH 080000Z AUTO 09006KT 12SM M12/M20 A3047 RMK 70027 SLP429 T11211204 52037 IEM_DS3505
ZBHH,2010-03-08 01:00,ZBHH 080100Z AUTO 02017KT 7SM M12/M20 A3053 RMK T11201200 IEM_DS3505
ZBHH,2010-03-08 02:00,ZBHH 080200Z AUTO 03016KT 7SM M12/M20 A3053 RMK T11201200 IEM_DS3505
ZBHH,2010-03-08 03:00,ZBHH 080300Z AUTO 07008KT 16SM M10/M21 A3053 RMK SLP448 T11001208 52017 IEM_DS3505
ZBHH,2010-03-08 04:00,ZBHH 080400Z AUTO 04014KT 6SM M11/M22 A3056 RMK T11101220 IEM_DS3505
ZBHH,2010-03-08 05:00,ZBHH 080500Z AUTO 35016KT 6SM M10/M22 A3056 RMK T11001220 IEM_DS3505
ZBHH,2010-03-08 06:00,ZBHH 080600Z AUTO 34004KT 16SM M10/M21 A3056 RMK SLP470 T10961213 52015 IEM_DS3505
ZBHH,2010-03-08 07:00,ZBHH 080700Z AUTO 35017KT 6SM M11/M23 A3059 RMK T11101230 IEM_DS3505
ZBHH,2010-03-08 08:00,ZBHH 080800Z AUTO 36017KT 7SM M11/M21 A3062 RMK T11101210 IEM_DS3505
ZBHH,2010-03-08 09:00,ZBHH 080900Z AUTO 36006KT 12SM M10/M21 A3062 RMK SLP487 T11041206 52011 IEM_DS3505
ZBHH,2010-03-08 10:00,ZBHH 081000Z AUTO 36014KT 7SM M12/M20 A3062 RMK T11201200 IEM_DS3505
ZBHH,2010-03-08 11:00,ZBHH 081100Z AUTO 01010KT 7SM M13/M20 A3065 RMK T11301200 IEM_DS3505
ZBHH,2010-03-08 12:00,ZBHH 081200Z AUTO 25002KT 19SM M13/M23 A3065 RMK SLP507 T11301230 52010 IEM_DS3505
ZBHH,2010-03-08 13:00,ZBHH 081300Z AUTO 01008KT 6SM M13/M22 A3068 RMK T11301220 IEM_DS3505
ZBHH,2010-03-08 14:00,ZBHH 081400Z AUTO 36004KT 6SM M14/M21 A3068 RMK T11401210 IEM_DS3505
ZBHH,2010-03-08 15:00,ZBHH 081500Z AUTO 34006KT 19SM M14/M20 A3068 RMK SLP507 T11371196 52003 IEM_DS3505
ZBHH,2010-03-08 16:00,ZBHH 081600Z AUTO 04004KT 6SM M16/M20 A3068 RMK T11601200 IEM_DS3505
ZBHH,2010-03-08 17:00,ZBHH 081700Z AUTO 03006KT 6SM M15/M20 A3065 RMK T11501200 IEM_DS3505
ZBHH,2010-03-08 18:00,ZBHH 081800Z AUTO 32004KT 19SM M15/M22 A3062 RMK SLP495 T11461225 57011 IEM_DS3505
ZBHH,2010-03-08 19:00,ZBHH 081900Z AUTO 14002KT 6SM M20/M23 A3062 RMK T12001230 IEM_DS3505
ZBHH,2010-03-08 20:00,ZBHH 082000Z AUTO 11006KT 6SM M22/M25 A3059 RMK T12201250 IEM_DS3505
ZBHH,2010-03-08 21:00,ZBHH 082100Z AUTO 32004KT 19SM M16/M25 A3059 RMK SLP479 T11581253 57019 IEM_DS3505
ZBHH,2010-03-08 22:00,ZBHH 082200Z AUTO 15002KT 6SM A3056 RMK IEM_DS3505
ZBHH,2010-03-08 23:00,ZBHH 082300Z AUTO 14002KT 6SM A3056 RMK IEM_DS3505
ZBHH,2010-03-09 00:00,ZBHH 090000Z AUTO 34002KT 19SM M17/M22 A3056 RMK SLP490 T11741224 57001 IEM_DS3505
ZBHH,2010-03-09 01:00,ZBHH 090100Z AUTO 16004KT 6SM M18/M22 A3059 RMK T11801220 IEM_DS3505
ZBHH,2010-03-09 02:00,ZBHH 090200Z AUTO 17006KT 6SM M16/M20 A3056 RMK T11601200 IEM_DS3505
ZBHH,2010-03-09 03:00,ZBHH 090300Z AUTO 22006KT 12SM M12/M23 A3053 RMK SLP465 T11201234 57010 IEM_DS3505
ZBHH,2010-03-09 04:00,ZBHH 090400Z AUTO 17006KT 6SM M13/M19 A3053 RMK T11301190 IEM_DS3505
ZBHH,2010-03-09 05:00,ZBHH 090500Z AUTO 23008KT 5SM M11/M16 A3050 RMK T11101160 IEM_DS3505
ZBHH,2010-03-09 06:00,ZBHH 090600Z AUTO 18010KT 19SM M08/M18 A3045 RMK SLP424 T10771178 57028 IEM_DS3505
ZBHH,2010-03-09 07:00,ZBHH 090700Z AUTO 23010KT 6SM M08/M15 A3042 RMK T10801150 IEM_DS3505
ZBHH,2010-03-09 08:00,ZBHH 090800Z AUTO 23010KT 6SM M08/M14 A3042 RMK T10801140 IEM_DS3505
ZBHH,2010-03-09 09:00,ZBHH 090900Z AUTO 25006KT 19SM M06/M16 A3039 RMK SLP406 T10591165 57014 IEM_DS3505
ZBHH,2010-03-09 10:00,ZBHH 091000Z AUTO 23010KT 6SM M08/M15 A3039 RMK T10801150 IEM_DS3505
ZBHH,2010-03-09 11:00,ZBHH 091100Z AUTO 21008KT 6SM M10/M16 A3039 RMK T11001160 IEM_DS3505
ZBHH,2010-03-09 12:00,ZBHH 091200Z AUTO 27004KT 19SM M08/M15 A3039 RMK SLP407 T10811151 57008 IEM_DS3505
ZBHH,2010-03-09 13:00,ZBHH 091300Z AUTO 05004KT 6SM M13/M17 A3039 RMK T11301170 IEM_DS3505
ZBHH,2010-03-09 14:00,ZBHH 091400Z AUTO 07004KT 6SM M14/M18 A3036 RMK T11401180 IEM_DS3505
ZBHH,2010-03-09 15:00,ZBHH 091500Z AUTO 09004KT 19SM M11/M16 A3036 RMK SLP388 T11101165 57011 IEM_DS3505
ZBHH,2010-03-09 16:00,ZBHH 091600Z AUTO 07004KT 6SM M17/M21 A3033 RMK T11701210 IEM_DS3505
ZBHH,2010-03-09 17:00,ZBHH 091700Z AUTO 07006KT 6SM M17/M20 A3030 RMK T11701200 IEM_DS3505
ZBHH,2010-03-09 18:00,ZBHH 091800Z AUTO 09004KT 19SM M12/M18 A3030 RMK SLP359 T11251185 57018 IEM_DS3505
ZBHH,2010-03-09 19:00,ZBHH 091900Z AUTO 07004KT 6SM M19/M22 A3027 RMK T11901220 IEM_DS3505
ZBHH,2010-03-09 20:00,ZBHH 092000Z AUTO 06006KT 6SM M20/M22 A3024 RMK T12001220 IEM_DS3505
ZBHH,2010-03-09 21:00,ZBHH 092100Z AUTO 07002KT 19SM M14/M19 A3024 RMK SLP337 T11381190 57018 IEM_DS3505
ZBHH,2010-03-09 22:00,ZBHH 092200Z AUTO 07006KT 6SM M20/M23 A3021 RMK T12001230 IEM_DS3505
ZBHH,2010-03-09 23:00,ZBHH 092300Z AUTO 08006KT 6SM M20/M23 A3021 RMK T12001230 IEM_DS3505
ZBHH,2010-03-10 00:00,ZBHH 100000Z AUTO 09004KT 9SM M13/M18 A3018 RMK SLP329 T11291185 57010 IEM_DS3505
ZBHH,2010-03-10 01:00,ZBHH 100100Z AUTO 10004KT 6SM M12/M17 A3018 RMK T11201170 IEM_DS3505
ZBHH,2010-03-10 02:00,ZBHH 100200Z AUTO 13002KT 6SM M09/M16 A3018 RMK T10901160 IEM_DS3505
ZBHH,2010-03-10 03:00,ZBHH 100300Z AUTO 14004KT 16SM M08/M17 A3012 RMK SLP299 T10751169 57021 IEM_DS3505
ZBHH,2010-03-10 04:00,ZBHH 100400Z AUTO 18004KT 6SM M08/M15 A3009 RMK T10801150 IEM_DS3505
ZBHH,2010-03-10 05:00,ZBHH 100500Z AUTO 14004KT 6SM M07/M14 A3003 RMK T10701140 IEM_DS3505
ZBHH,2010-03-10 06:00,ZBHH 100600Z AUTO 18008KT 12SM M04/M14 A3000 RMK SLP248 T10431145 57040 IEM_DS3505
ZBHH,2010-03-10 07:00,ZBHH 100700Z AUTO 20004KT 6SM M04/M12 A2997 RMK T10401120 IEM_DS3505
ZBHH,2010-03-10 08:00,ZBHH 100800Z AUTO 18004KT 6SM M03/M10 A2994 RMK T10301100 IEM_DS3505
ZBHH,2010-03-10 09:00,ZBHH 100900Z AUTO 18006KT 16SM M02/M11 A2994 RMK SLP220 T10191107 57022 IEM_DS3505
ZBHH,2010-03-10 10:00,ZBHH 101000Z AUTO 08004KT 6SM M04/M10 A2991 RMK T10401100 IEM_DS3505
ZBHH,2010-03-10 11:00,ZBHH 101100Z AUTO 08004KT 6SM M04/M10 A2991 RMK T10401100 IEM_DS3505
ZBHH,2010-03-10 12:00,ZBHH 101200Z AUTO 09004KT 12SM M04/M10 A2994 RMK SLP227 T10371105 52004 IEM_DS3505
ZBHH,2010-03-10 13:00,ZBHH 101300Z AUTO 06002KT 6SM M07/M10 A2994 RMK T10701100 IEM_DS3505
ZBHH,2010-03-10 14:00,ZBHH 101400Z AUTO 04006KT 6SM M07/M11 A2991 RMK T10701110 IEM_DS3505
ZBHH,2010-03-10 15:00,ZBHH 101500Z AUTO 00000KT 12SM M06/M11 A2991 RMK SLP212 T10631114 57007 IEM_DS3505
ZBHH,2010-03-10 16:00,ZBHH 101600Z AUTO 08008KT 6SM M08/M11 A2988 RMK T10801110 IEM_DS3505
ZBHH,2010-03-10 17:00,ZBHH 101700Z AUTO 06004KT 6SM M09/M12 A2985 RMK T10901120 IEM_DS3505
ZBHH,2010-03-10 18:00,ZBHH 101800Z AUTO 00000KT 12SM M06/M11 A2985 RMK SLP182 T10651109 57020 IEM_DS3505
ZBHH,2010-03-10 19:00,ZBHH 101900Z AUTO 04004KT 6SM M09/M11 A2983 RMK T10901110 IEM_DS3505
ZBHH,2010-03-10 20:00,ZBHH 102000Z AUTO 08004KT 6SM M08/M11 A2980 RMK T10801110 IEM_DS3505
ZBHH,2010-03-10 21:00,ZBHH 102100Z AUTO 32002KT 12SM M06/M10 A2980 RMK SLP154 T10571103 57017 IEM_DS3505
ZBHH,2010-03-10 22:00,ZBHH 102200Z AUTO 04006KT 6SM M09/M11 A2977 RMK T10901110 IEM_DS3505
ZBHH,2010-03-10 23:00,ZBHH 102300Z AUTO 06004KT 4SM M10/M12 A2977 RMK T11001120 IEM_DS3505
ZBHH,2010-03-11 00:00,ZBHH 110000Z AUTO 02002KT 6SM M05/M10 A2977 RMK SLP148 T10481102 57007 IEM_DS3505
ZBHH,2010-03-11 01:00,ZBHH 110100Z AUTO 08004KT 4SM M06/M09 A2977 RMK T10601090 IEM_DS3505
ZBHH,2010-03-11 02:00,ZBHH 110200Z AUTO 08006KT 4SM M02/M06 A2974 RMK T10201060 IEM_DS3505
ZBHH,2010-03-11 03:00,ZBHH 110300Z AUTO 11002KT 9SM M00/M09 A2971 RMK SLP126 T10041088 57016 IEM_DS3505
ZBHH,2010-03-11 04:00,ZBHH 110400Z AUTO 14004KT 5SM 00/M08 A2968 RMK T00001080 IEM_DS3505
ZBHH,2010-03-11 05:00,ZBHH 110500Z AUTO 21002KT 6SM 01/M08 A2968 RMK T00101080 IEM_DS3505
ZBHH,2010-03-11 06:00,ZBHH 110600Z AUTO 18004KT 7SM 02/M08 A2965 RMK SLP095 T00191077 57022 IEM_DS3505
ZBHH,2010-03-11 07:00,ZBHH 110700Z AUTO 12002KT 3SM 02/M07 A2962 RMK T00201070 IEM_DS3505
ZBHH,2010-03-11 08:00,ZBHH 110800Z AUTO 16002KT 4SM 02/M05 A2962 RMK T00201050 IEM_DS3505
ZBHH,2010-03-11 09:00,ZBHH 110900Z AUTO 04002KT 9SM 03/M07 A2965 RMK SLP092 T00291070 52001 IEM_DS3505
ZBHH,2010-03-11 10:00,ZBHH 111000Z AUTO 11004KT 3SM 01/M04 A2965 RMK T00101040 IEM_DS3505
ZBHH,2010-03-11 11:00,ZBHH 111100Z AUTO 11004KT 4SM 01/M05 A2971 RMK T00101050 IEM_DS3505
ZBHH,2010-03-11 12:00,ZBHH 111200Z AUTO 34014G21KT 1/4SM 04/M08 A2977 RMK SLP141 T00381082 52047 IEM_DS3505
ZBHH,2010-03-11 13:00,ZBHH 111300Z AUTO 34019KT 2SM 00/M07 A2985 RMK T00001070 IEM_DS3505
ZBHH,2010-03-11 14:00,ZBHH 111400Z AUTO 33012KT 6SM M02/M08 A2991 RMK T10201080 IEM_DS3505
ZBHH,2010-03-11 15:00,ZBHH 111500Z AUTO 25002KT 19SM M03/M11 A2994 RMK SLP198 T10341111 52044 IEM_DS3505
ZBHH,2010-03-11 16:00,ZBHH 111600Z AUTO 31012KT 7SM M05/M10 A2994 RMK T10501100 IEM_DS3505
ZBHH,2010-03-11 17:00,ZBHH 111700Z AUTO 33012KT 7SM M06/M10 A2994 RMK T10601100 IEM_DS3505
ZBHH,2010-03-11 18:00,ZBHH 111800Z AUTO 02004KT 19SM M05/M12 A2997 RMK SLP208 T10531118 52009 IEM_DS3505
ZBHH,2010-03-11 19:00,ZBHH 111900Z AUTO 36012KT 7SM M06/M11 A2997 RMK T10601110 IEM_DS3505
ZBHH,2010-03-11 20:00,ZBHH 112000Z AUTO 03006KT 7SM M07/M12 A2997 RMK T10701120 IEM_DS3505
ZBHH,2010-03-11 21:00,ZBHH 112100Z AUTO 09004KT 19SM M06/M12 A2997 RMK SLP204 T10651122 57004 IEM_DS3505
ZBHH,2010-03-11 22:00,ZBHH 112200Z AUTO 11004KT 6SM M10/M13 A3000 RMK T11001130 IEM_DS3505
ZBHH,2010-03-11 23:00,ZBHH 112300Z AUTO 09008KT 6SM M11/M14 A3000 RMK T11101140 IEM_DS3505
ZBHH,2010-03-12 00:00,ZBHH 120000Z AUTO 04004KT 12SM M07/M13 A3003 RMK SLP221 T10671130 52017 IEM_DS3505
ZBHH,2010-03-12 01:00,ZBHH 120100Z AUTO 09006KT 6SM M06/M11 A3003 RMK T10601110 IEM_DS3505
ZBHH,2010-03-12 02:00,ZBHH 120200Z AUTO 10008KT 6SM M04/M10 A3003 RMK T10401100 IEM_DS3505
ZBHH,2010-03-12 03:00,ZBHH 120300Z AUTO 09006KT 9SM M02/M11 A3000 RMK SLP226 T10151111 54000 IEM_DS3505
ZBHH,2010-03-12 04:00,ZBHH 120400Z AUTO 08004KT 6SM 00/M10 A3000 RMK T00001100 IEM_DS3505
ZBHH,2010-03-12 05:00,ZBHH 120500Z AUTO 10004KT 6SM 02/M12 A2997 RMK T00201120 IEM_DS3505
ZBHH,2010-03-12 06:00,ZBHH 120600Z AUTO 14002KT 7SM 04/M12 A2994 RMK SLP199 T00391117 57016 IEM_DS3505
ZBHH,2010-03-12 07:00,ZBHH 120700Z AUTO 6SM 02/M11 A2994 RMK T00201110 IEM_DS3505
ZBHH,2010-03-12 08:00,ZBHH 120800Z AUTO 12004KT 6SM 03/M11 A2994 RMK T00301110 IEM_DS3505
ZBHH,2010-03-12 09:00,ZBHH 120900Z AUTO 11002KT 9SM 03/M11 A2994 RMK SLP197 T00281111 57007 IEM_DS3505
ZBHH,2010-03-12 10:00,ZBHH 121000Z AUTO 13002KT 6SM 03/M10 A2994 RMK T00301100 IEM_DS3505
ZBHH,2010-03-12 11:00,ZBHH 121100Z AUTO 12002KT 6SM 02/M09 A2997 RMK T00201090 IEM_DS3505
ZBHH,2010-03-12 12:00,ZBHH 121200Z AUTO 32002KT 9SM 02/M09 A3000 RMK SLP219 T00151091 52016 IEM_DS3505
ZBHH,2010-03-12 13:00,ZBHH 121300Z AUTO 03004KT 6SM 00/M07 A3000 RMK T00001070 IEM_DS3505
ZBHH,2010-03-12 14:00,ZBHH 121400Z AUTO 04006KT 6SM M01/M06 A3000 RMK T10101060 IEM_DS3505
ZBHH,2010-03-12 15:00,ZBHH 121500Z AUTO 32002KT 12SM M02/M08 A3003 RMK SLP226 T10151082 52011 IEM_DS3505
ZBHH,2010-03-12 16:00,ZBHH 121600Z AUTO 04006KT 6SM M03/M07 A3000 RMK T10301070 IEM_DS3505
ZBHH,2010-03-12 17:00,ZBHH 121700Z AUTO 04006KT 7SM M03/M08 A3003 RMK T10301080 IEM_DS3505
ZBHH,2010-03-12 18:00,ZBHH 121800Z AUTO 00000KT 12SM M03/M08 A3003 RMK SLP218 T10321079 52001 IEM_DS3505
ZBHH,2010-03-12 19:00,ZBHH 121900Z AUTO 08006KT 7SM M04/M08 A3003 RMK T10401080 IEM_DS3505
ZBHH,2010-03-12 20:00,ZBHH 122000Z AUTO 04006KT 7SM M04/M08 A3000 RMK T10401080 IEM_DS3505
ZBHH,2010-03-12 21:00,ZBHH 122100Z AUTO 00000KT 19SM M03/M09 A3000 RMK SLP213 T10331093 57007 IEM_DS3505
ZBHH,2010-03-12 22:00,ZBHH 122200Z AUTO 07006KT 7SM M05/M09 A3000 RMK T10501090 IEM_DS3505
ZBHH,2010-03-12 23:00,ZBHH 122300Z AUTO 07008KT 7SM M05/M09 A3000 RMK T10501090 IEM_DS3505
ZBHH,2010-03-13 00:00,ZBHH 130000Z AUTO 04002KT 9SM M03/M08 A3000 RMK SLP214 T10261083 54000 IEM_DS3505
ZBHH,2010-03-13 01:00,ZBHH 130100Z AUTO 06008KT 4SM M01/M06 A3000 RMK T10101060 IEM_DS3505
ZBHH,2010-03-13 02:00,ZBHH 130200Z AUTO 09006KT 3SM 03/M06 A3000 RMK T00301060 IEM_DS3505
ZBHH,2010-03-13 03:00,ZBHH 130300Z AUTO 02002KT 4SM 05/M06 A2997 RMK SLP194 T00521064 57008 IEM_DS3505
ZBHH,2010-03-13 04:00,ZBHH 130400Z AUTO 06002KT 4SM 07/M05 A2994 RMK T00701050 IEM_DS3505
ZBHH,2010-03-13 05:00,ZBHH 130500Z AUTO 14004KT 2 1/2SM 09/M06 A2991 RMK T00901060 IEM_DS3505
ZBHH,2010-03-13 06:00,ZBHH 130600Z AUTO 32002KT 3SM 10/M06 A2988 RMK SLP152 T01011058 57030 IEM_DS3505
ZBHH,2010-03-13 07:00,ZBHH 130700Z AUTO 29002KT 2 1/2SM 11/M06 A2985 RMK T01101060 IEM_DS3505
ZBHH,2010-03-13 08:00,ZBHH 130800Z AUTO 04002KT 2 1/2SM 11/M06 A2985 RMK T01101060 IEM_DS3505
ZBHH,2010-03-13 09:00,ZBHH 130900Z AUTO 04004KT 4SM 11/M05 A2983 RMK SLP129 T01061054 57019 IEM_DS3505
ZBHH,2010-03-13 10:00,ZBHH 131000Z AUTO 01004KT 2 1/2SM 10/M05 A2983 RMK T01001050 IEM_DS3505
ZBHH,2010-03-13 11:00,ZBHH 131100Z AUTO 02004KT 2 1/2SM 08/M03 A2980 RMK T00801030 IEM_DS3505
ZBHH,2010-03-13 12:00,ZBHH 131200Z AUTO 00000KT 6SM 07/M03 A2983 RMK SLP137 T00711032 52001 IEM_DS3505
ZBHH,2010-03-13 13:00,ZBHH 131300Z AUTO 08004KT 4SM 05/M01 A2983 RMK T00501010 IEM_DS3505
ZBHH,2010-03-13 14:00,ZBHH 131400Z AUTO 07004KT 4SM 05/M01 A2985 RMK T00501010 IEM_DS3505
ZBHH,2010-03-13 15:00,ZBHH 131500Z AUTO 09002KT 7SM 06/M02 A2988 RMK SLP135 T00631018 52013 IEM_DS3505
ZBHH,2010-03-13 16:00,ZBHH 131600Z AUTO 05006KT 4SM 03/M01 A2988 RMK T00301010 IEM_DS3505
ZBHH,2010-03-13 17:00,ZBHH 131700Z AUTO 04004KT 4SM 03/M01 A2988 RMK T00301010 IEM_DS3505
ZBHH,2010-03-13 18:00,ZBHH 131800Z AUTO 14002KT 7SM 06/M02 A2985 RMK SLP124 T00551023 57002 IEM_DS3505
ZBHH,2010-03-13 19:00,ZBHH 131900Z AUTO 07004KT 4SM 02/M01 A2985 RMK T00201010 IEM_DS3505
ZBHH,2010-03-13 20:00,ZBHH 132000Z AUTO 03004KT 4SM 04/M01 A2983 RMK T00401010 IEM_DS3505
ZBHH,2010-03-13 21:00,ZBHH 132100Z AUTO 32006KT 7SM 05/01 A2985 RMK SLP125 T00510012 52001 IEM_DS3505
ZBHH,2010-03-13 22:00,ZBHH 132200Z AUTO 33006KT 5SM 05/01 A2985 RMK T00500010 IEM_DS3505
ZBHH,2010-03-13 23:00,ZBHH 132300Z AUTO 34010KT 7SM 04/00 A2988 RMK T00400000 IEM_DS3505
ZBHH,2010-03-14 00:00,ZBHH 140000Z AUTO 29004KT 7SM 04/M01 A2991 RMK 60000 70000 SLP157 T00391013 52019 IEM_DS3505
ZBHH,2010-03-14 01:00,ZBHH 140100Z AUTO 33004KT 7SM 03/00 A2994 RMK T00300000 IEM_DS3505
ZBHH,2010-03-14 02:00,ZBHH 140200Z AUTO 34012KT 7SM 03/M01 A3000 RMK T00301010 IEM_DS3505
ZBHH,2010-03-14 03:00,ZBHH 140300Z AUTO 00000KT 19SM 04/M05 A3003 RMK SLP197 T00381049 52033 IEM_DS3505
ZBHH,2010-03-14 04:00,ZBHH 140400Z AUTO 35010KT 7SM 04/M05 A3003 RMK T00401050 IEM_DS3505
ZBHH,2010-03-14 05:00,ZBHH 140500Z AUTO 36010KT 7SM 04/M10 A3006 RMK T00401100 IEM_DS3505
ZBHH,2010-03-14 06:00,ZBHH 140600Z AUTO 00000KT 12SM 05/M09 A3006 RMK SLP204 T00521090 52008 IEM_DS3505
ZBHH,2010-03-14 07:00,ZBHH 140700Z AUTO 31008KT 7SM 05/M08 A3003 RMK T00501080 IEM_DS3505
ZBHH,2010-03-14 08:00,ZBHH 140800Z AUTO 26006KT 7SM 06/M07 A3003 RMK T00601070 IEM_DS3505
ZBHH,2010-03-14 09:00,ZBHH 140900Z AUTO 00000KT 6SM 06/M13 A3003 RMK SLP193 T00631128 57009 IEM_DS3505
ZBHH,2010-03-14 10:00,ZBHH 141000Z AUTO 31019G29KT 4SM 04/M15 A3003 RMK T00401150 IEM_DS3505
ZBHH,2010-03-14 11:00,ZBHH 141100Z AUTO 33017KT 4SM 03/M17 A3006 RMK T00301170 IEM_DS3505
ZBHH,2010-03-14 12:00,ZBHH 141200Z AUTO 00000KT 11SM 01/M19 A3009 RMK SLP232 T00141191 52022 IEM_DS3505
ZBHH,2010-03-14 13:00,ZBHH 141300Z AUTO 34023G33KT 6SM M01/M17 A3012 RMK T10101170 IEM_DS3505
ZBHH,2010-03-14 14:00,ZBHH 141400Z AUTO 34017G29KT 6SM M02/M17 A3015 RMK T10201170 IEM_DS3505
ZBHH,2010-03-14 15:00,ZBHH 141500Z AUTO 32006KT 7SM M03/M21 A3021 RMK SLP285 T10291212 52037 IEM_DS3505
ZBHH,2010-03-14 16:00,ZBHH 141600Z AUTO 33016KT 4SM M04/M19 A3021 RMK T10401190 IEM_DS3505
ZBHH,2010-03-14 17:00,ZBHH 141700Z AUTO 33016KT 4SM M06/M18 A3024 RMK T10601180 IEM_DS3505
ZBHH,2010-03-14 18:00,ZBHH 141800Z AUTO 32012KT 7SM M07/M20 A3024 RMK SLP297 T10661202 52006 IEM_DS3505
ZBHH,2010-03-14 19:00,ZBHH 141900Z AUTO 32010KT 6SM M07/M19 A3024 RMK T10701190 IEM_DS3505
ZBHH,2010-03-14 20:00,ZBHH 142000Z AUTO 29008KT 6SM M08/M19 A3024 RMK T10801190 IEM_DS3505
ZBHH,2010-03-14 21:00,ZBHH 142100Z AUTO 32010KT 7SM M08/M21 A3024 RMK 70000 SLP300 T10811209 52001 IEM_DS3505
ZBHH,2010-03-14 22:00,ZBHH 142200Z AUTO 33010KT 6SM M09/M19 A3027 RMK T10901190 IEM_DS3505
ZBHH,2010-03-14 23:00,ZBHH 142300Z AUTO 34008KT 6SM M10/M19 A3027 RMK T11001190 IEM_DS3505
ZBHH,2010-03-15 00:00,ZBHH 150000Z AUTO 36004KT 19SM M08/M21 A3030 RMK SLP328 T10831211 52014 IEM_DS3505
ZBHH,2010-03-15 01:00,ZBHH 150100Z AUTO 35008KT 6SM M07/M20 A3030 RMK T10701200 IEM_DS3505
ZBHH,2010-03-15 02:00,ZBHH 150200Z AUTO 36010KT 6SM M06/M20 A3030 RMK T10601200 IEM_DS3505
ZBHH,2010-03-15 03:00,ZBHH 150300Z AUTO 32006G23KT 19SM M04/M22 A3030 RMK SLP334 T10381224 52005 IEM_DS3505
ZBHH,2010-03-15 04:00,ZBHH 150400Z AUTO 35010KT 6SM M04/M20 A3030 RMK T10401200 IEM_DS3505
ZBHH,2010-03-15 05:00,ZBHH 150500Z AUTO 29016KT 7SM M03/M20 A3027 RMK T10301200 IEM_DS3505
ZBHH,2010-03-15 06:00,ZBHH 150600Z AUTO 29014KT 19SM M01/M24 A3024 RMK SLP312 T10111238 57021 IEM_DS3505
ZBHH,2010-03-15 07:00,ZBHH 150700Z AUTO 31016G25KT 7SM M02/M21 A3021 RMK T10201210 IEM_DS3505
ZBHH,2010-03-15 08:00,ZBHH 150800Z AUTO 31016KT 7SM M01/M20 A3021 RMK T10101200 IEM_DS3505
ZBHH,2010-03-15 09:00,ZBHH 150900Z AUTO 32006KT 12SM M01/M21 A3018 RMK SLP296 T10111212 57017 IEM_DS3505
ZBHH,2010-03-15 10:00,ZBHH 151000Z AUTO 32012KT 7SM M02/M19 A3018 RMK T10201190 IEM_DS3505
ZBHH,2010-03-15 11:00,ZBHH 151100Z AUTO 29010KT 7SM M02/M20 A3015 RMK T10201200 IEM_DS3505
ZBHH,2010-03-15 12:00,ZBHH 151200Z AUTO 29002KT 19SM M02/M21 A3015 RMK SLP289 T10231211 57010 IEM_DS3505
ZBHH,2010-03-15 13:00,ZBHH 151300Z AUTO 06004KT 7SM M06/M16 A3015 RMK T10601160 IEM_DS3505
ZBHH,2010-03-15 14:00,ZBHH 151400Z AUTO 06006KT 7SM M07/M16 A3012 RMK T10701160 IEM_DS3505
ZBHH,2010-03-15 15:00,ZBHH 151500Z AUTO 29002KT 19SM M05/M18 A3012 RMK SLP267 T10491177 57015 IEM_DS3505
ZBHH,2010-03-15 16:00,ZBHH 151600Z AUTO 06004KT 6SM M08/M15 A3009 RMK T10801150 IEM_DS3505
ZBHH,2010-03-15 17:00,ZBHH 151700Z AUTO 04006KT 6SM M08/M16 A3009 RMK T10801160 IEM_DS3505
ZBHH,2010-03-15 18:00,ZBHH 151800Z AUTO 04002KT 19SM M06/M17 A3006 RMK SLP248 T10621170 57013 IEM_DS3505
ZBHH,2010-03-15 19:00,ZBHH 151900Z AUTO 04004KT 6SM M09/M15 A3006 RMK T10901150 IEM_DS3505
ZBHH,2010-03-15 20:00,ZBHH 152000Z AUTO 07002KT 6SM M09/M15 A3003 RMK T10901150 IEM_DS3505
ZBHH,2010-03-15 21:00,ZBHH 152100Z AUTO 04002KT 19SM M07/M17 A3003 RMK SLP236 T10731167 57013 IEM_DS3505
ZBHH,2010-03-15 22:00,ZBHH 152200Z AUTO 07004KT 6SM M10/M15 A3003 RMK T11001150 IEM_DS3505
ZBHH,2010-03-15 23:00,ZBHH 152300Z AUTO 04008KT 6SM M10/M14 A3003 RMK T11001140 IEM_DS3505
ZBHH,2010-03-16 00:00,ZBHH 160000Z AUTO 09004KT 12SM M05/M15 A3003 RMK SLP242 T10471151 52008 IEM_DS3505
ZBHH,2010-03-16 01:00,ZBHH 160100Z AUTO 05006KT 6SM M03/M16 A3003 RMK T10301160 IEM_DS3505
ZBHH,2010-03-16 02:00,ZBHH 160200Z AUTO 17004KT 6SM M01/M19 A3003 RMK T10101190 IEM_DS3505
ZBHH,2010-03-16 03:00,ZBHH 160300Z AUTO 07002KT 12SM 01/M24 A3003 RMK SLP228 T00111235 57005 IEM_DS3505
ZBHH,2010-03-16 04:00,ZBHH 160400Z AUTO 20002KT 6SM 02/M22 A3000 RMK T00201220 IEM_DS3505
ZBHH,2010-03-16 05:00,ZBHH 160500Z AUTO 27004KT 6SM 02/M23 A3000 RMK T00201230 IEM_DS3505
ZBHH,2010-03-16 06:00,ZBHH 160600Z AUTO 18006KT 12SM 03/M21 A2997 RMK SLP208 T00341208 57015 IEM_DS3505
ZBHH,2010-03-16 07:00,ZBHH 160700Z AUTO 19004KT 6SM 04/M21 A2997 RMK T00401210 IEM_DS3505
ZBHH,2010-03-16 08:00,ZBHH 160800Z AUTO 21002KT 6SM 04/M20 A2997 RMK T00401200 IEM_DS3505
ZBHH,2010-03-16 09:00,ZBHH 160900Z AUTO 25004KT 12SM 03/M19 A2997 RMK SLP214 T00321189 52002 IEM_DS3505
ZBHH,2010-03-16 10:00,ZBHH 161000Z AUTO 23004KT 7SM 03/M18 A3000 RMK T00301180 IEM_DS3505
ZBHH,2010-03-16 11:00,ZBHH 161100Z AUTO 35008KT 7SM 02/M17 A3000 RMK T00201170 IEM_DS3505
ZBHH,2010-03-16 12:00,ZBHH 161200Z AUTO 29002KT 12SM 01/M16 A3006 RMK SLP235 T00141156 52020 IEM_DS3505
ZBHH,2010-03-16 13:00,ZBHH 161300Z AUTO 34006KT 7SM 00/M14 A3006 RMK T00001140 IEM_DS3505
ZBHH,2010-03-16 14:00,ZBHH 161400Z AUTO 34010KT 7SM M01/M14 A3009 RMK T10101140 IEM_DS3505
ZBHH,2010-03-16 15:00,ZBHH 161500Z AUTO 32004KT 12SM M01/M17 A3009 RMK SLP246 T10121174 52017 IEM_DS3505
ZBHH,2010-03-16 16:00,ZBHH 161600Z AUTO 35012KT 7SM M02/M14 A3012 RMK T10201140 IEM_DS3505
ZBHH,2010-03-16 17:00,ZBHH 161700Z AUTO 36008KT 7SM M02/M14 A3012 RMK T10201140 IEM_DS3505
ZBHH,2010-03-16 18:00,ZBHH 161800Z AUTO 22002KT 12SM M04/M17 A3015 RMK SLP258 T10381167 52010 IEM_DS3505
ZBHH,2010-03-16 19:00,ZBHH 161900Z AUTO 35008KT 7SM M04/M14 A3015 RMK T10401140 IEM_DS3505
ZBHH,2010-03-16 20:00,ZBHH 162000Z AUTO 03004KT 7SM M05/M14 A3015 RMK T10501140 IEM_DS3505
ZBHH,2010-03-16 21:00,ZBHH 162100Z AUTO 32002KT 19SM M05/M16 A3015 RMK SLP270 T10511163 52007 IEM_DS3505
ZBHH,2010-03-16 22:00,ZBHH 162200Z AUTO 04006KT 6SM M06/M15 A3015 RMK T10601150 IEM_DS3505
ZBHH,2010-03-16 23:00,ZBHH 162300Z AUTO 13002KT 6SM M08/M14 A3018 RMK T10801140 IEM_DS3505
ZBHH,2010-03-17 00:00,ZBHH 170000Z AUTO 25002KT 19SM M04/M17 A3018 RMK SLP276 T10431168 52003 IEM_DS3505
ZBHH,2010-03-17 01:00,ZBHH 170100Z AUTO 07006KT 6SM M02/M15 A3018 RMK T10201150 IEM_DS3505
ZBHH,2010-03-17 02:00,ZBHH 170200Z AUTO 15002KT 6SM 00/M16 A3018 RMK T00001160 IEM_DS3505
ZBHH,2010-03-17 03:00,ZBHH 170300Z AUTO 34004KT 19SM 01/M18 A3015 RMK SLP263 T00141180 57005 IEM_DS3505
ZBHH,2010-03-17 04:00,ZBHH 170400Z AUTO 23004KT 6SM 02/M18 A3012 RMK T00201180 IEM_DS3505
ZBHH,2010-03-17 05:00,ZBHH 170500Z AUTO 22008KT 6SM 02/M18 A3012 RMK T00201180 IEM_DS3505
ZBHH,2010-03-17 06:00,ZBHH 170600Z AUTO 25002KT 19SM 04/M17 A3009 RMK SLP236 T00381171 57024 IEM_DS3505
ZBHH,2010-03-17 07:00,ZBHH 170700Z AUTO 22006KT 6SM 03/M17 A3006 RMK T00301170 IEM_DS3505
ZBHH,2010-03-17 08:00,ZBHH 170800Z AUTO 23006KT 6SM 04/M17 A3003 RMK T00401170 IEM_DS3505
ZBHH,2010-03-17 09:00,ZBHH 170900Z AUTO 22006KT 12SM 04/M16 A3003 RMK SLP225 T00431161 57011 IEM_DS3505
ZBHH,2010-03-17 10:00,ZBHH 171000Z AUTO 27004KT 6SM 03/M15 A3003 RMK T00301150 IEM_DS3505
ZBHH,2010-03-17 11:00,ZBHH 171100Z AUTO 35006KT 6SM 02/M13 A3006 RMK T00201130 IEM_DS3505
ZBHH,2010-03-17 12:00,ZBHH 171200Z AUTO 09002KT 9SM 02/M14 A3006 RMK SLP238 T00161137 52007 IEM_DS3505
ZBHH,2010-03-17 13:00,ZBHH 171300Z AUTO 02006KT 6SM M01/M11 A3006 RMK T10101110 IEM_DS3505
ZBHH,2010-03-17 14:00,ZBHH 171400Z AUTO 03004KT 6SM M02/M11 A3006 RMK T10201110 IEM_DS3505
ZBHH,2010-03-17 15:00,ZBHH 171500Z AUTO 29002KT 12SM M01/M12 A3006 RMK SLP232 T10111115 52001 IEM_DS3505
ZBHH,2010-03-17 16:00,ZBHH 171600Z AUTO 10002KT 6SM M04/M11 A3006 RMK T10401110 IEM_DS3505
ZBHH,2010-03-17 17:00,ZBHH 171700Z AUTO 07006KT 6SM M05/M10 A3006 RMK T10501100 IEM_DS3505
ZBHH,2010-03-17 18:00,ZBHH 171800Z AUTO 04002KT 19SM M02/M12 A3003 RMK SLP218 T10241117 57010 IEM_DS3505
ZBHH,2010-03-17 19:00,ZBHH 171900Z AUTO 04004KT 6SM M06/M11 A3003 RMK T10601110 IEM_DS3505
ZBHH,2010-03-17 20:00,ZBHH 172000Z AUTO 06004KT 6SM M06/M11 A3000 RMK T10601110 IEM_DS3505
ZBHH,2010-03-17 21:00,ZBHH 172100Z AUTO 09002KT 19SM M05/M11 A3000 RMK SLP206 T10461114 57014 IEM_DS3505
ZBHH,2010-03-17 22:00,ZBHH 172200Z AUTO 07006KT 6SM M06/M10 A2997 RMK T10601100 IEM_DS3505
ZBHH,2010-03-17 23:00,ZBHH 172300Z AUTO 05004KT 6SM M05/M10 A2997 RMK T10501100 IEM_DS3505
ZBHH,2010-03-18 00:00,ZBHH 180000Z AUTO 04002KT 7SM M02/M11 A2997 RMK SLP198 T10251108 57008 IEM_DS3505
ZBHH,2010-03-18 01:00,ZBHH 180100Z AUTO 18002KT 7SM M02/M06 A2997 RMK T10201060 IEM_DS3505
ZBHH,2010-03-18 02:00,ZBHH 180200Z AUTO 17004KT 4SM M01/M05 A2994 RMK T10101050 IEM_DS3505
ZBHH,2010-03-18 03:00,ZBHH 180300Z AUTO 18004KT 6SM 02/M09 A2994 RMK SLP182 T00191088 57010 IEM_DS3505
ZBHH,2010-03-18 04:00,ZBHH 180400Z AUTO 12004KT 3SM 01/M05 A2991 RMK T00101050 IEM_DS3505
ZBHH,2010-03-18 05:00,ZBHH 180500Z AUTO 20004KT 4SM 03/M04 A2988 RMK T00301040 IEM_DS3505
ZBHH,2010-03-18 06:00,ZBHH 180600Z AUTO 22006KT 6SM 04/M04 A2983 RMK SLP143 T00451035 57032 IEM_DS3505
ZBHH,2010-03-18 07:00,ZBHH 180700Z AUTO 34004KT 7SM 05/M02 A2980 RMK T00501020 IEM_DS3505
ZBHH,2010-03-18 08:00,ZBHH 180800Z AUTO 23006KT 5SM 06/M01 A2980 RMK T00601010 IEM_DS3505
ZBHH,2010-03-18 09:00,ZBHH 180900Z AUTO 32004KT 6SM 06/M03 A2977 RMK SLP120 T00641030 57021 IEM_DS3505
ZBHH,2010-03-18 10:00,ZBHH 181000Z AUTO 03006KT 4SM 05/M02 A2974 RMK T00501020 IEM_DS3505
ZBHH,2010-03-18 11:00,ZBHH 181100Z AUTO 04004KT 5SM 04/M02 A2974 RMK T00401020 IEM_DS3505
ZBHH,2010-03-18 12:00,ZBHH 181200Z AUTO 09002KT 6SM 04/M03 A2974 RMK SLP108 T00441027 57010 IEM_DS3505
ZBHH,2010-03-18 13:00,ZBHH 181300Z AUTO 01004KT 5SM 02/M02 A2974 RMK T00201020 IEM_DS3505
ZBHH,2010-03-18 14:00,ZBHH 181400Z AUTO 04004KT 5SM 02/M02 A2971 RMK T00201020 IEM_DS3505
ZBHH,2010-03-18 15:00,ZBHH 181500Z AUTO 29002KT 6SM 03/M03 A2968 RMK SLP087 T00341028 57011 IEM_DS3505
ZBHH,2010-03-18 16:00,ZBHH 181600Z AUTO 05002KT 7SM 00/M03 A2968 RMK T00001030 IEM_DS3505
ZBHH,2010-03-18 17:00,ZBHH 181700Z AUTO 04004KT 7SM 01/M02 A2965 RMK T00101020 IEM_DS3505
ZBHH,2010-03-18 18:00,ZBHH 181800Z AUTO 07002KT 9SM 01/M03 A2962 RMK SLP064 T00141029 57019 IEM_DS3505
ZBHH,2010-03-18 19:00,ZBHH 181900Z AUTO 05006KT 7SM 00/M02 A2959 RMK T00001020 IEM_DS3505
ZBHH,2010-03-18 20:00,ZBHH 182000Z AUTO 35004KT 7SM 00/M02 A2959 RMK T00001020 IEM_DS3505
ZBHH,2010-03-18 21:00,ZBHH 182100Z AUTO 00000KT 9SM 01/M02 A2959 RMK SLP046 T00111023 57013 IEM_DS3505
ZBHH,2010-03-18 22:00,ZBHH 182200Z AUTO 06006KT 7SM 01/M01 A2959 RMK T00101010 IEM_DS3505
ZBHH,2010-03-18 23:00,ZBHH 182300Z AUTO 06002KT 4SM 01/M01 A2959 RMK T00101010 IEM_DS3505
ZBHH,2010-03-19 00:00,ZBHH 190000Z AUTO 07002KT 5SM 04/M01 A2959 RMK SLP053 T00351011 52007 IEM_DS3505
ZBHH,2010-03-19 01:00,ZBHH 190100Z AUTO 14002KT 2 1/2SM 04/01 A2959 RMK T00400010 IEM_DS3505
ZBHH,2010-03-19 02:00,ZBHH 190200Z AUTO 23004KT 3SM 08/02 A2962 RMK T00800020 IEM_DS3505
ZBHH,2010-03-19 03:00,ZBHH 190300Z AUTO 20004KT 5SM 09/01 A2962 RMK SLP050 T00920009 52007 IEM_DS3505
ZBHH,2010-03-19 04:00,ZBHH 190400Z AUTO 22006KT 2SM 10/02 A2962 RMK T01000020 IEM_DS3505
ZBHH,2010-03-19 05:00,ZBHH 190500Z AUTO 32021G33KT 3SM 12/M05 A2965 RMK T01201050 IEM_DS3505
ZBHH,2010-03-19 06:00,ZBHH 190600Z AUTO 32010KT 2SM 09/M04 A2968 RMK SLP069 T00901042 52012 IEM_DS3505
ZBHH,2010-03-19 07:00,ZBHH 190700Z AUTO 34002KT 3SM 09/M02 A2968 RMK T00901020 IEM_DS3505
ZBHH,2010-03-19 08:00,ZBHH 190800Z AUTO 15008KT 4SM 09/M01 A2965 RMK T00901010 IEM_DS3505
ZBHH,2010-03-19 09:00,ZBHH 190900Z AUTO 25012KT 5SM 11/M03 A2962 RMK SLP047 T01121029 57015 IEM_DS3505
ZBHH,2010-03-19 10:00,ZBHH 191000Z AUTO 23019KT 1SM 09/00 A2956 RMK T00900000 IEM_DS3505
ZBHH,2010-03-19 11:00,ZBHH 191100Z AUTO 25025G37KT 1SM 09/M09 A2956 RMK T00901090 IEM_DS3505
ZBHH,2010-03-19 12:00,ZBHH 191200Z AUTO 27010G39KT 1/4SM 08/M20 A2962 RMK SLP056 T00801197 52006 IEM_DS3505
ZBHH,2010-03-19 13:00,ZBHH 191300Z AUTO 31031G43KT 1/4SM 06/M18 A2965 RMK T00601180 IEM_DS3505
ZBHH,2010-03-19 14:00,ZBHH 191400Z AUTO 30027G41KT 1/4SM 05/M23 A2968 RMK T00501230 IEM_DS3505
ZBHH,2010-03-19 15:00,ZBHH 191500Z AUTO 27008G45KT 1/4SM 05/ A2968 RMK SLP064 52012 IEM_DS3505
ZBHH,2010-03-19 16:00,ZBHH 191600Z AUTO 28029G39KT 1/2SM 04/M16 A2965 RMK T00401160 IEM_DS3505
ZBHH,2010-03-19 17:00,ZBHH 191700Z AUTO 29025G39KT 1SM 01/M10 A2968 RMK T00101100 IEM_DS3505
ZBHH,2010-03-19 18:00,ZBHH 191800Z AUTO 29014G35KT 12SM M02/M11 A2974 RMK SLP111 T10221110 52027 IEM_DS3505
ZBHH,2010-03-19 19:00,ZBHH 191900Z AUTO 31019G33KT 7SM M03/M10 A2980 RMK T10301100 IEM_DS3505
ZBHH,2010-03-19 20:00,ZBHH 192000Z AUTO 32025G41KT 7SM M04/M12 A2983 RMK T10401120 IEM_DS3505
ZBHH,2010-03-19 21:00,ZBHH 192100Z AUTO 32012G37KT 19SM M05/M14 A2988 RMK SLP165 T10471138 52047 IEM_DS3505
ZBHH,2010-03-19 22:00,ZBHH 192200Z AUTO 33016KT 7SM M05/M13 A2997 RMK T10501130 IEM_DS3505
ZBHH,2010-03-19 23:00,ZBHH 192300Z AUTO 33021G35KT 7SM M06/M13 A3000 RMK T10601130 IEM_DS3505
ZBHH,2010-03-20 00:00,ZBHH 200000Z AUTO 32004G25KT 16SM M05/M16 A3003 RMK SLP220 T10471157 52041 IEM_DS3505
ZBHH,2010-03-20 01:00,ZBHH 200100Z AUTO 34014G25KT 7SM M04/M13 A3006 RMK T10401130 IEM_DS3505
ZBHH,2010-03-20 02:00,ZBHH 200200Z AUTO 35010G21KT 7SM M03/M15 A3009 RMK T10301150 IEM_DS3505
ZBHH,2010-03-20 03:00,ZBHH 200300Z AUTO 36008KT 19SM M01/M16 A3009 RMK SLP229 T10101160 52009 IEM_DS3505
ZBHH,2010-03-20 04:00,ZBHH 200400Z AUTO 32012G21KT 7SM 00/M14 A3006 RMK T00001140 IEM_DS3505
ZBHH,2010-03-20 05:00,ZBHH 200500Z AUTO 31012KT 7SM 01/M15 A3003 RMK T00101150 IEM_DS3505
ZBHH,2010-03-20 06:00,ZBHH 200600Z AUTO 27010KT 12SM 03/M16 A3003 RMK SLP218 T00281158 57016 IEM_DS3505
ZBHH,2010-03-20 07:00,ZBHH 200700Z AUTO 30023G37KT 4SM 03/M17 A3000 RMK T00301170 IEM_DS3505
ZBHH,2010-03-20 08:00,ZBHH 200800Z AUTO 31023G35KT 5SM 03/M18 A3000 RMK T00301180 IEM_DS3505
ZBHH,2010-03-20 09:00,ZBHH 200900Z AUTO 32010G29KT 7SM 02/M14 A3000 RMK SLP221 T00181139 57005 IEM_DS3505
ZBHH,2010-03-20 10:00,ZBHH 201000Z AUTO 28021KT 7SM 01/M14 A3000 RMK T00101140 IEM_DS3505
ZBHH,2010-03-20 11:00,ZBHH 201100Z AUTO 30016KT 7SM 01/M16 A3003 RMK T00101160 IEM_DS3505
ZBHH,2010-03-20 12:00,ZBHH 201200Z AUTO 29004KT 19SM 00/M16 A3003 RMK SLP226 T00041164 52001 IEM_DS3505
ZBHH,2010-03-20 13:00,ZBHH 201300Z AUTO 32006KT 6SM M01/M16 A3000 RMK T10101160 IEM_DS3505
ZBHH,2010-03-20 14:00,ZBHH 201400Z AUTO 33004KT 6SM M02/M16 A3003 RMK T10201160 IEM_DS3505
ZBHH,2010-03-20 15:00,ZBHH 201500Z AUTO 00000KT 19SM M02/M17 A3000 RMK SLP218 T10171170 57003 IEM_DS3505
ZBHH,2010-03-20 16:00,ZBHH 201600Z AUTO 09004KT 6SM M04/M15 A3000 RMK T10401150 IEM_DS3505
ZBHH,2010-03-20 17:00,ZBHH 201700Z AUTO 10004KT 6SM M04/M14 A2997 RMK T10401140 IEM_DS3505
ZBHH,2010-03-20 18:00,ZBHH 201800Z AUTO 07002KT 12SM M02/M16 A2994 RMK SLP190 T10171162 57017 IEM_DS3505
ZBHH,2010-03-20 19:00,ZBHH 201900Z AUTO 02002KT 7SM M04/M14 A2988 RMK T10401140 IEM_DS3505
ZBHH,2010-03-20 20:00,ZBHH 202000Z AUTO 01002KT 7SM M05/M14 A2988 RMK T10501140 IEM_DS3505
ZBHH,2010-03-20 21:00,ZBHH 202100Z AUTO 00000KT 12SM M04/M14 A2988 RMK SLP173 T10361138 57021 IEM_DS3505
ZBHH,2010-03-20 22:00,ZBHH 202200Z AUTO 05002KT 7SM M06/M13 A2988 RMK T10601130 IEM_DS3505
ZBHH,2010-03-20 23:00,ZBHH 202300Z AUTO 08004KT 7SM M07/M12 A2988 RMK T10701120 IEM_DS3505
ZBHH,2010-03-21 00:00,ZBHH 210000Z AUTO 07004KT 9SM M02/M14 A2988 RMK SLP170 T10241139 57003 IEM_DS3505
ZBHH,2010-03-21 01:00,ZBHH 210100Z AUTO 11002KT 7SM M01/M10 A2985 RMK T10101100 IEM_DS3505
ZBHH,2010-03-21 02:00,ZBHH 210200Z AUTO 12002KT 4SM 01/M12 A2985 RMK T00101120 IEM_DS3505
ZBHH,2010-03-21 03:00,ZBHH 210300Z AUTO 27002KT 6SM 03/M14 A2983 RMK SLP141 T00281139 57019 IEM_DS3505
ZBHH,2010-03-21 04:00,ZBHH 210400Z AUTO 26004KT 4SM 03/M13 A2980 RMK T00301130 IEM_DS3505
ZBHH,2010-03-21 05:00,ZBHH 210500Z AUTO 26006KT 3SM 04/M13 A2980 RMK T00401130 IEM_DS3505
ZBHH,2010-03-21 06:00,ZBHH 210600Z AUTO 32002KT 6SM 05/M16 A2974 RMK SLP114 T00471164 57019 IEM_DS3505
ZBHH,2010-03-21 07:00,ZBHH 210700Z AUTO 24004KT 3SM 05/M16 A2974 RMK T00501160 IEM_DS3505
ZBHH,2010-03-21 08:00,ZBHH 210800Z AUTO 24004KT 3SM 05/M15 A2974 RMK T00501150 IEM_DS3505
ZBHH,2010-03-21 09:00,ZBHH 210900Z AUTO 22004KT 6SM 05/M16 A2977 RMK SLP122 T00471158 52003 IEM_DS3505
ZBHH,2010-03-21 10:00,ZBHH 211000Z AUTO 21010KT 2 1/2SM 03/M07 A2977 RMK T00301070 IEM_DS3505
ZBHH,2010-03-21 11:00,ZBHH 211100Z AUTO 20010KT 3SM 01/M01 A2980 RMK T00101010 IEM_DS3505
ZBHH,2010-03-21 12:00,ZBHH 211200Z AUTO 22004KT 7SM 02/M04 A2983 RMK SLP146 T00191044 52017 IEM_DS3505
ZBHH,2010-03-21 13:00,ZBHH 211300Z AUTO 15004KT 3SM 01/M01 A2983 RMK T00101010 IEM_DS3505
ZBHH,2010-03-21 14:00,ZBHH 211400Z AUTO 14002KT 3SM 00/M01 A2985 RMK T00001010 IEM_DS3505
ZBHH,2010-03-21 15:00,ZBHH 211500Z AUTO 27004KT 7SM 01/M01 A2985 RMK SLP150 T00101014 52013 IEM_DS3505
ZBHH,2010-03-21 16:00,ZBHH 211600Z AUTO 27002KT 2 1/2SM 00/M01 A2985 RMK T00001010 IEM_DS3505
ZBHH,2010-03-21 17:00,ZBHH 211700Z AUTO 08002KT 2 1/2SM M01/M01 A2985 RMK T10101010 IEM_DS3505
ZBHH,2010-03-21 18:00,ZBHH 211800Z AUTO 04004KT 5SM 00/M02 A2985 RMK SLP153 T00001017 52004 IEM_DS3505
ZBHH,2010-03-21 19:00,ZBHH 211900Z AUTO 10002KT 1/2SM M01/M01 A2991 RMK T10101010 IEM_DS3505
ZBHH,2010-03-21 20:00,ZBHH 212000Z AUTO 31014KT 1SM 04/ A2991 RMK IEM_DS3505
ZBHH,2010-03-21 21:00,ZBHH 212100Z AUTO 29010KT 4SM 03/M21 A2994 RMK SLP173 T00281213 52024 IEM_DS3505
ZBHH,2010-03-21 22:00,ZBHH 212200Z AUTO 31012KT 1 1/4SM 01/M15 A2997 RMK T00101150 IEM_DS3505
ZBHH,2010-03-21 23:00,ZBHH 212300Z AUTO 33016KT 1SM 00/M11 A3003 RMK T00001110 IEM_DS3505
ZBHH,2010-03-22 00:00,ZBHH 220000Z AUTO 29008KT 9SM M01/M13 A3006 RMK SLP227 T10071129 52034 IEM_DS3505
ZBHH,2010-03-22 01:00,ZBHH 220100Z AUTO 33017KT 7SM M01/M12 A3006 RMK T10101120 IEM_DS3505
ZBHH,2010-03-22 02:00,ZBHH 220200Z AUTO 34021KT 7SM M01/M11 A3009 RMK T10101110 IEM_DS3505
ZBHH,2010-03-22 03:00,ZBHH 220300Z AUTO 32012KT 19SM 00/M13 A3012 RMK SLP250 T00031127 52020 IEM_DS3505
ZBHH,2010-03-22 04:00,ZBHH 220400Z AUTO 35017KT 7SM 02/M12 A3012 RMK T00201120 IEM_DS3505
ZBHH,2010-03-22 05:00,ZBHH 220500Z AUTO 36012G21KT 7SM 03/M12 A3012 RMK T00301120 IEM_DS3505
ZBHH,2010-03-22 06:00,ZBHH 220600Z AUTO 32008KT 19SM 04/M16 A3009 RMK SLP233 T00431161 57008 IEM_DS3505
ZBHH,2010-03-22 07:00,ZBHH 220700Z AUTO 34016KT 6SM 04/M15 A3006 RMK T00401150 IEM_DS3505
ZBHH,2010-03-22 08:00,ZBHH 220800Z AUTO 34014KT 6SM 04/M17 A3006 RMK T00401170 IEM_DS3505
ZBHH,2010-03-22 09:00,ZBHH 220900Z AUTO 32006KT 19SM 05/M19 A3006 RMK SLP212 T00501188 57011 IEM_DS3505
ZBHH,2010-03-22 10:00,ZBHH 221000Z AUTO 33010KT 6SM 04/M19 A3006 RMK T00401190 IEM_DS3505
ZBHH,2010-03-22 11:00,ZBHH 221100Z AUTO 01008KT 6SM 02/M18 A3006 RMK T00201180 IEM_DS3505
ZBHH,2010-03-22 12:00,ZBHH 221200Z AUTO 27002KT 19SM 02/M19 A3006 RMK SLP233 T00231190 52005 IEM_DS3505
ZBHH,2010-03-22 13:00,ZBHH 221300Z AUTO 14004KT 6SM M03/M15 A3012 RMK T10301150 IEM_DS3505
ZBHH,2010-03-22 14:00,ZBHH 221400Z AUTO 12004KT 6SM M03/M15 A3012 RMK T10301150 IEM_DS3505
ZBHH,2010-03-22 15:00,ZBHH 221500Z AUTO 32002KT 19SM M00/M16 A3012 RMK SLP250 T10041159 52011 IEM_DS3505
ZBHH,2010-03-22 16:00,ZBHH 221600Z AUTO 04004KT 6SM M06/M15 A3012 RMK T10601150 IEM_DS3505
ZBHH,2010-03-22 17:00,ZBHH 221700Z AUTO 09004KT 6SM M05/M14 A3009 RMK T10501140 IEM_DS3505
ZBHH,2010-03-22 18:00,ZBHH 221800Z AUTO 07002KT 19SM M02/M15 A3006 RMK SLP226 T10161151 57015 IEM_DS3505
ZBHH,2010-03-22 19:00,ZBHH 221900Z AUTO 08006KT 6SM M06/M13 A3006 RMK T10601130 IEM_DS3505
ZBHH,2010-03-22 20:00,ZBHH 222000Z AUTO 05006KT 6SM M07/M14 A3003 RMK T10701140 IEM_DS3505
ZBHH,2010-03-22 21:00,ZBHH 222100Z AUTO 00000KT 19SM M04/M15 A3003 RMK SLP225 T10441148 57005 IEM_DS3505
ZBHH,2010-03-22 22:00,ZBHH 222200Z AUTO 06004KT 6SM M07/M13 A3006 RMK T10701130 IEM_DS3505
ZBHH,2010-03-22 23:00,ZBHH 222300Z AUTO 05004KT 6SM M09/M14 A3006 RMK T10901140 IEM_DS3505
ZBHH,2010-03-23 00:00,ZBHH 230000Z AUTO 09002KT 19SM M02/M14 A3006 RMK SLP233 T10161137 52007 IEM_DS3505
ZBHH,2010-03-23 01:00,ZBHH 230100Z AUTO 12004KT 6SM 00/M12 A3006 RMK T00001120 IEM_DS3505
ZBHH,2010-03-23 02:00,ZBHH 230200Z AUTO 20004KT 6SM 02/M15 A3006 RMK T00201150 IEM_DS3505
ZBHH,2010-03-23 03:00,ZBHH 230300Z AUTO 20004KT 9SM 04/M15 A3003 RMK SLP215 T00351147 57011 IEM_DS3505
ZBHH,2010-03-23 04:00,ZBHH 230400Z AUTO 23010KT 6SM 05/M16 A3000 RMK T00501160 IEM_DS3505
ZBHH,2010-03-23 05:00,ZBHH 230500Z AUTO 22010KT 5SM 06/M17 A2997 RMK T00601170 IEM_DS3505
ZBHH,2010-03-23 06:00,ZBHH 230600Z AUTO 22008KT 9SM 06/M18 A2997 RMK SLP186 T00561175 57023 IEM_DS3505
ZBHH,2010-03-23 07:00,ZBHH 230700Z AUTO 23012KT 4SM 06/M16 A2994 RMK T00601160 IEM_DS3505
ZBHH,2010-03-23 08:00,ZBHH 230800Z AUTO 24010KT 4SM 06/M15 A2994 RMK T00601150 IEM_DS3505
ZBHH,2010-03-23 09:00,ZBHH 230900Z AUTO 22004KT 7SM 06/M14 A2997 RMK SLP191 T00611140 57001 IEM_DS3505
ZBHH,2010-03-23 10:00,ZBHH 231000Z AUTO 25008KT 5SM 05/M14 A2997 RMK T00501140 IEM_DS3505
ZBHH,2010-03-23 11:00,ZBHH 231100Z AUTO 11002KT 4SM 04/M13 A2997 RMK T00401130 IEM_DS3505
ZBHH,2010-03-23 12:00,ZBHH 231200Z AUTO 36002KT 7SM 05/M13 A3000 RMK SLP201 T00541131 52014 IEM_DS3505
ZBHH,2010-03-23 13:00,ZBHH 231300Z AUTO 16002KT 4SM 03/M12 A3003 RMK T00301120 IEM_DS3505
ZBHH,2010-03-23 14:00,ZBHH 231400Z AUTO 33006KT 7SM 03/M17 A3006 RMK T00301170 IEM_DS3505
ZBHH,2010-03-23 15:00,ZBHH 231500Z AUTO 32002KT 12SM 03/M19 A3006 RMK SLP220 T00271186 52021 IEM_DS3505
ZBHH,2010-03-23 16:00,ZBHH 231600Z AUTO 36010KT 7SM 02/M17 A3006 RMK T00201170 IEM_DS3505
ZBHH,2010-03-23 17:00,ZBHH 231700Z AUTO 36006KT 7SM 02/M17 A3006 RMK T00201170 IEM_DS3505
ZBHH,2010-03-23 18:00,ZBHH 231800Z AUTO 27004KT 19SM 01/M18 A3006 RMK SLP216 T00071176 57003 IEM_DS3505
ZBHH,2010-03-23 19:00,ZBHH 231900Z AUTO 02008KT 7SM 00/M15 A3006 RMK T00001150 IEM_DS3505
ZBHH,2010-03-23 20:00,ZBHH 232000Z AUTO 01008KT 7SM M01/M14 A3006 RMK T10101140 IEM_DS3505
ZBHH,2010-03-23 21:00,ZBHH 232100Z AUTO 29006KT 19SM M02/M16 A3009 RMK SLP230 T10191160 52008 IEM_DS3505
ZBHH,2010-03-23 22:00,ZBHH 232200Z AUTO 08006KT 7SM M04/M14 A3009 RMK T10401140 IEM_DS3505
ZBHH,2010-03-23 23:00,ZBHH 232300Z AUTO 06008KT 6SM M04/M14 A3012 RMK T10401140 IEM_DS3505
ZBHH,2010-03-24 00:00,ZBHH 240000Z AUTO 29002KT 12SM M02/M15 A3012 RMK SLP247 T10161151 52014 IEM_DS3505
ZBHH,2010-03-24 01:00,ZBHH 240100Z AUTO 07010KT 6SM 01/M16 A3015 RMK T00101160 IEM_DS3505
ZBHH,2010-03-24 02:00,ZBHH 240200Z AUTO 08006KT 6SM 02/M16 A3015 RMK T00201160 IEM_DS3505
ZBHH,2010-03-24 03:00,ZBHH 240300Z AUTO 07004KT 12SM 03/M16 A3015 RMK SLP245 T00331159 52003 IEM_DS3505
ZBHH,2010-03-24 04:00,ZBHH 240400Z AUTO 7SM 04/M17 A3012 RMK T00401170 IEM_DS3505
ZBHH,2010-03-24 05:00,ZBHH 240500Z AUTO 29008KT 7SM 03/M17 A3012 RMK T00301170 IEM_DS3505
ZBHH,2010-03-24 06:00,ZBHH 240600Z AUTO 34006KT 12SM 04/M20 A3009 RMK SLP239 T00401203 57008 IEM_DS3505
ZBHH,2010-03-24 07:00,ZBHH 240700Z AUTO 35012KT 7SM 04/M20 A3009 RMK T00401200 IEM_DS3505
ZBHH,2010-03-24 08:00,ZBHH 240800Z AUTO 36014KT 7SM 03/M19 A3009 RMK T00301190 IEM_DS3505
ZBHH,2010-03-24 09:00,ZBHH 240900Z AUTO 04008KT 12SM 02/M18 A3012 RMK SLP253 T00251182 52003 IEM_DS3505
ZBHH,2010-03-24 10:00,ZBHH 241000Z AUTO 35012KT 7SM 01/M17 A3015 RMK T00101170 IEM_DS3505
ZBHH,2010-03-24 11:00,ZBHH 241100Z AUTO 36014G23KT 7SM 00/M16 A3018 RMK T00001160 IEM_DS3505
ZBHH,2010-03-24 12:00,ZBHH 241200Z AUTO 34004G25KT 19SM M01/M16 A3021 RMK SLP295 T10131159 52030 IEM_DS3505
ZBHH,2010-03-24 13:00,ZBHH 241300Z AUTO 03012KT 7SM M02/M13 A3027 RMK T10201130 IEM_DS3505
ZBHH,2010-03-24 14:00,ZBHH 241400Z AUTO 02012KT 6SM M02/M17 A3030 RMK T10201170 IEM_DS3505
ZBHH,2010-03-24 15:00,ZBHH 241500Z AUTO 02008KT 19SM M03/M22 A3033 RMK SLP322 T10311218 52030 IEM_DS3505
ZBHH,2010-03-24 16:00,ZBHH 241600Z AUTO 03010KT 6SM M04/M20 A3033 RMK T10401200 IEM_DS3505
ZBHH,2010-03-24 17:00,ZBHH 241700Z AUTO 05006KT 6SM M06/M20 A3036 RMK T10601200 IEM_DS3505
ZBHH,2010-03-24 18:00,ZBHH 241800Z AUTO 29002KT 19SM M06/M22 A3036 RMK SLP337 T10621217 52008 IEM_DS3505
ZBHH,2010-03-24 19:00,ZBHH 241900Z AUTO 34006KT 6SM M08/M19 A3033 RMK T10801190 IEM_DS3505
ZBHH,2010-03-24 20:00,ZBHH 242000Z AUTO 31006KT 6SM M08/M19 A3033 RMK T10801190 IEM_DS3505
ZBHH,2010-03-24 21:00,ZBHH 242100Z AUTO 29004KT 19SM M08/M21 A3033 RMK SLP333 T10761208 57010 IEM_DS3505
ZBHH,2010-03-24 22:00,ZBHH 242200Z AUTO 10004KT 6SM M11/M19 A3033 RMK T11101190 IEM_DS3505
ZBHH,2010-03-24 23:00,ZBHH 242300Z AUTO 03002KT 6SM M10/M18 A3033 RMK T11001180 IEM_DS3505
ZBHH,2010-03-25 00:00,ZBHH 250000Z AUTO 25002KT 19SM M05/M20 A3033 RMK SLP340 T10541203 52003 IEM_DS3505
ZBHH,2010-03-25 01:00,ZBHH 250100Z AUTO 20006KT 6SM M05/M18 A3033 RMK T10501180 IEM_DS3505
ZBHH,2010-03-25 02:00,ZBHH 250200Z AUTO 26008KT 6SM M02/M20 A3033 RMK T10201200 IEM_DS3505
ZBHH,2010-03-25 03:00,ZBHH 250300Z AUTO 32008G29KT 19SM 00/M25 A3033 RMK SLP326 T00021250 57004 IEM_DS3505
ZBHH,2010-03-25 04:00,ZBHH 250400Z AUTO 28019G29KT 7SM 01/M25 A3027 RMK T00101250 IEM_DS3505
ZBHH,2010-03-25 05:00,ZBHH 250500Z AUTO 29019G31KT 7SM 02/M24 A3024 RMK T00201240 IEM_DS3505
ZBHH,2010-03-25 06:00,ZBHH 250600Z AUTO 27012G29KT 19SM 04/M24 A3021 RMK SLP289 T00351242 57032 IEM_DS3505
ZBHH,2010-03-25 07:00,ZBHH 250700Z AUTO 29023G47KT 7SM 04/M24 A3018 RMK T00401240 IEM_DS3505
ZBHH,2010-03-25 08:00,ZBHH 250800Z AUTO 28021G35KT 7SM 05/M24 A3012 RMK T00501240 IEM_DS3505
ZBHH,2010-03-25 09:00,ZBHH 250900Z AUTO 32008G29KT 12SM 05/M23 A3012 RMK SLP259 T00471233 57027 IEM_DS3505
ZBHH,2010-03-25 10:00,ZBHH 251000Z AUTO 32016KT 6SM 04/M23 A3012 RMK T00401230 IEM_DS3505
ZBHH,2010-03-25 11:00,ZBHH 251100Z AUTO 31016KT 6SM 03/M24 A3012 RMK T00301240 IEM_DS3505
ZBHH,2010-03-25 12:00,ZBHH 251200Z AUTO 32006KT 19SM 02/M23 A3015 RMK SLP272 T00241232 52011 IEM_DS3505
ZBHH,2010-03-25 13:00,ZBHH 251300Z AUTO 33006KT 6SM 00/M22 A3015 RMK T00001220 IEM_DS3505
ZBHH,2010-03-25 14:00,ZBHH 251400Z AUTO 35008KT 6SM M01/M22 A3015 RMK T10101220 IEM_DS3505
ZBHH,2010-03-25 15:00,ZBHH 251500Z AUTO 36004KT 19SM M01/M23 A3015 RMK SLP260 T10071234 57005 IEM_DS3505
ZBHH,2010-03-25 16:00,ZBHH 251600Z AUTO 07004KT 6SM M05/M21 A3012 RMK T10501210 IEM_DS3505
ZBHH,2010-03-25 17:00,ZBHH 251700Z AUTO 07004KT 6SM M07/M21 A3012 RMK T10701210 IEM_DS3505
ZBHH,2010-03-25 18:00,ZBHH 251800Z AUTO 09004KT 19SM M04/M21 A3012 RMK SLP245 T10351207 57012 IEM_DS3505
ZBHH,2010-03-25 19:00,ZBHH 251900Z AUTO 05006KT 6SM M09/M20 A3009 RMK T10901200 IEM_DS3505
ZBHH,2010-03-25 20:00,ZBHH 252000Z AUTO 05006KT 6SM M09/M20 A3009 RMK T10901200 IEM_DS3505
ZBHH,2010-03-25 21:00,ZBHH 252100Z AUTO 02002KT 19SM M05/M21 A3006 RMK SLP234 T10531206 57011 IEM_DS3505
ZBHH,2010-03-25 22:00,ZBHH 252200Z AUTO 06006KT 6SM M10/M19 A3006 RMK T11001190 IEM_DS3505
ZBHH,2010-03-25 23:00,ZBHH 252300Z AUTO 07004KT 6SM M10/M19 A3006 RMK T11001190 IEM_DS3505
ZBHH,2010-03-26 00:00,ZBHH 260000Z AUTO 07004KT 12SM M03/M18 A3006 RMK SLP236 T10341181 52001 IEM_DS3505
ZBHH,2010-03-26 01:00,ZBHH 260100Z AUTO 15004KT 6SM M02/M12 A3009 RMK T10201120 IEM_DS3505
ZBHH,2010-03-26 02:00,ZBHH 260200Z AUTO 21006KT 6SM 00/M15 A3009 RMK T00001150 IEM_DS3505
ZBHH,2010-03-26 03:00,ZBHH 260300Z AUTO 25004KT 3SM 02/M17 A3009 RMK SLP232 T00241166 52002 IEM_DS3505
ZBHH,2010-03-26 04:00,ZBHH 260400Z AUTO 23008KT 5SM 04/M16 A3006 RMK T00401160 IEM_DS3505
ZBHH,2010-03-26 05:00,ZBHH 260500Z AUTO 22008KT 6SM 07/M17 A3003 RMK T00701170 IEM_DS3505
ZBHH,2010-03-26 06:00,ZBHH 260600Z AUTO 22006KT 12SM 10/M19 A3000 RMK SLP188 T00991192 57028 IEM_DS3505
ZBHH,2010-03-26 07:00,ZBHH 260700Z AUTO 32017KT 6SM 11/M22 A2997 RMK T01101220 IEM_DS3505
ZBHH,2010-03-26 08:00,ZBHH 260800Z AUTO 31017KT 6SM 11/M22 A2997 RMK T01101220 IEM_DS3505
ZBHH,2010-03-26 09:00,ZBHH 260900Z AUTO 34006KT 19SM 11/M22 A2997 RMK SLP187 T01091221 57003 IEM_DS3505
ZBHH,2010-03-26 10:00,ZBHH 261000Z AUTO 35014KT 6SM 09/M22 A3000 RMK T00901220 IEM_DS3505
ZBHH,2010-03-26 11:00,ZBHH 261100Z AUTO 36010KT 6SM 07/M22 A3000 RMK T00701220 IEM_DS3505
ZBHH,2010-03-26 12:00,ZBHH 261200Z AUTO 02004KT 16SM 06/M19 A3006 RMK SLP220 T00621193 52023 IEM_DS3505
ZBHH,2010-03-26 13:00,ZBHH 261300Z AUTO 09004KT 6SM 02/M19 A3009 RMK T00201190 IEM_DS3505
ZBHH,2010-03-26 14:00,ZBHH 261400Z AUTO 36010KT 6SM 03/M16 A3009 RMK T00301160 IEM_DS3505
ZBHH,2010-03-26 15:00,ZBHH 261500Z AUTO 32002KT 19SM 03/M15 A3012 RMK SLP234 T00321154 52018 IEM_DS3505
ZBHH,2010-03-26 16:00,ZBHH 261600Z AUTO 07004KT 6SM M02/M15 A3012 RMK T10201150 IEM_DS3505
ZBHH,2010-03-26 17:00,ZBHH 261700Z AUTO 05004KT 6SM M03/M15 A3012 RMK T10301150 IEM_DS3505
ZBHH,2010-03-26 18:00,ZBHH 261800Z AUTO 32002KT 19SM 01/M14 A3012 RMK SLP222 T00121141 52001 IEM_DS3505
ZBHH,2010-03-26 19:00,ZBHH 261900Z AUTO 07004KT 6SM M03/M13 A3012 RMK T10301130 IEM_DS3505
ZBHH,2010-03-26 20:00,ZBHH 262000Z AUTO 06006KT 6SM M03/M13 A3009 RMK T10301130 IEM_DS3505
ZBHH,2010-03-26 21:00,ZBHH 262100Z AUTO 09002KT 19SM 00/M13 A3009 RMK SLP215 T00001133 57006 IEM_DS3505
ZBHH,2010-03-26 22:00,ZBHH 262200Z AUTO 07006KT 7SM M03/M12 A3009 RMK T10301120 IEM_DS3505
ZBHH,2010-03-26 23:00,ZBHH 262300Z AUTO 07004KT 7SM M04/M12 A3012 RMK T10401120 IEM_DS3505
ZBHH,2010-03-27 00:00,ZBHH 270000Z AUTO 04004KT 12SM 01/M13 A3012 RMK SLP232 T00131128 52008 IEM_DS3505
ZBHH,2010-03-27 01:00,ZBHH 270100Z AUTO 06004KT 7SM 03/M13 A3012 RMK T00301130 IEM_DS3505
ZBHH,2010-03-27 02:00,ZBHH 270200Z AUTO 12004KT 7SM 06/M14 A3012 RMK T00601140 IEM_DS3505
ZBHH,2010-03-27 03:00,ZBHH 270300Z AUTO 16004KT 12SM 07/M15 A3012 RMK SLP224 T00731148 57001 IEM_DS3505
ZBHH,2010-03-27 04:00,ZBHH 270400Z AUTO 25004KT 7SM 09/M15 A3009 RMK T00901150 IEM_DS3505
ZBHH,2010-03-27 05:00,ZBHH 270500Z AUTO 28004KT 7SM 10/M16 A3009 RMK T01001160 IEM_DS3505
ZBHH,2010-03-27 06:00,ZBHH 270600Z AUTO 34008G19KT 12SM 09/M15 A3009 RMK SLP215 T00931152 57008 IEM_DS3505
ZBHH,2010-03-27 07:00,ZBHH 270700Z AUTO 35016G25KT 7SM 09/M14 A3009 RMK T00901140 IEM_DS3505
ZBHH,2010-03-27 08:00,ZBHH 270800Z AUTO 02014KT 7SM 10/M14 A3009 RMK T01001140 IEM_DS3505
ZBHH,2010-03-27 09:00,ZBHH 270900Z AUTO 32012KT 19SM 09/M15 A3009 RMK SLP225 T00931152 52006 IEM_DS3505
ZBHH,2010-03-27 10:00,ZBHH 271000Z AUTO 36016KT 7SM 08/M15 A3012 RMK T00801150 IEM_DS3505
ZBHH,2010-03-27 11:00,ZBHH 271100Z AUTO 35010KT 7SM 06/M14 A3015 RMK T00601140 IEM_DS3505
ZBHH,2010-03-27 12:00,ZBHH 271200Z AUTO 04004KT 19SM 06/M14 A3018 RMK SLP252 T00581143 52019 IEM_DS3505
ZBHH,2010-03-27 13:00,ZBHH 271300Z AUTO 06002KT 6SM 04/M14 A3021 RMK T00401140 IEM_DS3505
ZBHH,2010-03-27 14:00,ZBHH 271400Z AUTO 07004KT 6SM 01/M14 A3021 RMK T00101140 IEM_DS3505
ZBHH,2010-03-27 15:00,ZBHH 271500Z AUTO 32002KT 19SM 02/M14 A3024 RMK SLP266 T00251137 52018 IEM_DS3505
ZBHH,2010-03-27 16:00,ZBHH 271600Z AUTO 13004KT 6SM M03/M13 A3024 RMK T10301130 IEM_DS3505
ZBHH,2010-03-27 17:00,ZBHH 271700Z AUTO 04006KT 6SM M02/M13 A3024 RMK T10201130 IEM_DS3505
ZBHH,2010-03-27 18:00,ZBHH 271800Z AUTO 00000KT 19SM M02/M12 A3024 RMK SLP270 T10161125 57001 IEM_DS3505
ZBHH,2010-03-27 19:00,ZBHH 271900Z AUTO 05002KT 6SM M04/M13 A3024 RMK T10401130 IEM_DS3505
ZBHH,2010-03-27 20:00,ZBHH 272000Z AUTO 09006KT 6SM M06/M13 A3024 RMK T10601130 IEM_DS3505
ZBHH,2010-03-27 21:00,ZBHH 272100Z AUTO 04002KT 19SM M03/M12 A3024 RMK SLP273 T10311118 54000 IEM_DS3505
ZBHH,2010-03-27 22:00,ZBHH 272200Z AUTO 07004KT 6SM M06/M12 A3024 RMK T10601120 IEM_DS3505
ZBHH,2010-03-27 23:00,ZBHH 272300Z AUTO 07004KT 6SM M06/M12 A3024 RMK T10601120 IEM_DS3505
ZBHH,2010-03-28 00:00,ZBHH 280000Z AUTO 00000KT 12SM 00/M12 A3024 RMK SLP284 T00011122 52009 IEM_DS3505
ZBHH,2010-03-28 01:00,ZBHH 280100Z AUTO 13002KT 6SM 03/M12 A3027 RMK T00301120 IEM_DS3505
ZBHH,2010-03-28 02:00,ZBHH 280200Z AUTO 14004KT 6SM 06/M13 A3027 RMK T00601130 IEM_DS3505
ZBHH,2010-03-28 03:00,ZBHH 280300Z AUTO 20004KT 19SM 07/M13 A3024 RMK SLP269 T00691134 57006 IEM_DS3505
ZBHH,2010-03-28 04:00,ZBHH 280400Z AUTO 25006KT 6SM 08/M13 A3021 RMK T00801130 IEM_DS3505
ZBHH,2010-03-28 05:00,ZBHH 280500Z AUTO 21006KT 6SM 09/M13 A3018 RMK T00901130 IEM_DS3505
ZBHH,2010-03-28 06:00,ZBHH 280600Z AUTO 20008G19KT 19SM 10/M13 A3015 RMK SLP248 T00981134 57021 IEM_DS3505
ZBHH,2010-03-28 07:00,ZBHH 280700Z AUTO 24006KT 6SM 11/M13 A3012 RMK T01101130 IEM_DS3505
ZBHH,2010-03-28 08:00,ZBHH 280800Z AUTO 27008KT 6SM 11/M14 A3009 RMK T01101140 IEM_DS3505
ZBHH,2010-03-28 09:00,ZBHH 280900Z AUTO 20004KT 19SM 12/M14 A3009 RMK SLP217 T01171141 57026 IEM_DS3505
ZBHH,2010-03-28 10:00,ZBHH 281000Z AUTO 01002KT 6SM 11/M15 A3006 RMK T01101150 IEM_DS3505
ZBHH,2010-03-28 11:00,ZBHH 281100Z AUTO 35004KT 6SM 09/M14 A3006 RMK T00901140 IEM_DS3505
ZBHH,2010-03-28 12:00,ZBHH 281200Z AUTO 02002KT 19SM 08/M13 A3009 RMK SLP215 T00841127 57002 IEM_DS3505
ZBHH,2010-03-28 13:00,ZBHH 281300Z AUTO 06006KT 6SM 03/M15 A3009 RMK T00301150 IEM_DS3505
ZBHH,2010-03-28 14:00,ZBHH 281400Z AUTO 08008KT 6SM 01/M15 A3009 RMK T00101150 IEM_DS3505
ZBHH,2010-03-28 15:00,ZBHH 281500Z AUTO 00000KT 19SM 04/M13 A3009 RMK SLP212 T00411128 52002 IEM_DS3505
ZBHH,2010-03-28 16:00,ZBHH 281600Z AUTO 06008KT 6SM 00/M15 A3006 RMK T00001150 IEM_DS3505
ZBHH,2010-03-28 17:00,ZBHH 281700Z AUTO 06008KT 6SM 01/M14 A3006 RMK T00101140 IEM_DS3505
ZBHH,2010-03-28 18:00,ZBHH 281800Z AUTO 34002KT 19SM 02/M13 A3006 RMK SLP204 T00201134 57005 IEM_DS3505
ZBHH,2010-03-28 19:00,ZBHH 281900Z AUTO 06006KT 6SM M01/M12 A3006 RMK T10101120 IEM_DS3505
ZBHH,2010-03-28 20:00,ZBHH 282000Z AUTO 07006KT 6SM M01/M12 A3003 RMK T10101120 IEM_DS3505
ZBHH,2010-03-28 21:00,ZBHH 282100Z AUTO 04002KT 19SM 02/M12 A3003 RMK SLP185 T00201122 57013 IEM_DS3505
ZBHH,2010-03-28 22:00,ZBHH 282200Z AUTO 07006KT 6SM 01/M12 A3000 RMK T00101120 IEM_DS3505
ZBHH,2010-03-28 23:00,ZBHH 282300Z AUTO 07004KT 7SM 02/M12 A3003 RMK T00201120 IEM_DS3505
ZBHH,2010-03-29 00:00,ZBHH 290000Z AUTO 04002KT 9SM 05/M11 A3003 RMK SLP188 T00511106 52002 IEM_DS3505
ZBHH,2010-03-29 01:00,ZBHH 290100Z AUTO 06004KT 7SM 07/M11 A3003 RMK T00701110 IEM_DS3505
ZBHH,2010-03-29 02:00,ZBHH 290200Z AUTO 02002KT 5SM 09/M11 A3003 RMK T00901110 IEM_DS3505
ZBHH,2010-03-29 03:00,ZBHH 290300Z AUTO 11002KT 6SM 10/M10 A3003 RMK SLP184 T01051098 57001 IEM_DS3505
ZBHH,2010-03-29 04:00,ZBHH 290400Z AUTO 25012KT 5SM 11/M05 A3003 RMK T01101050 IEM_DS3505
ZBHH,2010-03-29 05:00,ZBHH 290500Z AUTO 26010KT 4SM 08/02 A3003 RMK T00800020 IEM_DS3505
ZBHH,2010-03-29 06:00,ZBHH 290600Z AUTO 25004KT 6SM 07/04 A3003 RMK 60000 SLP194 T00670035 57003 IEM_DS3505
ZBHH,2010-03-29 07:00,ZBHH 290700Z AUTO 21008KT 1 1/2SM 06/05 A3000 RMK T00600050 IEM_DS3505
ZBHH,2010-03-29 08:00,ZBHH 290800Z AUTO 24004KT 1 1/4SM 06/05 A2997 RMK T00600050 IEM_DS3505
ZBHH,2010-03-29 09:00,ZBHH 290900Z AUTO 18002KT 5SM 06/04 A2997 RMK SLP175 T00620045 57018 IEM_DS3505
ZBHH,2010-03-29 10:00,ZBHH 291000Z AUTO 19002KT 1 1/4SM 06/05 A2997 RMK T00600050 IEM_DS3505
ZBHH,2010-03-29 11:00,ZBHH 291100Z AUTO 26008KT 2SM 06/05 A2997 RMK T00600050 IEM_DS3505
ZBHH,2010-03-29 12:00,ZBHH 291200Z AUTO 25002KT 6SM 06/04 A3000 RMK 60016 SLP181 T00570045 52011 IEM_DS3505
ZBHH,2010-03-29 13:00,ZBHH 291300Z AUTO 17002KT 1 1/4SM 05/05 A3000 RMK T00500050 IEM_DS3505
ZBHH,2010-03-29 14:00,ZBHH 291400Z AUTO 16004KT 1 1/4SM 05/05 A3000 RMK T00500050 IEM_DS3505
ZBHH,2010-03-29 15:00,ZBHH 291500Z AUTO 22004KT 6SM 06/05 A3000 RMK SLP169 T00560046 54000 IEM_DS3505
ZBHH,2010-03-29 16:00,ZBHH 291600Z AUTO 18002KT 1SM 05/05 A3000 RMK T00500050 IEM_DS3505
ZBHH,2010-03-29 17:00,ZBHH 291700Z AUTO 19004KT 1SM 05/05 A3000 RMK T00500050 IEM_DS3505
ZBHH,2010-03-29 18:00,ZBHH 291800Z AUTO 27002KT 5SM 05/04 A2997 RMK 60004 SLP174 T00520042 57004 IEM_DS3505
ZBHH,2010-03-29 19:00,ZBHH 291900Z AUTO 20002KT 1SM 05/05 A2997 RMK T00500050 IEM_DS3505
ZBHH,2010-03-29 20:00,ZBHH 292000Z AUTO 12002KT 1SM 04/04 A2994 RMK T00400040 IEM_DS3505
ZBHH,2010-03-29 21:00,ZBHH 292100Z AUTO 27002KT 4SM 05/04 A2994 RMK 70021 SLP163 T00500040 57011 IEM_DS3505
ZBHH,2010-03-29 22:00,ZBHH 292200Z AUTO 05002KT 3/8SM 03/03 A2994 RMK T00300030 IEM_DS3505
ZBHH,2010-03-29 23:00,ZBHH 292300Z AUTO 14002KT 1/4SM 03/03 A2994 RMK T00300030 IEM_DS3505
ZBHH,2010-03-30 00:00,ZBHH 300000Z AUTO 09004KT 2 1/2SM 05/M03 A2994 RMK 70021 SLP168 T00471031 52002 IEM_DS3505
ZBHH,2010-03-30 01:00,ZBHH 300100Z AUTO 16004KT 1 1/4SM 04/01 A2997 RMK T00400010 IEM_DS3505
ZBHH,2010-03-30 02:00,ZBHH 300200Z AUTO 18004KT 1SM 01/01 A2997 RMK T00100010 IEM_DS3505
ZBHH,2010-03-30 03:00,ZBHH 300300Z AUTO 18002KT 2 1/2SM 02/00 A2997 RMK SLP183 T00200004 52008 IEM_DS3505
ZBHH,2010-03-30 04:00,ZBHH 300400Z AUTO 24004KT 2SM 04/01 A2994 RMK T00400010 IEM_DS3505
ZBHH,2010-03-30 05:00,ZBHH 300500Z AUTO 26008G17KT 2 1/2SM 06/00 A2994 RMK T00600000 IEM_DS3505
ZBHH,2010-03-30 06:00,ZBHH 300600Z AUTO 18008KT 6SM 07/M08 A2991 RMK 60012 SLP146 T00741082 57022 IEM_DS3505
ZBHH,2010-03-30 07:00,ZBHH 300700Z AUTO 23014KT 4SM 08/M07 A2988 RMK T00801070 IEM_DS3505
ZBHH,2010-03-30 08:00,ZBHH 300800Z AUTO 23014KT 4SM 08/M06 A2988 RMK T00801060 IEM_DS3505
ZBHH,2010-03-30 09:00,ZBHH 300900Z AUTO 22008KT 6SM 08/M07 A2985 RMK SLP132 T00811068 57012 IEM_DS3505
ZBHH,2010-03-30 10:00,ZBHH 301000Z AUTO 25010KT 3SM 07/M05 A2985 RMK T00701050 IEM_DS3505
ZBHH,2010-03-30 11:00,ZBHH 301100Z AUTO 22006KT 4SM 06/M05 A2988 RMK T00601050 IEM_DS3505
ZBHH,2010-03-30 12:00,ZBHH 301200Z AUTO 34002KT 9SM 06/M08 A2991 RMK SLP148 T00561079 52009 IEM_DS3505
ZBHH,2010-03-30 13:00,ZBHH 301300Z AUTO 11004KT 5SM 03/M06 A2991 RMK T00301060 IEM_DS3505
ZBHH,2010-03-30 14:00,ZBHH 301400Z AUTO 03004KT 4SM 02/M03 A2991 RMK T00201030 IEM_DS3505
ZBHH,2010-03-30 15:00,ZBHH 301500Z AUTO 04002KT 6SM 03/M06 A2991 RMK SLP164 T00311061 52003 IEM_DS3505
ZBHH,2010-03-30 16:00,ZBHH 301600Z AUTO 06006KT 5SM M01/M03 A2991 RMK T10101030 IEM_DS3505
ZBHH,2010-03-30 17:00,ZBHH 301700Z AUTO 08004KT 6SM M01/M03 A2988 RMK T10101030 IEM_DS3505
ZBHH,2010-03-30 18:00,ZBHH 301800Z AUTO 09002KT 12SM 01/M04 A2988 RMK SLP152 T00131045 57003 IEM_DS3505
ZBHH,2010-03-30 19:00,ZBHH 301900Z AUTO 03006KT 6SM 00/M04 A2988 RMK T00001040 IEM_DS3505
ZBHH,2010-03-30 20:00,ZBHH 302000Z AUTO 07006KT 6SM M02/M04 A2988 RMK T10201040 IEM_DS3505
ZBHH,2010-03-30 21:00,ZBHH 302100Z AUTO 04002KT 9SM 00/M05 A2991 RMK 70010 SLP153 T00021054 54000 IEM_DS3505
ZBHH,2010-03-30 22:00,ZBHH 302200Z AUTO 05006KT 6SM M01/M04 A2991 RMK T10101040 IEM_DS3505
ZBHH,2010-03-30 23:00,ZBHH 302300Z AUTO 09006KT 4SM 00/M03 A2994 RMK T00001030 IEM_DS3505
ZBHH,2010-03-31 00:00,ZBHH 310000Z AUTO 34004KT 6SM 04/M15 A2997 RMK 70010 SLP173 T00421146 52021 IEM_DS3505
ZBHH,2010-03-31 01:00,ZBHH 310100Z AUTO 35014KT 3SM 04/M12 A2997 RMK T00401120 IEM_DS3505
ZBHH,2010-03-31 02:00,ZBHH 310200Z AUTO 34014KT 2 1/2SM 04/M16 A3000 RMK T00401160 IEM_DS3505
ZBHH,2010-03-31 03:00,ZBHH 310300Z AUTO 32008KT 6SM 04/M16 A3003 RMK SLP204 T00441160 52022 IEM_DS3505
ZBHH,2010-03-31 04:00,ZBHH 310400Z AUTO 33014KT 4SM 05/M15 A3003 RMK T00501150 IEM_DS3505
ZBHH,2010-03-31 05:00,ZBHH 310500Z AUTO 33014KT 5SM 05/M14 A3003 RMK T00501140 IEM_DS3505
ZBHH,2010-03-31 06:00,ZBHH 310600Z AUTO 32006KT 6SM 04/M14 A3003 RMK SLP206 T00441139 57002 IEM_DS3505
ZBHH,2010-03-31 07:00,ZBHH 310700Z AUTO 35016KT 7SM 04/M14 A3003 RMK T00401140 IEM_DS3505
ZBHH,2010-03-31 08:00,ZBHH 310800Z AUTO 33016KT 7SM 04/M16 A3000 RMK T00401160 IEM_DS3505
ZBHH,2010-03-31 09:00,ZBHH 310900Z AUTO 32010KT 7SM 04/M17 A3003 RMK SLP218 T00381171 52007 IEM_DS3505
ZBHH,2010-03-31 10:00,ZBHH 311000Z AUTO 33014KT 7SM 03/M17 A3006 RMK T00301170 IEM_DS3505
ZBHH,2010-03-31 11:00,ZBHH 311100Z AUTO 36019KT 7SM 00/M13 A3009 RMK T00001130 IEM_DS3505
ZBHH,2010-03-31 12:00,ZBHH 311200Z AUTO 36008KT 19SM M00/M12 A3015 RMK SLP251 T10021122 52029 IEM_DS3505
ZBHH,2010-03-31 13:00,ZBHH 311300Z AUTO 01010KT 7SM M01/M10 A3018 RMK T10101100 IEM_DS3505
ZBHH,2010-03-31 14:00,ZBHH 311400Z AUTO 07006KT 7SM M03/M10 A3021 RMK T10301100 IEM_DS3505
ZBHH,2010-03-31 15:00,ZBHH 311500Z AUTO 32006KT 19SM M02/M13 A3021 RMK SLP277 T10231126 52019 IEM_DS3505
ZBHH,2010-03-31 16:00,ZBHH 311600Z AUTO 29002KT 7SM M03/M10 A3021 RMK T10301100 IEM_DS3505
ZBHH,2010-03-31 17:00,ZBHH 311700Z AUTO 35004KT 7SM M04/M11 A3021 RMK T10401110 IEM_DS3505
ZBHH,2010-03-31 18:00,ZBHH 311800Z AUTO 32002KT 19SM M04/M13 A3018 RMK SLP275 T10411127 57006 IEM_DS3505
ZBHH,2010-03-31 19:00,ZBHH 311900Z AUTO 01002KT 7SM M06/M12 A3018 RMK T10601120 IEM_DS3505
ZBHH,2010-03-31 20:00,ZBHH 312000Z AUTO 08002KT 6SM M08/M11 A3015 RMK T10801110 IEM_DS3505
ZBHH,2010-03-31 21:00,ZBHH 312100Z AUTO 04002KT 19SM M05/M14 A3015 RMK SLP269 T10531143 57009 IEM_DS3505
ZBHH,2010-03-31 22:00,ZBHH 312200Z AUTO 17002KT 6SM M09/M12 A3018 RMK T10901120 IEM_DS3505
ZBHH,2010-03-31 23:00,ZBHH 312300Z AUTO 11002KT 6SM M08/M10 A3018 RMK T10801100 IEM_DS3505
ZBHH,2010-04-01 00:00,ZBHH 010000Z AUTO 32004KT 19SM M03/M18 A3021 RMK SLP288 T10311178 52013 IEM_DS3505
ZBHH,2010-04-01 01:00,ZBHH 010100Z AUTO 26004KT 6SM M02/M15 A3021 RMK T10201150 IEM_DS3505
ZBHH,2010-04-01 02:00,ZBHH 010200Z AUTO 29012KT 6SM M01/M16 A3021 RMK T10101160 IEM_DS3505
ZBHH,2010-04-01 03:00,ZBHH 010300Z AUTO 29006KT 19SM 01/M21 A3018 RMK SLP274 T00141210 57007 IEM_DS3505
ZBHH,2010-04-01 04:00,ZBHH 010400Z AUTO 30017KT 6SM 02/M24 A3015 RMK T00201240 IEM_DS3505
ZBHH,2010-04-01 05:00,ZBHH 010500Z AUTO 30016KT 7SM 03/M24 A3012 RMK T00301240 IEM_DS3505
ZBHH,2010-04-01 06:00,ZBHH 010600Z AUTO 29012G27KT 19SM 04/M24 A3009 RMK SLP248 T00361242 57022 IEM_DS3505
ZBHH,2010-04-01 07:00,ZBHH 010700Z AUTO 30017KT 7SM 03/M25 A3006 RMK T00301250 IEM_DS3505
ZBHH,2010-04-01 08:00,ZBHH 010800Z AUTO 30016KT 7SM 03/M24 A3003 RMK T00301240 IEM_DS3505
ZBHH,2010-04-01 09:00,ZBHH 010900Z AUTO 29008KT 19SM 04/M24 A3003 RMK SLP226 T00371241 57022 IEM_DS3505
ZBHH,2010-04-01 10:00,ZBHH 011000Z AUTO 29016KT 7SM 03/M23 A3003 RMK T00301230 IEM_DS3505
ZBHH,2010-04-01 11:00,ZBHH 011100Z AUTO 29016G25KT 7SM 02/M22 A3000 RMK T00201220 IEM_DS3505
ZBHH,2010-04-01 12:00,ZBHH 011200Z AUTO 25004KT 19SM 02/M20 A3000 RMK SLP215 T00221197 57008 IEM_DS3505
ZBHH,2010-04-01 13:00,ZBHH 011300Z AUTO 29012KT 7SM 01/M19 A3003 RMK T00101190 IEM_DS3505
ZBHH,2010-04-01 14:00,ZBHH 011400Z AUTO 33012KT 7SM 00/M19 A3006 RMK T00001190 IEM_DS3505
ZBHH,2010-04-01 15:00,ZBHH 011500Z AUTO 32006KT 19SM M01/M22 A3009 RMK SLP244 T10141215 52027 IEM_DS3505
ZBHH,2010-04-01 16:00,ZBHH 011600Z AUTO 34008KT 7SM M02/M20 A3009 RMK T10201200 IEM_DS3505
ZBHH,2010-04-01 17:00,ZBHH 011700Z AUTO 33006KT 7SM M03/M19 A3012 RMK T10301190 IEM_DS3505
ZBHH,2010-04-01 18:00,ZBHH 011800Z AUTO 34004KT 19SM M03/M21 A3012 RMK SLP246 T10321209 52003 IEM_DS3505
ZBHH,2010-04-01 19:00,ZBHH 011900Z AUTO 36006KT 7SM M04/M19 A3012 RMK T10401190 IEM_DS3505
ZBHH,2010-04-01 20:00,ZBHH 012000Z AUTO 35010KT 7SM M04/M18 A3012 RMK T10401180 IEM_DS3505
ZBHH,2010-04-01 21:00,ZBHH 012100Z AUTO 02006KT 19SM M04/M20 A3012 RMK SLP256 T10421204 52007 IEM_DS3505
ZBHH,2010-04-01 22:00,ZBHH 012200Z AUTO 32004KT 6SM M05/M16 A3015 RMK T10501160 IEM_DS3505
ZBHH,2010-04-01 23:00,ZBHH 012300Z AUTO 36002KT 6SM M05/M16 A3015 RMK T10501160 IEM_DS3505
ZBHH,2010-04-02 00:00,ZBHH 020000Z AUTO 34004KT 19SM M03/M18 A3018 RMK SLP273 T10281184 52014 IEM_DS3505
ZBHH,2010-04-02 01:00,ZBHH 020100Z AUTO 36004KT 6SM M02/M17 A3018 RMK T10201170 IEM_DS3505
ZBHH,2010-04-02 02:00,ZBHH 020200Z AUTO 22004KT 6SM M01/M18 A3018 RMK T10101180 IEM_DS3505
ZBHH,2010-04-02 03:00,ZBHH 020300Z AUTO 32006KT 19SM 01/M19 A3018 RMK SLP269 T00141191 57002 IEM_DS3505
ZBHH,2010-04-02 04:00,ZBHH 020400Z AUTO 27006G17KT 6SM 03/M19 A3015 RMK T00301190 IEM_DS3505
ZBHH,2010-04-02 05:00,ZBHH 020500Z AUTO 27010KT 6SM 04/M18 A3012 RMK T00401180 IEM_DS3505
ZBHH,2010-04-02 06:00,ZBHH 020600Z AUTO 22010KT 19SM 04/M17 A3012 RMK SLP248 T00441166 57016 IEM_DS3505
ZBHH,2010-04-02 07:00,ZBHH 020700Z AUTO 23014KT 6SM 05/M16 A3009 RMK T00501160 IEM_DS3505
ZBHH,2010-04-02 08:00,ZBHH 020800Z AUTO 22014KT 6SM 06/M15 A3006 RMK T00601150 IEM_DS3505
ZBHH,2010-04-02 09:00,ZBHH 020900Z AUTO 22008KT 19SM 07/M16 A3006 RMK SLP218 T00661160 57023 IEM_DS3505
ZBHH,2010-04-02 10:00,ZBHH 021000Z AUTO 24012KT 6SM 06/M16 A3003 RMK T00601160 IEM_DS3505
ZBHH,2010-04-02 11:00,ZBHH 021100Z AUTO 24010KT 6SM 04/M15 A3003 RMK T00401150 IEM_DS3505
ZBHH,2010-04-02 12:00,ZBHH 021200Z AUTO 27002KT 19SM 04/M14 A3003 RMK SLP220 T00421141 57001 IEM_DS3505
ZBHH,2010-04-02 13:00,ZBHH 021300Z AUTO 17004KT 6SM 01/M13 A3006 RMK T00101130 IEM_DS3505
ZBHH,2010-04-02 14:00,ZBHH 021400Z AUTO 06008KT 6SM M01/M12 A3003 RMK T10101120 IEM_DS3505
ZBHH,2010-04-02 15:00,ZBHH 021500Z AUTO 07004KT 19SM 01/M13 A3003 RMK SLP217 T00081133 57001 IEM_DS3505
ZBHH,2010-04-02 16:00,ZBHH 021600Z AUTO 02006KT 6SM M02/M11 A3003 RMK T10201110 IEM_DS3505
ZBHH,2010-04-02 17:00,ZBHH 021700Z AUTO 04006KT 6SM M03/M11 A3003 RMK T10301110 IEM_DS3505
ZBHH,2010-04-02 18:00,ZBHH 021800Z AUTO 07002KT 19SM M02/M14 A3000 RMK SLP203 T10181136 57011 IEM_DS3505
ZBHH,2010-04-02 19:00,ZBHH 021900Z AUTO 04002KT 6SM M05/M11 A3000 RMK T10501110 IEM_DS3505
ZBHH,2010-04-02 20:00,ZBHH 022000Z AUTO 07004KT 6SM M05/M11 A2997 RMK T10501110 IEM_DS3505
ZBHH,2010-04-02 21:00,ZBHH 022100Z AUTO 09002KT 19SM M03/M11 A2997 RMK SLP187 T10311113 57012 IEM_DS3505
ZBHH,2010-04-02 22:00,ZBHH 022200Z AUTO 03006KT 6SM M05/M12 A2994 RMK T10501120 IEM_DS3505
ZBHH,2010-04-02 23:00,ZBHH 022300Z AUTO 05004KT 6SM M05/M11 A2994 RMK T10501110 IEM_DS3505
ZBHH,2010-04-03 00:00,ZBHH 030000Z AUTO 02002KT 19SM 01/M12 A2994 RMK SLP174 T00061121 57009 IEM_DS3505
ZBHH,2010-04-03 01:00,ZBHH 030100Z AUTO 09002KT 6SM 03/M13 A2991 RMK T00301130 IEM_DS3505
ZBHH,2010-04-03 02:00,ZBHH 030200Z AUTO 32002KT 6SM 06/M13 A2991 RMK T00601130 IEM_DS3505
ZBHH,2010-04-03 03:00,ZBHH 030300Z AUTO 18004KT 19SM 07/M16 A2988 RMK SLP144 T00721155 57020 IEM_DS3505
ZBHH,2010-04-03 04:00,ZBHH 030400Z AUTO 21008KT 6SM 09/M16 A2983 RMK T00901160 IEM_DS3505
ZBHH,2010-04-03 05:00,ZBHH 030500Z AUTO 20006KT 6SM 10/M14 A2980 RMK T01001140 IEM_DS3505
ZBHH,2010-04-03 06:00,ZBHH 030600Z AUTO 20004KT 16SM 12/M14 A2977 RMK SLP101 T01181140 57033 IEM_DS3505
ZBHH,2010-04-03 07:00,ZBHH 030700Z AUTO 28006KT 6SM 13/M13 A2971 RMK T01301130 IEM_DS3505
ZBHH,2010-04-03 08:00,ZBHH 030800Z AUTO 26004KT 6SM 14/M12 A2971 RMK T01401120 IEM_DS3505
ZBHH,2010-04-03 09:00,ZBHH 030900Z AUTO 22010KT 9SM 14/M11 A2968 RMK SLP072 T01411113 57024 IEM_DS3505
ZBHH,2010-04-03 10:00,ZBHH 031000Z AUTO 24016KT 6SM 14/M10 A2968 RMK T01401100 IEM_DS3505
ZBHH,2010-04-03 11:00,ZBHH 031100Z AUTO 28008KT 6SM 12/M09 A2971 RMK T01201090 IEM_DS3505
ZBHH,2010-04-03 12:00,ZBHH 031200Z AUTO 29006KT 12SM 13/M15 A2974 RMK SLP088 T01311147 52020 IEM_DS3505
ZBHH,2010-04-03 13:00,ZBHH 031300Z AUTO 34008KT 6SM 10/M14 A2977 RMK T01001140 IEM_DS3505
ZBHH,2010-04-03 14:00,ZBHH 031400Z AUTO 33006KT 6SM 09/M16 A2980 RMK T00901160 IEM_DS3505
ZBHH,2010-04-03 15:00,ZBHH 031500Z AUTO 32004KT 12SM 09/M14 A2983 RMK SLP110 T00871143 52024 IEM_DS3505
ZBHH,2010-04-03 16:00,ZBHH 031600Z AUTO 01008KT 6SM 07/M13 A2985 RMK T00701130 IEM_DS3505
ZBHH,2010-04-03 17:00,ZBHH 031700Z AUTO 35008KT 6SM 06/M13 A2985 RMK T00601130 IEM_DS3505
ZBHH,2010-04-03 18:00,ZBHH 031800Z AUTO 14004KT 12SM 06/M14 A2985 RMK SLP118 T00581143 52010 IEM_DS3505
ZBHH,2010-04-03 19:00,ZBHH 031900Z AUTO 12002KT 6SM 03/M13 A2985 RMK T00301130 IEM_DS3505
ZBHH,2010-04-03 20:00,ZBHH 032000Z AUTO 29002KT 6SM 02/M13 A2985 RMK T00201130 IEM_DS3505
ZBHH,2010-04-03 21:00,ZBHH 032100Z AUTO 22002KT 16SM 02/M14 A2985 RMK SLP124 T00151142 52001 IEM_DS3505
ZBHH,2010-04-03 22:00,ZBHH 032200Z AUTO 05004KT 6SM M02/M11 A2985 RMK T10201110 IEM_DS3505
ZBHH,2010-04-03 23:00,ZBHH 032300Z AUTO 04004KT 6SM M02/M10 A2988 RMK T10201100 IEM_DS3505
ZBHH,2010-04-04 00:00,ZBHH 040000Z AUTO 07002KT 16SM 04/M13 A2988 RMK SLP134 T00441130 52013 IEM_DS3505
ZBHH,2010-04-04 01:00,ZBHH 040100Z AUTO 06002KT 6SM 06/M14 A2991 RMK T00601140 IEM_DS3505
ZBHH,2010-04-04 02:00,ZBHH 040200Z AUTO 30002KT 6SM 09/M16 A2988 RMK T00901160 IEM_DS3505
ZBHH,2010-04-04 03:00,ZBHH 040300Z AUTO 11004KT 6SM 10/M16 A2988 RMK SLP121 T01041160 57008 IEM_DS3505
ZBHH,2010-04-04 04:00,ZBHH 040400Z AUTO 22008KT 6SM 11/M15 A2985 RMK T01101150 IEM_DS3505
ZBHH,2010-04-04 05:00,ZBHH 040500Z AUTO 24014KT 5SM 12/M14 A2980 RMK T01201140 IEM_DS3505
ZBHH,2010-04-04 06:00,ZBHH 040600Z AUTO 22008KT 6SM 13/M13 A2977 RMK SLP087 T01341127 57030 IEM_DS3505
ZBHH,2010-04-04 07:00,ZBHH 040700Z AUTO 23014KT 5SM 14/M14 A2977 RMK T01401140 IEM_DS3505
ZBHH,2010-04-04 08:00,ZBHH 040800Z AUTO 23016KT 7SM 15/M12 A2974 RMK T01501120 IEM_DS3505
ZBHH,2010-04-04 09:00,ZBHH 040900Z AUTO 25010KT 6SM 14/M13 A2974 RMK SLP083 T01451127 57010 IEM_DS3505
ZBHH,2010-04-04 10:00,ZBHH 041000Z AUTO 24012KT 7SM 14/M14 A2974 RMK T01401140 IEM_DS3505
ZBHH,2010-04-04 11:00,ZBHH 041100Z AUTO 01008KT 7SM 12/M15 A2977 RMK T01201150 IEM_DS3505
ZBHH,2010-04-04 12:00,ZBHH 041200Z AUTO 02004KT 12SM 11/M16 A2980 RMK SLP105 T01081156 52018 IEM_DS3505
ZBHH,2010-04-04 13:00,ZBHH 041300Z AUTO 06008KT 6SM 08/M14 A2983 RMK T00801140 IEM_DS3505
ZBHH,2010-04-04 14:00,ZBHH 041400Z AUTO 10008KT 6SM 07/M15 A2985 RMK T00701150 IEM_DS3505
ZBHH,2010-04-04 15:00,ZBHH 041500Z AUTO 22002KT 12SM 06/M14 A2985 RMK SLP120 T00551135 52014 IEM_DS3505
ZBHH,2010-04-04 16:00,ZBHH 041600Z AUTO 06008KT 6SM 03/M14 A2985 RMK T00301140 IEM_DS3505
ZBHH,2010-04-04 17:00,ZBHH 041700Z AUTO 06006KT 6SM 02/M14 A2985 RMK T00201140 IEM_DS3505
ZBHH,2010-04-04 18:00,ZBHH 041800Z AUTO 09004KT 19SM 04/M14 A2985 RMK SLP118 T00351137 52001 IEM_DS3505
ZBHH,2010-04-04 19:00,ZBHH 041900Z AUTO 05006KT 6SM 00/M12 A2985 RMK T00001120 IEM_DS3505
ZBHH,2010-04-04 20:00,ZBHH 042000Z AUTO 04004KT 6SM 00/M12 A2985 RMK T00001120 IEM_DS3505
ZBHH,2010-04-04 21:00,ZBHH 042100Z AUTO 20002KT 19SM 01/M13 A2985 RMK SLP120 T00061131 57002 IEM_DS3505
ZBHH,2010-04-04 22:00,ZBHH 042200Z AUTO 06006KT 6SM M03/M11 A2985 RMK T10301110 IEM_DS3505
ZBHH,2010-04-04 23:00,ZBHH 042300Z AUTO 07006KT 6SM M01/M11 A2985 RMK T10101110 IEM_DS3505
ZBHH,2010-04-05 00:00,ZBHH 050000Z AUTO 09002KT 16SM 04/M13 A2988 RMK SLP130 T00391134 52008 IEM_DS3505
ZBHH,2010-04-05 01:00,ZBHH 050100Z AUTO 12004KT 6SM 06/M14 A2988 RMK T00601140 IEM_DS3505
ZBHH,2010-04-05 02:00,ZBHH 050200Z AUTO 22006KT 6SM 07/M13 A2988 RMK T00701130 IEM_DS3505
ZBHH,2010-04-05 03:00,ZBHH 050300Z AUTO 32006G27KT 12SM 10/M15 A2991 RMK SLP144 T01021153 52014 IEM_DS3505
ZBHH,2010-04-05 04:00,ZBHH 050400Z AUTO 35019KT 7SM 10/M14 A2994 RMK T01001140 IEM_DS3505
ZBHH,2010-04-05 05:00,ZBHH 050500Z AUTO 36019KT 7SM 09/M12 A2997 RMK T00901120 IEM_DS3505
ZBHH,2010-04-05 06:00,ZBHH 050600Z AUTO 32008G29KT 12SM 08/M10 A3000 RMK SLP186 T00781105 52028 IEM_DS3505
ZBHH,2010-04-05 07:00,ZBHH 050700Z AUTO 35017KT 7SM 07/M09 A3003 RMK T00701090 IEM_DS3505
ZBHH,2010-04-05 08:00,ZBHH 050800Z AUTO 35017KT 7SM 06/M11 A3006 RMK T00601110 IEM_DS3505
ZBHH,2010-04-05 09:00,ZBHH 050900Z AUTO 34008KT 12SM 05/M08 A3009 RMK SLP239 T00471081 52034 IEM_DS3505
ZBHH,2010-04-05 10:00,ZBHH 051000Z AUTO 03014KT 7SM 04/M09 A3015 RMK T00401090 IEM_DS3505
ZBHH,2010-04-05 11:00,ZBHH 051100Z AUTO 04012KT 7SM 02/M10 A3018 RMK T00201100 IEM_DS3505
ZBHH,2010-04-05 12:00,ZBHH 051200Z AUTO 36006KT 19SM 02/M09 A3021 RMK SLP270 T00201087 52029 IEM_DS3505
ZBHH,2010-04-05 13:00,ZBHH 051300Z AUTO 03006KT 7SM 00/M09 A3024 RMK T00001090 IEM_DS3505
ZBHH,2010-04-05 14:00,ZBHH 051400Z AUTO 14002KT 6SM M02/M09 A3027 RMK T10201090 IEM_DS3505
ZBHH,2010-04-05 15:00,ZBHH 051500Z AUTO 29002KT 19SM 00/M08 A3027 RMK SLP278 T00001084 52016 IEM_DS3505
ZBHH,2010-04-05 16:00,ZBHH 051600Z AUTO 01006KT 6SM M01/M08 A3027 RMK T10101080 IEM_DS3505
ZBHH,2010-04-05 17:00,ZBHH 051700Z AUTO 01002KT 6SM M01/M08 A3030 RMK T10101080 IEM_DS3505
ZBHH,2010-04-05 18:00,ZBHH 051800Z AUTO 27002KT 19SM M01/M10 A3030 RMK SLP292 T10131101 52004 IEM_DS3505
ZBHH,2010-04-05 19:00,ZBHH 051900Z AUTO 09004KT 6SM M05/M10 A3030 RMK T10501100 IEM_DS3505
ZBHH,2010-04-05 20:00,ZBHH 052000Z AUTO 06004KT 7SM M06/M10 A3030 RMK T10601100 IEM_DS3505
ZBHH,2010-04-05 21:00,ZBHH 052100Z AUTO 07002KT 19SM M03/M09 A3030 RMK SLP301 T10281093 57002 IEM_DS3505
ZBHH,2010-04-05 22:00,ZBHH 052200Z AUTO 05006KT 6SM M07/M11 A3030 RMK T10701110 IEM_DS3505
ZBHH,2010-04-05 23:00,ZBHH 052300Z AUTO 07004KT 6SM M06/M10 A3030 RMK T10601100 IEM_DS3505
ZBHH,2010-04-06 00:00,ZBHH 060000Z AUTO 09002KT 19SM 00/M09 A3033 RMK SLP318 T00001089 52015 IEM_DS3505
ZBHH,2010-04-06 01:00,ZBHH 060100Z AUTO 19002KT 7SM 01/M08 A3033 RMK T00101080 IEM_DS3505
ZBHH,2010-04-06 02:00,ZBHH 060200Z AUTO 20006KT 7SM 02/M10 A3033 RMK T00201100 IEM_DS3505
ZBHH,2010-04-06 03:00,ZBHH 060300Z AUTO 34006KT 19SM 05/M19 A3033 RMK SLP309 T00491188 57001 IEM_DS3505
ZBHH,2010-04-06 04:00,ZBHH 060400Z AUTO 33006KT 7SM 05/M18 A3030 RMK T00501180 IEM_DS3505
ZBHH,2010-04-06 05:00,ZBHH 060500Z AUTO 34010KT 6SM 07/M19 A3027 RMK T00701190 IEM_DS3505
ZBHH,2010-04-06 06:00,ZBHH 060600Z AUTO 22008KT 19SM 08/M15 A3024 RMK SLP283 T00761152 57020 IEM_DS3505
ZBHH,2010-04-06 07:00,ZBHH 060700Z AUTO 26010G19KT 6SM 08/M15 A3024 RMK T00801150 IEM_DS3505
ZBHH,2010-04-06 08:00,ZBHH 060800Z AUTO 23008KT 6SM 09/M15 A3021 RMK T00901150 IEM_DS3505
ZBHH,2010-04-06 09:00,ZBHH 060900Z AUTO 25008KT 19SM 09/M13 A3021 RMK SLP264 T00921132 57017 IEM_DS3505
ZBHH,2010-04-06 10:00,ZBHH 061000Z AUTO 23014KT 6SM 08/M13 A3018 RMK T00801130 IEM_DS3505
ZBHH,2010-04-06 11:00,ZBHH 061100Z AUTO 23010KT 6SM 07/M13 A3021 RMK T00701130 IEM_DS3505
ZBHH,2010-04-06 12:00,ZBHH 061200Z AUTO 20004KT 19SM 07/M12 A3021 RMK SLP269 T00671115 52005 IEM_DS3505
ZBHH,2010-04-06 13:00,ZBHH 061300Z AUTO 13002KT 6SM 04/M12 A3024 RMK T00401120 IEM_DS3505
ZBHH,2010-04-06 14:00,ZBHH 061400Z AUTO 09002KT 6SM 01/M13 A3024 RMK T00101130 IEM_DS3505
ZBHH,2010-04-06 15:00,ZBHH 061500Z AUTO 07002KT 19SM 03/M12 A3021 RMK SLP266 T00331118 52001 IEM_DS3505
ZBHH,2010-04-06 16:00,ZBHH 061600Z AUTO 04006KT 6SM M01/M11 A3021 RMK T10101110 IEM_DS3505
ZBHH,2010-04-06 17:00,ZBHH 061700Z AUTO 06004KT 6SM M02/M11 A3021 RMK T10201110 IEM_DS3505
ZBHH,2010-04-06 18:00,ZBHH 061800Z AUTO 36002KT 19SM 00/M11 A3021 RMK SLP259 T00051112 57006 IEM_DS3505
ZBHH,2010-04-06 19:00,ZBHH 061900Z AUTO 03004KT 6SM M02/M11 A3018 RMK T10201110 IEM_DS3505
ZBHH,2010-04-06 20:00,ZBHH 062000Z AUTO 07004KT 6SM M05/M12 A3018 RMK T10501120 IEM_DS3505
ZBHH,2010-04-06 21:00,ZBHH 062100Z AUTO 07002KT 19SM 01/M12 A3015 RMK SLP240 T00071120 57013 IEM_DS3505
ZBHH,2010-04-06 22:00,ZBHH 062200Z AUTO 05004KT 7SM M01/M11 A3015 RMK T10101110 IEM_DS3505
ZBHH,2010-04-06 23:00,ZBHH 062300Z AUTO 08002KT 7SM M01/M11 A3015 RMK T10101110 IEM_DS3505
ZBHH,2010-04-07 00:00,ZBHH 070000Z AUTO 11002KT 9SM 04/M14 A3015 RMK SLP233 T00431135 57004 IEM_DS3505
ZBHH,2010-04-07 01:00,ZBHH 070100Z AUTO 16004KT 6SM 05/M13 A3015 RMK T00501130 IEM_DS3505
ZBHH,2010-04-07 02:00,ZBHH 070200Z AUTO 18002KT 6SM 07/M12 A3012 RMK T00701120 IEM_DS3505
ZBHH,2010-04-07 03:00,ZBHH 070300Z AUTO 20006KT 12SM 09/M12 A3009 RMK SLP212 T00891122 57016 IEM_DS3505
ZBHH,2010-04-07 04:00,ZBHH 070400Z AUTO 24012KT 6SM 11/M13 A3006 RMK T01101130 IEM_DS3505
ZBHH,2010-04-07 05:00,ZBHH 070500Z AUTO 23012KT 7SM 13/M13 A3000 RMK T01301130 IEM_DS3505
ZBHH,2010-04-07 06:00,ZBHH 070600Z AUTO 20006KT 12SM 14/M11 A2997 RMK SLP162 T01411113 57039 IEM_DS3505
ZBHH,2010-04-07 07:00,ZBHH 070700Z AUTO 25012KT 7SM 16/M10 A2991 RMK T01601100 IEM_DS3505
ZBHH,2010-04-07 08:00,ZBHH 070800Z AUTO 24010KT 6SM 17/M10 A2988 RMK T01701100 IEM_DS3505
ZBHH,2010-04-07 09:00,ZBHH 070900Z AUTO 25010KT 12SM 17/M10 A2983 RMK SLP111 T01691099 57039 IEM_DS3505
ZBHH,2010-04-07 10:00,ZBHH 071000Z AUTO 24014KT 7SM 16/M09 A2980 RMK T01601090 IEM_DS3505
ZBHH,2010-04-07 11:00,ZBHH 071100Z AUTO 24010KT 4SM 15/M08 A2980 RMK T01501080 IEM_DS3505
ZBHH,2010-04-07 12:00,ZBHH 071200Z AUTO 25004KT 12SM 14/M07 A2983 RMK SLP104 T01441070 57004 IEM_DS3505
ZBHH,2010-04-07 13:00,ZBHH 071300Z AUTO 32002KT 4SM 13/M08 A2983 RMK T01301080 IEM_DS3505
ZBHH,2010-04-07 14:00,ZBHH 071400Z AUTO 25006KT 4SM 10/M07 A2985 RMK T01001070 IEM_DS3505
ZBHH,2010-04-07 15:00,ZBHH 071500Z AUTO 22004KT 19SM 11/M06 A2983 RMK SLP104 T01141065 52003 IEM_DS3505
ZBHH,2010-04-07 16:00,ZBHH 071600Z AUTO 27008KT 5SM 08/M06 A2983 RMK T00801060 IEM_DS3505
ZBHH,2010-04-07 17:00,ZBHH 071700Z AUTO 36002KT 5SM 07/M06 A2983 RMK T00701060 IEM_DS3505
ZBHH,2010-04-07 18:00,ZBHH 071800Z AUTO 36002KT 12SM 09/M06 A2980 RMK SLP086 T00911059 57010 IEM_DS3505
ZBHH,2010-04-07 19:00,ZBHH 071900Z AUTO 05004KT 4SM 06/M06 A2980 RMK T00601060 IEM_DS3505
ZBHH,2010-04-07 20:00,ZBHH 072000Z AUTO 19004KT 4SM 07/M05 A2977 RMK T00701050 IEM_DS3505
ZBHH,2010-04-07 21:00,ZBHH 072100Z AUTO 11002KT 12SM 07/M07 A2974 RMK SLP061 T00741067 57020 IEM_DS3505
ZBHH,2010-04-07 22:00,ZBHH 072200Z AUTO 16006KT 4SM 06/M06 A2974 RMK T00601060 IEM_DS3505
ZBHH,2010-04-07 23:00,ZBHH 072300Z AUTO 28002KT 5SM 05/M06 A2974 RMK T00501060 IEM_DS3505
ZBHH,2010-04-08 00:00,ZBHH 080000Z AUTO 09002KT 9SM 09/M06 A2974 RMK SLP064 T00941061 52002 IEM_DS3505
ZBHH,2010-04-08 01:00,ZBHH 080100Z AUTO 24006KT 4SM 10/M04 A2974 RMK T01001040 IEM_DS3505
ZBHH,2010-04-08 02:00,ZBHH 080200Z AUTO 25010KT 4SM 13/M03 A2971 RMK T01301030 IEM_DS3505
ZBHH,2010-04-08 03:00,ZBHH 080300Z AUTO 25008KT 9SM 14/M03 A2971 RMK SLP046 T01351029 57014 IEM_DS3505
ZBHH,2010-04-08 04:00,ZBHH 080400Z AUTO 24016KT 4SM 14/M02 A2968 RMK T01401020 IEM_DS3505
ZBHH,2010-04-08 05:00,ZBHH 080500Z AUTO 24017KT 4SM 16/M02 A2965 RMK T01601020 IEM_DS3505
ZBHH,2010-04-08 06:00,ZBHH 080600Z AUTO 22010KT 7SM 18/M03 A2962 RMK SLP018 T01751033 57021 IEM_DS3505
ZBHH,2010-04-08 07:00,ZBHH 080700Z AUTO 35017G27KT 2 1/2SM 15/M08 A2965 RMK T01501080 IEM_DS3505
ZBHH,2010-04-08 08:00,ZBHH 080800Z AUTO 35017KT 2SM 14/M08 A2965 RMK T01401080 IEM_DS3505
ZBHH,2010-04-08 09:00,ZBHH 080900Z AUTO 27006KT 5SM 14/M10 A2968 RMK SLP042 T01371095 52010 IEM_DS3505
ZBHH,2010-04-08 10:00,ZBHH 081000Z AUTO 35017G27KT 1 1/2SM 11/M10 A2968 RMK T01101100 IEM_DS3505
ZBHH,2010-04-08 11:00,ZBHH 081100Z AUTO 10006KT 2 1/2SM 10/M09 A2974 RMK T01001090 IEM_DS3505
ZBHH,2010-04-08 12:00,ZBHH 081200Z AUTO 27006KT 9SM 10/M09 A2977 RMK SLP085 T00971089 52034 IEM_DS3505
ZBHH,2010-04-08 13:00,ZBHH 081300Z AUTO 35012KT 4SM 08/M09 A2983 RMK T00801090 IEM_DS3505
ZBHH,2010-04-08 14:00,ZBHH 081400Z AUTO 02006KT 7SM 08/M08 A2983 RMK T00801080 IEM_DS3505
ZBHH,2010-04-08 15:00,ZBHH 081500Z AUTO 02004KT 9SM 06/M09 A2985 RMK SLP117 T00641091 52030 IEM_DS3505
ZBHH,2010-04-08 16:00,ZBHH 081600Z AUTO 12006KT 7SM 05/M09 A2988 RMK T00501090 IEM_DS3505
ZBHH,2010-04-08 17:00,ZBHH 081700Z AUTO 07012KT 7SM 05/M09 A2988 RMK T00501090 IEM_DS3505
ZBHH,2010-04-08 18:00,ZBHH 081800Z AUTO 04004KT 9SM 05/M09 A2985 RMK SLP110 T00501092 57001 IEM_DS3505
ZBHH,2010-04-08 19:00,ZBHH 081900Z AUTO 06006KT 7SM 04/M08 A2985 RMK T00401080 IEM_DS3505
ZBHH,2010-04-08 20:00,ZBHH 082000Z AUTO 07002KT 7SM 03/M08 A2983 RMK T00301080 IEM_DS3505
ZBHH,2010-04-08 21:00,ZBHH 082100Z AUTO 07002KT 9SM 04/M08 A2983 RMK SLP105 T00371080 57015 IEM_DS3505
ZBHH,2010-04-08 22:00,ZBHH 082200Z AUTO 06008KT 7SM 02/M08 A2983 RMK T00201080 IEM_DS3505
ZBHH,2010-04-08 23:00,ZBHH 082300Z AUTO 05002KT 6SM 02/M08 A2983 RMK T00201080 IEM_DS3505
ZBHH,2010-04-09 00:00,ZBHH 090000Z AUTO 09002KT 12SM 06/M08 A2983 RMK SLP109 T00571079 54000 IEM_DS3505
ZBHH,2010-04-09 01:00,ZBHH 090100Z AUTO 18002KT 6SM 07/M08 A2980 RMK T00701080 IEM_DS3505
ZBHH,2010-04-09 02:00,ZBHH 090200Z AUTO 23008KT 6SM 08/M08 A2983 RMK T00801080 IEM_DS3505
ZBHH,2010-04-09 03:00,ZBHH 090300Z AUTO 22008KT 9SM 09/M07 A2980 RMK SLP099 T00921070 57009 IEM_DS3505
ZBHH,2010-04-09 04:00,ZBHH 090400Z AUTO 23019KT 6SM 11/M06 A2977 RMK T01101060 IEM_DS3505
ZBHH,2010-04-09 05:00,ZBHH 090500Z AUTO 23021KT 6SM 12/M06 A2974 RMK T01201060 IEM_DS3505
ZBHH,2010-04-09 06:00,ZBHH 090600Z AUTO 29008G29KT 7SM 14/M14 A2974 RMK SLP069 T01431138 57019 IEM_DS3505
ZBHH,2010-04-09 07:00,ZBHH 090700Z AUTO 31021G31KT 7SM 13/M17 A2974 RMK T01301170 IEM_DS3505
ZBHH,2010-04-09 08:00,ZBHH 090800Z AUTO 33021G33KT 7SM 11/M16 A2977 RMK T01101160 IEM_DS3505
ZBHH,2010-04-09 09:00,ZBHH 090900Z AUTO 34010KT 6SM 08/M17 A2983 RMK SLP132 T00831168 52041 IEM_DS3505
ZBHH,2010-04-09 10:00,ZBHH 091000Z AUTO 32016KT 7SM 07/M13 A2988 RMK T00701130 IEM_DS3505
ZBHH,2010-04-09 11:00,ZBHH 091100Z AUTO 35016KT 7SM 05/M10 A2991 RMK T00501100 IEM_DS3505
ZBHH,2010-04-09 12:00,ZBHH 091200Z AUTO 04004KT 12SM 04/M09 A2997 RMK SLP181 T00371090 52038 IEM_DS3505
ZBHH,2010-04-09 13:00,ZBHH 091300Z AUTO 36012KT 6SM 03/M09 A3003 RMK T00301090 IEM_DS3505
ZBHH,2010-04-09 14:00,ZBHH 091400Z AUTO 35012KT 6SM 02/M09 A3006 RMK T00201090 IEM_DS3505
ZBHH,2010-04-09 15:00,ZBHH 091500Z AUTO 32004KT 12SM 02/M11 A3006 RMK SLP206 T00161112 52025 IEM_DS3505
ZBHH,2010-04-09 16:00,ZBHH 091600Z AUTO 33010KT 6SM 01/M11 A3006 RMK T00101110 IEM_DS3505
ZBHH,2010-04-09 17:00,ZBHH 091700Z AUTO 33006KT 6SM 00/M11 A3006 RMK T00001110 IEM_DS3505
ZBHH,2010-04-09 18:00,ZBHH 091800Z AUTO 27004KT 19SM M00/M12 A3006 RMK SLP196 T10011115 57002 IEM_DS3505
ZBHH,2010-04-09 19:00,ZBHH 091900Z AUTO 10002KT 6SM M02/M11 A3003 RMK T10201110 IEM_DS3505
ZBHH,2010-04-09 20:00,ZBHH 092000Z AUTO 08004KT 6SM M03/M11 A3003 RMK T10301110 IEM_DS3505
ZBHH,2010-04-09 21:00,ZBHH 092100Z AUTO 07002KT 19SM M02/M11 A3003 RMK SLP203 T10191109 57010 IEM_DS3505
ZBHH,2010-04-09 22:00,ZBHH 092200Z AUTO 03006KT 6SM M05/M11 A3003 RMK T10501110 IEM_DS3505
ZBHH,2010-04-09 23:00,ZBHH 092300Z AUTO 08004KT 6SM M04/M10 A3006 RMK T10401100 IEM_DS3505
ZBHH,2010-04-10 00:00,ZBHH 100000Z AUTO 07004KT 19SM 00/M12 A3003 RMK SLP217 T00011116 52007 IEM_DS3505
ZBHH,2010-04-10 01:00,ZBHH 100100Z AUTO 13002KT 6SM 02/M12 A3003 RMK T00201120 IEM_DS3505
ZBHH,2010-04-10 02:00,ZBHH 100200Z AUTO 20004KT 6SM 03/M14 A3003 RMK T00301140 IEM_DS3505
ZBHH,2010-04-10 03:00,ZBHH 100300Z AUTO 22006KT 19SM 04/M13 A3000 RMK SLP201 T00391134 57011 IEM_DS3505
ZBHH,2010-04-10 04:00,ZBHH 100400Z AUTO 24008KT 6SM 06/M14 A2997 RMK T00601140 IEM_DS3505
ZBHH,2010-04-10 05:00,ZBHH 100500Z AUTO 25014KT 6SM 08/M15 A2991 RMK T00801150 IEM_DS3505
ZBHH,2010-04-10 06:00,ZBHH 100600Z AUTO 25010KT 19SM 08/M18 A2988 RMK SLP154 T00831177 57035 IEM_DS3505
ZBHH,2010-04-10 07:00,ZBHH 100700Z AUTO 24016KT 6SM 09/M17 A2988 RMK T00901170 IEM_DS3505
ZBHH,2010-04-10 08:00,ZBHH 100800Z AUTO 25014KT 6SM 09/M16 A2983 RMK T00901160 IEM_DS3505
ZBHH,2010-04-10 09:00,ZBHH 100900Z AUTO 22010KT 7SM 10/M16 A2983 RMK SLP128 T00971157 57024 IEM_DS3505
ZBHH,2010-04-10 10:00,ZBHH 101000Z AUTO 24012KT 7SM 10/M16 A2983 RMK T01001160 IEM_DS3505
ZBHH,2010-04-10 11:00,ZBHH 101100Z AUTO 23004KT 7SM 09/M14 A2980 RMK T00901140 IEM_DS3505
ZBHH,2010-04-10 12:00,ZBHH 101200Z AUTO 25002KT 9SM 09/M14 A2985 RMK SLP130 T00921139 52005 IEM_DS3505
ZBHH,2010-04-10 13:00,ZBHH 101300Z AUTO 13004KT 7SM 07/M13 A2985 RMK T00701130 IEM_DS3505
ZBHH,2010-04-10 14:00,ZBHH 101400Z AUTO 02002KT 7SM 07/M13 A2985 RMK T00701130 IEM_DS3505
ZBHH,2010-04-10 15:00,ZBHH 101500Z AUTO 00000KT 9SM 08/M13 A2985 RMK SLP133 T00761128 52007 IEM_DS3505
ZBHH,2010-04-10 16:00,ZBHH 101600Z AUTO 04002KT 7SM 05/M12 A2985 RMK T00501120 IEM_DS3505
ZBHH,2010-04-10 17:00,ZBHH 101700Z AUTO 02006KT 7SM 05/M12 A2983 RMK T00501120 IEM_DS3505
ZBHH,2010-04-10 18:00,ZBHH 101800Z AUTO 25002KT 19SM 06/M12 A2983 RMK SLP112 T00611120 57013 IEM_DS3505
ZBHH,2010-04-10 19:00,ZBHH 101900Z AUTO 35010KT 7SM 06/M06 A2983 RMK T00601060 IEM_DS3505
ZBHH,2010-04-10 20:00,ZBHH 102000Z AUTO 34010KT 7SM 05/M05 A2983 RMK T00501050 IEM_DS3505
ZBHH,2010-04-10 21:00,ZBHH 102100Z AUTO 32010KT 19SM 05/M04 A2985 RMK SLP123 T00471041 52010 IEM_DS3505
ZBHH,2010-04-10 22:00,ZBHH 102200Z AUTO 35006KT 7SM 04/M04 A2988 RMK T00401040 IEM_DS3505
ZBHH,2010-04-10 23:00,ZBHH 102300Z AUTO 35014KT 7SM 03/M02 A2991 RMK T00301020 IEM_DS3505
ZBHH,2010-04-11 00:00,ZBHH 110000Z AUTO 09002KT 9SM 04/M05 A2988 RMK 60000 70000 SLP137 T00451050 52011 IEM_DS3505
ZBHH,2010-04-11 01:00,ZBHH 110100Z AUTO 13008KT 7SM 05/M02 A2988 RMK T00501020 IEM_DS3505
ZBHH,2010-04-11 02:00,ZBHH 110200Z AUTO 25006KT 7SM 07/M02 A2988 RMK T00701020 IEM_DS3505
ZBHH,2010-04-11 03:00,ZBHH 110300Z AUTO 25004KT 7SM 09/M04 A2985 RMK SLP122 T00861039 57008 IEM_DS3505
ZBHH,2010-04-11 04:00,ZBHH 110400Z AUTO 7SM 09/M06 A2983 RMK T00901060 IEM_DS3505
ZBHH,2010-04-11 05:00,ZBHH 110500Z AUTO 22008KT 7SM 11/M05 A2980 RMK T01101050 IEM_DS3505
ZBHH,2010-04-11 06:00,ZBHH 110600Z AUTO 20006KT 9SM 12/M07 A2977 RMK SLP087 T01161072 57028 IEM_DS3505
ZBHH,2010-04-11 07:00,ZBHH 110700Z AUTO 23014KT 7SM 12/M07 A2974 RMK T01201070 IEM_DS3505
ZBHH,2010-04-11 08:00,ZBHH 110800Z AUTO 25012G21KT 7SM 11/M07 A2974 RMK T01101070 IEM_DS3505
ZBHH,2010-04-11 09:00,ZBHH 110900Z AUTO 25006KT 9SM 10/M09 A2974 RMK SLP077 T01031089 57014 IEM_DS3505
ZBHH,2010-04-11 10:00,ZBHH 111000Z AUTO 35016KT 7SM 08/M06 A2977 RMK T00801060 IEM_DS3505
ZBHH,2010-04-11 11:00,ZBHH 111100Z AUTO 02014KT 7SM 06/M10 A2980 RMK T00601100 IEM_DS3505
ZBHH,2010-04-11 12:00,ZBHH 111200Z AUTO 34006KT 19SM 04/M07 A2983 RMK SLP124 T00391067 52028 IEM_DS3505
ZBHH,2010-04-11 13:00,ZBHH 111300Z AUTO 05008KT 7SM 04/M09 A2988 RMK T00401090 IEM_DS3505
ZBHH,2010-04-11 14:00,ZBHH 111400Z AUTO 03010KT 1SM M01/M02 A2991 RMK T10101020 IEM_DS3505
ZBHH,2010-04-11 15:00,ZBHH 111500Z AUTO 32008KT 12SM 00/M07 A2994 RMK SLP166 T00051066 52038 IEM_DS3505
ZBHH,2010-04-11 16:00,ZBHH 111600Z AUTO 01008KT 7SM M01/M05 A2994 RMK T10101050 IEM_DS3505
ZBHH,2010-04-11 17:00,ZBHH 111700Z AUTO 34012G23KT 7SM M01/M08 A2997 RMK T10101080 IEM_DS3505
ZBHH,2010-04-11 18:00,ZBHH 111800Z AUTO 29006G21KT 19SM M01/ A3000 RMK 60000 SLP188 52022 IEM_DS3505
ZBHH,2010-04-11 19:00,ZBHH 111900Z AUTO 34008KT 7SM M02/M16 A3000 RMK T10201160 IEM_DS3505
ZBHH,2010-04-11 20:00,ZBHH 112000Z AUTO 36014KT 7SM M04/M13 A3000 RMK T10401130 IEM_DS3505
ZBHH,2010-04-11 21:00,ZBHH 112100Z AUTO 32010KT 19SM M05/M14 A3006 RMK 70000 SLP217 T10541137 52014 IEM_DS3505
ZBHH,2010-04-11 22:00,ZBHH 112200Z AUTO 34016KT 7SM M06/M12 A3009 RMK T10601120 IEM_DS3505
ZBHH,2010-04-11 23:00,ZBHH 112300Z AUTO 32016KT 7SM M06/M12 A3012 RMK T10601120 IEM_DS3505
ZBHH,2010-04-12 00:00,ZBHH 120000Z AUTO 29008G27KT 19SM M06/M14 A3018 RMK 70000 T10621135 52041 IEM_DS3505
ZBHH,2010-04-12 01:00,ZBHH 120100Z AUTO 32021G31KT 7SM M06/M13 A3018 RMK T10601130 IEM_DS3505
ZBHH,2010-04-12 02:00,ZBHH 120200Z AUTO 32017KT 7SM M04/M11 A3021 RMK T10401110 IEM_DS3505
ZBHH,2010-04-12 03:00,ZBHH 120300Z AUTO 29014KT 9SM M04/M15 A3024 RMK T10381154 52016 IEM_DS3505
ZBHH,2010-04-12 04:00,ZBHH 120400Z AUTO 35017KT 4SM M03/M14 A3024 RMK T10301140 IEM_DS3505
ZBHH,2010-04-12 05:00,ZBHH 120500Z AUTO 35017G27KT 7SM M03/M12 A3021 RMK T10301120 IEM_DS3505
ZBHH,2010-04-12 06:00,ZBHH 120600Z AUTO 34010KT 12SM M01/M18 A3024 RMK 60000 SLP293 T10131179 57007 IEM_DS3505
ZBHH,2010-04-12 07:00,ZBHH 120700Z AUTO 02017G27KT 7SM M03/M10 A3024 RMK T10301100 IEM_DS3505
ZBHH,2010-04-12 08:00,ZBHH 120800Z AUTO 01016KT 7SM M02/M15 A3021 RMK T10201150 IEM_DS3505
ZBHH,2010-04-12 09:00,ZBHH 120900Z AUTO 02008KT 12SM M02/M19 A3021 RMK SLP307 T10171187 52003 IEM_DS3505
ZBHH,2010-04-12 10:00,ZBHH 121000Z AUTO 32014KT 7SM M02/M17 A3024 RMK T10201170 IEM_DS3505
ZBHH,2010-04-12 11:00,ZBHH 121100Z AUTO 33010KT 7SM M03/M16 A3024 RMK T10301160 IEM_DS3505
ZBHH,2010-04-12 12:00,ZBHH 121200Z AUTO 32006KT 19SM M03/M17 A3027 RMK SLP329 T10331169 52014 IEM_DS3505
ZBHH,2010-04-12 13:00,ZBHH 121300Z AUTO 35006KT 7SM M04/M12 A3030 RMK T10401120 IEM_DS3505
ZBHH,2010-04-12 14:00,ZBHH 121400Z AUTO 33010KT 7SM M04/M13 A3033 RMK T10401130 IEM_DS3505
ZBHH,2010-04-12 15:00,ZBHH 121500Z AUTO 29004KT 19SM M05/M14 A3033 RMK SLP343 T10491140 52014 IEM_DS3505
ZBHH,2010-04-12 16:00,ZBHH 121600Z AUTO 05002KT 6SM M06/M13 A3033 RMK T10601130 IEM_DS3505
ZBHH,2010-04-12 17:00,ZBHH 121700Z AUTO 34002KT 6SM M06/M17 A3033 RMK T10601170 IEM_DS3505
ZBHH,2010-04-12 18:00,ZBHH 121800Z AUTO 32006KT 19SM M06/M21 A3033 RMK SLP339 T10581214 54000 IEM_DS3505
ZBHH,2010-04-12 19:00,ZBHH 121900Z AUTO 34004KT 6SM M07/M18 A3033 RMK T10701180 IEM_DS3505
ZBHH,2010-04-12 20:00,ZBHH 122000Z AUTO 04004KT 6SM M09/M18 A3030 RMK T10901180 IEM_DS3505
ZBHH,2010-04-12 21:00,ZBHH 122100Z AUTO 32002KT 19SM M06/M22 A3030 RMK 70000 SLP335 T10611221 57005 IEM_DS3505
ZBHH,2010-04-12 22:00,ZBHH 122200Z AUTO 09004KT 6SM M09/M19 A3033 RMK T10901190 IEM_DS3505
ZBHH,2010-04-12 23:00,ZBHH 122300Z AUTO 09004KT 6SM M09/M16 A3033 RMK T10901160 IEM_DS3505
ZBHH,2010-04-13 00:00,ZBHH 130000Z AUTO 25002KT 12SM M05/M21 A3033 RMK 70000 SLP347 T10471209 52010 IEM_DS3505
ZBHH,2010-04-13 01:00,ZBHH 130100Z AUTO 19004KT 6SM M04/M17 A3033 RMK T10401170 IEM_DS3505
ZBHH,2010-04-13 02:00,ZBHH 130200Z AUTO 22006KT 6SM M02/M17 A3033 RMK T10201170 IEM_DS3505
ZBHH,2010-04-13 03:00,ZBHH 130300Z AUTO 32006KT 19SM 01/M25 A3033 RMK SLP332 T00071246 57005 IEM_DS3505
ZBHH,2010-04-13 04:00,ZBHH 130400Z AUTO 34010KT 6SM 02/M24 A3030 RMK T00201240 IEM_DS3505
ZBHH,2010-04-13 05:00,ZBHH 130500Z AUTO 30012KT 6SM 03/M24 A3027 RMK T00301240 IEM_DS3505
ZBHH,2010-04-13 06:00,ZBHH 130600Z AUTO 29006KT 19SM 04/M24 A3024 RMK SLP297 T00391239 57025 IEM_DS3505
ZBHH,2010-04-13 07:00,ZBHH 130700Z AUTO 31014KT 6SM 05/M23 A3021 RMK T00501230 IEM_DS3505
ZBHH,2010-04-13 08:00,ZBHH 130800Z AUTO 25012KT 6SM 05/M23 A3018 RMK T00501230 IEM_DS3505
ZBHH,2010-04-13 09:00,ZBHH 130900Z AUTO 22006KT 19SM 04/M21 A3018 RMK SLP284 T00371206 57013 IEM_DS3505
ZBHH,2010-04-13 10:00,ZBHH 131000Z AUTO 24014KT 6SM 03/M20 A3021 RMK T00301200 IEM_DS3505
ZBHH,2010-04-13 11:00,ZBHH 131100Z AUTO 24010KT 6SM 02/M19 A3021 RMK T00201190 IEM_DS3505
ZBHH,2010-04-13 12:00,ZBHH 131200Z AUTO 22006KT 19SM 02/M20 A3024 RMK SLP302 T00161202 52014 IEM_DS3505
ZBHH,2010-04-13 13:00,ZBHH 131300Z AUTO 22006KT 6SM M01/M15 A3027 RMK T10101150 IEM_DS3505
ZBHH,2010-04-13 14:00,ZBHH 131400Z AUTO 05004KT 6SM M01/M16 A3027 RMK T10101160 IEM_DS3505
ZBHH,2010-04-13 15:00,ZBHH 131500Z AUTO 36002KT 19SM 00/M23 A3027 RMK SLP301 T00021234 52008 IEM_DS3505
ZBHH,2010-04-13 16:00,ZBHH 131600Z AUTO 07004KT 6SM M02/M17 A3027 RMK T10201170 IEM_DS3505
ZBHH,2010-04-13 17:00,ZBHH 131700Z AUTO 05006KT 6SM M03/M18 A3027 RMK T10301180 IEM_DS3505
ZBHH,2010-04-13 18:00,ZBHH 131800Z AUTO 14002KT 19SM M03/M21 A3027 RMK SLP293 T10261209 57006 IEM_DS3505
ZBHH,2010-04-13 19:00,ZBHH 131900Z AUTO 06004KT 6SM M04/M18 A3024 RMK T10401180 IEM_DS3505
ZBHH,2010-04-13 20:00,ZBHH 132000Z AUTO 06004KT 6SM M04/M17 A3024 RMK T10401170 IEM_DS3505
ZBHH,2010-04-13 21:00,ZBHH 132100Z AUTO 11004KT 19SM M02/M22 A3024 RMK SLP287 T10181218 57004 IEM_DS3505
ZBHH,2010-04-13 22:00,ZBHH 132200Z AUTO 07004KT 6SM M05/M17 A3024 RMK T10501170 IEM_DS3505
ZBHH,2010-04-13 23:00,ZBHH 132300Z AUTO 04002KT 6SM M03/M17 A3027 RMK T10301170 IEM_DS3505
ZBHH,2010-04-14 00:00,ZBHH 140000Z AUTO 29002KT 12SM 01/M22 A3027 RMK SLP292 T00061224 52005 IEM_DS3505
ZBHH,2010-04-14 01:00,ZBHH 140100Z AUTO 03002KT 6SM 02/M21 A3024 RMK T00201210 IEM_DS3505
ZBHH,2010-04-14 02:00,ZBHH 140200Z AUTO 29004KT 7SM 03/M24 A3024 RMK T00301240 IEM_DS3505
ZBHH,2010-04-14 03:00,ZBHH 140300Z AUTO 11002KT 9SM 05/M23 A3021 RMK SLP273 T00501231 57010 IEM_DS3505
ZBHH,2010-04-14 04:00,ZBHH 140400Z AUTO 24004KT 7SM 06/M22 A3018 RMK T00601220 IEM_DS3505
ZBHH,2010-04-14 05:00,ZBHH 140500Z AUTO 7SM 06/M20 A3015 RMK T00601200 IEM_DS3505
ZBHH,2010-04-14 06:00,ZBHH 140600Z AUTO 18008G19KT 19SM 07/M18 A3012 RMK SLP243 T00661182 57029 IEM_DS3505
ZBHH,2010-04-14 07:00,ZBHH 140700Z AUTO 6SM 07/M17 A3009 RMK T00701170 IEM_DS3505
ZBHH,2010-04-14 08:00,ZBHH 140800Z AUTO 24010KT 7SM 07/M16 A3006 RMK T00701160 IEM_DS3505
ZBHH,2010-04-14 09:00,ZBHH 140900Z AUTO 18010KT 19SM 08/M19 A3006 RMK SLP216 T00761191 57020 IEM_DS3505
ZBHH,2010-04-14 10:00,ZBHH 141000Z AUTO 24010KT 7SM 07/M19 A3006 RMK T00701190 IEM_DS3505
ZBHH,2010-04-14 11:00,ZBHH 141100Z AUTO 22006KT 7SM 06/M17 A3006 RMK T00601170 IEM_DS3505
ZBHH,2010-04-14 12:00,ZBHH 141200Z AUTO 22002KT 16SM 06/M20 A3006 RMK SLP213 T00581197 57001 IEM_DS3505
ZBHH,2010-04-14 13:00,ZBHH 141300Z AUTO 12002KT 4SM 03/M17 A3006 RMK T00301170 IEM_DS3505
ZBHH,2010-04-14 14:00,ZBHH 141400Z AUTO 20002KT 5SM 02/M16 A3009 RMK T00201160 IEM_DS3505
ZBHH,2010-04-14 15:00,ZBHH 141500Z AUTO 22004KT 12SM 04/M05 A3009 RMK SLP222 T00411046 52013 IEM_DS3505
ZBHH,2010-04-14 16:00,ZBHH 141600Z AUTO 20010KT 7SM 03/M03 A3009 RMK T00301030 IEM_DS3505
ZBHH,2010-04-14 17:00,ZBHH 141700Z AUTO 19002KT 7SM 02/M03 A3006 RMK T00201030 IEM_DS3505
ZBHH,2010-04-14 18:00,ZBHH 141800Z AUTO 22004KT 9SM 03/M03 A3006 RMK SLP206 T00311026 57013 IEM_DS3505
ZBHH,2010-04-14 19:00,ZBHH 141900Z AUTO 20004KT 7SM 02/M02 A3003 RMK T00201020 IEM_DS3505
ZBHH,2010-04-14 20:00,ZBHH 142000Z AUTO 24004KT 7SM 01/M03 A3003 RMK T00101030 IEM_DS3505
ZBHH,2010-04-14 21:00,ZBHH 142100Z AUTO 18004KT 9SM 02/M02 A3003 RMK SLP197 T00191024 57008 IEM_DS3505
ZBHH,2010-04-14 22:00,ZBHH 142200Z AUTO 13002KT 7SM 01/M03 A3003 RMK T00101030 IEM_DS3505
ZBHH,2010-04-14 23:00,ZBHH 142300Z AUTO 16004KT 4SM 02/M02 A3003 RMK T00201020 IEM_DS3505
ZBHH,2010-04-15 00:00,ZBHH 150000Z AUTO 09002KT 6SM 03/M02 A3003 RMK SLP203 T00271024 52003 IEM_DS3505
ZBHH,2010-04-15 01:00,ZBHH 150100Z AUTO 19006KT 5SM 04/M02 A3003 RMK T00401020 IEM_DS3505
ZBHH,2010-04-15 02:00,ZBHH 150200Z AUTO 27004KT 4SM 04/M02 A3003 RMK T00401020 IEM_DS3505
ZBHH,2010-04-15 03:00,ZBHH 150300Z AUTO 20006KT 6SM 07/M05 A3003 RMK SLP189 T00721048 57006 IEM_DS3505
ZBHH,2010-04-15 04:00,ZBHH 150400Z AUTO 22010KT 7SM 09/M08 A3000 RMK T00901080 IEM_DS3505
ZBHH,2010-04-15 05:00,ZBHH 150500Z AUTO 22008KT 7SM 09/M07 A2997 RMK T00901070 IEM_DS3505
ZBHH,2010-04-15 06:00,ZBHH 150600Z AUTO 22006KT 6SM 10/M09 A2994 RMK SLP160 T00971089 57023 IEM_DS3505
ZBHH,2010-04-15 07:00,ZBHH 150700Z AUTO 24012G21KT 7SM 10/M08 A2991 RMK T01001080 IEM_DS3505
ZBHH,2010-04-15 08:00,ZBHH 150800Z AUTO 24014KT 7SM 11/M10 A2991 RMK T01101100 IEM_DS3505
ZBHH,2010-04-15 09:00,ZBHH 150900Z AUTO 22008KT 7SM 11/M11 A2991 RMK SLP144 T01091112 57014 IEM_DS3505
ZBHH,2010-04-15 10:00,ZBHH 151000Z AUTO 22010KT 7SM 11/M11 A2991 RMK T01101110 IEM_DS3505
ZBHH,2010-04-15 11:00,ZBHH 151100Z AUTO 31010KT 7SM 10/M16 A2991 RMK T01001160 IEM_DS3505
ZBHH,2010-04-15 12:00,ZBHH 151200Z AUTO 25002KT 12SM 10/M16 A2991 RMK SLP153 T01021161 52008 IEM_DS3505
ZBHH,2010-04-15 13:00,ZBHH 151300Z AUTO 20004KT 7SM 08/M14 A2994 RMK T00801140 IEM_DS3505
ZBHH,2010-04-15 14:00,ZBHH 151400Z AUTO 07004KT 7SM 05/M15 A2994 RMK T00501150 IEM_DS3505
ZBHH,2010-04-15 15:00,ZBHH 151500Z AUTO 00000KT 12SM 06/M15 A2994 RMK SLP158 T00651149 52006 IEM_DS3505
ZBHH,2010-04-15 16:00,ZBHH 151600Z AUTO 04008KT 6SM 03/M15 A2994 RMK T00301150 IEM_DS3505
ZBHH,2010-04-15 17:00,ZBHH 151700Z AUTO 08004KT 6SM 03/M15 A2997 RMK T00301150 IEM_DS3505
ZBHH,2010-04-15 18:00,ZBHH 151800Z AUTO 29002KT 9SM 07/M09 A2997 RMK SLP157 T00681091 52005 IEM_DS3505
ZBHH,2010-04-15 19:00,ZBHH 151900Z AUTO 05008KT 6SM 04/M12 A2994 RMK T00401120 IEM_DS3505
ZBHH,2010-04-15 20:00,ZBHH 152000Z AUTO 07010KT 6SM 04/M12 A2994 RMK T00401120 IEM_DS3505
ZBHH,2010-04-15 21:00,ZBHH 152100Z AUTO 07004KT 19SM 04/M10 A2997 RMK SLP163 T00351095 52001 IEM_DS3505
ZBHH,2010-04-15 22:00,ZBHH 152200Z AUTO 07008KT 6SM 01/M06 A2997 RMK T00101060 IEM_DS3505
ZBHH,2010-04-15 23:00,ZBHH 152300Z AUTO 05006KT 6SM 02/M06 A3000 RMK T00201060 IEM_DS3505
ZBHH,2010-04-16 00:00,ZBHH 160000Z AUTO 09004KT 19SM 06/M09 A3000 RMK SLP177 T00581092 52016 IEM_DS3505
ZBHH,2010-04-16 01:00,ZBHH 160100Z AUTO 16002KT 6SM 09/M08 A3003 RMK T00901080 IEM_DS3505
ZBHH,2010-04-16 02:00,ZBHH 160200Z AUTO 23006KT 6SM 09/M09 A3003 RMK T00901090 IEM_DS3505
ZBHH,2010-04-16 03:00,ZBHH 160300Z AUTO 34008KT 19SM 11/M12 A3003 RMK SLP177 T01101117 52003 IEM_DS3505
ZBHH,2010-04-16 04:00,ZBHH 160400Z AUTO 34010KT 7SM 12/M17 A3000 RMK T01201170 IEM_DS3505
ZBHH,2010-04-16 05:00,ZBHH 160500Z AUTO 36012G21KT 6SM 14/M19 A2997 RMK T01401190 IEM_DS3505
ZBHH,2010-04-16 06:00,ZBHH 160600Z AUTO 25006KT 19SM 14/M14 A2997 RMK SLP148 T01391141 57019 IEM_DS3505
ZBHH,2010-04-16 07:00,ZBHH 160700Z AUTO 30012KT 7SM 15/M17 A2994 RMK T01501170 IEM_DS3505
ZBHH,2010-04-16 08:00,ZBHH 160800Z AUTO 25010KT 7SM 14/M13 A2994 RMK T01401130 IEM_DS3505
ZBHH,2010-04-16 09:00,ZBHH 160900Z AUTO 18006KT 19SM 14/M13 A2994 RMK SLP145 T01421129 57009 IEM_DS3505
ZBHH,2010-04-16 10:00,ZBHH 161000Z AUTO 22010KT 6SM 14/M13 A2994 RMK T01401130 IEM_DS3505
ZBHH,2010-04-16 11:00,ZBHH 161100Z AUTO 21006KT 6SM 12/M12 A2994 RMK T01201120 IEM_DS3505
ZBHH,2010-04-16 12:00,ZBHH 161200Z AUTO 25004KT 19SM 13/M15 A2997 RMK SLP152 T01261151 52008 IEM_DS3505
ZBHH,2010-04-16 13:00,ZBHH 161300Z AUTO 12004KT 6SM 09/M13 A3000 RMK T00901130 IEM_DS3505
ZBHH,2010-04-16 14:00,ZBHH 161400Z AUTO 04006KT 6SM 05/M13 A3000 RMK T00501130 IEM_DS3505
ZBHH,2010-04-16 15:00,ZBHH 161500Z AUTO 07002KT 19SM 08/M12 A3000 RMK SLP164 T00801124 52011 IEM_DS3505
ZBHH,2010-04-16 16:00,ZBHH 161600Z AUTO 06006KT 6SM 03/M13 A3000 RMK T00301130 IEM_DS3505
ZBHH,2010-04-16 17:00,ZBHH 161700Z AUTO 05006KT 6SM 03/M13 A3000 RMK T00301130 IEM_DS3505
ZBHH,2010-04-16 18:00,ZBHH 161800Z AUTO 27002KT 19SM 04/M12 A3000 RMK SLP167 T00351120 54000 IEM_DS3505
ZBHH,2010-04-16 19:00,ZBHH 161900Z AUTO 08006KT 6SM 02/M13 A2997 RMK T00201130 IEM_DS3505
ZBHH,2010-04-16 20:00,ZBHH 162000Z AUTO 05006KT 6SM 02/M13 A2997 RMK T00201130 IEM_DS3505
ZBHH,2010-04-16 21:00,ZBHH 162100Z AUTO 04002KT 19SM 04/M12 A2997 RMK SLP156 T00351124 57009 IEM_DS3505
ZBHH,2010-04-16 22:00,ZBHH 162200Z AUTO 06006KT 7SM 02/M13 A2997 RMK T00201130 IEM_DS3505
ZBHH,2010-04-16 23:00,ZBHH 162300Z AUTO 07004KT 7SM 05/M12 A2997 RMK T00501120 IEM_DS3505
ZBHH,2010-04-17 00:00,ZBHH 170000Z AUTO 04002KT 19SM 09/M12 A2997 RMK SLP149 T00871118 52001 IEM_DS3505
ZBHH,2010-04-17 01:00,ZBHH 170100Z AUTO 15004KT 6SM 12/M15 A2997 RMK T01201150 IEM_DS3505
ZBHH,2010-04-17 02:00,ZBHH 170200Z AUTO 22004KT 6SM 13/M12 A2994 RMK T01301120 IEM_DS3505
ZBHH,2010-04-17 03:00,ZBHH 170300Z AUTO 20006KT 12SM 15/M12 A2991 RMK SLP130 T01531120 57013 IEM_DS3505
ZBHH,2010-04-17 04:00,ZBHH 170400Z AUTO 23012KT 7SM 17/M08 A2988 RMK T01701080 IEM_DS3505
ZBHH,2010-04-17 05:00,ZBHH 170500Z AUTO 24014KT 7SM 18/M07 A2985 RMK T01801070 IEM_DS3505
ZBHH,2010-04-17 06:00,ZBHH 170600Z AUTO 20008KT 12SM 17/M07 A2985 RMK SLP108 T01691069 57025 IEM_DS3505
ZBHH,2010-04-17 07:00,ZBHH 170700Z AUTO 24014KT 7SM 18/M05 A2983 RMK T01801050 IEM_DS3505
ZBHH,2010-04-17 08:00,ZBHH 170800Z AUTO 24014KT 7SM 18/M04 A2980 RMK T01801040 IEM_DS3505
ZBHH,2010-04-17 09:00,ZBHH 170900Z AUTO 22012KT 6SM 17/M00 A2983 RMK SLP100 T01671001 57008 IEM_DS3505
ZBHH,2010-04-17 10:00,ZBHH 171000Z AUTO 22014KT 5SM 16/03 A2983 RMK T01600030 IEM_DS3505
ZBHH,2010-04-17 11:00,ZBHH 171100Z AUTO 27014KT 4SM 14/05 A2985 RMK T01400050 IEM_DS3505
ZBHH,2010-04-17 12:00,ZBHH 171200Z AUTO 00000KT 9SM 11/06 A2988 RMK 60012 SLP118 T01120055 52016 IEM_DS3505
ZBHH,2010-04-17 13:00,ZBHH 171300Z AUTO 19006KT 7SM 09/05 A2991 RMK T00900050 IEM_DS3505
ZBHH,2010-04-17 14:00,ZBHH 171400Z AUTO 07004KT 7SM 08/05 A2991 RMK T00800050 IEM_DS3505
ZBHH,2010-04-17 15:00,ZBHH 171500Z AUTO 00000KT 12SM 10/04 A2991 RMK SLP124 T00950043 52015 IEM_DS3505
ZBHH,2010-04-17 16:00,ZBHH 171600Z AUTO 07004KT 6SM 06/04 A2991 RMK T00600040 IEM_DS3505
ZBHH,2010-04-17 17:00,ZBHH 171700Z AUTO 04002KT 6SM 05/04 A2991 RMK T00500040 IEM_DS3505
ZBHH,2010-04-17 18:00,ZBHH 171800Z AUTO 00000KT 2SM 07/04 A2991 RMK SLP126 T00680045 57001 IEM_DS3505
ZBHH,2010-04-17 19:00,ZBHH 171900Z AUTO 06006KT 6SM 04/02 A2991 RMK T00400020 IEM_DS3505
ZBHH,2010-04-17 20:00,ZBHH 172000Z AUTO 05006KT 6SM 03/02 A2991 RMK T00300020 IEM_DS3505
ZBHH,2010-04-17 21:00,ZBHH 172100Z AUTO 00000KT 19SM 06/03 A2991 RMK 70012 SLP127 T00590031 57001 IEM_DS3505
ZBHH,2010-04-17 22:00,ZBHH 172200Z AUTO 08004KT 7SM 03/02 A2991 RMK T00300020 IEM_DS3505
ZBHH,2010-04-17 23:00,ZBHH 172300Z AUTO 07006KT 4SM 06/04 A2991 RMK T00600040 IEM_DS3505
ZBHH,2010-04-18 00:00,ZBHH 180000Z AUTO 00000KT 19SM 09/03 A2991 RMK 70012 SLP135 T00920030 52003 IEM_DS3505
ZBHH,2010-04-18 01:00,ZBHH 180100Z AUTO 15002KT 3SM 12/03 A2991 RMK T01200030 IEM_DS3505
ZBHH,2010-04-18 02:00,ZBHH 180200Z AUTO 20004KT 3SM 13/00 A2991 RMK T01300000 IEM_DS3505
ZBHH,2010-04-18 03:00,ZBHH 180300Z AUTO 22004KT 7SM 14/02 A2991 RMK SLP125 T01400020 57003 IEM_DS3505
ZBHH,2010-04-18 04:00,ZBHH 180400Z AUTO 24008KT 3SM 15/04 A2988 RMK T01500040 IEM_DS3505
ZBHH,2010-04-18 05:00,ZBHH 180500Z AUTO 26012KT 3SM 17/02 A2985 RMK T01700020 IEM_DS3505
ZBHH,2010-04-18 06:00,ZBHH 180600Z AUTO 25010KT 7SM 18/M02 A2985 RMK SLP097 T01791024 57022 IEM_DS3505
ZBHH,2010-04-18 07:00,ZBHH 180700Z AUTO 23016KT 5SM 20/M04 A2983 RMK T02001040 IEM_DS3505
ZBHH,2010-04-18 08:00,ZBHH 180800Z AUTO 24016KT 7SM 19/M06 A2980 RMK T01901060 IEM_DS3505
ZBHH,2010-04-18 09:00,ZBHH 180900Z AUTO 25008KT 7SM 19/M08 A2980 RMK SLP086 T01891083 57010 IEM_DS3505
ZBHH,2010-04-18 10:00,ZBHH 181000Z AUTO 22010KT 7SM 19/M08 A2983 RMK T01901080 IEM_DS3505
ZBHH,2010-04-18 11:00,ZBHH 181100Z AUTO 27008KT 7SM 18/M10 A2983 RMK T01801100 IEM_DS3505
ZBHH,2010-04-18 12:00,ZBHH 181200Z AUTO 02002KT 12SM 16/M07 A2985 RMK SLP101 T01641073 52015 IEM_DS3505
ZBHH,2010-04-18 13:00,ZBHH 181300Z AUTO 33006KT 7SM 14/M06 A2988 RMK T01401060 IEM_DS3505
ZBHH,2010-04-18 14:00,ZBHH 181400Z AUTO 27002KT 7SM 13/M05 A2991 RMK T01301050 IEM_DS3505
ZBHH,2010-04-18 15:00,ZBHH 181500Z AUTO 22004KT 12SM 13/M04 A2994 RMK SLP123 T01311036 52022 IEM_DS3505
ZBHH,2010-04-18 16:00,ZBHH 181600Z AUTO 20010KT 7SM 11/02 A2994 RMK T01100020 IEM_DS3505
ZBHH,2010-04-18 17:00,ZBHH 181700Z AUTO 16008KT 7SM 10/03 A2994 RMK T01000030 IEM_DS3505
ZBHH,2010-04-18 18:00,ZBHH 181800Z AUTO 09004KT 12SM 10/03 A2994 RMK SLP124 T01000026 52003 IEM_DS3505
ZBHH,2010-04-18 19:00,ZBHH 181900Z AUTO 11008KT 7SM 10/M01 A2994 RMK T01001010 IEM_DS3505
ZBHH,2010-04-18 20:00,ZBHH 182000Z AUTO 09010KT 7SM 09/M02 A2994 RMK T00901020 IEM_DS3505
ZBHH,2010-04-18 21:00,ZBHH 182100Z AUTO 09006KT 12SM 08/M03 A2994 RMK SLP130 T00851034 52004 IEM_DS3505
ZBHH,2010-04-18 22:00,ZBHH 182200Z AUTO 07008KT 7SM 06/M02 A2997 RMK T00601020 IEM_DS3505
ZBHH,2010-04-18 23:00,ZBHH 182300Z AUTO 09010KT 6SM 08/M02 A2997 RMK T00801020 IEM_DS3505
ZBHH,2010-04-19 00:00,ZBHH 190000Z AUTO 04004KT 12SM 10/M02 A2997 RMK SLP144 T01051025 52011 IEM_DS3505
ZBHH,2010-04-19 01:00,ZBHH 190100Z AUTO 06008KT 6SM 12/M02 A2997 RMK T01201020 IEM_DS3505
ZBHH,2010-04-19 02:00,ZBHH 190200Z AUTO 10012KT 6SM 14/M03 A2994 RMK T01401030 IEM_DS3505
ZBHH,2010-04-19 03:00,ZBHH 190300Z AUTO 16004KT 16SM 15/M03 A2994 RMK SLP132 T01501029 57008 IEM_DS3505
ZBHH,2010-04-19 04:00,ZBHH 190400Z AUTO 20008KT 7SM 16/M02 A2994 RMK T01601020 IEM_DS3505
ZBHH,2010-04-19 05:00,ZBHH 190500Z AUTO 26006KT 7SM 17/M01 A2988 RMK T01701010 IEM_DS3505
ZBHH,2010-04-19 06:00,ZBHH 190600Z AUTO 25004KT 16SM 18/M02 A2988 RMK SLP109 T01781025 57021 IEM_DS3505
ZBHH,2010-04-19 07:00,ZBHH 190700Z AUTO 20008KT 7SM 18/M02 A2988 RMK T01801020 IEM_DS3505
ZBHH,2010-04-19 08:00,ZBHH 190800Z AUTO 26010KT 7SM 18/M01 A2985 RMK T01801010 IEM_DS3505
ZBHH,2010-04-19 09:00,ZBHH 190900Z AUTO 25004KT 16SM 18/M02 A2985 RMK SLP100 T01771020 57011 IEM_DS3505
ZBHH,2010-04-19 10:00,ZBHH 191000Z AUTO 25012KT 7SM 17/M01 A2985 RMK T01701010 IEM_DS3505
ZBHH,2010-04-19 11:00,ZBHH 191100Z AUTO 24012KT 7SM 16/00 A2985 RMK T01600000 IEM_DS3505
ZBHH,2010-04-19 12:00,ZBHH 191200Z AUTO 25002KT 9SM 16/M02 A2988 RMK SLP108 T01571018 52007 IEM_DS3505
ZBHH,2010-04-19 13:00,ZBHH 191300Z AUTO 24008KT 7SM 15/M02 A2991 RMK T01501020 IEM_DS3505
ZBHH,2010-04-19 14:00,ZBHH 191400Z AUTO 06002KT 7SM 12/M02 A2991 RMK T01201020 IEM_DS3505
ZBHH,2010-04-19 15:00,ZBHH 191500Z AUTO 32004KT 19SM 15/M06 A2991 RMK SLP117 T01471062 52015 IEM_DS3505
ZBHH,2010-04-19 16:00,ZBHH 191600Z AUTO 29004KT 7SM 11/M03 A2994 RMK T01101030 IEM_DS3505
ZBHH,2010-04-19 17:00,ZBHH 191700Z AUTO 09002KT 7SM 10/M03 A2994 RMK T01001030 IEM_DS3505
ZBHH,2010-04-19 18:00,ZBHH 191800Z AUTO 29002KT 19SM 11/M04 A2994 RMK SLP122 T01131044 52003 IEM_DS3505
ZBHH,2010-04-19 19:00,ZBHH 191900Z AUTO 09004KT 7SM 07/M03 A2994 RMK T00701030 IEM_DS3505
ZBHH,2010-04-19 20:00,ZBHH 192000Z AUTO 08004KT 7SM 06/M02 A2994 RMK T00601020 IEM_DS3505
ZBHH,2010-04-19 21:00,ZBHH 192100Z AUTO 07002KT 19SM 09/M02 A2994 RMK SLP127 T00941025 52001 IEM_DS3505
ZBHH,2010-04-19 22:00,ZBHH 192200Z AUTO 01004KT 7SM 06/M04 A2997 RMK T00601040 IEM_DS3505
ZBHH,2010-04-19 23:00,ZBHH 192300Z AUTO 01010KT 7SM 11/M05 A2997 RMK T01101050 IEM_DS3505
ZBHH,2010-04-20 00:00,ZBHH 200000Z AUTO 04002KT 12SM 13/M08 A3000 RMK SLP145 T01261080 52018 IEM_DS3505
ZBHH,2010-04-20 01:00,ZBHH 200100Z AUTO 35006G16KT 6SM 14/M08 A3000 RMK T01401080 IEM_DS3505
ZBHH,2010-04-20 02:00,ZBHH 200200Z AUTO 06002KT 7SM 16/M09 A3000 RMK T01601090 IEM_DS3505
ZBHH,2010-04-20 03:00,ZBHH 200300Z AUTO 07004KT 12SM 17/M10 A3000 RMK SLP135 T01731104 57002 IEM_DS3505
ZBHH,2010-04-20 04:00,ZBHH 200400Z AUTO 36004KT 7SM 17/M09 A2997 RMK T01701090 IEM_DS3505
ZBHH,2010-04-20 05:00,ZBHH 200500Z AUTO 34004KT 7SM 18/M10 A2994 RMK T01801100 IEM_DS3505
ZBHH,2010-04-20 06:00,ZBHH 200600Z AUTO 09002KT 9SM 19/M11 A2994 RMK SLP118 T01871113 57019 IEM_DS3505
ZBHH,2010-04-20 07:00,ZBHH 200700Z AUTO 22002KT 7SM 19/M10 A2991 RMK T01901100 IEM_DS3505
ZBHH,2010-04-20 08:00,ZBHH 200800Z AUTO 21002KT 7SM 19/M10 A2991 RMK T01901100 IEM_DS3505
ZBHH,2010-04-20 09:00,ZBHH 200900Z AUTO 34002KT 7SM 18/M10 A2991 RMK SLP117 T01811098 57005 IEM_DS3505
ZBHH,2010-04-20 10:00,ZBHH 201000Z AUTO 09014KT 7SM 17/M07 A2991 RMK T01701070 IEM_DS3505
ZBHH,2010-04-20 11:00,ZBHH 201100Z AUTO 08016KT 7SM 16/M07 A2994 RMK T01601070 IEM_DS3505
ZBHH,2010-04-20 12:00,ZBHH 201200Z AUTO 09008KT 9SM 15/M07 A2997 RMK SLP137 T01541068 52018 IEM_DS3505
ZBHH,2010-04-20 13:00,ZBHH 201300Z AUTO 08016KT 7SM 14/M06 A3000 RMK T01401060 IEM_DS3505
ZBHH,2010-04-20 14:00,ZBHH 201400Z AUTO 13008KT 7SM 13/M04 A3003 RMK T01301040 IEM_DS3505
ZBHH,2010-04-20 15:00,ZBHH 201500Z AUTO 11008KT 9SM 13/M02 A3006 RMK SLP162 T01261017 52026 IEM_DS3505
ZBHH,2010-04-20 16:00,ZBHH 201600Z AUTO 07016KT 7SM 07/04 A3009 RMK T00700040 IEM_DS3505
ZBHH,2010-04-20 17:00,ZBHH 201700Z AUTO 07014KT 7SM 07/04 A3006 RMK T00700040 IEM_DS3505
ZBHH,2010-04-20 18:00,ZBHH 201800Z AUTO 07004KT 6SM 07/04 A3006 RMK 60001 SLP169 T00700041 57002 IEM_DS3505
ZBHH,2010-04-20 19:00,ZBHH 201900Z AUTO 08016KT 4SM 06/04 A3003 RMK T00600040 IEM_DS3505
ZBHH,2010-04-20 20:00,ZBHH 202000Z AUTO 08014KT 4SM 06/04 A3003 RMK T00600040 IEM_DS3505
ZBHH,2010-04-20 21:00,ZBHH 202100Z AUTO 07004KT 6SM 06/04 A3003 RMK 70012 SLP165 T00570035 57007 IEM_DS3505
ZBHH,2010-04-20 22:00,ZBHH 202200Z AUTO 07016KT 5SM 05/03 A3003 RMK T00500030 IEM_DS3505
ZBHH,2010-04-20 23:00,ZBHH 202300Z AUTO 08014KT 5SM 05/03 A3003 RMK T00500030 IEM_DS3505
ZBHH,2010-04-21 00:00,ZBHH 210000Z AUTO 07006KT 6SM 06/03 A3003 RMK 60016 70017 SLP174 T00550028 52002 IEM_DS3505
ZBHH,2010-04-21 01:00,ZBHH 210100Z AUTO 07014KT 7SM 04/02 A3003 RMK T00400020 IEM_DS3505
ZBHH,2010-04-21 02:00,ZBHH 210200Z AUTO 06010KT 7SM 05/03 A3006 RMK T00500030 IEM_DS3505
ZBHH,2010-04-21 03:00,ZBHH 210300Z AUTO 04004KT 9SM 06/03 A3006 RMK SLP184 T00600033 52004 IEM_DS3505
ZBHH,2010-04-21 04:00,ZBHH 210400Z AUTO 08010KT 7SM 05/04 A3003 RMK T00500040 IEM_DS3505
ZBHH,2010-04-21 05:00,ZBHH 210500Z AUTO 10008KT 7SM 05/03 A3003 RMK T00500030 IEM_DS3505
ZBHH,2010-04-21 06:00,ZBHH 210600Z AUTO 11006KT 12SM 07/03 A3003 RMK 60012 SLP185 T00660027 57009 IEM_DS3505
ZBHH,2010-04-21 07:00,ZBHH 210700Z AUTO 11008KT 7SM 06/03 A3003 RMK T00600030 IEM_DS3505
ZBHH,2010-04-21 08:00,ZBHH 210800Z AUTO 09004KT 7SM 06/03 A3000 RMK T00600030 IEM_DS3505
ZBHH,2010-04-21 09:00,ZBHH 210900Z AUTO 32006KT 9SM 07/M01 A3000 RMK SLP185 T00731009 57001 IEM_DS3505
ZBHH,2010-04-21 10:00,ZBHH 211000Z AUTO 32012KT 7SM 07/02 A3003 RMK T00700020 IEM_DS3505
ZBHH,2010-04-21 11:00,ZBHH 211100Z AUTO 33012KT 7SM 06/M01 A3006 RMK T00601010 IEM_DS3505
ZBHH,2010-04-21 12:00,ZBHH 211200Z AUTO 32010KT 12SM 05/M03 A3009 RMK 60000 SLP217 T00521033 52023 IEM_DS3505
ZBHH,2010-04-21 13:00,ZBHH 211300Z AUTO 30008KT 7SM 05/M02 A3012 RMK T00501020 IEM_DS3505
ZBHH,2010-04-21 14:00,ZBHH 211400Z AUTO 29002KT 7SM 04/M02 A3012 RMK T00401020 IEM_DS3505
ZBHH,2010-04-21 15:00,ZBHH 211500Z AUTO 27006KT 12SM 04/M04 A3012 RMK SLP227 T00421040 52008 IEM_DS3505
ZBHH,2010-04-21 16:00,ZBHH 211600Z AUTO 29004KT 6SM 04/M02 A3012 RMK T00401020 IEM_DS3505
ZBHH,2010-04-21 17:00,ZBHH 211700Z AUTO 01012KT 6SM 03/M02 A3012 RMK T00301020 IEM_DS3505
ZBHH,2010-04-21 18:00,ZBHH 211800Z AUTO 27004KT 19SM 04/M04 A3009 RMK SLP226 T00351040 57001 IEM_DS3505
ZBHH,2010-04-21 19:00,ZBHH 211900Z AUTO 27006KT 6SM 02/M02 A3009 RMK T00201020 IEM_DS3505
ZBHH,2010-04-21 20:00,ZBHH 212000Z AUTO 33006KT 6SM 03/M02 A3009 RMK T00301020 IEM_DS3505
ZBHH,2010-04-21 21:00,ZBHH 212100Z AUTO 29004KT 19SM 04/M04 A3009 RMK 70015 SLP219 T00351044 57005 IEM_DS3505
ZBHH,2010-04-21 22:00,ZBHH 212200Z AUTO 34006KT 7SM 03/M02 A3009 RMK T00301020 IEM_DS3505
ZBHH,2010-04-21 23:00,ZBHH 212300Z AUTO 32008KT 7SM 03/M01 A3009 RMK T00301010 IEM_DS3505
ZBHH,2010-04-22 00:00,ZBHH 220000Z AUTO 32002KT 19SM 04/M03 A3012 RMK 70010 SLP237 T00361034 52012 IEM_DS3505
ZBHH,2010-04-22 01:00,ZBHH 220100Z AUTO 04014KT 7SM 04/M02 A3015 RMK T00401020 IEM_DS3505
ZBHH,2010-04-22 02:00,ZBHH 220200Z AUTO 04008KT 7SM 04/M03 A3015 RMK T00401030 IEM_DS3505
ZBHH,2010-04-22 03:00,ZBHH 220300Z AUTO 07008KT 12SM 06/M06 A3018 RMK SLP251 T00651055 52016 IEM_DS3505
ZBHH,2010-04-22 04:00,ZBHH 220400Z AUTO 07012KT 7SM 07/M07 A3018 RMK T00701070 IEM_DS3505
ZBHH,2010-04-22 05:00,ZBHH 220500Z AUTO 06014KT 7SM 09/M09 A3018 RMK T00901090 IEM_DS3505
ZBHH,2010-04-22 06:00,ZBHH 220600Z AUTO 04008KT 19SM 09/M13 A3018 RMK 60000 SLP247 T00881129 54000 IEM_DS3505
ZBHH,2010-04-22 07:00,ZBHH 220700Z AUTO 05014KT 7SM 08/M12 A3018 RMK T00801120 IEM_DS3505
ZBHH,2010-04-22 08:00,ZBHH 220800Z AUTO 06012KT 6SM 09/M12 A3018 RMK T00901120 IEM_DS3505
ZBHH,2010-04-22 09:00,ZBHH 220900Z AUTO 04010KT 19SM 10/M16 A3021 RMK SLP246 T00951159 54000 IEM_DS3505
ZBHH,2010-04-22 10:00,ZBHH 221000Z AUTO 04012KT 6SM 08/M13 A3021 RMK T00801130 IEM_DS3505
ZBHH,2010-04-22 11:00,ZBHH 221100Z AUTO 05012KT 6SM 07/M14 A3021 RMK T00701140 IEM_DS3505
ZBHH,2010-04-22 12:00,ZBHH 221200Z AUTO 09006KT 19SM 07/M14 A3024 RMK SLP264 T00691139 52011 IEM_DS3505
ZBHH,2010-04-22 13:00,ZBHH 221300Z AUTO 34006KT 6SM 05/M10 A3024 RMK T00501100 IEM_DS3505
ZBHH,2010-04-22 14:00,ZBHH 221400Z AUTO 08004KT 6SM 01/M05 A3024 RMK T00101050 IEM_DS3505
ZBHH,2010-04-22 15:00,ZBHH 221500Z AUTO 29002KT 19SM 03/M11 A3024 RMK SLP273 T00301106 52006 IEM_DS3505
ZBHH,2010-04-22 16:00,ZBHH 221600Z AUTO 07006KT 6SM 00/M06 A3024 RMK T00001060 IEM_DS3505
ZBHH,2010-04-22 17:00,ZBHH 221700Z AUTO 14002KT 6SM 00/M07 A3024 RMK T00001070 IEM_DS3505
ZBHH,2010-04-22 18:00,ZBHH 221800Z AUTO 07002KT 19SM 02/M09 A3021 RMK SLP261 T00151086 57009 IEM_DS3505
ZBHH,2010-04-22 20:00,ZBHH 222000Z AUTO 08004KT 6SM M02/M06 A3018 RMK T10201060 IEM_DS3505
ZBHH,2010-04-22 21:00,ZBHH 222100Z AUTO 34002KT 19SM M01/M08 A3018 RMK 70000 SLP257 T10121078 57008 IEM_DS3505
ZBHH,2010-04-22 22:00,ZBHH 222200Z AUTO 06002KT 6SM M02/M07 A3021 RMK T10201070 IEM_DS3505
ZBHH,2010-04-22 23:00,ZBHH 222300Z AUTO 09004KT 6SM 00/M05 A3021 RMK T00001050 IEM_DS3505
ZBHH,2010-04-23 00:00,ZBHH 230000Z AUTO 02002KT 19SM 04/M10 A3021 RMK 70000 SLP263 T00401101 52011 IEM_DS3505
ZBHH,2010-04-23 01:00,ZBHH 230100Z AUTO 15004KT 6SM 05/M08 A3021 RMK T00501080 IEM_DS3505
ZBHH,2010-04-23 02:00,ZBHH 230200Z AUTO 21004KT 6SM 06/M07 A3021 RMK T00601070 IEM_DS3505
ZBHH,2010-04-23 03:00,ZBHH 230300Z AUTO 20004KT 12SM 08/M10 A3021 RMK SLP250 T00831096 57011 IEM_DS3505
ZBHH,2010-04-23 04:00,ZBHH 230400Z AUTO 25010G19KT 6SM 10/M10 A3018 RMK T01001100 IEM_DS3505
ZBHH,2010-04-23 05:00,ZBHH 230500Z AUTO 24014KT 7SM 11/M08 A3015 RMK T01101080 IEM_DS3505
ZBHH,2010-04-23 06:00,ZBHH 230600Z AUTO 20006KT 12SM 11/M07 A3009 RMK SLP215 T01141069 57027 IEM_DS3505
ZBHH,2010-04-23 07:00,ZBHH 230700Z AUTO 23012KT 7SM 12/M07 A3009 RMK T01201070 IEM_DS3505
ZBHH,2010-04-23 08:00,ZBHH 230800Z AUTO 21012KT 7SM 12/M06 A3006 RMK T01201060 IEM_DS3505
ZBHH,2010-04-23 09:00,ZBHH 230900Z AUTO 22008KT 12SM 12/M06 A3003 RMK SLP194 T01251065 57022 IEM_DS3505
ZBHH,2010-04-23 10:00,ZBHH 231000Z AUTO 24008KT 6SM 12/M05 A3003 RMK T01201050 IEM_DS3505
ZBHH,2010-04-23 11:00,ZBHH 231100Z AUTO 21002KT 6SM 11/M05 A3003 RMK T01101050 IEM_DS3505
ZBHH,2010-04-23 12:00,ZBHH 231200Z AUTO 22002KT 12SM 11/M05 A3003 RMK SLP184 T01121053 57001 IEM_DS3505
ZBHH,2010-04-23 13:00,ZBHH 231300Z AUTO 18004KT 6SM 08/M03 A3006 RMK T00801030 IEM_DS3505
ZBHH,2010-04-23 14:00,ZBHH 231400Z AUTO 04004KT 6SM 06/M02 A3006 RMK T00601020 IEM_DS3505
ZBHH,2010-04-23 15:00,ZBHH 231500Z AUTO 07002KT 11SM 07/M04 A3006 RMK SLP194 T00691042 52009 IEM_DS3505
ZBHH,2010-04-23 16:00,ZBHH 231600Z AUTO 08004KT 6SM 04/M03 A3006 RMK T00401030 IEM_DS3505
ZBHH,2010-04-23 17:00,ZBHH 231700Z AUTO 08004KT 6SM 02/M03 A3003 RMK T00201030 IEM_DS3505
ZBHH,2010-04-23 18:00,ZBHH 231800Z AUTO 04002KT 12SM 04/M03 A3003 RMK SLP182 T00421031 57010 IEM_DS3505
ZBHH,2010-04-23 19:00,ZBHH 231900Z AUTO 09004KT 6SM 02/M03 A3003 RMK T00201030 IEM_DS3505
ZBHH,2010-04-23 20:00,ZBHH 232000Z AUTO 06004KT 6SM 01/M03 A3003 RMK T00101030 IEM_DS3505
ZBHH,2010-04-23 21:00,ZBHH 232100Z AUTO 09002KT 12SM 02/M04 A3003 RMK SLP183 T00241035 54000 IEM_DS3505
ZBHH,2010-04-23 22:00,ZBHH 232200Z AUTO 06002KT 6SM 01/M03 A3003 RMK T00101030 IEM_DS3505
ZBHH,2010-04-23 23:00,ZBHH 232300Z AUTO 08002KT 6SM 04/M01 A3003 RMK T00401010 IEM_DS3505
ZBHH,2010-04-24 00:00,ZBHH 240000Z AUTO 09002KT 9SM 09/M02 A3003 RMK SLP175 T00901023 52003 IEM_DS3505
ZBHH,2010-04-24 01:00,ZBHH 240100Z AUTO 15002KT 6SM 11/M03 A3003 RMK T01101030 IEM_DS3505
ZBHH,2010-04-24 02:00,ZBHH 240200Z AUTO 21002KT 6SM 12/M02 A3003 RMK T01201020 IEM_DS3505
ZBHH,2010-04-24 03:00,ZBHH 240300Z AUTO 20004KT 9SM 14/M04 A3000 RMK SLP162 T01381035 57010 IEM_DS3505
ZBHH,2010-04-24 04:00,ZBHH 240400Z AUTO 23006KT 6SM 16/M01 A2997 RMK T01601010 IEM_DS3505
ZBHH,2010-04-24 05:00,ZBHH 240500Z AUTO 23006KT 6SM 17/M02 A2994 RMK T01701020 IEM_DS3505
ZBHH,2010-04-24 06:00,ZBHH 240600Z AUTO 22006KT 9SM 18/M05 A2988 RMK SLP122 T01801046 57032 IEM_DS3505
ZBHH,2010-04-24 07:00,ZBHH 240700Z AUTO 25012G23KT 6SM 20/M07 A2985 RMK T02001070 IEM_DS3505
ZBHH,2010-04-24 08:00,ZBHH 240800Z AUTO 24012KT 6SM 20/M07 A2983 RMK T02001070 IEM_DS3505
ZBHH,2010-04-24 09:00,ZBHH 240900Z AUTO 22010KT 12SM 20/M08 A2983 RMK SLP091 T02031081 57027 IEM_DS3505
ZBHH,2010-04-24 10:00,ZBHH 241000Z AUTO 22008KT 6SM 20/M07 A2980 RMK T02001070 IEM_DS3505
ZBHH,2010-04-24 11:00,ZBHH 241100Z AUTO 20006KT 6SM 18/M04 A2980 RMK T01801040 IEM_DS3505
ZBHH,2010-04-24 12:00,ZBHH 241200Z AUTO 18004KT 19SM 17/M06 A2980 RMK SLP080 T01741058 57002 IEM_DS3505
ZBHH,2010-04-24 13:00,ZBHH 241300Z AUTO 00000KT 6SM 14/M03 A2983 RMK T01401030 IEM_DS3505
ZBHH,2010-04-24 14:00,ZBHH 241400Z AUTO 35004KT 7SM 14/M04 A2983 RMK T01401040 IEM_DS3505
ZBHH,2010-04-24 15:00,ZBHH 241500Z AUTO 34002KT 12SM 14/M03 A2983 RMK SLP087 T01371031 52008 IEM_DS3505
ZBHH,2010-04-24 16:00,ZBHH 241600Z AUTO 04002KT 7SM 11/M02 A2983 RMK T01101020 IEM_DS3505
ZBHH,2010-04-24 17:00,ZBHH 241700Z AUTO 10006KT 7SM 10/M02 A2983 RMK T01001020 IEM_DS3505
ZBHH,2010-04-24 18:00,ZBHH 241800Z AUTO 09002KT 19SM 12/M03 A2980 RMK SLP075 T01191027 57006 IEM_DS3505
ZBHH,2010-04-24 19:00,ZBHH 241900Z AUTO 23006KT 7SM 11/05 A2983 RMK T01100050 IEM_DS3505
ZBHH,2010-04-24 20:00,ZBHH 242000Z AUTO 26012KT 7SM 11/06 A2983 RMK T01100060 IEM_DS3505
ZBHH,2010-04-24 21:00,ZBHH 242100Z AUTO 15002KT 4SM 09/08 A2983 RMK T00900080 IEM_DS3505
ZBHH,2010-04-24 22:00,ZBHH 242200Z AUTO 08004KT 7SM 09/08 A2980 RMK T00900080 IEM_DS3505
ZBHH,2010-04-24 23:00,ZBHH 242300Z AUTO 31004KT 2SM 09/08 A2980 RMK T00900080 IEM_DS3505
ZBHH,2010-04-25 00:00,ZBHH 250000Z AUTO 32012KT 9SM 04/01 A2980 RMK 60031 70032 SLP105 T00440011 52006 IEM_DS3505
ZBHH,2010-04-25 01:00,ZBHH 250100Z AUTO 33012KT 7SM 03/01 A2988 RMK T00300010 IEM_DS3505
ZBHH,2010-04-25 02:00,ZBHH 250200Z AUTO 33012KT 7SM 03/00 A2991 RMK T00300000 IEM_DS3505
ZBHH,2010-04-25 03:00,ZBHH 250300Z AUTO 32006KT 7SM 04/M01 A2997 RMK SLP167 T00361010 52046 IEM_DS3505
ZBHH,2010-04-25 04:00,ZBHH 250400Z AUTO 20004KT 7SM 03/02 A2997 RMK T00300020 IEM_DS3505
ZBHH,2010-04-25 05:00,ZBHH 250500Z AUTO 28012KT 7SM 06/00 A2997 RMK T00600000 IEM_DS3505
ZBHH,2010-04-25 06:00,ZBHH 250600Z AUTO 32012KT 9SM 05/M03 A2997 RMK 60012 SLP164 T00461032 57005 IEM_DS3505
ZBHH,2010-04-25 07:00,ZBHH 250700Z AUTO 34017G29KT 7SM 05/M02 A2997 RMK T00501020 IEM_DS3505
ZBHH,2010-04-25 08:00,ZBHH 250800Z AUTO 34017KT 7SM 04/M04 A3000 RMK T00401040 IEM_DS3505
ZBHH,2010-04-25 09:00,ZBHH 250900Z AUTO 32008KT 12SM 04/M06 A3000 RMK SLP187 T00381065 52015 IEM_DS3505
ZBHH,2010-04-25 10:00,ZBHH 251000Z AUTO 33016KT 7SM 02/M06 A3006 RMK T00201060 IEM_DS3505
ZBHH,2010-04-25 11:00,ZBHH 251100Z AUTO 34010KT 7SM 01/M07 A3009 RMK T00101070 IEM_DS3505
ZBHH,2010-04-25 12:00,ZBHH 251200Z AUTO 32006KT 12SM 02/M09 A3012 RMK 60000 SLP238 T00181086 52029 IEM_DS3505
ZBHH,2010-04-25 13:00,ZBHH 251300Z AUTO 33004KT 7SM 01/M07 A3012 RMK T00101070 IEM_DS3505
ZBHH,2010-04-25 14:00,ZBHH 251400Z AUTO 31004KT 7SM 01/M08 A3012 RMK T00101080 IEM_DS3505
ZBHH,2010-04-25 15:00,ZBHH 251500Z AUTO 00000KT 19SM M00/M08 A3012 RMK SLP243 T10011076 57001 IEM_DS3505
ZBHH,2010-04-25 16:00,ZBHH 251600Z AUTO 27002KT 7SM 00/M05 A3009 RMK T00001050 IEM_DS3505
ZBHH,2010-04-25 17:00,ZBHH 251700Z AUTO 08002KT 7SM M01/M04 A3003 RMK T10101040 IEM_DS3505
ZBHH,2010-04-25 18:00,ZBHH 251800Z AUTO 22006KT 19SM 00/M06 A3000 RMK SLP205 T00001060 57031 IEM_DS3505
ZBHH,2010-04-25 19:00,ZBHH 251900Z AUTO 20006KT 7SM M01/M03 A2997 RMK T10101030 IEM_DS3505
ZBHH,2010-04-25 20:00,ZBHH 252000Z AUTO 22006KT 7SM M01/M02 A2994 RMK T10101020 IEM_DS3505
ZBHH,2010-04-25 21:00,ZBHH 252100Z AUTO 22006KT 19SM M00/M04 A2991 RMK 70039 SLP168 T10021039 57035 IEM_DS3505
ZBHH,2010-04-25 22:00,ZBHH 252200Z AUTO 21004KT 7SM 00/M03 A2988 RMK T00001030 IEM_DS3505
ZBHH,2010-04-25 23:00,ZBHH 252300Z AUTO 36008KT 3/8SM M02/M03 A2988 RMK T10201030 IEM_DS3505
ZBHH,2010-04-26 00:00,ZBHH 260000Z AUTO 34002KT 12SM M00/M08 A2985 RMK 60002 70015 SLP155 T10051084 57016 IEM_DS3505
ZBHH,2010-04-26 01:00,ZBHH 260100Z AUTO 34010KT 7SM M01/M06 A2985 RMK T10101060 IEM_DS3505
ZBHH,2010-04-26 02:00,ZBHH 260200Z AUTO 34012G21KT 7SM M01/M08 A2985 RMK T10101080 IEM_DS3505
ZBHH,2010-04-26 03:00,ZBHH 260300Z AUTO 29012KT 9SM 00/M10 A2988 RMK SLP176 T00001102 52015 IEM_DS3505
ZBHH,2010-04-26 04:00,ZBHH 260400Z AUTO 33016KT 7SM 01/M07 A2988 RMK T00101070 IEM_DS3505
ZBHH,2010-04-26 05:00,ZBHH 260500Z AUTO 34021G33KT 4SM M01/M06 A2994 RMK T10101060 IEM_DS3505
ZBHH,2010-04-26 06:00,ZBHH 260600Z AUTO 32012G31KT 12SM 00/M13 A2994 RMK 60000 SLP199 T00001126 52021 IEM_DS3505
ZBHH,2010-04-26 07:00,ZBHH 260700Z AUTO 34019G29KT 7SM M02/M07 A3000 RMK T10201070 IEM_DS3505
ZBHH,2010-04-26 08:00,ZBHH 260800Z AUTO 32019G31KT 7SM 00/M09 A3000 RMK T00001090 IEM_DS3505
ZBHH,2010-04-26 09:00,ZBHH 260900Z AUTO 32012G25KT 12SM M00/M14 A3000 RMK SLP210 T10021135 52009 IEM_DS3505
ZBHH,2010-04-26 10:00,ZBHH 261000Z AUTO 32012G23KT 7SM M01/M09 A3000 RMK T10101090 IEM_DS3505
ZBHH,2010-04-26 11:00,ZBHH 261100Z AUTO 29014KT 7SM M01/M10 A3000 RMK T10101100 IEM_DS3505
ZBHH,2010-04-26 12:00,ZBHH 261200Z AUTO 29002KT 19SM M01/M13 A2997 RMK 60000 SLP207 T10131126 57006 IEM_DS3505
ZBHH,2010-04-26 13:00,ZBHH 261300Z AUTO 18006KT 7SM M02/M08 A2997 RMK T10201080 IEM_DS3505
ZBHH,2010-04-26 14:00,ZBHH 261400Z AUTO 18004KT 7SM M02/M07 A2994 RMK T10201070 IEM_DS3505
ZBHH,2010-04-26 15:00,ZBHH 261500Z AUTO 20004KT 12SM M01/M10 A2991 RMK SLP185 T10121100 57018 IEM_DS3505
ZBHH,2010-04-26 16:00,ZBHH 261600Z AUTO 17002KT 6SM M02/M07 A2988 RMK T10201070 IEM_DS3505
ZBHH,2010-04-26 17:00,ZBHH 261700Z AUTO 16002KT 6SM M02/M06 A2985 RMK T10201060 IEM_DS3505
ZBHH,2010-04-26 18:00,ZBHH 261800Z AUTO 22004KT 12SM M02/M05 A2983 RMK SLP161 T10151052 57022 IEM_DS3505
ZBHH,2010-04-26 19:00,ZBHH 261900Z AUTO 00000KT 6SM M02/M06 A2980 RMK T10201060 IEM_DS3505
ZBHH,2010-04-26 20:00,ZBHH 262000Z AUTO 22006KT 6SM M02/M04 A2980 RMK T10201040 IEM_DS3505
ZBHH,2010-04-26 21:00,ZBHH 262100Z AUTO 27006KT 19SM M00/M08 A2977 RMK 70002 SLP137 T10051084 57019 IEM_DS3505
ZBHH,2010-04-26 22:00,ZBHH 262200Z AUTO 30012KT 7SM 00/M09 A2977 RMK T00001090 IEM_DS3505
ZBHH,2010-04-26 23:00,ZBHH 262300Z AUTO 30016G25KT 5SM 01/M08 A2980 RMK T00101080 IEM_DS3505
ZBHH,2010-04-27 00:00,ZBHH 270000Z AUTO 32014G33KT 19SM 02/M08 A2980 RMK 70000 SLP140 T00191082 52005 IEM_DS3505
ZBHH,2010-04-27 01:00,ZBHH 270100Z AUTO 33017G27KT 7SM 03/M08 A2980 RMK T00301080 IEM_DS3505
ZBHH,2010-04-27 02:00,ZBHH 270200Z AUTO 33019G31KT 7SM 03/M08 A2980 RMK T00301080 IEM_DS3505
ZBHH,2010-04-27 03:00,ZBHH 270300Z AUTO 29012KT 19SM 05/M07 A2980 RMK SLP122 T00481070 57009 IEM_DS3505
ZBHH,2010-04-27 04:00,ZBHH 270400Z AUTO 29017KT 7SM 03/M04 A2977 RMK T00301040 IEM_DS3505
ZBHH,2010-04-27 05:00,ZBHH 270500Z AUTO 32017G27KT 7SM 03/M06 A2980 RMK T00301060 IEM_DS3505
ZBHH,2010-04-27 06:00,ZBHH 270600Z AUTO 32010KT 19SM 03/M05 A2983 RMK 60000 SLP143 T00271054 52013 IEM_DS3505
ZBHH,2010-04-27 07:00,ZBHH 270700Z AUTO 33017G27KT 7SM 02/M09 A2983 RMK T00201090 IEM_DS3505
ZBHH,2010-04-27 08:00,ZBHH 270800Z AUTO 34017G29KT 7SM 02/M11 A2985 RMK T00201110 IEM_DS3505
ZBHH,2010-04-27 09:00,ZBHH 270900Z AUTO 34008G31KT 19SM 02/M13 A2988 RMK SLP171 T00211129 52026 IEM_DS3505
ZBHH,2010-04-27 10:00,ZBHH 271000Z AUTO 34023KT 7SM 01/M12 A2991 RMK T00101120 IEM_DS3505
ZBHH,2010-04-27 11:00,ZBHH 271100Z AUTO 34017G27KT 7SM 00/M09 A2994 RMK T00001090 IEM_DS3505
ZBHH,2010-04-27 12:00,ZBHH 271200Z AUTO 34004KT 19SM 00/M11 A2997 RMK 60000 SLP201 T00011113 52027 IEM_DS3505
ZBHH,2010-04-27 13:00,ZBHH 271300Z AUTO 35016KT 7SM M01/M10 A3000 RMK T10101100 IEM_DS3505
ZBHH,2010-04-27 14:00,ZBHH 271400Z AUTO 36014KT 7SM 00/M09 A3000 RMK T00001090 IEM_DS3505
ZBHH,2010-04-27 15:00,ZBHH 271500Z AUTO 36006KT 19SM M00/M13 A3003 RMK SLP208 T10011127 52012 IEM_DS3505
ZBHH,2010-04-27 16:00,ZBHH 271600Z AUTO 34010KT 7SM M01/M08 A3003 RMK T10101080 IEM_DS3505
ZBHH,2010-04-27 17:00,ZBHH 271700Z AUTO 05004KT 7SM M02/M09 A3000 RMK T10201090 IEM_DS3505
ZBHH,2010-04-27 18:00,ZBHH 271800Z AUTO 07002KT 19SM M01/M12 A3000 RMK SLP212 T10101120 57003 IEM_DS3505
ZBHH,2010-04-27 19:00,ZBHH 271900Z AUTO 22002KT 7SM M02/M09 A3003 RMK T10201090 IEM_DS3505
ZBHH,2010-04-27 20:00,ZBHH 272000Z AUTO 02004KT 7SM M03/M09 A3000 RMK T10301090 IEM_DS3505
ZBHH,2010-04-27 21:00,ZBHH 272100Z AUTO 09004KT 19SM M02/M11 RMK 70000 SLP224 T10241109 52006 IEM_DS3505
ZBHH,2010-04-27 22:00,ZBHH 272200Z AUTO 34004KT 7SM M04/M10 A3006 RMK T10401100 IEM_DS3505
ZBHH,2010-04-27 23:00,ZBHH 272300Z AUTO 33008KT 7SM M02/M10 A3006 RMK T10201100 IEM_DS3505
ZBHH,2010-04-28 00:00,ZBHH 280000Z AUTO 02006KT 19SM 00/M15 A3009 RMK 70000 SLP248 T00021153 52022 IEM_DS3505
ZBHH,2010-04-28 01:00,ZBHH 280100Z AUTO 34010KT 6SM 01/M13 A3012 RMK T00101130 IEM_DS3505
ZBHH,2010-04-28 02:00,ZBHH 280200Z AUTO 34010KT 7SM 02/M12 A3012 RMK T00201120 IEM_DS3505
ZBHH,2010-04-28 03:00,ZBHH 280300Z AUTO 36008G19KT 16SM 04/M12 A3012 RMK SLP244 T00411119 52005 IEM_DS3505
ZBHH,2010-04-28 04:00,ZBHH 280400Z AUTO 35016KT 7SM 05/M11 A3012 RMK T00501110 IEM_DS3505
ZBHH,2010-04-28 05:00,ZBHH 280500Z AUTO 35016KT 7SM 06/M11 A3009 RMK T00601110 IEM_DS3505
ZBHH,2010-04-28 06:00,ZBHH 280600Z AUTO 32008KT 16SM 05/M10 A3006 RMK SLP228 T00541104 57013 IEM_DS3505
ZBHH,2010-04-28 07:00,ZBHH 280700Z AUTO 29012G23KT 7SM 06/M09 A3006 RMK T00601090 IEM_DS3505
ZBHH,2010-04-28 08:00,ZBHH 280800Z AUTO 30016KT 7SM 07/M09 A3000 RMK T00701090 IEM_DS3505
ZBHH,2010-04-28 09:00,ZBHH 280900Z AUTO 22006KT 16SM 09/M09 A2997 RMK SLP190 T00921088 57029 IEM_DS3505
ZBHH,2010-04-28 10:00,ZBHH 281000Z AUTO 31014KT 7SM 09/M11 A2997 RMK T00901110 IEM_DS3505
ZBHH,2010-04-28 11:00,ZBHH 281100Z AUTO 31012KT 6SM 08/M13 A2997 RMK T00801130 IEM_DS3505
ZBHH,2010-04-28 12:00,ZBHH 281200Z AUTO 32004KT 16SM 07/M14 A2997 RMK SLP184 T00741141 57003 IEM_DS3505
ZBHH,2010-04-28 13:00,ZBHH 281300Z AUTO 27008KT 6SM 06/M11 A2997 RMK T00601110 IEM_DS3505
ZBHH,2010-04-28 14:00,ZBHH 281400Z AUTO 36006KT 6SM 05/M11 A2997 RMK T00501110 IEM_DS3505
ZBHH,2010-04-28 15:00,ZBHH 281500Z AUTO 32004KT 16SM 06/M12 A2997 RMK SLP176 T00551120 57003 IEM_DS3505
ZBHH,2010-04-28 16:00,ZBHH 281600Z AUTO 09004KT 6SM 00/M06 A2997 RMK T00001060 IEM_DS3505
ZBHH,2010-04-28 17:00,ZBHH 281700Z AUTO 06004KT 6SM M02/M07 A2997 RMK T10201070 IEM_DS3505
ZBHH,2010-04-28 18:00,ZBHH 281800Z AUTO 02004KT 12SM 02/M10 A2994 RMK SLP179 T00241095 57001 IEM_DS3505
ZBHH,2010-04-28 19:00,ZBHH 281900Z AUTO 35008KT 6SM 00/M08 A2997 RMK T00001080 IEM_DS3505
ZBHH,2010-04-28 20:00,ZBHH 282000Z AUTO 32004KT 6SM M01/M07 A2997 RMK T10101070 IEM_DS3505
ZBHH,2010-04-28 21:00,ZBHH 282100Z AUTO 02002KT 19SM 02/M10 A3000 RMK SLP186 T00191100 52013 IEM_DS3505
ZBHH,2010-04-28 22:00,ZBHH 282200Z AUTO 32008KT 6SM 01/M08 A3003 RMK T00101080 IEM_DS3505
ZBHH,2010-04-28 23:00,ZBHH 282300Z AUTO 33006KT 6SM 03/M08 A3003 RMK T00301080 IEM_DS3505
ZBHH,2010-04-29 00:00,ZBHH 290000Z AUTO 04002KT 19SM 06/M10 A3006 RMK SLP199 T00621105 52016 IEM_DS3505
ZBHH,2010-04-29 01:00,ZBHH 290100Z AUTO 36012KT 6SM 07/M11 A3009 RMK T00701110 IEM_DS3505
ZBHH,2010-04-29 02:00,ZBHH 290200Z AUTO 35010KT 6SM 08/M12 A3009 RMK T00801120 IEM_DS3505
ZBHH,2010-04-29 03:00,ZBHH 290300Z AUTO 36004KT 19SM 09/M10 A3012 RMK SLP215 T00901100 52016 IEM_DS3505
ZBHH,2010-04-29 04:00,ZBHH 290400Z AUTO 34012KT 6SM 09/M10 A3009 RMK T00901100 IEM_DS3505
ZBHH,2010-04-29 05:00,ZBHH 290500Z AUTO 35016KT 7SM 10/M10 A3009 RMK T01001100 IEM_DS3505
ZBHH,2010-04-29 06:00,ZBHH 290600Z AUTO 32008G25KT 19SM 12/M11 A3009 RMK SLP208 T01171112 57007 IEM_DS3505
ZBHH,2010-04-29 07:00,ZBHH 290700Z AUTO 35016KT 7SM 11/M11 A3009 RMK T01101110 IEM_DS3505
ZBHH,2010-04-29 08:00,ZBHH 290800Z AUTO 36016KT 7SM 12/M09 A3006 RMK T01201090 IEM_DS3505
ZBHH,2010-04-29 09:00,ZBHH 290900Z AUTO 36006KT 19SM 12/M12 A3006 RMK SLP204 T01201123 57004 IEM_DS3505
ZBHH,2010-04-29 10:00,ZBHH 291000Z AUTO 01014KT 6SM 11/M11 A3009 RMK T01101110 IEM_DS3505
ZBHH,2010-04-29 11:00,ZBHH 291100Z AUTO 35008KT 6SM 10/M10 A3012 RMK T01001100 IEM_DS3505
ZBHH,2010-04-29 12:00,ZBHH 291200Z AUTO 36004KT 19SM 09/M12 A3012 RMK SLP220 T00921120 52017 IEM_DS3505
ZBHH,2010-04-29 13:00,ZBHH 291300Z AUTO 03004KT 6SM 07/M09 A3015 RMK T00701090 IEM_DS3505
ZBHH,2010-04-29 14:00,ZBHH 291400Z AUTO 04006KT 6SM 05/M07 A3015 RMK T00501070 IEM_DS3505
ZBHH,2010-04-29 15:00,ZBHH 291500Z AUTO 32002KT 19SM 06/M09 A3015 RMK SLP231 T00601094 52009 IEM_DS3505
ZBHH,2010-04-29 16:00,ZBHH 291600Z AUTO 09002KT 6SM 01/M06 A3015 RMK T00101060 IEM_DS3505
ZBHH,2010-04-29 17:00,ZBHH 291700Z AUTO 09004KT 6SM 00/M06 A3015 RMK T00001060 IEM_DS3505
ZBHH,2010-04-29 18:00,ZBHH 291800Z AUTO 07002KT 19SM 02/M08 A3015 RMK SLP227 T00201076 57006 IEM_DS3505
ZBHH,2010-04-29 19:00,ZBHH 291900Z AUTO 07006KT 6SM M01/M06 A3015 RMK T10101060 IEM_DS3505
ZBHH,2010-04-29 20:00,ZBHH 292000Z AUTO 06004KT 6SM M01/M06 A3015 RMK T10101060 IEM_DS3505
ZBHH,2010-04-29 21:00,ZBHH 292100Z AUTO 32002KT 19SM 01/M06 A3015 RMK SLP231 T00131063 52003 IEM_DS3505
ZBHH,2010-04-29 22:00,ZBHH 292200Z AUTO 08002KT 6SM M02/M06 A3015 RMK T10201060 IEM_DS3505
ZBHH,2010-04-29 23:00,ZBHH 292300Z AUTO 08004KT 6SM 00/M05 A3015 RMK T00001050 IEM_DS3505
ZBHH,2010-04-30 00:00,ZBHH 300000Z AUTO 14002KT 19SM 06/M08 A3018 RMK SLP237 T00561083 52008 IEM_DS3505
ZBHH,2010-04-30 01:00,ZBHH 300100Z AUTO 18002KT 6SM 07/M06 A3018 RMK T00701060 IEM_DS3505
ZBHH,2010-04-30 02:00,ZBHH 300200Z AUTO 26004KT 6SM 09/M07 A3018 RMK T00901070 IEM_DS3505
ZBHH,2010-04-30 03:00,ZBHH 300300Z AUTO 20006KT 19SM 10/M06 A3015 RMK SLP224 T01041064 57008 IEM_DS3505
ZBHH,2010-04-30 04:00,ZBHH 300400Z AUTO 22006KT 6SM 13/M06 A3012 RMK T01301060 IEM_DS3505
ZBHH,2010-04-30 05:00,ZBHH 300500Z AUTO 27008KT 6SM 14/M07 A3009 RMK T01401070 IEM_DS3505
ZBHH,2010-04-30 06:00,ZBHH 300600Z AUTO 22008KT 16SM 15/M06 A3006 RMK SLP190 T01511059 57029 IEM_DS3505
ZBHH,2010-04-30 07:00,ZBHH 300700Z AUTO 23010KT 6SM 17/M05 A3003 RMK T01701050 IEM_DS3505
ZBHH,2010-04-30 08:00,ZBHH 300800Z AUTO 24010KT 6SM 18/M05 A3000 RMK T01801050 IEM_DS3505
ZBHH,2010-04-30 09:00,ZBHH 300900Z AUTO 22010KT 12SM 18/M06 A2997 RMK SLP150 T01821065 57030 IEM_DS3505
ZBHH,2010-04-30 10:00,ZBHH 301000Z AUTO 24014KT 6SM 18/M06 A2994 RMK T01801060 IEM_DS3505
ZBHH,2010-04-30 11:00,ZBHH 301100Z AUTO 21008KT 6SM 16/M05 A2994 RMK T01601050 IEM_DS3505
ZBHH,2010-04-30 12:00,ZBHH 301200Z AUTO 25006KT 12SM 16/M08 A2994 RMK SLP141 T01631081 57003 IEM_DS3505
ZBHH,2010-04-30 13:00,ZBHH 301300Z AUTO 16008KT 6SM 12/M04 A2997 RMK T01201040 IEM_DS3505
ZBHH,2010-04-30 14:00,ZBHH 301400Z AUTO 05006KT 6SM 09/M04 A2997 RMK T00901040 IEM_DS3505
ZBHH,2010-04-30 15:00,ZBHH 301500Z AUTO 09004KT 19SM 11/M06 A2997 RMK SLP153 T01091056 52009 IEM_DS3505
ZBHH,2010-04-30 16:00,ZBHH 301600Z AUTO 05006KT 6SM 05/M03 A2997 RMK T00501030 IEM_DS3505
ZBHH,2010-04-30 17:00,ZBHH 301700Z AUTO 07006KT 6SM 04/M03 A2997 RMK T00401030 IEM_DS3505
ZBHH,2010-04-30 18:00,ZBHH 301800Z AUTO 07002KT 19SM 08/M06 A2997 RMK SLP144 T00801058 57004 IEM_DS3505
ZBHH,2010-04-30 19:00,ZBHH 301900Z AUTO 07006KT 6SM 03/M03 A2994 RMK T00301030 IEM_DS3505
ZBHH,2010-04-30 20:00,ZBHH 302000Z AUTO 06006KT 6SM 02/M04 A2994 RMK T00201040 IEM_DS3505
ZBHH,2010-04-30 21:00,ZBHH 302100Z AUTO 04002KT 19SM 06/M06 A2994 RMK SLP136 T00551061 57006 IEM_DS3505
ZBHH,2010-04-30 22:00,ZBHH 302200Z AUTO 07004KT 6SM 03/M04 A2994 RMK T00301040 IEM_DS3505
ZBHH,2010-04-30 23:00,ZBHH 302300Z AUTO 10006KT 7SM 08/M03 A2997 RMK T00801030 IEM_DS3505
ZBHH,2010-05-01 00:00,ZBHH 010000Z AUTO 09002KT 12SM 10/M05 A2997 RMK SLP139 T01051047 52009 IEM_DS3505
ZBHH,2010-05-01 01:00,ZBHH 010100Z AUTO 23004KT 6SM 14/M07 A2997 RMK T01401070 IEM_DS3505
ZBHH,2010-05-01 02:00,ZBHH 010200Z AUTO 6SM 15/M06 A2994 RMK T01501060 IEM_DS3505
ZBHH,2010-05-01 03:00,ZBHH 010300Z AUTO 29002KT 16SM 17/M07 A2991 RMK SLP117 T01741072 57017 IEM_DS3505
ZBHH,2010-05-01 04:00,ZBHH 010400Z AUTO 23006KT 7SM 19/M07 A2988 RMK T01901070 IEM_DS3505
ZBHH,2010-05-01 05:00,ZBHH 010500Z AUTO 26010KT 5SM 20/M07 A2985 RMK T02001070 IEM_DS3505
ZBHH,2010-05-01 06:00,ZBHH 010600Z AUTO 20004KT 16SM 23/M07 A2980 RMK SLP070 T02261072 57037 IEM_DS3505
ZBHH,2010-05-01 07:00,ZBHH 010700Z AUTO 23012KT 7SM 25/M07 A2977 RMK T02501070 IEM_DS3505
ZBHH,2010-05-01 08:00,ZBHH 010800Z AUTO 25014KT 7SM 26/M05 A2971 RMK T02601050 IEM_DS3505
ZBHH,2010-05-01 09:00,ZBHH 010900Z AUTO 25012KT 19SM 26/M06 A2968 RMK SLP030 T02561059 57034 IEM_DS3505
ZBHH,2010-05-01 10:00,ZBHH 011000Z AUTO 25012KT 7SM 26/M04 A2968 RMK T02601040 IEM_DS3505
ZBHH,2010-05-01 11:00,ZBHH 011100Z AUTO 25006KT 7SM 23/M03 A2965 RMK T02301030 IEM_DS3505
ZBHH,2010-05-01 12:00,ZBHH 011200Z AUTO 22006KT 12SM 24/M06 A2968 RMK SLP015 T02361064 57008 IEM_DS3505
ZBHH,2010-05-01 13:00,ZBHH 011300Z AUTO 27006KT 7SM 20/M04 A2968 RMK T02001040 IEM_DS3505
ZBHH,2010-05-01 14:00,ZBHH 011400Z AUTO 24008KT 7SM 20/M05 A2968 RMK T02001050 IEM_DS3505
ZBHH,2010-05-01 15:00,ZBHH 011500Z AUTO 36002KT 19SM 20/M04 A2968 RMK SLP014 T01951040 52005 IEM_DS3505
ZBHH,2010-05-01 16:00,ZBHH 011600Z AUTO 01004KT 7SM 18/M02 A2971 RMK T01801020 IEM_DS3505
ZBHH,2010-05-01 17:00,ZBHH 011700Z AUTO 09004KT 7SM 17/M03 A2968 RMK T01701030 IEM_DS3505
ZBHH,2010-05-01 18:00,ZBHH 011800Z AUTO 27002KT 19SM 19/M05 A2971 RMK SLP016 T01921050 52010 IEM_DS3505
ZBHH,2010-05-01 19:00,ZBHH 011900Z AUTO 35004KT 4SM 17/M02 A2971 RMK T01701020 IEM_DS3505
ZBHH,2010-05-01 20:00,ZBHH 012000Z AUTO 33006KT 4SM 17/M05 A2974 RMK T01701050 IEM_DS3505
ZBHH,2010-05-01 21:00,ZBHH 012100Z AUTO 32004KT 19SM 14/M09 A2977 RMK SLP037 T01401086 52015 IEM_DS3505
ZBHH,2010-05-01 22:00,ZBHH 012200Z AUTO 34008KT 3SM 14/M07 A2977 RMK T01401070 IEM_DS3505
ZBHH,2010-05-01 23:00,ZBHH 012300Z AUTO 09006KT 2 1/2SM 14/M05 A2980 RMK T01401050 IEM_DS3505
ZBHH,2010-05-02 00:00,ZBHH 020000Z AUTO 27002KT 6SM 16/M09 A2983 RMK SLP061 T01581092 52021 IEM_DS3505
ZBHH,2010-05-02 01:00,ZBHH 020100Z AUTO 03002KT 3SM 17/M05 A2985 RMK T01701050 IEM_DS3505
ZBHH,2010-05-02 02:00,ZBHH 020200Z AUTO 13002KT 4SM 19/M06 A2985 RMK T01901060 IEM_DS3505
ZBHH,2010-05-02 03:00,ZBHH 020300Z AUTO 09002KT 12SM 21/M09 A2985 RMK SLP067 T02081086 52007 IEM_DS3505
ZBHH,2010-05-02 04:00,ZBHH 020400Z AUTO 7SM 21/M08 A2983 RMK T02101080 IEM_DS3505
ZBHH,2010-05-02 05:00,ZBHH 020500Z AUTO 7SM 23/M09 A2983 RMK T02301090 IEM_DS3505
ZBHH,2010-05-02 06:00,ZBHH 020600Z AUTO 09004KT 12SM 24/M11 A2980 RMK SLP036 T02431106 57022 IEM_DS3505
ZBHH,2010-05-02 07:00,ZBHH 020700Z AUTO 03008KT 6SM 24/M10 A2977 RMK T02401100 IEM_DS3505
ZBHH,2010-05-02 08:00,ZBHH 020800Z AUTO 20008KT 6SM 25/M10 A2977 RMK T02501100 IEM_DS3505
ZBHH,2010-05-02 09:00,ZBHH 020900Z AUTO 22004KT 12SM 25/M07 A2977 RMK SLP035 T02461067 57010 IEM_DS3505
ZBHH,2010-05-02 10:00,ZBHH 021000Z AUTO 19002KT 6SM 24/M09 A2977 RMK T02401090 IEM_DS3505
ZBHH,2010-05-02 11:00,ZBHH 021100Z AUTO 32006KT 6SM 23/M10 A2977 RMK T02301100 IEM_DS3505
ZBHH,2010-05-02 12:00,ZBHH 021200Z AUTO 04006KT 12SM 21/M10 A2977 RMK SLP047 T02131103 52008 IEM_DS3505
ZBHH,2010-05-02 13:00,ZBHH 021300Z AUTO 08008KT 6SM 17/M08 A2980 RMK T01701080 IEM_DS3505
ZBHH,2010-05-02 14:00,ZBHH 021400Z AUTO 07008KT 6SM 17/M08 A2980 RMK T01701080 IEM_DS3505
ZBHH,2010-05-02 15:00,ZBHH 021500Z AUTO 04002KT 16SM 17/M10 A2980 RMK SLP053 T01681100 52006 IEM_DS3505
ZBHH,2010-05-02 16:00,ZBHH 021600Z AUTO 04004KT 6SM 14/M07 A2980 RMK T01401070 IEM_DS3505
ZBHH,2010-05-02 17:00,ZBHH 021700Z AUTO 06004KT 6SM 13/M06 A2980 RMK T01301060 IEM_DS3505
ZBHH,2010-05-02 18:00,ZBHH 021800Z AUTO 09004KT 19SM 13/M06 A2980 RMK SLP051 T01311065 57002 IEM_DS3505
ZBHH,2010-05-02 19:00,ZBHH 021900Z AUTO 06008KT 6SM 12/M06 A2977 RMK T01201060 IEM_DS3505
ZBHH,2010-05-02 20:00,ZBHH 022000Z AUTO 06006KT 6SM 11/M06 A2977 RMK T01101060 IEM_DS3505
ZBHH,2010-05-02 21:00,ZBHH 022100Z AUTO 07002KT 19SM 11/M06 A2977 RMK SLP047 T01091064 57007 IEM_DS3505
ZBHH,2010-05-02 22:00,ZBHH 022200Z AUTO 06006KT 7SM 12/M06 A2977 RMK T01201060 IEM_DS3505
ZBHH,2010-05-02 23:00,ZBHH 022300Z AUTO 07008KT 7SM 15/M07 A2977 RMK T01501070 IEM_DS3505
ZBHH,2010-05-03 00:00,ZBHH 030000Z AUTO 07002KT 9SM 17/M06 A2974 RMK SLP042 T01671057 54000 IEM_DS3505
ZBHH,2010-05-03 01:00,ZBHH 030100Z AUTO 09010KT 6SM 21/M08 A2974 RMK T02101080 IEM_DS3505
ZBHH,2010-05-03 02:00,ZBHH 030200Z AUTO 07004KT 7SM 22/M07 A2974 RMK T02201070 IEM_DS3505
ZBHH,2010-05-03 03:00,ZBHH 030300Z AUTO 04002KT 12SM 22/M06 A2971 RMK SLP025 T02251063 57012 IEM_DS3505
ZBHH,2010-05-03 04:00,ZBHH 030400Z AUTO 36004KT 7SM 23/M03 A2971 RMK T02301030 IEM_DS3505
ZBHH,2010-05-03 05:00,ZBHH 030500Z AUTO 35014KT 5SM 21/02 A2971 RMK T02100020 IEM_DS3505
ZBHH,2010-05-03 06:00,ZBHH 030600Z AUTO 11004KT 16SM 23/03 A2968 RMK 60000 SLP011 T02310026 57018 IEM_DS3505
ZBHH,2010-05-03 07:00,ZBHH 030700Z AUTO 07006KT 7SM 23/02 A2968 RMK T02300020 IEM_DS3505
ZBHH,2010-05-03 08:00,ZBHH 030800Z AUTO 16010KT 7SM 24/04 A2965 RMK T02400040 IEM_DS3505
ZBHH,2010-05-03 09:00,ZBHH 030900Z AUTO 20002KT 19SM 23/03 A2962 RMK SLP004 T02340028 57010 IEM_DS3505
ZBHH,2010-05-03 10:00,ZBHH 031000Z AUTO 19016G25KT 4SM 21/07 A2965 RMK T02100070 IEM_DS3505
ZBHH,2010-05-03 11:00,ZBHH 031100Z AUTO 19016KT 7SM 19/08 A2968 RMK T01900080 IEM_DS3505
ZBHH,2010-05-03 12:00,ZBHH 031200Z AUTO 25004KT 19SM 18/07 A2974 RMK SLP038 T01780070 52030 IEM_DS3505
ZBHH,2010-05-03 13:00,ZBHH 031300Z AUTO 36004KT 6SM 16/08 A2974 RMK T01600080 IEM_DS3505
ZBHH,2010-05-03 14:00,ZBHH 031400Z AUTO 20004KT 6SM 13/08 A2977 RMK T01300080 IEM_DS3505
ZBHH,2010-05-03 15:00,ZBHH 031500Z AUTO 25002KT 19SM 15/08 A2977 RMK SLP038 T01500083 52006 IEM_DS3505
ZBHH,2010-05-03 16:00,ZBHH 031600Z AUTO 08006KT 6SM 11/07 A2974 RMK T01100070 IEM_DS3505
ZBHH,2010-05-03 17:00,ZBHH 031700Z AUTO 05004KT 6SM 10/06 A2971 RMK T01000060 IEM_DS3505
ZBHH,2010-05-03 18:00,ZBHH 031800Z AUTO 00000KT 19SM 12/08 A2971 RMK SLP025 T01190078 57016 IEM_DS3505
ZBHH,2010-05-03 20:00,ZBHH 032000Z AUTO 03002KT 6SM 08/06 A2968 RMK T00800060 IEM_DS3505
ZBHH,2010-05-03 21:00,ZBHH 032100Z AUTO 00000KT 19SM 11/07 A2968 RMK 70000 SLP025 T01060069 57002 IEM_DS3505
ZBHH,2010-05-03 22:00,ZBHH 032200Z AUTO 04002KT 4SM 08/06 A2971 RMK T00800060 IEM_DS3505
ZBHH,2010-05-03 23:00,ZBHH 032300Z AUTO 06004KT 4SM 11/08 A2968 RMK T01100080 IEM_DS3505
ZBHH,2010-05-04 00:00,ZBHH 040000Z AUTO 09002KT 9SM 16/08 A2968 RMK 70000 SLP022 T01550080 57004 IEM_DS3505
ZBHH,2010-05-04 01:00,ZBHH 040100Z AUTO 18004KT 6SM 18/09 A2968 RMK T01800090 IEM_DS3505
ZBHH,2010-05-04 02:00,ZBHH 040200Z AUTO 25002KT 6SM 19/10 A2968 RMK T01900100 IEM_DS3505
ZBHH,2010-05-04 03:00,ZBHH 040300Z AUTO 07004KT 7SM 19/09 A2965 RMK SLP005 T01930089 57013 IEM_DS3505
ZBHH,2010-05-04 04:00,ZBHH 040400Z AUTO 22004KT 6SM 21/10 A2959 RMK T02100100 IEM_DS3505
ZBHH,2010-05-04 05:00,ZBHH 040500Z AUTO 21006KT 7SM 23/11 A2956 RMK T02300110 IEM_DS3505
ZBHH,2010-05-04 06:00,ZBHH 040600Z AUTO 20006KT 9SM 24/10 A2953 RMK SLP969 T02350095 57030 IEM_DS3505
ZBHH,2010-05-04 07:00,ZBHH 040700Z AUTO 23008KT 7SM 23/11 A2950 RMK T02300110 IEM_DS3505
ZBHH,2010-05-04 08:00,ZBHH 040800Z AUTO 31010KT 7SM 23/11 A2947 RMK T02300110 IEM_DS3505
ZBHH,2010-05-04 09:00,ZBHH 040900Z AUTO 32017G35KT 9SM 12/04 A2953 RMK SLP994 T01250035 57001 IEM_DS3505
ZBHH,2010-05-04 10:00,ZBHH 041000Z AUTO 34023G37KT 6SM 13/06 A2953 RMK T01300060 IEM_DS3505
ZBHH,2010-05-04 11:00,ZBHH 041100Z AUTO 06006KT 7SM 12/07 A2956 RMK T01200070 IEM_DS3505
ZBHH,2010-05-04 12:00,ZBHH 041200Z AUTO 02002KT 12SM 11/06 A2956 RMK 60016 SLP000 T01120061 52012 IEM_DS3505
ZBHH,2010-05-04 13:00,ZBHH 041300Z AUTO 26006KT 7SM 11/09 A2962 RMK T01100090 IEM_DS3505
ZBHH,2010-05-04 14:00,ZBHH 041400Z AUTO 21004KT 7SM 10/08 A2962 RMK T01000080 IEM_DS3505
ZBHH,2010-05-04 15:00,ZBHH 041500Z AUTO 27002KT 12SM 11/07 A2965 RMK SLP012 T01110068 52018 IEM_DS3505
ZBHH,2010-05-04 16:00,ZBHH 041600Z AUTO 00000KT 4SM 10/08 A2962 RMK T01000080 IEM_DS3505
ZBHH,2010-05-04 17:00,ZBHH 041700Z AUTO 15002KT 4SM 10/09 A2959 RMK T01000090 IEM_DS3505
ZBHH,2010-05-04 18:00,ZBHH 041800Z AUTO 20006KT 12SM 11/08 A2959 RMK 60004 SLP990 T01060077 57013 IEM_DS3505
ZBHH,2010-05-04 19:00,ZBHH 041900Z AUTO 25004KT 4SM 10/09 A2959 RMK T01000090 IEM_DS3505
ZBHH,2010-05-04 20:00,ZBHH 042000Z AUTO 23004KT 7SM 10/08 A2959 RMK T01000080 IEM_DS3505
ZBHH,2010-05-04 21:00,ZBHH 042100Z AUTO 22004KT 12SM 10/06 A2959 RMK 70020 SLP017 T01030064 52002 IEM_DS3505
ZBHH,2010-05-04 22:00,ZBHH 042200Z AUTO 23008KT 7SM 09/07 A2962 RMK T00900070 IEM_DS3505
ZBHH,2010-05-04 23:00,ZBHH 042300Z AUTO 34010KT 7SM 10/05 A2965 RMK T01000050 IEM_DS3505
ZBHH,2010-05-05 00:00,ZBHH 050000Z AUTO 27004KT 12SM 10/04 A2968 RMK 60002 70022 SLP048 T01030036 52025 IEM_DS3505
ZBHH,2010-05-05 01:00,ZBHH 050100Z AUTO 30014KT 7SM 10/04 A2968 RMK T01000040 IEM_DS3505
ZBHH,2010-05-05 02:00,ZBHH 050200Z AUTO 30014KT 7SM 10/03 A2971 RMK T01000030 IEM_DS3505
ZBHH,2010-05-05 03:00,ZBHH 050300Z AUTO 29010KT 12SM 11/03 A2971 RMK SLP063 T01070030 52014 IEM_DS3505
ZBHH,2010-05-05 04:00,ZBHH 050400Z AUTO 29017KT 7SM 11/05 A2971 RMK T01100050 IEM_DS3505
ZBHH,2010-05-05 05:00,ZBHH 050500Z AUTO 34016KT 7SM 12/04 A2974 RMK T01200040 IEM_DS3505
ZBHH,2010-05-05 06:00,ZBHH 050600Z AUTO 36010G27KT 16SM 12/02 A2980 RMK SLP085 T01220015 52021 IEM_DS3505
ZBHH,2010-05-05 07:00,ZBHH 050700Z AUTO 02017KT 7SM 11/01 A2983 RMK T01100010 IEM_DS3505
ZBHH,2010-05-05 08:00,ZBHH 050800Z AUTO 02016KT 7SM 12/00 A2985 RMK T01200000 IEM_DS3505
ZBHH,2010-05-05 09:00,ZBHH 050900Z AUTO 36010KT 16SM 12/00 A2988 RMK SLP123 T01180003 52032 IEM_DS3505
ZBHH,2010-05-05 10:00,ZBHH 051000Z AUTO 02014KT 7SM 12/M01 A2991 RMK T01201010 IEM_DS3505
ZBHH,2010-05-05 11:00,ZBHH 051100Z AUTO 34019KT 7SM 09/02 A2991 RMK T00900020 IEM_DS3505
ZBHH,2010-05-05 12:00,ZBHH 051200Z AUTO 32006KT 16SM 09/02 A2994 RMK SLP149 T00880015 52017 IEM_DS3505
ZBHH,2010-05-05 13:00,ZBHH 051300Z AUTO 34006KT 7SM 08/02 A2997 RMK T00800020 IEM_DS3505
ZBHH,2010-05-05 14:00,ZBHH 051400Z AUTO 01004KT 7SM 08/02 A2997 RMK T00800020 IEM_DS3505
ZBHH,2010-05-05 15:00,ZBHH 051500Z AUTO 22004KT 16SM 08/01 A2997 RMK SLP152 T00760006 52001 IEM_DS3505
ZBHH,2010-05-05 16:00,ZBHH 051600Z AUTO 33004KT 7SM 07/01 A2997 RMK T00700010 IEM_DS3505
ZBHH,2010-05-05 17:00,ZBHH 051700Z AUTO 19006KT 6SM 04/01 A2997 RMK T00400010 IEM_DS3505
ZBHH,2010-05-05 18:00,ZBHH 051800Z AUTO 00000KT 12SM 06/01 A2997 RMK SLP154 T00610006 52002 IEM_DS3505
ZBHH,2010-05-05 19:00,ZBHH 051900Z AUTO 07006KT 6SM 02/00 A2994 RMK T00200000 IEM_DS3505
ZBHH,2010-05-05 20:00,ZBHH 052000Z AUTO 06004KT 6SM 02/00 A2994 RMK T00200000 IEM_DS3505
ZBHH,2010-05-05 21:00,ZBHH 052100Z AUTO 04002KT 12SM 04/01 A2994 RMK 70002 SLP159 T00380008 57001 IEM_DS3505
ZBHH,2010-05-05 22:00,ZBHH 052200Z AUTO 07004KT 6SM 01/M01 A2997 RMK T00101010 IEM_DS3505
ZBHH,2010-05-05 23:00,ZBHH 052300Z AUTO 06004KT 6SM 04/02 A2997 RMK T00400020 IEM_DS3505
ZBHH,2010-05-06 00:00,ZBHH 060000Z AUTO 09002KT 19SM 08/01 A2997 RMK SLP164 T00790009 52007 IEM_DS3505
ZBHH,2010-05-06 01:00,ZBHH 060100Z AUTO 20002KT 6SM 09/02 A2997 RMK T00900020 IEM_DS3505
ZBHH,2010-05-06 02:00,ZBHH 060200Z AUTO 20004KT 6SM 12/03 A2997 RMK T01200030 IEM_DS3505
ZBHH,2010-05-06 03:00,ZBHH 060300Z AUTO 18004KT 19SM 13/00 A2994 RMK SLP142 T01270005 57012 IEM_DS3505
ZBHH,2010-05-06 04:00,ZBHH 060400Z AUTO 23008KT 6SM 15/01 A2991 RMK T01500010 IEM_DS3505
ZBHH,2010-05-06 05:00,ZBHH 060500Z AUTO 24012KT 7SM 17/00 A2985 RMK T01700000 IEM_DS3505
ZBHH,2010-05-06 06:00,ZBHH 060600Z AUTO 20010G19KT 19SM 18/M02 A2983 RMK SLP089 T01791019 57040 IEM_DS3505
ZBHH,2010-05-06 07:00,ZBHH 060700Z AUTO 23012G21KT 7SM 19/M03 A2977 RMK T01901030 IEM_DS3505
ZBHH,2010-05-06 08:00,ZBHH 060800Z AUTO 22021G31KT 4SM 18/01 A2971 RMK T01800010 IEM_DS3505
ZBHH,2010-05-06 09:00,ZBHH 060900Z AUTO 18006KT 12SM 19/M01 A2971 RMK SLP046 T01921013 57040 IEM_DS3505
ZBHH,2010-05-06 10:00,ZBHH 061000Z AUTO 19014KT 7SM 18/00 A2968 RMK T01800000 IEM_DS3505
ZBHH,2010-05-06 11:00,ZBHH 061100Z AUTO 20002KT 7SM 17/00 A2965 RMK T01700000 IEM_DS3505
ZBHH,2010-05-06 12:00,ZBHH 061200Z AUTO 32012G41KT 6SM 14/02 A2974 RMK SLP063 T01370020 52013 IEM_DS3505
ZBHH,2010-05-06 13:00,ZBHH 061300Z AUTO 01008KT 4SM 13/03 A2971 RMK T01300030 IEM_DS3505
ZBHH,2010-05-06 14:00,ZBHH 061400Z AUTO 31023G33KT 4SM 11/03 A2980 RMK T01100030 IEM_DS3505
ZBHH,2010-05-06 15:00,ZBHH 061500Z AUTO 22008KT 6SM 14/M02 A2971 RMK SLP044 T01371015 57008 IEM_DS3505
ZBHH,2010-05-06 16:00,ZBHH 061600Z AUTO 22004KT 4SM 12/01 A2971 RMK T01200010 IEM_DS3505
ZBHH,2010-05-06 17:00,ZBHH 061700Z AUTO 24004KT 4SM 13/M01 A2971 RMK T01301010 IEM_DS3505
ZBHH,2010-05-06 18:00,ZBHH 061800Z AUTO 22002KT 9SM 12/M03 A2968 RMK 60000 SLP034 T01251029 57001 IEM_DS3505
ZBHH,2010-05-06 19:00,ZBHH 061900Z AUTO 21004KT 5SM 10/00 A2968 RMK T01000000 IEM_DS3505
ZBHH,2010-05-06 20:00,ZBHH 062000Z AUTO 00000KT 5SM 09/01 A2971 RMK T00900010 IEM_DS3505
ZBHH,2010-05-06 21:00,ZBHH 062100Z AUTO 27004KT 16SM 12/M04 A2974 RMK 70000 SLP043 T01221040 52010 IEM_DS3505
ZBHH,2010-05-06 22:00,ZBHH 062200Z AUTO 31014KT 3SM 12/M03 A2977 RMK T01201030 IEM_DS3505
ZBHH,2010-05-06 23:00,ZBHH 062300Z AUTO 32017KT 2SM 11/M02 A2980 RMK T01101020 IEM_DS3505
ZBHH,2010-05-07 00:00,ZBHH 070000Z AUTO 27006KT 6SM 10/M01 A2980 RMK 70000 SLP096 T01001014 52032 IEM_DS3505
ZBHH,2010-05-07 01:00,ZBHH 070100Z AUTO 35004KT 1 1/4SM 13/M01 A2980 RMK T01301010 IEM_DS3505
ZBHH,2010-05-07 02:00,ZBHH 070200Z AUTO 35004KT 2SM 14/M01 A2983 RMK T01401010 IEM_DS3505
ZBHH,2010-05-07 03:00,ZBHH 070300Z AUTO 22004KT 7SM 17/M07 A2983 RMK SLP082 T01671070 54000 IEM_DS3505
ZBHH,2010-05-07 04:00,ZBHH 070400Z AUTO 29012KT 6SM 18/M10 A2983 RMK T01801100 IEM_DS3505
ZBHH,2010-05-07 05:00,ZBHH 070500Z AUTO 28019KT 6SM 19/M10 A2980 RMK T01901100 IEM_DS3505
ZBHH,2010-05-07 06:00,ZBHH 070600Z AUTO 29008KT 16SM 20/M09 A2980 RMK SLP068 T01981094 57008 IEM_DS3505
ZBHH,2010-05-07 07:00,ZBHH 070700Z AUTO 31016KT 6SM 20/M09 A2980 RMK T02001090 IEM_DS3505
ZBHH,2010-05-07 08:00,ZBHH 070800Z AUTO 32012KT 7SM 21/M08 A2977 RMK T02101080 IEM_DS3505
ZBHH,2010-05-07 09:00,ZBHH 070900Z AUTO 20008KT 12SM 20/M08 A2977 RMK SLP055 T01991075 57012 IEM_DS3505
ZBHH,2010-05-07 10:00,ZBHH 071000Z AUTO 23014KT 7SM 20/M05 A2977 RMK T02001050 IEM_DS3505
ZBHH,2010-05-07 11:00,ZBHH 071100Z AUTO 23010KT 7SM 19/M05 A2977 RMK T01901050 IEM_DS3505
ZBHH,2010-05-07 12:00,ZBHH 071200Z AUTO 22004KT 12SM 18/M06 A2977 RMK SLP066 T01821058 52002 IEM_DS3505
ZBHH,2010-05-07 13:00,ZBHH 071300Z AUTO 12004KT 7SM 15/M04 A2980 RMK T01501040 IEM_DS3505
ZBHH,2010-05-07 14:00,ZBHH 071400Z AUTO 06006KT 7SM 14/M04 A2980 RMK T01401040 IEM_DS3505
ZBHH,2010-05-07 15:00,ZBHH 071500Z AUTO 07004KT 12SM 14/M04 A2980 RMK SLP069 T01381039 52007 IEM_DS3505
ZBHH,2010-05-07 16:00,ZBHH 071600Z AUTO 06004KT 7SM 10/M02 A2980 RMK T01001020 IEM_DS3505
ZBHH,2010-05-07 17:00,ZBHH 071700Z AUTO 07004KT 7SM 10/M02 A2977 RMK T01001020 IEM_DS3505
ZBHH,2010-05-07 18:00,ZBHH 071800Z AUTO 09002KT 12SM 11/M02 A2977 RMK SLP056 T01061024 57012 IEM_DS3505
ZBHH,2010-05-07 19:00,ZBHH 071900Z AUTO 06008KT 7SM 09/M02 A2974 RMK T00901020 IEM_DS3505
ZBHH,2010-05-07 20:00,ZBHH 072000Z AUTO 06004KT 7SM 08/M02 A2974 RMK T00801020 IEM_DS3505
ZBHH,2010-05-07 21:00,ZBHH 072100Z AUTO 07002KT 9SM 09/M03 A2971 RMK SLP045 T00921027 57012 IEM_DS3505
ZBHH,2010-05-07 22:00,ZBHH 072200Z AUTO 06008KT 6SM 09/M02 A2971 RMK T00901020 IEM_DS3505
ZBHH,2010-05-07 23:00,ZBHH 072300Z AUTO 06004KT 7SM 11/M02 A2971 RMK T01101020 IEM_DS3505
ZBHH,2010-05-08 00:00,ZBHH 080000Z AUTO 32002KT 9SM 13/M03 A2971 RMK SLP038 T01321027 57002 IEM_DS3505
ZBHH,2010-05-08 01:00,ZBHH 080100Z AUTO 11004KT 5SM 17/M04 A2968 RMK T01701040 IEM_DS3505
ZBHH,2010-05-08 02:00,ZBHH 080200Z AUTO 30002KT 5SM 18/M06 A2968 RMK T01801060 IEM_DS3505
ZBHH,2010-05-08 03:00,ZBHH 080300Z AUTO 32002KT 9SM 19/M06 A2965 RMK SLP022 T01861062 57012 IEM_DS3505
ZBHH,2010-05-08 04:00,ZBHH 080400Z AUTO 12002KT 5SM 20/M04 A2965 RMK T02001040 IEM_DS3505
ZBHH,2010-05-08 05:00,ZBHH 080500Z AUTO 24016G25KT 6SM 22/00 A2959 RMK T02200000 IEM_DS3505
ZBHH,2010-05-08 06:00,ZBHH 080600Z AUTO 22010G31KT 6SM 23/M01 A2956 RMK SLP986 T02331009 57029 IEM_DS3505
ZBHH,2010-05-08 07:00,ZBHH 080700Z AUTO 22021G31KT 4SM 22/00 A2956 RMK T02200000 IEM_DS3505
ZBHH,2010-05-08 08:00,ZBHH 080800Z AUTO 21021G31KT 5SM 22/01 A2959 RMK T02200010 IEM_DS3505
ZBHH,2010-05-08 09:00,ZBHH 080900Z AUTO 22014KT 1SM 22/M07 A2956 RMK SLP989 T02201067 57002 IEM_DS3505
ZBHH,2010-05-08 10:00,ZBHH 081000Z AUTO 25029G41KT 1 1/4SM 21/M09 A2959 RMK T02101090 IEM_DS3505
ZBHH,2010-05-08 11:00,ZBHH 081100Z AUTO 25023G33KT 1SM 19/M10 A2962 RMK T01901100 IEM_DS3505
ZBHH,2010-05-08 12:00,ZBHH 081200Z AUTO 32014G27KT 2SM 16/M12 A2971 RMK SLP037 T01601124 52038 IEM_DS3505
ZBHH,2010-05-08 13:00,ZBHH 081300Z AUTO 33016G29KT 2 1/2SM 11/M01 A2980 RMK T01101010 IEM_DS3505
ZBHH,2010-05-08 14:00,ZBHH 081400Z AUTO 34021G33KT 4SM 08/M02 A2983 RMK T00801020 IEM_DS3505
ZBHH,2010-05-08 15:00,ZBHH 081500Z AUTO 29014G27KT 7SM 06/M04 A2985 RMK SLP109 T00621040 52055 IEM_DS3505
ZBHH,2010-05-08 16:00,ZBHH 081600Z AUTO 33012KT 7SM 06/M04 A2988 RMK T00601040 IEM_DS3505
ZBHH,2010-05-08 17:00,ZBHH 081700Z AUTO 34017G29KT 7SM 06/M04 A2991 RMK T00601040 IEM_DS3505
ZBHH,2010-05-08 18:00,ZBHH 081800Z AUTO 34004G19KT 19SM 05/M04 A2994 RMK SLP130 T00501043 40242//// 52026 IEM_DS3505
ZBHH,2010-05-08 19:00,ZBHH 081900Z AUTO 36008KT 7SM 04/M03 A2997 RMK T00401030 IEM_DS3505
ZBHH,2010-05-08 20:00,ZBHH 082000Z AUTO 00000KT 7SM 04/M03 A2997 RMK T00401030 IEM_DS3505
ZBHH,2010-05-08 21:00,ZBHH 082100Z AUTO 25002KT 12SM 05/M05 A2997 RMK SLP135 T00501048 52002 IEM_DS3505
ZBHH,2010-05-08 22:00,ZBHH 082200Z AUTO 19006KT 7SM 04/M03 A2997 RMK T00401030 IEM_DS3505
ZBHH,2010-05-08 23:00,ZBHH 082300Z AUTO 28010KT 7SM 06/M05 A2997 RMK T00601050 IEM_DS3505
ZBHH,2010-05-09 00:00,ZBHH 090000Z AUTO 29006KT 12SM 06/M08 A2997 RMK SLP153 T00651079 52007 IEM_DS3505
ZBHH,2010-05-09 01:00,ZBHH 090100Z AUTO 30017G27KT 7SM 08/M08 A2997 RMK T00801080 IEM_DS3505
ZBHH,2010-05-09 02:00,ZBHH 090200Z AUTO 30016G25KT 7SM 10/M09 A2997 RMK T01001090 IEM_DS3505
ZBHH,2010-05-09 03:00,ZBHH 090300Z AUTO 32016G25KT 16SM 10/M11 A2997 RMK SLP159 T01021112 57007 IEM_DS3505
ZBHH,2010-05-09 04:00,ZBHH 090400Z AUTO 30023G35KT 7SM 11/M12 A2994 RMK T01101120 IEM_DS3505
ZBHH,2010-05-09 05:00,ZBHH 090500Z AUTO 31023G33KT 7SM 13/M13 A2991 RMK T01301130 IEM_DS3505
ZBHH,2010-05-09 06:00,ZBHH 090600Z AUTO 29010G33KT 19SM 12/M14 A2991 RMK SLP139 T01241144 57016 IEM_DS3505
ZBHH,2010-05-09 07:00,ZBHH 090700Z AUTO 29023G33KT 7SM 13/M15 A2988 RMK T01301150 IEM_DS3505
ZBHH,2010-05-09 08:00,ZBHH 090800Z AUTO 29023G33KT 7SM 13/M14 A2988 RMK T01301140 IEM_DS3505
ZBHH,2010-05-09 09:00,ZBHH 090900Z AUTO 29014G31KT 19SM 13/M15 A2985 RMK SLP124 T01311147 57012 IEM_DS3505
ZBHH,2010-05-09 10:00,ZBHH 091000Z AUTO 30017G27KT 7SM 13/M14 A2985 RMK T01301140 IEM_DS3505
ZBHH,2010-05-09 11:00,ZBHH 091100Z AUTO 29019G29KT 7SM 12/M14 A2985 RMK T01201140 IEM_DS3505
ZBHH,2010-05-09 12:00,ZBHH 091200Z AUTO 27006G27KT 16SM 12/M16 A2985 RMK SLP124 T01201156 52001 IEM_DS3505
ZBHH,2010-05-09 13:00,ZBHH 091300Z AUTO 28016KT 6SM 11/M16 A2988 RMK T01101160 IEM_DS3505
ZBHH,2010-05-09 14:00,ZBHH 091400Z AUTO 26012KT 6SM 10/M15 A2985 RMK T01001150 IEM_DS3505
ZBHH,2010-05-09 15:00,ZBHH 091500Z AUTO 22006KT 19SM 10/M16 A2985 RMK SLP112 T01001155 57007 IEM_DS3505
ZBHH,2010-05-09 16:00,ZBHH 091600Z AUTO 24008KT 6SM 08/M11 A2985 RMK T00801110 IEM_DS3505
ZBHH,2010-05-09 17:00,ZBHH 091700Z AUTO 23004KT 6SM 06/M10 A2985 RMK T00601100 IEM_DS3505
ZBHH,2010-05-09 18:00,ZBHH 091800Z AUTO 27004KT 19SM 06/M10 RMK SLP110 T00591095 57006 IEM_DS3505
ZBHH,2010-05-09 19:00,ZBHH 091900Z AUTO 17006KT 6SM 03/M08 A2983 RMK T00301080 IEM_DS3505
ZBHH,2010-05-09 20:00,ZBHH 092000Z AUTO 21006KT 6SM 04/M07 A2980 RMK T00401070 IEM_DS3505
ZBHH,2010-05-09 21:00,ZBHH 092100Z AUTO 34002KT 19SM 04/M09 A2980 RMK SLP103 T00411093 57008 IEM_DS3505
ZBHH,2010-05-09 22:00,ZBHH 092200Z AUTO 07006KT 6SM 01/M07 A2983 RMK T00101070 IEM_DS3505
ZBHH,2010-05-09 23:00,ZBHH 092300Z AUTO 11004KT 6SM 05/M06 A2983 RMK T00501060 IEM_DS3505
ZBHH,2010-05-10 00:00,ZBHH 100000Z AUTO 32008KT 19SM 11/M12 A2985 RMK SLP100 T01091118 52009 IEM_DS3505
ZBHH,2010-05-10 01:00,ZBHH 100100Z AUTO 31014G27KT 6SM 12/M10 A2985 RMK T01201100 IEM_DS3505
ZBHH,2010-05-10 02:00,ZBHH 100200Z AUTO 34017G27KT 6SM 13/M08 A2985 RMK T01301080 IEM_DS3505
ZBHH,2010-05-10 03:00,ZBHH 100300Z AUTO 32010G25KT 19SM 13/M09 A2988 RMK SLP116 T01311087 52014 IEM_DS3505
ZBHH,2010-05-10 04:00,ZBHH 100400Z AUTO 34017G27KT 7SM 14/M06 A2988 RMK T01401060 IEM_DS3505
ZBHH,2010-05-10 05:00,ZBHH 100500Z AUTO 32023KT 7SM 14/M07 A2988 RMK T01401070 IEM_DS3505
ZBHH,2010-05-10 06:00,ZBHH 100600Z AUTO 32010KT 19SM 14/M07 A2988 RMK SLP121 T01431071 57001 IEM_DS3505
ZBHH,2010-05-10 07:00,ZBHH 100700Z AUTO 34019KT 7SM 14/M06 A2985 RMK T01401060 IEM_DS3505
ZBHH,2010-05-10 08:00,ZBHH 100800Z AUTO 35019G29KT 7SM 14/M06 A2985 RMK T01401060 IEM_DS3505
ZBHH,2010-05-10 09:00,ZBHH 100900Z AUTO 02006KT 19SM 14/M06 A2988 RMK SLP130 T01441065 52004 IEM_DS3505
ZBHH,2010-05-10 10:00,ZBHH 101000Z AUTO 02017KT 7SM 13/M06 A2991 RMK T01301060 IEM_DS3505
ZBHH,2010-05-10 11:00,ZBHH 101100Z AUTO 02010KT 6SM 12/M05 A2994 RMK T01201050 IEM_DS3505
ZBHH,2010-05-10 12:00,ZBHH 101200Z AUTO 04004KT 19SM 11/M06 A2997 RMK SLP149 T01091060 52024 IEM_DS3505
ZBHH,2010-05-10 13:00,ZBHH 101300Z AUTO 04004KT 6SM 09/M05 A3000 RMK T00901050 IEM_DS3505
ZBHH,2010-05-10 14:00,ZBHH 101400Z AUTO 05006KT 6SM 09/M05 A3003 RMK T00901050 IEM_DS3505
ZBHH,2010-05-10 15:00,ZBHH 101500Z AUTO 07006KT 19SM 09/M06 A3006 RMK SLP177 T00871055 52024 IEM_DS3505
ZBHH,2010-05-10 16:00,ZBHH 101600Z AUTO 04006KT 6SM 06/M04 A3006 RMK T00601040 IEM_DS3505
ZBHH,2010-05-10 17:00,ZBHH 101700Z AUTO 06006KT 6SM 04/M04 A3006 RMK T00401040 IEM_DS3505
ZBHH,2010-05-10 18:00,ZBHH 101800Z AUTO 02002KT 19SM 07/M05 A3006 RMK SLP180 T00681049 52002 IEM_DS3505
ZBHH,2010-05-10 19:00,ZBHH 101900Z AUTO 08006KT 6SM 02/M04 A3006 RMK T00201040 IEM_DS3505
ZBHH,2010-05-10 20:00,ZBHH 102000Z AUTO 09006KT 6SM 03/M04 A3006 RMK T00301040 IEM_DS3505
ZBHH,2010-05-10 21:00,ZBHH 102100Z AUTO 09002KT 19SM 06/M04 A3006 RMK SLP187 T00571044 52004 IEM_DS3505
ZBHH,2010-05-10 22:00,ZBHH 102200Z AUTO 10006KT 6SM 02/M04 A3009 RMK T00201040 IEM_DS3505
ZBHH,2010-05-10 23:00,ZBHH 102300Z AUTO 06006KT 6SM 05/M03 A3012 RMK T00501030 IEM_DS3505
ZBHH,2010-05-11 00:00,ZBHH 110000Z AUTO 09004KT 19SM 08/M04 A3012 RMK SLP201 T00851037 52011 IEM_DS3505
ZBHH,2010-05-11 01:00,ZBHH 110100Z AUTO 6SM 10/M02 A3009 RMK T01001020 IEM_DS3505
ZBHH,2010-05-11 02:00,ZBHH 110200Z AUTO 6SM 12/M03 A3009 RMK T01201030 IEM_DS3505
ZBHH,2010-05-11 03:00,ZBHH 110300Z AUTO 16004KT 19SM 14/M04 A3006 RMK SLP181 T01351042 57012 IEM_DS3505
ZBHH,2010-05-11 04:00,ZBHH 110400Z AUTO 19006KT 6SM 15/M03 A3003 RMK T01501030 IEM_DS3505
ZBHH,2010-05-11 05:00,ZBHH 110500Z AUTO 7SM 16/M03 A3003 RMK T01601030 IEM_DS3505
ZBHH,2010-05-11 06:00,ZBHH 110600Z AUTO 18002KT 19SM 17/M04 A3000 RMK SLP156 T01671045 57020 IEM_DS3505
ZBHH,2010-05-11 07:00,ZBHH 110700Z AUTO 31004KT 6SM 18/M03 A2997 RMK T01801030 IEM_DS3505
ZBHH,2010-05-11 08:00,ZBHH 110800Z AUTO 24002KT 6SM 19/M04 A2994 RMK T01901040 IEM_DS3505
ZBHH,2010-05-11 09:00,ZBHH 110900Z AUTO 09004KT 19SM 20/M05 A2991 RMK SLP126 T01951047 57023 IEM_DS3505
ZBHH,2010-05-11 10:00,ZBHH 111000Z AUTO 20002KT 6SM 19/M06 A2991 RMK T01901060 IEM_DS3505
ZBHH,2010-05-11 11:00,ZBHH 111100Z AUTO 20004KT 6SM 18/M06 A2991 RMK T01801060 IEM_DS3505
ZBHH,2010-05-11 12:00,ZBHH 111200Z AUTO 25004KT 12SM 17/M06 A2991 RMK SLP124 T01741064 54000 IEM_DS3505
ZBHH,2010-05-11 13:00,ZBHH 111300Z AUTO 36004KT 6SM 14/M05 A2994 RMK T01401050 IEM_DS3505
ZBHH,2010-05-11 14:00,ZBHH 111400Z AUTO 06006KT 6SM 12/M05 A2997 RMK T01201050 IEM_DS3505
ZBHH,2010-05-11 15:00,ZBHH 111500Z AUTO 09004KT 19SM 13/M04 A3000 RMK SLP143 T01271044 52017 IEM_DS3505
ZBHH,2010-05-11 16:00,ZBHH 111600Z AUTO 06006KT 6SM 10/M03 A3000 RMK T01001030 IEM_DS3505
ZBHH,2010-05-11 17:00,ZBHH 111700Z AUTO 05006KT 6SM 09/M04 A3000 RMK T00901040 IEM_DS3505
ZBHH,2010-05-11 18:00,ZBHH 111800Z AUTO 02002KT 19SM 09/M03 A2997 RMK SLP143 T00911028 57001 IEM_DS3505
ZBHH,2010-05-11 19:00,ZBHH 111900Z AUTO 06006KT 6SM 07/M03 A2997 RMK T00701030 IEM_DS3505
ZBHH,2010-05-11 20:00,ZBHH 112000Z AUTO 09004KT 6SM 08/M01 A2997 RMK T00801010 IEM_DS3505
ZBHH,2010-05-11 21:00,ZBHH 112100Z AUTO 04002KT 19SM 08/M03 A2997 RMK SLP137 T00831029 57001 IEM_DS3505
ZBHH,2010-05-11 22:00,ZBHH 112200Z AUTO 08004KT 6SM 07/M02 A3000 RMK T00701020 IEM_DS3505
ZBHH,2010-05-11 23:00,ZBHH 112300Z AUTO 07008KT 6SM 11/00 A3000 RMK T01100000 IEM_DS3505
ZBHH,2010-05-12 00:00,ZBHH 120000Z AUTO 09004KT 16SM 14/M02 A3000 RMK SLP135 T01441017 52006 IEM_DS3505
ZBHH,2010-05-12 01:00,ZBHH 120100Z AUTO 12004KT 6SM 17/M01 A3000 RMK T01701010 IEM_DS3505
ZBHH,2010-05-12 02:00,ZBHH 120200Z AUTO 14004KT 6SM 19/M01 A2997 RMK T01901010 IEM_DS3505
ZBHH,2010-05-12 03:00,ZBHH 120300Z AUTO 16002KT 16SM 21/M03 A2994 RMK SLP119 T02091029 57011 IEM_DS3505
ZBHH,2010-05-12 04:00,ZBHH 120400Z AUTO 24006KT 6SM 22/M04 A2994 RMK T02201040 IEM_DS3505
ZBHH,2010-05-12 05:00,ZBHH 120500Z AUTO 29004KT 6SM 23/M07 A2991 RMK T02301070 IEM_DS3505
ZBHH,2010-05-12 06:00,ZBHH 120600Z AUTO 16004KT 16SM 24/M07 A2988 RMK SLP089 T02451067 57026 IEM_DS3505
ZBHH,2010-05-12 07:00,ZBHH 120700Z AUTO 15004KT 6SM 26/M08 A2985 RMK T02601080 IEM_DS3505
ZBHH,2010-05-12 08:00,ZBHH 120800Z AUTO 22008KT 6SM 26/M08 A2983 RMK T02601080 IEM_DS3505
ZBHH,2010-05-12 09:00,ZBHH 120900Z AUTO 11002KT 16SM 26/M11 A2983 RMK SLP070 T02581109 57016 IEM_DS3505
ZBHH,2010-05-12 10:00,ZBHH 121000Z AUTO 25006KT 6SM 25/M07 A2983 RMK T02501070 IEM_DS3505
ZBHH,2010-05-12 11:00,ZBHH 121100Z AUTO 26006KT 6SM 24/M07 A2983 RMK T02401070 IEM_DS3505
ZBHH,2010-05-12 12:00,ZBHH 121200Z AUTO 00000KT 16SM 21/M06 A2985 RMK SLP075 T02111057 52007 IEM_DS3505
ZBHH,2010-05-12 13:00,ZBHH 121300Z AUTO 15010KT 6SM 21/M01 A2988 RMK T02101010 IEM_DS3505
ZBHH,2010-05-12 14:00,ZBHH 121400Z AUTO 12004KT 6SM 19/M01 A2991 RMK T01901010 IEM_DS3505
ZBHH,2010-05-12 15:00,ZBHH 121500Z AUTO 07002KT 16SM 19/M01 A2991 RMK SLP094 T01901009 52025 IEM_DS3505
ZBHH,2010-05-12 16:00,ZBHH 121600Z AUTO 14002KT 6SM 17/01 A2994 RMK T01700010 IEM_DS3505
ZBHH,2010-05-12 17:00,ZBHH 121700Z AUTO 06004KT 6SM 15/01 A2994 RMK T01500010 IEM_DS3505
ZBHH,2010-05-12 18:00,ZBHH 121800Z AUTO 20002KT 12SM 17/03 A2994 RMK SLP099 T01700026 52007 IEM_DS3505
ZBHH,2010-05-12 19:00,ZBHH 121900Z AUTO 05002KT 6SM 13/02 A2997 RMK T01300020 IEM_DS3505
ZBHH,2010-05-12 20:00,ZBHH 122000Z AUTO 06002KT 6SM 12/02 A2997 RMK T01200020 IEM_DS3505
ZBHH,2010-05-12 21:00,ZBHH 122100Z AUTO 18004KT 9SM 15/04 A2997 RMK SLP112 T01490037 52010 IEM_DS3505
ZBHH,2010-05-12 22:00,ZBHH 122200Z AUTO 15002KT 5SM 13/04 A3000 RMK T01300040 IEM_DS3505
ZBHH,2010-05-12 23:00,ZBHH 122300Z AUTO 15002KT 5SM 15/05 A3000 RMK T01500050 IEM_DS3505
ZBHH,2010-05-13 00:00,ZBHH 130000Z AUTO 22006KT 12SM 16/04 A3003 RMK SLP131 T01620043 52011 IEM_DS3505
ZBHH,2010-05-13 01:00,ZBHH 130100Z AUTO 24010KT 6SM 17/05 A3003 RMK T01700050 IEM_DS3505
ZBHH,2010-05-13 02:00,ZBHH 130200Z AUTO 21012KT 6SM 19/05 A3000 RMK T01900050 IEM_DS3505
ZBHH,2010-05-13 03:00,ZBHH 130300Z AUTO 22006KT 9SM 20/04 A3000 RMK SLP122 T01950036 57006 IEM_DS3505
ZBHH,2010-05-13 04:00,ZBHH 130400Z AUTO 21010KT 6SM 21/05 A2997 RMK T02100050 IEM_DS3505
ZBHH,2010-05-13 05:00,ZBHH 130500Z AUTO 22008G19KT 7SM 22/05 A2994 RMK T02200050 IEM_DS3505
ZBHH,2010-05-13 06:00,ZBHH 130600Z AUTO 22004KT 9SM 23/03 A2991 RMK SLP094 T02290034 57022 IEM_DS3505
ZBHH,2010-05-13 07:00,ZBHH 130700Z AUTO 27012KT 7SM 24/04 A2991 RMK T02400040 IEM_DS3505
ZBHH,2010-05-13 08:00,ZBHH 130800Z AUTO 25012KT 5SM 25/03 A2988 RMK T02500030 IEM_DS3505
ZBHH,2010-05-13 09:00,ZBHH 130900Z AUTO 25008KT 7SM 24/02 A2988 RMK SLP084 T02370025 57011 IEM_DS3505
ZBHH,2010-05-13 10:00,ZBHH 131000Z AUTO 25019KT 6SM 23/04 A2991 RMK T02300040 IEM_DS3505
ZBHH,2010-05-13 11:00,ZBHH 131100Z AUTO 25019G29KT 5SM 21/05 A2994 RMK T02100050 IEM_DS3505
ZBHH,2010-05-13 12:00,ZBHH 131200Z AUTO 22012KT 12SM 19/05 A2997 RMK SLP120 T01930050 52026 IEM_DS3505
ZBHH,2010-05-13 13:00,ZBHH 131300Z AUTO 25016G25KT 7SM 18/06 A3000 RMK T01800060 IEM_DS3505
ZBHH,2010-05-13 14:00,ZBHH 131400Z AUTO 24016KT 7SM 17/07 A3003 RMK T01700070 IEM_DS3505
ZBHH,2010-05-13 15:00,ZBHH 131500Z AUTO 22010KT 12SM 16/06 A3006 RMK SLP147 T01570064 52023 IEM_DS3505
ZBHH,2010-05-13 16:00,ZBHH 131600Z AUTO 24012KT 7SM 15/07 A3006 RMK T01500070 IEM_DS3505
ZBHH,2010-05-13 17:00,ZBHH 131700Z AUTO 24014KT 7SM 14/08 A3006 RMK T01400080 IEM_DS3505
ZBHH,2010-05-13 18:00,ZBHH 131800Z AUTO 22004KT 6SM 12/09 A3003 RMK SLP143 T01220094 57004 IEM_DS3505
ZBHH,2010-05-13 19:00,ZBHH 131900Z AUTO 22008KT 3SM 12/10 A3003 RMK T01200100 IEM_DS3505
ZBHH,2010-05-13 20:00,ZBHH 132000Z AUTO 19008KT 4SM 12/09 A3000 RMK T01200090 IEM_DS3505
ZBHH,2010-05-13 21:00,ZBHH 132100Z AUTO 22004KT 6SM 11/09 A3000 RMK 70002 SLP130 T01120089 57012 IEM_DS3505
ZBHH,2010-05-13 22:00,ZBHH 132200Z AUTO 21008KT 1SM 11/10 A3000 RMK T01100100 IEM_DS3505
ZBHH,2010-05-13 23:00,ZBHH 132300Z AUTO 20008KT 1SM 11/10 A3000 RMK T01100100 IEM_DS3505
ZBHH,2010-05-14 00:00,ZBHH 140000Z AUTO 22008KT 5SM 11/10 A3000 RMK 60016 70015 SLP141 T01130097 52002 IEM_DS3505
ZBHH,2010-05-14 01:00,ZBHH 140100Z AUTO 22006KT 1SM 11/10 A3000 RMK T01100100 IEM_DS3505
ZBHH,2010-05-14 02:00,ZBHH 140200Z AUTO 22008KT 1 1/4SM 12/11 A3000 RMK T01200110 IEM_DS3505
ZBHH,2010-05-14 03:00,ZBHH 140300Z AUTO 20004KT 6SM 12/11 A3000 RMK SLP149 T01220106 52002 IEM_DS3505
ZBHH,2010-05-14 04:00,ZBHH 140400Z AUTO 21008KT 1 1/2SM 13/12 A3000 RMK T01300120 IEM_DS3505
ZBHH,2010-05-14 05:00,ZBHH 140500Z AUTO 21008KT 2 1/2SM 13/12 A2997 RMK T01300120 IEM_DS3505
ZBHH,2010-05-14 06:00,ZBHH 140600Z AUTO 22004KT 7SM 16/10 A2997 RMK 60012 SLP132 T01590098 57015 IEM_DS3505
ZBHH,2010-05-14 07:00,ZBHH 140700Z AUTO 17006KT 5SM 16/11 A2994 RMK T01600110 IEM_DS3505
ZBHH,2010-05-14 08:00,ZBHH 140800Z AUTO 16004KT 5SM 16/11 A2994 RMK T01600110 IEM_DS3505
ZBHH,2010-05-14 09:00,ZBHH 140900Z AUTO 20004KT 7SM 18/09 A2994 RMK SLP118 T01780094 57011 IEM_DS3505
ZBHH,2010-05-14 10:00,ZBHH 141000Z AUTO 14006KT 5SM 17/10 A2991 RMK T01700100 IEM_DS3505
ZBHH,2010-05-14 11:00,ZBHH 141100Z AUTO 16004KT 5SM 16/10 A2991 RMK T01600100 IEM_DS3505
ZBHH,2010-05-14 12:00,ZBHH 141200Z AUTO 09002KT 7SM 16/09 A2994 RMK SLP125 T01600092 52003 IEM_DS3505
ZBHH,2010-05-14 13:00,ZBHH 141300Z AUTO 08004KT 4SM 14/11 A2994 RMK T01400110 IEM_DS3505
ZBHH,2010-05-14 14:00,ZBHH 141400Z AUTO 08002KT 4SM 14/11 A2997 RMK T01400110 IEM_DS3505
ZBHH,2010-05-14 15:00,ZBHH 141500Z AUTO 22002KT 9SM 14/10 A2997 RMK SLP142 T01440098 52014 IEM_DS3505
ZBHH,2010-05-14 16:00,ZBHH 141600Z AUTO 19004KT 3SM 13/11 A3000 RMK T01300110 IEM_DS3505
ZBHH,2010-05-14 17:00,ZBHH 141700Z AUTO 12002KT 3SM 13/11 A3000 RMK T01300110 IEM_DS3505
ZBHH,2010-05-14 18:00,ZBHH 141800Z AUTO 27002KT 6SM 14/10 A3000 RMK SLP139 T01370096 52003 IEM_DS3505
ZBHH,2010-05-14 19:00,ZBHH 141900Z AUTO 10002KT 4SM 13/10 A3000 RMK T01300100 IEM_DS3505
ZBHH,2010-05-14 20:00,ZBHH 142000Z AUTO 00000KT 4SM 13/10 A3000 RMK T01300100 IEM_DS3505
ZBHH,2010-05-14 21:00,ZBHH 142100Z AUTO 20002KT 7SM 13/09 A3000 RMK 70024 SLP137 T01280087 54000 IEM_DS3505
ZBHH,2010-05-14 22:00,ZBHH 142200Z AUTO 27002KT 2 1/2SM 12/10 A3000 RMK T01200100 IEM_DS3505
ZBHH,2010-05-14 23:00,ZBHH 142300Z AUTO 18002KT 2SM 12/11 A3000 RMK T01200110 IEM_DS3505
ZBHH,2010-05-15 00:00,ZBHH 150000Z AUTO 11002KT 6SM 14/09 A3003 RMK 70011 SLP152 T01440090 52013 IEM_DS3505
ZBHH,2010-05-15 01:00,ZBHH 150100Z AUTO 05002KT 3SM 16/10 A3003 RMK T01600100 IEM_DS3505
ZBHH,2010-05-15 02:00,ZBHH 150200Z AUTO 06002KT 3SM 18/11 A3000 RMK T01800110 IEM_DS3505
ZBHH,2010-05-15 03:00,ZBHH 150300Z AUTO 04004KT 3SM 19/09 A2997 RMK SLP129 T01870089 57015 IEM_DS3505
ZBHH,2010-05-15 04:00,ZBHH 150400Z AUTO 18004KT 6SM 21/07 A2997 RMK T02100070 IEM_DS3505
ZBHH,2010-05-15 05:00,ZBHH 150500Z AUTO 16004KT 7SM 22/07 A2991 RMK T02200070 IEM_DS3505
ZBHH,2010-05-15 06:00,ZBHH 150600Z AUTO 14004G19KT 9SM 24/04 A2988 RMK SLP085 T02380037 57031 IEM_DS3505
ZBHH,2010-05-15 07:00,ZBHH 150700Z AUTO 14014KT 7SM 24/00 A2985 RMK T02400000 IEM_DS3505
ZBHH,2010-05-15 08:00,ZBHH 150800Z AUTO 14010KT 7SM 24/00 A2985 RMK T02400000 IEM_DS3505
ZBHH,2010-05-15 09:00,ZBHH 150900Z AUTO 11006KT 12SM 25/M04 A2985 RMK SLP066 T02491044 57016 IEM_DS3505
ZBHH,2010-05-15 10:00,ZBHH 151000Z AUTO 13012KT 7SM 24/M03 A2983 RMK T02401030 IEM_DS3505
ZBHH,2010-05-15 11:00,ZBHH 151100Z AUTO 11010KT 7SM 23/M01 A2983 RMK T02301010 IEM_DS3505
ZBHH,2010-05-15 12:00,ZBHH 151200Z AUTO 09008KT 7SM 22/M03 A2985 RMK SLP072 T02211033 52003 IEM_DS3505
ZBHH,2010-05-15 13:00,ZBHH 151300Z AUTO 08008KT 7SM 19/01 A2985 RMK T01900010 IEM_DS3505
ZBHH,2010-05-15 14:00,ZBHH 151400Z AUTO 11006KT 7SM 19/02 A2988 RMK T01900020 IEM_DS3505
ZBHH,2010-05-15 15:00,ZBHH 151500Z AUTO 11004KT 9SM 20/01 A2988 RMK SLP082 T02030007 52014 IEM_DS3505
ZBHH,2010-05-15 16:00,ZBHH 151600Z AUTO 14008KT 7SM 19/04 A2988 RMK T01900040 IEM_DS3505
ZBHH,2010-05-15 17:00,ZBHH 151700Z AUTO 16008KT 7SM 18/05 A2988 RMK T01800050 IEM_DS3505
ZBHH,2010-05-15 18:00,ZBHH 151800Z AUTO 22006KT 9SM 17/10 A2988 RMK SLP081 T01720101 52002 IEM_DS3505
ZBHH,2010-05-15 19:00,ZBHH 151900Z AUTO 24008KT 4SM 16/11 A2988 RMK T01600110 IEM_DS3505
ZBHH,2010-05-15 20:00,ZBHH 152000Z AUTO 24010KT 2 1/2SM 16/12 A2988 RMK T01600120 IEM_DS3505
ZBHH,2010-05-15 21:00,ZBHH 152100Z AUTO 22008KT 6SM 15/11 A2988 RMK SLP083 T01460108 57001 IEM_DS3505
ZBHH,2010-05-15 22:00,ZBHH 152200Z AUTO 24010KT 2 1/2SM 13/11 A2991 RMK T01300110 IEM_DS3505
ZBHH,2010-05-15 23:00,ZBHH 152300Z AUTO 24008KT 1SM 12/11 A2991 RMK T01200110 IEM_DS3505
ZBHH,2010-05-16 00:00,ZBHH 160000Z AUTO 18006KT 6SM 13/09 A2994 RMK 60004 70005 SLP106 T01270088 52012 IEM_DS3505
ZBHH,2010-05-16 01:00,ZBHH 160100Z AUTO 14010KT 4SM 13/09 A2991 RMK T01300090 IEM_DS3505
ZBHH,2010-05-16 02:00,ZBHH 160200Z AUTO 15014KT 7SM 14/08 A2991 RMK T01400080 IEM_DS3505
ZBHH,2010-05-16 03:00,ZBHH 160300Z AUTO 09004KT 9SM 15/07 A2991 RMK SLP100 T01470070 57005 IEM_DS3505
ZBHH,2010-05-16 04:00,ZBHH 160400Z AUTO 16012KT 7SM 14/07 A2991 RMK T01400070 IEM_DS3505
ZBHH,2010-05-16 05:00,ZBHH 160500Z AUTO 17012KT 7SM 14/06 A2991 RMK T01400060 IEM_DS3505
ZBHH,2010-05-16 06:00,ZBHH 160600Z AUTO 18006KT 9SM 14/04 A2988 RMK 60000 SLP101 T01420045 57006 IEM_DS3505
ZBHH,2010-05-16 07:00,ZBHH 160700Z AUTO 25006KT 7SM 14/05 A2988 RMK T01400050 IEM_DS3505
ZBHH,2010-05-16 08:00,ZBHH 160800Z AUTO 13004KT 7SM 14/06 A2988 RMK T01400060 IEM_DS3505
ZBHH,2010-05-16 09:00,ZBHH 160900Z AUTO 20002KT 7SM 15/05 A2988 RMK SLP099 T01460046 57006 IEM_DS3505
ZBHH,2010-05-16 10:00,ZBHH 161000Z AUTO 22002KT 7SM 14/08 A2988 RMK T01400080 IEM_DS3505
ZBHH,2010-05-16 11:00,ZBHH 161100Z AUTO 18004KT 4SM 13/08 A2988 RMK T01300080 IEM_DS3505
ZBHH,2010-05-16 12:00,ZBHH 161200Z AUTO 20004KT 6SM 14/06 A2988 RMK SLP111 T01410065 52006 IEM_DS3505
ZBHH,2010-05-16 13:00,ZBHH 161300Z AUTO 20006KT 4SM 13/09 A2991 RMK T01300090 IEM_DS3505
ZBHH,2010-05-16 14:00,ZBHH 161400Z AUTO 23004KT 4SM 12/09 A2994 RMK T01200090 IEM_DS3505
ZBHH,2010-05-16 15:00,ZBHH 161500Z AUTO 22002KT 6SM 12/10 A2994 RMK SLP125 T01170098 52012 IEM_DS3505
ZBHH,2010-05-16 16:00,ZBHH 161600Z AUTO 18006KT 1SM 11/10 A2991 RMK T01100100 IEM_DS3505
ZBHH,2010-05-16 17:00,ZBHH 161700Z AUTO 19002KT 1 1/4SM 11/11 A2991 RMK T01100110 IEM_DS3505
ZBHH,2010-05-16 18:00,ZBHH 161800Z AUTO 00000KT 6SM 12/10 A2988 RMK 60001 SLP115 T01180097 57010 IEM_DS3505
ZBHH,2010-05-16 19:00,ZBHH 161900Z AUTO 12002KT 1 1/2SM 11/10 A2988 RMK T01100100 IEM_DS3505
ZBHH,2010-05-16 20:00,ZBHH 162000Z AUTO 09002KT 1 1/2SM 11/11 A2985 RMK T01100110 IEM_DS3505
ZBHH,2010-05-16 21:00,ZBHH 162100Z AUTO 32002KT 6SM 12/10 A2988 RMK 70006 SLP104 T01180097 57009 IEM_DS3505
ZBHH,2010-05-16 22:00,ZBHH 162200Z AUTO 22004KT 3/8SM 10/10 A2988 RMK T01000100 IEM_DS3505
ZBHH,2010-05-16 23:00,ZBHH 162300Z AUTO 19004KT 1/2SM 10/10 A2991 RMK T01000100 IEM_DS3505
ZBHH,2010-05-17 00:00,ZBHH 170000Z AUTO 20002KT 4SM 13/09 A2991 RMK 70001 SLP118 T01310094 52014 IEM_DS3505
ZBHH,2010-05-17 01:00,ZBHH 170100Z AUTO 19002KT 1 1/4SM 13/10 A2991 RMK T01300100 IEM_DS3505
ZBHH,2010-05-17 02:00,ZBHH 170200Z AUTO 19002KT 1 1/4SM 14/11 A2991 RMK T01400110 IEM_DS3505
ZBHH,2010-05-17 03:00,ZBHH 170300Z AUTO 22002KT 4SM 15/09 A2988 RMK SLP112 T01460088 57007 IEM_DS3505
ZBHH,2010-05-17 04:00,ZBHH 170400Z AUTO 25006KT 1 1/2SM 16/10 A2988 RMK T01600100 IEM_DS3505
ZBHH,2010-05-17 05:00,ZBHH 170500Z AUTO 24004KT 2SM 17/08 A2985 RMK T01700080 IEM_DS3505
ZBHH,2010-05-17 06:00,ZBHH 170600Z AUTO 18004KT 4SM 19/07 A2983 RMK SLP081 T01910069 57019 IEM_DS3505
ZBHH,2010-05-17 07:00,ZBHH 170700Z AUTO 22002KT 4SM 19/05 A2983 RMK T01900050 IEM_DS3505
ZBHH,2010-05-17 08:00,ZBHH 170800Z AUTO 25012KT 3SM 18/07 A2983 RMK T01800070 IEM_DS3505
ZBHH,2010-05-17 09:00,ZBHH 170900Z AUTO 32014G29KT 7SM 14/04 A2983 RMK SLP097 T01380041 52004 IEM_DS3505
ZBHH,2010-05-17 10:00,ZBHH 171000Z AUTO 34019KT 7SM 12/04 A2988 RMK T01200040 IEM_DS3505
ZBHH,2010-05-17 11:00,ZBHH 171100Z AUTO 36010KT 7SM 11/06 A2988 RMK T01100060 IEM_DS3505
ZBHH,2010-05-17 12:00,ZBHH 171200Z AUTO 29004KT 9SM 10/06 A2991 RMK 60004 SLP130 T00960056 52024 IEM_DS3505
ZBHH,2010-05-17 13:00,ZBHH 171300Z AUTO 27004KT 7SM 09/07 A2994 RMK T00900070 IEM_DS3505
ZBHH,2010-05-17 14:00,ZBHH 171400Z AUTO 29010KT 5SM 09/07 A2994 RMK T00900070 IEM_DS3505
ZBHH,2010-05-17 15:00,ZBHH 171500Z 30003MPS 250V360 8000 -SHRA BKN033 FEW033CB 07/04 Q1015 NOSIG
ZBHH,2010-05-17 16:00,ZBHH 171600Z AUTO 11010KT 7SM 06/04 A2988 RMK T00600040 IEM_DS3505
ZBHH,2010-05-17 17:00,ZBHH 171700Z AUTO 22004KT 7SM 07/04 A2991 RMK T00700040 IEM_DS3505
ZBHH,2010-05-17 18:00,ZBHH 171800Z AUTO 18002KT 16SM 07/03 A2988 RMK 60020 SLP115 T00680034 57016 IEM_DS3505
ZBHH,2010-05-17 19:00,ZBHH 171900Z AUTO 19004KT 7SM 06/04 A2988 RMK T00600040 IEM_DS3505
ZBHH,2010-05-17 20:00,ZBHH 172000Z AUTO 09002KT 7SM 06/04 A2985 RMK T00600040 IEM_DS3505
ZBHH,2010-05-17 21:00,ZBHH 172100Z AUTO 22004KT 12SM 07/04 A2983 RMK 70024 SLP105 T00710044 57019 IEM_DS3505
ZBHH,2010-05-17 22:00,ZBHH 172200Z AUTO 19002KT 7SM 07/05 A2983 RMK T00700050 IEM_DS3505
ZBHH,2010-05-17 23:00,ZBHH 172300Z AUTO 20008KT 7SM 07/04 A2983 RMK T00700040 IEM_DS3505
ZBHH,2010-05-18 00:00,ZBHH 180000Z AUTO 20004KT 9SM 07/04 A2980 RMK 70024 SLP102 T00730035 57010 IEM_DS3505
ZBHH,2010-05-18 01:00,ZBHH 180100Z AUTO 24010KT 7SM 08/04 A2980 RMK T00800040 IEM_DS3505
ZBHH,2010-05-18 02:00,ZBHH 180200Z AUTO 24012KT 7SM 10/06 A2977 RMK T01000060 IEM_DS3505
ZBHH,2010-05-18 03:00,ZBHH 180300Z AUTO 16004KT 6SM 09/05 A2977 RMK SLP085 T00940054 57017 IEM_DS3505
ZBHH,2010-05-18 04:00,ZBHH 180400Z AUTO 25008KT 3SM 11/06 A2974 RMK T01100060 IEM_DS3505
ZBHH,2010-05-18 05:00,ZBHH 180500Z AUTO 28014KT 7SM 12/06 A2971 RMK T01200060 IEM_DS3505
ZBHH,2010-05-18 06:00,ZBHH 180600Z AUTO 22006KT 9SM 13/04 A2968 RMK 60003 SLP058 T01270044 57017 IEM_DS3505
ZBHH,2010-05-18 07:00,ZBHH 180700Z AUTO 29017KT 7SM 14/03 A2968 RMK T01400030 IEM_DS3505
ZBHH,2010-05-18 08:00,ZBHH 180800Z AUTO 31014KT 7SM 15/03 A2968 RMK T01500030 IEM_DS3505
ZBHH,2010-05-18 09:00,ZBHH 180900Z AUTO 22006KT 9SM 14/04 A2965 RMK SLP038 T01410038 57014 IEM_DS3505
ZBHH,2010-05-18 10:00,ZBHH 181000Z AUTO 24012KT 7SM 15/05 A2965 RMK T01500050 IEM_DS3505
ZBHH,2010-05-18 11:00,ZBHH 181100Z AUTO 25010KT 7SM 15/04 A2965 RMK T01500040 IEM_DS3505
ZBHH,2010-05-18 12:00,ZBHH 181200Z AUTO 29004KT 19SM 16/M02 A2968 RMK 60000 SLP046 T01621023 52011 IEM_DS3505
ZBHH,2010-05-18 13:00,ZBHH 181300Z AUTO 30006KT 6SM 14/00 A2971 RMK T01400000 IEM_DS3505
ZBHH,2010-05-18 14:00,ZBHH 181400Z AUTO 30006KT 6SM 14/M01 A2974 RMK T01401010 IEM_DS3505
ZBHH,2010-05-18 15:00,ZBHH 181500Z AUTO 29006KT 19SM 13/M01 A2977 RMK SLP074 T01291007 52023 IEM_DS3505
ZBHH,2010-05-18 16:00,ZBHH 181600Z AUTO 34004KT 6SM 10/02 A2977 RMK T01000020 IEM_DS3505
ZBHH,2010-05-18 17:00,ZBHH 181700Z AUTO 36002KT 6SM 09/02 A2977 RMK T00900020 IEM_DS3505
ZBHH,2010-05-18 18:00,ZBHH 181800Z AUTO 36002KT 19SM 12/M03 A2977 RMK SLP074 T01151030 52003 IEM_DS3505
ZBHH,2010-05-18 19:00,ZBHH 181900Z AUTO 06004KT 6SM 06/03 A2980 RMK T00600030 IEM_DS3505
ZBHH,2010-05-18 20:00,ZBHH 182000Z AUTO 06004KT 6SM 05/03 A2980 RMK T00500030 IEM_DS3505
ZBHH,2010-05-18 21:00,ZBHH 182100Z AUTO 14002KT 19SM 06/02 A2980 RMK 70003 SLP092 T00610016 52008 IEM_DS3505
ZBHH,2010-05-18 22:00,ZBHH 182200Z AUTO 07004KT 6SM 05/02 A2980 RMK T00500020 IEM_DS3505
ZBHH,2010-05-18 23:00,ZBHH 182300Z AUTO 10004KT 6SM 08/04 A2980 RMK T00800040 IEM_DS3505
ZBHH,2010-05-19 00:00,ZBHH 190000Z AUTO 04002KT 16SM 11/03 A2983 RMK 70003 SLP081 T01130026 52005 IEM_DS3505
ZBHH,2010-05-19 01:00,ZBHH 190100Z AUTO 16004KT 6SM 12/05 A2983 RMK T01200050 IEM_DS3505
ZBHH,2010-05-19 02:00,ZBHH 190200Z AUTO 22004KT 6SM 14/05 A2980 RMK T01400050 IEM_DS3505
ZBHH,2010-05-19 03:00,ZBHH 190300Z AUTO 20006KT 7SM 17/04 A2980 RMK SLP070 T01680038 57006 IEM_DS3505
ZBHH,2010-05-19 04:00,ZBHH 190400Z AUTO 26006KT 7SM 19/05 A2977 RMK T01900050 IEM_DS3505
ZBHH,2010-05-19 05:00,ZBHH 190500Z AUTO 25012KT 7SM 23/01 A2974 RMK T02300010 IEM_DS3505
ZBHH,2010-05-19 06:00,ZBHH 190600Z AUTO 29006KT 19SM 24/M07 A2974 RMK SLP036 T02451067 57018 IEM_DS3505
ZBHH,2010-05-19 07:00,ZBHH 190700Z AUTO 26014G23KT 7SM 25/M06 A2971 RMK T02501060 IEM_DS3505
ZBHH,2010-05-19 08:00,ZBHH 190800Z AUTO 25014KT 7SM 25/M06 A2971 RMK T02501060 IEM_DS3505
ZBHH,2010-05-19 09:00,ZBHH 190900Z AUTO 22012KT 19SM 25/M06 A2971 RMK SLP042 T02481065 57004 IEM_DS3505
ZBHH,2010-05-19 10:00,ZBHH 191000Z AUTO 23019KT 7SM 23/M05 A2971 RMK T02301050 IEM_DS3505
ZBHH,2010-05-19 11:00,ZBHH 191100Z AUTO 24016KT 7SM 22/M05 A2974 RMK T02201050 IEM_DS3505
ZBHH,2010-05-19 12:00,ZBHH 191200Z AUTO 25006KT 19SM 21/M06 A2977 RMK SLP052 T02091058 52011 IEM_DS3505
ZBHH,2010-05-19 13:00,ZBHH 191300Z AUTO 27006KT 6SM 18/M01 A2977 RMK T01801010 IEM_DS3505
ZBHH,2010-05-19 14:00,ZBHH 191400Z AUTO 10006KT 6SM 15/01 A2980 RMK T01500010 IEM_DS3505
ZBHH,2010-05-19 15:00,ZBHH 191500Z AUTO 09006KT 19SM 17/M02 A2980 RMK SLP061 T01681023 52011 IEM_DS3505
ZBHH,2010-05-19 16:00,ZBHH 191600Z AUTO 06004KT 6SM 12/03 A2980 RMK T01200030 IEM_DS3505
ZBHH,2010-05-19 17:00,ZBHH 191700Z AUTO 02004KT 6SM 12/01 A2983 RMK T01200010 IEM_DS3505
ZBHH,2010-05-19 18:00,ZBHH 191800Z AUTO 00000KT 12SM 11/M00 A2983 RMK SLP066 T01141001 52009 IEM_DS3505
ZBHH,2010-05-19 19:00,ZBHH 191900Z AUTO 06004KT 6SM 10/02 A2983 RMK T01000020 IEM_DS3505
ZBHH,2010-05-19 20:00,ZBHH 192000Z AUTO 06004KT 6SM 08/02 A2985 RMK T00800020 IEM_DS3505
ZBHH,2010-05-19 21:00,ZBHH 192100Z AUTO 16002KT 19SM 09/00 A2985 RMK SLP083 T00900002 52011 IEM_DS3505
ZBHH,2010-05-19 22:00,ZBHH 192200Z AUTO 07006KT 6SM 08/03 A2985 RMK T00800030 IEM_DS3505
ZBHH,2010-05-19 23:00,ZBHH 192300Z AUTO 06004KT 6SM 12/03 A2988 RMK T01200030 IEM_DS3505
ZBHH,2010-05-20 00:00,ZBHH 200000Z AUTO 11002KT 19SM 16/M02 A2988 RMK SLP089 T01591021 52011 IEM_DS3505
ZBHH,2010-05-20 01:00,ZBHH 200100Z AUTO 13002KT 6SM 18/M02 A2988 RMK T01801020 IEM_DS3505
ZBHH,2010-05-20 02:00,ZBHH 200200Z AUTO 15004KT 6SM 19/M02 A2988 RMK T01901020 IEM_DS3505
ZBHH,2010-05-20 03:00,ZBHH 200300Z AUTO 18004KT 19SM 21/M03 A2988 RMK SLP084 T02091029 57003 IEM_DS3505
ZBHH,2010-05-20 04:00,ZBHH 200400Z AUTO 24008KT 6SM 22/M03 A2985 RMK T02201030 IEM_DS3505
ZBHH,2010-05-20 05:00,ZBHH 200500Z AUTO 25008KT 6SM 24/M02 A2985 RMK T02401020 IEM_DS3505
ZBHH,2010-05-20 06:00,ZBHH 200600Z AUTO 22008KT 16SM 26/M07 A2983 RMK SLP065 T02591068 57018 IEM_DS3505
ZBHH,2010-05-20 07:00,ZBHH 200700Z AUTO 24016KT 6SM 27/M06 A2980 RMK T02701060 IEM_DS3505
ZBHH,2010-05-20 08:00,ZBHH 200800Z AUTO 23014KT 6SM 27/M06 A2980 RMK T02701060 IEM_DS3505
ZBHH,2010-05-20 09:00,ZBHH 200900Z AUTO 25008KT 16SM 27/M10 A2980 RMK SLP056 T02721099 57010 IEM_DS3505
ZBHH,2010-05-20 10:00,ZBHH 201000Z AUTO 24008G17KT 6SM 27/M09 A2980 RMK T02701090 IEM_DS3505
ZBHH,2010-05-20 11:00,ZBHH 201100Z AUTO 22004KT 7SM 24/M04 A2980 RMK T02401040 IEM_DS3505
ZBHH,2010-05-20 12:00,ZBHH 201200Z AUTO 27002KT 12SM 22/M08 A2983 RMK SLP061 T02181078 52008 IEM_DS3505
ZBHH,2010-05-20 13:00,ZBHH 201300Z AUTO 02004KT 7SM 21/M04 A2985 RMK T02101040 IEM_DS3505
ZBHH,2010-05-20 14:00,ZBHH 201400Z AUTO 07004KT 7SM 19/00 A2988 RMK T01900000 IEM_DS3505
ZBHH,2010-05-20 15:00,ZBHH 201500Z AUTO 18002KT 12SM 19/M05 A2988 RMK SLP076 T01901051 52017 IEM_DS3505
ZBHH,2010-05-20 16:00,ZBHH 201600Z AUTO 04006KT 7SM 17/01 A2988 RMK T01700010 IEM_DS3505
ZBHH,2010-05-20 17:00,ZBHH 201700Z AUTO 06004KT 7SM 17/00 A2991 RMK T01700000 IEM_DS3505
ZBHH,2010-05-20 18:00,ZBHH 201800Z AUTO 20004KT 12SM 21/M04 A2991 RMK SLP070 T02061038 52007 IEM_DS3505
ZBHH,2010-05-20 19:00,ZBHH 201900Z AUTO 08006KT 7SM 14/04 A2991 RMK T01400040 IEM_DS3505
ZBHH,2010-05-20 20:00,ZBHH 202000Z AUTO 06004KT 7SM 15/02 A2988 RMK T01500020 IEM_DS3505
ZBHH,2010-05-20 21:00,ZBHH 202100Z AUTO 07002KT 12SM 16/M01 A2988 RMK SLP076 T01551007 57002 IEM_DS3505
ZBHH,2010-05-20 22:00,ZBHH 202200Z AUTO 08008KT 7SM 13/04 A2988 RMK T01300040 IEM_DS3505
ZBHH,2010-05-20 23:00,ZBHH 202300Z AUTO 08004KT 7SM 15/04 A2991 RMK T01500040 IEM_DS3505
ZBHH,2010-05-21 00:00,ZBHH 210000Z AUTO 16002KT 12SM 18/M00 A2991 RMK SLP094 T01841004 52011 IEM_DS3505
ZBHH,2010-05-21 01:00,ZBHH 210100Z AUTO 18002KT 6SM 19/03 A2994 RMK T01900030 IEM_DS3505
ZBHH,2010-05-21 02:00,ZBHH 210200Z AUTO 34002KT 6SM 20/02 A2994 RMK T02000020 IEM_DS3505
ZBHH,2010-05-21 03:00,ZBHH 210300Z AUTO 25004KT 9SM 23/M04 A2991 RMK SLP088 T02321040 57001 IEM_DS3505
ZBHH,2010-05-21 04:00,ZBHH 210400Z AUTO 21006KT 7SM 24/01 A2991 RMK T02400010 IEM_DS3505
ZBHH,2010-05-21 05:00,ZBHH 210500Z AUTO 24008KT 7SM 25/M01 A2988 RMK T02501010 IEM_DS3505
ZBHH,2010-05-21 06:00,ZBHH 210600Z AUTO 18008KT 19SM 27/M02 A2985 RMK SLP052 T02691019 57022 IEM_DS3505
ZBHH,2010-05-21 07:00,ZBHH 210700Z AUTO 22008KT 7SM 27/M01 A2983 RMK T02701010 IEM_DS3505
ZBHH,2010-05-21 08:00,ZBHH 210800Z AUTO 7SM 27/M01 A2980 RMK T02701010 IEM_DS3505
ZBHH,2010-05-21 09:00,ZBHH 210900Z AUTO 20004KT 19SM 28/M03 A2980 RMK SLP040 T02751033 57019 IEM_DS3505
ZBHH,2010-05-21 10:00,ZBHH 211000Z AUTO 21008KT 7SM 26/M01 A2977 RMK T02601010 IEM_DS3505
ZBHH,2010-05-21 11:00,ZBHH 211100Z AUTO 23008KT 7SM 25/00 A2980 RMK T02500000 IEM_DS3505
ZBHH,2010-05-21 12:00,ZBHH 211200Z AUTO 25002KT 12SM 24/M03 A2980 RMK SLP038 T02441030 57002 IEM_DS3505
ZBHH,2010-05-21 13:00,ZBHH 211300Z AUTO 15004KT 6SM 21/02 A2980 RMK T02100020 IEM_DS3505
ZBHH,2010-05-21 14:00,ZBHH 211400Z AUTO 05006KT 6SM 18/04 A2980 RMK T01800040 IEM_DS3505
ZBHH,2010-05-21 15:00,ZBHH 211500Z AUTO 04002KT 12SM 18/01 A2983 RMK SLP053 T01850006 52011 IEM_DS3505
ZBHH,2010-05-21 16:00,ZBHH 211600Z AUTO 07004KT 6SM 16/03 A2983 RMK T01600030 IEM_DS3505
ZBHH,2010-05-21 17:00,ZBHH 211700Z AUTO 08004KT 6SM 14/05 A2983 RMK T01400050 IEM_DS3505
ZBHH,2010-05-21 18:00,ZBHH 211800Z AUTO 02002KT 12SM 16/01 A2980 RMK SLP045 T01640013 57004 IEM_DS3505
ZBHH,2010-05-21 19:00,ZBHH 211900Z AUTO 04004KT 6SM 13/05 A2980 RMK T01300050 IEM_DS3505
ZBHH,2010-05-21 20:00,ZBHH 212000Z AUTO 05004KT 6SM 13/04 A2980 RMK T01300040 IEM_DS3505
ZBHH,2010-05-21 21:00,ZBHH 212100Z AUTO 02002KT 12SM 13/04 A2980 RMK SLP051 T01340035 52001 IEM_DS3505
ZBHH,2010-05-21 22:00,ZBHH 212200Z AUTO 06006KT 6SM 13/04 A2980 RMK T01300040 IEM_DS3505
ZBHH,2010-05-21 23:00,ZBHH 212300Z AUTO 07004KT 6SM 16/05 A2983 RMK T01600050 IEM_DS3505
ZBHH,2010-05-22 00:00,ZBHH 220000Z AUTO 20002KT 9SM 19/02 A2983 RMK SLP053 T01920021 52006 IEM_DS3505
ZBHH,2010-05-22 01:00,ZBHH 220100Z AUTO 23004KT 7SM 21/03 A2983 RMK T02100030 IEM_DS3505
ZBHH,2010-05-22 02:00,ZBHH 220200Z AUTO 28002KT 7SM 23/03 A2980 RMK T02300030 IEM_DS3505
ZBHH,2010-05-22 03:00,ZBHH 220300Z AUTO 22004KT 9SM 24/01 A2980 RMK SLP043 T02390009 57011 IEM_DS3505
ZBHH,2010-05-22 04:00,ZBHH 220400Z AUTO 23008KT 7SM 26/03 A2977 RMK T02600030 IEM_DS3505
ZBHH,2010-05-22 05:00,ZBHH 220500Z AUTO 01014KT 7SM 27/M03 A2974 RMK T02701030 IEM_DS3505
ZBHH,2010-05-22 06:00,ZBHH 220600Z AUTO 04006KT 19SM 26/M04 A2974 RMK SLP022 T02631043 57018 IEM_DS3505
ZBHH,2010-05-22 07:00,ZBHH 220700Z AUTO 09010KT 7SM 25/M01 A2974 RMK T02501010 IEM_DS3505
ZBHH,2010-05-22 08:00,ZBHH 220800Z AUTO 18014KT 7SM 26/01 A2974 RMK T02600010 IEM_DS3505
ZBHH,2010-05-22 09:00,ZBHH 220900Z AUTO 07004KT 19SM 26/M02 A2974 RMK SLP023 T02631015 57004 IEM_DS3505
ZBHH,2010-05-22 10:00,ZBHH 221000Z AUTO 19004KT 7SM 26/M02 A2971 RMK T02601020 IEM_DS3505
ZBHH,2010-05-22 11:00,ZBHH 221100Z AUTO 18006KT 7SM 25/M01 A2971 RMK T02501010 IEM_DS3505
ZBHH,2010-05-22 12:00,ZBHH 221200Z AUTO 25004KT 19SM 24/M01 A2974 RMK SLP023 T02361007 52005 IEM_DS3505
ZBHH,2010-05-22 13:00,ZBHH 221300Z AUTO 03002KT 6SM 21/02 A2977 RMK T02100020 IEM_DS3505
ZBHH,2010-05-22 14:00,ZBHH 221400Z AUTO 05006KT 6SM 17/03 A2977 RMK T01700030 IEM_DS3505
ZBHH,2010-05-22 15:00,ZBHH 221500Z AUTO 09006KT 19SM 19/01 A2977 RMK SLP032 T01870008 52008 IEM_DS3505
ZBHH,2010-05-22 16:00,ZBHH 221600Z AUTO 06004KT 6SM 15/03 A2977 RMK T01500030 IEM_DS3505
ZBHH,2010-05-22 17:00,ZBHH 221700Z AUTO 04004KT 6SM 15/03 A2977 RMK T01500030 IEM_DS3505
ZBHH,2010-05-22 18:00,ZBHH 221800Z AUTO 32002KT 19SM 14/03 A2974 RMK SLP033 T01440026 57003 IEM_DS3505
ZBHH,2010-05-22 19:00,ZBHH 221900Z AUTO 05006KT 6SM 13/04 A2974 RMK T01300040 IEM_DS3505
ZBHH,2010-05-22 20:00,ZBHH 222000Z AUTO 05002KT 6SM 12/04 A2974 RMK T01200040 IEM_DS3505
ZBHH,2010-05-22 21:00,ZBHH 222100Z AUTO 00000KT 12SM 12/03 A2974 RMK SLP032 T01250032 57004 IEM_DS3505
ZBHH,2010-05-22 22:00,ZBHH 222200Z AUTO 09002KT 6SM 12/05 A2977 RMK T01200050 IEM_DS3505
ZBHH,2010-05-22 23:00,ZBHH 222300Z AUTO 09004KT 6SM 15/05 A2977 RMK T01500050 IEM_DS3505
ZBHH,2010-05-23 00:00,ZBHH 230000Z AUTO 11002KT 19SM 19/02 A2977 RMK SLP035 T01900015 52010 IEM_DS3505
ZBHH,2010-05-23 01:00,ZBHH 230100Z AUTO 20004KT 6SM 20/03 A2977 RMK T02000030 IEM_DS3505
ZBHH,2010-05-23 02:00,ZBHH 230200Z AUTO 6SM 22/04 A2977 RMK T02200040 IEM_DS3505
ZBHH,2010-05-23 03:00,ZBHH 230300Z AUTO 20004KT 12SM 24/02 A2974 RMK SLP026 T02370025 57009 IEM_DS3505
ZBHH,2010-05-23 04:00,ZBHH 230400Z AUTO 24008KT 6SM 25/04 A2971 RMK T02500040 IEM_DS3505
ZBHH,2010-05-23 05:00,ZBHH 230500Z AUTO 24012KT 6SM 27/03 A2968 RMK T02700030 IEM_DS3505
ZBHH,2010-05-23 06:00,ZBHH 230600Z AUTO 34006G37KT 9SM 22/05 A2971 RMK SLP041 T02180048 52002 IEM_DS3505
ZBHH,2010-05-23 07:00,ZBHH 230700Z AUTO 26006KT 7SM 23/06 A2974 RMK T02300060 IEM_DS3505
ZBHH,2010-05-23 08:00,ZBHH 230800Z AUTO 35008KT 7SM 26/01 A2971 RMK T02600010 IEM_DS3505
ZBHH,2010-05-23 09:00,ZBHH 230900Z AUTO 29008KT 9SM 27/M02 A2968 RMK SLP012 T02661021 57020 IEM_DS3505
ZBHH,2010-05-23 10:00,ZBHH 231000Z AUTO 35017KT 2 1/2SM 25/01 A2971 RMK T02500010 IEM_DS3505
ZBHH,2010-05-23 11:00,ZBHH 231100Z AUTO 36012KT 4SM 23/01 A2974 RMK T02300010 IEM_DS3505
ZBHH,2010-05-23 12:00,ZBHH 231200Z AUTO 36006KT 16SM 22/00 A2977 RMK 60000 SLP033 T02210000 52022 IEM_DS3505
ZBHH,2010-05-23 13:00,ZBHH 231300Z AUTO 02008KT 7SM 21/03 A2980 RMK T02100030 IEM_DS3505
ZBHH,2010-05-23 14:00,ZBHH 231400Z AUTO 01010KT 7SM 20/M01 A2980 RMK T02001010 IEM_DS3505
ZBHH,2010-05-23 15:00,ZBHH 231500Z AUTO 36006KT 19SM 19/M04 A2980 RMK SLP051 T01891039 52019 IEM_DS3505
ZBHH,2010-05-23 16:00,ZBHH 231600Z AUTO 36012KT 7SM 18/M03 A2983 RMK T01801030 IEM_DS3505
ZBHH,2010-05-23 17:00,ZBHH 231700Z AUTO 35006KT 7SM 15/M03 A2983 RMK T01501030 IEM_DS3505
ZBHH,2010-05-23 18:00,ZBHH 231800Z AUTO 27004KT 16SM 16/M04 A2985 RMK SLP069 T01591036 52007 IEM_DS3505
ZBHH,2010-05-23 19:00,ZBHH 231900Z AUTO 06004KT 7SM 14/M02 A2985 RMK T01401020 IEM_DS3505
ZBHH,2010-05-23 20:00,ZBHH 232000Z AUTO 06010KT 6SM 13/M04 A2988 RMK T01301040 IEM_DS3505
ZBHH,2010-05-23 21:00,ZBHH 232100Z AUTO 07004KT 19SM 12/M04 A2988 RMK 70001 SLP085 T01171044 52015 IEM_DS3505
ZBHH,2010-05-23 22:00,ZBHH 232200Z AUTO 08012KT 6SM 11/M03 A2991 RMK T01101030 IEM_DS3505
ZBHH,2010-05-23 23:00,ZBHH 232300Z AUTO 09012KT 6SM 13/M05 A2994 RMK T01301050 IEM_DS3505
ZBHH,2010-05-24 00:00,ZBHH 240000Z AUTO 14002KT 19SM 15/M06 A2997 RMK 70001 SLP112 T01471056 52021 IEM_DS3505
ZBHH,2010-05-24 01:00,ZBHH 240100Z AUTO 01004KT 6SM 15/M06 A2997 RMK T01501060 IEM_DS3505
ZBHH,2010-05-24 02:00,ZBHH 240200Z AUTO 12004KT 6SM 17/M07 A2994 RMK T01701070 IEM_DS3505
ZBHH,2010-05-24 03:00,ZBHH 240300Z AUTO 11002KT 19SM 20/M07 A2994 RMK SLP098 T01951070 57009 IEM_DS3505
ZBHH,2010-05-24 04:00,ZBHH 240400Z AUTO 12004KT 6SM 21/M10 A2991 RMK T02101100 IEM_DS3505
ZBHH,2010-05-24 05:00,ZBHH 240500Z AUTO 6SM 23/M10 A2988 RMK T02301100 IEM_DS3505
ZBHH,2010-05-24 06:00,ZBHH 240600Z AUTO 11004KT 19SM 24/M11 A2988 RMK SLP079 T02431106 57014 IEM_DS3505
ZBHH,2010-05-24 07:00,ZBHH 240700Z AUTO 10012KT 6SM 25/M12 A2985 RMK T02501120 IEM_DS3505
ZBHH,2010-05-24 08:00,ZBHH 240800Z AUTO 09012KT 6SM 25/M15 A2985 RMK T02501150 IEM_DS3505
ZBHH,2010-05-24 09:00,ZBHH 240900Z AUTO 07004KT 19SM 25/M11 A2985 RMK SLP072 T02521114 57012 IEM_DS3505
ZBHH,2010-05-24 10:00,ZBHH 241000Z AUTO 09014KT 6SM 23/M09 A2985 RMK T02301090 IEM_DS3505
ZBHH,2010-05-24 11:00,ZBHH 241100Z AUTO 08014KT 6SM 21/M09 A2985 RMK T02101090 IEM_DS3505
ZBHH,2010-05-24 12:00,ZBHH 241200Z AUTO 09008KT 19SM 21/M11 A2988 RMK SLP085 T02091107 52009 IEM_DS3505
ZBHH,2010-05-24 13:00,ZBHH 241300Z AUTO 09010KT 6SM 18/M08 A2991 RMK T01801080 IEM_DS3505
ZBHH,2010-05-24 14:00,ZBHH 241400Z AUTO 07006KT 6SM 15/M07 A2994 RMK T01501070 IEM_DS3505
ZBHH,2010-05-24 15:00,ZBHH 241500Z AUTO 09004KT 19SM 17/M09 A2994 RMK SLP108 T01661093 52021 IEM_DS3505
ZBHH,2010-05-24 16:00,ZBHH 241600Z AUTO 10008KT 6SM 15/M09 A2994 RMK T01501090 IEM_DS3505
ZBHH,2010-05-24 17:00,ZBHH 241700Z AUTO 07010KT 6SM 14/M08 A2994 RMK T01401080 IEM_DS3505
ZBHH,2010-05-24 18:00,ZBHH 241800Z AUTO 09004KT 19SM 14/M08 A2994 RMK SLP107 T01401080 52003 IEM_DS3505
ZBHH,2010-05-24 19:00,ZBHH 241900Z AUTO 08012KT 6SM 13/M06 A2997 RMK T01301060 IEM_DS3505
ZBHH,2010-05-24 20:00,ZBHH 242000Z AUTO 09008KT 6SM 13/M06 A2997 RMK T01301060 IEM_DS3505
ZBHH,2010-05-24 21:00,ZBHH 242100Z AUTO 07004KT 19SM 12/M07 A3000 RMK SLP122 T01241071 52012 IEM_DS3505
ZBHH,2010-05-24 22:00,ZBHH 242200Z AUTO 09010KT 6SM 12/M06 A3000 RMK T01201060 IEM_DS3505
ZBHH,2010-05-24 23:00,ZBHH 242300Z AUTO 09012KT 6SM 14/M05 A3000 RMK T01401050 IEM_DS3505
ZBHH,2010-05-25 00:00,ZBHH 250000Z AUTO 04004KT 19SM 16/M05 A3000 RMK SLP125 T01571048 52001 IEM_DS3505
ZBHH,2010-05-25 01:00,ZBHH 250100Z AUTO 07016KT 6SM 18/M09 A2997 RMK T01801090 IEM_DS3505
ZBHH,2010-05-25 02:00,ZBHH 250200Z AUTO 09010KT 7SM 21/M10 A2997 RMK T02101100 IEM_DS3505
ZBHH,2010-05-25 03:00,ZBHH 250300Z AUTO 09004KT 19SM 22/M09 A2997 RMK SLP117 T02201087 57003 IEM_DS3505
ZBHH,2010-05-25 04:00,ZBHH 250400Z AUTO 02006KT 7SM 23/M09 A2997 RMK T02301090 IEM_DS3505
ZBHH,2010-05-25 05:00,ZBHH 250500Z AUTO 16006KT 7SM 24/M11 A2991 RMK T02401110 IEM_DS3505
ZBHH,2010-05-25 06:00,ZBHH 250600Z AUTO 07002KT 9SM 24/M11 A2988 RMK SLP089 T02361111 57027 IEM_DS3505
ZBHH,2010-05-25 07:00,ZBHH 250700Z AUTO 12010KT 7SM 26/M12 A2988 RMK T02601120 IEM_DS3505
ZBHH,2010-05-25 08:00,ZBHH 250800Z AUTO 12008KT 7SM 25/M13 A2985 RMK T02501130 IEM_DS3505
ZBHH,2010-05-25 09:00,ZBHH 250900Z AUTO 09004KT 12SM 26/M11 A2985 RMK SLP070 T02561111 57016 IEM_DS3505
ZBHH,2010-05-25 10:00,ZBHH 251000Z AUTO 10012KT 7SM 25/M11 A2983 RMK T02501110 IEM_DS3505
ZBHH,2010-05-25 11:00,ZBHH 251100Z AUTO 09012KT 7SM 24/M12 A2985 RMK T02401120 IEM_DS3505
ZBHH,2010-05-25 12:00,ZBHH 251200Z AUTO 07004KT 9SM 24/M12 A2988 RMK SLP084 T02381124 52015 IEM_DS3505
ZBHH,2010-05-25 13:00,ZBHH 251300Z AUTO 06012KT 7SM 23/M09 A2991 RMK T02301090 IEM_DS3505
ZBHH,2010-05-25 14:00,ZBHH 251400Z AUTO 04012KT 7SM 22/M09 A2991 RMK T02201090 IEM_DS3505
ZBHH,2010-05-25 15:00,ZBHH 251500Z AUTO 09004KT 12SM 22/M06 A2991 RMK SLP078 T02251063 52004 IEM_DS3505
ZBHH,2010-05-25 16:00,ZBHH 251600Z AUTO 08012KT 7SM 21/01 A2988 RMK T02100010 IEM_DS3505
ZBHH,2010-05-25 17:00,ZBHH 251700Z AUTO 08016KT 7SM 20/02 A2988 RMK T02000020 IEM_DS3505
ZBHH,2010-05-25 18:00,ZBHH 251800Z AUTO 07006KT 12SM 20/01 A2988 RMK SLP073 T02000014 57006 IEM_DS3505
ZBHH,2010-05-25 19:00,ZBHH 251900Z AUTO 06014KT 7SM 19/02 A2988 RMK T01900020 IEM_DS3505
ZBHH,2010-05-25 20:00,ZBHH 252000Z AUTO 08010KT 7SM 19/02 A2988 RMK T01900020 IEM_DS3505
ZBHH,2010-05-25 21:00,ZBHH 252100Z AUTO 09006KT 9SM 19/01 A2988 RMK SLP072 T01930013 52002 IEM_DS3505
ZBHH,2010-05-25 22:00,ZBHH 252200Z AUTO 10004KT 7SM 18/03 A2991 RMK T01800030 IEM_DS3505
ZBHH,2010-05-25 23:00,ZBHH 252300Z AUTO 07004KT 7SM 15/10 A2991 RMK T01500100 IEM_DS3505
ZBHH,2010-05-26 00:00,ZBHH 260000Z AUTO 09004KT 9SM 16/08 A2994 RMK 60000 70000 SLP099 T01600080 52014 IEM_DS3505
ZBHH,2010-05-26 01:00,ZBHH 260100Z AUTO 02006KT 7SM 14/11 A2994 RMK T01400110 IEM_DS3505
ZBHH,2010-05-26 02:00,ZBHH 260200Z AUTO 01008KT 7SM 15/11 A2994 RMK T01500110 IEM_DS3505
ZBHH,2010-05-26 03:00,ZBHH 260300Z AUTO 34004KT 6SM 15/10 A2994 RMK SLP106 T01490105 52002 IEM_DS3505
ZBHH,2010-05-26 04:00,ZBHH 260400Z AUTO 05004KT 3SM 15/12 A2994 RMK T01500120 IEM_DS3505
ZBHH,2010-05-26 05:00,ZBHH 260500Z AUTO 35004KT 2SM 15/13 A2994 RMK T01500130 IEM_DS3505
ZBHH,2010-05-26 06:00,ZBHH 260600Z AUTO 07002KT 2SM 14/12 A2994 RMK 60020 SLP112 T01420119 57001 IEM_DS3505
ZBHH,2010-05-26 07:00,ZBHH 260700Z AUTO 01002KT 2SM 14/13 A2994 RMK T01400130 IEM_DS3505
ZBHH,2010-05-26 08:00,ZBHH 260800Z AUTO 05004KT 2SM 15/13 A2991 RMK T01500130 IEM_DS3505
ZBHH,2010-05-26 09:00,ZBHH 260900Z AUTO 07004KT 2SM 15/13 A2991 RMK SLP100 T01470126 57011 IEM_DS3505
ZBHH,2010-05-26 10:00,ZBHH 261000Z AUTO 14008KT 2SM 15/13 A2991 RMK T01500130 IEM_DS3505
ZBHH,2010-05-26 11:00,ZBHH 261100Z AUTO 18006KT 2 1/2SM 14/12 A2991 RMK T01400120 IEM_DS3505
ZBHH,2010-05-26 12:00,ZBHH 261200Z AUTO 18004KT 2SM 14/12 A2994 RMK 60024 SLP118 T01400119 52008 IEM_DS3505
ZBHH,2010-05-26 13:00,ZBHH 261300Z AUTO 11002KT 2SM 13/13 A2994 RMK T01300130 IEM_DS3505
ZBHH,2010-05-26 14:00,ZBHH 261400Z AUTO 15004KT 1 1/2SM 13/12 A2994 RMK T01300120 IEM_DS3505
ZBHH,2010-05-26 15:00,ZBHH 261500Z AUTO 18004KT 4SM 14/12 A2994 RMK SLP128 T01350117 52006 IEM_DS3505
ZBHH,2010-05-26 16:00,ZBHH 261600Z AUTO 19008KT 1 1/2SM 13/12 A2994 RMK T01300120 IEM_DS3505
ZBHH,2010-05-26 17:00,ZBHH 261700Z AUTO 20014KT 1 1/2SM 13/12 A2994 RMK T01300120 IEM_DS3505
ZBHH,2010-05-26 18:00,ZBHH 261800Z AUTO 22004KT 9SM 12/11 A2994 RMK 60043 SLP132 T01240110 54000 IEM_DS3505
ZBHH,2010-05-26 19:00,ZBHH 261900Z AUTO 24004KT 1 1/2SM 12/12 A2994 RMK T01200120 IEM_DS3505
ZBHH,2010-05-26 20:00,ZBHH 262000Z AUTO 18004KT 2SM 13/12 A2994 RMK T01300120 IEM_DS3505
ZBHH,2010-05-26 21:00,ZBHH 262100Z AUTO 18002KT 6SM 13/11 A2994 RMK 70088 SLP129 T01290113 57001 IEM_DS3505
ZBHH,2010-05-26 22:00,ZBHH 262200Z AUTO 16004KT 3SM 12/12 A2997 RMK T01200120 IEM_DS3505
ZBHH,2010-05-26 23:00,ZBHH 262300Z AUTO 18006KT 4SM 13/12 A2997 RMK T01300120 IEM_DS3505
ZBHH,2010-05-27 00:00,ZBHH 270000Z AUTO 20004KT 6SM 14/11 A2997 RMK 70087 SLP136 T01400112 52007 IEM_DS3505
ZBHH,2010-05-27 01:00,ZBHH 270100Z AUTO 21008KT 5SM 14/12 A2997 RMK T01400120 IEM_DS3505
ZBHH,2010-05-27 02:00,ZBHH 270200Z AUTO 22008KT 5SM 15/12 A3000 RMK T01500120 IEM_DS3505
ZBHH,2010-05-27 03:00,ZBHH 270300Z AUTO 18008KT 9SM 17/11 A2997 RMK SLP132 T01700106 52002 IEM_DS3505
ZBHH,2010-05-27 04:00,ZBHH 270400Z AUTO 20006KT 5SM 17/12 A2997 RMK T01700120 IEM_DS3505
ZBHH,2010-05-27 05:00,ZBHH 270500Z AUTO 19008KT 5SM 18/11 A2994 RMK T01800110 IEM_DS3505
ZBHH,2010-05-27 06:00,ZBHH 270600Z AUTO 20004KT 12SM 19/10 A2994 RMK SLP114 T01940099 57014 IEM_DS3505
ZBHH,2010-05-27 07:00,ZBHH 270700Z AUTO 20012KT 7SM 19/11 A2991 RMK T01900110 IEM_DS3505
ZBHH,2010-05-27 08:00,ZBHH 270800Z AUTO 20010KT 7SM 19/12 A2991 RMK T01900120 IEM_DS3505
ZBHH,2010-05-27 09:00,ZBHH 270900Z AUTO 22004KT 9SM 19/09 A2988 RMK SLP098 T01930089 57013 IEM_DS3505
ZBHH,2010-05-27 10:00,ZBHH 271000Z AUTO 19010KT 7SM 19/11 A2988 RMK T01900110 IEM_DS3505
ZBHH,2010-05-27 11:00,ZBHH 271100Z AUTO 19010KT 7SM 17/12 A2988 RMK T01700120 IEM_DS3505
ZBHH,2010-05-27 12:00,ZBHH 271200Z AUTO 32008KT 6SM 15/10 A2991 RMK 60004 SLP118 T01500098 52011 IEM_DS3505
ZBHH,2010-05-27 13:00,ZBHH 271300Z AUTO 35006KT 5SM 12/11 A2994 RMK T01200110 IEM_DS3505
ZBHH,2010-05-27 14:00,ZBHH 271400Z AUTO 08008KT 7SM 12/11 A2994 RMK T01200110 IEM_DS3505
ZBHH,2010-05-27 15:00,ZBHH 271500Z AUTO 18002KT 6SM 13/10 A2994 RMK SLP128 T01260103 52010 IEM_DS3505
ZBHH,2010-05-27 16:00,ZBHH 271600Z AUTO 24004KT 7SM 12/11 A2994 RMK T01200110 IEM_DS3505
ZBHH,2010-05-27 17:00,ZBHH 271700Z AUTO 28002KT 7SM 12/11 A2994 RMK T01200110 IEM_DS3505
ZBHH,2010-05-27 18:00,ZBHH 271800Z AUTO 00000KT 6SM 12/10 A2991 RMK 60047 SLP107 T01230104 57014 IEM_DS3505
ZBHH,2010-05-27 19:00,ZBHH 271900Z AUTO 11002KT 7SM 12/11 A2991 RMK T01200110 IEM_DS3505
ZBHH,2010-05-27 20:00,ZBHH 272000Z AUTO 06002KT 4SM 12/11 A2988 RMK T01200110 IEM_DS3505
ZBHH,2010-05-27 21:00,ZBHH 272100Z AUTO 22002KT 9SM 10/08 A2988 RMK 70077 SLP100 T01040075 57010 IEM_DS3505
ZBHH,2010-05-27 22:00,ZBHH 272200Z AUTO 19004KT 7SM 10/08 A2991 RMK T01000080 IEM_DS3505
ZBHH,2010-05-27 23:00,ZBHH 272300Z AUTO 04006KT 7SM 10/08 A2991 RMK T01000080 IEM_DS3505
ZBHH,2010-05-28 00:00,ZBHH 280000Z AUTO 07002KT 12SM 12/08 A2994 RMK 60028 70077 SLP126 T01250084 52019 IEM_DS3505
ZBHH,2010-05-28 01:00,ZBHH 280100Z AUTO 15004KT 7SM 13/10 A2994 RMK T01300100 IEM_DS3505
ZBHH,2010-05-28 02:00,ZBHH 280200Z AUTO 23006KT 2 1/2SM 14/10 A2994 RMK T01400100 IEM_DS3505
ZBHH,2010-05-28 03:00,ZBHH 280300Z AUTO 25004KT 2 1/2SM 16/10 A2994 RMK SLP122 T01590098 57002 IEM_DS3505
ZBHH,2010-05-28 04:00,ZBHH 280400Z AUTO 29004KT 2 1/2SM 16/10 A2991 RMK T01600100 IEM_DS3505
ZBHH,2010-05-28 05:00,ZBHH 280500Z AUTO 22006KT 4SM 16/11 A2991 RMK T01600110 IEM_DS3505
ZBHH,2010-05-28 06:00,ZBHH 280600Z AUTO 22004KT 6SM 17/10 A2988 RMK 60051 SLP104 T01740105 57014 IEM_DS3505
ZBHH,2010-05-28 07:00,ZBHH 280700Z AUTO 7SM 18/11 A2985 RMK T01800110 IEM_DS3505
ZBHH,2010-05-28 08:00,ZBHH 280800Z AUTO 22010KT 7SM 19/10 A2985 RMK T01900100 IEM_DS3505
ZBHH,2010-05-28 09:00,ZBHH 280900Z AUTO 22004KT 9SM 19/09 A2985 RMK SLP087 T01940093 57014 IEM_DS3505
ZBHH,2010-05-28 10:00,ZBHH 281000Z AUTO 19004KT 7SM 20/11 A2985 RMK T02000110 IEM_DS3505
ZBHH,2010-05-28 11:00,ZBHH 281100Z AUTO 21002KT 7SM 20/10 A2985 RMK T02000100 IEM_DS3505
ZBHH,2010-05-28 12:00,ZBHH 281200Z AUTO 18002KT 9SM 17/06 A2988 RMK 60000 SLP100 T01720061 52011 IEM_DS3505
ZBHH,2010-05-28 13:00,ZBHH 281300Z AUTO 04006KT 7SM 16/12 A2991 RMK T01600120 IEM_DS3505
ZBHH,2010-05-28 14:00,ZBHH 281400Z AUTO 12004KT 7SM 15/10 A2991 RMK T01500100 IEM_DS3505
ZBHH,2010-05-28 15:00,ZBHH 281500Z AUTO 29004KT 19SM 16/03 A2991 RMK SLP107 T01590027 52010 IEM_DS3505
ZBHH,2010-05-28 16:00,ZBHH 281600Z AUTO 04004KT 6SM 13/08 A2991 RMK T01300080 IEM_DS3505
ZBHH,2010-05-28 17:00,ZBHH 281700Z AUTO 07004KT 6SM 12/07 A2991 RMK T01200070 IEM_DS3505
ZBHH,2010-05-28 18:00,ZBHH 281800Z AUTO 07002KT 19SM 10/06 A2991 RMK SLP113 T01020062 57003 IEM_DS3505
ZBHH,2010-05-28 19:00,ZBHH 281900Z AUTO 07004KT 6SM 10/06 A2991 RMK T01000060 IEM_DS3505
ZBHH,2010-05-28 20:00,ZBHH 282000Z AUTO 07006KT 6SM 09/06 A2991 RMK T00900060 IEM_DS3505
ZBHH,2010-05-28 21:00,ZBHH 282100Z AUTO 07004KT 19SM 10/05 A2991 RMK 70049 SLP111 T01050049 52003 IEM_DS3505
ZBHH,2010-05-28 22:00,ZBHH 282200Z AUTO 09004KT 6SM 11/07 A2991 RMK T01100070 IEM_DS3505
ZBHH,2010-05-28 23:00,ZBHH 282300Z AUTO 14004KT 6SM 12/08 A2994 RMK T01200080 IEM_DS3505
ZBHH,2010-05-29 00:00,ZBHH 290000Z AUTO 36004KT 19SM 14/07 A2994 RMK 70049 SLP122 T01380069 52012 IEM_DS3505
ZBHH,2010-05-29 01:00,ZBHH 290100Z AUTO 20004KT 6SM 16/10 A2994 RMK T01600100 IEM_DS3505
ZBHH,2010-05-29 02:00,ZBHH 290200Z AUTO 22006KT 6SM 18/10 A2991 RMK T01800100 IEM_DS3505
ZBHH,2010-05-29 03:00,ZBHH 290300Z AUTO 22004KT 19SM 20/08 A2991 RMK SLP100 T02010075 57010 IEM_DS3505
ZBHH,2010-05-29 04:00,ZBHH 290400Z AUTO 21010KT 7SM 21/09 A2988 RMK T02100090 IEM_DS3505
ZBHH,2010-05-29 05:00,ZBHH 290500Z AUTO 24008KT 7SM 22/08 A2985 RMK T02200080 IEM_DS3505
ZBHH,2010-05-29 06:00,ZBHH 290600Z AUTO 32010KT 19SM 25/ A2985 RMK SLP076 57022 IEM_DS3505
ZBHH,2010-05-29 07:00,ZBHH 290700Z AUTO 32016KT 7SM 25/M04 A2983 RMK T02501040 IEM_DS3505
ZBHH,2010-05-29 08:00,ZBHH 290800Z AUTO 33017KT 7SM 25/M03 A2983 RMK T02501030 IEM_DS3505
ZBHH,2010-05-29 09:00,ZBHH 290900Z AUTO 29006G23KT 19SM 25/M05 A2983 RMK SLP069 T02531051 57006 IEM_DS3505
ZBHH,2010-05-29 10:00,ZBHH 291000Z AUTO 34016KT 7SM 24/M03 A2983 RMK T02401030 IEM_DS3505
ZBHH,2010-05-29 11:00,ZBHH 291100Z AUTO 35014KT 6SM 23/M03 A2983 RMK T02301030 IEM_DS3505
ZBHH,2010-05-29 12:00,ZBHH 291200Z AUTO 36006KT 19SM 21/M04 A2985 RMK SLP079 T02141039 52008 IEM_DS3505
ZBHH,2010-05-29 13:00,ZBHH 291300Z AUTO 01006KT 6SM 19/00 A2988 RMK T01900000 IEM_DS3505
ZBHH,2010-05-29 14:00,ZBHH 291400Z AUTO 02006KT 6SM 18/00 A2988 RMK T01800000 IEM_DS3505
ZBHH,2010-05-29 15:00,ZBHH 291500Z AUTO 02002KT 19SM 16/01 A2991 RMK SLP099 T01590009 52019 IEM_DS3505
ZBHH,2010-05-29 16:00,ZBHH 291600Z AUTO 35008KT 6SM 14/04 A2991 RMK T01400040 IEM_DS3505
ZBHH,2010-05-29 17:00,ZBHH 291700Z AUTO 33006KT 6SM 13/05 A2991 RMK T01300050 IEM_DS3505
ZBHH,2010-05-29 18:00,ZBHH 291800Z AUTO 29004KT 19SM 15/04 A2994 RMK SLP095 T01510039 52005 IEM_DS3505
ZBHH,2010-05-29 19:00,ZBHH 291900Z AUTO 34010KT 6SM 14/06 A2991 RMK T01400060 IEM_DS3505
ZBHH,2010-05-29 20:00,ZBHH 292000Z AUTO 32010KT 6SM 12/07 A2994 RMK T01200070 IEM_DS3505
ZBHH,2010-05-29 21:00,ZBHH 292100Z AUTO 29006KT 19SM 13/05 A2994 RMK SLP103 T01310050 52003 IEM_DS3505
ZBHH,2010-05-29 22:00,ZBHH 292200Z AUTO 25006KT 7SM 12/07 A2997 RMK T01200070 IEM_DS3505
ZBHH,2010-05-29 23:00,ZBHH 292300Z AUTO 32008KT 7SM 14/07 A2997 RMK T01400070 IEM_DS3505
ZBHH,2010-05-30 00:00,ZBHH 300000Z AUTO 02006KT 19SM 16/06 A2997 RMK SLP121 T01600062 52014 IEM_DS3505
ZBHH,2010-05-30 01:00,ZBHH 300100Z AUTO 36012KT 7SM 17/07 A3000 RMK T01700070 IEM_DS3505
ZBHH,2010-05-30 02:00,ZBHH 300200Z AUTO 01012KT 7SM 17/07 A3000 RMK T01700070 IEM_DS3505
ZBHH,2010-05-30 03:00,ZBHH 300300Z AUTO 02008KT 19SM 17/08 A3000 RMK SLP142 T01730079 52011 IEM_DS3505
ZBHH,2010-05-30 04:00,ZBHH 300400Z AUTO 05010KT 7SM 19/07 A3000 RMK T01900070 IEM_DS3505
ZBHH,2010-05-30 05:00,ZBHH 300500Z AUTO 07012KT 7SM 20/07 A3000 RMK T02000070 IEM_DS3505
ZBHH,2010-05-30 06:00,ZBHH 300600Z AUTO 02006KT 19SM 21/05 A3000 RMK SLP126 T02080052 57009 IEM_DS3505
ZBHH,2010-05-30 07:00,ZBHH 300700Z AUTO 04016G27KT 7SM 20/06 A3000 RMK T02000060 IEM_DS3505
ZBHH,2010-05-30 08:00,ZBHH 300800Z AUTO 04014KT 7SM 21/07 A2997 RMK T02100070 IEM_DS3505
ZBHH,2010-05-30 09:00,ZBHH 300900Z AUTO 07006KT 19SM 22/05 A2997 RMK SLP123 T02180048 57005 IEM_DS3505
ZBHH,2010-05-30 10:00,ZBHH 301000Z AUTO 35012KT 7SM 21/06 A2997 RMK T02100060 IEM_DS3505
ZBHH,2010-05-30 11:00,ZBHH 301100Z AUTO 03012KT 7SM 21/05 A3000 RMK T02100050 IEM_DS3505
ZBHH,2010-05-30 12:00,ZBHH 301200Z AUTO 36004KT 19SM 20/03 A3000 RMK SLP134 T02010029 52012 IEM_DS3505
ZBHH,2010-05-30 13:00,ZBHH 301300Z AUTO 13002KT 6SM 17/07 A3003 RMK T01700070 IEM_DS3505
ZBHH,2010-05-30 14:00,ZBHH 301400Z AUTO 06004KT 6SM 17/06 A3006 RMK T01700060 IEM_DS3505
ZBHH,2010-05-30 15:00,ZBHH 301500Z AUTO 32002KT 19SM 17/06 A3006 RMK SLP153 T01680057 52013 IEM_DS3505
ZBHH,2010-05-30 16:00,ZBHH 301600Z AUTO 02006KT 6SM 14/07 A3006 RMK T01400070 IEM_DS3505
ZBHH,2010-05-30 18:00,ZBHH 301800Z AUTO 27002KT 19SM 12/07 RMK SLP159 T01190066 52003 IEM_DS3505
ZBHH,2010-05-30 19:00,ZBHH 301900Z AUTO 06002KT 6SM 10/07 A3006 RMK T01000070 IEM_DS3505
ZBHH,2010-05-30 20:00,ZBHH 302000Z AUTO 09006KT 6SM 10/07 A3006 RMK T01000070 IEM_DS3505
ZBHH,2010-05-30 21:00,ZBHH 302100Z AUTO 20002KT 19SM 11/06 A3009 RMK SLP165 T01080062 52005 IEM_DS3505
ZBHH,2010-05-30 22:00,ZBHH 302200Z AUTO 10006KT 6SM 11/07 A3012 RMK T01100070 IEM_DS3505
ZBHH,2010-05-30 23:00,ZBHH 302300Z AUTO 10002KT 6SM 14/09 A3012 RMK T01400090 IEM_DS3505
ZBHH,2010-05-31 00:00,ZBHH 310000Z AUTO 36002KT 16SM 17/06 A3012 RMK SLP167 T01680060 52010 IEM_DS3505
ZBHH,2010-05-31 01:00,ZBHH 310100Z AUTO 14006KT 6SM 18/10 A3012 RMK T01800100 IEM_DS3505
ZBHH,2010-05-31 02:00,ZBHH 310200Z AUTO 17004KT 7SM 20/08 A3012 RMK T02000080 IEM_DS3505
ZBHH,2010-05-31 03:00,ZBHH 310300Z AUTO 09002KT 19SM 23/06 A3009 RMK SLP151 T02330057 57008 IEM_DS3505
ZBHH,2010-05-31 04:00,ZBHH 310400Z AUTO 24006KT 7SM 22/06 A3009 RMK T02200060 IEM_DS3505
ZBHH,2010-05-31 05:00,ZBHH 310500Z AUTO 24006KT 7SM 24/05 A3006 RMK T02400050 IEM_DS3505
ZBHH,2010-05-31 06:00,ZBHH 310600Z AUTO 07012KT 19SM 25/00 A3003 RMK SLP134 T02530000 57021 IEM_DS3505
ZBHH,2010-05-31 07:00,ZBHH 310700Z AUTO 06010KT 7SM 26/00 A3003 RMK T02600000 IEM_DS3505
ZBHH,2010-05-31 08:00,ZBHH 310800Z AUTO 05010G21KT 7SM 26/01 A3000 RMK T02600010 IEM_DS3505
ZBHH,2010-05-31 09:00,ZBHH 310900Z AUTO 09008KT 19SM 26/M01 A3000 RMK SLP125 T02621008 57008 IEM_DS3505
ZBHH,2010-05-31 10:00,ZBHH 311000Z AUTO 04010KT 6SM 25/01 A3000 RMK T02500010 IEM_DS3505
ZBHH,2010-05-31 11:00,ZBHH 311100Z AUTO 05008KT 6SM 24/01 A3000 RMK T02400010 IEM_DS3505
ZBHH,2010-05-31 12:00,ZBHH 311200Z AUTO 07004KT 19SM 23/00 A3003 RMK SLP129 T02330004 52009 IEM_DS3505
ZBHH,2010-05-31 13:00,ZBHH 311300Z AUTO 03006KT 6SM 19/04 A3006 RMK T01900040 IEM_DS3505
ZBHH,2010-05-31 14:00,ZBHH 311400Z AUTO 03008KT 6SM 18/04 A3006 RMK T01800040 IEM_DS3505
ZBHH,2010-05-31 15:00,ZBHH 311500Z AUTO 02004KT 19SM 20/01 A3009 RMK SLP138 T02030012 52015 IEM_DS3505
ZBHH,2010-05-31 16:00,ZBHH 311600Z AUTO 08006KT 6SM 15/05 A3009 RMK T01500050 IEM_DS3505
ZBHH,2010-05-31 17:00,ZBHH 311700Z AUTO 08004KT 6SM 15/05 A3009 RMK T01500050 IEM_DS3505
ZBHH,2010-05-31 18:00,ZBHH 311800Z AUTO 00000KT 19SM 14/04 A3009 RMK SLP147 T01430037 54000 IEM_DS3505
ZBHH,2010-05-31 19:00,ZBHH 311900Z AUTO 08004KT 6SM 12/06 A3006 RMK T01200060 IEM_DS3505
ZBHH,2010-05-31 20:00,ZBHH 312000Z AUTO 11002KT 6SM 11/06 A3009 RMK T01100060 IEM_DS3505
ZBHH,2010-05-31 21:00,ZBHH 312100Z AUTO 04002KT 19SM 13/04 A3009 RMK SLP151 T01270044 52002 IEM_DS3505
ZBHH,2010-05-31 22:00,ZBHH 312200Z AUTO 08004KT 6SM 12/06 A3009 RMK T01200060 IEM_DS3505
ZBHH,2010-05-31 23:00,ZBHH 312300Z AUTO 04002KT 6SM 15/07 A3009 RMK T01500070 IEM_DS3505
ZBHH,2010-06-01 00:00,ZBHH 010000Z AUTO 18002KT 19SM 19/06 A3009 RMK SLP147 T01880056 52003 IEM_DS3505
ZBHH,2010-06-01 01:00,ZBHH 010100Z AUTO 13004KT 6SM 21/07 A3009 RMK T02100070 IEM_DS3505
ZBHH,2010-06-01 02:00,ZBHH 010200Z AUTO 18002KT 6SM 22/06 A3009 RMK T02200060 IEM_DS3505
ZBHH,2010-06-01 03:00,ZBHH 010300Z AUTO 22004KT 19SM 23/03 A3009 RMK SLP141 T02330033 57003 IEM_DS3505
ZBHH,2010-06-01 04:00,ZBHH 010400Z AUTO 25008KT 7SM 25/05 A3006 RMK T02500050 IEM_DS3505
ZBHH,2010-06-01 05:00,ZBHH 010500Z AUTO 23008KT 7SM 26/04 A3003 RMK T02600040 IEM_DS3505
ZBHH,2010-06-01 06:00,ZBHH 010600Z AUTO 22008KT 19SM 27/02 A3000 RMK SLP118 T02660018 57025 IEM_DS3505
ZBHH,2010-06-01 07:00,ZBHH 010700Z AUTO 23012KT 7SM 27/03 A2997 RMK T02700030 IEM_DS3505
ZBHH,2010-06-01 08:00,ZBHH 010800Z AUTO 24012KT 7SM 28/02 A2994 RMK T02800020 IEM_DS3505
ZBHH,2010-06-01 09:00,ZBHH 010900Z AUTO 22008KT 19SM 28/00 A2991 RMK SLP093 T02770005 57023 IEM_DS3505
ZBHH,2010-06-01 10:00,ZBHH 011000Z AUTO 23014KT 7SM 27/03 A2991 RMK T02700030 IEM_DS3505
ZBHH,2010-06-01 11:00,ZBHH 011100Z AUTO 23012KT 7SM 26/03 A2991 RMK T02600030 IEM_DS3505
ZBHH,2010-06-01 12:00,ZBHH 011200Z AUTO 25002KT 19SM 25/02 A2991 RMK SLP083 T02470016 57003 IEM_DS3505
ZBHH,2010-06-01 13:00,ZBHH 011300Z AUTO 01004KT 6SM 22/05 A2994 RMK T02200050 IEM_DS3505
ZBHH,2010-06-01 14:00,ZBHH 011400Z AUTO 05006KT 6SM 19/05 A2997 RMK T01900050 IEM_DS3505
ZBHH,2010-06-01 15:00,ZBHH 011500Z AUTO 07002KT 19SM 19/00 A2997 RMK SLP101 T01920003 52014 IEM_DS3505
ZBHH,2010-06-01 16:00,ZBHH 011600Z AUTO 05004KT 6SM 18/05 A2997 RMK T01800050 IEM_DS3505
ZBHH,2010-06-01 17:00,ZBHH 011700Z AUTO 01002KT 6SM 17/05 A2997 RMK T01700050 IEM_DS3505
ZBHH,2010-06-01 18:00,ZBHH 011800Z AUTO 09002KT 19SM 15/03 A2997 RMK SLP105 T01530031 52002 IEM_DS3505
ZBHH,2010-06-01 19:00,ZBHH 011900Z AUTO 07004KT 6SM 15/04 A2997 RMK T01500040 IEM_DS3505
ZBHH,2010-06-01 20:00,ZBHH 012000Z AUTO 09008KT 6SM 13/05 A2997 RMK T01300050 IEM_DS3505
ZBHH,2010-06-01 21:00,ZBHH 012100Z AUTO 20002KT 19SM 14/03 A2997 RMK SLP104 T01400029 57001 IEM_DS3505
ZBHH,2010-06-01 22:00,ZBHH 012200Z AUTO 04002KT 6SM 15/06 A2997 RMK T01500060 IEM_DS3505
ZBHH,2010-06-01 23:00,ZBHH 012300Z AUTO 35006KT 6SM 19/04 A2997 RMK T01900040 IEM_DS3505
ZBHH,2010-06-02 00:00,ZBHH 020000Z AUTO 09002KT 19SM 23/03 A3000 RMK SLP105 T02270028 52011 IEM_DS3505
ZBHH,2010-06-02 01:00,ZBHH 020100Z AUTO 12006KT 6SM 23/05 A3000 RMK T02300050 IEM_DS3505
ZBHH,2010-06-02 02:00,ZBHH 020200Z AUTO 30006KT 6SM 24/04 A3000 RMK T02400040 IEM_DS3505
ZBHH,2010-06-02 03:00,ZBHH 020300Z AUTO 36008KT 19SM 26/00 A3000 RMK SLP108 T02550002 57002 IEM_DS3505
ZBHH,2010-06-02 04:00,ZBHH 020400Z AUTO 02010KT 7SM 26/04 A2997 RMK T02600040 IEM_DS3505
ZBHH,2010-06-02 05:00,ZBHH 020500Z AUTO 03006G16KT 7SM 26/04 A2997 RMK T02600040 IEM_DS3505
ZBHH,2010-06-02 06:00,ZBHH 020600Z AUTO 34004KT 19SM 27/03 A2997 RMK SLP102 T02680033 57010 IEM_DS3505
ZBHH,2010-06-02 07:00,ZBHH 020700Z AUTO 04008G17KT 7SM 27/04 A2994 RMK T02700040 IEM_DS3505
ZBHH,2010-06-02 08:00,ZBHH 020800Z AUTO 04006G16KT 7SM 27/02 A2994 RMK T02700020 IEM_DS3505
ZBHH,2010-06-02 09:00,ZBHH 020900Z AUTO 09008KT 19SM 28/02 A2994 RMK SLP096 T02790022 57006 IEM_DS3505
ZBHH,2010-06-02 10:00,ZBHH 021000Z AUTO 09012KT 7SM 27/03 A2994 RMK T02700030 IEM_DS3505
ZBHH,2010-06-02 11:00,ZBHH 021100Z AUTO 08010KT 7SM 26/02 A2997 RMK T02600020 IEM_DS3505
ZBHH,2010-06-02 12:00,ZBHH 021200Z AUTO 07004KT 19SM 25/00 A2997 RMK SLP095 T02500005 52010 IEM_DS3505
ZBHH,2010-06-02 13:00,ZBHH 021300Z AUTO 08006KT 6SM 21/04 A3000 RMK T02100040 IEM_DS3505
ZBHH,2010-06-02 14:00,ZBHH 021400Z AUTO 09004KT 6SM 19/06 A3003 RMK T01900060 IEM_DS3505
ZBHH,2010-06-02 15:00,ZBHH 021500Z AUTO 07004KT 19SM 21/05 A3006 RMK SLP122 T02080048 52021 IEM_DS3505
ZBHH,2010-06-02 16:00,ZBHH 021600Z AUTO 07002KT 6SM 18/08 A3006 RMK T01800080 IEM_DS3505
ZBHH,2010-06-02 17:00,ZBHH 021700Z AUTO 08008KT 6SM 17/08 A3006 RMK T01700080 IEM_DS3505
ZBHH,2010-06-02 18:00,ZBHH 021800Z AUTO 07004KT 19SM 18/07 A3006 RMK SLP133 T01780070 52007 IEM_DS3505
ZBHH,2010-06-02 19:00,ZBHH 021900Z AUTO 04004KT 6SM 16/08 A3006 RMK T01600080 IEM_DS3505
ZBHH,2010-06-02 20:00,ZBHH 022000Z AUTO 08010KT 6SM 15/09 A3006 RMK T01500090 IEM_DS3505
ZBHH,2010-06-02 21:00,ZBHH 022100Z AUTO 02004KT 19SM 16/07 A3006 RMK SLP137 T01580071 52002 IEM_DS3505
ZBHH,2010-06-02 22:00,ZBHH 022200Z AUTO 08010KT 6SM 15/09 A3009 RMK T01500090 IEM_DS3505
ZBHH,2010-06-02 23:00,ZBHH 022300Z AUTO 09010KT 5SM 17/10 A3009 RMK T01700100 IEM_DS3505
ZBHH,2010-06-03 00:00,ZBHH 030000Z AUTO 02002KT 19SM 19/08 A3009 RMK SLP144 T01930080 52007 IEM_DS3505
ZBHH,2010-06-03 01:00,ZBHH 030100Z AUTO 12006KT 6SM 20/08 A3009 RMK T02000080 IEM_DS3505
ZBHH,2010-06-03 02:00,ZBHH 030200Z AUTO 17004KT 6SM 22/08 A3009 RMK T02200080 IEM_DS3505
ZBHH,2010-06-03 03:00,ZBHH 030300Z AUTO 11004KT 19SM 23/05 A3006 RMK SLP136 T02300054 57008 IEM_DS3505
ZBHH,2010-06-03 04:00,ZBHH 030400Z AUTO 24006KT 6SM 24/06 A3006 RMK T02400060 IEM_DS3505
ZBHH,2010-06-03 05:00,ZBHH 030500Z AUTO 32006KT 6SM 25/06 A3003 RMK T02500060 IEM_DS3505
ZBHH,2010-06-03 06:00,ZBHH 030600Z AUTO 18004KT 19SM 26/04 A3003 RMK SLP119 T02570042 57015 IEM_DS3505
ZBHH,2010-06-03 07:00,ZBHH 030700Z AUTO 13004KT 6SM 27/01 A3000 RMK T02700010 IEM_DS3505
ZBHH,2010-06-03 08:00,ZBHH 030800Z AUTO 17008KT 6SM 27/00 A2997 RMK T02700000 IEM_DS3505
ZBHH,2010-06-03 09:00,ZBHH 030900Z AUTO 09006KT 19SM 27/M01 A2997 RMK SLP103 T02731007 57015 IEM_DS3505
ZBHH,2010-06-03 10:00,ZBHH 031000Z AUTO 12008KT 6SM 27/01 A2997 RMK T02700010 IEM_DS3505
ZBHH,2010-06-03 11:00,ZBHH 031100Z AUTO 14008KT 6SM 26/00 A2997 RMK T02600000 IEM_DS3505
ZBHH,2010-06-03 12:00,ZBHH 031200Z AUTO 09004KT 19SM 25/M00 A3000 RMK SLP107 T02481004 52005 IEM_DS3505
ZBHH,2010-06-03 13:00,ZBHH 031300Z AUTO 10004KT 6SM 21/02 A3000 RMK T02100020 IEM_DS3505
ZBHH,2010-06-03 14:00,ZBHH 031400Z AUTO 03004KT 6SM 20/03 A3003 RMK T02000030 IEM_DS3505
ZBHH,2010-06-03 15:00,ZBHH 031500Z AUTO 09004KT 19SM 21/01 A3006 RMK SLP128 T02080011 52018 IEM_DS3505
ZBHH,2010-06-03 16:00,ZBHH 031600Z AUTO 06004KT 6SM 18/03 A3006 RMK T01800030 IEM_DS3505
ZBHH,2010-06-03 17:00,ZBHH 031700Z AUTO 02006KT 6SM 17/04 A3006 RMK T01700040 IEM_DS3505
ZBHH,2010-06-03 18:00,ZBHH 031800Z AUTO 02002KT 19SM 18/03 A3006 RMK SLP138 T01760031 52008 IEM_DS3505
ZBHH,2010-06-03 19:00,ZBHH 031900Z AUTO 08006KT 6SM 14/06 A3009 RMK T01400060 IEM_DS3505
ZBHH,2010-06-03 20:00,ZBHH 032000Z AUTO 09006KT 6SM 14/06 A3006 RMK T01400060 IEM_DS3505
ZBHH,2010-06-03 21:00,ZBHH 032100Z AUTO 16002KT 12SM 15/06 A3006 RMK SLP140 T01460059 57001 IEM_DS3505
ZBHH,2010-06-03 22:00,ZBHH 032200Z AUTO 06006KT 6SM 14/06 A3009 RMK T01400060 IEM_DS3505
ZBHH,2010-06-03 23:00,ZBHH 032300Z AUTO 05002KT 6SM 19/09 A3009 RMK T01900090 IEM_DS3505
ZBHH,2010-06-04 00:00,ZBHH 040000Z AUTO 36002KT 9SM 20/08 A3009 RMK SLP139 T01960080 52004 IEM_DS3505
ZBHH,2010-06-04 01:00,ZBHH 040100Z AUTO 17002KT 6SM 21/09 A3009 RMK T02100090 IEM_DS3505
ZBHH,2010-06-04 02:00,ZBHH 040200Z AUTO 14004KT 6SM 22/09 A3006 RMK T02200090 IEM_DS3505
ZBHH,2010-06-04 03:00,ZBHH 040300Z AUTO 20006KT 9SM 23/07 A3006 RMK SLP130 T02310072 57009 IEM_DS3505
ZBHH,2010-06-04 04:00,ZBHH 040400Z AUTO 27006KT 6SM 25/04 A3003 RMK T02500040 IEM_DS3505
ZBHH,2010-06-04 05:00,ZBHH 040500Z AUTO 30004KT 6SM 26/04 A3003 RMK T02600040 IEM_DS3505
ZBHH,2010-06-04 06:00,ZBHH 040600Z AUTO 25004KT 9SM 26/05 A3000 RMK SLP109 T02600050 57019 IEM_DS3505
ZBHH,2010-06-04 07:00,ZBHH 040700Z AUTO 21004KT 6SM 27/01 A2997 RMK T02700010 IEM_DS3505
ZBHH,2010-06-04 08:00,ZBHH 040800Z AUTO 23006KT 6SM 28/00 A2994 RMK T02800000 IEM_DS3505
ZBHH,2010-06-04 09:00,ZBHH 040900Z AUTO 16006KT 9SM 28/02 A2994 RMK SLP092 T02780021 57017 IEM_DS3505
ZBHH,2010-06-04 10:00,ZBHH 041000Z AUTO 22006KT 6SM 27/M01 A2991 RMK T02701010 IEM_DS3505
ZBHH,2010-06-04 11:00,ZBHH 041100Z AUTO 22004KT 6SM 26/M01 A2991 RMK T02601010 IEM_DS3505
ZBHH,2010-06-04 12:00,ZBHH 041200Z AUTO 22002KT 9SM 26/00 A2994 RMK SLP083 T02580005 57003 IEM_DS3505
ZBHH,2010-06-04 13:00,ZBHH 041300Z AUTO 03006KT 6SM 22/03 A2994 RMK T02200030 IEM_DS3505
ZBHH,2010-06-04 14:00,ZBHH 041400Z AUTO 06006KT 6SM 20/03 A2997 RMK T02000030 IEM_DS3505
ZBHH,2010-06-04 15:00,ZBHH 041500Z AUTO 09004KT 12SM 20/04 A2997 RMK SLP101 T01950044 52011 IEM_DS3505
ZBHH,2010-06-04 16:00,ZBHH 041600Z AUTO 03006KT 6SM 18/03 A2997 RMK T01800030 IEM_DS3505
ZBHH,2010-06-04 17:00,ZBHH 041700Z AUTO 34004KT 6SM 17/04 A2997 RMK T01700040 IEM_DS3505
ZBHH,2010-06-04 18:00,ZBHH 041800Z AUTO 36002KT 12SM 17/05 A2997 RMK SLP099 T01680048 57001 IEM_DS3505
ZBHH,2010-06-04 19:00,ZBHH 041900Z AUTO 05002KT 6SM 15/03 A2997 RMK T01500030 IEM_DS3505
ZBHH,2010-06-04 20:00,ZBHH 042000Z AUTO 04004KT 6SM 16/03 A2997 RMK T01600030 IEM_DS3505
ZBHH,2010-06-04 21:00,ZBHH 042100Z AUTO 07002KT 12SM 15/03 A2997 RMK SLP101 T01520034 52002 IEM_DS3505
ZBHH,2010-06-04 22:00,ZBHH 042200Z AUTO 06004KT 6SM 15/03 A2997 RMK T01500030 IEM_DS3505
ZBHH,2010-06-04 23:00,ZBHH 042300Z AUTO 06004KT 6SM 20/06 A2997 RMK T02000060 IEM_DS3505
ZBHH,2010-06-05 00:00,ZBHH 050000Z AUTO 04002KT 9SM 21/01 A2997 RMK SLP099 T02090012 52005 IEM_DS3505
ZBHH,2010-06-05 01:00,ZBHH 050100Z AUTO 24002KT 6SM 22/06 A2997 RMK T02200060 IEM_DS3505
ZBHH,2010-06-05 02:00,ZBHH 050200Z AUTO 21006KT 5SM 23/05 A2997 RMK T02300050 IEM_DS3505
ZBHH,2010-06-05 03:00,ZBHH 050300Z AUTO 09004KT 9SM 25/06 A2994 RMK SLP093 T02470055 57010 IEM_DS3505
ZBHH,2010-06-05 04:00,ZBHH 050400Z AUTO 25006KT 5SM 26/07 A2994 RMK T02600070 IEM_DS3505
ZBHH,2010-06-05 05:00,ZBHH 050500Z AUTO 18004KT 5SM 28/08 A2991 RMK T02800080 IEM_DS3505
ZBHH,2010-06-05 06:00,ZBHH 050600Z AUTO 27004KT 16SM 28/06 A2985 RMK SLP061 T02840065 57027 IEM_DS3505
ZBHH,2010-06-05 07:00,ZBHH 050700Z AUTO 27006KT 7SM 30/04 A2983 RMK T03000040 IEM_DS3505
ZBHH,2010-06-05 08:00,ZBHH 050800Z AUTO 28006KT 7SM 30/04 A2980 RMK T03000040 IEM_DS3505
ZBHH,2010-06-05 09:00,ZBHH 050900Z AUTO 20008KT 12SM 30/04 A2980 RMK SLP037 T02980037 57021 IEM_DS3505
ZBHH,2010-06-05 10:00,ZBHH 051000Z AUTO 18004KT 7SM 30/04 A2980 RMK T03000040 IEM_DS3505
ZBHH,2010-06-05 11:00,ZBHH 051100Z AUTO 22004KT 7SM 28/04 A2980 RMK T02800040 IEM_DS3505
ZBHH,2010-06-05 12:00,ZBHH 051200Z AUTO 25002KT 12SM 28/02 A2980 RMK SLP029 T02770020 57001 IEM_DS3505
ZBHH,2010-06-05 13:00,ZBHH 051300Z AUTO 15008KT 7SM 24/06 A2983 RMK T02400060 IEM_DS3505
ZBHH,2010-06-05 14:00,ZBHH 051400Z AUTO 13006KT 6SM 23/07 A2988 RMK T02300070 IEM_DS3505
ZBHH,2010-06-05 15:00,ZBHH 051500Z AUTO 22002KT 12SM 23/05 A2988 RMK SLP067 T02290053 52032 IEM_DS3505
ZBHH,2010-06-05 16:00,ZBHH 051600Z AUTO 00000KT 6SM 20/08 A2991 RMK T02000080 IEM_DS3505
ZBHH,2010-06-05 17:00,ZBHH 051700Z AUTO 05002KT 6SM 19/08 A2991 RMK T01900080 IEM_DS3505
ZBHH,2010-06-05 18:00,ZBHH 051800Z AUTO 16002KT 19SM 21/06 A2991 RMK SLP062 T02120056 57001 IEM_DS3505
ZBHH,2010-06-05 19:00,ZBHH 051900Z AUTO 06006KT 6SM 16/09 A2988 RMK T01600090 IEM_DS3505
ZBHH,2010-06-05 20:00,ZBHH 052000Z AUTO 04004KT 6SM 16/09 A2991 RMK T01600090 IEM_DS3505
ZBHH,2010-06-05 21:00,ZBHH 052100Z AUTO 09004KT 19SM 17/08 A2991 RMK SLP071 T01740077 52004 IEM_DS3505
ZBHH,2010-06-05 22:00,ZBHH 052200Z AUTO 08006KT 6SM 15/09 A2991 RMK T01500090 IEM_DS3505
ZBHH,2010-06-05 23:00,ZBHH 052300Z AUTO 04004KT 6SM 20/11 A2994 RMK T02000110 IEM_DS3505
ZBHH,2010-06-06 00:00,ZBHH 060000Z AUTO 07002KT 19SM 21/08 A2994 RMK SLP080 T02080081 52010 IEM_DS3505
ZBHH,2010-06-06 01:00,ZBHH 060100Z AUTO 22004KT 6SM 22/10 A2994 RMK T02200100 IEM_DS3505
ZBHH,2010-06-06 02:00,ZBHH 060200Z AUTO 6SM 23/10 A2991 RMK T02300100 IEM_DS3505
ZBHH,2010-06-06 03:00,ZBHH 060300Z AUTO 25006KT 9SM 24/08 A2991 RMK SLP073 T02430079 57008 IEM_DS3505
ZBHH,2010-06-06 04:00,ZBHH 060400Z AUTO 22008KT 6SM 25/09 A2991 RMK T02500090 IEM_DS3505
ZBHH,2010-06-06 05:00,ZBHH 060500Z AUTO 25010KT 6SM 26/09 A2988 RMK T02600090 IEM_DS3505
ZBHH,2010-06-06 06:00,ZBHH 060600Z AUTO 22008KT 9SM 27/07 A2985 RMK SLP049 T02730072 57019 IEM_DS3505
ZBHH,2010-06-06 07:00,ZBHH 060700Z AUTO 19006KT 6SM 28/08 A2983 RMK T02800080 IEM_DS3505
ZBHH,2010-06-06 08:00,ZBHH 060800Z AUTO 22004KT 7SM 28/07 A2980 RMK T02800070 IEM_DS3505
ZBHH,2010-06-06 09:00,ZBHH 060900Z AUTO 11004KT 9SM 28/06 A2980 RMK SLP038 T02770059 57016 IEM_DS3505
ZBHH,2010-06-06 10:00,ZBHH 061000Z AUTO 19006KT 7SM 28/07 A2980 RMK T02800070 IEM_DS3505
ZBHH,2010-06-06 11:00,ZBHH 061100Z AUTO 19006KT 7SM 27/06 A2980 RMK T02700060 IEM_DS3505
ZBHH,2010-06-06 12:00,ZBHH 061200Z AUTO 14006KT 9SM 27/03 A2983 RMK SLP036 T02680033 52003 IEM_DS3505
ZBHH,2010-06-06 13:00,ZBHH 061300Z AUTO 16006KT 7SM 24/05 A2985 RMK T02400050 IEM_DS3505
ZBHH,2010-06-06 14:00,ZBHH 061400Z AUTO 13008KT 7SM 23/03 A2985 RMK T02300030 IEM_DS3505
ZBHH,2010-06-06 15:00,ZBHH 061500Z AUTO 11006KT 12SM 23/06 A2985 RMK SLP055 T02340062 52017 IEM_DS3505
ZBHH,2010-06-06 16:00,ZBHH 061600Z AUTO 19004KT 7SM 22/09 A2988 RMK T02200090 IEM_DS3505
ZBHH,2010-06-06 17:00,ZBHH 061700Z AUTO 07002KT 7SM 21/09 A2988 RMK T02100090 IEM_DS3505
ZBHH,2010-06-06 18:00,ZBHH 061800Z AUTO 22004KT 9SM 21/08 A2988 RMK SLP066 T02140083 52011 IEM_DS3505
ZBHH,2010-06-06 19:00,ZBHH 061900Z AUTO 02004KT 4SM 20/10 A2991 RMK T02000100 IEM_DS3505
ZBHH,2010-06-06 20:00,ZBHH 062000Z AUTO 12004KT 4SM 19/10 A2991 RMK T01900100 IEM_DS3505
ZBHH,2010-06-06 21:00,ZBHH 062100Z AUTO 16002KT 12SM 20/09 A2991 RMK SLP075 T02030086 52007 IEM_DS3505
ZBHH,2010-06-06 22:00,ZBHH 062200Z AUTO 14002KT 2 1/2SM 18/11 A2994 RMK T01800110 IEM_DS3505
ZBHH,2010-06-06 23:00,ZBHH 062300Z AUTO 15006KT 2SM 19/11 A2994 RMK T01900110 IEM_DS3505
ZBHH,2010-06-07 00:00,ZBHH 070000Z AUTO 16004KT 9SM 21/09 A2994 RMK SLP084 T02070090 52007 IEM_DS3505
ZBHH,2010-06-07 01:00,ZBHH 070100Z AUTO 16008KT 2 1/2SM 22/11 A2994 RMK T02200110 IEM_DS3505
ZBHH,2010-06-07 02:00,ZBHH 070200Z AUTO 17006KT 3SM 23/10 A2991 RMK T02300100 IEM_DS3505
ZBHH,2010-06-07 03:00,ZBHH 070300Z AUTO 22006KT 6SM 23/08 A2991 RMK SLP082 T02300075 57004 IEM_DS3505
ZBHH,2010-06-07 04:00,ZBHH 070400Z AUTO 22012KT 4SM 24/08 A2991 RMK T02400080 IEM_DS3505
ZBHH,2010-06-07 05:00,ZBHH 070500Z AUTO 22012KT 4SM 26/08 A2988 RMK T02600080 IEM_DS3505
ZBHH,2010-06-07 06:00,ZBHH 070600Z AUTO 22006KT 7SM 27/04 A2985 RMK SLP058 T02670045 57018 IEM_DS3505
ZBHH,2010-06-07 07:00,ZBHH 070700Z AUTO 21014KT 7SM 27/05 A2985 RMK T02700050 IEM_DS3505
ZBHH,2010-06-07 08:00,ZBHH 070800Z AUTO 18012KT 7SM 28/03 A2983 RMK T02800030 IEM_DS3505
ZBHH,2010-06-07 09:00,ZBHH 070900Z AUTO 16006KT 9SM 27/03 A2983 RMK SLP042 T02710029 57015 IEM_DS3505
ZBHH,2010-06-07 10:00,ZBHH 071000Z AUTO 16014KT 7SM 27/04 A2983 RMK T02700040 IEM_DS3505
ZBHH,2010-06-07 11:00,ZBHH 071100Z AUTO 16014KT 5SM 25/05 A2983 RMK T02500050 IEM_DS3505
ZBHH,2010-06-07 12:00,ZBHH 071200Z AUTO 18006KT 7SM 25/04 A2985 RMK SLP058 T02510037 52011 IEM_DS3505
ZBHH,2010-06-07 13:00,ZBHH 071300Z AUTO 16008KT 6SM 23/05 A2988 RMK T02300050 IEM_DS3505
ZBHH,2010-06-07 14:00,ZBHH 071400Z AUTO 17010KT 6SM 22/05 A2991 RMK T02200050 IEM_DS3505
ZBHH,2010-06-07 15:00,ZBHH 071500Z AUTO 16008KT 12SM 22/07 A2991 RMK SLP078 T02240066 52017 IEM_DS3505
ZBHH,2010-06-07 16:00,ZBHH 071600Z AUTO 18006KT 5SM 20/08 A2994 RMK T02000080 IEM_DS3505
ZBHH,2010-06-07 17:00,ZBHH 071700Z AUTO 18002KT 5SM 20/09 A2994 RMK T02000090 IEM_DS3505
ZBHH,2010-06-07 18:00,ZBHH 071800Z AUTO 25004KT 12SM 20/08 A2994 RMK SLP084 T01990083 52007 IEM_DS3505
ZBHH,2010-06-07 19:00,ZBHH 071900Z AUTO 19008KT 4SM 19/09 A2994 RMK T01900090 IEM_DS3505
ZBHH,2010-06-07 20:00,ZBHH 072000Z AUTO 21006KT 4SM 19/10 A2994 RMK T01900100 IEM_DS3505
ZBHH,2010-06-07 21:00,ZBHH 072100Z AUTO 18004KT 6SM 18/09 A2997 RMK SLP096 T01820090 52009 IEM_DS3505
ZBHH,2010-06-07 22:00,ZBHH 072200Z AUTO 20008KT 3SM 18/11 A2997 RMK T01800110 IEM_DS3505
ZBHH,2010-06-07 23:00,ZBHH 072300Z AUTO 18004KT 2 1/2SM 17/13 A3000 RMK T01700130 IEM_DS3505
ZBHH,2010-06-08 00:00,ZBHH 080000Z AUTO 20004KT 6SM 18/10 A3003 RMK SLP118 T01790098 52015 IEM_DS3505
ZBHH,2010-06-08 01:00,ZBHH 080100Z AUTO 26010KT 1 1/2SM 16/12 A3003 RMK T01600120 IEM_DS3505
ZBHH,2010-06-08 02:00,ZBHH 080200Z AUTO 24004KT 2 1/2SM 17/12 A3003 RMK T01700120 IEM_DS3505
ZBHH,2010-06-08 03:00,ZBHH 080300Z AUTO 25004KT 12SM 18/10 A3003 RMK SLP131 T01850096 52007 IEM_DS3505
ZBHH,2010-06-08 04:00,ZBHH 080400Z AUTO 25006KT 3SM 19/10 A3003 RMK T01900100 IEM_DS3505
ZBHH,2010-06-08 05:00,ZBHH 080500Z AUTO 23006KT 3SM 19/11 A3003 RMK T01900110 IEM_DS3505
ZBHH,2010-06-08 06:00,ZBHH 080600Z AUTO 22004KT 6SM 19/08 A3000 RMK 60000 SLP125 T01940084 57008 IEM_DS3505
ZBHH,2010-06-08 07:00,ZBHH 080700Z AUTO 23006KT 3SM 19/12 A3000 RMK T01900120 IEM_DS3505
ZBHH,2010-06-08 08:00,ZBHH 080800Z AUTO 27006KT 7SM 19/08 A3000 RMK T01900080 IEM_DS3505
ZBHH,2010-06-08 09:00,ZBHH 080900Z AUTO 20004KT 6SM 19/07 A3000 RMK SLP126 T01880066 57003 IEM_DS3505
ZBHH,2010-06-08 10:00,ZBHH 081000Z AUTO 24006KT 7SM 19/08 A3000 RMK T01900080 IEM_DS3505
ZBHH,2010-06-08 11:00,ZBHH 081100Z AUTO 21004KT 7SM 19/08 A3000 RMK T01900080 IEM_DS3505
ZBHH,2010-06-08 12:00,ZBHH 081200Z AUTO 22002KT 6SM 18/06 A3003 RMK SLP138 T01820061 52009 IEM_DS3505
ZBHH,2010-06-08 13:00,ZBHH 081300Z AUTO 21006KT 5SM 18/09 A3003 RMK T01800090 IEM_DS3505
ZBHH,2010-06-08 14:00,ZBHH 081400Z AUTO 22004KT 5SM 17/09 A3006 RMK T01700090 IEM_DS3505
ZBHH,2010-06-08 15:00,ZBHH 081500Z AUTO 18004KT 9SM 18/07 A3006 RMK SLP147 T01750073 52007 IEM_DS3505
ZBHH,2010-06-08 16:00,ZBHH 081600Z AUTO 12002KT 4SM 16/11 A3006 RMK T01600110 IEM_DS3505
ZBHH,2010-06-08 17:00,ZBHH 081700Z AUTO 07002KT 4SM 16/11 A3003 RMK T01600110 IEM_DS3505
ZBHH,2010-06-08 18:00,ZBHH 081800Z AUTO 18002KT 12SM 16/09 A3003 RMK 60000 SLP144 T01570094 57004 IEM_DS3505
ZBHH,2010-06-08 19:00,ZBHH 081900Z AUTO 22002KT 4SM 15/11 A3003 RMK T01500110 IEM_DS3505
ZBHH,2010-06-08 20:00,ZBHH 082000Z AUTO 23004KT 4SM 15/12 A3003 RMK T01500120 IEM_DS3505
ZBHH,2010-06-08 21:00,ZBHH 082100Z AUTO 22002KT 3SM 14/10 A3003 RMK 70000 SLP146 T01420102 57002 IEM_DS3505
ZBHH,2010-06-08 22:00,ZBHH 082200Z AUTO 19002KT 2SM 16/14 A3003 RMK T01600140 IEM_DS3505
ZBHH,2010-06-08 23:00,ZBHH 082300Z AUTO 18004KT 2SM 17/14 A3006 RMK T01700140 IEM_DS3505
ZBHH,2010-06-09 00:00,ZBHH 090000Z AUTO 09004KT 2 1/2SM 15/10 A3006 RMK 60000 70000 SLP158 T01520104 52011 IEM_DS3505
ZBHH,2010-06-09 01:00,ZBHH 090100Z AUTO 10004KT 2 1/2SM 15/12 A3009 RMK T01500120 IEM_DS3505
ZBHH,2010-06-09 02:00,ZBHH 090200Z AUTO 13004KT 2 1/2SM 17/12 A3009 RMK T01700120 IEM_DS3505
ZBHH,2010-06-09 03:00,ZBHH 090300Z AUTO 25004KT 5SM 15/12 A3009 RMK SLP167 T01510122 52007 IEM_DS3505
ZBHH,2010-06-09 04:00,ZBHH 090400Z AUTO 24006KT 2 1/2SM 16/13 A3009 RMK T01600130 IEM_DS3505
ZBHH,2010-06-09 05:00,ZBHH 090500Z AUTO 29008KT 3SM 15/11 A3009 RMK T01500110 IEM_DS3505
ZBHH,2010-06-09 06:00,ZBHH 090600Z AUTO 27002KT 5SM 16/10 A3006 RMK 60008 SLP163 T01570102 57006 IEM_DS3505
ZBHH,2010-06-09 07:00,ZBHH 090700Z AUTO 24006KT 5SM 17/10 A3006 RMK T01700100 IEM_DS3505
ZBHH,2010-06-09 08:00,ZBHH 090800Z AUTO 20004KT 5SM 18/10 A3003 RMK T01800100 IEM_DS3505
ZBHH,2010-06-09 09:00,ZBHH 090900Z AUTO 20002KT 6SM 17/09 A3003 RMK SLP153 T01690093 57010 IEM_DS3505
ZBHH,2010-06-09 10:00,ZBHH 091000Z AUTO 10008KT 3SM 16/14 A3006 RMK T01600140 IEM_DS3505
ZBHH,2010-06-09 11:00,ZBHH 091100Z AUTO 09008KT 6SM 14/12 A3006 RMK T01400120 IEM_DS3505
ZBHH,2010-06-09 12:00,ZBHH 091200Z AUTO 09006KT 6SM 16/10 A3006 RMK 60000 SLP160 T01560097 52006 IEM_DS3505
ZBHH,2010-06-09 13:00,ZBHH 091300Z AUTO 07004KT 7SM 14/11 A3006 RMK T01400110 IEM_DS3505
ZBHH,2010-06-09 14:00,ZBHH 091400Z AUTO 03004KT 7SM 14/11 A3006 RMK T01400110 IEM_DS3505
ZBHH,2010-06-09 15:00,ZBHH 091500Z AUTO 04002KT 12SM 15/09 A3006 RMK SLP162 T01470089 54000 IEM_DS3505
ZBHH,2010-06-09 16:00,ZBHH 091600Z AUTO 03002KT 7SM 14/10 A3006 RMK T01400100 IEM_DS3505
ZBHH,2010-06-09 17:00,ZBHH 091700Z AUTO 15002KT 7SM 14/10 A3003 RMK T01400100 IEM_DS3505
ZBHH,2010-06-09 18:00,ZBHH 091800Z AUTO 04002KT 12SM 14/09 A3003 RMK SLP151 T01420088 57010 IEM_DS3505
ZBHH,2010-06-09 19:00,ZBHH 091900Z AUTO 08004KT 7SM 13/11 A3000 RMK T01300110 IEM_DS3505
ZBHH,2010-06-09 20:00,ZBHH 092000Z AUTO 06002KT 7SM 13/11 A3000 RMK T01300110 IEM_DS3505
ZBHH,2010-06-09 21:00,ZBHH 092100Z AUTO 04002KT 16SM 13/09 A3000 RMK 70008 SLP143 T01310088 57007 IEM_DS3505
ZBHH,2010-06-09 22:00,ZBHH 092200Z AUTO 05002KT 7SM 12/10 A3000 RMK T01200100 IEM_DS3505
ZBHH,2010-06-09 23:00,ZBHH 092300Z AUTO 07002KT 6SM 14/11 A3000 RMK T01400110 IEM_DS3505
ZBHH,2010-06-10 00:00,ZBHH 100000Z AUTO 22004KT 16SM 16/08 A3000 RMK 70008 SLP142 T01580083 52002 IEM_DS3505
ZBHH,2010-06-10 01:00,ZBHH 100100Z AUTO 21004KT 7SM 17/10 A3000 RMK T01700100 IEM_DS3505
ZBHH,2010-06-10 02:00,ZBHH 100200Z AUTO 23006KT 7SM 18/09 A3000 RMK T01800090 IEM_DS3505
ZBHH,2010-06-10 03:00,ZBHH 100300Z AUTO 22002KT 7SM 19/09 A3000 RMK SLP127 T01910093 57008 IEM_DS3505
ZBHH,2010-06-10 04:00,ZBHH 100400Z AUTO 20008KT 7SM 20/09 A2997 RMK T02000090 IEM_DS3505
ZBHH,2010-06-10 05:00,ZBHH 100500Z AUTO 25008KT 7SM 22/09 A2994 RMK T02200090 IEM_DS3505
ZBHH,2010-06-10 06:00,ZBHH 100600Z AUTO 25006KT 9SM 23/07 A2991 RMK SLP095 T02270073 57023 IEM_DS3505
ZBHH,2010-06-10 07:00,ZBHH 100700Z AUTO 7SM 24/09 A2988 RMK T02400090 IEM_DS3505
ZBHH,2010-06-10 08:00,ZBHH 100800Z AUTO 21010G19KT 7SM 25/08 A2985 RMK T02500080 IEM_DS3505
ZBHH,2010-06-10 09:00,ZBHH 100900Z AUTO 22006KT 12SM 25/06 A2985 RMK SLP070 T02490057 57020 IEM_DS3505
ZBHH,2010-06-10 10:00,ZBHH 101000Z AUTO 24012KT 6SM 25/07 A2983 RMK T02500070 IEM_DS3505
ZBHH,2010-06-10 11:00,ZBHH 101100Z AUTO 23008KT 7SM 24/07 A2983 RMK T02400070 IEM_DS3505
ZBHH,2010-06-10 12:00,ZBHH 101200Z AUTO 20002KT 12SM 24/06 A2983 RMK SLP060 T02390062 57006 IEM_DS3505
ZBHH,2010-06-10 13:00,ZBHH 101300Z AUTO 14004KT 6SM 21/08 A2983 RMK T02100080 IEM_DS3505
ZBHH,2010-06-10 14:00,ZBHH 101400Z AUTO 02004KT 6SM 20/09 A2985 RMK T02000090 IEM_DS3505
ZBHH,2010-06-10 15:00,ZBHH 101500Z AUTO 29002KT 12SM 21/08 A2985 RMK SLP072 T02070077 52011 IEM_DS3505
ZBHH,2010-06-10 16:00,ZBHH 101600Z AUTO 07002KT 6SM 17/09 A2988 RMK T01700090 IEM_DS3505
ZBHH,2010-06-10 17:00,ZBHH 101700Z AUTO 15004KT 6SM 17/09 A2988 RMK T01700090 IEM_DS3505
ZBHH,2010-06-10 18:00,ZBHH 101800Z AUTO 22002KT 12SM 19/07 A2988 RMK SLP072 T01930074 52004 IEM_DS3505
ZBHH,2010-06-10 19:00,ZBHH 101900Z AUTO 12006KT 6SM 16/09 A2988 RMK T01600090 IEM_DS3505
ZBHH,2010-06-10 20:00,ZBHH 102000Z AUTO 04004KT 6SM 15/09 A2988 RMK T01500090 IEM_DS3505
ZBHH,2010-06-10 21:00,ZBHH 102100Z AUTO 09002KT 12SM 16/08 A2991 RMK SLP085 T01570080 52009 IEM_DS3505
ZBHH,2010-06-10 22:00,ZBHH 102200Z AUTO 03004KT 6SM 15/09 A2991 RMK T01500090 IEM_DS3505
ZBHH,2010-06-10 23:00,ZBHH 102300Z AUTO 09004KT 6SM 18/10 A2991 RMK T01800100 IEM_DS3505
ZBHH,2010-06-11 00:00,ZBHH 110000Z AUTO 11004KT 7SM 20/08 A2991 RMK SLP084 T02000080 52005 IEM_DS3505
ZBHH,2010-06-11 01:00,ZBHH 110100Z AUTO 21006KT 6SM 21/10 A2991 RMK T02100100 IEM_DS3505
ZBHH,2010-06-11 02:00,ZBHH 110200Z AUTO 23006KT 6SM 22/11 A2991 RMK T02200110 IEM_DS3505
ZBHH,2010-06-11 03:00,ZBHH 110300Z AUTO 25004KT 6SM 24/10 A2988 RMK SLP072 T02400099 57009 IEM_DS3505
ZBHH,2010-06-11 04:00,ZBHH 110400Z AUTO 25006KT 7SM 26/11 A2988 RMK T02600110 IEM_DS3505
ZBHH,2010-06-11 05:00,ZBHH 110500Z AUTO 23010KT 7SM 28/10 A2985 RMK T02800100 IEM_DS3505
ZBHH,2010-06-11 06:00,ZBHH 110600Z AUTO 25010G23KT 12SM 29/07 A2983 RMK SLP038 T02910071 57023 IEM_DS3505
ZBHH,2010-06-11 07:00,ZBHH 110700Z AUTO 23014KT 7SM 29/07 A2980 RMK T02900070 IEM_DS3505
ZBHH,2010-06-11 08:00,ZBHH 110800Z AUTO 08012KT 7SM 21/11 A2985 RMK T02100110 IEM_DS3505
ZBHH,2010-06-11 09:00,ZBHH 110900Z AUTO 04012KT 12SM 20/10 A2983 RMK SLP062 T01960100 57003 IEM_DS3505
ZBHH,2010-06-11 10:00,ZBHH 111000Z AUTO 22010KT 7SM 22/11 A2983 RMK T02200110 IEM_DS3505
ZBHH,2010-06-11 11:00,ZBHH 111100Z AUTO 15010KT 7SM 21/11 A2985 RMK T02100110 IEM_DS3505
ZBHH,2010-06-11 12:00,ZBHH 111200Z AUTO 07002KT 9SM 22/10 A2991 RMK 60008 SLP077 T02200105 52026 IEM_DS3505
ZBHH,2010-06-11 13:00,ZBHH 111300Z AUTO 03004KT 7SM 18/12 A2988 RMK T01800120 IEM_DS3505
ZBHH,2010-06-11 14:00,ZBHH 111400Z AUTO 02004KT 7SM 17/12 A2988 RMK T01700120 IEM_DS3505
ZBHH,2010-06-11 15:00,ZBHH 111500Z AUTO 04002KT 19SM 18/11 A2988 RMK SLP075 T01760110 57003 IEM_DS3505
ZBHH,2010-06-11 16:00,ZBHH 111600Z AUTO 05004KT 6SM 15/11 A2988 RMK T01500110 IEM_DS3505
ZBHH,2010-06-11 17:00,ZBHH 111700Z AUTO 08006KT 6SM 15/11 A2985 RMK T01500110 IEM_DS3505
ZBHH,2010-06-11 18:00,ZBHH 111800Z AUTO 07002KT 19SM 16/11 A2988 RMK 60000 SLP070 T01590111 52002 IEM_DS3505
ZBHH,2010-06-11 19:00,ZBHH 111900Z AUTO 08004KT 6SM 13/11 A2988 RMK T01300110 IEM_DS3505
ZBHH,2010-06-11 20:00,ZBHH 112000Z AUTO 09004KT 6SM 13/10 A2988 RMK T01300100 IEM_DS3505
ZBHH,2010-06-11 21:00,ZBHH 112100Z AUTO 04002KT 12SM 14/10 A2988 RMK 70009 SLP091 T01410097 57002 IEM_DS3505
ZBHH,2010-06-11 22:00,ZBHH 112200Z AUTO 06004KT 6SM 14/11 A2988 RMK T01400110 IEM_DS3505
ZBHH,2010-06-11 23:00,ZBHH 112300Z AUTO 06004KT 6SM 16/11 A2988 RMK T01600110 IEM_DS3505
ZBHH,2010-06-12 00:00,ZBHH 120000Z AUTO 09002KT 9SM 20/10 A2988 RMK 70009 SLP078 T02000096 52004 IEM_DS3505
ZBHH,2010-06-12 01:00,ZBHH 120100Z AUTO 21004KT 6SM 21/12 A2988 RMK T02100120 IEM_DS3505
ZBHH,2010-06-12 02:00,ZBHH 120200Z AUTO 20004KT 6SM 23/12 A2988 RMK T02300120 IEM_DS3505
ZBHH,2010-06-12 03:00,ZBHH 120300Z AUTO 22004KT 12SM 24/07 A2988 RMK SLP071 T02420074 57007 IEM_DS3505
ZBHH,2010-06-12 04:00,ZBHH 120400Z AUTO 24006KT 7SM 26/13 A2985 RMK T02600130 IEM_DS3505
ZBHH,2010-06-12 05:00,ZBHH 120500Z AUTO 24010KT 7SM 28/10 A2983 RMK T02800100 IEM_DS3505
ZBHH,2010-06-12 06:00,ZBHH 120600Z AUTO 25010KT 12SM 29/07 A2980 RMK SLP039 T02940067 57022 IEM_DS3505
ZBHH,2010-06-12 07:00,ZBHH 120700Z AUTO 24012KT 7SM 30/08 A2977 RMK T03000080 IEM_DS3505
ZBHH,2010-06-12 08:00,ZBHH 120800Z AUTO 24014KT 7SM 31/07 A2974 RMK T03100070 IEM_DS3505
ZBHH,2010-06-12 09:00,ZBHH 120900Z AUTO 25008KT 12SM 31/03 A2974 RMK SLP012 T03140034 57023 IEM_DS3505
ZBHH,2010-06-12 10:00,ZBHH 121000Z AUTO 25012KT 7SM 31/07 A2971 RMK T03100070 IEM_DS3505
ZBHH,2010-06-12 11:00,ZBHH 121100Z AUTO 24008KT 7SM 29/08 A2971 RMK T02900080 IEM_DS3505
ZBHH,2010-06-12 12:00,ZBHH 121200Z AUTO 22004KT 12SM 29/01 A2974 RMK SLP006 T02860012 54000 IEM_DS3505
ZBHH,2010-06-12 13:00,ZBHH 121300Z AUTO 23006KT 6SM 25/06 A2974 RMK T02500060 IEM_DS3505
ZBHH,2010-06-12 14:00,ZBHH 121400Z AUTO 20006KT 6SM 22/08 A2977 RMK T02200080 IEM_DS3505
ZBHH,2010-06-12 15:00,ZBHH 121500Z AUTO 22004KT 12SM 25/04 A2977 RMK SLP015 T02460038 52008 IEM_DS3505
ZBHH,2010-06-12 16:00,ZBHH 121600Z AUTO 10002KT 6SM 21/07 A2977 RMK T02100070 IEM_DS3505
ZBHH,2010-06-12 17:00,ZBHH 121700Z AUTO 08004KT 6SM 17/10 A2977 RMK T01700100 IEM_DS3505
ZBHH,2010-06-12 18:00,ZBHH 121800Z AUTO 02002KT 19SM 19/05 A2977 RMK SLP017 T01920053 52002 IEM_DS3505
ZBHH,2010-06-12 19:00,ZBHH 121900Z AUTO 07002KT 6SM 17/08 A2977 RMK T01700080 IEM_DS3505
ZBHH,2010-06-12 20:00,ZBHH 122000Z AUTO 03004KT 6SM 16/09 A2977 RMK T01600090 IEM_DS3505
ZBHH,2010-06-12 21:00,ZBHH 122100Z AUTO 09004KT 12SM 18/06 A2977 RMK SLP017 T01750058 54000 IEM_DS3505
ZBHH,2010-06-12 22:00,ZBHH 122200Z AUTO 06004KT 6SM 15/09 A2977 RMK T01500090 IEM_DS3505
ZBHH,2010-06-12 23:00,ZBHH 122300Z AUTO 15006KT 6SM 20/09 A2980 RMK T02000090 IEM_DS3505
ZBHH,2010-06-13 00:00,ZBHH 130000Z AUTO 04002KT 19SM 22/06 A2980 RMK SLP024 T02180061 52009 IEM_DS3505
ZBHH,2010-06-13 01:00,ZBHH 130100Z AUTO 23006KT 6SM 23/07 A2980 RMK T02300070 IEM_DS3505
ZBHH,2010-06-13 02:00,ZBHH 130200Z AUTO 25008KT 7SM 24/08 A2977 RMK T02400080 IEM_DS3505
ZBHH,2010-06-13 03:00,ZBHH 130300Z AUTO 22008KT 19SM 25/07 A2977 RMK SLP013 T02500072 57011 IEM_DS3505
ZBHH,2010-06-13 04:00,ZBHH 130400Z AUTO 25012KT 7SM 26/11 A2974 RMK T02600110 IEM_DS3505
ZBHH,2010-06-13 05:00,ZBHH 130500Z AUTO 22014KT 7SM 29/11 A2971 RMK T02900110 IEM_DS3505
ZBHH,2010-06-13 06:00,ZBHH 130600Z AUTO 25004KT 19SM 30/04 A2971 RMK SLP994 T02960036 57018 IEM_DS3505
ZBHH,2010-06-13 07:00,ZBHH 130700Z AUTO 03004KT 7SM 28/07 A2968 RMK T02800070 IEM_DS3505
ZBHH,2010-06-13 08:00,ZBHH 130800Z AUTO 21014KT 7SM 26/07 A2968 RMK T02600070 IEM_DS3505
ZBHH,2010-06-13 09:00,ZBHH 130900Z AUTO 16012G29KT 19SM 26/07 A2971 RMK SLP006 T02620068 52001 IEM_DS3505
ZBHH,2010-06-13 10:00,ZBHH 131000Z AUTO 11008KT 7SM 24/10 A2974 RMK T02400100 IEM_DS3505
ZBHH,2010-06-13 11:00,ZBHH 131100Z AUTO 08006KT 7SM 22/10 A2974 RMK T02200100 IEM_DS3505
ZBHH,2010-06-13 12:00,ZBHH 131200Z AUTO 09004KT 19SM 24/07 A2977 RMK SLP025 T02370069 52020 IEM_DS3505
ZBHH,2010-06-13 13:00,ZBHH 131300Z AUTO 05006KT 7SM 21/11 A2977 RMK T02100110 IEM_DS3505
ZBHH,2010-06-13 14:00,ZBHH 131400Z AUTO 05006KT 7SM 20/10 A2980 RMK T02000100 IEM_DS3505
ZBHH,2010-06-13 15:00,ZBHH 131500Z AUTO 09004KT 12SM 20/09 A2980 RMK SLP039 T02040093 52012 IEM_DS3505
ZBHH,2010-06-13 16:00,ZBHH 131600Z AUTO 10004KT 7SM 17/11 A2980 RMK T01700110 IEM_DS3505
ZBHH,2010-06-13 17:00,ZBHH 131700Z AUTO 07002KT 7SM 16/10 A2980 RMK T01600100 IEM_DS3505
ZBHH,2010-06-13 18:00,ZBHH 131800Z AUTO 11002KT 12SM 17/07 A2980 RMK SLP037 T01660073 54000 IEM_DS3505
ZBHH,2010-06-13 19:00,ZBHH 131900Z AUTO 06004KT 7SM 14/09 A2980 RMK T01400090 IEM_DS3505
ZBHH,2010-06-13 20:00,ZBHH 132000Z AUTO 07004KT 7SM 13/09 A2980 RMK T01300090 IEM_DS3505
ZBHH,2010-06-13 21:00,ZBHH 132100Z AUTO 09002KT 12SM 15/07 A2983 RMK SLP053 T01460074 52004 IEM_DS3505
ZBHH,2010-06-13 22:00,ZBHH 132200Z AUTO 07004KT 6SM 15/09 A2983 RMK T01500090 IEM_DS3505
ZBHH,2010-06-13 23:00,ZBHH 132300Z AUTO 05004KT 6SM 18/09 A2983 RMK T01800090 IEM_DS3505
ZBHH,2010-06-14 00:00,ZBHH 140000Z AUTO 11002KT 12SM 22/05 A2983 RMK SLP049 T02150054 52005 IEM_DS3505
ZBHH,2010-06-14 01:00,ZBHH 140100Z AUTO 19004KT 6SM 23/08 A2983 RMK T02300080 IEM_DS3505
ZBHH,2010-06-14 02:00,ZBHH 140200Z AUTO 20006KT 6SM 25/07 A2983 RMK T02500070 IEM_DS3505
ZBHH,2010-06-14 03:00,ZBHH 140300Z AUTO 18006KT 16SM 26/04 A2983 RMK SLP047 T02650043 52001 IEM_DS3505
ZBHH,2010-06-14 04:00,ZBHH 140400Z AUTO 27010KT 7SM 28/05 A2980 RMK T02800050 IEM_DS3505
ZBHH,2010-06-14 05:00,ZBHH 140500Z AUTO 17010KT 7SM 29/05 A2980 RMK T02900050 IEM_DS3505
ZBHH,2010-06-14 06:00,ZBHH 140600Z AUTO 18004KT 19SM 29/02 A2977 RMK SLP029 T02900023 57018 IEM_DS3505
ZBHH,2010-06-14 07:00,ZBHH 140700Z AUTO 25010KT 7SM 30/04 A2974 RMK T03000040 IEM_DS3505
ZBHH,2010-06-14 08:00,ZBHH 140800Z AUTO 22012KT 7SM 30/05 A2974 RMK T03000050 IEM_DS3505
ZBHH,2010-06-14 09:00,ZBHH 140900Z AUTO 22010KT 19SM 30/01 A2971 RMK SLP010 T03030008 57018 IEM_DS3505
ZBHH,2010-06-14 10:00,ZBHH 141000Z AUTO 23010KT 7SM 30/05 A2971 RMK T03000050 IEM_DS3505
ZBHH,2010-06-14 11:00,ZBHH 141100Z AUTO 23008KT 6SM 29/04 A2971 RMK T02900040 IEM_DS3505
ZBHH,2010-06-14 12:00,ZBHH 141200Z AUTO 25006KT 19SM 28/03 A2974 RMK SLP008 T02770034 52006 IEM_DS3505
ZBHH,2010-06-14 13:00,ZBHH 141300Z AUTO 36006KT 6SM 24/03 A2977 RMK T02400030 IEM_DS3505
ZBHH,2010-06-14 14:00,ZBHH 141400Z AUTO 03006KT 6SM 21/01 A2977 RMK T02100010 IEM_DS3505
ZBHH,2010-06-14 15:00,ZBHH 141500Z AUTO 34002KT 19SM 22/00 A2977 RMK SLP021 T02150001 52009 IEM_DS3505
ZBHH,2010-06-14 16:00,ZBHH 141600Z AUTO 05004KT 7SM 18/03 A2977 RMK T01800030 IEM_DS3505
ZBHH,2010-06-14 17:00,ZBHH 141700Z AUTO 05006KT 7SM 18/04 A2977 RMK T01800040 IEM_DS3505
ZBHH,2010-06-14 18:00,ZBHH 141800Z AUTO 09002KT 12SM 19/01 A2974 RMK SLP014 T01890010 57006 IEM_DS3505
ZBHH,2010-06-14 19:00,ZBHH 141900Z AUTO 06006KT 7SM 16/06 A2974 RMK T01600060 IEM_DS3505
ZBHH,2010-06-14 20:00,ZBHH 142000Z AUTO 08004KT 7SM 15/06 A2974 RMK T01500060 IEM_DS3505
ZBHH,2010-06-14 21:00,ZBHH 142100Z AUTO 09002KT 12SM 18/04 A2977 RMK SLP017 T01830041 52004 IEM_DS3505
ZBHH,2010-06-14 22:00,ZBHH 142200Z AUTO 08004KT 7SM 17/07 A2977 RMK T01700070 IEM_DS3505
ZBHH,2010-06-14 23:00,ZBHH 142300Z AUTO 09004KT 7SM 20/06 A2977 RMK T02000060 IEM_DS3505
ZBHH,2010-06-15 00:00,ZBHH 150000Z AUTO 09002KT 12SM 22/04 A2977 RMK SLP019 T02240045 52004 IEM_DS3505
ZBHH,2010-06-15 01:00,ZBHH 150100Z AUTO 13002KT 6SM 25/04 A2977 RMK T02500040 IEM_DS3505
ZBHH,2010-06-15 02:00,ZBHH 150200Z AUTO 16004KT 7SM 26/05 A2977 RMK T02600050 IEM_DS3505
ZBHH,2010-06-15 03:00,ZBHH 150300Z AUTO 09002KT 16SM 26/04 A2974 RMK SLP014 T02650043 57008 IEM_DS3505
ZBHH,2010-06-15 04:00,ZBHH 150400Z AUTO 20008KT 7SM 28/05 A2974 RMK T02800050 IEM_DS3505
ZBHH,2010-06-15 05:00,ZBHH 150500Z AUTO 25014KT 7SM 31/03 A2968 RMK T03100030 IEM_DS3505
ZBHH,2010-06-15 06:00,ZBHH 150600Z AUTO 25010G25KT 19SM 32/01 A2965 RMK SLP977 T03250006 57027 IEM_DS3505
ZBHH,2010-06-15 07:00,ZBHH 150700Z AUTO 25019KT 7SM 33/01 A2965 RMK T03300010 IEM_DS3505
ZBHH,2010-06-15 08:00,ZBHH 150800Z AUTO 26006G16KT 7SM 33/02 A2962 RMK T03300020 IEM_DS3505
ZBHH,2010-06-15 09:00,ZBHH 150900Z AUTO 27002KT 19SM 33/M00 A2962 RMK SLP958 T03311001 57017 IEM_DS3505
ZBHH,2010-06-15 10:00,ZBHH 151000Z AUTO 01012G21KT 7SM 30/03 A2962 RMK T03000030 IEM_DS3505
ZBHH,2010-06-15 11:00,ZBHH 151100Z AUTO 03012KT 7SM 29/03 A2962 RMK T02900030 IEM_DS3505
ZBHH,2010-06-15 12:00,ZBHH 151200Z AUTO 09004KT 19SM 28/03 A2962 RMK SLP965 T02800030 52005 IEM_DS3505
ZBHH,2010-06-15 13:00,ZBHH 151300Z AUTO 06008KT 7SM 24/05 A2962 RMK T02400050 IEM_DS3505
ZBHH,2010-06-15 14:00,ZBHH 151400Z AUTO 30004KT 7SM 24/05 A2968 RMK T02400050 IEM_DS3505
ZBHH,2010-06-15 15:00,ZBHH 151500Z AUTO 34004KT 19SM 24/06 A2971 RMK SLP990 T02410064 52022 IEM_DS3505
ZBHH,2010-06-15 16:00,ZBHH 151600Z AUTO 35008KT 7SM 23/08 A2971 RMK T02300080 IEM_DS3505
ZBHH,2010-06-15 17:00,ZBHH 151700Z AUTO 03006KT 7SM 22/08 A2968 RMK T02200080 IEM_DS3505
ZBHH,2010-06-15 18:00,ZBHH 151800Z AUTO 32004KT 19SM 23/06 A2968 RMK SLP972 T02320061 57007 IEM_DS3505
ZBHH,2010-06-15 19:00,ZBHH 151900Z AUTO 20004KT 7SM 20/09 A2965 RMK T02000090 IEM_DS3505
ZBHH,2010-06-15 20:00,ZBHH 152000Z AUTO 31006KT 7SM 20/09 A2968 RMK T02000090 IEM_DS3505
ZBHH,2010-06-15 21:00,ZBHH 152100Z AUTO 11006KT 19SM 22/07 A2965 RMK SLP967 T02160071 57006 IEM_DS3505
ZBHH,2010-06-15 22:00,ZBHH 152200Z AUTO 10010KT 7SM 21/08 A2965 RMK T02100080 IEM_DS3505
ZBHH,2010-06-15 23:00,ZBHH 152300Z AUTO 06008KT 7SM 22/09 A2965 RMK T02200090 IEM_DS3505
ZBHH,2010-06-16 00:00,ZBHH 160000Z AUTO 07004KT 19SM 23/08 A2965 RMK SLP974 T02310076 54000 IEM_DS3505
ZBHH,2010-06-16 01:00,ZBHH 160100Z AUTO 11010KT 7SM 25/08 A2962 RMK T02500080 IEM_DS3505
ZBHH,2010-06-16 02:00,ZBHH 160200Z AUTO 11008KT 7SM 27/09 A2962 RMK T02700090 IEM_DS3505
ZBHH,2010-06-16 03:00,ZBHH 160300Z AUTO 18004KT 19SM 27/08 A2959 RMK SLP953 T02700075 57019 IEM_DS3505
ZBHH,2010-06-16 04:00,ZBHH 160400Z AUTO 26010KT 7SM 28/09 A2956 RMK T02800090 IEM_DS3505
ZBHH,2010-06-16 05:00,ZBHH 160500Z AUTO 25010KT 7SM 30/08 A2953 RMK T03000080 IEM_DS3505
ZBHH,2010-06-16 06:00,ZBHH 160600Z AUTO 32006KT 19SM 27/08 A2953 RMK SLP943 T02740083 57009 IEM_DS3505
ZBHH,2010-06-16 07:00,ZBHH 160700Z AUTO 34014KT 7SM 28/09 A2956 RMK T02800090 IEM_DS3505
ZBHH,2010-06-16 08:00,ZBHH 160800Z AUTO 03014KT 7SM 27/09 A2956 RMK T02700090 IEM_DS3505
ZBHH,2010-06-16 09:00,ZBHH 160900Z AUTO 14010KT 19SM 26/08 A2959 RMK SLP952 T02570078 52002 IEM_DS3505
ZBHH,2010-06-16 10:00,ZBHH 161000Z AUTO 08014KT 7SM 20/13 A2959 RMK T02000130 IEM_DS3505
ZBHH,2010-06-16 11:00,ZBHH 161100Z AUTO 08012KT 7SM 19/13 A2962 RMK T01900130 IEM_DS3505
ZBHH,2010-06-16 12:00,ZBHH 161200Z AUTO 07006KT 12SM 18/13 A2968 RMK 60004 SLP991 T01780129 52023 IEM_DS3505
ZBHH,2010-06-16 13:00,ZBHH 161300Z AUTO 04010KT 7SM 17/13 A2965 RMK T01700130 IEM_DS3505
ZBHH,2010-06-16 14:00,ZBHH 161400Z AUTO 04004KT 7SM 17/13 A2968 RMK T01700130 IEM_DS3505
ZBHH,2010-06-16 15:00,ZBHH 161500Z AUTO 00000KT 19SM 18/10 A2968 RMK SLP998 T01770098 52013 IEM_DS3505
ZBHH,2010-06-16 16:00,ZBHH 161600Z AUTO 04002KT 7SM 15/13 A2968 RMK T01500130 IEM_DS3505
ZBHH,2010-06-16 17:00,ZBHH 161700Z AUTO 05004KT 6SM 14/12 A2968 RMK T01400120 IEM_DS3505
ZBHH,2010-06-16 18:00,ZBHH 161800Z AUTO 18002KT 19SM 16/11 A2965 RMK 60000 SLP994 T01650110 57005 IEM_DS3505
ZBHH,2010-06-16 19:00,ZBHH 161900Z AUTO 08004KT 6SM 14/12 A2965 RMK T01400120 IEM_DS3505
ZBHH,2010-06-16 20:00,ZBHH 162000Z AUTO 04006KT 7SM 14/12 A2965 RMK T01400120 IEM_DS3505
ZBHH,2010-06-16 21:00,ZBHH 162100Z AUTO 02002KT 19SM 16/10 A2968 RMK 70005 SLP001 T01560104 52001 IEM_DS3505
ZBHH,2010-06-16 22:00,ZBHH 162200Z AUTO 08006KT 7SM 15/12 A2968 RMK T01500120 IEM_DS3505
ZBHH,2010-06-16 23:00,ZBHH 162300Z AUTO 08004KT 7SM 17/12 A2968 RMK T01700120 IEM_DS3505
ZBHH,2010-06-17 00:00,ZBHH 170000Z AUTO 29006KT 19SM 18/07 A2968 RMK 70005 SLP019 T01820073 52006 IEM_DS3505
ZBHH,2010-06-17 01:00,ZBHH 170100Z AUTO 05002KT 7SM 19/10 A2968 RMK T01900100 IEM_DS3505
ZBHH,2010-06-17 02:00,ZBHH 170200Z AUTO 19006KT 7SM 21/09 A2968 RMK T02100090 IEM_DS3505
ZBHH,2010-06-17 03:00,ZBHH 170300Z AUTO 11002KT 7SM 20/08 A2968 RMK SLP016 T01970078 54000 IEM_DS3505
ZBHH,2010-06-17 04:00,ZBHH 170400Z AUTO 19008KT 7SM 20/09 A2968 RMK T02000090 IEM_DS3505
ZBHH,2010-06-17 05:00,ZBHH 170500Z AUTO 25002KT 7SM 21/09 A2968 RMK T02100090 IEM_DS3505
ZBHH,2010-06-17 06:00,ZBHH 170600Z AUTO 04004KT 12SM 19/10 A2971 RMK 60016 SLP019 T01940101 54000 IEM_DS3505
ZBHH,2010-06-17 07:00,ZBHH 170700Z AUTO 09004KT 7SM 18/11 A2971 RMK T01800110 IEM_DS3505
ZBHH,2010-06-17 08:00,ZBHH 170800Z AUTO 35012KT 7SM 20/08 A2971 RMK T02000080 IEM_DS3505
ZBHH,2010-06-17 09:00,ZBHH 170900Z AUTO 02006KT 12SM 19/06 A2971 RMK SLP030 T01900062 52007 IEM_DS3505
ZBHH,2010-06-17 10:00,ZBHH 171000Z AUTO 02004KT 7SM 17/09 A2974 RMK T01700090 IEM_DS3505
ZBHH,2010-06-17 11:00,ZBHH 171100Z AUTO 12002KT 7SM 16/11 A2974 RMK T01600110 IEM_DS3505
ZBHH,2010-06-17 12:00,ZBHH 171200Z AUTO 16002KT 12SM 16/09 A2974 RMK 60002 SLP037 T01650090 52007 IEM_DS3505
ZBHH,2010-06-17 13:00,ZBHH 171300Z AUTO 19006KT 7SM 14/12 A2977 RMK T01400120 IEM_DS3505
ZBHH,2010-06-17 14:00,ZBHH 171400Z AUTO 10004KT 7SM 14/12 A2977 RMK T01400120 IEM_DS3505
ZBHH,2010-06-17 15:00,ZBHH 171500Z AUTO 07004KT 19SM 14/11 A2977 RMK SLP048 T01420112 52008 IEM_DS3505
ZBHH,2010-06-17 16:00,ZBHH 171600Z AUTO 08002KT 7SM 13/12 A2977 RMK T01300120 IEM_DS3505
ZBHH,2010-06-17 17:00,ZBHH 171700Z AUTO 27002KT 6SM 13/12 A2977 RMK T01300120 IEM_DS3505
ZBHH,2010-06-17 18:00,ZBHH 171800Z AUTO 32002KT 19SM 13/11 A2977 RMK 60008 SLP054 T01310106 52003 IEM_DS3505
ZBHH,2010-06-17 19:00,ZBHH 171900Z AUTO 12002KT 6SM 12/11 A2977 RMK T01200110 IEM_DS3505
ZBHH,2010-06-17 20:00,ZBHH 172000Z AUTO 05002KT 7SM 11/11 A2977 RMK T01100110 IEM_DS3505
ZBHH,2010-06-17 21:00,ZBHH 172100Z AUTO 14002KT 12SM 13/11 A2977 RMK 70026 SLP057 T01260112 52001 IEM_DS3505
ZBHH,2010-06-17 22:00,ZBHH 172200Z AUTO 22002KT 7SM 12/11 A2980 RMK T01200110 IEM_DS3505
ZBHH,2010-06-17 23:00,ZBHH 172300Z AUTO 14002KT 7SM 13/12 A2980 RMK T01300120 IEM_DS3505
ZBHH,2010-06-18 00:00,ZBHH 180000Z AUTO 18004KT 12SM 16/11 A2983 RMK 70026 SLP071 T01640111 52014 IEM_DS3505
ZBHH,2010-06-18 01:00,ZBHH 180100Z AUTO 17004KT 7SM 17/13 A2983 RMK T01700130 IEM_DS3505
ZBHH,2010-06-18 02:00,ZBHH 180200Z AUTO 25004KT 7SM 18/14 A2983 RMK T01800140 IEM_DS3505
ZBHH,2010-06-18 03:00,ZBHH 180300Z AUTO 11002KT 19SM 19/11 A2983 RMK SLP067 T01940114 57002 IEM_DS3505
ZBHH,2010-06-18 04:00,ZBHH 180400Z AUTO 15006KT 7SM 21/12 A2980 RMK T02100120 IEM_DS3505
ZBHH,2010-06-18 05:00,ZBHH 180500Z AUTO 15004KT 7SM 21/12 A2977 RMK T02100120 IEM_DS3505
ZBHH,2010-06-18 06:00,ZBHH 180600Z AUTO 11004KT 19SM 23/11 A2977 RMK SLP048 T02260114 57013 IEM_DS3505
ZBHH,2010-06-18 07:00,ZBHH 180700Z AUTO 21004KT 7SM 23/13 A2977 RMK T02300130 IEM_DS3505
ZBHH,2010-06-18 08:00,ZBHH 180800Z AUTO 20004KT 7SM 23/13 A2977 RMK T02300130 IEM_DS3505
ZBHH,2010-06-18 09:00,ZBHH 180900Z AUTO 25004KT 19SM 24/11 A2974 RMK SLP039 T02350112 57007 IEM_DS3505
ZBHH,2010-06-18 10:00,ZBHH 181000Z AUTO 13008KT 7SM 22/14 A2977 RMK T02200140 IEM_DS3505
ZBHH,2010-06-18 11:00,ZBHH 181100Z AUTO 17002KT 7SM 21/14 A2977 RMK T02100140 IEM_DS3505
ZBHH,2010-06-18 12:00,ZBHH 181200Z AUTO 32002KT 16SM 21/12 A2980 RMK SLP053 T02070119 52014 IEM_DS3505
ZBHH,2010-06-18 13:00,ZBHH 181300Z AUTO 05004KT 6SM 18/14 A2983 RMK T01800140 IEM_DS3505
ZBHH,2010-06-18 14:00,ZBHH 181400Z AUTO 04004KT 6SM 17/14 A2983 RMK T01700140 IEM_DS3505
ZBHH,2010-06-18 15:00,ZBHH 181500Z AUTO 00000KT 19SM 17/13 A2985 RMK SLP073 T01660133 52016 IEM_DS3505
ZBHH,2010-06-18 16:00,ZBHH 181600Z AUTO 16004KT 6SM 15/13 A2985 RMK T01500130 IEM_DS3505
ZBHH,2010-06-18 18:00,ZBHH 181800Z AUTO 29002KT 19SM 15/13 A2985 RMK SLP078 T01540132 52008 IEM_DS3505
ZBHH,2010-06-18 19:00,ZBHH 181900Z AUTO 07002KT 6SM 13/12 A2988 RMK T01300120 IEM_DS3505
ZBHH,2010-06-18 20:00,ZBHH 182000Z AUTO 13002KT 6SM 13/12 A2988 RMK T01300120 IEM_DS3505
ZBHH,2010-06-18 21:00,ZBHH 182100Z AUTO 11002KT 19SM 14/11 A2988 RMK SLP088 T01390112 52008 IEM_DS3505
ZBHH,2010-06-18 22:00,ZBHH 182200Z AUTO 05002KT 6SM 14/12 A2991 RMK T01400120 IEM_DS3505
ZBHH,2010-06-18 23:00,ZBHH 182300Z AUTO 11002KT 6SM 18/13 A2991 RMK T01800130 IEM_DS3505
ZBHH,2010-06-19 00:00,ZBHH 190000Z AUTO 09004KT 16SM 20/11 A2991 RMK SLP088 T02050114 52007 IEM_DS3505
ZBHH,2010-06-19 01:00,ZBHH 190100Z AUTO 19002KT 6SM 22/13 A2991 RMK T02200130 IEM_DS3505
ZBHH,2010-06-19 02:00,ZBHH 190200Z AUTO 16004KT 6SM 24/14 A2991 RMK T02400140 IEM_DS3505
ZBHH,2010-06-19 03:00,ZBHH 190300Z AUTO 20004KT 19SM 26/12 A2988 RMK SLP079 T02560121 57006 IEM_DS3505
ZBHH,2010-06-19 04:00,ZBHH 190400Z AUTO 22004KT 7SM 28/12 A2988 RMK T02800120 IEM_DS3505
ZBHH,2010-06-19 05:00,ZBHH 190500Z AUTO 20008KT 7SM 28/12 A2985 RMK T02800120 IEM_DS3505
ZBHH,2010-06-19 06:00,ZBHH 190600Z AUTO 36004KT 19SM 31/07 A2985 RMK SLP055 T03080066 57014 IEM_DS3505
ZBHH,2010-06-19 07:00,ZBHH 190700Z AUTO 02012KT 7SM 31/07 A2983 RMK T03100070 IEM_DS3505
ZBHH,2010-06-19 08:00,ZBHH 190800Z AUTO 36014KT 7SM 31/07 A2983 RMK T03100070 IEM_DS3505
ZBHH,2010-06-19 09:00,ZBHH 190900Z AUTO 04004KT 19SM 30/06 A2983 RMK SLP049 T03050057 57009 IEM_DS3505
ZBHH,2010-06-19 10:00,ZBHH 191000Z AUTO 02014KT 7SM 29/09 A2985 RMK T02900090 IEM_DS3505
ZBHH,2010-06-19 11:00,ZBHH 191100Z AUTO 01014KT 7SM 28/08 A2985 RMK T02800080 IEM_DS3505
ZBHH,2010-06-19 12:00,ZBHH 191200Z AUTO 36006KT 12SM 27/07 A2988 RMK SLP065 T02700070 52020 IEM_DS3505
ZBHH,2010-06-19 13:00,ZBHH 191300Z AUTO 01006KT 7SM 25/09 A2991 RMK T02500090 IEM_DS3505
ZBHH,2010-06-19 14:00,ZBHH 191400Z AUTO 01008KT 7SM 24/09 A2994 RMK T02400090 IEM_DS3505
ZBHH,2010-06-19 15:00,ZBHH 191500Z AUTO 29004KT 12SM 23/07 A2994 RMK SLP084 T02300071 52019 IEM_DS3505
ZBHH,2010-06-19 16:00,ZBHH 191600Z AUTO 02008KT 6SM 21/10 A2997 RMK T02100100 IEM_DS3505
ZBHH,2010-06-19 17:00,ZBHH 191700Z AUTO 08004KT 6SM 18/11 A2997 RMK T01800110 IEM_DS3505
ZBHH,2010-06-19 18:00,ZBHH 191800Z AUTO 29002KT 19SM 20/09 A2997 RMK SLP084 T01970093 52003 IEM_DS3505
ZBHH,2010-06-19 19:00,ZBHH 191900Z AUTO 10004KT 6SM 17/11 A2997 RMK T01700110 IEM_DS3505
ZBHH,2010-06-19 20:00,ZBHH 192000Z AUTO 07002KT 6SM 17/11 A2997 RMK T01700110 IEM_DS3505
ZBHH,2010-06-19 21:00,ZBHH 192100Z AUTO 11002KT 19SM 16/10 A2997 RMK SLP095 T01650099 52004 IEM_DS3505
ZBHH,2010-06-19 22:00,ZBHH 192200Z AUTO 18002KT 6SM 17/12 A3000 RMK T01700120 IEM_DS3505
ZBHH,2010-06-19 23:00,ZBHH 192300Z AUTO 10004KT 6SM 20/12 A3000 RMK T02000120 IEM_DS3505
ZBHH,2010-06-20 00:00,ZBHH 200000Z AUTO 09004KT 19SM 23/10 A3000 RMK SLP100 T02340101 52010 IEM_DS3505
ZBHH,2010-06-20 01:00,ZBHH 200100Z AUTO 10004KT 6SM 25/11 A3000 RMK T02500110 IEM_DS3505
ZBHH,2010-06-20 02:00,ZBHH 200200Z AUTO 12004KT 6SM 27/07 A3000 RMK T02700070 IEM_DS3505
ZBHH,2010-06-20 03:00,ZBHH 200300Z AUTO 09008KT 19SM 28/08 A3000 RMK SLP099 T02760075 54000 IEM_DS3505
ZBHH,2010-06-20 04:00,ZBHH 200400Z AUTO 04006KT 7SM 29/06 A2997 RMK T02900060 IEM_DS3505
ZBHH,2010-06-20 05:00,ZBHH 200500Z AUTO 22006KT 7SM 30/06 A2997 RMK T03000060 IEM_DS3505
ZBHH,2010-06-20 06:00,ZBHH 200600Z AUTO 04004KT 19SM 31/04 A2994 RMK SLP077 T03070045 57020 IEM_DS3505
ZBHH,2010-06-20 07:00,ZBHH 200700Z AUTO 17004KT 7SM 31/05 A2991 RMK T03100050 IEM_DS3505
ZBHH,2010-06-20 08:00,ZBHH 200800Z AUTO 25004KT 7SM 31/06 A2991 RMK T03100060 IEM_DS3505
ZBHH,2010-06-20 09:00,ZBHH 200900Z AUTO 27004KT 19SM 31/04 A2988 RMK SLP063 T03120041 57017 IEM_DS3505
ZBHH,2010-06-20 10:00,ZBHH 201000Z AUTO 23006KT 7SM 30/06 A2985 RMK T03000060 IEM_DS3505
ZBHH,2010-06-20 11:00,ZBHH 201100Z AUTO 21004KT 6SM 30/06 A2985 RMK T03000060 IEM_DS3505
ZBHH,2010-06-20 12:00,ZBHH 201200Z AUTO 22004KT 19SM 29/04 A2988 RMK SLP050 T02880036 57004 IEM_DS3505
ZBHH,2010-06-20 13:00,ZBHH 201300Z AUTO 34004KT 6SM 26/07 A2988 RMK T02600070 IEM_DS3505
ZBHH,2010-06-20 14:00,ZBHH 201400Z AUTO 05004KT 6SM 23/09 A2988 RMK T02300090 IEM_DS3505
ZBHH,2010-06-20 15:00,ZBHH 201500Z AUTO 14002KT 19SM 24/07 A2988 RMK SLP056 T02350067 52004 IEM_DS3505
ZBHH,2010-06-20 16:00,ZBHH 201600Z AUTO 02004KT 6SM 21/10 A2988 RMK T02100100 IEM_DS3505
ZBHH,2010-06-20 17:00,ZBHH 201700Z AUTO 06004KT 6SM 20/09 A2988 RMK T02000090 IEM_DS3505
ZBHH,2010-06-20 18:00,ZBHH 201800Z AUTO 07004KT 19SM 21/07 A2985 RMK SLP047 T02110070 57007 IEM_DS3505
ZBHH,2010-06-20 19:00,ZBHH 201900Z AUTO 06004KT 6SM 19/09 A2985 RMK T01900090 IEM_DS3505
ZBHH,2010-06-20 20:00,ZBHH 202000Z AUTO 05004KT 6SM 18/10 A2985 RMK T01800100 IEM_DS3505
ZBHH,2010-06-20 21:00,ZBHH 202100Z AUTO 04002KT 19SM 18/08 A2985 RMK SLP053 T01810084 52001 IEM_DS3505
ZBHH,2010-06-20 22:00,ZBHH 202200Z AUTO 08004KT 6SM 17/09 A2988 RMK T01700090 IEM_DS3505
ZBHH,2010-06-20 23:00,ZBHH 202300Z AUTO 08004KT 6SM 20/10 A2988 RMK T02000100 IEM_DS3505
ZBHH,2010-06-21 00:00,ZBHH 210000Z AUTO 02002KT 19SM 24/07 A2988 RMK SLP054 T02420069 52007 IEM_DS3505
ZBHH,2010-06-21 01:00,ZBHH 210100Z AUTO 20004KT 6SM 25/09 A2988 RMK T02500090 IEM_DS3505
ZBHH,2010-06-21 02:00,ZBHH 210200Z AUTO 17002KT 6SM 27/08 A2985 RMK T02700080 IEM_DS3505
ZBHH,2010-06-21 03:00,ZBHH 210300Z AUTO 04002KT 19SM 29/06 A2985 RMK SLP039 T02890063 57014 IEM_DS3505
ZBHH,2010-06-21 04:00,ZBHH 210400Z AUTO 20004KT 7SM 30/08 A2983 RMK T03000080 IEM_DS3505
ZBHH,2010-06-21 05:00,ZBHH 210500Z AUTO 7SM 31/06 A2980 RMK T03100060 IEM_DS3505
ZBHH,2010-06-21 06:00,ZBHH 210600Z AUTO 18006KT 19SM 32/03 A2977 RMK SLP008 T03180029 57027 IEM_DS3505
ZBHH,2010-06-21 07:00,ZBHH 210700Z AUTO 26010KT 7SM 32/06 A2974 RMK T03200060 IEM_DS3505
ZBHH,2010-06-21 08:00,ZBHH 210800Z AUTO 28016G25KT 7SM 31/05 A2974 RMK T03100050 IEM_DS3505
ZBHH,2010-06-21 09:00,ZBHH 210900Z AUTO 32002KT 19SM 33/03 A2968 RMK SLP983 T03280028 57025 IEM_DS3505
ZBHH,2010-06-21 10:00,ZBHH 211000Z AUTO 7SM 30/06 A2974 RMK T03000060 IEM_DS3505
ZBHH,2010-06-21 11:00,ZBHH 211100Z AUTO 21006KT 7SM 29/08 A2971 RMK T02900080 IEM_DS3505
ZBHH,2010-06-21 12:00,ZBHH 211200Z AUTO 36004KT 12SM 28/09 A2974 RMK 60000 SLP003 T02770086 52019 IEM_DS3505
ZBHH,2010-06-21 13:00,ZBHH 211300Z AUTO 07006KT 7SM 26/08 A2974 RMK T02600080 IEM_DS3505
ZBHH,2010-06-21 14:00,ZBHH 211400Z AUTO 02006KT 7SM 26/08 A2974 RMK T02600080 IEM_DS3505
ZBHH,2010-06-21 15:00,ZBHH 211500Z AUTO 09004KT 16SM 25/08 A2977 RMK SLP003 T02510077 52004 IEM_DS3505
ZBHH,2010-06-21 16:00,ZBHH 211600Z AUTO 05008KT 7SM 23/09 A2977 RMK T02300090 IEM_DS3505
ZBHH,2010-06-21 17:00,ZBHH 211700Z AUTO 03006KT 7SM 21/10 A2977 RMK T02100100 IEM_DS3505
ZBHH,2010-06-21 18:00,ZBHH 211800Z AUTO 32002KT 12SM 20/09 A2977 RMK SLP011 T02050091 52004 IEM_DS3505
ZBHH,2010-06-21 19:00,ZBHH 211900Z AUTO 05006KT 7SM 18/10 A2977 RMK T01800100 IEM_DS3505
ZBHH,2010-06-21 20:00,ZBHH 212000Z AUTO 04004KT 7SM 19/11 A2977 RMK T01900110 IEM_DS3505
ZBHH,2010-06-21 21:00,ZBHH 212100Z AUTO 09004KT 12SM 20/09 A2980 RMK 70000 SLP021 T01950088 52009 IEM_DS3505
ZBHH,2010-06-21 22:00,ZBHH 212200Z AUTO 03006KT 6SM 21/10 A2980 RMK T02100100 IEM_DS3505
ZBHH,2010-06-21 23:00,ZBHH 212300Z AUTO 08006KT 6SM 22/10 A2983 RMK T02200100 IEM_DS3505
ZBHH,2010-06-22 00:00,ZBHH 220000Z AUTO 04002KT 16SM 25/09 A2983 RMK 70000 SLP033 T02460090 52010 IEM_DS3505
ZBHH,2010-06-22 01:00,ZBHH 220100Z AUTO 09012KT 6SM 27/08 A2983 RMK T02700080 IEM_DS3505
ZBHH,2010-06-22 02:00,ZBHH 220200Z AUTO 08010KT 6SM 29/08 A2983 RMK T02900080 IEM_DS3505
ZBHH,2010-06-22 03:00,ZBHH 220300Z AUTO 11006G16KT 19SM 29/07 A2983 RMK SLP026 T02920072 57002 IEM_DS3505
ZBHH,2010-06-22 04:00,ZBHH 220400Z AUTO 10006KT 7SM 31/02 A2980 RMK T03100020 IEM_DS3505
ZBHH,2010-06-22 05:00,ZBHH 220500Z AUTO 7SM 32/03 A2980 RMK T03200030 IEM_DS3505
ZBHH,2010-06-22 06:00,ZBHH 220600Z AUTO 14004KT 19SM 32/02 A2977 RMK SLP011 T03220023 57016 IEM_DS3505
ZBHH,2010-06-22 07:00,ZBHH 220700Z AUTO 7SM 33/02 A2977 RMK T03300020 IEM_DS3505
ZBHH,2010-06-22 08:00,ZBHH 220800Z AUTO 06006G17KT 7SM 33/04 A2974 RMK T03300040 IEM_DS3505
ZBHH,2010-06-22 09:00,ZBHH 220900Z AUTO 07008KT 19SM 33/03 A2974 RMK SLP996 T03300029 57014 IEM_DS3505
ZBHH,2010-06-22 10:00,ZBHH 221000Z AUTO 10008KT 7SM 32/03 A2974 RMK T03200030 IEM_DS3505
ZBHH,2010-06-22 11:00,ZBHH 221100Z AUTO 12008KT 7SM 31/04 A2974 RMK T03100040 IEM_DS3505
ZBHH,2010-06-22 12:00,ZBHH 221200Z AUTO 11004KT 19SM 30/02 A2977 RMK SLP007 T03000015 52013 IEM_DS3505
ZBHH,2010-06-22 13:00,ZBHH 221300Z AUTO 10004KT 6SM 26/05 A2977 RMK T02600050 IEM_DS3505
ZBHH,2010-06-22 14:00,ZBHH 221400Z AUTO 04008KT 6SM 25/05 A2980 RMK T02500050 IEM_DS3505
ZBHH,2010-06-22 15:00,ZBHH 221500Z AUTO 11002KT 19SM 26/04 A2983 RMK SLP025 T02610040 52018 IEM_DS3505
ZBHH,2010-06-22 16:00,ZBHH 221600Z AUTO 04006KT 6SM 22/06 A2983 RMK T02200060 IEM_DS3505
ZBHH,2010-06-22 17:00,ZBHH 221700Z AUTO 05006KT 6SM 21/06 A2983 RMK T02100060 IEM_DS3505
ZBHH,2010-06-22 18:00,ZBHH 221800Z AUTO 27002KT 19SM 21/06 A2983 RMK SLP036 T02080064 52005 IEM_DS3505
ZBHH,2010-06-22 19:00,ZBHH 221900Z AUTO 06006KT 6SM 19/08 A2985 RMK T01900080 IEM_DS3505
ZBHH,2010-06-22 20:00,ZBHH 222000Z AUTO 08004KT 6SM 19/08 A2985 RMK T01900080 IEM_DS3505
ZBHH,2010-06-22 21:00,ZBHH 222100Z AUTO 07002KT 19SM 20/07 A2988 RMK SLP049 T02000071 52012 IEM_DS3505
ZBHH,2010-06-22 22:00,ZBHH 222200Z AUTO 06006KT 6SM 18/09 A2988 RMK T01800090 IEM_DS3505
ZBHH,2010-06-22 23:00,ZBHH 222300Z AUTO 07006KT 6SM 21/09 A2988 RMK T02100090 IEM_DS3505
ZBHH,2010-06-23 00:00,ZBHH 230000Z AUTO 07004KT 19SM 24/08 A2988 RMK SLP051 T02420078 52004 IEM_DS3505
ZBHH,2010-06-23 01:00,ZBHH 230100Z AUTO 15002KT 6SM 27/09 A2988 RMK T02700090 IEM_DS3505
ZBHH,2010-06-23 02:00,ZBHH 230200Z AUTO 23004KT 6SM 28/09 A2988 RMK T02800090 IEM_DS3505
ZBHH,2010-06-23 03:00,ZBHH 230300Z AUTO 36002KT 16SM 29/08 A2985 RMK SLP038 T02860078 57011 IEM_DS3505
ZBHH,2010-06-23 04:00,ZBHH 230400Z AUTO 6SM 30/09 A2985 RMK T03000090 IEM_DS3505
ZBHH,2010-06-23 05:00,ZBHH 230500Z AUTO 6SM 31/08 A2983 RMK T03100080 IEM_DS3505
ZBHH,2010-06-23 06:00,ZBHH 230600Z AUTO 20004KT 19SM 32/04 A2980 RMK SLP025 T03180038 57015 IEM_DS3505
ZBHH,2010-06-23 07:00,ZBHH 230700Z AUTO 26006KT 6SM 33/08 A2980 RMK T03300080 IEM_DS3505
ZBHH,2010-06-23 08:00,ZBHH 230800Z AUTO 25008KT 6SM 33/07 A2977 RMK T03300070 IEM_DS3505
ZBHH,2010-06-23 09:00,ZBHH 230900Z AUTO 20002KT 19SM 33/03 A2974 RMK SLP004 T03340033 57017 IEM_DS3505
ZBHH,2010-06-23 10:00,ZBHH 231000Z AUTO 11002KT 6SM 33/07 A2974 RMK T03300070 IEM_DS3505
ZBHH,2010-06-23 11:00,ZBHH 231100Z AUTO 23002KT 6SM 32/06 A2974 RMK T03200060 IEM_DS3505
ZBHH,2010-06-23 12:00,ZBHH 231200Z AUTO 16002KT 19SM 30/05 A2974 RMK SLP002 T03010047 57001 IEM_DS3505
ZBHH,2010-06-23 13:00,ZBHH 231300Z AUTO 05006KT 6SM 27/09 A2977 RMK T02700090 IEM_DS3505
ZBHH,2010-06-23 14:00,ZBHH 231400Z AUTO 15004KT 6SM 26/09 A2980 RMK T02600090 IEM_DS3505
ZBHH,2010-06-23 15:00,ZBHH 231500Z AUTO 25002KT 19SM 27/06 A2983 RMK SLP028 T02680057 52025 IEM_DS3505
ZBHH,2010-06-23 16:00,ZBHH 231600Z AUTO 18002KT 6SM 25/08 A2983 RMK T02500080 IEM_DS3505
ZBHH,2010-06-23 17:00,ZBHH 231700Z AUTO 15002KT 6SM 23/09 A2983 RMK T02300090 IEM_DS3505
ZBHH,2010-06-23 18:00,ZBHH 231800Z AUTO 14002KT 19SM 25/07 A2985 RMK SLP031 T02480070 52005 IEM_DS3505
ZBHH,2010-06-23 19:00,ZBHH 231900Z AUTO 06004KT 6SM 20/09 A2985 RMK T02000090 IEM_DS3505
ZBHH,2010-06-23 20:00,ZBHH 232000Z AUTO 06004KT 6SM 19/10 A2985 RMK T01900100 IEM_DS3505
ZBHH,2010-06-23 21:00,ZBHH 232100Z AUTO 07002KT 19SM 21/08 A2985 RMK SLP037 T02120081 52002 IEM_DS3505
ZBHH,2010-06-23 22:00,ZBHH 232200Z AUTO 07004KT 6SM 19/10 A2985 RMK T01900100 IEM_DS3505
ZBHH,2010-06-23 23:00,ZBHH 232300Z AUTO 07004KT 6SM 22/11 A2985 RMK T02200110 IEM_DS3505
ZBHH,2010-06-24 00:00,ZBHH 240000Z AUTO 09002KT 19SM 26/09 A2985 RMK SLP040 T02570087 52005 IEM_DS3505
ZBHH,2010-06-24 01:00,ZBHH 240100Z AUTO 22004KT 6SM 26/12 A2985 RMK T02600120 IEM_DS3505
ZBHH,2010-06-24 02:00,ZBHH 240200Z AUTO 22006KT 6SM 28/13 A2985 RMK T02800130 IEM_DS3505
ZBHH,2010-06-24 03:00,ZBHH 240300Z AUTO 22004KT 12SM 29/10 A2983 RMK SLP030 T02910103 57009 IEM_DS3505
ZBHH,2010-06-24 04:00,ZBHH 240400Z AUTO 6SM 30/11 A2983 RMK T03000110 IEM_DS3505
ZBHH,2010-06-24 05:00,ZBHH 240500Z AUTO 20006KT 6SM 32/09 A2980 RMK T03200090 IEM_DS3505
ZBHH,2010-06-24 06:00,ZBHH 240600Z AUTO 27004KT 12SM 33/06 A2977 RMK SLP007 T03260060 57018 IEM_DS3505
ZBHH,2010-06-24 07:00,ZBHH 240700Z AUTO 23004KT 6SM 33/08 A2977 RMK T03300080 IEM_DS3505
ZBHH,2010-06-24 08:00,ZBHH 240800Z AUTO 21006KT 6SM 34/09 A2974 RMK T03400090 IEM_DS3505
ZBHH,2010-06-24 09:00,ZBHH 240900Z AUTO 25006KT 12SM 33/06 A2974 RMK SLP996 T03330058 57015 IEM_DS3505
ZBHH,2010-06-24 10:00,ZBHH 241000Z AUTO 27006KT 7SM 32/08 A2974 RMK T03200080 IEM_DS3505
ZBHH,2010-06-24 11:00,ZBHH 241100Z AUTO 30004KT 6SM 32/08 A2974 RMK T03200080 IEM_DS3505
ZBHH,2010-06-24 12:00,ZBHH 241200Z AUTO 32002KT 9SM 31/07 A2974 RMK SLP992 T03100068 52001 IEM_DS3505
ZBHH,2010-06-24 13:00,ZBHH 241300Z AUTO 05004KT 7SM 26/10 A2977 RMK T02600100 IEM_DS3505
ZBHH,2010-06-24 14:00,ZBHH 241400Z AUTO 03006KT 7SM 26/09 A2977 RMK T02600090 IEM_DS3505
ZBHH,2010-06-24 15:00,ZBHH 241500Z AUTO 07002KT 12SM 26/08 A2980 RMK SLP012 T02630083 52015 IEM_DS3505
ZBHH,2010-06-24 16:00,ZBHH 241600Z AUTO 04004KT 7SM 23/09 A2980 RMK T02300090 IEM_DS3505
ZBHH,2010-06-24 17:00,ZBHH 241700Z AUTO 04006KT 7SM 23/09 A2983 RMK T02300090 IEM_DS3505
ZBHH,2010-06-24 18:00,ZBHH 241800Z AUTO 07002KT 12SM 24/08 A2983 RMK SLP024 T02420082 52013 IEM_DS3505
ZBHH,2010-06-24 19:00,ZBHH 241900Z AUTO 06006KT 7SM 21/10 A2983 RMK T02100100 IEM_DS3505
ZBHH,2010-06-24 20:00,ZBHH 242000Z AUTO 07004KT 7SM 20/10 A2985 RMK T02000100 IEM_DS3505
ZBHH,2010-06-24 21:00,ZBHH 242100Z AUTO 07002KT 9SM 22/08 A2985 RMK SLP034 T02240085 52007 IEM_DS3505
ZBHH,2010-06-24 22:00,ZBHH 242200Z AUTO 05004KT 6SM 20/11 A2985 RMK T02000110 IEM_DS3505
ZBHH,2010-06-24 23:00,ZBHH 242300Z AUTO 07002KT 6SM 21/12 A2985 RMK T02100120 IEM_DS3505
ZBHH,2010-06-25 00:00,ZBHH 250000Z AUTO 07002KT 7SM 25/09 A2985 RMK SLP037 T02540088 52004 IEM_DS3505
ZBHH,2010-06-25 01:00,ZBHH 250100Z AUTO 16002KT 6SM 27/10 A2985 RMK T02700100 IEM_DS3505
ZBHH,2010-06-25 02:00,ZBHH 250200Z AUTO 22006KT 6SM 27/11 A2985 RMK T02700110 IEM_DS3505
ZBHH,2010-06-25 03:00,ZBHH 250300Z AUTO 25004KT 6SM 29/10 A2983 RMK SLP032 T02880105 57007 IEM_DS3505
ZBHH,2010-06-25 04:00,ZBHH 250400Z AUTO 22004KT 5SM 29/12 A2983 RMK T02900120 IEM_DS3505
ZBHH,2010-06-25 05:00,ZBHH 250500Z AUTO 19006KT 5SM 31/12 A2980 RMK T03100120 IEM_DS3505
ZBHH,2010-06-25 06:00,ZBHH 250600Z AUTO 22002KT 6SM 31/10 A2977 RMK SLP006 T03140102 57022 IEM_DS3505
ZBHH,2010-06-25 07:00,ZBHH 250700Z AUTO 22008KT 4SM 32/12 A2974 RMK T03200120 IEM_DS3505
ZBHH,2010-06-25 08:00,ZBHH 250800Z AUTO 25008KT 4SM 32/12 A2974 RMK T03200120 IEM_DS3505
ZBHH,2010-06-25 09:00,ZBHH 250900Z AUTO 25002KT 6SM 32/10 A2971 RMK SLP989 T03240099 57016 IEM_DS3505
ZBHH,2010-06-25 10:00,ZBHH 251000Z AUTO 16004KT 5SM 31/11 A2971 RMK T03100110 IEM_DS3505
ZBHH,2010-06-25 11:00,ZBHH 251100Z AUTO 12004KT 4SM 30/12 A2971 RMK T03000120 IEM_DS3505
ZBHH,2010-06-25 12:00,ZBHH 251200Z AUTO 20002KT 6SM 30/10 A2974 RMK SLP995 T03030103 52007 IEM_DS3505
ZBHH,2010-06-25 13:00,ZBHH 251300Z AUTO 13006KT 7SM 26/09 A2977 RMK T02600090 IEM_DS3505
ZBHH,2010-06-25 14:00,ZBHH 251400Z AUTO 16006KT 7SM 25/08 A2980 RMK T02500080 IEM_DS3505
ZBHH,2010-06-25 15:00,ZBHH 251500Z AUTO 20002KT 19SM 27/10 A2983 RMK SLP023 T02670100 52024 IEM_DS3505
ZBHH,2010-06-25 16:00,ZBHH 251600Z AUTO 08004KT 7SM 23/09 A2983 RMK T02300090 IEM_DS3505
ZBHH,2010-06-25 17:00,ZBHH 251700Z AUTO 06004KT 7SM 21/10 A2983 RMK T02100100 IEM_DS3505
ZBHH,2010-06-25 18:00,ZBHH 251800Z AUTO 20002KT 19SM 24/09 A2985 RMK SLP030 T02430091 52007 IEM_DS3505
ZBHH,2010-06-25 19:00,ZBHH 251900Z AUTO 03004KT 7SM 21/10 A2985 RMK T02100100 IEM_DS3505
ZBHH,2010-06-25 20:00,ZBHH 252000Z AUTO 05004KT 7SM 19/10 A2985 RMK T01900100 IEM_DS3505
ZBHH,2010-06-25 21:00,ZBHH 252100Z AUTO 22004KT 19SM 22/10 A2985 RMK SLP041 T02230098 52008 IEM_DS3505
ZBHH,2010-06-25 22:00,ZBHH 252200Z AUTO 08004KT 5SM 17/11 A2988 RMK T01700110 IEM_DS3505
ZBHH,2010-06-25 23:00,ZBHH 252300Z AUTO 07004KT 5SM 20/12 A2988 RMK T02000120 IEM_DS3505
ZBHH,2010-06-26 00:00,ZBHH 260000Z AUTO 25004KT 12SM 24/10 A2988 RMK SLP052 T02350102 52008 IEM_DS3505
ZBHH,2010-06-26 01:00,ZBHH 260100Z AUTO 22004KT 4SM 24/12 A2988 RMK T02400120 IEM_DS3505
ZBHH,2010-06-26 02:00,ZBHH 260200Z AUTO 4SM 26/11 A2988 RMK T02600110 IEM_DS3505
ZBHH,2010-06-26 03:00,ZBHH 260300Z AUTO 16008KT 12SM 27/10 A2985 RMK SLP044 T02680101 57008 IEM_DS3505
ZBHH,2010-06-26 04:00,ZBHH 260400Z AUTO 20006KT 4SM 28/12 A2985 RMK T02800120 IEM_DS3505
ZBHH,2010-06-26 05:00,ZBHH 260500Z AUTO 22008KT 4SM 29/11 A2983 RMK T02900110 IEM_DS3505
ZBHH,2010-06-26 06:00,ZBHH 260600Z AUTO 22004KT 12SM 29/10 A2983 RMK SLP026 T02940095 57015 IEM_DS3505
ZBHH,2010-06-26 07:00,ZBHH 260700Z AUTO 24010KT 4SM 31/11 A2980 RMK T03100110 IEM_DS3505
ZBHH,2010-06-26 08:00,ZBHH 260800Z AUTO 23006KT 4SM 31/11 A2977 RMK T03100110 IEM_DS3505
ZBHH,2010-06-26 09:00,ZBHH 260900Z AUTO 25004KT 9SM 31/09 A2977 RMK SLP011 T03120089 57014 IEM_DS3505
ZBHH,2010-06-26 10:00,ZBHH 261000Z AUTO 24006KT 4SM 31/10 A2977 RMK T03100100 IEM_DS3505
ZBHH,2010-06-26 11:00,ZBHH 261100Z AUTO 25006KT 4SM 30/10 A2974 RMK T03000100 IEM_DS3505
ZBHH,2010-06-26 12:00,ZBHH 261200Z AUTO 25004KT 12SM 29/07 A2977 RMK SLP010 T02930067 57002 IEM_DS3505
ZBHH,2010-06-26 13:00,ZBHH 261300Z AUTO 18002KT 4SM 25/11 A2980 RMK T02500110 IEM_DS3505
ZBHH,2010-06-26 14:00,ZBHH 261400Z AUTO 05004KT 5SM 24/10 A2980 RMK T02400100 IEM_DS3505
ZBHH,2010-06-26 15:00,ZBHH 261500Z AUTO 29002KT 12SM 24/08 A2980 RMK SLP027 T02360081 52011 IEM_DS3505
ZBHH,2010-06-26 16:00,ZBHH 261600Z AUTO 07004KT 4SM 22/10 A2983 RMK T02200100 IEM_DS3505
ZBHH,2010-06-26 17:00,ZBHH 261700Z AUTO 08002KT 4SM 21/10 A2983 RMK T02100100 IEM_DS3505
ZBHH,2010-06-26 18:00,ZBHH 261800Z AUTO 09004KT 19SM 23/09 A2983 RMK SLP030 T02260091 52005 IEM_DS3505
ZBHH,2010-06-26 19:00,ZBHH 261900Z AUTO 09004KT 5SM 18/09 A2983 RMK T01800090 IEM_DS3505
ZBHH,2010-06-26 20:00,ZBHH 262000Z AUTO 08004KT 5SM 20/11 A2983 RMK T02000110 IEM_DS3505
ZBHH,2010-06-26 21:00,ZBHH 262100Z AUTO 07002KT 19SM 21/08 A2985 RMK SLP040 T02060079 52009 IEM_DS3505
ZBHH,2010-06-26 22:00,ZBHH 262200Z AUTO 04004KT 4SM 19/10 A2985 RMK T01900100 IEM_DS3505
ZBHH,2010-06-26 23:00,ZBHH 262300Z AUTO 05004KT 4SM 21/11 A2985 RMK T02100110 IEM_DS3505
ZBHH,2010-06-27 00:00,ZBHH 270000Z AUTO 02002KT 6SM 24/09 A2985 RMK SLP046 T02350091 52007 IEM_DS3505
ZBHH,2010-06-27 01:00,ZBHH 270100Z AUTO 20006KT 4SM 24/12 A2985 RMK T02400120 IEM_DS3505
ZBHH,2010-06-27 02:00,ZBHH 270200Z AUTO 24006KT 4SM 26/10 A2985 RMK T02600100 IEM_DS3505
ZBHH,2010-06-27 03:00,ZBHH 270300Z AUTO 14002KT 6SM 28/10 A2983 RMK SLP038 T02770095 57010 IEM_DS3505
ZBHH,2010-06-27 04:00,ZBHH 270400Z AUTO 4SM 29/11 A2983 RMK T02900110 IEM_DS3505
ZBHH,2010-06-27 05:00,ZBHH 270500Z AUTO 23008G17KT 4SM 30/11 A2980 RMK T03000110 IEM_DS3505
ZBHH,2010-06-27 06:00,ZBHH 270600Z AUTO 22008G21KT 6SM 31/08 A2977 RMK SLP012 T03120083 57019 IEM_DS3505
ZBHH,2010-06-27 07:00,ZBHH 270700Z AUTO 22012KT 6SM 32/11 A2977 RMK T03200110 IEM_DS3505
ZBHH,2010-06-27 08:00,ZBHH 270800Z AUTO 23012KT 6SM 33/09 A2974 RMK T03300090 IEM_DS3505
ZBHH,2010-06-27 09:00,ZBHH 270900Z AUTO 22008KT 6SM 32/06 A2974 RMK SLP998 T03220057 57014 IEM_DS3505
ZBHH,2010-06-27 10:00,ZBHH 271000Z AUTO 23008KT 7SM 31/07 A2974 RMK T03100070 IEM_DS3505
ZBHH,2010-06-27 11:00,ZBHH 271100Z AUTO 24008KT 6SM 31/06 A2974 RMK T03100060 IEM_DS3505
ZBHH,2010-06-27 12:00,ZBHH 271200Z AUTO 27002KT 6SM 29/06 A2974 RMK SLP999 T02890057 54000 IEM_DS3505
ZBHH,2010-06-27 13:00,ZBHH 271300Z AUTO 02002KT 5SM 27/09 A2974 RMK T02700090 IEM_DS3505
ZBHH,2010-06-27 14:00,ZBHH 271400Z AUTO 04006KT 6SM 25/07 A2974 RMK T02500070 IEM_DS3505
ZBHH,2010-06-27 15:00,ZBHH 271500Z AUTO 07002KT 9SM 24/07 A2974 RMK SLP005 T02390071 52004 IEM_DS3505
ZBHH,2010-06-27 16:00,ZBHH 271600Z AUTO 06006KT 6SM 22/08 A2977 RMK T02200080 IEM_DS3505
ZBHH,2010-06-27 17:00,ZBHH 271700Z AUTO 06004KT 6SM 21/08 A2977 RMK T02100080 IEM_DS3505
ZBHH,2010-06-27 18:00,ZBHH 271800Z AUTO 09006KT 19SM 23/06 A2977 RMK SLP011 T02320056 52011 IEM_DS3505
ZBHH,2010-06-27 19:00,ZBHH 271900Z AUTO 25002KT 7SM 21/07 A2977 RMK T02100070 IEM_DS3505
ZBHH,2010-06-27 20:00,ZBHH 272000Z AUTO 09002KT 7SM 19/08 A2977 RMK T01900080 IEM_DS3505
ZBHH,2010-06-27 21:00,ZBHH 272100Z AUTO 34002KT 12SM 20/07 A2977 RMK SLP016 T02050068 52001 IEM_DS3505
ZBHH,2010-06-27 22:00,ZBHH 272200Z AUTO 03002KT 6SM 23/12 A2980 RMK T02300120 IEM_DS3505
ZBHH,2010-06-27 23:00,ZBHH 272300Z AUTO 10002KT 4SM 22/09 A2980 RMK T02200090 IEM_DS3505
ZBHH,2010-06-28 00:00,ZBHH 280000Z AUTO 04004KT 12SM 25/07 A2980 RMK SLP018 T02470074 52003 IEM_DS3505
ZBHH,2010-06-28 01:00,ZBHH 280100Z AUTO 18006KT 4SM 26/10 A2980 RMK T02600100 IEM_DS3505
ZBHH,2010-06-28 02:00,ZBHH 280200Z AUTO 19006KT 4SM 27/10 A2980 RMK T02700100 IEM_DS3505
ZBHH,2010-06-28 03:00,ZBHH 280300Z AUTO 16004KT 7SM 30/08 A2980 RMK SLP015 T02990078 57002 IEM_DS3505
ZBHH,2010-06-28 04:00,ZBHH 280400Z AUTO 22008KT 4SM 31/11 A2977 RMK T03100110 IEM_DS3505
ZBHH,2010-06-28 05:00,ZBHH 280500Z AUTO 23010KT 5SM 33/08 A2974 RMK T03300080 IEM_DS3505
ZBHH,2010-06-28 06:00,ZBHH 280600Z AUTO 20008KT 12SM 33/06 A2974 RMK SLP991 T03320065 57017 IEM_DS3505
ZBHH,2010-06-28 07:00,ZBHH 280700Z AUTO 23012KT 5SM 34/09 A2971 RMK T03400090 IEM_DS3505
ZBHH,2010-06-28 08:00,ZBHH 280800Z AUTO 23012KT 5SM 34/08 A2971 RMK T03400080 IEM_DS3505
ZBHH,2010-06-28 09:00,ZBHH 280900Z AUTO 25008KT 12SM 34/02 A2968 RMK SLP977 T03430020 57015 IEM_DS3505
ZBHH,2010-06-28 10:00,ZBHH 281000Z AUTO 22008KT 6SM 33/05 A2968 RMK T03300050 IEM_DS3505
ZBHH,2010-06-28 11:00,ZBHH 281100Z AUTO 23006KT 6SM 33/05 A2968 RMK T03300050 IEM_DS3505
ZBHH,2010-06-28 12:00,ZBHH 281200Z AUTO 18002KT 12SM 30/02 A2971 RMK SLP980 T03010015 52003 IEM_DS3505
ZBHH,2010-06-28 13:00,ZBHH 281300Z AUTO 02004KT 6SM 28/07 A2971 RMK T02800070 IEM_DS3505
ZBHH,2010-06-28 14:00,ZBHH 281400Z AUTO 05004KT 6SM 27/06 A2974 RMK T02700060 IEM_DS3505
ZBHH,2010-06-28 15:00,ZBHH 281500Z AUTO 14002KT 12SM 26/06 A2974 RMK SLP993 T02630064 52014 IEM_DS3505
ZBHH,2010-06-28 16:00,ZBHH 281600Z AUTO 05004KT 6SM 25/06 A2974 RMK T02500060 IEM_DS3505
ZBHH,2010-06-28 17:00,ZBHH 281700Z AUTO 03002KT 6SM 23/06 A2974 RMK T02300060 IEM_DS3505
ZBHH,2010-06-28 18:00,ZBHH 281800Z AUTO 00000KT 12SM 23/07 A2974 RMK SLP999 T02260068 52004 IEM_DS3505
ZBHH,2010-06-28 19:00,ZBHH 281900Z AUTO 08002KT 6SM 22/06 A2974 RMK T02200060 IEM_DS3505
ZBHH,2010-06-28 20:00,ZBHH 282000Z AUTO 10004KT 6SM 21/09 A2974 RMK T02100090 IEM_DS3505
ZBHH,2010-06-28 21:00,ZBHH 282100Z AUTO 09002KT 12SM 23/06 A2977 RMK SLP997 T02270065 52001 IEM_DS3505
ZBHH,2010-06-28 22:00,ZBHH 282200Z AUTO 07006KT 6SM 21/09 A2977 RMK T02100090 IEM_DS3505
ZBHH,2010-06-28 23:00,ZBHH 282300Z AUTO 08004KT 6SM 24/09 A2977 RMK T02400090 IEM_DS3505
ZBHH,2010-06-29 00:00,ZBHH 290000Z AUTO 11002KT 12SM 27/08 A2980 RMK SLP010 T02700075 52011 IEM_DS3505
ZBHH,2010-06-29 01:00,ZBHH 290100Z AUTO 15004KT 6SM 28/09 A2980 RMK T02800090 IEM_DS3505
ZBHH,2010-06-29 02:00,ZBHH 290200Z AUTO 17004KT 6SM 29/10 A2980 RMK T02900100 IEM_DS3505
ZBHH,2010-06-29 03:00,ZBHH 290300Z AUTO 32002KT 7SM 31/08 A2977 RMK SLP004 T03120076 57004 IEM_DS3505
ZBHH,2010-06-29 04:00,ZBHH 290400Z AUTO 19004KT 6SM 32/09 A2977 RMK T03200090 IEM_DS3505
ZBHH,2010-06-29 05:00,ZBHH 290500Z AUTO 18008KT 6SM 34/09 A2974 RMK T03400090 IEM_DS3505
ZBHH,2010-06-29 06:00,ZBHH 290600Z AUTO 20006KT 7SM 34/07 A2971 RMK SLP986 T03450068 57017 IEM_DS3505
ZBHH,2010-06-29 07:00,ZBHH 290700Z AUTO 26010KT 7SM 34/09 A2971 RMK T03400090 IEM_DS3505
ZBHH,2010-06-29 08:00,ZBHH 290800Z AUTO 26012KT 7SM 34/09 A2971 RMK T03400090 IEM_DS3505
ZBHH,2010-06-29 09:00,ZBHH 290900Z AUTO 29012G31KT 4SM 26/12 A2971 RMK SLP014 T02630120 52011 IEM_DS3505
ZBHH,2010-06-29 10:00,ZBHH 291000Z AUTO 36017G27KT 7SM 26/14 A2974 RMK T02600140 IEM_DS3505
ZBHH,2010-06-29 11:00,ZBHH 291100Z AUTO 01004KT 7SM 24/16 A2977 RMK T02400160 IEM_DS3505
ZBHH,2010-06-29 12:00,ZBHH 291200Z AUTO 25002KT 9SM 25/13 A2980 RMK 60000 SLP024 T02510130 52014 IEM_DS3505
ZBHH,2010-06-29 13:00,ZBHH 291300Z AUTO 05006KT 7SM 25/15 A2980 RMK T02500150 IEM_DS3505
ZBHH,2010-06-29 14:00,ZBHH 291400Z AUTO 02002KT 7SM 25/15 A2980 RMK T02500150 IEM_DS3505
ZBHH,2010-06-29 15:00,ZBHH 291500Z AUTO 22004KT 9SM 23/16 A2983 RMK SLP028 T02270155 52007 IEM_DS3505
ZBHH,2010-06-29 16:00,ZBHH 291600Z AUTO 23004KT 7SM 23/17 A2983 RMK T02300170 IEM_DS3505
ZBHH,2010-06-29 17:00,ZBHH 291700Z AUTO 20008KT 7SM 21/18 A2985 RMK T02100180 IEM_DS3505
ZBHH,2010-06-29 18:00,ZBHH 291800Z AUTO 25002KT 9SM 21/18 A2985 RMK SLP036 T02100178 52010 IEM_DS3505
ZBHH,2010-06-29 19:00,ZBHH 291900Z AUTO 16004KT 3SM 20/18 A2985 RMK T02000180 IEM_DS3505
ZBHH,2010-06-29 20:00,ZBHH 292000Z AUTO 12002KT 3SM 22/19 A2983 RMK T02200190 IEM_DS3505
ZBHH,2010-06-29 21:00,ZBHH 292100Z AUTO 07002KT 7SM 20/18 A2983 RMK 70006 SLP049 T02030177 57005 IEM_DS3505
ZBHH,2010-06-29 22:00,ZBHH 292200Z AUTO 25004KT 1 1/2SM 21/19 A2985 RMK T02100190 IEM_DS3505
ZBHH,2010-06-29 23:00,ZBHH 292300Z AUTO 07004KT 1SM 20/19 A2985 RMK T02000190 IEM_DS3505
ZBHH,2010-06-30 00:00,ZBHH 300000Z AUTO 09002KT 4SM 20/17 A2985 RMK 60016 70017 SLP054 T01980172 52002 IEM_DS3505
ZBHH,2010-06-30 01:00,ZBHH 300100Z AUTO 07006KT 2SM 22/20 A2983 RMK T02200200 IEM_DS3505
ZBHH,2010-06-30 02:00,ZBHH 300200Z AUTO 07004KT 2 1/2SM 22/20 A2983 RMK T02200200 IEM_DS3505
ZBHH,2010-06-30 03:00,ZBHH 300300Z AUTO 09004KT 5SM 21/16 A2983 RMK SLP049 T02090165 57007 IEM_DS3505
ZBHH,2010-06-30 04:00,ZBHH 300400Z AUTO 03002KT 4SM 22/17 A2983 RMK T02200170 IEM_DS3505
ZBHH,2010-06-30 05:00,ZBHH 300500Z AUTO 11002KT 4SM 24/18 A2980 RMK T02400180 IEM_DS3505
ZBHH,2010-06-30 06:00,ZBHH 300600Z AUTO 09004KT 5SM 23/16 A2980 RMK 60003 SLP040 T02330164 57007 IEM_DS3505
ZBHH,2010-06-30 07:00,ZBHH 300700Z AUTO 16006KT 3SM 21/18 A2980 RMK T02100180 IEM_DS3505
ZBHH,2010-06-30 08:00,ZBHH 300800Z AUTO 14006KT 3SM 21/18 A2980 RMK T02100180 IEM_DS3505
ZBHH,2010-06-30 09:00,ZBHH 300900Z AUTO 09004KT 4SM 22/17 A2977 RMK SLP039 T02160170 57005 IEM_DS3505
ZBHH,2010-06-30 10:00,ZBHH 301000Z AUTO 05004KT 3SM 21/17 A2977 RMK T02100170 IEM_DS3505
ZBHH,2010-06-30 11:00,ZBHH 301100Z AUTO 07004KT 3SM 21/18 A2977 RMK T02100180 IEM_DS3505
ZBHH,2010-06-30 12:00,ZBHH 301200Z AUTO 09002KT 7SM 21/16 A2977 RMK 60000 SLP034 T02110163 57006 IEM_DS3505
ZBHH,2010-06-30 13:00,ZBHH 301300Z AUTO 32002KT 4SM 21/18 A2977 RMK T02100180 IEM_DS3505
ZBHH,2010-06-30 14:00,ZBHH 301400Z AUTO 33002KT 4SM 21/18 A2977 RMK T02100180 IEM_DS3505
ZBHH,2010-06-30 15:00,ZBHH 301500Z AUTO 07002KT 9SM 21/17 A2977 RMK SLP030 T02110167 57002 IEM_DS3505
ZBHH,2010-06-30 16:00,ZBHH 301600Z AUTO 34002KT 3SM 20/18 A2977 RMK T02000180 IEM_DS3505
ZBHH,2010-06-30 17:00,ZBHH 301700Z AUTO 03004KT 3SM 20/19 A2974 RMK T02000190 IEM_DS3505
ZBHH,2010-06-30 18:00,ZBHH 301800Z AUTO 29002KT 9SM 21/17 A2974 RMK SLP020 T02090169 57005 IEM_DS3505
ZBHH,2010-06-30 19:00,ZBHH 301900Z AUTO 15002KT 3SM 20/18 A2974 RMK T02000180 IEM_DS3505
ZBHH,2010-06-30 20:00,ZBHH 302000Z AUTO 27004KT 3SM 20/18 A2974 RMK T02000180 IEM_DS3505
ZBHH,2010-06-30 21:00,ZBHH 302100Z AUTO 18002KT 2SM 20/18 A2974 RMK 70013 SLP024 T02010177 57001 IEM_DS3505
ZBHH,2010-06-30 22:00,ZBHH 302200Z AUTO 13004KT 1SM 19/18 A2974 RMK T01900180 IEM_DS3505
ZBHH,2010-06-30 23:00,ZBHH 302300Z AUTO 12004KT 1SM 19/19 A2974 RMK T01900190 IEM_DS3505
ZBHH,2010-07-01 00:00,ZBHH 010000Z AUTO 04002KT 6SM 21/17 A2977 RMK 60002 70004 SLP031 T02070167 52007 IEM_DS3505
ZBHH,2010-07-01 01:00,ZBHH 010100Z AUTO 23002KT 2 1/2SM 22/17 A2977 RMK T02200170 IEM_DS3505
ZBHH,2010-07-01 02:00,ZBHH 010200Z AUTO 10004KT 7SM 24/13 A2977 RMK T02400130 IEM_DS3505
ZBHH,2010-07-01 03:00,ZBHH 010300Z AUTO 29002KT 7SM 25/12 A2977 RMK SLP023 T02480117 54000 IEM_DS3505
ZBHH,2010-07-01 04:00,ZBHH 010400Z AUTO 17006KT 6SM 26/12 A2974 RMK T02600120 IEM_DS3505
ZBHH,2010-07-01 05:00,ZBHH 010500Z AUTO 18004KT 6SM 27/12 A2974 RMK T02700120 IEM_DS3505
ZBHH,2010-07-01 06:00,ZBHH 010600Z AUTO 22004KT 9SM 28/10 A2971 RMK SLP997 T02850102 57017 IEM_DS3505
ZBHH,2010-07-01 07:00,ZBHH 010700Z AUTO 22006KT 6SM 29/11 A2968 RMK T02900110 IEM_DS3505
ZBHH,2010-07-01 08:00,ZBHH 010800Z AUTO 23006KT 6SM 30/10 A2968 RMK T03000100 IEM_DS3505
ZBHH,2010-07-01 09:00,ZBHH 010900Z AUTO 22004KT 12SM 29/10 A2968 RMK SLP988 T02920099 57008 IEM_DS3505
ZBHH,2010-07-01 10:00,ZBHH 011000Z AUTO 24008KT 6SM 30/12 A2968 RMK T03000120 IEM_DS3505
ZBHH,2010-07-01 11:00,ZBHH 011100Z AUTO 21006KT 6SM 28/14 A2968 RMK T02800140 IEM_DS3505
ZBHH,2010-07-01 12:00,ZBHH 011200Z AUTO 22002KT 19SM 28/11 A2968 RMK SLP995 T02750111 52004 IEM_DS3505
ZBHH,2010-07-01 13:00,ZBHH 011300Z AUTO 13004KT 6SM 24/15 A2971 RMK T02400150 IEM_DS3505
ZBHH,2010-07-01 14:00,ZBHH 011400Z AUTO 10004KT 6SM 22/16 A2974 RMK T02200160 IEM_DS3505
ZBHH,2010-07-01 15:00,ZBHH 011500Z AUTO 18004KT 19SM 24/14 A2974 RMK SLP011 T02430135 52016 IEM_DS3505
ZBHH,2010-07-01 16:00,ZBHH 011600Z AUTO 03004KT 6SM 21/08 A2977 RMK T02100080 IEM_DS3505
ZBHH,2010-07-01 17:00,ZBHH 011700Z AUTO 11004KT 6SM 19/10 A2977 RMK T01900100 IEM_DS3505
ZBHH,2010-07-01 18:00,ZBHH 011800Z AUTO 07002KT 19SM 22/08 A2977 RMK SLP013 T02170082 52004 IEM_DS3505
ZBHH,2010-07-01 19:00,ZBHH 011900Z AUTO 12002KT 6SM 18/12 A2974 RMK T01800120 IEM_DS3505
ZBHH,2010-07-01 20:00,ZBHH 012000Z AUTO 06004KT 6SM 18/12 A2977 RMK T01800120 IEM_DS3505
ZBHH,2010-07-01 21:00,ZBHH 012100Z AUTO 09002KT 19SM 19/09 A2977 RMK 70002 SLP017 T01890091 54000 IEM_DS3505
ZBHH,2010-07-01 22:00,ZBHH 012200Z AUTO 07004KT 6SM 20/12 A2977 RMK T02000120 IEM_DS3505
ZBHH,2010-07-01 23:00,ZBHH 012300Z AUTO 13002KT 6SM 21/08 A2977 RMK T02100080 IEM_DS3505
ZBHH,2010-07-02 00:00,ZBHH 020000Z AUTO 20002KT 19SM 24/10 A2977 RMK SLP019 T02380098 52007 IEM_DS3505
ZBHH,2010-07-02 01:00,ZBHH 020100Z AUTO 15002KT 7SM 25/10 A2977 RMK T02500100 IEM_DS3505
ZBHH,2010-07-02 02:00,ZBHH 020200Z AUTO 18002KT 7SM 26/11 A2977 RMK T02600110 IEM_DS3505
ZBHH,2010-07-02 03:00,ZBHH 020300Z AUTO 18004KT 19SM 29/08 A2977 RMK SLP012 T02890080 57003 IEM_DS3505
ZBHH,2010-07-02 04:00,ZBHH 020400Z AUTO 20004KT 6SM 29/08 A2977 RMK T02900080 IEM_DS3505
ZBHH,2010-07-02 05:00,ZBHH 020500Z AUTO 20006KT 6SM 31/07 A2974 RMK T03100070 IEM_DS3505
ZBHH,2010-07-02 06:00,ZBHH 020600Z AUTO 18004KT 19SM 33/03 A2974 RMK SLP996 T03270027 57012 IEM_DS3505
ZBHH,2010-07-02 07:00,ZBHH 020700Z AUTO 23004KT 6SM 33/07 A2971 RMK T03300070 IEM_DS3505
ZBHH,2010-07-02 08:00,ZBHH 020800Z AUTO 24004KT 7SM 33/07 A2971 RMK T03300070 IEM_DS3505
ZBHH,2010-07-02 09:00,ZBHH 020900Z AUTO 25006KT 19SM 31/06 A2971 RMK SLP995 T03140065 57008 IEM_DS3505
ZBHH,2010-07-02 10:00,ZBHH 021000Z AUTO 24006KT 7SM 31/09 A2971 RMK T03100090 IEM_DS3505
ZBHH,2010-07-02 11:00,ZBHH 021100Z AUTO 26006KT 7SM 31/08 A2971 RMK T03100080 IEM_DS3505
ZBHH,2010-07-02 12:00,ZBHH 021200Z AUTO 27002KT 7SM 29/08 A2971 RMK SLP993 T02900081 52003 IEM_DS3505
ZBHH,2010-07-02 13:00,ZBHH 021300Z AUTO 07002KT 7SM 27/13 A2974 RMK T02700130 IEM_DS3505
ZBHH,2010-07-02 14:00,ZBHH 021400Z AUTO 05002KT 7SM 27/13 A2974 RMK T02700130 IEM_DS3505
ZBHH,2010-07-02 15:00,ZBHH 021500Z AUTO 04002KT 12SM 27/10 A2974 RMK SLP998 T02660099 52009 IEM_DS3505
ZBHH,2010-07-02 16:00,ZBHH 021600Z AUTO 05004KT 6SM 24/11 A2974 RMK T02400110 IEM_DS3505
ZBHH,2010-07-02 17:00,ZBHH 021700Z AUTO 01004KT 6SM 24/11 A2974 RMK T02400110 IEM_DS3505
ZBHH,2010-07-02 18:00,ZBHH 021800Z AUTO 22002KT 19SM 22/11 A2974 RMK SLP998 T02230108 57001 IEM_DS3505
ZBHH,2010-07-02 19:00,ZBHH 021900Z AUTO 04002KT 6SM 21/12 A2974 RMK T02100120 IEM_DS3505
ZBHH,2010-07-02 20:00,ZBHH 022000Z AUTO 07004KT 6SM 20/11 A2974 RMK T02000110 IEM_DS3505
ZBHH,2010-07-02 21:00,ZBHH 022100Z AUTO 32002KT 12SM 21/08 A2977 RMK SLP011 T02120085 52007 IEM_DS3505
ZBHH,2010-07-02 22:00,ZBHH 022200Z AUTO 06002KT 6SM 20/11 A2977 RMK T02000110 IEM_DS3505
ZBHH,2010-07-02 23:00,ZBHH 022300Z AUTO 08004KT 6SM 23/11 A2980 RMK T02300110 IEM_DS3505
ZBHH,2010-07-03 00:00,ZBHH 030000Z AUTO 09002KT 19SM 28/08 A2980 RMK SLP011 T02750084 52007 IEM_DS3505
ZBHH,2010-07-03 01:00,ZBHH 030100Z AUTO 18002KT 6SM 28/10 A2977 RMK T02800100 IEM_DS3505
ZBHH,2010-07-03 02:00,ZBHH 030200Z AUTO 21004KT 6SM 30/09 A2977 RMK T03000090 IEM_DS3505
ZBHH,2010-07-03 03:00,ZBHH 030300Z AUTO 22004KT 19SM 33/04 A2977 RMK SLP996 T03300039 57008 IEM_DS3505
ZBHH,2010-07-03 04:00,ZBHH 030400Z AUTO 21006KT 7SM 34/06 A2974 RMK T03400060 IEM_DS3505
ZBHH,2010-07-03 05:00,ZBHH 030500Z AUTO 21006KT 7SM 34/07 A2974 RMK T03400070 IEM_DS3505
ZBHH,2010-07-03 06:00,ZBHH 030600Z AUTO 20008KT 19SM 34/05 A2971 RMK SLP988 T03450051 57012 IEM_DS3505
ZBHH,2010-07-03 07:00,ZBHH 030700Z AUTO 26012KT 7SM 35/08 A2971 RMK T03500080 IEM_DS3505
ZBHH,2010-07-03 08:00,ZBHH 030800Z AUTO 28008KT 7SM 35/06 A2971 RMK T03500060 IEM_DS3505
ZBHH,2010-07-03 09:00,ZBHH 030900Z AUTO 36004KT 19SM 33/04 A2971 RMK SLP988 T03330041 57004 IEM_DS3505
ZBHH,2010-07-03 10:00,ZBHH 031000Z AUTO 34008KT 7SM 34/07 A2971 RMK T03400070 IEM_DS3505
ZBHH,2010-07-03 11:00,ZBHH 031100Z AUTO 01006KT 7SM 33/07 A2971 RMK T03300070 IEM_DS3505
ZBHH,2010-07-03 12:00,ZBHH 031200Z AUTO 04004KT 19SM 32/05 A2974 RMK SLP986 T03150051 52006 IEM_DS3505
ZBHH,2010-07-03 13:00,ZBHH 031300Z AUTO 04004KT 7SM 31/07 A2974 RMK T03100070 IEM_DS3505
ZBHH,2010-07-03 14:00,ZBHH 031400Z AUTO 03006KT 7SM 30/06 A2977 RMK T03000060 IEM_DS3505
ZBHH,2010-07-03 15:00,ZBHH 031500Z AUTO 02004KT 19SM 30/02 A2977 RMK SLP990 T03030017 52011 IEM_DS3505
ZBHH,2010-07-03 16:00,ZBHH 031600Z AUTO 11006KT 7SM 29/04 A2980 RMK T02900040 IEM_DS3505
ZBHH,2010-07-03 17:00,ZBHH 031700Z AUTO 02004KT 7SM 28/07 A2980 RMK T02800070 IEM_DS3505
ZBHH,2010-07-03 18:00,ZBHH 031800Z AUTO 36002KT 12SM 28/03 A2980 RMK SLP003 T02770034 52010 IEM_DS3505
ZBHH,2010-07-03 19:00,ZBHH 031900Z AUTO 04006KT 7SM 27/04 A2980 RMK T02700040 IEM_DS3505
ZBHH,2010-07-03 20:00,ZBHH 032000Z AUTO 03010KT 7SM 27/04 A2980 RMK T02700040 IEM_DS3505
ZBHH,2010-07-03 21:00,ZBHH 032100Z AUTO 32004KT 12SM 27/00 A2980 RMK 70000 SLP014 T02660004 52006 IEM_DS3505
ZBHH,2010-07-03 22:00,ZBHH 032200Z AUTO 35004KT 7SM 26/02 A2983 RMK T02600020 IEM_DS3505
ZBHH,2010-07-03 23:00,ZBHH 032300Z AUTO 05004KT 7SM 25/05 A2983 RMK T02500050 IEM_DS3505
ZBHH,2010-07-04 00:00,ZBHH 040000Z AUTO 29002KT 16SM 27/02 A2983 RMK 70000 SLP027 T02660018 52008 IEM_DS3505
ZBHH,2010-07-04 01:00,ZBHH 040100Z AUTO 29002KT 7SM 29/02 A2983 RMK T02900020 IEM_DS3505
ZBHH,2010-07-04 02:00,ZBHH 040200Z AUTO 18006KT 7SM 30/03 A2983 RMK T03000030 IEM_DS3505
ZBHH,2010-07-04 03:00,ZBHH 040300Z AUTO 04006KT 12SM 31/M01 A2983 RMK SLP022 T03061009 52001 IEM_DS3505
ZBHH,2010-07-04 04:00,ZBHH 040400Z AUTO 36010KT 7SM 31/M02 A2983 RMK T03101020 IEM_DS3505
ZBHH,2010-07-04 05:00,ZBHH 040500Z AUTO 34010KT 7SM 32/M02 A2980 RMK T03201020 IEM_DS3505
ZBHH,2010-07-04 06:00,ZBHH 040600Z AUTO 34006KT 12SM 32/M05 A2980 RMK SLP009 T03211047 57014 IEM_DS3505
ZBHH,2010-07-04 07:00,ZBHH 040700Z AUTO 34012KT 6SM 33/M02 A2977 RMK T03301020 IEM_DS3505
ZBHH,2010-07-04 08:00,ZBHH 040800Z AUTO 03012KT 6SM 34/00 A2977 RMK T03400000 IEM_DS3505
ZBHH,2010-07-04 09:00,ZBHH 040900Z AUTO 36006KT 12SM 33/M00 A2977 RMK SLP003 T03281003 57006 IEM_DS3505
ZBHH,2010-07-04 10:00,ZBHH 041000Z AUTO 36014KT 6SM 33/01 A2977 RMK T03300010 IEM_DS3505
ZBHH,2010-07-04 11:00,ZBHH 041100Z AUTO 35016KT 6SM 32/01 A2977 RMK T03200010 IEM_DS3505
ZBHH,2010-07-04 12:00,ZBHH 041200Z AUTO 36006KT 19SM 30/M02 A2980 RMK SLP017 T02991015 52008 IEM_DS3505
ZBHH,2010-07-04 13:00,ZBHH 041300Z AUTO 02008KT 6SM 29/00 A2983 RMK T02900000 IEM_DS3505
ZBHH,2010-07-04 14:00,ZBHH 041400Z AUTO 04008KT 6SM 26/00 A2985 RMK T02600000 IEM_DS3505
ZBHH,2010-07-04 15:00,ZBHH 041500Z AUTO 02002KT 19SM 27/M02 A2985 RMK SLP031 T02671021 52013 IEM_DS3505
ZBHH,2010-07-04 16:00,ZBHH 041600Z AUTO 02008KT 6SM 25/01 A2985 RMK T02500010 IEM_DS3505
ZBHH,2010-07-04 17:00,ZBHH 041700Z AUTO 06004KT 6SM 23/02 A2985 RMK T02300020 IEM_DS3505
ZBHH,2010-07-04 18:00,ZBHH 041800Z AUTO 04004KT 19SM 25/M00 A2985 RMK SLP034 T02501002 52003 IEM_DS3505
ZBHH,2010-07-04 19:00,ZBHH 041900Z AUTO 09006KT 6SM 20/03 A2985 RMK T02000030 IEM_DS3505
ZBHH,2010-07-04 20:00,ZBHH 042000Z AUTO 08006KT 6SM 19/03 A2985 RMK T01900030 IEM_DS3505
ZBHH,2010-07-04 21:00,ZBHH 042100Z AUTO 11002KT 19SM 19/02 A2988 RMK SLP051 T01930022 52006 IEM_DS3505
ZBHH,2010-07-04 22:00,ZBHH 042200Z AUTO 09004KT 6SM 19/04 A2988 RMK T01900040 IEM_DS3505
ZBHH,2010-07-04 23:00,ZBHH 042300Z AUTO 12002KT 6SM 22/05 A2988 RMK T02200050 IEM_DS3505
ZBHH,2010-07-05 00:00,ZBHH 050000Z AUTO 14002KT 19SM 26/03 A2988 RMK SLP049 T02590032 52005 IEM_DS3505
ZBHH,2010-07-05 01:00,ZBHH 050100Z AUTO 16002KT 6SM 28/06 A2988 RMK T02800060 IEM_DS3505
ZBHH,2010-07-05 02:00,ZBHH 050200Z AUTO 6SM 29/04 A2985 RMK T02900040 IEM_DS3505
ZBHH,2010-07-05 03:00,ZBHH 050300Z AUTO 20004KT 19SM 30/00 A2985 RMK SLP035 T02990005 57011 IEM_DS3505
ZBHH,2010-07-05 04:00,ZBHH 050400Z AUTO 17006KT 6SM 31/04 A2985 RMK T03100040 IEM_DS3505
ZBHH,2010-07-05 05:00,ZBHH 050500Z AUTO 19006KT 7SM 32/03 A2983 RMK T03200030 IEM_DS3505
ZBHH,2010-07-05 06:00,ZBHH 050600Z AUTO 20006KT 19SM 32/01 A2980 RMK SLP017 T03220013 57015 IEM_DS3505
ZBHH,2010-07-05 07:00,ZBHH 050700Z AUTO 16008KT 7SM 33/02 A2980 RMK T03300020 IEM_DS3505
ZBHH,2010-07-05 08:00,ZBHH 050800Z AUTO 7SM 33/02 A2977 RMK T03300020 IEM_DS3505
ZBHH,2010-07-05 09:00,ZBHH 050900Z AUTO 22004KT 19SM 33/01 A2977 RMK SLP010 T03310010 57015 IEM_DS3505
ZBHH,2010-07-05 10:00,ZBHH 051000Z AUTO 27006KT 7SM 32/02 A2977 RMK T03200020 IEM_DS3505
ZBHH,2010-07-05 11:00,ZBHH 051100Z AUTO 20004KT 7SM 31/04 A2977 RMK T03100040 IEM_DS3505
ZBHH,2010-07-05 12:00,ZBHH 051200Z AUTO 27002KT 19SM 30/03 A2977 RMK SLP005 T03040034 52003 IEM_DS3505
ZBHH,2010-07-05 13:00,ZBHH 051300Z AUTO 04004KT 7SM 27/07 A2980 RMK T02700070 IEM_DS3505
ZBHH,2010-07-05 14:00,ZBHH 051400Z AUTO 04006KT 6SM 25/02 A2980 RMK T02500020 IEM_DS3505
ZBHH,2010-07-05 15:00,ZBHH 051500Z AUTO 09004KT 19SM 26/00 A2980 RMK SLP016 T02550002 52008 IEM_DS3505
ZBHH,2010-07-05 16:00,ZBHH 051600Z AUTO 07006KT 6SM 23/03 A2980 RMK T02300030 IEM_DS3505
ZBHH,2010-07-05 17:00,ZBHH 051700Z AUTO 07006KT 6SM 23/03 A2983 RMK T02300030 IEM_DS3505
ZBHH,2010-07-05 18:00,ZBHH 051800Z AUTO 07002KT 19SM 22/00 A2980 RMK SLP023 T02170003 52003 IEM_DS3505
ZBHH,2010-07-05 19:00,ZBHH 051900Z AUTO 06002KT 6SM 19/02 A2983 RMK T01900020 IEM_DS3505
ZBHH,2010-07-05 20:00,ZBHH 052000Z AUTO 06006KT 6SM 17/03 A2983 RMK T01700030 IEM_DS3505
ZBHH,2010-07-05 21:00,ZBHH 052100Z AUTO 07002KT 19SM 18/03 A2983 RMK SLP034 T01850028 52006 IEM_DS3505
ZBHH,2010-07-05 22:00,ZBHH 052200Z AUTO 10004KT 6SM 18/02 A2983 RMK T01800020 IEM_DS3505
ZBHH,2010-07-05 23:00,ZBHH 052300Z AUTO 08004KT 6SM 21/03 A2983 RMK T02100030 IEM_DS3505
ZBHH,2010-07-06 00:00,ZBHH 060000Z AUTO 07002KT 19SM 26/02 A2985 RMK SLP030 T02600020 52005 IEM_DS3505
ZBHH,2010-07-06 01:00,ZBHH 060100Z AUTO 07002KT 6SM 29/03 A2983 RMK T02900030 IEM_DS3505
ZBHH,2010-07-06 02:00,ZBHH 060200Z AUTO 23002KT 6SM 31/01 A2983 RMK T03100010 IEM_DS3505
ZBHH,2010-07-06 03:00,ZBHH 060300Z AUTO 22006KT 19SM 32/M00 A2983 RMK SLP021 T03171001 57007 IEM_DS3505
ZBHH,2010-07-06 04:00,ZBHH 060400Z AUTO 22010KT 7SM 33/00 A2980 RMK T03300000 IEM_DS3505
ZBHH,2010-07-06 05:00,ZBHH 060500Z AUTO 22008KT 7SM 34/02 A2980 RMK T03400020 IEM_DS3505
ZBHH,2010-07-06 06:00,ZBHH 060600Z AUTO 18004KT 19SM 34/M01 A2977 RMK SLP005 T03371008 57017 IEM_DS3505
ZBHH,2010-07-06 07:00,ZBHH 060700Z AUTO 21010KT 7SM 34/01 A2974 RMK T03400010 IEM_DS3505
ZBHH,2010-07-06 08:00,ZBHH 060800Z AUTO 21010KT 7SM 35/00 A2974 RMK T03500000 IEM_DS3505
ZBHH,2010-07-06 09:00,ZBHH 060900Z AUTO 18006KT 19SM 34/M02 A2971 RMK SLP991 T03451015 57017 IEM_DS3505
ZBHH,2010-07-06 10:00,ZBHH 061000Z AUTO 22010KT 7SM 34/M02 A2971 RMK T03401020 IEM_DS3505
ZBHH,2010-07-06 11:00,ZBHH 061100Z AUTO 24006KT 7SM 33/M01 A2971 RMK T03301010 IEM_DS3505
ZBHH,2010-07-06 12:00,ZBHH 061200Z AUTO 22002KT 19SM 32/M01 A2974 RMK SLP987 T03171012 52005 IEM_DS3505
ZBHH,2010-07-06 13:00,ZBHH 061300Z AUTO 08002KT 7SM 28/02 A2974 RMK T02800020 IEM_DS3505
ZBHH,2010-07-06 14:00,ZBHH 061400Z AUTO 10004KT 7SM 26/03 A2974 RMK T02600030 IEM_DS3505
ZBHH,2010-07-06 15:00,ZBHH 061500Z AUTO 29002KT 19SM 26/02 A2974 RMK SLP992 T02630023 52005 IEM_DS3505
ZBHH,2010-07-06 16:00,ZBHH 061600Z AUTO 08004KT 7SM 23/05 A2974 RMK T02300050 IEM_DS3505
ZBHH,2010-07-06 17:00,ZBHH 061700Z AUTO 10002KT 7SM 24/05 A2974 RMK T02400050 IEM_DS3505
ZBHH,2010-07-06 18:00,ZBHH 061800Z AUTO 09004KT 19SM 25/04 A2974 RMK SLP990 T02480040 57001 IEM_DS3505
ZBHH,2010-07-06 19:00,ZBHH 061900Z AUTO 06004KT 7SM 22/06 A2974 RMK T02200060 IEM_DS3505
ZBHH,2010-07-06 20:00,ZBHH 062000Z AUTO 10004KT 7SM 23/04 A2977 RMK T02300040 IEM_DS3505
ZBHH,2010-07-06 21:00,ZBHH 062100Z AUTO 02002KT 12SM 24/04 A2977 RMK SLP003 T02440042 52012 IEM_DS3505
ZBHH,2010-07-06 22:00,ZBHH 062200Z AUTO 06002KT 7SM 23/06 A2980 RMK T02300060 IEM_DS3505
ZBHH,2010-07-06 23:00,ZBHH 062300Z AUTO 36004KT 7SM 24/05 A2980 RMK T02400050 IEM_DS3505
ZBHH,2010-07-07 00:00,ZBHH 070000Z AUTO 27002KT 9SM 26/06 A2980 RMK SLP016 T02590065 52010 IEM_DS3505
ZBHH,2010-07-07 01:00,ZBHH 070100Z AUTO 34006KT 7SM 27/09 A2983 RMK T02700090 IEM_DS3505
ZBHH,2010-07-07 02:00,ZBHH 070200Z AUTO 10010KT 7SM 27/09 A2983 RMK T02700090 IEM_DS3505
ZBHH,2010-07-07 03:00,ZBHH 070300Z AUTO 20004KT 12SM 26/08 A2985 RMK SLP042 T02650085 52014 IEM_DS3505
ZBHH,2010-07-07 04:00,ZBHH 070400Z AUTO 21010KT 7SM 26/12 A2988 RMK T02600120 IEM_DS3505
ZBHH,2010-07-07 05:00,ZBHH 070500Z AUTO 21017KT 7SM 25/12 A2988 RMK T02500120 IEM_DS3505
ZBHH,2010-07-07 06:00,ZBHH 070600Z AUTO 22008KT 12SM 25/10 A2988 RMK SLP064 T02490100 52014 IEM_DS3505
ZBHH,2010-07-07 07:00,ZBHH 070700Z AUTO 24012KT 7SM 26/11 A2988 RMK T02600110 IEM_DS3505
ZBHH,2010-07-07 08:00,ZBHH 070800Z AUTO 22008KT 7SM 25/11 A2988 RMK T02500110 IEM_DS3505
ZBHH,2010-07-07 09:00,ZBHH 070900Z AUTO 18006KT 19SM 26/09 A2985 RMK SLP048 T02600094 57013 IEM_DS3505
ZBHH,2010-07-07 10:00,ZBHH 071000Z AUTO 20002KT 7SM 25/11 A2985 RMK T02500110 IEM_DS3505
ZBHH,2010-07-07 11:00,ZBHH 071100Z AUTO 21004KT 7SM 24/12 A2985 RMK T02400120 IEM_DS3505
ZBHH,2010-07-07 12:00,ZBHH 071200Z AUTO 27004KT 12SM 24/11 A2985 RMK SLP053 T02430106 52004 IEM_DS3505
ZBHH,2010-07-07 13:00,ZBHH 071300Z AUTO 03002KT 7SM 23/12 A2988 RMK T02300120 IEM_DS3505
ZBHH,2010-07-07 14:00,ZBHH 071400Z AUTO 04008KT 7SM 21/11 A2988 RMK T02100110 IEM_DS3505
ZBHH,2010-07-07 15:00,ZBHH 071500Z AUTO 32002KT 19SM 22/10 A2991 RMK SLP070 T02200102 52012 IEM_DS3505
ZBHH,2010-07-07 16:00,ZBHH 071600Z AUTO 07004KT 6SM 19/11 A2991 RMK T01900110 IEM_DS3505
ZBHH,2010-07-07 17:00,ZBHH 071700Z AUTO 04002KT 6SM 18/11 A2991 RMK T01800110 IEM_DS3505
ZBHH,2010-07-07 18:00,ZBHH 071800Z AUTO 07002KT 19SM 20/10 A2991 RMK SLP076 T02000099 57001 IEM_DS3505
ZBHH,2010-07-07 19:00,ZBHH 071900Z AUTO 05002KT 6SM 17/11 A2991 RMK T01700110 IEM_DS3505
ZBHH,2010-07-07 20:00,ZBHH 072000Z AUTO 08006KT 6SM 16/11 A2991 RMK T01600110 IEM_DS3505
ZBHH,2010-07-07 21:00,ZBHH 072100Z AUTO 02002KT 19SM 18/10 A2991 RMK SLP077 T01830102 54000 IEM_DS3505
ZBHH,2010-07-07 22:00,ZBHH 072200Z AUTO 07002KT 6SM 16/11 A2991 RMK T01600110 IEM_DS3505
ZBHH,2010-07-07 23:00,ZBHH 072300Z AUTO 06002KT 6SM 20/11 A2991 RMK T02000110 IEM_DS3505
ZBHH,2010-07-08 00:00,ZBHH 080000Z AUTO 04002KT 19SM 23/11 A2991 RMK SLP076 T02320110 52005 IEM_DS3505
ZBHH,2010-07-08 01:00,ZBHH 080100Z AUTO 09006KT 6SM 25/11 A2991 RMK T02500110 IEM_DS3505
ZBHH,2010-07-08 02:00,ZBHH 080200Z AUTO 13004KT 7SM 26/11 A2991 RMK T02600110 IEM_DS3505
ZBHH,2010-07-08 03:00,ZBHH 080300Z AUTO 20006KT 19SM 27/09 A2988 RMK SLP061 T02670091 57011 IEM_DS3505
ZBHH,2010-07-08 04:00,ZBHH 080400Z AUTO 7SM 28/11 A2985 RMK T02800110 IEM_DS3505
ZBHH,2010-07-08 05:00,ZBHH 080500Z AUTO 7SM 29/09 A2985 RMK T02900090 IEM_DS3505
ZBHH,2010-07-08 06:00,ZBHH 080600Z AUTO 27004KT 19SM 30/07 A2983 RMK SLP045 T02960069 57013 IEM_DS3505
ZBHH,2010-07-08 07:00,ZBHH 080700Z AUTO 22006KT 7SM 30/09 A2983 RMK T03000090 IEM_DS3505
ZBHH,2010-07-08 08:00,ZBHH 080800Z AUTO 21006KT 7SM 30/10 A2980 RMK T03000100 IEM_DS3505
ZBHH,2010-07-08 09:00,ZBHH 080900Z AUTO 22006KT 19SM 31/06 A2977 RMK SLP024 T03060065 57020 IEM_DS3505
ZBHH,2010-07-08 10:00,ZBHH 081000Z AUTO 22006KT 6SM 30/10 A2977 RMK T03000100 IEM_DS3505
ZBHH,2010-07-08 11:00,ZBHH 081100Z AUTO 22006KT 6SM 29/10 A2977 RMK T02900100 IEM_DS3505
ZBHH,2010-07-08 12:00,ZBHH 081200Z AUTO 25002KT 19SM 28/09 A2977 RMK SLP018 T02830086 54000 IEM_DS3505
ZBHH,2010-07-08 13:00,ZBHH 081300Z AUTO 17002KT 7SM 26/12 A2980 RMK T02600120 IEM_DS3505
ZBHH,2010-07-08 14:00,ZBHH 081400Z AUTO 07002KT 7SM 25/11 A2980 RMK T02500110 IEM_DS3505
ZBHH,2010-07-08 15:00,ZBHH 081500Z AUTO 22002KT 19SM 24/10 A2980 RMK SLP025 T02420101 52005 IEM_DS3505
ZBHH,2010-07-08 16:00,ZBHH 081600Z AUTO 14002KT 7SM 22/12 A2980 RMK T02200120 IEM_DS3505
ZBHH,2010-07-08 17:00,ZBHH 081700Z AUTO 08004KT 7SM 21/11 A2980 RMK T02100110 IEM_DS3505
ZBHH,2010-07-08 18:00,ZBHH 081800Z AUTO 07002KT 19SM 24/11 A2980 RMK SLP016 T02360113 57004 IEM_DS3505
ZBHH,2010-07-08 19:00,ZBHH 081900Z AUTO 04002KT 7SM 22/12 A2980 RMK T02200120 IEM_DS3505
ZBHH,2010-07-08 20:00,ZBHH 082000Z AUTO 14002KT 7SM 21/12 A2977 RMK T02100120 IEM_DS3505
ZBHH,2010-07-08 21:00,ZBHH 082100Z AUTO 34004KT 12SM 23/13 A2977 RMK SLP011 T02270132 57004 IEM_DS3505
ZBHH,2010-07-08 22:00,ZBHH 082200Z AUTO 36008KT 7SM 22/14 A2980 RMK T02200140 IEM_DS3505
ZBHH,2010-07-08 23:00,ZBHH 082300Z AUTO 30004KT 5SM 20/16 A2980 RMK T02000160 IEM_DS3505
ZBHH,2010-07-09 00:00,ZBHH 090000Z AUTO 11002KT 9SM 20/16 A2980 RMK 60000 70001 SLP026 T02020156 52004 IEM_DS3505
ZBHH,2010-07-09 01:00,ZBHH 090100Z AUTO 24006KT 4SM 20/17 A2980 RMK T02000170 IEM_DS3505
ZBHH,2010-07-09 02:00,ZBHH 090200Z AUTO 19004KT 4SM 20/18 A2980 RMK T02000180 IEM_DS3505
ZBHH,2010-07-09 03:00,ZBHH 090300Z AUTO 18006KT 12SM 22/16 A2977 RMK SLP031 T02150158 54000 IEM_DS3505
ZBHH,2010-07-09 04:00,ZBHH 090400Z AUTO 20010KT 7SM 23/17 A2977 RMK T02300170 IEM_DS3505
ZBHH,2010-07-09 05:00,ZBHH 090500Z AUTO 20010KT 4SM 23/17 A2977 RMK T02300170 IEM_DS3505
ZBHH,2010-07-09 06:00,ZBHH 090600Z AUTO 07004KT 12SM 21/16 A2974 RMK 60000 SLP017 T02090157 57015 IEM_DS3505
ZBHH,2010-07-09 07:00,ZBHH 090700Z AUTO 10006KT 7SM 19/16 A2974 RMK T01900160 IEM_DS3505
ZBHH,2010-07-09 08:00,ZBHH 090800Z AUTO 06004KT 7SM 21/17 A2974 RMK T02100170 IEM_DS3505
ZBHH,2010-07-09 09:00,ZBHH 090900Z AUTO 20002KT 12SM 20/15 A2971 RMK SLP015 T02010153 57005 IEM_DS3505
ZBHH,2010-07-09 10:00,ZBHH 091000Z AUTO 08006KT 4SM 21/18 A2974 RMK T02100180 IEM_DS3505
ZBHH,2010-07-09 11:00,ZBHH 091100Z AUTO 12004KT 7SM 21/17 A2974 RMK T02100170 IEM_DS3505
ZBHH,2010-07-09 12:00,ZBHH 091200Z AUTO 04004KT 12SM 20/16 A2974 RMK 60055 SLP029 T02050163 52009 IEM_DS3505
ZBHH,2010-07-09 13:00,ZBHH 091300Z AUTO 24002KT 7SM 19/15 A2977 RMK T01900150 IEM_DS3505
ZBHH,2010-07-09 14:00,ZBHH 091400Z AUTO 01004KT 7SM 19/16 A2977 RMK T01900160 IEM_DS3505
ZBHH,2010-07-09 15:00,ZBHH 091500Z AUTO 36002KT 12SM 20/16 A2977 RMK SLP038 T01990158 52009 IEM_DS3505
ZBHH,2010-07-09 16:00,ZBHH 091600Z AUTO 22014KT 5SM 18/15 A2980 RMK T01800150 IEM_DS3505
ZBHH,2010-07-09 17:00,ZBHH 091700Z AUTO 17012KT 7SM 16/15 A2977 RMK T01600150 IEM_DS3505
ZBHH,2010-07-09 18:00,ZBHH 091800Z AUTO 16004KT 9SM 17/15 A2983 RMK 60028 SLP056 T01710149 52010 IEM_DS3505
ZBHH,2010-07-09 19:00,ZBHH 091900Z AUTO 08008KT 7SM 16/15 A2977 RMK T01600150 IEM_DS3505
ZBHH,2010-07-09 20:00,ZBHH 092000Z AUTO 36006KT 7SM 16/14 A2977 RMK T01600140 IEM_DS3505
ZBHH,2010-07-09 21:00,ZBHH 092100Z AUTO 27002KT 16SM 16/14 A2977 RMK 70085 SLP045 T01590136 57014 IEM_DS3505
ZBHH,2010-07-09 22:00,ZBHH 092200Z AUTO 31002KT 7SM 16/14 A2977 RMK T01600140 IEM_DS3505
ZBHH,2010-07-09 23:00,ZBHH 092300Z AUTO 19006KT 4SM 17/15 A2980 RMK T01700150 IEM_DS3505
ZBHH,2010-07-10 00:00,ZBHH 100000Z AUTO 16004KT 19SM 19/13 A2980 RMK 60004 70084 SLP046 T01940131 52008 IEM_DS3505
ZBHH,2010-07-10 01:00,ZBHH 100100Z AUTO 21004KT 7SM 19/15 A2980 RMK T01900150 IEM_DS3505
ZBHH,2010-07-10 02:00,ZBHH 100200Z AUTO 19008KT 7SM 20/15 A2977 RMK T02000150 IEM_DS3505
ZBHH,2010-07-10 03:00,ZBHH 100300Z AUTO 11004KT 12SM 21/15 A2977 RMK SLP036 T02120146 57006 IEM_DS3505
ZBHH,2010-07-10 04:00,ZBHH 100400Z AUTO 21004KT 3SM 22/16 A2977 RMK T02200160 IEM_DS3505
ZBHH,2010-07-10 05:00,ZBHH 100500Z AUTO 20006KT 4SM 23/16 A2974 RMK T02300160 IEM_DS3505
ZBHH,2010-07-10 06:00,ZBHH 100600Z AUTO 18004KT 9SM 25/15 A2971 RMK SLP017 T02470148 57016 IEM_DS3505
ZBHH,2010-07-10 07:00,ZBHH 100700Z AUTO 23008KT 5SM 24/17 A2971 RMK T02400170 IEM_DS3505
ZBHH,2010-07-10 08:00,ZBHH 100800Z AUTO 21006KT 6SM 26/17 A2968 RMK T02600170 IEM_DS3505
ZBHH,2010-07-10 09:00,ZBHH 100900Z AUTO 22004KT 12SM 26/16 A2965 RMK SLP994 T02630157 57019 IEM_DS3505
ZBHH,2010-07-10 10:00,ZBHH 101000Z AUTO 25012KT 7SM 27/17 A2965 RMK T02700170 IEM_DS3505
ZBHH,2010-07-10 11:00,ZBHH 101100Z AUTO 24008KT 7SM 26/18 A2965 RMK T02600180 IEM_DS3505
ZBHH,2010-07-10 12:00,ZBHH 101200Z AUTO 29002KT 19SM 27/09 A2968 RMK SLP990 T02660086 52003 IEM_DS3505
ZBHH,2010-07-10 13:00,ZBHH 101300Z AUTO 35004KT 7SM 25/11 A2968 RMK T02500110 IEM_DS3505
ZBHH,2010-07-10 14:00,ZBHH 101400Z AUTO 07004KT 7SM 22/13 A2971 RMK T02200130 IEM_DS3505
ZBHH,2010-07-10 15:00,ZBHH 101500Z AUTO 32002KT 19SM 23/09 A2971 RMK SLP006 T02300094 52011 IEM_DS3505
ZBHH,2010-07-10 16:00,ZBHH 101600Z AUTO 09004KT 7SM 19/13 A2971 RMK T01900130 IEM_DS3505
ZBHH,2010-07-10 17:00,ZBHH 101700Z AUTO 09004KT 7SM 18/13 A2971 RMK T01800130 IEM_DS3505
ZBHH,2010-07-10 18:00,ZBHH 101800Z AUTO 00000KT 12SM 19/12 A2974 RMK SLP016 T01910119 52008 IEM_DS3505
ZBHH,2010-07-10 19:00,ZBHH 101900Z AUTO 08002KT 7SM 17/13 A2974 RMK T01700130 IEM_DS3505
ZBHH,2010-07-10 20:00,ZBHH 102000Z AUTO 08006KT 6SM 16/13 A2974 RMK T01600130 IEM_DS3505
ZBHH,2010-07-10 21:00,ZBHH 102100Z AUTO 29002KT 19SM 20/11 A2974 RMK SLP018 T01950113 52005 IEM_DS3505
ZBHH,2010-07-10 22:00,ZBHH 102200Z AUTO 07006KT 6SM 16/13 A2977 RMK T01600130 IEM_DS3505
ZBHH,2010-07-10 23:00,ZBHH 102300Z AUTO 29002KT 6SM 19/15 A2977 RMK T01900150 IEM_DS3505
ZBHH,2010-07-11 00:00,ZBHH 110000Z AUTO 32004KT 19SM 22/12 A2977 RMK SLP020 T02220116 52008 IEM_DS3505
ZBHH,2010-07-11 01:00,ZBHH 110100Z AUTO 34008KT 7SM 24/12 A2977 RMK T02400120 IEM_DS3505
ZBHH,2010-07-11 02:00,ZBHH 110200Z AUTO 26006KT 7SM 24/13 A2977 RMK T02400130 IEM_DS3505
ZBHH,2010-07-11 03:00,ZBHH 110300Z AUTO 36006KT 19SM 26/09 A2974 RMK SLP013 T02630092 57006 IEM_DS3505
ZBHH,2010-07-11 04:00,ZBHH 110400Z AUTO 24004KT 7SM 27/12 A2974 RMK T02700120 IEM_DS3505
ZBHH,2010-07-11 05:00,ZBHH 110500Z AUTO 26008KT 7SM 29/12 A2974 RMK T02900120 IEM_DS3505
ZBHH,2010-07-11 06:00,ZBHH 110600Z AUTO 18006KT 19SM 29/12 A2971 RMK SLP005 T02860117 57010 IEM_DS3505
ZBHH,2010-07-11 07:00,ZBHH 110700Z AUTO 22014KT 7SM 29/13 A2971 RMK T02900130 IEM_DS3505
ZBHH,2010-07-11 08:00,ZBHH 110800Z AUTO 23012KT 7SM 30/14 A2968 RMK T03000140 IEM_DS3505
ZBHH,2010-07-11 09:00,ZBHH 110900Z AUTO 20006KT 19SM 29/12 A2968 RMK SLP994 T02910125 57008 IEM_DS3505
ZBHH,2010-07-11 10:00,ZBHH 111000Z AUTO 23010KT 7SM 29/14 A2968 RMK T02900140 IEM_DS3505
ZBHH,2010-07-11 11:00,ZBHH 111100Z AUTO 22006KT 7SM 28/15 A2968 RMK T02800150 IEM_DS3505
ZBHH,2010-07-11 12:00,ZBHH 111200Z AUTO 36002KT 19SM 28/14 A2971 RMK SLP000 T02760135 52008 IEM_DS3505
ZBHH,2010-07-11 13:00,ZBHH 111300Z AUTO 36002KT 6SM 27/11 A2974 RMK T02700110 IEM_DS3505
ZBHH,2010-07-11 14:00,ZBHH 111400Z AUTO 03006KT 6SM 25/11 A2974 RMK T02500110 IEM_DS3505
ZBHH,2010-07-11 15:00,ZBHH 111500Z AUTO 32002KT 19SM 25/10 A2977 RMK SLP014 T02460105 52014 IEM_DS3505
ZBHH,2010-07-11 16:00,ZBHH 111600Z AUTO 06004KT 6SM 22/12 A2977 RMK T02200120 IEM_DS3505
ZBHH,2010-07-11 17:00,ZBHH 111700Z AUTO 09004KT 6SM 21/13 A2977 RMK T02100130 IEM_DS3505
ZBHH,2010-07-11 18:00,ZBHH 111800Z AUTO 25002KT 19SM 22/12 A2977 RMK SLP020 T02160119 52004 IEM_DS3505
ZBHH,2010-07-11 19:00,ZBHH 111900Z AUTO 12006KT 6SM 20/13 A2980 RMK T02000130 IEM_DS3505
ZBHH,2010-07-11 20:00,ZBHH 112000Z AUTO 08006KT 6SM 18/13 A2980 RMK T01800130 IEM_DS3505
ZBHH,2010-07-11 21:00,ZBHH 112100Z AUTO 00000KT 19SM 20/13 A2980 RMK SLP031 T02000127 52008 IEM_DS3505
ZBHH,2010-07-11 22:00,ZBHH 112200Z AUTO 09004KT 6SM 18/13 A2980 RMK T01800130 IEM_DS3505
ZBHH,2010-07-11 23:00,ZBHH 112300Z AUTO 05006KT 6SM 21/14 A2983 RMK T02100140 IEM_DS3505
ZBHH,2010-07-12 00:00,ZBHH 120000Z AUTO 07004KT 19SM 24/11 A2983 RMK SLP032 T02440114 52006 IEM_DS3505
ZBHH,2010-07-12 01:00,ZBHH 120100Z AUTO 15004KT 6SM 26/13 A2983 RMK T02600130 IEM_DS3505
ZBHH,2010-07-12 02:00,ZBHH 120200Z AUTO 20004KT 7SM 27/12 A2983 RMK T02700120 IEM_DS3505
ZBHH,2010-07-12 03:00,ZBHH 120300Z AUTO 36002KT 19SM 29/10 A2980 RMK SLP021 T02880105 57007 IEM_DS3505
ZBHH,2010-07-12 04:00,ZBHH 120400Z AUTO 20006KT 7SM 29/11 A2988 RMK T02900110 IEM_DS3505
ZBHH,2010-07-12 05:00,ZBHH 120500Z AUTO 18008KT 7SM 31/11 A2991 RMK T03100110 IEM_DS3505
ZBHH,2010-07-12 06:00,ZBHH 120600Z AUTO 25008KT 19SM 31/11 A2991 RMK SLP013 T03090108 57009 IEM_DS3505
ZBHH,2010-07-12 07:00,ZBHH 120700Z AUTO 22010KT 7SM 32/12 A2988 RMK T03200120 IEM_DS3505
ZBHH,2010-07-12 08:00,ZBHH 120800Z AUTO 19008KT 7SM 32/12 A2985 RMK T03200120 IEM_DS3505
ZBHH,2010-07-12 09:00,ZBHH 120900Z AUTO 18006KT 19SM 32/11 A2983 RMK SLP007 T03180111 57007 IEM_DS3505
ZBHH,2010-07-12 10:00,ZBHH 121000Z AUTO 22010KT 7SM 31/12 A2977 RMK T03100120 IEM_DS3505
ZBHH,2010-07-12 11:00,ZBHH 121100Z AUTO 21006KT 7SM 30/14 A2968 RMK T03000140 IEM_DS3505
ZBHH,2010-07-12 12:00,ZBHH 121200Z AUTO 25002KT 19SM 30/11 A2956 RMK SLP007 T02960112 52004 IEM_DS3505
ZBHH,2010-07-12 13:00,ZBHH 121300Z AUTO 10004KT 6SM 27/15 RMK T02700150 IEM_DS3505
ZBHH,2010-07-12 14:00,ZBHH 121400Z AUTO 05008KT 6SM 26/12 RMK T02600120 IEM_DS3505
ZBHH,2010-07-12 15:00,ZBHH 121500Z AUTO 07004KT 19SM 26/09 A2985 RMK SLP027 T02610090 52020 IEM_DS3505
ZBHH,2010-07-12 16:00,ZBHH 121600Z AUTO 06006KT 6SM 22/12 A2985 RMK T02200120 IEM_DS3505
ZBHH,2010-07-12 17:00,ZBHH 121700Z AUTO 04008KT 6SM 23/11 A2983 RMK T02300110 IEM_DS3505
ZBHH,2010-07-12 18:00,ZBHH 121800Z AUTO 27002KT 19SM 22/12 A2983 RMK SLP031 T02210118 54000 IEM_DS3505
ZBHH,2010-07-12 19:00,ZBHH 121900Z AUTO 07004KT 6SM 21/12 A2983 RMK T02100120 IEM_DS3505
ZBHH,2010-07-12 20:00,ZBHH 122000Z AUTO 06004KT 6SM 20/13 A2983 RMK T02000130 IEM_DS3505
ZBHH,2010-07-12 21:00,ZBHH 122100Z AUTO 16002KT 19SM 20/11 A2985 RMK SLP042 T02050112 52008 IEM_DS3505
ZBHH,2010-07-12 22:00,ZBHH 122200Z AUTO 09008KT 6SM 21/12 A2988 RMK T02100120 IEM_DS3505
ZBHH,2010-07-12 23:00,ZBHH 122300Z AUTO 08006KT 6SM 23/13 A2985 RMK T02300130 IEM_DS3505
ZBHH,2010-07-13 00:00,ZBHH 130000Z AUTO 04004KT 19SM 26/11 A2985 RMK SLP040 T02570111 52004 IEM_DS3505
ZBHH,2010-07-13 01:00,ZBHH 130100Z AUTO 17004KT 6SM 27/14 A2985 RMK T02700140 IEM_DS3505
ZBHH,2010-07-13 02:00,ZBHH 130200Z AUTO 19006KT 6SM 28/15 A2985 RMK T02800150 IEM_DS3505
ZBHH,2010-07-13 03:00,ZBHH 130300Z AUTO 09002KT 19SM 29/12 A2985 RMK SLP035 T02930118 57004 IEM_DS3505
ZBHH,2010-07-13 04:00,ZBHH 130400Z AUTO 21006KT 6SM 30/13 A2985 RMK T03000130 IEM_DS3505
ZBHH,2010-07-13 05:00,ZBHH 130500Z AUTO 18004KT 7SM 31/13 A2983 RMK T03100130 IEM_DS3505
ZBHH,2010-07-13 06:00,ZBHH 130600Z AUTO 20006KT 19SM 32/12 A2983 RMK SLP024 T03200123 57012 IEM_DS3505
ZBHH,2010-07-13 07:00,ZBHH 130700Z AUTO 23008KT 7SM 32/14 A2983 RMK T03200140 IEM_DS3505
ZBHH,2010-07-13 08:00,ZBHH 130800Z AUTO 21006KT 7SM 31/21 A2980 RMK T03100210 IEM_DS3505
ZBHH,2010-07-13 09:00,ZBHH 130900Z AUTO 32002KT 12SM 29/16 A2980 RMK SLP029 T02870163 57005 IEM_DS3505
ZBHH,2010-07-13 10:00,ZBHH 131000Z AUTO 33004KT 7SM 29/11 A2980 RMK T02900110 IEM_DS3505
ZBHH,2010-07-13 11:00,ZBHH 131100Z AUTO 16006KT 7SM 28/15 A2980 RMK T02800150 IEM_DS3505
ZBHH,2010-07-13 12:00,ZBHH 131200Z AUTO 36002KT 19SM 28/11 A2983 RMK 60002 SLP030 T02790106 52009 IEM_DS3505
ZBHH,2010-07-13 13:00,ZBHH 131300Z AUTO 14002KT 7SM 25/14 A2983 RMK T02500140 IEM_DS3505
ZBHH,2010-07-13 14:00,ZBHH 131400Z AUTO 36004KT 7SM 26/14 A2985 RMK T02600140 IEM_DS3505
ZBHH,2010-07-13 15:00,ZBHH 131500Z AUTO 36002KT 19SM 25/12 A2985 RMK SLP039 T02470116 52009 IEM_DS3505
ZBHH,2010-07-13 16:00,ZBHH 131600Z AUTO 05006KT 7SM 23/11 A2985 RMK T02300110 IEM_DS3505
ZBHH,2010-07-13 17:00,ZBHH 131700Z AUTO 04004KT 6SM 22/12 A2988 RMK T02200120 IEM_DS3505
ZBHH,2010-07-13 18:00,ZBHH 131800Z AUTO 04002KT 19SM 22/13 A2988 RMK SLP048 T02220133 52008 IEM_DS3505
ZBHH,2010-07-13 19:00,ZBHH 131900Z AUTO 08004KT 6SM 20/14 A2988 RMK T02000140 IEM_DS3505
ZBHH,2010-07-13 20:00,ZBHH 132000Z AUTO 04002KT 6SM 22/13 A2988 RMK T02200130 IEM_DS3505
ZBHH,2010-07-13 21:00,ZBHH 132100Z AUTO 07002KT 19SM 22/13 A2988 RMK 70002 SLP061 T02150126 52004 IEM_DS3505
ZBHH,2010-07-13 22:00,ZBHH 132200Z AUTO 06004KT 6SM 20/14 A2991 RMK T02000140 IEM_DS3505
ZBHH,2010-07-13 23:00,ZBHH 132300Z AUTO 09004KT 6SM 23/15 A2991 RMK T02300150 IEM_DS3505
ZBHH,2010-07-14 00:00,ZBHH 140000Z AUTO 09002KT 12SM 25/14 A2991 RMK 70002 SLP065 T02460138 52008 IEM_DS3505
ZBHH,2010-07-14 01:00,ZBHH 140100Z AUTO 20002KT 5SM 26/15 A2991 RMK T02600150 IEM_DS3505
ZBHH,2010-07-14 02:00,ZBHH 140200Z AUTO 21004KT 5SM 27/16 A2991 RMK T02700160 IEM_DS3505
ZBHH,2010-07-14 03:00,ZBHH 140300Z AUTO 18006KT 19SM 28/14 A2988 RMK SLP055 T02840135 57008 IEM_DS3505
ZBHH,2010-07-14 04:00,ZBHH 140400Z AUTO 22008KT 5SM 30/14 A2988 RMK T03000140 IEM_DS3505
ZBHH,2010-07-14 05:00,ZBHH 140500Z AUTO 20008KT 7SM 30/13 A2985 RMK T03000130 IEM_DS3505
ZBHH,2010-07-14 06:00,ZBHH 140600Z AUTO 25004KT 16SM 30/12 A2985 RMK SLP039 T03020117 57015 IEM_DS3505
ZBHH,2010-07-14 07:00,ZBHH 140700Z AUTO 20002KT 7SM 31/13 A2983 RMK T03100130 IEM_DS3505
ZBHH,2010-07-14 08:00,ZBHH 140800Z AUTO 20006KT 7SM 32/14 A2980 RMK T03200140 IEM_DS3505
ZBHH,2010-07-14 09:00,ZBHH 140900Z AUTO 20004KT 12SM 32/10 A2980 RMK SLP016 T03250105 57018 IEM_DS3505
ZBHH,2010-07-14 10:00,ZBHH 141000Z AUTO 16004KT 7SM 31/13 A2977 RMK T03100130 IEM_DS3505
ZBHH,2010-07-14 11:00,ZBHH 141100Z AUTO 25012KT 7SM 31/12 A2980 RMK T03100120 IEM_DS3505
ZBHH,2010-07-14 12:00,ZBHH 141200Z AUTO 25008KT 7SM 30/08 A2980 RMK SLP017 T02980083 52002 IEM_DS3505
ZBHH,2010-07-14 13:00,ZBHH 141300Z AUTO 24014KT 7SM 29/09 A2980 RMK T02900090 IEM_DS3505
ZBHH,2010-07-14 14:00,ZBHH 141400Z AUTO 20008KT 7SM 25/14 A2983 RMK T02500140 IEM_DS3505
ZBHH,2010-07-14 15:00,ZBHH 141500Z AUTO 25004KT 7SM 26/14 A2983 RMK SLP030 T02580136 52011 IEM_DS3505
ZBHH,2010-07-14 16:00,ZBHH 141600Z AUTO 16006KT 7SM 22/17 A2985 RMK T02200170 IEM_DS3505
ZBHH,2010-07-14 17:00,ZBHH 141700Z AUTO 19006KT 7SM 21/18 A2985 RMK T02100180 IEM_DS3505
ZBHH,2010-07-14 18:00,ZBHH 141800Z AUTO 20002KT 12SM 23/14 A2985 RMK 60000 SLP041 T02280144 52008 IEM_DS3505
ZBHH,2010-07-14 19:00,ZBHH 141900Z AUTO 18006KT 7SM 21/18 A2985 RMK T02100180 IEM_DS3505
ZBHH,2010-07-14 20:00,ZBHH 142000Z AUTO 18006KT 7SM 20/17 A2985 RMK T02000170 IEM_DS3505
ZBHH,2010-07-14 21:00,ZBHH 142100Z AUTO 25004KT 8SM 21/13 A2985 RMK 70000 SLP040 T02070129 57001 IEM_DS3505
ZBHH,2010-07-14 22:00,ZBHH 142200Z AUTO 16004KT 7SM 19/17 A2985 RMK T01900170 IEM_DS3505
ZBHH,2010-07-14 23:00,ZBHH 142300Z AUTO 31006KT 4SM 18/16 A2988 RMK T01800160 IEM_DS3505
ZBHH,2010-07-15 00:00,ZBHH 150000Z AUTO 22004KT 8SM 18/15 A2988 RMK 60016 70016 SLP060 T01800151 52008 IEM_DS3505
ZBHH,2010-07-15 01:00,ZBHH 150100Z AUTO 17004KT 3SM 18/16 A2988 RMK T01800160 IEM_DS3505
ZBHH,2010-07-15 02:00,ZBHH 150200Z AUTO 22004KT 2 1/2SM 18/17 A2988 RMK T01800170 IEM_DS3505
ZBHH,2010-07-15 03:00,ZBHH 150300Z AUTO 27004KT 12SM 19/15 A2988 RMK SLP065 T01910150 57001 IEM_DS3505
ZBHH,2010-07-15 04:00,ZBHH 150400Z AUTO 21006KT 5SM 19/17 A2985 RMK T01900170 IEM_DS3505
ZBHH,2010-07-15 05:00,ZBHH 150500Z AUTO 21006KT 3SM 19/16 A2985 RMK T01900160 IEM_DS3505
ZBHH,2010-07-15 06:00,ZBHH 150600Z AUTO 25002KT 9SM 20/15 A2985 RMK 60000 SLP058 T02040152 57009 IEM_DS3505
ZBHH,2010-07-15 07:00,ZBHH 150700Z AUTO 19002KT 3SM 21/16 A2983 RMK T02100160 IEM_DS3505
ZBHH,2010-07-15 08:00,ZBHH 150800Z AUTO 21002KT 3SM 21/16 A2983 RMK T02100160 IEM_DS3505
ZBHH,2010-07-15 09:00,ZBHH 150900Z AUTO 16004KT 9SM 22/16 A2980 RMK SLP046 T02210159 57011 IEM_DS3505
ZBHH,2010-07-15 10:00,ZBHH 151000Z AUTO 18002KT 3SM 22/17 A2980 RMK T02200170 IEM_DS3505
ZBHH,2010-07-15 11:00,ZBHH 151100Z AUTO 15002KT 3SM 22/17 A2980 RMK T02200170 IEM_DS3505
ZBHH,2010-07-15 12:00,ZBHH 151200Z AUTO 07002KT 6SM 22/16 A2983 RMK SLP054 T02230161 52002 IEM_DS3505
ZBHH,2010-07-15 13:00,ZBHH 151300Z AUTO 09002KT 4SM 21/18 A2983 RMK T02100180 IEM_DS3505
ZBHH,2010-07-15 14:00,ZBHH 151400Z AUTO 05002KT 3SM 21/18 A2983 RMK T02100180 IEM_DS3505
ZBHH,2010-07-15 15:00,ZBHH 151500Z AUTO 09002KT 12SM 21/16 A2983 RMK SLP055 T02130165 52001 IEM_DS3505
ZBHH,2010-07-15 16:00,ZBHH 151600Z AUTO 09002KT 3SM 21/18 A2983 RMK T02100180 IEM_DS3505
ZBHH,2010-07-15 17:00,ZBHH 151700Z AUTO 13002KT 3SM 20/18 A2983 RMK T02000180 IEM_DS3505
ZBHH,2010-07-15 18:00,ZBHH 151800Z AUTO 20002KT 12SM 21/17 A2983 RMK SLP056 T02110169 52003 IEM_DS3505
ZBHH,2010-07-15 19:00,ZBHH 151900Z AUTO 20002KT 3SM 19/18 A2983 RMK T01900180 IEM_DS3505
ZBHH,2010-07-15 20:00,ZBHH 152000Z AUTO 11002KT 3SM 19/17 A2983 RMK T01900170 IEM_DS3505
ZBHH,2010-07-15 21:00,ZBHH 152100Z AUTO 25002KT 12SM 20/16 A2985 RMK 70016 SLP061 T01970165 52005 IEM_DS3505
ZBHH,2010-07-15 22:00,ZBHH 152200Z AUTO 18002KT 2SM 19/18 A2985 RMK T01900180 IEM_DS3505
ZBHH,2010-07-15 23:00,ZBHH 152300Z AUTO 21002KT 1 1/2SM 19/18 A2985 RMK T01900180 IEM_DS3505
ZBHH,2010-07-16 00:00,ZBHH 160000Z AUTO 18004KT 9SM 21/17 A2985 RMK 70000 SLP064 T02090167 52005 IEM_DS3505
ZBHH,2010-07-16 01:00,ZBHH 160100Z AUTO 21004KT 1 1/2SM 21/18 A2985 RMK T02100180 IEM_DS3505
ZBHH,2010-07-16 02:00,ZBHH 160200Z AUTO 21002KT 2 1/2SM 22/18 A2985 RMK T02200180 IEM_DS3505
ZBHH,2010-07-16 03:00,ZBHH 160300Z AUTO 22004KT 7SM 23/16 A2985 RMK SLP054 T02300156 57006 IEM_DS3505
ZBHH,2010-07-16 04:00,ZBHH 160400Z AUTO 23008KT 3SM 24/17 A2983 RMK T02400170 IEM_DS3505
ZBHH,2010-07-16 05:00,ZBHH 160500Z AUTO 19006KT 3SM 25/18 A2980 RMK T02500180 IEM_DS3505
ZBHH,2010-07-16 06:00,ZBHH 160600Z AUTO 25004KT 7SM 27/16 A2980 RMK SLP031 T02700163 57014 IEM_DS3505
ZBHH,2010-07-16 07:00,ZBHH 160700Z AUTO 17004KT 3SM 25/18 A2977 RMK T02500180 IEM_DS3505
ZBHH,2010-07-16 08:00,ZBHH 160800Z AUTO 06002KT 3SM 25/18 A2980 RMK T02500180 IEM_DS3505
ZBHH,2010-07-16 09:00,ZBHH 160900Z AUTO 29002KT 6SM 22/17 A2977 RMK SLP038 T02220173 57005 IEM_DS3505
ZBHH,2010-07-16 10:00,ZBHH 161000Z AUTO 29006KT 7SM 23/13 A2983 RMK T02300130 IEM_DS3505
ZBHH,2010-07-16 11:00,ZBHH 161100Z AUTO 24004KT 7SM 21/14 A2983 RMK T02100140 IEM_DS3505
ZBHH,2010-07-16 12:00,ZBHH 161200Z AUTO 09004KT 12SM 21/15 A2985 RMK 60008 SLP059 T02120151 52019 IEM_DS3505
ZBHH,2010-07-16 13:00,ZBHH 161300Z AUTO 05008KT 7SM 20/14 A2983 RMK T02000140 IEM_DS3505
ZBHH,2010-07-16 14:00,ZBHH 161400Z AUTO 22006KT 7SM 18/15 A2985 RMK T01800150 IEM_DS3505
ZBHH,2010-07-16 15:00,ZBHH 161500Z AUTO 18002KT 12SM 20/14 A2988 RMK SLP067 T02000139 52009 IEM_DS3505
ZBHH,2010-07-16 16:00,ZBHH 161600Z AUTO 07002KT 5SM 18/15 A2988 RMK T01800150 IEM_DS3505
ZBHH,2010-07-16 17:00,ZBHH 161700Z AUTO 12004KT 5SM 17/15 A2988 RMK T01700150 IEM_DS3505
ZBHH,2010-07-16 18:00,ZBHH 161800Z AUTO 34002KT 12SM 19/14 A2988 RMK SLP064 T01860143 52002 IEM_DS3505
ZBHH,2010-07-16 19:00,ZBHH 161900Z AUTO 10004KT 4SM 16/14 A2988 RMK T01600140 IEM_DS3505
ZBHH,2010-07-16 20:00,ZBHH 162000Z AUTO 04004KT 5SM 17/14 A2988 RMK T01700140 IEM_DS3505
ZBHH,2010-07-16 21:00,ZBHH 162100Z AUTO 36002KT 12SM 17/13 A2988 RMK 70007 SLP075 T01720133 57002 IEM_DS3505
ZBHH,2010-07-16 22:00,ZBHH 162200Z AUTO 05004KT 6SM 16/12 A2988 RMK T01600120 IEM_DS3505
ZBHH,2010-07-16 23:00,ZBHH 162300Z AUTO 08004KT 6SM 19/12 A2988 RMK T01900120 IEM_DS3505
ZBHH,2010-07-17 00:00,ZBHH 170000Z AUTO 14002KT 16SM 23/10 A2988 RMK 70007 SLP073 T02310102 52007 IEM_DS3505
ZBHH,2010-07-17 01:00,ZBHH 170100Z AUTO 19002KT 6SM 25/11 A2988 RMK T02500110 IEM_DS3505
ZBHH,2010-07-17 02:00,ZBHH 170200Z AUTO 20004KT 6SM 27/10 A2988 RMK T02700100 IEM_DS3505
ZBHH,2010-07-17 03:00,ZBHH 170300Z AUTO 07004KT 19SM 28/08 A2988 RMK SLP060 T02830075 57004 IEM_DS3505
ZBHH,2010-07-17 04:00,ZBHH 170400Z AUTO 19010KT 7SM 29/11 A2985 RMK T02900110 IEM_DS3505
ZBHH,2010-07-17 05:00,ZBHH 170500Z AUTO 27010KT 7SM 28/11 A2985 RMK T02800110 IEM_DS3505
ZBHH,2010-07-17 06:00,ZBHH 170600Z AUTO 04006KT 12SM 24/10 A2988 RMK SLP070 T02400103 57001 IEM_DS3505
ZBHH,2010-07-17 07:00,ZBHH 170700Z AUTO 04010KT 7SM 26/11 A2985 RMK T02600110 IEM_DS3505
ZBHH,2010-07-17 08:00,ZBHH 170800Z AUTO 05004KT 7SM 28/08 A2985 RMK T02800080 IEM_DS3505
ZBHH,2010-07-17 09:00,ZBHH 170900Z AUTO 20002KT 19SM 26/10 A2985 RMK SLP063 T02580096 57006 IEM_DS3505
ZBHH,2010-07-17 10:00,ZBHH 171000Z AUTO 03008KT 7SM 26/09 A2985 RMK T02600090 IEM_DS3505
ZBHH,2010-07-17 11:00,ZBHH 171100Z AUTO 08002KT 7SM 26/10 A2985 RMK T02600100 IEM_DS3505
ZBHH,2010-07-17 12:00,ZBHH 171200Z AUTO 02002KT 12SM 25/09 A2988 RMK SLP057 T02470086 52004 IEM_DS3505
ZBHH,2010-07-17 13:00,ZBHH 171300Z AUTO 07004KT 6SM 21/11 A2988 RMK T02100110 IEM_DS3505
ZBHH,2010-07-17 14:00,ZBHH 171400Z AUTO 05006KT 6SM 20/11 A2991 RMK T02000110 IEM_DS3505
ZBHH,2010-07-17 15:00,ZBHH 171500Z AUTO 34002KT 19SM 21/11 A2991 RMK SLP069 T02100111 52013 IEM_DS3505
ZBHH,2010-07-17 16:00,ZBHH 171600Z AUTO 06004KT 6SM 19/10 A2991 RMK T01900100 IEM_DS3505
ZBHH,2010-07-17 17:00,ZBHH 171700Z AUTO 05004KT 6SM 17/10 A2991 RMK T01700100 IEM_DS3505
ZBHH,2010-07-17 18:00,ZBHH 171800Z AUTO 36002KT 19SM 18/10 A2991 RMK SLP087 T01830104 52003 IEM_DS3505
ZBHH,2010-07-17 19:00,ZBHH 171900Z AUTO 06004KT 6SM 15/10 A2991 RMK T01500100 IEM_DS3505
ZBHH,2010-07-17 20:00,ZBHH 172000Z AUTO 07004KT 6SM 15/10 A2991 RMK T01500100 IEM_DS3505
ZBHH,2010-07-17 21:00,ZBHH 172100Z AUTO 11002KT 19SM 16/11 A2991 RMK 70000 SLP092 T01570107 52003 IEM_DS3505
ZBHH,2010-07-17 22:00,ZBHH 172200Z AUTO 06004KT 6SM 15/11 A2994 RMK T01500110 IEM_DS3505
ZBHH,2010-07-17 23:00,ZBHH 172300Z AUTO 08002KT 6SM 18/11 A2994 RMK T01800110 IEM_DS3505
ZBHH,2010-07-18 00:00,ZBHH 180000Z AUTO 36002KT 19SM 22/10 A2994 RMK 70000 SLP084 T02160104 52002 IEM_DS3505
ZBHH,2010-07-18 01:00,ZBHH 180100Z AUTO 24004KT 6SM 22/12 A2994 RMK T02200120 IEM_DS3505
ZBHH,2010-07-18 02:00,ZBHH 180200Z AUTO 25002KT 6SM 24/13 A2991 RMK T02400130 IEM_DS3505
ZBHH,2010-07-18 03:00,ZBHH 180300Z AUTO 16004KT 19SM 26/11 A2991 RMK SLP075 T02590109 57007 IEM_DS3505
ZBHH,2010-07-18 04:00,ZBHH 180400Z AUTO 24006KT 6SM 27/13 A2991 RMK T02700130 IEM_DS3505
ZBHH,2010-07-18 05:00,ZBHH 180500Z AUTO 21008KT 7SM 28/12 A2988 RMK T02800120 IEM_DS3505
ZBHH,2010-07-18 06:00,ZBHH 180600Z AUTO 22008KT 19SM 29/10 A2988 RMK SLP059 T02920103 57013 IEM_DS3505
ZBHH,2010-07-18 07:00,ZBHH 180700Z AUTO 22008KT 7SM 30/14 A2985 RMK T03000140 IEM_DS3505
ZBHH,2010-07-18 08:00,ZBHH 180800Z AUTO 24008KT 7SM 31/12 A2983 RMK T03100120 IEM_DS3505
ZBHH,2010-07-18 09:00,ZBHH 180900Z AUTO 25006KT 19SM 32/08 A2980 RMK SLP031 T03190082 57025 IEM_DS3505
ZBHH,2010-07-18 10:00,ZBHH 181000Z AUTO 22006KT 6SM 31/11 A2980 RMK T03100110 IEM_DS3505
ZBHH,2010-07-18 11:00,ZBHH 181100Z AUTO 20006KT 6SM 30/13 A2980 RMK T03000130 IEM_DS3505
ZBHH,2010-07-18 12:00,ZBHH 181200Z AUTO 18002KT 19SM 29/10 A2980 RMK SLP029 T02910098 52004 IEM_DS3505
ZBHH,2010-07-18 13:00,ZBHH 181300Z AUTO 10002KT 6SM 27/14 A2983 RMK T02700140 IEM_DS3505
ZBHH,2010-07-18 14:00,ZBHH 181400Z AUTO 07004KT 6SM 24/14 A2983 RMK T02400140 IEM_DS3505
ZBHH,2010-07-18 15:00,ZBHH 181500Z AUTO 34002KT 19SM 24/11 A2983 RMK SLP043 T02420112 52011 IEM_DS3505
ZBHH,2010-07-18 16:00,ZBHH 181600Z AUTO 05004KT 6SM 23/10 A2985 RMK T02300100 IEM_DS3505
ZBHH,2010-07-18 17:00,ZBHH 181700Z AUTO 09004KT 6SM 20/11 A2985 RMK T02000110 IEM_DS3505
ZBHH,2010-07-18 18:00,ZBHH 181800Z AUTO 07004KT 19SM 22/10 A2985 RMK SLP042 T02190101 52001 IEM_DS3505
ZBHH,2010-07-18 19:00,ZBHH 181900Z AUTO 04004KT 6SM 20/11 A2985 RMK T02000110 IEM_DS3505
ZBHH,2010-07-18 20:00,ZBHH 182000Z AUTO 09004KT 6SM 19/11 A2983 RMK T01900110 IEM_DS3505
ZBHH,2010-07-18 21:00,ZBHH 182100Z AUTO 18002KT 12SM 19/11 A2985 RMK SLP041 T01940109 54000 IEM_DS3505
ZBHH,2010-07-18 22:00,ZBHH 182200Z AUTO 07004KT 6SM 18/11 A2985 RMK T01800110 IEM_DS3505
ZBHH,2010-07-18 23:00,ZBHH 182300Z AUTO 08004KT 6SM 20/12 A2985 RMK T02000120 IEM_DS3505
ZBHH,2010-07-19 00:00,ZBHH 190000Z AUTO 00000KT 7SM 23/12 A2985 RMK SLP048 T02270121 52007 IEM_DS3505
ZBHH,2010-07-19 01:00,ZBHH 190100Z AUTO 09002KT 7SM 24/13 A2985 RMK T02400130 IEM_DS3505
ZBHH,2010-07-19 02:00,ZBHH 190200Z AUTO 17002KT 7SM 26/12 A2985 RMK T02600120 IEM_DS3505
ZBHH,2010-07-19 03:00,ZBHH 190300Z AUTO 09004KT 7SM 28/12 A2983 RMK SLP037 T02750115 57010 IEM_DS3505
ZBHH,2010-07-19 04:00,ZBHH 190400Z AUTO 20004KT 7SM 28/15 A2983 RMK T02800150 IEM_DS3505
ZBHH,2010-07-19 05:00,ZBHH 190500Z AUTO 7SM 29/13 A2980 RMK T02900130 IEM_DS3505
ZBHH,2010-07-19 06:00,ZBHH 190600Z AUTO 22004KT 7SM 30/12 A2977 RMK SLP019 T02950115 57017 IEM_DS3505
ZBHH,2010-07-19 07:00,ZBHH 190700Z AUTO 23008KT 7SM 30/11 A2977 RMK T03000110 IEM_DS3505
ZBHH,2010-07-19 08:00,ZBHH 190800Z AUTO 27008KT 7SM 30/09 A2974 RMK T03000090 IEM_DS3505
ZBHH,2010-07-19 09:00,ZBHH 190900Z AUTO 29006KT 9SM 29/07 A2974 RMK SLP011 T02910071 57012 IEM_DS3505
ZBHH,2010-07-19 10:00,ZBHH 191000Z AUTO 13014KT 7SM 26/09 A2977 RMK T02600090 IEM_DS3505
ZBHH,2010-07-19 11:00,ZBHH 191100Z AUTO 24004KT 7SM 26/09 A2977 RMK T02600090 IEM_DS3505
ZBHH,2010-07-19 12:00,ZBHH 191200Z AUTO 32002KT 19SM 26/07 A2980 RMK SLP024 T02600071 52012 IEM_DS3505
ZBHH,2010-07-19 13:00,ZBHH 191300Z AUTO 12006KT 7SM 24/11 A2980 RMK T02400110 IEM_DS3505
ZBHH,2010-07-19 14:00,ZBHH 191400Z AUTO 15002KT 7SM 23/12 A2983 RMK T02300120 IEM_DS3505
ZBHH,2010-07-19 15:00,ZBHH 191500Z AUTO 18002KT 19SM 24/09 A2983 RMK SLP035 T02410093 52015 IEM_DS3505
ZBHH,2010-07-19 16:00,ZBHH 191600Z AUTO 31004KT 7SM 22/12 A2983 RMK T02200120 IEM_DS3505
ZBHH,2010-07-19 17:00,ZBHH 191700Z AUTO 02002KT 7SM 22/12 A2980 RMK T02200120 IEM_DS3505
ZBHH,2010-07-19 18:00,ZBHH 191800Z AUTO 18002KT 19SM 20/11 A2980 RMK SLP024 T02010113 57013 IEM_DS3505
ZBHH,2010-07-19 19:00,ZBHH 191900Z AUTO 13002KT 7SM 18/13 A2980 RMK T01800130 IEM_DS3505
ZBHH,2010-07-19 20:00,ZBHH 192000Z AUTO 06002KT 7SM 18/12 A2980 RMK T01800120 IEM_DS3505
ZBHH,2010-07-19 21:00,ZBHH 192100Z AUTO 09002KT 19SM 19/12 A2983 RMK SLP041 T01890119 52012 IEM_DS3505
ZBHH,2010-07-19 22:00,ZBHH 192200Z AUTO 11002KT 6SM 17/13 A2983 RMK T01700130 IEM_DS3505
ZBHH,2010-07-19 23:00,ZBHH 192300Z AUTO 06004KT 6SM 19/13 A2985 RMK T01900130 IEM_DS3505
ZBHH,2010-07-20 00:00,ZBHH 200000Z AUTO 25002KT 16SM 22/12 A2985 RMK SLP054 T02180124 52011 IEM_DS3505
ZBHH,2010-07-20 01:00,ZBHH 200100Z AUTO 22002KT 6SM 24/13 A2985 RMK T02400130 IEM_DS3505
ZBHH,2010-07-20 02:00,ZBHH 200200Z AUTO 24004KT 6SM 24/14 A2985 RMK T02400140 IEM_DS3505
ZBHH,2010-07-20 03:00,ZBHH 200300Z AUTO 20004KT 12SM 26/12 A2983 RMK SLP040 T02630120 57008 IEM_DS3505
ZBHH,2010-07-20 04:00,ZBHH 200400Z AUTO 20004KT 6SM 27/13 A2983 RMK T02700130 IEM_DS3505
ZBHH,2010-07-20 05:00,ZBHH 200500Z AUTO 20010KT 7SM 28/14 A2980 RMK T02800140 IEM_DS3505
ZBHH,2010-07-20 06:00,ZBHH 200600Z AUTO 20006KT 16SM 30/12 A2980 RMK SLP022 T03000120 57016 IEM_DS3505
ZBHH,2010-07-20 07:00,ZBHH 200700Z AUTO 21008KT 7SM 30/14 A2977 RMK T03000140 IEM_DS3505
ZBHH,2010-07-20 08:00,ZBHH 200800Z AUTO 23010KT 7SM 29/14 A2977 RMK T02900140 IEM_DS3505
ZBHH,2010-07-20 09:00,ZBHH 200900Z AUTO 07002KT 9SM 28/11 A2977 RMK SLP016 T02810112 57011 IEM_DS3505
ZBHH,2010-07-20 10:00,ZBHH 201000Z AUTO 12004KT 7SM 30/16 A2977 RMK T03000160 IEM_DS3505
ZBHH,2010-07-20 11:00,ZBHH 201100Z AUTO 11008KT 7SM 29/12 A2977 RMK T02900120 IEM_DS3505
ZBHH,2010-07-20 12:00,ZBHH 201200Z AUTO 02004KT 7SM 29/09 A2980 RMK SLP027 T02860093 52016 IEM_DS3505
ZBHH,2010-07-20 13:00,ZBHH 201300Z AUTO 05004KT 7SM 27/11 A2977 RMK T02700110 IEM_DS3505
ZBHH,2010-07-20 14:00,ZBHH 201400Z AUTO 09006KT 7SM 24/12 A2980 RMK T02400120 IEM_DS3505
ZBHH,2010-07-20 15:00,ZBHH 201500Z AUTO 04002KT 19SM 24/11 A2980 RMK SLP032 T02420108 52004 IEM_DS3505
ZBHH,2010-07-20 16:00,ZBHH 201600Z AUTO 08004KT 7SM 21/12 A2983 RMK T02100120 IEM_DS3505
ZBHH,2010-07-20 17:00,ZBHH 201700Z AUTO 08002KT 6SM 20/12 A2983 RMK T02000120 IEM_DS3505
ZBHH,2010-07-20 18:00,ZBHH 201800Z AUTO 27002KT 19SM 20/11 A2983 RMK SLP038 T01970110 52004 IEM_DS3505
ZBHH,2010-07-20 19:00,ZBHH 201900Z AUTO 05004KT 6SM 18/12 A2983 RMK T01800120 IEM_DS3505
ZBHH,2010-07-20 20:00,ZBHH 202000Z AUTO 02002KT 6SM 18/11 A2983 RMK T01800110 IEM_DS3505
ZBHH,2010-07-20 21:00,ZBHH 202100Z AUTO 04002KT 19SM 19/12 A2983 RMK SLP049 T01890117 52005 IEM_DS3505
ZBHH,2010-07-20 22:00,ZBHH 202200Z AUTO 07004KT 6SM 18/12 A2985 RMK T01800120 IEM_DS3505
ZBHH,2010-07-20 23:00,ZBHH 202300Z AUTO 09004KT 6SM 22/12 A2985 RMK T02200120 IEM_DS3505
ZBHH,2010-07-21 00:00,ZBHH 210000Z AUTO 09002KT 19SM 26/10 A2985 RMK SLP043 T02580096 52008 IEM_DS3505
ZBHH,2010-07-21 01:00,ZBHH 210100Z AUTO 10004KT 6SM 28/12 A2985 RMK T02800120 IEM_DS3505
ZBHH,2010-07-21 02:00,ZBHH 210200Z AUTO 19004KT 6SM 29/12 A2985 RMK T02900120 IEM_DS3505
ZBHH,2010-07-21 03:00,ZBHH 210300Z AUTO 04002KT 19SM 31/11 A2985 RMK SLP036 T03070106 57005 IEM_DS3505
ZBHH,2010-07-21 04:00,ZBHH 210400Z AUTO 20008KT 7SM 31/11 A2983 RMK T03100110 IEM_DS3505
ZBHH,2010-07-21 05:00,ZBHH 210500Z AUTO 21008KT 7SM 32/12 A2980 RMK T03200120 IEM_DS3505
ZBHH,2010-07-21 06:00,ZBHH 210600Z AUTO 22008KT 19SM 34/12 A2980 RMK SLP020 T03360115 57017 IEM_DS3505
ZBHH,2010-07-21 07:00,ZBHH 210700Z AUTO 25008KT 7SM 35/10 A2977 RMK T03500100 IEM_DS3505
ZBHH,2010-07-21 08:00,ZBHH 210800Z AUTO 21008KT 7SM 35/12 A2977 RMK T03500120 IEM_DS3505
ZBHH,2010-07-21 09:00,ZBHH 210900Z AUTO 25006KT 19SM 35/09 A2977 RMK SLP006 T03500094 57012 IEM_DS3505
ZBHH,2010-07-21 10:00,ZBHH 211000Z AUTO 16012KT 7SM 33/13 A2977 RMK T03300130 IEM_DS3505
ZBHH,2010-07-21 11:00,ZBHH 211100Z AUTO 16004KT 7SM 31/12 A2980 RMK T03100120 IEM_DS3505
ZBHH,2010-07-21 12:00,ZBHH 211200Z AUTO 04002KT 19SM 32/10 A2980 RMK SLP015 T03160098 52014 IEM_DS3505
ZBHH,2010-07-21 13:00,ZBHH 211300Z AUTO 08004KT 7SM 28/12 A2983 RMK T02800120 IEM_DS3505
ZBHH,2010-07-21 14:00,ZBHH 211400Z AUTO 09004KT 7SM 28/12 A2985 RMK T02800120 IEM_DS3505
ZBHH,2010-07-21 15:00,ZBHH 211500Z AUTO 04002KT 19SM 28/12 A2985 RMK SLP032 T02770117 52017 IEM_DS3505
ZBHH,2010-07-21 16:00,ZBHH 211600Z AUTO 08006KT 6SM 24/13 A2988 RMK T02400130 IEM_DS3505
ZBHH,2010-07-21 17:00,ZBHH 211700Z AUTO 07006KT 6SM 25/14 A2988 RMK T02500140 IEM_DS3505
ZBHH,2010-07-21 18:00,ZBHH 211800Z AUTO 09002KT 19SM 25/12 A2988 RMK SLP041 T02480117 52008 IEM_DS3505
ZBHH,2010-07-21 19:00,ZBHH 211900Z AUTO 06006KT 6SM 25/16 A2988 RMK T02500160 IEM_DS3505
ZBHH,2010-07-21 20:00,ZBHH 212000Z AUTO 07002KT 7SM 22/15 A2988 RMK T02200150 IEM_DS3505
ZBHH,2010-07-21 21:00,ZBHH 212100Z AUTO 09004KT 19SM 24/13 A2991 RMK SLP044 T02400132 52004 IEM_DS3505
ZBHH,2010-07-21 22:00,ZBHH 212200Z AUTO 07006KT 7SM 23/16 A2991 RMK T02300160 IEM_DS3505
ZBHH,2010-07-21 23:00,ZBHH 212300Z AUTO 08004KT 7SM 23/16 A2994 RMK T02300160 IEM_DS3505
ZBHH,2010-07-22 00:00,ZBHH 220000Z AUTO 18002KT 12SM 27/14 A2994 RMK SLP061 T02730140 52015 IEM_DS3505
ZBHH,2010-07-22 01:00,ZBHH 220100Z AUTO 19004KT 7SM 28/15 A2994 RMK T02800150 IEM_DS3505
ZBHH,2010-07-22 02:00,ZBHH 220200Z AUTO 23006KT 7SM 28/16 A2994 RMK T02800160 IEM_DS3505
ZBHH,2010-07-22 03:00,ZBHH 220300Z AUTO 07004KT 7SM 30/14 A2994 RMK SLP059 T03010138 57004 IEM_DS3505
ZBHH,2010-07-22 04:00,ZBHH 220400Z AUTO 21004KT 7SM 30/15 A2991 RMK T03000150 IEM_DS3505
ZBHH,2010-07-22 05:00,ZBHH 220500Z AUTO 21006KT 7SM 31/15 A2988 RMK T03100150 IEM_DS3505
ZBHH,2010-07-22 06:00,ZBHH 220600Z AUTO 29004KT 7SM 32/13 A2988 RMK SLP042 T03250132 57016 IEM_DS3505
ZBHH,2010-07-22 07:00,ZBHH 220700Z AUTO 20006KT 7SM 33/13 A2988 RMK T03300130 IEM_DS3505
ZBHH,2010-07-22 08:00,ZBHH 220800Z AUTO 22006KT 7SM 33/13 A2985 RMK T03300130 IEM_DS3505
ZBHH,2010-07-22 09:00,ZBHH 220900Z AUTO 18004KT 9SM 34/12 A2985 RMK SLP031 T03370115 57009 IEM_DS3505
ZBHH,2010-07-22 10:00,ZBHH 221000Z AUTO 10008KT 7SM 31/15 A2985 RMK T03100150 IEM_DS3505
ZBHH,2010-07-22 11:00,ZBHH 221100Z AUTO 11004KT 7SM 31/14 A2985 RMK T03100140 IEM_DS3505
ZBHH,2010-07-22 12:00,ZBHH 221200Z AUTO 09004KT 9SM 31/13 A2988 RMK SLP042 T03060130 52010 IEM_DS3505
ZBHH,2010-07-22 13:00,ZBHH 221300Z AUTO 00000KT 6SM 28/15 A2991 RMK T02800150 IEM_DS3505
ZBHH,2010-07-22 14:00,ZBHH 221400Z AUTO 18004KT 6SM 27/15 A2991 RMK T02700150 IEM_DS3505
ZBHH,2010-07-22 15:00,ZBHH 221500Z AUTO 09004KT 12SM 27/14 A2991 RMK SLP058 T02720135 52013 IEM_DS3505
ZBHH,2010-07-22 16:00,ZBHH 221600Z AUTO 04004KT 6SM 28/19 A2991 RMK T02800190 IEM_DS3505
ZBHH,2010-07-22 17:00,ZBHH 221700Z AUTO 09006KT 6SM 23/16 A2994 RMK T02300160 IEM_DS3505
ZBHH,2010-07-22 18:00,ZBHH 221800Z AUTO 07002KT 19SM 25/14 A2994 RMK SLP061 T02460141 52003 IEM_DS3505
ZBHH,2010-07-22 19:00,ZBHH 221900Z AUTO 08004KT 6SM 22/16 A2994 RMK T02200160 IEM_DS3505
ZBHH,2010-07-22 20:00,ZBHH 222000Z AUTO 05006KT 6SM 21/16 A2994 RMK T02100160 IEM_DS3505
ZBHH,2010-07-22 21:00,ZBHH 222100Z AUTO 07002KT 16SM 23/14 A2994 RMK SLP066 T02260139 52003 IEM_DS3505
ZBHH,2010-07-22 22:00,ZBHH 222200Z AUTO 11002KT 6SM 20/15 A2994 RMK T02000150 IEM_DS3505
ZBHH,2010-07-22 23:00,ZBHH 222300Z AUTO 06004KT 4SM 23/16 A2997 RMK T02300160 IEM_DS3505
ZBHH,2010-07-23 00:00,ZBHH 230000Z AUTO 07002KT 16SM 26/15 A2997 RMK SLP074 T02650149 52008 IEM_DS3505
ZBHH,2010-07-23 01:00,ZBHH 230100Z AUTO 15004KT 4SM 27/15 A2997 RMK T02700150 IEM_DS3505
ZBHH,2010-07-23 02:00,ZBHH 230200Z AUTO 16002KT 4SM 30/16 A2997 RMK T03000160 IEM_DS3505
ZBHH,2010-07-23 03:00,ZBHH 230300Z AUTO 07002KT 9SM 31/13 A2994 RMK SLP063 T03130131 57007 IEM_DS3505
ZBHH,2010-07-23 04:00,ZBHH 230400Z AUTO 10004KT 5SM 33/13 A2994 RMK T03300130 IEM_DS3505
ZBHH,2010-07-23 05:00,ZBHH 230500Z AUTO 21008KT 7SM 34/13 A2991 RMK T03400130 IEM_DS3505
ZBHH,2010-07-23 06:00,ZBHH 230600Z AUTO 18008KT 12SM 35/11 A2988 RMK SLP045 T03510109 57014 IEM_DS3505
ZBHH,2010-07-23 07:00,ZBHH 230700Z AUTO 21008KT 7SM 35/13 A2988 RMK T03500130 IEM_DS3505
ZBHH,2010-07-23 08:00,ZBHH 230800Z AUTO 20006KT 7SM 35/12 A2988 RMK T03500120 IEM_DS3505
ZBHH,2010-07-23 09:00,ZBHH 230900Z AUTO 20008KT 12SM 35/09 A2988 RMK SLP040 T03470092 57009 IEM_DS3505
ZBHH,2010-07-23 10:00,ZBHH 231000Z AUTO 23006KT 7SM 34/12 A2985 RMK T03400120 IEM_DS3505
ZBHH,2010-07-23 11:00,ZBHH 231100Z AUTO 24006KT 6SM 33/12 A2985 RMK T03300120 IEM_DS3505
ZBHH,2010-07-23 12:00,ZBHH 231200Z AUTO 18004KT 16SM 32/09 A2988 RMK SLP040 T03250093 52003 IEM_DS3505
ZBHH,2010-07-23 13:00,ZBHH 231300Z AUTO 21002KT 6SM 28/15 A2991 RMK T02800150 IEM_DS3505
ZBHH,2010-07-23 14:00,ZBHH 231400Z AUTO 13002KT 6SM 27/14 A2994 RMK T02700140 IEM_DS3505
ZBHH,2010-07-23 15:00,ZBHH 231500Z AUTO 20006KT 12SM 29/10 A2994 RMK SLP060 T02900102 52020 IEM_DS3505
ZBHH,2010-07-23 16:00,ZBHH 231600Z AUTO 14004KT 6SM 25/14 A2997 RMK T02500140 IEM_DS3505
ZBHH,2010-07-23 17:00,ZBHH 231700Z AUTO 02004KT 6SM 26/15 A2997 RMK T02600150 IEM_DS3505
ZBHH,2010-07-23 18:00,ZBHH 231800Z AUTO 16002KT 12SM 26/10 A2997 RMK SLP066 T02550098 52006 IEM_DS3505
ZBHH,2010-07-23 19:00,ZBHH 231900Z AUTO 05004KT 6SM 22/13 A2997 RMK T02200130 IEM_DS3505
ZBHH,2010-07-23 20:00,ZBHH 232000Z AUTO 07004KT 6SM 22/13 A2997 RMK T02200130 IEM_DS3505
ZBHH,2010-07-23 21:00,ZBHH 232100Z AUTO 00000KT 12SM 23/11 A2997 RMK SLP076 T02300114 52004 IEM_DS3505
ZBHH,2010-07-23 22:00,ZBHH 232200Z AUTO 07002KT 7SM 22/13 A3000 RMK T02200130 IEM_DS3505
ZBHH,2010-07-23 23:00,ZBHH 232300Z AUTO 09002KT 6SM 23/13 A3000 RMK T02300130 IEM_DS3505
ZBHH,2010-07-24 00:00,ZBHH 240000Z AUTO 00000KT 12SM 26/10 A3000 RMK SLP077 T02620104 52003 IEM_DS3505
ZBHH,2010-07-24 01:00,ZBHH 240100Z AUTO 12006KT 6SM 29/13 A2997 RMK T02900130 IEM_DS3505
ZBHH,2010-07-24 02:00,ZBHH 240200Z AUTO 19004KT 6SM 31/14 A2997 RMK T03100140 IEM_DS3505
ZBHH,2010-07-24 03:00,ZBHH 240300Z AUTO 34002KT 12SM 31/08 A2997 RMK SLP072 T03130083 57002 IEM_DS3505
ZBHH,2010-07-24 04:00,ZBHH 240400Z AUTO 22008KT 6SM 32/13 A2997 RMK T03200130 IEM_DS3505
ZBHH,2010-07-24 05:00,ZBHH 240500Z AUTO 20008KT 7SM 33/11 A2997 RMK T03300110 IEM_DS3505
ZBHH,2010-07-24 06:00,ZBHH 240600Z AUTO 20004KT 16SM 34/11 A2994 RMK SLP065 T03400106 57008 IEM_DS3505
ZBHH,2010-07-24 07:00,ZBHH 240700Z AUTO 22008KT 7SM 34/13 A2994 RMK T03400130 IEM_DS3505
ZBHH,2010-07-24 08:00,ZBHH 240800Z AUTO 17008KT 7SM 35/11 A2991 RMK T03500110 IEM_DS3505
ZBHH,2010-07-24 09:00,ZBHH 240900Z AUTO 18006KT 16SM 35/07 A2991 RMK SLP054 T03490071 57012 IEM_DS3505
ZBHH,2010-07-24 10:00,ZBHH 241000Z AUTO 20010KT 6SM 33/10 A2991 RMK T03300100 IEM_DS3505
ZBHH,2010-07-24 11:00,ZBHH 241100Z AUTO 21006KT 6SM 31/12 A2994 RMK T03100120 IEM_DS3505
ZBHH,2010-07-24 12:00,ZBHH 241200Z AUTO 22004KT 9SM 30/10 A2997 RMK SLP072 T03010096 52013 IEM_DS3505
ZBHH,2010-07-24 13:00,ZBHH 241300Z AUTO 23002KT 6SM 28/12 A3000 RMK T02800120 IEM_DS3505
ZBHH,2010-07-24 14:00,ZBHH 241400Z AUTO 12004KT 6SM 25/13 A3000 RMK T02500130 IEM_DS3505
ZBHH,2010-07-24 15:00,ZBHH 241500Z AUTO 32002KT 19SM 27/10 A3000 RMK SLP083 T02740102 52014 IEM_DS3505
ZBHH,2010-07-24 16:00,ZBHH 241600Z AUTO 08004KT 6SM 23/13 A3000 RMK T02300130 IEM_DS3505
ZBHH,2010-07-24 17:00,ZBHH 241700Z AUTO 05006KT 6SM 22/13 A3000 RMK T02200130 IEM_DS3505
ZBHH,2010-07-24 18:00,ZBHH 241800Z AUTO 36002KT 19SM 24/12 A3000 RMK SLP086 T02380118 52001 IEM_DS3505
ZBHH,2010-07-24 19:00,ZBHH 241900Z AUTO 04002KT 6SM 21/13 A3000 RMK T02100130 IEM_DS3505
ZBHH,2010-07-24 20:00,ZBHH 242000Z AUTO 07004KT 6SM 20/13 A3003 RMK T02000130 IEM_DS3505
ZBHH,2010-07-24 21:00,ZBHH 242100Z AUTO 07002KT 12SM 23/12 A3003 RMK SLP095 T02270121 52008 IEM_DS3505
ZBHH,2010-07-24 22:00,ZBHH 242200Z AUTO 03004KT 6SM 21/13 A3003 RMK T02100130 IEM_DS3505
ZBHH,2010-07-24 23:00,ZBHH 242300Z AUTO 09002KT 6SM 22/14 A3003 RMK T02200140 IEM_DS3505
ZBHH,2010-07-25 00:00,ZBHH 250000Z AUTO 09002KT 9SM 26/13 A3003 RMK SLP101 T02580126 52002 IEM_DS3505
ZBHH,2010-07-25 01:00,ZBHH 250100Z AUTO 19004KT 6SM 26/15 A3003 RMK T02600150 IEM_DS3505
ZBHH,2010-07-25 02:00,ZBHH 250200Z AUTO 19006KT 6SM 28/17 A3003 RMK T02800170 IEM_DS3505
ZBHH,2010-07-25 03:00,ZBHH 250300Z AUTO 20004KT 9SM 29/16 A3003 RMK SLP096 T02870156 57004 IEM_DS3505
ZBHH,2010-07-25 04:00,ZBHH 250400Z AUTO 22004KT 5SM 30/16 A3000 RMK T03000160 IEM_DS3505
ZBHH,2010-07-25 05:00,ZBHH 250500Z AUTO 24004KT 6SM 31/15 A3000 RMK T03100150 IEM_DS3505
ZBHH,2010-07-25 06:00,ZBHH 250600Z AUTO 20004KT 9SM 33/12 A2997 RMK SLP081 T03270124 57013 IEM_DS3505
ZBHH,2010-07-25 07:00,ZBHH 250700Z AUTO 6SM 33/14 A2997 RMK T03300140 IEM_DS3505
ZBHH,2010-07-25 08:00,ZBHH 250800Z AUTO 25008KT 6SM 33/14 A2994 RMK T03300140 IEM_DS3505
ZBHH,2010-07-25 09:00,ZBHH 250900Z AUTO 22004KT 9SM 34/12 A2994 RMK SLP061 T03420120 57017 IEM_DS3505
ZBHH,2010-07-25 10:00,ZBHH 251000Z AUTO 25006KT 6SM 34/13 A2991 RMK T03400130 IEM_DS3505
ZBHH,2010-07-25 11:00,ZBHH 251100Z AUTO 23006KT 6SM 33/13 A2994 RMK T03300130 IEM_DS3505
ZBHH,2010-07-25 12:00,ZBHH 251200Z AUTO 22002KT 16SM 33/10 A2994 RMK SLP063 T03260100 52005 IEM_DS3505
ZBHH,2010-07-25 13:00,ZBHH 251300Z AUTO 13006KT 6SM 28/16 A2997 RMK T02800160 IEM_DS3505
ZBHH,2010-07-25 14:00,ZBHH 251400Z AUTO 15004KT 6SM 27/16 A2997 RMK T02700160 IEM_DS3505
ZBHH,2010-07-25 15:00,ZBHH 251500Z AUTO 07004KT 19SM 28/13 A2997 RMK SLP075 T02820133 52008 IEM_DS3505
ZBHH,2010-07-25 16:00,ZBHH 251600Z AUTO 06004KT 6SM 25/14 A2997 RMK T02500140 IEM_DS3505
ZBHH,2010-07-25 17:00,ZBHH 251700Z AUTO 02006KT 6SM 25/13 A2997 RMK T02500130 IEM_DS3505
ZBHH,2010-07-25 18:00,ZBHH 251800Z AUTO 29002KT 19SM 25/13 A2997 RMK SLP076 T02490128 52002 IEM_DS3505
ZBHH,2010-07-25 19:00,ZBHH 251900Z AUTO 08004KT 6SM 23/12 A2997 RMK T02300120 IEM_DS3505
ZBHH,2010-07-25 20:00,ZBHH 252000Z AUTO 11004KT 6SM 22/13 A3000 RMK T02200130 IEM_DS3505
ZBHH,2010-07-25 21:00,ZBHH 252100Z AUTO 29002KT 19SM 24/14 A3000 RMK SLP080 T02350137 52004 IEM_DS3505
ZBHH,2010-07-25 22:00,ZBHH 252200Z AUTO 13002KT 6SM 22/15 A3000 RMK T02200150 IEM_DS3505
ZBHH,2010-07-25 23:00,ZBHH 252300Z AUTO 04004KT 6SM 23/15 A3000 RMK T02300150 IEM_DS3505
ZBHH,2010-07-26 00:00,ZBHH 260000Z AUTO 11004KT 19SM 26/15 A3000 RMK SLP085 T02610146 52006 IEM_DS3505
ZBHH,2010-07-26 01:00,ZBHH 260100Z AUTO 18006KT 5SM 25/17 A3000 RMK T02500170 IEM_DS3505
ZBHH,2010-07-26 02:00,ZBHH 260200Z AUTO 22004KT 4SM 28/17 A3000 RMK T02800170 IEM_DS3505
ZBHH,2010-07-26 03:00,ZBHH 260300Z AUTO 25004KT 12SM 30/14 A2997 RMK SLP073 T03020139 57011 IEM_DS3505
ZBHH,2010-07-26 04:00,ZBHH 260400Z AUTO 19006KT 5SM 32/17 A2994 RMK T03200170 IEM_DS3505
ZBHH,2010-07-26 05:00,ZBHH 260500Z AUTO 20008KT 6SM 32/17 A2991 RMK T03200170 IEM_DS3505
ZBHH,2010-07-26 06:00,ZBHH 260600Z AUTO 18006KT 16SM 33/14 A2988 RMK SLP048 T03280139 57024 IEM_DS3505
ZBHH,2010-07-26 07:00,ZBHH 260700Z AUTO 23008KT 7SM 34/16 A2985 RMK T03400160 IEM_DS3505
ZBHH,2010-07-26 08:00,ZBHH 260800Z AUTO 25010KT 7SM 35/14 A2985 RMK T03500140 IEM_DS3505
ZBHH,2010-07-26 09:00,ZBHH 260900Z AUTO 25006KT 19SM 34/12 A2983 RMK SLP025 T03410125 57020 IEM_DS3505
ZBHH,2010-07-26 10:00,ZBHH 261000Z AUTO 26006KT 6SM 34/15 A2983 RMK T03400150 IEM_DS3505
ZBHH,2010-07-26 11:00,ZBHH 261100Z AUTO 25004KT 6SM 34/13 A2983 RMK T03400130 IEM_DS3505
ZBHH,2010-07-26 12:00,ZBHH 261200Z AUTO 00000KT 12SM 31/12 A2983 RMK SLP021 T03110125 57005 IEM_DS3505
ZBHH,2010-07-26 13:00,ZBHH 261300Z AUTO 13004KT 6SM 29/17 A2985 RMK T02900170 IEM_DS3505
ZBHH,2010-07-26 14:00,ZBHH 261400Z AUTO 12004KT 6SM 27/17 A2985 RMK T02700170 IEM_DS3505
ZBHH,2010-07-26 15:00,ZBHH 261500Z AUTO 32002KT 19SM 28/14 A2985 RMK SLP033 T02830142 52013 IEM_DS3505
ZBHH,2010-07-26 16:00,ZBHH 261600Z AUTO 02004KT 6SM 27/14 A2985 RMK T02700140 IEM_DS3505
ZBHH,2010-07-26 17:00,ZBHH 261700Z AUTO 04004KT 6SM 27/13 A2985 RMK T02700130 IEM_DS3505
ZBHH,2010-07-26 18:00,ZBHH 261800Z AUTO 22004KT 19SM 28/11 A2985 RMK SLP028 T02770109 57001 IEM_DS3505
ZBHH,2010-07-26 19:00,ZBHH 261900Z AUTO 07002KT 6SM 24/13 A2985 RMK T02400130 IEM_DS3505
ZBHH,2010-07-26 20:00,ZBHH 262000Z AUTO 04006KT 6SM 24/12 A2985 RMK T02400120 IEM_DS3505
ZBHH,2010-07-26 21:00,ZBHH 262100Z AUTO 16002KT 9SM 24/12 A2985 RMK SLP035 T02390122 52002 IEM_DS3505
ZBHH,2010-07-26 22:00,ZBHH 262200Z AUTO 06004KT 6SM 22/13 A2988 RMK T02200130 IEM_DS3505
ZBHH,2010-07-26 23:00,ZBHH 262300Z AUTO 09002KT 5SM 24/14 A2988 RMK T02400140 IEM_DS3505
ZBHH,2010-07-27 00:00,ZBHH 270000Z AUTO 22004KT 9SM 27/12 A2988 RMK SLP038 T02690122 52003 IEM_DS3505
ZBHH,2010-07-27 01:00,ZBHH 270100Z AUTO 22004KT 4SM 27/15 A2988 RMK T02700150 IEM_DS3505
ZBHH,2010-07-27 02:00,ZBHH 270200Z AUTO 21006KT 4SM 28/17 A2985 RMK T02800170 IEM_DS3505
ZBHH,2010-07-27 03:00,ZBHH 270300Z AUTO 22006KT 9SM 29/14 A2985 RMK SLP031 T02870145 57008 IEM_DS3505
ZBHH,2010-07-27 04:00,ZBHH 270400Z AUTO 21006KT 4SM 29/17 A2983 RMK T02900170 IEM_DS3505
ZBHH,2010-07-27 05:00,ZBHH 270500Z AUTO 24006KT 4SM 30/17 A2980 RMK T03000170 IEM_DS3505
ZBHH,2010-07-27 06:00,ZBHH 270600Z AUTO 22004KT 9SM 31/14 A2980 RMK SLP002 T03130145 57022 IEM_DS3505
ZBHH,2010-07-27 07:00,ZBHH 270700Z AUTO 21004KT 4SM 33/17 A2977 RMK T03300170 IEM_DS3505
ZBHH,2010-07-27 08:00,ZBHH 270800Z AUTO 26006KT 4SM 33/16 A2974 RMK T03300160 IEM_DS3505
ZBHH,2010-07-27 09:00,ZBHH 270900Z AUTO 25006KT 12SM 34/12 A2974 RMK SLP989 T03350125 57015 IEM_DS3505
ZBHH,2010-07-27 10:00,ZBHH 271000Z AUTO 25004KT 4SM 32/14 A2971 RMK T03200140 IEM_DS3505
ZBHH,2010-07-27 11:00,ZBHH 271100Z AUTO 22002KT 4SM 32/13 A2971 RMK T03200130 IEM_DS3505
ZBHH,2010-07-27 12:00,ZBHH 271200Z AUTO 22002KT 7SM 30/13 A2971 RMK SLP987 T03000129 57002 IEM_DS3505
ZBHH,2010-07-27 13:00,ZBHH 271300Z AUTO 04006KT 4SM 28/16 A2974 RMK T02800160 IEM_DS3505
ZBHH,2010-07-27 14:00,ZBHH 271400Z AUTO 04004KT 6SM 27/13 A2974 RMK T02700130 IEM_DS3505
ZBHH,2010-07-27 15:00,ZBHH 271500Z AUTO 04002KT 12SM 26/14 A2974 RMK SLP996 T02650136 52005 IEM_DS3505
ZBHH,2010-07-27 16:00,ZBHH 271600Z AUTO 04006KT 6SM 26/13 A2974 RMK T02600130 IEM_DS3505
ZBHH,2010-07-27 17:00,ZBHH 271700Z AUTO 07004KT 6SM 23/14 A2974 RMK T02300140 IEM_DS3505
ZBHH,2010-07-27 18:00,ZBHH 271800Z AUTO 07002KT 19SM 25/13 A2974 RMK SLP993 T02500126 57001 IEM_DS3505
ZBHH,2010-07-27 19:00,ZBHH 271900Z AUTO 04004KT 6SM 22/14 A2974 RMK T02200140 IEM_DS3505
ZBHH,2010-07-27 20:00,ZBHH 272000Z AUTO 10004KT 6SM 21/14 A2974 RMK T02100140 IEM_DS3505
ZBHH,2010-07-27 21:00,ZBHH 272100Z AUTO 09002KT 19SM 23/13 A2974 RMK SLP994 T02310133 52001 IEM_DS3505
ZBHH,2010-07-27 22:00,ZBHH 272200Z AUTO 05002KT 6SM 22/14 A2974 RMK T02200140 IEM_DS3505
ZBHH,2010-07-28 00:00,ZBHH 280000Z AUTO 18004KT 14SM 27/13 A2977 RMK SLP001 T02670131 52007 IEM_DS3505
ZBHH,2010-07-28 01:00,ZBHH 280100Z AUTO 24004KT 3SM 27/16 A2974 RMK T02700160 IEM_DS3505
ZBHH,2010-07-28 02:00,ZBHH 280200Z AUTO 4SM 29/17 A2974 RMK T02900170 IEM_DS3505
ZBHH,2010-07-28 03:00,ZBHH 280300Z AUTO 18006KT 12SM 30/17 A2974 RMK SLP990 T03030167 57010 IEM_DS3505
ZBHH,2010-07-28 04:00,ZBHH 280400Z AUTO 22008KT 5SM 32/18 A2971 RMK T03200180 IEM_DS3505
ZBHH,2010-07-28 05:00,ZBHH 280500Z AUTO 21008KT 5SM 33/19 A2968 RMK T03300190 IEM_DS3505
ZBHH,2010-07-28 06:00,ZBHH 280600Z AUTO 22006KT 19SM 33/16 A2968 RMK SLP965 T03330162 57019 IEM_DS3505
ZBHH,2010-07-28 07:00,ZBHH 280700Z AUTO 21010KT 6SM 34/17 A2965 RMK T03400170 IEM_DS3505
ZBHH,2010-07-28 08:00,ZBHH 280800Z AUTO 21008KT 6SM 34/17 A2965 RMK T03400170 IEM_DS3505
ZBHH,2010-07-28 09:00,ZBHH 280900Z AUTO 25006KT 19SM 35/16 A2962 RMK SLP952 T03480157 57013 IEM_DS3505
ZBHH,2010-07-28 10:00,ZBHH 281000Z AUTO 22008KT 6SM 34/16 A2962 RMK T03400160 IEM_DS3505
ZBHH,2010-07-28 11:00,ZBHH 281100Z AUTO 21004KT 6SM 33/18 A2962 RMK T03300180 IEM_DS3505
ZBHH,2010-07-28 12:00,ZBHH 281200Z AUTO 18004KT 12SM 33/16 A2962 RMK SLP941 T03260160 57007 IEM_DS3505
ZBHH,2010-07-28 13:00,ZBHH 281300Z AUTO 13004KT 6SM 29/19 A2962 RMK T02900190 IEM_DS3505
ZBHH,2010-07-28 14:00,ZBHH 281400Z AUTO 04004KT 6SM 29/18 A2962 RMK T02900180 IEM_DS3505
ZBHH,2010-07-28 15:00,ZBHH 281500Z AUTO 09002KT 12SM 30/17 A2962 RMK SLP950 T02960171 52009 IEM_DS3505
ZBHH,2010-07-28 16:00,ZBHH 281600Z AUTO 03004KT 6SM 28/17 A2965 RMK T02800170 IEM_DS3505
ZBHH,2010-07-28 17:00,ZBHH 281700Z AUTO 06004KT 6SM 26/17 A2965 RMK T02600170 IEM_DS3505
ZBHH,2010-07-28 18:00,ZBHH 281800Z AUTO 07002KT 12SM 27/17 A2965 RMK SLP953 T02670172 52003 IEM_DS3505
ZBHH,2010-07-28 19:00,ZBHH 281900Z AUTO 09004KT 6SM 25/17 A2965 RMK T02500170 IEM_DS3505
ZBHH,2010-07-28 20:00,ZBHH 282000Z AUTO 07004KT 6SM 24/17 A2965 RMK T02400170 IEM_DS3505
ZBHH,2010-07-28 21:00,ZBHH 282100Z AUTO 04002KT 12SM 26/16 A2968 RMK SLP960 T02580158 52007 IEM_DS3505
ZBHH,2010-07-28 22:00,ZBHH 282200Z AUTO 06004KT 6SM 24/16 A2968 RMK T02400160 IEM_DS3505
ZBHH,2010-07-28 23:00,ZBHH 282300Z AUTO 06004KT 6SM 26/17 A2968 RMK T02600170 IEM_DS3505
ZBHH,2010-07-29 00:00,ZBHH 290000Z AUTO 07002KT 12SM 28/15 A2968 RMK SLP967 T02840150 52007 IEM_DS3505
ZBHH,2010-07-29 01:00,ZBHH 290100Z AUTO 19004KT 4SM 29/16 A2968 RMK T02900160 IEM_DS3505
ZBHH,2010-07-29 02:00,ZBHH 290200Z AUTO 18004KT 4SM 31/17 A2968 RMK T03100170 IEM_DS3505
ZBHH,2010-07-29 03:00,ZBHH 290300Z AUTO 20004KT 7SM 33/16 A2968 RMK SLP962 T03270157 57002 IEM_DS3505
ZBHH,2010-07-29 04:00,ZBHH 290400Z AUTO 21008KT 5SM 33/18 A2968 RMK T03300180 IEM_DS3505
ZBHH,2010-07-29 05:00,ZBHH 290500Z AUTO 21008KT 7SM 35/18 A2965 RMK T03500180 IEM_DS3505
ZBHH,2010-07-29 06:00,ZBHH 290600Z AUTO 22006KT 7SM 36/16 A2962 RMK SLP942 T03570165 57018 IEM_DS3505
ZBHH,2010-07-29 07:00,ZBHH 290700Z AUTO 21008KT 7SM 36/16 A2962 RMK T03600160 IEM_DS3505
ZBHH,2010-07-29 08:00,ZBHH 290800Z AUTO 20008KT 6SM 37/17 A2959 RMK T03700170 IEM_DS3505
ZBHH,2010-07-29 09:00,ZBHH 290900Z AUTO 25006KT 9SM 37/16 A2959 RMK SLP927 T03720156 57012 IEM_DS3505
ZBHH,2010-07-29 10:00,ZBHH 291000Z AUTO 24006KT 7SM 37/16 A2959 RMK T03700160 IEM_DS3505
ZBHH,2010-07-29 11:00,ZBHH 291100Z AUTO 21004KT 7SM 35/17 A2959 RMK T03500170 IEM_DS3505
ZBHH,2010-07-29 12:00,ZBHH 291200Z AUTO 09002KT 9SM 33/15 A2959 RMK SLP934 T03280153 52003 IEM_DS3505
ZBHH,2010-07-29 13:00,ZBHH 291300Z AUTO 04006KT 7SM 32/16 A2962 RMK T03200160 IEM_DS3505
ZBHH,2010-07-29 14:00,ZBHH 291400Z AUTO 04004KT 7SM 32/16 A2962 RMK T03200160 IEM_DS3505
ZBHH,2010-07-29 15:00,ZBHH 291500Z AUTO 29004KT 12SM 33/14 A2962 RMK SLP937 T03280139 52010 IEM_DS3505
ZBHH,2010-07-29 16:00,ZBHH 291600Z AUTO 04008KT 7SM 31/16 A2962 RMK T03100160 IEM_DS3505
ZBHH,2010-07-29 17:00,ZBHH 291700Z AUTO 08008KT 7SM 29/18 A2965 RMK T02900180 IEM_DS3505
ZBHH,2010-07-29 18:00,ZBHH 291800Z AUTO 09004KT 12SM 30/16 A2965 RMK SLP949 T03010158 52011 IEM_DS3505
ZBHH,2010-07-29 19:00,ZBHH 291900Z AUTO 07010KT 7SM 29/17 A2968 RMK T02900170 IEM_DS3505
ZBHH,2010-07-29 20:00,ZBHH 292000Z AUTO 10012KT 7SM 27/19 A2965 RMK T02700190 IEM_DS3505
ZBHH,2010-07-29 21:00,ZBHH 292100Z AUTO 09004KT 12SM 28/17 A2968 RMK SLP952 T02790174 52002 IEM_DS3505
ZBHH,2010-07-29 22:00,ZBHH 292200Z AUTO 08004KT 7SM 26/19 A2968 RMK T02600190 IEM_DS3505
ZBHH,2010-07-29 23:00,ZBHH 292300Z AUTO 07004KT 7SM 27/19 A2971 RMK T02700190 IEM_DS3505
ZBHH,2010-07-30 00:00,ZBHH 300000Z AUTO 11002KT 12SM 30/18 A2968 RMK SLP967 T03000175 52009 IEM_DS3505
ZBHH,2010-07-30 01:00,ZBHH 300100Z AUTO 09004KT 6SM 31/19 A2968 RMK T03100190 IEM_DS3505
ZBHH,2010-07-30 02:00,ZBHH 300200Z AUTO 20004KT 6SM 33/16 A2971 RMK T03300160 IEM_DS3505
ZBHH,2010-07-30 03:00,ZBHH 300300Z AUTO 18006KT 7SM 34/14 A2968 RMK SLP958 T03370137 57002 IEM_DS3505
ZBHH,2010-07-30 04:00,ZBHH 300400Z AUTO 20006KT 7SM 34/18 A2968 RMK T03400180 IEM_DS3505
ZBHH,2010-07-30 05:00,ZBHH 300500Z AUTO 23008KT 7SM 35/17 A2965 RMK T03500170 IEM_DS3505
ZBHH,2010-07-30 06:00,ZBHH 300600Z AUTO 18008KT 9SM 37/14 A2965 RMK SLP938 T03740141 57016 IEM_DS3505
ZBHH,2010-07-30 07:00,ZBHH 300700Z AUTO 22008KT 7SM 38/14 A2962 RMK T03800140 IEM_DS3505
ZBHH,2010-07-30 08:00,ZBHH 300800Z AUTO 24008KT 7SM 38/13 A2962 RMK T03800130 IEM_DS3505
ZBHH,2010-07-30 09:00,ZBHH 300900Z AUTO 20006KT 7SM 38/10 A2959 RMK SLP926 T03810097 57013 IEM_DS3505
ZBHH,2010-07-30 10:00,ZBHH 301000Z AUTO 21006KT 6SM 36/14 A2959 RMK T03600140 IEM_DS3505
ZBHH,2010-07-30 11:00,ZBHH 301100Z AUTO 35010KT 6SM 35/19 A2959 RMK T03500190 IEM_DS3505
ZBHH,2010-07-30 12:00,ZBHH 301200Z AUTO 32004KT 14SM 32/18 A2962 RMK SLP943 T03250179 52009 IEM_DS3505
ZBHH,2010-07-30 13:00,ZBHH 301300Z AUTO 06014KT 7SM 32/20 A2965 RMK T03200200 IEM_DS3505
ZBHH,2010-07-30 14:00,ZBHH 301400Z AUTO 04008KT 7SM 31/19 A2968 RMK T03100190 IEM_DS3505
ZBHH,2010-07-30 15:00,ZBHH 301500Z AUTO 29004KT 16SM 29/18 A2968 RMK SLP956 T02940185 52013 IEM_DS3505
ZBHH,2010-07-30 16:00,ZBHH 301600Z AUTO 01008KT 7SM 29/19 A2968 RMK T02900190 IEM_DS3505
ZBHH,2010-07-30 17:00,ZBHH 301700Z AUTO 02006KT 7SM 29/19 A2968 RMK T02900190 IEM_DS3505
ZBHH,2010-07-30 18:00,ZBHH 301800Z AUTO 29004KT 12SM 28/17 A2965 RMK SLP948 T02830169 57003 IEM_DS3505
ZBHH,2010-07-30 19:00,ZBHH 301900Z AUTO 36006KT 7SM 28/18 A2965 RMK T02800180 IEM_DS3505
ZBHH,2010-07-30 20:00,ZBHH 302000Z AUTO 36016KT 7SM 25/17 A2968 RMK T02500170 IEM_DS3505
ZBHH,2010-07-30 21:00,ZBHH 302100Z AUTO 32012KT 7SM 24/15 A2971 RMK SLP974 T02420149 52017 IEM_DS3505
ZBHH,2010-07-30 22:00,ZBHH 302200Z AUTO 36012G21KT 7SM 25/15 A2974 RMK T02500150 IEM_DS3505
ZBHH,2010-07-30 23:00,ZBHH 302300Z AUTO 35008KT 7SM 23/15 A2977 RMK T02300150 IEM_DS3505
ZBHH,2010-07-31 00:00,ZBHH 310000Z AUTO 20002KT 7SM 21/14 A2980 RMK 60002 70002 SLP020 T02110140 52026 IEM_DS3505
ZBHH,2010-07-31 01:00,ZBHH 310100Z AUTO 08008KT 7SM 20/15 A2980 RMK T02000150 IEM_DS3505
ZBHH,2010-07-31 02:00,ZBHH 310200Z AUTO 36006KT 7SM 20/15 A2985 RMK T02000150 IEM_DS3505
ZBHH,2010-07-31 03:00,ZBHH 310300Z AUTO 07002KT 7SM 18/16 A2988 RMK T01830157 52027 IEM_DS3505
ZBHH,2010-07-31 04:00,ZBHH 310400Z AUTO 07002KT 7SM 18/16 A2988 RMK T01800160 IEM_DS3505
ZBHH,2010-07-31 05:00,ZBHH 310500Z AUTO 05004KT 7SM 19/16 A2985 RMK T01900160 IEM_DS3505
ZBHH,2010-07-31 06:00,ZBHH 310600Z AUTO 27002KT 7SM 20/13 A2985 RMK 60035 SLP052 T02010126 57008 IEM_DS3505
ZBHH,2010-07-31 07:00,ZBHH 310700Z AUTO 15002KT 7SM 21/14 A2985 RMK T02100140 IEM_DS3505
ZBHH,2010-07-31 08:00,ZBHH 310800Z AUTO 06004KT 7SM 23/13 A2983 RMK T02300130 IEM_DS3505
ZBHH,2010-07-31 09:00,ZBHH 310900Z AUTO 04004KT 12SM 26/09 A2983 RMK SLP035 T02590089 57012 IEM_DS3505
ZBHH,2010-07-31 10:00,ZBHH 311000Z AUTO 09012KT 6SM 25/12 A2983 RMK T02500120 IEM_DS3505
ZBHH,2010-07-31 11:00,ZBHH 311100Z AUTO 10006KT 6SM 24/12 A2985 RMK T02400120 IEM_DS3505
ZBHH,2010-07-31 12:00,ZBHH 311200Z AUTO 07004KT 19SM 24/10 A2985 RMK 60000 SLP062 T02380101 52015 IEM_DS3505
ZBHH,2010-07-31 13:00,ZBHH 311300Z AUTO 06004KT 6SM 21/13 A2988 RMK T02100130 IEM_DS3505
ZBHH,2010-07-31 14:00,ZBHH 311400Z AUTO 07002KT 6SM 19/12 A2991 RMK T01900120 IEM_DS3505
ZBHH,2010-07-31 15:00,ZBHH 311500Z AUTO 04004KT 19SM 22/05 A2991 RMK SLP083 T02220052 52010 IEM_DS3505
ZBHH,2010-07-31 16:00,ZBHH 311600Z AUTO 10004KT 6SM 17/11 A2991 RMK T01700110 IEM_DS3505
ZBHH,2010-07-31 17:00,ZBHH 311700Z AUTO 03004KT 6SM 17/10 A2991 RMK T01700100 IEM_DS3505
ZBHH,2010-07-31 18:00,ZBHH 311800Z AUTO 00000KT 19SM 18/06 A2991 RMK SLP090 T01820064 52002 IEM_DS3505
ZBHH,2010-07-31 19:00,ZBHH 311900Z AUTO 05004KT 6SM 16/09 A2988 RMK T01600090 IEM_DS3505
ZBHH,2010-07-31 20:00,ZBHH 312000Z AUTO 08002KT 6SM 15/09 A2988 RMK T01500090 IEM_DS3505
ZBHH,2010-07-31 21:00,ZBHH 312100Z AUTO 11002KT 19SM 15/06 A2991 RMK 70035 SLP086 T01540056 52002 IEM_DS3505
ZBHH,2010-07-31 22:00,ZBHH 312200Z AUTO 07008KT 7SM 16/05 A2991 RMK T01600050 IEM_DS3505
ZBHH,2010-07-31 23:00,ZBHH 312300Z AUTO 07004KT 6SM 20/06 A2994 RMK T02000060 IEM_DS3505
ZBHH,2010-08-01 00:00,ZBHH 010000Z AUTO 07002KT 16SM 22/04 A2994 RMK 70033 SLP083 T02250036 52007 IEM_DS3505
ZBHH,2010-08-01 01:00,ZBHH 010100Z AUTO 08016KT 6SM 24/01 A2991 RMK T02400010 IEM_DS3505
ZBHH,2010-08-01 02:00,ZBHH 010200Z AUTO 07014KT 6SM 26/02 A2991 RMK T02600020 IEM_DS3505
ZBHH,2010-08-01 03:00,ZBHH 010300Z AUTO 07006KT 19SM 27/03 A2991 RMK SLP069 T02670026 57008 IEM_DS3505
ZBHH,2010-08-01 04:00,ZBHH 010400Z AUTO 15008KT 6SM 28/05 A2991 RMK T02800050 IEM_DS3505
ZBHH,2010-08-01 05:00,ZBHH 010500Z AUTO 16008KT 6SM 29/06 A2988 RMK T02900060 IEM_DS3505
ZBHH,2010-08-01 06:00,ZBHH 010600Z AUTO 34002KT 19SM 29/07 A2988 RMK SLP061 T02930067 57009 IEM_DS3505
ZBHH,2010-08-01 07:00,ZBHH 010700Z AUTO 22006KT 6SM 30/09 A2985 RMK T03000090 IEM_DS3505
ZBHH,2010-08-01 08:00,ZBHH 010800Z AUTO 22008KT 6SM 30/09 A2985 RMK T03000090 IEM_DS3505
ZBHH,2010-08-01 09:00,ZBHH 010900Z AUTO 20008G17KT 16SM 28/11 A2985 RMK SLP059 T02830114 57009 IEM_DS3505
ZBHH,2010-08-01 10:00,ZBHH 011000Z AUTO 23012KT 7SM 26/15 A2985 RMK T02600150 IEM_DS3505
ZBHH,2010-08-01 11:00,ZBHH 011100Z AUTO 25010KT 6SM 25/15 A2985 RMK T02500150 IEM_DS3505
ZBHH,2010-08-01 12:00,ZBHH 011200Z AUTO 20004KT 9SM 23/15 A2988 RMK SLP069 T02330148 52013 IEM_DS3505
ZBHH,2010-08-01 13:00,ZBHH 011300Z AUTO 21004KT 7SM 23/17 A2991 RMK T02300170 IEM_DS3505
ZBHH,2010-08-01 14:00,ZBHH 011400Z AUTO 20002KT 7SM 22/17 A2991 RMK T02200170 IEM_DS3505
ZBHH,2010-08-01 15:00,ZBHH 011500Z AUTO 25002KT 12SM 23/16 A2991 RMK SLP067 T02320155 52005 IEM_DS3505
ZBHH,2010-08-01 16:00,ZBHH 011600Z AUTO 11002KT 7SM 22/17 A2991 RMK T02200170 IEM_DS3505
ZBHH,2010-08-01 17:00,ZBHH 011700Z AUTO 08004KT 7SM 22/17 A2991 RMK T02200170 IEM_DS3505
ZBHH,2010-08-01 18:00,ZBHH 011800Z AUTO 04004KT 12SM 23/15 A2991 RMK SLP057 T02340152 57004 IEM_DS3505
ZBHH,2010-08-01 19:00,ZBHH 011900Z AUTO 05004KT 7SM 23/16 A2988 RMK T02300160 IEM_DS3505
ZBHH,2010-08-01 20:00,ZBHH 012000Z AUTO 11004KT 7SM 23/16 A2985 RMK T02300160 IEM_DS3505
ZBHH,2010-08-01 21:00,ZBHH 012100Z AUTO 11002KT 12SM 23/15 A2988 RMK SLP053 T02320148 57005 IEM_DS3505
ZBHH,2010-08-01 22:00,ZBHH 012200Z AUTO 14004KT 7SM 22/17 A2988 RMK T02200170 IEM_DS3505
ZBHH,2010-08-01 23:00,ZBHH 012300Z AUTO 15006KT 4SM 21/18 A2988 RMK T02100180 IEM_DS3505
ZBHH,2010-08-02 00:00,ZBHH 020000Z AUTO 09004KT 12SM 21/18 A2988 RMK 60000 70000 SLP069 T02130181 52001 IEM_DS3505
ZBHH,2010-08-02 01:00,ZBHH 020100Z AUTO 12002KT 2SM 21/19 A2988 RMK T02100190 IEM_DS3505
ZBHH,2010-08-02 02:00,ZBHH 020200Z AUTO 15004KT 1 1/2SM 20/20 A2988 RMK T02000200 IEM_DS3505
ZBHH,2010-08-02 03:00,ZBHH 020300Z AUTO 14004KT 7SM 22/19 A2988 RMK SLP064 T02180186 57003 IEM_DS3505
ZBHH,2010-08-02 04:00,ZBHH 020400Z AUTO 08006KT 3SM 21/20 A2985 RMK T02100200 IEM_DS3505
ZBHH,2010-08-02 05:00,ZBHH 020500Z AUTO 09004KT 2 1/2SM 21/20 A2985 RMK T02100200 IEM_DS3505
ZBHH,2010-08-02 06:00,ZBHH 020600Z AUTO 07002KT 9SM 22/19 A2983 RMK 60008 SLP043 T02240192 57017 IEM_DS3505
ZBHH,2010-08-02 07:00,ZBHH 020700Z AUTO 02002KT 3SM 23/20 A2980 RMK T02300200 IEM_DS3505
ZBHH,2010-08-02 08:00,ZBHH 020800Z AUTO 04002KT 2 1/2SM 25/20 A2980 RMK T02500200 IEM_DS3505
ZBHH,2010-08-02 09:00,ZBHH 020900Z AUTO 02002KT 12SM 26/19 A2977 RMK SLP017 T02550189 57018 IEM_DS3505
ZBHH,2010-08-02 10:00,ZBHH 021000Z AUTO 03004KT 2 1/2SM 25/20 A2974 RMK T02500200 IEM_DS3505
ZBHH,2010-08-02 11:00,ZBHH 021100Z AUTO 05004G14KT 2 1/2SM 25/20 A2974 RMK T02500200 IEM_DS3505
ZBHH,2010-08-02 12:00,ZBHH 021200Z AUTO 09002KT 4SM 25/19 A2974 RMK SLP013 T02490193 57008 IEM_DS3505
ZBHH,2010-08-02 13:00,ZBHH 021300Z AUTO 06006KT 2 1/2SM 24/21 A2974 RMK T02400210 IEM_DS3505
ZBHH,2010-08-02 14:00,ZBHH 021400Z AUTO 08004KT 2 1/2SM 24/21 A2974 RMK T02400210 IEM_DS3505
ZBHH,2010-08-02 15:00,ZBHH 021500Z AUTO 00000KT 7SM 24/20 A2971 RMK SLP007 T02420203 57006 IEM_DS3505
ZBHH,2010-08-02 16:00,ZBHH 021600Z AUTO 06006KT 2SM 24/22 A2971 RMK T02400220 IEM_DS3505
ZBHH,2010-08-02 17:00,ZBHH 021700Z AUTO 34004KT 2SM 24/21 A2971 RMK T02400210 IEM_DS3505
ZBHH,2010-08-02 18:00,ZBHH 021800Z AUTO 14002KT 7SM 23/21 A2971 RMK 60024 SLP010 T02310212 52002 IEM_DS3505
ZBHH,2010-08-02 19:00,ZBHH 021900Z AUTO 10004KT 1 1/4SM 22/22 A2971 RMK T02200220 IEM_DS3505
ZBHH,2010-08-02 20:00,ZBHH 022000Z AUTO 09004KT 1 1/4SM 22/22 A2971 RMK T02200220 IEM_DS3505
ZBHH,2010-08-02 21:00,ZBHH 022100Z AUTO 07004KT 4SM 22/21 A2971 RMK 70048 SLP005 T02250210 54000 IEM_DS3505
ZBHH,2010-08-02 22:00,ZBHH 022200Z AUTO 12002KT 1SM 22/21 A2974 RMK T02200210 IEM_DS3505
ZBHH,2010-08-02 23:00,ZBHH 022300Z AUTO 07002KT 1 1/4SM 22/22 A2974 RMK T02200220 IEM_DS3505
ZBHH,2010-08-03 00:00,ZBHH 030000Z AUTO 04002KT 5SM 23/21 A2974 RMK 60020 70048 SLP015 T02340207 52009 IEM_DS3505
ZBHH,2010-08-03 01:00,ZBHH 030100Z AUTO 02002KT 2 1/2SM 25/22 A2974 RMK T02500220 IEM_DS3505
ZBHH,2010-08-03 02:00,ZBHH 030200Z AUTO 15002KT 2 1/2SM 25/22 A2974 RMK T02500220 IEM_DS3505
ZBHH,2010-08-03 03:00,ZBHH 030300Z AUTO 09002KT 6SM 26/21 A2974 RMK SLP010 T02650210 54000 IEM_DS3505
ZBHH,2010-08-03 04:00,ZBHH 030400Z AUTO 22004KT 3SM 27/21 A2974 RMK T02700210 IEM_DS3505
ZBHH,2010-08-03 05:00,ZBHH 030500Z AUTO 24004KT 2 1/2SM 27/22 A2974 RMK T02700220 IEM_DS3505
ZBHH,2010-08-03 06:00,ZBHH 030600Z AUTO 00000KT 6SM 27/17 A2974 RMK T02700170 IEM_DS3505
ZBHH,2010-08-03 07:00,ZBHH 030700Z AUTO 33002KT 4SM 24/20 A2974 RMK T02400200 IEM_DS3505
ZBHH,2010-08-03 08:00,ZBHH 030800Z AUTO 21002KT 4SM 26/20 A2974 RMK T02600200 IEM_DS3505
ZBHH,2010-08-03 09:00,ZBHH 030900Z AUTO 22002KT 6SM 26/18 A2971 RMK SLP005 T02630182 57004 IEM_DS3505
ZBHH,2010-08-03 10:00,ZBHH 031000Z AUTO 36010KT 7SM 25/17 A2974 RMK T02500170 IEM_DS3505
ZBHH,2010-08-03 11:00,ZBHH 031100Z AUTO 35006KT 7SM 23/18 A2977 RMK T02300180 IEM_DS3505
ZBHH,2010-08-03 12:00,ZBHH 031200Z AUTO 36002KT 6SM 23/17 A2977 RMK 60000 SLP021 T02330166 52011 IEM_DS3505
ZBHH,2010-08-03 13:00,ZBHH 031300Z AUTO 10002KT 7SM 22/19 A2977 RMK T02200190 IEM_DS3505
ZBHH,2010-08-03 14:00,ZBHH 031400Z AUTO 09004KT 7SM 22/18 A2977 RMK T02200180 IEM_DS3505
ZBHH,2010-08-03 15:00,ZBHH 031500Z AUTO 11002KT 6SM 23/17 A2977 RMK SLP020 T02270172 52003 IEM_DS3505
ZBHH,2010-08-03 16:00,ZBHH 031600Z AUTO 11002KT 7SM 22/19 A2977 RMK T02200190 IEM_DS3505
ZBHH,2010-08-03 17:00,ZBHH 031700Z AUTO 01006KT 7SM 20/18 A2977 RMK T02000180 IEM_DS3505
ZBHH,2010-08-03 18:00,ZBHH 031800Z AUTO 32002KT 16SM 21/17 A2977 RMK 60004 SLP026 T02120172 52004 IEM_DS3505
ZBHH,2010-08-03 19:00,ZBHH 031900Z AUTO 14002KT 7SM 20/19 A2980 RMK T02000190 IEM_DS3505
ZBHH,2010-08-03 20:00,ZBHH 032000Z AUTO 11004KT 7SM 20/18 A2980 RMK T02000180 IEM_DS3505
ZBHH,2010-08-03 21:00,ZBHH 032100Z AUTO 09002KT 16SM 20/18 A2980 RMK 70005 SLP033 T02040176 52003 IEM_DS3505
ZBHH,2010-08-03 22:00,ZBHH 032200Z AUTO 20002KT 4SM 19/18 A2980 RMK T01900180 IEM_DS3505
ZBHH,2010-08-03 23:00,ZBHH 032300Z AUTO 20002KT 4SM 19/18 A2983 RMK T01900180 IEM_DS3505
ZBHH,2010-08-04 00:00,ZBHH 040000Z AUTO 22002KT 6SM 21/18 A2983 RMK 60000 70005 SLP055 T02070175 52015 IEM_DS3505
ZBHH,2010-08-04 01:00,ZBHH 040100Z AUTO 33002KT 5SM 21/18 A2985 RMK T02100180 IEM_DS3505
ZBHH,2010-08-04 02:00,ZBHH 040200Z AUTO 15002KT 6SM 22/18 A2985 RMK T02200180 IEM_DS3505
ZBHH,2010-08-04 03:00,ZBHH 040300Z AUTO 25002KT 7SM 24/17 A2985 RMK SLP056 T02420170 52006 IEM_DS3505
ZBHH,2010-08-04 04:00,ZBHH 040400Z AUTO 23004KT 4SM 25/18 A2985 RMK T02500180 IEM_DS3505
ZBHH,2010-08-04 05:00,ZBHH 040500Z AUTO 22008KT 3SM 26/18 A2983 RMK T02600180 IEM_DS3505
ZBHH,2010-08-04 06:00,ZBHH 040600Z AUTO 25006KT 14SM 26/12 A2983 RMK SLP048 T02610118 57006 IEM_DS3505
ZBHH,2010-08-04 07:00,ZBHH 040700Z AUTO 29006KT 7SM 26/12 A2985 RMK T02600120 IEM_DS3505
ZBHH,2010-08-04 08:00,ZBHH 040800Z AUTO 28004KT 7SM 26/09 A2983 RMK T02600090 IEM_DS3505
ZBHH,2010-08-04 09:00,ZBHH 040900Z AUTO 20004KT 16SM 25/16 A2985 RMK SLP053 T02540160 52001 IEM_DS3505
ZBHH,2010-08-04 10:00,ZBHH 041000Z AUTO 23006KT 7SM 25/18 A2985 RMK T02500180 IEM_DS3505
ZBHH,2010-08-04 11:00,ZBHH 041100Z AUTO 23006KT 7SM 24/18 A2985 RMK T02400180 IEM_DS3505
ZBHH,2010-08-04 12:00,ZBHH 041200Z AUTO 20002KT 7SM 24/16 A2988 RMK SLP066 T02380156 52010 IEM_DS3505
ZBHH,2010-08-04 13:00,ZBHH 041300Z AUTO 15002KT 4SM 21/18 A2988 RMK T02100180 IEM_DS3505
ZBHH,2010-08-04 14:00,ZBHH 041400Z AUTO 35010KT 6SM 23/ A2991 RMK IEM_DS3505
ZBHH,2010-08-04 15:00,ZBHH 041500Z AUTO 09002G21KT 19SM 22/03 A2994 RMK SLP086 T02220028 52021 IEM_DS3505
ZBHH,2010-08-04 16:00,ZBHH 041600Z AUTO 36016KT 6SM 20/05 A2994 RMK T02000050 IEM_DS3505
ZBHH,2010-08-04 17:00,ZBHH 041700Z AUTO 36008G17KT 6SM 18/04 A3000 RMK T01800040 IEM_DS3505
ZBHH,2010-08-04 18:00,ZBHH 041800Z AUTO 34006KT 19SM 17/04 A2997 RMK SLP106 T01730036 52012 IEM_DS3505
ZBHH,2010-08-04 19:00,ZBHH 041900Z AUTO 01014G23KT 6SM 17/05 A3000 RMK T01700050 IEM_DS3505
ZBHH,2010-08-04 20:00,ZBHH 042000Z AUTO 35016KT 6SM 16/05 A3003 RMK T01600050 IEM_DS3505
ZBHH,2010-08-04 21:00,ZBHH 042100Z AUTO 36002KT 19SM 15/03 A3003 RMK SLP135 T01490031 52020 IEM_DS3505
ZBHH,2010-08-04 22:00,ZBHH 042200Z AUTO 35006KT 6SM 14/06 A3006 RMK T01400060 IEM_DS3505
ZBHH,2010-08-04 23:00,ZBHH 042300Z AUTO 34010KT 6SM 14/06 A3006 RMK T01400060 IEM_DS3505
ZBHH,2010-08-05 00:00,ZBHH 050000Z AUTO 34004KT 19SM 16/04 A3009 RMK SLP150 T01590037 52012 IEM_DS3505
ZBHH,2010-08-05 01:00,ZBHH 050100Z AUTO 34014KT 6SM 17/05 A3009 RMK T01700050 IEM_DS3505
ZBHH,2010-08-05 02:00,ZBHH 050200Z AUTO 33014KT 6SM 18/05 A3009 RMK T01800050 IEM_DS3505
ZBHH,2010-08-05 03:00,ZBHH 050300Z AUTO 02004KT 19SM 19/03 A3009 RMK SLP149 T01900028 52002 IEM_DS3505
ZBHH,2010-08-05 04:00,ZBHH 050400Z AUTO 33012KT 6SM 20/04 A3009 RMK T02000040 IEM_DS3505
ZBHH,2010-08-05 05:00,ZBHH 050500Z AUTO 34012KT 6SM 21/03 A3006 RMK T02100030 IEM_DS3505
ZBHH,2010-08-05 06:00,ZBHH 050600Z AUTO 04010KT 19SM 22/03 A3006 RMK SLP146 T02200032 57006 IEM_DS3505
ZBHH,2010-08-05 07:00,ZBHH 050700Z AUTO 33010KT 6SM 22/04 A3006 RMK T02200040 IEM_DS3505
ZBHH,2010-08-05 08:00,ZBHH 050800Z AUTO 32008KT 6SM 22/04 A3006 RMK T02200040 IEM_DS3505
ZBHH,2010-08-05 09:00,ZBHH 050900Z AUTO 02006KT 19SM 23/03 A3006 RMK SLP143 T02320032 57005 IEM_DS3505
ZBHH,2010-08-05 10:00,ZBHH 051000Z AUTO 32012KT 6SM 22/05 A3006 RMK T02200050 IEM_DS3505
ZBHH,2010-08-05 11:00,ZBHH 051100Z AUTO 33010KT 6SM 22/05 A3006 RMK T02200050 IEM_DS3505
ZBHH,2010-08-05 12:00,ZBHH 051200Z AUTO 34002KT 19SM 20/03 A3006 RMK SLP149 T02050028 52002 IEM_DS3505
ZBHH,2010-08-05 13:00,ZBHH 051300Z AUTO 36004KT 6SM 19/06 A3009 RMK T01900060 IEM_DS3505
ZBHH,2010-08-05 14:00,ZBHH 051400Z AUTO 10004KT 6SM 17/07 A3009 RMK T01700070 IEM_DS3505
ZBHH,2010-08-05 15:00,ZBHH 051500Z AUTO 29002KT 19SM 16/05 A3009 RMK SLP160 T01650052 52008 IEM_DS3505
ZBHH,2010-08-05 16:00,ZBHH 051600Z AUTO 05006KT 6SM 15/07 A3009 RMK T01500070 IEM_DS3505
ZBHH,2010-08-05 17:00,ZBHH 051700Z AUTO 04006KT 6SM 15/07 A3012 RMK T01500070 IEM_DS3505
ZBHH,2010-08-05 18:00,ZBHH 051800Z AUTO 02002KT 19SM 15/06 A3009 RMK SLP161 T01480059 52003 IEM_DS3505
ZBHH,2010-08-05 19:00,ZBHH 051900Z AUTO 05006KT 6SM 13/07 A3009 RMK T01300070 IEM_DS3505
ZBHH,2010-08-05 20:00,ZBHH 052000Z AUTO 05004KT 6SM 12/07 A3009 RMK T01200070 IEM_DS3505
ZBHH,2010-08-05 21:00,ZBHH 052100Z AUTO 25002KT 19SM 13/06 A3009 RMK SLP163 T01310062 52001 IEM_DS3505
ZBHH,2010-08-05 22:00,ZBHH 052200Z AUTO 03002KT 7SM 12/07 A3012 RMK T01200070 IEM_DS3505
ZBHH,2010-08-05 23:00,ZBHH 052300Z AUTO 10002KT 6SM 15/08 A3012 RMK T01500080 IEM_DS3505
ZBHH,2010-08-06 00:00,ZBHH 060000Z AUTO 02004KT 16SM 18/06 A3012 RMK SLP168 T01820061 52009 IEM_DS3505
ZBHH,2010-08-06 01:00,ZBHH 060100Z AUTO 09008KT 6SM 20/06 A3012 RMK T02000060 IEM_DS3505
ZBHH,2010-08-06 02:00,ZBHH 060200Z AUTO 14006KT 6SM 22/07 A3012 RMK T02200070 IEM_DS3505
ZBHH,2010-08-06 03:00,ZBHH 060300Z AUTO 16004KT 19SM 23/05 A3009 RMK SLP155 T02310046 57010 IEM_DS3505
ZBHH,2010-08-06 04:00,ZBHH 060400Z AUTO 19004KT 6SM 25/06 A3009 RMK T02500060 IEM_DS3505
ZBHH,2010-08-06 05:00,ZBHH 060500Z AUTO 6SM 25/06 A3003 RMK T02500060 IEM_DS3505
ZBHH,2010-08-06 06:00,ZBHH 060600Z AUTO 07002KT 16SM 26/03 A3003 RMK SLP126 T02570030 57024 IEM_DS3505
ZBHH,2010-08-06 07:00,ZBHH 060700Z AUTO 30002KT 7SM 25/03 A3000 RMK T02500030 IEM_DS3505
ZBHH,2010-08-06 08:00,ZBHH 060800Z AUTO 02004KT 7SM 26/03 A3000 RMK T02600030 IEM_DS3505
ZBHH,2010-08-06 09:00,ZBHH 060900Z AUTO 27002KT 16SM 27/03 A2997 RMK SLP109 T02670026 57016 IEM_DS3505
ZBHH,2010-08-06 10:00,ZBHH 061000Z AUTO 06004KT 7SM 26/04 A2994 RMK T02600040 IEM_DS3505
ZBHH,2010-08-06 11:00,ZBHH 061100Z AUTO 09004KT 7SM 25/07 A2994 RMK T02500070 IEM_DS3505
ZBHH,2010-08-06 12:00,ZBHH 061200Z AUTO 09002KT 16SM 25/04 A2994 RMK SLP092 T02500042 57009 IEM_DS3505
ZBHH,2010-08-06 13:00,ZBHH 061300Z AUTO 04004KT 7SM 24/08 A2994 RMK T02400080 IEM_DS3505
ZBHH,2010-08-06 14:00,ZBHH 061400Z AUTO 04006KT 7SM 23/08 A2994 RMK T02300080 IEM_DS3505
ZBHH,2010-08-06 15:00,ZBHH 061500Z AUTO 07002KT 19SM 25/06 A2994 RMK SLP088 T02470055 52005 IEM_DS3505
ZBHH,2010-08-06 16:00,ZBHH 061600Z AUTO 06006KT 7SM 23/10 A2994 RMK T02300100 IEM_DS3505
ZBHH,2010-08-06 17:00,ZBHH 061700Z AUTO 07006KT 7SM 23/09 A2994 RMK T02300090 IEM_DS3505
ZBHH,2010-08-06 18:00,ZBHH 061800Z AUTO 09004KT 12SM 24/08 A2991 RMK SLP073 T02350080 57011 IEM_DS3505
ZBHH,2010-08-06 19:00,ZBHH 061900Z AUTO 18008KT 4SM 19/15 A2994 RMK T01900150 IEM_DS3505
ZBHH,2010-08-06 20:00,ZBHH 062000Z AUTO 11006KT 2 1/2SM 18/18 A2991 RMK T01800180 IEM_DS3505
ZBHH,2010-08-06 21:00,ZBHH 062100Z AUTO 04004KT 6SM 18/17 A2988 RMK 70024 SLP072 T01850170 57008 IEM_DS3505
ZBHH,2010-08-06 22:00,ZBHH 062200Z AUTO 06008KT 2 1/2SM 18/17 A2988 RMK T01800170 IEM_DS3505
ZBHH,2010-08-06 23:00,ZBHH 062300Z AUTO 07006KT 1 1/4SM 18/17 A2988 RMK T01800170 IEM_DS3505
ZBHH,2010-08-07 00:00,ZBHH 070000Z AUTO 04006KT 5SM 18/16 A2985 RMK 60134 70135 SLP070 T01790164 57006 IEM_DS3505
ZBHH,2010-08-07 01:00,ZBHH 070100Z AUTO 09010KT 2 1/2SM 18/17 A2985 RMK T01800170 IEM_DS3505
ZBHH,2010-08-07 02:00,ZBHH 070200Z AUTO 05008KT 2 1/2SM 18/17 A2988 RMK T01800170 IEM_DS3505
ZBHH,2010-08-07 03:00,ZBHH 070300Z AUTO 09002KT 3SM 18/16 A2988 RMK SLP071 T01750158 54000 IEM_DS3505
ZBHH,2010-08-07 04:00,ZBHH 070400Z AUTO 07008KT 2 1/2SM 18/16 A2985 RMK T01800160 IEM_DS3505
ZBHH,2010-08-07 05:00,ZBHH 070500Z AUTO 10006KT 3SM 18/16 A2983 RMK T01800160 IEM_DS3505
ZBHH,2010-08-07 06:00,ZBHH 070600Z AUTO 09004KT 4SM 17/16 A2980 RMK 60083 SLP052 T01730158 57020 IEM_DS3505
ZBHH,2010-08-07 07:00,ZBHH 070700Z AUTO 04002KT 3SM 18/16 A2980 RMK T01800160 IEM_DS3505
ZBHH,2010-08-07 08:00,ZBHH 070800Z AUTO 01004KT 4SM 19/17 A2980 RMK T01900170 IEM_DS3505
ZBHH,2010-08-07 09:00,ZBHH 070900Z AUTO 18002KT 5SM 19/16 A2980 RMK SLP056 T01880155 57003 IEM_DS3505
ZBHH,2010-08-07 10:00,ZBHH 071000Z AUTO 08004KT 4SM 19/16 A2980 RMK T01900160 IEM_DS3505
ZBHH,2010-08-07 11:00,ZBHH 071100Z AUTO 05002KT 4SM 19/16 A2980 RMK T01900160 IEM_DS3505
ZBHH,2010-08-07 12:00,ZBHH 071200Z AUTO 09002KT 5SM 19/15 A2983 RMK 60000 SLP063 T01860151 52005 IEM_DS3505
ZBHH,2010-08-07 13:00,ZBHH 071300Z AUTO 13002KT 3SM 18/16 A2983 RMK T01800160 IEM_DS3505
ZBHH,2010-08-07 14:00,ZBHH 071400Z AUTO 03002KT 3SM 18/17 A2983 RMK T01800170 IEM_DS3505
ZBHH,2010-08-07 15:00,ZBHH 071500Z AUTO 04002KT 9SM 18/16 A2983 RMK SLP071 T01820155 52006 IEM_DS3505
ZBHH,2010-08-07 16:00,ZBHH 071600Z AUTO 36002KT 4SM 18/17 A2983 RMK T01800170 IEM_DS3505
ZBHH,2010-08-07 17:00,ZBHH 071700Z AUTO 36002KT 4SM 19/17 A2983 RMK T01900170 IEM_DS3505
ZBHH,2010-08-07 18:00,ZBHH 071800Z AUTO 34002KT 12SM 18/15 A2983 RMK SLP067 T01780154 57005 IEM_DS3505
ZBHH,2010-08-07 19:00,ZBHH 071900Z AUTO 14002KT 3SM 18/17 A2983 RMK T01800170 IEM_DS3505
ZBHH,2010-08-07 20:00,ZBHH 072000Z AUTO 10002KT 3SM 18/17 A2983 RMK T01800170 IEM_DS3505
ZBHH,2010-08-07 21:00,ZBHH 072100Z AUTO 09002KT 6SM 18/16 A2983 RMK 70193 SLP066 T01800158 52002 IEM_DS3505
ZBHH,2010-08-07 22:00,ZBHH 072200Z AUTO 10002KT 1 1/4SM 18/17 A2983 RMK T01800170 IEM_DS3505
ZBHH,2010-08-07 23:00,ZBHH 072300Z AUTO 15002KT 1 1/4SM 18/17 A2983 RMK T01800170 IEM_DS3505
ZBHH,2010-08-08 00:00,ZBHH 080000Z AUTO 34002KT 4SM 19/16 A2983 RMK 70082 SLP066 T01940164 52003 IEM_DS3505
ZBHH,2010-08-08 01:00,ZBHH 080100Z AUTO 25002KT 1 1/2SM 19/18 A2983 RMK T01900180 IEM_DS3505
ZBHH,2010-08-08 02:00,ZBHH 080200Z AUTO 22002KT 2 1/2SM 21/18 A2983 RMK T02100180 IEM_DS3505
ZBHH,2010-08-08 03:00,ZBHH 080300Z AUTO 18006KT 4SM 22/16 A2983 RMK SLP056 T02230163 57005 IEM_DS3505
ZBHH,2010-08-08 04:00,ZBHH 080400Z AUTO 24006KT 4SM 24/17 A2980 RMK T02400170 IEM_DS3505
ZBHH,2010-08-08 05:00,ZBHH 080500Z AUTO 24008KT 4SM 24/17 A2980 RMK T02400170 IEM_DS3505
ZBHH,2010-08-08 06:00,ZBHH 080600Z AUTO 16006KT 7SM 25/16 A2977 RMK SLP032 T02530159 57016 IEM_DS3505
ZBHH,2010-08-08 07:00,ZBHH 080700Z AUTO 22008KT 4SM 26/18 A2974 RMK T02600180 IEM_DS3505
ZBHH,2010-08-08 08:00,ZBHH 080800Z AUTO 23006KT 5SM 26/18 A2974 RMK T02600180 IEM_DS3505
ZBHH,2010-08-08 09:00,ZBHH 080900Z AUTO 29006KT 6SM 24/10 A2974 RMK SLP034 T02400103 54000 IEM_DS3505
ZBHH,2010-08-08 10:00,ZBHH 081000Z AUTO 35008KT 7SM 19/15 A2977 RMK T01900150 IEM_DS3505
ZBHH,2010-08-08 11:00,ZBHH 081100Z AUTO 08006KT 7SM 19/14 A2977 RMK T01900140 IEM_DS3505
ZBHH,2010-08-08 12:00,ZBHH 081200Z AUTO 09002KT 12SM 19/14 A2980 RMK 60020 SLP049 T01870138 52006 IEM_DS3505
ZBHH,2010-08-08 13:00,ZBHH 081300Z AUTO 33002KT 7SM 18/15 A2980 RMK T01800150 IEM_DS3505
ZBHH,2010-08-08 14:00,ZBHH 081400Z AUTO 08004KT 7SM 17/15 A2983 RMK T01700150 IEM_DS3505
ZBHH,2010-08-08 15:00,ZBHH 081500Z AUTO 14002KT 16SM 17/15 A2983 RMK SLP059 T01710147 52011 IEM_DS3505
ZBHH,2010-08-08 16:00,ZBHH 081600Z AUTO 03004KT 6SM 17/14 A2983 RMK T01700140 IEM_DS3505
ZBHH,2010-08-08 17:00,ZBHH 081700Z AUTO 01004KT 6SM 16/12 A2983 RMK T01600120 IEM_DS3505
ZBHH,2010-08-08 18:00,ZBHH 081800Z AUTO 29002KT 19SM 17/12 A2983 RMK SLP049 T01670120 57004 IEM_DS3505
ZBHH,2010-08-08 19:00,ZBHH 081900Z AUTO 05006KT 6SM 16/11 A2980 RMK T01600110 IEM_DS3505
ZBHH,2010-08-08 20:00,ZBHH 082000Z AUTO 09004KT 6SM 15/10 A2983 RMK T01500100 IEM_DS3505
ZBHH,2010-08-08 21:00,ZBHH 082100Z AUTO 18002KT 19SM 15/07 A2983 RMK 70020 SLP062 T01460072 52005 IEM_DS3505
ZBHH,2010-08-08 22:00,ZBHH 082200Z AUTO 09004KT 6SM 13/09 A2983 RMK T01300090 IEM_DS3505
ZBHH,2010-08-08 23:00,ZBHH 082300Z AUTO 06004KT 6SM 16/08 A2983 RMK T01600080 IEM_DS3505
ZBHH,2010-08-09 00:00,ZBHH 090000Z AUTO 36002KT 19SM 18/05 A2985 RMK 70020 SLP078 T01820051 52011 IEM_DS3505
ZBHH,2010-08-09 01:00,ZBHH 090100Z AUTO 06004KT 6SM 21/06 A2985 RMK T02100060 IEM_DS3505
ZBHH,2010-08-09 02:00,ZBHH 090200Z AUTO 18002KT 6SM 22/08 A2988 RMK T02200080 IEM_DS3505
ZBHH,2010-08-09 03:00,ZBHH 090300Z AUTO 04002KT 19SM 23/02 A2988 RMK SLP076 T02330022 52005 IEM_DS3505
ZBHH,2010-08-09 04:00,ZBHH 090400Z AUTO 10004KT 6SM 24/04 A2985 RMK T02400040 IEM_DS3505
ZBHH,2010-08-09 05:00,ZBHH 090500Z AUTO 17006KT 7SM 25/05 A2985 RMK T02500050 IEM_DS3505
ZBHH,2010-08-09 06:00,ZBHH 090600Z AUTO 36004KT 19SM 26/M00 A2985 RMK SLP062 T02551005 57009 IEM_DS3505
ZBHH,2010-08-09 07:00,ZBHH 090700Z AUTO 16006KT 6SM 26/06 A2983 RMK T02600060 IEM_DS3505
ZBHH,2010-08-09 08:00,ZBHH 090800Z AUTO 6SM 26/00 A2983 RMK T02600000 IEM_DS3505
ZBHH,2010-08-09 09:00,ZBHH 090900Z AUTO 02004KT 19SM 27/M02 A2983 RMK SLP054 T02701018 57008 IEM_DS3505
ZBHH,2010-08-09 10:00,ZBHH 091000Z AUTO 32004KT 6SM 26/01 A2983 RMK T02600010 IEM_DS3505
ZBHH,2010-08-09 11:00,ZBHH 091100Z AUTO 02006KT 6SM 25/04 A2983 RMK T02500040 IEM_DS3505
ZBHH,2010-08-09 12:00,ZBHH 091200Z AUTO 34002KT 16SM 22/03 A2985 RMK SLP064 T02200032 52006 IEM_DS3505
ZBHH,2010-08-09 13:00,ZBHH 091300Z AUTO 18002KT 6SM 18/09 A2985 RMK T01800090 IEM_DS3505
ZBHH,2010-08-09 14:00,ZBHH 091400Z AUTO 06004KT 6SM 18/07 A2988 RMK T01800070 IEM_DS3505
ZBHH,2010-08-09 15:00,ZBHH 091500Z AUTO 04002KT 19SM 18/07 A2988 RMK SLP078 T01820070 52015 IEM_DS3505
ZBHH,2010-08-09 16:00,ZBHH 091600Z AUTO 06006KT 6SM 15/08 A2988 RMK T01500080 IEM_DS3505
ZBHH,2010-08-09 17:00,ZBHH 091700Z AUTO 08004KT 6SM 14/08 A2988 RMK T01400080 IEM_DS3505
ZBHH,2010-08-09 18:00,ZBHH 091800Z AUTO 07002KT 19SM 14/08 A2988 RMK SLP077 T01440075 57004 IEM_DS3505
ZBHH,2010-08-09 19:00,ZBHH 091900Z AUTO 03004KT 6SM 14/08 A2988 RMK T01400080 IEM_DS3505
ZBHH,2010-08-09 20:00,ZBHH 092000Z AUTO 06004KT 6SM 13/08 A2985 RMK T01300080 IEM_DS3505
ZBHH,2010-08-09 21:00,ZBHH 092100Z AUTO 09002KT 19SM 13/07 A2988 RMK SLP079 T01290074 52002 IEM_DS3505
ZBHH,2010-08-09 22:00,ZBHH 092200Z AUTO 07010KT 6SM 13/08 A2988 RMK T01300080 IEM_DS3505
ZBHH,2010-08-09 23:00,ZBHH 092300Z AUTO 06006KT 6SM 15/09 A2988 RMK T01500090 IEM_DS3505
ZBHH,2010-08-10 00:00,ZBHH 100000Z AUTO 09004KT 16SM 20/07 A2988 RMK SLP078 T02000074 52003 IEM_DS3505
ZBHH,2010-08-10 01:00,ZBHH 100100Z AUTO 07006KT 6SM 22/09 A2988 RMK T02200090 IEM_DS3505
ZBHH,2010-08-10 02:00,ZBHH 100200Z AUTO 09004KT 6SM 25/07 A2988 RMK T02500070 IEM_DS3505
ZBHH,2010-08-10 03:00,ZBHH 100300Z AUTO 09004KT 19SM 26/05 A2988 RMK SLP064 T02620052 57008 IEM_DS3505
ZBHH,2010-08-10 04:00,ZBHH 100400Z AUTO 20004KT 6SM 27/07 A2985 RMK T02700070 IEM_DS3505
ZBHH,2010-08-10 05:00,ZBHH 100500Z AUTO 22004KT 7SM 28/08 A2985 RMK T02800080 IEM_DS3505
ZBHH,2010-08-10 06:00,ZBHH 100600Z AUTO 18004KT 19SM 28/04 A2983 RMK SLP054 T02800037 57013 IEM_DS3505
ZBHH,2010-08-10 07:00,ZBHH 100700Z AUTO 28002KT 7SM 28/08 A2983 RMK T02800080 IEM_DS3505
ZBHH,2010-08-10 08:00,ZBHH 100800Z AUTO 19002KT 7SM 28/10 A2980 RMK T02800100 IEM_DS3505
ZBHH,2010-08-10 09:00,ZBHH 100900Z AUTO 07004KT 19SM 28/06 A2980 RMK SLP047 T02830058 57008 IEM_DS3505
ZBHH,2010-08-10 10:00,ZBHH 101000Z AUTO 08004KT 7SM 28/09 A2980 RMK T02800090 IEM_DS3505
ZBHH,2010-08-10 11:00,ZBHH 101100Z AUTO 10006KT 7SM 25/15 A2980 RMK T02500150 IEM_DS3505
ZBHH,2010-08-10 12:00,ZBHH 101200Z AUTO 07002KT 19SM 25/08 A2980 RMK SLP036 T02540080 57002 IEM_DS3505
ZBHH,2010-08-10 13:00,ZBHH 101300Z AUTO 05006KT 7SM 22/13 A2980 RMK T02200130 IEM_DS3505
ZBHH,2010-08-10 14:00,ZBHH 101400Z AUTO 06006KT 7SM 21/12 A2980 RMK T02100120 IEM_DS3505
ZBHH,2010-08-10 15:00,ZBHH 101500Z AUTO 00000KT 19SM 22/12 A2980 RMK SLP035 T02220116 52004 IEM_DS3505
ZBHH,2010-08-10 16:00,ZBHH 101600Z AUTO 05006KT 6SM 20/13 A2980 RMK T02000130 IEM_DS3505
ZBHH,2010-08-10 17:00,ZBHH 101700Z AUTO 06006KT 6SM 20/13 A2980 RMK T02000130 IEM_DS3505
ZBHH,2010-08-10 18:00,ZBHH 101800Z AUTO 07002KT 19SM 21/10 A2980 RMK SLP030 T02120101 57003 IEM_DS3505
ZBHH,2010-08-10 19:00,ZBHH 101900Z AUTO 08006KT 6SM 20/12 A2980 RMK T02000120 IEM_DS3505
ZBHH,2010-08-10 20:00,ZBHH 102000Z AUTO 06004KT 6SM 20/13 A2977 RMK T02000130 IEM_DS3505
ZBHH,2010-08-10 21:00,ZBHH 102100Z AUTO 34002KT 19SM 20/11 A2977 RMK SLP024 T02020114 57006 IEM_DS3505
ZBHH,2010-08-10 22:00,ZBHH 102200Z AUTO 06004KT 7SM 19/13 A2977 RMK T01900130 IEM_DS3505
ZBHH,2010-08-10 23:00,ZBHH 102300Z AUTO 36002KT 7SM 20/14 A2980 RMK T02000140 IEM_DS3505
ZBHH,2010-08-11 00:00,ZBHH 110000Z AUTO 02002KT 7SM 22/13 A2980 RMK SLP037 T02210132 52009 IEM_DS3505
ZBHH,2010-08-11 01:00,ZBHH 110100Z AUTO 15002KT 6SM 23/16 A2980 RMK T02300160 IEM_DS3505
ZBHH,2010-08-11 02:00,ZBHH 110200Z AUTO 18004KT 5SM 24/17 A2980 RMK T02400170 IEM_DS3505
ZBHH,2010-08-11 03:00,ZBHH 110300Z AUTO 27002KT 8SM 24/17 A2980 RMK SLP036 T02400173 57003 IEM_DS3505
ZBHH,2010-08-11 04:00,ZBHH 110400Z AUTO 20004KT 4SM 26/17 A2980 RMK T02600170 IEM_DS3505
ZBHH,2010-08-11 05:00,ZBHH 110500Z AUTO 19006KT 2 1/2SM 25/18 A2977 RMK T02500180 IEM_DS3505
ZBHH,2010-08-11 06:00,ZBHH 110600Z AUTO 16004KT 12SM 26/17 A2977 RMK SLP023 T02600174 57010 IEM_DS3505
ZBHH,2010-08-11 07:00,ZBHH 110700Z AUTO 20006KT 4SM 27/18 A2974 RMK T02700180 IEM_DS3505
ZBHH,2010-08-11 08:00,ZBHH 110800Z AUTO 28008KT 5SM 27/18 A2974 RMK T02700180 IEM_DS3505
ZBHH,2010-08-11 09:00,ZBHH 110900Z AUTO 22002KT 12SM 22/18 A2977 RMK SLP030 T02230177 57002 IEM_DS3505
ZBHH,2010-08-11 10:00,ZBHH 111000Z AUTO 07004KT 7SM 25/17 A2974 RMK T02500170 IEM_DS3505
ZBHH,2010-08-11 11:00,ZBHH 111100Z AUTO 03004KT 7SM 24/16 A2974 RMK T02400160 IEM_DS3505
ZBHH,2010-08-11 12:00,ZBHH 111200Z AUTO 02002KT 9SM 23/16 A2977 RMK 60002 SLP023 T02280156 57002 IEM_DS3505
ZBHH,2010-08-11 13:00,ZBHH 111300Z AUTO 07004KT 7SM 21/16 A2977 RMK T02100160 IEM_DS3505
ZBHH,2010-08-11 14:00,ZBHH 111400Z AUTO 04004KT 7SM 21/16 A2977 RMK T02100160 IEM_DS3505
ZBHH,2010-08-11 15:00,ZBHH 111500Z AUTO 32002KT 12SM 20/16 A2980 RMK SLP036 T02000162 52010 IEM_DS3505
ZBHH,2010-08-11 16:00,ZBHH 111600Z AUTO 08004KT 7SM 19/16 A2980 RMK T01900160 IEM_DS3505
ZBHH,2010-08-11 17:00,ZBHH 111700Z AUTO 05004KT 7SM 19/16 A2980 RMK T01900160 IEM_DS3505
ZBHH,2010-08-11 18:00,ZBHH 111800Z AUTO 04002KT 16SM 19/15 A2980 RMK SLP039 T01890154 52004 IEM_DS3505
ZBHH,2010-08-11 19:00,ZBHH 111900Z AUTO 01004KT 7SM 18/16 A2980 RMK T01800160 IEM_DS3505
ZBHH,2010-08-11 20:00,ZBHH 112000Z AUTO 06002KT 4SM 18/16 A2980 RMK T01800160 IEM_DS3505
ZBHH,2010-08-11 21:00,ZBHH 112100Z AUTO 00000KT 16SM 18/15 A2980 RMK 70002 SLP050 T01780152 52001 IEM_DS3505
ZBHH,2010-08-11 22:00,ZBHH 112200Z AUTO 08006KT 3SM 17/15 A2980 RMK T01700150 IEM_DS3505
ZBHH,2010-08-11 23:00,ZBHH 112300Z AUTO 07004KT 2 1/2SM 18/16 A2980 RMK T01800160 IEM_DS3505
ZBHH,2010-08-12 00:00,ZBHH 120000Z AUTO 00000KT 9SM 21/16 A2983 RMK 70002 SLP047 T02140159 52005 IEM_DS3505
ZBHH,2010-08-12 01:00,ZBHH 120100Z AUTO 28002KT 3SM 22/18 A2980 RMK T02200180 IEM_DS3505
ZBHH,2010-08-12 02:00,ZBHH 120200Z AUTO 09006KT 2 1/2SM 22/19 A2980 RMK T02200190 IEM_DS3505
ZBHH,2010-08-12 03:00,ZBHH 120300Z AUTO 14004KT 7SM 25/18 A2977 RMK SLP035 T02500182 57009 IEM_DS3505
ZBHH,2010-08-12 04:00,ZBHH 120400Z AUTO 25004KT 6SM 26/17 A2977 RMK T02600170 IEM_DS3505
ZBHH,2010-08-12 05:00,ZBHH 120500Z AUTO 25004KT 6SM 28/17 A2977 RMK T02800170 IEM_DS3505
ZBHH,2010-08-12 06:00,ZBHH 120600Z AUTO 22004KT 9SM 28/18 A2974 RMK SLP014 T02840182 57014 IEM_DS3505
ZBHH,2010-08-12 07:00,ZBHH 120700Z AUTO 23010KT 5SM 28/20 A2974 RMK T02800200 IEM_DS3505
ZBHH,2010-08-12 08:00,ZBHH 120800Z AUTO 24012KT 4SM 28/20 A2974 RMK T02800200 IEM_DS3505
ZBHH,2010-08-12 09:00,ZBHH 120900Z AUTO 20006KT 7SM 26/16 A2974 RMK SLP016 T02590156 57005 IEM_DS3505
ZBHH,2010-08-12 10:00,ZBHH 121000Z AUTO 00000KT 7SM 25/17 A2971 RMK T02500170 IEM_DS3505
ZBHH,2010-08-12 11:00,ZBHH 121100Z AUTO 24004KT 7SM 24/18 A2974 RMK T02400180 IEM_DS3505
ZBHH,2010-08-12 12:00,ZBHH 121200Z AUTO 22004KT 7SM 25/17 A2974 RMK SLP012 T02480173 52001 IEM_DS3505
ZBHH,2010-08-12 13:00,ZBHH 121300Z AUTO 16004KT 7SM 23/19 A2977 RMK T02300190 IEM_DS3505
ZBHH,2010-08-12 14:00,ZBHH 121400Z AUTO 22004KT 7SM 22/18 A2977 RMK T02200180 IEM_DS3505
ZBHH,2010-08-12 15:00,ZBHH 121500Z AUTO 18004KT 19SM 23/15 A2977 RMK SLP023 T02260147 52012 IEM_DS3505
ZBHH,2010-08-12 16:00,ZBHH 121600Z AUTO 18004KT 7SM 20/16 A2977 RMK T02000160 IEM_DS3505
ZBHH,2010-08-12 17:00,ZBHH 121700Z AUTO 10004KT 7SM 18/14 A2977 RMK T01800140 IEM_DS3505
ZBHH,2010-08-12 18:00,ZBHH 121800Z AUTO 04004KT 19SM 19/15 A2980 RMK SLP025 T01930150 52002 IEM_DS3505
ZBHH,2010-08-12 19:00,ZBHH 121900Z AUTO 04004KT 7SM 16/11 A2980 RMK T01600110 IEM_DS3505
ZBHH,2010-08-12 20:00,ZBHH 122000Z AUTO 06006KT 7SM 15/12 A2980 RMK T01500120 IEM_DS3505
ZBHH,2010-08-12 21:00,ZBHH 122100Z AUTO 04002KT 19SM 16/10 A2980 RMK SLP044 T01620105 52007 IEM_DS3505
ZBHH,2010-08-12 22:00,ZBHH 122200Z AUTO 05004KT 6SM 13/10 A2980 RMK T01300100 IEM_DS3505
ZBHH,2010-08-12 23:00,ZBHH 122300Z AUTO 07002KT 5SM 17/11 A2983 RMK T01700110 IEM_DS3505
ZBHH,2010-08-13 00:00,ZBHH 130000Z AUTO 07004KT 12SM 20/08 A2983 RMK SLP044 T02010078 52005 IEM_DS3505
ZBHH,2010-08-13 01:00,ZBHH 130100Z AUTO 33002KT 5SM 22/09 A2980 RMK T02200090 IEM_DS3505
ZBHH,2010-08-13 02:00,ZBHH 130200Z AUTO 23002KT 5SM 24/07 A2980 RMK T02400070 IEM_DS3505
ZBHH,2010-08-13 03:00,ZBHH 130300Z AUTO 02002KT 7SM 24/06 A2977 RMK SLP031 T02400063 57009 IEM_DS3505
ZBHH,2010-08-13 04:00,ZBHH 130400Z AUTO 26006KT 4SM 25/08 A2977 RMK T02500080 IEM_DS3505
ZBHH,2010-08-13 05:00,ZBHH 130500Z AUTO 26006KT 5SM 25/08 A2977 RMK T02500080 IEM_DS3505
ZBHH,2010-08-13 06:00,ZBHH 130600Z AUTO 25006KT 12SM 26/04 A2974 RMK SLP021 T02610040 57011 IEM_DS3505
ZBHH,2010-08-13 07:00,ZBHH 130700Z AUTO 20006KT 6SM 26/10 A2974 RMK T02600100 IEM_DS3505
ZBHH,2010-08-13 08:00,ZBHH 130800Z AUTO 20006KT 6SM 26/09 A2971 RMK T02600090 IEM_DS3505
ZBHH,2010-08-13 09:00,ZBHH 130900Z AUTO 25006KT 16SM 28/07 A2971 RMK SLP008 T02770070 57014 IEM_DS3505
ZBHH,2010-08-13 10:00,ZBHH 131000Z AUTO 21010KT 6SM 26/09 A2968 RMK T02600090 IEM_DS3505
ZBHH,2010-08-13 11:00,ZBHH 131100Z AUTO 21006KT 6SM 24/11 A2968 RMK T02400110 IEM_DS3505
ZBHH,2010-08-13 12:00,ZBHH 131200Z AUTO 22004KT 16SM 24/05 A2971 RMK SLP006 T02450053 54000 IEM_DS3505
ZBHH,2010-08-13 13:00,ZBHH 131300Z AUTO 02002KT 6SM 20/12 A2974 RMK T02000120 IEM_DS3505
ZBHH,2010-08-13 14:00,ZBHH 131400Z AUTO 30014KT 6SM 23/ A2974 RMK IEM_DS3505
ZBHH,2010-08-13 15:00,ZBHH 131500Z AUTO 29004KT 19SM 22/M02 A2974 RMK SLP018 T02221018 52013 IEM_DS3505
ZBHH,2010-08-13 16:00,ZBHH 131600Z AUTO 30010KT 4SM 22/M01 A2977 RMK T02201010 IEM_DS3505
ZBHH,2010-08-13 17:00,ZBHH 131700Z AUTO 28006KT 4SM 20/M01 A2977 RMK T02001010 IEM_DS3505
ZBHH,2010-08-13 18:00,ZBHH 131800Z AUTO 25002KT 12SM 20/ A2977 RMK SLP023 52005 IEM_DS3505
ZBHH,2010-08-13 19:00,ZBHH 131900Z AUTO 20004KT 6SM 13/06 A2977 RMK T01300060 IEM_DS3505
ZBHH,2010-08-13 20:00,ZBHH 132000Z AUTO 17004KT 7SM 12/08 A2977 RMK T01200080 IEM_DS3505
ZBHH,2010-08-13 21:00,ZBHH 132100Z AUTO 11002KT 19SM 14/05 A2980 RMK SLP039 T01440050 52006 IEM_DS3505
ZBHH,2010-08-13 22:00,ZBHH 132200Z AUTO 15004KT 5SM 11/07 A2980 RMK T01100070 IEM_DS3505
ZBHH,2010-08-13 23:00,ZBHH 132300Z AUTO 17002KT 4SM 13/08 A2980 RMK T01300080 IEM_DS3505
ZBHH,2010-08-14 00:00,ZBHH 140000Z AUTO 22002KT 19SM 19/01 A2980 RMK SLP043 T01910011 52007 IEM_DS3505
ZBHH,2010-08-14 01:00,ZBHH 140100Z AUTO 20006KT 3SM 17/08 A2980 RMK T01700080 IEM_DS3505
ZBHH,2010-08-14 02:00,ZBHH 140200Z AUTO 22002KT 5SM 20/06 A2983 RMK T02000060 IEM_DS3505
ZBHH,2010-08-14 03:00,ZBHH 140300Z AUTO 32008KT 19SM 21/05 A2983 RMK SLP053 T02100046 52008 IEM_DS3505
ZBHH,2010-08-14 04:00,ZBHH 140400Z AUTO 31016KT 7SM 21/07 A2983 RMK T02100070 IEM_DS3505
ZBHH,2010-08-14 05:00,ZBHH 140500Z AUTO 30012KT 7SM 22/07 A2983 RMK T02200070 IEM_DS3505
ZBHH,2010-08-14 06:00,ZBHH 140600Z AUTO 32008KT 19SM 23/05 A2983 RMK SLP058 T02280053 52004 IEM_DS3505
ZBHH,2010-08-14 07:00,ZBHH 140700Z AUTO 32010KT 7SM 23/07 A2983 RMK T02300070 IEM_DS3505
ZBHH,2010-08-14 08:00,ZBHH 140800Z AUTO 32014KT 7SM 23/07 A2983 RMK T02300070 IEM_DS3505
ZBHH,2010-08-14 09:00,ZBHH 140900Z AUTO 32012KT 19SM 22/06 A2985 RMK SLP078 T02190062 52005 IEM_DS3505
ZBHH,2010-08-14 10:00,ZBHH 141000Z AUTO 34010KT 7SM 22/08 A2985 RMK T02200080 IEM_DS3505
ZBHH,2010-08-14 11:00,ZBHH 141100Z AUTO 32010KT 7SM 22/08 A2985 RMK T02200080 IEM_DS3505
ZBHH,2010-08-14 12:00,ZBHH 141200Z AUTO 27002KT 19SM 20/07 A2988 RMK SLP077 T02040074 52005 IEM_DS3505
ZBHH,2010-08-14 13:00,ZBHH 141300Z AUTO 28006KT 7SM 20/09 A2988 RMK T02000090 IEM_DS3505
ZBHH,2010-08-14 14:00,ZBHH 141400Z AUTO 35004KT 7SM 19/09 A2988 RMK T01900090 IEM_DS3505
ZBHH,2010-08-14 15:00,ZBHH 141500Z AUTO 25002KT 19SM 18/08 A2988 RMK SLP086 T01790085 52007 IEM_DS3505
ZBHH,2010-08-14 16:00,ZBHH 141600Z AUTO 13002KT 6SM 14/10 A2991 RMK T01400100 IEM_DS3505
ZBHH,2010-08-14 17:00,ZBHH 141700Z AUTO 08004KT 6SM 13/10 A2991 RMK T01300100 IEM_DS3505
ZBHH,2010-08-14 18:00,ZBHH 141800Z AUTO 04002KT 19SM 16/09 A2991 RMK SLP093 T01590089 52006 IEM_DS3505
ZBHH,2010-08-14 19:00,ZBHH 141900Z AUTO 08002KT 6SM 14/10 A2991 RMK T01400100 IEM_DS3505
ZBHH,2010-08-14 20:00,ZBHH 142000Z AUTO 09002KT 6SM 13/10 A2991 RMK T01300100 IEM_DS3505
ZBHH,2010-08-14 21:00,ZBHH 142100Z AUTO 07002KT 19SM 14/09 A2994 RMK SLP106 T01420094 52006 IEM_DS3505
ZBHH,2010-08-14 22:00,ZBHH 142200Z AUTO 07004KT 6SM 11/09 A2994 RMK T01100090 IEM_DS3505
ZBHH,2010-08-14 23:00,ZBHH 142300Z AUTO 09004KT 6SM 14/11 A2994 RMK T01400110 IEM_DS3505
ZBHH,2010-08-15 00:00,ZBHH 150000Z AUTO 04004KT 19SM 17/10 A2997 RMK SLP114 T01730100 52010 IEM_DS3505
ZBHH,2010-08-15 01:00,ZBHH 150100Z AUTO 18002KT 6SM 19/12 A2997 RMK T01900120 IEM_DS3505
ZBHH,2010-08-15 02:00,ZBHH 150200Z AUTO 20002KT 7SM 20/12 A2997 RMK T02000120 IEM_DS3505
ZBHH,2010-08-15 03:00,ZBHH 150300Z AUTO 22004KT 12SM 23/10 A2994 RMK SLP102 T02260101 57005 IEM_DS3505
ZBHH,2010-08-15 04:00,ZBHH 150400Z AUTO 23008KT 7SM 23/11 A2991 RMK T02300110 IEM_DS3505
ZBHH,2010-08-15 05:00,ZBHH 150500Z AUTO 24008KT 7SM 24/10 A2991 RMK T02400100 IEM_DS3505
ZBHH,2010-08-15 06:00,ZBHH 150600Z AUTO 20008KT 19SM 25/08 A2991 RMK SLP082 T02530079 57016 IEM_DS3505
ZBHH,2010-08-15 07:00,ZBHH 150700Z AUTO 23006KT 7SM 26/09 A2988 RMK T02600090 IEM_DS3505
ZBHH,2010-08-15 08:00,ZBHH 150800Z AUTO 23010KT 7SM 27/10 A2988 RMK T02700100 IEM_DS3505
ZBHH,2010-08-15 09:00,ZBHH 150900Z AUTO 22006KT 16SM 27/07 A2988 RMK SLP072 T02690074 57009 IEM_DS3505
ZBHH,2010-08-15 10:00,ZBHH 151000Z AUTO 21008KT 7SM 24/12 A2985 RMK T02400120 IEM_DS3505
ZBHH,2010-08-15 11:00,ZBHH 151100Z AUTO 21006KT 7SM 23/12 A2985 RMK T02300120 IEM_DS3505
ZBHH,2010-08-15 12:00,ZBHH 151200Z AUTO 22002KT 16SM 24/08 A2988 RMK SLP075 T02370082 52002 IEM_DS3505
ZBHH,2010-08-15 13:00,ZBHH 151300Z AUTO 05006KT 7SM 20/11 A2988 RMK T02000110 IEM_DS3505
ZBHH,2010-08-15 14:00,ZBHH 151400Z AUTO 05006KT 7SM 20/10 A2991 RMK T02000100 IEM_DS3505
ZBHH,2010-08-15 15:00,ZBHH 151500Z AUTO 11002KT 19SM 20/09 A2991 RMK SLP084 T01950094 52010 IEM_DS3505
ZBHH,2010-08-15 16:00,ZBHH 151600Z AUTO 07006KT 6SM 17/11 A2991 RMK T01700110 IEM_DS3505
ZBHH,2010-08-15 17:00,ZBHH 151700Z AUTO 07002KT 6SM 16/10 A2991 RMK T01600100 IEM_DS3505
ZBHH,2010-08-15 18:00,ZBHH 151800Z AUTO 29002KT 19SM 16/09 A2991 RMK SLP086 T01640091 52001 IEM_DS3505
ZBHH,2010-08-15 19:00,ZBHH 151900Z AUTO 04002KT 6SM 15/10 A2991 RMK T01500100 IEM_DS3505
ZBHH,2010-08-15 20:00,ZBHH 152000Z AUTO 05004KT 6SM 15/10 A2994 RMK T01500100 IEM_DS3505
ZBHH,2010-08-15 21:00,ZBHH 152100Z AUTO 09002KT 19SM 16/09 A2994 RMK SLP090 T01610088 52006 IEM_DS3505
ZBHH,2010-08-15 22:00,ZBHH 152200Z AUTO 07004KT 6SM 14/10 A2994 RMK T01400100 IEM_DS3505
ZBHH,2010-08-15 23:00,ZBHH 152300Z AUTO 05004KT 6SM 16/10 A2994 RMK T01600100 IEM_DS3505
ZBHH,2010-08-16 00:00,ZBHH 160000Z AUTO 18002KT 19SM 20/09 A2994 RMK SLP096 T02040090 52007 IEM_DS3505
ZBHH,2010-08-16 01:00,ZBHH 160100Z AUTO 13002KT 7SM 22/11 A2994 RMK T02200110 IEM_DS3505
ZBHH,2010-08-16 02:00,ZBHH 160200Z AUTO 20002KT 7SM 24/11 A2994 RMK T02400110 IEM_DS3505
ZBHH,2010-08-16 03:00,ZBHH 160300Z AUTO 20004KT 19SM 25/08 A2994 RMK SLP086 T02530079 57007 IEM_DS3505
ZBHH,2010-08-16 04:00,ZBHH 160400Z AUTO 22006KT 7SM 26/11 A2991 RMK T02600110 IEM_DS3505
ZBHH,2010-08-16 05:00,ZBHH 160500Z AUTO 26010KT 7SM 27/09 A2988 RMK T02700090 IEM_DS3505
ZBHH,2010-08-16 06:00,ZBHH 160600Z AUTO 22006KT 19SM 28/07 A2988 RMK SLP067 T02780066 57018 IEM_DS3505
ZBHH,2010-08-16 07:00,ZBHH 160700Z AUTO 22006KT 7SM 28/07 A2985 RMK T02800070 IEM_DS3505
ZBHH,2010-08-16 08:00,ZBHH 160800Z AUTO 21008KT 7SM 28/07 A2985 RMK T02800070 IEM_DS3505
ZBHH,2010-08-16 09:00,ZBHH 160900Z AUTO 25006KT 19SM 29/06 A2983 RMK SLP051 T02870055 57013 IEM_DS3505
ZBHH,2010-08-16 10:00,ZBHH 161000Z AUTO 21006KT 7SM 27/09 A2983 RMK T02700090 IEM_DS3505
ZBHH,2010-08-16 11:00,ZBHH 161100Z AUTO 18006KT 7SM 25/12 A2983 RMK T02500120 IEM_DS3505
ZBHH,2010-08-16 12:00,ZBHH 161200Z AUTO 00000KT 19SM 24/07 A2983 RMK SLP050 T02430070 57001 IEM_DS3505
ZBHH,2010-08-16 13:00,ZBHH 161300Z AUTO 09004KT 6SM 21/12 A2985 RMK T02100120 IEM_DS3505
ZBHH,2010-08-16 14:00,ZBHH 161400Z AUTO 03006KT 6SM 22/10 A2985 RMK T02200100 IEM_DS3505
ZBHH,2010-08-16 15:00,ZBHH 161500Z AUTO 04002KT 19SM 23/09 A2985 RMK SLP054 T02260091 52009 IEM_DS3505
ZBHH,2010-08-16 16:00,ZBHH 161600Z AUTO 04004KT 7SM 20/11 A2985 RMK T02000110 IEM_DS3505
ZBHH,2010-08-16 17:00,ZBHH 161700Z AUTO 06006KT 7SM 22/09 A2985 RMK T02200090 IEM_DS3505
ZBHH,2010-08-16 18:00,ZBHH 161800Z AUTO 25008KT 19SM 19/13 A2988 RMK 60002 SLP070 T01930128 52013 IEM_DS3505
ZBHH,2010-08-16 19:00,ZBHH 161900Z AUTO 20016KT 5SM 16/14 A2988 RMK T01600140 IEM_DS3505
ZBHH,2010-08-16 20:00,ZBHH 162000Z AUTO 07004KT 7SM 17/14 A2988 RMK T01700140 IEM_DS3505
ZBHH,2010-08-16 21:00,ZBHH 162100Z AUTO 07004KT 19SM 17/13 A2988 RMK 70016 SLP065 T01710128 57007 IEM_DS3505
ZBHH,2010-08-16 22:00,ZBHH 162200Z AUTO 35004KT 7SM 17/14 A2988 RMK T01700140 IEM_DS3505
ZBHH,2010-08-16 23:00,ZBHH 162300Z AUTO 29002KT 7SM 17/14 A2991 RMK T01700140 IEM_DS3505
ZBHH,2010-08-17 00:00,ZBHH 170000Z AUTO 34002KT 9SM 18/13 A2991 RMK 60016 70016 SLP085 T01850127 52012 IEM_DS3505
ZBHH,2010-08-17 01:00,ZBHH 170100Z AUTO 07002KT 7SM 20/14 A2988 RMK T02000140 IEM_DS3505
ZBHH,2010-08-17 02:00,ZBHH 170200Z AUTO 14002KT 7SM 22/14 A2988 RMK T02200140 IEM_DS3505
ZBHH,2010-08-17 03:00,ZBHH 170300Z AUTO 22004KT 9SM 22/14 A2985 RMK SLP062 T02220138 57016 IEM_DS3505
ZBHH,2010-08-17 04:00,ZBHH 170400Z AUTO 19002KT 7SM 24/15 A2985 RMK T02400150 IEM_DS3505
ZBHH,2010-08-17 05:00,ZBHH 170500Z AUTO 23008KT 7SM 26/15 A2983 RMK T02600150 IEM_DS3505
ZBHH,2010-08-17 06:00,ZBHH 170600Z AUTO 22006KT 12SM 27/13 A2980 RMK 60000 SLP036 T02690133 57021 IEM_DS3505
ZBHH,2010-08-17 07:00,ZBHH 170700Z AUTO 22010KT 7SM 28/15 A2977 RMK T02800150 IEM_DS3505
ZBHH,2010-08-17 08:00,ZBHH 170800Z AUTO 22008KT 7SM 27/16 A2977 RMK T02700160 IEM_DS3505
ZBHH,2010-08-17 09:00,ZBHH 170900Z AUTO 25014KT 12SM 24/11 A2977 RMK SLP052 T02360113 52004 IEM_DS3505
ZBHH,2010-08-17 10:00,ZBHH 171000Z AUTO 27014KT 7SM 23/12 A2980 RMK T02300120 IEM_DS3505
ZBHH,2010-08-17 11:00,ZBHH 171100Z AUTO 24008KT 7SM 22/13 A2983 RMK T02200130 IEM_DS3505
ZBHH,2010-08-17 12:00,ZBHH 171200Z AUTO 27004KT 12SM 22/11 A2983 RMK SLP063 T02170108 52009 IEM_DS3505
ZBHH,2010-08-17 13:00,ZBHH 171300Z AUTO 14004KT 6SM 19/14 A2985 RMK T01900140 IEM_DS3505
ZBHH,2010-08-17 14:00,ZBHH 171400Z AUTO 15002KT 6SM 18/14 A2985 RMK T01800140 IEM_DS3505
ZBHH,2010-08-17 15:00,ZBHH 171500Z AUTO 07002KT 12SM 20/13 A2988 RMK SLP071 T02010128 52011 IEM_DS3505
ZBHH,2010-08-17 16:00,ZBHH 171600Z AUTO 03002KT 6SM 19/14 A2988 RMK T01900140 IEM_DS3505
ZBHH,2010-08-17 17:00,ZBHH 171700Z AUTO 04004KT 6SM 18/14 A2985 RMK T01800140 IEM_DS3505
ZBHH,2010-08-17 18:00,ZBHH 171800Z AUTO 09002KT 12SM 19/12 A2985 RMK SLP061 T01920125 57002 IEM_DS3505
ZBHH,2010-08-17 19:00,ZBHH 171900Z AUTO 04006KT 6SM 17/14 A2985 RMK T01700140 IEM_DS3505
ZBHH,2010-08-17 20:00,ZBHH 172000Z AUTO 06004KT 6SM 17/14 A2985 RMK T01700140 IEM_DS3505
ZBHH,2010-08-17 21:00,ZBHH 172100Z AUTO 09004KT 12SM 19/12 A2988 RMK 70000 SLP070 T01920125 52002 IEM_DS3505
ZBHH,2010-08-17 22:00,ZBHH 172200Z AUTO 21006G16KT 7SM 18/15 A2991 RMK T01800150 IEM_DS3505
ZBHH,2010-08-17 23:00,ZBHH 172300Z AUTO 16006KT 3SM 18/16 A2994 RMK T01800160 IEM_DS3505
ZBHH,2010-08-18 00:00,ZBHH 180000Z AUTO 16002KT 9SM 18/16 A2997 RMK 60008 70009 SLP109 T01790157 52029 IEM_DS3505
ZBHH,2010-08-18 01:00,ZBHH 180100Z AUTO 08004KT 2 1/2SM 18/17 A2997 RMK T01800170 IEM_DS3505
ZBHH,2010-08-18 02:00,ZBHH 180200Z AUTO 05006KT 5SM 18/16 A2994 RMK T01800160 IEM_DS3505
ZBHH,2010-08-18 03:00,ZBHH 180300Z AUTO 27002KT 12SM 20/16 A2994 RMK SLP101 T01990155 57007 IEM_DS3505
ZBHH,2010-08-18 04:00,ZBHH 180400Z AUTO 18004KT 7SM 21/15 A2991 RMK T02100150 IEM_DS3505
ZBHH,2010-08-18 05:00,ZBHH 180500Z AUTO 23006KT 7SM 23/16 A2991 RMK T02300160 IEM_DS3505
ZBHH,2010-08-18 06:00,ZBHH 180600Z AUTO 20004KT 14SM 23/14 A2988 RMK 60008 SLP075 T02340144 57018 IEM_DS3505
ZBHH,2010-08-18 07:00,ZBHH 180700Z AUTO 22006KT 7SM 24/15 A2988 RMK T02400150 IEM_DS3505
ZBHH,2010-08-18 08:00,ZBHH 180800Z AUTO 24006KT 7SM 25/16 A2985 RMK T02500160 IEM_DS3505
ZBHH,2010-08-18 09:00,ZBHH 180900Z AUTO 20006KT 14SM 24/14 A2988 RMK SLP067 T02400135 57006 IEM_DS3505
ZBHH,2010-08-18 10:00,ZBHH 181000Z AUTO 20006KT 7SM 24/15 A2985 RMK T02400150 IEM_DS3505
ZBHH,2010-08-18 11:00,ZBHH 181100Z AUTO 17008KT 7SM 22/16 A2988 RMK T02200160 IEM_DS3505
ZBHH,2010-08-18 12:00,ZBHH 181200Z AUTO 22004KT 19SM 23/15 A2988 RMK SLP077 T02270148 52004 IEM_DS3505
ZBHH,2010-08-18 13:00,ZBHH 181300Z AUTO 18006KT 7SM 20/17 A2991 RMK T02000170 IEM_DS3505
ZBHH,2010-08-18 14:00,ZBHH 181400Z AUTO 10002KT 4SM 19/16 A2991 RMK T01900160 IEM_DS3505
ZBHH,2010-08-18 15:00,ZBHH 181500Z AUTO 29002KT 19SM 19/12 A2994 RMK SLP097 T01880125 52014 IEM_DS3505
ZBHH,2010-08-18 16:00,ZBHH 181600Z AUTO 15006KT 4SM 17/15 A2994 RMK T01700150 IEM_DS3505
ZBHH,2010-08-18 17:00,ZBHH 181700Z AUTO 00000KT 5SM 17/15 A2994 RMK T01700150 IEM_DS3505
ZBHH,2010-08-18 18:00,ZBHH 181800Z AUTO 25002KT 19SM 17/12 A2994 RMK SLP104 T01740125 52010 IEM_DS3505
ZBHH,2010-08-18 19:00,ZBHH 181900Z AUTO 12004KT 3SM 16/14 A2997 RMK T01600140 IEM_DS3505
ZBHH,2010-08-18 20:00,ZBHH 182000Z AUTO 05004KT 3SM 15/14 A2997 RMK T01500140 IEM_DS3505
ZBHH,2010-08-18 21:00,ZBHH 182100Z AUTO 04002KT 19SM 16/14 A2997 RMK 70017 SLP114 T01650136 52009 IEM_DS3505
ZBHH,2010-08-18 22:00,ZBHH 182200Z AUTO 04004KT 3SM 15/13 A3000 RMK T01500130 IEM_DS3505
ZBHH,2010-08-18 23:00,ZBHH 182300Z AUTO 05004KT 3SM 16/14 A3003 RMK T01600140 IEM_DS3505
ZBHH,2010-08-19 00:00,ZBHH 190000Z AUTO 25002KT 19SM 18/10 A3006 RMK 70008 SLP136 T01830104 52020 IEM_DS3505
ZBHH,2010-08-19 01:00,ZBHH 190100Z AUTO 10002KT 4SM 20/15 A3006 RMK T02000150 IEM_DS3505
ZBHH,2010-08-19 02:00,ZBHH 190200Z AUTO 11004KT 4SM 21/15 A3006 RMK T02100150 IEM_DS3505
ZBHH,2010-08-19 03:00,ZBHH 190300Z AUTO 36004KT 12SM 24/07 A3006 RMK SLP135 T02380070 52002 IEM_DS3505
ZBHH,2010-08-19 04:00,ZBHH 190400Z AUTO 16002KT 7SM 24/13 A3006 RMK T02400130 IEM_DS3505
ZBHH,2010-08-19 05:00,ZBHH 190500Z AUTO 23006KT 7SM 24/12 A3003 RMK T02400120 IEM_DS3505
ZBHH,2010-08-19 06:00,ZBHH 190600Z AUTO 22006KT 12SM 26/09 A3003 RMK SLP118 T02600089 57013 IEM_DS3505
ZBHH,2010-08-19 07:00,ZBHH 190700Z AUTO 21004KT 7SM 26/09 A3000 RMK T02600090 IEM_DS3505
ZBHH,2010-08-19 08:00,ZBHH 190800Z AUTO 20006KT 7SM 27/09 A3000 RMK T02700090 IEM_DS3505
ZBHH,2010-08-19 09:00,ZBHH 190900Z AUTO 22006KT 16SM 27/09 A3000 RMK SLP117 T02660086 57002 IEM_DS3505
ZBHH,2010-08-19 10:00,ZBHH 191000Z AUTO 22006KT 6SM 26/10 A3000 RMK T02600100 IEM_DS3505
ZBHH,2010-08-19 11:00,ZBHH 191100Z AUTO 16004KT 6SM 24/13 A3000 RMK T02400130 IEM_DS3505
ZBHH,2010-08-19 12:00,ZBHH 191200Z AUTO 25002KT 16SM 24/12 A3003 RMK SLP120 T02380118 52001 IEM_DS3505
ZBHH,2010-08-19 13:00,ZBHH 191300Z AUTO 04006KT 7SM 20/12 A3003 RMK T02000120 IEM_DS3505
ZBHH,2010-08-19 14:00,ZBHH 191400Z AUTO 07006KT 6SM 18/11 A3003 RMK T01800110 IEM_DS3505
ZBHH,2010-08-19 15:00,ZBHH 191500Z AUTO 07002KT 19SM 21/11 A3006 RMK SLP128 T02060110 52011 IEM_DS3505
ZBHH,2010-08-19 16:00,ZBHH 191600Z AUTO 05004KT 7SM 19/11 A3006 RMK T01900110 IEM_DS3505
ZBHH,2010-08-19 17:00,ZBHH 191700Z 04001MPS 9999 FEW050 19/11 Q1018 NOSIG
ZBHH,2010-08-19 18:00,ZBHH 191800Z AUTO 07002KT 19SM 18/12 A3009 RMK SLP138 T01820118 52009 IEM_DS3505
ZBHH,2010-08-19 20:00,ZBHH 192000Z AUTO 05006KT 7SM 17/09 A3006 RMK T01700090 IEM_DS3505
ZBHH,2010-08-19 21:00,ZBHH 192100Z AUTO 00000KT 19SM 17/12 A3009 RMK SLP138 T01720115 57001 IEM_DS3505
ZBHH,2010-08-19 22:00,ZBHH 192200Z AUTO 07004KT 7SM 16/10 A3009 RMK T01600100 IEM_DS3505
ZBHH,2010-08-19 23:00,ZBHH 192300Z AUTO 06004KT 7SM 17/10 A3009 RMK T01700100 IEM_DS3505
ZBHH,2010-08-20 00:00,ZBHH 200000Z AUTO 09002KT 12SM 21/10 A3009 RMK SLP147 T02080103 52009 IEM_DS3505
ZBHH,2010-08-20 01:00,ZBHH 200100Z AUTO 13002KT 6SM 23/12 A3009 RMK T02300120 IEM_DS3505
ZBHH,2010-08-20 02:00,ZBHH 200200Z AUTO 21002KT 6SM 24/15 A3009 RMK T02400150 IEM_DS3505
ZBHH,2010-08-20 03:00,ZBHH 200300Z AUTO 22004KT 12SM 25/14 A3009 RMK SLP137 T02540136 57006 IEM_DS3505
ZBHH,2010-08-20 04:00,ZBHH 200400Z AUTO 19004KT 7SM 26/15 A3006 RMK T02600150 IEM_DS3505
ZBHH,2010-08-20 05:00,ZBHH 200500Z AUTO 19008KT 7SM 27/14 A3006 RMK T02700140 IEM_DS3505
ZBHH,2010-08-20 06:00,ZBHH 200600Z AUTO 20004KT 9SM 28/11 A3003 RMK SLP114 T02830110 57019 IEM_DS3505
ZBHH,2010-08-20 07:00,ZBHH 200700Z AUTO 22008KT 7SM 28/10 A3000 RMK T02800100 IEM_DS3505
ZBHH,2010-08-20 08:00,ZBHH 200800Z AUTO 20006KT 7SM 27/12 A3000 RMK T02700120 IEM_DS3505
ZBHH,2010-08-20 09:00,ZBHH 200900Z AUTO 27002KT 9SM 27/10 A3000 RMK SLP108 T02730096 57009 IEM_DS3505
ZBHH,2010-08-20 10:00,ZBHH 201000Z AUTO 36014KT 7SM 25/09 A3000 RMK T02500090 IEM_DS3505
ZBHH,2010-08-20 11:00,ZBHH 201100Z AUTO 36012KT 7SM 24/09 A3000 RMK T02400090 IEM_DS3505
ZBHH,2010-08-20 12:00,ZBHH 201200Z AUTO 32002KT 12SM 24/05 A3003 RMK SLP117 T02380052 52008 IEM_DS3505
ZBHH,2010-08-20 13:00,ZBHH 201300Z AUTO 05006KT 7SM 23/07 A3003 RMK T02300070 IEM_DS3505
ZBHH,2010-08-20 14:00,ZBHH 201400Z AUTO 13006KT 7SM 19/12 A3006 RMK T01900120 IEM_DS3505
ZBHH,2010-08-20 15:00,ZBHH 201500Z AUTO 36004KT 16SM 23/05 A3006 RMK SLP120 T02290053 52009 IEM_DS3505
ZBHH,2010-08-20 16:00,ZBHH 201600Z AUTO 08006KT 7SM 20/12 A3003 RMK T02000120 IEM_DS3505
ZBHH,2010-08-20 17:00,ZBHH 201700Z AUTO 31004KT 7SM 19/15 A3003 RMK T01900150 IEM_DS3505
ZBHH,2010-08-20 18:00,ZBHH 201800Z AUTO 32008G29KT 12SM 18/09 A3003 RMK 60000 SLP118 T01850093 57004 IEM_DS3505
ZBHH,2010-08-20 19:00,ZBHH 201900Z AUTO 36017G27KT 7SM 17/11 A3003 RMK T01700110 IEM_DS3505
ZBHH,2010-08-20 20:00,ZBHH 202000Z AUTO 01014KT 7SM 16/11 A3003 RMK T01600110 IEM_DS3505
ZBHH,2010-08-20 21:00,ZBHH 202100Z AUTO 25002KT 9SM 16/11 A3006 RMK 70002 SLP132 T01610113 52006 IEM_DS3505
ZBHH,2010-08-20 22:00,ZBHH 202200Z AUTO 03002KT 7SM 15/12 A3006 RMK T01500120 IEM_DS3505
ZBHH,2010-08-20 23:00,ZBHH 202300Z AUTO 13004KT 7SM 15/13 A3006 RMK T01500130 IEM_DS3505
ZBHH,2010-08-21 00:00,ZBHH 210000Z AUTO 04002KT 7SM 16/12 A3006 RMK 60012 70010 SLP146 T01560120 52005 IEM_DS3505
ZBHH,2010-08-21 01:00,ZBHH 210100Z AUTO 00000KT 7SM 16/13 A3006 RMK T01600130 IEM_DS3505
ZBHH,2010-08-21 02:00,ZBHH 210200Z AUTO 18004KT 7SM 16/13 A3006 RMK T01600130 IEM_DS3505
ZBHH,2010-08-21 03:00,ZBHH 210300Z AUTO 09006KT 9SM 17/11 A3009 RMK SLP152 T01680109 52006 IEM_DS3505
ZBHH,2010-08-21 04:00,ZBHH 210400Z AUTO 33004KT 7SM 16/12 A3009 RMK T01600120 IEM_DS3505
ZBHH,2010-08-21 05:00,ZBHH 210500Z AUTO 02008KT 7SM 17/12 A3006 RMK T01700120 IEM_DS3505
ZBHH,2010-08-21 06:00,ZBHH 210600Z AUTO 04006KT 12SM 17/10 A3006 RMK 60000 SLP154 T01720103 57006 IEM_DS3505
ZBHH,2010-08-21 07:00,ZBHH 210700Z AUTO 05006KT 7SM 17/11 A3006 RMK T01700110 IEM_DS3505
ZBHH,2010-08-21 08:00,ZBHH 210800Z AUTO 09008KT 7SM 17/12 A3006 RMK T01700120 IEM_DS3505
ZBHH,2010-08-21 09:00,ZBHH 210900Z AUTO 14004KT 9SM 18/10 A3006 RMK SLP158 T01770103 54000 IEM_DS3505
ZBHH,2010-08-21 10:00,ZBHH 211000Z AUTO 12002KT 7SM 17/12 A3006 RMK T01700120 IEM_DS3505
ZBHH,2010-08-21 11:00,ZBHH 211100Z AUTO 00000KT 7SM 17/12 A3009 RMK T01700120 IEM_DS3505
ZBHH,2010-08-21 12:00,ZBHH 211200Z AUTO 27002KT 19SM 17/11 A3009 RMK SLP169 T01720108 52008 IEM_DS3505
ZBHH,2010-08-21 13:00,ZBHH 211300Z AUTO 32002KT 7SM 15/12 A3009 RMK T01500120 IEM_DS3505
ZBHH,2010-08-21 14:00,ZBHH 211400Z AUTO 36006KT 7SM 15/10 A3009 RMK T01500100 IEM_DS3505
ZBHH,2010-08-21 15:00,ZBHH 211500Z AUTO 32002KT 19SM 15/08 A3009 RMK SLP174 T01510081 52002 IEM_DS3505
ZBHH,2010-08-21 16:00,ZBHH 211600Z AUTO 10004KT 6SM 12/09 A3012 RMK T01200090 IEM_DS3505
ZBHH,2010-08-21 17:00,ZBHH 211700Z AUTO 08002KT 6SM 11/09 A3012 RMK T01100090 IEM_DS3505
ZBHH,2010-08-21 18:00,ZBHH 211800Z AUTO 00000KT 19SM 12/09 A3012 RMK SLP183 T01160086 52002 IEM_DS3505
ZBHH,2010-08-21 19:00,ZBHH 211900Z AUTO 02004KT 6SM 10/08 A3012 RMK T01000080 IEM_DS3505
ZBHH,2010-08-21 20:00,ZBHH 212000Z AUTO 09004KT 6SM 09/07 A3012 RMK T00900070 IEM_DS3505
ZBHH,2010-08-21 21:00,ZBHH 212100Z AUTO 34002KT 19SM 10/08 A3012 RMK 70008 SLP189 T01040085 52004 IEM_DS3505
ZBHH,2010-08-21 22:00,ZBHH 212200Z AUTO 06004KT 6SM 09/07 A3015 RMK T00900070 IEM_DS3505
ZBHH,2010-08-21 23:00,ZBHH 212300Z AUTO 05002KT 6SM 12/08 A3015 RMK T01200080 IEM_DS3505
ZBHH,2010-08-22 00:00,ZBHH 220000Z AUTO 07002KT 19SM 16/09 A3015 RMK 70000 SLP186 T01610086 52008 IEM_DS3505
ZBHH,2010-08-22 01:00,ZBHH 220100Z AUTO 18002KT 6SM 17/10 A3015 RMK T01700100 IEM_DS3505
ZBHH,2010-08-22 02:00,ZBHH 220200Z AUTO 27002KT 6SM 19/10 A3015 RMK T01900100 IEM_DS3505
ZBHH,2010-08-22 03:00,ZBHH 220300Z AUTO 20004KT 19SM 21/09 A3015 RMK SLP178 T02080088 57002 IEM_DS3505
ZBHH,2010-08-22 04:00,ZBHH 220400Z AUTO 19004KT 7SM 22/09 A3012 RMK T02200090 IEM_DS3505
ZBHH,2010-08-22 05:00,ZBHH 220500Z AUTO 21006KT 7SM 23/08 A3009 RMK T02300080 IEM_DS3505
ZBHH,2010-08-22 06:00,ZBHH 220600Z AUTO 16006KT 19SM 24/07 A3009 RMK SLP160 T02360073 57018 IEM_DS3505
ZBHH,2010-08-22 07:00,ZBHH 220700Z AUTO 22006KT 7SM 23/08 A3006 RMK T02300080 IEM_DS3505
ZBHH,2010-08-22 08:00,ZBHH 220800Z AUTO 21008KT 7SM 24/09 A3006 RMK T02400090 IEM_DS3505
ZBHH,2010-08-22 09:00,ZBHH 220900Z AUTO 22006KT 19SM 24/07 A3006 RMK SLP150 T02440071 57009 IEM_DS3505
ZBHH,2010-08-22 10:00,ZBHH 221000Z AUTO 22006KT 7SM 23/09 A3003 RMK T02300090 IEM_DS3505
ZBHH,2010-08-22 11:00,ZBHH 221100Z AUTO 22004KT 7SM 22/11 A3006 RMK T02200110 IEM_DS3505
ZBHH,2010-08-22 12:00,ZBHH 221200Z AUTO 20002KT 16SM 21/08 A3009 RMK SLP153 T02130082 52007 IEM_DS3505
ZBHH,2010-08-22 13:00,ZBHH 221300Z AUTO 04006KT 6SM 18/08 A3009 RMK T01800080 IEM_DS3505
ZBHH,2010-08-22 14:00,ZBHH 221400Z AUTO 03006KT 6SM 17/08 A3009 RMK T01700080 IEM_DS3505
ZBHH,2010-08-22 15:00,ZBHH 221500Z AUTO 14002KT 19SM 16/09 A3012 RMK SLP162 T01630090 52008 IEM_DS3505
ZBHH,2010-08-22 16:00,ZBHH 221600Z AUTO 05006KT 6SM 15/08 A3012 RMK T01500080 IEM_DS3505
ZBHH,2010-08-22 17:00,ZBHH 221700Z AUTO 06002KT 6SM 14/08 A3012 RMK T01400080 IEM_DS3505
ZBHH,2010-08-22 18:00,ZBHH 221800Z AUTO 36002KT 19SM 15/07 A3012 RMK SLP162 T01460067 52002 IEM_DS3505
ZBHH,2010-08-22 19:00,ZBHH 221900Z AUTO 07006KT 6SM 12/08 A3012 RMK T01200080 IEM_DS3505
ZBHH,2010-08-22 20:00,ZBHH 222000Z AUTO 08006KT 6SM 11/08 A3009 RMK T01100080 IEM_DS3505
ZBHH,2010-08-22 21:00,ZBHH 222100Z AUTO 09002KT 19SM 12/06 A3009 RMK SLP160 T01250059 57004 IEM_DS3505
ZBHH,2010-08-22 22:00,ZBHH 222200Z AUTO 05002KT 6SM 12/07 A3012 RMK T01200070 IEM_DS3505
ZBHH,2010-08-22 23:00,ZBHH 222300Z AUTO 06004KT 6SM 13/08 A3012 RMK T01300080 IEM_DS3505
ZBHH,2010-08-23 00:00,ZBHH 230000Z AUTO 16002KT 19SM 18/06 A3015 RMK SLP169 T01750064 52011 IEM_DS3505
ZBHH,2010-08-23 01:00,ZBHH 230100Z AUTO 12002KT 6SM 19/08 A3015 RMK T01900080 IEM_DS3505
ZBHH,2010-08-23 02:00,ZBHH 230200Z AUTO 14004KT 7SM 21/09 A3012 RMK T02100090 IEM_DS3505
ZBHH,2010-08-23 03:00,ZBHH 230300Z AUTO 16004KT 12SM 23/07 A3012 RMK SLP163 T02310072 57004 IEM_DS3505
ZBHH,2010-08-23 04:00,ZBHH 230400Z AUTO 16006KT 7SM 23/11 A3009 RMK T02300110 IEM_DS3505
ZBHH,2010-08-23 05:00,ZBHH 230500Z AUTO 21008KT 7SM 25/09 A3009 RMK T02500090 IEM_DS3505
ZBHH,2010-08-23 06:00,ZBHH 230600Z AUTO 20004KT 12SM 26/06 A3006 RMK SLP141 T02550062 57018 IEM_DS3505
ZBHH,2010-08-23 07:00,ZBHH 230700Z AUTO 22006KT 7SM 26/08 A3003 RMK T02600080 IEM_DS3505
ZBHH,2010-08-23 08:00,ZBHH 230800Z AUTO 23008KT 7SM 26/06 A3003 RMK T02600060 IEM_DS3505
ZBHH,2010-08-23 09:00,ZBHH 230900Z AUTO 20006KT 12SM 26/04 A3003 RMK SLP130 T02600039 57013 IEM_DS3505
ZBHH,2010-08-23 10:00,ZBHH 231000Z AUTO 21006KT 7SM 25/06 A3000 RMK T02500060 IEM_DS3505
ZBHH,2010-08-23 11:00,ZBHH 231100Z AUTO 16004KT 6SM 23/08 A3000 RMK T02300080 IEM_DS3505
ZBHH,2010-08-23 12:00,ZBHH 231200Z AUTO 27002KT 19SM 22/05 A3003 RMK SLP130 T02150050 52001 IEM_DS3505
ZBHH,2010-08-23 13:00,ZBHH 231300Z AUTO 04006KT 6SM 19/09 A3006 RMK T01900090 IEM_DS3505
ZBHH,2010-08-23 14:00,ZBHH 231400Z AUTO 07006KT 6SM 18/08 A3006 RMK T01800080 IEM_DS3505
ZBHH,2010-08-23 15:00,ZBHH 231500Z AUTO 04002KT 19SM 17/07 A3006 RMK SLP142 T01740069 52013 IEM_DS3505
ZBHH,2010-08-23 16:00,ZBHH 231600Z AUTO 05002KT 6SM 17/08 A3006 RMK T01700080 IEM_DS3505
ZBHH,2010-08-23 17:00,ZBHH 231700Z AUTO 07004KT 6SM 15/08 A3006 RMK T01500080 IEM_DS3505
ZBHH,2010-08-23 18:00,ZBHH 231800Z AUTO 00000KT 19SM 15/08 A3006 RMK SLP137 T01530078 57003 IEM_DS3505
ZBHH,2010-08-23 19:00,ZBHH 231900Z AUTO 08004KT 6SM 12/09 A3006 RMK T01200090 IEM_DS3505
ZBHH,2010-08-23 20:00,ZBHH 232000Z AUTO 06004KT 6SM 11/08 A3009 RMK T01100080 IEM_DS3505
ZBHH,2010-08-23 21:00,ZBHH 232100Z AUTO 07002KT 19SM 14/07 A3009 RMK SLP147 T01370068 52006 IEM_DS3505
ZBHH,2010-08-23 22:00,ZBHH 232200Z AUTO 07004KT 6SM 11/08 A3009 RMK T01100080 IEM_DS3505
ZBHH,2010-08-23 23:00,ZBHH 232300Z AUTO 07004KT 7SM 13/10 A3009 RMK T01300100 IEM_DS3505
ZBHH,2010-08-24 00:00,ZBHH 240000Z AUTO 04002KT 9SM 17/10 A3009 RMK SLP156 T01740103 52007 IEM_DS3505
ZBHH,2010-08-24 01:00,ZBHH 240100Z AUTO 25002KT 7SM 18/14 A3009 RMK T01800140 IEM_DS3505
ZBHH,2010-08-24 02:00,ZBHH 240200Z AUTO 24004KT 4SM 18/14 A3009 RMK T01800140 IEM_DS3505
ZBHH,2010-08-24 03:00,ZBHH 240300Z AUTO 22002KT 19SM 21/13 A3009 RMK SLP147 T02140128 57008 IEM_DS3505
ZBHH,2010-08-24 04:00,ZBHH 240400Z AUTO 29002KT 4SM 22/15 A3006 RMK T02200150 IEM_DS3505
ZBHH,2010-08-24 05:00,ZBHH 240500Z AUTO 4SM 24/14 A3003 RMK T02400140 IEM_DS3505
ZBHH,2010-08-24 06:00,ZBHH 240600Z AUTO 18004KT 12SM 26/12 A3000 RMK SLP123 T02550117 57018 IEM_DS3505
ZBHH,2010-08-24 07:00,ZBHH 240700Z AUTO 20006KT 7SM 27/12 A3000 RMK T02700120 IEM_DS3505
ZBHH,2010-08-24 08:00,ZBHH 240800Z AUTO 19006KT 6SM 27/11 A2997 RMK T02700110 IEM_DS3505
ZBHH,2010-08-24 09:00,ZBHH 240900Z AUTO 20004KT 12SM 27/09 A2997 RMK SLP109 T02740088 57012 IEM_DS3505
ZBHH,2010-08-24 10:00,ZBHH 241000Z AUTO 20004KT 6SM 26/11 A2997 RMK T02600110 IEM_DS3505
ZBHH,2010-08-24 11:00,ZBHH 241100Z AUTO 22002KT 6SM 25/12 A2997 RMK T02500120 IEM_DS3505
ZBHH,2010-08-24 12:00,ZBHH 241200Z AUTO 25004KT 12SM 23/10 A3000 RMK SLP115 T02260097 52004 IEM_DS3505
ZBHH,2010-08-24 13:00,ZBHH 241300Z AUTO 05006KT 7SM 20/12 A3000 RMK T02000120 IEM_DS3505
ZBHH,2010-08-24 14:00,ZBHH 241400Z AUTO 05006KT 7SM 19/11 A3003 RMK T01900110 IEM_DS3505
ZBHH,2010-08-24 15:00,ZBHH 241500Z AUTO 07002KT 12SM 19/11 A3003 RMK SLP128 T01890112 52012 IEM_DS3505
ZBHH,2010-08-24 16:00,ZBHH 241600Z AUTO 07006KT 7SM 16/12 A3003 RMK T01600120 IEM_DS3505
ZBHH,2010-08-24 17:00,ZBHH 241700Z AUTO 04002KT 7SM 17/11 A3003 RMK T01700110 IEM_DS3505
ZBHH,2010-08-24 18:00,ZBHH 241800Z AUTO 32002KT 12SM 17/11 A3003 RMK SLP127 T01710107 52003 IEM_DS3505
ZBHH,2010-08-24 19:00,ZBHH 241900Z AUTO 07004KT 7SM 15/11 A3003 RMK T01500110 IEM_DS3505
ZBHH,2010-08-24 20:00,ZBHH 242000Z AUTO 07002KT 7SM 15/11 A3003 RMK T01500110 IEM_DS3505
ZBHH,2010-08-24 21:00,ZBHH 242100Z AUTO 14002KT 9SM 15/10 A3003 RMK SLP132 T01510105 52004 IEM_DS3505
ZBHH,2010-08-24 22:00,ZBHH 242200Z AUTO 09004KT 7SM 14/11 A3006 RMK T01400110 IEM_DS3505
ZBHH,2010-08-24 23:00,ZBHH 242300Z AUTO 07004KT 7SM 15/11 A3006 RMK T01500110 IEM_DS3505
ZBHH,2010-08-25 00:00,ZBHH 250000Z AUTO 07002KT 12SM 20/11 A3009 RMK SLP144 T01950108 52010 IEM_DS3505
ZBHH,2010-08-25 01:00,ZBHH 250100Z AUTO 18004KT 6SM 21/12 A3006 RMK T02100120 IEM_DS3505
ZBHH,2010-08-25 02:00,ZBHH 250200Z AUTO 17004KT 6SM 24/12 A3006 RMK T02400120 IEM_DS3505
ZBHH,2010-08-25 03:00,ZBHH 250300Z AUTO 07004KT 9SM 25/12 A3006 RMK SLP132 T02460116 57008 IEM_DS3505
ZBHH,2010-08-25 04:00,ZBHH 250400Z AUTO 16004KT 7SM 24/12 A3003 RMK T02400120 IEM_DS3505
ZBHH,2010-08-25 05:00,ZBHH 250500Z AUTO 14002KT 7SM 26/12 A3003 RMK T02600120 IEM_DS3505
ZBHH,2010-08-25 06:00,ZBHH 250600Z AUTO 11002KT 14SM 29/07 A3000 RMK SLP107 T02910071 57017 IEM_DS3505
ZBHH,2010-08-25 07:00,ZBHH 250700Z AUTO 18006KT 7SM 28/06 A2997 RMK T02800060 IEM_DS3505
ZBHH,2010-08-25 08:00,ZBHH 250800Z AUTO 7SM 29/07 A2997 RMK T02900070 IEM_DS3505
ZBHH,2010-08-25 09:00,ZBHH 250900Z AUTO 04008KT 12SM 26/08 A2997 RMK SLP117 T02560077 57001 IEM_DS3505
ZBHH,2010-08-25 10:00,ZBHH 251000Z AUTO 33008KT 7SM 23/11 A3000 RMK T02300110 IEM_DS3505
ZBHH,2010-08-25 11:00,ZBHH 251100Z AUTO 01002KT 7SM 23/11 A3000 RMK T02300110 IEM_DS3505
ZBHH,2010-08-25 12:00,ZBHH 251200Z AUTO 07002KT 19SM 21/12 A3003 RMK 60012 SLP124 T02110120 52006 IEM_DS3505
ZBHH,2010-08-25 13:00,ZBHH 251300Z AUTO 07006KT 7SM 19/11 A3006 RMK T01900110 IEM_DS3505
ZBHH,2010-08-25 14:00,ZBHH 251400Z AUTO 04006KT 7SM 20/07 A3006 RMK T02000070 IEM_DS3505
ZBHH,2010-08-25 15:00,ZBHH 251500Z AUTO 07002KT 19SM 19/08 A3009 RMK SLP141 T01890080 52020 IEM_DS3505
ZBHH,2010-08-25 16:00,ZBHH 251600Z AUTO 03004KT 6SM 16/07 A3009 RMK T01600070 IEM_DS3505
ZBHH,2010-08-25 17:00,ZBHH 251700Z AUTO 09004KT 6SM 15/08 A3009 RMK T01500080 IEM_DS3505
ZBHH,2010-08-25 18:00,ZBHH 251800Z AUTO 00000KT 19SM 15/10 A3012 RMK SLP148 T01510105 52008 IEM_DS3505
ZBHH,2010-08-25 19:00,ZBHH 251900Z AUTO 06002KT 6SM 13/08 A3012 RMK T01300080 IEM_DS3505
ZBHH,2010-08-25 20:00,ZBHH 252000Z AUTO 00000KT 6SM 12/07 A3012 RMK T01200070 IEM_DS3505
ZBHH,2010-08-25 21:00,ZBHH 252100Z AUTO 09002KT 19SM 14/09 A3012 RMK 70011 SLP165 T01400086 52006 IEM_DS3505
ZBHH,2010-08-25 22:00,ZBHH 252200Z AUTO 05002KT 6SM 12/06 A3015 RMK T01200060 IEM_DS3505
ZBHH,2010-08-25 23:00,ZBHH 252300Z AUTO 05004KT 6SM 14/06 A3015 RMK T01400060 IEM_DS3505
ZBHH,2010-08-26 00:00,ZBHH 260000Z AUTO 09002KT 19SM 19/06 A3015 RMK 70011 SLP175 T01910062 52010 IEM_DS3505
ZBHH,2010-08-26 01:00,ZBHH 260100Z AUTO 07002KT 6SM 21/08 A3015 RMK T02100080 IEM_DS3505
ZBHH,2010-08-26 02:00,ZBHH 260200Z AUTO 13002KT 6SM 24/05 A3015 RMK T02400050 IEM_DS3505
ZBHH,2010-08-26 03:00,ZBHH 260300Z AUTO 34002KT 19SM 24/04 A3015 RMK SLP164 T02440037 57004 IEM_DS3505
ZBHH,2010-08-26 04:00,ZBHH 260400Z AUTO 22006KT 7SM 25/05 A3015 RMK T02500050 IEM_DS3505
ZBHH,2010-08-26 05:00,ZBHH 260500Z AUTO 7SM 26/06 A3012 RMK T02600060 IEM_DS3505
ZBHH,2010-08-26 06:00,ZBHH 260600Z AUTO 02002KT 19SM 27/05 A3012 RMK SLP153 T02740051 57011 IEM_DS3505
ZBHH,2010-08-26 07:00,ZBHH 260700Z AUTO 21002KT 7SM 27/04 A3009 RMK T02700040 IEM_DS3505
ZBHH,2010-08-26 08:00,ZBHH 260800Z AUTO 7SM 27/03 A3009 RMK T02700030 IEM_DS3505
ZBHH,2010-08-26 09:00,ZBHH 260900Z AUTO 27002KT 19SM 28/04 A3006 RMK SLP140 T02790042 57013 IEM_DS3505
ZBHH,2010-08-26 10:00,ZBHH 261000Z AUTO 17002KT 7SM 26/03 A3006 RMK T02600030 IEM_DS3505
ZBHH,2010-08-26 11:00,ZBHH 261100Z AUTO 00000KT 7SM 24/06 A3006 RMK T02400060 IEM_DS3505
ZBHH,2010-08-26 12:00,ZBHH 261200Z AUTO 32002KT 19SM 22/05 A3009 RMK SLP147 T02200046 52005 IEM_DS3505
ZBHH,2010-08-26 13:00,ZBHH 261300Z AUTO 04006KT 6SM 20/06 A3012 RMK T02000060 IEM_DS3505
ZBHH,2010-08-26 14:00,ZBHH 261400Z AUTO 30002KT 6SM 18/07 A3012 RMK T01800070 IEM_DS3505
ZBHH,2010-08-26 15:00,ZBHH 261500Z AUTO 00000KT 19SM 19/09 A3012 RMK SLP157 T01900086 52013 IEM_DS3505
ZBHH,2010-08-26 16:00,ZBHH 261600Z AUTO 05004KT 6SM 16/08 A3012 RMK T01600080 IEM_DS3505
ZBHH,2010-08-26 17:00,ZBHH 261700Z AUTO 07004KT 6SM 13/08 A3012 RMK T01300080 IEM_DS3505
ZBHH,2010-08-26 18:00,ZBHH 261800Z AUTO 00000KT 19SM 16/08 A3009 RMK SLP148 T01600085 57008 IEM_DS3505
ZBHH,2010-08-26 19:00,ZBHH 261900Z AUTO 06004KT 6SM 12/08 A3009 RMK T01200080 IEM_DS3505
ZBHH,2010-08-26 20:00,ZBHH 262000Z AUTO 07002KT 6SM 13/08 A3009 RMK T01300080 IEM_DS3505
ZBHH,2010-08-26 21:00,ZBHH 262100Z AUTO 04002KT 19SM 14/07 A3009 RMK SLP148 T01390074 57003 IEM_DS3505
ZBHH,2010-08-26 22:00,ZBHH 262200Z AUTO 06004KT 6SM 12/08 A3009 RMK T01200080 IEM_DS3505
ZBHH,2010-08-26 23:00,ZBHH 262300Z AUTO 07002KT 7SM 14/09 A3009 RMK T01400090 IEM_DS3505
ZBHH,2010-08-27 00:00,ZBHH 270000Z AUTO 16002KT 19SM 20/08 A3009 RMK SLP151 T01950076 52002 IEM_DS3505
ZBHH,2010-08-27 01:00,ZBHH 270100Z AUTO 13002KT 6SM 21/09 A3009 RMK T02100090 IEM_DS3505
ZBHH,2010-08-27 02:00,ZBHH 270200Z AUTO 22004KT 6SM 23/10 A3009 RMK T02300100 IEM_DS3505
ZBHH,2010-08-27 03:00,ZBHH 270300Z AUTO 18004KT 16SM 24/08 A3006 RMK SLP139 T02370082 57008 IEM_DS3505
ZBHH,2010-08-27 04:00,ZBHH 270400Z AUTO 22006KT 7SM 25/10 A3006 RMK T02500100 IEM_DS3505
ZBHH,2010-08-27 05:00,ZBHH 270500Z AUTO 25014KT 7SM 25/09 A3003 RMK T02500090 IEM_DS3505
ZBHH,2010-08-27 06:00,ZBHH 270600Z AUTO 18004KT 19SM 27/07 A3000 RMK SLP113 T02720066 57022 IEM_DS3505
ZBHH,2010-08-27 07:00,ZBHH 270700Z AUTO 22010KT 7SM 27/07 A2997 RMK T02700070 IEM_DS3505
ZBHH,2010-08-27 08:00,ZBHH 270800Z AUTO 23012KT 7SM 28/08 A2997 RMK T02800080 IEM_DS3505
ZBHH,2010-08-27 09:00,ZBHH 270900Z AUTO 22008KT 16SM 26/06 A2994 RMK SLP101 T02650065 57016 IEM_DS3505
ZBHH,2010-08-27 10:00,ZBHH 271000Z AUTO 23008KT 7SM 26/07 A2994 RMK T02600070 IEM_DS3505
ZBHH,2010-08-27 11:00,ZBHH 271100Z AUTO 19004KT 7SM 23/09 A2994 RMK T02300090 IEM_DS3505
ZBHH,2010-08-27 12:00,ZBHH 271200Z AUTO 25002KT 16SM 24/05 A2994 RMK SLP095 T02430046 52001 IEM_DS3505
ZBHH,2010-08-27 13:00,ZBHH 271300Z AUTO 12002KT 7SM 20/09 A2997 RMK T02000090 IEM_DS3505
ZBHH,2010-08-27 14:00,ZBHH 271400Z AUTO 33002KT 7SM 20/08 A3000 RMK T02000080 IEM_DS3505
ZBHH,2010-08-27 15:00,ZBHH 271500Z AUTO 11002KT 19SM 19/08 A3000 RMK SLP110 T01870081 52011 IEM_DS3505
ZBHH,2010-08-27 16:00,ZBHH 271600Z AUTO 04002KT 6SM 16/10 A3000 RMK T01600100 IEM_DS3505
ZBHH,2010-08-27 17:00,ZBHH 271700Z AUTO 10004KT 6SM 15/09 A3000 RMK T01500090 IEM_DS3505
ZBHH,2010-08-27 18:00,ZBHH 271800Z AUTO 27002KT 19SM 16/08 A3000 RMK SLP111 T01610078 52002 IEM_DS3505
ZBHH,2010-08-27 19:00,ZBHH 271900Z AUTO 07004KT 6SM 13/08 A3000 RMK T01300080 IEM_DS3505
ZBHH,2010-08-27 20:00,ZBHH 272000Z AUTO 05006KT 6SM 13/08 A2997 RMK T01300080 IEM_DS3505
ZBHH,2010-08-27 21:00,ZBHH 272100Z AUTO 07002KT 19SM 14/08 A2997 RMK SLP112 T01390081 57004 IEM_DS3505
ZBHH,2010-08-27 22:00,ZBHH 272200Z AUTO 07004KT 6SM 12/08 A3000 RMK T01200080 IEM_DS3505
ZBHH,2010-08-27 23:00,ZBHH 272300Z AUTO 07004KT 6SM 14/09 A3000 RMK T01400090 IEM_DS3505
ZBHH,2010-08-28 00:00,ZBHH 280000Z AUTO 09004KT 19SM 19/08 A3000 RMK SLP113 T01880085 52006 IEM_DS3505
ZBHH,2010-08-28 01:00,ZBHH 280100Z AUTO 21002KT 6SM 23/13 A3000 RMK T02300130 IEM_DS3505
ZBHH,2010-08-28 02:00,ZBHH 280200Z AUTO 17002KT 6SM 25/14 A3000 RMK T02500140 IEM_DS3505
ZBHH,2010-08-28 03:00,ZBHH 280300Z AUTO 14002KT 16SM 23/08 A2997 RMK SLP109 T02340083 57006 IEM_DS3505
ZBHH,2010-08-28 04:00,ZBHH 280400Z AUTO 21006KT 7SM 24/11 A2997 RMK T02400110 IEM_DS3505
ZBHH,2010-08-28 05:00,ZBHH 280500Z AUTO 16006KT 7SM 25/09 A2994 RMK T02500090 IEM_DS3505
ZBHH,2010-08-28 06:00,ZBHH 280600Z AUTO 02002KT 16SM 28/07 A2991 RMK SLP083 T02750074 57020 IEM_DS3505
ZBHH,2010-08-28 07:00,ZBHH 280700Z AUTO 15002KT 7SM 27/06 A2991 RMK T02700060 IEM_DS3505
ZBHH,2010-08-28 08:00,ZBHH 280800Z AUTO 16004KT 7SM 28/07 A2988 RMK T02800070 IEM_DS3505
ZBHH,2010-08-28 09:00,ZBHH 280900Z AUTO 29002KT 16SM 29/06 A2988 RMK SLP074 T02860061 57010 IEM_DS3505
ZBHH,2010-08-28 10:00,ZBHH 281000Z AUTO 21004KT 7SM 27/08 A2988 RMK T02700080 IEM_DS3505
ZBHH,2010-08-28 11:00,ZBHH 281100Z AUTO 20002KT 7SM 24/10 A2988 RMK T02400100 IEM_DS3505
ZBHH,2010-08-28 12:00,ZBHH 281200Z AUTO 22002KT 16SM 24/07 A2991 RMK SLP083 T02390067 52008 IEM_DS3505
ZBHH,2010-08-28 13:00,ZBHH 281300Z AUTO 03006KT 7SM 22/06 A2994 RMK T02200060 IEM_DS3505
ZBHH,2010-08-28 14:00,ZBHH 281400Z AUTO 03006KT 6SM 24/09 A2994 RMK T02400090 IEM_DS3505
ZBHH,2010-08-28 15:00,ZBHH 281500Z AUTO 09002KT 19SM 20/06 A2994 RMK SLP094 T01990063 52011 IEM_DS3505
ZBHH,2010-08-28 16:00,ZBHH 281600Z AUTO 06006KT 6SM 18/09 A2994 RMK T01800090 IEM_DS3505
ZBHH,2010-08-28 17:00,ZBHH 281700Z AUTO 08006KT 6SM 16/09 A2994 RMK T01600090 IEM_DS3505
ZBHH,2010-08-28 18:00,ZBHH 281800Z AUTO 00000KT 19SM 17/08 A2994 RMK SLP093 T01730076 52002 IEM_DS3505
ZBHH,2010-08-28 19:00,ZBHH 281900Z AUTO 05002KT 6SM 20/12 A2994 RMK T02000120 IEM_DS3505
ZBHH,2010-08-28 20:00,ZBHH 282000Z AUTO 09004KT 6SM 15/09 A2994 RMK T01500090 IEM_DS3505
ZBHH,2010-08-28 21:00,ZBHH 282100Z AUTO 09002KT 19SM 16/08 A2994 RMK SLP087 T01570084 57006 IEM_DS3505
ZBHH,2010-08-28 22:00,ZBHH 282200Z AUTO 08004KT 6SM 14/09 A2994 RMK T01400090 IEM_DS3505
ZBHH,2010-08-28 23:00,ZBHH 282300Z AUTO 09004KT 6SM 15/09 A2994 RMK T01500090 IEM_DS3505
ZBHH,2010-08-29 00:00,ZBHH 290000Z AUTO 09002KT 19SM 20/08 A2997 RMK SLP100 T01960083 52010 IEM_DS3505
ZBHH,2010-08-29 01:00,ZBHH 290100Z AUTO 10002KT 6SM 21/10 A2997 RMK T02100100 IEM_DS3505
ZBHH,2010-08-29 02:00,ZBHH 290200Z AUTO 16004KT 6SM 24/12 A2997 RMK T02400120 IEM_DS3505
ZBHH,2010-08-29 03:00,ZBHH 290300Z AUTO 04002KT 19SM 25/09 A2994 RMK SLP092 T02530088 57004 IEM_DS3505
ZBHH,2010-08-29 04:00,ZBHH 290400Z AUTO 21006KT 7SM 26/11 A2994 RMK T02600110 IEM_DS3505
ZBHH,2010-08-29 05:00,ZBHH 290500Z AUTO 19008KT 7SM 28/09 A2991 RMK T02800090 IEM_DS3505
ZBHH,2010-08-29 06:00,ZBHH 290600Z AUTO 25006KT 19SM 26/07 A2991 RMK SLP087 T02550067 57009 IEM_DS3505
ZBHH,2010-08-29 07:00,ZBHH 290700Z AUTO 23004KT 7SM 26/07 A2991 RMK T02600070 IEM_DS3505
ZBHH,2010-08-29 08:00,ZBHH 290800Z AUTO 14004KT 7SM 25/09 A2988 RMK T02500090 IEM_DS3505
ZBHH,2010-08-29 09:00,ZBHH 290900Z AUTO 29002KT 19SM 26/08 A2991 RMK SLP083 T02650075 57005 IEM_DS3505
ZBHH,2010-08-29 10:00,ZBHH 291000Z AUTO 13006KT 7SM 25/09 A2991 RMK T02500090 IEM_DS3505
ZBHH,2010-08-29 11:00,ZBHH 291100Z AUTO 12002KT 7SM 23/11 A2991 RMK T02300110 IEM_DS3505
ZBHH,2010-08-29 12:00,ZBHH 291200Z AUTO 32002KT 9SM 23/07 A2994 RMK 60000 SLP089 T02340071 52007 IEM_DS3505
ZBHH,2010-08-29 13:00,ZBHH 291300Z AUTO 03006KT 7SM 20/10 A2994 RMK T02000100 IEM_DS3505
ZBHH,2010-08-29 14:00,ZBHH 291400Z AUTO 01006KT 6SM 20/09 A2994 RMK T02000090 IEM_DS3505
ZBHH,2010-08-29 15:00,ZBHH 291500Z AUTO 02002KT 12SM 21/08 A2997 RMK SLP090 T02140080 52008 IEM_DS3505
ZBHH,2010-08-29 16:00,ZBHH 291600Z AUTO 08004KT 6SM 21/14 A2997 RMK T02100140 IEM_DS3505
ZBHH,2010-08-29 17:00,ZBHH 291700Z AUTO 05002KT 6SM 22/15 A2997 RMK T02200150 IEM_DS3505
ZBHH,2010-08-29 18:00,ZBHH 291800Z AUTO 32002KT 19SM 18/08 A2997 RMK SLP099 T01760079 52001 IEM_DS3505
ZBHH,2010-08-29 19:00,ZBHH 291900Z 05003MPS CAVOK 16/10 Q1015 NOSIG
ZBHH,2010-08-29 20:00,ZBHH 292000Z AUTO 06006KT 6SM 15/10 A2997 RMK T01500100 IEM_DS3505
ZBHH,2010-08-29 21:00,ZBHH 292100Z AUTO 02002KT 19SM 15/08 A2997 RMK 70000 SLP103 T01530083 52001 IEM_DS3505
ZBHH,2010-08-29 22:00,ZBHH 292200Z AUTO 05006KT 7SM 15/08 A2997 RMK T01500080 IEM_DS3505
ZBHH,2010-08-29 23:00,ZBHH 292300Z AUTO 08002KT 6SM 16/09 A2997 RMK T01600090 IEM_DS3505
ZBHH,2010-08-30 00:00,ZBHH 300000Z AUTO 09002KT 19SM 19/09 A2997 RMK 70000 SLP109 T01880093 52006 IEM_DS3505
ZBHH,2010-08-30 01:00,ZBHH 300100Z AUTO 08008KT 6SM 20/08 A2997 RMK T02000080 IEM_DS3505
ZBHH,2010-08-30 02:00,ZBHH 300200Z AUTO 08004KT 7SM 23/10 A2997 RMK T02300100 IEM_DS3505
ZBHH,2010-08-30 03:00,ZBHH 300300Z AUTO 20002KT 12SM 24/07 A2997 RMK SLP098 T02380074 57004 IEM_DS3505
ZBHH,2010-08-30 04:00,ZBHH 300400Z AUTO 22002KT 7SM 26/13 A2994 RMK T02600130 IEM_DS3505
ZBHH,2010-08-30 05:00,ZBHH 300500Z AUTO 27004KT 7SM 24/10 A2994 RMK T02400100 IEM_DS3505
ZBHH,2010-08-30 06:00,ZBHH 300600Z AUTO 20006KT 12SM 24/08 A2991 RMK SLP087 T02450085 57015 IEM_DS3505
ZBHH,2010-08-30 07:00,ZBHH 300700Z AUTO 22010KT 7SM 24/10 A2991 RMK T02400100 IEM_DS3505
ZBHH,2010-08-30 08:00,ZBHH 300800Z AUTO 24008KT 7SM 24/11 A2991 RMK T02400110 IEM_DS3505
ZBHH,2010-08-30 09:00,ZBHH 300900Z AUTO 22010KT 7SM 22/10 A2991 RMK SLP097 T02230105 54000 IEM_DS3505
ZBHH,2010-08-30 10:00,ZBHH 301000Z AUTO 28008KT 7SM 20/12 A2994 RMK T02000120 IEM_DS3505
ZBHH,2010-08-30 11:00,ZBHH 301100Z AUTO 14004KT 7SM 19/12 A2994 RMK T01900120 IEM_DS3505
ZBHH,2010-08-30 12:00,ZBHH 301200Z AUTO 09002KT 9SM 20/09 A2994 RMK 60000 SLP104 T01970087 52008 IEM_DS3505
ZBHH,2010-08-30 13:00,ZBHH 301300Z AUTO 36002KT 7SM 21/18 A2997 RMK T02100180 IEM_DS3505
ZBHH,2010-08-30 14:00,ZBHH 301400Z AUTO 02002KT 7SM 22/17 A2997 RMK T02200170 IEM_DS3505
ZBHH,2010-08-30 15:00,ZBHH 301500Z AUTO 07002KT 12SM 18/10 A2997 RMK SLP107 T01820103 52009 IEM_DS3505
ZBHH,2010-08-30 16:00,ZBHH 301600Z AUTO 07002KT 7SM 16/12 A2997 RMK T01600120 IEM_DS3505
ZBHH,2010-08-30 17:00,ZBHH 301700Z AUTO 05002KT 7SM 16/12 A2997 RMK T01600120 IEM_DS3505
ZBHH,2010-08-30 18:00,ZBHH 301800Z AUTO 20002KT 12SM 18/10 A2997 RMK SLP101 T01840103 57003 IEM_DS3505
ZBHH,2010-08-30 19:00,ZBHH 301900Z AUTO 06004KT 7SM 16/12 A2997 RMK T01600120 IEM_DS3505
ZBHH,2010-08-30 20:00,ZBHH 302000Z AUTO 13002KT 7SM 15/13 A2997 RMK T01500130 IEM_DS3505
ZBHH,2010-08-30 21:00,ZBHH 302100Z AUTO 09002KT 12SM 17/10 A2997 RMK 70000 SLP109 T01690101 54000 IEM_DS3505
ZBHH,2010-08-30 22:00,ZBHH 302200Z AUTO 07002KT 7SM 15/12 A2997 RMK T01500120 IEM_DS3505
ZBHH,2010-08-30 23:00,ZBHH 302300Z AUTO 03004KT 7SM 15/11 A2997 RMK T01500110 IEM_DS3505
ZBHH,2010-08-31 00:00,ZBHH 310000Z AUTO 00000KT 6SM 18/10 A2997 RMK 70000 SLP119 T01790105 52006 IEM_DS3505
ZBHH,2010-08-31 01:00,ZBHH 310100Z AUTO 15002KT 6SM 20/12 A3000 RMK T02000120 IEM_DS3505
ZBHH,2010-08-31 02:00,ZBHH 310200Z AUTO 14004KT 6SM 21/12 A2997 RMK T02100120 IEM_DS3505
ZBHH,2010-08-31 03:00,ZBHH 310300Z AUTO 20004KT 9SM 22/12 A2997 RMK SLP114 T02190116 54000 IEM_DS3505
ZBHH,2010-08-31 04:00,ZBHH 310400Z AUTO 20004KT 7SM 23/11 A2997 RMK T02300110 IEM_DS3505
ZBHH,2010-08-31 05:00,ZBHH 310500Z AUTO 19006KT 7SM 25/10 A2994 RMK T02500100 IEM_DS3505
ZBHH,2010-08-31 06:00,ZBHH 310600Z AUTO 22004KT 12SM 26/08 A2994 RMK SLP091 T02560077 57013 IEM_DS3505
ZBHH,2010-08-31 07:00,ZBHH 310700Z AUTO 19010KT 7SM 26/10 A2991 RMK T02600100 IEM_DS3505
ZBHH,2010-08-31 08:00,ZBHH 310800Z AUTO 16008KT 7SM 24/11 A2994 RMK T02400110 IEM_DS3505
ZBHH,2010-08-31 09:00,ZBHH 310900Z AUTO 22004KT 12SM 24/13 A2994 RMK SLP098 T02400126 54000 IEM_DS3505
ZBHH,2010-08-31 10:00,ZBHH 311000Z AUTO 21010KT 7SM 23/13 A2994 RMK T02300130 IEM_DS3505
ZBHH,2010-08-31 11:00,ZBHH 311100Z AUTO 23006KT 6SM 25/16 A2997 RMK T02500160 IEM_DS3505
ZBHH,2010-08-31 12:00,ZBHH 311200Z AUTO 25002KT 12SM 20/12 A3000 RMK 60039 SLP123 T02020119 52017 IEM_DS3505
ZBHH,2010-08-31 13:00,ZBHH 311300Z AUTO 23004KT 6SM 18/12 A3003 RMK T01800120 IEM_DS3505
ZBHH,2010-08-31 14:00,ZBHH 311400Z AUTO 22002KT 6SM 19/15 A3003 RMK T01900150 IEM_DS3505
ZBHH,2010-08-31 15:00,ZBHH 311500Z AUTO 25002KT 19SM 18/12 A3003 RMK SLP132 T01770117 52011 IEM_DS3505
ZBHH,2010-08-31 16:00,ZBHH 311600Z AUTO 08004KT 6SM 14/11 A3003 RMK T01400110 IEM_DS3505
ZBHH,2010-08-31 17:00,ZBHH 311700Z AUTO 09004KT 6SM 14/11 A3003 RMK T01400110 IEM_DS3505
ZBHH,2010-08-31 18:00,ZBHH 311800Z AUTO 04002KT 19SM 16/11 A3003 RMK SLP127 T01580110 57001 IEM_DS3505
ZBHH,2010-08-31 19:00,ZBHH 311900Z AUTO 05004KT 6SM 13/11 A3003 RMK T01300110 IEM_DS3505
ZBHH,2010-08-31 20:00,ZBHH 312000Z AUTO 09002KT 6SM 13/11 A3003 RMK T01300110 IEM_DS3505
ZBHH,2010-08-31 21:00,ZBHH 312100Z AUTO 00000KT 19SM 14/10 A3003 RMK 70038 SLP138 T01380104 52003 IEM_DS3505
ZBHH,2010-08-31 22:00,ZBHH 312200Z AUTO 08006KT 6SM 11/09 A3006 RMK T01100090 IEM_DS3505
ZBHH,2010-08-31 23:00,ZBHH 312300Z AUTO 06002KT 6SM 13/10 A3006 RMK T01300100 IEM_DS3505
ZBHH,2010-09-01 00:00,ZBHH 010000Z AUTO 34002KT 16SM 17/10 A3006 RMK 70038 SLP150 T01670103 52009 IEM_DS3505
ZBHH,2010-09-01 01:00,ZBHH 010100Z AUTO 06002KT 6SM 18/11 A3006 RMK T01800110 IEM_DS3505
ZBHH,2010-09-01 02:00,ZBHH 010200Z AUTO 06002KT 6SM 23/13 A3006 RMK T02300130 IEM_DS3505
ZBHH,2010-09-01 03:00,ZBHH 010300Z AUTO 18002KT 12SM 22/11 A3006 RMK SLP146 T02160110 52001 IEM_DS3505
ZBHH,2010-09-01 04:00,ZBHH 010400Z AUTO 23002KT 7SM 24/10 A3006 RMK T02400100 IEM_DS3505
ZBHH,2010-09-01 05:00,ZBHH 010500Z AUTO 7SM 26/07 A3003 RMK T02600070 IEM_DS3505
ZBHH,2010-09-01 06:00,ZBHH 010600Z AUTO 22006KT 16SM 28/05 A3000 RMK SLP118 T02760052 57017 IEM_DS3505
ZBHH,2010-09-01 07:00,ZBHH 010700Z AUTO 28008KT 7SM 26/03 A3000 RMK T02600030 IEM_DS3505
ZBHH,2010-09-01 08:00,ZBHH 010800Z AUTO 19010KT 7SM 26/07 A3000 RMK T02600070 IEM_DS3505
ZBHH,2010-09-01 09:00,ZBHH 010900Z AUTO 25004KT 19SM 28/03 A3000 RMK SLP114 T02760026 57008 IEM_DS3505
ZBHH,2010-09-01 10:00,ZBHH 011000Z AUTO 14006KT 7SM 26/06 A3000 RMK T02600060 IEM_DS3505
ZBHH,2010-09-01 11:00,ZBHH 011100Z AUTO 08004KT 7SM 22/08 A3003 RMK T02200080 IEM_DS3505
ZBHH,2010-09-01 12:00,ZBHH 011200Z AUTO 09004KT 19SM 23/06 A3003 RMK SLP134 T02320065 52015 IEM_DS3505
ZBHH,2010-09-01 13:00,ZBHH 011300Z AUTO 32004KT 7SM 22/12 A3006 RMK T02200120 IEM_DS3505
ZBHH,2010-09-01 14:00,ZBHH 011400Z AUTO 06006KT 6SM 18/09 A3006 RMK T01800090 IEM_DS3505
ZBHH,2010-09-01 15:00,ZBHH 011500Z AUTO 29002KT 19SM 18/09 A3009 RMK SLP148 T01780092 52012 IEM_DS3505
ZBHH,2010-09-01 16:00,ZBHH 011600Z AUTO 05002KT 6SM 19/12 A3009 RMK T01900120 IEM_DS3505
ZBHH,2010-09-01 17:00,ZBHH 011700Z AUTO 08004KT 6SM 14/08 A3009 RMK T01400080 IEM_DS3505
ZBHH,2010-09-01 18:00,ZBHH 011800Z AUTO 00000KT 19SM 15/08 A3009 RMK SLP144 T01540079 52003 IEM_DS3505
ZBHH,2010-09-01 19:00,ZBHH 011900Z AUTO 09004KT 6SM 14/08 A3009 RMK T01400080 IEM_DS3505
ZBHH,2010-09-01 20:00,ZBHH 012000Z AUTO 06002KT 6SM 13/08 A3009 RMK T01300080 IEM_DS3505
ZBHH,2010-09-01 21:00,ZBHH 012100Z AUTO 07002KT 19SM 14/08 A3009 RMK SLP149 T01360082 52001 IEM_DS3505
ZBHH,2010-09-01 22:00,ZBHH 012200Z AUTO 09004KT 7SM 13/09 A3009 RMK T01300090 IEM_DS3505
ZBHH,2010-09-01 23:00,ZBHH 012300Z AUTO 08004KT 7SM 12/09 A3012 RMK T01200090 IEM_DS3505
ZBHH,2010-09-02 00:00,ZBHH 020000Z AUTO 07002KT 12SM 17/10 A3009 RMK SLP156 T01700101 52004 IEM_DS3505
ZBHH,2010-09-02 01:00,ZBHH 020100Z AUTO 13002KT 6SM 23/13 A3009 RMK T02300130 IEM_DS3505
ZBHH,2010-09-02 02:00,ZBHH 020200Z AUTO 18004KT 6SM 26/15 A3012 RMK T02600150 IEM_DS3505
ZBHH,2010-09-02 03:00,ZBHH 020300Z AUTO 09002KT 19SM 24/08 A3009 RMK SLP150 T02370078 57003 IEM_DS3505
ZBHH,2010-09-02 04:00,ZBHH 020400Z AUTO 7SM 24/09 A3009 RMK T02400090 IEM_DS3505
ZBHH,2010-09-02 05:00,ZBHH 020500Z AUTO 32004KT 7SM 24/09 A3006 RMK T02400090 IEM_DS3505
ZBHH,2010-09-02 06:00,ZBHH 020600Z AUTO 04002G16KT 12SM 27/07 A3003 RMK SLP128 T02680073 57018 IEM_DS3505
ZBHH,2010-09-02 07:00,ZBHH 020700Z AUTO 21004KT 7SM 28/04 A3003 RMK T02800040 IEM_DS3505
ZBHH,2010-09-02 08:00,ZBHH 020800Z AUTO 28010KT 7SM 27/03 A3003 RMK T02700030 IEM_DS3505
ZBHH,2010-09-02 09:00,ZBHH 020900Z AUTO 27004KT 12SM 25/03 A3003 RMK SLP132 T02490030 57003 IEM_DS3505
ZBHH,2010-09-02 10:00,ZBHH 021000Z AUTO 16010KT 7SM 24/05 A3003 RMK T02400050 IEM_DS3505
ZBHH,2010-09-02 11:00,ZBHH 021100Z AUTO 19008KT 7SM 26/11 A3006 RMK T02600110 IEM_DS3505
ZBHH,2010-09-02 12:00,ZBHH 021200Z AUTO 29002KT 12SM 21/06 A3006 RMK SLP151 T02080060 52015 IEM_DS3505
ZBHH,2010-09-02 13:00,ZBHH 021300Z AUTO 36002KT 7SM 20/08 A3009 RMK T02000080 IEM_DS3505
ZBHH,2010-09-02 14:00,ZBHH 021400Z AUTO 09004KT 7SM 17/07 A3009 RMK T01700070 IEM_DS3505
ZBHH,2010-09-02 15:00,ZBHH 021500Z AUTO 07004KT 19SM 19/07 A3009 RMK SLP141 T01890070 54000 IEM_DS3505
ZBHH,2010-09-02 16:00,ZBHH 021600Z AUTO 05004KT 6SM 16/08 A3009 RMK T01600080 IEM_DS3505
ZBHH,2010-09-02 17:00,ZBHH 021700Z AUTO 04004KT 6SM 14/08 A3006 RMK T01400080 IEM_DS3505
ZBHH,2010-09-02 18:00,ZBHH 021800Z AUTO 04002KT 19SM 16/08 A3006 RMK SLP136 T01580076 57004 IEM_DS3505
ZBHH,2010-09-02 19:00,ZBHH 021900Z AUTO 05004KT 6SM 14/07 A3006 RMK T01400070 IEM_DS3505
ZBHH,2010-09-02 20:00,ZBHH 022000Z AUTO 07004KT 6SM 14/08 A3006 RMK T01400080 IEM_DS3505
ZBHH,2010-09-02 21:00,ZBHH 022100Z AUTO 00000KT 19SM 13/07 A3006 RMK SLP141 T01340074 57004 IEM_DS3505
ZBHH,2010-09-02 22:00,ZBHH 022200Z AUTO 09004KT 6SM 12/07 A3006 RMK T01200070 IEM_DS3505
ZBHH,2010-09-02 23:00,ZBHH 022300Z AUTO 08004KT 6SM 13/08 A3006 RMK T01300080 IEM_DS3505
ZBHH,2010-09-03 00:00,ZBHH 030000Z AUTO 11002KT 12SM 19/08 A3006 RMK SLP142 T01880076 52004 IEM_DS3505
ZBHH,2010-09-03 01:00,ZBHH 030100Z AUTO 09004KT 6SM 19/08 A3006 RMK T01900080 IEM_DS3505
ZBHH,2010-09-03 02:00,ZBHH 030200Z AUTO 16004KT 6SM 21/09 A3006 RMK T02100090 IEM_DS3505
ZBHH,2010-09-03 03:00,ZBHH 030300Z AUTO 18004KT 19SM 22/06 A3003 RMK SLP129 T02230065 57009 IEM_DS3505
ZBHH,2010-09-03 04:00,ZBHH 030400Z AUTO 20006KT 7SM 23/09 A3000 RMK T02300090 IEM_DS3505
ZBHH,2010-09-03 05:00,ZBHH 030500Z AUTO 22008KT 7SM 25/09 A2997 RMK T02500090 IEM_DS3505
ZBHH,2010-09-03 06:00,ZBHH 030600Z AUTO 20006KT 16SM 26/07 A2994 RMK SLP102 T02580069 57023 IEM_DS3505
ZBHH,2010-09-03 07:00,ZBHH 030700Z AUTO 19004KT 7SM 27/05 A2994 RMK T02700050 IEM_DS3505
ZBHH,2010-09-03 08:00,ZBHH 030800Z AUTO 08017KT 7SM 24/06 A2994 RMK T02400060 IEM_DS3505
ZBHH,2010-09-03 09:00,ZBHH 030900Z AUTO 07008KT 19SM 24/05 A2991 RMK SLP101 T02370046 57009 IEM_DS3505
ZBHH,2010-09-03 10:00,ZBHH 031000Z AUTO 11006KT 7SM 23/06 A2991 RMK T02300060 IEM_DS3505
ZBHH,2010-09-03 11:00,ZBHH 031100Z AUTO 18002KT 7SM 25/11 A2994 RMK T02500110 IEM_DS3505
ZBHH,2010-09-03 12:00,ZBHH 031200Z AUTO 11008KT 19SM 22/07 A2997 RMK SLP105 T02170068 52010 IEM_DS3505
ZBHH,2010-09-03 13:00,ZBHH 031300Z AUTO 11004KT 7SM 18/09 A3000 RMK T01800090 IEM_DS3505
ZBHH,2010-09-03 14:00,ZBHH 031400Z AUTO 02002KT 7SM 17/10 A3000 RMK T01700100 IEM_DS3505
ZBHH,2010-09-03 15:00,ZBHH 031500Z AUTO 32002KT 19SM 18/09 A2997 RMK SLP114 T01830088 52008 IEM_DS3505
ZBHH,2010-09-03 16:00,ZBHH 031600Z AUTO 08004KT 6SM 14/08 A2997 RMK T01400080 IEM_DS3505
ZBHH,2010-09-03 17:00,ZBHH 031700Z AUTO 09004KT 6SM 13/08 A2997 RMK T01300080 IEM_DS3505
ZBHH,2010-09-03 18:00,ZBHH 031800Z AUTO 07002KT 19SM 16/08 A2997 RMK SLP110 T01550085 57002 IEM_DS3505
ZBHH,2010-09-03 19:00,ZBHH 031900Z AUTO 07004KT 6SM 12/08 A2997 RMK T01200080 IEM_DS3505
ZBHH,2010-09-03 20:00,ZBHH 032000Z AUTO 03004KT 6SM 12/08 A2997 RMK T01200080 IEM_DS3505
ZBHH,2010-09-03 21:00,ZBHH 032100Z AUTO 32002KT 19SM 13/08 A2997 RMK SLP115 T01320081 57004 IEM_DS3505
ZBHH,2010-09-03 22:00,ZBHH 032200Z AUTO 09006KT 6SM 11/08 A2997 RMK T01100080 IEM_DS3505
ZBHH,2010-09-03 23:00,ZBHH 032300Z AUTO 06006KT 6SM 13/08 A3000 RMK T01300080 IEM_DS3505
ZBHH,2010-09-04 00:00,ZBHH 040000Z AUTO 02002KT 19SM 17/08 A3000 RMK SLP120 T01700084 52008 IEM_DS3505
ZBHH,2010-09-04 01:00,ZBHH 040100Z AUTO 09004KT 6SM 19/09 A3000 RMK T01900090 IEM_DS3505
ZBHH,2010-09-04 02:00,ZBHH 040200Z AUTO 16002KT 6SM 21/10 A3000 RMK T02100100 IEM_DS3505
ZBHH,2010-09-04 03:00,ZBHH 040300Z AUTO 32004KT 12SM 23/08 A3000 RMK SLP113 T02300075 57002 IEM_DS3505
ZBHH,2010-09-04 04:00,ZBHH 040400Z AUTO 27004KT 6SM 23/10 A2997 RMK T02300100 IEM_DS3505
ZBHH,2010-09-04 05:00,ZBHH 040500Z AUTO 20006KT 6SM 24/09 A2994 RMK T02400090 IEM_DS3505
ZBHH,2010-09-04 06:00,ZBHH 040600Z AUTO 27004KT 12SM 26/06 A2994 RMK SLP096 T02550057 57015 IEM_DS3505
ZBHH,2010-09-04 07:00,ZBHH 040700Z AUTO 21006KT 6SM 26/08 A2991 RMK T02600080 IEM_DS3505
ZBHH,2010-09-04 08:00,ZBHH 040800Z AUTO 21004KT 6SM 26/07 A2991 RMK T02600070 IEM_DS3505
ZBHH,2010-09-04 09:00,ZBHH 040900Z AUTO 27002KT 12SM 25/07 A2991 RMK SLP089 T02540066 57011 IEM_DS3505
ZBHH,2010-09-04 10:00,ZBHH 041000Z AUTO 24004KT 6SM 25/08 A2991 RMK T02500080 IEM_DS3505
ZBHH,2010-09-04 11:00,ZBHH 041100Z AUTO 23004KT 6SM 24/09 A2991 RMK T02400090 IEM_DS3505
ZBHH,2010-09-04 12:00,ZBHH 041200Z AUTO 22006KT 12SM 23/10 A2994 RMK SLP099 T02260097 52011 IEM_DS3505
ZBHH,2010-09-04 13:00,ZBHH 041300Z AUTO 20006KT 6SM 24/16 A2997 RMK T02400160 IEM_DS3505
ZBHH,2010-09-04 14:00,ZBHH 041400Z AUTO 03002KT 6SM 24/16 A2997 RMK T02400160 IEM_DS3505
ZBHH,2010-09-04 15:00,ZBHH 041500Z AUTO 27002KT 19SM 20/10 A3000 RMK SLP111 T01980102 52016 IEM_DS3505
ZBHH,2010-09-04 16:00,ZBHH 041600Z AUTO 05004KT 6SM 16/12 A3000 RMK T01600120 IEM_DS3505
ZBHH,2010-09-04 17:00,ZBHH 041700Z AUTO 05004KT 6SM 16/10 A3000 RMK T01600100 IEM_DS3505
ZBHH,2010-09-04 18:00,ZBHH 041800Z AUTO 34002KT 19SM 17/10 A3000 RMK SLP111 T01730104 54000 IEM_DS3505
ZBHH,2010-09-04 19:00,ZBHH 041900Z AUTO 05004KT 6SM 13/10 A3000 RMK T01300100 IEM_DS3505
ZBHH,2010-09-04 20:00,ZBHH 042000Z AUTO 00000KT 6SM 13/10 A3000 RMK T01300100 IEM_DS3505
ZBHH,2010-09-04 21:00,ZBHH 042100Z AUTO 04002KT 19SM 15/10 A3000 RMK SLP116 T01520102 52001 IEM_DS3505
ZBHH,2010-09-04 22:00,ZBHH 042200Z AUTO 04002KT 4SM 13/10 A3000 RMK T01300100 IEM_DS3505
ZBHH,2010-09-04 23:00,ZBHH 042300Z AUTO 12002KT 2 1/2SM 13/10 A3003 RMK T01300100 IEM_DS3505
ZBHH,2010-09-05 00:00,ZBHH 050000Z AUTO 00000KT 6SM 18/11 A3003 RMK SLP129 T01750109 52010 IEM_DS3505
ZBHH,2010-09-05 01:00,ZBHH 050100Z AUTO 15004KT 3SM 19/13 A3003 RMK T01900130 IEM_DS3505
ZBHH,2010-09-05 02:00,ZBHH 050200Z AUTO 20004KT 3SM 20/13 A3003 RMK T02000130 IEM_DS3505
ZBHH,2010-09-05 03:00,ZBHH 050300Z AUTO 19004KT 3SM 23/15 A3003 RMK T02300150 IEM_DS3505
ZBHH,2010-09-05 04:00,ZBHH 050400Z AUTO 3SM 23/14 A3000 RMK T02300140 IEM_DS3505
ZBHH,2010-09-05 05:00,ZBHH 050500Z AUTO 25006KT 4SM 25/13 A2997 RMK T02500130 IEM_DS3505
ZBHH,2010-09-05 06:00,ZBHH 050600Z AUTO 18004KT 9SM 26/10 A2997 RMK SLP100 T02610103 57018 IEM_DS3505
ZBHH,2010-09-05 07:00,ZBHH 050700Z AUTO 21006KT 7SM 26/11 A2994 RMK T02600110 IEM_DS3505
ZBHH,2010-09-05 08:00,ZBHH 050800Z AUTO 25006KT 7SM 27/10 A2991 RMK T02700100 IEM_DS3505
ZBHH,2010-09-05 09:00,ZBHH 050900Z AUTO 18002KT 9SM 28/09 A2991 RMK SLP081 T02770086 57018 IEM_DS3505
ZBHH,2010-09-05 10:00,ZBHH 051000Z AUTO 22004KT 7SM 26/11 A2988 RMK T02600110 IEM_DS3505
ZBHH,2010-09-05 11:00,ZBHH 051100Z AUTO 22002KT 6SM 23/12 A2991 RMK T02300120 IEM_DS3505
ZBHH,2010-09-05 12:00,ZBHH 051200Z AUTO 29002KT 16SM 23/09 A2994 RMK SLP095 T02290093 52008 IEM_DS3505
ZBHH,2010-09-05 13:00,ZBHH 051300Z AUTO 04006KT 7SM 23/13 A2997 RMK T02300130 IEM_DS3505
ZBHH,2010-09-05 14:00,ZBHH 051400Z AUTO 05004KT 7SM 22/14 A3000 RMK T02200140 IEM_DS3505
ZBHH,2010-09-05 15:00,ZBHH 051500Z AUTO 14002KT 16SM 19/11 A2997 RMK SLP109 T01900106 52014 IEM_DS3505
ZBHH,2010-09-05 16:00,ZBHH 051600Z AUTO 05006KT 7SM 17/11 A3000 RMK T01700110 IEM_DS3505
ZBHH,2010-09-05 17:00,ZBHH 051700Z AUTO 07004KT 7SM 17/11 A3000 RMK T01700110 IEM_DS3505
ZBHH,2010-09-05 18:00,ZBHH 051800Z AUTO 32002KT 19SM 17/10 A2997 RMK SLP108 T01670105 52002 IEM_DS3505
ZBHH,2010-09-05 19:00,ZBHH 051900Z AUTO 07002KT 7SM 16/10 A2997 RMK T01600100 IEM_DS3505
ZBHH,2010-09-05 20:00,ZBHH 052000Z AUTO 10004KT 7SM 14/10 A3000 RMK T01400100 IEM_DS3505
ZBHH,2010-09-05 21:00,ZBHH 052100Z AUTO 09002KT 19SM 16/10 A3000 RMK SLP109 T01590102 52002 IEM_DS3505
ZBHH,2010-09-05 22:00,ZBHH 052200Z AUTO 09004KT 7SM 12/09 A2997 RMK T01200090 IEM_DS3505
ZBHH,2010-09-05 23:00,ZBHH 052300Z AUTO 09004KT 6SM 14/10 A3000 RMK T01400100 IEM_DS3505
ZBHH,2010-09-06 00:00,ZBHH 060000Z AUTO 09002KT 16SM 19/10 A3000 RMK SLP118 T01920102 52005 IEM_DS3505
ZBHH,2010-09-06 01:00,ZBHH 060100Z AUTO 02002KT 6SM 23/12 A3000 RMK T02300120 IEM_DS3505
ZBHH,2010-09-06 02:00,ZBHH 060200Z AUTO 12004KT 7SM 24/10 A3000 RMK T02400100 IEM_DS3505
ZBHH,2010-09-06 03:00,ZBHH 060300Z AUTO 36004KT 16SM 26/08 A2997 RMK SLP102 T02600085 57009 IEM_DS3505
ZBHH,2010-09-06 04:00,ZBHH 060400Z AUTO 09010KT 7SM 29/05 A2994 RMK T02900050 IEM_DS3505
ZBHH,2010-09-06 05:00,ZBHH 060500Z AUTO 09014KT 7SM 30/00 A2994 RMK T03000000 IEM_DS3505
ZBHH,2010-09-06 06:00,ZBHH 060600Z AUTO 09008KT 12SM 30/01 A2991 RMK SLP073 T03030008 57022 IEM_DS3505
ZBHH,2010-09-06 07:00,ZBHH 060700Z AUTO 13010KT 7SM 30/00 A2988 RMK T03000000 IEM_DS3505
ZBHH,2010-09-06 08:00,ZBHH 060800Z AUTO 13008KT 7SM 30/00 A2988 RMK T03000000 IEM_DS3505
ZBHH,2010-09-06 09:00,ZBHH 060900Z AUTO 09006KT 12SM 30/M02 A2988 RMK SLP066 T02971016 57008 IEM_DS3505
ZBHH,2010-09-06 10:00,ZBHH 061000Z AUTO 13006KT 7SM 28/00 A2988 RMK T02800000 IEM_DS3505
ZBHH,2010-09-06 11:00,ZBHH 061100Z AUTO 12004KT 7SM 25/04 A2991 RMK T02500040 IEM_DS3505
ZBHH,2010-09-06 12:00,ZBHH 061200Z AUTO 16002KT 19SM 27/04 A2994 RMK SLP085 T02660044 52017 IEM_DS3505
ZBHH,2010-09-06 13:00,ZBHH 061300Z AUTO 12004KT 7SM 23/07 A2997 RMK T02300070 IEM_DS3505
ZBHH,2010-09-06 14:00,ZBHH 061400Z AUTO 00000KT 7SM 28/12 A2997 RMK T02800120 IEM_DS3505
ZBHH,2010-09-06 15:00,ZBHH 061500Z AUTO 09002KT 12SM 23/08 A3000 RMK SLP095 T02270080 52014 IEM_DS3505
ZBHH,2010-09-06 16:00,ZBHH 061600Z AUTO 07002KT 7SM 25/13 A2997 RMK T02500130 IEM_DS3505
ZBHH,2010-09-06 17:00,ZBHH 061700Z AUTO 05002KT 7SM 21/10 A2997 RMK T02100100 IEM_DS3505
ZBHH,2010-09-06 18:00,ZBHH 061800Z AUTO 22002KT 12SM 22/09 A2997 RMK SLP089 T02190088 52001 IEM_DS3505
ZBHH,2010-09-06 19:00,ZBHH 061900Z AUTO 15006KT 7SM 22/08 A3000 RMK T02200080 IEM_DS3505
ZBHH,2010-09-06 20:00,ZBHH 062000Z AUTO 04008KT 7SM 21/08 A2997 RMK T02100080 IEM_DS3505
ZBHH,2010-09-06 21:00,ZBHH 062100Z AUTO 07006KT 12SM 22/04 A3000 RMK SLP092 T02210042 52002 IEM_DS3505
ZBHH,2010-09-06 22:00,ZBHH 062200Z AUTO 10012G21KT 7SM 22/04 A3000 RMK T02200040 IEM_DS3505
ZBHH,2010-09-06 23:00,ZBHH 062300Z AUTO 19008KT 7SM 20/09 A3003 RMK T02000090 IEM_DS3505
ZBHH,2010-09-07 00:00,ZBHH 070000Z AUTO 02002KT 12SM 19/10 A3003 RMK SLP117 T01930100 52011 IEM_DS3505
ZBHH,2010-09-07 01:00,ZBHH 070100Z AUTO 06006KT 7SM 20/10 A3003 RMK T02000100 IEM_DS3505
ZBHH,2010-09-07 02:00,ZBHH 070200Z AUTO 06010KT 7SM 21/10 A3003 RMK T02100100 IEM_DS3505
ZBHH,2010-09-07 03:00,ZBHH 070300Z AUTO 09006KT 12SM 22/09 A3003 RMK SLP124 T02190088 52004 IEM_DS3505
ZBHH,2010-09-07 04:00,ZBHH 070400Z AUTO 07019KT 7SM 18/11 A3003 RMK T01800110 IEM_DS3505
ZBHH,2010-09-07 05:00,ZBHH 070500Z AUTO 07019KT 7SM 18/11 A3003 RMK T01800110 IEM_DS3505
ZBHH,2010-09-07 06:00,ZBHH 070600Z AUTO 07008KT 12SM 18/11 A3003 RMK 60000 SLP131 T01810107 57002 IEM_DS3505
ZBHH,2010-09-07 07:00,ZBHH 070700Z AUTO 07016KT 7SM 18/12 A3003 RMK T01800120 IEM_DS3505
ZBHH,2010-09-07 08:00,ZBHH 070800Z AUTO 09012KT 7SM 17/12 A3003 RMK T01700120 IEM_DS3505
ZBHH,2010-09-07 09:00,ZBHH 070900Z AUTO 07004KT 6SM 17/13 A3003 RMK SLP137 T01660128 52003 IEM_DS3505
ZBHH,2010-09-07 10:00,ZBHH 071000Z AUTO 04004KT 7SM 16/14 A3006 RMK T01600140 IEM_DS3505
ZBHH,2010-09-07 11:00,ZBHH 071100Z AUTO 07006KT 7SM 16/14 A3006 RMK T01600140 IEM_DS3505
ZBHH,2010-09-07 12:00,ZBHH 071200Z AUTO 07004KT 12SM 16/14 A3006 RMK 60008 SLP154 T01620137 52009 IEM_DS3505
ZBHH,2010-09-07 13:00,ZBHH 071300Z AUTO 06006KT 7SM 16/14 A3009 RMK T01600140 IEM_DS3505
ZBHH,2010-09-07 14:00,ZBHH 071400Z AUTO 05004KT 4SM 16/14 A3009 RMK T01600140 IEM_DS3505
ZBHH,2010-09-07 15:00,ZBHH 071500Z AUTO 07004KT 12SM 15/14 A3009 RMK SLP156 T01540136 52005 IEM_DS3505
ZBHH,2010-09-07 16:00,ZBHH 071600Z AUTO 07004KT 4SM 15/15 A3009 RMK T01500150 IEM_DS3505
ZBHH,2010-09-07 17:00,ZBHH 071700Z AUTO 08004KT 4SM 16/14 A3009 RMK T01600140 IEM_DS3505
ZBHH,2010-09-07 18:00,ZBHH 071800Z AUTO 07002KT 7SM 16/14 A3006 RMK 60028 SLP156 T01590137 57006 IEM_DS3505
ZBHH,2010-09-07 19:00,ZBHH 071900Z AUTO 10002KT 4SM 16/15 A3006 RMK T01600150 IEM_DS3505
ZBHH,2010-09-07 20:00,ZBHH 072000Z AUTO 08002KT 3SM 15/14 A3006 RMK T01500140 IEM_DS3505
ZBHH,2010-09-07 21:00,ZBHH 072100Z AUTO 07002KT 7SM 15/14 A3006 RMK 70044 SLP161 T01540138 54000 IEM_DS3505
ZBHH,2010-09-07 22:00,ZBHH 072200Z AUTO 07004KT 2 1/2SM 15/14 A3006 RMK T01500140 IEM_DS3505
ZBHH,2010-09-07 23:00,ZBHH 072300Z AUTO 11004KT 2SM 15/14 A3009 RMK T01500140 IEM_DS3505
ZBHH,2010-09-08 00:00,ZBHH 080000Z AUTO 32004KT 6SM 14/11 A3009 RMK 60059 70093 SLP176 T01350109 52009 IEM_DS3505
ZBHH,2010-09-08 01:00,ZBHH 080100Z AUTO 02008KT 7SM 13/12 A3009 RMK T01300120 IEM_DS3505
ZBHH,2010-09-08 02:00,ZBHH 080200Z AUTO 02010KT 7SM 14/12 A3009 RMK T01400120 IEM_DS3505
ZBHH,2010-09-08 03:00,ZBHH 080300Z AUTO 11002KT 16SM 15/12 A3009 RMK SLP173 T01540118 57001 IEM_DS3505
ZBHH,2010-09-08 04:00,ZBHH 080400Z AUTO 06008KT 7SM 16/13 A3006 RMK T01600130 IEM_DS3505
ZBHH,2010-09-08 05:00,ZBHH 080500Z AUTO 10002KT 7SM 17/14 A3006 RMK T01700140 IEM_DS3505
ZBHH,2010-09-08 06:00,ZBHH 080600Z AUTO 04004KT 9SM 16/13 A3006 RMK 60012 SLP155 T01620131 57013 IEM_DS3505
ZBHH,2010-09-08 07:00,ZBHH 080700Z AUTO 20006KT 3SM 15/15 A3006 RMK T01500150 IEM_DS3505
ZBHH,2010-09-08 08:00,ZBHH 080800Z AUTO 09006KT 5SM 14/14 A3003 RMK T01400140 IEM_DS3505
ZBHH,2010-09-08 09:00,ZBHH 080900Z AUTO 11004KT 19SM 16/13 A3003 RMK SLP147 T01600129 57008 IEM_DS3505
ZBHH,2010-09-08 10:00,ZBHH 081000Z AUTO 20006KT 7SM 15/14 A3006 RMK T01500140 IEM_DS3505
ZBHH,2010-09-08 11:00,ZBHH 081100Z AUTO 04004KT 7SM 14/13 A3003 RMK T01400130 IEM_DS3505
ZBHH,2010-09-08 12:00,ZBHH 081200Z AUTO 27002KT 9SM 15/12 A3006 RMK 60020 SLP163 T01470122 52008 IEM_DS3505
ZBHH,2010-09-08 13:00,ZBHH 081300Z AUTO 34004KT 5SM 14/13 A3006 RMK T01400130 IEM_DS3505
ZBHH,2010-09-08 14:00,ZBHH 081400Z AUTO 35002KT 5SM 14/13 A3006 RMK T01400130 IEM_DS3505
ZBHH,2010-09-08 15:00,ZBHH 081500Z AUTO 36002KT 6SM 14/12 A3006 RMK SLP160 T01390123 57001 IEM_DS3505
ZBHH,2010-09-08 16:00,ZBHH 081600Z AUTO 21002KT 4SM 14/13 A3006 RMK T01400130 IEM_DS3505
ZBHH,2010-09-08 17:00,ZBHH 081700Z AUTO 11004KT 3SM 14/13 A3003 RMK T01400130 IEM_DS3505
ZBHH,2010-09-08 18:00,ZBHH 081800Z AUTO 18002KT 6SM 14/12 A3003 RMK 60031 SLP153 T01430125 57004 IEM_DS3505
ZBHH,2010-09-08 19:00,ZBHH 081900Z AUTO 11002KT 3SM 14/13 A3003 RMK T01400130 IEM_DS3505
ZBHH,2010-09-08 20:00,ZBHH 082000Z AUTO 16002KT 3SM 14/13 A3003 RMK T01400130 IEM_DS3505
ZBHH,2010-09-08 21:00,ZBHH 082100Z AUTO 20002KT 6SM 14/12 A3003 RMK 70110 SLP149 T01370121 57005 IEM_DS3505
ZBHH,2010-09-08 22:00,ZBHH 082200Z AUTO 22004KT 2SM 13/13 A3003 RMK T01300130 IEM_DS3505
ZBHH,2010-09-08 23:00,ZBHH 082300Z AUTO 23002KT 1 1/2SM 13/13 A3003 RMK T01300130 IEM_DS3505
ZBHH,2010-09-09 00:00,ZBHH 090000Z AUTO 22004KT 5SM 13/11 A3006 RMK 70061 SLP164 T01310110 52010 IEM_DS3505
ZBHH,2010-09-09 01:00,ZBHH 090100Z AUTO 23004KT 2 1/2SM 14/12 A3006 RMK T01400120 IEM_DS3505
ZBHH,2010-09-09 02:00,ZBHH 090200Z AUTO 22008KT 6SM 15/10 A3006 RMK T01500100 IEM_DS3505
ZBHH,2010-09-09 03:00,ZBHH 090300Z AUTO 18010KT 19SM 16/07 A3003 RMK SLP152 T01650074 57006 IEM_DS3505
ZBHH,2010-09-09 04:00,ZBHH 090400Z AUTO 23010KT 7SM 17/08 A3000 RMK T01700080 IEM_DS3505
ZBHH,2010-09-09 05:00,ZBHH 090500Z AUTO 22012KT 7SM 18/08 A3000 RMK T01800080 IEM_DS3505
ZBHH,2010-09-09 06:00,ZBHH 090600Z AUTO 25006KT 19SM 18/06 A2997 RMK SLP130 T01790064 57016 IEM_DS3505
ZBHH,2010-09-09 07:00,ZBHH 090700Z AUTO 24012KT 7SM 18/09 A2997 RMK T01800090 IEM_DS3505
ZBHH,2010-09-09 08:00,ZBHH 090800Z AUTO 01012KT 7SM 16/08 A2997 RMK T01600080 IEM_DS3505
ZBHH,2010-09-09 09:00,ZBHH 090900Z AUTO 29002KT 16SM 18/07 A2997 RMK SLP129 T01750070 57003 IEM_DS3505
ZBHH,2010-09-09 10:00,ZBHH 091000Z AUTO 21002KT 7SM 16/10 A2997 RMK T01600100 IEM_DS3505
ZBHH,2010-09-09 11:00,ZBHH 091100Z AUTO 14002KT 7SM 14/12 A2997 RMK T01400120 IEM_DS3505
ZBHH,2010-09-09 12:00,ZBHH 091200Z AUTO 22002KT 19SM 16/08 A2997 RMK SLP135 T01640076 52002 IEM_DS3505
ZBHH,2010-09-09 13:00,ZBHH 091300Z AUTO 10004KT 7SM 13/10 A3000 RMK T01300100 IEM_DS3505
ZBHH,2010-09-09 14:00,ZBHH 091400Z AUTO 04006KT 7SM 13/10 A3000 RMK T01300100 IEM_DS3505
ZBHH,2010-09-09 15:00,ZBHH 091500Z AUTO 32002KT 19SM 13/09 A3000 RMK SLP140 T01290090 52005 IEM_DS3505
ZBHH,2010-09-09 16:00,ZBHH 091600Z AUTO 06004KT 7SM 11/09 A3000 RMK T01100090 IEM_DS3505
ZBHH,2010-09-09 17:00,ZBHH 091700Z AUTO 13004KT 7SM 10/09 A3000 RMK T01000090 IEM_DS3505
ZBHH,2010-09-09 18:00,ZBHH 091800Z AUTO 09002KT 19SM 11/08 A3000 RMK SLP140 T01070085 57002 IEM_DS3505
ZBHH,2010-09-09 19:00,ZBHH 091900Z AUTO 07002KT 6SM 09/09 A2997 RMK T00900090 IEM_DS3505
ZBHH,2010-09-09 20:00,ZBHH 092000Z AUTO 05004KT 6SM 09/08 A2997 RMK T00900080 IEM_DS3505
ZBHH,2010-09-09 21:00,ZBHH 092100Z AUTO 25002KT 19SM 10/08 A2997 RMK SLP133 T01000083 57008 IEM_DS3505
ZBHH,2010-09-09 22:00,ZBHH 092200Z AUTO 09004KT 7SM 08/08 A2997 RMK T00800080 IEM_DS3505
ZBHH,2010-09-09 23:00,ZBHH 092300Z AUTO 05004KT 6SM 10/08 A2997 RMK T01000080 IEM_DS3505
ZBHH,2010-09-10 00:00,ZBHH 100000Z AUTO 04002KT 6SM 13/08 A3000 RMK SLP137 T01340083 52008 IEM_DS3505
ZBHH,2010-09-10 01:00,ZBHH 100100Z AUTO 36002KT 4SM 14/10 A3000 RMK T01400100 IEM_DS3505
ZBHH,2010-09-10 02:00,ZBHH 100200Z AUTO 24002KT 4SM 15/10 A3000 RMK T01500100 IEM_DS3505
ZBHH,2010-09-10 03:00,ZBHH 100300Z AUTO 27002KT 12SM 17/09 A3000 RMK SLP141 T01660093 52003 IEM_DS3505
ZBHH,2010-09-10 04:00,ZBHH 100400Z AUTO 23004KT 4SM 17/11 A2997 RMK T01700110 IEM_DS3505
ZBHH,2010-09-10 05:00,ZBHH 100500Z AUTO 23006KT 5SM 21/12 A2994 RMK T02100120 IEM_DS3505
ZBHH,2010-09-10 06:00,ZBHH 100600Z AUTO 20006KT 16SM 21/10 A2994 RMK SLP113 T02110097 57021 IEM_DS3505
ZBHH,2010-09-10 07:00,ZBHH 100700Z AUTO 20004KT 7SM 21/12 A2991 RMK T02100120 IEM_DS3505
ZBHH,2010-09-10 08:00,ZBHH 100800Z AUTO 22004KT 7SM 23/13 A2991 RMK T02300130 IEM_DS3505
ZBHH,2010-09-10 09:00,ZBHH 100900Z AUTO 20004KT 12SM 22/11 A2991 RMK SLP101 T02250106 57009 IEM_DS3505
ZBHH,2010-09-10 10:00,ZBHH 101000Z AUTO 23004KT 7SM 23/15 A2991 RMK T02300150 IEM_DS3505
ZBHH,2010-09-10 11:00,ZBHH 101100Z AUTO 16002KT 7SM 22/17 A2991 RMK T02200170 IEM_DS3505
ZBHH,2010-09-10 12:00,ZBHH 101200Z AUTO 04004KT 19SM 18/12 A2991 RMK SLP110 T01830116 52007 IEM_DS3505
ZBHH,2010-09-10 13:00,ZBHH 101300Z AUTO 05006KT 7SM 15/13 A2994 RMK T01500130 IEM_DS3505
ZBHH,2010-09-10 14:00,ZBHH 101400Z AUTO 06006KT 6SM 15/12 A2994 RMK T01500120 IEM_DS3505
ZBHH,2010-09-10 15:00,ZBHH 101500Z AUTO 00000KT 19SM 15/12 A2997 RMK SLP123 T01510117 52011 IEM_DS3505
ZBHH,2010-09-10 16:00,ZBHH 101600Z AUTO 05004KT 6SM 14/12 A2997 RMK T01400120 IEM_DS3505
ZBHH,2010-09-10 17:00,ZBHH 101700Z AUTO 04004KT 6SM 13/11 A2997 RMK T01300110 IEM_DS3505
ZBHH,2010-09-10 18:00,ZBHH 101800Z AUTO 00000KT 19SM 13/11 A2997 RMK SLP123 T01310108 52005 IEM_DS3505
ZBHH,2010-09-10 20:00,ZBHH 102000Z AUTO 08006KT 6SM 12/09 A2997 RMK T01200090 IEM_DS3505
ZBHH,2010-09-10 21:00,ZBHH 102100Z AUTO 09002KT 19SM 12/10 A3000 RMK SLP127 T01190096 52004 IEM_DS3505
ZBHH,2010-09-10 22:00,ZBHH 102200Z AUTO 08006KT 6SM 10/09 A3000 RMK T01000090 IEM_DS3505
ZBHH,2010-09-10 23:00,ZBHH 102300Z AUTO 07004KT 6SM 12/10 A3003 RMK T01200100 IEM_DS3505
ZBHH,2010-09-11 00:00,ZBHH 110000Z AUTO 09002KT 19SM 16/10 A3003 RMK SLP142 T01570100 52012 IEM_DS3505
ZBHH,2010-09-11 01:00,ZBHH 110100Z AUTO 07006KT 6SM 18/10 A3003 RMK T01800100 IEM_DS3505
ZBHH,2010-09-11 02:00,ZBHH 110200Z AUTO 10004KT 6SM 21/11 A3003 RMK T02100110 IEM_DS3505
ZBHH,2010-09-11 03:00,ZBHH 110300Z AUTO 11004KT 19SM 22/10 A3003 RMK SLP135 T02190098 54000 IEM_DS3505
ZBHH,2010-09-11 04:00,ZBHH 110400Z AUTO 19004KT 7SM 23/12 A3000 RMK T02300120 IEM_DS3505
ZBHH,2010-09-11 05:00,ZBHH 110500Z AUTO 22004KT 7SM 24/12 A3000 RMK T02400120 IEM_DS3505
ZBHH,2010-09-11 06:00,ZBHH 110600Z AUTO 36004KT 19SM 24/09 A2997 RMK SLP115 T02440092 57017 IEM_DS3505
ZBHH,2010-09-11 07:00,ZBHH 110700Z AUTO 21002KT 7SM 25/10 A2997 RMK T02500100 IEM_DS3505
ZBHH,2010-09-11 08:00,ZBHH 110800Z AUTO 28004KT 7SM 25/10 A2994 RMK T02500100 IEM_DS3505
ZBHH,2010-09-11 09:00,ZBHH 110900Z AUTO 20002KT 19SM 25/09 A2994 RMK SLP108 T02510090 57007 IEM_DS3505
ZBHH,2010-09-11 10:00,ZBHH 111000Z AUTO 21004KT 6SM 23/13 A2994 RMK T02300130 IEM_DS3505
ZBHH,2010-09-11 11:00,ZBHH 111100Z AUTO 17002KT 6SM 21/13 A2994 RMK T02100130 IEM_DS3505
ZBHH,2010-09-11 12:00,ZBHH 111200Z AUTO 32002KT 19SM 21/12 A2997 RMK SLP115 T02110117 52006 IEM_DS3505
ZBHH,2010-09-11 13:00,ZBHH 111300Z AUTO 04006KT 6SM 20/15 A3000 RMK T02000150 IEM_DS3505
ZBHH,2010-09-11 14:00,ZBHH 111400Z AUTO 07008KT 6SM 20/15 A3000 RMK T02000150 IEM_DS3505
ZBHH,2010-09-11 15:00,ZBHH 111500Z AUTO 04002KT 19SM 18/12 A3000 RMK SLP122 T01800120 52012 IEM_DS3505
ZBHH,2010-09-11 16:00,ZBHH 111600Z AUTO 06002KT 6SM 15/11 A3000 RMK T01500110 IEM_DS3505
ZBHH,2010-09-11 17:00,ZBHH 111700Z AUTO 08008KT 6SM 15/11 A3000 RMK T01500110 IEM_DS3505
ZBHH,2010-09-11 18:00,ZBHH 111800Z AUTO 34002KT 19SM 15/11 A3000 RMK SLP122 T01500114 57001 IEM_DS3505
ZBHH,2010-09-11 19:00,ZBHH 111900Z AUTO 08004KT 6SM 14/10 A3000 RMK T01400100 IEM_DS3505
ZBHH,2010-09-11 20:00,ZBHH 112000Z AUTO 08004KT 6SM 13/10 A3000 RMK T01300100 IEM_DS3505
ZBHH,2010-09-11 21:00,ZBHH 112100Z AUTO 07002KT 19SM 13/11 A3000 RMK SLP127 T01340113 52002 IEM_DS3505
ZBHH,2010-09-11 22:00,ZBHH 112200Z AUTO 07004KT 6SM 12/10 A3003 RMK T01200100 IEM_DS3505
ZBHH,2010-09-11 23:00,ZBHH 112300Z AUTO 07004KT 6SM 13/10 A3003 RMK T01300100 IEM_DS3505
ZBHH,2010-09-12 00:00,ZBHH 120000Z AUTO 11002KT 6SM 18/10 A3003 RMK SLP131 T01780102 52005 IEM_DS3505
ZBHH,2010-09-12 01:00,ZBHH 120100Z AUTO 07004KT 7SM 18/11 A3003 RMK T01800110 IEM_DS3505
ZBHH,2010-09-12 02:00,ZBHH 120200Z AUTO 11002KT 6SM 22/10 A3003 RMK T02200100 IEM_DS3505
ZBHH,2010-09-12 03:00,ZBHH 120300Z AUTO 22002KT 12SM 24/10 A3003 RMK SLP126 T02390095 52001 IEM_DS3505
ZBHH,2010-09-12 04:00,ZBHH 120400Z AUTO 24004KT 7SM 25/11 A3000 RMK T02500110 IEM_DS3505
ZBHH,2010-09-12 05:00,ZBHH 120500Z AUTO 24008KT 7SM 25/11 A3000 RMK T02500110 IEM_DS3505
ZBHH,2010-09-12 06:00,ZBHH 120600Z AUTO 18008KT 16SM 26/09 A3000 RMK SLP114 T02560086 57013 IEM_DS3505
ZBHH,2010-09-12 07:00,ZBHH 120700Z AUTO 22010KT 7SM 26/10 A2997 RMK T02600100 IEM_DS3505
ZBHH,2010-09-12 08:00,ZBHH 120800Z AUTO 25008KT 7SM 26/09 A2997 RMK T02600090 IEM_DS3505
ZBHH,2010-09-12 09:00,ZBHH 120900Z AUTO 18004KT 19SM 25/08 A2997 RMK SLP112 T02470078 57007 IEM_DS3505
ZBHH,2010-09-12 10:00,ZBHH 121000Z AUTO 36006KT 7SM 23/08 A2997 RMK T02300080 IEM_DS3505
ZBHH,2010-09-12 11:00,ZBHH 121100Z AUTO 10002KT 7SM 21/11 A2997 RMK T02100110 IEM_DS3505
ZBHH,2010-09-12 12:00,ZBHH 121200Z AUTO 07002KT 16SM 21/07 A2997 RMK SLP115 T02110073 52005 IEM_DS3505
ZBHH,2010-09-12 13:00,ZBHH 121300Z AUTO 09002KT 7SM 21/15 A3000 RMK T02100150 IEM_DS3505
ZBHH,2010-09-12 14:00,ZBHH 121400Z AUTO 05002KT 7SM 20/13 A3000 RMK T02000130 IEM_DS3505
ZBHH,2010-09-12 15:00,ZBHH 121500Z AUTO 00000KT 16SM 17/11 A3000 RMK SLP117 T01720106 52005 IEM_DS3505
ZBHH,2010-09-12 16:00,ZBHH 121600Z AUTO 05004KT 7SM 20/14 A3000 RMK T02000140 IEM_DS3505
ZBHH,2010-09-12 17:00,ZBHH 121700Z AUTO 06004KT 7SM 15/11 A3000 RMK T01500110 IEM_DS3505
ZBHH,2010-09-12 18:00,ZBHH 121800Z AUTO 00000KT 19SM 15/10 A3000 RMK SLP121 T01530101 52004 IEM_DS3505
ZBHH,2010-09-12 19:00,ZBHH 121900Z AUTO 06006KT 7SM 14/11 A3000 RMK T01400110 IEM_DS3505
ZBHH,2010-09-12 20:00,ZBHH 122000Z AUTO 07004KT 6SM 14/11 A3000 RMK T01400110 IEM_DS3505
ZBHH,2010-09-12 21:00,ZBHH 122100Z AUTO 09002KT 19SM 14/10 A3000 RMK SLP129 T01370099 52002 IEM_DS3505
ZBHH,2010-09-12 22:00,ZBHH 122200Z AUTO 08004KT 6SM 13/10 A3003 RMK T01300100 IEM_DS3505
ZBHH,2010-09-12 23:00,ZBHH 122300Z AUTO 08006KT 5SM 14/11 A3003 RMK T01400110 IEM_DS3505
ZBHH,2010-09-13 00:00,ZBHH 130000Z AUTO 09002KT 16SM 18/10 A3003 RMK SLP136 T01790100 52007 IEM_DS3505
ZBHH,2010-09-13 01:00,ZBHH 130100Z AUTO 08004KT 5SM 22/13 A3003 RMK T02200130 IEM_DS3505
ZBHH,2010-09-13 02:00,ZBHH 130200Z AUTO 12004KT 6SM 22/10 A3003 RMK T02200100 IEM_DS3505
ZBHH,2010-09-13 03:00,ZBHH 130300Z AUTO 09002KT 19SM 24/11 A3003 RMK SLP130 T02390106 57001 IEM_DS3505
ZBHH,2010-09-13 04:00,ZBHH 130400Z AUTO 05002KT 6SM 24/12 A3003 RMK T02400120 IEM_DS3505
ZBHH,2010-09-13 05:00,ZBHH 130500Z AUTO 15004KT 6SM 25/12 A3000 RMK T02500120 IEM_DS3505
ZBHH,2010-09-13 06:00,ZBHH 130600Z AUTO 25004KT 16SM 27/10 A2997 RMK SLP104 T02670096 57021 IEM_DS3505
ZBHH,2010-09-13 07:00,ZBHH 130700Z AUTO 21004KT 7SM 27/11 A2994 RMK T02700110 IEM_DS3505
ZBHH,2010-09-13 08:00,ZBHH 130800Z AUTO 22004KT 7SM 27/11 A2994 RMK T02700110 IEM_DS3505
ZBHH,2010-09-13 09:00,ZBHH 130900Z AUTO 20004KT 12SM 27/10 A2994 RMK SLP092 T02710095 57013 IEM_DS3505
ZBHH,2010-09-13 10:00,ZBHH 131000Z AUTO 10002KT 6SM 26/11 A2994 RMK T02600110 IEM_DS3505
ZBHH,2010-09-13 11:00,ZBHH 131100Z AUTO 09004KT 6SM 22/11 A2994 RMK T02200110 IEM_DS3505
ZBHH,2010-09-13 12:00,ZBHH 131200Z AUTO 07002KT 12SM 23/12 A2994 RMK SLP101 T02260117 52007 IEM_DS3505
ZBHH,2010-09-13 13:00,ZBHH 131300Z AUTO 06006KT 6SM 20/12 A2997 RMK T02000120 IEM_DS3505
ZBHH,2010-09-13 14:00,ZBHH 131400Z AUTO 04004KT 7SM 19/11 A3000 RMK T01900110 IEM_DS3505
ZBHH,2010-09-13 15:00,ZBHH 131500Z AUTO 07002KT 19SM 19/09 A2997 RMK SLP111 T01890094 52013 IEM_DS3505
ZBHH,2010-09-13 16:00,ZBHH 131600Z AUTO 03002KT 7SM 18/11 A3000 RMK T01800110 IEM_DS3505
ZBHH,2010-09-13 17:00,ZBHH 131700Z AUTO 06004KT 6SM 16/10 A3000 RMK T01600100 IEM_DS3505
ZBHH,2010-09-13 18:00,ZBHH 131800Z AUTO 09002KT 19SM 18/10 A3000 RMK SLP112 T01750101 52004 IEM_DS3505
ZBHH,2010-09-13 19:00,ZBHH 131900Z AUTO 07006KT 6SM 16/11 A3000 RMK T01600110 IEM_DS3505
ZBHH,2010-09-13 20:00,ZBHH 132000Z AUTO 06004KT 7SM 16/11 A3000 RMK T01600110 IEM_DS3505
ZBHH,2010-09-13 21:00,ZBHH 132100Z AUTO 00000KT 16SM 16/11 A3000 RMK SLP117 T01640111 52003 IEM_DS3505
ZBHH,2010-09-13 22:00,ZBHH 132200Z AUTO 08006KT 7SM 16/11 A3003 RMK T01600110 IEM_DS3505
ZBHH,2010-09-13 23:00,ZBHH 132300Z AUTO 08006KT 3SM 16/12 A3003 RMK T01600120 IEM_DS3505
ZBHH,2010-09-14 00:00,ZBHH 140000Z AUTO 07004KT 9SM 19/11 A3003 RMK SLP132 T01860112 52009 IEM_DS3505
ZBHH,2010-09-14 01:00,ZBHH 140100Z AUTO 09006KT 3SM 20/13 A3003 RMK T02000130 IEM_DS3505
ZBHH,2010-09-14 02:00,ZBHH 140200Z AUTO 19004KT 3SM 23/15 A3003 RMK T02300150 IEM_DS3505
ZBHH,2010-09-14 03:00,ZBHH 140300Z AUTO 22004KT 6SM 23/12 A3003 RMK SLP125 T02310115 57005 IEM_DS3505
ZBHH,2010-09-14 04:00,ZBHH 140400Z AUTO 18002KT 4SM 24/13 A3000 RMK T02400130 IEM_DS3505
ZBHH,2010-09-14 05:00,ZBHH 140500Z AUTO 13004KT 4SM 25/14 A2997 RMK T02500140 IEM_DS3505
ZBHH,2010-09-14 06:00,ZBHH 140600Z AUTO 09002KT 9SM 26/12 A2997 RMK SLP103 T02590124 57017 IEM_DS3505
ZBHH,2010-09-14 07:00,ZBHH 140700Z AUTO 11004KT 4SM 26/13 A2994 RMK T02600130 IEM_DS3505
ZBHH,2010-09-14 08:00,ZBHH 140800Z AUTO 6SM 27/12 A2991 RMK T02700120 IEM_DS3505
ZBHH,2010-09-14 09:00,ZBHH 140900Z AUTO 18002KT 9SM 27/10 A2991 RMK SLP082 T02670100 57019 IEM_DS3505
ZBHH,2010-09-14 10:00,ZBHH 141000Z AUTO 15006KT 6SM 25/08 A2991 RMK T02500080 IEM_DS3505
ZBHH,2010-09-14 11:00,ZBHH 141100Z AUTO 13006KT 6SM 23/08 A2991 RMK T02300080 IEM_DS3505
ZBHH,2010-09-14 12:00,ZBHH 141200Z AUTO 11002KT 9SM 24/06 A2994 RMK SLP090 T02360064 52006 IEM_DS3505
ZBHH,2010-09-14 13:00,ZBHH 141300Z AUTO 03002KT 6SM 20/10 A2994 RMK T02000100 IEM_DS3505
ZBHH,2010-09-14 14:00,ZBHH 141400Z AUTO 05004KT 6SM 22/12 A2994 RMK T02200120 IEM_DS3505
ZBHH,2010-09-14 15:00,ZBHH 141500Z AUTO 07002KT 12SM 20/08 A2997 RMK SLP099 T01990076 52009 IEM_DS3505
ZBHH,2010-09-14 16:00,ZBHH 141600Z AUTO 03004KT 6SM 22/14 A2997 RMK T02200140 IEM_DS3505
ZBHH,2010-09-14 17:00,ZBHH 141700Z AUTO 06004KT 6SM 15/11 A2997 RMK T01500110 IEM_DS3505
ZBHH,2010-09-14 18:00,ZBHH 141800Z AUTO 04002KT 19SM 18/09 A2994 RMK SLP097 T01770088 57001 IEM_DS3505
ZBHH,2010-09-14 19:00,ZBHH 141900Z AUTO 04006KT 6SM 16/11 A2994 RMK T01600110 IEM_DS3505
ZBHH,2010-09-14 20:00,ZBHH 142000Z AUTO 03004KT 6SM 17/12 A2994 RMK T01700120 IEM_DS3505
ZBHH,2010-09-14 21:00,ZBHH 142100Z AUTO 07002KT 19SM 19/10 A2994 RMK SLP092 T01870105 57001 IEM_DS3505
ZBHH,2010-09-14 22:00,ZBHH 142200Z AUTO 05002KT 4SM 17/13 A2994 RMK T01700130 IEM_DS3505
ZBHH,2010-09-14 23:00,ZBHH 142300Z AUTO 03002KT 3SM 18/12 A2997 RMK T01800120 IEM_DS3505
ZBHH,2010-09-15 00:00,ZBHH 150000Z AUTO 07002KT 6SM 19/11 A2997 RMK SLP101 T01910112 52003 IEM_DS3505
ZBHH,2010-09-15 01:00,ZBHH 150100Z AUTO 00000KT 2 1/2SM 18/13 A2997 RMK T01800130 IEM_DS3505
ZBHH,2010-09-15 02:00,ZBHH 150200Z AUTO 14002KT 2SM 18/14 A2997 RMK T01800140 IEM_DS3505
ZBHH,2010-09-15 03:00,ZBHH 150300Z AUTO 04004KT 6SM 20/13 A2997 RMK SLP111 T01960128 52003 IEM_DS3505
ZBHH,2010-09-15 04:00,ZBHH 150400Z AUTO 00000KT 2 1/2SM 20/14 A2994 RMK T02000140 IEM_DS3505
ZBHH,2010-09-15 05:00,ZBHH 150500Z AUTO 15002KT 2 1/2SM 20/14 A2994 RMK T02000140 IEM_DS3505
ZBHH,2010-09-15 06:00,ZBHH 150600Z AUTO 07002KT 6SM 20/13 A2994 RMK 60000 SLP099 T02030133 57013 IEM_DS3505
ZBHH,2010-09-15 07:00,ZBHH 150700Z AUTO 08002KT 2 1/2SM 20/15 A2991 RMK T02000150 IEM_DS3505
ZBHH,2010-09-15 08:00,ZBHH 150800Z AUTO 05002KT 2 1/2SM 20/14 A2991 RMK T02000140 IEM_DS3505
ZBHH,2010-09-15 09:00,ZBHH 150900Z AUTO 04004KT 6SM 20/13 A2994 RMK SLP098 T02010131 54000 IEM_DS3505
ZBHH,2010-09-15 10:00,ZBHH 151000Z AUTO 04008KT 1 1/4SM 17/16 A2994 RMK T01700160 IEM_DS3505
ZBHH,2010-09-15 11:00,ZBHH 151100Z AUTO 07006KT 2 1/2SM 17/16 A2994 RMK T01700160 IEM_DS3505
ZBHH,2010-09-15 12:00,ZBHH 151200Z AUTO 07002KT 6SM 19/15 A2994 RMK SLP109 T01900147 52009 IEM_DS3505
ZBHH,2010-09-15 13:00,ZBHH 151300Z AUTO 07006KT 2 1/2SM 18/16 A2997 RMK T01800160 IEM_DS3505
ZBHH,2010-09-15 14:00,ZBHH 151400Z AUTO 08004KT 2 1/2SM 18/16 A2997 RMK T01800160 IEM_DS3505
ZBHH,2010-09-15 15:00,ZBHH 151500Z AUTO 09002KT 6SM 19/14 A2994 RMK SLP107 T01910144 57001 IEM_DS3505
ZBHH,2010-09-15 16:00,ZBHH 151600Z AUTO 08004KT 2 1/2SM 18/16 A2994 RMK T01800160 IEM_DS3505
ZBHH,2010-09-15 17:00,ZBHH 151700Z AUTO 04004KT 2 1/2SM 18/16 A2994 RMK T01800160 IEM_DS3505
ZBHH,2010-09-15 18:00,ZBHH 151800Z AUTO 36002KT 9SM 19/15 A2994 RMK SLP101 T01900149 57004 IEM_DS3505
ZBHH,2010-09-15 19:00,ZBHH 151900Z AUTO 10004KT 4SM 18/16 A2991 RMK T01800160 IEM_DS3505
ZBHH,2010-09-15 20:00,ZBHH 152000Z AUTO 07006KT 7SM 18/15 A2991 RMK T01800150 IEM_DS3505
ZBHH,2010-09-15 21:00,ZBHH 152100Z AUTO 09004KT 9SM 19/14 A2991 RMK 70000 SLP095 T01920145 57005 IEM_DS3505
ZBHH,2010-09-15 22:00,ZBHH 152200Z AUTO 08008KT 6SM 18/15 A2991 RMK T01800150 IEM_DS3505
ZBHH,2010-09-15 23:00,ZBHH 152300Z AUTO 09008KT 3SM 19/15 A2991 RMK T01900150 IEM_DS3505
ZBHH,2010-09-16 00:00,ZBHH 160000Z AUTO 07004KT 6SM 19/14 A2991 RMK 70000 SLP096 T01940144 57001 IEM_DS3505
ZBHH,2010-09-16 01:00,ZBHH 160100Z AUTO 09006KT 2 1/2SM 18/16 A2991 RMK T01800160 IEM_DS3505
ZBHH,2010-09-16 02:00,ZBHH 160200Z AUTO 11004KT 2SM 19/16 A2991 RMK T01900160 IEM_DS3505
ZBHH,2010-09-16 03:00,ZBHH 160300Z AUTO 34002KT 5SM 18/16 A2988 RMK SLP090 T01850159 57007 IEM_DS3505
ZBHH,2010-09-16 04:00,ZBHH 160400Z AUTO 10006KT 2SM 18/17 A2988 RMK T01800170 IEM_DS3505
ZBHH,2010-09-16 05:00,ZBHH 160500Z AUTO 07006KT 1 1/2SM 19/17 A2985 RMK T01900170 IEM_DS3505
ZBHH,2010-09-16 06:00,ZBHH 160600Z AUTO 07002KT 6SM 19/16 A2983 RMK 60004 SLP067 T01890163 57020 IEM_DS3505
ZBHH,2010-09-16 07:00,ZBHH 160700Z AUTO 02004KT 3SM 20/18 A2983 RMK T02000180 IEM_DS3505
ZBHH,2010-09-16 08:00,ZBHH 160800Z AUTO 04006KT 4SM 21/17 A2980 RMK T02100170 IEM_DS3505
ZBHH,2010-09-16 09:00,ZBHH 160900Z AUTO 04004KT 7SM 21/16 A2977 RMK SLP039 T02070165 57021 IEM_DS3505
ZBHH,2010-09-16 10:00,ZBHH 161000Z AUTO 36004KT 2 1/2SM 20/19 A2977 RMK T02000190 IEM_DS3505
ZBHH,2010-09-16 11:00,ZBHH 161100Z AUTO 36012KT 3SM 18/17 A2977 RMK T01800170 IEM_DS3505
ZBHH,2010-09-16 12:00,ZBHH 161200Z AUTO 32006KT 9SM 17/12 A2980 RMK 60020 SLP058 T01740125 52011 IEM_DS3505
ZBHH,2010-09-16 13:00,ZBHH 161300Z AUTO 03010KT 7SM 17/13 A2983 RMK T01700130 IEM_DS3505
ZBHH,2010-09-16 14:00,ZBHH 161400Z AUTO 02010KT 7SM 17/13 A2983 RMK T01700130 IEM_DS3505
ZBHH,2010-09-16 15:00,ZBHH 161500Z AUTO 32008KT 19SM 16/11 A2985 RMK SLP078 T01640111 52014 IEM_DS3505
ZBHH,2010-09-16 16:00,ZBHH 161600Z AUTO 01010KT 7SM 16/12 A2985 RMK T01600120 IEM_DS3505
ZBHH,2010-09-16 17:00,ZBHH 161700Z AUTO 01010KT 7SM 16/11 A2985 RMK T01600110 IEM_DS3505
ZBHH,2010-09-16 18:00,ZBHH 161800Z AUTO 29006KT 19SM 16/10 A2985 RMK SLP083 T01590098 52005 IEM_DS3505
ZBHH,2010-09-16 19:00,ZBHH 161900Z AUTO 01008KT 7SM 16/11 A2985 RMK T01600110 IEM_DS3505
ZBHH,2010-09-16 20:00,ZBHH 162000Z AUTO 02008KT 7SM 15/11 A2988 RMK T01500110 IEM_DS3505
ZBHH,2010-09-16 21:00,ZBHH 162100Z AUTO 27002KT 19SM 15/11 A2988 RMK 70022 SLP089 T01530107 52007 IEM_DS3505
ZBHH,2010-09-16 22:00,ZBHH 162200Z AUTO 06006KT 7SM 14/13 A2988 RMK T01400130 IEM_DS3505
ZBHH,2010-09-16 23:00,ZBHH 162300Z AUTO 07004KT 7SM 15/12 A2991 RMK T01500120 IEM_DS3505
ZBHH,2010-09-17 00:00,ZBHH 170000Z AUTO 27002KT 7SM 16/10 A2991 RMK 70023 SLP107 T01580103 52011 IEM_DS3505
ZBHH,2010-09-17 01:00,ZBHH 170100Z AUTO 36004KT 7SM 16/13 A2994 RMK T01600130 IEM_DS3505
ZBHH,2010-09-17 02:00,ZBHH 170200Z AUTO 01006KT 7SM 17/13 A2994 RMK T01700130 IEM_DS3505
ZBHH,2010-09-17 03:00,ZBHH 170300Z AUTO 34002KT 19SM 19/12 A2991 RMK SLP103 T01930116 52001 IEM_DS3505
ZBHH,2010-09-17 04:00,ZBHH 170400Z AUTO 10010KT 7SM 19/13 A2991 RMK T01900130 IEM_DS3505
ZBHH,2010-09-17 05:00,ZBHH 170500Z AUTO 11008KT 7SM 20/13 A2988 RMK T02000130 IEM_DS3505
ZBHH,2010-09-17 06:00,ZBHH 170600Z AUTO 11004KT 19SM 20/12 A2985 RMK SLP083 T02030125 57017 IEM_DS3505
ZBHH,2010-09-17 07:00,ZBHH 170700Z AUTO 11004KT 7SM 20/14 A2985 RMK T02000140 IEM_DS3505
ZBHH,2010-09-17 08:00,ZBHH 170800Z AUTO 09006KT 7SM 20/14 A2983 RMK T02000140 IEM_DS3505
ZBHH,2010-09-17 09:00,ZBHH 170900Z AUTO 07002KT 16SM 20/14 A2983 RMK SLP073 T02030137 57010 IEM_DS3505
ZBHH,2010-09-17 10:00,ZBHH 171000Z AUTO 09006KT 7SM 19/15 A2983 RMK T01900150 IEM_DS3505
ZBHH,2010-09-17 11:00,ZBHH 171100Z AUTO 07006KT 7SM 19/15 A2985 RMK T01900150 IEM_DS3505
ZBHH,2010-09-17 12:00,ZBHH 171200Z AUTO 27006KT 6SM 17/14 A2985 RMK 60028 SLP092 T01660141 52011 IEM_DS3505
ZBHH,2010-09-17 13:00,ZBHH 171300Z AUTO 36008KT 2 1/2SM 15/15 A2991 RMK T01500150 IEM_DS3505
ZBHH,2010-09-17 14:00,ZBHH 171400Z AUTO 04006KT 5SM 16/15 A2988 RMK T01600150 IEM_DS3505
ZBHH,2010-09-17 15:00,ZBHH 171500Z AUTO 27002KT 9SM 16/14 A2988 RMK SLP095 T01580143 52008 IEM_DS3505
ZBHH,2010-09-17 16:00,ZBHH 171600Z AUTO 06006KT 7SM 15/14 A2988 RMK T01500140 IEM_DS3505
ZBHH,2010-09-17 17:00,ZBHH 171700Z AUTO 04006KT 7SM 15/14 A2988 RMK T01500140 IEM_DS3505
ZBHH,2010-09-17 18:00,ZBHH 171800Z AUTO 25002KT 6SM 15/13 A2988 RMK 60126 SLP094 T01530128 54000 IEM_DS3505
ZBHH,2010-09-17 19:00,ZBHH 171900Z AUTO 34002KT 7SM 15/14 A2991 RMK T01500140 IEM_DS3505
ZBHH,2010-09-17 20:00,ZBHH 172000Z AUTO 00000KT 7SM 15/14 A2991 RMK T01500140 IEM_DS3505
ZBHH,2010-09-17 21:00,ZBHH 172100Z AUTO 27002KT 9SM 15/12 A2994 RMK 70152 SLP107 T01500116 52011 IEM_DS3505
ZBHH,2010-09-17 22:00,ZBHH 172200Z AUTO 00000KT 7SM 15/14 A2994 RMK T01500140 IEM_DS3505
ZBHH,2010-09-17 23:00,ZBHH 172300Z AUTO 12002KT 7SM 15/13 A2997 RMK T01500130 IEM_DS3505
ZBHH,2010-09-18 00:00,ZBHH 180000Z AUTO 00000KT 19SM 17/12 A2997 RMK 60000 70151 SLP127 T01700121 52014 IEM_DS3505
ZBHH,2010-09-18 01:00,ZBHH 180100Z AUTO 08004KT 7SM 18/12 A3000 RMK T01800120 IEM_DS3505
ZBHH,2010-09-18 02:00,ZBHH 180200Z AUTO 09012KT 7SM 19/12 A3000 RMK T01900120 IEM_DS3505
ZBHH,2010-09-18 03:00,ZBHH 180300Z AUTO 04004KT 12SM 19/10 A3000 RMK SLP136 T01900100 52010 IEM_DS3505
ZBHH,2010-09-18 04:00,ZBHH 180400Z AUTO 08016KT 7SM 20/12 A3000 RMK T02000120 IEM_DS3505
ZBHH,2010-09-18 05:00,ZBHH 180500Z AUTO 09012KT 7SM 21/12 A2997 RMK T02100120 IEM_DS3505
ZBHH,2010-09-18 06:00,ZBHH 180600Z AUTO 04004KT 12SM 23/12 A2997 RMK SLP111 T02260120 57016 IEM_DS3505
ZBHH,2010-09-18 07:00,ZBHH 180700Z AUTO 09008KT 7SM 23/12 A2994 RMK T02300120 IEM_DS3505
ZBHH,2010-09-18 08:00,ZBHH 180800Z AUTO 10006KT 7SM 25/14 A2994 RMK T02500140 IEM_DS3505
ZBHH,2010-09-18 09:00,ZBHH 180900Z AUTO 14002KT 19SM 22/12 A2994 RMK SLP110 T02210115 57002 IEM_DS3505
ZBHH,2010-09-18 10:00,ZBHH 181000Z AUTO 17004KT 7SM 22/16 A2997 RMK T02200160 IEM_DS3505
ZBHH,2010-09-18 11:00,ZBHH 181100Z AUTO 17002KT 7SM 22/17 A2997 RMK T02200170 IEM_DS3505
ZBHH,2010-09-18 12:00,ZBHH 181200Z AUTO 25002KT 19SM 19/13 A3000 RMK SLP125 T01910126 52011 IEM_DS3505
ZBHH,2010-09-18 13:00,ZBHH 181300Z AUTO 25002KT 6SM 17/14 A3000 RMK T01700140 IEM_DS3505
ZBHH,2010-09-18 14:00,ZBHH 181400Z AUTO 36004KT 6SM 16/13 A3000 RMK T01600130 IEM_DS3505
ZBHH,2010-09-18 15:00,ZBHH 181500Z AUTO 27002KT 19SM 17/13 A3000 RMK SLP127 T01660129 52001 IEM_DS3505
ZBHH,2010-09-18 16:00,ZBHH 181600Z AUTO 21002KT 6SM 14/13 A3000 RMK T01400130 IEM_DS3505
ZBHH,2010-09-18 17:00,ZBHH 181700Z AUTO 09004KT 6SM 14/12 A2997 RMK T01400120 IEM_DS3505
ZBHH,2010-09-18 18:00,ZBHH 181800Z AUTO 36002KT 19SM 15/12 A2997 RMK SLP111 T01520116 57010 IEM_DS3505
ZBHH,2010-09-18 19:00,ZBHH 181900Z AUTO 36002KT 7SM 15/12 A2994 RMK T01500120 IEM_DS3505
ZBHH,2010-09-18 20:00,ZBHH 182000Z AUTO 03002KT 7SM 14/12 A2994 RMK T01400120 IEM_DS3505
ZBHH,2010-09-18 21:00,ZBHH 182100Z AUTO 00000KT 19SM 15/12 A2994 RMK SLP106 T01520116 57005 IEM_DS3505
ZBHH,2010-09-18 22:00,ZBHH 182200Z AUTO 08002KT 7SM 14/12 A2994 RMK T01400120 IEM_DS3505
ZBHH,2010-09-18 23:00,ZBHH 182300Z AUTO 02002KT 7SM 14/12 A2994 RMK T01400120 IEM_DS3505
ZBHH,2010-09-19 00:00,ZBHH 190000Z AUTO 02002KT 19SM 17/11 A2997 RMK SLP116 T01710109 52006 IEM_DS3505
ZBHH,2010-09-19 01:00,ZBHH 190100Z AUTO 07002KT 6SM 18/13 A2997 RMK T01800130 IEM_DS3505
ZBHH,2010-09-19 02:00,ZBHH 190200Z AUTO 11004KT 7SM 20/11 A2997 RMK T02000110 IEM_DS3505
ZBHH,2010-09-19 03:00,ZBHH 190300Z AUTO 07002KT 16SM 22/12 A2994 RMK SLP104 T02150118 57007 IEM_DS3505
ZBHH,2010-09-19 04:00,ZBHH 190400Z AUTO 22004KT 7SM 22/12 A2991 RMK T02200120 IEM_DS3505
ZBHH,2010-09-19 05:00,ZBHH 190500Z AUTO 31004KT 7SM 23/13 A2991 RMK T02300130 IEM_DS3505
ZBHH,2010-09-19 06:00,ZBHH 190600Z AUTO 22004KT 19SM 25/13 A2988 RMK SLP083 T02460126 57015 IEM_DS3505
ZBHH,2010-09-19 07:00,ZBHH 190700Z AUTO 03002KT 7SM 24/14 A2988 RMK T02400140 IEM_DS3505
ZBHH,2010-09-19 08:00,ZBHH 190800Z AUTO 13002KT 7SM 24/14 A2985 RMK T02400140 IEM_DS3505
ZBHH,2010-09-19 09:00,ZBHH 190900Z AUTO 20004KT 12SM 24/12 A2985 RMK SLP072 T02440124 57010 IEM_DS3505
ZBHH,2010-09-19 10:00,ZBHH 191000Z AUTO 18004KT 6SM 22/15 A2985 RMK T02200150 IEM_DS3505
ZBHH,2010-09-19 11:00,ZBHH 191100Z AUTO 17002KT 7SM 20/15 A2988 RMK T02000150 IEM_DS3505
ZBHH,2010-09-19 12:00,ZBHH 191200Z AUTO 27002KT 12SM 22/14 A2988 RMK SLP085 T02180142 52010 IEM_DS3505
ZBHH,2010-09-19 13:00,ZBHH 191300Z AUTO 10004KT 7SM 18/16 A2991 RMK T01800160 IEM_DS3505
ZBHH,2010-09-19 14:00,ZBHH 191400Z AUTO 05004KT 7SM 17/15 A2991 RMK T01700150 IEM_DS3505
ZBHH,2010-09-19 15:00,ZBHH 191500Z AUTO 07002KT 16SM 19/15 A2991 RMK SLP086 T01890146 52004 IEM_DS3505
ZBHH,2010-09-19 16:00,ZBHH 191600Z AUTO 07004KT 7SM 16/15 A2988 RMK T01600150 IEM_DS3505
ZBHH,2010-09-19 17:00,ZBHH 191700Z AUTO 09004KT 7SM 16/15 A2988 RMK T01600150 IEM_DS3505
ZBHH,2010-09-19 18:00,ZBHH 191800Z AUTO 07002KT 19SM 18/14 A2991 RMK SLP080 T01830142 57001 IEM_DS3505
ZBHH,2010-09-19 19:00,ZBHH 191900Z AUTO 15004KT 7SM 17/16 A2988 RMK T01700160 IEM_DS3505
ZBHH,2010-09-19 20:00,ZBHH 192000Z AUTO 09002KT 7SM 17/15 A2988 RMK T01700150 IEM_DS3505
ZBHH,2010-09-19 21:00,ZBHH 192100Z AUTO 04002KT 12SM 18/14 A2985 RMK SLP067 T01780143 57013 IEM_DS3505
ZBHH,2010-09-19 22:00,ZBHH 192200Z AUTO 11004KT 5SM 17/15 A2985 RMK T01700150 IEM_DS3505
ZBHH,2010-09-19 23:00,ZBHH 192300Z AUTO 10006KT 5SM 18/15 A2985 RMK T01800150 IEM_DS3505
ZBHH,2010-09-20 00:00,ZBHH 200000Z AUTO 04004KT 9SM 19/13 A2985 RMK SLP071 T01930133 52002 IEM_DS3505
ZBHH,2010-09-20 01:00,ZBHH 200100Z AUTO 09012KT 4SM 18/14 A2988 RMK T01800140 IEM_DS3505
ZBHH,2010-09-20 02:00,ZBHH 200200Z AUTO 09010KT 4SM 18/15 A2988 RMK T01800150 IEM_DS3505
ZBHH,2010-09-20 03:00,ZBHH 200300Z AUTO 09006KT 9SM 18/15 A2988 RMK SLP080 T01800147 54000 IEM_DS3505
ZBHH,2010-09-20 04:00,ZBHH 200400Z AUTO 09012KT 7SM 17/14 A2985 RMK T01700140 IEM_DS3505
ZBHH,2010-09-20 05:00,ZBHH 200500Z AUTO 08014KT 3SM 16/15 A2983 RMK T01600150 IEM_DS3505
ZBHH,2010-09-20 06:00,ZBHH 200600Z AUTO 07004KT 6SM 16/14 A2977 RMK 60024 SLP056 T01590137 57026 IEM_DS3505
ZBHH,2010-09-20 07:00,ZBHH 200700Z AUTO 08016KT 4SM 15/13 A2974 RMK T01500130 IEM_DS3505
ZBHH,2010-09-20 08:00,ZBHH 200800Z AUTO 04012KT 3SM 15/14 A2977 RMK T01500140 IEM_DS3505
ZBHH,2010-09-20 09:00,ZBHH 200900Z AUTO 07004KT 5SM 15/14 A2977 RMK SLP055 T01540139 57003 IEM_DS3505
ZBHH,2010-09-20 10:00,ZBHH 201000Z AUTO 03006KT 2 1/2SM 14/13 A2980 RMK T01400130 IEM_DS3505
ZBHH,2010-09-20 11:00,ZBHH 201100Z AUTO 08014KT 7SM 14/12 A2977 RMK T01400120 IEM_DS3505
ZBHH,2010-09-20 12:00,ZBHH 201200Z AUTO 02006KT 4SM 14/11 A2983 RMK 60118 SLP078 T01390112 52020 IEM_DS3505
ZBHH,2010-09-20 13:00,ZBHH 201300Z AUTO 05017KT 7SM 13/09 A2985 RMK T01300090 IEM_DS3505
ZBHH,2010-09-20 14:00,ZBHH 201400Z AUTO 02004KT 7SM 13/10 A2991 RMK T01300100 IEM_DS3505
ZBHH,2010-09-20 15:00,ZBHH 201500Z AUTO 34002KT 12SM 13/08 A2997 RMK SLP130 T01320083 52042 IEM_DS3505
ZBHH,2010-09-20 16:00,ZBHH 201600Z AUTO 02010KT 7SM 12/09 A3000 RMK T01200090 IEM_DS3505
ZBHH,2010-09-20 17:00,ZBHH 201700Z AUTO 01010KT 7SM 12/08 A3003 RMK T01200080 IEM_DS3505
ZBHH,2010-09-20 18:00,ZBHH 201800Z AUTO 36002KT 6SM 11/07 A3006 RMK 60016 SLP179 T01110066 52035 IEM_DS3505
ZBHH,2010-09-20 19:00,ZBHH 201900Z AUTO 04012KT 7SM 11/07 A3009 RMK T01100070 IEM_DS3505
ZBHH,2010-09-20 20:00,ZBHH 202000Z AUTO 03010KT 7SM 10/08 A3012 RMK T01000080 IEM_DS3505
ZBHH,2010-09-20 21:00,ZBHH 202100Z AUTO 02002KT 12SM 11/07 RMK 70163 SLP208 T01110066 52025 IEM_DS3505
ZBHH,2010-09-20 22:00,ZBHH 202200Z AUTO 02006KT 7SM 11/06 A3021 RMK T01100060 IEM_DS3505
ZBHH,2010-09-20 23:00,ZBHH 202300Z AUTO 04008KT 7SM 11/06 A3021 RMK T01100060 IEM_DS3505
ZBHH,2010-09-21 00:00,ZBHH 210000Z AUTO 04006KT 12SM 12/05 A3027 RMK 60008 70163 SLP241 T01220049 52028 IEM_DS3505
ZBHH,2010-09-21 01:00,ZBHH 210100Z AUTO 05014KT 7SM 12/06 A3027 RMK T01200060 IEM_DS3505
ZBHH,2010-09-21 02:00,ZBHH 210200Z AUTO 03014KT 7SM 12/05 A3030 RMK T01200050 IEM_DS3505
ZBHH,2010-09-21 03:00,ZBHH 210300Z AUTO 07004KT 19SM 12/04 A3033 RMK SLP267 T01250042 52022 IEM_DS3505
ZBHH,2010-09-21 04:00,ZBHH 210400Z AUTO 05008KT 7SM 12/05 A3033 RMK T01200050 IEM_DS3505
ZBHH,2010-09-21 05:00,ZBHH 210500Z AUTO 04004KT 7SM 13/06 A3033 RMK T01300060 IEM_DS3505
ZBHH,2010-09-21 06:00,ZBHH 210600Z AUTO 36006KT 19SM 14/04 A3033 RMK SLP269 T01390037 52001 IEM_DS3505
ZBHH,2010-09-21 07:00,ZBHH 210700Z AUTO 33014KT 7SM 14/05 A3033 RMK T01400050 IEM_DS3505
ZBHH,2010-09-21 08:00,ZBHH 210800Z AUTO 35016KT 7SM 14/02 A3033 RMK T01400020 IEM_DS3505
ZBHH,2010-09-21 09:00,ZBHH 210900Z AUTO 36004KT 19SM 13/00 A3033 RMK SLP274 T01270001 52002 IEM_DS3505
ZBHH,2010-09-21 10:00,ZBHH 211000Z AUTO 01012KT 7SM 12/01 A3036 RMK T01200010 IEM_DS3505
ZBHH,2010-09-21 11:00,ZBHH 211100Z AUTO 01006KT 7SM 10/01 A3036 RMK T01000010 IEM_DS3505
ZBHH,2010-09-21 12:00,ZBHH 211200Z AUTO 32002KT 19SM 10/00 A3039 RMK SLP289 T00990005 52010 IEM_DS3505
ZBHH,2010-09-21 13:00,ZBHH 211300Z AUTO 05006KT 6SM 08/01 A3039 RMK T00800010 IEM_DS3505
ZBHH,2010-09-21 14:00,ZBHH 211400Z AUTO 01004KT 6SM 06/02 A3042 RMK T00600020 IEM_DS3505
ZBHH,2010-09-21 15:00,ZBHH 211500Z AUTO 00000KT 19SM 07/01 A3042 RMK SLP306 T00720013 52010 IEM_DS3505
ZBHH,2010-09-21 16:00,ZBHH 211600Z AUTO 32002KT 6SM 04/02 A3042 RMK T00400020 IEM_DS3505
ZBHH,2010-09-21 17:00,ZBHH 211700Z AUTO 07004KT 6SM 04/01 A3042 RMK T00400010 IEM_DS3505
ZBHH,2010-09-21 18:00,ZBHH 211800Z AUTO 34002KT 19SM 06/M00 A3039 RMK SLP304 T00581005 57002 IEM_DS3505
ZBHH,2010-09-21 19:00,ZBHH 211900Z AUTO 08002KT 6SM 03/00 A3039 RMK T00300000 IEM_DS3505
ZBHH,2010-09-21 20:00,ZBHH 212000Z AUTO 07004KT 6SM 02/00 A3039 RMK T00200000 IEM_DS3505
ZBHH,2010-09-21 21:00,ZBHH 212100Z AUTO 09002KT 19SM 04/00 A3039 RMK SLP304 T00390002 57006 IEM_DS3505
ZBHH,2010-09-21 22:00,ZBHH 212200Z AUTO 09004KT 6SM 01/00 A3039 RMK T00100000 IEM_DS3505
ZBHH,2010-09-21 23:00,ZBHH 212300Z AUTO 10002KT 6SM 02/01 A3039 RMK T00200010 IEM_DS3505
ZBHH,2010-09-22 00:00,ZBHH 220000Z AUTO 16002KT 16SM 06/02 A3039 RMK SLP310 T00640015 52004 IEM_DS3505
ZBHH,2010-09-22 01:00,ZBHH 220100Z AUTO 09002KT 6SM 07/01 A3039 RMK T00700010 IEM_DS3505
ZBHH,2010-09-22 02:00,ZBHH 220200Z AUTO 20006KT 6SM 10/01 A3039 RMK T01000010 IEM_DS3505
ZBHH,2010-09-22 03:00,ZBHH 220300Z AUTO 22002KT 12SM 11/01 A3036 RMK SLP296 T01110011 57008 IEM_DS3505
ZBHH,2010-09-22 04:00,ZBHH 220400Z AUTO 25006KT 6SM 12/02 A3033 RMK T01200020 IEM_DS3505
ZBHH,2010-09-22 05:00,ZBHH 220500Z AUTO 23008KT 6SM 14/02 A3030 RMK T01400020 IEM_DS3505
ZBHH,2010-09-22 06:00,ZBHH 220600Z AUTO 25006KT 19SM 16/01 A3027 RMK SLP257 T01550009 57028 IEM_DS3505
ZBHH,2010-09-22 07:00,ZBHH 220700Z AUTO 23008KT 7SM 16/03 A3024 RMK T01600030 IEM_DS3505
ZBHH,2010-09-22 08:00,ZBHH 220800Z AUTO 25008KT 7SM 16/03 A3024 RMK T01600030 IEM_DS3505
ZBHH,2010-09-22 09:00,ZBHH 220900Z AUTO 22006KT 16SM 16/02 A3021 RMK SLP239 T01620022 57018 IEM_DS3505
ZBHH,2010-09-22 10:00,ZBHH 221000Z AUTO 22006KT 7SM 14/05 A3021 RMK T01400050 IEM_DS3505
ZBHH,2010-09-22 11:00,ZBHH 221100Z AUTO 13004KT 7SM 12/06 A3024 RMK T01200060 IEM_DS3505
ZBHH,2010-09-22 12:00,ZBHH 221200Z AUTO 27002KT 19SM 13/04 A3024 RMK SLP246 T01340040 52005 IEM_DS3505
ZBHH,2010-09-22 13:00,ZBHH 221300Z AUTO 05004KT 6SM 10/06 A3024 RMK T01000060 IEM_DS3505
ZBHH,2010-09-22 14:00,ZBHH 221400Z AUTO 05004KT 6SM 08/06 A3024 RMK T00800060 IEM_DS3505
ZBHH,2010-09-22 15:00,ZBHH 221500Z AUTO 07002KT 19SM 10/04 A3024 RMK SLP249 T01000042 52005 IEM_DS3505
ZBHH,2010-09-22 16:00,ZBHH 221600Z AUTO 04004KT 6SM 07/05 A3024 RMK T00700050 IEM_DS3505
ZBHH,2010-09-22 17:00,ZBHH 221700Z AUTO 11006KT 6SM 06/05 A3024 RMK T00600050 IEM_DS3505
ZBHH,2010-09-22 18:00,ZBHH 221800Z AUTO 02002KT 19SM 08/04 A3024 RMK SLP241 T00780038 57002 IEM_DS3505
ZBHH,2010-09-22 19:00,ZBHH 221900Z AUTO 07004KT 6SM 05/04 A3024 RMK T00500040 IEM_DS3505
ZBHH,2010-09-22 20:00,ZBHH 222000Z AUTO 07004KT 6SM 05/04 A3024 RMK T00500040 IEM_DS3505
ZBHH,2010-09-22 21:00,ZBHH 222100Z AUTO 07002KT 19SM 06/04 A3024 RMK SLP241 T00630036 57002 IEM_DS3505
ZBHH,2010-09-22 22:00,ZBHH 222200Z AUTO 05006KT 6SM 05/04 A3024 RMK T00500040 IEM_DS3505
ZBHH,2010-09-22 23:00,ZBHH 222300Z AUTO 03002KT 6SM 05/04 A3024 RMK T00500040 IEM_DS3505
ZBHH,2010-09-23 00:00,ZBHH 230000Z AUTO 00000KT 19SM 09/05 A3024 RMK SLP243 T00930051 52002 IEM_DS3505
ZBHH,2010-09-23 01:00,ZBHH 230100Z AUTO 07002KT 6SM 11/06 A3024 RMK T01100060 IEM_DS3505
ZBHH,2010-09-23 02:00,ZBHH 230200Z AUTO 17002KT 6SM 13/06 A3024 RMK T01300060 IEM_DS3505
ZBHH,2010-09-23 03:00,ZBHH 230300Z AUTO 22002KT 12SM 15/05 A3021 RMK SLP227 T01520051 57009 IEM_DS3505
ZBHH,2010-09-23 04:00,ZBHH 230400Z AUTO 20002KT 7SM 15/04 A3018 RMK T01500040 IEM_DS3505
ZBHH,2010-09-23 05:00,ZBHH 230500Z AUTO 25006KT 7SM 17/04 A3015 RMK T01700040 IEM_DS3505
ZBHH,2010-09-23 06:00,ZBHH 230600Z AUTO 18004KT 12SM 18/04 A3012 RMK SLP192 T01840038 57029 IEM_DS3505
ZBHH,2010-09-23 07:00,ZBHH 230700Z AUTO 24006KT 7SM 17/02 A3009 RMK T01700020 IEM_DS3505
ZBHH,2010-09-23 08:00,ZBHH 230800Z AUTO 25006KT 7SM 17/01 A3009 RMK T01700010 IEM_DS3505
ZBHH,2010-09-23 09:00,ZBHH 230900Z AUTO 20006KT 19SM 19/01 A3006 RMK SLP174 T01910011 57017 IEM_DS3505
ZBHH,2010-09-23 10:00,ZBHH 231000Z AUTO 19006KT 6SM 18/06 A3006 RMK T01800060 IEM_DS3505
ZBHH,2010-09-23 11:00,ZBHH 231100Z AUTO 19004KT 6SM 14/05 A3006 RMK T01400050 IEM_DS3505
ZBHH,2010-09-23 12:00,ZBHH 231200Z AUTO 32002KT 19SM 15/04 A3009 RMK SLP180 T01510039 52003 IEM_DS3505
ZBHH,2010-09-23 13:00,ZBHH 231300Z AUTO 07006KT 6SM 10/07 A3009 RMK T01000070 IEM_DS3505
ZBHH,2010-09-23 14:00,ZBHH 231400Z AUTO 07004KT 6SM 09/06 A3009 RMK T00900060 IEM_DS3505
ZBHH,2010-09-23 15:00,ZBHH 231500Z AUTO 11002KT 19SM 10/06 A3009 RMK SLP181 T01000058 52003 IEM_DS3505
ZBHH,2010-09-23 16:00,ZBHH 231600Z AUTO 07006KT 6SM 08/06 A3009 RMK T00800060 IEM_DS3505
ZBHH,2010-09-23 17:00,ZBHH 231700Z AUTO 06004KT 6SM 08/05 A3009 RMK T00800050 IEM_DS3505
ZBHH,2010-09-23 18:00,ZBHH 231800Z AUTO 00000KT 19SM 08/04 A3009 RMK SLP177 T00830045 57001 IEM_DS3505
ZBHH,2010-09-23 19:00,ZBHH 231900Z AUTO 07004KT 6SM 07/05 A3009 RMK T00700050 IEM_DS3505
ZBHH,2010-09-23 20:00,ZBHH 232000Z AUTO 07004KT 6SM 07/05 A3006 RMK T00700050 IEM_DS3505
ZBHH,2010-09-23 21:00,ZBHH 232100Z AUTO 09002KT 19SM 07/04 A3006 RMK SLP175 T00680041 57003 IEM_DS3505
ZBHH,2010-09-23 22:00,ZBHH 232200Z AUTO 05006KT 7SM 06/04 A3006 RMK T00600040 IEM_DS3505
ZBHH,2010-09-23 23:00,ZBHH 232300Z AUTO 07002KT 7SM 07/04 A3006 RMK T00700040 IEM_DS3505
ZBHH,2010-09-24 00:00,ZBHH 240000Z AUTO 00000KT 19SM 10/06 A3006 RMK SLP178 T01050055 52002 IEM_DS3505
ZBHH,2010-09-24 01:00,ZBHH 240100Z AUTO 08004KT 6SM 12/06 A3009 RMK T01200060 IEM_DS3505
ZBHH,2010-09-24 02:00,ZBHH 240200Z AUTO 17002KT 6SM 16/07 A3006 RMK T01600070 IEM_DS3505
ZBHH,2010-09-24 03:00,ZBHH 240300Z AUTO 16004KT 19SM 16/04 A3006 RMK SLP170 T01610042 57006 IEM_DS3505
ZBHH,2010-09-24 04:00,ZBHH 240400Z AUTO 25006KT 6SM 18/08 A3003 RMK T01800080 IEM_DS3505
ZBHH,2010-09-24 05:00,ZBHH 240500Z AUTO 25008KT 7SM 17/05 A3003 RMK T01700050 IEM_DS3505
ZBHH,2010-09-24 06:00,ZBHH 240600Z AUTO 22004KT 16SM 18/05 A3000 RMK SLP147 T01810053 57020 IEM_DS3505
ZBHH,2010-09-24 07:00,ZBHH 240700Z AUTO 24006KT 7SM 19/09 A2997 RMK T01900090 IEM_DS3505
ZBHH,2010-09-24 08:00,ZBHH 240800Z AUTO 23008KT 7SM 19/09 A2997 RMK T01900090 IEM_DS3505
ZBHH,2010-09-24 09:00,ZBHH 240900Z AUTO 27004KT 16SM 18/07 A2997 RMK SLP140 T01850070 57008 IEM_DS3505
ZBHH,2010-09-24 10:00,ZBHH 241000Z AUTO 25004KT 7SM 19/11 A2997 RMK T01900110 IEM_DS3505
ZBHH,2010-09-24 11:00,ZBHH 241100Z AUTO 18002KT 5SM 16/10 A2997 RMK T01600100 IEM_DS3505
ZBHH,2010-09-24 12:00,ZBHH 241200Z AUTO 22004KT 12SM 17/07 A2997 RMK SLP141 T01720070 52005 IEM_DS3505
ZBHH,2010-09-24 13:00,ZBHH 241300Z AUTO 21008KT 7SM 15/09 A3000 RMK T01500090 IEM_DS3505
ZBHH,2010-09-24 14:00,ZBHH 241400Z AUTO 21008KT 7SM 14/09 A3003 RMK T01400090 IEM_DS3505
ZBHH,2010-09-24 15:00,ZBHH 241500Z AUTO 22004KT 12SM 14/06 A3003 RMK SLP149 T01450058 52013 IEM_DS3505
ZBHH,2010-09-24 16:00,ZBHH 241600Z AUTO 22006KT 7SM 12/08 A3003 RMK T01200080 IEM_DS3505
ZBHH,2010-09-24 17:00,ZBHH 241700Z AUTO 19002KT 7SM 11/07 A3003 RMK T01100070 IEM_DS3505
ZBHH,2010-09-24 18:00,ZBHH 241800Z AUTO 14002KT 19SM 12/05 A3003 RMK SLP154 T01170053 52003 IEM_DS3505
ZBHH,2010-09-24 19:00,ZBHH 241900Z AUTO 15002KT 7SM 10/06 A3003 RMK T01000060 IEM_DS3505
ZBHH,2010-09-24 20:00,ZBHH 242000Z AUTO 08002KT 7SM 10/08 A3003 RMK T01000080 IEM_DS3505
ZBHH,2010-09-24 21:00,ZBHH 242100Z AUTO 07002KT 19SM 10/06 A3003 RMK SLP154 T00970059 57003 IEM_DS3505
ZBHH,2010-09-24 22:00,ZBHH 242200Z AUTO 06004KT 7SM 10/08 A3003 RMK T01000080 IEM_DS3505
ZBHH,2010-09-24 23:00,ZBHH 242300Z AUTO 36002KT 4SM 10/07 A3003 RMK T01000070 IEM_DS3505
ZBHH,2010-09-25 00:00,ZBHH 250000Z AUTO 27002KT 12SM 12/06 A3006 RMK SLP162 T01160059 52008 IEM_DS3505
ZBHH,2010-09-25 01:00,ZBHH 250100Z AUTO 23006KT 4SM 12/07 A3006 RMK T01200070 IEM_DS3505
ZBHH,2010-09-25 02:00,ZBHH 250200Z AUTO 23004KT 4SM 13/07 A3006 RMK T01300070 IEM_DS3505
ZBHH,2010-09-25 03:00,ZBHH 250300Z AUTO 27002KT 12SM 15/06 A3003 RMK SLP160 T01480064 57001 IEM_DS3505
ZBHH,2010-09-25 04:00,ZBHH 250400Z AUTO 23008KT 4SM 16/09 A3003 RMK T01600090 IEM_DS3505
ZBHH,2010-09-25 05:00,ZBHH 250500Z AUTO 26006KT 4SM 17/10 A3000 RMK T01700100 IEM_DS3505
ZBHH,2010-09-25 06:00,ZBHH 250600Z AUTO 22004KT 5SM 15/10 A3000 RMK 60002 SLP150 T01490105 57014 IEM_DS3505
ZBHH,2010-09-25 07:00,ZBHH 250700Z AUTO 19006KT 5SM 17/12 A2997 RMK T01700120 IEM_DS3505
ZBHH,2010-09-25 08:00,ZBHH 250800Z AUTO 34012KT 7SM 18/02 A3000 RMK T01800020 IEM_DS3505
ZBHH,2010-09-25 09:00,ZBHH 250900Z AUTO 32008KT 12SM 18/M00 A3000 RMK SLP147 T01831005 54000 IEM_DS3505
ZBHH,2010-09-25 10:00,ZBHH 251000Z AUTO 33010KT 7SM 16/M01 A3003 RMK T01601010 IEM_DS3505
ZBHH,2010-09-25 11:00,ZBHH 251100Z AUTO 35008KT 7SM 14/M03 A3003 RMK T01401030 IEM_DS3505
ZBHH,2010-09-25 12:00,ZBHH 251200Z AUTO 32006G19KT 19SM 13/M07 A3009 RMK 60000 SLP179 T01311070 52022 IEM_DS3505
ZBHH,2010-09-25 13:00,ZBHH 251300Z AUTO 34010KT 6SM 11/M06 A3009 RMK T01101060 IEM_DS3505
ZBHH,2010-09-25 14:00,ZBHH 251400Z AUTO 07004KT 6SM 09/M05 A3012 RMK T00901050 IEM_DS3505
ZBHH,2010-09-25 15:00,ZBHH 251500Z AUTO 27002KT 19SM 10/M08 A3015 RMK SLP202 T01051077 52021 IEM_DS3505
ZBHH,2010-09-25 16:00,ZBHH 251600Z AUTO 06004KT 6SM 09/M07 A3015 RMK T00901070 IEM_DS3505
ZBHH,2010-09-25 17:00,ZBHH 251700Z AUTO 07006KT 6SM 04/M02 A3018 RMK T00401020 IEM_DS3505
ZBHH,2010-09-25 18:00,ZBHH 251800Z AUTO 27002KT 19SM 05/M03 A3018 RMK SLP224 T00521026 52009 IEM_DS3505
ZBHH,2010-09-25 19:00,ZBHH 251900Z AUTO 06004KT 6SM 03/M01 A3018 RMK T00301010 IEM_DS3505
ZBHH,2010-09-25 20:00,ZBHH 252000Z AUTO 05004KT 6SM 02/M01 A3018 RMK T00201010 IEM_DS3505
ZBHH,2010-09-25 21:00,ZBHH 252100Z AUTO 34002KT 19SM 04/M01 A3018 RMK 70003 SLP223 T00351014 52003 IEM_DS3505
ZBHH,2010-09-25 22:00,ZBHH 252200Z AUTO 06004KT 6SM 01/M02 A3018 RMK T00101020 IEM_DS3505
ZBHH,2010-09-25 23:00,ZBHH 252300Z AUTO 07006KT 6SM 01/M01 A3021 RMK T00101010 IEM_DS3505
ZBHH,2010-09-26 00:00,ZBHH 260000Z AUTO 09002KT 19SM 08/M01 A3021 RMK 70003 SLP234 T00821013 52009 IEM_DS3505
ZBHH,2010-09-26 01:00,ZBHH 260100Z AUTO 11002KT 6SM 09/M02 A3021 RMK T00901020 IEM_DS3505
ZBHH,2010-09-26 02:00,ZBHH 260200Z AUTO 07002KT 6SM 12/M03 A3021 RMK T01201030 IEM_DS3505
ZBHH,2010-09-26 03:00,ZBHH 260300Z AUTO 16002KT 19SM 13/M07 A3018 RMK SLP223 T01281067 57006 IEM_DS3505
ZBHH,2010-09-26 04:00,ZBHH 260400Z AUTO 25006KT 6SM 15/M04 A3018 RMK T01501040 IEM_DS3505
ZBHH,2010-09-26 05:00,ZBHH 260500Z AUTO 25006KT 6SM 16/M04 A3015 RMK T01601040 IEM_DS3505
ZBHH,2010-09-26 06:00,ZBHH 260600Z AUTO 22008KT 19SM 16/M06 A3012 RMK SLP202 T01561060 57024 IEM_DS3505
ZBHH,2010-09-26 07:00,ZBHH 260700Z AUTO 22008KT 6SM 16/M07 A3009 RMK T01601070 IEM_DS3505
ZBHH,2010-09-26 08:00,ZBHH 260800Z AUTO 25012KT 6SM 17/M07 A3006 RMK T01701070 IEM_DS3505
ZBHH,2010-09-26 09:00,ZBHH 260900Z AUTO 22008KT 19SM 16/M07 A3006 RMK SLP185 T01611069 57017 IEM_DS3505
ZBHH,2010-09-26 10:00,ZBHH 261000Z AUTO 24012KT 6SM 15/M03 A3006 RMK T01501030 IEM_DS3505
ZBHH,2010-09-26 11:00,ZBHH 261100Z AUTO 22004KT 6SM 12/M02 A3006 RMK T01201020 IEM_DS3505
ZBHH,2010-09-26 12:00,ZBHH 261200Z AUTO 29002KT 16SM 11/M04 A3006 RMK SLP186 T01131036 52001 IEM_DS3505
ZBHH,2010-09-26 13:00,ZBHH 261300Z AUTO 06004KT 6SM 07/02 A3009 RMK T00700020 IEM_DS3505
ZBHH,2010-09-26 14:00,ZBHH 261400Z AUTO 07004KT 6SM 07/02 A3009 RMK T00700020 IEM_DS3505
ZBHH,2010-09-26 15:00,ZBHH 261500Z AUTO 04002KT 16SM 09/M02 A3009 RMK SLP193 T00911016 52011 IEM_DS3505
ZBHH,2010-09-26 16:00,ZBHH 261600Z AUTO 02006KT 6SM 07/00 A3012 RMK T00700000 IEM_DS3505
ZBHH,2010-09-26 17:00,ZBHH 261700Z AUTO 34008KT 6SM 09/M01 A3012 RMK T00901010 IEM_DS3505
ZBHH,2010-09-26 18:00,ZBHH 261800Z AUTO 32006KT 19SM 10/M07 A3012 RMK SLP196 T00951068 52009 IEM_DS3505
ZBHH,2010-09-26 19:00,ZBHH 261900Z AUTO 36012KT 6SM 08/M06 A3012 RMK T00801060 IEM_DS3505
ZBHH,2010-09-26 20:00,ZBHH 262000Z AUTO 36008KT 6SM 07/M06 A3015 RMK T00701060 IEM_DS3505
ZBHH,2010-09-26 21:00,ZBHH 262100Z AUTO 29004KT 19SM 07/M08 A3015 RMK SLP212 T00681083 52009 IEM_DS3505
ZBHH,2010-09-26 22:00,ZBHH 262200Z AUTO 31008KT 6SM 05/M06 A3018 RMK T00501060 IEM_DS3505
ZBHH,2010-09-26 23:00,ZBHH 262300Z AUTO 32012KT 6SM 05/M06 A3018 RMK T00501060 IEM_DS3505
ZBHH,2010-09-27 00:00,ZBHH 270000Z AUTO 36008KT 19SM 06/M09 A3021 RMK SLP243 T00611094 52017 IEM_DS3505
ZBHH,2010-09-27 01:00,ZBHH 270100Z AUTO 33014KT 6SM 07/M08 A3021 RMK T00701080 IEM_DS3505
ZBHH,2010-09-27 02:00,ZBHH 270200Z AUTO 34010KT 6SM 09/M08 A3021 RMK T00901080 IEM_DS3505
ZBHH,2010-09-27 03:00,ZBHH 270300Z AUTO 32008KT 19SM 11/M10 A3021 RMK SLP232 T01131096 57004 IEM_DS3505
ZBHH,2010-09-27 04:00,ZBHH 270400Z AUTO 33008KT 6SM 12/M11 A3018 RMK T01201110 IEM_DS3505
ZBHH,2010-09-27 05:00,ZBHH 270500Z AUTO 36010KT 6SM 14/M08 A3018 RMK T01401080 IEM_DS3505
ZBHH,2010-09-27 06:00,ZBHH 270600Z AUTO 32006KT 16SM 15/M12 A3018 RMK SLP213 T01471117 57009 IEM_DS3505
ZBHH,2010-09-27 07:00,ZBHH 270700Z AUTO 33010KT 6SM 15/M11 A3015 RMK T01501110 IEM_DS3505
ZBHH,2010-09-27 08:00,ZBHH 270800Z AUTO 35012KT 6SM 15/M10 A3015 RMK T01501100 IEM_DS3505
ZBHH,2010-09-27 09:00,ZBHH 270900Z AUTO 34004KT 16SM 15/M11 A3018 RMK SLP222 T01461109 52002 IEM_DS3505
ZBHH,2010-09-27 10:00,ZBHH 271000Z AUTO 36010KT 6SM 12/M10 A3018 RMK T01201100 IEM_DS3505
ZBHH,2010-09-27 11:00,ZBHH 271100Z AUTO 35008KT 6SM 10/M09 A3024 RMK T01001090 IEM_DS3505
ZBHH,2010-09-27 12:00,ZBHH 271200Z AUTO 36004KT 19SM 10/M11 A3024 RMK SLP257 T01001113 52020 IEM_DS3505
ZBHH,2010-09-27 13:00,ZBHH 271300Z AUTO 11004KT 6SM 06/M06 A3027 RMK T00601060 IEM_DS3505
ZBHH,2010-09-27 14:00,ZBHH 271400Z AUTO 07008KT 6SM 07/M08 A3027 RMK T00701080 IEM_DS3505
ZBHH,2010-09-27 15:00,ZBHH 271500Z AUTO 07006KT 19SM 08/M11 A3030 RMK SLP269 T00791109 52017 IEM_DS3505
ZBHH,2010-09-27 16:00,ZBHH 271600Z AUTO 06004KT 6SM 05/M07 A3030 RMK T00501070 IEM_DS3505
ZBHH,2010-09-27 17:00,ZBHH 271700Z AUTO 03006KT 6SM 04/M06 A3030 RMK T00401060 IEM_DS3505
ZBHH,2010-09-27 18:00,ZBHH 271800Z AUTO 11002KT 19SM 04/M08 A3030 RMK SLP271 T00351085 54000 IEM_DS3505
ZBHH,2010-09-27 19:00,ZBHH 271900Z AUTO 08002KT 6SM 02/M06 A3030 RMK T00201060 IEM_DS3505
ZBHH,2010-09-27 20:00,ZBHH 272000Z AUTO 03002KT 6SM 02/M06 A3033 RMK T00201060 IEM_DS3505
ZBHH,2010-09-27 21:00,ZBHH 272100Z AUTO 36002KT 19SM 03/M07 A3033 RMK SLP285 T00301067 52011 IEM_DS3505
ZBHH,2010-09-27 22:00,ZBHH 272200Z AUTO 05006KT 6SM 00/M06 A3033 RMK T00001060 IEM_DS3505
ZBHH,2010-09-27 23:00,ZBHH 272300Z AUTO 11002KT 6SM 01/M06 A3036 RMK T00101060 IEM_DS3505
ZBHH,2010-09-28 00:00,ZBHH 280000Z AUTO 36002KT 19SM 05/M08 A3033 RMK SLP295 T00531075 52004 IEM_DS3505
ZBHH,2010-09-28 01:00,ZBHH 280100Z AUTO 10006KT 6SM 07/M05 A3033 RMK T00701050 IEM_DS3505
ZBHH,2010-09-28 02:00,ZBHH 280200Z AUTO 09006KT 6SM 09/M08 A3033 RMK T00901080 IEM_DS3505
ZBHH,2010-09-28 03:00,ZBHH 280300Z AUTO 16002KT 19SM 11/M10 A3030 RMK SLP274 T01061102 57012 IEM_DS3505
ZBHH,2010-09-28 04:00,ZBHH 280400Z AUTO 21002KT 6SM 14/M07 A3027 RMK T01401070 IEM_DS3505
ZBHH,2010-09-28 05:00,ZBHH 280500Z AUTO 6SM 13/M07 A3024 RMK T01301070 IEM_DS3505
ZBHH,2010-09-28 06:00,ZBHH 280600Z AUTO 22004KT 19SM 14/M11 A3021 RMK SLP248 T01401107 57025 IEM_DS3505
ZBHH,2010-09-28 07:00,ZBHH 280700Z AUTO 24002KT 6SM 15/M08 A3018 RMK T01501080 IEM_DS3505
ZBHH,2010-09-28 08:00,ZBHH 280800Z AUTO 27004KT 6SM 15/M07 A3018 RMK T01501070 IEM_DS3505
ZBHH,2010-09-28 09:00,ZBHH 280900Z AUTO 25002KT 16SM 16/M07 A3018 RMK SLP232 T01561073 57012 IEM_DS3505
ZBHH,2010-09-28 10:00,ZBHH 281000Z AUTO 22004KT 6SM 13/M05 A3021 RMK T01301050 IEM_DS3505
ZBHH,2010-09-28 11:00,ZBHH 281100Z AUTO 17002KT 6SM 10/M04 A3021 RMK T01001040 IEM_DS3505
ZBHH,2010-09-28 12:00,ZBHH 281200Z AUTO 25002KT 19SM 11/M04 A3024 RMK SLP249 T01061042 52010 IEM_DS3505
ZBHH,2010-09-28 13:00,ZBHH 281300Z AUTO 05006KT 6SM 07/M02 A3024 RMK T00701020 IEM_DS3505
ZBHH,2010-09-28 14:00,ZBHH 281400Z AUTO 07006KT 6SM 06/M01 A3024 RMK T00601010 IEM_DS3505
ZBHH,2010-09-28 15:00,ZBHH 281500Z AUTO 07002KT 19SM 07/M03 A3024 RMK SLP253 T00671030 52006 IEM_DS3505
ZBHH,2010-09-28 16:00,ZBHH 281600Z AUTO 04004KT 6SM 06/M01 A3024 RMK T00601010 IEM_DS3505
ZBHH,2010-09-28 17:00,ZBHH 281700Z AUTO 07004KT 6SM 04/M01 A3024 RMK T00401010 IEM_DS3505
ZBHH,2010-09-28 18:00,ZBHH 281800Z AUTO 09002KT 19SM 04/M01 A3024 RMK SLP248 T00441010 57002 IEM_DS3505
ZBHH,2010-09-28 19:00,ZBHH 281900Z AUTO 10004KT 6SM 03/M02 A3021 RMK T00301020 IEM_DS3505
ZBHH,2010-09-28 20:00,ZBHH 282000Z AUTO 08004KT 6SM 02/M01 A3021 RMK T00201010 IEM_DS3505
ZBHH,2010-09-28 21:00,ZBHH 282100Z AUTO 07002KT 19SM 03/M02 A3021 RMK SLP241 T00291022 57006 IEM_DS3505
ZBHH,2010-09-28 22:00,ZBHH 282200Z AUTO 06004KT 6SM 02/M02 A3021 RMK T00201020 IEM_DS3505
ZBHH,2010-09-28 23:00,ZBHH 282300Z AUTO 06004KT 6SM 01/M02 A3021 RMK T00101020 IEM_DS3505
ZBHH,2010-09-29 00:00,ZBHH 290000Z AUTO 09002KT 16SM 07/M02 A3024 RMK SLP250 T00681019 52006 IEM_DS3505
ZBHH,2010-09-29 01:00,ZBHH 290100Z AUTO 11002KT 6SM 09/M01 A3024 RMK T00901010 IEM_DS3505
ZBHH,2010-09-29 02:00,ZBHH 290200Z AUTO 16002KT 6SM 11/00 A3021 RMK T01100000 IEM_DS3505
ZBHH,2010-09-29 03:00,ZBHH 290300Z AUTO 25004KT 19SM 13/M02 A3021 RMK SLP234 T01301021 57010 IEM_DS3505
ZBHH,2010-09-29 04:00,ZBHH 290400Z AUTO 25008KT 6SM 15/04 A3018 RMK T01500040 IEM_DS3505
ZBHH,2010-09-29 05:00,ZBHH 290500Z AUTO 24008KT 7SM 16/05 A3015 RMK T01600050 IEM_DS3505
ZBHH,2010-09-29 06:00,ZBHH 290600Z AUTO 18006KT 19SM 16/04 A3012 RMK SLP204 T01640041 57024 IEM_DS3505
ZBHH,2010-09-29 07:00,ZBHH 290700Z AUTO 23006KT 7SM 17/05 A3009 RMK T01700050 IEM_DS3505
ZBHH,2010-09-29 08:00,ZBHH 290800Z AUTO 23010KT 7SM 17/05 A3009 RMK T01700050 IEM_DS3505
ZBHH,2010-09-29 09:00,ZBHH 290900Z AUTO 20006KT 19SM 16/06 A3009 RMK SLP203 T01620055 57004 IEM_DS3505
ZBHH,2010-09-29 10:00,ZBHH 291000Z AUTO 23010KT 6SM 14/07 A3012 RMK T01400070 IEM_DS3505
ZBHH,2010-09-29 11:00,ZBHH 291100Z AUTO 21004KT 6SM 12/07 A3012 RMK T01200070 IEM_DS3505
ZBHH,2010-09-29 12:00,ZBHH 291200Z AUTO 25002KT 19SM 13/07 A3015 RMK SLP213 T01290071 52010 IEM_DS3505
ZBHH,2010-09-29 13:00,ZBHH 291300Z AUTO 07002KT 6SM 10/08 A3015 RMK T01000080 IEM_DS3505
ZBHH,2010-09-29 14:00,ZBHH 291400Z AUTO 17002KT 5SM 11/08 A3015 RMK T01100080 IEM_DS3505
ZBHH,2010-09-29 15:00,ZBHH 291500Z AUTO 22002KT 19SM 12/08 A3015 RMK SLP208 T01200079 52006 IEM_DS3505
ZBHH,2010-09-29 16:00,ZBHH 291600Z AUTO 13002KT 4SM 10/08 A3015 RMK T01000080 IEM_DS3505
ZBHH,2010-09-29 17:00,ZBHH 291700Z AUTO 12002KT 4SM 10/08 A3015 RMK T01000080 IEM_DS3505
ZBHH,2010-09-29 18:00,ZBHH 291800Z AUTO 18002KT 12SM 10/08 A3018 RMK SLP207 T01010077 52002 IEM_DS3505
ZBHH,2010-09-29 19:00,ZBHH 291900Z AUTO 12002KT 4SM 10/08 A3015 RMK T01000080 IEM_DS3505
ZBHH,2010-09-29 20:00,ZBHH 292000Z AUTO 11002KT 4SM 10/09 A3015 RMK T01000090 IEM_DS3505
ZBHH,2010-09-29 21:00,ZBHH 292100Z AUTO 25002KT 12SM 11/08 A3015 RMK SLP203 T01100080 57002 IEM_DS3505
ZBHH,2010-09-29 22:00,ZBHH 292200Z AUTO 03002KT 3SM 10/09 A3015 RMK T01000090 IEM_DS3505
ZBHH,2010-09-29 23:00,ZBHH 292300Z AUTO 11002KT 2 1/2SM 10/09 A3015 RMK T01000090 IEM_DS3505
ZBHH,2010-09-30 00:00,ZBHH 300000Z AUTO 22002KT 9SM 11/08 A3018 RMK SLP217 T01120081 52006 IEM_DS3505
ZBHH,2010-09-30 01:00,ZBHH 300100Z AUTO 24004KT 2 1/2SM 11/09 A3018 RMK T01100090 IEM_DS3505
ZBHH,2010-09-30 02:00,ZBHH 300200Z AUTO 24002KT 2SM 12/09 A3018 RMK T01200090 IEM_DS3505
ZBHH,2010-09-30 03:00,ZBHH 300300Z AUTO 20002KT 4SM 13/08 A3018 RMK SLP214 T01300083 57001 IEM_DS3505
ZBHH,2010-09-30 04:00,ZBHH 300400Z AUTO 3SM 14/09 A3015 RMK T01400090 IEM_DS3505
ZBHH,2010-09-30 05:00,ZBHH 300500Z AUTO 22004KT 2 1/2SM 14/09 A3015 RMK T01400090 IEM_DS3505
ZBHH,2010-09-30 06:00,ZBHH 300600Z AUTO 22004KT 6SM 15/08 A3012 RMK SLP199 T01480083 57013 IEM_DS3505
ZBHH,2010-09-30 07:00,ZBHH 300700Z AUTO 22006KT 3SM 15/09 A3012 RMK T01500090 IEM_DS3505
ZBHH,2010-09-30 08:00,ZBHH 300800Z AUTO 24006KT 4SM 15/09 A3012 RMK T01500090 IEM_DS3505
ZBHH,2010-09-30 09:00,ZBHH 300900Z AUTO 25004KT 9SM 16/09 A3009 RMK SLP184 T01570087 57010 IEM_DS3505
ZBHH,2010-09-30 10:00,ZBHH 301000Z AUTO 00000KT 4SM 15/10 A3012 RMK T01500100 IEM_DS3505
ZBHH,2010-09-30 11:00,ZBHH 301100Z AUTO 05004KT 4SM 13/10 A3012 RMK T01300100 IEM_DS3505
ZBHH,2010-09-30 12:00,ZBHH 301200Z AUTO 04002KT 12SM 13/09 A3012 RMK SLP199 T01330086 52009 IEM_DS3505
ZBHH,2010-09-30 13:00,ZBHH 301300Z AUTO 06004KT 3SM 11/09 A3015 RMK T01100090 IEM_DS3505
ZBHH,2010-09-30 14:00,ZBHH 301400Z AUTO 05004KT 3SM 10/09 A3015 RMK T01000090 IEM_DS3505
ZBHH,2010-09-30 15:00,ZBHH 301500Z AUTO 09002KT 12SM 12/08 A3012 RMK SLP198 T01180085 54000 IEM_DS3505
ZBHH,2010-09-30 16:00,ZBHH 301600Z AUTO 01002KT 3SM 11/09 A3015 RMK T01100090 IEM_DS3505
ZBHH,2010-09-30 17:00,ZBHH 301700Z AUTO 35006KT 4SM 11/10 A3015 RMK T01100100 IEM_DS3505
ZBHH,2010-09-30 18:00,ZBHH 301800Z AUTO 27004KT 19SM 13/07 A3015 RMK 60008 SLP194 T01300070 52002 IEM_DS3505
ZBHH,2010-09-30 19:00,ZBHH 301900Z AUTO 10002KT 2 1/2SM 10/10 A3015 RMK T01000100 IEM_DS3505
ZBHH,2010-09-30 20:00,ZBHH 302000Z AUTO 28004KT 2 1/2SM 10/09 A3012 RMK T01000090 IEM_DS3505
ZBHH,2010-09-30 21:00,ZBHH 302100Z AUTO 29002KT 19SM 11/08 A3015 RMK 70009 SLP199 T01130085 52003 IEM_DS3505
ZBHH,2010-09-30 22:00,ZBHH 302200Z AUTO 02004KT 2 1/2SM 10/09 A3015 RMK T01000090 IEM_DS3505
ZBHH,2010-09-30 23:00,ZBHH 302300Z AUTO 34006KT 7SM 11/08 A3015 RMK T01100080 IEM_DS3505
ZBHH,2010-10-01 00:00,ZBHH 010000Z AUTO 00000KT 7SM 10/08 A3015 RMK 60002 70011 SLP210 T01050077 52003 IEM_DS3505
ZBHH,2010-10-01 01:00,ZBHH 010100Z AUTO 04008KT 7SM 11/07 A3015 RMK T01100070 IEM_DS3505
ZBHH,2010-10-01 02:00,ZBHH 010200Z AUTO 31002KT 7SM 11/08 A3015 RMK T01100080 IEM_DS3505
ZBHH,2010-10-01 03:00,ZBHH 010300Z AUTO 09002KT 7SM 11/08 A3018 RMK SLP217 T01070083 52004 IEM_DS3505
ZBHH,2010-10-01 04:00,ZBHH 010400Z AUTO 35002KT 4SM 10/09 A3015 RMK T01000090 IEM_DS3505
ZBHH,2010-10-01 05:00,ZBHH 010500Z AUTO 31002KT 5SM 10/09 A3015 RMK T01000090 IEM_DS3505
ZBHH,2010-10-01 06:00,ZBHH 010600Z AUTO 34002KT 7SM 11/08 A3012 RMK 60024 SLP199 T01110080 57013 IEM_DS3505
ZBHH,2010-10-01 07:00,ZBHH 010700Z AUTO 09002KT 7SM 11/08 A3009 RMK T01100080 IEM_DS3505
ZBHH,2010-10-01 08:00,ZBHH 010800Z AUTO 34002KT 7SM 12/06 A3009 RMK T01200060 IEM_DS3505
ZBHH,2010-10-01 09:00,ZBHH 010900Z AUTO 18002KT 12SM 12/06 A3009 RMK SLP190 T01250061 57008 IEM_DS3505
ZBHH,2010-10-01 10:00,ZBHH 011000Z AUTO 14002KT 7SM 11/08 A3012 RMK T01100080 IEM_DS3505
ZBHH,2010-10-01 11:00,ZBHH 011100Z AUTO 30006KT 7SM 10/09 A3012 RMK T01000090 IEM_DS3505
ZBHH,2010-10-01 12:00,ZBHH 011200Z AUTO 32008KT 6SM 08/04 A3015 RMK 60004 SLP223 T00850043 52019 IEM_DS3505
ZBHH,2010-10-01 13:00,ZBHH 011300Z AUTO 34010KT 7SM 08/05 A3015 RMK T00800050 IEM_DS3505
ZBHH,2010-10-01 14:00,ZBHH 011400Z AUTO 11002KT 7SM 08/05 A3018 RMK T00800050 IEM_DS3505
ZBHH,2010-10-01 15:00,ZBHH 011500Z AUTO 02002KT 12SM 08/04 A3018 RMK SLP228 T00840038 52005 IEM_DS3505
ZBHH,2010-10-01 16:00,ZBHH 011600Z AUTO 20002KT 7SM 08/05 A3018 RMK T00800050 IEM_DS3505
ZBHH,2010-10-01 17:00,ZBHH 011700Z AUTO 30006KT 7SM 08/05 A3018 RMK T00800050 IEM_DS3505
ZBHH,2010-10-01 18:00,ZBHH 011800Z AUTO 27004KT 16SM 09/03 A3018 RMK 60012 SLP225 T00870029 57001 IEM_DS3505
ZBHH,2010-10-01 19:00,ZBHH 011900Z AUTO 33010KT 7SM 08/04 A3018 RMK T00800040 IEM_DS3505
ZBHH,2010-10-01 20:00,ZBHH 012000Z AUTO 34010KT 7SM 07/03 A3015 RMK T00700030 IEM_DS3505
ZBHH,2010-10-01 21:00,ZBHH 012100Z AUTO 22004KT 19SM 08/04 A3015 RMK 70038 SLP217 T00790041 57006 IEM_DS3505
ZBHH,2010-10-01 22:00,ZBHH 012200Z AUTO 24004KT 7SM 07/05 A3015 RMK T00700050 IEM_DS3505
ZBHH,2010-10-01 23:00,ZBHH 012300Z AUTO 21004KT 7SM 06/06 A3018 RMK T00600060 IEM_DS3505
ZBHH,2010-10-02 00:00,ZBHH 020000Z AUTO 29004KT 19SM 08/02 A3018 RMK 70036 SLP235 T00830015 52008 IEM_DS3505
ZBHH,2010-10-02 01:00,ZBHH 020100Z AUTO 32010KT 7SM 09/03 A3018 RMK T00900030 IEM_DS3505
ZBHH,2010-10-02 02:00,ZBHH 020200Z AUTO 33010KT 7SM 09/02 A3018 RMK T00900020 IEM_DS3505
ZBHH,2010-10-02 03:00,ZBHH 020300Z AUTO 29004KT 16SM 10/01 A3018 RMK SLP232 T01010010 52001 IEM_DS3505
ZBHH,2010-10-02 04:00,ZBHH 020400Z AUTO 34012KT 7SM 12/01 A3018 RMK T01200010 IEM_DS3505
ZBHH,2010-10-02 05:00,ZBHH 020500Z AUTO 34014G23KT 7SM 12/01 A3018 RMK T01200010 IEM_DS3505
ZBHH,2010-10-02 06:00,ZBHH 020600Z AUTO 29008KT 19SM 12/M00 A3018 RMK SLP229 T01171001 52001 IEM_DS3505
ZBHH,2010-10-02 07:00,ZBHH 020700Z AUTO 35017KT 7SM 11/02 A3018 RMK T01100020 IEM_DS3505
ZBHH,2010-10-02 08:00,ZBHH 020800Z AUTO 33016G25KT 7SM 11/01 A3018 RMK T01100010 IEM_DS3505
ZBHH,2010-10-02 09:00,ZBHH 020900Z AUTO 02006KT 19SM 12/M00 A3021 RMK SLP234 T01181004 52003 IEM_DS3505
ZBHH,2010-10-02 10:00,ZBHH 021000Z AUTO 34010KT 7SM 11/00 A3021 RMK T01100000 IEM_DS3505
ZBHH,2010-10-02 11:00,ZBHH 021100Z AUTO 35006KT 7SM 10/01 A3024 RMK T01000010 IEM_DS3505
ZBHH,2010-10-02 12:00,ZBHH 021200Z AUTO 34002KT 19SM 10/M01 A3024 RMK SLP253 T00981010 52014 IEM_DS3505
ZBHH,2010-10-02 13:00,ZBHH 021300Z AUTO 34006KT 7SM 09/01 A3024 RMK T00900010 IEM_DS3505
ZBHH,2010-10-02 14:00,ZBHH 021400Z AUTO 34004KT 7SM 09/02 A3027 RMK T00900020 IEM_DS3505
ZBHH,2010-10-02 15:00,ZBHH 021500Z AUTO 02004KT 19SM 10/M01 A3027 RMK SLP255 T00971014 52005 IEM_DS3505
ZBHH,2010-10-02 16:00,ZBHH 021600Z AUTO 29002KT 7SM 08/01 A3027 RMK T00800010 IEM_DS3505
ZBHH,2010-10-02 17:00,ZBHH 021700Z AUTO 31004KT 6SM 07/00 A3027 RMK T00700000 IEM_DS3505
ZBHH,2010-10-02 18:00,ZBHH 021800Z AUTO 22002KT 19SM 07/M02 A3024 RMK SLP252 T00741015 57004 IEM_DS3505
ZBHH,2010-10-02 19:00,ZBHH 021900Z AUTO 30006KT 6SM 06/00 A3027 RMK T00600000 IEM_DS3505
ZBHH,2010-10-02 20:00,ZBHH 022000Z AUTO 29004KT 7SM 06/M01 A3024 RMK T00601010 IEM_DS3505
ZBHH,2010-10-02 21:00,ZBHH 022100Z AUTO 32002KT 19SM 06/M02 A3027 RMK SLP259 T00561020 52003 IEM_DS3505
ZBHH,2010-10-02 22:00,ZBHH 022200Z AUTO 02004KT 6SM 05/M01 A3027 RMK T00501010 IEM_DS3505
ZBHH,2010-10-02 23:00,ZBHH 022300Z AUTO 33012KT 6SM 06/00 A3027 RMK T00600000 IEM_DS3505
ZBHH,2010-10-03 00:00,ZBHH 030000Z AUTO 32004KT 19SM 08/M02 A3030 RMK SLP269 T00821022 52010 IEM_DS3505
ZBHH,2010-10-03 01:00,ZBHH 030100Z AUTO 33014KT 6SM 09/M01 A3027 RMK T00901010 IEM_DS3505
ZBHH,2010-10-03 02:00,ZBHH 030200Z AUTO 31012KT 7SM 11/01 A3030 RMK T01100010 IEM_DS3505
ZBHH,2010-10-03 03:00,ZBHH 030300Z AUTO 02006KT 16SM 13/M02 A3027 RMK SLP257 T01341025 57001 IEM_DS3505
ZBHH,2010-10-03 04:00,ZBHH 030400Z AUTO 33010KT 7SM 14/M02 A3027 RMK T01401020 IEM_DS3505
ZBHH,2010-10-03 05:00,ZBHH 030500Z AUTO 36010KT 7SM 15/M01 A3024 RMK T01501010 IEM_DS3505
ZBHH,2010-10-03 06:00,ZBHH 030600Z AUTO 34006KT 19SM 16/M02 A3024 RMK SLP240 T01551024 57015 IEM_DS3505
ZBHH,2010-10-03 07:00,ZBHH 030700Z AUTO 34012KT 7SM 16/M01 A3021 RMK T01601010 IEM_DS3505
ZBHH,2010-10-03 08:00,ZBHH 030800Z AUTO 33010KT 7SM 16/M01 A3021 RMK T01601010 IEM_DS3505
ZBHH,2010-10-03 09:00,ZBHH 030900Z AUTO 36006KT 19SM 16/M03 A3021 RMK SLP235 T01591026 57007 IEM_DS3505
ZBHH,2010-10-03 10:00,ZBHH 031000Z AUTO 34006KT 7SM 14/00 A3021 RMK T01400000 IEM_DS3505
ZBHH,2010-10-03 11:00,ZBHH 031100Z AUTO 00000KT 7SM 11/01 A3021 RMK T01100010 IEM_DS3505
ZBHH,2010-10-03 12:00,ZBHH 031200Z AUTO 04002KT 19SM 10/01 A3024 RMK SLP247 T01020011 52004 IEM_DS3505
ZBHH,2010-10-03 13:00,ZBHH 031300Z AUTO 04006KT 6SM 07/02 A3024 RMK T00700020 IEM_DS3505
ZBHH,2010-10-03 14:00,ZBHH 031400Z AUTO 00000KT 6SM 07/02 A3024 RMK T00700020 IEM_DS3505
ZBHH,2010-10-03 15:00,ZBHH 031500Z AUTO 16002KT 19SM 07/02 A3024 RMK SLP245 T00690018 52002 IEM_DS3505
ZBHH,2010-10-03 16:00,ZBHH 031600Z AUTO 08002KT 6SM 05/02 A3024 RMK T00500020 IEM_DS3505
ZBHH,2010-10-03 17:00,ZBHH 031700Z AUTO 10002KT 6SM 04/02 A3024 RMK T00400020 IEM_DS3505
ZBHH,2010-10-03 18:00,ZBHH 031800Z AUTO 07002KT 19SM 04/02 A3024 RMK SLP244 T00440016 57001 IEM_DS3505
ZBHH,2010-10-03 19:00,ZBHH 031900Z AUTO 02002KT 6SM 03/01 A3024 RMK T00300010 IEM_DS3505
ZBHH,2010-10-03 20:00,ZBHH 032000Z AUTO 09006KT 6SM 02/01 A3021 RMK T00200010 IEM_DS3505
ZBHH,2010-10-03 21:00,ZBHH 032100Z AUTO 07002KT 19SM 03/00 A3021 RMK SLP243 T00330005 57003 IEM_DS3505
ZBHH,2010-10-03 22:00,ZBHH 032200Z AUTO 02002KT 6SM 02/01 A3024 RMK T00200010 IEM_DS3505
ZBHH,2010-10-03 23:00,ZBHH 032300Z AUTO 00000KT 6SM 02/01 A3024 RMK T00200010 IEM_DS3505
ZBHH,2010-10-04 00:00,ZBHH 040000Z AUTO 07002KT 19SM 07/02 A3027 RMK SLP260 T00720015 52012 IEM_DS3505
ZBHH,2010-10-04 01:00,ZBHH 040100Z AUTO 10002KT 6SM 09/04 A3027 RMK T00900040 IEM_DS3505
ZBHH,2010-10-04 02:00,ZBHH 040200Z AUTO 13002KT 6SM 11/04 A3027 RMK T01100040 IEM_DS3505
ZBHH,2010-10-04 03:00,ZBHH 040300Z AUTO 27002KT 19SM 13/02 A3024 RMK SLP248 T01260016 57007 IEM_DS3505
ZBHH,2010-10-04 04:00,ZBHH 040400Z AUTO 19004KT 6SM 14/02 A3021 RMK T01400020 IEM_DS3505
ZBHH,2010-10-04 05:00,ZBHH 040500Z AUTO 26004KT 6SM 15/03 A3018 RMK T01500030 IEM_DS3505
ZBHH,2010-10-04 06:00,ZBHH 040600Z AUTO 29004KT 19SM 17/02 A3015 RMK SLP215 T01680024 57025 IEM_DS3505
ZBHH,2010-10-04 07:00,ZBHH 040700Z AUTO 27004KT 6SM 17/04 A3012 RMK T01700040 IEM_DS3505
ZBHH,2010-10-04 08:00,ZBHH 040800Z AUTO 24006KT 6SM 18/04 A3012 RMK T01800040 IEM_DS3505
ZBHH,2010-10-04 09:00,ZBHH 040900Z AUTO 22004KT 19SM 19/03 A3009 RMK SLP190 T01930026 57020 IEM_DS3505
ZBHH,2010-10-04 10:00,ZBHH 041000Z AUTO 11002KT 6SM 16/06 A3009 RMK T01600060 IEM_DS3505
ZBHH,2010-10-04 11:00,ZBHH 041100Z AUTO 35002KT 6SM 14/09 A3009 RMK T01400090 IEM_DS3505
ZBHH,2010-10-04 12:00,ZBHH 041200Z AUTO 00000KT 19SM 12/06 A3012 RMK SLP205 T01190058 52007 IEM_DS3505
ZBHH,2010-10-04 13:00,ZBHH 041300Z AUTO 06006KT 6SM 11/06 A3012 RMK T01100060 IEM_DS3505
ZBHH,2010-10-04 14:00,ZBHH 041400Z AUTO 07004KT 6SM 09/06 A3012 RMK T00900060 IEM_DS3505
ZBHH,2010-10-04 15:00,ZBHH 041500Z AUTO 07002KT 19SM 08/05 A3012 RMK SLP206 T00840053 52004 IEM_DS3505
ZBHH,2010-10-04 16:00,ZBHH 041600Z AUTO 14004KT 6SM 07/05 A3012 RMK T00700050 IEM_DS3505
ZBHH,2010-10-04 17:00,ZBHH 041700Z AUTO 04002KT 6SM 07/05 A3012 RMK T00700050 IEM_DS3505
ZBHH,2010-10-04 18:00,ZBHH 041800Z AUTO 07002KT 19SM 07/04 A3012 RMK SLP199 T00700041 54000 IEM_DS3505
ZBHH,2010-10-04 19:00,ZBHH 041900Z AUTO 10006KT 6SM 05/03 A3012 RMK T00500030 IEM_DS3505
ZBHH,2010-10-04 20:00,ZBHH 042000Z AUTO 08004KT 6SM 05/04 A3012 RMK T00500040 IEM_DS3505
ZBHH,2010-10-04 21:00,ZBHH 042100Z AUTO 04002KT 19SM 05/02 A3012 RMK SLP193 T00510025 57004 IEM_DS3505
ZBHH,2010-10-04 22:00,ZBHH 042200Z AUTO 10004KT 6SM 04/03 A3012 RMK T00400030 IEM_DS3505
ZBHH,2010-10-04 23:00,ZBHH 042300Z AUTO 08002KT 6SM 04/03 A3012 RMK T00400030 IEM_DS3505
ZBHH,2010-10-05 00:00,ZBHH 050000Z AUTO 09002KT 16SM 08/03 A3012 RMK SLP209 T00800033 52005 IEM_DS3505
ZBHH,2010-10-05 01:00,ZBHH 050100Z AUTO 11004KT 6SM 10/05 A3012 RMK T01000050 IEM_DS3505
ZBHH,2010-10-05 02:00,ZBHH 050200Z AUTO 13002KT 6SM 13/04 A3012 RMK T01300040 IEM_DS3505
ZBHH,2010-10-05 03:00,ZBHH 050300Z AUTO 09002KT 19SM 14/02 A3009 RMK SLP193 T01430025 57009 IEM_DS3505
ZBHH,2010-10-05 04:00,ZBHH 050400Z AUTO 23004KT 6SM 16/04 A3009 RMK T01600040 IEM_DS3505
ZBHH,2010-10-05 05:00,ZBHH 050500Z AUTO 24006KT 6SM 17/04 A3003 RMK T01700040 IEM_DS3505
ZBHH,2010-10-05 06:00,ZBHH 050600Z AUTO 27004KT 19SM 19/02 A3000 RMK SLP155 T01880018 57027 IEM_DS3505
ZBHH,2010-10-05 07:00,ZBHH 050700Z AUTO 23010KT 6SM 20/02 A2997 RMK T02000020 IEM_DS3505
ZBHH,2010-10-05 08:00,ZBHH 050800Z AUTO 24010KT 6SM 20/01 A2997 RMK T02000010 IEM_DS3505
ZBHH,2010-10-05 09:00,ZBHH 050900Z AUTO 25004KT 19SM 20/M00 A2997 RMK SLP135 T02041003 57018 IEM_DS3505
ZBHH,2010-10-05 10:00,ZBHH 051000Z AUTO 25004KT 6SM 18/05 A2994 RMK T01800050 IEM_DS3505
ZBHH,2010-10-05 11:00,ZBHH 051100Z AUTO 05002KT 6SM 14/05 A2997 RMK T01400050 IEM_DS3505
ZBHH,2010-10-05 12:00,ZBHH 051200Z AUTO 16002KT 19SM 12/05 A2997 RMK SLP157 T01240046 52009 IEM_DS3505
ZBHH,2010-10-05 13:00,ZBHH 051300Z AUTO 05006KT 6SM 10/05 A3000 RMK T01000050 IEM_DS3505
ZBHH,2010-10-05 14:00,ZBHH 051400Z AUTO 04004KT 6SM 11/07 A3003 RMK T01100070 IEM_DS3505
ZBHH,2010-10-05 15:00,ZBHH 051500Z AUTO 09002KT 19SM 10/04 A3003 RMK SLP161 T01000044 52011 IEM_DS3505
ZBHH,2010-10-05 16:00,ZBHH 051600Z AUTO 07006KT 6SM 07/04 A3003 RMK T00700040 IEM_DS3505
ZBHH,2010-10-05 17:00,ZBHH 051700Z AUTO 04004KT 6SM 07/04 A3003 RMK T00700040 IEM_DS3505
ZBHH,2010-10-05 18:00,ZBHH 051800Z AUTO 00000KT 19SM 07/04 A3003 RMK SLP160 T00720042 52003 IEM_DS3505
ZBHH,2010-10-05 19:00,ZBHH 051900Z AUTO 04006KT 6SM 07/04 A3003 RMK T00700040 IEM_DS3505
ZBHH,2010-10-05 20:00,ZBHH 052000Z AUTO 07006KT 6SM 06/04 A3003 RMK T00600040 IEM_DS3505
ZBHH,2010-10-05 21:00,ZBHH 052100Z AUTO 00000KT 19SM 06/04 A3003 RMK SLP160 T00590037 54000 IEM_DS3505
ZBHH,2010-10-05 22:00,ZBHH 052200Z AUTO 07006KT 6SM 05/03 A3003 RMK T00500030 IEM_DS3505
ZBHH,2010-10-05 23:00,ZBHH 052300Z AUTO 08004KT 6SM 05/03 A3003 RMK T00500030 IEM_DS3505
ZBHH,2010-10-06 00:00,ZBHH 060000Z AUTO 09002KT 16SM 09/05 A3006 RMK SLP179 T00870049 52007 IEM_DS3505
ZBHH,2010-10-06 01:00,ZBHH 060100Z AUTO 07004KT 6SM 12/06 A3006 RMK T01200060 IEM_DS3505
ZBHH,2010-10-06 02:00,ZBHH 060200Z AUTO 36002KT 6SM 16/05 A3006 RMK T01600050 IEM_DS3505
ZBHH,2010-10-06 03:00,ZBHH 060300Z AUTO 18002KT 19SM 17/04 A3006 RMK SLP165 T01740040 54000 IEM_DS3505
ZBHH,2010-10-06 04:00,ZBHH 060400Z AUTO 16002KT 6SM 18/04 A3003 RMK T01800040 IEM_DS3505
ZBHH,2010-10-06 05:00,ZBHH 060500Z AUTO 6SM 19/04 A3000 RMK T01900040 IEM_DS3505
ZBHH,2010-10-06 06:00,ZBHH 060600Z AUTO 36002KT 19SM 21/02 A2997 RMK SLP141 T02070025 57020 IEM_DS3505
ZBHH,2010-10-06 07:00,ZBHH 060700Z AUTO 26008KT 6SM 21/04 A2997 RMK T02100040 IEM_DS3505
ZBHH,2010-10-06 08:00,ZBHH 060800Z AUTO 24006KT 6SM 22/04 A2997 RMK T02200040 IEM_DS3505
ZBHH,2010-10-06 09:00,ZBHH 060900Z AUTO 18004KT 19SM 22/03 A2994 RMK SLP129 T02190026 57011 IEM_DS3505
ZBHH,2010-10-06 10:00,ZBHH 061000Z AUTO 16002KT 6SM 18/06 A2997 RMK T01800060 IEM_DS3505
ZBHH,2010-10-06 11:00,ZBHH 061100Z AUTO 04004KT 6SM 14/08 A2997 RMK T01400080 IEM_DS3505
ZBHH,2010-10-06 12:00,ZBHH 061200Z AUTO 00000KT 19SM 14/06 A2997 RMK SLP152 T01400064 52010 IEM_DS3505
ZBHH,2010-10-06 13:00,ZBHH 061300Z AUTO 07006KT 6SM 13/06 A3000 RMK T01300060 IEM_DS3505
ZBHH,2010-10-06 14:00,ZBHH 061400Z AUTO 06004KT 6SM 13/06 A3003 RMK T01300060 IEM_DS3505
ZBHH,2010-10-06 15:00,ZBHH 061500Z AUTO 07002KT 19SM 12/06 A3003 RMK SLP151 T01170056 52012 IEM_DS3505
ZBHH,2010-10-06 16:00,ZBHH 061600Z AUTO 06006KT 6SM 10/05 A3003 RMK T01000050 IEM_DS3505
ZBHH,2010-10-06 17:00,ZBHH 061700Z AUTO 06004KT 6SM 09/05 A3003 RMK T00900050 IEM_DS3505
ZBHH,2010-10-06 18:00,ZBHH 061800Z AUTO 36002KT 19SM 09/05 A3003 RMK SLP147 T00920052 57002 IEM_DS3505
ZBHH,2010-10-06 19:00,ZBHH 061900Z AUTO 07006KT 6SM 08/05 A3000 RMK T00800050 IEM_DS3505
ZBHH,2010-10-06 20:00,ZBHH 062000Z AUTO 07006KT 6SM 08/04 A3000 RMK T00800040 IEM_DS3505
ZBHH,2010-10-06 21:00,ZBHH 062100Z AUTO 36002KT 19SM 07/05 A3000 RMK SLP149 T00740052 54000 IEM_DS3505
ZBHH,2010-10-06 22:00,ZBHH 062200Z AUTO 06006KT 6SM 07/04 A3003 RMK T00700040 IEM_DS3505
ZBHH,2010-10-06 23:00,ZBHH 062300Z AUTO 07004KT 6SM 07/04 A3003 RMK T00700040 IEM_DS3505
ZBHH,2010-10-07 00:00,ZBHH 070000Z AUTO 09002KT 9SM 10/06 A3006 RMK SLP173 T01010057 52011 IEM_DS3505
ZBHH,2010-10-07 01:00,ZBHH 070100Z AUTO 07004KT 6SM 14/06 A3006 RMK T01400060 IEM_DS3505
ZBHH,2010-10-07 02:00,ZBHH 070200Z AUTO 08004KT 6SM 17/03 A3006 RMK T01700030 IEM_DS3505
ZBHH,2010-10-07 03:00,ZBHH 070300Z AUTO 04002KT 19SM 18/02 A3006 RMK SLP158 T01840023 57001 IEM_DS3505
ZBHH,2010-10-07 04:00,ZBHH 070400Z AUTO 28002KT 6SM 20/03 A3003 RMK T02000030 IEM_DS3505
ZBHH,2010-10-07 05:00,ZBHH 070500Z AUTO 6SM 21/03 A3000 RMK T02100030 IEM_DS3505
ZBHH,2010-10-07 06:00,ZBHH 070600Z AUTO 22002KT 19SM 22/03 A2997 RMK SLP132 T02190031 57021 IEM_DS3505
ZBHH,2010-10-07 07:00,ZBHH 070700Z AUTO 26004KT 6SM 23/03 A2997 RMK T02300030 IEM_DS3505
ZBHH,2010-10-07 08:00,ZBHH 070800Z AUTO 24006KT 6SM 23/03 A2997 RMK T02300030 IEM_DS3505
ZBHH,2010-10-07 09:00,ZBHH 070900Z AUTO 25004KT 19SM 23/02 A2997 RMK SLP128 T02270022 57006 IEM_DS3505
ZBHH,2010-10-07 10:00,ZBHH 071000Z AUTO 35002KT 5SM 20/05 A2997 RMK T02000050 IEM_DS3505
ZBHH,2010-10-07 11:00,ZBHH 071100Z AUTO 02006KT 4SM 16/07 A2997 RMK T01600070 IEM_DS3505
ZBHH,2010-10-07 12:00,ZBHH 071200Z AUTO 32002KT 12SM 14/06 A3000 RMK SLP149 T01420061 52008 IEM_DS3505
ZBHH,2010-10-07 13:00,ZBHH 071300Z AUTO 07004KT 6SM 14/05 A3000 RMK T01400050 IEM_DS3505
ZBHH,2010-10-07 14:00,ZBHH 071400Z AUTO 05006KT 6SM 13/05 A3000 RMK T01300050 IEM_DS3505
ZBHH,2010-10-07 15:00,ZBHH 071500Z AUTO 04002KT 16SM 12/06 A3000 RMK SLP146 T01160055 52008 IEM_DS3505
ZBHH,2010-10-07 16:00,ZBHH 071600Z AUTO 06004KT 6SM 12/05 A3000 RMK T01200050 IEM_DS3505
ZBHH,2010-10-07 17:00,ZBHH 071700Z AUTO 05006KT 6SM 11/06 A3000 RMK T01100060 IEM_DS3505
ZBHH,2010-10-07 18:00,ZBHH 071800Z AUTO 04002KT 19SM 10/06 A3000 RMK SLP138 T01030055 57003 IEM_DS3505
ZBHH,2010-10-07 19:00,ZBHH 071900Z AUTO 07004KT 6SM 10/05 A3000 RMK T01000050 IEM_DS3505
ZBHH,2010-10-07 20:00,ZBHH 072000Z AUTO 07004KT 6SM 09/05 A3000 RMK T00900050 IEM_DS3505
ZBHH,2010-10-07 21:00,ZBHH 072100Z AUTO 07002KT 19SM 08/06 A3000 RMK SLP141 T00840055 52001 IEM_DS3505
ZBHH,2010-10-07 22:00,ZBHH 072200Z AUTO 05006KT 6SM 08/04 A3000 RMK T00800040 IEM_DS3505
ZBHH,2010-10-07 23:00,ZBHH 072300Z AUTO 07004KT 6SM 09/04 A3000 RMK T00900040 IEM_DS3505
ZBHH,2010-10-08 00:00,ZBHH 080000Z AUTO 34002KT 12SM 10/06 A3000 RMK SLP158 T01050059 52002 IEM_DS3505
ZBHH,2010-10-08 01:00,ZBHH 080100Z AUTO 09004KT 6SM 15/06 A3003 RMK T01500060 IEM_DS3505
ZBHH,2010-10-08 02:00,ZBHH 080200Z AUTO 17004KT 6SM 18/05 A3003 RMK T01800050 IEM_DS3505
ZBHH,2010-10-08 03:00,ZBHH 080300Z AUTO 11004KT 16SM 19/04 A3000 RMK SLP139 T01900044 57005 IEM_DS3505
ZBHH,2010-10-08 04:00,ZBHH 080400Z AUTO 24004KT 6SM 20/06 A2997 RMK T02000060 IEM_DS3505
ZBHH,2010-10-08 05:00,ZBHH 080500Z AUTO 21004KT 6SM 22/05 A2994 RMK T02200050 IEM_DS3505
ZBHH,2010-10-08 06:00,ZBHH 080600Z AUTO 20004KT 16SM 22/04 A2991 RMK SLP106 T02230044 57025 IEM_DS3505
ZBHH,2010-10-08 07:00,ZBHH 080700Z AUTO 24006KT 6SM 23/05 A2988 RMK T02300050 IEM_DS3505
ZBHH,2010-10-08 08:00,ZBHH 080800Z AUTO 21014KT 7SM 24/01 A2985 RMK T02400010 IEM_DS3505
ZBHH,2010-10-08 09:00,ZBHH 080900Z AUTO 22004KT 16SM 23/01 A2985 RMK SLP088 T02310009 57018 IEM_DS3505
ZBHH,2010-10-08 10:00,ZBHH 081000Z AUTO 18004KT 6SM 20/02 A2985 RMK T02000020 IEM_DS3505
ZBHH,2010-10-08 11:00,ZBHH 081100Z AUTO 16004KT 6SM 17/04 A2985 RMK T01700040 IEM_DS3505
ZBHH,2010-10-08 12:00,ZBHH 081200Z AUTO 27002KT 16SM 18/04 A2985 RMK SLP098 T01750038 52002 IEM_DS3505
ZBHH,2010-10-08 13:00,ZBHH 081300Z AUTO 00000KT 6SM 15/05 A2988 RMK T01500050 IEM_DS3505
ZBHH,2010-10-08 14:00,ZBHH 081400Z AUTO 02002KT 6SM 13/07 A2988 RMK T01300070 IEM_DS3505
ZBHH,2010-10-08 15:00,ZBHH 081500Z AUTO 04002KT 19SM 13/04 A2988 RMK SLP094 T01310045 52004 IEM_DS3505
ZBHH,2010-10-08 16:00,ZBHH 081600Z AUTO 07004KT 6SM 09/05 A2988 RMK T00900050 IEM_DS3505
ZBHH,2010-10-08 17:00,ZBHH 081700Z AUTO 03004KT 6SM 10/04 A2988 RMK T01000040 IEM_DS3505
ZBHH,2010-10-08 18:00,ZBHH 081800Z AUTO 07002KT 16SM 10/04 A2988 RMK SLP094 T01010045 52001 IEM_DS3505
ZBHH,2010-10-08 19:00,ZBHH 081900Z AUTO 06006KT 6SM 08/04 A2988 RMK T00800040 IEM_DS3505
ZBHH,2010-10-08 20:00,ZBHH 082000Z AUTO 05004KT 6SM 08/03 A2985 RMK T00800030 IEM_DS3505
ZBHH,2010-10-08 21:00,ZBHH 082100Z AUTO 09002KT 19SM 09/04 A2988 RMK SLP091 T00940038 57003 IEM_DS3505
ZBHH,2010-10-08 22:00,ZBHH 082200Z AUTO 06004KT 6SM 08/04 A2988 RMK T00800040 IEM_DS3505
ZBHH,2010-10-08 23:00,ZBHH 082300Z AUTO 04006KT 6SM 08/04 A2988 RMK T00800040 IEM_DS3505
ZBHH,2010-10-09 00:00,ZBHH 090000Z AUTO 07002KT 12SM 11/05 A2988 RMK SLP107 T01060047 52006 IEM_DS3505
ZBHH,2010-10-09 01:00,ZBHH 090100Z AUTO 09004KT 6SM 16/08 A2988 RMK T01600080 IEM_DS3505
ZBHH,2010-10-09 02:00,ZBHH 090200Z AUTO 32002KT 6SM 18/06 A2988 RMK T01800060 IEM_DS3505
ZBHH,2010-10-09 03:00,ZBHH 090300Z AUTO 16002KT 12SM 17/04 A2988 RMK SLP096 T01730039 57005 IEM_DS3505
ZBHH,2010-10-09 04:00,ZBHH 090400Z AUTO 31004KT 4SM 18/05 A2985 RMK T01800050 IEM_DS3505
ZBHH,2010-10-09 05:00,ZBHH 090500Z AUTO 28004KT 4SM 20/06 A2983 RMK T02000060 IEM_DS3505
ZBHH,2010-10-09 06:00,ZBHH 090600Z AUTO 22004KT 12SM 20/06 A2980 RMK SLP072 T02050057 57021 IEM_DS3505
ZBHH,2010-10-09 07:00,ZBHH 090700Z AUTO 26006KT 5SM 21/07 A2980 RMK T02100070 IEM_DS3505
ZBHH,2010-10-09 08:00,ZBHH 090800Z AUTO 27004KT 5SM 21/07 A2977 RMK T02100070 IEM_DS3505
ZBHH,2010-10-09 09:00,ZBHH 090900Z AUTO 34002KT 12SM 20/07 A2977 RMK SLP058 T02050068 57014 IEM_DS3505
ZBHH,2010-10-09 10:00,ZBHH 091000Z AUTO 01002KT 3SM 19/08 A2977 RMK T01900080 IEM_DS3505
ZBHH,2010-10-09 11:00,ZBHH 091100Z AUTO 08004KT 4SM 16/09 A2977 RMK T01600090 IEM_DS3505
ZBHH,2010-10-09 12:00,ZBHH 091200Z AUTO 34002KT 12SM 16/09 A2977 RMK SLP074 T01580088 52008 IEM_DS3505
ZBHH,2010-10-09 13:00,ZBHH 091300Z AUTO 03004KT 5SM 19/12 A2980 RMK T01900120 IEM_DS3505
ZBHH,2010-10-09 14:00,ZBHH 091400Z AUTO 35010KT 7SM 17/09 A2983 RMK T01700090 IEM_DS3505
ZBHH,2010-10-09 15:00,ZBHH 091500Z AUTO 32006KT 12SM 15/05 A2983 RMK SLP080 T01540053 52017 IEM_DS3505
ZBHH,2010-10-09 16:00,ZBHH 091600Z AUTO 34008KT 7SM 14/08 A2985 RMK T01400080 IEM_DS3505
ZBHH,2010-10-09 17:00,ZBHH 091700Z AUTO 02012KT 7SM 13/08 A2985 RMK T01300080 IEM_DS3505
ZBHH,2010-10-09 18:00,ZBHH 091800Z AUTO 29004KT 12SM 13/08 A2985 RMK 60002 SLP087 T01260075 52007 IEM_DS3505
ZBHH,2010-10-09 19:00,ZBHH 091900Z AUTO 02002KT 7SM 12/09 A2985 RMK T01200090 IEM_DS3505
ZBHH,2010-10-09 20:00,ZBHH 092000Z AUTO 7SM 12/08 A2985 RMK T01200080 IEM_DS3505
ZBHH,2010-10-09 21:00,ZBHH 092100Z AUTO 20002KT 12SM 12/06 A2985 RMK 70002 SLP087 T01180063 57002 IEM_DS3505
ZBHH,2010-10-09 22:00,ZBHH 092200Z AUTO 06008KT 7SM 10/07 A2988 RMK T01000070 IEM_DS3505
ZBHH,2010-10-09 23:00,ZBHH 092300Z AUTO 04008KT 7SM 10/07 A2988 RMK T01000070 IEM_DS3505
ZBHH,2010-10-10 00:00,ZBHH 100000Z AUTO 22002KT 6SM 10/08 A2991 RMK 60035 70037 SLP122 T00950076 52018 IEM_DS3505
ZBHH,2010-10-10 01:00,ZBHH 100100Z AUTO 01004KT 2 1/2SM 09/08 A2994 RMK T00900080 IEM_DS3505
ZBHH,2010-10-10 02:00,ZBHH 100200Z AUTO 05004KT 4SM 09/08 A2994 RMK T00900080 IEM_DS3505
ZBHH,2010-10-10 03:00,ZBHH 100300Z AUTO 07002KT 6SM 09/08 A2994 RMK SLP135 T00940078 52010 IEM_DS3505
ZBHH,2010-10-10 04:00,ZBHH 100400Z AUTO 36006KT 7SM 09/07 A2994 RMK T00900070 IEM_DS3505
ZBHH,2010-10-10 05:00,ZBHH 100500Z AUTO 33010KT 7SM 09/05 A2994 RMK T00900050 IEM_DS3505
ZBHH,2010-10-10 06:00,ZBHH 100600Z AUTO 00000KT 6SM 09/06 A2994 RMK 60094 SLP140 T00940059 57001 IEM_DS3505
ZBHH,2010-10-10 07:00,ZBHH 100700Z AUTO 07004KT 7SM 09/06 A2997 RMK T00900060 IEM_DS3505
ZBHH,2010-10-10 08:00,ZBHH 100800Z AUTO 14002KT 7SM 09/06 A2997 RMK T00900060 IEM_DS3505
ZBHH,2010-10-10 09:00,ZBHH 100900Z AUTO 36002KT 6SM 10/06 RMK SLP155 T00990062 52013 IEM_DS3505
ZBHH,2010-10-10 10:00,ZBHH 101000Z AUTO 15004KT 7SM 08/06 A3000 RMK T00800060 IEM_DS3505
ZBHH,2010-10-10 11:00,ZBHH 101100Z AUTO 11002KT 7SM 08/07 A3003 RMK T00800070 IEM_DS3505
ZBHH,2010-10-10 12:00,ZBHH 101200Z AUTO 32004KT 9SM 09/04 A3003 RMK 60004 SLP184 T00940036 52020 IEM_DS3505
ZBHH,2010-10-10 13:00,ZBHH 101300Z AUTO 34008KT 7SM 09/03 A3006 RMK T00900030 IEM_DS3505
ZBHH,2010-10-10 14:00,ZBHH 101400Z AUTO 34008KT 7SM 07/01 A3009 RMK T00700010 IEM_DS3505
ZBHH,2010-10-10 15:00,ZBHH 101500Z AUTO 29004KT 19SM 07/M00 A3009 RMK SLP206 T00681002 52014 IEM_DS3505
ZBHH,2010-10-10 16:00,ZBHH 101600Z AUTO 36010KT 7SM 07/00 A3009 RMK T00700000 IEM_DS3505
ZBHH,2010-10-10 17:00,ZBHH 101700Z AUTO 34006KT 7SM 06/M01 A3012 RMK T00601010 IEM_DS3505
ZBHH,2010-10-10 18:00,ZBHH 101800Z AUTO 36004KT 19SM 05/M01 A3012 RMK 60000 SLP224 T00521010 52012 IEM_DS3505
ZBHH,2010-10-10 19:00,ZBHH 101900Z AUTO 34008KT 7SM 05/M02 A3012 RMK T00501020 IEM_DS3505
ZBHH,2010-10-10 20:00,ZBHH 102000Z AUTO 33010KT 7SM 05/M01 A3012 RMK T00501010 IEM_DS3505
ZBHH,2010-10-10 21:00,ZBHH 102100Z AUTO 36002KT 19SM 03/M01 A3012 RMK 70132 SLP227 T00321014 54000 IEM_DS3505
ZBHH,2010-10-10 22:00,ZBHH 102200Z AUTO 28006KT 7SM 04/M02 A3015 RMK T00401020 IEM_DS3505
ZBHH,2010-10-10 23:00,ZBHH 102300Z AUTO 32006KT 7SM 03/M01 A3015 RMK T00301010 IEM_DS3505
ZBHH,2010-10-11 00:00,ZBHH 110000Z AUTO 02004KT 19SM 05/M02 A3018 RMK 70097 SLP242 T00521024 52016 IEM_DS3505
ZBHH,2010-10-11 01:00,ZBHH 110100Z AUTO 29002KT 7SM 07/M02 A3021 RMK T00701020 IEM_DS3505
ZBHH,2010-10-11 02:00,ZBHH 110200Z AUTO 12002KT 7SM 08/M03 A3021 RMK T00801030 IEM_DS3505
ZBHH,2010-10-11 03:00,ZBHH 110300Z AUTO 11004KT 19SM 10/M02 A3021 RMK SLP244 T00951018 52005 IEM_DS3505
ZBHH,2010-10-11 04:00,ZBHH 110400Z AUTO 21002KT 7SM 10/M02 A3018 RMK T01001020 IEM_DS3505
ZBHH,2010-10-11 05:00,ZBHH 110500Z AUTO 30012KT 7SM 12/M04 A3018 RMK T01201040 IEM_DS3505
ZBHH,2010-10-11 06:00,ZBHH 110600Z AUTO 29004KT 19SM 12/M03 A3015 RMK SLP222 T01251029 57016 IEM_DS3505
ZBHH,2010-10-11 07:00,ZBHH 110700Z AUTO 33008KT 7SM 12/M05 A3015 RMK T01201050 IEM_DS3505
ZBHH,2010-10-11 08:00,ZBHH 110800Z AUTO 01006KT 7SM 12/M04 A3015 RMK T01201040 IEM_DS3505
ZBHH,2010-10-11 09:00,ZBHH 110900Z AUTO 20004KT 19SM 11/M01 A3015 RMK SLP227 T01141007 57002 IEM_DS3505
ZBHH,2010-10-11 10:00,ZBHH 111000Z AUTO 24004KT 7SM 10/01 A3015 RMK T01000010 IEM_DS3505
ZBHH,2010-10-11 11:00,ZBHH 111100Z AUTO 18004KT 7SM 07/02 A3015 RMK T00700020 IEM_DS3505
ZBHH,2010-10-11 12:00,ZBHH 111200Z AUTO 27002KT 19SM 09/01 A3018 RMK SLP238 T00870009 52008 IEM_DS3505
ZBHH,2010-10-11 13:00,ZBHH 111300Z AUTO 04006KT 6SM 06/02 A3018 RMK T00600020 IEM_DS3505
ZBHH,2010-10-11 14:00,ZBHH 111400Z AUTO 07004KT 6SM 05/01 A3021 RMK T00500010 IEM_DS3505
ZBHH,2010-10-11 15:00,ZBHH 111500Z AUTO 07002KT 19SM 05/02 A3021 RMK SLP249 T00540017 52012 IEM_DS3505
ZBHH,2010-10-11 16:00,ZBHH 111600Z AUTO 08004KT 6SM 04/01 A3021 RMK T00400010 IEM_DS3505
ZBHH,2010-10-11 17:00,ZBHH 111700Z AUTO 05004KT 6SM 04/01 A3024 RMK T00400010 IEM_DS3505
ZBHH,2010-10-11 18:00,ZBHH 111800Z AUTO 00000KT 19SM 03/01 A3024 RMK SLP253 T00310007 52005 IEM_DS3505
ZBHH,2010-10-11 19:00,ZBHH 111900Z AUTO 05004KT 6SM 02/00 A3024 RMK T00200000 IEM_DS3505
ZBHH,2010-10-11 20:00,ZBHH 112000Z AUTO 04004KT 6SM 02/00 A3021 RMK T00200000 IEM_DS3505
ZBHH,2010-10-11 21:00,ZBHH 112100Z AUTO 09002KT 19SM 02/00 A3021 RMK SLP250 T00200001 57007 IEM_DS3505
ZBHH,2010-10-11 22:00,ZBHH 112200Z AUTO 09004KT 6SM 01/M01 A3021 RMK T00101010 IEM_DS3505
ZBHH,2010-10-11 23:00,ZBHH 112300Z AUTO 07006KT 6SM 01/M01 A3021 RMK T00101010 IEM_DS3505
ZBHH,2010-10-12 00:00,ZBHH 120000Z AUTO 09002KT 16SM 04/01 A3021 RMK SLP256 T00420009 52004 IEM_DS3505
ZBHH,2010-10-12 01:00,ZBHH 120100Z AUTO 08002KT 6SM 07/01 A3021 RMK T00700010 IEM_DS3505
ZBHH,2010-10-12 02:00,ZBHH 120200Z AUTO 18002KT 6SM 10/00 A3024 RMK T01000000 IEM_DS3505
ZBHH,2010-10-12 03:00,ZBHH 120300Z AUTO 27002KT 12SM 10/M02 A3021 RMK SLP244 T01041016 57005 IEM_DS3505
ZBHH,2010-10-12 04:00,ZBHH 120400Z AUTO 27004KT 6SM 12/00 A3018 RMK T01200000 IEM_DS3505
ZBHH,2010-10-12 05:00,ZBHH 120500Z AUTO 24008KT 6SM 13/00 A3018 RMK T01300000 IEM_DS3505
ZBHH,2010-10-12 06:00,ZBHH 120600Z AUTO 22008KT 12SM 12/M02 A3015 RMK SLP223 T01251018 57019 IEM_DS3505
ZBHH,2010-10-12 07:00,ZBHH 120700Z AUTO 22010KT 6SM 13/02 A3012 RMK T01300020 IEM_DS3505
ZBHH,2010-10-12 08:00,ZBHH 120800Z AUTO 24010KT 6SM 13/01 A3012 RMK T01300010 IEM_DS3505
ZBHH,2010-10-12 09:00,ZBHH 120900Z AUTO 20004KT 12SM 12/M00 A3012 RMK SLP215 T01211001 57010 IEM_DS3505
ZBHH,2010-10-12 10:00,ZBHH 121000Z AUTO 18002KT 6SM 11/03 A3012 RMK T01100030 IEM_DS3505
ZBHH,2010-10-12 11:00,ZBHH 121100Z AUTO 13002KT 6SM 09/03 A3012 RMK T00900030 IEM_DS3505
ZBHH,2010-10-12 12:00,ZBHH 121200Z AUTO 34002KT 19SM 08/02 A3015 RMK SLP230 T00750018 52009 IEM_DS3505
ZBHH,2010-10-12 13:00,ZBHH 121300Z AUTO 05004KT 6SM 07/02 A3015 RMK T00700020 IEM_DS3505
ZBHH,2010-10-12 14:00,ZBHH 121400Z AUTO 04004KT 6SM 06/02 A3015 RMK T00600020 IEM_DS3505
ZBHH,2010-10-12 15:00,ZBHH 121500Z AUTO 09002KT 19SM 05/03 A3015 RMK SLP230 T00520026 52008 IEM_DS3505
ZBHH,2010-10-12 16:00,ZBHH 121600Z AUTO 07002KT 6SM 04/02 A3015 RMK T00400020 IEM_DS3505
ZBHH,2010-10-12 17:00,ZBHH 121700Z AUTO 06004KT 6SM 04/01 A3015 RMK T00400010 IEM_DS3505
ZBHH,2010-10-12 18:00,ZBHH 121800Z AUTO 04002KT 19SM 04/02 A3015 RMK SLP225 T00370019 57004 IEM_DS3505
ZBHH,2010-10-12 19:00,ZBHH 121900Z AUTO 10002KT 6SM 03/01 A3015 RMK T00300010 IEM_DS3505
ZBHH,2010-10-12 20:00,ZBHH 122000Z AUTO 05004KT 6SM 03/00 A3015 RMK T00300000 IEM_DS3505
ZBHH,2010-10-12 21:00,ZBHH 122100Z AUTO 07002KT 19SM 02/00 A3015 RMK SLP226 T00200004 57003 IEM_DS3505
ZBHH,2010-10-12 22:00,ZBHH 122200Z AUTO 06004KT 6SM 02/00 A3015 RMK T00200000 IEM_DS3505
ZBHH,2010-10-12 23:00,ZBHH 122300Z AUTO 07004KT 6SM 02/00 A3015 RMK T00200000 IEM_DS3505
ZBHH,2010-10-13 00:00,ZBHH 130000Z AUTO 09002KT 9SM 04/02 A3018 RMK SLP243 T00420017 52010 IEM_DS3505
ZBHH,2010-10-13 01:00,ZBHH 130100Z AUTO 09002KT 6SM 07/04 A3018 RMK T00700040 IEM_DS3505
ZBHH,2010-10-13 02:00,ZBHH 130200Z AUTO 17002KT 5SM 10/03 A3018 RMK T01000030 IEM_DS3505
ZBHH,2010-10-13 03:00,ZBHH 130300Z AUTO 22002KT 12SM 11/02 A3018 RMK SLP229 T01090025 57003 IEM_DS3505
ZBHH,2010-10-13 04:00,ZBHH 130400Z AUTO 16002KT 4SM 13/04 A3015 RMK T01300040 IEM_DS3505
ZBHH,2010-10-13 05:00,ZBHH 130500Z AUTO 22006KT 5SM 13/04 A3009 RMK T01300040 IEM_DS3505
ZBHH,2010-10-13 06:00,ZBHH 130600Z AUTO 18004KT 19SM 14/04 A3009 RMK SLP198 T01380038 57025 IEM_DS3505
ZBHH,2010-10-13 07:00,ZBHH 130700Z AUTO 25004KT 6SM 18/07 A3006 RMK T01800070 IEM_DS3505
ZBHH,2010-10-13 08:00,ZBHH 130800Z AUTO 26006KT 6SM 15/03 A3006 RMK T01500030 IEM_DS3505
ZBHH,2010-10-13 09:00,ZBHH 130900Z AUTO 34002KT 12SM 14/03 A3006 RMK SLP193 T01410030 57007 IEM_DS3505
ZBHH,2010-10-13 10:00,ZBHH 131000Z AUTO 01004KT 4SM 15/07 A3006 RMK T01500070 IEM_DS3505
ZBHH,2010-10-13 11:00,ZBHH 131100Z AUTO 36008KT 7SM 11/M01 A3009 RMK T01101010 IEM_DS3505
ZBHH,2010-10-13 12:00,ZBHH 131200Z AUTO 34004KT 12SM 11/M07 A3012 RMK SLP220 T01121071 52022 IEM_DS3505
ZBHH,2010-10-13 13:00,ZBHH 131300Z AUTO 02010KT 7SM 11/M05 A3015 RMK T01101050 IEM_DS3505
ZBHH,2010-10-13 14:00,ZBHH 131400Z AUTO 03004KT 7SM 09/M05 A3018 RMK T00901050 IEM_DS3505
ZBHH,2010-10-13 15:00,ZBHH 131500Z AUTO 04004KT 19SM 09/M06 A3018 RMK SLP230 T00901060 52018 IEM_DS3505
ZBHH,2010-10-13 16:00,ZBHH 131600Z AUTO 03002KT 6SM 07/M03 A3021 RMK T00701030 IEM_DS3505
ZBHH,2010-10-13 17:00,ZBHH 131700Z AUTO 21002KT 6SM 06/M02 A3021 RMK T00601020 IEM_DS3505
ZBHH,2010-10-13 18:00,ZBHH 131800Z AUTO 14002KT 19SM 05/M04 A3021 RMK SLP243 T00511042 52010 IEM_DS3505
ZBHH,2010-10-13 19:00,ZBHH 131900Z AUTO 14002KT 6SM 03/M02 A3021 RMK T00301020 IEM_DS3505
ZBHH,2010-10-13 20:00,ZBHH 132000Z AUTO 33002KT 6SM 03/M03 A3021 RMK T00301030 IEM_DS3505
ZBHH,2010-10-13 21:00,ZBHH 132100Z AUTO 29002KT 19SM 03/M05 A3024 RMK SLP251 T00331046 52004 IEM_DS3505
ZBHH,2010-10-13 22:00,ZBHH 132200Z AUTO 09004KT 6SM 00/M03 A3024 RMK T00001030 IEM_DS3505
ZBHH,2010-10-13 23:00,ZBHH 132300Z AUTO 04004KT 6SM 02/M04 A3024 RMK T00201040 IEM_DS3505
ZBHH,2010-10-14 00:00,ZBHH 140000Z AUTO 02002KT 19SM 05/M05 A3027 RMK SLP265 T00531048 52010 IEM_DS3505
ZBHH,2010-10-14 01:00,ZBHH 140100Z AUTO 19002KT 6SM 07/M02 A3027 RMK T00701020 IEM_DS3505
ZBHH,2010-10-14 02:00,ZBHH 140200Z AUTO 6SM 10/M05 A3027 RMK T01001050 IEM_DS3505
ZBHH,2010-10-14 03:00,ZBHH 140300Z AUTO 32006KT 16SM 11/M07 A3027 RMK SLP255 T01071071 57002 IEM_DS3505
ZBHH,2010-10-14 04:00,ZBHH 140400Z AUTO 32010KT 7SM 11/M06 A3024 RMK T01101060 IEM_DS3505
ZBHH,2010-10-14 05:00,ZBHH 140500Z AUTO 32012KT 7SM 12/M06 A3021 RMK T01201060 IEM_DS3505
ZBHH,2010-10-14 06:00,ZBHH 140600Z AUTO 34008KT 19SM 12/M08 A3021 RMK SLP237 T01251075 57020 IEM_DS3505
ZBHH,2010-10-14 07:00,ZBHH 140700Z AUTO 34012KT 7SM 13/M06 A3018 RMK T01301060 IEM_DS3505
ZBHH,2010-10-14 08:00,ZBHH 140800Z AUTO 33012KT 7SM 13/M04 A3018 RMK T01301040 IEM_DS3505
ZBHH,2010-10-14 09:00,ZBHH 140900Z AUTO 32008KT 19SM 12/M08 A3018 RMK SLP240 T01171077 57003 IEM_DS3505
ZBHH,2010-10-14 10:00,ZBHH 141000Z AUTO 34008KT 7SM 09/M06 A3018 RMK T00901060 IEM_DS3505
ZBHH,2010-10-14 11:00,ZBHH 141100Z AUTO 34006KT 7SM 08/M07 A3021 RMK T00801070 IEM_DS3505
ZBHH,2010-10-14 12:00,ZBHH 141200Z AUTO 27002KT 19SM 08/M08 A3021 RMK SLP256 T00771076 52010 IEM_DS3505
ZBHH,2010-10-14 13:00,ZBHH 141300Z AUTO 33008KT 6SM 05/M06 A3021 RMK T00501060 IEM_DS3505
ZBHH,2010-10-14 14:00,ZBHH 141400Z AUTO 36006KT 6SM 04/M05 A3024 RMK T00401050 IEM_DS3505
ZBHH,2010-10-14 15:00,ZBHH 141500Z AUTO 32004KT 19SM 05/M07 A3024 RMK SLP256 T00481073 52005 IEM_DS3505
ZBHH,2010-10-14 16:00,ZBHH 141600Z AUTO 08002KT 6SM 01/M04 A3021 RMK T00101040 IEM_DS3505
ZBHH,2010-10-14 17:00,ZBHH 141700Z AUTO 07004KT 6SM 00/M04 A3021 RMK T00001040 IEM_DS3505
ZBHH,2010-10-14 18:00,ZBHH 141800Z AUTO 11004KT 19SM 03/M06 A3018 RMK SLP240 T00321055 57013 IEM_DS3505
ZBHH,2010-10-14 19:00,ZBHH 141900Z AUTO 10002KT 6SM M01/M04 A3018 RMK T10101040 IEM_DS3505
ZBHH,2010-10-14 20:00,ZBHH 142000Z AUTO 12004KT 6SM M02/M04 A3018 RMK T10201040 IEM_DS3505
ZBHH,2010-10-14 21:00,ZBHH 142100Z AUTO 00000KT 19SM M00/M04 A3015 RMK SLP241 T10031042 57008 IEM_DS3505
ZBHH,2010-10-14 22:00,ZBHH 142200Z AUTO 09004KT 6SM M02/M04 A3015 RMK T10201040 IEM_DS3505
ZBHH,2010-10-14 23:00,ZBHH 142300Z AUTO 09002KT 6SM M02/M04 A3015 RMK T10201040 IEM_DS3505
ZBHH,2010-10-15 00:00,ZBHH 150000Z AUTO 09002KT 12SM 02/M05 A3015 RMK SLP243 T00251051 57001 IEM_DS3505
ZBHH,2010-10-15 01:00,ZBHH 150100Z AUTO 09002KT 6SM 05/M03 A3015 RMK T00501030 IEM_DS3505
ZBHH,2010-10-15 02:00,ZBHH 150200Z AUTO 16004KT 6SM 07/M04 A3015 RMK T00701040 IEM_DS3505
ZBHH,2010-10-15 03:00,ZBHH 150300Z AUTO 20004KT 19SM 08/M05 A3015 RMK SLP226 T00851054 57009 IEM_DS3505
ZBHH,2010-10-15 04:00,ZBHH 150400Z AUTO 23006KT 6SM 10/M03 A3012 RMK T01001030 IEM_DS3505
ZBHH,2010-10-15 05:00,ZBHH 150500Z AUTO 23008KT 6SM 11/M02 A3009 RMK T01101020 IEM_DS3505
ZBHH,2010-10-15 06:00,ZBHH 150600Z AUTO 22006KT 19SM 13/M03 A3006 RMK SLP193 T01321031 57022 IEM_DS3505
ZBHH,2010-10-15 07:00,ZBHH 150700Z AUTO 24012KT 6SM 15/00 A3003 RMK T01500000 IEM_DS3505
ZBHH,2010-10-15 08:00,ZBHH 150800Z AUTO 24012KT 6SM 15/M02 A3003 RMK T01501020 IEM_DS3505
ZBHH,2010-10-15 09:00,ZBHH 150900Z AUTO 29002KT 19SM 15/M04 A3003 RMK SLP184 T01541045 57011 IEM_DS3505
ZBHH,2010-10-15 10:00,ZBHH 151000Z AUTO 25006KT 6SM 11/00 A3003 RMK T01100000 IEM_DS3505
ZBHH,2010-10-15 11:00,ZBHH 151100Z AUTO 25002KT 6SM 10/M01 A3003 RMK T01001010 IEM_DS3505
ZBHH,2010-10-15 12:00,ZBHH 151200Z AUTO 02002KT 16SM 09/M06 A3006 RMK SLP203 T00891057 52009 IEM_DS3505
ZBHH,2010-10-15 13:00,ZBHH 151300Z AUTO 02004KT 6SM 07/M04 A3006 RMK T00701040 IEM_DS3505
ZBHH,2010-10-15 14:00,ZBHH 151400Z AUTO 05006KT 6SM 05/M04 A3006 RMK T00501040 IEM_DS3505
ZBHH,2010-10-15 15:00,ZBHH 151500Z AUTO 34002KT 19SM 08/M08 A3006 RMK SLP193 T00841077 52003 IEM_DS3505
ZBHH,2010-10-15 16:00,ZBHH 151600Z AUTO 11002KT 6SM 02/M02 A3006 RMK T00201020 IEM_DS3505
ZBHH,2010-10-15 17:00,ZBHH 151700Z AUTO 09004KT 6SM 01/M03 A3006 RMK T00101030 IEM_DS3505
ZBHH,2010-10-15 18:00,ZBHH 151800Z AUTO 07002KT 19SM 04/M04 A3006 RMK SLP191 T00421036 57001 IEM_DS3505
ZBHH,2010-10-15 19:00,ZBHH 151900Z AUTO 06006KT 6SM 03/M04 A3006 RMK T00301040 IEM_DS3505
ZBHH,2010-10-15 20:00,ZBHH 152000Z AUTO 11004KT 6SM 00/M04 A3003 RMK T00001040 IEM_DS3505
ZBHH,2010-10-15 21:00,ZBHH 152100Z AUTO 16002KT 19SM 02/M03 A3006 RMK SLP190 T00171030 57002 IEM_DS3505
ZBHH,2010-10-15 22:00,ZBHH 152200Z AUTO 09006KT 6SM 01/M04 A3006 RMK T00101040 IEM_DS3505
ZBHH,2010-10-15 23:00,ZBHH 152300Z AUTO 05006KT 6SM 01/M03 A3006 RMK T00101030 IEM_DS3505
ZBHH,2010-10-16 00:00,ZBHH 160000Z AUTO 07002KT 9SM 03/M04 A3009 RMK SLP212 T00331037 52010 IEM_DS3505
ZBHH,2010-10-16 01:00,ZBHH 160100Z AUTO 10004KT 6SM 06/M01 A3009 RMK T00601010 IEM_DS3505
ZBHH,2010-10-16 02:00,ZBHH 160200Z AUTO 09004KT 6SM 09/M02 A3009 RMK T00901020 IEM_DS3505
ZBHH,2010-10-16 03:00,ZBHH 160300Z AUTO 11002KT 19SM 12/M07 A3009 RMK SLP193 T01231072 54000 IEM_DS3505
ZBHH,2010-10-16 04:00,ZBHH 160400Z AUTO 18002KT 6SM 15/M06 A3006 RMK T01501060 IEM_DS3505
ZBHH,2010-10-16 05:00,ZBHH 160500Z AUTO 29004KT 6SM 15/M05 A3003 RMK T01501050 IEM_DS3505
ZBHH,2010-10-16 06:00,ZBHH 160600Z AUTO 20004KT 19SM 16/M05 A3003 RMK SLP169 T01631049 57021 IEM_DS3505
ZBHH,2010-10-16 07:00,ZBHH 160700Z AUTO 24008KT 7SM 16/M05 A3000 RMK T01601050 IEM_DS3505
ZBHH,2010-10-16 08:00,ZBHH 160800Z AUTO 23008KT 7SM 17/M04 A3000 RMK T01701040 IEM_DS3505
ZBHH,2010-10-16 09:00,ZBHH 160900Z AUTO 22004KT 19SM 16/M05 A3003 RMK SLP175 T01611050 54000 IEM_DS3505
ZBHH,2010-10-16 10:00,ZBHH 161000Z AUTO 30004KT 6SM 15/01 A3003 RMK T01500010 IEM_DS3505
ZBHH,2010-10-16 11:00,ZBHH 161100Z AUTO 01004KT 6SM 12/M05 A3006 RMK T01201050 IEM_DS3505
ZBHH,2010-10-16 12:00,ZBHH 161200Z AUTO 25002KT 19SM 10/M06 A3012 RMK SLP214 T01001059 52025 IEM_DS3505
ZBHH,2010-10-16 13:00,ZBHH 161300Z AUTO 07002KT 6SM 09/M05 A3012 RMK T00901050 IEM_DS3505
ZBHH,2010-10-16 14:00,ZBHH 161400Z AUTO 05004KT 6SM 08/M05 A3015 RMK T00801050 IEM_DS3505
ZBHH,2010-10-16 15:00,ZBHH 161500Z AUTO 00000KT 19SM 06/M05 A3015 RMK SLP221 T00581046 52016 IEM_DS3505
ZBHH,2010-10-16 16:00,ZBHH 161600Z AUTO 06006KT 6SM 05/M03 A3015 RMK T00501030 IEM_DS3505
ZBHH,2010-10-16 17:00,ZBHH 161700Z AUTO 10002KT 6SM 03/M03 A3015 RMK T00301030 IEM_DS3505
ZBHH,2010-10-16 18:00,ZBHH 161800Z AUTO 00000KT 19SM 03/M04 A3018 RMK SLP226 T00311035 52007 IEM_DS3505
ZBHH,2010-10-16 19:00,ZBHH 161900Z AUTO 06006KT 6SM 01/M04 A3018 RMK T00101040 IEM_DS3505
ZBHH,2010-10-16 20:00,ZBHH 162000Z AUTO 08006KT 6SM 00/M04 A3018 RMK T00001040 IEM_DS3505
ZBHH,2010-10-16 21:00,ZBHH 162100Z AUTO 07002KT 19SM 02/M05 A3018 RMK SLP230 T00181049 54000 IEM_DS3505
ZBHH,2010-10-16 22:00,ZBHH 162200Z AUTO 06006KT 6SM 01/M04 A3018 RMK T00101040 IEM_DS3505
ZBHH,2010-10-16 23:00,ZBHH 162300Z AUTO 08006KT 6SM 01/M05 A3018 RMK T00101050 IEM_DS3505
ZBHH,2010-10-17 00:00,ZBHH 170000Z AUTO 09004KT 16SM 05/M06 A3021 RMK SLP244 T00501062 52007 IEM_DS3505
ZBHH,2010-10-17 01:00,ZBHH 170100Z AUTO 08008KT 6SM 08/M04 A3021 RMK T00801040 IEM_DS3505
ZBHH,2010-10-17 02:00,ZBHH 170200Z AUTO 07006KT 6SM 11/M06 A3021 RMK T01101060 IEM_DS3505
ZBHH,2010-10-17 03:00,ZBHH 170300Z AUTO 14004KT 16SM 12/M07 A3021 RMK SLP239 T01211073 52001 IEM_DS3505
ZBHH,2010-10-17 04:00,ZBHH 170400Z AUTO 21004KT 6SM 14/M07 A3018 RMK T01401070 IEM_DS3505
ZBHH,2010-10-17 05:00,ZBHH 170500Z AUTO 24002KT 6SM 15/M05 A3015 RMK T01501050 IEM_DS3505
ZBHH,2010-10-17 06:00,ZBHH 170600Z AUTO 20002KT 19SM 16/M05 A3012 RMK SLP210 T01581053 57023 IEM_DS3505
ZBHH,2010-10-17 07:00,ZBHH 170700Z AUTO 23006KT 6SM 16/M04 A3012 RMK T01601040 IEM_DS3505
ZBHH,2010-10-17 08:00,ZBHH 170800Z AUTO 25004KT 6SM 17/M05 A3009 RMK T01701050 IEM_DS3505
ZBHH,2010-10-17 09:00,ZBHH 170900Z AUTO 20002KT 16SM 16/M06 A3009 RMK SLP197 T01621061 57014 IEM_DS3505
ZBHH,2010-10-17 10:00,ZBHH 171000Z AUTO 09002KT 6SM 17/02 A3009 RMK T01700020 IEM_DS3505
ZBHH,2010-10-17 11:00,ZBHH 171100Z AUTO 04006KT 6SM 10/00 A3009 RMK T01000000 IEM_DS3505
ZBHH,2010-10-17 12:00,ZBHH 171200Z AUTO 00000KT 19SM 09/M01 A3012 RMK SLP214 T00911013 52007 IEM_DS3505
ZBHH,2010-10-17 13:00,ZBHH 171300Z AUTO 05006KT 6SM 09/M02 A3012 RMK T00901020 IEM_DS3505
ZBHH,2010-10-17 14:00,ZBHH 171400Z AUTO 07006KT 6SM 07/M01 A3009 RMK T00701010 IEM_DS3505
ZBHH,2010-10-17 15:00,ZBHH 171500Z AUTO 00000KT 19SM 06/M00 A3009 RMK SLP200 T00621005 57003 IEM_DS3505
ZBHH,2010-10-17 16:00,ZBHH 171600Z AUTO 07008KT 6SM 06/M01 A3009 RMK T00601010 IEM_DS3505
ZBHH,2010-10-17 17:00,ZBHH 171700Z AUTO 07004KT 6SM 06/M01 A3009 RMK T00601010 IEM_DS3505
ZBHH,2010-10-17 18:00,ZBHH 171800Z AUTO 07002KT 16SM 07/M02 A3009 RMK SLP189 T00691018 57001 IEM_DS3505
ZBHH,2010-10-17 19:00,ZBHH 171900Z AUTO 07006KT 6SM 07/01 A3009 RMK T00700010 IEM_DS3505
ZBHH,2010-10-17 20:00,ZBHH 172000Z AUTO 07004KT 6SM 07/01 A3009 RMK T00700010 IEM_DS3505
ZBHH,2010-10-17 21:00,ZBHH 172100Z AUTO 00000KT 16SM 07/01 A3006 RMK SLP182 T00720006 57005 IEM_DS3505
ZBHH,2010-10-17 22:00,ZBHH 172200Z AUTO 06006KT 6SM 07/01 A3006 RMK T00700010 IEM_DS3505
ZBHH,2010-10-17 23:00,ZBHH 172300Z AUTO 28002KT 6SM 06/02 A3006 RMK T00600020 IEM_DS3505
ZBHH,2010-10-18 00:00,ZBHH 180000Z AUTO 36002KT 9SM 09/M00 A3006 RMK SLP189 T00891002 57005 IEM_DS3505
ZBHH,2010-10-18 01:00,ZBHH 180100Z AUTO 03004KT 7SM 09/03 A3006 RMK T00900030 IEM_DS3505
ZBHH,2010-10-18 02:00,ZBHH 180200Z AUTO 26006KT 4SM 09/04 A3012 RMK T00900040 IEM_DS3505
ZBHH,2010-10-18 03:00,ZBHH 180300Z AUTO 14002KT 19SM 12/04 A3009 RMK SLP201 T01150040 52010 IEM_DS3505
ZBHH,2010-10-18 04:00,ZBHH 180400Z AUTO 08002KT 7SM 12/05 A3006 RMK T01200050 IEM_DS3505
ZBHH,2010-10-18 05:00,ZBHH 180500Z AUTO 19006KT 7SM 15/06 A3003 RMK T01500060 IEM_DS3505
ZBHH,2010-10-18 06:00,ZBHH 180600Z AUTO 29006KT 9SM 09/03 A3009 RMK 60008 SLP198 T00880030 57006 IEM_DS3505
ZBHH,2010-10-18 07:00,ZBHH 180700Z AUTO 10004KT 7SM 10/05 A3006 RMK T01000050 IEM_DS3505
ZBHH,2010-10-18 08:00,ZBHH 180800Z AUTO 21008KT 7SM 12/05 A3006 RMK T01200050 IEM_DS3505
ZBHH,2010-10-18 09:00,ZBHH 180900Z AUTO 11002KT 9SM 11/05 A3009 RMK SLP199 T01080053 52005 IEM_DS3505
ZBHH,2010-10-18 10:00,ZBHH 181000Z AUTO 22006KT 7SM 09/05 A3009 RMK T00900050 IEM_DS3505
ZBHH,2010-10-18 11:00,ZBHH 181100Z AUTO 23004KT 6SM 07/04 A3012 RMK T00700040 IEM_DS3505
ZBHH,2010-10-18 12:00,ZBHH 181200Z AUTO 32004KT 19SM 09/M00 A3015 RMK 60002 SLP225 T00931003 52023 IEM_DS3505
ZBHH,2010-10-18 13:00,ZBHH 181300Z AUTO 34010KT 6SM 08/03 A3018 RMK T00800030 IEM_DS3505
ZBHH,2010-10-18 14:00,ZBHH 181400Z AUTO 36010KT 6SM 07/03 A3018 RMK T00700030 IEM_DS3505
ZBHH,2010-10-18 15:00,ZBHH 181500Z AUTO 34004KT 19SM 08/M01 A3021 RMK SLP235 T00811006 52012 IEM_DS3505
ZBHH,2010-10-18 16:00,ZBHH 181600Z AUTO 35006KT 6SM 06/02 A3021 RMK T00600020 IEM_DS3505
ZBHH,2010-10-18 17:00,ZBHH 181700Z AUTO 35004KT 6SM 06/01 A3021 RMK T00600010 IEM_DS3505
ZBHH,2010-10-18 18:00,ZBHH 181800Z AUTO 32004KT 19SM 06/M00 A3021 RMK SLP252 T00621003 52006 IEM_DS3505
ZBHH,2010-10-18 19:00,ZBHH 181900Z AUTO 34008KT 6SM 05/00 A3024 RMK T00500000 IEM_DS3505
ZBHH,2010-10-18 20:00,ZBHH 182000Z AUTO 33006KT 6SM 05/00 A3021 RMK T00500000 IEM_DS3505
ZBHH,2010-10-18 21:00,ZBHH 182100Z AUTO 32006KT 19SM 05/M01 A3024 RMK 70007 SLP259 T00471011 52007 IEM_DS3505
ZBHH,2010-10-18 22:00,ZBHH 182200Z AUTO 03006KT 6SM 03/M01 A3024 RMK T00301010 IEM_DS3505
ZBHH,2010-10-18 23:00,ZBHH 182300Z AUTO 04004KT 6SM 01/M01 A3027 RMK T00101010 IEM_DS3505
ZBHH,2010-10-19 00:00,ZBHH 190000Z AUTO 27002KT 12SM 04/M02 A3027 RMK 70007 SLP278 T00391015 52012 IEM_DS3505
ZBHH,2010-10-19 01:00,ZBHH 190100Z AUTO 14004KT 6SM 06/00 A3030 RMK T00600000 IEM_DS3505
ZBHH,2010-10-19 02:00,ZBHH 190200Z AUTO 05002KT 6SM 07/M01 A3030 RMK T00701010 IEM_DS3505
ZBHH,2010-10-19 03:00,ZBHH 190300Z AUTO 18004KT 14SM 09/M02 A3030 RMK SLP267 T00931017 57001 IEM_DS3505
ZBHH,2010-10-19 04:00,ZBHH 190400Z AUTO 10004KT 6SM 11/M03 A3027 RMK T01101030 IEM_DS3505
ZBHH,2010-10-19 05:00,ZBHH 190500Z AUTO 28004KT 6SM 12/M02 A3024 RMK T01201020 IEM_DS3505
ZBHH,2010-10-19 06:00,ZBHH 190600Z AUTO 22004KT 16SM 12/M02 A3024 RMK SLP249 T01191016 57015 IEM_DS3505
ZBHH,2010-10-19 07:00,ZBHH 190700Z AUTO 23006KT 6SM 13/00 A3021 RMK T01300000 IEM_DS3505
ZBHH,2010-10-19 08:00,ZBHH 190800Z AUTO 21006KT 6SM 13/00 A3021 RMK T01300000 IEM_DS3505
ZBHH,2010-10-19 09:00,ZBHH 190900Z AUTO 20004KT 16SM 12/M02 A3024 RMK SLP248 T01221024 57003 IEM_DS3505
ZBHH,2010-10-19 10:00,ZBHH 191000Z AUTO 16004KT 6SM 09/00 A3024 RMK T00900000 IEM_DS3505
ZBHH,2010-10-19 11:00,ZBHH 191100Z AUTO 11004KT 6SM 08/00 A3024 RMK T00800000 IEM_DS3505
ZBHH,2010-10-19 12:00,ZBHH 191200Z AUTO 04002KT 12SM 08/00 A3027 RMK SLP270 T00830003 52010 IEM_DS3505
ZBHH,2010-10-19 13:00,ZBHH 191300Z AUTO 05006KT 6SM 05/01 A3027 RMK T00500010 IEM_DS3505
ZBHH,2010-10-19 14:00,ZBHH 191400Z AUTO 06006KT 6SM 05/01 A3024 RMK T00500010 IEM_DS3505
ZBHH,2010-10-19 15:00,ZBHH 191500Z AUTO 07002KT 12SM 04/01 A3024 RMK SLP264 T00440009 57002 IEM_DS3505
ZBHH,2010-10-19 16:00,ZBHH 191600Z AUTO 10002KT 6SM 03/00 A3024 RMK T00300000 IEM_DS3505
ZBHH,2010-10-19 17:00,ZBHH 191700Z AUTO 04004KT 6SM 03/00 A3024 RMK T00300000 IEM_DS3505
ZBHH,2010-10-19 18:00,ZBHH 191800Z AUTO 09002KT 12SM 02/M00 A3021 RMK SLP254 T00231001 57008 IEM_DS3505
ZBHH,2010-10-19 19:00,ZBHH 191900Z AUTO 06004KT 6SM 02/M01 A3021 RMK T00201010 IEM_DS3505
ZBHH,2010-10-19 20:00,ZBHH 192000Z AUTO 08006KT 6SM 01/M01 A3021 RMK T00101010 IEM_DS3505
ZBHH,2010-10-19 21:00,ZBHH 192100Z AUTO 07002KT 12SM 01/M01 A3018 RMK SLP245 T00121009 57010 IEM_DS3505
ZBHH,2010-10-19 22:00,ZBHH 192200Z AUTO 06002KT 6SM 01/M01 A3018 RMK T00101010 IEM_DS3505
ZBHH,2010-10-19 23:00,ZBHH 192300Z AUTO 06004KT 6SM 01/M02 A3021 RMK T00101020 IEM_DS3505
ZBHH,2010-10-20 00:00,ZBHH 200000Z AUTO 09002KT 19SM 03/00 A3021 RMK SLP256 T00300001 52006 IEM_DS3505
ZBHH,2010-10-20 01:00,ZBHH 200100Z AUTO 10004KT 4SM 07/01 A3021 RMK T00700010 IEM_DS3505
ZBHH,2010-10-20 02:00,ZBHH 200200Z AUTO 07004KT 6SM 10/00 A3021 RMK T01000000 IEM_DS3505
ZBHH,2010-10-20 03:00,ZBHH 200300Z AUTO 11004KT 19SM 12/M04 A3018 RMK SLP236 T01211037 57007 IEM_DS3505
ZBHH,2010-10-20 04:00,ZBHH 200400Z AUTO 32002KT 6SM 14/M03 A3018 RMK T01401030 IEM_DS3505
ZBHH,2010-10-20 05:00,ZBHH 200500Z AUTO 24006KT 6SM 15/M03 A3012 RMK T01501030 IEM_DS3505
ZBHH,2010-10-20 06:00,ZBHH 200600Z AUTO 11004KT 19SM 16/M03 A3009 RMK SLP204 T01551029 57026 IEM_DS3505
ZBHH,2010-10-20 07:00,ZBHH 200700Z AUTO 23006KT 6SM 16/M02 A3009 RMK T01601020 IEM_DS3505
ZBHH,2010-10-20 08:00,ZBHH 200800Z AUTO 22004KT 6SM 16/M02 A3009 RMK T01601020 IEM_DS3505
ZBHH,2010-10-20 09:00,ZBHH 200900Z AUTO 18002KT 19SM 17/M03 A3006 RMK SLP192 T01661030 57010 IEM_DS3505
ZBHH,2010-10-20 10:00,ZBHH 201000Z AUTO 08002KT 6SM 13/M01 A3006 RMK T01301010 IEM_DS3505
ZBHH,2010-10-20 11:00,ZBHH 201100Z AUTO 04006KT 6SM 10/03 A3009 RMK T01000030 IEM_DS3505
ZBHH,2010-10-20 12:00,ZBHH 201200Z AUTO 00000KT 12SM 11/00 A3009 RMK SLP205 T01080005 52003 IEM_DS3505
ZBHH,2010-10-20 13:00,ZBHH 201300Z AUTO 07008KT 6SM 08/01 A3009 RMK T00800010 IEM_DS3505
ZBHH,2010-10-20 14:00,ZBHH 201400Z AUTO 05004KT 6SM 08/01 A3009 RMK T00800010 IEM_DS3505
ZBHH,2010-10-20 15:00,ZBHH 201500Z AUTO 09002KT 12SM 07/02 A3009 RMK SLP194 T00710018 52001 IEM_DS3505
ZBHH,2010-10-20 16:00,ZBHH 201600Z AUTO 07006KT 6SM 06/02 A3006 RMK T00600020 IEM_DS3505
ZBHH,2010-10-20 17:00,ZBHH 201700Z AUTO 08004KT 6SM 06/01 A3006 RMK T00600010 IEM_DS3505
ZBHH,2010-10-20 18:00,ZBHH 201800Z AUTO 07002KT 12SM 07/01 A3006 RMK SLP181 T00690014 57005 IEM_DS3505
ZBHH,2010-10-20 19:00,ZBHH 201900Z AUTO 02002KT 6SM 06/02 A3006 RMK T00600020 IEM_DS3505
ZBHH,2010-10-20 20:00,ZBHH 202000Z AUTO 06004KT 6SM 07/03 A3006 RMK T00700030 IEM_DS3505
ZBHH,2010-10-20 21:00,ZBHH 202100Z AUTO 14002KT 9SM 08/03 A3006 RMK SLP171 T00790026 57005 IEM_DS3505
ZBHH,2010-10-20 22:00,ZBHH 202200Z AUTO 06002KT 6SM 08/04 A3006 RMK T00800040 IEM_DS3505
ZBHH,2010-10-20 23:00,ZBHH 202300Z AUTO 07002KT 7SM 09/04 A3006 RMK T00900040 IEM_DS3505
ZBHH,2010-10-21 00:00,ZBHH 210000Z AUTO 07002KT 9SM 08/03 A3006 RMK SLP189 T00810034 52005 IEM_DS3505
ZBHH,2010-10-21 01:00,ZBHH 210100Z AUTO 10004KT 3SM 13/09 A3006 RMK T01300090 IEM_DS3505
ZBHH,2010-10-21 02:00,ZBHH 210200Z AUTO 03004KT 2 1/2SM 12/07 A3006 RMK T01200070 IEM_DS3505
ZBHH,2010-10-21 03:00,ZBHH 210300Z AUTO 18002KT 6SM 12/06 A3006 RMK SLP187 T01220063 57001 IEM_DS3505
ZBHH,2010-10-21 04:00,ZBHH 210400Z AUTO 34002KT 2SM 13/07 A3006 RMK T01300070 IEM_DS3505
ZBHH,2010-10-21 05:00,ZBHH 210500Z AUTO 02004KT 2SM 14/08 A3000 RMK T01400080 IEM_DS3505
ZBHH,2010-10-21 06:00,ZBHH 210600Z AUTO 25002KT 6SM 14/07 A2997 RMK SLP156 T01410072 57024 IEM_DS3505
ZBHH,2010-10-21 07:00,ZBHH 210700Z AUTO 29004KT 1 1/2SM 14/08 A2997 RMK T01400080 IEM_DS3505
ZBHH,2010-10-21 08:00,ZBHH 210800Z AUTO 34004KT 1 1/2SM 15/08 A2997 RMK T01500080 IEM_DS3505
ZBHH,2010-10-21 09:00,ZBHH 210900Z AUTO 22002KT 6SM 14/07 A2997 RMK SLP148 T01390070 57005 IEM_DS3505
ZBHH,2010-10-21 10:00,ZBHH 211000Z AUTO 20004KT 2SM 12/08 A2997 RMK T01200080 IEM_DS3505
ZBHH,2010-10-21 11:00,ZBHH 211100Z AUTO 17004KT 2SM 15/12 A2997 RMK T01500120 IEM_DS3505
ZBHH,2010-10-21 12:00,ZBHH 211200Z AUTO 04002KT 7SM 10/07 A3000 RMK SLP166 T01050070 52009 IEM_DS3505
ZBHH,2010-10-21 13:00,ZBHH 211300Z AUTO 00000KT 1 1/2SM 10/08 A3000 RMK T01000080 IEM_DS3505
ZBHH,2010-10-21 14:00,ZBHH 211400Z AUTO 10002KT 1 1/4SM 10/08 A3003 RMK T01000080 IEM_DS3505
ZBHH,2010-10-21 15:00,ZBHH 211500Z AUTO 22002KT 5SM 11/08 RMK SLP164 T01060075 52007 IEM_DS3505
ZBHH,2010-10-21 16:00,ZBHH 211600Z AUTO 06002KT 1 1/2SM 10/09 A3003 RMK T01000090 IEM_DS3505
ZBHH,2010-10-21 17:00,ZBHH 211700Z AUTO 15002KT 1 1/4SM 10/09 A3003 RMK T01000090 IEM_DS3505
ZBHH,2010-10-21 18:00,ZBHH 211800Z AUTO 11002KT 5SM 11/08 A3003 RMK SLP160 T01100077 52001 IEM_DS3505
ZBHH,2010-10-21 19:00,ZBHH 211900Z AUTO 01002KT 1 1/4SM 10/09 A3000 RMK T01000090 IEM_DS3505
ZBHH,2010-10-21 20:00,ZBHH 212000Z AUTO 33002KT 1 1/2SM 10/09 A3000 RMK T01000090 IEM_DS3505
ZBHH,2010-10-21 21:00,ZBHH 212100Z AUTO 04002KT 5SM 11/08 A3000 RMK SLP150 T01110076 57009 IEM_DS3505
ZBHH,2010-10-21 22:00,ZBHH 212200Z AUTO 06002KT 1 1/4SM 10/08 A3000 RMK T01000080 IEM_DS3505
ZBHH,2010-10-21 23:00,ZBHH 212300Z AUTO 11002KT 1SM 09/08 A3000 RMK T00900080 IEM_DS3505
ZBHH,2010-10-22 00:00,ZBHH 220000Z AUTO 02002KT 5SM 11/08 A3000 RMK SLP163 T01080079 52004 IEM_DS3505
ZBHH,2010-10-22 01:00,ZBHH 220100Z AUTO 08002KT 1SM 11/09 A3003 RMK T01100090 IEM_DS3505
ZBHH,2010-10-22 02:00,ZBHH 220200Z AUTO 09002KT 2SM 12/10 A3000 RMK T01200100 IEM_DS3505
ZBHH,2010-10-22 03:00,ZBHH 220300Z AUTO 04002KT 5SM 13/08 A3000 RMK SLP154 T01310080 57003 IEM_DS3505
ZBHH,2010-10-22 04:00,ZBHH 220400Z AUTO 26002KT 2 1/2SM 14/08 A2997 RMK T01400080 IEM_DS3505
ZBHH,2010-10-22 05:00,ZBHH 220500Z AUTO 02004KT 2 1/2SM 15/07 A2994 RMK T01500070 IEM_DS3505
ZBHH,2010-10-22 06:00,ZBHH 220600Z AUTO 22004KT 6SM 13/08 A2994 RMK SLP140 T01300077 57012 IEM_DS3505
ZBHH,2010-10-22 07:00,ZBHH 220700Z AUTO 24008KT 1SM 11/10 A2997 RMK T01100100 IEM_DS3505
ZBHH,2010-10-22 08:00,ZBHH 220800Z AUTO 03006KT 1SM 10/10 A2997 RMK T01000100 IEM_DS3505
ZBHH,2010-10-22 09:00,ZBHH 220900Z AUTO 14002KT 6SM 11/09 A2997 RMK SLP155 T01090090 52009 IEM_DS3505
ZBHH,2010-10-22 10:00,ZBHH 221000Z AUTO 06004KT 1 1/4SM 10/10 A2997 RMK T01000100 IEM_DS3505
ZBHH,2010-10-22 11:00,ZBHH 221100Z AUTO 05004KT 2SM 10/10 A3000 RMK T01000100 IEM_DS3505
ZBHH,2010-10-22 12:00,ZBHH 221200Z AUTO 09002KT 6SM 11/09 A3003 RMK 60051 SLP167 T01060092 52010 IEM_DS3505
ZBHH,2010-10-22 13:00,ZBHH 221300Z AUTO 06002KT 2SM 10/10 A3003 RMK T01000100 IEM_DS3505
ZBHH,2010-10-22 14:00,ZBHH 221400Z AUTO 02004KT 1 1/2SM 10/10 A3006 RMK T01000100 IEM_DS3505
ZBHH,2010-10-22 15:00,ZBHH 221500Z AUTO 25002KT 6SM 11/09 A3003 RMK SLP172 T01060092 52009 IEM_DS3505
ZBHH,2010-10-22 16:00,ZBHH 221600Z AUTO 33002KT 2SM 10/10 A3003 RMK T01000100 IEM_DS3505
ZBHH,2010-10-22 17:00,ZBHH 221700Z AUTO 23004KT 2SM 10/10 A3006 RMK T01000100 IEM_DS3505
ZBHH,2010-10-22 18:00,ZBHH 221800Z AUTO 25002KT 6SM 10/09 A3006 RMK 60012 SLP176 T01020088 52002 IEM_DS3505
ZBHH,2010-10-22 19:00,ZBHH 221900Z AUTO 20004KT 1 1/4SM 10/10 A3006 RMK T01000100 IEM_DS3505
ZBHH,2010-10-22 20:00,ZBHH 222000Z AUTO 24004KT 1 1/4SM 10/10 A3006 RMK T01000100 IEM_DS3505
ZBHH,2010-10-22 21:00,ZBHH 222100Z AUTO 00000KT 6SM 10/09 A3006 RMK 70062 SLP178 T01030089 57002 IEM_DS3505
ZBHH,2010-10-22 22:00,ZBHH 222200Z AUTO 00000KT 1 1/4SM 10/10 A3006 RMK T01000100 IEM_DS3505
ZBHH,2010-10-22 23:00,ZBHH 222300Z AUTO 15002KT 1SM 10/10 A3006 RMK T01000100 IEM_DS3505
ZBHH,2010-10-23 00:00,ZBHH 230000Z AUTO 29004KT 6SM 10/06 A3009 RMK 70062 SLP192 T01000060 52011 IEM_DS3505
ZBHH,2010-10-23 01:00,ZBHH 230100Z AUTO 30002KT 7SM 10/07 A3009 RMK T01000070 IEM_DS3505
ZBHH,2010-10-23 02:00,ZBHH 230200Z AUTO 25002KT 7SM 11/07 A3009 RMK T01100070 IEM_DS3505
ZBHH,2010-10-23 03:00,ZBHH 230300Z AUTO 32002KT 6SM 12/06 A3009 RMK SLP191 T01180059 52003 IEM_DS3505
ZBHH,2010-10-23 04:00,ZBHH 230400Z AUTO 04002KT 3SM 12/09 A3009 RMK T01200090 IEM_DS3505
ZBHH,2010-10-23 05:00,ZBHH 230500Z AUTO 01004KT 3SM 13/10 A3006 RMK T01300100 IEM_DS3505
ZBHH,2010-10-23 06:00,ZBHH 230600Z AUTO 09002KT 6SM 14/07 A3003 RMK SLP165 T01390067 57020 IEM_DS3505
ZBHH,2010-10-23 07:00,ZBHH 230700Z AUTO 12002KT 5SM 13/08 A3003 RMK T01300080 IEM_DS3505
ZBHH,2010-10-23 08:00,ZBHH 230800Z AUTO 20002KT 4SM 13/08 A3000 RMK T01300080 IEM_DS3505
ZBHH,2010-10-23 09:00,ZBHH 230900Z AUTO 04002KT 6SM 13/06 A3000 RMK SLP159 T01340063 57006 IEM_DS3505
ZBHH,2010-10-23 10:00,ZBHH 231000Z AUTO 32002KT 4SM 13/09 A3000 RMK T01300090 IEM_DS3505
ZBHH,2010-10-23 11:00,ZBHH 231100Z AUTO 36008KT 6SM 12/08 A3003 RMK T01200080 IEM_DS3505
ZBHH,2010-10-23 12:00,ZBHH 231200Z AUTO 29008KT 6SM 10/02 A3003 RMK SLP183 T00990023 52014 IEM_DS3505
ZBHH,2010-10-23 13:00,ZBHH 231300Z AUTO 35014KT 7SM 09/04 A3006 RMK T00900040 IEM_DS3505
ZBHH,2010-10-23 14:00,ZBHH 231400Z AUTO 36014KT 7SM 08/04 A3009 RMK T00800040 IEM_DS3505
ZBHH,2010-10-23 15:00,ZBHH 231500Z AUTO 29008KT 6SM 08/02 A3012 RMK SLP203 T00780019 52017 IEM_DS3505
ZBHH,2010-10-23 16:00,ZBHH 231600Z AUTO 35014KT 7SM 07/03 A3012 RMK T00700030 IEM_DS3505
ZBHH,2010-10-23 17:00,ZBHH 231700Z AUTO 35019G29KT 7SM 06/01 A3012 RMK T00600010 IEM_DS3505
ZBHH,2010-10-23 18:00,ZBHH 231800Z AUTO 29004KT 6SM 05/01 A3015 RMK 60003 SLP221 T00500006 52014 IEM_DS3505
ZBHH,2010-10-23 19:00,ZBHH 231900Z AUTO 01012KT 7SM 05/00 A3015 RMK T00500000 IEM_DS3505
ZBHH,2010-10-23 20:00,ZBHH 232000Z AUTO 34016KT 7SM 03/M01 A3018 RMK T00301010 IEM_DS3505
ZBHH,2010-10-23 21:00,ZBHH 232100Z AUTO 32006KT 6SM 03/M04 A3021 RMK 70004 SLP246 T00281044 52017 IEM_DS3505
ZBHH,2010-10-23 22:00,ZBHH 232200Z AUTO 35014KT 7SM 03/M03 A3024 RMK T00301030 IEM_DS3505
ZBHH,2010-10-23 23:00,ZBHH 232300Z AUTO 01014KT 7SM 02/M04 A3027 RMK T00201040 IEM_DS3505
ZBHH,2010-10-24 00:00,ZBHH 240000Z AUTO 36004KT 12SM 02/M05 A3033 RMK 60001 70004 SLP297 T00161049 52035 IEM_DS3505
ZBHH,2010-10-24 01:00,ZBHH 240100Z AUTO 36012KT 7SM 03/M03 A3033 RMK T00301030 IEM_DS3505
ZBHH,2010-10-24 02:00,ZBHH 240200Z AUTO 03014KT 7SM 03/M05 A3036 RMK T00301050 IEM_DS3505
ZBHH,2010-10-24 03:00,ZBHH 240300Z AUTO 36008KT 19SM 02/M08 A3036 RMK SLP318 T00241083 52016 IEM_DS3505
ZBHH,2010-10-24 04:00,ZBHH 240400Z AUTO 03012KT 7SM 05/M09 A3036 RMK T00501090 IEM_DS3505
ZBHH,2010-10-24 05:00,ZBHH 240500Z AUTO 01010KT 7SM 04/M09 A3036 RMK T00401090 IEM_DS3505
ZBHH,2010-10-24 06:00,ZBHH 240600Z AUTO 36008KT 19SM 04/M08 A3036 RMK SLP317 T00351085 57005 IEM_DS3505
ZBHH,2010-10-24 07:00,ZBHH 240700Z AUTO 02014KT 7SM 04/M09 A3036 RMK T00401090 IEM_DS3505
ZBHH,2010-10-24 08:00,ZBHH 240800Z AUTO 36012KT 7SM 03/M09 A3036 RMK T00301090 IEM_DS3505
ZBHH,2010-10-24 09:00,ZBHH 240900Z AUTO 02004KT 9SM 02/M10 A3039 RMK SLP335 T00171105 52008 IEM_DS3505
ZBHH,2010-10-24 10:00,ZBHH 241000Z AUTO 03010KT 7SM 01/M10 A3039 RMK T00101100 IEM_DS3505
ZBHH,2010-10-24 11:00,ZBHH 241100Z AUTO 03010KT 7SM 01/M09 A3042 RMK T00101090 IEM_DS3505
ZBHH,2010-10-24 12:00,ZBHH 241200Z AUTO 36004KT 19SM 01/M10 A3045 RMK SLP362 T00101099 52019 IEM_DS3505
ZBHH,2010-10-24 13:00,ZBHH 241300Z AUTO 01008KT 7SM 01/M10 A3045 RMK T00101100 IEM_DS3505
ZBHH,2010-10-24 14:00,ZBHH 241400Z AUTO 02008KT 7SM 00/M09 A3047 RMK T00001090 IEM_DS3505
ZBHH,2010-10-24 15:00,ZBHH 241500Z AUTO 36004KT 19SM 00/M10 A3047 RMK SLP369 T00051095 52007 IEM_DS3505
ZBHH,2010-10-24 16:00,ZBHH 241600Z AUTO 36008KT 7SM 00/M08 A3047 RMK T00001080 IEM_DS3505
ZBHH,2010-10-24 17:00,ZBHH 241700Z AUTO 34006KT 7SM M01/M08 A3047 RMK T10101080 IEM_DS3505
ZBHH,2010-10-24 18:00,ZBHH 241800Z AUTO 29002KT 19SM M01/M11 A3047 RMK SLP377 T10131106 52006 IEM_DS3505
ZBHH,2010-10-24 19:00,ZBHH 241900Z AUTO 32008KT 6SM M02/M09 A3047 RMK T10201090 IEM_DS3505
ZBHH,2010-10-24 20:00,ZBHH 242000Z AUTO 33010KT 6SM M03/M09 A3047 RMK T10301090 IEM_DS3505
ZBHH,2010-10-24 21:00,ZBHH 242100Z AUTO 29004KT 19SM M02/M11 A3047 RMK SLP384 T10241109 57001 IEM_DS3505
ZBHH,2010-10-24 22:00,ZBHH 242200Z AUTO 32002KT 6SM M03/M09 A3050 RMK T10301090 IEM_DS3505
ZBHH,2010-10-24 23:00,ZBHH 242300Z AUTO 35010KT 6SM M03/M09 A3050 RMK T10301090 IEM_DS3505
ZBHH,2010-10-25 00:00,ZBHH 250000Z AUTO 29004KT 19SM M02/M12 A3050 RMK SLP396 T10201121 52010 IEM_DS3505
ZBHH,2010-10-25 01:00,ZBHH 250100Z AUTO 33008KT 6SM M01/M10 A3053 RMK T10101100 IEM_DS3505
ZBHH,2010-10-25 02:00,ZBHH 250200Z AUTO 26006KT 6SM 00/M11 A3053 RMK T00001110 IEM_DS3505
ZBHH,2010-10-25 03:00,ZBHH 250300Z AUTO 36006KT 19SM 03/M12 A3050 RMK SLP380 T00341125 57003 IEM_DS3505
ZBHH,2010-10-25 04:00,ZBHH 250400Z AUTO 32012KT 6SM 04/M11 A3047 RMK T00401110 IEM_DS3505
ZBHH,2010-10-25 05:00,ZBHH 250500Z AUTO 35016KT 6SM 05/M12 A3047 RMK T00501120 IEM_DS3505
ZBHH,2010-10-25 06:00,ZBHH 250600Z AUTO 34004G25KT 19SM 06/M14 A3045 RMK SLP361 T00571138 57016 IEM_DS3505
ZBHH,2010-10-25 07:00,ZBHH 250700Z AUTO 33014KT 6SM 05/M13 A3045 RMK T00501130 IEM_DS3505
ZBHH,2010-10-25 08:00,ZBHH 250800Z AUTO 33010KT 6SM 05/M14 A3045 RMK T00501140 IEM_DS3505
ZBHH,2010-10-25 09:00,ZBHH 250900Z AUTO 32010KT 19SM 05/M13 A3047 RMK SLP368 T00471132 52002 IEM_DS3505
ZBHH,2010-10-25 10:00,ZBHH 251000Z AUTO 35008KT 6SM 03/M12 A3045 RMK T00301120 IEM_DS3505
ZBHH,2010-10-25 11:00,ZBHH 251100Z AUTO 35010KT 6SM 02/M13 A3047 RMK T00201130 IEM_DS3505
ZBHH,2010-10-25 12:00,ZBHH 251200Z AUTO 02004KT 19SM 02/M14 A3047 RMK SLP381 T00181139 52006 IEM_DS3505
ZBHH,2010-10-25 13:00,ZBHH 251300Z AUTO 04006KT 6SM 00/M11 A3050 RMK T00001110 IEM_DS3505
ZBHH,2010-10-25 14:00,ZBHH 251400Z AUTO 07010KT 6SM M02/M09 A3056 RMK T10201090 IEM_DS3505
ZBHH,2010-10-25 15:00,ZBHH 251500Z AUTO 07004KT 19SM M01/M12 RMK SLP403 T10091119 52025 IEM_DS3505
ZBHH,2010-10-25 16:00,ZBHH 251600Z AUTO 09008KT 6SM M03/M11 A3059 RMK T10301110 IEM_DS3505
ZBHH,2010-10-25 17:00,ZBHH 251700Z AUTO 08008KT 6SM M04/M11 A3059 RMK T10401110 IEM_DS3505
ZBHH,2010-10-25 18:00,ZBHH 251800Z AUTO 09004KT 19SM M03/M14 A3062 RMK SLP421 T10261137 52017 IEM_DS3505
ZBHH,2010-10-25 19:00,ZBHH 251900Z AUTO 08008KT 6SM M04/M11 A3062 RMK T10401110 IEM_DS3505
ZBHH,2010-10-25 20:00,ZBHH 252000Z AUTO 08008KT 6SM M04/M11 A3059 RMK T10401110 IEM_DS3505
ZBHH,2010-10-25 21:00,ZBHH 252100Z AUTO 09004KT 19SM M04/M14 A3056 RMK SLP412 T10351143 57012 IEM_DS3505
ZBHH,2010-10-25 22:00,ZBHH 252200Z AUTO 08008KT 6SM M05/M12 A3059 RMK T10501120 IEM_DS3505
ZBHH,2010-10-25 23:00,ZBHH 252300Z AUTO 09010KT 6SM M05/M12 A3056 RMK T10501120 IEM_DS3505
ZBHH,2010-10-26 00:00,ZBHH 260000Z AUTO 07006KT 12SM M04/M15 A3059 RMK SLP428 T10391149 52007 IEM_DS3505
ZBHH,2010-10-26 01:00,ZBHH 260100Z AUTO 09008KT 6SM M04/M13 A3062 RMK T10401130 IEM_DS3505
ZBHH,2010-10-26 02:00,ZBHH 260200Z AUTO 09008KT 6SM M03/M13 A3059 RMK T10301130 IEM_DS3505
ZBHH,2010-10-26 03:00,ZBHH 260300Z AUTO 36002KT 12SM M01/M14 A3056 RMK SLP418 T10101145 57008 IEM_DS3505
ZBHH,2010-10-26 04:00,ZBHH 260400Z AUTO 03006KT 6SM M01/M15 A3053 RMK T10101150 IEM_DS3505
ZBHH,2010-10-26 05:00,ZBHH 260500Z AUTO 19002KT 6SM 01/M15 A3050 RMK T00101150 IEM_DS3505
ZBHH,2010-10-26 06:00,ZBHH 260600Z AUTO 14004KT 9SM 01/M16 A3047 RMK SLP381 T00101164 57032 IEM_DS3505
ZBHH,2010-10-26 07:00,ZBHH 260700Z AUTO 24004KT 6SM 01/M14 A3045 RMK T00101140 IEM_DS3505
ZBHH,2010-10-26 08:00,ZBHH 260800Z AUTO 21004KT 6SM 01/M14 A3045 RMK T00101140 IEM_DS3505
ZBHH,2010-10-26 09:00,ZBHH 260900Z AUTO 22002KT 12SM 01/M14 A3045 RMK SLP370 T00061135 57013 IEM_DS3505
ZBHH,2010-10-26 10:00,ZBHH 261000Z AUTO 20002KT 6SM M01/M07 A3042 RMK T10101070 IEM_DS3505
ZBHH,2010-10-26 11:00,ZBHH 261100Z AUTO 24004KT 6SM M02/M07 A3045 RMK T10201070 IEM_DS3505
ZBHH,2010-10-26 12:00,ZBHH 261200Z AUTO 27002KT 12SM 01/M10 A3045 RMK SLP373 T00061102 52002 IEM_DS3505
ZBHH,2010-10-26 13:00,ZBHH 261300Z AUTO 09004KT 6SM M01/M07 A3045 RMK T10101070 IEM_DS3505
ZBHH,2010-10-26 14:00,ZBHH 261400Z AUTO 09004KT 6SM M02/M08 A3045 RMK T10201080 IEM_DS3505
ZBHH,2010-10-26 15:00,ZBHH 261500Z AUTO 27002KT 12SM 00/M09 A3045 RMK SLP368 T00011091 52001 IEM_DS3505
ZBHH,2010-10-26 16:00,ZBHH 261600Z AUTO 13002KT 6SM M02/M07 A3042 RMK T10201070 IEM_DS3505
ZBHH,2010-10-26 17:00,ZBHH 261700Z AUTO 12002KT 6SM M02/M06 A3042 RMK T10201060 IEM_DS3505
ZBHH,2010-10-26 18:00,ZBHH 261800Z AUTO 04002KT 12SM M01/M09 A3042 RMK SLP355 T10071086 57009 IEM_DS3505
ZBHH,2010-10-26 19:00,ZBHH 261900Z AUTO 07002KT 6SM M02/M05 A3042 RMK T10201050 IEM_DS3505
ZBHH,2010-10-26 20:00,ZBHH 262000Z AUTO 09002KT 7SM M03/M05 A3039 RMK T10301050 IEM_DS3505
ZBHH,2010-10-26 21:00,ZBHH 262100Z AUTO 09004KT 12SM M02/M07 A3039 RMK SLP350 T10161069 57007 IEM_DS3505
ZBHH,2010-10-26 22:00,ZBHH 262200Z AUTO 07002KT 7SM M03/M04 A3039 RMK T10301040 IEM_DS3505
ZBHH,2010-10-26 23:00,ZBHH 262300Z AUTO 00000KT 7SM M03/M04 A3039 RMK T10301040 IEM_DS3505
ZBHH,2010-10-27 00:00,ZBHH 270000Z AUTO 36002KT 6SM M02/M06 A3042 RMK 60000 70000 SLP357 T10151055 52006 IEM_DS3505
ZBHH,2010-10-27 01:00,ZBHH 270100Z AUTO 03002KT 2SM M02/M03 A3042 RMK T10201030 IEM_DS3505
ZBHH,2010-10-27 02:00,ZBHH 270200Z AUTO 21002KT 2 1/2SM M01/M03 A3042 RMK T10101030 IEM_DS3505
ZBHH,2010-10-27 03:00,ZBHH 270300Z AUTO 20004KT 6SM 01/M04 A3042 RMK SLP351 T00121040 54000 IEM_DS3505
ZBHH,2010-10-27 04:00,ZBHH 270400Z AUTO 24006KT 2 1/2SM 01/M02 RMK T00101020 IEM_DS3505
ZBHH,2010-10-27 05:00,ZBHH 270500Z AUTO 29004KT 4SM 03/M02 A3039 RMK T00301020 IEM_DS3505
ZBHH,2010-10-27 06:00,ZBHH 270600Z AUTO 27002KT 6SM 04/M03 A3036 RMK 60000 SLP332 T00351033 57014 IEM_DS3505
ZBHH,2010-10-27 07:00,ZBHH 270700Z AUTO 27002KT 5SM 03/M03 A3036 RMK T00301030 IEM_DS3505
ZBHH,2010-10-27 08:00,ZBHH 270800Z AUTO 32004KT 6SM 03/M02 A3036 RMK T00301020 IEM_DS3505
ZBHH,2010-10-27 09:00,ZBHH 270900Z AUTO 25004KT 7SM 04/M04 A3036 RMK SLP330 T00401037 57002 IEM_DS3505
ZBHH,2010-10-27 10:00,ZBHH 271000Z AUTO 10004KT 3SM 01/00 A3036 RMK T00100000 IEM_DS3505
ZBHH,2010-10-27 11:00,ZBHH 271100Z AUTO 08004KT 3SM 01/M01 A3039 RMK T00101010 IEM_DS3505
ZBHH,2010-10-27 12:00,ZBHH 271200Z AUTO 09002KT 16SM 02/M02 A3039 RMK 60000 SLP346 T00151016 52009 IEM_DS3505
ZBHH,2010-10-27 13:00,ZBHH 271300Z AUTO 08002KT 3SM 00/M01 A3039 RMK T00001010 IEM_DS3505
ZBHH,2010-10-27 14:00,ZBHH 271400Z AUTO 08002KT 3SM M01/M01 A3039 RMK T10101010 IEM_DS3505
ZBHH,2010-10-27 15:00,ZBHH 271500Z AUTO 04002KT 19SM 01/M02 A3042 RMK SLP348 T00111020 52006 IEM_DS3505
ZBHH,2010-10-27 16:00,ZBHH 271600Z AUTO 12002KT 3SM M01/M01 A3042 RMK T10101010 IEM_DS3505
ZBHH,2010-10-27 17:00,ZBHH 271700Z AUTO 12002KT 3SM M01/M02 A3042 RMK T10101020 IEM_DS3505
ZBHH,2010-10-27 18:00,ZBHH 271800Z AUTO 07002KT 19SM M01/M03 A3039 RMK SLP344 T10121029 57003 IEM_DS3505
ZBHH,2010-10-27 19:00,ZBHH 271900Z AUTO 09004KT 3SM M01/M02 A3039 RMK T10101020 IEM_DS3505
ZBHH,2010-10-27 20:00,ZBHH 272000Z AUTO 00000KT 3SM M01/M02 A3039 RMK T10101020 IEM_DS3505
ZBHH,2010-10-27 21:00,ZBHH 272100Z AUTO 07002KT 19SM M00/M03 A3042 RMK 70000 SLP344 T10031032 52003 IEM_DS3505
ZBHH,2010-10-27 22:00,ZBHH 272200Z AUTO 08002KT 3SM M02/M03 A3042 RMK T10201030 IEM_DS3505
ZBHH,2010-10-27 23:00,ZBHH 272300Z AUTO 09002KT 1 1/2SM M02/M03 A3042 RMK T10201030 IEM_DS3505
ZBHH,2010-10-28 00:00,ZBHH 280000Z AUTO 04002KT 4SM M01/M03 A3045 RMK 70000 SLP366 T10071027 52013 IEM_DS3505
ZBHH,2010-10-28 01:00,ZBHH 280100Z AUTO 10004KT 2SM 01/M01 A3045 RMK T00101010 IEM_DS3505
ZBHH,2010-10-28 02:00,ZBHH 280200Z AUTO 18004KT 2 1/2SM 02/M01 A3045 RMK T00201010 IEM_DS3505
ZBHH,2010-10-28 03:00,ZBHH 280300Z AUTO 09004KT 4SM 04/M02 A3045 RMK SLP357 T00401022 52001 IEM_DS3505
ZBHH,2010-10-28 04:00,ZBHH 280400Z AUTO 29002KT 3SM 06/00 A3045 RMK T00600000 IEM_DS3505
ZBHH,2010-10-28 05:00,ZBHH 280500Z AUTO 26004KT 3SM 06/M01 A3039 RMK T00601010 IEM_DS3505
ZBHH,2010-10-28 06:00,ZBHH 280600Z AUTO 22004KT 6SM 08/M04 A3039 RMK SLP327 T00771035 57023 IEM_DS3505
ZBHH,2010-10-28 07:00,ZBHH 280700Z AUTO 23004KT 7SM 07/M02 A3036 RMK T00701020 IEM_DS3505
ZBHH,2010-10-28 08:00,ZBHH 280800Z AUTO 25004KT 6SM 08/M02 A3036 RMK T00801020 IEM_DS3505
ZBHH,2010-10-28 09:00,ZBHH 280900Z AUTO 25004KT 12SM 07/M04 A3036 RMK SLP319 T00741035 57006 IEM_DS3505
ZBHH,2010-10-28 10:00,ZBHH 281000Z AUTO 23002KT 5SM 05/M02 A3036 RMK T00501020 IEM_DS3505
ZBHH,2010-10-28 11:00,ZBHH 281100Z AUTO 14004KT 4SM 04/M02 A3036 RMK T00401020 IEM_DS3505
ZBHH,2010-10-28 12:00,ZBHH 281200Z AUTO 29002KT 12SM 04/M02 A3039 RMK SLP336 T00421020 52007 IEM_DS3505
ZBHH,2010-10-28 13:00,ZBHH 281300Z AUTO 06004KT 4SM 01/M02 A3039 RMK T00101020 IEM_DS3505
ZBHH,2010-10-28 14:00,ZBHH 281400Z AUTO 04004KT 4SM 00/M02 A3042 RMK T00001020 IEM_DS3505
ZBHH,2010-10-28 15:00,ZBHH 281500Z AUTO 09002KT 19SM 00/M02 A3042 RMK SLP342 T00041023 52008 IEM_DS3505
ZBHH,2010-10-28 16:00,ZBHH 281600Z AUTO 06004KT 4SM M02/M03 A3042 RMK T10201030 IEM_DS3505
ZBHH,2010-10-28 17:00,ZBHH 281700Z AUTO 08004KT 4SM M02/M03 A3042 RMK T10201030 IEM_DS3505
ZBHH,2010-10-28 18:00,ZBHH 281800Z AUTO 07002KT 19SM M01/M04 A3042 RMK SLP337 T10071041 52001 IEM_DS3505
ZBHH,2010-10-28 19:00,ZBHH 281900Z AUTO 06004KT 4SM M03/M04 A3042 RMK T10301040 IEM_DS3505
ZBHH,2010-10-28 20:00,ZBHH 282000Z AUTO 07004KT 4SM M03/M04 A3039 RMK T10301040 IEM_DS3505
ZBHH,2010-10-28 21:00,ZBHH 282100Z AUTO 11002KT 19SM M01/M05 A3039 RMK SLP335 T10141046 57004 IEM_DS3505
ZBHH,2010-10-28 22:00,ZBHH 282200Z AUTO 09002KT 5SM M03/M04 A3039 RMK T10301040 IEM_DS3505
ZBHH,2010-10-28 23:00,ZBHH 282300Z AUTO 05006KT 5SM M03/M05 A3042 RMK T10301050 IEM_DS3505
ZBHH,2010-10-29 00:00,ZBHH 290000Z AUTO 02002KT 6SM M02/M04 A3042 RMK SLP352 T10151040 52008 IEM_DS3505
ZBHH,2010-10-29 01:00,ZBHH 290100Z AUTO 10004KT 4SM 01/M02 A3042 RMK T00101020 IEM_DS3505
ZBHH,2010-10-29 02:00,ZBHH 290200Z AUTO 15002KT 5SM 04/M02 A3045 RMK T00401020 IEM_DS3505
ZBHH,2010-10-29 03:00,ZBHH 290300Z AUTO 09002KT 9SM 06/M04 A3042 RMK SLP343 T00611044 54000 IEM_DS3505
ZBHH,2010-10-29 04:00,ZBHH 290400Z AUTO 6SM 07/M03 A3042 RMK T00701030 IEM_DS3505
ZBHH,2010-10-29 05:00,ZBHH 290500Z AUTO 22006KT 6SM 07/M02 A3039 RMK T00701020 IEM_DS3505
ZBHH,2010-10-29 06:00,ZBHH 290600Z AUTO 20002KT 9SM 09/M05 A3036 RMK SLP313 T00911052 57022 IEM_DS3505
ZBHH,2010-10-29 07:00,ZBHH 290700Z AUTO 22006KT 6SM 09/M04 A3036 RMK T00901040 IEM_DS3505
ZBHH,2010-10-29 08:00,ZBHH 290800Z AUTO 22006KT 6SM 09/M05 A3036 RMK T00901050 IEM_DS3505
ZBHH,2010-10-29 09:00,ZBHH 290900Z AUTO 22004KT 7SM 08/M05 A3036 RMK SLP313 T00841051 57003 IEM_DS3505
ZBHH,2010-10-29 10:00,ZBHH 291000Z AUTO 23002KT 7SM 05/M03 A3036 RMK T00501030 IEM_DS3505
ZBHH,2010-10-29 11:00,ZBHH 291100Z AUTO 14002KT 7SM 05/M03 A3039 RMK T00501030 IEM_DS3505
ZBHH,2010-10-29 12:00,ZBHH 291200Z AUTO 00000KT 9SM 04/M03 A3039 RMK SLP339 T00371031 52012 IEM_DS3505
ZBHH,2010-10-29 13:00,ZBHH 291300Z AUTO 07004KT 7SM 02/M02 A3039 RMK T00201020 IEM_DS3505
ZBHH,2010-10-29 14:00,ZBHH 291400Z AUTO 09004KT 6SM 01/M03 A3039 RMK T00101030 IEM_DS3505
ZBHH,2010-10-29 15:00,ZBHH 291500Z AUTO 04002KT 9SM 02/M03 A3039 RMK SLP330 T00221031 52005 IEM_DS3505
ZBHH,2010-10-29 16:00,ZBHH 291600Z AUTO 07004KT 6SM 00/M02 A3039 RMK T00001020 IEM_DS3505
ZBHH,2010-10-29 17:00,ZBHH 291700Z AUTO 06006KT 6SM M01/M03 A3039 RMK T10101030 IEM_DS3505
ZBHH,2010-10-29 18:00,ZBHH 291800Z AUTO 09002KT 9SM 00/M03 A3039 RMK SLP326 T00011031 57001 IEM_DS3505
ZBHH,2010-10-29 19:00,ZBHH 291900Z AUTO 08004KT 6SM M01/M03 A3039 RMK T10101030 IEM_DS3505
ZBHH,2010-10-29 20:00,ZBHH 292000Z AUTO 07004KT 6SM M02/M04 A3039 RMK T10201040 IEM_DS3505
ZBHH,2010-10-29 21:00,ZBHH 292100Z AUTO 09002KT 16SM M02/M04 A3039 RMK SLP328 T10181035 57004 IEM_DS3505
ZBHH,2010-10-29 22:00,ZBHH 292200Z AUTO 04004KT 6SM M02/M04 A3039 RMK T10201040 IEM_DS3505
ZBHH,2010-10-29 23:00,ZBHH 292300Z AUTO 06004KT 4SM M02/M04 A3039 RMK T10201040 IEM_DS3505
ZBHH,2010-10-30 00:00,ZBHH 300000Z AUTO 09002KT 6SM M00/M03 A3042 RMK SLP345 T10051027 52008 IEM_DS3505
ZBHH,2010-10-30 01:00,ZBHH 300100Z AUTO 06004KT 4SM 02/M02 A3042 RMK T00201020 IEM_DS3505
ZBHH,2010-10-30 02:00,ZBHH 300200Z AUTO 04002KT 5SM 04/M02 A3042 RMK T00401020 IEM_DS3505
ZBHH,2010-10-30 03:00,ZBHH 300300Z AUTO 09002KT 9SM 07/M04 A3042 RMK SLP331 T00691039 54000 IEM_DS3505
ZBHH,2010-10-30 04:00,ZBHH 300400Z AUTO 23004KT 6SM 08/M01 A3039 RMK T00801010 IEM_DS3505
ZBHH,2010-10-30 05:00,ZBHH 300500Z AUTO 25004KT 7SM 10/M01 A3036 RMK T01001010 IEM_DS3505
ZBHH,2010-10-30 06:00,ZBHH 300600Z AUTO 20006KT 16SM 10/M05 A3033 RMK SLP303 T00981046 57023 IEM_DS3505
ZBHH,2010-10-30 07:00,ZBHH 300700Z AUTO 24006KT 7SM 10/M04 A3033 RMK T01001040 IEM_DS3505
ZBHH,2010-10-30 08:00,ZBHH 300800Z AUTO 23004KT 6SM 10/M04 A3033 RMK T01001040 IEM_DS3505
ZBHH,2010-10-30 09:00,ZBHH 300900Z AUTO 18004KT 17SM 09/M06 A3033 RMK SLP302 T00921055 57006 IEM_DS3505
ZBHH,2010-10-30 10:00,ZBHH 301000Z AUTO 17002KT 6SM 05/M03 A3033 RMK T00501030 IEM_DS3505
ZBHH,2010-10-30 11:00,ZBHH 301100Z AUTO 17002KT 6SM 04/M04 A3033 RMK T00401040 IEM_DS3505
ZBHH,2010-10-30 12:00,ZBHH 301200Z AUTO 00000KT 16SM 04/M03 A3033 RMK SLP318 T00371033 52005 IEM_DS3505
ZBHH,2010-10-30 13:00,ZBHH 301300Z AUTO 09002KT 6SM 02/M02 A3033 RMK T00201020 IEM_DS3505
ZBHH,2010-10-30 14:00,ZBHH 301400Z AUTO 06008KT 6SM 01/M03 A3033 RMK T00101030 IEM_DS3505
ZBHH,2010-10-30 15:00,ZBHH 301500Z AUTO 07002KT 16SM 02/M04 A3033 RMK SLP310 T00161037 52004 IEM_DS3505
ZBHH,2010-10-30 16:00,ZBHH 301600Z AUTO 05004KT 6SM 00/M03 A3033 RMK T00001030 IEM_DS3505
ZBHH,2010-10-30 17:00,ZBHH 301700Z AUTO 07004KT 6SM M01/M03 A3033 RMK T10101030 IEM_DS3505
ZBHH,2010-10-30 18:00,ZBHH 301800Z AUTO 00000KT 19SM M01/M03 A3033 RMK SLP305 T10091034 57003 IEM_DS3505
ZBHH,2010-10-30 19:00,ZBHH 301900Z AUTO 05004KT 6SM M02/M04 A3033 RMK T10201040 IEM_DS3505
ZBHH,2010-10-30 20:00,ZBHH 302000Z AUTO 06006KT 6SM M02/M04 A3030 RMK T10201040 IEM_DS3505
ZBHH,2010-10-30 21:00,ZBHH 302100Z AUTO 07002KT 19SM M02/M04 A3030 RMK SLP300 T10201042 57008 IEM_DS3505
ZBHH,2010-10-30 22:00,ZBHH 302200Z AUTO 06004KT 6SM M03/M05 A3030 RMK T10301050 IEM_DS3505
ZBHH,2010-10-30 23:00,ZBHH 302300Z AUTO 07004KT 6SM M02/M04 A3030 RMK T10201040 IEM_DS3505
ZBHH,2010-10-31 00:00,ZBHH 310000Z AUTO 36002KT 12SM M01/M03 A3033 RMK SLP319 T10131033 52006 IEM_DS3505
ZBHH,2010-10-31 01:00,ZBHH 310100Z AUTO 06004KT 4SM 02/M02 A3033 RMK T00201020 IEM_DS3505
ZBHH,2010-10-31 02:00,ZBHH 310200Z AUTO 14002KT 6SM 07/M01 A3033 RMK T00701010 IEM_DS3505
ZBHH,2010-10-31 03:00,ZBHH 310300Z AUTO 16004KT 12SM 08/M04 A3033 RMK SLP301 T00831042 54000 IEM_DS3505
ZBHH,2010-10-31 04:00,ZBHH 310400Z AUTO 21004KT 6SM 10/M03 A3030 RMK T01001030 IEM_DS3505
ZBHH,2010-10-31 05:00,ZBHH 310500Z AUTO 21004KT 6SM 10/M03 A3030 RMK T01001030 IEM_DS3505
ZBHH,2010-10-31 06:00,ZBHH 310600Z AUTO 22004KT 12SM 11/M04 A3027 RMK SLP282 T01071045 57017 IEM_DS3505
ZBHH,2010-10-31 07:00,ZBHH 310700Z AUTO 19004KT 6SM 11/M04 A3027 RMK T01101040 IEM_DS3505
ZBHH,2010-10-31 08:00,ZBHH 310800Z AUTO 21004KT 6SM 10/M03 A3027 RMK T01001030 IEM_DS3505
ZBHH,2010-10-31 09:00,ZBHH 310900Z AUTO 25002KT 12SM 10/M04 A3027 RMK SLP280 T01041040 57004 IEM_DS3505
ZBHH,2010-10-31 10:00,ZBHH 311000Z AUTO 27004KT 6SM 07/M03 A3027 RMK T00701030 IEM_DS3505
ZBHH,2010-10-31 11:00,ZBHH 311100Z AUTO 03006KT 6SM 04/M03 A3030 RMK T00401030 IEM_DS3505
ZBHH,2010-10-31 12:00,ZBHH 311200Z AUTO 34002KT 9SM 07/M08 A3030 RMK SLP308 T00671077 52018 IEM_DS3505
ZBHH,2010-10-31 13:00,ZBHH 311300Z AUTO 04004KT 6SM 02/M05 A3033 RMK T00201050 IEM_DS3505
ZBHH,2010-10-31 14:00,ZBHH 311400Z AUTO 06004KT 6SM 00/M05 A3033 RMK T00001050 IEM_DS3505
ZBHH,2010-10-31 15:00,ZBHH 311500Z AUTO 25002KT 12SM 02/M06 A3036 RMK SLP310 T00171061 52011 IEM_DS3505
ZBHH,2010-10-31 16:00,ZBHH 311600Z AUTO 05006KT 6SM M03/M05 A3036 RMK T10301050 IEM_DS3505
ZBHH,2010-10-31 17:00,ZBHH 311700Z AUTO 06002KT 6SM M02/M05 A3036 RMK T10201050 IEM_DS3505
ZBHH,2010-10-31 18:00,ZBHH 311800Z AUTO 32002KT 12SM 02/M08 A3036 RMK SLP310 T00191085 52006 IEM_DS3505
ZBHH,2010-10-31 19:00,ZBHH 311900Z AUTO 04006KT 6SM M01/M06 A3036 RMK T10101060 IEM_DS3505
ZBHH,2010-10-31 20:00,ZBHH 312000Z AUTO 35002KT 6SM M01/M06 A3036 RMK T10101060 IEM_DS3505
ZBHH,2010-10-31 21:00,ZBHH 312100Z AUTO 32004KT 12SM 01/M09 A3039 RMK SLP316 T00131093 52003 IEM_DS3505
ZBHH,2010-10-31 22:00,ZBHH 312200Z AUTO 36004KT 6SM M02/M07 A3039 RMK T10201070 IEM_DS3505
ZBHH,2010-10-31 23:00,ZBHH 312300Z AUTO 03002KT 6SM M03/M06 A3042 RMK T10301060 IEM_DS3505
ZBHH,2010-11-01 00:00,ZBHH 010000Z AUTO 09002KT 12SM 00/M09 A3045 RMK SLP350 T00051090 52021 IEM_DS3505
ZBHH,2010-11-01 01:00,ZBHH 010100Z AUTO 06002KT 7SM 02/M06 A3047 RMK T00201060 IEM_DS3505
ZBHH,2010-11-01 02:00,ZBHH 010200Z AUTO 09012KT 7SM 04/M09 A3045 RMK T00401090 IEM_DS3505
ZBHH,2010-11-01 03:00,ZBHH 010300Z AUTO 09006KT 9SM 05/M11 A3045 RMK SLP353 T00481109 52001 IEM_DS3505
ZBHH,2010-11-01 04:00,ZBHH 010400Z AUTO 11008KT 7SM 07/M09 A3045 RMK T00701090 IEM_DS3505
ZBHH,2010-11-01 05:00,ZBHH 010500Z AUTO 11006KT 6SM 08/M08 A3042 RMK T00801080 IEM_DS3505
ZBHH,2010-11-01 06:00,ZBHH 010600Z AUTO 14002KT 9SM 07/M12 A3039 RMK SLP329 T00671115 57017 IEM_DS3505
ZBHH,2010-11-01 07:00,ZBHH 010700Z AUTO 11006KT 6SM 07/M12 A3039 RMK T00701120 IEM_DS3505
ZBHH,2010-11-01 08:00,ZBHH 010800Z AUTO 12006KT 6SM 07/M12 A3036 RMK T00701120 IEM_DS3505
ZBHH,2010-11-01 09:00,ZBHH 010900Z AUTO 20004KT 9SM 07/M12 A3039 RMK SLP320 T00731119 57008 IEM_DS3505
ZBHH,2010-11-01 10:00,ZBHH 011000Z AUTO 10008KT 7SM 03/M10 A3039 RMK T00301100 IEM_DS3505
ZBHH,2010-11-01 11:00,ZBHH 011100Z AUTO 09008KT 6SM 02/M09 A3039 RMK T00201090 IEM_DS3505
ZBHH,2010-11-01 12:00,ZBHH 011200Z AUTO 25004KT 12SM 04/M11 A3039 RMK SLP339 T00381110 52008 IEM_DS3505
ZBHH,2010-11-01 13:00,ZBHH 011300Z AUTO 10008KT 6SM 00/M07 A3042 RMK T00001070 IEM_DS3505
ZBHH,2010-11-01 14:00,ZBHH 011400Z AUTO 11008KT 6SM M01/M08 A3042 RMK T10101080 IEM_DS3505
ZBHH,2010-11-01 15:00,ZBHH 011500Z AUTO 09002KT 12SM 01/M10 A3042 RMK SLP343 T00071102 52006 IEM_DS3505
ZBHH,2010-11-01 16:00,ZBHH 011600Z AUTO 09006KT 6SM M02/M08 A3042 RMK T10201080 IEM_DS3505
ZBHH,2010-11-01 17:00,ZBHH 011700Z AUTO 10004KT 6SM M02/M08 A3042 RMK T10201080 IEM_DS3505
ZBHH,2010-11-01 18:00,ZBHH 011800Z AUTO 07002KT 19SM M02/M10 A3042 RMK SLP341 T10171095 57003 IEM_DS3505
ZBHH,2010-11-01 19:00,ZBHH 011900Z AUTO 35002KT 6SM M03/M07 A3039 RMK T10301070 IEM_DS3505
ZBHH,2010-11-01 20:00,ZBHH 012000Z AUTO 08004KT 6SM M05/M08 A3039 RMK T10501080 IEM_DS3505
ZBHH,2010-11-01 21:00,ZBHH 012100Z AUTO 09002KT 19SM M03/M08 A3039 RMK SLP340 T10331084 57003 IEM_DS3505
ZBHH,2010-11-01 22:00,ZBHH 012200Z AUTO 10004KT 6SM M05/M08 A3039 RMK T10501080 IEM_DS3505
ZBHH,2010-11-01 23:00,ZBHH 012300Z AUTO 00000KT 6SM M05/M08 A3039 RMK T10501080 IEM_DS3505
ZBHH,2010-11-02 00:00,ZBHH 020000Z AUTO 25002KT 6SM M03/M08 A3042 RMK SLP356 T10261075 52008 IEM_DS3505
ZBHH,2010-11-02 01:00,ZBHH 020100Z AUTO 11004KT 6SM M01/M06 A3042 RMK T10101060 IEM_DS3505
ZBHH,2010-11-02 02:00,ZBHH 020200Z AUTO 15002KT 6SM 02/M07 A3042 RMK T00201070 IEM_DS3505
ZBHH,2010-11-02 03:00,ZBHH 020300Z AUTO 25004KT 12SM 03/M09 A3042 RMK SLP347 T00321094 57002 IEM_DS3505
ZBHH,2010-11-02 04:00,ZBHH 020400Z AUTO 25006KT 6SM 05/M06 A3039 RMK T00501060 IEM_DS3505
ZBHH,2010-11-02 05:00,ZBHH 020500Z AUTO 22006KT 6SM 06/M09 A3036 RMK T00601090 IEM_DS3505
ZBHH,2010-11-02 06:00,ZBHH 020600Z AUTO 20006KT 19SM 07/M10 A3033 RMK SLP308 T00701103 57031 IEM_DS3505
ZBHH,2010-11-02 07:00,ZBHH 020700Z AUTO 23008KT 6SM 07/M09 A3030 RMK T00701090 IEM_DS3505
ZBHH,2010-11-02 08:00,ZBHH 020800Z AUTO 23008KT 6SM 07/M08 A3030 RMK T00701080 IEM_DS3505
ZBHH,2010-11-02 09:00,ZBHH 020900Z AUTO 20006KT 19SM 07/M08 A3027 RMK SLP296 T00701078 57014 IEM_DS3505
ZBHH,2010-11-02 10:00,ZBHH 021000Z AUTO 19002KT 6SM 04/M06 A3027 RMK T00401060 IEM_DS3505
ZBHH,2010-11-02 11:00,ZBHH 021100Z AUTO 00000KT 6SM 03/M06 A3030 RMK T00301060 IEM_DS3505
ZBHH,2010-11-02 12:00,ZBHH 021200Z AUTO 32002KT 12SM 03/M06 A3030 RMK SLP313 T00271062 52007 IEM_DS3505
ZBHH,2010-11-02 13:00,ZBHH 021300Z AUTO 08004KT 6SM M01/M05 A3030 RMK T10101050 IEM_DS3505
ZBHH,2010-11-02 14:00,ZBHH 021400Z AUTO 06004KT 6SM M02/M05 A3030 RMK T10201050 IEM_DS3505
ZBHH,2010-11-02 15:00,ZBHH 021500Z AUTO 09002KT 16SM 01/M06 A3030 RMK SLP303 T00091058 54000 IEM_DS3505
ZBHH,2010-11-02 16:00,ZBHH 021600Z AUTO 07004KT 6SM M03/M05 A3030 RMK T10301050 IEM_DS3505
ZBHH,2010-11-02 17:00,ZBHH 021700Z AUTO 08004KT 6SM M04/M06 A3030 RMK T10401060 IEM_DS3505
ZBHH,2010-11-02 18:00,ZBHH 021800Z AUTO 07002KT 19SM M01/M06 A3030 RMK SLP297 T10081065 57001 IEM_DS3505
ZBHH,2010-11-02 19:00,ZBHH 021900Z AUTO 07004KT 6SM M05/M07 A3027 RMK T10501070 IEM_DS3505
ZBHH,2010-11-02 20:00,ZBHH 022000Z AUTO 04006KT 6SM M04/M06 A3027 RMK T10401060 IEM_DS3505
ZBHH,2010-11-02 21:00,ZBHH 022100Z AUTO 07002KT 19SM M01/M07 A3027 RMK SLP289 T10141069 57008 IEM_DS3505
ZBHH,2010-11-02 22:00,ZBHH 022200Z AUTO 08004KT 6SM M06/M07 A3027 RMK T10601070 IEM_DS3505
ZBHH,2010-11-02 23:00,ZBHH 022300Z AUTO 06002KT 6SM M05/M07 A3027 RMK T10501070 IEM_DS3505
ZBHH,2010-11-03 00:00,ZBHH 030000Z AUTO 00000KT 9SM M01/M06 A3030 RMK SLP309 T10141060 52008 IEM_DS3505
ZBHH,2010-11-03 01:00,ZBHH 030100Z AUTO 14004KT 5SM 01/M04 A3030 RMK T00101040 IEM_DS3505
ZBHH,2010-11-03 02:00,ZBHH 030200Z AUTO 17006KT 6SM 03/M05 A3030 RMK T00301050 IEM_DS3505
ZBHH,2010-11-03 03:00,ZBHH 030300Z AUTO 32002KT 12SM 05/M07 A3030 RMK SLP300 T00471068 52001 IEM_DS3505
ZBHH,2010-11-03 04:00,ZBHH 030400Z AUTO 17004KT 6SM 06/M05 A3027 RMK T00601050 IEM_DS3505
ZBHH,2010-11-03 05:00,ZBHH 030500Z AUTO 24004KT 6SM 07/M05 A3027 RMK T00701050 IEM_DS3505
ZBHH,2010-11-03 06:00,ZBHH 030600Z AUTO 22004KT 12SM 09/M06 A3024 RMK SLP272 T00871059 57019 IEM_DS3505
ZBHH,2010-11-03 07:00,ZBHH 030700Z AUTO 25006KT 6SM 09/M05 A3021 RMK T00901050 IEM_DS3505
ZBHH,2010-11-03 08:00,ZBHH 030800Z AUTO 24006KT 6SM 09/M05 A3024 RMK T00901050 IEM_DS3505
ZBHH,2010-11-03 09:00,ZBHH 030900Z AUTO 18004KT 12SM 09/M04 A3024 RMK SLP267 T00911041 57005 IEM_DS3505
ZBHH,2010-11-03 10:00,ZBHH 031000Z AUTO 07004KT 4SM 06/M03 A3024 RMK T00601030 IEM_DS3505
ZBHH,2010-11-03 11:00,ZBHH 031100Z AUTO 05006KT 5SM 04/M02 A3024 RMK T00401020 IEM_DS3505
ZBHH,2010-11-03 12:00,ZBHH 031200Z AUTO 29002KT 12SM 04/M04 A3024 RMK SLP292 T00351035 52010 IEM_DS3505
ZBHH,2010-11-03 13:00,ZBHH 031300Z AUTO 05004KT 6SM 01/M04 A3027 RMK T00101040 IEM_DS3505
ZBHH,2010-11-03 14:00,ZBHH 031400Z AUTO 08006KT 6SM 00/M04 A3027 RMK T00001040 IEM_DS3505
ZBHH,2010-11-03 15:00,ZBHH 031500Z AUTO 09002KT 19SM 01/M04 A3024 RMK SLP286 T00101044 52002 IEM_DS3505
ZBHH,2010-11-03 16:00,ZBHH 031600Z AUTO 08004KT 6SM M01/M04 A3024 RMK T10101040 IEM_DS3505
ZBHH,2010-11-03 17:00,ZBHH 031700Z AUTO 09006KT 6SM M01/M04 A3024 RMK T10101040 IEM_DS3505
ZBHH,2010-11-03 18:00,ZBHH 031800Z AUTO 34002KT 19SM 00/M05 A3024 RMK SLP278 T00031051 54000 IEM_DS3505
ZBHH,2010-11-03 19:00,ZBHH 031900Z AUTO 05004KT 6SM M02/M05 A3024 RMK T10201050 IEM_DS3505
ZBHH,2010-11-03 20:00,ZBHH 032000Z AUTO 07004KT 6SM M03/M05 A3024 RMK T10301050 IEM_DS3505
ZBHH,2010-11-03 21:00,ZBHH 032100Z AUTO 00000KT 19SM M02/M05 A3024 RMK SLP275 T10221052 57007 IEM_DS3505
ZBHH,2010-11-03 22:00,ZBHH 032200Z AUTO 04004KT 6SM M02/M05 A3024 RMK T10201050 IEM_DS3505
ZBHH,2010-11-03 23:00,ZBHH 032300Z AUTO 08002KT 6SM M04/M05 A3024 RMK T10401050 IEM_DS3505
ZBHH,2010-11-04 00:00,ZBHH 040000Z AUTO 00000KT 9SM M01/M05 A3027 RMK SLP297 T10111048 52010 IEM_DS3505
ZBHH,2010-11-04 01:00,ZBHH 040100Z AUTO 11002KT 6SM 02/M03 A3027 RMK T00201030 IEM_DS3505
ZBHH,2010-11-04 02:00,ZBHH 040200Z AUTO 20002KT 6SM 05/M02 A3027 RMK T00501020 IEM_DS3505
ZBHH,2010-11-04 03:00,ZBHH 040300Z AUTO 11002KT 16SM 07/M05 A3027 RMK SLP283 T00711053 54000 IEM_DS3505
ZBHH,2010-11-04 04:00,ZBHH 040400Z AUTO 23002KT 6SM 08/M03 A3024 RMK T00801030 IEM_DS3505
ZBHH,2010-11-04 05:00,ZBHH 040500Z AUTO 25006KT 6SM 09/M03 A3021 RMK T00901030 IEM_DS3505
ZBHH,2010-11-04 06:00,ZBHH 040600Z AUTO 20004KT 16SM 11/M05 A3021 RMK SLP256 T01061046 57018 IEM_DS3505
ZBHH,2010-11-04 07:00,ZBHH 040700Z AUTO 24004KT 6SM 11/M03 A3021 RMK T01101030 IEM_DS3505
ZBHH,2010-11-04 08:00,ZBHH 040800Z AUTO 24006KT 6SM 11/M04 A3021 RMK T01101040 IEM_DS3505
ZBHH,2010-11-04 09:00,ZBHH 040900Z AUTO 20004KT 12SM 10/M04 A3021 RMK SLP264 T00981038 54000 IEM_DS3505
ZBHH,2010-11-04 10:00,ZBHH 041000Z AUTO 27002KT 5SM 07/M03 A3021 RMK T00701030 IEM_DS3505
ZBHH,2010-11-04 11:00,ZBHH 041100Z AUTO 06006KT 4SM 05/M01 A3024 RMK T00501010 IEM_DS3505
ZBHH,2010-11-04 12:00,ZBHH 041200Z AUTO 07002KT 12SM 04/M02 A3024 RMK SLP285 T00441025 52009 IEM_DS3505
ZBHH,2010-11-04 13:00,ZBHH 041300Z AUTO 09004KT 5SM 01/M03 A3024 RMK T00101030 IEM_DS3505
ZBHH,2010-11-04 14:00,ZBHH 041400Z AUTO 06006KT 5SM 00/M03 A3024 RMK T00001030 IEM_DS3505
ZBHH,2010-11-04 15:00,ZBHH 041500Z AUTO 07002KT 16SM 02/M03 A3024 RMK SLP276 T00231034 52005 IEM_DS3505
ZBHH,2010-11-04 16:00,ZBHH 041600Z AUTO 05006KT 5SM M01/M03 A3024 RMK T10101030 IEM_DS3505
ZBHH,2010-11-04 17:00,ZBHH 041700Z AUTO 05004KT 5SM M02/M04 A3024 RMK T10201040 IEM_DS3505
ZBHH,2010-11-04 18:00,ZBHH 041800Z AUTO 07002KT 12SM M00/M03 A3024 RMK SLP268 T10041034 57005 IEM_DS3505
ZBHH,2010-11-04 19:00,ZBHH 041900Z AUTO 06006KT 5SM M02/M04 A3024 RMK T10201040 IEM_DS3505
ZBHH,2010-11-04 20:00,ZBHH 042000Z AUTO 08002KT 5SM M02/M04 A3021 RMK T10201040 IEM_DS3505
ZBHH,2010-11-04 21:00,ZBHH 042100Z AUTO 07002KT 9SM M02/M04 A3021 RMK SLP266 T10161041 57006 IEM_DS3505
ZBHH,2010-11-04 22:00,ZBHH 042200Z AUTO 07004KT 5SM M03/M05 A3021 RMK T10301050 IEM_DS3505
ZBHH,2010-11-05 00:00,ZBHH 050000Z AUTO 09002KT 9SM M01/M04 A3024 RMK SLP284 T10061038 52006 IEM_DS3505
ZBHH,2010-11-05 01:00,ZBHH 050100Z AUTO 08004KT 4SM 02/M02 A3024 RMK T00201020 IEM_DS3505
ZBHH,2010-11-05 02:00,ZBHH 050200Z AUTO 11004KT 5SM 07/M01 A3024 RMK T00701010 IEM_DS3505
ZBHH,2010-11-05 03:00,ZBHH 050300Z AUTO 04002KT 12SM 08/M04 A3021 RMK SLP261 T00751043 57007 IEM_DS3505
ZBHH,2010-11-05 04:00,ZBHH 050400Z AUTO 23006KT 6SM 09/M04 A3021 RMK T00901040 IEM_DS3505
ZBHH,2010-11-05 05:00,ZBHH 050500Z AUTO 23004KT 6SM 10/M04 A3015 RMK T01001040 IEM_DS3505
ZBHH,2010-11-05 06:00,ZBHH 050600Z AUTO 16002KT 12SM 11/M05 A3012 RMK SLP232 T01111054 57024 IEM_DS3505
ZBHH,2010-11-05 07:00,ZBHH 050700Z AUTO 6SM 11/M05 A3012 RMK T01101050 IEM_DS3505
ZBHH,2010-11-05 08:00,ZBHH 050800Z AUTO 25006KT 6SM 11/M06 A3009 RMK T01101060 IEM_DS3505
ZBHH,2010-11-05 09:00,ZBHH 050900Z AUTO 22002KT 12SM 11/M08 A3009 RMK SLP223 T01071075 57011 IEM_DS3505
ZBHH,2010-11-05 10:00,ZBHH 051000Z AUTO 27002KT 6SM 09/M07 A3009 RMK T00901070 IEM_DS3505
ZBHH,2010-11-05 11:00,ZBHH 051100Z AUTO 04008KT 6SM 04/M04 A3012 RMK T00401040 IEM_DS3505
ZBHH,2010-11-05 12:00,ZBHH 051200Z AUTO 27002KT 7SM 04/M04 A3012 RMK SLP243 T00381042 52005 IEM_DS3505
ZBHH,2010-11-05 13:00,ZBHH 051300Z AUTO 07006KT 6SM 02/M04 A3012 RMK T00201040 IEM_DS3505
ZBHH,2010-11-05 14:00,ZBHH 051400Z AUTO 04004KT 6SM 02/M05 A3012 RMK T00201050 IEM_DS3505
ZBHH,2010-11-05 15:00,ZBHH 051500Z AUTO 07002KT 6SM 02/M05 A3012 RMK SLP228 T00191053 54000 IEM_DS3505
ZBHH,2010-11-05 16:00,ZBHH 051600Z AUTO 08004KT 6SM 00/M05 A3009 RMK T00001050 IEM_DS3505
ZBHH,2010-11-05 17:00,ZBHH 051700Z AUTO 06004KT 6SM M01/M05 A3009 RMK T10101050 IEM_DS3505
ZBHH,2010-11-05 18:00,ZBHH 051800Z AUTO 00000KT 6SM M00/M04 A3009 RMK SLP220 T10031045 57004 IEM_DS3505
ZBHH,2010-11-05 19:00,ZBHH 051900Z AUTO 08004KT 6SM M01/M05 A3009 RMK T10101050 IEM_DS3505
ZBHH,2010-11-05 20:00,ZBHH 052000Z AUTO 06006KT 6SM M02/M05 A3006 RMK T10201050 IEM_DS3505
ZBHH,2010-11-05 21:00,ZBHH 052100Z AUTO 04002KT 6SM M01/M05 A3006 RMK SLP213 T10131052 57009 IEM_DS3505
ZBHH,2010-11-05 22:00,ZBHH 052200Z AUTO 07006KT 6SM M02/M05 A3006 RMK T10201050 IEM_DS3505
ZBHH,2010-11-05 23:00,ZBHH 052300Z AUTO 07004KT 6SM M02/M05 A3006 RMK T10201050 IEM_DS3505
ZBHH,2010-11-06 00:00,ZBHH 060000Z AUTO 36002KT 7SM M00/M05 A3009 RMK SLP233 T10041048 52005 IEM_DS3505
ZBHH,2010-11-06 01:00,ZBHH 060100Z AUTO 09004KT 6SM 02/M03 A3009 RMK T00201030 IEM_DS3505
ZBHH,2010-11-06 02:00,ZBHH 060200Z AUTO 17002KT 7SM 06/M02 A3009 RMK T00601020 IEM_DS3505
ZBHH,2010-11-06 03:00,ZBHH 060300Z AUTO 32002KT 9SM 07/M06 A3009 RMK SLP220 T00731057 52001 IEM_DS3505
ZBHH,2010-11-06 04:00,ZBHH 060400Z AUTO 22002KT 7SM 08/M04 A3006 RMK T00801040 IEM_DS3505
ZBHH,2010-11-06 05:00,ZBHH 060500Z AUTO 23004KT 5SM 08/M04 A3006 RMK T00801040 IEM_DS3505
ZBHH,2010-11-06 06:00,ZBHH 060600Z AUTO 25002KT 7SM 09/M05 A3003 RMK SLP201 T00901053 57018 IEM_DS3505
ZBHH,2010-11-06 07:00,ZBHH 060700Z AUTO 24006KT 5SM 09/M04 A3003 RMK T00901040 IEM_DS3505
ZBHH,2010-11-06 08:00,ZBHH 060800Z AUTO 23006KT 4SM 08/M03 A3003 RMK T00801030 IEM_DS3505
ZBHH,2010-11-06 09:00,ZBHH 060900Z AUTO 32004KT 7SM 08/M02 A3006 RMK SLP215 T00791024 52008 IEM_DS3505
ZBHH,2010-11-06 10:00,ZBHH 061000Z AUTO 35004KT 7SM 07/M01 A3006 RMK T00701010 IEM_DS3505
ZBHH,2010-11-06 11:00,ZBHH 061100Z AUTO 28008KT 7SM 08/01 A3009 RMK T00800010 IEM_DS3505
ZBHH,2010-11-06 12:00,ZBHH 061200Z AUTO 27002KT 7SM 08/M02 A3009 RMK SLP227 T00761019 52012 IEM_DS3505
ZBHH,2010-11-06 13:00,ZBHH 061300Z AUTO 27004KT 7SM 07/01 A3009 RMK T00700010 IEM_DS3505
ZBHH,2010-11-06 14:00,ZBHH 061400Z AUTO 30010KT 7SM 06/M01 A3012 RMK T00601010 IEM_DS3505
ZBHH,2010-11-06 15:00,ZBHH 061500Z AUTO 32004KT 16SM 05/M04 A3012 RMK SLP224 T00521041 52008 IEM_DS3505
ZBHH,2010-11-06 16:00,ZBHH 061600Z AUTO 25004KT 7SM 03/M03 A3012 RMK T00301030 IEM_DS3505
ZBHH,2010-11-06 17:00,ZBHH 061700Z AUTO 28010KT 7SM 04/M03 A3012 RMK T00401030 IEM_DS3505
ZBHH,2010-11-06 18:00,ZBHH 061800Z AUTO 29008KT 9SM 04/M05 A3012 RMK SLP230 T00381049 52006 IEM_DS3505
ZBHH,2010-11-06 19:00,ZBHH 061900Z AUTO 35012KT 7SM 02/M05 A3015 RMK T00201050 IEM_DS3505
ZBHH,2010-11-06 20:00,ZBHH 062000Z AUTO 34012KT 7SM 01/M06 A3015 RMK T00101060 IEM_DS3505
ZBHH,2010-11-06 21:00,ZBHH 062100Z AUTO 29002KT 12SM 01/M06 A3015 RMK SLP246 T00111065 52006 IEM_DS3505
ZBHH,2010-11-06 22:00,ZBHH 062200Z AUTO 33012KT 7SM 00/M05 A3018 RMK T00001050 IEM_DS3505
ZBHH,2010-11-06 23:00,ZBHH 062300Z AUTO 33016KT 7SM 00/M05 A3015 RMK T00001050 IEM_DS3505
ZBHH,2010-11-07 00:00,ZBHH 070000Z AUTO 27006KT 12SM 01/M08 A3021 RMK SLP264 T00131080 52016 IEM_DS3505
ZBHH,2010-11-07 01:00,ZBHH 070100Z AUTO 33012KT 7SM 00/M05 A3024 RMK T00001050 IEM_DS3505
ZBHH,2010-11-07 02:00,ZBHH 070200Z AUTO 34016KT 7SM 02/M08 A3024 RMK T00201080 IEM_DS3505
ZBHH,2010-11-07 03:00,ZBHH 070300Z AUTO 32008KT 16SM 02/M10 A3027 RMK SLP292 T00181100 52020 IEM_DS3505
ZBHH,2010-11-07 04:00,ZBHH 070400Z AUTO 34012KT 7SM 02/M10 A3027 RMK T00201100 IEM_DS3505
ZBHH,2010-11-07 05:00,ZBHH 070500Z AUTO 33010G19KT 7SM 03/M09 A3027 RMK T00301090 IEM_DS3505
ZBHH,2010-11-07 06:00,ZBHH 070600Z AUTO 02004KT 16SM 03/M08 A3024 RMK 60000 SLP282 T00341083 57008 IEM_DS3505
ZBHH,2010-11-07 07:00,ZBHH 070700Z AUTO 30008KT 7SM 03/M07 A3024 RMK T00301070 IEM_DS3505
ZBHH,2010-11-07 08:00,ZBHH 070800Z AUTO 17004KT 7SM 03/M07 A3024 RMK T00301070 IEM_DS3505
ZBHH,2010-11-07 09:00,ZBHH 070900Z AUTO 25004KT 16SM 04/M08 A3024 RMK SLP276 T00391075 57010 IEM_DS3505
ZBHH,2010-11-07 10:00,ZBHH 071000Z AUTO 11004KT 7SM 02/M06 A3021 RMK T00201060 IEM_DS3505
ZBHH,2010-11-07 11:00,ZBHH 071100Z AUTO 09004KT 7SM 01/M04 A3021 RMK T00101040 IEM_DS3505
ZBHH,2010-11-07 12:00,ZBHH 071200Z AUTO 32004KT 16SM 02/M03 A3021 RMK 60000 SLP282 T00181029 52001 IEM_DS3505
ZBHH,2010-11-07 13:00,ZBHH 071300Z AUTO 07004KT 7SM 00/M01 A3021 RMK T00001010 IEM_DS3505
ZBHH,2010-11-07 14:00,ZBHH 071400Z AUTO 14004KT 7SM M01/M02 A3024 RMK T10101020 IEM_DS3505
ZBHH,2010-11-07 15:00,ZBHH 071500Z AUTO 32006KT 19SM 02/M06 A3024 RMK SLP285 T00241060 52005 IEM_DS3505
ZBHH,2010-11-07 16:00,ZBHH 071600Z AUTO 33006KT 7SM 00/M04 A3024 RMK T00001040 IEM_DS3505
ZBHH,2010-11-07 17:00,ZBHH 071700Z AUTO 23004KT 7SM M01/M03 A3024 RMK T10101030 IEM_DS3505
ZBHH,2010-11-07 18:00,ZBHH 071800Z AUTO 32002KT 19SM 01/M08 A3024 RMK SLP288 T00071080 52003 IEM_DS3505
ZBHH,2010-11-07 19:00,ZBHH 071900Z AUTO 36006KT 7SM M01/M06 A3024 RMK T10101060 IEM_DS3505
ZBHH,2010-11-07 20:00,ZBHH 072000Z AUTO 36006KT 7SM M02/M07 A3024 RMK T10201070 IEM_DS3505
ZBHH,2010-11-07 21:00,ZBHH 072100Z AUTO 09002KT 19SM M01/M08 A3027 RMK 70000 SLP294 T10081080 52003 IEM_DS3505
ZBHH,2010-11-07 22:00,ZBHH 072200Z AUTO 33006KT 7SM M04/M07 A3027 RMK T10401070 IEM_DS3505
ZBHH,2010-11-07 23:00,ZBHH 072300Z AUTO 7SM M03/M07 A3027 RMK T10301070 IEM_DS3505
ZBHH,2010-11-08 00:00,ZBHH 080000Z AUTO 34002KT 19SM M02/M08 A3030 RMK 70000 SLP319 T10181081 52015 IEM_DS3505
ZBHH,2010-11-08 01:00,ZBHH 080100Z AUTO 33006KT 7SM M01/M06 A3033 RMK T10101060 IEM_DS3505
ZBHH,2010-11-08 02:00,ZBHH 080200Z AUTO 02004KT 7SM 00/M08 A3033 RMK T00001080 IEM_DS3505
ZBHH,2010-11-08 03:00,ZBHH 080300Z AUTO 09006KT 19SM 02/M11 A3033 RMK SLP315 T00191109 52006 IEM_DS3505
ZBHH,2010-11-08 04:00,ZBHH 080400Z AUTO 35008KT 7SM 02/M10 A3030 RMK T00201100 IEM_DS3505
ZBHH,2010-11-08 05:00,ZBHH 080500Z AUTO 6SM 03/M09 A3030 RMK T00301090 IEM_DS3505
ZBHH,2010-11-08 06:00,ZBHH 080600Z AUTO 18004KT 19SM 05/M10 A3027 RMK SLP288 T00511102 57021 IEM_DS3505
ZBHH,2010-11-08 07:00,ZBHH 080700Z AUTO 20004KT 6SM 05/M09 A3024 RMK T00501090 IEM_DS3505
ZBHH,2010-11-08 08:00,ZBHH 080800Z AUTO 21006KT 6SM 05/M09 A3024 RMK T00501090 IEM_DS3505
ZBHH,2010-11-08 09:00,ZBHH 080900Z 22002MPS CAVOK 04/M07 Q1024 NOSIG
ZBHH,2010-11-08 10:00,ZBHH 081000Z 16002MPS CAVOK 01/M07 Q1024 NOSIG
ZBHH,2010-11-08 11:00,ZBHH 081100Z 04002MPS CAVOK M01/M06 Q1024 NOSIG
ZBHH,2010-11-08 12:00,ZBHH 081200Z AUTO 09002KT 9SM 02/M06 A3024 RMK SLP290 T00161062 57003 IEM_DS3505
ZBHH,2010-11-08 13:00,ZBHH 081300Z AUTO 05006KT 6SM M03/M07 A3021 RMK T10301070 IEM_DS3505
ZBHH,2010-11-08 14:00,ZBHH 081400Z AUTO 04006KT 6SM M03/M06 A3021 RMK T10301060 IEM_DS3505
ZBHH,2010-11-08 15:00,ZBHH 081500Z AUTO 00000KT 16SM M01/M07 A3021 RMK SLP279 T10081068 57007 IEM_DS3505
ZBHH,2010-11-08 16:00,ZBHH 081600Z AUTO 08004KT 6SM M05/M07 A3018 RMK T10501070 IEM_DS3505
ZBHH,2010-11-08 17:00,ZBHH 081700Z AUTO 06004KT 6SM M05/M07 A3015 RMK T10501070 IEM_DS3505
ZBHH,2010-11-08 18:00,ZBHH 081800Z AUTO 00000KT 19SM M03/M07 A3012 RMK SLP253 T10271069 57020 IEM_DS3505
ZBHH,2010-11-08 19:00,ZBHH 081900Z AUTO 06004KT 6SM M05/M07 A3012 RMK T10501070 IEM_DS3505
ZBHH,2010-11-08 20:00,ZBHH 082000Z AUTO 08004KT 6SM M04/M06 A3006 RMK T10401060 IEM_DS3505
ZBHH,2010-11-08 21:00,ZBHH 082100Z AUTO 00000KT 12SM M02/M06 A3006 RMK SLP224 T10201064 57024 IEM_DS3505
ZBHH,2010-11-08 22:00,ZBHH 082200Z AUTO 06002KT 6SM M04/M06 A3006 RMK T10401060 IEM_DS3505
ZBHH,2010-11-08 23:00,ZBHH 082300Z AUTO 05006KT 6SM M05/M07 A3003 RMK T10501070 IEM_DS3505
ZBHH,2010-11-09 00:00,ZBHH 090000Z AUTO 20002KT 7SM M02/M06 A3003 RMK SLP229 T10211058 57003 IEM_DS3505
ZBHH,2010-11-09 01:00,ZBHH 090100Z AUTO 13002KT 6SM 00/M04 A3006 RMK T00001040 IEM_DS3505
ZBHH,2010-11-09 02:00,ZBHH 090200Z AUTO 18006KT 6SM 01/M04 A3003 RMK T00101040 IEM_DS3505
ZBHH,2010-11-09 03:00,ZBHH 090300Z AUTO 09002KT 5SM 04/M06 A3000 RMK SLP209 T00371060 57010 IEM_DS3505
ZBHH,2010-11-09 04:00,ZBHH 090400Z AUTO 19004KT 4SM 04/M05 A3000 RMK T00401050 IEM_DS3505
ZBHH,2010-11-09 05:00,ZBHH 090500Z AUTO 24006KT 6SM 06/M05 A2997 RMK T00601050 IEM_DS3505
ZBHH,2010-11-09 06:00,ZBHH 090600Z AUTO 02002KT 7SM 07/M06 A2994 RMK SLP182 T00731057 57020 IEM_DS3505
ZBHH,2010-11-09 07:00,ZBHH 090700Z AUTO 31010KT 7SM 07/M05 A2997 RMK T00701050 IEM_DS3505
ZBHH,2010-11-09 08:00,ZBHH 090800Z AUTO 29006KT 7SM 08/M07 A2994 RMK T00801070 IEM_DS3505
ZBHH,2010-11-09 09:00,ZBHH 090900Z AUTO 27008KT 9SM 09/M10 A2997 RMK SLP183 T00871097 52005 IEM_DS3505
ZBHH,2010-11-09 10:00,ZBHH 091000Z AUTO 33006KT 6SM 05/M09 A3000 RMK T00501090 IEM_DS3505
ZBHH,2010-11-09 11:00,ZBHH 091100Z AUTO 33006KT 6SM 05/M09 A3000 RMK T00501090 IEM_DS3505
ZBHH,2010-11-09 12:00,ZBHH 091200Z AUTO 27002KT 12SM 06/M09 A3003 RMK SLP212 T00611094 52020 IEM_DS3505
ZBHH,2010-11-09 13:00,ZBHH 091300Z AUTO 00000KT 6SM 02/M08 A3003 RMK T00201080 IEM_DS3505
ZBHH,2010-11-09 14:00,ZBHH 091400Z AUTO 02006KT 6SM 01/M08 A3003 RMK T00101080 IEM_DS3505
ZBHH,2010-11-09 15:00,ZBHH 091500Z AUTO 04002KT 16SM 02/M08 A3003 RMK SLP213 T00191079 52004 IEM_DS3505
ZBHH,2010-11-09 16:00,ZBHH 091600Z AUTO 17004KT 6SM M02/M07 A3003 RMK T10201070 IEM_DS3505
ZBHH,2010-11-09 17:00,ZBHH 091700Z AUTO 12002KT 6SM M04/M07 A3003 RMK T10401070 IEM_DS3505
ZBHH,2010-11-09 18:00,ZBHH 091800Z AUTO 36002KT 19SM M01/M07 A3000 RMK SLP202 T10121073 57009 IEM_DS3505
ZBHH,2010-11-09 19:00,ZBHH 091900Z AUTO 07004KT 6SM M04/M07 A3000 RMK T10401070 IEM_DS3505
ZBHH,2010-11-09 20:00,ZBHH 092000Z AUTO 11004KT 6SM M06/M07 A2997 RMK T10601070 IEM_DS3505
ZBHH,2010-11-09 21:00,ZBHH 092100Z AUTO 07002KT 19SM M02/M08 A2997 RMK SLP186 T10181079 57012 IEM_DS3505
ZBHH,2010-11-09 22:00,ZBHH 092200Z AUTO 08004KT 6SM M06/M08 A2997 RMK T10601080 IEM_DS3505
ZBHH,2010-11-10 00:00,ZBHH 100000Z AUTO 02002KT 9SM M01/M08 A2997 RMK SLP193 T10131081 52002 IEM_DS3505
ZBHH,2010-11-10 01:00,ZBHH 100100Z AUTO 13002KT 6SM 00/M05 A2997 RMK T00001050 IEM_DS3505
ZBHH,2010-11-10 02:00,ZBHH 100200Z AUTO 12002KT 6SM 03/M06 A2997 RMK T00301060 IEM_DS3505
ZBHH,2010-11-10 03:00,ZBHH 100300Z AUTO 04004KT 12SM 04/M08 A2997 RMK SLP186 T00371077 57005 IEM_DS3505
ZBHH,2010-11-10 04:00,ZBHH 100400Z AUTO 17002KT 6SM 06/M06 A2994 RMK T00601060 IEM_DS3505
ZBHH,2010-11-10 05:00,ZBHH 100500Z AUTO 21004KT 7SM 06/M06 A2991 RMK T00601060 IEM_DS3505
ZBHH,2010-11-10 06:00,ZBHH 100600Z AUTO 25006KT 12SM 07/M07 A2988 RMK SLP157 T00711070 57025 IEM_DS3505
ZBHH,2010-11-10 07:00,ZBHH 100700Z AUTO 24008KT 7SM 08/M05 A2988 RMK T00801050 IEM_DS3505
ZBHH,2010-11-10 08:00,ZBHH 100800Z AUTO 24006KT 5SM 07/M05 A2985 RMK T00701050 IEM_DS3505
ZBHH,2010-11-10 09:00,ZBHH 100900Z AUTO 22010G23KT 5SM 08/M09 A2983 RMK SLP136 T00821092 57017 IEM_DS3505
ZBHH,2010-11-10 10:00,ZBHH 101000Z AUTO 26027G43KT 1 1/2SM 08/M10 A2985 RMK T00801100 IEM_DS3505
ZBHH,2010-11-10 11:00,ZBHH 101100Z AUTO 27012G21KT 2SM 03/M05 A2988 RMK T00301050 IEM_DS3505
ZBHH,2010-11-10 12:00,ZBHH 101200Z AUTO 29006KT 4SM 05/M11 A2988 RMK SLP171 T00531113 52026 IEM_DS3505
ZBHH,2010-11-10 13:00,ZBHH 101300Z AUTO 24012G21KT 3SM 02/M04 A2988 RMK T00201040 IEM_DS3505
ZBHH,2010-11-10 14:00,ZBHH 101400Z AUTO 25012G21KT 2SM 02/M05 A2991 RMK T00201050 IEM_DS3505
ZBHH,2010-11-10 15:00,ZBHH 101500Z AUTO 29008G19KT 4SM 03/M10 A2991 RMK SLP169 T00321101 52004 IEM_DS3505
ZBHH,2010-11-10 16:00,ZBHH 101600Z AUTO 27012G21KT 2SM 00/M02 A2994 RMK T00001020 IEM_DS3505
ZBHH,2010-11-10 17:00,ZBHH 101700Z AUTO 33017G27KT 7SM 00/M05 A2994 RMK T00001050 IEM_DS3505
ZBHH,2010-11-10 18:00,ZBHH 101800Z AUTO 29006G29KT 12SM 00/M06 A2997 RMK 60000 SLP192 T00011059 52021 IEM_DS3505
ZBHH,2010-11-10 19:00,ZBHH 101900Z AUTO 32021G33KT 7SM 00/M06 A3000 RMK T00001060 IEM_DS3505
ZBHH,2010-11-10 20:00,ZBHH 102000Z AUTO 32012G21KT 7SM M01/M06 A3003 RMK T10101060 IEM_DS3505
ZBHH,2010-11-10 21:00,ZBHH 102100Z AUTO 25006KT 19SM M00/M07 A3003 RMK 70000 SLP211 T10051069 52018 IEM_DS3505
ZBHH,2010-11-10 22:00,ZBHH 102200Z AUTO 33008KT 7SM 00/M07 A3003 RMK T00001070 IEM_DS3505
ZBHH,2010-11-10 23:00,ZBHH 102300Z AUTO 33010KT 7SM M01/M07 A3006 RMK T10101070 IEM_DS3505
ZBHH,2010-11-11 00:00,ZBHH 110000Z AUTO 32006KT 19SM M01/M08 A3006 RMK 70000 SLP229 T10101082 52008 IEM_DS3505
ZBHH,2010-11-11 01:00,ZBHH 110100Z AUTO 33006KT 7SM M01/M07 A3009 RMK T10101070 IEM_DS3505
ZBHH,2010-11-11 02:00,ZBHH 110200Z AUTO 28012KT 7SM 00/M07 A3009 RMK T00001070 IEM_DS3505
ZBHH,2010-11-11 03:00,ZBHH 110300Z AUTO 27010KT 19SM 01/M10 A3006 RMK SLP233 T00091103 52003 IEM_DS3505
ZBHH,2010-11-11 04:00,ZBHH 110400Z AUTO 35014KT 7SM 00/M09 A3006 RMK T00001090 IEM_DS3505
ZBHH,2010-11-11 05:00,ZBHH 110500Z AUTO 30012KT 7SM 01/M11 A3006 RMK T00101110 IEM_DS3505
ZBHH,2010-11-11 06:00,ZBHH 110600Z AUTO 34008KT 19SM 02/M12 A3003 RMK SLP215 T00181124 57020 IEM_DS3505
ZBHH,2010-11-11 07:00,ZBHH 110700Z AUTO 31010KT 7SM 02/M12 A3000 RMK T00201120 IEM_DS3505
ZBHH,2010-11-11 08:00,ZBHH 110800Z AUTO 32012KT 7SM 01/M12 A3000 RMK T00101120 IEM_DS3505
ZBHH,2010-11-11 09:00,ZBHH 110900Z AUTO 29004KT 19SM 01/M13 A3000 RMK SLP208 T00081133 57010 IEM_DS3505
ZBHH,2010-11-11 10:00,ZBHH 111000Z AUTO 29006KT 7SM M01/M11 A3000 RMK T10101110 IEM_DS3505
ZBHH,2010-11-11 11:00,ZBHH 111100Z AUTO 28004KT 7SM M02/M10 A2997 RMK T10201100 IEM_DS3505
ZBHH,2010-11-11 12:00,ZBHH 111200Z AUTO 22002KT 19SM M01/M11 A2997 RMK SLP208 T10111112 57005 IEM_DS3505
ZBHH,2010-11-11 13:00,ZBHH 111300Z AUTO 11002KT 6SM M04/M09 A2994 RMK T10401090 IEM_DS3505
ZBHH,2010-11-11 14:00,ZBHH 111400Z AUTO 06002KT 6SM M06/M09 A2994 RMK T10601090 IEM_DS3505
ZBHH,2010-11-11 15:00,ZBHH 111500Z AUTO 09002KT 19SM M03/M11 A2991 RMK SLP190 T10271107 57015 IEM_DS3505
ZBHH,2010-11-11 16:00,ZBHH 111600Z AUTO 06006KT 6SM M05/M08 A2991 RMK T10501080 IEM_DS3505
ZBHH,2010-11-11 18:00,ZBHH 111800Z AUTO 09002KT 16SM M02/M09 RMK SLP164 T10231094 57020 IEM_DS3505
ZBHH,2010-11-11 19:00,ZBHH 111900Z AUTO 11004KT 6SM M03/M07 A2983 RMK T10301070 IEM_DS3505
ZBHH,2010-11-11 20:00,ZBHH 112000Z AUTO 06004KT 6SM M03/M07 A2980 RMK T10301070 IEM_DS3505
ZBHH,2010-11-11 21:00,ZBHH 112100Z AUTO 04004KT 19SM M02/M10 A2980 RMK SLP144 T10211097 57019 IEM_DS3505
ZBHH,2010-11-11 22:00,ZBHH 112200Z AUTO 08004KT 6SM M03/M08 A2980 RMK T10301080 IEM_DS3505
ZBHH,2010-11-11 23:00,ZBHH 112300Z AUTO 04006KT 6SM M02/M08 A2977 RMK T10201080 IEM_DS3505
ZBHH,2010-11-12 00:00,ZBHH 120000Z AUTO 04002KT 9SM M02/M13 A2977 RMK SLP141 T10171129 57006 IEM_DS3505
ZBHH,2010-11-12 01:00,ZBHH 120100Z AUTO 04004KT 5SM M01/M09 A2980 RMK T10101090 IEM_DS3505
ZBHH,2010-11-12 02:00,ZBHH 120200Z AUTO 04004KT 6SM 00/M13 A2980 RMK T00001130 IEM_DS3505
ZBHH,2010-11-12 03:00,ZBHH 120300Z AUTO 07002KT 7SM 01/M15 A2980 RMK SLP148 T00141151 52009 IEM_DS3505
ZBHH,2010-11-12 04:00,ZBHH 120400Z AUTO 01002KT 7SM 02/M14 A2980 RMK T00201140 IEM_DS3505
ZBHH,2010-11-12 05:00,ZBHH 120500Z AUTO 23002KT 7SM 03/M14 A2980 RMK T00301140 IEM_DS3505
ZBHH,2010-11-12 06:00,ZBHH 120600Z AUTO 27006KT 7SM 04/M09 A2983 RMK SLP146 T00391091 52005 IEM_DS3505
ZBHH,2010-11-12 07:00,ZBHH 120700Z AUTO 35012KT 7SM 02/M06 A2985 RMK T00201060 IEM_DS3505
ZBHH,2010-11-12 08:00,ZBHH 120800Z AUTO 34016G25KT 7SM 01/M07 A2991 RMK T00101070 IEM_DS3505
ZBHH,2010-11-12 09:00,ZBHH 120900Z AUTO 32010KT 9SM 01/M09 A2994 RMK SLP196 T00061089 52037 IEM_DS3505
ZBHH,2010-11-12 10:00,ZBHH 121000Z AUTO 33012G23KT 7SM M01/M08 A2997 RMK T10101080 IEM_DS3505
ZBHH,2010-11-12 11:00,ZBHH 121100Z AUTO 34016KT 7SM M02/M08 A3000 RMK T10201080 IEM_DS3505
ZBHH,2010-11-12 12:00,ZBHH 121200Z AUTO 29004KT 19SM M02/M11 A3006 RMK SLP244 T10201108 52037 IEM_DS3505
ZBHH,2010-11-12 13:00,ZBHH 121300Z AUTO 34006KT 6SM M03/M12 A3009 RMK T10301120 IEM_DS3505
ZBHH,2010-11-12 14:00,ZBHH 121400Z AUTO 31004KT 6SM M05/M13 A3012 RMK T10501130 IEM_DS3505
ZBHH,2010-11-12 15:00,ZBHH 121500Z AUTO 29004KT 19SM M04/M15 A3015 RMK SLP276 T10431150 52030 IEM_DS3505
ZBHH,2010-11-12 16:00,ZBHH 121600Z AUTO 34010KT 6SM M05/M13 A3018 RMK T10501130 IEM_DS3505
ZBHH,2010-11-12 17:00,ZBHH 121700Z AUTO 36008KT 6SM M06/M13 A3018 RMK T10601130 IEM_DS3505
ZBHH,2010-11-12 18:00,ZBHH 121800Z AUTO 34004KT 19SM M05/M14 A3021 RMK SLP295 T10521142 52020 IEM_DS3505
ZBHH,2010-11-12 19:00,ZBHH 121900Z AUTO 04004KT 6SM M07/M12 A3024 RMK T10701120 IEM_DS3505
ZBHH,2010-11-12 20:00,ZBHH 122000Z AUTO 04004KT 6SM M08/M13 A3024 RMK T10801130 IEM_DS3505
ZBHH,2010-11-12 21:00,ZBHH 122100Z AUTO 36004KT 19SM M06/M15 A3027 RMK SLP320 T10651152 52012 IEM_DS3505
ZBHH,2010-11-12 22:00,ZBHH 122200Z AUTO 01004KT 6SM M09/M13 A3027 RMK T10901130 IEM_DS3505
ZBHH,2010-11-12 23:00,ZBHH 122300Z AUTO 05004KT 6SM M09/M14 A3030 RMK T10901140 IEM_DS3505
ZBHH,2010-11-13 00:00,ZBHH 130000Z AUTO 00000KT 19SM M07/M16 A3033 RMK SLP346 T10681160 52016 IEM_DS3505
ZBHH,2010-11-13 01:00,ZBHH 130100Z AUTO 06004KT 6SM M06/M13 A3033 RMK T10601130 IEM_DS3505
ZBHH,2010-11-13 02:00,ZBHH 130200Z AUTO 36002KT 6SM M04/M14 A3036 RMK T10401140 IEM_DS3505
ZBHH,2010-11-13 03:00,ZBHH 130300Z AUTO 22006KT 19SM M03/M17 A3036 RMK SLP351 T10261167 52009 IEM_DS3505
ZBHH,2010-11-13 04:00,ZBHH 130400Z AUTO 23006KT 6SM M02/M16 A3033 RMK T10201160 IEM_DS3505
ZBHH,2010-11-13 05:00,ZBHH 130500Z AUTO 6SM M02/M15 A3033 RMK T10201150 IEM_DS3505
ZBHH,2010-11-13 06:00,ZBHH 130600Z AUTO 18006KT 19SM M01/M17 A3030 RMK SLP330 T10061169 57016 IEM_DS3505
ZBHH,2010-11-13 07:00,ZBHH 130700Z AUTO 24006KT 7SM 00/M15 A3030 RMK T00001150 IEM_DS3505
ZBHH,2010-11-13 08:00,ZBHH 130800Z AUTO 23004KT 7SM M01/M15 A3030 RMK T10101150 IEM_DS3505
ZBHH,2010-11-13 09:00,ZBHH 130900Z AUTO 22004KT 7SM M01/M16 A3030 RMK SLP334 T10091159 54000 IEM_DS3505
ZBHH,2010-11-13 10:00,ZBHH 131000Z AUTO 13002KT 7SM M03/M13 A3030 RMK T10301130 IEM_DS3505
ZBHH,2010-11-13 11:00,ZBHH 131100Z AUTO 11002KT 4SM M03/M13 A3033 RMK T10301130 IEM_DS3505
ZBHH,2010-11-13 12:00,ZBHH 131200Z AUTO 04004KT 9SM M02/M15 A3033 RMK SLP347 T10201154 52008 IEM_DS3505
ZBHH,2010-11-13 13:00,ZBHH 131300Z AUTO 05006KT 6SM M04/M12 A3033 RMK T10401120 IEM_DS3505
ZBHH,2010-11-13 14:00,ZBHH 131400Z AUTO 05004KT 6SM M04/M11 A3036 RMK T10401110 IEM_DS3505
ZBHH,2010-11-13 15:00,ZBHH 131500Z AUTO 09002KT 12SM M02/M16 A3036 RMK SLP352 T10191157 52014 IEM_DS3505
ZBHH,2010-11-13 16:00,ZBHH 131600Z AUTO 04004KT 6SM M04/M10 A3039 RMK T10401100 IEM_DS3505
ZBHH,2010-11-13 17:00,ZBHH 131700Z AUTO 01008KT 6SM M02/M12 A3039 RMK T10201120 IEM_DS3505
ZBHH,2010-11-13 18:00,ZBHH 131800Z AUTO 32006KT 12SM M03/M12 A3042 RMK SLP363 T10281118 52012 IEM_DS3505
ZBHH,2010-11-13 19:00,ZBHH 131900Z AUTO 34012KT 6SM M04/M10 A3042 RMK T10401100 IEM_DS3505
ZBHH,2010-11-13 20:00,ZBHH 132000Z AUTO 34010KT 6SM M04/M11 A3045 RMK T10401110 IEM_DS3505
ZBHH,2010-11-13 21:00,ZBHH 132100Z AUTO 32002KT 12SM M04/M14 A3045 RMK SLP382 T10421136 52013 IEM_DS3505
ZBHH,2010-11-13 22:00,ZBHH 132200Z AUTO 34010KT 6SM M05/M12 A3047 RMK T10501120 IEM_DS3505
ZBHH,2010-11-13 23:00,ZBHH 132300Z AUTO 34010KT 6SM M07/M13 A3050 RMK T10701130 IEM_DS3505
ZBHH,2010-11-14 00:00,ZBHH 140000Z AUTO 02006KT 12SM M06/M16 A3053 RMK SLP422 T10631158 52028 IEM_DS3505
ZBHH,2010-11-14 01:00,ZBHH 140100Z AUTO 35010KT 7SM M05/M13 A3056 RMK T10501130 IEM_DS3505
ZBHH,2010-11-14 02:00,ZBHH 140200Z AUTO 35010KT 7SM M05/M15 A3059 RMK T10501150 IEM_DS3505
ZBHH,2010-11-14 03:00,ZBHH 140300Z AUTO 04006KT 19SM M04/M18 A3059 RMK SLP438 T10421181 52019 IEM_DS3505
ZBHH,2010-11-14 04:00,ZBHH 140400Z AUTO 36010KT 7SM M04/M16 A3059 RMK T10401160 IEM_DS3505
ZBHH,2010-11-14 05:00,ZBHH 140500Z AUTO 34014KT 6SM M04/M17 A3059 RMK T10401170 IEM_DS3505
ZBHH,2010-11-14 06:00,ZBHH 140600Z AUTO 34006KT 19SM M03/M18 A3059 RMK SLP433 T10331180 57005 IEM_DS3505
ZBHH,2010-11-14 07:00,ZBHH 140700Z AUTO 36008KT 6SM M04/M17 A3059 RMK T10401170 IEM_DS3505
ZBHH,2010-11-14 08:00,ZBHH 140800Z AUTO 36008KT 6SM M04/M17 A3059 RMK T10401170 IEM_DS3505
ZBHH,2010-11-14 09:00,ZBHH 140900Z AUTO 36004KT 19SM M05/M20 A3059 RMK SLP443 T10461196 52003 IEM_DS3505
ZBHH,2010-11-14 10:00,ZBHH 141000Z AUTO 36008KT 6SM M07/M16 A3059 RMK T10701160 IEM_DS3505
ZBHH,2010-11-14 11:00,ZBHH 141100Z AUTO 01006KT 6SM M07/M17 A3062 RMK T10701170 IEM_DS3505
ZBHH,2010-11-14 12:00,ZBHH 141200Z AUTO 32002KT 19SM M07/M18 A3062 RMK SLP461 T10671184 52006 IEM_DS3505
ZBHH,2010-11-14 13:00,ZBHH 141300Z AUTO 07006KT 6SM M11/M16 A3062 RMK T11101160 IEM_DS3505
ZBHH,2010-11-14 14:00,ZBHH 141400Z AUTO 08004KT 6SM M11/M17 A3062 RMK T11101170 IEM_DS3505
ZBHH,2010-11-14 15:00,ZBHH 141500Z AUTO 09002KT 19SM M08/M18 A3062 RMK SLP455 T10781179 57003 IEM_DS3505
ZBHH,2010-11-14 16:00,ZBHH 141600Z AUTO 04004KT 6SM M11/M16 A3059 RMK T11101160 IEM_DS3505
ZBHH,2010-11-14 17:00,ZBHH 141700Z AUTO 05004KT 6SM M12/M17 A3059 RMK T11201170 IEM_DS3505
ZBHH,2010-11-14 18:00,ZBHH 141800Z AUTO 09002KT 19SM M10/M18 A3056 RMK SLP444 T10951185 57011 IEM_DS3505
ZBHH,2010-11-14 19:00,ZBHH 141900Z AUTO 08004KT 6SM M12/M16 A3056 RMK T11201160 IEM_DS3505
ZBHH,2010-11-14 20:00,ZBHH 142000Z AUTO 07004KT 6SM M12/M16 A3053 RMK T11201160 IEM_DS3505
ZBHH,2010-11-14 21:00,ZBHH 142100Z AUTO 07002KT 12SM M10/M18 A3050 RMK SLP427 T11021184 57020 IEM_DS3505
ZBHH,2010-11-14 22:00,ZBHH 142200Z AUTO 04004KT 6SM M13/M16 A3047 RMK T11301160 IEM_DS3505
ZBHH,2010-11-14 23:00,ZBHH 142300Z AUTO 03002KT 6SM M13/M16 A3047 RMK T11301160 IEM_DS3505
ZBHH,2010-11-15 00:00,ZBHH 150000Z AUTO 04002KT 9SM M10/M18 A3047 RMK SLP421 T10951178 57008 IEM_DS3505
ZBHH,2010-11-15 01:00,ZBHH 150100Z AUTO 11004KT 6SM M08/M15 A3047 RMK T10801150 IEM_DS3505
ZBHH,2010-11-15 02:00,ZBHH 150200Z AUTO 17002KT 6SM M07/M13 A3047 RMK T10701130 IEM_DS3505
ZBHH,2010-11-15 03:00,ZBHH 150300Z AUTO 34002KT 9SM M05/M17 A3045 RMK SLP396 T10511169 57014 IEM_DS3505
ZBHH,2010-11-15 04:00,ZBHH 150400Z AUTO 21004KT 4SM M05/M14 A3039 RMK T10501140 IEM_DS3505
ZBHH,2010-11-15 05:00,ZBHH 150500Z AUTO 25004KT 6SM M03/M15 A3036 RMK T10301150 IEM_DS3505
ZBHH,2010-11-15 06:00,ZBHH 150600Z AUTO 18004KT 12SM M02/M17 A3033 RMK SLP352 T10161169 57035 IEM_DS3505
ZBHH,2010-11-15 07:00,ZBHH 150700Z AUTO 25008KT 6SM M02/M14 A3030 RMK T10201140 IEM_DS3505
ZBHH,2010-11-15 08:00,ZBHH 150800Z AUTO 25006KT 6SM M01/M14 A3030 RMK T10101140 IEM_DS3505
ZBHH,2010-11-15 09:00,ZBHH 150900Z AUTO 22004KT 14SM M02/M16 A3027 RMK SLP337 T10171162 57015 IEM_DS3505
ZBHH,2010-11-15 10:00,ZBHH 151000Z AUTO 04004KT 6SM M03/M14 A3027 RMK T10301140 IEM_DS3505
ZBHH,2010-11-15 11:00,ZBHH 151100Z AUTO 04004KT 6SM M05/M13 A3027 RMK T10501130 IEM_DS3505
ZBHH,2010-11-15 12:00,ZBHH 151200Z AUTO 29002KT 19SM M03/M15 A3027 RMK SLP340 T10331147 52001 IEM_DS3505
ZBHH,2010-11-15 13:00,ZBHH 151300Z AUTO 08004KT 6SM M07/M13 A3027 RMK T10701130 IEM_DS3505
ZBHH,2010-11-15 14:00,ZBHH 151400Z AUTO 03004KT 6SM M06/M13 A3027 RMK T10601130 IEM_DS3505
ZBHH,2010-11-15 15:00,ZBHH 151500Z AUTO 00000KT 19SM M05/M14 A3027 RMK SLP333 T10491140 54000 IEM_DS3505
ZBHH,2010-11-15 16:00,ZBHH 151600Z AUTO 06004KT 6SM M09/M12 A3027 RMK T10901120 IEM_DS3505
ZBHH,2010-11-15 17:00,ZBHH 151700Z AUTO 02004KT 6SM M08/M12 A3027 RMK T10801120 IEM_DS3505
ZBHH,2010-11-15 18:00,ZBHH 151800Z AUTO 36002KT 19SM M06/M13 A3024 RMK SLP315 T10621129 57011 IEM_DS3505
ZBHH,2010-11-15 19:00,ZBHH 151900Z AUTO 04004KT 6SM M09/M13 A3024 RMK T10901130 IEM_DS3505
ZBHH,2010-11-15 20:00,ZBHH 152000Z AUTO 04006KT 6SM M09/M12 A3024 RMK T10901120 IEM_DS3505
ZBHH,2010-11-15 21:00,ZBHH 152100Z AUTO 00000KT 19SM M08/M13 A3021 RMK SLP312 T10771129 57006 IEM_DS3505
ZBHH,2010-11-15 22:00,ZBHH 152200Z AUTO 07002KT 6SM M09/M12 A3021 RMK T10901120 IEM_DS3505
ZBHH,2010-11-15 23:00,ZBHH 152300Z AUTO 06004KT 6SM M10/M13 A3021 RMK T11001130 IEM_DS3505
ZBHH,2010-11-16 00:00,ZBHH 160000Z AUTO 02002KT 6SM M06/M13 A3024 RMK SLP317 T10621133 52004 IEM_DS3505
ZBHH,2010-11-16 01:00,ZBHH 160100Z AUTO 08002KT 6SM M05/M10 A3024 RMK T10501100 IEM_DS3505
ZBHH,2010-11-16 02:00,ZBHH 160200Z AUTO 03002KT 6SM M02/M11 A3021 RMK T10201110 IEM_DS3505
ZBHH,2010-11-16 03:00,ZBHH 160300Z AUTO 22002KT 12SM 00/M14 A3021 RMK SLP300 T00051139 57003 IEM_DS3505
ZBHH,2010-11-16 04:00,ZBHH 160400Z AUTO 24004KT 6SM 01/M13 A3021 RMK T00101130 IEM_DS3505
ZBHH,2010-11-16 05:00,ZBHH 160500Z AUTO 20002KT 6SM 02/M13 A3018 RMK T00201130 IEM_DS3505
ZBHH,2010-11-16 06:00,ZBHH 160600Z AUTO 09002KT 12SM 03/M14 A3015 RMK SLP269 T00321136 57024 IEM_DS3505
ZBHH,2010-11-16 07:00,ZBHH 160700Z AUTO 23004KT 6SM 04/M12 A3012 RMK T00401120 IEM_DS3505
ZBHH,2010-11-16 08:00,ZBHH 160800Z AUTO 28002KT 6SM 03/M12 A3012 RMK T00301120 IEM_DS3505
ZBHH,2010-11-16 09:00,ZBHH 160900Z AUTO 00000KT 7SM 03/M13 A3012 RMK SLP265 T00291126 57008 IEM_DS3505
ZBHH,2010-11-16 10:00,ZBHH 161000Z AUTO 05004KT 5SM 00/M10 A3012 RMK T00001100 IEM_DS3505
ZBHH,2010-11-16 11:00,ZBHH 161100Z AUTO 04006KT 6SM M03/M10 A3012 RMK T10301100 IEM_DS3505
ZBHH,2010-11-16 12:00,ZBHH 161200Z AUTO 36002KT 7SM M02/M11 A3012 RMK SLP279 T10181108 52005 IEM_DS3505
ZBHH,2010-11-16 13:00,ZBHH 161300Z AUTO 06004KT 6SM M05/M10 A3012 RMK T10501100 IEM_DS3505
ZBHH,2010-11-16 14:00,ZBHH 161400Z AUTO 06004KT 6SM M05/M09 A3015 RMK T10501090 IEM_DS3505
ZBHH,2010-11-16 15:00,ZBHH 161500Z AUTO 36002KT 9SM M04/M10 A3015 RMK SLP268 T10351099 52002 IEM_DS3505
ZBHH,2010-11-16 16:00,ZBHH 161600Z AUTO 06006KT 6SM M06/M09 A3015 RMK T10601090 IEM_DS3505
ZBHH,2010-11-16 17:00,ZBHH 161700Z AUTO 07004KT 6SM M06/M10 A3012 RMK T10601100 IEM_DS3505
ZBHH,2010-11-16 18:00,ZBHH 161800Z AUTO 00000KT 12SM M05/M10 A3012 RMK SLP262 T10491097 57003 IEM_DS3505
ZBHH,2010-11-16 19:00,ZBHH 161900Z AUTO 07004KT 6SM M07/M10 A3012 RMK T10701100 IEM_DS3505
ZBHH,2010-11-16 20:00,ZBHH 162000Z AUTO 06006KT 6SM M08/M10 A3012 RMK T10801100 IEM_DS3505
ZBHH,2010-11-16 21:00,ZBHH 162100Z AUTO 00000KT 12SM M06/M10 A3012 RMK SLP259 T10581100 57005 IEM_DS3505
ZBHH,2010-11-16 22:00,ZBHH 162200Z AUTO 07004KT 6SM M09/M11 A3012 RMK T10901110 IEM_DS3505
ZBHH,2010-11-16 23:00,ZBHH 162300Z AUTO 07006KT 6SM M08/M10 A3009 RMK T10801100 IEM_DS3505
ZBHH,2010-11-17 00:00,ZBHH 170000Z AUTO 07002KT 9SM M04/M10 A3012 RMK SLP268 T10441096 52001 IEM_DS3505
ZBHH,2010-11-17 01:00,ZBHH 170100Z AUTO 06006KT 6SM M03/M06 A3012 RMK T10301060 IEM_DS3505
ZBHH,2010-11-17 02:00,ZBHH 170200Z AUTO 09004KT 6SM 02/M07 A3012 RMK T00201070 IEM_DS3505
ZBHH,2010-11-17 03:00,ZBHH 170300Z AUTO 09004KT 12SM 04/M11 A3012 RMK SLP248 T00381106 57004 IEM_DS3505
ZBHH,2010-11-17 04:00,ZBHH 170400Z AUTO 25004KT 6SM 05/M10 A3009 RMK T00501100 IEM_DS3505
ZBHH,2010-11-17 05:00,ZBHH 170500Z AUTO 24004KT 6SM 07/M10 A3006 RMK T00701100 IEM_DS3505
ZBHH,2010-11-17 06:00,ZBHH 170600Z AUTO 22004KT 9SM 07/M11 A3003 RMK SLP220 T00671110 57021 IEM_DS3505
ZBHH,2010-11-17 07:00,ZBHH 170700Z AUTO 26004KT 6SM 07/M10 A3003 RMK T00701100 IEM_DS3505
ZBHH,2010-11-17 08:00,ZBHH 170800Z AUTO 30002KT 6SM 07/M10 A3003 RMK T00701100 IEM_DS3505
ZBHH,2010-11-17 09:00,ZBHH 170900Z AUTO 04002KT 12SM 06/M10 A3003 RMK SLP219 T00581104 57005 IEM_DS3505
ZBHH,2010-11-17 10:00,ZBHH 171000Z AUTO 06004KT 5SM 02/M10 A3003 RMK T00201100 IEM_DS3505
ZBHH,2010-11-17 11:00,ZBHH 171100Z AUTO 06002KT 4SM M01/M09 A3006 RMK T10101090 IEM_DS3505
ZBHH,2010-11-17 12:00,ZBHH 171200Z AUTO 36002KT 9SM 00/M08 A3006 RMK SLP243 T00021085 52012 IEM_DS3505
ZBHH,2010-11-17 13:00,ZBHH 171300Z AUTO 08004KT 4SM M03/M08 A3006 RMK T10301080 IEM_DS3505
ZBHH,2010-11-17 14:00,ZBHH 171400Z AUTO 04002KT 5SM M03/M08 A3006 RMK T10301080 IEM_DS3505
ZBHH,2010-11-17 15:00,ZBHH 171500Z AUTO 00000KT 7SM M01/M07 A3006 RMK SLP231 T10111074 52005 IEM_DS3505
ZBHH,2010-11-17 16:00,ZBHH 171600Z AUTO 05004KT 5SM M04/M07 A3009 RMK T10401070 IEM_DS3505
ZBHH,2010-11-17 17:00,ZBHH 171700Z AUTO 08004KT 6SM M04/M07 A3009 RMK T10401070 IEM_DS3505
ZBHH,2010-11-17 18:00,ZBHH 171800Z AUTO 07002KT 9SM M01/M08 A3009 RMK SLP224 T10071084 54000 IEM_DS3505
ZBHH,2010-11-17 19:00,ZBHH 171900Z AUTO 06004KT 6SM M04/M08 A3009 RMK T10401080 IEM_DS3505
ZBHH,2010-11-17 20:00,ZBHH 172000Z AUTO 03006KT 6SM M05/M08 A3009 RMK T10501080 IEM_DS3505
ZBHH,2010-11-17 21:00,ZBHH 172100Z AUTO 14002KT 12SM M02/M08 A3009 RMK SLP235 T10191084 52006 IEM_DS3505
ZBHH,2010-11-17 22:00,ZBHH 172200Z AUTO 08004KT 5SM M06/M08 A3009 RMK T10601080 IEM_DS3505
ZBHH,2010-11-17 23:00,ZBHH 172300Z AUTO 08006KT 5SM M05/M07 A3009 RMK T10501070 IEM_DS3505
ZBHH,2010-11-18 00:00,ZBHH 180000Z AUTO 36002KT 7SM M02/M08 A3012 RMK SLP258 T10211084 52007 IEM_DS3505
ZBHH,2010-11-18 01:00,ZBHH 180100Z AUTO 10002KT 3SM M03/M06 A3012 RMK T10301060 IEM_DS3505
ZBHH,2010-11-18 02:00,ZBHH 180200Z AUTO 11004KT 5SM 00/M06 A3012 RMK T00001060 IEM_DS3505
ZBHH,2010-11-18 03:00,ZBHH 180300Z AUTO 04002KT 9SM 02/M08 A3009 RMK SLP244 T00201084 57006 IEM_DS3505
ZBHH,2010-11-18 04:00,ZBHH 180400Z AUTO 24006KT 4SM 03/M07 A3009 RMK T00301070 IEM_DS3505
ZBHH,2010-11-18 05:00,ZBHH 180500Z AUTO 24010KT 4SM 04/M05 A3006 RMK T00401050 IEM_DS3505
ZBHH,2010-11-18 06:00,ZBHH 180600Z AUTO 22008KT 9SM 04/M07 A3003 RMK SLP217 T00431066 57018 IEM_DS3505
ZBHH,2010-11-18 07:00,ZBHH 180700Z AUTO 25014KT 4SM 06/M06 A3003 RMK T00601060 IEM_DS3505
ZBHH,2010-11-18 08:00,ZBHH 180800Z AUTO 26010KT 7SM 06/M10 A3006 RMK T00601100 IEM_DS3505
ZBHH,2010-11-18 09:00,ZBHH 180900Z AUTO 22008KT 16SM 03/M07 A3006 RMK SLP229 T00341071 52006 IEM_DS3505
ZBHH,2010-11-18 10:00,ZBHH 181000Z AUTO 25012KT 7SM 01/M06 A3006 RMK T00101060 IEM_DS3505
ZBHH,2010-11-18 11:00,ZBHH 181100Z AUTO 23008KT 7SM 00/M05 A3009 RMK T00001050 IEM_DS3505
ZBHH,2010-11-18 12:00,ZBHH 181200Z AUTO 25002KT 9SM 00/M06 A3009 RMK SLP247 T00021058 52009 IEM_DS3505
ZBHH,2010-11-18 13:00,ZBHH 181300Z AUTO 14004KT 6SM M03/M05 A3009 RMK T10301050 IEM_DS3505
ZBHH,2010-11-18 14:00,ZBHH 181400Z AUTO 08006KT 6SM M06/M07 A3006 RMK T10601070 IEM_DS3505
ZBHH,2010-11-18 15:00,ZBHH 181500Z AUTO 09004KT 16SM M03/M06 A3003 RMK SLP229 T10271062 57013 IEM_DS3505
ZBHH,2010-11-18 16:00,ZBHH 181600Z AUTO 06002KT 6SM M07/M08 A3003 RMK T10701080 IEM_DS3505
ZBHH,2010-11-18 17:00,ZBHH 181700Z AUTO 05006KT 6SM M07/M08 A3000 RMK T10701080 IEM_DS3505
ZBHH,2010-11-18 18:00,ZBHH 181800Z AUTO 09002KT 19SM M04/M07 A2997 RMK SLP206 T10361074 57018 IEM_DS3505
ZBHH,2010-11-18 19:00,ZBHH 181900Z AUTO 06006KT 6SM M08/M09 A2994 RMK T10801090 IEM_DS3505
ZBHH,2010-11-18 20:00,ZBHH 182000Z AUTO 09004KT 6SM M07/M09 A2991 RMK T10701090 IEM_DS3505
ZBHH,2010-11-18 21:00,ZBHH 182100Z AUTO 09002KT 19SM M04/M08 A2991 RMK SLP184 T10401081 57022 IEM_DS3505
ZBHH,2010-11-18 22:00,ZBHH 182200Z AUTO 03002KT 6SM M06/M07 A2991 RMK T10601070 IEM_DS3505
ZBHH,2010-11-18 23:00,ZBHH 182300Z AUTO 05004KT 7SM M04/M06 A2988 RMK T10401060 IEM_DS3505
ZBHH,2010-11-19 00:00,ZBHH 190000Z AUTO 04002KT 12SM M02/M07 A2988 RMK SLP178 T10181073 57007 IEM_DS3505
ZBHH,2010-11-19 01:00,ZBHH 190100Z AUTO 05004KT 4SM M01/M05 A2988 RMK T10101050 IEM_DS3505
ZBHH,2010-11-19 02:00,ZBHH 190200Z AUTO 08006KT 6SM 01/M07 A2988 RMK T00101070 IEM_DS3505
ZBHH,2010-11-19 03:00,ZBHH 190300Z AUTO 18002KT 9SM 03/M10 A2985 RMK SLP163 T00301099 57009 IEM_DS3505
ZBHH,2010-11-19 04:00,ZBHH 190400Z AUTO 25006KT 6SM 04/M08 A2983 RMK T00401080 IEM_DS3505
ZBHH,2010-11-19 05:00,ZBHH 190500Z AUTO 22008KT 6SM 05/M08 A2980 RMK T00501080 IEM_DS3505
ZBHH,2010-11-19 06:00,ZBHH 190600Z AUTO 22002KT 12SM 06/M09 A2977 RMK SLP124 T00631092 57029 IEM_DS3505
ZBHH,2010-11-19 07:00,ZBHH 190700Z AUTO 24008KT 6SM 07/M08 A2977 RMK T00701080 IEM_DS3505
ZBHH,2010-11-19 08:00,ZBHH 190800Z AUTO 34004KT 6SM 07/M08 A2977 RMK T00701080 IEM_DS3505
ZBHH,2010-11-19 09:00,ZBHH 190900Z AUTO 07002KT 9SM 06/M09 A2977 RMK SLP124 T00621089 57001 IEM_DS3505
ZBHH,2010-11-19 10:00,ZBHH 191000Z AUTO 12002KT 5SM 02/M08 A2980 RMK T00201080 IEM_DS3505
ZBHH,2010-11-19 11:00,ZBHH 191100Z AUTO 08004KT 4SM 01/M08 A2980 RMK T00101080 IEM_DS3505
ZBHH,2010-11-19 12:00,ZBHH 191200Z AUTO 04002KT 9SM 03/M07 A2983 RMK SLP142 T00291073 52013 IEM_DS3505
ZBHH,2010-11-19 13:00,ZBHH 191300Z AUTO 06004KT 5SM M02/M07 A2983 RMK T10201070 IEM_DS3505
ZBHH,2010-11-19 14:00,ZBHH 191400Z AUTO 03006KT 5SM M03/M07 A2983 RMK T10301070 IEM_DS3505
ZBHH,2010-11-19 15:00,ZBHH 191500Z AUTO 04002KT 12SM M00/M07 A2983 RMK SLP143 T10021068 52005 IEM_DS3505
ZBHH,2010-11-19 16:00,ZBHH 191600Z AUTO 10002KT 6SM M04/M07 A2983 RMK T10401070 IEM_DS3505
ZBHH,2010-11-19 17:00,ZBHH 191700Z AUTO 06004KT 6SM M04/M07 A2983 RMK T10401070 IEM_DS3505
ZBHH,2010-11-19 18:00,ZBHH 191800Z AUTO 07002KT 12SM M02/M06 A2983 RMK SLP138 T10171063 57001 IEM_DS3505
ZBHH,2010-11-19 19:00,ZBHH 191900Z AUTO 06004KT 6SM M04/M07 A2983 RMK T10401070 IEM_DS3505
ZBHH,2010-11-19 20:00,ZBHH 192000Z AUTO 04004KT 6SM M05/M07 A2983 RMK T10501070 IEM_DS3505
ZBHH,2010-11-19 21:00,ZBHH 192100Z AUTO 07002KT 12SM M03/M06 A2983 RMK SLP141 T10261064 52001 IEM_DS3505
ZBHH,2010-11-19 22:00,ZBHH 192200Z AUTO 05006KT 6SM M05/M07 A2983 RMK T10501070 IEM_DS3505
ZBHH,2010-11-19 23:00,ZBHH 192300Z AUTO 07006KT 6SM M06/M07 A2983 RMK T10601070 IEM_DS3505
ZBHH,2010-11-20 00:00,ZBHH 200000Z AUTO 36004KT 7SM M01/M06 A2985 RMK SLP156 T10141060 52008 IEM_DS3505
ZBHH,2010-11-20 01:00,ZBHH 200100Z AUTO 07006KT 4SM M01/M04 A2985 RMK T10101040 IEM_DS3505
ZBHH,2010-11-20 02:00,ZBHH 200200Z AUTO 12004KT 6SM 03/M05 A2985 RMK T00301050 IEM_DS3505
ZBHH,2010-11-20 03:00,ZBHH 200300Z AUTO 07002KT 7SM 05/M05 A2985 RMK SLP148 T00541053 52001 IEM_DS3505
ZBHH,2010-11-20 04:00,ZBHH 200400Z AUTO 20002KT 6SM 07/M05 A2983 RMK T00701050 IEM_DS3505
ZBHH,2010-11-20 05:00,ZBHH 200500Z AUTO 28002KT 6SM 08/M06 A2980 RMK T00801060 IEM_DS3505
ZBHH,2010-11-20 06:00,ZBHH 200600Z AUTO 29002KT 9SM 09/M07 A2977 RMK SLP113 T00921066 57026 IEM_DS3505
ZBHH,2010-11-20 07:00,ZBHH 200700Z AUTO 02004KT 6SM 09/M06 A2977 RMK T00901060 IEM_DS3505
ZBHH,2010-11-20 08:00,ZBHH 200800Z AUTO 04002KT 6SM 09/M06 A2974 RMK T00901060 IEM_DS3505
ZBHH,2010-11-20 09:00,ZBHH 200900Z AUTO 07002KT 9SM 08/M06 A2974 RMK SLP104 T00751062 57013 IEM_DS3505
ZBHH,2010-11-20 10:00,ZBHH 201000Z AUTO 06002KT 4SM 03/M06 A2974 RMK T00301060 IEM_DS3505
ZBHH,2010-11-20 11:00,ZBHH 201100Z AUTO 05004KT 5SM 02/M06 A2974 RMK T00201060 IEM_DS3505
ZBHH,2010-11-20 12:00,ZBHH 201200Z AUTO 16002KT 9SM 03/M05 A2977 RMK SLP120 T00321047 52007 IEM_DS3505
ZBHH,2010-11-20 13:00,ZBHH 201300Z AUTO 08004KT 4SM 02/M04 A2977 RMK T00201040 IEM_DS3505
ZBHH,2010-11-20 14:00,ZBHH 201400Z AUTO 07002KT 4SM 01/M04 A2980 RMK T00101040 IEM_DS3505
ZBHH,2010-11-20 15:00,ZBHH 201500Z AUTO 34004KT 9SM 05/M06 A2983 RMK SLP121 T00511061 52019 IEM_DS3505
ZBHH,2010-11-20 16:00,ZBHH 201600Z AUTO 30006KT 2 1/2SM 06/M09 A2983 RMK T00601090 IEM_DS3505
ZBHH,2010-11-20 17:00,ZBHH 201700Z AUTO 33023G33KT 1 1/2SM 06/M12 A2985 RMK T00601120 IEM_DS3505
ZBHH,2010-11-20 18:00,ZBHH 201800Z AUTO 32010G37KT 5SM 02/ A2994 RMK SLP171 52045 IEM_DS3505
ZBHH,2010-11-20 19:00,ZBHH 201900Z AUTO 32021G31KT 6SM 01/M10 A3000 RMK T00101100 IEM_DS3505
ZBHH,2010-11-20 20:00,ZBHH 202000Z AUTO 30016KT 6SM M02/M12 A3003 RMK T10201120 IEM_DS3505
ZBHH,2010-11-20 21:00,ZBHH 202100Z AUTO 34004KT 19SM M03/M14 A3006 RMK SLP226 T10271135 52036 IEM_DS3505
ZBHH,2010-11-20 22:00,ZBHH 202200Z AUTO 31012KT 6SM M04/M12 A3009 RMK T10401120 IEM_DS3505
ZBHH,2010-11-20 23:00,ZBHH 202300Z AUTO 30012KT 6SM M05/M12 A3009 RMK T10501120 IEM_DS3505
ZBHH,2010-11-21 00:00,ZBHH 210000Z AUTO 29006KT 19SM M05/M14 A3012 RMK SLP260 T10481144 52016 IEM_DS3505
ZBHH,2010-11-21 01:00,ZBHH 210100Z AUTO 33010KT 7SM M05/M13 A3015 RMK T10501130 IEM_DS3505
ZBHH,2010-11-21 02:00,ZBHH 210200Z AUTO 29008KT 7SM M04/M13 A3015 RMK T10401130 IEM_DS3505
ZBHH,2010-11-21 03:00,ZBHH 210300Z AUTO 32006KT 19SM M02/M19 A3015 RMK SLP254 T10191189 52005 IEM_DS3505
ZBHH,2010-11-21 04:00,ZBHH 210400Z AUTO 30014KT 7SM M01/M17 A3009 RMK T10101170 IEM_DS3505
ZBHH,2010-11-21 05:00,ZBHH 210500Z AUTO 32017KT 7SM 00/M22 A3009 RMK T00001220 IEM_DS3505
ZBHH,2010-11-21 06:00,ZBHH 210600Z AUTO 25006KT 19SM 01/M22 A3006 RMK SLP226 T00081222 57026 IEM_DS3505
ZBHH,2010-11-21 07:00,ZBHH 210700Z AUTO 23010KT 6SM 00/M21 A3003 RMK T00001210 IEM_DS3505
ZBHH,2010-11-21 08:00,ZBHH 210800Z AUTO 30010KT 6SM 00/M22 A3003 RMK T00001220 IEM_DS3505
ZBHH,2010-11-21 09:00,ZBHH 210900Z AUTO 22008KT 19SM M01/M17 A3006 RMK SLP239 T10101168 57002 IEM_DS3505
ZBHH,2010-11-21 10:00,ZBHH 211000Z AUTO 24008KT 6SM M03/M14 A3006 RMK T10301140 IEM_DS3505
ZBHH,2010-11-21 11:00,ZBHH 211100Z AUTO 25006KT 6SM M04/M13 A3009 RMK T10401130 IEM_DS3505
ZBHH,2010-11-21 12:00,ZBHH 211200Z AUTO 25002KT 19SM M03/M18 A3009 RMK SLP262 T10261178 52012 IEM_DS3505
ZBHH,2010-11-21 13:00,ZBHH 211300Z AUTO 15002KT 6SM M06/M13 A3009 RMK T10601130 IEM_DS3505
ZBHH,2010-11-21 14:00,ZBHH 211400Z AUTO 11004KT 6SM M07/M14 A3009 RMK T10701140 IEM_DS3505
ZBHH,2010-11-21 15:00,ZBHH 211500Z AUTO 25002KT 19SM M04/M17 A3009 RMK SLP263 T10431171 52003 IEM_DS3505
ZBHH,2010-11-21 16:00,ZBHH 211600Z AUTO 09004KT 6SM M08/M13 A3012 RMK T10801130 IEM_DS3505
ZBHH,2010-11-21 17:00,ZBHH 211700Z AUTO 08004KT 6SM M10/M14 A3009 RMK T11001140 IEM_DS3505
ZBHH,2010-11-21 18:00,ZBHH 211800Z AUTO 04002KT 19SM M07/M15 A3009 RMK SLP261 T10681146 57001 IEM_DS3505
ZBHH,2010-11-21 19:00,ZBHH 211900Z AUTO 10004KT 6SM M09/M13 A3009 RMK T10901130 IEM_DS3505
ZBHH,2010-11-21 20:00,ZBHH 212000Z AUTO 09006KT 6SM M10/M14 A3009 RMK T11001140 IEM_DS3505
ZBHH,2010-11-21 21:00,ZBHH 212100Z AUTO 07002KT 19SM M07/M16 A3009 RMK SLP267 T10741158 54000 IEM_DS3505
ZBHH,2010-11-21 22:00,ZBHH 212200Z AUTO 05002KT 6SM M10/M14 A3009 RMK T11001140 IEM_DS3505
ZBHH,2010-11-21 23:00,ZBHH 212300Z AUTO 10002KT 6SM M10/M14 A3009 RMK T11001140 IEM_DS3505
ZBHH,2010-11-22 00:00,ZBHH 220000Z AUTO 07002KT 9SM M08/M16 A3009 RMK SLP267 T10761160 57004 IEM_DS3505
ZBHH,2010-11-22 01:00,ZBHH 220100Z AUTO 08004KT 6SM M07/M12 A3009 RMK T10701120 IEM_DS3505
ZBHH,2010-11-22 02:00,ZBHH 220200Z AUTO 08004KT 6SM M04/M15 A3009 RMK T10401150 IEM_DS3505
ZBHH,2010-11-22 03:00,ZBHH 220300Z AUTO 11002KT 12SM M02/M18 A3009 RMK SLP265 T10201177 52007 IEM_DS3505
ZBHH,2010-11-22 04:00,ZBHH 220400Z AUTO 17004KT 6SM M01/M16 A3006 RMK T10101160 IEM_DS3505
ZBHH,2010-11-22 05:00,ZBHH 220500Z AUTO 13004KT 6SM 00/M18 A3003 RMK T00001180 IEM_DS3505
ZBHH,2010-11-22 06:00,ZBHH 220600Z AUTO 22004KT 16SM 01/M19 A3000 RMK SLP227 T00131192 57032 IEM_DS3505
ZBHH,2010-11-22 07:00,ZBHH 220700Z AUTO 25006KT 6SM 02/M19 A3000 RMK T00201190 IEM_DS3505
ZBHH,2010-11-22 08:00,ZBHH 220800Z AUTO 22002KT 6SM 02/M19 A2997 RMK T00201190 IEM_DS3505
ZBHH,2010-11-22 09:00,ZBHH 220900Z AUTO 29002KT 12SM 01/M19 A2997 RMK SLP216 T00061192 57012 IEM_DS3505
ZBHH,2010-11-22 10:00,ZBHH 221000Z AUTO 05004KT 6SM M02/M16 A2997 RMK T10201160 IEM_DS3505
ZBHH,2010-11-22 11:00,ZBHH 221100Z AUTO 03006KT 6SM M04/M16 A2997 RMK T10401160 IEM_DS3505
ZBHH,2010-11-22 12:00,ZBHH 221200Z AUTO 27002KT 12SM M03/M16 A2997 RMK SLP231 T10261160 52006 IEM_DS3505
ZBHH,2010-11-22 13:00,ZBHH 221300Z AUTO 06006KT 6SM M05/M14 A2997 RMK T10501140 IEM_DS3505
ZBHH,2010-11-22 14:00,ZBHH 221400Z AUTO 07004KT 6SM M04/M13 A2997 RMK T10401130 IEM_DS3505
ZBHH,2010-11-22 15:00,ZBHH 221500Z AUTO 04002KT 12SM M02/M16 A2997 RMK SLP211 T10181163 57004 IEM_DS3505
ZBHH,2010-11-22 16:00,ZBHH 221600Z AUTO 07004KT 6SM M04/M11 A2994 RMK T10401110 IEM_DS3505
ZBHH,2010-11-22 17:00,ZBHH 221700Z AUTO 06004KT 6SM M04/M12 A2994 RMK T10401120 IEM_DS3505
ZBHH,2010-11-22 18:00,ZBHH 221800Z AUTO 04002KT 12SM M02/M16 A2994 RMK SLP193 T10211159 57009 IEM_DS3505
ZBHH,2010-11-22 19:00,ZBHH 221900Z AUTO 09002KT 6SM M06/M11 A2994 RMK T10601110 IEM_DS3505
ZBHH,2010-11-22 20:00,ZBHH 222000Z AUTO 06004KT 6SM M08/M12 A2991 RMK T10801120 IEM_DS3505
ZBHH,2010-11-22 21:00,ZBHH 222100Z AUTO 25002KT 16SM M05/M14 A2991 RMK SLP197 T10511142 57005 IEM_DS3505
ZBHH,2010-11-22 22:00,ZBHH 222200Z AUTO 11004KT 6SM M07/M13 A2991 RMK T10701130 IEM_DS3505
ZBHH,2010-11-22 23:00,ZBHH 222300Z AUTO 06004KT 6SM M08/M12 A2994 RMK T10801120 IEM_DS3505
ZBHH,2010-11-23 00:00,ZBHH 230000Z AUTO 32004KT 7SM M03/M12 A2994 RMK SLP211 T10341123 52009 IEM_DS3505
ZBHH,2010-11-23 01:00,ZBHH 230100Z AUTO 09004KT 6SM M04/M10 A2997 RMK T10401100 IEM_DS3505
ZBHH,2010-11-23 02:00,ZBHH 230200Z AUTO 14004KT 5SM M02/M10 A2997 RMK T10201100 IEM_DS3505
ZBHH,2010-11-23 03:00,ZBHH 230300Z AUTO 04002KT 7SM M00/M15 A2997 RMK SLP210 T10041147 52008 IEM_DS3505
ZBHH,2010-11-23 04:00,ZBHH 230400Z AUTO 23006KT 6SM 00/M14 A2997 RMK T00001140 IEM_DS3505
ZBHH,2010-11-23 05:00,ZBHH 230500Z AUTO 24004KT 5SM 01/M14 A2994 RMK T00101140 IEM_DS3505
ZBHH,2010-11-23 06:00,ZBHH 230600Z AUTO 27002KT 9SM 02/M15 A2994 RMK SLP189 T00171149 57015 IEM_DS3505
ZBHH,2010-11-23 07:00,ZBHH 230700Z AUTO 27002KT 5SM 02/M13 A2991 RMK T00201130 IEM_DS3505
ZBHH,2010-11-23 08:00,ZBHH 230800Z AUTO 00000KT 5SM 02/M13 A2994 RMK T00201130 IEM_DS3505
ZBHH,2010-11-23 09:00,ZBHH 230900Z AUTO 02002KT 9SM 01/M14 A2997 RMK SLP207 T00111145 52008 IEM_DS3505
ZBHH,2010-11-23 10:00,ZBHH 231000Z AUTO 19002KT 5SM M02/M11 A2997 RMK T10201110 IEM_DS3505
ZBHH,2010-11-23 11:00,ZBHH 231100Z AUTO 03006KT 4SM M04/M11 A3000 RMK T10401110 IEM_DS3505
ZBHH,2010-11-23 12:00,ZBHH 231200Z AUTO 22002KT 16SM M03/M13 A3003 RMK SLP238 T10301133 52022 IEM_DS3505
ZBHH,2010-11-23 13:00,ZBHH 231300Z AUTO 07002KT 5SM M07/M12 A3003 RMK T10701120 IEM_DS3505
ZBHH,2010-11-23 14:00,ZBHH 231400Z AUTO 05002KT 4SM M07/M12 A3006 RMK T10701120 IEM_DS3505
ZBHH,2010-11-23 15:00,ZBHH 231500Z AUTO 32006KT 14SM 01/M16 A3009 RMK SLP249 T00091156 52025 IEM_DS3505
ZBHH,2010-11-23 16:00,ZBHH 231600Z AUTO 30014KT 6SM M02/M15 A3015 RMK T10201150 IEM_DS3505
ZBHH,2010-11-23 17:00,ZBHH 231700Z AUTO 30014KT 6SM M02/M16 A3015 RMK T10201160 IEM_DS3505
ZBHH,2010-11-23 18:00,ZBHH 231800Z AUTO 29008G23KT 19SM M02/M19 A3018 RMK SLP280 T10241189 52024 IEM_DS3505
ZBHH,2010-11-23 19:00,ZBHH 231900Z AUTO 30014KT 6SM M05/M14 A3021 RMK T10501140 IEM_DS3505
ZBHH,2010-11-23 20:00,ZBHH 232000Z AUTO 28016KT 6SM M06/M15 A3024 RMK T10601150 IEM_DS3505
ZBHH,2010-11-23 21:00,ZBHH 232100Z AUTO 32006KT 19SM M07/M22 A3024 RMK SLP308 T10681215 52014 IEM_DS3505
ZBHH,2010-11-23 22:00,ZBHH 232200Z AUTO 35008KT 6SM M08/M20 A3027 RMK T10801200 IEM_DS3505
ZBHH,2010-11-23 23:00,ZBHH 232300Z AUTO 35016KT 6SM M10/M18 A3030 RMK T11001180 IEM_DS3505
ZBHH,2010-11-24 00:00,ZBHH 240000Z AUTO 32010KT 19SM M09/M21 A3033 RMK SLP357 T10941208 52028 IEM_DS3505
ZBHH,2010-11-24 01:00,ZBHH 240100Z AUTO 36012KT 6SM M10/M18 A3036 RMK T11001180 IEM_DS3505
ZBHH,2010-11-24 02:00,ZBHH 240200Z AUTO 35010KT 6SM M08/M18 A3036 RMK T10801180 IEM_DS3505
ZBHH,2010-11-24 03:00,ZBHH 240300Z AUTO 34002KT 19SM M05/M21 A3036 RMK SLP341 T10531210 52004 IEM_DS3505
ZBHH,2010-11-24 04:00,ZBHH 240400Z AUTO 01008KT 6SM M05/M17 A3033 RMK T10501170 IEM_DS3505
ZBHH,2010-11-24 05:00,ZBHH 240500Z AUTO 28004KT 6SM M04/M18 A3030 RMK T10401180 IEM_DS3505
ZBHH,2010-11-24 06:00,ZBHH 240600Z AUTO 22004KT 19SM M03/M21 A3027 RMK SLP321 T10331210 57021 IEM_DS3505
ZBHH,2010-11-24 07:00,ZBHH 240700Z AUTO 22006KT 6SM M04/M19 A3024 RMK T10401190 IEM_DS3505
ZBHH,2010-11-24 08:00,ZBHH 240800Z AUTO 23006KT 6SM M04/M19 A3024 RMK T10401190 IEM_DS3505
ZBHH,2010-11-24 09:00,ZBHH 240900Z AUTO 22002KT 12SM M04/M21 A3027 RMK SLP326 T10361213 57006 IEM_DS3505
ZBHH,2010-11-24 10:00,ZBHH 241000Z AUTO 21004KT 6SM M07/M20 A3024 RMK T10701200 IEM_DS3505
ZBHH,2010-11-24 11:00,ZBHH 241100Z AUTO 08002KT 6SM M07/M19 A3024 RMK T10701190 IEM_DS3505
ZBHH,2010-11-24 12:00,ZBHH 241200Z AUTO 25002KT 9SM M06/M20 A3027 RMK SLP343 T10641200 52003 IEM_DS3505
ZBHH,2010-11-24 13:00,ZBHH 241300Z AUTO 09004KT 6SM M11/M17 A3027 RMK T11101170 IEM_DS3505
ZBHH,2010-11-24 14:00,ZBHH 241400Z AUTO 07004KT 6SM M11/M18 A3027 RMK T11101180 IEM_DS3505
ZBHH,2010-11-24 15:00,ZBHH 241500Z AUTO 07002KT 12SM M08/M21 A3024 RMK SLP333 T10771208 57003 IEM_DS3505
ZBHH,2010-11-24 16:00,ZBHH 241600Z AUTO 07006KT 6SM M14/M18 A3024 RMK T11401180 IEM_DS3505
ZBHH,2010-11-24 17:00,ZBHH 241700Z AUTO 06004KT 6SM M13/M18 A3024 RMK T11301180 IEM_DS3505
ZBHH,2010-11-24 18:00,ZBHH 241800Z AUTO 09002KT 12SM M09/M20 A3024 RMK SLP331 T10921200 54000 IEM_DS3505
ZBHH,2010-11-24 19:00,ZBHH 241900Z AUTO 05006KT 6SM M14/M18 A3024 RMK T11401180 IEM_DS3505
ZBHH,2010-11-24 20:00,ZBHH 242000Z AUTO 06004KT 6SM M15/M19 A3024 RMK T11501190 IEM_DS3505
ZBHH,2010-11-24 21:00,ZBHH 242100Z AUTO 16002KT 12SM M10/M20 A3021 RMK SLP324 T10981198 57008 IEM_DS3505
ZBHH,2010-11-24 22:00,ZBHH 242200Z AUTO 04004KT 6SM M15/M18 A3024 RMK T11501180 IEM_DS3505
ZBHH,2010-11-24 23:00,ZBHH 242300Z AUTO 06004KT 6SM M15/M19 A3024 RMK T11501190 IEM_DS3505
ZBHH,2010-11-25 00:00,ZBHH 250000Z AUTO 02002KT 9SM M10/M19 A3024 RMK SLP334 T10951192 52003 IEM_DS3505
ZBHH,2010-11-25 01:00,ZBHH 250100Z AUTO 08002KT 6SM M10/M15 A3024 RMK T11001150 IEM_DS3505
ZBHH,2010-11-25 02:00,ZBHH 250200Z AUTO 17004KT 6SM M06/M16 A3024 RMK T10601160 IEM_DS3505
ZBHH,2010-11-25 03:00,ZBHH 250300Z AUTO 22002KT 9SM M04/M18 A3024 RMK SLP322 T10371184 57001 IEM_DS3505
ZBHH,2010-11-25 04:00,ZBHH 250400Z AUTO 19004KT 6SM M02/M16 A3021 RMK T10201160 IEM_DS3505
ZBHH,2010-11-25 05:00,ZBHH 250500Z AUTO 24004KT 6SM M01/M18 A3015 RMK T10101180 IEM_DS3505
ZBHH,2010-11-25 06:00,ZBHH 250600Z AUTO 22004KT 12SM M01/M19 A3015 RMK SLP288 T10101186 57027 IEM_DS3505
ZBHH,2010-11-25 07:00,ZBHH 250700Z AUTO 24002KT 6SM M01/M18 A3012 RMK T10101180 IEM_DS3505
ZBHH,2010-11-25 08:00,ZBHH 250800Z AUTO 24004KT 6SM M01/M17 A3012 RMK T10101170 IEM_DS3505
ZBHH,2010-11-25 09:00,ZBHH 250900Z AUTO 22002KT 12SM M01/M18 A3012 RMK SLP280 T10111182 57008 IEM_DS3505
ZBHH,2010-11-25 10:00,ZBHH 251000Z AUTO 00000KT 6SM M02/M16 A3012 RMK T10201160 IEM_DS3505
ZBHH,2010-11-25 11:00,ZBHH 251100Z AUTO 08004KT 6SM M04/M16 A3009 RMK T10401160 IEM_DS3505
ZBHH,2010-11-25 12:00,ZBHH 251200Z AUTO 04004KT 9SM M03/M18 A3012 RMK SLP282 T10331180 57003 IEM_DS3505
ZBHH,2010-11-25 13:00,ZBHH 251300Z AUTO 05006KT 6SM M08/M16 A3009 RMK T10801160 IEM_DS3505
ZBHH,2010-11-25 14:00,ZBHH 251400Z AUTO 06006KT 6SM M10/M16 A3009 RMK T11001160 IEM_DS3505
ZBHH,2010-11-25 15:00,ZBHH 251500Z AUTO 00000KT 16SM M06/M16 A3006 RMK SLP261 T10631158 57012 IEM_DS3505
ZBHH,2010-11-25 16:00,ZBHH 251600Z AUTO 09006KT 6SM M09/M16 A3006 RMK T10901160 IEM_DS3505
ZBHH,2010-11-25 17:00,ZBHH 251700Z AUTO 05004KT 6SM M10/M16 A3003 RMK T11001160 IEM_DS3505
ZBHH,2010-11-25 18:00,ZBHH 251800Z AUTO 00000KT 16SM M07/M16 A3000 RMK SLP232 T10731155 57021 IEM_DS3505
ZBHH,2010-11-25 19:00,ZBHH 251900Z AUTO 07004KT 6SM M11/M15 A2997 RMK T11101150 IEM_DS3505
ZBHH,2010-11-25 20:00,ZBHH 252000Z AUTO 06004KT 6SM M11/M15 A2997 RMK T11101150 IEM_DS3505
ZBHH,2010-11-25 21:00,ZBHH 252100Z AUTO 34002KT 16SM M07/M15 A2994 RMK SLP210 T10731152 57020 IEM_DS3505
ZBHH,2010-11-25 22:00,ZBHH 252200Z AUTO 10004KT 6SM M11/M14 A2991 RMK T11101140 IEM_DS3505
ZBHH,2010-11-25 23:00,ZBHH 252300Z AUTO 01004KT 7SM M10/M13 A2988 RMK T11001130 IEM_DS3505
ZBHH,2010-11-26 00:00,ZBHH 260000Z AUTO 02002KT 7SM M07/M14 A2988 RMK SLP200 T10671145 57012 IEM_DS3505
ZBHH,2010-11-26 01:00,ZBHH 260100Z AUTO 04002KT 4SM M06/M11 A2988 RMK T10601110 IEM_DS3505
ZBHH,2010-11-26 02:00,ZBHH 260200Z AUTO 27006KT 4SM M03/M11 A2988 RMK T10301110 IEM_DS3505
ZBHH,2010-11-26 03:00,ZBHH 260300Z AUTO 20004KT 9SM M01/M13 A2988 RMK SLP185 T10081133 57007 IEM_DS3505
ZBHH,2010-11-26 04:00,ZBHH 260400Z AUTO 24010KT 4SM 01/M13 A2985 RMK T00101130 IEM_DS3505
ZBHH,2010-11-26 05:00,ZBHH 260500Z AUTO 25012KT 4SM 03/M12 A2985 RMK T00301120 IEM_DS3505
ZBHH,2010-11-26 06:00,ZBHH 260600Z AUTO 29008G33KT 7SM 04/M15 A2985 RMK SLP172 T00411147 57003 IEM_DS3505
ZBHH,2010-11-26 07:00,ZBHH 260700Z AUTO 31023G33KT 7SM 04/M14 A2985 RMK T00401140 IEM_DS3505
ZBHH,2010-11-26 08:00,ZBHH 260800Z AUTO 30017KT 7SM 04/M15 A2988 RMK T00401150 IEM_DS3505
ZBHH,2010-11-26 09:00,ZBHH 260900Z AUTO 32006KT 19SM 03/M15 A2994 RMK SLP198 T00261150 52020 IEM_DS3505
ZBHH,2010-11-26 10:00,ZBHH 261000Z AUTO 30012KT 7SM 01/M14 A2997 RMK T00101140 IEM_DS3505
ZBHH,2010-11-26 11:00,ZBHH 261100Z AUTO 33016KT 6SM M01/M18 A3003 RMK T10101180 IEM_DS3505
ZBHH,2010-11-26 12:00,ZBHH 261200Z AUTO 29006KT 19SM M02/M22 A3006 RMK SLP257 T10191225 52043 IEM_DS3505
ZBHH,2010-11-26 13:00,ZBHH 261300Z AUTO 33014G25KT 6SM M03/M21 A3009 RMK T10301210 IEM_DS3505
ZBHH,2010-11-26 14:00,ZBHH 261400Z AUTO 32014KT 4SM M04/M24 A3012 RMK T10401240 IEM_DS3505
ZBHH,2010-11-26 15:00,ZBHH 261500Z AUTO 27006KT 19SM M05/M25 A3015 RMK SLP280 T10521247 52026 IEM_DS3505
ZBHH,2010-11-26 16:00,ZBHH 261600Z AUTO 31014G31KT 4SM M06/M26 A3015 RMK T10601260 IEM_DS3505
ZBHH,2010-11-26 17:00,ZBHH 261700Z AUTO 33012KT 6SM M07/M28 A3015 RMK T10701280 IEM_DS3505
ZBHH,2010-11-26 18:00,ZBHH 261800Z AUTO 25006KT 19SM M07/M29 A3015 RMK SLP279 T10711287 52005 IEM_DS3505
ZBHH,2010-11-26 19:00,ZBHH 261900Z AUTO 32010G19KT 6SM M08/M27 A3015 RMK T10801270 IEM_DS3505
ZBHH,2010-11-26 20:00,ZBHH 262000Z AUTO 28006KT 6SM M09/M26 A3015 RMK T10901260 IEM_DS3505
ZBHH,2010-11-26 21:00,ZBHH 262100Z AUTO 34002KT 19SM M08/M28 A3018 RMK SLP284 T10751284 52001 IEM_DS3505
ZBHH,2010-11-26 22:00,ZBHH 262200Z AUTO 28004KT 6SM M09/M25 A3018 RMK T10901250 IEM_DS3505
ZBHH,2010-11-26 23:00,ZBHH 262300Z AUTO 22004KT 6SM M11/M25 A3018 RMK T11101250 IEM_DS3505
ZBHH,2010-11-27 00:00,ZBHH 270000Z AUTO 34006KT 19SM M08/M29 A3021 RMK SLP306 T10781293 52008 IEM_DS3505
ZBHH,2010-11-27 01:00,ZBHH 270100Z AUTO 15004KT 6SM M07/M25 A3021 RMK T10701250 IEM_DS3505
ZBHH,2010-11-27 02:00,ZBHH 270200Z AUTO 10002KT 6SM M06/M26 A3021 RMK T10601260 IEM_DS3505
ZBHH,2010-11-27 03:00,ZBHH 270300Z AUTO 32006KT 19SM M04/M27 A3021 RMK SLP309 T10391268 52004 IEM_DS3505
ZBHH,2010-11-27 04:00,ZBHH 270400Z AUTO 19004KT 6SM M04/M24 A3018 RMK T10401240 IEM_DS3505
ZBHH,2010-11-27 05:00,ZBHH 270500Z AUTO 22008KT 6SM M03/M23 A3015 RMK T10301230 IEM_DS3505
ZBHH,2010-11-27 06:00,ZBHH 270600Z AUTO 25008KT 19SM M02/M22 A3012 RMK SLP280 T10181218 57025 IEM_DS3505
ZBHH,2010-11-27 07:00,ZBHH 270700Z AUTO 23010KT 6SM M02/M20 A3012 RMK T10201200 IEM_DS3505
ZBHH,2010-11-27 08:00,ZBHH 270800Z AUTO 24010KT 6SM M02/M20 A3012 RMK T10201200 IEM_DS3505
ZBHH,2010-11-27 09:00,ZBHH 270900Z AUTO 25004KT 9SM M02/M21 A3009 RMK SLP272 T10251208 57009 IEM_DS3505
ZBHH,2010-11-27 10:00,ZBHH 271000Z AUTO 21002KT 6SM M04/M19 A3009 RMK T10401190 IEM_DS3505
ZBHH,2010-11-27 11:00,ZBHH 271100Z AUTO 04004KT 6SM M05/M19 A3009 RMK T10501190 IEM_DS3505
ZBHH,2010-11-27 12:00,ZBHH 271200Z AUTO 22002KT 12SM M04/M20 A3009 RMK SLP277 T10451195 57001 IEM_DS3505
ZBHH,2010-11-27 13:00,ZBHH 271300Z AUTO 09002KT 6SM M09/M18 A3012 RMK T10901180 IEM_DS3505
ZBHH,2010-11-27 14:00,ZBHH 271400Z AUTO 10004KT 6SM M10/M18 A3009 RMK T11001180 IEM_DS3505
ZBHH,2010-11-27 15:00,ZBHH 271500Z AUTO 27002KT 12SM M07/M18 A3009 RMK SLP273 T10731180 57001 IEM_DS3505
ZBHH,2010-11-27 16:00,ZBHH 271600Z AUTO 02002KT 6SM M11/M18 A3012 RMK T11101180 IEM_DS3505
ZBHH,2010-11-27 17:00,ZBHH 271700Z AUTO 05004KT 6SM M12/M18 A3012 RMK T11201180 IEM_DS3505
ZBHH,2010-11-27 18:00,ZBHH 271800Z AUTO 00000KT 12SM M08/M19 A3009 RMK SLP271 T10801187 52001 IEM_DS3505
ZBHH,2010-11-27 19:00,ZBHH 271900Z AUTO 09004KT 6SM M13/M17 A3012 RMK T11301170 IEM_DS3505
ZBHH,2010-11-27 20:00,ZBHH 272000Z AUTO 04004KT 6SM M13/M17 A3009 RMK T11301170 IEM_DS3505
ZBHH,2010-11-27 21:00,ZBHH 272100Z AUTO 04002KT 19SM M09/M18 A3009 RMK SLP273 T10911183 57002 IEM_DS3505
ZBHH,2010-11-27 22:00,ZBHH 272200Z AUTO 05004KT 6SM M14/M17 A3009 RMK T11401170 IEM_DS3505
ZBHH,2010-11-27 23:00,ZBHH 272300Z AUTO 07004KT 6SM M14/M18 A3009 RMK T11401180 IEM_DS3505
ZBHH,2010-11-28 00:00,ZBHH 280000Z AUTO 02002KT 9SM M08/M18 A3012 RMK SLP287 T10831181 52010 IEM_DS3505
ZBHH,2010-11-28 01:00,ZBHH 280100Z AUTO 03004KT 3SM M09/M14 A3015 RMK T10901140 IEM_DS3505
ZBHH,2010-11-28 02:00,ZBHH 280200Z AUTO 09002KT 6SM M05/M13 A3015 RMK T10501130 IEM_DS3505
ZBHH,2010-11-28 03:00,ZBHH 280300Z AUTO 09004KT 7SM M04/M17 A3015 RMK SLP289 T10361168 52006 IEM_DS3505
ZBHH,2010-11-28 04:00,ZBHH 280400Z AUTO 24002KT 6SM M02/M13 A3012 RMK T10201130 IEM_DS3505
ZBHH,2010-11-28 05:00,ZBHH 280500Z AUTO 34004KT 4SM M02/M13 A3009 RMK T10201130 IEM_DS3505
ZBHH,2010-11-28 06:00,ZBHH 280600Z AUTO 20002KT 9SM 02/M13 A3006 RMK SLP248 T00201134 57025 IEM_DS3505
ZBHH,2010-11-28 07:00,ZBHH 280700Z AUTO 36002KT 4SM 01/M14 A3003 RMK T00101140 IEM_DS3505
ZBHH,2010-11-28 08:00,ZBHH 280800Z AUTO 05004KT 4SM 01/M13 A3003 RMK T00101130 IEM_DS3505
ZBHH,2010-11-28 09:00,ZBHH 280900Z AUTO 22004KT 12SM 02/M12 A3003 RMK SLP237 T00181117 57013 IEM_DS3505
ZBHH,2010-11-28 10:00,ZBHH 281000Z AUTO 10004KT 4SM M04/M12 A3003 RMK T10401120 IEM_DS3505
ZBHH,2010-11-28 11:00,ZBHH 281100Z AUTO 08004KT 4SM M07/M13 A3003 RMK T10701130 IEM_DS3505
ZBHH,2010-11-28 12:00,ZBHH 281200Z AUTO 04002KT 19SM M02/M12 A3003 RMK SLP253 T10221123 52007 IEM_DS3505
ZBHH,2010-11-28 13:00,ZBHH 281300Z AUTO 09006KT 5SM M07/M12 A3003 RMK T10701120 IEM_DS3505
ZBHH,2010-11-28 14:00,ZBHH 281400Z AUTO 04004KT 5SM M07/M11 A3003 RMK T10701110 IEM_DS3505
ZBHH,2010-11-28 15:00,ZBHH 281500Z AUTO 00000KT 16SM M03/M12 A3003 RMK SLP242 T10301115 57001 IEM_DS3505
ZBHH,2010-11-28 16:00,ZBHH 281600Z AUTO 05006KT 6SM M07/M11 A3003 RMK T10701110 IEM_DS3505
ZBHH,2010-11-28 17:00,ZBHH 281700Z AUTO 07004KT 6SM M06/M10 A3000 RMK T10601100 IEM_DS3505
ZBHH,2010-11-28 18:00,ZBHH 281800Z AUTO 02002KT 19SM M04/M11 A3000 RMK SLP217 T10411109 57012 IEM_DS3505
ZBHH,2010-11-28 19:00,ZBHH 281900Z AUTO 05004KT 6SM M09/M12 A3000 RMK T10901120 IEM_DS3505
ZBHH,2010-11-28 20:00,ZBHH 282000Z AUTO 04004KT 6SM M10/M12 A3000 RMK T11001120 IEM_DS3505
ZBHH,2010-11-28 21:00,ZBHH 282100Z AUTO 02002KT 19SM M06/M11 A2997 RMK SLP215 T10581108 57006 IEM_DS3505
ZBHH,2010-11-28 22:00,ZBHH 282200Z AUTO 02004KT 6SM M10/M13 A2997 RMK T11001130 IEM_DS3505
ZBHH,2010-11-28 23:00,ZBHH 282300Z AUTO 05004KT 6SM M11/M13 A3000 RMK T11101130 IEM_DS3505
ZBHH,2010-11-29 00:00,ZBHH 290000Z AUTO 36002KT 19SM M06/M11 A3000 RMK SLP232 T10591107 52006 IEM_DS3505
ZBHH,2010-11-29 01:00,ZBHH 290100Z AUTO 07002KT 4SM M06/M10 A3000 RMK T10601100 IEM_DS3505
ZBHH,2010-11-29 02:00,ZBHH 290200Z AUTO 12004KT 6SM M02/M09 A3003 RMK T10201090 IEM_DS3505
ZBHH,2010-11-29 03:00,ZBHH 290300Z AUTO 18002KT 19SM 01/M11 A3003 RMK SLP230 T00071110 52011 IEM_DS3505
ZBHH,2010-11-29 04:00,ZBHH 290400Z AUTO 19004KT 6SM 02/M11 A3003 RMK T00201110 IEM_DS3505
ZBHH,2010-11-29 05:00,ZBHH 290500Z AUTO 22006KT 4SM 03/M11 A3000 RMK T00301110 IEM_DS3505
ZBHH,2010-11-29 06:00,ZBHH 290600Z AUTO 20004KT 19SM 05/M11 A3000 RMK SLP208 T00501111 57012 IEM_DS3505
ZBHH,2010-11-29 07:00,ZBHH 290700Z AUTO 25008KT 5SM 05/M11 A3000 RMK T00501110 IEM_DS3505
ZBHH,2010-11-29 08:00,ZBHH 290800Z AUTO 25006KT 4SM 05/M10 A3000 RMK T00501100 IEM_DS3505
ZBHH,2010-11-29 09:00,ZBHH 290900Z AUTO 00000KT 12SM 04/M11 A3003 RMK SLP221 T00381110 52005 IEM_DS3505
ZBHH,2010-11-29 10:00,ZBHH 291000Z AUTO 07004KT 4SM 00/M09 A3003 RMK T00001090 IEM_DS3505
ZBHH,2010-11-29 11:00,ZBHH 291100Z AUTO 03006KT 4SM M02/M10 A3006 RMK T10201100 IEM_DS3505
ZBHH,2010-11-29 12:00,ZBHH 291200Z AUTO 22002KT 9SM M02/M10 A3006 RMK SLP253 T10151096 52016 IEM_DS3505
ZBHH,2010-11-29 13:00,ZBHH 291300Z AUTO 08004KT 4SM M06/M11 A3006 RMK T10601110 IEM_DS3505
ZBHH,2010-11-29 14:00,ZBHH 291400Z AUTO 09004KT 4SM M06/M11 A3006 RMK T10601110 IEM_DS3505
ZBHH,2010-11-29 15:00,ZBHH 291500Z AUTO 07002KT 9SM M02/M11 A3009 RMK SLP243 T10241107 52004 IEM_DS3505
ZBHH,2010-11-29 16:00,ZBHH 291600Z AUTO 08006KT 4SM M09/M12 A3009 RMK T10901120 IEM_DS3505
ZBHH,2010-11-29 17:00,ZBHH 291700Z AUTO 07006KT 4SM M10/M12 A3006 RMK T11001120 IEM_DS3505
ZBHH,2010-11-29 18:00,ZBHH 291800Z AUTO 04002KT 9SM M04/M11 A3006 RMK SLP227 T10441106 57009 IEM_DS3505
ZBHH,2010-11-29 19:00,ZBHH 291900Z AUTO 05006KT 6SM M07/M11 A3003 RMK T10701110 IEM_DS3505
ZBHH,2010-11-29 20:00,ZBHH 292000Z AUTO 07006KT 6SM M07/M10 A3003 RMK T10701100 IEM_DS3505
ZBHH,2010-11-29 21:00,ZBHH 292100Z AUTO 07002KT 9SM M05/M11 A3003 RMK SLP223 T10541111 57009 IEM_DS3505
ZBHH,2010-11-29 22:00,ZBHH 292200Z AUTO 08006KT 6SM M11/M13 A3003 RMK T11101130 IEM_DS3505
ZBHH,2010-11-29 23:00,ZBHH 292300Z AUTO 04004KT 6SM M11/M13 A3003 RMK T11101130 IEM_DS3505
ZBHH,2010-11-30 00:00,ZBHH 300000Z AUTO 00000KT 7SM M05/M11 A3003 RMK SLP238 T10541107 52002 IEM_DS3505
ZBHH,2010-11-30 01:00,ZBHH 300100Z AUTO 09004KT 4SM M06/M09 A3003 RMK T10601090 IEM_DS3505
ZBHH,2010-11-30 02:00,ZBHH 300200Z AUTO 10004KT 5SM M02/M09 A3003 RMK T10201090 IEM_DS3505
ZBHH,2010-11-30 03:00,ZBHH 300300Z AUTO 07002KT 9SM 00/M11 A3003 RMK SLP233 T00001111 52005 IEM_DS3505
ZBHH,2010-11-30 04:00,ZBHH 300400Z AUTO 25004KT 5SM 01/M10 A3003 RMK T00101100 IEM_DS3505
ZBHH,2010-11-30 05:00,ZBHH 300500Z AUTO 25004KT 4SM 02/M10 A3000 RMK T00201100 IEM_DS3505
ZBHH,2010-11-30 06:00,ZBHH 300600Z AUTO 27002KT 12SM 03/M11 A2997 RMK SLP204 T00341113 57022 IEM_DS3505
ZBHH,2010-11-30 07:00,ZBHH 300700Z AUTO 26004KT 4SM 04/M10 A2997 RMK T00401100 IEM_DS3505
ZBHH,2010-11-30 08:00,ZBHH 300800Z AUTO 28002KT 4SM 03/M11 A2997 RMK T00301110 IEM_DS3505
ZBHH,2010-11-30 09:00,ZBHH 300900Z AUTO 07004KT 9SM 02/M11 A2997 RMK SLP203 T00241111 57005 IEM_DS3505
ZBHH,2010-11-30 10:00,ZBHH 301000Z AUTO 05004KT 4SM M03/M10 A2997 RMK T10301100 IEM_DS3505
ZBHH,2010-11-30 11:00,ZBHH 301100Z AUTO 07006KT 4SM M03/M10 A2997 RMK T10301100 IEM_DS3505
ZBHH,2010-11-30 12:00,ZBHH 301200Z AUTO 04004KT 6SM M01/M10 A2997 RMK SLP217 T10071103 52005 IEM_DS3505
ZBHH,2010-11-30 13:00,ZBHH 301300Z AUTO 04004KT 4SM M05/M10 A2997 RMK T10501100 IEM_DS3505
ZBHH,2010-11-30 14:00,ZBHH 301400Z AUTO 07004KT 4SM M06/M11 A2994 RMK T10601110 IEM_DS3505
ZBHH,2010-11-30 15:00,ZBHH 301500Z AUTO 34002KT 7SM M04/M09 A2994 RMK SLP198 T10351093 57011 IEM_DS3505
ZBHH,2010-11-30 16:00,ZBHH 301600Z AUTO 05006KT 4SM M08/M11 A2991 RMK T10801110 IEM_DS3505
ZBHH,2010-11-30 17:00,ZBHH 301700Z AUTO 03006KT 5SM M06/M10 A2991 RMK T10601100 IEM_DS3505
ZBHH,2010-11-30 18:00,ZBHH 301800Z AUTO 00000KT 6SM M05/M10 A2988 RMK SLP178 T10471101 57012 IEM_DS3505
ZBHH,2010-11-30 19:00,ZBHH 301900Z AUTO 04006KT 4SM M09/M11 A2988 RMK T10901110 IEM_DS3505
ZBHH,2010-11-30 20:00,ZBHH 302000Z AUTO 07004KT 5SM M09/M12 A2988 RMK T10901120 IEM_DS3505
ZBHH,2010-11-30 21:00,ZBHH 302100Z AUTO 36002KT 9SM M06/M10 A2985 RMK SLP173 T10551097 57009 IEM_DS3505
ZBHH,2010-11-30 22:00,ZBHH 302200Z AUTO 06004KT 5SM M09/M12 A2985 RMK T10901120 IEM_DS3505
ZBHH,2010-11-30 23:00,ZBHH 302300Z AUTO 05004KT 5SM M10/M13 A2985 RMK T11001130 IEM_DS3505
ZBHH,2010-12-01 00:00,ZBHH 010000Z 04003MPS 7000 NSC M09/M12 Q1012 NOSIG
ZBHH,2010-12-01 01:00,ZBHH 010100Z 07003MPS 4500 BR NSC M05/M09 Q1012 NOSIG
ZBHH,2010-12-01 02:00,ZBHH 010200Z 11001MPS 6000 SKC M00/M09 Q1011 NOSIG
ZBHH,2010-12-01 03:00,ZBHH 010300Z 22002MPS CAVOK 02/M12 Q1011 NOSIG
ZBHH,2010-12-01 04:00,ZBHH 010400Z 24002MPS 210V290 CAVOK 03/M13 Q1010 NOSIG
ZBHH,2010-12-01 05:00,ZBHH 010500Z 23004MPS CAVOK 05/M12 Q1009 NOSIG
ZBHH,2010-12-01 06:00,ZBHH 010600Z 28002MPS 240V320 7000 NSC 05/M12 Q1009 NOSIG
ZBHH,2010-12-01 07:00,ZBHH 010700Z 36002MPS 6000 NSC 05/M12 Q1009 BECMG TL0730 28008MPS
ZBHH,2010-12-01 08:00,ZBHH 010800Z 02002MPS 5000 HZ NSC 05/M12 Q1009 NOSIG
ZBHH,2010-12-01 09:00,ZBHH 010900Z 02002MPS 4500 FU NSC 03/M12 Q1010 NOSIG
ZBHH,2010-12-01 10:00,ZBHH 011000Z 07002MPS 5000 FU SKC 00/M12 Q1011 NOSIG
ZBHH,2010-12-01 11:00,ZBHH 011100Z 05001MPS 5000 FU SKC M01/M10 Q1011 NOSIG
ZBHH,2010-12-01 12:00,ZBHH 011200Z 29009MPS 6000 SKC 04/M16 Q1012 NOSIG
ZBHH,2010-12-01 13:00,ZBHH 011300Z 28008G13MPS 6000 SKC 03/M19 Q1013 NOSIG
ZBHH,2010-12-01 14:00,ZBHH 011400Z 34006MPS 6000 SKC 01/M18 Q1013 NOSIG
ZBHH,2010-12-01 15:00,ZBHH 011500Z 31009G14MPS 6000 SKC 00/M17 Q1013 NOSIG
ZBHH,2010-12-01 16:00,ZBHH 011600Z 30009G14MPS 6000 SKC M00/M16 Q1014 NOSIG
ZBHH,2010-12-01 17:00,ZBHH 011700Z 30010MPS 6000 SKC M01/M16 Q1015 NOSIG
ZBHH,2010-12-01 18:00,ZBHH 011800Z 28005MPS 8000 SKC M02/M16 Q1015 NOSIG
ZBHH,2010-12-01 19:00,ZBHH 011900Z 29006MPS 8000 SKC M02/M17 Q1015 NOSIG
ZBHH,2010-12-01 20:00,ZBHH 012000Z 30009MPS 8000 SKC M03/M17 Q1016 NOSIG
ZBHH,2010-12-01 21:00,ZBHH 012100Z 34009G14MPS CAVOK M05/M14 Q1017 NOSIG
ZBHH,2010-12-01 22:00,ZBHH 012200Z 33009MPS CAVOK M07/M14 Q1018 NOSIG
ZBHH,2010-12-01 23:00,ZBHH 012300Z 33009MPS 9999 FEW040 M07/M15 Q1019 NOSIG
ZBHH,2010-12-02 00:00,ZBHH 020000Z 30003MPS 9999 SCT040 M07/M15 Q1021 NOSIG
ZBHH,2010-12-02 01:00,ZBHH 020100Z 03006MPS 9999 FEW040 M08/M16 Q1022 NOSIG
ZBHH,2010-12-02 02:00,ZBHH 020200Z 33003MPS 270V050 9999 FEW040 M07/M16 Q1022 NOSIG
ZBHH,2010-12-02 03:00,ZBHH 020300Z 22001MPS 9999 FEW040 M06/M16 Q1023 NOSIG
ZBHH,2010-12-02 04:00,ZBHH 020400Z 34004MPS 290V030 9999 FEW040 M06/M15 Q1023 NOSIG
ZBHH,2010-12-02 05:00,ZBHH 020500Z 27003MPS CAVOK M05/M15 Q1023 NOSIG
ZBHH,2010-12-02 06:00,ZBHH 020600Z 36003MPS 320V040 CAVOK M04/M14 Q1022 NOSIG
ZBHH,2010-12-02 07:00,ZBHH 020700Z 17002MPS CAVOK M03/M15 Q1022 NOSIG
ZBHH,2010-12-02 08:00,ZBHH 020800Z 22003MPS CAVOK M03/M15 Q1022 NOSIG
ZBHH,2010-12-02 09:00,ZBHH 020900Z 20001MPS CAVOK M04/M16 Q1022 NOSIG
ZBHH,2010-12-02 10:00,ZBHH 021000Z 18002MPS CAVOK M06/M16 Q1022 NOSIG
ZBHH,2010-12-02 11:00,ZBHH 021100Z 04003MPS CAVOK M07/M16 Q1021 NOSIG
ZBHH,2010-12-02 12:00,ZBHH 021200Z 05003MPS CAVOK M09/M16 Q1021 NOSIG
ZBHH,2010-12-02 13:00,ZBHH 021300Z 05003MPS CAVOK M11/M16 Q1022 NOSIG
ZBHH,2010-12-02 14:00,ZBHH 021400Z 09002MPS CAVOK M10/M16 Q1022 NOSIG
ZBHH,2010-12-02 15:00,ZBHH 021500Z 04002MPS CAVOK M10/M16 Q1022 NOSIG
ZBHH,2010-12-02 16:00,ZBHH 021600Z 03003MPS CAVOK M11/M15 Q1021 NOSIG
ZBHH,2010-12-02 17:00,ZBHH 021700Z 06002MPS CAVOK M12/M16 Q1021 NOSIG
ZBHH,2010-12-02 18:00,ZBHH 021800Z 06002MPS CAVOK M13/M17 Q1020 NOSIG
ZBHH,2010-12-02 19:00,ZBHH 021900Z 05003MPS CAVOK M13/M16 Q1020 NOSIG
ZBHH,2010-12-02 20:00,ZBHH 022000Z 05002MPS CAVOK M13/M17 Q1020 NOSIG
ZBHH,2010-12-02 21:00,ZBHH 022100Z 04003MPS CAVOK M13/M16 Q1019 NOSIG
ZBHH,2010-12-02 22:00,ZBHH 022200Z 06002MPS CAVOK M13/M16 Q1019 NOSIG
ZBHH,2010-12-02 23:00,ZBHH 022300Z 05002MPS CAVOK M13/M17 Q1019 NOSIG
ZBHH,2010-12-03 00:00,ZBHH 030000Z 05002MPS CAVOK M13/M16 Q1019 NOSIG
ZBHH,2010-12-03 01:00,ZBHH 030100Z 07001MPS 6000 SKC M09/M13 Q1019 NOSIG
ZBHH,2010-12-03 02:00,ZBHH 030200Z 09002MPS 9000 SKC M04/M15 Q1019 NOSIG
ZBHH,2010-12-03 03:00,ZBHH 030300Z 15001MPS CAVOK M02/M17 Q1019 NOSIG
ZBHH,2010-12-03 04:00,ZBHH 030400Z 16001MPS CAVOK M00/M17 Q1017 NOSIG
ZBHH,2010-12-03 05:00,ZBHH 030500Z 25002MPS CAVOK 01/M18 Q1016 NOSIG
ZBHH,2010-12-03 06:00,ZBHH 030600Z 27003MPS 240V310 CAVOK 01/M18 Q1014 NOSIG
ZBHH,2010-12-03 07:00,ZBHH 030700Z 25002MPS 220V280 CAVOK 02/M18 Q1014 NOSIG
ZBHH,2010-12-03 08:00,ZBHH 030800Z 12001MPS CAVOK 02/M18 Q1013 NOSIG
ZBHH,2010-12-03 09:00,ZBHH 030900Z 12001MPS 9000 NSC M00/M16 Q1013 NOSIG
ZBHH,2010-12-03 10:00,ZBHH 031000Z 03002MPS 350V050 7000 NSC M03/M16 Q1013 NOSIG
ZBHH,2010-12-03 11:00,ZBHH 031100Z 05002MPS 7000 NSC M04/M16 Q1013 NOSIG
ZBHH,2010-12-03 12:00,ZBHH 031200Z 07003MPS 6000 NSC M07/M15 Q1013 NOSIG
ZBHH,2010-12-03 13:00,ZBHH 031300Z 09003MPS 8000 NSC M08/M16 Q1012 NOSIG
ZBHH,2010-12-03 14:00,ZBHH 031400Z 06002MPS 8000 NSC M08/M15 Q1012 NOSIG
ZBHH,2010-12-03 15:00,ZBHH 031500Z 05003MPS 9000 NSC M07/M14 Q1012 NOSIG
ZBHH,2010-12-03 16:00,ZBHH 031600Z AUTO 07006KT 6SM M09/M14 A2988 RMK T10901140 IEM_DS3505
ZBHH,2010-12-03 17:00,ZBHH 031700Z 06003MPS CAVOK M08/M14 Q1011 NOSIG
ZBHH,2010-12-03 18:00,ZBHH 031800Z 04004MPS CAVOK M07/M14 Q1011 NOSIG
ZBHH,2010-12-03 19:00,ZBHH 031900Z 05003MPS CAVOK M08/M14 Q1011 NOSIG
ZBHH,2010-12-03 20:00,ZBHH 032000Z 05003MPS CAVOK M08/M14 Q1010 NOSIG
ZBHH,2010-12-03 21:00,ZBHH 032100Z 06003MPS CAVOK M09/M14 Q1011 NOSIG
ZBHH,2010-12-03 22:00,ZBHH 032200Z 04003MPS CAVOK M09/M13 Q1010 NOSIG
ZBHH,2010-12-03 23:00,ZBHH 032300Z 08002MPS CAVOK M09/M14 Q1011 NOSIG
ZBHH,2010-12-04 00:00,ZBHH 040000Z 07003MPS 8000 NSC M10/M13 Q1011 NOSIG
ZBHH,2010-12-04 01:00,ZBHH 040100Z 06001MPS 5000 HZ NSC M04/M10 Q1011 NOSIG
ZBHH,2010-12-04 02:00,ZBHH 040200Z 07002MPS 6000 NSC 01/M11 Q1011 NOSIG
ZBHH,2010-12-04 03:00,ZBHH 040300Z 12001MPS CAVOK 04/M12 Q1011 NOSIG
ZBHH,2010-12-04 04:00,ZBHH 040400Z 24002MPS 210V280 CAVOK 04/M12 Q1011 NOSIG
ZBHH,2010-12-04 05:00,ZBHH 040500Z 28002MPS CAVOK 05/M11 Q1010 NOSIG
ZBHH,2010-12-04 06:00,ZBHH 040600Z 01002MPS 330V040 8000 NSC 05/M12 Q1009 NOSIG
ZBHH,2010-12-04 07:00,ZBHH 040700Z 14001MPS 9000 NSC 06/M12 Q1009 NOSIG
ZBHH,2010-12-04 08:00,ZBHH 040800Z 06001MPS 9000 NSC 06/M13 Q1009 NOSIG
ZBHH,2010-12-04 09:00,ZBHH 040900Z 08001MPS CAVOK 04/M13 Q1010 NOSIG
ZBHH,2010-12-04 10:00,ZBHH 041000Z 05002MPS 8000 NSC 02/M13 Q1010 NOSIG
ZBHH,2010-12-04 11:00,ZBHH 041100Z 04003MPS 8000 NSC M03/M12 Q1011 NOSIG
ZBHH,2010-12-04 12:00,ZBHH 041200Z 06003MPS 8000 NSC M03/M12 Q1011 NOSIG
ZBHH,2010-12-04 13:00,ZBHH 041300Z 04003MPS 350V070 CAVOK M03/M12 Q1012 NOSIG
ZBHH,2010-12-04 14:00,ZBHH 041400Z 05004MPS CAVOK M04/M14 Q1013 NOSIG
ZBHH,2010-12-04 15:00,ZBHH 041500Z 35004MPS CAVOK 03/M13 Q1014 NOSIG
ZBHH,2010-12-04 16:00,ZBHH 041600Z 11001MPS CAVOK 02/M13 Q1014 NOSIG
ZBHH,2010-12-04 17:00,ZBHH 041700Z 34004MPS 310V010 CAVOK 03/M12 Q1015 NOSIG
ZBHH,2010-12-04 18:00,ZBHH 041800Z 34003MPS 310V030 CAVOK 02/M13 Q1016 NOSIG
ZBHH,2010-12-04 19:00,ZBHH 041900Z 36004MPS CAVOK 01/M13 Q1018 NOSIG
ZBHH,2010-12-04 20:00,ZBHH 042000Z 34005MPS CAVOK 01/M13 Q1018 NOSIG
ZBHH,2010-12-04 21:00,ZBHH 042100Z 33005MPS CAVOK 00/M13 Q1019 NOSIG
ZBHH,2010-12-04 22:00,ZBHH 042200Z 33007MPS CAVOK M01/M11 Q1019 NOSIG
ZBHH,2010-12-04 23:00,ZBHH 042300Z 34007MPS 9999 FEW040 M02/M11 Q1021 NOSIG
ZBHH,2010-12-05 00:00,ZBHH 050000Z 34007MPS 9999 FEW040 M03/M11 Q1022 NOSIG
ZBHH,2010-12-05 01:00,ZBHH 050100Z 35007MPS 9999 FEW040 M03/M11 Q1023 NOSIG
ZBHH,2010-12-05 02:00,ZBHH 050200Z 34007MPS 9999 FEW040 M03/M11 Q1025 NOSIG
ZBHH,2010-12-05 03:00,ZBHH 050300Z 34007MPS 9999 FEW040 M02/M10 Q1025 NOSIG
ZBHH,2010-12-05 04:00,ZBHH 050400Z 34008MPS 9999 FEW040 M01/M11 Q1026 NOSIG
ZBHH,2010-12-05 05:00,ZBHH 050500Z 34008MPS CAVOK M01/M13 Q1026 NOSIG
ZBHH,2010-12-05 06:00,ZBHH 050600Z 34007MPS CAVOK M01/M14 Q1026 NOSIG
ZBHH,2010-12-05 07:00,ZBHH 050700Z 34006MPS 9999 FEW040 M03/M13 Q1027 NOSIG
ZBHH,2010-12-05 08:00,ZBHH 050800Z 35005G10MPS 9999 SCT040 M03/M13 Q1028 NOSIG
ZBHH,2010-12-05 09:00,ZBHH 050900Z 32007MPS 290V010 9999 SCT040 M04/M15 Q1028 NOSIG
ZBHH,2010-12-05 10:00,ZBHH 051000Z 34005MPS 310V030 CAVOK M05/M16 Q1029 NOSIG
ZBHH,2010-12-05 11:00,ZBHH 051100Z 36007G13MPS CAVOK M06/M21 Q1030 NOSIG
ZBHH,2010-12-05 12:00,ZBHH 051200Z 35004MPS 310V010 CAVOK M08/M22 Q1032 NOSIG
ZBHH,2010-12-05 13:00,ZBHH 051300Z 32006G11MPS 290V020 CAVOK M08/M22 Q1032 NOSIG
ZBHH,2010-12-05 14:00,ZBHH 051400Z 33006MPS CAVOK M08/M21 Q1033 NOSIG
ZBHH,2010-12-05 15:00,ZBHH 051500Z 35003MPS 320V030 CAVOK M09/M20 Q1034 NOSIG
ZBHH,2010-12-05 16:00,ZBHH 051600Z 31002MPS CAVOK M10/M20 Q1034 NOSIG
ZBHH,2010-12-05 17:00,ZBHH 051700Z AUTO 36010KT 6SM M10/M21 A3053 RMK T11001210 IEM_DS3505
ZBHH,2010-12-05 18:00,ZBHH 051800Z AUTO 29004KT 19SM M09/M25 A3053 RMK SLP420 T10901250 52002 IEM_DS3505
ZBHH,2010-12-05 19:00,ZBHH 051900Z AUTO 36006KT 6SM M10/M23 A3053 RMK T11001230 IEM_DS3505
ZBHH,2010-12-05 20:00,ZBHH 052000Z AUTO 11002KT 6SM M11/M23 A3050 RMK T11101230 IEM_DS3505
ZBHH,2010-12-05 21:00,ZBHH 052100Z AUTO 29006KT 19SM M09/M26 A3050 RMK SLP416 T10901255 57009 IEM_DS3505
ZBHH,2010-12-05 22:00,ZBHH 052200Z AUTO 14004KT 6SM M12/M23 A3047 RMK T11201230 IEM_DS3505
ZBHH,2010-12-05 23:00,ZBHH 052300Z 14002MPS CAVOK M13/M23 Q1033 NOSIG
ZBHH,2010-12-06 00:00,ZBHH 060000Z 13002MPS 100V180 CAVOK M14/M22 Q1033 NOSIG
ZBHH,2010-12-06 01:00,ZBHH 060100Z 14003MPS CAVOK M12/M20 Q1034 NOSIG
ZBHH,2010-12-06 02:00,ZBHH 060200Z 16003MPS CAVOK M10/M20 Q1033 NOSIG
ZBHH,2010-12-06 03:00,ZBHH 060300Z 20003MPS 160V230 CAVOK M08/M19 Q1033 NOSIG
ZBHH,2010-12-06 04:00,ZBHH 060400Z 22005MPS 170V250 CAVOK M06/M19 Q1032 NOSIG
ZBHH,2010-12-06 05:00,ZBHH 060500Z 22004MPS CAVOK M04/M19 Q1030 NOSIG
ZBHH,2010-12-06 06:00,ZBHH 060600Z 24004MPS CAVOK M03/M20 Q1029 NOSIG
ZBHH,2010-12-06 07:00,ZBHH 060700Z 23006MPS CAVOK M03/M20 Q1028 NOSIG
ZBHH,2010-12-06 08:00,ZBHH 060800Z 24007MPS CAVOK M04/M20 Q1027 NOSIG
ZBHH,2010-12-06 09:00,ZBHH 060900Z 22004MPS CAVOK M05/M19 Q1027 NOSIG
ZBHH,2010-12-06 10:00,ZBHH 061000Z 21003MPS CAVOK M08/M19 Q1027 NOSIG
ZBHH,2010-12-06 11:00,ZBHH 061100Z 23004MPS CAVOK M07/M17 Q1026 NOSIG
ZBHH,2010-12-06 12:00,ZBHH 061200Z 08002MPS 050V110 CAVOK M12/M20 Q1026 NOSIG
ZBHH,2010-12-06 13:00,ZBHH 061300Z 08002MPS CAVOK M13/M20 Q1026 NOSIG
ZBHH,2010-12-06 14:00,ZBHH 061400Z 08003MPS 030V110 CAVOK M13/M19 Q1026 NOSIG
ZBHH,2010-12-06 15:00,ZBHH 061500Z 07003MPS CAVOK M14/M19 Q1025 NOSIG
ZBHH,2010-12-06 16:00,ZBHH 061600Z 05003MPS CAVOK M15/M20 Q1024 NOSIG
ZBHH,2010-12-06 17:00,ZBHH 061700Z 07002MPS CAVOK M16/M20 Q1024 NOSIG
ZBHH,2010-12-06 18:00,ZBHH 061800Z 05002MPS CAVOK M16/M20 Q1023 NOSIG
ZBHH,2010-12-06 19:00,ZBHH 061900Z 07003MPS CAVOK M17/M20 Q1022 NOSIG
ZBHH,2010-12-06 20:00,ZBHH 062000Z 07003MPS CAVOK M17/M20 Q1021 NOSIG
ZBHH,2010-12-06 21:00,ZBHH 062100Z 06003MPS CAVOK M16/M20 Q1020 NOSIG
ZBHH,2010-12-06 22:00,ZBHH 062200Z 07003MPS CAVOK M17/M20 Q1019 NOSIG
ZBHH,2010-12-06 23:00,ZBHH 062300Z 07003MPS CAVOK M17/M21 Q1019 NOSIG
ZBHH,2010-12-07 00:00,ZBHH 070000Z 06002MPS CAVOK M16/M20 Q1018 NOSIG
ZBHH,2010-12-07 01:00,ZBHH 070100Z 08002MPS CAVOK M12/M17 Q1018 NOSIG
ZBHH,2010-12-07 02:00,ZBHH 070200Z 08001MPS CAVOK M10/M17 Q1017 NOSIG
ZBHH,2010-12-07 03:00,ZBHH 070300Z 33001MPS 9999 FEW050 M08/M17 Q1017 NOSIG
ZBHH,2010-12-07 04:00,ZBHH 070400Z 28002MPS 230V340 7000 FEW050 M07/M16 Q1016 NOSIG
ZBHH,2010-12-07 05:00,ZBHH 070500Z 27003MPS 230V020 6000 FEW050 M03/M16 Q1014 NOSIG
ZBHH,2010-12-07 06:00,ZBHH 070600Z 25008MPS 7000 FEW050 M01/M16 Q1013 NOSIG
ZBHH,2010-12-07 07:00,ZBHH 070700Z 25007MPS 7000 NSC M01/M16 Q1012 NOSIG
ZBHH,2010-12-07 08:00,ZBHH 070800Z 25008MPS 5000 SA NSC M01/M16 Q1012 NOSIG
ZBHH,2010-12-07 09:00,ZBHH 070900Z 26007MPS 4500 SA NSC M02/M16 Q1012 NOSIG
ZBHH,2010-12-07 10:00,ZBHH 071000Z 26006MPS 5000 SA NSC M02/M15 Q1012 NOSIG
ZBHH,2010-12-07 11:00,ZBHH 071100Z 25006MPS 6000 NSC M02/M15 Q1012 NOSIG
ZBHH,2010-12-07 12:00,ZBHH 071200Z 25004MPS 6000 NSC M02/M15 Q1012 NOSIG
ZBHH,2010-12-07 13:00,ZBHH 071300Z 25003MPS 210V310 6000 NSC M03/M15 Q1012 NOSIG
ZBHH,2010-12-07 14:00,ZBHH 071400Z 31007MPS 8000 NSC M02/M11 Q1012 NOSIG
ZBHH,2010-12-07 15:00,ZBHH 071500Z 20003MPS 180V280 6000 NSC M04/M14 Q1012 NOSIG
ZBHH,2010-12-07 16:00,ZBHH 071600Z 08001MPS 6000 NSC M05/M14 Q1012 NOSIG
ZBHH,2010-12-07 17:00,ZBHH 071700Z 12002MPS 100V160 6000 NSC M06/M14 Q1012 NOSIG
ZBHH,2010-12-07 18:00,ZBHH 071800Z 17002MPS 150V210 6000 NSC M06/M14 Q1012 NOSIG
ZBHH,2010-12-07 19:00,ZBHH 071900Z 36001MPS 7000 NSC M05/M11 Q1013 NOSIG
ZBHH,2010-12-07 20:00,ZBHH 072000Z 25003MPS 210V270 7000 NSC M04/M11 Q1013 NOSIG
ZBHH,2010-12-07 21:00,ZBHH 072100Z 15003MPS 8000 FEW040 M04/M10 Q1013 NOSIG
ZBHH,2010-12-07 22:00,ZBHH 072200Z 31005MPS 8000 FEW040 M03/M09 Q1013 NOSIG
ZBHH,2010-12-07 23:00,ZBHH 072300Z 31006MPS 270V350 8000 FEW040 M03/M10 Q1014 NOSIG
ZBHH,2010-12-08 00:00,ZBHH 080000Z 33006MPS 8000 FEW040 FEW040TCU M04/M10 Q1015 NOSIG
ZBHH,2010-12-08 01:00,ZBHH 080100Z 33006MPS 9000 FEW040 FEW040TCU M04/M11 Q1016 NOSIG
ZBHH,2010-12-08 02:00,ZBHH 080200Z 34004MPS 310V020 8000 FEW040 M03/M11 Q1016 NOSIG
ZBHH,2010-12-08 03:00,ZBHH 080300Z 35001MPS 6000 NSC M02/M11 Q1016 NOSIG
ZBHH,2010-12-08 04:00,ZBHH 080400Z 28002MPS 6000 NSC M01/M12 Q1016 NOSIG
ZBHH,2010-12-08 05:00,ZBHH 080500Z 20003MPS 170V240 6000 NSC M00/M11 Q1014 NOSIG
ZBHH,2010-12-08 06:00,ZBHH 080600Z 25003MPS 220V290 CAVOK 00/M13 Q1014 NOSIG
ZBHH,2010-12-08 07:00,ZBHH 080700Z 25003MPS 200V010 9999 FEW040 01/M14 Q1013 NOSIG
ZBHH,2010-12-08 08:00,ZBHH 080800Z 23004MPS 9999 SCT040 00/M14 Q1013 NOSIG
ZBHH,2010-12-08 09:00,ZBHH 080900Z 23004MPS 9999 SCT040 M00/M12 Q1013 NOSIG
ZBHH,2010-12-08 10:00,ZBHH 081000Z 22002MPS 9999 SCT040 M03/M13 Q1012 NOSIG
ZBHH,2010-12-08 11:00,ZBHH 081100Z 24002MPS 6000 SCT040 M03/M11 Q1012 NOSIG
ZBHH,2010-12-08 12:00,ZBHH 081200Z 17002MPS 6000 SCT040 M05/M12 Q1012 NOSIG
ZBHH,2010-12-08 13:00,ZBHH 081300Z 08002MPS 6000 SCT040 M08/M14 Q1012 NOSIG
ZBHH,2010-12-08 14:00,ZBHH 081400Z 14001MPS 6000 SCT040 M07/M13 Q1011 NOSIG
ZBHH,2010-12-08 15:00,ZBHH 081500Z 03002MPS 7000 SCT040 M09/M13 Q1011 NOSIG
ZBHH,2010-12-08 16:00,ZBHH 081600Z 05002MPS 7000 SCT040 M09/M13 Q1011 NOSIG
ZBHH,2010-12-08 17:00,ZBHH 081700Z 05002MPS 6000 SCT040 M10/M14 Q1010 NOSIG
ZBHH,2010-12-08 18:00,ZBHH 081800Z 04003MPS 7000 SCT040 M10/M14 Q1009 NOSIG
ZBHH,2010-12-08 19:00,ZBHH 081900Z 04002MPS 7000 SCT040 M11/M14 Q1009 NOSIG
ZBHH,2010-12-08 20:00,ZBHH 082000Z 06003MPS 7000 SCT040 M12/M15 Q1009 NOSIG
ZBHH,2010-12-08 21:00,ZBHH 082100Z 07003MPS 7000 SCT040 M12/M15 Q1008 NOSIG
ZBHH,2010-12-08 22:00,ZBHH 082200Z 07003MPS 7000 SCT040 M12/M15 Q1007 NOSIG
ZBHH,2010-12-08 23:00,ZBHH 082300Z 09002MPS 7000 SCT040 M10/M14 Q1007 NOSIG
ZBHH,2010-12-09 00:00,ZBHH 090000Z 07002MPS 6000 FEW040 M11/M14 Q1007 NOSIG
ZBHH,2010-12-09 01:00,ZBHH 090100Z 06002MPS 3500 BR SKC M08/M12 Q1007 NOSIG
ZBHH,2010-12-09 02:00,ZBHH 090200Z 12001MPS 4800 HZ SKC M04/M12 Q1007 NOSIG
ZBHH,2010-12-09 03:00,ZBHH 090300Z 18002MPS 4800 HZ SKC M03/M13 Q1006 NOSIG
ZBHH,2010-12-09 04:00,ZBHH 090400Z 23004MPS 190V260 5000 HZ NSC M01/M14 Q1005 NOSIG
ZBHH,2010-12-09 05:00,ZBHH 090500Z 25007MPS 6000 NSC 00/M17 Q1004 NOSIG
ZBHH,2010-12-09 06:00,ZBHH 090600Z 24007MPS 5000 SA NSC 00/M15 Q1003 NOSIG
ZBHH,2010-12-09 07:00,ZBHH 090700Z 24004MPS 4100 DU NSC 00/M15 Q1003 NOSIG
ZBHH,2010-12-09 08:00,ZBHH 090800Z 25005MPS 3500 DU NSC 00/M15 Q1003 NOSIG
ZBHH,2010-12-09 09:00,ZBHH 090900Z 25007MPS 2600 SA NSC M00/M15 Q1003 NOSIG
ZBHH,2010-12-09 10:00,ZBHH 091000Z 24005MPS 4700 SA NSC M01/M13 Q1003 NOSIG
ZBHH,2010-12-09 11:00,ZBHH 091100Z 24002MPS 4700 DU NSC M02/M13 Q1003 NOSIG
ZBHH,2010-12-09 12:00,ZBHH 091200Z 23002MPS 4500 DU NSC M03/M12 Q1003 NOSIG
ZBHH,2010-12-09 13:00,ZBHH 091300Z 04002MPS 4500 DU NSC M05/M13 Q1003 NOSIG
ZBHH,2010-12-09 14:00,ZBHH 091400Z 05002MPS 4800 DU NSC M06/M13 Q1004 NOSIG
ZBHH,2010-12-09 15:00,ZBHH 091500Z 35002MPS 4500 DU NSC M05/M12 Q1004 NOSIG
ZBHH,2010-12-09 16:00,ZBHH 091600Z 24002MPS 4200 DU NSC M06/M13 Q1004 NOSIG
ZBHH,2010-12-09 17:00,ZBHH 091700Z 17003MPS 4200 DU NSC M06/M12 Q1003 NOSIG
ZBHH,2010-12-09 18:00,ZBHH 091800Z 21002MPS 4200 DU NSC M05/M12 Q1003 NOSIG
ZBHH,2010-12-09 19:00,ZBHH 091900Z 30004MPS 270V030 4200 DU NSC M02/M12 Q1005 NOSIG
ZBHH,2010-12-09 20:00,ZBHH 092000Z 28011G16MPS 4500 SA NSC M02/M10 Q1006 NOSIG
ZBHH,2010-12-09 21:00,ZBHH 092100Z 27008MPS 4700 SA NSC M03/M09 Q1006 NOSIG
ZBHH,2010-12-09 22:00,ZBHH 092200Z 32005G11MPS 260V030 CAVOK M04/M09 Q1007 NOSIG
ZBHH,2010-12-09 23:00,ZBHH 092300Z 31006MPS 280V350 9999 SCT040 M05/M11 Q1009 NOSIG
ZBHH,2010-12-10 00:00,ZBHH 100000Z 32010MPS 9999 SCT040 M07/M12 Q1011 NOSIG
ZBHH,2010-12-10 01:00,ZBHH 100100Z 33008MPS 9999 FEW040 M07/M14 Q1013 NOSIG
ZBHH,2010-12-10 02:00,ZBHH 100200Z 31008MPS 9999 FEW040 M06/M14 Q1014 NOSIG
ZBHH,2010-12-10 03:00,ZBHH 100300Z 33008MPS 9999 FEW040 M07/M16 Q1015 NOSIG
ZBHH,2010-12-10 04:00,ZBHH 100400Z 33007MPS 9999 FEW040 M07/M16 Q1015 NOSIG
ZBHH,2010-12-10 05:00,ZBHH 100500Z 33008MPS 9999 FEW040 M07/M17 Q1016 NOSIG
ZBHH,2010-12-10 06:00,ZBHH 100600Z 34006MPS 9999 SCT040 M07/M17 Q1016 NOSIG
ZBHH,2010-12-10 07:00,ZBHH 100700Z 35006MPS 9999 SCT040 M08/M17 Q1016 NOSIG
ZBHH,2010-12-10 08:00,ZBHH 100800Z 35005MPS 9999 SCT040 M08/M17 Q1017 NOSIG
ZBHH,2010-12-10 09:00,ZBHH 100900Z 34004MPS 9999 FEW040 M09/M17 Q1018 NOSIG
ZBHH,2010-12-10 10:00,ZBHH 101000Z 34006MPS CAVOK M10/M17 Q1018 NOSIG
ZBHH,2010-12-10 11:00,ZBHH 101100Z 34004MPS 310V010 CAVOK M11/M17 Q1018 NOSIG
ZBHH,2010-12-10 12:00,ZBHH 101200Z 02004MPS 350V050 CAVOK M12/M17 Q1019 NOSIG
ZBHH,2010-12-10 13:00,ZBHH 101300Z 35003MPS 320V020 CAVOK M12/M18 Q1019 NOSIG
ZBHH,2010-12-10 14:00,ZBHH 101400Z 33003MPS CAVOK M12/M18 Q1019 NOSIG
ZBHH,2010-12-10 15:00,ZBHH 101500Z 33006MPS CAVOK M12/M18 Q1019 NOSIG
ZBHH,2010-12-10 16:00,ZBHH 101600Z 30004MPS 250V330 CAVOK M12/M20 Q1019 NOSIG
ZBHH,2010-12-10 17:00,ZBHH 101700Z 21001MPS CAVOK M15/M19 Q1018 NOSIG
ZBHH,2010-12-10 18:00,ZBHH 101800Z 21002MPS CAVOK M16/M20 Q1018 NOSIG
ZBHH,2010-12-10 19:00,ZBHH 101900Z 18001MPS CAVOK M17/M20 Q1018 NOSIG
ZBHH,2010-12-10 20:00,ZBHH 102000Z 09003MPS CAVOK M19/M22 Q1017 NOSIG
ZBHH,2010-12-10 21:00,ZBHH 102100Z 10002MPS CAVOK M19/M22 Q1017 NOSIG
ZBHH,2010-12-10 22:00,ZBHH 102200Z 08002MPS CAVOK M19/M22 Q1016 NOSIG
ZBHH,2010-12-10 23:00,ZBHH 102300Z 11001MPS CAVOK M19/M22 Q1017 NOSIG
ZBHH,2010-12-11 00:00,ZBHH 110000Z 07003MPS 010V090 CAVOK M19/M22 Q1016 NOSIG
ZBHH,2010-12-11 01:00,ZBHH 110100Z 10002MPS CAVOK M15/M19 Q1016 NOSIG
ZBHH,2010-12-11 02:00,ZBHH 110200Z 12001MPS CAVOK M12/M18 Q1016 NOSIG
ZBHH,2010-12-11 03:00,ZBHH 110300Z 07002MPS CAVOK M11/M18 Q1015 NOSIG
ZBHH,2010-12-11 04:00,ZBHH 110400Z 20003MPS 170V230 9999 FEW040 M09/M20 Q1013 NOSIG
ZBHH,2010-12-11 05:00,ZBHH 110500Z 00000MPS 7000 FEW040 M09/M18 Q1012 NOSIG
ZBHH,2010-12-11 06:00,ZBHH 110600Z 33001MPS 9999 FEW040 M08/M18 Q1010 NOSIG
ZBHH,2010-12-11 07:00,ZBHH 110700Z 04002MPS 350V090 CAVOK M07/M18 Q1009 NOSIG
ZBHH,2010-12-11 08:00,ZBHH 110800Z 08002MPS CAVOK M07/M18 Q1008 NOSIG
ZBHH,2010-12-11 09:00,ZBHH 110900Z 08002MPS CAVOK M07/M18 Q1008 NOSIG
ZBHH,2010-12-11 10:00,ZBHH 111000Z 17001MPS 7000 NSC M09/M19 Q1007 NOSIG
ZBHH,2010-12-11 11:00,ZBHH 111100Z 01001MPS 7000 FEW050 M09/M18 Q1007 NOSIG
ZBHH,2010-12-11 12:00,ZBHH 111200Z 31001MPS 8000 FEW050 M11/M18 Q1007 NOSIG
ZBHH,2010-12-11 13:00,ZBHH 111300Z 08003MPS 9000 NSC M11/M18 Q1007 NOSIG
ZBHH,2010-12-11 14:00,ZBHH 111400Z 07003MPS 9000 NSC M11/M17 Q1007 NOSIG
ZBHH,2010-12-11 15:00,ZBHH 111500Z 08002MPS CAVOK M12/M18 Q1007 NOSIG
ZBHH,2010-12-11 16:00,ZBHH 111600Z 03002MPS CAVOK M11/M17 Q1007 NOSIG
ZBHH,2010-12-11 17:00,ZBHH 111700Z 03003MPS CAVOK M13/M17 Q1007 NOSIG
ZBHH,2010-12-11 18:00,ZBHH 111800Z 04004MPS CAVOK M10/M16 Q1006 NOSIG
ZBHH,2010-12-11 19:00,ZBHH 111900Z 03002MPS CAVOK M12/M17 Q1007 NOSIG
ZBHH,2010-12-11 20:00,ZBHH 112000Z 05003MPS CAVOK M12/M17 Q1007 NOSIG
ZBHH,2010-12-11 21:00,ZBHH 112100Z 06003MPS CAVOK M12/M16 Q1007 NOSIG
ZBHH,2010-12-11 22:00,ZBHH 112200Z 07003MPS CAVOK M10/M15 Q1007 NOSIG
ZBHH,2010-12-11 23:00,ZBHH 112300Z 35004MPS 9999 FEW040 M09/M15 Q1008 NOSIG
ZBHH,2010-12-12 00:00,ZBHH 120000Z 02002MPS 9999 FEW040 M07/M16 Q1009 NOSIG
ZBHH,2010-12-12 01:00,ZBHH 120100Z 03002MPS CAVOK M07/M15 Q1010 NOSIG
ZBHH,2010-12-12 02:00,ZBHH 120200Z 35006MPS CAVOK M05/M16 Q1011 NOSIG
ZBHH,2010-12-12 03:00,ZBHH 120300Z 35010MPS CAVOK M06/M16 Q1011 NOSIG
ZBHH,2010-12-12 04:00,ZBHH 120400Z 35010MPS CAVOK M06/M15 Q1012 NOSIG
ZBHH,2010-12-12 05:00,ZBHH 120500Z 34011MPS CAVOK M07/M16 Q1012 NOSIG
ZBHH,2010-12-12 06:00,ZBHH 120600Z 34009G14MPS CAVOK M07/M17 Q1013 NOSIG
ZBHH,2010-12-12 07:00,ZBHH 120700Z 33008G13MPS CAVOK M09/M18 Q1014 NOSIG
ZBHH,2010-12-12 08:00,ZBHH 120800Z 34010MPS CAVOK M10/M18 Q1015 NOSIG
ZBHH,2010-12-12 09:00,ZBHH 120900Z 35007MPS 9999 FEW050 M10/M18 Q1016 NOSIG
ZBHH,2010-12-12 10:00,ZBHH 121000Z 35008MPS 9999 FEW050 M11/M18 Q1017 NOSIG
ZBHH,2010-12-12 11:00,ZBHH 121100Z 35007MPS CAVOK M13/M19 Q1018 NOSIG
ZBHH,2010-12-12 12:00,ZBHH 121200Z 35007MPS CAVOK M12/M19 Q1018 NOSIG
ZBHH,2010-12-12 13:00,ZBHH 121300Z 36008MPS CAVOK M13/M20 Q1019 NOSIG
ZBHH,2010-12-12 14:00,ZBHH 121400Z 36006MPS CAVOK M14/M20 Q1020 NOSIG
ZBHH,2010-12-12 15:00,ZBHH 121500Z 36007MPS CAVOK M15/M21 Q1021 NOSIG
ZBHH,2010-12-12 16:00,ZBHH 121600Z 36007MPS CAVOK M15/M21 Q1021 NOSIG
ZBHH,2010-12-12 17:00,ZBHH 121700Z 36005MPS CAVOK M15/M22 Q1022 NOSIG
ZBHH,2010-12-12 18:00,ZBHH 121800Z 36005MPS CAVOK M16/M22 Q1021 NOSIG
ZBHH,2010-12-12 19:00,ZBHH 121900Z 36004MPS CAVOK M16/M23 Q1022 NOSIG
ZBHH,2010-12-12 20:00,ZBHH 122000Z 36004MPS CAVOK M16/M23 Q1022 NOSIG
ZBHH,2010-12-12 21:00,ZBHH 122100Z 36004MPS CAVOK M16/M24 Q1022 NOSIG
ZBHH,2010-12-12 22:00,ZBHH 122200Z 36003MPS CAVOK M16/M24 Q1023 NOSIG
ZBHH,2010-12-12 23:00,ZBHH 122300Z 36003MPS CAVOK M17/M24 Q1023 NOSIG
ZBHH,2010-12-13 00:00,ZBHH 130000Z 01003MPS CAVOK M17/M24 Q1023 NOSIG
ZBHH,2010-12-13 01:00,ZBHH 130100Z 01003MPS 320V020 CAVOK M16/M24 Q1023 NOSIG
ZBHH,2010-12-13 02:00,ZBHH 130200Z 03002MPS CAVOK M14/M24 Q1024 NOSIG
ZBHH,2010-12-13 03:00,ZBHH 130300Z 04001MPS CAVOK M13/M25 Q1023 NOSIG
ZBHH,2010-12-13 04:00,ZBHH 130400Z 01001MPS CAVOK M11/M25 Q1022 NOSIG
ZBHH,2010-12-13 05:00,ZBHH 130500Z 29001MPS 9999 SCT040 M11/M25 Q1022 NOSIG
ZBHH,2010-12-13 06:00,ZBHH 130600Z 33003MPS 290V360 9999 FEW040 M11/M24 Q1021 NOSIG
ZBHH,2010-12-13 07:00,ZBHH 130700Z 33005MPS CAVOK M11/M24 Q1021 NOSIG
ZBHH,2010-12-13 08:00,ZBHH 130800Z 34005MPS 9999 FEW040 M11/M24 Q1022 NOSIG
ZBHH,2010-12-13 09:00,ZBHH 130900Z 31005MPS 9999 FEW040 M13/M24 Q1023 NOSIG
ZBHH,2010-12-13 10:00,ZBHH 131000Z 32005MPS 9999 FEW040 M14/M25 Q1023 NOSIG
ZBHH,2010-12-13 11:00,ZBHH 131100Z 33004MPS CAVOK M15/M26 Q1024 NOSIG
ZBHH,2010-12-13 12:00,ZBHH 131200Z 35004MPS CAVOK M15/M27 Q1025 NOSIG
ZBHH,2010-12-13 13:00,ZBHH 131300Z 35005MPS CAVOK M15/M27 Q1025 NOSIG
ZBHH,2010-12-13 14:00,ZBHH 131400Z 36006MPS CAVOK M16/M27 Q1026 NOSIG
ZBHH,2010-12-13 15:00,ZBHH 131500Z 02002MPS CAVOK M17/M26 Q1026 NOSIG
ZBHH,2010-12-13 16:00,ZBHH 131600Z 03002MPS CAVOK M17/M27 Q1026 NOSIG
ZBHH,2010-12-13 17:00,ZBHH 131700Z 03003MPS CAVOK M18/M28 Q1025 NOSIG
ZBHH,2010-12-13 18:00,ZBHH 131800Z 05002MPS CAVOK M20/M28 Q1025 NOSIG
ZBHH,2010-12-13 19:00,ZBHH 131900Z 07002MPS CAVOK M21/M29 Q1025 NOSIG
ZBHH,2010-12-13 20:00,ZBHH 132000Z 13001MPS CAVOK M21/M29 Q1026 NOSIG
ZBHH,2010-12-13 21:00,ZBHH 132100Z 10001MPS CAVOK M21/M29 Q1025 NOSIG
ZBHH,2010-12-13 22:00,ZBHH 132200Z 35005MPS CAVOK M17/M27 Q1026 NOSIG
ZBHH,2010-12-13 23:00,ZBHH 132300Z 35005MPS CAVOK M17/M28 Q1026 NOSIG
ZBHH,2010-12-14 00:00,ZBHH 140000Z 01004MPS CAVOK M17/M28 Q1027 NOSIG
ZBHH,2010-12-14 01:00,ZBHH 140100Z 02003MPS CAVOK M16/M28 Q1028 NOSIG
ZBHH,2010-12-14 02:00,ZBHH 140200Z 36003MPS CAVOK M15/M28 Q1029 NOSIG
ZBHH,2010-12-14 03:00,ZBHH 140300Z 13001MPS CAVOK M14/M28 Q1029 NOSIG
ZBHH,2010-12-14 04:00,ZBHH 140400Z 33006MPS 290V360 CAVOK M12/M26 Q1029 NOSIG
ZBHH,2010-12-14 05:00,ZBHH 140500Z 31009G14MPS 280V350 CAVOK M12/M26 Q1028 NOSIG
ZBHH,2010-12-14 06:00,ZBHH 140600Z 31008MPS CAVOK M12/M27 Q1028 NOSIG
ZBHH,2010-12-14 07:00,ZBHH 140700Z 32008MPS CAVOK M12/M26 Q1029 NOSIG
ZBHH,2010-12-14 08:00,ZBHH 140800Z 32009MPS CAVOK M14/M27 Q1030 NOSIG
ZBHH,2010-12-14 09:00,ZBHH 140900Z 34007MPS 9999 FEW040 M17/M28 Q1031 NOSIG
ZBHH,2010-12-14 10:00,ZBHH 141000Z 35003G08MPS 310V080 9999 FEW040 M17/M27 Q1032 NOSIG
ZBHH,2010-12-14 11:00,ZBHH 141100Z 34007MPS 310V030 CAVOK M18/M27 Q1032 NOSIG
ZBHH,2010-12-14 12:00,ZBHH 141200Z 35005G10MPS 290V020 CAVOK M19/M28 Q1034 NOSIG
ZBHH,2010-12-14 13:00,ZBHH 141300Z 35008MPS CAVOK M20/M29 Q1034 NOSIG
ZBHH,2010-12-14 14:00,ZBHH 141400Z 34006MPS 290V020 CAVOK M21/M29 Q1035 NOSIG
ZBHH,2010-12-14 15:00,ZBHH 141500Z 36009G14MPS CAVOK M21/M30 Q1035 NOSIG
ZBHH,2010-12-14 16:00,ZBHH 141600Z 33006MPS 310V010 CAVOK M21/M31 Q1035 NOSIG
ZBHH,2010-12-14 17:00,ZBHH 141700Z 34006MPS CAVOK M21/M31 Q1035 NOSIG
ZBHH,2010-12-14 18:00,ZBHH 141800Z 35001MPS CAVOK M21/M31 Q1035 NOSIG
ZBHH,2010-12-14 19:00,ZBHH 141900Z 25001MPS CAVOK M22/M31 Q1035 NOSIG
ZBHH,2010-12-14 20:00,ZBHH 142000Z 28004MPS CAVOK M21/M30 Q1034 NOSIG
ZBHH,2010-12-14 21:00,ZBHH 142100Z 28004MPS CAVOK M21/M30 Q1034 NOSIG
ZBHH,2010-12-14 22:00,ZBHH 142200Z 28004MPS CAVOK M21/M29 Q1034 NOSIG
ZBHH,2010-12-14 23:00,ZBHH 142300Z 28003MPS CAVOK M22/M29 Q1034 NOSIG
ZBHH,2010-12-15 00:00,ZBHH 150000Z 19001MPS CAVOK M22/M29 Q1034 NOSIG
ZBHH,2010-12-15 01:00,ZBHH 150100Z 28001MPS CAVOK M20/M28 Q1034 NOSIG
ZBHH,2010-12-15 02:00,ZBHH 150200Z 28007MPS CAVOK M17/M28 Q1034 NOSIG
ZBHH,2010-12-15 03:00,ZBHH 150300Z 23005MPS CAVOK M18/M29 Q1034 NOSIG
ZBHH,2010-12-15 04:00,ZBHH 150400Z 24005MPS CAVOK M16/M28 Q1032 NOSIG
ZBHH,2010-12-15 05:00,ZBHH 150500Z 24005MPS CAVOK M14/M28 Q1031 NOSIG
ZBHH,2010-12-15 06:00,ZBHH 150600Z 22005MPS CAVOK M14/M27 Q1030 NOSIG
ZBHH,2010-12-15 07:00,ZBHH 150700Z 23006MPS CAVOK M13/M27 Q1029 NOSIG
ZBHH,2010-12-15 08:00,ZBHH 150800Z 23006MPS CAVOK M13/M28 Q1029 NOSIG
ZBHH,2010-12-15 09:00,ZBHH 150900Z 23005MPS CAVOK M14/M28 Q1029 NOSIG
ZBHH,2010-12-15 10:00,ZBHH 151000Z 21004MPS CAVOK M15/M28 Q1028 NOSIG
ZBHH,2010-12-15 11:00,ZBHH 151100Z 21004MPS CAVOK M16/M28 Q1028 NOSIG
ZBHH,2010-12-15 12:00,ZBHH 151200Z 24005MPS CAVOK M15/M27 Q1028 NOSIG
ZBHH,2010-12-15 13:00,ZBHH 151300Z 25003MPS CAVOK M15/M27 Q1028 NOSIG
ZBHH,2010-12-15 14:00,ZBHH 151400Z 07001MPS CAVOK M17/M27 Q1027 NOSIG
ZBHH,2010-12-15 15:00,ZBHH 151500Z 05001MPS CAVOK M18/M27 Q1026 NOSIG
ZBHH,2010-12-15 16:00,ZBHH 151600Z 13003MPS CAVOK M18/M26 Q1026 NOSIG
ZBHH,2010-12-15 17:00,ZBHH 151700Z 08003MPS CAVOK M19/M27 Q1025 NOSIG
ZBHH,2010-12-15 18:00,ZBHH 151800Z 04003MPS CAVOK M19/M27 Q1025 NOSIG
ZBHH,2010-12-15 19:00,ZBHH 151900Z 04002MPS CAVOK M20/M27 Q1024 NOSIG
ZBHH,2010-12-15 20:00,ZBHH 152000Z 05002MPS CAVOK M20/M27 Q1023 NOSIG
ZBHH,2010-12-15 21:00,ZBHH 152100Z 06002MPS CAVOK M21/M27 Q1022 NOSIG
ZBHH,2010-12-15 22:00,ZBHH 152200Z 07002MPS CAVOK M22/M27 Q1021 NOSIG
ZBHH,2010-12-15 23:00,ZBHH 152300Z 06002MPS CAVOK M21/M27 Q1020 NOSIG
ZBHH,2010-12-16 00:00,ZBHH 160000Z 08002MPS 7000 NSC M21/M27 Q1020 NOSIG
ZBHH,2010-12-16 01:00,ZBHH 160100Z 13002MPS 4000 FU NSC M18/M26 Q1019 NOSIG
ZBHH,2010-12-16 02:00,ZBHH 160200Z 11002MPS 6000 NSC M15/M26 Q1019 NOSIG
ZBHH,2010-12-16 03:00,ZBHH 160300Z 23002MPS 7000 NSC M14/M25 Q1018 NOSIG
ZBHH,2010-12-16 04:00,ZBHH 160400Z 29002MPS 250V350 5000 FU NSC M13/M25 Q1017 NOSIG
ZBHH,2010-12-16 05:00,ZBHH 160500Z 34002MPS 5000 FU NSC M12/M25 Q1015 NOSIG
ZBHH,2010-12-16 06:00,ZBHH 160600Z 35001MPS 6000 NSC M11/M24 Q1014 NOSIG
ZBHH,2010-12-16 07:00,ZBHH 160700Z 24004MPS CAVOK M10/M23 Q1013 NOSIG
ZBHH,2010-12-16 08:00,ZBHH 160800Z 23003MPS CAVOK M10/M23 Q1013 NOSIG
ZBHH,2010-12-16 09:00,ZBHH 160900Z 09001MPS 8000 NSC M11/M23 Q1013 NOSIG
ZBHH,2010-12-16 10:00,ZBHH 161000Z 08003MPS 7000 NSC M14/M24 Q1013 NOSIG
ZBHH,2010-12-16 11:00,ZBHH 161100Z VRB02MPS 8000 NSC M15/M24 Q1013 NOSIG
ZBHH,2010-12-16 12:00,ZBHH 161200Z 06003MPS 8000 NSC M16/M24 Q1013 NOSIG
ZBHH,2010-12-16 13:00,ZBHH 161300Z 02001MPS 8000 NSC M15/M24 Q1013 NOSIG
ZBHH,2010-12-16 14:00,ZBHH 161400Z 03003MPS 8000 NSC M16/M24 Q1014 NOSIG
ZBHH,2010-12-16 15:00,ZBHH 161500Z 07002MPS 9000 NSC M18/M25 Q1014 NOSIG
ZBHH,2010-12-16 16:00,ZBHH 161600Z 06002MPS 9000 NSC M18/M24 Q1014 NOSIG
ZBHH,2010-12-16 17:00,ZBHH 161700Z 03002MPS 9000 NSC M17/M24 Q1014 NOSIG
ZBHH,2010-12-16 18:00,ZBHH 161800Z 07002MPS 9000 NSC M18/M24 Q1014 NOSIG
ZBHH,2010-12-16 19:00,ZBHH 161900Z 08003MPS 9000 NSC M19/M25 Q1014 NOSIG
ZBHH,2010-12-16 20:00,ZBHH 162000Z 07003MPS 9000 NSC M19/M24 Q1014 NOSIG
ZBHH,2010-12-16 21:00,ZBHH 162100Z 07002MPS 9000 NSC M19/M24 Q1014 NOSIG
ZBHH,2010-12-16 22:00,ZBHH 162200Z 09003MPS 9000 NSC M19/M24 Q1014 NOSIG
ZBHH,2010-12-16 23:00,ZBHH 162300Z 09003MPS 9000 NSC M19/M24 Q1014 NOSIG
ZBHH,2010-12-17 00:00,ZBHH 170000Z 08002MPS 7000 NSC M18/M24 Q1015 NOSIG
ZBHH,2010-12-17 01:00,ZBHH 170100Z 06002MPS 6000 SKC M15/M22 Q1015 NOSIG
ZBHH,2010-12-17 02:00,ZBHH 170200Z 03001MPS 7000 SKC M10/M23 Q1016 NOSIG
ZBHH,2010-12-17 03:00,ZBHH 170300Z 03001MPS 7000 SKC M08/M23 Q1015 NOSIG
ZBHH,2010-12-17 04:00,ZBHH 170400Z 27002MPS 8000 SKC M07/M23 Q1015 NOSIG
ZBHH,2010-12-17 05:00,ZBHH 170500Z 25002MPS 8000 SKC M06/M23 Q1013 NOSIG
ZBHH,2010-12-17 06:00,ZBHH 170600Z 29002MPS 7000 SKC M05/M22 Q1013 NOSIG
ZBHH,2010-12-17 07:00,ZBHH 170700Z 29001MPS 9000 SKC M04/M22 Q1012 NOSIG
ZBHH,2010-12-17 08:00,ZBHH 170800Z 29001MPS 9000 SKC M05/M22 Q1012 NOSIG
ZBHH,2010-12-17 09:00,ZBHH 170900Z 03002MPS 6000 SKC M06/M23 Q1012 NOSIG
ZBHH,2010-12-17 10:00,ZBHH 171000Z 07002MPS 7000 SKC M08/M23 Q1012 NOSIG
ZBHH,2010-12-17 11:00,ZBHH 171100Z 04003MPS 350V060 7000 SKC M11/M24 Q1012 NOSIG
ZBHH,2010-12-17 12:00,ZBHH 171200Z 04003MPS 7000 SKC M13/M24 Q1012 NOSIG
ZBHH,2010-12-17 13:00,ZBHH 171300Z 04002MPS 7000 SKC M11/M23 Q1012 NOSIG
ZBHH,2010-12-17 14:00,ZBHH 171400Z 06002MPS 8000 SKC M14/M24 Q1012 NOSIG
ZBHH,2010-12-17 15:00,ZBHH 171500Z 08002MPS 8000 SKC M17/M25 Q1012 NOSIG
ZBHH,2010-12-17 16:00,ZBHH 171600Z 08001MPS 8000 SKC M15/M24 Q1012 NOSIG
ZBHH,2010-12-17 17:00,ZBHH 171700Z 05002MPS 8000 SKC M16/M23 Q1012 NOSIG
ZBHH,2010-12-17 18:00,ZBHH 171800Z AUTO 07002KT 9SM M13/M20 RMK SLP211 T11271203 57004 IEM_DS3505
ZBHH,2010-12-17 19:00,ZBHH 171900Z 07003MPS CAVOK M17/M24 Q1011 NOSIG
ZBHH,2010-12-17 20:00,ZBHH 172000Z 06003MPS CAVOK M17/M24 Q1011 NOSIG
ZBHH,2010-12-17 21:00,ZBHH 172100Z 06003MPS CAVOK M17/M24 Q1011 NOSIG
ZBHH,2010-12-17 22:00,ZBHH 172200Z 07002MPS CAVOK M18/M24 Q1011 NOSIG
ZBHH,2010-12-17 23:00,ZBHH 172300Z 06002MPS CAVOK M18/M24 Q1012 NOSIG
ZBHH,2010-12-18 00:00,ZBHH 180000Z 06003MPS 6000 SKC M19/M24 Q1012 NOSIG
ZBHH,2010-12-18 01:00,ZBHH 180100Z 06002MPS 5000 HZ SKC M15/M22 Q1013 NOSIG
ZBHH,2010-12-18 02:00,ZBHH 180200Z 12002MPS 6000 SKC M10/M22 Q1013 NOSIG
ZBHH,2010-12-18 03:00,ZBHH 180300Z 16001MPS 5000 HZ SKC M08/M21 Q1014 NOSIG
ZBHH,2010-12-18 04:00,ZBHH 180400Z 21002MPS 170V260 5000 HZ SKC M06/M20 Q1013 NOSIG
ZBHH,2010-12-18 05:00,ZBHH 180500Z 23002MPS 5000 HZ SKC M05/M21 Q1013 NOSIG
ZBHH,2010-12-18 06:00,ZBHH 180600Z 23003MPS 190V270 5000 HZ SKC M04/M21 Q1012 NOSIG
ZBHH,2010-12-18 07:00,ZBHH 180700Z 28002MPS 5000 HZ SKC M03/M19 Q1012 NOSIG
ZBHH,2010-12-18 08:00,ZBHH 180800Z 34001MPS 5000 HZ SKC M03/M19 Q1013 NOSIG
ZBHH,2010-12-18 09:00,ZBHH 180900Z 03002MPS 5000 HZ SKC M06/M21 Q1013 NOSIG
ZBHH,2010-12-18 10:00,ZBHH 181000Z 04003MPS 360V070 5000 HZ SKC M07/M20 Q1013 NOSIG
ZBHH,2010-12-18 11:00,ZBHH 181100Z 08003MPS 5000 HZ SKC M10/M21 Q1014 NOSIG
ZBHH,2010-12-18 12:00,ZBHH 181200Z 08001MPS 5000 HZ SKC M10/M21 Q1015 NOSIG
ZBHH,2010-12-18 13:00,ZBHH 181300Z 05003MPS 6000 NSC M11/M20 Q1015 NOSIG
ZBHH,2010-12-18 14:00,ZBHH 181400Z 05003MPS 7000 NSC M11/M20 Q1015 NOSIG
ZBHH,2010-12-18 15:00,ZBHH 181500Z 05003MPS 7000 NSC M12/M20 Q1015 NOSIG
ZBHH,2010-12-18 16:00,ZBHH 181600Z 05002MPS 7000 NSC M12/M20 Q1015 NOSIG
ZBHH,2010-12-18 17:00,ZBHH 181700Z 07002MPS 7000 NSC M14/M20 Q1016 NOSIG
ZBHH,2010-12-18 18:00,ZBHH 181800Z 09001MPS 7000 NSC M13/M19 Q1016 NOSIG
ZBHH,2010-12-18 19:00,ZBHH 181900Z 07002MPS 040V110 7000 NSC M14/M22 Q1016 NOSIG
ZBHH,2010-12-18 20:00,ZBHH 182000Z 04003MPS 010V080 7000 NSC M15/M20 Q1017 NOSIG
ZBHH,2010-12-18 21:00,ZBHH 182100Z 09002MPS 7000 NSC M13/M20 Q1018 NOSIG
ZBHH,2010-12-18 22:00,ZBHH 182200Z 13003MPS 8000 NSC M14/M20 Q1019 NOSIG
ZBHH,2010-12-18 23:00,ZBHH 182300Z 01002MPS 8000 NSC M15/M20 Q1020 NOSIG
ZBHH,2010-12-19 00:00,ZBHH 190000Z 06002MPS 6000 NSC M17/M21 Q1020 NOSIG
ZBHH,2010-12-19 01:00,ZBHH 190100Z 12001MPS 5000 FU NSC M13/M18 Q1020 NOSIG
ZBHH,2010-12-19 02:00,ZBHH 190200Z 28001MPS 5000 FU NSC M09/M17 Q1021 NOSIG
ZBHH,2010-12-19 03:00,ZBHH 190300Z 24001MPS 5000 FU NSC M06/M14 Q1021 NOSIG
ZBHH,2010-12-19 04:00,ZBHH 190400Z 19001MPS 5000 FU NSC M04/M14 Q1021 NOSIG
ZBHH,2010-12-19 05:00,ZBHH 190500Z 22003MPS 5000 FU NSC M02/M14 Q1020 NOSIG
ZBHH,2010-12-19 06:00,ZBHH 190600Z 24003MPS 6000 NSC M02/M14 Q1019 NOSIG
ZBHH,2010-12-19 07:00,ZBHH 190700Z 25006MPS 7000 NSC M01/M13 Q1019 NOSIG
ZBHH,2010-12-19 08:00,ZBHH 190800Z 26003MPS 7000 SKC M00/M13 Q1018 NOSIG
ZBHH,2010-12-19 09:00,ZBHH 190900Z 24005MPS 7000 SKC M02/M14 Q1019 NOSIG
ZBHH,2010-12-19 10:00,ZBHH 191000Z 24002MPS 8000 SKC M05/M14 Q1019 NOSIG
ZBHH,2010-12-19 11:00,ZBHH 191100Z 10002MPS 7000 SKC M07/M15 Q1019 NOSIG
ZBHH,2010-12-19 12:00,ZBHH 191200Z 07002MPS 6000 SKC M11/M17 Q1019 NOSIG
ZBHH,2010-12-19 13:00,ZBHH 191300Z 03002MPS 8000 SKC M10/M17 Q1020 NOSIG
ZBHH,2010-12-19 14:00,ZBHH 191400Z 03002MPS CAVOK M12/M18 Q1020 NOSIG
ZBHH,2010-12-19 15:00,ZBHH 191500Z 07003MPS CAVOK M14/M18 Q1020 NOSIG
ZBHH,2010-12-19 16:00,ZBHH 191600Z 07003MPS CAVOK M13/M18 Q1021 NOSIG
ZBHH,2010-12-19 17:00,ZBHH 191700Z 03003MPS CAVOK M13/M18 Q1020 NOSIG
ZBHH,2010-12-19 18:00,ZBHH 191800Z 06003MPS CAVOK M15/M18 Q1019 NOSIG
ZBHH,2010-12-19 19:00,ZBHH 191900Z 07003MPS CAVOK M16/M19 Q1019 NOSIG
ZBHH,2010-12-19 20:00,ZBHH 192000Z 02002MPS CAVOK M14/M17 Q1018 NOSIG
ZBHH,2010-12-19 21:00,ZBHH 192100Z 05002MPS CAVOK M16/M19 Q1018 NOSIG
ZBHH,2010-12-19 22:00,ZBHH 192200Z 05002MPS CAVOK M16/M19 Q1018 NOSIG
ZBHH,2010-12-19 23:00,ZBHH 192300Z 06003MPS CAVOK M17/M20 Q1018 NOSIG
ZBHH,2010-12-20 00:00,ZBHH 200000Z 07002MPS 7000 NSC M17/M20 Q1019 NOSIG
ZBHH,2010-12-20 01:00,ZBHH 200100Z 04003MPS 8000 NSC M13/M17 Q1019 NOSIG
ZBHH,2010-12-20 02:00,ZBHH 200200Z 08001MPS 6000 SKC M06/M14 Q1018 NOSIG
ZBHH,2010-12-20 03:00,ZBHH 200300Z 18002MPS 7000 SKC M04/M16 Q1018 NOSIG
ZBHH,2010-12-20 04:00,ZBHH 200400Z 20002MPS 8000 SKC M02/M16 Q1017 NOSIG
ZBHH,2010-12-20 05:00,ZBHH 200500Z 23003MPS 200V280 9000 NSC M02/M17 Q1016 NOSIG
ZBHH,2010-12-20 06:00,ZBHH 200600Z 25003MPS 9000 NSC M01/M16 Q1015 NOSIG
ZBHH,2010-12-20 07:00,ZBHH 200700Z 26002MPS 9000 NSC M00/M16 Q1014 NOSIG
ZBHH,2010-12-20 08:00,ZBHH 200800Z 26002MPS 9000 NSC M01/M16 Q1014 NOSIG
ZBHH,2010-12-20 09:00,ZBHH 200900Z 03002MPS 6000 NSC M03/M16 Q1014 NOSIG
ZBHH,2010-12-20 10:00,ZBHH 201000Z 04002MPS 5000 HZ NSC M07/M18 Q1014 NOSIG
ZBHH,2010-12-20 11:00,ZBHH 201100Z 04002MPS 8000 NSC M07/M18 Q1015 NOSIG
ZBHH,2010-12-20 12:00,ZBHH 201200Z 04002MPS 360V100 8000 NSC M10/M18 Q1015 NOSIG
ZBHH,2010-12-20 13:00,ZBHH 201300Z 05002MPS 7000 NSC M11/M18 Q1015 NOSIG
ZBHH,2010-12-20 14:00,ZBHH 201400Z 07002MPS 8000 NSC M11/M18 Q1014 NOSIG
ZBHH,2010-12-20 15:00,ZBHH 201500Z 05002MPS 7000 NSC M14/M19 Q1014 NOSIG
ZBHH,2010-12-20 16:00,ZBHH 201600Z 04002MPS 8000 NSC M14/M18 Q1014 NOSIG
ZBHH,2010-12-20 17:00,ZBHH 201700Z 06002MPS 9000 NSC M15/M20 Q1013 NOSIG
ZBHH,2010-12-20 18:00,ZBHH 201800Z 06003MPS 9000 NSC M14/M19 Q1013 NOSIG
ZBHH,2010-12-20 19:00,ZBHH 201900Z 05003MPS 9000 NSC M11/M16 Q1013 NOSIG
ZBHH,2010-12-20 20:00,ZBHH 202000Z 08003MPS CAVOK M11/M17 Q1012 NOSIG
ZBHH,2010-12-20 21:00,ZBHH 202100Z 09002MPS 050V130 CAVOK M11/M17 Q1012 NOSIG
ZBHH,2010-12-20 22:00,ZBHH 202200Z 06002MPS CAVOK M13/M18 Q1011 NOSIG
ZBHH,2010-12-20 23:00,ZBHH 202300Z 05002MPS 9000 NSC M15/M19 Q1011 NOSIG
ZBHH,2010-12-21 00:00,ZBHH 210000Z 05002MPS 7000 SKC M15/M19 Q1012 NOSIG
ZBHH,2010-12-21 01:00,ZBHH 210100Z 08002MPS 7000 SKC M12/M17 Q1012 NOSIG
ZBHH,2010-12-21 02:00,ZBHH 210200Z 09002MPS 8000 NSC M06/M15 Q1013 NOSIG
ZBHH,2010-12-21 03:00,ZBHH 210300Z 18002MPS CAVOK M04/M15 Q1012 NOSIG
ZBHH,2010-12-21 04:00,ZBHH 210400Z 21002MPS CAVOK M03/M15 Q1011 NOSIG
ZBHH,2010-12-21 05:00,ZBHH 210500Z 25003MPS 200V290 7000 NSC M02/M14 Q1011 NOSIG
ZBHH,2010-12-21 06:00,ZBHH 210600Z 24004MPS 200V270 7000 NSC M02/M14 Q1010 NOSIG
ZBHH,2010-12-21 07:00,ZBHH 210700Z 27003MPS 6000 NSC M02/M14 Q1010 NOSIG
ZBHH,2010-12-21 08:00,ZBHH 210800Z 34002MPS 4500 HZ FEW040 M01/M14 Q1010 NOSIG
ZBHH,2010-12-21 09:00,ZBHH 210900Z 02001MPS 4500 HZ FEW040 M02/M14 Q1010 NOSIG
ZBHH,2010-12-21 10:00,ZBHH 211000Z 10001MPS 6000 FEW040 M03/M14 Q1011 NOSIG
ZBHH,2010-12-21 11:00,ZBHH 211100Z 10002MPS 7000 FEW040 M03/M14 Q1011 NOSIG
ZBHH,2010-12-21 12:00,ZBHH 211200Z 11002MPS 7000 FEW040 M04/M14 Q1012 NOSIG
ZBHH,2010-12-21 13:00,ZBHH 211300Z 02002MPS 5000 HZ FEW040 M04/M14 Q1012 NOSIG
ZBHH,2010-12-21 14:00,ZBHH 211400Z 36001MPS 6000 FEW040 M06/M14 Q1012 NOSIG
ZBHH,2010-12-21 15:00,ZBHH 211500Z 32004MPS 9999 SCT040 M03/M10 Q1013 NOSIG
ZBHH,2010-12-21 16:00,ZBHH 211600Z 32004MPS 9999 FEW040 M04/M12 Q1013 NOSIG
ZBHH,2010-12-21 17:00,ZBHH 211700Z 31004MPS CAVOK M04/M13 Q1014 NOSIG
ZBHH,2010-12-21 18:00,ZBHH 211800Z 01004MPS CAVOK M05/M13 Q1014 NOSIG
ZBHH,2010-12-21 19:00,ZBHH 211900Z 01006MPS CAVOK M06/M13 Q1014 NOSIG
ZBHH,2010-12-21 20:00,ZBHH 212000Z 02003MPS CAVOK M07/M14 Q1015 NOSIG
ZBHH,2010-12-21 21:00,ZBHH 212100Z 34005MPS 310V010 CAVOK M07/M14 Q1015 NOSIG
ZBHH,2010-12-21 22:00,ZBHH 212200Z 31004MPS CAVOK M08/M14 Q1016 NOSIG
ZBHH,2010-12-21 23:00,ZBHH 212300Z 35005MPS CAVOK M09/M14 Q1017 NOSIG
ZBHH,2010-12-22 00:00,ZBHH 220000Z 35002MPS CAVOK M08/M14 Q1018 NOSIG
ZBHH,2010-12-22 01:00,ZBHH 220100Z 35005MPS 9999 FEW040 M08/M15 Q1018 NOSIG
ZBHH,2010-12-22 02:00,ZBHH 220200Z 36005MPS 9999 FEW040 M08/M15 Q1019 NOSIG
ZBHH,2010-12-22 03:00,ZBHH 220300Z 01005MPS CAVOK M07/M16 Q1019 NOSIG
ZBHH,2010-12-22 04:00,ZBHH 220400Z 34006MPS CAVOK M06/M17 Q1018 NOSIG
ZBHH,2010-12-22 05:00,ZBHH 220500Z 35005MPS 310V010 CAVOK M05/M18 Q1018 NOSIG
ZBHH,2010-12-22 06:00,ZBHH 220600Z 36006MPS CAVOK M05/M18 Q1017 NOSIG
ZBHH,2010-12-22 07:00,ZBHH 220700Z 34006MPS CAVOK M06/M18 Q1017 NOSIG
ZBHH,2010-12-22 08:00,ZBHH 220800Z 35007MPS CAVOK M06/M18 Q1017 NOSIG
ZBHH,2010-12-22 09:00,ZBHH 220900Z 36006MPS CAVOK M08/M19 Q1018 NOSIG
ZBHH,2010-12-22 10:00,ZBHH 221000Z 01007MPS 9999 FEW040 M09/M19 Q1019 NOSIG
ZBHH,2010-12-22 11:00,ZBHH 221100Z 01007MPS 9999 FEW040 M10/M17 Q1020 NOSIG
ZBHH,2010-12-22 12:00,ZBHH 221200Z 36007MPS 9999 FEW040 M11/M18 Q1021 NOSIG
ZBHH,2010-12-22 13:00,ZBHH 221300Z 01009MPS 9999 FEW040 M12/M19 Q1021 NOSIG
ZBHH,2010-12-22 14:00,ZBHH 221400Z 36008MPS 9999 FEW040 M12/M20 Q1022 NOSIG
ZBHH,2010-12-22 15:00,ZBHH 221500Z 35007MPS 9999 FEW040 M13/M22 Q1023 NOSIG
ZBHH,2010-12-22 16:00,ZBHH 221600Z 02005MPS 9999 FEW040 M14/M22 Q1024 NOSIG
ZBHH,2010-12-22 17:00,ZBHH 221700Z 01006MPS 9999 FEW040 M14/M24 Q1025 NOSIG
ZBHH,2010-12-22 18:00,ZBHH 221800Z 34008MPS 9999 FEW040 M15/M26 Q1026 NOSIG
ZBHH,2010-12-22 19:00,ZBHH 221900Z 35005MPS 320V020 9999 FEW040 M16/M28 Q1027 NOSIG
ZBHH,2010-12-22 20:00,ZBHH 222000Z 35004MPS CAVOK M17/M31 Q1027 NOSIG
ZBHH,2010-12-22 21:00,ZBHH 222100Z 31004MPS 280V340 CAVOK M18/M30 Q1027 NOSIG
ZBHH,2010-12-22 22:00,ZBHH 222200Z 33002MPS CAVOK M19/M31 Q1028 NOSIG
ZBHH,2010-12-22 23:00,ZBHH 222300Z 34005MPS 310V010 CAVOK M19/M31 Q1028 NOSIG
ZBHH,2010-12-23 00:00,ZBHH 230000Z 34005MPS CAVOK M19/M31 Q1029 NOSIG
ZBHH,2010-12-23 01:00,ZBHH 230100Z 01002MPS CAVOK M18/M31 Q1030 NOSIG
ZBHH,2010-12-23 02:00,ZBHH 230200Z 36003MPS 310V040 CAVOK M17/M31 Q1031 NOSIG
ZBHH,2010-12-23 03:00,ZBHH 230300Z 35004MPS 310V030 CAVOK M14/M30 Q1030 NOSIG
ZBHH,2010-12-23 04:00,ZBHH 230400Z 33006MPS CAVOK M13/M30 Q1030 NOSIG
ZBHH,2010-12-23 05:00,ZBHH 230500Z 33006MPS 300V360 CAVOK M12/M29 Q1029 NOSIG
ZBHH,2010-12-23 06:00,ZBHH 230600Z 33008MPS CAVOK M12/M29 Q1028 NOSIG
ZBHH,2010-12-23 07:00,ZBHH 230700Z 32009MPS CAVOK M12/M29 Q1028 NOSIG
ZBHH,2010-12-23 08:00,ZBHH 230800Z 31008MPS CAVOK M13/M28 Q1028 NOSIG
ZBHH,2010-12-23 09:00,ZBHH 230900Z 31006MPS CAVOK M14/M28 Q1029 NOSIG
ZBHH,2010-12-23 10:00,ZBHH 231000Z 35007MPS CAVOK M15/M29 Q1029 NOSIG
ZBHH,2010-12-23 11:00,ZBHH 231100Z 35005MPS CAVOK M16/M28 Q1030 NOSIG
ZBHH,2010-12-23 12:00,ZBHH 231200Z 36004MPS CAVOK M16/M29 Q1031 NOSIG
ZBHH,2010-12-23 13:00,ZBHH 231300Z 03004MPS CAVOK M17/M29 Q1031 NOSIG
ZBHH,2010-12-23 14:00,ZBHH 231400Z 04003MPS CAVOK M18/M29 Q1031 NOSIG
ZBHH,2010-12-23 15:00,ZBHH 231500Z 08002MPS CAVOK M19/M31 Q1031 NOSIG
ZBHH,2010-12-23 16:00,ZBHH 231600Z 06002MPS 020V090 CAVOK M21/M31 Q1032 NOSIG
ZBHH,2010-12-23 17:00,ZBHH 231700Z 08002MPS CAVOK M21/M31 Q1031 NOSIG
ZBHH,2010-12-23 18:00,ZBHH 231800Z 08002MPS CAVOK M22/M32 Q1032 NOSIG
ZBHH,2010-12-23 19:00,ZBHH 231900Z 09001MPS CAVOK M21/M31 Q1032 NOSIG
ZBHH,2010-12-23 20:00,ZBHH 232000Z 03001MPS CAVOK M22/M32 Q1031 NOSIG
ZBHH,2010-12-23 21:00,ZBHH 232100Z 03002MPS CAVOK M23/M32 Q1031 NOSIG
ZBHH,2010-12-23 22:00,ZBHH 232200Z 05003MPS CAVOK M25/M33 Q1031 NOSIG
ZBHH,2010-12-23 23:00,ZBHH 232300Z 06002MPS CAVOK M22/M32 Q1031 NOSIG
ZBHH,2010-12-24 00:00,ZBHH 240000Z 07003MPS CAVOK M25/M32 Q1031 NOSIG
ZBHH,2010-12-24 01:00,ZBHH 240100Z 06001MPS CAVOK M20/M29 Q1032 NOSIG
ZBHH,2010-12-24 02:00,ZBHH 240200Z 10001MPS CAVOK M16/M31 Q1032 NOSIG
ZBHH,2010-12-24 03:00,ZBHH 240300Z 18001MPS CAVOK M14/M29 Q1031 NOSIG
ZBHH,2010-12-24 04:00,ZBHH 240400Z 19002MPS CAVOK M12/M29 Q1030 NOSIG
ZBHH,2010-12-24 05:00,ZBHH 240500Z 21002MPS 170V270 CAVOK M11/M30 Q1029 NOSIG
ZBHH,2010-12-24 06:00,ZBHH 240600Z 23003MPS 200V260 8000 SKC M10/M29 Q1028 NOSIG
ZBHH,2010-12-24 07:00,ZBHH 240700Z 32006MPS CAVOK M09/M30 Q1028 NOSIG
ZBHH,2010-12-24 08:00,ZBHH 240800Z 33005MPS CAVOK M10/M30 Q1028 NOSIG
ZBHH,2010-12-24 09:00,ZBHH 240900Z 33004MPS CAVOK M12/M30 Q1028 NOSIG
ZBHH,2010-12-24 10:00,ZBHH 241000Z 34003MPS 310V010 CAVOK M12/M28 Q1028 NOSIG
ZBHH,2010-12-24 11:00,ZBHH 241100Z 30002MPS 260V340 CAVOK M13/M28 Q1028 NOSIG
ZBHH,2010-12-24 12:00,ZBHH 241200Z 24001MPS CAVOK M15/M28 Q1028 NOSIG
ZBHH,2010-12-24 13:00,ZBHH 241300Z 01003MPS CAVOK M14/M28 Q1028 NOSIG
ZBHH,2010-12-24 14:00,ZBHH 241400Z 01003MPS CAVOK M14/M28 Q1028 NOSIG
ZBHH,2010-12-24 15:00,ZBHH 241500Z 13001MPS CAVOK M18/M27 Q1028 NOSIG
ZBHH,2010-12-24 16:00,ZBHH 241600Z 10001MPS CAVOK M19/M27 Q1027 NOSIG
ZBHH,2010-12-24 17:00,ZBHH 241700Z 17001MPS CAVOK M20/M28 Q1027 NOSIG
ZBHH,2010-12-24 18:00,ZBHH 241800Z 07002MPS CAVOK M22/M30 Q1026 NOSIG
ZBHH,2010-12-24 19:00,ZBHH 241900Z 07002MPS CAVOK M22/M30 Q1025 NOSIG
ZBHH,2010-12-24 20:00,ZBHH 242000Z 06002MPS CAVOK M23/M30 Q1025 NOSIG
ZBHH,2010-12-24 21:00,ZBHH 242100Z 07001MPS CAVOK M22/M30 Q1024 NOSIG
ZBHH,2010-12-24 22:00,ZBHH 242200Z 08002MPS CAVOK M22/M30 Q1024 NOSIG
ZBHH,2010-12-24 23:00,ZBHH 242300Z 06002MPS CAVOK M21/M29 Q1023 NOSIG
ZBHH,2010-12-25 00:00,ZBHH 250000Z 08001MPS CAVOK M20/M29 Q1023 NOSIG
ZBHH,2010-12-25 01:00,ZBHH 250100Z 10002MPS CAVOK M19/M28 Q1023 NOSIG
ZBHH,2010-12-25 02:00,ZBHH 250200Z 08002MPS 010V110 CAVOK M16/M27 Q1023 NOSIG
ZBHH,2010-12-25 03:00,ZBHH 250300Z 16001MPS CAVOK M14/M25 Q1023 NOSIG
ZBHH,2010-12-25 04:00,ZBHH 250400Z 23001MPS 6000 NSC M13/M25 Q1021 NOSIG
ZBHH,2010-12-25 05:00,ZBHH 250500Z 24003MPS 210V280 CAVOK M11/M25 Q1020 NOSIG
ZBHH,2010-12-25 06:00,ZBHH 250600Z 24003MPS 220V280 CAVOK M11/M24 Q1020 NOSIG
ZBHH,2010-12-25 07:00,ZBHH 250700Z 24004MPS CAVOK M10/M24 Q1019 NOSIG
ZBHH,2010-12-25 08:00,ZBHH 250800Z 24005MPS CAVOK M10/M23 Q1019 NOSIG
ZBHH,2010-12-25 09:00,ZBHH 250900Z 24004MPS 8000 NSC M12/M22 Q1019 NOSIG
ZBHH,2010-12-25 10:00,ZBHH 251000Z 24004MPS 8000 NSC M13/M21 Q1019 NOSIG
ZBHH,2010-12-25 11:00,ZBHH 251100Z 25004MPS 7000 NSC M14/M19 Q1020 NOSIG
ZBHH,2010-12-25 12:00,ZBHH 251200Z 30006MPS CAVOK M12/M19 Q1019 NOSIG
ZBHH,2010-12-25 13:00,ZBHH 251300Z 13002MPS 7000 NSC M15/M19 Q1019 NOSIG
ZBHH,2010-12-25 14:00,ZBHH 251400Z 11002MPS 6000 NSC M16/M20 Q1020 NOSIG
ZBHH,2010-12-25 15:00,ZBHH 251500Z 12002MPS 6000 NSC M18/M20 Q1019 NOSIG
ZBHH,2010-12-25 16:00,ZBHH 251600Z 09002MPS 5000 BR NSC M19/M22 Q1018 NOSIG
ZBHH,2010-12-25 17:00,ZBHH 251700Z 09002MPS 5000 BR NSC M19/M21 Q1018 NOSIG
ZBHH,2010-12-25 18:00,ZBHH 251800Z 07002MPS 6000 NSC M22/M24 Q1018 NOSIG
ZBHH,2010-12-25 19:00,ZBHH 251900Z 06003MPS 6000 NSC M22/M24 Q1018 NOSIG
ZBHH,2010-12-25 20:00,ZBHH 252000Z 06002MPS 7000 NSC M22/M25 Q1017 NOSIG
ZBHH,2010-12-25 21:00,ZBHH 252100Z 07002MPS 7000 NSC M22/M25 Q1017 NOSIG
ZBHH,2010-12-25 22:00,ZBHH 252200Z 07002MPS 8000 NSC M23/M25 Q1016 NOSIG
ZBHH,2010-12-25 23:00,ZBHH 252300Z 04001MPS 8000 NSC M23/M25 Q1016 NOSIG
ZBHH,2010-12-26 00:00,ZBHH 260000Z 04002MPS 5000 BR NSC M22/M24 Q1016 NOSIG
ZBHH,2010-12-26 01:00,ZBHH 260100Z 05002MPS 4500 BR SKC M20/M23 Q1016 NOSIG
ZBHH,2010-12-26 02:00,ZBHH 260200Z 11002MPS 7000 SKC M16/M18 Q1016 NOSIG
ZBHH,2010-12-26 03:00,ZBHH 260300Z 18001MPS 8000 NSC M13/M17 Q1015 NOSIG
ZBHH,2010-12-26 04:00,ZBHH 260400Z 17002MPS CAVOK M12/M16 Q1014 NOSIG
ZBHH,2010-12-26 05:00,ZBHH 260500Z 24002MPS CAVOK M11/M16 Q1013 NOSIG
ZBHH,2010-12-26 06:00,ZBHH 260600Z 22002MPS CAVOK M10/M16 Q1013 NOSIG
ZBHH,2010-12-26 07:00,ZBHH 260700Z 20001MPS 4000 FU SKC M10/M16 Q1012 NOSIG
ZBHH,2010-12-26 08:00,ZBHH 260800Z 00000MPS 5000 FU SKC M10/M16 Q1012 NOSIG
ZBHH,2010-12-26 09:00,ZBHH 260900Z 09001MPS 4500 FU NSC M10/M17 Q1013 NOSIG
ZBHH,2010-12-26 10:00,ZBHH 261000Z 06001MPS 4500 FU NSC M12/M17 Q1013 NOSIG
ZBHH,2010-12-26 11:00,ZBHH 261100Z 04003MPS 360V070 4500 FU NSC M13/M18 Q1013 NOSIG
ZBHH,2010-12-26 12:00,ZBHH 261200Z 04002MPS 5000 FU SKC M16/M20 Q1013 NOSIG
ZBHH,2010-12-26 13:00,ZBHH 261300Z 06002MPS 5000 FU SKC M17/M21 Q1013 NOSIG
ZBHH,2010-12-26 14:00,ZBHH 261400Z 01002MPS 5000 FU SKC M16/M20 Q1013 NOSIG
ZBHH,2010-12-26 15:00,ZBHH 261500Z 04002MPS 350V060 5000 FU SKC M16/M20 Q1013 NOSIG
ZBHH,2010-12-26 16:00,ZBHH 261600Z 04002MPS 6000 SKC M17/M20 Q1012 NOSIG
ZBHH,2010-12-26 17:00,ZBHH 261700Z 08001MPS 6000 SKC M17/M21 Q1011 NOSIG
ZBHH,2010-12-26 18:00,ZBHH 261800Z 05002MPS 6000 NSC M17/M20 Q1011 NOSIG
ZBHH,2010-12-26 19:00,ZBHH 261900Z 09001MPS 6000 NSC M15/M18 Q1010 NOSIG
ZBHH,2010-12-26 20:00,ZBHH 262000Z 07002MPS 6000 FEW040 M13/M16 Q1010 NOSIG
ZBHH,2010-12-26 21:00,ZBHH 262100Z 04001MPS 5000 -SN BR SCT033 BKN040 M13/M14 Q1010 NOSIG
ZBHH,2010-12-26 22:00,ZBHH 262200Z 10001MPS 4000 -SN BR SCT033 BKN040 M12/M13 Q1009 NOSIG
ZBHH,2010-12-26 23:00,ZBHH 262300Z 04001MPS 5000 BR SCT033 BKN040 M12/M13 Q1010 NOSIG
ZBHH,2010-12-27 00:00,ZBHH 270000Z 09001MPS 3500 BR FEW040 M15/M16 Q1010 NOSIG
ZBHH,2010-12-27 01:00,ZBHH 270100Z 17002MPS 3500 BR FEW040 M13/M14 Q1011 NOSIG
ZBHH,2010-12-27 02:00,ZBHH 270200Z 20002MPS 160V230 4500 BR FEW040 M11/M13 Q1011 NOSIG
ZBHH,2010-12-27 03:00,ZBHH 270300Z 20004MPS 2500 BR FEW040 M09/M12 Q1011 NOSIG
ZBHH,2010-12-27 04:00,ZBHH 270400Z 32004G10MPS 260V010 4500 HZ FEW040 M06/M15 Q1010 NOSIG
ZBHH,2010-12-27 05:00,ZBHH 270500Z 28008MPS 5000 HZ FEW040 M06/M16 Q1009 NOSIG
ZBHH,2010-12-27 06:00,ZBHH 270600Z 32009MPS 8000 FEW040 M06/M18 Q1009 NOSIG
ZBHH,2010-12-27 07:00,ZBHH 270700Z 32010MPS 9000 FEW040 M07/M19 Q1010 NOSIG
ZBHH,2010-12-27 08:00,ZBHH 270800Z 32010G16MPS 8000 FEW040 M08/M20 Q1012 NOSIG
ZBHH,2010-12-27 09:00,ZBHH 270900Z 30007MPS 9999 FEW040 M10/M20 Q1013 NOSIG
ZBHH,2010-12-27 10:00,ZBHH 271000Z 32006MPS 290V350 9999 FEW040 M11/M19 Q1014 NOSIG
ZBHH,2010-12-27 11:00,ZBHH 271100Z 28007MPS 9999 FEW040 M11/M17 Q1014 NOSIG
ZBHH,2010-12-27 12:00,ZBHH 271200Z 28005MPS 9999 FEW040 M11/M18 Q1015 NOSIG
ZBHH,2010-12-27 13:00,ZBHH 271300Z 30008MPS 9999 FEW040 M11/M19 Q1015 NOSIG
ZBHH,2010-12-27 14:00,ZBHH 271400Z 29007MPS CAVOK M11/M19 Q1015 NOSIG
ZBHH,2010-12-27 15:00,ZBHH 271500Z 29006MPS CAVOK M12/M19 Q1015 NOSIG
ZBHH,2010-12-27 16:00,ZBHH 271600Z 30005MPS CAVOK M12/M19 Q1015 NOSIG
ZBHH,2010-12-27 17:00,ZBHH 271700Z 28006MPS CAVOK M13/M19 Q1015 NOSIG
ZBHH,2010-12-27 18:00,ZBHH 271800Z 28007MPS CAVOK M13/M19 Q1016 NOSIG
ZBHH,2010-12-27 19:00,ZBHH 271900Z 29006MPS CAVOK M13/M20 Q1016 NOSIG
ZBHH,2010-12-27 20:00,ZBHH 272000Z 20003MPS CAVOK M16/M20 Q1016 NOSIG
ZBHH,2010-12-27 21:00,ZBHH 272100Z 12002MPS CAVOK M17/M21 Q1016 NOSIG
ZBHH,2010-12-27 22:00,ZBHH 272200Z 13002MPS CAVOK M19/M22 Q1016 NOSIG
ZBHH,2010-12-27 23:00,ZBHH 272300Z 11003MPS CAVOK M17/M21 Q1016 NOSIG
ZBHH,2010-12-28 00:00,ZBHH 280000Z 10002MPS CAVOK M18/M21 Q1017 NOSIG
ZBHH,2010-12-28 01:00,ZBHH 280100Z 08002MPS CAVOK M17/M20 Q1017 NOSIG
ZBHH,2010-12-28 02:00,ZBHH 280200Z 15001MPS CAVOK M13/M18 Q1017 NOSIG
ZBHH,2010-12-28 03:00,ZBHH 280300Z 19003MPS CAVOK M12/M18 Q1017 NOSIG
ZBHH,2010-12-28 04:00,ZBHH 280400Z 23002MPS CAVOK M10/M18 Q1017 NOSIG
ZBHH,2010-12-28 05:00,ZBHH 280500Z 20001MPS CAVOK M09/M18 Q1016 NOSIG
ZBHH,2010-12-28 06:00,ZBHH 280600Z 26003MPS 210V280 CAVOK M08/M18 Q1015 NOSIG
ZBHH,2010-12-28 07:00,ZBHH 280700Z 25002MPS 220V280 CAVOK M08/M19 Q1015 NOSIG
ZBHH,2010-12-28 08:00,ZBHH 280800Z 28003MPS 250V330 9999 SCT040 M08/M19 Q1015 NOSIG
ZBHH,2010-12-28 09:00,ZBHH 280900Z 01001MPS 9000 -SN SCT040 M09/M16 Q1015 NOSIG
ZBHH,2010-12-28 10:00,ZBHH 281000Z 05002MPS 4500 -SN BR SCT020 BKN030 M10/M12 Q1014 NOSIG
ZBHH,2010-12-28 11:00,ZBHH 281100Z 04003MPS 8000 -SN SCT020 BKN030 M11/M12 Q1014 NOSIG
ZBHH,2010-12-28 12:00,ZBHH 281200Z 06001MPS 4000 -SN BR SCT020 BKN030 M11/M11 Q1014 NOSIG
ZBHH,2010-12-28 13:00,ZBHH 281300Z 06002MPS 7000 -SN SCT020 BKN030 M11/M12 Q1014 NOSIG
ZBHH,2010-12-28 14:00,ZBHH 281400Z 20001MPS 7000 SCT050 M13/M14 Q1014 NOSIG
ZBHH,2010-12-28 15:00,ZBHH 281500Z 27001MPS 6000 FEW033 SCT040 M13/M14 Q1014 NOSIG
ZBHH,2010-12-28 16:00,ZBHH 281600Z 35001MPS 5000 -SN BR SCT023 BKN033 M11/M12 Q1014 NOSIG
ZBHH,2010-12-28 17:00,ZBHH 281700Z 09001MPS 3000 -SN BR SCT020 BKN033 M11/M12 Q1013 NOSIG
ZBHH,2010-12-28 18:00,ZBHH 281800Z 07002MPS 3500 -SN BR SCT020 BKN033 M12/M12 Q1014 NOSIG
ZBHH,2010-12-28 19:00,ZBHH 281900Z 09002MPS 5000 -SN BR SCT020 BKN033 M15/M17 Q1015 NOSIG
ZBHH,2010-12-28 20:00,ZBHH 282000Z 16004MPS 140V210 3500 -SN BR SCT020 BKN033 M13/M14 Q1014 NOSIG
ZBHH,2010-12-28 21:00,ZBHH 282100Z 02001MPS 6000 FEW033 BKN040 M13/M14 Q1014 NOSIG
ZBHH,2010-12-28 22:00,ZBHH 282200Z 35002MPS 320V030 7000 -SN FEW030 BKN040 M12/M13 Q1016 NOSIG
ZBHH,2010-12-28 23:00,ZBHH 282300Z 29008MPS 270V340 9999 -SN FEW030 BKN040 M12/M18 Q1017 NOSIG
ZBHH,2010-12-29 00:00,ZBHH 290000Z 29007MPS 9999 FEW030 SCT040 FEW040TCU M13/M19 Q1018 NOSIG
ZBHH,2010-12-29 01:00,ZBHH 290100Z 30008MPS 9999 FEW030 SCT040 FEW040TCU M13/M19 Q1020 NOSIG
ZBHH,2010-12-29 02:00,ZBHH 290200Z 31006MPS 270V350 9999 FEW030 SCT040 FEW040TCU M13/M20 Q1021 NOSIG
ZBHH,2010-12-29 03:00,ZBHH 290300Z 28007MPS 250V310 9999 SCT040 FEW040TCU M13/M19 Q1023 NOSIG
ZBHH,2010-12-29 04:00,ZBHH 290400Z 29007MPS 9999 SCT040 FEW040TCU M12/M19 Q1023 NOSIG
ZBHH,2010-12-29 05:00,ZBHH 290500Z 30008MPS 9999 SCT040 FEW040TCU M12/M19 Q1023 NOSIG
ZBHH,2010-12-29 06:00,ZBHH 290600Z 30008MPS 9999 FEW040 FEW040TCU M12/M20 Q1023 NOSIG
ZBHH,2010-12-29 07:00,ZBHH 290700Z 31006MPS 290V350 9999 FEW030 SCT040 FEW040TCU M12/M20 Q1023 NOSIG
ZBHH,2010-12-29 08:00,ZBHH 290800Z 31006MPS 9999 FEW030 SCT040 M13/M21 Q1024 NOSIG
ZBHH,2010-12-29 09:00,ZBHH 290900Z 34008MPS 9999 SCT040 M14/M21 Q1025 NOSIG
ZBHH,2010-12-29 10:00,ZBHH 291000Z 32008MPS 9999 SCT040 M15/M23 Q1026 NOSIG
ZBHH,2010-12-29 11:00,ZBHH 291100Z 31008MPS 9999 FEW040 M15/M23 Q1026 NOSIG
ZBHH,2010-12-29 12:00,ZBHH 291200Z 32005MPS CAVOK M16/M23 Q1026 NOSIG
ZBHH,2010-12-29 13:00,ZBHH 291300Z 34006MPS CAVOK M16/M23 Q1027 NOSIG
ZBHH,2010-12-29 14:00,ZBHH 291400Z 33007MPS CAVOK M16/M24 Q1027 NOSIG
ZBHH,2010-12-29 15:00,ZBHH 291500Z 34006MPS CAVOK M17/M24 Q1027 NOSIG
ZBHH,2010-12-29 16:00,ZBHH 291600Z 34005MPS CAVOK M17/M24 Q1026 NOSIG
ZBHH,2010-12-29 17:00,ZBHH 291700Z 36002MPS CAVOK M17/M25 Q1025 NOSIG
ZBHH,2010-12-29 18:00,ZBHH 291800Z 03002MPS CAVOK M17/M25 Q1025 NOSIG
ZBHH,2010-12-29 19:00,ZBHH 291900Z 34003MPS CAVOK M17/M25 Q1025 NOSIG
ZBHH,2010-12-29 20:00,ZBHH 292000Z 34002MPS CAVOK M19/M25 Q1024 NOSIG
ZBHH,2010-12-29 21:00,ZBHH 292100Z 30005MPS CAVOK M18/M26 Q1024 NOSIG
ZBHH,2010-12-29 22:00,ZBHH 292200Z 30003MPS CAVOK M18/M26 Q1024 NOSIG
ZBHH,2010-12-29 23:00,ZBHH 292300Z 01001MPS CAVOK M18/M26 Q1024 NOSIG
ZBHH,2010-12-30 00:00,ZBHH 300000Z 35004MPS 9999 FEW030 M19/M25 Q1025 NOSIG
ZBHH,2010-12-30 01:00,ZBHH 300100Z 35003MPS 280V040 CAVOK M18/M26 Q1025 NOSIG
ZBHH,2010-12-30 02:00,ZBHH 300200Z 35005G11MPS 320V020 9999 SCT033 M18/M26 Q1026 NOSIG
ZBHH,2010-12-30 03:00,ZBHH 300300Z 35008MPS 9999 FEW030 SCT040 M18/M26 Q1026 NOSIG
ZBHH,2010-12-30 04:00,ZBHH 300400Z 34010MPS 9999 SCT033 M18/M26 Q1026 NOSIG
ZBHH,2010-12-30 05:00,ZBHH 300500Z 34009MPS 9999 FEW040 M17/M25 Q1025 NOSIG
ZBHH,2010-12-30 06:00,ZBHH 300600Z 34010MPS 9999 SCT040 M17/M26 Q1025 NOSIG
ZBHH,2010-12-30 07:00,ZBHH 300700Z 35006MPS 9999 SCT040 M17/M23 Q1026 NOSIG
ZBHH,2010-12-30 08:00,ZBHH 300800Z 35007G12MPS 9999 FEW040 M17/M24 Q1026 NOSIG
ZBHH,2010-12-30 09:00,ZBHH 300900Z 35006MPS 9999 FEW040 M18/M25 Q1026 NOSIG
ZBHH,2010-12-30 10:00,ZBHH 301000Z 34007MPS 310V010 9999 FEW040 M18/M26 Q1027 NOSIG
ZBHH,2010-12-30 11:00,ZBHH 301100Z 35005MPS 310V010 9999 FEW040 M19/M26 Q1027 NOSIG
ZBHH,2010-12-30 12:00,ZBHH 301200Z 34007G12MPS 9999 FEW040 M19/M26 Q1027 NOSIG
ZBHH,2010-12-30 13:00,ZBHH 301300Z 01004MPS 330V050 9999 FEW040 M19/M26 Q1028 NOSIG
ZBHH,2010-12-30 14:00,ZBHH 301400Z 33005MPS 9999 FEW040 M20/M26 Q1028 NOSIG
ZBHH,2010-12-30 15:00,ZBHH 301500Z 32005MPS 9999 FEW040 M20/M27 Q1028 NOSIG
ZBHH,2010-12-30 16:00,ZBHH 301600Z 32008MPS CAVOK M20/M27 Q1028 NOSIG
ZBHH,2010-12-30 17:00,ZBHH 301700Z 34007MPS CAVOK M20/M27 Q1028 NOSIG
ZBHH,2010-12-30 18:00,ZBHH 301800Z 35007MPS CAVOK M20/M27 Q1028 NOSIG
ZBHH,2010-12-30 19:00,ZBHH 301900Z 35004MPS CAVOK M20/M27 Q1028 NOSIG
ZBHH,2010-12-30 20:00,ZBHH 302000Z VRB03MPS CAVOK M22/M29 Q1028 NOSIG
ZBHH,2010-12-30 21:00,ZBHH 302100Z 08003MPS 030V120 CAVOK M26/M30 Q1028 NOSIG
ZBHH,2010-12-30 22:00,ZBHH 302200Z 07003MPS CAVOK M25/M30 Q1028 NOSIG
ZBHH,2010-12-30 23:00,ZBHH 302300Z 07003MPS CAVOK M26/M30 Q1028 NOSIG
