station,valid,metar
ZBHH,2007-01-01 00:00,ZBHH 010000Z AUTO 07002KT 7SM M16/M19 A3033 RMK SLP389 T11611187 52010 IEM_DS3505
ZBHH,2007-01-01 01:00,ZBHH 010100Z AUTO 09004KT 2 1/2SM M21/M23 A3033 RMK T12101230 IEM_DS3505
ZBHH,2007-01-01 02:00,ZBHH 010200Z AUTO 09004KT 2 1/2SM M18/M21 A3036 RMK T11801210 IEM_DS3505
ZBHH,2007-01-01 03:00,ZBHH 010300Z AUTO 11002KT 9SM M10/M16 A3036 RMK SLP393 T10961159 52014 IEM_DS3505
ZBHH,2007-01-01 04:00,ZBHH 010400Z AUTO 09002KT 3SM M13/M16 A3036 RMK T11301160 IEM_DS3505
ZBHH,2007-01-01 05:00,ZBHH 010500Z AUTO 11002KT 3SM M10/M15 A3030 RMK T11001150 IEM_DS3505
ZBHH,2007-01-01 06:00,ZBHH 010600Z AUTO 07004KT 16SM M07/M13 A3030 RMK SLP364 T10661133 57023 IEM_DS3505
ZBHH,2007-01-01 07:00,ZBHH 010700Z AUTO 13002KT 2 1/2SM M09/M13 A3030 RMK T10901130 IEM_DS3505
ZBHH,2007-01-01 08:00,ZBHH 010800Z AUTO 08002KT 2 1/2SM M09/M13 A3030 RMK T10901130 IEM_DS3505
ZBHH,2007-01-01 09:00,ZBHH 010900Z AUTO 07002KT 12SM M08/M13 A3030 RMK SLP371 T10801132 52002 IEM_DS3505
ZBHH,2007-01-01 10:00,ZBHH 011000Z AUTO 01002KT 1 1/2SM M13/M15 A3033 RMK T11301150 IEM_DS3505
ZBHH,2007-01-01 11:00,ZBHH 011100Z AUTO 05002KT 1 1/4SM M16/M18 A3033 RMK T11601180 IEM_DS3505
ZBHH,2007-01-01 12:00,ZBHH 011200Z AUTO 04002KT 6SM M10/M13 A3033 RMK SLP391 T11051134 52010 IEM_DS3505
ZBHH,2007-01-01 13:00,ZBHH 011300Z AUTO 06002KT 2 1/2SM M18/M20 A3036 RMK T11801200 IEM_DS3505
ZBHH,2007-01-01 14:00,ZBHH 011400Z AUTO 06002KT 2 1/2SM M19/M21 A3036 RMK T11901210 IEM_DS3505
ZBHH,2007-01-01 15:00,ZBHH 011500Z AUTO 09002KT 5SM M13/M15 A3036 RMK SLP384 T11301150 52004 IEM_DS3505
ZBHH,2007-01-01 16:00,ZBHH 011600Z AUTO 06002KT 3SM M20/M21 A3036 RMK T12001210 IEM_DS3505
ZBHH,2007-01-01 18:00,ZBHH 011800Z AUTO 36002KT 9SM M15/M17 A3036 RMK SLP383 T11471168 52002 IEM_DS3505
ZBHH,2007-01-01 19:00,ZBHH 011900Z AUTO 04002KT 3SM M21/M23 A3036 RMK T12101230 IEM_DS3505
ZBHH,2007-01-01 20:00,ZBHH 012000Z AUTO 08006KT 3SM M21/M23 A3033 RMK T12101230 IEM_DS3505
ZBHH,2007-01-01 21:00,ZBHH 012100Z AUTO 34002KT 12SM M16/M18 A3033 RMK SLP378 T11551180 57010 IEM_DS3505
ZBHH,2007-01-01 22:00,ZBHH 012200Z AUTO 00000KT 4SM M21/M23 A3033 RMK T12101230 IEM_DS3505
ZBHH,2007-01-01 23:00,ZBHH 012300Z AUTO 00000KT 4SM M21/M23 A3033 RMK T12101230 IEM_DS3505
ZBHH,2007-01-02 00:00,ZBHH 020000Z AUTO 09004KT 9SM M16/M18 A3033 RMK SLP389 T11581177 52003 IEM_DS3505
ZBHH,2007-01-02 01:00,ZBHH 020100Z AUTO 07002KT 4SM M21/M23 A3036 RMK T12101230 IEM_DS3505
ZBHH,2007-01-02 02:00,ZBHH 020200Z AUTO 00000KT 2 1/2SM M16/M19 A3036 RMK T11601190 IEM_DS3505
ZBHH,2007-01-02 03:00,ZBHH 020300Z AUTO 22002KT 2SM M09/M14 A3033 RMK SLP381 T10881144 52004 IEM_DS3505
ZBHH,2007-01-02 04:00,ZBHH 020400Z AUTO 11002KT 4SM M10/M16 A3033 RMK T11001160 IEM_DS3505
ZBHH,2007-01-02 05:00,ZBHH 020500Z AUTO 12002KT 3SM M08/M14 A3030 RMK T10801140 IEM_DS3505
ZBHH,2007-01-02 06:00,ZBHH 020600Z AUTO 25004KT 3SM M05/M12 A3027 RMK SLP350 T10461125 57021 IEM_DS3505
ZBHH,2007-01-02 07:00,ZBHH 020700Z AUTO 24002KT 3SM M03/M13 A3027 RMK T10301130 IEM_DS3505
ZBHH,2007-01-02 08:00,ZBHH 020800Z AUTO 24006KT 2SM M07/M13 A3027 RMK T10701130 IEM_DS3505
ZBHH,2007-01-02 09:00,ZBHH 020900Z AUTO 27002KT 5SM M08/M13 A3027 RMK SLP362 T10771131 52001 IEM_DS3505
ZBHH,2007-01-02 10:00,ZBHH 021000Z AUTO 10002KT 1 1/4SM M12/M14 A3030 RMK T11201140 IEM_DS3505
ZBHH,2007-01-02 11:00,ZBHH 021100Z AUTO 06002KT 1SM M16/M18 A3030 RMK T11601180 IEM_DS3505
ZBHH,2007-01-02 12:00,ZBHH 021200Z AUTO 27002KT 4SM M11/M14 A3033 RMK SLP385 T11071135 52012 IEM_DS3505
ZBHH,2007-01-02 13:00,ZBHH 021300Z AUTO 00000KT 1SM M17/M19 A3033 RMK T11701190 IEM_DS3505
ZBHH,2007-01-02 14:00,ZBHH 021400Z AUTO 00000KT 1SM M17/M19 A3033 RMK T11701190 IEM_DS3505
ZBHH,2007-01-02 15:00,ZBHH 021500Z AUTO 29002KT 5SM M12/M13 A3036 RMK SLP379 T11161133 52010 IEM_DS3505
ZBHH,2007-01-02 16:00,ZBHH 021600Z AUTO 06002KT 1 1/2SM M17/M19 A3036 RMK T11701190 IEM_DS3505
ZBHH,2007-01-02 17:00,ZBHH 021700Z AUTO 10004KT 1 1/2SM M20/M22 A3036 RMK T12001220 IEM_DS3505
ZBHH,2007-01-02 18:00,ZBHH 021800Z AUTO 00000KT 5SM M14/M16 A3036 RMK SLP371 T11351155 57002 IEM_DS3505
ZBHH,2007-01-02 19:00,ZBHH 021900Z AUTO 03002KT 1 1/2SM M19/M21 A3036 RMK T11901210 IEM_DS3505
ZBHH,2007-01-02 20:00,ZBHH 022000Z AUTO 00000KT M20/M22 A3033 RMK T12001220 IEM_DS3505
ZBHH,2007-01-02 21:00,ZBHH 022100Z AUTO 36002KT 5SM M15/M17 A3033 RMK SLP380 T11501170 57003 IEM_DS3505
ZBHH,2007-01-02 22:00,ZBHH 022200Z AUTO 08002KT 4SM M19/M21 A3033 RMK T11901210 IEM_DS3505
ZBHH,2007-01-02 23:00,ZBHH 022300Z AUTO 03002KT 6SM M20/M22 A3033 RMK T12001220 IEM_DS3505
ZBHH,2007-01-03 00:00,ZBHH 030000Z AUTO 36002KT 3SM M14/M17 A3036 RMK SLP396 T11441169 52008 IEM_DS3505
ZBHH,2007-01-03 01:00,ZBHH 030100Z AUTO 09002KT 6SM M19/M21 A3036 RMK T11901210 IEM_DS3505
ZBHH,2007-01-03 02:00,ZBHH 030200Z AUTO 35002KT 6SM M15/M18 A3039 RMK T11501180 IEM_DS3505
ZBHH,2007-01-03 03:00,ZBHH 030300Z AUTO 00000KT 4SM M07/M12 A3036 RMK SLP381 T10681123 52003 IEM_DS3505
ZBHH,2007-01-03 04:00,ZBHH 030400Z AUTO 09002KT 6SM M08/M15 A3036 RMK T10801150 IEM_DS3505
ZBHH,2007-01-03 05:00,ZBHH 030500Z AUTO 12002KT 4SM M06/M15 A3033 RMK T10601150 IEM_DS3505
ZBHH,2007-01-03 06:00,ZBHH 030600Z AUTO 04002KT 7SM A3030 RMK SLP351 57019 IEM_DS3505
ZBHH,2007-01-03 07:00,ZBHH 030700Z AUTO 11002KT 4SM M04/M13 A3030 RMK T10401130 IEM_DS3505
ZBHH,2007-01-03 08:00,ZBHH 030800Z AUTO 00000KT 4SM M04/M13 A3030 RMK T10401130 IEM_DS3505
ZBHH,2007-01-03 09:00,ZBHH 030900Z AUTO 36002KT 7SM M04/M12 A3030 RMK SLP360 T10381117 54000 IEM_DS3505
ZBHH,2007-01-03 10:00,ZBHH 031000Z AUTO 02002KT 2SM M11/M15 A3033 RMK T11101150 IEM_DS3505
ZBHH,2007-01-03 11:00,ZBHH 031100Z AUTO 00000KT 2 1/2SM M14/M17 A3033 RMK T11401170 IEM_DS3505
ZBHH,2007-01-03 12:00,ZBHH 031200Z AUTO 36002KT 7SM M09/M13 A3033 RMK SLP376 T10861127 52004 IEM_DS3505
ZBHH,2007-01-03 13:00,ZBHH 031300Z AUTO 06002KT 3SM M15/M17 A3033 RMK T11501170 IEM_DS3505
ZBHH,2007-01-03 14:00,ZBHH 031400Z AUTO 07002KT 2SM M15/M18 A3033 RMK T11501180 IEM_DS3505
ZBHH,2007-01-03 15:00,ZBHH 031500Z AUTO 36002KT 6SM M10/M13 A3033 RMK SLP366 T11051128 52004 IEM_DS3505
ZBHH,2007-01-03 16:00,ZBHH 031600Z AUTO 08004KT 2 1/2SM M17/M20 A3033 RMK T11701200 IEM_DS3505
ZBHH,2007-01-03 17:00,ZBHH 031700Z AUTO 08002KT 2 1/2SM M15/M17 A3033 RMK T11501170 IEM_DS3505
ZBHH,2007-01-03 18:00,ZBHH 031800Z AUTO 07002KT 5SM M12/M14 A3033 RMK SLP351 T11161142 57004 IEM_DS3505
ZBHH,2007-01-03 19:00,ZBHH 031900Z AUTO 08002KT 2 1/2SM M17/M19 A3033 RMK T11701190 IEM_DS3505
ZBHH,2007-01-03 20:00,ZBHH 032000Z AUTO 00000KT 2 1/2SM M17/M20 A3030 RMK T11701200 IEM_DS3505
ZBHH,2007-01-03 21:00,ZBHH 032100Z AUTO 09002KT 7SM M12/M15 A3030 RMK SLP347 T11251151 57010 IEM_DS3505
ZBHH,2007-01-03 22:00,ZBHH 032200Z AUTO 08004KT 2 1/2SM M18/M20 A3030 RMK T11801200 IEM_DS3505
ZBHH,2007-01-03 23:00,ZBHH 032300Z AUTO 07004KT 3SM M15/M17 A3030 RMK T11501170 IEM_DS3505
ZBHH,2007-01-04 00:00,ZBHH 040000Z AUTO 11002KT 6SM M09/M14 A3030 RMK SLP356 T10901138 52005 IEM_DS3505
ZBHH,2007-01-04 01:00,ZBHH 040100Z AUTO 00000KT 2 1/2SM M12/M14 A3033 RMK T11201140 IEM_DS3505
ZBHH,2007-01-04 02:00,ZBHH 040200Z AUTO 08002KT 1 1/4SM M11/M13 A3033 RMK T11101130 IEM_DS3505
ZBHH,2007-01-04 03:00,ZBHH 040300Z AUTO 09004KT 6SM M07/M10 A3033 RMK SLP365 T10731102 52007 IEM_DS3505
ZBHH,2007-01-04 04:00,ZBHH 040400Z AUTO 17002KT 1SM M09/M10 A3033 RMK T10901100 IEM_DS3505
ZBHH,2007-01-04 05:00,ZBHH 040500Z AUTO 19002KT 1SM M09/M10 A3030 RMK T10901100 IEM_DS3505
ZBHH,2007-01-04 06:00,ZBHH 040600Z AUTO 22002KT 4SM M08/M10 A3027 RMK 60003 SLP353 T10761101 57013 IEM_DS3505
ZBHH,2007-01-04 07:00,ZBHH 040700Z AUTO 22002KT 1SM M09/M10 A3030 RMK T10901100 IEM_DS3505
ZBHH,2007-01-04 08:00,ZBHH 040800Z AUTO 17002KT 1SM M09/M10 A3030 RMK T10901100 IEM_DS3505
ZBHH,2007-01-04 09:00,ZBHH 040900Z AUTO 22002KT 5SM M07/M10 A3030 RMK SLP359 T10681097 52005 IEM_DS3505
ZBHH,2007-01-04 10:00,ZBHH 041000Z AUTO 08004KT 1SM M10/M11 A3030 RMK T11001110 IEM_DS3505
ZBHH,2007-01-04 11:00,ZBHH 041100Z AUTO 07004KT 1SM M10/M11 A3030 RMK T11001110 IEM_DS3505
ZBHH,2007-01-04 12:00,ZBHH 041200Z AUTO 07002KT 5SM M08/M10 A3030 RMK 60000 SLP355 T10771101 52002 IEM_DS3505
ZBHH,2007-01-04 13:00,ZBHH 041300Z AUTO 09002KT 1SM M12/M13 A3030 RMK T11201130 IEM_DS3505
ZBHH,2007-01-04 14:00,ZBHH 041400Z AUTO 14002KT 1SM M16/M17 A3030 RMK T11601170 IEM_DS3505
ZBHH,2007-01-04 15:00,ZBHH 041500Z AUTO 07002KT 6SM M10/M12 A3027 RMK SLP346 T10971119 57008 IEM_DS3505
ZBHH,2007-01-04 16:00,ZBHH 041600Z AUTO 10004KT 1 1/2SM M13/M14 A3027 RMK T11301140 IEM_DS3505
ZBHH,2007-01-04 17:00,ZBHH 041700Z AUTO 17002KT 2 1/2SM M14/M15 A3024 RMK T11401150 IEM_DS3505
ZBHH,2007-01-04 18:00,ZBHH 041800Z AUTO 07004KT 6SM M11/M13 RMK SLP335 T11061128 57013 IEM_DS3505
ZBHH,2007-01-04 19:00,ZBHH 041900Z AUTO 14002KT 2SM M15/M16 A3024 RMK T11501160 IEM_DS3505
ZBHH,2007-01-04 20:00,ZBHH 042000Z AUTO 08004KT 2 1/2SM M14/M15 A3021 RMK T11401150 IEM_DS3505
ZBHH,2007-01-04 21:00,ZBHH 042100Z AUTO 07002KT 9SM M12/M14 A3021 RMK 70003 SLP324 T11221142 57011 IEM_DS3505
ZBHH,2007-01-04 22:00,ZBHH 042200Z AUTO 00000KT 3SM M16/M17 A3021 RMK T11601170 IEM_DS3505
ZBHH,2007-01-04 23:00,ZBHH 042300Z AUTO 09002KT 3SM M17/M18 A3024 RMK T11701180 IEM_DS3505
ZBHH,2007-01-05 00:00,ZBHH 050000Z AUTO 29006KT 19SM M10/M21 A3024 RMK 70003 SLP336 T11051209 52012 IEM_DS3505
ZBHH,2007-01-05 01:00,ZBHH 050100Z AUTO 32019G29KT 4SM M13/M21 A3027 RMK T11301210 IEM_DS3505
ZBHH,2007-01-05 02:00,ZBHH 050200Z AUTO 31016G25KT 7SM M13/M22 A3027 RMK T11301220 IEM_DS3505
ZBHH,2007-01-05 03:00,ZBHH 050300Z AUTO 27008G27KT 9SM M11/M21 A3030 RMK SLP368 T11081207 52023 IEM_DS3505
ZBHH,2007-01-05 04:00,ZBHH 050400Z AUTO 30017G27KT 4SM M13/M19 A3030 RMK T11301190 IEM_DS3505
ZBHH,2007-01-05 05:00,ZBHH 050500Z AUTO 30019G31KT 3SM M12/M19 A3030 RMK T11201190 IEM_DS3505
ZBHH,2007-01-05 06:00,ZBHH 050600Z AUTO 29008G31KT 9SM M10/M21 A3030 RMK SLP363 T11011209 57005 IEM_DS3505
ZBHH,2007-01-05 07:00,ZBHH 050700Z AUTO 30016KT 4SM M12/M20 A3030 RMK T11201200 IEM_DS3505
ZBHH,2007-01-05 08:00,ZBHH 050800Z AUTO 31012KT 5SM M12/M19 A3033 RMK T11201190 IEM_DS3505
ZBHH,2007-01-05 09:00,ZBHH 050900Z AUTO 29012G23KT 7SM M10/M19 A3036 RMK SLP386 T11031187 52016 IEM_DS3505
ZBHH,2007-01-05 10:00,ZBHH 051000Z AUTO 30012G21KT 2 1/2SM M12/M19 A3036 RMK T11201190 IEM_DS3505
ZBHH,2007-01-05 11:00,ZBHH 051100Z AUTO 32008KT 4SM M12/M18 A3039 RMK T11201180 IEM_DS3505
ZBHH,2007-01-05 12:00,ZBHH 051200Z AUTO 34010KT 7SM M10/M21 A3039 RMK SLP396 T11051212 52012 IEM_DS3505
ZBHH,2007-01-05 13:00,ZBHH 051300Z AUTO 32016G29KT 4SM M12/M21 A3042 RMK T11201210 IEM_DS3505
ZBHH,2007-01-05 14:00,ZBHH 051400Z AUTO 33016G29KT 4SM M13/M21 A3042 RMK T11301210 IEM_DS3505
ZBHH,2007-01-05 15:00,ZBHH 051500Z AUTO 32006G33KT 7SM M11/M21 A3045 RMK SLP418 T11131206 52017 IEM_DS3505
ZBHH,2007-01-05 16:00,ZBHH 051600Z AUTO 33012G21KT 4SM M13/M21 A3042 RMK T11301210 IEM_DS3505
ZBHH,2007-01-05 18:00,ZBHH 051800Z AUTO 32008G25KT 12SM M12/M21 A3045 RMK SLP424 T11251212 52004 IEM_DS3505
ZBHH,2007-01-05 20:00,ZBHH 052000Z AUTO 23004KT 7SM M15/M22 A3047 RMK T11501220 IEM_DS3505
ZBHH,2007-01-05 21:00,ZBHH 052100Z AUTO 32010KT 19SM M14/M22 A3047 RMK SLP433 T11391219 52004 IEM_DS3505
ZBHH,2007-01-05 22:00,ZBHH 052200Z AUTO 08004KT 6SM M16/M23 A3047 RMK T11601230 IEM_DS3505
ZBHH,2007-01-05 23:00,ZBHH 052300Z AUTO 08002KT 6SM M17/M23 A3047 RMK T11701230 IEM_DS3505
ZBHH,2007-01-06 00:00,ZBHH 060000Z AUTO 32006KT 19SM M14/M23 A3050 RMK SLP446 T11421228 52010 IEM_DS3505
ZBHH,2007-01-06 01:00,ZBHH 060100Z AUTO 13006KT 6SM M16/M23 A3050 RMK T11601230 IEM_DS3505
ZBHH,2007-01-06 02:00,ZBHH 060200Z AUTO 27008KT 6SM M14/M22 A3053 RMK T11401220 IEM_DS3505
ZBHH,2007-01-06 03:00,ZBHH 060300Z AUTO 20004KT 19SM M11/M21 A3056 RMK SLP461 T11131211 52018 IEM_DS3505
ZBHH,2007-01-06 04:00,ZBHH 060400Z AUTO 21004KT 6SM M13/M20 A3053 RMK T11301200 IEM_DS3505
ZBHH,2007-01-06 05:00,ZBHH 060500Z AUTO 16002KT 6SM M12/M19 A3053 RMK T11201190 IEM_DS3505
ZBHH,2007-01-06 06:00,ZBHH 060600Z AUTO 27006KT 19SM M08/M22 A3050 RMK SLP433 T10751217 57018 IEM_DS3505
ZBHH,2007-01-06 07:00,ZBHH 060700Z AUTO 19004KT 6SM M10/M19 A3050 RMK T11001190 IEM_DS3505
ZBHH,2007-01-06 08:00,ZBHH 060800Z AUTO 20004KT 6SM M10/M19 A3050 RMK T11001190 IEM_DS3505
ZBHH,2007-01-06 09:00,ZBHH 060900Z AUTO 32006KT 19SM M08/M21 A3050 RMK SLP436 T10821213 57003 IEM_DS3505
ZBHH,2007-01-06 10:00,ZBHH 061000Z AUTO 28002KT 6SM M12/M20 A3050 RMK T11201200 IEM_DS3505
ZBHH,2007-01-06 11:00,ZBHH 061100Z AUTO 31004KT 6SM M13/M20 A3050 RMK T11301200 IEM_DS3505
ZBHH,2007-01-06 12:00,ZBHH 061200Z AUTO 25002KT 19SM M11/M20 A3053 RMK SLP453 T11091205 52008 IEM_DS3505
ZBHH,2007-01-06 13:00,ZBHH 061300Z AUTO 11002KT 6SM M16/M22 A3050 RMK T11601220 IEM_DS3505
ZBHH,2007-01-06 14:00,ZBHH 061400Z AUTO 10002KT 6SM M19/M23 A3053 RMK T11901230 IEM_DS3505
ZBHH,2007-01-06 15:00,ZBHH 061500Z AUTO 25002KT 19SM M12/M20 A3050 RMK SLP446 T11231201 57003 IEM_DS3505
ZBHH,2007-01-06 16:00,ZBHH 061600Z AUTO 06002KT 6SM M21/M24 A3050 RMK T12101240 IEM_DS3505
ZBHH,2007-01-06 17:00,ZBHH 061700Z AUTO 13002KT 6SM M22/M25 A3050 RMK T12201250 IEM_DS3505
ZBHH,2007-01-06 18:00,ZBHH 061800Z AUTO 25004KT 16SM M15/M20 A3050 RMK SLP438 T11491204 57004 IEM_DS3505
ZBHH,2007-01-06 19:00,ZBHH 061900Z AUTO 00000KT 6SM M23/M25 A3050 RMK T12301250 IEM_DS3505
ZBHH,2007-01-06 20:00,ZBHH 062000Z AUTO 12002KT 6SM M23/M26 A3050 RMK T12301260 IEM_DS3505
ZBHH,2007-01-06 21:00,ZBHH 062100Z AUTO 04002KT 19SM M16/M21 A3047 RMK SLP433 T11591206 57008 IEM_DS3505
ZBHH,2007-01-06 22:00,ZBHH 062200Z AUTO 00000KT 6SM M23/M27 A3047 RMK T12301270 IEM_DS3505
ZBHH,2007-01-06 23:00,ZBHH 062300Z AUTO 10002KT 6SM M24/M27 A3047 RMK T12401270 IEM_DS3505
ZBHH,2007-01-07 00:00,ZBHH 070000Z AUTO 09002KT 12SM M17/M22 A3047 RMK SLP443 T11731216 57001 IEM_DS3505
ZBHH,2007-01-07 01:00,ZBHH 070100Z AUTO 12004KT 4SM M23/M26 A3047 RMK T12301260 IEM_DS3505
ZBHH,2007-01-07 02:00,ZBHH 070200Z AUTO 07002KT 6SM M19/M22 A3047 RMK T11901220 IEM_DS3505
ZBHH,2007-01-07 03:00,ZBHH 070300Z AUTO 34002KT 12SM M13/M19 A3047 RMK SLP441 T11311192 52005 IEM_DS3505
ZBHH,2007-01-07 04:00,ZBHH 070400Z AUTO 22004KT 4SM M14/M20 A3047 RMK T11401200 IEM_DS3505
ZBHH,2007-01-07 05:00,ZBHH 070500Z AUTO 19002KT 3SM M13/M19 A3042 RMK T11301190 IEM_DS3505
ZBHH,2007-01-07 06:00,ZBHH 070600Z AUTO 18002KT 12SM M09/M18 A3042 RMK SLP408 T10911181 57026 IEM_DS3505
ZBHH,2007-01-07 07:00,ZBHH 070700Z AUTO 22002KT 6SM M11/M18 A3042 RMK T11101180 IEM_DS3505
ZBHH,2007-01-07 08:00,ZBHH 070800Z AUTO 16002KT 5SM M12/M18 A3042 RMK T11201180 IEM_DS3505
ZBHH,2007-01-07 09:00,ZBHH 070900Z AUTO 18002KT 12SM M10/M18 A3042 RMK SLP420 T11051178 52005 IEM_DS3505
ZBHH,2007-01-07 10:00,ZBHH 071000Z AUTO 12002KT 3SM M14/M19 A3045 RMK T11401190 IEM_DS3505
ZBHH,2007-01-07 11:00,ZBHH 071100Z AUTO 03002KT 2 1/2SM M15/M19 A3045 RMK T11501190 IEM_DS3505
ZBHH,2007-01-07 12:00,ZBHH 071200Z AUTO 29006G14KT 19SM M10/M19 A3045 RMK SLP437 T11001187 52013 IEM_DS3505
ZBHH,2007-01-07 13:00,ZBHH 071300Z AUTO 35008KT 6SM M12/M19 A3047 RMK T11201190 IEM_DS3505
ZBHH,2007-01-07 14:00,ZBHH 071400Z AUTO 00000KT 6SM M14/M20 A3047 RMK T11401200 IEM_DS3505
ZBHH,2007-01-07 15:00,ZBHH 071500Z AUTO 32002KT 19SM M11/M20 A3050 RMK SLP437 T11121196 52007 IEM_DS3505
ZBHH,2007-01-07 16:00,ZBHH 071600Z AUTO 01006KT 6SM M14/M20 A3047 RMK T11401200 IEM_DS3505
ZBHH,2007-01-07 17:00,ZBHH 071700Z AUTO 28002KT 6SM M15/M21 A3047 RMK T11501210 IEM_DS3505
ZBHH,2007-01-07 18:00,ZBHH 071800Z AUTO 18002KT 19SM M12/M20 A3045 RMK SLP416 T11251201 57012 IEM_DS3505
ZBHH,2007-01-07 19:00,ZBHH 071900Z AUTO 09006KT 6SM M19/M23 A3045 RMK T11901230 IEM_DS3505
ZBHH,2007-01-07 20:00,ZBHH 072000Z AUTO 00000KT 6SM M20/M23 A3047 RMK T12001230 IEM_DS3505
ZBHH,2007-01-07 21:00,ZBHH 072100Z AUTO 09002KT 19SM M16/M20 A3047 RMK SLP434 T11621201 52004 IEM_DS3505
ZBHH,2007-01-07 22:00,ZBHH 072200Z AUTO 04002KT 6SM M21/M24 A3045 RMK T12101240 IEM_DS3505
ZBHH,2007-01-07 23:00,ZBHH 072300Z AUTO 10004KT 6SM M23/M26 A3045 RMK T12301260 IEM_DS3505
ZBHH,2007-01-08 00:00,ZBHH 080000Z AUTO 07002KT 12SM M17/M20 A3045 RMK SLP433 T11661205 57001 IEM_DS3505
ZBHH,2007-01-08 01:00,ZBHH 080100Z AUTO 07002KT 6SM M22/M25 A3045 RMK T12201250 IEM_DS3505
ZBHH,2007-01-08 02:00,ZBHH 080200Z AUTO 10004KT 6SM M18/M22 A3045 RMK T11801220 IEM_DS3505
ZBHH,2007-01-08 03:00,ZBHH 080300Z AUTO 09004KT 16SM M11/M19 A3045 RMK SLP416 T11111190 57005 IEM_DS3505
ZBHH,2007-01-08 04:00,ZBHH 080400Z AUTO 22004KT 6SM M12/M18 A3042 RMK T11201180 IEM_DS3505
ZBHH,2007-01-08 05:00,ZBHH 080500Z AUTO 22002KT 6SM M11/M17 A3039 RMK T11101170 IEM_DS3505
ZBHH,2007-01-08 06:00,ZBHH 080600Z AUTO 18004KT 9SM M09/M17 A3033 RMK SLP376 T10931173 57033 IEM_DS3505
ZBHH,2007-01-08 07:00,ZBHH 080700Z AUTO 09002KT 6SM M11/M17 A3030 RMK T11101170 IEM_DS3505
ZBHH,2007-01-08 08:00,ZBHH 080800Z AUTO 00000KT 6SM M10/M17 A3030 RMK T11001170 IEM_DS3505
ZBHH,2007-01-08 09:00,ZBHH 080900Z AUTO 09004KT 9SM M10/M17 A3030 RMK SLP372 T11021171 57015 IEM_DS3505
ZBHH,2007-01-08 10:00,ZBHH 081000Z AUTO 09002KT 5SM M14/M19 A3027 RMK T11401190 IEM_DS3505
ZBHH,2007-01-08 11:00,ZBHH 081100Z AUTO 10004KT 4SM M16/M20 A3027 RMK T11601200 IEM_DS3505
ZBHH,2007-01-08 12:00,ZBHH 081200Z AUTO 36002KT 12SM M12/M18 A3027 RMK SLP376 T11211177 57002 IEM_DS3505
ZBHH,2007-01-08 13:00,ZBHH 081300Z AUTO 05002KT 4SM M17/M21 A3027 RMK T11701210 IEM_DS3505
ZBHH,2007-01-08 14:00,ZBHH 081400Z AUTO 03004KT 4SM M16/M22 A3027 RMK T11601220 IEM_DS3505
ZBHH,2007-01-08 15:00,ZBHH 081500Z AUTO 34002KT 12SM M14/M19 A3024 RMK SLP358 T11441188 57008 IEM_DS3505
ZBHH,2007-01-08 16:00,ZBHH 081600Z AUTO 09002KT 4SM M19/M23 A3024 RMK T11901230 IEM_DS3505
ZBHH,2007-01-08 17:00,ZBHH 081700Z AUTO 10002KT 4SM M20/M23 A3021 RMK T12001230 IEM_DS3505
ZBHH,2007-01-08 18:00,ZBHH 081800Z AUTO 11004KT 9SM M15/M19 A3021 RMK SLP334 T11471188 57017 IEM_DS3505
ZBHH,2007-01-08 19:00,ZBHH 081900Z AUTO 09004KT 4SM M21/M24 A3018 RMK T12101240 IEM_DS3505
ZBHH,2007-01-08 21:00,ZBHH 082100Z AUTO 32002KT 12SM M16/M20 A3018 RMK SLP331 T11571196 57007 IEM_DS3505
ZBHH,2007-01-08 22:00,ZBHH 082200Z AUTO 10006KT 4SM M22/M25 A3018 RMK T12201250 IEM_DS3505
ZBHH,2007-01-08 23:00,ZBHH 082300Z AUTO 09004KT 4SM M20/M24 A3018 RMK T12001240 IEM_DS3505
ZBHH,2007-01-09 00:00,ZBHH 090000Z AUTO 09002KT 9SM M16/M19 A3018 RMK SLP338 T11571190 52001 IEM_DS3505
ZBHH,2007-01-09 01:00,ZBHH 090100Z AUTO 09004KT 3SM M19/M23 A3018 RMK T11901230 IEM_DS3505
ZBHH,2007-01-09 02:00,ZBHH 090200Z AUTO 09006KT 4SM M15/M20 A3018 RMK T11501200 IEM_DS3505
ZBHH,2007-01-09 03:00,ZBHH 090300Z AUTO 04004KT 6SM M09/M18 A3018 RMK SLP327 T10911181 52001 IEM_DS3505
ZBHH,2007-01-09 04:00,ZBHH 090400Z AUTO 12002KT 6SM M09/M17 A3015 RMK T10901170 IEM_DS3505
ZBHH,2007-01-09 05:00,ZBHH 090500Z AUTO 18002KT 5SM M07/M16 A3012 RMK T10701160 IEM_DS3505
ZBHH,2007-01-09 06:00,ZBHH 090600Z AUTO 18002KT 9SM M05/M17 A3009 RMK SLP294 T10531171 57021 IEM_DS3505
ZBHH,2007-01-09 07:00,ZBHH 090700Z AUTO 15002KT 4SM M07/M17 A3009 RMK T10701170 IEM_DS3505
ZBHH,2007-01-09 08:00,ZBHH 090800Z AUTO 00000KT 5SM M06/M16 A3012 RMK T10601160 IEM_DS3505
ZBHH,2007-01-09 09:00,ZBHH 090900Z AUTO 07002KT 12SM M06/M17 A3012 RMK SLP307 T10621167 52007 IEM_DS3505
ZBHH,2007-01-09 10:00,ZBHH 091000Z AUTO 36002KT 5SM M09/M16 A3015 RMK T10901160 IEM_DS3505
ZBHH,2007-01-09 11:00,ZBHH 091100Z AUTO 04002KT 2 1/2SM M13/M17 A3018 RMK T11301170 IEM_DS3505
ZBHH,2007-01-09 12:00,ZBHH 091200Z AUTO 32006KT 7SM M09/M17 A3021 RMK SLP340 T10861167 52023 IEM_DS3505
ZBHH,2007-01-09 13:00,ZBHH 091300Z AUTO 01012KT 6SM M10/M17 A3021 RMK T11001170 IEM_DS3505
ZBHH,2007-01-09 14:00,ZBHH 091400Z AUTO 01010KT 6SM M11/M19 A3024 RMK T11101190 IEM_DS3505
ZBHH,2007-01-09 15:00,ZBHH 091500Z AUTO 32006KT 7SM M10/M19 A3027 RMK SLP350 T11031190 52021 IEM_DS3505
ZBHH,2007-01-09 16:00,ZBHH 091600Z AUTO 01012KT 6SM M13/M19 A3027 RMK T11301190 IEM_DS3505
ZBHH,2007-01-09 18:00,ZBHH 091800Z AUTO 32004KT 12SM M12/M19 A3030 RMK SLP353 T11221194 52007 IEM_DS3505
ZBHH,2007-01-09 20:00,ZBHH 092000Z AUTO 09004KT 6SM M18/M22 A3033 RMK T11801220 IEM_DS3505
ZBHH,2007-01-09 21:00,ZBHH 092100Z AUTO 34004KT 19SM M13/M20 A3033 RMK SLP364 T11301195 52005 IEM_DS3505
ZBHH,2007-01-09 22:00,ZBHH 092200Z AUTO 06004KT 6SM M18/M23 A3033 RMK T11801230 IEM_DS3505
ZBHH,2007-01-09 23:00,ZBHH 092300Z AUTO 02006KT 6SM M16/M20 A3033 RMK T11601200 IEM_DS3505
ZBHH,2007-01-10 00:00,ZBHH 100000Z AUTO 32004KT 19SM M13/M20 A3036 RMK SLP384 T11341197 52011 IEM_DS3505
ZBHH,2007-01-10 01:00,ZBHH 100100Z AUTO 03008KT 6SM M15/M20 A3036 RMK T11501200 IEM_DS3505
ZBHH,2007-01-10 02:00,ZBHH 100200Z AUTO 28002KT 6SM M13/M19 A3039 RMK T11301190 IEM_DS3505
ZBHH,2007-01-10 03:00,ZBHH 100300Z AUTO 34002KT 19SM M08/M18 A3039 RMK SLP393 T10841177 52016 IEM_DS3505
ZBHH,2007-01-10 04:00,ZBHH 100400Z AUTO 02002KT 6SM M09/M17 A3039 RMK T10901170 IEM_DS3505
ZBHH,2007-01-10 05:00,ZBHH 100500Z AUTO 32002KT 6SM M08/M17 A3036 RMK T10801170 IEM_DS3505
ZBHH,2007-01-10 06:00,ZBHH 100600Z AUTO 29006KT 19SM M06/M15 A3033 RMK SLP368 T10611153 57021 IEM_DS3505
ZBHH,2007-01-10 07:00,ZBHH 100700Z AUTO 34004KT 6SM M07/M16 A3033 RMK T10701160 IEM_DS3505
ZBHH,2007-01-10 08:00,ZBHH 100800Z AUTO 34008KT 6SM M08/M15 A3036 RMK T10801150 IEM_DS3505
ZBHH,2007-01-10 09:00,ZBHH 100900Z AUTO 29006KT 19SM M07/M16 A3036 RMK SLP384 T10741163 52009 IEM_DS3505
ZBHH,2007-01-10 10:00,ZBHH 101000Z AUTO 35012KT 6SM M11/M17 A3039 RMK T11101170 IEM_DS3505
ZBHH,2007-01-10 11:00,ZBHH 101100Z AUTO 36008KT 6SM M12/M18 A3039 RMK T11201180 IEM_DS3505
ZBHH,2007-01-10 12:00,ZBHH 101200Z AUTO 32008KT 19SM M11/M18 A3042 RMK SLP414 T11081179 52017 IEM_DS3505
ZBHH,2007-01-10 13:00,ZBHH 101300Z AUTO 36004KT 6SM M14/M19 A3042 RMK T11401190 IEM_DS3505
ZBHH,2007-01-10 14:00,ZBHH 101400Z AUTO 03006KT 6SM M14/M19 A3045 RMK T11401190 IEM_DS3505
ZBHH,2007-01-10 15:00,ZBHH 101500Z AUTO 32006KT 19SM M12/M18 A3045 RMK SLP411 T11191183 52007 IEM_DS3505
ZBHH,2007-01-10 16:00,ZBHH 101600Z AUTO 04008KT 6SM M15/M20 A3045 RMK T11501200 IEM_DS3505
ZBHH,2007-01-10 17:00,ZBHH 101700Z AUTO 03004KT 6SM M15/M20 A3045 RMK T11501200 IEM_DS3505
ZBHH,2007-01-10 18:00,ZBHH 101800Z AUTO 36002KT 19SM M14/M20 A3045 RMK SLP409 T11351198 54000 IEM_DS3505
ZBHH,2007-01-10 19:00,ZBHH 101900Z AUTO 07004KT 6SM M19/M22 A3045 RMK T11901220 IEM_DS3505
ZBHH,2007-01-10 21:00,ZBHH 102100Z AUTO 07002KT 19SM M15/M19 A3045 RMK SLP416 T11541191 57002 IEM_DS3505
ZBHH,2007-01-10 22:00,ZBHH 102200Z AUTO 00000KT 6SM M21/M24 A3045 RMK T12101240 IEM_DS3505
ZBHH,2007-01-10 23:00,ZBHH 102300Z AUTO 00000KT 5SM M21/M24 A3045 RMK T12101240 IEM_DS3505
ZBHH,2007-01-11 00:00,ZBHH 110000Z AUTO 25004KT 12SM M15/M18 A3047 RMK SLP441 T11481184 52015 IEM_DS3505
ZBHH,2007-01-11 01:00,ZBHH 110100Z AUTO 12002KT 6SM M20/M23 A3050 RMK T12001230 IEM_DS3505
ZBHH,2007-01-11 02:00,ZBHH 110200Z AUTO 12004KT 6SM M18/M21 A3053 RMK T11801210 IEM_DS3505
ZBHH,2007-01-11 03:00,ZBHH 110300Z AUTO 16002KT 12SM M11/M17 A3053 RMK SLP448 T11111171 52013 IEM_DS3505
ZBHH,2007-01-11 04:00,ZBHH 110400Z AUTO 22004KT 1 1/2SM M14/M18 A3050 RMK T11401180 IEM_DS3505
ZBHH,2007-01-11 05:00,ZBHH 110500Z AUTO 22002KT 2 1/2SM M12/M17 A3047 RMK T11201170 IEM_DS3505
ZBHH,2007-01-11 06:00,ZBHH 110600Z AUTO 22004KT 6SM M09/M15 A3045 RMK SLP425 T10931154 57020 IEM_DS3505
ZBHH,2007-01-11 07:00,ZBHH 110700Z AUTO 24004KT 4SM M11/M16 A3045 RMK T11101160 IEM_DS3505
ZBHH,2007-01-11 08:00,ZBHH 110800Z AUTO 22004KT 4SM M11/M16 A3045 RMK T11101160 IEM_DS3505
ZBHH,2007-01-11 09:00,ZBHH 110900Z AUTO 25002KT 6SM M09/M15 A3045 RMK SLP428 T10931152 57002 IEM_DS3505
ZBHH,2007-01-11 10:00,ZBHH 111000Z AUTO 16002KT 4SM M12/M16 A3047 RMK T11201160 IEM_DS3505
ZBHH,2007-01-11 11:00,ZBHH 111100Z AUTO 10002KT 2 1/2SM M14/M17 A3047 RMK T11401170 IEM_DS3505
ZBHH,2007-01-11 12:00,ZBHH 111200Z AUTO 04002KT 6SM M11/M15 A3050 RMK SLP445 T11131153 52012 IEM_DS3505
ZBHH,2007-01-11 13:00,ZBHH 111300Z AUTO 03002KT 2SM M17/M19 A3050 RMK T11701190 IEM_DS3505
ZBHH,2007-01-11 14:00,ZBHH 111400Z AUTO 02004KT 2SM M17/M20 A3050 RMK T11701200 IEM_DS3505
ZBHH,2007-01-11 15:00,ZBHH 111500Z AUTO 34002KT 6SM M13/M16 A3050 RMK SLP441 T11261163 52002 IEM_DS3505
ZBHH,2007-01-11 16:00,ZBHH 111600Z AUTO 09002KT 2 1/2SM M20/M23 A3050 RMK T12001230 IEM_DS3505
ZBHH,2007-01-11 18:00,ZBHH 111800Z AUTO 27002KT 6SM M14/M17 A3047 RMK SLP435 T11411171 57005 IEM_DS3505
ZBHH,2007-01-11 19:00,ZBHH 111900Z AUTO 10002KT 2 1/2SM M20/M22 A3047 RMK T12001220 IEM_DS3505
ZBHH,2007-01-11 20:00,ZBHH 112000Z AUTO 12002KT 2 1/2SM M21/M23 A3047 RMK T12101230 IEM_DS3505
ZBHH,2007-01-11 21:00,ZBHH 112100Z AUTO 07002KT 6SM M15/M18 A3047 RMK SLP430 T11511182 57006 IEM_DS3505
ZBHH,2007-01-11 22:00,ZBHH 112200Z AUTO 12002KT 4SM M22/M24 A3047 RMK T12201240 IEM_DS3505
ZBHH,2007-01-11 23:00,ZBHH 112300Z AUTO 17002KT 4SM M22/M25 A3047 RMK T12201250 IEM_DS3505
ZBHH,2007-01-12 00:00,ZBHH 120000Z AUTO 36002KT 5SM M16/M19 A3047 RMK SLP442 T11571187 52004 IEM_DS3505
ZBHH,2007-01-12 01:00,ZBHH 120100Z AUTO 00000KT 4SM M21/M23 A3047 RMK T12101230 IEM_DS3505
ZBHH,2007-01-12 02:00,ZBHH 120200Z AUTO 09002KT 3SM M17/M20 A3047 RMK T11701200 IEM_DS3505
ZBHH,2007-01-12 03:00,ZBHH 120300Z AUTO 04002KT 3SM M11/M16 A3047 RMK SLP431 T11111160 57002 IEM_DS3505
ZBHH,2007-01-12 04:00,ZBHH 120400Z AUTO 10002KT 3SM M12/M17 A3045 RMK T11201170 IEM_DS3505
ZBHH,2007-01-12 05:00,ZBHH 120500Z AUTO 00000KT 2 1/2SM M10/M16 A3042 RMK T11001160 IEM_DS3505
ZBHH,2007-01-12 06:00,ZBHH 120600Z AUTO 22004KT 4SM M07/M15 A3039 RMK SLP398 T10681150 57022 IEM_DS3505
ZBHH,2007-01-12 07:00,ZBHH 120700Z AUTO 26002KT 3SM M08/M15 A3039 RMK T10801150 IEM_DS3505
ZBHH,2007-01-12 08:00,ZBHH 120800Z AUTO 00000KT 2 1/2SM M08/M15 A3039 RMK T10801150 IEM_DS3505
ZBHH,2007-01-12 09:00,ZBHH 120900Z AUTO 34002KT 4SM M08/M14 A3039 RMK SLP398 T10761144 57004 IEM_DS3505
ZBHH,2007-01-12 10:00,ZBHH 121000Z AUTO 22002KT 3SM M10/M16 A3039 RMK T11001160 IEM_DS3505
ZBHH,2007-01-12 11:00,ZBHH 121100Z AUTO 03006KT 2 1/2SM M13/M17 A3042 RMK T11301170 IEM_DS3505
ZBHH,2007-01-12 12:00,ZBHH 121200Z AUTO 02002KT 3SM M10/M14 A3042 RMK SLP415 T11011145 52007 IEM_DS3505
ZBHH,2007-01-12 13:00,ZBHH 121300Z AUTO 07002KT 2 1/2SM M15/M19 A3042 RMK T11501190 IEM_DS3505
ZBHH,2007-01-12 14:00,ZBHH 121400Z AUTO 10004KT 3SM M16/M19 A3042 RMK T11601190 IEM_DS3505
ZBHH,2007-01-12 15:00,ZBHH 121500Z AUTO 05002KT 4SM M12/M16 A3042 RMK SLP411 T11221162 52003 IEM_DS3505
ZBHH,2007-01-12 16:00,ZBHH 121600Z AUTO 06002KT 4SM M17/M20 A3042 RMK T11701200 IEM_DS3505
ZBHH,2007-01-12 18:00,ZBHH 121800Z AUTO 09002KT 5SM M14/M17 A3042 RMK SLP403 T11391172 57001 IEM_DS3505
ZBHH,2007-01-12 21:00,ZBHH 122100Z AUTO 07002KT 7SM M14/M18 A3039 RMK SLP398 T11441175 57008 IEM_DS3505
ZBHH,2007-01-12 22:00,ZBHH 122200Z AUTO 09002KT 6SM M21/M23 A3039 RMK T12101230 IEM_DS3505
ZBHH,2007-01-12 23:00,ZBHH 122300Z AUTO 07002KT 6SM M20/M23 A3042 RMK T12001230 IEM_DS3505
ZBHH,2007-01-13 00:00,ZBHH 130000Z AUTO 07002KT 5SM M15/M18 A3042 RMK SLP416 T11491185 52009 IEM_DS3505
ZBHH,2007-01-13 01:00,ZBHH 130100Z AUTO 08002KT 2 1/2SM M19/M21 A3042 RMK T11901210 IEM_DS3505
ZBHH,2007-01-13 02:00,ZBHH 130200Z AUTO 10002KT 6SM M15/M19 A3042 RMK T11501190 IEM_DS3505
ZBHH,2007-01-13 03:00,ZBHH 130300Z AUTO 27002KT 16SM M08/M16 A3042 RMK SLP406 T10831164 52002 IEM_DS3505
ZBHH,2007-01-13 04:00,ZBHH 130400Z AUTO 00000KT 6SM M09/M16 A3042 RMK T10901160 IEM_DS3505
ZBHH,2007-01-13 05:00,ZBHH 130500Z AUTO 14002KT 6SM M08/M16 A3036 RMK T10801160 IEM_DS3505
ZBHH,2007-01-13 06:00,ZBHH 130600Z AUTO 09002KT 19SM M04/M15 A3033 RMK SLP366 T10451149 57030 IEM_DS3505
ZBHH,2007-01-13 07:00,ZBHH 130700Z AUTO 00000KT 6SM M06/M14 A3033 RMK T10601140 IEM_DS3505
ZBHH,2007-01-13 08:00,ZBHH 130800Z AUTO 00000KT 5SM M06/M14 A3033 RMK T10601140 IEM_DS3505
ZBHH,2007-01-13 09:00,ZBHH 130900Z AUTO 25002KT 12SM M06/M14 A3033 RMK SLP369 T10591137 57002 IEM_DS3505
ZBHH,2007-01-13 10:00,ZBHH 131000Z AUTO 00000KT 4SM M09/M15 A3033 RMK T10901150 IEM_DS3505
ZBHH,2007-01-13 11:00,ZBHH 131100Z AUTO 06002KT 2 1/2SM M11/M16 A3033 RMK T11101160 IEM_DS3505
ZBHH,2007-01-13 12:00,ZBHH 131200Z AUTO 34002KT 9SM M09/M14 A3033 RMK SLP381 T10921144 52002 IEM_DS3505
ZBHH,2007-01-13 13:00,ZBHH 131300Z AUTO 04002KT 2 1/2SM M15/M18 A3033 RMK T11501180 IEM_DS3505
ZBHH,2007-01-13 14:00,ZBHH 131400Z AUTO 08002KT 4SM M16/M19 A3033 RMK T11601190 IEM_DS3505
ZBHH,2007-01-13 15:00,ZBHH 131500Z AUTO 34002KT 9SM M11/M15 A3033 RMK SLP367 T11101154 57001 IEM_DS3505
ZBHH,2007-01-13 16:00,ZBHH 131600Z AUTO 10002KT 6SM M16/M20 A3033 RMK T11601200 IEM_DS3505
ZBHH,2007-01-13 17:00,ZBHH 131700Z AUTO 08004KT 6SM M16/M20 A3033 RMK T11601200 IEM_DS3505
ZBHH,2007-01-13 18:00,ZBHH 131800Z AUTO 09002KT 6SM M13/M16 A3033 RMK SLP368 T11321156 52004 IEM_DS3505
ZBHH,2007-01-13 20:00,ZBHH 132000Z AUTO 09004KT 6SM M19/M22 A3030 RMK T11901220 IEM_DS3505
ZBHH,2007-01-13 21:00,ZBHH 132100Z AUTO 11002KT 12SM M14/M19 A3030 RMK SLP369 T11411187 57008 IEM_DS3505
ZBHH,2007-01-13 22:00,ZBHH 132200Z AUTO 07002KT 6SM M18/M21 A3027 RMK T11801210 IEM_DS3505
ZBHH,2007-01-13 23:00,ZBHH 132300Z AUTO 08004KT 6SM M17/M21 A3027 RMK T11701210 IEM_DS3505
ZBHH,2007-01-14 00:00,ZBHH 140000Z AUTO 10002KT 12SM M13/M18 A3030 RMK SLP366 T11331179 54000 IEM_DS3505
ZBHH,2007-01-14 01:00,ZBHH 140100Z AUTO 07002KT 5SM M16/M20 A3030 RMK T11601200 IEM_DS3505
ZBHH,2007-01-14 02:00,ZBHH 140200Z AUTO 08002KT 5SM M13/M17 A3030 RMK T11301170 IEM_DS3505
ZBHH,2007-01-14 03:00,ZBHH 140300Z AUTO 12002KT 6SM M06/M16 A3030 RMK SLP353 T10631163 52001 IEM_DS3505
ZBHH,2007-01-14 04:00,ZBHH 140400Z AUTO 05002KT 5SM M07/M15 A3027 RMK T10701150 IEM_DS3505
ZBHH,2007-01-14 05:00,ZBHH 140500Z AUTO 18002KT 5SM M05/M15 A3024 RMK T10501150 IEM_DS3505
ZBHH,2007-01-14 06:00,ZBHH 140600Z AUTO 16002KT 6SM M03/M15 A3021 RMK SLP319 T10271154 57026 IEM_DS3505
ZBHH,2007-01-14 07:00,ZBHH 140700Z AUTO 17002KT 4SM M04/M14 A3021 RMK T10401140 IEM_DS3505
ZBHH,2007-01-14 08:00,ZBHH 140800Z AUTO 22002KT 3SM M04/M15 A3018 RMK T10401150 IEM_DS3505
ZBHH,2007-01-14 09:00,ZBHH 140900Z AUTO 22004KT 6SM M04/M14 A3021 RMK SLP321 T10451136 57005 IEM_DS3505
ZBHH,2007-01-14 10:00,ZBHH 141000Z AUTO 22002KT 2 1/2SM M08/M14 A3021 RMK T10801140 IEM_DS3505
ZBHH,2007-01-14 11:00,ZBHH 141100Z AUTO 11002KT 3SM M09/M14 A3021 RMK T10901140 IEM_DS3505
ZBHH,2007-01-14 12:00,ZBHH 141200Z AUTO 08002KT 5SM M06/M13 A3024 RMK SLP339 T10621129 52014 IEM_DS3505
ZBHH,2007-01-14 13:00,ZBHH 141300Z AUTO 09004KT 2 1/2SM M11/M14 A3024 RMK T11101140 IEM_DS3505
ZBHH,2007-01-14 14:00,ZBHH 141400Z AUTO 04002KT 2 1/2SM M11/M15 A3027 RMK T11101150 IEM_DS3505
ZBHH,2007-01-14 15:00,ZBHH 141500Z AUTO 05002KT 5SM M08/M13 A3027 RMK SLP333 T10841134 52006 IEM_DS3505
ZBHH,2007-01-14 16:00,ZBHH 141600Z AUTO 07002KT 4SM M15/M17 A3027 RMK T11501170 IEM_DS3505
ZBHH,2007-01-14 18:00,ZBHH 141800Z AUTO 27002KT 19SM M10/M14 A3027 RMK SLP326 T10951145 57001 IEM_DS3505
ZBHH,2007-01-14 21:00,ZBHH 142100Z AUTO 02006KT 6SM M11/M18 A3024 RMK T11101180 IEM_DS3505
ZBHH,2007-01-14 22:00,ZBHH 142200Z AUTO 13004KT 4SM M16/M19 A3024 RMK T11601190 IEM_DS3505
ZBHH,2007-01-14 23:00,ZBHH 142300Z AUTO 09002KT 3SM M16/M19 A3024 RMK T11601190 IEM_DS3505
ZBHH,2007-01-15 00:00,ZBHH 150000Z AUTO 22002KT 9SM M10/M16 A3027 RMK SLP337 T11021163 52004 IEM_DS3505
ZBHH,2007-01-15 01:00,ZBHH 150100Z AUTO 17002KT 4SM M15/M19 A3027 RMK T11501190 IEM_DS3505
ZBHH,2007-01-15 02:00,ZBHH 150200Z AUTO 16002KT 3SM M13/M18 A3027 RMK T11301180 IEM_DS3505
ZBHH,2007-01-15 03:00,ZBHH 150300Z AUTO 20002KT 9SM M07/M16 A3027 RMK SLP343 T10691156 52008 IEM_DS3505
ZBHH,2007-01-15 04:00,ZBHH 150400Z AUTO 29004KT 6SM M07/M17 A3027 RMK T10701170 IEM_DS3505
ZBHH,2007-01-15 05:00,ZBHH 150500Z AUTO 24004KT 6SM M06/M17 A3024 RMK T10601170 IEM_DS3505
ZBHH,2007-01-15 06:00,ZBHH 150600Z AUTO 20004KT 19SM M05/M14 A3021 RMK SLP321 T10481139 57017 IEM_DS3505
ZBHH,2007-01-15 07:00,ZBHH 150700Z AUTO 24008KT 4SM M06/M15 A3024 RMK T10601150 IEM_DS3505
ZBHH,2007-01-15 08:00,ZBHH 150800Z AUTO 26006KT 4SM M06/M14 A3024 RMK T10601140 IEM_DS3505
ZBHH,2007-01-15 09:00,ZBHH 150900Z AUTO 25004KT 12SM M06/M13 A3024 RMK SLP332 T10561134 52004 IEM_DS3505
ZBHH,2007-01-15 10:00,ZBHH 151000Z AUTO 25004KT 6SM M09/M15 A3027 RMK T10901150 IEM_DS3505
ZBHH,2007-01-15 11:00,ZBHH 151100Z AUTO 32002KT 6SM M10/M16 A3027 RMK T11001160 IEM_DS3505
ZBHH,2007-01-15 12:00,ZBHH 151200Z AUTO 27004KT 19SM M07/M15 A3030 RMK SLP349 T10711148 52014 IEM_DS3505
ZBHH,2007-01-15 13:00,ZBHH 151300Z AUTO 06004KT 6SM M11/M16 A3030 RMK T11101160 IEM_DS3505
ZBHH,2007-01-15 14:00,ZBHH 151400Z AUTO 12002KT 6SM M13/M17 A3030 RMK T11301170 IEM_DS3505
ZBHH,2007-01-15 15:00,ZBHH 151500Z AUTO 34002KT 19SM M09/M16 A3033 RMK SLP356 T10941157 52008 IEM_DS3505
ZBHH,2007-01-15 16:00,ZBHH 151600Z AUTO 09004KT 6SM M16/M19 A3033 RMK T11601190 IEM_DS3505
ZBHH,2007-01-15 18:00,ZBHH 151800Z AUTO 25002KT 19SM M10/M16 RMK SLP354 T11031160 52001 IEM_DS3505
ZBHH,2007-01-15 21:00,ZBHH 152100Z AUTO 27002KT 19SM M12/M16 A3030 RMK SLP356 T11251165 57005 IEM_DS3505
ZBHH,2007-01-15 22:00,ZBHH 152200Z AUTO 10004KT 6SM M19/M21 A3030 RMK T11901210 IEM_DS3505
ZBHH,2007-01-15 23:00,ZBHH 152300Z AUTO 00000KT 6SM M20/M22 A3033 RMK T12001220 IEM_DS3505
ZBHH,2007-01-16 00:00,ZBHH 160000Z AUTO 32002KT 19SM M14/M17 A3033 RMK SLP377 T11421173 52011 IEM_DS3505
ZBHH,2007-01-16 01:00,ZBHH 160100Z AUTO 09004KT 5SM M18/M21 A3036 RMK T11801210 IEM_DS3505
ZBHH,2007-01-16 02:00,ZBHH 160200Z AUTO 12002KT 6SM M15/M18 A3036 RMK T11501180 IEM_DS3505
ZBHH,2007-01-16 03:00,ZBHH 160300Z AUTO 09002KT 9SM M10/M16 A3036 RMK SLP380 T10961159 52008 IEM_DS3505
ZBHH,2007-01-16 04:00,ZBHH 160400Z AUTO 14002KT 6SM M11/M16 A3033 RMK T11101160 IEM_DS3505
ZBHH,2007-01-16 05:00,ZBHH 160500Z AUTO 23002KT 4SM M08/M15 A3030 RMK T10801150 IEM_DS3505
ZBHH,2007-01-16 06:00,ZBHH 160600Z AUTO 20004KT 9SM M06/M15 A3030 RMK SLP348 T10611148 57022 IEM_DS3505
ZBHH,2007-01-16 07:00,ZBHH 160700Z AUTO 23002KT 3SM M07/M14 A3027 RMK T10701140 IEM_DS3505
ZBHH,2007-01-16 08:00,ZBHH 160800Z AUTO 24004KT 4SM M07/M14 A3027 RMK T10701140 IEM_DS3505
ZBHH,2007-01-16 09:00,ZBHH 160900Z AUTO 22002KT 12SM M07/M14 A3027 RMK SLP348 T10681139 57007 IEM_DS3505
ZBHH,2007-01-16 10:00,ZBHH 161000Z AUTO 00000KT 4SM M09/M14 A3027 RMK T10901140 IEM_DS3505
ZBHH,2007-01-16 11:00,ZBHH 161100Z AUTO 03002KT 3SM M11/M15 A3030 RMK T11101150 IEM_DS3505
ZBHH,2007-01-16 12:00,ZBHH 161200Z AUTO 34002KT 6SM M09/M14 A3030 RMK SLP367 T10881140 52008 IEM_DS3505
ZBHH,2007-01-16 13:00,ZBHH 161300Z AUTO 10004KT 2 1/2SM M15/M18 A3030 RMK T11501180 IEM_DS3505
ZBHH,2007-01-16 14:00,ZBHH 161400Z AUTO 03002KT 2 1/2SM M15/M18 A3030 RMK T11501180 IEM_DS3505
ZBHH,2007-01-16 15:00,ZBHH 161500Z AUTO 04002KT 6SM M11/M15 A3030 RMK SLP359 T11121149 57002 IEM_DS3505
ZBHH,2007-01-16 16:00,ZBHH 161600Z AUTO 00000KT 2 1/2SM M17/M19 A3030 RMK T11701190 IEM_DS3505
ZBHH,2007-01-16 18:00,ZBHH 161800Z AUTO 00000KT 6SM M12/M15 RMK SLP352 T11231152 54000 IEM_DS3505
ZBHH,2007-01-16 21:00,ZBHH 162100Z AUTO 07002KT 7SM M13/M17 A3027 RMK SLP352 T11291166 57003 IEM_DS3505
ZBHH,2007-01-16 22:00,ZBHH 162200Z AUTO 09004KT 3SM M19/M21 A3027 RMK T11901210 IEM_DS3505
ZBHH,2007-01-16 23:00,ZBHH 162300Z AUTO 10002KT 3SM M20/M22 A3030 RMK T12001220 IEM_DS3505
ZBHH,2007-01-17 00:00,ZBHH 170000Z AUTO 34002KT 4SM M13/M17 A3030 RMK SLP367 T11341169 52007 IEM_DS3505
ZBHH,2007-01-17 01:00,ZBHH 170100Z AUTO 07002KT 3SM M18/M21 A3033 RMK T11801210 IEM_DS3505
ZBHH,2007-01-17 02:00,ZBHH 170200Z AUTO 11002KT 4SM M14/M17 A3033 RMK T11401170 IEM_DS3505
ZBHH,2007-01-17 03:00,ZBHH 170300Z AUTO 04002KT 7SM M08/M16 A3033 RMK SLP373 T10791165 52012 IEM_DS3505
ZBHH,2007-01-17 04:00,ZBHH 170400Z AUTO 22004KT 6SM M09/M17 A3033 RMK T10901170 IEM_DS3505
ZBHH,2007-01-17 05:00,ZBHH 170500Z AUTO 24002KT 5SM M07/M16 A3030 RMK T10701160 IEM_DS3505
ZBHH,2007-01-17 06:00,ZBHH 170600Z AUTO 14004KT 6SM M04/M15 A3030 RMK SLP346 T10441148 57018 IEM_DS3505
ZBHH,2007-01-17 07:00,ZBHH 170700Z AUTO 04002KT 4SM M06/M14 A3027 RMK T10601140 IEM_DS3505
ZBHH,2007-01-17 08:00,ZBHH 170800Z AUTO 00000KT 5SM M05/M15 A3030 RMK T10501150 IEM_DS3505
ZBHH,2007-01-17 09:00,ZBHH 170900Z AUTO 21002KT 6SM M04/M15 A3030 RMK SLP351 T10421149 52004 IEM_DS3505
ZBHH,2007-01-17 10:00,ZBHH 171000Z AUTO 22002KT 4SM M08/M15 A3033 RMK T10801150 IEM_DS3505
ZBHH,2007-01-17 11:00,ZBHH 171100Z AUTO 03002KT 3SM M10/M15 A3033 RMK T11001150 IEM_DS3505
ZBHH,2007-01-17 12:00,ZBHH 171200Z AUTO 36002KT 5SM M08/M14 A3033 RMK SLP378 T10791141 52014 IEM_DS3505
ZBHH,2007-01-17 13:00,ZBHH 171300Z AUTO 02002KT 2 1/2SM M13/M17 A3036 RMK T11301170 IEM_DS3505
ZBHH,2007-01-17 14:00,ZBHH 171400Z AUTO 07002KT 3SM M14/M18 A3036 RMK T11401180 IEM_DS3505
ZBHH,2007-01-17 15:00,ZBHH 171500Z AUTO 07004KT 9SM M09/M15 A3036 RMK SLP377 T10941146 52008 IEM_DS3505
ZBHH,2007-01-17 16:00,ZBHH 171600Z AUTO 07006KT 4SM M15/M18 A3036 RMK T11501180 IEM_DS3505
ZBHH,2007-01-17 17:00,ZBHH 171700Z AUTO 09008KT 4SM M15/M18 A3036 RMK T11501180 IEM_DS3505
ZBHH,2007-01-17 18:00,ZBHH 171800Z AUTO 16002KT 12SM M10/M15 A3036 RMK SLP367 T10991147 57002 IEM_DS3505
ZBHH,2007-01-17 19:00,ZBHH 171900Z AUTO 14002KT 4SM M16/M19 A3036 RMK T11601190 IEM_DS3505
ZBHH,2007-01-17 20:00,ZBHH 172000Z AUTO 00000KT 4SM M16/M19 A3036 RMK T11601190 IEM_DS3505
ZBHH,2007-01-17 21:00,ZBHH 172100Z AUTO 09002KT 19SM M13/M16 A3036 RMK SLP370 T11281158 57003 IEM_DS3505
ZBHH,2007-01-17 22:00,ZBHH 172200Z AUTO 11004KT 6SM M18/M20 A3036 RMK T11801200 IEM_DS3505
ZBHH,2007-01-17 23:00,ZBHH 172300Z AUTO 09002KT 5SM M18/M20 A3036 RMK T11801200 IEM_DS3505
ZBHH,2007-01-18 00:00,ZBHH 180000Z AUTO 08004KT 9SM M13/M17 A3039 RMK SLP390 T11341170 52007 IEM_DS3505
ZBHH,2007-01-18 01:00,ZBHH 180100Z AUTO 09004KT 5SM M16/M19 A3039 RMK T11601190 IEM_DS3505
ZBHH,2007-01-18 02:00,ZBHH 180200Z AUTO 10002KT 6SM M13/M17 A3039 RMK T11301170 IEM_DS3505
ZBHH,2007-01-18 03:00,ZBHH 180300Z AUTO 09004KT 12SM M06/M14 A3039 RMK SLP375 T10611141 54000 IEM_DS3505
ZBHH,2007-01-18 04:00,ZBHH 180400Z AUTO 07002KT 6SM M07/M14 A3036 RMK T10701140 IEM_DS3505
ZBHH,2007-01-18 05:00,ZBHH 180500Z AUTO 00000KT 6SM M05/M14 A3033 RMK T10501140 IEM_DS3505
ZBHH,2007-01-18 06:00,ZBHH 180600Z AUTO 18004KT 12SM M02/M13 A3030 RMK SLP338 T10251128 57025 IEM_DS3505
ZBHH,2007-01-18 07:00,ZBHH 180700Z AUTO 24004KT 6SM M04/M13 A3027 RMK T10401130 IEM_DS3505
ZBHH,2007-01-18 08:00,ZBHH 180800Z AUTO 00000KT 6SM M03/M13 A3027 RMK T10301130 IEM_DS3505
ZBHH,2007-01-18 09:00,ZBHH 180900Z AUTO 27002KT 12SM M03/M13 A3027 RMK SLP339 T10321126 57007 IEM_DS3505
ZBHH,2007-01-18 10:00,ZBHH 181000Z AUTO 00000KT 6SM M06/M13 A3027 RMK T10601130 IEM_DS3505
ZBHH,2007-01-18 11:00,ZBHH 181100Z AUTO 03004KT 5SM M09/M14 A3027 RMK T10901140 IEM_DS3505
ZBHH,2007-01-18 12:00,ZBHH 181200Z AUTO 04002KT 6SM M07/M13 A3027 RMK SLP350 T10661127 54000 IEM_DS3505
ZBHH,2007-01-18 13:00,ZBHH 181300Z AUTO 08004KT 4SM M13/M16 A3027 RMK T11301160 IEM_DS3505
ZBHH,2007-01-18 14:00,ZBHH 181400Z AUTO 06002KT 4SM M12/M16 A3027 RMK T11201160 IEM_DS3505
ZBHH,2007-01-18 15:00,ZBHH 181500Z AUTO 29002KT 6SM M09/M14 A3027 RMK SLP332 T10901140 57004 IEM_DS3505
ZBHH,2007-01-18 16:00,ZBHH 181600Z AUTO 07004KT 6SM M12/M16 A3024 RMK T11201160 IEM_DS3505
ZBHH,2007-01-18 17:00,ZBHH 181700Z AUTO 09004KT 6SM M14/M17 A3024 RMK T11401170 IEM_DS3505
ZBHH,2007-01-18 18:00,ZBHH 181800Z AUTO 07002KT 6SM M10/M15 A3021 RMK SLP310 T11011149 57014 IEM_DS3505
ZBHH,2007-01-18 19:00,ZBHH 181900Z AUTO 08006KT 6SM M13/M17 A3021 RMK T11301170 IEM_DS3505
ZBHH,2007-01-18 20:00,ZBHH 182000Z AUTO 06002KT 6SM M14/M17 A3018 RMK T11401170 IEM_DS3505
ZBHH,2007-01-18 21:00,ZBHH 182100Z AUTO 04002KT 6SM M11/M15 A3015 RMK SLP294 T11071149 57017 IEM_DS3505
ZBHH,2007-01-18 22:00,ZBHH 182200Z AUTO 00000KT 6SM M14/M17 A3015 RMK T11401170 IEM_DS3505
ZBHH,2007-01-18 23:00,ZBHH 182300Z AUTO 08006KT 6SM M14/M17 A3015 RMK T11401170 IEM_DS3505
ZBHH,2007-01-19 00:00,ZBHH 190000Z AUTO 04002KT 6SM M10/M15 A3012 RMK SLP295 T10971147 57004 IEM_DS3505
ZBHH,2007-01-19 01:00,ZBHH 190100Z AUTO 08004KT 4SM M13/M16 A3015 RMK T11301160 IEM_DS3505
ZBHH,2007-01-19 02:00,ZBHH 190200Z AUTO 09004KT 4SM M10/M15 A3015 RMK T11001150 IEM_DS3505
ZBHH,2007-01-19 03:00,ZBHH 190300Z AUTO 09002KT 5SM M02/M14 A3012 RMK SLP282 T10221143 54000 IEM_DS3505
ZBHH,2007-01-19 04:00,ZBHH 190400Z AUTO 06002KT 6SM M03/M13 A3012 RMK T10301130 IEM_DS3505
ZBHH,2007-01-19 05:00,ZBHH 190500Z AUTO 07002KT 6SM M01/M15 A3009 RMK T10101150 IEM_DS3505
ZBHH,2007-01-19 06:00,ZBHH 190600Z AUTO 09006KT 6SM 02/M15 A3006 RMK SLP246 T00171149 57025 IEM_DS3505
ZBHH,2007-01-19 07:00,ZBHH 190700Z AUTO 00000KT 6SM 01/M15 A3006 RMK T00101150 IEM_DS3505
ZBHH,2007-01-19 08:00,ZBHH 190800Z AUTO 00000KT 6SM 01/M16 A3006 RMK T00101160 IEM_DS3505
ZBHH,2007-01-19 09:00,ZBHH 190900Z AUTO 27002KT 7SM 01/M16 A3006 RMK SLP248 T00091160 57002 IEM_DS3505
ZBHH,2007-01-19 10:00,ZBHH 191000Z AUTO 34002KT 6SM M03/M14 A3006 RMK T10301140 IEM_DS3505
ZBHH,2007-01-19 11:00,ZBHH 191100Z AUTO 02006KT 6SM M06/M14 A3009 RMK T10601140 IEM_DS3505
ZBHH,2007-01-19 12:00,ZBHH 191200Z AUTO 27002KT 5SM M04/M14 A3009 RMK SLP276 T10431139 52015 IEM_DS3505
ZBHH,2007-01-19 13:00,ZBHH 191300Z AUTO 07002KT 6SM M09/M14 A3012 RMK T10901140 IEM_DS3505
ZBHH,2007-01-19 14:00,ZBHH 191400Z AUTO 07002KT 6SM M09/M14 A3015 RMK T10901140 IEM_DS3505
ZBHH,2007-01-19 15:00,ZBHH 191500Z AUTO 22002KT 4SM M06/M13 A3015 RMK SLP276 T10631128 52013 IEM_DS3505
ZBHH,2007-01-19 16:00,ZBHH 191600Z AUTO 00000KT 6SM M12/M16 A3015 RMK T11201160 IEM_DS3505
ZBHH,2007-01-19 17:00,ZBHH 191700Z AUTO 08002KT 6SM M13/M16 A3015 RMK T11301160 IEM_DS3505
ZBHH,2007-01-19 18:00,ZBHH 191800Z AUTO 29002KT 7SM M06/M17 A3018 RMK SLP277 T10631168 52009 IEM_DS3505
ZBHH,2007-01-19 19:00,ZBHH 191900Z AUTO 01004KT 6SM M08/M18 A3018 RMK T10801180 IEM_DS3505
ZBHH,2007-01-19 20:00,ZBHH 192000Z AUTO 06002KT 6SM M12/M18 A3018 RMK T11201180 IEM_DS3505
ZBHH,2007-01-19 21:00,ZBHH 192100Z AUTO 32002KT 9SM M06/M18 A3018 RMK SLP280 T10641181 52001 IEM_DS3505
ZBHH,2007-01-19 22:00,ZBHH 192200Z AUTO 23002KT 6SM M15/M19 A3018 RMK T11501190 IEM_DS3505
ZBHH,2007-01-19 23:00,ZBHH 192300Z AUTO 00000KT 6SM M16/M20 A3021 RMK T11601200 IEM_DS3505
ZBHH,2007-01-20 00:00,ZBHH 200000Z AUTO 27002KT 5SM M10/M15 A3024 RMK SLP326 T11031151 52020 IEM_DS3505
ZBHH,2007-01-20 01:00,ZBHH 200100Z AUTO 19002KT 6SM M14/M19 A3027 RMK T11401190 IEM_DS3505
ZBHH,2007-01-20 02:00,ZBHH 200200Z AUTO 15002KT 6SM M11/M17 A3027 RMK T11101170 IEM_DS3505
ZBHH,2007-01-20 03:00,ZBHH 200300Z AUTO 20002KT 12SM M04/M16 A3030 RMK SLP333 T10441160 52015 IEM_DS3505
ZBHH,2007-01-20 04:00,ZBHH 200400Z AUTO 21002KT 6SM M07/M15 A3027 RMK T10701150 IEM_DS3505
ZBHH,2007-01-20 05:00,ZBHH 200500Z AUTO 24002KT 6SM M05/M15 A3027 RMK T10501150 IEM_DS3505
ZBHH,2007-01-20 06:00,ZBHH 200600Z AUTO 20004KT 19SM M02/M15 A3024 RMK SLP313 T10241148 57013 IEM_DS3505
ZBHH,2007-01-20 07:00,ZBHH 200700Z AUTO 24006KT 6SM M03/M15 A3024 RMK T10301150 IEM_DS3505
ZBHH,2007-01-20 08:00,ZBHH 200800Z AUTO 24004KT 6SM M03/M13 A3027 RMK T10301130 IEM_DS3505
ZBHH,2007-01-20 09:00,ZBHH 200900Z AUTO 20004KT 19SM M02/M15 A3027 RMK SLP319 T10231147 52005 IEM_DS3505
ZBHH,2007-01-20 10:00,ZBHH 201000Z AUTO 24002KT 5SM M06/M14 A3027 RMK T10601140 IEM_DS3505
ZBHH,2007-01-20 11:00,ZBHH 201100Z AUTO 03004KT 4SM M07/M14 A3030 RMK T10701140 IEM_DS3505
ZBHH,2007-01-20 12:00,ZBHH 201200Z AUTO 32008KT 12SM M04/M17 A3033 RMK SLP358 T10451167 52020 IEM_DS3505
ZBHH,2007-01-20 13:00,ZBHH 201300Z AUTO 35004KT 6SM M07/M18 A3036 RMK T10701180 IEM_DS3505
ZBHH,2007-01-20 14:00,ZBHH 201400Z AUTO 02008KT 6SM M08/M18 A3036 RMK T10801180 IEM_DS3505
ZBHH,2007-01-20 15:00,ZBHH 201500Z AUTO 32010KT 19SM M07/M18 A3036 RMK SLP362 T10681176 52012 IEM_DS3505
ZBHH,2007-01-20 16:00,ZBHH 201600Z AUTO 36008KT 6SM M09/M18 A3039 RMK T10901180 IEM_DS3505
ZBHH,2007-01-20 17:00,ZBHH 201700Z AUTO 36012KT 6SM M09/M18 A3039 RMK T10901180 IEM_DS3505
ZBHH,2007-01-20 18:00,ZBHH 201800Z AUTO 36006KT 19SM M08/M18 A3039 RMK SLP366 T10771178 52006 IEM_DS3505
ZBHH,2007-01-20 19:00,ZBHH 201900Z AUTO 31004KT 6SM M11/M19 A3039 RMK T11101190 IEM_DS3505
ZBHH,2007-01-20 20:00,ZBHH 202000Z AUTO 36004KT 6SM M11/M18 A3039 RMK T11101180 IEM_DS3505
ZBHH,2007-01-20 21:00,ZBHH 202100Z AUTO 32006KT 19SM M08/M18 A3039 RMK SLP363 T10761175 57002 IEM_DS3505
ZBHH,2007-01-20 22:00,ZBHH 202200Z AUTO 11004KT 6SM A3039 RMK IEM_DS3505
ZBHH,2007-01-20 23:00,ZBHH 202300Z AUTO 11002KT 6SM M16/M20 A3042 RMK T11601200 IEM_DS3505
ZBHH,2007-01-21 00:00,ZBHH 210000Z AUTO 11004KT 19SM M11/M17 A3042 RMK SLP393 T11071174 52014 IEM_DS3505
ZBHH,2007-01-21 01:00,ZBHH 210100Z AUTO 07004KT 6SM M15/M19 A3045 RMK T11501190 IEM_DS3505
ZBHH,2007-01-21 02:00,ZBHH 210200Z AUTO 00000KT 6SM M11/M17 A3045 RMK T11101170 IEM_DS3505
ZBHH,2007-01-21 03:00,ZBHH 210300Z AUTO 04004KT 19SM M06/M17 A3042 RMK SLP385 T10581169 57001 IEM_DS3505
ZBHH,2007-01-21 04:00,ZBHH 210400Z AUTO 00000KT 6SM M06/M16 A3039 RMK T10601160 IEM_DS3505
ZBHH,2007-01-21 05:00,ZBHH 210500Z AUTO 02002KT 6SM M05/M17 A3036 RMK T10501170 IEM_DS3505
ZBHH,2007-01-21 06:00,ZBHH 210600Z AUTO 16002KT 19SM M01/M17 A3036 RMK SLP349 T10121174 57023 IEM_DS3505
ZBHH,2007-01-21 07:00,ZBHH 210700Z AUTO 14002KT 6SM M02/M17 A3033 RMK T10201170 IEM_DS3505
ZBHH,2007-01-21 08:00,ZBHH 210800Z AUTO 00000KT 6SM M02/M18 A3033 RMK T10201180 IEM_DS3505
ZBHH,2007-01-21 09:00,ZBHH 210900Z AUTO 20002KT 19SM M01/M18 A3033 RMK SLP343 T10131183 57006 IEM_DS3505
ZBHH,2007-01-21 10:00,ZBHH 211000Z AUTO 35002KT 6SM M04/M18 A3033 RMK T10401180 IEM_DS3505
ZBHH,2007-01-21 11:00,ZBHH 211100Z AUTO 03006KT 6SM M07/M16 A3033 RMK T10701160 IEM_DS3505
ZBHH,2007-01-21 12:00,ZBHH 211200Z AUTO 29002KT 19SM M05/M15 A3036 RMK SLP364 T10501148 52003 IEM_DS3505
ZBHH,2007-01-21 13:00,ZBHH 211300Z AUTO 09004KT 6SM M10/M15 A3036 RMK T11001150 IEM_DS3505
ZBHH,2007-01-21 14:00,ZBHH 211400Z AUTO 07002KT 6SM M10/M15 A3036 RMK T11001150 IEM_DS3505
ZBHH,2007-01-21 15:00,ZBHH 211500Z AUTO 34002KT 19SM M08/M15 A3036 RMK SLP364 T10761146 52006 IEM_DS3505
ZBHH,2007-01-21 16:00,ZBHH 211600Z AUTO 10002KT 6SM M11/M16 A3039 RMK T11101160 IEM_DS3505
ZBHH,2007-01-21 17:00,ZBHH 211700Z AUTO 10006KT 6SM M10/M16 A3036 RMK T11001160 IEM_DS3505
ZBHH,2007-01-21 18:00,ZBHH 211800Z AUTO 04002KT 19SM M07/M15 A3036 RMK SLP352 T10721149 54000 IEM_DS3505
ZBHH,2007-01-21 19:00,ZBHH 211900Z AUTO 03002KT 6SM M11/M16 A3033 RMK T11101160 IEM_DS3505
ZBHH,2007-01-21 20:00,ZBHH 212000Z AUTO 08002KT M12/M16 A3033 RMK T11201160 IEM_DS3505
ZBHH,2007-01-21 21:00,ZBHH 212100Z AUTO 09002KT 12SM M07/M15 A3033 RMK SLP337 T10681148 57012 IEM_DS3505
ZBHH,2007-01-21 22:00,ZBHH 212200Z AUTO 07004KT 6SM M10/M16 A3033 RMK T11001160 IEM_DS3505
ZBHH,2007-01-21 23:00,ZBHH 212300Z AUTO 11006KT 6SM M10/M16 A3033 RMK T11001160 IEM_DS3505
ZBHH,2007-01-22 00:00,ZBHH 220000Z AUTO 11002KT 9SM M08/M16 A3033 RMK SLP357 T10851159 52005 IEM_DS3505
ZBHH,2007-01-22 01:00,ZBHH 220100Z AUTO 07002KT 4SM M11/M16 A3033 RMK T11101160 IEM_DS3505
ZBHH,2007-01-22 02:00,ZBHH 220200Z AUTO 10004KT 6SM M08/M16 A3036 RMK T10801160 IEM_DS3505
ZBHH,2007-01-22 03:00,ZBHH 220300Z AUTO 04002KT 7SM M01/M18 A3036 RMK SLP351 T10141176 52005 IEM_DS3505
ZBHH,2007-01-22 04:00,ZBHH 220400Z AUTO 04002KT 6SM M03/M17 A3033 RMK T10301170 IEM_DS3505
ZBHH,2007-01-22 05:00,ZBHH 220500Z AUTO 06002KT 6SM M01/M17 A3033 RMK T10101170 IEM_DS3505
ZBHH,2007-01-22 06:00,ZBHH 220600Z AUTO 04002KT 12SM 02/M17 A3030 RMK SLP321 T00171172 57018 IEM_DS3505
ZBHH,2007-01-22 07:00,ZBHH 220700Z AUTO 30002KT 6SM 00/M16 A3027 RMK T00001160 IEM_DS3505
ZBHH,2007-01-22 08:00,ZBHH 220800Z AUTO 30002KT 6SM 00/M17 A3027 RMK T00001170 IEM_DS3505
ZBHH,2007-01-22 09:00,ZBHH 220900Z AUTO 36002KT 9SM 01/M17 A3030 RMK SLP320 T00111172 57002 IEM_DS3505
ZBHH,2007-01-22 10:00,ZBHH 221000Z AUTO 03002KT 4SM M02/M17 A3030 RMK T10201170 IEM_DS3505
ZBHH,2007-01-22 11:00,ZBHH 221100Z AUTO 03008KT 4SM M05/M15 A3033 RMK T10501150 IEM_DS3505
ZBHH,2007-01-22 12:00,ZBHH 221200Z AUTO 06002KT 7SM M04/M14 A3033 RMK SLP349 T10371142 52011 IEM_DS3505
ZBHH,2007-01-22 13:00,ZBHH 221300Z AUTO 09004KT 4SM M08/M15 A3033 RMK T10801150 IEM_DS3505
ZBHH,2007-01-22 14:00,ZBHH 221400Z AUTO 09004KT 5SM M09/M14 A3036 RMK T10901140 IEM_DS3505
ZBHH,2007-01-22 15:00,ZBHH 221500Z AUTO 09002KT 19SM M06/M14 A3036 RMK SLP345 T10641142 52007 IEM_DS3505
ZBHH,2007-01-22 16:00,ZBHH 221600Z AUTO 08004KT 6SM M11/M16 A3036 RMK T11101160 IEM_DS3505
ZBHH,2007-01-22 17:00,ZBHH 221700Z AUTO 10004KT 6SM M13/M17 A3036 RMK T11301170 IEM_DS3505
ZBHH,2007-01-22 18:00,ZBHH 221800Z AUTO 09002KT 19SM M07/M15 A3036 RMK SLP342 T10691149 52003 IEM_DS3505
ZBHH,2007-01-22 19:00,ZBHH 221900Z AUTO 08002KT 6SM M12/M17 A3036 RMK T11201170 IEM_DS3505
ZBHH,2007-01-22 20:00,ZBHH 222000Z AUTO 08004KT 6SM M12/M17 A3036 RMK T11201170 IEM_DS3505
ZBHH,2007-01-22 21:00,ZBHH 222100Z AUTO 09002KT 19SM M09/M16 A3036 RMK SLP343 T10891157 57005 IEM_DS3505
ZBHH,2007-01-22 22:00,ZBHH 222200Z AUTO 00000KT 6SM M14/M17 A3033 RMK T11401170 IEM_DS3505
ZBHH,2007-01-22 23:00,ZBHH 222300Z AUTO 03002KT 6SM M15/M18 A3036 RMK T11501180 IEM_DS3505
ZBHH,2007-01-23 00:00,ZBHH 230000Z AUTO 09002KT 12SM M10/M15 A3036 RMK SLP366 T11021153 52006 IEM_DS3505
ZBHH,2007-01-23 01:00,ZBHH 230100Z AUTO 08002KT 6SM M13/M17 A3039 RMK T11301170 IEM_DS3505
ZBHH,2007-01-23 02:00,ZBHH 230200Z AUTO 08006KT 6SM M08/M15 A3039 RMK T10801150 IEM_DS3505
ZBHH,2007-01-23 03:00,ZBHH 230300Z AUTO 11004KT 12SM M03/M15 A3039 RMK SLP364 T10331153 52008 IEM_DS3505
ZBHH,2007-01-23 04:00,ZBHH 230400Z AUTO 13002KT 6SM M03/M15 A3036 RMK T10301150 IEM_DS3505
ZBHH,2007-01-23 05:00,ZBHH 230500Z AUTO 00000KT 6SM M01/M15 A3033 RMK T10101150 IEM_DS3505
ZBHH,2007-01-23 06:00,ZBHH 230600Z AUTO 09002KT 12SM 01/M16 A3033 RMK SLP329 T00141160 57021 IEM_DS3505
ZBHH,2007-01-23 07:00,ZBHH 230700Z AUTO 24002KT 6SM 00/M15 A3033 RMK T00001150 IEM_DS3505
ZBHH,2007-01-23 08:00,ZBHH 230800Z AUTO 25002KT 2 1/2SM 00/M13 A3030 RMK T00001130 IEM_DS3505
ZBHH,2007-01-23 09:00,ZBHH 230900Z AUTO 04002KT 5SM 00/M14 A3030 RMK SLP332 T00051139 57004 IEM_DS3505
ZBHH,2007-01-23 10:00,ZBHH 231000Z AUTO 00000KT 2 1/2SM M03/M12 A3033 RMK T10301120 IEM_DS3505
ZBHH,2007-01-23 12:00,ZBHH 231200Z AUTO 27002KT 4SM M01/M12 A3033 RMK SLP350 T10121119 52009 IEM_DS3505
ZBHH,2007-01-23 13:00,ZBHH 231300Z AUTO 27002KT 1 1/2SM M06/M12 A3033 RMK T10601120 IEM_DS3505
ZBHH,2007-01-23 14:00,ZBHH 231400Z AUTO 22004KT 1 1/2SM M07/M12 A3036 RMK T10701120 IEM_DS3505
ZBHH,2007-01-23 15:00,ZBHH 231500Z AUTO 22004KT 12SM M04/M11 A3033 RMK SLP341 T10421114 52001 IEM_DS3505
ZBHH,2007-01-23 16:00,ZBHH 231600Z AUTO 17002KT 2 1/2SM M08/M12 A3033 RMK T10801120 IEM_DS3505
ZBHH,2007-01-23 17:00,ZBHH 231700Z AUTO 08004KT 4SM M07/M12 A3033 RMK T10701120 IEM_DS3505
ZBHH,2007-01-23 18:00,ZBHH 231800Z AUTO 14002KT 19SM M05/M12 A3030 RMK SLP329 T10531121 57003 IEM_DS3505
ZBHH,2007-01-23 19:00,ZBHH 231900Z AUTO 02002KT 4SM M09/M13 A3033 RMK T10901130 IEM_DS3505
ZBHH,2007-01-23 20:00,ZBHH 232000Z AUTO 02006KT 4SM M09/M16 A3033 RMK T10901160 IEM_DS3505
ZBHH,2007-01-23 21:00,ZBHH 232100Z AUTO 20002KT 19SM M08/M16 A3033 RMK SLP333 T10831162 57005 IEM_DS3505
ZBHH,2007-01-23 22:00,ZBHH 232200Z AUTO 03004KT 6SM M10/M17 A3033 RMK T11001170 IEM_DS3505
ZBHH,2007-01-23 23:00,ZBHH 232300Z AUTO 08004KT 6SM M12/M17 A3033 RMK T11201170 IEM_DS3505
ZBHH,2007-01-24 00:00,ZBHH 240000Z AUTO 09006KT 12SM M10/M16 A3036 RMK SLP352 T10971160 52010 IEM_DS3505
ZBHH,2007-01-24 01:00,ZBHH 240100Z AUTO 11006KT 5SM M12/M16 A3036 RMK T11201160 IEM_DS3505
ZBHH,2007-01-24 02:00,ZBHH 240200Z AUTO 14004KT 6SM M10/M17 A3036 RMK T11001170 IEM_DS3505
ZBHH,2007-01-24 03:00,ZBHH 240300Z AUTO 09004KT 19SM M06/M16 A3036 RMK SLP352 T10611156 52001 IEM_DS3505
ZBHH,2007-01-24 04:00,ZBHH 240400Z AUTO 20002KT 6SM M07/M16 A3033 RMK T10701160 IEM_DS3505
ZBHH,2007-01-24 05:00,ZBHH 240500Z AUTO 23004KT 6SM M06/M15 A3030 RMK T10601150 IEM_DS3505
ZBHH,2007-01-24 06:00,ZBHH 240600Z AUTO 22004KT 6SM M03/M15 A3027 RMK SLP321 T10321149 57023 IEM_DS3505
ZBHH,2007-01-24 07:00,ZBHH 240700Z AUTO 28002KT 4SM M04/M15 A3027 RMK T10401150 IEM_DS3505
ZBHH,2007-01-24 08:00,ZBHH 240800Z AUTO 25004KT 6SM M04/M15 A3024 RMK T10401150 IEM_DS3505
ZBHH,2007-01-24 09:00,ZBHH 240900Z AUTO 22004KT 12SM M04/M16 A3024 RMK SLP321 T10351158 57007 IEM_DS3505
ZBHH,2007-01-24 10:00,ZBHH 241000Z AUTO 22004KT 4SM M06/M16 A3027 RMK T10601160 IEM_DS3505
ZBHH,2007-01-24 11:00,ZBHH 241100Z AUTO 19002KT 4SM M08/M15 A3027 RMK T10801150 IEM_DS3505
ZBHH,2007-01-24 12:00,ZBHH 241200Z AUTO 04002KT 19SM M06/M15 A3027 RMK SLP334 T10581146 52003 IEM_DS3505
ZBHH,2007-01-24 13:00,ZBHH 241300Z AUTO 07002KT 4SM M11/M16 A3027 RMK T11101160 IEM_DS3505
ZBHH,2007-01-24 14:00,ZBHH 241400Z AUTO 05002KT 4SM M11/M16 A3027 RMK T11101160 IEM_DS3505
ZBHH,2007-01-24 15:00,ZBHH 241500Z AUTO 09004KT 19SM M08/M15 A3024 RMK SLP322 T10761146 57007 IEM_DS3505
ZBHH,2007-01-24 16:00,ZBHH 241600Z AUTO 10004KT 4SM M13/M17 A3024 RMK T11301170 IEM_DS3505
ZBHH,2007-01-24 18:00,ZBHH 241800Z AUTO 08004KT 12SM M10/M16 A3021 RMK SLP308 T10961157 57010 IEM_DS3505
ZBHH,2007-01-24 19:00,ZBHH 241900Z AUTO 09004KT 4SM M13/M17 A3021 RMK T11301170 IEM_DS3505
ZBHH,2007-01-24 20:00,ZBHH 242000Z AUTO 08004KT 4SM M13/M17 A3018 RMK T11301170 IEM_DS3505
ZBHH,2007-01-24 21:00,ZBHH 242100Z AUTO 11002KT 12SM M09/M16 A3018 RMK SLP297 T10931156 57010 IEM_DS3505
ZBHH,2007-01-24 22:00,ZBHH 242200Z AUTO 09004KT 4SM M13/M17 A3015 RMK T11301170 IEM_DS3505
ZBHH,2007-01-24 23:00,ZBHH 242300Z AUTO 00000KT 4SM M12/M16 A3015 RMK T11201160 IEM_DS3505
ZBHH,2007-01-25 00:00,ZBHH 250000Z AUTO 09004KT 9SM M09/M16 A3018 RMK SLP301 T10871157 54000 IEM_DS3505
ZBHH,2007-01-25 01:00,ZBHH 250100Z AUTO 19002KT 4SM M12/M16 A3018 RMK T11201160 IEM_DS3505
ZBHH,2007-01-25 02:00,ZBHH 250200Z AUTO 00000KT 4SM M10/M16 A3018 RMK T11001160 IEM_DS3505
ZBHH,2007-01-25 03:00,ZBHH 250300Z AUTO 32008KT 12SM M07/M18 A3018 RMK SLP309 T10661177 52008 IEM_DS3505
ZBHH,2007-01-25 04:00,ZBHH 250400Z AUTO 33008KT 7SM M08/M17 A3018 RMK T10801170 IEM_DS3505
ZBHH,2007-01-25 05:00,ZBHH 250500Z AUTO 34012KT 7SM M09/M18 A3018 RMK T10901180 IEM_DS3505
ZBHH,2007-01-25 06:00,ZBHH 250600Z AUTO 32008KT 12SM M07/M19 A3018 RMK SLP314 T10731186 57002 IEM_DS3505
ZBHH,2007-01-25 07:00,ZBHH 250700Z AUTO 33012KT 7SM M09/M20 A3021 RMK T10901200 IEM_DS3505
ZBHH,2007-01-25 08:00,ZBHH 250800Z AUTO 33008KT 7SM M09/M19 A3021 RMK T10901190 IEM_DS3505
ZBHH,2007-01-25 09:00,ZBHH 250900Z AUTO 29004KT 19SM M08/M18 A3024 RMK SLP338 T10831184 52019 IEM_DS3505
ZBHH,2007-01-25 10:00,ZBHH 251000Z AUTO 35008KT 7SM M11/M19 A3027 RMK T11101190 IEM_DS3505
ZBHH,2007-01-25 11:00,ZBHH 251100Z AUTO 34006KT 7SM M11/M19 A3030 RMK T11101190 IEM_DS3505
ZBHH,2007-01-25 12:00,ZBHH 251200Z AUTO 25004KT 19SM M10/M18 A3033 RMK SLP368 T11051182 52023 IEM_DS3505
ZBHH,2007-01-25 13:00,ZBHH 251300Z AUTO 01004KT 7SM M12/M19 A3033 RMK T11201190 IEM_DS3505
ZBHH,2007-01-25 14:00,ZBHH 251400Z AUTO 07004KT 7SM M13/M18 A3033 RMK T11301180 IEM_DS3505
ZBHH,2007-01-25 15:00,ZBHH 251500Z AUTO 34004KT 19SM M10/M18 A3033 RMK SLP365 T11041175 52002 IEM_DS3505
ZBHH,2007-01-25 16:00,ZBHH 251600Z AUTO 00000KT 6SM M14/M19 A3033 RMK T11401190 IEM_DS3505
ZBHH,2007-01-25 17:00,ZBHH 251700Z AUTO 07002KT 6SM M14/M19 A3033 RMK T11401190 IEM_DS3505
ZBHH,2007-01-25 18:00,ZBHH 251800Z AUTO 27004KT 19SM M12/M18 A3033 RMK SLP369 T11221176 57002 IEM_DS3505
ZBHH,2007-01-25 19:00,ZBHH 251900Z AUTO 00000KT 6SM M16/M20 A3033 RMK T11601200 IEM_DS3505
ZBHH,2007-01-25 20:00,ZBHH 252000Z AUTO 08004KT 6SM M17/M20 A3030 RMK T11701200 IEM_DS3505
ZBHH,2007-01-25 21:00,ZBHH 252100Z AUTO 14002KT 19SM M13/M18 A3030 RMK SLP362 T11311179 57011 IEM_DS3505
ZBHH,2007-01-25 22:00,ZBHH 252200Z AUTO 13002KT 6SM M19/M21 A3030 RMK T11901210 IEM_DS3505
ZBHH,2007-01-25 23:00,ZBHH 252300Z AUTO 08004KT 6SM M19/M22 A3030 RMK T11901220 IEM_DS3505
ZBHH,2007-01-26 00:00,ZBHH 260000Z AUTO 07004KT 19SM M14/M19 A3027 RMK SLP364 T11401191 57005 IEM_DS3505
ZBHH,2007-01-26 01:00,ZBHH 260100Z AUTO 00000KT 5SM M16/M20 A3027 RMK T11601200 IEM_DS3505
ZBHH,2007-01-26 02:00,ZBHH 260200Z AUTO 36002KT 4SM M15/M19 A3027 RMK T11501190 IEM_DS3505
ZBHH,2007-01-26 03:00,ZBHH 260300Z AUTO 20002KT 9SM M09/M17 A3027 RMK SLP347 T10931171 57004 IEM_DS3505
ZBHH,2007-01-26 04:00,ZBHH 260400Z AUTO 03002KT 6SM M10/M17 A3024 RMK T11001170 IEM_DS3505
ZBHH,2007-01-26 05:00,ZBHH 260500Z AUTO 16002KT 6SM M09/M17 A3021 RMK T10901170 IEM_DS3505
ZBHH,2007-01-26 07:00,ZBHH 260700Z AUTO 32002KT 7SM M08/M16 A3018 RMK T10801160 IEM_DS3505
ZBHH,2007-01-26 08:00,ZBHH 260800Z AUTO 31002KT 5SM M08/M15 A3018 RMK T10801150 IEM_DS3505
ZBHH,2007-01-26 09:00,ZBHH 260900Z AUTO 25004KT 6SM M07/M15 A3018 RMK SLP321 T10691151 54000 IEM_DS3505
ZBHH,2007-01-26 10:00,ZBHH 261000Z AUTO 24004KT 6SM M09/M17 A3021 RMK T10901170 IEM_DS3505
ZBHH,2007-01-26 11:00,ZBHH 261100Z AUTO 16002KT 5SM M09/M16 A3024 RMK T10901160 IEM_DS3505
ZBHH,2007-01-26 12:00,ZBHH 261200Z AUTO 32002KT 9SM M07/M15 A3024 RMK SLP345 T10741151 52018 IEM_DS3505
ZBHH,2007-01-26 13:00,ZBHH 261300Z AUTO 23002KT 4SM M09/M16 A3027 RMK T10901160 IEM_DS3505
ZBHH,2007-01-26 14:00,ZBHH 261400Z AUTO 04002KT 7SM M09/M16 A3027 RMK T10901160 IEM_DS3505
ZBHH,2007-01-26 15:00,ZBHH 261500Z AUTO 32006KT 12SM M07/M14 A3027 RMK SLP342 T10701137 52009 IEM_DS3505
ZBHH,2007-01-26 16:00,ZBHH 261600Z AUTO 28002KT 7SM M10/M15 A3030 RMK T11001150 IEM_DS3505
ZBHH,2007-01-26 17:00,ZBHH 261700Z AUTO 34014KT 6SM M10/M18 A3030 RMK T11001180 IEM_DS3505
ZBHH,2007-01-26 18:00,ZBHH 261800Z AUTO 29010KT 12SM M09/M17 A3030 RMK SLP356 T10921172 52013 IEM_DS3505
ZBHH,2007-01-26 19:00,ZBHH 261900Z AUTO 36010G19KT 6SM M11/M19 A3033 RMK T11101190 IEM_DS3505
ZBHH,2007-01-26 20:00,ZBHH 262000Z AUTO 36010KT 6SM M11/M19 A3033 RMK T11101190 IEM_DS3505
ZBHH,2007-01-26 21:00,ZBHH 262100Z AUTO 29004KT 12SM M10/M18 A3033 RMK SLP366 T11021182 52006 IEM_DS3505
ZBHH,2007-01-26 22:00,ZBHH 262200Z AUTO 36008KT 6SM M12/M19 A3036 RMK T11201190 IEM_DS3505
ZBHH,2007-01-26 23:00,ZBHH 262300Z AUTO 35006KT 6SM M13/M20 A3036 RMK T11301200 IEM_DS3505
ZBHH,2007-01-27 00:00,ZBHH 270000Z AUTO 34006KT 16SM M11/M20 A3039 RMK SLP391 T11141202 52018 IEM_DS3505
ZBHH,2007-01-27 01:00,ZBHH 270100Z AUTO 36006KT 7SM M13/M21 A3042 RMK T11301210 IEM_DS3505
ZBHH,2007-01-27 02:00,ZBHH 270200Z AUTO 01006KT 7SM M13/M21 A3045 RMK T11301210 IEM_DS3505
ZBHH,2007-01-27 03:00,ZBHH 270300Z AUTO 32008KT 19SM M10/M20 A3047 RMK SLP411 T10971199 52022 IEM_DS3505
ZBHH,2007-01-27 04:00,ZBHH 270400Z AUTO 02010KT 6SM M11/M20 A3047 RMK T11101200 IEM_DS3505
ZBHH,2007-01-27 05:00,ZBHH 270500Z AUTO 02010KT 6SM M10/M19 A3045 RMK T11001190 IEM_DS3505
ZBHH,2007-01-27 06:00,ZBHH 270600Z AUTO 34008KT 19SM M06/M16 A3045 RMK SLP399 T10561165 57006 IEM_DS3505
ZBHH,2007-01-27 07:00,ZBHH 270700Z AUTO 36008KT 6SM M08/M17 A3045 RMK T10801170 IEM_DS3505
ZBHH,2007-01-27 08:00,ZBHH 270800Z AUTO 34008KT 6SM M07/M17 A3047 RMK T10701170 IEM_DS3505
ZBHH,2007-01-27 09:00,ZBHH 270900Z AUTO 18004KT 19SM M05/M18 A3045 RMK SLP404 T10511179 52003 IEM_DS3505
ZBHH,2007-01-27 10:00,ZBHH 271000Z AUTO 02004KT 6SM M09/M16 A3047 RMK T10901160 IEM_DS3505
ZBHH,2007-01-27 11:00,ZBHH 271100Z AUTO 02002KT 6SM M10/M17 A3047 RMK T11001170 IEM_DS3505
ZBHH,2007-01-27 12:00,ZBHH 271200Z AUTO 32002KT 19SM M07/M18 A3047 RMK SLP420 T10741178 52006 IEM_DS3505
ZBHH,2007-01-27 13:00,ZBHH 271300Z AUTO 05002KT 6SM M13/M18 A3047 RMK T11301180 IEM_DS3505
ZBHH,2007-01-27 14:00,ZBHH 271400Z AUTO 11002KT 6SM M14/M19 A3047 RMK T11401190 IEM_DS3505
ZBHH,2007-01-27 15:00,ZBHH 271500Z AUTO 25002KT 19SM M10/M17 A3045 RMK SLP411 T11001171 57010 IEM_DS3505
ZBHH,2007-01-27 16:00,ZBHH 271600Z AUTO 36002KT 6SM M15/M19 A3045 RMK T11501190 IEM_DS3505
ZBHH,2007-01-27 18:00,ZBHH 271800Z AUTO 04004KT 19SM M12/M18 RMK SLP386 T11181182 57016 IEM_DS3505
ZBHH,2007-01-27 21:00,ZBHH 272100Z AUTO 09002KT 19SM M12/M18 RMK SLP361 T11241182 57022 IEM_DS3505
ZBHH,2007-01-27 23:00,ZBHH 272300Z AUTO 09004KT 6SM M19/M22 A3030 RMK T11901220 IEM_DS3505
ZBHH,2007-01-28 00:00,ZBHH 280000Z AUTO 04002KT 9SM M14/M18 A3030 RMK SLP356 T11351185 57013 IEM_DS3505
ZBHH,2007-01-28 01:00,ZBHH 280100Z AUTO 10002KT 6SM M16/M20 A3027 RMK T11601200 IEM_DS3505
ZBHH,2007-01-28 02:00,ZBHH 280200Z AUTO 10004KT 6SM M13/M18 A3027 RMK T11301180 IEM_DS3505
ZBHH,2007-01-28 03:00,ZBHH 280300Z AUTO 04002KT 19SM M08/M17 A3024 RMK SLP339 T10841170 57009 IEM_DS3505
ZBHH,2007-01-28 04:00,ZBHH 280400Z AUTO 00000KT 6SM M08/M17 A3021 RMK T10801170 IEM_DS3505
ZBHH,2007-01-28 05:00,ZBHH 280500Z AUTO 00000KT 6SM M07/M17 A3015 RMK T10701170 IEM_DS3505
ZBHH,2007-01-28 06:00,ZBHH 280600Z AUTO 22004KT 19SM M04/M18 A3012 RMK SLP289 T10441176 57038 IEM_DS3505
ZBHH,2007-01-28 07:00,ZBHH 280700Z AUTO 27004KT 6SM M05/M18 A3009 RMK T10501180 IEM_DS3505
ZBHH,2007-01-28 08:00,ZBHH 280800Z AUTO 28004KT 6SM M04/M18 A3006 RMK T10401180 IEM_DS3505
ZBHH,2007-01-28 09:00,ZBHH 280900Z AUTO 18002KT 19SM M03/M17 A3006 RMK SLP264 T10331173 57021 IEM_DS3505
ZBHH,2007-01-28 10:00,ZBHH 281000Z AUTO 03004KT 6SM M06/M18 A3003 RMK T10601180 IEM_DS3505
ZBHH,2007-01-28 11:00,ZBHH 281100Z AUTO 08002KT 6SM M07/M17 A3003 RMK T10701170 IEM_DS3505
ZBHH,2007-01-28 12:00,ZBHH 281200Z AUTO 20002KT 16SM M04/M17 A3003 RMK SLP264 T10441172 57005 IEM_DS3505
ZBHH,2007-01-28 13:00,ZBHH 281300Z AUTO 08002KT 4SM M08/M17 A3003 RMK T10801170 IEM_DS3505
ZBHH,2007-01-28 14:00,ZBHH 281400Z AUTO 08002KT 5SM M08/M17 A3003 RMK T10801170 IEM_DS3505
ZBHH,2007-01-28 15:00,ZBHH 281500Z AUTO 34002KT 19SM M06/M17 A3003 RMK SLP251 T10601166 57003 IEM_DS3505
ZBHH,2007-01-28 16:00,ZBHH 281600Z AUTO 04002KT 4SM M10/M16 A3003 RMK T11001160 IEM_DS3505
ZBHH,2007-01-28 17:00,ZBHH 281700Z AUTO 07004KT M12/M17 A3003 RMK T11201170 IEM_DS3505
ZBHH,2007-01-28 18:00,ZBHH 281800Z AUTO 03004KT 9SM M08/M15 A3003 RMK SLP250 T10831151 52003 IEM_DS3505
ZBHH,2007-01-28 19:00,ZBHH 281900Z AUTO 11002KT 4SM M14/M19 A3003 RMK T11401190 IEM_DS3505
ZBHH,2007-01-28 20:00,ZBHH 282000Z AUTO 15002KT 4SM M13/M18 A3006 RMK T11301180 IEM_DS3505
ZBHH,2007-01-28 21:00,ZBHH 282100Z AUTO 25004KT 6SM M07/M15 A3006 RMK SLP252 T10701147 52007 IEM_DS3505
ZBHH,2007-01-28 22:00,ZBHH 282200Z AUTO 6SM M11/M18 A3006 RMK T11101180 IEM_DS3505
ZBHH,2007-01-28 23:00,ZBHH 282300Z AUTO 01006KT 6SM M08/M15 A3012 RMK T10801150 IEM_DS3505
ZBHH,2007-01-29 00:00,ZBHH 290000Z AUTO 25004G19KT 19SM M05/M13 A3015 RMK SLP283 T10541126 52028 IEM_DS3505
ZBHH,2007-01-29 01:00,ZBHH 290100Z AUTO 35014G23KT 7SM M08/M14 A3018 RMK T10801140 IEM_DS3505
ZBHH,2007-01-29 02:00,ZBHH 290200Z AUTO 34010KT 7SM M08/M15 A3021 RMK T10801150 IEM_DS3505
ZBHH,2007-01-29 03:00,ZBHH 290300Z AUTO 32010G21KT 19SM M05/M17 A3024 RMK SLP324 T10501174 52033 IEM_DS3505
ZBHH,2007-01-29 04:00,ZBHH 290400Z AUTO 35010KT 7SM M07/M17 A3027 RMK T10701170 IEM_DS3505
ZBHH,2007-01-29 05:00,ZBHH 290500Z AUTO 34012G23KT 7SM M07/M20 A3030 RMK T10701200 IEM_DS3505
ZBHH,2007-01-29 06:00,ZBHH 290600Z AUTO 29010G19KT 19SM M05/M22 A3030 RMK SLP340 T10501216 52009 IEM_DS3505
ZBHH,2007-01-29 07:00,ZBHH 290700Z AUTO 36012G23KT 6SM M07/M22 A3030 RMK T10701220 IEM_DS3505
ZBHH,2007-01-29 08:00,ZBHH 290800Z AUTO 01008G19KT 6SM M07/M24 A3030 RMK T10701240 IEM_DS3505
ZBHH,2007-01-29 09:00,ZBHH 290900Z AUTO 29010KT 19SM M06/M28 A3033 RMK SLP353 T10581283 52012 IEM_DS3505
ZBHH,2007-01-29 10:00,ZBHH 291000Z AUTO 34006KT 6SM M09/M27 A3036 RMK T10901270 IEM_DS3505
ZBHH,2007-01-29 11:00,ZBHH 291100Z AUTO 32008KT 6SM M10/M29 A3036 RMK T11001290 IEM_DS3505
ZBHH,2007-01-29 12:00,ZBHH 291200Z AUTO 34008KT 19SM M09/M28 A3039 RMK SLP378 T10911280 52018 IEM_DS3505
ZBHH,2007-01-29 13:00,ZBHH 291300Z AUTO 30002KT 6SM M12/M28 A3039 RMK T11201280 IEM_DS3505
ZBHH,2007-01-29 14:00,ZBHH 291400Z AUTO 22002KT 6SM M11/M27 A3039 RMK T11101270 IEM_DS3505
ZBHH,2007-01-29 15:00,ZBHH 291500Z AUTO 02002KT 19SM M10/M26 A3039 RMK SLP382 T10951263 52004 IEM_DS3505
ZBHH,2007-01-29 16:00,ZBHH 291600Z AUTO 31002KT 6SM M11/M27 A3039 RMK T11101270 IEM_DS3505
ZBHH,2007-01-29 17:00,ZBHH 291700Z AUTO 00000KT 6SM M14/M26 A3039 RMK T11401260 IEM_DS3505
ZBHH,2007-01-29 18:00,ZBHH 291800Z AUTO 27002KT 19SM M11/M26 A3039 RMK SLP375 T11131262 57010 IEM_DS3505
ZBHH,2007-01-29 19:00,ZBHH 291900Z AUTO 11004KT 6SM M18/M26 A3036 RMK T11801260 IEM_DS3505
ZBHH,2007-01-29 20:00,ZBHH 292000Z AUTO 12004KT 6SM M18/M27 A3036 RMK T11801270 IEM_DS3505
ZBHH,2007-01-29 21:00,ZBHH 292100Z AUTO 10002KT 19SM M14/M25 A3033 RMK SLP369 T11371253 57013 IEM_DS3505
ZBHH,2007-01-29 22:00,ZBHH 292200Z AUTO 09004KT 6SM M19/M26 A3033 RMK T11901260 IEM_DS3505
ZBHH,2007-01-29 23:00,ZBHH 292300Z AUTO 09004KT 6SM M20/M27 A3030 RMK T12001270 IEM_DS3505
ZBHH,2007-01-30 00:00,ZBHH 300000Z AUTO 04004KT 19SM M15/M25 A3030 RMK SLP376 T11521252 57005 IEM_DS3505
ZBHH,2007-01-30 01:00,ZBHH 300100Z AUTO 09004KT 6SM M17/M26 A3030 RMK T11701260 IEM_DS3505
ZBHH,2007-01-30 02:00,ZBHH 300200Z AUTO 10002KT 6SM M15/M26 A3030 RMK T11501260 IEM_DS3505
ZBHH,2007-01-30 03:00,ZBHH 300300Z AUTO 02002KT 16SM M10/M24 A3030 RMK SLP355 T11001236 57007 IEM_DS3505
ZBHH,2007-01-30 04:00,ZBHH 300400Z AUTO 17002KT 6SM M10/M25 A3027 RMK T11001250 IEM_DS3505
ZBHH,2007-01-30 05:00,ZBHH 300500Z AUTO 26004KT 6SM M09/M24 A3021 RMK T10901240 IEM_DS3505
ZBHH,2007-01-30 06:00,ZBHH 300600Z AUTO 34002KT 12SM M06/M23 A3018 RMK SLP311 T10581227 57033 IEM_DS3505
ZBHH,2007-01-30 08:00,ZBHH 300800Z AUTO 08004KT 6SM M06/M22 A3015 RMK T10601220 IEM_DS3505
ZBHH,2007-01-30 09:00,ZBHH 300900Z AUTO 04004KT 9SM M04/M21 A3012 RMK SLP295 T10381210 57015 IEM_DS3505
ZBHH,2007-01-30 10:00,ZBHH 301000Z AUTO 08006KT 6SM M06/M21 A3012 RMK T10601210 IEM_DS3505
ZBHH,2007-01-30 11:00,ZBHH 301100Z AUTO 07002KT 6SM M07/M20 A3012 RMK T10701200 IEM_DS3505
ZBHH,2007-01-30 12:00,ZBHH 301200Z AUTO 36004KT 6SM M04/M20 A3012 RMK SLP303 T10441198 52002 IEM_DS3505
ZBHH,2007-01-30 13:00,ZBHH 301300Z AUTO 00000KT 4SM M07/M20 A3015 RMK T10701200 IEM_DS3505
ZBHH,2007-01-30 14:00,ZBHH 301400Z AUTO 33006KT 4SM M08/M17 A3018 RMK T10801170 IEM_DS3505
ZBHH,2007-01-30 15:00,ZBHH 301500Z AUTO 34004KT 12SM M04/M13 A3024 RMK SLP325 T10451131 52031 IEM_DS3505
ZBHH,2007-01-30 16:00,ZBHH 301600Z AUTO 36006KT 6SM M07/M13 A3024 RMK T10701130 IEM_DS3505
ZBHH,2007-01-30 17:00,ZBHH 301700Z AUTO 36010G21KT 6SM M09/M15 A3030 RMK T10901150 IEM_DS3505
ZBHH,2007-01-30 18:00,ZBHH 301800Z AUTO 04006KT 19SM M08/M18 A3036 RMK SLP357 T10771178 52030 IEM_DS3505
ZBHH,2007-01-30 19:00,ZBHH 301900Z AUTO 34014KT 6SM M12/M19 A3039 RMK T11201190 IEM_DS3505
ZBHH,2007-01-30 20:00,ZBHH 302000Z AUTO 35010G19KT 6SM M13/M21 A3042 RMK T11301210 IEM_DS3505
ZBHH,2007-01-30 21:00,ZBHH 302100Z AUTO 02002KT 19SM M12/M21 A3045 RMK SLP404 T11211209 52036 IEM_DS3505
ZBHH,2007-01-30 22:00,ZBHH 302200Z AUTO 35016G25KT 6SM M15/M23 A3047 RMK T11501230 IEM_DS3505
ZBHH,2007-01-30 23:00,ZBHH 302300Z AUTO 35014KT 6SM M16/M22 A3050 RMK T11601220 IEM_DS3505
ZBHH,2007-01-31 00:00,ZBHH 310000Z AUTO 22002G21KT 19SM M14/M22 A3053 RMK SLP444 T11381225 52029 IEM_DS3505
ZBHH,2007-01-31 01:00,ZBHH 310100Z AUTO 36012KT 6SM M14/M24 A3056 RMK T11401240 IEM_DS3505
ZBHH,2007-01-31 02:00,ZBHH 310200Z AUTO 35012KT 6SM M13/M24 A3059 RMK T11301240 IEM_DS3505
ZBHH,2007-01-31 03:00,ZBHH 310300Z AUTO 32006G21KT 12SM M10/M22 A3059 RMK SLP456 T10951221 52021 IEM_DS3505
ZBHH,2007-01-31 04:00,ZBHH 310400Z AUTO 35010KT 6SM M11/M23 A3059 RMK T11101230 IEM_DS3505
ZBHH,2007-01-31 05:00,ZBHH 310500Z AUTO 03008KT 6SM M09/M23 A3059 RMK T10901230 IEM_DS3505
ZBHH,2007-01-31 06:00,ZBHH 310600Z AUTO 22006KT 19SM M04/M24 A3056 RMK SLP431 T10411243 57017 IEM_DS3505
ZBHH,2007-01-31 07:00,ZBHH 310700Z AUTO 28010KT 6SM M05/M23 A3053 RMK T10501230 IEM_DS3505
ZBHH,2007-01-31 08:00,ZBHH 310800Z AUTO 22006KT 6SM M05/M23 A3053 RMK T10501230 IEM_DS3505
ZBHH,2007-01-31 09:00,ZBHH 310900Z AUTO 22006KT 19SM M04/M21 A3053 RMK SLP429 T10391211 57012 IEM_DS3505
ZBHH,2007-01-31 10:00,ZBHH 311000Z AUTO 25010KT 6SM M06/M21 A3050 RMK T10601210 IEM_DS3505
ZBHH,2007-01-31 11:00,ZBHH 311100Z AUTO 25006KT 6SM M06/M21 A3047 RMK T10601210 IEM_DS3505
ZBHH,2007-01-31 12:00,ZBHH 311200Z AUTO 22004KT 19SM M06/M18 A3047 RMK SLP421 T10581185 57015 IEM_DS3505
ZBHH,2007-01-31 13:00,ZBHH 311300Z AUTO 24002KT 6SM M09/M19 A3047 RMK T10901190 IEM_DS3505
ZBHH,2007-01-31 14:00,ZBHH 311400Z AUTO 00000KT 6SM M11/M20 A3047 RMK T11101200 IEM_DS3505
ZBHH,2007-01-31 15:00,ZBHH 311500Z AUTO 11002KT 19SM M08/M18 A3045 RMK SLP406 T10801178 57008 IEM_DS3505
ZBHH,2007-01-31 16:00,ZBHH 311600Z AUTO 06004KT 6SM M12/M20 A3045 RMK T11201200 IEM_DS3505
ZBHH,2007-01-31 17:00,ZBHH 311700Z AUTO 12004KT 6SM M13/M20 A3042 RMK T11301200 IEM_DS3505
ZBHH,2007-01-31 18:00,ZBHH 311800Z AUTO 07004KT 19SM M10/M19 A3042 RMK SLP387 T11031187 57010 IEM_DS3505
ZBHH,2007-01-31 19:00,ZBHH 311900Z AUTO 08006KT 6SM M16/M21 A3039 RMK T11601210 IEM_DS3505
ZBHH,2007-01-31 20:00,ZBHH 312000Z AUTO 00000KT 6SM M16/M21 A3039 RMK T11601210 IEM_DS3505
ZBHH,2007-01-31 21:00,ZBHH 312100Z AUTO 04004KT 19SM M11/M18 A3036 RMK SLP370 T11091178 57015 IEM_DS3505
ZBHH,2007-01-31 22:00,ZBHH 312200Z AUTO 12002KT 6SM M16/M21 A3036 RMK T11601210 IEM_DS3505
ZBHH,2007-01-31 23:00,ZBHH 312300Z AUTO 00000KT 6SM M16/M21 A3036 RMK T11601210 IEM_DS3505
ZBHH,2007-02-01 00:00,ZBHH 010000Z AUTO 06002KT 9SM M12/M17 A3036 RMK SLP381 T11181174 52003 IEM_DS3505
ZBHH,2007-02-01 01:00,ZBHH 010100Z AUTO 00000KT 6SM M13/M18 A3039 RMK T11301180 IEM_DS3505
ZBHH,2007-02-01 02:00,ZBHH 010200Z AUTO 23002KT 6SM M09/M17 A3039 RMK T10901170 IEM_DS3505
ZBHH,2007-02-01 03:00,ZBHH 010300Z AUTO 16004KT 9SM M05/M16 A3039 RMK SLP379 T10491161 52009 IEM_DS3505
ZBHH,2007-02-01 04:00,ZBHH 010400Z AUTO 26004KT 6SM M04/M15 A3039 RMK T10401150 IEM_DS3505
ZBHH,2007-02-01 05:00,ZBHH 010500Z AUTO 25006KT 6SM M03/M15 A3036 RMK T10301150 IEM_DS3505
ZBHH,2007-02-01 06:00,ZBHH 010600Z AUTO 22004KT 12SM 00/M15 A3036 RMK SLP354 T00021149 57016 IEM_DS3505
ZBHH,2007-02-01 07:00,ZBHH 010700Z AUTO 28008KT 6SM 00/M15 A3036 RMK T00001150 IEM_DS3505
ZBHH,2007-02-01 08:00,ZBHH 010800Z AUTO 26004KT 6SM 00/M15 A3033 RMK T00001150 IEM_DS3505
ZBHH,2007-02-01 09:00,ZBHH 010900Z AUTO 22002KT 19SM 01/M14 A3033 RMK SLP349 T00081144 57004 IEM_DS3505
ZBHH,2007-02-01 10:00,ZBHH 011000Z AUTO 24002KT 4SM M02/M15 A3033 RMK T10201150 IEM_DS3505
ZBHH,2007-02-01 11:00,ZBHH 011100Z AUTO 06002KT 3SM M03/M14 A3036 RMK T10301140 IEM_DS3505
ZBHH,2007-02-01 12:00,ZBHH 011200Z AUTO 04002KT 19SM M03/M14 A3036 RMK SLP367 T10261137 52006 IEM_DS3505
ZBHH,2007-02-01 13:00,ZBHH 011300Z AUTO 06002KT 4SM M07/M14 A3036 RMK T10701140 IEM_DS3505
ZBHH,2007-02-01 14:00,ZBHH 011400Z AUTO 11002KT 4SM M09/M15 A3036 RMK T10901150 IEM_DS3505
ZBHH,2007-02-01 15:00,ZBHH 011500Z AUTO 11002KT 19SM M06/M13 A3036 RMK SLP355 T10611134 57003 IEM_DS3505
ZBHH,2007-02-01 16:00,ZBHH 011600Z AUTO 06002KT 4SM M10/M15 A3036 RMK T11001150 IEM_DS3505
ZBHH,2007-02-01 17:00,ZBHH 011700Z AUTO 08004KT 4SM M12/M16 A3033 RMK T11201160 IEM_DS3505
ZBHH,2007-02-01 18:00,ZBHH 011800Z AUTO 09002KT 19SM M08/M14 A3033 RMK SLP338 T10831139 57008 IEM_DS3505
ZBHH,2007-02-01 19:00,ZBHH 011900Z AUTO 10004KT 4SM M13/M17 A3033 RMK T11301170 IEM_DS3505
ZBHH,2007-02-01 20:00,ZBHH 012000Z AUTO 09006KT 4SM M12/M16 A3030 RMK T11201160 IEM_DS3505
ZBHH,2007-02-01 21:00,ZBHH 012100Z AUTO 07002KT 19SM M09/M14 A3030 RMK SLP324 T10931145 57013 IEM_DS3505
ZBHH,2007-02-01 22:00,ZBHH 012200Z AUTO 09002KT 6SM M12/M16 A3027 RMK T11201160 IEM_DS3505
ZBHH,2007-02-01 23:00,ZBHH 012300Z 08001MPS CAVOK M13/M17 Q1025 NOSIG
ZBHH,2007-02-02 00:00,ZBHH 020000Z 08001MPS CAVOK M13/M17 Q1025 NOSIG
ZBHH,2007-02-02 01:00,ZBHH 020100Z AUTO 09004KT 5SM M11/M15 A3024 RMK T11101150 IEM_DS3505
ZBHH,2007-02-02 02:00,ZBHH 020200Z AUTO 09002KT 6SM M07/M14 A3024 RMK T10701140 IEM_DS3505
ZBHH,2007-02-02 03:00,ZBHH 020300Z AUTO 07002KT 9SM M01/M15 A3024 RMK SLP304 T10131148 57010 IEM_DS3505
ZBHH,2007-02-02 04:00,ZBHH 020400Z AUTO 00000KT 6SM M01/M15 A3021 RMK T10101150 IEM_DS3505
ZBHH,2007-02-02 05:00,ZBHH 020500Z AUTO 00000KT 6SM 00/M15 A3015 RMK T00001150 IEM_DS3505
ZBHH,2007-02-02 06:00,ZBHH 020600Z AUTO 22004KT 12SM 02/M15 A3012 RMK SLP261 T00221149 57035 IEM_DS3505
ZBHH,2007-02-02 07:00,ZBHH 020700Z AUTO 25004KT 6SM 02/M15 A3009 RMK T00201150 IEM_DS3505
ZBHH,2007-02-02 08:00,ZBHH 020800Z AUTO 26002KT 6SM 03/M15 A3009 RMK T00301150 IEM_DS3505
ZBHH,2007-02-02 09:00,ZBHH 020900Z AUTO 07002KT 12SM 03/M14 A3006 RMK SLP245 T00321145 57014 IEM_DS3505
ZBHH,2007-02-02 10:00,ZBHH 021000Z AUTO 05002KT 3SM M01/M15 A3006 RMK T10101150 IEM_DS3505
ZBHH,2007-02-02 11:00,ZBHH 021100Z AUTO 03004KT 3SM M03/M14 A3006 RMK T10301140 IEM_DS3505
ZBHH,2007-02-02 12:00,ZBHH 021200Z AUTO 02002KT 9SM M02/M13 A3009 RMK SLP264 T10231129 52003 IEM_DS3505
ZBHH,2007-02-02 13:00,ZBHH 021300Z AUTO 00000KT 3SM M07/M15 A3009 RMK T10701150 IEM_DS3505
ZBHH,2007-02-02 14:00,ZBHH 021400Z AUTO 00000KT 4SM M08/M15 A3012 RMK T10801150 IEM_DS3505
ZBHH,2007-02-02 16:00,ZBHH 021600Z AUTO 36004KT 6SM M06/M16 A3012 RMK T10601160 IEM_DS3505
ZBHH,2007-02-02 17:00,ZBHH 021700Z AUTO 34004KT 6SM M03/M17 A3015 RMK T10301170 IEM_DS3505
ZBHH,2007-02-02 18:00,ZBHH 021800Z AUTO 36006KT 19SM M01/M16 A3018 RMK SLP263 T10141160 52018 IEM_DS3505
ZBHH,2007-02-02 19:00,ZBHH 021900Z AUTO 08004KT 6SM M07/M17 A3021 RMK T10701170 IEM_DS3505
ZBHH,2007-02-02 20:00,ZBHH 022000Z AUTO 01004KT 6SM M06/M16 A3021 RMK T10601160 IEM_DS3505
ZBHH,2007-02-02 21:00,ZBHH 022100Z AUTO 32002KT 19SM M05/M15 A3021 RMK SLP284 T10461150 52013 IEM_DS3505
ZBHH,2007-02-02 22:00,ZBHH 022200Z AUTO 01004KT 6SM M09/M17 A3024 RMK T10901170 IEM_DS3505
ZBHH,2007-02-02 23:00,ZBHH 022300Z AUTO 10002KT 6SM M11/M18 A3024 RMK T11101180 IEM_DS3505
ZBHH,2007-02-03 00:00,ZBHH 030000Z AUTO 36002KT 19SM M07/M15 A3027 RMK SLP322 T10741153 52015 IEM_DS3505
ZBHH,2007-02-03 01:00,ZBHH 030100Z AUTO 08004KT 6SM M11/M17 A3030 RMK T11101170 IEM_DS3505
ZBHH,2007-02-03 02:00,ZBHH 030200Z AUTO 09004KT 6SM M06/M15 A3030 RMK T10601150 IEM_DS3505
ZBHH,2007-02-03 03:00,ZBHH 030300Z AUTO 07006KT 19SM M01/M17 A3030 RMK SLP308 T10121174 52008 IEM_DS3505
ZBHH,2007-02-03 04:00,ZBHH 030400Z AUTO 13002KT 6SM M01/M19 A3030 RMK T10101190 IEM_DS3505
ZBHH,2007-02-03 05:00,ZBHH 030500Z AUTO 18002KT 6SM 02/M17 A3027 RMK T00201170 IEM_DS3505
ZBHH,2007-02-03 06:00,ZBHH 030600Z AUTO 09004KT 19SM 04/M21 A3024 RMK SLP281 T00371206 57017 IEM_DS3505
ZBHH,2007-02-03 07:00,ZBHH 030700Z AUTO 04002KT 6SM 03/M18 A3018 RMK T00301180 IEM_DS3505
ZBHH,2007-02-03 08:00,ZBHH 030800Z AUTO 07002KT 6SM 04/M19 A3018 RMK T00401190 IEM_DS3505
ZBHH,2007-02-03 09:00,ZBHH 030900Z AUTO 02002KT 19SM 05/M20 A3012 RMK SLP252 T00481197 57030 IEM_DS3505
ZBHH,2007-02-03 10:00,ZBHH 031000Z AUTO 09004KT 6SM 00/M19 A3012 RMK T00001190 IEM_DS3505
ZBHH,2007-02-03 11:00,ZBHH 031100Z AUTO 09002KT 6SM M02/M19 A3012 RMK T10201190 IEM_DS3505
ZBHH,2007-02-03 12:00,ZBHH 031200Z AUTO 07002KT 12SM M02/M17 A3012 RMK SLP266 T10151168 57008 IEM_DS3505
ZBHH,2007-02-03 13:00,ZBHH 031300Z AUTO 01002KT 6SM M05/M19 A3009 RMK T10501190 IEM_DS3505
ZBHH,2007-02-03 14:00,ZBHH 031400Z AUTO 05004KT 6SM M07/M18 A3009 RMK T10701180 IEM_DS3505
ZBHH,2007-02-03 15:00,ZBHH 031500Z AUTO 36002KT 12SM M04/M17 A3006 RMK SLP242 T10381170 57012 IEM_DS3505
ZBHH,2007-02-03 16:00,ZBHH 031600Z AUTO 03006KT 6SM M07/M18 A3006 RMK T10701180 IEM_DS3505
ZBHH,2007-02-03 17:00,ZBHH 031700Z AUTO 6SM M06/M19 A3006 RMK T10601190 IEM_DS3505
ZBHH,2007-02-03 18:00,ZBHH 031800Z AUTO 04002KT 12SM M05/M17 A3003 RMK SLP226 T10531168 57007 IEM_DS3505
ZBHH,2007-02-03 19:00,ZBHH 031900Z AUTO 04002KT 6SM M10/M18 A3003 RMK T11001180 IEM_DS3505
ZBHH,2007-02-03 20:00,ZBHH 032000Z AUTO 06002KT M12/M19 A3003 RMK T11201190 IEM_DS3505
ZBHH,2007-02-03 21:00,ZBHH 032100Z AUTO 32002KT 9SM M07/M16 A3000 RMK SLP213 T10701157 57013 IEM_DS3505
ZBHH,2007-02-03 22:00,ZBHH 032200Z AUTO 09004KT 6SM M13/M19 A3000 RMK T11301190 IEM_DS3505
ZBHH,2007-02-03 23:00,ZBHH 032300Z AUTO 10004KT 6SM M13/M19 A2997 RMK T11301190 IEM_DS3505
ZBHH,2007-02-04 00:00,ZBHH 040000Z AUTO 07002KT 7SM M08/M16 A3000 RMK SLP224 T10811165 57006 IEM_DS3505
ZBHH,2007-02-04 01:00,ZBHH 040100Z AUTO 07002KT 3SM M10/M17 A3000 RMK T11001170 IEM_DS3505
ZBHH,2007-02-04 02:00,ZBHH 040200Z AUTO 08002KT 3SM M05/M15 A2997 RMK T10501150 IEM_DS3505
ZBHH,2007-02-04 03:00,ZBHH 040300Z AUTO 09004KT 7SM 02/M17 A2997 RMK SLP202 T00211169 57002 IEM_DS3505
ZBHH,2007-02-04 04:00,ZBHH 040400Z AUTO 12002KT 5SM 02/M16 A2994 RMK T00201160 IEM_DS3505
ZBHH,2007-02-04 05:00,ZBHH 040500Z AUTO 24004KT 4SM 03/M16 A2991 RMK T00301160 IEM_DS3505
ZBHH,2007-02-04 06:00,ZBHH 040600Z AUTO 22006KT 12SM 05/M16 A2988 RMK SLP170 T00531165 57025 IEM_DS3505
ZBHH,2007-02-04 07:00,ZBHH 040700Z AUTO 27006KT 4SM 04/M15 A2988 RMK T00401150 IEM_DS3505
ZBHH,2007-02-04 08:00,ZBHH 040800Z AUTO 24004KT 4SM 05/M16 A2988 RMK T00501160 IEM_DS3505
ZBHH,2007-02-04 09:00,ZBHH 040900Z AUTO 18004KT 12SM 05/M16 A2988 RMK SLP167 T00481163 57007 IEM_DS3505
ZBHH,2007-02-04 10:00,ZBHH 041000Z AUTO 26002KT 4SM 02/M16 A2988 RMK T00201160 IEM_DS3505
ZBHH,2007-02-04 11:00,ZBHH 041100Z AUTO 06002KT 3SM M01/M15 A2988 RMK T10101150 IEM_DS3505
ZBHH,2007-02-04 12:00,ZBHH 041200Z AUTO 09002KT 19SM 01/M15 A2991 RMK SLP192 T00091147 52011 IEM_DS3505
ZBHH,2007-02-04 13:00,ZBHH 041300Z AUTO 12004KT 3SM M05/M14 A2991 RMK T10501140 IEM_DS3505
ZBHH,2007-02-04 14:00,ZBHH 041400Z AUTO 06002KT 3SM M06/M14 A2994 RMK T10601140 IEM_DS3505
ZBHH,2007-02-04 15:00,ZBHH 041500Z AUTO 36002KT 19SM M03/M14 A2994 RMK SLP188 T10301138 52010 IEM_DS3505
ZBHH,2007-02-04 16:00,ZBHH 041600Z AUTO 08006KT 4SM M08/M14 A2994 RMK T10801140 IEM_DS3505
ZBHH,2007-02-04 17:00,ZBHH 041700Z AUTO 06004KT 4SM M08/M14 A2994 RMK T10801140 IEM_DS3505
ZBHH,2007-02-04 18:00,ZBHH 041800Z AUTO 09002KT 19SM M04/M14 A2997 RMK SLP191 T10421141 52007 IEM_DS3505
ZBHH,2007-02-04 19:00,ZBHH 041900Z AUTO 08004KT 4SM M09/M15 A2997 RMK T10901150 IEM_DS3505
ZBHH,2007-02-04 20:00,ZBHH 042000Z AUTO 08002KT 4SM M09/M15 A2997 RMK T10901150 IEM_DS3505
ZBHH,2007-02-04 21:00,ZBHH 042100Z AUTO 11002KT 19SM M05/M14 A2997 RMK SLP195 T10461145 52002 IEM_DS3505
ZBHH,2007-02-04 22:00,ZBHH 042200Z AUTO 09006KT 4SM M11/M15 A2997 RMK T11101150 IEM_DS3505
ZBHH,2007-02-04 23:00,ZBHH 042300Z 00000MPS 7000 SKC M11/M16 Q1016 NOSIG
ZBHH,2007-02-05 00:00,ZBHH 050000Z 11002MPS 7000 SKC M11/M16 Q1017 NOSIG
ZBHH,2007-02-05 01:00,ZBHH 050100Z AUTO 09004KT 4SM M08/M15 A3006 RMK T10801150 IEM_DS3505
ZBHH,2007-02-05 02:00,ZBHH 050200Z AUTO 15004KT 5SM M04/M13 A3009 RMK T10401130 IEM_DS3505
ZBHH,2007-02-05 03:00,ZBHH 050300Z AUTO 11004KT 16SM 02/M13 A3009 RMK SLP236 T00251133 52012 IEM_DS3505
ZBHH,2007-02-05 04:00,ZBHH 050400Z AUTO 11004KT 6SM 02/M13 A3006 RMK T00201130 IEM_DS3505
ZBHH,2007-02-05 05:00,ZBHH 050500Z AUTO 11002KT 6SM 03/M13 A3006 RMK T00301130 IEM_DS3505
ZBHH,2007-02-05 06:00,ZBHH 050600Z AUTO 22004KT 19SM 07/M12 A3003 RMK SLP212 T00661125 57015 IEM_DS3505
ZBHH,2007-02-05 07:00,ZBHH 050700Z AUTO 26002KT 6SM 06/M13 A3003 RMK T00601130 IEM_DS3505
ZBHH,2007-02-05 08:00,ZBHH 050800Z AUTO 27004KT 6SM 06/M12 A3003 RMK T00601120 IEM_DS3505
ZBHH,2007-02-05 09:00,ZBHH 050900Z AUTO 25004KT 12SM 06/M13 A3006 RMK SLP222 T00591131 52007 IEM_DS3505
ZBHH,2007-02-05 10:00,ZBHH 051000Z AUTO 26004KT 4SM 02/M13 A3006 RMK T00201130 IEM_DS3505
ZBHH,2007-02-05 11:00,ZBHH 051100Z AUTO 33004KT 4SM 01/M13 A3009 RMK T00101130 IEM_DS3505
ZBHH,2007-02-05 12:00,ZBHH 051200Z AUTO 29002KT 12SM 01/M12 A3012 RMK SLP258 T00061118 52016 IEM_DS3505
ZBHH,2007-02-05 13:00,ZBHH 051300Z AUTO 05004KT 4SM M02/M12 A3012 RMK T10201120 IEM_DS3505
ZBHH,2007-02-05 14:00,ZBHH 051400Z AUTO 07006KT 5SM M04/M11 A3012 RMK T10401110 IEM_DS3505
ZBHH,2007-02-05 15:00,ZBHH 051500Z AUTO 07002KT 12SM M03/M12 A3012 RMK SLP250 T10261118 52005 IEM_DS3505
ZBHH,2007-02-05 17:00,ZBHH 051700Z AUTO 04002KT 6SM M06/M12 A3012 RMK T10601120 IEM_DS3505
ZBHH,2007-02-05 18:00,ZBHH 051800Z AUTO 09002KT 12SM M05/M11 A3012 RMK SLP246 T10481114 52001 IEM_DS3505
ZBHH,2007-02-05 19:00,ZBHH 051900Z AUTO 07004KT 6SM M06/M12 A3012 RMK T10601120 IEM_DS3505
ZBHH,2007-02-05 20:00,ZBHH 052000Z AUTO 08006KT 6SM M07/M13 A3012 RMK T10701130 IEM_DS3505
ZBHH,2007-02-05 21:00,ZBHH 052100Z AUTO 09002KT 19SM M06/M13 A3012 RMK SLP247 T10611126 57004 IEM_DS3505
ZBHH,2007-02-05 22:00,ZBHH 052200Z AUTO 08006KT 6SM M08/M13 A3012 RMK T10801130 IEM_DS3505
ZBHH,2007-02-05 23:00,ZBHH 052300Z AUTO 08004KT 6SM M09/M14 A3012 RMK T10901140 IEM_DS3505
ZBHH,2007-02-06 00:00,ZBHH 060000Z AUTO 09002KT 19SM M06/M12 A3015 RMK SLP268 T10611122 52007 IEM_DS3505
ZBHH,2007-02-06 01:00,ZBHH 060100Z AUTO 08004KT 6SM M06/M12 A3015 RMK T10601120 IEM_DS3505
ZBHH,2007-02-06 02:00,ZBHH 060200Z AUTO 08004KT 6SM M02/M12 A3015 RMK T10201120 IEM_DS3505
ZBHH,2007-02-06 03:00,ZBHH 060300Z AUTO 14002KT 9SM 03/M12 A3015 RMK SLP261 T00341121 52008 IEM_DS3505
ZBHH,2007-02-06 04:00,ZBHH 060400Z AUTO 31002KT 6SM 04/M12 A3015 RMK T00401120 IEM_DS3505
ZBHH,2007-02-06 05:00,ZBHH 060500Z AUTO 34002KT 6SM 06/M12 A3012 RMK T00601120 IEM_DS3505
ZBHH,2007-02-06 06:00,ZBHH 060600Z AUTO 16002KT 16SM 08/M13 A3009 RMK SLP230 T00811129 57022 IEM_DS3505
ZBHH,2007-02-06 07:00,ZBHH 060700Z AUTO 05002KT 6SM 07/M13 A3009 RMK T00701130 IEM_DS3505
ZBHH,2007-02-06 08:00,ZBHH 060800Z AUTO 06002KT 6SM 07/M13 A3009 RMK T00701130 IEM_DS3505
ZBHH,2007-02-06 09:00,ZBHH 060900Z AUTO 04002KT 16SM 08/M14 A3009 RMK SLP234 T00821141 52001 IEM_DS3505
ZBHH,2007-02-06 10:00,ZBHH 061000Z AUTO 36002KT 3SM 04/M14 A3012 RMK T00401140 IEM_DS3505
ZBHH,2007-02-06 11:00,ZBHH 061100Z AUTO 03008KT 6SM 02/M12 A3012 RMK T00201120 IEM_DS3505
ZBHH,2007-02-06 12:00,ZBHH 061200Z AUTO 10006KT 9SM 01/M12 A3012 RMK SLP261 T00061118 52007 IEM_DS3505
ZBHH,2007-02-06 13:00,ZBHH 061300Z AUTO 14002KT 6SM M01/M11 A3015 RMK T10101110 IEM_DS3505
ZBHH,2007-02-06 14:00,ZBHH 061400Z AUTO 09002KT 6SM M02/M11 A3015 RMK T10201110 IEM_DS3505
ZBHH,2007-02-06 15:00,ZBHH 061500Z AUTO 08002KT 9SM M00/M11 A3012 RMK SLP244 T10011106 52004 IEM_DS3505
ZBHH,2007-02-06 16:00,ZBHH 061600Z AUTO 08006KT 6SM M02/M12 A3012 RMK T10201120 IEM_DS3505
ZBHH,2007-02-06 17:00,ZBHH 061700Z AUTO 08006KT 6SM M01/M12 A3012 RMK T10101120 IEM_DS3505
ZBHH,2007-02-06 18:00,ZBHH 061800Z AUTO 09006KT 12SM M01/M10 A3009 RMK SLP227 T10131104 57007 IEM_DS3505
ZBHH,2007-02-06 19:00,ZBHH 061900Z AUTO 08008KT 6SM M01/M12 A3009 RMK T10101120 IEM_DS3505
ZBHH,2007-02-06 20:00,ZBHH 062000Z AUTO 07008KT 6SM 01/M12 A3006 RMK T00101120 IEM_DS3505
ZBHH,2007-02-06 21:00,ZBHH 062100Z AUTO 09002KT 5SM 00/M11 A3006 RMK SLP205 T00031114 57016 IEM_DS3505
ZBHH,2007-02-06 22:00,ZBHH 062200Z AUTO 09012KT 5SM 00/M13 A3003 RMK T00001130 IEM_DS3505
ZBHH,2007-02-06 23:00,ZBHH 062300Z AUTO 09010KT 5SM 01/M13 A3003 RMK T00101130 IEM_DS3505
ZBHH,2007-02-07 00:00,ZBHH 070000Z AUTO 09006KT 6SM 01/M04 A3009 RMK 60000 70000 SLP230 T00121039 52008 IEM_DS3505
ZBHH,2007-02-07 01:00,ZBHH 070100Z AUTO 09006KT 3/8SM M02/M02 A3009 RMK T10201020 IEM_DS3505
ZBHH,2007-02-07 02:00,ZBHH 070200Z AUTO 09008KT 3/8SM M03/M03 A3009 RMK T10301030 IEM_DS3505
ZBHH,2007-02-07 03:00,ZBHH 070300Z AUTO 09006KT 3SM M01/M02 A3009 RMK SLP243 T10091020 52005 IEM_DS3505
ZBHH,2007-02-07 04:00,ZBHH 070400Z AUTO 08008KT 1/2SM M02/M02 A3009 RMK T10201020 IEM_DS3505
ZBHH,2007-02-07 05:00,ZBHH 070500Z AUTO 07006KT 1/2SM M02/M02 A3006 RMK T10201020 IEM_DS3505
ZBHH,2007-02-07 06:00,ZBHH 070600Z AUTO 09004KT 3SM M00/M01 A3003 RMK 60035 SLP222 T10011012 57019 IEM_DS3505
ZBHH,2007-02-07 07:00,ZBHH 070700Z AUTO 09006KT 1SM M01/M01 A3003 RMK T10101010 IEM_DS3505
ZBHH,2007-02-07 08:00,ZBHH 070800Z AUTO 18002KT 1SM M01/M01 A3003 RMK T10101010 IEM_DS3505
ZBHH,2007-02-07 09:00,ZBHH 070900Z AUTO 09002KT 3SM 00/M00 A3006 RMK SLP221 T00051004 52004 IEM_DS3505
ZBHH,2007-02-07 10:00,ZBHH 071000Z AUTO 22004KT 1SM M01/M01 A3006 RMK T10101010 IEM_DS3505
ZBHH,2007-02-07 11:00,ZBHH 071100Z AUTO 23002KT 1SM M01/M01 A3009 RMK T10101010 IEM_DS3505
ZBHH,2007-02-07 12:00,ZBHH 071200Z AUTO 32008KT 19SM M03/M09 A3012 RMK 60020 SLP253 T10261087 52023 IEM_DS3505
ZBHH,2007-02-07 13:00,ZBHH 071300Z AUTO 34012KT 7SM M04/M08 A3015 RMK T10401080 IEM_DS3505
ZBHH,2007-02-07 14:00,ZBHH 071400Z AUTO 33008KT 7SM M05/M08 A3015 RMK T10501080 IEM_DS3505
ZBHH,2007-02-07 15:00,ZBHH 071500Z AUTO 29006KT 19SM M03/M10 A3018 RMK SLP277 T10331095 52015 IEM_DS3505
ZBHH,2007-02-07 16:00,ZBHH 071600Z AUTO 34008KT 7SM M06/M10 A3018 RMK T10601100 IEM_DS3505
ZBHH,2007-02-07 17:00,ZBHH 071700Z AUTO 34010KT 7SM M06/M10 A3021 RMK T10601100 IEM_DS3505
ZBHH,2007-02-07 18:00,ZBHH 071800Z AUTO 29002KT 19SM M05/M11 A3021 RMK SLP292 T10471109 52012 IEM_DS3505
ZBHH,2007-02-07 19:00,ZBHH 071900Z AUTO 33010KT 7SM M06/M11 A3021 RMK T10601110 IEM_DS3505
ZBHH,2007-02-07 20:00,ZBHH 072000Z AUTO 34012KT 6SM M06/M10 A3021 RMK T10601100 IEM_DS3505
ZBHH,2007-02-07 21:00,ZBHH 072100Z AUTO 32008KT 19SM M04/M10 A3024 RMK 70059 SLP292 T10421104 52002 IEM_DS3505
ZBHH,2007-02-07 22:00,ZBHH 072200Z AUTO 34006KT 6SM M06/M10 A3024 RMK T10601100 IEM_DS3505
ZBHH,2007-02-07 23:00,ZBHH 072300Z AUTO 19006KT 6SM M09/M11 A3024 RMK T10901110 IEM_DS3505
ZBHH,2007-02-08 00:00,ZBHH 080000Z AUTO 22004KT 9SM M06/M08 A3027 RMK 70059 SLP320 T10581082 52014 IEM_DS3505
ZBHH,2007-02-08 01:00,ZBHH 080100Z AUTO 11002KT 3SM M10/M11 A3030 RMK T11001110 IEM_DS3505
ZBHH,2007-02-08 02:00,ZBHH 080200Z AUTO 13002KT 4SM M08/M11 A3030 RMK T10801110 IEM_DS3505
ZBHH,2007-02-08 03:00,ZBHH 080300Z AUTO 07004KT 7SM M05/M09 A3030 RMK SLP331 T10511090 52010 IEM_DS3505
ZBHH,2007-02-08 04:00,ZBHH 080400Z AUTO 00000KT 4SM M06/M09 A3027 RMK T10601090 IEM_DS3505
ZBHH,2007-02-08 05:00,ZBHH 080500Z AUTO 10002KT 4SM M06/M09 A3027 RMK T10601090 IEM_DS3505
ZBHH,2007-02-08 06:00,ZBHH 080600Z AUTO 09004KT 7SM M02/M08 A3024 RMK SLP306 T10151078 57017 IEM_DS3505
ZBHH,2007-02-08 07:00,ZBHH 080700Z AUTO 17002KT 3SM M03/M08 A3024 RMK T10301080 IEM_DS3505
ZBHH,2007-02-08 08:00,ZBHH 080800Z AUTO 23004KT 2 1/2SM M03/M07 A3024 RMK T10301070 IEM_DS3505
ZBHH,2007-02-08 09:00,ZBHH 080900Z AUTO 27002KT 12SM M02/M08 A3024 RMK SLP304 T10201075 57002 IEM_DS3505
ZBHH,2007-02-08 10:00,ZBHH 081000Z AUTO 10006KT 3SM M06/M09 A3024 RMK T10601090 IEM_DS3505
ZBHH,2007-02-08 11:00,ZBHH 081100Z AUTO 11004KT 2SM M08/M10 A3024 RMK T10801100 IEM_DS3505
ZBHH,2007-02-08 12:00,ZBHH 081200Z AUTO 04002KT 6SM M05/M08 A3027 RMK SLP322 T10501084 52006 IEM_DS3505
ZBHH,2007-02-08 13:00,ZBHH 081300Z AUTO 06004KT 1 1/2SM M11/M12 A3024 RMK T11101120 IEM_DS3505
ZBHH,2007-02-08 14:00,ZBHH 081400Z AUTO 10002KT 1 1/2SM M14/M15 A3024 RMK T11401150 IEM_DS3505
ZBHH,2007-02-08 16:00,ZBHH 081600Z AUTO 07002KT 2SM A3024 RMK IEM_DS3505
ZBHH,2007-02-08 18:00,ZBHH 081800Z AUTO 07002KT 5SM M09/M11 A3021 RMK SLP305 T10901106 57010 IEM_DS3505
ZBHH,2007-02-08 19:00,ZBHH 081900Z AUTO 00000KT 2 1/2SM M12/M13 A3021 RMK T11201130 IEM_DS3505
ZBHH,2007-02-08 20:00,ZBHH 082000Z AUTO 00000KT 2 1/2SM M11/M13 A3021 RMK T11101130 IEM_DS3505
ZBHH,2007-02-08 21:00,ZBHH 082100Z AUTO 34002KT 4SM M06/M08 A3018 RMK SLP292 T10591085 57006 IEM_DS3505
ZBHH,2007-02-08 22:00,ZBHH 082200Z AUTO 00000KT 2 1/2SM M09/M10 A3018 RMK T10901100 IEM_DS3505
ZBHH,2007-02-08 23:00,ZBHH 082300Z AUTO 09002KT 2SM M08/M09 A3018 RMK T10801090 IEM_DS3505
ZBHH,2007-02-09 00:00,ZBHH 090000Z AUTO 04004KT 4SM M05/M07 A3018 RMK SLP297 T10541074 57001 IEM_DS3505
ZBHH,2007-02-09 01:00,ZBHH 090100Z AUTO 00000KT 1SM M07/M07 A3021 RMK T10701070 IEM_DS3505
ZBHH,2007-02-09 02:00,ZBHH 090200Z AUTO 19004KT 1 1/4SM M06/M07 A3021 RMK T10601070 IEM_DS3505
ZBHH,2007-02-09 03:00,ZBHH 090300Z AUTO 09004KT 9SM M03/M07 A3021 RMK SLP302 T10261071 52005 IEM_DS3505
ZBHH,2007-02-09 04:00,ZBHH 090400Z AUTO 20006KT 2SM M05/M06 A3021 RMK T10501060 IEM_DS3505
ZBHH,2007-02-09 05:00,ZBHH 090500Z AUTO 21008KT 2SM M04/M06 A3018 RMK T10401060 IEM_DS3505
ZBHH,2007-02-09 06:00,ZBHH 090600Z AUTO 32010KT 19SM 00/M10 A3018 RMK SLP291 T00011101 57007 IEM_DS3505
ZBHH,2007-02-09 07:00,ZBHH 090700Z AUTO 35006KT 6SM M02/M10 A3018 RMK T10201100 IEM_DS3505
ZBHH,2007-02-09 08:00,ZBHH 090800Z AUTO 35008KT 6SM M02/M11 A3021 RMK T10201110 IEM_DS3505
ZBHH,2007-02-09 09:00,ZBHH 090900Z AUTO 32006KT 19SM M00/M11 A3024 RMK SLP300 T10031114 52014 IEM_DS3505
ZBHH,2007-02-09 10:00,ZBHH 091000Z AUTO 36008KT 6SM M03/M11 A3024 RMK T10301110 IEM_DS3505
ZBHH,2007-02-09 11:00,ZBHH 091100Z AUTO 36006KT 6SM M04/M12 A3027 RMK T10401120 IEM_DS3505
ZBHH,2007-02-09 12:00,ZBHH 091200Z AUTO 32006KT 19SM M02/M12 A3027 RMK SLP316 T10251123 52010 IEM_DS3505
ZBHH,2007-02-09 13:00,ZBHH 091300Z AUTO 14002KT 6SM M07/M13 A3027 RMK T10701130 IEM_DS3505
ZBHH,2007-02-09 14:00,ZBHH 091400Z AUTO 07006KT 6SM M09/M14 A3030 RMK T10901140 IEM_DS3505
ZBHH,2007-02-09 15:00,ZBHH 091500Z AUTO 36004KT 19SM M05/M12 A3027 RMK SLP323 T10541121 52006 IEM_DS3505
ZBHH,2007-02-09 16:00,ZBHH 091600Z AUTO 34004KT 6SM M09/M15 A3027 RMK T10901150 IEM_DS3505
ZBHH,2007-02-09 17:00,ZBHH 091700Z AUTO 00000KT 6SM M14/M17 A3030 RMK T11401170 IEM_DS3505
ZBHH,2007-02-09 18:00,ZBHH 091800Z AUTO 25002KT 19SM M08/M13 A3030 RMK SLP324 T10761130 52002 IEM_DS3505
ZBHH,2007-02-09 19:00,ZBHH 091900Z AUTO 13002KT 6SM M18/M20 A3030 RMK T11801200 IEM_DS3505
ZBHH,2007-02-09 20:00,ZBHH 092000Z AUTO 11002KT 6SM A3027 RMK IEM_DS3505
ZBHH,2007-02-09 22:00,ZBHH 092200Z AUTO 07002KT 6SM M20/M23 A3027 RMK T12001230 IEM_DS3505
ZBHH,2007-02-09 23:00,ZBHH 092300Z 10001MPS CAVOK M21/M24 Q1025 NOSIG
ZBHH,2007-02-10 00:00,ZBHH 100000Z 00000MPS CAVOK M20/M23 Q1026 NOSIG
ZBHH,2007-02-10 01:00,ZBHH 100100Z AUTO 09002KT 6SM M15/M19 A3030 RMK T11501190 IEM_DS3505
ZBHH,2007-02-10 02:00,ZBHH 100200Z AUTO 10004KT 6SM M14/M18 A3030 RMK T11401180 IEM_DS3505
ZBHH,2007-02-10 03:00,ZBHH 100300Z AUTO 27002KT 6SM M06/M12 A3030 RMK SLP335 T10551125 54000 IEM_DS3505
ZBHH,2007-02-10 04:00,ZBHH 100400Z AUTO 09002KT 6SM M07/M13 A3027 RMK T10701130 IEM_DS3505
ZBHH,2007-02-10 05:00,ZBHH 100500Z AUTO 00000KT 6SM M05/M12 A3024 RMK T10501120 IEM_DS3505
ZBHH,2007-02-10 06:00,ZBHH 100600Z AUTO 22004KT 16SM M02/M11 A3021 RMK SLP307 T10231113 57022 IEM_DS3505
ZBHH,2007-02-10 07:00,ZBHH 100700Z AUTO 10002KT 6SM M04/M12 A3021 RMK T10401120 IEM_DS3505
ZBHH,2007-02-10 08:00,ZBHH 100800Z AUTO 15002KT 5SM M04/M11 A3021 RMK T10401110 IEM_DS3505
ZBHH,2007-02-10 09:00,ZBHH 100900Z AUTO 29002KT 19SM M02/M11 A3021 RMK SLP306 T10181111 57008 IEM_DS3505
ZBHH,2007-02-10 10:00,ZBHH 101000Z AUTO 10004KT 3SM M07/M12 A3018 RMK T10701120 IEM_DS3505
ZBHH,2007-02-10 11:00,ZBHH 101100Z AUTO 07004KT 2SM M10/M14 A3018 RMK T11001140 IEM_DS3505
ZBHH,2007-02-10 12:00,ZBHH 101200Z AUTO 07002KT 19SM M05/M11 A3018 RMK SLP315 T10521109 57002 IEM_DS3505
ZBHH,2007-02-10 13:00,ZBHH 101300Z AUTO 10006KT 2 1/2SM M15/M17 A3018 RMK T11501170 IEM_DS3505
ZBHH,2007-02-10 14:00,ZBHH 101400Z AUTO 08004KT 5SM M13/M16 A3018 RMK T11301160 IEM_DS3505
ZBHH,2007-02-10 15:00,ZBHH 101500Z AUTO 34002KT 19SM M09/M13 A3018 RMK SLP302 T10891127 57005 IEM_DS3505
ZBHH,2007-02-10 16:00,ZBHH 101600Z AUTO 08002KT 6SM M14/M17 A3018 RMK T11401170 IEM_DS3505
ZBHH,2007-02-10 17:00,ZBHH 101700Z AUTO 06002KT 6SM M15/M18 A3015 RMK T11501180 IEM_DS3505
ZBHH,2007-02-10 18:00,ZBHH 101800Z AUTO 07002KT 19SM M10/M13 A3015 RMK SLP283 T10981134 57011 IEM_DS3505
ZBHH,2007-02-10 19:00,ZBHH 101900Z AUTO 09006KT 6SM M16/M20 A3012 RMK T11601200 IEM_DS3505
ZBHH,2007-02-10 20:00,ZBHH 102000Z AUTO 09006KT 6SM M16/M19 A3012 RMK T11601190 IEM_DS3505
ZBHH,2007-02-10 21:00,ZBHH 102100Z AUTO 11002KT 19SM M11/M15 A3012 RMK SLP277 T11131150 57008 IEM_DS3505
ZBHH,2007-02-10 22:00,ZBHH 102200Z AUTO 07002KT 6SM M17/M19 A3012 RMK T11701190 IEM_DS3505
ZBHH,2007-02-10 23:00,ZBHH 102300Z AUTO 10004KT 6SM M18/M21 A3012 RMK T11801210 IEM_DS3505
ZBHH,2007-02-11 00:00,ZBHH 110000Z AUTO 07002KT 19SM M12/M15 A3012 RMK SLP286 T11181149 57001 IEM_DS3505
ZBHH,2007-02-11 01:00,ZBHH 110100Z AUTO 09006KT 4SM M15/M19 A3009 RMK T11501190 IEM_DS3505
ZBHH,2007-02-11 02:00,ZBHH 110200Z AUTO 09004KT 6SM M11/M16 A3009 RMK T11101160 IEM_DS3505
ZBHH,2007-02-11 03:00,ZBHH 110300Z AUTO 09002KT 19SM M03/M13 A3009 RMK SLP265 T10281134 57006 IEM_DS3505
ZBHH,2007-02-11 04:00,ZBHH 110400Z AUTO 12002KT 6SM M05/M12 A3006 RMK T10501120 IEM_DS3505
ZBHH,2007-02-11 05:00,ZBHH 110500Z AUTO 10002KT 6SM M04/M11 A3003 RMK T10401110 IEM_DS3505
ZBHH,2007-02-11 06:00,ZBHH 110600Z AUTO 04004KT 12SM M01/M11 A3000 RMK SLP232 T10061108 57026 IEM_DS3505
ZBHH,2007-02-11 07:00,ZBHH 110700Z AUTO 17002KT 4SM M02/M10 A3000 RMK T10201100 IEM_DS3505
ZBHH,2007-02-11 08:00,ZBHH 110800Z AUTO 11004KT 4SM M03/M09 A2997 RMK T10301090 IEM_DS3505
ZBHH,2007-02-11 09:00,ZBHH 110900Z AUTO 07002KT 12SM M01/M09 A2994 RMK SLP219 T10081094 57015 IEM_DS3505
ZBHH,2007-02-11 10:00,ZBHH 111000Z AUTO 10004KT 4SM M04/M09 A2994 RMK T10401090 IEM_DS3505
ZBHH,2007-02-11 11:00,ZBHH 111100Z AUTO 12002KT 4SM M06/M10 A2994 RMK T10601100 IEM_DS3505
ZBHH,2007-02-11 12:00,ZBHH 111200Z AUTO 07002KT 6SM M03/M09 A2994 RMK SLP222 T10311089 57004 IEM_DS3505
ZBHH,2007-02-11 13:00,ZBHH 111300Z AUTO 04002KT 2 1/2SM M09/M11 A2994 RMK T10901110 IEM_DS3505
ZBHH,2007-02-11 14:00,ZBHH 111400Z AUTO 00000KT 3SM M08/M11 A2994 RMK T10801110 IEM_DS3505
ZBHH,2007-02-11 15:00,ZBHH 111500Z AUTO 08002KT 6SM M06/M09 A2994 RMK SLP201 T10571094 57004 IEM_DS3505
ZBHH,2007-02-11 16:00,ZBHH 111600Z AUTO 11004KT 2 1/2SM M14/M16 A2991 RMK T11401160 IEM_DS3505
ZBHH,2007-02-11 17:00,ZBHH 111700Z AUTO 09004KT 4SM M13/M15 A2991 RMK T11301150 IEM_DS3505
ZBHH,2007-02-11 19:00,ZBHH 111900Z AUTO 10004KT 4SM M15/M17 A2991 RMK T11501170 IEM_DS3505
ZBHH,2007-02-11 20:00,ZBHH 112000Z AUTO 03002KT 4SM M14/M15 A2988 RMK T11401150 IEM_DS3505
ZBHH,2007-02-11 22:00,ZBHH 112200Z AUTO 00000KT 2 1/2SM M16/M18 A2991 RMK T11601180 IEM_DS3505
ZBHH,2007-02-11 23:00,ZBHH 112300Z AUTO 11002KT 2 1/2SM M18/M19 A2991 RMK T11801190 IEM_DS3505
ZBHH,2007-02-12 00:00,ZBHH 120000Z AUTO 02002KT 6SM M09/M11 A2991 RMK SLP206 T10871111 52006 IEM_DS3505
ZBHH,2007-02-12 01:00,ZBHH 120100Z AUTO 08002KT 2 1/2SM M14/M16 A2991 RMK T11401160 IEM_DS3505
ZBHH,2007-02-12 02:00,ZBHH 120200Z AUTO 09002KT 2 1/2SM M10/M13 A2991 RMK T11001130 IEM_DS3505
ZBHH,2007-02-12 03:00,ZBHH 120300Z AUTO 11002KT 6SM M01/M08 A2991 RMK SLP197 T10081085 52004 IEM_DS3505
ZBHH,2007-02-12 04:00,ZBHH 120400Z AUTO 00000KT 2 1/2SM M01/M07 A2991 RMK T10101070 IEM_DS3505
ZBHH,2007-02-12 05:00,ZBHH 120500Z AUTO 18002KT 2 1/2SM A2991 RMK IEM_DS3505
ZBHH,2007-02-12 06:00,ZBHH 120600Z AUTO 22006KT 6SM 00/M07 A2988 RMK SLP184 T00001071 57013 IEM_DS3505
ZBHH,2007-02-12 07:00,ZBHH 120700Z AUTO 19002KT 1 1/2SM M01/M06 A2988 RMK T10101060 IEM_DS3505
ZBHH,2007-02-12 08:00,ZBHH 120800Z AUTO 18002KT 1 1/2SM M02/M06 A2988 RMK T10201060 IEM_DS3505
ZBHH,2007-02-12 09:00,ZBHH 120900Z AUTO 25002KT 5SM M01/M07 A2988 RMK SLP189 T10101069 54000 IEM_DS3505
ZBHH,2007-02-12 10:00,ZBHH 121000Z AUTO 19002KT 1 1/2SM M03/M06 A2988 RMK T10301060 IEM_DS3505
ZBHH,2007-02-12 11:00,ZBHH 121100Z AUTO 22002KT 1 1/4SM M04/M07 A2991 RMK T10401070 IEM_DS3505
ZBHH,2007-02-12 12:00,ZBHH 121200Z AUTO 29002KT 5SM M02/M07 A2991 RMK SLP208 T10251074 52012 IEM_DS3505
ZBHH,2007-02-12 13:00,ZBHH 121300Z AUTO 10004KT 1 1/4SM M08/M09 A2991 RMK T10801090 IEM_DS3505
ZBHH,2007-02-12 14:00,ZBHH 121400Z AUTO 14002KT 1 1/4SM M09/M10 A2994 RMK T10901100 IEM_DS3505
ZBHH,2007-02-12 15:00,ZBHH 121500Z AUTO 04002KT 7SM M04/M07 A2994 RMK SLP192 T10431067 54000 IEM_DS3505
ZBHH,2007-02-12 16:00,ZBHH 121600Z AUTO 09004KT 1 1/2SM M13/M14 A2991 RMK T11301140 IEM_DS3505
ZBHH,2007-02-12 17:00,ZBHH 121700Z AUTO 04002KT M13/M15 A2994 RMK T11301150 IEM_DS3505
ZBHH,2007-02-12 19:00,ZBHH 121900Z AUTO 32002KT 1 1/2SM M13/M14 A2994 RMK T11301140 IEM_DS3505
ZBHH,2007-02-12 20:00,ZBHH 122000Z AUTO 00000KT 1 1/2SM M14/M15 A2997 RMK T11401150 IEM_DS3505
ZBHH,2007-02-12 21:00,ZBHH 122100Z AUTO 32010KT 9SM A3000 RMK SLP216 52021 IEM_DS3505
ZBHH,2007-02-12 22:00,ZBHH 122200Z AUTO 28008KT 6SM M06/M12 A3000 RMK T10601120 IEM_DS3505
ZBHH,2007-02-12 23:00,ZBHH 122300Z 31004MPS CAVOK M07/M13 Q1018 NOSIG
ZBHH,2007-02-13 00:00,ZBHH 130000Z 33002G07MPS CAVOK M08/M17 Q1020 NOSIG
ZBHH,2007-02-13 01:00,ZBHH 130100Z AUTO 33008KT 6SM M07/M17 A3015 RMK T10701170 IEM_DS3505
ZBHH,2007-02-13 02:00,ZBHH 130200Z AUTO 32012KT 6SM M08/M18 A3015 RMK T10801180 IEM_DS3505
ZBHH,2007-02-13 03:00,ZBHH 130300Z AUTO 32014G21KT 19SM M05/M20 A3018 RMK SLP296 T10511196 52026 IEM_DS3505
ZBHH,2007-02-13 04:00,ZBHH 130400Z AUTO 34014KT 6SM M06/M20 A3018 RMK T10601200 IEM_DS3505
ZBHH,2007-02-13 05:00,ZBHH 130500Z AUTO 34014G23KT 7SM M07/M16 A3021 RMK T10701160 IEM_DS3505
ZBHH,2007-02-13 06:00,ZBHH 130600Z AUTO 32010G23KT 19SM M05/M16 A3021 RMK SLP304 T10481160 52004 IEM_DS3505
ZBHH,2007-02-13 07:00,ZBHH 130700Z AUTO 35010KT 7SM M06/M14 A3021 RMK T10601140 IEM_DS3505
ZBHH,2007-02-13 08:00,ZBHH 130800Z AUTO 33012KT 7SM M06/M15 A3021 RMK T10601150 IEM_DS3505
ZBHH,2007-02-13 09:00,ZBHH 130900Z AUTO 32012KT 19SM M05/M18 A3021 RMK SLP302 T10481183 52005 IEM_DS3505
ZBHH,2007-02-13 10:00,ZBHH 131000Z AUTO 31014KT 7SM M08/M18 A3024 RMK T10801180 IEM_DS3505
ZBHH,2007-02-13 11:00,ZBHH 131100Z AUTO 34006KT 6SM M09/M18 A3027 RMK T10901180 IEM_DS3505
ZBHH,2007-02-13 12:00,ZBHH 131200Z AUTO 32006KT 19SM M07/M19 A3027 RMK SLP332 T10681194 52014 IEM_DS3505
ZBHH,2007-02-13 13:00,ZBHH 131300Z AUTO 00000KT 6SM M09/M20 A3027 RMK T10901200 IEM_DS3505
ZBHH,2007-02-13 14:00,ZBHH 131400Z AUTO 08002KT 6SM M12/M20 A3027 RMK T11201200 IEM_DS3505
ZBHH,2007-02-13 15:00,ZBHH 131500Z AUTO 29006KT 19SM M08/M22 A3030 RMK SLP340 T10811219 52007 IEM_DS3505
ZBHH,2007-02-13 16:00,ZBHH 131600Z AUTO 01004KT 6SM M13/M22 A3030 RMK T11301220 IEM_DS3505
ZBHH,2007-02-13 17:00,ZBHH 131700Z AUTO 34002KT 6SM M12/M23 A3030 RMK T11201230 IEM_DS3505
ZBHH,2007-02-13 18:00,ZBHH 131800Z AUTO 25002KT 19SM M10/M22 A3030 RMK SLP345 T10981215 52001 IEM_DS3505
ZBHH,2007-02-13 19:00,ZBHH 131900Z AUTO 10002KT 6SM M19/M23 A3030 RMK T11901230 IEM_DS3505
ZBHH,2007-02-13 20:00,ZBHH 132000Z AUTO 11002KT 6SM M20/M24 A3030 RMK T12001240 IEM_DS3505
ZBHH,2007-02-13 21:00,ZBHH 132100Z AUTO 11002KT 19SM A3030 RMK SLP348 57001 IEM_DS3505
ZBHH,2007-02-13 22:00,ZBHH 132200Z AUTO 10002KT 6SM M21/M25 A3030 RMK T12101250 IEM_DS3505
ZBHH,2007-02-13 23:00,ZBHH 132300Z AUTO 07004KT 6SM M20/M24 A3030 RMK T12001240 IEM_DS3505
ZBHH,2007-02-14 02:00,ZBHH 140200Z AUTO 11004KT 6SM M13/M20 A3030 RMK T11301200 IEM_DS3505
ZBHH,2007-02-14 03:00,ZBHH 140300Z AUTO 36004KT 19SM M07/M20 A3030 RMK SLP350 T10741196 52001 IEM_DS3505
ZBHH,2007-02-14 04:00,ZBHH 140400Z AUTO 21002KT 6SM M08/M19 A3030 RMK T10801190 IEM_DS3505
ZBHH,2007-02-14 05:00,ZBHH 140500Z AUTO 14002KT 6SM M07/M18 A3024 RMK T10701180 IEM_DS3505
ZBHH,2007-02-14 06:00,ZBHH 140600Z AUTO 20004KT 19SM M03/M19 A3021 RMK SLP311 T10341193 57029 IEM_DS3505
ZBHH,2007-02-14 07:00,ZBHH 140700Z AUTO 11002KT 6SM M06/M18 A3018 RMK T10601180 IEM_DS3505
ZBHH,2007-02-14 08:00,ZBHH 140800Z AUTO 10004KT 6SM M06/M17 A3018 RMK T10601170 IEM_DS3505
ZBHH,2007-02-14 09:00,ZBHH 140900Z AUTO 07004KT 19SM M04/M17 A3015 RMK SLP296 T10381170 57018 IEM_DS3505
ZBHH,2007-02-14 10:00,ZBHH 141000Z AUTO 08002KT 6SM M07/M18 A3015 RMK T10701180 IEM_DS3505
ZBHH,2007-02-14 11:00,ZBHH 141100Z AUTO 08002KT 6SM M09/M19 A3015 RMK T10901190 IEM_DS3505
ZBHH,2007-02-14 12:00,ZBHH 141200Z AUTO 34002KT 19SM M06/M16 A3012 RMK SLP295 T10591159 57009 IEM_DS3505
ZBHH,2007-02-14 13:00,ZBHH 141300Z AUTO 08006KT 6SM M13/M18 A3012 RMK T11301180 IEM_DS3505
ZBHH,2007-02-14 14:00,ZBHH 141400Z AUTO 08004KT 6SM M14/M19 A3009 RMK T11401190 IEM_DS3505
ZBHH,2007-02-14 16:00,ZBHH 141600Z AUTO 08004KT 6SM M14/M19 A3006 RMK T11401190 IEM_DS3505
ZBHH,2007-02-14 17:00,ZBHH 141700Z AUTO 08002KT 6SM M14/M19 A3006 RMK T11401190 IEM_DS3505
ZBHH,2007-02-14 18:00,ZBHH 141800Z AUTO 04002KT 19SM M10/M16 A3003 RMK SLP247 T10961155 57016 IEM_DS3505
ZBHH,2007-02-14 19:00,ZBHH 141900Z AUTO 08006KT 6SM M15/M20 A3000 RMK T11501200 IEM_DS3505
ZBHH,2007-02-14 20:00,ZBHH 142000Z AUTO 08004KT 6SM M15/M20 A2997 RMK T11501200 IEM_DS3505
ZBHH,2007-02-14 21:00,ZBHH 142100Z AUTO 02002KT 19SM M12/M17 A2997 RMK SLP231 T11151168 57019 IEM_DS3505
ZBHH,2007-02-14 22:00,ZBHH 142200Z AUTO 08006KT 6SM M15/M20 A2994 RMK T11501200 IEM_DS3505
ZBHH,2007-02-14 23:00,ZBHH 142300Z AUTO 09006KT 6SM M16/M20 A2994 RMK T11601200 IEM_DS3505
ZBHH,2007-02-15 00:00,ZBHH 150000Z 09002MPS CAVOK M15/M20 Q1015 NOSIG
ZBHH,2007-02-15 01:00,ZBHH 150100Z AUTO 07004KT 6SM M11/M17 A2997 RMK T11101170 IEM_DS3505
ZBHH,2007-02-15 02:00,ZBHH 150200Z AUTO 10002KT 6SM M09/M15 A2997 RMK T10901150 IEM_DS3505
ZBHH,2007-02-15 03:00,ZBHH 150300Z AUTO 11004KT 19SM 00/M16 A2994 RMK SLP206 T00031157 57007 IEM_DS3505
ZBHH,2007-02-15 04:00,ZBHH 150400Z AUTO 09002KT 6SM M01/M11 A2991 RMK T10101110 IEM_DS3505
ZBHH,2007-02-15 05:00,ZBHH 150500Z AUTO 13004KT 6SM 00/M13 A2988 RMK T00001130 IEM_DS3505
ZBHH,2007-02-15 06:00,ZBHH 150600Z AUTO 11006KT 19SM 03/M14 A2985 RMK SLP174 T00311141 57024 IEM_DS3505
ZBHH,2007-02-15 07:00,ZBHH 150700Z AUTO 00000KT 6SM 02/M15 A2985 RMK T00201150 IEM_DS3505
ZBHH,2007-02-15 08:00,ZBHH 150800Z AUTO 00000KT 6SM 03/M15 A2985 RMK T00301150 IEM_DS3505
ZBHH,2007-02-15 09:00,ZBHH 150900Z AUTO 07002KT 19SM 03/M14 A2985 RMK SLP174 T00271136 57005 IEM_DS3505
ZBHH,2007-02-15 10:00,ZBHH 151000Z AUTO 00000KT 6SM 00/M13 A2985 RMK T00001130 IEM_DS3505
ZBHH,2007-02-15 11:00,ZBHH 151100Z AUTO 17002KT 6SM M02/M09 A2988 RMK T10201090 IEM_DS3505
ZBHH,2007-02-15 12:00,ZBHH 151200Z AUTO 27002KT 19SM M00/M12 A2988 RMK SLP193 T10031120 52010 IEM_DS3505
ZBHH,2007-02-15 13:00,ZBHH 151300Z AUTO 03004KT 4SM M06/M10 A2988 RMK T10601100 IEM_DS3505
ZBHH,2007-02-15 14:00,ZBHH 151400Z AUTO 08002KT 4SM M08/M11 A2991 RMK T10801110 IEM_DS3505
ZBHH,2007-02-15 15:00,ZBHH 151500Z AUTO 04002KT 12SM M04/M09 A2991 RMK SLP181 T10391087 52007 IEM_DS3505
ZBHH,2007-02-15 16:00,ZBHH 151600Z AUTO 09002KT 4SM M11/M13 A2991 RMK T11101130 IEM_DS3505
ZBHH,2007-02-15 17:00,ZBHH 151700Z AUTO 10004KT 6SM M11/M13 A2991 RMK T11101130 IEM_DS3505
ZBHH,2007-02-15 21:00,ZBHH 152100Z AUTO 36002KT 12SM M07/M12 A2994 RMK SLP194 T10681117 52004 IEM_DS3505
ZBHH,2007-02-15 22:00,ZBHH 152200Z AUTO 11002KT 6SM M13/M15 A2994 RMK T11301150 IEM_DS3505
ZBHH,2007-02-15 23:00,ZBHH 152300Z AUTO 03002KT 4SM M13/M15 A2994 RMK T11301150 IEM_DS3505
ZBHH,2007-02-16 00:00,ZBHH 160000Z 09002MPS 6000 NSC M13/M15 Q1015 NOSIG
ZBHH,2007-02-16 01:00,ZBHH 160100Z AUTO 11002KT 3SM M11/M14 A2997 RMK T11101140 IEM_DS3505
ZBHH,2007-02-16 02:00,ZBHH 160200Z AUTO 10004KT 4SM M07/M12 A2997 RMK T10701120 IEM_DS3505
ZBHH,2007-02-16 03:00,ZBHH 160300Z AUTO 07002KT 12SM 00/M12 A3000 RMK SLP213 T00001117 52009 IEM_DS3505
ZBHH,2007-02-16 04:00,ZBHH 160400Z AUTO 00000KT 6SM 00/M10 A3000 RMK T00001100 IEM_DS3505
ZBHH,2007-02-16 05:00,ZBHH 160500Z AUTO 21002KT 4SM M01/M10 A2997 RMK T10101100 IEM_DS3505
ZBHH,2007-02-16 06:00,ZBHH 160600Z AUTO 22006KT 7SM 01/M10 A2997 RMK SLP205 T00081098 57009 IEM_DS3505
ZBHH,2007-02-16 07:00,ZBHH 160700Z AUTO 18002KT 3SM M01/M08 A2997 RMK T10101080 IEM_DS3505
ZBHH,2007-02-16 08:00,ZBHH 160800Z AUTO 11002KT 3SM M01/M07 A2997 RMK T10101070 IEM_DS3505
ZBHH,2007-02-16 09:00,ZBHH 160900Z AUTO 07002KT 7SM 02/M08 A2997 RMK SLP212 T00161085 52005 IEM_DS3505
ZBHH,2007-02-16 10:00,ZBHH 161000Z AUTO 12002KT 3SM M02/M07 A3000 RMK T10201070 IEM_DS3505
ZBHH,2007-02-16 11:00,ZBHH 161100Z AUTO 04002KT 2 1/2SM M04/M08 A3003 RMK T10401080 IEM_DS3505
ZBHH,2007-02-16 12:00,ZBHH 161200Z AUTO 02002KT 19SM M01/M08 A3006 RMK SLP243 T10131078 52020 IEM_DS3505
ZBHH,2007-02-16 13:00,ZBHH 161300Z AUTO 01008KT 6SM M01/M12 A3006 RMK T10101120 IEM_DS3505
ZBHH,2007-02-16 14:00,ZBHH 161400Z AUTO 02008G17KT 6SM M02/M12 A3009 RMK T10201120 IEM_DS3505
ZBHH,2007-02-16 15:00,ZBHH 161500Z AUTO 36008KT 19SM M00/M15 A3012 RMK SLP245 T10051148 52019 IEM_DS3505
ZBHH,2007-02-16 18:00,ZBHH 161800Z AUTO 29004KT 19SM M05/M17 RMK SLP264 T10471172 52009 IEM_DS3505
ZBHH,2007-02-16 20:00,ZBHH 162000Z AUTO 05006KT 6SM M09/M17 A3012 RMK T10901170 IEM_DS3505
ZBHH,2007-02-16 21:00,ZBHH 162100Z AUTO 34004KT 19SM M07/M20 A3012 RMK SLP263 T10701199 57004 IEM_DS3505
ZBHH,2007-02-16 22:00,ZBHH 162200Z AUTO 08004KT 6SM M10/M19 A3012 RMK T11001190 IEM_DS3505
ZBHH,2007-02-16 23:00,ZBHH 162300Z AUTO 06002KT 6SM M13/M19 A3012 RMK T11301190 IEM_DS3505
ZBHH,2007-02-17 00:00,ZBHH 170000Z AUTO 29002KT 19SM M08/M20 A3015 RMK SLP277 T10801205 52004 IEM_DS3505
ZBHH,2007-02-17 01:00,ZBHH 170100Z AUTO 10006KT 6SM M10/M17 A3015 RMK T11001170 IEM_DS3505
ZBHH,2007-02-17 02:00,ZBHH 170200Z AUTO 10006KT 6SM M08/M16 A3015 RMK T10801160 IEM_DS3505
ZBHH,2007-02-17 03:00,ZBHH 170300Z AUTO 11002KT 12SM M02/M20 A3015 RMK SLP265 T10251198 52003 IEM_DS3505
ZBHH,2007-02-17 04:00,ZBHH 170400Z AUTO 07002KT 6SM M04/M18 A3012 RMK T10401180 IEM_DS3505
ZBHH,2007-02-17 05:00,ZBHH 170500Z AUTO 00000KT 6SM M02/M20 A3009 RMK T10201200 IEM_DS3505
ZBHH,2007-02-17 06:00,ZBHH 170600Z AUTO 22006KT 12SM 00/M15 A3009 RMK SLP245 T00021153 57021 IEM_DS3505
ZBHH,2007-02-17 07:00,ZBHH 170700Z AUTO 17002KT 6SM 00/M19 A3006 RMK T00001190 IEM_DS3505
ZBHH,2007-02-17 08:00,ZBHH 170800Z AUTO 20002KT 6SM 00/M15 A3006 RMK T00001150 IEM_DS3505
ZBHH,2007-02-17 09:00,ZBHH 170900Z AUTO 25002KT 7SM 01/M18 A3006 RMK SLP241 T00081175 57007 IEM_DS3505
ZBHH,2007-02-17 10:00,ZBHH 171000Z AUTO 20002KT 6SM M02/M10 A3006 RMK T10201100 IEM_DS3505
ZBHH,2007-02-17 11:00,ZBHH 171100Z AUTO 18002KT 3SM M03/M11 A3006 RMK T10301110 IEM_DS3505
ZBHH,2007-02-17 12:00,ZBHH 171200Z AUTO 22002KT 6SM M02/M10 A3009 RMK SLP257 T10171105 52006 IEM_DS3505
ZBHH,2007-02-17 13:00,ZBHH 171300Z AUTO 10002KT 3SM M06/M08 A3009 RMK T10601080 IEM_DS3505
ZBHH,2007-02-17 14:00,ZBHH 171400Z AUTO 15002KT 3SM M07/M09 A3009 RMK T10701090 IEM_DS3505
ZBHH,2007-02-17 15:00,ZBHH 171500Z AUTO 29002KT 6SM M04/M10 A3009 RMK SLP251 T10361098 52003 IEM_DS3505
ZBHH,2007-02-17 16:00,ZBHH 171600Z AUTO 10004KT 4SM M08/M10 A3009 RMK T10801100 IEM_DS3505
ZBHH,2007-02-17 17:00,ZBHH 171700Z AUTO 09004KT 4SM M09/M11 A3009 RMK T10901110 IEM_DS3505
ZBHH,2007-02-17 18:00,ZBHH 171800Z AUTO 04002KT 5SM M05/M11 A3009 RMK SLP246 T10521106 57002 IEM_DS3505
ZBHH,2007-02-17 19:00,ZBHH 171900Z AUTO 00000KT 4SM M10/M12 A3006 RMK T11001120 IEM_DS3505
ZBHH,2007-02-17 20:00,ZBHH 172000Z AUTO 00000KT 4SM M11/M12 A3006 RMK T11101120 IEM_DS3505
ZBHH,2007-02-17 21:00,ZBHH 172100Z AUTO 36002KT 5SM M06/M12 A3006 RMK SLP238 T10621117 57008 IEM_DS3505
ZBHH,2007-02-17 22:00,ZBHH 172200Z AUTO 08002KT 4SM M11/M14 A3006 RMK T11101140 IEM_DS3505
ZBHH,2007-02-17 23:00,ZBHH 172300Z 09001MPS 6000 SKC M12/M15 Q1018 NOSIG
ZBHH,2007-02-18 00:00,ZBHH 180000Z 08001MPS 6000 SKC M13/M15 Q1019 NOSIG
ZBHH,2007-02-18 01:00,ZBHH 180100Z AUTO 10002KT 4SM M11/M14 A3009 RMK T11101140 IEM_DS3505
ZBHH,2007-02-18 02:00,ZBHH 180200Z AUTO 10004KT 4SM M07/M12 A3009 RMK T10701120 IEM_DS3505
ZBHH,2007-02-18 03:00,ZBHH 180300Z AUTO 07004KT 7SM M02/M12 A3009 RMK SLP247 T10161123 52002 IEM_DS3505
ZBHH,2007-02-18 04:00,ZBHH 180400Z AUTO 10002KT 6SM M03/M12 A3006 RMK T10301120 IEM_DS3505
ZBHH,2007-02-18 05:00,ZBHH 180500Z AUTO 19002KT 6SM M02/M12 A3003 RMK T10201120 IEM_DS3505
ZBHH,2007-02-18 06:00,ZBHH 180600Z AUTO 25004KT 12SM 02/M13 A3003 RMK SLP221 T00191127 57019 IEM_DS3505
ZBHH,2007-02-18 07:00,ZBHH 180700Z AUTO 21002KT 4SM 00/M11 A3000 RMK T00001110 IEM_DS3505
ZBHH,2007-02-18 08:00,ZBHH 180800Z AUTO 19002KT 4SM 00/M12 A3000 RMK T00001120 IEM_DS3505
ZBHH,2007-02-18 09:00,ZBHH 180900Z AUTO 22004KT 12SM 02/M14 A3000 RMK SLP220 T00191138 57003 IEM_DS3505
ZBHH,2007-02-18 10:00,ZBHH 181000Z AUTO 09006KT 4SM M02/M08 A3000 RMK T10201080 IEM_DS3505
ZBHH,2007-02-18 11:00,ZBHH 181100Z AUTO 09004KT 4SM M04/M08 A3003 RMK T10401080 IEM_DS3505
ZBHH,2007-02-18 12:00,ZBHH 181200Z AUTO 07002KT 12SM M01/M11 A3003 RMK SLP233 T10131109 52003 IEM_DS3505
ZBHH,2007-02-18 13:00,ZBHH 181300Z AUTO 04002KT 3SM M05/M10 A3003 RMK T10501100 IEM_DS3505
ZBHH,2007-02-18 14:00,ZBHH 181400Z AUTO 05002KT 3SM M06/M11 A3003 RMK T10601110 IEM_DS3505
ZBHH,2007-02-18 15:00,ZBHH 181500Z AUTO 32002KT 12SM M04/M10 A3003 RMK SLP227 T10351101 52001 IEM_DS3505
ZBHH,2007-02-18 16:00,ZBHH 181600Z AUTO 09004KT 4SM M07/M11 A3003 RMK T10701110 IEM_DS3505
ZBHH,2007-02-18 17:00,ZBHH 181700Z AUTO 08006KT 3SM M08/M11 A3003 RMK T10801110 IEM_DS3505
ZBHH,2007-02-18 18:00,ZBHH 181800Z AUTO 09004KT 5SM M06/M11 A3000 RMK SLP218 T10571107 57005 IEM_DS3505
ZBHH,2007-02-18 19:00,ZBHH 181900Z AUTO 07004KT 3SM M09/M12 A3000 RMK T10901120 IEM_DS3505
ZBHH,2007-02-18 20:00,ZBHH 182000Z AUTO 08002KT M09/M12 A2997 RMK T10901120 IEM_DS3505
ZBHH,2007-02-18 21:00,ZBHH 182100Z AUTO 10004KT 4SM M07/M12 A2997 RMK SLP207 T10681123 57012 IEM_DS3505
ZBHH,2007-02-18 22:00,ZBHH 182200Z AUTO 09004KT 4SM M10/M14 A2997 RMK T11001140 IEM_DS3505
ZBHH,2007-02-18 23:00,ZBHH 182300Z 06002MPS 7000 SKC M10/M13 Q1015 NOSIG
ZBHH,2007-02-19 00:00,ZBHH 190000Z 07002MPS 7000 SKC M10/M14 Q1015 NOSIG
ZBHH,2007-02-19 01:00,ZBHH 190100Z AUTO 09004KT 4SM M08/M12 A2997 RMK T10801120 IEM_DS3505
ZBHH,2007-02-19 02:00,ZBHH 190200Z AUTO 10006KT 6SM M05/M10 A2997 RMK T10501100 IEM_DS3505
ZBHH,2007-02-19 03:00,ZBHH 190300Z AUTO 04002KT 9SM 00/M11 A2994 RMK SLP196 T00011107 57006 IEM_DS3505
ZBHH,2007-02-19 04:00,ZBHH 190400Z AUTO 14002KT 6SM 00/M10 A2994 RMK T00001100 IEM_DS3505
ZBHH,2007-02-19 05:00,ZBHH 190500Z AUTO 14002KT 6SM 01/M11 A2991 RMK T00101110 IEM_DS3505
ZBHH,2007-02-19 06:00,ZBHH 190600Z AUTO 11004KT 9SM 04/M11 A2988 RMK SLP170 T00421114 57019 IEM_DS3505
ZBHH,2007-02-19 07:00,ZBHH 190700Z AUTO 05002KT 6SM 02/M11 A2988 RMK T00201110 IEM_DS3505
ZBHH,2007-02-19 08:00,ZBHH 190800Z AUTO 07002KT 6SM 02/M10 A2988 RMK T00201100 IEM_DS3505
ZBHH,2007-02-19 09:00,ZBHH 190900Z AUTO 09002KT 12SM 04/M11 A2985 RMK SLP169 T00381106 57004 IEM_DS3505
ZBHH,2007-02-19 10:00,ZBHH 191000Z AUTO 08004KT 6SM 01/M08 A2988 RMK T00101080 IEM_DS3505
ZBHH,2007-02-19 11:00,ZBHH 191100Z AUTO 13002KT 4SM M01/M06 A2988 RMK T10101060 IEM_DS3505
ZBHH,2007-02-19 12:00,ZBHH 191200Z AUTO 32002KT 19SM M00/M08 A2991 RMK SLP189 T10011078 52010 IEM_DS3505
ZBHH,2007-02-19 13:00,ZBHH 191300Z AUTO 34002KT 2SM M03/M06 A2991 RMK T10301060 IEM_DS3505
ZBHH,2007-02-19 14:00,ZBHH 191400Z AUTO 12002KT 3SM M04/M06 A2994 RMK T10401060 IEM_DS3505
ZBHH,2007-02-19 15:00,ZBHH 191500Z AUTO 11004KT 19SM M03/M08 A2994 RMK SLP191 T10271078 52010 IEM_DS3505
ZBHH,2007-02-19 16:00,ZBHH 191600Z AUTO 36002KT 4SM M05/M05 A2994 RMK T10501050 IEM_DS3505
ZBHH,2007-02-19 18:00,ZBHH 191800Z AUTO 02002KT 19SM M04/M07 A2997 RMK SLP192 T10421070 52007 IEM_DS3505
ZBHH,2007-02-19 19:00,ZBHH 191900Z AUTO 08004KT M06/M07 A2997 RMK T10601070 IEM_DS3505
ZBHH,2007-02-19 20:00,ZBHH 192000Z AUTO 08004KT 4SM M08/M09 A2997 RMK T10801090 IEM_DS3505
ZBHH,2007-02-19 21:00,ZBHH 192100Z AUTO 09004KT 19SM M05/M08 A2997 RMK SLP201 T10531077 52004 IEM_DS3505
ZBHH,2007-02-19 22:00,ZBHH 192200Z AUTO 08002KT 4SM M08/M10 A3000 RMK T10801100 IEM_DS3505
ZBHH,2007-02-19 23:00,ZBHH 192300Z AUTO 09002KT 4SM M09/M11 A3000 RMK T10901110 IEM_DS3505
ZBHH,2007-02-20 00:00,ZBHH 200000Z AUTO 09004KT 19SM M06/M09 A3003 RMK SLP233 T10601089 52018 IEM_DS3505
ZBHH,2007-02-20 01:00,ZBHH 200100Z AUTO 10002KT 4SM M06/M09 A3003 RMK T10601090 IEM_DS3505
ZBHH,2007-02-20 02:00,ZBHH 200200Z AUTO 10002KT 4SM M04/M07 A3006 RMK T10401070 IEM_DS3505
ZBHH,2007-02-20 03:00,ZBHH 200300Z AUTO 11002KT 12SM 02/M06 A3006 RMK SLP229 T00211065 52009 IEM_DS3505
ZBHH,2007-02-20 04:00,ZBHH 200400Z AUTO 00000KT 4SM 01/M04 A3006 RMK T00101040 IEM_DS3505
ZBHH,2007-02-20 05:00,ZBHH 200500Z AUTO 00000KT 4SM 03/M04 A3003 RMK T00301040 IEM_DS3505
ZBHH,2007-02-20 06:00,ZBHH 200600Z AUTO 29002KT 12SM 06/M08 A3003 RMK SLP206 T00561076 57016 IEM_DS3505
ZBHH,2007-02-20 07:00,ZBHH 200700Z AUTO 12002KT 4SM 03/M05 A3000 RMK T00301050 IEM_DS3505
ZBHH,2007-02-20 08:00,ZBHH 200800Z AUTO 09002KT 4SM 04/M05 A3000 RMK T00401050 IEM_DS3505
ZBHH,2007-02-20 09:00,ZBHH 200900Z AUTO 22004KT 12SM 06/M07 A3000 RMK SLP207 T00651071 54000 IEM_DS3505
ZBHH,2007-02-20 10:00,ZBHH 201000Z AUTO 08004KT 4SM 02/M04 A3003 RMK T00201040 IEM_DS3505
ZBHH,2007-02-20 11:00,ZBHH 201100Z AUTO 08004KT 4SM 00/M04 A3003 RMK T00001040 IEM_DS3505
ZBHH,2007-02-20 12:00,ZBHH 201200Z AUTO 04002KT 9SM 02/M06 A3006 RMK SLP233 T00251059 52013 IEM_DS3505
ZBHH,2007-02-20 13:00,ZBHH 201300Z AUTO 09004KT 4SM M01/M05 A3006 RMK T10101050 IEM_DS3505
ZBHH,2007-02-20 14:00,ZBHH 201400Z AUTO 03002KT 4SM M02/M06 A3006 RMK T10201060 IEM_DS3505
ZBHH,2007-02-20 15:00,ZBHH 201500Z AUTO 29002KT 9SM M01/M06 A3006 RMK SLP225 T10061056 52004 IEM_DS3505
ZBHH,2007-02-20 16:00,ZBHH 201600Z AUTO 02002KT 4SM M03/M07 A3006 RMK T10301070 IEM_DS3505
ZBHH,2007-02-20 18:00,ZBHH 201800Z AUTO 09002KT 19SM M03/M07 A3006 RMK SLP222 T10271072 54000 IEM_DS3505
ZBHH,2007-02-20 19:00,ZBHH 201900Z AUTO 08004KT 4SM M05/M07 A3006 RMK T10501070 IEM_DS3505
ZBHH,2007-02-20 20:00,ZBHH 202000Z AUTO 08004KT 4SM M05/M07 A3003 RMK T10501070 IEM_DS3505
ZBHH,2007-02-20 21:00,ZBHH 202100Z AUTO 07002KT 19SM M04/M08 A3003 RMK SLP209 T10391077 57012 IEM_DS3505
ZBHH,2007-02-20 22:00,ZBHH 202200Z AUTO 06002KT 4SM M06/M08 A3003 RMK T10601080 IEM_DS3505
ZBHH,2007-02-20 23:00,ZBHH 202300Z AUTO 08004KT 4SM M07/M09 A3003 RMK T10701090 IEM_DS3505
ZBHH,2007-02-21 00:00,ZBHH 210000Z AUTO 12002KT 19SM M05/M08 A3003 RMK SLP222 T10531076 54000 IEM_DS3505
ZBHH,2007-02-21 01:00,ZBHH 210100Z AUTO 08004KT 6SM M05/M09 A3003 RMK T10501090 IEM_DS3505
ZBHH,2007-02-21 02:00,ZBHH 210200Z AUTO 12002KT 6SM M03/M07 A3003 RMK T10301070 IEM_DS3505
ZBHH,2007-02-21 03:00,ZBHH 210300Z AUTO 14004KT 19SM 02/M10 A3003 RMK SLP209 T00211095 57002 IEM_DS3505
ZBHH,2007-02-21 04:00,ZBHH 210400Z AUTO 00000KT 6SM 01/M08 A3000 RMK T00101080 IEM_DS3505
ZBHH,2007-02-21 05:00,ZBHH 210500Z AUTO 24002KT 4SM 02/M06 A2997 RMK T00201060 IEM_DS3505
ZBHH,2007-02-21 06:00,ZBHH 210600Z AUTO 22002KT 19SM 06/M06 A2994 RMK SLP171 T00581058 57030 IEM_DS3505
ZBHH,2007-02-21 07:00,ZBHH 210700Z AUTO 25012KT 6SM 04/M08 A2988 RMK T00401080 IEM_DS3505
ZBHH,2007-02-21 08:00,ZBHH 210800Z AUTO 24008KT 6SM 05/M06 A2988 RMK T00501060 IEM_DS3505
ZBHH,2007-02-21 09:00,ZBHH 210900Z AUTO 22008KT 19SM 06/M07 A2985 RMK SLP150 T00631073 57020 IEM_DS3505
ZBHH,2007-02-21 10:00,ZBHH 211000Z AUTO 27008KT 6SM 04/M05 A2985 RMK T00401050 IEM_DS3505
ZBHH,2007-02-21 11:00,ZBHH 211100Z AUTO 25008KT 6SM 03/M05 A2988 RMK T00301050 IEM_DS3505
ZBHH,2007-02-21 12:00,ZBHH 211200Z AUTO 29008KT 19SM 05/M13 A2988 RMK SLP172 T00491130 52013 IEM_DS3505
ZBHH,2007-02-21 13:00,ZBHH 211300Z AUTO 26008KT 4SM 02/M10 A2991 RMK T00201100 IEM_DS3505
ZBHH,2007-02-21 14:00,ZBHH 211400Z AUTO 29010KT 6SM 02/M13 A2991 RMK T00201130 IEM_DS3505
ZBHH,2007-02-21 15:00,ZBHH 211500Z AUTO 32006KT 19SM 02/M15 A2994 RMK SLP177 T00251151 52015 IEM_DS3505
ZBHH,2007-02-21 16:00,ZBHH 211600Z AUTO 33016G27KT 3SM 00/M16 A2994 RMK T00001160 IEM_DS3505
ZBHH,2007-02-21 17:00,ZBHH 211700Z AUTO 32010KT 4SM M01/M16 A2994 RMK T10101160 IEM_DS3505
ZBHH,2007-02-21 18:00,ZBHH 211800Z AUTO 32004KT 12SM M00/M18 A2994 RMK SLP174 T10011183 54000 IEM_DS3505
ZBHH,2007-02-21 19:00,ZBHH 211900Z AUTO 31010KT 4SM M02/M17 A2994 RMK T10201170 IEM_DS3505
ZBHH,2007-02-21 20:00,ZBHH 212000Z AUTO 31006KT 4SM M03/M17 A2994 RMK T10301170 IEM_DS3505
ZBHH,2007-02-21 21:00,ZBHH 212100Z AUTO 34004KT 12SM M02/M18 A2994 RMK SLP174 T10221183 57003 IEM_DS3505
ZBHH,2007-02-21 22:00,ZBHH 212200Z AUTO 03008KT 4SM M05/M17 A2994 RMK T10501170 IEM_DS3505
ZBHH,2007-02-21 23:00,ZBHH 212300Z AUTO 36006KT 4SM M07/M16 A2997 RMK T10701160 IEM_DS3505
ZBHH,2007-02-22 00:00,ZBHH 220000Z AUTO 02004KT 12SM M04/M18 A2997 RMK SLP198 T10381181 52014 IEM_DS3505
ZBHH,2007-02-22 01:00,ZBHH 220100Z AUTO 07002KT 4SM M05/M17 A3000 RMK T10501170 IEM_DS3505
ZBHH,2007-02-22 02:00,ZBHH 220200Z AUTO 15002KT 6SM M03/M16 A3000 RMK T10301160 IEM_DS3505
ZBHH,2007-02-22 03:00,ZBHH 220300Z 18003MPS 8000 SKC M02/M14 Q1016 NOSIG
ZBHH,2007-02-22 04:00,ZBHH 220400Z AUTO 20006KT 5SM M01/M14 A3000 RMK T10101140 IEM_DS3505
ZBHH,2007-02-22 05:00,ZBHH 220500Z AUTO 22006KT 5SM 00/M14 A2997 RMK T00001140 IEM_DS3505
ZBHH,2007-02-22 06:00,ZBHH 220600Z AUTO 22006KT 19SM 03/M15 A2994 RMK SLP182 T00261150 57017 IEM_DS3505
ZBHH,2007-02-22 07:00,ZBHH 220700Z AUTO 24008KT 6SM 01/M14 A2994 RMK T00101140 IEM_DS3505
ZBHH,2007-02-22 08:00,ZBHH 220800Z AUTO 23008KT 6SM 02/M14 A2994 RMK T00201140 IEM_DS3505
ZBHH,2007-02-22 09:00,ZBHH 220900Z AUTO 32006KT 19SM 04/M18 A2994 RMK SLP187 T00351180 52002 IEM_DS3505
ZBHH,2007-02-22 10:00,ZBHH 221000Z AUTO 34006KT 6SM 01/M17 A2997 RMK T00101170 IEM_DS3505
ZBHH,2007-02-22 11:00,ZBHH 221100Z AUTO 32004KT 6SM 00/M17 A3000 RMK T00001170 IEM_DS3505
ZBHH,2007-02-22 12:00,ZBHH 221200Z AUTO 34004KT 19SM 00/M18 A3003 RMK SLP223 T00001182 52021 IEM_DS3505
ZBHH,2007-02-22 13:00,ZBHH 221300Z AUTO 01004KT 6SM M02/M16 A3003 RMK T10201160 IEM_DS3505
ZBHH,2007-02-22 14:00,ZBHH 221400Z AUTO 02006KT 6SM M03/M18 A3003 RMK T10301180 IEM_DS3505
ZBHH,2007-02-22 15:00,ZBHH 221500Z AUTO 32002KT 19SM M03/M19 A3006 RMK SLP231 T10281188 52008 IEM_DS3505
ZBHH,2007-02-22 16:00,ZBHH 221600Z AUTO 09006KT 6SM M06/M12 A3003 RMK T10601120 IEM_DS3505
ZBHH,2007-02-22 17:00,ZBHH 221700Z AUTO 09006KT 6SM M07/M13 A3003 RMK T10701130 IEM_DS3505
ZBHH,2007-02-22 18:00,ZBHH 221800Z AUTO 09002KT 19SM M05/M16 A3003 RMK SLP222 T10481163 57006 IEM_DS3505
ZBHH,2007-02-22 19:00,ZBHH 221900Z AUTO 02004KT 6SM M08/M15 A3003 RMK T10801150 IEM_DS3505
ZBHH,2007-02-22 20:00,ZBHH 222000Z AUTO 10004KT 6SM M09/M13 A3003 RMK T10901130 IEM_DS3505
ZBHH,2007-02-22 21:00,ZBHH 222100Z AUTO 09002KT 19SM M07/M16 A3003 RMK SLP224 T10711165 57001 IEM_DS3505
ZBHH,2007-02-22 22:00,ZBHH 222200Z AUTO 09004KT 6SM M09/M15 A3003 RMK T10901150 IEM_DS3505
ZBHH,2007-02-22 23:00,ZBHH 222300Z AUTO 05004KT 6SM M09/M16 A3003 RMK T10901160 IEM_DS3505
ZBHH,2007-02-23 00:00,ZBHH 230000Z AUTO 09004KT 19SM M06/M17 A3006 RMK SLP242 T10631174 52010 IEM_DS3505
ZBHH,2007-02-23 01:00,ZBHH 230100Z AUTO 09006KT 6SM M08/M15 A3006 RMK T10801150 IEM_DS3505
ZBHH,2007-02-23 02:00,ZBHH 230200Z AUTO 09004KT 6SM M05/M14 A3006 RMK T10501140 IEM_DS3505
ZBHH,2007-02-23 03:00,ZBHH 230300Z AUTO 07002KT 16SM 00/M17 A3006 RMK SLP233 T00031174 54000 IEM_DS3505
ZBHH,2007-02-23 04:00,ZBHH 230400Z AUTO 00000KT 6SM 01/M15 A3003 RMK T00101150 IEM_DS3505
ZBHH,2007-02-23 05:00,ZBHH 230500Z AUTO 00000KT 6SM 01/M16 A3003 RMK T00101160 IEM_DS3505
ZBHH,2007-02-23 06:00,ZBHH 230600Z AUTO 18004KT 9SM 03/M16 A3000 RMK SLP210 T00341163 57018 IEM_DS3505
ZBHH,2007-02-23 07:00,ZBHH 230700Z AUTO 00000KT 6SM 02/M16 A3000 RMK T00201160 IEM_DS3505
ZBHH,2007-02-23 08:00,ZBHH 230800Z AUTO 21004KT 6SM 02/M16 A3000 RMK T00201160 IEM_DS3505
ZBHH,2007-02-23 09:00,ZBHH 230900Z AUTO 20002KT 9SM 03/M14 A3000 RMK SLP218 T00261145 52001 IEM_DS3505
ZBHH,2007-02-23 10:00,ZBHH 231000Z AUTO 00000KT 6SM 01/M15 A3000 RMK T00101150 IEM_DS3505
ZBHH,2007-02-23 11:00,ZBHH 231100Z AUTO 34002KT 6SM M01/M12 A3003 RMK T10101120 IEM_DS3505
ZBHH,2007-02-23 12:00,ZBHH 231200Z AUTO 27002KT 12SM 00/M13 A3003 RMK SLP232 T00031130 52009 IEM_DS3505
ZBHH,2007-02-23 13:00,ZBHH 231300Z AUTO 07002KT 6SM M02/M10 A3003 RMK T10201100 IEM_DS3505
ZBHH,2007-02-23 14:00,ZBHH 231400Z AUTO 08002KT 6SM M02/M08 A3003 RMK T10201080 IEM_DS3505
ZBHH,2007-02-23 15:00,ZBHH 231500Z AUTO 36002KT 9SM M00/M10 A3003 RMK SLP223 T10021104 52005 IEM_DS3505
ZBHH,2007-02-23 16:00,ZBHH 231600Z AUTO 11002KT 6SM M03/M08 A3006 RMK T10301080 IEM_DS3505
ZBHH,2007-02-23 17:00,ZBHH 231700Z AUTO 11002KT 6SM M04/M07 A3003 RMK T10401070 IEM_DS3505
ZBHH,2007-02-23 18:00,ZBHH 231800Z AUTO 09002KT 9SM M01/M10 A3003 RMK SLP211 T10121100 57006 IEM_DS3505
ZBHH,2007-02-23 19:00,ZBHH 231900Z AUTO 12002KT 6SM M04/M08 A3003 RMK T10401080 IEM_DS3505
ZBHH,2007-02-23 20:00,ZBHH 232000Z AUTO 36002KT 6SM M04/M08 A3000 RMK T10401080 IEM_DS3505
ZBHH,2007-02-23 21:00,ZBHH 232100Z AUTO 09002KT 9SM M02/M11 A3000 RMK SLP202 T10181106 57011 IEM_DS3505
ZBHH,2007-02-23 22:00,ZBHH 232200Z AUTO 00000KT 6SM M04/M09 A3000 RMK T10401090 IEM_DS3505
ZBHH,2007-02-23 23:00,ZBHH 232300Z AUTO 02002KT 6SM M05/M08 A2997 RMK T10501080 IEM_DS3505
ZBHH,2007-02-24 00:00,ZBHH 240000Z AUTO 07002KT 12SM M03/M11 A2997 RMK SLP204 T10301108 57006 IEM_DS3505
ZBHH,2007-02-24 01:00,ZBHH 240100Z AUTO 08004KT 6SM M04/M09 A2997 RMK T10401090 IEM_DS3505
ZBHH,2007-02-24 02:00,ZBHH 240200Z AUTO 13002KT 6SM 00/M09 A2997 RMK T00001090 IEM_DS3505
ZBHH,2007-02-24 03:00,ZBHH 240300Z AUTO 18004KT 12SM 02/M12 A2997 RMK SLP190 T00251125 57001 IEM_DS3505
ZBHH,2007-02-24 04:00,ZBHH 240400Z AUTO 26004KT 6SM 02/M10 A2997 RMK T00201100 IEM_DS3505
ZBHH,2007-02-24 05:00,ZBHH 240500Z AUTO 23006KT 6SM 03/M09 A2994 RMK T00301090 IEM_DS3505
ZBHH,2007-02-24 06:00,ZBHH 240600Z AUTO 22008KT 12SM 06/M09 A2991 RMK SLP163 T00571086 57019 IEM_DS3505
ZBHH,2007-02-24 07:00,ZBHH 240700Z AUTO 24008KT 5SM 04/M06 A2988 RMK T00401060 IEM_DS3505
ZBHH,2007-02-24 08:00,ZBHH 240800Z AUTO 24010KT 6SM 05/M07 A2988 RMK T00501070 IEM_DS3505
ZBHH,2007-02-24 09:00,ZBHH 240900Z AUTO 25006KT 19SM 08/M10 A2991 RMK SLP159 T00791104 54000 IEM_DS3505
ZBHH,2007-02-24 10:00,ZBHH 241000Z AUTO 20006KT 6SM 04/M08 A2991 RMK T00401080 IEM_DS3505
ZBHH,2007-02-24 11:00,ZBHH 241100Z AUTO 26008KT 6SM 03/M08 A2994 RMK T00301080 IEM_DS3505
ZBHH,2007-02-24 12:00,ZBHH 241200Z AUTO 22002KT 12SM 04/M10 A2994 RMK SLP188 T00401101 52014 IEM_DS3505
ZBHH,2007-02-24 13:00,ZBHH 241300Z AUTO 07004KT 6SM M01/M06 A2997 RMK T10101060 IEM_DS3505
ZBHH,2007-02-24 14:00,ZBHH 241400Z AUTO 09004KT 6SM M03/M06 A2997 RMK T10301060 IEM_DS3505
ZBHH,2007-02-24 15:00,ZBHH 241500Z AUTO 04004KT 16SM M01/M08 A3000 RMK SLP195 T10061083 52008 IEM_DS3505
ZBHH,2007-02-24 16:00,ZBHH 241600Z AUTO 02004KT 6SM M03/M09 A3000 RMK T10301090 IEM_DS3505
ZBHH,2007-02-24 17:00,ZBHH 241700Z AUTO 12004KT M04/M09 A2997 RMK T10401090 IEM_DS3505
ZBHH,2007-02-24 18:00,ZBHH 241800Z AUTO 36002KT 19SM M02/M10 A2997 RMK SLP185 T10181099 57004 IEM_DS3505
ZBHH,2007-02-24 19:00,ZBHH 241900Z AUTO 05004KT 6SM M05/M09 A2994 RMK T10501090 IEM_DS3505
ZBHH,2007-02-24 20:00,ZBHH 242000Z AUTO 10002KT 6SM M07/M10 A2994 RMK T10701100 IEM_DS3505
ZBHH,2007-02-24 21:00,ZBHH 242100Z AUTO 09002KT 19SM M04/M11 A2991 RMK SLP170 T10371108 57013 IEM_DS3505
ZBHH,2007-02-24 22:00,ZBHH 242200Z AUTO 08004KT 6SM M06/M10 A2991 RMK T10601100 IEM_DS3505
ZBHH,2007-02-24 23:00,ZBHH 242300Z AUTO 09006KT 6SM M07/M11 A2994 RMK T10701110 IEM_DS3505
ZBHH,2007-02-25 00:00,ZBHH 250000Z AUTO 09004KT 12SM M04/M11 A2994 RMK SLP192 T10421112 52010 IEM_DS3505
ZBHH,2007-02-25 01:00,ZBHH 250100Z AUTO 08002KT 6SM M04/M10 A2997 RMK T10401100 IEM_DS3505
ZBHH,2007-02-25 02:00,ZBHH 250200Z AUTO 10002KT 6SM 00/M11 A2997 RMK T00001110 IEM_DS3505
ZBHH,2007-02-25 03:00,ZBHH 250300Z AUTO 09002KT 19SM 04/M13 A2997 RMK SLP181 T00431126 57001 IEM_DS3505
ZBHH,2007-02-25 04:00,ZBHH 250400Z 24001MPS CAVOK 04/M11 Q1014 NOSIG
ZBHH,2007-02-25 05:00,ZBHH 250500Z 30001MPS CAVOK 05/M12 Q1013 NOSIG
ZBHH,2007-02-25 06:00,ZBHH 250600Z AUTO 20006KT 16SM 09/M13 A2988 RMK SLP144 T00881129 57026 IEM_DS3505
ZBHH,2007-02-25 07:00,ZBHH 250700Z AUTO 25006KT 6SM 08/M11 A2985 RMK T00801110 IEM_DS3505
ZBHH,2007-02-25 08:00,ZBHH 250800Z AUTO 25002KT 6SM 10/M10 A2985 RMK T01001100 IEM_DS3505
ZBHH,2007-02-25 09:00,ZBHH 250900Z AUTO 20004KT 12SM 11/M12 A2985 RMK SLP135 T01111117 57007 IEM_DS3505
ZBHH,2007-02-25 10:00,ZBHH 251000Z AUTO 08002KT 5SM 07/M08 A2985 RMK T00701080 IEM_DS3505
ZBHH,2007-02-25 11:00,ZBHH 251100Z AUTO 07002KT 4SM 03/M08 A2985 RMK T00301080 IEM_DS3505
ZBHH,2007-02-25 12:00,ZBHH 251200Z AUTO 36002KT 12SM 05/M10 A2988 RMK SLP162 T00491096 52010 IEM_DS3505
ZBHH,2007-02-25 13:00,ZBHH 251300Z AUTO 08002KT 6SM 01/M08 A2988 RMK T00101080 IEM_DS3505
ZBHH,2007-02-25 14:00,ZBHH 251400Z AUTO 07002KT 5SM 00/M08 A2988 RMK T00001080 IEM_DS3505
ZBHH,2007-02-25 15:00,ZBHH 251500Z AUTO 05002KT 19SM 02/M08 A2988 RMK SLP154 T00161077 52004 IEM_DS3505
ZBHH,2007-02-25 16:00,ZBHH 251600Z AUTO 07002KT 5SM M02/M06 A2988 RMK T10201060 IEM_DS3505
ZBHH,2007-02-25 17:00,ZBHH 251700Z AUTO 06004KT 6SM 00/M08 A2988 RMK T00001080 IEM_DS3505
ZBHH,2007-02-25 18:00,ZBHH 251800Z AUTO 07002KT 19SM 00/M09 A2988 RMK SLP145 T00041086 57001 IEM_DS3505
ZBHH,2007-02-25 19:00,ZBHH 251900Z AUTO 09004KT 6SM M02/M07 A2991 RMK T10201070 IEM_DS3505
ZBHH,2007-02-25 20:00,ZBHH 252000Z AUTO 07004KT 6SM M02/M07 A2991 RMK T10201070 IEM_DS3505
ZBHH,2007-02-25 21:00,ZBHH 252100Z AUTO 07002KT 19SM M01/M08 A2991 RMK SLP150 T10101084 52006 IEM_DS3505
ZBHH,2007-02-25 22:00,ZBHH 252200Z AUTO 07002KT 4SM M02/M08 A2991 RMK T10201080 IEM_DS3505
ZBHH,2007-02-25 23:00,ZBHH 252300Z AUTO 08004KT 5SM M04/M07 A2994 RMK T10401070 IEM_DS3505
ZBHH,2007-02-26 00:00,ZBHH 260000Z AUTO 09002KT 12SM M02/M08 A2994 RMK SLP182 T10161077 52014 IEM_DS3505
ZBHH,2007-02-26 01:00,ZBHH 260100Z AUTO 08006KT 5SM 00/M06 A2997 RMK T00001060 IEM_DS3505
ZBHH,2007-02-26 02:00,ZBHH 260200Z AUTO 06002KT 4SM 03/M06 A2997 RMK T00301060 IEM_DS3505
ZBHH,2007-02-26 03:00,ZBHH 260300Z AUTO 11004KT 12SM 09/M09 A2997 RMK SLP176 T00881087 52009 IEM_DS3505
ZBHH,2007-02-26 04:00,ZBHH 260400Z AUTO 15002KT 4SM 09/M07 A2997 RMK T00901070 IEM_DS3505
ZBHH,2007-02-26 05:00,ZBHH 260500Z AUTO 12002KT 4SM 10/M07 A2997 RMK T01001070 IEM_DS3505
ZBHH,2007-02-26 06:00,ZBHH 260600Z AUTO 34004KT 12SM 13/M08 A2997 RMK SLP160 T01331080 57007 IEM_DS3505
ZBHH,2007-02-26 07:00,ZBHH 260700Z AUTO 20002KT 6SM 13/M06 A2994 RMK T01301060 IEM_DS3505
ZBHH,2007-02-26 08:00,ZBHH 260800Z AUTO 19002KT 6SM 12/M05 A2997 RMK T01201050 IEM_DS3505
ZBHH,2007-02-26 09:00,ZBHH 260900Z AUTO 04002KT 12SM A2997 RMK SLP163 52003 IEM_DS3505
ZBHH,2007-02-26 10:00,ZBHH 261000Z AUTO 00000KT 6SM 11/M04 A2997 RMK T01101040 IEM_DS3505
ZBHH,2007-02-26 11:00,ZBHH 261100Z AUTO 07004KT 6SM 08/M08 A3000 RMK T00801080 IEM_DS3505
ZBHH,2007-02-26 12:00,ZBHH 261200Z AUTO 27002KT 19SM 07/M08 A3003 RMK SLP200 T00701082 52015 IEM_DS3505
ZBHH,2007-02-26 13:00,ZBHH 261300Z AUTO 09006KT 6SM 02/M06 A3003 RMK T00201060 IEM_DS3505
ZBHH,2007-02-26 14:00,ZBHH 261400Z AUTO 03002KT 6SM 03/M08 A3006 RMK T00301080 IEM_DS3505
ZBHH,2007-02-26 15:00,ZBHH 261500Z AUTO 08006KT 19SM 02/M08 A3006 RMK SLP202 T00241078 52014 IEM_DS3505
ZBHH,2007-02-26 16:00,ZBHH 261600Z AUTO 08010KT 6SM 04/M10 A3006 RMK T00401100 IEM_DS3505
ZBHH,2007-02-26 17:00,ZBHH 261700Z AUTO 09008KT 6SM 02/M09 A3006 RMK T00201090 IEM_DS3505
ZBHH,2007-02-26 18:00,ZBHH 261800Z AUTO 00000KT 19SM M01/M08 RMK SLP201 T10061076 52002 IEM_DS3505
ZBHH,2007-02-26 19:00,ZBHH 261900Z AUTO 07008KT 6SM 03/M10 A3006 RMK T00301100 IEM_DS3505
ZBHH,2007-02-26 20:00,ZBHH 262000Z AUTO 08008KT 6SM 02/M10 A3006 RMK T00201100 IEM_DS3505
ZBHH,2007-02-26 21:00,ZBHH 262100Z AUTO 05002KT 19SM M01/M08 A3006 RMK SLP194 T10111081 57004 IEM_DS3505
ZBHH,2007-02-26 22:00,ZBHH 262200Z AUTO 04002KT 6SM M02/M08 A3006 RMK T10201080 IEM_DS3505
ZBHH,2007-02-26 23:00,ZBHH 262300Z AUTO 09002KT 6SM M02/M07 A3006 RMK T10201070 IEM_DS3505
ZBHH,2007-02-27 00:00,ZBHH 270000Z AUTO 11002KT 12SM M00/M07 A3009 RMK SLP220 T10011071 52009 IEM_DS3505
ZBHH,2007-02-27 01:00,ZBHH 270100Z AUTO 09008KT 4SM 03/M06 A3009 RMK T00301060 IEM_DS3505
ZBHH,2007-02-27 02:00,ZBHH 270200Z AUTO 10006KT 3SM 06/M06 A3009 RMK T00601060 IEM_DS3505
ZBHH,2007-02-27 03:00,ZBHH 270300Z AUTO 09004KT 12SM 11/M06 A3009 RMK SLP205 T01081056 54000 IEM_DS3505
ZBHH,2007-02-27 04:00,ZBHH 270400Z 13004MPS 5000 HZ SKC 11/M03 Q1018 NOSIG
ZBHH,2007-02-27 05:00,ZBHH 270500Z 19007MPS 5000 SA SKC 13/M02 Q1018 NOSIG
ZBHH,2007-02-27 06:00,ZBHH 270600Z AUTO 16008KT 12SM 13/M03 A3006 RMK SLP194 T01321031 57011 IEM_DS3505
ZBHH,2007-02-27 07:00,ZBHH 270700Z AUTO 16014KT 3SM 11/M01 A3003 RMK T01101010 IEM_DS3505
ZBHH,2007-02-27 08:00,ZBHH 270800Z AUTO 16016KT 3SM 10/M01 A3003 RMK T01001010 IEM_DS3505
ZBHH,2007-02-27 09:00,ZBHH 270900Z AUTO 09006KT 6SM 10/M02 A3003 RMK SLP195 T01041016 57006 IEM_DS3505
ZBHH,2007-02-27 10:00,ZBHH 271000Z AUTO 14008KT 2 1/2SM 08/M01 A3003 RMK T00801010 IEM_DS3505
ZBHH,2007-02-27 11:00,ZBHH 271100Z AUTO 10004KT 3SM 07/M02 A3003 RMK T00701020 IEM_DS3505
ZBHH,2007-02-27 12:00,ZBHH 271200Z AUTO 09006KT 6SM 08/M03 A3006 RMK SLP209 T00791033 52009 IEM_DS3505
ZBHH,2007-02-27 13:00,ZBHH 271300Z AUTO 12004KT 3SM 04/M03 A3009 RMK T00401030 IEM_DS3505
ZBHH,2007-02-27 14:00,ZBHH 271400Z AUTO 16008KT 4SM 05/M05 A3009 RMK T00501050 IEM_DS3505
ZBHH,2007-02-27 15:00,ZBHH 271500Z AUTO 11002KT 6SM 06/M04 A3009 RMK SLP195 T00611041 52006 IEM_DS3505
ZBHH,2007-02-27 16:00,ZBHH 271600Z AUTO 15006KT 7SM 04/M05 A3006 RMK T00401050 IEM_DS3505
ZBHH,2007-02-27 17:00,ZBHH 271700Z AUTO 15008KT 7SM 04/M06 A3006 RMK T00401060 IEM_DS3505
ZBHH,2007-02-27 18:00,ZBHH 271800Z AUTO 09004KT 9SM 05/M06 RMK SLP186 T00461060 57006 IEM_DS3505
ZBHH,2007-02-27 19:00,ZBHH 271900Z AUTO 16008KT 7SM 02/M05 A3006 RMK T00201050 IEM_DS3505
ZBHH,2007-02-27 20:00,ZBHH 272000Z AUTO 17010KT 7SM 02/M06 A3003 RMK T00201060 IEM_DS3505
ZBHH,2007-02-27 21:00,ZBHH 272100Z AUTO 20002KT 7SM 03/M06 A3003 RMK SLP189 T00281058 57006 IEM_DS3505
ZBHH,2007-02-27 22:00,ZBHH 272200Z AUTO 17014G23KT 3SM 01/M05 A3003 RMK T00101050 IEM_DS3505
ZBHH,2007-02-27 23:00,ZBHH 272300Z AUTO 16014KT 3SM 01/M05 A3003 RMK T00101050 IEM_DS3505
ZBHH,2007-02-28 00:00,ZBHH 280000Z AUTO 18004KT 7SM 03/M05 A3003 RMK SLP197 T00321047 52002 IEM_DS3505
ZBHH,2007-02-28 01:00,ZBHH 280100Z AUTO 16014KT 2 1/2SM 02/M03 A3006 RMK T00201030 IEM_DS3505
ZBHH,2007-02-28 02:00,ZBHH 280200Z AUTO 16010KT 3SM 02/M03 A3003 RMK T00201030 IEM_DS3505
ZBHH,2007-02-28 03:00,ZBHH 280300Z AUTO 18004KT 5SM 04/M04 A3003 RMK SLP200 T00421038 52001 IEM_DS3505
ZBHH,2007-02-28 04:00,ZBHH 280400Z AUTO 16010KT 3SM 03/M03 A3003 RMK T00301030 IEM_DS3505
ZBHH,2007-02-28 05:00,ZBHH 280500Z 16006MPS 5000 HZ BKN040 03/M04 Q1017 NOSIG
ZBHH,2007-02-28 06:00,ZBHH 280600Z AUTO 18006KT 4SM 04/M01 A3000 RMK 60000 SLP190 T00401010 57012 IEM_DS3505
ZBHH,2007-02-28 07:00,ZBHH 280700Z AUTO 14006KT 1 1/2SM 01/00 A3000 RMK T00100000 IEM_DS3505
ZBHH,2007-02-28 08:00,ZBHH 280800Z AUTO 14006KT 1SM 01/00 A3000 RMK T00100000 IEM_DS3505
ZBHH,2007-02-28 09:00,ZBHH 280900Z AUTO 11004KT 4SM 02/01 A2997 RMK SLP186 T00220009 57011 IEM_DS3505
ZBHH,2007-02-28 10:00,ZBHH 281000Z AUTO 15004KT 3SM 01/00 A2997 RMK T00100000 IEM_DS3505
ZBHH,2007-02-28 11:00,ZBHH 281100Z AUTO 17008KT 4SM 02/M01 A2997 RMK T00201010 IEM_DS3505
ZBHH,2007-02-28 16:00,ZBHH 281600Z AUTO 18004KT 4SM 01/M01 A3000 RMK T00101010 IEM_DS3505
ZBHH,2007-02-28 18:00,ZBHH 281800Z AUTO 20004KT 4SM 02/M00 RMK 60002 SLP196 T00151004 52001 IEM_DS3505
ZBHH,2007-02-28 20:00,ZBHH 282000Z AUTO 00000KT 4SM 00/00 A2997 RMK T00000000 IEM_DS3505
ZBHH,2007-02-28 21:00,ZBHH 282100Z AUTO 36002KT 6SM 01/M00 A2997 RMK 70008 SLP192 T00071004 57009 IEM_DS3505
ZBHH,2007-02-28 22:00,ZBHH 282200Z AUTO 01002KT 2SM M01/M01 A3000 RMK T10101010 IEM_DS3505
ZBHH,2007-02-28 23:00,ZBHH 282300Z AUTO 01004KT 2SM M01/M01 A3000 RMK T10101010 IEM_DS3505
ZBHH,2007-03-01 00:00,ZBHH 010000Z AUTO 02002KT 6SM 01/M00 A3003 RMK 60008 70014 SLP207 T00091001 52013 IEM_DS3505
ZBHH,2007-03-01 01:00,ZBHH 010100Z AUTO 09002KT 1SM 00/00 A3003 RMK T00000000 IEM_DS3505
ZBHH,2007-03-01 02:00,ZBHH 010200Z AUTO 03002KT 2SM 00/00 A3003 RMK T00000000 IEM_DS3505
ZBHH,2007-03-01 03:00,ZBHH 010300Z AUTO 22002KT 5SM 02/00 A3006 RMK SLP217 T00180000 52011 IEM_DS3505
ZBHH,2007-03-01 04:00,ZBHH 010400Z AUTO 00000KT 2SM 01/00 A3006 RMK T00100000 IEM_DS3505
ZBHH,2007-03-01 05:00,ZBHH 010500Z AUTO 09002KT 2 1/2SM 02/00 A3003 RMK T00200000 IEM_DS3505
ZBHH,2007-03-01 06:00,ZBHH 010600Z AUTO 22002KT 6SM 04/00 A3000 RMK 60002 SLP198 T00390001 57014 IEM_DS3505
ZBHH,2007-03-01 07:00,ZBHH 010700Z AUTO 03002KT 2 1/2SM 02/00 A3000 RMK T00200000 IEM_DS3505
ZBHH,2007-03-01 08:00,ZBHH 010800Z AUTO 07002KT 2 1/2SM 03/00 A3003 RMK T00300000 IEM_DS3505
ZBHH,2007-03-01 09:00,ZBHH 010900Z AUTO 09002KT 5SM 04/00 A3000 RMK SLP201 T00390004 52001 IEM_DS3505
ZBHH,2007-03-01 10:00,ZBHH 011000Z AUTO 23002KT 2 1/2SM 03/00 A3003 RMK T00300000 IEM_DS3505
ZBHH,2007-03-01 11:00,ZBHH 011100Z AUTO 00000KT 2 1/2SM 02/00 A3003 RMK T00200000 IEM_DS3505
ZBHH,2007-03-01 12:00,ZBHH 011200Z AUTO 36002KT 7SM 04/M00 A3003 RMK SLP211 T00361002 52009 IEM_DS3505
ZBHH,2007-03-01 13:00,ZBHH 011300Z AUTO 01004KT 1 1/4SM 00/00 A3006 RMK T00000000 IEM_DS3505
ZBHH,2007-03-01 14:00,ZBHH 011400Z AUTO 11002KT 1 1/4SM 00/M01 A3006 RMK T00001010 IEM_DS3505
ZBHH,2007-03-01 15:00,ZBHH 011500Z AUTO 09004KT 7SM 03/M00 A3006 RMK SLP218 T00301001 52007 IEM_DS3505
ZBHH,2007-03-01 18:00,ZBHH 011800Z AUTO 04004KT 7SM 03/M00 RMK SLP222 T00271001 52007 IEM_DS3505
ZBHH,2007-03-01 21:00,ZBHH 012100Z AUTO 09004KT 7SM 03/M00 A3006 RMK 70008 SLP207 T00281003 57013 IEM_DS3505
ZBHH,2007-03-02 00:00,ZBHH 020000Z AUTO 03002KT 7SM 03/M00 A3009 RMK 70002 SLP225 T00281005 52015 IEM_DS3505
ZBHH,2007-03-02 01:00,ZBHH 020100Z AUTO 08006KT 2 1/2SM 01/00 A3009 RMK T00100000 IEM_DS3505
ZBHH,2007-03-02 02:00,ZBHH 020200Z AUTO 09006KT 2 1/2SM 02/00 A3009 RMK T00200000 IEM_DS3505
ZBHH,2007-03-02 03:00,ZBHH 020300Z AUTO 09004KT 12SM 05/M00 RMK SLP214 T00491003 57006 IEM_DS3505
ZBHH,2007-03-02 04:00,ZBHH 020400Z AUTO 09004KT 4SM 05/00 A3006 RMK T00500000 IEM_DS3505
ZBHH,2007-03-02 05:00,ZBHH 020500Z AUTO 08002KT 4SM 05/M01 A3006 RMK T00501010 IEM_DS3505
ZBHH,2007-03-02 06:00,ZBHH 020600Z AUTO 04006KT 12SM 06/M01 A3006 RMK SLP202 T00621010 57009 IEM_DS3505
ZBHH,2007-03-02 07:00,ZBHH 020700Z AUTO 03002KT 5SM 05/M01 A3003 RMK T00501010 IEM_DS3505
ZBHH,2007-03-02 08:00,ZBHH 020800Z AUTO 06002KT 5SM 06/M01 A3003 RMK T00601010 IEM_DS3505
ZBHH,2007-03-02 09:00,ZBHH 020900Z AUTO 02002KT 9SM 06/M01 A3003 RMK SLP200 T00651012 57001 IEM_DS3505
ZBHH,2007-03-02 10:00,ZBHH 021000Z AUTO 11002KT 4SM 05/M01 A3006 RMK T00501010 IEM_DS3505
ZBHH,2007-03-02 11:00,ZBHH 021100Z AUTO 00000KT 4SM 04/00 A3006 RMK T00400000 IEM_DS3505
ZBHH,2007-03-02 12:00,ZBHH 021200Z AUTO 34002KT 6SM 06/M00 A3009 RMK SLP213 T00601003 52011 IEM_DS3505
ZBHH,2007-03-02 13:00,ZBHH 021300Z AUTO 35002KT 3SM 04/00 A3009 RMK T00400000 IEM_DS3505
ZBHH,2007-03-02 14:00,ZBHH 021400Z AUTO 15002KT 2 1/2SM 03/00 A3009 RMK T00300000 IEM_DS3505
ZBHH,2007-03-02 15:00,ZBHH 021500Z AUTO 04002KT 9SM 05/M00 A3009 RMK SLP210 T00531003 54000 IEM_DS3505
ZBHH,2007-03-02 16:00,ZBHH 021600Z AUTO 18004KT 2 1/2SM 02/00 A3009 RMK T00200000 IEM_DS3505
ZBHH,2007-03-02 17:00,ZBHH 021700Z AUTO 07002KT 2 1/2SM 02/00 A3006 RMK T00200000 IEM_DS3505
ZBHH,2007-03-02 18:00,ZBHH 021800Z AUTO 11002KT 9SM 04/M00 RMK SLP204 T00391003 57006 IEM_DS3505
ZBHH,2007-03-02 21:00,ZBHH 022100Z AUTO 02002KT 9SM 05/01 A3003 RMK 70000 SLP193 T00490012 57007 IEM_DS3505
ZBHH,2007-03-02 22:00,ZBHH 022200Z AUTO 15002KT 1 1/2SM 03/01 A3006 RMK T00300010 IEM_DS3505
ZBHH,2007-03-02 23:00,ZBHH 022300Z AUTO 09004KT 1SM 01/00 A3006 RMK T00100000 IEM_DS3505
ZBHH,2007-03-03 00:00,ZBHH 030000Z AUTO 07002KT 5SM 02/01 A3006 RMK 60020 70020 SLP212 T00180006 52010 IEM_DS3505
ZBHH,2007-03-03 01:00,ZBHH 030100Z AUTO 08008KT 1 1/4SM 01/01 A3006 RMK T00100010 IEM_DS3505
ZBHH,2007-03-03 02:00,ZBHH 030200Z AUTO 08006KT 1 1/2SM 01/01 A3006 RMK T00100010 IEM_DS3505
ZBHH,2007-03-03 03:00,ZBHH 030300Z AUTO 29002KT 5SM 01/M01 A3006 RMK SLP211 T00081007 57005 IEM_DS3505
ZBHH,2007-03-03 04:00,ZBHH 030400Z AUTO 02002KT 3SM 01/00 A3003 RMK T00100000 IEM_DS3505
ZBHH,2007-03-03 05:00,ZBHH 030500Z AUTO 34002KT 4SM 01/00 A3003 RMK T00100000 IEM_DS3505
ZBHH,2007-03-03 06:00,ZBHH 030600Z AUTO 32014KT 5SM M02/M06 A3000 RMK 60012 SLP206 T10171061 57012 IEM_DS3505
ZBHH,2007-03-03 07:00,ZBHH 030700Z AUTO 36012KT 1 1/4SM M02/M04 A3000 RMK T10201040 IEM_DS3505
ZBHH,2007-03-03 08:00,ZBHH 030800Z AUTO 36014G23KT 1 1/4SM M03/M05 A3000 RMK T10301050 IEM_DS3505
ZBHH,2007-03-03 09:00,ZBHH 030900Z AUTO 29006KT 5SM M03/M06 A3003 RMK SLP212 T10281063 52005 IEM_DS3505
ZBHH,2007-03-03 10:00,ZBHH 031000Z AUTO 36014KT 1SM M04/M06 A3003 RMK T10401060 IEM_DS3505
ZBHH,2007-03-03 11:00,ZBHH 031100Z AUTO 36010KT 2SM M05/M07 A3006 RMK T10501070 IEM_DS3505
ZBHH,2007-03-03 12:00,ZBHH 031200Z AUTO 29004KT 5SM M03/M09 A3009 RMK 60008 SLP240 T10341086 52016 IEM_DS3505
ZBHH,2007-03-03 13:00,ZBHH 031300Z AUTO 36014KT 6SM M05/M09 A3009 RMK T10501090 IEM_DS3505
ZBHH,2007-03-03 14:00,ZBHH 031400Z AUTO 36014KT 2SM M06/M09 A3012 RMK T10601090 IEM_DS3505
ZBHH,2007-03-03 15:00,ZBHH 031500Z AUTO 29002KT 4SM M04/M08 A3012 RMK SLP257 T10421085 52011 IEM_DS3505
ZBHH,2007-03-03 16:00,ZBHH 031600Z AUTO 36017G27KT 5SM M06/M10 A3009 RMK T10601100 IEM_DS3505
ZBHH,2007-03-03 17:00,ZBHH 031700Z AUTO 36016KT 7SM M07/M11 A3009 RMK T10701110 IEM_DS3505
ZBHH,2007-03-03 18:00,ZBHH 031800Z AUTO 07006KT 7SM M04/M12 A3009 RMK 60000 SLP253 T10401119 57008 IEM_DS3505
ZBHH,2007-03-03 19:00,ZBHH 031900Z AUTO 36014KT 7SM M06/M12 A3009 RMK T10601120 IEM_DS3505
ZBHH,2007-03-03 20:00,ZBHH 032000Z AUTO 02014KT 7SM M06/M13 A3009 RMK T10601130 IEM_DS3505
ZBHH,2007-03-03 21:00,ZBHH 032100Z AUTO 07008KT 7SM M05/M13 A3012 RMK 70039 SLP267 T10521133 52007 IEM_DS3505
ZBHH,2007-03-03 22:00,ZBHH 032200Z AUTO 01012KT 7SM M07/M13 A3012 RMK T10701130 IEM_DS3505
ZBHH,2007-03-03 23:00,ZBHH 032300Z AUTO 03010G23KT 7SM M07/M14 A3015 RMK T10701140 IEM_DS3505
ZBHH,2007-03-04 00:00,ZBHH 040000Z AUTO 02006KT 12SM M06/M14 A3018 RMK 70020 SLP295 T10631141 52021 IEM_DS3505
ZBHH,2007-03-04 01:00,ZBHH 040100Z AUTO 03008KT 7SM M06/M14 A3018 RMK T10601140 IEM_DS3505
ZBHH,2007-03-04 02:00,ZBHH 040200Z AUTO 04010KT 7SM M06/M13 A3021 RMK T10601130 IEM_DS3505
ZBHH,2007-03-04 03:00,ZBHH 040300Z AUTO 36008KT 12SM M05/M14 A3021 RMK SLP310 T10491137 52014 IEM_DS3505
ZBHH,2007-03-04 04:00,ZBHH 040400Z AUTO 04014G23KT 7SM M05/M13 A3024 RMK T10501130 IEM_DS3505
ZBHH,2007-03-04 05:00,ZBHH 040500Z AUTO 04014KT 7SM M05/M13 A3024 RMK T10501130 IEM_DS3505
ZBHH,2007-03-04 06:00,ZBHH 040600Z AUTO 36008KT 12SM M04/M14 A3027 RMK SLP332 T10451138 52021 IEM_DS3505
ZBHH,2007-03-04 07:00,ZBHH 040700Z AUTO 36012KT 7SM M05/M13 A3033 RMK T10501130 IEM_DS3505
ZBHH,2007-03-04 08:00,ZBHH 040800Z AUTO 04017G27KT 7SM M06/M17 A3033 RMK T10601170 IEM_DS3505
ZBHH,2007-03-04 09:00,ZBHH 040900Z AUTO 04006KT 19SM M06/M18 A3036 RMK SLP360 T10641175 52017 IEM_DS3505
ZBHH,2007-03-04 10:00,ZBHH 041000Z AUTO 01014G23KT 6SM M08/M18 A3036 RMK T10801180 IEM_DS3505
ZBHH,2007-03-04 11:00,ZBHH 041100Z AUTO 35008KT 6SM M09/M17 A3042 RMK T10901170 IEM_DS3505
ZBHH,2007-03-04 12:00,ZBHH 041200Z AUTO 32004KT 19SM M09/M18 A3045 RMK SLP398 T10901175 52025 IEM_DS3505
ZBHH,2007-03-04 13:00,ZBHH 041300Z AUTO 02006KT 6SM M11/M18 A3045 RMK T11101180 IEM_DS3505
ZBHH,2007-03-04 14:00,ZBHH 041400Z AUTO 36006KT 6SM M11/M18 A3047 RMK T11101180 IEM_DS3505
ZBHH,2007-03-04 15:00,ZBHH 041500Z AUTO 34008KT 19SM M10/M19 A3047 RMK SLP412 T11001187 52013 IEM_DS3505
ZBHH,2007-03-04 16:00,ZBHH 041600Z AUTO 02010KT 6SM M12/M20 A3047 RMK T11201200 IEM_DS3505
ZBHH,2007-03-04 17:00,ZBHH 041700Z AUTO 01008KT 6SM M13/M20 A3047 RMK T11301200 IEM_DS3505
ZBHH,2007-03-04 18:00,ZBHH 041800Z AUTO 25002KT 19SM M12/M20 A3047 RMK SLP416 T11161197 52001 IEM_DS3505
ZBHH,2007-03-04 19:00,ZBHH 041900Z AUTO 36006KT 6SM M14/M21 A3047 RMK T11401210 IEM_DS3505
ZBHH,2007-03-04 20:00,ZBHH 042000Z AUTO 35008KT 6SM M15/M21 A3047 RMK T11501210 IEM_DS3505
ZBHH,2007-03-04 21:00,ZBHH 042100Z AUTO 27006KT 19SM M13/M20 A3047 RMK SLP423 T11341203 57003 IEM_DS3505
ZBHH,2007-03-04 22:00,ZBHH 042200Z AUTO 36006KT 6SM M16/M22 A3047 RMK T11601220 IEM_DS3505
ZBHH,2007-03-04 23:00,ZBHH 042300Z AUTO 36004KT 6SM M17/M22 A3050 RMK T11701220 IEM_DS3505
ZBHH,2007-03-05 00:00,ZBHH 050000Z AUTO 29004KT 19SM M15/M22 A3053 RMK SLP452 T11491221 52016 IEM_DS3505
ZBHH,2007-03-05 01:00,ZBHH 050100Z AUTO 28002KT 6SM M15/M23 A3053 RMK T11501230 IEM_DS3505
ZBHH,2007-03-05 02:00,ZBHH 050200Z AUTO 18002KT 6SM M13/M22 A3053 RMK T11301220 IEM_DS3505
ZBHH,2007-03-05 03:00,ZBHH 050300Z AUTO 25004KT 19SM M10/M22 A3053 RMK SLP442 T11031216 54000 IEM_DS3505
ZBHH,2007-03-05 05:00,ZBHH 050500Z AUTO 21002KT 6SM M10/M20 A3050 RMK T11001200 IEM_DS3505
ZBHH,2007-03-05 06:00,ZBHH 050600Z AUTO 36004KT 19SM M07/M24 A3045 RMK SLP412 T10681240 57022 IEM_DS3505
ZBHH,2007-03-05 08:00,ZBHH 050800Z AUTO 35010KT 6SM M08/M22 A3042 RMK T10801220 IEM_DS3505
ZBHH,2007-03-05 09:00,ZBHH 050900Z AUTO 35008KT 6SM M08/M22 A3042 RMK T10801220 IEM_DS3505
ZBHH,2007-03-05 10:00,ZBHH 051000Z AUTO 36008KT 6SM M09/M22 A3039 RMK T10901220 IEM_DS3505
ZBHH,2007-03-05 11:00,ZBHH 051100Z AUTO 35004KT 6SM M11/M23 A3042 RMK T11101230 IEM_DS3505
ZBHH,2007-03-05 12:00,ZBHH 051200Z AUTO 29004KT 19SM M09/M24 A3042 RMK SLP416 T10911235 52007 IEM_DS3505
ZBHH,2007-03-05 13:00,ZBHH 051300Z AUTO 00000KT 6SM M11/M22 A3045 RMK T11101220 IEM_DS3505
ZBHH,2007-03-05 14:00,ZBHH 051400Z AUTO 05004KT 6SM M12/M22 A3045 RMK T11201220 IEM_DS3505
ZBHH,2007-03-05 15:00,ZBHH 051500Z AUTO 34002KT 19SM M10/M22 A3042 RMK SLP408 T11031225 52001 IEM_DS3505
ZBHH,2007-03-05 17:00,ZBHH 051700Z AUTO 10002KT 6SM M14/M18 A3039 RMK T11401180 IEM_DS3505
ZBHH,2007-03-05 18:00,ZBHH 051800Z AUTO 09002KT 19SM M11/M23 A3039 RMK SLP384 T11131228 57015 IEM_DS3505
ZBHH,2007-03-05 20:00,ZBHH 052000Z AUTO 10002KT 6SM M14/M18 A3033 RMK T11401180 IEM_DS3505
ZBHH,2007-03-05 21:00,ZBHH 052100Z AUTO 02004KT 19SM M13/M19 A3033 RMK SLP367 T11271194 57017 IEM_DS3505
ZBHH,2007-03-06 00:00,ZBHH 060000Z AUTO 09004KT 19SM M12/M18 A3033 RMK SLP374 T11231185 52001 IEM_DS3505
ZBHH,2007-03-06 01:00,ZBHH 060100Z AUTO 12002KT 6SM M14/M18 A3033 RMK T11401180 IEM_DS3505
ZBHH,2007-03-06 04:00,ZBHH 060400Z AUTO 19004KT 2 1/2SM M10/M15 A3027 RMK T11001150 IEM_DS3505
ZBHH,2007-03-06 05:00,ZBHH 060500Z AUTO 22004KT 2 1/2SM M08/M14 A3024 RMK T10801140 IEM_DS3505
ZBHH,2007-03-06 06:00,ZBHH 060600Z AUTO 20006KT 16SM M05/M14 A3018 RMK SLP317 T10541137 57025 IEM_DS3505
ZBHH,2007-03-06 07:00,ZBHH 060700Z AUTO 22006KT 5SM M07/M12 A3018 RMK T10701120 IEM_DS3505
ZBHH,2007-03-06 08:00,ZBHH 060800Z AUTO 23008KT 4SM M07/M11 A3018 RMK T10701110 IEM_DS3505
ZBHH,2007-03-06 09:00,ZBHH 060900Z AUTO 25008KT 16SM M04/M12 A3015 RMK SLP306 T10451115 57011 IEM_DS3505
ZBHH,2007-03-06 10:00,ZBHH 061000Z AUTO 24008KT 4SM M06/M11 A3015 RMK T10601110 IEM_DS3505
ZBHH,2007-03-06 11:00,ZBHH 061100Z AUTO 26006KT 4SM M07/M11 A3018 RMK T10701110 IEM_DS3505
ZBHH,2007-03-06 12:00,ZBHH 061200Z AUTO 34006KT 16SM M06/M14 A3018 RMK SLP318 T10621135 52008 IEM_DS3505
ZBHH,2007-03-06 13:00,ZBHH 061300Z AUTO 02004KT 6SM M08/M14 A3018 RMK T10801140 IEM_DS3505
ZBHH,2007-03-06 14:00,ZBHH 061400Z AUTO 35006KT 6SM M09/M14 A3021 RMK T10901140 IEM_DS3505
ZBHH,2007-03-06 15:00,ZBHH 061500Z AUTO 34004KT 19SM M08/M15 A3021 RMK SLP317 T10781148 52004 IEM_DS3505
ZBHH,2007-03-06 16:00,ZBHH 061600Z AUTO 03006KT 6SM M10/M15 A3021 RMK T11001150 IEM_DS3505
ZBHH,2007-03-06 17:00,ZBHH 061700Z AUTO 02008KT 6SM M11/M16 A3021 RMK T11101160 IEM_DS3505
ZBHH,2007-03-06 18:00,ZBHH 061800Z AUTO 32008KT 19SM M09/M17 A3021 RMK SLP308 T10861167 57003 IEM_DS3505
ZBHH,2007-03-06 19:00,ZBHH 061900Z AUTO 01008KT 6SM M12/M17 A3018 RMK T11201170 IEM_DS3505
ZBHH,2007-03-06 21:00,ZBHH 062100Z AUTO 16002KT 19SM M10/M16 A3015 RMK SLP297 T11021165 57011 IEM_DS3505
ZBHH,2007-03-06 22:00,ZBHH 062200Z AUTO 11004KT 6SM M14/M18 A3015 RMK T11401180 IEM_DS3505
ZBHH,2007-03-06 23:00,ZBHH 062300Z AUTO 08006KT 6SM M15/M18 A3018 RMK T11501180 IEM_DS3505
ZBHH,2007-03-07 00:00,ZBHH 070000Z AUTO 09002KT 19SM M10/M16 A3018 RMK SLP307 T11031164 52005 IEM_DS3505
ZBHH,2007-03-07 01:00,ZBHH 070100Z AUTO 11002KT 6SM M11/M17 A3018 RMK T11101170 IEM_DS3505
ZBHH,2007-03-07 02:00,ZBHH 070200Z AUTO 11002KT 6SM M09/M16 A3015 RMK T10901160 IEM_DS3505
ZBHH,2007-03-07 03:00,ZBHH 070300Z AUTO 25004KT 9SM M06/M15 A3018 RMK SLP300 T10611153 54000 IEM_DS3505
ZBHH,2007-03-07 04:00,ZBHH 070400Z AUTO 23006KT 6SM M07/M14 A3015 RMK T10701140 IEM_DS3505
ZBHH,2007-03-07 05:00,ZBHH 070500Z AUTO 24008KT 6SM M05/M13 A3012 RMK T10501130 IEM_DS3505
ZBHH,2007-03-07 06:00,ZBHH 070600Z AUTO 20008KT 19SM M03/M13 A3009 RMK SLP273 T10301133 57019 IEM_DS3505
ZBHH,2007-03-07 07:00,ZBHH 070700Z AUTO 24008KT 6SM M04/M12 A3009 RMK T10401120 IEM_DS3505
ZBHH,2007-03-07 08:00,ZBHH 070800Z AUTO 23008KT 6SM M03/M12 A3006 RMK T10301120 IEM_DS3505
ZBHH,2007-03-07 09:00,ZBHH 070900Z AUTO 25008KT 19SM M02/M11 A3006 RMK SLP256 T10211109 57016 IEM_DS3505
ZBHH,2007-03-07 10:00,ZBHH 071000Z AUTO 23008KT 6SM M04/M10 A3006 RMK T10401100 IEM_DS3505
ZBHH,2007-03-07 11:00,ZBHH 071100Z AUTO 25008KT 5SM M05/M10 A3009 RMK T10501100 IEM_DS3505
ZBHH,2007-03-07 12:00,ZBHH 071200Z AUTO 22006KT 19SM M04/M09 A3009 RMK SLP271 T10381094 52009 IEM_DS3505
ZBHH,2007-03-07 13:00,ZBHH 071300Z AUTO 15002KT 3SM M06/M09 A3009 RMK T10601090 IEM_DS3505
ZBHH,2007-03-07 14:00,ZBHH 071400Z AUTO 15002KT 4SM M07/M10 A3012 RMK T10701100 IEM_DS3505
ZBHH,2007-03-07 15:00,ZBHH 071500Z AUTO 06002KT 5SM M08/M10 A3012 RMK T10801100 IEM_DS3505
ZBHH,2007-03-07 16:00,ZBHH 071600Z AUTO 09004KT 4SM M08/M10 A3009 RMK T10801100 IEM_DS3505
ZBHH,2007-03-07 17:00,ZBHH 071700Z AUTO 04002KT 4SM M09/M11 A3009 RMK T10901110 IEM_DS3505
ZBHH,2007-03-07 18:00,ZBHH 071800Z AUTO 07004KT 19SM M07/M11 A3006 RMK SLP252 T10671111 57013 IEM_DS3505
ZBHH,2007-03-07 19:00,ZBHH 071900Z AUTO 10002KT 4SM M10/M12 A3006 RMK T11001120 IEM_DS3505
ZBHH,2007-03-07 20:00,ZBHH 072000Z AUTO 01002KT 4SM M10/M12 A3003 RMK T11001120 IEM_DS3505
ZBHH,2007-03-07 21:00,ZBHH 072100Z AUTO 04002KT 19SM M08/M12 A3003 RMK SLP240 T10781121 57011 IEM_DS3505
ZBHH,2007-03-07 22:00,ZBHH 072200Z AUTO 12002KT 5SM M10/M12 A3003 RMK T11001120 IEM_DS3505
ZBHH,2007-03-07 23:00,ZBHH 072300Z AUTO 00000KT 5SM M09/M11 A3003 RMK T10901110 IEM_DS3505
ZBHH,2007-03-08 00:00,ZBHH 080000Z AUTO 09004KT 9SM M07/M10 A3003 RMK SLP244 T10711104 52001 IEM_DS3505
ZBHH,2007-03-08 01:00,ZBHH 080100Z AUTO 19002KT 2 1/2SM M09/M11 A3003 RMK T10901110 IEM_DS3505
ZBHH,2007-03-08 02:00,ZBHH 080200Z AUTO 00000KT 2 1/2SM M07/M10 A3003 RMK T10701100 IEM_DS3505
ZBHH,2007-03-08 03:00,ZBHH 080300Z AUTO 08002KT 12SM M04/M09 A3003 RMK SLP239 T10401094 57001 IEM_DS3505
ZBHH,2007-03-08 04:00,ZBHH 080400Z AUTO 16002KT 3SM M03/M09 A3000 RMK T10301090 IEM_DS3505
ZBHH,2007-03-08 05:00,ZBHH 080500Z AUTO 21006KT 3SM M03/M09 A2997 RMK T10301090 IEM_DS3505
ZBHH,2007-03-08 06:00,ZBHH 080600Z AUTO 22008KT 12SM 00/M11 A2994 RMK 60000 SLP198 T00021112 57029 IEM_DS3505
ZBHH,2007-03-08 07:00,ZBHH 080700Z AUTO 22010KT 5SM 00/M08 A2991 RMK T00001080 IEM_DS3505
ZBHH,2007-03-08 08:00,ZBHH 080800Z AUTO 23012KT 4SM 00/M08 A2988 RMK T00001080 IEM_DS3505
ZBHH,2007-03-08 09:00,ZBHH 080900Z AUTO 22008KT 12SM 01/M09 A2991 RMK SLP188 T00111092 57009 IEM_DS3505
ZBHH,2007-03-08 10:00,ZBHH 081000Z AUTO 22004KT 4SM M01/M07 A2991 RMK T10101070 IEM_DS3505
ZBHH,2007-03-08 11:00,ZBHH 081100Z AUTO 00000KT 4SM M01/M06 A2991 RMK T10101060 IEM_DS3505
ZBHH,2007-03-08 13:00,ZBHH 081300Z AUTO 20002KT 3SM M02/M05 A2994 RMK T10201050 IEM_DS3505
ZBHH,2007-03-08 14:00,ZBHH 081400Z AUTO 23004KT 3SM M02/M03 A2994 RMK T10201030 IEM_DS3505
ZBHH,2007-03-08 15:00,ZBHH 081500Z AUTO 23002KT 9SM M01/M03 A2994 RMK SLP194 T10081030 52003 IEM_DS3505
ZBHH,2007-03-08 17:00,ZBHH 081700Z AUTO 15002KT 3SM M02/M03 A2991 RMK T10201030 IEM_DS3505
ZBHH,2007-03-08 18:00,ZBHH 081800Z AUTO 25002KT 7SM M01/M03 A2991 RMK SLP177 T10091031 57006 IEM_DS3505
ZBHH,2007-03-08 19:00,ZBHH 081900Z AUTO 20002KT 3SM M03/M04 A2991 RMK T10301040 IEM_DS3505
ZBHH,2007-03-08 20:00,ZBHH 082000Z AUTO 17002KT 3SM M04/M04 A2991 RMK T10401040 IEM_DS3505
ZBHH,2007-03-08 21:00,ZBHH 082100Z AUTO 20004KT 9SM M02/M04 A2991 RMK 70000 SLP174 T10211040 57003 IEM_DS3505
ZBHH,2007-03-08 22:00,ZBHH 082200Z AUTO 00000KT 4SM M04/M05 A2991 RMK T10401050 IEM_DS3505
ZBHH,2007-03-08 23:00,ZBHH 082300Z AUTO 15004KT 4SM M04/M05 A2991 RMK T10401050 IEM_DS3505
ZBHH,2007-03-09 00:00,ZBHH 090000Z AUTO 29002KT 5SM M02/M04 A2994 RMK 70000 SLP186 T10211044 52008 IEM_DS3505
ZBHH,2007-03-09 01:00,ZBHH 090100Z AUTO 22004KT 3SM M04/M06 A2994 RMK T10401060 IEM_DS3505
ZBHH,2007-03-09 02:00,ZBHH 090200Z AUTO 22004KT 2 1/2SM M03/M05 A2994 RMK T10301050 IEM_DS3505
ZBHH,2007-03-09 03:00,ZBHH 090300Z AUTO 18004KT 6SM 00/M05 A2994 RMK SLP184 T00051047 52002 IEM_DS3505
ZBHH,2007-03-09 04:00,ZBHH 090400Z AUTO 22008KT 4SM 00/M05 A2991 RMK T00001050 IEM_DS3505
ZBHH,2007-03-09 05:00,ZBHH 090500Z AUTO 25019KT 6SM 01/M08 A2988 RMK T00101080 IEM_DS3505
ZBHH,2007-03-09 06:00,ZBHH 090600Z AUTO 32012G23KT 9SM 01/M11 A2988 RMK SLP171 T00091112 57011 IEM_DS3505
ZBHH,2007-03-09 07:00,ZBHH 090700Z AUTO 34016G25KT 7SM M02/M10 A2991 RMK T10201100 IEM_DS3505
ZBHH,2007-03-09 08:00,ZBHH 090800Z AUTO 33017G31KT 7SM M03/M12 A2994 RMK T10301120 IEM_DS3505
ZBHH,2007-03-09 09:00,ZBHH 090900Z AUTO 32014G27KT 12SM M04/M13 A3000 RMK SLP227 T10361133 52037 IEM_DS3505
ZBHH,2007-03-09 10:00,ZBHH 091000Z AUTO 34017G27KT 7SM M07/M14 A3003 RMK T10701140 IEM_DS3505
ZBHH,2007-03-09 11:00,ZBHH 091100Z AUTO 35014KT 7SM M08/M14 A3012 RMK T10801140 IEM_DS3505
ZBHH,2007-03-09 12:00,ZBHH 091200Z AUTO 32008KT 19SM M08/M15 A3015 RMK SLP286 T10751148 52043 IEM_DS3505
ZBHH,2007-03-09 13:00,ZBHH 091300Z AUTO 35010G19KT 7SM M09/M16 A3018 RMK T10901160 IEM_DS3505
ZBHH,2007-03-09 14:00,ZBHH 091400Z AUTO 35008KT 7SM M10/M15 A3021 RMK T11001150 IEM_DS3505
ZBHH,2007-03-09 15:00,ZBHH 091500Z AUTO 32012G23KT 19SM M09/M16 A3024 RMK SLP304 T10941163 52017 IEM_DS3505
ZBHH,2007-03-09 16:00,ZBHH 091600Z AUTO 34014G23KT 6SM M10/M18 A3024 RMK T11001180 IEM_DS3505
ZBHH,2007-03-09 17:00,ZBHH 091700Z AUTO 36010G19KT 6SM M12/M20 A3027 RMK T11201200 IEM_DS3505
ZBHH,2007-03-09 18:00,ZBHH 091800Z AUTO 34012KT 19SM M12/M21 A3030 RMK SLP342 T11181213 52029 IEM_DS3505
ZBHH,2007-03-09 19:00,ZBHH 091900Z AUTO 35012KT 6SM M14/M23 A3030 RMK T11401230 IEM_DS3505
ZBHH,2007-03-09 20:00,ZBHH 092000Z AUTO 35006KT 6SM M14/M24 A3030 RMK T11401240 IEM_DS3505
ZBHH,2007-03-09 21:00,ZBHH 092100Z AUTO 34004KT 19SM M14/M24 A3033 RMK SLP362 T11381240 52003 IEM_DS3505
ZBHH,2007-03-09 22:00,ZBHH 092200Z AUTO 35004KT 6SM M16/M24 A3033 RMK T11601240 IEM_DS3505
ZBHH,2007-03-09 23:00,ZBHH 092300Z AUTO 02006KT 6SM M17/M24 A3033 RMK T11701240 IEM_DS3505
ZBHH,2007-03-10 00:00,ZBHH 100000Z AUTO 32004KT 19SM M13/M24 A3033 RMK SLP375 T11301241 52004 IEM_DS3505
ZBHH,2007-03-10 01:00,ZBHH 100100Z AUTO 04002KT 6SM M13/M23 A3036 RMK T11301230 IEM_DS3505
ZBHH,2007-03-10 02:00,ZBHH 100200Z AUTO 24006KT 6SM M12/M23 A3036 RMK T11201230 IEM_DS3505
ZBHH,2007-03-10 03:00,ZBHH 100300Z AUTO 25006KT 19SM M09/M24 A3033 RMK SLP371 T10861235 52002 IEM_DS3505
ZBHH,2007-03-10 04:00,ZBHH 100400Z AUTO 25004G14KT 6SM M09/M22 A3030 RMK T10901220 IEM_DS3505
ZBHH,2007-03-10 05:00,ZBHH 100500Z AUTO 30006KT 6SM M08/M23 A3027 RMK T10801230 IEM_DS3505
ZBHH,2007-03-10 06:00,ZBHH 100600Z AUTO 22008KT 19SM M05/M21 A3024 RMK SLP337 T10461212 57026 IEM_DS3505
ZBHH,2007-03-10 07:00,ZBHH 100700Z AUTO 28014KT 6SM M06/M19 A3024 RMK T10601190 IEM_DS3505
ZBHH,2007-03-10 08:00,ZBHH 100800Z AUTO 24014KT 6SM M06/M18 A3021 RMK T10601180 IEM_DS3505
ZBHH,2007-03-10 09:00,ZBHH 100900Z AUTO 25012KT 19SM M04/M18 A3021 RMK SLP329 T10451177 57011 IEM_DS3505
ZBHH,2007-03-10 10:00,ZBHH 101000Z AUTO 25012KT 6SM M06/M17 A3021 RMK T10601170 IEM_DS3505
ZBHH,2007-03-10 11:00,ZBHH 101100Z AUTO 23006KT 6SM M07/M16 A3021 RMK T10701160 IEM_DS3505
ZBHH,2007-03-10 12:00,ZBHH 101200Z AUTO 27004KT 19SM M06/M16 A3021 RMK SLP330 T10591159 57001 IEM_DS3505
ZBHH,2007-03-10 13:00,ZBHH 101300Z AUTO 24006KT 6SM M08/M15 A3024 RMK T10801150 IEM_DS3505
ZBHH,2007-03-10 14:00,ZBHH 101400Z AUTO 22004KT 6SM M08/M15 A3024 RMK T10801150 IEM_DS3505
ZBHH,2007-03-10 15:00,ZBHH 101500Z AUTO 32002KT 19SM M08/M18 A3024 RMK SLP326 T10761177 52003 IEM_DS3505
ZBHH,2007-03-10 16:00,ZBHH 101600Z AUTO 23006KT 6SM M09/M16 A3021 RMK T10901160 IEM_DS3505
ZBHH,2007-03-10 17:00,ZBHH 101700Z AUTO 09002KT 6SM M11/M14 A3021 RMK T11101140 IEM_DS3505
ZBHH,2007-03-10 18:00,ZBHH 101800Z AUTO 04004KT 19SM M10/M16 A3021 RMK SLP314 T10971156 57006 IEM_DS3505
ZBHH,2007-03-10 19:00,ZBHH 101900Z AUTO 09004KT 6SM M13/M15 A3021 RMK T11301150 IEM_DS3505
ZBHH,2007-03-10 20:00,ZBHH 102000Z AUTO 09004KT 6SM M13/M15 A3021 RMK T11301150 IEM_DS3505
ZBHH,2007-03-10 21:00,ZBHH 102100Z AUTO 07004KT 19SM M11/M15 A3021 RMK SLP314 T11111148 57003 IEM_DS3505
ZBHH,2007-03-10 22:00,ZBHH 102200Z AUTO 07004KT 6SM M13/M16 A3021 RMK T11301160 IEM_DS3505
ZBHH,2007-03-10 23:00,ZBHH 102300Z AUTO 07002KT 6SM M14/M17 A3021 RMK T11401170 IEM_DS3505
ZBHH,2007-03-11 00:00,ZBHH 110000Z AUTO 09004KT 19SM M11/M16 A3021 RMK SLP319 T11061155 52002 IEM_DS3505
ZBHH,2007-03-11 01:00,ZBHH 110100Z AUTO 06002KT 6SM M11/M15 A3021 RMK T11101150 IEM_DS3505
ZBHH,2007-03-11 02:00,ZBHH 110200Z AUTO 14002KT 6SM M10/M14 A3021 RMK T11001140 IEM_DS3505
ZBHH,2007-03-11 03:00,ZBHH 110300Z AUTO 11004KT 19SM M06/M14 A3018 RMK SLP309 T10591139 57002 IEM_DS3505
ZBHH,2007-03-11 04:00,ZBHH 110400Z AUTO 25004KT 6SM M06/M15 A3018 RMK T10601150 IEM_DS3505
ZBHH,2007-03-11 05:00,ZBHH 110500Z AUTO 5SM M04/M15 A3012 RMK T10401150 IEM_DS3505
ZBHH,2007-03-11 06:00,ZBHH 110600Z AUTO 20006KT 12SM M01/M16 A3012 RMK SLP272 T10141160 57027 IEM_DS3505
ZBHH,2007-03-11 07:00,ZBHH 110700Z AUTO 26008KT 6SM M02/M17 A3009 RMK T10201170 IEM_DS3505
ZBHH,2007-03-11 08:00,ZBHH 110800Z AUTO 23006KT 6SM M02/M16 A3006 RMK T10201160 IEM_DS3505
ZBHH,2007-03-11 09:00,ZBHH 110900Z AUTO 22006KT 12SM M01/M15 A3006 RMK SLP261 T10111153 57012 IEM_DS3505
ZBHH,2007-03-11 10:00,ZBHH 111000Z AUTO 23006KT 4SM M03/M14 A3006 RMK T10301140 IEM_DS3505
ZBHH,2007-03-11 11:00,ZBHH 111100Z AUTO 24004KT 5SM M04/M14 A3009 RMK T10401140 IEM_DS3505
ZBHH,2007-03-11 12:00,ZBHH 111200Z AUTO 22004KT 12SM M03/M15 A3009 RMK SLP270 T10291146 52005 IEM_DS3505
ZBHH,2007-03-11 13:00,ZBHH 111300Z AUTO 08004KT 4SM M06/M12 A3009 RMK T10601120 IEM_DS3505
ZBHH,2007-03-11 14:00,ZBHH 111400Z AUTO 05004KT 4SM M06/M12 A3009 RMK T10601120 IEM_DS3505
ZBHH,2007-03-11 15:00,ZBHH 111500Z AUTO 02002KT 12SM M05/M14 A3009 RMK SLP262 T10461139 54000 IEM_DS3505
ZBHH,2007-03-11 16:00,ZBHH 111600Z AUTO 04002KT 4SM M08/M13 A3009 RMK T10801130 IEM_DS3505
ZBHH,2007-03-11 18:00,ZBHH 111800Z AUTO 09002KT 12SM M07/M13 A3006 RMK SLP249 T10661129 57006 IEM_DS3505
ZBHH,2007-03-11 19:00,ZBHH 111900Z AUTO 09002KT 4SM M09/M14 A3003 RMK T10901140 IEM_DS3505
ZBHH,2007-03-11 20:00,ZBHH 112000Z AUTO 03002KT 4SM M10/M14 A3003 RMK T11001140 IEM_DS3505
ZBHH,2007-03-11 21:00,ZBHH 112100Z AUTO 08004KT 19SM M08/M13 A3003 RMK SLP236 T10771128 57013 IEM_DS3505
ZBHH,2007-03-11 22:00,ZBHH 112200Z AUTO 07004KT 5SM M10/M14 A3003 RMK T11001140 IEM_DS3505
ZBHH,2007-03-11 23:00,ZBHH 112300Z AUTO 09006KT 5SM M11/M14 A3000 RMK T11101140 IEM_DS3505
ZBHH,2007-03-12 00:00,ZBHH 120000Z AUTO 07002KT 12SM M06/M12 A3000 RMK SLP233 T10601119 57003 IEM_DS3505
ZBHH,2007-03-12 01:00,ZBHH 120100Z AUTO 11002KT 4SM M06/M11 A3000 RMK T10601110 IEM_DS3505
ZBHH,2007-03-12 02:00,ZBHH 120200Z AUTO 00000KT 6SM M01/M11 A3003 RMK T10101110 IEM_DS3505
ZBHH,2007-03-12 03:00,ZBHH 120300Z AUTO 20004KT 12SM 01/M13 A3000 RMK SLP217 T00071134 57003 IEM_DS3505
ZBHH,2007-03-12 04:00,ZBHH 120400Z AUTO 22004KT 6SM 00/M13 A3000 RMK T00001130 IEM_DS3505
ZBHH,2007-03-12 05:00,ZBHH 120500Z AUTO 23006KT 6SM 01/M12 A2997 RMK T00101120 IEM_DS3505
ZBHH,2007-03-12 06:00,ZBHH 120600Z AUTO 20008KT 12SM 03/M12 A2994 RMK SLP193 T00341125 57019 IEM_DS3505
ZBHH,2007-03-12 07:00,ZBHH 120700Z AUTO 25008KT 6SM 03/M12 A2994 RMK T00301120 IEM_DS3505
ZBHH,2007-03-12 08:00,ZBHH 120800Z AUTO 24008KT 6SM 02/M11 A2994 RMK T00201110 IEM_DS3505
ZBHH,2007-03-12 09:00,ZBHH 120900Z AUTO 22006KT 12SM 04/M09 A2994 RMK SLP191 T00361091 57004 IEM_DS3505
ZBHH,2007-03-12 10:00,ZBHH 121000Z AUTO 23006KT 6SM 01/M08 A2994 RMK T00101080 IEM_DS3505
ZBHH,2007-03-12 11:00,ZBHH 121100Z AUTO 20004KT 6SM 00/M09 A2997 RMK T00001090 IEM_DS3505
ZBHH,2007-03-12 12:00,ZBHH 121200Z AUTO 25002KT 12SM 00/M08 A2997 RMK SLP206 T00041081 52010 IEM_DS3505
ZBHH,2007-03-12 13:00,ZBHH 121300Z AUTO 04002KT 4SM M03/M08 A2997 RMK T10301080 IEM_DS3505
ZBHH,2007-03-12 14:00,ZBHH 121400Z AUTO 04004KT 4SM M04/M08 A3000 RMK T10401080 IEM_DS3505
ZBHH,2007-03-12 15:00,ZBHH 121500Z AUTO 09002KT 16SM M02/M08 A3000 RMK SLP205 T10181081 52009 IEM_DS3505
ZBHH,2007-03-12 16:00,ZBHH 121600Z AUTO 02002KT 4SM M05/M08 A3000 RMK T10501080 IEM_DS3505
ZBHH,2007-03-12 17:00,ZBHH 121700Z AUTO 07002KT 4SM M06/M08 A3000 RMK T10601080 IEM_DS3505
ZBHH,2007-03-12 18:00,ZBHH 121800Z AUTO 09004KT 16SM M04/M08 A3000 RMK SLP203 T10411080 57001 IEM_DS3505
ZBHH,2007-03-12 19:00,ZBHH 121900Z AUTO 07004KT M06/M09 A2997 RMK T10601090 IEM_DS3505
ZBHH,2007-03-12 20:00,ZBHH 122000Z AUTO 08004KT 4SM M08/M10 A2997 RMK T10801100 IEM_DS3505
ZBHH,2007-03-12 21:00,ZBHH 122100Z AUTO 16002KT 19SM M06/M10 A2997 RMK SLP200 T10611095 57007 IEM_DS3505
ZBHH,2007-03-12 22:00,ZBHH 122200Z AUTO 07002KT 4SM M08/M10 A2997 RMK T10801100 IEM_DS3505
ZBHH,2007-03-12 23:00,ZBHH 122300Z AUTO 08002KT 4SM M08/M11 A2997 RMK T10801110 IEM_DS3505
ZBHH,2007-03-13 00:00,ZBHH 130000Z AUTO 08004KT 16SM M04/M08 A3000 RMK SLP215 T10401078 52011 IEM_DS3505
ZBHH,2007-03-13 01:00,ZBHH 130100Z AUTO 07002KT 4SM M04/M08 A3000 RMK T10401080 IEM_DS3505
ZBHH,2007-03-13 02:00,ZBHH 130200Z AUTO 08002KT 5SM 00/M08 A3000 RMK T00001080 IEM_DS3505
ZBHH,2007-03-13 03:00,ZBHH 130300Z AUTO 11004KT 16SM 03/M11 A3000 RMK SLP202 T00331107 54000 IEM_DS3505
ZBHH,2007-03-13 04:00,ZBHH 130400Z AUTO 19002KT 6SM 03/M09 A3000 RMK T00301090 IEM_DS3505
ZBHH,2007-03-13 05:00,ZBHH 130500Z AUTO 23002KT 6SM 04/M10 A2997 RMK T00401100 IEM_DS3505
ZBHH,2007-03-13 06:00,ZBHH 130600Z AUTO 27004KT 9SM 07/M10 A2997 RMK SLP189 T00731105 57008 IEM_DS3505
ZBHH,2007-03-13 07:00,ZBHH 130700Z AUTO 22004KT 6SM 07/M10 A2994 RMK T00701100 IEM_DS3505
ZBHH,2007-03-13 08:00,ZBHH 130800Z AUTO 23004KT 6SM 07/M10 A2997 RMK T00701100 IEM_DS3505
ZBHH,2007-03-13 09:00,ZBHH 130900Z AUTO 25006KT 19SM 07/M12 A2994 RMK SLP189 T00731125 57004 IEM_DS3505
ZBHH,2007-03-13 10:00,ZBHH 131000Z AUTO 25002KT 6SM 05/M12 A2997 RMK T00501120 IEM_DS3505
ZBHH,2007-03-13 11:00,ZBHH 131100Z AUTO 35006KT 6SM 03/M13 A3000 RMK T00301130 IEM_DS3505
ZBHH,2007-03-13 12:00,ZBHH 131200Z AUTO 36004KT 12SM 04/M12 A3000 RMK SLP212 T00361116 52016 IEM_DS3505
ZBHH,2007-03-13 13:00,ZBHH 131300Z AUTO 02004KT 6SM 01/M10 A3000 RMK T00101100 IEM_DS3505
ZBHH,2007-03-13 14:00,ZBHH 131400Z AUTO 36002KT 6SM M01/M10 A3003 RMK T10101100 IEM_DS3505
ZBHH,2007-03-13 15:00,ZBHH 131500Z AUTO 32002KT 12SM 01/M10 A3006 RMK SLP214 T00101096 52012 IEM_DS3505
ZBHH,2007-03-13 16:00,ZBHH 131600Z AUTO 08004KT 6SM M03/M10 A3003 RMK T10301100 IEM_DS3505
ZBHH,2007-03-13 17:00,ZBHH 131700Z AUTO 06002KT 6SM M02/M12 A3003 RMK T10201120 IEM_DS3505
ZBHH,2007-03-13 18:00,ZBHH 131800Z AUTO 04002KT 19SM M01/M12 A3003 RMK SLP201 T10141115 57008 IEM_DS3505
ZBHH,2007-03-13 19:00,ZBHH 131900Z AUTO 09004KT 6SM M04/M11 A3003 RMK T10401110 IEM_DS3505
ZBHH,2007-03-13 20:00,ZBHH 132000Z AUTO 09004KT 6SM M05/M11 A3003 RMK T10501110 IEM_DS3505
ZBHH,2007-03-13 21:00,ZBHH 132100Z AUTO 11002KT 19SM M03/M11 A3003 RMK SLP203 T10261111 57001 IEM_DS3505
ZBHH,2007-03-13 22:00,ZBHH 132200Z AUTO 09008KT 6SM M05/M11 A3003 RMK T10501110 IEM_DS3505
ZBHH,2007-03-13 23:00,ZBHH 132300Z AUTO 05002KT 6SM M04/M12 A3003 RMK T10401120 IEM_DS3505
ZBHH,2007-03-14 00:00,ZBHH 140000Z AUTO 09002KT 9SM M01/M11 A3006 RMK SLP216 T10071109 52008 IEM_DS3505
ZBHH,2007-03-14 01:00,ZBHH 140100Z AUTO 04002KT 6SM M01/M11 A3006 RMK T10101110 IEM_DS3505
ZBHH,2007-03-14 02:00,ZBHH 140200Z AUTO 06002KT 6SM 02/M12 A3006 RMK T00201120 IEM_DS3505
ZBHH,2007-03-14 03:00,ZBHH 140300Z AUTO 02002KT 12SM 05/M14 A3006 RMK SLP209 T00481136 54000 IEM_DS3505
ZBHH,2007-03-14 04:00,ZBHH 140400Z AUTO 21002KT 6SM 05/M13 A3003 RMK T00501130 IEM_DS3505
ZBHH,2007-03-14 05:00,ZBHH 140500Z AUTO 20002KT 6SM 06/M14 A3003 RMK T00601140 IEM_DS3505
ZBHH,2007-03-14 06:00,ZBHH 140600Z AUTO 22004KT 19SM 08/M15 A3000 RMK SLP195 T00761152 57012 IEM_DS3505
ZBHH,2007-03-14 07:00,ZBHH 140700Z AUTO 31002KT 6SM 07/M14 A3000 RMK T00701140 IEM_DS3505
ZBHH,2007-03-14 08:00,ZBHH 140800Z AUTO 06002KT 6SM 07/M14 A3000 RMK T00701140 IEM_DS3505
ZBHH,2007-03-14 09:00,ZBHH 140900Z AUTO 20002KT 19SM 08/M14 A3000 RMK SLP193 T00811135 57003 IEM_DS3505
ZBHH,2007-03-14 10:00,ZBHH 141000Z AUTO 20002KT 6SM 06/M12 A3000 RMK T00601120 IEM_DS3505
ZBHH,2007-03-14 11:00,ZBHH 141100Z AUTO 26002KT 6SM 04/M13 A3000 RMK T00401130 IEM_DS3505
ZBHH,2007-03-14 12:00,ZBHH 141200Z AUTO 34004KT 19SM 04/M09 A3003 RMK SLP207 T00451086 52009 IEM_DS3505
ZBHH,2007-03-14 13:00,ZBHH 141300Z AUTO 03006KT 6SM 01/M07 A3003 RMK T00101070 IEM_DS3505
ZBHH,2007-03-14 14:00,ZBHH 141400Z AUTO 10004KT 6SM M01/M08 A3006 RMK T10101080 IEM_DS3505
ZBHH,2007-03-14 15:00,ZBHH 141500Z AUTO 11002KT 19SM 00/M09 A3006 RMK SLP215 T00051092 52010 IEM_DS3505
ZBHH,2007-03-14 16:00,ZBHH 141600Z AUTO 08008KT 6SM M02/M08 A3006 RMK T10201080 IEM_DS3505
ZBHH,2007-03-14 17:00,ZBHH 141700Z AUTO 09006KT 6SM M03/M08 A3009 RMK T10301080 IEM_DS3505
ZBHH,2007-03-14 18:00,ZBHH 141800Z AUTO 22002KT 19SM M00/M09 A3009 RMK SLP217 T10051089 52006 IEM_DS3505
ZBHH,2007-03-14 19:00,ZBHH 141900Z AUTO 09004KT 6SM M04/M08 A3009 RMK T10401080 IEM_DS3505
ZBHH,2007-03-14 20:00,ZBHH 142000Z AUTO 05004KT M04/M09 A3009 RMK T10401090 IEM_DS3505
ZBHH,2007-03-14 21:00,ZBHH 142100Z AUTO 11002KT 19SM M03/M08 A3012 RMK SLP231 T10271080 52008 IEM_DS3505
ZBHH,2007-03-14 22:00,ZBHH 142200Z AUTO 06004KT 6SM M04/M09 A3012 RMK T10401090 IEM_DS3505
ZBHH,2007-03-14 23:00,ZBHH 142300Z AUTO 08006KT 6SM M04/M10 A3012 RMK T10401100 IEM_DS3505
ZBHH,2007-03-15 00:00,ZBHH 150000Z AUTO 22002KT 19SM M01/M08 A3015 RMK SLP250 T10141084 52012 IEM_DS3505
ZBHH,2007-03-15 01:00,ZBHH 150100Z AUTO 10004KT 6SM 00/M11 A3015 RMK T00001110 IEM_DS3505
ZBHH,2007-03-15 02:00,ZBHH 150200Z AUTO 09008KT 6SM 02/M14 A3015 RMK T00201140 IEM_DS3505
ZBHH,2007-03-15 03:00,ZBHH 150300Z AUTO 04004KT 19SM 04/M12 A3015 RMK SLP248 T00401124 52001 IEM_DS3505
ZBHH,2007-03-15 04:00,ZBHH 150400Z AUTO 11004KT 6SM 04/M15 A3015 RMK T00401150 IEM_DS3505
ZBHH,2007-03-15 05:00,ZBHH 150500Z AUTO 08004KT 6SM 05/M14 A3012 RMK T00501140 IEM_DS3505
ZBHH,2007-03-15 06:00,ZBHH 150600Z AUTO 07006KT 12SM 07/M14 A3009 RMK SLP223 T00721143 57017 IEM_DS3505
ZBHH,2007-03-15 07:00,ZBHH 150700Z AUTO 31004KT 6SM 06/M11 A3009 RMK T00601110 IEM_DS3505
ZBHH,2007-03-15 08:00,ZBHH 150800Z AUTO 01004KT 6SM 06/M12 A3009 RMK T00601120 IEM_DS3505
ZBHH,2007-03-15 09:00,ZBHH 150900Z AUTO 32010KT 12SM 06/M10 A3009 RMK SLP234 T00581096 52002 IEM_DS3505
ZBHH,2007-03-15 10:00,ZBHH 151000Z AUTO 36008KT 6SM 04/M08 A3012 RMK T00401080 IEM_DS3505
ZBHH,2007-03-15 11:00,ZBHH 151100Z AUTO 01004KT 6SM 01/M08 A3015 RMK T00101080 IEM_DS3505
ZBHH,2007-03-15 12:00,ZBHH 151200Z AUTO 32006KT 19SM 01/M10 A3018 RMK SLP270 T00141095 52025 IEM_DS3505
ZBHH,2007-03-15 13:00,ZBHH 151300Z AUTO 04006KT 6SM 00/M09 A3021 RMK T00001090 IEM_DS3505
ZBHH,2007-03-15 14:00,ZBHH 151400Z AUTO 06004KT 6SM M01/M09 A3024 RMK T10101090 IEM_DS3505
ZBHH,2007-03-15 15:00,ZBHH 151500Z AUTO 32004KT 19SM M00/M10 A3024 RMK SLP277 T10051099 52014 IEM_DS3505
ZBHH,2007-03-15 16:00,ZBHH 151600Z AUTO 05006KT 6SM M02/M10 A3024 RMK T10201100 IEM_DS3505
ZBHH,2007-03-15 17:00,ZBHH 151700Z AUTO 09006KT 6SM M03/M09 A3027 RMK T10301090 IEM_DS3505
ZBHH,2007-03-15 18:00,ZBHH 151800Z AUTO 08006KT 19SM M01/M10 A3027 RMK SLP280 T10141097 52007 IEM_DS3505
ZBHH,2007-03-15 19:00,ZBHH 151900Z AUTO 05002KT 6SM M03/M09 A3024 RMK T10301090 IEM_DS3505
ZBHH,2007-03-15 20:00,ZBHH 152000Z AUTO 07002KT 6SM M03/M09 A3024 RMK T10301090 IEM_DS3505
ZBHH,2007-03-15 21:00,ZBHH 152100Z AUTO 11002KT 19SM M03/M10 A3024 RMK SLP281 T10281099 57005 IEM_DS3505
ZBHH,2007-03-15 22:00,ZBHH 152200Z AUTO 01002KT 6SM M05/M09 A3024 RMK T10501090 IEM_DS3505
ZBHH,2007-03-15 23:00,ZBHH 152300Z AUTO 08004KT 6SM M04/M10 A3027 RMK T10401100 IEM_DS3505
ZBHH,2007-03-16 00:00,ZBHH 160000Z AUTO 09004KT 19SM M01/M11 A3030 RMK SLP306 T10101114 52016 IEM_DS3505
ZBHH,2007-03-16 01:00,ZBHH 160100Z AUTO 09012KT 6SM 00/M15 A3030 RMK T00001150 IEM_DS3505
ZBHH,2007-03-16 02:00,ZBHH 160200Z AUTO 06006KT 6SM 01/M18 A3030 RMK T00101180 IEM_DS3505
ZBHH,2007-03-16 03:00,ZBHH 160300Z AUTO 09006KT 19SM 04/M19 A3027 RMK SLP296 T00391189 57002 IEM_DS3505
ZBHH,2007-03-16 04:00,ZBHH 160400Z AUTO 10006KT 6SM 04/M20 A3027 RMK T00401200 IEM_DS3505
ZBHH,2007-03-16 05:00,ZBHH 160500Z AUTO 20002KT 6SM 05/M21 A3024 RMK T00501210 IEM_DS3505
ZBHH,2007-03-16 06:00,ZBHH 160600Z AUTO 14002KT 12SM 07/M20 A3021 RMK SLP272 T00681197 57017 IEM_DS3505
ZBHH,2007-03-16 07:00,ZBHH 160700Z AUTO 14002KT 6SM 06/M21 A3021 RMK T00601210 IEM_DS3505
ZBHH,2007-03-16 08:00,ZBHH 160800Z AUTO 6SM 07/M20 A3021 RMK T00701200 IEM_DS3505
ZBHH,2007-03-16 09:00,ZBHH 160900Z AUTO 32006KT 19SM 08/M20 A3021 RMK SLP263 T00771199 57009 IEM_DS3505
ZBHH,2007-03-16 10:00,ZBHH 161000Z AUTO 36006KT 6SM 05/M14 A3021 RMK T00501140 IEM_DS3505
ZBHH,2007-03-16 11:00,ZBHH 161100Z AUTO 36006KT 6SM 02/M13 A3021 RMK T00201130 IEM_DS3505
ZBHH,2007-03-16 12:00,ZBHH 161200Z AUTO 29002KT 19SM 03/M13 A3024 RMK SLP284 T00271131 52012 IEM_DS3505
ZBHH,2007-03-16 13:00,ZBHH 161300Z AUTO 00000KT 6SM 00/M12 A3027 RMK T00001120 IEM_DS3505
ZBHH,2007-03-16 14:00,ZBHH 161400Z AUTO 04004KT 6SM M01/M11 A3027 RMK T10101110 IEM_DS3505
ZBHH,2007-03-16 15:00,ZBHH 161500Z AUTO 34002KT 19SM M00/M13 A3027 RMK SLP293 T10031129 52012 IEM_DS3505
ZBHH,2007-03-16 16:00,ZBHH 161600Z AUTO 05004KT 6SM M01/M13 A3027 RMK T10101130 IEM_DS3505
ZBHH,2007-03-16 18:00,ZBHH 161800Z AUTO 07002KT 19SM M02/M12 A3027 RMK SLP291 T10151119 52002 IEM_DS3505
ZBHH,2007-03-16 19:00,ZBHH 161900Z AUTO 04002KT 6SM M04/M12 A3027 RMK T10401120 IEM_DS3505
ZBHH,2007-03-16 20:00,ZBHH 162000Z AUTO 00000KT 6SM M05/M11 A3027 RMK T10501110 IEM_DS3505
ZBHH,2007-03-16 21:00,ZBHH 162100Z AUTO 36002KT 19SM M03/M11 A3027 RMK SLP283 T10281106 57008 IEM_DS3505
ZBHH,2007-03-16 22:00,ZBHH 162200Z AUTO 04002KT 6SM M05/M11 A3024 RMK T10501110 IEM_DS3505
ZBHH,2007-03-16 23:00,ZBHH 162300Z AUTO 00000KT 6SM M06/M11 A3027 RMK T10601110 IEM_DS3505
ZBHH,2007-03-17 00:00,ZBHH 170000Z AUTO 11002KT 19SM M01/M11 A3027 RMK SLP294 T10091111 52003 IEM_DS3505
ZBHH,2007-03-17 01:00,ZBHH 170100Z AUTO 07002KT 6SM M01/M11 A3027 RMK T10101110 IEM_DS3505
ZBHH,2007-03-17 02:00,ZBHH 170200Z AUTO 11002KT 6SM 02/M12 A3027 RMK T00201120 IEM_DS3505
ZBHH,2007-03-17 03:00,ZBHH 170300Z AUTO 07004KT 12SM 05/M13 A3024 RMK SLP279 T00461128 57008 IEM_DS3505
ZBHH,2007-03-17 04:00,ZBHH 170400Z AUTO 22004KT 6SM 04/M11 A3024 RMK T00401110 IEM_DS3505
ZBHH,2007-03-17 05:00,ZBHH 170500Z AUTO 26004KT 6SM 05/M12 A3021 RMK T00501120 IEM_DS3505
ZBHH,2007-03-17 06:00,ZBHH 170600Z AUTO 20008KT 12SM 08/M11 A3018 RMK SLP251 T00761112 57021 IEM_DS3505
ZBHH,2007-03-17 07:00,ZBHH 170700Z AUTO 21006KT 6SM 07/M11 A3015 RMK T00701110 IEM_DS3505
ZBHH,2007-03-17 08:00,ZBHH 170800Z AUTO 23008KT 6SM 07/M11 A3012 RMK T00701110 IEM_DS3505
ZBHH,2007-03-17 09:00,ZBHH 170900Z AUTO 20006KT 9SM 07/M12 A3012 RMK SLP237 T00731125 57015 IEM_DS3505
ZBHH,2007-03-17 10:00,ZBHH 171000Z AUTO 25004KT 6SM 06/M11 A3012 RMK T00601110 IEM_DS3505
ZBHH,2007-03-17 11:00,ZBHH 171100Z AUTO 24004KT 7SM 05/M11 A3012 RMK T00501110 IEM_DS3505
ZBHH,2007-03-17 12:00,ZBHH 171200Z AUTO 22002KT 12SM 05/M08 A3015 RMK SLP243 T00531075 52005 IEM_DS3505
ZBHH,2007-03-17 13:00,ZBHH 171300Z AUTO 24006KT 4SM 03/M03 A3015 RMK T00301030 IEM_DS3505
ZBHH,2007-03-17 14:00,ZBHH 171400Z AUTO 24004KT 4SM 02/M01 A3015 RMK T00201010 IEM_DS3505
ZBHH,2007-03-17 15:00,ZBHH 171500Z AUTO 22006KT 9SM 03/00 A3015 RMK SLP238 T00310003 52002 IEM_DS3505
ZBHH,2007-03-17 16:00,ZBHH 171600Z AUTO 23002KT 2 1/2SM 01/M01 A3015 RMK T00101010 IEM_DS3505
ZBHH,2007-03-17 17:00,ZBHH 171700Z AUTO 19002KT 2SM 01/00 A3012 RMK T00100000 IEM_DS3505
ZBHH,2007-03-17 18:00,ZBHH 171800Z AUTO 16002KT 7SM 01/M00 A3012 RMK 60002 SLP224 T00101003 57010 IEM_DS3505
ZBHH,2007-03-17 20:00,ZBHH 172000Z AUTO 10002KT 3/8SM M01/M01 A3006 RMK T10101010 IEM_DS3505
ZBHH,2007-03-17 21:00,ZBHH 172100Z AUTO 10002KT 6SM 00/M00 A3006 RMK 70004 SLP209 T00051004 57015 IEM_DS3505
ZBHH,2007-03-17 22:00,ZBHH 172200Z AUTO 13002KT 1SM M01/M01 A3006 RMK T10101010 IEM_DS3505
ZBHH,2007-03-17 23:00,ZBHH 172300Z AUTO 00000KT 1/2SM M01/M01 A3006 RMK T10101010 IEM_DS3505
ZBHH,2007-03-18 01:00,ZBHH 180100Z AUTO 17002KT 3/8SM 00/00 A3009 RMK T00000000 IEM_DS3505
ZBHH,2007-03-18 02:00,ZBHH 180200Z AUTO 22004KT 1SM 00/00 A3009 RMK T00000000 IEM_DS3505
ZBHH,2007-03-18 03:00,ZBHH 180300Z AUTO 20006KT 5SM 01/00 A3009 RMK SLP229 T00110002 52006 IEM_DS3505
ZBHH,2007-03-18 04:00,ZBHH 180400Z AUTO 23004KT 1SM 00/00 A3009 RMK T00000000 IEM_DS3505
ZBHH,2007-03-18 05:00,ZBHH 180500Z AUTO 23002KT 1SM 00/00 A3009 RMK T00000000 IEM_DS3505
ZBHH,2007-03-18 07:00,ZBHH 180700Z AUTO 23002KT 1SM 02/01 A3006 RMK T00200010 IEM_DS3505
ZBHH,2007-03-18 08:00,ZBHH 180800Z AUTO 26002KT 1SM 03/01 A3006 RMK T00300010 IEM_DS3505
ZBHH,2007-03-18 09:00,ZBHH 180900Z AUTO 09004KT 7SM 05/01 A3006 RMK SLP217 T00470014 57001 IEM_DS3505
ZBHH,2007-03-18 10:00,ZBHH 181000Z AUTO 09004KT 1 1/4SM 01/00 A3009 RMK T00100000 IEM_DS3505
ZBHH,2007-03-18 11:00,ZBHH 181100Z AUTO 08006KT 1 1/4SM 00/00 A3009 RMK T00000000 IEM_DS3505
ZBHH,2007-03-18 12:00,ZBHH 181200Z AUTO 04002KT 12SM 02/00 A3012 RMK SLP240 T00190001 52015 IEM_DS3505
ZBHH,2007-03-18 13:00,ZBHH 181300Z AUTO 09004KT 1SM M02/M02 A3012 RMK T10201020 IEM_DS3505
ZBHH,2007-03-18 14:00,ZBHH 181400Z AUTO 07002KT 1 1/2SM M02/M02 A3015 RMK T10201020 IEM_DS3505
ZBHH,2007-03-18 15:00,ZBHH 181500Z AUTO 07002KT 12SM M00/M01 A3015 RMK SLP257 T10011012 52011 IEM_DS3505
ZBHH,2007-03-18 16:00,ZBHH 181600Z AUTO 06004KT 3SM M02/M03 A3015 RMK T10201030 IEM_DS3505
ZBHH,2007-03-18 17:00,ZBHH 181700Z AUTO 03004KT 4SM M02/M04 A3015 RMK T10201040 IEM_DS3505
ZBHH,2007-03-18 19:00,ZBHH 181900Z AUTO 10002KT 3SM M02/M04 A3015 RMK T10201040 IEM_DS3505
ZBHH,2007-03-18 20:00,ZBHH 182000Z AUTO 08004KT 2 1/2SM M03/M04 A3015 RMK T10301040 IEM_DS3505
ZBHH,2007-03-18 21:00,ZBHH 182100Z AUTO 11004KT 12SM M01/M03 A3015 RMK 70019 SLP250 T10071026 57001 IEM_DS3505
ZBHH,2007-03-18 22:00,ZBHH 182200Z AUTO 10006KT 2 1/2SM M03/M04 A3015 RMK T10301040 IEM_DS3505
ZBHH,2007-03-18 23:00,ZBHH 182300Z AUTO 10006KT 2 1/2SM M03/M03 A3018 RMK T10301030 IEM_DS3505
ZBHH,2007-03-19 01:00,ZBHH 190100Z AUTO 09006KT 3SM M01/M03 A3021 RMK T10101030 IEM_DS3505
ZBHH,2007-03-19 02:00,ZBHH 190200Z AUTO 11006KT 3SM 00/M02 A3021 RMK T00001020 IEM_DS3505
ZBHH,2007-03-19 03:00,ZBHH 190300Z AUTO 11002KT 9SM 05/M01 A3021 RMK SLP265 T00491013 52001 IEM_DS3505
ZBHH,2007-03-19 04:00,ZBHH 190400Z AUTO 16002KT 2 1/2SM 05/00 A3021 RMK T00500000 IEM_DS3505
ZBHH,2007-03-19 05:00,ZBHH 190500Z AUTO 12002KT 3SM 05/00 A3018 RMK T00500000 IEM_DS3505
ZBHH,2007-03-19 08:00,ZBHH 190800Z AUTO 16002KT 5SM 06/M01 A3015 RMK T00601010 IEM_DS3505
ZBHH,2007-03-19 09:00,ZBHH 190900Z AUTO 22006KT 12SM 08/M02 A3015 RMK SLP241 T00751015 57009 IEM_DS3505
ZBHH,2007-03-19 11:00,ZBHH 191100Z AUTO 02006KT 7SM 04/M09 A3018 RMK T00401090 IEM_DS3505
ZBHH,2007-03-19 12:00,ZBHH 191200Z AUTO 27006KT 19SM 04/M09 A3018 RMK SLP257 T00411093 52009 IEM_DS3505
ZBHH,2007-03-19 13:00,ZBHH 191300Z AUTO 33008KT 6SM 03/M11 A3018 RMK T00301110 IEM_DS3505
ZBHH,2007-03-19 14:00,ZBHH 191400Z AUTO 08002KT 6SM 00/M07 A3018 RMK T00001070 IEM_DS3505
ZBHH,2007-03-19 15:00,ZBHH 191500Z AUTO 04004KT 19SM 02/M08 A3018 RMK SLP253 T00161082 52001 IEM_DS3505
ZBHH,2007-03-19 16:00,ZBHH 191600Z AUTO 08004KT 6SM M02/M05 A3015 RMK T10201050 IEM_DS3505
ZBHH,2007-03-19 18:00,ZBHH 191800Z AUTO 09002KT 19SM M00/M07 A3015 RMK SLP235 T10021070 57012 IEM_DS3505
ZBHH,2007-03-19 19:00,ZBHH 191900Z AUTO 07004KT 6SM M03/M06 A3012 RMK T10301060 IEM_DS3505
ZBHH,2007-03-19 20:00,ZBHH 192000Z AUTO 09004KT 6SM M04/M06 A3012 RMK T10401060 IEM_DS3505
ZBHH,2007-03-19 21:00,ZBHH 192100Z AUTO 04002KT 19SM M01/M07 A3012 RMK SLP232 T10141071 57007 IEM_DS3505
ZBHH,2007-03-19 22:00,ZBHH 192200Z AUTO 05002KT 6SM M03/M07 A3012 RMK T10301070 IEM_DS3505
ZBHH,2007-03-19 23:00,ZBHH 192300Z AUTO 07004KT 6SM M04/M06 A3009 RMK T10401060 IEM_DS3505
ZBHH,2007-03-20 00:00,ZBHH 200000Z AUTO 32002KT 7SM M00/M06 A3012 RMK SLP234 T10011057 57003 IEM_DS3505
ZBHH,2007-03-20 01:00,ZBHH 200100Z AUTO 12002KT 5SM M01/M05 A3012 RMK T10101050 IEM_DS3505
ZBHH,2007-03-20 02:00,ZBHH 200200Z AUTO 15002KT 4SM 01/M04 A3012 RMK T00101040 IEM_DS3505
ZBHH,2007-03-20 03:00,ZBHH 200300Z AUTO 22006KT 7SM 03/M02 A3012 RMK SLP232 T00291022 57001 IEM_DS3505
ZBHH,2007-03-20 04:00,ZBHH 200400Z AUTO 20002KT 2SM 02/M02 A3009 RMK T00201020 IEM_DS3505
ZBHH,2007-03-20 05:00,ZBHH 200500Z AUTO 23004KT 2 1/2SM 04/M02 A3006 RMK T00401020 IEM_DS3505
ZBHH,2007-03-20 06:00,ZBHH 200600Z AUTO 27002KT 9SM 06/M01 A3003 RMK SLP204 T00641008 57021 IEM_DS3505
ZBHH,2007-03-20 07:00,ZBHH 200700Z AUTO 26008KT 4SM 06/M01 A3003 RMK T00601010 IEM_DS3505
ZBHH,2007-03-20 08:00,ZBHH 200800Z AUTO 25006KT 5SM 06/M02 A3000 RMK T00601020 IEM_DS3505
ZBHH,2007-03-20 09:00,ZBHH 200900Z AUTO 25008KT 12SM 08/M03 A2997 RMK SLP184 T00831026 57016 IEM_DS3505
ZBHH,2007-03-20 10:00,ZBHH 201000Z AUTO 25006KT 6SM 06/M04 A3000 RMK T00601040 IEM_DS3505
ZBHH,2007-03-20 11:00,ZBHH 201100Z AUTO 24002KT 6SM 04/M03 A3000 RMK T00401030 IEM_DS3505
ZBHH,2007-03-20 12:00,ZBHH 201200Z AUTO 20002KT 19SM 06/M03 A3003 RMK SLP200 T00611033 52012 IEM_DS3505
ZBHH,2007-03-20 13:00,ZBHH 201300Z AUTO 04004KT 4SM 02/M02 A3003 RMK T00201020 IEM_DS3505
ZBHH,2007-03-20 14:00,ZBHH 201400Z AUTO 06002KT 4SM 01/M02 A3006 RMK T00101020 IEM_DS3505
ZBHH,2007-03-20 15:00,ZBHH 201500Z AUTO 11002KT 19SM 02/M02 A3006 RMK SLP209 T00221018 52006 IEM_DS3505
ZBHH,2007-03-20 16:00,ZBHH 201600Z AUTO 08002KT 4SM 00/M02 A3003 RMK T00001020 IEM_DS3505
ZBHH,2007-03-20 17:00,ZBHH 201700Z AUTO 04002KT 4SM 00/M03 A3006 RMK T00001030 IEM_DS3505
ZBHH,2007-03-20 18:00,ZBHH 201800Z AUTO 07002KT 19SM 01/M03 A3006 RMK SLP210 T00061026 52005 IEM_DS3505
ZBHH,2007-03-20 19:00,ZBHH 201900Z AUTO 07002KT 4SM M02/M03 A3006 RMK T10201030 IEM_DS3505
ZBHH,2007-03-20 20:00,ZBHH 202000Z AUTO 00000KT M02/M04 A3006 RMK T10201040 IEM_DS3505
ZBHH,2007-03-20 21:00,ZBHH 202100Z AUTO 07002KT 19SM M01/M03 A3006 RMK SLP214 T10101029 52004 IEM_DS3505
ZBHH,2007-03-20 22:00,ZBHH 202200Z AUTO 14002KT 2 1/2SM M02/M04 A3009 RMK T10201040 IEM_DS3505
ZBHH,2007-03-20 23:00,ZBHH 202300Z AUTO 00000KT 2 1/2SM M03/M04 A3009 RMK T10301040 IEM_DS3505
ZBHH,2007-03-21 00:00,ZBHH 210000Z AUTO 00000KT 12SM 01/M02 A3012 RMK SLP229 T00141022 52014 IEM_DS3505
ZBHH,2007-03-21 02:00,ZBHH 210200Z AUTO 00000KT 4SM 04/M01 A3012 RMK T00401010 IEM_DS3505
ZBHH,2007-03-21 03:00,ZBHH 210300Z AUTO 02002KT 12SM 07/M04 A3012 RMK SLP229 T00741044 52004 IEM_DS3505
ZBHH,2007-03-21 04:00,ZBHH 210400Z AUTO 00000KT 5SM 08/M03 A3012 RMK T00801030 IEM_DS3505
ZBHH,2007-03-21 05:00,ZBHH 210500Z AUTO 17002KT 6SM 08/M05 A3009 RMK T00801050 IEM_DS3505
ZBHH,2007-03-21 06:00,ZBHH 210600Z AUTO 22004KT 12SM 11/M08 A3006 RMK SLP203 T01101083 57018 IEM_DS3505
ZBHH,2007-03-21 07:00,ZBHH 210700Z AUTO 21004KT 6SM 10/M08 A3006 RMK T01001080 IEM_DS3505
ZBHH,2007-03-21 08:00,ZBHH 210800Z AUTO 21002KT 6SM 11/M06 A3003 RMK T01101060 IEM_DS3505
ZBHH,2007-03-21 09:00,ZBHH 210900Z AUTO 20006KT 12SM 12/M08 A3003 RMK SLP190 T01221083 57013 IEM_DS3505
ZBHH,2007-03-21 10:00,ZBHH 211000Z AUTO 22002KT 6SM 10/M07 A3003 RMK T01001070 IEM_DS3505
ZBHH,2007-03-21 11:00,ZBHH 211100Z AUTO 17002KT 6SM 09/M07 A3003 RMK T00901070 IEM_DS3505
ZBHH,2007-03-21 12:00,ZBHH 211200Z AUTO 05006KT 12SM 08/M05 A3006 RMK SLP198 T00851050 52005 IEM_DS3505
ZBHH,2007-03-21 13:00,ZBHH 211300Z AUTO 08004KT 6SM 04/M02 A3006 RMK T00401020 IEM_DS3505
ZBHH,2007-03-21 14:00,ZBHH 211400Z AUTO 08006KT 6SM 03/M01 A3006 RMK T00301010 IEM_DS3505
ZBHH,2007-03-21 15:00,ZBHH 211500Z AUTO 06006KT 12SM 06/M04 A3003 RMK SLP192 T00551041 52001 IEM_DS3505
ZBHH,2007-03-21 16:00,ZBHH 211600Z AUTO 04002KT 5SM 02/M02 A3003 RMK T00201020 IEM_DS3505
ZBHH,2007-03-21 17:00,ZBHH 211700Z AUTO 06002KT 5SM 02/M03 A3003 RMK T00201030 IEM_DS3505
ZBHH,2007-03-21 18:00,ZBHH 211800Z AUTO 08004KT 12SM 03/M04 A3003 RMK SLP183 T00341038 57005 IEM_DS3505
ZBHH,2007-03-21 19:00,ZBHH 211900Z AUTO 07004KT 5SM 00/M03 A3000 RMK T00001030 IEM_DS3505
ZBHH,2007-03-21 20:00,ZBHH 212000Z AUTO 08002KT 5SM 00/M03 A3000 RMK T00001030 IEM_DS3505
ZBHH,2007-03-21 21:00,ZBHH 212100Z AUTO 09002KT 12SM 01/M03 A3000 RMK SLP179 T00091032 57006 IEM_DS3505
ZBHH,2007-03-21 22:00,ZBHH 212200Z AUTO 00000KT 4SM M01/M04 A3003 RMK T10101040 IEM_DS3505
ZBHH,2007-03-21 23:00,ZBHH 212300Z AUTO 08004KT 4SM M01/M03 A3003 RMK T10101030 IEM_DS3505
ZBHH,2007-03-22 00:00,ZBHH 220000Z AUTO 07002KT 12SM 04/M03 A3003 RMK SLP189 T00381026 52007 IEM_DS3505
ZBHH,2007-03-22 01:00,ZBHH 220100Z AUTO 10004KT 4SM 03/M01 A3003 RMK T00301010 IEM_DS3505
ZBHH,2007-03-22 02:00,ZBHH 220200Z AUTO 10004KT 4SM 07/00 A3003 RMK T00700000 IEM_DS3505
ZBHH,2007-03-22 03:00,ZBHH 220300Z AUTO 07004KT 12SM 11/M03 A3000 RMK SLP173 T01131029 57005 IEM_DS3505
ZBHH,2007-03-22 04:00,ZBHH 220400Z AUTO 21002KT 4SM 12/01 A3000 RMK T01200010 IEM_DS3505
ZBHH,2007-03-22 05:00,ZBHH 220500Z AUTO 23004KT 4SM 12/01 A2997 RMK T01200010 IEM_DS3505
ZBHH,2007-03-22 06:00,ZBHH 220600Z AUTO 20004KT 12SM 14/00 A2991 RMK SLP133 T01450000 57033 IEM_DS3505
ZBHH,2007-03-22 07:00,ZBHH 220700Z AUTO 22006KT 3SM 14/01 A2988 RMK T01400010 IEM_DS3505
ZBHH,2007-03-22 08:00,ZBHH 220800Z AUTO 26002KT 4SM 15/01 A2985 RMK T01500010 IEM_DS3505
ZBHH,2007-03-22 09:00,ZBHH 220900Z AUTO 25004KT 12SM 16/M00 A2985 RMK SLP111 T01571001 57022 IEM_DS3505
ZBHH,2007-03-22 10:00,ZBHH 221000Z AUTO 23002KT 4SM 14/01 A2985 RMK T01400010 IEM_DS3505
ZBHH,2007-03-22 11:00,ZBHH 221100Z AUTO 09002KT 3SM 13/02 A2983 RMK T01300020 IEM_DS3505
ZBHH,2007-03-22 12:00,ZBHH 221200Z AUTO 09002KT 9SM 13/01 A2985 RMK SLP116 T01310014 52005 IEM_DS3505
ZBHH,2007-03-22 13:00,ZBHH 221300Z AUTO 10006KT 2 1/2SM 08/04 A2985 RMK T00800040 IEM_DS3505
ZBHH,2007-03-22 14:00,ZBHH 221400Z AUTO 06002KT 2 1/2SM 08/04 A2988 RMK T00800040 IEM_DS3505
ZBHH,2007-03-22 15:00,ZBHH 221500Z AUTO 11002KT 12SM 10/02 A2988 RMK SLP113 T01020021 52006 IEM_DS3505
ZBHH,2007-03-22 16:00,ZBHH 221600Z AUTO 09002KT 2 1/2SM 07/03 A2985 RMK T00700030 IEM_DS3505
ZBHH,2007-03-22 17:00,ZBHH 221700Z AUTO 10002KT 2 1/2SM 06/03 A2985 RMK T00600030 IEM_DS3505
ZBHH,2007-03-22 18:00,ZBHH 221800Z AUTO 03002KT 12SM 09/03 A2985 RMK SLP100 T00910027 57007 IEM_DS3505
ZBHH,2007-03-22 19:00,ZBHH 221900Z AUTO 04002KT 2 1/2SM 06/03 A2983 RMK T00600030 IEM_DS3505
ZBHH,2007-03-22 20:00,ZBHH 222000Z AUTO 05002KT 2 1/2SM 06/03 A2983 RMK T00600030 IEM_DS3505
ZBHH,2007-03-22 21:00,ZBHH 222100Z AUTO 04002KT 12SM 09/03 A2983 RMK SLP092 T00860026 57006 IEM_DS3505
ZBHH,2007-03-22 22:00,ZBHH 222200Z AUTO 05002KT 2 1/2SM 06/04 A2983 RMK T00600040 IEM_DS3505
ZBHH,2007-03-22 23:00,ZBHH 222300Z AUTO 08004KT 2 1/2SM 05/03 A2983 RMK T00500030 IEM_DS3505
ZBHH,2007-03-23 00:00,ZBHH 230000Z AUTO 09004KT 12SM 09/02 A2985 RMK SLP106 T00910024 52009 IEM_DS3505
ZBHH,2007-03-23 01:00,ZBHH 230100Z AUTO 00000KT 3SM 08/03 A2985 RMK T00800030 IEM_DS3505
ZBHH,2007-03-23 02:00,ZBHH 230200Z AUTO 14002KT 3SM 10/04 A2985 RMK T01000040 IEM_DS3505
ZBHH,2007-03-23 03:00,ZBHH 230300Z AUTO 09004KT 12SM 13/03 A2985 RMK SLP101 T01330028 57002 IEM_DS3505
ZBHH,2007-03-23 04:00,ZBHH 230400Z AUTO 22004KT 3SM 14/03 A2985 RMK T01400030 IEM_DS3505
ZBHH,2007-03-23 05:00,ZBHH 230500Z AUTO 35008KT 7SM 15/M03 A2983 RMK T01501030 IEM_DS3505
ZBHH,2007-03-23 06:00,ZBHH 230600Z AUTO 29014KT 16SM 17/M03 A2983 RMK SLP087 T01691032 57008 IEM_DS3505
ZBHH,2007-03-23 07:00,ZBHH 230700Z AUTO 32016G25KT 7SM 16/M02 A2983 RMK T01601020 IEM_DS3505
ZBHH,2007-03-23 08:00,ZBHH 230800Z AUTO 34016KT 7SM 14/M02 A2983 RMK T01401020 IEM_DS3505
ZBHH,2007-03-23 09:00,ZBHH 230900Z AUTO 34006KT 12SM 15/M04 A2985 RMK SLP099 T01491039 52006 IEM_DS3505
ZBHH,2007-03-23 10:00,ZBHH 231000Z AUTO 34016KT 7SM 12/M05 A2985 RMK T01201050 IEM_DS3505
ZBHH,2007-03-23 11:00,ZBHH 231100Z AUTO 34016G25KT 6SM 11/M05 A2988 RMK T01101050 IEM_DS3505
ZBHH,2007-03-23 12:00,ZBHH 231200Z AUTO 34008KT 19SM 10/M11 A2994 RMK SLP138 T01011107 52026 IEM_DS3505
ZBHH,2007-03-23 13:00,ZBHH 231300Z AUTO 34016G25KT 6SM 08/M12 A2994 RMK T00801120 IEM_DS3505
ZBHH,2007-03-23 14:00,ZBHH 231400Z AUTO 33012G25KT 6SM 07/M14 A2997 RMK T00701140 IEM_DS3505
ZBHH,2007-03-23 15:00,ZBHH 231500Z AUTO 04006G19KT 19SM 07/M16 A3000 RMK SLP157 T00711163 52019 IEM_DS3505
ZBHH,2007-03-23 16:00,ZBHH 231600Z AUTO 34008KT 6SM 05/M15 A3000 RMK T00501150 IEM_DS3505
ZBHH,2007-03-23 17:00,ZBHH 231700Z AUTO 35008KT 6SM 04/M15 A3000 RMK T00401150 IEM_DS3505
ZBHH,2007-03-23 18:00,ZBHH 231800Z AUTO 32004KT 19SM 04/M16 A3000 RMK SLP163 T00401164 52006 IEM_DS3505
ZBHH,2007-03-23 19:00,ZBHH 231900Z AUTO 33002KT 6SM 02/M14 A3000 RMK T00201140 IEM_DS3505
ZBHH,2007-03-23 20:00,ZBHH 232000Z AUTO 01006KT 6SM 01/M13 A3000 RMK T00101130 IEM_DS3505
ZBHH,2007-03-23 21:00,ZBHH 232100Z AUTO 34004KT 19SM 02/M14 A3000 RMK 70000 SLP163 T00191143 57008 IEM_DS3505
ZBHH,2007-03-23 22:00,ZBHH 232200Z AUTO 20004KT 6SM M01/M12 A2997 RMK T10101120 IEM_DS3505
ZBHH,2007-03-23 23:00,ZBHH 232300Z AUTO 03006KT 6SM 00/M12 A2997 RMK T00001120 IEM_DS3505
ZBHH,2007-03-24 00:00,ZBHH 240000Z AUTO 25002KT 12SM 02/M13 A3000 RMK SLP177 T00241126 52004 IEM_DS3505
ZBHH,2007-03-24 01:00,ZBHH 240100Z AUTO 00000KT 4SM 03/M13 A2997 RMK T00301130 IEM_DS3505
ZBHH,2007-03-24 02:00,ZBHH 240200Z AUTO 23006KT 4SM 03/M11 A2997 RMK T00301110 IEM_DS3505
ZBHH,2007-03-24 03:00,ZBHH 240300Z AUTO 22006KT 12SM 06/M13 A2997 RMK SLP161 T00651126 57012 IEM_DS3505
ZBHH,2007-03-24 04:00,ZBHH 240400Z AUTO 24010KT 4SM 07/M13 A2994 RMK T00701130 IEM_DS3505
ZBHH,2007-03-24 05:00,ZBHH 240500Z AUTO 24012KT 5SM 08/M12 A2991 RMK T00801120 IEM_DS3505
ZBHH,2007-03-24 06:00,ZBHH 240600Z AUTO 22014KT 12SM 11/M12 A2985 RMK SLP121 T01081119 57033 IEM_DS3505
ZBHH,2007-03-24 07:00,ZBHH 240700Z AUTO 24014KT 7SM 11/M09 A2983 RMK T01101090 IEM_DS3505
ZBHH,2007-03-24 08:00,ZBHH 240800Z AUTO 25014KT 7SM 12/M09 A2983 RMK T01201090 IEM_DS3505
ZBHH,2007-03-24 09:00,ZBHH 240900Z AUTO 25008KT 12SM 12/M08 A2980 RMK SLP106 T01231082 57014 IEM_DS3505
ZBHH,2007-03-24 10:00,ZBHH 241000Z AUTO 31016G27KT 4SM 12/M12 A2983 RMK T01201120 IEM_DS3505
ZBHH,2007-03-24 11:00,ZBHH 241100Z AUTO 32012G21KT 7SM 11/M12 A2983 RMK T01101120 IEM_DS3505
ZBHH,2007-03-24 12:00,ZBHH 241200Z AUTO 29004KT 19SM 10/M12 A2985 RMK SLP123 T01031117 52012 IEM_DS3505
ZBHH,2007-03-24 13:00,ZBHH 241300Z AUTO 32004KT 7SM 07/M11 A2988 RMK T00701110 IEM_DS3505
ZBHH,2007-03-24 14:00,ZBHH 241400Z AUTO 33006KT 7SM 06/M12 A2988 RMK T00601120 IEM_DS3505
ZBHH,2007-03-24 15:00,ZBHH 241500Z AUTO 34002KT 19SM 06/M11 A2988 RMK SLP136 T00621114 52011 IEM_DS3505
ZBHH,2007-03-24 16:00,ZBHH 241600Z AUTO 08002KT 6SM 02/M10 A2988 RMK T00201100 IEM_DS3505
ZBHH,2007-03-24 18:00,ZBHH 241800Z AUTO 09002KT 19SM 04/M11 A2985 RMK SLP119 T00431109 57010 IEM_DS3505
ZBHH,2007-03-24 19:00,ZBHH 241900Z AUTO 00000KT 6SM 00/M09 A2983 RMK T00001090 IEM_DS3505
ZBHH,2007-03-24 20:00,ZBHH 242000Z AUTO 03002KT 6SM M02/M07 A2983 RMK T10201070 IEM_DS3505
ZBHH,2007-03-24 21:00,ZBHH 242100Z AUTO 34002KT 19SM 00/M10 A2983 RMK SLP112 T00041099 57011 IEM_DS3505
ZBHH,2007-03-24 22:00,ZBHH 242200Z AUTO 08004KT 6SM M02/M08 A2980 RMK T10201080 IEM_DS3505
ZBHH,2007-03-24 23:00,ZBHH 242300Z AUTO 11004KT 6SM M02/M07 A2983 RMK T10201070 IEM_DS3505
ZBHH,2007-03-25 00:00,ZBHH 250000Z AUTO 09002KT 19SM 04/M10 A2983 RMK SLP111 T00371103 52002 IEM_DS3505
ZBHH,2007-03-25 01:00,ZBHH 250100Z AUTO 14002KT 6SM 04/M08 A2983 RMK T00401080 IEM_DS3505
ZBHH,2007-03-25 02:00,ZBHH 250200Z AUTO 26004KT 6SM 05/M08 A2983 RMK T00501080 IEM_DS3505
ZBHH,2007-03-25 03:00,ZBHH 250300Z AUTO 22002KT 19SM 09/M10 A2983 RMK SLP108 T00941101 54000 IEM_DS3505
ZBHH,2007-03-25 04:00,ZBHH 250400Z AUTO 23004KT 6SM 09/M08 A2980 RMK T00901080 IEM_DS3505
ZBHH,2007-03-25 05:00,ZBHH 250500Z AUTO 25006KT 6SM 10/M08 A2977 RMK T01001080 IEM_DS3505
ZBHH,2007-03-25 06:00,ZBHH 250600Z AUTO 20010KT 16SM 12/M08 A2971 RMK SLP067 T01251081 57033 IEM_DS3505
ZBHH,2007-03-25 07:00,ZBHH 250700Z AUTO 24014G23KT 6SM 13/M06 A2968 RMK T01301060 IEM_DS3505
ZBHH,2007-03-25 08:00,ZBHH 250800Z AUTO 26014G23KT 5SM 13/M05 A2968 RMK T01301050 IEM_DS3505
ZBHH,2007-03-25 09:00,ZBHH 250900Z AUTO 22010KT 12SM 14/M06 A2968 RMK SLP058 T01451064 57012 IEM_DS3505
ZBHH,2007-03-25 10:00,ZBHH 251000Z AUTO 25008KT 6SM 13/M05 A2968 RMK T01301050 IEM_DS3505
ZBHH,2007-03-25 11:00,ZBHH 251100Z AUTO 24006KT 6SM 11/M04 A2971 RMK T01101040 IEM_DS3505
ZBHH,2007-03-25 12:00,ZBHH 251200Z AUTO 25006KT 12SM 12/M08 A2974 RMK SLP073 T01211079 52015 IEM_DS3505
ZBHH,2007-03-25 13:00,ZBHH 251300Z AUTO 24004KT 6SM 08/M05 A2974 RMK T00801050 IEM_DS3505
ZBHH,2007-03-25 14:00,ZBHH 251400Z AUTO 27004KT 3SM 07/M05 A2977 RMK T00701050 IEM_DS3505
ZBHH,2007-03-25 15:00,ZBHH 251500Z AUTO 25002KT 12SM 10/M07 A2977 RMK SLP076 T00951068 52009 IEM_DS3505
ZBHH,2007-03-25 16:00,ZBHH 251600Z AUTO 10002KT 6SM 03/M03 A2977 RMK T00301030 IEM_DS3505
ZBHH,2007-03-25 17:00,ZBHH 251700Z AUTO 24006KT 6SM 03/M02 A2974 RMK T00301020 IEM_DS3505
ZBHH,2007-03-25 18:00,ZBHH 251800Z AUTO 11004KT 12SM 05/M03 A2977 RMK SLP082 T00471033 52002 IEM_DS3505
ZBHH,2007-03-25 19:00,ZBHH 251900Z AUTO 10004KT 6SM 00/M03 A2977 RMK T00001030 IEM_DS3505
ZBHH,2007-03-25 20:00,ZBHH 252000Z AUTO 09002KT 6SM 00/M04 A2977 RMK T00001040 IEM_DS3505
ZBHH,2007-03-25 21:00,ZBHH 252100Z AUTO 36006KT 19SM 06/M10 A2980 RMK SLP090 T00551103 52012 IEM_DS3505
ZBHH,2007-03-25 22:00,ZBHH 252200Z AUTO 36008KT 6SM 02/M10 A2983 RMK T00201100 IEM_DS3505
ZBHH,2007-03-25 23:00,ZBHH 252300Z AUTO 35010KT 6SM 01/M12 A2988 RMK T00101120 IEM_DS3505
ZBHH,2007-03-26 00:00,ZBHH 260000Z AUTO 32008G23KT 16SM 03/M13 A2988 RMK SLP139 T00321131 52034 IEM_DS3505
ZBHH,2007-03-26 01:00,ZBHH 260100Z AUTO 35014KT 6SM 03/M14 A2991 RMK T00301140 IEM_DS3505
ZBHH,2007-03-26 02:00,ZBHH 260200Z AUTO 35012KT 6SM 04/M15 A2994 RMK T00401150 IEM_DS3505
ZBHH,2007-03-26 03:00,ZBHH 260300Z AUTO 34012KT 19SM 06/M17 A2994 RMK SLP150 T00651168 52011 IEM_DS3505
ZBHH,2007-03-26 04:00,ZBHH 260400Z AUTO 35010KT 6SM 07/M15 A2991 RMK T00701150 IEM_DS3505
ZBHH,2007-03-26 05:00,ZBHH 260500Z AUTO 32014G23KT 6SM 09/M16 A2991 RMK T00901160 IEM_DS3505
ZBHH,2007-03-26 06:00,ZBHH 260600Z AUTO 32012G25KT 19SM 10/M17 A2991 RMK SLP144 T01031169 57007 IEM_DS3505
ZBHH,2007-03-26 07:00,ZBHH 260700Z AUTO 34016KT 6SM 09/M17 A2991 RMK T00901170 IEM_DS3505
ZBHH,2007-03-26 08:00,ZBHH 260800Z AUTO 35012G21KT 6SM 09/M18 A2991 RMK T00901180 IEM_DS3505
ZBHH,2007-03-26 09:00,ZBHH 260900Z AUTO 32006KT 19SM 10/M18 A2991 RMK SLP143 T00991182 54000 IEM_DS3505
ZBHH,2007-03-26 10:00,ZBHH 261000Z AUTO 36012KT 6SM 08/M18 A2991 RMK T00801180 IEM_DS3505
ZBHH,2007-03-26 11:00,ZBHH 261100Z AUTO 36008KT 6SM 06/M18 A2994 RMK T00601180 IEM_DS3505
ZBHH,2007-03-26 12:00,ZBHH 261200Z AUTO 07004KT 19SM 06/M18 A2994 RMK SLP161 T00641176 52004 IEM_DS3505
ZBHH,2007-03-26 13:00,ZBHH 261300Z AUTO 04008KT 6SM 04/M17 A2994 RMK T00401170 IEM_DS3505
ZBHH,2007-03-26 14:00,ZBHH 261400Z AUTO 12006KT 6SM 03/M15 A2997 RMK T00301150 IEM_DS3505
ZBHH,2007-03-26 15:00,ZBHH 261500Z AUTO 07006KT 19SM 05/M16 A2994 RMK SLP159 T00481163 52001 IEM_DS3505
ZBHH,2007-03-26 16:00,ZBHH 261600Z AUTO 07008KT 6SM 02/M15 A2991 RMK T00201150 IEM_DS3505
ZBHH,2007-03-26 17:00,ZBHH 261700Z AUTO 00000KT 6SM 00/M14 A2991 RMK T00001140 IEM_DS3505
ZBHH,2007-03-26 18:00,ZBHH 261800Z AUTO 34002KT 19SM 01/M15 A2991 RMK SLP150 T00131148 57007 IEM_DS3505
ZBHH,2007-03-26 19:00,ZBHH 261900Z AUTO 06004KT 6SM M02/M12 A2991 RMK T10201120 IEM_DS3505
ZBHH,2007-03-26 20:00,ZBHH 262000Z AUTO 08006KT 6SM M03/M13 A2988 RMK T10301130 IEM_DS3505
ZBHH,2007-03-26 21:00,ZBHH 262100Z AUTO 09002KT 19SM M01/M13 A2988 RMK SLP139 T10081130 57015 IEM_DS3505
ZBHH,2007-03-26 22:00,ZBHH 262200Z AUTO 08004KT 6SM M03/M12 A2985 RMK T10301120 IEM_DS3505
ZBHH,2007-03-26 23:00,ZBHH 262300Z AUTO 10002KT 6SM M02/M11 A2985 RMK T10201110 IEM_DS3505
ZBHH,2007-03-27 00:00,ZBHH 270000Z AUTO 36002KT 19SM 02/M13 A2985 RMK SLP140 T00251133 52001 IEM_DS3505
ZBHH,2007-03-27 01:00,ZBHH 270100Z AUTO 05002KT 6SM 02/M12 A2985 RMK T00201120 IEM_DS3505
ZBHH,2007-03-27 02:00,ZBHH 270200Z AUTO 11002KT 6SM 06/M13 A2985 RMK T00601130 IEM_DS3505
ZBHH,2007-03-27 03:00,ZBHH 270300Z AUTO 16004KT 12SM 09/M14 A2983 RMK SLP114 T00871143 57014 IEM_DS3505
ZBHH,2007-03-27 04:00,ZBHH 270400Z AUTO 19002KT 6SM 09/M12 A2980 RMK T00901120 IEM_DS3505
ZBHH,2007-03-27 05:00,ZBHH 270500Z AUTO 7SM 11/M12 A2977 RMK T01101120 IEM_DS3505
ZBHH,2007-03-27 06:00,ZBHH 270600Z AUTO 25004KT 12SM 14/M11 A2974 RMK SLP072 T01391107 57033 IEM_DS3505
ZBHH,2007-03-27 07:00,ZBHH 270700Z AUTO 15002KT 7SM 13/M09 A2971 RMK T01301090 IEM_DS3505
ZBHH,2007-03-27 08:00,ZBHH 270800Z AUTO 25006KT 7SM 14/M09 A2968 RMK T01401090 IEM_DS3505
ZBHH,2007-03-27 09:00,ZBHH 270900Z AUTO 16004KT 12SM 15/M09 A2965 RMK SLP052 T01461094 57021 IEM_DS3505
ZBHH,2007-03-27 10:00,ZBHH 271000Z AUTO 36004KT 7SM 14/M08 A2965 RMK T01401080 IEM_DS3505
ZBHH,2007-03-27 11:00,ZBHH 271100Z AUTO 20004KT 5SM 12/M06 A2968 RMK T01201060 IEM_DS3505
ZBHH,2007-03-27 12:00,ZBHH 271200Z AUTO 36002KT 12SM 14/M10 A2968 RMK SLP058 T01351104 52010 IEM_DS3505
ZBHH,2007-03-27 13:00,ZBHH 271300Z AUTO 32004KT 7SM 12/M08 A2971 RMK T01201080 IEM_DS3505
ZBHH,2007-03-27 14:00,ZBHH 271400Z AUTO 02008KT 7SM 10/M09 A2971 RMK T01001090 IEM_DS3505
ZBHH,2007-03-27 15:00,ZBHH 271500Z AUTO 36008KT 12SM 11/M12 A2974 RMK SLP065 T01131115 52014 IEM_DS3505
ZBHH,2007-03-27 16:00,ZBHH 271600Z AUTO 6SM 09/M10 A2977 RMK T00901100 IEM_DS3505
ZBHH,2007-03-27 17:00,ZBHH 271700Z AUTO 21004KT 6SM 08/M07 A2977 RMK T00801070 IEM_DS3505
ZBHH,2007-03-27 18:00,ZBHH 271800Z AUTO 29006KT 16SM 09/M08 A2980 RMK SLP082 T00861084 52020 IEM_DS3505
ZBHH,2007-03-27 19:00,ZBHH 271900Z AUTO 00000KT 6SM 04/M04 A2983 RMK T00401040 IEM_DS3505
ZBHH,2007-03-27 20:00,ZBHH 272000Z AUTO 30004KT 6SM 05/M12 A2983 RMK T00501120 IEM_DS3505
ZBHH,2007-03-27 21:00,ZBHH 272100Z AUTO 29010KT 19SM 05/M14 A2985 RMK SLP107 T00531142 52017 IEM_DS3505
ZBHH,2007-03-27 22:00,ZBHH 272200Z AUTO 34006KT 6SM 04/M13 A2983 RMK T00401130 IEM_DS3505
ZBHH,2007-03-27 23:00,ZBHH 272300Z AUTO 33004KT 6SM 02/M12 A2985 RMK T00201120 IEM_DS3505
ZBHH,2007-03-28 00:00,ZBHH 280000Z AUTO 07002KT 19SM 06/M13 A2985 RMK SLP113 T00561134 52004 IEM_DS3505
ZBHH,2007-03-28 01:00,ZBHH 280100Z AUTO 14002KT 6SM 06/M11 A2988 RMK T00601110 IEM_DS3505
ZBHH,2007-03-28 02:00,ZBHH 280200Z AUTO 22006KT 6SM 06/M05 A2988 RMK T00601050 IEM_DS3505
ZBHH,2007-03-28 03:00,ZBHH 280300Z AUTO 22008KT 19SM 10/M10 A2988 RMK SLP112 T00991097 52003 IEM_DS3505
ZBHH,2007-03-28 04:00,ZBHH 280400Z AUTO 24014KT 6SM 10/M11 A2985 RMK T01001110 IEM_DS3505
ZBHH,2007-03-28 05:00,ZBHH 280500Z AUTO 25014KT 6SM 11/M09 A2980 RMK T01101090 IEM_DS3505
ZBHH,2007-03-28 06:00,ZBHH 280600Z AUTO 25014G23KT 19SM 14/M13 A2977 RMK SLP070 T01361134 57035 IEM_DS3505
ZBHH,2007-03-28 07:00,ZBHH 280700Z AUTO 25014KT 6SM 13/M08 A2968 RMK T01301080 IEM_DS3505
ZBHH,2007-03-28 08:00,ZBHH 280800Z AUTO 24016KT 6SM 13/M05 A2968 RMK T01301050 IEM_DS3505
ZBHH,2007-03-28 09:00,ZBHH 280900Z AUTO 25010KT 19SM 14/M05 A2965 RMK SLP036 T01381054 57036 IEM_DS3505
ZBHH,2007-03-28 10:00,ZBHH 281000Z AUTO 25012KT 7SM 13/M04 A2962 RMK T01301040 IEM_DS3505
ZBHH,2007-03-28 11:00,ZBHH 281100Z AUTO 25010KT 7SM 12/M04 A2962 RMK T01201040 IEM_DS3505
ZBHH,2007-03-28 12:00,ZBHH 281200Z AUTO 25008KT 12SM 13/M04 A2962 RMK SLP027 T01311041 57009 IEM_DS3505
ZBHH,2007-03-28 13:00,ZBHH 281300Z AUTO 19002KT 7SM 11/M03 A2959 RMK T01101030 IEM_DS3505
ZBHH,2007-03-28 14:00,ZBHH 281400Z AUTO 00000KT 7SM 10/M02 A2959 RMK T01001020 IEM_DS3505
ZBHH,2007-03-28 15:00,ZBHH 281500Z AUTO 32008KT 19SM 11/M01 A2956 RMK SLP004 T01111007 57016 IEM_DS3505
ZBHH,2007-03-28 16:00,ZBHH 281600Z AUTO 09002KT 7SM 10/M01 A2953 RMK T01001010 IEM_DS3505
ZBHH,2007-03-28 17:00,ZBHH 281700Z AUTO 10002KT 7SM 07/M01 A2950 RMK T00701010 IEM_DS3505
ZBHH,2007-03-28 18:00,ZBHH 281800Z AUTO 32004KT 19SM 07/02 A2953 RMK 60000 SLP001 T00670024 57004 IEM_DS3505
ZBHH,2007-03-28 19:00,ZBHH 281900Z AUTO 30010KT 7SM 06/02 A2953 RMK T00600020 IEM_DS3505
ZBHH,2007-03-28 20:00,ZBHH 282000Z AUTO 32004G19KT 7SM 06/01 A2956 RMK T00600010 IEM_DS3505
ZBHH,2007-03-28 21:00,ZBHH 282100Z AUTO 32006KT 19SM 07/01 A2956 RMK 70001 SLP004 T00660007 52003 IEM_DS3505
ZBHH,2007-03-28 22:00,ZBHH 282200Z AUTO 21010KT 7SM 07/M01 A2956 RMK T00701010 IEM_DS3505
ZBHH,2007-03-28 23:00,ZBHH 282300Z AUTO 14002KT 7SM 06/M02 A2962 RMK T00601020 IEM_DS3505
ZBHH,2007-03-29 00:00,ZBHH 290000Z AUTO 32012KT 19SM 08/M05 A2965 RMK 60000 70001 SLP037 T00811054 52031 IEM_DS3505
ZBHH,2007-03-29 01:00,ZBHH 290100Z AUTO 16002KT 6SM 10/M04 A2971 RMK T01001040 IEM_DS3505
ZBHH,2007-03-29 02:00,ZBHH 290200Z AUTO 01010G19KT 6SM 10/M05 A2974 RMK T01001050 IEM_DS3505
ZBHH,2007-03-29 03:00,ZBHH 290300Z AUTO 29008KT 19SM 13/M07 A2974 RMK SLP063 T01291066 52028 IEM_DS3505
ZBHH,2007-03-29 04:00,ZBHH 290400Z AUTO 36008KT 6SM 12/M07 A2974 RMK T01201070 IEM_DS3505
ZBHH,2007-03-29 05:00,ZBHH 290500Z AUTO 30008KT 6SM 13/M08 A2971 RMK T01301080 IEM_DS3505
ZBHH,2007-03-29 06:00,ZBHH 290600Z AUTO 04002KT 19SM 16/M08 A2968 RMK SLP041 T01571085 57022 IEM_DS3505
ZBHH,2007-03-29 07:00,ZBHH 290700Z AUTO 26008KT 6SM 16/M08 A2968 RMK T01601080 IEM_DS3505
ZBHH,2007-03-29 08:00,ZBHH 290800Z AUTO 25012KT 6SM 16/M06 A2971 RMK T01601060 IEM_DS3505
ZBHH,2007-03-29 09:00,ZBHH 290900Z AUTO 25010G17KT 19SM 16/M08 A2971 RMK SLP048 T01591084 52006 IEM_DS3505
ZBHH,2007-03-29 10:00,ZBHH 291000Z AUTO 24012G21KT 7SM 14/M07 A2971 RMK T01401070 IEM_DS3505
ZBHH,2007-03-29 11:00,ZBHH 291100Z AUTO 25010KT 7SM 13/M07 A2971 RMK T01301070 IEM_DS3505
ZBHH,2007-03-29 12:00,ZBHH 291200Z AUTO 27002KT 19SM 13/M09 A2971 RMK SLP057 T01331086 52006 IEM_DS3505
ZBHH,2007-03-29 13:00,ZBHH 291300Z AUTO 02004KT 5SM 10/M06 A2971 RMK T01001060 IEM_DS3505
ZBHH,2007-03-29 14:00,ZBHH 291400Z AUTO 12004KT 4SM 07/M05 A2971 RMK T00701050 IEM_DS3505
ZBHH,2007-03-29 15:00,ZBHH 291500Z AUTO 04002KT 19SM 11/M06 A2971 RMK SLP055 T01061062 52002 IEM_DS3505
ZBHH,2007-03-29 16:00,ZBHH 291600Z AUTO 03002KT 7SM 07/M04 A2974 RMK T00701040 IEM_DS3505
ZBHH,2007-03-29 18:00,ZBHH 291800Z AUTO 04002KT 19SM 09/M07 A2971 RMK SLP046 T00911067 57005 IEM_DS3505
ZBHH,2007-03-29 19:00,ZBHH 291900Z AUTO 09004KT 7SM 05/M03 A2968 RMK T00501030 IEM_DS3505
ZBHH,2007-03-29 20:00,ZBHH 292000Z AUTO 09002KT 7SM 06/M04 A2965 RMK T00601040 IEM_DS3505
ZBHH,2007-03-29 21:00,ZBHH 292100Z AUTO 10004KT 12SM 08/M05 A2965 RMK SLP031 T00821053 57015 IEM_DS3505
ZBHH,2007-03-29 22:00,ZBHH 292200Z AUTO 03004KT 7SM 06/M04 A2968 RMK T00601040 IEM_DS3505
ZBHH,2007-03-29 23:00,ZBHH 292300Z AUTO 07002KT 7SM 06/M04 A2968 RMK T00601040 IEM_DS3505
ZBHH,2007-03-30 00:00,ZBHH 300000Z AUTO 18002KT 19SM 10/M06 A2965 RMK SLP036 T00951056 52002 IEM_DS3505
ZBHH,2007-03-30 01:00,ZBHH 300100Z AUTO 03002KT 4SM 08/M05 A2965 RMK T00801050 IEM_DS3505
ZBHH,2007-03-30 02:00,ZBHH 300200Z AUTO 00000KT 5SM 09/M04 A2968 RMK T00901040 IEM_DS3505
ZBHH,2007-03-30 03:00,ZBHH 300300Z AUTO 25004KT 12SM 12/M07 A2968 RMK SLP049 T01181071 52011 IEM_DS3505
ZBHH,2007-03-30 04:00,ZBHH 300400Z AUTO 30010KT 5SM 10/01 A2971 RMK T01000010 IEM_DS3505
ZBHH,2007-03-30 05:00,ZBHH 300500Z AUTO 21006KT 7SM 09/01 A2968 RMK T00900010 IEM_DS3505
ZBHH,2007-03-30 06:00,ZBHH 300600Z AUTO 22014KT 9SM 11/01 A2965 RMK 60000 SLP041 T01100007 57012 IEM_DS3505
ZBHH,2007-03-30 07:00,ZBHH 300700Z AUTO 24012G25KT 7SM 10/02 A2965 RMK T01000020 IEM_DS3505
ZBHH,2007-03-30 08:00,ZBHH 300800Z AUTO 24023G33KT 7SM 11/02 A2962 RMK T01100020 IEM_DS3505
ZBHH,2007-03-30 09:00,ZBHH 300900Z AUTO 25012G33KT 5SM 12/M03 A2962 RMK SLP025 T01231027 57013 IEM_DS3505
ZBHH,2007-03-30 10:00,ZBHH 301000Z AUTO 26017G27KT 1 1/4SM 11/M06 A2962 RMK T01101060 IEM_DS3505
ZBHH,2007-03-30 11:00,ZBHH 301100Z AUTO 33023G37KT 3/8SM 10/M17 A2968 RMK T01001170 IEM_DS3505
ZBHH,2007-03-30 12:00,ZBHH 301200Z AUTO 29012G33KT 3/8SM 09/M19 A2974 RMK SLP078 T00931187 52043 IEM_DS3505
ZBHH,2007-03-30 13:00,ZBHH 301300Z AUTO 30019G29KT 3/8SM 07/M21 A2980 RMK T00701210 IEM_DS3505
ZBHH,2007-03-30 14:00,ZBHH 301400Z AUTO 32019G29KT 1SM 06/M22 A2983 RMK T00601220 IEM_DS3505
ZBHH,2007-03-30 15:00,ZBHH 301500Z AUTO 29010G25KT 5SM 06/M23 A2985 RMK SLP122 T00611233 52037 IEM_DS3505
ZBHH,2007-03-30 16:00,ZBHH 301600Z AUTO 30014KT 1SM 04/M21 A2988 RMK T00401210 IEM_DS3505
ZBHH,2007-03-30 17:00,ZBHH 301700Z AUTO 31012G21KT 1 1/4SM 03/M21 A2991 RMK T00301210 IEM_DS3505
ZBHH,2007-03-30 18:00,ZBHH 301800Z AUTO 29008KT 5SM 04/M21 A2988 RMK SLP140 T00361214 52009 IEM_DS3505
ZBHH,2007-03-30 19:00,ZBHH 301900Z AUTO 28012KT 1 1/2SM 02/M20 A2988 RMK T00201200 IEM_DS3505
ZBHH,2007-03-30 20:00,ZBHH 302000Z AUTO 28012KT 2SM 01/M20 A2988 RMK T00101200 IEM_DS3505
ZBHH,2007-03-30 21:00,ZBHH 302100Z AUTO 34004KT 9SM 02/M19 A2988 RMK 70000 SLP138 T00191193 57002 IEM_DS3505
ZBHH,2007-03-30 22:00,ZBHH 302200Z AUTO 30019KT 4SM 00/M19 A2988 RMK T00001190 IEM_DS3505
ZBHH,2007-03-30 23:00,ZBHH 302300Z AUTO 29017KT 4SM 00/M17 A2991 RMK T00001170 IEM_DS3505
ZBHH,2007-03-31 00:00,ZBHH 310000Z AUTO 18002KT 12SM 03/M19 A2994 RMK 70000 SLP152 T00321189 52009 IEM_DS3505
ZBHH,2007-03-31 01:00,ZBHH 310100Z AUTO 31006KT 6SM 02/M17 A2994 RMK T00201170 IEM_DS3505
ZBHH,2007-03-31 02:00,ZBHH 310200Z AUTO 28012KT 6SM 03/M17 A2994 RMK T00301170 IEM_DS3505
ZBHH,2007-03-31 03:00,ZBHH 310300Z AUTO 27004KT 12SM 06/M18 A2994 RMK SLP155 T00611179 52002 IEM_DS3505
ZBHH,2007-03-31 04:00,ZBHH 310400Z AUTO 29010G19KT 6SM 06/M20 A2991 RMK T00601200 IEM_DS3505
ZBHH,2007-03-31 05:00,ZBHH 310500Z AUTO 28008G17KT 7SM 06/M20 A2988 RMK T00601200 IEM_DS3505
ZBHH,2007-03-31 06:00,ZBHH 310600Z AUTO 25002KT 9SM 08/M18 A2988 RMK SLP135 T00851184 57018 IEM_DS3505
ZBHH,2007-03-31 07:00,ZBHH 310700Z AUTO 31012KT 7SM 08/M20 A2985 RMK T00801200 IEM_DS3505
ZBHH,2007-03-31 08:00,ZBHH 310800Z AUTO 30010KT 7SM 08/M20 A2985 RMK T00801200 IEM_DS3505
ZBHH,2007-03-31 09:00,ZBHH 310900Z AUTO 22006KT 9SM 08/M17 A2985 RMK SLP131 T00851167 57007 IEM_DS3505
ZBHH,2007-03-31 10:00,ZBHH 311000Z AUTO 21006KT 6SM 07/M15 A2985 RMK T00701150 IEM_DS3505
ZBHH,2007-03-31 11:00,ZBHH 311100Z AUTO 26008KT 6SM 07/M14 A2985 RMK T00701140 IEM_DS3505
ZBHH,2007-03-31 12:00,ZBHH 311200Z AUTO 32004KT 12SM 08/M13 A2988 RMK SLP139 T00781132 52008 IEM_DS3505
ZBHH,2007-03-31 13:00,ZBHH 311300Z AUTO 29004KT 4SM 05/M10 A2991 RMK T00501100 IEM_DS3505
ZBHH,2007-03-31 14:00,ZBHH 311400Z AUTO 26008KT 5SM 06/M10 A2991 RMK T00601100 IEM_DS3505
ZBHH,2007-03-31 15:00,ZBHH 311500Z AUTO 22006KT 12SM 07/M10 A2991 RMK SLP145 T00671105 52009 IEM_DS3505
ZBHH,2007-03-31 16:00,ZBHH 311600Z AUTO 25010KT 7SM 05/M09 A2991 RMK T00501090 IEM_DS3505
ZBHH,2007-03-31 17:00,ZBHH 311700Z AUTO 27006KT 7SM 04/M08 A2994 RMK T00401080 IEM_DS3505
ZBHH,2007-03-31 18:00,ZBHH 311800Z AUTO 29008KT 19SM 06/M19 A2994 RMK SLP155 T00611194 52013 IEM_DS3505
ZBHH,2007-03-31 19:00,ZBHH 311900Z AUTO 31008KT 7SM 03/M18 A2997 RMK T00301180 IEM_DS3505
ZBHH,2007-03-31 20:00,ZBHH 312000Z AUTO 33004KT 01/M17 A3000 RMK T00101170 IEM_DS3505
ZBHH,2007-03-31 21:00,ZBHH 312100Z AUTO 34004KT 19SM 01/M16 A3000 RMK SLP191 T00111163 52021 IEM_DS3505
ZBHH,2007-03-31 22:00,ZBHH 312200Z AUTO 34004KT 6SM M01/M16 A3003 RMK T10101160 IEM_DS3505
ZBHH,2007-03-31 23:00,ZBHH 312300Z AUTO 32004KT 6SM M02/M15 A3009 RMK T10201150 IEM_DS3505
ZBHH,2007-04-01 00:00,ZBHH 010000Z AUTO 32010KT 19SM 00/M13 A3012 RMK SLP231 T00031130 52032 IEM_DS3505
ZBHH,2007-04-01 01:00,ZBHH 010100Z AUTO 35014G23KT 6SM 00/M13 A3012 RMK T00001130 IEM_DS3505
ZBHH,2007-04-01 02:00,ZBHH 010200Z AUTO 31016G25KT 7SM 02/M21 A3015 RMK T00201210 IEM_DS3505
ZBHH,2007-04-01 03:00,ZBHH 010300Z AUTO 32014G27KT 19SM 03/M19 A3015 RMK SLP240 T00321189 52012 IEM_DS3505
ZBHH,2007-04-01 04:00,ZBHH 010400Z AUTO 32017G29KT 7SM 03/M16 A3015 RMK T00301160 IEM_DS3505
ZBHH,2007-04-01 05:00,ZBHH 010500Z AUTO 34016G29KT 7SM 02/M13 A3015 RMK T00201130 IEM_DS3505
ZBHH,2007-04-01 06:00,ZBHH 010600Z AUTO 34012G39KT 12SM 01/M08 A3018 RMK SLP257 T00101085 52009 IEM_DS3505
ZBHH,2007-04-01 07:00,ZBHH 010700Z AUTO 34017G27KT 7SM 00/M11 A3018 RMK T00001110 IEM_DS3505
ZBHH,2007-04-01 08:00,ZBHH 010800Z AUTO 34017G29KT 2SM M02/M05 A3021 RMK T10201050 IEM_DS3505
ZBHH,2007-04-01 09:00,ZBHH 010900Z AUTO 32008G29KT 19SM 01/M11 A3024 RMK SLP282 T00081110 52011 IEM_DS3505
ZBHH,2007-04-01 10:00,ZBHH 011000Z AUTO 36016G27KT 7SM M01/M12 A3024 RMK T10101120 IEM_DS3505
ZBHH,2007-04-01 11:00,ZBHH 011100Z AUTO 36014G23KT 7SM M02/M13 A3027 RMK T10201130 IEM_DS3505
ZBHH,2007-04-01 12:00,ZBHH 011200Z AUTO 32012G19KT 19SM M01/M14 A3030 RMK 60000 SLP309 T10091138 52018 IEM_DS3505
ZBHH,2007-04-01 13:00,ZBHH 011300Z AUTO 32002KT 6SM M03/M11 A3033 RMK T10301110 IEM_DS3505
ZBHH,2007-04-01 14:00,ZBHH 011400Z AUTO 36008G17KT 6SM M03/M12 A3033 RMK T10301120 IEM_DS3505
ZBHH,2007-04-01 15:00,ZBHH 011500Z AUTO 27004G27KT 19SM M02/M13 A3036 RMK SLP327 T10191128 52020 IEM_DS3505
ZBHH,2007-04-01 16:00,ZBHH 011600Z AUTO 35006G19KT 7SM M03/M12 A3036 RMK T10301120 IEM_DS3505
ZBHH,2007-04-01 17:00,ZBHH 011700Z AUTO 01008KT 7SM M04/M10 A3036 RMK T10401100 IEM_DS3505
ZBHH,2007-04-01 18:00,ZBHH 011800Z AUTO 32004KT 19SM M02/M11 A3036 RMK SLP337 T10241109 52003 IEM_DS3505
ZBHH,2007-04-01 19:00,ZBHH 011900Z AUTO 7SM M04/M10 A3036 RMK T10401100 IEM_DS3505
ZBHH,2007-04-01 20:00,ZBHH 012000Z AUTO 34004KT 7SM M04/M10 A3036 RMK T10401100 IEM_DS3505
ZBHH,2007-04-01 21:00,ZBHH 012100Z AUTO 36004KT 19SM M03/M11 A3036 RMK 70000 SLP343 T10281106 52004 IEM_DS3505
ZBHH,2007-04-01 22:00,ZBHH 012200Z AUTO 33006KT 7SM M05/M08 A3036 RMK T10501080 IEM_DS3505
ZBHH,2007-04-01 23:00,ZBHH 012300Z AUTO 33006KT 7SM M05/M09 A3039 RMK T10501090 IEM_DS3505
ZBHH,2007-04-02 00:00,ZBHH 020000Z AUTO 36006KT 19SM M02/M11 A3042 RMK 70000 SLP368 T10211114 52019 IEM_DS3505
ZBHH,2007-04-02 01:00,ZBHH 020100Z AUTO 34010KT 7SM M03/M12 A3045 RMK T10301120 IEM_DS3505
ZBHH,2007-04-02 02:00,ZBHH 020200Z AUTO 35010KT 7SM M02/M14 A3047 RMK T10201140 IEM_DS3505
ZBHH,2007-04-02 03:00,ZBHH 020300Z AUTO 36008G21KT 19SM 01/M14 A3047 RMK SLP372 T00111145 52009 IEM_DS3505
ZBHH,2007-04-02 04:00,ZBHH 020400Z AUTO 35014KT 7SM 00/M15 A3045 RMK T00001150 IEM_DS3505
ZBHH,2007-04-02 05:00,ZBHH 020500Z AUTO 34010G19KT 7SM 01/M15 A3045 RMK T00101150 IEM_DS3505
ZBHH,2007-04-02 06:00,ZBHH 020600Z AUTO 34008KT 19SM 03/M15 A3042 RMK SLP350 T00331154 57016 IEM_DS3505
ZBHH,2007-04-02 07:00,ZBHH 020700Z AUTO 36010KT 7SM 02/M16 A3039 RMK T00201160 IEM_DS3505
ZBHH,2007-04-02 08:00,ZBHH 020800Z AUTO 36012G21KT 7SM 02/M16 A3039 RMK T00201160 IEM_DS3505
ZBHH,2007-04-02 09:00,ZBHH 020900Z AUTO 32008G21KT 19SM 04/M20 A3036 RMK SLP333 T00441200 57013 IEM_DS3505
ZBHH,2007-04-02 10:00,ZBHH 021000Z AUTO 36010KT 7SM 02/M18 A3039 RMK T00201180 IEM_DS3505
ZBHH,2007-04-02 11:00,ZBHH 021100Z AUTO 35006G16KT 6SM 01/M20 A3039 RMK T00101200 IEM_DS3505
ZBHH,2007-04-02 12:00,ZBHH 021200Z AUTO 36002KT 19SM 02/M20 A3039 RMK SLP339 T00221197 52002 IEM_DS3505
ZBHH,2007-04-02 13:00,ZBHH 021300Z AUTO 23002KT 6SM M01/M18 A3039 RMK T10101180 IEM_DS3505
ZBHH,2007-04-02 14:00,ZBHH 021400Z AUTO 00000KT 6SM M01/M18 A3039 RMK T10101180 IEM_DS3505
ZBHH,2007-04-02 15:00,ZBHH 021500Z AUTO 32006KT 19SM 01/M19 A3039 RMK SLP338 T00111194 52003 IEM_DS3505
ZBHH,2007-04-02 16:00,ZBHH 021600Z AUTO 12004KT 6SM M06/M16 A3039 RMK T10601160 IEM_DS3505
ZBHH,2007-04-02 17:00,ZBHH 021700Z AUTO 13002KT 6SM M06/M16 A3039 RMK T10601160 IEM_DS3505
ZBHH,2007-04-02 18:00,ZBHH 021800Z AUTO 18002KT 19SM M02/M19 A3039 RMK SLP337 T10241189 57003 IEM_DS3505
ZBHH,2007-04-02 19:00,ZBHH 021900Z AUTO 10004KT 6SM M07/M16 A3036 RMK T10701160 IEM_DS3505
ZBHH,2007-04-02 20:00,ZBHH 022000Z AUTO 10002KT 6SM M08/M16 A3036 RMK T10801160 IEM_DS3505
ZBHH,2007-04-02 21:00,ZBHH 022100Z AUTO 09002KT 19SM M04/M16 A3036 RMK SLP328 T10431162 57010 IEM_DS3505
ZBHH,2007-04-02 22:00,ZBHH 022200Z AUTO 05002KT 6SM M08/M14 A3036 RMK T10801140 IEM_DS3505
ZBHH,2007-04-02 23:00,ZBHH 022300Z AUTO 10002KT 6SM M08/M15 A3036 RMK T10801150 IEM_DS3505
ZBHH,2007-04-03 00:00,ZBHH 030000Z AUTO 14002KT 16SM M01/M13 A3036 RMK SLP333 T10091128 52007 IEM_DS3505
ZBHH,2007-04-03 01:00,ZBHH 030100Z AUTO 21004KT 6SM M01/M12 A3039 RMK T10101120 IEM_DS3505
ZBHH,2007-04-03 02:00,ZBHH 030200Z AUTO 22006KT 6SM 01/M15 A3036 RMK T00101150 IEM_DS3505
ZBHH,2007-04-03 03:00,ZBHH 030300Z AUTO 25002KT 12SM 04/M14 A3033 RMK SLP313 T00391139 57010 IEM_DS3505
ZBHH,2007-04-03 04:00,ZBHH 030400Z AUTO 22006KT 6SM 05/M14 A3030 RMK T00501140 IEM_DS3505
ZBHH,2007-04-03 05:00,ZBHH 030500Z AUTO 25010KT 6SM 06/M17 A3030 RMK T00601170 IEM_DS3505
ZBHH,2007-04-03 06:00,ZBHH 030600Z AUTO 20008KT 19SM 09/M15 A3024 RMK SLP273 T00881149 57032 IEM_DS3505
ZBHH,2007-04-03 07:00,ZBHH 030700Z AUTO 24008KT 6SM 08/M14 A3021 RMK T00801140 IEM_DS3505
ZBHH,2007-04-03 08:00,ZBHH 030800Z AUTO 22008KT 6SM 09/M13 A3018 RMK T00901130 IEM_DS3505
ZBHH,2007-04-03 09:00,ZBHH 030900Z AUTO 20006KT 19SM 10/M13 A3018 RMK SLP255 T00991133 57017 IEM_DS3505
ZBHH,2007-04-03 10:00,ZBHH 031000Z AUTO 24008KT 6SM 08/M12 A3018 RMK T00801120 IEM_DS3505
ZBHH,2007-04-03 11:00,ZBHH 031100Z AUTO 24006KT 6SM 07/M12 A3018 RMK T00701120 IEM_DS3505
ZBHH,2007-04-03 12:00,ZBHH 031200Z AUTO 22004KT 19SM 07/M11 A3021 RMK SLP258 T00731109 52004 IEM_DS3505
ZBHH,2007-04-03 13:00,ZBHH 031300Z AUTO 14002KT 5SM 02/M11 A3021 RMK T00201110 IEM_DS3505
ZBHH,2007-04-03 14:00,ZBHH 031400Z AUTO 04004KT 5SM 01/M11 A3021 RMK T00101110 IEM_DS3505
ZBHH,2007-04-03 15:00,ZBHH 031500Z AUTO 11002KT 19SM 03/M12 A3021 RMK SLP266 T00311116 52008 IEM_DS3505
ZBHH,2007-04-03 16:00,ZBHH 031600Z AUTO 00000KT 6SM M02/M11 A3021 RMK T10201110 IEM_DS3505
ZBHH,2007-04-03 18:00,ZBHH 031800Z AUTO 34002KT 16SM 01/M11 A3021 RMK SLP251 T00091109 57007 IEM_DS3505
ZBHH,2007-04-03 19:00,ZBHH 031900Z AUTO 11004KT 6SM M04/M12 A3018 RMK T10401120 IEM_DS3505
ZBHH,2007-04-03 20:00,ZBHH 032000Z AUTO 05004KT 6SM M02/M11 A3018 RMK T10201110 IEM_DS3505
ZBHH,2007-04-03 21:00,ZBHH 032100Z AUTO 11002KT 19SM 01/M10 A3018 RMK SLP242 T00061100 57006 IEM_DS3505
ZBHH,2007-04-03 22:00,ZBHH 032200Z AUTO 07002KT 6SM M02/M11 A3018 RMK T10201110 IEM_DS3505
ZBHH,2007-04-03 23:00,ZBHH 032300Z AUTO 03002KT 4SM M02/M11 A3018 RMK T10201110 IEM_DS3505
ZBHH,2007-04-04 00:00,ZBHH 040000Z AUTO 36002KT 16SM 02/M11 A3018 RMK SLP247 T00231106 52002 IEM_DS3505
ZBHH,2007-04-04 01:00,ZBHH 040100Z AUTO 13002KT 6SM 04/M15 A3018 RMK T00401150 IEM_DS3505
ZBHH,2007-04-04 02:00,ZBHH 040200Z AUTO 18002KT 6SM 06/M15 A3015 RMK T00601150 IEM_DS3505
ZBHH,2007-04-04 03:00,ZBHH 040300Z AUTO 20006KT 12SM 09/M16 A3015 RMK SLP230 T00861158 57010 IEM_DS3505
ZBHH,2007-04-04 04:00,ZBHH 040400Z AUTO 25008KT 6SM 09/M16 A3012 RMK T00901160 IEM_DS3505
ZBHH,2007-04-04 05:00,ZBHH 040500Z AUTO 25010KT 6SM 10/M16 A3009 RMK T01001160 IEM_DS3505
ZBHH,2007-04-04 06:00,ZBHH 040600Z AUTO 25008KT 12SM 12/M16 A3003 RMK SLP192 T01201165 57031 IEM_DS3505
ZBHH,2007-04-04 07:00,ZBHH 040700Z AUTO 25012KT 6SM 11/M15 A3003 RMK T01101150 IEM_DS3505
ZBHH,2007-04-04 08:00,ZBHH 040800Z AUTO 25010KT 6SM 12/M15 A3000 RMK T01201150 IEM_DS3505
ZBHH,2007-04-04 09:00,ZBHH 040900Z AUTO 25010KT 12SM 13/M17 A2997 RMK SLP168 T01331166 57019 IEM_DS3505
ZBHH,2007-04-04 10:00,ZBHH 041000Z AUTO 24012KT 6SM 12/M14 A3000 RMK T01201140 IEM_DS3505
ZBHH,2007-04-04 11:00,ZBHH 041100Z AUTO 24008KT 6SM 11/M12 A3000 RMK T01101120 IEM_DS3505
ZBHH,2007-04-04 12:00,ZBHH 041200Z AUTO 27002KT 12SM 11/M11 A3003 RMK SLP184 T01081107 52012 IEM_DS3505
ZBHH,2007-04-04 13:00,ZBHH 041300Z AUTO 03004KT 4SM 08/M10 A3006 RMK T00801100 IEM_DS3505
ZBHH,2007-04-04 14:00,ZBHH 041400Z AUTO 35004KT 6SM 09/M15 A3006 RMK T00901150 IEM_DS3505
ZBHH,2007-04-04 15:00,ZBHH 041500Z AUTO 22004KT 12SM 10/M16 A3006 RMK SLP182 T00971157 52009 IEM_DS3505
ZBHH,2007-04-04 16:00,ZBHH 041600Z AUTO 05002KT 6SM 06/M11 A3006 RMK T00601110 IEM_DS3505
ZBHH,2007-04-04 17:00,ZBHH 041700Z AUTO 04006KT 6SM 07/M14 A3003 RMK T00701140 IEM_DS3505
ZBHH,2007-04-04 18:00,ZBHH 041800Z AUTO 18002KT 12SM 07/M14 A3003 RMK SLP174 T00681140 57006 IEM_DS3505
ZBHH,2007-04-04 19:00,ZBHH 041900Z AUTO 05002KT 6SM 05/M12 A3003 RMK T00501120 IEM_DS3505
ZBHH,2007-04-04 20:00,ZBHH 042000Z AUTO 08002KT 6SM 03/M11 A3003 RMK T00301110 IEM_DS3505
ZBHH,2007-04-04 21:00,ZBHH 042100Z AUTO 36002KT 12SM 05/M14 A3003 RMK SLP170 T00541136 57004 IEM_DS3505
ZBHH,2007-04-04 22:00,ZBHH 042200Z AUTO 05004KT 6SM 03/M11 A3003 RMK T00301110 IEM_DS3505
ZBHH,2007-04-04 23:00,ZBHH 042300Z AUTO 04004KT 6SM 03/M11 A3003 RMK T00301110 IEM_DS3505
ZBHH,2007-04-05 00:00,ZBHH 050000Z AUTO 20002KT 19SM 08/M13 A3006 RMK SLP183 T00751134 52011 IEM_DS3505
ZBHH,2007-04-05 01:00,ZBHH 050100Z AUTO 12002KT 7SM 07/M11 A3006 RMK T00701110 IEM_DS3505
ZBHH,2007-04-05 02:00,ZBHH 050200Z AUTO 34008KT 7SM 08/M13 A3009 RMK T00801130 IEM_DS3505
ZBHH,2007-04-05 04:00,ZBHH 050400Z AUTO 01008KT 7SM 11/M12 A3009 RMK T01101120 IEM_DS3505
ZBHH,2007-04-05 05:00,ZBHH 050500Z AUTO 32006KT 7SM 13/M12 A3006 RMK T01301120 IEM_DS3505
ZBHH,2007-04-05 06:00,ZBHH 050600Z AUTO 36006G23KT 19SM 14/M13 A3006 RMK SLP183 T01371133 57006 IEM_DS3505
ZBHH,2007-04-05 07:00,ZBHH 050700Z AUTO 01012G23KT 7SM 12/M13 A3006 RMK T01201130 IEM_DS3505
ZBHH,2007-04-05 08:00,ZBHH 050800Z AUTO 35014G23KT 7SM 12/M12 A3009 RMK T01201120 IEM_DS3505
ZBHH,2007-04-05 09:00,ZBHH 050900Z AUTO 02008KT 19SM 13/M12 A3009 RMK SLP197 T01271125 52008 IEM_DS3505
ZBHH,2007-04-05 10:00,ZBHH 051000Z AUTO 01010KT 7SM 10/M12 A3012 RMK T01001120 IEM_DS3505
ZBHH,2007-04-05 11:00,ZBHH 051100Z AUTO 02008KT 7SM 09/M13 A3012 RMK T00901130 IEM_DS3505
ZBHH,2007-04-05 12:00,ZBHH 051200Z AUTO 36004KT 19SM 10/M14 A3015 RMK SLP224 T00951136 52021 IEM_DS3505
ZBHH,2007-04-05 13:00,ZBHH 051300Z AUTO 36002KT 6SM 06/M13 A3018 RMK T00601130 IEM_DS3505
ZBHH,2007-04-05 14:00,ZBHH 051400Z AUTO 04004KT 6SM 04/M12 A3021 RMK T00401120 IEM_DS3505
ZBHH,2007-04-05 15:00,ZBHH 051500Z AUTO 32002KT 19SM 07/M12 A3021 RMK SLP238 T00671124 52015 IEM_DS3505
ZBHH,2007-04-05 16:00,ZBHH 051600Z AUTO 00000KT 6SM 02/M12 A3024 RMK T00201120 IEM_DS3505
ZBHH,2007-04-05 18:00,ZBHH 051800Z AUTO 32004KT 19SM 04/M12 A3024 RMK SLP243 T00441125 52004 IEM_DS3505
ZBHH,2007-04-05 19:00,ZBHH 051900Z AUTO 12002KT 6SM M02/M11 A3021 RMK T10201110 IEM_DS3505
ZBHH,2007-04-05 20:00,ZBHH 052000Z AUTO 00000KT 6SM M04/M11 A3021 RMK T10401110 IEM_DS3505
ZBHH,2007-04-05 21:00,ZBHH 052100Z AUTO 22002KT 19SM 02/M12 A3021 RMK SLP248 T00161115 57003 IEM_DS3505
ZBHH,2007-04-05 22:00,ZBHH 052200Z AUTO 07002KT 6SM M03/M11 A3024 RMK T10301110 IEM_DS3505
ZBHH,2007-04-05 23:00,ZBHH 052300Z AUTO 00000KT 6SM M03/M10 A3024 RMK T10301100 IEM_DS3505
ZBHH,2007-04-06 00:00,ZBHH 060000Z AUTO 09002KT 16SM 04/M10 A3027 RMK SLP264 T00401101 52012 IEM_DS3505
ZBHH,2007-04-06 01:00,ZBHH 060100Z AUTO 14002KT 6SM 04/M10 A3024 RMK T00401100 IEM_DS3505
ZBHH,2007-04-06 02:00,ZBHH 060200Z AUTO 26002KT 7SM 06/M10 A3024 RMK T00601100 IEM_DS3505
ZBHH,2007-04-06 03:00,ZBHH 060300Z AUTO 20006KT 12SM 10/M10 A3024 RMK SLP245 T01041098 57009 IEM_DS3505
ZBHH,2007-04-06 04:00,ZBHH 060400Z AUTO 33016G27KT 7SM 11/M10 A3021 RMK T01101100 IEM_DS3505
ZBHH,2007-04-06 05:00,ZBHH 060500Z AUTO 34016G27KT 7SM 11/M10 A3021 RMK T01101100 IEM_DS3505
ZBHH,2007-04-06 06:00,ZBHH 060600Z AUTO 32017G27KT 7SM 12/M10 A3021 RMK SLP242 T01151095 57005 IEM_DS3505
ZBHH,2007-04-06 07:00,ZBHH 060700Z AUTO 35014G25KT 7SM 10/M09 A3021 RMK T01001090 IEM_DS3505
ZBHH,2007-04-06 08:00,ZBHH 060800Z AUTO 36012G21KT 7SM 08/M06 A3021 RMK T00801060 IEM_DS3505
ZBHH,2007-04-06 09:00,ZBHH 060900Z AUTO 34006G17KT 12SM 09/M04 A3024 RMK SLP259 T00861042 52003 IEM_DS3505
ZBHH,2007-04-06 10:00,ZBHH 061000Z AUTO 35010G19KT 7SM 06/M04 A3024 RMK T00601040 IEM_DS3505
ZBHH,2007-04-06 11:00,ZBHH 061100Z AUTO 36012KT 7SM 02/M01 A3030 RMK T00201010 IEM_DS3505
ZBHH,2007-04-06 12:00,ZBHH 061200Z AUTO 07004KT 19SM 04/M03 A3030 RMK 60000 SLP286 T00431028 52020 IEM_DS3505
ZBHH,2007-04-06 13:00,ZBHH 061300Z AUTO 08006KT 7SM 02/M02 A3030 RMK T00201020 IEM_DS3505
ZBHH,2007-04-06 14:00,ZBHH 061400Z AUTO 34004KT 6SM 01/M02 A3030 RMK T00101020 IEM_DS3505
ZBHH,2007-04-06 15:00,ZBHH 061500Z AUTO 29002KT 19SM 03/M04 A3030 RMK SLP279 T00281042 52004 IEM_DS3505
ZBHH,2007-04-06 16:00,ZBHH 061600Z AUTO 03002KT 6SM M01/M04 A3030 RMK T10101040 IEM_DS3505
ZBHH,2007-04-06 17:00,ZBHH 061700Z AUTO 35006KT 6SM M01/M05 A3030 RMK T10101050 IEM_DS3505
ZBHH,2007-04-06 18:00,ZBHH 061800Z AUTO 32002KT 19SM 02/M09 A3030 RMK SLP276 T00161093 57003 IEM_DS3505
ZBHH,2007-04-06 19:00,ZBHH 061900Z AUTO 11002KT 6SM M03/M07 A3030 RMK T10301070 IEM_DS3505
ZBHH,2007-04-06 20:00,ZBHH 062000Z AUTO 13002KT 6SM M04/M07 A3030 RMK T10401070 IEM_DS3505
ZBHH,2007-04-06 21:00,ZBHH 062100Z AUTO 09002KT 19SM 00/M06 A3030 RMK 70000 SLP289 T00031065 52003 IEM_DS3505
ZBHH,2007-04-06 22:00,ZBHH 062200Z AUTO 09004KT 6SM M06/M08 A3030 RMK T10601080 IEM_DS3505
ZBHH,2007-04-06 23:00,ZBHH 062300Z AUTO 00000KT 6SM M04/M06 A3033 RMK T10401060 IEM_DS3505
ZBHH,2007-04-07 00:00,ZBHH 070000Z AUTO 11004KT 19SM 02/M06 A3033 RMK 70000 SLP306 T00241062 52010 IEM_DS3505
ZBHH,2007-04-07 01:00,ZBHH 070100Z AUTO 15002KT 6SM 03/M05 A3033 RMK T00301050 IEM_DS3505
ZBHH,2007-04-07 02:00,ZBHH 070200Z AUTO 22002KT 6SM 05/M06 A3033 RMK T00501060 IEM_DS3505
ZBHH,2007-04-07 03:00,ZBHH 070300Z AUTO 32002KT 19SM 08/M08 A3030 RMK SLP290 T00811084 57005 IEM_DS3505
ZBHH,2007-04-07 04:00,ZBHH 070400Z AUTO 01008G17KT 7SM 09/M10 A3027 RMK T00901100 IEM_DS3505
ZBHH,2007-04-07 05:00,ZBHH 070500Z AUTO 34010KT 7SM 10/M12 A3024 RMK T01001120 IEM_DS3505
ZBHH,2007-04-07 06:00,ZBHH 070600Z AUTO 32008KT 19SM 12/M13 A3021 RMK SLP253 T01181132 57028 IEM_DS3505
ZBHH,2007-04-07 07:00,ZBHH 070700Z AUTO 36012KT 7SM 11/M12 A3021 RMK T01101120 IEM_DS3505
ZBHH,2007-04-07 08:00,ZBHH 070800Z AUTO 01010G21KT 7SM 11/M12 A3018 RMK T01101120 IEM_DS3505
ZBHH,2007-04-07 09:00,ZBHH 070900Z AUTO 36004G19KT 19SM 12/M13 A3018 RMK SLP239 T01251134 57013 IEM_DS3505
ZBHH,2007-04-07 10:00,ZBHH 071000Z AUTO 35010G19KT 7SM 10/M13 A3018 RMK T01001130 IEM_DS3505
ZBHH,2007-04-07 11:00,ZBHH 071100Z AUTO 02010KT 7SM 09/M13 A3021 RMK T00901130 IEM_DS3505
ZBHH,2007-04-07 12:00,ZBHH 071200Z AUTO 04004KT 19SM 09/M13 A3021 RMK SLP256 T00871130 52011 IEM_DS3505
ZBHH,2007-04-07 13:00,ZBHH 071300Z AUTO 04006KT 6SM 06/M12 A3024 RMK T00601120 IEM_DS3505
ZBHH,2007-04-07 14:00,ZBHH 071400Z AUTO 03002KT 6SM 03/M12 A3024 RMK T00301120 IEM_DS3505
ZBHH,2007-04-07 15:00,ZBHH 071500Z AUTO 04002KT 19SM 05/M12 A3024 RMK SLP261 T00521118 52009 IEM_DS3505
ZBHH,2007-04-07 16:00,ZBHH 071600Z AUTO 06002KT 6SM 01/M11 A3027 RMK T00101110 IEM_DS3505
ZBHH,2007-04-07 17:00,ZBHH 071700Z AUTO 07004KT 6SM 01/M11 A3024 RMK T00101110 IEM_DS3505
ZBHH,2007-04-07 18:00,ZBHH 071800Z AUTO 08004KT 19SM 01/M11 A3024 RMK SLP262 T00101114 54000 IEM_DS3505
ZBHH,2007-04-07 19:00,ZBHH 071900Z AUTO 05004KT 6SM M02/M11 A3024 RMK T10201110 IEM_DS3505
ZBHH,2007-04-07 20:00,ZBHH 072000Z AUTO 04002KT 6SM M02/M11 A3024 RMK T10201110 IEM_DS3505
ZBHH,2007-04-07 21:00,ZBHH 072100Z AUTO 07002KT 19SM M01/M11 A3024 RMK SLP257 T10101106 57007 IEM_DS3505
ZBHH,2007-04-07 22:00,ZBHH 072200Z AUTO 09006KT 6SM M04/M12 A3024 RMK T10401120 IEM_DS3505
ZBHH,2007-04-07 23:00,ZBHH 072300Z AUTO 09004KT 6SM M03/M11 A3024 RMK T10301110 IEM_DS3505
ZBHH,2007-04-08 00:00,ZBHH 080000Z AUTO 11002KT 19SM 04/M11 A3024 RMK SLP257 T00381110 52002 IEM_DS3505
ZBHH,2007-04-08 01:00,ZBHH 080100Z AUTO 04002KT 6SM 04/M10 A3021 RMK T00401100 IEM_DS3505
ZBHH,2007-04-08 02:00,ZBHH 080200Z AUTO 23002KT 6SM 07/M10 A3021 RMK T00701100 IEM_DS3505
ZBHH,2007-04-08 03:00,ZBHH 080300Z AUTO 18008KT 12SM 09/M10 A3018 RMK SLP238 T00921103 57013 IEM_DS3505
ZBHH,2007-04-08 04:00,ZBHH 080400Z AUTO 22004G14KT 6SM 10/M10 A3015 RMK T01001100 IEM_DS3505
ZBHH,2007-04-08 05:00,ZBHH 080500Z AUTO 25008KT 6SM 11/M10 A3012 RMK T01101100 IEM_DS3505
ZBHH,2007-04-08 06:00,ZBHH 080600Z AUTO 18006KT 19SM 14/M10 A3009 RMK SLP203 T01351097 57030 IEM_DS3505
ZBHH,2007-04-08 07:00,ZBHH 080700Z AUTO 25006G16KT 7SM 14/M10 A3006 RMK T01401100 IEM_DS3505
ZBHH,2007-04-08 08:00,ZBHH 080800Z AUTO 23010KT 7SM 14/M08 A3003 RMK T01401080 IEM_DS3505
ZBHH,2007-04-08 09:00,ZBHH 080900Z AUTO 22008KT 19SM 16/M09 A3000 RMK SLP172 T01551094 57028 IEM_DS3505
ZBHH,2007-04-08 10:00,ZBHH 081000Z AUTO 24010KT 6SM 14/M08 A3000 RMK T01401080 IEM_DS3505
ZBHH,2007-04-08 11:00,ZBHH 081100Z AUTO 24008KT 6SM 13/M08 A3000 RMK T01301080 IEM_DS3505
ZBHH,2007-04-08 12:00,ZBHH 081200Z AUTO 22002KT 19SM 13/M08 A3000 RMK SLP166 T01261085 57001 IEM_DS3505
ZBHH,2007-04-08 13:00,ZBHH 081300Z AUTO 10004KT 6SM 07/M09 A3000 RMK T00701090 IEM_DS3505
ZBHH,2007-04-08 14:00,ZBHH 081400Z AUTO 09004KT 6SM 05/M11 A3000 RMK T00501110 IEM_DS3505
ZBHH,2007-04-08 15:00,ZBHH 081500Z AUTO 07004KT 19SM 09/M09 A3000 RMK SLP163 T00861089 54000 IEM_DS3505
ZBHH,2007-04-08 16:00,ZBHH 081600Z AUTO 05004KT 6SM 03/M11 A3000 RMK T00301110 IEM_DS3505
ZBHH,2007-04-08 17:00,ZBHH 081700Z AUTO 07006KT 6SM 02/M12 A2997 RMK T00201120 IEM_DS3505
ZBHH,2007-04-08 18:00,ZBHH 081800Z AUTO 09002KT 19SM 06/M10 RMK SLP152 T00581100 57007 IEM_DS3505
ZBHH,2007-04-08 20:00,ZBHH 082000Z AUTO 08004KT 6SM M01/M10 A2994 RMK T10101100 IEM_DS3505
ZBHH,2007-04-08 21:00,ZBHH 082100Z AUTO 09002KT 19SM 03/M10 A2994 RMK SLP142 T00341103 57009 IEM_DS3505
ZBHH,2007-04-08 22:00,ZBHH 082200Z AUTO 00000KT 6SM 00/M11 A2994 RMK T00001110 IEM_DS3505
ZBHH,2007-04-08 23:00,ZBHH 082300Z AUTO 08006KT 4SM M01/M11 A2997 RMK T10101110 IEM_DS3505
ZBHH,2007-04-09 00:00,ZBHH 090000Z AUTO 09006KT 19SM 04/M11 A2997 RMK SLP158 T00431106 52010 IEM_DS3505
ZBHH,2007-04-09 01:00,ZBHH 090100Z AUTO 13004KT 6SM 06/M10 A2997 RMK T00601100 IEM_DS3505
ZBHH,2007-04-09 02:00,ZBHH 090200Z AUTO 21002KT 6SM 10/M09 A2997 RMK T01001090 IEM_DS3505
ZBHH,2007-04-09 03:00,ZBHH 090300Z AUTO 18006KT 19SM 13/M09 A2994 RMK SLP141 T01281090 57006 IEM_DS3505
ZBHH,2007-04-09 04:00,ZBHH 090400Z AUTO 27010G21KT 6SM 16/M10 A2994 RMK T01601100 IEM_DS3505
ZBHH,2007-04-09 05:00,ZBHH 090500Z AUTO 35016KT 6SM 17/M14 A2994 RMK T01701140 IEM_DS3505
ZBHH,2007-04-09 06:00,ZBHH 090600Z AUTO 32010G21KT 19SM 18/M15 A2994 RMK SLP131 T01831151 57004 IEM_DS3505
ZBHH,2007-04-09 07:00,ZBHH 090700Z AUTO 01012G23KT 6SM 17/M14 A2994 RMK T01701140 IEM_DS3505
ZBHH,2007-04-09 08:00,ZBHH 090800Z AUTO 35014G23KT 6SM 17/M15 A2994 RMK T01701150 IEM_DS3505
ZBHH,2007-04-09 09:00,ZBHH 090900Z AUTO 02006G21KT 19SM 18/M14 A2994 RMK SLP136 T01761144 57001 IEM_DS3505
ZBHH,2007-04-09 10:00,ZBHH 091000Z AUTO 36010KT 6SM 16/M14 A2994 RMK T01601140 IEM_DS3505
ZBHH,2007-04-09 11:00,ZBHH 091100Z AUTO 02006KT 6SM 14/M13 A2997 RMK T01401130 IEM_DS3505
ZBHH,2007-04-09 12:00,ZBHH 091200Z AUTO 07002KT 19SM 13/M14 A3000 RMK SLP163 T01341136 52017 IEM_DS3505
ZBHH,2007-04-09 13:00,ZBHH 091300Z AUTO 03006KT 6SM 10/M12 A3000 RMK T01001120 IEM_DS3505
ZBHH,2007-04-09 14:00,ZBHH 091400Z AUTO 05006KT 6SM 10/M11 A3000 RMK T01001110 IEM_DS3505
ZBHH,2007-04-09 15:00,ZBHH 091500Z AUTO 11006KT 6SM 06/M12 A3003 RMK T00601120 IEM_DS3505
ZBHH,2007-04-09 16:00,ZBHH 091600Z AUTO 08004KT 6SM 06/M11 A3003 RMK T00601110 IEM_DS3505
ZBHH,2007-04-09 18:00,ZBHH 091800Z AUTO 36002KT 19SM 05/M10 A3003 RMK SLP161 T00511102 52002 IEM_DS3505
ZBHH,2007-04-09 19:00,ZBHH 091900Z AUTO 08004KT 02/M11 A3003 RMK T00201110 IEM_DS3505
ZBHH,2007-04-09 20:00,ZBHH 092000Z AUTO 07004KT 6SM 02/M11 A3003 RMK T00201110 IEM_DS3505
ZBHH,2007-04-09 21:00,ZBHH 092100Z AUTO 09002KT 19SM 04/M10 A3003 RMK SLP163 T00401101 57001 IEM_DS3505
ZBHH,2007-04-09 22:00,ZBHH 092200Z AUTO 01002KT 6SM 01/M10 A3003 RMK T00101100 IEM_DS3505
ZBHH,2007-04-09 23:00,ZBHH 092300Z AUTO 09006KT 6SM 02/M10 A3003 RMK T00201100 IEM_DS3505
ZBHH,2007-04-10 00:00,ZBHH 100000Z AUTO 14002KT 19SM 09/M09 A3003 RMK SLP167 T00871093 52004 IEM_DS3505
ZBHH,2007-04-10 01:00,ZBHH 100100Z AUTO 09004KT 6SM 11/M08 A3006 RMK T01101080 IEM_DS3505
ZBHH,2007-04-10 02:00,ZBHH 100200Z AUTO 20004KT 7SM 13/M07 A3006 RMK T01301070 IEM_DS3505
ZBHH,2007-04-10 03:00,ZBHH 100300Z AUTO 22008KT 19SM 14/M12 A3000 RMK SLP151 T01441119 57008 IEM_DS3505
ZBHH,2007-04-10 04:00,ZBHH 100400Z AUTO 25008KT 7SM 15/M11 A2997 RMK T01501110 IEM_DS3505
ZBHH,2007-04-10 05:00,ZBHH 100500Z AUTO 24014G23KT 7SM 17/M11 A2994 RMK T01701110 IEM_DS3505
ZBHH,2007-04-10 06:00,ZBHH 100600Z AUTO 25012KT 19SM 19/M12 A2991 RMK SLP118 T01901121 57031 IEM_DS3505
ZBHH,2007-04-10 07:00,ZBHH 100700Z AUTO 26017KT 7SM 19/M11 A2988 RMK T01901110 IEM_DS3505
ZBHH,2007-04-10 08:00,ZBHH 100800Z AUTO 24016G25KT 7SM 19/M12 A2985 RMK T01901120 IEM_DS3505
ZBHH,2007-04-10 09:00,ZBHH 100900Z AUTO 25008KT 16SM 20/M14 A2985 RMK SLP104 T01971141 57013 IEM_DS3505
ZBHH,2007-04-10 10:00,ZBHH 101000Z AUTO 25010KT 7SM 18/M12 A2985 RMK T01801120 IEM_DS3505
ZBHH,2007-04-10 11:00,ZBHH 101100Z AUTO 23006KT 7SM 17/M12 A2985 RMK T01701120 IEM_DS3505
ZBHH,2007-04-10 12:00,ZBHH 101200Z AUTO 34002KT 16SM 16/M13 A2988 RMK SLP103 T01601134 52001 IEM_DS3505
ZBHH,2007-04-10 13:00,ZBHH 101300Z AUTO 15002KT 4SM 12/M12 A2988 RMK T01201120 IEM_DS3505
ZBHH,2007-04-10 14:00,ZBHH 101400Z AUTO 10004KT 4SM 09/M12 A2988 RMK T00901120 IEM_DS3505
ZBHH,2007-04-10 15:00,ZBHH 101500Z AUTO 04004KT 19SM 12/M12 A2988 RMK SLP100 T01191124 54000 IEM_DS3505
ZBHH,2007-04-10 16:00,ZBHH 101600Z AUTO 11004KT 7SM 08/M13 A2985 RMK T00801130 IEM_DS3505
ZBHH,2007-04-10 17:00,ZBHH 101700Z AUTO 04004KT 7SM 08/M13 A2985 RMK T00801130 IEM_DS3505
ZBHH,2007-04-10 18:00,ZBHH 101800Z AUTO 07002KT 19SM 07/M12 A2985 RMK SLP093 T00741124 57006 IEM_DS3505
ZBHH,2007-04-10 19:00,ZBHH 101900Z AUTO 10004KT 7SM 03/M13 A2983 RMK T00301130 IEM_DS3505
ZBHH,2007-04-10 20:00,ZBHH 102000Z AUTO 08006KT 7SM 05/M12 A2983 RMK T00501120 IEM_DS3505
ZBHH,2007-04-10 21:00,ZBHH 102100Z AUTO 07002KT 19SM 07/M13 A2983 RMK SLP085 T00701127 57006 IEM_DS3505
ZBHH,2007-04-10 22:00,ZBHH 102200Z AUTO 04004KT 7SM 05/M11 A2983 RMK T00501110 IEM_DS3505
ZBHH,2007-04-10 23:00,ZBHH 102300Z AUTO 07002KT 7SM 06/M11 A2983 RMK T00601110 IEM_DS3505
ZBHH,2007-04-11 00:00,ZBHH 110000Z AUTO 02004KT 12SM 10/M11 A2983 RMK SLP094 T00991108 52006 IEM_DS3505
ZBHH,2007-04-11 01:00,ZBHH 110100Z AUTO 12004KT 7SM 13/M11 A2983 RMK T01301110 IEM_DS3505
ZBHH,2007-04-11 02:00,ZBHH 110200Z AUTO 17004KT 7SM 16/M12 A2980 RMK T01601120 IEM_DS3505
ZBHH,2007-04-11 03:00,ZBHH 110300Z AUTO 18004KT 9SM 16/M12 A2980 RMK SLP075 T01611123 57012 IEM_DS3505
ZBHH,2007-04-11 04:00,ZBHH 110400Z AUTO 23004KT 7SM 17/M11 A2980 RMK T01701110 IEM_DS3505
ZBHH,2007-04-11 05:00,ZBHH 110500Z AUTO 25006KT 7SM 17/M10 A2977 RMK T01701100 IEM_DS3505
ZBHH,2007-04-11 06:00,ZBHH 110600Z AUTO 32002KT 7SM 18/M06 A2974 RMK SLP058 T01841063 57020 IEM_DS3505
ZBHH,2007-04-11 07:00,ZBHH 110700Z AUTO 05006KT 7SM 17/M03 A2974 RMK T01701030 IEM_DS3505
ZBHH,2007-04-11 08:00,ZBHH 110800Z AUTO 04004KT 7SM 17/M03 A2971 RMK T01701030 IEM_DS3505
ZBHH,2007-04-11 09:00,ZBHH 110900Z AUTO 09006KT 7SM 18/M03 A2971 RMK SLP040 T01801034 57017 IEM_DS3505
ZBHH,2007-04-11 10:00,ZBHH 111000Z AUTO 02010KT 7SM 14/01 A2971 RMK T01400010 IEM_DS3505
ZBHH,2007-04-11 11:00,ZBHH 111100Z AUTO 32010G19KT 5SM 08/04 A2980 RMK T00800040 IEM_DS3505
ZBHH,2007-04-11 12:00,ZBHH 111200Z AUTO 04004KT 19SM 11/05 A2977 RMK 60003 SLP078 T01140053 52026 IEM_DS3505
ZBHH,2007-04-11 13:00,ZBHH 111300Z AUTO 01008KT 7SM 09/05 A2980 RMK T00900050 IEM_DS3505
ZBHH,2007-04-11 14:00,ZBHH 111400Z AUTO 02002KT 7SM 08/04 A2980 RMK T00800040 IEM_DS3505
ZBHH,2007-04-11 15:00,ZBHH 111500Z AUTO 09002KT 19SM 10/04 A2977 RMK SLP070 T00980040 52002 IEM_DS3505
ZBHH,2007-04-11 16:00,ZBHH 111600Z AUTO 32004KT 7SM 08/05 A2980 RMK T00800050 IEM_DS3505
ZBHH,2007-04-11 17:00,ZBHH 111700Z AUTO 00000KT 7SM 08/05 A2980 RMK T00800050 IEM_DS3505
ZBHH,2007-04-11 18:00,ZBHH 111800Z AUTO 25004KT 19SM 09/03 A2980 RMK SLP072 T00920034 52005 IEM_DS3505
ZBHH,2007-04-11 19:00,ZBHH 111900Z AUTO 14002KT 7SM 06/05 A2983 RMK T00600050 IEM_DS3505
ZBHH,2007-04-11 21:00,ZBHH 112100Z AUTO 29010KT 19SM 09/M04 A2985 RMK 70003 SLP091 T00881040 52015 IEM_DS3505
ZBHH,2007-04-11 22:00,ZBHH 112200Z AUTO 35008KT 7SM 07/M03 A2985 RMK T00701030 IEM_DS3505
ZBHH,2007-04-11 23:00,ZBHH 112300Z AUTO 06004KT 7SM 06/M04 A2988 RMK T00601040 IEM_DS3505
ZBHH,2007-04-12 00:00,ZBHH 120000Z AUTO 07002G19KT 19SM 09/M05 A2991 RMK 70003 SLP127 T00931050 52020 IEM_DS3505
ZBHH,2007-04-12 01:00,ZBHH 120100Z AUTO 34012KT 6SM 08/M03 A2991 RMK T00801030 IEM_DS3505
ZBHH,2007-04-12 02:00,ZBHH 120200Z AUTO 36008KT 6SM 11/00 A2991 RMK T01100000 IEM_DS3505
ZBHH,2007-04-12 03:00,ZBHH 120300Z AUTO 29008KT 19SM 13/M03 A2991 RMK SLP131 T01271027 52007 IEM_DS3505
ZBHH,2007-04-12 04:00,ZBHH 120400Z AUTO 34014G23KT 7SM 13/M01 A2991 RMK T01301010 IEM_DS3505
ZBHH,2007-04-12 05:00,ZBHH 120500Z AUTO 33012G23KT 7SM 13/M02 A2991 RMK T01301020 IEM_DS3505
ZBHH,2007-04-12 06:00,ZBHH 120600Z AUTO 32012G23KT 19SM 15/M06 A2991 RMK SLP119 T01501065 57007 IEM_DS3505
ZBHH,2007-04-12 07:00,ZBHH 120700Z AUTO 35014G23KT 7SM 14/M05 A2991 RMK T01401050 IEM_DS3505
ZBHH,2007-04-12 08:00,ZBHH 120800Z AUTO 36016KT 7SM 13/M07 A2991 RMK T01301070 IEM_DS3505
ZBHH,2007-04-12 09:00,ZBHH 120900Z AUTO 32014G27KT 19SM 14/M10 A2991 RMK SLP131 T01411099 52008 IEM_DS3505
ZBHH,2007-04-12 10:00,ZBHH 121000Z AUTO 35014G27KT 6SM 12/M09 A2994 RMK T01201090 IEM_DS3505
ZBHH,2007-04-12 11:00,ZBHH 121100Z AUTO 36010G21KT 6SM 11/M09 A2997 RMK T01101090 IEM_DS3505
ZBHH,2007-04-12 12:00,ZBHH 121200Z AUTO 02006KT 19SM 11/M11 A3000 RMK SLP161 T01091106 52021 IEM_DS3505
ZBHH,2007-04-12 13:00,ZBHH 121300Z AUTO 01006KT 6SM 09/M08 A3003 RMK T00901080 IEM_DS3505
ZBHH,2007-04-12 14:00,ZBHH 121400Z AUTO 04004KT 6SM 08/M08 A3003 RMK T00801080 IEM_DS3505
ZBHH,2007-04-12 15:00,ZBHH 121500Z AUTO 07008KT 19SM 08/M08 A3006 RMK SLP175 T00851085 52014 IEM_DS3505
ZBHH,2007-04-12 16:00,ZBHH 121600Z AUTO 12004KT 6SM 05/M01 A3006 RMK T00501010 IEM_DS3505
ZBHH,2007-04-12 17:00,ZBHH 121700Z AUTO 04002KT 6SM 06/M02 A3006 RMK T00601020 IEM_DS3505
ZBHH,2007-04-12 18:00,ZBHH 121800Z AUTO 32002KT 19SM 05/M06 A3006 RMK SLP181 T00491060 52003 IEM_DS3505
ZBHH,2007-04-12 19:00,ZBHH 121900Z AUTO 19002KT 6SM 00/M03 A3006 RMK T00001030 IEM_DS3505
ZBHH,2007-04-12 20:00,ZBHH 122000Z AUTO 18002KT 6SM 00/M03 A3006 RMK T00001030 IEM_DS3505
ZBHH,2007-04-12 21:00,ZBHH 122100Z AUTO 07002KT 19SM 03/M05 A3006 RMK SLP188 T00281049 54000 IEM_DS3505
ZBHH,2007-04-12 22:00,ZBHH 122200Z AUTO 08006KT 6SM 00/M03 A3006 RMK T00001030 IEM_DS3505
ZBHH,2007-04-12 23:00,ZBHH 122300Z AUTO 11002KT 6SM 00/M03 A3006 RMK T00001030 IEM_DS3505
ZBHH,2007-04-13 00:00,ZBHH 130000Z AUTO 09004KT 19SM 06/M04 A3009 RMK SLP192 T00651037 52005 IEM_DS3505
ZBHH,2007-04-13 01:00,ZBHH 130100Z AUTO 17002KT 6SM 05/M02 A3006 RMK T00501020 IEM_DS3505
ZBHH,2007-04-13 02:00,ZBHH 130200Z AUTO 14004KT 6SM 08/M02 A3006 RMK T00801020 IEM_DS3505
ZBHH,2007-04-13 03:00,ZBHH 130300Z AUTO 16006KT 12SM 11/M06 A3003 RMK SLP176 T01061062 57011 IEM_DS3505
ZBHH,2007-04-13 04:00,ZBHH 130400Z AUTO 27008KT 6SM 11/M07 A3000 RMK T01101070 IEM_DS3505
ZBHH,2007-04-13 05:00,ZBHH 130500Z AUTO 25010KT 6SM 13/M06 A2997 RMK T01301060 IEM_DS3505
ZBHH,2007-04-13 06:00,ZBHH 130600Z AUTO 22010KT 7SM 16/M09 A2991 RMK SLP132 T01571093 57036 IEM_DS3505
ZBHH,2007-04-13 07:00,ZBHH 130700Z AUTO 24016KT 7SM 15/M09 A2988 RMK T01501090 IEM_DS3505
ZBHH,2007-04-13 08:00,ZBHH 130800Z AUTO 25017G25KT 7SM 16/M09 A2988 RMK T01601090 IEM_DS3505
ZBHH,2007-04-13 09:00,ZBHH 130900Z AUTO 22010KT 9SM 16/M12 A2985 RMK SLP114 T01621122 57019 IEM_DS3505
ZBHH,2007-04-13 10:00,ZBHH 131000Z AUTO 26014KT 7SM 15/M09 A2988 RMK T01501090 IEM_DS3505
ZBHH,2007-04-13 11:00,ZBHH 131100Z AUTO 36010G19KT 7SM 12/M04 A2991 RMK T01201040 IEM_DS3505
ZBHH,2007-04-13 12:00,ZBHH 131200Z AUTO 34010KT 9SM 12/M04 A2991 RMK SLP136 T01251037 52020 IEM_DS3505
ZBHH,2007-04-13 13:00,ZBHH 131300Z AUTO 03006KT 7SM 11/M03 A2994 RMK T01101030 IEM_DS3505
ZBHH,2007-04-13 14:00,ZBHH 131400Z AUTO 36008KT 7SM 10/M04 A2994 RMK T01001040 IEM_DS3505
ZBHH,2007-04-13 15:00,ZBHH 131500Z AUTO 09006KT 19SM 10/M06 A2994 RMK SLP138 T01021062 52005 IEM_DS3505
ZBHH,2007-04-13 16:00,ZBHH 131600Z AUTO 02006KT 7SM 07/M07 A2994 RMK T00701070 IEM_DS3505
ZBHH,2007-04-13 18:00,ZBHH 131800Z AUTO 25002KT 19SM 07/M11 RMK SLP133 T00711106 54000 IEM_DS3505
ZBHH,2007-04-13 19:00,ZBHH 131900Z AUTO 10008KT 7SM 04/M10 A2994 RMK T00401100 IEM_DS3505
ZBHH,2007-04-13 20:00,ZBHH 132000Z AUTO 10010KT 7SM 03/M09 A2994 RMK T00301090 IEM_DS3505
ZBHH,2007-04-13 21:00,ZBHH 132100Z AUTO 02004KT 19SM 04/M10 A2991 RMK SLP135 T00361101 57005 IEM_DS3505
ZBHH,2007-04-13 22:00,ZBHH 132200Z AUTO 09008KT 6SM 01/M09 A2994 RMK T00101090 IEM_DS3505
ZBHH,2007-04-13 23:00,ZBHH 132300Z AUTO 08012KT 6SM 02/M10 A2994 RMK T00201100 IEM_DS3505
ZBHH,2007-04-14 00:00,ZBHH 140000Z AUTO 09010KT 19SM 05/M11 A2994 RMK SLP150 T00521114 52009 IEM_DS3505
ZBHH,2007-04-14 01:00,ZBHH 140100Z AUTO 10017KT 6SM 05/M12 A2994 RMK T00501120 IEM_DS3505
ZBHH,2007-04-14 02:00,ZBHH 140200Z AUTO 09016KT 6SM 07/M12 A2994 RMK T00701120 IEM_DS3505
ZBHH,2007-04-14 03:00,ZBHH 140300Z AUTO 07008KT 19SM 10/M14 A2991 RMK SLP136 T01011139 57007 IEM_DS3505
ZBHH,2007-04-14 04:00,ZBHH 140400Z AUTO 10010KT 6SM 10/M13 A2988 RMK T01001130 IEM_DS3505
ZBHH,2007-04-14 05:00,ZBHH 140500Z AUTO 09008KT 6SM 11/M13 A2988 RMK T01101130 IEM_DS3505
ZBHH,2007-04-14 06:00,ZBHH 140600Z AUTO 09006KT 16SM 14/M12 A2985 RMK SLP104 T01361125 57027 IEM_DS3505
ZBHH,2007-04-14 07:00,ZBHH 140700Z AUTO 08010KT 7SM 13/M12 A2983 RMK T01301120 IEM_DS3505
ZBHH,2007-04-14 08:00,ZBHH 140800Z AUTO 08008G17KT 7SM 13/M12 A2977 RMK T01301120 IEM_DS3505
ZBHH,2007-04-14 09:00,ZBHH 140900Z AUTO 09008KT 19SM 14/M13 A2977 RMK SLP081 T01431128 57026 IEM_DS3505
ZBHH,2007-04-14 10:00,ZBHH 141000Z AUTO 07016KT 7SM 12/M12 A2977 RMK T01201120 IEM_DS3505
ZBHH,2007-04-14 11:00,ZBHH 141100Z AUTO 09014KT 7SM 11/M12 A2977 RMK T01101120 IEM_DS3505
ZBHH,2007-04-14 12:00,ZBHH 141200Z AUTO 09004KT 19SM 12/M13 A2980 RMK SLP097 T01171133 52012 IEM_DS3505
ZBHH,2007-04-14 13:00,ZBHH 141300Z AUTO 08008KT 7SM 09/M13 A2983 RMK T00901130 IEM_DS3505
ZBHH,2007-04-14 14:00,ZBHH 141400Z AUTO 08008KT 7SM 08/M14 A2980 RMK T00801140 IEM_DS3505
ZBHH,2007-04-14 15:00,ZBHH 141500Z AUTO 07004KT 19SM 10/M15 A2980 RMK SLP090 T00951151 57001 IEM_DS3505
ZBHH,2007-04-14 16:00,ZBHH 141600Z AUTO 08014KT 7SM 07/M14 A2977 RMK T00701140 IEM_DS3505
ZBHH,2007-04-14 17:00,ZBHH 141700Z AUTO 08010KT 7SM 07/M13 A2977 RMK T00701130 IEM_DS3505
ZBHH,2007-04-14 18:00,ZBHH 141800Z AUTO 09010KT 19SM 08/M13 A2974 RMK SLP068 T00821134 57015 IEM_DS3505
ZBHH,2007-04-14 19:00,ZBHH 141900Z AUTO 08010KT 7SM 06/M12 A2974 RMK T00601120 IEM_DS3505
ZBHH,2007-04-14 20:00,ZBHH 142000Z AUTO 14004KT 7SM 06/M11 A2974 RMK T00601110 IEM_DS3505
ZBHH,2007-04-14 21:00,ZBHH 142100Z AUTO 16006KT 12SM 06/M02 A2974 RMK 70000 SLP068 T00591015 57003 IEM_DS3505
ZBHH,2007-04-14 22:00,ZBHH 142200Z AUTO 03006KT 4SM 03/00 A2977 RMK T00300000 IEM_DS3505
ZBHH,2007-04-14 23:00,ZBHH 142300Z AUTO 04006KT 4SM 03/00 A2977 RMK T00300000 IEM_DS3505
ZBHH,2007-04-15 00:00,ZBHH 150000Z AUTO 09006KT 6SM 06/01 A2977 RMK 60002 70002 SLP086 T00580008 52011 IEM_DS3505
ZBHH,2007-04-15 01:00,ZBHH 150100Z AUTO 11008KT 7SM 05/M01 A2980 RMK T00501010 IEM_DS3505
ZBHH,2007-04-15 03:00,ZBHH 150300Z AUTO 09004KT 12SM 07/M01 A2983 RMK SLP106 T00671007 52015 IEM_DS3505
ZBHH,2007-04-15 04:00,ZBHH 150400Z AUTO 16004KT 7SM 06/M01 A2983 RMK T00601010 IEM_DS3505
ZBHH,2007-04-15 05:00,ZBHH 150500Z AUTO 19008KT 7SM 06/M01 A2983 RMK T00601010 IEM_DS3505
ZBHH,2007-04-15 06:00,ZBHH 150600Z AUTO 16004KT 12SM 07/01 A2983 RMK 60000 SLP112 T00740008 52004 IEM_DS3505
ZBHH,2007-04-15 07:00,ZBHH 150700Z AUTO 19004KT 7SM 05/01 A2985 RMK T00500010 IEM_DS3505
ZBHH,2007-04-15 08:00,ZBHH 150800Z AUTO 11008KT 4SM 03/02 A2985 RMK T00300020 IEM_DS3505
ZBHH,2007-04-15 09:00,ZBHH 150900Z AUTO 18004KT 12SM 06/02 A2985 RMK SLP129 T00600017 52007 IEM_DS3505
ZBHH,2007-04-15 10:00,ZBHH 151000Z AUTO 00000KT 7SM 04/01 A2988 RMK T00400010 IEM_DS3505
ZBHH,2007-04-15 11:00,ZBHH 151100Z AUTO 34012KT 7SM 03/00 A2991 RMK T00300000 IEM_DS3505
ZBHH,2007-04-15 12:00,ZBHH 151200Z AUTO 04008KT 9SM 05/M04 A2994 RMK 60003 SLP153 T00541042 52020 IEM_DS3505
ZBHH,2007-04-15 13:00,ZBHH 151300Z AUTO 02010KT 7SM 04/M04 A2994 RMK T00401040 IEM_DS3505
ZBHH,2007-04-15 14:00,ZBHH 151400Z AUTO 04004KT 7SM 05/M06 A2994 RMK T00501060 IEM_DS3505
ZBHH,2007-04-15 15:00,ZBHH 151500Z AUTO 18002KT 19SM 06/M09 A2997 RMK SLP164 T00591088 52012 IEM_DS3505
ZBHH,2007-04-15 16:00,ZBHH 151600Z AUTO 32006KT 7SM 03/M07 A2997 RMK T00301070 IEM_DS3505
ZBHH,2007-04-15 18:00,ZBHH 151800Z AUTO 29004KT 19SM 02/M07 A2997 RMK SLP176 T00251066 52005 IEM_DS3505
ZBHH,2007-04-15 19:00,ZBHH 151900Z AUTO 02006KT 7SM 01/M06 A2997 RMK T00101060 IEM_DS3505
ZBHH,2007-04-15 20:00,ZBHH 152000Z AUTO 03006KT 7SM 01/M06 A2994 RMK T00101060 IEM_DS3505
ZBHH,2007-04-15 21:00,ZBHH 152100Z AUTO 29010KT 19SM 03/M07 A2997 RMK 70006 SLP171 T00301072 57006 IEM_DS3505
ZBHH,2007-04-15 22:00,ZBHH 152200Z AUTO 15002KT 6SM M01/M05 A2997 RMK T10101050 IEM_DS3505
ZBHH,2007-04-15 23:00,ZBHH 152300Z AUTO 14002KT 6SM M01/M04 A2997 RMK T10101040 IEM_DS3505
ZBHH,2007-04-16 00:00,ZBHH 160000Z AUTO 04002KT 19SM 04/M06 A2997 RMK 70003 SLP177 T00381057 52006 IEM_DS3505
ZBHH,2007-04-16 01:00,ZBHH 160100Z AUTO 19004KT 6SM 02/M01 A2997 RMK T00201010 IEM_DS3505
ZBHH,2007-04-16 02:00,ZBHH 160200Z AUTO 21002KT 6SM 05/M03 A2997 RMK T00501030 IEM_DS3505
ZBHH,2007-04-16 03:00,ZBHH 160300Z AUTO 18004KT 12SM 08/M07 A2997 RMK SLP163 T00781071 57003 IEM_DS3505
ZBHH,2007-04-16 04:00,ZBHH 160400Z AUTO 16004KT 6SM 07/M05 A2994 RMK T00701050 IEM_DS3505
ZBHH,2007-04-16 05:00,ZBHH 160500Z AUTO 24006KT 6SM 08/M07 A2994 RMK T00801070 IEM_DS3505
ZBHH,2007-04-16 06:00,ZBHH 160600Z AUTO 18008KT 16SM 11/M09 A2991 RMK SLP149 T01111092 57013 IEM_DS3505
ZBHH,2007-04-16 07:00,ZBHH 160700Z AUTO 24008KT 6SM 10/M09 A2991 RMK T01001090 IEM_DS3505
ZBHH,2007-04-16 08:00,ZBHH 160800Z AUTO 27006KT 6SM 11/M10 A2988 RMK T01101100 IEM_DS3505
ZBHH,2007-04-16 09:00,ZBHH 160900Z AUTO 22008KT 19SM 11/M09 A2988 RMK SLP137 T01121092 57009 IEM_DS3505
ZBHH,2007-04-16 10:00,ZBHH 161000Z AUTO 24008KT 6SM 10/M09 A2991 RMK T01001090 IEM_DS3505
ZBHH,2007-04-16 11:00,ZBHH 161100Z AUTO 34006KT 6SM 09/M18 A2991 RMK T00901180 IEM_DS3505
ZBHH,2007-04-16 12:00,ZBHH 161200Z AUTO 32006KT 19SM 10/M18 A2994 RMK SLP154 T00961184 52013 IEM_DS3505
ZBHH,2007-04-16 13:00,ZBHH 161300Z AUTO 36006KT 6SM 08/M15 A2997 RMK T00801150 IEM_DS3505
ZBHH,2007-04-16 14:00,ZBHH 161400Z AUTO 34004KT 6SM 07/M14 A3000 RMK T00701140 IEM_DS3505
ZBHH,2007-04-16 15:00,ZBHH 161500Z AUTO 29006KT 19SM 07/M14 A3000 RMK SLP175 T00711144 52022 IEM_DS3505
ZBHH,2007-04-16 16:00,ZBHH 161600Z AUTO 34008KT 6SM 05/M12 A3003 RMK T00501120 IEM_DS3505
ZBHH,2007-04-16 17:00,ZBHH 161700Z AUTO 36006KT 03/M11 A3003 RMK T00301110 IEM_DS3505
ZBHH,2007-04-16 18:00,ZBHH 161800Z AUTO 32004KT 19SM 04/M12 A3003 RMK SLP188 T00451116 52013 IEM_DS3505
ZBHH,2007-04-16 19:00,ZBHH 161900Z AUTO 36004KT 6SM 01/M09 A3003 RMK T00101090 IEM_DS3505
ZBHH,2007-04-16 20:00,ZBHH 162000Z AUTO 36004KT 6SM 01/M10 A3003 RMK T00101100 IEM_DS3505
ZBHH,2007-04-16 21:00,ZBHH 162100Z AUTO 27002KT 19SM 02/M13 A3003 RMK SLP185 T00201126 57008 IEM_DS3505
ZBHH,2007-04-16 22:00,ZBHH 162200Z AUTO 36006KT 6SM 01/M12 A3003 RMK T00101120 IEM_DS3505
ZBHH,2007-04-16 23:00,ZBHH 162300Z AUTO 35004KT 6SM 03/M11 A3006 RMK T00301110 IEM_DS3505
ZBHH,2007-04-17 00:00,ZBHH 170000Z AUTO 34004KT 19SM 06/M12 A3006 RMK SLP191 T00581118 52010 IEM_DS3505
ZBHH,2007-04-17 01:00,ZBHH 170100Z AUTO 20002KT 6SM 06/M11 A3006 RMK T00601110 IEM_DS3505
ZBHH,2007-04-17 02:00,ZBHH 170200Z AUTO 23006KT 6SM 07/M09 A3006 RMK T00701090 IEM_DS3505
ZBHH,2007-04-17 03:00,ZBHH 170300Z AUTO 25008KT 19SM 10/M10 A3003 RMK SLP181 T01011101 57005 IEM_DS3505
ZBHH,2007-04-17 04:00,ZBHH 170400Z AUTO 21010KT 6SM 10/M10 A3003 RMK T01001100 IEM_DS3505
ZBHH,2007-04-17 05:00,ZBHH 170500Z AUTO 23012KT 6SM 11/M10 A2997 RMK T01101100 IEM_DS3505
ZBHH,2007-04-17 06:00,ZBHH 170600Z AUTO 22008KT 19SM 13/M09 A2994 RMK SLP141 T01331086 57034 IEM_DS3505
ZBHH,2007-04-17 07:00,ZBHH 170700Z AUTO 25016G25KT 7SM 13/M05 A2988 RMK T01301050 IEM_DS3505
ZBHH,2007-04-17 08:00,ZBHH 170800Z AUTO 24016KT 7SM 13/M05 A2985 RMK T01301050 IEM_DS3505
ZBHH,2007-04-17 09:00,ZBHH 170900Z AUTO 20008G27KT 19SM 14/M07 A2983 RMK SLP113 T01411073 57028 IEM_DS3505
ZBHH,2007-04-17 10:00,ZBHH 171000Z AUTO 25017KT 7SM 13/M07 A2983 RMK T01301070 IEM_DS3505
ZBHH,2007-04-17 11:00,ZBHH 171100Z AUTO 25014KT 7SM 12/M07 A2983 RMK T01201070 IEM_DS3505
ZBHH,2007-04-17 12:00,ZBHH 171200Z AUTO 25006KT 19SM 12/M07 A2983 RMK SLP106 T01221072 57003 IEM_DS3505
ZBHH,2007-04-17 13:00,ZBHH 171300Z AUTO 24008KT 6SM 10/M06 A2983 RMK T01001060 IEM_DS3505
ZBHH,2007-04-17 14:00,ZBHH 171400Z AUTO 23006KT 6SM 09/M05 A2980 RMK T00901050 IEM_DS3505
ZBHH,2007-04-17 15:00,ZBHH 171500Z AUTO 25002KT 19SM 10/M05 A2980 RMK SLP085 T00951048 57015 IEM_DS3505
ZBHH,2007-04-17 16:00,ZBHH 171600Z AUTO 23004KT 6SM 07/M02 A2980 RMK T00701020 IEM_DS3505
ZBHH,2007-04-17 17:00,ZBHH 171700Z AUTO 09006KT 6SM 05/M03 A2977 RMK T00501030 IEM_DS3505
ZBHH,2007-04-17 18:00,ZBHH 171800Z AUTO 07004KT 19SM 07/M04 A2974 RMK SLP070 T00701035 57012 IEM_DS3505
ZBHH,2007-04-17 19:00,ZBHH 171900Z AUTO 11004KT 6SM 04/M02 A2974 RMK T00401020 IEM_DS3505
ZBHH,2007-04-17 20:00,ZBHH 172000Z AUTO 09004KT 6SM 03/M03 A2971 RMK T00301030 IEM_DS3505
ZBHH,2007-04-17 21:00,ZBHH 172100Z AUTO 07002KT 19SM 05/M04 A2971 RMK SLP057 T00531035 57013 IEM_DS3505
ZBHH,2007-04-17 22:00,ZBHH 172200Z AUTO 07004KT 6SM 03/M03 A2971 RMK T00301030 IEM_DS3505
ZBHH,2007-04-17 23:00,ZBHH 172300Z AUTO 09004KT 6SM 04/M02 A2971 RMK T00401020 IEM_DS3505
ZBHH,2007-04-18 00:00,ZBHH 180000Z AUTO 11004KT 19SM 08/M03 A2974 RMK SLP065 T00821027 52009 IEM_DS3505
ZBHH,2007-04-18 01:00,ZBHH 180100Z AUTO 06002KT 6SM 09/M02 A2974 RMK T00901020 IEM_DS3505
ZBHH,2007-04-18 02:00,ZBHH 180200Z AUTO 24006KT 6SM 11/M02 A2974 RMK T01101020 IEM_DS3505
ZBHH,2007-04-18 03:00,ZBHH 180300Z AUTO 20006KT 19SM 15/M03 A2971 RMK SLP055 T01461028 57002 IEM_DS3505
ZBHH,2007-04-18 04:00,ZBHH 180400Z AUTO 25010KT 5SM 16/M02 A2971 RMK T01601020 IEM_DS3505
ZBHH,2007-04-18 06:00,ZBHH 180600Z AUTO 36008KT 19SM 22/M09 A2965 RMK SLP022 T02161090 57020 IEM_DS3505
ZBHH,2007-04-18 07:00,ZBHH 180700Z AUTO 33012KT 7SM 21/M08 A2965 RMK T02101080 IEM_DS3505
ZBHH,2007-04-18 08:00,ZBHH 180800Z AUTO 30010KT 7SM 22/M08 A2962 RMK T02201080 IEM_DS3505
ZBHH,2007-04-18 09:00,ZBHH 180900Z AUTO 29004KT 19SM 22/M08 A2962 RMK SLP007 T02251083 57015 IEM_DS3505
ZBHH,2007-04-18 10:00,ZBHH 181000Z AUTO 31006KT 7SM 21/M08 A2962 RMK T02101080 IEM_DS3505
ZBHH,2007-04-18 11:00,ZBHH 181100Z AUTO 01006KT 7SM 19/M07 A2965 RMK T01901070 IEM_DS3505
ZBHH,2007-04-18 12:00,ZBHH 181200Z AUTO 04004KT 19SM 18/M09 A2965 RMK SLP026 T01811089 52014 IEM_DS3505
ZBHH,2007-04-18 13:00,ZBHH 181300Z AUTO 09002KT 4SM 13/M05 A2968 RMK T01301050 IEM_DS3505
ZBHH,2007-04-18 14:00,ZBHH 181400Z AUTO 05004KT 7SM 12/M05 A2968 RMK T01201050 IEM_DS3505
ZBHH,2007-04-18 15:00,ZBHH 181500Z AUTO 09002KT 19SM 14/M06 A2965 RMK SLP022 T01351061 54000 IEM_DS3505
ZBHH,2007-04-18 16:00,ZBHH 181600Z AUTO 06006KT 6SM 10/M05 A2965 RMK T01001050 IEM_DS3505
ZBHH,2007-04-18 17:00,ZBHH 181700Z AUTO 09002KT 6SM 09/M04 A2965 RMK T00901040 IEM_DS3505
ZBHH,2007-04-18 18:00,ZBHH 181800Z AUTO 09002KT 19SM 10/M05 A2965 RMK SLP008 T01041052 57005 IEM_DS3505
ZBHH,2007-04-18 20:00,ZBHH 182000Z AUTO 06004KT 6SM 08/M05 A2962 RMK T00801050 IEM_DS3505
ZBHH,2007-04-18 21:00,ZBHH 182100Z AUTO 09002KT 19SM 09/M06 A2962 RMK SLP997 T00871059 57011 IEM_DS3505
ZBHH,2007-04-18 22:00,ZBHH 182200Z AUTO 07004KT 6SM 07/M04 A2959 RMK T00701040 IEM_DS3505
ZBHH,2007-04-18 23:00,ZBHH 182300Z AUTO 08002KT 6SM 08/M03 A2959 RMK T00801030 IEM_DS3505
ZBHH,2007-04-19 00:00,ZBHH 190000Z AUTO 07002KT 16SM 13/M04 A2959 RMK SLP997 T01271040 57001 IEM_DS3505
ZBHH,2007-04-19 01:00,ZBHH 190100Z AUTO 16002KT 6SM 14/M02 A2959 RMK T01401020 IEM_DS3505
ZBHH,2007-04-19 02:00,ZBHH 190200Z AUTO 24002KT 6SM 16/M02 A2959 RMK T01601020 IEM_DS3505
ZBHH,2007-04-19 03:00,ZBHH 190300Z AUTO 22006KT 12SM 18/M04 A2959 RMK SLP996 T01781036 54000 IEM_DS3505
ZBHH,2007-04-19 04:00,ZBHH 190400Z AUTO 26008KT 6SM 19/M02 A2959 RMK T01901020 IEM_DS3505
ZBHH,2007-04-19 05:00,ZBHH 190500Z AUTO 25010G19KT 6SM 21/M01 A2956 RMK T02101010 IEM_DS3505
ZBHH,2007-04-19 06:00,ZBHH 190600Z AUTO 22008KT 12SM 24/M01 A2956 RMK SLP975 T02361014 57013 IEM_DS3505
ZBHH,2007-04-19 07:00,ZBHH 190700Z AUTO 29016G31KT 4SM 22/M01 A2956 RMK T02201010 IEM_DS3505
ZBHH,2007-04-19 08:00,ZBHH 190800Z AUTO 33017G31KT 7SM 22/M03 A2956 RMK T02201030 IEM_DS3505
ZBHH,2007-04-19 09:00,ZBHH 190900Z AUTO 34010G33KT 16SM 22/M03 A2962 RMK SLP002 T02161030 52017 IEM_DS3505
ZBHH,2007-04-19 10:00,ZBHH 191000Z AUTO 32017G29KT 6SM 20/M03 A2965 RMK T02001030 IEM_DS3505
ZBHH,2007-04-19 11:00,ZBHH 191100Z AUTO 33019G31KT 4SM 18/M04 A2968 RMK T01801040 IEM_DS3505
ZBHH,2007-04-19 12:00,ZBHH 191200Z AUTO 32008G21KT 19SM 18/M06 A2974 RMK SLP043 T01761056 52036 IEM_DS3505
ZBHH,2007-04-19 13:00,ZBHH 191300Z AUTO 01010KT 5SM 15/M03 A2977 RMK T01501030 IEM_DS3505
ZBHH,2007-04-19 14:00,ZBHH 191400Z AUTO 01004KT 4SM 14/M01 A2980 RMK T01401010 IEM_DS3505
ZBHH,2007-04-19 15:00,ZBHH 191500Z AUTO 25002KT 19SM 13/M01 A2983 RMK SLP075 T01291014 52029 IEM_DS3505
ZBHH,2007-04-19 16:00,ZBHH 191600Z AUTO 00000KT 5SM 11/00 A2983 RMK T01100000 IEM_DS3505
ZBHH,2007-04-19 17:00,ZBHH 191700Z AUTO 36004KT 5SM 10/M01 A2985 RMK T01001010 IEM_DS3505
ZBHH,2007-04-19 18:00,ZBHH 191800Z AUTO 29004KT 19SM 11/M02 RMK SLP078 T01081019 52009 IEM_DS3505
ZBHH,2007-04-19 20:00,ZBHH 192000Z AUTO 16002KT 5SM 05/M01 A2985 RMK T00501010 IEM_DS3505
ZBHH,2007-04-19 21:00,ZBHH 192100Z AUTO 29004KT 19SM 09/M02 A2985 RMK SLP088 T00911016 52002 IEM_DS3505
ZBHH,2007-04-19 22:00,ZBHH 192200Z AUTO 22002KT 4SM 03/M01 A2988 RMK T00301010 IEM_DS3505
ZBHH,2007-04-19 23:00,ZBHH 192300Z AUTO 36010KT 6SM 08/M01 A2991 RMK T00801010 IEM_DS3505
ZBHH,2007-04-20 00:00,ZBHH 200000Z AUTO 34006G21KT 19SM 10/01 A2991 RMK SLP121 T00970006 52023 IEM_DS3505
ZBHH,2007-04-20 01:00,ZBHH 200100Z AUTO 34019KT 6SM 08/01 A2994 RMK T00800010 IEM_DS3505
ZBHH,2007-04-20 02:00,ZBHH 200200Z AUTO 34014G25KT 6SM 08/M01 A2997 RMK T00801010 IEM_DS3505
ZBHH,2007-04-20 03:00,ZBHH 200300Z AUTO 36006KT 19SM 10/M02 A2997 RMK SLP143 T01051025 52012 IEM_DS3505
ZBHH,2007-04-20 04:00,ZBHH 200400Z AUTO 01010KT 7SM 11/M03 A2997 RMK T01101030 IEM_DS3505
ZBHH,2007-04-20 05:00,ZBHH 200500Z AUTO 01012G23KT 7SM 12/M04 A2994 RMK T01201040 IEM_DS3505
ZBHH,2007-04-20 06:00,ZBHH 200600Z AUTO 36010KT 12SM 14/M06 A2991 RMK SLP121 T01411056 57017 IEM_DS3505
ZBHH,2007-04-20 07:00,ZBHH 200700Z AUTO 01010KT 7SM 14/M08 A2988 RMK T01401080 IEM_DS3505
ZBHH,2007-04-20 08:00,ZBHH 200800Z AUTO 36012KT 7SM 14/M08 A2985 RMK T01401080 IEM_DS3505
ZBHH,2007-04-20 09:00,ZBHH 200900Z AUTO 34004KT 19SM 16/M08 A2985 RMK SLP092 T01611082 57025 IEM_DS3505
ZBHH,2007-04-20 10:00,ZBHH 201000Z AUTO 02008KT 6SM 13/M10 A2985 RMK T01301100 IEM_DS3505
ZBHH,2007-04-20 11:00,ZBHH 201100Z AUTO 04008KT 6SM 12/M10 A2985 RMK T01201100 IEM_DS3505
ZBHH,2007-04-20 12:00,ZBHH 201200Z AUTO 07004KT 19SM 13/M10 A2985 RMK SLP098 T01291102 54000 IEM_DS3505
ZBHH,2007-04-20 13:00,ZBHH 201300Z AUTO 03004KT 6SM 11/M09 A2985 RMK T01101090 IEM_DS3505
ZBHH,2007-04-20 14:00,ZBHH 201400Z AUTO 07006KT 6SM 10/M10 A2985 RMK T01001100 IEM_DS3505
ZBHH,2007-04-20 15:00,ZBHH 201500Z AUTO 09002KT 19SM 11/M10 A2983 RMK SLP099 T01091100 57001 IEM_DS3505
ZBHH,2007-04-20 16:00,ZBHH 201600Z AUTO 01004KT 6SM 09/M10 A2983 RMK T00901100 IEM_DS3505
ZBHH,2007-04-20 17:00,ZBHH 201700Z AUTO 03008KT 6SM 08/M12 A2983 RMK T00801120 IEM_DS3505
ZBHH,2007-04-20 18:00,ZBHH 201800Z AUTO 32002KT 19SM 09/M13 RMK SLP088 T00881129 57007 IEM_DS3505
ZBHH,2007-04-20 19:00,ZBHH 201900Z AUTO 07008KT 6SM 07/M13 A2980 RMK T00701130 IEM_DS3505
ZBHH,2007-04-20 20:00,ZBHH 202000Z AUTO 07006KT 6SM 06/M11 A2983 RMK T00601110 IEM_DS3505
ZBHH,2007-04-20 21:00,ZBHH 202100Z AUTO 09002KT 19SM 09/M13 A2985 RMK SLP095 T00861131 52010 IEM_DS3505
ZBHH,2007-04-20 22:00,ZBHH 202200Z AUTO 03006KT 7SM 07/M10 A2985 RMK T00701100 IEM_DS3505
ZBHH,2007-04-20 23:00,ZBHH 202300Z AUTO 12002KT 7SM 07/M11 A2985 RMK T00701110 IEM_DS3505
ZBHH,2007-04-21 00:00,ZBHH 210000Z AUTO 09008KT 19SM 10/M11 A2988 RMK SLP114 T00961111 52012 IEM_DS3505
ZBHH,2007-04-21 01:00,ZBHH 210100Z AUTO 14002KT 7SM 11/M06 A2991 RMK T01101060 IEM_DS3505
ZBHH,2007-04-21 02:00,ZBHH 210200Z AUTO 34006KT 7SM 12/M08 A2991 RMK T01201080 IEM_DS3505
ZBHH,2007-04-21 03:00,ZBHH 210300Z AUTO 34008KT 19SM 14/M10 A2991 RMK SLP125 T01351097 52014 IEM_DS3505
ZBHH,2007-04-21 04:00,ZBHH 210400Z AUTO 34014KT 6SM 13/M10 A2991 RMK T01301100 IEM_DS3505
ZBHH,2007-04-21 05:00,ZBHH 210500Z AUTO 36014KT 6SM 14/M10 A2991 RMK T01401100 IEM_DS3505
ZBHH,2007-04-21 06:00,ZBHH 210600Z AUTO 34010G25KT 19SM 15/M11 A2991 RMK SLP124 T01521113 57002 IEM_DS3505
ZBHH,2007-04-21 07:00,ZBHH 210700Z AUTO 36012G23KT 7SM 14/M11 A2994 RMK T01401110 IEM_DS3505
ZBHH,2007-04-21 08:00,ZBHH 210800Z AUTO 35014G25KT 7SM 13/M14 A2994 RMK T01301140 IEM_DS3505
ZBHH,2007-04-21 09:00,ZBHH 210900Z AUTO 36006KT 19SM 14/M15 A2994 RMK SLP141 T01391150 52012 IEM_DS3505
ZBHH,2007-04-21 10:00,ZBHH 211000Z AUTO 01012KT 6SM 12/M15 A2997 RMK T01201150 IEM_DS3505
ZBHH,2007-04-21 11:00,ZBHH 211100Z AUTO 01010KT 6SM 11/M19 A3000 RMK T01101190 IEM_DS3505
ZBHH,2007-04-21 12:00,ZBHH 211200Z AUTO 02006KT 19SM 11/M18 A3006 RMK SLP179 T01111183 52030 IEM_DS3505
ZBHH,2007-04-21 13:00,ZBHH 211300Z AUTO 03008KT 6SM 09/M16 A3009 RMK T00901160 IEM_DS3505
ZBHH,2007-04-21 14:00,ZBHH 211400Z AUTO 05008KT 6SM 08/M14 A3012 RMK T00801140 IEM_DS3505
ZBHH,2007-04-21 15:00,ZBHH 211500Z AUTO 07004KT 19SM 09/M12 A3012 RMK SLP197 T00861125 52019 IEM_DS3505
ZBHH,2007-04-21 16:00,ZBHH 211600Z AUTO 06004KT 6SM 06/M12 A3015 RMK T00601120 IEM_DS3505
ZBHH,2007-04-21 17:00,ZBHH 211700Z AUTO 03004KT 6SM 05/M11 A3015 RMK T00501110 IEM_DS3505
ZBHH,2007-04-21 18:00,ZBHH 211800Z AUTO 09006KT 19SM 06/M09 A3015 RMK SLP213 T00621093 52012 IEM_DS3505
ZBHH,2007-04-21 19:00,ZBHH 211900Z AUTO 12002KT 03/M08 A3015 RMK T00301080 IEM_DS3505
ZBHH,2007-04-21 20:00,ZBHH 212000Z AUTO 08006KT 6SM 02/M07 A3015 RMK T00201070 IEM_DS3505
ZBHH,2007-04-21 21:00,ZBHH 212100Z AUTO 04002KT 19SM 04/M07 A3015 RMK SLP221 T00401069 54000 IEM_DS3505
ZBHH,2007-04-21 22:00,ZBHH 212200Z AUTO 09006KT 6SM 00/M07 A3018 RMK T00001070 IEM_DS3505
ZBHH,2007-04-21 23:00,ZBHH 212300Z AUTO 07008KT 6SM 03/M06 A3018 RMK T00301060 IEM_DS3505
ZBHH,2007-04-22 00:00,ZBHH 220000Z AUTO 09006KT 19SM 06/M05 A3018 RMK SLP234 T00581052 52010 IEM_DS3505
ZBHH,2007-04-22 01:00,ZBHH 220100Z AUTO 11012KT 6SM 06/M06 A3018 RMK T00601060 IEM_DS3505
ZBHH,2007-04-22 02:00,ZBHH 220200Z AUTO 10014KT 6SM 07/M06 A3018 RMK T00701060 IEM_DS3505
ZBHH,2007-04-22 03:00,ZBHH 220300Z AUTO 16004KT 19SM 10/M06 A3015 RMK SLP225 T00961063 57006 IEM_DS3505
ZBHH,2007-04-22 04:00,ZBHH 220400Z AUTO 10012KT 6SM 10/M07 A3015 RMK T01001070 IEM_DS3505
ZBHH,2007-04-22 05:00,ZBHH 220500Z AUTO 11012KT 6SM 11/M07 A3012 RMK T01101070 IEM_DS3505
ZBHH,2007-04-22 06:00,ZBHH 220600Z AUTO 11004KT 19SM 13/M07 A3009 RMK SLP200 T01281067 57020 IEM_DS3505
ZBHH,2007-04-22 07:00,ZBHH 220700Z AUTO 13010KT 6SM 12/M08 A3006 RMK T01201080 IEM_DS3505
ZBHH,2007-04-22 08:00,ZBHH 220800Z AUTO 10010KT 6SM 12/M08 A3006 RMK T01201080 IEM_DS3505
ZBHH,2007-04-22 09:00,ZBHH 220900Z AUTO 09006KT 19SM 13/M08 A3003 RMK SLP184 T01271085 57019 IEM_DS3505
ZBHH,2007-04-22 10:00,ZBHH 221000Z AUTO 10012KT 7SM 11/M07 A3003 RMK T01101070 IEM_DS3505
ZBHH,2007-04-22 11:00,ZBHH 221100Z AUTO 11008KT 7SM 11/M07 A3006 RMK T01101070 IEM_DS3505
ZBHH,2007-04-22 12:00,ZBHH 221200Z AUTO 09008KT 12SM 11/M07 A3009 RMK SLP195 T01131070 52011 IEM_DS3505
ZBHH,2007-04-22 13:00,ZBHH 221300Z AUTO 10008KT 7SM 09/M07 A3009 RMK T00901070 IEM_DS3505
ZBHH,2007-04-22 14:00,ZBHH 221400Z AUTO 07010KT 7SM 09/M07 A3009 RMK T00901070 IEM_DS3505
ZBHH,2007-04-22 15:00,ZBHH 221500Z AUTO 09006KT 12SM 10/M07 A3009 RMK SLP195 T01011071 52005 IEM_DS3505
ZBHH,2007-04-22 16:00,ZBHH 221600Z AUTO 06008KT 7SM 09/M06 A3012 RMK T00901060 IEM_DS3505
ZBHH,2007-04-22 17:00,ZBHH 221700Z AUTO 22006KT 7SM 06/M02 A3012 RMK T00601020 IEM_DS3505
ZBHH,2007-04-22 18:00,ZBHH 221800Z AUTO 18006KT 12SM 05/01 A3015 RMK SLP216 T00480011 52014 IEM_DS3505
ZBHH,2007-04-22 19:00,ZBHH 221900Z AUTO 14010KT 7SM 03/01 A3012 RMK T00300010 IEM_DS3505
ZBHH,2007-04-22 20:00,ZBHH 222000Z AUTO 10006KT 7SM 03/01 A3015 RMK T00300010 IEM_DS3505
ZBHH,2007-04-22 21:00,ZBHH 222100Z AUTO 36004KT 12SM 04/01 A3015 RMK 70004 SLP219 T00400014 52001 IEM_DS3505
ZBHH,2007-04-22 22:00,ZBHH 222200Z AUTO 09006KT 7SM 04/00 A3015 RMK T00400000 IEM_DS3505
ZBHH,2007-04-22 23:00,ZBHH 222300Z AUTO 06002KT 7SM 04/00 A3015 RMK T00400000 IEM_DS3505
ZBHH,2007-04-23 00:00,ZBHH 230000Z AUTO 20002KT 12SM 06/M01 A3018 RMK 60004 70004 SLP229 T00591006 52010 IEM_DS3505
ZBHH,2007-04-23 01:00,ZBHH 230100Z AUTO 29002KT 7SM 06/00 A3015 RMK T00600000 IEM_DS3505
ZBHH,2007-04-23 02:00,ZBHH 230200Z AUTO 10008KT 7SM 08/M03 A3015 RMK T00801030 IEM_DS3505
ZBHH,2007-04-23 03:00,ZBHH 230300Z AUTO 07004KT 12SM 10/M03 A3012 RMK SLP207 T01041030 57013 IEM_DS3505
ZBHH,2007-04-23 04:00,ZBHH 230400Z AUTO 17004KT 7SM 10/M03 A3012 RMK T01001030 IEM_DS3505
ZBHH,2007-04-23 05:00,ZBHH 230500Z AUTO 22004KT 7SM 11/M03 A3009 RMK T01101030 IEM_DS3505
ZBHH,2007-04-23 06:00,ZBHH 230600Z AUTO 20010KT 12SM 13/M03 A3006 RMK SLP190 T01331030 57020 IEM_DS3505
ZBHH,2007-04-23 07:00,ZBHH 230700Z AUTO 19006KT 7SM 12/M03 A3006 RMK T01201030 IEM_DS3505
ZBHH,2007-04-23 08:00,ZBHH 230800Z AUTO 26006KT 7SM 13/M03 A3003 RMK T01301030 IEM_DS3505
ZBHH,2007-04-23 09:00,ZBHH 230900Z AUTO 20004KT 12SM 13/M03 A3003 RMK SLP176 T01291030 57014 IEM_DS3505
ZBHH,2007-04-23 10:00,ZBHH 231000Z AUTO 25012KT 7SM 12/M02 A3003 RMK T01201020 IEM_DS3505
ZBHH,2007-04-23 11:00,ZBHH 231100Z AUTO 28008KT 7SM 12/M05 A3003 RMK T01201050 IEM_DS3505
ZBHH,2007-04-23 12:00,ZBHH 231200Z AUTO 02006KT 19SM 12/M10 A3006 RMK SLP189 T01191097 52013 IEM_DS3505
ZBHH,2007-04-23 13:00,ZBHH 231300Z AUTO 03004KT 7SM 09/M09 A3009 RMK T00901090 IEM_DS3505
ZBHH,2007-04-23 14:00,ZBHH 231400Z AUTO 01002KT 7SM 08/M09 A3012 RMK T00801090 IEM_DS3505
ZBHH,2007-04-23 15:00,ZBHH 231500Z AUTO 07002KT 6SM 07/M08 A3012 RMK T00701080 IEM_DS3505
ZBHH,2007-04-23 16:00,ZBHH 231600Z AUTO 12002KT 6SM 06/M08 A3012 RMK T00601080 IEM_DS3505
ZBHH,2007-04-23 17:00,ZBHH 231700Z AUTO 00000KT 6SM 05/M07 A3009 RMK T00501070 IEM_DS3505
ZBHH,2007-04-23 18:00,ZBHH 231800Z AUTO 25004KT 19SM 07/M08 A3009 RMK SLP192 T00721084 57004 IEM_DS3505
ZBHH,2007-04-23 19:00,ZBHH 231900Z AUTO 09006KT 6SM 01/M03 A3009 RMK T00101030 IEM_DS3505
ZBHH,2007-04-23 20:00,ZBHH 232000Z AUTO 10004KT 6SM 01/M03 A3009 RMK T00101030 IEM_DS3505
ZBHH,2007-04-23 21:00,ZBHH 232100Z AUTO 36002KT 19SM 04/M04 A3009 RMK 70000 SLP196 T00371036 57004 IEM_DS3505
ZBHH,2007-04-23 22:00,ZBHH 232200Z AUTO 10002KT 5SM 00/M03 A3009 RMK T00001030 IEM_DS3505
ZBHH,2007-04-23 23:00,ZBHH 232300Z AUTO 10002KT 4SM 01/M03 A3009 RMK T00101030 IEM_DS3505
ZBHH,2007-04-24 00:00,ZBHH 240000Z AUTO 09002KT 12SM 06/01 A3009 RMK SLP197 T00650008 52004 IEM_DS3505
ZBHH,2007-04-24 01:00,ZBHH 240100Z AUTO 19002KT 3SM 06/01 A3009 RMK T00600010 IEM_DS3505
ZBHH,2007-04-24 02:00,ZBHH 240200Z AUTO 21004KT 2 1/2SM 08/00 A3006 RMK T00800000 IEM_DS3505
ZBHH,2007-04-24 03:00,ZBHH 240300Z AUTO 20010KT 9SM 12/M04 A3003 RMK SLP171 T01181044 57018 IEM_DS3505
ZBHH,2007-04-24 04:00,ZBHH 240400Z AUTO 25010KT 6SM 13/M06 A3000 RMK T01301060 IEM_DS3505
ZBHH,2007-04-24 05:00,ZBHH 240500Z AUTO 32016G25KT 7SM 15/M12 A2997 RMK T01501120 IEM_DS3505
ZBHH,2007-04-24 06:00,ZBHH 240600Z AUTO 32010G25KT 19SM 16/M13 A2997 RMK SLP146 T01581126 57018 IEM_DS3505
ZBHH,2007-04-24 07:00,ZBHH 240700Z AUTO 35014G27KT 6SM 15/M13 A2997 RMK T01501130 IEM_DS3505
ZBHH,2007-04-24 08:00,ZBHH 240800Z AUTO 35012G21KT 6SM 16/M12 A2994 RMK T01601120 IEM_DS3505
ZBHH,2007-04-24 09:00,ZBHH 240900Z AUTO 34014KT 19SM 17/M14 A2994 RMK SLP142 T01671139 57008 IEM_DS3505
ZBHH,2007-04-24 10:00,ZBHH 241000Z AUTO 35014G23KT 6SM 15/M13 A2994 RMK T01501130 IEM_DS3505
ZBHH,2007-04-24 11:00,ZBHH 241100Z AUTO 34010KT 6SM 14/M13 A2997 RMK T01401130 IEM_DS3505
ZBHH,2007-04-24 12:00,ZBHH 241200Z AUTO 34004KT 19SM 14/M14 A3000 RMK SLP156 T01401140 52012 IEM_DS3505
ZBHH,2007-04-24 13:00,ZBHH 241300Z AUTO 35004KT 6SM 12/M14 A3000 RMK T01201140 IEM_DS3505
ZBHH,2007-04-24 14:00,ZBHH 241400Z AUTO 35002KT 6SM 10/M13 A3003 RMK T01001130 IEM_DS3505
ZBHH,2007-04-24 15:00,ZBHH 241500Z AUTO 32004KT 19SM 11/M15 A3000 RMK SLP158 T01121153 52007 IEM_DS3505
ZBHH,2007-04-24 16:00,ZBHH 241600Z AUTO 00000KT 6SM 06/M12 A3000 RMK T00601120 IEM_DS3505
ZBHH,2007-04-24 17:00,ZBHH 241700Z AUTO 08002KT 6SM 05/M12 A3000 RMK T00501120 IEM_DS3505
ZBHH,2007-04-24 18:00,ZBHH 241800Z AUTO 20002KT 19SM 06/M13 A3000 RMK SLP154 T00651126 57005 IEM_DS3505
ZBHH,2007-04-24 19:00,ZBHH 241900Z AUTO 09004KT 6SM 02/M11 A3000 RMK T00201110 IEM_DS3505
ZBHH,2007-04-24 20:00,ZBHH 242000Z AUTO 11004KT 6SM 02/M10 A3000 RMK T00201100 IEM_DS3505
ZBHH,2007-04-24 21:00,ZBHH 242100Z AUTO 09002KT 19SM 06/M11 A3000 RMK SLP154 T00641108 52002 IEM_DS3505
ZBHH,2007-04-24 22:00,ZBHH 242200Z AUTO 10002KT 6SM 02/M07 A3003 RMK T00201070 IEM_DS3505
ZBHH,2007-04-24 23:00,ZBHH 242300Z AUTO 22002KT 6SM 03/M05 A3003 RMK T00301050 IEM_DS3505
ZBHH,2007-04-25 00:00,ZBHH 250000Z AUTO 25004KT 19SM 10/M08 A3006 RMK SLP175 T01041078 52021 IEM_DS3505
ZBHH,2007-04-25 01:00,ZBHH 250100Z AUTO 19004KT 6SM 11/M10 A3006 RMK T01101100 IEM_DS3505
ZBHH,2007-04-25 02:00,ZBHH 250200Z AUTO 26002KT 6SM 14/M10 A3006 RMK T01401100 IEM_DS3505
ZBHH,2007-04-25 03:00,ZBHH 250300Z AUTO 32008G19KT 19SM 17/M12 A3006 RMK SLP166 T01691117 57001 IEM_DS3505
ZBHH,2007-04-25 04:00,ZBHH 250400Z AUTO 01010KT 6SM 17/M11 A3003 RMK T01701110 IEM_DS3505
ZBHH,2007-04-25 05:00,ZBHH 250500Z AUTO 34014KT 6SM 18/M12 A3003 RMK T01801120 IEM_DS3505
ZBHH,2007-04-25 06:00,ZBHH 250600Z AUTO 29010G21KT 19SM 20/M13 A3000 RMK SLP154 T01951129 57015 IEM_DS3505
ZBHH,2007-04-25 07:00,ZBHH 250700Z AUTO 36014KT 6SM 19/M13 A3000 RMK T01901130 IEM_DS3505
ZBHH,2007-04-25 08:00,ZBHH 250800Z AUTO 33012G21KT 6SM 19/M13 A2997 RMK T01901130 IEM_DS3505
ZBHH,2007-04-25 09:00,ZBHH 250900Z AUTO 32012KT 19SM 20/M17 A2994 RMK SLP131 T02021167 57019 IEM_DS3505
ZBHH,2007-04-25 10:00,ZBHH 251000Z AUTO 34012G23KT 6SM 19/M15 A2997 RMK T01901150 IEM_DS3505
ZBHH,2007-04-25 11:00,ZBHH 251100Z AUTO 34006KT 6SM 18/M14 A2997 RMK T01801140 IEM_DS3505
ZBHH,2007-04-25 12:00,ZBHH 251200Z AUTO 32004KT 19SM 17/M15 A3000 RMK SLP139 T01711148 52009 IEM_DS3505
ZBHH,2007-04-25 13:00,ZBHH 251300Z AUTO 03004KT 6SM 12/M13 A3000 RMK T01201130 IEM_DS3505
ZBHH,2007-04-25 14:00,ZBHH 251400Z AUTO 06004KT 6SM 11/M14 A3003 RMK T01101140 IEM_DS3505
ZBHH,2007-04-25 15:00,ZBHH 251500Z AUTO 21002KT 19SM 12/M14 A3003 RMK SLP149 T01211138 52012 IEM_DS3505
ZBHH,2007-04-25 16:00,ZBHH 251600Z AUTO 07004KT 6SM 07/M12 A3003 RMK T00701120 IEM_DS3505
ZBHH,2007-04-25 17:00,ZBHH 251700Z AUTO 09006KT 6SM 06/M13 A3003 RMK T00601130 IEM_DS3505
ZBHH,2007-04-25 18:00,ZBHH 251800Z AUTO 07002KT 19SM 08/M12 A3003 RMK SLP154 T00821117 52002 IEM_DS3505
ZBHH,2007-04-25 19:00,ZBHH 251900Z AUTO 07004KT 6SM 04/M10 A3003 RMK T00401100 IEM_DS3505
ZBHH,2007-04-25 20:00,ZBHH 252000Z AUTO 09004KT 6SM 03/M12 A3003 RMK T00301120 IEM_DS3505
ZBHH,2007-04-25 21:00,ZBHH 252100Z AUTO 09004KT 19SM 06/M08 A3006 RMK SLP164 T00641079 52006 IEM_DS3505
ZBHH,2007-04-25 22:00,ZBHH 252200Z AUTO 12004KT 6SM 03/M09 A3006 RMK T00301090 IEM_DS3505
ZBHH,2007-04-25 23:00,ZBHH 252300Z AUTO 00000KT 6SM 07/M10 A3009 RMK T00701100 IEM_DS3505
ZBHH,2007-04-26 00:00,ZBHH 260000Z AUTO 29006KT 19SM 12/M13 A3012 RMK SLP185 T01171133 52023 IEM_DS3505
ZBHH,2007-04-26 01:00,ZBHH 260100Z AUTO 33012KT 6SM 12/M12 A3012 RMK T01201120 IEM_DS3505
ZBHH,2007-04-26 02:00,ZBHH 260200Z AUTO 34008KT 6SM 15/M10 A3015 RMK T01501100 IEM_DS3505
ZBHH,2007-04-26 03:00,ZBHH 260300Z AUTO 36008KT 19SM 17/M10 A3015 RMK SLP196 T01661101 52010 IEM_DS3505
ZBHH,2007-04-26 04:00,ZBHH 260400Z AUTO 13004KT 6SM 17/M10 A3015 RMK T01701100 IEM_DS3505
ZBHH,2007-04-26 05:00,ZBHH 260500Z AUTO 11008KT 6SM 18/M10 A3012 RMK T01801100 IEM_DS3505
ZBHH,2007-04-26 06:00,ZBHH 260600Z AUTO 34008KT 19SM 20/M14 A3012 RMK SLP186 T01991139 57010 IEM_DS3505
ZBHH,2007-04-26 07:00,ZBHH 260700Z AUTO 34010KT 6SM 19/M13 A3009 RMK T01901130 IEM_DS3505
ZBHH,2007-04-26 08:00,ZBHH 260800Z AUTO 33012KT 6SM 20/M15 A3009 RMK T02001150 IEM_DS3505
ZBHH,2007-04-26 09:00,ZBHH 260900Z AUTO 04008KT 19SM 20/M14 A3009 RMK SLP178 T01981140 57011 IEM_DS3505
ZBHH,2007-04-26 10:00,ZBHH 261000Z AUTO 35010KT 6SM 18/M13 A3009 RMK T01801130 IEM_DS3505
ZBHH,2007-04-26 11:00,ZBHH 261100Z AUTO 02006KT 6SM 17/M12 A3012 RMK T01701120 IEM_DS3505
ZBHH,2007-04-26 12:00,ZBHH 261200Z AUTO 04004KT 19SM 16/M14 A3012 RMK SLP187 T01651141 52012 IEM_DS3505
ZBHH,2007-04-26 13:00,ZBHH 261300Z AUTO 03006KT 6SM 12/M12 A3015 RMK T01201120 IEM_DS3505
ZBHH,2007-04-26 14:00,ZBHH 261400Z AUTO 03006KT 6SM 11/M11 A3015 RMK T01101110 IEM_DS3505
ZBHH,2007-04-26 15:00,ZBHH 261500Z AUTO 04002KT 19SM 12/M13 A3015 RMK SLP198 T01231128 52011 IEM_DS3505
ZBHH,2007-04-26 16:00,ZBHH 261600Z AUTO 06006KT 6SM 10/M12 A3018 RMK T01001120 IEM_DS3505
ZBHH,2007-04-26 17:00,ZBHH 261700Z AUTO 05004KT 6SM 08/M10 A3018 RMK T00801100 IEM_DS3505
ZBHH,2007-04-26 18:00,ZBHH 261800Z AUTO 07002KT 19SM 08/M10 A3015 RMK SLP197 T00811102 57003 IEM_DS3505
ZBHH,2007-04-26 19:00,ZBHH 261900Z AUTO 08002KT 6SM 06/M11 A3015 RMK T00601110 IEM_DS3505
ZBHH,2007-04-26 20:00,ZBHH 262000Z AUTO 06004KT 6SM 07/M10 A3015 RMK T00701100 IEM_DS3505
ZBHH,2007-04-26 21:00,ZBHH 262100Z AUTO 09002KT 19SM 06/M09 A3015 RMK SLP201 T00571089 57001 IEM_DS3505
ZBHH,2007-04-26 22:00,ZBHH 262200Z AUTO 07004KT 6SM 05/M10 A3018 RMK T00501100 IEM_DS3505
ZBHH,2007-04-26 23:00,ZBHH 262300Z AUTO 09006KT 6SM 07/M09 A3018 RMK T00701090 IEM_DS3505
ZBHH,2007-04-27 00:00,ZBHH 270000Z AUTO 09004KT 19SM 12/M09 A3021 RMK SLP212 T01191086 52015 IEM_DS3505
ZBHH,2007-04-27 01:00,ZBHH 270100Z AUTO 09004KT 6SM 14/M09 A3021 RMK T01401090 IEM_DS3505
ZBHH,2007-04-27 02:00,ZBHH 270200Z AUTO 15002KT 6SM 17/M09 A3021 RMK T01701090 IEM_DS3505
ZBHH,2007-04-27 03:00,ZBHH 270300Z AUTO 09004KT 12SM 18/M09 A3018 RMK SLP201 T01851086 57005 IEM_DS3505
ZBHH,2007-04-27 04:00,ZBHH 270400Z AUTO 22006KT 6SM 19/M10 A3015 RMK T01901100 IEM_DS3505
ZBHH,2007-04-27 05:00,ZBHH 270500Z AUTO 23006KT 6SM 21/M10 A3015 RMK T02101100 IEM_DS3505
ZBHH,2007-04-27 06:00,ZBHH 270600Z AUTO 22008KT 12SM 22/M10 A3012 RMK SLP173 T02241095 57025 IEM_DS3505
ZBHH,2007-04-27 07:00,ZBHH 270700Z AUTO 24012KT 6SM 22/M11 A3009 RMK T02201110 IEM_DS3505
ZBHH,2007-04-27 08:00,ZBHH 270800Z AUTO 22008KT 6SM 22/M12 A3006 RMK T02201120 IEM_DS3505
ZBHH,2007-04-27 09:00,ZBHH 270900Z AUTO 22008KT 12SM 22/M11 A3006 RMK SLP162 T02251106 57014 IEM_DS3505
ZBHH,2007-04-27 10:00,ZBHH 271000Z AUTO 23006KT 6SM 21/M11 A3006 RMK T02101110 IEM_DS3505
ZBHH,2007-04-27 11:00,ZBHH 271100Z AUTO 21004KT 6SM 20/M10 A3006 RMK T02001100 IEM_DS3505
ZBHH,2007-04-27 12:00,ZBHH 271200Z AUTO 22002KT 12SM 19/M08 A3009 RMK SLP166 T01921080 52009 IEM_DS3505
ZBHH,2007-04-27 13:00,ZBHH 271300Z AUTO 05004KT 4SM 16/M08 A3012 RMK T01601080 IEM_DS3505
ZBHH,2007-04-27 14:00,ZBHH 271400Z AUTO 05002KT 6SM 14/M09 A3012 RMK T01401090 IEM_DS3505
ZBHH,2007-04-27 15:00,ZBHH 271500Z AUTO 07002KT 19SM 14/M08 A3015 RMK SLP179 T01451076 52015 IEM_DS3505
ZBHH,2007-04-27 16:00,ZBHH 271600Z AUTO 07004KT 6SM 10/M08 A3015 RMK T01001080 IEM_DS3505
ZBHH,2007-04-27 17:00,ZBHH 271700Z AUTO 08004KT 6SM 10/M09 A3015 RMK T01001090 IEM_DS3505
ZBHH,2007-04-27 18:00,ZBHH 271800Z AUTO 07002KT 19SM 10/M07 A3015 RMK SLP179 T01021066 57001 IEM_DS3505
ZBHH,2007-04-27 19:00,ZBHH 271900Z AUTO 09004KT 6SM 09/M09 A3012 RMK T00901090 IEM_DS3505
ZBHH,2007-04-27 20:00,ZBHH 272000Z AUTO 07004KT 6SM 08/M08 A3015 RMK T00801080 IEM_DS3505
ZBHH,2007-04-27 21:00,ZBHH 272100Z AUTO 00000KT 19SM 09/M07 A3015 RMK SLP188 T00861068 52005 IEM_DS3505
ZBHH,2007-04-27 22:00,ZBHH 272200Z AUTO 05002KT 6SM 07/M08 A3018 RMK T00701080 IEM_DS3505
ZBHH,2007-04-27 23:00,ZBHH 272300Z AUTO 03002KT 6SM 09/M08 A3018 RMK T00901080 IEM_DS3505
ZBHH,2007-04-28 00:00,ZBHH 280000Z AUTO 09004KT 19SM 14/M08 A3021 RMK SLP201 T01421078 52016 IEM_DS3505
ZBHH,2007-04-28 01:00,ZBHH 280100Z AUTO 00000KT 6SM 16/M05 A3021 RMK T01601050 IEM_DS3505
ZBHH,2007-04-28 02:00,ZBHH 280200Z AUTO 25004KT 6SM 17/M06 A3021 RMK T01701060 IEM_DS3505
ZBHH,2007-04-28 03:00,ZBHH 280300Z AUTO 22004KT 19SM 20/M05 A3021 RMK SLP195 T01961054 57004 IEM_DS3505
ZBHH,2007-04-28 04:00,ZBHH 280400Z AUTO 25006KT 6SM 20/M05 A3018 RMK T02001050 IEM_DS3505
ZBHH,2007-04-28 05:00,ZBHH 280500Z AUTO 25010KT 6SM 22/M04 A3012 RMK T02201040 IEM_DS3505
ZBHH,2007-04-28 06:00,ZBHH 280600Z AUTO 25012KT 19SM 24/M06 A3012 RMK T02351055 57026 IEM_DS3505
ZBHH,2007-04-28 07:00,ZBHH 280700Z AUTO 26016KT 7SM 24/M07 A3009 RMK T02401070 IEM_DS3505
ZBHH,2007-04-28 08:00,ZBHH 280800Z AUTO 25016KT 7SM 23/M06 A3006 RMK T02301060 IEM_DS3505
ZBHH,2007-04-28 09:00,ZBHH 280900Z AUTO 22010KT 19SM 23/M05 A3006 RMK SLP149 T02331048 57019 IEM_DS3505
ZBHH,2007-04-28 10:00,ZBHH 281000Z AUTO 25014KT 6SM 22/M05 A3006 RMK T02201050 IEM_DS3505
ZBHH,2007-04-28 11:00,ZBHH 281100Z AUTO 25010KT 6SM 21/M05 A3006 RMK T02101050 IEM_DS3505
ZBHH,2007-04-28 12:00,ZBHH 281200Z AUTO 22002KT 12SM 20/M04 A3006 RMK SLP151 T02031041 52007 IEM_DS3505
ZBHH,2007-04-28 13:00,ZBHH 281300Z AUTO 21002KT 6SM 17/M04 A3009 RMK T01701040 IEM_DS3505
ZBHH,2007-04-28 14:00,ZBHH 281400Z AUTO 11004KT 6SM 14/M04 A3009 RMK T01401040 IEM_DS3505
ZBHH,2007-04-28 15:00,ZBHH 281500Z AUTO 25002KT 12SM 17/M03 A3009 RMK SLP152 T01701026 52005 IEM_DS3505
ZBHH,2007-04-28 16:00,ZBHH 281600Z AUTO 10002KT 6SM 13/M04 A3009 RMK T01301040 IEM_DS3505
ZBHH,2007-04-28 17:00,ZBHH 281700Z AUTO 09004KT 6SM 11/M04 A3009 RMK T01101040 IEM_DS3505
ZBHH,2007-04-28 18:00,ZBHH 281800Z AUTO 09004KT 12SM 13/M03 A3006 RMK SLP145 T01321031 57006 IEM_DS3505
ZBHH,2007-04-28 19:00,ZBHH 281900Z AUTO 08004KT 6SM 10/M03 A3006 RMK T01001030 IEM_DS3505
ZBHH,2007-04-28 20:00,ZBHH 282000Z AUTO 07004KT 6SM 10/M03 A3006 RMK T01001030 IEM_DS3505
ZBHH,2007-04-28 21:00,ZBHH 282100Z AUTO 07002KT 12SM 11/M03 A3006 RMK SLP147 T01091032 57003 IEM_DS3505
ZBHH,2007-04-28 22:00,ZBHH 282200Z AUTO 11002KT 6SM 08/M04 A3006 RMK T00801040 IEM_DS3505
ZBHH,2007-04-28 23:00,ZBHH 282300Z AUTO 08002KT 6SM 09/M03 A3009 RMK T00901030 IEM_DS3505
ZBHH,2007-04-29 00:00,ZBHH 290000Z AUTO 04004KT 9SM 14/M03 A3009 RMK SLP161 T01381026 52012 IEM_DS3505
ZBHH,2007-04-29 01:00,ZBHH 290100Z AUTO 19002KT 4SM 16/M02 A3009 RMK T01601020 IEM_DS3505
ZBHH,2007-04-29 02:00,ZBHH 290200Z AUTO 4SM 17/M01 A3006 RMK T01701010 IEM_DS3505
ZBHH,2007-04-29 03:00,ZBHH 290300Z AUTO 20004KT 12SM 19/M00 A3006 RMK SLP144 T01911003 57011 IEM_DS3505
ZBHH,2007-04-29 04:00,ZBHH 290400Z AUTO 24006KT 4SM 20/00 A3003 RMK T02000000 IEM_DS3505
ZBHH,2007-04-29 05:00,ZBHH 290500Z AUTO 24010KT 4SM 22/00 A3000 RMK T02200000 IEM_DS3505
ZBHH,2007-04-29 06:00,ZBHH 290600Z AUTO 22010G21KT 12SM 23/M01 A2997 RMK SLP109 T02291012 57031 IEM_DS3505
ZBHH,2007-04-29 07:00,ZBHH 290700Z AUTO 25016G29KT 6SM 23/M06 A2991 RMK T02301060 IEM_DS3505
ZBHH,2007-04-29 08:00,ZBHH 290800Z AUTO 25012G23KT 6SM 23/M03 A2988 RMK T02301030 IEM_DS3505
ZBHH,2007-04-29 09:00,ZBHH 290900Z AUTO 22006G27KT 12SM 24/M03 A2988 RMK SLP081 T02381027 57027 IEM_DS3505
ZBHH,2007-04-29 10:00,ZBHH 291000Z AUTO 26008KT 6SM 23/M02 A2985 RMK T02301020 IEM_DS3505
ZBHH,2007-04-29 11:00,ZBHH 291100Z AUTO 25008KT 6SM 22/M02 A2985 RMK T02201020 IEM_DS3505
ZBHH,2007-04-29 12:00,ZBHH 291200Z AUTO 22002KT 12SM 21/M01 A2985 RMK SLP078 T02091010 57003 IEM_DS3505
ZBHH,2007-04-29 13:00,ZBHH 291300Z AUTO 00000KT 4SM 16/M01 A2988 RMK T01601010 IEM_DS3505
ZBHH,2007-04-29 14:00,ZBHH 291400Z AUTO 17002KT 4SM 17/M01 A2988 RMK T01701010 IEM_DS3505
ZBHH,2007-04-29 15:00,ZBHH 291500Z AUTO 20006KT 12SM 19/M01 A2988 RMK SLP075 T01921013 52004 IEM_DS3505
ZBHH,2007-04-29 16:00,ZBHH 291600Z AUTO 21004KT 5SM 17/M02 A2985 RMK T01701020 IEM_DS3505
ZBHH,2007-04-29 17:00,ZBHH 291700Z AUTO 09004KT 4SM 15/M01 A2985 RMK T01501010 IEM_DS3505
ZBHH,2007-04-29 18:00,ZBHH 291800Z AUTO 04004KT 12SM 16/M01 A2983 RMK SLP053 T01621014 57018 IEM_DS3505
ZBHH,2007-04-29 19:00,ZBHH 291900Z AUTO 07002KT 4SM 14/M02 A2980 RMK T01401020 IEM_DS3505
ZBHH,2007-04-29 20:00,ZBHH 292000Z AUTO 36004KT 4SM 13/M02 A2980 RMK T01301020 IEM_DS3505
ZBHH,2007-04-29 21:00,ZBHH 292100Z AUTO 34010G31KT 12SM 14/00 A2985 RMK SLP066 T01450004 52010 IEM_DS3505
ZBHH,2007-04-29 22:00,ZBHH 292200Z AUTO 01016G27KT 2 1/2SM 12/02 A2985 RMK T01200020 IEM_DS3505
ZBHH,2007-04-29 23:00,ZBHH 292300Z AUTO 36014G23KT 1 1/2SM 10/03 A2988 RMK T01000030 IEM_DS3505
ZBHH,2007-04-30 00:00,ZBHH 300000Z AUTO 34010G21KT 7SM 10/03 A2988 RMK 60000 70001 SLP106 T00990027 52021 IEM_DS3505
ZBHH,2007-04-30 01:00,ZBHH 300100Z AUTO 01017KT 3SM 08/00 A2991 RMK T00800000 IEM_DS3505
ZBHH,2007-04-30 02:00,ZBHH 300200Z AUTO 36012KT 7SM 08/01 A2997 RMK T00800010 IEM_DS3505
ZBHH,2007-04-30 03:00,ZBHH 300300Z AUTO 02004KT 12SM 08/00 A2997 RMK SLP138 T00810001 52022 IEM_DS3505
ZBHH,2007-04-30 04:00,ZBHH 300400Z AUTO 02014G23KT 7SM 08/M01 A3000 RMK T00801010 IEM_DS3505
ZBHH,2007-04-30 05:00,ZBHH 300500Z AUTO 01012G21KT 7SM 09/M02 A3000 RMK T00901020 IEM_DS3505
ZBHH,2007-04-30 06:00,ZBHH 300600Z AUTO 25002G29KT 19SM 11/M02 A3000 RMK 60000 SLP151 T01061015 52010 IEM_DS3505
ZBHH,2007-04-30 07:00,ZBHH 300700Z AUTO 03014G23KT 7SM 12/M06 A3000 RMK T01201060 IEM_DS3505
ZBHH,2007-04-30 08:00,ZBHH 300800Z AUTO 04016G25KT 7SM 13/M10 A3000 RMK T01301100 IEM_DS3505
ZBHH,2007-04-30 09:00,ZBHH 300900Z AUTO 36010KT 19SM 15/M09 A3000 RMK SLP145 T01501091 54000 IEM_DS3505
ZBHH,2007-04-30 10:00,ZBHH 301000Z AUTO 01014G23KT 7SM 14/M10 A3000 RMK T01401100 IEM_DS3505
ZBHH,2007-04-30 11:00,ZBHH 301100Z AUTO 01012G21KT 7SM 14/M10 A3003 RMK T01401100 IEM_DS3505
ZBHH,2007-04-30 12:00,ZBHH 301200Z AUTO 04004KT 19SM 13/M12 A3006 RMK SLP175 T01301115 52014 IEM_DS3505
ZBHH,2007-04-30 13:00,ZBHH 301300Z AUTO 05008KT 6SM 12/M13 A3009 RMK T01201130 IEM_DS3505
ZBHH,2007-04-30 14:00,ZBHH 301400Z AUTO 34002KT 6SM 09/M12 A3009 RMK T00901120 IEM_DS3505
ZBHH,2007-04-30 15:00,ZBHH 301500Z AUTO 09002KT 19SM 10/M12 A3009 RMK SLP199 T00971116 52011 IEM_DS3505
ZBHH,2007-04-30 16:00,ZBHH 301600Z AUTO 01004KT 6SM 05/M11 A3009 RMK T00501110 IEM_DS3505
ZBHH,2007-04-30 17:00,ZBHH 301700Z AUTO 07004KT 6SM 04/M12 A3009 RMK T00401120 IEM_DS3505
ZBHH,2007-04-30 18:00,ZBHH 301800Z AUTO 08002KT 19SM 04/M10 A3012 RMK SLP208 T00451104 52002 IEM_DS3505
ZBHH,2007-04-30 19:00,ZBHH 301900Z AUTO 00000KT 6SM 00/M10 A3009 RMK T00001100 IEM_DS3505
ZBHH,2007-04-30 20:00,ZBHH 302000Z AUTO 08002KT 6SM 00/M10 A3009 RMK T00001100 IEM_DS3505
ZBHH,2007-04-30 21:00,ZBHH 302100Z AUTO 34002KT 19SM 03/M09 A3009 RMK 70001 SLP195 T00311089 57005 IEM_DS3505
ZBHH,2007-04-30 22:00,ZBHH 302200Z AUTO 00000KT 6SM M01/M10 A3009 RMK T10101100 IEM_DS3505
ZBHH,2007-04-30 23:00,ZBHH 302300Z AUTO 10006KT 6SM 03/M12 A3012 RMK T00301120 IEM_DS3505
ZBHH,2007-05-01 00:00,ZBHH 010000Z AUTO 07004KT 19SM 08/M11 A3012 RMK 70000 SLP198 T00821107 52009 IEM_DS3505
ZBHH,2007-05-01 01:00,ZBHH 010100Z AUTO 12002KT 6SM 10/M10 A3012 RMK T01001100 IEM_DS3505
ZBHH,2007-05-01 02:00,ZBHH 010200Z AUTO 27002KT 6SM 12/M09 A3009 RMK T01201090 IEM_DS3505
ZBHH,2007-05-01 03:00,ZBHH 010300Z AUTO 20006KT 19SM 14/M08 A3009 RMK SLP179 T01441076 57011 IEM_DS3505
ZBHH,2007-05-01 04:00,ZBHH 010400Z AUTO 25008KT 6SM 16/M09 A3006 RMK T01601090 IEM_DS3505
ZBHH,2007-05-01 05:00,ZBHH 010500Z AUTO 26010KT 6SM 18/M09 A3000 RMK T01801090 IEM_DS3505
ZBHH,2007-05-01 06:00,ZBHH 010600Z AUTO 20012KT 12SM 20/M08 A2997 RMK SLP139 T01971085 57035 IEM_DS3505
ZBHH,2007-05-01 07:00,ZBHH 010700Z AUTO 23014KT 6SM 20/M09 A2991 RMK T02001090 IEM_DS3505
ZBHH,2007-05-01 08:00,ZBHH 010800Z AUTO 24016KT 7SM 20/M09 A2991 RMK T02001090 IEM_DS3505
ZBHH,2007-05-01 09:00,ZBHH 010900Z AUTO 22012G25KT 12SM 22/M09 A2988 RMK SLP110 T02151091 57025 IEM_DS3505
ZBHH,2007-05-01 10:00,ZBHH 011000Z AUTO 25016KT 7SM 20/M09 A2988 RMK T02001090 IEM_DS3505
ZBHH,2007-05-01 11:00,ZBHH 011100Z AUTO 25014KT 6SM 19/M09 A2988 RMK T01901090 IEM_DS3505
ZBHH,2007-05-01 12:00,ZBHH 011200Z AUTO 22006KT 19SM 18/M10 A2988 RMK SLP106 T01851095 54000 IEM_DS3505
ZBHH,2007-05-01 13:00,ZBHH 011300Z AUTO 25006KT 6SM 16/M09 A2988 RMK T01601090 IEM_DS3505
ZBHH,2007-05-01 14:00,ZBHH 011400Z AUTO 11004KT 4SM 12/M07 A2991 RMK T01201070 IEM_DS3505
ZBHH,2007-05-01 15:00,ZBHH 011500Z AUTO 04004KT 19SM 13/M08 A2988 RMK SLP102 T01321075 57001 IEM_DS3505
ZBHH,2007-05-01 16:00,ZBHH 011600Z AUTO 11004KT 6SM 09/M08 A2988 RMK T00901080 IEM_DS3505
ZBHH,2007-05-01 17:00,ZBHH 011700Z AUTO 00000KT 6SM 08/M07 A2988 RMK T00801070 IEM_DS3505
ZBHH,2007-05-01 18:00,ZBHH 011800Z AUTO 09002KT 19SM 10/M06 A2988 RMK SLP094 T01001063 57003 IEM_DS3505
ZBHH,2007-05-01 19:00,ZBHH 011900Z AUTO 08004KT 6SM 06/M08 A2988 RMK T00601080 IEM_DS3505
ZBHH,2007-05-01 20:00,ZBHH 012000Z AUTO 08002KT 6SM 06/M09 A2988 RMK T00601090 IEM_DS3505
ZBHH,2007-05-01 21:00,ZBHH 012100Z AUTO 07002KT 19SM 09/M07 A2985 RMK SLP092 T00911067 54000 IEM_DS3505
ZBHH,2007-05-01 22:00,ZBHH 012200Z AUTO 06004KT 6SM 06/M08 A2988 RMK T00601080 IEM_DS3505
ZBHH,2007-05-01 23:00,ZBHH 012300Z AUTO 09004KT 6SM 08/M07 A2988 RMK T00801070 IEM_DS3505
ZBHH,2007-05-02 00:00,ZBHH 020000Z AUTO 09004KT 19SM 13/M07 A2988 RMK SLP098 T01311070 52007 IEM_DS3505
ZBHH,2007-05-02 01:00,ZBHH 020100Z AUTO 15002KT 6SM 14/M09 A2988 RMK T01401090 IEM_DS3505
ZBHH,2007-05-02 02:00,ZBHH 020200Z AUTO 18002KT 7SM 15/M09 A2988 RMK T01501090 IEM_DS3505
ZBHH,2007-05-02 03:00,ZBHH 020300Z AUTO 27002KT 19SM 16/M09 A2988 RMK SLP103 T01591091 57001 IEM_DS3505
ZBHH,2007-05-02 04:00,ZBHH 020400Z AUTO 30002KT 7SM 18/M10 A2985 RMK T01801100 IEM_DS3505
ZBHH,2007-05-02 05:00,ZBHH 020500Z AUTO 04002KT 6SM 19/M10 A2983 RMK T01901100 IEM_DS3505
ZBHH,2007-05-02 06:00,ZBHH 020600Z AUTO 22002KT 19SM 20/M10 A2983 RMK SLP074 T01951096 57024 IEM_DS3505
ZBHH,2007-05-02 07:00,ZBHH 020700Z AUTO 23004KT 6SM 19/M09 A2980 RMK T01901090 IEM_DS3505
ZBHH,2007-05-02 08:00,ZBHH 020800Z AUTO 25012KT 6SM 18/M09 A2983 RMK T01801090 IEM_DS3505
ZBHH,2007-05-02 09:00,ZBHH 020900Z AUTO 22010KT 12SM 18/02 A2983 RMK SLP082 T01750019 52001 IEM_DS3505
ZBHH,2007-05-02 10:00,ZBHH 021000Z AUTO 25012KT 7SM 16/05 A2985 RMK T01600050 IEM_DS3505
ZBHH,2007-05-02 11:00,ZBHH 021100Z AUTO 23008KT 7SM 14/05 A2985 RMK T01400050 IEM_DS3505
ZBHH,2007-05-02 12:00,ZBHH 021200Z AUTO 22002KT 16SM 14/06 A2988 RMK SLP101 T01420061 52018 IEM_DS3505
ZBHH,2007-05-02 13:00,ZBHH 021300Z AUTO 24002KT 6SM 12/05 A2991 RMK T01200050 IEM_DS3505
ZBHH,2007-05-02 14:00,ZBHH 021400Z AUTO 35002KT 6SM 11/05 A2994 RMK T01100050 IEM_DS3505
ZBHH,2007-05-02 15:00,ZBHH 021500Z AUTO 36002KT 19SM 12/06 A2994 RMK SLP121 T01170058 52018 IEM_DS3505
ZBHH,2007-05-02 16:00,ZBHH 021600Z AUTO 07002KT 6SM 09/03 A2994 RMK T00900030 IEM_DS3505
ZBHH,2007-05-02 17:00,ZBHH 021700Z AUTO 00000KT 6SM 08/03 A2997 RMK T00800030 IEM_DS3505
ZBHH,2007-05-02 18:00,ZBHH 021800Z AUTO 08002KT 19SM 09/04 A2997 RMK SLP129 T00890039 52009 IEM_DS3505
ZBHH,2007-05-02 19:00,ZBHH 021900Z AUTO 09004KT 05/01 A3000 RMK T00500010 IEM_DS3505
ZBHH,2007-05-02 20:00,ZBHH 022000Z AUTO 00000KT 6SM 05/01 A3000 RMK T00500010 IEM_DS3505
ZBHH,2007-05-02 21:00,ZBHH 022100Z AUTO 14002KT 19SM 07/03 A3003 RMK SLP157 T00730034 52018 IEM_DS3505
ZBHH,2007-05-02 22:00,ZBHH 022200Z AUTO 01004KT 6SM 04/00 A3006 RMK T00400000 IEM_DS3505
ZBHH,2007-05-02 23:00,ZBHH 022300Z AUTO 14002KT 6SM 07/01 A3006 RMK T00700010 IEM_DS3505
ZBHH,2007-05-03 00:00,ZBHH 030000Z AUTO 25002KT 12SM 12/04 A3006 RMK SLP173 T01160043 52016 IEM_DS3505
ZBHH,2007-05-03 01:00,ZBHH 030100Z AUTO 25002KT 6SM 14/03 A3006 RMK T01400030 IEM_DS3505
ZBHH,2007-05-03 02:00,ZBHH 030200Z AUTO 23004KT 6SM 16/01 A3006 RMK T01600010 IEM_DS3505
ZBHH,2007-05-03 03:00,ZBHH 030300Z AUTO 29014KT 19SM 21/M09 A3006 RMK SLP152 T02071087 57006 IEM_DS3505
ZBHH,2007-05-03 04:00,ZBHH 030400Z AUTO 33012G21KT 6SM 22/M09 A3003 RMK T02201090 IEM_DS3505
ZBHH,2007-05-03 05:00,ZBHH 030500Z AUTO 32014KT 6SM 22/M09 A3000 RMK T02201090 IEM_DS3505
ZBHH,2007-05-03 06:00,ZBHH 030600Z AUTO 32010KT 19SM 23/M11 A2997 RMK SLP128 T02331113 57022 IEM_DS3505
ZBHH,2007-05-03 07:00,ZBHH 030700Z AUTO 32016G27KT 6SM 23/M09 A2997 RMK T02301090 IEM_DS3505
ZBHH,2007-05-03 08:00,ZBHH 030800Z AUTO 35014G25KT 6SM 24/M09 A2994 RMK T02401090 IEM_DS3505
ZBHH,2007-05-03 09:00,ZBHH 030900Z AUTO 32012KT 19SM 24/M10 A2991 RMK SLP107 T02391096 57020 IEM_DS3505
ZBHH,2007-05-03 10:00,ZBHH 031000Z AUTO 32014G23KT 6SM 23/M10 A2991 RMK T02301100 IEM_DS3505
ZBHH,2007-05-03 11:00,ZBHH 031100Z AUTO 32010KT 6SM 22/M10 A2988 RMK T02201100 IEM_DS3505
ZBHH,2007-05-03 12:00,ZBHH 031200Z AUTO 29004KT 19SM 21/M11 A2991 RMK SLP099 T02101106 57004 IEM_DS3505
ZBHH,2007-05-03 13:00,ZBHH 031300Z AUTO 31002KT 6SM 18/M11 A2991 RMK T01801110 IEM_DS3505
ZBHH,2007-05-03 14:00,ZBHH 031400Z AUTO 10002KT 6SM 15/M10 A2991 RMK T01501100 IEM_DS3505
ZBHH,2007-05-03 15:00,ZBHH 031500Z AUTO 29002KT 19SM 16/M08 A2988 RMK SLP087 T01571085 57004 IEM_DS3505
ZBHH,2007-05-03 16:00,ZBHH 031600Z AUTO 10004KT 6SM 10/M08 A2988 RMK T01001080 IEM_DS3505
ZBHH,2007-05-03 17:00,ZBHH 031700Z AUTO 12004KT 6SM 09/M06 A2988 RMK T00901060 IEM_DS3505
ZBHH,2007-05-03 18:00,ZBHH 031800Z AUTO 07004KT 19SM 11/M06 A2988 RMK SLP084 T01131056 57006 IEM_DS3505
ZBHH,2007-05-03 19:00,ZBHH 031900Z AUTO 08006KT 6SM 09/M03 A2985 RMK T00901030 IEM_DS3505
ZBHH,2007-05-03 20:00,ZBHH 032000Z AUTO 09004KT 6SM 08/M04 A2985 RMK T00801040 IEM_DS3505
ZBHH,2007-05-03 21:00,ZBHH 032100Z AUTO 09002KT 19SM 10/M03 A2985 RMK SLP080 T01021028 57004 IEM_DS3505
ZBHH,2007-05-03 22:00,ZBHH 032200Z AUTO 09004KT 7SM 08/M04 A2985 RMK T00801040 IEM_DS3505
ZBHH,2007-05-03 23:00,ZBHH 032300Z AUTO 09004KT 7SM 11/M04 A2988 RMK T01101040 IEM_DS3505
ZBHH,2007-05-04 00:00,ZBHH 040000Z AUTO 09004KT 19SM 13/M02 A2988 RMK SLP087 T01321019 52006 IEM_DS3505
ZBHH,2007-05-04 01:00,ZBHH 040100Z AUTO 27002KT 6SM 15/M02 A2988 RMK T01501020 IEM_DS3505
ZBHH,2007-05-04 02:00,ZBHH 040200Z AUTO 24002KT 6SM 18/M02 A2985 RMK T01801020 IEM_DS3505
ZBHH,2007-05-04 03:00,ZBHH 040300Z AUTO 25006KT 16SM 20/M03 A2985 RMK SLP076 T01961027 57008 IEM_DS3505
ZBHH,2007-05-04 04:00,ZBHH 040400Z AUTO 24006KT 6SM 21/M02 A2983 RMK T02101020 IEM_DS3505
ZBHH,2007-05-04 05:00,ZBHH 040500Z AUTO 23006G16KT 6SM 23/M03 A2980 RMK T02301030 IEM_DS3505
ZBHH,2007-05-04 06:00,ZBHH 040600Z AUTO 25010KT 16SM 26/M04 A2974 RMK SLP034 T02551039 57034 IEM_DS3505
ZBHH,2007-05-04 07:00,ZBHH 040700Z AUTO 24017KT 6SM 26/M05 A2971 RMK T02601050 IEM_DS3505
ZBHH,2007-05-04 08:00,ZBHH 040800Z AUTO 31016G25KT 4SM 26/M08 A2971 RMK T02601080 IEM_DS3505
ZBHH,2007-05-04 09:00,ZBHH 040900Z AUTO 34010G31KT 12SM 26/M08 A2971 RMK SLP028 T02551083 57007 IEM_DS3505
ZBHH,2007-05-04 10:00,ZBHH 041000Z AUTO 35016G27KT 7SM 23/M07 A2977 RMK T02301070 IEM_DS3505
ZBHH,2007-05-04 11:00,ZBHH 041100Z AUTO 01021G35KT 7SM 21/M06 A2980 RMK T02101060 IEM_DS3505
ZBHH,2007-05-04 12:00,ZBHH 041200Z AUTO 04006KT 19SM 20/M05 A2985 RMK SLP078 T01971046 52039 IEM_DS3505
ZBHH,2007-05-04 13:00,ZBHH 041300Z AUTO 05010KT 7SM 19/M04 A2988 RMK T01901040 IEM_DS3505
ZBHH,2007-05-04 14:00,ZBHH 041400Z AUTO 02004KT 7SM 18/M04 A2991 RMK T01801040 IEM_DS3505
ZBHH,2007-05-04 15:00,ZBHH 041500Z AUTO 04014G21KT 12SM 18/M04 A2994 RMK SLP101 T01751038 52028 IEM_DS3505
ZBHH,2007-05-04 16:00,ZBHH 041600Z AUTO 05010KT 7SM 16/M07 A2994 RMK T01601070 IEM_DS3505
ZBHH,2007-05-04 17:00,ZBHH 041700Z AUTO 06008KT 7SM 14/M11 A2997 RMK T01401110 IEM_DS3505
ZBHH,2007-05-04 18:00,ZBHH 041800Z AUTO 29002KT 19SM 14/M10 A2997 RMK SLP107 T01421105 52010 IEM_DS3505
ZBHH,2007-05-04 19:00,ZBHH 041900Z AUTO 21002KT 7SM 11/M10 A2997 RMK T01101100 IEM_DS3505
ZBHH,2007-05-04 20:00,ZBHH 042000Z AUTO 34006KT 7SM 10/M09 A2997 RMK T01001090 IEM_DS3505
ZBHH,2007-05-04 21:00,ZBHH 042100Z AUTO 32002KT 19SM 11/M09 A3000 RMK SLP125 T01121086 52010 IEM_DS3505
ZBHH,2007-05-04 22:00,ZBHH 042200Z AUTO 33010KT 6SM 09/M09 A3000 RMK T00901090 IEM_DS3505
ZBHH,2007-05-04 23:00,ZBHH 042300Z AUTO 35010KT 6SM 11/M09 A3003 RMK T01101090 IEM_DS3505
ZBHH,2007-05-05 00:00,ZBHH 050000Z AUTO 36006KT 19SM 15/M11 A3006 RMK SLP150 T01541111 52019 IEM_DS3505
ZBHH,2007-05-05 01:00,ZBHH 050100Z AUTO 27006KT 6SM 16/M12 A3006 RMK T01601120 IEM_DS3505
ZBHH,2007-05-05 02:00,ZBHH 050200Z AUTO 20008KT 6SM 17/M11 A3006 RMK T01701110 IEM_DS3505
ZBHH,2007-05-05 03:00,ZBHH 050300Z AUTO 36006KT 19SM 21/M12 A3006 RMK SLP137 T02091118 57005 IEM_DS3505
ZBHH,2007-05-05 04:00,ZBHH 050400Z AUTO 05010G19KT 6SM 22/M11 A3003 RMK T02201110 IEM_DS3505
ZBHH,2007-05-05 05:00,ZBHH 050500Z AUTO 02012KT 6SM 22/M11 A3000 RMK T02201110 IEM_DS3505
ZBHH,2007-05-05 06:00,ZBHH 050600Z AUTO 04008G25KT 19SM 23/M12 A3000 RMK SLP120 T02291116 57017 IEM_DS3505
ZBHH,2007-05-05 07:00,ZBHH 050700Z AUTO 36012KT 6SM 23/M11 A2997 RMK T02301110 IEM_DS3505
ZBHH,2007-05-05 08:00,ZBHH 050800Z AUTO 33012G21KT 6SM 23/M11 A2994 RMK T02301110 IEM_DS3505
ZBHH,2007-05-05 09:00,ZBHH 050900Z AUTO 36006G23KT 19SM 24/M11 A2994 RMK SLP107 T02371110 57016 IEM_DS3505
ZBHH,2007-05-05 10:00,ZBHH 051000Z AUTO 35010KT 6SM 22/M11 A2994 RMK T02201110 IEM_DS3505
ZBHH,2007-05-05 11:00,ZBHH 051100Z AUTO 01008KT 6SM 21/M11 A2994 RMK T02101110 IEM_DS3505
ZBHH,2007-05-05 12:00,ZBHH 051200Z AUTO 04002KT 19SM 20/M11 A2994 RMK SLP110 T01991114 52003 IEM_DS3505
ZBHH,2007-05-05 13:00,ZBHH 051300Z AUTO 03006KT 6SM 16/M10 A2997 RMK T01601100 IEM_DS3505
ZBHH,2007-05-05 14:00,ZBHH 051400Z AUTO 02002KT 6SM 14/M10 A2997 RMK T01401100 IEM_DS3505
ZBHH,2007-05-05 15:00,ZBHH 051500Z AUTO 22002KT 19SM 14/M09 A2997 RMK SLP116 T01391087 52005 IEM_DS3505
ZBHH,2007-05-05 16:00,ZBHH 051600Z AUTO 16002KT 6SM 10/M10 A2997 RMK T01001100 IEM_DS3505
ZBHH,2007-05-05 17:00,ZBHH 051700Z AUTO 08004KT 6SM 11/M10 A2997 RMK T01101100 IEM_DS3505
ZBHH,2007-05-05 18:00,ZBHH 051800Z AUTO 09004KT 19SM 11/M08 A2994 RMK SLP114 T01091084 57004 IEM_DS3505
ZBHH,2007-05-05 19:00,ZBHH 051900Z AUTO 04004KT 6SM 09/M11 A2994 RMK T00901110 IEM_DS3505
ZBHH,2007-05-05 20:00,ZBHH 052000Z AUTO 11004KT 6SM 07/M11 A2994 RMK T00701110 IEM_DS3505
ZBHH,2007-05-05 21:00,ZBHH 052100Z AUTO 02002KT 19SM 10/M08 A2994 RMK SLP110 T00961080 57004 IEM_DS3505
ZBHH,2007-05-05 22:00,ZBHH 052200Z AUTO 09002KT 6SM 06/M11 A2994 RMK T00601110 IEM_DS3505
ZBHH,2007-05-05 23:00,ZBHH 052300Z AUTO 10004KT 6SM 09/M10 A2994 RMK T00901100 IEM_DS3505
ZBHH,2007-05-06 00:00,ZBHH 060000Z AUTO 04002KT 19SM 15/M09 A2994 RMK SLP114 T01481086 52006 IEM_DS3505
ZBHH,2007-05-06 01:00,ZBHH 060100Z AUTO 17002KT 6SM 17/M10 A2994 RMK T01701100 IEM_DS3505
ZBHH,2007-05-06 02:00,ZBHH 060200Z AUTO 22004KT 6SM 19/M09 A2994 RMK T01901090 IEM_DS3505
ZBHH,2007-05-06 03:00,ZBHH 060300Z AUTO 20006KT 12SM 21/M08 A2991 RMK SLP097 T02061078 57016 IEM_DS3505
ZBHH,2007-05-06 04:00,ZBHH 060400Z AUTO 23010KT 6SM 22/M07 A2988 RMK T02201070 IEM_DS3505
ZBHH,2007-05-06 05:00,ZBHH 060500Z AUTO 25012KT 6SM 23/M09 A2985 RMK T02301090 IEM_DS3505
ZBHH,2007-05-06 06:00,ZBHH 060600Z AUTO 25008KT 12SM 24/M11 A2983 RMK SLP061 T02421107 57030 IEM_DS3505
ZBHH,2007-05-06 07:00,ZBHH 060700Z AUTO 25012G21KT 6SM 25/M10 A2980 RMK T02501100 IEM_DS3505
ZBHH,2007-05-06 08:00,ZBHH 060800Z AUTO 26014KT 6SM 25/M11 A2977 RMK T02501110 IEM_DS3505
ZBHH,2007-05-06 09:00,ZBHH 060900Z AUTO 25006KT 19SM 24/M12 A2977 RMK SLP041 T02451119 57020 IEM_DS3505
ZBHH,2007-05-06 10:00,ZBHH 061000Z AUTO 24008KT 7SM 24/M10 A2974 RMK T02401100 IEM_DS3505
ZBHH,2007-05-06 11:00,ZBHH 061100Z AUTO 23006KT 7SM 23/M09 A2974 RMK T02301090 IEM_DS3505
ZBHH,2007-05-06 12:00,ZBHH 061200Z AUTO 29002KT 16SM 22/M08 A2974 RMK SLP036 T02211076 52001 IEM_DS3505
ZBHH,2007-05-06 13:00,ZBHH 061300Z AUTO 00000KT 4SM 20/M08 A2977 RMK T02001080 IEM_DS3505
ZBHH,2007-05-06 14:00,ZBHH 061400Z AUTO 14004KT 4SM 18/M07 A2977 RMK T01801070 IEM_DS3505
ZBHH,2007-05-06 15:00,ZBHH 061500Z AUTO 11002KT 19SM 19/M04 A2977 RMK SLP039 T01881040 52007 IEM_DS3505
ZBHH,2007-05-06 16:00,ZBHH 061600Z AUTO 06002KT 5SM 17/M06 A2977 RMK T01701060 IEM_DS3505
ZBHH,2007-05-06 17:00,ZBHH 061700Z AUTO 05004KT 7SM 16/M05 A2980 RMK T01601050 IEM_DS3505
ZBHH,2007-05-06 18:00,ZBHH 061800Z AUTO 32008KT 19SM 20/M03 A2980 RMK SLP039 T01951034 52008 IEM_DS3505
ZBHH,2007-05-06 20:00,ZBHH 062000Z AUTO 35010G10KT 6SM 16/M02 A2983 RMK T01601020 IEM_DS3505
ZBHH,2007-05-06 21:00,ZBHH 062100Z AUTO 29004KT 1SM 15/M02 A2983 RMK SLP062 T01461023 52012 IEM_DS3505
ZBHH,2007-05-06 22:00,ZBHH 062200Z AUTO 02008G17KT 1SM 14/M02 A2985 RMK T01401020 IEM_DS3505
ZBHH,2007-05-06 23:00,ZBHH 062300Z AUTO 04014KT 1SM 14/M02 A2988 RMK T01401020 IEM_DS3505
ZBHH,2007-05-07 00:00,ZBHH 070000Z AUTO 11004KT 6SM 17/M02 A2988 RMK SLP084 T01681018 52019 IEM_DS3505
ZBHH,2007-05-07 01:00,ZBHH 070100Z AUTO 01008KT 2SM 17/M02 A2991 RMK T01701020 IEM_DS3505
ZBHH,2007-05-07 02:00,ZBHH 070200Z AUTO 12004KT 2 1/2SM 19/M02 A2988 RMK T01901020 IEM_DS3505
ZBHH,2007-05-07 03:00,ZBHH 070300Z AUTO 20004KT 6SM 22/M04 A2988 RMK SLP078 T02171036 57002 IEM_DS3505
ZBHH,2007-05-07 04:00,ZBHH 070400Z AUTO 23006KT 2 1/2SM 23/M03 A2988 RMK T02301030 IEM_DS3505
ZBHH,2007-05-07 05:00,ZBHH 070500Z AUTO 25004KT 3SM 24/M04 A2985 RMK T02401040 IEM_DS3505
ZBHH,2007-05-07 06:00,ZBHH 070600Z AUTO 22010G14KT 7SM 25/M04 A2983 RMK SLP043 T02531041 57023 IEM_DS3505
ZBHH,2007-05-07 07:00,ZBHH 070700Z AUTO 23008KT 3SM 26/M05 A2980 RMK T02601050 IEM_DS3505
ZBHH,2007-05-07 08:00,ZBHH 070800Z AUTO 24010KT 4SM 26/M06 A2977 RMK T02601060 IEM_DS3505
ZBHH,2007-05-07 09:00,ZBHH 070900Z AUTO 22010KT 7SM 26/M08 A2977 RMK SLP032 T02621078 57017 IEM_DS3505
ZBHH,2007-05-07 10:00,ZBHH 071000Z AUTO 24008KT 4SM 26/M07 A2977 RMK T02601070 IEM_DS3505
ZBHH,2007-05-07 11:00,ZBHH 071100Z AUTO 24004KT 4SM 25/M07 A2977 RMK T02501070 IEM_DS3505
ZBHH,2007-05-07 12:00,ZBHH 071200Z AUTO 22004KT 7SM 23/M05 A2977 RMK SLP034 T02261053 57001 IEM_DS3505
ZBHH,2007-05-07 13:00,ZBHH 071300Z AUTO 09004KT 3SM 20/M06 A2977 RMK T02001060 IEM_DS3505
ZBHH,2007-05-07 14:00,ZBHH 071400Z AUTO 04004KT 4SM 19/M06 A2980 RMK T01901060 IEM_DS3505
ZBHH,2007-05-07 15:00,ZBHH 071500Z AUTO 09002KT 7SM 18/M03 A2980 RMK SLP041 T01801029 52007 IEM_DS3505
ZBHH,2007-05-07 16:00,ZBHH 071600Z AUTO 09004KT 6SM 16/M06 A2980 RMK T01601060 IEM_DS3505
ZBHH,2007-05-07 17:00,ZBHH 071700Z AUTO 08004KT 6SM 16/M05 A2977 RMK T01601050 IEM_DS3505
ZBHH,2007-05-07 18:00,ZBHH 071800Z AUTO 11002KT 7SM 16/M04 A2977 RMK SLP032 T01591036 57006 IEM_DS3505
ZBHH,2007-05-07 19:00,ZBHH 071900Z AUTO 08006KT 6SM 15/M06 A2974 RMK T01501060 IEM_DS3505
ZBHH,2007-05-07 20:00,ZBHH 072000Z AUTO 09004KT 6SM 14/M05 A2974 RMK T01401050 IEM_DS3505
ZBHH,2007-05-07 21:00,ZBHH 072100Z AUTO 04002KT 6SM 13/M02 A2974 RMK SLP026 T01321023 57008 IEM_DS3505
ZBHH,2007-05-07 22:00,ZBHH 072200Z AUTO 00000KT 6SM 12/M04 A2974 RMK T01201040 IEM_DS3505
ZBHH,2007-05-07 23:00,ZBHH 072300Z AUTO 08004KT 6SM 15/M05 A2974 RMK T01501050 IEM_DS3505
ZBHH,2007-05-08 00:00,ZBHH 080000Z AUTO 02002KT 6SM 18/M04 A2974 RMK SLP026 T01851036 52003 IEM_DS3505
ZBHH,2007-05-08 01:00,ZBHH 080100Z AUTO 09002KT 4SM 21/M05 A2971 RMK T02101050 IEM_DS3505
ZBHH,2007-05-08 02:00,ZBHH 080200Z AUTO 26004KT 4SM 23/M04 A2971 RMK T02301040 IEM_DS3505
ZBHH,2007-05-08 03:00,ZBHH 080300Z AUTO 22008KT 12SM 26/M03 A2968 RMK SLP996 T02551030 57022 IEM_DS3505
ZBHH,2007-05-08 04:00,ZBHH 080400Z AUTO 36017G29KT 2 1/2SM 25/M07 A2968 RMK T02501070 IEM_DS3505
ZBHH,2007-05-08 05:00,ZBHH 080500Z AUTO 01017KT 2SM 24/M08 A2971 RMK T02401080 IEM_DS3505
ZBHH,2007-05-08 06:00,ZBHH 080600Z AUTO 02008G29KT 2 1/2SM 22/M03 A2971 RMK SLP026 T02221032 52016 IEM_DS3505
ZBHH,2007-05-08 07:00,ZBHH 080700Z AUTO 35012KT 3SM 22/M01 A2974 RMK T02201010 IEM_DS3505
ZBHH,2007-05-08 08:00,ZBHH 080800Z AUTO 35012G21KT 4SM 20/M02 A2977 RMK T02001020 IEM_DS3505
ZBHH,2007-05-08 09:00,ZBHH 080900Z AUTO 34010KT 9SM 19/M01 A2980 RMK SLP068 T01881011 52026 IEM_DS3505
ZBHH,2007-05-08 10:00,ZBHH 081000Z AUTO 01014KT 6SM 18/M03 A2983 RMK T01801030 IEM_DS3505
ZBHH,2007-05-08 11:00,ZBHH 081100Z AUTO 01016KT 7SM 16/M03 A2988 RMK T01601030 IEM_DS3505
ZBHH,2007-05-08 12:00,ZBHH 081200Z AUTO 02010KT 19SM 15/M03 A2991 RMK SLP102 T01491034 52033 IEM_DS3505
ZBHH,2007-05-08 13:00,ZBHH 081300Z AUTO 04014KT 6SM 13/M03 A2997 RMK T01301030 IEM_DS3505
ZBHH,2007-05-08 14:00,ZBHH 081400Z AUTO 03012KT 6SM 12/M03 A2997 RMK T01201030 IEM_DS3505
ZBHH,2007-05-08 15:00,ZBHH 081500Z AUTO 04006KT 19SM 12/M02 A3000 RMK SLP123 T01191023 52026 IEM_DS3505
ZBHH,2007-05-08 16:00,ZBHH 081600Z AUTO 03014KT 6SM 10/M02 A3003 RMK T01001020 IEM_DS3505
ZBHH,2007-05-08 17:00,ZBHH 081700Z AUTO 03010KT 6SM 10/M02 A3006 RMK T01001020 IEM_DS3505
ZBHH,2007-05-08 18:00,ZBHH 081800Z AUTO 07008KT 19SM 09/M01 A3006 RMK SLP155 T00941010 52017 IEM_DS3505
ZBHH,2007-05-08 19:00,ZBHH 081900Z AUTO 09006KT 6SM 06/M02 A3009 RMK T00601020 IEM_DS3505
ZBHH,2007-05-08 20:00,ZBHH 082000Z AUTO 09010KT 6SM 06/M05 A3009 RMK T00601050 IEM_DS3505
ZBHH,2007-05-08 21:00,ZBHH 082100Z AUTO 07004KT 19SM 07/M04 A3009 RMK SLP180 T00691045 52011 IEM_DS3505
ZBHH,2007-05-08 22:00,ZBHH 082200Z AUTO 03002KT 6SM 04/M04 A3009 RMK T00401040 IEM_DS3505
ZBHH,2007-05-08 23:00,ZBHH 082300Z AUTO 09008KT 6SM 08/M09 A3012 RMK T00801090 IEM_DS3505
ZBHH,2007-05-09 00:00,ZBHH 090000Z AUTO 09006KT 19SM 10/M08 A3015 RMK SLP204 T01041083 52020 IEM_DS3505
ZBHH,2007-05-09 01:00,ZBHH 090100Z AUTO 09006KT 6SM 12/M09 A3012 RMK T01201090 IEM_DS3505
ZBHH,2007-05-09 02:00,ZBHH 090200Z AUTO 10002KT 6SM 14/M10 A3012 RMK T01401100 IEM_DS3505
ZBHH,2007-05-09 03:00,ZBHH 090300Z AUTO 07004KT 19SM 16/M09 A3012 RMK SLP188 T01641087 57008 IEM_DS3505
ZBHH,2007-05-09 04:00,ZBHH 090400Z AUTO 09006KT 6SM 18/M10 A3009 RMK T01801100 IEM_DS3505
ZBHH,2007-05-09 05:00,ZBHH 090500Z AUTO 10008KT 6SM 20/M11 A3006 RMK T02001110 IEM_DS3505
ZBHH,2007-05-09 06:00,ZBHH 090600Z AUTO 16006G16KT 19SM 21/M09 A3003 RMK SLP147 T02131092 57032 IEM_DS3505
ZBHH,2007-05-09 07:00,ZBHH 090700Z AUTO 18006KT 6SM 22/M10 A3000 RMK T02201100 IEM_DS3505
ZBHH,2007-05-09 08:00,ZBHH 090800Z AUTO 18006KT 6SM 23/M10 A2997 RMK T02301100 IEM_DS3505
ZBHH,2007-05-09 09:00,ZBHH 090900Z AUTO 20008KT 19SM 23/M08 A2994 RMK SLP120 T02301079 57025 IEM_DS3505
ZBHH,2007-05-09 10:00,ZBHH 091000Z AUTO 26008KT 6SM 23/M07 A2991 RMK T02301070 IEM_DS3505
ZBHH,2007-05-09 11:00,ZBHH 091100Z AUTO 22002KT 6SM 22/M08 A2994 RMK T02201080 IEM_DS3505
ZBHH,2007-05-09 12:00,ZBHH 091200Z AUTO 09004KT 19SM 21/M08 A2994 RMK SLP110 T02091085 57006 IEM_DS3505
ZBHH,2007-05-09 13:00,ZBHH 091300Z AUTO 08004KT 6SM 18/M09 A2994 RMK T01801090 IEM_DS3505
ZBHH,2007-05-09 14:00,ZBHH 091400Z AUTO 05002KT 6SM 15/M08 A2994 RMK T01501080 IEM_DS3505
ZBHH,2007-05-09 15:00,ZBHH 091500Z AUTO 36002KT 19SM 15/M05 A2994 RMK SLP115 T01491049 52004 IEM_DS3505
ZBHH,2007-05-09 16:00,ZBHH 091600Z AUTO 07004KT 6SM 13/M08 A2994 RMK T01301080 IEM_DS3505
ZBHH,2007-05-09 17:00,ZBHH 091700Z AUTO 10006KT 6SM 11/M09 A2994 RMK T01101090 IEM_DS3505
ZBHH,2007-05-09 18:00,ZBHH 091800Z AUTO 09006KT 19SM 12/M05 A2991 RMK SLP100 T01251050 57008 IEM_DS3505
ZBHH,2007-05-09 19:00,ZBHH 091900Z AUTO 09006KT 11/M08 A2991 RMK T01101080 IEM_DS3505
ZBHH,2007-05-09 20:00,ZBHH 092000Z AUTO 09004KT 6SM 11/M08 A2991 RMK T01101080 IEM_DS3505
ZBHH,2007-05-09 21:00,ZBHH 092100Z AUTO 04002KT 19SM 11/M05 A2991 RMK SLP096 T01131052 57003 IEM_DS3505
ZBHH,2007-05-09 22:00,ZBHH 092200Z AUTO 06004KT 6SM 12/M06 A2991 RMK T01201060 IEM_DS3505
ZBHH,2007-05-09 23:00,ZBHH 092300Z AUTO 01002KT 6SM 13/M05 A2991 RMK T01301050 IEM_DS3505
ZBHH,2007-05-10 00:00,ZBHH 100000Z AUTO 09004KT 16SM 17/M03 A2991 RMK SLP090 T01681033 52001 IEM_DS3505
ZBHH,2007-05-10 01:00,ZBHH 100100Z AUTO 18002KT 6SM 20/M02 A2988 RMK T02001020 IEM_DS3505
ZBHH,2007-05-10 02:00,ZBHH 100200Z AUTO 22012KT 5SM 20/00 A2985 RMK T02000000 IEM_DS3505
ZBHH,2007-05-10 03:00,ZBHH 100300Z AUTO 22006KT 12SM 21/01 A2983 RMK SLP068 T02140011 57022 IEM_DS3505
ZBHH,2007-05-10 04:00,ZBHH 100400Z AUTO 25014KT 4SM 23/03 A2983 RMK T02300030 IEM_DS3505
ZBHH,2007-05-10 06:00,ZBHH 100600Z AUTO 22008KT 7SM 22/06 A2977 RMK SLP048 T02250063 57020 IEM_DS3505
ZBHH,2007-05-10 07:00,ZBHH 100700Z AUTO 26014G23KT 3SM 22/08 A2977 RMK T02200080 IEM_DS3505
ZBHH,2007-05-10 08:00,ZBHH 100800Z AUTO 25006KT 3SM 18/11 A2980 RMK T01800110 IEM_DS3505
ZBHH,2007-05-10 09:00,ZBHH 100900Z AUTO 34004KT 2SM 15/09 A2985 RMK SLP088 T01510088 52019 IEM_DS3505
ZBHH,2007-05-10 10:00,ZBHH 101000Z AUTO 25004KT 1 1/4SM 13/10 A2988 RMK T01300100 IEM_DS3505
ZBHH,2007-05-10 11:00,ZBHH 101100Z AUTO 18004KT 1SM 12/11 A2991 RMK T01200110 IEM_DS3505
ZBHH,2007-05-10 12:00,ZBHH 101200Z AUTO 20004KT 3SM 12/10 A2991 RMK 60028 SLP114 T01210103 52028 IEM_DS3505
ZBHH,2007-05-10 13:00,ZBHH 101300Z AUTO 23004KT 1SM 11/10 A2994 RMK T01100100 IEM_DS3505
ZBHH,2007-05-10 14:00,ZBHH 101400Z AUTO 26006KT 1SM 11/10 A2994 RMK T01100100 IEM_DS3505
ZBHH,2007-05-10 15:00,ZBHH 101500Z AUTO 22006KT 6SM 12/10 A2994 RMK SLP113 T01170096 52007 IEM_DS3505
ZBHH,2007-05-10 16:00,ZBHH 101600Z AUTO 19002KT 1SM 11/10 A2994 RMK T01100100 IEM_DS3505
ZBHH,2007-05-10 17:00,ZBHH 101700Z AUTO 15002KT 1 1/4SM 11/10 A2994 RMK T01100100 IEM_DS3505
ZBHH,2007-05-10 18:00,ZBHH 101800Z AUTO 11002KT 6SM 12/10 RMK 60004 SLP110 T01160099 57001 IEM_DS3505
ZBHH,2007-05-10 19:00,ZBHH 101900Z AUTO 18002KT 1 1/4SM 10/09 A2994 RMK T01000090 IEM_DS3505
ZBHH,2007-05-10 20:00,ZBHH 102000Z AUTO 18002KT 1 1/4SM 10/09 A2994 RMK T01000090 IEM_DS3505
ZBHH,2007-05-10 21:00,ZBHH 102100Z AUTO 27002KT 6SM 11/09 A2994 RMK 70033 SLP130 T01080091 52002 IEM_DS3505
ZBHH,2007-05-10 22:00,ZBHH 102200Z AUTO 14002KT 2 1/2SM 09/08 A2997 RMK T00900080 IEM_DS3505
ZBHH,2007-05-10 23:00,ZBHH 102300Z AUTO 16002KT 2 1/2SM 10/08 A2997 RMK T01000080 IEM_DS3505
ZBHH,2007-05-11 00:00,ZBHH 110000Z AUTO 25002KT 5SM 12/09 A2997 RMK 70033 SLP146 T01180090 52010 IEM_DS3505
ZBHH,2007-05-11 01:00,ZBHH 110100Z AUTO 24002KT 1 1/2SM 12/09 A2997 RMK T01200090 IEM_DS3505
ZBHH,2007-05-11 02:00,ZBHH 110200Z AUTO 20002KT 3SM 14/06 A2997 RMK T01400060 IEM_DS3505
ZBHH,2007-05-11 03:00,ZBHH 110300Z AUTO 32010KT 19SM 17/ A2994 RMK SLP125 57008 IEM_DS3505
ZBHH,2007-05-11 04:00,ZBHH 110400Z AUTO 28014KT 6SM 17/M09 A2994 RMK T01701090 IEM_DS3505
ZBHH,2007-05-11 05:00,ZBHH 110500Z AUTO 31017G29KT 6SM 18/M10 A2994 RMK T01801100 IEM_DS3505
ZBHH,2007-05-11 06:00,ZBHH 110600Z AUTO 29010KT 19SM 19/M11 A2994 RMK SLP118 T01871113 57004 IEM_DS3505
ZBHH,2007-05-11 07:00,ZBHH 110700Z AUTO 32023G41KT 3SM 16/M12 A2994 RMK T01601120 IEM_DS3505
ZBHH,2007-05-11 08:00,ZBHH 110800Z AUTO 32023KT 4SM 15/M05 A2997 RMK T01501050 IEM_DS3505
ZBHH,2007-05-11 09:00,ZBHH 110900Z AUTO 32010KT 12SM 15/M07 A3000 RMK SLP153 T01531069 52023 IEM_DS3505
ZBHH,2007-05-11 10:00,ZBHH 111000Z AUTO 32016G27KT 7SM 14/M06 A3003 RMK T01401060 IEM_DS3505
ZBHH,2007-05-11 11:00,ZBHH 111100Z AUTO 33016G27KT 7SM 13/M06 A3006 RMK T01301060 IEM_DS3505
ZBHH,2007-05-11 12:00,ZBHH 111200Z AUTO 29008KT 12SM 13/M07 A3009 RMK SLP181 T01271073 52021 IEM_DS3505
ZBHH,2007-05-11 13:00,ZBHH 111300Z AUTO 33012G21KT 7SM 12/M08 A3009 RMK T01201080 IEM_DS3505
ZBHH,2007-05-11 14:00,ZBHH 111400Z AUTO 34010KT 6SM 11/M05 A3012 RMK T01101050 IEM_DS3505
ZBHH,2007-05-11 15:00,ZBHH 111500Z AUTO 30010KT 12SM 10/M06 A3012 RMK SLP189 T01051059 52014 IEM_DS3505
ZBHH,2007-05-11 16:00,ZBHH 111600Z AUTO 28008KT 6SM 09/M07 A3012 RMK T00901070 IEM_DS3505
ZBHH,2007-05-11 17:00,ZBHH 111700Z AUTO 30004KT 6SM 08/M08 A3012 RMK T00801080 IEM_DS3505
ZBHH,2007-05-11 18:00,ZBHH 111800Z AUTO 27004KT 19SM 08/M08 A3009 RMK SLP176 T00781079 57014 IEM_DS3505
ZBHH,2007-05-11 19:00,ZBHH 111900Z AUTO 00000KT 6SM 05/M05 A3009 RMK T00501050 IEM_DS3505
ZBHH,2007-05-11 20:00,ZBHH 112000Z AUTO 13002KT 6SM 04/M03 A3006 RMK T00401030 IEM_DS3505
ZBHH,2007-05-11 21:00,ZBHH 112100Z AUTO 12004KT 19SM 06/M06 A3006 RMK SLP179 T00551064 57009 IEM_DS3505
ZBHH,2007-05-11 22:00,ZBHH 112200Z AUTO 12006KT 6SM 02/M03 A3006 RMK T00201030 IEM_DS3505
ZBHH,2007-05-11 23:00,ZBHH 112300Z AUTO 16004KT 6SM 04/M03 A3009 RMK T00401030 IEM_DS3505
ZBHH,2007-05-12 00:00,ZBHH 120000Z AUTO 20004KT 19SM 10/M06 A3009 RMK SLP186 T01041060 52011 IEM_DS3505
ZBHH,2007-05-12 01:00,ZBHH 120100Z AUTO 19006KT 6SM 11/M04 A3009 RMK T01101040 IEM_DS3505
ZBHH,2007-05-12 02:00,ZBHH 120200Z AUTO 35008KT 6SM 16/M10 A3009 RMK T01601100 IEM_DS3505
ZBHH,2007-05-12 03:00,ZBHH 120300Z AUTO 29010G23KT 19SM 17/M11 A3009 RMK SLP175 T01701107 57001 IEM_DS3505
ZBHH,2007-05-12 04:00,ZBHH 120400Z AUTO 30012G21KT 6SM 18/M10 A3006 RMK T01801100 IEM_DS3505
ZBHH,2007-05-12 05:00,ZBHH 120500Z AUTO 30017G29KT 6SM 19/M10 A3003 RMK T01901100 IEM_DS3505
ZBHH,2007-05-12 06:00,ZBHH 120600Z AUTO 27008G25KT 19SM 22/M10 A2997 RMK SLP133 T02181100 57033 IEM_DS3505
ZBHH,2007-05-12 07:00,ZBHH 120700Z AUTO 30019G29KT 6SM 22/M11 A2994 RMK T02201110 IEM_DS3505
ZBHH,2007-05-12 08:00,ZBHH 120800Z AUTO 28017G27KT 6SM 22/M11 A2994 RMK T02201110 IEM_DS3505
ZBHH,2007-05-12 09:00,ZBHH 120900Z AUTO 27008G27KT 19SM 23/M15 A2991 RMK SLP113 T02291147 57020 IEM_DS3505
ZBHH,2007-05-12 10:00,ZBHH 121000Z AUTO 32016G25KT 6SM 22/M15 A2991 RMK T02201150 IEM_DS3505
ZBHH,2007-05-12 11:00,ZBHH 121100Z AUTO 32012G21KT 6SM 21/M15 A2991 RMK T02101150 IEM_DS3505
ZBHH,2007-05-12 12:00,ZBHH 121200Z AUTO 27004KT 19SM 19/M11 A2991 RMK SLP114 T01921109 52003 IEM_DS3505
ZBHH,2007-05-12 13:00,ZBHH 121300Z AUTO 23006KT 6SM 17/M10 A2994 RMK T01701100 IEM_DS3505
ZBHH,2007-05-12 14:00,ZBHH 121400Z AUTO 24004KT 6SM 15/M08 A2994 RMK T01501080 IEM_DS3505
ZBHH,2007-05-12 15:00,ZBHH 121500Z AUTO 25002KT 19SM 15/M09 A2991 RMK SLP106 T01531089 57002 IEM_DS3505
ZBHH,2007-05-12 16:00,ZBHH 121600Z AUTO 09006KT 6SM 11/M04 A2991 RMK T01101040 IEM_DS3505
ZBHH,2007-05-12 17:00,ZBHH 121700Z AUTO 10006KT 6SM 09/M03 A2991 RMK T00901030 IEM_DS3505
ZBHH,2007-05-12 18:00,ZBHH 121800Z AUTO 07004KT 19SM 11/M05 A2988 RMK SLP096 T01091051 57008 IEM_DS3505
ZBHH,2007-05-12 19:00,ZBHH 121900Z AUTO 07004KT 6SM 09/M04 A2988 RMK T00901040 IEM_DS3505
ZBHH,2007-05-12 20:00,ZBHH 122000Z AUTO 12004KT 6SM 08/M05 A2985 RMK T00801050 IEM_DS3505
ZBHH,2007-05-12 21:00,ZBHH 122100Z AUTO 09004KT 19SM 09/M06 A2985 RMK SLP087 T00901060 57009 IEM_DS3505
ZBHH,2007-05-12 22:00,ZBHH 122200Z AUTO 09006KT 6SM 07/M05 A2988 RMK T00701050 IEM_DS3505
ZBHH,2007-05-12 23:00,ZBHH 122300Z AUTO 13004KT 6SM 10/M07 A2988 RMK T01001070 IEM_DS3505
ZBHH,2007-05-13 00:00,ZBHH 130000Z AUTO 11004KT 19SM 13/M06 A2988 RMK SLP090 T01311065 52003 IEM_DS3505
ZBHH,2007-05-13 01:00,ZBHH 130100Z AUTO 18006KT 6SM 13/M08 A2988 RMK T01301080 IEM_DS3505
ZBHH,2007-05-13 02:00,ZBHH 130200Z AUTO 6SM 17/M07 A2985 RMK T01701070 IEM_DS3505
ZBHH,2007-05-13 03:00,ZBHH 130300Z AUTO 11004KT 19SM 19/M06 A2985 RMK SLP076 T01861055 57009 IEM_DS3505
ZBHH,2007-05-13 04:00,ZBHH 130400Z AUTO 27002KT 6SM 20/M08 A2983 RMK T02001080 IEM_DS3505
ZBHH,2007-05-13 05:00,ZBHH 130500Z AUTO 27004KT 6SM 22/M07 A2980 RMK T02201070 IEM_DS3505
ZBHH,2007-05-13 06:00,ZBHH 130600Z AUTO 22004KT 19SM 25/M08 A2980 RMK SLP048 T02501075 57021 IEM_DS3505
ZBHH,2007-05-13 07:00,ZBHH 130700Z AUTO 13004KT 6SM 25/M08 A2977 RMK T02501080 IEM_DS3505
ZBHH,2007-05-13 08:00,ZBHH 130800Z AUTO 36012G21KT 7SM 26/M10 A2977 RMK T02601100 IEM_DS3505
ZBHH,2007-05-13 09:00,ZBHH 130900Z AUTO 32006G19KT 19SM 26/M11 A2977 RMK SLP047 T02601108 57003 IEM_DS3505
ZBHH,2007-05-13 10:00,ZBHH 131000Z AUTO 36010KT 6SM 25/M10 A2980 RMK T02501100 IEM_DS3505
ZBHH,2007-05-13 11:00,ZBHH 131100Z AUTO 36008KT 6SM 23/M10 A2983 RMK T02301100 IEM_DS3505
ZBHH,2007-05-13 12:00,ZBHH 131200Z AUTO 02004KT 19SM 22/M09 A2983 RMK SLP066 T02171089 52017 IEM_DS3505
ZBHH,2007-05-13 13:00,ZBHH 131300Z AUTO 04004KT 6SM 19/M07 A2985 RMK T01901070 IEM_DS3505
ZBHH,2007-05-13 14:00,ZBHH 131400Z AUTO 07004KT 6SM 18/M07 A2988 RMK T01801070 IEM_DS3505
ZBHH,2007-05-13 15:00,ZBHH 131500Z AUTO 07002KT 19SM 17/M07 A2988 RMK SLP086 T01691069 52019 IEM_DS3505
ZBHH,2007-05-13 16:00,ZBHH 131600Z AUTO 06002KT 6SM 14/M05 A2988 RMK T01401050 IEM_DS3505
ZBHH,2007-05-13 17:00,ZBHH 131700Z AUTO 03004KT 6SM 12/M04 A2988 RMK T01201040 IEM_DS3505
ZBHH,2007-05-13 18:00,ZBHH 131800Z AUTO 04002KT 19SM 13/M05 A2988 RMK SLP077 T01291052 57004 IEM_DS3505
ZBHH,2007-05-13 19:00,ZBHH 131900Z AUTO 08006KT 6SM 09/M04 A2988 RMK T00901040 IEM_DS3505
ZBHH,2007-05-13 20:00,ZBHH 132000Z AUTO 08004KT 6SM 09/M03 A2988 RMK T00901030 IEM_DS3505
ZBHH,2007-05-13 21:00,ZBHH 132100Z AUTO 11002KT 19SM 09/M04 A2988 RMK SLP086 T00931039 52003 IEM_DS3505
ZBHH,2007-05-13 22:00,ZBHH 132200Z AUTO 08004KT 6SM 09/M04 A2991 RMK T00901040 IEM_DS3505
ZBHH,2007-05-13 23:00,ZBHH 132300Z AUTO 10004KT 6SM 12/M04 A2991 RMK T01201040 IEM_DS3505
ZBHH,2007-05-14 00:00,ZBHH 140000Z AUTO 07002KT 19SM 17/M03 A2991 RMK SLP091 T01671034 52010 IEM_DS3505
ZBHH,2007-05-14 01:00,ZBHH 140100Z AUTO 04002KT 6SM 19/M04 A2991 RMK T01901040 IEM_DS3505
ZBHH,2007-05-14 02:00,ZBHH 140200Z AUTO 26004KT 6SM 21/M06 A2988 RMK T02101060 IEM_DS3505
ZBHH,2007-05-14 03:00,ZBHH 140300Z AUTO 16004KT 19SM 23/M03 A2988 RMK SLP075 T02281027 57011 IEM_DS3505
ZBHH,2007-05-14 04:00,ZBHH 140400Z AUTO 24006KT 6SM 24/M06 A2985 RMK T02401060 IEM_DS3505
ZBHH,2007-05-14 05:00,ZBHH 140500Z AUTO 25008KT 6SM 26/M06 A2983 RMK T02601060 IEM_DS3505
ZBHH,2007-05-14 06:00,ZBHH 140600Z AUTO 22012KT 19SM 27/M08 A2980 RMK SLP044 T02711085 57027 IEM_DS3505
ZBHH,2007-05-14 07:00,ZBHH 140700Z AUTO 25016KT 6SM 28/M07 A2977 RMK T02801070 IEM_DS3505
ZBHH,2007-05-14 08:00,ZBHH 140800Z AUTO 26016KT 7SM 29/M06 A2974 RMK T02901060 IEM_DS3505
ZBHH,2007-05-14 09:00,ZBHH 140900Z AUTO 25006KT 16SM 28/M06 A2971 RMK SLP023 T02831062 57023 IEM_DS3505
ZBHH,2007-05-14 10:00,ZBHH 141000Z AUTO 24006KT 7SM 28/M05 A2971 RMK T02801050 IEM_DS3505
ZBHH,2007-05-14 11:00,ZBHH 141100Z AUTO 20002KT 7SM 27/M04 A2971 RMK T02701040 IEM_DS3505
ZBHH,2007-05-14 12:00,ZBHH 141200Z AUTO 25004KT 16SM 26/M05 A2971 RMK SLP010 T02651052 57001 IEM_DS3505
ZBHH,2007-05-14 13:00,ZBHH 141300Z AUTO 00000KT 7SM 25/M03 A2974 RMK T02501030 IEM_DS3505
ZBHH,2007-05-14 14:00,ZBHH 141400Z AUTO 00000KT 7SM 23/M02 A2974 RMK T02301020 IEM_DS3505
ZBHH,2007-05-14 15:00,ZBHH 141500Z AUTO 36002KT 12SM 22/M02 A2974 RMK SLP012 T02251016 52005 IEM_DS3505
ZBHH,2007-05-14 16:00,ZBHH 141600Z AUTO 07004KT 7SM 21/M01 A2971 RMK T02101010 IEM_DS3505
ZBHH,2007-05-14 17:00,ZBHH 141700Z AUTO 08002KT 7SM 20/M02 A2971 RMK T02001020 IEM_DS3505
ZBHH,2007-05-14 18:00,ZBHH 141800Z AUTO 04004KT 19SM 22/M05 A2971 RMK SLP996 T02251054 57006 IEM_DS3505
ZBHH,2007-05-14 19:00,ZBHH 141900Z AUTO 05004KT 7SM 19/M03 A2971 RMK T01901030 IEM_DS3505
ZBHH,2007-05-14 20:00,ZBHH 142000Z AUTO 07006KT 7SM 18/M02 A2968 RMK T01801020 IEM_DS3505
ZBHH,2007-05-14 21:00,ZBHH 142100Z AUTO 07004KT 19SM 19/M04 A2968 RMK SLP994 T01931036 57006 IEM_DS3505
ZBHH,2007-05-14 22:00,ZBHH 142200Z AUTO 17002KT 6SM 16/M01 A2971 RMK T01601010 IEM_DS3505
ZBHH,2007-05-14 23:00,ZBHH 142300Z AUTO 11002KT 7SM 17/M01 A2971 RMK T01701010 IEM_DS3505
ZBHH,2007-05-15 00:00,ZBHH 150000Z AUTO 02004KT 19SM 20/00 A2974 RMK SLP013 T01980003 52015 IEM_DS3505
ZBHH,2007-05-15 01:00,ZBHH 150100Z AUTO 34008KT 7SM 20/00 A2974 RMK T02000000 IEM_DS3505
ZBHH,2007-05-15 02:00,ZBHH 150200Z AUTO 14006KT 7SM 20/00 A2974 RMK T02000000 IEM_DS3505
ZBHH,2007-05-15 03:00,ZBHH 150300Z AUTO 22004KT 12SM 22/M02 A2971 RMK SLP008 T02231024 57007 IEM_DS3505
ZBHH,2007-05-15 04:00,ZBHH 150400Z AUTO 24012KT 7SM 22/M03 A2971 RMK T02201030 IEM_DS3505
ZBHH,2007-05-15 05:00,ZBHH 150500Z AUTO 27016G27KT 3SM 24/M06 A2968 RMK T02401060 IEM_DS3505
ZBHH,2007-05-15 06:00,ZBHH 150600Z AUTO 29014KT 6SM 22/M07 A2968 RMK SLP992 T02231074 57014 IEM_DS3505
ZBHH,2007-05-15 07:00,ZBHH 150700Z AUTO 30021G31KT 2 1/2SM 22/M07 A2965 RMK T02201070 IEM_DS3505
ZBHH,2007-05-15 08:00,ZBHH 150800Z AUTO 30023KT 3SM 21/M08 A2965 RMK T02101080 IEM_DS3505
ZBHH,2007-05-15 09:00,ZBHH 150900Z AUTO 29016G39KT 5SM 19/M03 A2971 RMK SLP022 T01871028 52014 IEM_DS3505
ZBHH,2007-05-15 10:00,ZBHH 151000Z AUTO 31017G27KT 1SM 18/M03 A2974 RMK T01801030 IEM_DS3505
ZBHH,2007-05-15 11:00,ZBHH 151100Z AUTO 30010KT 7SM 17/M03 A2974 RMK T01701030 IEM_DS3505
ZBHH,2007-05-15 12:00,ZBHH 151200Z AUTO 32014G27KT 12SM 16/M00 A2977 RMK SLP048 T01561002 52018 IEM_DS3505
ZBHH,2007-05-15 13:00,ZBHH 151300Z AUTO 34010G19KT 7SM 13/04 A2983 RMK T01300040 IEM_DS3505
ZBHH,2007-05-15 14:00,ZBHH 151400Z AUTO 35014G23KT 7SM 11/04 A2985 RMK T01100040 IEM_DS3505
ZBHH,2007-05-15 15:00,ZBHH 151500Z AUTO 32010KT 19SM 10/03 A2985 RMK SLP093 T01050031 52035 IEM_DS3505
ZBHH,2007-05-15 16:00,ZBHH 151600Z AUTO 33017G29KT 7SM 09/02 A2988 RMK T00900020 IEM_DS3505
ZBHH,2007-05-15 17:00,ZBHH 151700Z AUTO 20004KT 7SM 09/02 A2991 RMK T00900020 IEM_DS3505
ZBHH,2007-05-15 18:00,ZBHH 151800Z AUTO 32010G25KT 19SM 10/03 A2988 RMK SLP101 T01020030 52006 IEM_DS3505
ZBHH,2007-05-15 19:00,ZBHH 151900Z AUTO 01010KT 7SM 09/03 A2988 RMK T00900030 IEM_DS3505
ZBHH,2007-05-15 20:00,ZBHH 152000Z AUTO 01004KT 7SM 08/03 A2991 RMK T00800030 IEM_DS3505
ZBHH,2007-05-15 21:00,ZBHH 152100Z AUTO 18006KT 19SM 10/03 A2988 RMK SLP103 T01000026 57005 IEM_DS3505
ZBHH,2007-05-15 22:00,ZBHH 152200Z AUTO 15004KT 6SM 07/03 A2991 RMK T00700030 IEM_DS3505
ZBHH,2007-05-15 23:00,ZBHH 152300Z AUTO 16004KT 6SM 09/03 A2991 RMK T00900030 IEM_DS3505
ZBHH,2007-05-16 00:00,ZBHH 160000Z AUTO 22008KT 19SM 12/03 A2991 RMK SLP116 T01160026 52008 IEM_DS3505
ZBHH,2007-05-16 01:00,ZBHH 160100Z AUTO 24006KT 6SM 12/03 A2991 RMK T01200030 IEM_DS3505
ZBHH,2007-05-16 02:00,ZBHH 160200Z AUTO 23004KT 6SM 15/01 A2988 RMK T01500010 IEM_DS3505
ZBHH,2007-05-16 03:00,ZBHH 160300Z AUTO 20008KT 12SM 19/M00 A2988 RMK SLP092 T01871002 57017 IEM_DS3505
ZBHH,2007-05-16 04:00,ZBHH 160400Z AUTO 25006KT 7SM 19/M01 A2983 RMK T01901010 IEM_DS3505
ZBHH,2007-05-16 05:00,ZBHH 160500Z AUTO 25010G19KT 7SM 20/M03 A2977 RMK T02001030 IEM_DS3505
ZBHH,2007-05-16 06:00,ZBHH 160600Z AUTO 20010KT 12SM 21/M03 A2974 RMK SLP042 T02081030 57041 IEM_DS3505
ZBHH,2007-05-16 07:00,ZBHH 160700Z AUTO 25014KT 7SM 21/M04 A2968 RMK T02101040 IEM_DS3505
ZBHH,2007-05-16 08:00,ZBHH 160800Z AUTO 35014G27KT 4SM 22/M05 A2965 RMK T02201050 IEM_DS3505
ZBHH,2007-05-16 09:00,ZBHH 160900Z AUTO 29014G29KT 9SM 24/M06 A2962 RMK SLP000 T02411060 57031 IEM_DS3505
ZBHH,2007-05-16 10:00,ZBHH 161000Z AUTO 31017G27KT 7SM 23/M05 A2962 RMK T02301050 IEM_DS3505
ZBHH,2007-05-16 11:00,ZBHH 161100Z AUTO 34016G27KT 7SM 23/M06 A2965 RMK T02301060 IEM_DS3505
ZBHH,2007-05-16 12:00,ZBHH 161200Z AUTO 32012G23KT 19SM 22/M06 A2965 RMK SLP013 T02211057 52011 IEM_DS3505
ZBHH,2007-05-16 13:00,ZBHH 161300Z AUTO 36010G19KT 4SM 20/M08 A2971 RMK T02001080 IEM_DS3505
ZBHH,2007-05-16 14:00,ZBHH 161400Z AUTO 35016G27KT 1 1/2SM 18/M11 A2974 RMK T01801110 IEM_DS3505
ZBHH,2007-05-16 15:00,ZBHH 161500Z AUTO 32006G23KT 5SM 17/M09 A2977 RMK SLP048 T01671092 52034 IEM_DS3505
ZBHH,2007-05-16 16:00,ZBHH 161600Z AUTO 35004KT 4SM 15/M09 A2980 RMK T01501090 IEM_DS3505
ZBHH,2007-05-16 17:00,ZBHH 161700Z AUTO 36004KT 14/M08 A2977 RMK T01401080 IEM_DS3505
ZBHH,2007-05-16 18:00,ZBHH 161800Z AUTO 29006KT 19SM 14/M06 A2977 RMK SLP050 T01441065 52001 IEM_DS3505
ZBHH,2007-05-16 19:00,ZBHH 161900Z AUTO 04004KT 4SM 13/M05 A2980 RMK T01301050 IEM_DS3505
ZBHH,2007-05-16 21:00,ZBHH 162100Z AUTO 04006KT 19SM 11/M00 A2983 RMK SLP064 T01141004 52013 IEM_DS3505
ZBHH,2007-05-16 22:00,ZBHH 162200Z AUTO 02004KT 6SM 10/M01 A2983 RMK T01001010 IEM_DS3505
ZBHH,2007-05-16 23:00,ZBHH 162300Z AUTO 06006KT 6SM 10/M01 A2983 RMK T01001010 IEM_DS3505
ZBHH,2007-05-17 00:00,ZBHH 170000Z AUTO 27006KT 19SM 14/M04 A2983 RMK SLP068 T01381035 52004 IEM_DS3505
ZBHH,2007-05-17 01:00,ZBHH 170100Z AUTO 33012G23KT 6SM 14/M03 A2985 RMK T01401030 IEM_DS3505
ZBHH,2007-05-17 02:00,ZBHH 170200Z AUTO 36014G25KT 7SM 15/M03 A2988 RMK T01501030 IEM_DS3505
ZBHH,2007-05-17 03:00,ZBHH 170300Z AUTO 32010G39KT 19SM 16/M04 A2988 RMK SLP083 T01641037 52008 IEM_DS3505
ZBHH,2007-05-17 04:00,ZBHH 170400Z AUTO 36019G31KT 7SM 16/M08 A2988 RMK T01601080 IEM_DS3505
ZBHH,2007-05-17 05:00,ZBHH 170500Z AUTO 35019G33KT 7SM 17/M08 A2988 RMK T01701080 IEM_DS3505
ZBHH,2007-05-17 06:00,ZBHH 170600Z AUTO 32012G33KT 19SM 18/M09 A2985 RMK SLP084 T01781092 54000 IEM_DS3505
ZBHH,2007-05-17 07:00,ZBHH 170700Z AUTO 36016G25KT 6SM 17/M10 A2985 RMK T01701100 IEM_DS3505
ZBHH,2007-05-17 08:00,ZBHH 170800Z AUTO 35016G29KT 6SM 18/M11 A2983 RMK T01801110 IEM_DS3505
ZBHH,2007-05-17 09:00,ZBHH 170900Z AUTO 36012G27KT 19SM 19/M12 A2985 RMK SLP084 T01901121 57004 IEM_DS3505
ZBHH,2007-05-17 10:00,ZBHH 171000Z AUTO 36012G21KT 6SM 17/M11 A2985 RMK T01701110 IEM_DS3505
ZBHH,2007-05-17 11:00,ZBHH 171100Z AUTO 36012G25KT 6SM 16/M12 A2988 RMK T01601120 IEM_DS3505
ZBHH,2007-05-17 12:00,ZBHH 171200Z AUTO 04008KT 19SM 15/M11 A2991 RMK SLP108 T01521113 52019 IEM_DS3505
ZBHH,2007-05-17 13:00,ZBHH 171300Z AUTO 05008G17KT 6SM 14/M10 A2994 RMK T01401100 IEM_DS3505
ZBHH,2007-05-17 14:00,ZBHH 171400Z AUTO 17002KT 6SM 12/M09 A2994 RMK T01201090 IEM_DS3505
ZBHH,2007-05-17 15:00,ZBHH 171500Z AUTO 09006KT 19SM 13/M11 A2997 RMK SLP127 T01301108 52017 IEM_DS3505
ZBHH,2007-05-17 16:00,ZBHH 171600Z AUTO 03002KT 6SM 11/M11 A2997 RMK T01101110 IEM_DS3505
ZBHH,2007-05-17 17:00,ZBHH 171700Z AUTO 01004KT 6SM 09/M11 A2997 RMK T00901110 IEM_DS3505
ZBHH,2007-05-17 18:00,ZBHH 171800Z AUTO 02002KT 19SM 10/M11 A2994 RMK SLP130 T00981109 57001 IEM_DS3505
ZBHH,2007-05-17 19:00,ZBHH 171900Z AUTO 09004KT 6SM 05/M11 A2997 RMK T00501110 IEM_DS3505
ZBHH,2007-05-17 20:00,ZBHH 172000Z AUTO 00000KT 6SM 04/M10 A2997 RMK T00401100 IEM_DS3505
ZBHH,2007-05-17 21:00,ZBHH 172100Z AUTO 07002KT 19SM 06/M09 A2997 RMK SLP138 T00651090 52003 IEM_DS3505
ZBHH,2007-05-17 22:00,ZBHH 172200Z AUTO 09004KT 6SM 04/M10 A2997 RMK T00401100 IEM_DS3505
ZBHH,2007-05-17 23:00,ZBHH 172300Z AUTO 10006KT 6SM 06/M09 A3000 RMK T00601090 IEM_DS3505
ZBHH,2007-05-18 00:00,ZBHH 180000Z AUTO 11004KT 19SM 11/M09 A3000 RMK SLP150 T01141090 52013 IEM_DS3505
ZBHH,2007-05-18 01:00,ZBHH 180100Z AUTO 35010KT 6SM 14/M12 A3000 RMK T01401120 IEM_DS3505
ZBHH,2007-05-18 02:00,ZBHH 180200Z AUTO 33008KT 6SM 15/M12 A3000 RMK T01501120 IEM_DS3505
ZBHH,2007-05-18 03:00,ZBHH 180300Z AUTO 11004KT 19SM 18/M11 A3000 RMK SLP132 T01801108 57007 IEM_DS3505
ZBHH,2007-05-18 04:00,ZBHH 180400Z AUTO 36008KT 6SM 19/M13 A2997 RMK T01901130 IEM_DS3505
ZBHH,2007-05-18 05:00,ZBHH 180500Z AUTO 33010G19KT 6SM 20/M14 A2994 RMK T02001140 IEM_DS3505
ZBHH,2007-05-18 06:00,ZBHH 180600Z AUTO 02006G19KT 19SM 23/M13 A2994 RMK SLP111 T02271132 57016 IEM_DS3505
ZBHH,2007-05-18 07:00,ZBHH 180700Z AUTO 32010KT 6SM 22/M16 A2991 RMK T02201160 IEM_DS3505
ZBHH,2007-05-18 08:00,ZBHH 180800Z AUTO 02006KT 6SM 22/M16 A2988 RMK T02201160 IEM_DS3505
ZBHH,2007-05-18 09:00,ZBHH 180900Z AUTO 04004KT 19SM 24/M16 A2988 RMK SLP094 T02371160 57019 IEM_DS3505
ZBHH,2007-05-18 10:00,ZBHH 181000Z AUTO 26006KT 6SM 23/M17 A2988 RMK T02301170 IEM_DS3505
ZBHH,2007-05-18 11:00,ZBHH 181100Z AUTO 24008KT 6SM 21/M10 A2988 RMK T02101100 IEM_DS3505
ZBHH,2007-05-18 12:00,ZBHH 181200Z AUTO 22004KT 19SM 20/M09 A2988 RMK SLP091 T02021091 54000 IEM_DS3505
ZBHH,2007-05-18 13:00,ZBHH 181300Z AUTO 06004KT 6SM 17/M09 A2988 RMK T01701090 IEM_DS3505
ZBHH,2007-05-18 14:00,ZBHH 181400Z AUTO 10004KT 6SM 15/M09 A2991 RMK T01501090 IEM_DS3505
ZBHH,2007-05-18 15:00,ZBHH 181500Z AUTO 09004KT 19SM 16/M11 A2988 RMK SLP093 T01611114 52006 IEM_DS3505
ZBHH,2007-05-18 16:00,ZBHH 181600Z AUTO 04004KT 6SM 12/M09 A2988 RMK T01201090 IEM_DS3505
ZBHH,2007-05-18 17:00,ZBHH 181700Z AUTO 00000KT 6SM 11/M10 A2991 RMK T01101100 IEM_DS3505
ZBHH,2007-05-18 18:00,ZBHH 181800Z AUTO 07002KT 19SM 12/M09 A2988 RMK SLP092 T01201091 54000 IEM_DS3505
ZBHH,2007-05-18 20:00,ZBHH 182000Z AUTO 06002KT 6SM 10/M10 A2988 RMK T01001100 IEM_DS3505
ZBHH,2007-05-18 21:00,ZBHH 182100Z AUTO 09004KT 19SM 10/M08 A2988 RMK SLP088 T01011080 57005 IEM_DS3505
ZBHH,2007-05-18 22:00,ZBHH 182200Z AUTO 08004KT 6SM 10/M10 A2988 RMK T01001100 IEM_DS3505
ZBHH,2007-05-18 23:00,ZBHH 182300Z AUTO 10004KT 6SM 11/M09 A2988 RMK T01101090 IEM_DS3505
ZBHH,2007-05-19 00:00,ZBHH 190000Z AUTO 11002KT 19SM 17/M08 A2988 RMK SLP083 T01661085 52001 IEM_DS3505
ZBHH,2007-05-19 01:00,ZBHH 190100Z AUTO 07002KT 6SM 18/M11 A2985 RMK T01801110 IEM_DS3505
ZBHH,2007-05-19 02:00,ZBHH 190200Z AUTO 21002KT 6SM 20/M11 A2985 RMK T02001110 IEM_DS3505
ZBHH,2007-05-19 03:00,ZBHH 190300Z AUTO 20002KT 19SM 21/M09 A2983 RMK SLP061 T02131092 57018 IEM_DS3505
ZBHH,2007-05-19 04:00,ZBHH 190400Z AUTO 25008KT 6SM 23/M07 A2980 RMK T02301070 IEM_DS3505
ZBHH,2007-05-19 05:00,ZBHH 190500Z AUTO 24008KT 6SM 25/M06 A2977 RMK T02501060 IEM_DS3505
ZBHH,2007-05-19 06:00,ZBHH 190600Z AUTO 20008KT 19SM 27/M06 A2974 RMK SLP026 T02681061 57028 IEM_DS3505
ZBHH,2007-05-19 07:00,ZBHH 190700Z AUTO 23008KT 6SM 27/M05 A2971 RMK T02701050 IEM_DS3505
ZBHH,2007-05-19 08:00,ZBHH 190800Z AUTO 24010KT 6SM 28/M04 A2968 RMK T02801040 IEM_DS3505
ZBHH,2007-05-19 09:00,ZBHH 190900Z AUTO 20008KT 19SM 29/M05 A2968 RMK SLP000 T02881046 57023 IEM_DS3505
ZBHH,2007-05-19 10:00,ZBHH 191000Z AUTO 23006KT 6SM 28/M04 A2965 RMK T02801040 IEM_DS3505
ZBHH,2007-05-19 11:00,ZBHH 191100Z AUTO 23002KT 6SM 27/M04 A2965 RMK T02701040 IEM_DS3505
ZBHH,2007-05-19 12:00,ZBHH 191200Z AUTO 12002KT 19SM 24/M02 A2965 RMK SLP994 T02381019 57003 IEM_DS3505
ZBHH,2007-05-19 13:00,ZBHH 191300Z AUTO 03008KT 6SM 22/M01 A2965 RMK T02201010 IEM_DS3505
ZBHH,2007-05-19 14:00,ZBHH 191400Z AUTO 11002KT 6SM 19/M01 A2968 RMK T01901010 IEM_DS3505
ZBHH,2007-05-19 15:00,ZBHH 191500Z AUTO 04002KT 19SM 20/00 A2965 RMK SLP997 T01960001 52004 IEM_DS3505
ZBHH,2007-05-19 16:00,ZBHH 191600Z AUTO 03004KT 6SM 18/M02 A2968 RMK T01801020 IEM_DS3505
ZBHH,2007-05-19 17:00,ZBHH 191700Z AUTO 34008KT 6SM 20/M04 A2968 RMK T02001040 IEM_DS3505
ZBHH,2007-05-19 18:00,ZBHH 191800Z AUTO 32010KT 1 1/4SM 19/M01 A2974 RMK SLP016 T01861007 52025 IEM_DS3505
ZBHH,2007-05-19 19:00,ZBHH 191900Z AUTO 01014KT 6SM 16/00 A2974 RMK T01600000 IEM_DS3505
ZBHH,2007-05-19 20:00,ZBHH 192000Z AUTO 01012G23KT 6SM 14/00 A2977 RMK T01400000 IEM_DS3505
ZBHH,2007-05-19 21:00,ZBHH 192100Z AUTO 32014G21KT 4SM 14/01 A2980 RMK SLP034 T01400006 52011 IEM_DS3505
ZBHH,2007-05-19 22:00,ZBHH 192200Z AUTO 07008KT 1SM 13/01 A2983 RMK T01300010 IEM_DS3505
ZBHH,2007-05-19 23:00,ZBHH 192300Z AUTO 05008KT 1 1/2SM 13/03 A2983 RMK T01300030 IEM_DS3505
ZBHH,2007-05-20 00:00,ZBHH 200000Z AUTO 27004KT 6SM 14/03 A2985 RMK SLP069 T01420034 52021 IEM_DS3505
ZBHH,2007-05-20 01:00,ZBHH 200100Z AUTO 36006KT 7SM 14/03 A2985 RMK T01400030 IEM_DS3505
ZBHH,2007-05-20 02:00,ZBHH 200200Z AUTO 29004KT 6SM 18/03 A2985 RMK T01800030 IEM_DS3505
ZBHH,2007-05-20 03:00,ZBHH 200300Z AUTO 36010KT 9SM 19/M01 A2985 RMK SLP066 T01921008 54000 IEM_DS3505
ZBHH,2007-05-20 04:00,ZBHH 200400Z AUTO 11008KT 6SM 20/00 A2983 RMK T02000000 IEM_DS3505
ZBHH,2007-05-20 05:00,ZBHH 200500Z AUTO 13006KT 6SM 21/M02 A2983 RMK T02101020 IEM_DS3505
ZBHH,2007-05-20 06:00,ZBHH 200600Z AUTO 11002KT 9SM 23/M04 A2980 RMK SLP048 T02261037 57011 IEM_DS3505
ZBHH,2007-05-20 07:00,ZBHH 200700Z AUTO 11014KT 6SM 24/M05 A2980 RMK T02401050 IEM_DS3505
ZBHH,2007-05-20 08:00,ZBHH 200800Z AUTO 11010KT 6SM 23/M07 A2980 RMK T02301070 IEM_DS3505
ZBHH,2007-05-20 09:00,ZBHH 200900Z AUTO 09006KT 12SM 24/M06 A2980 RMK SLP044 T02401061 57010 IEM_DS3505
ZBHH,2007-05-20 10:00,ZBHH 201000Z AUTO 11012KT 6SM 23/M08 A2980 RMK T02301080 IEM_DS3505
ZBHH,2007-05-20 11:00,ZBHH 201100Z AUTO 11010KT 6SM 22/M08 A2980 RMK T02201080 IEM_DS3505
ZBHH,2007-05-20 12:00,ZBHH 201200Z AUTO 09006KT 19SM 21/M08 A2983 RMK SLP065 T02081077 52013 IEM_DS3505
ZBHH,2007-05-20 13:00,ZBHH 201300Z AUTO 06008KT 6SM 19/M08 A2983 RMK T01901080 IEM_DS3505
ZBHH,2007-05-20 14:00,ZBHH 201400Z AUTO 10004KT 6SM 16/M06 A2985 RMK T01601060 IEM_DS3505
ZBHH,2007-05-20 15:00,ZBHH 201500Z AUTO 09004KT 19SM 17/M06 A2985 RMK SLP075 T01681063 52011 IEM_DS3505
ZBHH,2007-05-20 16:00,ZBHH 201600Z AUTO 05004KT 6SM 14/M07 A2985 RMK T01401070 IEM_DS3505
ZBHH,2007-05-20 17:00,ZBHH 201700Z AUTO 05006KT 13/M07 A2985 RMK T01301070 IEM_DS3505
ZBHH,2007-05-20 18:00,ZBHH 201800Z AUTO 07004KT 19SM 14/M06 A2983 RMK SLP065 T01451064 57007 IEM_DS3505
ZBHH,2007-05-20 19:00,ZBHH 201900Z AUTO 05006KT 6SM 12/M06 A2983 RMK T01201060 IEM_DS3505
ZBHH,2007-05-20 20:00,ZBHH 202000Z AUTO 00000KT 6SM 10/M07 A2983 RMK T01001070 IEM_DS3505
ZBHH,2007-05-20 21:00,ZBHH 202100Z AUTO 07002KT 19SM 09/M04 A2983 RMK SLP068 T00901042 57005 IEM_DS3505
ZBHH,2007-05-20 22:00,ZBHH 202200Z AUTO 02002KT 6SM 10/M07 A2983 RMK T01001070 IEM_DS3505
ZBHH,2007-05-20 23:00,ZBHH 202300Z AUTO 03002KT 6SM 13/M05 A2980 RMK T01301050 IEM_DS3505
ZBHH,2007-05-21 00:00,ZBHH 210000Z AUTO 11002KT 19SM 16/M05 A2980 RMK SLP058 T01641048 57001 IEM_DS3505
ZBHH,2007-05-21 01:00,ZBHH 210100Z AUTO 12006KT 6SM 19/M05 A2980 RMK T01901050 IEM_DS3505
ZBHH,2007-05-21 02:00,ZBHH 210200Z AUTO 17004KT 6SM 20/M03 A2980 RMK T02001030 IEM_DS3505
ZBHH,2007-05-21 03:00,ZBHH 210300Z AUTO 18004KT 19SM 22/M01 A2977 RMK SLP043 T02201013 57010 IEM_DS3505
ZBHH,2007-05-21 04:00,ZBHH 210400Z AUTO 24006KT 6SM 22/00 A2977 RMK T02200000 IEM_DS3505
ZBHH,2007-05-21 05:00,ZBHH 210500Z AUTO 24008KT 6SM 23/02 A2974 RMK T02300020 IEM_DS3505
ZBHH,2007-05-21 06:00,ZBHH 210600Z AUTO 22008KT 19SM 24/02 A2971 RMK SLP024 T02370025 57018 IEM_DS3505
ZBHH,2007-05-21 07:00,ZBHH 210700Z AUTO 23006KT 5SM 24/03 A2971 RMK T02400030 IEM_DS3505
ZBHH,2007-05-21 08:00,ZBHH 210800Z AUTO 20008KT 5SM 24/02 A2968 RMK T02400020 IEM_DS3505
ZBHH,2007-05-21 09:00,ZBHH 210900Z AUTO 25006KT 19SM 23/04 A2968 RMK SLP020 T02320037 57015 IEM_DS3505
ZBHH,2007-05-21 10:00,ZBHH 211000Z AUTO 25008KT 4SM 23/04 A2968 RMK T02300040 IEM_DS3505
ZBHH,2007-05-21 11:00,ZBHH 211100Z AUTO 25012KT 6SM 21/10 A2968 RMK T02100100 IEM_DS3505
ZBHH,2007-05-21 12:00,ZBHH 211200Z AUTO 20010KT 9SM 19/10 A2971 RMK SLP022 T01890099 52008 IEM_DS3505
ZBHH,2007-05-21 13:00,ZBHH 211300Z AUTO 22010KT 7SM 17/11 A2971 RMK T01700110 IEM_DS3505
ZBHH,2007-05-21 14:00,ZBHH 211400Z AUTO 22006KT 7SM 17/12 A2974 RMK T01700120 IEM_DS3505
ZBHH,2007-05-21 15:00,ZBHH 211500Z AUTO 22006KT 12SM 16/12 A2971 RMK SLP024 T01640124 52007 IEM_DS3505
ZBHH,2007-05-21 16:00,ZBHH 211600Z AUTO 25006KT 4SM 15/13 A2971 RMK T01500130 IEM_DS3505
ZBHH,2007-05-21 17:00,ZBHH 211700Z AUTO 34004KT 4SM 14/13 A2971 RMK T01400130 IEM_DS3505
ZBHH,2007-05-21 18:00,ZBHH 211800Z AUTO 36002KT 7SM 14/13 A2968 RMK 60012 SLP013 T01440130 57010 IEM_DS3505
ZBHH,2007-05-21 19:00,ZBHH 211900Z AUTO 14004KT 4SM 13/12 A2968 RMK T01300120 IEM_DS3505
ZBHH,2007-05-21 20:00,ZBHH 212000Z AUTO 14006KT 4SM 13/11 A2968 RMK T01300110 IEM_DS3505
ZBHH,2007-05-21 21:00,ZBHH 212100Z AUTO 11002KT 7SM 13/12 A2965 RMK 70032 SLP006 T01320118 57009 IEM_DS3505
ZBHH,2007-05-21 22:00,ZBHH 212200Z AUTO 10004KT 3SM 13/11 A2968 RMK T01300110 IEM_DS3505
ZBHH,2007-05-21 23:00,ZBHH 212300Z AUTO 05002KT 3SM 13/11 A2968 RMK T01300110 IEM_DS3505
ZBHH,2007-05-22 00:00,ZBHH 220000Z AUTO 04004KT 7SM 13/12 A2968 RMK 60031 70043 SLP023 T01330115 52007 IEM_DS3505
ZBHH,2007-05-22 01:00,ZBHH 220100Z AUTO 34004KT 4SM 13/12 A2968 RMK T01300120 IEM_DS3505
ZBHH,2007-05-22 02:00,ZBHH 220200Z AUTO 03002KT 5SM 14/12 A2968 RMK T01400120 IEM_DS3505
ZBHH,2007-05-22 03:00,ZBHH 220300Z AUTO 07004KT 9SM 16/11 A2968 RMK SLP018 T01620112 57004 IEM_DS3505
ZBHH,2007-05-22 04:00,ZBHH 220400Z AUTO 07002KT 7SM 16/12 A2968 RMK T01600120 IEM_DS3505
ZBHH,2007-05-22 05:00,ZBHH 220500Z AUTO 05002KT 7SM 18/12 A2965 RMK T01800120 IEM_DS3505
ZBHH,2007-05-22 06:00,ZBHH 220600Z AUTO 09004KT 12SM 19/11 A2965 RMK 60000 SLP005 T01930111 57009 IEM_DS3505
ZBHH,2007-05-22 07:00,ZBHH 220700Z AUTO 21004KT 7SM 19/12 A2962 RMK T01900120 IEM_DS3505
ZBHH,2007-05-22 08:00,ZBHH 220800Z AUTO 19004KT 7SM 20/12 A2962 RMK T02000120 IEM_DS3505
ZBHH,2007-05-22 09:00,ZBHH 220900Z AUTO 22004KT 7SM 20/11 A2962 RMK SLP994 T02050109 57010 IEM_DS3505
ZBHH,2007-05-22 10:00,ZBHH 221000Z AUTO 22006KT 4SM 19/13 A2962 RMK T01900130 IEM_DS3505
ZBHH,2007-05-22 11:00,ZBHH 221100Z AUTO 24004KT 4SM 19/12 A2962 RMK T01900120 IEM_DS3505
ZBHH,2007-05-22 12:00,ZBHH 221200Z AUTO 22004KT 7SM 18/12 A2965 RMK SLP006 T01850123 52007 IEM_DS3505
ZBHH,2007-05-22 13:00,ZBHH 221300Z AUTO 23004KT 3SM 17/13 A2968 RMK T01700130 IEM_DS3505
ZBHH,2007-05-22 14:00,ZBHH 221400Z AUTO 23002KT 3SM 17/12 A2968 RMK T01700120 IEM_DS3505
ZBHH,2007-05-22 15:00,ZBHH 221500Z AUTO 16002KT 19SM 17/12 A2968 RMK SLP021 T01700119 52016 IEM_DS3505
ZBHH,2007-05-22 16:00,ZBHH 221600Z AUTO 15002KT 3SM 15/12 A2971 RMK T01500120 IEM_DS3505
ZBHH,2007-05-22 17:00,ZBHH 221700Z AUTO 08002KT 2 1/2SM 15/12 A2968 RMK T01500120 IEM_DS3505
ZBHH,2007-05-22 18:00,ZBHH 221800Z AUTO 25002KT 19SM 15/12 A2968 RMK SLP024 T01490120 52004 IEM_DS3505
ZBHH,2007-05-22 19:00,ZBHH 221900Z AUTO 00000KT 2SM 14/12 A2968 RMK T01400120 IEM_DS3505
ZBHH,2007-05-22 20:00,ZBHH 222000Z AUTO 00000KT 2SM 14/12 A2971 RMK T01400120 IEM_DS3505
ZBHH,2007-05-22 21:00,ZBHH 222100Z AUTO 11002KT 19SM 14/11 A2971 RMK 70011 SLP023 T01450113 52001 IEM_DS3505
ZBHH,2007-05-22 22:00,ZBHH 222200Z AUTO 14002KT 1 1/2SM 13/12 A2971 RMK T01300120 IEM_DS3505
ZBHH,2007-05-22 23:00,ZBHH 222300Z AUTO 01002KT 2SM 14/12 A2971 RMK T01400120 IEM_DS3505
ZBHH,2007-05-23 00:00,ZBHH 230000Z AUTO 07004KT 19SM 17/12 A2968 RMK 70000 SLP019 T01690122 57003 IEM_DS3505
ZBHH,2007-05-23 01:00,ZBHH 230100Z AUTO 25002KT 2 1/2SM 17/13 A2968 RMK T01700130 IEM_DS3505
ZBHH,2007-05-23 02:00,ZBHH 230200Z AUTO 25004KT 2 1/2SM 17/13 A2971 RMK T01700130 IEM_DS3505
ZBHH,2007-05-23 03:00,ZBHH 230300Z AUTO 20006KT 7SM 19/14 A2971 RMK SLP021 T01910137 52003 IEM_DS3505
ZBHH,2007-05-23 04:00,ZBHH 230400Z AUTO 24008KT 2 1/2SM 20/14 A2968 RMK T02000140 IEM_DS3505
ZBHH,2007-05-23 05:00,ZBHH 230500Z AUTO 25010KT 4SM 20/13 A2971 RMK T02000130 IEM_DS3505
ZBHH,2007-05-23 06:00,ZBHH 230600Z AUTO 22002KT 6SM 19/14 A2971 RMK 60000 SLP027 T01860145 52001 IEM_DS3505
ZBHH,2007-05-23 07:00,ZBHH 230700Z AUTO 24006KT 3SM 18/13 A2971 RMK T01800130 IEM_DS3505
ZBHH,2007-05-23 08:00,ZBHH 230800Z AUTO 26010KT 2 1/2SM 17/13 A2974 RMK T01700130 IEM_DS3505
ZBHH,2007-05-23 09:00,ZBHH 230900Z AUTO 07004KT 6SM 16/12 A2974 RMK SLP039 T01630119 52005 IEM_DS3505
ZBHH,2007-05-23 10:00,ZBHH 231000Z AUTO 03002KT 6SM 16/12 A2971 RMK T01600120 IEM_DS3505
ZBHH,2007-05-23 11:00,ZBHH 231100Z AUTO 04002KT 4SM 16/12 A2974 RMK T01600120 IEM_DS3505
ZBHH,2007-05-23 12:00,ZBHH 231200Z AUTO 34010G23KT 3SM 18/ A2977 RMK 60002 SLP041 52011 IEM_DS3505
ZBHH,2007-05-23 13:00,ZBHH 231300Z AUTO 32019G31KT 1SM 16/M01 A2980 RMK T01601010 IEM_DS3505
ZBHH,2007-05-23 14:00,ZBHH 231400Z AUTO 28012KT 1 1/2SM 15/M02 A2983 RMK T01501020 IEM_DS3505
ZBHH,2007-05-23 15:00,ZBHH 231500Z AUTO 32006KT 6SM 15/M04 A2983 RMK SLP067 T01511037 52020 IEM_DS3505
ZBHH,2007-05-23 17:00,ZBHH 231700Z AUTO 16002KT 1SM 13/00 A2983 RMK T01300000 IEM_DS3505
ZBHH,2007-05-23 18:00,ZBHH 231800Z AUTO 25004KT 5SM 14/M04 A2983 RMK SLP075 T01381039 52004 IEM_DS3505
ZBHH,2007-05-23 19:00,ZBHH 231900Z AUTO 26008KT 1SM 13/M02 A2983 RMK T01301020 IEM_DS3505
ZBHH,2007-05-23 20:00,ZBHH 232000Z AUTO 23006KT 1SM 13/M04 A2980 RMK T01301040 IEM_DS3505
ZBHH,2007-05-23 21:00,ZBHH 232100Z AUTO 22004KT 5SM 12/M00 A2980 RMK 70002 SLP070 T01211004 57012 IEM_DS3505
ZBHH,2007-05-23 22:00,ZBHH 232200Z AUTO 23006KT 1SM 11/M01 A2980 RMK T01101010 IEM_DS3505
ZBHH,2007-05-23 23:00,ZBHH 232300Z AUTO 24008KT 1SM 11/M01 A2980 RMK T01101010 IEM_DS3505
ZBHH,2007-05-24 00:00,ZBHH 240000Z AUTO 22004KT 5SM 12/M00 A2977 RMK 70002 SLP058 T01251004 57006 IEM_DS3505
ZBHH,2007-05-24 01:00,ZBHH 240100Z AUTO 24006KT 1 1/4SM 13/M02 A2977 RMK T01301020 IEM_DS3505
ZBHH,2007-05-24 02:00,ZBHH 240200Z AUTO 24006KT 1 1/4SM 15/M02 A2974 RMK T01501020 IEM_DS3505
ZBHH,2007-05-24 03:00,ZBHH 240300Z AUTO 22012KT 4SM 17/M00 A2974 RMK SLP038 T01701002 57015 IEM_DS3505
ZBHH,2007-05-24 04:00,ZBHH 240400Z AUTO 25016KT 2 1/2SM 19/M01 A2968 RMK T01901010 IEM_DS3505
ZBHH,2007-05-24 05:00,ZBHH 240500Z AUTO 25016G25KT 3SM 20/M02 A2968 RMK T02001020 IEM_DS3505
ZBHH,2007-05-24 06:00,ZBHH 240600Z AUTO 32012G29KT 6SM 21/M04 A2965 RMK SLP019 T02061045 57013 IEM_DS3505
ZBHH,2007-05-24 07:00,ZBHH 240700Z AUTO 32017G31KT 4SM 21/M06 A2968 RMK T02101060 IEM_DS3505
ZBHH,2007-05-24 08:00,ZBHH 240800Z AUTO 31023G35KT 5SM 20/M09 A2968 RMK T02001090 IEM_DS3505
ZBHH,2007-05-24 09:00,ZBHH 240900Z AUTO 29012G29KT 9SM 21/M10 A2968 RMK SLP025 T02081096 52003 IEM_DS3505
ZBHH,2007-05-24 10:00,ZBHH 241000Z AUTO 31017G27KT 7SM 20/M11 A2971 RMK T02001110 IEM_DS3505
ZBHH,2007-05-24 11:00,ZBHH 241100Z AUTO 31016KT 7SM 19/M11 A2971 RMK T01901110 IEM_DS3505
ZBHH,2007-05-24 12:00,ZBHH 241200Z AUTO 29002KT 9SM 18/M10 A2971 RMK SLP032 T01791100 52001 IEM_DS3505
ZBHH,2007-05-24 14:00,ZBHH 241400Z AUTO 00000KT 6SM 14/M03 A2965 RMK T01401030 IEM_DS3505
ZBHH,2007-05-24 15:00,ZBHH 241500Z AUTO 36002KT 12SM 15/M04 A2965 RMK SLP005 T01511043 57020 IEM_DS3505
ZBHH,2007-05-24 16:00,ZBHH 241600Z AUTO 04002KT 6SM 13/02 A2965 RMK T01300020 IEM_DS3505
ZBHH,2007-05-24 17:00,ZBHH 241700Z AUTO 35012G21KT 1 1/2SM 15/M06 A2968 RMK T01501060 IEM_DS3505
ZBHH,2007-05-24 18:00,ZBHH 241800Z AUTO 32012G27KT 19SM 14/M07 A2971 RMK SLP032 T01431071 52029 IEM_DS3505
ZBHH,2007-05-24 19:00,ZBHH 241900Z AUTO 31006KT 4SM 12/M07 A2974 RMK T01201070 IEM_DS3505
ZBHH,2007-05-24 20:00,ZBHH 242000Z AUTO 00000KT 4SM 11/M06 A2974 RMK T01101060 IEM_DS3505
ZBHH,2007-05-24 21:00,ZBHH 242100Z AUTO 27002KT 19SM 12/M07 A2974 RMK SLP049 T01161068 52010 IEM_DS3505
ZBHH,2007-05-24 22:00,ZBHH 242200Z AUTO 27008KT 6SM 11/M05 A2977 RMK T01101050 IEM_DS3505
ZBHH,2007-05-24 23:00,ZBHH 242300Z AUTO 28010KT 6SM 13/M07 A2980 RMK T01301070 IEM_DS3505
ZBHH,2007-05-25 00:00,ZBHH 250000Z AUTO 20006KT 19SM 15/M07 A2980 RMK SLP062 T01471068 52012 IEM_DS3505
ZBHH,2007-05-25 01:00,ZBHH 250100Z AUTO 25010KT 6SM 15/M07 A2980 RMK T01501070 IEM_DS3505
ZBHH,2007-05-25 02:00,ZBHH 250200Z AUTO 25008KT 6SM 17/M07 A2977 RMK T01701070 IEM_DS3505
ZBHH,2007-05-25 03:00,ZBHH 250300Z AUTO 20008KT 19SM 21/M06 A2977 RMK SLP045 T02071060 57009 IEM_DS3505
ZBHH,2007-05-25 04:00,ZBHH 250400Z AUTO 24014KT 6SM 22/M04 A2974 RMK T02201040 IEM_DS3505
ZBHH,2007-05-25 05:00,ZBHH 250500Z AUTO 24017G29KT 6SM 23/M04 A2971 RMK T02301040 IEM_DS3505
ZBHH,2007-05-25 06:00,ZBHH 250600Z AUTO 25014KT 19SM 25/M06 A2971 RMK SLP017 T02481055 57019 IEM_DS3505
ZBHH,2007-05-25 07:00,ZBHH 250700Z AUTO 24016G25KT 6SM 25/M04 A2968 RMK T02501040 IEM_DS3505
ZBHH,2007-05-25 08:00,ZBHH 250800Z AUTO 25017G27KT 6SM 26/M04 A2968 RMK T02601040 IEM_DS3505
ZBHH,2007-05-25 09:00,ZBHH 250900Z AUTO 22010KT 19SM 26/M04 A2965 RMK SLP002 T02641042 57015 IEM_DS3505
ZBHH,2007-05-25 10:00,ZBHH 251000Z AUTO 24012G21KT 6SM 26/M04 A2965 RMK T02601040 IEM_DS3505
ZBHH,2007-05-25 11:00,ZBHH 251100Z AUTO 25010KT 6SM 25/M05 A2968 RMK T02501050 IEM_DS3505
ZBHH,2007-05-25 12:00,ZBHH 251200Z AUTO 25004KT 19SM 24/M04 A2968 RMK SLP009 T02391043 52007 IEM_DS3505
ZBHH,2007-05-25 13:00,ZBHH 251300Z AUTO 25006KT 6SM 21/M02 A2971 RMK T02101020 IEM_DS3505
ZBHH,2007-05-25 14:00,ZBHH 251400Z AUTO 26006KT 6SM 19/M01 A2971 RMK T01901010 IEM_DS3505
ZBHH,2007-05-25 15:00,ZBHH 251500Z AUTO 24006KT 19SM 17/M01 A2971 RMK SLP021 T01691008 52009 IEM_DS3505
ZBHH,2007-05-25 16:00,ZBHH 251600Z AUTO 13002KT 6SM 16/00 A2974 RMK T01600000 IEM_DS3505
ZBHH,2007-05-25 17:00,ZBHH 251700Z AUTO 08002KT 6SM 14/01 A2974 RMK T01400010 IEM_DS3505
ZBHH,2007-05-25 18:00,ZBHH 251800Z AUTO 07004KT 19SM 16/M00 A2974 RMK SLP020 T01551003 52004 IEM_DS3505
ZBHH,2007-05-25 19:00,ZBHH 251900Z AUTO 07002KT 6SM 12/01 A2974 RMK T01200010 IEM_DS3505
ZBHH,2007-05-25 20:00,ZBHH 252000Z AUTO 11004KT 6SM 11/01 A2974 RMK T01100010 IEM_DS3505
ZBHH,2007-05-25 21:00,ZBHH 252100Z AUTO 09002KT 19SM 13/M00 A2974 RMK SLP031 T01311005 52008 IEM_DS3505
ZBHH,2007-05-25 22:00,ZBHH 252200Z AUTO 09002KT 6SM 11/01 A2977 RMK T01100010 IEM_DS3505
ZBHH,2007-05-25 23:00,ZBHH 252300Z AUTO 12002KT 6SM 14/02 A2977 RMK T01400020 IEM_DS3505
ZBHH,2007-05-26 00:00,ZBHH 260000Z AUTO 11004KT 19SM 19/00 A2977 RMK SLP035 T01880004 52010 IEM_DS3505
ZBHH,2007-05-26 01:00,ZBHH 260100Z AUTO 18002KT 6SM 19/00 A2980 RMK T01900000 IEM_DS3505
ZBHH,2007-05-26 02:00,ZBHH 260200Z AUTO 25004KT 6SM 21/01 A2980 RMK T02100010 IEM_DS3505
ZBHH,2007-05-26 03:00,ZBHH 260300Z AUTO 20004KT 12SM 24/02 A2977 RMK SLP035 T02370020 57004 IEM_DS3505
ZBHH,2007-05-26 04:00,ZBHH 260400Z AUTO 25010KT 5SM 27/00 A2974 RMK T02700000 IEM_DS3505
ZBHH,2007-05-26 05:00,ZBHH 260500Z AUTO 24014KT 7SM 29/M02 A2971 RMK T02901020 IEM_DS3505
ZBHH,2007-05-26 06:00,ZBHH 260600Z AUTO 22012G23KT 12SM 29/M04 A2968 RMK SLP001 T02921043 57023 IEM_DS3505
ZBHH,2007-05-26 07:00,ZBHH 260700Z AUTO 32014KT 7SM 31/M07 A2968 RMK T03101070 IEM_DS3505
ZBHH,2007-05-26 08:00,ZBHH 260800Z AUTO 29012KT 7SM 30/M06 A2968 RMK T03001060 IEM_DS3505
ZBHH,2007-05-26 09:00,ZBHH 260900Z AUTO 27008G23KT 12SM 31/M04 A2968 RMK SLP993 T03091042 57008 IEM_DS3505
ZBHH,2007-05-26 10:00,ZBHH 261000Z AUTO 29016KT 7SM 30/M04 A2968 RMK T03001040 IEM_DS3505
ZBHH,2007-05-26 11:00,ZBHH 261100Z AUTO 24008KT 7SM 28/M03 A2968 RMK T02801030 IEM_DS3505
ZBHH,2007-05-26 12:00,ZBHH 261200Z AUTO 32008KT 12SM 27/M05 A2971 RMK SLP005 T02721046 52014 IEM_DS3505
ZBHH,2007-05-26 13:00,ZBHH 261300Z AUTO 32004KT 7SM 26/M04 A2974 RMK T02601040 IEM_DS3505
ZBHH,2007-05-26 14:00,ZBHH 261400Z AUTO 33004KT 7SM 24/M04 A2974 RMK T02401040 IEM_DS3505
ZBHH,2007-05-26 15:00,ZBHH 261500Z AUTO 32004KT 12SM 22/M03 A2977 RMK SLP023 T02181028 52015 IEM_DS3505
ZBHH,2007-05-26 16:00,ZBHH 261600Z AUTO 36006KT 7SM 23/M02 A2977 RMK T02301020 IEM_DS3505
ZBHH,2007-05-26 17:00,ZBHH 261700Z AUTO 36010KT 7SM 20/M03 A2980 RMK T02001030 IEM_DS3505
ZBHH,2007-05-26 18:00,ZBHH 261800Z AUTO 32004KT 12SM 20/M06 A2980 RMK SLP029 T02041062 52013 IEM_DS3505
ZBHH,2007-05-26 19:00,ZBHH 261900Z AUTO 36004KT 7SM 18/M05 A2983 RMK T01801050 IEM_DS3505
ZBHH,2007-05-26 20:00,ZBHH 262000Z AUTO 35010KT 7SM 17/M05 A2983 RMK T01701050 IEM_DS3505
ZBHH,2007-05-26 21:00,ZBHH 262100Z AUTO 29008KT 6SM 16/M03 A2985 RMK SLP052 T01621033 52016 IEM_DS3505
ZBHH,2007-05-26 22:00,ZBHH 262200Z AUTO 02014KT 2SM 16/M04 A2988 RMK T01601040 IEM_DS3505
ZBHH,2007-05-26 23:00,ZBHH 262300Z AUTO 05004KT 3SM 16/M04 A2988 RMK T01601040 IEM_DS3505
ZBHH,2007-05-27 00:00,ZBHH 270000Z AUTO 34006KT 9SM 18/M05 A2991 RMK SLP077 T01781048 52018 IEM_DS3505
ZBHH,2007-05-27 01:00,ZBHH 270100Z AUTO 36010KT 6SM 19/M06 A2991 RMK T01901060 IEM_DS3505
ZBHH,2007-05-27 02:00,ZBHH 270200Z AUTO 36012KT 6SM 19/M05 A2991 RMK T01901050 IEM_DS3505
ZBHH,2007-05-27 03:00,ZBHH 270300Z AUTO 34006G23KT 19SM 21/M07 A2988 RMK SLP074 T02141072 57006 IEM_DS3505
ZBHH,2007-05-27 04:00,ZBHH 270400Z AUTO 33016G27KT 6SM 22/M08 A2988 RMK T02201080 IEM_DS3505
ZBHH,2007-05-27 05:00,ZBHH 270500Z AUTO 34017G27KT 6SM 22/M08 A2985 RMK T02201080 IEM_DS3505
ZBHH,2007-05-27 06:00,ZBHH 270600Z AUTO 32012G27KT 19SM 23/M09 A2985 RMK SLP065 T02301090 57007 IEM_DS3505
ZBHH,2007-05-27 07:00,ZBHH 270700Z AUTO 34017G29KT 6SM 23/M10 A2985 RMK T02301100 IEM_DS3505
ZBHH,2007-05-27 08:00,ZBHH 270800Z AUTO 33016G25KT 6SM 23/M10 A2985 RMK T02301100 IEM_DS3505
ZBHH,2007-05-27 09:00,ZBHH 270900Z AUTO 32014G27KT 19SM 24/M10 A2985 RMK SLP063 T02381096 57008 IEM_DS3505
ZBHH,2007-05-27 10:00,ZBHH 271000Z AUTO 34014G23KT 6SM 23/M09 A2985 RMK T02301090 IEM_DS3505
ZBHH,2007-05-27 11:00,ZBHH 271100Z AUTO 33014KT 6SM 22/M10 A2985 RMK T02201100 IEM_DS3505
ZBHH,2007-05-27 12:00,ZBHH 271200Z AUTO 32008KT 19SM 21/M10 A2985 RMK SLP074 T02141103 52008 IEM_DS3505
ZBHH,2007-05-27 13:00,ZBHH 271300Z AUTO 30004KT 6SM 19/M10 A2988 RMK T01901100 IEM_DS3505
ZBHH,2007-05-27 14:00,ZBHH 271400Z AUTO 30008KT 6SM 19/M09 A2988 RMK T01901090 IEM_DS3505
ZBHH,2007-05-27 15:00,ZBHH 271500Z AUTO 05002KT 19SM 17/M07 A2988 RMK SLP086 T01661071 52008 IEM_DS3505
ZBHH,2007-05-27 16:00,ZBHH 271600Z AUTO 13002KT 6SM 14/M07 A2991 RMK T01401070 IEM_DS3505
ZBHH,2007-05-27 17:00,ZBHH 271700Z AUTO 03002KT 6SM 14/M07 A2991 RMK T01401070 IEM_DS3505
ZBHH,2007-05-27 18:00,ZBHH 271800Z AUTO 34004KT 19SM 16/M10 RMK SLP086 T01631104 52003 IEM_DS3505
ZBHH,2007-05-27 19:00,ZBHH 271900Z AUTO 10004KT 6SM 09/M06 A2991 RMK T00901060 IEM_DS3505
ZBHH,2007-05-27 20:00,ZBHH 272000Z AUTO 09008KT 6SM 10/M07 A2991 RMK T01001070 IEM_DS3505
ZBHH,2007-05-27 21:00,ZBHH 272100Z AUTO 09006KT 19SM 12/M06 A2991 RMK SLP095 T01251065 52002 IEM_DS3505
ZBHH,2007-05-27 22:00,ZBHH 272200Z AUTO 14002KT 6SM 09/M05 A2994 RMK T00901050 IEM_DS3505
ZBHH,2007-05-27 23:00,ZBHH 272300Z AUTO 10004KT 6SM 12/M05 A2994 RMK T01201050 IEM_DS3505
ZBHH,2007-05-28 00:00,ZBHH 280000Z AUTO 20002KT 19SM 17/M05 A2997 RMK SLP109 T01701049 52016 IEM_DS3505
ZBHH,2007-05-28 01:00,ZBHH 280100Z AUTO 17002KT 6SM 20/M08 A2997 RMK T02001080 IEM_DS3505
ZBHH,2007-05-28 02:00,ZBHH 280200Z AUTO 34008G17KT 6SM 21/M07 A2994 RMK T02101070 IEM_DS3505
ZBHH,2007-05-28 03:00,ZBHH 280300Z AUTO 32010KT 19SM 23/M07 A2994 RMK SLP102 T02271071 57004 IEM_DS3505
ZBHH,2007-05-28 04:00,ZBHH 280400Z AUTO 33012G21KT 6SM 23/M05 A2994 RMK T02301050 IEM_DS3505
ZBHH,2007-05-28 05:00,ZBHH 280500Z AUTO 36008KT 6SM 24/M05 A2994 RMK T02401050 IEM_DS3505
ZBHH,2007-05-28 06:00,ZBHH 280600Z AUTO 32006G19KT 19SM 26/M06 A2991 RMK SLP086 T02551060 57010 IEM_DS3505
ZBHH,2007-05-28 07:00,ZBHH 280700Z AUTO 01012KT 6SM 25/M04 A2991 RMK T02501040 IEM_DS3505
ZBHH,2007-05-28 08:00,ZBHH 280800Z AUTO 36010KT 6SM 25/M05 A2991 RMK T02501050 IEM_DS3505
ZBHH,2007-05-28 09:00,ZBHH 280900Z AUTO 02010KT 19SM 26/M06 A2991 RMK SLP085 T02601056 57007 IEM_DS3505
ZBHH,2007-05-28 10:00,ZBHH 281000Z AUTO 36008KT 6SM 25/M06 A2991 RMK T02501060 IEM_DS3505
ZBHH,2007-05-28 11:00,ZBHH 281100Z AUTO 03006KT 6SM 24/M07 A2991 RMK T02401070 IEM_DS3505
ZBHH,2007-05-28 12:00,ZBHH 281200Z AUTO 07004KT 19SM 22/M08 A2991 RMK SLP092 T02221075 52008 IEM_DS3505
ZBHH,2007-05-28 13:00,ZBHH 281300Z AUTO 02004KT 6SM 19/M06 A2994 RMK T01901060 IEM_DS3505
ZBHH,2007-05-28 14:00,ZBHH 281400Z AUTO 04006KT 6SM 18/M06 A2997 RMK T01801060 IEM_DS3505
ZBHH,2007-05-28 15:00,ZBHH 281500Z AUTO 09004KT 19SM 18/M06 A2997 RMK SLP106 T01851063 52016 IEM_DS3505
ZBHH,2007-05-28 16:00,ZBHH 281600Z AUTO 11004KT 6SM 15/M05 A2997 RMK T01501050 IEM_DS3505
ZBHH,2007-05-28 17:00,ZBHH 281700Z AUTO 00000KT 6SM 13/M05 A3000 RMK T01301050 IEM_DS3505
ZBHH,2007-05-28 18:00,ZBHH 281800Z AUTO 02002KT 19SM 15/M05 A3000 RMK SLP114 T01521047 52006 IEM_DS3505
ZBHH,2007-05-28 19:00,ZBHH 281900Z AUTO 03004KT 6SM 12/M04 A3000 RMK T01201040 IEM_DS3505
ZBHH,2007-05-28 20:00,ZBHH 282000Z AUTO 06006KT 6SM 12/M04 A3000 RMK T01201040 IEM_DS3505
ZBHH,2007-05-28 21:00,ZBHH 282100Z AUTO 36002KT 19SM 11/M03 A3000 RMK SLP125 T01111030 52003 IEM_DS3505
ZBHH,2007-05-28 22:00,ZBHH 282200Z AUTO 11002KT 6SM 11/M04 A3003 RMK T01101040 IEM_DS3505
ZBHH,2007-05-28 23:00,ZBHH 282300Z AUTO 05002KT 4SM 14/M03 A3003 RMK T01401030 IEM_DS3505
ZBHH,2007-05-29 00:00,ZBHH 290000Z AUTO 07006KT 16SM 19/M02 A3003 RMK SLP127 T01891021 52009 IEM_DS3505
ZBHH,2007-05-29 01:00,ZBHH 290100Z AUTO 09004KT 5SM 21/M04 A3003 RMK T02101040 IEM_DS3505
ZBHH,2007-05-29 02:00,ZBHH 290200Z AUTO 36006KT 6SM 23/M04 A3000 RMK T02301040 IEM_DS3505
ZBHH,2007-05-29 03:00,ZBHH 290300Z AUTO 27004KT 19SM 24/M04 A2997 RMK SLP107 T02401042 57015 IEM_DS3505
ZBHH,2007-05-29 04:00,ZBHH 290400Z AUTO 27002KT 6SM 25/M05 A2997 RMK T02501050 IEM_DS3505
ZBHH,2007-05-29 05:00,ZBHH 290500Z AUTO 23006KT 6SM 27/M04 A2994 RMK T02701040 IEM_DS3505
ZBHH,2007-05-29 06:00,ZBHH 290600Z AUTO 20006KT 19SM 28/M05 A2991 RMK SLP080 T02771054 57023 IEM_DS3505
ZBHH,2007-05-29 07:00,ZBHH 290700Z AUTO 21004KT 6SM 29/M06 A2988 RMK T02901060 IEM_DS3505
ZBHH,2007-05-29 08:00,ZBHH 290800Z AUTO 22004KT 6SM 29/M08 A2985 RMK T02901080 IEM_DS3505
ZBHH,2007-05-29 09:00,ZBHH 290900Z AUTO 20002KT 19SM 29/M07 A2983 RMK SLP054 T02921069 57028 IEM_DS3505
ZBHH,2007-05-29 10:00,ZBHH 291000Z AUTO 23004KT 6SM 29/M07 A2983 RMK T02901070 IEM_DS3505
ZBHH,2007-05-29 11:00,ZBHH 291100Z AUTO 23002KT 6SM 29/M06 A2983 RMK T02901060 IEM_DS3505
ZBHH,2007-05-29 12:00,ZBHH 291200Z AUTO 16002KT 19SM 25/M02 A2983 RMK SLP044 T02481019 57002 IEM_DS3505
ZBHH,2007-05-29 13:00,ZBHH 291300Z AUTO 02006KT 7SM 23/M05 A2983 RMK T02301050 IEM_DS3505
ZBHH,2007-05-29 14:00,ZBHH 291400Z AUTO 05002KT 7SM 21/M05 A2983 RMK T02101050 IEM_DS3505
ZBHH,2007-05-29 15:00,ZBHH 291500Z AUTO 11002KT 19SM 20/M00 A2983 RMK SLP051 T02041003 52007 IEM_DS3505
ZBHH,2007-05-29 16:00,ZBHH 291600Z AUTO 07006KT 6SM 21/M07 A2985 RMK T02101070 IEM_DS3505
ZBHH,2007-05-29 17:00,ZBHH 291700Z AUTO 08004KT 6SM 18/M04 A2983 RMK T01801040 IEM_DS3505
ZBHH,2007-05-29 18:00,ZBHH 291800Z AUTO 00000KT 19SM 19/M03 RMK SLP046 T01891033 54000 IEM_DS3505
ZBHH,2007-05-29 19:00,ZBHH 291900Z AUTO 26008KT 6SM 17/06 A2988 RMK T01700060 IEM_DS3505
ZBHH,2007-05-29 20:00,ZBHH 292000Z AUTO 04012KT 7SM 17/12 A2985 RMK T01700120 IEM_DS3505
ZBHH,2007-05-29 21:00,ZBHH 292100Z AUTO 16002KT 7SM 19/13 A2985 RMK 70006 SLP053 T01860126 52008 IEM_DS3505
ZBHH,2007-05-29 22:00,ZBHH 292200Z AUTO 15004KT 4SM 17/12 A2988 RMK T01700120 IEM_DS3505
ZBHH,2007-05-29 23:00,ZBHH 292300Z AUTO 05006KT 3SM 17/13 A2988 RMK T01700130 IEM_DS3505
ZBHH,2007-05-30 00:00,ZBHH 300000Z AUTO 07006KT 6SM 18/12 A2991 RMK 60008 70007 SLP075 T01800118 52010 IEM_DS3505
ZBHH,2007-05-30 01:00,ZBHH 300100Z AUTO 08004KT 3SM 17/14 A2988 RMK T01700140 IEM_DS3505
ZBHH,2007-05-30 02:00,ZBHH 300200Z AUTO 10004KT 2 1/2SM 17/14 A2988 RMK T01700140 IEM_DS3505
ZBHH,2007-05-30 03:00,ZBHH 300300Z AUTO 04004KT 6SM 18/14 A2988 RMK SLP083 T01830142 54000 IEM_DS3505
ZBHH,2007-05-30 04:00,ZBHH 300400Z AUTO 00000KT 2 1/2SM 18/14 A2988 RMK T01800140 IEM_DS3505
ZBHH,2007-05-30 05:00,ZBHH 300500Z AUTO 10002KT 2SM 17/15 A2988 RMK T01700150 IEM_DS3505
ZBHH,2007-05-30 06:00,ZBHH 300600Z AUTO 22004KT 6SM 18/15 A2988 RMK 60001 SLP081 T01760147 57006 IEM_DS3505
ZBHH,2007-05-30 07:00,ZBHH 300700Z AUTO 19004KT 1SM 16/16 A2985 RMK T01600160 IEM_DS3505
ZBHH,2007-05-30 08:00,ZBHH 300800Z AUTO 20004KT 1SM 16/15 A2985 RMK T01600150 IEM_DS3505
ZBHH,2007-05-30 09:00,ZBHH 300900Z AUTO 18002KT 5SM 18/16 A2985 RMK SLP075 T01790155 57005 IEM_DS3505
ZBHH,2007-05-30 10:00,ZBHH 301000Z AUTO 19004KT 2SM 17/15 A2985 RMK T01700150 IEM_DS3505
ZBHH,2007-05-30 11:00,ZBHH 301100Z AUTO 18002KT 1 1/2SM 17/15 A2985 RMK T01700150 IEM_DS3505
ZBHH,2007-05-30 12:00,ZBHH 301200Z AUTO 18004KT 4SM 18/15 A2985 RMK 60001 SLP075 T01810148 57001 IEM_DS3505
ZBHH,2007-05-30 13:00,ZBHH 301300Z AUTO 19002KT 1 1/2SM 17/16 A2988 RMK T01700160 IEM_DS3505
ZBHH,2007-05-30 14:00,ZBHH 301400Z AUTO 00000KT 1 1/2SM 17/16 A2988 RMK T01700160 IEM_DS3505
ZBHH,2007-05-30 15:00,ZBHH 301500Z AUTO 27002KT 5SM 18/15 A2988 RMK SLP083 T01760152 52007 IEM_DS3505
ZBHH,2007-05-30 16:00,ZBHH 301600Z AUTO 19002KT 1 1/4SM 17/16 A2988 RMK T01700160 IEM_DS3505
ZBHH,2007-05-30 17:00,ZBHH 301700Z AUTO 00000KT 1 1/4SM 16/16 A2988 RMK T01600160 IEM_DS3505
ZBHH,2007-05-30 18:00,ZBHH 301800Z AUTO 29002KT 4SM 18/16 A2985 RMK SLP079 T01760158 57005 IEM_DS3505
ZBHH,2007-05-30 19:00,ZBHH 301900Z AUTO 33002KT 1 1/4SM 16/15 A2985 RMK T01600150 IEM_DS3505
ZBHH,2007-05-30 20:00,ZBHH 302000Z AUTO 18002KT 1 1/4SM 16/15 A2985 RMK T01600150 IEM_DS3505
ZBHH,2007-05-30 21:00,ZBHH 302100Z AUTO 32002KT 4SM 16/10 A2983 RMK 70003 SLP072 T01610098 57009 IEM_DS3505
ZBHH,2007-05-30 22:00,ZBHH 302200Z AUTO 20004KT 1 1/4SM 16/15 A2983 RMK T01600150 IEM_DS3505
ZBHH,2007-05-30 23:00,ZBHH 302300Z AUTO 22006KT 3/8SM 15/14 A2985 RMK T01500140 IEM_DS3505
ZBHH,2007-05-31 00:00,ZBHH 310000Z AUTO 20006KT 5SM 16/14 A2985 RMK 70002 SLP072 T01610136 52001 IEM_DS3505
ZBHH,2007-05-31 01:00,ZBHH 310100Z AUTO 21006KT 1 1/2SM 16/13 A2983 RMK T01600130 IEM_DS3505
ZBHH,2007-05-31 02:00,ZBHH 310200Z AUTO 22008KT 2 1/2SM 18/06 A2980 RMK T01800060 IEM_DS3505
ZBHH,2007-05-31 03:00,ZBHH 310300Z AUTO 20010KT 6SM 20/04 A2980 RMK SLP048 T01990040 57015 IEM_DS3505
ZBHH,2007-05-31 04:00,ZBHH 310400Z AUTO 24014KT 5SM 22/02 A2977 RMK T02200020 IEM_DS3505
ZBHH,2007-05-31 05:00,ZBHH 310500Z AUTO 25012G21KT 5SM 24/M01 A2974 RMK T02401010 IEM_DS3505
ZBHH,2007-05-31 06:00,ZBHH 310600Z AUTO 32008KT 19SM 25/M01 A2974 RMK SLP015 T02501009 57020 IEM_DS3505
ZBHH,2007-05-31 07:00,ZBHH 310700Z AUTO 25016KT 7SM 25/M01 A2971 RMK T02501010 IEM_DS3505
ZBHH,2007-05-31 08:00,ZBHH 310800Z AUTO 23016KT 7SM 25/M01 A2968 RMK T02501010 IEM_DS3505
ZBHH,2007-05-31 09:00,ZBHH 310900Z AUTO 25010G25KT 19SM 26/M02 A2965 RMK SLP995 T02651022 57018 IEM_DS3505
ZBHH,2007-05-31 10:00,ZBHH 311000Z AUTO 24014KT 7SM 26/M02 A2965 RMK T02601020 IEM_DS3505
ZBHH,2007-05-31 11:00,ZBHH 311100Z AUTO 28014KT 7SM 25/M03 A2968 RMK T02501030 IEM_DS3505
ZBHH,2007-05-31 12:00,ZBHH 311200Z AUTO 22008KT 19SM 24/M03 A2968 RMK SLP006 T02421032 52006 IEM_DS3505
ZBHH,2007-05-31 13:00,ZBHH 311300Z AUTO 29004KT 6SM 22/M01 A2971 RMK T02201010 IEM_DS3505
ZBHH,2007-05-31 14:00,ZBHH 311400Z AUTO 24004KT 6SM 20/00 A2971 RMK T02000000 IEM_DS3505
ZBHH,2007-05-31 15:00,ZBHH 311500Z AUTO 36002KT 19SM 19/M02 A2974 RMK SLP021 T01921024 52011 IEM_DS3505
ZBHH,2007-05-31 16:00,ZBHH 311600Z AUTO 07002KT 6SM 15/01 A2971 RMK T01500010 IEM_DS3505
ZBHH,2007-05-31 17:00,ZBHH 311700Z AUTO 10006KT 6SM 14/01 A2971 RMK T01400010 IEM_DS3505
ZBHH,2007-05-31 18:00,ZBHH 311800Z AUTO 07004KT 19SM 15/M01 A2971 RMK SLP015 T01511010 57004 IEM_DS3505
ZBHH,2007-05-31 19:00,ZBHH 311900Z AUTO 07006KT 6SM 14/02 A2971 RMK T01400020 IEM_DS3505
ZBHH,2007-05-31 20:00,ZBHH 312000Z AUTO 09006KT 6SM 11/02 A2971 RMK T01100020 IEM_DS3505
ZBHH,2007-05-31 21:00,ZBHH 312100Z AUTO 09004KT 19SM 13/M00 A2971 RMK SLP012 T01331004 57003 IEM_DS3505
ZBHH,2007-05-31 22:00,ZBHH 312200Z AUTO 09004KT 6SM 11/01 A2971 RMK T01100010 IEM_DS3505
ZBHH,2007-05-31 23:00,ZBHH 312300Z AUTO 11006KT 6SM 14/02 A2974 RMK T01400020 IEM_DS3505
ZBHH,2007-06-01 00:00,ZBHH 010000Z AUTO 09002KT 19SM 18/01 A2974 RMK SLP023 T01790014 52014 IEM_DS3505
ZBHH,2007-06-01 01:00,ZBHH 010100Z AUTO 19004KT 6SM 19/00 A2974 RMK T01900000 IEM_DS3505
ZBHH,2007-06-01 02:00,ZBHH 010200Z AUTO 12004KT 6SM 21/01 A2974 RMK T02100010 IEM_DS3505
ZBHH,2007-06-01 03:00,ZBHH 010300Z AUTO 20004KT 19SM 23/M01 A2974 RMK SLP022 T02291006 57001 IEM_DS3505
ZBHH,2007-06-01 04:00,ZBHH 010400Z AUTO 21004KT 6SM 25/M01 A2971 RMK T02501010 IEM_DS3505
ZBHH,2007-06-01 05:00,ZBHH 010500Z AUTO 21002KT 6SM 28/00 A2971 RMK T02800000 IEM_DS3505
ZBHH,2007-06-01 06:00,ZBHH 010600Z AUTO 20010KT 12SM 31/M03 A2965 RMK SLP984 T03071031 57027 IEM_DS3505
ZBHH,2007-06-01 07:00,ZBHH 010700Z AUTO 23016KT 6SM 31/M05 A2962 RMK T03101050 IEM_DS3505
ZBHH,2007-06-01 08:00,ZBHH 010800Z AUTO 25017KT 6SM 32/M06 A2962 RMK T03201060 IEM_DS3505
ZBHH,2007-06-01 09:00,ZBHH 010900Z AUTO 25012KT 19SM 32/M08 A2962 RMK SLP970 T03181082 57013 IEM_DS3505
ZBHH,2007-06-01 10:00,ZBHH 011000Z AUTO 24016KT 6SM 31/M06 A2962 RMK T03101060 IEM_DS3505
ZBHH,2007-06-01 11:00,ZBHH 011100Z AUTO 24010KT 6SM 30/M06 A2962 RMK T03001060 IEM_DS3505
ZBHH,2007-06-01 12:00,ZBHH 011200Z AUTO 25006KT 19SM 28/M05 A2962 RMK SLP974 T02841049 52005 IEM_DS3505
ZBHH,2007-06-01 13:00,ZBHH 011300Z AUTO 00000KT 6SM 25/M04 A2965 RMK T02501040 IEM_DS3505
ZBHH,2007-06-01 14:00,ZBHH 011400Z AUTO 10002KT 6SM 22/M02 A2968 RMK T02201020 IEM_DS3505
ZBHH,2007-06-01 15:00,ZBHH 011500Z AUTO 32002KT 19SM 22/M02 A2968 RMK SLP996 T02151017 52016 IEM_DS3505
ZBHH,2007-06-01 16:00,ZBHH 011600Z AUTO 07002KT 6SM 20/M01 A2971 RMK T02001010 IEM_DS3505
ZBHH,2007-06-01 17:00,ZBHH 011700Z AUTO 07002KT 6SM 17/M01 A2971 RMK T01701010 IEM_DS3505
ZBHH,2007-06-01 18:00,ZBHH 011800Z AUTO 09002KT 19SM 19/M02 A2971 RMK SLP996 T01881022 52010 IEM_DS3505
ZBHH,2007-06-01 19:00,ZBHH 011900Z AUTO 06002KT 6SM 16/M01 A2971 RMK T01601010 IEM_DS3505
ZBHH,2007-06-01 20:00,ZBHH 012000Z AUTO 08004KT 6SM 15/M02 A2971 RMK T01501020 IEM_DS3505
ZBHH,2007-06-01 21:00,ZBHH 012100Z AUTO 09002KT 19SM 15/M01 A2974 RMK SLP011 T01511010 52008 IEM_DS3505
ZBHH,2007-06-01 22:00,ZBHH 012200Z AUTO 05002KT 6SM 16/M01 A2974 RMK T01601010 IEM_DS3505
ZBHH,2007-06-01 23:00,ZBHH 012300Z AUTO 07002KT 6SM 19/00 A2977 RMK T01900000 IEM_DS3505
ZBHH,2007-06-02 00:00,ZBHH 020000Z AUTO 09004KT 19SM 23/01 A2977 RMK SLP017 T02260010 52013 IEM_DS3505
ZBHH,2007-06-02 01:00,ZBHH 020100Z AUTO 21002KT 6SM 24/01 A2977 RMK T02400010 IEM_DS3505
ZBHH,2007-06-02 02:00,ZBHH 020200Z AUTO 23004KT 6SM 25/01 A2977 RMK T02500010 IEM_DS3505
ZBHH,2007-06-02 03:00,ZBHH 020300Z AUTO 16004KT 12SM 27/01 A2977 RMK SLP015 T02700014 57006 IEM_DS3505
ZBHH,2007-06-02 04:00,ZBHH 020400Z AUTO 22008KT 6SM 29/01 A2974 RMK T02900010 IEM_DS3505
ZBHH,2007-06-02 05:00,ZBHH 020500Z AUTO 26010KT 6SM 31/M01 A2974 RMK T03101010 IEM_DS3505
ZBHH,2007-06-02 06:00,ZBHH 020600Z AUTO 22012KT 16SM 32/M02 A2971 RMK SLP990 T03201021 57018 IEM_DS3505
ZBHH,2007-06-02 07:00,ZBHH 020700Z AUTO 24017KT 6SM 33/M04 A2968 RMK T03301040 IEM_DS3505
ZBHH,2007-06-02 08:00,ZBHH 020800Z AUTO 24016KT 6SM 33/M07 A2965 RMK T03301070 IEM_DS3505
ZBHH,2007-06-02 09:00,ZBHH 020900Z AUTO 25008KT 19SM 33/M06 A2965 RMK SLP980 T03271058 57015 IEM_DS3505
ZBHH,2007-06-02 10:00,ZBHH 021000Z AUTO 23010KT 7SM 32/M03 A2965 RMK T03201030 IEM_DS3505
ZBHH,2007-06-02 11:00,ZBHH 021100Z AUTO 22006KT 7SM 31/M02 A2965 RMK T03101020 IEM_DS3505
ZBHH,2007-06-02 12:00,ZBHH 021200Z AUTO 22004KT 19SM 30/M02 A2968 RMK SLP974 T03011024 52004 IEM_DS3505
ZBHH,2007-06-02 13:00,ZBHH 021300Z AUTO 00000KT 6SM 26/M01 A2968 RMK T02601010 IEM_DS3505
ZBHH,2007-06-02 14:00,ZBHH 021400Z AUTO 00000KT 6SM 24/01 A2971 RMK T02400010 IEM_DS3505
ZBHH,2007-06-02 15:00,ZBHH 021500Z AUTO 29002KT 19SM 25/00 A2971 RMK SLP996 T02520000 52018 IEM_DS3505
ZBHH,2007-06-02 16:00,ZBHH 021600Z AUTO 00000KT 6SM 22/01 A2974 RMK T02200010 IEM_DS3505
ZBHH,2007-06-02 17:00,ZBHH 021700Z AUTO 09002KT 6SM 19/00 A2974 RMK T01900000 IEM_DS3505
ZBHH,2007-06-02 18:00,ZBHH 021800Z AUTO 07004KT 19SM 21/01 A2971 RMK SLP991 T02120010 57002 IEM_DS3505
ZBHH,2007-06-02 19:00,ZBHH 021900Z AUTO 05002KT 6SM 19/01 A2974 RMK T01900010 IEM_DS3505
ZBHH,2007-06-02 20:00,ZBHH 022000Z AUTO 04004KT 6SM 19/01 A2974 RMK T01900010 IEM_DS3505
ZBHH,2007-06-02 21:00,ZBHH 022100Z AUTO 09004KT 19SM 20/01 A2977 RMK SLP007 T01980013 52013 IEM_DS3505
ZBHH,2007-06-02 22:00,ZBHH 022200Z AUTO 08004KT 7SM 20/01 A2980 RMK T02000010 IEM_DS3505
ZBHH,2007-06-02 23:00,ZBHH 022300Z AUTO 35010KT 5SM 23/M05 A2983 RMK T02301050 IEM_DS3505
ZBHH,2007-06-03 00:00,ZBHH 030000Z AUTO 32008KT 7SM 21/M06 A2985 RMK SLP039 T02131064 52026 IEM_DS3505
ZBHH,2007-06-03 01:00,ZBHH 030100Z AUTO 01014KT 2SM 21/M03 A2985 RMK T02101030 IEM_DS3505
ZBHH,2007-06-03 02:00,ZBHH 030200Z AUTO 36014KT 4SM 22/M02 A2991 RMK T02201020 IEM_DS3505
ZBHH,2007-06-03 03:00,ZBHH 030300Z AUTO 34004KT 6SM 23/M02 A2991 RMK SLP075 T02291019 52026 IEM_DS3505
ZBHH,2007-06-03 04:00,ZBHH 030400Z AUTO 02014KT 4SM 22/M03 A2991 RMK T02201030 IEM_DS3505
ZBHH,2007-06-03 05:00,ZBHH 030500Z AUTO 01016KT 6SM 21/M02 A2991 RMK T02101020 IEM_DS3505
ZBHH,2007-06-03 06:00,ZBHH 030600Z AUTO 29010KT 12SM 21/M02 A2994 RMK SLP092 T02131025 52005 IEM_DS3505
ZBHH,2007-06-03 07:00,ZBHH 030700Z AUTO 01010KT 7SM 20/M04 A2994 RMK T02001040 IEM_DS3505
ZBHH,2007-06-03 08:00,ZBHH 030800Z AUTO 02012KT 6SM 22/M06 A2994 RMK T02201060 IEM_DS3505
ZBHH,2007-06-03 09:00,ZBHH 030900Z AUTO 02006G25KT 19SM 22/M07 A2994 RMK SLP097 T02151071 52002 IEM_DS3505
ZBHH,2007-06-03 10:00,ZBHH 031000Z AUTO 02014KT 6SM 19/M09 A2997 RMK T01901090 IEM_DS3505
ZBHH,2007-06-03 11:00,ZBHH 031100Z AUTO 03010KT 6SM 19/M10 A2997 RMK T01901100 IEM_DS3505
ZBHH,2007-06-03 12:00,ZBHH 031200Z AUTO 34004KT 19SM 19/M11 A3000 RMK SLP116 T01921109 52015 IEM_DS3505
ZBHH,2007-06-03 13:00,ZBHH 031300Z AUTO 03008KT 6SM 17/M11 A3003 RMK T01701110 IEM_DS3505
ZBHH,2007-06-03 14:00,ZBHH 031400Z AUTO 05010KT 6SM 17/M11 A3003 RMK T01701110 IEM_DS3505
ZBHH,2007-06-03 15:00,ZBHH 031500Z AUTO 09004KT 19SM 15/M10 A3003 RMK SLP129 T01531096 52008 IEM_DS3505
ZBHH,2007-06-03 16:00,ZBHH 031600Z AUTO 04004KT 6SM 13/M09 A3003 RMK T01301090 IEM_DS3505
ZBHH,2007-06-03 18:00,ZBHH 031800Z AUTO 02002KT 19SM 13/M11 A3003 RMK SLP135 T01311107 57002 IEM_DS3505
ZBHH,2007-06-03 19:00,ZBHH 031900Z AUTO 10006KT 6SM A3000 RMK IEM_DS3505
ZBHH,2007-06-03 20:00,ZBHH 032000Z AUTO 10004KT 6SM 08/M10 A3000 RMK T00801100 IEM_DS3505
ZBHH,2007-06-03 21:00,ZBHH 032100Z AUTO 07002KT 19SM 10/M09 A3000 RMK SLP137 T01051087 57003 IEM_DS3505
ZBHH,2007-06-03 22:00,ZBHH 032200Z AUTO 09004KT 6SM 09/M09 A3000 RMK T00901090 IEM_DS3505
ZBHH,2007-06-03 23:00,ZBHH 032300Z AUTO 10004KT 6SM 12/M10 A3000 RMK T01201100 IEM_DS3505
ZBHH,2007-06-04 00:00,ZBHH 040000Z AUTO 16002KT 19SM 17/M08 A3000 RMK SLP129 T01711081 52001 IEM_DS3505
ZBHH,2007-06-04 01:00,ZBHH 040100Z AUTO 05002KT 6SM 19/M11 A3000 RMK T01901110 IEM_DS3505
ZBHH,2007-06-04 02:00,ZBHH 040200Z AUTO 33002KT 6SM 21/M11 A3000 RMK T02101110 IEM_DS3505
ZBHH,2007-06-04 03:00,ZBHH 040300Z AUTO 27002KT 19SM 22/M15 A2997 RMK SLP114 T02251150 57010 IEM_DS3505
ZBHH,2007-06-04 04:00,ZBHH 040400Z AUTO 24004KT 6SM 25/M11 A2997 RMK T02501110 IEM_DS3505
ZBHH,2007-06-04 05:00,ZBHH 040500Z AUTO 6SM 26/M12 A2991 RMK T02601120 IEM_DS3505
ZBHH,2007-06-04 06:00,ZBHH 040600Z AUTO 16006KT 19SM 27/M10 A2991 RMK SLP083 T02681102 57024 IEM_DS3505
ZBHH,2007-06-04 07:00,ZBHH 040700Z AUTO 27006KT 6SM 27/M09 A2988 RMK T02701090 IEM_DS3505
ZBHH,2007-06-04 08:00,ZBHH 040800Z AUTO 23006KT 6SM 28/M08 A2985 RMK T02801080 IEM_DS3505
ZBHH,2007-06-04 09:00,ZBHH 040900Z AUTO 20008KT 19SM 28/M08 A2985 RMK SLP063 T02821076 57020 IEM_DS3505
ZBHH,2007-06-04 10:00,ZBHH 041000Z AUTO 24006KT 6SM 28/M05 A2983 RMK T02801050 IEM_DS3505
ZBHH,2007-06-04 11:00,ZBHH 041100Z AUTO 23004KT 6SM 27/M05 A2983 RMK T02701050 IEM_DS3505
ZBHH,2007-06-04 12:00,ZBHH 041200Z AUTO 22004KT 19SM 26/M05 A2985 RMK SLP057 T02561048 52002 IEM_DS3505
ZBHH,2007-06-04 13:00,ZBHH 041300Z AUTO 02002KT 6SM 22/M02 A2985 RMK T02201020 IEM_DS3505
ZBHH,2007-06-04 14:00,ZBHH 041400Z AUTO 08002KT 6SM 20/M05 A2988 RMK T02001050 IEM_DS3505
ZBHH,2007-06-04 15:00,ZBHH 041500Z AUTO 11002KT 19SM 19/M03 A2988 RMK SLP072 T01891027 52011 IEM_DS3505
ZBHH,2007-06-04 16:00,ZBHH 041600Z AUTO 09004KT 6SM 17/M05 A2988 RMK T01701050 IEM_DS3505
ZBHH,2007-06-04 17:00,ZBHH 041700Z AUTO 08004KT 6SM 16/M05 A2988 RMK T01601050 IEM_DS3505
ZBHH,2007-06-04 18:00,ZBHH 041800Z AUTO 03002KT 19SM 15/M03 A2988 RMK SLP071 T01521032 54000 IEM_DS3505
ZBHH,2007-06-04 19:00,ZBHH 041900Z AUTO 09004KT 6SM 15/M05 A2988 RMK T01501050 IEM_DS3505
ZBHH,2007-06-04 20:00,ZBHH 042000Z AUTO 04004KT 6SM 14/M05 A2985 RMK T01401050 IEM_DS3505
ZBHH,2007-06-04 21:00,ZBHH 042100Z AUTO 09002KT 19SM 13/M04 A2985 RMK SLP068 T01331035 57003 IEM_DS3505
ZBHH,2007-06-04 22:00,ZBHH 042200Z AUTO 06004KT 6SM 15/M05 A2985 RMK T01501050 IEM_DS3505
ZBHH,2007-06-04 23:00,ZBHH 042300Z AUTO 09004KT 6SM 18/M05 A2988 RMK T01801050 IEM_DS3505
ZBHH,2007-06-05 00:00,ZBHH 050000Z AUTO 09002KT 19SM 22/M01 A2988 RMK SLP062 T02221011 52006 IEM_DS3505
ZBHH,2007-06-05 01:00,ZBHH 050100Z AUTO 03002KT 6SM 25/M04 A2988 RMK T02501040 IEM_DS3505
ZBHH,2007-06-05 02:00,ZBHH 050200Z AUTO 21004KT 6SM 26/M01 A2988 RMK T02601010 IEM_DS3505
ZBHH,2007-06-05 03:00,ZBHH 050300Z AUTO 25004KT 19SM 28/M02 A2988 RMK SLP059 T02751024 57005 IEM_DS3505
ZBHH,2007-06-05 04:00,ZBHH 050400Z AUTO 22006KT 6SM 28/03 A2985 RMK T02800030 IEM_DS3505
ZBHH,2007-06-05 05:00,ZBHH 050500Z AUTO 26004G16KT 6SM 30/01 A2985 RMK T03000010 IEM_DS3505
ZBHH,2007-06-05 06:00,ZBHH 050600Z AUTO 18004KT 19SM 31/M01 A2983 RMK SLP040 T03071008 57018 IEM_DS3505
ZBHH,2007-06-05 07:00,ZBHH 050700Z AUTO 22004KT 6SM 31/M02 A2980 RMK T03101020 IEM_DS3505
ZBHH,2007-06-05 08:00,ZBHH 050800Z AUTO 24006KT 6SM 31/M03 A2980 RMK T03101030 IEM_DS3505
ZBHH,2007-06-05 09:00,ZBHH 050900Z AUTO 20004KT 19SM 31/M03 A2977 RMK SLP028 T03141026 57013 IEM_DS3505
ZBHH,2007-06-05 10:00,ZBHH 051000Z AUTO 23006KT 6SM 31/M02 A2977 RMK T03101020 IEM_DS3505
ZBHH,2007-06-05 11:00,ZBHH 051100Z AUTO 22006KT 6SM 29/M02 A2977 RMK T02901020 IEM_DS3505
ZBHH,2007-06-05 12:00,ZBHH 051200Z AUTO 25004KT 19SM 28/M03 A2977 RMK SLP015 T02821028 57001 IEM_DS3505
ZBHH,2007-06-05 13:00,ZBHH 051300Z AUTO 12002KT 6SM 25/M01 A2980 RMK T02501010 IEM_DS3505
ZBHH,2007-06-05 14:00,ZBHH 051400Z AUTO 04004KT 6SM 23/00 A2980 RMK T02300000 IEM_DS3505
ZBHH,2007-06-05 15:00,ZBHH 051500Z AUTO 11002KT 19SM 22/02 A2980 RMK SLP029 T02150017 52010 IEM_DS3505
ZBHH,2007-06-05 16:00,ZBHH 051600Z AUTO 04002KT 6SM 20/00 A2980 RMK T02000000 IEM_DS3505
ZBHH,2007-06-05 17:00,ZBHH 051700Z AUTO 05002KT 6SM 20/00 A2980 RMK T02000000 IEM_DS3505
ZBHH,2007-06-05 18:00,ZBHH 051800Z AUTO 09002KT 19SM 19/00 A2980 RMK SLP030 T01910002 52002 IEM_DS3505
ZBHH,2007-06-05 19:00,ZBHH 051900Z AUTO 08004KT 6SM 18/M01 A2980 RMK T01801010 IEM_DS3505
ZBHH,2007-06-05 20:00,ZBHH 052000Z AUTO 07006KT 6SM 18/M01 A2983 RMK T01801010 IEM_DS3505
ZBHH,2007-06-05 21:00,ZBHH 052100Z AUTO 11002KT 19SM 17/01 A2983 RMK SLP036 T01720008 52003 IEM_DS3505
ZBHH,2007-06-05 22:00,ZBHH 052200Z AUTO 08004KT 6SM 17/00 A2983 RMK T01700000 IEM_DS3505
ZBHH,2007-06-05 23:00,ZBHH 052300Z AUTO 08002KT 6SM 19/01 A2985 RMK T01900010 IEM_DS3505
ZBHH,2007-06-06 00:00,ZBHH 060000Z AUTO 18002KT 12SM 24/02 A2985 RMK SLP047 T02350018 52016 IEM_DS3505
ZBHH,2007-06-06 01:00,ZBHH 060100Z AUTO 16002KT 6SM 26/02 A2985 RMK T02600020 IEM_DS3505
ZBHH,2007-06-06 02:00,ZBHH 060200Z AUTO 20004KT 4SM 26/04 A2985 RMK T02600040 IEM_DS3505
ZBHH,2007-06-06 03:00,ZBHH 060300Z AUTO 25004KT 12SM 28/04 A2985 RMK SLP046 T02830039 57005 IEM_DS3505
ZBHH,2007-06-06 04:00,ZBHH 060400Z AUTO 22004KT 4SM 30/05 A2983 RMK T03000050 IEM_DS3505
ZBHH,2007-06-06 05:00,ZBHH 060500Z AUTO 18004KT 4SM 32/05 A2980 RMK T03200050 IEM_DS3505
ZBHH,2007-06-06 06:00,ZBHH 060600Z AUTO 25006KT 9SM 31/03 A2980 RMK SLP020 T03120033 57022 IEM_DS3505
ZBHH,2007-06-06 07:00,ZBHH 060700Z AUTO 27010KT 5SM 32/01 A2977 RMK T03200010 IEM_DS3505
ZBHH,2007-06-06 08:00,ZBHH 060800Z AUTO 32008KT 7SM 30/M01 A2980 RMK T03001010 IEM_DS3505
ZBHH,2007-06-06 09:00,ZBHH 060900Z AUTO 02006G23KT 19SM 28/M00 A2983 RMK SLP036 T02801001 52005 IEM_DS3505
ZBHH,2007-06-06 10:00,ZBHH 061000Z AUTO 32010KT 7SM 28/01 A2980 RMK T02800010 IEM_DS3505
ZBHH,2007-06-06 11:00,ZBHH 061100Z AUTO 24014G27KT 4SM 27/03 A2983 RMK T02700030 IEM_DS3505
ZBHH,2007-06-06 12:00,ZBHH 061200Z AUTO 22010KT 12SM 25/04 A2985 RMK SLP046 T02500042 52015 IEM_DS3505
ZBHH,2007-06-06 13:00,ZBHH 061300Z AUTO 24006KT 7SM 24/04 A2985 RMK T02400040 IEM_DS3505
ZBHH,2007-06-06 14:00,ZBHH 061400Z AUTO 26002KT 7SM 22/05 A2988 RMK T02200050 IEM_DS3505
ZBHH,2007-06-06 15:00,ZBHH 061500Z AUTO 16002KT 19SM 22/05 A2988 RMK SLP052 T02200054 52009 IEM_DS3505
ZBHH,2007-06-06 16:00,ZBHH 061600Z AUTO 03006KT 6SM 19/05 A2988 RMK T01900050 IEM_DS3505
ZBHH,2007-06-06 18:00,ZBHH 061800Z AUTO 11002KT 19SM 17/06 A2985 RMK SLP050 T01730056 57005 IEM_DS3505
ZBHH,2007-06-06 19:00,ZBHH 061900Z AUTO 16002KT 6SM 16/05 A2985 RMK T01600050 IEM_DS3505
ZBHH,2007-06-06 20:00,ZBHH 062000Z AUTO 06002KT 6SM 16/05 A2985 RMK T01600050 IEM_DS3505
ZBHH,2007-06-06 21:00,ZBHH 062100Z AUTO 27002KT 19SM 16/06 A2988 RMK SLP069 T01630062 52009 IEM_DS3505
ZBHH,2007-06-06 22:00,ZBHH 062200Z AUTO 04002KT 6SM 15/05 A2991 RMK T01500050 IEM_DS3505
ZBHH,2007-06-06 23:00,ZBHH 062300Z AUTO 00000KT 4SM 19/05 A2991 RMK T01900050 IEM_DS3505
ZBHH,2007-06-07 00:00,ZBHH 070000Z AUTO 18002KT 19SM 22/05 A2991 RMK SLP072 T02240054 52008 IEM_DS3505
ZBHH,2007-06-07 01:00,ZBHH 070100Z AUTO 05002KT 6SM 23/05 A2991 RMK T02300050 IEM_DS3505
ZBHH,2007-06-07 02:00,ZBHH 070200Z AUTO 12002KT 6SM 26/05 A2991 RMK T02600050 IEM_DS3505
ZBHH,2007-06-07 03:00,ZBHH 070300Z AUTO 14002KT 19SM 29/04 A2991 RMK SLP060 T02880043 57004 IEM_DS3505
ZBHH,2007-06-07 04:00,ZBHH 070400Z AUTO 27004KT 7SM 30/04 A2988 RMK T03000040 IEM_DS3505
ZBHH,2007-06-07 05:00,ZBHH 070500Z AUTO 22006KT 7SM 30/03 A2988 RMK T03000030 IEM_DS3505
ZBHH,2007-06-07 06:00,ZBHH 070600Z AUTO 18008KT 19SM 32/01 A2985 RMK SLP044 T03180010 57018 IEM_DS3505
ZBHH,2007-06-07 07:00,ZBHH 070700Z AUTO 23008KT 7SM 31/02 A2985 RMK T03100020 IEM_DS3505
ZBHH,2007-06-07 08:00,ZBHH 070800Z AUTO 24004KT 7SM 32/01 A2983 RMK T03200010 IEM_DS3505
ZBHH,2007-06-07 09:00,ZBHH 070900Z AUTO 32004KT 12SM 32/00 A2983 RMK SLP034 T03190001 57010 IEM_DS3505
ZBHH,2007-06-07 10:00,ZBHH 071000Z AUTO 33006KT 7SM 32/M02 A2983 RMK T03201020 IEM_DS3505
ZBHH,2007-06-07 11:00,ZBHH 071100Z AUTO 20002KT 7SM 31/00 A2983 RMK T03100000 IEM_DS3505
ZBHH,2007-06-07 12:00,ZBHH 071200Z AUTO 25004KT 19SM 29/01 A2985 RMK SLP046 T02900007 52016 IEM_DS3505
ZBHH,2007-06-07 13:00,ZBHH 071300Z AUTO 02002KT 6SM 26/02 A2988 RMK T02600020 IEM_DS3505
ZBHH,2007-06-07 14:00,ZBHH 071400Z AUTO 09004KT 6SM 23/02 A2991 RMK T02300020 IEM_DS3505
ZBHH,2007-06-07 15:00,ZBHH 071500Z AUTO 11002KT 19SM 22/04 A2994 RMK SLP067 T02250036 52019 IEM_DS3505
ZBHH,2007-06-07 16:00,ZBHH 071600Z AUTO 08004KT 6SM 20/01 A2994 RMK T02000010 IEM_DS3505
ZBHH,2007-06-07 17:00,ZBHH 071700Z AUTO 07004KT 6SM 21/01 A2994 RMK T02100010 IEM_DS3505
ZBHH,2007-06-07 18:00,ZBHH 071800Z AUTO 09002KT 19SM 20/04 A2994 RMK SLP077 T01960037 52009 IEM_DS3505
ZBHH,2007-06-07 19:00,ZBHH 071900Z AUTO 14004KT 6SM 18/01 A2997 RMK T01800010 IEM_DS3505
ZBHH,2007-06-07 20:00,ZBHH 072000Z AUTO 08006KT 6SM 18/01 A2997 RMK T01800010 IEM_DS3505
ZBHH,2007-06-07 21:00,ZBHH 072100Z AUTO 07002KT 19SM 18/02 A2997 RMK SLP089 T01850019 52009 IEM_DS3505
ZBHH,2007-06-07 22:00,ZBHH 072200Z AUTO 06002KT 6SM 17/03 A3000 RMK T01700030 IEM_DS3505
ZBHH,2007-06-07 23:00,ZBHH 072300Z AUTO 10002KT 6SM 20/02 A3000 RMK T02000020 IEM_DS3505
ZBHH,2007-06-08 00:00,ZBHH 080000Z AUTO 11002KT 19SM 25/04 A3000 RMK SLP095 T02480040 52011 IEM_DS3505
ZBHH,2007-06-08 01:00,ZBHH 080100Z AUTO 13002KT 6SM 27/02 A3003 RMK T02700020 IEM_DS3505
ZBHH,2007-06-08 02:00,ZBHH 080200Z AUTO 00000KT 6SM 30/02 A3003 RMK T03000020 IEM_DS3505
ZBHH,2007-06-08 03:00,ZBHH 080300Z AUTO 22002KT 19SM 31/02 A3000 RMK SLP093 T03060019 57003 IEM_DS3505
ZBHH,2007-06-08 04:00,ZBHH 080400Z AUTO 28004KT 7SM 33/01 A3000 RMK T03300010 IEM_DS3505
ZBHH,2007-06-08 05:00,ZBHH 080500Z AUTO 27004KT 7SM 34/01 A2997 RMK T03400010 IEM_DS3505
ZBHH,2007-06-08 06:00,ZBHH 080600Z AUTO 18008G17KT 19SM 34/M00 A2994 RMK SLP069 T03441003 57020 IEM_DS3505
ZBHH,2007-06-08 07:00,ZBHH 080700Z AUTO 15014KT 7SM 36/M02 A2994 RMK T03601020 IEM_DS3505
ZBHH,2007-06-08 08:00,ZBHH 080800Z AUTO 09008KT 7SM 35/M03 A2991 RMK T03501030 IEM_DS3505
ZBHH,2007-06-08 09:00,ZBHH 080900Z AUTO 09004KT 19SM 35/M04 A2991 RMK SLP054 T03531039 57013 IEM_DS3505
ZBHH,2007-06-08 10:00,ZBHH 081000Z AUTO 15008KT 7SM 35/M02 A2991 RMK T03501020 IEM_DS3505
ZBHH,2007-06-08 11:00,ZBHH 081100Z AUTO 18004KT 7SM 34/M02 A2991 RMK T03401020 IEM_DS3505
ZBHH,2007-06-08 12:00,ZBHH 081200Z AUTO 20002KT 19SM 32/M02 A2994 RMK SLP058 T03221020 52009 IEM_DS3505
ZBHH,2007-06-08 13:00,ZBHH 081300Z AUTO 02004KT 7SM 28/01 A2997 RMK T02800010 IEM_DS3505
ZBHH,2007-06-08 14:00,ZBHH 081400Z AUTO 13004KT 7SM 27/M01 A3000 RMK T02701010 IEM_DS3505
ZBHH,2007-06-08 15:00,ZBHH 081500Z AUTO 25002KT 19SM 27/01 A3000 RMK SLP079 T02740010 52020 IEM_DS3505
ZBHH,2007-06-08 16:00,ZBHH 081600Z AUTO 09004KT 6SM 23/M01 A3000 RMK T02301010 IEM_DS3505
ZBHH,2007-06-08 18:00,ZBHH 081800Z AUTO 16002KT 19SM 22/01 A3000 RMK SLP083 T02220013 52001 IEM_DS3505
ZBHH,2007-06-08 19:00,ZBHH 081900Z AUTO 06002KT 6SM 21/01 A3000 RMK T02100010 IEM_DS3505
ZBHH,2007-06-08 20:00,ZBHH 082000Z AUTO 08002KT 6SM 20/01 A3000 RMK T02000010 IEM_DS3505
ZBHH,2007-06-08 21:00,ZBHH 082100Z AUTO 12002KT 19SM 19/03 A3003 RMK SLP093 T01880030 52005 IEM_DS3505
ZBHH,2007-06-08 22:00,ZBHH 082200Z AUTO 10002KT 6SM 19/01 A3003 RMK T01900010 IEM_DS3505
ZBHH,2007-06-08 23:00,ZBHH 082300Z AUTO 09002KT 6SM 22/03 A3003 RMK T02200030 IEM_DS3505
ZBHH,2007-06-09 00:00,ZBHH 090000Z AUTO 09002KT 19SM 25/03 A3003 RMK SLP091 T02540028 52004 IEM_DS3505
ZBHH,2007-06-09 01:00,ZBHH 090100Z AUTO 23004KT 6SM 26/03 A3003 RMK T02600030 IEM_DS3505
ZBHH,2007-06-09 02:00,ZBHH 090200Z AUTO 22004KT 6SM 28/03 A3003 RMK T02800030 IEM_DS3505
ZBHH,2007-06-09 03:00,ZBHH 090300Z AUTO 18002KT 12SM 30/02 A3000 RMK SLP082 T03050019 57007 IEM_DS3505
ZBHH,2007-06-09 04:00,ZBHH 090400Z AUTO 22004KT 6SM 32/02 A2997 RMK T03200020 IEM_DS3505
ZBHH,2007-06-09 05:00,ZBHH 090500Z AUTO 24008KT 6SM 33/03 A2994 RMK T03300030 IEM_DS3505
ZBHH,2007-06-09 06:00,ZBHH 090600Z AUTO 18008KT 12SM 34/01 A2991 RMK SLP052 T03440009 57029 IEM_DS3505
ZBHH,2007-06-09 07:00,ZBHH 090700Z AUTO 23006G16KT 6SM 35/01 A2988 RMK T03500010 IEM_DS3505
ZBHH,2007-06-09 08:00,ZBHH 090800Z AUTO 26004KT 6SM 35/02 A2985 RMK T03500020 IEM_DS3505
ZBHH,2007-06-09 09:00,ZBHH 090900Z AUTO 20008KT 19SM 34/01 A2985 RMK SLP037 T03450010 57019 IEM_DS3505
ZBHH,2007-06-09 10:00,ZBHH 091000Z AUTO 23008KT 6SM 34/01 A2985 RMK T03400010 IEM_DS3505
ZBHH,2007-06-09 11:00,ZBHH 091100Z AUTO 24004KT 6SM 33/01 A2985 RMK T03300010 IEM_DS3505
ZBHH,2007-06-09 12:00,ZBHH 091200Z AUTO 20002KT 19SM 29/03 A2988 RMK SLP042 T02910031 52006 IEM_DS3505
ZBHH,2007-06-09 13:00,ZBHH 091300Z AUTO 17002KT 6SM 31/00 A2991 RMK T03100000 IEM_DS3505
ZBHH,2007-06-09 14:00,ZBHH 091400Z AUTO 20004KT 6SM 28/03 A2991 RMK T02800030 IEM_DS3505
ZBHH,2007-06-09 15:00,ZBHH 091500Z AUTO 20004KT 19SM 29/02 A2994 RMK SLP056 T02870021 52021 IEM_DS3505
ZBHH,2007-06-09 16:00,ZBHH 091600Z AUTO 00000KT 6SM 26/03 A2994 RMK T02600030 IEM_DS3505
ZBHH,2007-06-09 17:00,ZBHH 091700Z AUTO 00000KT 6SM 24/03 A2994 RMK T02400030 IEM_DS3505
ZBHH,2007-06-09 18:00,ZBHH 091800Z AUTO 18004KT 19SM 26/04 A2994 RMK SLP051 T02630041 57002 IEM_DS3505
ZBHH,2007-06-09 19:00,ZBHH 091900Z AUTO 05004KT 6SM 23/03 A2994 RMK T02300030 IEM_DS3505
ZBHH,2007-06-09 20:00,ZBHH 092000Z AUTO 06002KT 6SM 22/04 A2994 RMK T02200040 IEM_DS3505
ZBHH,2007-06-09 21:00,ZBHH 092100Z AUTO 09002KT 19SM 23/05 A2994 RMK SLP063 T02340049 52006 IEM_DS3505
ZBHH,2007-06-09 22:00,ZBHH 092200Z AUTO 03004KT 6SM 21/05 A2994 RMK T02100050 IEM_DS3505
ZBHH,2007-06-09 23:00,ZBHH 092300Z AUTO 11002KT 4SM 22/06 A2997 RMK T02200060 IEM_DS3505
ZBHH,2007-06-10 00:00,ZBHH 100000Z AUTO 18002KT 19SM 26/06 A2997 RMK SLP075 T02560058 52005 IEM_DS3505
ZBHH,2007-06-10 01:00,ZBHH 100100Z AUTO 24002KT 4SM 25/07 A2997 RMK T02500070 IEM_DS3505
ZBHH,2007-06-10 02:00,ZBHH 100200Z AUTO 22004KT 4SM 26/07 A2997 RMK T02600070 IEM_DS3505
ZBHH,2007-06-10 03:00,ZBHH 100300Z AUTO 20006KT 12SM 28/06 A2994 RMK SLP068 T02800062 57003 IEM_DS3505
ZBHH,2007-06-10 04:00,ZBHH 100400Z AUTO 23008KT 4SM 29/07 A2994 RMK T02900070 IEM_DS3505
ZBHH,2007-06-10 05:00,ZBHH 100500Z AUTO 23008KT 4SM 30/07 A2988 RMK T03000070 IEM_DS3505
ZBHH,2007-06-10 06:00,ZBHH 100600Z AUTO 22006KT 12SM 30/06 A2988 RMK SLP038 T03040056 57026 IEM_DS3505
ZBHH,2007-06-10 07:00,ZBHH 100700Z AUTO 26008KT 4SM 31/06 A2985 RMK T03100060 IEM_DS3505
ZBHH,2007-06-10 08:00,ZBHH 100800Z AUTO 24006KT 4SM 31/06 A2983 RMK T03100060 IEM_DS3505
ZBHH,2007-06-10 09:00,ZBHH 100900Z AUTO 27002KT 9SM 31/05 A2983 RMK SLP021 T03100047 57020 IEM_DS3505
ZBHH,2007-06-10 10:00,ZBHH 101000Z AUTO 24014KT 5SM 30/04 A2983 RMK T03000040 IEM_DS3505
ZBHH,2007-06-10 11:00,ZBHH 101100Z AUTO 30002KT 5SM 28/06 A2983 RMK T02800060 IEM_DS3505
ZBHH,2007-06-10 12:00,ZBHH 101200Z AUTO 27002KT 9SM 26/10 A2983 RMK SLP037 T02570095 52009 IEM_DS3505
ZBHH,2007-06-10 13:00,ZBHH 101300Z AUTO 00000KT 4SM 24/07 A2985 RMK T02400070 IEM_DS3505
ZBHH,2007-06-10 14:00,ZBHH 101400Z AUTO 08002KT 4SM 24/05 A2985 RMK T02400050 IEM_DS3505
ZBHH,2007-06-10 15:00,ZBHH 101500Z AUTO 11002KT 9SM 23/08 A2985 RMK SLP043 T02260083 52004 IEM_DS3505
ZBHH,2007-06-10 16:00,ZBHH 101600Z AUTO 09002KT 5SM 22/05 A2985 RMK T02200050 IEM_DS3505
ZBHH,2007-06-10 17:00,ZBHH 101700Z AUTO 02004KT 5SM 21/05 A2985 RMK T02100050 IEM_DS3505
ZBHH,2007-06-10 18:00,ZBHH 101800Z AUTO 20004KT 9SM 24/06 A2985 RMK SLP035 T02400063 54000 IEM_DS3505
ZBHH,2007-06-10 21:00,ZBHH 102100Z AUTO 02002KT 9SM 21/07 A2985 RMK SLP042 T02070070 52001 IEM_DS3505
ZBHH,2007-06-10 22:00,ZBHH 102200Z AUTO 06004KT 4SM 19/07 A2988 RMK T01900070 IEM_DS3505
ZBHH,2007-06-10 23:00,ZBHH 102300Z AUTO 09004KT 4SM 20/07 A2988 RMK T02000070 IEM_DS3505
ZBHH,2007-06-11 00:00,ZBHH 110000Z AUTO 09004KT 9SM 23/07 A2988 RMK SLP059 T02270073 52009 IEM_DS3505
ZBHH,2007-06-11 01:00,ZBHH 110100Z AUTO 26002KT 4SM 24/06 A2988 RMK T02400060 IEM_DS3505
ZBHH,2007-06-11 02:00,ZBHH 110200Z AUTO 25006KT 5SM 25/05 A2988 RMK T02500050 IEM_DS3505
ZBHH,2007-06-11 03:00,ZBHH 110300Z AUTO 22006KT 12SM 26/05 A2985 RMK SLP050 T02630047 57007 IEM_DS3505
ZBHH,2007-06-11 04:00,ZBHH 110400Z AUTO 24006KT 4SM 28/04 A2985 RMK T02800040 IEM_DS3505
ZBHH,2007-06-11 05:00,ZBHH 110500Z AUTO 25002KT 4SM 28/05 A2983 RMK T02800050 IEM_DS3505
ZBHH,2007-06-11 06:00,ZBHH 110600Z AUTO 20006KT 12SM 30/04 A2980 RMK SLP021 T02970036 57017 IEM_DS3505
ZBHH,2007-06-11 07:00,ZBHH 110700Z AUTO 24010KT 5SM 31/04 A2980 RMK T03100040 IEM_DS3505
ZBHH,2007-06-11 08:00,ZBHH 110800Z AUTO 24010KT 6SM 31/03 A2977 RMK T03100030 IEM_DS3505
ZBHH,2007-06-11 09:00,ZBHH 110900Z AUTO 22006KT 19SM 32/01 A2977 RMK SLP005 T03180010 57016 IEM_DS3505
ZBHH,2007-06-11 10:00,ZBHH 111000Z AUTO 25006KT 6SM 31/01 A2977 RMK T03100010 IEM_DS3505
ZBHH,2007-06-11 11:00,ZBHH 111100Z AUTO 22004KT 6SM 30/03 A2977 RMK T03000030 IEM_DS3505
ZBHH,2007-06-11 12:00,ZBHH 111200Z AUTO 22010KT 12SM 29/05 A2980 RMK SLP020 T02900052 52012 IEM_DS3505
ZBHH,2007-06-11 13:00,ZBHH 111300Z AUTO 22006KT 5SM 28/06 A2983 RMK T02800060 IEM_DS3505
ZBHH,2007-06-11 14:00,ZBHH 111400Z AUTO 09014KT 7SM 26/05 A2985 RMK T02600050 IEM_DS3505
ZBHH,2007-06-11 15:00,ZBHH 111500Z AUTO 07004KT 12SM 26/05 A2985 RMK SLP047 T02570048 52024 IEM_DS3505
ZBHH,2007-06-11 16:00,ZBHH 111600Z AUTO 01004KT 7SM 25/04 A2985 RMK T02500040 IEM_DS3505
ZBHH,2007-06-11 18:00,ZBHH 111800Z AUTO 22002KT 12SM 25/M02 A2985 RMK SLP038 T02481019 57003 IEM_DS3505
ZBHH,2007-06-11 19:00,ZBHH 111900Z AUTO 04002KT 7SM 22/02 A2985 RMK T02200020 IEM_DS3505
ZBHH,2007-06-11 21:00,ZBHH 112100Z AUTO 29002KT 12SM 23/M01 A2985 RMK SLP037 T02271014 57001 IEM_DS3505
ZBHH,2007-06-11 22:00,ZBHH 112200Z AUTO 06008KT 7SM 23/M01 A2985 RMK T02301010 IEM_DS3505
ZBHH,2007-06-11 23:00,ZBHH 112300Z AUTO 04002KT 7SM 22/00 A2988 RMK T02200000 IEM_DS3505
ZBHH,2007-06-12 00:00,ZBHH 120000Z AUTO 04004KT 12SM 24/00 A2988 RMK SLP053 T02360000 52011 IEM_DS3505
ZBHH,2007-06-12 01:00,ZBHH 120100Z AUTO 16004KT 7SM 24/00 A2988 RMK T02400000 IEM_DS3505
ZBHH,2007-06-12 02:00,ZBHH 120200Z AUTO 04006KT 7SM 24/M01 A2988 RMK T02401010 IEM_DS3505
ZBHH,2007-06-12 03:00,ZBHH 120300Z AUTO 07010KT 9SM 25/M00 A2988 RMK SLP058 T02501002 52001 IEM_DS3505
ZBHH,2007-06-12 04:00,ZBHH 120400Z AUTO 10012KT 7SM 27/M01 A2988 RMK T02701010 IEM_DS3505
ZBHH,2007-06-12 05:00,ZBHH 120500Z AUTO 12012KT 7SM 26/02 A2988 RMK T02600020 IEM_DS3505
ZBHH,2007-06-12 06:00,ZBHH 120600Z AUTO 09006KT 9SM 25/03 A2985 RMK SLP046 T02540034 57012 IEM_DS3505
ZBHH,2007-06-12 07:00,ZBHH 120700Z AUTO 07012KT 7SM 25/03 A2985 RMK T02500030 IEM_DS3505
ZBHH,2007-06-12 08:00,ZBHH 120800Z AUTO 08012KT 7SM 25/03 A2983 RMK T02500030 IEM_DS3505
ZBHH,2007-06-12 09:00,ZBHH 120900Z AUTO 09006KT 12SM 25/03 A2983 RMK SLP046 T02520026 57004 IEM_DS3505
ZBHH,2007-06-12 10:00,ZBHH 121000Z AUTO 07008KT 7SM 25/01 A2985 RMK T02500010 IEM_DS3505
ZBHH,2007-06-12 11:00,ZBHH 121100Z AUTO 10010KT 7SM 24/01 A2988 RMK T02400010 IEM_DS3505
ZBHH,2007-06-12 12:00,ZBHH 121200Z AUTO 04004KT 19SM 23/02 A2991 RMK 60000 SLP071 T02310020 52020 IEM_DS3505
ZBHH,2007-06-12 13:00,ZBHH 121300Z AUTO 10006KT 7SM 22/00 A2991 RMK T02200000 IEM_DS3505
ZBHH,2007-06-12 14:00,ZBHH 121400Z AUTO 13004KT 7SM 21/02 A2994 RMK T02100020 IEM_DS3505
ZBHH,2007-06-12 15:00,ZBHH 121500Z AUTO 09008KT 12SM 22/02 A2994 RMK SLP083 T02150022 52010 IEM_DS3505
ZBHH,2007-06-12 16:00,ZBHH 121600Z AUTO 08010KT 7SM 18/06 A2994 RMK T01800060 IEM_DS3505
ZBHH,2007-06-12 17:00,ZBHH 121700Z AUTO 08006KT 7SM 18/06 A2991 RMK T01800060 IEM_DS3505
ZBHH,2007-06-12 18:00,ZBHH 121800Z AUTO 09006KT 12SM 19/05 A2991 RMK 60000 SLP075 T01940051 57010 IEM_DS3505
ZBHH,2007-06-12 19:00,ZBHH 121900Z AUTO 08014KT 7SM 17/09 A2991 RMK T01700090 IEM_DS3505
ZBHH,2007-06-12 20:00,ZBHH 122000Z AUTO 08012KT 7SM 17/08 A2991 RMK T01700080 IEM_DS3505
ZBHH,2007-06-12 21:00,ZBHH 122100Z AUTO 09006KT 12SM 18/09 A2991 RMK 70000 SLP079 T01760087 54000 IEM_DS3505
ZBHH,2007-06-12 22:00,ZBHH 122200Z AUTO 08014KT 7SM 16/10 A2991 RMK T01600100 IEM_DS3505
ZBHH,2007-06-12 23:00,ZBHH 122300Z AUTO 08014KT 7SM 17/10 A2991 RMK T01700100 IEM_DS3505
ZBHH,2007-06-13 00:00,ZBHH 130000Z AUTO 09008KT 19SM 18/10 A2991 RMK 70000 SLP089 T01820101 52006 IEM_DS3505
ZBHH,2007-06-13 01:00,ZBHH 130100Z AUTO 08016KT 7SM 18/10 A2991 RMK T01800100 IEM_DS3505
ZBHH,2007-06-13 02:00,ZBHH 130200Z AUTO 09016KT 7SM 19/10 A2991 RMK T01900100 IEM_DS3505
ZBHH,2007-06-13 03:00,ZBHH 130300Z AUTO 07010KT 19SM 21/11 A2991 RMK SLP078 T02110109 57007 IEM_DS3505
ZBHH,2007-06-13 04:00,ZBHH 130400Z AUTO 09014KT 6SM 22/11 A2988 RMK T02200110 IEM_DS3505
ZBHH,2007-06-13 05:00,ZBHH 130500Z AUTO 11010KT 7SM 23/11 A2985 RMK T02300110 IEM_DS3505
ZBHH,2007-06-13 06:00,ZBHH 130600Z AUTO 11006KT 19SM 24/11 A2985 RMK SLP056 T02430106 57018 IEM_DS3505
ZBHH,2007-06-13 07:00,ZBHH 130700Z AUTO 11010G19KT 7SM 23/10 A2983 RMK T02300100 IEM_DS3505
ZBHH,2007-06-13 08:00,ZBHH 130800Z AUTO 15006KT 7SM 24/10 A2983 RMK T02400100 IEM_DS3505
ZBHH,2007-06-13 09:00,ZBHH 130900Z AUTO 09004KT 19SM 25/10 A2980 RMK SLP042 T02460101 57015 IEM_DS3505
ZBHH,2007-06-13 10:00,ZBHH 131000Z AUTO 12008KT 7SM 24/10 A2980 RMK T02400100 IEM_DS3505
ZBHH,2007-06-13 11:00,ZBHH 131100Z AUTO 16008KT 4SM 22/10 A2983 RMK T02200100 IEM_DS3505
ZBHH,2007-06-13 12:00,ZBHH 131200Z AUTO 16006KT 19SM 21/12 A2983 RMK SLP064 T02060115 52013 IEM_DS3505
ZBHH,2007-06-13 13:00,ZBHH 131300Z AUTO 14008KT 3SM 19/11 A2985 RMK T01900110 IEM_DS3505
ZBHH,2007-06-13 14:00,ZBHH 131400Z AUTO 12004KT 2 1/2SM 18/11 A2988 RMK T01800110 IEM_DS3505
ZBHH,2007-06-13 15:00,ZBHH 131500Z AUTO 07004KT 19SM 18/12 A2988 RMK SLP076 T01840115 52012 IEM_DS3505
ZBHH,2007-06-13 16:00,ZBHH 131600Z AUTO 09008KT 2 1/2SM 16/11 A2988 RMK T01600110 IEM_DS3505
ZBHH,2007-06-13 17:00,ZBHH 131700Z AUTO 08006KT 2 1/2SM 16/11 A2988 RMK T01600110 IEM_DS3505
ZBHH,2007-06-13 18:00,ZBHH 131800Z AUTO 07004KT 19SM 17/10 A2985 RMK SLP070 T01670105 57002 IEM_DS3505
ZBHH,2007-06-13 19:00,ZBHH 131900Z AUTO 05004KT 4SM 15/10 A2988 RMK T01500100 IEM_DS3505
ZBHH,2007-06-13 20:00,ZBHH 132000Z AUTO 07004KT 4SM 15/10 A2985 RMK T01500100 IEM_DS3505
ZBHH,2007-06-13 21:00,ZBHH 132100Z AUTO 07004KT 12SM 16/11 A2988 RMK SLP071 T01620107 54000 IEM_DS3505
ZBHH,2007-06-13 22:00,ZBHH 132200Z AUTO 10004KT 2SM 14/10 A2988 RMK T01400100 IEM_DS3505
ZBHH,2007-06-13 23:00,ZBHH 132300Z AUTO 10004KT 2SM 15/10 A2988 RMK T01500100 IEM_DS3505
ZBHH,2007-06-14 00:00,ZBHH 140000Z AUTO 11004KT 12SM 18/11 A2988 RMK SLP079 T01830109 52004 IEM_DS3505
ZBHH,2007-06-14 01:00,ZBHH 140100Z AUTO 11002KT 2 1/2SM 19/12 A2988 RMK T01900120 IEM_DS3505
ZBHH,2007-06-14 02:00,ZBHH 140200Z AUTO 27002KT 2SM 21/12 A2985 RMK T02100120 IEM_DS3505
ZBHH,2007-06-14 03:00,ZBHH 140300Z AUTO 20004KT 9SM 22/12 A2985 RMK SLP066 T02210115 57009 IEM_DS3505
ZBHH,2007-06-14 04:00,ZBHH 140400Z AUTO 25008KT 2 1/2SM 24/12 A2983 RMK T02400120 IEM_DS3505
ZBHH,2007-06-14 05:00,ZBHH 140500Z AUTO 26004KT 2 1/2SM 24/12 A2980 RMK T02400120 IEM_DS3505
ZBHH,2007-06-14 06:00,ZBHH 140600Z AUTO 18004KT 9SM 27/11 A2977 RMK SLP030 T02680113 57026 IEM_DS3505
ZBHH,2007-06-14 07:00,ZBHH 140700Z AUTO 21006KT 3SM 28/11 A2977 RMK T02800110 IEM_DS3505
ZBHH,2007-06-14 08:00,ZBHH 140800Z AUTO 23006KT 3SM 29/11 A2971 RMK T02900110 IEM_DS3505
ZBHH,2007-06-14 09:00,ZBHH 140900Z AUTO 18008KT 9SM 29/09 A2971 RMK SLP002 T02930094 57021 IEM_DS3505
ZBHH,2007-06-14 10:00,ZBHH 141000Z AUTO 23008KT 3SM 29/10 A2971 RMK T02900100 IEM_DS3505
ZBHH,2007-06-14 11:00,ZBHH 141100Z AUTO 17010KT 2 1/2SM 27/12 A2971 RMK T02700120 IEM_DS3505
ZBHH,2007-06-14 12:00,ZBHH 141200Z AUTO 18006KT 9SM 26/12 A2974 RMK SLP016 T02600121 52010 IEM_DS3505
ZBHH,2007-06-14 13:00,ZBHH 141300Z AUTO 15008KT 3SM 24/12 A2977 RMK T02400120 IEM_DS3505
ZBHH,2007-06-14 14:00,ZBHH 141400Z AUTO 3SM 23/11 A2980 RMK T02300110 IEM_DS3505
ZBHH,2007-06-14 15:00,ZBHH 141500Z AUTO 09002KT 9SM 23/12 A2980 RMK SLP032 T02340115 52016 IEM_DS3505
ZBHH,2007-06-14 16:00,ZBHH 141600Z AUTO 14004KT 4SM 22/11 A2980 RMK T02200110 IEM_DS3505
ZBHH,2007-06-14 17:00,ZBHH 141700Z AUTO 15004KT 4SM 21/11 A2980 RMK T02100110 IEM_DS3505
ZBHH,2007-06-14 18:00,ZBHH 141800Z AUTO 09002KT 12SM 22/11 RMK SLP037 T02150112 52010 IEM_DS3505
ZBHH,2007-06-14 19:00,ZBHH 141900Z AUTO 10004KT 20/12 A2983 RMK T02000120 IEM_DS3505
ZBHH,2007-06-14 21:00,ZBHH 142100Z AUTO 09002KT 12SM 20/12 RMK SLP040 T02040116 52005 IEM_DS3505
ZBHH,2007-06-14 23:00,ZBHH 142300Z AUTO 17004KT 2 1/2SM 19/12 A2985 RMK T01900120 IEM_DS3505
ZBHH,2007-06-15 00:00,ZBHH 150000Z AUTO 18002KT 6SM 22/12 A2988 RMK SLP058 T02160116 52012 IEM_DS3505
ZBHH,2007-06-15 01:00,ZBHH 150100Z AUTO 22008KT 2 1/2SM 22/12 A2988 RMK T02200120 IEM_DS3505
ZBHH,2007-06-15 02:00,ZBHH 150200Z AUTO 22006KT 2 1/2SM 22/11 A2985 RMK T02200110 IEM_DS3505
ZBHH,2007-06-15 03:00,ZBHH 150300Z AUTO 20004KT 6SM 24/11 A2985 RMK SLP052 T02440107 57005 IEM_DS3505
ZBHH,2007-06-15 04:00,ZBHH 150400Z AUTO 24008KT 3SM 25/11 A2983 RMK T02500110 IEM_DS3505
ZBHH,2007-06-15 05:00,ZBHH 150500Z AUTO 23008KT 3SM 27/10 A2983 RMK T02700100 IEM_DS3505
ZBHH,2007-06-15 06:00,ZBHH 150600Z AUTO 18010KT 6SM 28/09 A2977 RMK SLP021 T02790092 57024 IEM_DS3505
ZBHH,2007-06-15 07:00,ZBHH 150700Z AUTO 20004KT 4SM 28/10 A2977 RMK T02800100 IEM_DS3505
ZBHH,2007-06-15 08:00,ZBHH 150800Z AUTO 18004KT 4SM 29/09 A2974 RMK T02900090 IEM_DS3505
ZBHH,2007-06-15 09:00,ZBHH 150900Z AUTO 18006KT 6SM 29/09 A2974 RMK SLP003 T02890086 57017 IEM_DS3505
ZBHH,2007-06-15 10:00,ZBHH 151000Z AUTO 15008KT 5SM 29/05 A2974 RMK T02900050 IEM_DS3505
ZBHH,2007-06-15 11:00,ZBHH 151100Z AUTO 16012KT 5SM 28/06 A2974 RMK T02800060 IEM_DS3505
ZBHH,2007-06-15 12:00,ZBHH 151200Z AUTO 16004KT 6SM 27/05 A2974 RMK SLP012 T02700047 52007 IEM_DS3505
ZBHH,2007-06-15 13:00,ZBHH 151300Z AUTO 16008KT 6SM 26/05 A2977 RMK T02600050 IEM_DS3505
ZBHH,2007-06-15 14:00,ZBHH 151400Z AUTO 10002KT 6SM 25/06 A2980 RMK T02500060 IEM_DS3505
ZBHH,2007-06-15 15:00,ZBHH 151500Z AUTO 07004KT 9SM 24/07 A2980 RMK SLP033 T02390067 52018 IEM_DS3505
ZBHH,2007-06-15 16:00,ZBHH 151600Z AUTO 11004KT 6SM 22/08 A2980 RMK T02200080 IEM_DS3505
ZBHH,2007-06-15 17:00,ZBHH 151700Z AUTO 13006KT 6SM 22/09 A2980 RMK T02200090 IEM_DS3505
ZBHH,2007-06-15 18:00,ZBHH 151800Z AUTO 22002KT 12SM 22/08 A2983 RMK SLP032 T02200082 52002 IEM_DS3505
ZBHH,2007-06-15 19:00,ZBHH 151900Z AUTO 16004KT 6SM 20/08 A2983 RMK T02000080 IEM_DS3505
ZBHH,2007-06-15 20:00,ZBHH 152000Z AUTO 15004KT 6SM 20/07 A2983 RMK T02000070 IEM_DS3505
ZBHH,2007-06-15 21:00,ZBHH 152100Z AUTO 09002KT 19SM 19/10 A2983 RMK SLP043 T01870095 52006 IEM_DS3505
ZBHH,2007-06-15 22:00,ZBHH 152200Z AUTO 17004KT 4SM 18/07 A2983 RMK T01800070 IEM_DS3505
ZBHH,2007-06-15 23:00,ZBHH 152300Z AUTO 16004KT 5SM 20/07 A2985 RMK T02000070 IEM_DS3505
ZBHH,2007-06-16 00:00,ZBHH 160000Z AUTO 09004KT 12SM 21/08 A2983 RMK SLP046 T02100076 52003 IEM_DS3505
ZBHH,2007-06-16 01:00,ZBHH 160100Z AUTO 15002KT 4SM 22/07 A2983 RMK T02200070 IEM_DS3505
ZBHH,2007-06-16 02:00,ZBHH 160200Z AUTO 24006KT 4SM 23/07 A2983 RMK T02300070 IEM_DS3505
ZBHH,2007-06-16 03:00,ZBHH 160300Z AUTO 25008KT 9SM 22/08 A2985 RMK SLP054 T02220083 52004 IEM_DS3505
ZBHH,2007-06-16 04:00,ZBHH 160400Z AUTO 31010KT 2SM 17/14 A2985 RMK T01700140 IEM_DS3505
ZBHH,2007-06-16 05:00,ZBHH 160500Z AUTO 32004KT 1SM 17/14 A2988 RMK T01700140 IEM_DS3505
ZBHH,2007-06-16 06:00,ZBHH 160600Z AUTO 07002KT 7SM 17/15 A2988 RMK 60024 SLP076 T01680148 52006 IEM_DS3505
ZBHH,2007-06-16 07:00,ZBHH 160700Z AUTO 07006KT 1SM 17/14 A2985 RMK T01700140 IEM_DS3505
ZBHH,2007-06-16 08:00,ZBHH 160800Z AUTO 07006KT 1 1/2SM 17/14 A2985 RMK T01700140 IEM_DS3505
ZBHH,2007-06-16 09:00,ZBHH 160900Z AUTO 07004KT 12SM 18/14 A2985 RMK SLP074 T01840139 57005 IEM_DS3505
ZBHH,2007-06-16 10:00,ZBHH 161000Z AUTO 08004KT 2 1/2SM 19/14 A2985 RMK T01900140 IEM_DS3505
ZBHH,2007-06-16 11:00,ZBHH 161100Z AUTO 09004KT 2SM 19/14 A2985 RMK T01900140 IEM_DS3505
ZBHH,2007-06-16 12:00,ZBHH 161200Z AUTO 04002KT 9SM 19/14 A2985 RMK 60000 SLP066 T01930141 57001 IEM_DS3505
ZBHH,2007-06-16 13:00,ZBHH 161300Z AUTO 07002KT 1 1/2SM 19/15 A2985 RMK T01900150 IEM_DS3505
ZBHH,2007-06-16 14:00,ZBHH 161400Z AUTO 36002KT 1 1/2SM 18/15 A2988 RMK T01800150 IEM_DS3505
ZBHH,2007-06-16 15:00,ZBHH 161500Z AUTO 03002KT 9SM 19/15 A2988 RMK SLP069 T01900147 52004 IEM_DS3505
ZBHH,2007-06-16 16:00,ZBHH 161600Z AUTO 03002KT 2SM 18/15 A2985 RMK T01800150 IEM_DS3505
ZBHH,2007-06-16 17:00,ZBHH 161700Z AUTO 36002KT 2SM 18/14 A2985 RMK T01800140 IEM_DS3505
ZBHH,2007-06-16 18:00,ZBHH 161800Z AUTO 32002KT 9SM 19/15 RMK SLP073 T01870148 57007 IEM_DS3505
ZBHH,2007-06-16 19:00,ZBHH 161900Z AUTO 04002KT 2SM 18/15 A2983 RMK T01800150 IEM_DS3505
ZBHH,2007-06-16 20:00,ZBHH 162000Z AUTO 11004KT 2SM 17/15 A2983 RMK T01700150 IEM_DS3505
ZBHH,2007-06-16 21:00,ZBHH 162100Z AUTO 02002KT 9SM 19/14 A2985 RMK 70024 SLP072 T01860141 52002 IEM_DS3505
ZBHH,2007-06-16 22:00,ZBHH 162200Z AUTO 09004KT 1 1/2SM 18/15 A2985 RMK T01800150 IEM_DS3505
ZBHH,2007-06-16 23:00,ZBHH 162300Z AUTO 02004KT 1 1/2SM 18/15 A2985 RMK T01800150 IEM_DS3505
ZBHH,2007-06-17 00:00,ZBHH 170000Z AUTO 09004KT 9SM 20/14 A2985 RMK 70024 SLP074 T01980140 52006 IEM_DS3505
ZBHH,2007-06-17 01:00,ZBHH 170100Z AUTO 10002KT 2SM 21/15 A2988 RMK T02100150 IEM_DS3505
ZBHH,2007-06-17 02:00,ZBHH 170200Z AUTO 11002KT 1 1/2SM 22/15 A2988 RMK T02200150 IEM_DS3505
ZBHH,2007-06-17 03:00,ZBHH 170300Z AUTO 22002KT 9SM 24/13 A2985 RMK SLP065 T02400126 57001 IEM_DS3505
ZBHH,2007-06-17 04:00,ZBHH 170400Z AUTO 24002KT 2 1/2SM 25/14 A2985 RMK T02500140 IEM_DS3505
ZBHH,2007-06-17 05:00,ZBHH 170500Z AUTO 23006KT 2 1/2SM 26/13 A2985 RMK T02600130 IEM_DS3505
ZBHH,2007-06-17 06:00,ZBHH 170600Z AUTO 25006KT 9SM 25/12 A2983 RMK SLP048 T02530115 57013 IEM_DS3505
ZBHH,2007-06-17 07:00,ZBHH 170700Z AUTO 27008KT 3SM 25/12 A2983 RMK T02500120 IEM_DS3505
ZBHH,2007-06-17 08:00,ZBHH 170800Z AUTO 27002KT 3SM 25/12 A2983 RMK T02500120 IEM_DS3505
ZBHH,2007-06-17 09:00,ZBHH 170900Z AUTO 32002KT 6SM 25/11 A2983 RMK SLP045 T02520110 57003 IEM_DS3505
ZBHH,2007-06-17 10:00,ZBHH 171000Z AUTO 35010G19KT 3SM 21/15 A2983 RMK T02100150 IEM_DS3505
ZBHH,2007-06-17 11:00,ZBHH 171100Z AUTO 01010KT 3SM 19/14 A2988 RMK T01900140 IEM_DS3505
ZBHH,2007-06-17 12:00,ZBHH 171200Z AUTO 02006KT 6SM 20/14 A2988 RMK 60002 SLP071 T02020139 52016 IEM_DS3505
ZBHH,2007-06-17 13:00,ZBHH 171300Z AUTO 03006KT 4SM 19/14 A2988 RMK T01900140 IEM_DS3505
ZBHH,2007-06-17 14:00,ZBHH 171400Z AUTO 08002KT 4SM 19/14 A2991 RMK T01900140 IEM_DS3505
ZBHH,2007-06-17 15:00,ZBHH 171500Z AUTO 27002KT 6SM 19/15 A2991 RMK SLP083 T01930148 52016 IEM_DS3505
ZBHH,2007-06-17 16:00,ZBHH 171600Z AUTO 30002KT 3SM 18/15 A2991 RMK T01800150 IEM_DS3505
ZBHH,2007-06-17 17:00,ZBHH 171700Z AUTO 21002KT 4SM 17/15 A2991 RMK T01700150 IEM_DS3505
ZBHH,2007-06-17 18:00,ZBHH 171800Z AUTO 02002KT 6SM 17/15 A2991 RMK 60004 SLP082 T01730151 57002 IEM_DS3505
ZBHH,2007-06-17 19:00,ZBHH 171900Z AUTO 27002KT 4SM 17/15 A2991 RMK T01700150 IEM_DS3505
ZBHH,2007-06-17 20:00,ZBHH 172000Z AUTO 18002KT 4SM 16/15 A2991 RMK T01600150 IEM_DS3505
ZBHH,2007-06-17 21:00,ZBHH 172100Z AUTO 09004KT 6SM 18/15 A2994 RMK 70007 SLP088 T01750153 52006 IEM_DS3505
ZBHH,2007-06-17 22:00,ZBHH 172200Z AUTO 09004KT 1SM 16/15 A2994 RMK T01600150 IEM_DS3505
ZBHH,2007-06-17 23:00,ZBHH 172300Z AUTO 08004KT 1SM 16/15 A2994 RMK T01600150 IEM_DS3505
ZBHH,2007-06-18 00:00,ZBHH 180000Z AUTO 09002KT 6SM 18/15 A2994 RMK 60000 70007 SLP103 T01770151 52004 IEM_DS3505
ZBHH,2007-06-18 01:00,ZBHH 180100Z AUTO 10004KT 1 1/2SM 18/15 A2994 RMK T01800150 IEM_DS3505
ZBHH,2007-06-18 02:00,ZBHH 180200Z AUTO 09006KT 2SM 18/15 A2994 RMK T01800150 IEM_DS3505
ZBHH,2007-06-18 03:00,ZBHH 180300Z AUTO 04002KT 6SM 19/14 A2994 RMK SLP102 T01920140 54000 IEM_DS3505
ZBHH,2007-06-18 04:00,ZBHH 180400Z AUTO 10002KT 3SM 19/14 A2994 RMK T01900140 IEM_DS3505
ZBHH,2007-06-18 05:00,ZBHH 180500Z AUTO 07004KT 3SM 19/14 A2991 RMK T01900140 IEM_DS3505
ZBHH,2007-06-18 06:00,ZBHH 180600Z AUTO 07004KT 6SM 20/14 A2988 RMK 60001 SLP088 T01960142 57015 IEM_DS3505
ZBHH,2007-06-18 07:00,ZBHH 180700Z AUTO 04002KT 2SM 19/15 A2988 RMK T01900150 IEM_DS3505
ZBHH,2007-06-18 08:00,ZBHH 180800Z AUTO 33004KT 2SM 18/16 A2991 RMK T01800160 IEM_DS3505
ZBHH,2007-06-18 09:00,ZBHH 180900Z AUTO 09002KT 6SM 17/15 A2991 RMK SLP099 T01710149 52005 IEM_DS3505
ZBHH,2007-06-18 10:00,ZBHH 181000Z AUTO 05004KT 1 1/2SM 16/14 A2991 RMK T01600140 IEM_DS3505
ZBHH,2007-06-18 11:00,ZBHH 181100Z AUTO 12004KT 1SM 16/14 A2991 RMK T01600140 IEM_DS3505
ZBHH,2007-06-18 12:00,ZBHH 181200Z AUTO 20002KT 5SM 16/14 A2991 RMK 60051 SLP106 T01560140 52004 IEM_DS3505
ZBHH,2007-06-18 13:00,ZBHH 181300Z AUTO 07004KT 1 1/2SM 15/14 A2994 RMK T01500140 IEM_DS3505
ZBHH,2007-06-18 14:00,ZBHH 181400Z AUTO 06004KT 1 1/4SM 15/14 A2994 RMK T01500140 IEM_DS3505
ZBHH,2007-06-18 15:00,ZBHH 181500Z AUTO 07004KT 5SM 15/14 A2994 RMK SLP115 T01470137 52009 IEM_DS3505
ZBHH,2007-06-18 16:00,ZBHH 181600Z AUTO 08006KT 2SM 15/13 A2994 RMK T01500130 IEM_DS3505
ZBHH,2007-06-18 17:00,ZBHH 181700Z AUTO 05002KT 2 1/2SM 15/13 A2994 RMK T01500130 IEM_DS3505
ZBHH,2007-06-18 18:00,ZBHH 181800Z AUTO 08002KT 6SM 15/13 A2994 RMK 60020 SLP113 T01460130 57001 IEM_DS3505
ZBHH,2007-06-18 19:00,ZBHH 181900Z AUTO 02002KT 2 1/2SM 15/13 A2997 RMK T01500130 IEM_DS3505
ZBHH,2007-06-18 20:00,ZBHH 182000Z AUTO 12002KT 2 1/2SM 15/13 A2997 RMK T01500130 IEM_DS3505
ZBHH,2007-06-18 21:00,ZBHH 182100Z AUTO 07004KT 6SM 15/13 A2994 RMK 70074 SLP118 T01500129 54000 IEM_DS3505
ZBHH,2007-06-18 22:00,ZBHH 182200Z AUTO 11002KT 1 1/2SM 15/13 A2997 RMK T01500130 IEM_DS3505
ZBHH,2007-06-18 23:00,ZBHH 182300Z AUTO 00000KT 1 1/4SM 15/13 A2997 RMK T01500130 IEM_DS3505
ZBHH,2007-06-19 00:00,ZBHH 190000Z AUTO 04004KT 6SM 16/13 A2997 RMK 60000 70075 SLP127 T01560134 52007 IEM_DS3505
ZBHH,2007-06-19 01:00,ZBHH 190100Z AUTO 13002KT 2SM 16/13 A2997 RMK T01600130 IEM_DS3505
ZBHH,2007-06-19 02:00,ZBHH 190200Z AUTO 19004KT 2 1/2SM 17/14 A3000 RMK T01700140 IEM_DS3505
ZBHH,2007-06-19 03:00,ZBHH 190300Z AUTO 22004KT 9SM 19/14 A3000 RMK SLP129 T01880143 52006 IEM_DS3505
ZBHH,2007-06-19 04:00,ZBHH 190400Z AUTO 18002KT 2 1/2SM 20/15 A2997 RMK T02000150 IEM_DS3505
ZBHH,2007-06-19 05:00,ZBHH 190500Z AUTO 25004KT 2 1/2SM 20/15 A2997 RMK T02000150 IEM_DS3505
ZBHH,2007-06-19 06:00,ZBHH 190600Z AUTO 18002KT 12SM 21/15 A2997 RMK SLP115 T02110147 57008 IEM_DS3505
ZBHH,2007-06-19 07:00,ZBHH 190700Z AUTO 21002KT 2 1/2SM 21/15 A2997 RMK T02100150 IEM_DS3505
ZBHH,2007-06-19 08:00,ZBHH 190800Z AUTO 24004KT 2SM 21/15 A2994 RMK T02100150 IEM_DS3505
ZBHH,2007-06-19 09:00,ZBHH 190900Z AUTO 22002KT 9SM 20/16 A2997 RMK SLP112 T02040158 57004 IEM_DS3505
ZBHH,2007-06-19 10:00,ZBHH 191000Z AUTO 20006KT 1 1/2SM 20/16 A2997 RMK T02000160 IEM_DS3505
ZBHH,2007-06-19 11:00,ZBHH 191100Z AUTO 23002KT 2SM 17/15 A2997 RMK T01700150 IEM_DS3505
ZBHH,2007-06-19 12:00,ZBHH 191200Z AUTO 22002KT 6SM 20/16 A2997 RMK SLP114 T02010155 52003 IEM_DS3505
ZBHH,2007-06-19 13:00,ZBHH 191300Z AUTO 08002KT 1 1/2SM 18/16 A2997 RMK T01800160 IEM_DS3505
ZBHH,2007-06-19 14:00,ZBHH 191400Z AUTO 09002KT 1 1/2SM 18/17 A2997 RMK T01800170 IEM_DS3505
ZBHH,2007-06-19 15:00,ZBHH 191500Z AUTO 09002KT 6SM 19/16 A2997 RMK SLP117 T01920159 52007 IEM_DS3505
ZBHH,2007-06-19 16:00,ZBHH 191600Z AUTO 00000KT 1 1/2SM 18/17 A2997 RMK T01800170 IEM_DS3505
ZBHH,2007-06-19 17:00,ZBHH 191700Z AUTO 00000KT 1 1/4SM 17/17 A2997 RMK T01700170 IEM_DS3505
ZBHH,2007-06-19 18:00,ZBHH 191800Z AUTO 25002KT 9SM 17/16 A2997 RMK SLP107 T01730155 57008 IEM_DS3505
ZBHH,2007-06-19 19:00,ZBHH 191900Z AUTO 36002KT 17/16 A2997 RMK T01700160 IEM_DS3505
ZBHH,2007-06-19 20:00,ZBHH 192000Z AUTO 04004KT 1 1/4SM 16/14 A2997 RMK T01600140 IEM_DS3505
ZBHH,2007-06-19 21:00,ZBHH 192100Z AUTO 11002KT 4SM 17/15 A2994 RMK 70000 SLP108 T01670152 57002 IEM_DS3505
ZBHH,2007-06-19 22:00,ZBHH 192200Z AUTO 02002KT 1 1/4SM 16/15 A2997 RMK T01600150 IEM_DS3505
ZBHH,2007-06-19 23:00,ZBHH 192300Z AUTO 06004KT 2 1/2SM 18/15 A2997 RMK T01800150 IEM_DS3505
ZBHH,2007-06-20 00:00,ZBHH 200000Z AUTO 09002KT 6SM 19/14 A2997 RMK SLP106 T01940140 52003 IEM_DS3505
ZBHH,2007-06-20 01:00,ZBHH 200100Z AUTO 09002KT 3SM 20/15 A2994 RMK T02000150 IEM_DS3505
ZBHH,2007-06-20 02:00,ZBHH 200200Z AUTO 10006KT 4SM 21/14 A2994 RMK T02100140 IEM_DS3505
ZBHH,2007-06-20 03:00,ZBHH 200300Z AUTO 07006KT 9SM 22/13 A2994 RMK SLP094 T02240126 57007 IEM_DS3505
ZBHH,2007-06-20 04:00,ZBHH 200400Z AUTO 05004KT 5SM 22/13 A2994 RMK T02200130 IEM_DS3505
ZBHH,2007-06-20 05:00,ZBHH 200500Z AUTO 11006KT 6SM 22/13 A2994 RMK T02200130 IEM_DS3505
ZBHH,2007-06-20 06:00,ZBHH 200600Z AUTO 22006KT 9SM 22/15 A2994 RMK 60000 SLP098 T02230149 54000 IEM_DS3505
ZBHH,2007-06-20 07:00,ZBHH 200700Z AUTO 24004KT 4SM 21/15 A2994 RMK T02100150 IEM_DS3505
ZBHH,2007-06-20 08:00,ZBHH 200800Z AUTO 20004KT 3SM 19/15 A2994 RMK T01900150 IEM_DS3505
ZBHH,2007-06-20 09:00,ZBHH 200900Z AUTO 36002KT 6SM 20/15 A2994 RMK SLP101 T02050148 57002 IEM_DS3505
ZBHH,2007-06-20 10:00,ZBHH 201000Z AUTO 36002KT 3SM 19/16 A2994 RMK T01900160 IEM_DS3505
ZBHH,2007-06-20 11:00,ZBHH 201100Z AUTO 08002KT 7SM 19/14 A2991 RMK T01900140 IEM_DS3505
ZBHH,2007-06-20 12:00,ZBHH 201200Z AUTO 09004KT 6SM 19/14 A2994 RMK 60000 SLP098 T01920140 54000 IEM_DS3505
ZBHH,2007-06-20 13:00,ZBHH 201300Z AUTO 08006KT 7SM 19/14 A2994 RMK T01900140 IEM_DS3505
ZBHH,2007-06-20 14:00,ZBHH 201400Z AUTO 09002KT 7SM 18/14 A2997 RMK T01800140 IEM_DS3505
ZBHH,2007-06-20 15:00,ZBHH 201500Z AUTO 04002KT 6SM 19/12 A2997 RMK SLP103 T01870125 52009 IEM_DS3505
ZBHH,2007-06-20 16:00,ZBHH 201600Z AUTO 06002KT 7SM 17/13 A2994 RMK T01700130 IEM_DS3505
ZBHH,2007-06-20 17:00,ZBHH 201700Z AUTO 09004KT 7SM 17/14 A2994 RMK T01700140 IEM_DS3505
ZBHH,2007-06-20 18:00,ZBHH 201800Z AUTO 14002KT 19SM 17/14 A2994 RMK 60000 SLP095 T01730136 57010 IEM_DS3505
ZBHH,2007-06-20 19:00,ZBHH 201900Z AUTO 05004KT 7SM 17/12 A2991 RMK T01700120 IEM_DS3505
ZBHH,2007-06-20 20:00,ZBHH 202000Z AUTO 03002KT 7SM 17/12 A2991 RMK T01700120 IEM_DS3505
ZBHH,2007-06-20 21:00,ZBHH 202100Z AUTO 09002KT 12SM 17/13 A2991 RMK 70001 SLP095 T01670132 57004 IEM_DS3505
ZBHH,2007-06-20 22:00,ZBHH 202200Z AUTO 05002KT 3SM 16/14 A2991 RMK T01600140 IEM_DS3505
ZBHH,2007-06-20 23:00,ZBHH 202300Z AUTO 07002KT 3SM 17/13 A2991 RMK T01700130 IEM_DS3505
ZBHH,2007-06-21 00:00,ZBHH 210000Z AUTO 09002KT 12SM 19/12 A2994 RMK 70001 SLP097 T01870125 52003 IEM_DS3505
ZBHH,2007-06-21 01:00,ZBHH 210100Z AUTO 10002KT 5SM 19/13 A2994 RMK T01900130 IEM_DS3505
ZBHH,2007-06-21 02:00,ZBHH 210200Z AUTO 08002KT 5SM 21/13 A2994 RMK T02100130 IEM_DS3505
ZBHH,2007-06-21 03:00,ZBHH 210300Z AUTO 07004KT 9SM 23/11 A2991 RMK SLP088 T02290110 57001 IEM_DS3505
ZBHH,2007-06-21 04:00,ZBHH 210400Z AUTO 11002KT 5SM 24/12 A2991 RMK T02400120 IEM_DS3505
ZBHH,2007-06-21 05:00,ZBHH 210500Z AUTO 22004KT 6SM 25/12 A2988 RMK T02500120 IEM_DS3505
ZBHH,2007-06-21 06:00,ZBHH 210600Z AUTO 07002KT 9SM 25/10 A2988 RMK SLP071 T02520099 57014 IEM_DS3505
ZBHH,2007-06-21 07:00,ZBHH 210700Z AUTO 19004KT 7SM 25/12 A2985 RMK T02500120 IEM_DS3505
ZBHH,2007-06-21 09:00,ZBHH 210900Z AUTO 25004KT 7SM 26/11 A2985 RMK SLP059 T02580108 57010 IEM_DS3505
ZBHH,2007-06-21 10:00,ZBHH 211000Z AUTO 25004KT 6SM 26/12 A2985 RMK T02600120 IEM_DS3505
ZBHH,2007-06-21 11:00,ZBHH 211100Z AUTO 25008KT 6SM 24/13 A2985 RMK T02400130 IEM_DS3505
ZBHH,2007-06-21 12:00,ZBHH 211200Z AUTO 22002KT 12SM 24/12 A2988 RMK SLP067 T02380121 52007 IEM_DS3505
ZBHH,2007-06-21 13:00,ZBHH 211300Z AUTO 34002KT 4SM 22/13 A2988 RMK T02200130 IEM_DS3505
ZBHH,2007-06-21 14:00,ZBHH 211400Z AUTO 04004KT 4SM 21/14 A2988 RMK T02100140 IEM_DS3505
ZBHH,2007-06-21 15:00,ZBHH 211500Z AUTO 29002KT 9SM 21/13 A2991 RMK SLP074 T02090129 52008 IEM_DS3505
ZBHH,2007-06-21 16:00,ZBHH 211600Z AUTO 17002KT 2 1/2SM 19/15 A2991 RMK T01900150 IEM_DS3505
ZBHH,2007-06-21 18:00,ZBHH 211800Z AUTO 09004KT 12SM 20/13 A2988 RMK SLP069 T01950134 57002 IEM_DS3505
ZBHH,2007-06-21 19:00,ZBHH 211900Z AUTO 09004KT 4SM 17/14 A2988 RMK T01700140 IEM_DS3505
ZBHH,2007-06-21 20:00,ZBHH 212000Z AUTO 10004KT 4SM 17/14 A2991 RMK T01700140 IEM_DS3505
ZBHH,2007-06-21 21:00,ZBHH 212100Z AUTO 07002KT 12SM 18/13 A2988 RMK SLP073 T01830134 52002 IEM_DS3505
ZBHH,2007-06-21 22:00,ZBHH 212200Z AUTO 08004KT 2SM 17/14 A2988 RMK T01700140 IEM_DS3505
ZBHH,2007-06-21 23:00,ZBHH 212300Z AUTO 07004KT 2SM 18/14 A2988 RMK T01800140 IEM_DS3505
ZBHH,2007-06-22 00:00,ZBHH 220000Z AUTO 04002KT 9SM 20/15 A2988 RMK SLP075 T01950150 54000 IEM_DS3505
ZBHH,2007-06-22 01:00,ZBHH 220100Z AUTO 25002KT 2SM 20/15 A2988 RMK T02000150 IEM_DS3505
ZBHH,2007-06-22 02:00,ZBHH 220200Z AUTO 21002KT 2SM 21/16 A2988 RMK T02100160 IEM_DS3505
ZBHH,2007-06-22 03:00,ZBHH 220300Z AUTO 16002KT 6SM 23/15 A2988 RMK SLP067 T02270148 57006 IEM_DS3505
ZBHH,2007-06-22 04:00,ZBHH 220400Z AUTO 20002KT 2SM 24/16 A2985 RMK T02400160 IEM_DS3505
ZBHH,2007-06-22 05:00,ZBHH 220500Z AUTO 21004KT 2 1/2SM 24/16 A2985 RMK T02400160 IEM_DS3505
ZBHH,2007-06-22 06:00,ZBHH 220600Z AUTO 22010KT 6SM 23/13 A2983 RMK SLP056 T02330126 57011 IEM_DS3505
ZBHH,2007-06-22 07:00,ZBHH 220700Z AUTO 25008KT 3SM A2988 RMK IEM_DS3505
ZBHH,2007-06-22 08:00,ZBHH 220800Z AUTO 36008KT 7SM 17/12 A2985 RMK T01700120 IEM_DS3505
ZBHH,2007-06-22 09:00,ZBHH 220900Z AUTO 07004KT 19SM 21/09 A2983 RMK SLP057 T02130086 57005 IEM_DS3505
ZBHH,2007-06-22 10:00,ZBHH 221000Z AUTO 06006KT 7SM 22/09 A2980 RMK T02200090 IEM_DS3505
ZBHH,2007-06-22 11:00,ZBHH 221100Z AUTO 22008KT 7SM 19/13 A2983 RMK T01900130 IEM_DS3505
ZBHH,2007-06-22 12:00,ZBHH 221200Z AUTO 25008KT 19SM 18/12 A2985 RMK 60004 SLP075 T01820115 52012 IEM_DS3505
ZBHH,2007-06-22 13:00,ZBHH 221300Z AUTO 33004KT 5SM 17/12 A2985 RMK T01700120 IEM_DS3505
ZBHH,2007-06-22 14:00,ZBHH 221400Z AUTO 04002KT 4SM 17/12 A2988 RMK T01700120 IEM_DS3505
ZBHH,2007-06-22 15:00,ZBHH 221500Z AUTO 27004KT 9SM 18/11 A2985 RMK SLP070 T01780111 52001 IEM_DS3505
ZBHH,2007-06-22 16:00,ZBHH 221600Z AUTO 26004KT 7SM 17/12 A2988 RMK T01700120 IEM_DS3505
ZBHH,2007-06-22 18:00,ZBHH 221800Z AUTO 04004KT 7SM 16/12 RMK 60002 SLP074 T01590115 52001 IEM_DS3505
ZBHH,2007-06-22 19:00,ZBHH 221900Z AUTO 05014KT 7SM 16/10 A2983 RMK T01600100 IEM_DS3505
ZBHH,2007-06-22 20:00,ZBHH 222000Z AUTO 05008KT 7SM 17/09 A2980 RMK T01700090 IEM_DS3505
ZBHH,2007-06-22 21:00,ZBHH 222100Z AUTO 16002KT 12SM 17/08 A2980 RMK 70008 SLP049 T01740083 57023 IEM_DS3505
ZBHH,2007-06-22 22:00,ZBHH 222200Z AUTO 19004KT 7SM 15/10 A2983 RMK T01500100 IEM_DS3505
ZBHH,2007-06-22 23:00,ZBHH 222300Z AUTO 08002KT 7SM 17/10 A2983 RMK T01700100 IEM_DS3505
ZBHH,2007-06-23 00:00,ZBHH 230000Z AUTO 22002KT 12SM 17/11 A2983 RMK 60002 70008 SLP065 T01720106 52008 IEM_DS3505
ZBHH,2007-06-23 01:00,ZBHH 230100Z AUTO 23002KT 7SM 18/11 A2983 RMK T01800110 IEM_DS3505
ZBHH,2007-06-23 02:00,ZBHH 230200Z AUTO 14002KT 7SM 21/09 A2980 RMK T02100090 IEM_DS3505
ZBHH,2007-06-23 03:00,ZBHH 230300Z AUTO 22006KT 9SM 16/13 A2983 RMK SLP073 T01550126 52003 IEM_DS3505
ZBHH,2007-06-23 04:00,ZBHH 230400Z AUTO 24008KT 4SM 15/13 A2983 RMK T01500130 IEM_DS3505
ZBHH,2007-06-23 05:00,ZBHH 230500Z AUTO 28004KT 4SM 15/13 A2985 RMK T01500130 IEM_DS3505
ZBHH,2007-06-23 06:00,ZBHH 230600Z AUTO 36004KT 12SM 16/12 A2985 RMK 60016 SLP082 T01630123 52006 IEM_DS3505
ZBHH,2007-06-23 07:00,ZBHH 230700Z AUTO 35004KT 7SM 17/12 A2983 RMK T01700120 IEM_DS3505
ZBHH,2007-06-23 08:00,ZBHH 230800Z AUTO 02004KT 7SM 18/11 A2983 RMK T01800110 IEM_DS3505
ZBHH,2007-06-23 09:00,ZBHH 230900Z AUTO 06006KT 12SM 19/10 A2983 RMK SLP066 T01910099 57006 IEM_DS3505
ZBHH,2007-06-23 10:00,ZBHH 231000Z AUTO 06006KT 7SM 20/09 A2983 RMK T02000090 IEM_DS3505
ZBHH,2007-06-23 11:00,ZBHH 231100Z AUTO 06004KT 7SM 20/08 A2983 RMK T02000080 IEM_DS3505
ZBHH,2007-06-23 12:00,ZBHH 231200Z AUTO 09002KT 9SM 19/08 A2983 RMK 60000 SLP065 T01900078 57002 IEM_DS3505
ZBHH,2007-06-23 13:00,ZBHH 231300Z AUTO 33002KT 7SM 18/11 A2983 RMK T01800110 IEM_DS3505
ZBHH,2007-06-23 14:00,ZBHH 231400Z AUTO 04004KT 7SM 17/10 A2983 RMK T01700100 IEM_DS3505
ZBHH,2007-06-23 15:00,ZBHH 231500Z AUTO 25004KT 12SM 16/11 A2983 RMK SLP080 T01620109 52005 IEM_DS3505
ZBHH,2007-06-23 16:00,ZBHH 231600Z AUTO 25002KT 7SM 16/13 A2983 RMK T01600130 IEM_DS3505
ZBHH,2007-06-23 18:00,ZBHH 231800Z AUTO 13002KT 19SM 14/12 A2983 RMK SLP080 T01440119 57002 IEM_DS3505
ZBHH,2007-06-23 21:00,ZBHH 232100Z AUTO 32002KT 19SM 14/12 A2983 RMK 70015 SLP075 T01370123 54000 IEM_DS3505
ZBHH,2007-06-23 22:00,ZBHH 232200Z AUTO 13002KT 1 1/2SM 13/12 A2985 RMK T01300120 IEM_DS3505
ZBHH,2007-06-23 23:00,ZBHH 232300Z AUTO 10002KT 3SM 14/12 A2983 RMK T01400120 IEM_DS3505
ZBHH,2007-06-24 00:00,ZBHH 240000Z AUTO 11002KT 19SM 15/13 A2985 RMK 70015 SLP079 T01520127 52006 IEM_DS3505
ZBHH,2007-06-24 01:00,ZBHH 240100Z AUTO 22002KT 3SM 17/13 A2985 RMK T01700130 IEM_DS3505
ZBHH,2007-06-24 02:00,ZBHH 240200Z AUTO 21002KT 3SM 19/13 A2985 RMK T01900130 IEM_DS3505
ZBHH,2007-06-24 03:00,ZBHH 240300Z AUTO 18006KT 19SM 20/13 A2983 RMK SLP071 T01980126 57004 IEM_DS3505
ZBHH,2007-06-24 04:00,ZBHH 240400Z AUTO 23002KT 4SM 20/13 A2983 RMK T02000130 IEM_DS3505
ZBHH,2007-06-24 05:00,ZBHH 240500Z AUTO 26006KT 5SM 22/13 A2983 RMK T02200130 IEM_DS3505
ZBHH,2007-06-24 06:00,ZBHH 240600Z AUTO 22006KT 19SM 24/10 A2980 RMK SLP048 T02430102 57015 IEM_DS3505
ZBHH,2007-06-24 07:00,ZBHH 240700Z AUTO 23006KT 6SM 25/11 A2977 RMK T02500110 IEM_DS3505
ZBHH,2007-06-24 08:00,ZBHH 240800Z AUTO 25006KT 6SM 25/11 A2977 RMK T02500110 IEM_DS3505
ZBHH,2007-06-24 09:00,ZBHH 240900Z AUTO 25004KT 19SM 25/12 A2974 RMK SLP028 T02530115 57017 IEM_DS3505
ZBHH,2007-06-24 10:00,ZBHH 241000Z AUTO 24004KT 6SM 24/12 A2974 RMK T02400120 IEM_DS3505
ZBHH,2007-06-24 11:00,ZBHH 241100Z AUTO 21002KT 7SM 23/12 A2974 RMK T02300120 IEM_DS3505
ZBHH,2007-06-24 12:00,ZBHH 241200Z AUTO 22004KT 12SM 24/11 A2974 RMK SLP027 T02370114 57001 IEM_DS3505
ZBHH,2007-06-24 13:00,ZBHH 241300Z AUTO 15002KT 7SM 21/15 A2974 RMK T02100150 IEM_DS3505
ZBHH,2007-06-24 14:00,ZBHH 241400Z AUTO 06004KT 7SM 21/14 A2977 RMK T02100140 IEM_DS3505
ZBHH,2007-06-24 15:00,ZBHH 241500Z AUTO 11002KT 19SM 21/12 A2974 RMK SLP026 T02140125 52003 IEM_DS3505
ZBHH,2007-06-24 16:00,ZBHH 241600Z AUTO 08004KT 7SM 19/14 A2974 RMK T01900140 IEM_DS3505
ZBHH,2007-06-24 17:00,ZBHH 241700Z AUTO 26002KT 7SM 17/14 A2974 RMK T01700140 IEM_DS3505
ZBHH,2007-06-24 18:00,ZBHH 241800Z AUTO 32002KT 12SM 20/13 A2974 RMK SLP015 T01950134 57005 IEM_DS3505
ZBHH,2007-06-24 19:00,ZBHH 241900Z AUTO 12002KT 7SM 17/14 A2971 RMK T01700140 IEM_DS3505
ZBHH,2007-06-24 20:00,ZBHH 242000Z AUTO 18004KT 7SM 17/13 A2971 RMK T01700130 IEM_DS3505
ZBHH,2007-06-24 21:00,ZBHH 242100Z AUTO 04002KT 9SM 18/14 A2971 RMK SLP015 T01770136 57001 IEM_DS3505
ZBHH,2007-06-24 22:00,ZBHH 242200Z AUTO 04002KT 3SM 16/14 A2974 RMK T01600140 IEM_DS3505
ZBHH,2007-06-24 23:00,ZBHH 242300Z AUTO 00000KT 3SM 18/14 A2974 RMK T01800140 IEM_DS3505
ZBHH,2007-06-25 00:00,ZBHH 250000Z AUTO 18004KT 6SM 20/12 A2974 RMK SLP019 T02020122 52005 IEM_DS3505
ZBHH,2007-06-25 01:00,ZBHH 250100Z AUTO 16002KT 6SM 21/14 A2974 RMK T02100140 IEM_DS3505
ZBHH,2007-06-25 02:00,ZBHH 250200Z AUTO 15002KT 6SM 22/13 A2974 RMK T02200130 IEM_DS3505
ZBHH,2007-06-25 03:00,ZBHH 250300Z AUTO 20004KT 19SM 25/11 A2971 RMK SLP000 T02510109 57012 IEM_DS3505
ZBHH,2007-06-25 04:00,ZBHH 250400Z AUTO 21006KT 6SM 25/12 A2968 RMK T02500120 IEM_DS3505
ZBHH,2007-06-25 05:00,ZBHH 250500Z AUTO 23004KT 6SM 27/13 A2968 RMK T02700130 IEM_DS3505
ZBHH,2007-06-25 06:00,ZBHH 250600Z AUTO 25006KT 19SM 28/13 A2968 RMK SLP983 T02850128 57013 IEM_DS3505
ZBHH,2007-06-25 07:00,ZBHH 250700Z AUTO 20002KT 7SM 28/13 A2965 RMK T02800130 IEM_DS3505
ZBHH,2007-06-25 08:00,ZBHH 250800Z AUTO 34004KT 7SM 27/13 A2965 RMK T02700130 IEM_DS3505
ZBHH,2007-06-25 09:00,ZBHH 250900Z AUTO 32010KT 19SM 24/17 A2962 RMK SLP994 T02380171 57002 IEM_DS3505
ZBHH,2007-06-25 10:00,ZBHH 251000Z AUTO 25004KT 7SM 24/14 A2962 RMK T02400140 IEM_DS3505
ZBHH,2007-06-25 11:00,ZBHH 251100Z AUTO 05008KT 7SM 24/14 A2965 RMK T02400140 IEM_DS3505
ZBHH,2007-06-25 12:00,ZBHH 251200Z AUTO 03006KT 19SM 23/14 A2965 RMK 60012 SLP986 T02330138 57003 IEM_DS3505
ZBHH,2007-06-25 13:00,ZBHH 251300Z AUTO 09002KT 7SM 21/15 A2965 RMK T02100150 IEM_DS3505
ZBHH,2007-06-25 14:00,ZBHH 251400Z AUTO 10002KT 7SM 20/14 A2968 RMK T02000140 IEM_DS3505
ZBHH,2007-06-25 15:00,ZBHH 251500Z AUTO 11002KT 19SM 19/14 A2968 RMK SLP001 T01920142 52015 IEM_DS3505
ZBHH,2007-06-25 16:00,ZBHH 251600Z AUTO 00000KT 7SM 18/14 A2971 RMK T01800140 IEM_DS3505
ZBHH,2007-06-25 17:00,ZBHH 251700Z AUTO 08002KT 7SM 18/12 A2968 RMK T01800120 IEM_DS3505
ZBHH,2007-06-25 18:00,ZBHH 251800Z AUTO 18002KT 19SM 17/14 A2968 RMK SLP992 T01710138 57006 IEM_DS3505
ZBHH,2007-06-25 19:00,ZBHH 251900Z AUTO 08004KT 7SM 17/11 A2968 RMK T01700110 IEM_DS3505
ZBHH,2007-06-25 20:00,ZBHH 252000Z AUTO 07004KT 7SM 16/11 A2968 RMK T01600110 IEM_DS3505
ZBHH,2007-06-25 21:00,ZBHH 252100Z AUTO 36002KT 19SM 15/12 A2968 RMK 70011 SLP008 T01530117 52002 IEM_DS3505
ZBHH,2007-06-25 22:00,ZBHH 252200Z AUTO 10002KT 7SM 16/11 A2968 RMK T01600110 IEM_DS3505
ZBHH,2007-06-25 23:00,ZBHH 252300Z AUTO 13002KT 7SM 19/12 A2968 RMK T01900120 IEM_DS3505
ZBHH,2007-06-26 00:00,ZBHH 260000Z AUTO 00000KT 19SM 22/12 A2968 RMK 70011 SLP000 T02240118 52005 IEM_DS3505
ZBHH,2007-06-26 01:00,ZBHH 260100Z AUTO 00000KT 7SM 25/13 A2971 RMK T02500130 IEM_DS3505
ZBHH,2007-06-26 02:00,ZBHH 260200Z AUTO 15004KT 7SM 25/13 A2968 RMK T02500130 IEM_DS3505
ZBHH,2007-06-26 03:00,ZBHH 260300Z AUTO 11002KT 19SM 28/10 A2968 RMK SLP991 T02810099 57005 IEM_DS3505
ZBHH,2007-06-26 04:00,ZBHH 260400Z AUTO 26004KT 7SM 29/10 A2965 RMK T02900100 IEM_DS3505
ZBHH,2007-06-26 05:00,ZBHH 260500Z AUTO 25004KT 7SM 30/11 A2965 RMK T03000110 IEM_DS3505
ZBHH,2007-06-26 06:00,ZBHH 260600Z AUTO 25006KT 19SM 31/11 A2962 RMK SLP963 T03130112 57023 IEM_DS3505
ZBHH,2007-06-26 07:00,ZBHH 260700Z AUTO 25006KT 7SM 33/12 A2959 RMK T03300120 IEM_DS3505
ZBHH,2007-06-26 08:00,ZBHH 260800Z AUTO 24006KT 7SM 33/10 A2956 RMK T03300100 IEM_DS3505
ZBHH,2007-06-26 09:00,ZBHH 260900Z AUTO 29004KT 16SM 31/12 A2956 RMK SLP945 T03120116 57019 IEM_DS3505
ZBHH,2007-06-26 10:00,ZBHH 261000Z AUTO 32004KT 7SM 31/13 A2956 RMK T03100130 IEM_DS3505
ZBHH,2007-06-26 11:00,ZBHH 261100Z AUTO 06004KT 7SM 30/13 A2956 RMK T03000130 IEM_DS3505
ZBHH,2007-06-26 12:00,ZBHH 261200Z AUTO 20008KT 19SM 29/11 A2959 RMK SLP946 T02900107 52010 IEM_DS3505
ZBHH,2007-06-26 13:00,ZBHH 261300Z AUTO 24008KT 7SM 27/08 A2962 RMK T02700080 IEM_DS3505
ZBHH,2007-06-26 14:00,ZBHH 261400Z AUTO 14004KT 7SM 25/10 A2965 RMK T02500100 IEM_DS3505
ZBHH,2007-06-26 15:00,ZBHH 261500Z AUTO 04004KT 19SM 24/10 A2968 RMK SLP977 T02440096 52029 IEM_DS3505
ZBHH,2007-06-26 16:00,ZBHH 261600Z AUTO 01004KT 7SM 23/10 A2968 RMK T02300100 IEM_DS3505
ZBHH,2007-06-26 17:00,ZBHH 261700Z AUTO 7SM 22/11 A2968 RMK T02200110 IEM_DS3505
ZBHH,2007-06-26 18:00,ZBHH 261800Z AUTO 20002KT 19SM 24/09 A2968 RMK SLP977 T02380094 52005 IEM_DS3505
ZBHH,2007-06-26 19:00,ZBHH 261900Z AUTO 7SM 20/12 A2968 RMK T02000120 IEM_DS3505
ZBHH,2007-06-26 20:00,ZBHH 262000Z AUTO 00000KT 7SM 20/12 A2968 RMK T02000120 IEM_DS3505
ZBHH,2007-06-26 21:00,ZBHH 262100Z AUTO 25004KT 19SM 21/11 A2968 RMK SLP984 T02100111 52001 IEM_DS3505
ZBHH,2007-06-26 22:00,ZBHH 262200Z AUTO 00000KT 7SM 20/12 A2971 RMK T02000120 IEM_DS3505
ZBHH,2007-06-26 23:00,ZBHH 262300Z AUTO 00000KT 7SM 22/13 A2971 RMK T02200130 IEM_DS3505
ZBHH,2007-06-27 00:00,ZBHH 270000Z AUTO 22002KT 19SM 22/12 A2968 RMK SLP990 T02170120 52002 IEM_DS3505
ZBHH,2007-06-27 01:00,ZBHH 270100Z AUTO 00000KT 7SM 23/13 A2968 RMK T02300130 IEM_DS3505
ZBHH,2007-06-27 02:00,ZBHH 270200Z AUTO 22004KT 7SM 23/13 A2968 RMK T02300130 IEM_DS3505
ZBHH,2007-06-27 03:00,ZBHH 270300Z AUTO 20006KT 19SM 24/12 A2968 RMK SLP992 T02440117 57001 IEM_DS3505
ZBHH,2007-06-27 04:00,ZBHH 270400Z AUTO 19006KT 7SM 24/12 A2971 RMK T02400120 IEM_DS3505
ZBHH,2007-06-27 05:00,ZBHH 270500Z AUTO 21004KT 7SM 24/13 A2968 RMK T02400130 IEM_DS3505
ZBHH,2007-06-27 06:00,ZBHH 270600Z AUTO 16004KT 19SM 27/12 A2968 RMK SLP976 T02700123 57011 IEM_DS3505
ZBHH,2007-06-27 07:00,ZBHH 270700Z AUTO 22008KT 7SM 27/11 A2965 RMK T02700110 IEM_DS3505
ZBHH,2007-06-27 08:00,ZBHH 270800Z AUTO 23008KT 7SM 28/09 A2962 RMK T02800090 IEM_DS3505
ZBHH,2007-06-27 09:00,ZBHH 270900Z AUTO 20006KT 19SM 29/09 A2962 RMK SLP960 T02860093 57016 IEM_DS3505
ZBHH,2007-06-27 10:00,ZBHH 271000Z AUTO 23008KT 7SM 28/09 A2962 RMK T02800090 IEM_DS3505
ZBHH,2007-06-27 11:00,ZBHH 271100Z AUTO 22004KT 6SM 27/09 A2962 RMK T02700090 IEM_DS3505
ZBHH,2007-06-27 12:00,ZBHH 271200Z AUTO 22002KT 19SM 27/07 A2965 RMK SLP972 T02670072 52008 IEM_DS3505
ZBHH,2007-06-27 13:00,ZBHH 271300Z AUTO 00000KT 7SM 23/11 A2965 RMK T02300110 IEM_DS3505
ZBHH,2007-06-27 14:00,ZBHH 271400Z AUTO 09002KT 7SM 22/11 A2968 RMK T02200110 IEM_DS3505
ZBHH,2007-06-27 15:00,ZBHH 271500Z AUTO 20002KT 19SM 22/11 A2968 RMK SLP991 T02150107 52013 IEM_DS3505
ZBHH,2007-06-27 16:00,ZBHH 271600Z AUTO 09002KT 6SM 20/11 A2968 RMK T02000110 IEM_DS3505
ZBHH,2007-06-27 17:00,ZBHH 271700Z AUTO 02002KT 6SM 20/12 A2968 RMK T02000120 IEM_DS3505
ZBHH,2007-06-27 18:00,ZBHH 271800Z AUTO 36002KT 19SM 20/11 A2965 RMK SLP986 T02010108 57003 IEM_DS3505
ZBHH,2007-06-27 19:00,ZBHH 271900Z AUTO 35002KT 6SM 19/11 A2968 RMK T01900110 IEM_DS3505
ZBHH,2007-06-27 20:00,ZBHH 272000Z AUTO 00000KT 6SM 17/11 A2965 RMK T01700110 IEM_DS3505
ZBHH,2007-06-27 21:00,ZBHH 272100Z AUTO 36002KT 19SM 18/12 A2968 RMK SLP990 T01760119 52002 IEM_DS3505
ZBHH,2007-06-27 22:00,ZBHH 272200Z AUTO 11004KT 4SM 16/12 A2968 RMK T01600120 IEM_DS3505
ZBHH,2007-06-27 23:00,ZBHH 272300Z AUTO 12002KT 5SM 18/12 A2971 RMK T01800120 IEM_DS3505
ZBHH,2007-06-28 00:00,ZBHH 280000Z AUTO 09002KT 19SM 22/12 A2971 RMK SLP998 T02240115 52013 IEM_DS3505
ZBHH,2007-06-28 01:00,ZBHH 280100Z AUTO 06002KT 6SM 24/12 A2971 RMK T02400120 IEM_DS3505
ZBHH,2007-06-28 02:00,ZBHH 280200Z AUTO 25002KT 6SM 25/12 A2971 RMK T02500120 IEM_DS3505
ZBHH,2007-06-28 03:00,ZBHH 280300Z AUTO 07004KT 19SM 27/11 A2971 RMK SLP995 T02710112 57004 IEM_DS3505
ZBHH,2007-06-28 04:00,ZBHH 280400Z AUTO 24006KT 7SM 28/13 A2968 RMK T02800130 IEM_DS3505
ZBHH,2007-06-28 05:00,ZBHH 280500Z AUTO 23004KT 7SM 29/12 A2968 RMK T02900120 IEM_DS3505
ZBHH,2007-06-28 06:00,ZBHH 280600Z AUTO 27010KT 9SM 26/12 A2971 RMK 60000 SLP012 T02550120 52010 IEM_DS3505
ZBHH,2007-06-28 07:00,ZBHH 280700Z AUTO 32008KT 7SM 22/15 A2974 RMK T02200150 IEM_DS3505
ZBHH,2007-06-28 08:00,ZBHH 280800Z AUTO 01006KT 7SM 22/15 A2971 RMK T02200150 IEM_DS3505
ZBHH,2007-06-28 09:00,ZBHH 280900Z AUTO 20004KT 19SM 25/15 A2971 RMK SLP014 T02510146 57004 IEM_DS3505
ZBHH,2007-06-28 10:00,ZBHH 281000Z AUTO 14006KT 7SM 23/16 A2971 RMK T02300160 IEM_DS3505
ZBHH,2007-06-28 11:00,ZBHH 281100Z AUTO 15004KT 7SM 22/16 A2974 RMK T02200160 IEM_DS3505
ZBHH,2007-06-28 12:00,ZBHH 281200Z AUTO 25002KT 12SM 23/14 A2977 RMK 60016 SLP027 T02280138 52016 IEM_DS3505
ZBHH,2007-06-28 13:00,ZBHH 281300Z AUTO 07002KT 7SM 22/17 A2977 RMK T02200170 IEM_DS3505
ZBHH,2007-06-28 14:00,ZBHH 281400Z AUTO 31002KT 7SM 21/17 A2980 RMK T02100170 IEM_DS3505
ZBHH,2007-06-28 15:00,ZBHH 281500Z AUTO 32002KT 19SM 20/16 A2977 RMK SLP024 T02010163 52001 IEM_DS3505
ZBHH,2007-06-28 16:00,ZBHH 281600Z AUTO 00000KT 6SM 18/16 A2980 RMK T01800160 IEM_DS3505
ZBHH,2007-06-28 17:00,ZBHH 281700Z AUTO 08002KT 6SM 18/16 A2980 RMK T01800160 IEM_DS3505
ZBHH,2007-06-28 18:00,ZBHH 281800Z AUTO 09002KT 19SM 19/16 A2980 RMK SLP037 T01900159 52007 IEM_DS3505
ZBHH,2007-06-28 19:00,ZBHH 281900Z AUTO 02004KT 6SM 17/15 A2983 RMK T01700150 IEM_DS3505
ZBHH,2007-06-28 20:00,ZBHH 282000Z AUTO 07002KT 6SM 17/15 A2980 RMK T01700150 IEM_DS3505
ZBHH,2007-06-28 21:00,ZBHH 282100Z AUTO 29002KT 19SM 18/15 A2983 RMK 70017 SLP049 T01820153 52008 IEM_DS3505
ZBHH,2007-06-28 22:00,ZBHH 282200Z AUTO 05002KT 4SM 17/15 A2983 RMK T01700150 IEM_DS3505
ZBHH,2007-06-28 23:00,ZBHH 282300Z AUTO 00000KT 5SM 19/15 A2983 RMK T01900150 IEM_DS3505
ZBHH,2007-06-29 00:00,ZBHH 290000Z AUTO 14002KT 19SM 22/15 A2983 RMK 70017 SLP051 T02220151 52005 IEM_DS3505
ZBHH,2007-06-29 01:00,ZBHH 290100Z AUTO 13002KT 6SM 23/15 A2983 RMK T02300150 IEM_DS3505
ZBHH,2007-06-29 02:00,ZBHH 290200Z AUTO 15004KT 6SM 24/15 A2983 RMK T02400150 IEM_DS3505
ZBHH,2007-06-29 03:00,ZBHH 290300Z AUTO 20004KT 9SM 25/14 A2983 RMK SLP043 T02490144 57007 IEM_DS3505
ZBHH,2007-06-29 04:00,ZBHH 290400Z AUTO 23004KT 7SM 27/13 A2980 RMK T02700130 IEM_DS3505
ZBHH,2007-06-29 05:00,ZBHH 290500Z AUTO 21004KT 7SM 28/12 A2977 RMK T02800120 IEM_DS3505
ZBHH,2007-06-29 06:00,ZBHH 290600Z AUTO 27004KT 19SM 29/11 A2977 RMK SLP015 T02900111 57019 IEM_DS3505
ZBHH,2007-06-29 07:00,ZBHH 290700Z AUTO 35012G23KT 7SM 29/07 A2977 RMK T02900070 IEM_DS3505
ZBHH,2007-06-29 08:00,ZBHH 290800Z AUTO 29014G23KT 7SM 28/06 A2974 RMK T02800060 IEM_DS3505
ZBHH,2007-06-29 09:00,ZBHH 290900Z AUTO 34006KT 19SM 29/06 A2971 RMK SLP002 T02880062 57014 IEM_DS3505
ZBHH,2007-06-29 10:00,ZBHH 291000Z AUTO 07006KT 7SM 29/06 A2971 RMK T02900060 IEM_DS3505
ZBHH,2007-06-29 11:00,ZBHH 291100Z AUTO 09012KT 7SM 28/08 A2974 RMK T02800080 IEM_DS3505
ZBHH,2007-06-29 12:00,ZBHH 291200Z AUTO 04006KT 19SM 26/07 A2980 RMK SLP026 T02570068 52023 IEM_DS3505
ZBHH,2007-06-29 13:00,ZBHH 291300Z AUTO 34008KT 7SM 24/09 A2983 RMK T02400090 IEM_DS3505
ZBHH,2007-06-29 14:00,ZBHH 291400Z AUTO 35010KT 7SM 22/08 A2983 RMK T02200080 IEM_DS3505
ZBHH,2007-06-29 15:00,ZBHH 291500Z AUTO 34006KT 19SM 23/06 A2983 RMK SLP034 T02300059 52007 IEM_DS3505
ZBHH,2007-06-29 16:00,ZBHH 291600Z AUTO 01010KT 7SM 22/08 A2983 RMK T02200080 IEM_DS3505
ZBHH,2007-06-29 17:00,ZBHH 291700Z AUTO 04006KT 7SM 21/09 A2983 RMK T02100090 IEM_DS3505
ZBHH,2007-06-29 18:00,ZBHH 291800Z AUTO 34002KT 19SM 22/08 A2980 RMK SLP025 T02210079 57002 IEM_DS3505
ZBHH,2007-06-29 19:00,ZBHH 291900Z AUTO 36008KT 7SM 18/13 A2980 RMK T01800130 IEM_DS3505
ZBHH,2007-06-29 20:00,ZBHH 292000Z AUTO 30002KT 7SM 19/13 A2980 RMK T01900130 IEM_DS3505
ZBHH,2007-06-29 21:00,ZBHH 292100Z AUTO 04004KT 19SM 20/10 A2980 RMK 70002 SLP026 T02000101 57003 IEM_DS3505
ZBHH,2007-06-29 22:00,ZBHH 292200Z AUTO 14004KT 7SM 18/13 A2977 RMK T01800130 IEM_DS3505
ZBHH,2007-06-29 23:00,ZBHH 292300Z AUTO 21002KT 7SM 18/13 A2980 RMK T01800130 IEM_DS3505
ZBHH,2007-06-30 00:00,ZBHH 300000Z AUTO 36004KT 19SM 20/09 A2980 RMK 60002 70002 SLP035 T02050091 52003 IEM_DS3505
ZBHH,2007-06-30 01:00,ZBHH 300100Z AUTO 17002KT 7SM 19/14 A2983 RMK T01900140 IEM_DS3505
ZBHH,2007-06-30 02:00,ZBHH 300200Z AUTO 00000KT 7SM 21/14 A2983 RMK T02100140 IEM_DS3505
ZBHH,2007-06-30 03:00,ZBHH 300300Z AUTO 29004KT 19SM 24/09 A2980 RMK SLP037 T02380090 52003 IEM_DS3505
ZBHH,2007-06-30 04:00,ZBHH 300400Z AUTO 34004KT 7SM 25/09 A2980 RMK T02500090 IEM_DS3505
ZBHH,2007-06-30 05:00,ZBHH 300500Z AUTO 27006KT 7SM 27/09 A2977 RMK T02700090 IEM_DS3505
ZBHH,2007-06-30 06:00,ZBHH 300600Z AUTO 04002KT 19SM 29/05 A2977 RMK 60000 SLP006 T02940048 57019 IEM_DS3505
ZBHH,2007-06-30 07:00,ZBHH 300700Z AUTO 19006KT 7SM 29/08 A2974 RMK T02900080 IEM_DS3505
ZBHH,2007-06-30 08:00,ZBHH 300800Z AUTO 26004KT 7SM 30/05 A2971 RMK T03000050 IEM_DS3505
ZBHH,2007-06-30 09:00,ZBHH 300900Z AUTO 16006KT 19SM 29/07 A2971 RMK SLP996 T02920066 57013 IEM_DS3505
ZBHH,2007-06-30 10:00,ZBHH 301000Z AUTO 07006KT 7SM 30/03 A2971 RMK T03000030 IEM_DS3505
ZBHH,2007-06-30 11:00,ZBHH 301100Z AUTO 17006KT 7SM 28/08 A2971 RMK T02800080 IEM_DS3505
ZBHH,2007-06-30 12:00,ZBHH 301200Z AUTO 27002KT 19SM 27/08 A2974 RMK SLP006 T02700084 52006 IEM_DS3505
ZBHH,2007-06-30 13:00,ZBHH 301300Z AUTO 17002KT 6SM 25/10 A2977 RMK T02500100 IEM_DS3505
ZBHH,2007-06-30 14:00,ZBHH 301400Z AUTO 25002KT 6SM 23/10 A2980 RMK T02300100 IEM_DS3505
ZBHH,2007-06-30 15:00,ZBHH 301500Z AUTO 34002KT 19SM 22/09 A2980 RMK SLP033 T02220090 52021 IEM_DS3505
ZBHH,2007-06-30 16:00,ZBHH 301600Z AUTO 36004KT 6SM 19/06 A2980 RMK T01900060 IEM_DS3505
ZBHH,2007-06-30 17:00,ZBHH 301700Z AUTO 11004KT 6SM 18/07 A2980 RMK T01800070 IEM_DS3505
ZBHH,2007-06-30 18:00,ZBHH 301800Z AUTO 14002KT 19SM 19/06 A2980 RMK SLP030 T01880063 52001 IEM_DS3505
ZBHH,2007-06-30 19:00,ZBHH 301900Z AUTO 07002KT 6SM 17/06 A2980 RMK T01700060 IEM_DS3505
ZBHH,2007-06-30 20:00,ZBHH 302000Z AUTO 03002KT 6SM 15/07 A2980 RMK T01500070 IEM_DS3505
ZBHH,2007-06-30 21:00,ZBHH 302100Z AUTO 11002KT 19SM 16/08 A2980 RMK 70000 SLP040 T01550078 52003 IEM_DS3505
ZBHH,2007-06-30 22:00,ZBHH 302200Z AUTO 10004KT 6SM 15/08 A2983 RMK T01500080 IEM_DS3505
ZBHH,2007-06-30 23:00,ZBHH 302300Z AUTO 06002KT 6SM 18/08 A2983 RMK T01800080 IEM_DS3505
ZBHH,2007-07-01 00:00,ZBHH 010000Z AUTO 22002KT 19SM 22/07 A2983 RMK 70000 SLP045 T02210067 52012 IEM_DS3505
ZBHH,2007-07-01 01:00,ZBHH 010100Z AUTO 24004KT 6SM 23/10 A2985 RMK T02300100 IEM_DS3505
ZBHH,2007-07-01 02:00,ZBHH 010200Z AUTO 25002KT 6SM 25/09 A2983 RMK T02500090 IEM_DS3505
ZBHH,2007-07-01 03:00,ZBHH 010300Z AUTO 32002KT 19SM 28/07 A2983 RMK SLP029 T02840071 57011 IEM_DS3505
ZBHH,2007-07-01 04:00,ZBHH 010400Z AUTO 23006KT 6SM 29/08 A2980 RMK T02900080 IEM_DS3505
ZBHH,2007-07-01 05:00,ZBHH 010500Z AUTO 28004KT 6SM 32/07 A2977 RMK T03200070 IEM_DS3505
ZBHH,2007-07-01 06:00,ZBHH 010600Z AUTO 16004KT 19SM 32/05 A2977 RMK SLP010 T03240051 57016 IEM_DS3505
ZBHH,2007-07-01 07:00,ZBHH 010700Z AUTO 24002KT 7SM 33/03 A2974 RMK T03300030 IEM_DS3505
ZBHH,2007-07-01 08:00,ZBHH 010800Z AUTO 25010KT 7SM 32/06 A2974 RMK T03200060 IEM_DS3505
ZBHH,2007-07-01 09:00,ZBHH 010900Z AUTO 22010KT 19SM 31/07 A2974 RMK SLP013 T03080066 57006 IEM_DS3505
ZBHH,2007-07-01 10:00,ZBHH 011000Z AUTO 25008KT 7SM 31/07 A2974 RMK T03100070 IEM_DS3505
ZBHH,2007-07-01 11:00,ZBHH 011100Z AUTO 25010KT 7SM 30/08 A2974 RMK T03000080 IEM_DS3505
ZBHH,2007-07-01 12:00,ZBHH 011200Z AUTO 25002KT 19SM 29/06 A2974 RMK SLP006 T02880062 52002 IEM_DS3505
ZBHH,2007-07-01 13:00,ZBHH 011300Z AUTO 20002KT 6SM 26/08 A2977 RMK T02600080 IEM_DS3505
ZBHH,2007-07-01 14:00,ZBHH 011400Z AUTO 10004KT 6SM 25/09 A2977 RMK T02500090 IEM_DS3505
ZBHH,2007-07-01 15:00,ZBHH 011500Z AUTO 09002KT 19SM 24/09 A2977 RMK SLP014 T02450089 52011 IEM_DS3505
ZBHH,2007-07-01 16:00,ZBHH 011600Z AUTO 00000KT 6SM 22/10 A2980 RMK T02200100 IEM_DS3505
ZBHH,2007-07-01 17:00,ZBHH 011700Z AUTO 02004KT 6SM 21/10 A2980 RMK T02100100 IEM_DS3505
ZBHH,2007-07-01 18:00,ZBHH 011800Z AUTO 03002KT 19SM 20/11 A2980 RMK SLP018 T02020106 52003 IEM_DS3505
ZBHH,2007-07-01 19:00,ZBHH 011900Z AUTO 00000KT 6SM 19/11 A2980 RMK T01900110 IEM_DS3505
ZBHH,2007-07-01 20:00,ZBHH 012000Z AUTO 08004KT 6SM 19/10 A2980 RMK T01900100 IEM_DS3505
ZBHH,2007-07-01 21:00,ZBHH 012100Z AUTO 03002KT 19SM 18/10 A2980 RMK SLP030 T01830099 52004 IEM_DS3505
ZBHH,2007-07-01 22:00,ZBHH 012200Z AUTO 09004KT 6SM 18/12 A2980 RMK T01800120 IEM_DS3505
ZBHH,2007-07-01 23:00,ZBHH 012300Z AUTO 09004KT 6SM 20/12 A2980 RMK T02000120 IEM_DS3505
ZBHH,2007-07-02 00:00,ZBHH 020000Z AUTO 04002KT 19SM 24/12 A2983 RMK SLP024 T02420115 52002 IEM_DS3505
ZBHH,2007-07-02 01:00,ZBHH 020100Z AUTO 03002KT 6SM 26/11 A2980 RMK T02600110 IEM_DS3505
ZBHH,2007-07-02 02:00,ZBHH 020200Z AUTO 21002KT 6SM 26/10 A2980 RMK T02600100 IEM_DS3505
ZBHH,2007-07-02 03:00,ZBHH 020300Z AUTO 04002KT 19SM 28/10 A2980 RMK SLP016 T02820104 57008 IEM_DS3505
ZBHH,2007-07-02 04:00,ZBHH 020400Z AUTO 18002KT 7SM 29/09 A2977 RMK T02900090 IEM_DS3505
ZBHH,2007-07-02 05:00,ZBHH 020500Z AUTO 19006KT 7SM 31/09 A2974 RMK T03100090 IEM_DS3505
ZBHH,2007-07-02 06:00,ZBHH 020600Z AUTO 22010KT 19SM 32/04 A2974 RMK SLP997 T03150043 57019 IEM_DS3505
ZBHH,2007-07-02 07:00,ZBHH 020700Z AUTO 24008KT 7SM 31/05 A2971 RMK T03100050 IEM_DS3505
ZBHH,2007-07-02 08:00,ZBHH 020800Z AUTO 24008KT 7SM 32/03 A2971 RMK T03200030 IEM_DS3505
ZBHH,2007-07-02 09:00,ZBHH 020900Z AUTO 27010KT 19SM 32/05 A2968 RMK SLP988 T03180053 57010 IEM_DS3505
ZBHH,2007-07-02 10:00,ZBHH 021000Z AUTO 36006KT 7SM 29/09 A2968 RMK T02900090 IEM_DS3505
ZBHH,2007-07-02 11:00,ZBHH 021100Z AUTO 36004KT 7SM 29/08 A2968 RMK T02900080 IEM_DS3505
ZBHH,2007-07-02 12:00,ZBHH 021200Z AUTO 32004KT 19SM 28/08 A2971 RMK SLP985 T02760085 54000 IEM_DS3505
ZBHH,2007-07-02 13:00,ZBHH 021300Z AUTO 22006G16KT 7SM 25/10 A2974 RMK T02500100 IEM_DS3505
ZBHH,2007-07-02 14:00,ZBHH 021400Z AUTO 21004KT 7SM 25/11 A2974 RMK T02500110 IEM_DS3505
ZBHH,2007-07-02 15:00,ZBHH 021500Z AUTO 20006KT 19SM 25/11 A2974 RMK SLP002 T02520110 52018 IEM_DS3505
ZBHH,2007-07-02 16:00,ZBHH 021600Z AUTO 22006KT 6SM 23/14 A2974 RMK T02300140 IEM_DS3505
ZBHH,2007-07-02 17:00,ZBHH 021700Z AUTO 23008KT 6SM 22/14 A2977 RMK T02200140 IEM_DS3505
ZBHH,2007-07-02 18:00,ZBHH 021800Z AUTO 20006KT 19SM 22/14 A2977 RMK SLP002 T02200139 54000 IEM_DS3505
ZBHH,2007-07-02 19:00,ZBHH 021900Z AUTO 15002KT 6SM 20/15 A2977 RMK T02000150 IEM_DS3505
ZBHH,2007-07-02 20:00,ZBHH 022000Z AUTO 18002KT 6SM 20/14 A2977 RMK T02000140 IEM_DS3505
ZBHH,2007-07-02 21:00,ZBHH 022100Z AUTO 14002KT 19SM 20/14 A2977 RMK SLP013 T02000137 52007 IEM_DS3505
ZBHH,2007-07-02 22:00,ZBHH 022200Z AUTO 22002KT 6SM 18/14 A2977 RMK T01800140 IEM_DS3505
ZBHH,2007-07-02 23:00,ZBHH 022300Z AUTO 23004KT 4SM 19/14 A2977 RMK T01900140 IEM_DS3505
ZBHH,2007-07-03 00:00,ZBHH 030000Z AUTO 22008KT 9SM 20/14 A2977 RMK SLP025 T02000144 52003 IEM_DS3505
ZBHH,2007-07-03 01:00,ZBHH 030100Z AUTO 25004KT 4SM 21/15 A2977 RMK T02100150 IEM_DS3505
ZBHH,2007-07-03 02:00,ZBHH 030200Z AUTO 4SM 22/15 A2977 RMK T02200150 IEM_DS3505
ZBHH,2007-07-03 03:00,ZBHH 030300Z AUTO 18002KT 9SM 24/14 A2977 RMK SLP016 T02420143 57005 IEM_DS3505
ZBHH,2007-07-03 04:00,ZBHH 030400Z AUTO 23004KT 5SM 25/15 A2974 RMK T02500150 IEM_DS3505
ZBHH,2007-07-03 05:00,ZBHH 030500Z AUTO 23008KT 6SM 25/15 A2971 RMK T02500150 IEM_DS3505
ZBHH,2007-07-03 06:00,ZBHH 030600Z AUTO 32004KT 12SM 27/10 A2968 RMK SLP986 T02670096 57028 IEM_DS3505
ZBHH,2007-07-03 07:00,ZBHH 030700Z AUTO 05017KT 7SM 23/11 A2977 RMK T02300110 IEM_DS3505
ZBHH,2007-07-03 08:00,ZBHH 030800Z AUTO 07002KT 7SM 24/12 A2974 RMK T02400120 IEM_DS3505
ZBHH,2007-07-03 09:00,ZBHH 030900Z AUTO 22008KT 19SM 27/07 A2971 RMK SLP999 T02690074 52009 IEM_DS3505
ZBHH,2007-07-03 10:00,ZBHH 031000Z AUTO 14004KT 7SM 25/10 A2968 RMK T02500100 IEM_DS3505
ZBHH,2007-07-03 11:00,ZBHH 031100Z AUTO 12006KT 6SM 25/10 A2968 RMK T02500100 IEM_DS3505
ZBHH,2007-07-03 12:00,ZBHH 031200Z AUTO 09004KT 19SM 24/10 A2968 RMK 60000 SLP002 T02450097 57002 IEM_DS3505
ZBHH,2007-07-03 13:00,ZBHH 031300Z AUTO 35006KT 7SM 23/11 A2971 RMK T02300110 IEM_DS3505
ZBHH,2007-07-03 14:00,ZBHH 031400Z AUTO 24002KT 7SM 22/12 A2971 RMK T02200120 IEM_DS3505
ZBHH,2007-07-03 15:00,ZBHH 031500Z AUTO 18002KT 19SM 23/11 A2971 RMK SLP002 T02280106 52004 IEM_DS3505
ZBHH,2007-07-03 16:00,ZBHH 031600Z AUTO 7SM 21/12 A2974 RMK T02100120 IEM_DS3505
ZBHH,2007-07-03 17:00,ZBHH 031700Z AUTO 07004KT 7SM 20/12 A2971 RMK T02000120 IEM_DS3505
ZBHH,2007-07-03 18:00,ZBHH 031800Z AUTO 07002KT 19SM 20/12 A2971 RMK SLP000 T02050120 57001 IEM_DS3505
ZBHH,2007-07-03 19:00,ZBHH 031900Z AUTO 10004KT 7SM 17/12 A2971 RMK T01700120 IEM_DS3505
ZBHH,2007-07-03 20:00,ZBHH 032000Z AUTO 10004KT 7SM 17/12 A2971 RMK T01700120 IEM_DS3505
ZBHH,2007-07-03 21:00,ZBHH 032100Z AUTO 04004KT 19SM 18/11 A2971 RMK 70000 SLP010 T01840112 52005 IEM_DS3505
ZBHH,2007-07-03 22:00,ZBHH 032200Z AUTO 05004KT 6SM 17/10 A2974 RMK T01700100 IEM_DS3505
ZBHH,2007-07-03 23:00,ZBHH 032300Z AUTO 00000KT 6SM 20/11 A2974 RMK T02000110 IEM_DS3505
ZBHH,2007-07-04 00:00,ZBHH 040000Z AUTO 04002KT 19SM 23/11 A2974 RMK 70000 SLP007 T02320106 52002 IEM_DS3505
ZBHH,2007-07-04 01:00,ZBHH 040100Z AUTO 26002KT 6SM 24/12 A2974 RMK T02400120 IEM_DS3505
ZBHH,2007-07-04 02:00,ZBHH 040200Z AUTO 23004KT 6SM 25/12 A2974 RMK T02500120 IEM_DS3505
ZBHH,2007-07-04 03:00,ZBHH 040300Z AUTO 25002KT 16SM 26/11 A2974 RMK SLP004 T02570111 57001 IEM_DS3505
ZBHH,2007-07-04 04:00,ZBHH 040400Z AUTO 22004KT 7SM 26/13 A2974 RMK T02600130 IEM_DS3505
ZBHH,2007-07-04 05:00,ZBHH 040500Z AUTO 23008KT 7SM 28/14 A2974 RMK T02800140 IEM_DS3505
ZBHH,2007-07-04 06:00,ZBHH 040600Z AUTO 22008KT 16SM 28/13 A2968 RMK SLP991 T02790131 57012 IEM_DS3505
ZBHH,2007-07-04 07:00,ZBHH 040700Z AUTO 25004KT 7SM 28/15 A2971 RMK T02800150 IEM_DS3505
ZBHH,2007-07-04 08:00,ZBHH 040800Z AUTO 11008KT 7SM 29/09 A2968 RMK T02900090 IEM_DS3505
ZBHH,2007-07-04 09:00,ZBHH 040900Z AUTO 09008KT 16SM 28/09 A2971 RMK SLP995 T02850093 52001 IEM_DS3505
ZBHH,2007-07-04 10:00,ZBHH 041000Z AUTO 32004KT 7SM 25/15 A2968 RMK T02500150 IEM_DS3505
ZBHH,2007-07-04 11:00,ZBHH 041100Z AUTO 20002KT 7SM 26/15 A2968 RMK T02600150 IEM_DS3505
ZBHH,2007-07-04 12:00,ZBHH 041200Z AUTO 07002KT 19SM 27/11 RMK SLP988 T02670112 57001 IEM_DS3505
ZBHH,2007-07-04 13:00,ZBHH 041300Z AUTO 11008KT 7SM 24/13 A2971 RMK T02400130 IEM_DS3505
ZBHH,2007-07-04 14:00,ZBHH 041400Z AUTO 10006KT 7SM 22/13 A2974 RMK T02200130 IEM_DS3505
ZBHH,2007-07-04 15:00,ZBHH 041500Z AUTO 09004KT 19SM 23/12 A2977 RMK SLP014 T02280124 52021 IEM_DS3505
ZBHH,2007-07-04 16:00,ZBHH 041600Z AUTO 00000KT 6SM 19/13 A2977 RMK T01900130 IEM_DS3505
ZBHH,2007-07-04 17:00,ZBHH 041700Z AUTO 10002KT 6SM 18/13 A2977 RMK T01800130 IEM_DS3505
ZBHH,2007-07-04 18:00,ZBHH 041800Z AUTO 09004KT 19SM 20/12 RMK SLP017 T02000125 52001 IEM_DS3505
ZBHH,2007-07-04 20:00,ZBHH 042000Z AUTO 11002KT 6SM 18/12 A2974 RMK T01800120 IEM_DS3505
ZBHH,2007-07-04 21:00,ZBHH 042100Z AUTO 09002KT 19SM 20/12 A2974 RMK SLP013 T01960121 57003 IEM_DS3505
ZBHH,2007-07-04 22:00,ZBHH 042200Z AUTO 09004KT 7SM 18/13 A2974 RMK T01800130 IEM_DS3505
ZBHH,2007-07-04 23:00,ZBHH 042300Z AUTO 09002KT 7SM 20/13 A2977 RMK T02000130 IEM_DS3505
ZBHH,2007-07-05 00:00,ZBHH 050000Z AUTO 04002KT 19SM 23/12 A2977 RMK SLP014 T02310118 52004 IEM_DS3505
ZBHH,2007-07-05 01:00,ZBHH 050100Z AUTO 04002KT 7SM 24/12 A2974 RMK T02400120 IEM_DS3505
ZBHH,2007-07-05 02:00,ZBHH 050200Z AUTO 22002KT 6SM 26/13 A2974 RMK T02600130 IEM_DS3505
ZBHH,2007-07-05 03:00,ZBHH 050300Z AUTO 20002KT 19SM 28/11 A2974 RMK SLP003 T02780109 57008 IEM_DS3505
ZBHH,2007-07-05 04:00,ZBHH 050400Z AUTO 22004KT 7SM 28/12 A2974 RMK T02800120 IEM_DS3505
ZBHH,2007-07-05 05:00,ZBHH 050500Z AUTO 25006KT 7SM 29/12 A2971 RMK T02900120 IEM_DS3505
ZBHH,2007-07-05 06:00,ZBHH 050600Z AUTO 29010G23KT 19SM 25/11 A2971 RMK 60000 SLP011 T02510106 57003 IEM_DS3505
ZBHH,2007-07-05 07:00,ZBHH 050700Z AUTO 29019G29KT 7SM 26/09 A2971 RMK T02600090 IEM_DS3505
ZBHH,2007-07-05 08:00,ZBHH 050800Z AUTO 30010KT 7SM 28/08 A2971 RMK T02800080 IEM_DS3505
ZBHH,2007-07-05 09:00,ZBHH 050900Z AUTO 29006KT 19SM 28/09 A2968 RMK SLP993 T02830086 57011 IEM_DS3505
ZBHH,2007-07-05 10:00,ZBHH 051000Z AUTO 23012KT 7SM 26/11 A2971 RMK T02600110 IEM_DS3505
ZBHH,2007-07-05 11:00,ZBHH 051100Z AUTO 24010KT 7SM 24/12 A2974 RMK T02400120 IEM_DS3505
ZBHH,2007-07-05 12:00,ZBHH 051200Z AUTO 22006KT 19SM 23/12 A2977 RMK 60000 SLP024 T02300123 52024 IEM_DS3505
ZBHH,2007-07-05 13:00,ZBHH 051300Z AUTO 23004KT 7SM 23/12 A2980 RMK T02300120 IEM_DS3505
ZBHH,2007-07-05 14:00,ZBHH 051400Z AUTO 24008KT 7SM 22/13 A2980 RMK T02200130 IEM_DS3505
ZBHH,2007-07-05 15:00,ZBHH 051500Z AUTO 25004KT 19SM 22/13 A2980 RMK SLP029 T02200128 52011 IEM_DS3505
ZBHH,2007-07-05 16:00,ZBHH 051600Z AUTO 15002KT 7SM 20/14 A2980 RMK T02000140 IEM_DS3505
ZBHH,2007-07-05 17:00,ZBHH 051700Z AUTO 00000KT 20/14 A2980 RMK T02000140 IEM_DS3505
ZBHH,2007-07-05 18:00,ZBHH 051800Z AUTO 04004KT 19SM 20/14 RMK SLP025 T02030140 57011 IEM_DS3505
ZBHH,2007-07-05 19:00,ZBHH 051900Z AUTO 07002KT 7SM 19/14 A2974 RMK T01900140 IEM_DS3505
ZBHH,2007-07-05 20:00,ZBHH 052000Z AUTO 08004KT 7SM 20/14 A2974 RMK T02000140 IEM_DS3505
ZBHH,2007-07-05 21:00,ZBHH 052100Z AUTO 29002KT 19SM 20/14 A2974 RMK 70000 SLP017 T01990143 57002 IEM_DS3505
ZBHH,2007-07-05 22:00,ZBHH 052200Z AUTO 02004KT 7SM 19/14 A2977 RMK T01900140 IEM_DS3505
ZBHH,2007-07-05 23:00,ZBHH 052300Z AUTO 26002KT 7SM 21/14 A2977 RMK T02100140 IEM_DS3505
ZBHH,2007-07-06 00:00,ZBHH 060000Z AUTO 00000KT 19SM 22/14 A2977 RMK 70000 SLP023 T02230144 54000 IEM_DS3505
ZBHH,2007-07-06 01:00,ZBHH 060100Z AUTO 15002KT 5SM 24/15 A2977 RMK T02400150 IEM_DS3505
ZBHH,2007-07-06 02:00,ZBHH 060200Z AUTO 23002KT 7SM 25/13 A2977 RMK T02500130 IEM_DS3505
ZBHH,2007-07-06 03:00,ZBHH 060300Z AUTO 22004KT 16SM 26/12 A2977 RMK SLP016 T02610118 57001 IEM_DS3505
ZBHH,2007-07-06 04:00,ZBHH 060400Z AUTO 23004KT 7SM 28/12 A2974 RMK T02800120 IEM_DS3505
ZBHH,2007-07-06 05:00,ZBHH 060500Z AUTO 27006KT 7SM 28/11 A2974 RMK T02800110 IEM_DS3505
ZBHH,2007-07-06 06:00,ZBHH 060600Z AUTO 22008KT 19SM 28/12 A2971 RMK SLP999 T02810116 57015 IEM_DS3505
ZBHH,2007-07-06 07:00,ZBHH 060700Z AUTO 23012KT 7SM 28/14 A2971 RMK T02800140 IEM_DS3505
ZBHH,2007-07-06 08:00,ZBHH 060800Z AUTO 23012KT 7SM 26/13 A2971 RMK T02600130 IEM_DS3505
ZBHH,2007-07-06 09:00,ZBHH 060900Z AUTO 20006KT 19SM 27/12 A2974 RMK SLP999 T02700119 57002 IEM_DS3505
ZBHH,2007-07-06 10:00,ZBHH 061000Z AUTO 15006KT 7SM 23/15 A2971 RMK T02300150 IEM_DS3505
ZBHH,2007-07-06 11:00,ZBHH 061100Z AUTO 04004KT 7SM 24/13 A2974 RMK T02400130 IEM_DS3505
ZBHH,2007-07-06 12:00,ZBHH 061200Z AUTO 14002KT 19SM 24/13 A2971 RMK SLP007 T02390132 52005 IEM_DS3505
ZBHH,2007-07-06 13:00,ZBHH 061300Z AUTO 18004KT 7SM 20/14 A2974 RMK T02000140 IEM_DS3505
ZBHH,2007-07-06 14:00,ZBHH 061400Z AUTO 13002KT 7SM 19/15 A2974 RMK T01900150 IEM_DS3505
ZBHH,2007-07-06 15:00,ZBHH 061500Z AUTO 09002KT 19SM 21/14 A2974 RMK SLP014 T02120141 52009 IEM_DS3505
ZBHH,2007-07-06 16:00,ZBHH 061600Z AUTO 04004KT 7SM 18/13 A2974 RMK T01800130 IEM_DS3505
ZBHH,2007-07-06 18:00,ZBHH 061800Z AUTO 32002KT 19SM 19/13 A2974 RMK SLP012 T01920134 57002 IEM_DS3505
ZBHH,2007-07-06 19:00,ZBHH 061900Z AUTO 09006KT 7SM 16/12 A2974 RMK T01600120 IEM_DS3505
ZBHH,2007-07-06 20:00,ZBHH 062000Z AUTO 10004KT 7SM 16/12 A2974 RMK T01600120 IEM_DS3505
ZBHH,2007-07-06 21:00,ZBHH 062100Z AUTO 09002KT 19SM 18/12 A2974 RMK SLP012 T01750124 57005 IEM_DS3505
ZBHH,2007-07-06 22:00,ZBHH 062200Z AUTO 03002KT 6SM 17/12 A2974 RMK T01700120 IEM_DS3505
ZBHH,2007-07-06 23:00,ZBHH 062300Z AUTO 07002KT 6SM 19/13 A2974 RMK T01900130 IEM_DS3505
ZBHH,2007-07-07 00:00,ZBHH 070000Z AUTO 04002KT 19SM 24/13 A2974 RMK SLP014 T02350128 52007 IEM_DS3505
ZBHH,2007-07-07 01:00,ZBHH 070100Z AUTO 06002KT 6SM 25/13 A2974 RMK T02500130 IEM_DS3505
ZBHH,2007-07-07 02:00,ZBHH 070200Z AUTO 23004KT 6SM 25/14 A2974 RMK T02500140 IEM_DS3505
ZBHH,2007-07-07 03:00,ZBHH 070300Z AUTO 20006KT 19SM 27/14 A2971 RMK SLP998 T02680135 57013 IEM_DS3505
ZBHH,2007-07-07 04:00,ZBHH 070400Z AUTO 22010KT 7SM 28/16 A2968 RMK T02800160 IEM_DS3505
ZBHH,2007-07-07 05:00,ZBHH 070500Z AUTO 23014KT 7SM 30/15 A2965 RMK T03000150 IEM_DS3505
ZBHH,2007-07-07 06:00,ZBHH 070600Z AUTO 22012KT 19SM 31/12 A2962 RMK SLP964 T03130117 57026 IEM_DS3505
ZBHH,2007-07-07 07:00,ZBHH 070700Z AUTO 25021KT 7SM 33/08 A2959 RMK T03300080 IEM_DS3505
ZBHH,2007-07-07 08:00,ZBHH 070800Z AUTO 26019KT 7SM 33/06 A2959 RMK T03300060 IEM_DS3505
ZBHH,2007-07-07 09:00,ZBHH 070900Z AUTO 25012KT 19SM 33/06 A2959 RMK SLP949 T03330058 57013 IEM_DS3505
ZBHH,2007-07-07 10:00,ZBHH 071000Z AUTO 25014KT 7SM 33/06 A2959 RMK T03300060 IEM_DS3505
ZBHH,2007-07-07 11:00,ZBHH 071100Z AUTO 23008KT 7SM 31/08 A2959 RMK T03100080 IEM_DS3505
ZBHH,2007-07-07 12:00,ZBHH 071200Z AUTO 25004KT 19SM 31/00 A2959 RMK SLP948 T03090003 52006 IEM_DS3505
ZBHH,2007-07-07 13:00,ZBHH 071300Z AUTO 32008KT 7SM 30/04 A2962 RMK T03000040 IEM_DS3505
ZBHH,2007-07-07 14:00,ZBHH 071400Z AUTO 28006KT 6SM 27/04 A2965 RMK T02700040 IEM_DS3505
ZBHH,2007-07-07 15:00,ZBHH 071500Z AUTO 32004KT 19SM 27/04 A2962 RMK SLP961 T02670045 52010 IEM_DS3505
ZBHH,2007-07-07 16:00,ZBHH 071600Z AUTO 25002KT 6SM 22/07 A2962 RMK T02200070 IEM_DS3505
ZBHH,2007-07-07 18:00,ZBHH 071800Z AUTO 34002KT 19SM 24/07 RMK SLP958 T02440071 52001 IEM_DS3505
ZBHH,2007-07-07 21:00,ZBHH 072100Z AUTO 22002KT 19SM 20/09 A2965 RMK SLP972 T01960092 52007 IEM_DS3505
ZBHH,2007-07-07 22:00,ZBHH 072200Z AUTO 03004KT 6SM 18/10 A2968 RMK T01800100 IEM_DS3505
ZBHH,2007-07-07 23:00,ZBHH 072300Z AUTO 09006KT 6SM 21/10 A2968 RMK T02100100 IEM_DS3505
ZBHH,2007-07-08 00:00,ZBHH 080000Z AUTO 11002KT 19SM 25/09 A2968 RMK SLP975 T02490088 52008 IEM_DS3505
ZBHH,2007-07-08 01:00,ZBHH 080100Z AUTO 20006KT 6SM 25/10 A2968 RMK T02500100 IEM_DS3505
ZBHH,2007-07-08 02:00,ZBHH 080200Z AUTO 20004KT 6SM 27/10 A2965 RMK T02700100 IEM_DS3505
ZBHH,2007-07-08 03:00,ZBHH 080300Z AUTO 16004KT 19SM 29/10 A2965 RMK SLP959 T02900097 57014 IEM_DS3505
ZBHH,2007-07-08 04:00,ZBHH 080400Z AUTO 24010KT 7SM 31/09 A2962 RMK T03100090 IEM_DS3505
ZBHH,2007-07-08 05:00,ZBHH 080500Z AUTO 29010KT 7SM 32/07 A2959 RMK T03200070 IEM_DS3505
ZBHH,2007-07-08 06:00,ZBHH 080600Z AUTO 29008G27KT 19SM 32/04 A2959 RMK SLP937 T03240042 57018 IEM_DS3505
ZBHH,2007-07-08 07:00,ZBHH 080700Z AUTO 33016G29KT 7SM 33/03 A2956 RMK T03300030 IEM_DS3505
ZBHH,2007-07-08 08:00,ZBHH 080800Z AUTO 32017G27KT 7SM 33/02 A2956 RMK T03300020 IEM_DS3505
ZBHH,2007-07-08 09:00,ZBHH 080900Z AUTO 34008G25KT 19SM 32/03 A2953 RMK SLP932 T03210031 57013 IEM_DS3505
ZBHH,2007-07-08 10:00,ZBHH 081000Z AUTO 34014KT 7SM 32/03 A2956 RMK T03200030 IEM_DS3505
ZBHH,2007-07-08 11:00,ZBHH 081100Z AUTO 35008KT 7SM 31/04 A2956 RMK T03100040 IEM_DS3505
ZBHH,2007-07-08 12:00,ZBHH 081200Z AUTO 32006KT 19SM 29/05 A2956 RMK SLP937 T02930047 52009 IEM_DS3505
ZBHH,2007-07-08 13:00,ZBHH 081300Z AUTO 34010KT 7SM 28/06 A2959 RMK T02800060 IEM_DS3505
ZBHH,2007-07-08 14:00,ZBHH 081400Z AUTO 36010KT 6SM 26/09 A2959 RMK T02600090 IEM_DS3505
ZBHH,2007-07-08 15:00,ZBHH 081500Z AUTO 32002KT 19SM 25/11 A2962 RMK SLP960 T02510106 52020 IEM_DS3505
ZBHH,2007-07-08 16:00,ZBHH 081600Z AUTO 34008KT 6SM 24/11 A2965 RMK T02400110 IEM_DS3505
ZBHH,2007-07-08 17:00,ZBHH 081700Z AUTO 34004KT 6SM 23/10 A2968 RMK T02300100 IEM_DS3505
ZBHH,2007-07-08 18:00,ZBHH 081800Z AUTO 34004KT 19SM 22/09 A2965 RMK SLP966 T02220094 52006 IEM_DS3505
ZBHH,2007-07-08 19:00,ZBHH 081900Z AUTO 02004KT 6SM 20/10 A2965 RMK T02000100 IEM_DS3505
ZBHH,2007-07-08 20:00,ZBHH 082000Z AUTO 01006KT 6SM 20/10 A2965 RMK T02000100 IEM_DS3505
ZBHH,2007-07-08 21:00,ZBHH 082100Z AUTO 29004KT 19SM 21/10 A2965 RMK SLP970 T02110100 52001 IEM_DS3505
ZBHH,2007-07-08 22:00,ZBHH 082200Z AUTO 04006KT 7SM 20/11 A2968 RMK T02000110 IEM_DS3505
ZBHH,2007-07-08 23:00,ZBHH 082300Z AUTO 04006KT 7SM 20/11 A2968 RMK T02000110 IEM_DS3505
ZBHH,2007-07-09 00:00,ZBHH 090000Z AUTO 34004KT 19SM 23/11 A2968 RMK SLP980 T02320106 52008 IEM_DS3505
ZBHH,2007-07-09 01:00,ZBHH 090100Z AUTO 01012KT 7SM 20/12 A2971 RMK T02000120 IEM_DS3505
ZBHH,2007-07-09 02:00,ZBHH 090200Z AUTO 01010KT 7SM 23/12 A2968 RMK T02300120 IEM_DS3505
ZBHH,2007-07-09 03:00,ZBHH 090300Z AUTO 29008KT 19SM 23/12 A2968 RMK SLP993 T02330123 52004 IEM_DS3505
ZBHH,2007-07-09 04:00,ZBHH 090400Z AUTO 36014KT 7SM 25/10 A2968 RMK T02500100 IEM_DS3505
ZBHH,2007-07-09 05:00,ZBHH 090500Z AUTO 01014KT 7SM 25/11 A2968 RMK T02500110 IEM_DS3505
ZBHH,2007-07-09 06:00,ZBHH 090600Z AUTO 34006KT 19SM 25/11 A2968 RMK 60003 SLP991 T02490108 57004 IEM_DS3505
ZBHH,2007-07-09 07:00,ZBHH 090700Z AUTO 04006KT 7SM 25/10 A2968 RMK T02500100 IEM_DS3505
ZBHH,2007-07-09 08:00,ZBHH 090800Z AUTO 19010KT 7SM 23/14 A2965 RMK T02300140 IEM_DS3505
ZBHH,2007-07-09 09:00,ZBHH 090900Z AUTO 32004KT 19SM 27/12 A2965 RMK SLP974 T02700115 57013 IEM_DS3505
ZBHH,2007-07-09 10:00,ZBHH 091000Z AUTO 13010KT 7SM 22/15 A2968 RMK T02200150 IEM_DS3505
ZBHH,2007-07-09 11:00,ZBHH 091100Z AUTO 06006KT 7SM 21/14 A2971 RMK T02100140 IEM_DS3505
ZBHH,2007-07-09 12:00,ZBHH 091200Z AUTO 11004KT 19SM 22/14 A2971 RMK SLP000 T02210135 52018 IEM_DS3505
ZBHH,2007-07-09 13:00,ZBHH 091300Z AUTO 22002KT 7SM 19/14 A2971 RMK T01900140 IEM_DS3505
ZBHH,2007-07-09 14:00,ZBHH 091400Z AUTO 17002KT 7SM 18/14 A2974 RMK T01800140 IEM_DS3505
ZBHH,2007-07-09 15:00,ZBHH 091500Z AUTO 29002KT 19SM 20/14 A2974 RMK SLP016 T02000141 52010 IEM_DS3505
ZBHH,2007-07-09 16:00,ZBHH 091600Z AUTO 12002KT 6SM 17/14 A2974 RMK T01700140 IEM_DS3505
ZBHH,2007-07-09 17:00,ZBHH 091700Z AUTO 11002KT 6SM 16/14 A2974 RMK T01600140 IEM_DS3505
ZBHH,2007-07-09 18:00,ZBHH 091800Z AUTO 25002KT 19SM 18/14 A2974 RMK SLP021 T01760135 52003 IEM_DS3505
ZBHH,2007-07-09 19:00,ZBHH 091900Z AUTO 11002KT 6SM 15/12 A2974 RMK T01500120 IEM_DS3505
ZBHH,2007-07-09 20:00,ZBHH 092000Z AUTO 10006KT 6SM 14/12 A2974 RMK T01400120 IEM_DS3505
ZBHH,2007-07-09 21:00,ZBHH 092100Z AUTO 09002KT 19SM 17/12 A2977 RMK 70003 SLP025 T01660122 52006 IEM_DS3505
ZBHH,2007-07-09 22:00,ZBHH 092200Z AUTO 13002KT 6SM 15/12 A2977 RMK T01500120 IEM_DS3505
ZBHH,2007-07-09 23:00,ZBHH 092300Z AUTO 12004KT 6SM 17/13 A2977 RMK T01700130 IEM_DS3505
ZBHH,2007-07-10 00:00,ZBHH 100000Z AUTO 09004KT 19SM 22/13 A2974 RMK 70003 SLP023 T02210126 57001 IEM_DS3505
ZBHH,2007-07-10 01:00,ZBHH 100100Z AUTO 25002KT 7SM 24/11 A2974 RMK T02400110 IEM_DS3505
ZBHH,2007-07-10 02:00,ZBHH 100200Z AUTO 35010KT 7SM 26/03 A2974 RMK T02600030 IEM_DS3505
ZBHH,2007-07-10 03:00,ZBHH 100300Z AUTO 07008KT 19SM 27/03 A2974 RMK SLP011 T02690028 57006 IEM_DS3505
ZBHH,2007-07-10 04:00,ZBHH 100400Z AUTO 03008G19KT 7SM 28/01 A2971 RMK T02800010 IEM_DS3505
ZBHH,2007-07-10 05:00,ZBHH 100500Z AUTO 35008KT 7SM 29/01 A2971 RMK T02900010 IEM_DS3505
ZBHH,2007-07-10 06:00,ZBHH 100600Z AUTO 32008KT 19SM 29/01 A2968 RMK SLP992 T02930009 57017 IEM_DS3505
ZBHH,2007-07-10 07:00,ZBHH 100700Z AUTO 36012G23KT 7SM 29/00 A2968 RMK T02900000 IEM_DS3505
ZBHH,2007-07-10 08:00,ZBHH 100800Z AUTO 36010KT 7SM 30/00 A2965 RMK T03000000 IEM_DS3505
ZBHH,2007-07-10 09:00,ZBHH 100900Z AUTO 32010KT 19SM 30/M00 A2965 RMK SLP979 T03031001 57011 IEM_DS3505
ZBHH,2007-07-10 10:00,ZBHH 101000Z AUTO 36010KT 7SM 29/00 A2965 RMK T02900000 IEM_DS3505
ZBHH,2007-07-10 11:00,ZBHH 101100Z AUTO 02010KT 7SM 28/01 A2965 RMK T02800010 IEM_DS3505
ZBHH,2007-07-10 12:00,ZBHH 101200Z AUTO 02006KT 19SM 27/01 A2968 RMK SLP981 T02710008 52006 IEM_DS3505
ZBHH,2007-07-10 13:00,ZBHH 101300Z AUTO 03006KT 6SM 25/02 A2968 RMK T02500020 IEM_DS3505
ZBHH,2007-07-10 14:00,ZBHH 101400Z AUTO 08002KT 6SM 23/02 A2971 RMK T02300020 IEM_DS3505
ZBHH,2007-07-10 15:00,ZBHH 101500Z AUTO 34002KT 19SM 23/00 A2971 RMK SLP998 T02310002 52016 IEM_DS3505
ZBHH,2007-07-10 16:00,ZBHH 101600Z AUTO 05002KT 6SM 21/02 A2971 RMK T02100020 IEM_DS3505
ZBHH,2007-07-10 17:00,ZBHH 101700Z AUTO 03006KT 6SM 19/02 A2971 RMK T01900020 IEM_DS3505
ZBHH,2007-07-10 18:00,ZBHH 101800Z AUTO 16002KT 19SM 19/02 A2971 RMK SLP001 T01910025 54000 IEM_DS3505
ZBHH,2007-07-10 19:00,ZBHH 101900Z AUTO 08004KT 6SM 17/03 A2974 RMK T01700030 IEM_DS3505
ZBHH,2007-07-10 20:00,ZBHH 102000Z AUTO 09004KT 6SM 16/04 A2974 RMK T01600040 IEM_DS3505
ZBHH,2007-07-10 21:00,ZBHH 102100Z AUTO 04004KT 19SM 16/04 A2974 RMK SLP014 T01590037 52008 IEM_DS3505
ZBHH,2007-07-10 22:00,ZBHH 102200Z AUTO 22002KT 6SM 15/05 A2977 RMK T01500050 IEM_DS3505
ZBHH,2007-07-10 23:00,ZBHH 102300Z AUTO 09004KT 6SM 18/05 A2977 RMK T01800050 IEM_DS3505
ZBHH,2007-07-11 00:00,ZBHH 110000Z AUTO 07002KT 19SM 23/04 A2977 RMK SLP014 T02270038 52006 IEM_DS3505
ZBHH,2007-07-11 01:00,ZBHH 110100Z AUTO 14002KT 6SM 24/05 A2977 RMK T02400050 IEM_DS3505
ZBHH,2007-07-11 02:00,ZBHH 110200Z AUTO 22004KT 6SM 26/06 A2977 RMK T02600060 IEM_DS3505
ZBHH,2007-07-11 03:00,ZBHH 110300Z AUTO 18004KT 19SM 27/05 A2974 RMK SLP009 T02700053 57004 IEM_DS3505
ZBHH,2007-07-11 04:00,ZBHH 110400Z AUTO 22006KT 6SM 27/06 A2974 RMK T02700060 IEM_DS3505
ZBHH,2007-07-11 05:00,ZBHH 110500Z AUTO 21008KT 6SM 28/06 A2974 RMK T02800060 IEM_DS3505
ZBHH,2007-07-11 06:00,ZBHH 110600Z AUTO 20006KT 19SM 29/04 A2971 RMK SLP002 T02900045 57010 IEM_DS3505
ZBHH,2007-07-11 07:00,ZBHH 110700Z AUTO 20006KT 7SM 30/05 A2971 RMK T03000050 IEM_DS3505
ZBHH,2007-07-11 08:00,ZBHH 110800Z AUTO 24006KT 7SM 29/05 A2971 RMK T02900050 IEM_DS3505
ZBHH,2007-07-11 09:00,ZBHH 110900Z AUTO 18008KT 19SM 29/04 A2971 RMK SLP003 T02890044 57005 IEM_DS3505
ZBHH,2007-07-11 10:00,ZBHH 111000Z AUTO 26006KT 6SM 29/05 A2971 RMK T02900050 IEM_DS3505
ZBHH,2007-07-11 11:00,ZBHH 111100Z AUTO 26006KT 6SM 28/06 A2971 RMK T02800060 IEM_DS3505
ZBHH,2007-07-11 12:00,ZBHH 111200Z AUTO 25002KT 19SM 27/06 A2971 RMK SLP998 T02720060 52005 IEM_DS3505
ZBHH,2007-07-11 13:00,ZBHH 111300Z AUTO 36002KT 6SM 25/06 A2974 RMK T02500060 IEM_DS3505
ZBHH,2007-07-11 14:00,ZBHH 111400Z AUTO 00000KT 6SM 22/06 A2974 RMK T02200060 IEM_DS3505
ZBHH,2007-07-11 15:00,ZBHH 111500Z AUTO 25002KT 19SM 23/06 A2977 RMK SLP010 T02290062 52011 IEM_DS3505
ZBHH,2007-07-11 16:00,ZBHH 111600Z AUTO 11004KT 6SM 20/07 A2977 RMK T02000070 IEM_DS3505
ZBHH,2007-07-11 17:00,ZBHH 111700Z AUTO 06008KT 6SM 22/06 A2977 RMK T02200060 IEM_DS3505
ZBHH,2007-07-11 18:00,ZBHH 111800Z AUTO 07002KT 19SM 20/06 A2977 RMK SLP018 T02040064 52006 IEM_DS3505
ZBHH,2007-07-11 19:00,ZBHH 111900Z AUTO 10004KT 6SM 19/08 A2977 RMK T01900080 IEM_DS3505
ZBHH,2007-07-11 20:00,ZBHH 112000Z AUTO 11002KT 6SM 19/08 A2977 RMK T01900080 IEM_DS3505
ZBHH,2007-07-11 21:00,ZBHH 112100Z AUTO 09004KT 19SM 20/09 A2977 RMK SLP022 T01980091 52002 IEM_DS3505
ZBHH,2007-07-11 22:00,ZBHH 112200Z AUTO 07004KT 6SM 19/08 A2977 RMK T01900080 IEM_DS3505
ZBHH,2007-07-11 23:00,ZBHH 112300Z AUTO 09004KT 6SM 21/09 A2977 RMK T02100090 IEM_DS3505
ZBHH,2007-07-12 00:00,ZBHH 120000Z AUTO 11002KT 19SM 25/09 A2980 RMK SLP019 T02470094 52003 IEM_DS3505
ZBHH,2007-07-12 01:00,ZBHH 120100Z AUTO 13004KT 6SM 26/09 A2980 RMK T02600090 IEM_DS3505
ZBHH,2007-07-12 02:00,ZBHH 120200Z AUTO 19002KT 7SM 28/08 A2980 RMK T02800080 IEM_DS3505
ZBHH,2007-07-12 03:00,ZBHH 120300Z AUTO 11004KT 19SM 29/07 A2977 RMK SLP011 T02910071 57007 IEM_DS3505
ZBHH,2007-07-12 04:00,ZBHH 120400Z AUTO 18004KT 7SM 30/08 A2977 RMK T03000080 IEM_DS3505
ZBHH,2007-07-12 05:00,ZBHH 120500Z AUTO 23004KT 7SM 31/06 A2974 RMK T03100060 IEM_DS3505
ZBHH,2007-07-12 06:00,ZBHH 120600Z AUTO 20006KT 19SM 32/05 A2971 RMK SLP994 T03180046 57014 IEM_DS3505
ZBHH,2007-07-12 07:00,ZBHH 120700Z AUTO 05002KT 7SM 31/03 A2971 RMK T03100030 IEM_DS3505
ZBHH,2007-07-12 08:00,ZBHH 120800Z AUTO 19004KT 7SM 33/05 A2968 RMK T03300050 IEM_DS3505
ZBHH,2007-07-12 09:00,ZBHH 120900Z AUTO 22004KT 19SM 33/05 A2968 RMK SLP975 T03270053 57017 IEM_DS3505
ZBHH,2007-07-12 10:00,ZBHH 121000Z AUTO 23002KT 7SM 33/06 A2968 RMK T03300060 IEM_DS3505
ZBHH,2007-07-12 11:00,ZBHH 121100Z AUTO 19002KT 7SM 31/08 A2968 RMK T03100080 IEM_DS3505
ZBHH,2007-07-12 12:00,ZBHH 121200Z AUTO 25002KT 19SM 30/07 A2968 RMK SLP977 T03010073 52006 IEM_DS3505
ZBHH,2007-07-12 13:00,ZBHH 121300Z AUTO 20002KT 5SM 27/10 A2971 RMK T02700100 IEM_DS3505
ZBHH,2007-07-12 14:00,ZBHH 121400Z AUTO 11006KT 6SM 26/10 A2974 RMK T02600100 IEM_DS3505
ZBHH,2007-07-12 15:00,ZBHH 121500Z AUTO 07002KT 19SM 27/08 A2974 RMK SLP990 T02720081 52014 IEM_DS3505
ZBHH,2007-07-12 16:00,ZBHH 121600Z AUTO 35002KT 7SM 25/08 A2974 RMK T02500080 IEM_DS3505
ZBHH,2007-07-12 17:00,ZBHH 121700Z AUTO 12004KT 7SM 24/10 A2974 RMK T02400100 IEM_DS3505
ZBHH,2007-07-12 18:00,ZBHH 121800Z AUTO 07004KT 19SM 25/10 RMK SLP990 T02510098 52001 IEM_DS3505
ZBHH,2007-07-12 19:00,ZBHH 121900Z AUTO 05002KT 7SM 24/10 A2974 RMK T02400100 IEM_DS3505
ZBHH,2007-07-12 20:00,ZBHH 122000Z AUTO 11002KT 7SM 22/11 A2974 RMK T02200110 IEM_DS3505
ZBHH,2007-07-12 21:00,ZBHH 122100Z AUTO 07004KT 12SM 24/11 A2974 RMK SLP992 T02390106 52002 IEM_DS3505
ZBHH,2007-07-12 22:00,ZBHH 122200Z AUTO 18004KT 5SM 23/12 A2977 RMK T02300120 IEM_DS3505
ZBHH,2007-07-12 23:00,ZBHH 122300Z AUTO 17002KT 5SM 22/13 A2977 RMK T02200130 IEM_DS3505
ZBHH,2007-07-13 00:00,ZBHH 130000Z AUTO 16002KT 6SM 23/12 A2980 RMK SLP018 T02330123 52017 IEM_DS3505
ZBHH,2007-07-13 01:00,ZBHH 130100Z AUTO 19002KT 6SM 23/14 A2980 RMK T02300140 IEM_DS3505
ZBHH,2007-07-13 02:00,ZBHH 130200Z AUTO 26004KT 7SM 24/13 A2980 RMK T02400130 IEM_DS3505
ZBHH,2007-07-13 03:00,ZBHH 130300Z AUTO 09002KT 7SM 23/14 A2980 RMK SLP025 T02340139 52001 IEM_DS3505
ZBHH,2007-07-13 04:00,ZBHH 130400Z AUTO 05004KT 7SM 23/15 A2980 RMK T02300150 IEM_DS3505
ZBHH,2007-07-13 05:00,ZBHH 130500Z AUTO 21004KT 7SM 25/15 A2977 RMK T02500150 IEM_DS3505
ZBHH,2007-07-13 06:00,ZBHH 130600Z AUTO 22006KT 6SM 25/14 A2977 RMK 60000 SLP013 T02500145 57011 IEM_DS3505
ZBHH,2007-07-13 07:00,ZBHH 130700Z AUTO 24010KT 7SM 27/14 A2977 RMK T02700140 IEM_DS3505
ZBHH,2007-07-13 08:00,ZBHH 130800Z AUTO 24010KT 7SM 27/14 A2974 RMK T02700140 IEM_DS3505
ZBHH,2007-07-13 09:00,ZBHH 130900Z AUTO 22008KT 12SM 27/14 A2971 RMK SLP996 T02690136 57014 IEM_DS3505
ZBHH,2007-07-13 10:00,ZBHH 131000Z AUTO 23008KT 7SM 26/14 A2971 RMK T02600140 IEM_DS3505
ZBHH,2007-07-13 11:00,ZBHH 131100Z AUTO 21006KT 7SM 25/14 A2971 RMK T02500140 IEM_DS3505
ZBHH,2007-07-13 12:00,ZBHH 131200Z AUTO 20002KT 19SM 25/14 A2974 RMK SLP005 T02490135 52003 IEM_DS3505
ZBHH,2007-07-13 13:00,ZBHH 131300Z AUTO 11004KT 7SM 23/15 A2977 RMK T02300150 IEM_DS3505
ZBHH,2007-07-13 14:00,ZBHH 131400Z AUTO 17002KT 7SM 23/14 A2977 RMK T02300140 IEM_DS3505
ZBHH,2007-07-13 15:00,ZBHH 131500Z AUTO 22002KT 19SM 22/13 A2977 RMK SLP022 T02220130 52011 IEM_DS3505
ZBHH,2007-07-13 16:00,ZBHH 131600Z AUTO 16002KT 6SM 20/13 A2977 RMK T02000130 IEM_DS3505
ZBHH,2007-07-13 17:00,ZBHH 131700Z AUTO 15004KT 6SM 19/14 A2977 RMK T01900140 IEM_DS3505
ZBHH,2007-07-13 18:00,ZBHH 131800Z AUTO 07002KT 19SM 20/14 A2977 RMK SLP022 T02050135 57001 IEM_DS3505
ZBHH,2007-07-13 19:00,ZBHH 131900Z AUTO 15004KT 6SM 19/14 A2977 RMK T01900140 IEM_DS3505
ZBHH,2007-07-13 20:00,ZBHH 132000Z AUTO 00000KT 6SM 20/14 A2977 RMK T02000140 IEM_DS3505
ZBHH,2007-07-13 21:00,ZBHH 132100Z AUTO 07002KT 19SM 20/14 A2977 RMK 70000 SLP020 T01970139 52001 IEM_DS3505
ZBHH,2007-07-13 22:00,ZBHH 132200Z AUTO 11002KT 6SM 19/14 A2977 RMK T01900140 IEM_DS3505
ZBHH,2007-07-13 23:00,ZBHH 132300Z AUTO 09002KT 6SM 20/14 A2977 RMK T02000140 IEM_DS3505
ZBHH,2007-07-14 00:00,ZBHH 140000Z AUTO 14004KT 12SM 22/14 A2977 RMK 70000 SLP025 T02210145 52005 IEM_DS3505
ZBHH,2007-07-14 01:00,ZBHH 140100Z AUTO 23004KT 7SM 21/15 A2977 RMK T02100150 IEM_DS3505
ZBHH,2007-07-14 02:00,ZBHH 140200Z AUTO 22004KT 7SM 22/15 A2977 RMK T02200150 IEM_DS3505
ZBHH,2007-07-14 03:00,ZBHH 140300Z AUTO 25004KT 12SM 24/14 A2977 RMK SLP022 T02360143 57005 IEM_DS3505
ZBHH,2007-07-14 04:00,ZBHH 140400Z AUTO 19002KT 7SM 25/15 A2974 RMK T02500150 IEM_DS3505
ZBHH,2007-07-14 05:00,ZBHH 140500Z AUTO 00000KT 7SM 26/14 A2971 RMK T02600140 IEM_DS3505
ZBHH,2007-07-14 06:00,ZBHH 140600Z AUTO 22008KT 16SM 27/12 A2971 RMK SLP996 T02720121 57020 IEM_DS3505
ZBHH,2007-07-14 07:00,ZBHH 140700Z AUTO 22006KT 7SM 28/13 A2968 RMK T02800130 IEM_DS3505
ZBHH,2007-07-14 08:00,ZBHH 140800Z AUTO 15010KT 7SM 25/14 A2968 RMK T02500140 IEM_DS3505
ZBHH,2007-07-14 09:00,ZBHH 140900Z AUTO 09006KT 12SM 26/14 A2965 RMK SLP985 T02620140 57013 IEM_DS3505
ZBHH,2007-07-14 10:00,ZBHH 141000Z AUTO 20008KT 7SM 24/14 A2968 RMK T02400140 IEM_DS3505
ZBHH,2007-07-14 11:00,ZBHH 141100Z AUTO 23006KT 7SM 24/13 A2968 RMK T02400130 IEM_DS3505
ZBHH,2007-07-14 12:00,ZBHH 141200Z AUTO 25002KT 12SM 24/14 A2968 RMK SLP993 T02360138 52007 IEM_DS3505
ZBHH,2007-07-14 13:00,ZBHH 141300Z AUTO 27002KT 7SM 22/14 A2971 RMK T02200140 IEM_DS3505
ZBHH,2007-07-14 14:00,ZBHH 141400Z AUTO 36004KT 7SM 22/13 A2971 RMK T02200130 IEM_DS3505
ZBHH,2007-07-14 15:00,ZBHH 141500Z AUTO 32002KT 12SM 23/14 A2971 RMK SLP996 T02310136 52005 IEM_DS3505
ZBHH,2007-07-14 17:00,ZBHH 141700Z AUTO 00000KT 7SM 20/13 A2968 RMK T02000130 IEM_DS3505
ZBHH,2007-07-14 18:00,ZBHH 141800Z AUTO 07004KT 12SM 21/13 A2968 RMK SLP989 T02110128 57004 IEM_DS3505
ZBHH,2007-07-14 19:00,ZBHH 141900Z AUTO 10004KT 7SM 18/12 A2968 RMK T01800120 IEM_DS3505
ZBHH,2007-07-14 21:00,ZBHH 142100Z AUTO 08002KT 4SM 17/12 A2968 RMK T01700120 IEM_DS3505
ZBHH,2007-07-14 22:00,ZBHH 142200Z AUTO 04004KT 4SM 17/13 A2968 RMK T01700130 IEM_DS3505
ZBHH,2007-07-14 23:00,ZBHH 142300Z AUTO 08002KT 4SM 18/13 A2971 RMK T01800130 IEM_DS3505
ZBHH,2007-07-15 00:00,ZBHH 150000Z AUTO 34002KT 7SM 22/14 A2971 RMK SLP005 T02220136 52014 IEM_DS3505
ZBHH,2007-07-15 01:00,ZBHH 150100Z AUTO 16002KT 4SM 23/14 A2971 RMK T02300140 IEM_DS3505
ZBHH,2007-07-15 02:00,ZBHH 150200Z AUTO 21002KT 3SM 24/15 A2971 RMK T02400150 IEM_DS3505
ZBHH,2007-07-15 03:00,ZBHH 150300Z AUTO 18004KT 9SM 26/14 A2968 RMK SLP989 T02600141 57008 IEM_DS3505
ZBHH,2007-07-15 04:00,ZBHH 150400Z AUTO 20006KT 3SM 26/15 A2968 RMK T02600150 IEM_DS3505
ZBHH,2007-07-15 05:00,ZBHH 150500Z AUTO 21006KT 4SM 28/15 A2965 RMK T02800150 IEM_DS3505
ZBHH,2007-07-15 06:00,ZBHH 150600Z AUTO 18004KT 9SM 29/12 A2965 RMK SLP970 T02870122 57016 IEM_DS3505
ZBHH,2007-07-15 07:00,ZBHH 150700Z AUTO 24004KT 4SM 29/14 A2962 RMK T02900140 IEM_DS3505
ZBHH,2007-07-15 08:00,ZBHH 150800Z AUTO 21006KT 6SM 30/13 A2959 RMK T03000130 IEM_DS3505
ZBHH,2007-07-15 09:00,ZBHH 150900Z AUTO 18008KT 9SM 30/13 A2959 RMK SLP954 T03020131 57015 IEM_DS3505
ZBHH,2007-07-15 10:00,ZBHH 151000Z AUTO 36006KT 4SM 27/16 A2962 RMK T02700160 IEM_DS3505
ZBHH,2007-07-15 11:00,ZBHH 151100Z AUTO 01006KT 4SM 25/17 A2959 RMK T02500170 IEM_DS3505
ZBHH,2007-07-15 12:00,ZBHH 151200Z AUTO 34002KT 19SM 26/15 A2962 RMK 60000 SLP964 T02620150 52007 IEM_DS3505
ZBHH,2007-07-15 13:00,ZBHH 151300Z AUTO 04002KT 7SM 24/16 A2962 RMK T02400160 IEM_DS3505
ZBHH,2007-07-15 14:00,ZBHH 151400Z AUTO 02002KT 4SM 22/16 A2965 RMK T02200160 IEM_DS3505
ZBHH,2007-07-15 15:00,ZBHH 151500Z AUTO 07004KT 19SM 24/15 A2965 RMK SLP976 T02360149 52013 IEM_DS3505
ZBHH,2007-07-15 16:00,ZBHH 151600Z AUTO 05004KT 4SM 21/14 A2965 RMK T02100140 IEM_DS3505
ZBHH,2007-07-15 17:00,ZBHH 151700Z AUTO 07004KT 4SM 20/14 A2965 RMK T02000140 IEM_DS3505
ZBHH,2007-07-15 18:00,ZBHH 151800Z AUTO 09004KT 19SM 21/14 A2965 RMK SLP974 T02120141 57001 IEM_DS3505
ZBHH,2007-07-15 19:00,ZBHH 151900Z AUTO 10006KT 4SM 18/14 A2965 RMK T01800140 IEM_DS3505
ZBHH,2007-07-15 20:00,ZBHH 152000Z AUTO 00000KT 4SM 18/14 A2965 RMK T01800140 IEM_DS3505
ZBHH,2007-07-15 21:00,ZBHH 152100Z AUTO 05002KT 19SM 20/14 A2965 RMK 70000 SLP977 T01990140 52003 IEM_DS3505
ZBHH,2007-07-15 22:00,ZBHH 152200Z AUTO 08004KT 2 1/2SM 18/14 A2968 RMK T01800140 IEM_DS3505
ZBHH,2007-07-15 23:00,ZBHH 152300Z AUTO 10004KT 3SM 20/14 A2968 RMK T02000140 IEM_DS3505
ZBHH,2007-07-16 00:00,ZBHH 160000Z AUTO 11004KT 19SM 24/14 A2968 RMK 70000 SLP984 T02380139 52006 IEM_DS3505
ZBHH,2007-07-16 01:00,ZBHH 160100Z AUTO 13002KT 4SM 25/15 A2968 RMK T02500150 IEM_DS3505
ZBHH,2007-07-16 02:00,ZBHH 160200Z AUTO 13002KT 3SM 26/15 A2965 RMK T02600150 IEM_DS3505
ZBHH,2007-07-16 03:00,ZBHH 160300Z AUTO 18004KT 9SM 29/14 A2965 RMK SLP969 T02880142 57009 IEM_DS3505
ZBHH,2007-07-16 04:00,ZBHH 160400Z AUTO 20004KT 4SM 29/15 A2965 RMK T02900150 IEM_DS3505
ZBHH,2007-07-16 05:00,ZBHH 160500Z AUTO 22006KT 4SM 30/15 A2962 RMK T03000150 IEM_DS3505
ZBHH,2007-07-16 06:00,ZBHH 160600Z AUTO 22004KT 12SM 32/12 A2959 RMK SLP949 T03210124 57016 IEM_DS3505
ZBHH,2007-07-16 07:00,ZBHH 160700Z AUTO 23006KT 7SM 33/10 A2959 RMK T03300100 IEM_DS3505
ZBHH,2007-07-16 08:00,ZBHH 160800Z AUTO 22006KT 7SM 33/11 A2959 RMK T03300110 IEM_DS3505
ZBHH,2007-07-16 09:00,ZBHH 160900Z AUTO 25006KT 12SM 33/10 A2956 RMK SLP936 T03320105 57012 IEM_DS3505
ZBHH,2007-07-16 10:00,ZBHH 161000Z AUTO 23004KT 6SM 33/09 A2956 RMK T03300090 IEM_DS3505
ZBHH,2007-07-16 11:00,ZBHH 161100Z AUTO 24002KT 6SM 31/10 A2956 RMK T03100100 IEM_DS3505
ZBHH,2007-07-16 12:00,ZBHH 161200Z AUTO 20002KT 12SM 30/08 A2956 RMK SLP937 T03050077 52003 IEM_DS3505
ZBHH,2007-07-16 13:00,ZBHH 161300Z AUTO 00000KT 4SM 27/12 A2959 RMK T02700120 IEM_DS3505
ZBHH,2007-07-16 14:00,ZBHH 161400Z AUTO 07004KT 7SM 26/10 A2959 RMK T02600100 IEM_DS3505
ZBHH,2007-07-16 15:00,ZBHH 161500Z AUTO 09002KT 12SM 25/11 A2959 RMK SLP950 T02500108 52010 IEM_DS3505
ZBHH,2007-07-16 16:00,ZBHH 161600Z AUTO 03004KT 7SM 24/09 A2959 RMK T02400090 IEM_DS3505
ZBHH,2007-07-16 17:00,ZBHH 161700Z AUTO 05002KT 7SM 24/09 A2959 RMK T02400090 IEM_DS3505
ZBHH,2007-07-16 18:00,ZBHH 161800Z AUTO 09002KT 12SM 24/10 A2959 RMK SLP947 T02370100 52001 IEM_DS3505
ZBHH,2007-07-16 19:00,ZBHH 161900Z AUTO 09004KT 7SM 22/10 A2959 RMK T02200100 IEM_DS3505
ZBHH,2007-07-16 21:00,ZBHH 162100Z AUTO 07002KT 12SM 22/10 A2959 RMK SLP946 T02180097 57002 IEM_DS3505
ZBHH,2007-07-16 22:00,ZBHH 162200Z AUTO 09004KT 7SM 21/11 A2962 RMK T02100110 IEM_DS3505
ZBHH,2007-07-16 23:00,ZBHH 162300Z AUTO 11002KT 5SM 22/12 A2962 RMK T02200120 IEM_DS3505
ZBHH,2007-07-17 00:00,ZBHH 170000Z AUTO 03002KT 12SM 25/12 A2962 RMK SLP958 T02490118 52011 IEM_DS3505
ZBHH,2007-07-17 01:00,ZBHH 170100Z AUTO 16002KT 4SM 26/14 A2962 RMK T02600140 IEM_DS3505
ZBHH,2007-07-17 02:00,ZBHH 170200Z AUTO 23002KT 4SM 27/15 A2962 RMK T02700150 IEM_DS3505
ZBHH,2007-07-17 03:00,ZBHH 170300Z AUTO 20002KT 19SM 28/14 A2962 RMK SLP956 T02850136 57005 IEM_DS3505
ZBHH,2007-07-17 04:00,ZBHH 170400Z AUTO 23004KT 4SM 30/15 A2959 RMK T03000150 IEM_DS3505
ZBHH,2007-07-17 05:00,ZBHH 170500Z AUTO 21004KT 4SM 30/16 A2959 RMK T03000160 IEM_DS3505
ZBHH,2007-07-17 06:00,ZBHH 170600Z AUTO 20006KT 12SM 32/15 A2956 RMK SLP930 T03190154 57019 IEM_DS3505
ZBHH,2007-07-17 07:00,ZBHH 170700Z AUTO 21004KT 5SM 32/16 A2953 RMK T03200160 IEM_DS3505
ZBHH,2007-07-17 07:05,ZBHH 170705Z AUTO 21004KT 5SM 32/16 A2953 RMK T03200160 IEM_DS3505
ZBHH,2007-07-17 08:00,ZBHH 170800Z AUTO 20004KT 4SM 32/15 A2953 RMK T03200150 IEM_DS3505
ZBHH,2007-07-17 09:00,ZBHH 170900Z AUTO 22004KT 12SM 32/14 A2950 RMK SLP915 T03220139 57016 IEM_DS3505
ZBHH,2007-07-17 10:00,ZBHH 171000Z AUTO 28004KT 4SM 32/14 A2950 RMK T03200140 IEM_DS3505
ZBHH,2007-07-17 11:00,ZBHH 171100Z AUTO 35012G21KT 7SM 30/15 A2950 RMK T03000150 IEM_DS3505
ZBHH,2007-07-17 12:00,ZBHH 171200Z AUTO 32006KT 12SM 27/14 A2953 RMK SLP930 T02730143 52010 IEM_DS3505
ZBHH,2007-07-17 13:00,ZBHH 171300Z AUTO 34014G23KT 7SM 24/15 A2962 RMK T02400150 IEM_DS3505
ZBHH,2007-07-17 14:00,ZBHH 171400Z AUTO 05008KT 7SM 22/16 A2965 RMK T02200160 IEM_DS3505
ZBHH,2007-07-17 15:00,ZBHH 171500Z AUTO 09004KT 12SM 21/18 A2965 RMK SLP967 T02140178 52029 IEM_DS3505
ZBHH,2007-07-17 16:00,ZBHH 171600Z AUTO 10012KT 7SM 19/16 A2962 RMK T01900160 IEM_DS3505
ZBHH,2007-07-17 18:00,ZBHH 171800Z AUTO 09002KT 12SM 20/15 RMK 60004 SLP957 T02050153 57005 IEM_DS3505
ZBHH,2007-07-17 21:00,ZBHH 172100Z AUTO 11002KT 19SM 21/16 A2965 RMK 70006 SLP962 T02100155 52006 IEM_DS3505
ZBHH,2007-07-17 22:00,ZBHH 172200Z AUTO 07006KT 7SM 20/15 A2965 RMK T02000150 IEM_DS3505
ZBHH,2007-07-17 23:00,ZBHH 172300Z AUTO 08002KT 7SM 20/16 A2965 RMK T02000160 IEM_DS3505
ZBHH,2007-07-18 00:00,ZBHH 180000Z AUTO 07002KT 19SM 21/15 A2968 RMK 70006 SLP986 T02140153 52013 IEM_DS3505
ZBHH,2007-07-18 01:00,ZBHH 180100Z AUTO 06002KT 7SM 22/15 A2968 RMK T02200150 IEM_DS3505
ZBHH,2007-07-18 02:00,ZBHH 180200Z AUTO 05002KT 7SM 24/14 A2968 RMK T02400140 IEM_DS3505
ZBHH,2007-07-18 03:00,ZBHH 180300Z AUTO 04004KT 19SM 25/14 A2968 RMK SLP989 T02500142 57001 IEM_DS3505
ZBHH,2007-07-18 05:00,ZBHH 180500Z AUTO 05012KT 7SM 23/12 A2971 RMK T02300120 IEM_DS3505
ZBHH,2007-07-18 06:00,ZBHH 180600Z AUTO 09006KT 19SM 24/12 A2971 RMK SLP005 T02420119 52011 IEM_DS3505
ZBHH,2007-07-18 07:00,ZBHH 180700Z AUTO 08008KT 7SM 26/12 A2971 RMK T02600120 IEM_DS3505
ZBHH,2007-07-18 08:00,ZBHH 180800Z AUTO 04010KT 7SM 26/11 A2968 RMK T02600110 IEM_DS3505
ZBHH,2007-07-18 09:00,ZBHH 180900Z AUTO 02004KT 19SM 26/08 A2971 RMK SLP997 T02620082 57003 IEM_DS3505
ZBHH,2007-07-18 10:00,ZBHH 181000Z AUTO 06008KT 7SM 26/08 A2971 RMK T02600080 IEM_DS3505
ZBHH,2007-07-18 11:00,ZBHH 181100Z AUTO 05012KT 7SM 25/08 A2971 RMK T02500080 IEM_DS3505
ZBHH,2007-07-18 12:00,ZBHH 181200Z AUTO 07006KT 19SM 25/08 A2971 RMK SLP008 T02510082 52009 IEM_DS3505
ZBHH,2007-07-18 13:00,ZBHH 181300Z AUTO 05006KT 7SM 24/08 A2974 RMK T02400080 IEM_DS3505
ZBHH,2007-07-18 14:00,ZBHH 181400Z AUTO 02004KT 7SM 23/09 A2977 RMK T02300090 IEM_DS3505
ZBHH,2007-07-18 15:00,ZBHH 181500Z AUTO 07004KT 19SM 23/06 A2980 RMK SLP030 T02300063 52022 IEM_DS3505
ZBHH,2007-07-18 16:00,ZBHH 181600Z AUTO 03006KT 6SM 20/07 A2980 RMK T02000070 IEM_DS3505
ZBHH,2007-07-18 17:00,ZBHH 181700Z AUTO 02006KT 6SM 19/04 A2980 RMK T01900040 IEM_DS3505
ZBHH,2007-07-18 18:00,ZBHH 181800Z AUTO 29002KT 19SM 17/03 A2983 RMK SLP052 T01680031 52007 IEM_DS3505
ZBHH,2007-07-18 19:00,ZBHH 181900Z AUTO 12002KT 6SM 15/05 A2983 RMK T01500050 IEM_DS3505
ZBHH,2007-07-18 20:00,ZBHH 182000Z AUTO 04004KT 6SM 15/04 A2983 RMK T01500040 IEM_DS3505
ZBHH,2007-07-18 21:00,ZBHH 182100Z AUTO 09004KT 19SM 17/04 A2985 RMK SLP057 T01670037 52008 IEM_DS3505
ZBHH,2007-07-18 22:00,ZBHH 182200Z AUTO 6SM 15/04 A2985 RMK T01500040 IEM_DS3505
ZBHH,2007-07-18 23:00,ZBHH 182300Z AUTO 10004KT 6SM 17/05 A2985 RMK T01700050 IEM_DS3505
ZBHH,2007-07-19 00:00,ZBHH 190000Z AUTO 16002KT 19SM 22/04 A2988 RMK SLP059 T02250036 52010 IEM_DS3505
ZBHH,2007-07-19 01:00,ZBHH 190100Z AUTO 34008KT 6SM 24/02 A2988 RMK T02400020 IEM_DS3505
ZBHH,2007-07-19 02:00,ZBHH 190200Z AUTO 30012KT 6SM 26/02 A2985 RMK T02600020 IEM_DS3505
ZBHH,2007-07-19 03:00,ZBHH 190300Z AUTO 36004KT 19SM 28/02 A2985 RMK SLP042 T02790022 57009 IEM_DS3505
ZBHH,2007-07-19 04:00,ZBHH 190400Z AUTO 36010KT 6SM 29/01 A2983 RMK T02900010 IEM_DS3505
ZBHH,2007-07-19 05:00,ZBHH 190500Z AUTO 34014KT 6SM 30/00 A2983 RMK T03000000 IEM_DS3505
ZBHH,2007-07-19 06:00,ZBHH 190600Z AUTO 29008G17KT 19SM 31/M01 A2980 RMK SLP032 T03081008 57015 IEM_DS3505
ZBHH,2007-07-19 07:00,ZBHH 190700Z AUTO 33008KT 6SM 31/00 A2980 RMK T03100000 IEM_DS3505
ZBHH,2007-07-19 08:00,ZBHH 190800Z AUTO 28004KT 7SM 31/05 A2980 RMK T03100050 IEM_DS3505
ZBHH,2007-07-19 09:00,ZBHH 190900Z AUTO 25008KT 19SM 29/07 A2977 RMK SLP026 T02930073 57008 IEM_DS3505
ZBHH,2007-07-19 10:00,ZBHH 191000Z AUTO 22010KT 6SM 28/08 A2977 RMK T02800080 IEM_DS3505
ZBHH,2007-07-19 11:00,ZBHH 191100Z AUTO 23008KT 6SM 27/09 A2977 RMK T02700090 IEM_DS3505
ZBHH,2007-07-19 12:00,ZBHH 191200Z AUTO 22004KT 19SM 26/09 A2980 RMK SLP029 T02630092 52008 IEM_DS3505
ZBHH,2007-07-19 13:00,ZBHH 191300Z AUTO 27002KT 6SM 24/10 A2983 RMK T02400100 IEM_DS3505
ZBHH,2007-07-19 14:00,ZBHH 191400Z AUTO 05004KT 6SM 22/04 A2983 RMK T02200040 IEM_DS3505
ZBHH,2007-07-19 15:00,ZBHH 191500Z AUTO 09002KT 19SM 22/04 A2985 RMK SLP040 T02240035 52012 IEM_DS3505
ZBHH,2007-07-19 16:00,ZBHH 191600Z AUTO 08004KT 6SM 20/02 A2983 RMK T02000020 IEM_DS3505
ZBHH,2007-07-19 17:00,ZBHH 191700Z AUTO 09006KT 6SM 19/03 A2983 RMK T01900030 IEM_DS3505
ZBHH,2007-07-19 18:00,ZBHH 191800Z AUTO 07002KT 19SM 19/02 A2983 RMK SLP039 T01890019 57002 IEM_DS3505
ZBHH,2007-07-19 20:00,ZBHH 192000Z AUTO 03004KT 6SM 17/02 A2983 RMK T01700020 IEM_DS3505
ZBHH,2007-07-19 21:00,ZBHH 192100Z AUTO 09004KT 19SM 16/03 A2983 RMK SLP045 T01650032 57002 IEM_DS3505
ZBHH,2007-07-19 22:00,ZBHH 192200Z AUTO 08002KT 6SM 16/03 A2983 RMK T01600030 IEM_DS3505
ZBHH,2007-07-19 23:00,ZBHH 192300Z AUTO 11002KT 6SM 17/04 A2983 RMK T01700040 IEM_DS3505
ZBHH,2007-07-20 00:00,ZBHH 200000Z AUTO 09002KT 19SM 22/03 A2983 RMK SLP043 T02220033 52003 IEM_DS3505
ZBHH,2007-07-20 01:00,ZBHH 200100Z AUTO 22004KT 6SM 23/06 A2983 RMK T02300060 IEM_DS3505
ZBHH,2007-07-20 02:00,ZBHH 200200Z AUTO 00000KT 7SM 25/06 A2983 RMK T02500060 IEM_DS3505
ZBHH,2007-07-20 03:00,ZBHH 200300Z AUTO 18006KT 19SM 26/06 A2983 RMK SLP035 T02580059 57007 IEM_DS3505
ZBHH,2007-07-20 04:00,ZBHH 200400Z AUTO 22006KT 7SM 26/08 A2980 RMK T02600080 IEM_DS3505
ZBHH,2007-07-20 05:00,ZBHH 200500Z AUTO 22006KT 7SM 28/08 A2977 RMK T02800080 IEM_DS3505
ZBHH,2007-07-20 06:00,ZBHH 200600Z AUTO 20008KT 19SM 29/04 A2977 RMK SLP017 T02870042 57017 IEM_DS3505
ZBHH,2007-07-20 07:00,ZBHH 200700Z AUTO 26008KT 7SM 30/06 A2974 RMK T03000060 IEM_DS3505
ZBHH,2007-07-20 08:00,ZBHH 200800Z AUTO 24006KT 7SM 30/05 A2971 RMK T03000050 IEM_DS3505
ZBHH,2007-07-20 09:00,ZBHH 200900Z AUTO 20006KT 19SM 30/02 A2971 RMK SLP999 T03050019 57017 IEM_DS3505
ZBHH,2007-07-20 10:00,ZBHH 201000Z AUTO 23006KT 7SM 30/04 A2971 RMK T03000040 IEM_DS3505
ZBHH,2007-07-20 11:00,ZBHH 201100Z AUTO 25006KT 7SM 29/04 A2971 RMK T02900040 IEM_DS3505
ZBHH,2007-07-20 12:00,ZBHH 201200Z AUTO 22004KT 19SM 28/08 A2971 RMK SLP996 T02800083 52003 IEM_DS3505
ZBHH,2007-07-20 13:00,ZBHH 201300Z AUTO 20002KT 7SM 24/10 A2974 RMK T02400100 IEM_DS3505
ZBHH,2007-07-20 14:00,ZBHH 201400Z AUTO 06002KT 7SM 24/06 A2974 RMK T02400060 IEM_DS3505
ZBHH,2007-07-20 15:00,ZBHH 201500Z AUTO 25002KT 19SM 24/08 A2974 RMK SLP008 T02450085 52011 IEM_DS3505
ZBHH,2007-07-20 16:00,ZBHH 201600Z AUTO 02002KT 6SM 21/11 A2977 RMK T02100110 IEM_DS3505
ZBHH,2007-07-20 17:00,ZBHH 201700Z AUTO 10004KT 6SM 19/10 A2977 RMK T01900100 IEM_DS3505
ZBHH,2007-07-20 18:00,ZBHH 201800Z AUTO 16002KT 19SM 21/10 A2977 RMK SLP011 T02130102 52002 IEM_DS3505
ZBHH,2007-07-20 20:00,ZBHH 202000Z AUTO 00000KT 6SM 18/10 A2977 RMK T01800100 IEM_DS3505
ZBHH,2007-07-20 21:00,ZBHH 202100Z AUTO 02002KT 19SM 18/11 A2977 RMK SLP023 T01810112 52008 IEM_DS3505
ZBHH,2007-07-20 22:00,ZBHH 202200Z AUTO 00000KT 7SM 16/10 A2980 RMK T01600100 IEM_DS3505
ZBHH,2007-07-20 23:00,ZBHH 202300Z AUTO 10002KT 7SM 19/11 A2980 RMK T01900110 IEM_DS3505
ZBHH,2007-07-21 00:00,ZBHH 210000Z AUTO 09004KT 19SM 21/12 A2983 RMK SLP034 T02120118 52011 IEM_DS3505
ZBHH,2007-07-21 01:00,ZBHH 210100Z AUTO 15002KT 7SM 22/13 A2983 RMK T02200130 IEM_DS3505
ZBHH,2007-07-21 02:00,ZBHH 210200Z AUTO 20002KT 7SM 23/12 A2983 RMK T02300120 IEM_DS3505
ZBHH,2007-07-21 03:00,ZBHH 210300Z AUTO 11002KT 12SM 25/10 A2980 RMK SLP032 T02480103 57002 IEM_DS3505
ZBHH,2007-07-21 04:00,ZBHH 210400Z AUTO 20004KT 7SM 25/11 A2980 RMK T02500110 IEM_DS3505
ZBHH,2007-07-21 05:00,ZBHH 210500Z AUTO 20002KT 7SM 29/10 A2977 RMK T02900100 IEM_DS3505
ZBHH,2007-07-21 06:00,ZBHH 210600Z AUTO 16004KT 16SM 31/07 A2974 RMK SLP001 T03080066 57022 IEM_DS3505
ZBHH,2007-07-21 07:00,ZBHH 210700Z AUTO 15004KT 7SM 31/08 A2974 RMK T03100080 IEM_DS3505
ZBHH,2007-07-21 08:00,ZBHH 210800Z AUTO 12017KT 7SM 29/06 A2977 RMK T02900060 IEM_DS3505
ZBHH,2007-07-21 09:00,ZBHH 210900Z AUTO 07006KT 16SM 28/06 A2980 RMK SLP028 T02750063 52012 IEM_DS3505
ZBHH,2007-07-21 10:00,ZBHH 211000Z AUTO 28006KT 7SM 27/08 A2980 RMK T02700080 IEM_DS3505
ZBHH,2007-07-21 11:00,ZBHH 211100Z AUTO 29006KT 7SM 25/09 A2980 RMK T02500090 IEM_DS3505
ZBHH,2007-07-21 12:00,ZBHH 211200Z AUTO 27004KT 16SM 24/11 A2983 RMK SLP042 T02410108 52012 IEM_DS3505
ZBHH,2007-07-21 13:00,ZBHH 211300Z AUTO 16004KT 7SM 23/11 A2983 RMK T02300110 IEM_DS3505
ZBHH,2007-07-21 14:00,ZBHH 211400Z AUTO 19002KT 7SM 23/10 A2983 RMK T02300100 IEM_DS3505
ZBHH,2007-07-21 15:00,ZBHH 211500Z AUTO 32004KT 12SM 23/10 A2983 RMK SLP037 T02310102 54000 IEM_DS3505
ZBHH,2007-07-21 16:00,ZBHH 211600Z AUTO 06002KT 7SM 21/10 A2980 RMK T02100100 IEM_DS3505
ZBHH,2007-07-21 18:00,ZBHH 211800Z AUTO 07002KT 12SM 22/10 A2980 RMK SLP021 T02170102 57006 IEM_DS3505
ZBHH,2007-07-21 19:00,ZBHH 211900Z AUTO 7SM 21/10 A2980 RMK T02100100 IEM_DS3505
ZBHH,2007-07-21 21:00,ZBHH 212100Z AUTO 20006KT 12SM 21/11 A2983 RMK SLP036 T02140106 52007 IEM_DS3505
ZBHH,2007-07-21 22:00,ZBHH 212200Z AUTO 24008KT 7SM 19/13 A2983 RMK T01900130 IEM_DS3505
ZBHH,2007-07-21 23:00,ZBHH 212300Z AUTO 24008KT 7SM 18/14 A2985 RMK T01800140 IEM_DS3505
ZBHH,2007-07-22 00:00,ZBHH 220000Z AUTO 09004KT 9SM 19/14 A2985 RMK 60000 70001 SLP060 T01900141 52011 IEM_DS3505
ZBHH,2007-07-22 01:00,ZBHH 220100Z AUTO 12004KT 5SM 17/15 A2985 RMK T01700150 IEM_DS3505
ZBHH,2007-07-22 02:00,ZBHH 220200Z AUTO 15002KT 5SM 17/15 A2988 RMK T01700150 IEM_DS3505
ZBHH,2007-07-22 03:00,ZBHH 220300Z AUTO 09004KT 9SM 18/14 A2988 RMK SLP072 T01830144 52007 IEM_DS3505
ZBHH,2007-07-22 04:00,ZBHH 220400Z AUTO 10006KT 5SM 18/15 A2985 RMK T01800150 IEM_DS3505
ZBHH,2007-07-22 05:00,ZBHH 220500Z AUTO 07004KT 7SM 19/15 A2983 RMK T01900150 IEM_DS3505
ZBHH,2007-07-22 06:00,ZBHH 220600Z AUTO 02004KT 19SM 20/15 A2983 RMK 60004 SLP052 T02040147 57016 IEM_DS3505
ZBHH,2007-07-22 07:00,ZBHH 220700Z AUTO 04002KT 7SM 23/14 A2980 RMK T02300140 IEM_DS3505
ZBHH,2007-07-22 08:00,ZBHH 220800Z AUTO 7SM 23/14 A2983 RMK T02300140 IEM_DS3505
ZBHH,2007-07-22 09:00,ZBHH 220900Z AUTO 14004KT 12SM 21/13 A2980 RMK SLP041 T02090131 57010 IEM_DS3505
ZBHH,2007-07-22 10:00,ZBHH 221000Z AUTO 25002KT 7SM 20/13 A2983 RMK T02000130 IEM_DS3505
ZBHH,2007-07-22 11:00,ZBHH 221100Z AUTO 31004KT 7SM 19/14 A2983 RMK T01900140 IEM_DS3505
ZBHH,2007-07-22 12:00,ZBHH 221200Z AUTO 32004KT 19SM 19/14 A2983 RMK 60000 SLP065 T01910137 52014 IEM_DS3505
ZBHH,2007-07-22 13:00,ZBHH 221300Z AUTO 02002KT 7SM 19/14 A2985 RMK T01900140 IEM_DS3505
ZBHH,2007-07-22 14:00,ZBHH 221400Z AUTO 03004KT 7SM 19/14 A2985 RMK T01900140 IEM_DS3505
ZBHH,2007-07-22 15:00,ZBHH 221500Z AUTO 07002KT 12SM 20/13 A2985 RMK SLP072 T01980133 52006 IEM_DS3505
ZBHH,2007-07-22 16:00,ZBHH 221600Z AUTO 36002KT 7SM 19/14 A2985 RMK T01900140 IEM_DS3505
ZBHH,2007-07-22 17:00,ZBHH 221700Z AUTO 08002KT 7SM 19/14 A2985 RMK T01900140 IEM_DS3505
ZBHH,2007-07-22 18:00,ZBHH 221800Z AUTO 09002KT 12SM 20/14 A2985 RMK 60000 SLP069 T01950139 52001 IEM_DS3505
ZBHH,2007-07-22 19:00,ZBHH 221900Z AUTO 12004KT 2 1/2SM 19/14 A2985 RMK T01900140 IEM_DS3505
ZBHH,2007-07-22 20:00,ZBHH 222000Z AUTO 12004KT 2 1/2SM 18/14 A2988 RMK T01800140 IEM_DS3505
ZBHH,2007-07-22 21:00,ZBHH 222100Z AUTO 22004KT 6SM 18/15 A2988 RMK 70016 SLP081 T01750150 52008 IEM_DS3505
ZBHH,2007-07-22 22:00,ZBHH 222200Z AUTO 27002KT 2SM 16/15 A2988 RMK T01600150 IEM_DS3505
ZBHH,2007-07-22 23:00,ZBHH 222300Z AUTO 04002KT 2SM 16/15 A2991 RMK T01600150 IEM_DS3505
ZBHH,2007-07-23 00:00,ZBHH 230000Z AUTO 04004KT 6SM 18/15 A2991 RMK 60031 70034 SLP092 T01760151 52006 IEM_DS3505
ZBHH,2007-07-23 01:00,ZBHH 230100Z AUTO 06002KT 3SM 18/15 A2991 RMK T01800150 IEM_DS3505
ZBHH,2007-07-23 02:00,ZBHH 230200Z AUTO 08004KT 2 1/2SM 20/16 A2991 RMK T02000160 IEM_DS3505
ZBHH,2007-07-23 03:00,ZBHH 230300Z AUTO 16004KT 6SM 22/15 A2991 RMK SLP084 T02170146 52002 IEM_DS3505
ZBHH,2007-07-23 04:00,ZBHH 230400Z AUTO 18008KT 7SM 22/15 A2991 RMK T02200150 IEM_DS3505
ZBHH,2007-07-23 05:00,ZBHH 230500Z AUTO 16006KT 7SM 22/14 A2988 RMK T02200140 IEM_DS3505
ZBHH,2007-07-23 06:00,ZBHH 230600Z AUTO 11006KT 12SM 25/13 A2988 RMK SLP065 T02470133 57012 IEM_DS3505
ZBHH,2007-07-23 07:00,ZBHH 230700Z AUTO 19008KT 7SM 24/14 A2985 RMK T02400140 IEM_DS3505
ZBHH,2007-07-23 08:00,ZBHH 230800Z AUTO 08006KT 7SM 23/14 A2985 RMK T02300140 IEM_DS3505
ZBHH,2007-07-23 09:00,ZBHH 230900Z AUTO 20010KT 12SM 23/14 A2988 RMK SLP072 T02280141 57001 IEM_DS3505
ZBHH,2007-07-23 10:00,ZBHH 231000Z AUTO 16006KT 4SM 22/14 A2988 RMK T02200140 IEM_DS3505
ZBHH,2007-07-23 11:00,ZBHH 231100Z AUTO 01004KT 3SM 20/15 A2988 RMK T02000150 IEM_DS3505
ZBHH,2007-07-23 12:00,ZBHH 231200Z AUTO 04004KT 12SM 21/14 A2988 RMK SLP080 T02130145 52005 IEM_DS3505
ZBHH,2007-07-23 13:00,ZBHH 231300Z AUTO 10004KT 2 1/2SM 21/15 A2991 RMK T02100150 IEM_DS3505
ZBHH,2007-07-23 14:00,ZBHH 231400Z AUTO 02002KT 2SM 20/16 A2991 RMK T02000160 IEM_DS3505
ZBHH,2007-07-23 15:00,ZBHH 231500Z AUTO 09004KT 12SM 21/14 A2991 RMK SLP081 T02120141 52008 IEM_DS3505
ZBHH,2007-07-23 16:00,ZBHH 231600Z AUTO 10002KT 2 1/2SM 20/15 A2991 RMK T02000150 IEM_DS3505
ZBHH,2007-07-23 18:00,ZBHH 231800Z AUTO 09004KT 12SM 20/14 RMK SLP066 T02040138 57009 IEM_DS3505
ZBHH,2007-07-23 19:00,ZBHH 231900Z AUTO 10006KT 2 1/2SM 19/14 A2988 RMK T01900140 IEM_DS3505
ZBHH,2007-07-23 21:00,ZBHH 232100Z AUTO 09004KT 12SM 20/14 A2988 RMK 70019 SLP073 T02000135 52002 IEM_DS3505
ZBHH,2007-07-23 22:00,ZBHH 232200Z AUTO 12004KT 2SM 19/14 A2991 RMK T01900140 IEM_DS3505
ZBHH,2007-07-23 23:00,ZBHH 232300Z AUTO 14004KT 1 1/2SM 18/14 A2991 RMK T01800140 IEM_DS3505
ZBHH,2007-07-24 00:00,ZBHH 240000Z AUTO 22002KT 12SM 18/15 A2994 RMK 60000 70001 SLP098 T01780149 52015 IEM_DS3505
ZBHH,2007-07-24 01:00,ZBHH 240100Z AUTO 03002KT 2SM 19/15 A2994 RMK T01900150 IEM_DS3505
ZBHH,2007-07-24 02:00,ZBHH 240200Z AUTO 05004KT 2SM 19/15 A2991 RMK T01900150 IEM_DS3505
ZBHH,2007-07-24 03:00,ZBHH 240300Z AUTO 04004KT 12SM 21/14 A2991 RMK SLP087 T02090145 57004 IEM_DS3505
ZBHH,2007-07-24 04:00,ZBHH 240400Z AUTO 3SM 22/14 A2991 RMK T02200140 IEM_DS3505
ZBHH,2007-07-24 05:00,ZBHH 240500Z AUTO 22002KT 3SM 23/14 A2991 RMK T02300140 IEM_DS3505
ZBHH,2007-07-24 06:00,ZBHH 240600Z AUTO 16004KT 12SM 24/13 A2988 RMK 60001 SLP065 T02430129 57015 IEM_DS3505
ZBHH,2007-07-24 07:00,ZBHH 240700Z AUTO 09004KT 4SM 25/13 A2985 RMK T02500130 IEM_DS3505
ZBHH,2007-07-24 08:00,ZBHH 240800Z AUTO 07008KT 4SM 25/14 A2985 RMK T02500140 IEM_DS3505
ZBHH,2007-07-24 09:00,ZBHH 240900Z AUTO 09002KT 9SM 20/14 A2988 RMK SLP080 T01950145 52004 IEM_DS3505
ZBHH,2007-07-24 10:00,ZBHH 241000Z AUTO 32004KT 4SM 18/15 A2988 RMK T01800150 IEM_DS3505
ZBHH,2007-07-24 11:00,ZBHH 241100Z AUTO 10002KT 3SM 20/15 A2988 RMK T02000150 IEM_DS3505
ZBHH,2007-07-24 12:00,ZBHH 241200Z AUTO 09004KT 7SM 20/15 A2991 RMK 60001 SLP092 T01980146 52007 IEM_DS3505
ZBHH,2007-07-24 13:00,ZBHH 241300Z AUTO 07004KT 2 1/2SM 19/15 A2991 RMK T01900150 IEM_DS3505
ZBHH,2007-07-24 14:00,ZBHH 241400Z AUTO 10006KT 3SM 18/14 A2994 RMK T01800140 IEM_DS3505
ZBHH,2007-07-24 15:00,ZBHH 241500Z AUTO 07004KT 9SM 19/14 A2994 RMK SLP092 T01880139 52004 IEM_DS3505
ZBHH,2007-07-24 16:00,ZBHH 241600Z AUTO 07004KT 2 1/2SM 17/14 A2994 RMK T01700140 IEM_DS3505
ZBHH,2007-07-24 18:00,ZBHH 241800Z AUTO 27002KT 9SM 17/14 RMK SLP088 T01690136 57001 IEM_DS3505
ZBHH,2007-07-24 19:00,ZBHH 241900Z AUTO 07004KT 2 1/2SM 16/13 A2991 RMK T01600130 IEM_DS3505
ZBHH,2007-07-24 21:00,ZBHH 242100Z AUTO 09002KT 9SM 16/12 A2991 RMK 70003 SLP097 T01570125 57003 IEM_DS3505
ZBHH,2007-07-24 22:00,ZBHH 242200Z AUTO 07004KT 2 1/2SM 15/12 A2991 RMK T01500120 IEM_DS3505
ZBHH,2007-07-24 23:00,ZBHH 242300Z AUTO 09004KT 3SM 17/12 A2994 RMK T01700120 IEM_DS3505
ZBHH,2007-07-25 00:00,ZBHH 250000Z AUTO 14002KT 9SM 21/13 A2994 RMK 70002 SLP096 T02080128 52009 IEM_DS3505
ZBHH,2007-07-25 01:00,ZBHH 250100Z AUTO 08002KT 4SM 22/13 A2994 RMK T02200130 IEM_DS3505
ZBHH,2007-07-25 02:00,ZBHH 250200Z AUTO 6SM 25/12 A2991 RMK T02500120 IEM_DS3505
ZBHH,2007-07-25 03:00,ZBHH 250300Z AUTO 04004KT 12SM 26/08 A2991 RMK SLP079 T02600080 57007 IEM_DS3505
ZBHH,2007-07-25 04:00,ZBHH 250400Z AUTO 23002KT 7SM 26/11 A2991 RMK T02600110 IEM_DS3505
ZBHH,2007-07-25 05:00,ZBHH 250500Z AUTO 23002KT 7SM 27/11 A2988 RMK T02700110 IEM_DS3505
ZBHH,2007-07-25 06:00,ZBHH 250600Z AUTO 16008KT 12SM 28/08 A2988 RMK SLP064 T02820085 57013 IEM_DS3505
ZBHH,2007-07-25 07:00,ZBHH 250700Z AUTO 24004KT 7SM 28/07 A2988 RMK T02800070 IEM_DS3505
ZBHH,2007-07-25 08:00,ZBHH 250800Z AUTO 27002KT 7SM 28/08 A2985 RMK T02800080 IEM_DS3505
ZBHH,2007-07-25 09:00,ZBHH 250900Z AUTO 16004KT 12SM 29/09 A2985 RMK SLP053 T02900087 57011 IEM_DS3505
ZBHH,2007-07-25 10:00,ZBHH 251000Z AUTO 33004KT 7SM 28/09 A2985 RMK T02800090 IEM_DS3505
ZBHH,2007-07-25 11:00,ZBHH 251100Z AUTO 32002KT 7SM 27/09 A2983 RMK T02700090 IEM_DS3505
ZBHH,2007-07-25 12:00,ZBHH 251200Z AUTO 32002KT 12SM 26/09 A2985 RMK SLP049 T02600094 52001 IEM_DS3505
ZBHH,2007-07-25 13:00,ZBHH 251300Z AUTO 02002KT 5SM 23/14 A2985 RMK T02300140 IEM_DS3505
ZBHH,2007-07-25 14:00,ZBHH 251400Z AUTO 08002KT 5SM 23/11 A2985 RMK T02300110 IEM_DS3505
ZBHH,2007-07-25 15:00,ZBHH 251500Z AUTO 04004KT 12SM 22/11 A2988 RMK SLP055 T02230108 52008 IEM_DS3505
ZBHH,2007-07-25 16:00,ZBHH 251600Z AUTO 09004KT 5SM 20/13 A2988 RMK T02000130 IEM_DS3505
ZBHH,2007-07-25 17:00,ZBHH 251700Z AUTO 10002KT 7SM 18/12 A2985 RMK T01800120 IEM_DS3505
ZBHH,2007-07-25 18:00,ZBHH 251800Z AUTO 07002KT 19SM 20/13 A2985 RMK SLP053 T01970129 57003 IEM_DS3505
ZBHH,2007-07-25 19:00,ZBHH 251900Z AUTO 15002KT 7SM 16/12 A2985 RMK T01600120 IEM_DS3505
ZBHH,2007-07-25 20:00,ZBHH 252000Z AUTO 09002KT 7SM 16/11 A2988 RMK T01600110 IEM_DS3505
ZBHH,2007-07-25 21:00,ZBHH 252100Z AUTO 09002KT 19SM 18/11 A2985 RMK SLP057 T01800111 52002 IEM_DS3505
ZBHH,2007-07-25 22:00,ZBHH 252200Z AUTO 08004KT 6SM 16/11 A2988 RMK T01600110 IEM_DS3505
ZBHH,2007-07-25 23:00,ZBHH 252300Z AUTO 06002KT 4SM 17/13 A2988 RMK T01700130 IEM_DS3505
ZBHH,2007-07-26 00:00,ZBHH 260000Z AUTO 04002KT 19SM 20/15 A2991 RMK SLP072 T02010147 52012 IEM_DS3505
ZBHH,2007-07-26 01:00,ZBHH 260100Z AUTO 01002KT 7SM 21/13 A2988 RMK T02100130 IEM_DS3505
ZBHH,2007-07-26 02:00,ZBHH 260200Z AUTO 22002KT 7SM 24/13 A2988 RMK T02400130 IEM_DS3505
ZBHH,2007-07-26 03:00,ZBHH 260300Z AUTO 27004KT 19SM 27/09 A2988 RMK SLP054 T02740093 57010 IEM_DS3505
ZBHH,2007-07-26 04:00,ZBHH 260400Z AUTO 24006KT 7SM 28/11 A2985 RMK T02800110 IEM_DS3505
ZBHH,2007-07-26 05:00,ZBHH 260500Z AUTO 22006KT 7SM 28/12 A2983 RMK T02800120 IEM_DS3505
ZBHH,2007-07-26 06:00,ZBHH 260600Z AUTO 25006KT 19SM 30/11 A2983 RMK SLP035 T02990114 57017 IEM_DS3505
ZBHH,2007-07-26 07:00,ZBHH 260700Z AUTO 24006KT 7SM 30/12 A2980 RMK T03000120 IEM_DS3505
ZBHH,2007-07-26 08:00,ZBHH 260800Z AUTO 23004KT 7SM 30/12 A2977 RMK T03000120 IEM_DS3505
ZBHH,2007-07-26 09:00,ZBHH 260900Z AUTO 25006KT 19SM 30/11 A2977 RMK SLP020 T02980109 57016 IEM_DS3505
ZBHH,2007-07-26 10:00,ZBHH 261000Z AUTO 22004KT 6SM 30/11 A2977 RMK T03000110 IEM_DS3505
ZBHH,2007-07-26 11:00,ZBHH 261100Z AUTO 25006KT 6SM 28/12 A2977 RMK T02800120 IEM_DS3505
ZBHH,2007-07-26 12:00,ZBHH 261200Z AUTO 25002KT 19SM 27/11 A2980 RMK SLP030 T02690114 52007 IEM_DS3505
ZBHH,2007-07-26 13:00,ZBHH 261300Z AUTO 11002KT 6SM 23/16 A2983 RMK T02300160 IEM_DS3505
ZBHH,2007-07-26 14:00,ZBHH 261400Z AUTO 19002KT 6SM 22/16 A2983 RMK T02200160 IEM_DS3505
ZBHH,2007-07-26 15:00,ZBHH 261500Z AUTO 20006KT 19SM 22/15 A2985 RMK SLP043 T02230154 52017 IEM_DS3505
ZBHH,2007-07-26 16:00,ZBHH 261600Z AUTO 12004KT 6SM 20/15 A2985 RMK T02000150 IEM_DS3505
ZBHH,2007-07-26 17:00,ZBHH 261700Z AUTO 10004KT 4SM 19/15 A2985 RMK T01900150 IEM_DS3505
ZBHH,2007-07-26 18:00,ZBHH 261800Z AUTO 07002KT 19SM 20/15 A2985 RMK SLP046 T02040147 52003 IEM_DS3505
ZBHH,2007-07-26 19:00,ZBHH 261900Z AUTO 03002KT 4SM 19/14 A2985 RMK T01900140 IEM_DS3505
ZBHH,2007-07-26 20:00,ZBHH 262000Z AUTO 03004KT 4SM 19/14 A2985 RMK T01900140 IEM_DS3505
ZBHH,2007-07-26 21:00,ZBHH 262100Z AUTO 09002KT 12SM 20/14 A2985 RMK SLP049 T02040141 52003 IEM_DS3505
ZBHH,2007-07-26 22:00,ZBHH 262200Z AUTO 10002KT 2 1/2SM 18/14 A2985 RMK T01800140 IEM_DS3505
ZBHH,2007-07-26 23:00,ZBHH 262300Z AUTO 11002KT 2 1/2SM 20/15 A2985 RMK T02000150 IEM_DS3505
ZBHH,2007-07-27 00:00,ZBHH 270000Z AUTO 04004KT 7SM 23/14 A2988 RMK SLP055 T02270140 52004 IEM_DS3505
ZBHH,2007-07-27 01:00,ZBHH 270100Z AUTO 12002KT 4SM 23/14 A2988 RMK T02300140 IEM_DS3505
ZBHH,2007-07-27 02:00,ZBHH 270200Z AUTO 19004KT 3SM 24/15 A2988 RMK T02400150 IEM_DS3505
ZBHH,2007-07-27 03:00,ZBHH 270300Z AUTO 22004KT 6SM 26/14 A2988 RMK SLP056 T02600141 57001 IEM_DS3505
ZBHH,2007-07-27 04:00,ZBHH 270400Z AUTO 24006KT 3SM 26/14 A2985 RMK T02600140 IEM_DS3505
ZBHH,2007-07-27 05:00,ZBHH 270500Z AUTO 23006KT 3SM 26/15 A2985 RMK T02600150 IEM_DS3505
ZBHH,2007-07-27 06:00,ZBHH 270600Z AUTO 20008KT 6SM 29/12 A2983 RMK SLP036 T02870122 57017 IEM_DS3505
ZBHH,2007-07-27 07:00,ZBHH 270700Z AUTO 26006KT 4SM 29/14 A2980 RMK T02900140 IEM_DS3505
ZBHH,2007-07-27 08:00,ZBHH 270800Z AUTO 21006KT 4SM 29/14 A2980 RMK T02900140 IEM_DS3505
ZBHH,2007-07-27 09:00,ZBHH 270900Z AUTO 22008KT 9SM 28/13 A2977 RMK SLP021 T02850132 57013 IEM_DS3505
ZBHH,2007-07-27 10:00,ZBHH 271000Z AUTO 24008KT 4SM 28/15 A2980 RMK T02800150 IEM_DS3505
ZBHH,2007-07-27 11:00,ZBHH 271100Z AUTO 23006KT 4SM 26/16 A2980 RMK T02600160 IEM_DS3505
ZBHH,2007-07-27 12:00,ZBHH 271200Z AUTO 22004KT 9SM 24/14 A2983 RMK SLP038 T02450140 52012 IEM_DS3505
ZBHH,2007-07-27 13:00,ZBHH 271300Z AUTO 19004KT 4SM 22/14 A2983 RMK T02200140 IEM_DS3505
ZBHH,2007-07-27 14:00,ZBHH 271400Z AUTO 00000KT 4SM 21/14 A2983 RMK T02100140 IEM_DS3505
ZBHH,2007-07-27 15:00,ZBHH 271500Z AUTO 09002KT 9SM 22/15 A2985 RMK SLP045 T02180154 52007 IEM_DS3505
ZBHH,2007-07-27 16:00,ZBHH 271600Z AUTO 11002KT 4SM 21/14 A2985 RMK T02100140 IEM_DS3505
ZBHH,2007-07-27 17:00,ZBHH 271700Z AUTO 00000KT 3SM 18/15 A2985 RMK T01800150 IEM_DS3505
ZBHH,2007-07-27 18:00,ZBHH 271800Z AUTO 27002KT 9SM 21/15 A2985 RMK SLP043 T02100153 52002 IEM_DS3505
ZBHH,2007-07-27 19:00,ZBHH 271900Z AUTO 05002KT 4SM 19/14 A2983 RMK T01900140 IEM_DS3505
ZBHH,2007-07-27 20:00,ZBHH 272000Z AUTO 05002KT 4SM 19/14 A2983 RMK T01900140 IEM_DS3505
ZBHH,2007-07-27 21:00,ZBHH 272100Z AUTO 11002KT 9SM 20/14 A2983 RMK SLP042 T02030142 57003 IEM_DS3505
ZBHH,2007-07-27 22:00,ZBHH 272200Z AUTO 03002KT 2 1/2SM 19/15 A2985 RMK T01900150 IEM_DS3505
ZBHH,2007-07-27 23:00,ZBHH 272300Z AUTO 03002KT 2 1/2SM 20/15 A2985 RMK T02000150 IEM_DS3505
ZBHH,2007-07-28 00:00,ZBHH 280000Z AUTO 25002KT 12SM 23/14 A2988 RMK SLP062 T02310144 52016 IEM_DS3505
ZBHH,2007-07-28 01:00,ZBHH 280100Z AUTO 22002KT 3SM 23/15 A2988 RMK T02300150 IEM_DS3505
ZBHH,2007-07-28 02:00,ZBHH 280200Z AUTO 21004KT 3SM 24/15 A2991 RMK T02400150 IEM_DS3505
ZBHH,2007-07-28 03:00,ZBHH 280300Z AUTO 32002KT 12SM 27/14 A2988 RMK SLP061 T02670141 54000 IEM_DS3505
ZBHH,2007-07-28 04:00,ZBHH 280400Z AUTO 23004KT 3SM 27/16 A2988 RMK T02700160 IEM_DS3505
ZBHH,2007-07-28 05:00,ZBHH 280500Z AUTO 21006KT 3SM 26/16 A2988 RMK T02600160 IEM_DS3505
ZBHH,2007-07-28 06:00,ZBHH 280600Z AUTO 22006KT 6SM 27/14 A2985 RMK SLP051 T02720142 57009 IEM_DS3505
ZBHH,2007-07-28 07:00,ZBHH 280700Z AUTO 22008KT 4SM 27/16 A2985 RMK T02700160 IEM_DS3505
ZBHH,2007-07-28 08:00,ZBHH 280800Z AUTO 22006KT 4SM 28/15 A2983 RMK T02800150 IEM_DS3505
ZBHH,2007-07-28 09:00,ZBHH 280900Z AUTO 22008KT 9SM 28/14 A2985 RMK SLP042 T02790145 57008 IEM_DS3505
ZBHH,2007-07-28 10:00,ZBHH 281000Z AUTO 23004KT 4SM 26/17 A2983 RMK T02600170 IEM_DS3505
ZBHH,2007-07-28 11:00,ZBHH 281100Z AUTO 20004KT 3SM 25/17 A2985 RMK T02500170 IEM_DS3505
ZBHH,2007-07-28 12:00,ZBHH 281200Z AUTO 11002KT 9SM 26/16 A2988 RMK SLP055 T02590162 52013 IEM_DS3505
ZBHH,2007-07-28 13:00,ZBHH 281300Z AUTO 12006KT 3SM 24/16 A2988 RMK T02400160 IEM_DS3505
ZBHH,2007-07-28 14:00,ZBHH 281400Z AUTO 09008KT 2 1/2SM 23/17 A2991 RMK T02300170 IEM_DS3505
ZBHH,2007-07-28 15:00,ZBHH 281500Z AUTO 09002KT 12SM 23/16 A2988 RMK SLP062 T02330164 52008 IEM_DS3505
ZBHH,2007-07-28 16:00,ZBHH 281600Z AUTO 09004KT 2 1/2SM 23/17 A2991 RMK T02300170 IEM_DS3505
ZBHH,2007-07-28 17:00,ZBHH 281700Z AUTO 09002KT 2 1/2SM 22/17 A2988 RMK T02200170 IEM_DS3505
ZBHH,2007-07-28 18:00,ZBHH 281800Z AUTO 11004KT 12SM 22/16 A2988 RMK SLP061 T02240164 57002 IEM_DS3505
ZBHH,2007-07-28 19:00,ZBHH 281900Z AUTO 09008KT 2 1/2SM 22/17 A2988 RMK T02200170 IEM_DS3505
ZBHH,2007-07-28 20:00,ZBHH 282000Z AUTO 10004KT 2 1/2SM 22/17 A2991 RMK T02200170 IEM_DS3505
ZBHH,2007-07-28 21:00,ZBHH 282100Z AUTO 09004KT 19SM 23/16 A2991 RMK SLP061 T02310164 52003 IEM_DS3505
ZBHH,2007-07-28 22:00,ZBHH 282200Z AUTO 08006KT 2 1/2SM 22/17 A2991 RMK T02200170 IEM_DS3505
ZBHH,2007-07-28 23:00,ZBHH 282300Z AUTO 09010KT 3SM 22/17 A2991 RMK T02200170 IEM_DS3505
ZBHH,2007-07-29 00:00,ZBHH 290000Z AUTO 09006KT 19SM 23/16 A2994 RMK SLP077 T02340165 52011 IEM_DS3505
ZBHH,2007-07-29 01:00,ZBHH 290100Z AUTO 09008KT 3SM 24/17 A2994 RMK T02400170 IEM_DS3505
ZBHH,2007-07-29 02:00,ZBHH 290200Z AUTO 11004KT 3SM 25/17 A2994 RMK T02500170 IEM_DS3505
ZBHH,2007-07-29 03:00,ZBHH 290300Z AUTO 36002KT 6SM 27/16 A2991 RMK SLP072 T02690165 57003 IEM_DS3505
ZBHH,2007-07-29 04:00,ZBHH 290400Z AUTO 14002KT 3SM 28/17 A2991 RMK T02800170 IEM_DS3505
ZBHH,2007-07-29 05:00,ZBHH 290500Z AUTO 23002KT 3SM 28/17 A2991 RMK T02800170 IEM_DS3505
ZBHH,2007-07-29 06:00,ZBHH 290600Z AUTO 18002KT 6SM 27/17 A2988 RMK 60000 SLP060 T02680170 57012 IEM_DS3505
ZBHH,2007-07-29 07:00,ZBHH 290700Z AUTO 20004KT 2 1/2SM 27/18 A2988 RMK T02700180 IEM_DS3505
ZBHH,2007-07-29 08:00,ZBHH 290800Z AUTO 24004KT 2 1/2SM 25/18 A2988 RMK T02500180 IEM_DS3505
ZBHH,2007-07-29 09:00,ZBHH 290900Z AUTO 22002KT 6SM 24/19 A2991 RMK SLP067 T02370188 52002 IEM_DS3505
ZBHH,2007-07-29 10:00,ZBHH 291000Z AUTO 03002KT 2SM 21/19 A2991 RMK T02100190 IEM_DS3505
ZBHH,2007-07-29 11:00,ZBHH 291100Z AUTO 01002KT 2SM 22/19 A2991 RMK T02200190 IEM_DS3505
ZBHH,2007-07-29 12:00,ZBHH 291200Z AUTO 04002KT 6SM 22/19 A2991 RMK 60012 SLP073 T02230187 52003 IEM_DS3505
ZBHH,2007-07-29 13:00,ZBHH 291300Z AUTO 09006KT 1 1/2SM 22/20 A2991 RMK T02200200 IEM_DS3505
ZBHH,2007-07-29 14:00,ZBHH 291400Z AUTO 10004KT 3SM 21/19 A2991 RMK T02100190 IEM_DS3505
ZBHH,2007-07-29 15:00,ZBHH 291500Z AUTO 04002KT 6SM 22/19 A2991 RMK SLP069 T02200192 52002 IEM_DS3505
ZBHH,2007-07-29 16:00,ZBHH 291600Z AUTO 05004KT 2 1/2SM 21/19 A2991 RMK T02100190 IEM_DS3505
ZBHH,2007-07-29 17:00,ZBHH 291700Z AUTO 03002KT 2 1/2SM 21/19 A2988 RMK T02100190 IEM_DS3505
ZBHH,2007-07-29 18:00,ZBHH 291800Z AUTO 07002KT 6SM 22/19 A2988 RMK 60000 SLP058 T02190187 57010 IEM_DS3505
ZBHH,2007-07-29 19:00,ZBHH 291900Z AUTO 09004KT 2 1/2SM 21/19 A2985 RMK T02100190 IEM_DS3505
ZBHH,2007-07-29 20:00,ZBHH 292000Z AUTO 05004KT 2 1/2SM 21/19 A2985 RMK T02100190 IEM_DS3505
ZBHH,2007-07-29 21:00,ZBHH 292100Z AUTO 16004KT 6SM 21/18 A2988 RMK 70013 SLP062 T02070183 57004 IEM_DS3505
ZBHH,2007-07-29 22:00,ZBHH 292200Z AUTO 05004KT 1 1/2SM 19/18 A2985 RMK T01900180 IEM_DS3505
ZBHH,2007-07-29 23:00,ZBHH 292300Z AUTO 03002KT 1 1/4SM 19/18 A2985 RMK T01900180 IEM_DS3505
ZBHH,2007-07-30 00:00,ZBHH 300000Z AUTO 09004KT 6SM 20/19 A2985 RMK 60051 70062 SLP063 T01970187 57004 IEM_DS3505
ZBHH,2007-07-30 01:00,ZBHH 300100Z AUTO 13004KT 1 1/4SM 19/18 A2985 RMK T01900180 IEM_DS3505
ZBHH,2007-07-30 02:00,ZBHH 300200Z AUTO 13002KT 2SM 19/19 A2985 RMK T01900190 IEM_DS3505
ZBHH,2007-07-30 03:00,ZBHH 300300Z AUTO 22004KT 7SM 21/19 A2985 RMK SLP058 T02060189 57003 IEM_DS3505
ZBHH,2007-07-30 04:00,ZBHH 300400Z AUTO 20006KT 2 1/2SM 21/19 A2983 RMK T02100190 IEM_DS3505
ZBHH,2007-07-30 05:00,ZBHH 300500Z AUTO 20004KT 4SM 21/19 A2983 RMK T02100190 IEM_DS3505
ZBHH,2007-07-30 06:00,ZBHH 300600Z AUTO 14004KT 9SM 23/18 A2980 RMK 60024 SLP041 T02300185 57011 IEM_DS3505
ZBHH,2007-07-30 07:00,ZBHH 300700Z AUTO 13006KT 7SM 23/18 A2980 RMK T02300180 IEM_DS3505
ZBHH,2007-07-30 08:00,ZBHH 300800Z AUTO 12008KT 7SM 23/19 A2977 RMK T02300190 IEM_DS3505
ZBHH,2007-07-30 09:00,ZBHH 300900Z AUTO 18002KT 7SM 22/18 A2977 RMK SLP031 T02230183 57012 IEM_DS3505
ZBHH,2007-07-30 10:00,ZBHH 301000Z AUTO 10002KT 7SM 22/19 A2974 RMK T02200190 IEM_DS3505
ZBHH,2007-07-30 11:00,ZBHH 301100Z AUTO 00000KT 7SM 22/19 A2977 RMK T02200190 IEM_DS3505
ZBHH,2007-07-30 12:00,ZBHH 301200Z AUTO 02002KT 9SM 22/19 A2977 RMK 60024 SLP029 T02220188 57004 IEM_DS3505
ZBHH,2007-07-30 13:00,ZBHH 301300Z AUTO 01002KT 4SM 21/19 A2980 RMK T02100190 IEM_DS3505
ZBHH,2007-07-30 14:00,ZBHH 301400Z AUTO 28008G21KT 2 1/2SM 21/19 A2980 RMK T02100190 IEM_DS3505
ZBHH,2007-07-30 15:00,ZBHH 301500Z AUTO 07004KT 7SM 20/18 A2980 RMK SLP036 T01950183 52003 IEM_DS3505
ZBHH,2007-07-30 16:00,ZBHH 301600Z AUTO 11004KT 3SM 18/17 A2977 RMK T01800170 IEM_DS3505
ZBHH,2007-07-30 17:00,ZBHH 301700Z AUTO 24004KT 3SM 18/17 A2977 RMK T01800170 IEM_DS3505
ZBHH,2007-07-30 18:00,ZBHH 301800Z AUTO 22004KT 9SM 18/17 A2977 RMK 60035 SLP034 T01850168 52001 IEM_DS3505
ZBHH,2007-07-30 19:00,ZBHH 301900Z AUTO 19002KT 2SM 17/17 A2977 RMK T01700170 IEM_DS3505
ZBHH,2007-07-30 20:00,ZBHH 302000Z AUTO 17002KT 2SM 18/17 A2977 RMK T01800170 IEM_DS3505
ZBHH,2007-07-30 21:00,ZBHH 302100Z AUTO 18004KT 9SM 19/17 A2977 RMK 70134 SLP032 T01860173 57003 IEM_DS3505
ZBHH,2007-07-30 22:00,ZBHH 302200Z AUTO 20002KT 1 1/4SM 18/17 A2977 RMK T01800170 IEM_DS3505
ZBHH,2007-07-30 23:00,ZBHH 302300Z AUTO 00000KT 1 1/2SM 18/17 A2974 RMK T01800170 IEM_DS3505
ZBHH,2007-07-31 00:00,ZBHH 310000Z AUTO 09002KT 6SM 19/17 A2977 RMK 60000 70085 SLP031 T01920173 54000 IEM_DS3505
ZBHH,2007-07-31 01:00,ZBHH 310100Z AUTO 16002KT 1 1/4SM 19/17 A2977 RMK T01900170 IEM_DS3505
ZBHH,2007-07-31 02:00,ZBHH 310200Z AUTO 19004KT 2SM 20/18 A2977 RMK T02000180 IEM_DS3505
ZBHH,2007-07-31 03:00,ZBHH 310300Z AUTO 20006KT 6SM 22/17 A2974 RMK SLP030 T02190173 57001 IEM_DS3505
ZBHH,2007-07-31 04:00,ZBHH 310400Z AUTO 24004KT 3SM 24/18 A2974 RMK T02400180 IEM_DS3505
ZBHH,2007-07-31 05:00,ZBHH 310500Z AUTO 24004KT 4SM 24/19 A2974 RMK T02400190 IEM_DS3505
ZBHH,2007-07-31 06:00,ZBHH 310600Z AUTO 20006KT 7SM 25/18 A2971 RMK SLP006 T02510176 57017 IEM_DS3505
ZBHH,2007-07-31 07:00,ZBHH 310700Z AUTO 23006KT 4SM 26/19 A2968 RMK T02600190 IEM_DS3505
ZBHH,2007-07-31 08:00,ZBHH 310800Z AUTO 30004KT 5SM 21/17 A2968 RMK T02100170 IEM_DS3505
ZBHH,2007-07-31 09:00,ZBHH 310900Z AUTO 20004KT 7SM 22/18 A2971 RMK SLP012 T02160184 57001 IEM_DS3505
ZBHH,2007-07-31 10:00,ZBHH 311000Z AUTO 15004KT 4SM 21/20 A2971 RMK T02100200 IEM_DS3505
ZBHH,2007-07-31 11:00,ZBHH 311100Z AUTO 11004KT 4SM 22/19 A2968 RMK T02200190 IEM_DS3505
ZBHH,2007-07-31 12:00,ZBHH 311200Z AUTO 09004KT 12SM 22/19 A2971 RMK 60031 SLP011 T02190191 52001 IEM_DS3505
ZBHH,2007-07-31 13:00,ZBHH 311300Z AUTO 12002KT 4SM 20/18 A2971 RMK T02000180 IEM_DS3505
ZBHH,2007-07-31 14:00,ZBHH 311400Z AUTO 01002KT 4SM 20/18 A2971 RMK T02000180 IEM_DS3505
ZBHH,2007-07-31 15:00,ZBHH 311500Z AUTO 02002KT 19SM 20/18 A2974 RMK SLP017 T01960183 52006 IEM_DS3505
ZBHH,2007-07-31 16:00,ZBHH 311600Z AUTO 00000KT 4SM 18/17 A2971 RMK T01800170 IEM_DS3505
ZBHH,2007-07-31 17:00,ZBHH 311700Z AUTO 00000KT 6SM 18/16 A2971 RMK T01800160 IEM_DS3505
ZBHH,2007-07-31 18:00,ZBHH 311800Z AUTO 06002KT 19SM 18/17 A2971 RMK SLP009 T01810170 57004 IEM_DS3505
ZBHH,2007-07-31 19:00,ZBHH 311900Z AUTO 09002KT 4SM 17/15 A2971 RMK T01700150 IEM_DS3505
ZBHH,2007-07-31 20:00,ZBHH 312000Z AUTO 00000KT 6SM 16/14 A2971 RMK T01600140 IEM_DS3505
ZBHH,2007-07-31 21:00,ZBHH 312100Z AUTO 07002KT 19SM 16/16 A2974 RMK 70031 SLP029 T01650157 52008 IEM_DS3505
ZBHH,2007-07-31 22:00,ZBHH 312200Z AUTO 08002KT 6SM 16/14 A2974 RMK T01600140 IEM_DS3505
ZBHH,2007-07-31 23:00,ZBHH 312300Z AUTO 00000KT 5SM 18/15 A2977 RMK T01800150 IEM_DS3505
ZBHH,2007-08-01 00:00,ZBHH 010000Z AUTO 11002KT 19SM 21/15 A2977 RMK 70031 SLP027 T02080147 52007 IEM_DS3505
ZBHH,2007-08-01 01:00,ZBHH 010100Z AUTO 16002KT 6SM 22/15 A2977 RMK T02200150 IEM_DS3505
ZBHH,2007-08-01 02:00,ZBHH 010200Z AUTO 22002KT 6SM 24/15 A2977 RMK T02400150 IEM_DS3505
ZBHH,2007-08-01 03:00,ZBHH 010300Z AUTO 07002KT 19SM 26/14 A2977 RMK SLP022 T02640145 52001 IEM_DS3505
ZBHH,2007-08-01 04:00,ZBHH 010400Z AUTO 30004KT 6SM 27/17 A2974 RMK T02700170 IEM_DS3505
ZBHH,2007-08-01 05:00,ZBHH 010500Z AUTO 36002KT 7SM 28/16 A2974 RMK T02800160 IEM_DS3505
ZBHH,2007-08-01 06:00,ZBHH 010600Z AUTO 25006KT 19SM 29/15 A2974 RMK SLP008 T02920153 57010 IEM_DS3505
ZBHH,2007-08-01 07:00,ZBHH 010700Z AUTO 31008KT 7SM 29/13 A2974 RMK T02900130 IEM_DS3505
ZBHH,2007-08-01 08:00,ZBHH 010800Z AUTO 23004KT 7SM 28/17 A2971 RMK T02800170 IEM_DS3505
ZBHH,2007-08-01 09:00,ZBHH 010900Z AUTO 29002KT 19SM 30/14 A2971 RMK SLP005 T02980140 57004 IEM_DS3505
ZBHH,2007-08-01 10:00,ZBHH 011000Z AUTO 32002KT 7SM 29/14 A2971 RMK T02900140 IEM_DS3505
ZBHH,2007-08-01 11:00,ZBHH 011100Z AUTO 36006KT 7SM 27/12 A2974 RMK T02700120 IEM_DS3505
ZBHH,2007-08-01 12:00,ZBHH 011200Z AUTO 22012G25KT 19SM 25/08 A2977 RMK 60004 SLP028 T02470082 52019 IEM_DS3505
ZBHH,2007-08-01 13:00,ZBHH 011300Z AUTO 34004KT 7SM 22/12 A2977 RMK T02200120 IEM_DS3505
ZBHH,2007-08-01 14:00,ZBHH 011400Z AUTO 21006G16KT 7SM 20/13 A2980 RMK T02000130 IEM_DS3505
ZBHH,2007-08-01 15:00,ZBHH 011500Z AUTO 36002KT 19SM 20/14 A2983 RMK SLP038 T02040138 52011 IEM_DS3505
ZBHH,2007-08-01 16:00,ZBHH 011600Z AUTO 10002KT 7SM 19/14 A2983 RMK T01900140 IEM_DS3505
ZBHH,2007-08-01 17:00,ZBHH 011700Z AUTO 00000KT 7SM 18/14 A2980 RMK T01800140 IEM_DS3505
ZBHH,2007-08-01 18:00,ZBHH 011800Z AUTO 32006KT 19SM 20/13 A2980 RMK 60001 SLP026 T02020127 57006 IEM_DS3505
ZBHH,2007-08-01 19:00,ZBHH 011900Z AUTO 08002KT 7SM 18/13 A2980 RMK T01800130 IEM_DS3505
ZBHH,2007-08-01 20:00,ZBHH 012000Z AUTO 04008KT 7SM 18/11 A2980 RMK T01800110 IEM_DS3505
ZBHH,2007-08-01 21:00,ZBHH 012100Z AUTO 05006KT 19SM 16/13 A2980 RMK 70006 SLP036 T01620129 52003 IEM_DS3505
ZBHH,2007-08-01 22:00,ZBHH 012200Z AUTO 07006KT 7SM 18/11 A2983 RMK T01800110 IEM_DS3505
ZBHH,2007-08-01 23:00,ZBHH 012300Z AUTO 10004KT 7SM 18/13 A2983 RMK T01800130 IEM_DS3505
ZBHH,2007-08-02 00:00,ZBHH 020000Z AUTO 29002KT 19SM 22/12 A2985 RMK 70006 SLP050 T02190116 52013 IEM_DS3505
ZBHH,2007-08-02 01:00,ZBHH 020100Z AUTO 04002KT 7SM 23/12 A2985 RMK T02300120 IEM_DS3505
ZBHH,2007-08-02 02:00,ZBHH 020200Z AUTO 00000KT 7SM 25/12 A2983 RMK T02500120 IEM_DS3505
ZBHH,2007-08-02 03:00,ZBHH 020300Z AUTO 32002KT 19SM 26/11 A2983 RMK SLP045 T02560106 57005 IEM_DS3505
ZBHH,2007-08-02 04:00,ZBHH 020400Z AUTO 24004KT 7SM 26/13 A2983 RMK T02600130 IEM_DS3505
ZBHH,2007-08-02 05:00,ZBHH 020500Z AUTO 21004KT 7SM 27/13 A2980 RMK T02700130 IEM_DS3505
ZBHH,2007-08-02 06:00,ZBHH 020600Z AUTO 18006KT 19SM 28/13 A2980 RMK SLP025 T02790131 57014 IEM_DS3505
ZBHH,2007-08-02 07:00,ZBHH 020700Z AUTO 23004KT 7SM 28/13 A2977 RMK T02800130 IEM_DS3505
ZBHH,2007-08-02 08:00,ZBHH 020800Z AUTO 19002KT 7SM 28/12 A2977 RMK T02800120 IEM_DS3505
ZBHH,2007-08-02 09:00,ZBHH 020900Z AUTO 32006KT 19SM 28/14 A2977 RMK SLP023 T02810136 57009 IEM_DS3505
ZBHH,2007-08-02 10:00,ZBHH 021000Z AUTO 07002KT 7SM 28/13 A2974 RMK T02800130 IEM_DS3505
ZBHH,2007-08-02 11:00,ZBHH 021100Z AUTO 36002KT 7SM 26/15 A2977 RMK T02600150 IEM_DS3505
ZBHH,2007-08-02 12:00,ZBHH 021200Z AUTO 34002KT 19SM 25/13 A2977 RMK 60000 SLP018 T02540130 52001 IEM_DS3505
ZBHH,2007-08-02 13:00,ZBHH 021300Z AUTO 02006KT 7SM 22/14 A2977 RMK T02200140 IEM_DS3505
ZBHH,2007-08-02 14:00,ZBHH 021400Z AUTO 04004KT 7SM 21/12 A2980 RMK T02100120 IEM_DS3505
ZBHH,2007-08-02 15:00,ZBHH 021500Z AUTO 09006KT 19SM 22/13 A2980 RMK SLP027 T02180129 52008 IEM_DS3505
ZBHH,2007-08-02 16:00,ZBHH 021600Z AUTO 04006KT 7SM 21/12 A2977 RMK T02100120 IEM_DS3505
ZBHH,2007-08-02 17:00,ZBHH 021700Z AUTO 04006KT 7SM 21/12 A2980 RMK T02100120 IEM_DS3505
ZBHH,2007-08-02 18:00,ZBHH 021800Z AUTO 34002KT 19SM 21/12 A2977 RMK SLP021 T02060115 57003 IEM_DS3505
ZBHH,2007-08-02 19:00,ZBHH 021900Z AUTO 24010KT 7SM 19/14 A2983 RMK T01900140 IEM_DS3505
ZBHH,2007-08-02 20:00,ZBHH 022000Z AUTO 34002KT 7SM 16/14 A2983 RMK T01600140 IEM_DS3505
ZBHH,2007-08-02 21:00,ZBHH 022100Z AUTO 07004KT 19SM 17/15 A2983 RMK 70012 SLP042 T01740152 52013 IEM_DS3505
ZBHH,2007-08-02 22:00,ZBHH 022200Z AUTO 10004KT 7SM 16/15 A2983 RMK T01600150 IEM_DS3505
ZBHH,2007-08-02 23:00,ZBHH 022300Z AUTO 00000KT 3SM 16/15 A2983 RMK T01600150 IEM_DS3505
ZBHH,2007-08-03 00:00,ZBHH 030000Z AUTO 14002KT 19SM 20/14 A2983 RMK 60012 70012 SLP050 T01980142 52007 IEM_DS3505
ZBHH,2007-08-03 01:00,ZBHH 030100Z AUTO 00000KT 7SM 20/14 A2983 RMK T02000140 IEM_DS3505
ZBHH,2007-08-03 02:00,ZBHH 030200Z AUTO 25004KT 7SM 21/14 A2983 RMK T02100140 IEM_DS3505
ZBHH,2007-08-03 03:00,ZBHH 030300Z AUTO 22006KT 19SM 22/13 A2980 RMK SLP041 T02210132 57011 IEM_DS3505
ZBHH,2007-08-03 04:00,ZBHH 030400Z AUTO 21006KT 7SM 23/14 A2980 RMK T02300140 IEM_DS3505
ZBHH,2007-08-03 05:00,ZBHH 030500Z AUTO 21006KT 7SM 24/15 A2977 RMK T02400150 IEM_DS3505
ZBHH,2007-08-03 06:00,ZBHH 030600Z AUTO 22008KT 19SM 24/13 A2977 RMK SLP027 T02380128 57011 IEM_DS3505
ZBHH,2007-08-03 07:00,ZBHH 030700Z AUTO 25008KT 7SM 25/14 A2974 RMK T02500140 IEM_DS3505
ZBHH,2007-08-03 08:00,ZBHH 030800Z AUTO 23006KT 7SM 26/13 A2974 RMK T02600130 IEM_DS3505
ZBHH,2007-08-03 09:00,ZBHH 030900Z AUTO 20006KT 19SM 24/14 A2974 RMK SLP018 T02360135 57014 IEM_DS3505
ZBHH,2007-08-03 10:00,ZBHH 031000Z AUTO 24008KT 7SM 26/13 A2971 RMK T02600130 IEM_DS3505
ZBHH,2007-08-03 11:00,ZBHH 031100Z AUTO 23006KT 7SM 24/13 A2971 RMK T02400130 IEM_DS3505
ZBHH,2007-08-03 12:00,ZBHH 031200Z AUTO 18008KT 19SM 22/14 A2974 RMK 60001 SLP020 T02170136 52002 IEM_DS3505
ZBHH,2007-08-03 13:00,ZBHH 031300Z AUTO 23002KT 7SM 20/13 A2974 RMK T02000130 IEM_DS3505
ZBHH,2007-08-03 14:00,ZBHH 031400Z AUTO 06002KT 7SM 20/14 A2977 RMK T02000140 IEM_DS3505
ZBHH,2007-08-03 15:00,ZBHH 031500Z AUTO 27002KT 19SM 21/13 A2974 RMK SLP023 T02080133 52006 IEM_DS3505
ZBHH,2007-08-03 16:00,ZBHH 031600Z AUTO 19002KT 7SM 17/15 A2974 RMK T01700150 IEM_DS3505
ZBHH,2007-08-03 17:00,ZBHH 031700Z AUTO 07002KT 7SM 18/14 A2977 RMK T01800140 IEM_DS3505
ZBHH,2007-08-03 18:00,ZBHH 031800Z AUTO 05004KT 19SM 18/14 A2977 RMK SLP028 T01800141 52002 IEM_DS3505
ZBHH,2007-08-03 19:00,ZBHH 031900Z AUTO 07006KT 7SM 18/13 A2977 RMK T01800130 IEM_DS3505
ZBHH,2007-08-03 20:00,ZBHH 032000Z AUTO 08002KT 7SM 17/13 A2977 RMK T01700130 IEM_DS3505
ZBHH,2007-08-03 21:00,ZBHH 032100Z AUTO 07004KT 19SM 16/13 A2977 RMK 70001 SLP034 T01630134 52002 IEM_DS3505
ZBHH,2007-08-03 23:00,ZBHH 032300Z AUTO 10004KT 6SM 18/13 A2977 RMK T01800130 IEM_DS3505
ZBHH,2007-08-04 00:00,ZBHH 040000Z AUTO 11002KT 19SM 22/13 A2977 RMK 70001 SLP034 T02170131 52006 IEM_DS3505
ZBHH,2007-08-04 01:00,ZBHH 040100Z AUTO 00000KT 7SM 23/14 A2977 RMK T02300140 IEM_DS3505
ZBHH,2007-08-04 02:00,ZBHH 040200Z AUTO 01002KT 7SM 24/13 A2977 RMK T02400130 IEM_DS3505
ZBHH,2007-08-04 03:00,ZBHH 040300Z AUTO 07002KT 19SM 26/13 A2977 RMK SLP021 T02550127 57006 IEM_DS3505
ZBHH,2007-08-04 04:00,ZBHH 040400Z AUTO 7SM 26/12 A2977 RMK T02600120 IEM_DS3505
ZBHH,2007-08-04 05:00,ZBHH 040500Z AUTO 21004KT 7SM 26/13 A2974 RMK T02600130 IEM_DS3505
ZBHH,2007-08-04 06:00,ZBHH 040600Z AUTO 20006KT 19SM 27/11 A2974 RMK SLP015 T02740110 57007 IEM_DS3505
ZBHH,2007-08-04 07:00,ZBHH 040700Z AUTO 22006KT 7SM 26/14 A2974 RMK T02600140 IEM_DS3505
ZBHH,2007-08-04 08:00,ZBHH 040800Z AUTO 22004KT 7SM 26/13 A2974 RMK T02600130 IEM_DS3505
ZBHH,2007-08-04 09:00,ZBHH 040900Z AUTO 18004KT 19SM 28/12 A2974 RMK SLP012 T02770117 57005 IEM_DS3505
ZBHH,2007-08-04 10:00,ZBHH 041000Z AUTO 22004KT 7SM 26/14 A2974 RMK T02600140 IEM_DS3505
ZBHH,2007-08-04 11:00,ZBHH 041100Z AUTO 22004KT 7SM 26/14 A2974 RMK T02600140 IEM_DS3505
ZBHH,2007-08-04 12:00,ZBHH 041200Z AUTO 20004KT 19SM 25/14 A2977 RMK SLP016 T02530135 52009 IEM_DS3505
ZBHH,2007-08-04 13:00,ZBHH 041300Z AUTO 05004KT 7SM 23/16 A2977 RMK T02300160 IEM_DS3505
ZBHH,2007-08-04 14:00,ZBHH 041400Z AUTO 08002KT 7SM 21/16 A2980 RMK T02100160 IEM_DS3505
ZBHH,2007-08-04 15:00,ZBHH 041500Z AUTO 03004KT 19SM 22/12 A2980 RMK SLP026 T02200117 52010 IEM_DS3505
ZBHH,2007-08-04 16:00,ZBHH 041600Z AUTO 10004KT 6SM 19/13 A2980 RMK T01900130 IEM_DS3505
ZBHH,2007-08-04 17:00,ZBHH 041700Z AUTO 10006KT 6SM 18/14 A2980 RMK T01800140 IEM_DS3505
ZBHH,2007-08-04 18:00,ZBHH 041800Z AUTO 29002KT 19SM 20/12 A2980 RMK SLP033 T02010116 52006 IEM_DS3505
ZBHH,2007-08-04 19:00,ZBHH 041900Z AUTO 13004KT 17/13 A2980 RMK T01700130 IEM_DS3505
ZBHH,2007-08-04 20:00,ZBHH 042000Z AUTO 09002KT 6SM 17/12 A2980 RMK T01700120 IEM_DS3505
ZBHH,2007-08-04 21:00,ZBHH 042100Z AUTO 09002KT 19SM 18/11 A2983 RMK SLP042 T01810112 52005 IEM_DS3505
ZBHH,2007-08-04 22:00,ZBHH 042200Z AUTO 05004KT 6SM 17/12 A2983 RMK T01700120 IEM_DS3505
ZBHH,2007-08-04 23:00,ZBHH 042300Z AUTO 09002KT 6SM 18/12 A2983 RMK T01800120 IEM_DS3505
ZBHH,2007-08-05 00:00,ZBHH 050000Z AUTO 04002KT 19SM 22/12 A2983 RMK SLP041 T02250119 52002 IEM_DS3505
ZBHH,2007-08-05 01:00,ZBHH 050100Z AUTO 09002KT 6SM 23/13 A2983 RMK T02300130 IEM_DS3505
ZBHH,2007-08-05 02:00,ZBHH 050200Z AUTO 20002KT 6SM 25/14 A2983 RMK T02500140 IEM_DS3505
ZBHH,2007-08-05 03:00,ZBHH 050300Z AUTO 11004KT 19SM 26/14 A2983 RMK SLP042 T02630138 52002 IEM_DS3505
ZBHH,2007-08-05 04:00,ZBHH 050400Z AUTO 24004KT 7SM 26/15 A2983 RMK T02600150 IEM_DS3505
ZBHH,2007-08-05 05:00,ZBHH 050500Z AUTO 23004KT 7SM 27/16 A2980 RMK T02700160 IEM_DS3505
ZBHH,2007-08-05 06:00,ZBHH 050600Z AUTO 22004KT 19SM 28/14 A2980 RMK SLP025 T02770140 57016 IEM_DS3505
ZBHH,2007-08-05 07:00,ZBHH 050700Z AUTO 23004KT 7SM 29/13 A2977 RMK T02900130 IEM_DS3505
ZBHH,2007-08-05 08:00,ZBHH 050800Z AUTO 21004KT 7SM 29/11 A2977 RMK T02900110 IEM_DS3505
ZBHH,2007-08-05 09:00,ZBHH 050900Z AUTO 20002KT 19SM 29/10 A2974 RMK SLP011 T02940105 57013 IEM_DS3505
ZBHH,2007-08-05 10:00,ZBHH 051000Z AUTO 21002KT 6SM 29/12 A2977 RMK T02900120 IEM_DS3505
ZBHH,2007-08-05 11:00,ZBHH 051100Z AUTO 24002KT 6SM 28/13 A2977 RMK T02800130 IEM_DS3505
ZBHH,2007-08-05 12:00,ZBHH 051200Z AUTO 27002KT 19SM 27/13 A2977 RMK SLP015 T02740126 52008 IEM_DS3505
ZBHH,2007-08-05 13:00,ZBHH 051300Z AUTO 09004KT 7SM 24/15 A2980 RMK T02400150 IEM_DS3505
ZBHH,2007-08-05 14:00,ZBHH 051400Z AUTO 08002KT 7SM 23/14 A2980 RMK T02300140 IEM_DS3505
ZBHH,2007-08-05 15:00,ZBHH 051500Z AUTO 29002KT 19SM 25/16 A2980 RMK SLP025 T02460155 52011 IEM_DS3505
ZBHH,2007-08-05 16:00,ZBHH 051600Z AUTO 18002KT 7SM 22/16 A2983 RMK T02200160 IEM_DS3505
ZBHH,2007-08-05 17:00,ZBHH 051700Z AUTO 28004KT 6SM 21/15 A2983 RMK T02100150 IEM_DS3505
ZBHH,2007-08-05 18:00,ZBHH 051800Z AUTO 22002KT 19SM 22/15 A2985 RMK SLP040 T02180154 52011 IEM_DS3505
ZBHH,2007-08-05 19:00,ZBHH 051900Z AUTO 00000KT 6SM 20/16 A2983 RMK T02000160 IEM_DS3505
ZBHH,2007-08-05 20:00,ZBHH 052000Z AUTO 12002KT 6SM 19/15 A2983 RMK T01900150 IEM_DS3505
ZBHH,2007-08-05 21:00,ZBHH 052100Z AUTO 20002KT 19SM 20/15 A2985 RMK SLP043 T02020152 52002 IEM_DS3505
ZBHH,2007-08-05 22:00,ZBHH 052200Z AUTO 07002KT 3SM 18/15 A2985 RMK T01800150 IEM_DS3505
ZBHH,2007-08-05 23:00,ZBHH 052300Z AUTO 09002KT 3SM 19/16 A2985 RMK T01900160 IEM_DS3505
ZBHH,2007-08-06 00:00,ZBHH 060000Z AUTO 11006KT 12SM 21/15 A2988 RMK SLP058 T02130152 52012 IEM_DS3505
ZBHH,2007-08-06 01:00,ZBHH 060100Z AUTO 22002KT 4SM 23/16 A2988 RMK T02300160 IEM_DS3505
ZBHH,2007-08-06 02:00,ZBHH 060200Z AUTO 25002KT 7SM 24/15 A2988 RMK T02400150 IEM_DS3505
ZBHH,2007-08-06 03:00,ZBHH 060300Z AUTO 18006KT 12SM 25/15 A2985 RMK SLP051 T02490147 57005 IEM_DS3505
ZBHH,2007-08-06 04:00,ZBHH 060400Z AUTO 24004KT 5SM 26/16 A2985 RMK T02600160 IEM_DS3505
ZBHH,2007-08-06 05:00,ZBHH 060500Z AUTO 23006KT 4SM 26/16 A2983 RMK T02600160 IEM_DS3505
ZBHH,2007-08-06 06:00,ZBHH 060600Z AUTO 25002KT 12SM 27/15 A2980 RMK SLP032 T02690150 57018 IEM_DS3505
ZBHH,2007-08-06 07:00,ZBHH 060700Z AUTO 21004KT 7SM 28/15 A2977 RMK T02800150 IEM_DS3505
ZBHH,2007-08-06 08:00,ZBHH 060800Z AUTO 21004KT 7SM 28/13 A2977 RMK T02800130 IEM_DS3505
ZBHH,2007-08-06 09:00,ZBHH 060900Z AUTO 22004KT 12SM 28/14 A2974 RMK SLP012 T02820137 57018 IEM_DS3505
ZBHH,2007-08-06 10:00,ZBHH 061000Z AUTO 21002KT 7SM 27/14 A2974 RMK T02700140 IEM_DS3505
ZBHH,2007-08-06 11:00,ZBHH 061100Z AUTO 20002KT 5SM 27/15 A2974 RMK T02700150 IEM_DS3505
ZBHH,2007-08-06 12:00,ZBHH 061200Z AUTO 20002KT 16SM 27/14 A2974 RMK SLP007 T02690143 57005 IEM_DS3505
ZBHH,2007-08-06 13:00,ZBHH 061300Z AUTO 14002KT 4SM 25/15 A2977 RMK T02500150 IEM_DS3505
ZBHH,2007-08-06 14:00,ZBHH 061400Z AUTO 10004KT 4SM 24/16 A2977 RMK T02400160 IEM_DS3505
ZBHH,2007-08-06 15:00,ZBHH 061500Z AUTO 32002KT 12SM 25/16 A2974 RMK SLP012 T02470156 52007 IEM_DS3505
ZBHH,2007-08-06 16:00,ZBHH 061600Z AUTO 22010KT 2 1/2SM 20/17 A2974 RMK T02000170 IEM_DS3505
ZBHH,2007-08-06 17:00,ZBHH 061700Z AUTO 36016G25KT 4SM 19/14 A2977 RMK T01900140 IEM_DS3505
ZBHH,2007-08-06 18:00,ZBHH 061800Z AUTO 16002KT 9SM 18/15 A2977 RMK 60016 SLP020 T01830148 57001 IEM_DS3505
ZBHH,2007-08-06 19:00,ZBHH 061900Z AUTO 7SM 17/15 A2977 RMK T01700150 IEM_DS3505
ZBHH,2007-08-06 20:00,ZBHH 062000Z AUTO 16006KT 7SM 17/15 A2977 RMK T01700150 IEM_DS3505
ZBHH,2007-08-06 21:00,ZBHH 062100Z AUTO 11004KT 7SM 18/14 A2974 RMK 70014 SLP015 T01830140 57002 IEM_DS3505
ZBHH,2007-08-06 22:00,ZBHH 062200Z AUTO 02004KT 7SM 17/15 A2974 RMK T01700150 IEM_DS3505
ZBHH,2007-08-06 23:00,ZBHH 062300Z AUTO 32002KT 7SM 17/15 A2974 RMK T01700150 IEM_DS3505
ZBHH,2007-08-07 00:00,ZBHH 070000Z AUTO 32002KT 12SM 19/15 A2977 RMK 60000 70014 SLP024 T01860151 52006 IEM_DS3505
ZBHH,2007-08-07 01:00,ZBHH 070100Z AUTO 31002KT 7SM 20/15 A2977 RMK T02000150 IEM_DS3505
ZBHH,2007-08-07 02:00,ZBHH 070200Z AUTO 23002KT 5SM 22/15 A2977 RMK T02200150 IEM_DS3505
ZBHH,2007-08-07 03:00,ZBHH 070300Z AUTO 20004KT 19SM 23/15 A2977 RMK SLP017 T02290152 57002 IEM_DS3505
ZBHH,2007-08-07 04:00,ZBHH 070400Z AUTO 23004KT 6SM 23/16 A2974 RMK T02300160 IEM_DS3505
ZBHH,2007-08-07 05:00,ZBHH 070500Z AUTO 20004KT 7SM 24/16 A2974 RMK T02400160 IEM_DS3505
ZBHH,2007-08-07 06:00,ZBHH 070600Z AUTO 25004KT 12SM 24/17 A2971 RMK 60000 SLP015 T02380173 57012 IEM_DS3505
ZBHH,2007-08-07 07:00,ZBHH 070700Z AUTO 24008KT 7SM 25/17 A2971 RMK T02500170 IEM_DS3505
ZBHH,2007-08-07 08:00,ZBHH 070800Z AUTO 25006KT 7SM 25/18 A2968 RMK T02500180 IEM_DS3505
ZBHH,2007-08-07 09:00,ZBHH 070900Z AUTO 20006KT 19SM 26/17 A2968 RMK SLP992 T02650173 57015 IEM_DS3505
ZBHH,2007-08-07 10:00,ZBHH 071000Z AUTO 21006KT 7SM 26/18 A2968 RMK T02600180 IEM_DS3505
ZBHH,2007-08-07 11:00,ZBHH 071100Z AUTO 22002KT 7SM 25/18 A2968 RMK T02500180 IEM_DS3505
ZBHH,2007-08-07 12:00,ZBHH 071200Z AUTO 21002KT 19SM 24/16 A2971 RMK 60002 SLP007 T02440161 52010 IEM_DS3505
ZBHH,2007-08-07 13:00,ZBHH 071300Z AUTO 36004KT 4SM 23/19 A2974 RMK T02300190 IEM_DS3505
ZBHH,2007-08-07 14:00,ZBHH 071400Z AUTO 05004KT 3SM 21/17 A2974 RMK T02100170 IEM_DS3505
ZBHH,2007-08-07 15:00,ZBHH 071500Z AUTO 29006KT 19SM 24/12 A2974 RMK SLP012 T02350115 52010 IEM_DS3505
ZBHH,2007-08-07 16:00,ZBHH 071600Z AUTO 16002KT 4SM 19/17 A2974 RMK T01900170 IEM_DS3505
ZBHH,2007-08-07 17:00,ZBHH 071700Z AUTO 00000KT 2 1/2SM 18/17 A2974 RMK T01800170 IEM_DS3505
ZBHH,2007-08-07 18:00,ZBHH 071800Z AUTO 07002KT 19SM 20/15 A2971 RMK SLP010 T02010151 57006 IEM_DS3505
ZBHH,2007-08-07 19:00,ZBHH 071900Z AUTO 02002KT 7SM 18/16 A2971 RMK T01800160 IEM_DS3505
ZBHH,2007-08-07 20:00,ZBHH 072000Z AUTO 09002KT 7SM 17/15 A2974 RMK T01700150 IEM_DS3505
ZBHH,2007-08-07 21:00,ZBHH 072100Z AUTO 09002KT 19SM 19/13 A2974 RMK 70002 SLP017 T01880132 52009 IEM_DS3505
ZBHH,2007-08-07 22:00,ZBHH 072200Z AUTO 11002KT 7SM 16/14 A2977 RMK T01600140 IEM_DS3505
ZBHH,2007-08-07 23:00,ZBHH 072300Z AUTO 35002KT 6SM 17/14 A2980 RMK T01700140 IEM_DS3505
ZBHH,2007-08-08 00:00,ZBHH 080000Z AUTO 09002KT 19SM 23/14 A2980 RMK 70002 SLP031 T02310141 52016 IEM_DS3505
ZBHH,2007-08-08 01:00,ZBHH 080100Z AUTO 16002KT 6SM 23/17 A2980 RMK T02300170 IEM_DS3505
ZBHH,2007-08-08 02:00,ZBHH 080200Z AUTO 15002KT 7SM 24/16 A2980 RMK T02400160 IEM_DS3505
ZBHH,2007-08-08 03:00,ZBHH 080300Z AUTO 32010KT 19SM 27/08 A2980 RMK SLP025 T02720081 54000 IEM_DS3505
ZBHH,2007-08-08 04:00,ZBHH 080400Z AUTO 34008KT 7SM 28/09 A2980 RMK T02800090 IEM_DS3505
ZBHH,2007-08-08 05:00,ZBHH 080500Z AUTO 30006KT 7SM 28/10 A2980 RMK T02800100 IEM_DS3505
ZBHH,2007-08-08 06:00,ZBHH 080600Z AUTO 32010KT 19SM 30/07 A2980 RMK SLP021 T03010073 57004 IEM_DS3505
ZBHH,2007-08-08 07:00,ZBHH 080700Z AUTO 32012G21KT 7SM 30/07 A2977 RMK T03000070 IEM_DS3505
ZBHH,2007-08-08 08:00,ZBHH 080800Z AUTO 32012KT 7SM 30/07 A2977 RMK T03000070 IEM_DS3505
ZBHH,2007-08-08 09:00,ZBHH 080900Z AUTO 22004KT 19SM 30/12 A2977 RMK SLP019 T03050115 57003 IEM_DS3505
ZBHH,2007-08-08 10:00,ZBHH 081000Z AUTO 34006KT 7SM 30/09 A2977 RMK T03000090 IEM_DS3505
ZBHH,2007-08-08 11:00,ZBHH 081100Z AUTO 36006KT 7SM 28/08 A2980 RMK T02800080 IEM_DS3505
ZBHH,2007-08-08 12:00,ZBHH 081200Z AUTO 32002KT 19SM 28/07 A2983 RMK SLP029 T02810074 52012 IEM_DS3505
ZBHH,2007-08-08 13:00,ZBHH 081300Z AUTO 02004KT 7SM 24/13 A2983 RMK T02400130 IEM_DS3505
ZBHH,2007-08-08 14:00,ZBHH 081400Z AUTO 03002KT 6SM 22/11 A2985 RMK T02200110 IEM_DS3505
ZBHH,2007-08-08 15:00,ZBHH 081500Z AUTO 20004KT 19SM 24/12 A2985 RMK SLP045 T02430123 52015 IEM_DS3505
ZBHH,2007-08-08 16:00,ZBHH 081600Z AUTO 03004KT 6SM 21/12 A2988 RMK T02100120 IEM_DS3505
ZBHH,2007-08-08 17:00,ZBHH 081700Z AUTO 08002KT 6SM 19/11 A2988 RMK T01900110 IEM_DS3505
ZBHH,2007-08-08 18:00,ZBHH 081800Z AUTO 09002KT 19SM 21/11 A2988 RMK SLP050 T02080112 52003 IEM_DS3505
ZBHH,2007-08-08 19:00,ZBHH 081900Z AUTO 08002KT 6SM 17/12 A2988 RMK T01700120 IEM_DS3505
ZBHH,2007-08-08 20:00,ZBHH 082000Z AUTO 11002KT 6SM 17/11 A2988 RMK T01700110 IEM_DS3505
ZBHH,2007-08-08 21:00,ZBHH 082100Z AUTO 04002KT 19SM 19/10 A2988 RMK SLP062 T01880101 52008 IEM_DS3505
ZBHH,2007-08-08 22:00,ZBHH 082200Z AUTO 07002KT 7SM 17/10 A2991 RMK T01700100 IEM_DS3505
ZBHH,2007-08-08 23:00,ZBHH 082300Z AUTO 09004KT 7SM 18/11 A2991 RMK T01800110 IEM_DS3505
ZBHH,2007-08-09 00:00,ZBHH 090000Z AUTO 22002KT 19SM 23/10 A2991 RMK SLP069 T02310095 52009 IEM_DS3505
ZBHH,2007-08-09 01:00,ZBHH 090100Z AUTO 13002KT 7SM 23/13 A2991 RMK T02300130 IEM_DS3505
ZBHH,2007-08-09 02:00,ZBHH 090200Z AUTO 18002KT 6SM 25/14 A2991 RMK T02500140 IEM_DS3505
ZBHH,2007-08-09 03:00,ZBHH 090300Z AUTO 22004KT 19SM 26/12 A2991 RMK SLP065 T02590124 57005 IEM_DS3505
ZBHH,2007-08-09 04:00,ZBHH 090400Z AUTO 10002KT 7SM 27/14 A2988 RMK T02700140 IEM_DS3505
ZBHH,2007-08-09 05:00,ZBHH 090500Z AUTO 21004KT 7SM 28/09 A2988 RMK T02800090 IEM_DS3505
ZBHH,2007-08-09 06:00,ZBHH 090600Z AUTO 22002KT 19SM 28/13 A2985 RMK SLP050 T02810129 57016 IEM_DS3505
ZBHH,2007-08-09 07:00,ZBHH 090700Z AUTO 21006KT 7SM 28/13 A2985 RMK T02800130 IEM_DS3505
ZBHH,2007-08-09 08:00,ZBHH 090800Z AUTO 25010KT 7SM 27/14 A2985 RMK T02700140 IEM_DS3505
ZBHH,2007-08-09 09:00,ZBHH 090900Z AUTO 32008KT 19SM 27/09 A2983 RMK SLP048 T02660090 57008 IEM_DS3505
ZBHH,2007-08-09 10:00,ZBHH 091000Z AUTO 30002KT 7SM 27/10 A2983 RMK T02700100 IEM_DS3505
ZBHH,2007-08-09 11:00,ZBHH 091100Z AUTO 17004KT 7SM 25/15 A2983 RMK T02500150 IEM_DS3505
ZBHH,2007-08-09 12:00,ZBHH 091200Z AUTO 25002KT 19SM 24/15 A2985 RMK SLP051 T02420149 52006 IEM_DS3505
ZBHH,2007-08-09 13:00,ZBHH 091300Z AUTO 15004KT 6SM 22/16 A2988 RMK T02200160 IEM_DS3505
ZBHH,2007-08-09 14:00,ZBHH 091400Z AUTO 19002KT 6SM 21/16 A2988 RMK T02100160 IEM_DS3505
ZBHH,2007-08-09 15:00,ZBHH 091500Z AUTO 20004KT 19SM 22/15 A2988 RMK SLP060 T02190148 52009 IEM_DS3505
ZBHH,2007-08-09 16:00,ZBHH 091600Z AUTO 14002KT 6SM 19/16 A2988 RMK T01900160 IEM_DS3505
ZBHH,2007-08-09 17:00,ZBHH 091700Z AUTO 14002KT 6SM 19/15 A2988 RMK T01900150 IEM_DS3505
ZBHH,2007-08-09 18:00,ZBHH 091800Z AUTO 09002KT 19SM 20/15 A2988 RMK SLP057 T01960148 57003 IEM_DS3505
ZBHH,2007-08-09 19:00,ZBHH 091900Z AUTO 00000KT 6SM 18/15 A2988 RMK T01800150 IEM_DS3505
ZBHH,2007-08-09 20:00,ZBHH 092000Z AUTO 03004KT 6SM 17/14 A2985 RMK T01700140 IEM_DS3505
ZBHH,2007-08-09 21:00,ZBHH 092100Z AUTO 09002KT 19SM 18/14 A2985 RMK SLP058 T01830142 57004 IEM_DS3505
ZBHH,2007-08-09 22:00,ZBHH 092200Z AUTO 08004KT 3SM 15/13 A2988 RMK T01500130 IEM_DS3505
ZBHH,2007-08-09 23:00,ZBHH 092300Z AUTO 06002KT 6SM 18/14 A2988 RMK T01800140 IEM_DS3505
ZBHH,2007-08-10 00:00,ZBHH 100000Z AUTO 04004KT 19SM 21/14 A2988 RMK SLP066 T02100142 52008 IEM_DS3505
ZBHH,2007-08-10 01:00,ZBHH 100100Z AUTO 09004KT 6SM 21/15 A2985 RMK T02100150 IEM_DS3505
ZBHH,2007-08-10 02:00,ZBHH 100200Z AUTO 06002KT 6SM 23/13 A2985 RMK T02300130 IEM_DS3505
ZBHH,2007-08-10 03:00,ZBHH 100300Z AUTO 22006KT 19SM 26/10 A2985 RMK SLP047 T02600098 57012 IEM_DS3505
ZBHH,2007-08-10 04:00,ZBHH 100400Z AUTO 15004KT 7SM 28/08 A2983 RMK T02800080 IEM_DS3505
ZBHH,2007-08-10 05:00,ZBHH 100500Z AUTO 19004KT 7SM 28/07 A2983 RMK T02800070 IEM_DS3505
ZBHH,2007-08-10 06:00,ZBHH 100600Z AUTO 09004KT 19SM 29/07 A2980 RMK SLP028 T02920066 57015 IEM_DS3505
ZBHH,2007-08-10 07:00,ZBHH 100700Z AUTO 03006KT 7SM 29/02 A2980 RMK T02900020 IEM_DS3505
ZBHH,2007-08-10 08:00,ZBHH 100800Z AUTO 09004KT 7SM 29/02 A2977 RMK T02900020 IEM_DS3505
ZBHH,2007-08-10 09:00,ZBHH 100900Z AUTO 11002KT 19SM 30/02 A2977 RMK SLP017 T02990022 57011 IEM_DS3505
ZBHH,2007-08-10 10:00,ZBHH 101000Z AUTO 05006KT 7SM 29/01 A2977 RMK T02900010 IEM_DS3505
ZBHH,2007-08-10 11:00,ZBHH 101100Z AUTO 01006KT 7SM 27/03 A2977 RMK T02700030 IEM_DS3505
ZBHH,2007-08-10 12:00,ZBHH 101200Z AUTO 36004KT 19SM 26/01 A2980 RMK SLP026 T02630009 52006 IEM_DS3505
ZBHH,2007-08-10 13:00,ZBHH 101300Z AUTO 01004KT 6SM 22/04 A2980 RMK T02200040 IEM_DS3505
ZBHH,2007-08-10 14:00,ZBHH 101400Z AUTO 02004KT 6SM 21/04 A2980 RMK T02100040 IEM_DS3505
ZBHH,2007-08-10 15:00,ZBHH 101500Z AUTO 25002KT 19SM 21/02 A2980 RMK SLP032 T02110024 52005 IEM_DS3505
ZBHH,2007-08-10 16:00,ZBHH 101600Z AUTO 13002KT 6SM 18/08 A2980 RMK T01800080 IEM_DS3505
ZBHH,2007-08-10 17:00,ZBHH 101700Z AUTO 10006KT 6SM 16/07 A2980 RMK T01600070 IEM_DS3505
ZBHH,2007-08-10 18:00,ZBHH 101800Z AUTO 11002KT 19SM 18/05 A2980 RMK SLP032 T01770050 54000 IEM_DS3505
ZBHH,2007-08-10 19:00,ZBHH 101900Z AUTO 10004KT 6SM 15/08 A2980 RMK T01500080 IEM_DS3505
ZBHH,2007-08-10 20:00,ZBHH 102000Z AUTO 13002KT 6SM 14/07 A2980 RMK T01400070 IEM_DS3505
ZBHH,2007-08-10 21:00,ZBHH 102100Z AUTO 29002KT 19SM 18/04 A2980 RMK SLP030 T01840035 52001 IEM_DS3505
ZBHH,2007-08-10 22:00,ZBHH 102200Z AUTO 10004KT 6SM 14/07 A2983 RMK T01400070 IEM_DS3505
ZBHH,2007-08-10 23:00,ZBHH 102300Z AUTO 09002KT 6SM 17/08 A2983 RMK T01700080 IEM_DS3505
ZBHH,2007-08-11 00:00,ZBHH 110000Z AUTO 18002KT 19SM 22/05 A2983 RMK SLP041 T02250050 52010 IEM_DS3505
ZBHH,2007-08-11 01:00,ZBHH 110100Z AUTO 23002KT 6SM 23/10 A2983 RMK T02300100 IEM_DS3505
ZBHH,2007-08-11 02:00,ZBHH 110200Z AUTO 18002KT 7SM 24/09 A2983 RMK T02400090 IEM_DS3505
ZBHH,2007-08-11 03:00,ZBHH 110300Z AUTO 04004KT 19SM 27/02 A2983 RMK SLP040 T02700021 57002 IEM_DS3505
ZBHH,2007-08-11 04:00,ZBHH 110400Z AUTO 17004KT 7SM 26/05 A2983 RMK T02600050 IEM_DS3505
ZBHH,2007-08-11 05:00,ZBHH 110500Z AUTO 12004KT 7SM 26/06 A2983 RMK T02600060 IEM_DS3505
ZBHH,2007-08-11 06:00,ZBHH 110600Z AUTO 04006KT 19SM 26/03 A2983 RMK SLP041 T02650031 57006 IEM_DS3505
ZBHH,2007-08-11 07:00,ZBHH 110700Z AUTO 08004KT 7SM 26/07 A2980 RMK T02600070 IEM_DS3505
ZBHH,2007-08-11 08:00,ZBHH 110800Z AUTO 12006KT 7SM 26/06 A2980 RMK T02600060 IEM_DS3505
ZBHH,2007-08-11 09:00,ZBHH 110900Z AUTO 09004KT 19SM 27/03 A2977 RMK SLP026 T02720030 57011 IEM_DS3505
ZBHH,2007-08-11 10:00,ZBHH 111000Z AUTO 16004KT 7SM 26/08 A2977 RMK T02600080 IEM_DS3505
ZBHH,2007-08-11 11:00,ZBHH 111100Z AUTO 21002KT 7SM 25/06 A2977 RMK T02500060 IEM_DS3505
ZBHH,2007-08-11 12:00,ZBHH 111200Z AUTO 23002KT 19SM 24/07 A2977 RMK SLP025 T02390067 52001 IEM_DS3505
ZBHH,2007-08-11 13:00,ZBHH 111300Z AUTO 05004KT 6SM 20/08 A2980 RMK T02000080 IEM_DS3505
ZBHH,2007-08-11 14:00,ZBHH 111400Z AUTO 10002KT 6SM 18/07 A2980 RMK T01800070 IEM_DS3505
ZBHH,2007-08-11 15:00,ZBHH 111500Z AUTO 34002KT 19SM 19/05 A2983 RMK SLP038 T01930050 52011 IEM_DS3505
ZBHH,2007-08-11 16:00,ZBHH 111600Z AUTO 09002KT 6SM 17/07 A2983 RMK T01700070 IEM_DS3505
ZBHH,2007-08-11 17:00,ZBHH 111700Z AUTO 08002KT 6SM 16/06 A2983 RMK T01600060 IEM_DS3505
ZBHH,2007-08-11 18:00,ZBHH 111800Z AUTO 22002KT 19SM 16/06 A2980 RMK SLP040 T01640062 57004 IEM_DS3505
ZBHH,2007-08-11 19:00,ZBHH 111900Z AUTO 09004KT 6SM 13/07 A2980 RMK T01300070 IEM_DS3505
ZBHH,2007-08-11 20:00,ZBHH 112000Z AUTO 09002KT 6SM 13/07 A2977 RMK T01300070 IEM_DS3505
ZBHH,2007-08-11 21:00,ZBHH 112100Z AUTO 32002KT 19SM 15/06 A2977 RMK SLP031 T01520057 57009 IEM_DS3505
ZBHH,2007-08-11 22:00,ZBHH 112200Z AUTO 09004KT 6SM 12/07 A2977 RMK T01200070 IEM_DS3505
ZBHH,2007-08-11 23:00,ZBHH 112300Z AUTO 08004KT 6SM 15/08 A2977 RMK T01500080 IEM_DS3505
ZBHH,2007-08-12 00:00,ZBHH 120000Z AUTO 09002KT 19SM 20/06 A2977 RMK SLP034 T02010061 52005 IEM_DS3505
ZBHH,2007-08-12 01:00,ZBHH 120100Z AUTO 18002KT 6SM 22/10 A2977 RMK T02200100 IEM_DS3505
ZBHH,2007-08-12 02:00,ZBHH 120200Z AUTO 20002KT 6SM 23/10 A2977 RMK T02300100 IEM_DS3505
ZBHH,2007-08-12 03:00,ZBHH 120300Z AUTO 22004KT 19SM 26/06 A2977 RMK SLP019 T02650060 57010 IEM_DS3505
ZBHH,2007-08-12 04:00,ZBHH 120400Z AUTO 19004KT 6SM 27/09 A2974 RMK T02700090 IEM_DS3505
ZBHH,2007-08-12 05:00,ZBHH 120500Z AUTO 20004KT 6SM 28/08 A2971 RMK T02800080 IEM_DS3505
ZBHH,2007-08-12 06:00,ZBHH 120600Z AUTO 04006KT 19SM 30/03 A2971 RMK SLP000 T03040034 57015 IEM_DS3505
ZBHH,2007-08-12 07:00,ZBHH 120700Z AUTO 02008KT 7SM 29/05 A2968 RMK T02900050 IEM_DS3505
ZBHH,2007-08-12 08:00,ZBHH 120800Z AUTO 35006KT 7SM 30/05 A2965 RMK T03000050 IEM_DS3505
ZBHH,2007-08-12 09:00,ZBHH 120900Z AUTO 04006KT 19SM 30/03 A2965 RMK SLP982 T03020033 57018 IEM_DS3505
ZBHH,2007-08-12 10:00,ZBHH 121000Z AUTO 04010KT 6SM 30/04 A2965 RMK T03000040 IEM_DS3505
ZBHH,2007-08-12 11:00,ZBHH 121100Z AUTO 01004KT 6SM 28/06 A2965 RMK T02800060 IEM_DS3505
ZBHH,2007-08-12 12:00,ZBHH 121200Z AUTO 00000KT 19SM 26/04 A2968 RMK SLP988 T02600039 52006 IEM_DS3505
ZBHH,2007-08-12 13:00,ZBHH 121300Z AUTO 10002KT 6SM 21/12 A2968 RMK T02100120 IEM_DS3505
ZBHH,2007-08-12 14:00,ZBHH 121400Z AUTO 05004KT 6SM 21/07 A2971 RMK T02100070 IEM_DS3505
ZBHH,2007-08-12 15:00,ZBHH 121500Z AUTO 07004KT 19SM 22/06 A2971 RMK SLP001 T02210055 52016 IEM_DS3505
ZBHH,2007-08-12 16:00,ZBHH 121600Z AUTO 05004KT 6SM 19/06 A2971 RMK T01900060 IEM_DS3505
ZBHH,2007-08-12 17:00,ZBHH 121700Z AUTO 09004KT 6SM 17/07 A2974 RMK T01700070 IEM_DS3505
ZBHH,2007-08-12 18:00,ZBHH 121800Z AUTO 09004KT 19SM 18/08 A2974 RMK SLP006 T01830077 52005 IEM_DS3505
ZBHH,2007-08-12 19:00,ZBHH 121900Z AUTO 10002KT 6SM 16/09 A2974 RMK T01600090 IEM_DS3505
ZBHH,2007-08-12 20:00,ZBHH 122000Z AUTO 07002KT 6SM 16/08 A2974 RMK T01600080 IEM_DS3505
ZBHH,2007-08-12 21:00,ZBHH 122100Z AUTO 07004KT 19SM 16/07 A2974 RMK SLP013 T01650072 52003 IEM_DS3505
ZBHH,2007-08-12 22:00,ZBHH 122200Z AUTO 00000KT 6SM 15/08 A2974 RMK T01500080 IEM_DS3505
ZBHH,2007-08-12 23:00,ZBHH 122300Z AUTO 14002KT 6SM 17/08 A2977 RMK T01700080 IEM_DS3505
ZBHH,2007-08-13 00:00,ZBHH 130000Z AUTO 09004KT 19SM 22/07 A2977 RMK SLP021 T02200067 52009 IEM_DS3505
ZBHH,2007-08-13 01:00,ZBHH 130100Z AUTO 08002KT 6SM 23/09 A2977 RMK T02300090 IEM_DS3505
ZBHH,2007-08-13 02:00,ZBHH 130200Z AUTO 15002KT 6SM 25/07 A2977 RMK T02500070 IEM_DS3505
ZBHH,2007-08-13 03:00,ZBHH 130300Z AUTO 07004KT 19SM 27/07 A2977 RMK SLP013 T02690069 57005 IEM_DS3505
ZBHH,2007-08-13 04:00,ZBHH 130400Z AUTO 20004KT 7SM 27/10 A2974 RMK T02700100 IEM_DS3505
ZBHH,2007-08-13 05:00,ZBHH 130500Z AUTO 21004KT 7SM 29/09 A2974 RMK T02900090 IEM_DS3505
ZBHH,2007-08-13 06:00,ZBHH 130600Z AUTO 20004KT 19SM 29/09 A2971 RMK SLP999 T02940090 57015 IEM_DS3505
ZBHH,2007-08-13 07:00,ZBHH 130700Z AUTO 23006KT 7SM 30/09 A2968 RMK T03000090 IEM_DS3505
ZBHH,2007-08-13 08:00,ZBHH 130800Z AUTO 26006KT 7SM 30/06 A2968 RMK T03000060 IEM_DS3505
ZBHH,2007-08-13 09:00,ZBHH 130900Z AUTO 22004KT 19SM 30/08 A2968 RMK SLP989 T03000084 57011 IEM_DS3505
ZBHH,2007-08-13 10:00,ZBHH 131000Z AUTO 20004KT 7SM 29/08 A2968 RMK T02900080 IEM_DS3505
ZBHH,2007-08-13 11:00,ZBHH 131100Z AUTO 16006KT 7SM 27/08 A2971 RMK T02700080 IEM_DS3505
ZBHH,2007-08-13 12:00,ZBHH 131200Z AUTO 09004KT 19SM 27/06 A2974 RMK SLP001 T02660061 52014 IEM_DS3505
ZBHH,2007-08-13 13:00,ZBHH 131300Z AUTO 05006KT 7SM 24/09 A2974 RMK T02400090 IEM_DS3505
ZBHH,2007-08-13 14:00,ZBHH 131400Z AUTO 07004KT 6SM 22/08 A2977 RMK T02200080 IEM_DS3505
ZBHH,2007-08-13 15:00,ZBHH 131500Z AUTO 09004KT 19SM 23/06 A2977 RMK SLP020 T02270065 52019 IEM_DS3505
ZBHH,2007-08-13 16:00,ZBHH 131600Z AUTO 11002KT 6SM 19/09 A2980 RMK T01900090 IEM_DS3505
ZBHH,2007-08-13 17:00,ZBHH 131700Z AUTO 13002KT 6SM 19/09 A2980 RMK T01900090 IEM_DS3505
ZBHH,2007-08-13 18:00,ZBHH 131800Z AUTO 32002KT 19SM 19/09 A2980 RMK SLP031 T01860086 52007 IEM_DS3505
ZBHH,2007-08-13 19:00,ZBHH 131900Z AUTO 00000KT 6SM 18/09 A2980 RMK T01800090 IEM_DS3505
ZBHH,2007-08-13 20:00,ZBHH 132000Z AUTO 09002KT 6SM 16/09 A2980 RMK T01600090 IEM_DS3505
ZBHH,2007-08-13 21:00,ZBHH 132100Z AUTO 09004KT 19SM 17/08 A2980 RMK SLP038 T01670084 52004 IEM_DS3505
ZBHH,2007-08-13 22:00,ZBHH 132200Z AUTO 08004KT 6SM 16/09 A2983 RMK T01600090 IEM_DS3505
ZBHH,2007-08-13 23:00,ZBHH 132300Z AUTO 08004KT 6SM 18/09 A2983 RMK T01800090 IEM_DS3505
ZBHH,2007-08-14 00:00,ZBHH 140000Z AUTO 09006KT 19SM 22/09 A2983 RMK SLP041 T02210093 52006 IEM_DS3505
ZBHH,2007-08-14 01:00,ZBHH 140100Z AUTO 09006KT 6SM 24/10 A2983 RMK T02400100 IEM_DS3505
ZBHH,2007-08-14 02:00,ZBHH 140200Z AUTO 11006KT 6SM 26/08 A2983 RMK T02600080 IEM_DS3505
ZBHH,2007-08-14 03:00,ZBHH 140300Z AUTO 09004KT 19SM 28/08 A2983 RMK SLP034 T02780082 57003 IEM_DS3505
ZBHH,2007-08-14 04:00,ZBHH 140400Z AUTO 14004KT 6SM 29/06 A2980 RMK T02900060 IEM_DS3505
ZBHH,2007-08-14 05:00,ZBHH 140500Z AUTO 20004KT 6SM 30/07 A2980 RMK T03000070 IEM_DS3505
ZBHH,2007-08-14 06:00,ZBHH 140600Z AUTO 04004KT 19SM 31/01 A2977 RMK SLP020 T03100014 57014 IEM_DS3505
ZBHH,2007-08-14 07:00,ZBHH 140700Z AUTO 19004KT 6SM 31/04 A2977 RMK T03100040 IEM_DS3505
ZBHH,2007-08-14 08:00,ZBHH 140800Z AUTO 21004KT 6SM 31/04 A2977 RMK T03100040 IEM_DS3505
ZBHH,2007-08-14 09:00,ZBHH 140900Z AUTO 22002KT 19SM 31/02 A2974 RMK SLP009 T03140017 57012 IEM_DS3505
ZBHH,2007-08-14 10:00,ZBHH 141000Z AUTO 23002KT 6SM 30/05 A2974 RMK T03000050 IEM_DS3505
ZBHH,2007-08-14 11:00,ZBHH 141100Z AUTO 19002KT 6SM 30/06 A2977 RMK T03000060 IEM_DS3505
ZBHH,2007-08-14 12:00,ZBHH 141200Z AUTO 14002KT 19SM 27/06 A2977 RMK SLP016 T02680057 52007 IEM_DS3505
ZBHH,2007-08-14 13:00,ZBHH 141300Z AUTO 07006KT 6SM 24/08 A2980 RMK T02400080 IEM_DS3505
ZBHH,2007-08-14 14:00,ZBHH 141400Z AUTO 09004KT 6SM 22/07 A2980 RMK T02200070 IEM_DS3505
ZBHH,2007-08-14 15:00,ZBHH 141500Z AUTO 02002KT 19SM 22/08 A2983 RMK SLP033 T02220076 52017 IEM_DS3505
ZBHH,2007-08-14 16:00,ZBHH 141600Z AUTO 36002KT 6SM 21/07 A2983 RMK T02100070 IEM_DS3505
ZBHH,2007-08-14 17:00,ZBHH 141700Z AUTO 06002KT 6SM 20/07 A2983 RMK T02000070 IEM_DS3505
ZBHH,2007-08-14 18:00,ZBHH 141800Z AUTO 07004KT 19SM 19/07 A2985 RMK SLP040 T01940072 52007 IEM_DS3505
ZBHH,2007-08-14 19:00,ZBHH 141900Z AUTO 06002KT 6SM 18/08 A2985 RMK T01800080 IEM_DS3505
ZBHH,2007-08-14 20:00,ZBHH 142000Z AUTO 05002KT 6SM 18/08 A2985 RMK T01800080 IEM_DS3505
ZBHH,2007-08-14 21:00,ZBHH 142100Z AUTO 09002KT 19SM 18/09 A2985 RMK SLP046 T01820087 52004 IEM_DS3505
ZBHH,2007-08-14 22:00,ZBHH 142200Z AUTO 08006KT 6SM 15/09 A2985 RMK T01500090 IEM_DS3505
ZBHH,2007-08-14 23:00,ZBHH 142300Z AUTO 08006KT 6SM 18/09 A2985 RMK T01800090 IEM_DS3505
ZBHH,2007-08-15 00:00,ZBHH 150000Z AUTO 09004KT 19SM 22/10 A2988 RMK SLP057 T02250100 52009 IEM_DS3505
ZBHH,2007-08-15 01:00,ZBHH 150100Z AUTO 08002KT 6SM 24/11 A2988 RMK T02400110 IEM_DS3505
ZBHH,2007-08-15 02:00,ZBHH 150200Z AUTO 12002KT 6SM 26/09 A2988 RMK T02600090 IEM_DS3505
ZBHH,2007-08-15 03:00,ZBHH 150300Z AUTO 07004KT 19SM 28/10 A2988 RMK SLP055 T02790097 54000 IEM_DS3505
ZBHH,2007-08-15 04:00,ZBHH 150400Z AUTO 17002KT 6SM 29/11 A2988 RMK T02900110 IEM_DS3505
ZBHH,2007-08-15 05:00,ZBHH 150500Z AUTO 20004KT 6SM 29/11 A2985 RMK T02900110 IEM_DS3505
ZBHH,2007-08-15 06:00,ZBHH 150600Z AUTO 22006KT 19SM 30/09 A2985 RMK SLP047 T02990094 57009 IEM_DS3505
ZBHH,2007-08-15 07:00,ZBHH 150700Z AUTO 22002KT 6SM 32/10 A2985 RMK T03200100 IEM_DS3505
ZBHH,2007-08-15 08:00,ZBHH 150800Z AUTO 23002KT 6SM 32/08 A2983 RMK T03200080 IEM_DS3505
ZBHH,2007-08-15 09:00,ZBHH 150900Z AUTO 32002KT 19SM 32/06 A2983 RMK SLP036 T03150058 57009 IEM_DS3505
ZBHH,2007-08-15 10:00,ZBHH 151000Z AUTO 18002KT 6SM 30/10 A2983 RMK T03000100 IEM_DS3505
ZBHH,2007-08-15 11:00,ZBHH 151100Z AUTO 19002KT 6SM 29/11 A2983 RMK T02900110 IEM_DS3505
ZBHH,2007-08-15 12:00,ZBHH 151200Z AUTO 25002KT 19SM 26/11 A2985 RMK SLP045 T02620108 52007 IEM_DS3505
ZBHH,2007-08-15 13:00,ZBHH 151300Z AUTO 07004KT 6SM 24/09 A2988 RMK T02400090 IEM_DS3505
ZBHH,2007-08-15 14:00,ZBHH 151400Z AUTO 05004KT 6SM 23/10 A2988 RMK T02300100 IEM_DS3505
ZBHH,2007-08-15 15:00,ZBHH 151500Z AUTO 09002KT 19SM 24/08 A2988 RMK SLP057 T02450081 52017 IEM_DS3505
ZBHH,2007-08-15 16:00,ZBHH 151600Z AUTO 05002KT 6SM 22/08 A2991 RMK T02200080 IEM_DS3505
ZBHH,2007-08-15 17:00,ZBHH 151700Z AUTO 02002KT 6SM 20/09 A2994 RMK T02000090 IEM_DS3505
ZBHH,2007-08-15 18:00,ZBHH 151800Z AUTO 29002KT 19SM 22/10 A2994 RMK SLP069 T02240102 52010 IEM_DS3505
ZBHH,2007-08-15 19:00,ZBHH 151900Z AUTO 08002KT 6SM 20/09 A2994 RMK T02000090 IEM_DS3505
ZBHH,2007-08-15 20:00,ZBHH 152000Z AUTO 08004KT 6SM 19/09 A2994 RMK T01900090 IEM_DS3505
ZBHH,2007-08-15 21:00,ZBHH 152100Z AUTO 04004KT 19SM 21/09 A2994 RMK SLP074 T02090089 52005 IEM_DS3505
ZBHH,2007-08-15 22:00,ZBHH 152200Z AUTO 08004KT 6SM 17/10 A2997 RMK T01700100 IEM_DS3505
ZBHH,2007-08-15 23:00,ZBHH 152300Z AUTO 10002KT 6SM 18/11 A2997 RMK T01800110 IEM_DS3505
ZBHH,2007-08-16 00:00,ZBHH 160000Z AUTO 09002KT 19SM 23/11 A2997 RMK SLP092 T02290107 52010 IEM_DS3505
ZBHH,2007-08-16 01:00,ZBHH 160100Z AUTO 13004KT 6SM 24/11 A2997 RMK T02400110 IEM_DS3505
ZBHH,2007-08-16 02:00,ZBHH 160200Z AUTO 22004KT 6SM 25/14 A2997 RMK T02500140 IEM_DS3505
ZBHH,2007-08-16 03:00,ZBHH 160300Z AUTO 20004KT 9SM 27/13 A2997 RMK SLP087 T02670131 57001 IEM_DS3505
ZBHH,2007-08-16 04:00,ZBHH 160400Z AUTO 25006KT 3SM 27/15 A2997 RMK T02700150 IEM_DS3505
ZBHH,2007-08-16 05:00,ZBHH 160500Z AUTO 25006KT 5SM 28/15 A2994 RMK T02800150 IEM_DS3505
ZBHH,2007-08-16 06:00,ZBHH 160600Z AUTO 25006KT 9SM 29/13 A2991 RMK SLP066 T02910129 57018 IEM_DS3505
ZBHH,2007-08-16 07:00,ZBHH 160700Z AUTO 25004KT 7SM 29/14 A2991 RMK T02900140 IEM_DS3505
ZBHH,2007-08-16 08:00,ZBHH 160800Z AUTO 27004KT 5SM 29/14 A2991 RMK T02900140 IEM_DS3505
ZBHH,2007-08-16 09:00,ZBHH 160900Z AUTO 32006KT 19SM 29/09 A2988 RMK SLP059 T02940090 57008 IEM_DS3505
ZBHH,2007-08-16 10:00,ZBHH 161000Z AUTO 16002KT 6SM 29/12 A2991 RMK T02900120 IEM_DS3505
ZBHH,2007-08-16 11:00,ZBHH 161100Z AUTO 21006KT 5SM 25/13 A2991 RMK T02500130 IEM_DS3505
ZBHH,2007-08-16 12:00,ZBHH 161200Z AUTO 09004KT 19SM 26/11 A2994 RMK SLP072 T02590113 52009 IEM_DS3505
ZBHH,2007-08-16 13:00,ZBHH 161300Z AUTO 02004KT 6SM 23/13 A2994 RMK T02300130 IEM_DS3505
ZBHH,2007-08-16 14:00,ZBHH 161400Z AUTO 12004KT 4SM 23/13 A2994 RMK T02300130 IEM_DS3505
ZBHH,2007-08-16 15:00,ZBHH 161500Z AUTO 05004KT 19SM 23/13 A2994 RMK SLP078 T02310130 52007 IEM_DS3505
ZBHH,2007-08-16 16:00,ZBHH 161600Z AUTO 04004KT 4SM 21/13 A2997 RMK T02100130 IEM_DS3505
ZBHH,2007-08-16 17:00,ZBHH 161700Z AUTO 10002KT 4SM 20/13 A2997 RMK T02000130 IEM_DS3505
ZBHH,2007-08-16 18:00,ZBHH 161800Z AUTO 09002KT 19SM 22/13 A2997 RMK SLP082 T02200128 52006 IEM_DS3505
ZBHH,2007-08-16 19:00,ZBHH 161900Z AUTO 06002KT 7SM 19/13 A2997 RMK T01900130 IEM_DS3505
ZBHH,2007-08-16 20:00,ZBHH 162000Z AUTO 08004KT 7SM 18/13 A2997 RMK T01800130 IEM_DS3505
ZBHH,2007-08-16 21:00,ZBHH 162100Z AUTO 07002KT 19SM 20/12 A3000 RMK SLP094 T02000123 52007 IEM_DS3505
ZBHH,2007-08-16 22:00,ZBHH 162200Z AUTO 10004KT 4SM 17/13 A3000 RMK T01700130 IEM_DS3505
ZBHH,2007-08-16 23:00,ZBHH 162300Z AUTO 08004KT 3SM 18/13 A3000 RMK T01800130 IEM_DS3505
ZBHH,2007-08-17 00:00,ZBHH 170000Z AUTO 07004KT 19SM 22/13 A3000 RMK SLP106 T02200128 52008 IEM_DS3505
ZBHH,2007-08-17 01:00,ZBHH 170100Z AUTO 18002KT 3SM 23/14 A3000 RMK T02300140 IEM_DS3505
ZBHH,2007-08-17 02:00,ZBHH 170200Z AUTO 22002KT 3SM 24/15 A3000 RMK T02400150 IEM_DS3505
ZBHH,2007-08-17 03:00,ZBHH 170300Z AUTO 18006KT 9SM 26/13 A3000 RMK SLP099 T02590131 57004 IEM_DS3505
ZBHH,2007-08-17 04:00,ZBHH 170400Z AUTO 22006KT 3SM 26/14 A2997 RMK T02600140 IEM_DS3505
ZBHH,2007-08-17 05:00,ZBHH 170500Z AUTO 23004KT 3SM 28/14 A2997 RMK T02800140 IEM_DS3505
ZBHH,2007-08-17 06:00,ZBHH 170600Z AUTO 27004KT 9SM 29/13 A2994 RMK SLP074 T02930131 57018 IEM_DS3505
ZBHH,2007-08-17 07:00,ZBHH 170700Z AUTO 23004KT 4SM 30/13 A2991 RMK T03000130 IEM_DS3505
ZBHH,2007-08-17 08:00,ZBHH 170800Z AUTO 25006KT 4SM 30/13 A2991 RMK T03000130 IEM_DS3505
ZBHH,2007-08-17 09:00,ZBHH 170900Z AUTO 22004KT 9SM 30/13 A2991 RMK SLP061 T03030127 57013 IEM_DS3505
ZBHH,2007-08-17 10:00,ZBHH 171000Z AUTO 24004KT 4SM 29/11 A2991 RMK T02900110 IEM_DS3505
ZBHH,2007-08-17 11:00,ZBHH 171100Z AUTO 21004KT 4SM 28/11 A2991 RMK T02800110 IEM_DS3505
ZBHH,2007-08-17 12:00,ZBHH 171200Z AUTO 29002KT 12SM 27/10 A2991 RMK SLP065 T02710099 52001 IEM_DS3505
ZBHH,2007-08-17 13:00,ZBHH 171300Z AUTO 03004KT 3SM 24/13 A2991 RMK T02400130 IEM_DS3505
ZBHH,2007-08-17 14:00,ZBHH 171400Z AUTO 09004KT 4SM 23/14 A2991 RMK T02300140 IEM_DS3505
ZBHH,2007-08-17 15:00,ZBHH 171500Z AUTO 09002KT 9SM 25/11 A2994 RMK SLP071 T02460108 52008 IEM_DS3505
ZBHH,2007-08-17 16:00,ZBHH 171600Z AUTO 01004KT 4SM 22/11 A2994 RMK T02200110 IEM_DS3505
ZBHH,2007-08-17 17:00,ZBHH 171700Z AUTO 00000KT 3SM 21/11 A2994 RMK T02100110 IEM_DS3505
ZBHH,2007-08-17 18:00,ZBHH 171800Z AUTO 08002KT 12SM 22/11 A2994 RMK SLP075 T02190110 52005 IEM_DS3505
ZBHH,2007-08-17 19:00,ZBHH 171900Z AUTO 10004KT 4SM 19/12 A2994 RMK T01900120 IEM_DS3505
ZBHH,2007-08-17 20:00,ZBHH 172000Z AUTO 08004KT 4SM 19/12 A2994 RMK T01900120 IEM_DS3505
ZBHH,2007-08-17 21:00,ZBHH 172100Z AUTO 09002KT 12SM 20/11 A2997 RMK SLP082 T02050114 52005 IEM_DS3505
ZBHH,2007-08-17 22:00,ZBHH 172200Z AUTO 03004KT 3SM 19/12 A2997 RMK T01900120 IEM_DS3505
ZBHH,2007-08-17 23:00,ZBHH 172300Z AUTO 03002KT 2 1/2SM 20/13 A2997 RMK T02000130 IEM_DS3505
ZBHH,2007-08-18 00:00,ZBHH 180000Z AUTO 11004KT 12SM 23/13 A2997 RMK SLP091 T02270129 52006 IEM_DS3505
ZBHH,2007-08-18 01:00,ZBHH 180100Z AUTO 14002KT 4SM 24/13 A2997 RMK T02400130 IEM_DS3505
ZBHH,2007-08-18 02:00,ZBHH 180200Z AUTO 21002KT 4SM 25/14 A2997 RMK T02500140 IEM_DS3505
ZBHH,2007-08-18 03:00,ZBHH 180300Z AUTO 14002KT 16SM 27/13 A2997 RMK SLP080 T02710127 57006 IEM_DS3505
ZBHH,2007-08-18 04:00,ZBHH 180400Z AUTO 21002KT 3SM 28/14 A2994 RMK T02800140 IEM_DS3505
ZBHH,2007-08-18 05:00,ZBHH 180500Z AUTO 21004KT 4SM 29/14 A2994 RMK T02900140 IEM_DS3505
ZBHH,2007-08-18 06:00,ZBHH 180600Z AUTO 22006KT 19SM 30/11 A2991 RMK SLP062 T03040109 57015 IEM_DS3505
ZBHH,2007-08-18 07:00,ZBHH 180700Z AUTO 23004KT 4SM 30/13 A2988 RMK T03000130 IEM_DS3505
ZBHH,2007-08-18 08:00,ZBHH 180800Z AUTO 23008KT 5SM 30/13 A2988 RMK T03000130 IEM_DS3505
ZBHH,2007-08-18 09:00,ZBHH 180900Z AUTO 20006KT 19SM 31/12 A2988 RMK SLP047 T03060116 57015 IEM_DS3505
ZBHH,2007-08-18 10:00,ZBHH 181000Z AUTO 25004KT 4SM 30/13 A2985 RMK T03000130 IEM_DS3505
ZBHH,2007-08-18 11:00,ZBHH 181100Z AUTO 19002KT 4SM 28/15 A2985 RMK T02800150 IEM_DS3505
ZBHH,2007-08-18 12:00,ZBHH 181200Z AUTO 14002KT 19SM 27/12 A2985 RMK SLP049 T02720124 57001 IEM_DS3505
ZBHH,2007-08-18 13:00,ZBHH 181300Z AUTO 04004KT 4SM 25/15 A2988 RMK T02500150 IEM_DS3505
ZBHH,2007-08-18 14:00,ZBHH 181400Z AUTO 04002KT 4SM 25/13 A2988 RMK T02500130 IEM_DS3505
ZBHH,2007-08-18 15:00,ZBHH 181500Z AUTO 08004KT 19SM 24/14 A2988 RMK SLP053 T02410145 52006 IEM_DS3505
ZBHH,2007-08-18 16:00,ZBHH 181600Z AUTO 10004KT 4SM 22/13 A2988 RMK T02200130 IEM_DS3505
ZBHH,2007-08-18 17:00,ZBHH 181700Z AUTO 08002KT 4SM 22/13 A2988 RMK T02200130 IEM_DS3505
ZBHH,2007-08-18 18:00,ZBHH 181800Z AUTO 09002KT 19SM 22/12 A2988 RMK SLP055 T02240124 52005 IEM_DS3505
ZBHH,2007-08-18 19:00,ZBHH 181900Z AUTO 10002KT 4SM 20/13 A2991 RMK T02000130 IEM_DS3505
ZBHH,2007-08-18 20:00,ZBHH 182000Z AUTO 07004KT 4SM 20/12 A2991 RMK T02000120 IEM_DS3505
ZBHH,2007-08-18 21:00,ZBHH 182100Z AUTO 09004KT 19SM 21/12 A2994 RMK SLP070 T02100119 52011 IEM_DS3505
ZBHH,2007-08-18 22:00,ZBHH 182200Z AUTO 08006KT 4SM 18/13 A2994 RMK T01800130 IEM_DS3505
ZBHH,2007-08-18 23:00,ZBHH 182300Z AUTO 04002KT 3SM 20/13 A2994 RMK T02000130 IEM_DS3505
ZBHH,2007-08-19 00:00,ZBHH 190000Z AUTO 32002KT 6SM 24/13 A2994 RMK SLP078 T02350134 52005 IEM_DS3505
ZBHH,2007-08-19 01:00,ZBHH 190100Z AUTO 16002KT 3SM 24/14 A2994 RMK T02400140 IEM_DS3505
ZBHH,2007-08-19 02:00,ZBHH 190200Z AUTO 20002KT 3SM 26/14 A2994 RMK T02600140 IEM_DS3505
ZBHH,2007-08-19 03:00,ZBHH 190300Z AUTO 22004G16KT 9SM 28/14 A2994 RMK SLP072 T02770136 57003 IEM_DS3505
ZBHH,2007-08-19 04:00,ZBHH 190400Z AUTO 23004KT 3SM 28/16 A2994 RMK T02800160 IEM_DS3505
ZBHH,2007-08-19 05:00,ZBHH 190500Z AUTO 24006KT 4SM 30/15 A2991 RMK T03000150 IEM_DS3505
ZBHH,2007-08-19 06:00,ZBHH 190600Z AUTO 25006KT 12SM 31/12 A2991 RMK SLP055 T03060120 57013 IEM_DS3505
ZBHH,2007-08-19 07:00,ZBHH 190700Z AUTO 24006KT 4SM 31/13 A2988 RMK T03100130 IEM_DS3505
ZBHH,2007-08-19 08:00,ZBHH 190800Z AUTO 26004KT 4SM 32/13 A2988 RMK T03200130 IEM_DS3505
ZBHH,2007-08-19 09:00,ZBHH 190900Z AUTO 25008KT 19SM 32/11 A2985 RMK SLP042 T03180111 57012 IEM_DS3505
ZBHH,2007-08-19 10:00,ZBHH 191000Z AUTO 23004KT 4SM 31/13 A2985 RMK T03100130 IEM_DS3505
ZBHH,2007-08-19 11:00,ZBHH 191100Z AUTO 18004KT 4SM 29/16 A2985 RMK T02900160 IEM_DS3505
ZBHH,2007-08-19 12:00,ZBHH 191200Z AUTO 22002KT 9SM 30/12 A2985 RMK SLP042 T02990124 52001 IEM_DS3505
ZBHH,2007-08-19 13:00,ZBHH 191300Z AUTO 14002KT 3SM 27/15 A2988 RMK T02700150 IEM_DS3505
ZBHH,2007-08-19 14:00,ZBHH 191400Z AUTO 11002KT 4SM 25/14 A2988 RMK T02500140 IEM_DS3505
ZBHH,2007-08-19 15:00,ZBHH 191500Z AUTO 11002KT 12SM 26/14 A2988 RMK SLP048 T02580140 52006 IEM_DS3505
ZBHH,2007-08-19 16:00,ZBHH 191600Z AUTO 02002KT 4SM 24/14 A2988 RMK T02400140 IEM_DS3505
ZBHH,2007-08-19 17:00,ZBHH 191700Z AUTO 14002KT 4SM 23/15 A2988 RMK T02300150 IEM_DS3505
ZBHH,2007-08-19 18:00,ZBHH 191800Z AUTO 09002KT 12SM 24/14 A2988 RMK SLP050 T02440142 52004 IEM_DS3505
ZBHH,2007-08-19 19:00,ZBHH 191900Z AUTO 09006KT 4SM 22/14 A2991 RMK T02200140 IEM_DS3505
ZBHH,2007-08-19 20:00,ZBHH 192000Z AUTO 14002KT 3SM 22/15 A2991 RMK T02200150 IEM_DS3505
ZBHH,2007-08-19 21:00,ZBHH 192100Z AUTO 04002KT 19SM 23/14 A2991 RMK SLP055 T02280144 52004 IEM_DS3505
ZBHH,2007-08-19 22:00,ZBHH 192200Z AUTO 08002KT 3SM 21/15 A2991 RMK T02100150 IEM_DS3505
ZBHH,2007-08-19 23:00,ZBHH 192300Z AUTO 11002KT 3SM 22/15 A2991 RMK T02200150 IEM_DS3505
ZBHH,2007-08-20 00:00,ZBHH 200000Z AUTO 07002KT 12SM 25/15 A2994 RMK SLP068 T02460147 52011 IEM_DS3505
ZBHH,2007-08-20 01:00,ZBHH 200100Z AUTO 18002KT 3SM 25/14 A2994 RMK T02500140 IEM_DS3505
ZBHH,2007-08-20 02:00,ZBHH 200200Z AUTO 22002KT 3SM 26/16 A2997 RMK T02600160 IEM_DS3505
ZBHH,2007-08-20 03:00,ZBHH 200300Z AUTO 25004KT 19SM 28/16 A2997 RMK SLP076 T02760162 52005 IEM_DS3505
ZBHH,2007-08-20 04:00,ZBHH 200400Z AUTO 23002KT 4SM 29/17 A2994 RMK T02900170 IEM_DS3505
ZBHH,2007-08-20 05:00,ZBHH 200500Z AUTO 23004KT 6SM 31/16 A2994 RMK T03100160 IEM_DS3505
ZBHH,2007-08-20 06:00,ZBHH 200600Z AUTO 16004KT 19SM 32/14 A2991 RMK SLP050 T03210138 57017 IEM_DS3505
ZBHH,2007-08-20 07:00,ZBHH 200700Z AUTO 19002KT 7SM 32/12 A2988 RMK T03200120 IEM_DS3505
ZBHH,2007-08-20 08:00,ZBHH 200800Z AUTO 19002KT 7SM 32/12 A2988 RMK T03200120 IEM_DS3505
ZBHH,2007-08-20 09:00,ZBHH 200900Z AUTO 22004KT 19SM 32/13 A2988 RMK SLP043 T03220129 57009 IEM_DS3505
ZBHH,2007-08-20 10:00,ZBHH 201000Z AUTO 24004KT 6SM 32/13 A2988 RMK T03200130 IEM_DS3505
ZBHH,2007-08-20 11:00,ZBHH 201100Z AUTO 25002KT 6SM 30/15 A2988 RMK T03000150 IEM_DS3505
ZBHH,2007-08-20 12:00,ZBHH 201200Z AUTO 34002KT 19SM 30/13 A2988 RMK SLP049 T02970130 52004 IEM_DS3505
ZBHH,2007-08-20 13:00,ZBHH 201300Z AUTO 04004KT 6SM 26/12 A2991 RMK T02600120 IEM_DS3505
ZBHH,2007-08-20 14:00,ZBHH 201400Z AUTO 06006KT 6SM 26/08 A2991 RMK T02600080 IEM_DS3505
ZBHH,2007-08-20 15:00,ZBHH 201500Z AUTO 04004KT 19SM 25/08 A2991 RMK SLP066 T02460077 52011 IEM_DS3505
ZBHH,2007-08-20 16:00,ZBHH 201600Z AUTO 03004KT 6SM 24/08 A2994 RMK T02400080 IEM_DS3505
ZBHH,2007-08-20 17:00,ZBHH 201700Z AUTO 00000KT 6SM 21/11 A2994 RMK T02100110 IEM_DS3505
ZBHH,2007-08-20 18:00,ZBHH 201800Z AUTO 04002KT 19SM 23/09 A2994 RMK SLP064 T02290090 52004 IEM_DS3505
ZBHH,2007-08-20 19:00,ZBHH 201900Z AUTO 11004KT 6SM 21/08 A2994 RMK T02100080 IEM_DS3505
ZBHH,2007-08-20 20:00,ZBHH 202000Z AUTO 00000KT 6SM 21/08 A2997 RMK T02100080 IEM_DS3505
ZBHH,2007-08-20 21:00,ZBHH 202100Z AUTO 03002KT 19SM 20/09 A2997 RMK SLP082 T01960089 52010 IEM_DS3505
ZBHH,2007-08-20 22:00,ZBHH 202200Z AUTO 09002KT 6SM 19/10 A2997 RMK T01900100 IEM_DS3505
ZBHH,2007-08-20 23:00,ZBHH 202300Z AUTO 10002KT 6SM 22/09 A3000 RMK T02200090 IEM_DS3505
ZBHH,2007-08-21 00:00,ZBHH 210000Z AUTO 36002KT 19SM 25/08 A3000 RMK SLP090 T02480079 52012 IEM_DS3505
ZBHH,2007-08-21 01:00,ZBHH 210100Z AUTO 08008KT 7SM 27/07 A3000 RMK T02700070 IEM_DS3505
ZBHH,2007-08-21 02:00,ZBHH 210200Z AUTO 10010KT 7SM 28/05 A3000 RMK T02800050 IEM_DS3505
ZBHH,2007-08-21 03:00,ZBHH 210300Z AUTO 16002KT 19SM 30/05 A3000 RMK SLP091 T02970051 54000 IEM_DS3505
ZBHH,2007-08-21 04:00,ZBHH 210400Z AUTO 10008KT 7SM 31/03 A2997 RMK T03100030 IEM_DS3505
ZBHH,2007-08-21 05:00,ZBHH 210500Z AUTO 08006KT 7SM 31/03 A2997 RMK T03100030 IEM_DS3505
ZBHH,2007-08-21 06:00,ZBHH 210600Z AUTO 09004KT 19SM 32/03 A2994 RMK SLP067 T03180029 57020 IEM_DS3505
ZBHH,2007-08-21 07:00,ZBHH 210700Z AUTO 03010KT 7SM 31/03 A2994 RMK T03100030 IEM_DS3505
ZBHH,2007-08-21 08:00,ZBHH 210800Z AUTO 02014KT 7SM 28/06 A2994 RMK T02800060 IEM_DS3505
ZBHH,2007-08-21 09:00,ZBHH 210900Z AUTO 02008KT 19SM 29/04 A2994 RMK SLP075 T02880036 57004 IEM_DS3505
ZBHH,2007-08-21 10:00,ZBHH 211000Z AUTO 03008KT 7SM 28/04 A2994 RMK T02800040 IEM_DS3505
ZBHH,2007-08-21 11:00,ZBHH 211100Z AUTO 01010KT 7SM 27/02 A2994 RMK T02700020 IEM_DS3505
ZBHH,2007-08-21 12:00,ZBHH 211200Z AUTO 09004KT 12SM 26/04 A2994 RMK SLP079 T02640042 52008 IEM_DS3505
ZBHH,2007-08-21 13:00,ZBHH 211300Z AUTO 10004KT 7SM 25/07 A2997 RMK T02500070 IEM_DS3505
ZBHH,2007-08-21 14:00,ZBHH 211400Z AUTO 14004KT 7SM 25/07 A2997 RMK T02500070 IEM_DS3505
ZBHH,2007-08-21 15:00,ZBHH 211500Z AUTO 09004KT 12SM 24/07 A2997 RMK SLP082 T02450072 52008 IEM_DS3505
ZBHH,2007-08-21 16:00,ZBHH 211600Z AUTO 08008KT 7SM 24/05 A2997 RMK T02400050 IEM_DS3505
ZBHH,2007-08-21 17:00,ZBHH 211700Z AUTO 07004KT 7SM 23/05 A2997 RMK T02300050 IEM_DS3505
ZBHH,2007-08-21 18:00,ZBHH 211800Z AUTO 32002KT 19SM 22/08 A2997 RMK SLP084 T02150077 54000 IEM_DS3505
ZBHH,2007-08-21 19:00,ZBHH 211900Z AUTO 11006KT 7SM 20/05 A2997 RMK T02000050 IEM_DS3505
ZBHH,2007-08-21 20:00,ZBHH 212000Z AUTO 08006KT 7SM 21/04 A2997 RMK T02100040 IEM_DS3505
ZBHH,2007-08-21 21:00,ZBHH 212100Z AUTO 36002KT 19SM 19/06 A2997 RMK SLP094 T01870055 57001 IEM_DS3505
ZBHH,2007-08-21 22:00,ZBHH 212200Z AUTO 35002KT 7SM 18/05 A3000 RMK T01800050 IEM_DS3505
ZBHH,2007-08-21 23:00,ZBHH 212300Z AUTO 00000KT 7SM 20/07 A3000 RMK T02000070 IEM_DS3505
ZBHH,2007-08-22 00:00,ZBHH 220000Z AUTO 09004KT 19SM 23/06 A3000 RMK SLP101 T02330061 52010 IEM_DS3505
ZBHH,2007-08-22 01:00,ZBHH 220100Z AUTO 10006KT 6SM 26/06 A3000 RMK T02600060 IEM_DS3505
ZBHH,2007-08-22 02:00,ZBHH 220200Z AUTO 15004KT 6SM 26/08 A3000 RMK T02600080 IEM_DS3505
ZBHH,2007-08-22 03:00,ZBHH 220300Z AUTO 20006KT 19SM 26/09 A3000 RMK SLP097 T02640093 57001 IEM_DS3505
ZBHH,2007-08-22 04:00,ZBHH 220400Z AUTO 23006KT 7SM 27/11 A3000 RMK T02700110 IEM_DS3505
ZBHH,2007-08-22 05:00,ZBHH 220500Z AUTO 22006KT 7SM 26/12 A2997 RMK T02600120 IEM_DS3505
ZBHH,2007-08-22 06:00,ZBHH 220600Z AUTO 18004KT 19SM 25/14 A2994 RMK SLP085 T02530135 57018 IEM_DS3505
ZBHH,2007-08-22 07:00,ZBHH 220700Z AUTO 15002KT 5SM 27/14 A2991 RMK T02700140 IEM_DS3505
ZBHH,2007-08-22 08:00,ZBHH 220800Z AUTO 32002KT 6SM 27/15 A2991 RMK T02700150 IEM_DS3505
ZBHH,2007-08-22 09:00,ZBHH 220900Z AUTO 18002KT 16SM 28/14 A2991 RMK SLP069 T02770136 57015 IEM_DS3505
ZBHH,2007-08-22 10:00,ZBHH 221000Z AUTO 04004KT 5SM 27/14 A2988 RMK T02700140 IEM_DS3505
ZBHH,2007-08-22 11:00,ZBHH 221100Z AUTO 02004KT 5SM 26/14 A2988 RMK T02600140 IEM_DS3505
ZBHH,2007-08-22 12:00,ZBHH 221200Z AUTO 09002KT 16SM 25/14 A2988 RMK SLP062 T02520140 57003 IEM_DS3505
ZBHH,2007-08-22 13:00,ZBHH 221300Z AUTO 00000KT 4SM 22/15 A2991 RMK T02200150 IEM_DS3505
ZBHH,2007-08-22 14:00,ZBHH 221400Z AUTO 04002KT 4SM 23/14 A2991 RMK T02300140 IEM_DS3505
ZBHH,2007-08-22 15:00,ZBHH 221500Z AUTO 20002KT 19SM 22/15 A2991 RMK SLP069 T02220146 52007 IEM_DS3505
ZBHH,2007-08-22 16:00,ZBHH 221600Z AUTO 02002KT 4SM 21/14 A2991 RMK T02100140 IEM_DS3505
ZBHH,2007-08-22 17:00,ZBHH 221700Z AUTO 02002KT 4SM 21/14 A2991 RMK T02100140 IEM_DS3505
ZBHH,2007-08-22 18:00,ZBHH 221800Z AUTO 25002KT 19SM 23/14 A2991 RMK SLP066 T02340141 57003 IEM_DS3505
ZBHH,2007-08-22 19:00,ZBHH 221900Z AUTO 25002KT 4SM 21/15 A2991 RMK T02100150 IEM_DS3505
ZBHH,2007-08-22 20:00,ZBHH 222000Z AUTO 00000KT 4SM 19/15 A2991 RMK T01900150 IEM_DS3505
ZBHH,2007-08-22 21:00,ZBHH 222100Z AUTO 25004KT 19SM 23/14 A2991 RMK SLP061 T02280141 57001 IEM_DS3505
ZBHH,2007-08-22 22:00,ZBHH 222200Z AUTO 00000KT 2SM 20/15 A2991 RMK T02000150 IEM_DS3505
ZBHH,2007-08-22 23:00,ZBHH 222300Z AUTO 18004KT 2 1/2SM 21/15 A2991 RMK T02100150 IEM_DS3505
ZBHH,2007-08-23 00:00,ZBHH 230000Z AUTO 22004KT 12SM 23/14 A2994 RMK SLP077 T02290139 52010 IEM_DS3505
ZBHH,2007-08-23 01:00,ZBHH 230100Z AUTO 21006KT 4SM 22/14 A2994 RMK T02200140 IEM_DS3505
ZBHH,2007-08-23 02:00,ZBHH 230200Z AUTO 22006KT 3SM 23/14 A2994 RMK T02300140 IEM_DS3505
ZBHH,2007-08-23 03:00,ZBHH 230300Z AUTO 22006KT 9SM 24/14 A2994 RMK SLP082 T02350142 54000 IEM_DS3505
ZBHH,2007-08-23 04:00,ZBHH 230400Z AUTO 23008KT 3SM 24/15 A2991 RMK T02400150 IEM_DS3505
ZBHH,2007-08-23 05:00,ZBHH 230500Z AUTO 22008KT 3SM 25/16 A2991 RMK T02500160 IEM_DS3505
ZBHH,2007-08-23 06:00,ZBHH 230600Z AUTO 25008KT 9SM 26/16 A2988 RMK SLP060 T02570157 57013 IEM_DS3505
ZBHH,2007-08-23 07:00,ZBHH 230700Z AUTO 25010KT 2 1/2SM 25/16 A2991 RMK T02500160 IEM_DS3505
ZBHH,2007-08-23 08:00,ZBHH 230800Z AUTO 24008KT 2 1/2SM 25/16 A2988 RMK T02500160 IEM_DS3505
ZBHH,2007-08-23 09:00,ZBHH 230900Z AUTO 32006KT 9SM 24/12 A2991 RMK SLP075 T02440117 52009 IEM_DS3505
ZBHH,2007-08-23 10:00,ZBHH 231000Z AUTO 15002KT 4SM 21/16 A2991 RMK T02100160 IEM_DS3505
ZBHH,2007-08-23 11:00,ZBHH 231100Z AUTO 14004KT 2 1/2SM 20/17 A2994 RMK T02000170 IEM_DS3505
ZBHH,2007-08-23 12:00,ZBHH 231200Z AUTO 22006KT 12SM 22/13 A2994 RMK 60000 SLP086 T02240132 52007 IEM_DS3505
ZBHH,2007-08-23 13:00,ZBHH 231300Z AUTO 25002KT 2 1/2SM 20/15 A2997 RMK T02000150 IEM_DS3505
ZBHH,2007-08-23 14:00,ZBHH 231400Z AUTO 21004KT 4SM 19/13 A3000 RMK T01900130 IEM_DS3505
ZBHH,2007-08-23 15:00,ZBHH 231500Z AUTO 20004KT 12SM 19/12 A3000 RMK SLP113 T01920120 52019 IEM_DS3505
ZBHH,2007-08-23 16:00,ZBHH 231600Z AUTO 11002KT 7SM 16/12 A3003 RMK T01600120 IEM_DS3505
ZBHH,2007-08-23 17:00,ZBHH 231700Z AUTO 08004KT 7SM 15/11 A3003 RMK T01500110 IEM_DS3505
ZBHH,2007-08-23 18:00,ZBHH 231800Z AUTO 04004KT 19SM 17/12 A3003 RMK SLP123 T01680117 52008 IEM_DS3505
ZBHH,2007-08-23 19:00,ZBHH 231900Z AUTO 06008KT 7SM 14/10 A3003 RMK T01400100 IEM_DS3505
ZBHH,2007-08-23 20:00,ZBHH 232000Z AUTO 07004KT 7SM 13/10 A3006 RMK T01300100 IEM_DS3505
ZBHH,2007-08-23 21:00,ZBHH 232100Z AUTO 09002KT 19SM 15/10 A3006 RMK 70000 SLP143 T01480104 52012 IEM_DS3505
ZBHH,2007-08-23 22:00,ZBHH 232200Z AUTO 11002KT 7SM 11/09 A3009 RMK T01100090 IEM_DS3505
ZBHH,2007-08-23 23:00,ZBHH 232300Z AUTO 09002KT 5SM 14/10 A3009 RMK T01400100 IEM_DS3505
ZBHH,2007-08-24 00:00,ZBHH 240000Z AUTO 34006KT 19SM 20/02 A3012 RMK 70000 SLP152 T02000019 52014 IEM_DS3505
ZBHH,2007-08-24 01:00,ZBHH 240100Z AUTO 19002KT 6SM 20/07 A3012 RMK T02000070 IEM_DS3505
ZBHH,2007-08-24 02:00,ZBHH 240200Z AUTO 24002KT 6SM 22/04 A3012 RMK T02200040 IEM_DS3505
ZBHH,2007-08-24 03:00,ZBHH 240300Z AUTO 34006KT 19SM 24/00 A3012 RMK SLP154 T02400003 52003 IEM_DS3505
ZBHH,2007-08-24 04:00,ZBHH 240400Z AUTO 31012KT 6SM 25/00 A3009 RMK T02500000 IEM_DS3505
ZBHH,2007-08-24 05:00,ZBHH 240500Z AUTO 25006KT 6SM 26/03 A3009 RMK T02600030 IEM_DS3505
ZBHH,2007-08-24 06:00,ZBHH 240600Z AUTO 25006KT 19SM 27/03 A3009 RMK SLP140 T02680027 57012 IEM_DS3505
ZBHH,2007-08-24 07:00,ZBHH 240700Z AUTO 22008KT 6SM 27/04 A3006 RMK T02700040 IEM_DS3505
ZBHH,2007-08-24 08:00,ZBHH 240800Z AUTO 21008KT 6SM 27/04 A3006 RMK T02700040 IEM_DS3505
ZBHH,2007-08-24 09:00,ZBHH 240900Z AUTO 20006KT 19SM 28/04 A3006 RMK SLP129 T02790036 57011 IEM_DS3505
ZBHH,2007-08-24 10:00,ZBHH 241000Z AUTO 22006KT 6SM 26/05 A3006 RMK T02600050 IEM_DS3505
ZBHH,2007-08-24 11:00,ZBHH 241100Z AUTO 23006KT 6SM 25/05 A3006 RMK T02500050 IEM_DS3505
ZBHH,2007-08-24 12:00,ZBHH 241200Z AUTO 25004KT 19SM 24/04 A3009 RMK SLP137 T02410040 52010 IEM_DS3505
ZBHH,2007-08-24 13:00,ZBHH 241300Z AUTO 06006KT 6SM 21/02 A3012 RMK T02100020 IEM_DS3505
ZBHH,2007-08-24 14:00,ZBHH 241400Z AUTO 04004KT 6SM 20/02 A3012 RMK T02000020 IEM_DS3505
ZBHH,2007-08-24 15:00,ZBHH 241500Z AUTO 27002KT 19SM 18/03 A3012 RMK SLP152 T01850032 52010 IEM_DS3505
ZBHH,2007-08-24 16:00,ZBHH 241600Z AUTO 12004KT 6SM 17/04 A3012 RMK T01700040 IEM_DS3505
ZBHH,2007-08-24 17:00,ZBHH 241700Z AUTO 09004KT 6SM 16/04 A3012 RMK T01600040 IEM_DS3505
ZBHH,2007-08-24 18:00,ZBHH 241800Z AUTO 09004KT 19SM 18/03 A3012 RMK SLP151 T01780033 52003 IEM_DS3505
ZBHH,2007-08-24 19:00,ZBHH 241900Z AUTO 09004KT 6SM 14/04 A3015 RMK T01400040 IEM_DS3505
ZBHH,2007-08-24 20:00,ZBHH 242000Z AUTO 08004KT 6SM 14/04 A3015 RMK T01400040 IEM_DS3505
ZBHH,2007-08-24 21:00,ZBHH 242100Z AUTO 04002KT 19SM 16/04 A3012 RMK SLP153 T01630040 52001 IEM_DS3505
ZBHH,2007-08-24 22:00,ZBHH 242200Z AUTO 14002KT 6SM 14/06 A3015 RMK T01400060 IEM_DS3505
ZBHH,2007-08-24 23:00,ZBHH 242300Z AUTO 00000KT 6SM 17/06 A3015 RMK T01700060 IEM_DS3505
ZBHH,2007-08-25 00:00,ZBHH 250000Z AUTO 09002KT 19SM 21/04 A3015 RMK SLP157 T02120039 52006 IEM_DS3505
ZBHH,2007-08-25 01:00,ZBHH 250100Z AUTO 05002KT 6SM 22/06 A3015 RMK T02200060 IEM_DS3505
ZBHH,2007-08-25 02:00,ZBHH 250200Z AUTO 09006KT 6SM 24/04 A3012 RMK T02400040 IEM_DS3505
ZBHH,2007-08-25 03:00,ZBHH 250300Z AUTO 11002KT 19SM 25/04 A3012 RMK SLP154 T02530039 57006 IEM_DS3505
ZBHH,2007-08-25 04:00,ZBHH 250400Z AUTO 22002KT 7SM 25/05 A3012 RMK T02500050 IEM_DS3505
ZBHH,2007-08-25 05:00,ZBHH 250500Z AUTO 21002KT 7SM 26/05 A3009 RMK T02600050 IEM_DS3505
ZBHH,2007-08-25 06:00,ZBHH 250600Z AUTO 22004KT 12SM 25/03 A3006 RMK SLP131 T02540034 57021 IEM_DS3505
ZBHH,2007-08-25 07:00,ZBHH 250700Z AUTO 24004KT 7SM 24/07 A3006 RMK T02400070 IEM_DS3505
ZBHH,2007-08-25 08:00,ZBHH 250800Z AUTO 22006KT 7SM 23/07 A3009 RMK T02300070 IEM_DS3505
ZBHH,2007-08-25 09:00,ZBHH 250900Z AUTO 18008KT 12SM 21/09 A3009 RMK SLP158 T02110094 52013 IEM_DS3505
ZBHH,2007-08-25 10:00,ZBHH 251000Z AUTO 24004KT 7SM 18/12 A3015 RMK T01800120 IEM_DS3505
ZBHH,2007-08-25 11:00,ZBHH 251100Z AUTO 23002KT 3SM 16/13 A3015 RMK T01600130 IEM_DS3505
ZBHH,2007-08-25 12:00,ZBHH 251200Z AUTO 04002KT 12SM 16/14 A3018 RMK 60012 SLP182 T01600140 52021 IEM_DS3505
ZBHH,2007-08-25 13:00,ZBHH 251300Z AUTO 06004KT 4SM 15/13 A3018 RMK T01500130 IEM_DS3505
ZBHH,2007-08-25 14:00,ZBHH 251400Z AUTO 16002KT 3SM 15/14 A3018 RMK T01500140 IEM_DS3505
ZBHH,2007-08-25 15:00,ZBHH 251500Z AUTO 04004KT 12SM 16/13 A3015 RMK SLP167 T01560134 57007 IEM_DS3505
ZBHH,2007-08-25 16:00,ZBHH 251600Z AUTO 00000KT 3SM 15/14 A3015 RMK T01500140 IEM_DS3505
ZBHH,2007-08-25 17:00,ZBHH 251700Z AUTO 01002KT 3SM 15/13 A3012 RMK T01500130 IEM_DS3505
ZBHH,2007-08-25 18:00,ZBHH 251800Z AUTO 09002KT 12SM 16/13 A3012 RMK 60012 SLP152 T01590132 57012 IEM_DS3505
ZBHH,2007-08-25 19:00,ZBHH 251900Z AUTO 02004KT 3SM 15/14 A3012 RMK T01500140 IEM_DS3505
ZBHH,2007-08-25 20:00,ZBHH 252000Z AUTO 02002KT 3SM 15/13 A3012 RMK T01500130 IEM_DS3505
ZBHH,2007-08-25 21:00,ZBHH 252100Z AUTO 02004KT 9SM 16/13 A3012 RMK 70022 SLP166 T01650130 52005 IEM_DS3505
ZBHH,2007-08-25 22:00,ZBHH 252200Z AUTO 09004KT 7SM 15/13 A3012 RMK T01500130 IEM_DS3505
ZBHH,2007-08-25 23:00,ZBHH 252300Z AUTO 08004KT 7SM 15/13 A3015 RMK T01500130 IEM_DS3505
ZBHH,2007-08-26 00:00,ZBHH 260000Z AUTO 29002KT 19SM 17/13 A3015 RMK 60000 70022 SLP186 T01690130 52009 IEM_DS3505
ZBHH,2007-08-26 01:00,ZBHH 260100Z AUTO 02002KT 7SM 17/13 A3015 RMK T01700130 IEM_DS3505
ZBHH,2007-08-26 02:00,ZBHH 260200Z AUTO 09004KT 7SM 18/12 A3018 RMK T01800120 IEM_DS3505
ZBHH,2007-08-26 03:00,ZBHH 260300Z AUTO 07002KT 19SM 22/12 A3015 RMK SLP178 T02180124 52001 IEM_DS3505
ZBHH,2007-08-26 04:00,ZBHH 260400Z AUTO 13008KT 7SM 22/10 A3015 RMK T02200100 IEM_DS3505
ZBHH,2007-08-26 05:00,ZBHH 260500Z AUTO 12008KT 7SM 23/10 A3012 RMK T02300100 IEM_DS3505
ZBHH,2007-08-26 06:00,ZBHH 260600Z AUTO 14004KT 19SM 24/09 A3009 RMK 60000 SLP156 T02360092 57015 IEM_DS3505
ZBHH,2007-08-26 07:00,ZBHH 260700Z AUTO 08006KT 7SM 24/09 A3009 RMK T02400090 IEM_DS3505
ZBHH,2007-08-26 08:00,ZBHH 260800Z AUTO 21004KT 7SM 23/12 A3009 RMK T02300120 IEM_DS3505
ZBHH,2007-08-26 09:00,ZBHH 260900Z AUTO 18004KT 19SM 23/10 A3009 RMK SLP150 T02320103 57005 IEM_DS3505
ZBHH,2007-08-26 10:00,ZBHH 261000Z AUTO 21002KT 7SM 22/12 A3012 RMK T02200120 IEM_DS3505
ZBHH,2007-08-26 11:00,ZBHH 261100Z AUTO 14002KT 7SM 21/12 A3012 RMK T02100120 IEM_DS3505
ZBHH,2007-08-26 12:00,ZBHH 261200Z AUTO 18002KT 19SM 21/10 A3015 RMK SLP169 T02130099 52014 IEM_DS3505
ZBHH,2007-08-26 13:00,ZBHH 261300Z AUTO 00000KT 7SM 19/11 A3015 RMK T01900110 IEM_DS3505
ZBHH,2007-08-26 14:00,ZBHH 261400Z AUTO 01002KT 7SM 17/13 A3015 RMK T01700130 IEM_DS3505
ZBHH,2007-08-26 15:00,ZBHH 261500Z AUTO 32002KT 16SM 19/12 A3015 RMK SLP172 T01890115 52007 IEM_DS3505
ZBHH,2007-08-26 16:00,ZBHH 261600Z AUTO 10002KT 7SM 16/13 A3015 RMK T01600130 IEM_DS3505
ZBHH,2007-08-26 17:00,ZBHH 261700Z AUTO 00000KT 7SM 16/12 A3015 RMK T01600120 IEM_DS3505
ZBHH,2007-08-26 18:00,ZBHH 261800Z AUTO 04002KT 19SM 16/12 A3015 RMK SLP167 T01570117 57007 IEM_DS3505
ZBHH,2007-08-26 19:00,ZBHH 261900Z AUTO 09002KT 7SM 14/12 A3012 RMK T01400120 IEM_DS3505
ZBHH,2007-08-26 20:00,ZBHH 262000Z AUTO 07002KT 7SM 13/10 A3012 RMK T01300100 IEM_DS3505
ZBHH,2007-08-26 21:00,ZBHH 262100Z AUTO 00000KT 19SM 13/11 A3012 RMK 70000 SLP168 T01340109 57004 IEM_DS3505
ZBHH,2007-08-26 22:00,ZBHH 262200Z AUTO 00000KT 7SM 12/10 A3012 RMK T01200100 IEM_DS3505
ZBHH,2007-08-26 23:00,ZBHH 262300Z AUTO 11004KT 7SM 14/10 A3015 RMK T01400100 IEM_DS3505
ZBHH,2007-08-27 00:00,ZBHH 270000Z AUTO 09002KT 19SM 19/11 A3012 RMK 70000 SLP164 T01860112 52003 IEM_DS3505
ZBHH,2007-08-27 01:00,ZBHH 270100Z AUTO 13002KT 6SM 21/08 A3012 RMK T02100080 IEM_DS3505
ZBHH,2007-08-27 02:00,ZBHH 270200Z AUTO 25002KT 6SM 24/10 A3012 RMK T02400100 IEM_DS3505
ZBHH,2007-08-27 03:00,ZBHH 270300Z AUTO 18002KT 19SM 25/08 A3012 RMK SLP148 T02520078 57007 IEM_DS3505
ZBHH,2007-08-27 04:00,ZBHH 270400Z AUTO 15002KT 6SM 27/08 A3009 RMK T02700080 IEM_DS3505
ZBHH,2007-08-27 05:00,ZBHH 270500Z AUTO 24006KT 6SM 28/07 A3006 RMK T02800070 IEM_DS3505
ZBHH,2007-08-27 06:00,ZBHH 270600Z AUTO 20006KT 19SM 29/05 A3006 RMK SLP123 T02930047 57020 IEM_DS3505
ZBHH,2007-08-27 07:00,ZBHH 270700Z AUTO 16008KT 6SM 30/00 A3003 RMK T03000000 IEM_DS3505
ZBHH,2007-08-27 08:00,ZBHH 270800Z AUTO 13008KT 6SM 30/00 A3003 RMK T03000000 IEM_DS3505
ZBHH,2007-08-27 09:00,ZBHH 270900Z AUTO 09008KT 19SM 29/M01 A3003 RMK SLP113 T02941009 57013 IEM_DS3505
ZBHH,2007-08-27 10:00,ZBHH 271000Z AUTO 14006KT 6SM 28/02 A3000 RMK T02800020 IEM_DS3505
ZBHH,2007-08-27 11:00,ZBHH 271100Z AUTO 16004KT 6SM 25/07 A3003 RMK T02500070 IEM_DS3505
ZBHH,2007-08-27 12:00,ZBHH 271200Z AUTO 16002KT 19SM 26/07 A3003 RMK SLP122 T02550071 52010 IEM_DS3505
ZBHH,2007-08-27 13:00,ZBHH 271300Z AUTO 00000KT 6SM 22/09 A3006 RMK T02200090 IEM_DS3505
ZBHH,2007-08-27 14:00,ZBHH 271400Z AUTO 28002KT 6SM 22/08 A3006 RMK T02200080 IEM_DS3505
ZBHH,2007-08-27 15:00,ZBHH 271500Z AUTO 36002KT 19SM 22/08 A3006 RMK SLP126 T02150084 52009 IEM_DS3505
ZBHH,2007-08-27 16:00,ZBHH 271600Z AUTO 07002KT 6SM 19/10 A3006 RMK T01900100 IEM_DS3505
ZBHH,2007-08-27 17:00,ZBHH 271700Z AUTO 08004KT 6SM 17/10 A3006 RMK T01700100 IEM_DS3505
ZBHH,2007-08-27 18:00,ZBHH 271800Z AUTO 09004KT 19SM 19/09 A3006 RMK SLP120 T01860094 57003 IEM_DS3505
ZBHH,2007-08-27 19:00,ZBHH 271900Z AUTO 10004KT 6SM 16/09 A3006 RMK T01600090 IEM_DS3505
ZBHH,2007-08-27 20:00,ZBHH 272000Z AUTO 11004KT 6SM 15/09 A3006 RMK T01500090 IEM_DS3505
ZBHH,2007-08-27 21:00,ZBHH 272100Z AUTO 09004KT 19SM 18/08 A3003 RMK SLP119 T01750081 57003 IEM_DS3505
ZBHH,2007-08-27 22:00,ZBHH 272200Z AUTO 07004KT 6SM 16/09 A3006 RMK T01600090 IEM_DS3505
ZBHH,2007-08-27 23:00,ZBHH 272300Z AUTO 09002KT 6SM 16/09 A3006 RMK T01600090 IEM_DS3505
ZBHH,2007-08-28 00:00,ZBHH 280000Z AUTO 35002KT 19SM 20/09 A3006 RMK SLP125 T01960089 52002 IEM_DS3505
ZBHH,2007-08-28 01:00,ZBHH 280100Z AUTO 23002KT 7SM 20/10 A3006 RMK T02000100 IEM_DS3505
ZBHH,2007-08-28 02:00,ZBHH 280200Z AUTO 21004KT 7SM 20/11 A3006 RMK T02000110 IEM_DS3505
ZBHH,2007-08-28 15:00,ZBHH 281500Z AUTO 04002KT 19SM 15/10 RMK SLP136 T01530097 57003 IEM_DS3505
ZBHH,2007-08-28 18:00,ZBHH 281800Z AUTO 07002KT 19SM 14/10 RMK SLP132 T01380100 57006 IEM_DS3505
ZBHH,2007-08-28 23:00,ZBHH 282300Z AUTO 00000KT 6SM 12/10 A2997 RMK T01200100 IEM_DS3505
ZBHH,2007-08-29 03:00,ZBHH 290300Z AUTO 04002KT 19SM 20/10 RMK SLP114 T02040099 57009 IEM_DS3505
ZBHH,2007-08-29 05:00,ZBHH 290500Z AUTO 23004KT 6SM 23/11 A2991 RMK T02300110 IEM_DS3505
ZBHH,2007-08-29 06:00,ZBHH 290600Z AUTO 18004KT 19SM 24/10 A2988 RMK SLP086 T02440103 57020 IEM_DS3505
ZBHH,2007-08-29 07:00,ZBHH 290700Z AUTO 26006KT 6SM 24/11 A2988 RMK T02400110 IEM_DS3505
ZBHH,2007-08-29 08:00,ZBHH 290800Z AUTO 18006KT 6SM 25/11 A2985 RMK T02500110 IEM_DS3505
ZBHH,2007-08-29 09:00,ZBHH 290900Z AUTO 20006KT 19SM 24/12 A2985 RMK SLP075 T02380115 57013 IEM_DS3505
ZBHH,2007-08-29 10:00,ZBHH 291000Z AUTO 24006KT 7SM 23/12 A2985 RMK T02300120 IEM_DS3505
ZBHH,2007-08-29 11:00,ZBHH 291100Z AUTO 23004KT 7SM 22/13 A2988 RMK T02200130 IEM_DS3505
ZBHH,2007-08-29 12:00,ZBHH 291200Z AUTO 22002KT 19SM 22/12 A2988 RMK SLP081 T02240121 52009 IEM_DS3505
ZBHH,2007-08-29 13:00,ZBHH 291300Z AUTO 00000KT 7SM 21/13 A2988 RMK T02100130 IEM_DS3505
ZBHH,2007-08-29 14:00,ZBHH 291400Z AUTO 00000KT 7SM 20/14 A2991 RMK T02000140 IEM_DS3505
ZBHH,2007-08-29 15:00,ZBHH 291500Z AUTO 16002KT 19SM 21/13 A2991 RMK SLP084 T02120126 52008 IEM_DS3505
ZBHH,2007-08-29 16:00,ZBHH 291600Z AUTO 00000KT 7SM 19/14 A2991 RMK T01900140 IEM_DS3505
ZBHH,2007-08-29 17:00,ZBHH 291700Z AUTO 04002KT 7SM 18/13 A2991 RMK T01800130 IEM_DS3505
ZBHH,2007-08-29 18:00,ZBHH 291800Z AUTO 07002KT 19SM 18/13 A2991 RMK SLP081 T01850127 54000 IEM_DS3505
ZBHH,2007-08-29 19:00,ZBHH 291900Z AUTO 07002KT 6SM 16/12 A2991 RMK T01600120 IEM_DS3505
ZBHH,2007-08-29 20:00,ZBHH 292000Z AUTO 07002KT 15/12 A2991 RMK T01500120 IEM_DS3505
ZBHH,2007-08-29 21:00,ZBHH 292100Z AUTO 09004KT 19SM 15/12 A2991 RMK SLP091 T01530122 52002 IEM_DS3505
ZBHH,2007-08-29 22:00,ZBHH 292200Z AUTO 06002KT 6SM 15/12 A2991 RMK T01500120 IEM_DS3505
ZBHH,2007-08-29 23:00,ZBHH 292300Z AUTO 07002KT 4SM 16/12 A2991 RMK T01600120 IEM_DS3505
ZBHH,2007-08-30 00:00,ZBHH 300000Z AUTO 14002KT 19SM 19/13 A2991 RMK SLP089 T01940127 52003 IEM_DS3505
ZBHH,2007-08-30 01:00,ZBHH 300100Z AUTO 00000KT 6SM 21/13 A2991 RMK T02100130 IEM_DS3505
ZBHH,2007-08-30 02:00,ZBHH 300200Z AUTO 13002KT 3SM 23/14 A2991 RMK T02300140 IEM_DS3505
ZBHH,2007-08-30 03:00,ZBHH 300300Z AUTO 14002KT 19SM 25/13 A2991 RMK SLP076 T02480127 57004 IEM_DS3505
ZBHH,2007-08-30 04:00,ZBHH 300400Z AUTO 21004KT 5SM 26/13 A2991 RMK T02600130 IEM_DS3505
ZBHH,2007-08-30 05:00,ZBHH 300500Z AUTO 24004KT 7SM 26/13 A2988 RMK T02600130 IEM_DS3505
ZBHH,2007-08-30 06:00,ZBHH 300600Z AUTO 22008KT 16SM 25/13 A2988 RMK SLP072 T02520134 57008 IEM_DS3505
ZBHH,2007-08-30 07:00,ZBHH 300700Z AUTO 25008KT 7SM 25/14 A2988 RMK T02500140 IEM_DS3505
ZBHH,2007-08-30 08:00,ZBHH 300800Z AUTO 27006KT 7SM 26/14 A2988 RMK T02600140 IEM_DS3505
ZBHH,2007-08-30 09:00,ZBHH 300900Z AUTO 27004KT 12SM 25/14 A2988 RMK SLP075 T02490141 57003 IEM_DS3505
ZBHH,2007-08-30 10:00,ZBHH 301000Z AUTO 28006KT 7SM 25/15 A2988 RMK T02500150 IEM_DS3505
ZBHH,2007-08-30 11:00,ZBHH 301100Z AUTO 25002KT 5SM 24/15 A2988 RMK T02400150 IEM_DS3505
ZBHH,2007-08-30 12:00,ZBHH 301200Z AUTO 22002KT 12SM 23/15 A2991 RMK SLP081 T02340147 52010 IEM_DS3505
ZBHH,2007-08-30 13:00,ZBHH 301300Z AUTO 14002KT 3SM 20/16 A2994 RMK T02000160 IEM_DS3505
ZBHH,2007-08-30 14:00,ZBHH 301400Z AUTO 09002KT 3SM 20/15 A2994 RMK T02000150 IEM_DS3505
ZBHH,2007-08-30 15:00,ZBHH 301500Z AUTO 07002KT 12SM 20/15 A2994 RMK SLP088 T02000150 52010 IEM_DS3505
ZBHH,2007-08-30 16:00,ZBHH 301600Z AUTO 17002KT 4SM 20/14 A2994 RMK T02000140 IEM_DS3505
ZBHH,2007-08-30 17:00,ZBHH 301700Z AUTO 35002KT 5SM 18/14 A2994 RMK T01800140 IEM_DS3505
ZBHH,2007-08-30 18:00,ZBHH 301800Z AUTO 07002KT 12SM 19/13 A2994 RMK SLP090 T01900134 54000 IEM_DS3505
ZBHH,2007-08-30 19:00,ZBHH 301900Z AUTO 00000KT 5SM 16/13 A2994 RMK T01600130 IEM_DS3505
ZBHH,2007-08-30 20:00,ZBHH 302000Z AUTO 09004KT 5SM 15/12 A2994 RMK T01500120 IEM_DS3505
ZBHH,2007-08-30 21:00,ZBHH 302100Z AUTO 32002KT 19SM 16/13 A2994 RMK SLP098 T01650134 52002 IEM_DS3505
ZBHH,2007-08-30 22:00,ZBHH 302200Z AUTO 07004KT 4SM 15/12 A2997 RMK T01500120 IEM_DS3505
ZBHH,2007-08-30 23:00,ZBHH 302300Z AUTO 09006KT 4SM 16/13 A2997 RMK T01600130 IEM_DS3505
ZBHH,2007-08-31 00:00,ZBHH 310000Z AUTO 12002KT 12SM 20/13 A2997 RMK SLP103 T02020132 52009 IEM_DS3505
ZBHH,2007-08-31 01:00,ZBHH 310100Z AUTO 13002KT 4SM 21/13 A2997 RMK T02100130 IEM_DS3505
ZBHH,2007-08-31 02:00,ZBHH 310200Z AUTO 23004KT 4SM 23/13 A2997 RMK T02300130 IEM_DS3505
ZBHH,2007-08-31 03:00,ZBHH 310300Z AUTO 22006KT 19SM 24/13 A2997 RMK SLP095 T02430126 57006 IEM_DS3505
ZBHH,2007-08-31 04:00,ZBHH 310400Z AUTO 23004KT 6SM 25/13 A2994 RMK T02500130 IEM_DS3505
ZBHH,2007-08-31 05:00,ZBHH 310500Z AUTO 21008KT 7SM 26/13 A2991 RMK T02600130 IEM_DS3505
ZBHH,2007-08-31 06:00,ZBHH 310600Z AUTO 22006KT 19SM 25/13 A2991 RMK SLP079 T02530129 57014 IEM_DS3505
ZBHH,2007-08-31 07:00,ZBHH 310700Z AUTO 26006KT 5SM 26/13 A2991 RMK T02600130 IEM_DS3505
ZBHH,2007-08-31 08:00,ZBHH 310800Z AUTO 10016G25KT 7SM 23/08 A2991 RMK T02300080 IEM_DS3505
ZBHH,2007-08-31 09:00,ZBHH 310900Z AUTO 09008KT 19SM 22/11 A2994 RMK SLP103 T02150107 52009 IEM_DS3505
ZBHH,2007-08-31 10:00,ZBHH 311000Z AUTO 18004KT 7SM 20/13 A2994 RMK T02000130 IEM_DS3505
ZBHH,2007-08-31 11:00,ZBHH 311100Z AUTO 18004KT 7SM 19/13 A2994 RMK T01900130 IEM_DS3505
ZBHH,2007-08-31 12:00,ZBHH 311200Z AUTO 11004KT 19SM 20/10 A2994 RMK SLP103 T01980102 52004 IEM_DS3505
ZBHH,2007-08-31 13:00,ZBHH 311300Z AUTO 25004KT 7SM 17/12 A2997 RMK T01700120 IEM_DS3505
ZBHH,2007-08-31 14:00,ZBHH 311400Z AUTO 20002KT 7SM 17/13 A2997 RMK T01700130 IEM_DS3505
ZBHH,2007-08-31 15:00,ZBHH 311500Z AUTO 18004KT 19SM 18/11 A3000 RMK SLP107 T01800113 52008 IEM_DS3505
ZBHH,2007-08-31 16:00,ZBHH 311600Z AUTO 11002KT 7SM 15/12 A2997 RMK T01500120 IEM_DS3505
ZBHH,2007-08-31 17:00,ZBHH 311700Z AUTO 12002KT 7SM 15/13 A2997 RMK T01500130 IEM_DS3505
ZBHH,2007-08-31 18:00,ZBHH 311800Z AUTO 09002KT 19SM 16/12 A2997 RMK SLP103 T01600118 57006 IEM_DS3505
ZBHH,2007-08-31 19:00,ZBHH 311900Z AUTO 00000KT 7SM 14/12 A2997 RMK T01400120 IEM_DS3505
ZBHH,2007-08-31 20:00,ZBHH 312000Z AUTO 00000KT 7SM 13/11 A2997 RMK T01300110 IEM_DS3505
ZBHH,2007-08-31 21:00,ZBHH 312100Z AUTO 36002KT 19SM 15/10 A2997 RMK SLP112 T01510103 54000 IEM_DS3505
ZBHH,2007-08-31 22:00,ZBHH 312200Z AUTO 06004KT 7SM 13/10 A2994 RMK T01300100 IEM_DS3505
ZBHH,2007-08-31 23:00,ZBHH 312300Z AUTO 09002KT 7SM 13/10 A2997 RMK T01300100 IEM_DS3505
ZBHH,2007-09-01 00:00,ZBHH 010000Z AUTO 01002KT 19SM 17/11 A2997 RMK SLP116 T01730113 52004 IEM_DS3505
ZBHH,2007-09-01 01:00,ZBHH 010100Z AUTO 15002KT 6SM 18/12 A2997 RMK T01800120 IEM_DS3505
ZBHH,2007-09-01 02:00,ZBHH 010200Z AUTO 15002KT 6SM 20/13 A2997 RMK T02000130 IEM_DS3505
ZBHH,2007-09-01 03:00,ZBHH 010300Z AUTO 20006KT 12SM 22/12 A2997 RMK SLP109 T02150118 57002 IEM_DS3505
ZBHH,2007-09-01 04:00,ZBHH 010400Z AUTO 19002KT 7SM 23/13 A2994 RMK T02300130 IEM_DS3505
ZBHH,2007-09-01 05:00,ZBHH 010500Z AUTO 25004KT 7SM 25/12 A2991 RMK T02500120 IEM_DS3505
ZBHH,2007-09-01 06:00,ZBHH 010600Z AUTO 20006KT 12SM 25/11 A2991 RMK SLP085 T02460112 57019 IEM_DS3505
ZBHH,2007-09-01 07:00,ZBHH 010700Z AUTO 22006KT 7SM 25/12 A2988 RMK T02500120 IEM_DS3505
ZBHH,2007-09-01 08:00,ZBHH 010800Z AUTO 36010KT 4SM 19/12 A2991 RMK T01900120 IEM_DS3505
ZBHH,2007-09-01 09:00,ZBHH 010900Z AUTO 09004KT 19SM 20/11 A2994 RMK SLP102 T02000112 52005 IEM_DS3505
ZBHH,2007-09-01 10:00,ZBHH 011000Z AUTO 13004KT 7SM 18/12 A2994 RMK T01800120 IEM_DS3505
ZBHH,2007-09-01 11:00,ZBHH 011100Z AUTO 24004KT 7SM 16/14 A2997 RMK T01600140 IEM_DS3505
ZBHH,2007-09-01 12:00,ZBHH 011200Z AUTO 07006KT 19SM 19/11 A2997 RMK 60002 SLP117 T01860112 52015 IEM_DS3505
ZBHH,2007-09-01 13:00,ZBHH 011300Z AUTO 06002KT 7SM 17/12 A2997 RMK T01700120 IEM_DS3505
ZBHH,2007-09-01 14:00,ZBHH 011400Z AUTO 02004KT 7SM 16/13 A2997 RMK T01600130 IEM_DS3505
ZBHH,2007-09-01 15:00,ZBHH 011500Z AUTO 03002KT 19SM 18/12 A2997 RMK SLP109 T01780116 57001 IEM_DS3505
ZBHH,2007-09-01 16:00,ZBHH 011600Z AUTO 02004KT 6SM 16/12 A2997 RMK T01600120 IEM_DS3505
ZBHH,2007-09-01 17:00,ZBHH 011700Z AUTO 14002KT 6SM 15/12 A2997 RMK T01500120 IEM_DS3505
ZBHH,2007-09-01 18:00,ZBHH 011800Z AUTO 14002KT 19SM 17/12 A2997 RMK SLP099 T01730116 57004 IEM_DS3505
ZBHH,2007-09-01 19:00,ZBHH 011900Z AUTO 00000KT 6SM 14/12 A2997 RMK T01400120 IEM_DS3505
ZBHH,2007-09-01 20:00,ZBHH 012000Z AUTO 01002KT 6SM 14/13 A2997 RMK T01400130 IEM_DS3505
ZBHH,2007-09-01 21:00,ZBHH 012100Z AUTO 27002KT 19SM 16/12 A2997 RMK 70002 SLP114 T01620122 52003 IEM_DS3505
ZBHH,2007-09-01 22:00,ZBHH 012200Z AUTO 34002KT 4SM 15/13 A2997 RMK T01500130 IEM_DS3505
ZBHH,2007-09-01 23:00,ZBHH 012300Z AUTO 07002KT 4SM 15/13 A2997 RMK T01500130 IEM_DS3505
ZBHH,2007-09-02 00:00,ZBHH 020000Z AUTO 25004KT 19SM 18/12 A3000 RMK 70002 SLP123 T01770119 52008 IEM_DS3505
ZBHH,2007-09-02 01:00,ZBHH 020100Z AUTO 23004KT 7SM 17/12 A3000 RMK T01700120 IEM_DS3505
ZBHH,2007-09-02 02:00,ZBHH 020200Z AUTO 21002KT 7SM 20/13 A3000 RMK T02000130 IEM_DS3505
ZBHH,2007-09-02 03:00,ZBHH 020300Z AUTO 20004KT 19SM 23/11 A3000 RMK SLP112 T02280112 57002 IEM_DS3505
ZBHH,2007-09-02 04:00,ZBHH 020400Z AUTO 14002KT 7SM 25/10 A2997 RMK T02500100 IEM_DS3505
ZBHH,2007-09-02 05:00,ZBHH 020500Z AUTO 36010KT 7SM 21/08 A2997 RMK T02100080 IEM_DS3505
ZBHH,2007-09-02 06:00,ZBHH 020600Z AUTO 32008KT 16SM 20/09 A2997 RMK 60000 SLP111 T01950088 57008 IEM_DS3505
ZBHH,2007-09-02 07:00,ZBHH 020700Z AUTO 33004KT 7SM 22/11 A2994 RMK T02200110 IEM_DS3505
ZBHH,2007-09-02 08:00,ZBHH 020800Z AUTO 12010G25KT 7SM 17/09 A2997 RMK T01700090 IEM_DS3505
ZBHH,2007-09-02 09:00,ZBHH 020900Z AUTO 29004KT 19SM 20/09 A2997 RMK SLP116 T02030092 52004 IEM_DS3505
ZBHH,2007-09-02 10:00,ZBHH 021000Z AUTO 09006KT 7SM 18/12 A3000 RMK T01800120 IEM_DS3505
ZBHH,2007-09-02 11:00,ZBHH 021100Z AUTO 00000KT 7SM 18/12 A3003 RMK T01800120 IEM_DS3505
ZBHH,2007-09-02 12:00,ZBHH 021200Z AUTO 00000KT 19SM 18/10 A3003 RMK 60000 SLP141 T01760098 52020 IEM_DS3505
ZBHH,2007-09-02 13:00,ZBHH 021300Z AUTO 03006KT 7SM 15/11 A3006 RMK T01500110 IEM_DS3505
ZBHH,2007-09-02 14:00,ZBHH 021400Z AUTO 02006KT 7SM 14/10 A3006 RMK T01400100 IEM_DS3505
ZBHH,2007-09-02 15:00,ZBHH 021500Z AUTO 36002KT 19SM 16/10 A3006 RMK SLP138 T01560097 52003 IEM_DS3505
ZBHH,2007-09-02 16:00,ZBHH 021600Z AUTO 00000KT 6SM 13/10 A3006 RMK T01300100 IEM_DS3505
ZBHH,2007-09-02 17:00,ZBHH 021700Z AUTO 10004KT 6SM 12/09 A3006 RMK T01200090 IEM_DS3505
ZBHH,2007-09-02 18:00,ZBHH 021800Z AUTO 07002KT 19SM 12/08 A3006 RMK SLP154 T01240079 52002 IEM_DS3505
ZBHH,2007-09-02 19:00,ZBHH 021900Z AUTO 05002KT 6SM 10/09 A3006 RMK T01000090 IEM_DS3505
ZBHH,2007-09-02 20:00,ZBHH 022000Z AUTO 07002KT 6SM 10/07 A3006 RMK T01000070 IEM_DS3505
ZBHH,2007-09-02 21:00,ZBHH 022100Z AUTO 03002KT 19SM 10/08 A3009 RMK 70001 SLP166 T01050077 52008 IEM_DS3505
ZBHH,2007-09-02 22:00,ZBHH 022200Z AUTO 04002KT 6SM 09/05 A3009 RMK T00900050 IEM_DS3505
ZBHH,2007-09-02 23:00,ZBHH 022300Z AUTO 08006KT 6SM 10/04 A3009 RMK T01000040 IEM_DS3505
ZBHH,2007-09-03 00:00,ZBHH 030000Z AUTO 04002KT 19SM 16/02 A3009 RMK 70001 SLP165 T01610022 52005 IEM_DS3505
ZBHH,2007-09-03 01:00,ZBHH 030100Z AUTO 00000KT 6SM 18/04 A3009 RMK T01800040 IEM_DS3505
ZBHH,2007-09-03 02:00,ZBHH 030200Z AUTO 15002KT 6SM 20/03 A3009 RMK T02000030 IEM_DS3505
ZBHH,2007-09-03 03:00,ZBHH 030300Z AUTO 04004KT 19SM 23/M02 A3009 RMK SLP151 T02331016 57003 IEM_DS3505
ZBHH,2007-09-03 04:00,ZBHH 030400Z AUTO 15006G16KT 6SM 23/03 A3006 RMK T02300030 IEM_DS3505
ZBHH,2007-09-03 05:00,ZBHH 030500Z AUTO 15006KT 6SM 24/03 A3006 RMK T02400030 IEM_DS3505
ZBHH,2007-09-03 06:00,ZBHH 030600Z AUTO 29004KT 19SM 26/01 A3003 RMK SLP138 T02560010 57013 IEM_DS3505
ZBHH,2007-09-03 07:00,ZBHH 030700Z AUTO 11004KT 7SM 25/03 A3003 RMK T02500030 IEM_DS3505
ZBHH,2007-09-03 08:00,ZBHH 030800Z AUTO 17006KT 7SM 25/03 A3003 RMK T02500030 IEM_DS3505
ZBHH,2007-09-03 09:00,ZBHH 030900Z AUTO 11002KT 19SM 26/M00 A3000 RMK SLP129 T02591002 57011 IEM_DS3505
ZBHH,2007-09-03 10:00,ZBHH 031000Z AUTO 17002KT 7SM 25/03 A3000 RMK T02500030 IEM_DS3505
ZBHH,2007-09-03 11:00,ZBHH 031100Z AUTO 17002KT 6SM 22/07 A3003 RMK T02200070 IEM_DS3505
ZBHH,2007-09-03 12:00,ZBHH 031200Z AUTO 07004KT 19SM 21/04 A3003 RMK SLP136 T02080035 52007 IEM_DS3505
ZBHH,2007-09-03 13:00,ZBHH 031300Z AUTO 03006KT 6SM 17/01 A3006 RMK T01700010 IEM_DS3505
ZBHH,2007-09-03 14:00,ZBHH 031400Z AUTO 09004KT 6SM 16/M01 A3006 RMK T01601010 IEM_DS3505
ZBHH,2007-09-03 15:00,ZBHH 031500Z AUTO 07004KT 19SM 18/M03 A3009 RMK SLP143 T01791029 52015 IEM_DS3505
ZBHH,2007-09-03 16:00,ZBHH 031600Z AUTO 09002KT 6SM 14/02 A3009 RMK T01400020 IEM_DS3505
ZBHH,2007-09-03 17:00,ZBHH 031700Z AUTO 12004KT 6SM 12/03 A3009 RMK T01200030 IEM_DS3505
ZBHH,2007-09-03 18:00,ZBHH 031800Z AUTO 36002KT 19SM 13/M00 A3009 RMK SLP155 T01271005 52005 IEM_DS3505
ZBHH,2007-09-03 19:00,ZBHH 031900Z AUTO 00000KT 6SM 10/03 A3009 RMK T01000030 IEM_DS3505
ZBHH,2007-09-03 20:00,ZBHH 032000Z AUTO 03002KT 6SM 10/02 A3009 RMK T01000020 IEM_DS3505
ZBHH,2007-09-03 21:00,ZBHH 032100Z AUTO 11002KT 19SM 11/01 A3009 RMK SLP158 T01120009 54000 IEM_DS3505
ZBHH,2007-09-03 22:00,ZBHH 032200Z AUTO 09002KT 6SM 09/01 A3012 RMK T00900010 IEM_DS3505
ZBHH,2007-09-03 23:00,ZBHH 032300Z AUTO 07004KT 6SM 10/02 A3012 RMK T01000020 IEM_DS3505
ZBHH,2007-09-04 00:00,ZBHH 040000Z AUTO 07002KT 19SM 17/M00 A3012 RMK SLP166 T01691003 52008 IEM_DS3505
ZBHH,2007-09-04 01:00,ZBHH 040100Z AUTO 06002KT 6SM 18/01 A3012 RMK T01800010 IEM_DS3505
ZBHH,2007-09-04 02:00,ZBHH 040200Z AUTO 14002KT 6SM 21/05 A3012 RMK T02100050 IEM_DS3505
ZBHH,2007-09-04 03:00,ZBHH 040300Z AUTO 11002KT 19SM 23/03 A3012 RMK SLP156 T02310031 57002 IEM_DS3505
ZBHH,2007-09-04 04:00,ZBHH 040400Z AUTO 26002KT 7SM 24/01 A3009 RMK T02400010 IEM_DS3505
ZBHH,2007-09-04 05:00,ZBHH 040500Z AUTO 30002KT 7SM 25/00 A3009 RMK T02500000 IEM_DS3505
ZBHH,2007-09-04 06:00,ZBHH 040600Z AUTO 11004KT 19SM 26/M01 A3006 RMK SLP140 T02641006 57018 IEM_DS3505
ZBHH,2007-09-04 07:00,ZBHH 040700Z AUTO 29002KT 7SM 26/01 A3003 RMK T02600010 IEM_DS3505
ZBHH,2007-09-04 08:00,ZBHH 040800Z AUTO 21002KT 7SM 26/02 A3003 RMK T02600020 IEM_DS3505
ZBHH,2007-09-04 09:00,ZBHH 040900Z AUTO 22004KT 19SM 26/00 A3003 RMK SLP125 T02630001 57016 IEM_DS3505
ZBHH,2007-09-04 10:00,ZBHH 041000Z AUTO 22004KT 7SM 25/04 A3003 RMK T02500040 IEM_DS3505
ZBHH,2007-09-04 11:00,ZBHH 041100Z AUTO 21002KT 6SM 22/06 A3003 RMK T02200060 IEM_DS3505
ZBHH,2007-09-04 12:00,ZBHH 041200Z AUTO 25002KT 19SM 23/01 A3003 RMK SLP130 T02270011 52008 IEM_DS3505
ZBHH,2007-09-04 13:00,ZBHH 041300Z AUTO 05004KT 6SM 18/06 A3006 RMK T01800060 IEM_DS3505
ZBHH,2007-09-04 15:00,ZBHH 041500Z AUTO 09004KT 19SM 18/05 A3009 RMK SLP144 T01770053 52015 IEM_DS3505
ZBHH,2007-09-04 16:00,ZBHH 041600Z AUTO 05004KT 6SM 15/05 A3009 RMK T01500050 IEM_DS3505
ZBHH,2007-09-04 17:00,ZBHH 041700Z AUTO 05002KT 6SM 14/05 A3009 RMK T01400050 IEM_DS3505
ZBHH,2007-09-04 18:00,ZBHH 041800Z AUTO 05002KT 19SM 14/05 A3009 RMK SLP149 T01410049 52004 IEM_DS3505
ZBHH,2007-09-04 19:00,ZBHH 041900Z AUTO 09004KT 6SM 12/06 A3009 RMK T01200060 IEM_DS3505
ZBHH,2007-09-04 20:00,ZBHH 042000Z AUTO 02002KT 6SM 13/04 A3009 RMK T01300040 IEM_DS3505
ZBHH,2007-09-04 21:00,ZBHH 042100Z AUTO 09002KT 19SM 13/05 A3009 RMK SLP152 T01320049 54000 IEM_DS3505
ZBHH,2007-09-04 22:00,ZBHH 042200Z AUTO 11002KT 6SM 11/05 A3012 RMK T01100050 IEM_DS3505
ZBHH,2007-09-04 23:00,ZBHH 042300Z AUTO 08004KT 6SM 12/05 A3012 RMK T01200050 IEM_DS3505
ZBHH,2007-09-05 00:00,ZBHH 050000Z AUTO 09002KT 19SM 18/05 A3012 RMK SLP159 T01850054 52010 IEM_DS3505
ZBHH,2007-09-05 01:00,ZBHH 050100Z AUTO 09002KT 6SM 19/06 A3012 RMK T01900060 IEM_DS3505
ZBHH,2007-09-05 02:00,ZBHH 050200Z AUTO 26002KT 6SM 21/07 A3012 RMK T02100070 IEM_DS3505
ZBHH,2007-09-05 03:00,ZBHH 050300Z AUTO 09004KT 19SM 23/08 A3012 RMK SLP161 T02290078 54000 IEM_DS3505
ZBHH,2007-09-05 04:00,ZBHH 050400Z AUTO 26002KT 7SM 24/08 A3012 RMK T02400080 IEM_DS3505
ZBHH,2007-09-05 05:00,ZBHH 050500Z AUTO 14004KT 7SM 25/05 A3009 RMK T02500050 IEM_DS3505
ZBHH,2007-09-05 06:00,ZBHH 050600Z AUTO 16006KT 19SM 26/02 A3006 RMK SLP143 T02560023 57017 IEM_DS3505
ZBHH,2007-09-05 07:00,ZBHH 050700Z AUTO 19008KT 7SM 26/02 A3006 RMK T02600020 IEM_DS3505
ZBHH,2007-09-05 08:00,ZBHH 050800Z AUTO 19006KT 7SM 26/03 A3003 RMK T02600030 IEM_DS3505
ZBHH,2007-09-05 09:00,ZBHH 050900Z AUTO 09004KT 19SM 26/00 A3006 RMK SLP135 T02550002 57009 IEM_DS3505
ZBHH,2007-09-05 10:00,ZBHH 051000Z AUTO 19002KT 7SM 25/01 A3006 RMK T02500010 IEM_DS3505
ZBHH,2007-09-05 11:00,ZBHH 051100Z AUTO 21002KT 7SM 23/05 A3006 RMK T02300050 IEM_DS3505
ZBHH,2007-09-05 12:00,ZBHH 051200Z AUTO 00000KT 19SM 21/02 A3006 RMK SLP140 T02130021 52006 IEM_DS3505
ZBHH,2007-09-05 13:00,ZBHH 051300Z AUTO 02006KT 6SM 18/04 A3006 RMK T01800040 IEM_DS3505
ZBHH,2007-09-05 14:00,ZBHH 051400Z AUTO 10004KT 6SM 16/05 A3009 RMK T01600050 IEM_DS3505
ZBHH,2007-09-05 15:00,ZBHH 051500Z AUTO 05002KT 6SM 17/03 A3009 RMK T01700030 IEM_DS3505
ZBHH,2007-09-05 16:00,ZBHH 051600Z AUTO 07002KT 6SM 15/04 A3009 RMK T01500040 IEM_DS3505
ZBHH,2007-09-05 17:00,ZBHH 051700Z AUTO 03002KT 6SM 15/04 A3009 RMK T01500040 IEM_DS3505
ZBHH,2007-09-05 18:00,ZBHH 051800Z AUTO 07002KT 19SM 16/04 A3009 RMK SLP144 T01570035 52002 IEM_DS3505
ZBHH,2007-09-05 20:00,ZBHH 052000Z AUTO 04004KT 6SM 13/04 A3009 RMK T01300040 IEM_DS3505
ZBHH,2007-09-05 21:00,ZBHH 052100Z AUTO 07002KT 19SM 12/04 A3009 RMK SLP153 T01240041 52001 IEM_DS3505
ZBHH,2007-09-05 22:00,ZBHH 052200Z AUTO 09004KT 6SM 11/04 A3009 RMK T01100040 IEM_DS3505
ZBHH,2007-09-05 23:00,ZBHH 052300Z AUTO 09004KT 6SM 12/04 A3009 RMK T01200040 IEM_DS3505
ZBHH,2007-09-06 00:00,ZBHH 060000Z AUTO 07002KT 19SM 18/05 A3009 RMK SLP155 T01780047 52004 IEM_DS3505
ZBHH,2007-09-06 01:00,ZBHH 060100Z AUTO 09002KT 6SM 19/04 A3009 RMK T01900040 IEM_DS3505
ZBHH,2007-09-06 02:00,ZBHH 060200Z AUTO 10004KT 6SM 22/04 A3009 RMK T02200040 IEM_DS3505
ZBHH,2007-09-06 03:00,ZBHH 060300Z AUTO 16002KT 19SM 25/M05 A3009 RMK SLP139 T02471046 57007 IEM_DS3505
ZBHH,2007-09-06 04:00,ZBHH 060400Z AUTO 27002KT 7SM 26/01 A3006 RMK T02600010 IEM_DS3505
ZBHH,2007-09-06 05:00,ZBHH 060500Z AUTO 25004KT 7SM 26/02 A3003 RMK T02600020 IEM_DS3505
ZBHH,2007-09-06 06:00,ZBHH 060600Z AUTO 14004KT 19SM 27/01 A3000 RMK SLP108 T02740010 57027 IEM_DS3505
ZBHH,2007-09-06 07:00,ZBHH 060700Z AUTO 15002KT 7SM 28/02 A2997 RMK T02800020 IEM_DS3505
ZBHH,2007-09-06 08:00,ZBHH 060800Z AUTO 08004KT 7SM 28/02 A2994 RMK T02800020 IEM_DS3505
ZBHH,2007-09-06 09:00,ZBHH 060900Z AUTO 16004KT 19SM 28/M01 A2994 RMK SLP094 T02811009 57017 IEM_DS3505
ZBHH,2007-09-06 10:00,ZBHH 061000Z AUTO 21006KT 7SM 27/02 A2994 RMK T02700020 IEM_DS3505
ZBHH,2007-09-06 11:00,ZBHH 061100Z AUTO 21002KT 6SM 24/03 A2997 RMK T02400030 IEM_DS3505
ZBHH,2007-09-06 12:00,ZBHH 061200Z AUTO 16002KT 19SM 25/01 A2997 RMK SLP105 T02470009 52013 IEM_DS3505
ZBHH,2007-09-06 13:00,ZBHH 061300Z AUTO 07002KT 6SM 22/02 A3000 RMK T02200020 IEM_DS3505
ZBHH,2007-09-06 14:00,ZBHH 061400Z AUTO 02006KT 6SM 19/03 A3000 RMK T01900030 IEM_DS3505
ZBHH,2007-09-06 15:00,ZBHH 061500Z AUTO 04004KT 19SM 20/03 A3000 RMK SLP109 T02020030 52008 IEM_DS3505
ZBHH,2007-09-06 16:00,ZBHH 061600Z AUTO 12002KT 6SM 16/03 A3000 RMK T01600030 IEM_DS3505
ZBHH,2007-09-06 17:00,ZBHH 061700Z AUTO 10004KT 6SM 16/04 A3000 RMK T01600040 IEM_DS3505
ZBHH,2007-09-06 18:00,ZBHH 061800Z AUTO 07002KT 19SM 17/03 A3000 RMK SLP110 T01720031 52001 IEM_DS3505
ZBHH,2007-09-06 19:00,ZBHH 061900Z AUTO 02004KT 6SM 15/03 A3000 RMK T01500030 IEM_DS3505
ZBHH,2007-09-06 20:00,ZBHH 062000Z AUTO 09004KT 6SM 13/04 A3000 RMK T01300040 IEM_DS3505
ZBHH,2007-09-06 21:00,ZBHH 062100Z AUTO 06002KT 19SM 16/04 A3000 RMK SLP111 T01580042 57001 IEM_DS3505
ZBHH,2007-09-06 22:00,ZBHH 062200Z AUTO 08004KT 6SM 13/04 A3000 RMK T01300040 IEM_DS3505
ZBHH,2007-09-06 23:00,ZBHH 062300Z AUTO 07002KT 6SM 14/04 A3000 RMK T01400040 IEM_DS3505
ZBHH,2007-09-07 00:00,ZBHH 070000Z AUTO 34002KT 19SM 18/04 A3000 RMK SLP113 T01850036 52001 IEM_DS3505
ZBHH,2007-09-07 01:00,ZBHH 070100Z AUTO 10002KT 6SM 20/04 A3000 RMK T02000040 IEM_DS3505
ZBHH,2007-09-07 02:00,ZBHH 070200Z AUTO 05002KT 6SM 23/04 A3000 RMK T02300040 IEM_DS3505
ZBHH,2007-09-07 03:00,ZBHH 070300Z AUTO 36004KT 19SM 25/03 A2997 RMK SLP101 T02530033 57007 IEM_DS3505
ZBHH,2007-09-07 04:00,ZBHH 070400Z AUTO 7SM 27/02 A2997 RMK T02700020 IEM_DS3505
ZBHH,2007-09-07 05:00,ZBHH 070500Z AUTO 17008KT 7SM 28/01 A2994 RMK T02800010 IEM_DS3505
ZBHH,2007-09-07 06:00,ZBHH 070600Z AUTO 16004KT 19SM 30/M01 A2991 RMK SLP078 T02951008 57018 IEM_DS3505
ZBHH,2007-09-07 07:00,ZBHH 070700Z AUTO 11006KT 7SM 28/01 A2991 RMK T02800010 IEM_DS3505
ZBHH,2007-09-07 08:00,ZBHH 070800Z AUTO 24004KT 7SM 29/01 A2988 RMK T02900010 IEM_DS3505
ZBHH,2007-09-07 09:00,ZBHH 070900Z AUTO 25004KT 19SM 28/M02 A2988 RMK SLP073 T02811019 57009 IEM_DS3505
ZBHH,2007-09-07 10:00,ZBHH 071000Z AUTO 28004KT 7SM 27/00 A2988 RMK T02700000 IEM_DS3505
ZBHH,2007-09-07 11:00,ZBHH 071100Z AUTO 23002KT 7SM 25/02 A2991 RMK T02500020 IEM_DS3505
ZBHH,2007-09-07 12:00,ZBHH 071200Z AUTO 25004KT 19SM 24/02 A2994 RMK SLP085 T02380020 52007 IEM_DS3505
ZBHH,2007-09-07 13:00,ZBHH 071300Z AUTO 09004KT 7SM 20/02 A2994 RMK T02000020 IEM_DS3505
ZBHH,2007-09-07 14:00,ZBHH 071400Z AUTO 08004KT 6SM 19/00 A2994 RMK T01900000 IEM_DS3505
ZBHH,2007-09-07 15:00,ZBHH 071500Z AUTO 04004KT 19SM 20/01 A2997 RMK SLP092 T01960006 52011 IEM_DS3505
ZBHH,2007-09-07 16:00,ZBHH 071600Z AUTO 09002KT 6SM 16/02 A2997 RMK T01600020 IEM_DS3505
ZBHH,2007-09-07 17:00,ZBHH 071700Z AUTO 00000KT 6SM 15/04 A2997 RMK T01500040 IEM_DS3505
ZBHH,2007-09-07 18:00,ZBHH 071800Z AUTO 09004KT 19SM 16/00 A2997 RMK SLP095 T01630004 52005 IEM_DS3505
ZBHH,2007-09-07 19:00,ZBHH 071900Z AUTO 11002KT 6SM 14/02 A2997 RMK T01400020 IEM_DS3505
ZBHH,2007-09-07 20:00,ZBHH 072000Z AUTO 12002KT 6SM 13/02 A2997 RMK T01300020 IEM_DS3505
ZBHH,2007-09-07 21:00,ZBHH 072100Z AUTO 09002KT 19SM 14/02 A3000 RMK SLP108 T01420015 52005 IEM_DS3505
ZBHH,2007-09-07 22:00,ZBHH 072200Z AUTO 09006KT 6SM 10/02 A3000 RMK T01000020 IEM_DS3505
ZBHH,2007-09-07 23:00,ZBHH 072300Z AUTO 07002KT 6SM 12/02 A3000 RMK T01200020 IEM_DS3505
ZBHH,2007-09-08 00:00,ZBHH 080000Z AUTO 09004KT 19SM 18/M00 A3003 RMK SLP123 T01751003 52011 IEM_DS3505
ZBHH,2007-09-08 01:00,ZBHH 080100Z AUTO 23002KT 6SM 19/03 A3003 RMK T01900030 IEM_DS3505
ZBHH,2007-09-08 02:00,ZBHH 080200Z AUTO 22002KT 6SM 20/06 A3003 RMK T02000060 IEM_DS3505
ZBHH,2007-09-08 03:00,ZBHH 080300Z AUTO 18002KT 19SM 23/05 A3000 RMK SLP115 T02320047 57004 IEM_DS3505
ZBHH,2007-09-08 04:00,ZBHH 080400Z AUTO 23004KT 7SM 25/06 A2997 RMK T02500060 IEM_DS3505
ZBHH,2007-09-08 05:00,ZBHH 080500Z AUTO 21004KT 7SM 27/02 A2994 RMK T02700020 IEM_DS3505
ZBHH,2007-09-08 06:00,ZBHH 080600Z AUTO 20006KT 19SM 29/01 A2994 RMK SLP085 T02890006 57022 IEM_DS3505
ZBHH,2007-09-08 07:00,ZBHH 080700Z AUTO 33002KT 7SM 30/00 A2991 RMK T03000000 IEM_DS3505
ZBHH,2007-09-08 08:00,ZBHH 080800Z AUTO 16004KT 7SM 29/M01 A2991 RMK T02901010 IEM_DS3505
ZBHH,2007-09-08 09:00,ZBHH 080900Z AUTO 27004KT 19SM 29/M02 A2991 RMK SLP078 T02921020 57010 IEM_DS3505
ZBHH,2007-09-08 10:00,ZBHH 081000Z AUTO 18002KT 7SM 27/01 A2991 RMK T02700010 IEM_DS3505
ZBHH,2007-09-08 11:00,ZBHH 081100Z AUTO 07002KT 6SM 24/03 A2991 RMK T02400030 IEM_DS3505
ZBHH,2007-09-08 12:00,ZBHH 081200Z AUTO 04002KT 19SM 24/03 A2994 RMK SLP095 T02370031 52011 IEM_DS3505
ZBHH,2007-09-08 13:00,ZBHH 081300Z AUTO 09004KT 6SM 19/01 A2997 RMK T01900010 IEM_DS3505
ZBHH,2007-09-08 14:00,ZBHH 081400Z AUTO 08004KT 6SM 20/00 A2997 RMK T02000000 IEM_DS3505
ZBHH,2007-09-08 15:00,ZBHH 081500Z AUTO 02002KT 19SM 19/M00 A3000 RMK SLP111 T01931001 52017 IEM_DS3505
ZBHH,2007-09-08 16:00,ZBHH 081600Z AUTO 03002KT 6SM 17/00 A3000 RMK T01700000 IEM_DS3505
ZBHH,2007-09-08 17:00,ZBHH 081700Z AUTO 03010KT 6SM 16/00 A3000 RMK T01600000 IEM_DS3505
ZBHH,2007-09-08 18:00,ZBHH 081800Z AUTO 10004KT 19SM 15/02 A3003 RMK SLP115 T01540022 52007 IEM_DS3505
ZBHH,2007-09-08 19:00,ZBHH 081900Z AUTO 10004KT 6SM 13/00 A3003 RMK T01300000 IEM_DS3505
ZBHH,2007-09-08 20:00,ZBHH 082000Z AUTO 09004KT 6SM 12/01 A3000 RMK T01200010 IEM_DS3505
ZBHH,2007-09-08 21:00,ZBHH 082100Z AUTO 10006KT 19SM 13/02 A3000 RMK SLP118 T01300020 57002 IEM_DS3505
ZBHH,2007-09-08 22:00,ZBHH 082200Z AUTO 08004KT 6SM 11/01 A3003 RMK T01100010 IEM_DS3505
ZBHH,2007-09-08 23:00,ZBHH 082300Z AUTO 09004KT 6SM 14/01 A3003 RMK T01400010 IEM_DS3505
ZBHH,2007-09-09 00:00,ZBHH 090000Z AUTO 27002KT 19SM 18/03 A3006 RMK SLP133 T01800027 52013 IEM_DS3505
ZBHH,2007-09-09 01:00,ZBHH 090100Z AUTO 14002KT 6SM 19/02 A3006 RMK T01900020 IEM_DS3505
ZBHH,2007-09-09 02:00,ZBHH 090200Z AUTO 00000KT 7SM 20/02 A3006 RMK T02000020 IEM_DS3505
ZBHH,2007-09-09 03:00,ZBHH 090300Z AUTO 14002KT 19SM 22/02 A3006 RMK SLP131 T02250015 57002 IEM_DS3505
ZBHH,2007-09-09 04:00,ZBHH 090400Z AUTO 00000KT 7SM 23/03 A3003 RMK T02300030 IEM_DS3505
ZBHH,2007-09-09 05:00,ZBHH 090500Z AUTO 15002KT 7SM 26/03 A3000 RMK T02600030 IEM_DS3505
ZBHH,2007-09-09 06:00,ZBHH 090600Z AUTO 20004KT 19SM 27/01 A3000 RMK SLP110 T02710008 57017 IEM_DS3505
ZBHH,2007-09-09 07:00,ZBHH 090700Z AUTO 25004KT 7SM 27/03 A2997 RMK T02700030 IEM_DS3505
ZBHH,2007-09-09 08:00,ZBHH 090800Z AUTO 24006KT 7SM 28/02 A2997 RMK T02800020 IEM_DS3505
ZBHH,2007-09-09 09:00,ZBHH 090900Z AUTO 25006KT 19SM 28/M01 A2997 RMK SLP100 T02801010 57012 IEM_DS3505
ZBHH,2007-09-09 10:00,ZBHH 091000Z AUTO 24004KT 7SM 26/03 A2997 RMK T02600030 IEM_DS3505
ZBHH,2007-09-09 11:00,ZBHH 091100Z AUTO 25002KT 7SM 24/04 A2997 RMK T02400040 IEM_DS3505
ZBHH,2007-09-09 12:00,ZBHH 091200Z AUTO 34002KT 19SM 21/03 A2997 RMK SLP112 T02130030 52008 IEM_DS3505
ZBHH,2007-09-09 13:00,ZBHH 091300Z AUTO 07002KT 7SM 20/04 A3000 RMK T02000040 IEM_DS3505
ZBHH,2007-09-09 14:00,ZBHH 091400Z AUTO 11004KT 7SM 17/04 A3000 RMK T01700040 IEM_DS3505
ZBHH,2007-09-09 15:00,ZBHH 091500Z AUTO 09004KT 19SM 18/03 A3003 RMK SLP121 T01830034 52010 IEM_DS3505
ZBHH,2007-09-09 16:00,ZBHH 091600Z AUTO 03002KT 7SM 16/03 A3003 RMK T01600030 IEM_DS3505
ZBHH,2007-09-09 17:00,ZBHH 091700Z AUTO 10002KT 7SM 15/01 A3003 RMK T01500010 IEM_DS3505
ZBHH,2007-09-09 18:00,ZBHH 091800Z AUTO 09002KT 19SM 15/03 A3003 RMK SLP123 T01490031 52004 IEM_DS3505
ZBHH,2007-09-09 19:00,ZBHH 091900Z AUTO 11002KT 7SM 14/02 A3003 RMK T01400020 IEM_DS3505
ZBHH,2007-09-09 20:00,ZBHH 092000Z AUTO 07002KT 7SM 13/03 A3003 RMK T01300030 IEM_DS3505
ZBHH,2007-09-09 21:00,ZBHH 092100Z AUTO 10004KT 19SM 14/03 A3003 RMK SLP125 T01370029 52002 IEM_DS3505
ZBHH,2007-09-09 22:00,ZBHH 092200Z AUTO 08004KT 7SM 11/03 A3003 RMK T01100030 IEM_DS3505
ZBHH,2007-09-09 23:00,ZBHH 092300Z AUTO 00000KT 7SM 12/03 A3006 RMK T01200030 IEM_DS3505
ZBHH,2007-09-10 00:00,ZBHH 100000Z AUTO 09002KT 19SM 18/03 A3006 RMK SLP141 T01820029 52010 IEM_DS3505
ZBHH,2007-09-10 01:00,ZBHH 100100Z AUTO 09002KT 6SM 20/03 A3006 RMK T02000030 IEM_DS3505
ZBHH,2007-09-10 02:00,ZBHH 100200Z AUTO 10002KT 6SM 23/03 A3006 RMK T02300030 IEM_DS3505
ZBHH,2007-09-10 03:00,ZBHH 100300Z AUTO 18004KT 19SM 26/02 A3006 RMK SLP130 T02560023 57002 IEM_DS3505
ZBHH,2007-09-10 04:00,ZBHH 100400Z AUTO 24006KT 7SM 27/05 A3003 RMK T02700050 IEM_DS3505
ZBHH,2007-09-10 05:00,ZBHH 100500Z AUTO 26006KT 7SM 28/04 A3003 RMK T02800040 IEM_DS3505
ZBHH,2007-09-10 06:00,ZBHH 100600Z AUTO 20008KT 19SM 29/04 A3000 RMK SLP113 T02860035 57016 IEM_DS3505
ZBHH,2007-09-10 07:00,ZBHH 100700Z AUTO 24008KT 7SM 29/02 A3000 RMK T02900020 IEM_DS3505
ZBHH,2007-09-10 09:00,ZBHH 100900Z AUTO 25004KT 19SM 28/01 A2997 RMK SLP104 T02830009 57010 IEM_DS3505
ZBHH,2007-09-10 10:00,ZBHH 101000Z AUTO 23004KT 6SM 27/03 A2997 RMK T02700030 IEM_DS3505
ZBHH,2007-09-10 11:00,ZBHH 101100Z AUTO 25004KT 6SM 24/04 A3000 RMK T02400040 IEM_DS3505
ZBHH,2007-09-10 12:00,ZBHH 101200Z AUTO 09002KT 19SM 23/04 A3000 RMK SLP119 T02270043 52011 IEM_DS3505
ZBHH,2007-09-10 13:00,ZBHH 101300Z AUTO 04004KT 5SM 20/04 A3003 RMK T02000040 IEM_DS3505
ZBHH,2007-09-10 14:00,ZBHH 101400Z AUTO 10004KT 6SM 17/05 A3003 RMK T01700050 IEM_DS3505
ZBHH,2007-09-10 15:00,ZBHH 101500Z AUTO 11002KT 19SM 19/05 A3006 RMK SLP124 T01930046 52012 IEM_DS3505
ZBHH,2007-09-10 16:00,ZBHH 101600Z AUTO 05002KT 6SM 18/04 A3006 RMK T01800040 IEM_DS3505
ZBHH,2007-09-10 17:00,ZBHH 101700Z AUTO 08004KT 6SM 16/05 A3006 RMK T01600050 IEM_DS3505
ZBHH,2007-09-10 18:00,ZBHH 101800Z AUTO 04002KT 19SM 16/06 A3003 RMK SLP123 T01590058 57002 IEM_DS3505
ZBHH,2007-09-10 19:00,ZBHH 101900Z AUTO 10004KT 6SM 14/05 A3003 RMK T01400050 IEM_DS3505
ZBHH,2007-09-10 20:00,ZBHH 102000Z AUTO 10004KT 6SM 14/05 A3003 RMK T01400050 IEM_DS3505
ZBHH,2007-09-10 21:00,ZBHH 102100Z AUTO 07002KT 19SM 15/06 A3003 RMK SLP127 T01460057 52001 IEM_DS3505
ZBHH,2007-09-10 22:00,ZBHH 102200Z AUTO 08004KT 6SM 12/05 A3006 RMK T01200050 IEM_DS3505
ZBHH,2007-09-10 23:00,ZBHH 102300Z AUTO 07002KT 6SM 14/05 A3006 RMK T01400050 IEM_DS3505
ZBHH,2007-09-11 00:00,ZBHH 110000Z AUTO 00000KT 16SM 17/06 A3006 RMK SLP142 T01740063 52008 IEM_DS3505
ZBHH,2007-09-11 01:00,ZBHH 110100Z AUTO 11002KT 6SM 19/05 A3006 RMK T01900050 IEM_DS3505
ZBHH,2007-09-11 02:00,ZBHH 110200Z AUTO 14002KT 6SM 23/05 A3006 RMK T02300050 IEM_DS3505
ZBHH,2007-09-11 03:00,ZBHH 110300Z AUTO 14002KT 19SM 25/04 A3006 RMK SLP127 T02490041 57006 IEM_DS3505
ZBHH,2007-09-11 04:00,ZBHH 110400Z AUTO 21006KT 6SM 26/06 A3003 RMK T02600060 IEM_DS3505
ZBHH,2007-09-11 05:00,ZBHH 110500Z AUTO 24008KT 6SM 27/07 A3000 RMK T02700070 IEM_DS3505
ZBHH,2007-09-11 06:00,ZBHH 110600Z AUTO 32008G25KT 19SM 25/07 A3000 RMK SLP123 T02490066 57010 IEM_DS3505
ZBHH,2007-09-11 07:00,ZBHH 110700Z AUTO 36012KT 7SM 25/07 A3000 RMK T02500070 IEM_DS3505
ZBHH,2007-09-11 08:00,ZBHH 110800Z AUTO 01008KT 7SM 26/06 A3000 RMK T02600060 IEM_DS3505
ZBHH,2007-09-11 09:00,ZBHH 110900Z AUTO 36004KT 19SM 26/06 A2997 RMK SLP108 T02560058 57014 IEM_DS3505
ZBHH,2007-09-11 10:00,ZBHH 111000Z AUTO 02004KT 7SM 24/06 A2997 RMK T02400060 IEM_DS3505
ZBHH,2007-09-11 11:00,ZBHH 111100Z AUTO 00000KT 7SM 23/06 A3000 RMK T02300060 IEM_DS3505
ZBHH,2007-09-11 12:00,ZBHH 111200Z AUTO 36004KT 19SM 21/09 A3003 RMK SLP129 T02130086 52016 IEM_DS3505
ZBHH,2007-09-11 13:00,ZBHH 111300Z AUTO 06004KT 7SM 19/11 A3003 RMK T01900110 IEM_DS3505
ZBHH,2007-09-11 14:00,ZBHH 111400Z AUTO 10004KT 5SM 18/12 A3003 RMK T01800120 IEM_DS3505
ZBHH,2007-09-11 15:00,ZBHH 111500Z AUTO 04002KT 12SM 20/11 A3003 RMK SLP114 T01960106 57003 IEM_DS3505
ZBHH,2007-09-11 16:00,ZBHH 111600Z AUTO 14002KT 7SM 18/11 A3003 RMK T01800110 IEM_DS3505
ZBHH,2007-09-11 18:00,ZBHH 111800Z AUTO 04006KT 12SM 19/09 A3000 RMK SLP112 T01890091 57003 IEM_DS3505
ZBHH,2007-09-11 19:00,ZBHH 111900Z AUTO 08002KT 7SM 17/10 A3000 RMK T01700100 IEM_DS3505
ZBHH,2007-09-11 20:00,ZBHH 112000Z AUTO 36002KT 7SM 17/10 A3000 RMK T01700100 IEM_DS3505
ZBHH,2007-09-11 21:00,ZBHH 112100Z AUTO 07002KT 12SM 19/09 A3000 RMK SLP108 T01870089 57003 IEM_DS3505
ZBHH,2007-09-11 22:00,ZBHH 112200Z AUTO 10006KT 7SM 16/10 A3000 RMK T01600100 IEM_DS3505
ZBHH,2007-09-11 23:00,ZBHH 112300Z AUTO 18002KT 7SM 16/10 A3000 RMK T01600100 IEM_DS3505
ZBHH,2007-09-12 00:00,ZBHH 120000Z AUTO 07004KT 19SM 19/09 A3000 RMK SLP117 T01910087 52001 IEM_DS3505
ZBHH,2007-09-12 01:00,ZBHH 120100Z AUTO 09004KT 7SM 20/09 A3000 RMK T02000090 IEM_DS3505
ZBHH,2007-09-12 02:00,ZBHH 120200Z AUTO 10006KT 7SM 23/07 A3000 RMK T02300070 IEM_DS3505
ZBHH,2007-09-12 03:00,ZBHH 120300Z AUTO 07002KT 19SM 24/07 A2997 RMK SLP104 T02430066 57005 IEM_DS3505
ZBHH,2007-09-12 04:00,ZBHH 120400Z AUTO 18004KT 7SM 25/07 A2997 RMK T02500070 IEM_DS3505
ZBHH,2007-09-12 05:00,ZBHH 120500Z AUTO 28002KT 7SM 26/08 A2994 RMK T02600080 IEM_DS3505
ZBHH,2007-09-12 06:00,ZBHH 120600Z AUTO 32004KT 19SM 26/07 A2994 RMK SLP082 T02640074 57017 IEM_DS3505
ZBHH,2007-09-12 07:00,ZBHH 120700Z AUTO 32008KT 7SM 25/07 A2991 RMK T02500070 IEM_DS3505
ZBHH,2007-09-12 08:00,ZBHH 120800Z AUTO 03014KT 6SM 21/11 A2994 RMK T02100110 IEM_DS3505
ZBHH,2007-09-12 09:00,ZBHH 120900Z AUTO 09006KT 16SM 18/12 A2997 RMK SLP114 T01840119 52013 IEM_DS3505
ZBHH,2007-09-12 10:00,ZBHH 121000Z AUTO 08004KT 4SM 16/13 A2997 RMK T01600130 IEM_DS3505
ZBHH,2007-09-12 11:00,ZBHH 121100Z AUTO 05002KT 4SM 15/13 A2997 RMK T01500130 IEM_DS3505
ZBHH,2007-09-12 12:00,ZBHH 121200Z AUTO 09004KT 12SM 16/14 A3003 RMK 60016 SLP130 T01620139 52011 IEM_DS3505
ZBHH,2007-09-12 13:00,ZBHH 121300Z AUTO 19002KT 2 1/2SM 15/13 A3003 RMK T01500130 IEM_DS3505
ZBHH,2007-09-12 14:00,ZBHH 121400Z AUTO 02004KT 2SM 15/14 A3003 RMK T01500140 IEM_DS3505
ZBHH,2007-09-12 15:00,ZBHH 121500Z AUTO 22004KT 12SM 16/14 A3003 RMK SLP127 T01570137 52006 IEM_DS3505
ZBHH,2007-09-12 16:00,ZBHH 121600Z AUTO 00000KT 1 1/2SM 15/14 A3003 RMK T01500140 IEM_DS3505
ZBHH,2007-09-12 17:00,ZBHH 121700Z AUTO 16002KT 1 1/4SM 14/13 A3003 RMK T01400130 IEM_DS3505
ZBHH,2007-09-12 18:00,ZBHH 121800Z AUTO 18006KT 12SM 15/13 A3003 RMK 60012 SLP121 T01480130 57003 IEM_DS3505
ZBHH,2007-09-12 19:00,ZBHH 121900Z AUTO 21002KT 1 1/4SM 14/13 A3000 RMK T01400130 IEM_DS3505
ZBHH,2007-09-12 20:00,ZBHH 122000Z AUTO 00000KT 1 1/4SM 13/13 A3000 RMK T01300130 IEM_DS3505
ZBHH,2007-09-12 21:00,ZBHH 122100Z AUTO 18002KT 9SM 14/13 A3000 RMK 70033 SLP129 T01450129 57008 IEM_DS3505
ZBHH,2007-09-12 22:00,ZBHH 122200Z AUTO 12002KT 1 1/4SM 13/12 A2997 RMK T01300120 IEM_DS3505
ZBHH,2007-09-12 23:00,ZBHH 122300Z AUTO 16002KT 1 1/2SM 14/12 A2997 RMK T01400120 IEM_DS3505
ZBHH,2007-09-13 00:00,ZBHH 130000Z AUTO 20006KT 12SM 15/12 A2997 RMK 60008 70034 SLP130 T01520125 57002 IEM_DS3505
ZBHH,2007-09-13 01:00,ZBHH 130100Z AUTO 22006KT 2SM 14/13 A2997 RMK T01400130 IEM_DS3505
ZBHH,2007-09-13 02:00,ZBHH 130200Z AUTO 22006KT 2 1/2SM 16/14 A2997 RMK T01600140 IEM_DS3505
ZBHH,2007-09-13 03:00,ZBHH 130300Z AUTO 25004KT 9SM 17/12 A2997 RMK SLP125 T01700125 57002 IEM_DS3505
ZBHH,2007-09-13 04:00,ZBHH 130400Z AUTO 30004KT 5SM 17/12 A2994 RMK T01700120 IEM_DS3505
ZBHH,2007-09-13 05:00,ZBHH 130500Z AUTO 30004KT 4SM 18/12 A2994 RMK T01800120 IEM_DS3505
ZBHH,2007-09-13 06:00,ZBHH 130600Z AUTO 27006KT 12SM 20/11 A2991 RMK 60004 SLP094 T01980110 57024 IEM_DS3505
ZBHH,2007-09-13 07:00,ZBHH 130700Z AUTO 21008KT 7SM 19/12 A2988 RMK T01900120 IEM_DS3505
ZBHH,2007-09-13 08:00,ZBHH 130800Z AUTO 20008KT 7SM 19/10 A2988 RMK T01900100 IEM_DS3505
ZBHH,2007-09-13 09:00,ZBHH 130900Z AUTO 02004KT 12SM 18/12 A2988 RMK SLP093 T01760119 57006 IEM_DS3505
ZBHH,2007-09-13 10:00,ZBHH 131000Z AUTO 32012KT 7SM 16/10 A2991 RMK T01600100 IEM_DS3505
ZBHH,2007-09-13 11:00,ZBHH 131100Z AUTO 01006KT 7SM 14/10 A2991 RMK T01400100 IEM_DS3505
ZBHH,2007-09-13 12:00,ZBHH 131200Z AUTO 06002KT 19SM 14/11 A2991 RMK 60020 SLP114 T01440110 52014 IEM_DS3505
ZBHH,2007-09-13 13:00,ZBHH 131300Z AUTO 19002KT 7SM 13/11 A2994 RMK T01300110 IEM_DS3505
ZBHH,2007-09-13 14:00,ZBHH 131400Z AUTO 01004KT 7SM 13/10 A2994 RMK T01300100 IEM_DS3505
ZBHH,2007-09-13 15:00,ZBHH 131500Z AUTO 09002KT 19SM 14/12 A2994 RMK SLP122 T01410120 52010 IEM_DS3505
ZBHH,2007-09-13 16:00,ZBHH 131600Z AUTO 08002KT 7SM 13/11 A2994 RMK T01300110 IEM_DS3505
ZBHH,2007-09-13 17:00,ZBHH 131700Z AUTO 00000KT 7SM 13/11 A2994 RMK T01300110 IEM_DS3505
ZBHH,2007-09-13 18:00,ZBHH 131800Z AUTO 09002KT 19SM 13/11 A2994 RMK 60003 SLP110 T01340111 57007 IEM_DS3505
ZBHH,2007-09-13 19:00,ZBHH 131900Z AUTO 35002KT 7SM 12/11 A2994 RMK T01200110 IEM_DS3505
ZBHH,2007-09-13 20:00,ZBHH 132000Z AUTO 02002KT 7SM 11/10 A2991 RMK T01100100 IEM_DS3505
ZBHH,2007-09-13 21:00,ZBHH 132100Z AUTO 07002KT 19SM 12/10 A2991 RMK 70028 SLP114 T01150102 57004 IEM_DS3505
ZBHH,2007-09-13 22:00,ZBHH 132200Z AUTO 07002KT 7SM 10/09 A2994 RMK T01000090 IEM_DS3505
ZBHH,2007-09-13 23:00,ZBHH 132300Z AUTO 36002KT 4SM 11/09 A2994 RMK T01100090 IEM_DS3505
ZBHH,2007-09-14 00:00,ZBHH 140000Z AUTO 09002KT 19SM 13/11 A2994 RMK 70027 SLP125 T01340108 52007 IEM_DS3505
ZBHH,2007-09-14 01:00,ZBHH 140100Z AUTO 25002KT 2SM 14/11 A2994 RMK T01400110 IEM_DS3505
ZBHH,2007-09-14 02:00,ZBHH 140200Z AUTO 23004KT 2SM 15/11 A2994 RMK T01500110 IEM_DS3505
ZBHH,2007-09-14 03:00,ZBHH 140300Z AUTO 27004KT 19SM 17/11 A2994 RMK SLP117 T01670112 57001 IEM_DS3505
ZBHH,2007-09-14 04:00,ZBHH 140400Z AUTO 22002KT 2SM 17/11 A2991 RMK T01700110 IEM_DS3505
ZBHH,2007-09-14 05:00,ZBHH 140500Z AUTO 00000KT 3SM 17/11 A2991 RMK T01700110 IEM_DS3505
ZBHH,2007-09-14 06:00,ZBHH 140600Z AUTO 22004KT 12SM 18/10 A2991 RMK SLP102 T01820103 57012 IEM_DS3505
ZBHH,2007-09-14 07:00,ZBHH 140700Z AUTO 08002KT 2 1/2SM 16/12 A2988 RMK T01600120 IEM_DS3505
ZBHH,2007-09-14 08:00,ZBHH 140800Z AUTO 08002KT 2 1/2SM 17/11 A2988 RMK T01700110 IEM_DS3505
ZBHH,2007-09-14 09:00,ZBHH 140900Z AUTO 07002KT 19SM 19/12 A2985 RMK SLP091 T01890124 57012 IEM_DS3505
ZBHH,2007-09-14 10:00,ZBHH 141000Z AUTO 09004KT 3SM 17/12 A2988 RMK T01700120 IEM_DS3505
ZBHH,2007-09-14 11:00,ZBHH 141100Z AUTO 05004KT 3SM 17/11 A2988 RMK T01700110 IEM_DS3505
ZBHH,2007-09-14 12:00,ZBHH 141200Z AUTO 02002KT 12SM 15/12 A2988 RMK 60001 SLP102 T01530122 52007 IEM_DS3505
ZBHH,2007-09-14 13:00,ZBHH 141300Z AUTO 03002KT 2SM 13/11 A2991 RMK T01300110 IEM_DS3505
ZBHH,2007-09-14 14:00,ZBHH 141400Z AUTO 03002KT 2SM 13/11 A2988 RMK T01300110 IEM_DS3505
ZBHH,2007-09-14 15:00,ZBHH 141500Z AUTO 10002KT 12SM 13/11 A2988 RMK SLP103 T01270113 52002 IEM_DS3505
ZBHH,2007-09-14 16:00,ZBHH 141600Z AUTO 08002KT 2 1/2SM 11/10 A2988 RMK T01100100 IEM_DS3505
ZBHH,2007-09-14 17:00,ZBHH 141700Z AUTO 07004KT 2 1/2SM 11/09 A2988 RMK T01100090 IEM_DS3505
ZBHH,2007-09-14 18:00,ZBHH 141800Z AUTO 09002KT 19SM 11/10 A2988 RMK SLP099 T01140100 57003 IEM_DS3505
ZBHH,2007-09-14 19:00,ZBHH 141900Z AUTO 07002KT 2 1/2SM 10/09 A2988 RMK T01000090 IEM_DS3505
ZBHH,2007-09-14 20:00,ZBHH 142000Z AUTO 12002KT 2 1/2SM 09/08 A2988 RMK T00900080 IEM_DS3505
ZBHH,2007-09-14 21:00,ZBHH 142100Z AUTO 04002KT 19SM 10/09 A2988 RMK 70001 SLP099 T01040088 57001 IEM_DS3505
ZBHH,2007-09-14 22:00,ZBHH 142200Z AUTO 09004KT 2 1/2SM 08/07 A2988 RMK T00800070 IEM_DS3505
ZBHH,2007-09-14 23:00,ZBHH 142300Z AUTO 05002KT 2 1/2SM 09/08 A2988 RMK T00900080 IEM_DS3505
ZBHH,2007-09-15 00:00,ZBHH 150000Z AUTO 14002KT 12SM 14/10 A2988 RMK 70001 SLP106 T01360096 52006 IEM_DS3505
ZBHH,2007-09-15 01:00,ZBHH 150100Z AUTO 10002KT 4SM 15/11 A2991 RMK T01500110 IEM_DS3505
ZBHH,2007-09-15 02:00,ZBHH 150200Z AUTO 00000KT 5SM 18/12 A2991 RMK T01800120 IEM_DS3505
ZBHH,2007-09-15 03:00,ZBHH 150300Z AUTO 16002KT 19SM 20/11 A2991 RMK SLP099 T01950113 54000 IEM_DS3505
ZBHH,2007-09-15 04:00,ZBHH 150400Z AUTO 00000KT 6SM 22/10 A2988 RMK T02200100 IEM_DS3505
ZBHH,2007-09-15 05:00,ZBHH 150500Z AUTO 26002KT 7SM 23/09 A2985 RMK T02300090 IEM_DS3505
ZBHH,2007-09-15 06:00,ZBHH 150600Z AUTO 20008KT 19SM 25/08 A2983 RMK SLP066 T02510082 57021 IEM_DS3505
ZBHH,2007-09-15 07:00,ZBHH 150700Z AUTO 25008KT 7SM 26/08 A2980 RMK T02600080 IEM_DS3505
ZBHH,2007-09-15 08:00,ZBHH 150800Z AUTO 23006KT 7SM 27/05 A2980 RMK T02700050 IEM_DS3505
ZBHH,2007-09-15 09:00,ZBHH 150900Z AUTO 25006KT 19SM 27/05 A2980 RMK SLP047 T02680051 57016 IEM_DS3505
ZBHH,2007-09-15 10:00,ZBHH 151000Z AUTO 02012KT 7SM 23/04 A2983 RMK T02300040 IEM_DS3505
ZBHH,2007-09-15 11:00,ZBHH 151100Z AUTO 36012G25KT 7SM 22/05 A2985 RMK T02200050 IEM_DS3505
ZBHH,2007-09-15 12:00,ZBHH 151200Z AUTO 16002G27KT 12SM 21/08 A2988 RMK 60003 SLP083 T02070084 52027 IEM_DS3505
ZBHH,2007-09-15 13:00,ZBHH 151300Z AUTO 36008KT 7SM 18/09 A2988 RMK T01800090 IEM_DS3505
ZBHH,2007-09-15 14:00,ZBHH 151400Z AUTO 05002KT 7SM 17/09 A2988 RMK T01700090 IEM_DS3505
ZBHH,2007-09-15 15:00,ZBHH 151500Z AUTO 07002KT 19SM 17/09 A2988 RMK SLP087 T01670092 52007 IEM_DS3505
ZBHH,2007-09-15 16:00,ZBHH 151600Z AUTO 10004KT 7SM 13/09 A2991 RMK T01300090 IEM_DS3505
ZBHH,2007-09-15 17:00,ZBHH 151700Z AUTO 09004KT 7SM 12/08 A2991 RMK T01200080 IEM_DS3505
ZBHH,2007-09-15 18:00,ZBHH 151800Z AUTO 09002KT 19SM 14/09 A2991 RMK SLP087 T01370090 52005 IEM_DS3505
ZBHH,2007-09-15 19:00,ZBHH 151900Z AUTO 11004KT 7SM 11/08 A2991 RMK T01100080 IEM_DS3505
ZBHH,2007-09-15 20:00,ZBHH 152000Z AUTO 08006KT 7SM 11/07 A2991 RMK T01100070 IEM_DS3505
ZBHH,2007-09-15 21:00,ZBHH 152100Z AUTO 09002KT 19SM 12/08 A2991 RMK 70003 SLP091 T01160085 52002 IEM_DS3505
ZBHH,2007-09-15 22:00,ZBHH 152200Z AUTO 09002KT 7SM 11/07 A2994 RMK T01100070 IEM_DS3505
ZBHH,2007-09-15 23:00,ZBHH 152300Z AUTO 08004KT 7SM 11/08 A2994 RMK T01100080 IEM_DS3505
ZBHH,2007-09-16 00:00,ZBHH 160000Z AUTO 09002KT 19SM 16/09 A2994 RMK 70003 SLP110 T01620089 52014 IEM_DS3505
ZBHH,2007-09-16 01:00,ZBHH 160100Z AUTO 09002KT 7SM 18/09 A2997 RMK T01800090 IEM_DS3505
ZBHH,2007-09-16 02:00,ZBHH 160200Z AUTO 25004KT 6SM 21/08 A2997 RMK T02100080 IEM_DS3505
ZBHH,2007-09-16 03:00,ZBHH 160300Z AUTO 22002KT 19SM 22/07 A2997 RMK SLP107 T02250071 52002 IEM_DS3505
ZBHH,2007-09-16 04:00,ZBHH 160400Z AUTO 20004KT 7SM 24/07 A2994 RMK T02400070 IEM_DS3505
ZBHH,2007-09-16 05:00,ZBHH 160500Z AUTO 25006KT 7SM 25/08 A2994 RMK T02500080 IEM_DS3505
ZBHH,2007-09-16 06:00,ZBHH 160600Z AUTO 22006KT 19SM 26/07 A2991 RMK SLP087 T02620068 57016 IEM_DS3505
ZBHH,2007-09-16 07:00,ZBHH 160700Z AUTO 28006KT 7SM 27/06 A2988 RMK T02700060 IEM_DS3505
ZBHH,2007-09-16 08:00,ZBHH 160800Z AUTO 26006KT 7SM 28/05 A2988 RMK T02800050 IEM_DS3505
ZBHH,2007-09-16 09:00,ZBHH 160900Z AUTO 22004KT 19SM 27/04 A2988 RMK SLP080 T02730037 57008 IEM_DS3505
ZBHH,2007-09-16 10:00,ZBHH 161000Z AUTO 20002KT 7SM 26/05 A2991 RMK T02600050 IEM_DS3505
ZBHH,2007-09-16 11:00,ZBHH 161100Z AUTO 13008KT 7SM 22/06 A2994 RMK T02200060 IEM_DS3505
ZBHH,2007-09-16 12:00,ZBHH 161200Z AUTO 09006KT 19SM 22/07 A2997 RMK SLP110 T02210067 52025 IEM_DS3505
ZBHH,2007-09-16 13:00,ZBHH 161300Z AUTO 16002KT 7SM 18/09 A2997 RMK T01800090 IEM_DS3505
ZBHH,2007-09-16 14:00,ZBHH 161400Z AUTO 00000KT 6SM 17/09 A3000 RMK T01700090 IEM_DS3505
ZBHH,2007-09-16 15:00,ZBHH 161500Z AUTO 00000KT 19SM 17/10 A3000 RMK SLP115 T01730095 52007 IEM_DS3505
ZBHH,2007-09-16 16:00,ZBHH 161600Z AUTO 09002KT 6SM 14/09 A2997 RMK T01400090 IEM_DS3505
ZBHH,2007-09-16 18:00,ZBHH 161800Z AUTO 36002KT 19SM 16/10 A3000 RMK SLP112 T01580095 52002 IEM_DS3505
ZBHH,2007-09-16 19:00,ZBHH 161900Z AUTO 12004KT 6SM 15/08 A3000 RMK T01500080 IEM_DS3505
ZBHH,2007-09-16 20:00,ZBHH 162000Z AUTO 08002KT 6SM 15/08 A3000 RMK T01500080 IEM_DS3505
ZBHH,2007-09-16 21:00,ZBHH 162100Z AUTO 27002KT 19SM 16/08 A3000 RMK SLP117 T01640084 52007 IEM_DS3505
ZBHH,2007-09-16 22:00,ZBHH 162200Z AUTO 36010KT 7SM 17/08 A3000 RMK T01700080 IEM_DS3505
ZBHH,2007-09-16 23:00,ZBHH 162300Z AUTO 03008KT 7SM 15/09 A3003 RMK T01500090 IEM_DS3505
ZBHH,2007-09-17 00:00,ZBHH 170000Z AUTO 29002KT 12SM 16/09 A3003 RMK 60000 70000 SLP130 T01590093 52001 IEM_DS3505
ZBHH,2007-09-17 01:00,ZBHH 170100Z AUTO 25006KT 7SM 14/11 A3006 RMK T01400110 IEM_DS3505
ZBHH,2007-09-17 02:00,ZBHH 170200Z AUTO 02004KT 5SM 14/11 A3009 RMK T01400110 IEM_DS3505
ZBHH,2007-09-17 03:00,ZBHH 170300Z AUTO 25004KT 12SM 14/11 A3009 RMK SLP163 T01410109 52017 IEM_DS3505
ZBHH,2007-09-17 04:00,ZBHH 170400Z AUTO 25002KT 2 1/2SM 13/12 A3006 RMK T01300120 IEM_DS3505
ZBHH,2007-09-17 05:00,ZBHH 170500Z AUTO 04002KT 2SM 13/11 A3006 RMK T01300110 IEM_DS3505
ZBHH,2007-09-17 06:00,ZBHH 170600Z AUTO 29004KT 7SM 12/10 A3003 RMK 60043 SLP159 T01240105 57010 IEM_DS3505
ZBHH,2007-09-17 07:00,ZBHH 170700Z AUTO 31002KT 4SM 11/10 A3003 RMK T01100100 IEM_DS3505
ZBHH,2007-09-17 08:00,ZBHH 170800Z AUTO 36008KT 7SM 12/08 A3003 RMK T01200080 IEM_DS3505
ZBHH,2007-09-17 09:00,ZBHH 170900Z AUTO 34004G21KT 9SM 12/06 A3006 RMK SLP160 T01250063 52002 IEM_DS3505
ZBHH,2007-09-17 10:00,ZBHH 171000Z AUTO 01004KT 7SM 11/07 A3006 RMK T01100070 IEM_DS3505
ZBHH,2007-09-17 11:00,ZBHH 171100Z AUTO 32002KT 7SM 10/06 A3009 RMK T01000060 IEM_DS3505
ZBHH,2007-09-17 12:00,ZBHH 171200Z AUTO 07006KT 12SM 12/06 A3012 RMK 60024 SLP182 T01250059 52019 IEM_DS3505
ZBHH,2007-09-17 13:00,ZBHH 171300Z AUTO 07010KT 7SM 11/06 A3012 RMK T01100060 IEM_DS3505
ZBHH,2007-09-17 14:00,ZBHH 171400Z AUTO 13004KT 7SM 11/06 A3012 RMK T01100060 IEM_DS3505
ZBHH,2007-09-17 15:00,ZBHH 171500Z AUTO 25002KT 12SM 12/07 A3012 RMK SLP191 T01160071 52002 IEM_DS3505
ZBHH,2007-09-17 16:00,ZBHH 171600Z AUTO 19004KT 7SM 10/07 A3012 RMK T01000070 IEM_DS3505
ZBHH,2007-09-17 17:00,ZBHH 171700Z AUTO 18002KT 7SM 10/07 A3009 RMK T01000070 IEM_DS3505
ZBHH,2007-09-17 18:00,ZBHH 171800Z AUTO 34002KT 19SM 12/06 A3009 RMK 60000 SLP186 T01170064 57007 IEM_DS3505
ZBHH,2007-09-17 19:00,ZBHH 171900Z AUTO 35002KT 7SM 09/07 A3009 RMK T00900070 IEM_DS3505
ZBHH,2007-09-17 20:00,ZBHH 172000Z AUTO 34002KT 7SM 10/06 A3009 RMK T01000060 IEM_DS3505
ZBHH,2007-09-17 21:00,ZBHH 172100Z AUTO 27002KT 19SM 10/07 A3009 RMK 70067 SLP186 T01010068 57003 IEM_DS3505
ZBHH,2007-09-17 22:00,ZBHH 172200Z AUTO 10002KT 7SM 08/07 A3009 RMK T00800070 IEM_DS3505
ZBHH,2007-09-17 23:00,ZBHH 172300Z AUTO 00000KT 7SM 08/07 A3009 RMK T00800070 IEM_DS3505
ZBHH,2007-09-18 00:00,ZBHH 180000Z AUTO 07004KT 19SM 12/04 A3009 RMK 70067 SLP187 T01180038 52004 IEM_DS3505
ZBHH,2007-09-18 01:00,ZBHH 180100Z AUTO 33002KT 7SM 11/05 A3012 RMK T01100050 IEM_DS3505
ZBHH,2007-09-18 02:00,ZBHH 180200Z AUTO 10002KT 6SM 14/03 A3012 RMK T01400030 IEM_DS3505
ZBHH,2007-09-18 03:00,ZBHH 180300Z AUTO 36006KT 19SM 16/00 A3009 RMK SLP181 T01640005 52002 IEM_DS3505
ZBHH,2007-09-18 04:00,ZBHH 180400Z AUTO 7SM 17/00 A3009 RMK T01700000 IEM_DS3505
ZBHH,2007-09-18 05:00,ZBHH 180500Z AUTO 35008G17KT 7SM 18/00 A3006 RMK T01800000 IEM_DS3505
ZBHH,2007-09-18 06:00,ZBHH 180600Z AUTO 36006KT 19SM 19/M01 A3006 RMK SLP162 T01861013 57012 IEM_DS3505
ZBHH,2007-09-18 07:00,ZBHH 180700Z AUTO 35010G21KT 7SM 18/01 A3006 RMK T01800010 IEM_DS3505
ZBHH,2007-09-18 08:00,ZBHH 180800Z AUTO 36010KT 7SM 18/00 A3006 RMK T01800000 IEM_DS3505
ZBHH,2007-09-18 09:00,ZBHH 180900Z AUTO 04006KT 19SM 18/M00 A3006 RMK SLP164 T01851003 57002 IEM_DS3505
ZBHH,2007-09-18 10:00,ZBHH 181000Z AUTO 36008KT 7SM 17/00 A3009 RMK T01700000 IEM_DS3505
ZBHH,2007-09-18 11:00,ZBHH 181100Z AUTO 36002KT 6SM 14/02 A3009 RMK T01400020 IEM_DS3505
ZBHH,2007-09-18 12:00,ZBHH 181200Z AUTO 07002KT 19SM 14/01 A3009 RMK SLP184 T01450011 52013 IEM_DS3505
ZBHH,2007-09-18 13:00,ZBHH 181300Z AUTO 02006KT 6SM 10/03 A3012 RMK T01000030 IEM_DS3505
ZBHH,2007-09-18 15:00,ZBHH 181500Z AUTO 04002KT 19SM 10/02 A3012 RMK SLP187 T00990023 52003 IEM_DS3505
ZBHH,2007-09-18 16:00,ZBHH 181600Z AUTO 09002KT 6SM 07/03 A3012 RMK T00700030 IEM_DS3505
ZBHH,2007-09-18 17:00,ZBHH 181700Z AUTO 07004KT 6SM 07/02 A3009 RMK T00700020 IEM_DS3505
ZBHH,2007-09-18 18:00,ZBHH 181800Z AUTO 10006KT 19SM 08/03 A3009 RMK SLP181 T00760033 57005 IEM_DS3505
ZBHH,2007-09-18 19:00,ZBHH 181900Z AUTO 10004KT 6SM 05/01 A3009 RMK T00500010 IEM_DS3505
ZBHH,2007-09-18 20:00,ZBHH 182000Z AUTO 09006KT 6SM 04/01 A3009 RMK T00400010 IEM_DS3505
ZBHH,2007-09-18 21:00,ZBHH 182100Z AUTO 09002KT 19SM 06/01 A3012 RMK SLP186 T00650008 52002 IEM_DS3505
ZBHH,2007-09-18 22:00,ZBHH 182200Z AUTO 10004KT 6SM 05/00 A3012 RMK T00500000 IEM_DS3505
ZBHH,2007-09-18 23:00,ZBHH 182300Z AUTO 00000KT 6SM 05/01 A3012 RMK T00500010 IEM_DS3505
ZBHH,2007-09-19 00:00,ZBHH 190000Z AUTO 04002KT 19SM 11/01 A3015 RMK SLP200 T01090014 52013 IEM_DS3505
ZBHH,2007-09-19 01:00,ZBHH 190100Z AUTO 11002KT 6SM 11/02 A3015 RMK T01100020 IEM_DS3505
ZBHH,2007-09-19 02:00,ZBHH 190200Z AUTO 6SM 15/02 A3015 RMK T01500020 IEM_DS3505
ZBHH,2007-09-19 03:00,ZBHH 190300Z AUTO 20004KT 19SM 16/M00 A3015 RMK SLP197 T01631004 57001 IEM_DS3505
ZBHH,2007-09-19 04:00,ZBHH 190400Z AUTO 27004KT 6SM 17/00 A3012 RMK T01700000 IEM_DS3505
ZBHH,2007-09-19 05:00,ZBHH 190500Z AUTO 26004KT 6SM 18/01 A3009 RMK T01800010 IEM_DS3505
ZBHH,2007-09-19 06:00,ZBHH 190600Z AUTO 20002KT 19SM 19/02 A3009 RMK SLP174 T01940023 57019 IEM_DS3505
ZBHH,2007-09-19 07:00,ZBHH 190700Z AUTO 27004KT 6SM 20/02 A3006 RMK T02000020 IEM_DS3505
ZBHH,2007-09-19 08:00,ZBHH 190800Z AUTO 25006KT 6SM 21/03 A3006 RMK T02100030 IEM_DS3505
ZBHH,2007-09-19 09:00,ZBHH 190900Z AUTO 22004KT 19SM 21/03 A3006 RMK SLP164 T02060029 57009 IEM_DS3505
ZBHH,2007-09-19 10:00,ZBHH 191000Z AUTO 24004KT 6SM 19/03 A3006 RMK T01900030 IEM_DS3505
ZBHH,2007-09-19 11:00,ZBHH 191100Z AUTO 22002KT 6SM 16/07 A3006 RMK T01600070 IEM_DS3505
ZBHH,2007-09-19 12:00,ZBHH 191200Z AUTO 05004KT 19SM 16/06 A3009 RMK SLP176 T01570056 52010 IEM_DS3505
ZBHH,2007-09-19 13:00,ZBHH 191300Z AUTO 05004KT 6SM 13/06 A3012 RMK T01300060 IEM_DS3505
ZBHH,2007-09-19 14:00,ZBHH 191400Z AUTO 10002KT 6SM 11/07 A3012 RMK T01100070 IEM_DS3505
ZBHH,2007-09-19 15:00,ZBHH 191500Z AUTO 09002KT 19SM 12/07 A3012 RMK SLP180 T01230070 52007 IEM_DS3505
ZBHH,2007-09-19 16:00,ZBHH 191600Z AUTO 07002KT 6SM 10/06 A3012 RMK T01000060 IEM_DS3505
ZBHH,2007-09-19 17:00,ZBHH 191700Z AUTO 05002KT 6SM 10/06 A3012 RMK T01000060 IEM_DS3505
ZBHH,2007-09-19 18:00,ZBHH 191800Z AUTO 09002KT 19SM 10/07 A3012 RMK SLP181 T00980069 52002 IEM_DS3505
ZBHH,2007-09-19 19:00,ZBHH 191900Z AUTO 08002KT 6SM 09/05 A3012 RMK T00900050 IEM_DS3505
ZBHH,2007-09-19 21:00,ZBHH 192100Z AUTO 09002KT 19SM 08/06 A3009 RMK SLP178 T00800060 57003 IEM_DS3505
ZBHH,2007-09-19 22:00,ZBHH 192200Z AUTO 07002KT 6SM 07/04 A3012 RMK T00700040 IEM_DS3505
ZBHH,2007-09-19 23:00,ZBHH 192300Z AUTO 09002KT 6SM 07/05 A3012 RMK T00700050 IEM_DS3505
ZBHH,2007-09-20 00:00,ZBHH 200000Z AUTO 07002KT 19SM 13/05 A3012 RMK SLP188 T01310050 52009 IEM_DS3505
ZBHH,2007-09-20 01:00,ZBHH 200100Z AUTO 05002KT 6SM 14/06 A3012 RMK T01400060 IEM_DS3505
ZBHH,2007-09-20 02:00,ZBHH 200200Z AUTO 15002KT 6SM 17/06 A3012 RMK T01700060 IEM_DS3505
ZBHH,2007-09-20 03:00,ZBHH 200300Z AUTO 20004KT 19SM 19/05 A3012 RMK SLP180 T01890050 57003 IEM_DS3505
ZBHH,2007-09-20 04:00,ZBHH 200400Z AUTO 24004KT 6SM 20/05 A3012 RMK T02000050 IEM_DS3505
ZBHH,2007-09-20 05:00,ZBHH 200500Z AUTO 24006KT 6SM 21/05 A3009 RMK T02100050 IEM_DS3505
ZBHH,2007-09-20 06:00,ZBHH 200600Z AUTO 25006KT 19SM 23/05 A3006 RMK SLP156 T02330048 57017 IEM_DS3505
ZBHH,2007-09-20 07:00,ZBHH 200700Z AUTO 25006KT 6SM 24/05 A3006 RMK T02400050 IEM_DS3505
ZBHH,2007-09-20 08:00,ZBHH 200800Z AUTO 23006KT 6SM 24/05 A3006 RMK T02400050 IEM_DS3505
ZBHH,2007-09-20 09:00,ZBHH 200900Z AUTO 22008KT 19SM 24/05 A3006 RMK SLP152 T02410050 57006 IEM_DS3505
ZBHH,2007-09-20 10:00,ZBHH 201000Z AUTO 22004KT 6SM 23/06 A3006 RMK T02300060 IEM_DS3505
ZBHH,2007-09-20 11:00,ZBHH 201100Z AUTO 14002KT 6SM 19/11 A3006 RMK T01900110 IEM_DS3505
ZBHH,2007-09-20 12:00,ZBHH 201200Z AUTO 36002KT 19SM 18/04 A3009 RMK SLP168 T01780044 52012 IEM_DS3505
ZBHH,2007-09-20 13:00,ZBHH 201300Z AUTO 05002KT 6SM 15/08 A3012 RMK T01500080 IEM_DS3505
ZBHH,2007-09-20 14:00,ZBHH 201400Z AUTO 05004KT 6SM 15/07 A3012 RMK T01500070 IEM_DS3505
ZBHH,2007-09-20 15:00,ZBHH 201500Z AUTO 07004KT 19SM 14/07 A3012 RMK SLP175 T01430071 52011 IEM_DS3505
ZBHH,2007-09-20 16:00,ZBHH 201600Z AUTO 12002KT 6SM 12/07 A3015 RMK T01200070 IEM_DS3505
ZBHH,2007-09-20 17:00,ZBHH 201700Z AUTO 06004KT 6SM 13/05 A3015 RMK T01300050 IEM_DS3505
ZBHH,2007-09-20 18:00,ZBHH 201800Z AUTO 09004KT 19SM 12/07 A3015 RMK SLP182 T01190066 52010 IEM_DS3505
ZBHH,2007-09-20 19:00,ZBHH 201900Z AUTO 08002KT 6SM 10/05 A3015 RMK T01000050 IEM_DS3505
ZBHH,2007-09-20 20:00,ZBHH 202000Z AUTO 08002KT 6SM 09/04 A3018 RMK T00900040 IEM_DS3505
ZBHH,2007-09-20 21:00,ZBHH 202100Z AUTO 02002KT 19SM 09/06 A3018 RMK SLP194 T00910058 52007 IEM_DS3505
ZBHH,2007-09-20 22:00,ZBHH 202200Z AUTO 06002KT 6SM 09/04 A3018 RMK T00900040 IEM_DS3505
ZBHH,2007-09-20 23:00,ZBHH 202300Z AUTO 08004KT 6SM 09/04 A3021 RMK T00900040 IEM_DS3505
ZBHH,2007-09-21 00:00,ZBHH 210000Z AUTO 09002KT 19SM 14/04 A3021 RMK SLP215 T01400040 52015 IEM_DS3505
ZBHH,2007-09-21 01:00,ZBHH 210100Z AUTO 11002KT 6SM 16/06 A3024 RMK T01600060 IEM_DS3505
ZBHH,2007-09-21 02:00,ZBHH 210200Z AUTO 14002KT 6SM 20/03 A3024 RMK T02000030 IEM_DS3505
ZBHH,2007-09-21 03:00,ZBHH 210300Z AUTO 14002KT 19SM 21/03 A3024 RMK SLP210 T02110033 52003 IEM_DS3505
ZBHH,2007-09-21 04:00,ZBHH 210400Z AUTO 6SM 23/02 A3024 RMK T02300020 IEM_DS3505
ZBHH,2007-09-21 05:00,ZBHH 210500Z AUTO 26004KT 6SM 24/02 A3021 RMK T02400020 IEM_DS3505
ZBHH,2007-09-21 06:00,ZBHH 210600Z AUTO 18004KT 19SM 24/01 A3018 RMK SLP188 T02440013 57018 IEM_DS3505
ZBHH,2007-09-21 07:00,ZBHH 210700Z AUTO 22004KT 6SM 25/01 A3015 RMK T02500010 IEM_DS3505
ZBHH,2007-09-21 08:00,ZBHH 210800Z AUTO 22008KT 6SM 26/M03 A3015 RMK T02601030 IEM_DS3505
ZBHH,2007-09-21 09:00,ZBHH 210900Z AUTO 22006KT 19SM 26/M02 A3015 RMK SLP177 T02561021 57013 IEM_DS3505
ZBHH,2007-09-21 10:00,ZBHH 211000Z AUTO 25004KT 6SM 24/01 A3015 RMK T02400010 IEM_DS3505
ZBHH,2007-09-21 11:00,ZBHH 211100Z AUTO 23002KT 6SM 20/02 A3015 RMK T02000020 IEM_DS3505
ZBHH,2007-09-21 12:00,ZBHH 211200Z AUTO 04004KT 19SM 17/01 A3018 RMK SLP192 T01740006 52007 IEM_DS3505
ZBHH,2007-09-21 13:00,ZBHH 211300Z AUTO 08004KT 6SM 15/04 A3018 RMK T01500040 IEM_DS3505
ZBHH,2007-09-21 14:00,ZBHH 211400Z AUTO 07004KT 6SM 14/04 A3021 RMK T01400040 IEM_DS3505
ZBHH,2007-09-21 15:00,ZBHH 211500Z AUTO 04004KT 19SM 14/02 A3018 RMK SLP194 T01450021 52010 IEM_DS3505
ZBHH,2007-09-21 16:00,ZBHH 211600Z AUTO 05004KT 6SM 12/03 A3018 RMK T01200030 IEM_DS3505
ZBHH,2007-09-21 18:00,ZBHH 211800Z AUTO 29002KT 19SM 12/05 A3021 RMK SLP193 T01210050 52001 IEM_DS3505
ZBHH,2007-09-21 19:00,ZBHH 211900Z AUTO 34002KT 6SM 11/04 A3021 RMK T01100040 IEM_DS3505
ZBHH,2007-09-21 20:00,ZBHH 212000Z AUTO 02006KT 6SM 11/04 A3021 RMK T01100040 IEM_DS3505
ZBHH,2007-09-21 21:00,ZBHH 212100Z AUTO 03004KT 19SM 10/05 A3021 RMK SLP201 T01030053 52006 IEM_DS3505
ZBHH,2007-09-21 22:00,ZBHH 212200Z AUTO 08002KT 6SM 11/03 A3024 RMK T01100030 IEM_DS3505
ZBHH,2007-09-21 23:00,ZBHH 212300Z AUTO 05004KT 6SM 12/02 A3024 RMK T01200020 IEM_DS3505
ZBHH,2007-09-22 00:00,ZBHH 220000Z AUTO 09004KT 19SM 15/06 A3027 RMK SLP222 T01490059 52012 IEM_DS3505
ZBHH,2007-09-22 01:00,ZBHH 220100Z AUTO 07002KT 6SM 17/02 A3027 RMK T01700020 IEM_DS3505
ZBHH,2007-09-22 02:00,ZBHH 220200Z AUTO 26002KT 6SM 19/01 A3027 RMK T01900010 IEM_DS3505
ZBHH,2007-09-22 03:00,ZBHH 220300Z AUTO 22004KT 19SM 21/02 A3027 RMK SLP216 T02070025 54000 IEM_DS3505
ZBHH,2007-09-22 04:00,ZBHH 220400Z AUTO 26006KT 6SM 23/03 A3024 RMK T02300030 IEM_DS3505
ZBHH,2007-09-22 05:00,ZBHH 220500Z AUTO 25008KT 6SM 24/02 A3021 RMK T02400020 IEM_DS3505
ZBHH,2007-09-22 06:00,ZBHH 220600Z AUTO 20010KT 19SM 25/00 A3018 RMK SLP185 T02460002 57025 IEM_DS3505
ZBHH,2007-09-22 07:00,ZBHH 220700Z AUTO 24010KT 6SM 25/00 A3015 RMK T02500000 IEM_DS3505
ZBHH,2007-09-22 08:00,ZBHH 220800Z AUTO 24010KT 6SM 25/00 A3015 RMK T02500000 IEM_DS3505
ZBHH,2007-09-22 09:00,ZBHH 220900Z AUTO 22008KT 19SM 24/M01 A3015 RMK SLP176 T02451014 57011 IEM_DS3505
ZBHH,2007-09-22 10:00,ZBHH 221000Z AUTO 26006KT 6SM 23/01 A3015 RMK T02300010 IEM_DS3505
ZBHH,2007-09-22 11:00,ZBHH 221100Z AUTO 20002KT 6SM 20/03 A3015 RMK T02000030 IEM_DS3505
ZBHH,2007-09-22 12:00,ZBHH 221200Z AUTO 09002KT 19SM 18/03 A3015 RMK SLP185 T01790034 52004 IEM_DS3505
ZBHH,2007-09-22 13:00,ZBHH 221300Z AUTO 09002KT 4SM 15/05 A3018 RMK T01500050 IEM_DS3505
ZBHH,2007-09-22 14:00,ZBHH 221400Z AUTO 02004KT 5SM 14/04 A3018 RMK T01400040 IEM_DS3505
ZBHH,2007-09-22 15:00,ZBHH 221500Z AUTO 36002KT 19SM 15/05 A3018 RMK SLP192 T01520049 52012 IEM_DS3505
ZBHH,2007-09-22 16:00,ZBHH 221600Z AUTO 02006KT 6SM 13/04 A3018 RMK T01300040 IEM_DS3505
ZBHH,2007-09-22 17:00,ZBHH 221700Z AUTO 36004KT 6SM 12/03 A3018 RMK T01200030 IEM_DS3505
ZBHH,2007-09-22 18:00,ZBHH 221800Z AUTO 04002KT 19SM 12/06 A3021 RMK SLP191 T01240056 52001 IEM_DS3505
ZBHH,2007-09-22 19:00,ZBHH 221900Z AUTO 08002KT 6SM 10/04 A3021 RMK T01000040 IEM_DS3505
ZBHH,2007-09-22 20:00,ZBHH 222000Z AUTO 12002KT 6SM 09/04 A3021 RMK T00900040 IEM_DS3505
ZBHH,2007-09-22 21:00,ZBHH 222100Z AUTO 03002KT 19SM 11/05 A3021 RMK SLP201 T01060049 52005 IEM_DS3505
ZBHH,2007-09-22 22:00,ZBHH 222200Z AUTO 10002KT 6SM 08/04 A3021 RMK T00800040 IEM_DS3505
ZBHH,2007-09-22 23:00,ZBHH 222300Z AUTO 11002KT 6SM 08/04 A3021 RMK T00800040 IEM_DS3505
ZBHH,2007-09-23 00:00,ZBHH 230000Z AUTO 09004KT 19SM 14/06 A3024 RMK SLP216 T01360060 52007 IEM_DS3505
ZBHH,2007-09-23 01:00,ZBHH 230100Z AUTO 12002KT 6SM 16/06 A3024 RMK T01600060 IEM_DS3505
ZBHH,2007-09-23 02:00,ZBHH 230200Z AUTO 21002KT 6SM 19/04 A3024 RMK T01900040 IEM_DS3505
ZBHH,2007-09-23 03:00,ZBHH 230300Z AUTO 20004KT 19SM 20/03 A3024 RMK SLP209 T01970034 54000 IEM_DS3505
ZBHH,2007-09-23 04:00,ZBHH 230400Z AUTO 20002KT 6SM 21/04 A3021 RMK T02100040 IEM_DS3505
ZBHH,2007-09-23 05:00,ZBHH 230500Z AUTO 28004KT 6SM 22/04 A3018 RMK T02200040 IEM_DS3505
ZBHH,2007-09-23 06:00,ZBHH 230600Z AUTO 18004KT 19SM 23/04 A3015 RMK SLP183 T02300035 57022 IEM_DS3505
ZBHH,2007-09-23 07:00,ZBHH 230700Z AUTO 35002KT 6SM 23/03 A3015 RMK T02300030 IEM_DS3505
ZBHH,2007-09-23 08:00,ZBHH 230800Z AUTO 06002KT 6SM 23/03 A3012 RMK T02300030 IEM_DS3505
ZBHH,2007-09-23 09:00,ZBHH 230900Z AUTO 11002KT 19SM 24/02 A3012 RMK SLP168 T02370025 57015 IEM_DS3505
ZBHH,2007-09-23 10:00,ZBHH 231000Z AUTO 36004KT 6SM 22/04 A3012 RMK T02200040 IEM_DS3505
ZBHH,2007-09-23 11:00,ZBHH 231100Z AUTO 01002KT 4SM 20/04 A3012 RMK T02000040 IEM_DS3505
ZBHH,2007-09-23 12:00,ZBHH 231200Z AUTO 03008KT 19SM 18/05 A3015 RMK SLP184 T01750048 52008 IEM_DS3505
ZBHH,2007-09-23 13:00,ZBHH 231300Z AUTO 06004KT 6SM 15/05 A3015 RMK T01500050 IEM_DS3505
ZBHH,2007-09-23 14:00,ZBHH 231400Z AUTO 10006KT 6SM 14/05 A3015 RMK T01400050 IEM_DS3505
ZBHH,2007-09-23 15:00,ZBHH 231500Z AUTO 36002KT 19SM 16/04 A3015 RMK SLP184 T01570035 52008 IEM_DS3505
ZBHH,2007-09-23 16:00,ZBHH 231600Z AUTO 05002KT 6SM 13/05 A3018 RMK T01300050 IEM_DS3505
ZBHH,2007-09-23 17:00,ZBHH 231700Z AUTO 09004KT 6SM 12/05 A3018 RMK T01200050 IEM_DS3505
ZBHH,2007-09-23 18:00,ZBHH 231800Z AUTO 08004KT 19SM 12/06 A3018 RMK SLP187 T01150056 52001 IEM_DS3505
ZBHH,2007-09-23 19:00,ZBHH 231900Z AUTO 00000KT 6SM 11/03 A3018 RMK T01100030 IEM_DS3505
ZBHH,2007-09-23 20:00,ZBHH 232000Z AUTO 08006KT 6SM 09/04 A3018 RMK T00900040 IEM_DS3505
ZBHH,2007-09-23 21:00,ZBHH 232100Z AUTO 09002KT 19SM 11/04 A3018 RMK SLP188 T01070040 52001 IEM_DS3505
ZBHH,2007-09-23 22:00,ZBHH 232200Z AUTO 09004KT 6SM 09/03 A3018 RMK T00900030 IEM_DS3505
ZBHH,2007-09-23 23:00,ZBHH 232300Z AUTO 08002KT 6SM 09/03 A3018 RMK T00900030 IEM_DS3505
ZBHH,2007-09-24 00:00,ZBHH 240000Z AUTO 10004KT 19SM 14/05 A3021 RMK SLP204 T01430049 52009 IEM_DS3505
ZBHH,2007-09-24 01:00,ZBHH 240100Z AUTO 07002KT 6SM 16/04 A3021 RMK T01600040 IEM_DS3505
ZBHH,2007-09-24 02:00,ZBHH 240200Z AUTO 11004KT 6SM 20/03 A3021 RMK T02000030 IEM_DS3505
ZBHH,2007-09-24 03:00,ZBHH 240300Z AUTO 04002KT 19SM 22/03 A3018 RMK SLP185 T02210028 57006 IEM_DS3505
ZBHH,2007-09-24 04:00,ZBHH 240400Z AUTO 19004KT 6SM 24/02 A3015 RMK T02400020 IEM_DS3505
ZBHH,2007-09-24 05:00,ZBHH 240500Z AUTO 20006KT 6SM 25/01 A3012 RMK T02500010 IEM_DS3505
ZBHH,2007-09-24 06:00,ZBHH 240600Z AUTO 18006KT 19SM 26/M00 A3009 RMK SLP151 T02591002 57030 IEM_DS3505
ZBHH,2007-09-24 07:00,ZBHH 240700Z AUTO 17008KT 6SM 26/00 A3006 RMK T02600000 IEM_DS3505
ZBHH,2007-09-24 08:00,ZBHH 240800Z AUTO 15008KT 6SM 26/M04 A3006 RMK T02601040 IEM_DS3505
ZBHH,2007-09-24 09:00,ZBHH 240900Z AUTO 20006KT 19SM 26/M02 A3003 RMK SLP138 T02611025 57013 IEM_DS3505
ZBHH,2007-09-24 10:00,ZBHH 241000Z AUTO 16006KT 6SM 23/00 A3006 RMK T02300000 IEM_DS3505
ZBHH,2007-09-24 11:00,ZBHH 241100Z AUTO 15004KT 6SM 21/01 A3006 RMK T02100010 IEM_DS3505
ZBHH,2007-09-24 12:00,ZBHH 241200Z AUTO 11004KT 19SM 21/00 A3006 RMK SLP153 T02130005 52011 IEM_DS3505
ZBHH,2007-09-24 13:00,ZBHH 241300Z AUTO 08006KT 6SM 16/02 A3009 RMK T01600020 IEM_DS3505
ZBHH,2007-09-24 14:00,ZBHH 241400Z AUTO 01002KT 6SM 14/03 A3009 RMK T01400030 IEM_DS3505
ZBHH,2007-09-24 15:00,ZBHH 241500Z AUTO 09002KT 19SM 16/02 A3012 RMK SLP160 T01570025 52010 IEM_DS3505
ZBHH,2007-09-24 16:00,ZBHH 241600Z AUTO 02002KT 6SM 14/03 A3009 RMK T01400030 IEM_DS3505
ZBHH,2007-09-24 17:00,ZBHH 241700Z AUTO 05002KT 6SM 13/03 A3012 RMK T01300030 IEM_DS3505
ZBHH,2007-09-24 18:00,ZBHH 241800Z AUTO 11002KT 19SM 12/05 A3012 RMK SLP158 T01250050 54000 IEM_DS3505
ZBHH,2007-09-24 19:00,ZBHH 241900Z AUTO 08002KT 6SM 11/03 A3012 RMK T01100030 IEM_DS3505
ZBHH,2007-09-24 20:00,ZBHH 242000Z AUTO 04004KT 6SM 12/03 A3012 RMK T01200030 IEM_DS3505
ZBHH,2007-09-24 21:00,ZBHH 242100Z AUTO 36002KT 19SM 11/04 A3012 RMK SLP164 T01130043 52003 IEM_DS3505
ZBHH,2007-09-24 22:00,ZBHH 242200Z AUTO 08004KT 6SM 10/03 A3012 RMK T01000030 IEM_DS3505
ZBHH,2007-09-24 23:00,ZBHH 242300Z AUTO 07002KT 6SM 10/04 A3012 RMK T01000040 IEM_DS3505
ZBHH,2007-09-25 00:00,ZBHH 250000Z AUTO 34002KT 19SM 14/04 A3012 RMK SLP175 T01360045 52005 IEM_DS3505
ZBHH,2007-09-25 01:00,ZBHH 250100Z AUTO 08002KT 6SM 15/03 A3012 RMK T01500030 IEM_DS3505
ZBHH,2007-09-25 02:00,ZBHH 250200Z AUTO 00000KT 7SM 18/03 A3012 RMK T01800030 IEM_DS3505
ZBHH,2007-09-25 03:00,ZBHH 250300Z AUTO 18006KT 19SM 20/05 A3012 RMK SLP167 T01970054 57006 IEM_DS3505
ZBHH,2007-09-25 04:00,ZBHH 250400Z AUTO 24004KT 5SM 21/07 A3009 RMK T02100070 IEM_DS3505
ZBHH,2007-09-25 05:00,ZBHH 250500Z AUTO 24006KT 6SM 22/07 A3006 RMK T02200070 IEM_DS3505
ZBHH,2007-09-25 06:00,ZBHH 250600Z AUTO 25006KT 19SM 23/07 A3003 RMK SLP136 T02280074 57028 IEM_DS3505
ZBHH,2007-09-25 07:00,ZBHH 250700Z AUTO 24008KT 5SM 23/08 A3000 RMK T02300080 IEM_DS3505
ZBHH,2007-09-25 08:00,ZBHH 250800Z AUTO 28004KT 5SM 23/08 A3000 RMK T02300080 IEM_DS3505
ZBHH,2007-09-25 09:00,ZBHH 250900Z AUTO 22004KT 12SM 23/08 A3000 RMK SLP126 T02310080 57010 IEM_DS3505
ZBHH,2007-09-25 10:00,ZBHH 251000Z AUTO 23004KT 4SM 22/09 A3000 RMK T02200090 IEM_DS3505
ZBHH,2007-09-25 11:00,ZBHH 251100Z AUTO 32002KT 4SM 19/10 A3000 RMK T01900100 IEM_DS3505
ZBHH,2007-09-25 12:00,ZBHH 251200Z AUTO 02002KT 12SM 20/10 A3000 RMK SLP132 T01990098 52003 IEM_DS3505
ZBHH,2007-09-25 13:00,ZBHH 251300Z AUTO 11002KT 3SM 18/10 A3003 RMK T01800100 IEM_DS3505
ZBHH,2007-09-25 14:00,ZBHH 251400Z AUTO 16002KT 3SM 18/10 A3000 RMK T01800100 IEM_DS3505
ZBHH,2007-09-25 15:00,ZBHH 251500Z AUTO 02002KT 9SM 20/10 A3000 RMK SLP123 T01960103 52003 IEM_DS3505
ZBHH,2007-09-25 16:00,ZBHH 251600Z AUTO 32002KT 3SM 18/10 A3000 RMK T01800100 IEM_DS3505
ZBHH,2007-09-25 18:00,ZBHH 251800Z AUTO 36010KT 6SM 17/06 A3003 RMK T01700060 IEM_DS3505
ZBHH,2007-09-25 21:00,ZBHH 252100Z AUTO 29004KT 12SM 16/03 A3003 RMK SLP133 T01600031 54000 IEM_DS3505
ZBHH,2007-09-25 22:00,ZBHH 252200Z AUTO 03010KT 7SM 14/03 A3006 RMK T01400030 IEM_DS3505
ZBHH,2007-09-25 23:00,ZBHH 252300Z AUTO 02008KT 7SM 13/03 A3009 RMK T01300030 IEM_DS3505
ZBHH,2007-09-26 00:00,ZBHH 260000Z AUTO 04006KT 12SM 14/04 A3009 RMK SLP157 T01380038 52011 IEM_DS3505
ZBHH,2007-09-26 01:00,ZBHH 260100Z AUTO 03008KT 7SM 13/03 A3009 RMK T01300030 IEM_DS3505
ZBHH,2007-09-26 02:00,ZBHH 260200Z AUTO 03008KT 7SM 13/04 A3012 RMK T01300040 IEM_DS3505
ZBHH,2007-09-26 03:00,ZBHH 260300Z AUTO 04006KT 12SM 12/04 A3012 RMK SLP178 T01210043 52015 IEM_DS3505
ZBHH,2007-09-26 04:00,ZBHH 260400Z AUTO 02006KT 7SM 11/04 A3012 RMK T01100040 IEM_DS3505
ZBHH,2007-09-26 05:00,ZBHH 260500Z AUTO 02002KT 7SM 11/05 A3012 RMK T01100050 IEM_DS3505
ZBHH,2007-09-26 06:00,ZBHH 260600Z AUTO 07004KT 12SM 11/06 A3012 RMK 60004 SLP183 T01070063 57002 IEM_DS3505
ZBHH,2007-09-26 07:00,ZBHH 260700Z AUTO 06002KT 7SM 10/05 A3009 RMK T01000050 IEM_DS3505
ZBHH,2007-09-26 08:00,ZBHH 260800Z AUTO 14004KT 7SM 10/06 A3009 RMK T01000060 IEM_DS3505
ZBHH,2007-09-26 09:00,ZBHH 260900Z AUTO 14002KT 12SM 11/07 A3012 RMK SLP185 T01060066 57002 IEM_DS3505
ZBHH,2007-09-26 10:00,ZBHH 261000Z AUTO 09004KT 7SM 10/06 A3012 RMK T01000060 IEM_DS3505
ZBHH,2007-09-26 11:00,ZBHH 261100Z AUTO 10004KT 7SM 09/06 A3012 RMK T00900060 IEM_DS3505
ZBHH,2007-09-26 12:00,ZBHH 261200Z AUTO 34002KT 19SM 10/06 A3012 RMK 60000 SLP203 T01030061 52011 IEM_DS3505
ZBHH,2007-09-26 13:00,ZBHH 261300Z AUTO 07002KT 7SM 09/05 A3018 RMK T00900050 IEM_DS3505
ZBHH,2007-09-26 14:00,ZBHH 261400Z AUTO 11002KT 7SM 08/05 A3015 RMK T00800050 IEM_DS3505
ZBHH,2007-09-26 15:00,ZBHH 261500Z AUTO 00000KT 19SM 09/06 A3018 RMK SLP220 T00900063 52009 IEM_DS3505
ZBHH,2007-09-26 16:00,ZBHH 261600Z AUTO 08002KT 6SM 07/05 A3018 RMK T00700050 IEM_DS3505
ZBHH,2007-09-26 17:00,ZBHH 261700Z AUTO 02002KT 6SM 07/06 A3018 RMK T00700060 IEM_DS3505
ZBHH,2007-09-26 18:00,ZBHH 261800Z AUTO 07002KT 19SM 08/05 A3018 RMK SLP225 T00750051 57002 IEM_DS3505
ZBHH,2007-09-26 19:00,ZBHH 261900Z AUTO 09002KT 6SM 04/04 A3018 RMK T00400040 IEM_DS3505
ZBHH,2007-09-26 20:00,ZBHH 262000Z AUTO 10002KT 6SM 04/02 A3018 RMK T00400020 IEM_DS3505
ZBHH,2007-09-26 21:00,ZBHH 262100Z AUTO 09002KT 19SM 05/04 A3018 RMK 70004 SLP232 T00520040 52002 IEM_DS3505
ZBHH,2007-09-26 22:00,ZBHH 262200Z AUTO 09002KT 6SM 03/01 A3018 RMK T00300010 IEM_DS3505
ZBHH,2007-09-26 23:00,ZBHH 262300Z AUTO 08002KT 6SM 04/02 A3018 RMK T00400020 IEM_DS3505
ZBHH,2007-09-27 00:00,ZBHH 270000Z AUTO 11002KT 19SM 07/05 A3021 RMK 70004 SLP240 T00730046 52010 IEM_DS3505
ZBHH,2007-09-27 01:00,ZBHH 270100Z AUTO 10002KT 6SM 07/03 A3021 RMK T00700030 IEM_DS3505
ZBHH,2007-09-27 02:00,ZBHH 270200Z AUTO 00000KT 6SM 11/03 A3021 RMK T01100030 IEM_DS3505
ZBHH,2007-09-27 03:00,ZBHH 270300Z AUTO 07002KT 19SM 15/03 A3018 RMK SLP218 T01470032 57007 IEM_DS3505
ZBHH,2007-09-27 04:00,ZBHH 270400Z AUTO 6SM 16/02 A3018 RMK T01600020 IEM_DS3505
ZBHH,2007-09-27 05:00,ZBHH 270500Z AUTO 20006KT 6SM 16/01 A3018 RMK T01600010 IEM_DS3505
ZBHH,2007-09-27 06:00,ZBHH 270600Z AUTO 22006KT 19SM 16/04 A3015 RMK SLP205 T01600038 57012 IEM_DS3505
ZBHH,2007-09-27 07:00,ZBHH 270700Z AUTO 24008KT 6SM 18/01 A3012 RMK T01800010 IEM_DS3505
ZBHH,2007-09-27 08:00,ZBHH 270800Z AUTO 04002KT 7SM 17/M02 A3012 RMK T01701020 IEM_DS3505
ZBHH,2007-09-27 09:00,ZBHH 270900Z AUTO 25004KT 16SM 16/04 A3015 RMK SLP207 T01610035 57002 IEM_DS3505
ZBHH,2007-09-27 10:00,ZBHH 271000Z AUTO 23004KT 7SM 15/04 A3015 RMK T01500040 IEM_DS3505
ZBHH,2007-09-27 11:00,ZBHH 271100Z AUTO 24004KT 5SM 13/05 A3015 RMK T01300050 IEM_DS3505
ZBHH,2007-09-27 12:00,ZBHH 271200Z AUTO 16002KT 19SM 14/05 A3018 RMK SLP222 T01350046 52012 IEM_DS3505
ZBHH,2007-09-27 13:00,ZBHH 271300Z AUTO 08002KT 4SM 10/05 A3021 RMK T01000050 IEM_DS3505
ZBHH,2007-09-27 14:00,ZBHH 271400Z AUTO 10004KT 7SM 10/04 A3021 RMK T01000040 IEM_DS3505
ZBHH,2007-09-27 15:00,ZBHH 271500Z AUTO 09004KT 19SM 12/02 A3024 RMK SLP223 T01200016 52013 IEM_DS3505
ZBHH,2007-09-27 16:00,ZBHH 271600Z AUTO 08004KT 7SM 09/03 A3024 RMK T00900030 IEM_DS3505
ZBHH,2007-09-27 17:00,ZBHH 271700Z AUTO 03004KT 6SM 08/01 A3024 RMK T00800010 IEM_DS3505
ZBHH,2007-09-27 18:00,ZBHH 271800Z AUTO 32002KT 19SM 09/01 A3024 RMK SLP238 T00910013 52010 IEM_DS3505
ZBHH,2007-09-27 19:00,ZBHH 271900Z AUTO 00000KT 6SM 07/01 A3024 RMK T00700010 IEM_DS3505
ZBHH,2007-09-27 20:00,ZBHH 272000Z AUTO 11002KT 6SM 07/00 A3027 RMK T00700000 IEM_DS3505
ZBHH,2007-09-27 21:00,ZBHH 272100Z AUTO 09002KT 19SM 09/00 A3027 RMK SLP241 T00930000 52003 IEM_DS3505
ZBHH,2007-09-27 22:00,ZBHH 272200Z AUTO 03002KT 7SM 07/M01 A3027 RMK T00701010 IEM_DS3505
ZBHH,2007-09-27 23:00,ZBHH 272300Z AUTO 09002KT 7SM 06/00 A3030 RMK T00600000 IEM_DS3505
ZBHH,2007-09-28 00:00,ZBHH 280000Z AUTO 04002KT 19SM 10/M00 A3030 RMK SLP255 T01011001 52009 IEM_DS3505
ZBHH,2007-09-28 01:00,ZBHH 280100Z AUTO 07004KT 6SM 11/M03 A3030 RMK T01101030 IEM_DS3505
ZBHH,2007-09-28 02:00,ZBHH 280200Z AUTO 23002KT 6SM 14/M04 A3030 RMK T01401040 IEM_DS3505
ZBHH,2007-09-28 03:00,ZBHH 280300Z AUTO 14004KT 19SM 16/M04 A3030 RMK SLP251 T01611039 52005 IEM_DS3505
ZBHH,2007-09-28 04:00,ZBHH 280400Z AUTO 28002KT 6SM 17/M03 A3030 RMK T01701030 IEM_DS3505
ZBHH,2007-09-28 05:00,ZBHH 280500Z AUTO 25004KT 6SM 18/M03 A3027 RMK T01801030 IEM_DS3505
ZBHH,2007-09-28 06:00,ZBHH 280600Z AUTO 07002KT 19SM 19/M02 A3024 RMK SLP226 T01911025 57022 IEM_DS3505
ZBHH,2007-09-28 07:00,ZBHH 280700Z AUTO 26006KT 6SM 19/M03 A3024 RMK T01901030 IEM_DS3505
ZBHH,2007-09-28 08:00,ZBHH 280800Z AUTO 6SM 19/M02 A3021 RMK T01901020 IEM_DS3505
ZBHH,2007-09-28 09:00,ZBHH 280900Z AUTO 18004KT 19SM 20/M05 A3021 RMK SLP215 T01961046 57008 IEM_DS3505
ZBHH,2007-09-28 10:00,ZBHH 281000Z AUTO 28004KT 6SM 17/M02 A3021 RMK T01701020 IEM_DS3505
ZBHH,2007-09-28 11:00,ZBHH 281100Z AUTO 00000KT 6SM 15/M01 A3021 RMK T01501010 IEM_DS3505
ZBHH,2007-09-28 12:00,ZBHH 281200Z AUTO 32002KT 19SM 16/M01 A3024 RMK SLP226 T01561010 52003 IEM_DS3505
ZBHH,2007-09-28 13:00,ZBHH 281300Z AUTO 22002KT 6SM 14/01 A3024 RMK T01400010 IEM_DS3505
ZBHH,2007-09-28 14:00,ZBHH 281400Z AUTO 00000KT 6SM 13/01 A3027 RMK T01300010 IEM_DS3505
ZBHH,2007-09-28 15:00,ZBHH 281500Z AUTO 25002KT 19SM 14/02 A3027 RMK SLP234 T01370020 52015 IEM_DS3505
ZBHH,2007-09-28 16:00,ZBHH 281600Z AUTO 20002KT 6SM 12/02 A3027 RMK T01200020 IEM_DS3505
ZBHH,2007-09-28 17:00,ZBHH 281700Z AUTO 11002KT 6SM 11/04 A3027 RMK T01100040 IEM_DS3505
ZBHH,2007-09-28 18:00,ZBHH 281800Z AUTO 03004KT 19SM 13/06 A3027 RMK SLP228 T01270056 57001 IEM_DS3505
ZBHH,2007-09-28 19:00,ZBHH 281900Z AUTO 16002KT 6SM 10/04 A3024 RMK T01000040 IEM_DS3505
ZBHH,2007-09-28 20:00,ZBHH 282000Z AUTO 00000KT 6SM 09/03 A3027 RMK T00900030 IEM_DS3505
ZBHH,2007-09-28 21:00,ZBHH 282100Z AUTO 02002KT 19SM 11/04 A3024 RMK SLP224 T01110041 57006 IEM_DS3505
ZBHH,2007-09-28 22:00,ZBHH 282200Z AUTO 04004KT 6SM 08/03 A3027 RMK T00800030 IEM_DS3505
ZBHH,2007-09-28 23:00,ZBHH 282300Z AUTO 10002KT 6SM 08/03 A3027 RMK T00800030 IEM_DS3505
ZBHH,2007-09-29 00:00,ZBHH 290000Z AUTO 08004KT 19SM 11/04 A3027 RMK SLP242 T01100045 52008 IEM_DS3505
ZBHH,2007-09-29 01:00,ZBHH 290100Z AUTO 00000KT 7SM 12/04 A3027 RMK T01200040 IEM_DS3505
ZBHH,2007-09-29 02:00,ZBHH 290200Z AUTO 03002KT 6SM 15/03 A3027 RMK T01500030 IEM_DS3505
ZBHH,2007-09-29 03:00,ZBHH 290300Z AUTO 22004KT 19SM 16/05 A3027 RMK SLP234 T01560049 57002 IEM_DS3505
ZBHH,2007-09-29 04:00,ZBHH 290400Z AUTO 28002KT 6SM 17/05 A3024 RMK T01700050 IEM_DS3505
ZBHH,2007-09-29 05:00,ZBHH 290500Z AUTO 25004KT 7SM 18/05 A3024 RMK T01800050 IEM_DS3505
ZBHH,2007-09-29 06:00,ZBHH 290600Z AUTO 22006KT 19SM 18/06 A3021 RMK SLP208 T01800056 57020 IEM_DS3505
ZBHH,2007-09-29 07:00,ZBHH 290700Z AUTO 23004KT 7SM 18/05 A3018 RMK T01800050 IEM_DS3505
ZBHH,2007-09-29 08:00,ZBHH 290800Z AUTO 23008KT 7SM 18/06 A3018 RMK T01800060 IEM_DS3505
ZBHH,2007-09-29 09:00,ZBHH 290900Z AUTO 25006KT 19SM 17/06 A3018 RMK SLP204 T01660064 57009 IEM_DS3505
ZBHH,2007-09-29 10:00,ZBHH 291000Z AUTO 23004KT 6SM 16/06 A3018 RMK T01600060 IEM_DS3505
ZBHH,2007-09-29 11:00,ZBHH 291100Z AUTO 24006KT 6SM 14/07 A3018 RMK T01400070 IEM_DS3505
ZBHH,2007-09-29 12:00,ZBHH 291200Z AUTO 22004KT 19SM 14/08 A3018 RMK SLP215 T01400075 52004 IEM_DS3505
ZBHH,2007-09-29 13:00,ZBHH 291300Z AUTO 00000KT 5SM 12/07 A3021 RMK T01200070 IEM_DS3505
ZBHH,2007-09-29 14:00,ZBHH 291400Z AUTO 09002KT 4SM 11/06 A3021 RMK T01100060 IEM_DS3505
ZBHH,2007-09-29 15:00,ZBHH 291500Z AUTO 09004KT 19SM 12/07 A3021 RMK SLP211 T01200073 52002 IEM_DS3505
ZBHH,2007-09-29 16:00,ZBHH 291600Z AUTO 00000KT 6SM 09/06 A3018 RMK T00900060 IEM_DS3505
ZBHH,2007-09-29 17:00,ZBHH 291700Z AUTO 06002KT 6SM 08/05 A3018 RMK T00800050 IEM_DS3505
ZBHH,2007-09-29 18:00,ZBHH 291800Z AUTO 11002KT 19SM 10/06 A3021 RMK SLP212 T00990062 52001 IEM_DS3505
ZBHH,2007-09-29 19:00,ZBHH 291900Z AUTO 10004KT 6SM 07/05 A3018 RMK T00700050 IEM_DS3505
ZBHH,2007-09-29 20:00,ZBHH 292000Z AUTO 09002KT 6SM 06/04 A3018 RMK T00600040 IEM_DS3505
ZBHH,2007-09-29 21:00,ZBHH 292100Z AUTO 07002KT 19SM 09/06 A3018 RMK SLP208 T00860057 57009 IEM_DS3505
ZBHH,2007-09-29 22:00,ZBHH 292200Z AUTO 08002KT 4SM 07/04 A3018 RMK T00700040 IEM_DS3505
ZBHH,2007-09-29 23:00,ZBHH 292300Z AUTO 10002KT 4SM 06/04 A3015 RMK T00600040 IEM_DS3505
ZBHH,2007-09-30 00:00,ZBHH 300000Z AUTO 06002KT 19SM 10/07 A3015 RMK SLP209 T01050072 54000 IEM_DS3505
ZBHH,2007-09-30 01:00,ZBHH 300100Z AUTO 00000KT 6SM 13/06 A3018 RMK T01300060 IEM_DS3505
ZBHH,2007-09-30 02:00,ZBHH 300200Z AUTO 34002KT 6SM 15/06 A3015 RMK T01500060 IEM_DS3505
ZBHH,2007-09-30 03:00,ZBHH 300300Z AUTO 16002KT 12SM 18/05 A3012 RMK SLP186 T01800049 57010 IEM_DS3505
ZBHH,2007-09-30 04:00,ZBHH 300400Z AUTO 25004KT 7SM 19/05 A3009 RMK T01900050 IEM_DS3505
ZBHH,2007-09-30 05:00,ZBHH 300500Z AUTO 26006KT 7SM 19/06 A3009 RMK T01900060 IEM_DS3505
ZBHH,2007-09-30 06:00,ZBHH 300600Z AUTO 20004KT 12SM 19/04 A3006 RMK SLP163 T01900040 57022 IEM_DS3505
ZBHH,2007-09-30 07:00,ZBHH 300700Z AUTO 27006KT 7SM 19/03 A3006 RMK T01900030 IEM_DS3505
ZBHH,2007-09-30 08:00,ZBHH 300800Z AUTO 00000KT 7SM 19/02 A3003 RMK T01900020 IEM_DS3505
ZBHH,2007-09-30 09:00,ZBHH 300900Z AUTO 25002KT 12SM 19/02 A3003 RMK SLP155 T01890023 57010 IEM_DS3505
ZBHH,2007-09-30 10:00,ZBHH 301000Z AUTO 32002KT 7SM 18/00 A3003 RMK T01800000 IEM_DS3505
ZBHH,2007-09-30 11:00,ZBHH 301100Z AUTO 00000KT 7SM 17/03 A3003 RMK T01700030 IEM_DS3505
ZBHH,2007-09-30 12:00,ZBHH 301200Z AUTO 22002KT 12SM 17/04 A3003 RMK SLP158 T01720045 52003 IEM_DS3505
ZBHH,2007-09-30 13:00,ZBHH 301300Z AUTO 28002KT 7SM 15/04 A3009 RMK T01500040 IEM_DS3505
ZBHH,2007-09-30 14:00,ZBHH 301400Z AUTO 03006KT 7SM 16/02 A3009 RMK T01600020 IEM_DS3505
ZBHH,2007-09-30 15:00,ZBHH 301500Z AUTO 09002KT 6SM 12/08 A3012 RMK SLP176 T01240085 52021 IEM_DS3505
ZBHH,2007-09-30 16:00,ZBHH 301600Z AUTO 07004KT 7SM 11/08 A3012 RMK T01100080 IEM_DS3505
ZBHH,2007-09-30 17:00,ZBHH 301700Z AUTO 06002KT 7SM 10/08 A3012 RMK T01000080 IEM_DS3505
ZBHH,2007-09-30 18:00,ZBHH 301800Z AUTO 32002KT 6SM 11/08 A3012 RMK 60028 SLP187 T01070083 52009 IEM_DS3505
ZBHH,2007-09-30 19:00,ZBHH 301900Z AUTO 03006KT 7SM 10/07 A3012 RMK T01000070 IEM_DS3505
ZBHH,2007-09-30 20:00,ZBHH 302000Z AUTO 07008KT 7SM 10/07 A3012 RMK T01000070 IEM_DS3505
ZBHH,2007-09-30 21:00,ZBHH 302100Z AUTO 07004KT 6SM 10/07 A3015 RMK 70032 SLP188 T01000074 57001 IEM_DS3505
ZBHH,2007-09-30 22:00,ZBHH 302200Z AUTO 06002KT 7SM 10/07 A3015 RMK T01000070 IEM_DS3505
ZBHH,2007-09-30 23:00,ZBHH 302300Z AUTO 00000KT 7SM 09/08 A3012 RMK T00900080 IEM_DS3505
ZBHH,2007-10-01 00:00,ZBHH 010000Z AUTO 34002KT 12SM 11/08 A3012 RMK 60008 70034 SLP194 T01060077 52003 IEM_DS3505
ZBHH,2007-10-01 01:00,ZBHH 010100Z AUTO 35002KT 7SM 11/08 A3015 RMK T01100080 IEM_DS3505
ZBHH,2007-10-01 02:00,ZBHH 010200Z AUTO 00000KT 6SM 13/06 A3015 RMK T01300060 IEM_DS3505
ZBHH,2007-10-01 03:00,ZBHH 010300Z AUTO 14002KT 12SM 15/05 A3015 RMK SLP194 T01520054 54000 IEM_DS3505
ZBHH,2007-10-01 04:00,ZBHH 010400Z AUTO 09002KT 6SM 17/06 A3012 RMK T01700060 IEM_DS3505
ZBHH,2007-10-01 05:00,ZBHH 010500Z AUTO 14002KT 6SM 18/04 A3009 RMK T01800040 IEM_DS3505
ZBHH,2007-10-01 06:00,ZBHH 010600Z AUTO 07004KT 19SM 19/04 A3006 RMK SLP167 T01900036 57020 IEM_DS3505
ZBHH,2007-10-01 07:00,ZBHH 010700Z AUTO 04004KT 6SM 19/03 A3006 RMK T01900030 IEM_DS3505
ZBHH,2007-10-01 08:00,ZBHH 010800Z AUTO 06004KT 7SM 18/03 A3006 RMK T01800030 IEM_DS3505
ZBHH,2007-10-01 09:00,ZBHH 010900Z AUTO 32004KT 19SM 18/05 A3006 RMK SLP167 T01770050 57004 IEM_DS3505
ZBHH,2007-10-01 10:00,ZBHH 011000Z AUTO 20004KT 7SM 16/07 A3006 RMK T01600070 IEM_DS3505
ZBHH,2007-10-01 11:00,ZBHH 011100Z AUTO 21004KT 7SM 15/08 A3009 RMK T01500080 IEM_DS3505
ZBHH,2007-10-01 12:00,ZBHH 011200Z AUTO 22004KT 19SM 16/07 A3009 RMK SLP180 T01560074 52009 IEM_DS3505
ZBHH,2007-10-01 13:00,ZBHH 011300Z AUTO 07002KT 7SM 13/08 A3012 RMK T01300080 IEM_DS3505
ZBHH,2007-10-01 14:00,ZBHH 011400Z AUTO 04002KT 6SM 11/07 A3012 RMK T01100070 IEM_DS3505
ZBHH,2007-10-01 15:00,ZBHH 011500Z AUTO 09004KT 19SM 12/08 A3012 RMK SLP187 T01200075 52008 IEM_DS3505
ZBHH,2007-10-01 16:00,ZBHH 011600Z AUTO 09004KT 6SM 09/07 A3012 RMK T00900070 IEM_DS3505
ZBHH,2007-10-01 17:00,ZBHH 011700Z AUTO 14004KT 6SM 09/07 A3012 RMK T00900070 IEM_DS3505
ZBHH,2007-10-01 18:00,ZBHH 011800Z AUTO 04002KT 19SM 11/08 A3012 RMK SLP185 T01140077 52004 IEM_DS3505
ZBHH,2007-10-01 19:00,ZBHH 011900Z AUTO 00000KT 6SM 09/07 A3012 RMK T00900070 IEM_DS3505
ZBHH,2007-10-01 21:00,ZBHH 012100Z AUTO 09002KT 19SM 10/06 A3012 RMK 70002 SLP188 T00960065 57003 IEM_DS3505
ZBHH,2007-10-01 22:00,ZBHH 012200Z AUTO 11002KT 3SM 08/07 A3012 RMK T00800070 IEM_DS3505
ZBHH,2007-10-01 23:00,ZBHH 012300Z AUTO 03004KT 3SM 08/06 A3012 RMK T00800060 IEM_DS3505
ZBHH,2007-10-02 00:00,ZBHH 020000Z AUTO 29002KT 19SM 11/07 A3015 RMK SLP197 T01070070 52006 IEM_DS3505
ZBHH,2007-10-02 01:00,ZBHH 020100Z AUTO 15002KT 5SM 13/07 A3015 RMK T01300070 IEM_DS3505
ZBHH,2007-10-02 02:00,ZBHH 020200Z AUTO 09002KT 6SM 14/07 A3015 RMK T01400070 IEM_DS3505
ZBHH,2007-10-02 03:00,ZBHH 020300Z AUTO 25004KT 12SM 16/07 A3015 RMK SLP195 T01610073 52002 IEM_DS3505
ZBHH,2007-10-02 04:00,ZBHH 020400Z AUTO 25004KT 6SM 17/07 A3012 RMK T01700070 IEM_DS3505
ZBHH,2007-10-02 05:00,ZBHH 020500Z AUTO 34002KT 6SM 17/07 A3009 RMK T01700070 IEM_DS3505
ZBHH,2007-10-02 06:00,ZBHH 020600Z AUTO 29002KT 9SM 18/07 A3009 RMK SLP170 T01790067 57020 IEM_DS3505
ZBHH,2007-10-02 07:00,ZBHH 020700Z AUTO 36002KT 6SM 19/06 A3006 RMK T01900060 IEM_DS3505
ZBHH,2007-10-02 08:00,ZBHH 020800Z AUTO 28004KT 7SM 18/06 A3006 RMK T01800060 IEM_DS3505
ZBHH,2007-10-02 09:00,ZBHH 020900Z AUTO 22002KT 12SM 18/04 A3006 RMK SLP164 T01830041 57008 IEM_DS3505
ZBHH,2007-10-02 10:00,ZBHH 021000Z AUTO 23002KT 7SM 17/06 A3006 RMK T01700060 IEM_DS3505
ZBHH,2007-10-02 11:00,ZBHH 021100Z AUTO 22002KT 2 1/2SM 16/07 A3006 RMK T01600070 IEM_DS3505
ZBHH,2007-10-02 12:00,ZBHH 021200Z AUTO 18002KT 19SM 16/06 A3009 RMK SLP174 T01650058 52007 IEM_DS3505
ZBHH,2007-10-02 13:00,ZBHH 021300Z AUTO 07004KT 4SM 14/08 A3009 RMK T01400080 IEM_DS3505
ZBHH,2007-10-02 14:00,ZBHH 021400Z AUTO 14002KT 3SM 14/08 A3009 RMK T01400080 IEM_DS3505
ZBHH,2007-10-02 15:00,ZBHH 021500Z AUTO 27002KT 19SM 15/07 A3012 RMK SLP173 T01530073 52008 IEM_DS3505
ZBHH,2007-10-02 16:00,ZBHH 021600Z AUTO 02006KT 6SM 14/07 A3012 RMK T01400070 IEM_DS3505
ZBHH,2007-10-02 17:00,ZBHH 021700Z AUTO 03004KT 6SM 13/06 A3012 RMK T01300060 IEM_DS3505
ZBHH,2007-10-02 18:00,ZBHH 021800Z AUTO 11002KT 19SM 14/08 A3012 RMK SLP174 T01420075 52002 IEM_DS3505
ZBHH,2007-10-02 19:00,ZBHH 021900Z AUTO 07002KT 6SM 13/08 A3009 RMK T01300080 IEM_DS3505
ZBHH,2007-10-02 20:00,ZBHH 022000Z AUTO 00000KT 6SM 13/07 A3012 RMK T01300070 IEM_DS3505
ZBHH,2007-10-02 21:00,ZBHH 022100Z AUTO 07002KT 19SM 13/07 A3009 RMK SLP173 T01310073 57002 IEM_DS3505
ZBHH,2007-10-02 22:00,ZBHH 022200Z AUTO 08002KT 4SM 11/08 A3012 RMK T01100080 IEM_DS3505
ZBHH,2007-10-02 23:00,ZBHH 022300Z AUTO 05002KT 4SM 12/08 A3012 RMK T01200080 IEM_DS3505
ZBHH,2007-10-03 00:00,ZBHH 030000Z AUTO 09002KT 19SM 14/07 A3012 RMK SLP185 T01380073 52008 IEM_DS3505
ZBHH,2007-10-03 01:00,ZBHH 030100Z AUTO 10002KT 7SM 14/07 A3015 RMK T01400070 IEM_DS3505
ZBHH,2007-10-03 02:00,ZBHH 030200Z AUTO 04002KT 7SM 16/07 A3015 RMK T01600070 IEM_DS3505
ZBHH,2007-10-03 03:00,ZBHH 030300Z AUTO 14002KT 19SM 18/07 A3015 RMK SLP182 T01790067 52003 IEM_DS3505
ZBHH,2007-10-03 04:00,ZBHH 030400Z AUTO 03002KT 7SM 19/06 A3012 RMK T01900060 IEM_DS3505
ZBHH,2007-10-03 05:00,ZBHH 030500Z AUTO 31002KT 7SM 19/06 A3009 RMK T01900060 IEM_DS3505
ZBHH,2007-10-03 06:00,ZBHH 030600Z AUTO 22004KT 16SM 20/04 A3009 RMK SLP160 T01980043 57018 IEM_DS3505
ZBHH,2007-10-03 07:00,ZBHH 030700Z AUTO 28002KT 6SM 20/05 A3009 RMK T02000050 IEM_DS3505
ZBHH,2007-10-03 08:00,ZBHH 030800Z AUTO 29002KT 6SM 20/05 A3006 RMK T02000050 IEM_DS3505
ZBHH,2007-10-03 09:00,ZBHH 030900Z AUTO 22004KT 19SM 20/06 A3009 RMK SLP160 T02000060 57002 IEM_DS3505
ZBHH,2007-10-03 10:00,ZBHH 031000Z AUTO 23002KT 6SM 18/07 A3009 RMK T01800070 IEM_DS3505
ZBHH,2007-10-03 11:00,ZBHH 031100Z AUTO 26002KT 3SM 17/09 A3009 RMK T01700090 IEM_DS3505
ZBHH,2007-10-03 12:00,ZBHH 031200Z AUTO 34002KT 12SM 16/08 A3009 RMK SLP176 T01580083 52008 IEM_DS3505
ZBHH,2007-10-03 13:00,ZBHH 031300Z AUTO 09004KT 4SM 14/08 A3012 RMK T01400080 IEM_DS3505
ZBHH,2007-10-03 14:00,ZBHH 031400Z AUTO 07006KT 7SM 13/08 A3012 RMK T01300080 IEM_DS3505
ZBHH,2007-10-03 15:00,ZBHH 031500Z AUTO 07002KT 12SM 13/08 A3012 RMK SLP182 T01340076 52008 IEM_DS3505
ZBHH,2007-10-03 16:00,ZBHH 031600Z AUTO 13002KT 6SM 11/08 A3012 RMK T01100080 IEM_DS3505
ZBHH,2007-10-03 17:00,ZBHH 031700Z AUTO 35002KT 6SM 10/07 A3012 RMK T01000070 IEM_DS3505
ZBHH,2007-10-03 18:00,ZBHH 031800Z AUTO 36002KT 9SM 11/08 A3015 RMK SLP183 T01070081 54000 IEM_DS3505
ZBHH,2007-10-03 19:00,ZBHH 031900Z AUTO 07002KT 6SM 10/06 A3012 RMK T01000060 IEM_DS3505
ZBHH,2007-10-03 20:00,ZBHH 032000Z AUTO 05002KT 6SM 10/06 A3012 RMK T01000060 IEM_DS3505
ZBHH,2007-10-03 21:00,ZBHH 032100Z AUTO 08004KT 12SM 10/08 A3012 RMK SLP184 T00990077 57001 IEM_DS3505
ZBHH,2007-10-03 22:00,ZBHH 032200Z AUTO 08006KT 4SM 09/06 A3012 RMK T00900060 IEM_DS3505
ZBHH,2007-10-03 23:00,ZBHH 032300Z AUTO 06002KT 4SM 10/06 A3012 RMK T01000060 IEM_DS3505
ZBHH,2007-10-04 00:00,ZBHH 040000Z AUTO 07002KT 19SM 12/08 A3012 RMK SLP182 T01200075 57005 IEM_DS3505
ZBHH,2007-10-04 01:00,ZBHH 040100Z AUTO 08004KT 4SM 16/08 A3009 RMK T01600080 IEM_DS3505
ZBHH,2007-10-04 02:00,ZBHH 040200Z AUTO 10008KT 4SM 16/07 A3009 RMK T01600070 IEM_DS3505
ZBHH,2007-10-04 03:00,ZBHH 040300Z AUTO 29002KT 12SM 14/11 A3009 RMK SLP182 T01410113 57001 IEM_DS3505
ZBHH,2007-10-04 04:00,ZBHH 040400Z AUTO 25002KT 2SM 12/11 A3009 RMK T01200110 IEM_DS3505
ZBHH,2007-10-04 05:00,ZBHH 040500Z AUTO 26002KT 2SM 12/10 A3009 RMK T01200100 IEM_DS3505
ZBHH,2007-10-04 06:00,ZBHH 040600Z AUTO 09004KT 12SM 13/11 A3006 RMK 60031 SLP173 T01280109 57016 IEM_DS3505
ZBHH,2007-10-04 07:00,ZBHH 040700Z AUTO 09008KT 2SM 11/10 A3006 RMK T01100100 IEM_DS3505
ZBHH,2007-10-04 08:00,ZBHH 040800Z AUTO 07006KT 2 1/2SM 11/10 A3003 RMK T01100100 IEM_DS3505
ZBHH,2007-10-04 09:00,ZBHH 040900Z AUTO 07004KT 12SM 12/11 A3003 RMK SLP169 T01220113 57006 IEM_DS3505
ZBHH,2007-10-04 10:00,ZBHH 041000Z AUTO 03004KT 1 1/4SM 12/11 A3006 RMK T01200110 IEM_DS3505
ZBHH,2007-10-04 11:00,ZBHH 041100Z AUTO 08004KT 1 1/2SM 12/11 A3006 RMK T01200110 IEM_DS3505
ZBHH,2007-10-04 12:00,ZBHH 041200Z AUTO 09002KT 12SM 13/12 A3006 RMK 60008 SLP175 T01260117 52010 IEM_DS3505
ZBHH,2007-10-04 13:00,ZBHH 041300Z AUTO 09002KT 4SM 12/11 A3009 RMK T01200110 IEM_DS3505
ZBHH,2007-10-04 14:00,ZBHH 041400Z AUTO 08002KT 3SM 12/11 A3009 RMK T01200110 IEM_DS3505
ZBHH,2007-10-04 15:00,ZBHH 041500Z AUTO 09002KT 19SM 13/12 A3009 RMK SLP176 T01300117 52006 IEM_DS3505
ZBHH,2007-10-04 16:00,ZBHH 041600Z AUTO 09004KT 1 1/4SM 12/11 A3009 RMK T01200110 IEM_DS3505
ZBHH,2007-10-04 17:00,ZBHH 041700Z AUTO 09002KT 1 1/2SM 12/11 A3009 RMK T01200110 IEM_DS3505
ZBHH,2007-10-04 18:00,ZBHH 041800Z AUTO 14002KT 12SM 13/12 A3009 RMK 60004 SLP179 T01270118 57001 IEM_DS3505
ZBHH,2007-10-04 19:00,ZBHH 041900Z AUTO 00000KT 12/11 A3006 RMK T01200110 IEM_DS3505
ZBHH,2007-10-04 20:00,ZBHH 042000Z AUTO 00000KT 1SM 12/12 A3006 RMK T01200120 IEM_DS3505
ZBHH,2007-10-04 21:00,ZBHH 042100Z AUTO 20002KT 12SM 13/12 A3006 RMK 70045 SLP174 T01280120 57005 IEM_DS3505
ZBHH,2007-10-04 22:00,ZBHH 042200Z AUTO 00000KT 3/8SM 11/11 A3009 RMK T01100110 IEM_DS3505
ZBHH,2007-10-04 23:00,ZBHH 042300Z AUTO 03002KT 1SM 12/11 A3006 RMK T01200110 IEM_DS3505
ZBHH,2007-10-05 00:00,ZBHH 050000Z AUTO 22002KT 6SM 13/12 A3009 RMK 60002 70045 SLP184 T01320123 52010 IEM_DS3505
ZBHH,2007-10-05 01:00,ZBHH 050100Z AUTO 19002KT 1 1/4SM 13/12 A3012 RMK T01300120 IEM_DS3505
ZBHH,2007-10-05 02:00,ZBHH 050200Z AUTO 20002KT 3SM 14/12 A3009 RMK T01400120 IEM_DS3505
ZBHH,2007-10-05 03:00,ZBHH 050300Z AUTO 11002KT 12SM 18/12 A3009 RMK SLP167 T01820115 57004 IEM_DS3505
ZBHH,2007-10-05 04:00,ZBHH 050400Z AUTO 08002KT 7SM 18/10 A3009 RMK T01800100 IEM_DS3505
ZBHH,2007-10-05 05:00,ZBHH 050500Z AUTO 10006KT 7SM 18/10 A3006 RMK T01800100 IEM_DS3505
ZBHH,2007-10-05 06:00,ZBHH 050600Z AUTO 11002KT 19SM 19/10 A3003 RMK SLP150 T01910096 57014 IEM_DS3505
ZBHH,2007-10-05 07:00,ZBHH 050700Z AUTO 11006KT 7SM 20/07 A3003 RMK T02000070 IEM_DS3505
ZBHH,2007-10-05 08:00,ZBHH 050800Z AUTO 13008KT 7SM 20/08 A3000 RMK T02000080 IEM_DS3505
ZBHH,2007-10-05 09:00,ZBHH 050900Z AUTO 14002KT 19SM 20/08 A3000 RMK SLP133 T01950085 57014 IEM_DS3505
ZBHH,2007-10-05 10:00,ZBHH 051000Z AUTO 18002KT 7SM 18/10 A3000 RMK T01800100 IEM_DS3505
ZBHH,2007-10-05 11:00,ZBHH 051100Z AUTO 07008KT 7SM 17/10 A2997 RMK T01700100 IEM_DS3505
ZBHH,2007-10-05 12:00,ZBHH 051200Z AUTO 09006KT 19SM 17/09 A3000 RMK SLP135 T01670094 57003 IEM_DS3505
ZBHH,2007-10-05 13:00,ZBHH 051300Z AUTO 08004KT 7SM 15/08 A3000 RMK T01500080 IEM_DS3505
ZBHH,2007-10-05 14:00,ZBHH 051400Z AUTO 16002KT 7SM 14/09 A3006 RMK T01400090 IEM_DS3505
ZBHH,2007-10-05 15:00,ZBHH 051500Z AUTO 09002KT 12SM 15/09 A3000 RMK SLP133 T01460092 52004 IEM_DS3505
ZBHH,2007-10-05 16:00,ZBHH 051600Z AUTO 11004KT 4SM 12/10 A2997 RMK T01200100 IEM_DS3505
ZBHH,2007-10-05 18:00,ZBHH 051800Z AUTO 18002KT 6SM 12/11 RMK 60016 SLP134 T01220106 57002 IEM_DS3505
ZBHH,2007-10-05 19:00,ZBHH 051900Z AUTO 14002KT 4SM 11/10 A2997 RMK T01100100 IEM_DS3505
ZBHH,2007-10-05 20:00,ZBHH 052000Z AUTO 00000KT 4SM 11/10 A2997 RMK T01100100 IEM_DS3505
ZBHH,2007-10-05 21:00,ZBHH 052100Z AUTO 34002KT 12SM 12/11 A2997 RMK 70028 SLP126 T01190106 57007 IEM_DS3505
ZBHH,2007-10-05 22:00,ZBHH 052200Z AUTO 21002KT 1 1/2SM 11/10 A2997 RMK T01100100 IEM_DS3505
ZBHH,2007-10-05 23:00,ZBHH 052300Z AUTO 22002KT 1 1/4SM 11/10 A3000 RMK T01100100 IEM_DS3505
ZBHH,2007-10-06 00:00,ZBHH 060000Z AUTO 14002KT 6SM 12/11 A3000 RMK 60012 70028 SLP144 T01250111 52012 IEM_DS3505
ZBHH,2007-10-06 01:00,ZBHH 060100Z AUTO 23006KT 1 1/2SM 12/11 A3003 RMK T01200110 IEM_DS3505
ZBHH,2007-10-06 02:00,ZBHH 060200Z AUTO 23006KT 1 1/2SM 12/11 A3003 RMK T01200110 IEM_DS3505
ZBHH,2007-10-06 03:00,ZBHH 060300Z AUTO 20004KT 12SM 14/11 A3006 RMK SLP160 T01380113 52012 IEM_DS3505
ZBHH,2007-10-06 04:00,ZBHH 060400Z AUTO 26004KT 3SM 14/11 A3003 RMK T01400110 IEM_DS3505
ZBHH,2007-10-06 05:00,ZBHH 060500Z AUTO 23008KT 2SM 15/12 A3003 RMK T01500120 IEM_DS3505
ZBHH,2007-10-06 06:00,ZBHH 060600Z AUTO 27002KT 19SM 16/11 A3003 RMK SLP152 T01610106 57007 IEM_DS3505
ZBHH,2007-10-06 07:00,ZBHH 060700Z AUTO 33012KT 7SM 17/04 A3003 RMK T01700040 IEM_DS3505
ZBHH,2007-10-06 08:00,ZBHH 060800Z AUTO 32012KT 7SM 16/03 A3003 RMK T01600030 IEM_DS3505
ZBHH,2007-10-06 09:00,ZBHH 060900Z AUTO 32012G23KT 19SM 16/M00 A3003 RMK SLP155 T01571001 52001 IEM_DS3505
ZBHH,2007-10-06 10:00,ZBHH 061000Z AUTO 35012KT 7SM 14/01 A3006 RMK T01400010 IEM_DS3505
ZBHH,2007-10-06 11:00,ZBHH 061100Z AUTO 35014G25KT 7SM 12/M01 A3009 RMK T01201010 IEM_DS3505
ZBHH,2007-10-06 12:00,ZBHH 061200Z AUTO 32006G19KT 19SM 12/M02 A3009 RMK SLP190 T01171021 52025 IEM_DS3505
ZBHH,2007-10-06 13:00,ZBHH 061300Z AUTO 35014G23KT 7SM 10/M02 A3015 RMK T01001020 IEM_DS3505
ZBHH,2007-10-06 14:00,ZBHH 061400Z AUTO 36014G25KT 7SM 08/M05 A3018 RMK T00801050 IEM_DS3505
ZBHH,2007-10-06 15:00,ZBHH 061500Z AUTO 32008G23KT 19SM 08/M08 A3021 RMK SLP236 T00781079 52035 IEM_DS3505
ZBHH,2007-10-06 16:00,ZBHH 061600Z AUTO 35016G27KT 7SM 06/M09 A3024 RMK T00601090 IEM_DS3505
ZBHH,2007-10-06 17:00,ZBHH 061700Z AUTO 36010G21KT 7SM 05/M07 A3027 RMK T00501070 IEM_DS3505
ZBHH,2007-10-06 18:00,ZBHH 061800Z AUTO 32008KT 19SM 05/M08 A3027 RMK SLP259 T00461082 52018 IEM_DS3505
ZBHH,2007-10-06 19:00,ZBHH 061900Z AUTO 36012G23KT 02/M09 A3027 RMK T00201090 IEM_DS3505
ZBHH,2007-10-06 20:00,ZBHH 062000Z AUTO 01010G21KT 7SM 01/M08 A3030 RMK T00101080 IEM_DS3505
ZBHH,2007-10-06 21:00,ZBHH 062100Z AUTO 36004KT 19SM 03/M05 A3033 RMK 70000 SLP278 T00281049 52013 IEM_DS3505
ZBHH,2007-10-06 22:00,ZBHH 062200Z AUTO 03004KT 7SM 02/M05 A3033 RMK T00201050 IEM_DS3505
ZBHH,2007-10-06 23:00,ZBHH 062300Z AUTO 01008KT 7SM 02/M04 A3033 RMK T00201040 IEM_DS3505
ZBHH,2007-10-07 00:00,ZBHH 070000Z AUTO 36006G17KT 19SM 03/M04 A3036 RMK SLP303 T00271045 52013 IEM_DS3505
ZBHH,2007-10-07 01:00,ZBHH 070100Z AUTO 36012KT 7SM 02/M05 A3039 RMK T00201050 IEM_DS3505
ZBHH,2007-10-07 02:00,ZBHH 070200Z AUTO 01014KT 7SM 02/M05 A3039 RMK T00201050 IEM_DS3505
ZBHH,2007-10-07 03:00,ZBHH 070300Z AUTO 36004KT 19SM 04/M05 A3039 RMK SLP324 T00351049 52012 IEM_DS3505
ZBHH,2007-10-07 04:00,ZBHH 070400Z AUTO 33010KT 7SM 04/M05 A3039 RMK T00401050 IEM_DS3505
ZBHH,2007-10-07 05:00,ZBHH 070500Z AUTO 35012KT 7SM 05/M05 A3039 RMK T00501050 IEM_DS3505
ZBHH,2007-10-07 06:00,ZBHH 070600Z AUTO 02008G21KT 19SM 06/M05 A3033 RMK SLP307 T00601053 57016 IEM_DS3505
ZBHH,2007-10-07 07:00,ZBHH 070700Z AUTO 34012KT 7SM 05/M05 A3033 RMK T00501050 IEM_DS3505
ZBHH,2007-10-07 08:00,ZBHH 070800Z AUTO 33010KT 7SM 06/M05 A3033 RMK T00601050 IEM_DS3505
ZBHH,2007-10-07 09:00,ZBHH 070900Z AUTO 32004KT 19SM 07/M05 A3033 RMK SLP304 T00671053 57005 IEM_DS3505
ZBHH,2007-10-07 10:00,ZBHH 071000Z AUTO 34006KT 6SM 05/M05 A3033 RMK T00501050 IEM_DS3505
ZBHH,2007-10-07 11:00,ZBHH 071100Z AUTO 01006KT 6SM 04/M05 A3036 RMK T00401050 IEM_DS3505
ZBHH,2007-10-07 12:00,ZBHH 071200Z AUTO 34002KT 19SM 05/M05 A3036 RMK SLP317 T00511053 52008 IEM_DS3505
ZBHH,2007-10-07 13:00,ZBHH 071300Z AUTO 01006KT 6SM 03/M05 A3039 RMK T00301050 IEM_DS3505
ZBHH,2007-10-07 14:00,ZBHH 071400Z AUTO 01008KT 6SM 03/M05 A3039 RMK T00301050 IEM_DS3505
ZBHH,2007-10-07 15:00,ZBHH 071500Z AUTO 32004KT 19SM 04/M05 A3039 RMK SLP327 T00431049 52009 IEM_DS3505
ZBHH,2007-10-07 16:00,ZBHH 071600Z AUTO 02008KT 6SM 03/M05 A3039 RMK T00301050 IEM_DS3505
ZBHH,2007-10-07 17:00,ZBHH 071700Z AUTO 02006KT 6SM 03/M05 A3039 RMK T00301050 IEM_DS3505
ZBHH,2007-10-07 18:00,ZBHH 071800Z AUTO 29002KT 19SM 04/M05 A3039 RMK SLP319 T00391051 57003 IEM_DS3505
ZBHH,2007-10-07 19:00,ZBHH 071900Z AUTO 03006KT 6SM 01/M05 A3036 RMK T00101050 IEM_DS3505
ZBHH,2007-10-07 20:00,ZBHH 072000Z AUTO 06004KT 6SM 01/M05 A3036 RMK T00101050 IEM_DS3505
ZBHH,2007-10-07 21:00,ZBHH 072100Z AUTO 32004KT 19SM 02/M05 A3039 RMK SLP317 T00241048 57003 IEM_DS3505
ZBHH,2007-10-07 22:00,ZBHH 072200Z AUTO 02004KT 6SM 00/M05 A3036 RMK T00001050 IEM_DS3505
ZBHH,2007-10-07 23:00,ZBHH 072300Z AUTO 15002KT 6SM M01/M05 A3039 RMK T10101050 IEM_DS3505
ZBHH,2007-10-08 00:00,ZBHH 080000Z AUTO 07002KT 19SM 04/M05 A3039 RMK SLP324 T00421048 52006 IEM_DS3505
ZBHH,2007-10-08 01:00,ZBHH 080100Z AUTO 11004KT 6SM 04/M05 A3039 RMK T00401050 IEM_DS3505
ZBHH,2007-10-08 02:00,ZBHH 080200Z AUTO 18002KT 6SM 06/M06 A3039 RMK T00601060 IEM_DS3505
ZBHH,2007-10-08 03:00,ZBHH 080300Z AUTO 07004KT 19SM 08/M06 A3039 RMK SLP309 T00791055 57007 IEM_DS3505
ZBHH,2007-10-08 04:00,ZBHH 080400Z AUTO 03002KT 6SM 08/M07 A3036 RMK T00801070 IEM_DS3505
ZBHH,2007-10-08 05:00,ZBHH 080500Z AUTO 6SM 09/M06 A3033 RMK T00901060 IEM_DS3505
ZBHH,2007-10-08 06:00,ZBHH 080600Z AUTO 11004KT 19SM 11/M06 A3030 RMK SLP277 T01061058 57023 IEM_DS3505
ZBHH,2007-10-08 07:00,ZBHH 080700Z AUTO 24004KT 6SM 11/M06 A3027 RMK T01101060 IEM_DS3505
ZBHH,2007-10-08 08:00,ZBHH 080800Z AUTO 22002KT 6SM 11/M07 A3027 RMK T01101070 IEM_DS3505
ZBHH,2007-10-08 09:00,ZBHH 080900Z AUTO 25002KT 19SM 12/M06 A3024 RMK SLP261 T01171057 57015 IEM_DS3505
ZBHH,2007-10-08 10:00,ZBHH 081000Z AUTO 23002KT 6SM 09/M05 A3027 RMK T00901050 IEM_DS3505
ZBHH,2007-10-08 11:00,ZBHH 081100Z AUTO 32002KT 6SM 07/M02 A3027 RMK T00701020 IEM_DS3505
ZBHH,2007-10-08 12:00,ZBHH 081200Z AUTO 29002KT 19SM 07/M02 A3027 RMK SLP278 T00721020 52009 IEM_DS3505
ZBHH,2007-10-08 13:00,ZBHH 081300Z AUTO 11002KT 6SM 05/M02 A3030 RMK T00501020 IEM_DS3505
ZBHH,2007-10-08 14:00,ZBHH 081400Z AUTO 04004KT 6SM 04/M03 A3030 RMK T00401030 IEM_DS3505
ZBHH,2007-10-08 15:00,ZBHH 081500Z AUTO 09002KT 19SM 06/M05 A3030 RMK SLP275 T00621051 52003 IEM_DS3505
ZBHH,2007-10-08 16:00,ZBHH 081600Z AUTO 00000KT 6SM 04/M02 A3030 RMK T00401020 IEM_DS3505
ZBHH,2007-10-08 17:00,ZBHH 081700Z AUTO 10002KT 6SM 04/M02 A3030 RMK T00401020 IEM_DS3505
ZBHH,2007-10-08 18:00,ZBHH 081800Z AUTO 18002KT 19SM 06/M05 A3030 RMK SLP275 T00601050 52005 IEM_DS3505
ZBHH,2007-10-08 19:00,ZBHH 081900Z AUTO 03002KT 6SM 04/M02 A3030 RMK T00401020 IEM_DS3505
ZBHH,2007-10-08 20:00,ZBHH 082000Z AUTO 04002KT 6SM 04/M02 A3030 RMK T00401020 IEM_DS3505
ZBHH,2007-10-08 21:00,ZBHH 082100Z AUTO 07002KT 19SM 05/M04 A3027 RMK SLP265 T00501043 57008 IEM_DS3505
ZBHH,2007-10-08 22:00,ZBHH 082200Z AUTO 09002KT 6SM 02/M03 A3027 RMK T00201030 IEM_DS3505
ZBHH,2007-10-08 23:00,ZBHH 082300Z AUTO 10004KT 7SM 01/M03 A3030 RMK T00101030 IEM_DS3505
ZBHH,2007-10-09 00:00,ZBHH 090000Z AUTO 09002KT 19SM 05/M04 A3030 RMK SLP278 T00541037 52003 IEM_DS3505
ZBHH,2007-10-09 01:00,ZBHH 090100Z AUTO 06002KT 7SM 06/M04 A3030 RMK T00601040 IEM_DS3505
ZBHH,2007-10-09 02:00,ZBHH 090200Z AUTO 11002KT 7SM 09/M04 A3030 RMK T00901040 IEM_DS3505
ZBHH,2007-10-09 03:00,ZBHH 090300Z AUTO 11002KT 19SM 11/M06 A3027 RMK SLP264 T01131056 57003 IEM_DS3505
ZBHH,2007-10-09 04:00,ZBHH 090400Z AUTO 10002KT 6SM 11/M06 A3027 RMK T01101060 IEM_DS3505
ZBHH,2007-10-09 05:00,ZBHH 090500Z AUTO 21004KT 6SM 13/M05 A3021 RMK T01301050 IEM_DS3505
ZBHH,2007-10-09 06:00,ZBHH 090600Z AUTO 20004KT 19SM 14/M05 A3021 RMK SLP232 T01381049 57023 IEM_DS3505
ZBHH,2007-10-09 07:00,ZBHH 090700Z AUTO 30004KT 6SM 13/M06 A3018 RMK T01301060 IEM_DS3505
ZBHH,2007-10-09 08:00,ZBHH 090800Z AUTO 26004KT 6SM 14/M05 A3018 RMK T01401050 IEM_DS3505
ZBHH,2007-10-09 09:00,ZBHH 090900Z AUTO 22004KT 19SM 13/M05 A3015 RMK SLP219 T01331048 57015 IEM_DS3505
ZBHH,2007-10-09 10:00,ZBHH 091000Z AUTO 21002KT 6SM 11/M04 A3015 RMK T01101040 IEM_DS3505
ZBHH,2007-10-09 11:00,ZBHH 091100Z AUTO 24002KT 6SM 10/M02 A3015 RMK T01001020 IEM_DS3505
ZBHH,2007-10-09 12:00,ZBHH 091200Z AUTO 01002KT 12SM 11/M02 A3018 RMK SLP227 T01081019 52003 IEM_DS3505
ZBHH,2007-10-09 13:00,ZBHH 091300Z AUTO 07002KT 4SM 08/01 A3018 RMK T00800010 IEM_DS3505
ZBHH,2007-10-09 14:00,ZBHH 091400Z AUTO 13002KT 6SM 08/00 A3018 RMK T00800000 IEM_DS3505
ZBHH,2007-10-09 15:00,ZBHH 091500Z AUTO 18002KT 9SM 10/00 A3021 RMK SLP226 T00990000 52009 IEM_DS3505
ZBHH,2007-10-09 16:00,ZBHH 091600Z AUTO 14002KT 6SM 08/01 A3021 RMK T00800010 IEM_DS3505
ZBHH,2007-10-09 17:00,ZBHH 091700Z AUTO 00000KT 07/01 A3021 RMK T00700010 IEM_DS3505
ZBHH,2007-10-09 18:00,ZBHH 091800Z AUTO 09002KT 9SM 08/02 A3021 RMK SLP224 T00830015 54000 IEM_DS3505
ZBHH,2007-10-09 19:00,ZBHH 091900Z AUTO 17002KT 6SM 07/02 A3018 RMK T00700020 IEM_DS3505
ZBHH,2007-10-09 20:00,ZBHH 092000Z AUTO 13002KT 6SM 06/02 A3018 RMK T00600020 IEM_DS3505
ZBHH,2007-10-09 21:00,ZBHH 092100Z AUTO 27002KT 9SM 08/04 A3018 RMK SLP221 T00810038 57004 IEM_DS3505
ZBHH,2007-10-10 00:00,ZBHH 100000Z AUTO 09002KT 12SM 08/04 A3021 RMK SLP233 T00830039 52006 IEM_DS3505
ZBHH,2007-10-10 01:00,ZBHH 100100Z AUTO 14002KT 4SM 09/03 A3021 RMK T00900030 IEM_DS3505
ZBHH,2007-10-10 02:00,ZBHH 100200Z AUTO 18004KT 4SM 10/04 A3021 RMK T01000040 IEM_DS3505
ZBHH,2007-10-10 03:00,ZBHH 100300Z AUTO 22004KT 12SM 11/05 A3021 RMK SLP229 T01130047 52001 IEM_DS3505
ZBHH,2007-10-10 04:00,ZBHH 100400Z AUTO 24006KT 6SM 13/04 A3018 RMK T01300040 IEM_DS3505
ZBHH,2007-10-10 05:00,ZBHH 100500Z AUTO 25006KT 5SM 14/03 A3018 RMK T01400030 IEM_DS3505
ZBHH,2007-10-10 06:00,ZBHH 100600Z AUTO 20006KT 12SM 15/02 A3012 RMK SLP202 T01480024 57020 IEM_DS3505
ZBHH,2007-10-10 07:00,ZBHH 100700Z AUTO 25004KT 6SM 15/02 A3012 RMK T01500020 IEM_DS3505
ZBHH,2007-10-10 08:00,ZBHH 100800Z AUTO 26008KT 5SM 15/03 A3012 RMK T01500030 IEM_DS3505
ZBHH,2007-10-10 09:00,ZBHH 100900Z AUTO 22006KT 12SM 15/03 A3015 RMK SLP202 T01480033 54000 IEM_DS3505
ZBHH,2007-10-10 10:00,ZBHH 101000Z AUTO 23004KT 7SM 13/04 A3015 RMK T01300040 IEM_DS3505
ZBHH,2007-10-10 11:00,ZBHH 101100Z AUTO 26004KT 5SM 13/04 A3018 RMK T01300040 IEM_DS3505
ZBHH,2007-10-10 12:00,ZBHH 101200Z AUTO 29002KT 12SM 13/03 A3018 RMK SLP219 T01340029 52012 IEM_DS3505
ZBHH,2007-10-10 13:00,ZBHH 101300Z AUTO 21002KT 4SM 11/05 A3018 RMK T01100050 IEM_DS3505
ZBHH,2007-10-10 14:00,ZBHH 101400Z AUTO 05002KT 4SM 10/05 A3021 RMK T01000050 IEM_DS3505
ZBHH,2007-10-10 15:00,ZBHH 101500Z AUTO 27002KT 12SM 09/04 A3021 RMK SLP235 T00910035 52012 IEM_DS3505
ZBHH,2007-10-10 16:00,ZBHH 101600Z AUTO 17002KT 4SM 07/04 A3024 RMK T00700040 IEM_DS3505
ZBHH,2007-10-10 18:00,ZBHH 101800Z AUTO 09002KT 19SM 07/04 A3024 RMK SLP241 T00700040 52008 IEM_DS3505
ZBHH,2007-10-10 19:00,ZBHH 101900Z AUTO 03004KT 5SM 05/02 A3024 RMK T00500020 IEM_DS3505
ZBHH,2007-10-10 20:00,ZBHH 102000Z AUTO 00000KT 5SM 04/02 A3024 RMK T00400020 IEM_DS3505
ZBHH,2007-10-10 21:00,ZBHH 102100Z AUTO 32002KT 19SM 05/03 A3027 RMK SLP252 T00540031 52006 IEM_DS3505
ZBHH,2007-10-10 22:00,ZBHH 102200Z AUTO 09002KT 4SM 03/01 A3027 RMK T00300010 IEM_DS3505
ZBHH,2007-10-10 23:00,ZBHH 102300Z AUTO 00000KT 4SM 03/01 A3027 RMK T00300010 IEM_DS3505
ZBHH,2007-10-11 00:00,ZBHH 110000Z AUTO 09002KT 12SM 07/04 A3030 RMK SLP263 T00720038 52011 IEM_DS3505
ZBHH,2007-10-11 01:00,ZBHH 110100Z AUTO 22002KT 3SM 07/03 A3033 RMK T00700030 IEM_DS3505
ZBHH,2007-10-11 02:00,ZBHH 110200Z AUTO 00000KT 4SM 09/04 A3033 RMK T00900040 IEM_DS3505
ZBHH,2007-10-11 03:00,ZBHH 110300Z AUTO 20002KT 12SM 12/05 A3030 RMK SLP266 T01220047 52004 IEM_DS3505
ZBHH,2007-10-11 04:00,ZBHH 110400Z AUTO 20002KT 4SM 13/03 A3030 RMK T01300030 IEM_DS3505
ZBHH,2007-10-11 05:00,ZBHH 110500Z AUTO 25004KT 7SM 14/02 A3030 RMK T01400020 IEM_DS3505
ZBHH,2007-10-11 06:00,ZBHH 110600Z AUTO 22006KT 12SM 16/03 A3027 RMK SLP248 T01600031 57013 IEM_DS3505
ZBHH,2007-10-11 07:00,ZBHH 110700Z AUTO 24004KT 6SM 16/01 A3027 RMK T01600010 IEM_DS3505
ZBHH,2007-10-11 08:00,ZBHH 110800Z AUTO 26004KT 6SM 16/00 A3027 RMK T01600000 IEM_DS3505
ZBHH,2007-10-11 09:00,ZBHH 110900Z AUTO 25002KT 12SM 16/00 A3027 RMK SLP246 T01630000 57004 IEM_DS3505
ZBHH,2007-10-11 10:00,ZBHH 111000Z AUTO 22002KT 6SM 14/01 A3027 RMK T01400010 IEM_DS3505
ZBHH,2007-10-11 11:00,ZBHH 111100Z AUTO 02002KT 6SM 12/02 A3030 RMK T01200020 IEM_DS3505
ZBHH,2007-10-11 12:00,ZBHH 111200Z AUTO 36002KT 12SM 10/01 A3033 RMK SLP274 T01010007 52016 IEM_DS3505
ZBHH,2007-10-11 13:00,ZBHH 111300Z AUTO 09006KT 6SM 08/M05 A3033 RMK T00801050 IEM_DS3505
ZBHH,2007-10-11 14:00,ZBHH 111400Z AUTO 10004KT 6SM 08/M05 A3036 RMK T00801050 IEM_DS3505
ZBHH,2007-10-11 15:00,ZBHH 111500Z AUTO 09002KT 19SM 08/M05 A3039 RMK SLP293 T00771054 52022 IEM_DS3505
ZBHH,2007-10-11 16:00,ZBHH 111600Z AUTO 03002KT 6SM 06/M04 A3039 RMK T00601040 IEM_DS3505
ZBHH,2007-10-11 17:00,ZBHH 111700Z AUTO 07002KT 6SM 05/M06 A3039 RMK T00501060 IEM_DS3505
ZBHH,2007-10-11 18:00,ZBHH 111800Z AUTO 09002KT 19SM 04/M02 A3039 RMK SLP296 T00411025 52003 IEM_DS3505
ZBHH,2007-10-11 19:00,ZBHH 111900Z AUTO 07002KT 6SM 04/M05 A3039 RMK T00401050 IEM_DS3505
ZBHH,2007-10-11 20:00,ZBHH 112000Z AUTO 00000KT 6SM 02/M03 A3039 RMK T00201030 IEM_DS3505
ZBHH,2007-10-11 21:00,ZBHH 112100Z AUTO 11002KT 19SM 03/M03 A3039 RMK SLP298 T00261033 57001 IEM_DS3505
ZBHH,2007-10-11 22:00,ZBHH 112200Z AUTO 06002KT 6SM 02/M04 A3042 RMK T00201040 IEM_DS3505
ZBHH,2007-10-11 23:00,ZBHH 112300Z AUTO 05004KT 6SM 03/M05 A3042 RMK T00301050 IEM_DS3505
ZBHH,2007-10-12 00:00,ZBHH 120000Z AUTO 09004KT 19SM 06/M05 A3042 RMK SLP317 T00631051 52012 IEM_DS3505
ZBHH,2007-10-12 01:00,ZBHH 120100Z AUTO 05002KT 6SM 08/M05 A3042 RMK T00801050 IEM_DS3505
ZBHH,2007-10-12 02:00,ZBHH 120200Z AUTO 06002KT 6SM 12/M06 A3042 RMK T01201060 IEM_DS3505
ZBHH,2007-10-12 03:00,ZBHH 120300Z AUTO 09004KT 16SM 14/M07 A3042 RMK SLP303 T01361066 57003 IEM_DS3505
ZBHH,2007-10-12 04:00,ZBHH 120400Z AUTO 00000KT 6SM 15/M07 A3039 RMK T01501070 IEM_DS3505
ZBHH,2007-10-12 05:00,ZBHH 120500Z AUTO 21002KT 6SM 16/M05 A3036 RMK T01601050 IEM_DS3505
ZBHH,2007-10-12 06:00,ZBHH 120600Z AUTO 20008KT 19SM 16/M02 A3033 RMK SLP279 T01591021 57023 IEM_DS3505
ZBHH,2007-10-12 07:00,ZBHH 120700Z AUTO 25008KT 7SM 15/M02 A3033 RMK T01501020 IEM_DS3505
ZBHH,2007-10-12 08:00,ZBHH 120800Z AUTO 24004KT 7SM 15/M02 A3030 RMK T01501020 IEM_DS3505
ZBHH,2007-10-12 09:00,ZBHH 120900Z AUTO 20004KT 16SM 16/M01 A3030 RMK SLP266 T01581013 57015 IEM_DS3505
ZBHH,2007-10-12 10:00,ZBHH 121000Z AUTO 10002KT 7SM 14/01 A3030 RMK T01400010 IEM_DS3505
ZBHH,2007-10-12 11:00,ZBHH 121100Z AUTO 24004KT 5SM 13/01 A3030 RMK T01300010 IEM_DS3505
ZBHH,2007-10-12 12:00,ZBHH 121200Z AUTO 20006KT 12SM 11/06 A3033 RMK 60000 SLP282 T01110060 52012 IEM_DS3505
ZBHH,2007-10-12 13:00,ZBHH 121300Z AUTO 21002KT 2 1/2SM 08/07 A3033 RMK T00800070 IEM_DS3505
ZBHH,2007-10-12 14:00,ZBHH 121400Z AUTO 22004KT 2SM 08/07 A3033 RMK T00800070 IEM_DS3505
ZBHH,2007-10-12 15:00,ZBHH 121500Z AUTO 29010KT 12SM 07/03 A3036 RMK SLP281 T00720034 52006 IEM_DS3505
ZBHH,2007-10-12 16:00,ZBHH 121600Z AUTO 28002KT 7SM 06/04 A3036 RMK T00600040 IEM_DS3505
ZBHH,2007-10-12 17:00,ZBHH 121700Z AUTO 36004KT 7SM 06/02 A3039 RMK T00600020 IEM_DS3505
ZBHH,2007-10-12 18:00,ZBHH 121800Z AUTO 25002KT 19SM 08/01 A3036 RMK 60016 SLP281 T00750007 52005 IEM_DS3505
ZBHH,2007-10-12 19:00,ZBHH 121900Z AUTO 18004KT 7SM 05/02 A3036 RMK T00500020 IEM_DS3505
ZBHH,2007-10-12 20:00,ZBHH 122000Z AUTO 23004KT 7SM 04/02 A3036 RMK T00400020 IEM_DS3505
ZBHH,2007-10-12 21:00,ZBHH 122100Z AUTO 27004KT 19SM 06/M02 A3039 RMK 70015 SLP294 T00551016 52007 IEM_DS3505
ZBHH,2007-10-12 22:00,ZBHH 122200Z AUTO 36004KT 7SM 03/M02 A3039 RMK T00301020 IEM_DS3505
ZBHH,2007-10-12 23:00,ZBHH 122300Z AUTO 28004KT 7SM 04/M01 A3042 RMK T00401010 IEM_DS3505
ZBHH,2007-10-13 00:00,ZBHH 130000Z AUTO 29006KT 19SM 06/M01 A3042 RMK 70015 SLP317 T00601007 52012 IEM_DS3505
ZBHH,2007-10-13 01:00,ZBHH 130100Z AUTO 33004KT 7SM 06/M01 A3045 RMK T00601010 IEM_DS3505
ZBHH,2007-10-13 02:00,ZBHH 130200Z AUTO 35008KT 7SM 06/00 A3045 RMK T00600000 IEM_DS3505
ZBHH,2007-10-13 03:00,ZBHH 130300Z AUTO 32006KT 19SM 08/M00 A3045 RMK SLP327 T00801005 52005 IEM_DS3505
ZBHH,2007-10-13 04:00,ZBHH 130400Z AUTO 34006KT 7SM 08/M01 A3045 RMK T00801010 IEM_DS3505
ZBHH,2007-10-13 05:00,ZBHH 130500Z AUTO 34012KT 7SM 07/M01 A3045 RMK T00701010 IEM_DS3505
ZBHH,2007-10-13 06:00,ZBHH 130600Z AUTO 36004KT 19SM 08/M02 A3045 RMK SLP329 T00771015 52002 IEM_DS3505
ZBHH,2007-10-13 07:00,ZBHH 130700Z AUTO 36008KT 7SM 08/M03 A3045 RMK T00801030 IEM_DS3505
ZBHH,2007-10-13 08:00,ZBHH 130800Z AUTO 35008KT 7SM 08/M03 A3045 RMK T00801030 IEM_DS3505
ZBHH,2007-10-13 09:00,ZBHH 130900Z AUTO 32006KT 19SM 08/M03 A3045 RMK SLP331 T00841031 57001 IEM_DS3505
ZBHH,2007-10-13 10:00,ZBHH 131000Z AUTO 36002KT 7SM 07/M03 A3045 RMK T00701030 IEM_DS3505
ZBHH,2007-10-13 11:00,ZBHH 131100Z AUTO 14002KT 7SM 07/M02 A3045 RMK T00701020 IEM_DS3505
ZBHH,2007-10-13 12:00,ZBHH 131200Z AUTO 29002KT 19SM 06/M03 A3047 RMK SLP342 T00601034 52006 IEM_DS3505
ZBHH,2007-10-13 13:00,ZBHH 131300Z AUTO 03004KT 7SM 03/M02 A3047 RMK T00301020 IEM_DS3505
ZBHH,2007-10-13 14:00,ZBHH 131400Z AUTO 00000KT 6SM 02/M02 A3047 RMK T00201020 IEM_DS3505
ZBHH,2007-10-13 15:00,ZBHH 131500Z AUTO 29006KT 19SM 06/M02 A3050 RMK SLP347 T00551021 52007 IEM_DS3505
ZBHH,2007-10-13 16:00,ZBHH 131600Z AUTO 12002KT 6SM 00/M02 A3050 RMK T00001020 IEM_DS3505
ZBHH,2007-10-13 17:00,ZBHH 131700Z AUTO 11002KT 6SM 00/M02 A3050 RMK T00001020 IEM_DS3505
ZBHH,2007-10-13 18:00,ZBHH 131800Z AUTO 09002KT 19SM 02/M01 A3050 RMK SLP360 T00181009 52003 IEM_DS3505
ZBHH,2007-10-13 19:00,ZBHH 131900Z AUTO 10004KT 6SM M01/M03 A3050 RMK T10101030 IEM_DS3505
ZBHH,2007-10-13 20:00,ZBHH 132000Z AUTO 00000KT 6SM M01/M03 A3050 RMK T10101030 IEM_DS3505
ZBHH,2007-10-13 21:00,ZBHH 132100Z AUTO 11002KT 19SM 01/M01 A3050 RMK SLP357 T00071011 57003 IEM_DS3505
ZBHH,2007-10-13 22:00,ZBHH 132200Z AUTO 08002KT 6SM M02/M04 A3050 RMK T10201040 IEM_DS3505
ZBHH,2007-10-13 23:00,ZBHH 132300Z AUTO 00000KT 6SM M02/M04 A3050 RMK T10201040 IEM_DS3505
ZBHH,2007-10-14 00:00,ZBHH 140000Z AUTO 11002KT 19SM 02/M00 A3050 RMK SLP370 T00191005 52009 IEM_DS3505
ZBHH,2007-10-14 01:00,ZBHH 140100Z AUTO 15002KT 6SM 03/M01 A3053 RMK T00301010 IEM_DS3505
ZBHH,2007-10-14 02:00,ZBHH 140200Z AUTO 15002KT 6SM 05/M01 A3053 RMK T00501010 IEM_DS3505
ZBHH,2007-10-14 03:00,ZBHH 140300Z AUTO 20002KT 19SM 08/M01 A3050 RMK SLP352 T00771010 57005 IEM_DS3505
ZBHH,2007-10-14 04:00,ZBHH 140400Z AUTO 27002KT 6SM 09/M02 A3047 RMK T00901020 IEM_DS3505
ZBHH,2007-10-14 05:00,ZBHH 140500Z AUTO 22004KT 6SM 10/M03 A3045 RMK T01001030 IEM_DS3505
ZBHH,2007-10-14 06:00,ZBHH 140600Z AUTO 22006KT 19SM 11/M03 A3042 RMK SLP322 T01111034 57027 IEM_DS3505
ZBHH,2007-10-14 07:00,ZBHH 140700Z AUTO 20004KT 6SM 11/M03 A3042 RMK T01101030 IEM_DS3505
ZBHH,2007-10-14 08:00,ZBHH 140800Z AUTO 22006KT 6SM 11/M03 A3039 RMK T01101030 IEM_DS3505
ZBHH,2007-10-14 09:00,ZBHH 140900Z AUTO 20004KT 19SM 11/M02 A3039 RMK SLP315 T01101021 57009 IEM_DS3505
ZBHH,2007-10-14 10:00,ZBHH 141000Z AUTO 22004KT 6SM 08/M02 A3039 RMK T00801020 IEM_DS3505
ZBHH,2007-10-14 11:00,ZBHH 141100Z AUTO 21002KT 6SM 07/M02 A3042 RMK T00701020 IEM_DS3505
ZBHH,2007-10-14 12:00,ZBHH 141200Z AUTO 22002KT 19SM 08/M02 A3042 RMK SLP326 T00821019 52007 IEM_DS3505
ZBHH,2007-10-14 13:00,ZBHH 141300Z AUTO 11004KT 6SM 04/M01 A3042 RMK T00401010 IEM_DS3505
ZBHH,2007-10-14 14:00,ZBHH 141400Z AUTO 09004KT 6SM 03/M01 A3042 RMK T00301010 IEM_DS3505
ZBHH,2007-10-14 15:00,ZBHH 141500Z AUTO 11002KT 19SM 04/M01 A3042 RMK SLP325 T00401008 52002 IEM_DS3505
ZBHH,2007-10-14 16:00,ZBHH 141600Z AUTO 03004KT 6SM 02/M02 A3042 RMK T00201020 IEM_DS3505
ZBHH,2007-10-14 17:00,ZBHH 141700Z AUTO 09004KT 6SM 01/M02 A3042 RMK T00101020 IEM_DS3505
ZBHH,2007-10-14 18:00,ZBHH 141800Z AUTO 07002KT 19SM 01/M01 A3042 RMK SLP318 T00141010 57004 IEM_DS3505
ZBHH,2007-10-14 19:00,ZBHH 141900Z AUTO 06002KT 6SM 01/M02 A3042 RMK T00101020 IEM_DS3505
ZBHH,2007-10-14 20:00,ZBHH 142000Z AUTO 10002KT 6SM 00/M03 A3039 RMK T00001030 IEM_DS3505
ZBHH,2007-10-14 21:00,ZBHH 142100Z AUTO 04002KT 19SM 00/M02 A3042 RMK SLP320 T00021015 57001 IEM_DS3505
ZBHH,2007-10-14 22:00,ZBHH 142200Z AUTO 08002KT 6SM M01/M03 A3042 RMK T10101030 IEM_DS3505
ZBHH,2007-10-14 23:00,ZBHH 142300Z AUTO 09004KT 6SM M01/M03 A3042 RMK T10101030 IEM_DS3505
ZBHH,2007-10-15 00:00,ZBHH 150000Z AUTO 09002KT 19SM 03/M02 A3042 RMK SLP329 T00291016 52007 IEM_DS3505
ZBHH,2007-10-15 01:00,ZBHH 150100Z AUTO 14002KT 6SM 05/M01 A3042 RMK T00501010 IEM_DS3505
ZBHH,2007-10-15 02:00,ZBHH 150200Z AUTO 19004KT 6SM 06/M01 A3042 RMK T00601010 IEM_DS3505
ZBHH,2007-10-15 03:00,ZBHH 150300Z AUTO 09004KT 19SM 09/M02 A3042 RMK SLP322 T00861015 57003 IEM_DS3505
ZBHH,2007-10-15 04:00,ZBHH 150400Z AUTO 20004KT 7SM 09/M01 A3039 RMK T00901010 IEM_DS3505
ZBHH,2007-10-15 05:00,ZBHH 150500Z AUTO 25006KT 7SM 11/M01 A3036 RMK T01101010 IEM_DS3505
ZBHH,2007-10-15 06:00,ZBHH 150600Z AUTO 22008KT 19SM 12/M02 A3033 RMK SLP293 T01241019 57023 IEM_DS3505
ZBHH,2007-10-15 07:00,ZBHH 150700Z AUTO 26008KT 7SM 13/M02 A3033 RMK T01301020 IEM_DS3505
ZBHH,2007-10-15 08:00,ZBHH 150800Z AUTO 23008KT 7SM 13/M02 A3030 RMK T01301020 IEM_DS3505
ZBHH,2007-10-15 09:00,ZBHH 150900Z AUTO 27004KT 19SM 14/M03 A3030 RMK SLP280 T01351033 57011 IEM_DS3505
ZBHH,2007-10-15 10:00,ZBHH 151000Z AUTO 25006KT 5SM 11/M02 A3030 RMK T01101020 IEM_DS3505
ZBHH,2007-10-15 11:00,ZBHH 151100Z AUTO 26004KT 5SM 09/M03 A3033 RMK T00901030 IEM_DS3505
ZBHH,2007-10-15 12:00,ZBHH 151200Z AUTO 32002KT 19SM 09/M05 A3033 RMK SLP294 T00881051 52008 IEM_DS3505
ZBHH,2007-10-15 13:00,ZBHH 151300Z AUTO 04002KT 5SM 05/M05 A3033 RMK T00501050 IEM_DS3505
ZBHH,2007-10-15 14:00,ZBHH 151400Z AUTO 13002KT 5SM 03/M03 A3036 RMK T00301030 IEM_DS3505
ZBHH,2007-10-15 15:00,ZBHH 151500Z AUTO 11002KT 19SM 04/M03 A3033 RMK SLP295 T00431026 52003 IEM_DS3505
ZBHH,2007-10-15 16:00,ZBHH 151600Z AUTO 08002KT 5SM 01/M03 A3033 RMK T00101030 IEM_DS3505
ZBHH,2007-10-15 17:00,ZBHH 151700Z AUTO 10004KT 5SM 00/M03 A3033 RMK T00001030 IEM_DS3505
ZBHH,2007-10-15 18:00,ZBHH 151800Z AUTO 09002KT 19SM 02/M03 A3033 RMK SLP284 T00251034 57005 IEM_DS3505
ZBHH,2007-10-15 19:00,ZBHH 151900Z AUTO 04002KT 5SM 00/M04 A3033 RMK T00001040 IEM_DS3505
ZBHH,2007-10-15 20:00,ZBHH 152000Z AUTO 00000KT 5SM 00/M04 A3030 RMK T00001040 IEM_DS3505
ZBHH,2007-10-15 21:00,ZBHH 152100Z AUTO 36002KT 19SM 00/M04 A3030 RMK SLP281 T00041037 57005 IEM_DS3505
ZBHH,2007-10-15 22:00,ZBHH 152200Z AUTO 08002KT 6SM 00/M04 A3030 RMK T00001040 IEM_DS3505
ZBHH,2007-10-15 23:00,ZBHH 152300Z AUTO 08004KT 6SM M01/M04 A3030 RMK T10101040 IEM_DS3505
ZBHH,2007-10-16 00:00,ZBHH 160000Z AUTO 04002KT 19SM 03/M03 A3030 RMK SLP288 T00281033 52001 IEM_DS3505
ZBHH,2007-10-16 01:00,ZBHH 160100Z AUTO 11002KT 6SM 05/M03 A3033 RMK T00501030 IEM_DS3505
ZBHH,2007-10-16 02:00,ZBHH 160200Z AUTO 27002KT 6SM 08/M02 A3030 RMK T00801020 IEM_DS3505
ZBHH,2007-10-16 03:00,ZBHH 160300Z AUTO 11004KT 19SM 10/M02 A3027 RMK SLP272 T00991021 57008 IEM_DS3505
ZBHH,2007-10-16 04:00,ZBHH 160400Z AUTO 22004KT 6SM 11/M03 A3027 RMK T01101030 IEM_DS3505
ZBHH,2007-10-16 05:00,ZBHH 160500Z AUTO 21004KT 6SM 11/M03 A3024 RMK T01101030 IEM_DS3505
ZBHH,2007-10-16 06:00,ZBHH 160600Z AUTO 25004KT 19SM 14/M03 A3021 RMK SLP241 T01381030 57023 IEM_DS3505
ZBHH,2007-10-16 07:00,ZBHH 160700Z AUTO 25004KT 6SM 14/M04 A3018 RMK T01401040 IEM_DS3505
ZBHH,2007-10-16 08:00,ZBHH 160800Z AUTO 25008KT 6SM 15/M05 A3018 RMK T01501050 IEM_DS3505
ZBHH,2007-10-16 09:00,ZBHH 160900Z AUTO 25006KT 19SM 14/M03 A3018 RMK SLP239 T01401029 57006 IEM_DS3505
ZBHH,2007-10-16 10:00,ZBHH 161000Z AUTO 25006KT 5SM 11/M02 A3018 RMK T01101020 IEM_DS3505
ZBHH,2007-10-16 11:00,ZBHH 161100Z AUTO 11002KT 4SM 08/M01 A3021 RMK T00801010 IEM_DS3505
ZBHH,2007-10-16 12:00,ZBHH 161200Z AUTO 05004KT 19SM 08/M02 A3021 RMK SLP255 T00811022 52007 IEM_DS3505
ZBHH,2007-10-16 13:00,ZBHH 161300Z AUTO 09006KT 4SM 04/M02 A3021 RMK T00401020 IEM_DS3505
ZBHH,2007-10-16 14:00,ZBHH 161400Z AUTO 08004KT 4SM 03/M02 A3021 RMK T00301020 IEM_DS3505
ZBHH,2007-10-16 15:00,ZBHH 161500Z AUTO 07002KT 12SM 05/M05 A3024 RMK SLP252 T00511047 52006 IEM_DS3505
ZBHH,2007-10-16 16:00,ZBHH 161600Z AUTO 09004KT 4SM 01/M03 A3021 RMK T00101030 IEM_DS3505
ZBHH,2007-10-16 17:00,ZBHH 161700Z AUTO 09002KT 4SM 01/M04 A3021 RMK T00101040 IEM_DS3505
ZBHH,2007-10-16 18:00,ZBHH 161800Z AUTO 07002KT 12SM 03/M05 A3021 RMK SLP243 T00281046 57005 IEM_DS3505
ZBHH,2007-10-16 19:00,ZBHH 161900Z AUTO 10004KT 4SM 00/M04 A3021 RMK T00001040 IEM_DS3505
ZBHH,2007-10-16 20:00,ZBHH 162000Z AUTO 06002KT 4SM 00/M04 A3018 RMK T00001040 IEM_DS3505
ZBHH,2007-10-16 21:00,ZBHH 162100Z AUTO 09002KT 19SM 01/M04 A3018 RMK SLP237 T00061040 57009 IEM_DS3505
ZBHH,2007-10-16 22:00,ZBHH 162200Z AUTO 07002KT 6SM 00/M05 A3018 RMK T00001050 IEM_DS3505
ZBHH,2007-10-16 23:00,ZBHH 162300Z AUTO 09004KT 6SM M01/M04 A3018 RMK T10101040 IEM_DS3505
ZBHH,2007-10-17 00:00,ZBHH 170000Z AUTO 11002KT 19SM 03/M03 A3021 RMK SLP251 T00261033 52004 IEM_DS3505
ZBHH,2007-10-17 01:00,ZBHH 170100Z AUTO 11002KT 5SM 05/M02 A3021 RMK T00501020 IEM_DS3505
ZBHH,2007-10-17 02:00,ZBHH 170200Z AUTO 20004KT 6SM 08/M02 A3021 RMK T00801020 IEM_DS3505
ZBHH,2007-10-17 03:00,ZBHH 170300Z AUTO 27002KT 19SM 11/M05 A3018 RMK SLP236 T01091047 57002 IEM_DS3505
ZBHH,2007-10-17 04:00,ZBHH 170400Z AUTO 24002KT 6SM 11/M04 A3018 RMK T01101040 IEM_DS3505
ZBHH,2007-10-17 05:00,ZBHH 170500Z AUTO 27002KT 6SM 12/M04 A3015 RMK T01201040 IEM_DS3505
ZBHH,2007-10-17 06:00,ZBHH 170600Z AUTO 32008KT 19SM 16/M04 A3012 RMK SLP212 T01551044 57017 IEM_DS3505
ZBHH,2007-10-17 07:00,ZBHH 170700Z AUTO 36012KT 6SM 14/M04 A3012 RMK T01401040 IEM_DS3505
ZBHH,2007-10-17 08:00,ZBHH 170800Z AUTO 36012KT 6SM 12/M04 A3015 RMK T01201040 IEM_DS3505
ZBHH,2007-10-17 09:00,ZBHH 170900Z AUTO 32006KT 16SM 12/M05 A3015 RMK SLP229 T01181048 52003 IEM_DS3505
ZBHH,2007-10-17 10:00,ZBHH 171000Z AUTO 01010KT 6SM 09/M06 A3015 RMK T00901060 IEM_DS3505
ZBHH,2007-10-17 11:00,ZBHH 171100Z AUTO 01012KT 6SM 09/M06 A3018 RMK T00901060 IEM_DS3505
ZBHH,2007-10-17 12:00,ZBHH 171200Z AUTO 02006G23KT 19SM 09/M06 A3021 RMK SLP254 T00871059 52020 IEM_DS3505
ZBHH,2007-10-17 13:00,ZBHH 171300Z AUTO 02012KT 6SM 07/M07 A3024 RMK T00701070 IEM_DS3505
ZBHH,2007-10-17 14:00,ZBHH 171400Z AUTO 03012KT 6SM 05/M08 A3027 RMK T00501080 IEM_DS3505
ZBHH,2007-10-17 15:00,ZBHH 171500Z AUTO 02004KT 19SM 05/M09 A3027 RMK SLP262 T00531089 52017 IEM_DS3505
ZBHH,2007-10-17 16:00,ZBHH 171600Z AUTO 06006KT 6SM 03/M09 A3027 RMK T00301090 IEM_DS3505
ZBHH,2007-10-17 17:00,ZBHH 171700Z AUTO 01004KT 6SM 02/M09 A3027 RMK T00201090 IEM_DS3505
ZBHH,2007-10-17 18:00,ZBHH 171800Z AUTO 04002KT 19SM 03/M09 A3030 RMK SLP266 T00281091 52008 IEM_DS3505
ZBHH,2007-10-17 19:00,ZBHH 171900Z AUTO 33004KT 4SM 00/M09 A3030 RMK T00001090 IEM_DS3505
ZBHH,2007-10-17 21:00,ZBHH 172100Z AUTO 34004KT 19SM 00/M13 RMK SLP282 T00021128 52001 IEM_DS3505
ZBHH,2007-10-17 23:00,ZBHH 172300Z AUTO 36006KT 6SM M01/M14 A3030 RMK T10101140 IEM_DS3505
ZBHH,2007-10-18 00:00,ZBHH 180000Z AUTO 27002KT 19SM 00/M14 A3033 RMK SLP302 T00041144 52011 IEM_DS3505
ZBHH,2007-10-18 01:00,ZBHH 180100Z AUTO 35008KT 7SM 01/M16 A3033 RMK T00101160 IEM_DS3505
ZBHH,2007-10-18 02:00,ZBHH 180200Z AUTO 34008KT 7SM 02/M16 A3036 RMK T00201160 IEM_DS3505
ZBHH,2007-10-18 03:00,ZBHH 180300Z AUTO 16004KT 19SM 06/M14 A3036 RMK SLP306 T00561139 52008 IEM_DS3505
ZBHH,2007-10-18 04:00,ZBHH 180400Z AUTO 32002KT 6SM 05/M13 A3033 RMK T00501130 IEM_DS3505
ZBHH,2007-10-18 05:00,ZBHH 180500Z AUTO 34010G19KT 6SM 07/M13 A3033 RMK T00701130 IEM_DS3505
ZBHH,2007-10-18 06:00,ZBHH 180600Z AUTO 34008KT 19SM 08/M13 A3030 RMK SLP287 T00821128 57017 IEM_DS3505
ZBHH,2007-10-18 07:00,ZBHH 180700Z AUTO 34010KT 6SM 08/M13 A3027 RMK T00801130 IEM_DS3505
ZBHH,2007-10-18 08:00,ZBHH 180800Z AUTO 33012KT 6SM 08/M14 A3027 RMK T00801140 IEM_DS3505
ZBHH,2007-10-18 09:00,ZBHH 180900Z AUTO 32008KT 19SM 08/M14 A3027 RMK SLP287 T00841139 57005 IEM_DS3505
ZBHH,2007-10-18 10:00,ZBHH 181000Z AUTO 34006KT 6SM 06/M15 A3030 RMK T00601150 IEM_DS3505
ZBHH,2007-10-18 11:00,ZBHH 181100Z AUTO 34002KT 6SM 04/M14 A3030 RMK T00401140 IEM_DS3505
ZBHH,2007-10-18 12:00,ZBHH 181200Z AUTO 32004KT 19SM 05/M13 A3030 RMK SLP300 T00471127 52004 IEM_DS3505
ZBHH,2007-10-18 13:00,ZBHH 181300Z AUTO 19002KT 6SM 00/M11 A3030 RMK T00001110 IEM_DS3505
ZBHH,2007-10-18 14:00,ZBHH 181400Z AUTO 07004KT 6SM 00/M11 A3030 RMK T00001110 IEM_DS3505
ZBHH,2007-10-18 15:00,ZBHH 181500Z AUTO 20002KT 19SM 00/M11 A3030 RMK SLP297 T00051112 54000 IEM_DS3505
ZBHH,2007-10-18 16:00,ZBHH 181600Z AUTO 00000KT 6SM M03/M09 A3030 RMK T10301090 IEM_DS3505
ZBHH,2007-10-18 17:00,ZBHH 181700Z AUTO 6SM M04/M09 A3027 RMK T10401090 IEM_DS3505
ZBHH,2007-10-18 18:00,ZBHH 181800Z AUTO 34002KT 19SM M00/M09 A3027 RMK SLP284 T10021089 57008 IEM_DS3505
ZBHH,2007-10-18 19:00,ZBHH 181900Z AUTO 00000KT 6SM M04/M08 A3027 RMK T10401080 IEM_DS3505
ZBHH,2007-10-18 20:00,ZBHH 182000Z AUTO 00000KT 6SM M04/M08 A3027 RMK T10401080 IEM_DS3505
ZBHH,2007-10-18 21:00,ZBHH 182100Z AUTO 04002KT 19SM M02/M09 A3027 RMK SLP283 T10151087 57003 IEM_DS3505
ZBHH,2007-10-18 22:00,ZBHH 182200Z AUTO 12002KT 6SM M05/M09 A3027 RMK T10501090 IEM_DS3505
ZBHH,2007-10-18 23:00,ZBHH 182300Z AUTO 04002KT 6SM M05/M08 A3030 RMK T10501080 IEM_DS3505
ZBHH,2007-10-19 00:00,ZBHH 190000Z AUTO 09004KT 19SM M01/M08 A3030 RMK SLP301 T10061081 52010 IEM_DS3505
ZBHH,2007-10-19 01:00,ZBHH 190100Z AUTO 16002KT 6SM 00/M07 A3030 RMK T00001070 IEM_DS3505
ZBHH,2007-10-19 02:00,ZBHH 190200Z AUTO 18004KT 6SM 03/M07 A3030 RMK T00301070 IEM_DS3505
ZBHH,2007-10-19 03:00,ZBHH 190300Z AUTO 34006KT 19SM 08/M12 A3030 RMK SLP287 T00831122 57002 IEM_DS3505
ZBHH,2007-10-19 04:00,ZBHH 190400Z AUTO 35008KT 6SM 09/M12 A3030 RMK T00901120 IEM_DS3505
ZBHH,2007-10-19 05:00,ZBHH 190500Z AUTO 34010KT 6SM 09/M11 A3027 RMK T00901110 IEM_DS3505
ZBHH,2007-10-19 06:00,ZBHH 190600Z AUTO 32010KT 19SM 11/M09 A3024 RMK SLP271 T01101093 57010 IEM_DS3505
ZBHH,2007-10-19 07:00,ZBHH 190700Z AUTO 35010G21KT 6SM 10/M08 A3024 RMK T01001080 IEM_DS3505
ZBHH,2007-10-19 08:00,ZBHH 190800Z AUTO 34012G23KT 6SM 10/M07 A3024 RMK T01001070 IEM_DS3505
ZBHH,2007-10-19 09:00,ZBHH 190900Z AUTO 32006KT 19SM 12/M07 A3024 RMK SLP268 T01151068 57005 IEM_DS3505
ZBHH,2007-10-19 10:00,ZBHH 191000Z AUTO 36004KT 6SM 08/M07 A3024 RMK T00801070 IEM_DS3505
ZBHH,2007-10-19 11:00,ZBHH 191100Z AUTO 36002KT 6SM 07/M07 A3027 RMK T00701070 IEM_DS3505
ZBHH,2007-10-19 12:00,ZBHH 191200Z AUTO 34002KT 19SM 08/M06 A3027 RMK SLP281 T00821063 52007 IEM_DS3505
ZBHH,2007-10-19 13:00,ZBHH 191300Z AUTO 04002KT 6SM 03/M06 A3027 RMK T00301060 IEM_DS3505
ZBHH,2007-10-19 14:00,ZBHH 191400Z AUTO 16002KT 6SM 00/M05 A3030 RMK T00001050 IEM_DS3505
ZBHH,2007-10-19 15:00,ZBHH 191500Z AUTO 22002KT 19SM 05/M05 A3030 RMK SLP277 T00511047 52008 IEM_DS3505
ZBHH,2007-10-19 16:00,ZBHH 191600Z AUTO 10004KT 6SM M01/M06 A3030 RMK T10101060 IEM_DS3505
ZBHH,2007-10-19 17:00,ZBHH 191700Z AUTO 08002KT 6SM M02/M06 A3030 RMK T10201060 IEM_DS3505
ZBHH,2007-10-19 18:00,ZBHH 191800Z AUTO 14002KT 19SM 02/M05 A3030 RMK SLP278 T00161051 54000 IEM_DS3505
ZBHH,2007-10-19 19:00,ZBHH 191900Z AUTO 10002KT 6SM M02/M06 A3027 RMK T10201060 IEM_DS3505
ZBHH,2007-10-19 20:00,ZBHH 192000Z AUTO 10002KT 6SM M02/M06 A3027 RMK T10201060 IEM_DS3505
ZBHH,2007-10-19 21:00,ZBHH 192100Z AUTO 32002KT 19SM 00/M05 A3027 RMK SLP277 T00011053 57003 IEM_DS3505
ZBHH,2007-10-19 22:00,ZBHH 192200Z AUTO 08002KT 6SM M03/M07 A3030 RMK T10301070 IEM_DS3505
ZBHH,2007-10-19 23:00,ZBHH 192300Z AUTO 09004KT 6SM M04/M07 A3030 RMK T10401070 IEM_DS3505
ZBHH,2007-10-20 00:00,ZBHH 200000Z AUTO 29002KT 19SM 01/M05 A3030 RMK SLP287 T00131050 52004 IEM_DS3505
ZBHH,2007-10-20 01:00,ZBHH 200100Z AUTO 00000KT 6SM 03/M05 A3030 RMK T00301050 IEM_DS3505
ZBHH,2007-10-20 02:00,ZBHH 200200Z AUTO 16002KT 6SM 06/M05 A3030 RMK T00601050 IEM_DS3505
ZBHH,2007-10-20 03:00,ZBHH 200300Z AUTO 11004KT 19SM 08/M06 A3027 RMK SLP270 T00851057 57006 IEM_DS3505
ZBHH,2007-10-20 04:00,ZBHH 200400Z AUTO 17002KT 6SM 10/M05 A3024 RMK T01001050 IEM_DS3505
ZBHH,2007-10-20 05:00,ZBHH 200500Z AUTO 24006KT 6SM 11/M06 A3021 RMK T01101060 IEM_DS3505
ZBHH,2007-10-20 06:00,ZBHH 200600Z AUTO 22004KT 19SM 13/M06 A3018 RMK SLP239 T01311055 57025 IEM_DS3505
ZBHH,2007-10-20 07:00,ZBHH 200700Z AUTO 26006KT 6SM 13/M06 A3015 RMK T01301060 IEM_DS3505
ZBHH,2007-10-20 08:00,ZBHH 200800Z AUTO 24004KT 6SM 14/M06 A3015 RMK T01401060 IEM_DS3505
ZBHH,2007-10-20 09:00,ZBHH 200900Z AUTO 22004KT 19SM 13/M06 A3012 RMK SLP220 T01331063 57020 IEM_DS3505
ZBHH,2007-10-20 10:00,ZBHH 201000Z AUTO 17002KT 6SM 10/M05 A3012 RMK T01001050 IEM_DS3505
ZBHH,2007-10-20 11:00,ZBHH 201100Z AUTO 10004KT 4SM 06/M04 A3012 RMK T00601040 IEM_DS3505
ZBHH,2007-10-20 12:00,ZBHH 201200Z AUTO 09002KT 19SM 07/M04 A3012 RMK SLP229 T00701038 57002 IEM_DS3505
ZBHH,2007-10-20 13:00,ZBHH 201300Z AUTO 10004KT 4SM 03/M04 A3012 RMK T00301040 IEM_DS3505
ZBHH,2007-10-20 14:00,ZBHH 201400Z AUTO 08002KT 5SM 03/M05 A3012 RMK T00301050 IEM_DS3505
ZBHH,2007-10-20 15:00,ZBHH 201500Z AUTO 04002KT 19SM 05/M04 A3012 RMK SLP216 T00531038 54000 IEM_DS3505
ZBHH,2007-10-20 16:00,ZBHH 201600Z AUTO 08002KT 6SM 02/M04 A3012 RMK T00201040 IEM_DS3505
ZBHH,2007-10-20 17:00,ZBHH 201700Z AUTO 10004KT 6SM 02/M04 A3009 RMK T00201040 IEM_DS3505
ZBHH,2007-10-20 18:00,ZBHH 201800Z AUTO 36002KT 19SM 03/M04 A3009 RMK SLP204 T00321036 57006 IEM_DS3505
ZBHH,2007-10-20 19:00,ZBHH 201900Z AUTO 09002KT 6SM 01/M04 A3009 RMK T00101040 IEM_DS3505
ZBHH,2007-10-20 20:00,ZBHH 202000Z AUTO 10004KT 6SM M01/M05 A3009 RMK T10101050 IEM_DS3505
ZBHH,2007-10-20 21:00,ZBHH 202100Z AUTO 08004KT 19SM 01/M03 A3009 RMK SLP200 T00121029 57007 IEM_DS3505
ZBHH,2007-10-20 22:00,ZBHH 202200Z AUTO 09002KT 6SM 00/M05 A3009 RMK T00001050 IEM_DS3505
ZBHH,2007-10-20 23:00,ZBHH 202300Z AUTO 11004KT 6SM M01/M05 A3009 RMK T10101050 IEM_DS3505
ZBHH,2007-10-21 00:00,ZBHH 210000Z AUTO 09002KT 19SM 02/M03 A3009 RMK SLP222 T00241027 52009 IEM_DS3505
ZBHH,2007-10-21 01:00,ZBHH 210100Z AUTO 09004KT 6SM 05/M02 A3012 RMK T00501020 IEM_DS3505
ZBHH,2007-10-21 02:00,ZBHH 210200Z AUTO 16002KT 6SM 09/M02 A3012 RMK T00901020 IEM_DS3505
ZBHH,2007-10-21 03:00,ZBHH 210300Z AUTO 23002KT 19SM 11/M02 A3009 RMK SLP203 T01121019 57002 IEM_DS3505
ZBHH,2007-10-21 04:00,ZBHH 210400Z AUTO 28002KT 6SM 12/M01 A3006 RMK T01201010 IEM_DS3505
ZBHH,2007-10-21 05:00,ZBHH 210500Z AUTO 24004KT 6SM 13/M02 A3003 RMK T01301020 IEM_DS3505
ZBHH,2007-10-21 06:00,ZBHH 210600Z AUTO 22004KT 12SM 15/M02 A3003 RMK SLP171 T01541021 57024 IEM_DS3505
ZBHH,2007-10-21 07:00,ZBHH 210700Z AUTO 26004KT 6SM 16/M02 A3000 RMK T01601020 IEM_DS3505
ZBHH,2007-10-21 08:00,ZBHH 210800Z AUTO 28002KT 6SM 16/M02 A3000 RMK T01601020 IEM_DS3505
ZBHH,2007-10-21 09:00,ZBHH 210900Z AUTO 22002KT 12SM 16/M02 A3000 RMK SLP171 T01601020 57003 IEM_DS3505
ZBHH,2007-10-21 10:00,ZBHH 211000Z AUTO 00000KT 6SM 12/M01 A3003 RMK T01201010 IEM_DS3505
ZBHH,2007-10-21 11:00,ZBHH 211100Z AUTO 03006KT 6SM 09/M01 A3003 RMK T00901010 IEM_DS3505
ZBHH,2007-10-21 12:00,ZBHH 211200Z AUTO 05002KT 9SM 09/00 A3006 RMK SLP202 T00890001 52015 IEM_DS3505
ZBHH,2007-10-21 13:00,ZBHH 211300Z AUTO 06002KT 6SM 06/M02 A3009 RMK T00601020 IEM_DS3505
ZBHH,2007-10-21 14:00,ZBHH 211400Z AUTO 07002KT 6SM 05/M02 A3009 RMK T00501020 IEM_DS3505
ZBHH,2007-10-21 15:00,ZBHH 211500Z AUTO 04002KT 9SM 06/M01 A3012 RMK SLP203 T00591006 52013 IEM_DS3505
ZBHH,2007-10-21 16:00,ZBHH 211600Z AUTO 06006KT 6SM 06/M04 A3009 RMK T00601040 IEM_DS3505
ZBHH,2007-10-21 17:00,ZBHH 211700Z AUTO 10004KT 6SM 04/M04 A3012 RMK T00401040 IEM_DS3505
ZBHH,2007-10-21 18:00,ZBHH 211800Z AUTO 07002KT 12SM 04/M02 A3012 RMK SLP205 T00371015 52006 IEM_DS3505
ZBHH,2007-10-21 19:00,ZBHH 211900Z AUTO 04004KT 6SM 04/M05 A3012 RMK T00401050 IEM_DS3505
ZBHH,2007-10-21 20:00,ZBHH 212000Z AUTO 05002KT 6SM 03/M05 A3012 RMK T00301050 IEM_DS3505
ZBHH,2007-10-21 21:00,ZBHH 212100Z AUTO 12002KT 19SM 03/M03 A3015 RMK SLP209 T00341034 52004 IEM_DS3505
ZBHH,2007-10-21 22:00,ZBHH 212200Z AUTO 11002KT 6SM 00/M05 A3015 RMK T00001050 IEM_DS3505
ZBHH,2007-10-21 23:00,ZBHH 212300Z AUTO 09004KT 6SM 01/M05 A3015 RMK T00101050 IEM_DS3505
ZBHH,2007-10-22 00:00,ZBHH 220000Z AUTO 07002KT 19SM 04/M02 A3018 RMK SLP243 T00351025 52015 IEM_DS3505
ZBHH,2007-10-22 01:00,ZBHH 220100Z AUTO 10004KT 6SM 08/M03 A3021 RMK T00801030 IEM_DS3505
ZBHH,2007-10-22 02:00,ZBHH 220200Z AUTO 10008KT 6SM 12/M04 A3018 RMK T01201040 IEM_DS3505
ZBHH,2007-10-22 03:00,ZBHH 220300Z AUTO 07004KT 19SM 14/M04 A3018 RMK SLP228 T01381039 52002 IEM_DS3505
ZBHH,2007-10-22 04:00,ZBHH 220400Z AUTO 05002KT 6SM 15/M04 A3018 RMK T01501040 IEM_DS3505
ZBHH,2007-10-22 05:00,ZBHH 220500Z AUTO 10004KT 6SM 15/M05 A3015 RMK T01501050 IEM_DS3505
ZBHH,2007-10-22 06:00,ZBHH 220600Z AUTO 18004KT 19SM 17/M04 A3012 RMK SLP200 T01741045 57022 IEM_DS3505
ZBHH,2007-10-22 07:00,ZBHH 220700Z AUTO 26004KT 6SM 17/M05 A3012 RMK T01701050 IEM_DS3505
ZBHH,2007-10-22 08:00,ZBHH 220800Z AUTO 24004KT 6SM 17/M05 A3012 RMK T01701050 IEM_DS3505
ZBHH,2007-10-22 09:00,ZBHH 220900Z AUTO 20002KT 19SM 17/M06 A3009 RMK SLP195 T01701061 57006 IEM_DS3505
ZBHH,2007-10-22 10:00,ZBHH 221000Z AUTO 00000KT 6SM 14/M05 A3012 RMK T01401050 IEM_DS3505
ZBHH,2007-10-22 12:00,ZBHH 221200Z AUTO 34002KT 19SM 09/M02 A3015 RMK SLP225 T00921021 52011 IEM_DS3505
ZBHH,2007-10-22 13:00,ZBHH 221300Z AUTO 09004KT 6SM 06/M03 A3015 RMK T00601030 IEM_DS3505
ZBHH,2007-10-22 14:00,ZBHH 221400Z AUTO 07006KT 6SM 07/M04 A3015 RMK T00701040 IEM_DS3505
ZBHH,2007-10-22 15:00,ZBHH 221500Z AUTO 07002KT 19SM 06/M03 A3018 RMK SLP219 T00621027 52010 IEM_DS3505
ZBHH,2007-10-22 16:00,ZBHH 221600Z AUTO 04004KT 6SM 05/M04 A3018 RMK T00501040 IEM_DS3505
ZBHH,2007-10-22 17:00,ZBHH 221700Z AUTO 09004KT 6SM 04/M04 A3018 RMK T00401040 IEM_DS3505
ZBHH,2007-10-22 18:00,ZBHH 221800Z AUTO 04002KT 19SM 06/M02 A3018 RMK SLP212 T00581023 54000 IEM_DS3505
ZBHH,2007-10-22 19:00,ZBHH 221900Z AUTO 05002KT 6SM 05/M04 A3015 RMK T00501040 IEM_DS3505
ZBHH,2007-10-22 20:00,ZBHH 222000Z AUTO 07004KT 6SM 05/M04 A3015 RMK T00501040 IEM_DS3505
ZBHH,2007-10-22 21:00,ZBHH 222100Z AUTO 09004KT 19SM 03/M03 A3015 RMK SLP215 T00331029 57003 IEM_DS3505
ZBHH,2007-10-22 22:00,ZBHH 222200Z AUTO 08006KT 6SM 03/M04 A3018 RMK T00301040 IEM_DS3505
ZBHH,2007-10-22 23:00,ZBHH 222300Z AUTO 07004KT 6SM 03/M04 A3018 RMK T00301040 IEM_DS3505
ZBHH,2007-10-23 00:00,ZBHH 230000Z AUTO 09002KT 19SM 05/M03 A3021 RMK SLP244 T00501033 52013 IEM_DS3505
ZBHH,2007-10-23 01:00,ZBHH 230100Z AUTO 09004KT 6SM 07/M03 A3021 RMK T00701030 IEM_DS3505
ZBHH,2007-10-23 02:00,ZBHH 230200Z AUTO 09004KT 6SM 12/M02 A3018 RMK T01201020 IEM_DS3505
ZBHH,2007-10-23 03:00,ZBHH 230300Z AUTO 20002KT 12SM 14/M02 A3018 RMK SLP224 T01381018 57006 IEM_DS3505
ZBHH,2007-10-23 04:00,ZBHH 230400Z AUTO 24008KT 4SM 15/M01 A3015 RMK T01501010 IEM_DS3505
ZBHH,2007-10-23 05:00,ZBHH 230500Z AUTO 26004KT 4SM 15/00 A3012 RMK T01500000 IEM_DS3505
ZBHH,2007-10-23 06:00,ZBHH 230600Z AUTO 25004KT 12SM 17/01 A3009 RMK SLP190 T01660007 57025 IEM_DS3505
ZBHH,2007-10-23 07:00,ZBHH 230700Z AUTO 26002KT 4SM 17/00 A3009 RMK T01700000 IEM_DS3505
ZBHH,2007-10-23 08:00,ZBHH 230800Z AUTO 02002KT 4SM 16/01 A3006 RMK T01600010 IEM_DS3505
ZBHH,2007-10-23 09:00,ZBHH 230900Z AUTO 07002KT 12SM 16/02 A3003 RMK SLP176 T01580015 57019 IEM_DS3505
ZBHH,2007-10-23 10:00,ZBHH 231000Z AUTO 11004KT 3SM 13/02 A3003 RMK T01300020 IEM_DS3505
ZBHH,2007-10-23 11:00,ZBHH 231100Z AUTO 12002KT 3SM 11/02 A3000 RMK T01100020 IEM_DS3505
ZBHH,2007-10-23 12:00,ZBHH 231200Z AUTO 18004KT 12SM 14/02 A3000 RMK SLP172 T01390019 57004 IEM_DS3505
ZBHH,2007-10-23 13:00,ZBHH 231300Z AUTO 23008KT 2 1/2SM 12/06 A3003 RMK T01200060 IEM_DS3505
ZBHH,2007-10-23 14:00,ZBHH 231400Z AUTO 22008KT 3SM 10/07 A3006 RMK T01000070 IEM_DS3505
ZBHH,2007-10-23 15:00,ZBHH 231500Z AUTO 20008KT 12SM 10/08 A3003 RMK SLP169 T01050083 52008 IEM_DS3505
ZBHH,2007-10-23 16:00,ZBHH 231600Z AUTO 32006KT 3SM 07/05 A3009 RMK T00700050 IEM_DS3505
ZBHH,2007-10-23 17:00,ZBHH 231700Z AUTO 04004KT 4SM 05/04 A3012 RMK T00500040 IEM_DS3505
ZBHH,2007-10-23 18:00,ZBHH 231800Z AUTO 09002KT 12SM 06/05 A3012 RMK 60047 SLP192 T00620048 52018 IEM_DS3505
ZBHH,2007-10-23 19:00,ZBHH 231900Z AUTO 26006KT 7SM 05/04 A3012 RMK T00500040 IEM_DS3505
ZBHH,2007-10-23 20:00,ZBHH 232000Z AUTO 00000KT 7SM 05/04 A3012 RMK T00500040 IEM_DS3505
ZBHH,2007-10-23 21:00,ZBHH 232100Z AUTO 22002KT 12SM 07/05 A3012 RMK 70047 SLP198 T00690054 52005 IEM_DS3505
ZBHH,2007-10-23 22:00,ZBHH 232200Z AUTO 15002KT 5SM 06/05 A3012 RMK T00600050 IEM_DS3505
ZBHH,2007-10-23 23:00,ZBHH 232300Z AUTO 11002KT 4SM 04/03 A3015 RMK T00400030 IEM_DS3505
ZBHH,2007-10-24 00:00,ZBHH 240000Z AUTO 22004KT 5SM 07/05 A3015 RMK 70047 SLP216 T00660054 52011 IEM_DS3505
ZBHH,2007-10-24 01:00,ZBHH 240100Z AUTO 22004KT 1SM 06/05 A3018 RMK T00600050 IEM_DS3505
ZBHH,2007-10-24 02:00,ZBHH 240200Z AUTO 21006KT 1 1/4SM 06/05 A3018 RMK T00600050 IEM_DS3505
ZBHH,2007-10-24 03:00,ZBHH 240300Z AUTO 25004KT 6SM 07/05 A3018 RMK SLP229 T00660046 52005 IEM_DS3505
ZBHH,2007-10-24 04:00,ZBHH 240400Z AUTO 26004KT 3SM 07/04 A3018 RMK T00700040 IEM_DS3505
ZBHH,2007-10-24 05:00,ZBHH 240500Z AUTO 27004KT 3SM 08/04 A3015 RMK T00800040 IEM_DS3505
ZBHH,2007-10-24 06:00,ZBHH 240600Z AUTO 04002KT 9SM 09/05 A3015 RMK SLP227 T00860046 57007 IEM_DS3505
ZBHH,2007-10-24 07:00,ZBHH 240700Z AUTO 35002KT 3SM 09/04 A3015 RMK T00900040 IEM_DS3505
ZBHH,2007-10-24 08:00,ZBHH 240800Z AUTO 03002KT 3SM 09/04 A3015 RMK T00900040 IEM_DS3505
ZBHH,2007-10-24 09:00,ZBHH 240900Z AUTO 07004KT 12SM 10/05 A3015 RMK SLP218 T00980052 57004 IEM_DS3505
ZBHH,2007-10-24 10:00,ZBHH 241000Z AUTO 07004KT 2SM 07/04 A3015 RMK T00700040 IEM_DS3505
ZBHH,2007-10-24 11:00,ZBHH 241100Z AUTO 10004KT 2SM 06/04 A3015 RMK T00600040 IEM_DS3505
ZBHH,2007-10-24 12:00,ZBHH 241200Z AUTO 07002KT 19SM 07/05 A3018 RMK SLP232 T00730048 52007 IEM_DS3505
ZBHH,2007-10-24 13:00,ZBHH 241300Z AUTO 04004KT 1 1/4SM 05/03 A3018 RMK T00500030 IEM_DS3505
ZBHH,2007-10-24 14:00,ZBHH 241400Z AUTO 06002KT 2SM 04/02 A3018 RMK T00400020 IEM_DS3505
ZBHH,2007-10-24 15:00,ZBHH 241500Z AUTO 09002KT 19SM 05/04 A3018 RMK SLP247 T00470035 52008 IEM_DS3505
ZBHH,2007-10-24 16:00,ZBHH 241600Z AUTO 06002KT 1 1/2SM 04/02 A3018 RMK T00400020 IEM_DS3505
ZBHH,2007-10-24 17:00,ZBHH 241700Z AUTO 11002KT 1 1/2SM 02/01 A3018 RMK T00200010 IEM_DS3505
ZBHH,2007-10-24 18:00,ZBHH 241800Z AUTO 09002KT 19SM 05/03 A3018 RMK SLP241 T00460033 57002 IEM_DS3505
ZBHH,2007-10-24 19:00,ZBHH 241900Z AUTO 08002KT 1 1/2SM 03/02 A3018 RMK T00300020 IEM_DS3505
ZBHH,2007-10-24 20:00,ZBHH 242000Z AUTO 04004KT 1 1/2SM 03/02 A3018 RMK T00300020 IEM_DS3505
ZBHH,2007-10-24 21:00,ZBHH 242100Z AUTO 04002KT 19SM 04/02 A3018 RMK SLP238 T00370025 57002 IEM_DS3505
ZBHH,2007-10-24 22:00,ZBHH 242200Z AUTO 07002KT 2SM 02/01 A3018 RMK T00200010 IEM_DS3505
ZBHH,2007-10-24 23:00,ZBHH 242300Z AUTO 09002KT 1 1/4SM 01/00 A3018 RMK T00100000 IEM_DS3505
ZBHH,2007-10-25 00:00,ZBHH 250000Z AUTO 08002KT 9SM 04/03 A3021 RMK SLP253 T00370030 52008 IEM_DS3505
ZBHH,2007-10-25 01:00,ZBHH 250100Z AUTO 10002KT 2 1/2SM 06/04 A3021 RMK T00600040 IEM_DS3505
ZBHH,2007-10-25 02:00,ZBHH 250200Z AUTO 18002KT 2 1/2SM 08/04 A3024 RMK T00800040 IEM_DS3505
ZBHH,2007-10-25 03:00,ZBHH 250300Z AUTO 11004KT 9SM 10/04 A3024 RMK SLP251 T01010043 52006 IEM_DS3505
ZBHH,2007-10-25 04:00,ZBHH 250400Z AUTO 17002KT 2 1/2SM 11/04 A3021 RMK T01100040 IEM_DS3505
ZBHH,2007-10-25 05:00,ZBHH 250500Z AUTO 07002KT 3SM 11/04 A3018 RMK T01100040 IEM_DS3505
ZBHH,2007-10-25 06:00,ZBHH 250600Z AUTO 20006KT 9SM 13/04 A3015 RMK SLP220 T01300044 57021 IEM_DS3505
ZBHH,2007-10-25 07:00,ZBHH 250700Z AUTO 21004KT 3SM 13/04 A3015 RMK T01300040 IEM_DS3505
ZBHH,2007-10-25 08:00,ZBHH 250800Z AUTO 21004KT 3SM 14/03 A3012 RMK T01400030 IEM_DS3505
ZBHH,2007-10-25 09:00,ZBHH 250900Z AUTO 22004KT 19SM 14/01 A3012 RMK SLP207 T01360009 57012 IEM_DS3505
ZBHH,2007-10-25 10:00,ZBHH 251000Z AUTO 00000KT 6SM 11/01 A3012 RMK T01100010 IEM_DS3505
ZBHH,2007-10-25 11:00,ZBHH 251100Z AUTO 02006KT 4SM 07/03 A3015 RMK T00700030 IEM_DS3505
ZBHH,2007-10-25 12:00,ZBHH 251200Z AUTO 36002KT 19SM 08/03 A3015 RMK SLP230 T00810032 52009 IEM_DS3505
ZBHH,2007-10-25 13:00,ZBHH 251300Z AUTO 11004KT 4SM 06/03 A3015 RMK T00600030 IEM_DS3505
ZBHH,2007-10-25 14:00,ZBHH 251400Z AUTO 05004KT 4SM 05/02 A3015 RMK T00500020 IEM_DS3505
ZBHH,2007-10-25 15:00,ZBHH 251500Z AUTO 02002KT 19SM 06/02 A3015 RMK SLP225 T00560024 52003 IEM_DS3505
ZBHH,2007-10-25 16:00,ZBHH 251600Z AUTO 08006KT 4SM 03/00 A3015 RMK T00300000 IEM_DS3505
ZBHH,2007-10-25 17:00,ZBHH 251700Z AUTO 08004KT 4SM 03/00 A3015 RMK T00300000 IEM_DS3505
ZBHH,2007-10-25 18:00,ZBHH 251800Z AUTO 08002KT 19SM 04/01 A3015 RMK SLP217 T00400012 57004 IEM_DS3505
ZBHH,2007-10-25 19:00,ZBHH 251900Z AUTO 09002KT 4SM 03/00 A3015 RMK T00300000 IEM_DS3505
ZBHH,2007-10-25 20:00,ZBHH 252000Z AUTO 09004KT 4SM 02/00 A3012 RMK T00200000 IEM_DS3505
ZBHH,2007-10-25 21:00,ZBHH 252100Z AUTO 09002KT 19SM 03/01 A3012 RMK SLP213 T00290014 57005 IEM_DS3505
ZBHH,2007-10-25 22:00,ZBHH 252200Z AUTO 09004KT 4SM 01/00 A3012 RMK T00100000 IEM_DS3505
ZBHH,2007-10-25 23:00,ZBHH 252300Z AUTO 08006KT 4SM 02/00 A3012 RMK T00200000 IEM_DS3505
ZBHH,2007-10-26 00:00,ZBHH 260000Z AUTO 09002KT 19SM 04/03 A3012 RMK SLP224 T00430030 52002 IEM_DS3505
ZBHH,2007-10-26 01:00,ZBHH 260100Z AUTO 10002KT 4SM 06/03 A3015 RMK T00600030 IEM_DS3505
ZBHH,2007-10-26 02:00,ZBHH 260200Z AUTO 12002KT 5SM 09/04 A3015 RMK T00900040 IEM_DS3505
ZBHH,2007-10-26 03:00,ZBHH 260300Z AUTO 09004KT 19SM 12/04 A3012 RMK SLP210 T01230043 57001 IEM_DS3505
ZBHH,2007-10-26 04:00,ZBHH 260400Z AUTO 19002KT 4SM 12/04 A3012 RMK T01200040 IEM_DS3505
ZBHH,2007-10-26 05:00,ZBHH 260500Z AUTO 27002KT 4SM 13/04 A3009 RMK T01300040 IEM_DS3505
ZBHH,2007-10-26 06:00,ZBHH 260600Z AUTO 18004KT 19SM 14/05 A3006 RMK SLP182 T01450050 57024 IEM_DS3505
ZBHH,2007-10-26 07:00,ZBHH 260700Z AUTO 30004KT 5SM 15/05 A3003 RMK T01500050 IEM_DS3505
ZBHH,2007-10-26 08:00,ZBHH 260800Z AUTO 31002KT 5SM 14/05 A3003 RMK T01400050 IEM_DS3505
ZBHH,2007-10-26 09:00,ZBHH 260900Z AUTO 09006KT 16SM 14/06 A3000 RMK SLP167 T01410057 57016 IEM_DS3505
ZBHH,2007-10-26 10:00,ZBHH 261000Z AUTO 00000KT 5SM 12/06 A3000 RMK T01200060 IEM_DS3505
ZBHH,2007-10-26 11:00,ZBHH 261100Z AUTO 01006KT 7SM 08/04 A3003 RMK T00800040 IEM_DS3505
ZBHH,2007-10-26 12:00,ZBHH 261200Z AUTO 27002KT 19SM 10/02 A3003 RMK SLP185 T00990023 52010 IEM_DS3505
ZBHH,2007-10-26 13:00,ZBHH 261300Z AUTO 09010KT 7SM 08/04 A3003 RMK T00800040 IEM_DS3505
ZBHH,2007-10-26 14:00,ZBHH 261400Z AUTO 06006KT 7SM 08/04 A3006 RMK T00800040 IEM_DS3505
ZBHH,2007-10-26 15:00,ZBHH 261500Z AUTO 29004KT 12SM 09/04 A3006 RMK SLP177 T00870043 52007 IEM_DS3505
ZBHH,2007-10-26 16:00,ZBHH 261600Z AUTO 04004KT 7SM 07/02 A3006 RMK T00700020 IEM_DS3505
ZBHH,2007-10-26 17:00,ZBHH 261700Z AUTO 08008KT 7SM 06/03 A3003 RMK T00600030 IEM_DS3505
ZBHH,2007-10-26 18:00,ZBHH 261800Z AUTO 16002KT 19SM 08/04 A3006 RMK 60000 SLP175 T00770036 54000 IEM_DS3505
ZBHH,2007-10-26 19:00,ZBHH 261900Z AUTO 05004KT 7SM 06/01 A3003 RMK T00600010 IEM_DS3505
ZBHH,2007-10-26 20:00,ZBHH 262000Z AUTO 08004KT 7SM 06/01 A3003 RMK T00600010 IEM_DS3505
ZBHH,2007-10-26 21:00,ZBHH 262100Z AUTO 34002KT 19SM 06/M01 A3006 RMK 70001 SLP177 T00591008 57002 IEM_DS3505
ZBHH,2007-10-26 22:00,ZBHH 262200Z AUTO 08002KT 7SM 04/01 A3006 RMK T00400010 IEM_DS3505
ZBHH,2007-10-26 23:00,ZBHH 262300Z AUTO 09004KT 7SM 03/00 A3006 RMK T00300000 IEM_DS3505
ZBHH,2007-10-27 00:00,ZBHH 270000Z AUTO 07002KT 12SM 05/M00 A3006 RMK 70001 SLP199 T00521004 52009 IEM_DS3505
ZBHH,2007-10-27 01:00,ZBHH 270100Z AUTO 10004KT 7SM 05/00 A3009 RMK T00500000 IEM_DS3505
ZBHH,2007-10-27 02:00,ZBHH 270200Z AUTO 09004KT 7SM 07/M01 A3009 RMK T00701010 IEM_DS3505
ZBHH,2007-10-27 03:00,ZBHH 270300Z AUTO 18002KT 12SM 09/M01 A3009 RMK SLP193 T00941010 52001 IEM_DS3505
ZBHH,2007-10-27 04:00,ZBHH 270400Z AUTO 26004KT 7SM 10/M01 A3006 RMK T01001010 IEM_DS3505
ZBHH,2007-10-27 05:00,ZBHH 270500Z AUTO 22006KT 7SM 09/M01 A3003 RMK T00901010 IEM_DS3505
ZBHH,2007-10-27 06:00,ZBHH 270600Z AUTO 22008KT 12SM 10/02 A3003 RMK SLP170 T00980017 57021 IEM_DS3505
ZBHH,2007-10-27 07:00,ZBHH 270700Z AUTO 25008KT 7SM 09/02 A3000 RMK T00900020 IEM_DS3505
ZBHH,2007-10-27 08:00,ZBHH 270800Z AUTO 31006KT 7SM 07/01 A3003 RMK T00700010 IEM_DS3505
ZBHH,2007-10-27 09:00,ZBHH 270900Z AUTO 29006KT 12SM 07/02 A3003 RMK SLP181 T00720017 54000 IEM_DS3505
ZBHH,2007-10-27 10:00,ZBHH 271000Z AUTO 32012KT 4SM 04/01 A3003 RMK T00400010 IEM_DS3505
ZBHH,2007-10-27 11:00,ZBHH 271100Z AUTO 32012KT 5SM 04/M02 A3006 RMK T00401020 IEM_DS3505
ZBHH,2007-10-27 12:00,ZBHH 271200Z AUTO 29008G21KT 19SM 04/M02 A3009 RMK 60004 SLP218 T00401018 52025 IEM_DS3505
ZBHH,2007-10-27 13:00,ZBHH 271300Z AUTO 29014G23KT 7SM 03/M04 A3012 RMK T00301040 IEM_DS3505
ZBHH,2007-10-27 14:00,ZBHH 271400Z AUTO 28012G21KT 7SM 02/M05 A3015 RMK T00201050 IEM_DS3505
ZBHH,2007-10-27 15:00,ZBHH 271500Z AUTO 29006KT 19SM 02/M04 A3018 RMK SLP252 T00151040 52033 IEM_DS3505
ZBHH,2007-10-27 16:00,ZBHH 271600Z AUTO 34014KT 7SM M01/M07 A3021 RMK T10101070 IEM_DS3505
ZBHH,2007-10-27 17:00,ZBHH 271700Z AUTO 01012G27KT M01/M08 A3024 RMK T10101080 IEM_DS3505
ZBHH,2007-10-27 18:00,ZBHH 271800Z AUTO 34004KT 19SM M01/M08 RMK 60000 SLP289 T10111083 52028 IEM_DS3505
ZBHH,2007-10-27 19:00,ZBHH 271900Z AUTO 36010KT 7SM M03/M09 A3030 RMK T10301090 IEM_DS3505
ZBHH,2007-10-27 20:00,ZBHH 272000Z AUTO 01006KT 7SM M03/M09 A3030 RMK T10301090 IEM_DS3505
ZBHH,2007-10-27 21:00,ZBHH 272100Z AUTO 29004KT 19SM M02/M08 A3030 RMK 70005 SLP302 T10221085 52004 IEM_DS3505
ZBHH,2007-10-27 22:00,ZBHH 272200Z AUTO 03002KT 7SM M03/M10 A3030 RMK T10301100 IEM_DS3505
ZBHH,2007-10-27 23:00,ZBHH 272300Z AUTO 01010KT 7SM M03/M10 A3030 RMK T10301100 IEM_DS3505
ZBHH,2007-10-28 00:00,ZBHH 280000Z AUTO 34004KT 19SM M03/M10 A3033 RMK 70005 SLP322 T10331104 52008 IEM_DS3505
ZBHH,2007-10-28 01:00,ZBHH 280100Z AUTO 35006KT 7SM M03/M11 A3036 RMK T10301110 IEM_DS3505
ZBHH,2007-10-28 02:00,ZBHH 280200Z AUTO 01002KT 6SM M02/M11 A3033 RMK T10201110 IEM_DS3505
ZBHH,2007-10-28 03:00,ZBHH 280300Z AUTO 18006KT 19SM 01/M09 A3036 RMK SLP322 T00061086 52003 IEM_DS3505
ZBHH,2007-10-28 04:00,ZBHH 280400Z AUTO 25006KT 7SM 00/M09 A3033 RMK T00001090 IEM_DS3505
ZBHH,2007-10-28 05:00,ZBHH 280500Z AUTO 26006KT 7SM 01/M09 A3027 RMK T00101090 IEM_DS3505
ZBHH,2007-10-28 06:00,ZBHH 280600Z AUTO 18004KT 19SM 04/M08 A3024 RMK SLP288 T00361075 57029 IEM_DS3505
ZBHH,2007-10-28 07:00,ZBHH 280700Z AUTO 23006KT 7SM 02/M09 A3024 RMK T00201090 IEM_DS3505
ZBHH,2007-10-28 08:00,ZBHH 280800Z AUTO 22006KT 7SM 03/M09 A3021 RMK T00301090 IEM_DS3505
ZBHH,2007-10-28 09:00,ZBHH 280900Z AUTO 25004KT 19SM 04/M08 A3021 RMK SLP272 T00361081 57016 IEM_DS3505
ZBHH,2007-10-28 10:00,ZBHH 281000Z AUTO 19002KT 4SM 01/M08 A3021 RMK T00101080 IEM_DS3505
ZBHH,2007-10-28 11:00,ZBHH 281100Z AUTO 18002KT 4SM 00/M07 A3021 RMK T00001070 IEM_DS3505
ZBHH,2007-10-28 12:00,ZBHH 281200Z AUTO 29002KT 19SM 02/M06 A3021 RMK SLP286 T00161065 52005 IEM_DS3505
ZBHH,2007-10-28 13:00,ZBHH 281300Z AUTO 10004KT 7SM M02/M06 A3021 RMK T10201060 IEM_DS3505
ZBHH,2007-10-28 14:00,ZBHH 281400Z AUTO 11004KT 7SM M03/M06 A3021 RMK T10301060 IEM_DS3505
ZBHH,2007-10-28 15:00,ZBHH 281500Z AUTO 07002KT 19SM M00/M06 A3021 RMK SLP281 T10051063 54000 IEM_DS3505
ZBHH,2007-10-28 16:00,ZBHH 281600Z AUTO 09002KT 6SM M03/M06 A3021 RMK T10301060 IEM_DS3505
ZBHH,2007-10-28 17:00,ZBHH 281700Z AUTO 02002KT 6SM M04/M06 A3021 RMK T10401060 IEM_DS3505
ZBHH,2007-10-28 18:00,ZBHH 281800Z AUTO 09002KT 19SM M02/M07 A3018 RMK SLP267 T10151068 57008 IEM_DS3505
ZBHH,2007-10-28 19:00,ZBHH 281900Z AUTO 06002KT 6SM M04/M07 A3018 RMK T10401070 IEM_DS3505
ZBHH,2007-10-28 20:00,ZBHH 282000Z AUTO 07004KT 6SM M04/M07 A3015 RMK T10401070 IEM_DS3505
ZBHH,2007-10-28 21:00,ZBHH 282100Z AUTO 09002KT 19SM M02/M07 A3015 RMK SLP259 T10191072 57008 IEM_DS3505
ZBHH,2007-10-28 22:00,ZBHH 282200Z AUTO 08004KT 6SM M06/M08 A3015 RMK T10601080 IEM_DS3505
ZBHH,2007-10-28 23:00,ZBHH 282300Z AUTO 00000KT 7SM M05/M07 A3018 RMK T10501070 IEM_DS3505
ZBHH,2007-10-29 00:00,ZBHH 290000Z AUTO 07002KT 12SM M02/M06 A3018 RMK SLP272 T10201064 52007 IEM_DS3505
ZBHH,2007-10-29 01:00,ZBHH 290100Z AUTO 10002KT 6SM M01/M05 A3018 RMK T10101050 IEM_DS3505
ZBHH,2007-10-29 02:00,ZBHH 290200Z AUTO 14002KT 6SM 00/M06 A3018 RMK T00001060 IEM_DS3505
ZBHH,2007-10-29 03:00,ZBHH 290300Z AUTO 22004KT 12SM 04/M08 A3015 RMK SLP258 T00351076 57005 IEM_DS3505
ZBHH,2007-10-29 04:00,ZBHH 290400Z AUTO 25006KT 6SM 05/M07 A3012 RMK T00501070 IEM_DS3505
ZBHH,2007-10-29 05:00,ZBHH 290500Z AUTO 24012KT 6SM 06/M08 A3009 RMK T00601080 IEM_DS3505
ZBHH,2007-10-29 06:00,ZBHH 290600Z AUTO 22010KT 19SM 08/M10 A3006 RMK SLP211 T00791095 57034 IEM_DS3505
ZBHH,2007-10-29 07:00,ZBHH 290700Z AUTO 25012KT 6SM 08/M09 A3003 RMK T00801090 IEM_DS3505
ZBHH,2007-10-29 08:00,ZBHH 290800Z AUTO 25008KT 6SM 09/M09 A3003 RMK T00901090 IEM_DS3505
ZBHH,2007-10-29 09:00,ZBHH 290900Z AUTO 25004KT 19SM 09/M09 A3000 RMK SLP193 T00931092 57014 IEM_DS3505
ZBHH,2007-10-29 10:00,ZBHH 291000Z AUTO 00000KT 6SM 06/M09 A3000 RMK T00601090 IEM_DS3505
ZBHH,2007-10-29 11:00,ZBHH 291100Z AUTO 00000KT 6SM 05/M08 A3000 RMK T00501080 IEM_DS3505
ZBHH,2007-10-29 12:00,ZBHH 291200Z AUTO 22002KT 12SM 06/M07 A3003 RMK SLP207 T00601072 52005 IEM_DS3505
ZBHH,2007-10-29 13:00,ZBHH 291300Z AUTO 10004KT 4SM 01/M05 A3003 RMK T00101050 IEM_DS3505
ZBHH,2007-10-29 14:00,ZBHH 291400Z AUTO 35002KT 4SM 01/M05 A3006 RMK T00101050 IEM_DS3505
ZBHH,2007-10-29 15:00,ZBHH 291500Z AUTO 09002KT 19SM 02/M05 A3003 RMK SLP206 T00221054 52003 IEM_DS3505
ZBHH,2007-10-29 16:00,ZBHH 291600Z AUTO 08002KT 4SM M01/M05 A3003 RMK T10101050 IEM_DS3505
ZBHH,2007-10-29 17:00,ZBHH 291700Z AUTO 06002KT 4SM M01/M05 A3003 RMK T10101050 IEM_DS3505
ZBHH,2007-10-29 18:00,ZBHH 291800Z AUTO 02002KT 19SM 01/M05 A3003 RMK SLP194 T00091049 57004 IEM_DS3505
ZBHH,2007-10-29 19:00,ZBHH 291900Z AUTO 03004KT 4SM M02/M05 A3003 RMK T10201050 IEM_DS3505
ZBHH,2007-10-29 20:00,ZBHH 292000Z AUTO 08002KT 4SM M01/M04 A3003 RMK T10101040 IEM_DS3505
ZBHH,2007-10-29 21:00,ZBHH 292100Z AUTO 07002KT 12SM 02/M05 A3003 RMK SLP190 T00171048 52001 IEM_DS3505
ZBHH,2007-10-29 22:00,ZBHH 292200Z AUTO 11002KT 6SM M01/M04 A3003 RMK T10101040 IEM_DS3505
ZBHH,2007-10-29 23:00,ZBHH 292300Z AUTO 23004KT 7SM 00/M05 A3006 RMK T00001050 IEM_DS3505
ZBHH,2007-10-30 00:00,ZBHH 300000Z AUTO 31004KT 19SM 02/M05 A3006 RMK SLP211 T00221050 52013 IEM_DS3505
ZBHH,2007-10-30 01:00,ZBHH 300100Z AUTO 14002KT 5SM 01/M04 A3009 RMK T00101040 IEM_DS3505
ZBHH,2007-10-30 02:00,ZBHH 300200Z AUTO 34004KT 7SM 04/M09 A3012 RMK T00401090 IEM_DS3505
ZBHH,2007-10-30 03:00,ZBHH 300300Z AUTO 22002KT 19SM 06/M09 A3012 RMK SLP232 T00611090 52018 IEM_DS3505
ZBHH,2007-10-30 04:00,ZBHH 300400Z AUTO 32006KT 7SM 04/M10 A3012 RMK T00401100 IEM_DS3505
ZBHH,2007-10-30 05:00,ZBHH 300500Z AUTO 35004KT 7SM 06/M10 A3012 RMK T00601100 IEM_DS3505
ZBHH,2007-10-30 06:00,ZBHH 300600Z AUTO 20002G14KT 19SM 08/M12 A3009 RMK SLP215 T00801119 57013 IEM_DS3505
ZBHH,2007-10-30 07:00,ZBHH 300700Z AUTO 31008KT 7SM 07/M12 A3009 RMK T00701120 IEM_DS3505
ZBHH,2007-10-30 08:00,ZBHH 300800Z AUTO 33012KT 7SM 06/M12 A3009 RMK T00601120 IEM_DS3505
ZBHH,2007-10-30 09:00,ZBHH 300900Z AUTO 34008KT 19SM 06/M12 A3012 RMK SLP227 T00561119 52007 IEM_DS3505
ZBHH,2007-10-30 10:00,ZBHH 301000Z AUTO 35006KT 6SM 03/M12 A3015 RMK T00301120 IEM_DS3505
ZBHH,2007-10-30 11:00,ZBHH 301100Z AUTO 6SM 02/M13 A3015 RMK T00201130 IEM_DS3505
ZBHH,2007-10-30 12:00,ZBHH 301200Z AUTO 29004G17KT 19SM 03/M12 A3018 RMK SLP259 T00291122 52023 IEM_DS3505
ZBHH,2007-10-30 13:00,ZBHH 301300Z AUTO 33010KT 6SM 00/M15 A3021 RMK T00001150 IEM_DS3505
ZBHH,2007-10-30 14:00,ZBHH 301400Z AUTO 32006KT 6SM M01/M15 A3024 RMK T10101150 IEM_DS3505
ZBHH,2007-10-30 15:00,ZBHH 301500Z AUTO 32006KT 19SM 00/M17 A3024 RMK SLP276 T00031170 52018 IEM_DS3505
ZBHH,2007-10-30 16:00,ZBHH 301600Z AUTO 35002KT 6SM M02/M16 A3024 RMK T10201160 IEM_DS3505
ZBHH,2007-10-30 17:00,ZBHH 301700Z AUTO 33002KT 6SM M02/M17 A3027 RMK T10201170 IEM_DS3505
ZBHH,2007-10-30 18:00,ZBHH 301800Z AUTO 32006KT 19SM M01/M16 A3027 RMK SLP284 T10081158 52009 IEM_DS3505
ZBHH,2007-10-30 19:00,ZBHH 301900Z AUTO 02010KT 6SM M03/M16 A3027 RMK T10301160 IEM_DS3505
ZBHH,2007-10-30 20:00,ZBHH 302000Z AUTO 01008KT 6SM M04/M16 A3030 RMK T10401160 IEM_DS3505
ZBHH,2007-10-30 21:00,ZBHH 302100Z AUTO 36004KT 19SM M03/M18 A3030 RMK SLP304 T10261182 52008 IEM_DS3505
ZBHH,2007-10-30 22:00,ZBHH 302200Z AUTO 05006KT 6SM M05/M16 A3033 RMK T10501160 IEM_DS3505
ZBHH,2007-10-30 23:00,ZBHH 302300Z AUTO 04002KT 6SM M05/M16 A3033 RMK T10501160 IEM_DS3505
ZBHH,2007-10-31 00:00,ZBHH 310000Z AUTO 27002KT 19SM M03/M16 A3036 RMK SLP338 T10301160 52023 IEM_DS3505
ZBHH,2007-10-31 01:00,ZBHH 310100Z AUTO 31010KT 6SM M01/M19 A3039 RMK T10101190 IEM_DS3505
ZBHH,2007-10-31 02:00,ZBHH 310200Z AUTO 31012KT 6SM 00/M19 A3039 RMK T00001190 IEM_DS3505
ZBHH,2007-10-31 03:00,ZBHH 310300Z AUTO 32006G23KT 19SM 02/M18 A3039 RMK SLP342 T00161178 52008 IEM_DS3505
ZBHH,2007-10-31 04:00,ZBHH 310400Z AUTO 33014KT 7SM 00/M18 A3039 RMK T00001180 IEM_DS3505
ZBHH,2007-10-31 05:00,ZBHH 310500Z AUTO 32016KT 7SM 01/M19 A3036 RMK T00101190 IEM_DS3505
ZBHH,2007-10-31 06:00,ZBHH 310600Z AUTO 34010KT 19SM 03/M19 A3036 RMK SLP328 T00261194 57012 IEM_DS3505
ZBHH,2007-10-31 07:00,ZBHH 310700Z AUTO 34014G23KT 6SM 01/M19 A3036 RMK T00101190 IEM_DS3505
ZBHH,2007-10-31 08:00,ZBHH 310800Z AUTO 34016G27KT 6SM 01/M20 A3036 RMK T00101200 IEM_DS3505
ZBHH,2007-10-31 09:00,ZBHH 310900Z AUTO 32010KT 19SM 01/M20 A3036 RMK SLP343 T00131204 52006 IEM_DS3505
ZBHH,2007-10-31 10:00,ZBHH 311000Z AUTO 33006KT 6SM M01/M20 A3039 RMK T10101200 IEM_DS3505
ZBHH,2007-10-31 11:00,ZBHH 311100Z AUTO 36006KT 6SM M02/M19 A3042 RMK T10201190 IEM_DS3505
ZBHH,2007-10-31 12:00,ZBHH 311200Z AUTO 29004KT 19SM M02/M19 A3045 RMK SLP373 T10151190 52019 IEM_DS3505
ZBHH,2007-10-31 13:00,ZBHH 311300Z AUTO 30006KT 6SM M03/M19 A3045 RMK T10301190 IEM_DS3505
ZBHH,2007-10-31 14:00,ZBHH 311400Z AUTO 33006KT 6SM M04/M18 A3045 RMK T10401180 IEM_DS3505
ZBHH,2007-10-31 15:00,ZBHH 311500Z AUTO 32010KT 19SM M02/M19 A3045 RMK SLP370 T10211190 52007 IEM_DS3505
ZBHH,2007-10-31 16:00,ZBHH 311600Z AUTO 35012G23KT M04/M19 A3047 RMK T10401190 IEM_DS3505
ZBHH,2007-10-31 17:00,ZBHH 311700Z AUTO 34006KT 6SM M05/M18 A3047 RMK T10501180 IEM_DS3505
ZBHH,2007-10-31 18:00,ZBHH 311800Z AUTO 32004KT 19SM M04/M18 A3047 RMK SLP384 T10411176 52010 IEM_DS3505
ZBHH,2007-10-31 19:00,ZBHH 311900Z AUTO 29008KT 6SM M06/M18 A3047 RMK T10601180 IEM_DS3505
ZBHH,2007-10-31 20:00,ZBHH 312000Z AUTO 30010KT 6SM M06/M18 A3047 RMK T10601180 IEM_DS3505
ZBHH,2007-10-31 21:00,ZBHH 312100Z AUTO 29002KT 19SM M05/M18 RMK SLP377 T10521179 57012 IEM_DS3505
ZBHH,2007-10-31 22:00,ZBHH 312200Z AUTO 28004KT 6SM M06/M18 A3045 RMK T10601180 IEM_DS3505
ZBHH,2007-10-31 23:00,ZBHH 312300Z AUTO 26004KT 6SM M06/M17 A3045 RMK T10601170 IEM_DS3505
ZBHH,2007-11-01 00:00,ZBHH 010000Z AUTO 25004KT 19SM M05/M16 A3047 RMK SLP386 T10491156 52003 IEM_DS3505
ZBHH,2007-11-01 01:00,ZBHH 010100Z AUTO 23010KT 6SM M04/M15 A3047 RMK T10401150 IEM_DS3505
ZBHH,2007-11-01 02:00,ZBHH 010200Z AUTO 24012KT 6SM M02/M14 A3045 RMK T10201140 IEM_DS3505
ZBHH,2007-11-01 03:00,ZBHH 010300Z AUTO 25012KT 19SM 00/M15 A3045 RMK SLP363 T00001151 57011 IEM_DS3505
ZBHH,2007-11-01 04:00,ZBHH 010400Z AUTO 24014KT 6SM 00/M15 A3039 RMK T00001150 IEM_DS3505
ZBHH,2007-11-01 05:00,ZBHH 010500Z AUTO 25016KT 6SM 01/M15 A3033 RMK T00101150 IEM_DS3505
ZBHH,2007-11-01 06:00,ZBHH 010600Z AUTO 22012KT 19SM 03/M15 A3030 RMK SLP317 T00271149 57039 IEM_DS3505
ZBHH,2007-11-01 07:00,ZBHH 010700Z AUTO 25012KT 6SM 03/M15 A3030 RMK T00301150 IEM_DS3505
ZBHH,2007-11-01 08:00,ZBHH 010800Z AUTO 25012KT 6SM 03/M15 A3027 RMK T00301150 IEM_DS3505
ZBHH,2007-11-01 09:00,ZBHH 010900Z AUTO 25008KT 19SM 04/M13 A3024 RMK SLP298 T00351133 57017 IEM_DS3505
ZBHH,2007-11-01 10:00,ZBHH 011000Z AUTO 25008KT 6SM 01/M13 A3024 RMK T00101130 IEM_DS3505
ZBHH,2007-11-01 11:00,ZBHH 011100Z AUTO 25008KT 6SM 00/M12 A3024 RMK T00001120 IEM_DS3505
ZBHH,2007-11-01 12:00,ZBHH 011200Z AUTO 29002KT 19SM 01/M11 A3024 RMK SLP304 T00071110 54000 IEM_DS3505
ZBHH,2007-11-01 13:00,ZBHH 011300Z AUTO 00000KT 6SM M03/M11 A3024 RMK T10301110 IEM_DS3505
ZBHH,2007-11-01 14:00,ZBHH 011400Z AUTO 00000KT 6SM M04/M10 A3024 RMK T10401100 IEM_DS3505
ZBHH,2007-11-01 15:00,ZBHH 011500Z AUTO 25002KT 9SM M00/M10 A3024 RMK SLP291 T10051096 57004 IEM_DS3505
ZBHH,2007-11-01 16:00,ZBHH 011600Z AUTO 01002KT 6SM M05/M10 A3021 RMK T10501100 IEM_DS3505
ZBHH,2007-11-01 18:00,ZBHH 011800Z AUTO 09002KT 12SM M03/M10 A3018 RMK SLP271 T10281101 57016 IEM_DS3505
ZBHH,2007-11-01 19:00,ZBHH 011900Z AUTO 02002KT 6SM M07/M10 A3015 RMK T10701100 IEM_DS3505
ZBHH,2007-11-01 20:00,ZBHH 012000Z AUTO 05002KT 6SM M07/M11 A3015 RMK T10701110 IEM_DS3505
ZBHH,2007-11-01 21:00,ZBHH 012100Z AUTO 07002KT 19SM M04/M10 A3015 RMK SLP258 T10421104 57013 IEM_DS3505
ZBHH,2007-11-01 22:00,ZBHH 012200Z AUTO 07004KT 6SM M07/M11 A3012 RMK T10701110 IEM_DS3505
ZBHH,2007-11-01 23:00,ZBHH 012300Z AUTO 04002KT 6SM M07/M11 A3012 RMK T10701110 IEM_DS3505
ZBHH,2007-11-02 00:00,ZBHH 020000Z AUTO 09002KT 19SM M03/M11 A3015 RMK SLP267 T10281106 52005 IEM_DS3505
ZBHH,2007-11-02 01:00,ZBHH 020100Z AUTO 09002KT 6SM M02/M11 A3015 RMK T10201110 IEM_DS3505
ZBHH,2007-11-02 02:00,ZBHH 020200Z AUTO 23002KT 6SM 00/M11 A3015 RMK T00001110 IEM_DS3505
ZBHH,2007-11-02 03:00,ZBHH 020300Z AUTO 09004KT 12SM 03/M11 A3015 RMK SLP258 T00271112 52001 IEM_DS3505
ZBHH,2007-11-02 04:00,ZBHH 020400Z AUTO 22002KT 6SM 03/M11 A3015 RMK T00301110 IEM_DS3505
ZBHH,2007-11-02 05:00,ZBHH 020500Z AUTO 27002KT 6SM 04/M10 A3012 RMK T00401100 IEM_DS3505
ZBHH,2007-11-02 06:00,ZBHH 020600Z AUTO 25006KT 12SM 05/M10 A3012 RMK SLP240 T00541096 57015 IEM_DS3505
ZBHH,2007-11-02 07:00,ZBHH 020700Z AUTO 25008KT 6SM 06/M11 A3012 RMK T00601110 IEM_DS3505
ZBHH,2007-11-02 08:00,ZBHH 020800Z AUTO 24004KT 6SM 06/M11 A3012 RMK T00601110 IEM_DS3505
ZBHH,2007-11-02 09:00,ZBHH 020900Z AUTO 25004KT 19SM 06/M09 A3012 RMK SLP250 T00551087 52006 IEM_DS3505
ZBHH,2007-11-02 10:00,ZBHH 021000Z AUTO 22004KT 3SM 03/M09 A3015 RMK T00301090 IEM_DS3505
ZBHH,2007-11-02 11:00,ZBHH 021100Z AUTO 36002KT 4SM 02/M08 A3018 RMK T00201080 IEM_DS3505
ZBHH,2007-11-02 12:00,ZBHH 021200Z AUTO 25002KT 19SM 03/M09 A3021 RMK SLP280 T00311086 52024 IEM_DS3505
ZBHH,2007-11-02 13:00,ZBHH 021300Z AUTO 04004KT 6SM 02/M09 A3024 RMK T00201090 IEM_DS3505
ZBHH,2007-11-02 14:00,ZBHH 021400Z AUTO 06008KT 6SM 01/M09 A3027 RMK T00101090 IEM_DS3505
ZBHH,2007-11-02 15:00,ZBHH 021500Z AUTO 06006KT 19SM 00/M08 A3027 RMK SLP292 T00011083 52016 IEM_DS3505
ZBHH,2007-11-02 16:00,ZBHH 021600Z AUTO 09004KT 6SM M03/M09 A3027 RMK T10301090 IEM_DS3505
ZBHH,2007-11-02 17:00,ZBHH 021700Z AUTO 07004KT 6SM M03/M09 A3027 RMK T10301090 IEM_DS3505
ZBHH,2007-11-02 18:00,ZBHH 021800Z AUTO 11002KT 19SM M02/M08 A3027 RMK SLP296 T10151080 52006 IEM_DS3505
ZBHH,2007-11-02 20:00,ZBHH 022000Z AUTO 08004KT 6SM M05/M09 A3030 RMK T10501090 IEM_DS3505
ZBHH,2007-11-02 21:00,ZBHH 022100Z AUTO 07002KT 19SM M01/M08 A3030 RMK SLP300 T10091083 52005 IEM_DS3505
ZBHH,2007-11-02 22:00,ZBHH 022200Z AUTO 09004KT 6SM M05/M10 A3030 RMK T10501100 IEM_DS3505
ZBHH,2007-11-02 23:00,ZBHH 022300Z AUTO 04002KT 6SM M05/M09 A3030 RMK T10501090 IEM_DS3505
ZBHH,2007-11-03 00:00,ZBHH 030000Z AUTO 09002KT 19SM M02/M08 A3033 RMK SLP322 T10191082 52012 IEM_DS3505
ZBHH,2007-11-03 01:00,ZBHH 030100Z AUTO 08004KT 6SM 00/M07 A3036 RMK T00001070 IEM_DS3505
ZBHH,2007-11-03 02:00,ZBHH 030200Z AUTO 05002KT 6SM 02/M08 A3036 RMK T00201080 IEM_DS3505
ZBHH,2007-11-03 03:00,ZBHH 030300Z AUTO 16002KT 19SM 05/M09 A3036 RMK SLP315 T00531089 52003 IEM_DS3505
ZBHH,2007-11-03 04:00,ZBHH 030400Z AUTO 22002KT 6SM 06/M09 A3033 RMK T00601090 IEM_DS3505
ZBHH,2007-11-03 05:00,ZBHH 030500Z AUTO 23004KT 6SM 07/M09 A3030 RMK T00701090 IEM_DS3505
ZBHH,2007-11-03 06:00,ZBHH 030600Z AUTO 20004KT 19SM 08/M09 A3027 RMK SLP286 T00791086 57023 IEM_DS3505
ZBHH,2007-11-03 07:00,ZBHH 030700Z AUTO 23004KT 6SM 07/M09 A3027 RMK T00701090 IEM_DS3505
ZBHH,2007-11-03 08:00,ZBHH 030800Z AUTO 23004KT 6SM 07/M09 A3024 RMK T00701090 IEM_DS3505
ZBHH,2007-11-03 09:00,ZBHH 030900Z AUTO 20004KT 19SM 07/M09 A3024 RMK SLP277 T00731087 57008 IEM_DS3505
ZBHH,2007-11-03 10:00,ZBHH 031000Z AUTO 13002KT 6SM 04/M08 A3027 RMK T00401080 IEM_DS3505
ZBHH,2007-11-03 11:00,ZBHH 031100Z AUTO 03006KT 6SM 01/M07 A3027 RMK T00101070 IEM_DS3505
ZBHH,2007-11-03 12:00,ZBHH 031200Z AUTO 06002KT 19SM 04/M07 A3027 RMK SLP300 T00381073 52010 IEM_DS3505
ZBHH,2007-11-03 13:00,ZBHH 031300Z AUTO 09004KT 6SM M01/M07 A3030 RMK T10101070 IEM_DS3505
ZBHH,2007-11-03 14:00,ZBHH 031400Z AUTO 08004KT 6SM M02/M07 A3030 RMK T10201070 IEM_DS3505
ZBHH,2007-11-03 15:00,ZBHH 031500Z AUTO 09002KT 19SM 00/M07 A3030 RMK SLP292 T00051066 52002 IEM_DS3505
ZBHH,2007-11-03 16:00,ZBHH 031600Z AUTO 07002KT 6SM M02/M07 A3027 RMK T10201070 IEM_DS3505
ZBHH,2007-11-03 18:00,ZBHH 031800Z AUTO 09002KT 19SM M02/M06 A3027 RMK SLP286 T10171064 57005 IEM_DS3505
ZBHH,2007-11-03 19:00,ZBHH 031900Z AUTO 08004KT 6SM M04/M08 A3027 RMK T10401080 IEM_DS3505
ZBHH,2007-11-03 20:00,ZBHH 032000Z AUTO 07004KT 6SM M03/M07 A3024 RMK T10301070 IEM_DS3505
ZBHH,2007-11-03 21:00,ZBHH 032100Z AUTO 18002KT 12SM M03/M07 A3024 RMK SLP277 T10261068 57011 IEM_DS3505
ZBHH,2007-11-03 22:00,ZBHH 032200Z AUTO 09004KT 6SM M04/M08 A3024 RMK T10401080 IEM_DS3505
ZBHH,2007-11-03 23:00,ZBHH 032300Z AUTO 10004KT 6SM M04/M08 A3024 RMK T10401080 IEM_DS3505
ZBHH,2007-11-04 00:00,ZBHH 040000Z AUTO 11002KT 12SM M02/M06 A3024 RMK SLP288 T10191059 52004 IEM_DS3505
ZBHH,2007-11-04 01:00,ZBHH 040100Z AUTO 09006KT 4SM 01/M04 A3024 RMK T00101040 IEM_DS3505
ZBHH,2007-11-04 02:00,ZBHH 040200Z AUTO 06004KT 4SM 05/M05 A3024 RMK T00501050 IEM_DS3505
ZBHH,2007-11-04 03:00,ZBHH 040300Z AUTO 11004KT 12SM 08/M06 A3021 RMK SLP265 T00761062 57007 IEM_DS3505
ZBHH,2007-11-04 04:00,ZBHH 040400Z AUTO 22006KT 6SM 09/M07 A3021 RMK T00901070 IEM_DS3505
ZBHH,2007-11-04 05:00,ZBHH 040500Z AUTO 24006KT 6SM 09/M06 A3018 RMK T00901060 IEM_DS3505
ZBHH,2007-11-04 06:00,ZBHH 040600Z AUTO 20004KT 12SM 10/M05 A3015 RMK SLP241 T01041048 57020 IEM_DS3505
ZBHH,2007-11-04 07:00,ZBHH 040700Z AUTO 23002KT 6SM 11/M05 A3015 RMK T01101050 IEM_DS3505
ZBHH,2007-11-04 08:00,ZBHH 040800Z AUTO 28002KT 6SM 10/M04 A3015 RMK T01001040 IEM_DS3505
ZBHH,2007-11-04 09:00,ZBHH 040900Z AUTO 34002KT 12SM 10/M03 A3015 RMK SLP235 T01031034 57007 IEM_DS3505
ZBHH,2007-11-04 10:00,ZBHH 041000Z AUTO 06002KT 4SM 05/M03 A3015 RMK T00501030 IEM_DS3505
ZBHH,2007-11-04 11:00,ZBHH 041100Z AUTO 09004KT 4SM 03/M03 A3015 RMK T00301030 IEM_DS3505
ZBHH,2007-11-04 12:00,ZBHH 041200Z AUTO 07002KT 12SM 06/M02 A3015 RMK SLP255 T00621024 52010 IEM_DS3505
ZBHH,2007-11-04 13:00,ZBHH 041300Z AUTO 07002KT 4SM 01/M04 A3018 RMK T00101040 IEM_DS3505
ZBHH,2007-11-04 14:00,ZBHH 041400Z AUTO 09004KT 4SM 00/M04 A3018 RMK T00001040 IEM_DS3505
ZBHH,2007-11-04 15:00,ZBHH 041500Z AUTO 07002KT 9SM 02/M02 A3018 RMK SLP246 T00251024 52004 IEM_DS3505
ZBHH,2007-11-04 16:00,ZBHH 041600Z AUTO 06004KT 5SM 00/M04 A3018 RMK T00001040 IEM_DS3505
ZBHH,2007-11-04 17:00,ZBHH 041700Z AUTO 05002KT 5SM M01/M05 A3018 RMK T10101050 IEM_DS3505
ZBHH,2007-11-04 18:00,ZBHH 041800Z AUTO 11002KT 12SM 01/M03 A3018 RMK SLP243 T00091030 54000 IEM_DS3505
ZBHH,2007-11-04 19:00,ZBHH 041900Z AUTO 09002KT 5SM M02/M05 A3018 RMK T10201050 IEM_DS3505
ZBHH,2007-11-04 20:00,ZBHH 042000Z AUTO 08002KT 5SM M01/M04 A3018 RMK T10101040 IEM_DS3505
ZBHH,2007-11-04 21:00,ZBHH 042100Z AUTO 02002KT 12SM M00/M03 A3018 RMK SLP245 T10031030 57001 IEM_DS3505
ZBHH,2007-11-04 22:00,ZBHH 042200Z AUTO 07002KT 4SM M03/M05 A3018 RMK T10301050 IEM_DS3505
ZBHH,2007-11-04 23:00,ZBHH 042300Z AUTO 07004KT 4SM M03/M05 A3018 RMK T10301050 IEM_DS3505
ZBHH,2007-11-05 00:00,ZBHH 050000Z AUTO 20002KT 5SM 01/M02 A3021 RMK SLP264 T00071019 52010 IEM_DS3505
ZBHH,2007-11-05 01:00,ZBHH 050100Z AUTO 09004KT 3SM 02/M02 A3021 RMK T00201020 IEM_DS3505
ZBHH,2007-11-05 02:00,ZBHH 050200Z AUTO 10002KT 4SM 06/M01 A3021 RMK T00601010 IEM_DS3505
ZBHH,2007-11-05 03:00,ZBHH 050300Z AUTO 09004KT 6SM 09/M02 A3021 RMK SLP253 T00891024 54000 IEM_DS3505
ZBHH,2007-11-05 04:00,ZBHH 050400Z AUTO 20004KT 4SM 09/M03 A3021 RMK T00901030 IEM_DS3505
ZBHH,2007-11-05 05:00,ZBHH 050500Z AUTO 25004KT 4SM 10/M02 A3018 RMK T01001020 IEM_DS3505
ZBHH,2007-11-05 06:00,ZBHH 050600Z AUTO 25004KT 6SM 11/M02 A3015 RMK SLP233 T01111016 57016 IEM_DS3505
ZBHH,2007-11-05 07:00,ZBHH 050700Z AUTO 34002KT 4SM 10/M01 A3015 RMK T01001010 IEM_DS3505
ZBHH,2007-11-05 08:00,ZBHH 050800Z AUTO 36002KT 4SM 10/M01 A3015 RMK T01001010 IEM_DS3505
ZBHH,2007-11-05 09:00,ZBHH 050900Z AUTO 18002KT 6SM 10/M01 A3015 RMK SLP236 T01031011 57002 IEM_DS3505
ZBHH,2007-11-05 10:00,ZBHH 051000Z AUTO 15002KT 3SM 07/M01 A3015 RMK T00701010 IEM_DS3505
ZBHH,2007-11-05 11:00,ZBHH 051100Z AUTO 02004KT 2SM 06/00 A3018 RMK T00600000 IEM_DS3505
ZBHH,2007-11-05 12:00,ZBHH 051200Z AUTO 07002KT 19SM 08/M00 A3018 RMK SLP250 T00791003 52010 IEM_DS3505
ZBHH,2007-11-05 13:00,ZBHH 051300Z AUTO 07002KT 3SM 04/M01 A3021 RMK T00401010 IEM_DS3505
ZBHH,2007-11-05 14:00,ZBHH 051400Z AUTO 04002KT 3SM 01/M02 A3021 RMK T00101020 IEM_DS3505
ZBHH,2007-11-05 15:00,ZBHH 051500Z AUTO 09002KT 4SM 04/M00 A3021 RMK SLP248 T00401002 52007 IEM_DS3505
ZBHH,2007-11-05 16:00,ZBHH 051600Z AUTO 08002KT 3SM 01/M02 A3021 RMK T00101020 IEM_DS3505
ZBHH,2007-11-05 18:00,ZBHH 051800Z AUTO 09002KT 4SM 03/M01 A3021 RMK SLP248 T00271006 52002 IEM_DS3505
ZBHH,2007-11-05 19:00,ZBHH 051900Z AUTO 03002KT 2 1/2SM 00/M02 A3021 RMK T00001020 IEM_DS3505
ZBHH,2007-11-05 20:00,ZBHH 052000Z AUTO 10004KT 2 1/2SM M02/M04 A3021 RMK T10201040 IEM_DS3505
ZBHH,2007-11-05 21:00,ZBHH 052100Z AUTO 07002KT 19SM 00/M02 A3021 RMK SLP259 T00051016 52003 IEM_DS3505
ZBHH,2007-11-05 22:00,ZBHH 052200Z AUTO 00000KT 2 1/2SM M01/M03 A3024 RMK T10101030 IEM_DS3505
ZBHH,2007-11-05 23:00,ZBHH 052300Z AUTO 11002KT 2SM M02/M04 A3024 RMK T10201040 IEM_DS3505
ZBHH,2007-11-06 00:00,ZBHH 060000Z AUTO 09002KT 12SM 02/M00 A3024 RMK SLP271 T00201003 52009 IEM_DS3505
ZBHH,2007-11-06 01:00,ZBHH 060100Z AUTO 15002KT 2SM 01/M01 A3027 RMK T00101010 IEM_DS3505
ZBHH,2007-11-06 02:00,ZBHH 060200Z AUTO 20002KT 2SM 04/01 A3027 RMK T00400010 IEM_DS3505
ZBHH,2007-11-06 03:00,ZBHH 060300Z AUTO 16002KT 6SM 08/01 A3024 RMK SLP265 T00770009 57002 IEM_DS3505
ZBHH,2007-11-06 04:00,ZBHH 060400Z AUTO 21002KT 2 1/2SM 07/01 A3024 RMK T00700010 IEM_DS3505
ZBHH,2007-11-06 05:00,ZBHH 060500Z AUTO 19002KT 1 1/2SM 08/01 A3021 RMK T00800010 IEM_DS3505
ZBHH,2007-11-06 06:00,ZBHH 060600Z AUTO 22004KT 5SM 10/01 A3018 RMK SLP242 T01030011 57017 IEM_DS3505
ZBHH,2007-11-06 07:00,ZBHH 060700Z AUTO 24006KT 1 1/2SM 10/00 A3018 RMK T01000000 IEM_DS3505
ZBHH,2007-11-06 08:00,ZBHH 060800Z AUTO 24004KT 1 1/2SM 10/00 A3018 RMK T01000000 IEM_DS3505
ZBHH,2007-11-06 09:00,ZBHH 060900Z AUTO 25002KT 6SM 10/01 A3018 RMK SLP240 T00950009 57008 IEM_DS3505
ZBHH,2007-11-06 10:00,ZBHH 061000Z AUTO 00000KT 2SM 06/M01 A3018 RMK T00601010 IEM_DS3505
ZBHH,2007-11-06 11:00,ZBHH 061100Z AUTO 06002KT 1 1/2SM 04/00 A3018 RMK T00400000 IEM_DS3505
ZBHH,2007-11-06 12:00,ZBHH 061200Z AUTO 09004KT 5SM 05/01 A3021 RMK SLP257 T00520008 52009 IEM_DS3505
ZBHH,2007-11-06 13:00,ZBHH 061300Z AUTO 06002KT 1 1/2SM 01/M02 A3021 RMK T00101020 IEM_DS3505
ZBHH,2007-11-06 14:00,ZBHH 061400Z AUTO 09004KT 1 1/2SM 01/M02 A3021 RMK T00101020 IEM_DS3505
ZBHH,2007-11-06 15:00,ZBHH 061500Z AUTO 04002KT 6SM 04/00 A3018 RMK SLP245 T00360000 57002 IEM_DS3505
ZBHH,2007-11-06 16:00,ZBHH 061600Z AUTO 06004KT 1 1/2SM M01/M03 A3018 RMK T10101030 IEM_DS3505
ZBHH,2007-11-06 17:00,ZBHH 061700Z AUTO 09002KT 1 1/2SM M01/M04 A3015 RMK T10101040 IEM_DS3505
ZBHH,2007-11-06 18:00,ZBHH 061800Z AUTO 36002KT 6SM 01/M02 A3015 RMK SLP232 T00081018 57012 IEM_DS3505
ZBHH,2007-11-06 19:00,ZBHH 061900Z AUTO 04002KT 1 1/2SM M01/M03 A3015 RMK T10101030 IEM_DS3505
ZBHH,2007-11-06 20:00,ZBHH 062000Z AUTO 07004KT 1 1/2SM M02/M04 A3012 RMK T10201040 IEM_DS3505
ZBHH,2007-11-06 21:00,ZBHH 062100Z AUTO 04002KT 9SM 00/M03 A3012 RMK SLP228 T00021028 57006 IEM_DS3505
ZBHH,2007-11-06 22:00,ZBHH 062200Z AUTO 03002KT 2SM M02/M04 A3012 RMK T10201040 IEM_DS3505
ZBHH,2007-11-06 23:00,ZBHH 062300Z AUTO 08004KT 2SM M03/M05 A3012 RMK T10301050 IEM_DS3505
ZBHH,2007-11-07 00:00,ZBHH 070000Z AUTO 09004KT 6SM 01/M03 A3012 RMK SLP238 T00101026 52001 IEM_DS3505
ZBHH,2007-11-07 01:00,ZBHH 070100Z AUTO 04002KT 1SM 01/M02 A3015 RMK T00101020 IEM_DS3505
ZBHH,2007-11-07 02:00,ZBHH 070200Z AUTO 13002KT 2 1/2SM 04/M02 A3015 RMK T00401020 IEM_DS3505
ZBHH,2007-11-07 03:00,ZBHH 070300Z AUTO 14002KT 7SM 06/M01 A3015 RMK SLP234 T00561011 52003 IEM_DS3505
ZBHH,2007-11-07 04:00,ZBHH 070400Z AUTO 20002KT 2 1/2SM 04/M01 A3015 RMK T00401010 IEM_DS3505
ZBHH,2007-11-07 05:00,ZBHH 070500Z AUTO 14004KT 2 1/2SM 04/00 A3012 RMK T00400000 IEM_DS3505
ZBHH,2007-11-07 06:00,ZBHH 070600Z AUTO 18002KT 9SM 07/01 A3012 RMK 60000 SLP229 T00670008 57008 IEM_DS3505
ZBHH,2007-11-07 07:00,ZBHH 070700Z AUTO 06002KT 4SM 05/01 A3012 RMK T00500010 IEM_DS3505
ZBHH,2007-11-07 08:00,ZBHH 070800Z AUTO 06006KT 3SM 05/01 A3012 RMK T00500010 IEM_DS3505
ZBHH,2007-11-07 09:00,ZBHH 070900Z AUTO 09004KT 12SM 06/02 A3012 RMK SLP238 T00580019 52005 IEM_DS3505
ZBHH,2007-11-07 10:00,ZBHH 071000Z AUTO 05006KT 1 1/2SM 03/01 A3015 RMK T00300010 IEM_DS3505
ZBHH,2007-11-07 11:00,ZBHH 071100Z AUTO 00000KT 1 1/2SM 01/00 A3018 RMK T00100000 IEM_DS3505
ZBHH,2007-11-07 12:00,ZBHH 071200Z AUTO 32004KT 5SM 03/01 A3018 RMK 60000 SLP260 T00290010 52015 IEM_DS3505
ZBHH,2007-11-07 13:00,ZBHH 071300Z AUTO 00000KT 2 1/2SM M01/M02 A3018 RMK T10101020 IEM_DS3505
ZBHH,2007-11-07 14:00,ZBHH 071400Z AUTO 02004KT 7SM 01/M05 A3021 RMK T00101050 IEM_DS3505
ZBHH,2007-11-07 15:00,ZBHH 071500Z AUTO 29006KT 12SM 03/M07 A3021 RMK SLP258 T00341068 52009 IEM_DS3505
ZBHH,2007-11-07 16:00,ZBHH 071600Z AUTO 02006KT 7SM 01/M06 A3021 RMK T00101060 IEM_DS3505
ZBHH,2007-11-07 17:00,ZBHH 071700Z AUTO 02008KT 7SM 01/M07 A3021 RMK T00101070 IEM_DS3505
ZBHH,2007-11-07 18:00,ZBHH 071800Z AUTO 29002KT 12SM 00/M07 A3021 RMK SLP268 T00051068 52005 IEM_DS3505
ZBHH,2007-11-07 19:00,ZBHH 071900Z AUTO 33010KT 6SM 00/M07 A3021 RMK T00001070 IEM_DS3505
ZBHH,2007-11-07 20:00,ZBHH 072000Z AUTO 02002KT 6SM M01/M07 A3021 RMK T10101070 IEM_DS3505
ZBHH,2007-11-07 21:00,ZBHH 072100Z AUTO 03008KT 12SM M01/M07 A3024 RMK 70000 SLP276 T10131072 52001 IEM_DS3505
ZBHH,2007-11-07 22:00,ZBHH 072200Z AUTO 10004KT 6SM M05/M07 A3024 RMK T10501070 IEM_DS3505
ZBHH,2007-11-07 23:00,ZBHH 072300Z AUTO 00000KT 6SM M04/M06 A3024 RMK T10401060 IEM_DS3505
ZBHH,2007-11-08 00:00,ZBHH 080000Z AUTO 09004KT 19SM M01/M07 A3027 RMK 70000 SLP299 T10061070 52015 IEM_DS3505
ZBHH,2007-11-08 01:00,ZBHH 080100Z AUTO 13002KT 5SM 00/M05 A3030 RMK T00001050 IEM_DS3505
ZBHH,2007-11-08 02:00,ZBHH 080200Z AUTO 18002KT 6SM 01/M04 A3030 RMK T00101040 IEM_DS3505
ZBHH,2007-11-08 03:00,ZBHH 080300Z AUTO 22004KT 19SM 06/M07 A3033 RMK SLP294 T00551070 52010 IEM_DS3505
ZBHH,2007-11-08 04:00,ZBHH 080400Z AUTO 25002KT 7SM 06/M06 A3030 RMK T00601060 IEM_DS3505
ZBHH,2007-11-08 05:00,ZBHH 080500Z AUTO 7SM 06/M08 A3027 RMK T00601080 IEM_DS3505
ZBHH,2007-11-08 06:00,ZBHH 080600Z AUTO 34004KT 19SM 08/M08 A3027 RMK SLP284 T00771079 57010 IEM_DS3505
ZBHH,2007-11-08 07:00,ZBHH 080700Z AUTO 07004KT 7SM 06/M09 A3027 RMK T00601090 IEM_DS3505
ZBHH,2007-11-08 08:00,ZBHH 080800Z AUTO 34004KT 7SM 06/M09 A3027 RMK T00601090 IEM_DS3505
ZBHH,2007-11-08 09:00,ZBHH 080900Z AUTO 02004KT 19SM 05/M06 A3030 RMK SLP299 T00521064 52004 IEM_DS3505
ZBHH,2007-11-08 10:00,ZBHH 081000Z AUTO 36004KT 7SM 03/M07 A3030 RMK T00301070 IEM_DS3505
ZBHH,2007-11-08 11:00,ZBHH 081100Z AUTO 03004KT 7SM 02/M07 A3033 RMK T00201070 IEM_DS3505
ZBHH,2007-11-08 12:00,ZBHH 081200Z AUTO 07002KT 12SM 02/M07 A3033 RMK SLP315 T00241072 52009 IEM_DS3505
ZBHH,2007-11-08 13:00,ZBHH 081300Z AUTO 09006KT 6SM M02/M07 A3033 RMK T10201070 IEM_DS3505
ZBHH,2007-11-08 14:00,ZBHH 081400Z AUTO 10002KT 6SM M02/M07 A3033 RMK T10201070 IEM_DS3505
ZBHH,2007-11-08 15:00,ZBHH 081500Z AUTO 11002KT 19SM M01/M06 A3036 RMK SLP316 T10081064 52007 IEM_DS3505
ZBHH,2007-11-08 16:00,ZBHH 081600Z AUTO 04002KT 6SM M04/M07 A3036 RMK T10401070 IEM_DS3505
ZBHH,2007-11-08 17:00,ZBHH 081700Z AUTO 07002KT 6SM M04/M08 A3033 RMK T10401080 IEM_DS3505
ZBHH,2007-11-08 18:00,ZBHH 081800Z AUTO 09004KT 19SM M03/M07 A3033 RMK SLP311 T10271069 57003 IEM_DS3505
ZBHH,2007-11-08 19:00,ZBHH 081900Z AUTO 09004KT 6SM M05/M08 A3033 RMK T10501080 IEM_DS3505
ZBHH,2007-11-08 20:00,ZBHH 082000Z AUTO 08004KT 6SM M05/M09 A3033 RMK T10501090 IEM_DS3505
ZBHH,2007-11-08 21:00,ZBHH 082100Z AUTO 11004KT 19SM M03/M08 A3033 RMK SLP313 T10341077 57005 IEM_DS3505
ZBHH,2007-11-08 22:00,ZBHH 082200Z AUTO 06002KT 6SM M06/M09 A3033 RMK T10601090 IEM_DS3505
ZBHH,2007-11-08 23:00,ZBHH 082300Z AUTO 08004KT 6SM M06/M09 A3033 RMK T10601090 IEM_DS3505
ZBHH,2007-11-09 00:00,ZBHH 090000Z AUTO 09004KT 19SM M02/M07 A3033 RMK SLP320 T10241073 52002 IEM_DS3505
ZBHH,2007-11-09 01:00,ZBHH 090100Z AUTO 11004KT 6SM M02/M07 A3033 RMK T10201070 IEM_DS3505
ZBHH,2007-11-09 02:00,ZBHH 090200Z AUTO 10004KT 6SM 01/M07 A3033 RMK T00101070 IEM_DS3505
ZBHH,2007-11-09 03:00,ZBHH 090300Z AUTO 09004KT 19SM 04/M08 A3033 RMK SLP312 T00431078 54000 IEM_DS3505
ZBHH,2007-11-09 04:00,ZBHH 090400Z AUTO 07002KT 6SM 04/M08 A3030 RMK T00401080 IEM_DS3505
ZBHH,2007-11-09 05:00,ZBHH 090500Z AUTO 17004KT 6SM 06/M08 A3027 RMK T00601080 IEM_DS3505
ZBHH,2007-11-09 06:00,ZBHH 090600Z AUTO 20004KT 19SM 07/M07 A3027 RMK SLP287 T00661074 57021 IEM_DS3505
ZBHH,2007-11-09 07:00,ZBHH 090700Z AUTO 16002KT 6SM 06/M09 A3024 RMK T00601090 IEM_DS3505
ZBHH,2007-11-09 08:00,ZBHH 090800Z AUTO 25002KT 6SM 06/M09 A3024 RMK T00601090 IEM_DS3505
ZBHH,2007-11-09 09:00,ZBHH 090900Z AUTO 22004KT 19SM 06/M08 A3024 RMK SLP285 T00561079 57005 IEM_DS3505
ZBHH,2007-11-09 10:00,ZBHH 091000Z AUTO 21002KT 4SM 02/M08 A3024 RMK T00201080 IEM_DS3505
ZBHH,2007-11-09 11:00,ZBHH 091100Z AUTO 01004KT 5SM 00/M07 A3024 RMK T00001070 IEM_DS3505
ZBHH,2007-11-09 12:00,ZBHH 091200Z AUTO 32002KT 7SM 02/M07 A3027 RMK SLP301 T00201068 52008 IEM_DS3505
ZBHH,2007-11-09 13:00,ZBHH 091300Z AUTO 11004KT 6SM M03/M07 A3027 RMK T10301070 IEM_DS3505
ZBHH,2007-11-09 14:00,ZBHH 091400Z AUTO 10004KT 6SM M04/M08 A3030 RMK T10401080 IEM_DS3505
ZBHH,2007-11-09 15:00,ZBHH 091500Z AUTO 11002KT 12SM M00/M06 A3030 RMK SLP298 T10031065 52007 IEM_DS3505
ZBHH,2007-11-09 16:00,ZBHH 091600Z AUTO 02004KT 6SM M04/M07 A3030 RMK T10401070 IEM_DS3505
ZBHH,2007-11-09 17:00,ZBHH 091700Z AUTO 03002KT 6SM M04/M08 A3030 RMK T10401080 IEM_DS3505
ZBHH,2007-11-09 18:00,ZBHH 091800Z AUTO 07002KT 19SM M03/M08 A3030 RMK SLP298 T10281075 54000 IEM_DS3505
ZBHH,2007-11-09 19:00,ZBHH 091900Z AUTO 10004KT 6SM M05/M09 A3030 RMK T10501090 IEM_DS3505
ZBHH,2007-11-09 20:00,ZBHH 092000Z AUTO 08002KT 6SM M06/M09 A3030 RMK T10601090 IEM_DS3505
ZBHH,2007-11-09 21:00,ZBHH 092100Z AUTO 25002KT 19SM M04/M08 A3030 RMK SLP305 T10361083 52002 IEM_DS3505
ZBHH,2007-11-09 22:00,ZBHH 092200Z AUTO 06004KT 6SM M05/M09 A3030 RMK T10501090 IEM_DS3505
ZBHH,2007-11-09 23:00,ZBHH 092300Z AUTO 10002KT 6SM M07/M11 A3030 RMK T10701110 IEM_DS3505
ZBHH,2007-11-10 00:00,ZBHH 100000Z AUTO 09002KT 19SM M03/M08 A3033 RMK SLP321 T10341085 52007 IEM_DS3505
ZBHH,2007-11-10 01:00,ZBHH 100100Z AUTO 09002KT 6SM M02/M07 A3033 RMK T10201070 IEM_DS3505
ZBHH,2007-11-10 02:00,ZBHH 100200Z AUTO 00000KT 6SM 01/M07 A3033 RMK T00101070 IEM_DS3505
ZBHH,2007-11-10 03:00,ZBHH 100300Z AUTO 07004KT 19SM 04/M09 A3033 RMK SLP308 T00421089 54000 IEM_DS3505
ZBHH,2007-11-10 04:00,ZBHH 100400Z AUTO 23002KT 6SM 05/M08 A3030 RMK T00501080 IEM_DS3505
ZBHH,2007-11-10 05:00,ZBHH 100500Z AUTO 26004KT 6SM 06/M09 A3027 RMK T00601090 IEM_DS3505
ZBHH,2007-11-10 06:00,ZBHH 100600Z AUTO 20004KT 12SM 07/M08 A3027 RMK SLP290 T00661081 57016 IEM_DS3505
ZBHH,2007-11-10 07:00,ZBHH 100700Z AUTO 25004KT 6SM 06/M09 A3024 RMK T00601090 IEM_DS3505
ZBHH,2007-11-10 08:00,ZBHH 100800Z AUTO 24002KT 6SM 06/M09 A3024 RMK T00601090 IEM_DS3505
ZBHH,2007-11-10 09:00,ZBHH 100900Z AUTO 20002KT 6SM 06/M09 A3024 RMK SLP286 T00601091 57007 IEM_DS3505
ZBHH,2007-11-10 10:00,ZBHH 101000Z AUTO 12002KT 6SM 02/M09 A3024 RMK T00201090 IEM_DS3505
ZBHH,2007-11-10 11:00,ZBHH 101100Z AUTO 03006KT 6SM 00/M08 A3024 RMK T00001080 IEM_DS3505
ZBHH,2007-11-10 12:00,ZBHH 101200Z AUTO 32002KT 6SM 01/M07 A3024 RMK SLP302 T00121071 52004 IEM_DS3505
ZBHH,2007-11-10 13:00,ZBHH 101300Z AUTO 08006KT 6SM M03/M08 A3027 RMK T10301080 IEM_DS3505
ZBHH,2007-11-10 14:00,ZBHH 101400Z AUTO 05002KT 6SM M03/M08 A3027 RMK T10301080 IEM_DS3505
ZBHH,2007-11-10 15:00,ZBHH 101500Z AUTO 09002KT 9SM M01/M07 A3027 RMK SLP290 T10101069 52001 IEM_DS3505
ZBHH,2007-11-10 16:00,ZBHH 101600Z AUTO 09004KT 6SM M05/M09 A3027 RMK T10501090 IEM_DS3505
ZBHH,2007-11-10 18:00,ZBHH 101800Z AUTO 07002KT 12SM M03/M07 A3027 RMK SLP290 T10301072 52001 IEM_DS3505
ZBHH,2007-11-10 19:00,ZBHH 101900Z AUTO 07002KT 6SM M04/M10 A3027 RMK T10401100 IEM_DS3505
ZBHH,2007-11-10 20:00,ZBHH 102000Z AUTO 08006KT M05/M10 A3024 RMK T10501100 IEM_DS3505
ZBHH,2007-11-10 21:00,ZBHH 102100Z AUTO 11002KT 19SM M04/M08 A3024 RMK SLP287 T10391077 57006 IEM_DS3505
ZBHH,2007-11-10 22:00,ZBHH 102200Z AUTO 05002KT 6SM M05/M09 A3024 RMK T10501090 IEM_DS3505
ZBHH,2007-11-10 23:00,ZBHH 102300Z AUTO 09006KT 6SM M07/M10 A3024 RMK T10701100 IEM_DS3505
ZBHH,2007-11-11 00:00,ZBHH 110000Z AUTO 09002KT 12SM M04/M08 A3024 RMK SLP300 T10411077 52001 IEM_DS3505
ZBHH,2007-11-11 01:00,ZBHH 110100Z AUTO 10002KT 4SM M02/M07 A3027 RMK T10201070 IEM_DS3505
ZBHH,2007-11-11 02:00,ZBHH 110200Z AUTO 09002KT 5SM 02/M06 A3024 RMK T00201060 IEM_DS3505
ZBHH,2007-11-11 03:00,ZBHH 110300Z AUTO 09004KT 12SM 06/M09 A3024 RMK SLP277 T00601094 57003 IEM_DS3505
ZBHH,2007-11-11 04:00,ZBHH 110400Z AUTO 10002KT 6SM 07/M10 A3021 RMK T00701100 IEM_DS3505
ZBHH,2007-11-11 05:00,ZBHH 110500Z AUTO 12002KT 6SM 09/M09 A3018 RMK T00901090 IEM_DS3505
ZBHH,2007-11-11 06:00,ZBHH 110600Z AUTO 22004KT 16SM 10/M12 A3015 RMK SLP244 T01011118 57025 IEM_DS3505
ZBHH,2007-11-11 07:00,ZBHH 110700Z AUTO 26002KT 6SM 10/M11 A3015 RMK T01001110 IEM_DS3505
ZBHH,2007-11-11 08:00,ZBHH 110800Z AUTO 00000KT 6SM 09/M11 A3015 RMK T00901110 IEM_DS3505
ZBHH,2007-11-11 09:00,ZBHH 110900Z AUTO 04002KT 12SM 09/M10 A3015 RMK SLP242 T00931097 57005 IEM_DS3505
ZBHH,2007-11-11 10:00,ZBHH 111000Z AUTO 35002KT 6SM 07/M09 A3012 RMK T00701090 IEM_DS3505
ZBHH,2007-11-11 11:00,ZBHH 111100Z AUTO 00000KT 4SM 06/M06 A3012 RMK T00601060 IEM_DS3505
ZBHH,2007-11-11 12:00,ZBHH 111200Z AUTO 20002KT 6SM 09/M08 A3015 RMK SLP249 T00871079 52004 IEM_DS3505
ZBHH,2007-11-11 13:00,ZBHH 111300Z AUTO 23002KT 2 1/2SM 05/M07 A3015 RMK T00501070 IEM_DS3505
ZBHH,2007-11-11 14:00,ZBHH 111400Z AUTO 09002KT 4SM 04/M05 A3015 RMK T00401050 IEM_DS3505
ZBHH,2007-11-11 15:00,ZBHH 111500Z AUTO 20002KT 7SM 07/01 A3015 RMK SLP232 T00710008 52003 IEM_DS3505
ZBHH,2007-11-11 16:00,ZBHH 111600Z AUTO 19004KT 4SM 04/M02 A3015 RMK T00401020 IEM_DS3505
ZBHH,2007-11-11 18:00,ZBHH 111800Z AUTO 18002KT 9SM 06/01 A3015 RMK 60000 SLP219 T00590011 57005 IEM_DS3505
ZBHH,2007-11-11 19:00,ZBHH 111900Z AUTO 05002KT 4SM 03/00 A3015 RMK T00300000 IEM_DS3505
ZBHH,2007-11-11 20:00,ZBHH 112000Z AUTO 07002KT 1 1/2SM 03/01 A3012 RMK T00300010 IEM_DS3505
ZBHH,2007-11-11 21:00,ZBHH 112100Z AUTO 09002KT 9SM 05/01 A3012 RMK 70000 SLP219 T00490008 57004 IEM_DS3505
ZBHH,2007-11-11 22:00,ZBHH 112200Z AUTO 00000KT 1 1/4SM 03/01 A3012 RMK T00300010 IEM_DS3505
ZBHH,2007-11-11 23:00,ZBHH 112300Z AUTO 32002KT 1 1/4SM 03/01 A3012 RMK T00300010 IEM_DS3505
ZBHH,2007-11-12 00:00,ZBHH 120000Z AUTO 04002KT 4SM 05/01 A3015 RMK 60000 70000 SLP228 T00510010 52007 IEM_DS3505
ZBHH,2007-11-12 01:00,ZBHH 120100Z AUTO 00000KT 1SM 03/02 A3015 RMK T00300020 IEM_DS3505
ZBHH,2007-11-12 02:00,ZBHH 120200Z AUTO 00000KT 1SM 04/03 A3015 RMK T00400030 IEM_DS3505
ZBHH,2007-11-12 03:00,ZBHH 120300Z AUTO 09002KT 3SM 07/03 A3015 RMK SLP225 T00700029 57002 IEM_DS3505
ZBHH,2007-11-12 04:00,ZBHH 120400Z AUTO 25002KT 1SM 06/03 A3012 RMK T00600030 IEM_DS3505
ZBHH,2007-11-12 05:00,ZBHH 120500Z AUTO 21004KT 1SM 07/03 A3012 RMK T00700030 IEM_DS3505
ZBHH,2007-11-12 06:00,ZBHH 120600Z AUTO 25002KT 3SM 08/03 A3009 RMK SLP209 T00790030 57015 IEM_DS3505
ZBHH,2007-11-12 07:00,ZBHH 120700Z AUTO 24004KT 1 1/4SM 07/02 A3009 RMK T00700020 IEM_DS3505
ZBHH,2007-11-12 08:00,ZBHH 120800Z AUTO 23004KT 1 1/4SM 07/03 A3009 RMK T00700030 IEM_DS3505
ZBHH,2007-11-12 09:00,ZBHH 120900Z AUTO 25004KT 3SM 07/04 A3009 RMK SLP211 T00720036 57001 IEM_DS3505
ZBHH,2007-11-12 10:00,ZBHH 121000Z AUTO 24002KT 1SM 06/03 A3009 RMK T00600030 IEM_DS3505
ZBHH,2007-11-12 11:00,ZBHH 121100Z AUTO 33002KT 4SM 06/00 A3012 RMK T00600000 IEM_DS3505
ZBHH,2007-11-12 12:00,ZBHH 121200Z AUTO 32006KT 3SM 06/M03 A3012 RMK SLP223 T00601028 52008 IEM_DS3505
ZBHH,2007-11-12 13:00,ZBHH 121300Z AUTO 36002KT 7SM 04/M04 A3012 RMK T00401040 IEM_DS3505
ZBHH,2007-11-12 14:00,ZBHH 121400Z AUTO 01006KT 7SM 03/M05 A3012 RMK T00301050 IEM_DS3505
ZBHH,2007-11-12 15:00,ZBHH 121500Z AUTO 29006KT 3SM 04/M06 A3012 RMK SLP224 T00381062 54000 IEM_DS3505
ZBHH,2007-11-12 16:00,ZBHH 121600Z AUTO 02004KT 7SM 03/M04 A3012 RMK T00301040 IEM_DS3505
ZBHH,2007-11-12 17:00,ZBHH 121700Z AUTO 01002KT 7SM 02/M04 A3009 RMK T00201040 IEM_DS3505
ZBHH,2007-11-12 18:00,ZBHH 121800Z AUTO 32004KT 3SM 04/M06 A3009 RMK SLP213 T00371058 57008 IEM_DS3505
ZBHH,2007-11-12 19:00,ZBHH 121900Z AUTO 06004KT 7SM 03/M05 A3009 RMK T00301050 IEM_DS3505
ZBHH,2007-11-12 20:00,ZBHH 122000Z AUTO 00000KT 7SM 02/M04 A3009 RMK T00201040 IEM_DS3505
ZBHH,2007-11-12 21:00,ZBHH 122100Z AUTO 11002KT 6SM 04/M05 A3009 RMK SLP209 T00381049 57004 IEM_DS3505
ZBHH,2007-11-12 22:00,ZBHH 122200Z AUTO 10006KT 7SM 02/M05 A3009 RMK T00201050 IEM_DS3505
ZBHH,2007-11-12 23:00,ZBHH 122300Z AUTO 07008KT 7SM 02/M06 A3009 RMK T00201060 IEM_DS3505
ZBHH,2007-11-13 00:00,ZBHH 130000Z AUTO 09004KT 9SM 03/M05 A3009 RMK SLP222 T00311051 52007 IEM_DS3505
ZBHH,2007-11-13 01:00,ZBHH 130100Z AUTO 06006KT 7SM 02/M06 A3012 RMK T00201060 IEM_DS3505
ZBHH,2007-11-13 02:00,ZBHH 130200Z AUTO 09008KT 7SM 03/M06 A3012 RMK T00301060 IEM_DS3505
ZBHH,2007-11-13 03:00,ZBHH 130300Z AUTO 07004KT 6SM 05/M04 A3009 RMK SLP222 T00521041 54000 IEM_DS3505
ZBHH,2007-11-13 04:00,ZBHH 130400Z AUTO 15002KT 2 1/2SM 04/M02 A3009 RMK T00401020 IEM_DS3505
ZBHH,2007-11-13 05:00,ZBHH 130500Z AUTO 14002KT 2SM 05/00 A3006 RMK T00500000 IEM_DS3505
ZBHH,2007-11-13 06:00,ZBHH 130600Z AUTO 22004KT 6SM 07/M01 A3003 RMK SLP189 T00731014 57025 IEM_DS3505
ZBHH,2007-11-13 07:00,ZBHH 130700Z AUTO 25004KT 2 1/2SM 07/M01 A3000 RMK T00701010 IEM_DS3505
ZBHH,2007-11-13 08:00,ZBHH 130800Z AUTO 22004KT 2 1/2SM 06/M01 A3000 RMK T00601010 IEM_DS3505
ZBHH,2007-11-13 09:00,ZBHH 130900Z AUTO 20006KT 6SM 07/M00 A3000 RMK SLP185 T00661004 57005 IEM_DS3505
ZBHH,2007-11-13 10:00,ZBHH 131000Z AUTO 26002KT 2SM 04/M01 A3000 RMK T00401010 IEM_DS3505
ZBHH,2007-11-13 11:00,ZBHH 131100Z AUTO 25002KT 1 1/2SM 03/M01 A3000 RMK T00301010 IEM_DS3505
ZBHH,2007-11-13 12:00,ZBHH 131200Z AUTO 32002KT 6SM 04/M00 A3003 RMK SLP197 T00391001 52004 IEM_DS3505
ZBHH,2007-11-13 13:00,ZBHH 131300Z AUTO 09004KT 1 1/2SM 00/M02 A3003 RMK T00001020 IEM_DS3505
ZBHH,2007-11-13 14:00,ZBHH 131400Z AUTO 10002KT 1 1/2SM 01/M01 A3003 RMK T00101010 IEM_DS3505
ZBHH,2007-11-13 15:00,ZBHH 131500Z AUTO 02002KT 6SM 05/00 A3000 RMK SLP191 T00460000 54000 IEM_DS3505
ZBHH,2007-11-13 16:00,ZBHH 131600Z AUTO 08002KT 1 1/2SM 02/00 A3000 RMK T00200000 IEM_DS3505
ZBHH,2007-11-13 17:00,ZBHH 131700Z AUTO 11002KT 1 1/2SM 02/00 A3000 RMK T00200000 IEM_DS3505
ZBHH,2007-11-13 18:00,ZBHH 131800Z AUTO 02002KT 6SM 05/01 A3000 RMK SLP179 T00480006 57005 IEM_DS3505
ZBHH,2007-11-13 19:00,ZBHH 131900Z AUTO 12002KT 1 1/2SM 03/00 A3000 RMK T00300000 IEM_DS3505
ZBHH,2007-11-13 20:00,ZBHH 132000Z AUTO 13004KT 1 1/2SM 02/00 A2997 RMK T00200000 IEM_DS3505
ZBHH,2007-11-13 21:00,ZBHH 132100Z AUTO 27004KT 6SM 04/02 A2997 RMK SLP174 T00440018 57007 IEM_DS3505
ZBHH,2007-11-13 22:00,ZBHH 132200Z AUTO 03002KT 1 1/2SM 03/01 A2997 RMK T00300010 IEM_DS3505
ZBHH,2007-11-13 23:00,ZBHH 132300Z AUTO 02002KT 1 1/2SM 03/01 A2997 RMK T00300010 IEM_DS3505
ZBHH,2007-11-14 00:00,ZBHH 140000Z AUTO 27002KT 5SM 05/02 A3000 RMK SLP187 T00470021 52006 IEM_DS3505
ZBHH,2007-11-14 01:00,ZBHH 140100Z AUTO 00000KT 1SM 03/02 A3003 RMK T00300020 IEM_DS3505
ZBHH,2007-11-14 02:00,ZBHH 140200Z AUTO 34010KT 4SM 01/M04 A3009 RMK T00101040 IEM_DS3505
ZBHH,2007-11-14 03:00,ZBHH 140300Z AUTO 29012KT 7SM 01/M07 A3012 RMK SLP240 T00121071 52041 IEM_DS3505
ZBHH,2007-11-14 04:00,ZBHH 140400Z AUTO 34014KT 6SM 01/M07 A3015 RMK T00101070 IEM_DS3505
ZBHH,2007-11-14 05:00,ZBHH 140500Z AUTO 35014G23KT 6SM 00/M08 A3015 RMK T00001080 IEM_DS3505
ZBHH,2007-11-14 06:00,ZBHH 140600Z AUTO 36008KT 19SM 02/M09 A3015 RMK SLP254 T00181092 52014 IEM_DS3505
ZBHH,2007-11-14 07:00,ZBHH 140700Z AUTO 34012KT 6SM 01/M09 A3018 RMK T00101090 IEM_DS3505
ZBHH,2007-11-14 08:00,ZBHH 140800Z AUTO 36010KT 6SM 00/M10 A3024 RMK T00001100 IEM_DS3505
ZBHH,2007-11-14 09:00,ZBHH 140900Z AUTO 32010KT 19SM M02/M10 A3027 RMK SLP294 T10161104 52027 IEM_DS3505
ZBHH,2007-11-14 10:00,ZBHH 141000Z AUTO 04012KT 6SM M03/M12 A3030 RMK T10301120 IEM_DS3505
ZBHH,2007-11-14 11:00,ZBHH 141100Z AUTO 03010KT 6SM M04/M13 A3033 RMK T10401130 IEM_DS3505
ZBHH,2007-11-14 12:00,ZBHH 141200Z AUTO 29004KT 19SM M04/M12 A3036 RMK SLP326 T10421121 52023 IEM_DS3505
ZBHH,2007-11-14 13:00,ZBHH 141300Z AUTO 02008KT 6SM M06/M13 A3036 RMK T10601130 IEM_DS3505
ZBHH,2007-11-14 14:00,ZBHH 141400Z AUTO 07006KT 6SM M07/M14 A3039 RMK T10701140 IEM_DS3505
ZBHH,2007-11-14 15:00,ZBHH 141500Z AUTO 29006KT 19SM M05/M14 A3039 RMK SLP355 T10541137 52015 IEM_DS3505
ZBHH,2007-11-14 16:00,ZBHH 141600Z AUTO 09004KT 6SM M08/M14 A3039 RMK T10801140 IEM_DS3505
ZBHH,2007-11-14 17:00,ZBHH 141700Z AUTO 11004KT 6SM M09/M14 A3042 RMK T10901140 IEM_DS3505
ZBHH,2007-11-14 18:00,ZBHH 141800Z AUTO 32002KT 19SM M06/M14 A3042 RMK SLP360 T10621135 52004 IEM_DS3505
ZBHH,2007-11-14 19:00,ZBHH 141900Z AUTO 08008KT 6SM M08/M15 A3042 RMK T10801150 IEM_DS3505
ZBHH,2007-11-14 20:00,ZBHH 142000Z AUTO 09006KT 6SM M09/M15 A3042 RMK T10901150 IEM_DS3505
ZBHH,2007-11-14 21:00,ZBHH 142100Z AUTO 09006KT 19SM M06/M14 A3039 RMK SLP367 T10641140 57002 IEM_DS3505
ZBHH,2007-11-14 22:00,ZBHH 142200Z AUTO 09010KT 6SM M09/M16 A3039 RMK T10901160 IEM_DS3505
ZBHH,2007-11-14 23:00,ZBHH 142300Z AUTO 09006KT 6SM M09/M16 A3042 RMK T10901160 IEM_DS3505
ZBHH,2007-11-15 00:00,ZBHH 150000Z AUTO 04004KT 19SM M06/M14 A3042 RMK SLP381 T10651145 52007 IEM_DS3505
ZBHH,2007-11-15 01:00,ZBHH 150100Z AUTO 08006KT 6SM M07/M15 A3045 RMK T10701150 IEM_DS3505
ZBHH,2007-11-15 02:00,ZBHH 150200Z AUTO 09004KT 6SM M05/M16 A3045 RMK T10501160 IEM_DS3505
ZBHH,2007-11-15 03:00,ZBHH 150300Z AUTO 34002KT 19SM M01/M15 A3042 RMK SLP376 T10131148 52004 IEM_DS3505
ZBHH,2007-11-15 04:00,ZBHH 150400Z AUTO 15002KT 6SM M01/M15 A3042 RMK T10101150 IEM_DS3505
ZBHH,2007-11-15 05:00,ZBHH 150500Z AUTO 19002KT 6SM 00/M15 A3039 RMK T00001150 IEM_DS3505
ZBHH,2007-11-15 06:00,ZBHH 150600Z AUTO 18002KT 19SM 02/M14 A3036 RMK SLP347 T00181135 57020 IEM_DS3505
ZBHH,2007-11-15 07:00,ZBHH 150700Z AUTO 22004KT 6SM 01/M14 A3036 RMK T00101140 IEM_DS3505
ZBHH,2007-11-15 08:00,ZBHH 150800Z AUTO 24004KT 6SM 01/M14 A3039 RMK T00101140 IEM_DS3505
ZBHH,2007-11-15 09:00,ZBHH 150900Z AUTO 25006KT 19SM 00/M11 A3039 RMK SLP355 T00031111 52003 IEM_DS3505
ZBHH,2007-11-15 10:00,ZBHH 151000Z AUTO 26002KT 6SM M03/M12 A3042 RMK T10301120 IEM_DS3505
ZBHH,2007-11-15 11:00,ZBHH 151100Z AUTO 36002KT 6SM M04/M11 A3042 RMK T10401110 IEM_DS3505
ZBHH,2007-11-15 12:00,ZBHH 151200Z AUTO 29006KT 16SM M02/M17 A3042 RMK SLP378 T10161169 52016 IEM_DS3505
ZBHH,2007-11-15 13:00,ZBHH 151300Z AUTO 36002KT 6SM M05/M15 A3045 RMK T10501150 IEM_DS3505
ZBHH,2007-11-15 14:00,ZBHH 151400Z AUTO 00000KT 6SM M05/M14 A3045 RMK T10501140 IEM_DS3505
ZBHH,2007-11-15 15:00,ZBHH 151500Z AUTO 15002KT 19SM M04/M17 A3045 RMK SLP378 T10441169 52005 IEM_DS3505
ZBHH,2007-11-15 16:00,ZBHH 151600Z AUTO 06004KT 6SM M09/M15 A3045 RMK T10901150 IEM_DS3505
ZBHH,2007-11-15 17:00,ZBHH 151700Z AUTO 09004KT 6SM M09/M15 A3045 RMK T10901150 IEM_DS3505
ZBHH,2007-11-15 18:00,ZBHH 151800Z AUTO 07002KT 19SM M06/M14 A3042 RMK SLP363 T10581143 57009 IEM_DS3505
ZBHH,2007-11-15 19:00,ZBHH 151900Z AUTO 00000KT 6SM M09/M15 A3042 RMK T10901150 IEM_DS3505
ZBHH,2007-11-15 20:00,ZBHH 152000Z AUTO 08004KT 6SM M10/M15 A3039 RMK T11001150 IEM_DS3505
ZBHH,2007-11-15 21:00,ZBHH 152100Z AUTO 36002KT 19SM M07/M14 A3036 RMK SLP353 T10711138 57015 IEM_DS3505
ZBHH,2007-11-15 22:00,ZBHH 152200Z AUTO 12002KT 6SM M10/M15 A3036 RMK T11001150 IEM_DS3505
ZBHH,2007-11-15 23:00,ZBHH 152300Z AUTO 08002KT 6SM M11/M16 A3036 RMK T11101160 IEM_DS3505
ZBHH,2007-11-16 00:00,ZBHH 160000Z AUTO 04002KT 9SM M07/M13 A3036 RMK SLP358 T10741130 57001 IEM_DS3505
ZBHH,2007-11-16 01:00,ZBHH 160100Z AUTO 12002KT 6SM M08/M13 A3036 RMK T10801130 IEM_DS3505
ZBHH,2007-11-16 02:00,ZBHH 160200Z AUTO 11002KT 6SM M05/M12 A3033 RMK T10501120 IEM_DS3505
ZBHH,2007-11-16 03:00,ZBHH 160300Z AUTO 22002KT 19SM M01/M14 A3030 RMK SLP331 T10091144 57015 IEM_DS3505
ZBHH,2007-11-16 04:00,ZBHH 160400Z AUTO 23002KT 6SM M01/M11 A3027 RMK T10101110 IEM_DS3505
ZBHH,2007-11-16 05:00,ZBHH 160500Z AUTO 23004KT 6SM 00/M11 A3024 RMK T00001110 IEM_DS3505
ZBHH,2007-11-16 06:00,ZBHH 160600Z AUTO 27004KT 19SM 02/M10 A3021 RMK SLP288 T00191103 57035 IEM_DS3505
ZBHH,2007-11-16 07:00,ZBHH 160700Z AUTO 24006KT 6SM 01/M12 A3018 RMK T00101120 IEM_DS3505
ZBHH,2007-11-16 08:00,ZBHH 160800Z AUTO 26004KT 6SM 01/M12 A3015 RMK T00101120 IEM_DS3505
ZBHH,2007-11-16 09:00,ZBHH 160900Z AUTO 29002KT 19SM 01/M11 A3015 RMK SLP273 T00121112 57017 IEM_DS3505
ZBHH,2007-11-16 10:00,ZBHH 161000Z AUTO 04004KT 4SM M02/M12 A3015 RMK T10201120 IEM_DS3505
ZBHH,2007-11-16 11:00,ZBHH 161100Z AUTO 03006KT 4SM M04/M12 A3015 RMK T10401120 IEM_DS3505
ZBHH,2007-11-16 12:00,ZBHH 161200Z AUTO 36002KT 4SM M02/M10 A3015 RMK SLP283 T10221102 54000 IEM_DS3505
ZBHH,2007-11-16 13:00,ZBHH 161300Z AUTO 08002KT 4SM M06/M12 A3015 RMK T10601120 IEM_DS3505
ZBHH,2007-11-16 14:00,ZBHH 161400Z AUTO 12002KT 4SM M07/M12 A3015 RMK T10701120 IEM_DS3505
ZBHH,2007-11-16 15:00,ZBHH 161500Z AUTO 36002KT 7SM M03/M10 A3015 RMK SLP271 T10321105 52002 IEM_DS3505
ZBHH,2007-11-16 16:00,ZBHH 161600Z AUTO 00000KT 4SM M07/M11 A3015 RMK T10701110 IEM_DS3505
ZBHH,2007-11-16 17:00,ZBHH 161700Z AUTO 36002KT 4SM M06/M10 A3015 RMK T10601100 IEM_DS3505
ZBHH,2007-11-16 18:00,ZBHH 161800Z AUTO 29002KT 4SM M03/M09 A3015 RMK SLP270 T10271094 52006 IEM_DS3505
ZBHH,2007-11-16 19:00,ZBHH 161900Z AUTO 35006KT 4SM M04/M11 A3018 RMK T10401110 IEM_DS3505
ZBHH,2007-11-16 20:00,ZBHH 162000Z AUTO 02006KT 4SM M03/M15 A3018 RMK T10301150 IEM_DS3505
ZBHH,2007-11-16 21:00,ZBHH 162100Z AUTO 32008KT 12SM M02/M16 A3021 RMK SLP281 T10161165 52011 IEM_DS3505
ZBHH,2007-11-16 22:00,ZBHH 162200Z AUTO 03012KT 6SM M05/M15 A3024 RMK T10501150 IEM_DS3505
ZBHH,2007-11-16 23:00,ZBHH 162300Z AUTO 01012KT 6SM M05/M17 A3027 RMK T10501170 IEM_DS3505
ZBHH,2007-11-17 00:00,ZBHH 170000Z AUTO 29004KT 19SM M04/M18 A3033 RMK SLP333 T10381177 52033 IEM_DS3505
ZBHH,2007-11-17 01:00,ZBHH 170100Z AUTO 36010KT 6SM M05/M18 A3033 RMK T10501180 IEM_DS3505
ZBHH,2007-11-17 02:00,ZBHH 170200Z AUTO 36008KT 6SM M04/M18 A3036 RMK T10401180 IEM_DS3505
ZBHH,2007-11-17 03:00,ZBHH 170300Z AUTO 32008KT 19SM M01/M18 A3039 RMK SLP349 T10141176 52017 IEM_DS3505
ZBHH,2007-11-17 04:00,ZBHH 170400Z AUTO 35010KT 6SM M01/M18 A3036 RMK T10101180 IEM_DS3505
ZBHH,2007-11-17 05:00,ZBHH 170500Z AUTO 34008KT 6SM 00/M19 A3036 RMK T00001190 IEM_DS3505
ZBHH,2007-11-17 06:00,ZBHH 170600Z AUTO 32008KT 19SM 02/M18 A3033 RMK SLP328 T00171178 57010 IEM_DS3505
ZBHH,2007-11-17 07:00,ZBHH 170700Z AUTO 35012KT 6SM 01/M18 A3033 RMK T00101180 IEM_DS3505
ZBHH,2007-11-17 08:00,ZBHH 170800Z AUTO 33012KT 6SM 00/M18 A3033 RMK T00001180 IEM_DS3505
ZBHH,2007-11-17 09:00,ZBHH 170900Z AUTO 34004KT 19SM 01/M18 A3033 RMK SLP325 T00071176 57003 IEM_DS3505
ZBHH,2007-11-17 10:00,ZBHH 171000Z AUTO 36006KT 6SM M02/M18 A3033 RMK T10201180 IEM_DS3505
ZBHH,2007-11-17 11:00,ZBHH 171100Z AUTO 36006KT 6SM M03/M18 A3036 RMK T10301180 IEM_DS3505
ZBHH,2007-11-17 12:00,ZBHH 171200Z AUTO 34004KT 19SM M02/M18 A3039 RMK SLP358 T10191180 52019 IEM_DS3505
ZBHH,2007-11-17 13:00,ZBHH 171300Z AUTO 01006KT 6SM M05/M19 A3042 RMK T10501190 IEM_DS3505
ZBHH,2007-11-17 14:00,ZBHH 171400Z AUTO 32002KT 6SM M06/M19 A3042 RMK T10601190 IEM_DS3505
ZBHH,2007-11-17 15:00,ZBHH 171500Z AUTO 34006KT 19SM M03/M18 A3045 RMK SLP368 T10321176 52011 IEM_DS3505
ZBHH,2007-11-17 16:00,ZBHH 171600Z AUTO 03002KT 6SM M07/M18 A3042 RMK T10701180 IEM_DS3505
ZBHH,2007-11-17 17:00,ZBHH 171700Z AUTO 02002KT 6SM M08/M17 A3045 RMK T10801170 IEM_DS3505
ZBHH,2007-11-17 18:00,ZBHH 171800Z AUTO 36004KT 19SM M04/M18 A3045 RMK SLP364 T10421177 52001 IEM_DS3505
ZBHH,2007-11-17 19:00,ZBHH 171900Z AUTO 02008KT 6SM M08/M17 A3045 RMK T10801170 IEM_DS3505
ZBHH,2007-11-17 20:00,ZBHH 172000Z AUTO 16002KT 6SM M10/M18 A3042 RMK T11001180 IEM_DS3505
ZBHH,2007-11-17 21:00,ZBHH 172100Z AUTO 09004KT 19SM M06/M16 A3042 RMK SLP360 T10621165 57010 IEM_DS3505
ZBHH,2007-11-17 22:00,ZBHH 172200Z AUTO 07006KT 6SM M11/M17 A3042 RMK T11101170 IEM_DS3505
ZBHH,2007-11-17 23:00,ZBHH 172300Z AUTO 12004KT 6SM M11/M17 A3042 RMK T11101170 IEM_DS3505
ZBHH,2007-11-18 00:00,ZBHH 180000Z AUTO 07004KT 16SM M07/M15 A3042 RMK SLP372 T10721154 52002 IEM_DS3505
ZBHH,2007-11-18 01:00,ZBHH 180100Z AUTO 12002KT 6SM M08/M16 A3042 RMK T10801160 IEM_DS3505
ZBHH,2007-11-18 02:00,ZBHH 180200Z AUTO 22002KT 6SM M05/M16 A3042 RMK T10501160 IEM_DS3505
ZBHH,2007-11-18 03:00,ZBHH 180300Z AUTO 27002KT 4SM M03/M15 A3039 RMK SLP362 T10341151 57003 IEM_DS3505
ZBHH,2007-11-18 04:00,ZBHH 180400Z AUTO 25002KT 6SM M03/M17 A3036 RMK T10301170 IEM_DS3505
ZBHH,2007-11-18 05:00,ZBHH 180500Z AUTO 23002KT 6SM M02/M17 A3033 RMK T10201170 IEM_DS3505
ZBHH,2007-11-18 06:00,ZBHH 180600Z AUTO 20004KT 6SM M02/M17 A3030 RMK SLP325 T10151168 57030 IEM_DS3505
ZBHH,2007-11-18 07:00,ZBHH 180700Z AUTO 06002KT 6SM M02/M17 A3027 RMK T10201170 IEM_DS3505
ZBHH,2007-11-18 08:00,ZBHH 180800Z AUTO 08004KT 6SM M02/M17 A3024 RMK T10201170 IEM_DS3505
ZBHH,2007-11-18 09:00,ZBHH 180900Z AUTO 07004KT 5SM M01/M16 A3024 RMK SLP304 T10141160 57023 IEM_DS3505
ZBHH,2007-11-18 10:00,ZBHH 181000Z AUTO 04004KT 6SM M03/M16 A3021 RMK T10301160 IEM_DS3505
ZBHH,2007-11-18 11:00,ZBHH 181100Z AUTO 08004KT 6SM M03/M15 A3021 RMK T10301150 IEM_DS3505
ZBHH,2007-11-18 12:00,ZBHH 181200Z AUTO 07002KT 16SM M02/M16 A3018 RMK SLP293 T10221159 57013 IEM_DS3505
ZBHH,2007-11-18 13:00,ZBHH 181300Z AUTO 35002KT 6SM M04/M13 A3015 RMK T10401130 IEM_DS3505
ZBHH,2007-11-18 14:00,ZBHH 181400Z AUTO 00000KT 6SM M04/M12 A3015 RMK T10401120 IEM_DS3505
ZBHH,2007-11-18 15:00,ZBHH 181500Z AUTO 18002KT 9SM M03/M14 A3012 RMK SLP269 T10301138 57015 IEM_DS3505
ZBHH,2007-11-18 16:00,ZBHH 181600Z AUTO 35002KT 6SM M04/M11 A3012 RMK T10401110 IEM_DS3505
ZBHH,2007-11-18 18:00,ZBHH 181800Z AUTO 27002KT 9SM M02/M13 A3009 RMK SLP251 T10231129 57010 IEM_DS3505
ZBHH,2007-11-18 19:00,ZBHH 181900Z AUTO 24006KT 6SM M04/M12 A3009 RMK T10401120 IEM_DS3505
ZBHH,2007-11-18 20:00,ZBHH 182000Z AUTO 25008KT 6SM M03/M13 A3009 RMK T10301130 IEM_DS3505
ZBHH,2007-11-18 21:00,ZBHH 182100Z AUTO 29004KT 9SM M02/M13 A3012 RMK SLP259 T10191128 52008 IEM_DS3505
ZBHH,2007-11-18 22:00,ZBHH 182200Z AUTO 29014KT 6SM M03/M11 A3015 RMK T10301110 IEM_DS3505
ZBHH,2007-11-18 23:00,ZBHH 182300Z AUTO 31010KT 6SM M04/M13 A3018 RMK T10401130 IEM_DS3505
ZBHH,2007-11-19 00:00,ZBHH 190000Z AUTO 34008G23KT 16SM M04/M12 A3024 RMK SLP306 T10391125 52035 IEM_DS3505
ZBHH,2007-11-19 01:00,ZBHH 190100Z AUTO 01006KT 7SM M04/M13 A3027 RMK T10401130 IEM_DS3505
ZBHH,2007-11-19 02:00,ZBHH 190200Z AUTO 01008KT 7SM M03/M13 A3027 RMK T10301130 IEM_DS3505
ZBHH,2007-11-19 03:00,ZBHH 190300Z AUTO 34006KT 19SM M02/M13 A3030 RMK SLP321 T10151133 52017 IEM_DS3505
ZBHH,2007-11-19 04:00,ZBHH 190400Z AUTO 35002KT 7SM M02/M15 A3027 RMK T10201150 IEM_DS3505
ZBHH,2007-11-19 05:00,ZBHH 190500Z AUTO 33006KT 7SM 00/M15 A3024 RMK T00001150 IEM_DS3505
ZBHH,2007-11-19 06:00,ZBHH 190600Z AUTO 22004KT 19SM 02/M15 A3021 RMK SLP288 T00201146 57020 IEM_DS3505
ZBHH,2007-11-19 07:00,ZBHH 190700Z AUTO 32010KT 7SM 01/M18 A3021 RMK T00101180 IEM_DS3505
ZBHH,2007-11-19 08:00,ZBHH 190800Z AUTO 29012G21KT 7SM 01/M17 A3021 RMK T00101170 IEM_DS3505
ZBHH,2007-11-19 09:00,ZBHH 190900Z AUTO 32010KT 19SM 01/M18 A3021 RMK SLP283 T00131181 57005 IEM_DS3505
ZBHH,2007-11-19 10:00,ZBHH 191000Z AUTO 30010KT 6SM M01/M18 A3021 RMK T10101180 IEM_DS3505
ZBHH,2007-11-19 11:00,ZBHH 191100Z AUTO 29006KT 6SM M01/M17 A3021 RMK T10101170 IEM_DS3505
ZBHH,2007-11-19 12:00,ZBHH 191200Z AUTO 25002KT 19SM M00/M16 A3021 RMK SLP295 T10051156 52002 IEM_DS3505
ZBHH,2007-11-19 13:00,ZBHH 191300Z AUTO 32004KT 6SM M03/M16 A3021 RMK T10301160 IEM_DS3505
ZBHH,2007-11-19 14:00,ZBHH 191400Z AUTO 09002KT 6SM M07/M15 A3021 RMK T10701150 IEM_DS3505
ZBHH,2007-11-19 15:00,ZBHH 191500Z AUTO 27002KT 19SM M04/M14 A3021 RMK SLP290 T10351140 57005 IEM_DS3505
ZBHH,2007-11-19 16:00,ZBHH 191600Z AUTO 00000KT 6SM M08/M14 A3021 RMK T10801140 IEM_DS3505
ZBHH,2007-11-19 17:00,ZBHH 191700Z AUTO 04004KT 6SM M08/M14 A3018 RMK T10801140 IEM_DS3505
ZBHH,2007-11-19 18:00,ZBHH 191800Z AUTO 07002KT 19SM M05/M13 A3018 RMK SLP279 T10491132 57005 IEM_DS3505
ZBHH,2007-11-19 19:00,ZBHH 191900Z AUTO 04002KT 6SM M09/M14 A3018 RMK T10901140 IEM_DS3505
ZBHH,2007-11-19 20:00,ZBHH 192000Z AUTO 10004KT 6SM M11/M15 A3018 RMK T11101150 IEM_DS3505
ZBHH,2007-11-19 21:00,ZBHH 192100Z AUTO 11002KT 19SM M06/M14 A3018 RMK SLP279 T10591135 57004 IEM_DS3505
ZBHH,2007-11-19 22:00,ZBHH 192200Z AUTO 01002KT 6SM M10/M15 A3018 RMK T11001150 IEM_DS3505
ZBHH,2007-11-19 23:00,ZBHH 192300Z AUTO 11002KT 6SM M11/M15 A3018 RMK T11101150 IEM_DS3505
ZBHH,2007-11-20 00:00,ZBHH 200000Z AUTO 04004KT 19SM M06/M13 A3018 RMK SLP292 T10651132 52006 IEM_DS3505
ZBHH,2007-11-20 01:00,ZBHH 200100Z AUTO 09002KT 6SM M06/M12 A3021 RMK T10601120 IEM_DS3505
ZBHH,2007-11-20 02:00,ZBHH 200200Z AUTO 15002KT 6SM M04/M12 A3021 RMK T10401120 IEM_DS3505
ZBHH,2007-11-20 03:00,ZBHH 200300Z AUTO 24002KT 12SM M01/M12 A3021 RMK SLP293 T10111121 52006 IEM_DS3505
ZBHH,2007-11-20 04:00,ZBHH 200400Z AUTO 24002KT 4SM 00/M11 A3021 RMK T00001110 IEM_DS3505
ZBHH,2007-11-20 05:00,ZBHH 200500Z AUTO 25004KT 5SM 01/M11 A3018 RMK T00101110 IEM_DS3505
ZBHH,2007-11-20 06:00,ZBHH 200600Z AUTO 20006KT 12SM 04/M09 A3015 RMK SLP265 T00421092 57016 IEM_DS3505
ZBHH,2007-11-20 07:00,ZBHH 200700Z AUTO 25006KT 6SM 04/M10 A3015 RMK T00401100 IEM_DS3505
ZBHH,2007-11-20 08:00,ZBHH 200800Z AUTO 24006KT 6SM 04/M09 A3015 RMK T00401090 IEM_DS3505
ZBHH,2007-11-20 09:00,ZBHH 200900Z AUTO 22004KT 12SM 05/M09 A3018 RMK SLP270 T00471091 52003 IEM_DS3505
ZBHH,2007-11-20 10:00,ZBHH 201000Z AUTO 30004KT 4SM 01/M10 A3018 RMK T00101100 IEM_DS3505
ZBHH,2007-11-20 11:00,ZBHH 201100Z AUTO 01004KT 3SM 00/M09 A3021 RMK T00001090 IEM_DS3505
ZBHH,2007-11-20 12:00,ZBHH 201200Z AUTO 04004KT 19SM 02/M13 A3021 RMK SLP293 T00231131 52014 IEM_DS3505
ZBHH,2007-11-20 13:00,ZBHH 201300Z AUTO 09004KT 4SM M05/M12 A3024 RMK T10501120 IEM_DS3505
ZBHH,2007-11-20 14:00,ZBHH 201400Z AUTO 05004KT 6SM M06/M13 A3024 RMK T10601130 IEM_DS3505
ZBHH,2007-11-20 15:00,ZBHH 201500Z AUTO 22002KT 19SM M01/M11 A3024 RMK SLP299 T10101106 52010 IEM_DS3505
ZBHH,2007-11-20 16:00,ZBHH 201600Z AUTO 10004KT 6SM M07/M13 A3024 RMK T10701130 IEM_DS3505
ZBHH,2007-11-20 17:00,ZBHH 201700Z AUTO 04002KT 6SM M07/M13 A3024 RMK T10701130 IEM_DS3505
ZBHH,2007-11-20 18:00,ZBHH 201800Z AUTO 34002KT 19SM M04/M12 A3027 RMK SLP294 T10381122 52001 IEM_DS3505
ZBHH,2007-11-20 19:00,ZBHH 201900Z AUTO 00000KT 6SM M09/M14 A3027 RMK T10901140 IEM_DS3505
ZBHH,2007-11-20 20:00,ZBHH 202000Z AUTO 09004KT 6SM M10/M14 A3027 RMK T11001140 IEM_DS3505
ZBHH,2007-11-20 21:00,ZBHH 202100Z AUTO 05002KT 19SM M05/M11 A3027 RMK SLP296 T10491113 54000 IEM_DS3505
ZBHH,2007-11-20 22:00,ZBHH 202200Z AUTO 09004KT 6SM M10/M14 A3027 RMK T11001140 IEM_DS3505
ZBHH,2007-11-20 23:00,ZBHH 202300Z AUTO 08004KT 6SM M10/M14 A3027 RMK T11001140 IEM_DS3505
ZBHH,2007-11-21 00:00,ZBHH 210000Z AUTO 07002KT 16SM M05/M12 A3030 RMK SLP314 T10461116 52012 IEM_DS3505
ZBHH,2007-11-21 01:00,ZBHH 210100Z AUTO 10004KT 6SM M05/M10 A3030 RMK T10501100 IEM_DS3505
ZBHH,2007-11-21 02:00,ZBHH 210200Z AUTO 15002KT 6SM 00/M10 A3030 RMK T00001100 IEM_DS3505
ZBHH,2007-11-21 03:00,ZBHH 210300Z AUTO 09002KT 16SM 03/M11 A3033 RMK SLP313 T00261113 52007 IEM_DS3505
ZBHH,2007-11-21 04:00,ZBHH 210400Z AUTO 24002KT 6SM 03/M12 A3030 RMK T00301120 IEM_DS3505
ZBHH,2007-11-21 05:00,ZBHH 210500Z AUTO 28002KT 6SM 03/M12 A3027 RMK T00301120 IEM_DS3505
ZBHH,2007-11-21 06:00,ZBHH 210600Z AUTO 25006KT 12SM 06/M11 A3024 RMK SLP292 T00561110 57018 IEM_DS3505
ZBHH,2007-11-21 07:00,ZBHH 210700Z AUTO 04002KT 6SM 05/M11 A3024 RMK T00501110 IEM_DS3505
ZBHH,2007-11-21 08:00,ZBHH 210800Z AUTO 05002KT 6SM 04/M12 A3024 RMK T00401120 IEM_DS3505
ZBHH,2007-11-21 09:00,ZBHH 210900Z AUTO 11002KT 9SM 04/M11 A3024 RMK SLP295 T00391109 57003 IEM_DS3505
ZBHH,2007-11-21 10:00,ZBHH 211000Z AUTO 01004KT 2SM 00/M12 A3024 RMK T00001120 IEM_DS3505
ZBHH,2007-11-21 11:00,ZBHH 211100Z AUTO 08002KT 4SM M01/M11 A3027 RMK T10101110 IEM_DS3505
ZBHH,2007-11-21 12:00,ZBHH 211200Z AUTO 32002KT 5SM 02/M10 A3027 RMK SLP303 T00181100 52003 IEM_DS3505
ZBHH,2007-11-21 13:00,ZBHH 211300Z AUTO 07002KT 7SM M02/M12 A3027 RMK T10201120 IEM_DS3505
ZBHH,2007-11-21 14:00,ZBHH 211400Z AUTO 00000KT 4SM M03/M12 A3027 RMK T10301120 IEM_DS3505
ZBHH,2007-11-21 15:00,ZBHH 211500Z AUTO 09002KT 4SM M01/M09 A3024 RMK SLP290 T10141090 57003 IEM_DS3505
ZBHH,2007-11-21 16:00,ZBHH 211600Z AUTO 06002KT 4SM M05/M12 A3024 RMK T10501120 IEM_DS3505
ZBHH,2007-11-21 17:00,ZBHH 211700Z AUTO 09004KT 4SM M06/M13 A3024 RMK T10601130 IEM_DS3505
ZBHH,2007-11-21 18:00,ZBHH 211800Z AUTO 07002KT 4SM M03/M11 A3024 RMK SLP281 T10341107 57006 IEM_DS3505
ZBHH,2007-11-21 19:00,ZBHH 211900Z AUTO 03002KT 4SM M07/M13 A3021 RMK T10701130 IEM_DS3505
ZBHH,2007-11-21 20:00,ZBHH 212000Z AUTO 08004KT 4SM M10/M14 A3021 RMK T11001140 IEM_DS3505
ZBHH,2007-11-21 21:00,ZBHH 212100Z AUTO 02002KT 4SM M04/M11 A3021 RMK SLP275 T10381113 57009 IEM_DS3505
ZBHH,2007-11-21 22:00,ZBHH 212200Z AUTO 13002KT 5SM M09/M13 A3018 RMK T10901130 IEM_DS3505
ZBHH,2007-11-21 23:00,ZBHH 212300Z AUTO 11004KT 4SM M10/M14 A3021 RMK T11001140 IEM_DS3505
ZBHH,2007-11-22 00:00,ZBHH 220000Z AUTO 09002KT 12SM M04/M11 A3021 RMK SLP287 T10421108 52005 IEM_DS3505
ZBHH,2007-11-22 01:00,ZBHH 220100Z AUTO 02004KT 3SM M04/M10 A3024 RMK T10401100 IEM_DS3505
ZBHH,2007-11-22 02:00,ZBHH 220200Z AUTO 11004KT 5SM 00/M11 A3024 RMK T00001110 IEM_DS3505
ZBHH,2007-11-22 03:00,ZBHH 220300Z AUTO 09002KT 9SM 02/M10 A3024 RMK SLP290 T00171105 52008 IEM_DS3505
ZBHH,2007-11-22 04:00,ZBHH 220400Z AUTO 23004KT 4SM 02/M11 A3021 RMK T00201110 IEM_DS3505
ZBHH,2007-11-22 05:00,ZBHH 220500Z AUTO 20004KT 4SM 04/M11 A3021 RMK T00401110 IEM_DS3505
ZBHH,2007-11-22 06:00,ZBHH 220600Z AUTO 18004KT 12SM 05/M10 A3018 RMK SLP267 T00501103 57017 IEM_DS3505
ZBHH,2007-11-22 07:00,ZBHH 220700Z AUTO 26004KT 4SM 05/M11 A3018 RMK T00501110 IEM_DS3505
ZBHH,2007-11-22 08:00,ZBHH 220800Z AUTO 25004KT 3SM 04/M11 A3018 RMK T00401110 IEM_DS3505
ZBHH,2007-11-22 09:00,ZBHH 220900Z AUTO 04002KT 9SM 04/M10 A3021 RMK SLP278 T00361104 52006 IEM_DS3505
ZBHH,2007-11-22 10:00,ZBHH 221000Z AUTO 09004KT 2SM M02/M11 A3021 RMK T10201110 IEM_DS3505
ZBHH,2007-11-22 11:00,ZBHH 221100Z AUTO 00000KT 2 1/2SM M03/M11 A3024 RMK T10301110 IEM_DS3505
ZBHH,2007-11-22 12:00,ZBHH 221200Z AUTO 16002KT 7SM 00/M09 A3024 RMK SLP302 T00041091 52013 IEM_DS3505
ZBHH,2007-11-22 13:00,ZBHH 221300Z AUTO 31002KT 6SM 02/M14 A3024 RMK T00201140 IEM_DS3505
ZBHH,2007-11-22 14:00,ZBHH 221400Z AUTO 6SM M01/M14 A3027 RMK T10101140 IEM_DS3505
ZBHH,2007-11-22 15:00,ZBHH 221500Z AUTO 06006KT 16SM 02/M13 A3027 RMK SLP293 T00151134 52007 IEM_DS3505
ZBHH,2007-11-22 16:00,ZBHH 221600Z AUTO 02008KT 6SM 01/M15 A3027 RMK T00101150 IEM_DS3505
ZBHH,2007-11-22 17:00,ZBHH 221700Z AUTO 02008KT 6SM 00/M15 A3027 RMK T00001150 IEM_DS3505
ZBHH,2007-11-22 18:00,ZBHH 221800Z AUTO 29004KT 19SM 00/M14 A3027 RMK SLP291 T00051143 52003 IEM_DS3505
ZBHH,2007-11-22 19:00,ZBHH 221900Z AUTO 01008KT 6SM M01/M15 A3027 RMK T10101150 IEM_DS3505
ZBHH,2007-11-22 20:00,ZBHH 222000Z AUTO 34008KT 6SM M02/M15 A3027 RMK T10201150 IEM_DS3505
ZBHH,2007-11-22 21:00,ZBHH 222100Z AUTO 34004KT 19SM M01/M14 A3027 RMK SLP298 T10091141 54000 IEM_DS3505
ZBHH,2007-11-22 22:00,ZBHH 222200Z AUTO 35004KT 6SM M05/M14 A3027 RMK T10501140 IEM_DS3505
ZBHH,2007-11-22 23:00,ZBHH 222300Z AUTO 08004KT 6SM M08/M14 A3030 RMK T10801140 IEM_DS3505
ZBHH,2007-11-23 00:00,ZBHH 230000Z AUTO 20002KT 16SM M04/M12 A3030 RMK SLP321 T10381120 52007 IEM_DS3505
ZBHH,2007-11-23 01:00,ZBHH 230100Z AUTO 11002KT 6SM M05/M12 A3030 RMK T10501120 IEM_DS3505
ZBHH,2007-11-23 02:00,ZBHH 230200Z AUTO 13002KT 6SM M01/M11 A3030 RMK T10101110 IEM_DS3505
ZBHH,2007-11-23 03:00,ZBHH 230300Z AUTO 22006KT 12SM 02/M11 A3030 RMK SLP305 T00161112 54000 IEM_DS3505
ZBHH,2007-11-23 04:00,ZBHH 230400Z AUTO 23004KT 6SM 03/M12 A3027 RMK T00301120 IEM_DS3505
ZBHH,2007-11-23 05:00,ZBHH 230500Z AUTO 25006KT 6SM 03/M12 A3027 RMK T00301120 IEM_DS3505
ZBHH,2007-11-23 06:00,ZBHH 230600Z AUTO 18006KT 19SM 05/M12 A3024 RMK SLP278 T00471123 57019 IEM_DS3505
ZBHH,2007-11-23 07:00,ZBHH 230700Z AUTO 27004KT 6SM 04/M13 A3024 RMK T00401130 IEM_DS3505
ZBHH,2007-11-23 08:00,ZBHH 230800Z AUTO 24004KT 6SM 04/M13 A3024 RMK T00401130 IEM_DS3505
ZBHH,2007-11-23 09:00,ZBHH 230900Z AUTO 22004KT 19SM 03/M13 A3024 RMK SLP281 T00341130 57003 IEM_DS3505
ZBHH,2007-11-23 10:00,ZBHH 231000Z AUTO 00000KT 4SM 00/M13 A3024 RMK T00001130 IEM_DS3505
ZBHH,2007-11-23 11:00,ZBHH 231100Z AUTO 05004KT 4SM M03/M13 A3021 RMK T10301130 IEM_DS3505
ZBHH,2007-11-23 12:00,ZBHH 231200Z AUTO 09002KT 9SM M02/M12 A3021 RMK SLP297 T10151119 57003 IEM_DS3505
ZBHH,2007-11-23 13:00,ZBHH 231300Z AUTO 06004KT 4SM M05/M14 A3021 RMK T10501140 IEM_DS3505
ZBHH,2007-11-23 14:00,ZBHH 231400Z AUTO 07004KT 4SM M08/M14 A3021 RMK T10801140 IEM_DS3505
ZBHH,2007-11-23 15:00,ZBHH 231500Z AUTO 07002KT 5SM M03/M11 A3021 RMK SLP284 T10341107 57004 IEM_DS3505
ZBHH,2007-11-23 16:00,ZBHH 231600Z AUTO 08006KT 6SM M07/M14 A3021 RMK T10701140 IEM_DS3505
ZBHH,2007-11-23 17:00,ZBHH 231700Z AUTO 08006KT 6SM M08/M14 A3021 RMK T10801140 IEM_DS3505
ZBHH,2007-11-23 18:00,ZBHH 231800Z AUTO 07002KT 19SM M08/M20 A3018 RMK T10771202 57004 IEM_DS3505
ZBHH,2007-11-23 19:00,ZBHH 231900Z AUTO 08002KT 6SM M07/M14 A3015 RMK T10701140 IEM_DS3505
ZBHH,2007-11-23 20:00,ZBHH 232000Z AUTO 09002KT 6SM M08/M14 A3012 RMK T10801140 IEM_DS3505
ZBHH,2007-11-23 21:00,ZBHH 232100Z AUTO 09002KT 7SM M06/M12 A3012 RMK SLP252 T10591124 57018 IEM_DS3505
ZBHH,2007-11-23 22:00,ZBHH 232200Z AUTO 10004KT 6SM M08/M14 A3009 RMK T10801140 IEM_DS3505
ZBHH,2007-11-23 23:00,ZBHH 232300Z AUTO 09004KT 6SM M08/M14 A3009 RMK T10801140 IEM_DS3505
ZBHH,2007-11-24 00:00,ZBHH 240000Z AUTO 07002KT 4SM M05/M12 A3009 RMK SLP254 T10511121 57007 IEM_DS3505
ZBHH,2007-11-24 01:00,ZBHH 240100Z AUTO 09002KT 5SM M04/M11 A3009 RMK T10401110 IEM_DS3505
ZBHH,2007-11-24 02:00,ZBHH 240200Z AUTO 07004KT 6SM 01/M11 A3009 RMK T00101110 IEM_DS3505
ZBHH,2007-11-24 03:00,ZBHH 240300Z AUTO 07002KT 4SM 05/M10 A3006 RMK SLP229 T00521105 57004 IEM_DS3505
ZBHH,2007-11-24 04:00,ZBHH 240400Z AUTO 24002KT 6SM 07/M12 A3003 RMK T00701120 IEM_DS3505
ZBHH,2007-11-24 05:00,ZBHH 240500Z AUTO 00000KT 6SM 08/M11 A3000 RMK T00801110 IEM_DS3505
ZBHH,2007-11-24 06:00,ZBHH 240600Z AUTO 20002KT 6SM 09/M10 A2997 RMK SLP182 T00921098 57033 IEM_DS3505
ZBHH,2007-11-24 07:00,ZBHH 240700Z AUTO 20002KT 4SM 09/M10 A2994 RMK T00901100 IEM_DS3505
ZBHH,2007-11-24 08:00,ZBHH 240800Z AUTO 00000KT 4SM 08/M10 A2994 RMK T00801100 IEM_DS3505
ZBHH,2007-11-24 09:00,ZBHH 240900Z AUTO 07004KT 6SM 08/M08 A2994 RMK SLP185 T00761084 57006 IEM_DS3505
ZBHH,2007-11-24 10:00,ZBHH 241000Z AUTO 05002KT 3SM 01/M10 A2997 RMK T00101100 IEM_DS3505
ZBHH,2007-11-24 11:00,ZBHH 241100Z AUTO 07004KT 4SM M02/M10 A2994 RMK T10201100 IEM_DS3505
ZBHH,2007-11-24 12:00,ZBHH 241200Z AUTO 04002KT 9SM 02/M08 A2997 RMK SLP203 T00221079 52006 IEM_DS3505
ZBHH,2007-11-24 13:00,ZBHH 241300Z AUTO 02004KT 2 1/2SM M01/M09 A2997 RMK T10101090 IEM_DS3505
ZBHH,2007-11-24 14:00,ZBHH 241400Z AUTO 08002KT 3SM M04/M10 A2997 RMK T10401100 IEM_DS3505
ZBHH,2007-11-24 15:00,ZBHH 241500Z AUTO 07002KT 4SM 00/M07 A3000 RMK SLP189 T00041074 52006 IEM_DS3505
ZBHH,2007-11-24 16:00,ZBHH 241600Z AUTO 3SM M02/M08 A3000 RMK T10201080 IEM_DS3505
ZBHH,2007-11-24 17:00,ZBHH 241700Z AUTO 30002KT 4SM M04/M09 A3000 RMK T10401090 IEM_DS3505
ZBHH,2007-11-24 18:00,ZBHH 241800Z AUTO 32012G25KT 7SM A3003 RMK SLP187 52017 IEM_DS3505
ZBHH,2007-11-24 19:00,ZBHH 241900Z AUTO 34002KT 4SM 04/M09 A3006 RMK T00401090 IEM_DS3505
ZBHH,2007-11-24 20:00,ZBHH 242000Z AUTO 07002KT 4SM 03/M09 A3009 RMK T00301090 IEM_DS3505
ZBHH,2007-11-24 21:00,ZBHH 242100Z AUTO 34016G23KT 16SM 02/M14 A3015 RMK SLP237 T00201138 52033 IEM_DS3505
ZBHH,2007-11-24 22:00,ZBHH 242200Z AUTO 35012KT 4SM M01/M18 A3021 RMK T10101180 IEM_DS3505
ZBHH,2007-11-24 23:00,ZBHH 242300Z AUTO 34012G29KT 6SM M01/M20 A3024 RMK T10101200 IEM_DS3505
ZBHH,2007-11-25 00:00,ZBHH 250000Z AUTO 32012KT 16SM M02/M15 A3030 RMK SLP313 T10201147 52047 IEM_DS3505
ZBHH,2007-11-25 01:00,ZBHH 250100Z AUTO 36012G21KT 6SM M04/M16 A3036 RMK T10401160 IEM_DS3505
ZBHH,2007-11-25 02:00,ZBHH 250200Z AUTO 01010KT 6SM M04/M15 A3036 RMK T10401150 IEM_DS3505
ZBHH,2007-11-25 03:00,ZBHH 250300Z AUTO 32008G21KT 19SM M02/M16 A3039 RMK SLP351 T10241161 52029 IEM_DS3505
ZBHH,2007-11-25 04:00,ZBHH 250400Z AUTO 36012G21KT 6SM M02/M18 A3042 RMK T10201180 IEM_DS3505
ZBHH,2007-11-25 05:00,ZBHH 250500Z AUTO 35006G16KT 6SM M02/M19 A3039 RMK T10201190 IEM_DS3505
ZBHH,2007-11-25 06:00,ZBHH 250600Z AUTO 32010KT 19SM M01/M21 A3042 RMK SLP342 T10101206 52006 IEM_DS3505
ZBHH,2007-11-25 07:00,ZBHH 250700Z AUTO 32010KT 6SM M02/M23 A3042 RMK T10201230 IEM_DS3505
ZBHH,2007-11-25 08:00,ZBHH 250800Z AUTO 34012KT 6SM M03/M24 A3045 RMK T10301240 IEM_DS3505
ZBHH,2007-11-25 09:00,ZBHH 250900Z AUTO 34006KT 19SM M03/M23 A3045 RMK SLP367 T10301228 52010 IEM_DS3505
ZBHH,2007-11-25 10:00,ZBHH 251000Z AUTO 36008KT 6SM M05/M23 A3047 RMK T10501230 IEM_DS3505
ZBHH,2007-11-25 11:00,ZBHH 251100Z AUTO 02004KT 6SM M07/M23 A3047 RMK T10701230 IEM_DS3505
ZBHH,2007-11-25 12:00,ZBHH 251200Z AUTO 34008KT 19SM M05/M21 A3047 RMK SLP389 T10481214 52006 IEM_DS3505
ZBHH,2007-11-25 13:00,ZBHH 251300Z AUTO 33008KT 6SM M07/M22 A3047 RMK T10701220 IEM_DS3505
ZBHH,2007-11-25 14:00,ZBHH 251400Z AUTO 01004KT 6SM M09/M22 A3050 RMK T10901220 IEM_DS3505
ZBHH,2007-11-25 15:00,ZBHH 251500Z AUTO 27004KT 19SM M07/M19 A3050 RMK SLP401 T10701192 52005 IEM_DS3505
ZBHH,2007-11-25 16:00,ZBHH 251600Z AUTO 00000KT 6SM M11/M21 A3050 RMK T11101210 IEM_DS3505
ZBHH,2007-11-25 17:00,ZBHH 251700Z AUTO 00000KT 6SM M12/M21 A3047 RMK T11201210 IEM_DS3505
ZBHH,2007-11-25 18:00,ZBHH 251800Z AUTO 07002KT 19SM M08/M20 A3047 RMK SLP395 T10771202 57004 IEM_DS3505
ZBHH,2007-11-25 19:00,ZBHH 251900Z AUTO 07002KT 6SM M13/M20 A3047 RMK T11301200 IEM_DS3505
ZBHH,2007-11-25 20:00,ZBHH 252000Z AUTO 09004KT 6SM M15/M21 A3047 RMK T11501210 IEM_DS3505
ZBHH,2007-11-25 21:00,ZBHH 252100Z AUTO 07004KT 19SM M10/M19 A3047 RMK SLP399 T10961191 57005 IEM_DS3505
ZBHH,2007-11-25 22:00,ZBHH 252200Z AUTO 07002KT 6SM M14/M20 A3045 RMK T11401200 IEM_DS3505
ZBHH,2007-11-25 23:00,ZBHH 252300Z AUTO 08004KT 6SM M15/M20 A3047 RMK T11501200 IEM_DS3505
ZBHH,2007-11-26 00:00,ZBHH 260000Z AUTO 04006KT 9SM M10/M17 RMK SLP408 T11011166 52003 IEM_DS3505
ZBHH,2007-11-26 01:00,ZBHH 260100Z AUTO 08004KT 6SM M11/M17 A3047 RMK T11101170 IEM_DS3505
ZBHH,2007-11-26 02:00,ZBHH 260200Z AUTO 17002KT 6SM M08/M18 A3047 RMK T10801180 IEM_DS3505
ZBHH,2007-11-26 03:00,ZBHH 260300Z AUTO 14002KT 6SM M05/M15 A3045 RMK SLP396 T10471151 57004 IEM_DS3505
ZBHH,2007-11-26 04:00,ZBHH 260400Z AUTO 23004KT 6SM M05/M18 A3045 RMK T10501180 IEM_DS3505
ZBHH,2007-11-26 05:00,ZBHH 260500Z AUTO 28004KT 6SM M04/M18 A3042 RMK T10401180 IEM_DS3505
ZBHH,2007-11-26 06:00,ZBHH 260600Z AUTO 20004KT 6SM M01/M16 A3039 RMK SLP365 T10141160 57021 IEM_DS3505
ZBHH,2007-11-26 07:00,ZBHH 260700Z AUTO 23004KT 4SM M02/M17 A3039 RMK T10201170 IEM_DS3505
ZBHH,2007-11-26 08:00,ZBHH 260800Z AUTO 26004KT 6SM M01/M18 A3039 RMK T10101180 IEM_DS3505
ZBHH,2007-11-26 09:00,ZBHH 260900Z AUTO 20004KT 9SM M01/M16 A3039 RMK SLP363 T10111165 57005 IEM_DS3505
ZBHH,2007-11-26 10:00,ZBHH 261000Z AUTO 07002KT 4SM M04/M18 A3039 RMK T10401180 IEM_DS3505
ZBHH,2007-11-26 11:00,ZBHH 261100Z AUTO 04006KT 3SM M07/M17 A3039 RMK T10701170 IEM_DS3505
ZBHH,2007-11-26 12:00,ZBHH 261200Z AUTO 07002KT 12SM M04/M16 A3039 RMK SLP374 T10371160 52002 IEM_DS3505
ZBHH,2007-11-26 13:00,ZBHH 261300Z AUTO 09004KT 4SM M11/M18 A3039 RMK T11101180 IEM_DS3505
ZBHH,2007-11-26 14:00,ZBHH 261400Z AUTO 09002KT 4SM M11/M18 A3039 RMK T11101180 IEM_DS3505
ZBHH,2007-11-26 15:00,ZBHH 261500Z AUTO 11002KT 12SM M06/M16 A3036 RMK SLP359 T10631158 57006 IEM_DS3505
ZBHH,2007-11-26 16:00,ZBHH 261600Z AUTO 09004KT 4SM M12/M18 A3036 RMK T11201180 IEM_DS3505
ZBHH,2007-11-26 17:00,ZBHH 261700Z AUTO 08004KT 5SM M13/M19 A3036 RMK T11301190 IEM_DS3505
ZBHH,2007-11-26 18:00,ZBHH 261800Z AUTO 09002KT 19SM M07/M17 A3033 RMK SLP342 T10721169 57010 IEM_DS3505
ZBHH,2007-11-26 19:00,ZBHH 261900Z AUTO 00000KT 5SM M13/M18 A3033 RMK T11301180 IEM_DS3505
ZBHH,2007-11-26 20:00,ZBHH 262000Z AUTO 08002KT 5SM M14/M19 A3030 RMK T11401190 IEM_DS3505
ZBHH,2007-11-26 21:00,ZBHH 262100Z AUTO 07002KT 19SM M08/M18 A3027 RMK SLP326 T10851175 57016 IEM_DS3505
ZBHH,2007-11-26 22:00,ZBHH 262200Z AUTO 08004KT 6SM M14/M19 A3027 RMK T11401190 IEM_DS3505
ZBHH,2007-11-26 23:00,ZBHH 262300Z AUTO 00000KT 6SM M14/M19 A3027 RMK T11401190 IEM_DS3505
ZBHH,2007-11-27 00:00,ZBHH 270000Z AUTO 09002KT 19SM M10/M17 A3027 RMK SLP328 T10951166 57006 IEM_DS3505
ZBHH,2007-11-27 01:00,ZBHH 270100Z AUTO 09004KT 4SM M09/M16 A3024 RMK T10901160 IEM_DS3505
ZBHH,2007-11-27 02:00,ZBHH 270200Z AUTO 08002KT 6SM M06/M16 A3024 RMK T10601160 IEM_DS3505
ZBHH,2007-11-27 03:00,ZBHH 270300Z AUTO 11002KT 7SM M02/M16 A3024 RMK SLP308 T10191160 57007 IEM_DS3505
ZBHH,2007-11-27 04:00,ZBHH 270400Z AUTO 24004KT 6SM M02/M17 A3021 RMK T10201170 IEM_DS3505
ZBHH,2007-11-27 05:00,ZBHH 270500Z AUTO 6SM M01/M17 A3018 RMK T10101170 IEM_DS3505
ZBHH,2007-11-27 06:00,ZBHH 270600Z AUTO 27002KT 12SM 00/M16 A3015 RMK SLP274 T00041160 57026 IEM_DS3505
ZBHH,2007-11-27 07:00,ZBHH 270700Z AUTO 24004KT 6SM 00/M17 A3012 RMK T00001170 IEM_DS3505
ZBHH,2007-11-27 08:00,ZBHH 270800Z AUTO 25004KT 6SM 00/M17 A3012 RMK T00001170 IEM_DS3505
ZBHH,2007-11-27 09:00,ZBHH 270900Z AUTO 32002KT 12SM 00/M16 A3012 RMK SLP268 T00031157 57009 IEM_DS3505
ZBHH,2007-11-27 10:00,ZBHH 271000Z AUTO 04004KT 3SM M04/M17 A3012 RMK T10401170 IEM_DS3505
ZBHH,2007-11-27 11:00,ZBHH 271100Z AUTO 03006KT 4SM M05/M17 A3009 RMK T10501170 IEM_DS3505
ZBHH,2007-11-27 12:00,ZBHH 271200Z AUTO 34002KT 12SM M02/M16 A3009 RMK SLP274 T10251155 57003 IEM_DS3505
ZBHH,2007-11-27 13:00,ZBHH 271300Z AUTO 10004KT 6SM M09/M17 A3012 RMK T10901170 IEM_DS3505
ZBHH,2007-11-27 14:00,ZBHH 271400Z AUTO 09004KT 6SM M08/M16 A3009 RMK T10801160 IEM_DS3505
ZBHH,2007-11-27 15:00,ZBHH 271500Z AUTO 10004KT 9SM M04/M15 A3009 RMK SLP256 T10351149 57001 IEM_DS3505
ZBHH,2007-11-27 16:00,ZBHH 271600Z AUTO 07004KT 6SM M08/M16 A3009 RMK T10801160 IEM_DS3505
ZBHH,2007-11-27 17:00,ZBHH 271700Z AUTO 07004KT 6SM M08/M15 A3009 RMK T10801150 IEM_DS3505
ZBHH,2007-11-27 18:00,ZBHH 271800Z AUTO 07002KT 19SM M06/M14 A3006 RMK SLP243 T10611144 57012 IEM_DS3505
ZBHH,2007-11-27 19:00,ZBHH 271900Z AUTO 07004KT M09/M16 A3006 RMK T10901160 IEM_DS3505
ZBHH,2007-11-27 20:00,ZBHH 272000Z AUTO 09004KT 6SM M10/M16 A3003 RMK T11001160 IEM_DS3505
ZBHH,2007-11-27 21:00,ZBHH 272100Z AUTO 09002KT 19SM M07/M14 A3003 RMK SLP237 T10671136 57007 IEM_DS3505
ZBHH,2007-11-27 22:00,ZBHH 272200Z AUTO 08006KT 6SM M10/M16 A3003 RMK T11001160 IEM_DS3505
ZBHH,2007-11-27 23:00,ZBHH 272300Z AUTO 09004KT 6SM M11/M16 A3006 RMK T11101160 IEM_DS3505
ZBHH,2007-11-28 00:00,ZBHH 280000Z AUTO 09004KT 6SM M06/M13 A3006 RMK SLP255 T10621129 52011 IEM_DS3505
ZBHH,2007-11-28 01:00,ZBHH 280100Z AUTO 10004KT 6SM M07/M14 A3009 RMK T10701140 IEM_DS3505
ZBHH,2007-11-28 02:00,ZBHH 280200Z AUTO 36008KT 6SM M01/M16 A3009 RMK T10101160 IEM_DS3505
ZBHH,2007-11-28 03:00,ZBHH 280300Z AUTO 29008KT 9SM 01/M15 A3012 RMK SLP261 T00071153 52018 IEM_DS3505
ZBHH,2007-11-28 04:00,ZBHH 280400Z AUTO 36004KT 6SM 01/M15 A3012 RMK T00101150 IEM_DS3505
ZBHH,2007-11-28 05:00,ZBHH 280500Z AUTO 34004KT 6SM 02/M15 A3012 RMK T00201150 IEM_DS3505
ZBHH,2007-11-28 06:00,ZBHH 280600Z AUTO 36008KT 19SM 04/M13 A3012 RMK SLP263 T00351129 52002 IEM_DS3505
ZBHH,2007-11-28 07:00,ZBHH 280700Z AUTO 34014KT 7SM 02/M11 A3015 RMK T00201110 IEM_DS3505
ZBHH,2007-11-28 08:00,ZBHH 280800Z AUTO 01012KT 7SM 01/M12 A3018 RMK T00101120 IEM_DS3505
ZBHH,2007-11-28 09:00,ZBHH 280900Z AUTO 36006KT 19SM 00/M14 A3021 RMK SLP300 T00021138 52024 IEM_DS3505
ZBHH,2007-11-28 10:00,ZBHH 281000Z AUTO 01010KT 7SM M02/M14 A3024 RMK T10201140 IEM_DS3505
ZBHH,2007-11-28 11:00,ZBHH 281100Z AUTO 01006KT 7SM M04/M16 A3027 RMK T10401160 IEM_DS3505
ZBHH,2007-11-28 12:00,ZBHH 281200Z AUTO 04006KT 19SM M03/M18 A3030 RMK SLP335 T10271179 52025 IEM_DS3505
ZBHH,2007-11-28 13:00,ZBHH 281300Z AUTO 01004KT 7SM M07/M18 A3033 RMK T10701180 IEM_DS3505
ZBHH,2007-11-28 14:00,ZBHH 281400Z AUTO 07006KT 7SM M07/M18 A3033 RMK T10701180 IEM_DS3505
ZBHH,2007-11-28 15:00,ZBHH 281500Z AUTO 36002KT 19SM M05/M18 A3033 RMK SLP331 T10471175 52008 IEM_DS3505
ZBHH,2007-11-28 16:00,ZBHH 281600Z AUTO 08004KT 6SM M10/M19 A3033 RMK T11001190 IEM_DS3505
ZBHH,2007-11-28 17:00,ZBHH 281700Z AUTO 03002KT 6SM M09/M18 A3033 RMK T10901180 IEM_DS3505
ZBHH,2007-11-28 18:00,ZBHH 281800Z AUTO 32002KT 19SM M08/M17 A3036 RMK SLP338 T10821170 52004 IEM_DS3505
ZBHH,2007-11-28 19:00,ZBHH 281900Z AUTO 10002KT M14/M19 A3036 RMK T11401190 IEM_DS3505
ZBHH,2007-11-28 20:00,ZBHH 282000Z AUTO 04002KT 6SM M13/M19 A3036 RMK T11301190 IEM_DS3505
ZBHH,2007-11-28 21:00,ZBHH 282100Z AUTO 09004KT 19SM M08/M17 A3036 RMK SLP348 T10781169 52003 IEM_DS3505
ZBHH,2007-11-28 22:00,ZBHH 282200Z AUTO 09004KT 6SM M13/M19 A3036 RMK T11301190 IEM_DS3505
ZBHH,2007-11-28 23:00,ZBHH 282300Z AUTO 09004KT 6SM M13/M18 A3036 RMK T11301180 IEM_DS3505
ZBHH,2007-11-29 00:00,ZBHH 290000Z AUTO 11002KT 19SM M08/M17 A3039 RMK SLP366 T10821168 52008 IEM_DS3505
ZBHH,2007-11-29 01:00,ZBHH 290100Z AUTO 08004KT 6SM M09/M17 A3039 RMK T10901170 IEM_DS3505
ZBHH,2007-11-29 02:00,ZBHH 290200Z AUTO 11002KT 6SM M06/M17 A3039 RMK T10601170 IEM_DS3505
ZBHH,2007-11-29 03:00,ZBHH 290300Z AUTO 07004KT 19SM M03/M17 A3039 RMK SLP367 T10291173 52008 IEM_DS3505
ZBHH,2007-11-29 04:00,ZBHH 290400Z AUTO 32002KT 6SM M03/M18 A3039 RMK T10301180 IEM_DS3505
ZBHH,2007-11-29 05:00,ZBHH 290500Z AUTO 31002KT 6SM M02/M19 A3036 RMK T10201190 IEM_DS3505
ZBHH,2007-11-29 06:00,ZBHH 290600Z AUTO 22002KT 19SM 00/M19 A3033 RMK SLP345 T00001187 57020 IEM_DS3505
ZBHH,2007-11-29 07:00,ZBHH 290700Z AUTO 26002KT 6SM 00/M20 A3033 RMK T00001200 IEM_DS3505
ZBHH,2007-11-29 08:00,ZBHH 290800Z AUTO 26002KT 6SM M01/M20 A3033 RMK T10101200 IEM_DS3505
ZBHH,2007-11-29 09:00,ZBHH 290900Z AUTO 25004KT 19SM M01/M19 A3033 RMK SLP342 T10131188 57005 IEM_DS3505
ZBHH,2007-11-29 10:00,ZBHH 291000Z AUTO 22002KT 6SM M05/M21 A3033 RMK T10501210 IEM_DS3505
ZBHH,2007-11-29 11:00,ZBHH 291100Z AUTO 03008KT 6SM M07/M21 A3033 RMK T10701210 IEM_DS3505
ZBHH,2007-11-29 12:00,ZBHH 291200Z AUTO 27002KT 9SM M05/M18 A3033 RMK SLP355 T10471178 52003 IEM_DS3505
ZBHH,2007-11-29 13:00,ZBHH 291300Z AUTO 07002KT 6SM M10/M21 A3033 RMK T11001210 IEM_DS3505
ZBHH,2007-11-29 14:00,ZBHH 291400Z AUTO 04004KT 6SM M09/M21 A3033 RMK T10901210 IEM_DS3505
ZBHH,2007-11-29 15:00,ZBHH 291500Z AUTO 08004KT 9SM M08/M19 A3033 RMK SLP348 T10751188 57001 IEM_DS3505
ZBHH,2007-11-29 16:00,ZBHH 291600Z AUTO 06002KT 6SM M12/M21 A3033 RMK T11201210 IEM_DS3505
ZBHH,2007-11-29 17:00,ZBHH 291700Z AUTO 05002KT 6SM M12/M20 A3033 RMK T11201200 IEM_DS3505
ZBHH,2007-11-29 18:00,ZBHH 291800Z AUTO 09002KT 19SM M10/M19 A3030 RMK SLP336 T10951192 57008 IEM_DS3505
ZBHH,2007-11-29 19:00,ZBHH 291900Z AUTO 08004KT M13/M21 A3030 RMK T11301210 IEM_DS3505
ZBHH,2007-11-29 20:00,ZBHH 292000Z AUTO 06002KT 6SM M13/M21 A3030 RMK T11301210 IEM_DS3505
ZBHH,2007-11-29 21:00,ZBHH 292100Z AUTO 09002KT 19SM M10/M18 A3027 RMK SLP331 T11051182 57010 IEM_DS3505
ZBHH,2007-11-29 22:00,ZBHH 292200Z AUTO 08002KT 6SM M16/M21 A3027 RMK T11601210 IEM_DS3505
ZBHH,2007-11-29 23:00,ZBHH 292300Z AUTO 09004KT 6SM M15/M21 A3027 RMK T11501210 IEM_DS3505
ZBHH,2007-11-30 00:00,ZBHH 300000Z AUTO 09002KT 6SM M10/M18 A3027 RMK SLP337 T10951180 54000 IEM_DS3505
ZBHH,2007-11-30 01:00,ZBHH 300100Z AUTO 10004KT 5SM M11/M18 A3027 RMK T11101180 IEM_DS3505
ZBHH,2007-11-30 02:00,ZBHH 300200Z AUTO 09002KT 6SM M06/M18 A3027 RMK T10601180 IEM_DS3505
ZBHH,2007-11-30 03:00,ZBHH 300300Z AUTO 14004KT 9SM M03/M19 A3027 RMK SLP326 T10261190 54000 IEM_DS3505
ZBHH,2007-11-30 04:00,ZBHH 300400Z AUTO 09002KT 6SM M02/M18 A3024 RMK T10201180 IEM_DS3505
ZBHH,2007-11-30 05:00,ZBHH 300500Z AUTO 28002KT 6SM M01/M17 A3021 RMK T10101170 IEM_DS3505
ZBHH,2007-11-30 06:00,ZBHH 300600Z AUTO 11002KT 6SM 01/M16 A3018 RMK SLP295 T00081165 57024 IEM_DS3505
ZBHH,2007-11-30 07:00,ZBHH 300700Z AUTO 22002KT 6SM 01/M17 A3018 RMK T00101170 IEM_DS3505
ZBHH,2007-11-30 08:00,ZBHH 300800Z AUTO 26004KT 6SM 00/M16 A3018 RMK T00001160 IEM_DS3505
ZBHH,2007-11-30 09:00,ZBHH 300900Z AUTO 25002KT 9SM 00/M15 A3018 RMK SLP296 T00011150 57003 IEM_DS3505
ZBHH,2007-11-30 10:00,ZBHH 301000Z AUTO 06002KT 6SM M04/M16 A3018 RMK T10401160 IEM_DS3505
ZBHH,2007-11-30 11:00,ZBHH 301100Z AUTO 04002KT 4SM M06/M17 A3018 RMK T10601170 IEM_DS3505
ZBHH,2007-11-30 12:00,ZBHH 301200Z AUTO 32002KT 6SM M04/M15 A3021 RMK SLP308 T10361147 52004 IEM_DS3505
ZBHH,2007-11-30 13:00,ZBHH 301300Z AUTO 07002KT 6SM M07/M17 A3021 RMK T10701170 IEM_DS3505
ZBHH,2007-11-30 14:00,ZBHH 301400Z AUTO 10002KT 6SM M10/M17 A3021 RMK T11001170 IEM_DS3505
ZBHH,2007-11-30 15:00,ZBHH 301500Z AUTO 02002KT 6SM M06/M14 A3021 RMK SLP306 T10651138 52008 IEM_DS3505
ZBHH,2007-11-30 16:00,ZBHH 301600Z AUTO 08002KT 6SM M10/M17 A3024 RMK T11001170 IEM_DS3505
ZBHH,2007-11-30 17:00,ZBHH 301700Z AUTO 08004KT 6SM M10/M17 A3021 RMK T11001170 IEM_DS3505
ZBHH,2007-11-30 18:00,ZBHH 301800Z AUTO 04002KT 19SM M08/M14 A3021 RMK SLP301 T10781144 54000 IEM_DS3505
ZBHH,2007-11-30 19:00,ZBHH 301900Z AUTO 08006KT 6SM M12/M17 A3021 RMK T11201170 IEM_DS3505
ZBHH,2007-11-30 20:00,ZBHH 302000Z AUTO 08004KT 6SM M10/M15 A3021 RMK T11001150 IEM_DS3505
ZBHH,2007-11-30 21:00,ZBHH 302100Z AUTO 11002KT 19SM M05/M14 A3021 RMK SLP290 T10531141 57006 IEM_DS3505
ZBHH,2007-11-30 22:00,ZBHH 302200Z AUTO 08004KT 6SM M08/M15 A3018 RMK T10801150 IEM_DS3505
ZBHH,2007-11-30 23:00,ZBHH 302300Z AUTO 02002KT 6SM M09/M15 A3021 RMK T10901150 IEM_DS3505
ZBHH,2007-12-01 00:00,ZBHH 010000Z AUTO 07002KT 16SM M04/M14 A3021 RMK SLP296 T10441135 57001 IEM_DS3505
ZBHH,2007-12-01 01:00,ZBHH 010100Z AUTO 06002KT 6SM M06/M14 A3021 RMK T10601140 IEM_DS3505
ZBHH,2007-12-01 02:00,ZBHH 010200Z AUTO 00000KT 6SM M04/M13 A3021 RMK T10401130 IEM_DS3505
ZBHH,2007-12-01 03:00,ZBHH 010300Z AUTO 18002KT 16SM 01/M14 A3021 RMK SLP297 T00101135 52007 IEM_DS3505
ZBHH,2007-12-01 04:00,ZBHH 010400Z AUTO 36008KT 6SM 01/M14 A3021 RMK T00101140 IEM_DS3505
ZBHH,2007-12-01 05:00,ZBHH 010500Z AUTO 34004KT 6SM 02/M14 A3018 RMK T00201140 IEM_DS3505
ZBHH,2007-12-01 06:00,ZBHH 010600Z AUTO 20004KT 12SM 03/M13 A3015 RMK SLP277 T00301129 57016 IEM_DS3505
ZBHH,2007-12-01 07:00,ZBHH 010700Z AUTO 36008KT 6SM 02/M15 A3015 RMK T00201150 IEM_DS3505
ZBHH,2007-12-01 08:00,ZBHH 010800Z AUTO 35010KT 6SM 02/M14 A3018 RMK T00201140 IEM_DS3505
ZBHH,2007-12-01 09:00,ZBHH 010900Z AUTO 34006KT 19SM 01/M13 A3018 RMK SLP288 T00061131 52010 IEM_DS3505
ZBHH,2007-12-01 10:00,ZBHH 011000Z AUTO 35010KT 6SM M02/M14 A3021 RMK T10201140 IEM_DS3505
ZBHH,2007-12-01 11:00,ZBHH 011100Z AUTO 35012KT 6SM M03/M14 A3021 RMK T10301140 IEM_DS3505
ZBHH,2007-12-01 12:00,ZBHH 011200Z AUTO 34004KT 19SM M02/M15 A3027 RMK SLP322 T10221146 52025 IEM_DS3505
ZBHH,2007-12-01 13:00,ZBHH 011300Z AUTO 36010KT 6SM M04/M15 A3030 RMK T10401150 IEM_DS3505
ZBHH,2007-12-01 14:00,ZBHH 011400Z AUTO 36010KT 6SM M04/M15 A3030 RMK T10401150 IEM_DS3505
ZBHH,2007-12-01 15:00,ZBHH 011500Z AUTO 32010KT 19SM M03/M15 A3030 RMK SLP322 T10331147 52010 IEM_DS3505
ZBHH,2007-12-01 16:00,ZBHH 011600Z AUTO 02008KT 6SM M06/M16 A3033 RMK T10601160 IEM_DS3505
ZBHH,2007-12-01 17:00,ZBHH 011700Z AUTO 36008KT 6SM M07/M16 A3033 RMK T10701160 IEM_DS3505
ZBHH,2007-12-01 18:00,ZBHH 011800Z AUTO 29006KT 19SM M05/M15 A3033 RMK SLP326 T10531146 52003 IEM_DS3505
ZBHH,2007-12-01 19:00,ZBHH 011900Z AUTO 01004KT 6SM M08/M16 A3033 RMK T10801160 IEM_DS3505
ZBHH,2007-12-01 20:00,ZBHH 012000Z AUTO 02002KT 6SM M09/M16 A3030 RMK T10901160 IEM_DS3505
ZBHH,2007-12-01 21:00,ZBHH 012100Z AUTO 29006KT 19SM M05/M14 A3030 RMK SLP320 T10531138 57010 IEM_DS3505
ZBHH,2007-12-01 22:00,ZBHH 012200Z AUTO 20002KT 6SM M12/M17 A3030 RMK T11201170 IEM_DS3505
ZBHH,2007-12-01 23:00,ZBHH 012300Z AUTO 19006KT 6SM M12/M17 A3030 RMK T11201170 IEM_DS3505
ZBHH,2007-12-02 00:00,ZBHH 020000Z AUTO 27004KT 19SM M08/M13 A3033 RMK SLP347 T10841131 52010 IEM_DS3505
ZBHH,2007-12-02 01:00,ZBHH 020100Z AUTO 11002KT 6SM M11/M16 A3033 RMK T11101160 IEM_DS3505
ZBHH,2007-12-02 02:00,ZBHH 020200Z AUTO 14004KT 6SM M08/M14 A3033 RMK T10801140 IEM_DS3505
ZBHH,2007-12-02 03:00,ZBHH 020300Z AUTO 36002KT 12SM M05/M13 A3033 RMK SLP340 T10471128 54000 IEM_DS3505
ZBHH,2007-12-02 04:00,ZBHH 020400Z AUTO 22004KT 4SM M04/M13 A3030 RMK T10401130 IEM_DS3505
ZBHH,2007-12-02 05:00,ZBHH 020500Z AUTO 23004KT 6SM M03/M13 A3027 RMK T10301130 IEM_DS3505
ZBHH,2007-12-02 06:00,ZBHH 020600Z AUTO 20006KT 19SM M01/M12 A3024 RMK SLP306 T10061116 57025 IEM_DS3505
ZBHH,2007-12-02 07:00,ZBHH 020700Z AUTO 27004KT 6SM M01/M12 A3024 RMK T10101120 IEM_DS3505
ZBHH,2007-12-02 08:00,ZBHH 020800Z AUTO 25006KT 6SM M01/M11 A3021 RMK T10101110 IEM_DS3505
ZBHH,2007-12-02 09:00,ZBHH 020900Z AUTO 22006KT 19SM M01/M11 A3024 RMK SLP299 T10081107 57007 IEM_DS3505
ZBHH,2007-12-02 10:00,ZBHH 021000Z AUTO 17002KT 4SM M04/M11 A3024 RMK T10401110 IEM_DS3505
ZBHH,2007-12-02 11:00,ZBHH 021100Z AUTO 25002KT 4SM M05/M11 A3024 RMK T10501110 IEM_DS3505
ZBHH,2007-12-02 12:00,ZBHH 021200Z AUTO 25002KT 16SM M03/M11 A3024 RMK SLP319 T10321110 52005 IEM_DS3505
ZBHH,2007-12-02 13:00,ZBHH 021300Z AUTO 10004KT 3SM M10/M14 A3027 RMK T11001140 IEM_DS3505
ZBHH,2007-12-02 14:00,ZBHH 021400Z AUTO 11002KT 4SM M10/M14 A3027 RMK T11001140 IEM_DS3505
ZBHH,2007-12-02 15:00,ZBHH 021500Z AUTO 32004KT 19SM M04/M13 A3030 RMK SLP328 T10361128 52016 IEM_DS3505
ZBHH,2007-12-02 16:00,ZBHH 021600Z AUTO 24002KT 5SM M10/M14 A3030 RMK T11001140 IEM_DS3505
ZBHH,2007-12-02 17:00,ZBHH 021700Z AUTO 00000KT 6SM M10/M14 A3030 RMK T11001140 IEM_DS3505
ZBHH,2007-12-02 18:00,ZBHH 021800Z AUTO 29006KT 19SM M05/M13 A3030 RMK SLP327 T10491128 52005 IEM_DS3505
ZBHH,2007-12-02 19:00,ZBHH 021900Z AUTO 28004KT 6SM M10/M14 A3033 RMK T11001140 IEM_DS3505
ZBHH,2007-12-02 20:00,ZBHH 022000Z AUTO 13004KT 6SM M10/M14 A3033 RMK T11001140 IEM_DS3505
ZBHH,2007-12-02 21:00,ZBHH 022100Z AUTO 34002KT 19SM M07/M13 A3033 RMK SLP339 T10731126 52005 IEM_DS3505
ZBHH,2007-12-02 22:00,ZBHH 022200Z AUTO 13002KT 6SM M12/M15 A3033 RMK T11201150 IEM_DS3505
ZBHH,2007-12-02 23:00,ZBHH 022300Z AUTO 09006KT 6SM M14/M16 A3036 RMK T11401160 IEM_DS3505
ZBHH,2007-12-03 00:00,ZBHH 030000Z AUTO 09002KT 9SM M09/M13 A3036 RMK SLP364 T10861133 52013 IEM_DS3505
ZBHH,2007-12-03 01:00,ZBHH 030100Z AUTO 10004KT 6SM M11/M14 A3039 RMK T11101140 IEM_DS3505
ZBHH,2007-12-03 02:00,ZBHH 030200Z AUTO 14004KT 6SM M07/M13 A3039 RMK T10701130 IEM_DS3505
ZBHH,2007-12-03 03:00,ZBHH 030300Z AUTO 22006KT 5SM M04/M12 A3039 RMK SLP368 T10391123 52013 IEM_DS3505
ZBHH,2007-12-03 04:00,ZBHH 030400Z AUTO 23004KT 6SM M02/M13 A3039 RMK T10201130 IEM_DS3505
ZBHH,2007-12-03 05:00,ZBHH 030500Z AUTO 25004KT 6SM M02/M13 A3039 RMK T10201130 IEM_DS3505
ZBHH,2007-12-03 06:00,ZBHH 030600Z AUTO 20004KT 7SM M01/M12 A3036 RMK SLP351 T10071120 57010 IEM_DS3505
ZBHH,2007-12-03 07:00,ZBHH 030700Z AUTO 25004KT 4SM M01/M13 A3039 RMK T10101130 IEM_DS3505
ZBHH,2007-12-03 08:00,ZBHH 030800Z AUTO 22002KT 5SM M01/M13 A3039 RMK T10101130 IEM_DS3505
ZBHH,2007-12-03 09:00,ZBHH 030900Z AUTO 25002KT 7SM M02/M12 A3039 RMK SLP363 T10161120 52003 IEM_DS3505
ZBHH,2007-12-03 10:00,ZBHH 031000Z AUTO 00000KT 3SM M04/M13 A3039 RMK T10401130 IEM_DS3505
ZBHH,2007-12-03 11:00,ZBHH 031100Z AUTO 04004KT 3SM M07/M14 A3042 RMK T10701140 IEM_DS3505
ZBHH,2007-12-03 12:00,ZBHH 031200Z AUTO 02002KT 6SM M04/M12 A3045 RMK SLP393 T10431115 52017 IEM_DS3505
ZBHH,2007-12-03 13:00,ZBHH 031300Z AUTO 09004KT 3SM M11/M16 A3045 RMK T11101160 IEM_DS3505
ZBHH,2007-12-03 14:00,ZBHH 031400Z AUTO 09002KT 4SM M12/M17 A3047 RMK T11201170 IEM_DS3505
ZBHH,2007-12-03 15:00,ZBHH 031500Z AUTO 32004KT 19SM M05/M14 A3047 RMK SLP394 T10491135 52010 IEM_DS3505
ZBHH,2007-12-03 16:00,ZBHH 031600Z AUTO 03002KT 4SM M11/M16 A3047 RMK T11101160 IEM_DS3505
ZBHH,2007-12-03 17:00,ZBHH 031700Z AUTO 08004KT 4SM M11/M16 A3047 RMK T11101160 IEM_DS3505
ZBHH,2007-12-03 18:00,ZBHH 031800Z AUTO 00000KT 19SM M08/M14 A3047 RMK SLP397 T10751135 52004 IEM_DS3505
ZBHH,2007-12-03 19:00,ZBHH 031900Z AUTO 06004KT 4SM M13/M17 A3050 RMK T11301170 IEM_DS3505
ZBHH,2007-12-03 20:00,ZBHH 032000Z AUTO 05006KT 4SM M09/M15 A3047 RMK T10901150 IEM_DS3505
ZBHH,2007-12-03 21:00,ZBHH 032100Z AUTO 09002KT 19SM M09/M13 A3047 RMK SLP402 T10901131 57001 IEM_DS3505
ZBHH,2007-12-03 22:00,ZBHH 032200Z AUTO 04004KT 6SM M14/M18 A3050 RMK T11401180 IEM_DS3505
ZBHH,2007-12-03 23:00,ZBHH 032300Z AUTO 08002KT 6SM M13/M18 A3050 RMK T11301180 IEM_DS3505
ZBHH,2007-12-04 00:00,ZBHH 040000Z AUTO 09004KT 19SM M08/M14 A3053 RMK SLP424 T10811139 52015 IEM_DS3505
ZBHH,2007-12-04 01:00,ZBHH 040100Z AUTO 10006KT 6SM M10/M15 A3053 RMK T11001150 IEM_DS3505
ZBHH,2007-12-04 02:00,ZBHH 040200Z AUTO 06002KT 6SM M06/M15 A3053 RMK T10601150 IEM_DS3505
ZBHH,2007-12-04 03:00,ZBHH 040300Z AUTO 02002KT 19SM M02/M14 A3053 RMK SLP415 T10231144 52004 IEM_DS3505
ZBHH,2007-12-04 04:00,ZBHH 040400Z AUTO 27002KT 6SM M02/M16 A3053 RMK T10201160 IEM_DS3505
ZBHH,2007-12-04 05:00,ZBHH 040500Z AUTO 29002KT 6SM M01/M16 A3050 RMK T10101160 IEM_DS3505
ZBHH,2007-12-04 06:00,ZBHH 040600Z AUTO 25004KT 12SM 00/M16 A3047 RMK SLP394 T00041156 57018 IEM_DS3505
ZBHH,2007-12-04 07:00,ZBHH 040700Z AUTO 26004KT 6SM 00/M17 A3047 RMK T00001170 IEM_DS3505
ZBHH,2007-12-04 08:00,ZBHH 040800Z AUTO 24002KT 6SM 00/M17 A3047 RMK T00001170 IEM_DS3505
ZBHH,2007-12-04 09:00,ZBHH 040900Z AUTO 25002KT 12SM M01/M15 A3047 RMK SLP396 T10141149 57006 IEM_DS3505
ZBHH,2007-12-04 10:00,ZBHH 041000Z AUTO 00000KT 5SM M05/M16 A3047 RMK T10501160 IEM_DS3505
ZBHH,2007-12-04 11:00,ZBHH 041100Z AUTO 03006KT 4SM M08/M18 A3047 RMK T10801180 IEM_DS3505
ZBHH,2007-12-04 12:00,ZBHH 041200Z AUTO 00000KT 5SM M05/M15 A3047 RMK SLP405 T10491147 52002 IEM_DS3505
ZBHH,2007-12-04 13:00,ZBHH 041300Z AUTO 09004KT 6SM M11/M19 A3047 RMK T11101190 IEM_DS3505
ZBHH,2007-12-04 14:00,ZBHH 041400Z AUTO 06002KT 5SM M10/M18 A3047 RMK T11001180 IEM_DS3505
ZBHH,2007-12-04 15:00,ZBHH 041500Z AUTO 07002KT 5SM M07/M16 A3047 RMK SLP394 T10721156 57001 IEM_DS3505
ZBHH,2007-12-04 16:00,ZBHH 041600Z AUTO 08004KT 5SM M11/M19 A3047 RMK T11101190 IEM_DS3505
ZBHH,2007-12-04 17:00,ZBHH 041700Z AUTO 08006KT 6SM M11/M19 A3045 RMK T11101190 IEM_DS3505
ZBHH,2007-12-04 18:00,ZBHH 041800Z AUTO 00000KT 6SM M09/M15 RMK SLP377 T10921153 57014 IEM_DS3505
ZBHH,2007-12-04 19:00,ZBHH 041900Z AUTO 00000KT 6SM M13/M19 A3042 RMK T11301190 IEM_DS3505
ZBHH,2007-12-04 20:00,ZBHH 042000Z AUTO 07004KT 6SM M14/M19 A3042 RMK T11401190 IEM_DS3505
ZBHH,2007-12-04 21:00,ZBHH 042100Z AUTO 09002KT 6SM M09/M16 A3039 RMK SLP368 T10881158 57011 IEM_DS3505
ZBHH,2007-12-04 22:00,ZBHH 042200Z AUTO 10004KT 6SM M15/M19 A3039 RMK T11501190 IEM_DS3505
ZBHH,2007-12-04 23:00,ZBHH 042300Z AUTO 09004KT 6SM M15/M19 A3039 RMK T11501190 IEM_DS3505
ZBHH,2007-12-05 00:00,ZBHH 050000Z AUTO 07002KT 9SM M09/M15 A3039 RMK SLP374 T10901151 57003 IEM_DS3505
ZBHH,2007-12-05 01:00,ZBHH 050100Z AUTO 03002KT 3SM M10/M15 A3036 RMK T11001150 IEM_DS3505
ZBHH,2007-12-05 02:00,ZBHH 050200Z AUTO 14002KT 4SM M06/M14 A3036 RMK T10601140 IEM_DS3505
ZBHH,2007-12-05 03:00,ZBHH 050300Z AUTO 07002KT 9SM M03/M15 A3033 RMK SLP350 T10291149 57012 IEM_DS3505
ZBHH,2007-12-05 04:00,ZBHH 050400Z AUTO 00000KT 7SM M03/M14 A3030 RMK T10301140 IEM_DS3505
ZBHH,2007-12-05 05:00,ZBHH 050500Z AUTO 31002KT 7SM M02/M13 A3027 RMK T10201130 IEM_DS3505
ZBHH,2007-12-05 06:00,ZBHH 050600Z AUTO 18006KT 7SM M02/M11 A3024 RMK 60000 SLP317 T10181108 57031 IEM_DS3505
ZBHH,2007-12-05 07:00,ZBHH 050700Z AUTO 25002KT 2 1/2SM M03/M09 A3024 RMK T10301090 IEM_DS3505
ZBHH,2007-12-05 08:00,ZBHH 050800Z AUTO 20002KT 2 1/2SM M03/M09 A3024 RMK T10301090 IEM_DS3505
ZBHH,2007-12-05 09:00,ZBHH 050900Z AUTO 22002KT 7SM M03/M08 A3024 RMK SLP315 T10261083 57003 IEM_DS3505
ZBHH,2007-12-05 10:00,ZBHH 051000Z AUTO 18002KT 2 1/2SM M05/M09 A3024 RMK T10501090 IEM_DS3505
ZBHH,2007-12-05 11:00,ZBHH 051100Z AUTO 10002KT 2SM M06/M11 A3024 RMK T10601110 IEM_DS3505
ZBHH,2007-12-05 12:00,ZBHH 051200Z AUTO 29004KT 4SM M05/M10 A3027 RMK SLP328 T10461096 52007 IEM_DS3505
ZBHH,2007-12-05 13:00,ZBHH 051300Z AUTO 36002KT 1 1/2SM M09/M12 A3027 RMK T10901120 IEM_DS3505
ZBHH,2007-12-05 14:00,ZBHH 051400Z AUTO 36008KT 7SM M06/M16 A3027 RMK T10601160 IEM_DS3505
ZBHH,2007-12-05 15:00,ZBHH 051500Z AUTO 29004KT 12SM M05/M15 A3027 RMK SLP322 T10471148 52008 IEM_DS3505
ZBHH,2007-12-05 16:00,ZBHH 051600Z AUTO 01006KT 6SM M07/M15 A3027 RMK T10701150 IEM_DS3505
ZBHH,2007-12-05 17:00,ZBHH 051700Z AUTO 6SM M07/M15 A3027 RMK T10701150 IEM_DS3505
ZBHH,2007-12-05 18:00,ZBHH 051800Z AUTO 34006KT 19SM M07/M15 A3027 RMK SLP323 T10671149 57001 IEM_DS3505
ZBHH,2007-12-05 19:00,ZBHH 051900Z AUTO 01010KT 6SM A3027 RMK IEM_DS3505
ZBHH,2007-12-05 20:00,ZBHH 052000Z AUTO 6SM M09/M16 A3027 RMK T10901160 IEM_DS3505
ZBHH,2007-12-05 21:00,ZBHH 052100Z AUTO 32002KT 19SM M07/M16 A3027 RMK 70000 SLP329 T10731155 52002 IEM_DS3505
ZBHH,2007-12-05 22:00,ZBHH 052200Z AUTO 01010KT 6SM M09/M17 A3027 RMK T10901170 IEM_DS3505
ZBHH,2007-12-05 23:00,ZBHH 052300Z AUTO 01008KT 6SM M10/M17 A3027 RMK T11001170 IEM_DS3505
ZBHH,2007-12-06 00:00,ZBHH 060000Z AUTO 32008KT 19SM M07/M16 A3030 RMK 70000 SLP340 T10701162 52006 IEM_DS3505
ZBHH,2007-12-06 01:00,ZBHH 060100Z AUTO 01002KT 6SM M08/M17 A3030 RMK T10801170 IEM_DS3505
ZBHH,2007-12-06 02:00,ZBHH 060200Z AUTO 6SM M06/M17 A3033 RMK T10601170 IEM_DS3505
ZBHH,2007-12-06 03:00,ZBHH 060300Z AUTO 18002KT 12SM M05/M14 A3033 RMK SLP344 T10471140 52008 IEM_DS3505
ZBHH,2007-12-06 04:00,ZBHH 060400Z AUTO 27004KT 6SM M04/M16 A3030 RMK T10401160 IEM_DS3505
ZBHH,2007-12-06 05:00,ZBHH 060500Z AUTO 29004KT 6SM M03/M17 A3027 RMK T10301170 IEM_DS3505
ZBHH,2007-12-06 06:00,ZBHH 060600Z AUTO 18006KT 12SM M02/M15 A3027 RMK SLP321 T10191150 57018 IEM_DS3505
ZBHH,2007-12-06 07:00,ZBHH 060700Z AUTO 25010KT 5SM M03/M16 A3027 RMK T10301160 IEM_DS3505
ZBHH,2007-12-06 08:00,ZBHH 060800Z AUTO 24008KT 6SM M03/M15 A3027 RMK T10301150 IEM_DS3505
ZBHH,2007-12-06 09:00,ZBHH 060900Z AUTO 22004KT 19SM M02/M14 A3030 RMK SLP331 T10231138 52006 IEM_DS3505
ZBHH,2007-12-06 10:00,ZBHH 061000Z AUTO 30002KT 4SM M06/M15 A3030 RMK T10601150 IEM_DS3505
ZBHH,2007-12-06 11:00,ZBHH 061100Z AUTO 04002KT 3SM M06/M16 A3030 RMK T10601160 IEM_DS3505
ZBHH,2007-12-06 12:00,ZBHH 061200Z AUTO 32004KT 12SM M04/M17 A3033 RMK SLP346 T10451167 52009 IEM_DS3505
ZBHH,2007-12-06 13:00,ZBHH 061300Z AUTO 08006KT 4SM M10/M17 A3033 RMK T11001170 IEM_DS3505
ZBHH,2007-12-06 14:00,ZBHH 061400Z AUTO 11002KT 4SM M11/M18 A3033 RMK T11101180 IEM_DS3505
ZBHH,2007-12-06 15:00,ZBHH 061500Z AUTO 09004KT 9SM M06/M15 A3033 RMK SLP348 T10651154 52003 IEM_DS3505
ZBHH,2007-12-06 16:00,ZBHH 061600Z AUTO 13002KT 6SM M12/M18 A3033 RMK T11201180 IEM_DS3505
ZBHH,2007-12-06 17:00,ZBHH 061700Z AUTO 11002KT 6SM M13/M18 A3030 RMK T11301180 IEM_DS3505
ZBHH,2007-12-06 18:00,ZBHH 061800Z AUTO 07002KT 19SM M09/M16 A3030 RMK SLP341 T10921162 57006 IEM_DS3505
ZBHH,2007-12-06 19:00,ZBHH 061900Z AUTO 08004KT 6SM M13/M19 A3030 RMK T11301190 IEM_DS3505
ZBHH,2007-12-06 20:00,ZBHH 062000Z AUTO 10004KT 6SM M13/M19 A3030 RMK T11301190 IEM_DS3505
ZBHH,2007-12-06 21:00,ZBHH 062100Z AUTO 07002KT 19SM M11/M16 A3030 RMK SLP342 T11081159 57004 IEM_DS3505
ZBHH,2007-12-06 22:00,ZBHH 062200Z AUTO 00000KT 6SM M14/M19 A3030 RMK T11401190 IEM_DS3505
ZBHH,2007-12-06 23:00,ZBHH 062300Z AUTO 08004KT 6SM M14/M19 A3030 RMK T11401190 IEM_DS3505
ZBHH,2007-12-07 00:00,ZBHH 070000Z AUTO 04002KT 12SM M10/M17 A3030 RMK SLP349 T10961167 52004 IEM_DS3505
ZBHH,2007-12-07 01:00,ZBHH 070100Z AUTO 10004KT 6SM M12/M17 A3030 RMK T11201170 IEM_DS3505
ZBHH,2007-12-07 02:00,ZBHH 070200Z AUTO 07002KT 6SM M09/M17 A3030 RMK T10901170 IEM_DS3505
ZBHH,2007-12-07 03:00,ZBHH 070300Z AUTO 09004KT 12SM M04/M16 A3030 RMK SLP342 T10411163 52002 IEM_DS3505
ZBHH,2007-12-07 04:00,ZBHH 070400Z AUTO 6SM M04/M16 A3027 RMK T10401160 IEM_DS3505
ZBHH,2007-12-07 05:00,ZBHH 070500Z AUTO 21004KT 6SM M03/M16 A3024 RMK T10301160 IEM_DS3505
ZBHH,2007-12-07 06:00,ZBHH 070600Z AUTO 22004KT 6SM M02/M15 A3024 RMK SLP318 T10161154 57022 IEM_DS3505
ZBHH,2007-12-07 07:00,ZBHH 070700Z AUTO 24004KT 6SM M02/M16 A3024 RMK T10201160 IEM_DS3505
ZBHH,2007-12-07 08:00,ZBHH 070800Z AUTO 26004KT 6SM M02/M17 A3024 RMK T10201170 IEM_DS3505
ZBHH,2007-12-07 09:00,ZBHH 070900Z AUTO 27002KT 6SM M02/M16 A3024 RMK SLP318 T10201158 57004 IEM_DS3505
ZBHH,2007-12-07 10:00,ZBHH 071000Z AUTO 05002KT 4SM M06/M17 A3024 RMK T10601170 IEM_DS3505
ZBHH,2007-12-07 11:00,ZBHH 071100Z AUTO 03008KT 4SM M08/M17 A3024 RMK T10801170 IEM_DS3505
ZBHH,2007-12-07 12:00,ZBHH 071200Z AUTO 32002KT 9SM M06/M14 A3024 RMK SLP327 T10551145 52002 IEM_DS3505
ZBHH,2007-12-07 13:00,ZBHH 071300Z AUTO 09002KT 6SM M11/M19 A3024 RMK T11101190 IEM_DS3505
ZBHH,2007-12-07 14:00,ZBHH 071400Z AUTO 08002KT 4SM M11/M19 A3024 RMK T11101190 IEM_DS3505
ZBHH,2007-12-07 15:00,ZBHH 071500Z AUTO 00000KT 9SM M08/M15 A3024 RMK SLP321 T10801150 52002 IEM_DS3505
ZBHH,2007-12-07 16:00,ZBHH 071600Z AUTO 09002KT 6SM M12/M19 A3024 RMK T11201190 IEM_DS3505
ZBHH,2007-12-07 17:00,ZBHH 071700Z AUTO 07002KT 6SM M12/M19 A3024 RMK T11201190 IEM_DS3505
ZBHH,2007-12-07 18:00,ZBHH 071800Z AUTO 11002KT 7SM M09/M15 A3024 RMK SLP317 T10941153 57001 IEM_DS3505
ZBHH,2007-12-07 19:00,ZBHH 071900Z AUTO 08004KT M13/M19 A3024 RMK T11301190 IEM_DS3505
ZBHH,2007-12-07 20:00,ZBHH 072000Z AUTO 08004KT 6SM M13/M19 A3021 RMK T11301190 IEM_DS3505
ZBHH,2007-12-07 21:00,ZBHH 072100Z AUTO 11002KT 16SM M10/M16 A3021 RMK SLP314 T10951164 57004 IEM_DS3505
ZBHH,2007-12-07 22:00,ZBHH 072200Z AUTO 06002KT 6SM M13/M18 A3021 RMK T11301180 IEM_DS3505
ZBHH,2007-12-07 23:00,ZBHH 072300Z AUTO 08006KT 6SM M14/M19 A3021 RMK T11401190 IEM_DS3505
ZBHH,2007-12-08 00:00,ZBHH 080000Z AUTO 36002KT 7SM M10/M16 A3024 RMK SLP328 T11031162 52003 IEM_DS3505
ZBHH,2007-12-08 01:00,ZBHH 080100Z AUTO 09006KT 4SM M12/M17 A3024 RMK T11201170 IEM_DS3505
ZBHH,2007-12-08 02:00,ZBHH 080200Z AUTO 07004KT 6SM M08/M17 A3024 RMK T10801170 IEM_DS3505
ZBHH,2007-12-08 03:00,ZBHH 080300Z AUTO 07004KT 9SM M03/M16 A3021 RMK SLP309 T10311164 57006 IEM_DS3505
ZBHH,2007-12-08 04:00,ZBHH 080400Z AUTO 00000KT 6SM M01/M17 A3018 RMK T10101170 IEM_DS3505
ZBHH,2007-12-08 05:00,ZBHH 080500Z AUTO 23002KT 6SM M01/M16 A3018 RMK T10101160 IEM_DS3505
ZBHH,2007-12-08 06:00,ZBHH 080600Z AUTO 07004KT 12SM 01/M15 A3015 RMK SLP276 T00111154 57023 IEM_DS3505
ZBHH,2007-12-08 07:00,ZBHH 080700Z AUTO 07002KT 6SM 00/M16 A3012 RMK T00001160 IEM_DS3505
ZBHH,2007-12-08 08:00,ZBHH 080800Z AUTO 24002KT 4SM 00/M15 A3015 RMK T00001150 IEM_DS3505
ZBHH,2007-12-08 09:00,ZBHH 080900Z AUTO 36002KT 6SM M01/M15 A3015 RMK SLP281 T10091152 54000 IEM_DS3505
ZBHH,2007-12-08 10:00,ZBHH 081000Z AUTO 03002KT 4SM M03/M16 A3015 RMK T10301160 IEM_DS3505
ZBHH,2007-12-08 11:00,ZBHH 081100Z AUTO 08002KT 4SM M05/M16 A3015 RMK T10501160 IEM_DS3505
ZBHH,2007-12-08 12:00,ZBHH 081200Z AUTO 00000KT 5SM M04/M14 A3015 RMK SLP292 T10371142 52001 IEM_DS3505
ZBHH,2007-12-08 13:00,ZBHH 081300Z AUTO 08002KT 3SM M09/M18 A3015 RMK T10901180 IEM_DS3505
ZBHH,2007-12-08 14:00,ZBHH 081400Z AUTO 10002KT 4SM M09/M17 A3015 RMK T10901170 IEM_DS3505
ZBHH,2007-12-08 15:00,ZBHH 081500Z AUTO 00000KT 6SM M06/M14 A3015 RMK SLP285 T10641137 52004 IEM_DS3505
ZBHH,2007-12-08 16:00,ZBHH 081600Z AUTO 08002KT 4SM M09/M16 A3015 RMK T10901160 IEM_DS3505
ZBHH,2007-12-08 17:00,ZBHH 081700Z AUTO 08004KT 4SM M11/M17 A3015 RMK T11101170 IEM_DS3505
ZBHH,2007-12-08 18:00,ZBHH 081800Z AUTO 09002KT 12SM M07/M13 RMK SLP274 T10681127 57001 IEM_DS3505
ZBHH,2007-12-08 19:00,ZBHH 081900Z AUTO 08004KT 4SM M10/M16 A3015 RMK T11001160 IEM_DS3505
ZBHH,2007-12-08 20:00,ZBHH 082000Z AUTO 07002KT 7SM M12/M17 A3015 RMK T11201170 IEM_DS3505
ZBHH,2007-12-08 21:00,ZBHH 082100Z AUTO 09002KT 12SM M09/M13 A3015 RMK SLP282 T10891132 57002 IEM_DS3505
ZBHH,2007-12-08 22:00,ZBHH 082200Z AUTO 08006KT 6SM M12/M16 A3012 RMK T11201160 IEM_DS3505
ZBHH,2007-12-08 23:00,ZBHH 082300Z AUTO 06004KT 6SM M11/M16 A3012 RMK T11101160 IEM_DS3505
ZBHH,2007-12-09 00:00,ZBHH 090000Z AUTO 36002KT 4SM M08/M13 A3012 RMK SLP285 T10811128 57002 IEM_DS3505
ZBHH,2007-12-09 01:00,ZBHH 090100Z AUTO 08002KT 3SM M09/M14 A3015 RMK T10901140 IEM_DS3505
ZBHH,2007-12-09 02:00,ZBHH 090200Z AUTO 07002KT 4SM M06/M13 A3015 RMK T10601130 IEM_DS3505
ZBHH,2007-12-09 03:00,ZBHH 090300Z AUTO 14002KT 5SM 00/M13 A3012 RMK SLP268 T00021131 57002 IEM_DS3505
ZBHH,2007-12-09 04:00,ZBHH 090400Z AUTO 04002KT 5SM 00/M14 A3009 RMK T00001140 IEM_DS3505
ZBHH,2007-12-09 05:00,ZBHH 090500Z AUTO 16002KT 6SM 02/M15 A3006 RMK T00201150 IEM_DS3505
ZBHH,2007-12-09 06:00,ZBHH 090600Z AUTO 02002KT 6SM 03/M14 A3003 RMK SLP231 T00261137 57028 IEM_DS3505
ZBHH,2007-12-09 07:00,ZBHH 090700Z AUTO 35002KT 6SM 02/M15 A3003 RMK T00201150 IEM_DS3505
ZBHH,2007-12-09 08:00,ZBHH 090800Z AUTO 27002KT 4SM 01/M14 A3003 RMK T00101140 IEM_DS3505
ZBHH,2007-12-09 09:00,ZBHH 090900Z AUTO 27002KT 5SM 01/M13 A3003 RMK SLP233 T00111134 57006 IEM_DS3505
ZBHH,2007-12-09 10:00,ZBHH 091000Z AUTO 05002KT 3SM M03/M14 A3000 RMK T10301140 IEM_DS3505
ZBHH,2007-12-09 11:00,ZBHH 091100Z AUTO 05002KT 2SM M04/M15 A3000 RMK T10401150 IEM_DS3505
ZBHH,2007-12-09 12:00,ZBHH 091200Z AUTO 34002KT 4SM M02/M12 A2997 RMK SLP227 T10151125 57010 IEM_DS3505
ZBHH,2007-12-09 13:00,ZBHH 091300Z AUTO 00000KT 3SM M06/M15 A3000 RMK T10601150 IEM_DS3505
ZBHH,2007-12-09 14:00,ZBHH 091400Z AUTO 17002KT 3SM M06/M14 A3000 RMK T10601140 IEM_DS3505
ZBHH,2007-12-09 15:00,ZBHH 091500Z AUTO 07002KT 3SM M02/M12 A3000 RMK SLP209 T10171118 52002 IEM_DS3505
ZBHH,2007-12-09 16:00,ZBHH 091600Z AUTO 12002KT 3SM M05/M14 A2997 RMK T10501140 IEM_DS3505
ZBHH,2007-12-09 17:00,ZBHH 091700Z AUTO 27004KT M05/M13 A2997 RMK T10501130 IEM_DS3505
ZBHH,2007-12-09 18:00,ZBHH 091800Z AUTO 00000KT 2SM M02/M12 A2994 RMK SLP185 T10231123 57017 IEM_DS3505
ZBHH,2007-12-09 19:00,ZBHH 091900Z AUTO 11004KT 4SM M05/M13 A2991 RMK T10501130 IEM_DS3505
ZBHH,2007-12-09 20:00,ZBHH 092000Z AUTO 30002KT 4SM M05/M12 A2994 RMK T10501120 IEM_DS3505
ZBHH,2007-12-09 21:00,ZBHH 092100Z AUTO 07002KT 5SM M04/M08 A2991 RMK 70001 SLP187 T10371082 57004 IEM_DS3505
ZBHH,2007-12-09 22:00,ZBHH 092200Z AUTO 11004KT 4SM M06/M09 A2991 RMK T10601090 IEM_DS3505
ZBHH,2007-12-09 23:00,ZBHH 092300Z AUTO 09002KT 2 1/2SM M05/M07 A2991 RMK T10501070 IEM_DS3505
ZBHH,2007-12-10 00:00,ZBHH 100000Z AUTO 09002KT 4SM M03/M06 A2991 RMK 60002 70002 SLP187 T10301063 57004 IEM_DS3505
ZBHH,2007-12-10 01:00,ZBHH 100100Z AUTO 05002KT 1SM M05/M06 A2991 RMK T10501060 IEM_DS3505
ZBHH,2007-12-10 02:00,ZBHH 100200Z AUTO 25002KT 1SM M05/M05 A2994 RMK T10501050 IEM_DS3505
ZBHH,2007-12-10 03:00,ZBHH 100300Z AUTO 20002KT 5SM M02/M04 A2994 RMK SLP197 T10171042 52011 IEM_DS3505
ZBHH,2007-12-10 04:00,ZBHH 100400Z AUTO 24006KT 1SM M04/M04 A2994 RMK T10401040 IEM_DS3505
ZBHH,2007-12-10 05:00,ZBHH 100500Z AUTO 23004KT 1SM M03/M04 A2994 RMK T10301040 IEM_DS3505
ZBHH,2007-12-10 06:00,ZBHH 100600Z AUTO 32008KT 6SM M01/M08 A2994 RMK 60003 SLP195 T10061078 57001 IEM_DS3505
ZBHH,2007-12-10 07:00,ZBHH 100700Z AUTO 36006KT 7SM M04/M11 A2997 RMK T10401110 IEM_DS3505
ZBHH,2007-12-10 08:00,ZBHH 100800Z AUTO 01008KT 7SM M05/M11 A2997 RMK T10501110 IEM_DS3505
ZBHH,2007-12-10 09:00,ZBHH 100900Z AUTO 32004KT 9SM M04/M13 A3000 RMK SLP224 T10401126 52015 IEM_DS3505
ZBHH,2007-12-10 10:00,ZBHH 101000Z AUTO 01008KT 7SM M08/M14 A3003 RMK T10801140 IEM_DS3505
ZBHH,2007-12-10 11:00,ZBHH 101100Z AUTO 35008KT 7SM M08/M14 A3006 RMK T10801140 IEM_DS3505
ZBHH,2007-12-10 12:00,ZBHH 101200Z AUTO 32006KT 16SM M07/M14 A3009 RMK SLP263 T10691138 52029 IEM_DS3505
ZBHH,2007-12-10 13:00,ZBHH 101300Z AUTO 04010KT 7SM M09/M15 A3009 RMK T10901150 IEM_DS3505
ZBHH,2007-12-10 14:00,ZBHH 101400Z AUTO 04006KT 7SM M10/M16 A3012 RMK T11001160 IEM_DS3505
ZBHH,2007-12-10 15:00,ZBHH 101500Z AUTO 29002KT 19SM M08/M15 A3012 RMK SLP279 T10801148 52015 IEM_DS3505
ZBHH,2007-12-10 16:00,ZBHH 101600Z AUTO 05006KT 6SM M10/M15 A3015 RMK T11001150 IEM_DS3505
ZBHH,2007-12-10 17:00,ZBHH 101700Z AUTO 09006KT 6SM M13/M17 A3015 RMK T11301170 IEM_DS3505
ZBHH,2007-12-10 18:00,ZBHH 101800Z AUTO 29004KT 19SM M09/M15 A3015 RMK SLP283 T10891150 52004 IEM_DS3505
ZBHH,2007-12-10 19:00,ZBHH 101900Z AUTO 08006KT 6SM M14/M18 A3015 RMK T11401180 IEM_DS3505
ZBHH,2007-12-10 20:00,ZBHH 102000Z AUTO 09006KT 6SM M15/M19 A3015 RMK T11501190 IEM_DS3505
ZBHH,2007-12-10 21:00,ZBHH 102100Z AUTO 18002KT 19SM M10/M15 RMK 70004 SLP294 T11021152 57001 IEM_DS3505
ZBHH,2007-12-10 22:00,ZBHH 102200Z AUTO 10006KT 6SM M18/M21 A3015 RMK T11801210 IEM_DS3505
ZBHH,2007-12-10 23:00,ZBHH 102300Z AUTO 10004KT 6SM M18/M21 A3018 RMK T11801210 IEM_DS3505
ZBHH,2007-12-11 00:00,ZBHH 110000Z AUTO 29004KT 19SM M10/M16 A3021 RMK 70003 SLP322 T11031158 52017 IEM_DS3505
ZBHH,2007-12-11 01:00,ZBHH 110100Z AUTO 10004KT 6SM M14/M18 A3021 RMK T11401180 IEM_DS3505
ZBHH,2007-12-11 02:00,ZBHH 110200Z AUTO 13002KT 6SM M10/M17 A3024 RMK T11001170 IEM_DS3505
ZBHH,2007-12-11 03:00,ZBHH 110300Z AUTO 29002KT 19SM M06/M15 A3024 RMK SLP324 T10601147 52009 IEM_DS3505
ZBHH,2007-12-11 04:00,ZBHH 110400Z AUTO 20002KT 6SM M06/M15 A3021 RMK T10601150 IEM_DS3505
ZBHH,2007-12-11 05:00,ZBHH 110500Z AUTO 15002KT 6SM M06/M14 A3018 RMK T10601140 IEM_DS3505
ZBHH,2007-12-11 06:00,ZBHH 110600Z AUTO 36002KT 19SM M03/M13 A3015 RMK SLP295 T10291129 57020 IEM_DS3505
ZBHH,2007-12-11 07:00,ZBHH 110700Z AUTO 21002KT 6SM M04/M14 A3015 RMK T10401140 IEM_DS3505
ZBHH,2007-12-11 08:00,ZBHH 110800Z AUTO 20004KT 6SM M05/M14 A3015 RMK T10501140 IEM_DS3505
ZBHH,2007-12-11 09:00,ZBHH 110900Z AUTO 25004KT 19SM M05/M13 A3018 RMK SLP305 T10511127 52001 IEM_DS3505
ZBHH,2007-12-11 10:00,ZBHH 111000Z AUTO 00000KT 4SM M08/M13 A3018 RMK T10801130 IEM_DS3505
ZBHH,2007-12-11 11:00,ZBHH 111100Z AUTO 04004KT 4SM M11/M16 A3018 RMK T11101160 IEM_DS3505
ZBHH,2007-12-11 12:00,ZBHH 111200Z AUTO 36002KT 4SM M08/M12 A3018 RMK SLP319 T10841124 52004 IEM_DS3505
ZBHH,2007-12-11 13:00,ZBHH 111300Z AUTO 09006KT 6SM M15/M19 A3018 RMK T11501190 IEM_DS3505
ZBHH,2007-12-11 14:00,ZBHH 111400Z AUTO 08004KT 6SM M16/M20 A3018 RMK T11601200 IEM_DS3505
ZBHH,2007-12-11 15:00,ZBHH 111500Z AUTO 04004KT 5SM M10/M15 A3018 RMK SLP313 T10961148 52002 IEM_DS3505
ZBHH,2007-12-11 16:00,ZBHH 111600Z AUTO 04002KT 5SM M17/M20 A3021 RMK T11701200 IEM_DS3505
ZBHH,2007-12-11 18:00,ZBHH 111800Z AUTO 16002KT 12SM M12/M16 A3018 RMK SLP310 T11211161 57001 IEM_DS3505
ZBHH,2007-12-11 19:00,ZBHH 111900Z AUTO 09004KT 6SM M17/M21 A3018 RMK T11701210 IEM_DS3505
ZBHH,2007-12-11 20:00,ZBHH 112000Z AUTO 08002KT 6SM M17/M20 A3015 RMK T11701200 IEM_DS3505
ZBHH,2007-12-11 21:00,ZBHH 112100Z AUTO 07002KT 19SM M12/M16 A3015 RMK SLP304 T11241164 57011 IEM_DS3505
ZBHH,2007-12-11 22:00,ZBHH 112200Z AUTO 10006KT 6SM M19/M22 A3012 RMK T11901220 IEM_DS3505
ZBHH,2007-12-11 23:00,ZBHH 112300Z AUTO 00000KT 6SM M18/M21 A3012 RMK T11801210 IEM_DS3505
ZBHH,2007-12-12 00:00,ZBHH 120000Z AUTO 07002KT 9SM M13/M17 A3015 RMK SLP311 T11271169 57002 IEM_DS3505
ZBHH,2007-12-12 01:00,ZBHH 120100Z AUTO 10002KT 4SM M17/M21 A3015 RMK T11701210 IEM_DS3505
ZBHH,2007-12-12 02:00,ZBHH 120200Z AUTO 13002KT 4SM M14/M17 A3015 RMK T11401170 IEM_DS3505
ZBHH,2007-12-12 03:00,ZBHH 120300Z AUTO 09004KT 5SM M09/M15 A3015 RMK SLP306 T10901151 52001 IEM_DS3505
ZBHH,2007-12-12 04:00,ZBHH 120400Z AUTO 23002KT 3SM M10/M14 A3012 RMK T11001140 IEM_DS3505
ZBHH,2007-12-12 05:00,ZBHH 120500Z AUTO 22004KT 3SM M08/M13 A3012 RMK T10801130 IEM_DS3505
ZBHH,2007-12-12 06:00,ZBHH 120600Z AUTO 22006KT 5SM M06/M12 A3009 RMK SLP287 T10601125 57015 IEM_DS3505
ZBHH,2007-12-12 07:00,ZBHH 120700Z AUTO 23006KT 4SM M07/M13 A3009 RMK T10701130 IEM_DS3505
ZBHH,2007-12-12 08:00,ZBHH 120800Z AUTO 23008KT 4SM M07/M13 A3009 RMK T10701130 IEM_DS3505
ZBHH,2007-12-12 09:00,ZBHH 120900Z AUTO 32002KT 9SM M06/M13 A3012 RMK SLP291 T10581132 52003 IEM_DS3505
ZBHH,2007-12-12 10:00,ZBHH 121000Z AUTO 33006KT 6SM M08/M19 A3012 RMK T10801190 IEM_DS3505
ZBHH,2007-12-12 11:00,ZBHH 121100Z AUTO 34004KT 6SM M09/M20 A3015 RMK T10901200 IEM_DS3505
ZBHH,2007-12-12 12:00,ZBHH 121200Z AUTO 32010KT 19SM M08/M19 A3015 RMK SLP312 T10761189 52013 IEM_DS3505
ZBHH,2007-12-12 13:00,ZBHH 121300Z AUTO 36004KT 6SM M10/M20 A3015 RMK T11001200 IEM_DS3505
ZBHH,2007-12-12 14:00,ZBHH 121400Z AUTO 17002KT 6SM M13/M20 A3015 RMK T11301200 IEM_DS3505
ZBHH,2007-12-12 15:00,ZBHH 121500Z AUTO 34002KT 19SM M09/M19 A3015 RMK SLP309 T10891187 52003 IEM_DS3505
ZBHH,2007-12-12 16:00,ZBHH 121600Z AUTO 01002KT 6SM M13/M20 A3015 RMK T11301200 IEM_DS3505
ZBHH,2007-12-12 17:00,ZBHH 121700Z AUTO 04006KT 6SM M14/M20 A3015 RMK T11401200 IEM_DS3505
ZBHH,2007-12-12 18:00,ZBHH 121800Z AUTO 25002KT 19SM M11/M18 A3015 RMK SLP300 T11081181 57005 IEM_DS3505
ZBHH,2007-12-12 19:00,ZBHH 121900Z AUTO 00000KT 6SM M17/M21 A3015 RMK T11701210 IEM_DS3505
ZBHH,2007-12-12 20:00,ZBHH 122000Z AUTO 00000KT 6SM M17/M21 A3015 RMK T11701210 IEM_DS3505
ZBHH,2007-12-12 21:00,ZBHH 122100Z AUTO 20002KT 19SM M12/M17 A3012 RMK SLP299 T11181167 57003 IEM_DS3505
ZBHH,2007-12-12 22:00,ZBHH 122200Z AUTO 26002KT 6SM M18/M22 A3012 RMK T11801220 IEM_DS3505
ZBHH,2007-12-12 23:00,ZBHH 122300Z AUTO 10004KT 6SM M21/M24 A3015 RMK T12101240 IEM_DS3505
ZBHH,2007-12-13 00:00,ZBHH 130000Z AUTO 09004KT 19SM M13/M17 A3015 RMK SLP313 T11311172 52005 IEM_DS3505
ZBHH,2007-12-13 01:00,ZBHH 130100Z AUTO 09002KT 3SM M17/M20 A3015 RMK T11701200 IEM_DS3505
ZBHH,2007-12-13 02:00,ZBHH 130200Z AUTO 09002KT 6SM M13/M18 A3015 RMK T11301180 IEM_DS3505
ZBHH,2007-12-13 03:00,ZBHH 130300Z AUTO 09004KT 12SM M09/M16 A3015 RMK SLP308 T10901162 52002 IEM_DS3505
ZBHH,2007-12-13 04:00,ZBHH 130400Z AUTO 00000KT 6SM M10/M17 A3012 RMK T11001170 IEM_DS3505
ZBHH,2007-12-13 05:00,ZBHH 130500Z AUTO 21002KT 6SM M08/M16 A3009 RMK T10801160 IEM_DS3505
ZBHH,2007-12-13 06:00,ZBHH 130600Z AUTO 26002KT 6SM M07/M17 A3006 RMK T10701170 IEM_DS3505
ZBHH,2007-12-13 07:00,ZBHH 130700Z AUTO 00000KT 5SM M07/M17 A3006 RMK T10701170 IEM_DS3505
ZBHH,2007-12-13 08:00,ZBHH 130800Z AUTO 24002KT 4SM M07/M16 A3006 RMK T10701160 IEM_DS3505
ZBHH,2007-12-13 09:00,ZBHH 130900Z AUTO 07004KT 7SM M07/M16 A3003 RMK SLP269 T10681155 57008 IEM_DS3505
ZBHH,2007-12-13 10:00,ZBHH 131000Z AUTO 08004KT 4SM M11/M18 A3006 RMK T11101180 IEM_DS3505
ZBHH,2007-12-13 11:00,ZBHH 131100Z AUTO 06002KT 4SM M12/M18 A3006 RMK T11201180 IEM_DS3505
ZBHH,2007-12-13 12:00,ZBHH 131200Z AUTO 11002KT 6SM M09/M16 A3006 RMK SLP279 T10921157 54000 IEM_DS3505
ZBHH,2007-12-13 13:00,ZBHH 131300Z AUTO 04002KT 4SM M15/M19 A3003 RMK T11501190 IEM_DS3505
ZBHH,2007-12-13 14:00,ZBHH 131400Z AUTO 03004KT 3SM M15/M19 A3003 RMK T11501190 IEM_DS3505
ZBHH,2007-12-13 15:00,ZBHH 131500Z AUTO 00000KT 5SM M12/M16 A3003 RMK SLP271 T11161156 57003 IEM_DS3505
ZBHH,2007-12-13 16:00,ZBHH 131600Z AUTO 08004KT 4SM M18/M21 A3003 RMK T11801210 IEM_DS3505
ZBHH,2007-12-13 17:00,ZBHH 131700Z AUTO 08004KT 4SM M19/M22 A3000 RMK T11901220 IEM_DS3505
ZBHH,2007-12-13 18:00,ZBHH 131800Z AUTO 04002KT 6SM M12/M17 A3000 RMK SLP258 T11231168 57006 IEM_DS3505
ZBHH,2007-12-13 19:00,ZBHH 131900Z AUTO 04002KT 4SM M17/M20 A3000 RMK T11701200 IEM_DS3505
ZBHH,2007-12-13 20:00,ZBHH 132000Z AUTO 12002KT 4SM M19/M22 A3000 RMK T11901220 IEM_DS3505
ZBHH,2007-12-13 21:00,ZBHH 132100Z AUTO 11002KT 9SM M12/M16 A2997 RMK SLP244 T11151159 57012 IEM_DS3505
ZBHH,2007-12-13 22:00,ZBHH 132200Z AUTO 13002KT 4SM M16/M19 A2997 RMK T11601190 IEM_DS3505
ZBHH,2007-12-13 23:00,ZBHH 132300Z AUTO 36002KT 4SM M17/M19 A2997 RMK T11701190 IEM_DS3505
ZBHH,2007-12-14 00:00,ZBHH 140000Z AUTO 07002KT 6SM M12/M16 A3000 RMK SLP262 T11221162 52008 IEM_DS3505
ZBHH,2007-12-14 01:00,ZBHH 140100Z AUTO 00000KT 2 1/2SM M15/M18 A3003 RMK T11501180 IEM_DS3505
ZBHH,2007-12-14 02:00,ZBHH 140200Z AUTO 16002KT 3SM M11/M16 A3003 RMK T11101160 IEM_DS3505
ZBHH,2007-12-14 03:00,ZBHH 140300Z AUTO 22006KT 7SM M07/M14 A3006 RMK SLP274 T10711138 52017 IEM_DS3505
ZBHH,2007-12-14 04:00,ZBHH 140400Z AUTO 23004KT 4SM M06/M14 A3003 RMK T10601140 IEM_DS3505
ZBHH,2007-12-14 05:00,ZBHH 140500Z AUTO 26006KT 4SM M05/M14 A3003 RMK T10501140 IEM_DS3505
ZBHH,2007-12-14 06:00,ZBHH 140600Z AUTO 32010KT 12SM M02/M16 A3003 RMK SLP253 T10191160 57008 IEM_DS3505
ZBHH,2007-12-14 07:00,ZBHH 140700Z AUTO 33016KT 7SM M03/M17 A3003 RMK T10301170 IEM_DS3505
ZBHH,2007-12-14 08:00,ZBHH 140800Z AUTO 33012G21KT 7SM M04/M17 A3006 RMK T10401170 IEM_DS3505
ZBHH,2007-12-14 09:00,ZBHH 140900Z AUTO 34004KT 19SM M03/M17 A3009 RMK SLP273 T10341174 52016 IEM_DS3505
ZBHH,2007-12-14 10:00,ZBHH 141000Z AUTO 36002KT 6SM M07/M18 A3009 RMK T10701180 IEM_DS3505
ZBHH,2007-12-14 11:00,ZBHH 141100Z AUTO 36006KT 6SM M09/M18 A3012 RMK T10901180 IEM_DS3505
ZBHH,2007-12-14 12:00,ZBHH 141200Z AUTO 34006KT 19SM M07/M17 A3012 RMK SLP303 T10661171 52017 IEM_DS3505
ZBHH,2007-12-14 13:00,ZBHH 141300Z AUTO 33002KT 6SM M10/M18 A3015 RMK T11001180 IEM_DS3505
ZBHH,2007-12-14 14:00,ZBHH 141400Z AUTO 01002KT 6SM M11/M18 A3015 RMK T11101180 IEM_DS3505
ZBHH,2007-12-14 15:00,ZBHH 141500Z AUTO 34004KT 19SM M08/M18 A3018 RMK SLP305 T10761175 52011 IEM_DS3505
ZBHH,2007-12-14 16:00,ZBHH 141600Z AUTO 36006KT 6SM M12/M18 A3018 RMK T11201180 IEM_DS3505
ZBHH,2007-12-14 17:00,ZBHH 141700Z AUTO 17002KT 6SM M15/M19 A3018 RMK T11501190 IEM_DS3505
ZBHH,2007-12-14 18:00,ZBHH 141800Z AUTO 20002KT 19SM M11/M17 A3018 RMK SLP299 T11141170 57002 IEM_DS3505
ZBHH,2007-12-14 19:00,ZBHH 141900Z AUTO 09006KT 6SM M18/M21 A3018 RMK T11801210 IEM_DS3505
ZBHH,2007-12-14 20:00,ZBHH 142000Z AUTO 00000KT 6SM M17/M21 A3018 RMK T11701210 IEM_DS3505
ZBHH,2007-12-14 21:00,ZBHH 142100Z AUTO 27002KT 19SM M13/M17 A3018 RMK SLP308 T11291172 52001 IEM_DS3505
ZBHH,2007-12-14 22:00,ZBHH 142200Z AUTO 16002KT 6SM M20/M23 A3018 RMK T12001230 IEM_DS3505
ZBHH,2007-12-14 23:00,ZBHH 142300Z AUTO 10002KT 6SM M20/M23 A3018 RMK T12001230 IEM_DS3505
ZBHH,2007-12-15 00:00,ZBHH 150000Z AUTO 07002KT 9SM M12/M18 A3021 RMK SLP329 T11251177 52012 IEM_DS3505
ZBHH,2007-12-15 01:00,ZBHH 150100Z AUTO 11002KT 5SM M17/M20 A3024 RMK T11701200 IEM_DS3505
ZBHH,2007-12-15 02:00,ZBHH 150200Z AUTO 10002KT 6SM M12/M18 A3024 RMK T11201180 IEM_DS3505
ZBHH,2007-12-15 03:00,ZBHH 150300Z AUTO 09004KT 9SM M08/M16 A3021 RMK SLP323 T10751164 52004 IEM_DS3505
ZBHH,2007-12-15 04:00,ZBHH 150400Z AUTO 06002KT 6SM M08/M16 A3018 RMK T10801160 IEM_DS3505
ZBHH,2007-12-15 05:00,ZBHH 150500Z AUTO 03002KT 6SM M06/M16 A3015 RMK T10601160 IEM_DS3505
ZBHH,2007-12-15 06:00,ZBHH 150600Z AUTO 25004KT 6SM M04/M16 A3015 RMK SLP296 T10431162 57025 IEM_DS3505
ZBHH,2007-12-15 07:00,ZBHH 150700Z AUTO 23004KT 6SM M04/M15 A3012 RMK T10401150 IEM_DS3505
ZBHH,2007-12-15 08:00,ZBHH 150800Z AUTO 00000KT 6SM M03/M16 A3012 RMK T10301160 IEM_DS3505
ZBHH,2007-12-15 09:00,ZBHH 150900Z AUTO 09002KT 9SM M05/M15 A3012 RMK SLP294 T10471148 57006 IEM_DS3505
ZBHH,2007-12-15 10:00,ZBHH 151000Z AUTO 04004KT 4SM M08/M16 A3012 RMK T10801160 IEM_DS3505
ZBHH,2007-12-15 11:00,ZBHH 151100Z AUTO 06002KT 4SM M10/M17 A3012 RMK T11001170 IEM_DS3505
ZBHH,2007-12-15 12:00,ZBHH 151200Z AUTO 07002KT 12SM M07/M15 A3015 RMK SLP307 T10741151 52006 IEM_DS3505
ZBHH,2007-12-15 13:00,ZBHH 151300Z AUTO 10002KT 4SM M14/M18 A3015 RMK T11401180 IEM_DS3505
ZBHH,2007-12-15 14:00,ZBHH 151400Z AUTO 10002KT 4SM M15/M19 A3018 RMK T11501190 IEM_DS3505
ZBHH,2007-12-15 15:00,ZBHH 151500Z AUTO 11002KT 6SM M09/M15 A3018 RMK SLP311 T10931154 52011 IEM_DS3505
ZBHH,2007-12-15 16:00,ZBHH 151600Z AUTO 08004KT 4SM M16/M20 A3018 RMK T11601200 IEM_DS3505
ZBHH,2007-12-15 17:00,ZBHH 151700Z AUTO 03002KT 4SM M16/M19 RMK T11601190 IEM_DS3505
ZBHH,2007-12-15 18:00,ZBHH 151800Z AUTO 25002KT 6SM M11/M15 A3018 RMK SLP306 T11101154 57001 IEM_DS3505
ZBHH,2007-12-15 19:00,ZBHH 151900Z AUTO 09004KT M18/M21 A3018 RMK T11801210 IEM_DS3505
ZBHH,2007-12-15 20:00,ZBHH 152000Z AUTO 11002KT 4SM M17/M20 A3018 RMK T11701200 IEM_DS3505
ZBHH,2007-12-15 21:00,ZBHH 152100Z AUTO 07004KT 12SM M11/M16 A3018 RMK SLP315 T11121161 52006 IEM_DS3505
ZBHH,2007-12-15 22:00,ZBHH 152200Z AUTO 09002KT 4SM M17/M21 A3021 RMK T11701210 IEM_DS3505
ZBHH,2007-12-15 23:00,ZBHH 152300Z AUTO 12002KT 4SM M18/M21 A3021 RMK T11801210 IEM_DS3505
ZBHH,2007-12-16 00:00,ZBHH 160000Z AUTO 34004KT 9SM M11/M15 A3024 RMK SLP335 T11101154 52012 IEM_DS3505
ZBHH,2007-12-16 01:00,ZBHH 160100Z AUTO 03002KT 3SM M14/M17 A3021 RMK T11401170 IEM_DS3505
ZBHH,2007-12-16 02:00,ZBHH 160200Z AUTO 15002KT 4SM M10/M15 A3024 RMK T11001150 IEM_DS3505
ZBHH,2007-12-16 03:00,ZBHH 160300Z AUTO 22002KT 5SM M06/M14 A3027 RMK SLP338 T10621142 52009 IEM_DS3505
ZBHH,2007-12-16 04:00,ZBHH 160400Z AUTO 04002KT 4SM M05/M15 A3024 RMK T10501150 IEM_DS3505
ZBHH,2007-12-16 05:00,ZBHH 160500Z AUTO 00000KT 5SM M03/M15 A3018 RMK T10301150 IEM_DS3505
ZBHH,2007-12-16 06:00,ZBHH 160600Z AUTO 25004KT 6SM M03/M15 A3018 RMK SLP307 T10261150 57023 IEM_DS3505
ZBHH,2007-12-16 07:00,ZBHH 160700Z AUTO 25004KT 6SM M03/M15 A3018 RMK T10301150 IEM_DS3505
ZBHH,2007-12-16 08:00,ZBHH 160800Z AUTO 25004KT 6SM M04/M15 A3018 RMK T10401150 IEM_DS3505
ZBHH,2007-12-16 09:00,ZBHH 160900Z AUTO 27002KT 5SM M03/M14 A3018 RMK SLP308 T10341145 57001 IEM_DS3505
ZBHH,2007-12-16 10:00,ZBHH 161000Z AUTO 00000KT 3SM M08/M15 A3018 RMK T10801150 IEM_DS3505
ZBHH,2007-12-16 11:00,ZBHH 161100Z AUTO 06002KT 3SM M09/M15 A3021 RMK T10901150 IEM_DS3505
ZBHH,2007-12-16 12:00,ZBHH 161200Z AUTO 07002KT 4SM M06/M14 A3021 RMK SLP319 T10591137 52004 IEM_DS3505
ZBHH,2007-12-16 13:00,ZBHH 161300Z AUTO 07002KT 3SM M12/M17 A3021 RMK T11201170 IEM_DS3505
ZBHH,2007-12-16 14:00,ZBHH 161400Z AUTO 05002KT 3SM M13/M17 A3024 RMK T11301170 IEM_DS3505
ZBHH,2007-12-16 15:00,ZBHH 161500Z AUTO 04002KT 4SM M08/M14 A3021 RMK SLP319 T10811143 52006 IEM_DS3505
ZBHH,2007-12-16 16:00,ZBHH 161600Z AUTO 00000KT 4SM M14/M18 A3021 RMK T11401180 IEM_DS3505
ZBHH,2007-12-16 17:00,ZBHH 161700Z AUTO 10004KT 4SM M15/M18 A3018 RMK T11501180 IEM_DS3505
ZBHH,2007-12-16 18:00,ZBHH 161800Z AUTO 14002KT 5SM M09/M15 A3018 RMK SLP303 T10871149 57007 IEM_DS3505
ZBHH,2007-12-16 19:00,ZBHH 161900Z AUTO 10004KT 4SM M13/M16 A3018 RMK T11301160 IEM_DS3505
ZBHH,2007-12-16 20:00,ZBHH 162000Z AUTO 34002KT 4SM M12/M16 A3015 RMK T11201160 IEM_DS3505
ZBHH,2007-12-16 21:00,ZBHH 162100Z AUTO 00000KT 5SM M10/M15 A3015 RMK SLP295 T11011149 57012 IEM_DS3505
ZBHH,2007-12-16 22:00,ZBHH 162200Z AUTO 35002KT 4SM M15/M17 A3015 RMK T11501170 IEM_DS3505
ZBHH,2007-12-16 23:00,ZBHH 162300Z AUTO 09004KT 4SM M17/M20 A3018 RMK T11701200 IEM_DS3505
ZBHH,2007-12-17 00:00,ZBHH 170000Z AUTO 00000KT 5SM M11/M15 A3018 RMK SLP313 T11141146 52007 IEM_DS3505
ZBHH,2007-12-17 01:00,ZBHH 170100Z AUTO 03002KT 1SM M14/M17 A3021 RMK T11401170 IEM_DS3505
ZBHH,2007-12-17 02:00,ZBHH 170200Z AUTO 00000KT 1 1/2SM M12/M15 A3021 RMK T11201150 IEM_DS3505
ZBHH,2007-12-17 03:00,ZBHH 170300Z AUTO 09004KT 4SM M07/M13 A3021 RMK SLP321 T10701130 52012 IEM_DS3505
ZBHH,2007-12-17 04:00,ZBHH 170400Z AUTO 23004KT 2 1/2SM M07/M14 A3021 RMK T10701140 IEM_DS3505
ZBHH,2007-12-17 05:00,ZBHH 170500Z AUTO 26004KT 3SM M05/M13 A3018 RMK T10501130 IEM_DS3505
ZBHH,2007-12-17 06:00,ZBHH 170600Z AUTO 22006KT 9SM M02/M13 A3018 RMK SLP297 T10251131 57012 IEM_DS3505
ZBHH,2007-12-17 07:00,ZBHH 170700Z AUTO 23008KT 3SM M03/M14 A3015 RMK T10301140 IEM_DS3505
ZBHH,2007-12-17 08:00,ZBHH 170800Z AUTO 27008KT 4SM M03/M13 A3018 RMK T10301130 IEM_DS3505
ZBHH,2007-12-17 09:00,ZBHH 170900Z AUTO 32008KT 12SM M02/M17 A3018 RMK SLP301 T10171170 52002 IEM_DS3505
ZBHH,2007-12-17 10:00,ZBHH 171000Z AUTO 28006KT 6SM M06/M18 A3021 RMK T10601180 IEM_DS3505
ZBHH,2007-12-17 11:00,ZBHH 171100Z AUTO 35002KT 6SM M07/M18 A3024 RMK T10701180 IEM_DS3505
ZBHH,2007-12-17 12:00,ZBHH 171200Z AUTO 34004KT 12SM M05/M19 A3024 RMK SLP331 T10471193 52017 IEM_DS3505
ZBHH,2007-12-17 13:00,ZBHH 171300Z AUTO 05002KT 6SM M09/M20 A3027 RMK T10901200 IEM_DS3505
ZBHH,2007-12-17 14:00,ZBHH 171400Z AUTO 03006KT 6SM M11/M20 A3024 RMK T11101200 IEM_DS3505
ZBHH,2007-12-17 15:00,ZBHH 171500Z AUTO 16002KT 12SM M08/M19 A3024 RMK SLP330 T10801187 52001 IEM_DS3505
ZBHH,2007-12-17 16:00,ZBHH 171600Z AUTO 09002KT 6SM M16/M21 A3024 RMK T11601210 IEM_DS3505
ZBHH,2007-12-17 17:00,ZBHH 171700Z AUTO 03002KT 6SM M15/M21 A3024 RMK T11501210 IEM_DS3505
ZBHH,2007-12-17 18:00,ZBHH 171800Z AUTO 09004KT 12SM M11/M17 A3021 RMK SLP312 T11061167 57011 IEM_DS3505
ZBHH,2007-12-17 19:00,ZBHH 171900Z AUTO 09002KT 6SM M18/M23 A3021 RMK T11801230 IEM_DS3505
ZBHH,2007-12-17 20:00,ZBHH 172000Z AUTO 09004KT 6SM M18/M22 A3018 RMK T11801220 IEM_DS3505
ZBHH,2007-12-17 21:00,ZBHH 172100Z AUTO 11002KT 12SM M12/M18 A3018 RMK SLP304 T11181182 57008 IEM_DS3505
ZBHH,2007-12-17 22:00,ZBHH 172200Z AUTO 00000KT 6SM M17/M22 A3018 RMK T11701220 IEM_DS3505
ZBHH,2007-12-17 23:00,ZBHH 172300Z AUTO 10004KT 6SM M20/M23 A3018 RMK T12001230 IEM_DS3505
ZBHH,2007-12-18 00:00,ZBHH 180000Z AUTO 07002KT 12SM M12/M18 A3018 RMK SLP312 T11201182 54000 IEM_DS3505
ZBHH,2007-12-18 01:00,ZBHH 180100Z AUTO 01002KT 2 1/2SM M17/M20 A3018 RMK T11701200 IEM_DS3505
ZBHH,2007-12-18 02:00,ZBHH 180200Z AUTO 00000KT 4SM M11/M16 A3018 RMK T11101160 IEM_DS3505
ZBHH,2007-12-18 03:00,ZBHH 180300Z AUTO 09004KT 7SM M06/M14 A3018 RMK SLP302 T10641144 57004 IEM_DS3505
ZBHH,2007-12-18 04:00,ZBHH 180400Z AUTO 17002KT 6SM M06/M14 A3012 RMK T10601140 IEM_DS3505
ZBHH,2007-12-18 05:00,ZBHH 180500Z AUTO 21002KT 6SM M04/M14 A3009 RMK T10401140 IEM_DS3505
ZBHH,2007-12-18 06:00,ZBHH 180600Z AUTO 02004KT 6SM M04/M14 A3003 RMK SLP259 T10351137 57037 IEM_DS3505
ZBHH,2007-12-18 07:00,ZBHH 180700Z AUTO 24006KT 6SM M03/M14 A3000 RMK T10301140 IEM_DS3505
ZBHH,2007-12-18 08:00,ZBHH 180800Z AUTO 30004KT 6SM M04/M14 A3000 RMK T10401140 IEM_DS3505
ZBHH,2007-12-18 09:00,ZBHH 180900Z AUTO 34002KT 6SM M04/M13 A3000 RMK SLP246 T10391133 57015 IEM_DS3505
ZBHH,2007-12-18 10:00,ZBHH 181000Z AUTO 03002KT 4SM M08/M15 A3000 RMK T10801150 IEM_DS3505
ZBHH,2007-12-18 11:00,ZBHH 181100Z AUTO 11002KT 3SM M09/M15 A3000 RMK T10901150 IEM_DS3505
ZBHH,2007-12-18 12:00,ZBHH 181200Z AUTO 09002KT 6SM M06/M13 A3003 RMK SLP261 T10651134 52007 IEM_DS3505
ZBHH,2007-12-18 13:00,ZBHH 181300Z AUTO 04002KT 3SM M12/M16 A3003 RMK T11201160 IEM_DS3505
ZBHH,2007-12-18 14:00,ZBHH 181400Z AUTO 00000KT 3SM M13/M17 A3003 RMK T11301170 IEM_DS3505
ZBHH,2007-12-18 15:00,ZBHH 181500Z AUTO 18002KT 9SM M09/M14 A3003 RMK SLP254 T10861142 52002 IEM_DS3505
ZBHH,2007-12-18 16:00,ZBHH 181600Z AUTO 05004KT 3SM M14/M17 A3003 RMK T11401170 IEM_DS3505
ZBHH,2007-12-18 17:00,ZBHH 181700Z AUTO 00000KT 4SM M15/M18 A3000 RMK T11501180 IEM_DS3505
ZBHH,2007-12-18 18:00,ZBHH 181800Z AUTO 00000KT 12SM M11/M15 A3000 RMK SLP243 T11091148 57008 IEM_DS3505
ZBHH,2007-12-18 19:00,ZBHH 181900Z AUTO 07002KT 4SM M18/M20 A3000 RMK T11801200 IEM_DS3505
ZBHH,2007-12-18 20:00,ZBHH 182000Z AUTO 03002KT 4SM M16/M19 A3000 RMK T11601190 IEM_DS3505
ZBHH,2007-12-18 21:00,ZBHH 182100Z AUTO 04004KT 12SM M11/M15 A3000 RMK SLP243 T11111147 57002 IEM_DS3505
ZBHH,2007-12-18 22:00,ZBHH 182200Z AUTO 12002KT 6SM M17/M21 A3000 RMK T11701210 IEM_DS3505
ZBHH,2007-12-18 23:00,ZBHH 182300Z AUTO 01004KT 6SM M17/M20 A3000 RMK T11701200 IEM_DS3505
ZBHH,2007-12-19 00:00,ZBHH 190000Z AUTO 09002KT 6SM M11/M15 A3000 RMK SLP257 T11141151 52006 IEM_DS3505
ZBHH,2007-12-19 01:00,ZBHH 190100Z AUTO 10002KT 4SM M17/M20 A3003 RMK T11701200 IEM_DS3505
ZBHH,2007-12-19 02:00,ZBHH 190200Z AUTO 07002KT 4SM M11/M15 A3003 RMK T11101150 IEM_DS3505
ZBHH,2007-12-19 03:00,ZBHH 190300Z AUTO 16002KT 6SM M06/M14 A3003 RMK SLP255 T10581136 52006 IEM_DS3505
ZBHH,2007-12-19 04:00,ZBHH 190400Z AUTO 11002KT 6SM M05/M14 A3000 RMK T10501140 IEM_DS3505
ZBHH,2007-12-19 05:00,ZBHH 190500Z AUTO 31002KT 6SM M04/M14 A2997 RMK T10401140 IEM_DS3505
ZBHH,2007-12-19 06:00,ZBHH 190600Z AUTO 11004KT 6SM M03/M13 A2994 RMK SLP218 T10271130 57030 IEM_DS3505
ZBHH,2007-12-19 07:00,ZBHH 190700Z AUTO 21004KT 5SM M03/M13 A2994 RMK T10301130 IEM_DS3505
ZBHH,2007-12-19 08:00,ZBHH 190800Z AUTO 27002KT 5SM M03/M14 A2994 RMK T10301140 IEM_DS3505
ZBHH,2007-12-19 09:00,ZBHH 190900Z AUTO 09002KT 6SM M04/M13 A2994 RMK SLP219 T10361130 57002 IEM_DS3505
ZBHH,2007-12-19 10:00,ZBHH 191000Z AUTO 01004KT 2SM M07/M14 A2994 RMK T10701140 IEM_DS3505
ZBHH,2007-12-19 11:00,ZBHH 191100Z AUTO 02004KT 3SM M10/M16 A2994 RMK T11001160 IEM_DS3505
ZBHH,2007-12-19 12:00,ZBHH 191200Z AUTO 32002KT 6SM M07/M14 A2997 RMK SLP241 T10711138 52011 IEM_DS3505
ZBHH,2007-12-19 13:00,ZBHH 191300Z AUTO 06002KT 4SM M11/M16 A3000 RMK T11101160 IEM_DS3505
ZBHH,2007-12-19 14:00,ZBHH 191400Z AUTO 09004KT 4SM M14/M18 A3000 RMK T11401180 IEM_DS3505
ZBHH,2007-12-19 15:00,ZBHH 191500Z AUTO 04002KT 6SM M08/M15 A3003 RMK SLP248 T10821148 52016 IEM_DS3505
ZBHH,2007-12-19 16:00,ZBHH 191600Z AUTO 10002KT 4SM M14/M19 A3003 RMK T11401190 IEM_DS3505
ZBHH,2007-12-19 17:00,ZBHH 191700Z AUTO 09004KT 4SM M16/M20 A3003 RMK T11601200 IEM_DS3505
ZBHH,2007-12-19 18:00,ZBHH 191800Z AUTO 14002KT 5SM M09/M15 A3003 RMK SLP246 T10931147 52003 IEM_DS3505
ZBHH,2007-12-19 19:00,ZBHH 191900Z AUTO 22002KT 4SM M15/M19 A3003 RMK T11501190 IEM_DS3505
ZBHH,2007-12-19 20:00,ZBHH 192000Z AUTO 10004KT M15/M19 A3003 RMK T11501190 IEM_DS3505
ZBHH,2007-12-19 21:00,ZBHH 192100Z AUTO 00000KT 5SM M10/M16 A3003 RMK SLP258 T11041155 52006 IEM_DS3505
ZBHH,2007-12-19 22:00,ZBHH 192200Z AUTO 19002KT 6SM M17/M21 A3006 RMK T11701210 IEM_DS3505
ZBHH,2007-12-19 23:00,ZBHH 192300Z AUTO 00000KT 6SM M15/M20 A3009 RMK T11501200 IEM_DS3505
ZBHH,2007-12-20 00:00,ZBHH 200000Z AUTO 32002KT 4SM M11/M15 A3012 RMK SLP293 T11091151 52021 IEM_DS3505
ZBHH,2007-12-20 01:00,ZBHH 200100Z AUTO 10002KT 4SM M14/M18 A3015 RMK T11401180 IEM_DS3505
ZBHH,2007-12-20 02:00,ZBHH 200200Z AUTO 12002KT 6SM M09/M16 A3015 RMK T10901160 IEM_DS3505
ZBHH,2007-12-20 03:00,ZBHH 200300Z AUTO 25002KT 3SM M05/M14 A3015 RMK SLP296 T10471138 52014 IEM_DS3505
ZBHH,2007-12-20 04:00,ZBHH 200400Z AUTO 36002KT 6SM M04/M17 A3015 RMK T10401170 IEM_DS3505
ZBHH,2007-12-20 05:00,ZBHH 200500Z AUTO 13002KT 6SM M02/M17 A3012 RMK T10201170 IEM_DS3505
ZBHH,2007-12-20 06:00,ZBHH 200600Z AUTO 20004KT 4SM M00/M15 A3012 RMK SLP273 T10021153 57012 IEM_DS3505
ZBHH,2007-12-20 07:00,ZBHH 200700Z AUTO 26002KT 6SM M01/M16 A3012 RMK T10101160 IEM_DS3505
ZBHH,2007-12-20 08:00,ZBHH 200800Z AUTO 24002KT 6SM M01/M16 A3012 RMK T10101160 IEM_DS3505
ZBHH,2007-12-20 09:00,ZBHH 200900Z AUTO 25002KT 6SM M02/M15 A3015 RMK SLP290 T10161154 52009 IEM_DS3505
ZBHH,2007-12-20 10:00,ZBHH 201000Z AUTO 00000KT 2 1/2SM M05/M15 A3018 RMK T10501150 IEM_DS3505
ZBHH,2007-12-20 11:00,ZBHH 201100Z AUTO 02004KT 2 1/2SM M09/M17 A3018 RMK T10901170 IEM_DS3505
ZBHH,2007-12-20 12:00,ZBHH 201200Z AUTO 32002KT 7SM M06/M14 A3021 RMK SLP320 T10581143 52016 IEM_DS3505
ZBHH,2007-12-20 13:00,ZBHH 201300Z AUTO 09004KT 4SM M13/M18 A3021 RMK T11301180 IEM_DS3505
ZBHH,2007-12-20 14:00,ZBHH 201400Z AUTO 09006KT 4SM M14/M18 A3021 RMK T11401180 IEM_DS3505
ZBHH,2007-12-20 15:00,ZBHH 201500Z AUTO 07004KT 5SM M07/M15 A3024 RMK SLP315 T10721154 52006 IEM_DS3505
ZBHH,2007-12-20 16:00,ZBHH 201600Z AUTO 09004KT 4SM M13/M19 A3021 RMK T11301190 IEM_DS3505
ZBHH,2007-12-20 17:00,ZBHH 201700Z AUTO 08004KT 4SM M12/M18 A3021 RMK T11201180 IEM_DS3505
ZBHH,2007-12-20 18:00,ZBHH 201800Z AUTO 09004KT 7SM M11/M16 A3021 RMK SLP303 T11071155 57008 IEM_DS3505
ZBHH,2007-12-20 19:00,ZBHH 201900Z AUTO 08002KT 4SM M14/M18 A3021 RMK T11401180 IEM_DS3505
ZBHH,2007-12-20 20:00,ZBHH 202000Z AUTO 08004KT 4SM M16/M19 A3021 RMK T11601190 IEM_DS3505
ZBHH,2007-12-20 21:00,ZBHH 202100Z AUTO 09002KT 9SM M12/M16 A3021 RMK SLP308 T11181158 57001 IEM_DS3505
ZBHH,2007-12-20 22:00,ZBHH 202200Z AUTO 09006KT 6SM M16/M20 A3018 RMK T11601200 IEM_DS3505
ZBHH,2007-12-20 23:00,ZBHH 202300Z AUTO 07004KT 6SM M16/M19 A3021 RMK T11601190 IEM_DS3505
ZBHH,2007-12-21 00:00,ZBHH 210000Z AUTO 07002KT 6SM M11/M16 A3021 RMK SLP321 T11111160 52003 IEM_DS3505
ZBHH,2007-12-21 01:00,ZBHH 210100Z AUTO 08002KT 4SM M13/M17 A3021 RMK T11301170 IEM_DS3505
ZBHH,2007-12-21 02:00,ZBHH 210200Z AUTO 09004KT 4SM M09/M15 A3021 RMK T10901150 IEM_DS3505
ZBHH,2007-12-21 03:00,ZBHH 210300Z AUTO 11002KT 5SM M03/M14 A3018 RMK SLP300 T10261140 57002 IEM_DS3505
ZBHH,2007-12-21 04:00,ZBHH 210400Z AUTO 36002KT 4SM M02/M14 A3015 RMK T10201140 IEM_DS3505
ZBHH,2007-12-21 05:00,ZBHH 210500Z AUTO 15002KT 5SM 00/M15 A3012 RMK T00001150 IEM_DS3505
ZBHH,2007-12-21 06:00,ZBHH 210600Z AUTO 04002KT 6SM 00/M14 A3009 RMK SLP266 T00011143 57032 IEM_DS3505
ZBHH,2007-12-21 07:00,ZBHH 210700Z AUTO 34002KT 5SM 00/M14 A3006 RMK T00001140 IEM_DS3505
ZBHH,2007-12-21 08:00,ZBHH 210800Z AUTO 36002KT 5SM 00/M14 A3006 RMK T00001140 IEM_DS3505
ZBHH,2007-12-21 09:00,ZBHH 210900Z AUTO 02002KT 6SM M00/M14 A3006 RMK SLP259 T10021135 57009 IEM_DS3505
ZBHH,2007-12-21 10:00,ZBHH 211000Z AUTO 02004KT 3SM M03/M14 A3006 RMK T10301140 IEM_DS3505
ZBHH,2007-12-21 11:00,ZBHH 211100Z AUTO 09004KT 4SM M05/M14 A3006 RMK T10501140 IEM_DS3505
ZBHH,2007-12-21 12:00,ZBHH 211200Z AUTO 09002KT 5SM M02/M14 A3006 RMK SLP261 T10171135 54000 IEM_DS3505
ZBHH,2007-12-21 13:00,ZBHH 211300Z AUTO 02002KT 4SM M06/M13 A3006 RMK T10601130 IEM_DS3505
ZBHH,2007-12-21 14:00,ZBHH 211400Z AUTO 11002KT 4SM M07/M14 A3006 RMK T10701140 IEM_DS3505
ZBHH,2007-12-21 15:00,ZBHH 211500Z AUTO 36002KT 5SM M03/M13 A3006 RMK SLP248 T10291126 52005 IEM_DS3505
ZBHH,2007-12-21 16:00,ZBHH 211600Z AUTO 04002KT 6SM M06/M13 A3006 RMK T10601130 IEM_DS3505
ZBHH,2007-12-21 17:00,ZBHH 211700Z AUTO 10002KT 6SM M05/M13 A3006 RMK T10501130 IEM_DS3505
ZBHH,2007-12-21 18:00,ZBHH 211800Z AUTO 02002KT 5SM M03/M13 A3006 RMK SLP236 T10261126 57004 IEM_DS3505
ZBHH,2007-12-21 19:00,ZBHH 211900Z AUTO 08002KT 6SM M08/M14 A3006 RMK T10801140 IEM_DS3505
ZBHH,2007-12-21 20:00,ZBHH 212000Z AUTO 05002KT 6SM M09/M14 A3006 RMK T10901140 IEM_DS3505
ZBHH,2007-12-21 21:00,ZBHH 212100Z AUTO 36002KT 5SM M07/M12 A3006 RMK SLP244 T10731122 57004 IEM_DS3505
ZBHH,2007-12-21 22:00,ZBHH 212200Z AUTO 00000KT 6SM M11/M16 A3009 RMK T11101160 IEM_DS3505
ZBHH,2007-12-21 23:00,ZBHH 212300Z AUTO 09006KT 6SM M13/M17 A3009 RMK T11301170 IEM_DS3505
ZBHH,2007-12-22 00:00,ZBHH 220000Z AUTO 09002KT 7SM M07/M14 A3015 RMK SLP275 T10731141 52024 IEM_DS3505
ZBHH,2007-12-22 01:00,ZBHH 220100Z AUTO 12002KT 4SM M12/M16 A3018 RMK T11201160 IEM_DS3505
ZBHH,2007-12-22 02:00,ZBHH 220200Z AUTO 4SM M06/M14 A3018 RMK T10601140 IEM_DS3505
ZBHH,2007-12-22 03:00,ZBHH 220300Z AUTO 22006G16KT 4SM M02/M13 A3018 RMK SLP291 T10241130 52022 IEM_DS3505
ZBHH,2007-12-22 04:00,ZBHH 220400Z AUTO 23008KT 6SM M01/M13 A3021 RMK T10101130 IEM_DS3505
ZBHH,2007-12-22 05:00,ZBHH 220500Z AUTO 25008KT 3SM 00/M13 A3021 RMK T00001130 IEM_DS3505
ZBHH,2007-12-22 06:00,ZBHH 220600Z AUTO 25004KT 4SM M00/M13 A3018 RMK SLP283 T10031126 57002 IEM_DS3505
ZBHH,2007-12-22 07:00,ZBHH 220700Z AUTO 26006KT 2SM 00/M13 A3018 RMK T00001130 IEM_DS3505
ZBHH,2007-12-22 08:00,ZBHH 220800Z AUTO 25002KT 2SM M01/M13 A3021 RMK T10101130 IEM_DS3505
ZBHH,2007-12-22 09:00,ZBHH 220900Z AUTO 34002KT 6SM M00/M13 A3024 RMK SLP305 T10021131 52009 IEM_DS3505
ZBHH,2007-12-22 10:00,ZBHH 221000Z AUTO 36002KT 4SM M03/M16 A3024 RMK T10301160 IEM_DS3505
ZBHH,2007-12-22 11:00,ZBHH 221100Z AUTO 02004KT 6SM M02/M17 A3027 RMK T10201170 IEM_DS3505
ZBHH,2007-12-22 12:00,ZBHH 221200Z AUTO 04004KT 12SM M01/M17 A3030 RMK SLP337 T10131171 52026 IEM_DS3505
ZBHH,2007-12-22 13:00,ZBHH 221300Z AUTO 33006KT 6SM M05/M17 A3033 RMK T10501170 IEM_DS3505
ZBHH,2007-12-22 14:00,ZBHH 221400Z AUTO 35006KT 6SM M05/M17 A3033 RMK T10501170 IEM_DS3505
ZBHH,2007-12-22 15:00,ZBHH 221500Z AUTO 29002KT 12SM M05/M16 A3036 RMK SLP352 T10471162 52016 IEM_DS3505
ZBHH,2007-12-22 16:00,ZBHH 221600Z AUTO 07004KT 6SM M10/M18 A3036 RMK T11001180 IEM_DS3505
ZBHH,2007-12-22 17:00,ZBHH 221700Z AUTO 09006KT 6SM M13/M18 A3036 RMK T11301180 IEM_DS3505
ZBHH,2007-12-22 18:00,ZBHH 221800Z AUTO 09004KT 12SM M06/M16 A3036 RMK SLP349 T10581158 54000 IEM_DS3505
ZBHH,2007-12-22 19:00,ZBHH 221900Z AUTO 08006KT A3036 RMK IEM_DS3505
ZBHH,2007-12-22 20:00,ZBHH 222000Z AUTO 08004KT 6SM M12/M18 A3036 RMK T11201180 IEM_DS3505
ZBHH,2007-12-22 21:00,ZBHH 222100Z AUTO 09006KT 12SM M08/M16 A3036 RMK SLP345 T10801159 57008 IEM_DS3505
ZBHH,2007-12-22 22:00,ZBHH 222200Z AUTO 09008KT 6SM M13/M18 A3033 RMK T11301180 IEM_DS3505
ZBHH,2007-12-22 23:00,ZBHH 222300Z AUTO 09004KT 6SM M14/M19 A3033 RMK T11401190 IEM_DS3505
ZBHH,2007-12-23 00:00,ZBHH 230000Z AUTO 27002KT 12SM M09/M17 A3030 RMK SLP340 T10921166 57010 IEM_DS3505
ZBHH,2007-12-23 01:00,ZBHH 230100Z AUTO 11002KT 4SM M14/M19 A3033 RMK T11401190 IEM_DS3505
ZBHH,2007-12-23 02:00,ZBHH 230200Z AUTO 13004KT 6SM M07/M17 A3033 RMK T10701170 IEM_DS3505
ZBHH,2007-12-23 03:00,ZBHH 230300Z AUTO 04004KT 9SM M03/M18 A3033 RMK SLP346 T10301181 52012 IEM_DS3505
ZBHH,2007-12-23 04:00,ZBHH 230400Z AUTO 04004KT 6SM M02/M18 A3033 RMK T10201180 IEM_DS3505
ZBHH,2007-12-23 05:00,ZBHH 230500Z AUTO 16004KT 6SM M01/M18 A3027 RMK T10101180 IEM_DS3505
ZBHH,2007-12-23 06:00,ZBHH 230600Z AUTO 09004KT 19SM 01/M18 A3024 RMK SLP300 T00111183 57034 IEM_DS3505
ZBHH,2007-12-23 07:00,ZBHH 230700Z AUTO 06004KT 6SM 01/M20 A3021 RMK T00101200 IEM_DS3505
ZBHH,2007-12-23 08:00,ZBHH 230800Z AUTO 33002KT 6SM 01/M21 A3018 RMK T00101210 IEM_DS3505
ZBHH,2007-12-23 09:00,ZBHH 230900Z AUTO 34002KT 12SM M00/M21 A3018 RMK SLP292 T10011210 57014 IEM_DS3505
ZBHH,2007-12-23 10:00,ZBHH 231000Z AUTO 02002KT 3SM M04/M20 A3021 RMK T10401200 IEM_DS3505
ZBHH,2007-12-23 11:00,ZBHH 231100Z AUTO 08004KT 4SM M06/M20 A3021 RMK T10601200 IEM_DS3505
ZBHH,2007-12-23 12:00,ZBHH 231200Z AUTO 07004KT 12SM M03/M18 A3021 RMK SLP310 T10301181 52006 IEM_DS3505
ZBHH,2007-12-23 13:00,ZBHH 231300Z AUTO 10006KT 3SM M09/M18 A3021 RMK T10901180 IEM_DS3505
ZBHH,2007-12-23 14:00,ZBHH 231400Z AUTO 10004KT 6SM M10/M19 A3021 RMK T11001190 IEM_DS3505
ZBHH,2007-12-23 15:00,ZBHH 231500Z AUTO 00000KT 12SM M04/M16 A3021 RMK SLP295 T10441160 57002 IEM_DS3505
ZBHH,2007-12-23 16:00,ZBHH 231600Z AUTO 04002KT 6SM M09/M17 A3021 RMK T10901170 IEM_DS3505
ZBHH,2007-12-23 17:00,ZBHH 231700Z AUTO 04002KT 6SM M10/M17 A3018 RMK T11001170 IEM_DS3505
ZBHH,2007-12-23 18:00,ZBHH 231800Z AUTO 04002KT 12SM M03/M16 A3018 RMK SLP272 T10291159 57008 IEM_DS3505
ZBHH,2007-12-23 19:00,ZBHH 231900Z AUTO 05002KT 6SM M07/M16 A3018 RMK T10701160 IEM_DS3505
ZBHH,2007-12-23 20:00,ZBHH 232000Z AUTO 04002KT 6SM M06/M15 A3018 RMK T10601150 IEM_DS3505
ZBHH,2007-12-23 21:00,ZBHH 232100Z AUTO 25002KT 12SM M03/M14 A3015 RMK SLP267 T10271141 57007 IEM_DS3505
ZBHH,2007-12-23 22:00,ZBHH 232200Z AUTO 08002KT 7SM M06/M13 A3015 RMK T10601130 IEM_DS3505
ZBHH,2007-12-23 23:00,ZBHH 232300Z AUTO 10004KT 5SM M05/M13 A3015 RMK T10501130 IEM_DS3505
ZBHH,2007-12-24 00:00,ZBHH 240000Z AUTO 07004KT 6SM M02/M15 A3015 RMK SLP273 T10251146 54000 IEM_DS3505
ZBHH,2007-12-24 01:00,ZBHH 240100Z AUTO 09002KT 3SM M05/M11 A3015 RMK T10501110 IEM_DS3505
ZBHH,2007-12-24 02:00,ZBHH 240200Z AUTO 36002KT 1 1/4SM M04/M09 A3015 RMK T10401090 IEM_DS3505
ZBHH,2007-12-24 03:00,ZBHH 240300Z AUTO 07002KT 5SM M02/M08 A3018 RMK SLP283 T10241083 52006 IEM_DS3505
ZBHH,2007-12-24 04:00,ZBHH 240400Z AUTO 35002KT 1 1/4SM M04/M07 A3015 RMK T10401070 IEM_DS3505
ZBHH,2007-12-24 05:00,ZBHH 240500Z AUTO 00000KT 1 1/4SM M03/M06 A3012 RMK T10301060 IEM_DS3505
ZBHH,2007-12-24 06:00,ZBHH 240600Z AUTO 09004KT 5SM M02/M05 A3012 RMK 60000 SLP258 T10161048 57017 IEM_DS3505
ZBHH,2007-12-24 07:00,ZBHH 240700Z AUTO 12002KT 1 1/2SM M02/M04 A3012 RMK T10201040 IEM_DS3505
ZBHH,2007-12-24 08:00,ZBHH 240800Z AUTO 00000KT 1 1/4SM M02/M04 A3012 RMK T10201040 IEM_DS3505
ZBHH,2007-12-24 09:00,ZBHH 240900Z AUTO 11002KT 5SM M01/M04 A3012 RMK SLP263 T10141037 52005 IEM_DS3505
ZBHH,2007-12-24 10:00,ZBHH 241000Z AUTO 09002KT 1 1/4SM M03/M04 A3015 RMK T10301040 IEM_DS3505
ZBHH,2007-12-24 11:00,ZBHH 241100Z AUTO 00000KT 1 1/4SM M03/M04 A3018 RMK T10301040 IEM_DS3505
ZBHH,2007-12-24 12:00,ZBHH 241200Z AUTO 09002KT 5SM M01/M03 A3018 RMK 60000 SLP280 T10111033 52016 IEM_DS3505
ZBHH,2007-12-24 13:00,ZBHH 241300Z AUTO 00000KT 1 1/4SM M04/M05 A3021 RMK T10401050 IEM_DS3505
ZBHH,2007-12-24 14:00,ZBHH 241400Z AUTO 05002KT 1 1/4SM M04/M05 A3018 RMK T10401050 IEM_DS3505
ZBHH,2007-12-24 15:00,ZBHH 241500Z AUTO 00000KT 4SM M01/M03 A3021 RMK SLP284 T10091031 52004 IEM_DS3505
ZBHH,2007-12-24 16:00,ZBHH 241600Z AUTO 00000KT 1 1/4SM M03/M05 A3018 RMK T10301050 IEM_DS3505
ZBHH,2007-12-24 17:00,ZBHH 241700Z AUTO 11002KT 1 1/4SM M04/M05 A3018 RMK T10401050 IEM_DS3505
ZBHH,2007-12-24 18:00,ZBHH 241800Z AUTO 09002KT 5SM M01/M03 A3018 RMK SLP277 T10091029 57004 IEM_DS3505
ZBHH,2007-12-24 19:00,ZBHH 241900Z AUTO 10002KT 1 1/4SM M04/M05 A3018 RMK T10401050 IEM_DS3505
ZBHH,2007-12-24 20:00,ZBHH 242000Z AUTO 00000KT 1 1/4SM M04/M05 A3018 RMK T10401050 IEM_DS3505
ZBHH,2007-12-24 21:00,ZBHH 242100Z AUTO 07002KT 6SM M01/M03 A3018 RMK 70000 SLP274 T10131030 57003 IEM_DS3505
ZBHH,2007-12-24 22:00,ZBHH 242200Z AUTO 12004KT 1 1/4SM M04/M04 A3018 RMK T10401040 IEM_DS3505
ZBHH,2007-12-24 23:00,ZBHH 242300Z AUTO 12002KT 1 1/4SM M04/M05 A3018 RMK T10401050 IEM_DS3505
ZBHH,2007-12-25 00:00,ZBHH 250000Z AUTO 09002KT 4SM M01/M03 A3021 RMK 70000 SLP281 T10091026 52007 IEM_DS3505
ZBHH,2007-12-25 01:00,ZBHH 250100Z AUTO 00000KT 1SM M03/M04 A3021 RMK T10301040 IEM_DS3505
ZBHH,2007-12-25 02:00,ZBHH 250200Z AUTO 06002KT 1/2SM M02/M03 A3021 RMK T10201030 IEM_DS3505
ZBHH,2007-12-25 03:00,ZBHH 250300Z AUTO 11002KT 5SM M00/M02 A3024 RMK SLP290 T10031016 52010 IEM_DS3505
ZBHH,2007-12-25 04:00,ZBHH 250400Z AUTO 14002KT 1SM M01/M02 A3021 RMK T10101020 IEM_DS3505
ZBHH,2007-12-25 05:00,ZBHH 250500Z AUTO 20002KT 1SM M01/M03 A3018 RMK T10101030 IEM_DS3505
ZBHH,2007-12-25 06:00,ZBHH 250600Z AUTO 20006KT 5SM 00/M02 A3018 RMK 60002 SLP274 T00021017 57013 IEM_DS3505
ZBHH,2007-12-25 07:00,ZBHH 250700Z AUTO 24004KT 1 1/4SM 00/M02 A3018 RMK T00001020 IEM_DS3505
ZBHH,2007-12-25 08:00,ZBHH 250800Z AUTO 21002KT 2SM 00/M03 A3018 RMK T00001030 IEM_DS3505
ZBHH,2007-12-25 09:00,ZBHH 250900Z AUTO 00000KT 5SM 01/M02 A3018 RMK SLP274 T00071022 54000 IEM_DS3505
ZBHH,2007-12-25 10:00,ZBHH 251000Z AUTO 00000KT 1 1/4SM M01/M03 A3021 RMK T10101030 IEM_DS3505
ZBHH,2007-12-25 11:00,ZBHH 251100Z AUTO 00000KT 1 1/2SM M02/M03 A3021 RMK T10201030 IEM_DS3505
ZBHH,2007-12-25 12:00,ZBHH 251200Z AUTO 20006KT 6SM 01/M04 A3021 RMK 60000 SLP283 T00091043 52009 IEM_DS3505
ZBHH,2007-12-25 13:00,ZBHH 251300Z AUTO 13002KT 1 1/2SM M03/M04 A3024 RMK T10301040 IEM_DS3505
ZBHH,2007-12-25 14:00,ZBHH 251400Z AUTO 11004KT 2SM M03/M04 A3024 RMK T10301040 IEM_DS3505
ZBHH,2007-12-25 15:00,ZBHH 251500Z AUTO 00000KT 6SM 00/M03 A3024 RMK SLP286 T00041033 52003 IEM_DS3505
ZBHH,2007-12-25 16:00,ZBHH 251600Z AUTO 12002KT 2SM M03/M04 A3024 RMK T10301040 IEM_DS3505
ZBHH,2007-12-25 17:00,ZBHH 251700Z AUTO 28002KT 2 1/2SM M03/M05 A3024 RMK T10301050 IEM_DS3505
ZBHH,2007-12-25 18:00,ZBHH 251800Z AUTO 22004KT 6SM M00/M04 A3024 RMK SLP286 T10021037 54000 IEM_DS3505
ZBHH,2007-12-25 19:00,ZBHH 251900Z AUTO 23002KT 2 1/2SM M02/M05 A3024 RMK T10201050 IEM_DS3505
ZBHH,2007-12-25 20:00,ZBHH 252000Z AUTO 15002KT 2 1/2SM M03/M05 A3024 RMK T10301050 IEM_DS3505
ZBHH,2007-12-25 21:00,ZBHH 252100Z AUTO 20004KT 6SM M01/M04 A3024 RMK 70002 SLP288 T10081040 52002 IEM_DS3505
ZBHH,2007-12-25 22:00,ZBHH 252200Z AUTO 00000KT 2 1/2SM M03/M05 A3024 RMK T10301050 IEM_DS3505
ZBHH,2007-12-25 23:00,ZBHH 252300Z AUTO 07002KT 2SM M03/M05 A3024 RMK T10301050 IEM_DS3505
ZBHH,2007-12-26 00:00,ZBHH 260000Z AUTO 07004KT 4SM M01/M03 A3024 RMK 60002 70003 SLP294 T10111033 52005 IEM_DS3505
ZBHH,2007-12-26 01:00,ZBHH 260100Z AUTO 10004KT 1 1/2SM M03/M04 A3027 RMK T10301040 IEM_DS3505
ZBHH,2007-12-26 02:00,ZBHH 260200Z AUTO 09004KT 2SM M02/M04 A3027 RMK T10201040 IEM_DS3505
ZBHH,2007-12-26 03:00,ZBHH 260300Z AUTO 04004KT 4SM M01/M03 A3027 RMK SLP298 T10071032 52003 IEM_DS3505
ZBHH,2007-12-26 04:00,ZBHH 260400Z AUTO 14002KT 2 1/2SM M01/M04 A3024 RMK T10101040 IEM_DS3505
ZBHH,2007-12-26 05:00,ZBHH 260500Z AUTO 17004KT 2SM M01/M03 A3021 RMK T10101030 IEM_DS3505
ZBHH,2007-12-26 06:00,ZBHH 260600Z AUTO 07004KT 4SM M00/M03 A3018 RMK 60000 SLP273 T10011030 57022 IEM_DS3505
ZBHH,2007-12-26 07:00,ZBHH 260700Z AUTO 10002KT 2SM M01/M04 A3018 RMK T10101040 IEM_DS3505
ZBHH,2007-12-26 08:00,ZBHH 260800Z AUTO 00000KT 1SM M01/M03 A3018 RMK T10101030 IEM_DS3505
ZBHH,2007-12-26 09:00,ZBHH 260900Z AUTO 07002KT 4SM M01/M02 A3018 RMK SLP277 T10061023 52001 IEM_DS3505
ZBHH,2007-12-26 10:00,ZBHH 261000Z AUTO 00000KT 1SM M02/M03 A3021 RMK T10201030 IEM_DS3505
ZBHH,2007-12-26 11:00,ZBHH 261100Z AUTO 00000KT 1SM M02/M03 A3021 RMK T10201030 IEM_DS3505
ZBHH,2007-12-26 12:00,ZBHH 261200Z AUTO 34002KT 4SM M01/M02 A3021 RMK 60008 SLP285 T10081022 52006 IEM_DS3505
ZBHH,2007-12-26 13:00,ZBHH 261300Z AUTO 00000KT 1SM M03/M03 A3021 RMK T10301030 IEM_DS3505
ZBHH,2007-12-26 14:00,ZBHH 261400Z AUTO 11002KT 1SM M03/M04 A3018 RMK T10301040 IEM_DS3505
ZBHH,2007-12-26 15:00,ZBHH 261500Z AUTO 11002KT 4SM M01/M02 A3018 RMK SLP273 T10101021 57010 IEM_DS3505
ZBHH,2007-12-26 16:00,ZBHH 261600Z AUTO 33002KT 1 1/4SM M03/M03 A3018 RMK T10301030 IEM_DS3505
ZBHH,2007-12-26 17:00,ZBHH 261700Z AUTO 01002KT 1 1/4SM M03/M04 A3015 RMK T10301040 IEM_DS3505
ZBHH,2007-12-26 18:00,ZBHH 261800Z AUTO 09002KT 6SM M01/M03 A3015 RMK 60004 SLP260 T10131026 57011 IEM_DS3505
ZBHH,2007-12-26 19:00,ZBHH 261900Z AUTO 00000KT 1 1/4SM M03/M04 A3012 RMK T10301040 IEM_DS3505
ZBHH,2007-12-26 20:00,ZBHH 262000Z AUTO 13002KT 1 1/4SM M04/M05 A3009 RMK T10401050 IEM_DS3505
ZBHH,2007-12-26 21:00,ZBHH 262100Z AUTO 29002KT 5SM M01/M02 A3009 RMK 70015 SLP240 T10121025 57018 IEM_DS3505
ZBHH,2007-12-26 22:00,ZBHH 262200Z AUTO 00000KT 1SM M03/M04 A3009 RMK T10301040 IEM_DS3505
ZBHH,2007-12-26 23:00,ZBHH 262300Z AUTO 00000KT 1SM M04/M04 A3006 RMK T10401040 IEM_DS3505
ZBHH,2007-12-27 00:00,ZBHH 270000Z AUTO 25002KT 5SM M02/M03 A3009 RMK 60004 70015 SLP243 T10181034 52001 IEM_DS3505
ZBHH,2007-12-27 01:00,ZBHH 270100Z AUTO 10002KT 1SM M04/M04 A3009 RMK T10401040 IEM_DS3505
ZBHH,2007-12-27 02:00,ZBHH 270200Z AUTO 12002KT 1SM M03/M04 A3009 RMK T10301040 IEM_DS3505
ZBHH,2007-12-27 03:00,ZBHH 270300Z AUTO 07002KT 5SM M01/M03 A3009 RMK SLP244 T10131029 52001 IEM_DS3505
ZBHH,2007-12-27 04:00,ZBHH 270400Z AUTO 17002KT 1SM M02/M04 A3006 RMK T10201040 IEM_DS3505
ZBHH,2007-12-27 05:00,ZBHH 270500Z AUTO 00000KT 1SM M02/M03 A3003 RMK T10201030 IEM_DS3505
ZBHH,2007-12-27 06:00,ZBHH 270600Z AUTO 25002KT 5SM M01/M03 A3003 RMK 60004 SLP224 T10081027 57017 IEM_DS3505
ZBHH,2007-12-27 07:00,ZBHH 270700Z AUTO 21002KT 1 1/2SM M02/M03 A3003 RMK T10201030 IEM_DS3505
ZBHH,2007-12-27 08:00,ZBHH 270800Z AUTO 23008KT 1SM M02/M03 A3006 RMK T10201030 IEM_DS3505
ZBHH,2007-12-27 09:00,ZBHH 270900Z AUTO 25002KT 5SM M01/M03 A3006 RMK SLP236 T10121029 52010 IEM_DS3505
ZBHH,2007-12-27 10:00,ZBHH 271000Z AUTO 21004KT 1SM M03/M03 A3009 RMK T10301030 IEM_DS3505
ZBHH,2007-12-27 11:00,ZBHH 271100Z AUTO 23004KT 1SM M03/M04 A3012 RMK T10301040 IEM_DS3505
ZBHH,2007-12-27 12:00,ZBHH 271200Z AUTO 22006KT 4SM M03/M04 A3012 RMK 60000 SLP260 T10281044 52016 IEM_DS3505
ZBHH,2007-12-27 13:00,ZBHH 271300Z AUTO 21004KT 1SM M04/M05 A3015 RMK T10401050 IEM_DS3505
ZBHH,2007-12-27 14:00,ZBHH 271400Z AUTO 19002KT 1SM M04/M05 A3015 RMK T10401050 IEM_DS3505
ZBHH,2007-12-27 15:00,ZBHH 271500Z AUTO 18002KT 5SM M03/M05 A3012 RMK SLP258 T10311050 57001 IEM_DS3505
ZBHH,2007-12-27 16:00,ZBHH 271600Z AUTO 26008KT 1SM M05/M08 A3012 RMK T10501080 IEM_DS3505
ZBHH,2007-12-27 17:00,ZBHH 271700Z AUTO 23004KT 1SM M07/M08 A3012 RMK T10701080 IEM_DS3505
ZBHH,2007-12-27 18:00,ZBHH 271800Z AUTO 25006KT 6SM M06/M10 A3012 RMK 60000 SLP264 T10581100 54000 IEM_DS3505
ZBHH,2007-12-27 19:00,ZBHH 271900Z AUTO 27008KT 1SM M09/M11 A3015 RMK T10901110 IEM_DS3505
ZBHH,2007-12-27 20:00,ZBHH 272000Z AUTO 30004KT 1SM M11/M16 A3018 RMK T11101160 IEM_DS3505
ZBHH,2007-12-27 21:00,ZBHH 272100Z AUTO 27004KT 19SM M10/M24 A3021 RMK 70007 SLP310 T11051240 52029 IEM_DS3505
ZBHH,2007-12-27 22:00,ZBHH 272200Z AUTO 26010KT 1 1/2SM M13/M24 A3021 RMK T11301240 IEM_DS3505
ZBHH,2007-12-27 23:00,ZBHH 272300Z AUTO 24014KT 2SM M14/M21 A3021 RMK T11401210 IEM_DS3505
ZBHH,2007-12-28 00:00,ZBHH 280000Z AUTO 22010KT 6SM M14/M21 A3024 RMK 70006 SLP332 T11381207 52008 IEM_DS3505
ZBHH,2007-12-28 01:00,ZBHH 280100Z AUTO 25012KT 2SM M15/M22 A3024 RMK T11501220 IEM_DS3505
ZBHH,2007-12-28 02:00,ZBHH 280200Z AUTO 24014KT 2 1/2SM M15/M22 A3027 RMK T11501220 IEM_DS3505
ZBHH,2007-12-28 03:00,ZBHH 280300Z AUTO 25008KT 5SM M13/M22 A3024 RMK SLP337 T11321217 52005 IEM_DS3505
ZBHH,2007-12-28 04:00,ZBHH 280400Z AUTO 23012KT 3SM M14/M22 A3021 RMK T11401220 IEM_DS3505
ZBHH,2007-12-28 05:00,ZBHH 280500Z AUTO 24012KT 3SM M13/M21 A3018 RMK T11301210 IEM_DS3505
ZBHH,2007-12-28 06:00,ZBHH 280600Z AUTO 25008KT 6SM M11/M22 A3018 RMK SLP309 T11101217 57025 IEM_DS3505
ZBHH,2007-12-28 07:00,ZBHH 280700Z AUTO 26012KT 3SM M12/M21 A3015 RMK T11201210 IEM_DS3505
ZBHH,2007-12-28 08:00,ZBHH 280800Z AUTO 26012KT 4SM M12/M22 A3015 RMK T11201220 IEM_DS3505
ZBHH,2007-12-28 09:00,ZBHH 280900Z AUTO 25010KT 6SM M11/M19 A3015 RMK SLP318 T11091193 57003 IEM_DS3505
ZBHH,2007-12-28 10:00,ZBHH 281000Z AUTO 25008KT 3SM M13/M20 A3015 RMK T11301200 IEM_DS3505
ZBHH,2007-12-28 11:00,ZBHH 281100Z AUTO 11002KT 3SM M15/M20 A3018 RMK T11501200 IEM_DS3505
ZBHH,2007-12-28 12:00,ZBHH 281200Z AUTO 20004KT 7SM M12/M19 A3018 RMK SLP338 T11231191 52006 IEM_DS3505
ZBHH,2007-12-28 13:00,ZBHH 281300Z AUTO 4SM M17/M21 A3021 RMK T11701210 IEM_DS3505
ZBHH,2007-12-28 14:00,ZBHH 281400Z AUTO 00000KT 4SM M16/M22 A3021 RMK T11601220 IEM_DS3505
ZBHH,2007-12-28 15:00,ZBHH 281500Z AUTO 27004KT 7SM M13/M20 A3021 RMK SLP352 T11311205 52012 IEM_DS3505
ZBHH,2007-12-28 16:00,ZBHH 281600Z AUTO 31008KT 6SM M14/M26 A3024 RMK T11401260 IEM_DS3505
ZBHH,2007-12-28 18:00,ZBHH 281800Z AUTO 32012KT 19SM M13/M24 A3024 RMK SLP344 T11281239 57001 IEM_DS3505
ZBHH,2007-12-28 19:00,ZBHH 281900Z AUTO 33002KT 6SM M16/M25 A3024 RMK T11601250 IEM_DS3505
ZBHH,2007-12-28 20:00,ZBHH 282000Z AUTO 33002KT 6SM M16/M25 A3021 RMK T11601250 IEM_DS3505
ZBHH,2007-12-28 21:00,ZBHH 282100Z AUTO 34008KT 19SM M14/M24 A3021 RMK SLP349 T11451238 52001 IEM_DS3505
ZBHH,2007-12-28 22:00,ZBHH 282200Z AUTO 31006KT 6SM M18/M25 A3024 RMK T11801250 IEM_DS3505
ZBHH,2007-12-28 23:00,ZBHH 282300Z AUTO 35006KT 6SM M18/M25 A3024 RMK T11801250 IEM_DS3505
ZBHH,2007-12-29 00:00,ZBHH 290000Z AUTO 32004KT 12SM M16/M24 A3027 RMK SLP374 T11591237 52015 IEM_DS3505
ZBHH,2007-12-29 01:00,ZBHH 290100Z AUTO 04002KT 6SM M17/M25 A3027 RMK T11701250 IEM_DS3505
ZBHH,2007-12-29 02:00,ZBHH 290200Z AUTO 01008KT 6SM M16/M24 A3027 RMK T11601240 IEM_DS3505
ZBHH,2007-12-29 03:00,ZBHH 290300Z AUTO 32010KT 19SM M14/M23 A3030 RMK SLP380 T11351227 52009 IEM_DS3505
ZBHH,2007-12-29 04:00,ZBHH 290400Z AUTO 02004KT 6SM M14/M22 A3030 RMK T11401220 IEM_DS3505
ZBHH,2007-12-29 05:00,ZBHH 290500Z AUTO 6SM M13/M22 A3027 RMK T11301220 IEM_DS3505
ZBHH,2007-12-29 06:00,ZBHH 290600Z AUTO 27008KT 12SM M11/M20 A3030 RMK SLP372 T11111204 57001 IEM_DS3505
ZBHH,2007-12-29 07:00,ZBHH 290700Z AUTO 34004KT 7SM M13/M22 A3030 RMK T11301220 IEM_DS3505
ZBHH,2007-12-29 08:00,ZBHH 290800Z AUTO 33008KT 7SM M13/M22 A3030 RMK T11301220 IEM_DS3505
ZBHH,2007-12-29 09:00,ZBHH 290900Z AUTO 29008KT 12SM M12/M21 A3033 RMK SLP395 T11191214 52014 IEM_DS3505
ZBHH,2007-12-29 10:00,ZBHH 291000Z AUTO 33010KT 7SM M14/M23 A3033 RMK T11401230 IEM_DS3505
ZBHH,2007-12-29 11:00,ZBHH 291100Z AUTO 36006KT 7SM M15/M24 A3036 RMK T11501240 IEM_DS3505
ZBHH,2007-12-29 12:00,ZBHH 291200Z AUTO 27008KT 19SM M14/M24 A3039 RMK SLP418 T11351240 52013 IEM_DS3505
ZBHH,2007-12-29 13:00,ZBHH 291300Z AUTO 35004KT 7SM M16/M25 A3039 RMK T11601250 IEM_DS3505
ZBHH,2007-12-29 14:00,ZBHH 291400Z AUTO 34004KT 7SM M15/M25 A3039 RMK T11501250 IEM_DS3505
ZBHH,2007-12-29 15:00,ZBHH 291500Z AUTO 27008KT 19SM M14/M25 A3042 RMK SLP420 T11351248 52008 IEM_DS3505
ZBHH,2007-12-29 16:00,ZBHH 291600Z AUTO 34002KT 6SM M15/M27 A3042 RMK T11501270 IEM_DS3505
ZBHH,2007-12-29 17:00,ZBHH 291700Z AUTO 28006KT 6SM M16/M27 A3042 RMK T11601270 IEM_DS3505
ZBHH,2007-12-29 18:00,ZBHH 291800Z AUTO 36006KT 19SM M15/M26 A3042 RMK SLP422 T11491261 52004 IEM_DS3505
ZBHH,2007-12-29 19:00,ZBHH 291900Z AUTO 30008KT 6SM M16/M27 A3042 RMK T11601270 IEM_DS3505
ZBHH,2007-12-29 20:00,ZBHH 292000Z AUTO 34004KT 6SM M17/M27 A3042 RMK T11701270 IEM_DS3505
ZBHH,2007-12-29 21:00,ZBHH 292100Z AUTO 32008KT 19SM M15/M26 A3039 RMK SLP417 T11461261 57006 IEM_DS3505
ZBHH,2007-12-29 22:00,ZBHH 292200Z AUTO 36008KT 6SM M17/M27 A3039 RMK T11701270 IEM_DS3505
ZBHH,2007-12-29 23:00,ZBHH 292300Z AUTO 36004KT 6SM M18/M27 A3042 RMK T11801270 IEM_DS3505
ZBHH,2007-12-30 00:00,ZBHH 300000Z AUTO 27004KT 12SM M17/M23 A3045 RMK SLP440 T11731232 52010 IEM_DS3505
ZBHH,2007-12-30 01:00,ZBHH 300100Z AUTO 22002KT 6SM M18/M25 A3045 RMK T11801250 IEM_DS3505
ZBHH,2007-12-30 02:00,ZBHH 300200Z AUTO 21004KT 6SM M17/M24 A3047 RMK T11701240 IEM_DS3505
ZBHH,2007-12-30 03:00,ZBHH 300300Z AUTO 22004KT 19SM M13/M21 A3047 RMK SLP440 T11311213 52010 IEM_DS3505
ZBHH,2007-12-30 04:00,ZBHH 300400Z AUTO 24002KT 6SM M13/M21 A3045 RMK T11301210 IEM_DS3505
ZBHH,2007-12-30 05:00,ZBHH 300500Z AUTO 23002KT 6SM M12/M22 A3042 RMK T11201220 IEM_DS3505
ZBHH,2007-12-30 06:00,ZBHH 300600Z AUTO 22004KT 19SM M10/M19 A3039 RMK SLP406 T10991193 57025 IEM_DS3505
ZBHH,2007-12-30 07:00,ZBHH 300700Z AUTO 24002KT 6SM M10/M21 A3036 RMK T11001210 IEM_DS3505
ZBHH,2007-12-30 08:00,ZBHH 300800Z AUTO 25006KT 6SM M11/M21 A3036 RMK T11101210 IEM_DS3505
ZBHH,2007-12-30 09:00,ZBHH 300900Z AUTO 25002KT 16SM M10/M18 A3036 RMK SLP390 T10971184 57013 IEM_DS3505
ZBHH,2007-12-30 10:00,ZBHH 301000Z AUTO 04002KT 4SM M14/M21 A3036 RMK T11401210 IEM_DS3505
ZBHH,2007-12-30 11:00,ZBHH 301100Z AUTO 00000KT 4SM M16/M21 A3036 RMK T11601210 IEM_DS3505
ZBHH,2007-12-30 12:00,ZBHH 301200Z AUTO 29008KT 16SM M09/M23 A3039 RMK SLP410 T10871232 52013 IEM_DS3505
ZBHH,2007-12-30 13:00,ZBHH 301300Z AUTO 13006KT 5SM M16/M22 A3039 RMK T11601220 IEM_DS3505
ZBHH,2007-12-30 14:00,ZBHH 301400Z AUTO 35012G21KT 6SM M11/M24 A3039 RMK T11101240 IEM_DS3505
ZBHH,2007-12-30 15:00,ZBHH 301500Z AUTO 29008KT 19SM M10/M24 A3042 RMK SLP411 T11021238 52008 IEM_DS3505
ZBHH,2007-12-30 16:00,ZBHH 301600Z AUTO 02010KT 6SM M13/M24 A3042 RMK T11301240 IEM_DS3505
ZBHH,2007-12-30 17:00,ZBHH 301700Z AUTO 02010KT 6SM M14/M25 A3042 RMK T11401250 IEM_DS3505
ZBHH,2007-12-30 18:00,ZBHH 301800Z AUTO 34008KT 19SM M11/M24 A3042 RMK SLP408 T11101241 52003 IEM_DS3505
ZBHH,2007-12-30 19:00,ZBHH 301900Z AUTO 09004KT 6SM M18/M26 A3045 RMK T11801260 IEM_DS3505
ZBHH,2007-12-30 20:00,ZBHH 302000Z AUTO 05002KT 6SM M18/M26 A3042 RMK T11801260 IEM_DS3505
ZBHH,2007-12-30 21:00,ZBHH 302100Z AUTO 36004KT 19SM M12/M23 A3042 RMK SLP404 T11181233 57005 IEM_DS3505
ZBHH,2007-12-30 22:00,ZBHH 302200Z AUTO 32002KT 6SM M17/M26 A3042 RMK T11701260 IEM_DS3505
ZBHH,2007-12-30 23:00,ZBHH 302300Z AUTO 01002KT 6SM M18/M25 A3042 RMK T11801250 IEM_DS3505
