station,valid,metar
ZBHH,2002-01-01 00:00,ZBHH 010000Z AUTO 00000KT 4SM M13/M17 A3024 RMK SLP352 T11301172 52012 IEM_DS3505
ZBHH,2002-01-01 01:00,ZBHH 010100Z AUTO 09002KT 5SM A3027 RMK IEM_DS3505
ZBHH,2002-01-01 02:00,ZBHH 010200Z AUTO 10002KT 4SM A3027 RMK IEM_DS3505
ZBHH,2002-01-01 03:00,ZBHH 010300Z AUTO 00000KT 4SM M09/M15 RMK SLP361 T10861152 52007 IEM_DS3505
ZBHH,2002-01-01 04:00,ZBHH 010400Z AUTO 12002KT 4SM M10/M15 A3027 RMK T11001150 IEM_DS3505
ZBHH,2002-01-01 05:00,ZBHH 010500Z AUTO 23002KT 4SM M08/M15 A3024 RMK T10801150 IEM_DS3505
ZBHH,2002-01-01 06:00,ZBHH 010600Z AUTO 00000KT 5SM M06/M12 A3024 RMK 60003 SLP340 T10621117 57014 IEM_DS3505
ZBHH,2002-01-01 07:00,ZBHH 010700Z AUTO 17002KT M07/M14 A3024 RMK T10701140 IEM_DS3505
ZBHH,2002-01-01 08:00,ZBHH 010800Z AUTO 16002KT M07/M14 A3027 RMK T10701140 IEM_DS3505
ZBHH,2002-01-01 09:00,ZBHH 010900Z AUTO 00000KT 6SM M06/M13 A3030 RMK SLP355 T10621127 52016 IEM_DS3505
ZBHH,2002-01-01 10:00,ZBHH 011000Z AUTO 6SM M10/M14 A3030 RMK T11001140 IEM_DS3505
ZBHH,2002-01-01 11:00,ZBHH 011100Z AUTO 10002KT 2 1/2SM M12/M15 A3030 RMK T11201150 IEM_DS3505
ZBHH,2002-01-01 13:00,ZBHH 011300Z AUTO 07002KT 2 1/2SM M17/M19 A3030 RMK T11701190 IEM_DS3505
ZBHH,2002-01-01 14:00,ZBHH 011400Z AUTO 2 1/2SM M18/M19 A3033 RMK T11801190 IEM_DS3505
ZBHH,2002-01-01 15:00,ZBHH 011500Z AUTO 00000KT 7SM M11/M13 A3030 RMK SLP368 T11131132 57001 IEM_DS3505
ZBHH,2002-01-01 16:00,ZBHH 011600Z AUTO 09004KT 2 1/2SM A3030 RMK IEM_DS3505
ZBHH,2002-01-01 17:00,ZBHH 011700Z AUTO 03002KT 2 1/2SM M19/M22 A3030 RMK T11901220 IEM_DS3505
ZBHH,2002-01-01 18:00,ZBHH 011800Z AUTO 00000KT 4SM M13/M14 A3030 RMK SLP365 T11271141 54000 IEM_DS3505
ZBHH,2002-01-01 19:00,ZBHH 011900Z AUTO 08004KT 2 1/2SM A3033 RMK IEM_DS3505
ZBHH,2002-01-01 20:00,ZBHH 012000Z AUTO 07002KT 2 1/2SM M21/M23 A3030 RMK T12101230 IEM_DS3505
ZBHH,2002-01-01 21:00,ZBHH 012100Z AUTO 09002KT 6SM M13/M15 A3030 RMK 70003 SLP364 T11331151 57002 IEM_DS3505
ZBHH,2002-01-01 22:00,ZBHH 012200Z AUTO 05004KT 4SM M20/M21 A3030 RMK T12001210 IEM_DS3505
ZBHH,2002-01-01 23:00,ZBHH 012300Z AUTO 08002KT 4SM M22/M24 A3030 RMK T12201240 IEM_DS3505
ZBHH,2002-01-02 00:00,ZBHH 020000Z AUTO 00000KT 5SM M14/M16 A3030 RMK 70003 SLP372 T11411162 57003 IEM_DS3505
ZBHH,2002-01-02 01:00,ZBHH 020100Z AUTO 05002KT 2 1/2SM A3030 RMK IEM_DS3505
ZBHH,2002-01-02 02:00,ZBHH 020200Z AUTO 09002KT 2 1/2SM A3030 RMK IEM_DS3505
ZBHH,2002-01-02 03:00,ZBHH 020300Z AUTO 14002KT 6SM M08/M12 A3030 RMK SLP364 T10851123 52002 IEM_DS3505
ZBHH,2002-01-02 04:00,ZBHH 020400Z AUTO 16002KT 6SM M08/M14 A3027 RMK T10801140 IEM_DS3505
ZBHH,2002-01-02 05:00,ZBHH 020500Z AUTO 16002KT 6SM M07/M14 A3024 RMK T10701140 IEM_DS3505
ZBHH,2002-01-02 06:00,ZBHH 020600Z AUTO 07002KT 6SM M06/M12 A3021 RMK SLP334 T10621122 57024 IEM_DS3505
ZBHH,2002-01-02 07:00,ZBHH 020700Z AUTO 05002KT 6SM M06/M13 A3021 RMK T10601130 IEM_DS3505
ZBHH,2002-01-02 08:00,ZBHH 020800Z AUTO M06/M13 A3018 RMK T10601130 IEM_DS3505
ZBHH,2002-01-02 09:00,ZBHH 020900Z AUTO 00000KT 6SM M05/M13 A3021 RMK SLP327 T10541126 57006 IEM_DS3505
ZBHH,2002-01-02 10:00,ZBHH 021000Z AUTO 12002KT 2 1/2SM M09/M14 A3021 RMK T10901140 IEM_DS3505
ZBHH,2002-01-02 11:00,ZBHH 021100Z AUTO 11002KT 2 1/2SM M11/M15 A3021 RMK T11101150 IEM_DS3505
ZBHH,2002-01-02 12:00,ZBHH 021200Z AUTO 09004KT 12SM M07/M11 A3024 RMK SLP347 T10701113 52012 IEM_DS3505
ZBHH,2002-01-02 13:00,ZBHH 021300Z AUTO 32012KT 6SM M06/M15 A3024 RMK T10601150 IEM_DS3505
ZBHH,2002-01-02 14:00,ZBHH 021400Z AUTO 33006KT 6SM M07/M16 A3027 RMK T10701160 IEM_DS3505
ZBHH,2002-01-02 15:00,ZBHH 021500Z AUTO 27010KT 19SM M06/M14 A3027 RMK SLP343 T10601141 52012 IEM_DS3505
ZBHH,2002-01-02 18:00,ZBHH 021800Z AUTO 00000KT 19SM M09/M15 RMK SLP370 T10941152 52021 IEM_DS3505
ZBHH,2002-01-02 21:00,ZBHH 022100Z AUTO 20004KT 19SM M09/M13 A3036 RMK SLP376 T10891134 52008 IEM_DS3505
ZBHH,2002-01-02 22:00,ZBHH 022200Z AUTO 12002KT 6SM M15/M19 A3036 RMK T11501190 IEM_DS3505
ZBHH,2002-01-02 23:00,ZBHH 022300Z AUTO 6SM M17/M20 A3036 RMK T11701200 IEM_DS3505
ZBHH,2002-01-03 00:00,ZBHH 030000Z AUTO 00000KT 4SM M12/M14 A3036 RMK SLP389 T11181138 52001 IEM_DS3505
ZBHH,2002-01-03 01:00,ZBHH 030100Z AUTO 10002KT 6SM M18/M21 A3039 RMK T11801210 IEM_DS3505
ZBHH,2002-01-03 02:00,ZBHH 030200Z AUTO 09002KT 6SM M12/M17 A3039 RMK T11201170 IEM_DS3505
ZBHH,2002-01-03 03:00,ZBHH 030300Z AUTO 00000KT 4SM M08/M12 A3039 RMK SLP379 T10791120 52003 IEM_DS3505
ZBHH,2002-01-03 04:00,ZBHH 030400Z AUTO 21002KT 6SM M08/M14 A3036 RMK T10801140 IEM_DS3505
ZBHH,2002-01-03 05:00,ZBHH 030500Z AUTO 24002KT 6SM M06/M13 A3030 RMK T10601130 IEM_DS3505
ZBHH,2002-01-03 06:00,ZBHH 030600Z AUTO 14004KT 7SM M03/M13 A3030 RMK SLP341 T10281126 57030 IEM_DS3505
ZBHH,2002-01-03 07:00,ZBHH 030700Z AUTO 15002KT 6SM M05/M12 A3027 RMK T10501120 IEM_DS3505
ZBHH,2002-01-03 08:00,ZBHH 030800Z AUTO 4SM A3027 RMK IEM_DS3505
ZBHH,2002-01-03 09:00,ZBHH 030900Z AUTO 00000KT 5SM M04/M12 A3024 RMK SLP329 T10421122 57012 IEM_DS3505
ZBHH,2002-01-03 10:00,ZBHH 031000Z AUTO 13002KT 4SM A3024 RMK IEM_DS3505
ZBHH,2002-01-03 11:00,ZBHH 031100Z AUTO 07004KT 4SM A3024 RMK IEM_DS3505
ZBHH,2002-01-03 12:00,ZBHH 031200Z AUTO 04002KT 5SM M06/M12 A3024 RMK SLP341 T10641120 57001 IEM_DS3505
ZBHH,2002-01-03 13:00,ZBHH 031300Z AUTO 04002KT 3SM M13/M16 A3024 RMK T11301160 IEM_DS3505
ZBHH,2002-01-03 14:00,ZBHH 031400Z AUTO 03004KT 3SM M13/M16 A3024 RMK T11301160 IEM_DS3505
ZBHH,2002-01-03 16:00,ZBHH 031600Z AUTO 08004KT 3SM M16/M19 A3021 RMK T11601190 IEM_DS3505
ZBHH,2002-01-03 17:00,ZBHH 031700Z AUTO 06004KT 3SM M16/M18 A3021 RMK T11601180 IEM_DS3505
ZBHH,2002-01-03 18:00,ZBHH 031800Z AUTO 00000KT 19SM M09/M13 A3021 RMK SLP314 T10921127 57004 IEM_DS3505
ZBHH,2002-01-03 19:00,ZBHH 031900Z AUTO 06002KT 3SM M16/M19 A3021 RMK T11601190 IEM_DS3505
ZBHH,2002-01-03 21:00,ZBHH 032100Z AUTO 00000KT 12SM M11/M13 A3018 RMK SLP312 T11101129 57009 IEM_DS3505
ZBHH,2002-01-03 22:00,ZBHH 032200Z AUTO 06002KT 6SM A3018 RMK IEM_DS3505
ZBHH,2002-01-03 23:00,ZBHH 032300Z AUTO 06002KT 6SM M18/M21 A3018 RMK T11801210 IEM_DS3505
ZBHH,2002-01-04 00:00,ZBHH 040000Z AUTO 00000KT 6SM M10/M12 A3018 RMK SLP320 T11011124 52004 IEM_DS3505
ZBHH,2002-01-04 01:00,ZBHH 040100Z AUTO 06002KT 4SM A3018 RMK IEM_DS3505
ZBHH,2002-01-04 02:00,ZBHH 040200Z AUTO 08002KT 2 1/2SM A3021 RMK IEM_DS3505
ZBHH,2002-01-04 03:00,ZBHH 040300Z AUTO 14002KT 6SM M05/M10 A3021 RMK SLP317 T10541105 52002 IEM_DS3505
ZBHH,2002-01-04 04:00,ZBHH 040400Z AUTO 15002KT 6SM M05/M11 A3018 RMK T10501110 IEM_DS3505
ZBHH,2002-01-04 05:00,ZBHH 040500Z AUTO 17004KT 6SM M05/M10 A3015 RMK T10501100 IEM_DS3505
ZBHH,2002-01-04 06:00,ZBHH 040600Z AUTO 11004KT 5SM M03/M08 A3012 RMK SLP279 T10281082 57027 IEM_DS3505
ZBHH,2002-01-04 07:00,ZBHH 040700Z AUTO 16002KT 6SM M03/M09 A3012 RMK T10301090 IEM_DS3505
ZBHH,2002-01-04 08:00,ZBHH 040800Z AUTO 07004KT 6SM M03/M09 A3012 RMK T10301090 IEM_DS3505
ZBHH,2002-01-04 09:00,ZBHH 040900Z AUTO 04004KT 12SM M03/M08 A3012 RMK SLP285 T10261083 52001 IEM_DS3505
ZBHH,2002-01-04 10:00,ZBHH 041000Z AUTO 06002KT 3SM A3012 RMK IEM_DS3505
ZBHH,2002-01-04 11:00,ZBHH 041100Z AUTO 05004KT 2 1/2SM A3012 RMK IEM_DS3505
ZBHH,2002-01-04 12:00,ZBHH 041200Z AUTO 00000KT 4SM M05/M09 A3015 RMK SLP304 T10521089 52013 IEM_DS3505
ZBHH,2002-01-04 13:00,ZBHH 041300Z AUTO 11004KT 2 1/2SM A3015 RMK IEM_DS3505
ZBHH,2002-01-04 14:00,ZBHH 041400Z AUTO 07004KT 3SM M12/M14 A3015 RMK T11201140 IEM_DS3505
ZBHH,2002-01-04 15:00,ZBHH 041500Z AUTO 00000KT 5SM M08/M10 A3015 RMK SLP302 T10811104 52002 IEM_DS3505
ZBHH,2002-01-04 16:00,ZBHH 041600Z AUTO 07002KT 4SM M13/M15 A3015 RMK T11301150 IEM_DS3505
ZBHH,2002-01-04 17:00,ZBHH 041700Z AUTO 07004KT 4SM M14/M16 A3012 RMK T11401160 IEM_DS3505
ZBHH,2002-01-04 18:00,ZBHH 041800Z AUTO 00000KT 5SM M09/M12 A3012 RMK SLP288 T10901115 57008 IEM_DS3505
ZBHH,2002-01-04 19:00,ZBHH 041900Z AUTO 06004KT 4SM M15/M16 A3015 RMK T11501160 IEM_DS3505
ZBHH,2002-01-04 20:00,ZBHH 042000Z AUTO 07004KT 4SM M14/M16 A3015 RMK T11401160 IEM_DS3505
ZBHH,2002-01-04 21:00,ZBHH 042100Z AUTO 00000KT 9SM M10/M11 A3012 RMK SLP285 T10961108 57004 IEM_DS3505
ZBHH,2002-01-04 22:00,ZBHH 042200Z AUTO 09004KT 4SM M15/M17 A3012 RMK T11501170 IEM_DS3505
ZBHH,2002-01-04 23:00,ZBHH 042300Z AUTO 08004KT 4SM M13/M15 A3012 RMK T11301150 IEM_DS3505
ZBHH,2002-01-05 00:00,ZBHH 050000Z AUTO 00000KT 6SM M11/M12 A3012 RMK SLP293 T11121122 57002 IEM_DS3505
ZBHH,2002-01-05 01:00,ZBHH 050100Z AUTO 07004KT 2 1/2SM M14/M16 A3012 RMK T11401160 IEM_DS3505
ZBHH,2002-01-05 02:00,ZBHH 050200Z AUTO 09002KT 2 1/2SM M09/M11 A3012 RMK T10901110 IEM_DS3505
ZBHH,2002-01-05 03:00,ZBHH 050300Z AUTO 00000KT 6SM M03/M09 A3012 RMK SLP282 T10281086 52003 IEM_DS3505
ZBHH,2002-01-05 04:00,ZBHH 050400Z AUTO 12002KT 5SM M02/M09 A3009 RMK T10201090 IEM_DS3505
ZBHH,2002-01-05 05:00,ZBHH 050500Z AUTO 14002KT 6SM M01/M09 A3006 RMK T10101090 IEM_DS3505
ZBHH,2002-01-05 06:00,ZBHH 050600Z AUTO 00000KT 6SM 00/M08 A3003 RMK SLP247 T00041080 57026 IEM_DS3505
ZBHH,2002-01-05 07:00,ZBHH 050700Z AUTO 19002KT 6SM 00/M08 A3003 RMK T00001080 IEM_DS3505
ZBHH,2002-01-05 08:00,ZBHH 050800Z AUTO 21006KT 6SM 00/M08 A3003 RMK T00001080 IEM_DS3505
ZBHH,2002-01-05 09:00,ZBHH 050900Z AUTO 22002KT 6SM 00/M07 A3000 RMK SLP240 T00021071 57008 IEM_DS3505
ZBHH,2002-01-05 10:00,ZBHH 051000Z AUTO 12002KT 5SM M04/M09 A3000 RMK T10401090 IEM_DS3505
ZBHH,2002-01-05 11:00,ZBHH 051100Z AUTO 07004KT 2 1/2SM M06/M10 A3000 RMK T10601100 IEM_DS3505
ZBHH,2002-01-05 12:00,ZBHH 051200Z AUTO 04002KT 6SM M04/M09 A3000 RMK SLP253 T10361089 54000 IEM_DS3505
ZBHH,2002-01-05 13:00,ZBHH 051300Z AUTO 1 1/4SM M10/M12 A3000 RMK T11001120 IEM_DS3505
ZBHH,2002-01-05 14:00,ZBHH 051400Z AUTO 1 1/4SM M11/M14 A3000 RMK T11101140 IEM_DS3505
ZBHH,2002-01-05 15:00,ZBHH 051500Z AUTO 00000KT 4SM M06/M09 A3000 RMK SLP237 T10631091 57002 IEM_DS3505
ZBHH,2002-01-05 16:00,ZBHH 051600Z AUTO 03002KT 2SM M12/M15 A3000 RMK T11201150 IEM_DS3505
ZBHH,2002-01-05 17:00,ZBHH 051700Z AUTO 08002KT 2SM M14/M16 A3000 RMK T11401160 IEM_DS3505
ZBHH,2002-01-05 18:00,ZBHH 051800Z AUTO 00000KT 6SM M07/M10 A3000 RMK SLP229 T10691098 57001 IEM_DS3505
ZBHH,2002-01-05 19:00,ZBHH 051900Z AUTO 12002KT 2SM M14/M17 A3003 RMK T11401170 IEM_DS3505
ZBHH,2002-01-05 20:00,ZBHH 052000Z AUTO 09006KT 2SM M10/M12 A3003 RMK T11001120 IEM_DS3505
ZBHH,2002-01-05 21:00,ZBHH 052100Z AUTO 34008G16KT 7SM A3003 RMK SLP230 52015 IEM_DS3505
ZBHH,2002-01-05 22:00,ZBHH 052200Z AUTO 32010KT 6SM M03/M10 A3006 RMK T10301100 IEM_DS3505
ZBHH,2002-01-05 23:00,ZBHH 052300Z AUTO 32016KT 6SM M04/M11 A3012 RMK T10401110 IEM_DS3505
ZBHH,2002-01-06 00:00,ZBHH 060000Z AUTO 29014G27KT 9SM M03/M11 A3015 RMK SLP292 T10341114 52039 IEM_DS3505
ZBHH,2002-01-06 01:00,ZBHH 060100Z AUTO 35012G21KT 7SM M06/M12 A3021 RMK T10601120 IEM_DS3505
ZBHH,2002-01-06 02:00,ZBHH 060200Z AUTO 34014KT 7SM M07/M13 A3027 RMK T10701130 IEM_DS3505
ZBHH,2002-01-06 03:00,ZBHH 060300Z AUTO 29006G29KT 19SM M06/M17 A3033 RMK SLP350 T10611169 52039 IEM_DS3505
ZBHH,2002-01-06 04:00,ZBHH 060400Z AUTO 36008G17KT 7SM M08/M16 A3030 RMK T10801160 IEM_DS3505
ZBHH,2002-01-06 05:00,ZBHH 060500Z AUTO 35012G21KT 6SM M07/M16 A3027 RMK T10701160 IEM_DS3505
ZBHH,2002-01-06 06:00,ZBHH 060600Z AUTO 32014G29KT 19SM M05/M16 A3027 RMK SLP339 T10521158 57009 IEM_DS3505
ZBHH,2002-01-06 07:00,ZBHH 060700Z AUTO 31016KT 6SM M07/M21 A3030 RMK T10701210 IEM_DS3505
ZBHH,2002-01-06 08:00,ZBHH 060800Z AUTO 31016KT 6SM M07/M22 A3030 RMK T10701220 IEM_DS3505
ZBHH,2002-01-06 09:00,ZBHH 060900Z AUTO 32006KT 19SM M06/M22 A3033 RMK SLP334 T10641219 52008 IEM_DS3505
ZBHH,2002-01-06 10:00,ZBHH 061000Z AUTO 34010KT 6SM M10/M26 A3033 RMK T11001260 IEM_DS3505
ZBHH,2002-01-06 11:00,ZBHH 061100Z AUTO 35008KT 6SM M11/M27 A3036 RMK T11101270 IEM_DS3505
ZBHH,2002-01-06 12:00,ZBHH 061200Z AUTO 29004G25KT 19SM M09/M28 A3036 RMK SLP368 T10921280 52016 IEM_DS3505
ZBHH,2002-01-06 13:00,ZBHH 061300Z AUTO 36008KT 6SM M12/M27 A3036 RMK T11201270 IEM_DS3505
ZBHH,2002-01-06 14:00,ZBHH 061400Z AUTO 36006KT 6SM M13/M27 A3036 RMK T11301270 IEM_DS3505
ZBHH,2002-01-06 15:00,ZBHH 061500Z AUTO 32006KT 19SM M10/M25 A3036 RMK SLP376 T11011251 57001 IEM_DS3505
ZBHH,2002-01-06 16:00,ZBHH 061600Z AUTO 09002KT 6SM M14/M28 A3036 RMK T11401280 IEM_DS3505
ZBHH,2002-01-06 17:00,ZBHH 061700Z AUTO 08006KT 6SM M16/M26 A3036 RMK T11601260 IEM_DS3505
ZBHH,2002-01-06 18:00,ZBHH 061800Z AUTO 00000KT 19SM M12/M24 RMK SLP374 T11241242 57005 IEM_DS3505
ZBHH,2002-01-06 21:00,ZBHH 062100Z AUTO 04002KT 19SM M13/M23 A3033 RMK SLP376 T11341228 57004 IEM_DS3505
ZBHH,2002-01-06 22:00,ZBHH 062200Z AUTO 09002KT 6SM M22/M27 A3033 RMK T12201270 IEM_DS3505
ZBHH,2002-01-06 23:00,ZBHH 062300Z AUTO 08002KT 6SM M23/M27 A3036 RMK T12301270 IEM_DS3505
ZBHH,2002-01-07 00:00,ZBHH 070000Z AUTO 00000KT 16SM A3036 RMK SLP399 52012 IEM_DS3505
ZBHH,2002-01-07 01:00,ZBHH 070100Z AUTO 05002KT 6SM M19/M24 A3036 RMK T11901240 IEM_DS3505
ZBHH,2002-01-07 02:00,ZBHH 070200Z AUTO 10002KT 6SM M14/M23 A3039 RMK T11401230 IEM_DS3505
ZBHH,2002-01-07 03:00,ZBHH 070300Z AUTO 00000KT 3SM M08/M20 A3039 RMK SLP396 T10821196 52009 IEM_DS3505
ZBHH,2002-01-07 04:00,ZBHH 070400Z AUTO 21004KT 6SM M08/M20 A3036 RMK T10801200 IEM_DS3505
ZBHH,2002-01-07 05:00,ZBHH 070500Z AUTO 21002KT 6SM M07/M20 A3033 RMK T10701200 IEM_DS3505
ZBHH,2002-01-07 06:00,ZBHH 070600Z AUTO 22002KT 6SM M04/M19 A3033 RMK SLP366 T10451189 57023 IEM_DS3505
ZBHH,2002-01-07 07:00,ZBHH 070700Z AUTO 22002KT 6SM M06/M19 A3033 RMK T10601190 IEM_DS3505
ZBHH,2002-01-07 08:00,ZBHH 070800Z AUTO 21002KT 6SM M05/M19 A3033 RMK T10501190 IEM_DS3505
ZBHH,2002-01-07 09:00,ZBHH 070900Z AUTO 00000KT 5SM M04/M19 A3033 RMK SLP369 T10451189 52001 IEM_DS3505
ZBHH,2002-01-07 10:00,ZBHH 071000Z AUTO 12002KT 6SM M09/M18 A3033 RMK T10901180 IEM_DS3505
ZBHH,2002-01-07 11:00,ZBHH 071100Z AUTO 6SM M10/M18 A3036 RMK T11001180 IEM_DS3505
ZBHH,2002-01-07 12:00,ZBHH 071200Z AUTO 00000KT 3SM M08/M18 A3036 RMK SLP389 T10761176 52008 IEM_DS3505
ZBHH,2002-01-07 13:00,ZBHH 071300Z AUTO 06004KT 5SM M15/M20 A3036 RMK T11501200 IEM_DS3505
ZBHH,2002-01-07 14:00,ZBHH 071400Z AUTO 06004KT 5SM M16/M21 A3036 RMK T11601210 IEM_DS3505
ZBHH,2002-01-07 15:00,ZBHH 071500Z AUTO 00000KT 6SM M11/M17 A3036 RMK SLP386 T11121174 52003 IEM_DS3505
ZBHH,2002-01-07 16:00,ZBHH 071600Z AUTO 08002KT 4SM M19/M22 A3036 RMK T11901220 IEM_DS3505
ZBHH,2002-01-07 17:00,ZBHH 071700Z AUTO 02002KT 6SM M18/M22 A3036 RMK T11801220 IEM_DS3505
ZBHH,2002-01-07 18:00,ZBHH 071800Z AUTO 00000KT 5SM M12/M17 A3039 RMK SLP384 T11241169 52004 IEM_DS3505
ZBHH,2002-01-07 19:00,ZBHH 071900Z AUTO 07004KT 6SM M17/M21 A3039 RMK T11701210 IEM_DS3505
ZBHH,2002-01-07 20:00,ZBHH 072000Z AUTO 06004KT 6SM M15/M20 A3039 RMK T11501200 IEM_DS3505
ZBHH,2002-01-07 21:00,ZBHH 072100Z AUTO 00000KT 4SM M13/M17 A3036 RMK SLP384 T11331174 57002 IEM_DS3505
ZBHH,2002-01-07 22:00,ZBHH 072200Z AUTO 07006KT 6SM M18/M22 A3036 RMK T11801220 IEM_DS3505
ZBHH,2002-01-07 23:00,ZBHH 072300Z AUTO 6SM M17/M21 A3036 RMK T11701210 IEM_DS3505
ZBHH,2002-01-08 00:00,ZBHH 080000Z AUTO 00000KT 3SM M14/M17 A3036 RMK SLP395 T11361171 52002 IEM_DS3505
ZBHH,2002-01-08 01:00,ZBHH 080100Z AUTO 07002KT 4SM M16/M19 A3039 RMK T11601190 IEM_DS3505
ZBHH,2002-01-08 02:00,ZBHH 080200Z AUTO 10004KT 6SM M11/M17 A3039 RMK T11101170 IEM_DS3505
ZBHH,2002-01-08 03:00,ZBHH 080300Z AUTO 00000KT 9SM M05/M15 A3039 RMK SLP385 T10471149 52003 IEM_DS3505
ZBHH,2002-01-08 04:00,ZBHH 080400Z AUTO 15002KT 6SM M04/M18 A3036 RMK T10401180 IEM_DS3505
ZBHH,2002-01-08 05:00,ZBHH 080500Z AUTO 16002KT 6SM M03/M16 A3030 RMK T10301160 IEM_DS3505
ZBHH,2002-01-08 06:00,ZBHH 080600Z AUTO 00000KT 12SM M01/M15 A3027 RMK SLP339 T10111147 57034 IEM_DS3505
ZBHH,2002-01-08 07:00,ZBHH 080700Z AUTO 6SM M01/M16 A3027 RMK T10101160 IEM_DS3505
ZBHH,2002-01-08 08:00,ZBHH 080800Z AUTO 19002KT 6SM M02/M16 A3027 RMK T10201160 IEM_DS3505
ZBHH,2002-01-08 09:00,ZBHH 080900Z AUTO 07002KT 9SM M02/M14 A3024 RMK SLP330 T10181142 57012 IEM_DS3505
ZBHH,2002-01-08 10:00,ZBHH 081000Z AUTO 07004KT 6SM M04/M15 A3024 RMK T10401150 IEM_DS3505
ZBHH,2002-01-08 11:00,ZBHH 081100Z AUTO 01004KT M07/M15 A3021 RMK T10701150 IEM_DS3505
ZBHH,2002-01-08 12:00,ZBHH 081200Z AUTO 00000KT 5SM M05/M14 A3021 RMK SLP333 T10541137 57006 IEM_DS3505
ZBHH,2002-01-08 13:00,ZBHH 081300Z AUTO 11002KT 2 1/2SM M11/M17 A3021 RMK T11101170 IEM_DS3505
ZBHH,2002-01-08 14:00,ZBHH 081400Z AUTO 04002KT 4SM M11/M16 A3018 RMK T11101160 IEM_DS3505
ZBHH,2002-01-08 15:00,ZBHH 081500Z AUTO 00000KT 5SM M07/M13 A3018 RMK SLP298 T10721131 57015 IEM_DS3505
ZBHH,2002-01-08 16:00,ZBHH 081600Z AUTO 05002KT 4SM M12/M17 A3015 RMK T11201170 IEM_DS3505
ZBHH,2002-01-08 17:00,ZBHH 081700Z AUTO 07004KT 4SM M12/M16 A3012 RMK T11201160 IEM_DS3505
ZBHH,2002-01-08 18:00,ZBHH 081800Z AUTO 00000KT 6SM M07/M12 A3012 RMK SLP271 T10681125 57014 IEM_DS3505
ZBHH,2002-01-08 19:00,ZBHH 081900Z AUTO 09004KT 4SM M12/M16 A3009 RMK T11201160 IEM_DS3505
ZBHH,2002-01-08 20:00,ZBHH 082000Z AUTO 07004KT 4SM M12/M16 A3009 RMK T11201160 IEM_DS3505
ZBHH,2002-01-08 21:00,ZBHH 082100Z AUTO 00000KT 4SM M10/M14 A3009 RMK SLP267 T10971139 57012 IEM_DS3505
ZBHH,2002-01-08 22:00,ZBHH 082200Z AUTO 06004KT 6SM M14/M17 A3006 RMK T11401170 IEM_DS3505
ZBHH,2002-01-08 23:00,ZBHH 082300Z AUTO 09002KT 6SM M14/M17 A3006 RMK T11401170 IEM_DS3505
ZBHH,2002-01-09 00:00,ZBHH 090000Z AUTO 00000KT 5SM M10/M13 A3009 RMK SLP278 T11021133 52001 IEM_DS3505
ZBHH,2002-01-09 01:00,ZBHH 090100Z AUTO 07006KT 6SM M12/M15 A3009 RMK T11201150 IEM_DS3505
ZBHH,2002-01-09 02:00,ZBHH 090200Z AUTO 08004KT 4SM A3009 RMK IEM_DS3505
ZBHH,2002-01-09 03:00,ZBHH 090300Z AUTO 09002KT 5SM M04/M09 A3009 RMK SLP266 T10361089 54000 IEM_DS3505
ZBHH,2002-01-09 04:00,ZBHH 090400Z AUTO 18004KT 6SM M03/M12 A3006 RMK T10301120 IEM_DS3505
ZBHH,2002-01-09 05:00,ZBHH 090500Z AUTO 28002KT 6SM M02/M12 A3003 RMK T10201120 IEM_DS3505
ZBHH,2002-01-09 06:00,ZBHH 090600Z AUTO 00000KT 5SM M00/M10 A3000 RMK SLP227 T10041103 57026 IEM_DS3505
ZBHH,2002-01-09 07:00,ZBHH 090700Z AUTO 21002KT 5SM A3000 RMK IEM_DS3505
ZBHH,2002-01-09 08:00,ZBHH 090800Z AUTO 21002KT 5SM A3000 RMK IEM_DS3505
ZBHH,2002-01-09 09:00,ZBHH 090900Z AUTO 00000KT 5SM M01/M08 A3000 RMK SLP234 T10101085 57002 IEM_DS3505
ZBHH,2002-01-09 10:00,ZBHH 091000Z AUTO 13002KT 3SM M07/M13 A3000 RMK T10701130 IEM_DS3505
ZBHH,2002-01-09 11:00,ZBHH 091100Z AUTO 2 1/2SM M07/M12 A3000 RMK T10701120 IEM_DS3505
ZBHH,2002-01-09 12:00,ZBHH 091200Z AUTO 00000KT 4SM M04/M10 A3003 RMK SLP253 T10361102 52010 IEM_DS3505
ZBHH,2002-01-09 13:00,ZBHH 091300Z AUTO 08004KT 2 1/2SM M08/M13 A3003 RMK T10801130 IEM_DS3505
ZBHH,2002-01-09 14:00,ZBHH 091400Z AUTO 05002KT 2 1/2SM M09/M13 A3003 RMK T10901130 IEM_DS3505
ZBHH,2002-01-09 15:00,ZBHH 091500Z AUTO 00000KT 5SM M06/M11 A3003 RMK SLP239 T10561108 57002 IEM_DS3505
ZBHH,2002-01-09 16:00,ZBHH 091600Z AUTO 04004KT 2 1/2SM M11/M14 A3000 RMK T11101140 IEM_DS3505
ZBHH,2002-01-09 17:00,ZBHH 091700Z AUTO 06004KT 2 1/2SM M12/M15 A3000 RMK T11201150 IEM_DS3505
ZBHH,2002-01-09 18:00,ZBHH 091800Z AUTO 00000KT 7SM M09/M13 A3000 RMK SLP236 T10881127 57003 IEM_DS3505
ZBHH,2002-01-09 19:00,ZBHH 091900Z AUTO 06002KT 2 1/2SM M13/M16 A2997 RMK T11301160 IEM_DS3505
ZBHH,2002-01-09 20:00,ZBHH 092000Z AUTO 06002KT 2 1/2SM M13/M16 A2997 RMK T11301160 IEM_DS3505
ZBHH,2002-01-09 21:00,ZBHH 092100Z AUTO 00000KT 6SM M09/M11 A2994 RMK SLP224 T10891113 57012 IEM_DS3505
ZBHH,2002-01-09 22:00,ZBHH 092200Z AUTO 09004KT 3SM M13/M15 A2994 RMK T11301150 IEM_DS3505
ZBHH,2002-01-09 23:00,ZBHH 092300Z AUTO 08004KT 1 1/4SM A2994 RMK IEM_DS3505
ZBHH,2002-01-10 00:00,ZBHH 100000Z AUTO 00000KT 4SM M07/M08 A2994 RMK SLP224 T10741083 57002 IEM_DS3505
ZBHH,2002-01-10 01:00,ZBHH 100100Z AUTO 06002KT 2 1/2SM A2997 RMK IEM_DS3505
ZBHH,2002-01-10 02:00,ZBHH 100200Z AUTO 05002KT 2 1/2SM A2997 RMK IEM_DS3505
ZBHH,2002-01-10 03:00,ZBHH 100300Z AUTO 00000KT 5SM M02/M08 A2997 RMK SLP225 T10241084 52007 IEM_DS3505
ZBHH,2002-01-10 04:00,ZBHH 100400Z AUTO 14002KT 6SM M02/M09 A2994 RMK T10201090 IEM_DS3505
ZBHH,2002-01-10 05:00,ZBHH 100500Z AUTO 17002KT 6SM M01/M10 A2994 RMK T10101100 IEM_DS3505
ZBHH,2002-01-10 06:00,ZBHH 100600Z AUTO 00000KT 6SM 01/M09 A2991 RMK SLP203 T00121089 57018 IEM_DS3505
ZBHH,2002-01-10 07:00,ZBHH 100700Z AUTO 6SM 01/M10 A2991 RMK T00101100 IEM_DS3505
ZBHH,2002-01-10 08:00,ZBHH 100800Z AUTO 6SM 01/M10 A2991 RMK T00101100 IEM_DS3505
ZBHH,2002-01-10 09:00,ZBHH 100900Z AUTO 07002KT 12SM 01/M09 A2994 RMK SLP212 T00061090 52006 IEM_DS3505
ZBHH,2002-01-10 10:00,ZBHH 101000Z AUTO 07004KT 3SM A2994 RMK IEM_DS3505
ZBHH,2002-01-10 11:00,ZBHH 101100Z AUTO 04004KT 2SM A2997 RMK IEM_DS3505
ZBHH,2002-01-10 12:00,ZBHH 101200Z AUTO 00000KT 4SM M04/M10 RMK SLP237 T10381105 52016 IEM_DS3505
ZBHH,2002-01-10 14:00,ZBHH 101400Z AUTO 07006KT 4SM M10/M13 A2997 RMK T11001130 IEM_DS3505
ZBHH,2002-01-10 15:00,ZBHH 101500Z AUTO 00000KT 4SM M06/M10 A2997 RMK SLP224 T10551102 57004 IEM_DS3505
ZBHH,2002-01-10 16:00,ZBHH 101600Z AUTO 09006KT 5SM M10/M14 A2997 RMK T11001140 IEM_DS3505
ZBHH,2002-01-10 17:00,ZBHH 101700Z AUTO 07006KT 5SM M08/M12 A2997 RMK T10801120 IEM_DS3505
ZBHH,2002-01-10 18:00,ZBHH 101800Z AUTO 00000KT 6SM M08/M10 A2994 RMK SLP214 T10761102 57006 IEM_DS3505
ZBHH,2002-01-10 19:00,ZBHH 101900Z AUTO 06004KT 5SM M09/M13 A2997 RMK T10901130 IEM_DS3505
ZBHH,2002-01-10 20:00,ZBHH 102000Z AUTO 07006KT 5SM M10/M14 A2994 RMK T11001140 IEM_DS3505
ZBHH,2002-01-10 21:00,ZBHH 102100Z AUTO 00000KT 6SM M09/M12 A2994 RMK SLP216 T10931118 57003 IEM_DS3505
ZBHH,2002-01-10 22:00,ZBHH 102200Z AUTO 07006KT 6SM M12/M15 A2994 RMK T11201150 IEM_DS3505
ZBHH,2002-01-10 23:00,ZBHH 102300Z AUTO 06004KT 6SM M10/M13 A2994 RMK T11001130 IEM_DS3505
ZBHH,2002-01-11 00:00,ZBHH 110000Z AUTO 09002KT 5SM M09/M12 A2994 RMK SLP226 T10891118 54000 IEM_DS3505
ZBHH,2002-01-11 01:00,ZBHH 110100Z AUTO 07004KT 6SM M10/M13 A2994 RMK T11001130 IEM_DS3505
ZBHH,2002-01-11 02:00,ZBHH 110200Z AUTO 08004KT 4SM M06/M10 A2997 RMK T10601100 IEM_DS3505
ZBHH,2002-01-11 03:00,ZBHH 110300Z AUTO 00000KT 7SM 00/M11 A2997 RMK SLP209 T00051107 52002 IEM_DS3505
ZBHH,2002-01-11 04:00,ZBHH 110400Z AUTO 14002KT 6SM 02/M12 A2994 RMK T00201120 IEM_DS3505
ZBHH,2002-01-11 05:00,ZBHH 110500Z AUTO 02002KT 6SM 03/M12 A2991 RMK T00301120 IEM_DS3505
ZBHH,2002-01-11 06:00,ZBHH 110600Z AUTO 00000KT 7SM 05/M12 A2988 RMK SLP184 T00461123 57018 IEM_DS3505
ZBHH,2002-01-11 07:00,ZBHH 110700Z AUTO 6SM 05/M12 A2988 RMK T00501120 IEM_DS3505
ZBHH,2002-01-11 08:00,ZBHH 110800Z AUTO 6SM 06/M12 A2988 RMK T00601120 IEM_DS3505
ZBHH,2002-01-11 09:00,ZBHH 110900Z AUTO 00000KT 9SM 05/M10 A2988 RMK SLP186 T00461101 57002 IEM_DS3505
ZBHH,2002-01-11 10:00,ZBHH 111000Z AUTO 26002KT 6SM 01/M12 A2988 RMK T00101120 IEM_DS3505
ZBHH,2002-01-11 11:00,ZBHH 111100Z AUTO 02004KT M03/M11 A2991 RMK T10301110 IEM_DS3505
ZBHH,2002-01-11 12:00,ZBHH 111200Z AUTO 00000KT 4SM M03/M11 A2991 RMK SLP214 T10301112 52009 IEM_DS3505
ZBHH,2002-01-11 13:00,ZBHH 111300Z AUTO 06004KT 5SM M04/M11 A2991 RMK T10401110 IEM_DS3505
ZBHH,2002-01-11 14:00,ZBHH 111400Z AUTO 10002KT 5SM M06/M12 A2994 RMK T10601120 IEM_DS3505
ZBHH,2002-01-11 15:00,ZBHH 111500Z AUTO 00000KT 5SM M05/M09 A2994 RMK SLP208 T10491089 52011 IEM_DS3505
ZBHH,2002-01-11 18:00,ZBHH 111800Z AUTO 00000KT 6SM M05/M10 RMK SLP202 T10491103 52004 IEM_DS3505
ZBHH,2002-01-11 21:00,ZBHH 112100Z AUTO 32002KT 6SM M06/M10 A2997 RMK SLP209 T10601104 52004 IEM_DS3505
ZBHH,2002-01-11 22:00,ZBHH 112200Z AUTO 10006KT 6SM M10/M15 A2997 RMK T11001150 IEM_DS3505
ZBHH,2002-01-11 23:00,ZBHH 112300Z AUTO 10004KT 6SM M10/M14 A3000 RMK T11001140 IEM_DS3505
ZBHH,2002-01-12 00:00,ZBHH 120000Z AUTO 00000KT 6SM M04/M12 A3000 RMK SLP232 T10441115 52007 IEM_DS3505
ZBHH,2002-01-12 01:00,ZBHH 120100Z AUTO 06004KT 6SM M10/M14 A3003 RMK T11001140 IEM_DS3505
ZBHH,2002-01-12 02:00,ZBHH 120200Z AUTO 11004KT 6SM M03/M12 A3003 RMK T10301120 IEM_DS3505
ZBHH,2002-01-12 03:00,ZBHH 120300Z AUTO 00000KT 5SM 01/M09 A3003 RMK SLP229 T00111091 52005 IEM_DS3505
ZBHH,2002-01-12 04:00,ZBHH 120400Z AUTO 21002KT 6SM 03/M12 A3000 RMK T00301120 IEM_DS3505
ZBHH,2002-01-12 05:00,ZBHH 120500Z AUTO 6SM 05/M11 A2997 RMK T00501110 IEM_DS3505
ZBHH,2002-01-12 06:00,ZBHH 120600Z AUTO 18004KT 5SM 05/M08 A2994 RMK SLP195 T00471075 57022 IEM_DS3505
ZBHH,2002-01-12 07:00,ZBHH 120700Z AUTO 22004KT 04/M10 A2994 RMK T00401100 IEM_DS3505
ZBHH,2002-01-12 08:00,ZBHH 120800Z AUTO 22002KT 03/M09 A2994 RMK T00301090 IEM_DS3505
ZBHH,2002-01-12 09:00,ZBHH 120900Z AUTO 18004KT 5SM 03/M06 A2994 RMK SLP201 T00271062 57001 IEM_DS3505
ZBHH,2002-01-12 10:00,ZBHH 121000Z AUTO 17002KT 4SM A2997 RMK IEM_DS3505
ZBHH,2002-01-12 11:00,ZBHH 121100Z AUTO 2 1/2SM A2997 RMK IEM_DS3505
ZBHH,2002-01-12 12:00,ZBHH 121200Z AUTO 00000KT 4SM M01/M08 A3000 RMK SLP223 T10111077 52014 IEM_DS3505
ZBHH,2002-01-12 13:00,ZBHH 121300Z AUTO 05002KT 2SM A3000 RMK IEM_DS3505
ZBHH,2002-01-12 14:00,ZBHH 121400Z AUTO 06002KT 2SM M09/M11 A3000 RMK T10901110 IEM_DS3505
ZBHH,2002-01-12 15:00,ZBHH 121500Z AUTO 00000KT 4SM M03/M08 A3000 RMK SLP212 T10341078 57003 IEM_DS3505
ZBHH,2002-01-12 16:00,ZBHH 121600Z AUTO 05002KT 2 1/2SM M11/M14 A3000 RMK T11101140 IEM_DS3505
ZBHH,2002-01-12 17:00,ZBHH 121700Z AUTO 08006KT 2 1/2SM M10/M13 A2997 RMK T11001130 IEM_DS3505
ZBHH,2002-01-12 18:00,ZBHH 121800Z AUTO 00000KT 6SM M06/M10 A2997 RMK SLP206 T10631095 57003 IEM_DS3505
ZBHH,2002-01-12 19:00,ZBHH 121900Z AUTO 04004KT 2 1/2SM M11/M13 A2997 RMK T11101130 IEM_DS3505
ZBHH,2002-01-12 21:00,ZBHH 122100Z AUTO 00000KT 19SM M08/M10 A2991 RMK SLP197 T10821105 57017 IEM_DS3505
ZBHH,2002-01-12 22:00,ZBHH 122200Z AUTO 06004KT 6SM M10/M13 A2988 RMK T11001130 IEM_DS3505
ZBHH,2002-01-12 23:00,ZBHH 122300Z AUTO 06006KT 6SM M11/M14 A2988 RMK T11101140 IEM_DS3505
ZBHH,2002-01-13 00:00,ZBHH 130000Z AUTO 00000KT 4SM M08/M10 A2988 RMK SLP196 T10761102 57008 IEM_DS3505
ZBHH,2002-01-13 01:00,ZBHH 130100Z AUTO 06002KT 4SM M09/M13 A2988 RMK T10901130 IEM_DS3505
ZBHH,2002-01-13 02:00,ZBHH 130200Z AUTO 08004KT 3SM M06/M10 A2985 RMK T10601100 IEM_DS3505
ZBHH,2002-01-13 03:00,ZBHH 130300Z AUTO 00000KT 6SM M01/M08 A2983 RMK SLP168 T10101080 57015 IEM_DS3505
ZBHH,2002-01-13 04:00,ZBHH 130400Z AUTO 06002KT 3SM 01/M10 A2980 RMK T00101100 IEM_DS3505
ZBHH,2002-01-13 05:00,ZBHH 130500Z AUTO 28002KT 3SM 02/M09 A2974 RMK T00201090 IEM_DS3505
ZBHH,2002-01-13 06:00,ZBHH 130600Z AUTO 00000KT 6SM 04/M11 A2971 RMK SLP118 T00371112 57040 IEM_DS3505
ZBHH,2002-01-13 07:00,ZBHH 130700Z AUTO 32004KT 3SM 04/M10 A2971 RMK T00401100 IEM_DS3505
ZBHH,2002-01-13 08:00,ZBHH 130800Z AUTO 34002KT 3SM 04/M10 A2968 RMK T00401100 IEM_DS3505
ZBHH,2002-01-13 09:00,ZBHH 130900Z AUTO 27004KT 7SM 04/M07 A2968 RMK SLP117 T00401073 57004 IEM_DS3505
ZBHH,2002-01-13 10:00,ZBHH 131000Z AUTO 36004KT 2 1/2SM 01/M10 A2971 RMK T00101100 IEM_DS3505
ZBHH,2002-01-13 11:00,ZBHH 131100Z AUTO 09004KT 2 1/2SM A2971 RMK IEM_DS3505
ZBHH,2002-01-13 12:00,ZBHH 131200Z AUTO 00000KT 4SM 01/M08 A2974 RMK SLP145 T00071083 52019 IEM_DS3505
ZBHH,2002-01-13 14:00,ZBHH 131400Z AUTO 06002KT 2 1/2SM A2977 RMK IEM_DS3505
ZBHH,2002-01-13 15:00,ZBHH 131500Z AUTO 00000KT 3SM M01/M07 A2980 RMK SLP138 T10071071 52005 IEM_DS3505
ZBHH,2002-01-13 16:00,ZBHH 131600Z AUTO 07002KT 2 1/2SM M05/M09 A2980 RMK T10501090 IEM_DS3505
ZBHH,2002-01-13 17:00,ZBHH 131700Z AUTO 02002KT 2 1/2SM M04/M08 A2980 RMK T10401080 IEM_DS3505
ZBHH,2002-01-13 18:00,ZBHH 131800Z AUTO 00000KT 4SM M01/M07 A2983 RMK SLP146 T10091070 52016 IEM_DS3505
ZBHH,2002-01-13 19:00,ZBHH 131900Z AUTO 07006KT 2 1/2SM M05/M08 A2985 RMK T10501080 IEM_DS3505
ZBHH,2002-01-13 20:00,ZBHH 132000Z AUTO 07004KT 2 1/2SM M04/M08 A2983 RMK T10401080 IEM_DS3505
ZBHH,2002-01-13 21:00,ZBHH 132100Z AUTO 02002KT 6SM M02/M06 A2983 RMK SLP143 T10211064 57004 IEM_DS3505
ZBHH,2002-01-13 22:00,ZBHH 132200Z AUTO 05002KT 2 1/2SM M06/M09 A2983 RMK T10601090 IEM_DS3505
ZBHH,2002-01-13 23:00,ZBHH 132300Z AUTO 11002KT 2 1/2SM M07/M10 A2983 RMK T10701100 IEM_DS3505
ZBHH,2002-01-14 00:00,ZBHH 140000Z AUTO 00000KT 5SM M03/M08 A2985 RMK SLP165 T10311082 52010 IEM_DS3505
ZBHH,2002-01-14 01:00,ZBHH 140100Z AUTO 05006KT 3SM M03/M08 A2985 RMK T10301080 IEM_DS3505
ZBHH,2002-01-14 02:00,ZBHH 140200Z AUTO 11004KT 3SM M01/M08 A2988 RMK T10101080 IEM_DS3505
ZBHH,2002-01-14 03:00,ZBHH 140300Z AUTO 14004KT 9SM 02/M07 A2991 RMK SLP178 T00251066 52020 IEM_DS3505
ZBHH,2002-01-14 04:00,ZBHH 140400Z AUTO 35004KT 02/M08 A2988 RMK T00201080 IEM_DS3505
ZBHH,2002-01-14 05:00,ZBHH 140500Z AUTO 04006KT 6SM 04/M09 A2985 RMK T00401090 IEM_DS3505
ZBHH,2002-01-14 06:00,ZBHH 140600Z AUTO 07006KT 12SM 06/M05 A2985 RMK SLP150 T00581053 57018 IEM_DS3505
ZBHH,2002-01-14 07:00,ZBHH 140700Z AUTO 09012KT 6SM 05/M08 A2985 RMK T00501080 IEM_DS3505
ZBHH,2002-01-14 08:00,ZBHH 140800Z AUTO 08006KT 6SM 05/M08 A2985 RMK T00501080 IEM_DS3505
ZBHH,2002-01-14 09:00,ZBHH 140900Z AUTO 04002KT 12SM 05/M06 A2988 RMK SLP162 T00521063 52007 IEM_DS3505
ZBHH,2002-01-14 10:00,ZBHH 141000Z AUTO 08008KT 6SM 01/M08 A2988 RMK T00101080 IEM_DS3505
ZBHH,2002-01-14 11:00,ZBHH 141100Z AUTO 07006KT 6SM 00/M07 A2991 RMK T00001070 IEM_DS3505
ZBHH,2002-01-14 12:00,ZBHH 141200Z AUTO 04004KT 19SM 03/M06 A2994 RMK SLP191 T00281064 52018 IEM_DS3505
ZBHH,2002-01-14 13:00,ZBHH 141300Z AUTO 06008KT 6SM 00/M09 A2994 RMK T00001090 IEM_DS3505
ZBHH,2002-01-14 14:00,ZBHH 141400Z AUTO 08008KT 6SM M01/M10 A2994 RMK T10101100 IEM_DS3505
ZBHH,2002-01-14 15:00,ZBHH 141500Z AUTO 27002KT 16SM 01/M08 A2997 RMK SLP197 T00121085 52014 IEM_DS3505
ZBHH,2002-01-14 18:00,ZBHH 141800Z AUTO 27004KT 19SM 00/M10 RMK SLP208 T00001101 52014 IEM_DS3505
ZBHH,2002-01-14 21:00,ZBHH 142100Z AUTO 32004KT 19SM M02/M13 A3003 RMK SLP220 T10201133 52005 IEM_DS3505
ZBHH,2002-01-14 22:00,ZBHH 142200Z AUTO 34008KT 6SM M04/M14 A3006 RMK T10401140 IEM_DS3505
ZBHH,2002-01-14 23:00,ZBHH 142300Z AUTO 36008KT 6SM M03/M15 A3009 RMK T10301150 IEM_DS3505
ZBHH,2002-01-15 00:00,ZBHH 150000Z AUTO 32006KT 19SM M03/M14 A3012 RMK SLP250 T10311137 52019 IEM_DS3505
ZBHH,2002-01-15 01:00,ZBHH 150100Z AUTO 6SM M05/M15 A3015 RMK T10501150 IEM_DS3505
ZBHH,2002-01-15 02:00,ZBHH 150200Z AUTO 36002KT 6SM M02/M15 A3015 RMK T10201150 IEM_DS3505
ZBHH,2002-01-15 03:00,ZBHH 150300Z AUTO 27004KT 19SM M01/M13 A3015 RMK SLP267 T10081127 52016 IEM_DS3505
ZBHH,2002-01-15 04:00,ZBHH 150400Z AUTO 35004KT 6SM 00/M16 A3015 RMK T00001160 IEM_DS3505
ZBHH,2002-01-15 05:00,ZBHH 150500Z AUTO 34002KT 6SM 00/M16 A3015 RMK T00001160 IEM_DS3505
ZBHH,2002-01-15 06:00,ZBHH 150600Z AUTO 00000KT 19SM 01/M14 A3012 RMK SLP252 T00131142 57011 IEM_DS3505
ZBHH,2002-01-15 07:00,ZBHH 150700Z AUTO 35004KT 6SM 00/M14 A3012 RMK T00001140 IEM_DS3505
ZBHH,2002-01-15 08:00,ZBHH 150800Z AUTO 35004KT 6SM 00/M12 A3012 RMK T00001120 IEM_DS3505
ZBHH,2002-01-15 09:00,ZBHH 150900Z AUTO 00000KT 19SM 01/M12 A3012 RMK SLP262 T00121120 52004 IEM_DS3505
ZBHH,2002-01-15 10:00,ZBHH 151000Z AUTO 16002KT 6SM M02/M13 A3015 RMK T10201130 IEM_DS3505
ZBHH,2002-01-15 11:00,ZBHH 151100Z AUTO 05004KT 6SM M04/M12 A3018 RMK T10401120 IEM_DS3505
ZBHH,2002-01-15 12:00,ZBHH 151200Z AUTO 29002KT 19SM M03/M14 A3021 RMK SLP295 T10261139 52019 IEM_DS3505
ZBHH,2002-01-15 13:00,ZBHH 151300Z AUTO 06006KT 6SM M05/M13 A3021 RMK T10501130 IEM_DS3505
ZBHH,2002-01-15 14:00,ZBHH 151400Z AUTO 07006KT 6SM M05/M13 A3021 RMK T10501130 IEM_DS3505
ZBHH,2002-01-15 15:00,ZBHH 151500Z AUTO 29002KT 19SM M04/M14 A3021 RMK SLP302 T10421139 52007 IEM_DS3505
ZBHH,2002-01-15 18:00,ZBHH 151800Z AUTO 34002KT 16SM M04/M14 RMK SLP297 T10451139 54000 IEM_DS3505
ZBHH,2002-01-15 21:00,ZBHH 152100Z AUTO 09002KT 12SM M06/M15 A3018 RMK SLP288 T10561146 57011 IEM_DS3505
ZBHH,2002-01-15 22:00,ZBHH 152200Z AUTO 02002KT 6SM M10/M16 A3018 RMK T11001160 IEM_DS3505
ZBHH,2002-01-15 23:00,ZBHH 152300Z AUTO 08002KT 6SM M12/M18 A3018 RMK T11201180 IEM_DS3505
ZBHH,2002-01-16 00:00,ZBHH 160000Z AUTO 00000KT 12SM M10/M15 A3021 RMK SLP310 T10961149 52002 IEM_DS3505
ZBHH,2002-01-16 01:00,ZBHH 160100Z AUTO 08004KT 6SM M11/M16 A3021 RMK T11101160 IEM_DS3505
ZBHH,2002-01-16 02:00,ZBHH 160200Z AUTO 10004KT 6SM M07/M16 A3021 RMK T10701160 IEM_DS3505
ZBHH,2002-01-16 03:00,ZBHH 160300Z AUTO 25004KT 6SM M04/M13 A3021 RMK SLP308 T10361134 52008 IEM_DS3505
ZBHH,2002-01-16 04:00,ZBHH 160400Z AUTO 22006KT 6SM M04/M16 A3018 RMK T10401160 IEM_DS3505
ZBHH,2002-01-16 05:00,ZBHH 160500Z AUTO 23006KT 6SM M03/M15 A3015 RMK T10301150 IEM_DS3505
ZBHH,2002-01-16 06:00,ZBHH 160600Z AUTO 20008KT 19SM M01/M15 A3012 RMK SLP266 T10091148 57031 IEM_DS3505
ZBHH,2002-01-16 07:00,ZBHH 160700Z AUTO 23006KT 6SM M01/M14 A3009 RMK T10101140 IEM_DS3505
ZBHH,2002-01-16 08:00,ZBHH 160800Z AUTO 23006KT 6SM M01/M15 A3009 RMK T10101150 IEM_DS3505
ZBHH,2002-01-16 09:00,ZBHH 160900Z AUTO 20006KT 19SM M01/M15 A3009 RMK SLP259 T10081146 57008 IEM_DS3505
ZBHH,2002-01-16 10:00,ZBHH 161000Z AUTO 20002KT 6SM M03/M15 A3012 RMK T10301150 IEM_DS3505
ZBHH,2002-01-16 11:00,ZBHH 161100Z AUTO 33002KT M05/M15 A3015 RMK T10501150 IEM_DS3505
ZBHH,2002-01-16 12:00,ZBHH 161200Z AUTO 29004KT 16SM M03/M18 A3015 RMK SLP292 T10271176 52015 IEM_DS3505
ZBHH,2002-01-16 13:00,ZBHH 161300Z AUTO 36010G19KT 6SM M06/M21 A3015 RMK T10601210 IEM_DS3505
ZBHH,2002-01-16 14:00,ZBHH 161400Z AUTO 33010KT 6SM M07/M21 A3015 RMK T10701210 IEM_DS3505
ZBHH,2002-01-16 15:00,ZBHH 161500Z AUTO 29008KT 19SM M06/M22 A3018 RMK SLP297 T10641218 52010 IEM_DS3505
ZBHH,2002-01-16 16:00,ZBHH 161600Z AUTO 36006KT 6SM M08/M22 A3018 RMK T10801220 IEM_DS3505
ZBHH,2002-01-16 18:00,ZBHH 161800Z AUTO 27008KT 19SM M07/M20 RMK SLP286 T10741195 57006 IEM_DS3505
ZBHH,2002-01-16 21:00,ZBHH 162100Z AUTO 34002KT 19SM M09/M21 A3018 RMK SLP294 T10901212 52004 IEM_DS3505
ZBHH,2002-01-16 22:00,ZBHH 162200Z AUTO 07006KT 6SM M15/M22 A3018 RMK T11501220 IEM_DS3505
ZBHH,2002-01-16 23:00,ZBHH 162300Z AUTO 07006KT 6SM M16/M22 A3018 RMK T11601220 IEM_DS3505
ZBHH,2002-01-17 00:00,ZBHH 170000Z AUTO 20002KT 12SM M10/M20 A3018 RMK SLP305 T10981201 52003 IEM_DS3505
ZBHH,2002-01-17 01:00,ZBHH 170100Z AUTO 08004KT 6SM M15/M21 A3021 RMK T11501210 IEM_DS3505
ZBHH,2002-01-17 02:00,ZBHH 170200Z AUTO 07002KT 6SM M11/M21 A3021 RMK T11101210 IEM_DS3505
ZBHH,2002-01-17 03:00,ZBHH 170300Z AUTO 09002KT 12SM M06/M17 A3021 RMK SLP320 T10561166 52014 IEM_DS3505
ZBHH,2002-01-17 04:00,ZBHH 170400Z AUTO 6SM M06/M22 A3021 RMK T10601220 IEM_DS3505
ZBHH,2002-01-17 05:00,ZBHH 170500Z AUTO 04002KT 6SM M05/M22 A3018 RMK T10501220 IEM_DS3505
ZBHH,2002-01-17 06:00,ZBHH 170600Z AUTO 09002KT 9SM M03/M18 A3015 RMK SLP283 T10301184 57028 IEM_DS3505
ZBHH,2002-01-17 07:00,ZBHH 170700Z AUTO 09002KT 6SM M03/M23 A3012 RMK T10301230 IEM_DS3505
ZBHH,2002-01-17 08:00,ZBHH 170800Z AUTO 12002KT 6SM M02/M23 A3012 RMK T10201230 IEM_DS3505
ZBHH,2002-01-17 09:00,ZBHH 170900Z AUTO 00000KT 12SM M02/M15 A3012 RMK SLP282 T10161150 57002 IEM_DS3505
ZBHH,2002-01-17 10:00,ZBHH 171000Z AUTO 22002KT 6SM M05/M22 A3015 RMK T10501220 IEM_DS3505
ZBHH,2002-01-17 11:00,ZBHH 171100Z AUTO 24002KT 6SM M07/M21 A3015 RMK T10701210 IEM_DS3505
ZBHH,2002-01-17 12:00,ZBHH 171200Z AUTO 00000KT 5SM M06/M18 A3015 RMK T10651177 52010 IEM_DS3505
ZBHH,2002-01-17 13:00,ZBHH 171300Z AUTO 07004KT 6SM M11/M22 A3015 RMK T11101220 IEM_DS3505
ZBHH,2002-01-17 14:00,ZBHH 171400Z AUTO 08004KT 6SM M14/M23 A3018 RMK T11401230 IEM_DS3505
ZBHH,2002-01-17 15:00,ZBHH 171500Z AUTO 00000KT 7SM M09/M20 A3018 RMK SLP307 T10921198 52015 IEM_DS3505
ZBHH,2002-01-17 18:00,ZBHH 171800Z AUTO 00000KT 12SM M11/M19 RMK SLP303 T11091194 57002 IEM_DS3505
ZBHH,2002-01-17 21:00,ZBHH 172100Z AUTO 00000KT 9SM M12/M20 A3015 RMK SLP297 T11151199 57003 IEM_DS3505
ZBHH,2002-01-17 22:00,ZBHH 172200Z AUTO 6SM M16/M22 A3015 RMK T11601220 IEM_DS3505
ZBHH,2002-01-17 23:00,ZBHH 172300Z AUTO 08006KT 6SM M17/M23 A3015 RMK T11701230 IEM_DS3505
ZBHH,2002-01-18 00:00,ZBHH 180000Z AUTO 00000KT 6SM M11/M19 A3015 RMK SLP310 T11121190 52001 IEM_DS3505
ZBHH,2002-01-18 01:00,ZBHH 180100Z AUTO 07002KT 6SM M15/M21 A3015 RMK T11501210 IEM_DS3505
ZBHH,2002-01-18 02:00,ZBHH 180200Z AUTO 09004KT 6SM M10/M21 A3015 RMK T11001210 IEM_DS3505
ZBHH,2002-01-18 03:00,ZBHH 180300Z AUTO 07002KT 6SM M05/M18 A3015 RMK SLP306 T10521180 52004 IEM_DS3505
ZBHH,2002-01-18 04:00,ZBHH 180400Z AUTO 05002KT 6SM M06/M21 A3015 RMK T10601210 IEM_DS3505
ZBHH,2002-01-18 05:00,ZBHH 180500Z AUTO 22004KT 6SM M04/M20 A3012 RMK T10401200 IEM_DS3505
ZBHH,2002-01-18 06:00,ZBHH 180600Z AUTO 16002KT 6SM M03/M19 A3012 RMK SLP288 T10341186 57016 IEM_DS3505
ZBHH,2002-01-18 07:00,ZBHH 180700Z AUTO 24004KT 6SM M03/M19 A3009 RMK T10301190 IEM_DS3505
ZBHH,2002-01-18 08:00,ZBHH 180800Z AUTO 24004KT 6SM M03/M18 A3009 RMK T10301180 IEM_DS3505
ZBHH,2002-01-18 09:00,ZBHH 180900Z AUTO 20006KT 19SM M03/M18 A3009 RMK SLP282 T10301176 57005 IEM_DS3505
ZBHH,2002-01-18 10:00,ZBHH 181000Z AUTO 24004KT 6SM M06/M19 A3012 RMK T10601190 IEM_DS3505
ZBHH,2002-01-18 11:00,ZBHH 181100Z AUTO 16002KT 6SM M08/M19 A3012 RMK T10801190 IEM_DS3505
ZBHH,2002-01-18 12:00,ZBHH 181200Z AUTO 02004KT 6SM M06/M16 A3012 RMK SLP298 T10561159 52008 IEM_DS3505
ZBHH,2002-01-18 13:00,ZBHH 181300Z AUTO 06004KT 4SM A3015 RMK IEM_DS3505
ZBHH,2002-01-18 14:00,ZBHH 181400Z AUTO 06004KT 4SM A3015 RMK IEM_DS3505
ZBHH,2002-01-18 15:00,ZBHH 181500Z AUTO 00000KT 12SM M06/M16 A3015 RMK SLP293 T10641160 52008 IEM_DS3505
ZBHH,2002-01-18 18:00,ZBHH 181800Z AUTO 00000KT 9SM M07/M16 RMK SLP286 T10701158 57004 IEM_DS3505
ZBHH,2002-01-18 21:00,ZBHH 182100Z AUTO 00000KT 9SM M09/M16 A3015 RMK SLP287 T10891157 57002 IEM_DS3505
ZBHH,2002-01-18 22:00,ZBHH 182200Z AUTO 10004KT 6SM M15/M20 A3015 RMK T11501200 IEM_DS3505
ZBHH,2002-01-18 23:00,ZBHH 182300Z AUTO 6SM M15/M19 A3015 RMK T11501190 IEM_DS3505
ZBHH,2002-01-19 00:00,ZBHH 190000Z AUTO 00000KT 6SM M10/M16 A3015 RMK SLP308 T11051163 52009 IEM_DS3505
ZBHH,2002-01-19 01:00,ZBHH 190100Z AUTO 11004KT 6SM M16/M20 A3018 RMK T11601200 IEM_DS3505
ZBHH,2002-01-19 02:00,ZBHH 190200Z AUTO 11002KT 6SM M10/M15 A3018 RMK T11001150 IEM_DS3505
ZBHH,2002-01-19 03:00,ZBHH 190300Z AUTO 00000KT 12SM M05/M14 A3018 RMK SLP308 T10541143 52009 IEM_DS3505
ZBHH,2002-01-19 04:00,ZBHH 190400Z AUTO 22002KT 6SM M06/M14 A3015 RMK T10601140 IEM_DS3505
ZBHH,2002-01-19 05:00,ZBHH 190500Z AUTO 24008KT 6SM M04/M13 A3012 RMK T10401130 IEM_DS3505
ZBHH,2002-01-19 06:00,ZBHH 190600Z AUTO 25008KT 7SM M01/M12 A3012 RMK SLP273 T10141122 57023 IEM_DS3505
ZBHH,2002-01-19 07:00,ZBHH 190700Z AUTO 24010KT 6SM M03/M13 A3012 RMK T10301130 IEM_DS3505
ZBHH,2002-01-19 08:00,ZBHH 190800Z AUTO 24008KT 6SM M03/M14 A3012 RMK T10301140 IEM_DS3505
ZBHH,2002-01-19 09:00,ZBHH 190900Z AUTO 20006KT 9SM M02/M14 A3012 RMK SLP280 T10211142 52001 IEM_DS3505
ZBHH,2002-01-19 10:00,ZBHH 191000Z AUTO 24006KT 6SM M04/M15 A3012 RMK T10401150 IEM_DS3505
ZBHH,2002-01-19 11:00,ZBHH 191100Z AUTO 25006KT 6SM M05/M16 A3015 RMK T10501160 IEM_DS3505
ZBHH,2002-01-19 12:00,ZBHH 191200Z AUTO 20006KT 12SM M04/M13 A3015 RMK SLP300 T10361134 52010 IEM_DS3505
ZBHH,2002-01-19 13:00,ZBHH 191300Z AUTO 23006KT 6SM M06/M15 A3015 RMK T10601150 IEM_DS3505
ZBHH,2002-01-19 14:00,ZBHH 191400Z AUTO 23006KT 6SM M07/M16 A3015 RMK T10701160 IEM_DS3505
ZBHH,2002-01-19 15:00,ZBHH 191500Z AUTO 22006KT 19SM M06/M16 A3015 RMK SLP296 T10611161 52003 IEM_DS3505
ZBHH,2002-01-19 18:00,ZBHH 191800Z AUTO 29010KT 19SM M06/M17 RMK SLP292 T10561173 52006 IEM_DS3505
ZBHH,2002-01-19 21:00,ZBHH 192100Z AUTO 32004KT 19SM M08/M20 A3018 RMK SLP304 T10801199 52004 IEM_DS3505
ZBHH,2002-01-19 22:00,ZBHH 192200Z AUTO 31010KT 6SM M10/M19 A3021 RMK T11001190 IEM_DS3505
ZBHH,2002-01-19 23:00,ZBHH 192300Z AUTO 29012KT 6SM M11/M19 A3021 RMK T11101190 IEM_DS3505
ZBHH,2002-01-20 00:00,ZBHH 200000Z AUTO 29008KT 19SM M09/M18 A3021 RMK SLP320 T10941178 52007 IEM_DS3505
ZBHH,2002-01-20 01:00,ZBHH 200100Z AUTO 33012G21KT 6SM M11/M19 A3024 RMK T11101190 IEM_DS3505
ZBHH,2002-01-20 02:00,ZBHH 200200Z AUTO 31006KT 6SM M10/M19 A3027 RMK T11001190 IEM_DS3505
ZBHH,2002-01-20 03:00,ZBHH 200300Z AUTO 29008KT 19SM M08/M18 A3027 RMK SLP345 T10781180 52020 IEM_DS3505
ZBHH,2002-01-20 04:00,ZBHH 200400Z AUTO 02006KT 6SM M09/M18 A3030 RMK T10901180 IEM_DS3505
ZBHH,2002-01-20 05:00,ZBHH 200500Z AUTO 01004KT 6SM M08/M18 A3027 RMK T10801180 IEM_DS3505
ZBHH,2002-01-20 06:00,ZBHH 200600Z AUTO 29014KT 19SM M05/M15 A3024 RMK SLP323 T10511150 57012 IEM_DS3505
ZBHH,2002-01-20 07:00,ZBHH 200700Z AUTO 03006KT 6SM M07/M16 A3024 RMK T10701160 IEM_DS3505
ZBHH,2002-01-20 08:00,ZBHH 200800Z AUTO 30010KT 6SM M06/M18 A3024 RMK T10601180 IEM_DS3505
ZBHH,2002-01-20 09:00,ZBHH 200900Z AUTO 34006KT 19SM M06/M16 A3024 RMK SLP326 T10551164 57004 IEM_DS3505
ZBHH,2002-01-20 10:00,ZBHH 201000Z AUTO 33006KT 6SM M09/M16 A3024 RMK T10901160 IEM_DS3505
ZBHH,2002-01-20 11:00,ZBHH 201100Z AUTO 34004KT 6SM M09/M17 A3027 RMK T10901170 IEM_DS3505
ZBHH,2002-01-20 12:00,ZBHH 201200Z AUTO 29004KT 19SM M07/M17 A3027 RMK SLP350 T10711174 52014 IEM_DS3505
ZBHH,2002-01-20 13:00,ZBHH 201300Z AUTO 6SM M11/M18 A3027 RMK T11101180 IEM_DS3505
ZBHH,2002-01-20 14:00,ZBHH 201400Z AUTO 04002KT 6SM M12/M19 A3027 RMK T11201190 IEM_DS3505
ZBHH,2002-01-20 15:00,ZBHH 201500Z AUTO 32006KT 19SM M08/M21 RMK SLP345 T10841209 57003 IEM_DS3505
ZBHH,2002-01-20 18:00,ZBHH 201800Z AUTO 00000KT 19SM M10/M20 RMK SLP337 T11051197 57006 IEM_DS3505
ZBHH,2002-01-20 21:00,ZBHH 202100Z AUTO 09002KT 19SM M13/M18 A3021 RMK SLP332 T11261182 57010 IEM_DS3505
ZBHH,2002-01-20 22:00,ZBHH 202200Z AUTO 09002KT 6SM M20/M24 A3021 RMK T12001240 IEM_DS3505
ZBHH,2002-01-20 23:00,ZBHH 202300Z AUTO 09002KT 6SM M20/M24 A3021 RMK T12001240 IEM_DS3505
ZBHH,2002-01-21 00:00,ZBHH 210000Z AUTO 02002KT 9SM M14/M19 A3024 RMK SLP345 T11421188 52004 IEM_DS3505
ZBHH,2002-01-21 01:00,ZBHH 210100Z AUTO 11002KT 6SM M18/M22 A3024 RMK T11801220 IEM_DS3505
ZBHH,2002-01-21 02:00,ZBHH 210200Z AUTO 15004KT 6SM M13/M20 A3024 RMK T11301200 IEM_DS3505
ZBHH,2002-01-21 03:00,ZBHH 210300Z AUTO 20004KT 6SM M09/M17 A3027 RMK SLP345 T10881168 52009 IEM_DS3505
ZBHH,2002-01-21 04:00,ZBHH 210400Z AUTO 21004KT 6SM M09/M20 A3024 RMK T10901200 IEM_DS3505
ZBHH,2002-01-21 05:00,ZBHH 210500Z AUTO 20004KT 6SM M08/M20 A3021 RMK T10801200 IEM_DS3505
ZBHH,2002-01-21 06:00,ZBHH 210600Z AUTO 18006KT 12SM M04/M18 A3018 RMK SLP317 T10401184 57018 IEM_DS3505
ZBHH,2002-01-21 07:00,ZBHH 210700Z AUTO 31008KT 6SM M05/M23 A3018 RMK T10501230 IEM_DS3505
ZBHH,2002-01-21 08:00,ZBHH 210800Z AUTO 33012KT 6SM M05/M23 A3021 RMK T10501230 IEM_DS3505
ZBHH,2002-01-21 09:00,ZBHH 210900Z AUTO 32008KT 19SM M05/M22 A3021 RMK SLP330 T10461220 52005 IEM_DS3505
ZBHH,2002-01-21 10:00,ZBHH 211000Z AUTO 33006KT 6SM M08/M24 A3024 RMK T10801240 IEM_DS3505
ZBHH,2002-01-21 11:00,ZBHH 211100Z AUTO 34008KT 6SM M09/M24 A3024 RMK T10901240 IEM_DS3505
ZBHH,2002-01-21 12:00,ZBHH 211200Z AUTO 29004KT 19SM M08/M23 A3027 RMK SLP359 T10751227 52015 IEM_DS3505
ZBHH,2002-01-21 13:00,ZBHH 211300Z AUTO 34004KT 6SM M11/M25 A3027 RMK T11101250 IEM_DS3505
ZBHH,2002-01-21 14:00,ZBHH 211400Z AUTO 33006KT 6SM M12/M24 A3027 RMK T11201240 IEM_DS3505
ZBHH,2002-01-21 15:00,ZBHH 211500Z AUTO 32002KT 19SM M10/M22 A3027 RMK SLP354 T10991223 52003 IEM_DS3505
ZBHH,2002-01-21 16:00,ZBHH 211600Z AUTO 33004KT 6SM M13/M25 A3027 RMK T11301250 IEM_DS3505
ZBHH,2002-01-21 18:00,ZBHH 211800Z AUTO 36002KT 19SM M11/M22 RMK SLP342 T11091223 57002 IEM_DS3505
ZBHH,2002-01-21 21:00,ZBHH 212100Z AUTO 00000KT 19SM M12/M22 A3027 RMK SLP348 T11211224 52001 IEM_DS3505
ZBHH,2002-01-21 22:00,ZBHH 212200Z AUTO 08004KT 6SM M17/M25 A3027 RMK T11701250 IEM_DS3505
ZBHH,2002-01-21 23:00,ZBHH 212300Z AUTO 08004KT 6SM M21/M26 A3030 RMK T12101260 IEM_DS3505
ZBHH,2002-01-22 00:00,ZBHH 220000Z AUTO 00000KT 12SM A3030 RMK SLP371 52012 IEM_DS3505
ZBHH,2002-01-22 01:00,ZBHH 220100Z AUTO 04002KT 6SM M14/M23 A3033 RMK T11401230 IEM_DS3505
ZBHH,2002-01-22 02:00,ZBHH 220200Z AUTO 34008KT 6SM M11/M23 A3033 RMK T11101230 IEM_DS3505
ZBHH,2002-01-22 03:00,ZBHH 220300Z AUTO 00000KT 19SM M08/M21 A3033 RMK SLP375 T10801209 52009 IEM_DS3505
ZBHH,2002-01-22 04:00,ZBHH 220400Z AUTO 34004KT 6SM M08/M23 A3033 RMK T10801230 IEM_DS3505
ZBHH,2002-01-22 05:00,ZBHH 220500Z AUTO 32010KT 6SM M07/M23 A3030 RMK T10701230 IEM_DS3505
ZBHH,2002-01-22 06:00,ZBHH 220600Z AUTO 18006KT 19SM M04/M20 A3027 RMK SLP346 T10421199 57019 IEM_DS3505
ZBHH,2002-01-22 07:00,ZBHH 220700Z AUTO 24008KT 6SM M05/M22 A3027 RMK T10501220 IEM_DS3505
ZBHH,2002-01-22 08:00,ZBHH 220800Z AUTO 22008KT 6SM M05/M22 A3027 RMK T10501220 IEM_DS3505
ZBHH,2002-01-22 09:00,ZBHH 220900Z AUTO 20006KT 19SM M05/M18 A3030 RMK SLP356 T10481179 52005 IEM_DS3505
ZBHH,2002-01-22 10:00,ZBHH 221000Z AUTO 23004KT 6SM M08/M22 A3030 RMK T10801220 IEM_DS3505
ZBHH,2002-01-22 11:00,ZBHH 221100Z AUTO 26002KT 6SM M09/M22 A3030 RMK T10901220 IEM_DS3505
ZBHH,2002-01-22 12:00,ZBHH 221200Z AUTO 00000KT 16SM M08/M20 A3030 RMK SLP371 T10841200 52003 IEM_DS3505
ZBHH,2002-01-22 13:00,ZBHH 221300Z AUTO 10004KT 6SM M16/M25 A3033 RMK T11601250 IEM_DS3505
ZBHH,2002-01-22 14:00,ZBHH 221400Z AUTO 09004KT 6SM M17/M26 A3030 RMK T11701260 IEM_DS3505
ZBHH,2002-01-22 15:00,ZBHH 221500Z AUTO 09002KT 19SM M10/M18 A3033 RMK SLP365 T10971184 52003 IEM_DS3505
ZBHH,2002-01-22 18:00,ZBHH 221800Z AUTO 00000KT 16SM M13/M20 RMK SLP367 T11271204 52003 IEM_DS3505
ZBHH,2002-01-22 21:00,ZBHH 222100Z AUTO 00000KT 19SM M14/M22 A3030 RMK SLP358 T11411215 57012 IEM_DS3505
ZBHH,2002-01-22 22:00,ZBHH 222200Z AUTO 07006KT 6SM M20/M25 A3030 RMK T12001250 IEM_DS3505
ZBHH,2002-01-22 23:00,ZBHH 222300Z AUTO 06002KT 6SM M18/M24 A3030 RMK T11801240 IEM_DS3505
ZBHH,2002-01-23 00:00,ZBHH 230000Z AUTO 00000KT 16SM M14/M21 A3030 RMK SLP373 T11441212 52004 IEM_DS3505
ZBHH,2002-01-23 01:00,ZBHH 230100Z AUTO 07002KT 6SM M16/M22 A3030 RMK T11601220 IEM_DS3505
ZBHH,2002-01-23 02:00,ZBHH 230200Z AUTO 07002KT 6SM M12/M21 A3030 RMK T11201210 IEM_DS3505
ZBHH,2002-01-23 03:00,ZBHH 230300Z AUTO 00000KT 6SM M07/M19 A3030 RMK SLP360 T10671189 52003 IEM_DS3505
ZBHH,2002-01-23 04:00,ZBHH 230400Z AUTO 6SM M06/M21 A3027 RMK T10601210 IEM_DS3505
ZBHH,2002-01-23 05:00,ZBHH 230500Z AUTO 19002KT 6SM M05/M21 A3024 RMK T10501210 IEM_DS3505
ZBHH,2002-01-23 06:00,ZBHH 230600Z AUTO 14002KT 6SM M03/M22 A3021 RMK SLP328 T10301224 57026 IEM_DS3505
ZBHH,2002-01-23 07:00,ZBHH 230700Z AUTO 6SM M03/M20 A3021 RMK T10301200 IEM_DS3505
ZBHH,2002-01-23 08:00,ZBHH 230800Z AUTO 6SM M04/M21 A3018 RMK T10401210 IEM_DS3505
ZBHH,2002-01-23 09:00,ZBHH 230900Z AUTO 20004KT 6SM M03/M21 A3018 RMK SLP320 T10281206 57010 IEM_DS3505
ZBHH,2002-01-23 10:00,ZBHH 231000Z AUTO 6SM M06/M21 A3018 RMK T10601210 IEM_DS3505
ZBHH,2002-01-23 11:00,ZBHH 231100Z AUTO 04002KT 6SM M09/M22 A3021 RMK T10901220 IEM_DS3505
ZBHH,2002-01-23 12:00,ZBHH 231200Z AUTO 00000KT 5SM M07/M17 A3021 RMK SLP337 T10671173 52005 IEM_DS3505
ZBHH,2002-01-23 13:00,ZBHH 231300Z AUTO 06004KT 6SM M14/M23 A3021 RMK T11401230 IEM_DS3505
ZBHH,2002-01-23 14:00,ZBHH 231400Z AUTO 07006KT 6SM M14/M23 A3021 RMK T11401230 IEM_DS3505
ZBHH,2002-01-23 15:00,ZBHH 231500Z AUTO 00000KT 6SM M10/M19 A3021 RMK SLP325 T11011191 54000 IEM_DS3505
ZBHH,2002-01-23 16:00,ZBHH 231600Z AUTO 04002KT 6SM M13/M22 A3021 RMK T11301220 IEM_DS3505
ZBHH,2002-01-23 18:00,ZBHH 231800Z AUTO 00000KT 6SM M12/M20 RMK SLP316 T11201195 57004 IEM_DS3505
ZBHH,2002-01-23 21:00,ZBHH 232100Z AUTO 00000KT 9SM M14/M21 A3018 RMK SLP312 T11381206 57007 IEM_DS3505
ZBHH,2002-01-23 22:00,ZBHH 232200Z AUTO 07006KT 6SM M16/M23 A3018 RMK T11601230 IEM_DS3505
ZBHH,2002-01-23 23:00,ZBHH 232300Z AUTO 07006KT 6SM M18/M24 A3018 RMK T11801240 IEM_DS3505
ZBHH,2002-01-24 00:00,ZBHH 240000Z AUTO 00000KT 9SM M13/M19 RMK SLP324 T11311192 52003 IEM_DS3505
ZBHH,2002-01-24 01:00,ZBHH 240100Z AUTO 07004KT 6SM M14/M21 A3018 RMK T11401210 IEM_DS3505
ZBHH,2002-01-24 02:00,ZBHH 240200Z AUTO 08004KT 6SM M09/M20 A3018 RMK T10901200 IEM_DS3505
ZBHH,2002-01-24 03:00,ZBHH 240300Z AUTO 00000KT 6SM M03/M16 A3018 RMK SLP311 T10321158 52004 IEM_DS3505
ZBHH,2002-01-24 04:00,ZBHH 240400Z AUTO 02002KT 6SM M03/M20 A3015 RMK T10301200 IEM_DS3505
ZBHH,2002-01-24 05:00,ZBHH 240500Z AUTO 15002KT 6SM M01/M20 A3015 RMK T10101200 IEM_DS3505
ZBHH,2002-01-24 06:00,ZBHH 240600Z AUTO 02002KT 16SM 00/M18 A3012 RMK SLP277 T00041178 57026 IEM_DS3505
ZBHH,2002-01-24 07:00,ZBHH 240700Z AUTO 23004KT 6SM 01/M18 A3009 RMK T00101180 IEM_DS3505
ZBHH,2002-01-24 08:00,ZBHH 240800Z AUTO 23004KT 6SM 00/M18 A3009 RMK T00001180 IEM_DS3505
ZBHH,2002-01-24 09:00,ZBHH 240900Z AUTO 00000KT 16SM 00/M16 A3009 RMK SLP271 T00031165 57010 IEM_DS3505
ZBHH,2002-01-24 10:00,ZBHH 241000Z AUTO 6SM M02/M18 A3009 RMK T10201180 IEM_DS3505
ZBHH,2002-01-24 11:00,ZBHH 241100Z AUTO 03002KT 6SM M06/M19 A3009 RMK T10601190 IEM_DS3505
ZBHH,2002-01-24 12:00,ZBHH 241200Z AUTO 00000KT 4SM M04/M18 A3009 RMK SLP289 T10441185 52007 IEM_DS3505
ZBHH,2002-01-24 13:00,ZBHH 241300Z AUTO 08004KT M10/M20 A3009 RMK T11001200 IEM_DS3505
ZBHH,2002-01-24 14:00,ZBHH 241400Z AUTO 06006KT M10/M19 A3009 RMK T11001190 IEM_DS3505
ZBHH,2002-01-24 15:00,ZBHH 241500Z AUTO 00000KT 4SM M05/M16 A3009 RMK SLP268 T10481157 52003 IEM_DS3505
ZBHH,2002-01-24 18:00,ZBHH 241800Z AUTO 00000KT 4SM M06/M15 RMK SLP253 T10571154 57007 IEM_DS3505
ZBHH,2002-01-24 21:00,ZBHH 242100Z AUTO 00000KT 19SM M06/M14 A3009 RMK SLP254 T10641141 57001 IEM_DS3505
ZBHH,2002-01-24 22:00,ZBHH 242200Z AUTO 09004KT 6SM M09/M17 A3009 RMK T10901170 IEM_DS3505
ZBHH,2002-01-24 23:00,ZBHH 242300Z AUTO 14002KT 6SM M09/M16 A3009 RMK T10901160 IEM_DS3505
ZBHH,2002-01-25 00:00,ZBHH 250000Z AUTO 00000KT 19SM M05/M14 A3009 RMK SLP268 T10481138 52005 IEM_DS3505
ZBHH,2002-01-25 01:00,ZBHH 250100Z AUTO 36004KT 6SM M06/M18 A3012 RMK T10601180 IEM_DS3505
ZBHH,2002-01-25 02:00,ZBHH 250200Z AUTO 36006KT 6SM M05/M18 A3012 RMK T10501180 IEM_DS3505
ZBHH,2002-01-25 03:00,ZBHH 250300Z AUTO 04004KT 19SM M03/M12 A3015 RMK SLP279 T10281115 52013 IEM_DS3505
ZBHH,2002-01-25 04:00,ZBHH 250400Z AUTO 31002KT 6SM M03/M18 A3012 RMK T10301180 IEM_DS3505
ZBHH,2002-01-25 05:00,ZBHH 250500Z AUTO 34002KT 6SM M02/M19 A3012 RMK T10201190 IEM_DS3505
ZBHH,2002-01-25 06:00,ZBHH 250600Z AUTO 36004KT 19SM M00/M17 A3009 RMK SLP254 T10051167 57018 IEM_DS3505
ZBHH,2002-01-25 07:00,ZBHH 250700Z AUTO 28004KT 6SM M01/M19 A3009 RMK T10101190 IEM_DS3505
ZBHH,2002-01-25 08:00,ZBHH 250800Z AUTO 35010G19KT 6SM M02/M19 A3009 RMK T10201190 IEM_DS3505
ZBHH,2002-01-25 09:00,ZBHH 250900Z AUTO 32008KT 19SM M02/M14 A3009 RMK SLP268 T10191137 52007 IEM_DS3505
ZBHH,2002-01-25 10:00,ZBHH 251000Z AUTO 34012KT 6SM M05/M20 A3012 RMK T10501200 IEM_DS3505
ZBHH,2002-01-25 11:00,ZBHH 251100Z AUTO 01008KT 6SM M07/M20 A3015 RMK T10701200 IEM_DS3505
ZBHH,2002-01-25 12:00,ZBHH 251200Z AUTO 34006KT 19SM M05/M18 A3018 RMK SLP293 T10541184 52018 IEM_DS3505
ZBHH,2002-01-25 13:00,ZBHH 251300Z AUTO 01010KT 6SM M08/M21 A3018 RMK T10801210 IEM_DS3505
ZBHH,2002-01-25 14:00,ZBHH 251400Z AUTO 02012KT 6SM M09/M21 A3021 RMK T10901210 IEM_DS3505
ZBHH,2002-01-25 15:00,ZBHH 251500Z AUTO 29002KT 19SM M08/M18 A3021 RMK SLP305 T10771185 52010 IEM_DS3505
ZBHH,2002-01-25 16:00,ZBHH 251600Z AUTO 03008KT 6SM M10/M21 A3021 RMK T11001210 IEM_DS3505
ZBHH,2002-01-25 18:00,ZBHH 251800Z AUTO 00000KT 19SM M10/M19 RMK SLP310 T10971191 52005 IEM_DS3505
ZBHH,2002-01-25 21:00,ZBHH 252100Z AUTO 32002KT 19SM M10/M20 A3021 RMK SLP319 T11051201 52003 IEM_DS3505
ZBHH,2002-01-25 22:00,ZBHH 252200Z AUTO 01006KT 6SM M12/M21 A3021 RMK T11201210 IEM_DS3505
ZBHH,2002-01-25 23:00,ZBHH 252300Z AUTO 06004KT 6SM M15/M23 A3024 RMK T11501230 IEM_DS3505
ZBHH,2002-01-26 00:00,ZBHH 260000Z AUTO 00000KT 19SM M11/M20 A3024 RMK SLP342 T11121199 52010 IEM_DS3505
ZBHH,2002-01-26 01:00,ZBHH 260100Z AUTO 36008KT 6SM M12/M21 A3027 RMK T11201210 IEM_DS3505
ZBHH,2002-01-26 02:00,ZBHH 260200Z AUTO 36008KT 6SM M10/M21 A3027 RMK T11001210 IEM_DS3505
ZBHH,2002-01-26 03:00,ZBHH 260300Z AUTO 22004KT 19SM M07/M18 A3030 RMK SLP352 T10661179 52014 IEM_DS3505
ZBHH,2002-01-26 04:00,ZBHH 260400Z AUTO 25002KT 6SM M07/M20 A3027 RMK T10701200 IEM_DS3505
ZBHH,2002-01-26 05:00,ZBHH 260500Z AUTO 26002KT 6SM M06/M20 A3027 RMK T10601200 IEM_DS3505
ZBHH,2002-01-26 06:00,ZBHH 260600Z AUTO 22004KT 19SM M03/M16 A3024 RMK SLP328 T10281164 57017 IEM_DS3505
ZBHH,2002-01-26 07:00,ZBHH 260700Z AUTO 22004KT 6SM M04/M20 A3024 RMK T10401200 IEM_DS3505
ZBHH,2002-01-26 08:00,ZBHH 260800Z AUTO 23002KT 6SM M04/M20 A3021 RMK T10401200 IEM_DS3505
ZBHH,2002-01-26 09:00,ZBHH 260900Z AUTO 20006KT 19SM M03/M19 A3024 RMK SLP330 T10341186 57001 IEM_DS3505
ZBHH,2002-01-26 10:00,ZBHH 261000Z AUTO 25004KT 6SM M07/M20 A3027 RMK T10701200 IEM_DS3505
ZBHH,2002-01-26 11:00,ZBHH 261100Z AUTO 29004KT 6SM M07/M20 A3027 RMK T10701200 IEM_DS3505
ZBHH,2002-01-26 12:00,ZBHH 261200Z AUTO 00000KT 12SM M07/M18 A3030 RMK SLP359 T10741179 52014 IEM_DS3505
ZBHH,2002-01-26 13:00,ZBHH 261300Z AUTO 04002KT 6SM M13/M23 A3030 RMK T11301230 IEM_DS3505
ZBHH,2002-01-26 14:00,ZBHH 261400Z AUTO 01006KT 6SM M09/M22 A3030 RMK T10901220 IEM_DS3505
ZBHH,2002-01-26 15:00,ZBHH 261500Z AUTO 00000KT 19SM M07/M20 A3030 RMK SLP352 T10741196 52005 IEM_DS3505
ZBHH,2002-01-26 16:00,ZBHH 261600Z AUTO 36006KT 6SM M10/M22 A3030 RMK T11001220 IEM_DS3505
ZBHH,2002-01-26 18:00,ZBHH 261800Z AUTO 00000KT 19SM M09/M20 RMK SLP351 T10931201 52003 IEM_DS3505
ZBHH,2002-01-26 21:00,ZBHH 262100Z AUTO 00000KT 16SM M11/M20 A3030 RMK SLP355 T11121201 57002 IEM_DS3505
ZBHH,2002-01-26 22:00,ZBHH 262200Z AUTO 08004KT 6SM M16/M23 A3030 RMK T11601230 IEM_DS3505
ZBHH,2002-01-26 23:00,ZBHH 262300Z AUTO 10002KT 6SM M15/M22 A3030 RMK T11501220 IEM_DS3505
ZBHH,2002-01-27 00:00,ZBHH 270000Z AUTO 00000KT 9SM M10/M19 A3030 RMK SLP363 T11021189 54000 IEM_DS3505
ZBHH,2002-01-27 01:00,ZBHH 270100Z AUTO 13002KT 6SM M13/M21 A3030 RMK T11301210 IEM_DS3505
ZBHH,2002-01-27 02:00,ZBHH 270200Z AUTO 20004KT 6SM M12/M20 A3033 RMK T11201200 IEM_DS3505
ZBHH,2002-01-27 03:00,ZBHH 270300Z AUTO 27004KT 12SM M07/M18 A3033 RMK SLP358 T10681175 52004 IEM_DS3505
ZBHH,2002-01-27 04:00,ZBHH 270400Z AUTO 20002KT 6SM M07/M18 A3030 RMK T10701180 IEM_DS3505
ZBHH,2002-01-27 05:00,ZBHH 270500Z AUTO 32004KT 6SM M05/M20 A3027 RMK T10501200 IEM_DS3505
ZBHH,2002-01-27 06:00,ZBHH 270600Z AUTO 20004KT 16SM M03/M17 A3024 RMK SLP331 T10291166 57019 IEM_DS3505
ZBHH,2002-01-27 07:00,ZBHH 270700Z AUTO 32012KT 6SM M05/M18 A3024 RMK T10501180 IEM_DS3505
ZBHH,2002-01-27 08:00,ZBHH 270800Z AUTO 31010KT 6SM M05/M18 A3024 RMK T10501180 IEM_DS3505
ZBHH,2002-01-27 09:00,ZBHH 270900Z AUTO 34006KT 16SM M04/M20 A3027 RMK SLP343 T10441195 52002 IEM_DS3505
ZBHH,2002-01-27 10:00,ZBHH 271000Z AUTO 35010KT 6SM M07/M22 A3027 RMK T10701220 IEM_DS3505
ZBHH,2002-01-27 11:00,ZBHH 271100Z AUTO 35008KT 6SM M09/M22 A3030 RMK T10901220 IEM_DS3505
ZBHH,2002-01-27 12:00,ZBHH 271200Z AUTO 34012KT 19SM M08/M21 A3033 RMK SLP374 T10821214 52021 IEM_DS3505
ZBHH,2002-01-27 13:00,ZBHH 271300Z AUTO 34012KT 6SM M11/M23 A3033 RMK T11101230 IEM_DS3505
ZBHH,2002-01-27 14:00,ZBHH 271400Z AUTO 35008KT 6SM M11/M22 A3033 RMK T11101220 IEM_DS3505
ZBHH,2002-01-27 15:00,ZBHH 271500Z AUTO 32006KT 19SM M10/M21 RMK SLP376 T10961207 52006 IEM_DS3505
ZBHH,2002-01-27 18:00,ZBHH 271800Z AUTO 22004KT 19SM M10/M21 RMK SLP373 T11031207 52005 IEM_DS3505
ZBHH,2002-01-27 21:00,ZBHH 272100Z AUTO 27006KT 19SM M11/M21 A3036 RMK SLP378 T11141210 57002 IEM_DS3505
ZBHH,2002-01-27 22:00,ZBHH 272200Z AUTO 01006KT 6SM M14/M23 A3036 RMK T11401230 IEM_DS3505
ZBHH,2002-01-27 23:00,ZBHH 272300Z AUTO 01006KT 6SM M15/M23 A3039 RMK T11501230 IEM_DS3505
ZBHH,2002-01-28 00:00,ZBHH 280000Z AUTO 22002KT 6SM M13/M22 A3042 RMK SLP412 T11341217 52017 IEM_DS3505
ZBHH,2002-01-28 01:00,ZBHH 280100Z AUTO 29002KT 6SM M15/M22 A3045 RMK T11501220 IEM_DS3505
ZBHH,2002-01-28 02:00,ZBHH 280200Z AUTO 17004KT 6SM M14/M22 A3045 RMK T11401220 IEM_DS3505
ZBHH,2002-01-28 03:00,ZBHH 280300Z AUTO 18004KT 12SM M09/M18 A3045 RMK SLP411 T10891185 52006 IEM_DS3505
ZBHH,2002-01-28 04:00,ZBHH 280400Z AUTO 24006KT 6SM M09/M21 A3042 RMK T10901210 IEM_DS3505
ZBHH,2002-01-28 05:00,ZBHH 280500Z AUTO 25004KT 6SM M08/M21 A3039 RMK T10801210 IEM_DS3505
ZBHH,2002-01-28 06:00,ZBHH 280600Z AUTO 22010KT 19SM M05/M16 A3036 RMK SLP374 T10471156 57024 IEM_DS3505
ZBHH,2002-01-28 07:00,ZBHH 280700Z AUTO 24004KT 6SM M05/M21 A3036 RMK T10501210 IEM_DS3505
ZBHH,2002-01-28 08:00,ZBHH 280800Z AUTO 24006KT 6SM M05/M20 A3036 RMK T10501200 IEM_DS3505
ZBHH,2002-01-28 09:00,ZBHH 280900Z AUTO 27004KT 19SM M03/M13 A3036 RMK SLP371 T10311132 57002 IEM_DS3505
ZBHH,2002-01-28 10:00,ZBHH 281000Z AUTO 24006KT 6SM M07/M21 A3036 RMK T10701210 IEM_DS3505
ZBHH,2002-01-28 11:00,ZBHH 281100Z AUTO 23002KT 6SM M08/M21 A3036 RMK T10801210 IEM_DS3505
ZBHH,2002-01-28 12:00,ZBHH 281200Z AUTO 29002KT 19SM M06/M20 A3036 RMK SLP390 T10591197 52006 IEM_DS3505
ZBHH,2002-01-28 13:00,ZBHH 281300Z AUTO 29006KT 6SM M09/M20 A3036 RMK T10901200 IEM_DS3505
ZBHH,2002-01-28 14:00,ZBHH 281400Z AUTO 31006KT 6SM M10/M19 A3036 RMK T11001190 IEM_DS3505
ZBHH,2002-01-28 15:00,ZBHH 281500Z AUTO 34002KT 19SM M08/M17 A3036 RMK SLP383 T10781172 54000 IEM_DS3505
ZBHH,2002-01-28 16:00,ZBHH 281600Z AUTO 22004KT 6SM M12/M20 A3036 RMK T11201200 IEM_DS3505
ZBHH,2002-01-28 18:00,ZBHH 281800Z AUTO 00000KT 19SM M11/M19 RMK SLP373 T11111191 57007 IEM_DS3505
ZBHH,2002-01-28 21:00,ZBHH 282100Z AUTO 09002KT 19SM M13/M19 A3033 RMK SLP366 T11301189 57007 IEM_DS3505
ZBHH,2002-01-28 22:00,ZBHH 282200Z AUTO 08004KT 6SM M18/M22 A3033 RMK T11801220 IEM_DS3505
ZBHH,2002-01-28 23:00,ZBHH 282300Z AUTO 11002KT 6SM M19/M22 A3033 RMK T11901220 IEM_DS3505
ZBHH,2002-01-29 00:00,ZBHH 290000Z AUTO 07004KT 16SM M15/M19 A3036 RMK SLP387 T11461190 52008 IEM_DS3505
ZBHH,2002-01-29 01:00,ZBHH 290100Z AUTO 09002KT 6SM M16/M20 A3036 RMK T11601200 IEM_DS3505
ZBHH,2002-01-29 02:00,ZBHH 290200Z AUTO 18004KT 6SM M13/M19 A3036 RMK T11301190 IEM_DS3505
ZBHH,2002-01-29 03:00,ZBHH 290300Z AUTO 20006KT 7SM M08/M16 A3036 RMK SLP384 T10841156 52008 IEM_DS3505
ZBHH,2002-01-29 04:00,ZBHH 290400Z AUTO 24004KT 6SM M07/M18 A3033 RMK T10701180 IEM_DS3505
ZBHH,2002-01-29 05:00,ZBHH 290500Z AUTO 21008KT 6SM M05/M18 A3033 RMK T10501180 IEM_DS3505
ZBHH,2002-01-29 06:00,ZBHH 290600Z AUTO 22010KT 12SM M02/M17 A3030 RMK SLP346 T10201168 57026 IEM_DS3505
ZBHH,2002-01-29 07:00,ZBHH 290700Z AUTO 23010KT 6SM M02/M18 A3030 RMK T10201180 IEM_DS3505
ZBHH,2002-01-29 08:00,ZBHH 290800Z AUTO 25010KT 6SM M02/M18 A3030 RMK T10201180 IEM_DS3505
ZBHH,2002-01-29 09:00,ZBHH 290900Z AUTO 27008KT 19SM M00/M15 A3030 RMK SLP355 T10021146 52007 IEM_DS3505
ZBHH,2002-01-29 10:00,ZBHH 291000Z AUTO 31008KT 6SM M03/M19 A3033 RMK T10301190 IEM_DS3505
ZBHH,2002-01-29 11:00,ZBHH 291100Z AUTO 30006KT 6SM M05/M19 A3033 RMK T10501190 IEM_DS3505
ZBHH,2002-01-29 12:00,ZBHH 291200Z AUTO 29004KT 19SM M04/M19 A3033 RMK SLP377 T10371186 52008 IEM_DS3505
ZBHH,2002-01-29 13:00,ZBHH 291300Z AUTO 15002KT 6SM M09/M20 A3036 RMK T10901200 IEM_DS3505
ZBHH,2002-01-29 14:00,ZBHH 291400Z AUTO 01006KT 6SM M07/M19 A3036 RMK T10701190 IEM_DS3505
ZBHH,2002-01-29 15:00,ZBHH 291500Z AUTO 27008KT 19SM M06/M20 A3036 RMK SLP373 T10571201 52006 IEM_DS3505
ZBHH,2002-01-29 18:00,ZBHH 291800Z AUTO 02002KT 19SM M07/M20 RMK SLP358 T10691202 57001 IEM_DS3505
ZBHH,2002-01-29 21:00,ZBHH 292100Z AUTO 00000KT 19SM M10/M20 A3036 RMK SLP358 T10991195 57003 IEM_DS3505
ZBHH,2002-01-29 22:00,ZBHH 292200Z AUTO 6SM M16/M22 A3033 RMK T11601220 IEM_DS3505
ZBHH,2002-01-29 23:00,ZBHH 292300Z AUTO 12002KT 6SM M18/M23 A3036 RMK T11801230 IEM_DS3505
ZBHH,2002-01-30 00:00,ZBHH 300000Z AUTO 00000KT 19SM M11/M18 A3036 RMK SLP373 T11141183 52002 IEM_DS3505
ZBHH,2002-01-30 01:00,ZBHH 300100Z AUTO 08002KT 6SM M15/M22 A3036 RMK T11501220 IEM_DS3505
ZBHH,2002-01-30 02:00,ZBHH 300200Z AUTO 06002KT 6SM M10/M19 A3036 RMK T11001190 IEM_DS3505
ZBHH,2002-01-30 03:00,ZBHH 300300Z AUTO 00000KT 12SM M05/M16 A3036 RMK SLP367 T10521159 52004 IEM_DS3505
ZBHH,2002-01-30 04:00,ZBHH 300400Z AUTO 21002KT 6SM M05/M19 A3036 RMK T10501190 IEM_DS3505
ZBHH,2002-01-30 05:00,ZBHH 300500Z AUTO 24004KT 6SM M04/M19 A3033 RMK T10401190 IEM_DS3505
ZBHH,2002-01-30 06:00,ZBHH 300600Z AUTO 18004KT 19SM M02/M15 A3030 RMK SLP336 T10201153 57023 IEM_DS3505
ZBHH,2002-01-30 07:00,ZBHH 300700Z AUTO 23006G16KT 6SM M02/M18 A3027 RMK T10201180 IEM_DS3505
ZBHH,2002-01-30 08:00,ZBHH 300800Z AUTO 25006KT 6SM M02/M19 A3027 RMK T10201190 IEM_DS3505
ZBHH,2002-01-30 09:00,ZBHH 300900Z AUTO 18002KT 16SM M02/M17 A3027 RMK SLP339 T10231167 57004 IEM_DS3505
ZBHH,2002-01-30 10:00,ZBHH 301000Z AUTO 26002KT 6SM M05/M19 A3027 RMK T10501190 IEM_DS3505
ZBHH,2002-01-30 11:00,ZBHH 301100Z AUTO 22002KT 6SM M06/M19 A3030 RMK T10601190 IEM_DS3505
ZBHH,2002-01-30 12:00,ZBHH 301200Z AUTO 00000KT 5SM M05/M17 A3030 RMK SLP358 T10471169 52007 IEM_DS3505
ZBHH,2002-01-30 13:00,ZBHH 301300Z AUTO 07004KT 3SM A3033 RMK IEM_DS3505
ZBHH,2002-01-30 14:00,ZBHH 301400Z AUTO 06004KT 3SM M12/M21 A3033 RMK T11201210 IEM_DS3505
ZBHH,2002-01-30 15:00,ZBHH 301500Z AUTO 07002KT 19SM M08/M19 A3030 RMK SLP353 T10781187 52003 IEM_DS3505
ZBHH,2002-01-30 16:00,ZBHH 301600Z AUTO M15/M22 A3033 RMK T11501220 IEM_DS3505
ZBHH,2002-01-30 17:00,ZBHH 301700Z AUTO 3SM M15/M22 A3033 RMK T11501220 IEM_DS3505
ZBHH,2002-01-30 18:00,ZBHH 301800Z AUTO 00000KT 19SM M10/M17 RMK SLP344 T10981171 57005 IEM_DS3505
ZBHH,2002-01-30 21:00,ZBHH 302100Z AUTO 00000KT 19SM M10/M18 A3030 RMK SLP345 T11031177 57001 IEM_DS3505
ZBHH,2002-01-30 22:00,ZBHH 302200Z AUTO 06004KT 6SM M16/M22 A3030 RMK T11601220 IEM_DS3505
ZBHH,2002-01-30 23:00,ZBHH 302300Z AUTO 09002KT 6SM M19/M24 A3030 RMK T11901240 IEM_DS3505
ZBHH,2002-01-31 00:00,ZBHH 310000Z AUTO 00000KT 19SM M12/M19 A3033 RMK SLP361 T11151186 52006 IEM_DS3505
ZBHH,2002-01-31 01:00,ZBHH 310100Z AUTO 10002KT 6SM M13/M21 A3033 RMK T11301210 IEM_DS3505
ZBHH,2002-01-31 02:00,ZBHH 310200Z AUTO 11002KT 6SM M09/M21 A3033 RMK T10901210 IEM_DS3505
ZBHH,2002-01-31 03:00,ZBHH 310300Z AUTO 00000KT 19SM M06/M18 A3033 RMK SLP359 T10571176 52004 IEM_DS3505
ZBHH,2002-01-31 04:00,ZBHH 310400Z AUTO 22004KT 6SM M05/M20 A3030 RMK T10501200 IEM_DS3505
ZBHH,2002-01-31 05:00,ZBHH 310500Z AUTO 22006KT 6SM M04/M19 A3027 RMK T10401190 IEM_DS3505
ZBHH,2002-01-31 06:00,ZBHH 310600Z AUTO 20004KT 9SM M00/M14 A3024 RMK SLP325 T10051136 57022 IEM_DS3505
ZBHH,2002-01-31 07:00,ZBHH 310700Z AUTO 23006KT 6SM M01/M18 A3024 RMK T10101180 IEM_DS3505
ZBHH,2002-01-31 08:00,ZBHH 310800Z AUTO 23008KT 6SM M01/M17 A3024 RMK T10101170 IEM_DS3505
ZBHH,2002-01-31 09:00,ZBHH 310900Z AUTO 20008KT 19SM M01/M15 A3024 RMK SLP320 T10071151 57006 IEM_DS3505
ZBHH,2002-01-31 10:00,ZBHH 311000Z AUTO 24004KT 5SM M04/M18 A3024 RMK T10401180 IEM_DS3505
ZBHH,2002-01-31 11:00,ZBHH 311100Z AUTO 32004KT 12SM M05/M17 A3027 RMK SLP350 T10501170 52018 IEM_DS3505
ZBHH,2002-01-31 12:00,ZBHH 311200Z AUTO 35004KT M06/M20 A3030 RMK T10601200 IEM_DS3505
ZBHH,2002-01-31 13:00,ZBHH 311300Z AUTO 31002KT 6SM M07/M21 A3030 RMK T10701210 IEM_DS3505
ZBHH,2002-01-31 14:00,ZBHH 311400Z AUTO 32004KT 6SM M07/M21 A3030 RMK T10701210 IEM_DS3505
ZBHH,2002-01-31 15:00,ZBHH 311500Z AUTO 29008KT 19SM M05/M18 A3030 RMK SLP342 T10541185 52001 IEM_DS3505
ZBHH,2002-01-31 16:00,ZBHH 311600Z AUTO 6SM M09/M22 A3030 RMK T10901220 IEM_DS3505
ZBHH,2002-01-31 18:00,ZBHH 311800Z AUTO 29006KT 19SM M06/M19 RMK SLP329 T10641191 57002 IEM_DS3505
ZBHH,2002-01-31 21:00,ZBHH 312100Z AUTO 34006KT 19SM M07/M20 A3027 RMK SLP322 T10661204 57007 IEM_DS3505
ZBHH,2002-01-31 22:00,ZBHH 312200Z AUTO 11002KT 6SM M17/M24 A3027 RMK T11701240 IEM_DS3505
ZBHH,2002-01-31 23:00,ZBHH 312300Z AUTO 03002KT 6SM M18/M24 A3030 RMK T11801240 IEM_DS3505
ZBHH,2002-02-01 00:00,ZBHH 010000Z AUTO 00000KT 12SM M12/M18 A3030 RMK SLP353 T11161185 52010 IEM_DS3505
ZBHH,2002-02-01 01:00,ZBHH 010100Z AUTO 09004KT 6SM M14/M23 A3030 RMK T11401230 IEM_DS3505
ZBHH,2002-02-01 02:00,ZBHH 010200Z AUTO 18002KT 6SM M10/M19 A3030 RMK T11001190 IEM_DS3505
ZBHH,2002-02-01 03:00,ZBHH 010300Z AUTO 04002KT 9SM M06/M16 A3030 RMK SLP346 T10561159 52002 IEM_DS3505
ZBHH,2002-02-01 04:00,ZBHH 010400Z AUTO 19002KT 6SM M06/M19 A3030 RMK T10601190 IEM_DS3505
ZBHH,2002-02-01 05:00,ZBHH 010500Z AUTO 21004KT 6SM M04/M19 A3027 RMK T10401190 IEM_DS3505
ZBHH,2002-02-01 06:00,ZBHH 010600Z AUTO 20004KT 12SM M01/M16 A3024 RMK SLP308 T10121163 57025 IEM_DS3505
ZBHH,2002-02-01 07:00,ZBHH 010700Z AUTO 23006KT 6SM M02/M19 A3021 RMK T10201190 IEM_DS3505
ZBHH,2002-02-01 08:00,ZBHH 010800Z AUTO 25004KT 6SM M01/M19 A3021 RMK T10101190 IEM_DS3505
ZBHH,2002-02-01 09:00,ZBHH 010900Z AUTO 20004KT 19SM 00/M17 A3021 RMK SLP298 T00021173 57006 IEM_DS3505
ZBHH,2002-02-01 10:00,ZBHH 011000Z AUTO 13002KT 6SM M03/M19 A3024 RMK T10301190 IEM_DS3505
ZBHH,2002-02-01 11:00,ZBHH 011100Z AUTO 06006KT 6SM M06/M20 A3024 RMK T10601200 IEM_DS3505
ZBHH,2002-02-01 12:00,ZBHH 011200Z AUTO 00000KT 12SM M04/M18 A3024 RMK SLP336 T10401185 52012 IEM_DS3505
ZBHH,2002-02-01 13:00,ZBHH 011300Z AUTO 08004KT 6SM M11/M22 A3024 RMK T11101220 IEM_DS3505
ZBHH,2002-02-01 14:00,ZBHH 011400Z AUTO 07004KT 6SM M11/M22 A3024 RMK T11101220 IEM_DS3505
ZBHH,2002-02-01 15:00,ZBHH 011500Z AUTO 00000KT 12SM M07/M19 A3024 RMK SLP330 T10731193 52001 IEM_DS3505
ZBHH,2002-02-01 18:00,ZBHH 011800Z AUTO 00000KT 16SM M09/M20 RMK SLP322 T10911196 57001 IEM_DS3505
ZBHH,2002-02-01 21:00,ZBHH 012100Z AUTO 00000KT 19SM M11/M19 A3021 RMK SLP318 T11101188 57005 IEM_DS3505
ZBHH,2002-02-01 22:00,ZBHH 012200Z AUTO 08006KT 6SM M16/M23 A3021 RMK T11601230 IEM_DS3505
ZBHH,2002-02-01 23:00,ZBHH 012300Z AUTO 07006KT 6SM M16/M23 A3021 RMK T11601230 IEM_DS3505
ZBHH,2002-02-02 00:00,ZBHH 020000Z AUTO 00000KT 6SM M12/M20 A3021 RMK SLP332 T11231198 54000 IEM_DS3505
ZBHH,2002-02-02 01:00,ZBHH 020100Z AUTO 08004KT 6SM M12/M21 A3024 RMK T11201210 IEM_DS3505
ZBHH,2002-02-02 02:00,ZBHH 020200Z AUTO 11002KT 6SM M07/M20 A3024 RMK T10701200 IEM_DS3505
ZBHH,2002-02-02 03:00,ZBHH 020300Z AUTO 00000KT 12SM M02/M16 A3024 RMK SLP321 T10251157 52005 IEM_DS3505
ZBHH,2002-02-02 04:00,ZBHH 020400Z AUTO 12002KT 6SM M02/M20 A3024 RMK T10201200 IEM_DS3505
ZBHH,2002-02-02 05:00,ZBHH 020500Z AUTO 16002KT 6SM 00/M20 A3018 RMK T00001200 IEM_DS3505
ZBHH,2002-02-02 06:00,ZBHH 020600Z AUTO 20004KT 12SM 01/M16 A3018 RMK SLP289 T00141161 57023 IEM_DS3505
ZBHH,2002-02-02 07:00,ZBHH 020700Z AUTO 21004KT 6SM 01/M20 A3015 RMK T00101200 IEM_DS3505
ZBHH,2002-02-02 08:00,ZBHH 020800Z AUTO 21002KT 6SM 02/M20 A3015 RMK T00201200 IEM_DS3505
ZBHH,2002-02-02 09:00,ZBHH 020900Z AUTO 25004KT 12SM 03/M16 A3015 RMK SLP282 T00261159 57008 IEM_DS3505
ZBHH,2002-02-02 11:00,ZBHH 021100Z AUTO 02002KT 6SM M06/M22 A3015 RMK T10601220 IEM_DS3505
ZBHH,2002-02-02 12:00,ZBHH 021200Z AUTO 00000KT 9SM M04/M17 A3015 RMK SLP303 T10361167 52002 IEM_DS3505
ZBHH,2002-02-02 13:00,ZBHH 021300Z AUTO 08008KT 6SM M11/M23 A3015 RMK T11101230 IEM_DS3505
ZBHH,2002-02-02 14:00,ZBHH 021400Z AUTO 08004KT 6SM M09/M23 A3015 RMK T10901230 IEM_DS3505
ZBHH,2002-02-02 15:00,ZBHH 021500Z AUTO 00000KT 19SM M07/M19 A3015 RMK SLP285 T10661194 57001 IEM_DS3505
ZBHH,2002-02-02 16:00,ZBHH 021600Z AUTO 05002KT 6SM M08/M22 A3015 RMK T10801220 IEM_DS3505
ZBHH,2002-02-02 18:00,ZBHH 021800Z AUTO 00000KT 19SM M09/M18 RMK SLP275 T10871181 57004 IEM_DS3505
ZBHH,2002-02-02 21:00,ZBHH 022100Z AUTO 00000KT 9SM M11/M19 A3009 RMK SLP268 T11101192 57009 IEM_DS3505
ZBHH,2002-02-02 22:00,ZBHH 022200Z AUTO 08006KT 6SM M13/M23 A3009 RMK T11301230 IEM_DS3505
ZBHH,2002-02-02 23:00,ZBHH 022300Z AUTO 07006KT 6SM M13/M23 A3012 RMK T11301230 IEM_DS3505
ZBHH,2002-02-03 00:00,ZBHH 030000Z AUTO 00000KT 19SM M10/M17 A3012 RMK SLP290 T11021174 52007 IEM_DS3505
ZBHH,2002-02-03 01:00,ZBHH 030100Z AUTO 07004KT 6SM M10/M21 A3012 RMK T11001210 IEM_DS3505
ZBHH,2002-02-03 03:00,ZBHH 030300Z AUTO 00000KT 12SM 01/M14 A3015 RMK SLP280 T00101137 52010 IEM_DS3505
ZBHH,2002-02-03 04:00,ZBHH 030400Z AUTO 12002KT 6SM 02/M20 A3012 RMK T00201200 IEM_DS3505
ZBHH,2002-02-03 05:00,ZBHH 030500Z AUTO 6SM 03/M20 A3009 RMK T00301200 IEM_DS3505
ZBHH,2002-02-03 06:00,ZBHH 030600Z AUTO 22002KT 12SM 05/M17 A3009 RMK SLP247 T00541174 57024 IEM_DS3505
ZBHH,2002-02-03 07:00,ZBHH 030700Z AUTO 24002KT 6SM 05/M20 A3006 RMK T00501200 IEM_DS3505
ZBHH,2002-02-03 08:00,ZBHH 030800Z AUTO 6SM 04/M19 A3006 RMK T00401190 IEM_DS3505
ZBHH,2002-02-03 09:00,ZBHH 030900Z AUTO 20002KT 19SM 05/M15 A3006 RMK SLP253 T00481152 57001 IEM_DS3505
ZBHH,2002-02-03 10:00,ZBHH 031000Z AUTO 33002KT 6SM 01/M19 A3009 RMK T00101190 IEM_DS3505
ZBHH,2002-02-03 11:00,ZBHH 031100Z AUTO 06002KT 4SM A3009 RMK IEM_DS3505
ZBHH,2002-02-03 12:00,ZBHH 031200Z AUTO 00000KT 9SM M03/M18 A3012 RMK SLP286 T10321181 52013 IEM_DS3505
ZBHH,2002-02-03 13:00,ZBHH 031300Z AUTO 05004KT 3SM A3015 RMK IEM_DS3505
ZBHH,2002-02-03 14:00,ZBHH 031400Z AUTO 07006KT 6SM M08/M20 A3015 RMK T10801200 IEM_DS3505
ZBHH,2002-02-03 15:00,ZBHH 031500Z AUTO 00000KT 7SM M05/M16 A3015 RMK SLP275 T10521165 52010 IEM_DS3505
ZBHH,2002-02-03 16:00,ZBHH 031600Z AUTO 06006KT 6SM M09/M20 A3015 RMK T10901200 IEM_DS3505
ZBHH,2002-02-03 18:00,ZBHH 031800Z AUTO 00000KT 12SM M06/M16 RMK SLP269 T10581163 52003 IEM_DS3505
ZBHH,2002-02-03 21:00,ZBHH 032100Z AUTO 00000KT 12SM M07/M17 A3015 RMK SLP270 T10711166 57003 IEM_DS3505
ZBHH,2002-02-03 22:00,ZBHH 032200Z AUTO 09006KT 6SM M12/M20 A3015 RMK T11201200 IEM_DS3505
ZBHH,2002-02-03 23:00,ZBHH 032300Z AUTO 09006KT 6SM M12/M20 A3015 RMK T11201200 IEM_DS3505
ZBHH,2002-02-04 00:00,ZBHH 040000Z AUTO 6SM M12/M20 A3018 RMK T11201200 IEM_DS3505
ZBHH,2002-02-04 01:00,ZBHH 040100Z AUTO 6SM M09/M18 A3021 RMK T10901180 IEM_DS3505
ZBHH,2002-02-04 02:00,ZBHH 040200Z AUTO 20002KT 6SM M07/M17 A3021 RMK T10701170 IEM_DS3505
ZBHH,2002-02-04 03:00,ZBHH 040300Z AUTO 00000KT 12SM M01/M16 A3021 RMK SLP300 T10111160 52009 IEM_DS3505
ZBHH,2002-02-04 04:00,ZBHH 040400Z AUTO 20004KT 6SM M01/M16 A3018 RMK T10101160 IEM_DS3505
ZBHH,2002-02-04 05:00,ZBHH 040500Z AUTO 23004KT 6SM 00/M17 A3018 RMK T00001170 IEM_DS3505
ZBHH,2002-02-04 06:00,ZBHH 040600Z AUTO 25004KT 12SM 03/M13 A3015 RMK SLP264 T00341130 57023 IEM_DS3505
ZBHH,2002-02-04 07:00,ZBHH 040700Z AUTO 25006KT 6SM 02/M16 A3012 RMK T00201160 IEM_DS3505
ZBHH,2002-02-04 08:00,ZBHH 040800Z AUTO 25006KT 6SM 03/M17 A3012 RMK T00301170 IEM_DS3505
ZBHH,2002-02-04 09:00,ZBHH 040900Z AUTO 18004KT 12SM 03/M15 A3012 RMK SLP265 T00311152 57003 IEM_DS3505
ZBHH,2002-02-04 10:00,ZBHH 041000Z AUTO 22002KT 6SM 00/M16 A3015 RMK T00001160 IEM_DS3505
ZBHH,2002-02-04 11:00,ZBHH 041100Z AUTO 11002KT 6SM M03/M16 A3015 RMK T10301160 IEM_DS3505
ZBHH,2002-02-04 12:00,ZBHH 041200Z AUTO 00000KT 6SM M01/M13 A3015 RMK SLP286 T10141134 52009 IEM_DS3505
ZBHH,2002-02-04 13:00,ZBHH 041300Z AUTO 10002KT M08/M19 A3018 RMK T10801190 IEM_DS3505
ZBHH,2002-02-04 14:00,ZBHH 041400Z AUTO 07004KT M08/M18 A3018 RMK T10801180 IEM_DS3505
ZBHH,2002-02-04 15:00,ZBHH 041500Z AUTO 00000KT 12SM M06/M15 A3015 RMK SLP284 T10561152 52002 IEM_DS3505
ZBHH,2002-02-04 18:00,ZBHH 041800Z AUTO 00000KT 19SM M07/M16 RMK SLP260 T10721161 57015 IEM_DS3505
ZBHH,2002-02-04 21:00,ZBHH 042100Z AUTO 00000KT 7SM M09/M16 A3006 RMK SLP245 T10901164 57018 IEM_DS3505
ZBHH,2002-02-04 22:00,ZBHH 042200Z AUTO 05002KT 6SM M13/M20 A3003 RMK T11301200 IEM_DS3505
ZBHH,2002-02-04 23:00,ZBHH 042300Z AUTO 08004KT 6SM M13/M19 A3003 RMK T11301190 IEM_DS3505
ZBHH,2002-02-05 00:00,ZBHH 050000Z AUTO 00000KT 6SM M08/M15 A3003 RMK SLP246 T10781152 57006 IEM_DS3505
ZBHH,2002-02-05 01:00,ZBHH 050100Z AUTO 06002KT 6SM M12/M19 A3003 RMK T11201190 IEM_DS3505
ZBHH,2002-02-05 02:00,ZBHH 050200Z AUTO 13002KT 6SM M05/M17 A3003 RMK T10501170 IEM_DS3505
ZBHH,2002-02-05 03:00,ZBHH 050300Z AUTO 07002KT 6SM M02/M13 A3003 RMK SLP241 T10171127 54000 IEM_DS3505
ZBHH,2002-02-05 04:00,ZBHH 050400Z AUTO 16002KT 6SM M02/M18 A3000 RMK T10201180 IEM_DS3505
ZBHH,2002-02-05 05:00,ZBHH 050500Z AUTO 23006KT 6SM 00/M17 A2997 RMK T00001170 IEM_DS3505
ZBHH,2002-02-05 06:00,ZBHH 050600Z AUTO 27002KT 9SM 02/M12 A2994 RMK SLP203 T00231125 57028 IEM_DS3505
ZBHH,2002-02-05 07:00,ZBHH 050700Z AUTO 24008KT 6SM 01/M17 A2991 RMK T00101170 IEM_DS3505
ZBHH,2002-02-05 08:00,ZBHH 050800Z AUTO 25008KT 6SM 02/M17 A2994 RMK T00201170 IEM_DS3505
ZBHH,2002-02-05 09:00,ZBHH 050900Z AUTO 22006KT 9SM 03/M17 A2991 RMK SLP200 T00301170 57005 IEM_DS3505
ZBHH,2002-02-05 10:00,ZBHH 051000Z AUTO 22002KT 00/M17 A2994 RMK T00001170 IEM_DS3505
ZBHH,2002-02-05 11:00,ZBHH 051100Z AUTO 06002KT 2SM M03/M17 A2997 RMK T10301170 IEM_DS3505
ZBHH,2002-02-05 12:00,ZBHH 051200Z AUTO 00000KT 4SM M01/M15 A3000 RMK SLP232 T10121154 52021 IEM_DS3505
ZBHH,2002-02-05 13:00,ZBHH 051300Z AUTO 31006KT 6SM M03/M17 A3003 RMK T10301170 IEM_DS3505
ZBHH,2002-02-05 14:00,ZBHH 051400Z AUTO 29010KT 6SM M02/M16 A3003 RMK T10201160 IEM_DS3505
ZBHH,2002-02-05 15:00,ZBHH 051500Z AUTO 32004KT 12SM M01/M18 A3006 RMK SLP236 T10141175 52017 IEM_DS3505
ZBHH,2002-02-05 18:00,ZBHH 051800Z AUTO 27008KT 19SM M04/M17 RMK SLP243 T10361167 52010 IEM_DS3505
ZBHH,2002-02-05 21:00,ZBHH 052100Z AUTO 32010KT 19SM M05/M14 A3006 RMK SLP243 T10481144 57001 IEM_DS3505
ZBHH,2002-02-05 22:00,ZBHH 052200Z AUTO 00000KT 6SM M07/M16 A3006 RMK T10701160 IEM_DS3505
ZBHH,2002-02-05 23:00,ZBHH 052300Z AUTO 32002KT 6SM M11/M17 A3009 RMK T11101170 IEM_DS3505
ZBHH,2002-02-06 00:00,ZBHH 060000Z AUTO 04004KT 19SM M07/M14 A3009 RMK SLP258 T10701145 57001 IEM_DS3505
ZBHH,2002-02-06 01:00,ZBHH 060100Z AUTO 19002KT 6SM M11/M17 A3012 RMK T11101170 IEM_DS3505
ZBHH,2002-02-06 02:00,ZBHH 060200Z AUTO 12002KT 6SM M06/M15 A3012 RMK T10601150 IEM_DS3505
ZBHH,2002-02-06 03:00,ZBHH 060300Z AUTO 25006KT 9SM M03/M13 A3015 RMK SLP273 T10321127 52021 IEM_DS3505
ZBHH,2002-02-06 04:00,ZBHH 060400Z AUTO 6SM M03/M15 A3015 RMK T10301150 IEM_DS3505
ZBHH,2002-02-06 05:00,ZBHH 060500Z AUTO 26004KT 6SM M01/M16 A3012 RMK T10101160 IEM_DS3505
ZBHH,2002-02-06 06:00,ZBHH 060600Z AUTO 20004KT 12SM 01/M15 A3009 RMK SLP252 T00111146 57014 IEM_DS3505
ZBHH,2002-02-06 07:00,ZBHH 060700Z AUTO 6SM 00/M16 A3006 RMK T00001160 IEM_DS3505
ZBHH,2002-02-06 08:00,ZBHH 060800Z AUTO 25004KT 6SM 01/M16 A3006 RMK T00101160 IEM_DS3505
ZBHH,2002-02-06 09:00,ZBHH 060900Z AUTO 20006KT 19SM 02/M13 A3006 RMK SLP235 T00171133 57016 IEM_DS3505
ZBHH,2002-02-06 10:00,ZBHH 061000Z AUTO 26002KT 6SM M01/M17 A3006 RMK T10101170 IEM_DS3505
ZBHH,2002-02-06 11:00,ZBHH 061100Z AUTO 12002KT 6SM M05/M19 A3009 RMK T10501190 IEM_DS3505
ZBHH,2002-02-06 12:00,ZBHH 061200Z AUTO 00000KT 5SM M02/M15 A3009 RMK SLP262 T10221150 52010 IEM_DS3505
ZBHH,2002-02-06 13:00,ZBHH 061300Z AUTO 06002KT 6SM M10/M20 A3009 RMK T11001200 IEM_DS3505
ZBHH,2002-02-06 14:00,ZBHH 061400Z AUTO 08002KT 6SM M11/M19 A3009 RMK T11101190 IEM_DS3505
ZBHH,2002-02-06 15:00,ZBHH 061500Z AUTO 00000KT 7SM M05/M15 A3012 RMK SLP268 T10481150 52008 IEM_DS3505
ZBHH,2002-02-06 16:00,ZBHH 061600Z AUTO 09004KT 6SM M11/M20 A3009 RMK T11101200 IEM_DS3505
ZBHH,2002-02-06 17:00,ZBHH 061700Z AUTO 06002KT 6SM M11/M19 A3009 RMK T11101190 IEM_DS3505
ZBHH,2002-02-06 18:00,ZBHH 061800Z AUTO 00000KT 16SM M09/M17 A3006 RMK SLP257 T10931169 57010 IEM_DS3505
ZBHH,2002-02-06 21:00,ZBHH 062100Z AUTO 00000KT 19SM M10/M16 A3003 RMK SLP250 T11031162 57007 IEM_DS3505
ZBHH,2002-02-06 22:00,ZBHH 062200Z AUTO 10004KT 6SM M16/M22 A3003 RMK T11601220 IEM_DS3505
ZBHH,2002-02-06 23:00,ZBHH 062300Z AUTO 02002KT 6SM M17/M22 A3000 RMK T11701220 IEM_DS3505
ZBHH,2002-02-07 00:00,ZBHH 070000Z AUTO 00000KT 6SM M10/M16 A3000 RMK SLP251 T10971156 57007 IEM_DS3505
ZBHH,2002-02-07 01:00,ZBHH 070100Z AUTO 07002KT 3SM A3000 RMK IEM_DS3505
ZBHH,2002-02-07 02:00,ZBHH 070200Z AUTO 13002KT 4SM A3000 RMK IEM_DS3505
ZBHH,2002-02-07 03:00,ZBHH 070300Z AUTO 00000KT 6SM M02/M11 A3000 RMK SLP242 T10151113 52005 IEM_DS3505
ZBHH,2002-02-07 04:00,ZBHH 070400Z AUTO 23002KT 6SM 00/M19 A3000 RMK T00001190 IEM_DS3505
ZBHH,2002-02-07 05:00,ZBHH 070500Z AUTO 22004KT 6SM 01/M19 A2997 RMK T00101190 IEM_DS3505
ZBHH,2002-02-07 06:00,ZBHH 070600Z AUTO 18002KT 16SM 03/M13 A2997 RMK SLP215 T00321130 57023 IEM_DS3505
ZBHH,2002-02-07 07:00,ZBHH 070700Z AUTO 33014G23KT 6SM 02/M20 A2997 RMK T00201200 IEM_DS3505
ZBHH,2002-02-07 08:00,ZBHH 070800Z AUTO 33017KT 6SM 01/M17 A3003 RMK T00101170 IEM_DS3505
ZBHH,2002-02-07 09:00,ZBHH 070900Z AUTO 32010KT 19SM 01/M16 A3006 RMK SLP258 T00081156 52030 IEM_DS3505
ZBHH,2002-02-07 10:00,ZBHH 071000Z AUTO 35010G19KT 6SM M02/M18 A3009 RMK T10201180 IEM_DS3505
ZBHH,2002-02-07 11:00,ZBHH 071100Z AUTO 34012G21KT 6SM M02/M18 A3015 RMK T10201180 IEM_DS3505
ZBHH,2002-02-07 12:00,ZBHH 071200Z AUTO 36008KT 19SM M02/M15 A3018 RMK SLP304 T10171153 52036 IEM_DS3505
ZBHH,2002-02-07 13:00,ZBHH 071300Z AUTO 35010G21KT 6SM M04/M18 A3021 RMK T10401180 IEM_DS3505
ZBHH,2002-02-07 14:00,ZBHH 071400Z AUTO 35006G16KT 6SM M06/M17 A3024 RMK T10601170 IEM_DS3505
ZBHH,2002-02-07 15:00,ZBHH 071500Z AUTO 00000KT 19SM M05/M16 A3027 RMK SLP325 T10511156 52029 IEM_DS3505
ZBHH,2002-02-07 16:00,ZBHH 071600Z AUTO 31006KT 6SM M08/M17 A3030 RMK T10801170 IEM_DS3505
ZBHH,2002-02-07 18:00,ZBHH 071800Z AUTO 32004KT 19SM M08/M18 RMK SLP327 T10831177 52005 IEM_DS3505
ZBHH,2002-02-07 21:00,ZBHH 072100Z AUTO 27006KT 19SM M10/M19 A3030 RMK SLP340 T11021190 52002 IEM_DS3505
ZBHH,2002-02-07 22:00,ZBHH 072200Z AUTO 33008KT 6SM M11/M22 A3027 RMK T11101220 IEM_DS3505
ZBHH,2002-02-07 23:00,ZBHH 072300Z AUTO 34004KT 6SM M13/M21 A3027 RMK T11301210 IEM_DS3505
ZBHH,2002-02-08 00:00,ZBHH 080000Z AUTO 29002KT 19SM M10/M20 A3027 RMK SLP336 T10951196 57008 IEM_DS3505
ZBHH,2002-02-08 01:00,ZBHH 080100Z AUTO 11002KT 6SM M13/M21 A3030 RMK T11301210 IEM_DS3505
ZBHH,2002-02-08 02:00,ZBHH 080200Z AUTO 20004KT 6SM M10/M19 A3033 RMK T11001190 IEM_DS3505
ZBHH,2002-02-08 03:00,ZBHH 080300Z AUTO 20006KT 19SM M06/M18 A3030 RMK SLP348 T10581178 52011 IEM_DS3505
ZBHH,2002-02-08 04:00,ZBHH 080400Z AUTO 22004KT 6SM M06/M20 A3027 RMK T10601200 IEM_DS3505
ZBHH,2002-02-08 05:00,ZBHH 080500Z AUTO 22006KT 6SM M04/M19 A3024 RMK T10401190 IEM_DS3505
ZBHH,2002-02-08 06:00,ZBHH 080600Z AUTO 16006KT 19SM M03/M18 A3018 RMK SLP300 T10281179 57042 IEM_DS3505
ZBHH,2002-02-08 07:00,ZBHH 080700Z AUTO 23006KT 6SM M03/M20 A3015 RMK T10301200 IEM_DS3505
ZBHH,2002-02-08 08:00,ZBHH 080800Z AUTO 24006KT 6SM M03/M20 A3015 RMK T10301200 IEM_DS3505
ZBHH,2002-02-08 09:00,ZBHH 080900Z AUTO 20008KT 19SM M02/M17 A3015 RMK SLP289 T10201167 57012 IEM_DS3505
ZBHH,2002-02-08 10:00,ZBHH 081000Z AUTO 23004KT 6SM M04/M20 A3012 RMK T10401200 IEM_DS3505
ZBHH,2002-02-08 11:00,ZBHH 081100Z AUTO 25004KT 6SM M05/M20 A3012 RMK T10501200 IEM_DS3505
ZBHH,2002-02-08 12:00,ZBHH 081200Z AUTO 20004KT 12SM M02/M16 A3012 RMK SLP280 T10241162 57007 IEM_DS3505
ZBHH,2002-02-08 13:00,ZBHH 081300Z AUTO 11002KT 6SM M06/M20 A3012 RMK T10601200 IEM_DS3505
ZBHH,2002-02-08 14:00,ZBHH 081400Z AUTO 00000KT 6SM M07/M21 A3012 RMK T10701210 IEM_DS3505
ZBHH,2002-02-08 15:00,ZBHH 081500Z AUTO 20002KT 19SM M04/M18 A3012 RMK SLP278 T10441177 52002 IEM_DS3505
ZBHH,2002-02-08 18:00,ZBHH 081800Z AUTO 00000KT 19SM M06/M19 RMK SLP269 T10561188 57004 IEM_DS3505
ZBHH,2002-02-08 21:00,ZBHH 082100Z AUTO 00000KT 12SM M07/M17 A3009 RMK SLP261 T10681167 57008 IEM_DS3505
ZBHH,2002-02-08 22:00,ZBHH 082200Z AUTO 12002KT 6SM M10/M20 A3009 RMK T11001200 IEM_DS3505
ZBHH,2002-02-08 23:00,ZBHH 082300Z AUTO 10002KT 6SM M10/M20 A3009 RMK T11001200 IEM_DS3505
ZBHH,2002-02-09 00:00,ZBHH 090000Z AUTO 09002KT 12SM M07/M18 A3009 RMK SLP264 T10681175 52002 IEM_DS3505
ZBHH,2002-02-09 01:00,ZBHH 090100Z AUTO 00000KT 6SM M07/M16 A3009 RMK T10701160 IEM_DS3505
ZBHH,2002-02-09 03:00,ZBHH 090300Z AUTO 14002KT 16SM M05/M16 A3006 RMK SLP261 T10541161 57004 IEM_DS3505
ZBHH,2002-02-09 04:00,ZBHH 090400Z AUTO 17004KT 6SM M04/M18 A3006 RMK T10401180 IEM_DS3505
ZBHH,2002-02-09 05:00,ZBHH 090500Z AUTO 22002KT 6SM M03/M18 A3003 RMK T10301180 IEM_DS3505
ZBHH,2002-02-09 06:00,ZBHH 090600Z AUTO 02002KT 9SM M01/M15 A3000 RMK SLP226 T10101150 57024 IEM_DS3505
ZBHH,2002-02-09 07:00,ZBHH 090700Z AUTO 30019G29KT 3SM M01/M22 A3000 RMK T10101220 IEM_DS3505
ZBHH,2002-02-09 08:00,ZBHH 090800Z AUTO 30023KT 3SM M01/M23 A3000 RMK T10101230 IEM_DS3505
ZBHH,2002-02-09 09:00,ZBHH 090900Z AUTO 29012KT 4SM M00/M24 A3000 RMK SLP238 T10051236 52009 IEM_DS3505
ZBHH,2002-02-09 10:00,ZBHH 091000Z AUTO 31019KT 2 1/2SM M03/M24 A3006 RMK T10301240 IEM_DS3505
ZBHH,2002-02-09 11:00,ZBHH 091100Z AUTO 30016KT 3SM M04/M24 A3009 RMK T10401240 IEM_DS3505
ZBHH,2002-02-09 12:00,ZBHH 091200Z AUTO 29006KT 12SM M04/M24 A3012 RMK SLP280 T10411237 52029 IEM_DS3505
ZBHH,2002-02-09 13:00,ZBHH 091300Z AUTO 28008KT 6SM M06/M24 A3015 RMK T10601240 IEM_DS3505
ZBHH,2002-02-09 14:00,ZBHH 091400Z AUTO 28006KT 6SM M06/M24 A3015 RMK T10601240 IEM_DS3505
ZBHH,2002-02-09 15:00,ZBHH 091500Z AUTO 29006KT 12SM M05/M21 A3015 RMK SLP290 T10501210 52010 IEM_DS3505
ZBHH,2002-02-09 18:00,ZBHH 091800Z AUTO 27002KT 16SM M09/M22 RMK SLP278 T10881217 57009 IEM_DS3505
ZBHH,2002-02-09 21:00,ZBHH 092100Z AUTO 09002KT 19SM M11/M22 A3012 RMK SLP278 T11061218 57003 IEM_DS3505
ZBHH,2002-02-09 22:00,ZBHH 092200Z AUTO 06004KT 6SM M16/M25 A3012 RMK T11601250 IEM_DS3505
ZBHH,2002-02-09 23:00,ZBHH 092300Z AUTO 08006KT 6SM M18/M26 A3012 RMK T11801260 IEM_DS3505
ZBHH,2002-02-10 00:00,ZBHH 100000Z AUTO 07004KT 16SM M12/M22 A3015 RMK SLP306 T11181217 52013 IEM_DS3505
ZBHH,2002-02-10 01:00,ZBHH 100100Z AUTO 08004KT 6SM M12/M23 A3018 RMK T11201230 IEM_DS3505
ZBHH,2002-02-10 02:00,ZBHH 100200Z AUTO 15004KT 6SM M10/M22 A3018 RMK T11001220 IEM_DS3505
ZBHH,2002-02-10 03:00,ZBHH 100300Z AUTO 18004KT 12SM M05/M15 A3018 RMK SLP303 T10501154 IEM_DS3505
ZBHH,2002-02-10 04:00,ZBHH 100400Z AUTO 21004KT 6SM M06/M20 A3018 RMK T10601200 IEM_DS3505
ZBHH,2002-02-10 05:00,ZBHH 100500Z AUTO 1 1/2SM RMK IEM_DS3505
ZBHH,2002-02-10 06:00,ZBHH 100600Z AUTO 32012KT 16SM 00/M16 RMK SLP286 T00021157 57012 IEM_DS3505
ZBHH,2002-02-10 07:00,ZBHH 100700Z AUTO 32008KT 6SM 00/M22 A3015 RMK T00001220 IEM_DS3505
ZBHH,2002-02-10 08:00,ZBHH 100800Z AUTO 30008KT 6SM 00/M22 A3018 RMK T00001220 IEM_DS3505
ZBHH,2002-02-10 09:00,ZBHH 100900Z AUTO 32010KT 19SM 00/M16 A3015 RMK SLP295 T00051157 52005 IEM_DS3505
ZBHH,2002-02-10 10:00,ZBHH 101000Z AUTO 33008KT 6SM M03/M23 A3018 RMK T10301230 IEM_DS3505
ZBHH,2002-02-10 11:00,ZBHH 101100Z AUTO 34008KT 6SM M05/M23 A3021 RMK T10501230 IEM_DS3505
ZBHH,2002-02-10 12:00,ZBHH 101200Z AUTO 36006KT 19SM M03/M18 A3021 RMK SLP323 T10281179 52014 IEM_DS3505
ZBHH,2002-02-10 13:00,ZBHH 101300Z AUTO 33004KT 6SM M07/M23 A3021 RMK T10701230 IEM_DS3505
ZBHH,2002-02-10 14:00,ZBHH 101400Z AUTO 02006KT 6SM M08/M22 A3024 RMK T10801220 IEM_DS3505
ZBHH,2002-02-10 15:00,ZBHH 101500Z AUTO 22002KT 19SM M05/M20 A3021 RMK SLP316 T10461200 52005 IEM_DS3505
ZBHH,2002-02-10 16:00,ZBHH 101600Z AUTO 07004KT 6SM M10/M23 A3024 RMK T11001230 IEM_DS3505
ZBHH,2002-02-10 18:00,ZBHH 101800Z AUTO 04002KT 19SM M08/M21 RMK SLP307 T10751206 57002 IEM_DS3505
ZBHH,2002-02-10 21:00,ZBHH 102100Z AUTO 00000KT 19SM M10/M20 A3018 RMK SLP302 T11031204 57010 IEM_DS3505
ZBHH,2002-02-10 22:00,ZBHH 102200Z AUTO 08002KT 6SM M17/M26 A3018 RMK T11701260 IEM_DS3505
ZBHH,2002-02-10 23:00,ZBHH 102300Z AUTO 05002KT 6SM M18/M26 A3018 RMK T11801260 IEM_DS3505
ZBHH,2002-02-11 00:00,ZBHH 110000Z AUTO 04002KT 12SM M11/M19 A3018 RMK SLP309 T11061193 57002 IEM_DS3505
ZBHH,2002-02-11 01:00,ZBHH 110100Z AUTO 10004KT 6SM M10/M22 A3018 RMK T11001220 IEM_DS3505
ZBHH,2002-02-11 02:00,ZBHH 110200Z AUTO 13002KT 6SM M05/M21 A3018 RMK T10501210 IEM_DS3505
ZBHH,2002-02-11 03:00,ZBHH 110300Z AUTO 14002KT 6SM M03/M19 A3018 RMK SLP289 T10261191 57004 IEM_DS3505
ZBHH,2002-02-11 04:00,ZBHH 110400Z AUTO 14002KT 6SM M02/M20 A3015 RMK T10201200 IEM_DS3505
ZBHH,2002-02-11 05:00,ZBHH 110500Z AUTO 22004KT 6SM M01/M20 A3012 RMK T10101200 IEM_DS3505
ZBHH,2002-02-11 06:00,ZBHH 110600Z AUTO 22004KT 6SM 01/M18 A3009 RMK SLP254 T00101182 57029 IEM_DS3505
ZBHH,2002-02-11 07:00,ZBHH 110700Z AUTO 26006KT 6SM 01/M19 A3006 RMK T00101190 IEM_DS3505
ZBHH,2002-02-11 08:00,ZBHH 110800Z AUTO 26002KT 6SM 02/M18 A3006 RMK T00201180 IEM_DS3505
ZBHH,2002-02-11 09:00,ZBHH 110900Z AUTO 25004KT 19SM 03/M15 RMK SLP246 T00301149 57009 IEM_DS3505
ZBHH,2002-02-11 11:00,ZBHH 111100Z AUTO 08004KT 6SM M03/M19 A3006 RMK T10301190 IEM_DS3505
ZBHH,2002-02-11 12:00,ZBHH 111200Z AUTO 02002KT 9SM M01/M17 A3006 RMK SLP261 T10061170 52005 IEM_DS3505
ZBHH,2002-02-11 13:00,ZBHH 111300Z AUTO 08002KT 6SM A3006 RMK IEM_DS3505
ZBHH,2002-02-11 14:00,ZBHH 111400Z AUTO 06002KT 6SM M09/M22 A3009 RMK T10901220 IEM_DS3505
ZBHH,2002-02-11 15:00,ZBHH 111500Z AUTO 00000KT 5SM M04/M16 A3009 RMK SLP258 T10361160 52008 IEM_DS3505
ZBHH,2002-02-11 18:00,ZBHH 111800Z AUTO 02002KT 6SM M04/M17 RMK SLP249 T10441169 57002 IEM_DS3505
ZBHH,2002-02-11 21:00,ZBHH 112100Z AUTO 00000KT 4SM M06/M15 A3006 RMK SLP242 T10571154 57004 IEM_DS3505
ZBHH,2002-02-11 22:00,ZBHH 112200Z AUTO 11004KT 6SM M13/M20 A3009 RMK T11301200 IEM_DS3505
ZBHH,2002-02-11 23:00,ZBHH 112300Z AUTO 07004KT 6SM M10/M18 A3009 RMK T11001180 IEM_DS3505
ZBHH,2002-02-12 00:00,ZBHH 120000Z AUTO 32004KT 19SM A3012 RMK SLP259 52015 IEM_DS3505
ZBHH,2002-02-12 01:00,ZBHH 120100Z AUTO 36008KT 6SM M04/M17 A3015 RMK T10401170 IEM_DS3505
ZBHH,2002-02-12 02:00,ZBHH 120200Z AUTO 36012KT 6SM M02/M17 A3015 RMK T10201170 IEM_DS3505
ZBHH,2002-02-12 03:00,ZBHH 120300Z AUTO 29004KT 12SM 00/M15 A3015 RMK SLP273 T00051149 52011 IEM_DS3505
ZBHH,2002-02-12 04:00,ZBHH 120400Z AUTO 34004KT 6SM 01/M17 A3015 RMK T00101170 IEM_DS3505
ZBHH,2002-02-12 05:00,ZBHH 120500Z AUTO 29006KT 6SM 02/M16 A3012 RMK T00201160 IEM_DS3505
ZBHH,2002-02-12 06:00,ZBHH 120600Z AUTO 18006KT 19SM 04/M11 A3009 RMK SLP249 T00401114 57015 IEM_DS3505
ZBHH,2002-02-12 07:00,ZBHH 120700Z AUTO 25006KT 6SM 04/M15 A3009 RMK T00401150 IEM_DS3505
ZBHH,2002-02-12 08:00,ZBHH 120800Z AUTO 24004KT 6SM 04/M15 A3009 RMK T00401150 IEM_DS3505
ZBHH,2002-02-12 09:00,ZBHH 120900Z AUTO 18006KT 16SM 04/M14 A3009 RMK SLP245 T00441135 57006 IEM_DS3505
ZBHH,2002-02-12 10:00,ZBHH 121000Z AUTO 24004KT 6SM 01/M15 A3009 RMK T00101150 IEM_DS3505
ZBHH,2002-02-12 11:00,ZBHH 121100Z AUTO 00000KT 6SM M01/M15 A3009 RMK T10101150 IEM_DS3505
ZBHH,2002-02-12 12:00,ZBHH 121200Z AUTO 00000KT 5SM M01/M13 A3012 RMK SLP256 T10101131 52006 IEM_DS3505
ZBHH,2002-02-12 13:00,ZBHH 121300Z AUTO 06004KT 6SM M06/M17 A3012 RMK T10601170 IEM_DS3505
ZBHH,2002-02-12 14:00,ZBHH 121400Z AUTO 07006KT 6SM M09/M19 A3012 RMK T10901190 IEM_DS3505
ZBHH,2002-02-12 15:00,ZBHH 121500Z AUTO 07004KT 19SM M03/M13 RMK SLP265 T10281131 52010 IEM_DS3505
ZBHH,2002-02-12 18:00,ZBHH 121800Z AUTO 00000KT 5SM M06/M15 RMK SLP272 T10611148 52006 IEM_DS3505
ZBHH,2002-02-12 21:00,ZBHH 122100Z AUTO 00000KT 19SM M07/M15 A3015 RMK SLP268 T10671146 57004 IEM_DS3505
ZBHH,2002-02-12 22:00,ZBHH 122200Z AUTO 10002KT 6SM M12/M19 A3015 RMK T11201190 IEM_DS3505
ZBHH,2002-02-12 23:00,ZBHH 122300Z AUTO 07004KT 6SM M10/M18 A3018 RMK T11001180 IEM_DS3505
ZBHH,2002-02-13 00:00,ZBHH 130000Z AUTO 09002KT 9SM M06/M14 A3021 RMK SLP303 T10581143 52021 IEM_DS3505
ZBHH,2002-02-13 01:00,ZBHH 130100Z AUTO 07004KT 6SM M08/M17 A3024 RMK T10801170 IEM_DS3505
ZBHH,2002-02-13 02:00,ZBHH 130200Z AUTO 09004KT 6SM M04/M16 A3024 RMK T10401160 IEM_DS3505
ZBHH,2002-02-13 03:00,ZBHH 130300Z AUTO 09002KT 9SM 02/M11 A3024 RMK SLP300 T00161113 52010 IEM_DS3505
ZBHH,2002-02-13 04:00,ZBHH 130400Z AUTO 13002KT 6SM 02/M16 A3024 RMK T00201160 IEM_DS3505
ZBHH,2002-02-13 06:00,ZBHH 130600Z AUTO 00000KT 12SM 06/M12 A3021 RMK SLP287 T00581115 57010 IEM_DS3505
ZBHH,2002-02-13 07:00,ZBHH 130700Z AUTO 31006KT 6SM 05/M17 A3021 RMK T00501170 IEM_DS3505
ZBHH,2002-02-13 08:00,ZBHH 130800Z AUTO 32008KT 6SM 05/M17 A3021 RMK T00501170 IEM_DS3505
ZBHH,2002-02-13 09:00,ZBHH 130900Z AUTO 04002KT 9SM 05/M16 A3021 RMK SLP290 T00541159 52001 IEM_DS3505
ZBHH,2002-02-13 11:00,ZBHH 131100Z AUTO 35006KT 6SM 01/M16 A3027 RMK T00101160 IEM_DS3505
ZBHH,2002-02-13 12:00,ZBHH 131200Z AUTO 00000KT 6SM 02/M12 A3030 RMK SLP325 T00181120 52025 IEM_DS3505
ZBHH,2002-02-13 13:00,ZBHH 131300Z AUTO 04004KT 6SM 00/M16 A3033 RMK T00001160 IEM_DS3505
ZBHH,2002-02-13 14:00,ZBHH 131400Z AUTO 06006KT 6SM M04/M17 A3033 RMK T10401170 IEM_DS3505
ZBHH,2002-02-13 15:00,ZBHH 131500Z AUTO 00000KT 9SM M00/M12 RMK SLP325 T10031121 52011 IEM_DS3505
ZBHH,2002-02-13 18:00,ZBHH 131800Z AUTO 00000KT 9SM M03/M14 RMK SLP322 T10341143 54000 IEM_DS3505
ZBHH,2002-02-13 21:00,ZBHH 132100Z AUTO 09002KT 19SM M06/M15 A3033 RMK SLP330 T10621151 54000 IEM_DS3505
ZBHH,2002-02-13 22:00,ZBHH 132200Z AUTO 06006KT 6SM M08/M17 A3036 RMK T10801170 IEM_DS3505
ZBHH,2002-02-13 23:00,ZBHH 132300Z AUTO 07006KT 6SM M09/M18 A3036 RMK T10901180 IEM_DS3505
ZBHH,2002-02-14 00:00,ZBHH 140000Z AUTO 07002KT 19SM M05/M15 A3033 RMK SLP336 T10501148 54000 IEM_DS3505
ZBHH,2002-02-14 01:00,ZBHH 140100Z AUTO 10004KT 6SM M05/M17 A3036 RMK T10501170 IEM_DS3505
ZBHH,2002-02-14 02:00,ZBHH 140200Z AUTO 03002KT 6SM M02/M16 A3036 RMK T10201160 IEM_DS3505
ZBHH,2002-02-14 03:00,ZBHH 140300Z AUTO 00000KT 9SM 01/M11 A3036 RMK SLP339 T00061106 52010 IEM_DS3505
ZBHH,2002-02-14 04:00,ZBHH 140400Z AUTO 04002KT 6SM 02/M16 A3036 RMK T00201160 IEM_DS3505
ZBHH,2002-02-14 05:00,ZBHH 140500Z AUTO 26002KT 6SM 04/M16 A3033 RMK T00401160 IEM_DS3505
ZBHH,2002-02-14 06:00,ZBHH 140600Z AUTO 11004KT 7SM 07/M13 A3030 RMK SLP305 T00691126 57023 IEM_DS3505
ZBHH,2002-02-14 07:00,ZBHH 140700Z AUTO 33002KT 6SM 06/M16 A3027 RMK T00601160 IEM_DS3505
ZBHH,2002-02-14 08:00,ZBHH 140800Z AUTO 23004KT 6SM 06/M16 A3027 RMK T00601160 IEM_DS3505
ZBHH,2002-02-14 09:00,ZBHH 140900Z AUTO 20004KT 12SM 06/M12 A3027 RMK SLP309 T00601123 57004 IEM_DS3505
ZBHH,2002-02-14 10:00,ZBHH 141000Z AUTO 24002KT 6SM 03/M16 A3027 RMK T00301160 IEM_DS3505
ZBHH,2002-02-14 11:00,ZBHH 141100Z AUTO 36002KT 6SM 01/M16 A3030 RMK T00101160 IEM_DS3505
ZBHH,2002-02-14 12:00,ZBHH 141200Z AUTO 00000KT 6SM 00/M14 A3030 RMK SLP324 T00041137 52003 IEM_DS3505
ZBHH,2002-02-14 13:00,ZBHH 141300Z AUTO 14002KT 3SM A3030 RMK IEM_DS3505
ZBHH,2002-02-14 14:00,ZBHH 141400Z AUTO 07006KT 6SM M05/M18 A3030 RMK T10501180 IEM_DS3505
ZBHH,2002-02-14 15:00,ZBHH 141500Z AUTO 02002KT 7SM M00/M15 A3030 RMK SLP319 T10021146 52007 IEM_DS3505
ZBHH,2002-02-14 18:00,ZBHH 141800Z AUTO 07002KT 19SM M02/M13 RMK SLP304 T10181130 57003 IEM_DS3505
ZBHH,2002-02-14 21:00,ZBHH 142100Z AUTO 00000KT 12SM M02/M13 A3027 RMK SLP296 T10171134 57009 IEM_DS3505
ZBHH,2002-02-14 22:00,ZBHH 142200Z AUTO 07004KT 7SM M04/M12 A3027 RMK T10401120 IEM_DS3505
ZBHH,2002-02-14 23:00,ZBHH 142300Z AUTO 07006KT 7SM M04/M09 A3024 RMK T10401090 IEM_DS3505
ZBHH,2002-02-15 00:00,ZBHH 150000Z AUTO 09002KT 9SM M01/M09 A3027 RMK SLP302 T10111087 57005 IEM_DS3505
ZBHH,2002-02-15 01:00,ZBHH 150100Z AUTO 07004KT 7SM M03/M07 A3027 RMK T10301070 IEM_DS3505
ZBHH,2002-02-15 02:00,ZBHH 150200Z AUTO 06002KT 2 1/2SM M01/M06 A3027 RMK T10101060 IEM_DS3505
ZBHH,2002-02-15 03:00,ZBHH 150300Z AUTO 00000KT 12SM 00/M01 A3027 RMK SLP305 T00021014 52004 IEM_DS3505
ZBHH,2002-02-15 04:00,ZBHH 150400Z AUTO 14002KT 2SM M01/M03 A3027 RMK T10101030 IEM_DS3505
ZBHH,2002-02-15 05:00,ZBHH 150500Z AUTO 00000KT 1 1/2SM M01/M02 A3024 RMK T10101020 IEM_DS3505
ZBHH,2002-02-15 06:00,ZBHH 150600Z AUTO 07004KT 9SM M02/M02 A3018 RMK 60003 SLP275 T10201020 57026 IEM_DS3505
ZBHH,2002-02-15 07:00,ZBHH 150700Z AUTO 16004KT 3SM 02/M02 A3018 RMK T00201020 IEM_DS3505
ZBHH,2002-02-15 08:00,ZBHH 150800Z AUTO 21004KT 3SM 02/M03 A3018 RMK T00201030 IEM_DS3505
ZBHH,2002-02-15 09:00,ZBHH 150900Z AUTO 20004KT 7SM 03/M01 A3015 RMK SLP263 T00281011 57009 IEM_DS3505
ZBHH,2002-02-15 10:00,ZBHH 151000Z AUTO 20002KT 2 1/2SM 01/M03 A3015 RMK T00101030 IEM_DS3505
ZBHH,2002-02-15 11:00,ZBHH 151100Z AUTO 18002KT 4SM 01/M03 A3015 RMK T00101030 IEM_DS3505
ZBHH,2002-02-15 12:00,ZBHH 151200Z AUTO 18002KT 9SM 02/M01 A3015 RMK SLP265 T00181008 52001 IEM_DS3505
ZBHH,2002-02-15 13:00,ZBHH 151300Z AUTO 20002KT 1 1/2SM M01/M03 A3015 RMK T10101030 IEM_DS3505
ZBHH,2002-02-15 14:00,ZBHH 151400Z AUTO 00000KT 1 1/2SM M01/M03 A3015 RMK T10101030 IEM_DS3505
ZBHH,2002-02-15 15:00,ZBHH 151500Z AUTO 18002KT 9SM 01/00 A3012 RMK SLP255 T00100000 57007 IEM_DS3505
ZBHH,2002-02-15 16:00,ZBHH 151600Z AUTO 18002KT 1 1/2SM M02/M04 A3012 RMK T10201040 IEM_DS3505
ZBHH,2002-02-15 17:00,ZBHH 151700Z AUTO 00000KT 1 1/2SM M02/M03 A3012 RMK T10201030 IEM_DS3505
ZBHH,2002-02-15 18:00,ZBHH 151800Z AUTO 14004KT 12SM 00/M02 A3009 RMK SLP239 T00041015 57012 IEM_DS3505
ZBHH,2002-02-15 19:00,ZBHH 151900Z AUTO 13002KT 1 1/2SM M01/M03 A3006 RMK T10101030 IEM_DS3505
ZBHH,2002-02-15 20:00,ZBHH 152000Z AUTO 23002KT 1 1/2SM M01/M03 A3006 RMK T10101030 IEM_DS3505
ZBHH,2002-02-15 21:00,ZBHH 152100Z AUTO 00000KT 7SM M00/M01 A3003 RMK 70001 SLP216 T10021010 57020 IEM_DS3505
ZBHH,2002-02-15 22:00,ZBHH 152200Z AUTO 10002KT 3/8SM M02/M03 A3003 RMK T10201030 IEM_DS3505
ZBHH,2002-02-15 23:00,ZBHH 152300Z AUTO 10002KT 3/8SM M02/M02 A3000 RMK T10201020 IEM_DS3505
ZBHH,2002-02-16 00:00,ZBHH 160000Z AUTO 00000KT 5SM M00/M02 A3003 RMK 60008 SLP217 T10041016 57001 IEM_DS3505
ZBHH,2002-02-16 01:00,ZBHH 160100Z AUTO 00000KT 1/2SM M01/M01 A3003 RMK T10101010 IEM_DS3505
ZBHH,2002-02-16 02:00,ZBHH 160200Z AUTO 23002KT 1SM M01/M02 A3003 RMK T10101020 IEM_DS3505
ZBHH,2002-02-16 03:00,ZBHH 160300Z AUTO 00000KT 3SM 01/M01 A3003 RMK SLP226 T00061007 52008 IEM_DS3505
ZBHH,2002-02-16 04:00,ZBHH 160400Z AUTO 22004KT 1SM 00/M01 A3003 RMK T00001010 IEM_DS3505
ZBHH,2002-02-16 05:00,ZBHH 160500Z AUTO 20004KT 2 1/2SM 00/M01 A3003 RMK T00001010 IEM_DS3505
ZBHH,2002-02-16 06:00,ZBHH 160600Z AUTO 20002KT 1SM 00/M02 A3003 RMK T00001020 IEM_DS3505
ZBHH,2002-02-16 07:00,ZBHH 160700Z AUTO 23002KT 2SM 00/M01 A3003 RMK T00001010 IEM_DS3505
ZBHH,2002-02-16 08:00,ZBHH 160800Z AUTO 07002KT 1 1/2SM 01/M02 A3000 RMK T00101020 IEM_DS3505
ZBHH,2002-02-16 09:00,ZBHH 160900Z AUTO 09008KT 5SM 03/M01 A3003 RMK SLP219 T00301009 52001 IEM_DS3505
ZBHH,2002-02-16 10:00,ZBHH 161000Z AUTO 01004KT 7SM 00/M03 A3006 RMK T00001030 IEM_DS3505
ZBHH,2002-02-16 11:00,ZBHH 161100Z AUTO 33002KT 7SM 00/M05 A3009 RMK T00001050 IEM_DS3505
ZBHH,2002-02-16 12:00,ZBHH 161200Z AUTO 36004KT 19SM 01/M10 A3012 RMK 60003 SLP248 T00111101 52021 IEM_DS3505
ZBHH,2002-02-16 13:00,ZBHH 161300Z AUTO 31006KT 6SM M03/M10 A3012 RMK T10301100 IEM_DS3505
ZBHH,2002-02-16 14:00,ZBHH 161400Z AUTO 31004KT 6SM M02/M12 A3015 RMK T10201120 IEM_DS3505
ZBHH,2002-02-16 15:00,ZBHH 161500Z AUTO 29004KT 19SM M02/M14 A3015 RMK SLP268 T10201140 52013 IEM_DS3505
ZBHH,2002-02-16 16:00,ZBHH 161600Z AUTO 01002KT 6SM M07/M12 A3015 RMK T10701120 IEM_DS3505
ZBHH,2002-02-16 17:00,ZBHH 161700Z AUTO 02002KT 6SM M07/M12 A3015 RMK T10701120 IEM_DS3505
ZBHH,2002-02-16 18:00,ZBHH 161800Z AUTO 00000KT 19SM M05/M16 RMK SLP282 T10481157 52007 IEM_DS3505
ZBHH,2002-02-16 21:00,ZBHH 162100Z AUTO 00000KT 19SM M05/M16 RMK 70008 SLP275 T10511156 57002 IEM_DS3505
ZBHH,2002-02-16 22:00,ZBHH 162200Z AUTO 08006KT 6SM M12/M16 A3018 RMK T11201160 IEM_DS3505
ZBHH,2002-02-16 23:00,ZBHH 162300Z AUTO 08006KT 6SM M11/M16 A3018 RMK T11101160 IEM_DS3505
ZBHH,2002-02-17 00:00,ZBHH 170000Z AUTO 00000KT 12SM M07/M14 A3021 RMK 70001 SLP296 T10721142 52010 IEM_DS3505
ZBHH,2002-02-17 01:00,ZBHH 170100Z AUTO 05006KT 6SM M07/M14 A3021 RMK T10701140 IEM_DS3505
ZBHH,2002-02-17 02:00,ZBHH 170200Z AUTO 10004KT 6SM M04/M12 A3021 RMK T10401120 IEM_DS3505
ZBHH,2002-02-17 04:00,ZBHH 170400Z AUTO 14002KT 6SM 00/M13 A3021 RMK T00001130 IEM_DS3505
ZBHH,2002-02-17 05:00,ZBHH 170500Z AUTO 20002KT 6SM 01/M12 A3021 RMK T00101120 IEM_DS3505
ZBHH,2002-02-17 06:00,ZBHH 170600Z AUTO 20004KT 19SM 02/M16 A3018 RMK SLP280 T00211158 57012 IEM_DS3505
ZBHH,2002-02-17 07:00,ZBHH 170700Z AUTO 22002KT 6SM 02/M12 A3015 RMK T00201120 IEM_DS3505
ZBHH,2002-02-17 08:00,ZBHH 170800Z AUTO 00000KT 6SM 03/M12 A3015 RMK T00301120 IEM_DS3505
ZBHH,2002-02-17 09:00,ZBHH 170900Z AUTO 29002KT 19SM 04/M14 RMK SLP271 T00381143 57005 IEM_DS3505
ZBHH,2002-02-17 10:00,ZBHH 171000Z AUTO 00000KT 6SM 01/M10 A3018 RMK T00101100 IEM_DS3505
ZBHH,2002-02-17 11:00,ZBHH 171100Z AUTO 14002KT 6SM M01/M09 A3018 RMK T10101090 IEM_DS3505
ZBHH,2002-02-17 12:00,ZBHH 171200Z AUTO 00000KT 12SM 00/M11 A3021 RMK SLP299 T00021107 52012 IEM_DS3505
ZBHH,2002-02-17 13:00,ZBHH 171300Z AUTO 04002KT 6SM M04/M09 A3021 RMK T10401090 IEM_DS3505
ZBHH,2002-02-17 14:00,ZBHH 171400Z AUTO 06002KT 6SM M05/M09 A3021 RMK T10501090 IEM_DS3505
ZBHH,2002-02-17 15:00,ZBHH 171500Z AUTO 00000KT 12SM M04/M10 A3024 RMK SLP298 T10391103 52008 IEM_DS3505
ZBHH,2002-02-17 16:00,ZBHH 171600Z AUTO 00000KT 6SM M06/M09 A3024 RMK T10601090 IEM_DS3505
ZBHH,2002-02-17 18:00,ZBHH 171800Z AUTO 00000KT 16SM M05/M09 RMK SLP305 T10491090 52007 IEM_DS3505
ZBHH,2002-02-17 21:00,ZBHH 172100Z AUTO 00000KT 19SM M05/M10 A3027 RMK SLP311 T10521103 52008 IEM_DS3505
ZBHH,2002-02-17 22:00,ZBHH 172200Z AUTO 09002KT 6SM M07/M12 A3030 RMK T10701120 IEM_DS3505
ZBHH,2002-02-17 23:00,ZBHH 172300Z AUTO 11004KT 6SM M08/M12 A3033 RMK T10801120 IEM_DS3505
ZBHH,2002-02-18 00:00,ZBHH 180000Z AUTO 32004KT 16SM M04/M14 A3036 RMK SLP344 T10381139 52024 IEM_DS3505
ZBHH,2002-02-18 01:00,ZBHH 180100Z AUTO 08002KT 6SM M05/M10 A3039 RMK T10501100 IEM_DS3505
ZBHH,2002-02-18 02:00,ZBHH 180200Z AUTO 10004KT 6SM M02/M11 A3039 RMK T10201110 IEM_DS3505
ZBHH,2002-02-18 03:00,ZBHH 180300Z AUTO 27004KT 19SM 02/M18 A3042 RMK SLP356 T00241184 52015 IEM_DS3505
ZBHH,2002-02-18 04:00,ZBHH 180400Z AUTO 23002KT 6SM 02/M14 A3042 RMK T00201140 IEM_DS3505
ZBHH,2002-02-18 05:00,ZBHH 180500Z AUTO 28004KT 6SM 03/M13 A3039 RMK T00301130 IEM_DS3505
ZBHH,2002-02-18 06:00,ZBHH 180600Z AUTO 27006KT 19SM 05/M14 A3039 RMK SLP343 T00521137 57007 IEM_DS3505
ZBHH,2002-02-18 07:00,ZBHH 180700Z AUTO 29006KT 6SM 05/M13 A3039 RMK T00501130 IEM_DS3505
ZBHH,2002-02-18 08:00,ZBHH 180800Z AUTO 30008KT 6SM 05/M14 A3039 RMK T00501140 IEM_DS3505
ZBHH,2002-02-18 09:00,ZBHH 180900Z AUTO 34004KT 19SM 05/M15 A3039 RMK SLP350 T00541153 52006 IEM_DS3505
ZBHH,2002-02-18 10:00,ZBHH 181000Z AUTO 32006KT 6SM 03/M13 A3042 RMK T00301130 IEM_DS3505
ZBHH,2002-02-18 11:00,ZBHH 181100Z AUTO 33004KT 6SM 01/M13 A3045 RMK T00101130 IEM_DS3505
ZBHH,2002-02-18 12:00,ZBHH 181200Z AUTO 00000KT 19SM 01/M14 A3045 RMK SLP370 T00131144 52011 IEM_DS3505
ZBHH,2002-02-18 13:00,ZBHH 181300Z AUTO 08004KT 6SM M05/M12 A3045 RMK T10501120 IEM_DS3505
ZBHH,2002-02-18 14:00,ZBHH 181400Z AUTO 09004KT 6SM M06/M11 A3047 RMK T10601110 IEM_DS3505
ZBHH,2002-02-18 15:00,ZBHH 181500Z AUTO 00000KT 19SM M02/M12 A3047 RMK SLP370 T10151125 52008 IEM_DS3505
ZBHH,2002-02-18 18:00,ZBHH 181800Z AUTO 00000KT 19SM M05/M12 RMK SLP372 T10501115 54000 IEM_DS3505
ZBHH,2002-02-18 21:00,ZBHH 182100Z AUTO 00000KT 12SM M07/M12 A3045 RMK SLP375 T10681121 57001 IEM_DS3505
ZBHH,2002-02-18 22:00,ZBHH 182200Z AUTO 06002KT 6SM M09/M13 A3045 RMK T10901130 IEM_DS3505
ZBHH,2002-02-18 23:00,ZBHH 182300Z AUTO 06006KT 6SM M09/M13 A3045 RMK T10901130 IEM_DS3505
ZBHH,2002-02-19 00:00,ZBHH 190000Z AUTO 00000KT 19SM M08/M10 A3047 RMK SLP388 T10761102 52001 IEM_DS3505
ZBHH,2002-02-19 01:00,ZBHH 190100Z AUTO 08004KT 6SM M05/M10 A3045 RMK T10501100 IEM_DS3505
ZBHH,2002-02-19 02:00,ZBHH 190200Z AUTO 07004KT 6SM M01/M10 A3045 RMK T10101100 IEM_DS3505
ZBHH,2002-02-19 03:00,ZBHH 190300Z AUTO 00000KT 12SM 02/M11 A3042 RMK SLP361 T00201112 57009 IEM_DS3505
ZBHH,2002-02-19 04:00,ZBHH 190400Z AUTO 25002KT 6SM 03/M13 A3042 RMK T00301130 IEM_DS3505
ZBHH,2002-02-19 05:00,ZBHH 190500Z AUTO 24004KT 6SM 05/M12 A3036 RMK T00501120 IEM_DS3505
ZBHH,2002-02-19 06:00,ZBHH 190600Z AUTO 20004KT 19SM 07/M10 A3033 RMK SLP329 T00661099 57026 IEM_DS3505
ZBHH,2002-02-19 07:00,ZBHH 190700Z AUTO 25004KT 6SM 06/M12 A3033 RMK T00601120 IEM_DS3505
ZBHH,2002-02-19 08:00,ZBHH 190800Z AUTO 19002KT 6SM 06/M12 A3030 RMK T00601120 IEM_DS3505
ZBHH,2002-02-19 09:00,ZBHH 190900Z AUTO 20006KT 19SM 07/M11 A3027 RMK SLP308 T00701106 57021 IEM_DS3505
ZBHH,2002-02-19 10:00,ZBHH 191000Z AUTO 00000KT 6SM 04/M13 A3027 RMK T00401130 IEM_DS3505
ZBHH,2002-02-19 11:00,ZBHH 191100Z AUTO 05002KT 6SM 03/M12 A3024 RMK T00301120 IEM_DS3505
ZBHH,2002-02-19 12:00,ZBHH 191200Z AUTO 00000KT 9SM 02/M11 A3024 RMK SLP311 T00221112 57010 IEM_DS3505
ZBHH,2002-02-19 13:00,ZBHH 191300Z AUTO 06004KT 6SM M04/M12 A3024 RMK T10401120 IEM_DS3505
ZBHH,2002-02-19 14:00,ZBHH 191400Z AUTO 06004KT 6SM M05/M11 A3024 RMK T10501110 IEM_DS3505
ZBHH,2002-02-19 15:00,ZBHH 191500Z AUTO 00000KT 5SM M02/M10 A3024 RMK SLP293 T10241103 57005 IEM_DS3505
ZBHH,2002-02-19 16:00,ZBHH 191600Z AUTO 06002KT 6SM M04/M11 A3021 RMK T10401110 IEM_DS3505
ZBHH,2002-02-19 17:00,ZBHH 191700Z AUTO 35004KT 6SM M05/M11 A3021 RMK T10501110 IEM_DS3505
ZBHH,2002-02-19 18:00,ZBHH 191800Z AUTO 00000KT 16SM M03/M11 A3018 RMK SLP264 T10321106 57017 IEM_DS3505
ZBHH,2002-02-19 21:00,ZBHH 192100Z AUTO 00000KT 12SM M04/M08 A3012 RMK SLP240 T10381079 57021 IEM_DS3505
ZBHH,2002-02-19 22:00,ZBHH 192200Z AUTO 05002KT 7SM M04/M10 A3009 RMK T10401100 IEM_DS3505
ZBHH,2002-02-19 23:00,ZBHH 192300Z AUTO 05002KT 7SM M05/M10 A3009 RMK T10501100 IEM_DS3505
ZBHH,2002-02-20 00:00,ZBHH 200000Z AUTO 00000KT 6SM M04/M09 A3009 RMK SLP253 T10411087 54000 IEM_DS3505
ZBHH,2002-02-20 01:00,ZBHH 200100Z AUTO 08004KT 4SM M02/M06 A3012 RMK T10201060 IEM_DS3505
ZBHH,2002-02-20 02:00,ZBHH 200200Z AUTO 12002KT 3SM 01/M07 A3009 RMK T00101070 IEM_DS3505
ZBHH,2002-02-20 03:00,ZBHH 200300Z AUTO 18002KT 7SM 05/M07 A3009 RMK SLP238 T00521072 57003 IEM_DS3505
ZBHH,2002-02-20 04:00,ZBHH 200400Z AUTO 23004KT 7SM 05/M10 A3006 RMK T00501100 IEM_DS3505
ZBHH,2002-02-20 05:00,ZBHH 200500Z AUTO 21006KT 6SM 05/M09 A3006 RMK T00501090 IEM_DS3505
ZBHH,2002-02-20 06:00,ZBHH 200600Z AUTO 20006KT 9SM 08/M08 A3003 RMK SLP209 T00791076 57021 IEM_DS3505
ZBHH,2002-02-20 07:00,ZBHH 200700Z AUTO 24008KT 6SM 08/M10 A3000 RMK T00801100 IEM_DS3505
ZBHH,2002-02-20 08:00,ZBHH 200800Z AUTO 23008KT 6SM 08/M10 A3000 RMK T00801100 IEM_DS3505
ZBHH,2002-02-20 09:00,ZBHH 200900Z AUTO 20004KT 16SM 09/M10 A3000 RMK SLP200 T00881101 57008 IEM_DS3505
ZBHH,2002-02-20 10:00,ZBHH 201000Z AUTO 23006KT 6SM 06/M11 A3000 RMK T00601110 IEM_DS3505
ZBHH,2002-02-20 11:00,ZBHH 201100Z AUTO 21006KT 6SM 04/M11 A3003 RMK T00401110 IEM_DS3505
ZBHH,2002-02-20 12:00,ZBHH 201200Z AUTO 32004KT 19SM 05/M09 A3006 RMK SLP228 T00541086 52017 IEM_DS3505
ZBHH,2002-02-20 13:00,ZBHH 201300Z AUTO 34006KT 7SM 03/M10 A3009 RMK T00301100 IEM_DS3505
ZBHH,2002-02-20 14:00,ZBHH 201400Z AUTO 35004KT 7SM 02/M11 A3009 RMK T00201110 IEM_DS3505
ZBHH,2002-02-20 15:00,ZBHH 201500Z AUTO 29004KT 19SM 03/M09 A3012 RMK SLP229 T00331091 52016 IEM_DS3505
ZBHH,2002-02-20 18:00,ZBHH 201800Z AUTO 00000KT 19SM 00/M08 RMK SLP237 T00011076 52006 IEM_DS3505
ZBHH,2002-02-20 21:00,ZBHH 202100Z AUTO 00000KT 19SM M03/M09 A3015 RMK SLP248 T10261088 52006 IEM_DS3505
ZBHH,2002-02-20 22:00,ZBHH 202200Z AUTO 34006KT 6SM M01/M10 A3018 RMK T10101100 IEM_DS3505
ZBHH,2002-02-20 23:00,ZBHH 202300Z AUTO 11002KT 6SM M07/M11 A3021 RMK T10701110 IEM_DS3505
ZBHH,2002-02-21 00:00,ZBHH 210000Z AUTO 00000KT 12SM M02/M08 A3024 RMK SLP285 T10201083 52027 IEM_DS3505
ZBHH,2002-02-21 01:00,ZBHH 210100Z AUTO 08002KT 6SM M03/M09 A3027 RMK T10301090 IEM_DS3505
ZBHH,2002-02-21 02:00,ZBHH 210200Z AUTO 13004KT 6SM 00/M08 A3027 RMK T00001080 IEM_DS3505
ZBHH,2002-02-21 03:00,ZBHH 210300Z AUTO 09002KT 19SM 05/M08 A3027 RMK SLP287 T00501076 52012 IEM_DS3505
ZBHH,2002-02-21 04:00,ZBHH 210400Z AUTO 10002KT 6SM 05/M10 A3027 RMK T00501100 IEM_DS3505
ZBHH,2002-02-21 05:00,ZBHH 210500Z AUTO 17004KT 6SM 07/M10 A3024 RMK T00701100 IEM_DS3505
ZBHH,2002-02-21 06:00,ZBHH 210600Z AUTO 18004KT 19SM 09/M09 A3021 RMK SLP269 T00871089 57015 IEM_DS3505
ZBHH,2002-02-21 07:00,ZBHH 210700Z AUTO 33010KT 6SM 09/M11 A3021 RMK T00901110 IEM_DS3505
ZBHH,2002-02-21 08:00,ZBHH 210800Z AUTO 33010KT 6SM 08/M12 A3021 RMK T00801120 IEM_DS3505
ZBHH,2002-02-21 09:00,ZBHH 210900Z AUTO 02006KT 19SM 09/M12 A3021 RMK SLP269 T00871123 57006 IEM_DS3505
ZBHH,2002-02-21 10:00,ZBHH 211000Z AUTO 35006KT 6SM 06/M13 A3024 RMK T00601130 IEM_DS3505
ZBHH,2002-02-21 11:00,ZBHH 211100Z AUTO 36006KT 6SM 03/M13 A3027 RMK T00301130 IEM_DS3505
ZBHH,2002-02-21 12:00,ZBHH 211200Z AUTO 36002KT 19SM 05/M09 A3030 RMK SLP305 T00521091 52026 IEM_DS3505
ZBHH,2002-02-21 13:00,ZBHH 211300Z AUTO 09006KT 6SM M02/M12 A3030 RMK T10201120 IEM_DS3505
ZBHH,2002-02-21 14:00,ZBHH 211400Z AUTO 08006KT 6SM M02/M12 A3033 RMK T10201120 IEM_DS3505
ZBHH,2002-02-21 15:00,ZBHH 211500Z AUTO 11004KT 12SM 03/M10 A3036 RMK SLP311 T00341095 52016 IEM_DS3505
ZBHH,2002-02-21 16:00,ZBHH 211600Z AUTO 09004KT 6SM M03/M12 A3036 RMK T10301120 IEM_DS3505
ZBHH,2002-02-21 17:00,ZBHH 211700Z AUTO 08008KT 6SM M03/M13 A3036 RMK T10301130 IEM_DS3505
ZBHH,2002-02-21 18:00,ZBHH 211800Z AUTO 07002KT 19SM 01/M11 RMK SLP320 T00091110 52010 IEM_DS3505
ZBHH,2002-02-21 21:00,ZBHH 212100Z AUTO 00000KT 16SM M00/M13 A3039 RMK SLP326 T10041126 52003 IEM_DS3505
ZBHH,2002-02-21 22:00,ZBHH 212200Z AUTO 10006KT 6SM M03/M14 A3039 RMK T10301140 IEM_DS3505
ZBHH,2002-02-21 23:00,ZBHH 212300Z AUTO 09006KT 6SM M03/M13 A3039 RMK T10301130 IEM_DS3505
ZBHH,2002-02-22 00:00,ZBHH 220000Z AUTO 00000KT 19SM 00/M12 A3042 RMK SLP345 T00001116 52010 IEM_DS3505
ZBHH,2002-02-22 01:00,ZBHH 220100Z AUTO 08010KT 6SM 00/M13 A3042 RMK T00001130 IEM_DS3505
ZBHH,2002-02-22 02:00,ZBHH 220200Z AUTO 08012KT 6SM 01/M13 A3042 RMK T00101130 IEM_DS3505
ZBHH,2002-02-22 03:00,ZBHH 220300Z AUTO 04004KT 16SM 03/M10 A3042 RMK SLP345 T00281097 52002 IEM_DS3505
ZBHH,2002-02-22 04:00,ZBHH 220400Z AUTO 08014KT 6SM 03/M15 A3039 RMK T00301150 IEM_DS3505
ZBHH,2002-02-22 05:00,ZBHH 220500Z AUTO 08014KT 6SM 04/M15 A3036 RMK T00401150 IEM_DS3505
ZBHH,2002-02-22 06:00,ZBHH 220600Z AUTO 04006KT 19SM 05/M12 A3036 RMK SLP319 T00541125 57022 IEM_DS3505
ZBHH,2002-02-22 07:00,ZBHH 220700Z AUTO 08012KT 6SM 04/M15 A3033 RMK T00401150 IEM_DS3505
ZBHH,2002-02-22 08:00,ZBHH 220800Z AUTO 08012KT 6SM 04/M15 A3033 RMK T00401150 IEM_DS3505
ZBHH,2002-02-22 09:00,ZBHH 220900Z AUTO 07006KT 19SM 05/M14 A3033 RMK SLP320 T00501142 57003 IEM_DS3505
ZBHH,2002-02-22 10:00,ZBHH 221000Z AUTO 08012KT 6SM 02/M17 A3036 RMK T00201170 IEM_DS3505
ZBHH,2002-02-22 11:00,ZBHH 221100Z AUTO 09008KT 6SM 00/M16 A3039 RMK T00001160 IEM_DS3505
ZBHH,2002-02-22 12:00,ZBHH 221200Z AUTO 09008KT 19SM 02/M16 A3039 RMK SLP345 T00201162 52016 IEM_DS3505
ZBHH,2002-02-22 13:00,ZBHH 221300Z AUTO 08008KT 6SM 00/M16 A3039 RMK T00001160 IEM_DS3505
ZBHH,2002-02-22 14:00,ZBHH 221400Z AUTO 09008KT 6SM M01/M13 A3042 RMK T10101130 IEM_DS3505
ZBHH,2002-02-22 15:00,ZBHH 221500Z AUTO 04002KT 19SM 01/M16 A3039 RMK SLP346 T00061163 52004 IEM_DS3505
ZBHH,2002-02-22 16:00,ZBHH 221600Z AUTO 07008KT 6SM M02/M13 A3039 RMK T10201130 IEM_DS3505
ZBHH,2002-02-22 18:00,ZBHH 221800Z AUTO 07004KT 19SM 00/M10 RMK SLP327 T00001101 57012 IEM_DS3505
ZBHH,2002-02-22 21:00,ZBHH 222100Z AUTO 09004KT 19SM M01/M14 A3033 RMK SLP320 T10121136 57010 IEM_DS3505
ZBHH,2002-02-22 22:00,ZBHH 222200Z AUTO 09006KT 6SM M03/M17 A3033 RMK T10301170 IEM_DS3505
ZBHH,2002-02-22 23:00,ZBHH 222300Z AUTO 08006KT 6SM M04/M17 A3033 RMK T10401170 IEM_DS3505
ZBHH,2002-02-23 00:00,ZBHH 230000Z AUTO 00000KT 12SM M02/M13 A3036 RMK SLP333 T10171134 52004 IEM_DS3505
ZBHH,2002-02-23 01:00,ZBHH 230100Z AUTO 07004KT 6SM M02/M15 A3036 RMK T10201150 IEM_DS3505
ZBHH,2002-02-23 02:00,ZBHH 230200Z AUTO 08010KT 6SM 00/M21 A3033 RMK T00001210 IEM_DS3505
ZBHH,2002-02-23 03:00,ZBHH 230300Z AUTO 07004KT 12SM 03/M12 A3030 RMK SLP313 T00311120 57010 IEM_DS3505
ZBHH,2002-02-23 04:00,ZBHH 230400Z AUTO 12004KT 6SM 03/M14 A3030 RMK T00301140 IEM_DS3505
ZBHH,2002-02-23 05:00,ZBHH 230500Z AUTO 08002KT 6SM 04/M14 A3027 RMK T00401140 IEM_DS3505
ZBHH,2002-02-23 06:00,ZBHH 230600Z AUTO 16004KT 16SM 06/M10 A3024 RMK SLP277 T00561103 57028 IEM_DS3505
ZBHH,2002-02-23 07:00,ZBHH 230700Z AUTO 13006KT 6SM 06/M12 A3018 RMK T00601120 IEM_DS3505
ZBHH,2002-02-23 08:00,ZBHH 230800Z AUTO 14002KT 6SM 05/M12 A3018 RMK T00501120 IEM_DS3505
ZBHH,2002-02-23 09:00,ZBHH 230900Z AUTO 11004KT 16SM 06/M08 A3018 RMK SLP259 T00581075 57018 IEM_DS3505
ZBHH,2002-02-23 10:00,ZBHH 231000Z AUTO 08002KT 6SM 04/M12 A3015 RMK T00401120 IEM_DS3505
ZBHH,2002-02-23 11:00,ZBHH 231100Z AUTO 06004KT 6SM 02/M12 A3015 RMK T00201120 IEM_DS3505
ZBHH,2002-02-23 12:00,ZBHH 231200Z AUTO 00000KT 7SM 03/M10 A3015 RMK SLP259 T00341105 57006 IEM_DS3505
ZBHH,2002-02-23 13:00,ZBHH 231300Z AUTO 05004KT 6SM M02/M11 A3015 RMK T10201110 IEM_DS3505
ZBHH,2002-02-23 14:00,ZBHH 231400Z AUTO 07004KT 6SM M03/M11 A3015 RMK T10301110 IEM_DS3505
ZBHH,2002-02-23 15:00,ZBHH 231500Z AUTO 00000KT 19SM 00/M08 A3015 RMK SLP250 T00041080 57004 IEM_DS3505
ZBHH,2002-02-23 16:00,ZBHH 231600Z AUTO 05004KT 6SM 00/M13 A3015 RMK T00001130 IEM_DS3505
ZBHH,2002-02-23 17:00,ZBHH 231700Z AUTO 05002KT 6SM M01/M11 A3012 RMK T10101110 IEM_DS3505
ZBHH,2002-02-23 18:00,ZBHH 231800Z AUTO 00000KT 19SM 03/M10 A3012 RMK SLP229 T00301102 57008 IEM_DS3505
ZBHH,2002-02-23 19:00,ZBHH 231900Z AUTO 07004KT 6SM 00/M10 A3012 RMK T00001100 IEM_DS3505
ZBHH,2002-02-23 20:00,ZBHH 232000Z AUTO 07006KT 6SM 00/M11 A3009 RMK T00001110 IEM_DS3505
ZBHH,2002-02-23 21:00,ZBHH 232100Z AUTO 00000KT 19SM 02/M08 A3009 RMK SLP224 T00201077 57006 IEM_DS3505
ZBHH,2002-02-23 22:00,ZBHH 232200Z AUTO 08008KT 6SM 00/M11 A3009 RMK T00001110 IEM_DS3505
ZBHH,2002-02-23 23:00,ZBHH 232300Z AUTO 08008KT 7SM 01/M11 A3006 RMK T00101110 IEM_DS3505
ZBHH,2002-02-24 00:00,ZBHH 240000Z AUTO 00000KT 16SM 02/M08 RMK SLP231 T00181080 52001 IEM_DS3505
ZBHH,2002-02-24 01:00,ZBHH 240100Z AUTO 09002KT 7SM 02/M11 A3009 RMK T00201110 IEM_DS3505
ZBHH,2002-02-24 02:00,ZBHH 240200Z AUTO 12004KT 5SM 03/M10 A3009 RMK T00301100 IEM_DS3505
ZBHH,2002-02-24 03:00,ZBHH 240300Z AUTO 11004KT 6SM 04/M03 A3009 RMK SLP235 T00381029 52001 IEM_DS3505
ZBHH,2002-02-24 04:00,ZBHH 240400Z AUTO 09002KT 4SM 03/M04 A3009 RMK T00301040 IEM_DS3505
ZBHH,2002-02-24 05:00,ZBHH 240500Z AUTO 12006KT 3SM 02/M02 A3006 RMK T00201020 IEM_DS3505
ZBHH,2002-02-24 06:00,ZBHH 240600Z AUTO 09002KT 5SM 04/M01 A3003 RMK 60003 SLP209 T00381011 57017 IEM_DS3505
ZBHH,2002-02-24 07:00,ZBHH 240700Z AUTO 00000KT 3SM 03/M02 A3003 RMK T00301020 IEM_DS3505
ZBHH,2002-02-24 08:00,ZBHH 240800Z AUTO 00000KT 2SM 01/M01 A3003 RMK T00101010 IEM_DS3505
ZBHH,2002-02-24 09:00,ZBHH 240900Z AUTO 04002KT 4SM 02/01 A3003 RMK SLP219 T00220007 52003 IEM_DS3505
ZBHH,2002-02-24 10:00,ZBHH 241000Z AUTO 12002KT 1 1/2SM 01/00 A3006 RMK T00100000 IEM_DS3505
ZBHH,2002-02-24 11:00,ZBHH 241100Z AUTO 11002KT 1 1/4SM 00/M01 A3006 RMK T00001010 IEM_DS3505
ZBHH,2002-02-24 12:00,ZBHH 241200Z AUTO 27002KT 5SM 02/01 A3009 RMK 60000 SLP238 T00220007 52017 IEM_DS3505
ZBHH,2002-02-24 13:00,ZBHH 241300Z AUTO 17002KT 1SM 00/M01 A3012 RMK T00001010 IEM_DS3505
ZBHH,2002-02-24 14:00,ZBHH 241400Z AUTO 32004KT 1SM 00/00 A3015 RMK T00000000 IEM_DS3505
ZBHH,2002-02-24 15:00,ZBHH 241500Z AUTO 27004KT 12SM 02/M01 A3015 RMK SLP250 T00211013 52014 IEM_DS3505
ZBHH,2002-02-24 16:00,ZBHH 241600Z AUTO 32008KT 7SM 01/M04 A3015 RMK T00101040 IEM_DS3505
ZBHH,2002-02-24 17:00,ZBHH 241700Z AUTO 34010KT 7SM 00/M05 A3018 RMK T00001050 IEM_DS3505
ZBHH,2002-02-24 18:00,ZBHH 241800Z AUTO 27002KT 19SM 01/M06 A3018 RMK 60003 SLP260 T00081065 52006 IEM_DS3505
ZBHH,2002-02-24 19:00,ZBHH 241900Z AUTO 36006KT 7SM 00/M05 A3018 RMK T00001050 IEM_DS3505
ZBHH,2002-02-24 20:00,ZBHH 242000Z AUTO 36008KT 7SM 00/M05 A3015 RMK T00001050 IEM_DS3505
ZBHH,2002-02-24 21:00,ZBHH 242100Z AUTO 00000KT 19SM 01/M06 A3015 RMK 70001 SLP257 T00061064 57006 IEM_DS3505
ZBHH,2002-02-24 22:00,ZBHH 242200Z AUTO 36006KT 7SM M01/M06 A3018 RMK T10101060 IEM_DS3505
ZBHH,2002-02-24 23:00,ZBHH 242300Z AUTO 34012KT 7SM M02/M07 A3018 RMK T10201070 IEM_DS3505
ZBHH,2002-02-25 00:00,ZBHH 250000Z AUTO 29004KT 19SM M00/M08 A3021 RMK 70001 SLP281 T10031083 52019 IEM_DS3505
ZBHH,2002-02-25 01:00,ZBHH 250100Z AUTO 35006KT 6SM M01/M07 A3024 RMK T10101070 IEM_DS3505
ZBHH,2002-02-25 02:00,ZBHH 250200Z AUTO 01004KT 6SM M01/M07 A3024 RMK T10101070 IEM_DS3505
ZBHH,2002-02-25 03:00,ZBHH 250300Z AUTO 04002KT 12SM 01/M07 A3024 RMK SLP287 T00131074 52008 IEM_DS3505
ZBHH,2002-02-25 04:00,ZBHH 250400Z AUTO 04004KT 6SM 01/M07 A3024 RMK T00101070 IEM_DS3505
ZBHH,2002-02-25 05:00,ZBHH 250500Z AUTO 33008KT 6SM 02/M09 A3021 RMK T00201090 IEM_DS3505
ZBHH,2002-02-25 06:00,ZBHH 250600Z AUTO 02004KT 19SM 03/M10 A3018 RMK 60003 SLP265 T00311100 57018 IEM_DS3505
ZBHH,2002-02-25 07:00,ZBHH 250700Z AUTO 36010KT 6SM 01/M09 A3018 RMK T00101090 IEM_DS3505
ZBHH,2002-02-25 08:00,ZBHH 250800Z AUTO 35012KT 6SM 01/M09 A3018 RMK T00101090 IEM_DS3505
ZBHH,2002-02-25 09:00,ZBHH 250900Z AUTO 34008KT 19SM 02/M12 A3018 RMK SLP270 T00161124 52001 IEM_DS3505
ZBHH,2002-02-25 10:00,ZBHH 251000Z AUTO 34006KT 6SM 00/M11 A3021 RMK T00001110 IEM_DS3505
ZBHH,2002-02-25 11:00,ZBHH 251100Z AUTO 01004KT 6SM 00/M14 A3021 RMK T00001140 IEM_DS3505
ZBHH,2002-02-25 12:00,ZBHH 251200Z AUTO 36004KT 19SM 00/M17 A3024 RMK SLP292 T00031170 52014 IEM_DS3505
ZBHH,2002-02-25 13:00,ZBHH 251300Z AUTO 34002KT 6SM M02/M13 A3024 RMK T10201130 IEM_DS3505
ZBHH,2002-02-25 14:00,ZBHH 251400Z AUTO 36002KT 6SM M02/M14 A3024 RMK T10201140 IEM_DS3505
ZBHH,2002-02-25 15:00,ZBHH 251500Z AUTO 00000KT 19SM M01/M17 A3024 RMK SLP291 T10121171 54000 IEM_DS3505
ZBHH,2002-02-25 18:00,ZBHH 251800Z AUTO 27002KT 19SM M03/M16 RMK SLP286 T10301161 57005 IEM_DS3505
ZBHH,2002-02-25 21:00,ZBHH 252100Z AUTO 07002KT 19SM M05/M10 A3018 RMK 70003 SLP282 T10501095 57011 IEM_DS3505
ZBHH,2002-02-25 22:00,ZBHH 252200Z AUTO 08002KT 6SM M11/M12 A3018 RMK T11101120 IEM_DS3505
ZBHH,2002-02-25 23:00,ZBHH 252300Z AUTO 10002KT 7SM M12/M13 A3018 RMK T11201130 IEM_DS3505
ZBHH,2002-02-26 00:00,ZBHH 260000Z AUTO 00000KT 16SM M06/M08 A3021 RMK 70003 SLP297 T10601075 52008 IEM_DS3505
ZBHH,2002-02-26 01:00,ZBHH 260100Z AUTO 10002KT 6SM M06/M08 A3021 RMK T10601080 IEM_DS3505
ZBHH,2002-02-26 02:00,ZBHH 260200Z AUTO 14002KT 6SM M03/M08 A3021 RMK T10301080 IEM_DS3505
ZBHH,2002-02-26 03:00,ZBHH 260300Z AUTO 18004KT 19SM M00/M11 A3021 RMK SLP284 T10011108 57001 IEM_DS3505
ZBHH,2002-02-26 04:00,ZBHH 260400Z AUTO 22006KT 6SM 00/M11 A3018 RMK T00001110 IEM_DS3505
ZBHH,2002-02-26 05:00,ZBHH 260500Z AUTO 23006KT 6SM 01/M13 A3018 RMK T00101130 IEM_DS3505
ZBHH,2002-02-26 06:00,ZBHH 260600Z AUTO 22006KT 19SM 03/M15 A3012 RMK SLP258 T00281147 57021 IEM_DS3505
ZBHH,2002-02-26 07:00,ZBHH 260700Z AUTO 21006KT 6SM 03/M16 A3012 RMK T00301160 IEM_DS3505
ZBHH,2002-02-26 08:00,ZBHH 260800Z AUTO 24006KT 6SM 03/M15 A3009 RMK T00301150 IEM_DS3505
ZBHH,2002-02-26 09:00,ZBHH 260900Z AUTO 18006KT 19SM 04/M14 A3009 RMK SLP245 T00361141 57014 IEM_DS3505
ZBHH,2002-02-26 10:00,ZBHH 261000Z AUTO 22004KT 6SM 02/M14 A3009 RMK T00201140 IEM_DS3505
ZBHH,2002-02-26 11:00,ZBHH 261100Z AUTO 21004KT 6SM 00/M14 A3012 RMK T00001140 IEM_DS3505
ZBHH,2002-02-26 12:00,ZBHH 261200Z AUTO 20004KT 19SM 01/M13 A3012 RMK SLP264 T00071131 52008 IEM_DS3505
ZBHH,2002-02-26 13:00,ZBHH 261300Z AUTO 08004KT 6SM M06/M14 A3012 RMK T10601140 IEM_DS3505
ZBHH,2002-02-26 14:00,ZBHH 261400Z AUTO 08004KT 6SM M07/M14 A3012 RMK T10701140 IEM_DS3505
ZBHH,2002-02-26 15:00,ZBHH 261500Z AUTO 00000KT 19SM M02/M12 A3012 RMK SLP264 T10181124 52008 IEM_DS3505
ZBHH,2002-02-26 18:00,ZBHH 261800Z AUTO 11002KT 19SM M04/M13 RMK SLP251 T10361128 57009 IEM_DS3505
ZBHH,2002-02-26 21:00,ZBHH 262100Z AUTO 00000KT 19SM M06/M12 A3006 RMK SLP242 T10591122 57011 IEM_DS3505
ZBHH,2002-02-26 22:00,ZBHH 262200Z AUTO 10004KT 6SM M10/M14 A3006 RMK T11001140 IEM_DS3505
ZBHH,2002-02-26 23:00,ZBHH 262300Z AUTO 04004KT 6SM M08/M12 A3006 RMK T10801120 IEM_DS3505
ZBHH,2002-02-27 00:00,ZBHH 270000Z AUTO 00000KT 19SM M05/M11 A3009 RMK T10461108 IEM_DS3505
ZBHH,2002-02-27 01:00,ZBHH 270100Z AUTO 11002KT 6SM M06/M11 A3009 RMK T10601110 IEM_DS3505
ZBHH,2002-02-27 02:00,ZBHH 270200Z AUTO 10002KT 6SM M02/M11 A3006 RMK T10201110 IEM_DS3505
ZBHH,2002-02-27 03:00,ZBHH 270300Z AUTO 07004KT 19SM 00/M10 A3006 RMK SLP236 T00041104 57006 IEM_DS3505
ZBHH,2002-02-27 04:00,ZBHH 270400Z AUTO 20004KT 6SM 01/M11 A3003 RMK T00101110 IEM_DS3505
ZBHH,2002-02-27 05:00,ZBHH 270500Z AUTO 22004KT 6SM 02/M12 A3000 RMK T00201120 IEM_DS3505
ZBHH,2002-02-27 06:00,ZBHH 270600Z AUTO 20006KT 19SM 04/M10 A2997 RMK SLP204 T00441100 57023 IEM_DS3505
ZBHH,2002-02-27 07:00,ZBHH 270700Z AUTO 24004KT 6SM 04/M14 A2994 RMK T00401140 IEM_DS3505
ZBHH,2002-02-27 08:00,ZBHH 270800Z AUTO 23006KT 6SM 04/M13 A2994 RMK T00401130 IEM_DS3505
ZBHH,2002-02-27 09:00,ZBHH 270900Z AUTO 20004KT 19SM 05/M14 A2994 RMK SLP194 T00481144 57013 IEM_DS3505
ZBHH,2002-02-27 10:00,ZBHH 271000Z AUTO 22006KT 6SM 02/M13 A2994 RMK T00201130 IEM_DS3505
ZBHH,2002-02-27 11:00,ZBHH 271100Z AUTO 16002KT 6SM 00/M13 A2997 RMK T00001130 IEM_DS3505
ZBHH,2002-02-27 12:00,ZBHH 271200Z AUTO 00000KT 7SM 02/M16 A2997 RMK SLP213 T00161163 52013 IEM_DS3505
ZBHH,2002-02-27 13:00,ZBHH 271300Z AUTO 06004KT 6SM M03/M13 A3000 RMK T10301130 IEM_DS3505
ZBHH,2002-02-27 14:00,ZBHH 271400Z AUTO 02004KT 6SM M05/M13 A3000 RMK T10501130 IEM_DS3505
ZBHH,2002-02-27 15:00,ZBHH 271500Z AUTO 07004KT 12SM M01/M12 A3000 RMK SLP219 T10121118 52010 IEM_DS3505
ZBHH,2002-02-27 16:00,ZBHH 271600Z AUTO 06004KT 6SM M08/M14 A3000 RMK T10801140 IEM_DS3505
ZBHH,2002-02-27 17:00,ZBHH 271700Z AUTO 08004KT 6SM M08/M14 A3000 RMK T10801140 IEM_DS3505
ZBHH,2002-02-27 18:00,ZBHH 271800Z AUTO 00000KT 19SM M04/M14 A3000 RMK SLP219 T10411137 52002 IEM_DS3505
ZBHH,2002-02-27 19:00,ZBHH 271900Z AUTO 10002KT 6SM M08/M14 A3003 RMK T10801140 IEM_DS3505
ZBHH,2002-02-27 20:00,ZBHH 272000Z AUTO 07004KT 6SM M08/M14 A3000 RMK T10801140 IEM_DS3505
ZBHH,2002-02-27 21:00,ZBHH 272100Z AUTO 00000KT 19SM M06/M12 A3000 RMK SLP216 T10581116 57005 IEM_DS3505
ZBHH,2002-02-27 22:00,ZBHH 272200Z AUTO 07006KT 6SM M09/M14 A3000 RMK T10901140 IEM_DS3505
ZBHH,2002-02-27 23:00,ZBHH 272300Z AUTO 06002KT 6SM M09/M14 A3003 RMK T10901140 IEM_DS3505
ZBHH,2002-02-28 00:00,ZBHH 280000Z AUTO 00000KT 16SM M05/M12 A3003 RMK SLP233 T10481121 52010 IEM_DS3505
ZBHH,2002-02-28 01:00,ZBHH 280100Z AUTO 07006KT 6SM M04/M13 A3006 RMK T10401130 IEM_DS3505
ZBHH,2002-02-28 02:00,ZBHH 280200Z AUTO 08004KT 6SM 00/M13 A3006 RMK T00001130 IEM_DS3505
ZBHH,2002-02-28 03:00,ZBHH 280300Z AUTO 00000KT 16SM 03/M11 A3006 RMK SLP231 T00291109 52009 IEM_DS3505
ZBHH,2002-02-28 04:00,ZBHH 280400Z AUTO 21002KT 6SM 03/M13 A3006 RMK T00301130 IEM_DS3505
ZBHH,2002-02-28 05:00,ZBHH 280500Z AUTO 22006KT 6SM 05/M14 A3003 RMK T00501140 IEM_DS3505
ZBHH,2002-02-28 06:00,ZBHH 280600Z AUTO 20006KT 16SM 07/M15 A3000 RMK SLP207 T00691151 57019 IEM_DS3505
ZBHH,2002-02-28 07:00,ZBHH 280700Z AUTO 22008KT 6SM 06/M15 A3000 RMK T00601150 IEM_DS3505
ZBHH,2002-02-28 08:00,ZBHH 280800Z AUTO 23010KT 6SM 07/M17 A2997 RMK T00701170 IEM_DS3505
ZBHH,2002-02-28 09:00,ZBHH 280900Z AUTO 22008KT 16SM 08/M14 A2997 RMK SLP202 T00771142 57006 IEM_DS3505
ZBHH,2002-02-28 10:00,ZBHH 281000Z AUTO 23004KT 6SM 05/M16 A3000 RMK T00501160 IEM_DS3505
ZBHH,2002-02-28 11:00,ZBHH 281100Z AUTO 22002KT 6SM 02/M16 A3000 RMK T00201160 IEM_DS3505
ZBHH,2002-02-28 12:00,ZBHH 281200Z AUTO 00000KT 9SM 02/M15 A3003 RMK SLP227 T00231152 52012 IEM_DS3505
ZBHH,2002-02-28 13:00,ZBHH 281300Z AUTO 08004KT 6SM M04/M17 A3003 RMK T10401170 IEM_DS3505
ZBHH,2002-02-28 14:00,ZBHH 281400Z AUTO 06004KT 6SM M03/M15 A3003 RMK T10301150 IEM_DS3505
ZBHH,2002-02-28 15:00,ZBHH 281500Z AUTO 00000KT 19SM M01/M11 A3003 RMK SLP223 T10101109 52006 IEM_DS3505
ZBHH,2002-02-28 16:00,ZBHH 281600Z AUTO 08006KT 6SM M05/M15 A3003 RMK T10501150 IEM_DS3505
ZBHH,2002-02-28 18:00,ZBHH 281800Z AUTO 00000KT 19SM M02/M14 RMK SLP215 T10161137 54000 IEM_DS3505
ZBHH,2002-02-28 21:00,ZBHH 282100Z AUTO 00000KT 19SM M04/M12 A3003 RMK SLP209 T10381121 57008 IEM_DS3505
ZBHH,2002-02-28 22:00,ZBHH 282200Z AUTO 06006KT 6SM M04/M14 A3003 RMK T10401140 IEM_DS3505
ZBHH,2002-02-28 23:00,ZBHH 282300Z AUTO 08002KT 6SM M04/M14 A3006 RMK T10401140 IEM_DS3505
ZBHH,2002-03-01 00:00,ZBHH 010000Z AUTO 00000KT 7SM M03/M11 A3006 RMK SLP235 T10301108 52013 IEM_DS3505
ZBHH,2002-03-01 01:00,ZBHH 010100Z AUTO 07012KT 6SM 01/M14 A3009 RMK T00101140 IEM_DS3505
ZBHH,2002-03-01 02:00,ZBHH 010200Z AUTO 08014KT 6SM 04/M14 A3009 RMK T00401140 IEM_DS3505
ZBHH,2002-03-01 03:00,ZBHH 010300Z AUTO 02004KT 9SM 06/M12 A3009 RMK SLP230 T00581120 52007 IEM_DS3505
ZBHH,2002-03-01 04:00,ZBHH 010400Z AUTO 06014KT 7SM 04/M15 A3009 RMK T00401150 IEM_DS3505
ZBHH,2002-03-01 05:00,ZBHH 010500Z AUTO 07014KT 7SM 05/M15 A3009 RMK T00501150 IEM_DS3505
ZBHH,2002-03-01 06:00,ZBHH 010600Z AUTO 00000KT 9SM 06/M13 A3009 RMK SLP230 T00611132 54000 IEM_DS3505
ZBHH,2002-03-01 07:00,ZBHH 010700Z AUTO 04012KT 7SM 03/M13 A3009 RMK T00301130 IEM_DS3505
ZBHH,2002-03-01 08:00,ZBHH 010800Z AUTO 03012KT 7SM 02/M11 A3012 RMK T00201110 IEM_DS3505
ZBHH,2002-03-01 09:00,ZBHH 010900Z AUTO 04006KT 9SM 03/M09 A3012 RMK SLP254 T00321090 52010 IEM_DS3505
ZBHH,2002-03-01 10:00,ZBHH 011000Z AUTO 04012KT 7SM 00/M10 A3015 RMK T00001100 IEM_DS3505
ZBHH,2002-03-01 11:00,ZBHH 011100Z AUTO 03006KT 6SM M02/M11 A3021 RMK T10201110 IEM_DS3505
ZBHH,2002-03-01 12:00,ZBHH 011200Z AUTO 04004KT 16SM M00/M11 A3021 RMK SLP298 T10041107 52032 IEM_DS3505
ZBHH,2002-03-01 13:00,ZBHH 011300Z AUTO 07006KT 6SM M04/M13 A3024 RMK T10401130 IEM_DS3505
ZBHH,2002-03-01 14:00,ZBHH 011400Z AUTO 04006KT 6SM M04/M13 A3027 RMK T10401130 IEM_DS3505
ZBHH,2002-03-01 15:00,ZBHH 011500Z AUTO 00000KT 19SM M03/M13 A3030 RMK SLP307 T10321133 52021 IEM_DS3505
ZBHH,2002-03-01 18:00,ZBHH 011800Z AUTO 27002KT 19SM M04/M12 RMK SLP314 T10421123 52005 IEM_DS3505
ZBHH,2002-03-01 21:00,ZBHH 012100Z AUTO 09004KT 12SM M03/M13 A3030 RMK SLP317 T10341131 57002 IEM_DS3505
ZBHH,2002-03-01 22:00,ZBHH 012200Z AUTO 07014KT 7SM M06/M15 A3030 RMK T10601150 IEM_DS3505
ZBHH,2002-03-01 23:00,ZBHH 012300Z AUTO 08016KT 7SM M07/M15 A3033 RMK T10701150 IEM_DS3505
ZBHH,2002-03-02 00:00,ZBHH 020000Z AUTO 07006G25KT 19SM M05/M16 A3033 RMK SLP341 T10471156 52010 IEM_DS3505
ZBHH,2002-03-02 01:00,ZBHH 020100Z AUTO 07019KT 7SM M06/M16 A3036 RMK T10601160 IEM_DS3505
ZBHH,2002-03-02 02:00,ZBHH 020200Z AUTO 08017KT 7SM M05/M18 A3036 RMK T10501180 IEM_DS3505
ZBHH,2002-03-02 03:00,ZBHH 020300Z AUTO 09006KT 12SM M02/M15 A3036 RMK SLP349 T10201154 52007 IEM_DS3505
ZBHH,2002-03-02 04:00,ZBHH 020400Z AUTO 09016KT 6SM M03/M16 A3033 RMK T10301160 IEM_DS3505
ZBHH,2002-03-02 05:00,ZBHH 020500Z AUTO 08010KT 6SM M01/M14 A3033 RMK T10101140 IEM_DS3505
ZBHH,2002-03-02 06:00,ZBHH 020600Z AUTO 07004KT 12SM 01/M13 A3030 RMK SLP323 T00091134 57019 IEM_DS3505
ZBHH,2002-03-02 07:00,ZBHH 020700Z AUTO 10010KT 6SM 00/M12 A3027 RMK T00001120 IEM_DS3505
ZBHH,2002-03-02 08:00,ZBHH 020800Z AUTO 09008KT 6SM 01/M12 A3027 RMK T00101120 IEM_DS3505
ZBHH,2002-03-02 09:00,ZBHH 020900Z AUTO 07004KT 12SM 02/M11 A3027 RMK SLP305 T00221111 57011 IEM_DS3505
ZBHH,2002-03-02 10:00,ZBHH 021000Z AUTO 08010KT 6SM 00/M14 A3027 RMK T00001140 IEM_DS3505
ZBHH,2002-03-02 11:00,ZBHH 021100Z AUTO 07008KT 6SM M01/M16 A3030 RMK T10101160 IEM_DS3505
ZBHH,2002-03-02 12:00,ZBHH 021200Z AUTO 07008KT 16SM 00/M16 A3033 RMK SLP330 T00021165 52015 IEM_DS3505
ZBHH,2002-03-02 13:00,ZBHH 021300Z AUTO 08010KT 6SM M03/M19 A3033 RMK T10301190 IEM_DS3505
ZBHH,2002-03-02 14:00,ZBHH 021400Z AUTO 09010KT 6SM M03/M18 A3033 RMK T10301180 IEM_DS3505
ZBHH,2002-03-02 15:00,ZBHH 021500Z AUTO 11004KT 12SM M02/M18 A3033 RMK SLP334 T10161182 52005 IEM_DS3505
ZBHH,2002-03-02 18:00,ZBHH 021800Z AUTO 07004KT 19SM M03/M18 RMK SLP321 T10271177 57007 IEM_DS3505
ZBHH,2002-03-02 21:00,ZBHH 022100Z AUTO 07004KT 19SM M03/M17 A3030 RMK SLP313 T10341171 57006 IEM_DS3505
ZBHH,2002-03-02 22:00,ZBHH 022200Z AUTO 08010KT 6SM M05/M20 A3030 RMK T10501200 IEM_DS3505
ZBHH,2002-03-02 23:00,ZBHH 022300Z AUTO 08010KT 6SM M05/M20 A3030 RMK T10501200 IEM_DS3505
ZBHH,2002-03-03 00:00,ZBHH 030000Z AUTO 09002KT 12SM M04/M17 A3030 RMK SLP325 T10361168 52006 IEM_DS3505
ZBHH,2002-03-03 01:00,ZBHH 030100Z AUTO 07012KT 6SM M04/M20 A3030 RMK T10401200 IEM_DS3505
ZBHH,2002-03-03 02:00,ZBHH 030200Z AUTO 08008KT 6SM M02/M19 A3030 RMK T10201190 IEM_DS3505
ZBHH,2002-03-03 03:00,ZBHH 030300Z AUTO 07008KT 6SM 00/M19 A3027 RMK T00001190 IEM_DS3505
ZBHH,2002-03-03 04:00,ZBHH 030400Z AUTO 09008KT 6SM 02/M17 A3024 RMK T00201170 IEM_DS3505
ZBHH,2002-03-03 05:00,ZBHH 030500Z AUTO 12004KT 6SM 03/M15 A3021 RMK T00301150 IEM_DS3505
ZBHH,2002-03-03 06:00,ZBHH 030600Z AUTO 20006KT 16SM 06/M09 A3018 RMK SLP273 T00551090 57022 IEM_DS3505
ZBHH,2002-03-03 07:00,ZBHH 030700Z AUTO 20002KT 6SM 05/M13 A3018 RMK T00501130 IEM_DS3505
ZBHH,2002-03-03 08:00,ZBHH 030800Z AUTO 00000KT 6SM 05/M11 A3015 RMK T00501110 IEM_DS3505
ZBHH,2002-03-03 09:00,ZBHH 030900Z AUTO 00000KT 12SM 06/M09 A3015 RMK SLP257 T00601094 57015 IEM_DS3505
ZBHH,2002-03-03 11:00,ZBHH 031100Z AUTO 16002KT 6SM 03/M10 A3018 RMK T00301100 IEM_DS3505
ZBHH,2002-03-03 12:00,ZBHH 031200Z AUTO 00000KT 7SM 04/M10 A3021 RMK SLP282 T00391100 52017 IEM_DS3505
ZBHH,2002-03-03 13:00,ZBHH 031300Z AUTO 08004KT 6SM 00/M11 A3021 RMK T00001110 IEM_DS3505
ZBHH,2002-03-03 14:00,ZBHH 031400Z AUTO 08008KT 6SM M03/M21 A3021 RMK T10301210 IEM_DS3505
ZBHH,2002-03-03 15:00,ZBHH 031500Z AUTO 04002KT 12SM 01/M16 A3021 RMK SLP277 T00111163 57002 IEM_DS3505
ZBHH,2002-03-03 16:00,ZBHH 031600Z AUTO 08006KT 6SM M02/M24 A3018 RMK T10201240 IEM_DS3505
ZBHH,2002-03-03 18:00,ZBHH 031800Z AUTO 00000KT 19SM 01/M14 RMK SLP260 T00081140 57004 IEM_DS3505
ZBHH,2002-03-03 20:00,ZBHH 032000Z AUTO 06004KT 7SM M01/M20 A3018 RMK T10101200 IEM_DS3505
ZBHH,2002-03-03 21:00,ZBHH 032100Z AUTO 09002KT 19SM 01/M18 A3015 RMK SLP250 T00111180 57007 IEM_DS3505
ZBHH,2002-03-03 22:00,ZBHH 032200Z AUTO 08002KT 7SM M01/M18 A3015 RMK T10101180 IEM_DS3505
ZBHH,2002-03-03 23:00,ZBHH 032300Z AUTO 09002KT 7SM 00/M15 A3015 RMK T00001150 IEM_DS3505
ZBHH,2002-03-04 00:00,ZBHH 040000Z AUTO 00000KT 9SM 01/M11 A3015 RMK SLP252 T00111111 57003 IEM_DS3505
ZBHH,2002-03-04 01:00,ZBHH 040100Z AUTO 17002KT 7SM 00/M11 A3015 RMK T00001110 IEM_DS3505
ZBHH,2002-03-04 02:00,ZBHH 040200Z AUTO 36006KT 1SM M01/M05 A3018 RMK T10101050 IEM_DS3505
ZBHH,2002-03-04 03:00,ZBHH 040300Z AUTO 00000KT 5SM M01/M04 A3018 RMK SLP270 T10061037 52006 IEM_DS3505
ZBHH,2002-03-04 04:00,ZBHH 040400Z AUTO 29004KT 7SM M02/M03 A3015 RMK T10201030 IEM_DS3505
ZBHH,2002-03-04 05:00,ZBHH 040500Z AUTO 35008KT 7SM 00/M05 A3012 RMK T00001050 IEM_DS3505
ZBHH,2002-03-04 06:00,ZBHH 040600Z AUTO 32012KT 19SM 01/M08 A3012 RMK 60001 SLP246 T00091076 57018 IEM_DS3505
ZBHH,2002-03-04 07:00,ZBHH 040700Z AUTO 36008KT 7SM 00/M07 A3012 RMK T00001070 IEM_DS3505
ZBHH,2002-03-04 08:00,ZBHH 040800Z AUTO 34012KT 7SM 00/M07 A3012 RMK T00001070 IEM_DS3505
ZBHH,2002-03-04 09:00,ZBHH 040900Z AUTO 29012KT 19SM 01/M06 A3012 RMK SLP248 T00111061 52003 IEM_DS3505
ZBHH,2002-03-04 10:00,ZBHH 041000Z AUTO 34010KT 7SM M01/M10 A3012 RMK T10101100 IEM_DS3505
ZBHH,2002-03-04 11:00,ZBHH 041100Z AUTO 34010KT 7SM M03/M10 A3012 RMK T10301100 IEM_DS3505
ZBHH,2002-03-04 12:00,ZBHH 041200Z AUTO 32006KT 19SM M02/M11 A3015 RMK SLP268 T10161109 52011 IEM_DS3505
ZBHH,2002-03-04 13:00,ZBHH 041300Z AUTO 29012KT 7SM M04/M12 A3018 RMK T10401120 IEM_DS3505
ZBHH,2002-03-04 14:00,ZBHH 041400Z AUTO 30006KT 6SM M05/M12 A3018 RMK T10501120 IEM_DS3505
ZBHH,2002-03-04 15:00,ZBHH 041500Z AUTO 29006KT 19SM M03/M14 A3018 RMK SLP281 T10271141 52006 IEM_DS3505
ZBHH,2002-03-04 16:00,ZBHH 041600Z AUTO 25006KT 6SM M05/M14 A3015 RMK T10501140 IEM_DS3505
ZBHH,2002-03-04 18:00,ZBHH 041800Z AUTO 22006KT 19SM M04/M13 RMK SLP271 T10441131 57010 IEM_DS3505
ZBHH,2002-03-04 21:00,ZBHH 042100Z AUTO 29008KT 19SM M03/M11 A3009 RMK 70001 SLP246 T10301108 57018 IEM_DS3505
ZBHH,2002-03-04 22:00,ZBHH 042200Z AUTO 30016KT 7SM M05/M13 A3009 RMK T10501130 IEM_DS3505
ZBHH,2002-03-04 23:00,ZBHH 042300Z AUTO 32008KT 6SM M06/M13 A3012 RMK T10601130 IEM_DS3505
ZBHH,2002-03-05 00:00,ZBHH 050000Z AUTO 29010KT 19SM M05/M16 A3012 RMK 70001 SLP279 T10481157 52019 IEM_DS3505
ZBHH,2002-03-05 01:00,ZBHH 050100Z AUTO 00000KT 6SM M04/M14 A3015 RMK T10401140 IEM_DS3505
ZBHH,2002-03-05 02:00,ZBHH 050200Z AUTO 26004KT 6SM M03/M14 A3018 RMK T10301140 IEM_DS3505
ZBHH,2002-03-05 03:00,ZBHH 050300Z AUTO 20006KT 19SM 00/M14 RMK SLP277 T00031141 52007 IEM_DS3505
ZBHH,2002-03-05 04:00,ZBHH 050400Z AUTO 29014KT 6SM 01/M13 A3015 RMK T00101130 IEM_DS3505
ZBHH,2002-03-05 06:00,ZBHH 050600Z AUTO 34014KT 19SM 04/M10 A3012 RMK SLP255 T00431103 57014 IEM_DS3505
ZBHH,2002-03-05 07:00,ZBHH 050700Z AUTO 33014G27KT 7SM 04/M15 A3009 RMK T00401150 IEM_DS3505
ZBHH,2002-03-05 08:00,ZBHH 050800Z AUTO 35016G25KT 7SM 03/M17 A3012 RMK T00301170 IEM_DS3505
ZBHH,2002-03-05 09:00,ZBHH 050900Z AUTO 34004KT 19SM 04/M21 A3012 RMK SLP253 T00391208 54000 IEM_DS3505
ZBHH,2002-03-05 10:00,ZBHH 051000Z AUTO 32016G25KT 6SM 02/M17 A3012 RMK T00201170 IEM_DS3505
ZBHH,2002-03-05 11:00,ZBHH 051100Z AUTO 33008G19KT 6SM 01/M17 A3015 RMK T00101170 IEM_DS3505
ZBHH,2002-03-05 12:00,ZBHH 051200Z AUTO 29002KT 19SM 02/M17 A3015 RMK SLP274 T00161171 52010 IEM_DS3505
ZBHH,2002-03-05 13:00,ZBHH 051300Z AUTO 00000KT 6SM M02/M17 A3015 RMK T10201170 IEM_DS3505
ZBHH,2002-03-05 14:00,ZBHH 051400Z AUTO 01002KT 6SM M03/M16 A3015 RMK T10301160 IEM_DS3505
ZBHH,2002-03-05 15:00,ZBHH 051500Z AUTO 32002KT 19SM 00/M16 A3015 RMK SLP267 T00001162 52001 IEM_DS3505
ZBHH,2002-03-05 18:00,ZBHH 051800Z AUTO 00000KT 19SM M04/M16 RMK SLP261 T10441163 57006 IEM_DS3505
ZBHH,2002-03-05 21:00,ZBHH 052100Z AUTO 07004KT 19SM M05/M11 RMK SLP244 T10501109 57017 IEM_DS3505
ZBHH,2002-03-05 22:00,ZBHH 052200Z AUTO 07004KT 6SM M10/M13 A3009 RMK T11001130 IEM_DS3505
ZBHH,2002-03-05 23:00,ZBHH 052300Z AUTO 04002KT 6SM M09/M13 A3009 RMK T10901130 IEM_DS3505
ZBHH,2002-03-06 00:00,ZBHH 060000Z AUTO 00000KT 9SM M05/M10 A3009 RMK SLP251 T10521098 52001 IEM_DS3505
ZBHH,2002-03-06 01:00,ZBHH 060100Z AUTO 10002KT 6SM M04/M11 A3009 RMK T10401110 IEM_DS3505
ZBHH,2002-03-06 02:00,ZBHH 060200Z AUTO 22002KT 6SM M03/M11 A3009 RMK T10301110 IEM_DS3505
ZBHH,2002-03-06 03:00,ZBHH 060300Z AUTO 14004KT 19SM 01/M09 A3006 RMK SLP236 T00071089 57004 IEM_DS3505
ZBHH,2002-03-06 04:00,ZBHH 060400Z AUTO 23004KT 6SM 01/M11 A3006 RMK T00101110 IEM_DS3505
ZBHH,2002-03-06 06:00,ZBHH 060600Z AUTO 22008KT 19SM 05/M14 A3000 RMK SLP213 T00481137 57021 IEM_DS3505
ZBHH,2002-03-06 07:00,ZBHH 060700Z AUTO 23008KT 6SM 05/M13 A3000 RMK T00501130 IEM_DS3505
ZBHH,2002-03-06 08:00,ZBHH 060800Z AUTO 32016KT 6SM 06/M18 A3000 RMK T00601180 IEM_DS3505
ZBHH,2002-03-06 09:00,ZBHH 060900Z AUTO 32010G25KT 19SM 06/M15 A3000 RMK SLP215 T00591150 52003 IEM_DS3505
ZBHH,2002-03-06 10:00,ZBHH 061000Z AUTO 32014KT 6SM 04/M18 A3003 RMK T00401180 IEM_DS3505
ZBHH,2002-03-06 11:00,ZBHH 061100Z AUTO 33010KT 6SM 02/M18 A3006 RMK T00201180 IEM_DS3505
ZBHH,2002-03-06 12:00,ZBHH 061200Z AUTO 00000KT 19SM 02/M17 A3006 RMK SLP239 T00241172 52013 IEM_DS3505
ZBHH,2002-03-06 13:00,ZBHH 061300Z AUTO 36002KT 6SM 00/M18 A3009 RMK T00001180 IEM_DS3505
ZBHH,2002-03-06 14:00,ZBHH 061400Z AUTO 33006KT 6SM M02/M17 A3009 RMK T10201170 IEM_DS3505
ZBHH,2002-03-06 15:00,ZBHH 061500Z AUTO 00000KT 19SM M01/M16 A3012 RMK SLP251 T10111160 52016 IEM_DS3505
ZBHH,2002-03-06 18:00,ZBHH 061800Z AUTO 29004KT 19SM M02/M17 RMK SLP255 T10241169 52009 IEM_DS3505
ZBHH,2002-03-06 21:00,ZBHH 062100Z AUTO 00000KT 19SM M06/M15 A3015 RMK SLP261 T10621150 54000 IEM_DS3505
ZBHH,2002-03-06 22:00,ZBHH 062200Z AUTO 10002KT 6SM M11/M18 A3015 RMK T11101180 IEM_DS3505
ZBHH,2002-03-06 23:00,ZBHH 062300Z AUTO 07006KT 6SM M12/M17 A3015 RMK T11201170 IEM_DS3505
ZBHH,2002-03-07 00:00,ZBHH 070000Z AUTO 07002KT 19SM M05/M15 A3018 RMK SLP282 T10461147 52014 IEM_DS3505
ZBHH,2002-03-07 01:00,ZBHH 070100Z AUTO 08002KT 6SM M04/M15 A3021 RMK T10401150 IEM_DS3505
ZBHH,2002-03-07 02:00,ZBHH 070200Z AUTO 18002KT 6SM M02/M15 A3021 RMK T10201150 IEM_DS3505
ZBHH,2002-03-07 03:00,ZBHH 070300Z AUTO 20006KT 9SM 01/M14 A3021 RMK SLP283 T00141141 52006 IEM_DS3505
ZBHH,2002-03-07 04:00,ZBHH 070400Z AUTO 22006KT 6SM 01/M14 A3018 RMK T00101140 IEM_DS3505
ZBHH,2002-03-07 05:00,ZBHH 070500Z AUTO 24008KT 6SM 03/M15 A3015 RMK T00301150 IEM_DS3505
ZBHH,2002-03-07 06:00,ZBHH 070600Z AUTO 20010KT 19SM 05/M15 A3012 RMK SLP247 T00531153 57026 IEM_DS3505
ZBHH,2002-03-07 07:00,ZBHH 070700Z AUTO 23008KT 6SM 05/M17 A3012 RMK T00501170 IEM_DS3505
ZBHH,2002-03-07 08:00,ZBHH 070800Z AUTO 22008KT 6SM 06/M15 A3009 RMK T00601150 IEM_DS3505
ZBHH,2002-03-07 09:00,ZBHH 070900Z AUTO 22006KT 19SM 07/M17 A3009 RMK SLP235 T00721166 57014 IEM_DS3505
ZBHH,2002-03-07 10:00,ZBHH 071000Z AUTO 23008KT 6SM 05/M17 A3006 RMK T00501170 IEM_DS3505
ZBHH,2002-03-07 11:00,ZBHH 071100Z AUTO 24006KT 6SM 03/M19 A3009 RMK T00301190 IEM_DS3505
ZBHH,2002-03-07 12:00,ZBHH 071200Z AUTO 00000KT 12SM 03/M17 A3009 RMK SLP246 T00321166 52004 IEM_DS3505
ZBHH,2002-03-07 13:00,ZBHH 071300Z AUTO 08004KT 6SM M03/M18 A3009 RMK T10301180 IEM_DS3505
ZBHH,2002-03-07 14:00,ZBHH 071400Z AUTO 09004KT 6SM M04/M18 A3012 RMK T10401180 IEM_DS3505
ZBHH,2002-03-07 15:00,ZBHH 071500Z AUTO 00000KT 12SM M00/M14 A3012 RMK SLP243 T10041140 52003 IEM_DS3505
ZBHH,2002-03-07 18:00,ZBHH 071800Z AUTO 00000KT 16SM M01/M12 RMK SLP232 T10121125 57003 IEM_DS3505
ZBHH,2002-03-07 21:00,ZBHH 072100Z AUTO 00000KT 19SM M04/M15 A3006 RMK SLP229 T10401148 57005 IEM_DS3505
ZBHH,2002-03-07 22:00,ZBHH 072200Z AUTO 05002KT 6SM M09/M17 A3006 RMK T10901170 IEM_DS3505
ZBHH,2002-03-07 23:00,ZBHH 072300Z AUTO 05004KT 6SM M10/M16 A3006 RMK T11001160 IEM_DS3505
ZBHH,2002-03-08 00:00,ZBHH 080000Z AUTO 07002KT 19SM M03/M12 A3009 RMK SLP239 T10311125 52002 IEM_DS3505
ZBHH,2002-03-08 01:00,ZBHH 080100Z AUTO 04004KT 6SM M01/M16 A3009 RMK T10101160 IEM_DS3505
ZBHH,2002-03-08 02:00,ZBHH 080200Z AUTO 09002KT 6SM 02/M16 A3009 RMK T00201160 IEM_DS3505
ZBHH,2002-03-08 03:00,ZBHH 080300Z AUTO 11002KT 16SM 05/M12 A3006 RMK SLP221 T00521116 57006 IEM_DS3505
ZBHH,2002-03-08 04:00,ZBHH 080400Z AUTO 22004KT 6SM 06/M16 A3003 RMK T00601160 IEM_DS3505
ZBHH,2002-03-08 05:00,ZBHH 080500Z AUTO 25006KT 6SM 07/M15 A3000 RMK T00701150 IEM_DS3505
ZBHH,2002-03-08 06:00,ZBHH 080600Z AUTO 25008KT 16SM 10/M11 A2994 RMK SLP176 T00971114 57031 IEM_DS3505
ZBHH,2002-03-08 07:00,ZBHH 080700Z AUTO 26008KT 6SM 10/M15 A2991 RMK T01001150 IEM_DS3505
ZBHH,2002-03-08 08:00,ZBHH 080800Z AUTO 25006KT 6SM 10/M15 A2991 RMK T01001150 IEM_DS3505
ZBHH,2002-03-08 09:00,ZBHH 080900Z AUTO 22004KT 16SM 11/M11 A2988 RMK SLP161 T01101109 57017 IEM_DS3505
ZBHH,2002-03-08 10:00,ZBHH 081000Z AUTO 25002KT 6SM 10/M14 A2991 RMK T01001140 IEM_DS3505
ZBHH,2002-03-08 11:00,ZBHH 081100Z AUTO 07002KT 6SM 08/M14 A2991 RMK T00801140 IEM_DS3505
ZBHH,2002-03-08 12:00,ZBHH 081200Z AUTO 04002KT 9SM 08/M09 A2991 RMK SLP175 T00751088 52007 IEM_DS3505
ZBHH,2002-03-08 13:00,ZBHH 081300Z AUTO 07006KT 6SM A2994 RMK IEM_DS3505
ZBHH,2002-03-08 14:00,ZBHH 081400Z AUTO 06004KT 6SM M01/M15 A2994 RMK T10101150 IEM_DS3505
ZBHH,2002-03-08 15:00,ZBHH 081500Z AUTO 00000KT 16SM 02/M08 A2994 RMK SLP178 T00181076 52008 IEM_DS3505
ZBHH,2002-03-08 18:00,ZBHH 081800Z AUTO 07002KT 19SM 00/M09 RMK SLP175 T00001091 52003 IEM_DS3505
ZBHH,2002-03-08 21:00,ZBHH 082100Z AUTO 22002KT 19SM 03/M07 A2997 RMK SLP175 T00311072 52009 IEM_DS3505
ZBHH,2002-03-08 22:00,ZBHH 082200Z AUTO 35014KT 6SM 03/M10 A3000 RMK T00301100 IEM_DS3505
ZBHH,2002-03-08 23:00,ZBHH 082300Z AUTO 34016KT 6SM 01/M09 A3006 RMK T00101090 IEM_DS3505
ZBHH,2002-03-09 00:00,ZBHH 090000Z AUTO 27002KT 19SM 02/M08 A3009 RMK SLP224 T00201077 52034 IEM_DS3505
ZBHH,2002-03-09 01:00,ZBHH 090100Z AUTO 34016KT 6SM 03/M08 A3012 RMK T00301080 IEM_DS3505
ZBHH,2002-03-09 02:00,ZBHH 090200Z AUTO 33016KT 6SM 04/M08 A3015 RMK T00401080 IEM_DS3505
ZBHH,2002-03-09 03:00,ZBHH 090300Z AUTO 02006KT 19SM 05/M07 A3015 RMK SLP254 T00511069 52021 IEM_DS3505
ZBHH,2002-03-09 04:00,ZBHH 090400Z AUTO 03008KT 6SM 06/M08 A3018 RMK T00601080 IEM_DS3505
ZBHH,2002-03-09 05:00,ZBHH 090500Z AUTO 07008KT 6SM 08/M09 A3015 RMK T00801090 IEM_DS3505
ZBHH,2002-03-09 06:00,ZBHH 090600Z AUTO 02006KT 19SM 09/M12 A3015 RMK SLP241 T00921122 57007 IEM_DS3505
ZBHH,2002-03-09 07:00,ZBHH 090700Z AUTO 36008KT 6SM 09/M15 A3015 RMK T00901150 IEM_DS3505
ZBHH,2002-03-09 08:00,ZBHH 090800Z AUTO 01010KT 6SM 09/M16 A3015 RMK T00901160 IEM_DS3505
ZBHH,2002-03-09 09:00,ZBHH 090900Z AUTO 36010KT 19SM 09/M17 A3018 RMK SLP245 T00861171 52009 IEM_DS3505
ZBHH,2002-03-09 10:00,ZBHH 091000Z AUTO 36008KT 6SM 07/M18 A3018 RMK T00701180 IEM_DS3505
ZBHH,2002-03-09 11:00,ZBHH 091100Z AUTO 36006KT 6SM 04/M19 A3021 RMK T00401190 IEM_DS3505
ZBHH,2002-03-09 12:00,ZBHH 091200Z AUTO 36002KT 19SM 05/M15 A3024 RMK SLP280 T00491151 52021 IEM_DS3505
ZBHH,2002-03-09 13:00,ZBHH 091300Z AUTO 04006KT 6SM 02/M17 A3027 RMK T00201170 IEM_DS3505
ZBHH,2002-03-09 14:00,ZBHH 091400Z AUTO 02004KT 6SM 00/M18 A3027 RMK T00001180 IEM_DS3505
ZBHH,2002-03-09 15:00,ZBHH 091500Z AUTO 00000KT 19SM 00/M13 A3027 RMK SLP296 T00001133 52010 IEM_DS3505
ZBHH,2002-03-09 18:00,ZBHH 091800Z AUTO 07002KT 19SM M01/M17 RMK SLP290 T10111168 52001 IEM_DS3505
ZBHH,2002-03-09 21:00,ZBHH 092100Z AUTO 00000KT 19SM M04/M16 A3027 RMK SLP293 T10451158 57006 IEM_DS3505
ZBHH,2002-03-09 22:00,ZBHH 092200Z AUTO 09006KT 6SM M09/M19 A3027 RMK T10901190 IEM_DS3505
ZBHH,2002-03-09 23:00,ZBHH 092300Z AUTO 06004KT 6SM M08/M19 A3027 RMK T10801190 IEM_DS3505
ZBHH,2002-03-10 00:00,ZBHH 100000Z AUTO 07002KT 19SM M03/M14 A3027 RMK SLP305 T10301141 52006 IEM_DS3505
ZBHH,2002-03-10 01:00,ZBHH 100100Z AUTO 09004KT 6SM M01/M18 A3030 RMK T10101180 IEM_DS3505
ZBHH,2002-03-10 02:00,ZBHH 100200Z AUTO 13002KT 6SM 03/M18 A3030 RMK T00301180 IEM_DS3505
ZBHH,2002-03-10 03:00,ZBHH 100300Z AUTO 20004KT 12SM 06/M12 A3030 RMK SLP298 T00641120 52003 IEM_DS3505
ZBHH,2002-03-10 04:00,ZBHH 100400Z AUTO 24002KT 6SM 06/M18 A3027 RMK T00601180 IEM_DS3505
ZBHH,2002-03-10 05:00,ZBHH 100500Z AUTO 25002KT 6SM 08/M18 A3024 RMK T00801180 IEM_DS3505
ZBHH,2002-03-10 06:00,ZBHH 100600Z AUTO 22004KT 12SM 10/M16 A3021 RMK SLP260 T01001165 57028 IEM_DS3505
ZBHH,2002-03-10 07:00,ZBHH 100700Z AUTO 23004KT 6SM 10/M17 A3018 RMK T01001170 IEM_DS3505
ZBHH,2002-03-10 08:00,ZBHH 100800Z AUTO 24006KT 6SM 11/M17 A3018 RMK T01101170 IEM_DS3505
ZBHH,2002-03-10 09:00,ZBHH 100900Z AUTO 22008KT 12SM 10/M14 A3018 RMK SLP260 T01051140 57006 IEM_DS3505
ZBHH,2002-03-10 10:00,ZBHH 101000Z AUTO 25004KT 6SM 09/M17 A3018 RMK T00901170 IEM_DS3505
ZBHH,2002-03-10 11:00,ZBHH 101100Z AUTO 23002KT 6SM 06/M16 A3018 RMK T00601160 IEM_DS3505
ZBHH,2002-03-10 12:00,ZBHH 101200Z AUTO 00000KT 12SM 07/M12 A3021 RMK SLP268 T00701123 52003 IEM_DS3505
ZBHH,2002-03-10 13:00,ZBHH 101300Z AUTO 07006KT 6SM M02/M17 A3021 RMK T10201170 IEM_DS3505
ZBHH,2002-03-10 14:00,ZBHH 101400Z AUTO 08006KT 6SM M05/M18 A3021 RMK T10501180 IEM_DS3505
ZBHH,2002-03-10 15:00,ZBHH 101500Z AUTO 04002KT 19SM 02/M12 A3021 RMK SLP260 T00231116 52003 IEM_DS3505
ZBHH,2002-03-10 16:00,ZBHH 101600Z AUTO 07002KT 6SM M04/M17 A3021 RMK T10401170 IEM_DS3505
ZBHH,2002-03-10 18:00,ZBHH 101800Z AUTO 00000KT 19SM M03/M12 RMK SLP258 T10261122 57005 IEM_DS3505
ZBHH,2002-03-10 21:00,ZBHH 102100Z AUTO 00000KT 19SM M03/M13 A3015 RMK SLP243 T10331129 57013 IEM_DS3505
ZBHH,2002-03-10 22:00,ZBHH 102200Z AUTO 07004KT 6SM M05/M17 A3015 RMK T10501170 IEM_DS3505
ZBHH,2002-03-10 23:00,ZBHH 102300Z AUTO 32002KT 6SM M08/M15 A3015 RMK T10801150 IEM_DS3505
ZBHH,2002-03-11 00:00,ZBHH 110000Z AUTO 00000KT 16SM M03/M11 A3015 RMK SLP260 T10331113 52007 IEM_DS3505
ZBHH,2002-03-11 01:00,ZBHH 110100Z AUTO 10002KT 6SM 02/M15 A3018 RMK T00201150 IEM_DS3505
ZBHH,2002-03-11 02:00,ZBHH 110200Z AUTO 00000KT 6SM 05/M16 A3018 RMK T00501160 IEM_DS3505
ZBHH,2002-03-11 03:00,ZBHH 110300Z AUTO 14002KT 16SM 08/M08 A3015 RMK SLP243 T00841076 54000 IEM_DS3505
ZBHH,2002-03-11 04:00,ZBHH 110400Z AUTO 23002KT 6SM 09/M15 A3015 RMK T00901150 IEM_DS3505
ZBHH,2002-03-11 05:00,ZBHH 110500Z AUTO 23006KT 6SM 11/M15 A3012 RMK T01101150 IEM_DS3505
ZBHH,2002-03-11 06:00,ZBHH 110600Z AUTO 20006KT 19SM 12/M07 RMK SLP218 T01231069 57024 IEM_DS3505
ZBHH,2002-03-11 07:00,ZBHH 110700Z AUTO 25008KT 6SM 13/M14 A3009 RMK T01301140 IEM_DS3505
ZBHH,2002-03-11 08:00,ZBHH 110800Z AUTO 24004KT 6SM 13/M14 A3006 RMK T01301140 IEM_DS3505
ZBHH,2002-03-11 09:00,ZBHH 110900Z AUTO 20006KT 16SM 13/M13 A3006 RMK SLP210 T01301131 57007 IEM_DS3505
ZBHH,2002-03-11 10:00,ZBHH 111000Z AUTO 24004KT 6SM 11/M15 A3006 RMK T01101150 IEM_DS3505
ZBHH,2002-03-11 11:00,ZBHH 111100Z AUTO 00000KT 6SM 08/M14 A3009 RMK T00801140 IEM_DS3505
ZBHH,2002-03-11 12:00,ZBHH 111200Z AUTO 00000KT 5SM 08/M10 A3012 RMK SLP235 T00811096 52012 IEM_DS3505
ZBHH,2002-03-11 13:00,ZBHH 111300Z AUTO 06002KT 6SM 01/M15 A3012 RMK T00101150 IEM_DS3505
ZBHH,2002-03-11 14:00,ZBHH 111400Z AUTO 09004KT 6SM M01/M16 A3015 RMK T10101160 IEM_DS3505
ZBHH,2002-03-11 15:00,ZBHH 111500Z AUTO 00000KT 9SM 04/M10 A3015 RMK SLP227 T00361096 52008 IEM_DS3505
ZBHH,2002-03-11 18:00,ZBHH 111800Z AUTO 00000KT 12SM M01/M12 RMK SLP228 T10091123 57001 IEM_DS3505
ZBHH,2002-03-11 21:00,ZBHH 112100Z AUTO 00000KT 12SM M02/M10 A3012 RMK SLP223 T10191104 57005 IEM_DS3505
ZBHH,2002-03-11 22:00,ZBHH 112200Z AUTO 07008KT 6SM M05/M15 A3012 RMK T10501150 IEM_DS3505
ZBHH,2002-03-11 23:00,ZBHH 112300Z AUTO 08008KT 6SM M04/M15 A3012 RMK T10401150 IEM_DS3505
ZBHH,2002-03-12 00:00,ZBHH 120000Z AUTO 00000KT 5SM 00/M09 A3012 RMK SLP238 T00041094 52008 IEM_DS3505
ZBHH,2002-03-12 01:00,ZBHH 120100Z AUTO 07004KT 6SM 03/M14 A3012 RMK T00301140 IEM_DS3505
ZBHH,2002-03-12 02:00,ZBHH 120200Z AUTO 03002KT 6SM 07/M13 A3012 RMK T00701130 IEM_DS3505
ZBHH,2002-03-12 03:00,ZBHH 120300Z AUTO 09002KT 12SM 11/M11 A3009 RMK SLP221 T01061110 57003 IEM_DS3505
ZBHH,2002-03-12 04:00,ZBHH 120400Z AUTO 21002KT 6SM 12/M15 A3009 RMK T01201150 IEM_DS3505
ZBHH,2002-03-12 05:00,ZBHH 120500Z AUTO 22004KT 6SM 13/M14 A3006 RMK T01301140 IEM_DS3505
ZBHH,2002-03-12 06:00,ZBHH 120600Z AUTO 00000KT 12SM 15/M11 A3003 RMK SLP190 T01491106 57028 IEM_DS3505
ZBHH,2002-03-12 07:00,ZBHH 120700Z AUTO 23004KT 6SM 15/M12 A3000 RMK T01501120 IEM_DS3505
ZBHH,2002-03-12 08:00,ZBHH 120800Z AUTO 27004KT 6SM 15/M10 A3000 RMK T01501100 IEM_DS3505
ZBHH,2002-03-12 09:00,ZBHH 120900Z AUTO 00000KT 12SM 15/M06 A2997 RMK SLP173 T01461055 57017 IEM_DS3505
ZBHH,2002-03-12 10:00,ZBHH 121000Z AUTO 01004KT 6SM 13/M10 A2997 RMK T01301100 IEM_DS3505
ZBHH,2002-03-12 11:00,ZBHH 121100Z AUTO 07004KT 10/M10 A2997 RMK T01001100 IEM_DS3505
ZBHH,2002-03-12 12:00,ZBHH 121200Z AUTO 32004KT 12SM 12/M04 A2997 RMK SLP174 T01201044 54000 IEM_DS3505
ZBHH,2002-03-12 13:00,ZBHH 121300Z AUTO 36004KT 7SM 09/M06 A2997 RMK T00901060 IEM_DS3505
ZBHH,2002-03-12 14:00,ZBHH 121400Z AUTO 33006KT 6SM 10/M06 A3000 RMK T01001060 IEM_DS3505
ZBHH,2002-03-12 15:00,ZBHH 121500Z AUTO 32006KT 19SM 10/M04 RMK SLP164 T00981037 52007 IEM_DS3505
ZBHH,2002-03-12 18:00,ZBHH 121800Z AUTO 32004KT 12SM 07/02 A3003 RMK 60003 SLP167 T00670019 52005 IEM_DS3505
ZBHH,2002-03-12 19:00,ZBHH 121900Z AUTO 00000KT 7SM 05/02 A3000 RMK T00500020 IEM_DS3505
ZBHH,2002-03-12 20:00,ZBHH 122000Z AUTO 18004KT 6SM 04/02 A3000 RMK T00400020 IEM_DS3505
ZBHH,2002-03-12 21:00,ZBHH 122100Z AUTO 22006KT 12SM 05/03 A3000 RMK 70003 SLP161 T00490033 57009 IEM_DS3505
ZBHH,2002-03-12 22:00,ZBHH 122200Z AUTO 20002KT 7SM 04/02 A2997 RMK T00400020 IEM_DS3505
ZBHH,2002-03-12 23:00,ZBHH 122300Z AUTO 00000KT 3SM 04/03 A2997 RMK T00400030 IEM_DS3505
ZBHH,2002-03-13 00:00,ZBHH 130000Z AUTO 00000KT 6SM 05/03 A3000 RMK 60003 SLP173 T00500032 52005 IEM_DS3505
ZBHH,2002-03-13 01:00,ZBHH 130100Z AUTO 20004KT 3SM 04/03 A3003 RMK T00400030 IEM_DS3505
ZBHH,2002-03-13 02:00,ZBHH 130200Z AUTO 18004KT 3SM 06/03 A3003 RMK T00600030 IEM_DS3505
ZBHH,2002-03-13 03:00,ZBHH 130300Z AUTO 00000KT 9SM 08/03 A3003 RMK SLP178 T00750033 52005 IEM_DS3505
ZBHH,2002-03-13 04:00,ZBHH 130400Z AUTO 13002KT 7SM 08/02 A3000 RMK T00800020 IEM_DS3505
ZBHH,2002-03-13 05:00,ZBHH 130500Z AUTO 24002KT 7SM 11/01 A2997 RMK T01100010 IEM_DS3505
ZBHH,2002-03-13 06:00,ZBHH 130600Z AUTO 22004KT 12SM 12/01 A2994 RMK SLP147 T01220011 57024 IEM_DS3505
ZBHH,2002-03-13 07:00,ZBHH 130700Z AUTO 22006KT 7SM 12/M01 A2991 RMK T01201010 IEM_DS3505
ZBHH,2002-03-13 08:00,ZBHH 130800Z AUTO 20006KT 7SM 12/M02 A2991 RMK T01201020 IEM_DS3505
ZBHH,2002-03-13 09:00,ZBHH 130900Z AUTO 20006KT 16SM 12/M00 A2991 RMK SLP135 T01201004 57014 IEM_DS3505
ZBHH,2002-03-13 10:00,ZBHH 131000Z AUTO 24008KT 7SM 10/00 A2988 RMK T01000000 IEM_DS3505
ZBHH,2002-03-13 11:00,ZBHH 131100Z AUTO 22004KT 7SM 09/01 A2991 RMK T00900010 IEM_DS3505
ZBHH,2002-03-13 12:00,ZBHH 131200Z AUTO 27004KT 12SM 10/01 A2994 RMK SLP156 T00960012 52014 IEM_DS3505
ZBHH,2002-03-13 13:00,ZBHH 131300Z AUTO 00000KT 6SM 04/00 A2994 RMK T00400000 IEM_DS3505
ZBHH,2002-03-13 14:00,ZBHH 131400Z AUTO 08002KT 4SM 03/M01 A2997 RMK T00301010 IEM_DS3505
ZBHH,2002-03-13 15:00,ZBHH 131500Z AUTO 32006KT 12SM 09/M10 A2997 RMK SLP167 T00861095 52012 IEM_DS3505
ZBHH,2002-03-13 18:00,ZBHH 131800Z AUTO 34012KT 19SM 05/M12 RMK SLP167 T00481125 52002 IEM_DS3505
ZBHH,2002-03-13 21:00,ZBHH 132100Z AUTO 29004KT 19SM 04/M17 A2994 RMK SLP162 T00431173 57006 IEM_DS3505
ZBHH,2002-03-13 22:00,ZBHH 132200Z AUTO 12002KT 6SM 00/M16 A2997 RMK T00001160 IEM_DS3505
ZBHH,2002-03-13 23:00,ZBHH 132300Z AUTO 15002KT 6SM M01/M15 A2997 RMK T10101150 IEM_DS3505
ZBHH,2002-03-14 00:00,ZBHH 140000Z AUTO 22006KT 19SM 02/M12 A2997 RMK SLP174 T00231115 52002 IEM_DS3505
ZBHH,2002-03-14 01:00,ZBHH 140100Z AUTO 21002KT 6SM 03/M10 A2997 RMK T00301100 IEM_DS3505
ZBHH,2002-03-14 02:00,ZBHH 140200Z AUTO 33010KT 6SM 06/M14 A2997 RMK T00601140 IEM_DS3505
ZBHH,2002-03-14 03:00,ZBHH 140300Z AUTO 32014G19KT 16SM 07/M15 A2997 RMK SLP165 T00691151 57001 IEM_DS3505
ZBHH,2002-03-14 04:00,ZBHH 140400Z AUTO 31016KT 6SM 08/M12 A2997 RMK T00801120 IEM_DS3505
ZBHH,2002-03-14 05:00,ZBHH 140500Z AUTO 33014KT 6SM 09/M09 A2994 RMK T00901090 IEM_DS3505
ZBHH,2002-03-14 06:00,ZBHH 140600Z AUTO 32010G27KT 19SM 10/M12 A2994 RMK SLP154 T01001118 57011 IEM_DS3505
ZBHH,2002-03-14 07:00,ZBHH 140700Z AUTO 33014G25KT 6SM 09/M08 A2991 RMK T00901080 IEM_DS3505
ZBHH,2002-03-14 08:00,ZBHH 140800Z AUTO 33014KT 6SM 10/M09 A2994 RMK T01001090 IEM_DS3505
ZBHH,2002-03-14 09:00,ZBHH 140900Z AUTO 32012KT 19SM 10/M11 A2994 RMK SLP154 T00981111 57001 IEM_DS3505
ZBHH,2002-03-14 10:00,ZBHH 141000Z AUTO 33012KT 6SM 08/M09 A2994 RMK T00801090 IEM_DS3505
ZBHH,2002-03-14 11:00,ZBHH 141100Z AUTO 34006KT 6SM 06/M09 A2997 RMK T00601090 IEM_DS3505
ZBHH,2002-03-14 12:00,ZBHH 141200Z AUTO 29002KT 19SM 07/M08 A2997 RMK SLP180 T00721080 52013 IEM_DS3505
ZBHH,2002-03-14 13:00,ZBHH 141300Z AUTO 00000KT 6SM 04/M08 A3000 RMK T00401080 IEM_DS3505
ZBHH,2002-03-14 14:00,ZBHH 141400Z AUTO 34002KT 6SM 03/M08 A3000 RMK T00301080 IEM_DS3505
ZBHH,2002-03-14 15:00,ZBHH 141500Z AUTO 36002KT 19SM 04/M08 A3003 RMK SLP191 T00381078 52012 IEM_DS3505
ZBHH,2002-03-14 18:00,ZBHH 141800Z AUTO 00000KT 19SM 00/M09 RMK SLP190 T00011093 57002 IEM_DS3505
ZBHH,2002-03-14 21:00,ZBHH 142100Z AUTO 00000KT 19SM M01/M09 A2997 RMK SLP186 T10061092 57005 IEM_DS3505
ZBHH,2002-03-14 22:00,ZBHH 142200Z AUTO 09002KT 6SM M04/M09 A2997 RMK T10401090 IEM_DS3505
ZBHH,2002-03-14 23:00,ZBHH 142300Z AUTO 05004KT 6SM M05/M10 A2997 RMK T10501100 IEM_DS3505
ZBHH,2002-03-15 00:00,ZBHH 150000Z AUTO 14002KT 19SM M00/M08 A2997 RMK SLP192 T10051080 54000 IEM_DS3505
ZBHH,2002-03-15 01:00,ZBHH 150100Z AUTO 00000KT 00/M07 A2997 RMK T00001070 IEM_DS3505
ZBHH,2002-03-15 02:00,ZBHH 150200Z AUTO 22002KT 9SM 02/M07 A2994 RMK T00201070 IEM_DS3505
ZBHH,2002-03-15 03:00,ZBHH 150300Z AUTO 22006KT 9SM 06/M09 A2991 RMK SLP168 T00581087 57015 IEM_DS3505
ZBHH,2002-03-15 04:00,ZBHH 150400Z AUTO 24016KT 5SM 08/M12 A2988 RMK T00801120 IEM_DS3505
ZBHH,2002-03-15 05:00,ZBHH 150500Z AUTO 28016G27KT 09/M13 A2988 RMK T00901130 IEM_DS3505
ZBHH,2002-03-15 06:00,ZBHH 150600Z AUTO 25012G31KT 9SM 11/M14 A2985 RMK SLP140 T01081141 57022 IEM_DS3505
ZBHH,2002-03-15 07:00,ZBHH 150700Z AUTO 26019G29KT 6SM 10/M13 A2983 RMK T01001130 IEM_DS3505
ZBHH,2002-03-15 08:00,ZBHH 150800Z AUTO 28014KT 7SM 10/M16 A2983 RMK T01001160 IEM_DS3505
ZBHH,2002-03-15 09:00,ZBHH 150900Z AUTO 27006KT 12SM 11/M19 A2980 RMK SLP127 T01081194 57013 IEM_DS3505
ZBHH,2002-03-15 10:00,ZBHH 151000Z AUTO 29016KT 09/M18 A2983 RMK T00901180 IEM_DS3505
ZBHH,2002-03-15 11:00,ZBHH 151100Z AUTO 32017KT 2 1/2SM 07/M23 A2985 RMK T00701230 IEM_DS3505
ZBHH,2002-03-15 12:00,ZBHH 151200Z AUTO 29010KT 7SM 07/ A2988 RMK SLP157 52019 IEM_DS3505
ZBHH,2002-03-15 13:00,ZBHH 151300Z AUTO 29010KT 3SM 04/M23 A2988 RMK T00401230 IEM_DS3505
ZBHH,2002-03-15 14:00,ZBHH 151400Z AUTO 29014KT 3SM 04/M24 A2988 RMK T00401240 IEM_DS3505
ZBHH,2002-03-15 15:00,ZBHH 151500Z AUTO 29010G21KT 7SM 05/M28 A2991 RMK SLP157 T00501275 52009 IEM_DS3505
ZBHH,2002-03-15 16:00,ZBHH 151600Z AUTO 29012G23KT 02/M25 A2994 RMK T00201250 IEM_DS3505
ZBHH,2002-03-15 17:00,ZBHH 151700Z AUTO 30012KT 01/M27 A2994 RMK T00101270 IEM_DS3505
ZBHH,2002-03-15 18:00,ZBHH 151800Z AUTO 29008KT 12SM 02/M32 A2997 RMK SLP168 T00181319 52013 IEM_DS3505
ZBHH,2002-03-15 19:00,ZBHH 151900Z AUTO 28008KT 00/M26 A2997 RMK T00001260 IEM_DS3505
ZBHH,2002-03-15 20:00,ZBHH 152000Z AUTO 28012KT 00/M25 A2997 RMK T00001250 IEM_DS3505
ZBHH,2002-03-15 21:00,ZBHH 152100Z AUTO 29004KT 16SM 01/M28 A2997 RMK SLP182 T00111276 52011 IEM_DS3505
ZBHH,2002-03-15 22:00,ZBHH 152200Z AUTO 27006KT 6SM M02/M21 A3000 RMK T10201210 IEM_DS3505
ZBHH,2002-03-15 23:00,ZBHH 152300Z AUTO 28006KT 6SM M02/M18 A3000 RMK T10201180 IEM_DS3505
ZBHH,2002-03-16 00:00,ZBHH 160000Z AUTO 22004KT 19SM 01/M22 A3003 RMK SLP203 T00091215 52010 IEM_DS3505
ZBHH,2002-03-16 01:00,ZBHH 160100Z AUTO 17004KT 6SM 01/M19 A3003 RMK T00101190 IEM_DS3505
ZBHH,2002-03-16 02:00,ZBHH 160200Z AUTO 22004KT 6SM 02/M20 A3006 RMK T00201200 IEM_DS3505
ZBHH,2002-03-16 03:00,ZBHH 160300Z AUTO 32008KT 9SM 04/M20 A3006 RMK SLP207 T00441199 52007 IEM_DS3505
ZBHH,2002-03-16 04:00,ZBHH 160400Z AUTO 30019G31KT 6SM 05/M22 A3003 RMK T00501220 IEM_DS3505
ZBHH,2002-03-16 05:00,ZBHH 160500Z AUTO 31017G27KT 6SM 04/M22 A3003 RMK T00401220 IEM_DS3505
ZBHH,2002-03-16 06:00,ZBHH 160600Z AUTO 29010KT 12SM 06/M21 A3000 RMK SLP196 T00581207 57014 IEM_DS3505
ZBHH,2002-03-16 07:00,ZBHH 160700Z AUTO 30014G23KT 6SM 05/M21 A2997 RMK T00501210 IEM_DS3505
ZBHH,2002-03-16 08:00,ZBHH 160800Z AUTO 29021KT 6SM 05/M21 A3000 RMK T00501210 IEM_DS3505
ZBHH,2002-03-16 09:00,ZBHH 160900Z AUTO 29006G25KT 12SM 05/M22 A3000 RMK SLP200 T00471219 54000 IEM_DS3505
ZBHH,2002-03-16 10:00,ZBHH 161000Z AUTO 31014G27KT 6SM 04/M20 A3000 RMK T00401200 IEM_DS3505
ZBHH,2002-03-16 11:00,ZBHH 161100Z AUTO 32016KT 6SM 02/M18 A3003 RMK T00201180 IEM_DS3505
ZBHH,2002-03-16 12:00,ZBHH 161200Z AUTO 25010KT 19SM 03/M20 A3003 RMK SLP215 T00301198 52009 IEM_DS3505
ZBHH,2002-03-16 13:00,ZBHH 161300Z AUTO 28004KT 6SM 01/M16 A3006 RMK T00101160 IEM_DS3505
ZBHH,2002-03-16 14:00,ZBHH 161400Z AUTO 32002KT 6SM M01/M17 A3006 RMK T10101170 IEM_DS3505
ZBHH,2002-03-16 15:00,ZBHH 161500Z AUTO 32002KT 19SM 01/M20 A3003 RMK SLP215 T00081198 52003 IEM_DS3505
ZBHH,2002-03-16 18:00,ZBHH 161800Z AUTO 00000KT 19SM 01/M21 RMK SLP208 T00081208 57003 IEM_DS3505
ZBHH,2002-03-16 21:00,ZBHH 162100Z AUTO 32010KT 12SM 00/M14 RMK SLP217 T00021136 52004 IEM_DS3505
ZBHH,2002-03-16 22:00,ZBHH 162200Z AUTO 20002KT 7SM M02/M12 A3009 RMK T10201120 IEM_DS3505
ZBHH,2002-03-16 23:00,ZBHH 162300Z AUTO 30002KT 7SM M02/M13 A3012 RMK T10201130 IEM_DS3505
ZBHH,2002-03-17 00:00,ZBHH 170000Z AUTO 27006KT 16SM M01/M15 A3015 RMK SLP257 T10101151 52029 IEM_DS3505
ZBHH,2002-03-17 01:00,ZBHH 170100Z AUTO 36008KT 7SM 00/M17 A3015 RMK T00001170 IEM_DS3505
ZBHH,2002-03-17 02:00,ZBHH 170200Z AUTO 35010G21KT 6SM 00/M18 A3018 RMK T00001180 IEM_DS3505
ZBHH,2002-03-17 03:00,ZBHH 170300Z AUTO 32012KT 19SM 02/M16 A3018 RMK SLP269 T00241158 52013 IEM_DS3505
ZBHH,2002-03-17 04:00,ZBHH 170400Z AUTO 30019G29KT 6SM 03/M22 A3018 RMK T00301220 IEM_DS3505
ZBHH,2002-03-17 05:00,ZBHH 170500Z AUTO 30016KT 6SM 03/M18 A3018 RMK T00301180 IEM_DS3505
ZBHH,2002-03-17 06:00,ZBHH 170600Z AUTO 29010G29KT 19SM 04/M19 A3015 RMK SLP251 T00381189 57013 IEM_DS3505
ZBHH,2002-03-17 07:00,ZBHH 170700Z AUTO 29017KT 6SM 04/M23 A3012 RMK T00401230 IEM_DS3505
ZBHH,2002-03-17 08:00,ZBHH 170800Z AUTO 30014G23KT 6SM 04/M24 A3012 RMK T00401240 IEM_DS3505
ZBHH,2002-03-17 09:00,ZBHH 170900Z AUTO 29008KT 19SM 05/M30 A3012 RMK SLP243 T00471304 57006 IEM_DS3505
ZBHH,2002-03-17 10:00,ZBHH 171000Z AUTO 30010KT 6SM 03/M23 A3012 RMK T00301230 IEM_DS3505
ZBHH,2002-03-17 11:00,ZBHH 171100Z AUTO 32006KT 6SM 01/M23 A3012 RMK T00101230 IEM_DS3505
ZBHH,2002-03-17 12:00,ZBHH 171200Z AUTO 22004KT 19SM 02/M13 A3015 RMK SLP261 T00241131 52008 IEM_DS3505
ZBHH,2002-03-17 13:00,ZBHH 171300Z AUTO 23008KT 6SM 00/M17 A3015 RMK T00001170 IEM_DS3505
ZBHH,2002-03-17 14:00,ZBHH 171400Z AUTO 20002KT 6SM M02/M17 A3015 RMK T10201170 IEM_DS3505
ZBHH,2002-03-17 15:00,ZBHH 171500Z AUTO 22002KT 19SM M02/M20 A3012 RMK SLP256 T10181205 57006 IEM_DS3505
ZBHH,2002-03-17 18:00,ZBHH 171800Z AUTO 00000KT 19SM M02/M13 RMK SLP253 T10241129 57001 IEM_DS3505
ZBHH,2002-03-17 21:00,ZBHH 172100Z AUTO 00000KT 19SM M05/M15 A3009 RMK SLP243 T10481150 57012 IEM_DS3505
ZBHH,2002-03-17 22:00,ZBHH 172200Z AUTO 08002KT 6SM M10/M17 A3009 RMK T11001170 IEM_DS3505
ZBHH,2002-03-17 23:00,ZBHH 172300Z AUTO 09002KT 6SM M12/M18 A3009 RMK T11201180 IEM_DS3505
ZBHH,2002-03-18 00:00,ZBHH 180000Z AUTO 07002KT 19SM M03/M16 A3009 RMK SLP241 T10311156 57003 IEM_DS3505
ZBHH,2002-03-18 01:00,ZBHH 180100Z AUTO 12002KT 6SM M02/M16 A3009 RMK T10201160 IEM_DS3505
ZBHH,2002-03-18 02:00,ZBHH 180200Z AUTO 16002KT 6SM 00/M14 A3009 RMK T00001140 IEM_DS3505
ZBHH,2002-03-18 03:00,ZBHH 180300Z AUTO 00000KT 12SM 03/M12 A3006 RMK SLP234 T00261124 57003 IEM_DS3505
ZBHH,2002-03-18 04:00,ZBHH 180400Z AUTO 24006KT 6SM 03/M15 A3006 RMK T00301150 IEM_DS3505
ZBHH,2002-03-18 05:00,ZBHH 180500Z AUTO 24004KT 6SM 05/M14 A3003 RMK T00501140 IEM_DS3505
ZBHH,2002-03-18 06:00,ZBHH 180600Z AUTO 20010KT 16SM 09/M18 A2997 RMK SLP188 T00881179 57028 IEM_DS3505
ZBHH,2002-03-18 07:00,ZBHH 180700Z AUTO 23010KT 6SM 10/M16 A2994 RMK T01001160 IEM_DS3505
ZBHH,2002-03-18 08:00,ZBHH 180800Z AUTO 22010KT 6SM 11/M16 A2994 RMK T01101160 IEM_DS3505
ZBHH,2002-03-18 09:00,ZBHH 180900Z AUTO 20010KT 19SM 12/M19 A2991 RMK SLP163 T01191188 57021 IEM_DS3505
ZBHH,2002-03-18 10:00,ZBHH 181000Z AUTO 23008KT 6SM 10/M17 A2991 RMK T01001170 IEM_DS3505
ZBHH,2002-03-18 11:00,ZBHH 181100Z AUTO 24006KT 6SM 07/M18 A2991 RMK T00701180 IEM_DS3505
ZBHH,2002-03-18 12:00,ZBHH 181200Z AUTO 22002KT 16SM 08/M12 A2994 RMK SLP177 T00771116 52007 IEM_DS3505
ZBHH,2002-03-18 13:00,ZBHH 181300Z AUTO 09002KT 6SM 01/M17 A2994 RMK T00101170 IEM_DS3505
ZBHH,2002-03-18 14:00,ZBHH 181400Z AUTO 09006KT 6SM M04/M18 A2994 RMK T10401180 IEM_DS3505
ZBHH,2002-03-18 15:00,ZBHH 181500Z AUTO 07004KT 19SM 02/M13 A2994 RMK SLP181 T00251127 52005 IEM_DS3505
ZBHH,2002-03-18 21:00,ZBHH 182100Z AUTO 00000KT 19SM M01/M15 A2988 RMK SLP148 T10071149 57011 IEM_DS3505
ZBHH,2002-03-18 22:00,ZBHH 182200Z AUTO 07004KT 6SM M06/M16 A2988 RMK T10601160 IEM_DS3505
ZBHH,2002-03-18 23:00,ZBHH 182300Z AUTO 07002KT 6SM M06/M16 A2988 RMK T10601160 IEM_DS3505
ZBHH,2002-03-19 00:00,ZBHH 190000Z AUTO 00000KT 19SM M01/M15 A2988 RMK SLP154 T10091147 57004 IEM_DS3505
ZBHH,2002-03-19 01:00,ZBHH 190100Z AUTO 09004KT 6SM 03/M14 A2988 RMK T00301140 IEM_DS3505
ZBHH,2002-03-19 02:00,ZBHH 190200Z AUTO 11004KT 6SM 07/M17 A2988 RMK T00701170 IEM_DS3505
ZBHH,2002-03-19 03:00,ZBHH 190300Z AUTO 00000KT 12SM 08/M15 A2985 RMK SLP141 T00841149 57003 IEM_DS3505
ZBHH,2002-03-19 04:00,ZBHH 190400Z AUTO 22004KT 6SM 10/M15 A2985 RMK T01001150 IEM_DS3505
ZBHH,2002-03-19 05:00,ZBHH 190500Z AUTO 24006KT 6SM 12/M14 A2983 RMK T01201140 IEM_DS3505
ZBHH,2002-03-19 06:00,ZBHH 190600Z AUTO 20002KT 12SM 14/M14 A2977 RMK SLP102 T01381138 57029 IEM_DS3505
ZBHH,2002-03-19 07:00,ZBHH 190700Z AUTO 30006KT 6SM 13/M13 A2977 RMK T01301130 IEM_DS3505
ZBHH,2002-03-19 08:00,ZBHH 190800Z AUTO 34006KT 6SM 13/M13 A2974 RMK T01301130 IEM_DS3505
ZBHH,2002-03-19 09:00,ZBHH 190900Z AUTO 20004KT 12SM 14/M12 A2974 RMK SLP090 T01441124 57010 IEM_DS3505
ZBHH,2002-03-19 10:00,ZBHH 191000Z AUTO 22010KT 7SM 15/M09 A2974 RMK T01501090 IEM_DS3505
ZBHH,2002-03-19 11:00,ZBHH 191100Z AUTO 32008KT 13/M10 A2977 RMK T01301100 IEM_DS3505
ZBHH,2002-03-19 12:00,ZBHH 191200Z AUTO 32014KT 3SM 13/M05 RMK SLP115 T01261052 52018 IEM_DS3505
ZBHH,2002-03-19 13:00,ZBHH 191300Z AUTO 33025G47KT 1SM 10/M05 A2983 RMK T01001050 IEM_DS3505
ZBHH,2002-03-19 14:00,ZBHH 191400Z AUTO 32016G29KT 1 1/4SM 09/M05 A2985 RMK T00901050 IEM_DS3505
ZBHH,2002-03-19 15:00,ZBHH 191500Z AUTO 29002KT 6SM 11/M08 A2988 RMK SLP125 T01071084 52023 IEM_DS3505
ZBHH,2002-03-19 16:00,ZBHH 191600Z AUTO 34012KT 2 1/2SM 09/M10 A2988 RMK T00901100 IEM_DS3505
ZBHH,2002-03-19 17:00,ZBHH 191700Z AUTO 26006KT 08/M06 A2988 RMK T00801060 IEM_DS3505
ZBHH,2002-03-19 18:00,ZBHH 191800Z AUTO 32010G17KT 2 1/2SM 09/M10 A2991 RMK SLP126 T00881095 40158//// 52008 IEM_DS3505
ZBHH,2002-03-19 19:00,ZBHH 191900Z AUTO 32010G19KT 4SM 06/M22 A2988 RMK T00601220 IEM_DS3505
ZBHH,2002-03-19 20:00,ZBHH 192000Z AUTO 32019KT 1/2SM 04/M26 A2991 RMK T00401260 IEM_DS3505
ZBHH,2002-03-19 21:00,ZBHH 192100Z AUTO 32008KT 1/2SM 04/M32 A2994 RMK SLP149 T00361318 52011 IEM_DS3505
ZBHH,2002-03-19 22:00,ZBHH 192200Z AUTO 33021KT 3/8SM 02/M30 A2997 RMK T00201300 IEM_DS3505
ZBHH,2002-03-19 23:00,ZBHH 192300Z AUTO 32019G29KT 3/8SM 00/M28 A3000 RMK T00001280 IEM_DS3505
ZBHH,2002-03-20 00:00,ZBHH 200000Z AUTO 29012KT 3SM 01/M26 A3003 RMK SLP196 T00061255 52032 IEM_DS3505
ZBHH,2002-03-20 01:00,ZBHH 200100Z AUTO 32016KT 1 1/4SM M02/M26 A3006 RMK T10201260 IEM_DS3505
ZBHH,2002-03-20 02:00,ZBHH 200200Z AUTO 31017KT 3SM A3006 RMK IEM_DS3505
ZBHH,2002-03-20 03:00,ZBHH 200300Z AUTO 29016KT 4SM 01/M23 A3003 RMK SLP199 T00121227 54000 IEM_DS3505
ZBHH,2002-03-20 04:00,ZBHH 200400Z AUTO 29016G25KT 5SM 01/M27 A3000 RMK T00101270 IEM_DS3505
ZBHH,2002-03-20 05:00,ZBHH 200500Z AUTO 30019KT 5SM 01/M28 A2997 RMK T00101280 IEM_DS3505
ZBHH,2002-03-20 06:00,ZBHH 200600Z AUTO 32012G25KT 4SM 02/M26 A2994 RMK SLP164 T00251259 57032 IEM_DS3505
ZBHH,2002-03-20 07:00,ZBHH 200700Z AUTO 29019KT 1 1/4SM 02/M28 A2991 RMK T00201280 IEM_DS3505
ZBHH,2002-03-20 08:00,ZBHH 200800Z AUTO 30017KT 3SM 02/M28 A2988 RMK T00201280 IEM_DS3505
ZBHH,2002-03-20 09:00,ZBHH 200900Z AUTO 29010G29KT 4SM 02/M25 A2985 RMK SLP157 T00221253 57018 IEM_DS3505
ZBHH,2002-03-20 10:00,ZBHH 201000Z AUTO 30021KT 3SM 00/M27 A2985 RMK T00001270 IEM_DS3505
ZBHH,2002-03-20 11:00,ZBHH 201100Z AUTO 32016KT 1 1/4SM 00/M27 A2985 RMK T00001270 IEM_DS3505
ZBHH,2002-03-20 12:00,ZBHH 201200Z AUTO 32010KT 16SM 00/M24 A2988 RMK SLP169 T00001238 54000 IEM_DS3505
ZBHH,2002-03-20 13:00,ZBHH 201300Z AUTO 31012KT 2 1/2SM M02/M28 A2988 RMK T10201280 IEM_DS3505
ZBHH,2002-03-20 14:00,ZBHH 201400Z AUTO 30012KT M02/M27 A2988 RMK T10201270 IEM_DS3505
ZBHH,2002-03-20 15:00,ZBHH 201500Z AUTO 22006KT 19SM M01/M24 A2985 RMK SLP161 T10121237 57008 IEM_DS3505
ZBHH,2002-03-20 16:00,ZBHH 201600Z AUTO 27002KT 5SM M04/M26 A2983 RMK T10401260 IEM_DS3505
ZBHH,2002-03-20 17:00,ZBHH 201700Z AUTO 29002KT 7SM M04/M24 A2983 RMK T10401240 IEM_DS3505
ZBHH,2002-03-20 18:00,ZBHH 201800Z AUTO 20006KT 19SM M03/M22 RMK SLP147 T10261217 57013 IEM_DS3505
ZBHH,2002-03-20 21:00,ZBHH 202100Z AUTO 32006KT 12SM M03/M20 A2980 RMK SLP141 T10281203 57006 IEM_DS3505
ZBHH,2002-03-20 22:00,ZBHH 202200Z AUTO 27006KT 6SM M05/M27 A2980 RMK T10501270 IEM_DS3505
ZBHH,2002-03-20 23:00,ZBHH 202300Z AUTO 27008KT 6SM M04/M28 A2980 RMK T10401280 IEM_DS3505
ZBHH,2002-03-21 00:00,ZBHH 210000Z AUTO 00000KT 12SM M03/M24 A2980 RMK SLP151 T10281236 52004 IEM_DS3505
ZBHH,2002-03-21 01:00,ZBHH 210100Z AUTO 31010G21KT 6SM M02/M27 A2983 RMK T10201270 IEM_DS3505
ZBHH,2002-03-21 02:00,ZBHH 210200Z AUTO 34014KT 6SM M01/M27 A2983 RMK T10101270 IEM_DS3505
ZBHH,2002-03-21 03:00,ZBHH 210300Z AUTO 29008KT 19SM 01/M25 A2983 RMK SLP151 T00061251 52005 IEM_DS3505
ZBHH,2002-03-21 04:00,ZBHH 210400Z AUTO 31014G23KT 6SM 01/M27 A2980 RMK T00101270 IEM_DS3505
ZBHH,2002-03-21 05:00,ZBHH 210500Z AUTO 31016G27KT 6SM 02/M27 A2980 RMK T00201270 IEM_DS3505
ZBHH,2002-03-21 06:00,ZBHH 210600Z AUTO 34006G27KT 19SM 03/M27 A2980 RMK SLP138 T00331272 57009 IEM_DS3505
ZBHH,2002-03-21 07:00,ZBHH 210700Z AUTO 32019KT 6SM 03/M28 A2980 RMK T00301280 IEM_DS3505
ZBHH,2002-03-21 08:00,ZBHH 210800Z AUTO 31019KT 6SM 02/M29 A2980 RMK T00201290 IEM_DS3505
ZBHH,2002-03-21 09:00,ZBHH 210900Z AUTO 29010G31KT 9SM 02/M29 A2980 RMK SLP150 T00251294 52008 IEM_DS3505
ZBHH,2002-03-21 11:00,ZBHH 211100Z AUTO 32014G23KT 6SM M01/M28 A2988 RMK T10101280 IEM_DS3505
ZBHH,2002-03-21 12:00,ZBHH 211200Z AUTO 32006KT 12SM 00/M25 A2991 RMK SLP191 T00011248 52031 IEM_DS3505
ZBHH,2002-03-21 13:00,ZBHH 211300Z AUTO 32012G23KT 7SM M01/M25 A2994 RMK T10101250 IEM_DS3505
ZBHH,2002-03-21 14:00,ZBHH 211400Z AUTO 33010G19KT 6SM M02/M26 A2994 RMK T10201260 IEM_DS3505
ZBHH,2002-03-21 15:00,ZBHH 211500Z AUTO 29006G17KT 12SM M02/M24 A2994 RMK SLP200 T10151238 52012 IEM_DS3505
ZBHH,2002-03-21 16:00,ZBHH 211600Z AUTO 29006KT 6SM M05/M25 A2994 RMK T10501250 IEM_DS3505
ZBHH,2002-03-21 18:00,ZBHH 211800Z AUTO 00000KT 19SM M05/M26 RMK SLP192 T10471257 57008 IEM_DS3505
ZBHH,2002-03-21 21:00,ZBHH 212100Z AUTO 00000KT 19SM M04/M23 A2988 RMK SLP183 T10401231 57008 IEM_DS3505
ZBHH,2002-03-21 22:00,ZBHH 212200Z AUTO 08002KT 6SM M10/M23 A2988 RMK T11001230 IEM_DS3505
ZBHH,2002-03-21 23:00,ZBHH 212300Z AUTO 27004KT 6SM M08/M22 A2988 RMK T10801220 IEM_DS3505
ZBHH,2002-03-22 00:00,ZBHH 220000Z AUTO 29006KT 19SM M02/M21 A2988 RMK SLP188 T10211213 52003 IEM_DS3505
ZBHH,2002-03-22 01:00,ZBHH 220100Z AUTO 29014KT 6SM M02/M21 A2991 RMK T10201210 IEM_DS3505
ZBHH,2002-03-22 02:00,ZBHH 220200Z AUTO 31016KT 7SM M01/M22 A2991 RMK T10101220 IEM_DS3505
ZBHH,2002-03-22 03:00,ZBHH 220300Z AUTO 32014G29KT 16SM M01/M19 A2994 RMK SLP194 T10061194 52005 IEM_DS3505
ZBHH,2002-03-22 04:00,ZBHH 220400Z AUTO 30017G27KT 6SM 00/M24 A2991 RMK T00001240 IEM_DS3505
ZBHH,2002-03-22 05:00,ZBHH 220500Z AUTO 32017G27KT 6SM 00/M24 A2994 RMK T00001240 IEM_DS3505
ZBHH,2002-03-22 06:00,ZBHH 220600Z AUTO 32012G29KT 19SM 01/M21 A2991 RMK SLP196 T00081207 57002 IEM_DS3505
ZBHH,2002-03-22 07:00,ZBHH 220700Z AUTO 32019G29KT 6SM 01/M24 A2991 RMK T00101240 IEM_DS3505
ZBHH,2002-03-22 08:00,ZBHH 220800Z AUTO 31019G31KT 6SM 00/M24 A2991 RMK T00001240 IEM_DS3505
ZBHH,2002-03-22 09:00,ZBHH 220900Z AUTO 32014G27KT 19SM 02/M18 A2991 RMK SLP182 T00201182 57008 IEM_DS3505
ZBHH,2002-03-22 10:00,ZBHH 221000Z AUTO 32014KT 6SM 00/M24 A2991 RMK T00001240 IEM_DS3505
ZBHH,2002-03-22 11:00,ZBHH 221100Z AUTO 31008KT 6SM M01/M24 A2991 RMK T10101240 IEM_DS3505
ZBHH,2002-03-22 12:00,ZBHH 221200Z AUTO 29002KT 19SM 00/M23 A2991 RMK SLP192 T00001226 52008 IEM_DS3505
ZBHH,2002-03-22 13:00,ZBHH 221300Z AUTO 30004KT 6SM M04/M22 A2994 RMK T10401220 IEM_DS3505
ZBHH,2002-03-22 14:00,ZBHH 221400Z AUTO 28006KT 6SM M03/M22 A2994 RMK T10301220 IEM_DS3505
ZBHH,2002-03-22 15:00,ZBHH 221500Z AUTO 00000KT 19SM M02/M23 A2991 RMK SLP190 T10191228 57002 IEM_DS3505
ZBHH,2002-03-22 18:00,ZBHH 221800Z AUTO 18002KT 19SM M04/M20 RMK SLP185 T10351205 57005 IEM_DS3505
ZBHH,2002-03-22 21:00,ZBHH 222100Z AUTO 00000KT 19SM M06/M17 A2988 RMK SLP189 T10571167 52001 IEM_DS3505
ZBHH,2002-03-22 22:00,ZBHH 222200Z AUTO 06002KT 6SM M10/M18 A2991 RMK T11001180 IEM_DS3505
ZBHH,2002-03-22 23:00,ZBHH 222300Z AUTO 08002KT 6SM M10/M18 A2994 RMK T11001180 IEM_DS3505
ZBHH,2002-03-23 00:00,ZBHH 230000Z AUTO 32008KT 19SM M03/M19 A2997 RMK SLP210 T10261190 52021 IEM_DS3505
ZBHH,2002-03-23 01:00,ZBHH 230100Z AUTO 32014KT 6SM M03/M18 A3000 RMK T10301180 IEM_DS3505
ZBHH,2002-03-23 02:00,ZBHH 230200Z AUTO 32014KT 6SM M01/M19 A3000 RMK T10101190 IEM_DS3505
ZBHH,2002-03-23 03:00,ZBHH 230300Z AUTO 34008KT 19SM 01/M19 A3003 RMK SLP218 T00061194 52010 IEM_DS3505
ZBHH,2002-03-23 04:00,ZBHH 230400Z AUTO 35014G29KT 6SM 01/M25 A3003 RMK T00101250 IEM_DS3505
ZBHH,2002-03-23 05:00,ZBHH 230500Z AUTO 34014G23KT 6SM 01/M25 A3003 RMK T00101250 IEM_DS3505
ZBHH,2002-03-23 06:00,ZBHH 230600Z AUTO 32014G27KT 19SM 03/M28 A3000 RMK SLP221 T00301283 52004 IEM_DS3505
ZBHH,2002-03-23 07:00,ZBHH 230700Z AUTO 35012G21KT 6SM 03/M24 A3000 RMK T00301240 IEM_DS3505
ZBHH,2002-03-23 08:00,ZBHH 230800Z AUTO 34014G23KT 6SM 03/M24 A3000 RMK T00301240 IEM_DS3505
ZBHH,2002-03-23 09:00,ZBHH 230900Z AUTO 34008G21KT 19SM 04/M22 A3000 RMK SLP216 T00411219 57007 IEM_DS3505
ZBHH,2002-03-23 10:00,ZBHH 231000Z AUTO 35010KT 6SM 02/M24 A3000 RMK T00201240 IEM_DS3505
ZBHH,2002-03-23 11:00,ZBHH 231100Z AUTO 36004KT 6SM 00/M24 A3000 RMK T00001240 IEM_DS3505
ZBHH,2002-03-23 12:00,ZBHH 231200Z AUTO 32006KT 19SM 02/M24 A3003 RMK SLP224 T00171237 52009 IEM_DS3505
ZBHH,2002-03-23 13:00,ZBHH 231300Z AUTO 03006KT 6SM M03/M23 A3003 RMK T10301230 IEM_DS3505
ZBHH,2002-03-23 14:00,ZBHH 231400Z AUTO 12002KT 6SM M06/M24 A3003 RMK T10601240 IEM_DS3505
ZBHH,2002-03-23 15:00,ZBHH 231500Z AUTO 00000KT 19SM M02/M24 A3003 RMK SLP226 T10221241 54000 IEM_DS3505
ZBHH,2002-03-23 18:00,ZBHH 231800Z AUTO 00000KT 19SM M05/M21 RMK SLP214 T10501209 57011 IEM_DS3505
ZBHH,2002-03-23 21:00,ZBHH 232100Z AUTO 00000KT 19SM M06/M19 A2997 RMK SLP206 T10641189 57008 IEM_DS3505
ZBHH,2002-03-23 23:00,ZBHH 232300Z AUTO 07002KT 6SM M12/M22 A2997 RMK T11201220 IEM_DS3505
ZBHH,2002-03-24 00:00,ZBHH 240000Z AUTO 04002KT 12SM M03/M17 A2997 RMK SLP204 T10341169 54000 IEM_DS3505
ZBHH,2002-03-24 01:00,ZBHH 240100Z AUTO 00000KT 6SM M01/M20 A2997 RMK T10101200 IEM_DS3505
ZBHH,2002-03-24 02:00,ZBHH 240200Z AUTO 29002KT 6SM 00/M21 A2997 RMK T00001210 IEM_DS3505
ZBHH,2002-03-24 03:00,ZBHH 240300Z AUTO 00000KT 12SM 04/M20 A2994 RMK SLP187 T00381197 57008 IEM_DS3505
ZBHH,2002-03-24 04:00,ZBHH 240400Z AUTO 23010KT 6SM 04/M20 A2991 RMK T00401200 IEM_DS3505
ZBHH,2002-03-24 05:00,ZBHH 240500Z AUTO 23012KT 6SM 07/M19 A2988 RMK T00701190 IEM_DS3505
ZBHH,2002-03-24 06:00,ZBHH 240600Z AUTO 22010KT 16SM 09/M14 A2983 RMK SLP145 T00911135 57032 IEM_DS3505
ZBHH,2002-03-24 07:00,ZBHH 240700Z AUTO 24012KT 6SM 10/M17 A2980 RMK T01001170 IEM_DS3505
ZBHH,2002-03-24 08:00,ZBHH 240800Z AUTO 24014G23KT 6SM 11/M18 A2977 RMK T01101180 IEM_DS3505
ZBHH,2002-03-24 09:00,ZBHH 240900Z AUTO 22014KT 19SM 12/M17 A2974 RMK SLP111 T01161169 57027 IEM_DS3505
ZBHH,2002-03-24 10:00,ZBHH 241000Z AUTO 23008KT 6SM 10/M17 A2974 RMK T01001170 IEM_DS3505
ZBHH,2002-03-24 11:00,ZBHH 241100Z AUTO 23004KT 6SM 08/M17 A2974 RMK T00801170 IEM_DS3505
ZBHH,2002-03-24 12:00,ZBHH 241200Z AUTO 22006KT 19SM 08/M18 RMK SLP115 T00821180 52002 IEM_DS3505
ZBHH,2002-03-24 13:00,ZBHH 241300Z AUTO 04004KT 03/M17 A2977 RMK T00301170 IEM_DS3505
ZBHH,2002-03-24 14:00,ZBHH 241400Z AUTO 07004KT 00/M18 A2980 RMK T00001180 IEM_DS3505
ZBHH,2002-03-24 15:00,ZBHH 241500Z AUTO 32002KT 19SM 02/M16 A2980 RMK SLP125 T00231165 52012 IEM_DS3505
ZBHH,2002-03-24 16:00,ZBHH 241600Z AUTO 04002KT 6SM M04/M18 A2980 RMK T10401180 IEM_DS3505
ZBHH,2002-03-24 17:00,ZBHH 241700Z AUTO 04004KT 6SM M07/M19 A2977 RMK T10701190 IEM_DS3505
ZBHH,2002-03-24 18:00,ZBHH 241800Z AUTO 00000KT 19SM M00/M18 RMK SLP113 T10041178 57005 IEM_DS3505
ZBHH,2002-03-24 21:00,ZBHH 242100Z AUTO 09002KT 19SM 00/M16 A2974 RMK SLP096 T00041157 57008 IEM_DS3505
ZBHH,2002-03-24 22:00,ZBHH 242200Z AUTO 02004KT 6SM M03/M16 A2974 RMK T10301160 IEM_DS3505
ZBHH,2002-03-24 23:00,ZBHH 242300Z AUTO 04002KT 6SM M03/M16 A2977 RMK T10301160 IEM_DS3505
ZBHH,2002-03-25 00:00,ZBHH 250000Z AUTO 00000KT 4SM 02/M12 A2977 RMK SLP106 T00171125 52004 IEM_DS3505
ZBHH,2002-03-25 01:00,ZBHH 250100Z AUTO 07002KT 6SM 03/M15 A2977 RMK T00301150 IEM_DS3505
ZBHH,2002-03-25 02:00,ZBHH 250200Z AUTO 24002KT 6SM 05/M15 A2977 RMK T00501150 IEM_DS3505
ZBHH,2002-03-25 03:00,ZBHH 250300Z AUTO 20002KT 9SM 08/M15 RMK SLP105 T00801146 54000 IEM_DS3505
ZBHH,2002-03-25 04:00,ZBHH 250400Z AUTO 22006KT 6SM 08/M13 A2974 RMK T00801130 IEM_DS3505
ZBHH,2002-03-25 05:00,ZBHH 250500Z AUTO 23006KT 6SM 10/M11 A2971 RMK T01001110 IEM_DS3505
ZBHH,2002-03-25 06:00,ZBHH 250600Z AUTO 20012KT 16SM 13/M12 A2968 RMK SLP071 T01321121 57025 IEM_DS3505
ZBHH,2002-03-25 07:00,ZBHH 250700Z AUTO 23012KT 6SM 14/M11 A2965 RMK T01401110 IEM_DS3505
ZBHH,2002-03-25 08:00,ZBHH 250800Z AUTO 24014G23KT 6SM 15/M12 A2965 RMK T01501120 IEM_DS3505
ZBHH,2002-03-25 09:00,ZBHH 250900Z AUTO 25006G23KT 12SM 15/M15 A2965 RMK SLP053 T01511152 57010 IEM_DS3505
ZBHH,2002-03-25 11:00,ZBHH 251100Z AUTO 36014G23KT 6SM 09/M14 A2971 RMK T00901140 IEM_DS3505
ZBHH,2002-03-25 12:00,ZBHH 251200Z AUTO 14002KT 6SM 09/M13 RMK SLP097 T00901131 52029 IEM_DS3505
ZBHH,2002-03-25 14:00,ZBHH 251400Z AUTO 02006KT 6SM 06/M13 A2980 RMK T00601130 IEM_DS3505
ZBHH,2002-03-25 15:00,ZBHH 251500Z AUTO 00000KT 9SM 06/M11 A2983 RMK SLP123 T00581107 52029 IEM_DS3505
ZBHH,2002-03-25 16:00,ZBHH 251600Z AUTO 02006KT 6SM 03/M13 A2985 RMK T00301130 IEM_DS3505
ZBHH,2002-03-25 18:00,ZBHH 251800Z AUTO 00000KT 19SM 01/M12 RMK SLP138 T00091125 52014 IEM_DS3505
ZBHH,2002-03-25 21:00,ZBHH 252100Z AUTO 11002KT 19SM M00/M21 A2991 RMK SLP152 T10041208 52013 IEM_DS3505
ZBHH,2002-03-25 22:00,ZBHH 252200Z AUTO 10004KT 6SM M03/M19 A2994 RMK T10301190 IEM_DS3505
ZBHH,2002-03-25 23:00,ZBHH 252300Z AUTO 35002KT 6SM M06/M16 A2997 RMK T10601160 IEM_DS3505
ZBHH,2002-03-26 00:00,ZBHH 260000Z AUTO 04002KT 19SM 02/M15 RMK SLP183 T00151150 52019 IEM_DS3505
ZBHH,2002-03-26 01:00,ZBHH 260100Z AUTO 04002KT 6SM 02/M16 A3000 RMK T00201160 IEM_DS3505
ZBHH,2002-03-26 02:00,ZBHH 260200Z AUTO 16002KT 6SM 06/M16 A3000 RMK T00601160 IEM_DS3505
ZBHH,2002-03-26 03:00,ZBHH 260300Z AUTO 18004KT 12SM 09/M11 A3000 RMK SLP177 T00861106 52003 IEM_DS3505
ZBHH,2002-03-26 04:00,ZBHH 260400Z AUTO 19004KT 6SM 09/M16 A2997 RMK T00901160 IEM_DS3505
ZBHH,2002-03-26 05:00,ZBHH 260500Z AUTO 24004KT 6SM 10/M16 A2997 RMK T01001160 IEM_DS3505
ZBHH,2002-03-26 06:00,ZBHH 260600Z AUTO 16008KT 12SM 12/M19 A2994 RMK SLP159 T01171187 57020 IEM_DS3505
ZBHH,2002-03-26 09:00,ZBHH 260900Z AUTO 18006KT 12SM 12/M14 RMK SLP147 T01241142 57012 IEM_DS3505
ZBHH,2002-03-26 12:00,ZBHH 261200Z AUTO 27004KT 12SM 10/M11 RMK SLP160 T00961110 52010 IEM_DS3505
ZBHH,2002-03-26 15:00,ZBHH 261500Z AUTO 07004KT 12SM 05/M11 RMK SLP161 T00471109 52005 IEM_DS3505
ZBHH,2002-03-26 21:00,ZBHH 262100Z AUTO 00000KT 19SM 00/ RMK IEM_DS3505
ZBHH,2002-03-26 23:00,ZBHH 262300Z AUTO 03002KT 6SM M03/M15 A2994 RMK T10301150 IEM_DS3505
ZBHH,2002-03-27 00:00,ZBHH 270000Z AUTO 00000KT 9SM 03/M10 RMK SLP162 T00331101 52008 IEM_DS3505
ZBHH,2002-03-27 02:00,ZBHH 270200Z AUTO 13002KT 6SM 08/M14 A2994 RMK T00801140 IEM_DS3505
ZBHH,2002-03-27 03:00,ZBHH 270300Z AUTO 04002KT 9SM 10/M10 A2991 RMK SLP149 T00981105 57008 IEM_DS3505
ZBHH,2002-03-27 04:00,ZBHH 270400Z AUTO 36002KT 6SM 11/M15 A2985 RMK T01101150 IEM_DS3505
ZBHH,2002-03-27 05:00,ZBHH 270500Z AUTO 25002KT 6SM 12/M11 A2983 RMK T01201110 IEM_DS3505
ZBHH,2002-03-27 06:00,ZBHH 270600Z AUTO 18006G27KT 6SM 08/00 A2985 RMK 60000 SLP132 T00820002 57024 IEM_DS3505
ZBHH,2002-03-27 07:00,ZBHH 270700Z AUTO 20004KT 4SM 06/02 A2983 RMK T00600020 IEM_DS3505
ZBHH,2002-03-27 08:00,ZBHH 270800Z AUTO 00000KT 2 1/2SM 05/03 A2983 RMK T00500030 IEM_DS3505
ZBHH,2002-03-27 09:00,ZBHH 270900Z AUTO 04002KT 6SM 05/03 A2980 RMK SLP135 T00500034 57007 IEM_DS3505
ZBHH,2002-03-27 10:00,ZBHH 271000Z AUTO 02006KT 3SM 03/02 A2980 RMK T00300020 IEM_DS3505
ZBHH,2002-03-27 11:00,ZBHH 271100Z AUTO 05006KT 4SM 02/01 A2980 RMK T00200010 IEM_DS3505
ZBHH,2002-03-27 12:00,ZBHH 271200Z AUTO 09002KT 19SM 04/02 A2983 RMK 60035 SLP134 T00420021 52004 IEM_DS3505
ZBHH,2002-03-27 13:00,ZBHH 271300Z AUTO 21002KT 3SM 02/01 A2985 RMK T00200010 IEM_DS3505
ZBHH,2002-03-27 14:00,ZBHH 271400Z AUTO 23002KT 1 1/4SM 03/02 A2988 RMK T00300020 IEM_DS3505
ZBHH,2002-03-27 15:00,ZBHH 271500Z AUTO 20004KT 5SM 03/02 A2988 RMK SLP140 T00340022 52017 IEM_DS3505
ZBHH,2002-03-27 16:00,ZBHH 271600Z AUTO 23004KT 1SM 02/01 A2991 RMK T00200010 IEM_DS3505
ZBHH,2002-03-27 17:00,ZBHH 271700Z AUTO 21002KT 3/8SM 01/01 A2991 RMK T00100010 IEM_DS3505
ZBHH,2002-03-27 18:00,ZBHH 271800Z AUTO 00000KT 6SM 03/02 A2991 RMK SLP152 T00260019 52005 IEM_DS3505
ZBHH,2002-03-27 19:00,ZBHH 271900Z AUTO 19004KT 1/8SM 01/01 A2991 RMK T00100010 IEM_DS3505
ZBHH,2002-03-27 20:00,ZBHH 272000Z AUTO 00000KT 1SM 01/01 A2988 RMK T00100010 IEM_DS3505
ZBHH,2002-03-27 21:00,ZBHH 272100Z AUTO 00000KT 4SM 02/02 A2985 RMK 70035 SLP149 T00240019 57009 IEM_DS3505
ZBHH,2002-03-27 22:00,ZBHH 272200Z AUTO 12002KT 1SM 01/01 A2985 RMK T00100010 IEM_DS3505
ZBHH,2002-03-27 23:00,ZBHH 272300Z AUTO 00000KT 1SM 01/01 A2988 RMK T00100010 IEM_DS3505
ZBHH,2002-03-28 00:00,ZBHH 280000Z AUTO 02002KT 6SM 03/02 A2988 RMK 60003 SLP157 T00290017 52006 IEM_DS3505
ZBHH,2002-03-28 01:00,ZBHH 280100Z AUTO 00000KT 2 1/2SM 03/01 A2991 RMK T00300010 IEM_DS3505
ZBHH,2002-03-28 02:00,ZBHH 280200Z AUTO 18002KT 2 1/2SM 03/02 A2991 RMK T00300020 IEM_DS3505
ZBHH,2002-03-28 03:00,ZBHH 280300Z AUTO 20004KT 3SM 07/02 A2991 RMK SLP161 T00700022 52010 IEM_DS3505
ZBHH,2002-03-28 04:00,ZBHH 280400Z AUTO 21004KT 1 1/4SM 07/03 A2988 RMK T00700030 IEM_DS3505
ZBHH,2002-03-28 05:00,ZBHH 280500Z AUTO 25006KT 2SM 09/04 A2988 RMK T00900040 IEM_DS3505
ZBHH,2002-03-28 06:00,ZBHH 280600Z AUTO 20006KT 6SM 11/05 A2985 RMK 60003 SLP132 T01060046 57019 IEM_DS3505
ZBHH,2002-03-28 07:00,ZBHH 280700Z AUTO 24008KT 10/04 A2985 RMK T01000040 IEM_DS3505
ZBHH,2002-03-28 08:00,ZBHH 280800Z AUTO 25012KT 7SM 12/02 A2983 RMK T01200020 IEM_DS3505
ZBHH,2002-03-28 09:00,ZBHH 280900Z AUTO 22010KT 19SM 14/00 A2983 RMK SLP113 T01350000 57012 IEM_DS3505
ZBHH,2002-03-28 10:00,ZBHH 281000Z AUTO 24006KT 7SM 12/00 A2980 RMK T01200000 IEM_DS3505
ZBHH,2002-03-28 11:00,ZBHH 281100Z AUTO 22006KT 7SM 10/01 A2980 RMK T01000010 IEM_DS3505
ZBHH,2002-03-28 12:00,ZBHH 281200Z AUTO 20006KT 12SM 11/01 A2983 RMK SLP115 T01100014 57002 IEM_DS3505
ZBHH,2002-03-28 13:00,ZBHH 281300Z AUTO 11002KT 6SM 06/01 A2983 RMK T00600010 IEM_DS3505
ZBHH,2002-03-28 14:00,ZBHH 281400Z AUTO 12002KT 6SM 06/00 A2983 RMK T00600000 IEM_DS3505
ZBHH,2002-03-28 15:00,ZBHH 281500Z AUTO 02004KT 12SM 08/02 A2983 RMK SLP120 T00760019 52006 IEM_DS3505
ZBHH,2002-03-28 16:00,ZBHH 281600Z AUTO 05002KT 6SM 03/00 A2983 RMK T00300000 IEM_DS3505
ZBHH,2002-03-28 17:00,ZBHH 281700Z AUTO 06006KT 6SM 02/M01 A2980 RMK T00201010 IEM_DS3505
ZBHH,2002-03-28 18:00,ZBHH 281800Z AUTO 00000KT 12SM 04/01 A2980 RMK SLP111 T00400011 57008 IEM_DS3505
ZBHH,2002-03-28 21:00,ZBHH 282100Z AUTO 00000KT 12SM 06/00 A2974 RMK 70003 SLP076 T00580003 57021 IEM_DS3505
ZBHH,2002-03-28 22:00,ZBHH 282200Z AUTO 34002KT 6SM 03/00 A2974 RMK T00300000 IEM_DS3505
ZBHH,2002-03-28 23:00,ZBHH 282300Z AUTO 6SM 03/00 A2974 RMK T00300000 IEM_DS3505
ZBHH,2002-03-29 00:00,ZBHH 290000Z AUTO 22004KT 6SM 06/00 A2974 RMK 70003 SLP083 T00600005 52001 IEM_DS3505
ZBHH,2002-03-29 01:00,ZBHH 290100Z AUTO 21006KT 4SM 05/02 A2977 RMK T00500020 IEM_DS3505
ZBHH,2002-03-29 02:00,ZBHH 290200Z AUTO 25004KT 5SM 07/01 A2977 RMK T00700010 IEM_DS3505
ZBHH,2002-03-29 03:00,ZBHH 290300Z AUTO 20012G21KT 9SM 10/M02 A2977 RMK SLP096 T00971024 52012 IEM_DS3505
ZBHH,2002-03-29 04:00,ZBHH 290400Z AUTO 24016G25KT 7SM 10/M02 A2974 RMK T01001020 IEM_DS3505
ZBHH,2002-03-29 05:00,ZBHH 290500Z AUTO 25016KT 6SM 10/M02 A2974 RMK T01001020 IEM_DS3505
ZBHH,2002-03-29 06:00,ZBHH 290600Z AUTO 25010KT 5SM 12/M05 A2974 RMK SLP088 T01181051 57010 IEM_DS3505
ZBHH,2002-03-29 07:00,ZBHH 290700Z AUTO 28012KT 7SM 10/M03 A2974 RMK T01001030 IEM_DS3505
ZBHH,2002-03-29 08:00,ZBHH 290800Z AUTO 29021KT 09/M01 A2977 RMK T00901010 IEM_DS3505
ZBHH,2002-03-29 09:00,ZBHH 290900Z AUTO 29010G29KT 16SM 09/M01 A2980 RMK SLP108 T00911010 52016 IEM_DS3505
ZBHH,2002-03-29 10:00,ZBHH 291000Z AUTO 30016KT 7SM 07/M01 A2983 RMK T00701010 IEM_DS3505
ZBHH,2002-03-29 11:00,ZBHH 291100Z AUTO 29012KT 7SM 05/00 A2985 RMK T00500000 IEM_DS3505
ZBHH,2002-03-29 12:00,ZBHH 291200Z AUTO 29008KT 12SM 04/00 A2988 RMK 60003 SLP151 T00450003 52029 IEM_DS3505
ZBHH,2002-03-29 13:00,ZBHH 291300Z AUTO 34010KT 7SM 04/M01 A2991 RMK T00401010 IEM_DS3505
ZBHH,2002-03-29 14:00,ZBHH 291400Z AUTO 00000KT 7SM 04/M01 A2994 RMK T00401010 IEM_DS3505
ZBHH,2002-03-29 15:00,ZBHH 291500Z AUTO 32010KT 16SM 06/M02 A2997 RMK SLP163 T00591017 52021 IEM_DS3505
ZBHH,2002-03-29 16:00,ZBHH 291600Z AUTO 28004KT 6SM 05/M01 A2997 RMK T00501010 IEM_DS3505
ZBHH,2002-03-29 18:00,ZBHH 291800Z AUTO 29008KT 19SM 06/M02 RMK 60003 SLP169 T00581018 52009 IEM_DS3505
ZBHH,2002-03-29 21:00,ZBHH 292100Z AUTO 22002KT 19SM 04/M05 A3000 RMK 70003 SLP183 T00381046 52003 IEM_DS3505
ZBHH,2002-03-29 22:00,ZBHH 292200Z AUTO 18002KT 6SM M01/M02 A3000 RMK T10101020 IEM_DS3505
ZBHH,2002-03-29 23:00,ZBHH 292300Z AUTO 00000KT 6SM M01/M02 A3003 RMK T10101020 IEM_DS3505
ZBHH,2002-03-30 00:00,ZBHH 300000Z AUTO 00000KT 7SM 03/M02 A3003 RMK 70003 SLP207 T00331017 52010 IEM_DS3505
ZBHH,2002-03-30 01:00,ZBHH 300100Z AUTO 16002KT 6SM 03/M01 A3003 RMK T00301010 IEM_DS3505
ZBHH,2002-03-30 02:00,ZBHH 300200Z AUTO 22002KT 6SM 05/00 A3006 RMK T00500000 IEM_DS3505
ZBHH,2002-03-30 03:00,ZBHH 300300Z AUTO 22002KT 19SM 07/M01 A3003 RMK SLP195 T00721006 52001 IEM_DS3505
ZBHH,2002-03-30 04:00,ZBHH 300400Z AUTO 27004KT 6SM 07/M01 A3003 RMK T00701010 IEM_DS3505
ZBHH,2002-03-30 05:00,ZBHH 300500Z AUTO 27006KT 6SM 11/M01 A2997 RMK T01101010 IEM_DS3505
ZBHH,2002-03-30 06:00,ZBHH 300600Z AUTO 22010KT 16SM 14/M04 A2994 RMK SLP146 T01391040 57030 IEM_DS3505
ZBHH,2002-03-30 07:00,ZBHH 300700Z AUTO 24010KT 6SM 14/M03 A2991 RMK T01401030 IEM_DS3505
ZBHH,2002-03-30 08:00,ZBHH 300800Z AUTO 25010KT 6SM 16/M04 A2988 RMK T01601040 IEM_DS3505
ZBHH,2002-03-30 09:00,ZBHH 300900Z AUTO 20012KT 19SM 16/M07 A2988 RMK SLP122 T01631067 57020 IEM_DS3505
ZBHH,2002-03-30 10:00,ZBHH 301000Z AUTO 23010KT 6SM 15/M06 A2985 RMK T01501060 IEM_DS3505
ZBHH,2002-03-30 11:00,ZBHH 301100Z AUTO 24008KT 6SM 13/M07 A2985 RMK T01301070 IEM_DS3505
ZBHH,2002-03-30 12:00,ZBHH 301200Z AUTO 16004KT 19SM 13/M03 A2988 RMK SLP128 T01281033 57003 IEM_DS3505
ZBHH,2002-03-30 13:00,ZBHH 301300Z AUTO 6SM 09/M06 A2988 RMK T00901060 IEM_DS3505
ZBHH,2002-03-30 14:00,ZBHH 301400Z AUTO 14002KT 6SM 05/M04 A2991 RMK T00501040 IEM_DS3505
ZBHH,2002-03-30 15:00,ZBHH 301500Z AUTO 00000KT 19SM 08/M02 A2991 RMK SLP141 T00781022 52009 IEM_DS3505
ZBHH,2002-03-30 18:00,ZBHH 301800Z AUTO 00000KT 19SM 05/M03 RMK SLP125 T00511031 57006 IEM_DS3505
ZBHH,2002-03-30 21:00,ZBHH 302100Z AUTO 00000KT 16SM 04/M04 A2985 RMK SLP117 T00361045 57005 IEM_DS3505
ZBHH,2002-03-30 22:00,ZBHH 302200Z AUTO 05002KT 6SM 02/M07 A2985 RMK T00201070 IEM_DS3505
ZBHH,2002-03-30 23:00,ZBHH 302300Z AUTO 04004KT 6SM 01/M06 A2985 RMK T00101060 IEM_DS3505
ZBHH,2002-03-31 00:00,ZBHH 310000Z AUTO 00000KT 9SM 05/M04 A2988 RMK SLP133 T00481035 52009 IEM_DS3505
ZBHH,2002-03-31 01:00,ZBHH 310100Z AUTO 05004KT 6SM 08/M06 A2988 RMK T00801060 IEM_DS3505
ZBHH,2002-03-31 02:00,ZBHH 310200Z AUTO 12004KT 6SM 11/M07 A2988 RMK T01101070 IEM_DS3505
ZBHH,2002-03-31 03:00,ZBHH 310300Z AUTO 09002KT 19SM 13/M08 A2988 RMK SLP123 T01341077 57001 IEM_DS3505
ZBHH,2002-03-31 04:00,ZBHH 310400Z AUTO 25002KT 6SM 14/M08 A2985 RMK T01401080 IEM_DS3505
ZBHH,2002-03-31 05:00,ZBHH 310500Z AUTO 15002KT 6SM 16/M07 A2983 RMK T01601070 IEM_DS3505
ZBHH,2002-03-31 06:00,ZBHH 310600Z AUTO 11004KT 12SM 18/M08 A2983 RMK SLP094 T01801085 57022 IEM_DS3505
ZBHH,2002-03-31 07:00,ZBHH 310700Z AUTO 26004KT 6SM 19/M08 A2980 RMK T01901080 IEM_DS3505
ZBHH,2002-03-31 08:00,ZBHH 310800Z AUTO 28006KT 6SM 20/M08 A2977 RMK T02001080 IEM_DS3505
ZBHH,2002-03-31 09:00,ZBHH 310900Z AUTO 18002KT 19SM 21/M07 A2974 RMK SLP069 T02061071 57020 IEM_DS3505
ZBHH,2002-03-31 10:00,ZBHH 311000Z AUTO 28002KT 6SM 20/M08 A2977 RMK T02001080 IEM_DS3505
ZBHH,2002-03-31 11:00,ZBHH 311100Z AUTO 00000KT 6SM 16/M03 A2977 RMK T01601030 IEM_DS3505
ZBHH,2002-03-31 12:00,ZBHH 311200Z AUTO 00000KT 12SM 16/M00 A2980 RMK SLP090 T01551002 52011 IEM_DS3505
ZBHH,2002-03-31 13:00,ZBHH 311300Z AUTO 04006KT 6SM 11/M04 A2983 RMK T01101040 IEM_DS3505
ZBHH,2002-03-31 14:00,ZBHH 311400Z AUTO 10004KT 6SM 07/M01 A2983 RMK T00701010 IEM_DS3505
ZBHH,2002-03-31 15:00,ZBHH 311500Z AUTO 00000KT 12SM 10/M01 A2983 RMK SLP094 T00951007 52009 IEM_DS3505
ZBHH,2002-03-31 18:00,ZBHH 311800Z AUTO 00000KT 12SM 07/M02 RMK SLP096 T00721015 52006 IEM_DS3505
ZBHH,2002-03-31 21:00,ZBHH 312100Z AUTO 00000KT 16SM 05/M02 A2985 RMK SLP099 T00501019 52003 IEM_DS3505
ZBHH,2002-03-31 22:00,ZBHH 312200Z AUTO 07006KT 6SM 03/M05 A2985 RMK T00301050 IEM_DS3505
ZBHH,2002-03-31 23:00,ZBHH 312300Z AUTO 08008KT 6SM 01/M04 A2988 RMK T00101040 IEM_DS3505
ZBHH,2002-04-01 00:00,ZBHH 010000Z AUTO 02004KT 12SM 10/M05 A2988 RMK SLP116 T00981048 52015 IEM_DS3505
ZBHH,2002-04-01 01:00,ZBHH 010100Z AUTO 06002KT 6SM 12/M03 A2988 RMK T01201030 IEM_DS3505
ZBHH,2002-04-01 02:00,ZBHH 010200Z AUTO 07002KT 6SM A2991 RMK IEM_DS3505
ZBHH,2002-04-01 03:00,ZBHH 010300Z AUTO 22002KT 9SM 19/M07 A2988 RMK SLP110 T01871066 54000 IEM_DS3505
ZBHH,2002-04-01 04:00,ZBHH 010400Z AUTO 21004KT 6SM 19/M10 A2988 RMK T01901100 IEM_DS3505
ZBHH,2002-04-01 05:00,ZBHH 010500Z AUTO 27004KT 6SM 20/M09 A2985 RMK T02001090 IEM_DS3505
ZBHH,2002-04-01 06:00,ZBHH 010600Z AUTO 20002KT 12SM 22/M05 A2983 RMK SLP089 T02201054 57017 IEM_DS3505
ZBHH,2002-04-01 07:00,ZBHH 010700Z AUTO 25004KT 6SM 23/M08 A2980 RMK T02301080 IEM_DS3505
ZBHH,2002-04-01 08:00,ZBHH 010800Z AUTO 25008KT 6SM 23/M09 A2980 RMK T02301090 IEM_DS3505
ZBHH,2002-04-01 09:00,ZBHH 010900Z AUTO 25006KT 19SM 24/M10 A2980 RMK SLP071 T02431103 57015 IEM_DS3505
ZBHH,2002-04-01 10:00,ZBHH 011000Z AUTO 26004KT 6SM 23/M11 A2980 RMK T02301110 IEM_DS3505
ZBHH,2002-04-01 11:00,ZBHH 011100Z AUTO 21002KT 6SM 20/M10 A2980 RMK T02001100 IEM_DS3505
ZBHH,2002-04-01 12:00,ZBHH 011200Z AUTO 00000KT 12SM 16/M01 A2983 RMK SLP086 T01631012 52007 IEM_DS3505
ZBHH,2002-04-01 13:00,ZBHH 011300Z AUTO 05002KT 6SM 13/M06 A2983 RMK T01301060 IEM_DS3505
ZBHH,2002-04-01 14:00,ZBHH 011400Z AUTO 05006KT 6SM 11/M06 A2983 RMK T01101060 IEM_DS3505
ZBHH,2002-04-01 15:00,ZBHH 011500Z AUTO 00000KT 19SM 13/M02 A2983 RMK SLP085 T01271016 52009 IEM_DS3505
ZBHH,2002-04-01 18:00,ZBHH 011800Z AUTO 00000KT 19SM 10/M02 RMK SLP082 T01021023 57001 IEM_DS3505
ZBHH,2002-04-01 21:00,ZBHH 012100Z AUTO 00000KT 19SM 09/M03 A2985 RMK SLP087 T00921032 52007 IEM_DS3505
ZBHH,2002-04-01 22:00,ZBHH 012200Z AUTO 08004KT 6SM 06/M05 A2988 RMK T00601050 IEM_DS3505
ZBHH,2002-04-01 23:00,ZBHH 012300Z AUTO 35006KT 6SM 10/M06 A2988 RMK T01001060 IEM_DS3505
ZBHH,2002-04-02 00:00,ZBHH 020000Z AUTO 32002KT 9SM 12/M04 A2991 RMK SLP120 T01211042 52019 IEM_DS3505
ZBHH,2002-04-02 01:00,ZBHH 020100Z AUTO 33002KT 6SM 14/M05 A2994 RMK T01401050 IEM_DS3505
ZBHH,2002-04-02 02:00,ZBHH 020200Z AUTO 36008KT 6SM 17/M04 A2994 RMK T01701040 IEM_DS3505
ZBHH,2002-04-02 03:00,ZBHH 020300Z AUTO 02008KT 9SM 19/M06 A2994 RMK SLP116 T01911057 52003 IEM_DS3505
ZBHH,2002-04-02 04:00,ZBHH 020400Z AUTO 04004KT 6SM 21/M05 A2991 RMK T02101050 IEM_DS3505
ZBHH,2002-04-02 05:00,ZBHH 020500Z AUTO 07004KT 6SM 22/M05 A2991 RMK T02201050 IEM_DS3505
ZBHH,2002-04-02 06:00,ZBHH 020600Z AUTO 32004KT 9SM 23/M03 A2988 RMK SLP096 T02311031 57015 IEM_DS3505
ZBHH,2002-04-02 07:00,ZBHH 020700Z AUTO 09012KT 6SM 23/M06 A2988 RMK T02301060 IEM_DS3505
ZBHH,2002-04-02 08:00,ZBHH 020800Z AUTO 06012KT 6SM 23/M06 A2985 RMK T02301060 IEM_DS3505
ZBHH,2002-04-02 09:00,ZBHH 020900Z AUTO 04010G19KT 6SM 23/M03 A2988 RMK SLP092 T02261030 57006 IEM_DS3505
ZBHH,2002-04-02 10:00,ZBHH 021000Z AUTO 07012KT 6SM 19/M05 A2991 RMK T01901050 IEM_DS3505
ZBHH,2002-04-02 11:00,ZBHH 021100Z AUTO 08012KT 6SM 16/M05 A2991 RMK T01601050 IEM_DS3505
ZBHH,2002-04-02 12:00,ZBHH 021200Z AUTO 09006KT 9SM 17/M03 A2997 RMK SLP134 T01671032 52031 IEM_DS3505
ZBHH,2002-04-02 13:00,ZBHH 021300Z AUTO 08010KT 6SM 13/M06 A3000 RMK T01301060 IEM_DS3505
ZBHH,2002-04-02 14:00,ZBHH 021400Z AUTO 09010KT 6SM 12/M05 A3000 RMK T01201050 IEM_DS3505
ZBHH,2002-04-02 15:00,ZBHH 021500Z AUTO 07006KT 9SM 13/M04 A3000 RMK SLP139 T01281037 52011 IEM_DS3505
ZBHH,2002-04-02 18:00,ZBHH 021800Z AUTO 07002KT 9SM 11/M03 RMK SLP124 T01101031 57009 IEM_DS3505
ZBHH,2002-04-02 21:00,ZBHH 022100Z AUTO 07002KT 16SM 09/M02 A2994 RMK SLP115 T00901018 57013 IEM_DS3505
ZBHH,2002-04-02 22:00,ZBHH 022200Z AUTO 06004KT 6SM 06/M05 A2994 RMK T00601050 IEM_DS3505
ZBHH,2002-04-02 23:00,ZBHH 022300Z AUTO 07006KT 6SM 07/M05 A2994 RMK T00701050 IEM_DS3505
ZBHH,2002-04-03 00:00,ZBHH 030000Z AUTO 00000KT 12SM 11/M01 A2994 RMK SLP136 T01061010 52010 IEM_DS3505
ZBHH,2002-04-03 01:00,ZBHH 030100Z AUTO 07010KT 6SM 14/M05 A2997 RMK T01401050 IEM_DS3505
ZBHH,2002-04-03 02:00,ZBHH 030200Z AUTO 08012KT 6SM 16/M03 A2997 RMK T01601030 IEM_DS3505
ZBHH,2002-04-03 03:00,ZBHH 030300Z AUTO 07006KT 12SM 18/M02 A2994 RMK SLP116 T01791015 57011 IEM_DS3505
ZBHH,2002-04-03 04:00,ZBHH 030400Z AUTO 14006KT 19/00 A2991 RMK T01900000 IEM_DS3505
ZBHH,2002-04-03 05:00,ZBHH 030500Z AUTO 16004KT 21/01 A2988 RMK T02100010 IEM_DS3505
ZBHH,2002-04-03 06:00,ZBHH 030600Z AUTO 20004KT 12SM 21/02 A2985 RMK SLP087 T02140016 57022 IEM_DS3505
ZBHH,2002-04-03 07:00,ZBHH 030700Z AUTO 20004KT 23/01 A2983 RMK T02300010 IEM_DS3505
ZBHH,2002-04-03 08:00,ZBHH 030800Z AUTO 13008KT 23/01 A2980 RMK T02300010 IEM_DS3505
ZBHH,2002-04-03 09:00,ZBHH 030900Z AUTO 11008KT 7SM 22/02 A2977 RMK SLP055 T02250024 57030 IEM_DS3505
ZBHH,2002-04-03 10:00,ZBHH 031000Z AUTO 14012KT 21/M01 A2977 RMK T02101010 IEM_DS3505
ZBHH,2002-04-03 11:00,ZBHH 031100Z AUTO 14010KT 19/M01 A2977 RMK T01901010 IEM_DS3505
ZBHH,2002-04-03 12:00,ZBHH 031200Z AUTO 07002KT 9SM 19/M01 A2977 RMK SLP065 T01901008 52005 IEM_DS3505
ZBHH,2002-04-03 13:00,ZBHH 031300Z AUTO 14010KT 17/M03 A2980 RMK T01701030 IEM_DS3505
ZBHH,2002-04-03 14:00,ZBHH 031400Z AUTO 14002KT 3SM 15/M02 A2980 RMK T01501020 IEM_DS3505
ZBHH,2002-04-03 15:00,ZBHH 031500Z AUTO 11002KT 9SM 16/M01 A2980 RMK SLP063 T01571013 52006 IEM_DS3505
ZBHH,2002-04-03 16:00,ZBHH 031600Z AUTO 00000KT 3SM 13/01 A2980 RMK T01300010 IEM_DS3505
ZBHH,2002-04-03 17:00,ZBHH 031700Z AUTO 20008KT 4SM 10/06 A2983 RMK T01000060 IEM_DS3505
ZBHH,2002-04-03 18:00,ZBHH 031800Z AUTO 00000KT 9SM 11/08 A2980 RMK 60000 SLP067 T01060075 54000 IEM_DS3505
ZBHH,2002-04-03 19:00,ZBHH 031900Z AUTO 00000KT 4SM 09/07 A2980 RMK T00900070 IEM_DS3505
ZBHH,2002-04-03 20:00,ZBHH 032000Z AUTO 12002KT 4SM 08/07 A2977 RMK T00800070 IEM_DS3505
ZBHH,2002-04-03 21:00,ZBHH 032100Z AUTO 00000KT 9SM 09/08 A2977 RMK 70013 SLP060 T00910075 57007 IEM_DS3505
ZBHH,2002-04-03 22:00,ZBHH 032200Z AUTO 10002KT 2 1/2SM 08/06 A2977 RMK T00800060 IEM_DS3505
ZBHH,2002-04-03 23:00,ZBHH 032300Z AUTO 15002KT 2 1/2SM 08/07 A2977 RMK T00800070 IEM_DS3505
ZBHH,2002-04-04 00:00,ZBHH 040000Z AUTO 07004KT 6SM 09/08 A2977 RMK 60051 SLP068 T00870077 54000 IEM_DS3505
ZBHH,2002-04-04 01:00,ZBHH 040100Z AUTO 03002KT 1 1/4SM 08/07 A2977 RMK T00800070 IEM_DS3505
ZBHH,2002-04-04 02:00,ZBHH 040200Z AUTO 06004KT 1 1/4SM 08/07 A2977 RMK T00800070 IEM_DS3505
ZBHH,2002-04-04 03:00,ZBHH 040300Z AUTO 07004KT 9SM 09/08 A2974 RMK SLP068 T00920080 57005 IEM_DS3505
ZBHH,2002-04-04 04:00,ZBHH 040400Z AUTO 05002KT 1 1/4SM 09/08 A2974 RMK T00900080 IEM_DS3505
ZBHH,2002-04-04 05:00,ZBHH 040500Z AUTO 06002KT 1SM 09/08 A2971 RMK T00900080 IEM_DS3505
ZBHH,2002-04-04 06:00,ZBHH 040600Z AUTO 00000KT 6SM 10/09 A2971 RMK 60063 SLP064 T01040091 57012 IEM_DS3505
ZBHH,2002-04-04 07:00,ZBHH 040700Z AUTO 23004KT 2SM 10/09 A2971 RMK T01000090 IEM_DS3505
ZBHH,2002-04-04 08:00,ZBHH 040800Z AUTO 23004KT 2 1/2SM 10/09 A2971 RMK T01000090 IEM_DS3505
ZBHH,2002-04-04 09:00,ZBHH 040900Z AUTO 32002KT 9SM 12/05 A2971 RMK SLP062 T01160053 57002 IEM_DS3505
ZBHH,2002-04-04 10:00,ZBHH 041000Z AUTO 34002KT 7SM 10/06 A2971 RMK T01000060 IEM_DS3505
ZBHH,2002-04-04 11:00,ZBHH 041100Z AUTO 34002KT 7SM 09/06 A2974 RMK T00900060 IEM_DS3505
ZBHH,2002-04-04 12:00,ZBHH 041200Z AUTO 32002KT 12SM 10/05 A2974 RMK 60008 SLP080 T00980053 52012 IEM_DS3505
ZBHH,2002-04-04 13:00,ZBHH 041300Z AUTO 35004KT 7SM 08/05 A2977 RMK T00800050 IEM_DS3505
ZBHH,2002-04-04 14:00,ZBHH 041400Z AUTO 36002KT 7SM 08/05 A2977 RMK T00800050 IEM_DS3505
ZBHH,2002-04-04 15:00,ZBHH 041500Z AUTO 00000KT 12SM 09/06 A2974 RMK SLP083 T00860059 52001 IEM_DS3505
ZBHH,2002-04-04 16:00,ZBHH 041600Z AUTO 00000KT 7SM 07/06 A2974 RMK T00700060 IEM_DS3505
ZBHH,2002-04-04 17:00,ZBHH 041700Z AUTO 23002KT 7SM 07/06 A2974 RMK T00700060 IEM_DS3505
ZBHH,2002-04-04 18:00,ZBHH 041800Z AUTO 25002KT 16SM 08/04 A2974 RMK 60004 SLP081 T00790045 57001 IEM_DS3505
ZBHH,2002-04-04 20:00,ZBHH 042000Z AUTO 17002KT 7SM 06/05 A2971 RMK T00600050 IEM_DS3505
ZBHH,2002-04-04 21:00,ZBHH 042100Z AUTO 00000KT 16SM 07/06 A2971 RMK 70119 SLP063 T00740055 57014 IEM_DS3505
ZBHH,2002-04-04 22:00,ZBHH 042200Z AUTO 16002KT 3/8SM 05/05 A2968 RMK T00500050 IEM_DS3505
ZBHH,2002-04-04 23:00,ZBHH 042300Z AUTO 10004KT 1/8SM 04/04 A2971 RMK T00400040 IEM_DS3505
ZBHH,2002-04-05 00:00,ZBHH 050000Z AUTO 04002KT 08/06 A2971 RMK 60002 SLP067 T00780057 54000 IEM_DS3505
ZBHH,2002-04-05 01:00,ZBHH 050100Z AUTO 11002KT 1SM 05/05 A2971 RMK T00500050 IEM_DS3505
ZBHH,2002-04-05 02:00,ZBHH 050200Z AUTO 00000KT 4SM 06/06 A2971 RMK T00600060 IEM_DS3505
ZBHH,2002-04-05 03:00,ZBHH 050300Z AUTO 20002KT 6SM 10/06 A2971 RMK SLP068 T01000055 52003 IEM_DS3505
ZBHH,2002-04-05 04:00,ZBHH 050400Z AUTO 31002KT 7SM 10/06 A2968 RMK T01000060 IEM_DS3505
ZBHH,2002-04-05 05:00,ZBHH 050500Z AUTO 26004KT 12/06 A2965 RMK T01200060 IEM_DS3505
ZBHH,2002-04-05 06:00,ZBHH 050600Z AUTO 22004KT 12SM 14/06 A2962 RMK SLP035 T01360057 57023 IEM_DS3505
ZBHH,2002-04-05 07:00,ZBHH 050700Z AUTO 23006KT 7SM 13/07 A2962 RMK T01300070 IEM_DS3505
ZBHH,2002-04-05 08:00,ZBHH 050800Z AUTO 20006KT 7SM 14/07 A2959 RMK T01400070 IEM_DS3505
ZBHH,2002-04-05 09:00,ZBHH 050900Z AUTO 20006KT 19SM 14/07 A2959 RMK SLP020 T01420067 57013 IEM_DS3505
ZBHH,2002-04-05 10:00,ZBHH 051000Z AUTO 21006KT 7SM 14/07 A2959 RMK T01400070 IEM_DS3505
ZBHH,2002-04-05 11:00,ZBHH 051100Z AUTO 19002KT 7SM 13/07 A2959 RMK T01300070 IEM_DS3505
ZBHH,2002-04-05 12:00,ZBHH 051200Z AUTO 20004KT 12SM 13/07 A2959 RMK SLP016 T01330069 57005 IEM_DS3505
ZBHH,2002-04-05 13:00,ZBHH 051300Z AUTO 11002KT 3SM 09/07 A2959 RMK T00900070 IEM_DS3505
ZBHH,2002-04-05 14:00,ZBHH 051400Z AUTO 10002KT 3SM 09/07 A2956 RMK T00900070 IEM_DS3505
ZBHH,2002-04-05 15:00,ZBHH 051500Z AUTO 07004KT 19SM 11/07 A2956 RMK SLP008 T01060071 57008 IEM_DS3505
ZBHH,2002-04-05 16:00,ZBHH 051600Z AUTO 05002KT 2 1/2SM 07/06 A2956 RMK T00700060 IEM_DS3505
ZBHH,2002-04-05 17:00,ZBHH 051700Z AUTO 10004KT 4SM 07/05 A2953 RMK T00700050 IEM_DS3505
ZBHH,2002-04-05 18:00,ZBHH 051800Z AUTO 02004KT 12SM 09/06 A2953 RMK SLP992 T00900059 57010 IEM_DS3505
ZBHH,2002-04-05 19:00,ZBHH 051900Z AUTO 33004KT 4SM 07/05 A2953 RMK T00700050 IEM_DS3505
ZBHH,2002-04-05 20:00,ZBHH 052000Z AUTO 34010KT 2 1/2SM 06/M02 A2956 RMK T00601020 IEM_DS3505
ZBHH,2002-04-05 21:00,ZBHH 052100Z AUTO 32004KT 7SM 07/M04 A2959 RMK SLP025 T00741035 52027 IEM_DS3505
ZBHH,2002-04-05 22:00,ZBHH 052200Z AUTO 01004KT 3SM 05/M02 A2962 RMK T00501020 IEM_DS3505
ZBHH,2002-04-05 23:00,ZBHH 052300Z AUTO 34019G29KT 1SM 02/M10 A2968 RMK T00201100 IEM_DS3505
ZBHH,2002-04-06 00:00,ZBHH 060000Z AUTO 34010G23KT 5SM 03/M15 A2971 RMK SLP074 T00321148 52033 IEM_DS3505
ZBHH,2002-04-06 01:00,ZBHH 060100Z AUTO 36016KT 2 1/2SM 02/M12 A2974 RMK T00201120 IEM_DS3505
ZBHH,2002-04-06 02:00,ZBHH 060200Z AUTO 30019KT 01/M16 A2980 RMK T00101160 IEM_DS3505
ZBHH,2002-04-06 03:00,ZBHH 060300Z AUTO 29010KT 7SM 03/M19 A2983 RMK SLP120 T00311192 52035 IEM_DS3505
ZBHH,2002-04-06 04:00,ZBHH 060400Z AUTO 32017G27KT 7SM 02/M13 A2985 RMK T00201130 IEM_DS3505
ZBHH,2002-04-06 05:00,ZBHH 060500Z AUTO 31017G27KT 6SM 03/M12 A2988 RMK T00301120 IEM_DS3505
ZBHH,2002-04-06 06:00,ZBHH 060600Z AUTO 29012G37KT 16SM 04/M13 A2988 RMK SLP149 T00371131 52024 IEM_DS3505
ZBHH,2002-04-06 07:00,ZBHH 060700Z AUTO 29017KT 6SM 03/M14 A2991 RMK T00301140 IEM_DS3505
ZBHH,2002-04-06 08:00,ZBHH 060800Z AUTO 30019G29KT 02/M18 A2991 RMK T00201180 IEM_DS3505
ZBHH,2002-04-06 09:00,ZBHH 060900Z AUTO 32010KT 7SM 03/M20 A2994 RMK SLP173 T00261201 52015 IEM_DS3505
ZBHH,2002-04-06 10:00,ZBHH 061000Z AUTO 31017G27KT 3SM 01/M18 A3000 RMK T00101180 IEM_DS3505
ZBHH,2002-04-06 11:00,ZBHH 061100Z AUTO 32017G27KT 1 1/4SM 00/M19 A3003 RMK T00001190 IEM_DS3505
ZBHH,2002-04-06 12:00,ZBHH 061200Z AUTO 29010KT 12SM 01/M19 A3006 RMK SLP223 T00071192 52031 IEM_DS3505
ZBHH,2002-04-06 13:00,ZBHH 061300Z AUTO 31014G23KT 1 1/4SM M01/M18 A3009 RMK T10101180 IEM_DS3505
ZBHH,2002-04-06 14:00,ZBHH 061400Z AUTO 31014G23KT 1 1/4SM M02/M19 A3012 RMK T10201190 IEM_DS3505
ZBHH,2002-04-06 15:00,ZBHH 061500Z AUTO 32006KT 12SM M01/M20 A3012 RMK SLP254 T10101199 52024 IEM_DS3505
ZBHH,2002-04-06 16:00,ZBHH 061600Z AUTO 30010KT 2 1/2SM M02/M19 A3015 RMK T10201190 IEM_DS3505
ZBHH,2002-04-06 18:00,ZBHH 061800Z AUTO 29006KT 19SM M02/M22 A3012 RMK SLP252 T10191219 57003 IEM_DS3505
ZBHH,2002-04-06 19:00,ZBHH 061900Z AUTO 30014KT M03/M21 A3009 RMK T10301210 IEM_DS3505
ZBHH,2002-04-06 20:00,ZBHH 062000Z AUTO 30014KT 5SM M03/M21 A3009 RMK T10301210 IEM_DS3505
ZBHH,2002-04-06 21:00,ZBHH 062100Z AUTO 32004KT 19SM M02/M22 A3009 RMK SLP247 T10251217 57008 IEM_DS3505
ZBHH,2002-04-06 22:00,ZBHH 062200Z AUTO 32010KT 5SM M04/M20 A3012 RMK T10401200 IEM_DS3505
ZBHH,2002-04-06 23:00,ZBHH 062300Z AUTO 30008KT 5SM M04/M19 A3012 RMK T10401190 IEM_DS3505
ZBHH,2002-04-07 00:00,ZBHH 070000Z AUTO 32006KT 19SM M03/M19 A3015 RMK SLP271 T10261191 52017 IEM_DS3505
ZBHH,2002-04-07 01:00,ZBHH 070100Z AUTO 30012KT 6SM M02/M20 A3015 RMK T10201200 IEM_DS3505
ZBHH,2002-04-07 02:00,ZBHH 070200Z AUTO 29014G23KT 6SM M01/M19 A3012 RMK T10101190 IEM_DS3505
ZBHH,2002-04-07 03:00,ZBHH 070300Z AUTO 29010KT 19SM 01/M21 A3012 RMK SLP254 T00081209 57001 IEM_DS3505
ZBHH,2002-04-07 04:00,ZBHH 070400Z AUTO 31017KT 6SM 01/M19 A3009 RMK T00101190 IEM_DS3505
ZBHH,2002-04-07 05:00,ZBHH 070500Z AUTO 30019G29KT 6SM 02/M19 A3006 RMK T00201190 IEM_DS3505
ZBHH,2002-04-07 06:00,ZBHH 070600Z AUTO 29012KT 16SM 04/M18 A3003 RMK SLP220 T00361178 57026 IEM_DS3505
ZBHH,2002-04-07 07:00,ZBHH 070700Z AUTO 31023G35KT 6SM 02/M21 A3000 RMK T00201210 IEM_DS3505
ZBHH,2002-04-07 08:00,ZBHH 070800Z AUTO 32027G45KT 6SM 01/M22 A3000 RMK T00101220 IEM_DS3505
ZBHH,2002-04-07 09:00,ZBHH 070900Z AUTO 29016KT 4SM 02/M24 A3000 RMK SLP221 T00151239 57005 IEM_DS3505
ZBHH,2002-04-07 10:00,ZBHH 071000Z AUTO 30019G29KT 3SM A3003 RMK IEM_DS3505
ZBHH,2002-04-07 11:00,ZBHH 071100Z AUTO 30019G31KT 3SM M01/M23 A3003 RMK T10101230 IEM_DS3505
ZBHH,2002-04-07 12:00,ZBHH 071200Z AUTO 29008G29KT 3SM M00/M26 A3006 RMK SLP245 T10041260 52017 IEM_DS3505
ZBHH,2002-04-07 13:00,ZBHH 071300Z AUTO 30017G27KT 2SM M02/M24 A3006 RMK T10201240 IEM_DS3505
ZBHH,2002-04-07 14:00,ZBHH 071400Z AUTO 30017G27KT 2 1/2SM M03/M25 A3009 RMK T10301250 IEM_DS3505
ZBHH,2002-04-07 15:00,ZBHH 071500Z AUTO 29012KT 2 1/2SM M02/M28 A3006 RMK SLP247 T10201278 52005 IEM_DS3505
ZBHH,2002-04-07 16:00,ZBHH 071600Z AUTO 30016G27KT 2SM M04/M23 A3006 RMK T10401230 IEM_DS3505
ZBHH,2002-04-07 17:00,ZBHH 071700Z AUTO 30017KT 2 1/2SM M04/M23 A3006 RMK T10401230 IEM_DS3505
ZBHH,2002-04-07 18:00,ZBHH 071800Z AUTO 29006KT 4SM M03/M24 A3006 RMK SLP233 T10321241 57008 IEM_DS3505
ZBHH,2002-04-07 19:00,ZBHH 071900Z AUTO 30012KT M05/M20 A3006 RMK T10501200 IEM_DS3505
ZBHH,2002-04-07 20:00,ZBHH 072000Z AUTO 30017G27KT 5SM M06/M21 A3006 RMK T10601210 IEM_DS3505
ZBHH,2002-04-07 21:00,ZBHH 072100Z AUTO 27012G27KT 7SM M05/M22 A3009 RMK SLP256 T10541221 52010 IEM_DS3505
ZBHH,2002-04-07 22:00,ZBHH 072200Z AUTO 31017G27KT 6SM M07/M20 A3009 RMK T10701200 IEM_DS3505
ZBHH,2002-04-07 23:00,ZBHH 072300Z AUTO 31016KT 6SM M07/M19 A3012 RMK T10701190 IEM_DS3505
ZBHH,2002-04-08 00:00,ZBHH 080000Z AUTO 32014G21KT 7SM M06/M23 A3012 RMK SLP274 T10581233 52011 IEM_DS3505
ZBHH,2002-04-08 01:00,ZBHH 080100Z AUTO 31014G25KT 6SM M06/M19 A3015 RMK T10601190 IEM_DS3505
ZBHH,2002-04-08 02:00,ZBHH 080200Z AUTO 32014G23KT 6SM M04/M19 A3015 RMK T10401190 IEM_DS3505
ZBHH,2002-04-08 03:00,ZBHH 080300Z AUTO 29016KT 19SM M02/M21 A3015 RMK SLP274 T10241214 52004 IEM_DS3505
ZBHH,2002-04-08 04:00,ZBHH 080400Z AUTO 32012G23KT 6SM M02/M17 A3012 RMK T10201170 IEM_DS3505
ZBHH,2002-04-08 05:00,ZBHH 080500Z AUTO 31016G25KT 7SM M01/M17 A3012 RMK T10101170 IEM_DS3505
ZBHH,2002-04-08 06:00,ZBHH 080600Z AUTO 29012G29KT 12SM 01/M21 A3012 RMK SLP257 T00111208 57010 IEM_DS3505
ZBHH,2002-04-08 07:00,ZBHH 080700Z AUTO 32016G27KT 6SM 01/M17 A3009 RMK T00101170 IEM_DS3505
ZBHH,2002-04-08 08:00,ZBHH 080800Z AUTO 32017KT 7SM 02/M16 A3009 RMK T00201160 IEM_DS3505
ZBHH,2002-04-08 09:00,ZBHH 080900Z AUTO 34010KT 16SM 02/M21 A3009 RMK SLP256 T00221206 57003 IEM_DS3505
ZBHH,2002-04-08 10:00,ZBHH 081000Z AUTO 32016KT 6SM 00/M16 A3012 RMK T00001160 IEM_DS3505
ZBHH,2002-04-08 11:00,ZBHH 081100Z AUTO 32012KT 6SM 00/M16 A3012 RMK T00001160 IEM_DS3505
ZBHH,2002-04-08 12:00,ZBHH 081200Z AUTO 34004KT 16SM 00/M17 A3015 RMK SLP280 T00051172 52016 IEM_DS3505
ZBHH,2002-04-08 13:00,ZBHH 081300Z AUTO 31008KT 6SM M01/M16 A3018 RMK T10101160 IEM_DS3505
ZBHH,2002-04-08 14:00,ZBHH 081400Z AUTO 30004KT 6SM M02/M15 A3018 RMK T10201150 IEM_DS3505
ZBHH,2002-04-08 15:00,ZBHH 081500Z AUTO 00000KT 19SM M00/M18 A3018 RMK SLP281 T10031178 52007 IEM_DS3505
ZBHH,2002-04-08 16:00,ZBHH 081600Z AUTO 00000KT 6SM M03/M14 A3018 RMK T10301140 IEM_DS3505
ZBHH,2002-04-08 17:00,ZBHH 081700Z AUTO 26006KT 6SM M03/M14 A3015 RMK T10301140 IEM_DS3505
ZBHH,2002-04-08 18:00,ZBHH 081800Z AUTO 00000KT 19SM M03/M17 RMK SLP272 T10271169 57006 IEM_DS3505
ZBHH,2002-04-08 21:00,ZBHH 082100Z AUTO 25002KT 19SM M01/M15 A3012 RMK SLP251 T10101150 57012 IEM_DS3505
ZBHH,2002-04-08 22:00,ZBHH 082200Z AUTO 14002KT 6SM M06/M11 A3012 RMK T10601110 IEM_DS3505
ZBHH,2002-04-08 23:00,ZBHH 082300Z AUTO 14002KT 6SM M05/M10 A3012 RMK T10501100 IEM_DS3505
ZBHH,2002-04-09 00:00,ZBHH 090000Z AUTO 02002KT 16SM 00/M16 A3012 RMK SLP256 T00041159 52004 IEM_DS3505
ZBHH,2002-04-09 01:00,ZBHH 090100Z AUTO 31006KT 6SM 00/M15 A3012 RMK T00001150 IEM_DS3505
ZBHH,2002-04-09 03:00,ZBHH 090300Z AUTO 27012KT 6SM 03/M15 A3012 RMK T00301150 IEM_DS3505
ZBHH,2002-04-09 04:00,ZBHH 090400Z AUTO 29012KT 6SM 04/M14 A3012 RMK T00401140 IEM_DS3505
ZBHH,2002-04-09 05:00,ZBHH 090500Z AUTO 32014KT 6SM 05/M15 A3009 RMK T00501150 IEM_DS3505
ZBHH,2002-04-09 06:00,ZBHH 090600Z AUTO 32008G21KT 19SM 06/M16 A3009 RMK SLP230 T00651156 57014 IEM_DS3505
ZBHH,2002-04-09 07:00,ZBHH 090700Z AUTO 31016KT 6SM 06/M14 A3006 RMK T00601140 IEM_DS3505
ZBHH,2002-04-09 08:00,ZBHH 090800Z AUTO 33014KT 6SM 06/M14 A3006 RMK T00601140 IEM_DS3505
ZBHH,2002-04-09 09:00,ZBHH 090900Z AUTO 32012KT 19SM 06/M16 A3006 RMK SLP226 T00601155 57001 IEM_DS3505
ZBHH,2002-04-09 10:00,ZBHH 091000Z AUTO 33016KT 6SM 04/M14 A3009 RMK T00401140 IEM_DS3505
ZBHH,2002-04-09 11:00,ZBHH 091100Z AUTO 31010KT 6SM 03/M14 A3009 RMK T00301140 IEM_DS3505
ZBHH,2002-04-09 12:00,ZBHH 091200Z AUTO 34010KT 19SM 03/M15 A3012 RMK SLP247 T00341151 52016 IEM_DS3505
ZBHH,2002-04-09 13:00,ZBHH 091300Z AUTO 33008KT 6SM 01/M16 A3015 RMK T00101160 IEM_DS3505
ZBHH,2002-04-09 14:00,ZBHH 091400Z AUTO 30004KT 6SM 00/M16 A3015 RMK T00001160 IEM_DS3505
ZBHH,2002-04-09 18:00,ZBHH 091800Z AUTO 34004KT 19SM 00/M20 RMK SLP251 T00051199 52001 IEM_DS3505
ZBHH,2002-04-09 21:00,ZBHH 092100Z AUTO 32004KT 19SM M00/M20 A3015 RMK SLP249 T10041200 57004 IEM_DS3505
ZBHH,2002-04-09 22:00,ZBHH 092200Z AUTO 02002KT 6SM M05/M14 A3015 RMK T10501140 IEM_DS3505
ZBHH,2002-04-09 23:00,ZBHH 092300Z AUTO 18002KT 6SM M04/M12 A3015 RMK T10401120 IEM_DS3505
ZBHH,2002-04-10 00:00,ZBHH 100000Z AUTO 14002KT 12SM 01/M13 A3015 RMK SLP258 T00111134 52005 IEM_DS3505
ZBHH,2002-04-10 01:00,ZBHH 100100Z AUTO 15004KT 6SM 01/M14 A3015 RMK T00101140 IEM_DS3505
ZBHH,2002-04-10 02:00,ZBHH 100200Z AUTO 20004KT 6SM 02/M14 A3015 RMK T00201140 IEM_DS3505
ZBHH,2002-04-10 03:00,ZBHH 100300Z AUTO 18006KT 12SM 05/M14 A3015 RMK SLP248 T00521135 57006 IEM_DS3505
ZBHH,2002-04-10 04:00,ZBHH 100400Z AUTO 21008KT 6SM 06/M14 A3012 RMK T00601140 IEM_DS3505
ZBHH,2002-04-10 05:00,ZBHH 100500Z AUTO 21006KT 6SM 07/M15 A3009 RMK T00701150 IEM_DS3505
ZBHH,2002-04-10 06:00,ZBHH 100600Z AUTO 20012KT 12SM 09/M12 A3006 RMK SLP215 T00891117 57021 IEM_DS3505
ZBHH,2002-04-10 07:00,ZBHH 100700Z AUTO 22010KT 6SM 09/M14 A3003 RMK T00901140 IEM_DS3505
ZBHH,2002-04-10 08:00,ZBHH 100800Z AUTO 23010KT 6SM 09/M14 A3003 RMK T00901140 IEM_DS3505
ZBHH,2002-04-10 09:00,ZBHH 100900Z AUTO 18006KT 12SM 12/M14 A3000 RMK SLP147 T01241142 57012 IEM_DS3505
ZBHH,2002-04-10 10:00,ZBHH 101000Z AUTO 23010G19KT 6SM 08/M14 A3000 RMK T00801140 IEM_DS3505
ZBHH,2002-04-10 11:00,ZBHH 101100Z AUTO 24010KT 6SM 07/M14 A3000 RMK T00701140 IEM_DS3505
ZBHH,2002-04-10 12:00,ZBHH 101200Z AUTO 27004KT 16SM 07/M12 A3003 RMK SLP201 T00731120 52004 IEM_DS3505
ZBHH,2002-04-10 13:00,ZBHH 101300Z AUTO 00000KT 6SM 05/M11 A3003 RMK T00501110 IEM_DS3505
ZBHH,2002-04-10 14:00,ZBHH 101400Z AUTO 12002KT 6SM 03/M09 A3003 RMK T00301090 IEM_DS3505
ZBHH,2002-04-10 15:00,ZBHH 101500Z AUTO 22002KT 12SM 05/M08 A3003 RMK SLP193 T00541081 57002 IEM_DS3505
ZBHH,2002-04-10 18:00,ZBHH 101800Z AUTO 00000KT 19SM 02/M10 RMK SLP173 T00231104 57016 IEM_DS3505
ZBHH,2002-04-10 21:00,ZBHH 102100Z AUTO 00000KT 19SM 00/M09 A2991 RMK SLP164 T00021092 57012 IEM_DS3505
ZBHH,2002-04-10 22:00,ZBHH 102200Z AUTO 05002KT 6SM M03/M08 A2991 RMK T10301080 IEM_DS3505
ZBHH,2002-04-10 23:00,ZBHH 102300Z AUTO 08004KT 6SM M03/M07 A2991 RMK T10301070 IEM_DS3505
ZBHH,2002-04-11 00:00,ZBHH 110000Z AUTO 04002KT 19SM 03/M09 A2991 RMK SLP156 T00301091 57005 IEM_DS3505
ZBHH,2002-04-11 01:00,ZBHH 110100Z AUTO 14002KT 6SM 04/M09 A2991 RMK T00401090 IEM_DS3505
ZBHH,2002-04-11 02:00,ZBHH 110200Z AUTO 05002KT 6SM 05/M10 A2991 RMK T00501100 IEM_DS3505
ZBHH,2002-04-11 03:00,ZBHH 110300Z AUTO 32012KT 19SM 09/M20 A2991 RMK SLP152 T00881199 52004 IEM_DS3505
ZBHH,2002-04-11 04:00,ZBHH 110400Z AUTO 30019G29KT 6SM 10/M17 A2991 RMK T01001170 IEM_DS3505
ZBHH,2002-04-11 05:00,ZBHH 110500Z AUTO 32021G31KT 6SM 09/M17 A2991 RMK T00901170 IEM_DS3505
ZBHH,2002-04-11 09:00,ZBHH 110900Z AUTO 29014KT 19SM 09/M22 RMK SLP178 T00911221 52003 IEM_DS3505
ZBHH,2002-04-11 10:00,ZBHH 111000Z AUTO 31014KT 6SM 08/M17 A2997 RMK T00801170 IEM_DS3505
ZBHH,2002-04-11 11:00,ZBHH 111100Z AUTO 32010KT 6SM 07/M18 A2997 RMK T00701180 IEM_DS3505
ZBHH,2002-04-11 12:00,ZBHH 111200Z AUTO 32004KT 19SM 07/M15 A3000 RMK SLP194 T00671149 52015 IEM_DS3505
ZBHH,2002-04-11 13:00,ZBHH 111300Z AUTO 33006KT 6SM 04/M16 A3003 RMK T00401160 IEM_DS3505
ZBHH,2002-04-11 14:00,ZBHH 111400Z AUTO 32006KT 6SM 04/M15 A3003 RMK T00401150 IEM_DS3505
ZBHH,2002-04-11 15:00,ZBHH 111500Z AUTO 32004KT 19SM 04/M13 A3003 RMK SLP194 T00381130 52006 IEM_DS3505
ZBHH,2002-04-11 18:00,ZBHH 111800Z AUTO 00000KT 19SM 02/M12 RMK SLP189 T00161123 57009 IEM_DS3505
ZBHH,2002-04-11 21:00,ZBHH 112100Z AUTO 00000KT 19SM M01/M12 A3000 RMK SLP189 T10081121 57004 IEM_DS3505
ZBHH,2002-04-11 22:00,ZBHH 112200Z AUTO 07002KT 6SM M05/M09 A3000 RMK T10501090 IEM_DS3505
ZBHH,2002-04-11 23:00,ZBHH 112300Z AUTO 09002KT 6SM M04/M07 A3003 RMK T10401070 IEM_DS3505
ZBHH,2002-04-12 00:00,ZBHH 120000Z AUTO 07004KT 12SM 02/M11 A3003 RMK SLP199 T00221110 52010 IEM_DS3505
ZBHH,2002-04-12 01:00,ZBHH 120100Z AUTO 16002KT 6SM 02/M11 A3003 RMK T00201110 IEM_DS3505
ZBHH,2002-04-12 02:00,ZBHH 120200Z AUTO 11002KT 6SM 03/M11 A3003 RMK T00301110 IEM_DS3505
ZBHH,2002-04-12 03:00,ZBHH 120300Z AUTO 14002KT 12SM 06/M09 A3000 RMK SLP189 T00631093 57007 IEM_DS3505
ZBHH,2002-04-12 04:00,ZBHH 120400Z AUTO 22008KT 6SM 08/M14 A2994 RMK T00801140 IEM_DS3505
ZBHH,2002-04-12 05:00,ZBHH 120500Z AUTO 23008KT 6SM 10/M12 A2991 RMK T01001120 IEM_DS3505
ZBHH,2002-04-12 06:00,ZBHH 120600Z AUTO 20008KT 19SM 11/M06 A2988 RMK SLP139 T01121059 57038 IEM_DS3505
ZBHH,2002-04-12 07:00,ZBHH 120700Z AUTO 24010KT 6SM 13/M11 A2983 RMK T01301110 IEM_DS3505
ZBHH,2002-04-12 08:00,ZBHH 120800Z AUTO 25008KT 6SM 14/M10 A2980 RMK T01401100 IEM_DS3505
ZBHH,2002-04-12 09:00,ZBHH 120900Z AUTO 20006KT 16SM 14/M09 A2974 RMK SLP093 T01421087 57039 IEM_DS3505
ZBHH,2002-04-12 10:00,ZBHH 121000Z AUTO 27004KT 6SM 14/M08 A2971 RMK T01401080 IEM_DS3505
ZBHH,2002-04-12 11:00,ZBHH 121100Z AUTO 35002KT 6SM 13/M07 A2971 RMK T01301070 IEM_DS3505
ZBHH,2002-04-12 12:00,ZBHH 121200Z AUTO 00000KT 12SM 12/M06 A2971 RMK SLP078 T01181064 57012 IEM_DS3505
ZBHH,2002-04-12 13:00,ZBHH 121300Z AUTO 04004KT 09/M05 A2971 RMK T00901050 IEM_DS3505
ZBHH,2002-04-12 14:00,ZBHH 121400Z AUTO 07004KT 05/M02 A2971 RMK T00501020 IEM_DS3505
ZBHH,2002-04-12 15:00,ZBHH 121500Z AUTO 00000KT 12SM 08/M04 A2968 RMK SLP069 T00791038 57008 IEM_DS3505
ZBHH,2002-04-12 18:00,ZBHH 121800Z AUTO 00000KT 12SM 07/M02 A2965 RMK SLP048 T00661023 57011 IEM_DS3505
ZBHH,2002-04-12 19:00,ZBHH 121900Z AUTO 06002KT 6SM 03/M02 A2962 RMK T00301020 IEM_DS3505
ZBHH,2002-04-12 21:00,ZBHH 122100Z AUTO 00000KT 12SM 04/M02 A2959 RMK SLP027 T00451022 57017 IEM_DS3505
ZBHH,2002-04-12 22:00,ZBHH 122200Z AUTO 00000KT 6SM 03/M03 A2959 RMK T00301030 IEM_DS3505
ZBHH,2002-04-12 23:00,ZBHH 122300Z AUTO 06004KT 6SM 04/M03 A2959 RMK T00401030 IEM_DS3505
ZBHH,2002-04-13 00:00,ZBHH 130000Z AUTO 00000KT 5SM 08/M02 A2956 RMK SLP018 T00791020 57006 IEM_DS3505
ZBHH,2002-04-13 01:00,ZBHH 130100Z AUTO 35002KT 11/M03 A2956 RMK T01101030 IEM_DS3505
ZBHH,2002-04-13 02:00,ZBHH 130200Z AUTO 26002KT 12SM 13/M06 A2956 RMK T01301060 IEM_DS3505
ZBHH,2002-04-13 03:00,ZBHH 130300Z AUTO 20004KT 12SM 16/M04 A2956 RMK SLP003 T01641040 57004 IEM_DS3505
ZBHH,2002-04-13 04:00,ZBHH 130400Z AUTO 28006KT 3SM 19/M04 A2953 RMK T01901040 IEM_DS3505
ZBHH,2002-04-13 05:00,ZBHH 130500Z AUTO 25008KT 22/M06 A2950 RMK T02201060 IEM_DS3505
ZBHH,2002-04-13 06:00,ZBHH 130600Z AUTO 20010KT 12SM 22/M05 A2947 RMK SLP965 T02191048 57025 IEM_DS3505
ZBHH,2002-04-13 07:00,ZBHH 130700Z AUTO 23012G21KT 24/M06 A2944 RMK T02401060 IEM_DS3505
ZBHH,2002-04-13 08:00,ZBHH 130800Z AUTO 23014KT 24/M08 A2941 RMK T02401080 IEM_DS3505
ZBHH,2002-04-13 09:00,ZBHH 130900Z AUTO 20002KT 12SM 24/M08 A2938 RMK SLP941 T02391080 57022 IEM_DS3505
ZBHH,2002-04-13 10:00,ZBHH 131000Z AUTO 22006KT 22/M06 A2938 RMK T02201060 IEM_DS3505
ZBHH,2002-04-13 12:00,ZBHH 131200Z AUTO 18002KT 12SM 20/M02 A2938 RMK SLP935 T02041015 57005 IEM_DS3505
ZBHH,2002-04-13 13:00,ZBHH 131300Z AUTO 00000KT 2 1/2SM 16/M01 A2938 RMK T01601010 IEM_DS3505
ZBHH,2002-04-13 14:00,ZBHH 131400Z AUTO 07002KT 3SM 15/M01 A2941 RMK T01501010 IEM_DS3505
ZBHH,2002-04-13 15:00,ZBHH 131500Z AUTO 04002KT 12SM 16/01 A2938 RMK SLP925 T01630013 57001 IEM_DS3505
ZBHH,2002-04-13 16:00,ZBHH 131600Z AUTO 05002KT 13/M01 A2938 RMK T01301010 IEM_DS3505
ZBHH,2002-04-13 17:00,ZBHH 131700Z AUTO 32012KT 18/M07 A2938 RMK T01801070 IEM_DS3505
ZBHH,2002-04-13 18:00,ZBHH 131800Z AUTO 29010G25KT 12SM 18/M04 A2941 RMK SLP923 T01821042 52012 IEM_DS3505
ZBHH,2002-04-13 19:00,ZBHH 131900Z AUTO 30014G23KT 16/M04 A2944 RMK T01601040 IEM_DS3505
ZBHH,2002-04-13 20:00,ZBHH 132000Z AUTO 31016KT 14/M05 A2947 RMK T01401050 IEM_DS3505
ZBHH,2002-04-13 21:00,ZBHH 132100Z AUTO 32010G33KT 4SM 13/M07 A2953 RMK SLP968 T01341070 52035 IEM_DS3505
ZBHH,2002-04-13 22:00,ZBHH 132200Z AUTO 30014G23KT 1/2SM 11/M10 A2956 RMK T01101100 IEM_DS3505
ZBHH,2002-04-13 23:00,ZBHH 132300Z AUTO 29014G23KT 1SM 10/M08 A2962 RMK T01001080 IEM_DS3505
ZBHH,2002-04-14 00:00,ZBHH 140000Z AUTO 32010G21KT 7SM 10/M11 A2968 RMK SLP032 T00981109 52043 IEM_DS3505
ZBHH,2002-04-14 01:00,ZBHH 140100Z AUTO 32004KT 2 1/2SM 09/M08 A2971 RMK T00901080 IEM_DS3505
ZBHH,2002-04-14 02:00,ZBHH 140200Z AUTO 31006KT 3SM 09/M09 A2971 RMK T00901090 IEM_DS3505
ZBHH,2002-04-14 03:00,ZBHH 140300Z AUTO 29004KT 5SM 12/M10 A2971 RMK SLP046 T01251098 52010 IEM_DS3505
ZBHH,2002-04-14 04:00,ZBHH 140400Z AUTO 30017G29KT 3SM 13/M13 A2971 RMK T01301130 IEM_DS3505
ZBHH,2002-04-14 05:00,ZBHH 140500Z AUTO 32017KT 13/M14 A2971 RMK T01301140 IEM_DS3505
ZBHH,2002-04-14 06:00,ZBHH 140600Z AUTO 32008G25KT 6SM 15/M14 A2968 RMK SLP029 T01511136 57007 IEM_DS3505
ZBHH,2002-04-14 07:00,ZBHH 140700Z AUTO 30016KT 5SM 14/M14 A2968 RMK T01401140 IEM_DS3505
ZBHH,2002-04-14 08:00,ZBHH 140800Z AUTO 31012KT 6SM 15/M14 A2968 RMK T01501140 IEM_DS3505
ZBHH,2002-04-14 09:00,ZBHH 140900Z AUTO 32010KT 12SM 15/M14 A2968 RMK SLP041 T01511144 52002 IEM_DS3505
ZBHH,2002-04-14 10:00,ZBHH 141000Z AUTO 31014G23KT 6SM 14/M12 A2971 RMK T01401120 IEM_DS3505
ZBHH,2002-04-14 11:00,ZBHH 141100Z AUTO 32010KT 6SM 12/M12 A2974 RMK T01201120 IEM_DS3505
ZBHH,2002-04-14 12:00,ZBHH 141200Z AUTO 32002KT 19SM 12/M11 A2977 RMK SLP079 T01221112 52021 IEM_DS3505
ZBHH,2002-04-14 13:00,ZBHH 141300Z AUTO 12002KT 6SM 09/M10 A2980 RMK T00901100 IEM_DS3505
ZBHH,2002-04-14 14:00,ZBHH 141400Z AUTO 29002KT 6SM 08/M10 A2980 RMK T00801100 IEM_DS3505
ZBHH,2002-04-14 15:00,ZBHH 141500Z AUTO 00000KT 19SM 08/M06 A2980 RMK SLP096 T00831058 52012 IEM_DS3505
ZBHH,2002-04-14 18:00,ZBHH 141800Z AUTO 07002KT 19SM 06/M05 RMK SLP107 T00581053 52010 IEM_DS3505
ZBHH,2002-04-14 21:00,ZBHH 142100Z AUTO 02002KT 16SM 06/M06 A2985 RMK SLP112 T00561064 52004 IEM_DS3505
ZBHH,2002-04-14 22:00,ZBHH 142200Z AUTO 10002KT 6SM 01/M05 A2985 RMK T00101050 IEM_DS3505
ZBHH,2002-04-14 23:00,ZBHH 142300Z AUTO 08004KT 02/M05 A2985 RMK T00201050 IEM_DS3505
ZBHH,2002-04-15 00:00,ZBHH 150000Z AUTO 04002KT 9SM 05/M05 A2985 RMK SLP126 T00541052 52006 IEM_DS3505
ZBHH,2002-04-15 01:00,ZBHH 150100Z AUTO 28002KT 3SM 07/M08 A2985 RMK T00701080 IEM_DS3505
ZBHH,2002-04-15 02:00,ZBHH 150200Z AUTO 11002KT 3SM 08/M09 A2985 RMK T00801090 IEM_DS3505
ZBHH,2002-04-15 03:00,ZBHH 150300Z AUTO 22004KT 6SM 10/M10 A2985 RMK SLP122 T01041096 57001 IEM_DS3505
ZBHH,2002-04-15 04:00,ZBHH 150400Z AUTO 26006KT 2 1/2SM 12/M10 A2983 RMK T01201100 IEM_DS3505
ZBHH,2002-04-15 05:00,ZBHH 150500Z AUTO 25010KT 3SM 12/M11 A2983 RMK T01201110 IEM_DS3505
ZBHH,2002-04-15 06:00,ZBHH 150600Z AUTO 20012KT 7SM 14/M14 A2983 RMK SLP098 T01371142 57020 IEM_DS3505
ZBHH,2002-04-15 07:00,ZBHH 150700Z AUTO 26016KT 13/M12 A2980 RMK T01301120 IEM_DS3505
ZBHH,2002-04-15 08:00,ZBHH 150800Z AUTO 30014KT 13/M09 A2980 RMK T01301090 IEM_DS3505
ZBHH,2002-04-15 09:00,ZBHH 150900Z AUTO 29016G31KT 5SM 10/M06 A2983 RMK SLP127 T00961064 52017 IEM_DS3505
ZBHH,2002-04-15 10:00,ZBHH 151000Z AUTO 25017G27KT 7SM 08/M04 A2985 RMK T00801040 IEM_DS3505
ZBHH,2002-04-15 11:00,ZBHH 151100Z AUTO 24010KT 6SM 06/M04 A2988 RMK T00601040 IEM_DS3505
ZBHH,2002-04-15 12:00,ZBHH 151200Z AUTO 20006KT 9SM 07/M05 A2988 RMK SLP138 T00721050 52005 IEM_DS3505
ZBHH,2002-04-15 13:00,ZBHH 151300Z AUTO 28008KT 3SM 06/M14 A2991 RMK T00601140 IEM_DS3505
ZBHH,2002-04-15 14:00,ZBHH 151400Z AUTO 29012G21KT 1 1/4SM 05/M24 A2991 RMK T00501240 IEM_DS3505
ZBHH,2002-04-15 15:00,ZBHH 151500Z AUTO 29010KT 6SM 06/ A2991 RMK SLP153 52020 IEM_DS3505
ZBHH,2002-04-15 16:00,ZBHH 151600Z AUTO 31016G25KT 3SM 03/M14 A2994 RMK T00301140 IEM_DS3505
ZBHH,2002-04-15 17:00,ZBHH 151700Z AUTO 29010KT 03/M14 A2994 RMK T00301140 IEM_DS3505
ZBHH,2002-04-15 19:00,ZBHH 151900Z AUTO 34010KT 7SM 00/M10 A2994 RMK T00001100 IEM_DS3505
ZBHH,2002-04-15 20:00,ZBHH 152000Z AUTO 31010KT 7SM 00/M10 A2994 RMK T00001100 IEM_DS3505
ZBHH,2002-04-15 21:00,ZBHH 152100Z AUTO 32004G21KT 16SM 01/M12 A2994 RMK SLP169 T00071125 52004 IEM_DS3505
ZBHH,2002-04-15 22:00,ZBHH 152200Z AUTO 30006KT 6SM M01/M13 A2994 RMK T10101130 IEM_DS3505
ZBHH,2002-04-15 23:00,ZBHH 152300Z AUTO 28010KT 7SM 00/M13 A2997 RMK T00001130 IEM_DS3505
ZBHH,2002-04-16 00:00,ZBHH 160000Z AUTO 22002KT 19SM 02/M12 A2997 RMK SLP187 T00241124 52015 IEM_DS3505
ZBHH,2002-04-16 02:00,ZBHH 160200Z AUTO 29016G27KT 7SM 04/M14 A3000 RMK T00401140 IEM_DS3505
ZBHH,2002-04-16 03:00,ZBHH 160300Z AUTO 29014G25KT 19SM 05/M10 A3000 RMK SLP198 T00471105 52011 IEM_DS3505
ZBHH,2002-04-16 04:00,ZBHH 160400Z AUTO 30017KT 7SM 05/M17 A3000 RMK T00501170 IEM_DS3505
ZBHH,2002-04-16 05:00,ZBHH 160500Z AUTO 30023KT 7SM 05/M17 A3000 RMK T00501170 IEM_DS3505
ZBHH,2002-04-16 06:00,ZBHH 160600Z AUTO 32017G35KT 19SM 06/M12 A3003 RMK SLP200 T00551121 57002 IEM_DS3505
ZBHH,2002-04-16 07:00,ZBHH 160700Z AUTO 33019G29KT 7SM 05/M19 A3000 RMK T00501190 IEM_DS3505
ZBHH,2002-04-16 08:00,ZBHH 160800Z AUTO 30021G31KT 7SM 07/M20 A3000 RMK T00701200 IEM_DS3505
ZBHH,2002-04-16 09:00,ZBHH 160900Z AUTO 32010G35KT 19SM 05/M19 A3003 RMK SLP217 T00501187 52009 IEM_DS3505
ZBHH,2002-04-16 10:00,ZBHH 161000Z AUTO 30017G29KT 7SM 04/M19 A3006 RMK T00401190 IEM_DS3505
ZBHH,2002-04-16 11:00,ZBHH 161100Z AUTO 34012KT 7SM 02/M14 A3009 RMK T00201140 IEM_DS3505
ZBHH,2002-04-16 12:00,ZBHH 161200Z AUTO 32014G27KT 19SM 03/M16 A3009 RMK SLP235 T00301156 52015 IEM_DS3505
ZBHH,2002-04-16 13:00,ZBHH 161300Z AUTO 34014G23KT 7SM 01/M14 A3012 RMK T00101140 IEM_DS3505
ZBHH,2002-04-16 14:00,ZBHH 161400Z AUTO 29008KT 7SM 00/M15 A3015 RMK T00001150 IEM_DS3505
ZBHH,2002-04-16 15:00,ZBHH 161500Z AUTO 32002KT 19SM 02/M17 A3015 RMK SLP248 T00181167 52014 IEM_DS3505
ZBHH,2002-04-16 16:00,ZBHH 161600Z AUTO 29008KT 6SM 00/M16 A3015 RMK T00001160 IEM_DS3505
ZBHH,2002-04-16 17:00,ZBHH 161700Z AUTO 26008KT 6SM M01/M17 A3015 RMK T10101170 IEM_DS3505
ZBHH,2002-04-16 18:00,ZBHH 161800Z AUTO 27002KT 19SM 01/M17 A3015 RMK SLP245 T00081172 57003 IEM_DS3505
ZBHH,2002-04-16 19:00,ZBHH 161900Z AUTO 30004KT 6SM M02/M19 A3012 RMK T10201190 IEM_DS3505
ZBHH,2002-04-16 21:00,ZBHH 162100Z AUTO 00000KT 19SM M00/M14 A3012 RMK SLP240 T10031141 57008 IEM_DS3505
ZBHH,2002-04-16 22:00,ZBHH 162200Z AUTO 26004KT 6SM M03/M17 A3012 RMK T10301170 IEM_DS3505
ZBHH,2002-04-16 23:00,ZBHH 162300Z AUTO 13004KT 6SM M04/M14 A3015 RMK T10401140 IEM_DS3505
ZBHH,2002-04-17 00:00,ZBHH 170000Z AUTO 25004KT 19SM 03/M18 A3015 RMK SLP253 T00261176 52013 IEM_DS3505
ZBHH,2002-04-17 01:00,ZBHH 170100Z AUTO 30008G17KT 6SM 03/M18 A3015 RMK T00301180 IEM_DS3505
ZBHH,2002-04-17 02:00,ZBHH 170200Z AUTO 33010G19KT 6SM 05/M19 A3015 RMK T00501190 IEM_DS3505
ZBHH,2002-04-17 03:00,ZBHH 170300Z AUTO 27004G21KT 19SM 08/M16 A3012 RMK SLP238 T00781164 57005 IEM_DS3505
ZBHH,2002-04-17 04:00,ZBHH 170400Z AUTO 24010KT 6SM 08/M17 A3012 RMK T00801170 IEM_DS3505
ZBHH,2002-04-17 05:00,ZBHH 170500Z AUTO 27008KT 6SM 09/M17 A3009 RMK T00901170 IEM_DS3505
ZBHH,2002-04-17 06:00,ZBHH 170600Z AUTO 22012KT 19SM 10/M18 A3009 RMK SLP216 T01031179 57016 IEM_DS3505
ZBHH,2002-04-17 07:00,ZBHH 170700Z AUTO 23012KT 6SM 10/M16 A3006 RMK T01001160 IEM_DS3505
ZBHH,2002-04-17 08:00,ZBHH 170800Z AUTO 22014KT 6SM 10/M16 A3003 RMK T01001160 IEM_DS3505
ZBHH,2002-04-17 09:00,ZBHH 170900Z AUTO 22014KT 19SM 11/M17 A3003 RMK SLP201 T01081168 57014 IEM_DS3505
ZBHH,2002-04-17 10:00,ZBHH 171000Z AUTO 24014KT 6SM 10/M17 A3003 RMK T01001170 IEM_DS3505
ZBHH,2002-04-17 11:00,ZBHH 171100Z AUTO 23012KT 6SM 09/M17 A3003 RMK T00901170 IEM_DS3505
ZBHH,2002-04-17 12:00,ZBHH 171200Z AUTO 22004KT 19SM 08/M16 A3003 RMK SLP201 T00841159 52001 IEM_DS3505
ZBHH,2002-04-17 13:00,ZBHH 171300Z AUTO 25004KT 6SM 06/M15 A3006 RMK T00601150 IEM_DS3505
ZBHH,2002-04-17 14:00,ZBHH 171400Z AUTO 5SM 05/M15 A3006 RMK T00501150 IEM_DS3505
ZBHH,2002-04-17 15:00,ZBHH 171500Z AUTO 22002KT 12SM 04/M10 RMK SLP201 T00361095 52001 IEM_DS3505
ZBHH,2002-04-17 21:00,ZBHH 172100Z AUTO 00000KT 12SM M02/M11 A3000 RMK SLP193 T10151114 57011 IEM_DS3505
ZBHH,2002-04-17 22:00,ZBHH 172200Z AUTO 07004KT 6SM M05/M12 A3000 RMK T10501120 IEM_DS3505
ZBHH,2002-04-17 23:00,ZBHH 172300Z AUTO 05002KT 6SM M01/M11 A3000 RMK T10101110 IEM_DS3505
ZBHH,2002-04-18 00:00,ZBHH 180000Z AUTO 00000KT 12SM 06/M12 A3003 RMK SLP184 T00561124 52002 IEM_DS3505
ZBHH,2002-04-18 01:00,ZBHH 180100Z AUTO 13002KT 6SM 06/M14 A3003 RMK T00601140 IEM_DS3505
ZBHH,2002-04-18 02:00,ZBHH 180200Z AUTO 20006KT 6SM 07/M15 A3003 RMK T00701150 IEM_DS3505
ZBHH,2002-04-18 03:00,ZBHH 180300Z AUTO 20002KT 19SM 10/M16 A3000 RMK SLP183 T01021155 57001 IEM_DS3505
ZBHH,2002-04-18 04:00,ZBHH 180400Z AUTO 23006KT 6SM 11/M14 A2997 RMK T01101140 IEM_DS3505
ZBHH,2002-04-18 05:00,ZBHH 180500Z AUTO 22006KT 6SM 13/M14 A2994 RMK T01301140 IEM_DS3505
ZBHH,2002-04-18 06:00,ZBHH 180600Z AUTO 18004KT 19SM 14/M16 RMK SLP139 T01451163 57034 IEM_DS3505
ZBHH,2002-04-18 07:00,ZBHH 180700Z AUTO 26014KT 6SM 15/M14 A2988 RMK T01501140 IEM_DS3505
ZBHH,2002-04-18 08:00,ZBHH 180800Z AUTO 23010KT 6SM 16/M12 A2985 RMK T01601120 IEM_DS3505
ZBHH,2002-04-18 09:00,ZBHH 180900Z AUTO 22008KT 16SM 16/M13 A2985 RMK SLP122 T01611133 57018 IEM_DS3505
ZBHH,2002-04-18 10:00,ZBHH 181000Z AUTO 25008KT 6SM 15/M12 A2983 RMK T01501120 IEM_DS3505
ZBHH,2002-04-18 11:00,ZBHH 181100Z AUTO 21004KT 6SM 14/M10 A2985 RMK T01401100 IEM_DS3505
ZBHH,2002-04-18 12:00,ZBHH 181200Z AUTO 18004KT 16SM 15/M10 A2985 RMK SLP111 T01461100 52001 IEM_DS3505
ZBHH,2002-04-18 13:00,ZBHH 181300Z AUTO 27002KT 5SM 13/M09 A2988 RMK T01301090 IEM_DS3505
ZBHH,2002-04-18 14:00,ZBHH 181400Z AUTO 24006KT 6SM 14/M10 A2988 RMK T01401100 IEM_DS3505
ZBHH,2002-04-18 15:00,ZBHH 181500Z AUTO 00000KT 16SM 13/M08 A2985 RMK SLP112 T01311084 52007 IEM_DS3505
ZBHH,2002-04-18 18:00,ZBHH 181800Z AUTO 00000KT 19SM 12/M06 RMK SLP107 T01181065 52002 IEM_DS3505
ZBHH,2002-04-18 21:00,ZBHH 182100Z AUTO 00000KT 19SM 06/M05 A2988 RMK SLP116 T00641051 54000 IEM_DS3505
ZBHH,2002-04-18 22:00,ZBHH 182200Z AUTO 06006KT 6SM 02/M07 A2988 RMK T00201070 IEM_DS3505
ZBHH,2002-04-18 23:00,ZBHH 182300Z AUTO 09004KT 6SM 03/M05 A2988 RMK T00301050 IEM_DS3505
ZBHH,2002-04-19 00:00,ZBHH 190000Z AUTO 00000KT 16SM 11/M06 A2991 RMK SLP123 T01081063 52012 IEM_DS3505
ZBHH,2002-04-19 01:00,ZBHH 190100Z AUTO 13002KT 6SM 11/M08 A2991 RMK T01101080 IEM_DS3505
ZBHH,2002-04-19 02:00,ZBHH 190200Z AUTO 24002KT 6SM 12/M06 A2991 RMK T01201060 IEM_DS3505
ZBHH,2002-04-19 03:00,ZBHH 190300Z AUTO 00000KT 19SM 15/M06 A2991 RMK SLP109 T01541060 57006 IEM_DS3505
ZBHH,2002-04-19 04:00,ZBHH 190400Z AUTO 23006KT 6SM 17/M07 A2985 RMK T01701070 IEM_DS3505
ZBHH,2002-04-19 05:00,ZBHH 190500Z AUTO 26012KT 6SM 19/M06 A2985 RMK T01901060 IEM_DS3505
ZBHH,2002-04-19 06:00,ZBHH 190600Z AUTO 20010KT 12SM 20/M08 A2983 RMK SLP072 T02051080 57026 IEM_DS3505
ZBHH,2002-04-19 07:00,ZBHH 190700Z AUTO 24017G27KT 6SM 22/M08 A2977 RMK T02201080 IEM_DS3505
ZBHH,2002-04-19 08:00,ZBHH 190800Z AUTO 24014G25KT 6SM 21/M09 A2977 RMK T02101090 IEM_DS3505
ZBHH,2002-04-19 09:00,ZBHH 190900Z AUTO 25010KT 12SM 22/M08 A2974 RMK SLP051 T02181080 57026 IEM_DS3505
ZBHH,2002-04-19 10:00,ZBHH 191000Z AUTO 21006KT 6SM 21/M08 A2971 RMK T02101080 IEM_DS3505
ZBHH,2002-04-19 11:00,ZBHH 191100Z AUTO 19004KT 7SM 20/M06 A2971 RMK T02001060 IEM_DS3505
ZBHH,2002-04-19 12:00,ZBHH 191200Z AUTO 20004KT 19SM 19/M04 A2974 RMK SLP052 T01921043 52004 IEM_DS3505
ZBHH,2002-04-19 13:00,ZBHH 191300Z AUTO 19004KT 16/M05 A2977 RMK T01601050 IEM_DS3505
ZBHH,2002-04-19 14:00,ZBHH 191400Z AUTO 21004KT 5SM 15/M04 A2977 RMK T01501040 IEM_DS3505
ZBHH,2002-04-19 15:00,ZBHH 191500Z AUTO 27002KT 19SM 16/M02 A2977 RMK SLP053 T01561018 52003 IEM_DS3505
ZBHH,2002-04-19 18:00,ZBHH 191800Z AUTO 02002KT 19SM 11/M00 RMK SLP043 T01131005 57007 IEM_DS3505
ZBHH,2002-04-19 21:00,ZBHH 192100Z AUTO 04002KT 19SM 10/M02 A2971 RMK SLP036 T01001022 57006 IEM_DS3505
ZBHH,2002-04-19 22:00,ZBHH 192200Z AUTO 09004KT 6SM 06/M05 A2971 RMK T00601050 IEM_DS3505
ZBHH,2002-04-19 23:00,ZBHH 192300Z AUTO 07002KT 6SM 08/M04 A2971 RMK T00801040 IEM_DS3505
ZBHH,2002-04-20 00:00,ZBHH 200000Z AUTO 07004KT 12SM 13/M04 A2971 RMK SLP036 T01341036 52001 IEM_DS3505
ZBHH,2002-04-20 01:00,ZBHH 200100Z AUTO 21002KT 6SM 15/M03 A2971 RMK T01501030 IEM_DS3505
ZBHH,2002-04-20 02:00,ZBHH 200200Z AUTO 22004KT 6SM 16/M03 A2968 RMK T01601030 IEM_DS3505
ZBHH,2002-04-20 03:00,ZBHH 200300Z AUTO 20006KT 12SM 18/M02 A2965 RMK SLP023 T01761024 57010 IEM_DS3505
ZBHH,2002-04-20 04:00,ZBHH 200400Z AUTO 24010KT 6SM 20/M02 A2965 RMK T02001020 IEM_DS3505
ZBHH,2002-04-20 05:00,ZBHH 200500Z AUTO 23014KT 6SM 21/M02 A2962 RMK T02101020 IEM_DS3505
ZBHH,2002-04-20 06:00,ZBHH 200600Z AUTO 20010KT 9SM 21/M04 A2959 RMK SLP998 T02101040 57024 IEM_DS3505
ZBHH,2002-04-20 07:00,ZBHH 200700Z AUTO 23014KT 22/M02 A2956 RMK T02201020 IEM_DS3505
ZBHH,2002-04-20 08:00,ZBHH 200800Z AUTO 24010KT 23/M04 A2956 RMK T02301040 IEM_DS3505
ZBHH,2002-04-20 09:00,ZBHH 200900Z AUTO 27008KT 9SM 23/M05 A2956 RMK SLP987 T02301049 57008 IEM_DS3505
ZBHH,2002-04-20 10:00,ZBHH 201000Z AUTO 28008KT 22/M05 A2956 RMK T02201050 IEM_DS3505
ZBHH,2002-04-20 11:00,ZBHH 201100Z AUTO 27008KT 21/M05 A2956 RMK T02101050 IEM_DS3505
ZBHH,2002-04-20 12:00,ZBHH 201200Z AUTO 27006KT 12SM 21/M05 A2959 RMK SLP990 T02121053 52005 IEM_DS3505
ZBHH,2002-04-20 13:00,ZBHH 201300Z AUTO 27012KT 6SM 20/M06 A2962 RMK T02001060 IEM_DS3505
ZBHH,2002-04-20 14:00,ZBHH 201400Z AUTO 32014KT 19/M05 A2965 RMK T01901050 IEM_DS3505
ZBHH,2002-04-20 15:00,ZBHH 201500Z AUTO 27004KT 9SM 17/M03 A2965 RMK SLP016 T01721032 52024 IEM_DS3505
ZBHH,2002-04-20 16:00,ZBHH 201600Z AUTO 30008KT 16/M09 A2968 RMK T01601090 IEM_DS3505
ZBHH,2002-04-20 17:00,ZBHH 201700Z AUTO 00000KT 14/M10 A2968 RMK T01401100 IEM_DS3505
ZBHH,2002-04-20 18:00,ZBHH 201800Z AUTO 14004KT 12SM 14/01 A2968 RMK SLP017 T01400006 52001 IEM_DS3505
ZBHH,2002-04-20 19:00,ZBHH 201900Z AUTO 21002KT 12/M02 A2965 RMK T01201020 IEM_DS3505
ZBHH,2002-04-20 20:00,ZBHH 202000Z AUTO 09002KT 09/M02 A2965 RMK T00901020 IEM_DS3505
ZBHH,2002-04-20 21:00,ZBHH 202100Z AUTO 00000KT 12SM 11/02 A2968 RMK SLP019 T01100015 54000 IEM_DS3505
ZBHH,2002-04-20 22:00,ZBHH 202200Z AUTO 08004KT 5SM 08/M03 A2965 RMK T00801030 IEM_DS3505
ZBHH,2002-04-20 23:00,ZBHH 202300Z AUTO 09004KT 6SM 08/M02 A2968 RMK T00801020 IEM_DS3505
ZBHH,2002-04-21 00:00,ZBHH 210000Z AUTO 00000KT 9SM 13/M02 A2971 RMK SLP031 T01331023 52011 IEM_DS3505
ZBHH,2002-04-21 01:00,ZBHH 210100Z AUTO 06004KT 13/M03 A2971 RMK T01301030 IEM_DS3505
ZBHH,2002-04-21 02:00,ZBHH 210200Z AUTO 12004KT 17/M04 A2968 RMK T01701040 IEM_DS3505
ZBHH,2002-04-21 03:00,ZBHH 210300Z AUTO 00000KT 12SM 17/M05 A2971 RMK SLP037 T01741054 52006 IEM_DS3505
ZBHH,2002-04-21 04:00,ZBHH 210400Z AUTO 34016KT 7SM 18/M06 A2971 RMK T01801060 IEM_DS3505
ZBHH,2002-04-21 05:00,ZBHH 210500Z AUTO 33016KT 7SM 18/M07 A2974 RMK T01801070 IEM_DS3505
ZBHH,2002-04-21 06:00,ZBHH 210600Z AUTO 29006G27KT 7SM 17/M08 A2974 RMK SLP047 T01691076 52002 IEM_DS3505
ZBHH,2002-04-21 07:00,ZBHH 210700Z AUTO 36019G29KT 15/M04 A2974 RMK T01501040 IEM_DS3505
ZBHH,2002-04-21 08:00,ZBHH 210800Z AUTO 35019G35KT 6SM 13/M02 A2974 RMK T01301020 IEM_DS3505
ZBHH,2002-04-21 09:00,ZBHH 210900Z AUTO 34004KT 16SM 12/M02 A2974 RMK SLP066 T01251016 52002 IEM_DS3505
ZBHH,2002-04-21 10:00,ZBHH 211000Z AUTO 36017KT 6SM 11/M02 A2977 RMK T01101020 IEM_DS3505
ZBHH,2002-04-21 11:00,ZBHH 211100Z AUTO 01010KT 6SM 10/M03 A2980 RMK T01001030 IEM_DS3505
ZBHH,2002-04-21 12:00,ZBHH 211200Z AUTO 20002KT 19SM 11/M04 A2980 RMK SLP086 T01121038 52020 IEM_DS3505
ZBHH,2002-04-21 13:00,ZBHH 211300Z AUTO 02012KT 6SM 10/M05 A2985 RMK T01001050 IEM_DS3505
ZBHH,2002-04-21 14:00,ZBHH 211400Z AUTO 03010KT 6SM 10/M06 A2985 RMK T01001060 IEM_DS3505
ZBHH,2002-04-21 15:00,ZBHH 211500Z AUTO 04010KT 16SM 10/M06 A2988 RMK SLP114 T00991059 52030 IEM_DS3505
ZBHH,2002-04-21 18:00,ZBHH 211800Z AUTO 07006KT 6SM 07/01 RMK 60000 SLP124 T00730013 52003 IEM_DS3505
ZBHH,2002-04-21 19:00,ZBHH 211900Z AUTO 07010KT 7SM 04/01 A2991 RMK T00400010 IEM_DS3505
ZBHH,2002-04-21 20:00,ZBHH 212000Z AUTO 09012KT 7SM 04/01 A2991 RMK T00400010 IEM_DS3505
ZBHH,2002-04-21 21:00,ZBHH 212100Z AUTO 09002KT 19SM 05/02 A2991 RMK 70003 SLP138 T00540024 57001 IEM_DS3505
ZBHH,2002-04-21 22:00,ZBHH 212200Z AUTO 06017KT 7SM 03/01 A2991 RMK T00300010 IEM_DS3505
ZBHH,2002-04-21 23:00,ZBHH 212300Z AUTO 08010KT 7SM 02/01 A2991 RMK T00200010 IEM_DS3505
ZBHH,2002-04-22 00:00,ZBHH 220000Z AUTO 07008KT 12SM 04/02 A2994 RMK 60016 SLP157 T00420023 52012 IEM_DS3505
ZBHH,2002-04-22 01:00,ZBHH 220100Z AUTO 06012KT 7SM 03/01 A2994 RMK T00300010 IEM_DS3505
ZBHH,2002-04-22 02:00,ZBHH 220200Z AUTO 06014KT 7SM 03/00 A2994 RMK T00300000 IEM_DS3505
ZBHH,2002-04-22 03:00,ZBHH 220300Z AUTO 07004KT 12SM 05/02 A2997 RMK SLP167 T00460020 52007 IEM_DS3505
ZBHH,2002-04-22 04:00,ZBHH 220400Z AUTO 05008KT 7SM 03/01 A3000 RMK T00300010 IEM_DS3505
ZBHH,2002-04-22 05:00,ZBHH 220500Z AUTO 06004KT 7SM 03/02 A3000 RMK T00300020 IEM_DS3505
ZBHH,2002-04-22 06:00,ZBHH 220600Z AUTO 14004KT 12SM 05/03 A3000 RMK 60020 SLP185 T00470029 52011 IEM_DS3505
ZBHH,2002-04-22 07:00,ZBHH 220700Z AUTO 08010KT 7SM 04/02 A3000 RMK T00400020 IEM_DS3505
ZBHH,2002-04-22 08:00,ZBHH 220800Z AUTO 06006KT 7SM 04/01 A3000 RMK T00400010 IEM_DS3505
ZBHH,2002-04-22 09:00,ZBHH 220900Z AUTO 00000KT 12SM 06/01 A3000 RMK SLP192 T00560014 52004 IEM_DS3505
ZBHH,2002-04-22 10:00,ZBHH 221000Z AUTO 06010KT 7SM 04/00 A3003 RMK T00400000 IEM_DS3505
ZBHH,2002-04-22 11:00,ZBHH 221100Z AUTO 08008KT 7SM 03/01 A3006 RMK T00300010 IEM_DS3505
ZBHH,2002-04-22 12:00,ZBHH 221200Z AUTO 09004KT 19SM 05/02 A3006 RMK 60003 SLP217 T00460018 52017 IEM_DS3505
ZBHH,2002-04-22 13:00,ZBHH 221300Z AUTO 10002KT 7SM 02/00 A3012 RMK T00200000 IEM_DS3505
ZBHH,2002-04-22 14:00,ZBHH 221400Z AUTO 00000KT 7SM 02/00 A3015 RMK T00200000 IEM_DS3505
ZBHH,2002-04-22 15:00,ZBHH 221500Z AUTO 32006KT 19SM 04/M03 A3015 RMK SLP249 T00431029 52029 IEM_DS3505
ZBHH,2002-04-22 16:00,ZBHH 221600Z AUTO 00000KT 7SM 01/00 A3018 RMK T00100000 IEM_DS3505
ZBHH,2002-04-22 17:00,ZBHH 221700Z AUTO 35008KT 7SM 02/M03 A3018 RMK T00201030 IEM_DS3505
ZBHH,2002-04-22 18:00,ZBHH 221800Z AUTO 27004KT 19SM 03/M03 A3021 RMK 60003 SLP265 T00281033 52011 IEM_DS3505
ZBHH,2002-04-22 19:00,ZBHH 221900Z AUTO 34008KT 7SM 02/M06 A3021 RMK T00201060 IEM_DS3505
ZBHH,2002-04-22 20:00,ZBHH 222000Z AUTO 32006KT 7SM 02/M08 A3024 RMK T00201080 IEM_DS3505
ZBHH,2002-04-22 21:00,ZBHH 222100Z AUTO 29004KT 19SM 02/M08 A3024 RMK 70036 SLP275 T00201082 52009 IEM_DS3505
ZBHH,2002-04-22 22:00,ZBHH 222200Z AUTO 33012KT 6SM 00/M09 A3027 RMK T00001090 IEM_DS3505
ZBHH,2002-04-22 23:00,ZBHH 222300Z AUTO 34016G29KT 6SM 00/M09 A3027 RMK T00001090 IEM_DS3505
ZBHH,2002-04-23 00:00,ZBHH 230000Z AUTO 02004G27KT 19SM 01/M14 A3033 RMK 70023 SLP321 T00141142 52037 IEM_DS3505
ZBHH,2002-04-23 01:00,ZBHH 230100Z AUTO 34019G31KT 6SM 00/M13 A3033 RMK T00001130 IEM_DS3505
ZBHH,2002-04-23 02:00,ZBHH 230200Z AUTO 36012G21KT 6SM 00/M14 A3039 RMK T00001140 IEM_DS3505
ZBHH,2002-04-23 03:00,ZBHH 230300Z AUTO 02012KT 19SM 02/M14 A3042 RMK SLP339 T00231140 52017 IEM_DS3505
ZBHH,2002-04-23 04:00,ZBHH 230400Z AUTO 34014KT 6SM 02/M11 A3039 RMK T00201110 IEM_DS3505
ZBHH,2002-04-23 05:00,ZBHH 230500Z AUTO 35012G21KT 6SM 03/M12 A3039 RMK T00301120 IEM_DS3505
ZBHH,2002-04-23 06:00,ZBHH 230600Z AUTO 36006G23KT 19SM 06/M12 A3036 RMK SLP319 T00551117 57014 IEM_DS3505
ZBHH,2002-04-23 07:00,ZBHH 230700Z AUTO 36010G19KT 6SM 04/M14 A3036 RMK T00401140 IEM_DS3505
ZBHH,2002-04-23 08:00,ZBHH 230800Z AUTO 33014KT 6SM 05/M15 A3033 RMK T00501150 IEM_DS3505
ZBHH,2002-04-23 09:00,ZBHH 230900Z AUTO 02006G19KT 19SM 07/M19 A3033 RMK SLP306 T00661191 57011 IEM_DS3505
ZBHH,2002-04-23 10:00,ZBHH 231000Z AUTO 34012KT 6SM 05/M20 A3033 RMK T00501200 IEM_DS3505
ZBHH,2002-04-23 11:00,ZBHH 231100Z AUTO 35008KT 6SM 04/M19 A3036 RMK T00401190 IEM_DS3505
ZBHH,2002-04-23 12:00,ZBHH 231200Z AUTO 02006KT 19SM 04/M23 A3036 RMK SLP323 T00421233 52009 IEM_DS3505
ZBHH,2002-04-23 13:00,ZBHH 231300Z AUTO 35004KT 6SM 01/M14 A3039 RMK T00101140 IEM_DS3505
ZBHH,2002-04-23 14:00,ZBHH 231400Z AUTO 08004KT 6SM 00/M14 A3039 RMK T00001140 IEM_DS3505
ZBHH,2002-04-23 15:00,ZBHH 231500Z AUTO 29002KT 19SM 01/M19 A3039 RMK SLP339 T00061188 52008 IEM_DS3505
ZBHH,2002-04-23 18:00,ZBHH 231800Z AUTO 32004KT 19SM 00/M16 RMK SLP325 T00001163 57007 IEM_DS3505
ZBHH,2002-04-23 21:00,ZBHH 232100Z AUTO 00000KT 19SM M02/M09 A3033 RMK SLP320 T10181089 57006 IEM_DS3505
ZBHH,2002-04-23 22:00,ZBHH 232200Z AUTO 10002KT 6SM M05/M11 A3033 RMK T10501110 IEM_DS3505
ZBHH,2002-04-23 23:00,ZBHH 232300Z AUTO 05004KT 6SM M03/M10 A3039 RMK T10301100 IEM_DS3505
ZBHH,2002-04-24 00:00,ZBHH 240000Z AUTO 00000KT 19SM 02/M13 A3039 RMK SLP325 T00201128 52008 IEM_DS3505
ZBHH,2002-04-24 01:00,ZBHH 240100Z AUTO 12004KT 6SM 02/M13 A3036 RMK T00201130 IEM_DS3505
ZBHH,2002-04-24 02:00,ZBHH 240200Z AUTO 25002KT 6SM 04/M15 A3036 RMK T00401150 IEM_DS3505
ZBHH,2002-04-24 03:00,ZBHH 240300Z AUTO 14002KT 16SM 07/M13 A3036 RMK SLP317 T00691126 57005 IEM_DS3505
ZBHH,2002-04-24 04:00,ZBHH 240400Z AUTO 09002KT 6SM 07/M14 A3033 RMK T00701140 IEM_DS3505
ZBHH,2002-04-24 05:00,ZBHH 240500Z AUTO 05004KT 6SM 08/M13 A3027 RMK T00801130 IEM_DS3505
ZBHH,2002-04-24 06:00,ZBHH 240600Z AUTO 22004KT 19SM 10/M11 A3024 RMK SLP269 T00961112 57037 IEM_DS3505
ZBHH,2002-04-24 07:00,ZBHH 240700Z AUTO 14004KT 6SM 10/M13 A3021 RMK T01001130 IEM_DS3505
ZBHH,2002-04-24 08:00,ZBHH 240800Z AUTO 11004KT 6SM 11/M15 A3018 RMK T01101150 IEM_DS3505
ZBHH,2002-04-24 09:00,ZBHH 240900Z AUTO 20002KT 19SM 12/M14 A3015 RMK SLP242 T01151137 57024 IEM_DS3505
ZBHH,2002-04-24 10:00,ZBHH 241000Z AUTO 00000KT 6SM 11/M13 A3015 RMK T01101130 IEM_DS3505
ZBHH,2002-04-24 12:00,ZBHH 241200Z AUTO 09004KT 19SM 10/M08 A3015 RMK SLP234 T01001076 57002 IEM_DS3505
ZBHH,2002-04-24 13:00,ZBHH 241300Z AUTO 09006KT 6SM 04/M05 A3018 RMK T00401050 IEM_DS3505
ZBHH,2002-04-24 14:00,ZBHH 241400Z AUTO 08008KT 6SM 03/M04 A3018 RMK T00301040 IEM_DS3505
ZBHH,2002-04-24 15:00,ZBHH 241500Z AUTO 07002KT 19SM 06/M05 A3018 RMK SLP244 T00621048 52011 IEM_DS3505
ZBHH,2002-04-24 18:00,ZBHH 241800Z AUTO 00000KT 19SM 03/M05 RMK SLP234 T00281050 57010 IEM_DS3505
ZBHH,2002-04-24 21:00,ZBHH 242100Z AUTO 00000KT 16SM 02/M04 A3015 RMK SLP225 T00251040 57005 IEM_DS3505
ZBHH,2002-04-24 22:00,ZBHH 242200Z AUTO 07004KT 6SM 01/M05 A3015 RMK T00101050 IEM_DS3505
ZBHH,2002-04-24 23:00,ZBHH 242300Z AUTO 07004KT 6SM 03/M04 A3015 RMK T00301040 IEM_DS3505
ZBHH,2002-04-25 00:00,ZBHH 250000Z AUTO 00000KT 12SM 06/M05 RMK SLP226 T00591052 52005 IEM_DS3505
ZBHH,2002-04-25 01:00,ZBHH 250100Z AUTO 06006KT 6SM 08/M08 A3015 RMK T00801080 IEM_DS3505
ZBHH,2002-04-25 02:00,ZBHH 250200Z AUTO 13004KT 6SM 10/M08 A3015 RMK T01001080 IEM_DS3505
ZBHH,2002-04-25 03:00,ZBHH 250300Z AUTO 20002KT 12SM 12/M06 A3015 RMK SLP218 T01191060 57003 IEM_DS3505
ZBHH,2002-04-25 04:00,ZBHH 250400Z AUTO 24008KT 6SM 13/M04 A3012 RMK T01301040 IEM_DS3505
ZBHH,2002-04-25 05:00,ZBHH 250500Z AUTO 25008KT 6SM 14/M03 A3009 RMK T01401030 IEM_DS3505
ZBHH,2002-04-25 06:00,ZBHH 250600Z AUTO 18006KT 6SM 14/M03 A3006 RMK SLP197 T01381030 57021 IEM_DS3505
ZBHH,2002-04-25 07:00,ZBHH 250700Z AUTO 22010KT 6SM 14/M01 A3003 RMK T01401010 IEM_DS3505
ZBHH,2002-04-25 08:00,ZBHH 250800Z AUTO 23008KT 7SM 15/M01 A3003 RMK T01501010 IEM_DS3505
ZBHH,2002-04-25 09:00,ZBHH 250900Z AUTO 20010KT 9SM 14/M01 A3003 RMK T01401010 IEM_DS3505
ZBHH,2002-04-25 10:00,ZBHH 251000Z AUTO 24010KT 6SM 14/M01 A3000 RMK T01401010 IEM_DS3505
ZBHH,2002-04-25 11:00,ZBHH 251100Z AUTO 24004KT 6SM 12/M01 A3000 RMK T01201010 IEM_DS3505
ZBHH,2002-04-25 12:00,ZBHH 251200Z AUTO 20004KT 9SM 12/00 A3003 RMK SLP176 T01240004 57002 IEM_DS3505
ZBHH,2002-04-25 13:00,ZBHH 251300Z AUTO 20004KT 3SM 09/01 A3006 RMK T00900010 IEM_DS3505
ZBHH,2002-04-25 14:00,ZBHH 251400Z AUTO 21004KT 08/00 A3006 RMK T00800000 IEM_DS3505
ZBHH,2002-04-25 15:00,ZBHH 251500Z AUTO 20004KT 12SM 09/M01 A3009 RMK SLP195 T00921012 52022 IEM_DS3505
ZBHH,2002-04-25 18:00,ZBHH 251800Z AUTO 09002KT 12SM 07/00 RMK SLP202 T00660001 52005 IEM_DS3505
ZBHH,2002-04-25 21:00,ZBHH 252100Z AUTO 02002KT 12SM 05/M00 A3009 RMK SLP200 T00461004 57005 IEM_DS3505
ZBHH,2002-04-25 22:00,ZBHH 252200Z AUTO 05002KT 4SM 02/M02 A3009 RMK T00201020 IEM_DS3505
ZBHH,2002-04-25 23:00,ZBHH 252300Z AUTO 09004KT 4SM 02/M01 A3009 RMK T00201010 IEM_DS3505
ZBHH,2002-04-26 00:00,ZBHH 260000Z AUTO 00000KT 9SM 08/M00 A3009 RMK SLP195 T00821002 57001 IEM_DS3505
ZBHH,2002-04-26 01:00,ZBHH 260100Z AUTO 15002KT 6SM 09/00 A3009 RMK T00900000 IEM_DS3505
ZBHH,2002-04-26 02:00,ZBHH 260200Z AUTO 19002KT 6SM 11/M01 A3009 RMK T01101010 IEM_DS3505
ZBHH,2002-04-26 03:00,ZBHH 260300Z AUTO 00000KT 12SM 13/M03 A3012 RMK SLP195 T01281026 52003 IEM_DS3505
ZBHH,2002-04-26 04:00,ZBHH 260400Z AUTO 24006KT 6SM 13/M04 A3006 RMK T01301040 IEM_DS3505
ZBHH,2002-04-26 05:00,ZBHH 260500Z AUTO 23010KT 6SM 15/M03 A3003 RMK T01501030 IEM_DS3505
ZBHH,2002-04-26 06:00,ZBHH 260600Z AUTO 22004KT 9SM 15/M03 A3000 RMK SLP165 T01541030 57027 IEM_DS3505
ZBHH,2002-04-26 07:00,ZBHH 260700Z AUTO 25006KT 6SM 16/M02 A3000 RMK T01601020 IEM_DS3505
ZBHH,2002-04-26 08:00,ZBHH 260800Z AUTO 24004KT 6SM 16/M02 A2997 RMK T01601020 IEM_DS3505
ZBHH,2002-04-26 09:00,ZBHH 260900Z AUTO 20006KT 16SM 16/M01 A2994 RMK SLP144 T01651013 57020 IEM_DS3505
ZBHH,2002-04-26 10:00,ZBHH 261000Z AUTO 23006KT 6SM 16/M02 A2994 RMK T01601020 IEM_DS3505
ZBHH,2002-04-26 11:00,ZBHH 261100Z AUTO 25006KT 6SM 14/M02 A2994 RMK T01401020 IEM_DS3505
ZBHH,2002-04-26 12:00,ZBHH 261200Z AUTO 00000KT 16SM 14/01 A2997 RMK SLP150 T01380014 52007 IEM_DS3505
ZBHH,2002-04-26 13:00,ZBHH 261300Z AUTO 15006KT 6SM 12/M02 A3000 RMK T01201020 IEM_DS3505
ZBHH,2002-04-26 14:00,ZBHH 261400Z AUTO 13004KT 6SM 11/M02 A3000 RMK T01101020 IEM_DS3505
ZBHH,2002-04-26 15:00,ZBHH 261500Z AUTO 00000KT 12SM 12/M01 A3003 RMK SLP165 T01171006 52018 IEM_DS3505
ZBHH,2002-04-26 16:00,ZBHH 261600Z AUTO 08004KT 6SM 09/00 A3003 RMK T00900000 IEM_DS3505
ZBHH,2002-04-26 17:00,ZBHH 261700Z AUTO 07004KT 6SM 09/02 A3003 RMK T00900020 IEM_DS3505
ZBHH,2002-04-26 18:00,ZBHH 261800Z AUTO 00000KT 12SM 10/01 A3000 RMK SLP155 T01010010 57007 IEM_DS3505
ZBHH,2002-04-26 21:00,ZBHH 262100Z AUTO 00000KT 16SM 08/01 A3003 RMK SLP163 T00780011 52005 IEM_DS3505
ZBHH,2002-04-26 22:00,ZBHH 262200Z AUTO 07004KT 5SM 04/M01 A3003 RMK T00401010 IEM_DS3505
ZBHH,2002-04-26 23:00,ZBHH 262300Z AUTO 05002KT 6SM 06/00 A3003 RMK T00600000 IEM_DS3505
ZBHH,2002-04-27 00:00,ZBHH 270000Z AUTO 00000KT 12SM 10/01 A3003 RMK SLP164 T01040008 52001 IEM_DS3505
ZBHH,2002-04-27 01:00,ZBHH 270100Z AUTO 11004KT 6SM 12/00 A3003 RMK T01200000 IEM_DS3505
ZBHH,2002-04-27 02:00,ZBHH 270200Z AUTO 08002KT 6SM 14/M01 A3000 RMK T01401010 IEM_DS3505
ZBHH,2002-04-27 03:00,ZBHH 270300Z AUTO 18002KT 16SM 15/M01 A3000 RMK SLP145 T01541008 57011 IEM_DS3505
ZBHH,2002-04-27 04:00,ZBHH 270400Z AUTO 15006G17KT 6SM 17/M02 A2997 RMK T01701020 IEM_DS3505
ZBHH,2002-04-27 05:00,ZBHH 270500Z AUTO 15010KT 6SM 18/M01 A2991 RMK T01801010 IEM_DS3505
ZBHH,2002-04-27 06:00,ZBHH 270600Z AUTO 07002G16KT 16SM 19/00 A2988 RMK SLP106 T01940003 57030 IEM_DS3505
ZBHH,2002-04-27 07:00,ZBHH 270700Z AUTO 19010G19KT 6SM 20/00 A2983 RMK T02000000 IEM_DS3505
ZBHH,2002-04-27 08:00,ZBHH 270800Z AUTO 15010KT 6SM 21/00 A2980 RMK T02100000 IEM_DS3505
ZBHH,2002-04-27 09:00,ZBHH 270900Z AUTO 14006G21KT 16SM 21/M01 A2980 RMK SLP070 T02101008 57033 IEM_DS3505
ZBHH,2002-04-27 10:00,ZBHH 271000Z AUTO 15010KT 6SM 20/M01 A2977 RMK T02001010 IEM_DS3505
ZBHH,2002-04-27 11:00,ZBHH 271100Z AUTO 15010KT 6SM 19/M01 A2980 RMK T01901010 IEM_DS3505
ZBHH,2002-04-27 12:00,ZBHH 271200Z AUTO 14008KT 12SM 18/02 A2980 RMK SLP073 T01820018 52002 IEM_DS3505
ZBHH,2002-04-27 13:00,ZBHH 271300Z AUTO 15006KT 6SM 15/M02 A2980 RMK T01501020 IEM_DS3505
ZBHH,2002-04-27 14:00,ZBHH 271400Z AUTO 16004KT 6SM 15/M02 A2983 RMK T01501020 IEM_DS3505
ZBHH,2002-04-27 15:00,ZBHH 271500Z AUTO 18004KT 12SM 16/M01 A2985 RMK SLP086 T01601011 52017 IEM_DS3505
ZBHH,2002-04-27 16:00,ZBHH 271600Z AUTO 13004KT 6SM 14/M02 A2985 RMK T01401020 IEM_DS3505
ZBHH,2002-04-27 17:00,ZBHH 271700Z AUTO 15008KT 6SM 13/M03 A2983 RMK T01301030 IEM_DS3505
ZBHH,2002-04-27 18:00,ZBHH 271800Z AUTO 11004KT 12SM 14/M02 A2983 RMK SLP074 T01361018 57008 IEM_DS3505
ZBHH,2002-04-27 19:00,ZBHH 271900Z AUTO 15012KT 6SM 12/M03 A2983 RMK T01201030 IEM_DS3505
ZBHH,2002-04-27 20:00,ZBHH 272000Z AUTO 14008KT 6SM 11/M01 A2983 RMK T01101010 IEM_DS3505
ZBHH,2002-04-27 21:00,ZBHH 272100Z AUTO 22002KT 9SM 10/04 A2983 RMK 70000 SLP084 T01020036 52006 IEM_DS3505
ZBHH,2002-04-27 22:00,ZBHH 272200Z AUTO 14010KT 6SM 07/03 A2985 RMK T00700030 IEM_DS3505
ZBHH,2002-04-27 23:00,ZBHH 272300Z AUTO 15006KT 6SM 07/04 A2985 RMK T00700040 IEM_DS3505
ZBHH,2002-04-28 00:00,ZBHH 280000Z AUTO 20006KT 6SM 08/06 A2985 RMK 60000 SLP107 T00790056 52010 IEM_DS3505
ZBHH,2002-04-28 01:00,ZBHH 280100Z AUTO 16004KT 3SM 06/04 A2985 RMK T00600040 IEM_DS3505
ZBHH,2002-04-28 02:00,ZBHH 280200Z AUTO 19002KT 2 1/2SM 06/05 A2985 RMK T00600050 IEM_DS3505
ZBHH,2002-04-28 03:00,ZBHH 280300Z AUTO 18006KT 6SM 08/06 A2985 RMK SLP103 T00820055 57007 IEM_DS3505
ZBHH,2002-04-28 04:00,ZBHH 280400Z AUTO 20006KT 4SM 08/05 A2985 RMK T00800050 IEM_DS3505
ZBHH,2002-04-28 05:00,ZBHH 280500Z AUTO 21004KT 1 1/2SM 07/06 A2985 RMK T00700060 IEM_DS3505
ZBHH,2002-04-28 06:00,ZBHH 280600Z AUTO 20008KT 6SM 08/06 A2985 RMK 60002 SLP109 T00780064 54000 IEM_DS3505
ZBHH,2002-04-28 07:00,ZBHH 280700Z AUTO 21006KT 1 1/2SM 07/06 A2983 RMK T00700060 IEM_DS3505
ZBHH,2002-04-28 08:00,ZBHH 280800Z AUTO 23004KT 2SM 07/06 A2983 RMK T00700060 IEM_DS3505
ZBHH,2002-04-28 09:00,ZBHH 280900Z AUTO 20004KT 6SM 08/06 A2983 RMK SLP109 T00780059 57007 IEM_DS3505
ZBHH,2002-04-28 10:00,ZBHH 281000Z AUTO 22004KT 7SM 07/05 A2983 RMK T00700050 IEM_DS3505
ZBHH,2002-04-28 11:00,ZBHH 281100Z AUTO 17002KT 7SM 07/05 A2983 RMK T00700050 IEM_DS3505
ZBHH,2002-04-28 12:00,ZBHH 281200Z AUTO 20002KT 6SM 08/07 A2985 RMK 60028 SLP118 T00800066 52004 IEM_DS3505
ZBHH,2002-04-28 13:00,ZBHH 281300Z AUTO 14002KT 5SM 06/05 A2985 RMK T00600050 IEM_DS3505
ZBHH,2002-04-28 14:00,ZBHH 281400Z AUTO 14002KT 5SM 06/06 A2988 RMK T00600060 IEM_DS3505
ZBHH,2002-04-28 15:00,ZBHH 281500Z AUTO 00000KT 7SM 08/07 A2985 RMK SLP124 T00800066 52006 IEM_DS3505
ZBHH,2002-04-28 16:00,ZBHH 281600Z AUTO 09002KT 2SM RMK IEM_DS3505
ZBHH,2002-04-28 17:00,ZBHH 281700Z AUTO 07004KT 4SM 06/06 A2985 RMK T00600060 IEM_DS3505
ZBHH,2002-04-28 18:00,ZBHH 281800Z AUTO 00000KT 12SM 07/06 A2985 RMK 60004 SLP123 T00730063 57003 IEM_DS3505
ZBHH,2002-04-28 19:00,ZBHH 281900Z AUTO 11002KT 6SM 06/06 A2985 RMK T00600060 IEM_DS3505
ZBHH,2002-04-28 20:00,ZBHH 282000Z AUTO 00000KT 7SM 06/05 A2985 RMK T00600050 IEM_DS3505
ZBHH,2002-04-28 21:00,ZBHH 282100Z AUTO 00000KT 12SM 08/06 A2985 RMK 70033 SLP123 T00750065 54000 IEM_DS3505
ZBHH,2002-04-28 22:00,ZBHH 282200Z AUTO 00000KT 7SM 06/05 A2988 RMK T00600050 IEM_DS3505
ZBHH,2002-04-28 23:00,ZBHH 282300Z AUTO 00000KT 7SM 07/05 A2988 RMK T00700050 IEM_DS3505
ZBHH,2002-04-29 00:00,ZBHH 290000Z AUTO 00000KT 9SM 08/06 A2991 RMK 70033 SLP143 T00810063 52019 IEM_DS3505
ZBHH,2002-04-29 01:00,ZBHH 290100Z AUTO 06002KT 5SM 09/06 A2991 RMK T00900060 IEM_DS3505
ZBHH,2002-04-29 02:00,ZBHH 290200Z AUTO 33002KT 5SM 10/07 A2994 RMK T01000070 IEM_DS3505
ZBHH,2002-04-29 03:00,ZBHH 290300Z AUTO 00000KT 19SM 12/08 A2994 RMK SLP143 T01250081 52009 IEM_DS3505
ZBHH,2002-04-29 04:00,ZBHH 290400Z AUTO 26002KT 7SM 15/09 A2991 RMK T01500090 IEM_DS3505
ZBHH,2002-04-29 05:00,ZBHH 290500Z AUTO 08002KT 5SM 17/07 A2991 RMK T01700070 IEM_DS3505
ZBHH,2002-04-29 06:00,ZBHH 290600Z AUTO 00000KT 12SM 17/09 A2988 RMK SLP118 T01730094 57014 IEM_DS3505
ZBHH,2002-04-29 07:00,ZBHH 290700Z AUTO 05008KT 7SM 19/02 A2988 RMK T01900020 IEM_DS3505
ZBHH,2002-04-29 08:00,ZBHH 290800Z AUTO 06008KT 7SM 18/02 A2988 RMK T01800020 IEM_DS3505
ZBHH,2002-04-29 09:00,ZBHH 290900Z AUTO 07004KT 19SM 19/04 A2988 RMK SLP107 T01940043 57005 IEM_DS3505
ZBHH,2002-04-29 10:00,ZBHH 291000Z AUTO 07008KT 7SM 18/02 A2988 RMK T01800020 IEM_DS3505
ZBHH,2002-04-29 11:00,ZBHH 291100Z AUTO 06008KT 7SM 17/03 A2991 RMK T01700030 IEM_DS3505
ZBHH,2002-04-29 12:00,ZBHH 291200Z AUTO 07004KT 19SM 16/04 A2994 RMK SLP134 T01610039 52018 IEM_DS3505
ZBHH,2002-04-29 13:00,ZBHH 291300Z AUTO 06008KT 6SM 13/03 A2997 RMK T01300030 IEM_DS3505
ZBHH,2002-04-29 14:00,ZBHH 291400Z AUTO 08008KT 6SM 10/04 A2997 RMK T01000040 IEM_DS3505
ZBHH,2002-04-29 15:00,ZBHH 291500Z AUTO 09002KT 19SM 12/04 A2997 RMK SLP148 T01220038 52014 IEM_DS3505
ZBHH,2002-04-29 16:00,ZBHH 291600Z AUTO 08008KT 6SM 09/02 A3000 RMK T00900020 IEM_DS3505
ZBHH,2002-04-29 17:00,ZBHH 291700Z AUTO 08008KT 6SM 08/02 A3000 RMK T00800020 IEM_DS3505
ZBHH,2002-04-29 18:00,ZBHH 291800Z AUTO 00000KT 19SM 08/03 A3000 RMK SLP154 T00800034 52006 IEM_DS3505
ZBHH,2002-04-29 21:00,ZBHH 292100Z AUTO 00000KT 19SM 06/02 A3003 RMK SLP165 T00640020 52011 IEM_DS3505
ZBHH,2002-04-29 22:00,ZBHH 292200Z AUTO 04004KT 6SM 06/00 A3006 RMK T00600000 IEM_DS3505
ZBHH,2002-04-29 23:00,ZBHH 292300Z AUTO 09002KT 6SM 07/02 A3003 RMK T00700020 IEM_DS3505
ZBHH,2002-04-30 00:00,ZBHH 300000Z AUTO 00000KT 19SM 12/02 A3003 RMK SLP161 T01210021 52001 IEM_DS3505
ZBHH,2002-04-30 01:00,ZBHH 300100Z AUTO 09008KT 6SM 14/00 A3003 RMK T01400000 IEM_DS3505
ZBHH,2002-04-30 02:00,ZBHH 300200Z AUTO 17002KT 6SM 16/00 A3003 RMK T01600000 IEM_DS3505
ZBHH,2002-04-30 03:00,ZBHH 300300Z AUTO 18006KT 19SM 17/02 A3003 RMK SLP155 T01730017 57003 IEM_DS3505
ZBHH,2002-04-30 04:00,ZBHH 300400Z AUTO 23008KT 6SM 18/01 A3000 RMK T01800010 IEM_DS3505
ZBHH,2002-04-30 05:00,ZBHH 300500Z AUTO 20004KT 6SM 19/02 A2997 RMK T01900020 IEM_DS3505
ZBHH,2002-04-30 06:00,ZBHH 300600Z AUTO 18006KT 19SM 20/02 A2997 RMK SLP130 T01990018 57025 IEM_DS3505
ZBHH,2002-04-30 07:00,ZBHH 300700Z AUTO 17006KT 6SM 21/00 A2991 RMK T02100000 IEM_DS3505
ZBHH,2002-04-30 08:00,ZBHH 300800Z AUTO 16006KT 6SM 21/00 A2991 RMK T02100000 IEM_DS3505
ZBHH,2002-04-30 09:00,ZBHH 300900Z AUTO 18008KT 19SM 21/02 A2991 RMK SLP114 T02130024 57014 IEM_DS3505
ZBHH,2002-04-30 10:00,ZBHH 301000Z AUTO 17006G16KT 6SM 21/00 A2991 RMK T02100000 IEM_DS3505
ZBHH,2002-04-30 11:00,ZBHH 301100Z AUTO 16008KT 6SM 19/01 A2991 RMK T01900010 IEM_DS3505
ZBHH,2002-04-30 12:00,ZBHH 301200Z AUTO 14004KT 19SM 17/02 A2994 RMK SLP118 T01700020 52009 IEM_DS3505
ZBHH,2002-04-30 13:00,ZBHH 301300Z AUTO 14004KT 6SM 15/03 A2994 RMK T01500030 IEM_DS3505
ZBHH,2002-04-30 14:00,ZBHH 301400Z AUTO 15004KT 6SM 14/03 A2997 RMK T01400030 IEM_DS3505
ZBHH,2002-04-30 15:00,ZBHH 301500Z AUTO 20004KT 19SM 16/03 A2997 RMK SLP127 T01550031 52012 IEM_DS3505
ZBHH,2002-04-30 16:00,ZBHH 301600Z AUTO 06004KT 6SM 12/04 A2997 RMK T01200040 IEM_DS3505
ZBHH,2002-04-30 17:00,ZBHH 301700Z AUTO 01002KT 6SM 09/04 A2997 RMK T00900040 IEM_DS3505
ZBHH,2002-04-30 18:00,ZBHH 301800Z AUTO 20002KT 19SM 13/00 RMK SLP130 T01300005 52003 IEM_DS3505
ZBHH,2002-04-30 21:00,ZBHH 302100Z AUTO 04002KT 19SM 10/01 A2997 RMK SLP128 T01000012 57005 IEM_DS3505
ZBHH,2002-04-30 22:00,ZBHH 302200Z AUTO 00000KT 6SM 07/M02 A2997 RMK T00701020 IEM_DS3505
ZBHH,2002-04-30 23:00,ZBHH 302300Z AUTO 00000KT 6SM 09/01 A2997 RMK T00900010 IEM_DS3505
ZBHH,2002-05-01 00:00,ZBHH 010000Z AUTO 09004KT 19SM 13/M00 A2997 RMK SLP128 T01301005 52001 IEM_DS3505
ZBHH,2002-05-01 01:00,ZBHH 010100Z AUTO 16010KT 6SM 15/M06 A2994 RMK T01501060 IEM_DS3505
ZBHH,2002-05-01 02:00,ZBHH 010200Z AUTO 15010KT 6SM 16/M07 A2994 RMK T01601070 IEM_DS3505
ZBHH,2002-05-01 03:00,ZBHH 010300Z AUTO 16004KT 16SM 17/M05 A2991 RMK SLP112 T01721046 57013 IEM_DS3505
ZBHH,2002-05-01 04:00,ZBHH 010400Z AUTO 16010KT 6SM 18/M09 A2991 RMK T01801090 IEM_DS3505
ZBHH,2002-05-01 05:00,ZBHH 010500Z AUTO 19010KT 6SM 19/M10 A2988 RMK T01901100 IEM_DS3505
ZBHH,2002-05-01 06:00,ZBHH 010600Z AUTO 18006KT 16SM 19/M06 A2985 RMK SLP086 T01941063 57023 IEM_DS3505
ZBHH,2002-05-01 07:00,ZBHH 010700Z AUTO 20010KT 6SM 20/M08 A2983 RMK T02001080 IEM_DS3505
ZBHH,2002-05-01 08:00,ZBHH 010800Z AUTO 26010KT 6SM 18/M09 A2983 RMK T01801090 IEM_DS3505
ZBHH,2002-05-01 09:00,ZBHH 010900Z AUTO 18006KT 16SM 17/M03 A2985 RMK SLP099 T01741033 52002 IEM_DS3505
ZBHH,2002-05-01 10:00,ZBHH 011000Z AUTO 25014KT 6SM 16/M07 A2988 RMK T01601070 IEM_DS3505
ZBHH,2002-05-01 11:00,ZBHH 011100Z AUTO 25017G27KT 6SM 13/01 A2991 RMK T01300010 IEM_DS3505
ZBHH,2002-05-01 12:00,ZBHH 011200Z AUTO 22012G25KT 19SM 11/03 A2994 RMK 60003 SLP136 T01120028 52026 IEM_DS3505
ZBHH,2002-05-01 13:00,ZBHH 011300Z AUTO 26016KT 5SM 08/05 A3000 RMK T00800050 IEM_DS3505
ZBHH,2002-05-01 14:00,ZBHH 011400Z AUTO 27010KT 5SM 07/05 A3003 RMK T00700050 IEM_DS3505
ZBHH,2002-05-01 15:00,ZBHH 011500Z AUTO 22002KT 9SM 08/06 A3003 RMK SLP160 T00840055 52024 IEM_DS3505
ZBHH,2002-05-01 16:00,ZBHH 011600Z AUTO 15002KT 3SM 07/05 A3003 RMK T00700050 IEM_DS3505
ZBHH,2002-05-01 17:00,ZBHH 011700Z AUTO 12004KT 2 1/2SM 07/06 A3000 RMK T00700060 IEM_DS3505
ZBHH,2002-05-01 18:00,ZBHH 011800Z AUTO 11004KT 12SM 08/06 A2997 RMK 60016 SLP134 T00800064 57019 IEM_DS3505
ZBHH,2002-05-01 19:00,ZBHH 011900Z AUTO 27002KT 4SM 07/06 A2997 RMK T00700060 IEM_DS3505
ZBHH,2002-05-01 20:00,ZBHH 012000Z AUTO 16002KT 4SM 07/06 A2997 RMK T00700060 IEM_DS3505
ZBHH,2002-05-01 21:00,ZBHH 012100Z AUTO 20002KT 16SM 08/06 A2997 RMK 70017 SLP143 T00830056 52004 IEM_DS3505
ZBHH,2002-05-01 22:00,ZBHH 012200Z AUTO 09002KT 4SM 07/06 A3000 RMK T00700060 IEM_DS3505
ZBHH,2002-05-01 23:00,ZBHH 012300Z AUTO 00000KT 5SM 08/06 A3000 RMK T00800060 IEM_DS3505
ZBHH,2002-05-02 00:00,ZBHH 020000Z AUTO 00000KT 12SM 09/06 A3000 RMK 70017 SLP168 T00870062 52011 IEM_DS3505
ZBHH,2002-05-02 01:00,ZBHH 020100Z AUTO 22004KT 4SM 08/06 A3000 RMK T00800060 IEM_DS3505
ZBHH,2002-05-02 02:00,ZBHH 020200Z AUTO 22004KT 6SM 09/06 A3003 RMK T00900060 IEM_DS3505
ZBHH,2002-05-02 03:00,ZBHH 020300Z AUTO 20004KT 6SM 11/06 A3003 RMK SLP179 T01060062 52008 IEM_DS3505
ZBHH,2002-05-02 04:00,ZBHH 020400Z AUTO 21006KT 7SM 11/06 A3003 RMK T01100060 IEM_DS3505
ZBHH,2002-05-02 05:00,ZBHH 020500Z AUTO 20004KT 7SM 11/07 A3003 RMK T01100070 IEM_DS3505
ZBHH,2002-05-02 06:00,ZBHH 020600Z AUTO 20004KT 9SM 13/07 A3000 RMK SLP167 T01260067 57008 IEM_DS3505
ZBHH,2002-05-02 07:00,ZBHH 020700Z AUTO 19006KT 7SM 12/07 A3000 RMK T01200070 IEM_DS3505
ZBHH,2002-05-02 08:00,ZBHH 020800Z AUTO 22006KT 7SM 14/08 A2997 RMK T01400080 IEM_DS3505
ZBHH,2002-05-02 09:00,ZBHH 020900Z AUTO 20004KT 16SM 16/09 A2997 RMK SLP146 T01560090 57012 IEM_DS3505
ZBHH,2002-05-02 10:00,ZBHH 021000Z AUTO 24004KT 7SM 15/08 A2997 RMK T01500080 IEM_DS3505
ZBHH,2002-05-02 11:00,ZBHH 021100Z AUTO 23002KT 7SM 15/09 A3000 RMK T01500090 IEM_DS3505
ZBHH,2002-05-02 12:00,ZBHH 021200Z AUTO 22004KT 12SM 15/07 A3003 RMK SLP161 T01510073 52013 IEM_DS3505
ZBHH,2002-05-02 13:00,ZBHH 021300Z AUTO 21008KT 7SM 12/04 A3003 RMK T01200040 IEM_DS3505
ZBHH,2002-05-02 14:00,ZBHH 021400Z AUTO 25006KT 7SM 11/06 A3006 RMK T01100060 IEM_DS3505
ZBHH,2002-05-02 15:00,ZBHH 021500Z AUTO 22004KT 19SM 11/07 A3006 RMK SLP185 T01110067 52017 IEM_DS3505
ZBHH,2002-05-02 16:00,ZBHH 021600Z AUTO 20002KT 7SM 09/07 A3009 RMK T00900070 IEM_DS3505
ZBHH,2002-05-02 17:00,ZBHH 021700Z AUTO 31002KT 7SM 09/07 A3009 RMK T00900070 IEM_DS3505
ZBHH,2002-05-02 18:00,ZBHH 021800Z AUTO 00000KT 19SM 10/07 A3006 RMK 60003 SLP181 T01020070 57001 IEM_DS3505
ZBHH,2002-05-02 19:00,ZBHH 021900Z AUTO 11004KT 7SM 07/06 A3006 RMK T00700060 IEM_DS3505
ZBHH,2002-05-02 20:00,ZBHH 022000Z AUTO 08002KT 7SM 07/06 A3006 RMK T00700060 IEM_DS3505
ZBHH,2002-05-02 21:00,ZBHH 022100Z AUTO 00000KT 19SM 09/07 A3006 RMK 70003 SLP176 T00880066 57001 IEM_DS3505
ZBHH,2002-05-02 22:00,ZBHH 022200Z AUTO 08004KT 6SM 07/05 A3009 RMK T00700050 IEM_DS3505
ZBHH,2002-05-02 23:00,ZBHH 022300Z AUTO 07004KT 6SM 08/07 A3009 RMK T00800070 IEM_DS3505
ZBHH,2002-05-03 00:00,ZBHH 030000Z AUTO 07002KT 9SM 12/07 A3012 RMK 70003 SLP186 T01150067 52013 IEM_DS3505
ZBHH,2002-05-03 01:00,ZBHH 030100Z AUTO 00000KT 7SM 13/08 A3012 RMK T01300080 IEM_DS3505
ZBHH,2002-05-03 02:00,ZBHH 030200Z AUTO 18004KT 7SM 13/07 A3012 RMK T01300070 IEM_DS3505
ZBHH,2002-05-03 03:00,ZBHH 030300Z AUTO 18002KT 6SM 16/08 A3012 RMK SLP188 T01560083 52002 IEM_DS3505
ZBHH,2002-05-03 04:00,ZBHH 030400Z AUTO 23004KT 16/07 A3009 RMK T01600070 IEM_DS3505
ZBHH,2002-05-03 05:00,ZBHH 030500Z AUTO 33004KT 7SM 17/06 A3009 RMK T01700060 IEM_DS3505
ZBHH,2002-05-03 06:00,ZBHH 030600Z AUTO 20004KT 16SM 17/06 A3009 RMK 60003 SLP172 T01710063 57013 IEM_DS3505
ZBHH,2002-05-03 07:00,ZBHH 030700Z AUTO 05010KT 7SM 13/05 A3006 RMK T01300050 IEM_DS3505
ZBHH,2002-05-03 08:00,ZBHH 030800Z AUTO 33017G27KT 5SM 12/05 A3012 RMK T01200050 IEM_DS3505
ZBHH,2002-05-03 09:00,ZBHH 030900Z AUTO 07002KT 19SM 13/03 A3009 RMK SLP193 T01320030 52008 IEM_DS3505
ZBHH,2002-05-03 10:00,ZBHH 031000Z AUTO 16002KT 7SM 13/05 A3012 RMK T01300050 IEM_DS3505
ZBHH,2002-05-03 11:00,ZBHH 031100Z AUTO 13002KT 7SM 13/06 A3012 RMK T01300060 IEM_DS3505
ZBHH,2002-05-03 12:00,ZBHH 031200Z AUTO 07002KT 16SM 12/06 A3015 RMK 60002 SLP204 T01250059 52014 IEM_DS3505
ZBHH,2002-05-03 13:00,ZBHH 031300Z AUTO 02006KT 7SM 10/06 A3018 RMK T01000060 IEM_DS3505
ZBHH,2002-05-03 14:00,ZBHH 031400Z AUTO 01004KT 7SM 09/05 A3018 RMK T00900050 IEM_DS3505
ZBHH,2002-05-03 15:00,ZBHH 031500Z AUTO 00000KT 19SM 10/05 A3018 RMK SLP216 T01010049 52014 IEM_DS3505
ZBHH,2002-05-03 18:00,ZBHH 031800Z AUTO 09002KT 12SM 09/02 RMK SLP211 T00900025 57004 IEM_DS3505
ZBHH,2002-05-03 21:00,ZBHH 032100Z AUTO 32002KT 12SM 09/03 A3021 RMK 70002 SLP236 T00920028 52015 IEM_DS3505
ZBHH,2002-05-03 22:00,ZBHH 032200Z AUTO 08008KT 7SM 09/M01 A3021 RMK T00901010 IEM_DS3505
ZBHH,2002-05-03 23:00,ZBHH 032300Z AUTO 05004KT 7SM 09/M01 A3024 RMK T00901010 IEM_DS3505
ZBHH,2002-05-04 00:00,ZBHH 040000Z AUTO 00000KT 16SM 10/03 A3024 RMK 60003 SLP236 T01050029 52001 IEM_DS3505
ZBHH,2002-05-04 01:00,ZBHH 040100Z AUTO 07012KT 7SM 12/M02 A3021 RMK T01201020 IEM_DS3505
ZBHH,2002-05-04 02:00,ZBHH 040200Z AUTO 09006KT 7SM 11/M01 A3024 RMK T01101010 IEM_DS3505
ZBHH,2002-05-04 03:00,ZBHH 040300Z AUTO 04002KT 16SM 14/01 A3021 RMK SLP227 T01400013 57006 IEM_DS3505
ZBHH,2002-05-04 04:00,ZBHH 040400Z AUTO 07016KT 7SM 15/00 A3018 RMK T01500000 IEM_DS3505
ZBHH,2002-05-04 05:00,ZBHH 040500Z AUTO 07019KT 7SM 16/M01 A3015 RMK T01601010 IEM_DS3505
ZBHH,2002-05-04 06:00,ZBHH 040600Z AUTO 09006KT 16SM 18/M01 A3015 RMK SLP200 T01791006 57018 IEM_DS3505
ZBHH,2002-05-04 07:00,ZBHH 040700Z AUTO 07017KT 7SM 17/00 A3012 RMK T01700000 IEM_DS3505
ZBHH,2002-05-04 08:00,ZBHH 040800Z AUTO 06019KT 7SM 18/01 A3009 RMK T01800010 IEM_DS3505
ZBHH,2002-05-04 09:00,ZBHH 040900Z AUTO 02008G29KT 16SM 19/00 A3006 RMK SLP174 T01860004 57021 IEM_DS3505
ZBHH,2002-05-04 10:00,ZBHH 041000Z AUTO 08017KT 7SM 17/00 A3006 RMK T01700000 IEM_DS3505
ZBHH,2002-05-04 11:00,ZBHH 041100Z AUTO 08012KT 7SM 15/02 A3009 RMK T01500020 IEM_DS3505
ZBHH,2002-05-04 12:00,ZBHH 041200Z AUTO 04004KT 19SM 16/01 A3009 RMK SLP180 T01610007 52003 IEM_DS3505
ZBHH,2002-05-04 13:00,ZBHH 041300Z AUTO 07014KT 7SM 15/M02 A3009 RMK T01501020 IEM_DS3505
ZBHH,2002-05-04 14:00,ZBHH 041400Z AUTO 06012KT 6SM 15/M01 A3009 RMK T01501010 IEM_DS3505
ZBHH,2002-05-04 15:00,ZBHH 041500Z AUTO 04006KT 19SM 15/M00 A3009 RMK SLP178 T01521005 52003 IEM_DS3505
ZBHH,2002-05-04 16:00,ZBHH 041600Z AUTO 06006KT 6SM 14/01 A3009 RMK T01400010 IEM_DS3505
ZBHH,2002-05-04 17:00,ZBHH 041700Z AUTO 09006KT 6SM 13/03 A3009 RMK T01300030 IEM_DS3505
ZBHH,2002-05-04 18:00,ZBHH 041800Z AUTO 02002KT 9SM 13/05 A3009 RMK 60003 SLP171 T01320051 57003 IEM_DS3505
ZBHH,2002-05-04 19:00,ZBHH 041900Z AUTO 13002KT 7SM 12/04 A3009 RMK T01200040 IEM_DS3505
ZBHH,2002-05-04 20:00,ZBHH 042000Z AUTO 20004KT 4SM 11/07 A3012 RMK T01100070 IEM_DS3505
ZBHH,2002-05-04 21:00,ZBHH 042100Z AUTO 18002KT 19SM 11/10 A3012 RMK 70017 SLP179 T01120095 52005 IEM_DS3505
ZBHH,2002-05-04 22:00,ZBHH 042200Z AUTO 15002KT 3SM 09/08 A3012 RMK T00900080 IEM_DS3505
ZBHH,2002-05-04 23:00,ZBHH 042300Z AUTO 11002KT 4SM 09/08 A3012 RMK T00900080 IEM_DS3505
ZBHH,2002-05-05 00:00,ZBHH 050000Z AUTO 09002KT 16SM 10/08 A3012 RMK 60051 SLP188 T00960084 54000 IEM_DS3505
ZBHH,2002-05-05 01:00,ZBHH 050100Z AUTO 08004KT 4SM 09/08 A3009 RMK T00900080 IEM_DS3505
ZBHH,2002-05-05 02:00,ZBHH 050200Z AUTO 10004KT 5SM 09/07 A3009 RMK T00900070 IEM_DS3505
ZBHH,2002-05-05 03:00,ZBHH 050300Z AUTO 11004KT 9SM 09/08 A3009 RMK SLP184 T00910075 57006 IEM_DS3505
ZBHH,2002-05-05 04:00,ZBHH 050400Z AUTO 09006KT 4SM 08/07 A3009 RMK T00800070 IEM_DS3505
ZBHH,2002-05-05 05:00,ZBHH 050500Z AUTO 09008KT 4SM 08/07 A3006 RMK T00800070 IEM_DS3505
ZBHH,2002-05-05 06:00,ZBHH 050600Z AUTO 07006KT 9SM 09/07 A3006 RMK 60071 SLP181 T00860072 57008 IEM_DS3505
ZBHH,2002-05-05 07:00,ZBHH 050700Z AUTO 09006KT 6SM 08/06 A3006 RMK T00800060 IEM_DS3505
ZBHH,2002-05-05 08:00,ZBHH 050800Z AUTO 05004KT 4SM 08/07 A3003 RMK T00800070 IEM_DS3505
ZBHH,2002-05-05 09:00,ZBHH 050900Z AUTO 04006KT 7SM 09/08 A3003 RMK SLP174 T00860076 IEM_DS3505
ZBHH,2002-05-05 10:00,ZBHH 051000Z AUTO 03008KT 2 1/2SM 08/07 A3003 RMK T00800070 IEM_DS3505
ZBHH,2002-05-05 11:00,ZBHH 051100Z AUTO 04008KT 3SM 08/07 A3006 RMK T00800070 IEM_DS3505
ZBHH,2002-05-05 12:00,ZBHH 051200Z AUTO 04004KT 6SM 09/08 A3006 RMK 60039 SLP188 T00900076 52010 IEM_DS3505
ZBHH,2002-05-05 13:00,ZBHH 051300Z AUTO 01004KT 7SM 09/07 A3009 RMK T00900070 IEM_DS3505
ZBHH,2002-05-05 14:00,ZBHH 051400Z AUTO 03002KT 5SM 09/07 A3009 RMK T00900070 IEM_DS3505
ZBHH,2002-05-05 15:00,ZBHH 051500Z AUTO 32002KT 9SM 10/08 A3009 RMK SLP197 T00980078 52008 IEM_DS3505
ZBHH,2002-05-05 16:00,ZBHH 051600Z AUTO 05004KT 7SM 09/07 A3009 RMK T00900070 IEM_DS3505
ZBHH,2002-05-05 17:00,ZBHH 051700Z AUTO 11002KT 4SM 09/07 A3006 RMK T00900070 IEM_DS3505
ZBHH,2002-05-05 18:00,ZBHH 051800Z AUTO 00000KT 12SM 10/08 A3003 RMK 60001 SLP182 T00970077 57014 IEM_DS3505
ZBHH,2002-05-05 19:00,ZBHH 051900Z AUTO 04002KT 3SM 09/07 A3003 RMK T00900070 IEM_DS3505
ZBHH,2002-05-05 20:00,ZBHH 052000Z AUTO 08002KT 2 1/2SM 09/07 A3003 RMK T00900070 IEM_DS3505
ZBHH,2002-05-05 21:00,ZBHH 052100Z AUTO 00000KT 12SM 10/08 A3003 RMK 70144 SLP173 T00950081 57008 IEM_DS3505
ZBHH,2002-05-05 22:00,ZBHH 052200Z AUTO 07004KT 2 1/2SM 08/07 A3000 RMK T00800070 IEM_DS3505
ZBHH,2002-05-05 23:00,ZBHH 052300Z AUTO 10002KT 4SM 09/07 A3003 RMK T00900070 IEM_DS3505
ZBHH,2002-05-06 00:00,ZBHH 060000Z AUTO 00000KT 12SM 11/08 A3003 RMK 70111 SLP170 T01090078 52001 IEM_DS3505
ZBHH,2002-05-06 01:00,ZBHH 060100Z AUTO 00000KT 7SM 12/07 A3003 RMK T01200070 IEM_DS3505
ZBHH,2002-05-06 02:00,ZBHH 060200Z AUTO 21002KT 7SM 12/08 A3003 RMK T01200080 IEM_DS3505
ZBHH,2002-05-06 03:00,ZBHH 060300Z AUTO 00000KT 12SM 13/08 A3003 RMK SLP165 T01300078 52001 IEM_DS3505
ZBHH,2002-05-06 04:00,ZBHH 060400Z AUTO 19004KT 7SM 15/08 A3000 RMK T01500080 IEM_DS3505
ZBHH,2002-05-06 05:00,ZBHH 060500Z AUTO 23006KT 7SM 15/07 A2997 RMK T01500070 IEM_DS3505
ZBHH,2002-05-06 06:00,ZBHH 060600Z AUTO 18004KT 16SM 16/07 A2994 RMK SLP138 T01570071 57019 IEM_DS3505
ZBHH,2002-05-06 07:00,ZBHH 060700Z AUTO 22004KT 7SM 16/08 A2994 RMK T01600080 IEM_DS3505
ZBHH,2002-05-06 08:00,ZBHH 060800Z AUTO 22006KT 7SM 16/07 A2991 RMK T01600070 IEM_DS3505
ZBHH,2002-05-06 09:00,ZBHH 060900Z AUTO 20004KT 19SM 16/08 A2988 RMK SLP114 T01630077 57020 IEM_DS3505
ZBHH,2002-05-06 10:00,ZBHH 061000Z AUTO 22004KT 7SM 16/08 A2988 RMK T01600080 IEM_DS3505
ZBHH,2002-05-06 11:00,ZBHH 061100Z AUTO 24006KT 6SM 15/08 A2988 RMK T01500080 IEM_DS3505
ZBHH,2002-05-06 12:00,ZBHH 061200Z AUTO 20004KT 12SM 15/08 A2988 RMK SLP110 T01480080 57004 IEM_DS3505
ZBHH,2002-05-06 13:00,ZBHH 061300Z AUTO 08002KT 6SM 12/09 A2988 RMK T01200090 IEM_DS3505
ZBHH,2002-05-06 14:00,ZBHH 061400Z AUTO 10004KT 4SM 11/09 A2988 RMK T01100090 IEM_DS3505
ZBHH,2002-05-06 15:00,ZBHH 061500Z AUTO 20004KT 19SM 13/08 A2988 RMK SLP112 T01340081 52003 IEM_DS3505
ZBHH,2002-05-06 16:00,ZBHH 061600Z AUTO 00000KT 5SM 11/08 A2988 RMK T01100080 IEM_DS3505
ZBHH,2002-05-06 17:00,ZBHH 061700Z AUTO 26004KT 4SM 12/09 A2994 RMK T01200090 IEM_DS3505
ZBHH,2002-05-06 18:00,ZBHH 061800Z AUTO 32004KT 9SM 08/05 A2997 RMK 60031 SLP138 T00840048 52019 IEM_DS3505
ZBHH,2002-05-06 19:00,ZBHH 061900Z AUTO 05006KT 7SM 07/06 A2991 RMK T00700060 IEM_DS3505
ZBHH,2002-05-06 20:00,ZBHH 062000Z AUTO 09006KT 7SM 07/06 A2991 RMK T00700060 IEM_DS3505
ZBHH,2002-05-06 21:00,ZBHH 062100Z AUTO 09002KT 19SM 08/06 A2991 RMK 70046 SLP126 T00780059 57011 IEM_DS3505
ZBHH,2002-05-06 22:00,ZBHH 062200Z AUTO 00000KT 7SM 07/06 A2991 RMK T00700060 IEM_DS3505
ZBHH,2002-05-06 23:00,ZBHH 062300Z AUTO 36002KT 7SM 08/06 A2991 RMK T00800060 IEM_DS3505
ZBHH,2002-05-07 00:00,ZBHH 070000Z AUTO 32002KT 12SM 09/06 A2991 RMK 60016 SLP133 T00910065 52006 IEM_DS3505
ZBHH,2002-05-07 01:00,ZBHH 070100Z AUTO 00000KT 7SM 10/06 A2994 RMK T01000060 IEM_DS3505
ZBHH,2002-05-07 02:00,ZBHH 070200Z AUTO 18002KT 7SM 12/07 A2991 RMK T01200070 IEM_DS3505
ZBHH,2002-05-07 03:00,ZBHH 070300Z AUTO 18008KT 12SM 13/08 A2991 RMK SLP123 T01290077 57004 IEM_DS3505
ZBHH,2002-05-07 04:00,ZBHH 070400Z AUTO 24008KT 7SM 14/09 A2991 RMK T01400090 IEM_DS3505
ZBHH,2002-05-07 05:00,ZBHH 070500Z AUTO 24012KT 7SM 15/08 A2991 RMK T01500080 IEM_DS3505
ZBHH,2002-05-07 06:00,ZBHH 070600Z AUTO 18012KT 12SM 15/07 A2991 RMK 60003 SLP123 T01480067 57006 IEM_DS3505
ZBHH,2002-05-07 07:00,ZBHH 070700Z AUTO 23006G16KT 7SM 12/06 A2991 RMK T01200060 IEM_DS3505
ZBHH,2002-05-07 08:00,ZBHH 070800Z AUTO 25010KT 7SM 17/05 A2988 RMK T01700050 IEM_DS3505
ZBHH,2002-05-07 09:00,ZBHH 070900Z AUTO 22006KT 16SM 17/02 A2988 RMK SLP106 T01740023 57011 IEM_DS3505
ZBHH,2002-05-07 10:00,ZBHH 071000Z AUTO 24010KT 7SM 17/04 A2988 RMK T01700040 IEM_DS3505
ZBHH,2002-05-07 11:00,ZBHH 071100Z AUTO 29006KT 7SM 16/01 A2991 RMK T01600010 IEM_DS3505
ZBHH,2002-05-07 12:00,ZBHH 071200Z AUTO 32004KT 19SM 15/M03 A2994 RMK 60004 SLP133 T01491028 52021 IEM_DS3505
ZBHH,2002-05-07 13:00,ZBHH 071300Z AUTO 32008KT 6SM 13/M02 A2997 RMK T01301020 IEM_DS3505
ZBHH,2002-05-07 14:00,ZBHH 071400Z AUTO 28006KT 6SM 12/M02 A3000 RMK T01201020 IEM_DS3505
ZBHH,2002-05-07 15:00,ZBHH 071500Z AUTO 32004KT 19SM 12/M02 A3000 RMK SLP153 T01171023 52019 IEM_DS3505
ZBHH,2002-05-07 18:00,ZBHH 071800Z AUTO 00000KT 19SM 09/M01 RMK SLP176 T00901012 52019 IEM_DS3505
ZBHH,2002-05-07 21:00,ZBHH 072100Z AUTO 36002KT 19SM 08/M02 A3006 RMK 70005 SLP176 T00781020 52002 IEM_DS3505
ZBHH,2002-05-07 22:00,ZBHH 072200Z AUTO 08004KT 6SM 03/M01 A3009 RMK T00301010 IEM_DS3505
ZBHH,2002-05-07 23:00,ZBHH 072300Z AUTO 05002KT 6SM 07/00 A3009 RMK T00700000 IEM_DS3505
ZBHH,2002-05-08 00:00,ZBHH 080000Z AUTO 14002KT 19SM 12/M01 A3009 RMK 70005 SLP189 T01161008 52014 IEM_DS3505
ZBHH,2002-05-08 01:00,ZBHH 080100Z AUTO 33002KT 6SM 12/M04 A3012 RMK T01201040 IEM_DS3505
ZBHH,2002-05-08 02:00,ZBHH 080200Z AUTO 27002KT 6SM 14/M02 A3015 RMK T01401020 IEM_DS3505
ZBHH,2002-05-08 03:00,ZBHH 080300Z AUTO 18006KT 16SM 15/M00 A3015 RMK SLP199 T01541002 52010 IEM_DS3505
ZBHH,2002-05-08 04:00,ZBHH 080400Z AUTO 21006KT 6SM 15/M01 A3015 RMK T01501010 IEM_DS3505
ZBHH,2002-05-08 05:00,ZBHH 080500Z AUTO 21006KT 6SM 15/M01 A3012 RMK T01501010 IEM_DS3505
ZBHH,2002-05-08 06:00,ZBHH 080600Z AUTO 18006KT 19SM 17/M02 A3012 RMK SLP190 T01701015 57010 IEM_DS3505
ZBHH,2002-05-08 07:00,ZBHH 080700Z AUTO 22004KT 6SM 17/M01 A3009 RMK T01701010 IEM_DS3505
ZBHH,2002-05-08 08:00,ZBHH 080800Z AUTO 21006KT 6SM 17/M02 A3009 RMK T01701020 IEM_DS3505
ZBHH,2002-05-08 09:00,ZBHH 080900Z AUTO 20004KT 16SM 17/M01 A3009 RMK SLP181 T01721011 57010 IEM_DS3505
ZBHH,2002-05-08 10:00,ZBHH 081000Z AUTO 24004KT 6SM 17/M01 A3009 RMK T01701010 IEM_DS3505
ZBHH,2002-05-08 11:00,ZBHH 081100Z AUTO 25004KT 6SM 16/00 A3009 RMK T01600000 IEM_DS3505
ZBHH,2002-05-08 12:00,ZBHH 081200Z AUTO 00000KT 19SM 16/M01 A3012 RMK SLP186 T01571010 52009 IEM_DS3505
ZBHH,2002-05-08 13:00,ZBHH 081300Z AUTO 01004KT 6SM 12/03 A3015 RMK T01200030 IEM_DS3505
ZBHH,2002-05-08 14:00,ZBHH 081400Z AUTO 01006KT 6SM 12/02 A3015 RMK T01200020 IEM_DS3505
ZBHH,2002-05-08 15:00,ZBHH 081500Z AUTO 00000KT 19SM 12/03 RMK SLP194 T01220027 52008 IEM_DS3505
ZBHH,2002-05-08 18:00,ZBHH 081800Z AUTO 00000KT 19SM 08/04 RMK SLP193 T00810035 57006 IEM_DS3505
ZBHH,2002-05-08 21:00,ZBHH 082100Z AUTO 00000KT 19SM 09/M00 A3009 RMK SLP187 T00891004 57003 IEM_DS3505
ZBHH,2002-05-08 22:00,ZBHH 082200Z AUTO 08008KT 6SM 07/00 A3009 RMK T00700000 IEM_DS3505
ZBHH,2002-05-08 23:00,ZBHH 082300Z AUTO 05004KT 6SM 09/00 A3009 RMK T00900000 IEM_DS3505
ZBHH,2002-05-09 00:00,ZBHH 090000Z AUTO 00000KT 19SM 13/00 A3012 RMK SLP187 T01260004 52004 IEM_DS3505
ZBHH,2002-05-09 01:00,ZBHH 090100Z AUTO 11002KT 6SM 13/01 A3012 RMK T01300010 IEM_DS3505
ZBHH,2002-05-09 02:00,ZBHH 090200Z AUTO 13004KT 6SM 15/00 A3012 RMK T01500000 IEM_DS3505
ZBHH,2002-05-09 03:00,ZBHH 090300Z AUTO 18002KT 16SM 17/M01 A3012 RMK SLP183 T01691010 57002 IEM_DS3505
ZBHH,2002-05-09 04:00,ZBHH 090400Z AUTO 22002KT 6SM 18/00 A3009 RMK T01800000 IEM_DS3505
ZBHH,2002-05-09 05:00,ZBHH 090500Z AUTO 24004KT 6SM 19/M02 A3006 RMK T01901020 IEM_DS3505
ZBHH,2002-05-09 06:00,ZBHH 090600Z AUTO 20004KT 19SM 20/00 A3003 RMK SLP158 T01960002 57025 IEM_DS3505
ZBHH,2002-05-09 07:00,ZBHH 090700Z AUTO 23006G16KT 6SM 20/M02 A3000 RMK T02001020 IEM_DS3505
ZBHH,2002-05-09 08:00,ZBHH 090800Z AUTO 18002KT 6SM 20/M03 A2997 RMK T02001030 IEM_DS3505
ZBHH,2002-05-09 09:00,ZBHH 090900Z AUTO 22004KT 19SM 20/02 A2994 RMK SLP129 T01980023 57023 IEM_DS3505
ZBHH,2002-05-09 10:00,ZBHH 091000Z AUTO 24008KT 6SM 19/01 A2994 RMK T01900010 IEM_DS3505
ZBHH,2002-05-09 11:00,ZBHH 091100Z AUTO 22006KT 6SM 18/02 A2991 RMK T01800020 IEM_DS3505
ZBHH,2002-05-09 12:00,ZBHH 091200Z AUTO 18004KT 12SM 18/03 A2997 RMK SLP128 T01760031 52002 IEM_DS3505
ZBHH,2002-05-09 13:00,ZBHH 091300Z AUTO 18008KT 6SM 15/05 A2997 RMK T01500050 IEM_DS3505
ZBHH,2002-05-09 14:00,ZBHH 091400Z AUTO 19004KT 6SM 14/05 A3000 RMK T01400050 IEM_DS3505
ZBHH,2002-05-09 15:00,ZBHH 091500Z AUTO 22004KT 19SM 14/05 A2997 RMK SLP128 T01400052 52001 IEM_DS3505
ZBHH,2002-05-09 16:00,ZBHH 091600Z AUTO 28002KT 6SM 11/06 A2994 RMK T01100060 IEM_DS3505
ZBHH,2002-05-09 18:00,ZBHH 091800Z AUTO 00000KT 12SM 12/06 RMK SLP124 T01240065 57001 IEM_DS3505
ZBHH,2002-05-09 19:00,ZBHH 091900Z AUTO 33004KT 7SM 07/05 A3000 RMK T00700050 IEM_DS3505
ZBHH,2002-05-09 20:00,ZBHH 092000Z AUTO 13008KT 7SM 07/05 A2994 RMK T00700050 IEM_DS3505
ZBHH,2002-05-09 21:00,ZBHH 092100Z AUTO 00000KT 19SM 08/06 A2994 RMK 70026 SLP128 T00760057 57006 IEM_DS3505
ZBHH,2002-05-09 22:00,ZBHH 092200Z AUTO 30004KT 7SM 06/05 A2994 RMK T00600050 IEM_DS3505
ZBHH,2002-05-09 23:00,ZBHH 092300Z AUTO 02002KT 7SM 07/05 A2994 RMK T00700050 IEM_DS3505
ZBHH,2002-05-10 00:00,ZBHH 100000Z AUTO 00000KT 12SM 10/06 A2994 RMK 60028 SLP127 T00960061 57001 IEM_DS3505
ZBHH,2002-05-10 01:00,ZBHH 100100Z AUTO 12002KT 7SM 09/06 A2994 RMK T00900060 IEM_DS3505
ZBHH,2002-05-10 02:00,ZBHH 100200Z AUTO 00000KT 7SM 10/06 A2997 RMK T01000060 IEM_DS3505
ZBHH,2002-05-10 03:00,ZBHH 100300Z AUTO 20004KT 9SM 14/09 A2994 RMK SLP130 T01400094 52004 IEM_DS3505
ZBHH,2002-05-10 04:00,ZBHH 100400Z AUTO 26002KT 4SM 14/10 A2991 RMK T01400100 IEM_DS3505
ZBHH,2002-05-10 05:00,ZBHH 100500Z AUTO 06004KT 4SM 13/09 A2991 RMK T01300090 IEM_DS3505
ZBHH,2002-05-10 06:00,ZBHH 100600Z AUTO 20004KT 9SM 16/10 A2988 RMK 60002 SLP106 T01590100 57020 IEM_DS3505
ZBHH,2002-05-10 07:00,ZBHH 100700Z AUTO 05002KT 4SM 16/11 A2985 RMK T01600110 IEM_DS3505
ZBHH,2002-05-10 08:00,ZBHH 100800Z AUTO 06004KT 6SM 17/11 A2983 RMK T01700110 IEM_DS3505
ZBHH,2002-05-10 09:00,ZBHH 100900Z AUTO 02004KT 12SM 18/12 A2980 RMK SLP081 T01820119 57027 IEM_DS3505
ZBHH,2002-05-10 10:00,ZBHH 101000Z AUTO 05006KT 7SM 17/11 A2980 RMK T01700110 IEM_DS3505
ZBHH,2002-05-10 11:00,ZBHH 101100Z AUTO 01004KT 5SM 17/12 A2980 RMK T01700120 IEM_DS3505
ZBHH,2002-05-10 12:00,ZBHH 101200Z AUTO 07002KT 16SM 16/12 A2980 RMK SLP084 T01650120 52003 IEM_DS3505
ZBHH,2002-05-10 13:00,ZBHH 101300Z AUTO 09002KT 4SM 14/11 A2983 RMK T01400110 IEM_DS3505
ZBHH,2002-05-10 14:00,ZBHH 101400Z AUTO 18002KT 4SM 14/10 A2985 RMK T01400100 IEM_DS3505
ZBHH,2002-05-10 15:00,ZBHH 101500Z AUTO 00000KT 12SM 14/08 A2985 RMK SLP097 T01380081 52015 IEM_DS3505
ZBHH,2002-05-10 16:00,ZBHH 101600Z AUTO 06004KT 6SM 11/08 A2983 RMK T01100080 IEM_DS3505
ZBHH,2002-05-10 17:00,ZBHH 101700Z AUTO 06004KT 7SM 10/06 A2985 RMK T01000060 IEM_DS3505
ZBHH,2002-05-10 18:00,ZBHH 101800Z AUTO 04002KT 12SM 10/06 A2985 RMK SLP096 T01020062 57004 IEM_DS3505
ZBHH,2002-05-10 19:00,ZBHH 101900Z AUTO 00000KT 7SM 09/04 A2983 RMK T00900040 IEM_DS3505
ZBHH,2002-05-10 20:00,ZBHH 102000Z AUTO 05002KT 7SM 08/04 A2983 RMK T00800040 IEM_DS3505
ZBHH,2002-05-10 21:00,ZBHH 102100Z AUTO 00000KT 19SM 08/07 A2983 RMK 70002 SLP091 T00810067 57004 IEM_DS3505
ZBHH,2002-05-10 22:00,ZBHH 102200Z AUTO 06002KT 6SM 07/05 A2983 RMK T00700050 IEM_DS3505
ZBHH,2002-05-10 23:00,ZBHH 102300Z AUTO 09002KT 6SM 10/06 A2985 RMK T01000060 IEM_DS3505
ZBHH,2002-05-11 00:00,ZBHH 110000Z AUTO 07002KT 16SM 15/07 A2985 RMK 70002 SLP096 T01470068 52013 IEM_DS3505
ZBHH,2002-05-11 01:00,ZBHH 110100Z AUTO 14002KT 6SM 16/10 A2988 RMK T01600100 IEM_DS3505
ZBHH,2002-05-11 02:00,ZBHH 110200Z AUTO 18002KT 17/10 A2988 RMK T01700100 IEM_DS3505
ZBHH,2002-05-11 03:00,ZBHH 110300Z AUTO 07004KT 16SM 19/10 A2988 RMK SLP092 T01940103 52001 IEM_DS3505
ZBHH,2002-05-11 04:00,ZBHH 110400Z AUTO 22004KT 7SM 20/10 A2985 RMK T02000100 IEM_DS3505
ZBHH,2002-05-11 05:00,ZBHH 110500Z AUTO 28002KT 7SM 21/10 A2985 RMK T02100100 IEM_DS3505
ZBHH,2002-05-11 06:00,ZBHH 110600Z AUTO 27002KT 9SM 22/08 A2983 RMK SLP080 T02220085 57012 IEM_DS3505
ZBHH,2002-05-11 07:00,ZBHH 110700Z AUTO 06002KT 7SM 22/09 A2983 RMK T02200090 IEM_DS3505
ZBHH,2002-05-11 08:00,ZBHH 110800Z AUTO 23004KT 7SM 22/08 A2983 RMK T02200080 IEM_DS3505
ZBHH,2002-05-11 09:00,ZBHH 110900Z AUTO 20006KT 7SM 20/08 A2983 RMK SLP086 T02040078 57003 IEM_DS3505
ZBHH,2002-05-11 10:00,ZBHH 111000Z AUTO 32014KT 7SM 22/03 A2985 RMK T02200030 IEM_DS3505
ZBHH,2002-05-11 11:00,ZBHH 111100Z AUTO 36008KT 7SM 20/03 A2985 RMK T02000030 IEM_DS3505
ZBHH,2002-05-11 12:00,ZBHH 111200Z AUTO 36004KT 19SM 20/04 A2988 RMK 60003 SLP095 T01960035 52019 IEM_DS3505
ZBHH,2002-05-11 13:00,ZBHH 111300Z AUTO 03008KT 7SM 17/03 A2991 RMK T01700030 IEM_DS3505
ZBHH,2002-05-11 14:00,ZBHH 111400Z AUTO 10004KT 7SM 15/03 A2994 RMK T01500030 IEM_DS3505
ZBHH,2002-05-11 15:00,ZBHH 111500Z AUTO 34002KT 19SM 14/05 A2994 RMK SLP119 T01360051 52019 IEM_DS3505
ZBHH,2002-05-11 16:00,ZBHH 111600Z AUTO 08004KT 7SM 12/05 A2997 RMK T01200050 IEM_DS3505
ZBHH,2002-05-11 18:00,ZBHH 111800Z AUTO 36002KT 19SM 12/05 RMK SLP124 T01190049 52007 IEM_DS3505
ZBHH,2002-05-11 21:00,ZBHH 112100Z AUTO 00000KT 19SM 09/06 A3000 RMK 70003 SLP139 T00900061 52004 IEM_DS3505
ZBHH,2002-05-11 22:00,ZBHH 112200Z AUTO 11004KT 6SM 07/04 A3000 RMK T00700040 IEM_DS3505
ZBHH,2002-05-11 23:00,ZBHH 112300Z AUTO 08004KT 6SM 11/05 A3003 RMK T01100050 IEM_DS3505
ZBHH,2002-05-12 00:00,ZBHH 120000Z AUTO 00000KT 19SM 15/05 A3003 RMK 70003 SLP141 T01540053 52012 IEM_DS3505
ZBHH,2002-05-12 01:00,ZBHH 120100Z AUTO 10006KT 6SM 17/06 A3003 RMK T01700060 IEM_DS3505
ZBHH,2002-05-12 02:00,ZBHH 120200Z AUTO 09008KT 6SM 20/04 A3006 RMK T02000040 IEM_DS3505
ZBHH,2002-05-12 03:00,ZBHH 120300Z AUTO 00000KT 9SM 22/03 A3006 RMK SLP145 T02150030 52004 IEM_DS3505
ZBHH,2002-05-12 04:00,ZBHH 120400Z AUTO 07002KT 6SM 24/02 A3003 RMK T02400020 IEM_DS3505
ZBHH,2002-05-12 05:00,ZBHH 120500Z AUTO 07002KT 6SM 24/M02 A3003 RMK T02401020 IEM_DS3505
ZBHH,2002-05-12 06:00,ZBHH 120600Z AUTO 25004KT 9SM 23/00 A3003 RMK SLP136 T02260005 57009 IEM_DS3505
ZBHH,2002-05-12 07:00,ZBHH 120700Z AUTO 29006KT 7SM 22/03 A3000 RMK T02200030 IEM_DS3505
ZBHH,2002-05-12 08:00,ZBHH 120800Z AUTO 35006G16KT 7SM 22/01 A3000 RMK T02200010 IEM_DS3505
ZBHH,2002-05-12 09:00,ZBHH 120900Z AUTO 02008KT 12SM 22/01 A3003 RMK SLP141 T02150014 57003 IEM_DS3505
ZBHH,2002-05-12 10:00,ZBHH 121000Z AUTO 03014KT 7SM 20/04 A3000 RMK T02000040 IEM_DS3505
ZBHH,2002-05-12 11:00,ZBHH 121100Z AUTO 06008KT 7SM 19/03 A3000 RMK T01900030 IEM_DS3505
ZBHH,2002-05-12 12:00,ZBHH 121200Z AUTO 04002KT 19SM 18/05 A3000 RMK SLP140 T01820054 52005 IEM_DS3505
ZBHH,2002-05-12 13:00,ZBHH 121300Z AUTO 04006KT 7SM 17/04 A3003 RMK T01700040 IEM_DS3505
ZBHH,2002-05-12 14:00,ZBHH 121400Z AUTO 06006KT 6SM 15/07 A3003 RMK T01500070 IEM_DS3505
ZBHH,2002-05-12 15:00,ZBHH 121500Z AUTO 00000KT 12SM 15/08 RMK SLP139 T01510077 52005 IEM_DS3505
ZBHH,2002-05-12 16:00,ZBHH 121600Z AUTO 12002KT 6SM 15/07 A3003 RMK T01500070 IEM_DS3505
ZBHH,2002-05-12 21:00,ZBHH 122100Z AUTO 00000KT 9SM 14/10 A3003 RMK 70000 SLP140 T01440100 52001 IEM_DS3505
ZBHH,2002-05-12 22:00,ZBHH 122200Z AUTO 01002KT 7SM 13/10 A3003 RMK T01300100 IEM_DS3505
ZBHH,2002-05-12 23:00,ZBHH 122300Z AUTO 01004KT 7SM 13/11 A3003 RMK T01300110 IEM_DS3505
ZBHH,2002-05-13 00:00,ZBHH 130000Z AUTO 00000KT 16SM 15/12 A3003 RMK 60004 SLP149 T01530122 52004 IEM_DS3505
ZBHH,2002-05-13 01:00,ZBHH 130100Z AUTO 07004KT 7SM 16/11 A3006 RMK T01600110 IEM_DS3505
ZBHH,2002-05-13 02:00,ZBHH 130200Z AUTO 08006KT 7SM 17/11 A3003 RMK T01700110 IEM_DS3505
ZBHH,2002-05-13 03:00,ZBHH 130300Z AUTO 02002KT 16SM 18/10 A3003 RMK SLP145 T01820104 57004 IEM_DS3505
ZBHH,2002-05-13 04:00,ZBHH 130400Z AUTO 06002KT 7SM 20/10 A3000 RMK T02000100 IEM_DS3505
ZBHH,2002-05-13 05:00,ZBHH 130500Z AUTO 02002KT 7SM 20/10 A2997 RMK T02000100 IEM_DS3505
ZBHH,2002-05-13 06:00,ZBHH 130600Z AUTO 02002KT 16SM 22/10 A2994 RMK 60003 SLP106 T02160105 57027 IEM_DS3505
ZBHH,2002-05-13 07:00,ZBHH 130700Z AUTO 17004KT 7SM 18/08 A2994 RMK T01800080 IEM_DS3505
ZBHH,2002-05-13 08:00,ZBHH 130800Z AUTO 10002KT 7SM 17/11 A2994 RMK T01700110 IEM_DS3505
ZBHH,2002-05-13 09:00,ZBHH 130900Z AUTO 00000KT 12SM 16/08 A2994 RMK 60003 SLP134 T01560085 57002 IEM_DS3505
ZBHH,2002-05-13 10:00,ZBHH 131000Z AUTO 07008KT 7SM 16/11 A2994 RMK T01600110 IEM_DS3505
ZBHH,2002-05-13 11:00,ZBHH 131100Z AUTO 09004KT 7SM 15/10 A2997 RMK T01500100 IEM_DS3505
ZBHH,2002-05-13 12:00,ZBHH 131200Z AUTO 00000KT 16SM 15/12 A3000 RMK 60004 T01530122 52004 IEM_DS3505
ZBHH,2002-05-13 13:00,ZBHH 131300Z AUTO 15004KT 7SM 15/11 A3003 RMK T01500110 IEM_DS3505
ZBHH,2002-05-13 14:00,ZBHH 131400Z AUTO 12002KT 5SM 14/11 A3003 RMK T01400110 IEM_DS3505
ZBHH,2002-05-13 15:00,ZBHH 131500Z AUTO 29002KT 7SM 14/12 A3003 RMK SLP142 T01410124 52004 IEM_DS3505
ZBHH,2002-05-13 16:00,ZBHH 131600Z AUTO 08006KT 4SM 13/11 A3000 RMK T01300110 IEM_DS3505
ZBHH,2002-05-13 17:00,ZBHH 131700Z AUTO 08004KT 3SM 11/10 A3000 RMK T01100100 IEM_DS3505
ZBHH,2002-05-13 18:00,ZBHH 131800Z AUTO 00000KT 12SM 13/11 A2997 RMK 60008 SLP122 T01310111 57013 IEM_DS3505
ZBHH,2002-05-13 19:00,ZBHH 131900Z AUTO 05002KT 3SM 11/10 A2997 RMK T01100100 IEM_DS3505
ZBHH,2002-05-13 20:00,ZBHH 132000Z AUTO 01002KT 4SM 11/10 A2994 RMK T01100100 IEM_DS3505
ZBHH,2002-05-13 21:00,ZBHH 132100Z AUTO 00000KT 16SM 13/12 A2994 RMK 70012 SLP117 T01290115 57010 IEM_DS3505
ZBHH,2002-05-13 22:00,ZBHH 132200Z AUTO 08004KT 4SM 11/10 A2994 RMK T01100100 IEM_DS3505
ZBHH,2002-05-13 23:00,ZBHH 132300Z AUTO 00000KT 4SM 13/11 A2994 RMK T01300110 IEM_DS3505
ZBHH,2002-05-14 00:00,ZBHH 140000Z AUTO 04002KT 9SM 15/11 RMK 70007 SLP127 T01470106 52007 IEM_DS3505
ZBHH,2002-05-14 03:00,ZBHH 140300Z AUTO 18006KT 12SM 17/08 A2994 RMK SLP123 T01710084 57003 IEM_DS3505
ZBHH,2002-05-14 04:00,ZBHH 140400Z AUTO 15008KT 7SM 17/07 A2997 RMK T01700070 IEM_DS3505
ZBHH,2002-05-14 05:00,ZBHH 140500Z AUTO 15008KT 7SM 17/07 A2994 RMK T01700070 IEM_DS3505
ZBHH,2002-05-14 06:00,ZBHH 140600Z AUTO 11006KT 12SM 16/07 A2994 RMK 60003 SLP122 T01620066 57004 IEM_DS3505
ZBHH,2002-05-14 07:00,ZBHH 140700Z AUTO 09006KT 7SM 14/08 A2994 RMK T01400080 IEM_DS3505
ZBHH,2002-05-14 08:00,ZBHH 140800Z AUTO 08004KT 7SM 15/09 A2991 RMK T01500090 IEM_DS3505
ZBHH,2002-05-14 09:00,ZBHH 140900Z AUTO 09004KT 7SM 15/09 A2994 RMK T01500090 IEM_DS3505
ZBHH,2002-05-14 10:00,ZBHH 141000Z AUTO 06002KT 7SM 15/08 A2994 RMK T01500080 IEM_DS3505
ZBHH,2002-05-14 11:00,ZBHH 141100Z AUTO 00000KT 7SM 15/09 A2994 RMK T01500090 IEM_DS3505
ZBHH,2002-05-14 12:00,ZBHH 141200Z AUTO 00000KT 7SM 15/09 A2997 RMK 60003 SLP127 T01500089 52010 IEM_DS3505
ZBHH,2002-05-14 13:00,ZBHH 141300Z AUTO 36004KT 4SM 13/10 A2997 RMK T01300100 IEM_DS3505
ZBHH,2002-05-14 14:00,ZBHH 141400Z AUTO 00000KT 5SM 13/10 A3000 RMK T01300100 IEM_DS3505
ZBHH,2002-05-14 15:00,ZBHH 141500Z AUTO 09002KT 7SM 14/09 A3000 RMK SLP141 T01350094 52014 IEM_DS3505
ZBHH,2002-05-14 16:00,ZBHH 141600Z AUTO 00000KT 5SM 12/10 A3000 RMK T01200100 IEM_DS3505
ZBHH,2002-05-14 17:00,ZBHH 141700Z AUTO 11002KT 3SM 11/10 A3000 RMK T01100100 IEM_DS3505
ZBHH,2002-05-14 18:00,ZBHH 141800Z AUTO 11002KT 16SM 13/06 A2997 RMK 60001 SLP131 T01320065 57011 IEM_DS3505
ZBHH,2002-05-14 19:00,ZBHH 141900Z AUTO 19002KT 7SM 12/05 A2997 RMK T01200050 IEM_DS3505
ZBHH,2002-05-14 20:00,ZBHH 142000Z AUTO 31002KT 7SM 10/07 A2997 RMK T01000070 IEM_DS3505
ZBHH,2002-05-14 21:00,ZBHH 142100Z AUTO 00000KT 19SM 12/06 A2997 RMK 70002 SLP137 T01180060 52002 IEM_DS3505
ZBHH,2002-05-14 22:00,ZBHH 142200Z AUTO 01004KT 7SM 10/07 A2997 RMK T01000070 IEM_DS3505
ZBHH,2002-05-14 23:00,ZBHH 142300Z AUTO 03002KT 7SM 11/07 A2997 RMK T01100070 IEM_DS3505
ZBHH,2002-05-15 00:00,ZBHH 150000Z AUTO 07002KT 9SM 13/06 A3000 RMK 60000 SLP148 T01280065 52010 IEM_DS3505
ZBHH,2002-05-15 01:00,ZBHH 150100Z AUTO 07006KT 7SM 13/07 A3000 RMK T01300070 IEM_DS3505
ZBHH,2002-05-15 02:00,ZBHH 150200Z AUTO 07006KT 6SM 13/07 A3000 RMK T01300070 IEM_DS3505
ZBHH,2002-05-15 03:00,ZBHH 150300Z AUTO 02002KT 19SM 14/06 A2997 RMK SLP140 T01440062 57007 IEM_DS3505
ZBHH,2002-05-15 04:00,ZBHH 150400Z AUTO 19002KT 7SM 15/05 A2997 RMK T01500050 IEM_DS3505
ZBHH,2002-05-15 05:00,ZBHH 150500Z AUTO 33004KT 6SM 15/05 A2997 RMK T01500050 IEM_DS3505
ZBHH,2002-05-15 06:00,ZBHH 150600Z AUTO 36004KT 19SM 16/05 A2994 RMK 60003 SLP127 T01600054 57009 IEM_DS3505
ZBHH,2002-05-15 07:00,ZBHH 150700Z AUTO 31002KT 7SM 17/06 A2994 RMK T01700060 IEM_DS3505
ZBHH,2002-05-15 08:00,ZBHH 150800Z AUTO 17004KT 6SM 17/04 A2991 RMK T01700040 IEM_DS3505
ZBHH,2002-05-15 09:00,ZBHH 150900Z AUTO 25002KT 19SM 17/06 A2991 RMK SLP115 T01690061 57012 IEM_DS3505
ZBHH,2002-05-15 10:00,ZBHH 151000Z AUTO 21004KT 7SM 16/05 A2991 RMK T01600050 IEM_DS3505
ZBHH,2002-05-15 11:00,ZBHH 151100Z AUTO 17008KT 7SM 15/06 A2994 RMK T01500060 IEM_DS3505
ZBHH,2002-05-15 12:00,ZBHH 151200Z AUTO 09006KT 16SM 16/06 A2994 RMK SLP124 T01560061 52008 IEM_DS3505
ZBHH,2002-05-15 13:00,ZBHH 151300Z AUTO 09004KT 7SM 14/08 A2997 RMK T01400080 IEM_DS3505
ZBHH,2002-05-15 14:00,ZBHH 151400Z AUTO 35002KT 7SM 13/09 A2997 RMK T01300090 IEM_DS3505
ZBHH,2002-05-15 15:00,ZBHH 151500Z AUTO 00000KT 12SM 14/08 A2997 RMK SLP139 T01360083 52012 IEM_DS3505
ZBHH,2002-05-15 16:00,ZBHH 151600Z AUTO 25002KT 7SM 12/09 A2997 RMK T01200090 IEM_DS3505
ZBHH,2002-05-15 17:00,ZBHH 151700Z AUTO 36004KT 7SM 12/09 A2997 RMK T01200090 IEM_DS3505
ZBHH,2002-05-15 18:00,ZBHH 151800Z AUTO 00000KT 16SM 12/09 A2997 RMK 60002 SLP130 T01240092 57007 IEM_DS3505
ZBHH,2002-05-15 19:00,ZBHH 151900Z AUTO 00000KT 4SM 11/09 A2994 RMK T01100090 IEM_DS3505
ZBHH,2002-05-15 20:00,ZBHH 152000Z AUTO 02002KT 5SM 11/08 A2994 RMK T01100080 IEM_DS3505
ZBHH,2002-05-15 21:00,ZBHH 152100Z AUTO 00000KT 12SM 12/08 A2997 RMK 70002 SLP127 T01220082 57001 IEM_DS3505
ZBHH,2002-05-15 22:00,ZBHH 152200Z AUTO 02004KT 7SM 12/07 A2997 RMK T01200070 IEM_DS3505
ZBHH,2002-05-15 23:00,ZBHH 152300Z AUTO 13002KT 6SM 12/08 A2997 RMK T01200080 IEM_DS3505
ZBHH,2002-05-16 00:00,ZBHH 160000Z AUTO 09004KT 19SM 15/07 A2997 RMK 70002 SLP136 T01520069 52011 IEM_DS3505
ZBHH,2002-05-16 01:00,ZBHH 160100Z AUTO 13002KT 6SM 16/05 A3000 RMK T01600050 IEM_DS3505
ZBHH,2002-05-16 02:00,ZBHH 160200Z AUTO 23002KT 6SM 17/05 A3000 RMK T01700050 IEM_DS3505
ZBHH,2002-05-16 03:00,ZBHH 160300Z AUTO 25004KT 16SM 17/05 A3000 RMK SLP137 T01710048 52001 IEM_DS3505
ZBHH,2002-05-16 04:00,ZBHH 160400Z AUTO 25004KT 7SM 18/04 A2997 RMK T01800040 IEM_DS3505
ZBHH,2002-05-16 05:00,ZBHH 160500Z AUTO 23004KT 7SM 19/04 A2997 RMK T01900040 IEM_DS3505
ZBHH,2002-05-16 06:00,ZBHH 160600Z AUTO 22002KT 16SM 19/06 A2994 RMK SLP122 T01880065 57013 IEM_DS3505
ZBHH,2002-05-16 07:00,ZBHH 160700Z AUTO 27004KT 7SM 20/04 A2991 RMK T02000040 IEM_DS3505
ZBHH,2002-05-16 08:00,ZBHH 160800Z AUTO 07016KT 7SM 18/05 A2991 RMK T01800050 IEM_DS3505
ZBHH,2002-05-16 09:00,ZBHH 160900Z AUTO 04006KT 16SM 18/04 A2991 RMK SLP117 T01810042 57006 IEM_DS3505
ZBHH,2002-05-16 10:00,ZBHH 161000Z AUTO 02004KT 7SM 18/04 A2994 RMK T01800040 IEM_DS3505
ZBHH,2002-05-16 11:00,ZBHH 161100Z AUTO 23004KT 7SM 17/06 A2994 RMK T01700060 IEM_DS3505
ZBHH,2002-05-16 12:00,ZBHH 161200Z AUTO 27002KT 12SM 16/08 A2994 RMK SLP123 T01650075 52008 IEM_DS3505
ZBHH,2002-05-16 13:00,ZBHH 161300Z AUTO 20002KT 7SM 14/07 A2997 RMK T01400070 IEM_DS3505
ZBHH,2002-05-16 14:00,ZBHH 161400Z AUTO 11002KT 7SM 11/08 A3000 RMK T01100080 IEM_DS3505
ZBHH,2002-05-16 15:00,ZBHH 161500Z AUTO 07004KT 19SM 14/08 A3000 RMK SLP135 T01380083 52009 IEM_DS3505
ZBHH,2002-05-16 16:00,ZBHH 161600Z AUTO 08004KT 6SM 10/07 A3000 RMK T01000070 IEM_DS3505
ZBHH,2002-05-16 17:00,ZBHH 161700Z AUTO 09006KT 6SM 10/06 A3000 RMK T01000060 IEM_DS3505
ZBHH,2002-05-16 18:00,ZBHH 161800Z AUTO 00000KT 19SM 12/07 RMK SLP136 T01180069 52001 IEM_DS3505
ZBHH,2002-05-16 21:00,ZBHH 162100Z AUTO 00000KT 16SM 10/07 A3000 RMK SLP144 T00990069 52002 IEM_DS3505
ZBHH,2002-05-16 22:00,ZBHH 162200Z AUTO 06002KT 6SM 08/05 A3000 RMK T00800050 IEM_DS3505
ZBHH,2002-05-16 23:00,ZBHH 162300Z AUTO 07002KT 6SM 11/06 A3000 RMK T01100060 IEM_DS3505
ZBHH,2002-05-17 00:00,ZBHH 170000Z AUTO 04002KT 12SM 14/08 A3003 RMK SLP146 T01440082 52007 IEM_DS3505
ZBHH,2002-05-17 01:00,ZBHH 170100Z AUTO 13002KT 6SM 16/06 A3000 RMK T01600060 IEM_DS3505
ZBHH,2002-05-17 02:00,ZBHH 170200Z AUTO 29002KT 6SM 17/05 A3000 RMK T01700050 IEM_DS3505
ZBHH,2002-05-17 03:00,ZBHH 170300Z AUTO 22004KT 19SM 20/07 A3000 RMK SLP133 T01960066 57007 IEM_DS3505
ZBHH,2002-05-17 04:00,ZBHH 170400Z AUTO 25004KT 6SM 20/05 A2997 RMK T02000050 IEM_DS3505
ZBHH,2002-05-17 05:00,ZBHH 170500Z AUTO 7SM 21/05 A2994 RMK T02100050 IEM_DS3505
ZBHH,2002-05-17 06:00,ZBHH 170600Z AUTO 16002KT 19SM 21/05 A2994 RMK SLP115 T02100046 57017 IEM_DS3505
ZBHH,2002-05-17 07:00,ZBHH 170700Z AUTO 24006KT 7SM 22/04 A2991 RMK T02200040 IEM_DS3505
ZBHH,2002-05-17 08:00,ZBHH 170800Z AUTO 22004KT 7SM 22/04 A2988 RMK T02200040 IEM_DS3505
ZBHH,2002-05-17 09:00,ZBHH 170900Z AUTO 22002KT 19SM 22/06 A2988 RMK SLP099 T02160055 57016 IEM_DS3505
ZBHH,2002-05-17 10:00,ZBHH 171000Z AUTO 22002KT 7SM 22/03 A2988 RMK T02200030 IEM_DS3505
ZBHH,2002-05-17 11:00,ZBHH 171100Z AUTO 23002KT 7SM 21/03 A2988 RMK T02100030 IEM_DS3505
ZBHH,2002-05-17 12:00,ZBHH 171200Z AUTO 29002KT 19SM 20/05 A2988 RMK SLP093 T02030049 54000 IEM_DS3505
ZBHH,2002-05-17 13:00,ZBHH 171300Z AUTO 32004KT 6SM 18/07 A2991 RMK T01800070 IEM_DS3505
ZBHH,2002-05-17 14:00,ZBHH 171400Z AUTO 08002KT 6SM 16/07 A2991 RMK T01600070 IEM_DS3505
ZBHH,2002-05-17 15:00,ZBHH 171500Z AUTO 36002KT 16SM 15/07 A2994 RMK SLP108 T01480071 52013 IEM_DS3505
ZBHH,2002-05-17 18:00,ZBHH 171800Z AUTO 00000KT 12SM 13/07 RMK T01260074 IEM_DS3505
ZBHH,2002-05-17 21:00,ZBHH 172100Z AUTO 00000KT 12SM 13/07 A2994 RMK SLP113 T01270073 52001 IEM_DS3505
ZBHH,2002-05-17 22:00,ZBHH 172200Z AUTO 07004KT 6SM 10/06 A2994 RMK T01000060 IEM_DS3505
ZBHH,2002-05-17 23:00,ZBHH 172300Z AUTO 07004KT 6SM 12/07 A2994 RMK T01200070 IEM_DS3505
ZBHH,2002-05-18 00:00,ZBHH 180000Z AUTO 18002KT 16SM 16/07 A2994 RMK SLP115 T01560070 52005 IEM_DS3505
ZBHH,2002-05-18 01:00,ZBHH 180100Z AUTO 16002KT 6SM 18/06 A2997 RMK T01800060 IEM_DS3505
ZBHH,2002-05-18 02:00,ZBHH 180200Z AUTO 17002KT 6SM 19/07 A2994 RMK T01900070 IEM_DS3505
ZBHH,2002-05-18 03:00,ZBHH 180300Z AUTO 22004KT 7SM 20/09 A2994 RMK SLP104 T02030093 57011 IEM_DS3505
ZBHH,2002-05-18 04:00,ZBHH 180400Z AUTO 23002KT 6SM 21/07 A2991 RMK T02100070 IEM_DS3505
ZBHH,2002-05-18 05:00,ZBHH 180500Z AUTO 26006KT 6SM 22/06 A2988 RMK T02200060 IEM_DS3505
ZBHH,2002-05-18 06:00,ZBHH 180600Z AUTO 20002KT 9SM 22/06 A2988 RMK SLP086 T02190063 57017 IEM_DS3505
ZBHH,2002-05-18 07:00,ZBHH 180700Z AUTO 25006KT 7SM 23/06 A2985 RMK T02300060 IEM_DS3505
ZBHH,2002-05-18 08:00,ZBHH 180800Z AUTO 26006KT 7SM 23/05 A2983 RMK T02300050 IEM_DS3505
ZBHH,2002-05-18 09:00,ZBHH 180900Z AUTO 22002KT 12SM 22/06 A2983 RMK SLP067 T02250056 57016 IEM_DS3505
ZBHH,2002-05-18 10:00,ZBHH 181000Z AUTO 24004KT 6SM 22/05 A2980 RMK T02200050 IEM_DS3505
ZBHH,2002-05-18 11:00,ZBHH 181100Z AUTO 25004KT 6SM 21/05 A2980 RMK T02100050 IEM_DS3505
ZBHH,2002-05-18 12:00,ZBHH 181200Z AUTO 29002KT 12SM 19/08 A2983 RMK SLP066 T01910079 57001 IEM_DS3505
ZBHH,2002-05-18 13:00,ZBHH 181300Z AUTO 01004KT 5SM 18/07 A2983 RMK T01800070 IEM_DS3505
ZBHH,2002-05-18 14:00,ZBHH 181400Z AUTO 05002KT 6SM 16/07 A2985 RMK T01600070 IEM_DS3505
ZBHH,2002-05-18 15:00,ZBHH 181500Z AUTO 00000KT 16SM 15/09 A2985 RMK SLP074 T01500087 52008 IEM_DS3505
ZBHH,2002-05-18 16:00,ZBHH 181600Z AUTO 07006KT 7SM 14/08 A2985 RMK T01400080 IEM_DS3505
ZBHH,2002-05-18 17:00,ZBHH 181700Z AUTO 36002KT 7SM 13/08 A2985 RMK T01300080 IEM_DS3505
ZBHH,2002-05-18 18:00,ZBHH 181800Z AUTO 00000KT 19SM 14/08 A2985 RMK SLP079 T01380081 52005 IEM_DS3505
ZBHH,2002-05-18 19:00,ZBHH 181900Z AUTO 10004KT 7SM 11/07 A2985 RMK T01100070 IEM_DS3505
ZBHH,2002-05-18 20:00,ZBHH 182000Z AUTO 09002KT 7SM 10/07 A2985 RMK T01000070 IEM_DS3505
ZBHH,2002-05-18 21:00,ZBHH 182100Z AUTO 08004KT 16SM 12/08 A2988 RMK T01210079 IEM_DS3505
ZBHH,2002-05-18 22:00,ZBHH 182200Z AUTO 05004KT 4SM 10/07 A2988 RMK T01000070 IEM_DS3505
ZBHH,2002-05-18 23:00,ZBHH 182300Z AUTO 08002KT 6SM 12/08 A2988 RMK T01200080 IEM_DS3505
ZBHH,2002-05-19 00:00,ZBHH 190000Z AUTO 00000KT 12SM 16/06 A2988 RMK SLP095 T01600059 52010 IEM_DS3505
ZBHH,2002-05-19 01:00,ZBHH 190100Z AUTO 23004KT 6SM 17/04 A2988 RMK T01700040 IEM_DS3505
ZBHH,2002-05-19 02:00,ZBHH 190200Z AUTO 6SM 18/05 A2988 RMK T01800050 IEM_DS3505
ZBHH,2002-05-19 03:00,ZBHH 190300Z AUTO 00000KT 16SM 20/05 A2985 RMK SLP084 T02000052 57010 IEM_DS3505
ZBHH,2002-05-19 04:00,ZBHH 190400Z AUTO 21002KT 6SM 21/05 A2985 RMK T02100050 IEM_DS3505
ZBHH,2002-05-19 05:00,ZBHH 190500Z AUTO 24006KT 6SM 22/04 A2983 RMK T02200040 IEM_DS3505
ZBHH,2002-05-19 06:00,ZBHH 190600Z AUTO 00000KT 16SM 23/05 A2980 RMK SLP060 T02270051 57018 IEM_DS3505
ZBHH,2002-05-19 07:00,ZBHH 190700Z AUTO 22004KT 6SM 23/04 A2980 RMK T02300040 IEM_DS3505
ZBHH,2002-05-19 08:00,ZBHH 190800Z AUTO 22004KT 6SM 24/04 A2977 RMK T02400040 IEM_DS3505
ZBHH,2002-05-19 09:00,ZBHH 190900Z AUTO 20004KT 19SM 24/05 A2977 RMK SLP049 T02400053 57011 IEM_DS3505
ZBHH,2002-05-19 10:00,ZBHH 191000Z AUTO 26004KT 6SM 23/04 A2977 RMK T02300040 IEM_DS3505
ZBHH,2002-05-19 11:00,ZBHH 191100Z AUTO 20002KT 6SM 22/04 A2977 RMK T02200040 IEM_DS3505
ZBHH,2002-05-19 12:00,ZBHH 191200Z AUTO 00000KT 19SM 22/06 A2977 RMK SLP043 T02180064 57002 IEM_DS3505
ZBHH,2002-05-19 13:00,ZBHH 191300Z AUTO 02002KT 7SM 20/05 A2977 RMK T02000050 IEM_DS3505
ZBHH,2002-05-19 14:00,ZBHH 191400Z AUTO 04002KT 7SM 18/07 A2980 RMK T01800070 IEM_DS3505
ZBHH,2002-05-19 15:00,ZBHH 191500Z AUTO 00000KT 19SM 19/08 A2980 RMK SLP049 T01900080 52008 IEM_DS3505
ZBHH,2002-05-19 16:00,ZBHH 191600Z AUTO 10002KT 7SM 15/08 A2980 RMK T01500080 IEM_DS3505
ZBHH,2002-05-19 17:00,ZBHH 191700Z AUTO 08004KT 7SM 14/07 A2980 RMK T01400070 IEM_DS3505
ZBHH,2002-05-19 18:00,ZBHH 191800Z AUTO 07002KT 19SM 17/08 A2980 RMK SLP049 T01730078 52001 IEM_DS3505
ZBHH,2002-05-19 19:00,ZBHH 191900Z AUTO 08002KT 7SM 15/09 A2980 RMK T01500090 IEM_DS3505
ZBHH,2002-05-19 20:00,ZBHH 192000Z AUTO 24002KT 7SM 15/09 A2980 RMK T01500090 IEM_DS3505
ZBHH,2002-05-19 21:00,ZBHH 192100Z AUTO 36002KT 16SM 17/08 A2983 RMK 70003 SLP055 T01660085 52007 IEM_DS3505
ZBHH,2002-05-19 22:00,ZBHH 192200Z AUTO 01006KT 7SM 16/10 A2983 RMK T01600100 IEM_DS3505
ZBHH,2002-05-19 23:00,ZBHH 192300Z AUTO 34010KT 7SM 16/10 A2985 RMK T01600100 IEM_DS3505
ZBHH,2002-05-20 00:00,ZBHH 200000Z AUTO 34002G23KT 19SM 16/05 A2988 RMK 60000 SLP082 T01620054 52019 IEM_DS3505
ZBHH,2002-05-20 01:00,ZBHH 200100Z AUTO 36014KT 7SM 15/05 A2988 RMK T01500050 IEM_DS3505
ZBHH,2002-05-20 02:00,ZBHH 200200Z AUTO 36014KT 7SM 17/05 A2988 RMK T01700050 IEM_DS3505
ZBHH,2002-05-20 03:00,ZBHH 200300Z AUTO 04004KT 12SM 18/03 A2988 RMK SLP084 T01850034 52001 IEM_DS3505
ZBHH,2002-05-20 04:00,ZBHH 200400Z AUTO 35016G25KT 6SM 18/02 A2985 RMK T01800020 IEM_DS3505
ZBHH,2002-05-20 05:00,ZBHH 200500Z AUTO 35014KT 6SM 19/01 A2985 RMK T01900010 IEM_DS3505
ZBHH,2002-05-20 06:00,ZBHH 200600Z AUTO 36010KT 16SM 20/M01 A2985 RMK SLP069 T02001010 57014 IEM_DS3505
ZBHH,2002-05-20 07:00,ZBHH 200700Z AUTO 34016KT 6SM 19/M01 A2983 RMK T01901010 IEM_DS3505
ZBHH,2002-05-20 08:00,ZBHH 200800Z AUTO 34012KT 6SM 20/M01 A2980 RMK T02001010 IEM_DS3505
ZBHH,2002-05-20 09:00,ZBHH 200900Z AUTO 02006KT 12SM 21/01 A2980 RMK SLP058 T02140010 57008 IEM_DS3505
ZBHH,2002-05-20 10:00,ZBHH 201000Z AUTO 35012KT 6SM 20/00 A2980 RMK T02000000 IEM_DS3505
ZBHH,2002-05-20 11:00,ZBHH 201100Z AUTO 36012KT 6SM 19/00 A2983 RMK T01900000 IEM_DS3505
ZBHH,2002-05-20 12:00,ZBHH 201200Z AUTO 02002KT 19SM 18/M01 A2985 RMK SLP079 T01831007 52012 IEM_DS3505
ZBHH,2002-05-20 13:00,ZBHH 201300Z AUTO 02006KT 6SM 17/M02 A2988 RMK T01701020 IEM_DS3505
ZBHH,2002-05-20 14:00,ZBHH 201400Z AUTO 02004KT 6SM 17/M01 A2991 RMK T01701010 IEM_DS3505
ZBHH,2002-05-20 15:00,ZBHH 201500Z AUTO 07006KT 19SM 17/M02 A2991 RMK SLP099 T01681022 52019 IEM_DS3505
ZBHH,2002-05-20 18:00,ZBHH 201800Z AUTO 02008KT 19SM 15/M03 RMK SLP114 T01511032 52013 IEM_DS3505
ZBHH,2002-05-20 21:00,ZBHH 202100Z AUTO 02010KT 19SM 14/M05 A2997 RMK 70001 SLP116 T01411052 52002 IEM_DS3505
ZBHH,2002-05-20 22:00,ZBHH 202200Z AUTO 01002KT 7SM 13/M03 A2997 RMK T01301030 IEM_DS3505
ZBHH,2002-05-20 23:00,ZBHH 202300Z AUTO 35006KT 7SM 13/M02 A3000 RMK T01301020 IEM_DS3505
ZBHH,2002-05-21 00:00,ZBHH 210000Z AUTO 34006KT 19SM 13/M05 A3000 RMK SLP145 T01311048 52018 IEM_DS3505
ZBHH,2002-05-21 01:00,ZBHH 210100Z AUTO 35010KT 6SM 12/M06 A3003 RMK T01201060 IEM_DS3505
ZBHH,2002-05-21 02:00,ZBHH 210200Z AUTO 33008KT 6SM 14/M05 A3003 RMK T01401050 IEM_DS3505
ZBHH,2002-05-21 03:00,ZBHH 210300Z AUTO 02010KT 19SM 15/M07 A3003 RMK SLP156 T01471067 52010 IEM_DS3505
ZBHH,2002-05-21 04:00,ZBHH 210400Z AUTO 35010KT 6SM 16/M07 A3003 RMK T01601070 IEM_DS3505
ZBHH,2002-05-21 05:00,ZBHH 210500Z AUTO 36008KT 6SM 18/M06 A3003 RMK T01801060 IEM_DS3505
ZBHH,2002-05-21 06:00,ZBHH 210600Z AUTO 02006KT 19SM 16/M05 A3000 RMK SLP141 T01641047 57013 IEM_DS3505
ZBHH,2002-05-21 07:00,ZBHH 210700Z AUTO 01008KT 6SM 17/M03 A3000 RMK T01701030 IEM_DS3505
ZBHH,2002-05-21 08:00,ZBHH 210800Z AUTO 10006KT 6SM 18/M02 A2997 RMK T01801020 IEM_DS3505
ZBHH,2002-05-21 09:00,ZBHH 210900Z AUTO 04006G17KT 19SM 18/M06 A2997 RMK SLP126 T01851057 57011 IEM_DS3505
ZBHH,2002-05-21 10:00,ZBHH 211000Z AUTO 09006KT 6SM 18/M04 A2997 RMK T01801040 IEM_DS3505
ZBHH,2002-05-21 11:00,ZBHH 211100Z AUTO 02010KT 6SM 17/M10 A2997 RMK T01701100 IEM_DS3505
ZBHH,2002-05-21 12:00,ZBHH 211200Z AUTO 04004KT 19SM 16/M09 A3000 RMK SLP151 T01561091 52014 IEM_DS3505
ZBHH,2002-05-21 13:00,ZBHH 211300Z AUTO 02006KT 6SM 13/M10 A3006 RMK T01301100 IEM_DS3505
ZBHH,2002-05-21 14:00,ZBHH 211400Z AUTO 01008KT 6SM 12/M10 A3006 RMK T01201100 IEM_DS3505
ZBHH,2002-05-21 15:00,ZBHH 211500Z AUTO 00000KT 19SM 13/M08 RMK SLP174 T01261077 52018 IEM_DS3505
ZBHH,2002-05-21 18:00,ZBHH 211800Z AUTO 00000KT 19SM 07/M04 RMK SLP187 T00681038 52003 IEM_DS3505
ZBHH,2002-05-21 21:00,ZBHH 212100Z AUTO 00000KT 19SM 05/M04 A3009 RMK SLP186 T00511035 54000 IEM_DS3505
ZBHH,2002-05-21 22:00,ZBHH 212200Z AUTO 08004KT 6SM 04/M06 A3009 RMK T00401060 IEM_DS3505
ZBHH,2002-05-21 23:00,ZBHH 212300Z AUTO 08006KT 6SM 08/M05 A3009 RMK T00801050 IEM_DS3505
ZBHH,2002-05-22 00:00,ZBHH 220000Z AUTO 09002KT 19SM 13/M06 A3009 RMK SLP182 T01321059 52007 IEM_DS3505
ZBHH,2002-05-22 01:00,ZBHH 220100Z AUTO 31004KT 6SM 15/M07 A3012 RMK T01501070 IEM_DS3505
ZBHH,2002-05-22 02:00,ZBHH 220200Z AUTO 34012KT 6SM 18/M07 A3009 RMK T01801070 IEM_DS3505
ZBHH,2002-05-22 03:00,ZBHH 220300Z AUTO 18006G21KT 12SM 18/M04 A3009 RMK SLP176 T01821038 57002 IEM_DS3505
ZBHH,2002-05-22 04:00,ZBHH 220400Z AUTO 35012KT 6SM 21/M04 A3009 RMK T02101040 IEM_DS3505
ZBHH,2002-05-22 05:00,ZBHH 220500Z AUTO 34010KT 6SM 22/M04 A3006 RMK T02201040 IEM_DS3505
ZBHH,2002-05-22 06:00,ZBHH 220600Z AUTO 34006G21KT 19SM 23/M04 A3003 RMK SLP156 T02281040 57020 IEM_DS3505
ZBHH,2002-05-22 07:00,ZBHH 220700Z AUTO 34014KT 6SM 23/M05 A3003 RMK T02301050 IEM_DS3505
ZBHH,2002-05-22 08:00,ZBHH 220800Z AUTO 32012G21KT 6SM 23/M07 A3000 RMK T02301070 IEM_DS3505
ZBHH,2002-05-22 09:00,ZBHH 220900Z AUTO 35014G23KT 6SM 23/M07 A3003 RMK T02301070 IEM_DS3505
ZBHH,2002-05-22 10:00,ZBHH 221000Z AUTO 34012KT 6SM 22/M08 A3003 RMK T02201080 IEM_DS3505
ZBHH,2002-05-22 11:00,ZBHH 221100Z AUTO 35010KT 6SM 21/M08 A3003 RMK T02101080 IEM_DS3505
ZBHH,2002-05-22 12:00,ZBHH 221200Z AUTO 04004KT 19SM 20/M08 A3006 RMK SLP160 T02011078 52015 IEM_DS3505
ZBHH,2002-05-22 13:00,ZBHH 221300Z AUTO 36004KT 6SM 17/M06 A3009 RMK T01701060 IEM_DS3505
ZBHH,2002-05-22 14:00,ZBHH 221400Z AUTO 35004KT 6SM 15/M05 A3012 RMK T01501050 IEM_DS3505
ZBHH,2002-05-22 15:00,ZBHH 221500Z AUTO 04006KT 19SM 17/M07 A3012 RMK SLP176 T01741066 52018 IEM_DS3505
ZBHH,2002-05-22 18:00,ZBHH 221800Z AUTO 04002KT 19SM 13/M03 RMK SLP182 T01341027 52007 IEM_DS3505
ZBHH,2002-05-22 21:00,ZBHH 222100Z AUTO 00000KT 19SM 08/M01 A3015 RMK SLP195 T00801007 52001 IEM_DS3505
ZBHH,2002-05-22 22:00,ZBHH 222200Z AUTO 08002KT 6SM 08/M03 A3018 RMK T00801030 IEM_DS3505
ZBHH,2002-05-22 23:00,ZBHH 222300Z AUTO 08002KT 6SM 11/M01 A3018 RMK T01101010 IEM_DS3505
ZBHH,2002-05-23 00:00,ZBHH 230000Z AUTO 00000KT 19SM 17/M02 A3018 RMK SLP191 T01671021 52008 IEM_DS3505
ZBHH,2002-05-23 01:00,ZBHH 230100Z AUTO 30002KT 6SM 16/M02 A3021 RMK T01601020 IEM_DS3505
ZBHH,2002-05-23 02:00,ZBHH 230200Z AUTO 19002KT 6SM 18/M04 A3018 RMK T01801040 IEM_DS3505
ZBHH,2002-05-23 03:00,ZBHH 230300Z AUTO 20004KT 16SM 20/M02 A3018 RMK SLP187 T01971015 57003 IEM_DS3505
ZBHH,2002-05-23 04:00,ZBHH 230400Z AUTO 22002KT 6SM 20/M03 A3015 RMK T02001030 IEM_DS3505
ZBHH,2002-05-23 05:00,ZBHH 230500Z AUTO 12002KT 6SM 22/M02 A3015 RMK T02201020 IEM_DS3505
ZBHH,2002-05-23 06:00,ZBHH 230600Z AUTO 20002KT 19SM 22/01 A3012 RMK SLP170 T02210008 57018 IEM_DS3505
ZBHH,2002-05-23 07:00,ZBHH 230700Z AUTO 06004KT 6SM 23/M02 A3009 RMK T02301020 IEM_DS3505
ZBHH,2002-05-23 08:00,ZBHH 230800Z AUTO 31004KT 7SM 23/M04 A3009 RMK T02301040 IEM_DS3505
ZBHH,2002-05-23 09:00,ZBHH 230900Z AUTO 00000KT 19SM 23/M03 A3009 RMK SLP166 T02271029 57013 IEM_DS3505
ZBHH,2002-05-23 10:00,ZBHH 231000Z AUTO 35004KT 7SM 23/M05 A3006 RMK T02301050 IEM_DS3505
ZBHH,2002-05-23 11:00,ZBHH 231100Z AUTO 34008KT 7SM 22/M06 A3006 RMK T02201060 IEM_DS3505
ZBHH,2002-05-23 12:00,ZBHH 231200Z AUTO 00000KT 19SM 21/M02 A3009 RMK SLP153 T02061015 52001 IEM_DS3505
ZBHH,2002-05-23 13:00,ZBHH 231300Z AUTO 34004KT 6SM 18/M03 A3009 RMK T01801030 IEM_DS3505
ZBHH,2002-05-23 14:00,ZBHH 231400Z AUTO 00000KT 6SM 16/M02 A3012 RMK T01601020 IEM_DS3505
ZBHH,2002-05-23 15:00,ZBHH 231500Z AUTO 00000KT 19SM 15/02 A3012 RMK SLP170 T01530021 52011 IEM_DS3505
ZBHH,2002-05-23 21:00,ZBHH 232100Z AUTO 34002KT 19SM 14/01 A3012 RMK SLP169 T01350006 52001 IEM_DS3505
ZBHH,2002-05-23 22:00,ZBHH 232200Z AUTO 08004KT 6SM 10/01 A3012 RMK T01000010 IEM_DS3505
ZBHH,2002-05-23 23:00,ZBHH 232300Z AUTO 06004KT 6SM 14/00 A3012 RMK T01400000 IEM_DS3505
ZBHH,2002-05-24 00:00,ZBHH 240000Z AUTO 04002KT 19SM 17/01 A3015 RMK SLP173 T01740009 52007 IEM_DS3505
ZBHH,2002-05-24 01:00,ZBHH 240100Z AUTO 00000KT 6SM 20/00 A3012 RMK T02000000 IEM_DS3505
ZBHH,2002-05-24 02:00,ZBHH 240200Z AUTO 06002KT 6SM 22/M02 A3012 RMK T02201020 IEM_DS3505
ZBHH,2002-05-24 03:00,ZBHH 240300Z AUTO 00000KT 16SM 23/M03 A3012 RMK SLP163 T02281031 57008 IEM_DS3505
ZBHH,2002-05-24 04:00,ZBHH 240400Z AUTO 01004KT 6SM 23/M05 A3009 RMK T02301050 IEM_DS3505
ZBHH,2002-05-24 05:00,ZBHH 240500Z AUTO 17004KT 6SM 24/M06 A3006 RMK T02401060 IEM_DS3505
ZBHH,2002-05-24 06:00,ZBHH 240600Z AUTO 32006KT 19SM 25/01 A3006 RMK SLP141 T02460009 57020 IEM_DS3505
ZBHH,2002-05-24 07:00,ZBHH 240700Z AUTO 31006KT 6SM 25/M04 A3003 RMK T02501040 IEM_DS3505
ZBHH,2002-05-24 08:00,ZBHH 240800Z AUTO 27008G19KT 7SM 25/M05 A3000 RMK T02501050 IEM_DS3505
ZBHH,2002-05-24 09:00,ZBHH 240900Z AUTO 02006KT 19SM 25/M05 A3000 RMK SLP124 T02501048 57014 IEM_DS3505
ZBHH,2002-05-24 10:00,ZBHH 241000Z AUTO 33014KT 7SM 25/M07 A3000 RMK T02501070 IEM_DS3505
ZBHH,2002-05-24 11:00,ZBHH 241100Z AUTO 34012KT 6SM 23/M07 A3000 RMK T02301070 IEM_DS3505
ZBHH,2002-05-24 12:00,ZBHH 241200Z AUTO 36006KT 19SM 22/M06 A3003 RMK SLP129 T02201056 52006 IEM_DS3505
ZBHH,2002-05-24 13:00,ZBHH 241300Z AUTO 35006KT 6SM 19/M06 A3003 RMK T01901060 IEM_DS3505
ZBHH,2002-05-24 14:00,ZBHH 241400Z AUTO 02006KT 6SM 18/M06 A3006 RMK T01801060 IEM_DS3505
ZBHH,2002-05-24 15:00,ZBHH 241500Z AUTO 34002KT 19SM 19/M02 A3006 RMK SLP142 T01861025 52015 IEM_DS3505
ZBHH,2002-05-24 18:00,ZBHH 241800Z AUTO 00000KT 19SM 12/M01 RMK SLP150 T01251007 57001 IEM_DS3505
ZBHH,2002-05-24 21:00,ZBHH 242100Z AUTO 09002KT 19SM 10/00 A3006 RMK SLP152 T00960000 57003 IEM_DS3505
ZBHH,2002-05-24 22:00,ZBHH 242200Z AUTO 06002KT 6SM 08/M02 A3009 RMK T00801020 IEM_DS3505
ZBHH,2002-05-24 23:00,ZBHH 242300Z AUTO 00000KT 6SM 12/M01 A3009 RMK T01201010 IEM_DS3505
ZBHH,2002-05-25 00:00,ZBHH 250000Z AUTO 00000KT 12SM 17/M00 A3009 RMK SLP154 T01721001 52011 IEM_DS3505
ZBHH,2002-05-25 01:00,ZBHH 250100Z AUTO 20002KT 6SM 18/00 A3009 RMK T01800000 IEM_DS3505
ZBHH,2002-05-25 02:00,ZBHH 250200Z AUTO 19002KT 6SM 20/M01 A3009 RMK T02001010 IEM_DS3505
ZBHH,2002-05-25 03:00,ZBHH 250300Z AUTO 18006KT 19SM 22/M01 A3006 RMK SLP144 T02221012 57006 IEM_DS3505
ZBHH,2002-05-25 04:00,ZBHH 250400Z AUTO 23006KT 6SM 24/M03 A3006 RMK T02401030 IEM_DS3505
ZBHH,2002-05-25 05:00,ZBHH 250500Z AUTO 21006KT 6SM 24/M03 A3003 RMK T02401030 IEM_DS3505
ZBHH,2002-05-25 06:00,ZBHH 250600Z AUTO 20006KT 19SM 26/M02 A3000 RMK SLP125 T02561018 57022 IEM_DS3505
ZBHH,2002-05-25 07:00,ZBHH 250700Z AUTO 25008KT 7SM 25/M04 A2997 RMK T02501040 IEM_DS3505
ZBHH,2002-05-25 08:00,ZBHH 250800Z AUTO 36006G31KT 7SM 25/M03 A2994 RMK T02501030 IEM_DS3505
ZBHH,2002-05-25 09:00,ZBHH 250900Z AUTO 34006KT 19SM 24/M03 A2994 RMK SLP117 T02431033 57015 IEM_DS3505
ZBHH,2002-05-25 10:00,ZBHH 251000Z AUTO 35010KT 7SM 23/M03 A2994 RMK T02301030 IEM_DS3505
ZBHH,2002-05-25 11:00,ZBHH 251100Z AUTO 34008KT 6SM 23/M03 A2997 RMK T02301030 IEM_DS3505
ZBHH,2002-05-25 12:00,ZBHH 251200Z AUTO 00000KT 19SM 22/03 A2997 RMK 60003 SLP111 T02180029 52004 IEM_DS3505
ZBHH,2002-05-25 13:00,ZBHH 251300Z AUTO 04004KT 6SM 21/M02 A3000 RMK T02101020 IEM_DS3505
ZBHH,2002-05-25 14:00,ZBHH 251400Z AUTO 04006KT 6SM 20/M02 A3000 RMK T02001020 IEM_DS3505
ZBHH,2002-05-25 15:00,ZBHH 251500Z AUTO 02004KT 19SM 19/02 RMK SLP116 T01940015 52010 IEM_DS3505
ZBHH,2002-05-25 18:00,ZBHH 251800Z AUTO 00000KT 19SM 15/01 RMK SLP114 T01460014 57005 IEM_DS3505
ZBHH,2002-05-25 21:00,ZBHH 252100Z AUTO 00000KT 19SM 12/03 A3000 RMK 70003 SLP126 T01240033 52004 IEM_DS3505
ZBHH,2002-05-25 22:00,ZBHH 252200Z AUTO 05004KT 6SM 11/01 A3000 RMK T01100010 IEM_DS3505
ZBHH,2002-05-25 23:00,ZBHH 252300Z AUTO 07006KT 6SM 15/02 A3000 RMK T01500020 IEM_DS3505
ZBHH,2002-05-26 00:00,ZBHH 260000Z AUTO 02002KT 19SM 19/02 A3000 RMK 70003 SLP121 T01860024 52003 IEM_DS3505
ZBHH,2002-05-26 01:00,ZBHH 260100Z AUTO 08008KT 6SM 20/M01 A3000 RMK T02001010 IEM_DS3505
ZBHH,2002-05-26 02:00,ZBHH 260200Z AUTO 09006KT 7SM 22/M01 A3000 RMK T02201010 IEM_DS3505
ZBHH,2002-05-26 03:00,ZBHH 260300Z AUTO 00000KT 19SM 23/M01 A3000 RMK SLP111 T02311007 57005 IEM_DS3505
ZBHH,2002-05-26 04:00,ZBHH 260400Z AUTO 11006KT 7SM 24/M02 A2997 RMK T02401020 IEM_DS3505
ZBHH,2002-05-26 05:00,ZBHH 260500Z AUTO 10004KT 7SM 23/M03 A2994 RMK T02301030 IEM_DS3505
ZBHH,2002-05-26 06:00,ZBHH 260600Z AUTO 29012G37KT 7SM 19/00 A2994 RMK 60003 SLP134 T01920002 52004 IEM_DS3505
ZBHH,2002-05-26 07:00,ZBHH 260700Z AUTO 35012G23KT 7SM 19/01 A2997 RMK T01900010 IEM_DS3505
ZBHH,2002-05-26 08:00,ZBHH 260800Z AUTO 03010KT 7SM 20/01 A2994 RMK T02000010 IEM_DS3505
ZBHH,2002-05-26 09:00,ZBHH 260900Z AUTO 04002KT 19SM 22/M00 A2994 RMK SLP109 T02171002 57022 IEM_DS3505
ZBHH,2002-05-26 10:00,ZBHH 261000Z AUTO 08006KT 7SM 22/M01 A2991 RMK T02201010 IEM_DS3505
ZBHH,2002-05-26 11:00,ZBHH 261100Z AUTO 08006KT 7SM 20/01 A2991 RMK T02000010 IEM_DS3505
ZBHH,2002-05-26 12:00,ZBHH 261200Z AUTO 07004KT 19SM 20/02 A2994 RMK SLP099 T02030016 52001 IEM_DS3505
ZBHH,2002-05-26 13:00,ZBHH 261300Z AUTO 05002KT 7SM 17/01 A2994 RMK T01700010 IEM_DS3505
ZBHH,2002-05-26 14:00,ZBHH 261400Z AUTO 00000KT 7SM 17/00 A2997 RMK T01700000 IEM_DS3505
ZBHH,2002-05-26 15:00,ZBHH 261500Z AUTO 02002KT 19SM 17/05 A2997 RMK SLP104 T01730049 52007 IEM_DS3505
ZBHH,2002-05-26 18:00,ZBHH 261800Z AUTO 00000KT 19SM 15/05 RMK SLP112 T01530054 57004 IEM_DS3505
ZBHH,2002-05-26 21:00,ZBHH 262100Z AUTO 00000KT 12SM 13/04 A2994 RMK 70003 SLP114 T01320039 52002 IEM_DS3505
ZBHH,2002-05-26 22:00,ZBHH 262200Z AUTO 28002KT 6SM 10/02 A2997 RMK T01000020 IEM_DS3505
ZBHH,2002-05-26 23:00,ZBHH 262300Z AUTO 06004KT 6SM 14/02 A2997 RMK T01400020 IEM_DS3505
ZBHH,2002-05-27 00:00,ZBHH 270000Z AUTO 00000KT 16SM 18/02 A2997 RMK 70003 SLP113 T01840017 52007 IEM_DS3505
ZBHH,2002-05-27 01:00,ZBHH 270100Z AUTO 00000KT 6SM 20/01 A2997 RMK T02000010 IEM_DS3505
ZBHH,2002-05-27 02:00,ZBHH 270200Z AUTO 29002KT 6SM 21/01 A2997 RMK T02100010 IEM_DS3505
ZBHH,2002-05-27 03:00,ZBHH 270300Z AUTO 25002KT 19SM 22/03 A2994 RMK SLP103 T02190028 57008 IEM_DS3505
ZBHH,2002-05-27 04:00,ZBHH 270400Z AUTO 26004KT 7SM 23/M01 A2994 RMK T02301010 IEM_DS3505
ZBHH,2002-05-27 05:00,ZBHH 270500Z AUTO 22004KT 7SM 23/M03 A2991 RMK T02301030 IEM_DS3505
ZBHH,2002-05-27 06:00,ZBHH 270600Z AUTO 00000KT 19SM 24/M00 A2988 RMK SLP083 T02371001 57018 IEM_DS3505
ZBHH,2002-05-27 07:00,ZBHH 270700Z AUTO 23006KT 7SM 24/M02 A2985 RMK T02401020 IEM_DS3505
ZBHH,2002-05-27 08:00,ZBHH 270800Z AUTO 18004KT 7SM 24/M02 A2985 RMK T02401020 IEM_DS3505
ZBHH,2002-05-27 09:00,ZBHH 270900Z AUTO 29002KT 19SM 24/01 A2983 RMK SLP066 T02450009 57018 IEM_DS3505
ZBHH,2002-05-27 10:00,ZBHH 271000Z AUTO 21004KT 7SM 24/M01 A2983 RMK T02401010 IEM_DS3505
ZBHH,2002-05-27 11:00,ZBHH 271100Z AUTO 21004KT 6SM 23/00 A2983 RMK T02300000 IEM_DS3505
ZBHH,2002-05-27 12:00,ZBHH 271200Z AUTO 22004KT 19SM 23/00 A2983 RMK SLP058 T02280002 54000 IEM_DS3505
ZBHH,2002-05-27 13:00,ZBHH 271300Z AUTO 22004KT 6SM 18/01 A2985 RMK T01800010 IEM_DS3505
ZBHH,2002-05-27 14:00,ZBHH 271400Z AUTO 26002KT 6SM 17/02 A2985 RMK T01700020 IEM_DS3505
ZBHH,2002-05-27 15:00,ZBHH 271500Z AUTO 00000KT 19SM 16/06 A2985 RMK SLP078 T01570064 52011 IEM_DS3505
ZBHH,2002-05-27 16:00,ZBHH 271600Z AUTO 06004KT 6SM 14/02 A2985 RMK T01400020 IEM_DS3505
ZBHH,2002-05-27 18:00,ZBHH 271800Z AUTO 19SM 15/04 RMK SLP071 T01530036 57004 IEM_DS3505
ZBHH,2002-05-27 21:00,ZBHH 272100Z AUTO 00000KT 19SM 11/05 A2985 RMK SLP072 T01140053 57005 IEM_DS3505
ZBHH,2002-05-27 22:00,ZBHH 272200Z AUTO 03002KT 6SM 10/04 A2985 RMK T01000040 IEM_DS3505
ZBHH,2002-05-27 23:00,ZBHH 272300Z AUTO 09004KT 6SM 13/05 A2985 RMK T01300050 IEM_DS3505
ZBHH,2002-05-28 00:00,ZBHH 280000Z AUTO 04002KT 19SM 16/04 A2985 RMK SLP075 T01610037 52008 IEM_DS3505
ZBHH,2002-05-28 01:00,ZBHH 280100Z AUTO 11002KT 6SM 18/01 A2985 RMK T01800010 IEM_DS3505
ZBHH,2002-05-28 02:00,ZBHH 280200Z AUTO 18002KT 7SM 19/02 A2985 RMK T01900020 IEM_DS3505
ZBHH,2002-05-28 03:00,ZBHH 280300Z AUTO 09006KT 12SM 21/03 A2983 RMK SLP069 T02060031 57010 IEM_DS3505
ZBHH,2002-05-28 04:00,ZBHH 280400Z AUTO 20006KT 7SM 23/01 A2983 RMK T02300010 IEM_DS3505
ZBHH,2002-05-28 05:00,ZBHH 280500Z AUTO 23002KT 7SM 23/02 A2980 RMK T02300020 IEM_DS3505
ZBHH,2002-05-28 06:00,ZBHH 280600Z AUTO 36006KT 12SM 24/05 A2977 RMK SLP044 T02400050 57016 IEM_DS3505
ZBHH,2002-05-28 07:00,ZBHH 280700Z AUTO 02004KT 7SM 24/03 A2977 RMK T02400030 IEM_DS3505
ZBHH,2002-05-28 08:00,ZBHH 280800Z AUTO 24008KT 7SM 24/05 A2977 RMK T02400050 IEM_DS3505
ZBHH,2002-05-28 09:00,ZBHH 280900Z AUTO 36010KT 12SM 25/01 A2977 RMK SLP051 T02490006 54000 IEM_DS3505
ZBHH,2002-05-28 10:00,ZBHH 281000Z AUTO 04006KT 7SM 24/M03 A2977 RMK T02401030 IEM_DS3505
ZBHH,2002-05-28 11:00,ZBHH 281100Z AUTO 36004KT 7SM 24/M01 A2977 RMK T02401010 IEM_DS3505
ZBHH,2002-05-28 12:00,ZBHH 281200Z AUTO 00000KT 19SM 22/02 A2980 RMK SLP049 T02240019 52003 IEM_DS3505
ZBHH,2002-05-28 13:00,ZBHH 281300Z AUTO 02006KT 6SM 21/01 A2983 RMK T02100010 IEM_DS3505
ZBHH,2002-05-28 14:00,ZBHH 281400Z AUTO 07006KT 6SM 17/00 A2985 RMK T01700000 IEM_DS3505
ZBHH,2002-05-28 15:00,ZBHH 281500Z AUTO 07004KT 19SM 20/M00 A2985 RMK SLP067 T01991002 52019 IEM_DS3505
ZBHH,2002-05-28 18:00,ZBHH 281800Z AUTO 02004KT 19SM 16/01 RMK SLP069 T01560009 54000 IEM_DS3505
ZBHH,2002-05-28 21:00,ZBHH 282100Z AUTO 00000KT 19SM 10/02 A2985 RMK SLP078 T01020015 54000 IEM_DS3505
ZBHH,2002-05-28 22:00,ZBHH 282200Z AUTO 08006KT 6SM 09/01 A2985 RMK T00900010 IEM_DS3505
ZBHH,2002-05-28 23:00,ZBHH 282300Z AUTO 10006KT 6SM 14/01 A2985 RMK T01400010 IEM_DS3505
ZBHH,2002-05-29 00:00,ZBHH 290000Z AUTO 11002KT 19SM 20/02 A2988 RMK SLP069 T01960020 52005 IEM_DS3505
ZBHH,2002-05-29 01:00,ZBHH 290100Z AUTO 08006KT 6SM 22/M01 A2988 RMK T02201010 IEM_DS3505
ZBHH,2002-05-29 02:00,ZBHH 290200Z AUTO 08008KT 6SM 23/M03 A2988 RMK T02301030 IEM_DS3505
ZBHH,2002-05-29 03:00,ZBHH 290300Z AUTO 04006KT 19SM 23/M01 A2988 RMK SLP069 T02331010 52002 IEM_DS3505
ZBHH,2002-05-29 04:00,ZBHH 290400Z AUTO 13008KT 6SM 25/M04 A2985 RMK T02501040 IEM_DS3505
ZBHH,2002-05-29 05:00,ZBHH 290500Z AUTO 15004KT 6SM 26/M03 A2983 RMK T02601030 IEM_DS3505
ZBHH,2002-05-29 06:00,ZBHH 290600Z AUTO 34008KT 19SM 26/M05 A2983 RMK SLP057 T02651054 57013 IEM_DS3505
ZBHH,2002-05-29 07:00,ZBHH 290700Z AUTO 30008KT 6SM 27/M06 A2980 RMK T02701060 IEM_DS3505
ZBHH,2002-05-29 08:00,ZBHH 290800Z AUTO 36006KT 6SM 27/M06 A2980 RMK T02701060 IEM_DS3505
ZBHH,2002-05-29 09:00,ZBHH 290900Z AUTO 34006KT 19SM 27/M06 A2980 RMK SLP057 T02721065 57008 IEM_DS3505
ZBHH,2002-05-29 10:00,ZBHH 291000Z AUTO 35008KT 6SM 27/M05 A2980 RMK T02701050 IEM_DS3505
ZBHH,2002-05-29 11:00,ZBHH 291100Z AUTO 35008KT 6SM 26/M05 A2983 RMK T02601050 IEM_DS3505
ZBHH,2002-05-29 12:00,ZBHH 291200Z AUTO 34002KT 19SM 25/M02 A2983 RMK SLP052 T02461020 52008 IEM_DS3505
ZBHH,2002-05-29 15:00,ZBHH 291500Z AUTO 32002KT 19SM 19/M00 RMK SLP063 T01941004 52007 IEM_DS3505
ZBHH,2002-05-29 21:00,ZBHH 292100Z AUTO 00000KT 19SM 13/02 A2985 RMK SLP071 T01280017 57002 IEM_DS3505
ZBHH,2002-05-29 22:00,ZBHH 292200Z AUTO 09002KT 6SM 09/00 A2988 RMK T00900000 IEM_DS3505
ZBHH,2002-05-29 23:00,ZBHH 292300Z AUTO 09004KT 6SM 14/02 A2988 RMK T01400020 IEM_DS3505
ZBHH,2002-05-30 00:00,ZBHH 300000Z AUTO 00000KT 16SM 20/03 A2988 RMK T01960029 52007 IEM_DS3505
ZBHH,2002-05-30 01:00,ZBHH 300100Z AUTO 00000KT 6SM 22/M01 A2988 RMK T02201010 IEM_DS3505
ZBHH,2002-05-30 02:00,ZBHH 300200Z AUTO 25002KT 6SM 24/M01 A2988 RMK T02401010 IEM_DS3505
ZBHH,2002-05-30 03:00,ZBHH 300300Z AUTO 20004KT 7SM 25/00 A2988 RMK SLP065 T02500004 57004 IEM_DS3505
ZBHH,2002-05-30 04:00,ZBHH 300400Z AUTO 23006KT 6SM 27/01 A2985 RMK T02700010 IEM_DS3505
ZBHH,2002-05-30 05:00,ZBHH 300500Z AUTO 22006KT 6SM 28/00 A2983 RMK T02800000 IEM_DS3505
ZBHH,2002-05-30 06:00,ZBHH 300600Z AUTO 20010KT 16SM 29/00 A2980 RMK SLP041 T02880003 57020 IEM_DS3505
ZBHH,2002-05-30 07:00,ZBHH 300700Z AUTO 22008KT 6SM 30/01 A2980 RMK T03000010 IEM_DS3505
ZBHH,2002-05-30 08:00,ZBHH 300800Z AUTO 23006KT 6SM 30/01 A2977 RMK T03000010 IEM_DS3505
ZBHH,2002-05-30 09:00,ZBHH 300900Z AUTO 20006KT 19SM 30/00 A2974 RMK SLP027 T03050000 57016 IEM_DS3505
ZBHH,2002-05-30 10:00,ZBHH 301000Z AUTO 23008KT 6SM 29/01 A2974 RMK T02900010 IEM_DS3505
ZBHH,2002-05-30 11:00,ZBHH 301100Z AUTO 23006KT 6SM 28/01 A2974 RMK T02800010 IEM_DS3505
ZBHH,2002-05-30 12:00,ZBHH 301200Z AUTO 25004KT 19SM 27/03 A2977 RMK SLP025 T02700032 52004 IEM_DS3505
ZBHH,2002-05-30 13:00,ZBHH 301300Z AUTO 23004KT 6SM 24/02 A2977 RMK T02400020 IEM_DS3505
ZBHH,2002-05-30 14:00,ZBHH 301400Z AUTO 03004KT 6SM 20/03 A2980 RMK T02000030 IEM_DS3505
ZBHH,2002-05-30 15:00,ZBHH 301500Z AUTO 00000KT 12SM 20/07 A2980 RMK SLP035 T02020068 52007 IEM_DS3505
ZBHH,2002-05-30 18:00,ZBHH 301800Z AUTO 00000KT 19SM 16/06 RMK SLP032 T01620057 57003 IEM_DS3505
ZBHH,2002-05-30 21:00,ZBHH 302100Z AUTO 00000KT 12SM 15/04 A2977 RMK SLP027 T01500045 57004 IEM_DS3505
ZBHH,2002-05-30 22:00,ZBHH 302200Z AUTO 09004KT 6SM 12/03 A2977 RMK T01200030 IEM_DS3505
ZBHH,2002-05-30 23:00,ZBHH 302300Z AUTO 07002KT 6SM 16/05 A2977 RMK T01600050 IEM_DS3505
ZBHH,2002-05-31 00:00,ZBHH 310000Z AUTO 00000KT 12SM 21/05 A2977 RMK SLP028 T02090050 52005 IEM_DS3505
ZBHH,2002-05-31 01:00,ZBHH 310100Z AUTO 29002KT 6SM 23/03 A2977 RMK T02300030 IEM_DS3505
ZBHH,2002-05-31 02:00,ZBHH 310200Z AUTO 22002KT 6SM 25/04 A2977 RMK T02500040 IEM_DS3505
ZBHH,2002-05-31 03:00,ZBHH 310300Z AUTO 25002KT 16SM 27/05 A2977 RMK SLP024 T02680047 57005 IEM_DS3505
ZBHH,2002-05-31 04:00,ZBHH 310400Z AUTO 19002KT 7SM 28/05 A2977 RMK T02800050 IEM_DS3505
ZBHH,2002-05-31 05:00,ZBHH 310500Z AUTO 12002KT 7SM 30/04 A2974 RMK T03000040 IEM_DS3505
ZBHH,2002-05-31 06:00,ZBHH 310600Z AUTO 25006KT 19SM 30/03 A2971 RMK SLP008 T03030033 57015 IEM_DS3505
ZBHH,2002-05-31 07:00,ZBHH 310700Z AUTO 27017KT 7SM 29/02 A2971 RMK T02900020 IEM_DS3505
ZBHH,2002-05-31 08:00,ZBHH 310800Z AUTO 32004KT 7SM 28/03 A2971 RMK T02800030 IEM_DS3505
ZBHH,2002-05-31 09:00,ZBHH 310900Z AUTO 25004KT 19SM 29/05 A2971 RMK SLP010 T02920046 57002 IEM_DS3505
ZBHH,2002-05-31 10:00,ZBHH 311000Z AUTO 00000KT 7SM 28/05 A2968 RMK T02800050 IEM_DS3505
ZBHH,2002-05-31 11:00,ZBHH 311100Z AUTO 03004KT 7SM 27/06 A2971 RMK T02700060 IEM_DS3505
ZBHH,2002-05-31 12:00,ZBHH 311200Z AUTO 00000KT 19SM 26/08 A2971 RMK SLP005 T02610077 54000 IEM_DS3505
ZBHH,2002-05-31 13:00,ZBHH 311300Z AUTO 05004KT 6SM 23/05 A2974 RMK T02300050 IEM_DS3505
ZBHH,2002-05-31 14:00,ZBHH 311400Z AUTO 06004KT 6SM 20/05 A2974 RMK T02000050 IEM_DS3505
ZBHH,2002-05-31 15:00,ZBHH 311500Z AUTO 00000KT 19SM 19/08 A2977 RMK SLP023 T01920078 52014 IEM_DS3505
ZBHH,2002-05-31 18:00,ZBHH 311800Z AUTO 00000KT 19SM 17/07 RMK SLP026 T01670073 52005 IEM_DS3505
ZBHH,2002-05-31 21:00,ZBHH 312100Z AUTO 07002KT 19SM 17/06 A2980 RMK SLP041 T01670056 52011 IEM_DS3505
ZBHH,2002-05-31 22:00,ZBHH 312200Z AUTO 06004KT 6SM 14/05 A2980 RMK T01400050 IEM_DS3505
ZBHH,2002-05-31 23:00,ZBHH 312300Z AUTO 09006KT 6SM 18/07 A2980 RMK T01800070 IEM_DS3505
ZBHH,2002-06-01 00:00,ZBHH 010000Z AUTO 00000KT 19SM 23/07 A2983 RMK SLP043 T02270072 52007 IEM_DS3505
ZBHH,2002-06-01 01:00,ZBHH 010100Z AUTO 04002KT 6SM 25/06 A2983 RMK T02500060 IEM_DS3505
ZBHH,2002-06-01 02:00,ZBHH 010200Z AUTO 05002KT 6SM 28/04 A2983 RMK T02800040 IEM_DS3505
ZBHH,2002-06-01 03:00,ZBHH 010300Z AUTO 07002KT 19SM 30/06 A2983 RMK SLP042 T02960065 57001 IEM_DS3505
ZBHH,2002-06-01 04:00,ZBHH 010400Z AUTO 10010KT 6SM 30/02 A2980 RMK T03000020 IEM_DS3505
ZBHH,2002-06-01 05:00,ZBHH 010500Z AUTO 14008KT 6SM 31/01 A2980 RMK T03100010 IEM_DS3505
ZBHH,2002-06-01 06:00,ZBHH 010600Z AUTO 32004KT 19SM 32/04 A2977 RMK SLP025 T03160043 57016 IEM_DS3505
ZBHH,2002-06-01 07:00,ZBHH 010700Z AUTO 18004KT 6SM 32/01 A2977 RMK T03200010 IEM_DS3505
ZBHH,2002-06-01 08:00,ZBHH 010800Z AUTO 08004KT 6SM 31/01 A2974 RMK T03100010 IEM_DS3505
ZBHH,2002-06-01 09:00,ZBHH 010900Z AUTO 14002KT 19SM 32/05 A2974 RMK SLP012 T03190052 57011 IEM_DS3505
ZBHH,2002-06-01 10:00,ZBHH 011000Z AUTO 14002KT 6SM 31/00 A2974 RMK T03100000 IEM_DS3505
ZBHH,2002-06-01 11:00,ZBHH 011100Z AUTO 17002KT 6SM 30/M01 A2977 RMK T03001010 IEM_DS3505
ZBHH,2002-06-01 12:00,ZBHH 011200Z AUTO 07002KT 19SM 30/05 A2977 RMK SLP017 T02950049 52011 IEM_DS3505
ZBHH,2002-06-01 13:00,ZBHH 011300Z AUTO 04004KT 6SM 25/02 A2980 RMK T02500020 IEM_DS3505
ZBHH,2002-06-01 14:00,ZBHH 011400Z AUTO 33004KT 6SM 23/03 A2980 RMK T02300030 IEM_DS3505
ZBHH,2002-06-01 15:00,ZBHH 011500Z AUTO 00000KT 19SM 22/07 A2980 RMK SLP030 T02160069 52010 IEM_DS3505
ZBHH,2002-06-01 18:00,ZBHH 011800Z AUTO 00000KT 19SM 20/06 RMK SLP031 T01970056 52001 IEM_DS3505
ZBHH,2002-06-01 21:00,ZBHH 012100Z AUTO 07004KT 19SM 17/06 A2983 RMK SLP044 T01680057 52007 IEM_DS3505
ZBHH,2002-06-01 22:00,ZBHH 012200Z AUTO 04004KT 6SM 16/04 A2983 RMK T01600040 IEM_DS3505
ZBHH,2002-06-01 23:00,ZBHH 012300Z AUTO 09004KT 6SM 17/07 A2983 RMK T01700070 IEM_DS3505
ZBHH,2002-06-02 00:00,ZBHH 020000Z AUTO 07002KT 16SM 23/06 A2985 RMK SLP042 T02310060 52005 IEM_DS3505
ZBHH,2002-06-02 01:00,ZBHH 020100Z AUTO 05002KT 6SM 25/06 A2985 RMK T02500060 IEM_DS3505
ZBHH,2002-06-02 02:00,ZBHH 020200Z AUTO 16002KT 6SM 28/04 A2983 RMK T02800040 IEM_DS3505
ZBHH,2002-06-02 03:00,ZBHH 020300Z AUTO 20002KT 19SM 29/05 A2985 RMK SLP041 T02880047 57005 IEM_DS3505
ZBHH,2002-06-02 04:00,ZBHH 020400Z AUTO 23004KT 6SM 30/05 A2983 RMK T03000050 IEM_DS3505
ZBHH,2002-06-02 05:00,ZBHH 020500Z AUTO 23004KT 6SM 32/05 A2980 RMK T03200050 IEM_DS3505
ZBHH,2002-06-02 06:00,ZBHH 020600Z AUTO 20004KT 19SM 33/03 A2977 RMK SLP018 T03280028 57016 IEM_DS3505
ZBHH,2002-06-02 07:00,ZBHH 020700Z AUTO 24008KT 6SM 33/02 A2974 RMK T03300020 IEM_DS3505
ZBHH,2002-06-02 08:00,ZBHH 020800Z AUTO 26008KT 6SM 33/03 A2974 RMK T03300030 IEM_DS3505
ZBHH,2002-06-02 09:00,ZBHH 020900Z AUTO 22006KT 19SM 34/05 A2971 RMK SLP002 T03400054 57018 IEM_DS3505
ZBHH,2002-06-02 10:00,ZBHH 021000Z AUTO 24004KT 6SM 33/02 A2971 RMK T03300020 IEM_DS3505
ZBHH,2002-06-02 11:00,ZBHH 021100Z AUTO 25004KT 6SM 31/05 A2971 RMK T03100050 IEM_DS3505
ZBHH,2002-06-02 12:00,ZBHH 021200Z AUTO 00000KT 12SM 30/09 A2971 RMK SLP994 T02980091 57003 IEM_DS3505
ZBHH,2002-06-02 13:00,ZBHH 021300Z AUTO 06002KT 6SM 25/05 A2974 RMK T02500050 IEM_DS3505
ZBHH,2002-06-02 14:00,ZBHH 021400Z AUTO 08004KT 6SM 23/04 A2974 RMK T02300040 IEM_DS3505
ZBHH,2002-06-02 15:00,ZBHH 021500Z AUTO 14004KT 19SM 23/07 RMK SLP005 T02340068 52009 IEM_DS3505
ZBHH,2002-06-02 18:00,ZBHH 021800Z AUTO 02004KT 19SM 21/07 RMK SLP011 T02060071 52007 IEM_DS3505
ZBHH,2002-06-02 21:00,ZBHH 022100Z AUTO 07004KT 16SM 20/07 A2980 RMK SLP017 T01980072 52006 IEM_DS3505
ZBHH,2002-06-02 22:00,ZBHH 022200Z AUTO 03004KT 6SM 18/07 A2980 RMK T01800070 IEM_DS3505
ZBHH,2002-06-02 23:00,ZBHH 022300Z AUTO 04002KT 6SM 21/08 A2980 RMK T02100080 IEM_DS3505
ZBHH,2002-06-03 00:00,ZBHH 030000Z AUTO 00000KT 12SM 23/09 A2983 RMK SLP028 T02320089 52008 IEM_DS3505
ZBHH,2002-06-03 01:00,ZBHH 030100Z AUTO 23002KT 6SM 24/07 A2983 RMK T02400070 IEM_DS3505
ZBHH,2002-06-03 02:00,ZBHH 030200Z AUTO 21002KT 6SM 26/08 A2980 RMK T02600080 IEM_DS3505
ZBHH,2002-06-03 03:00,ZBHH 030300Z AUTO 20008KT 16SM 28/08 A2980 RMK SLP021 T02820082 57008 IEM_DS3505
ZBHH,2002-06-03 04:00,ZBHH 030400Z AUTO 23006KT 6SM 29/08 A2977 RMK T02900080 IEM_DS3505
ZBHH,2002-06-03 05:00,ZBHH 030500Z AUTO 26006KT 6SM 30/08 A2974 RMK T03000080 IEM_DS3505
ZBHH,2002-06-03 06:00,ZBHH 030600Z AUTO 20008KT 12SM 31/08 A2971 RMK SLP998 T03070080 57021 IEM_DS3505
ZBHH,2002-06-03 07:00,ZBHH 030700Z AUTO 25006KT 7SM 31/07 A2971 RMK T03100070 IEM_DS3505
ZBHH,2002-06-03 08:00,ZBHH 030800Z AUTO 35008KT 7SM 31/01 A2968 RMK T03100010 IEM_DS3505
ZBHH,2002-06-03 09:00,ZBHH 030900Z AUTO 02010G27KT 12SM 30/02 A2968 RMK SLP984 T03020024 57015 IEM_DS3505
ZBHH,2002-06-03 10:00,ZBHH 031000Z AUTO 31014G23KT 7SM 30/02 A2968 RMK T03000020 IEM_DS3505
ZBHH,2002-06-03 11:00,ZBHH 031100Z AUTO 31006G17KT 6SM 29/04 A2971 RMK T02900040 IEM_DS3505
ZBHH,2002-06-03 12:00,ZBHH 031200Z AUTO 29002KT 16SM 27/08 A2971 RMK SLP003 T02710083 52017 IEM_DS3505
ZBHH,2002-06-03 13:00,ZBHH 031300Z AUTO 19008KT 7SM 26/06 A2977 RMK T02600060 IEM_DS3505
ZBHH,2002-06-03 14:00,ZBHH 031400Z AUTO 13006G17KT 5SM 24/07 A2980 RMK T02400070 IEM_DS3505
ZBHH,2002-06-03 15:00,ZBHH 031500Z AUTO 22006KT 19SM 24/10 A2980 RMK SLP032 T02410095 52030 IEM_DS3505
ZBHH,2002-06-03 16:00,ZBHH 031600Z AUTO 35002KT 21/09 A2983 RMK T02100090 IEM_DS3505
ZBHH,2002-06-03 17:00,ZBHH 031700Z AUTO 25002KT 20/10 A2983 RMK T02000100 IEM_DS3505
ZBHH,2002-06-03 18:00,ZBHH 031800Z AUTO 22002KT 19SM 20/12 A2980 RMK SLP030 T02050119 57004 IEM_DS3505
ZBHH,2002-06-03 19:00,ZBHH 031900Z AUTO 04004KT 16/10 A2980 RMK T01600100 IEM_DS3505
ZBHH,2002-06-03 20:00,ZBHH 032000Z AUTO 00000KT 7SM 16/10 A2980 RMK T01600100 IEM_DS3505
ZBHH,2002-06-03 21:00,ZBHH 032100Z AUTO 00000KT 12SM 18/12 A2980 RMK SLP032 T01840115 57003 IEM_DS3505
ZBHH,2002-06-03 22:00,ZBHH 032200Z AUTO 09002KT 7SM 15/10 A2980 RMK T01500100 IEM_DS3505
ZBHH,2002-06-03 23:00,ZBHH 032300Z AUTO 08002KT 6SM 18/11 A2980 RMK T01800110 IEM_DS3505
ZBHH,2002-06-04 00:00,ZBHH 040000Z AUTO 00000KT 12SM 22/12 A2980 RMK SLP036 T02180119 52004 IEM_DS3505
ZBHH,2002-06-04 01:00,ZBHH 040100Z AUTO 00000KT 6SM 23/11 A2983 RMK T02300110 IEM_DS3505
ZBHH,2002-06-04 02:00,ZBHH 040200Z AUTO 30002KT 6SM 24/10 A2980 RMK T02400100 IEM_DS3505
ZBHH,2002-06-04 03:00,ZBHH 040300Z AUTO 18002KT 12SM 26/12 A2980 RMK SLP025 T02630115 57007 IEM_DS3505
ZBHH,2002-06-04 04:00,ZBHH 040400Z AUTO 22004KT 6SM 27/10 A2977 RMK T02700100 IEM_DS3505
ZBHH,2002-06-04 05:00,ZBHH 040500Z AUTO 20004KT 7SM 29/10 A2974 RMK T02900100 IEM_DS3505
ZBHH,2002-06-04 06:00,ZBHH 040600Z AUTO 20004KT 9SM 31/12 A2971 RMK SLP000 T03060115 57021 IEM_DS3505
ZBHH,2002-06-04 07:00,ZBHH 040700Z AUTO 28004KT 7SM 31/09 A2971 RMK T03100090 IEM_DS3505
ZBHH,2002-06-04 08:00,ZBHH 040800Z AUTO 03008KT 7SM 31/09 A2968 RMK T03100090 IEM_DS3505
ZBHH,2002-06-04 09:00,ZBHH 040900Z AUTO 02014G25KT 6SM 28/04 A2971 RMK SLP002 T02840037 57006 IEM_DS3505
ZBHH,2002-06-04 10:00,ZBHH 041000Z AUTO 24017G35KT 7SM 27/05 A2968 RMK T02700050 IEM_DS3505
ZBHH,2002-06-04 11:00,ZBHH 041100Z AUTO 21010KT 7SM 28/03 A2968 RMK T02800030 IEM_DS3505
ZBHH,2002-06-04 12:00,ZBHH 041200Z AUTO 20002KT 19SM 27/09 A2968 RMK 60002 SLP994 T02680088 57004 IEM_DS3505
ZBHH,2002-06-04 13:00,ZBHH 041300Z AUTO 33008KT 6SM 23/08 A2971 RMK T02300080 IEM_DS3505
ZBHH,2002-06-04 14:00,ZBHH 041400Z AUTO 32006KT 6SM 22/08 A2974 RMK T02200080 IEM_DS3505
ZBHH,2002-06-04 15:00,ZBHH 041500Z AUTO 20010KT 19SM 23/08 A2977 RMK SLP018 T02340081 52024 IEM_DS3505
ZBHH,2002-06-04 18:00,ZBHH 041800Z AUTO 22004KT 19SM 22/09 RMK SLP026 T02160092 52011 IEM_DS3505
ZBHH,2002-06-04 21:00,ZBHH 042100Z AUTO 09004KT 19SM 18/10 A2980 RMK 70002 SLP034 T01820103 57003 IEM_DS3505
ZBHH,2002-06-04 22:00,ZBHH 042200Z AUTO 04004KT 6SM 15/10 A2980 RMK T01500100 IEM_DS3505
ZBHH,2002-06-04 23:00,ZBHH 042300Z AUTO 01002KT 6SM 19/11 A2980 RMK T01900110 IEM_DS3505
ZBHH,2002-06-05 00:00,ZBHH 050000Z AUTO 09002KT 19SM 22/11 A2983 RMK 70002 SLP039 T02230110 52009 IEM_DS3505
ZBHH,2002-06-05 01:00,ZBHH 050100Z AUTO 00000KT 6SM 24/10 A2983 RMK T02400100 IEM_DS3505
ZBHH,2002-06-05 02:00,ZBHH 050200Z AUTO 20002KT 6SM 25/10 A2980 RMK T02500100 IEM_DS3505
ZBHH,2002-06-05 03:00,ZBHH 050300Z AUTO 18004KT 9SM 26/11 A2980 RMK SLP028 T02620112 57009 IEM_DS3505
ZBHH,2002-06-05 04:00,ZBHH 050400Z AUTO 22004KT 6SM 27/11 A2977 RMK T02700110 IEM_DS3505
ZBHH,2002-06-05 05:00,ZBHH 050500Z AUTO 19002KT 7SM 29/11 A2974 RMK T02900110 IEM_DS3505
ZBHH,2002-06-05 06:00,ZBHH 050600Z AUTO 22006KT 9SM 30/12 A2971 RMK SLP000 T03020118 57021 IEM_DS3505
ZBHH,2002-06-05 07:00,ZBHH 050700Z AUTO 22006KT 7SM 29/11 A2968 RMK T02900110 IEM_DS3505
ZBHH,2002-06-05 08:00,ZBHH 050800Z AUTO 01004KT 7SM 29/11 A2968 RMK T02900110 IEM_DS3505
ZBHH,2002-06-05 09:00,ZBHH 050900Z AUTO 04006KT 12SM 30/13 A2968 RMK SLP989 T02950126 57017 IEM_DS3505
ZBHH,2002-06-05 10:00,ZBHH 051000Z AUTO 19002KT 7SM 29/12 A2968 RMK T02900120 IEM_DS3505
ZBHH,2002-06-05 11:00,ZBHH 051100Z AUTO 25017G27KT 29/06 A2968 RMK T02900060 IEM_DS3505
ZBHH,2002-06-05 12:00,ZBHH 051200Z AUTO 25008KT 12SM 28/07 A2971 RMK 60003 SLP996 T02800071 52011 IEM_DS3505
ZBHH,2002-06-05 13:00,ZBHH 051300Z AUTO 16002KT 7SM 26/06 A2968 RMK T02600060 IEM_DS3505
ZBHH,2002-06-05 14:00,ZBHH 051400Z AUTO 05002KT 6SM 23/06 A2971 RMK T02300060 IEM_DS3505
ZBHH,2002-06-05 15:00,ZBHH 051500Z AUTO 18004KT 19SM 25/07 A2974 RMK SLP009 T02520068 52014 IEM_DS3505
ZBHH,2002-06-05 16:00,ZBHH 051600Z AUTO 23004KT 6SM 25/06 A2977 RMK T02500060 IEM_DS3505
ZBHH,2002-06-05 17:00,ZBHH 051700Z AUTO 26002KT 6SM 21/07 A2980 RMK T02100070 IEM_DS3505
ZBHH,2002-06-05 18:00,ZBHH 051800Z AUTO 29002KT 19SM 24/08 RMK SLP021 T02370082 52015 IEM_DS3505
ZBHH,2002-06-05 21:00,ZBHH 052100Z AUTO 00000KT 16SM 22/10 A2980 RMK 70003 SLP024 T02180097 57002 IEM_DS3505
ZBHH,2002-06-05 22:00,ZBHH 052200Z AUTO 09002KT 6SM 16/09 A2980 RMK T01600090 IEM_DS3505
ZBHH,2002-06-05 23:00,ZBHH 052300Z AUTO 09004KT 6SM 19/10 A2983 RMK T01900100 IEM_DS3505
ZBHH,2002-06-06 00:00,ZBHH 060000Z AUTO 02002KT 19SM 24/11 A2980 RMK 70003 SLP029 T02420106 52006 IEM_DS3505
ZBHH,2002-06-06 01:00,ZBHH 060100Z AUTO 23002KT 6SM 25/10 A2980 RMK T02500100 IEM_DS3505
ZBHH,2002-06-06 02:00,ZBHH 060200Z AUTO 25004KT 6SM 24/10 A2980 RMK T02400100 IEM_DS3505
ZBHH,2002-06-06 03:00,ZBHH 060300Z AUTO 11004KT 12SM 27/11 A2980 RMK SLP027 T02690113 57002 IEM_DS3505
ZBHH,2002-06-06 04:00,ZBHH 060400Z AUTO 24006KT 6SM 28/09 A2980 RMK T02800090 IEM_DS3505
ZBHH,2002-06-06 05:00,ZBHH 060500Z AUTO 23004KT 7SM 30/10 A2977 RMK T03000100 IEM_DS3505
ZBHH,2002-06-06 06:00,ZBHH 060600Z AUTO 20006KT 19SM 32/09 A2974 RMK SLP997 T03150091 57021 IEM_DS3505
ZBHH,2002-06-06 07:00,ZBHH 060700Z AUTO 22008KT 7SM 33/08 A2971 RMK T03300080 IEM_DS3505
ZBHH,2002-06-06 08:00,ZBHH 060800Z AUTO 24008KT 7SM 33/08 A2971 RMK T03300080 IEM_DS3505
ZBHH,2002-06-06 09:00,ZBHH 060900Z AUTO 27004KT 19SM 31/09 A2968 RMK SLP987 T03140094 57013 IEM_DS3505
ZBHH,2002-06-06 10:00,ZBHH 061000Z AUTO 29006KT 7SM 32/08 A2968 RMK T03200080 IEM_DS3505
ZBHH,2002-06-06 11:00,ZBHH 061100Z AUTO 19006KT 7SM 31/07 A2971 RMK T03100070 IEM_DS3505
ZBHH,2002-06-06 12:00,ZBHH 061200Z AUTO 18004KT 12SM 30/09 A2971 RMK SLP990 T03020087 52005 IEM_DS3505
ZBHH,2002-06-06 13:00,ZBHH 061300Z AUTO 01004KT 7SM 28/07 A2977 RMK T02800070 IEM_DS3505
ZBHH,2002-06-06 14:00,ZBHH 061400Z AUTO 16004KT 7SM 27/07 A2974 RMK T02700070 IEM_DS3505
ZBHH,2002-06-06 15:00,ZBHH 061500Z AUTO 00000KT 16SM 27/11 A2977 RMK SLP012 T02720108 52019 IEM_DS3505
ZBHH,2002-06-06 16:00,ZBHH 061600Z AUTO 30008KT 7SM 26/09 A2980 RMK T02600090 IEM_DS3505
ZBHH,2002-06-06 17:00,ZBHH 061700Z AUTO 14002KT 7SM 24/12 A2980 RMK T02400120 IEM_DS3505
ZBHH,2002-06-06 18:00,ZBHH 061800Z AUTO 32008KT 19SM 22/11 A2983 RMK 60000 SLP034 T02230106 52019 IEM_DS3505
ZBHH,2002-06-06 19:00,ZBHH 061900Z AUTO 36014KT 7SM 21/10 A2985 RMK T02100100 IEM_DS3505
ZBHH,2002-06-06 21:00,ZBHH 062100Z AUTO 32008G25KT 19SM 18/09 A2988 RMK 70001 SLP058 T01850087 52014 IEM_DS3505
ZBHH,2002-06-06 22:00,ZBHH 062200Z AUTO 01012G21KT 6SM 18/07 A2991 RMK T01800070 IEM_DS3505
ZBHH,2002-06-06 23:00,ZBHH 062300Z AUTO 36010G19KT 6SM 18/07 A2994 RMK T01800070 IEM_DS3505
ZBHH,2002-06-07 00:00,ZBHH 070000Z AUTO 07004KT 19SM 20/06 A2994 RMK 70001 SLP083 T02000065 52023 IEM_DS3505
ZBHH,2002-06-07 01:00,ZBHH 070100Z AUTO 01010KT 6SM 22/03 A2997 RMK T02200030 IEM_DS3505
ZBHH,2002-06-07 02:00,ZBHH 070200Z AUTO 01010KT 6SM 23/01 A2997 RMK T02300010 IEM_DS3505
ZBHH,2002-06-07 03:00,ZBHH 070300Z AUTO 02010KT 19SM 23/02 A2997 RMK SLP096 T02340017 52012 IEM_DS3505
ZBHH,2002-06-07 04:00,ZBHH 070400Z AUTO 01008KT 6SM 26/M03 A2997 RMK T02601030 IEM_DS3505
ZBHH,2002-06-07 05:00,ZBHH 070500Z AUTO 01010KT 6SM 26/M04 A2997 RMK T02601040 IEM_DS3505
ZBHH,2002-06-07 06:00,ZBHH 070600Z AUTO 04006KT 19SM 27/M06 A2994 RMK SLP085 T02691065 57012 IEM_DS3505
ZBHH,2002-06-07 07:00,ZBHH 070700Z AUTO 04012G21KT 6SM 26/M03 A2994 RMK T02601030 IEM_DS3505
ZBHH,2002-06-07 08:00,ZBHH 070800Z AUTO 06008KT 6SM 27/M04 A2994 RMK T02701040 IEM_DS3505
ZBHH,2002-06-07 09:00,ZBHH 070900Z AUTO 04010KT 19SM 26/M06 A2994 RMK SLP088 T02601060 57006 IEM_DS3505
ZBHH,2002-06-07 10:00,ZBHH 071000Z AUTO 07012KT 6SM 24/M04 A2994 RMK T02401040 IEM_DS3505
ZBHH,2002-06-07 11:00,ZBHH 071100Z AUTO 07014KT 7SM 23/M03 A2997 RMK T02301030 IEM_DS3505
ZBHH,2002-06-07 12:00,ZBHH 071200Z AUTO 07004KT 19SM 23/M03 A2997 RMK SLP107 T02321034 52015 IEM_DS3505
ZBHH,2002-06-07 13:00,ZBHH 071300Z AUTO 06010KT 7SM 22/M02 A3000 RMK T02201020 IEM_DS3505
ZBHH,2002-06-07 14:00,ZBHH 071400Z AUTO 07010KT 7SM 21/M02 A3003 RMK T02101020 IEM_DS3505
ZBHH,2002-06-07 15:00,ZBHH 071500Z AUTO 04006KT 16SM 21/M02 A3003 RMK SLP117 T02141017 52011 IEM_DS3505
ZBHH,2002-06-07 16:00,ZBHH 071600Z AUTO 07012KT 7SM 20/M02 A3000 RMK T02001020 IEM_DS3505
ZBHH,2002-06-07 17:00,ZBHH 071700Z AUTO 07012KT 7SM 19/M02 A3000 RMK T01901020 IEM_DS3505
ZBHH,2002-06-07 18:00,ZBHH 071800Z AUTO 07008KT 19SM 20/M02 A3000 RMK SLP107 T01971018 57005 IEM_DS3505
ZBHH,2002-06-07 19:00,ZBHH 071900Z AUTO 07017KT 7SM 18/M01 A2997 RMK T01801010 IEM_DS3505
ZBHH,2002-06-07 20:00,ZBHH 072000Z AUTO 07019KT 7SM 18/M01 A2997 RMK T01801010 IEM_DS3505
ZBHH,2002-06-07 21:00,ZBHH 072100Z AUTO 07010KT 16SM 18/M02 A2997 RMK SLP102 T01851015 57008 IEM_DS3505
ZBHH,2002-06-07 22:00,ZBHH 072200Z AUTO 06017KT 7SM 17/00 A2997 RMK T01700000 IEM_DS3505
ZBHH,2002-06-07 23:00,ZBHH 072300Z AUTO 07016KT 7SM 17/00 A2997 RMK T01700000 IEM_DS3505
ZBHH,2002-06-08 00:00,ZBHH 080000Z AUTO 07008KT 19SM 18/M00 A2997 RMK SLP110 T01841003 52001 IEM_DS3505
ZBHH,2002-06-08 01:00,ZBHH 080100Z AUTO 07012KT 7SM 19/01 A2997 RMK T01900010 IEM_DS3505
ZBHH,2002-06-08 02:00,ZBHH 080200Z AUTO 08010KT 7SM 19/02 A2997 RMK T01900020 IEM_DS3505
ZBHH,2002-06-08 03:00,ZBHH 080300Z AUTO 09004KT 19SM 20/04 A2997 RMK SLP104 T02040039 57005 IEM_DS3505
ZBHH,2002-06-08 04:00,ZBHH 080400Z AUTO 16006KT 7SM 20/06 A2994 RMK T02000060 IEM_DS3505
ZBHH,2002-06-08 05:00,ZBHH 080500Z AUTO 14008KT 7SM 17/09 A2994 RMK T01700090 IEM_DS3505
ZBHH,2002-06-08 06:00,ZBHH 080600Z AUTO 09006KT 12SM 17/12 A2994 RMK 60000 SLP102 T01710119 57011 IEM_DS3505
ZBHH,2002-06-08 07:00,ZBHH 080700Z AUTO 08002KT 4SM 15/12 A2991 RMK T01500120 IEM_DS3505
ZBHH,2002-06-08 08:00,ZBHH 080800Z AUTO 07006KT 4SM 15/13 A2988 RMK T01500130 IEM_DS3505
ZBHH,2002-06-08 09:00,ZBHH 080900Z AUTO 09002KT 9SM 15/14 A2985 RMK SLP086 T01540139 57019 IEM_DS3505
ZBHH,2002-06-08 10:00,ZBHH 081000Z AUTO 16002KT 4SM 15/13 A2985 RMK T01500130 IEM_DS3505
ZBHH,2002-06-08 11:00,ZBHH 081100Z AUTO 10004KT 4SM 15/13 A2985 RMK T01500130 IEM_DS3505
ZBHH,2002-06-08 12:00,ZBHH 081200Z AUTO 02004KT 9SM 14/13 A2985 RMK 60059 SLP085 T01430133 57003 IEM_DS3505
ZBHH,2002-06-08 13:00,ZBHH 081300Z AUTO 04006KT 2 1/2SM 14/13 A2985 RMK T01400130 IEM_DS3505
ZBHH,2002-06-08 14:00,ZBHH 081400Z AUTO 08004KT 2 1/2SM 13/12 A2985 RMK T01300120 IEM_DS3505
ZBHH,2002-06-08 15:00,ZBHH 081500Z AUTO 09004KT 9SM 14/13 A2985 RMK SLP080 T01370128 57002 IEM_DS3505
ZBHH,2002-06-08 16:00,ZBHH 081600Z AUTO 11002KT 2 1/2SM 13/12 A2983 RMK T01300120 IEM_DS3505
ZBHH,2002-06-08 17:00,ZBHH 081700Z AUTO 11002KT 2 1/2SM 12/11 A2983 RMK T01200110 IEM_DS3505
ZBHH,2002-06-08 18:00,ZBHH 081800Z AUTO 18002KT 9SM 13/12 A2980 RMK 60051 SLP070 T01310115 57016 IEM_DS3505
ZBHH,2002-06-08 19:00,ZBHH 081900Z AUTO 08002KT 2 1/2SM 12/12 A2977 RMK T01200120 IEM_DS3505
ZBHH,2002-06-08 20:00,ZBHH 082000Z AUTO 11004KT 2 1/2SM 12/11 A2977 RMK T01200110 IEM_DS3505
ZBHH,2002-06-08 21:00,ZBHH 082100Z AUTO 09004KT 7SM 13/12 A2974 RMK 70128 SLP056 T01260119 57017 IEM_DS3505
ZBHH,2002-06-08 22:00,ZBHH 082200Z AUTO 10002KT 2SM 12/11 A2974 RMK T01200110 IEM_DS3505
ZBHH,2002-06-09 00:00,ZBHH 090000Z AUTO 07002KT 7SM 13/13 A2971 RMK 60028 SLP048 T01320127 57008 IEM_DS3505
ZBHH,2002-06-09 01:00,ZBHH 090100Z AUTO 09002KT 1 1/4SM 13/12 A2971 RMK T01300120 IEM_DS3505
ZBHH,2002-06-09 02:00,ZBHH 090200Z AUTO 14002KT 2SM 13/12 A2971 RMK T01300120 IEM_DS3505
ZBHH,2002-06-09 03:00,ZBHH 090300Z AUTO 00000KT 7SM 14/13 A2968 RMK SLP043 T01420130 57004 IEM_DS3505
ZBHH,2002-06-09 04:00,ZBHH 090400Z AUTO 24002KT 5SM 14/13 A2968 RMK T01400130 IEM_DS3505
ZBHH,2002-06-09 05:00,ZBHH 090500Z AUTO 20002KT 3SM 14/13 A2965 RMK T01400130 IEM_DS3505
ZBHH,2002-06-09 06:00,ZBHH 090600Z AUTO 18004KT 7SM 15/14 A2965 RMK 60020 SLP021 T01520139 57018 IEM_DS3505
ZBHH,2002-06-09 07:00,ZBHH 090700Z AUTO 22004KT 4SM 15/14 A2962 RMK T01500140 IEM_DS3505
ZBHH,2002-06-09 08:00,ZBHH 090800Z AUTO 23006KT 4SM 15/14 A2962 RMK T01500140 IEM_DS3505
ZBHH,2002-06-09 09:00,ZBHH 090900Z AUTO 22008KT 9SM 16/14 A2959 RMK SLP001 T01640139 57017 IEM_DS3505
ZBHH,2002-06-09 10:00,ZBHH 091000Z AUTO 21004KT 7SM 17/13 A2956 RMK T01700130 IEM_DS3505
ZBHH,2002-06-09 11:00,ZBHH 091100Z AUTO 20002KT 7SM 17/14 A2956 RMK T01700140 IEM_DS3505
ZBHH,2002-06-09 12:00,ZBHH 091200Z AUTO 32004KT 12SM 17/14 A2956 RMK 60003 SLP999 T01670144 54000 IEM_DS3505
ZBHH,2002-06-09 13:00,ZBHH 091300Z AUTO 21004KT 3SM 15/14 A2959 RMK T01500140 IEM_DS3505
ZBHH,2002-06-09 14:00,ZBHH 091400Z AUTO 23004KT 3SM 15/14 A2959 RMK T01500140 IEM_DS3505
ZBHH,2002-06-09 15:00,ZBHH 091500Z AUTO 00000KT 19SM 16/14 A2959 RMK SLP996 T01590144 57002 IEM_DS3505
ZBHH,2002-06-09 16:00,ZBHH 091600Z AUTO 30002KT 4SM 15/14 A2956 RMK T01500140 IEM_DS3505
ZBHH,2002-06-09 17:00,ZBHH 091700Z AUTO 23004KT 7SM 15/12 A2956 RMK T01500120 IEM_DS3505
ZBHH,2002-06-09 18:00,ZBHH 091800Z AUTO 27006KT 19SM 16/09 A2956 RMK 60000 SLP990 T01630094 57003 IEM_DS3505
ZBHH,2002-06-09 19:00,ZBHH 091900Z AUTO 29010KT 7SM 15/09 A2956 RMK T01500090 IEM_DS3505
ZBHH,2002-06-09 20:00,ZBHH 092000Z AUTO 33014KT 7SM 14/09 A2959 RMK T01400090 IEM_DS3505
ZBHH,2002-06-09 21:00,ZBHH 092100Z AUTO 29014KT 12SM 14/08 A2962 RMK 70030 SLP012 T01450079 52019 IEM_DS3505
ZBHH,2002-06-09 22:00,ZBHH 092200Z AUTO 33014KT 7SM 13/09 A2965 RMK T01300090 IEM_DS3505
ZBHH,2002-06-09 23:00,ZBHH 092300Z AUTO 32010KT 7SM 14/09 A2968 RMK T01400090 IEM_DS3505
ZBHH,2002-06-10 00:00,ZBHH 100000Z AUTO 34008KT 19SM 15/08 A2971 RMK 60000 SLP042 T01480076 52027 IEM_DS3505
ZBHH,2002-06-10 01:00,ZBHH 100100Z AUTO 33019KT 7SM 13/08 A2974 RMK T01300080 IEM_DS3505
ZBHH,2002-06-10 02:00,ZBHH 100200Z AUTO 34021G31KT 7SM 13/06 A2974 RMK T01300060 IEM_DS3505
ZBHH,2002-06-10 03:00,ZBHH 100300Z AUTO 32010G39KT 19SM 15/02 A2977 RMK SLP066 T01500024 52020 IEM_DS3505
ZBHH,2002-06-10 04:00,ZBHH 100400Z AUTO 34021G31KT 7SM 15/04 A2980 RMK T01500040 IEM_DS3505
ZBHH,2002-06-10 05:00,ZBHH 100500Z AUTO 35014G25KT 7SM 16/03 A2980 RMK T01600030 IEM_DS3505
ZBHH,2002-06-10 06:00,ZBHH 100600Z AUTO 34008G27KT 19SM 17/M01 A2980 RMK SLP066 T01691012 52005 IEM_DS3505
ZBHH,2002-06-10 07:00,ZBHH 100700Z AUTO 31017G27KT 7SM 17/00 A2980 RMK T01700000 IEM_DS3505
ZBHH,2002-06-10 08:00,ZBHH 100800Z AUTO 31016G31KT 7SM 18/M02 A2980 RMK T01801020 IEM_DS3505
ZBHH,2002-06-10 09:00,ZBHH 100900Z AUTO 32006G29KT 19SM 19/M07 A2980 RMK SLP062 T01861073 57004 IEM_DS3505
ZBHH,2002-06-10 10:00,ZBHH 101000Z AUTO 32017G31KT 6SM 18/M06 A2980 RMK T01801060 IEM_DS3505
ZBHH,2002-06-10 11:00,ZBHH 101100Z AUTO 32012KT 6SM 18/M06 A2980 RMK T01801060 IEM_DS3505
ZBHH,2002-06-10 12:00,ZBHH 101200Z AUTO 00000KT 16SM 17/M04 A2977 RMK SLP059 T01721041 57005 IEM_DS3505
ZBHH,2002-06-10 13:00,ZBHH 101300Z AUTO 33008KT 6SM 16/M03 A2977 RMK T01601030 IEM_DS3505
ZBHH,2002-06-10 14:00,ZBHH 101400Z AUTO 32006KT 6SM 15/M03 A2977 RMK T01501030 IEM_DS3505
ZBHH,2002-06-10 15:00,ZBHH 101500Z AUTO 00000KT 19SM 14/01 A2977 RMK SLP069 T01400014 52003 IEM_DS3505
ZBHH,2002-06-10 16:00,ZBHH 101600Z AUTO 28008KT 6SM 13/00 A2977 RMK T01300000 IEM_DS3505
ZBHH,2002-06-10 17:00,ZBHH 101700Z AUTO 25004KT 6SM 11/02 A2977 RMK T01100020 IEM_DS3505
ZBHH,2002-06-10 18:00,ZBHH 101800Z AUTO 00000KT 19SM 11/05 A2974 RMK SLP055 T01120046 57014 IEM_DS3505
ZBHH,2002-06-10 19:00,ZBHH 101900Z AUTO 26006KT 6SM 12/03 A2971 RMK T01200030 IEM_DS3505
ZBHH,2002-06-10 20:00,ZBHH 102000Z AUTO 28010KT 6SM 14/02 A2971 RMK T01400020 IEM_DS3505
ZBHH,2002-06-10 21:00,ZBHH 102100Z AUTO 32002KT 19SM 14/01 A2974 RMK 70001 SLP044 T01380014 57001 IEM_DS3505
ZBHH,2002-06-10 22:00,ZBHH 102200Z AUTO 02006KT 6SM 12/01 A2977 RMK T01200010 IEM_DS3505
ZBHH,2002-06-10 23:00,ZBHH 102300Z AUTO 34008KT 6SM 13/M01 A2974 RMK T01301010 IEM_DS3505
ZBHH,2002-06-11 00:00,ZBHH 110000Z AUTO 29004KT 19SM 15/M02 A2977 RMK SLP054 T01491020 52008 IEM_DS3505
ZBHH,2002-06-11 01:00,ZBHH 110100Z AUTO 34012G21KT 6SM 16/M01 A2977 RMK T01601010 IEM_DS3505
ZBHH,2002-06-11 02:00,ZBHH 110200Z AUTO 32014G23KT 6SM 17/M01 A2977 RMK T01701010 IEM_DS3505
ZBHH,2002-06-11 03:00,ZBHH 110300Z AUTO 32004KT 19SM 18/M03 A2977 RMK SLP057 T01791034 52002 IEM_DS3505
ZBHH,2002-06-11 04:00,ZBHH 110400Z AUTO 34017G31KT 6SM 18/M01 A2977 RMK T01801010 IEM_DS3505
ZBHH,2002-06-11 05:00,ZBHH 110500Z AUTO 33017G29KT 6SM 19/M02 A2974 RMK T01901020 IEM_DS3505
ZBHH,2002-06-11 06:00,ZBHH 110600Z AUTO 29008KT 19SM 20/M04 A2974 RMK SLP051 T02011045 57006 IEM_DS3505
ZBHH,2002-06-11 07:00,ZBHH 110700Z AUTO 34017G37KT 6SM 19/M04 A2974 RMK T01901040 IEM_DS3505
ZBHH,2002-06-11 08:00,ZBHH 110800Z AUTO 34016G27KT 6SM 19/M03 A2974 RMK T01901030 IEM_DS3505
ZBHH,2002-06-11 09:00,ZBHH 110900Z AUTO 34016KT 19SM 21/M06 A2974 RMK SLP043 T02071058 57001 IEM_DS3505
ZBHH,2002-06-11 10:00,ZBHH 111000Z AUTO 34014G25KT 6SM 20/M03 A2974 RMK T02001030 IEM_DS3505
ZBHH,2002-06-11 11:00,ZBHH 111100Z AUTO 34012G21KT 6SM 20/M02 A2974 RMK T02001020 IEM_DS3505
ZBHH,2002-06-11 12:00,ZBHH 111200Z AUTO 36006KT 19SM 20/M03 A2977 RMK SLP048 T01961030 52004 IEM_DS3505
ZBHH,2002-06-11 13:00,ZBHH 111300Z AUTO 35010G19KT 6SM 18/01 A2977 RMK T01800010 IEM_DS3505
ZBHH,2002-06-11 14:00,ZBHH 111400Z AUTO 36006KT 6SM 16/03 A2980 RMK T01600030 IEM_DS3505
ZBHH,2002-06-11 15:00,ZBHH 111500Z AUTO 1/8SM A2980 RMK 70014 IEM_DS3505
ZBHH,2002-06-11 16:00,ZBHH 111600Z AUTO 33002KT 6SM 13/05 A2980 RMK T01300050 IEM_DS3505
ZBHH,2002-06-11 17:00,ZBHH 111700Z AUTO 01002KT 6SM 12/06 A2980 RMK T01200060 IEM_DS3505
ZBHH,2002-06-11 18:00,ZBHH 111800Z AUTO 36008KT 19SM 14/06 RMK SLP075 T01410060 52010 IEM_DS3505
ZBHH,2002-06-11 21:00,ZBHH 112100Z AUTO 32006KT 19SM 12/04 A2985 RMK SLP085 T01170045 52005 IEM_DS3505
ZBHH,2002-06-11 22:00,ZBHH 112200Z AUTO 28004KT 6SM 10/06 A2988 RMK T01000060 IEM_DS3505
ZBHH,2002-06-11 23:00,ZBHH 112300Z AUTO 03002KT 6SM 13/06 A2988 RMK T01300060 IEM_DS3505
ZBHH,2002-06-12 00:00,ZBHH 120000Z AUTO 00000KT 19SM 15/06 A2988 RMK SLP092 T01520063 52011 IEM_DS3505
ZBHH,2002-06-12 01:00,ZBHH 120100Z AUTO 34008KT 6SM 16/07 A2988 RMK T01600070 IEM_DS3505
ZBHH,2002-06-12 02:00,ZBHH 120200Z AUTO 36008G17KT 6SM 18/06 A2988 RMK T01800060 IEM_DS3505
ZBHH,2002-06-12 03:00,ZBHH 120300Z AUTO 36006G16KT 19SM 20/05 A2988 RMK SLP083 T01960054 57006 IEM_DS3505
ZBHH,2002-06-12 04:00,ZBHH 120400Z AUTO 33010KT 7SM 20/04 A2985 RMK T02000040 IEM_DS3505
ZBHH,2002-06-12 05:00,ZBHH 120500Z AUTO 34008KT 6SM 21/04 A2985 RMK T02100040 IEM_DS3505
ZBHH,2002-06-12 06:00,ZBHH 120600Z AUTO 32010KT 19SM 23/03 A2985 RMK SLP072 T02260029 57008 IEM_DS3505
ZBHH,2002-06-12 09:00,ZBHH 120900Z AUTO 22008KT 19SM 24/07 A2980 RMK SLP057 T02360071 57016 IEM_DS3505
ZBHH,2002-06-12 11:00,ZBHH 121100Z AUTO 23006KT 6SM 23/07 A2980 RMK T02300070 IEM_DS3505
ZBHH,2002-06-12 12:00,ZBHH 121200Z AUTO 22004KT 19SM 22/09 A2980 RMK SLP056 T02190087 52002 IEM_DS3505
ZBHH,2002-06-12 14:00,ZBHH 121400Z AUTO 04004KT 6SM 17/04 A2983 RMK T01700040 IEM_DS3505
ZBHH,2002-06-12 15:00,ZBHH 121500Z AUTO 00000KT 19SM 16/07 A2983 RMK SLP073 T01580070 52012 IEM_DS3505
ZBHH,2002-06-12 16:00,ZBHH 121600Z AUTO 06004KT 6SM 14/05 A2983 RMK T01400050 IEM_DS3505
ZBHH,2002-06-12 17:00,ZBHH 121700Z AUTO 06006KT 6SM 12/05 A2983 RMK T01200050 IEM_DS3505
ZBHH,2002-06-12 18:00,ZBHH 121800Z AUTO 00000KT 19SM 13/06 RMK SLP069 T01300063 57003 IEM_DS3505
ZBHH,2002-06-12 21:00,ZBHH 122100Z AUTO 04002KT 19SM 13/05 A2983 RMK SLP067 T01320051 54000 IEM_DS3505
ZBHH,2002-06-12 22:00,ZBHH 122200Z AUTO 08004KT 6SM 11/06 A2980 RMK T01100060 IEM_DS3505
ZBHH,2002-06-12 23:00,ZBHH 122300Z AUTO 09002KT 6SM 14/06 A2983 RMK T01400060 IEM_DS3505
ZBHH,2002-06-13 00:00,ZBHH 130000Z AUTO 00000KT 19SM 20/06 A2983 RMK SLP057 T01960057 54000 IEM_DS3505
ZBHH,2002-06-13 01:00,ZBHH 130100Z AUTO 07002KT 6SM 20/05 A2980 RMK T02000050 IEM_DS3505
ZBHH,2002-06-13 02:00,ZBHH 130200Z AUTO 00000KT 6SM 22/05 A2980 RMK T02200050 IEM_DS3505
ZBHH,2002-06-13 03:00,ZBHH 130300Z AUTO 09002KT 19SM 23/07 A2980 RMK SLP046 T02320070 57014 IEM_DS3505
ZBHH,2002-06-13 04:00,ZBHH 130400Z AUTO 23004KT 6SM 25/07 A2977 RMK T02500070 IEM_DS3505
ZBHH,2002-06-13 05:00,ZBHH 130500Z AUTO 25002KT 7SM 24/06 A2974 RMK T02400060 IEM_DS3505
ZBHH,2002-06-13 06:00,ZBHH 130600Z AUTO 25008KT 12SM 26/08 A2971 RMK SLP029 T02560082 57016 IEM_DS3505
ZBHH,2002-06-13 07:00,ZBHH 130700Z AUTO 25004KT 7SM 25/07 A2971 RMK T02500070 IEM_DS3505
ZBHH,2002-06-13 08:00,ZBHH 130800Z AUTO 03012KT 7SM 23/08 A2971 RMK T02300080 IEM_DS3505
ZBHH,2002-06-13 09:00,ZBHH 130900Z AUTO 04004KT 19SM 25/08 A2968 RMK SLP018 T02470076 57011 IEM_DS3505
ZBHH,2002-06-13 10:00,ZBHH 131000Z AUTO 36008KT 7SM 23/07 A2968 RMK T02300070 IEM_DS3505
ZBHH,2002-06-13 11:00,ZBHH 131100Z AUTO 05008KT 7SM 21/09 A2971 RMK T02100090 IEM_DS3505
ZBHH,2002-06-13 12:00,ZBHH 131200Z AUTO 00000KT 16SM 20/13 A2971 RMK 60004 SLP026 T02000126 52010 IEM_DS3505
ZBHH,2002-06-13 13:00,ZBHH 131300Z AUTO 01004KT 7SM 18/13 A2974 RMK T01800130 IEM_DS3505
ZBHH,2002-06-13 14:00,ZBHH 131400Z AUTO 19002KT 7SM 18/11 A2977 RMK T01800110 IEM_DS3505
ZBHH,2002-06-13 15:00,ZBHH 131500Z AUTO 00000KT 19SM 17/13 A2977 RMK SLP035 T01740134 52010 IEM_DS3505
ZBHH,2002-06-13 16:00,ZBHH 131600Z AUTO 05004KT 7SM 15/11 A2977 RMK T01500110 IEM_DS3505
ZBHH,2002-06-13 18:00,ZBHH 131800Z AUTO 00000KT 19SM 15/12 RMK SLP030 T01500121 57004 IEM_DS3505
ZBHH,2002-06-13 21:00,ZBHH 132100Z AUTO 00000KT 19SM 13/10 A2974 RMK 70004 SLP032 T01340105 57003 IEM_DS3505
ZBHH,2002-06-13 22:00,ZBHH 132200Z AUTO 11002KT 6SM 13/09 A2974 RMK T01300090 IEM_DS3505
ZBHH,2002-06-13 23:00,ZBHH 132300Z AUTO 09002KT 6SM 16/11 A2974 RMK T01600110 IEM_DS3505
ZBHH,2002-06-14 04:00,ZBHH 140400Z AUTO 22002KT 6SM 26/09 A2974 RMK T02600090 IEM_DS3505
ZBHH,2002-06-14 05:00,ZBHH 140500Z AUTO 30004KT 6SM 27/09 A2971 RMK T02700090 IEM_DS3505
ZBHH,2002-06-14 06:00,ZBHH 140600Z AUTO 27004KT 19SM 28/07 A2971 RMK SLP019 T02790072 57011 IEM_DS3505
ZBHH,2002-06-14 07:00,ZBHH 140700Z AUTO 33008KT 6SM 29/00 A2971 RMK T02900000 IEM_DS3505
ZBHH,2002-06-14 08:00,ZBHH 140800Z AUTO 35012KT 6SM 29/M01 A2971 RMK T02901010 IEM_DS3505
ZBHH,2002-06-14 09:00,ZBHH 140900Z AUTO 04010KT 19SM 28/M01 A2971 RMK SLP017 T02831009 57004 IEM_DS3505
ZBHH,2002-06-14 10:00,ZBHH 141000Z AUTO 36008KT 7SM 28/01 A2971 RMK T02800010 IEM_DS3505
ZBHH,2002-06-14 11:00,ZBHH 141100Z AUTO 01008KT 6SM 27/01 A2971 RMK T02700010 IEM_DS3505
ZBHH,2002-06-14 12:00,ZBHH 141200Z AUTO 36004KT 16SM 25/03 A2974 RMK SLP021 T02540027 52009 IEM_DS3505
ZBHH,2002-06-14 13:00,ZBHH 141300Z AUTO 36002KT 6SM 21/04 A2977 RMK T02100040 IEM_DS3505
ZBHH,2002-06-14 14:00,ZBHH 141400Z AUTO 09004KT 6SM 19/04 A2980 RMK T01900040 IEM_DS3505
ZBHH,2002-06-14 15:00,ZBHH 141500Z AUTO 00000KT 19SM 19/07 A2980 RMK SLP041 T01880073 52015 IEM_DS3505
ZBHH,2002-06-14 17:00,ZBHH 141700Z AUTO 13002KT 6SM 15/05 A2980 RMK T01500050 IEM_DS3505
ZBHH,2002-06-14 18:00,ZBHH 141800Z AUTO 09002KT 19SM 16/07 RMK SLP039 T01650070 52001 IEM_DS3505
ZBHH,2002-06-14 21:00,ZBHH 142100Z AUTO 00000KT 19SM 14/06 A2980 RMK SLP049 T01380061 52004 IEM_DS3505
ZBHH,2002-06-14 22:00,ZBHH 142200Z AUTO 06002KT 6SM 13/06 A2980 RMK T01300060 IEM_DS3505
ZBHH,2002-06-14 23:00,ZBHH 142300Z AUTO 07004KT 6SM 16/07 A2983 RMK T01600070 IEM_DS3505
ZBHH,2002-06-15 00:00,ZBHH 150000Z AUTO 11002KT 19SM 21/07 A2983 RMK SLP045 T02110069 52005 IEM_DS3505
ZBHH,2002-06-15 01:00,ZBHH 150100Z AUTO 08004KT 6SM 22/05 A2983 RMK T02200050 IEM_DS3505
ZBHH,2002-06-15 02:00,ZBHH 150200Z AUTO 11002KT 6SM 25/05 A2980 RMK T02500050 IEM_DS3505
ZBHH,2002-06-15 03:00,ZBHH 150300Z AUTO 00000KT 19SM 25/04 A2980 RMK SLP042 T02530041 57007 IEM_DS3505
ZBHH,2002-06-15 04:00,ZBHH 150400Z AUTO 23004KT 7SM 25/05 A2980 RMK T02500050 IEM_DS3505
ZBHH,2002-06-15 05:00,ZBHH 150500Z AUTO 18002KT 7SM 27/06 A2977 RMK T02700060 IEM_DS3505
ZBHH,2002-06-15 06:00,ZBHH 150600Z AUTO 22004KT 19SM 29/07 A2974 RMK SLP022 T02860070 57016 IEM_DS3505
ZBHH,2002-06-15 07:00,ZBHH 150700Z AUTO 23002KT 7SM 28/08 A2974 RMK T02800080 IEM_DS3505
ZBHH,2002-06-15 08:00,ZBHH 150800Z AUTO 07008KT 7SM 28/07 A2971 RMK T02800070 IEM_DS3505
ZBHH,2002-06-15 09:00,ZBHH 150900Z AUTO 11002KT 19SM 31/08 A2968 RMK SLP002 T03060078 57019 IEM_DS3505
ZBHH,2002-06-15 10:00,ZBHH 151000Z AUTO 05008KT 7SM 26/08 A2968 RMK T02600080 IEM_DS3505
ZBHH,2002-06-15 11:00,ZBHH 151100Z AUTO 02016KT 7SM 25/03 A2971 RMK T02500030 IEM_DS3505
ZBHH,2002-06-15 12:00,ZBHH 151200Z AUTO 07006G17KT 19SM 25/06 A2971 RMK 60003 SLP005 T02520060 52006 IEM_DS3505
ZBHH,2002-06-15 13:00,ZBHH 151300Z AUTO 10002KT 7SM 20/08 A2971 RMK T02000080 IEM_DS3505
ZBHH,2002-06-15 14:00,ZBHH 151400Z AUTO 11006KT 7SM 20/07 A2974 RMK T02000070 IEM_DS3505
ZBHH,2002-06-15 15:00,ZBHH 151500Z AUTO 04002KT 19SM 21/08 A2977 RMK SLP026 T02120080 52019 IEM_DS3505
ZBHH,2002-06-15 16:00,ZBHH 151600Z AUTO 05004KT 7SM 17/08 A2977 RMK T01700080 IEM_DS3505
ZBHH,2002-06-15 21:00,ZBHH 152100Z AUTO 00000KT 19SM 15/10 A2980 RMK 70003 SLP030 T01540098 57003 IEM_DS3505
ZBHH,2002-06-15 22:00,ZBHH 152200Z AUTO 09004KT 6SM 14/10 A2980 RMK T01400100 IEM_DS3505
ZBHH,2002-06-15 23:00,ZBHH 152300Z AUTO 07002KT 6SM 17/11 A2980 RMK T01700110 IEM_DS3505
ZBHH,2002-06-16 00:00,ZBHH 160000Z AUTO 07002KT 7SM 22/11 A2980 RMK 70003 SLP033 T02220109 52005 IEM_DS3505
ZBHH,2002-06-16 01:00,ZBHH 160100Z AUTO 19002KT 6SM 23/10 A2980 RMK T02300100 IEM_DS3505
ZBHH,2002-06-16 02:00,ZBHH 160200Z AUTO 22004KT 6SM 24/11 A2980 RMK T02400110 IEM_DS3505
ZBHH,2002-06-16 03:00,ZBHH 160300Z AUTO 20006KT 16SM 25/11 A2977 RMK SLP029 T02490113 57006 IEM_DS3505
ZBHH,2002-06-16 04:00,ZBHH 160400Z AUTO 25004KT 6SM 26/12 A2977 RMK T02600120 IEM_DS3505
ZBHH,2002-06-16 05:00,ZBHH 160500Z AUTO 22006KT 6SM 27/12 A2974 RMK T02700120 IEM_DS3505
ZBHH,2002-06-16 06:00,ZBHH 160600Z AUTO 20006KT 16SM 28/13 A2974 RMK SLP011 T02830128 57014 IEM_DS3505
ZBHH,2002-06-16 07:00,ZBHH 160700Z AUTO 23004KT 6SM 28/13 A2974 RMK T02800130 IEM_DS3505
ZBHH,2002-06-16 08:00,ZBHH 160800Z AUTO 22006KT 6SM 29/13 A2971 RMK T02900130 IEM_DS3505
ZBHH,2002-06-16 09:00,ZBHH 160900Z AUTO 16004KT 12SM 30/14 A2971 RMK SLP005 T02990138 57009 IEM_DS3505
ZBHH,2002-06-16 10:00,ZBHH 161000Z AUTO 08004KT 6SM 29/13 A2971 RMK T02900130 IEM_DS3505
ZBHH,2002-06-16 11:00,ZBHH 161100Z AUTO 06004KT 6SM 28/14 A2971 RMK T02800140 IEM_DS3505
ZBHH,2002-06-16 12:00,ZBHH 161200Z AUTO 07002KT 16SM 28/15 A2971 RMK SLP999 T02750148 52003 IEM_DS3505
ZBHH,2002-06-16 13:00,ZBHH 161300Z AUTO 01002KT 6SM 23/10 A2974 RMK T02300100 IEM_DS3505
ZBHH,2002-06-16 14:00,ZBHH 161400Z AUTO 08004KT 6SM 21/13 A2974 RMK T02100130 IEM_DS3505
ZBHH,2002-06-16 15:00,ZBHH 161500Z AUTO 07002KT 19SM 20/10 RMK SLP024 T02000102 52013 IEM_DS3505
ZBHH,2002-06-16 18:00,ZBHH 161800Z AUTO 04002KT 19SM 20/06 RMK SLP025 T01960062 52007 IEM_DS3505
ZBHH,2002-06-16 21:00,ZBHH 162100Z AUTO 00000KT 19SM 17/08 A2983 RMK SLP042 T01710080 52013 IEM_DS3505
ZBHH,2002-06-16 22:00,ZBHH 162200Z AUTO 09004KT 6SM 15/08 A2983 RMK T01500080 IEM_DS3505
ZBHH,2002-06-16 23:00,ZBHH 162300Z AUTO 08004KT 6SM 18/10 A2983 RMK T01800100 IEM_DS3505
ZBHH,2002-06-17 00:00,ZBHH 170000Z AUTO 14002KT 19SM 24/10 A2985 RMK SLP044 T02350096 52009 IEM_DS3505
ZBHH,2002-06-17 01:00,ZBHH 170100Z AUTO 07002KT 6SM 24/10 A2983 RMK T02400100 IEM_DS3505
ZBHH,2002-06-17 02:00,ZBHH 170200Z AUTO 18004KT 6SM 26/09 A2983 RMK T02600090 IEM_DS3505
ZBHH,2002-06-17 03:00,ZBHH 170300Z AUTO 22002KT 19SM 27/11 A2983 RMK SLP039 T02700107 57012 IEM_DS3505
ZBHH,2002-06-17 04:00,ZBHH 170400Z AUTO 19002KT 6SM 28/11 A2980 RMK T02800110 IEM_DS3505
ZBHH,2002-06-17 05:00,ZBHH 170500Z AUTO 25004KT 7SM 29/12 A2977 RMK T02900120 IEM_DS3505
ZBHH,2002-06-17 06:00,ZBHH 170600Z AUTO 22006KT 16SM 30/13 A2977 RMK SLP015 T03020134 57016 IEM_DS3505
ZBHH,2002-06-17 07:00,ZBHH 170700Z AUTO 22006KT 7SM 31/13 A2974 RMK T03100130 IEM_DS3505
ZBHH,2002-06-17 08:00,ZBHH 170800Z AUTO 22004KT 7SM 32/13 A2971 RMK T03200130 IEM_DS3505
ZBHH,2002-06-17 09:00,ZBHH 170900Z AUTO 22006KT 12SM 31/13 A2971 RMK SLP001 T03130128 57015 IEM_DS3505
ZBHH,2002-06-17 10:00,ZBHH 171000Z AUTO 23004KT 7SM 31/13 A2971 RMK T03100130 IEM_DS3505
ZBHH,2002-06-17 11:00,ZBHH 171100Z AUTO 21002KT 6SM 30/13 A2971 RMK T03000130 IEM_DS3505
ZBHH,2002-06-17 12:00,ZBHH 171200Z AUTO 22002KT 9SM 30/14 A2971 RMK SLP991 T02970137 54000 IEM_DS3505
ZBHH,2002-06-17 13:00,ZBHH 171300Z AUTO 01002KT 6SM 26/13 A2971 RMK T02600130 IEM_DS3505
ZBHH,2002-06-17 14:00,ZBHH 171400Z AUTO 00000KT 6SM 24/13 A2974 RMK T02400130 IEM_DS3505
ZBHH,2002-06-17 15:00,ZBHH 171500Z AUTO 00000KT 12SM 25/14 A2974 RMK SLP004 T02500145 52009 IEM_DS3505
ZBHH,2002-06-17 16:00,ZBHH 171600Z AUTO 06002KT 6SM 21/13 A2974 RMK T02100130 IEM_DS3505
ZBHH,2002-06-17 18:00,ZBHH 171800Z AUTO 00000KT 12SM 23/14 RMK SLP003 T02260144 52001 IEM_DS3505
ZBHH,2002-06-17 21:00,ZBHH 172100Z AUTO 00000KT 9SM 21/13 A2974 RMK SLP010 T02110130 52005 IEM_DS3505
ZBHH,2002-06-17 22:00,ZBHH 172200Z AUTO 04002KT 6SM 19/13 A2974 RMK T01900130 IEM_DS3505
ZBHH,2002-06-17 23:00,ZBHH 172300Z AUTO 01004KT 3SM 20/13 A2974 RMK T02000130 IEM_DS3505
ZBHH,2002-06-18 00:00,ZBHH 180000Z AUTO 09002KT 6SM 24/13 A2974 RMK SLP002 T02370129 57005 IEM_DS3505
ZBHH,2002-06-18 01:00,ZBHH 180100Z AUTO 10002KT 6SM 25/13 A2974 RMK T02500130 IEM_DS3505
ZBHH,2002-06-18 02:00,ZBHH 180200Z AUTO 20006KT 6SM 26/12 A2974 RMK T02600120 IEM_DS3505
ZBHH,2002-06-18 03:00,ZBHH 180300Z AUTO 20008KT 12SM 26/12 A2971 RMK SLP000 T02620123 57006 IEM_DS3505
ZBHH,2002-06-18 04:00,ZBHH 180400Z AUTO 21006KT 6SM 26/12 A2971 RMK T02600120 IEM_DS3505
ZBHH,2002-06-18 05:00,ZBHH 180500Z AUTO 23004KT 6SM 26/13 A2968 RMK T02600130 IEM_DS3505
ZBHH,2002-06-18 06:00,ZBHH 180600Z AUTO 22016KT 5SM 27/12 A2968 RMK SLP995 T02680124 57007 IEM_DS3505
ZBHH,2002-06-18 07:00,ZBHH 180700Z AUTO 24010KT 4SM A2974 RMK IEM_DS3505
ZBHH,2002-06-18 08:00,ZBHH 180800Z AUTO 12004KT 7SM 19/13 A2974 RMK T01900130 IEM_DS3505
ZBHH,2002-06-18 09:00,ZBHH 180900Z AUTO 04004KT 12SM 20/15 A2974 RMK SLP024 T02000148 52010 IEM_DS3505
ZBHH,2002-06-18 10:00,ZBHH 181000Z AUTO 05004KT 7SM 19/15 A2971 RMK T01900150 IEM_DS3505
ZBHH,2002-06-18 12:00,ZBHH 181200Z AUTO 00000KT 12SM 20/12 RMK 60003 SLP009 T02050125 57007 IEM_DS3505
ZBHH,2002-06-18 13:00,ZBHH 181300Z AUTO 00000KT 4SM 18/15 A2974 RMK T01800150 IEM_DS3505
ZBHH,2002-06-18 15:00,ZBHH 181500Z AUTO 00000KT 12SM 19/14 RMK SLP017 T01860135 52008 IEM_DS3505
ZBHH,2002-06-19 00:00,ZBHH 190000Z AUTO 00000KT 16SM 22/13 A2977 RMK 70003 SLP037 T02180129 52012 IEM_DS3505
ZBHH,2002-06-19 01:00,ZBHH 190100Z AUTO 16002KT 6SM 22/13 A2977 RMK T02200130 IEM_DS3505
ZBHH,2002-06-19 02:00,ZBHH 190200Z AUTO 10004KT 6SM 24/12 A2977 RMK T02400120 IEM_DS3505
ZBHH,2002-06-19 03:00,ZBHH 190300Z AUTO 00000KT 19SM 25/12 A2974 RMK SLP024 T02520122 57009 IEM_DS3505
ZBHH,2002-06-19 04:00,ZBHH 190400Z AUTO 27004KT 6SM 26/10 A2974 RMK T02600100 IEM_DS3505
ZBHH,2002-06-19 05:00,ZBHH 190500Z AUTO 05006KT 6SM 27/06 A2971 RMK T02700060 IEM_DS3505
ZBHH,2002-06-19 06:00,ZBHH 190600Z AUTO 02006KT 19SM 28/05 A2971 RMK SLP010 T02800048 57011 IEM_DS3505
ZBHH,2002-06-19 07:00,ZBHH 190700Z AUTO 05004KT 6SM 28/02 A2971 RMK T02800020 IEM_DS3505
ZBHH,2002-06-19 08:00,ZBHH 190800Z AUTO 09006KT 6SM 28/02 A2968 RMK T02800020 IEM_DS3505
ZBHH,2002-06-19 09:00,ZBHH 190900Z AUTO 02006KT 19SM 29/02 A2968 RMK SLP002 T02940024 57007 IEM_DS3505
ZBHH,2002-06-19 10:00,ZBHH 191000Z AUTO 09004KT 6SM 28/03 A2971 RMK T02800030 IEM_DS3505
ZBHH,2002-06-19 11:00,ZBHH 191100Z AUTO 07006KT 6SM 26/05 A2971 RMK T02600050 IEM_DS3505
ZBHH,2002-06-19 12:00,ZBHH 191200Z AUTO 02006KT 19SM 26/04 A2974 RMK SLP014 T02570045 52016 IEM_DS3505
ZBHH,2002-06-19 13:00,ZBHH 191300Z AUTO 02008KT 6SM 24/05 A2977 RMK T02400050 IEM_DS3505
ZBHH,2002-06-19 14:00,ZBHH 191400Z AUTO 04006KT 6SM 22/04 A2977 RMK T02200040 IEM_DS3505
ZBHH,2002-06-19 15:00,ZBHH 191500Z AUTO 07004KT 19SM 22/05 A2980 RMK SLP034 T02220049 52018 IEM_DS3505
ZBHH,2002-06-20 00:00,ZBHH 200000Z AUTO 06010KT 6SM 19/08 A2985 RMK T01900080 IEM_DS3505
ZBHH,2002-06-20 01:00,ZBHH 200100Z AUTO 08012KT 6SM 21/07 A2983 RMK T02100070 IEM_DS3505
ZBHH,2002-06-20 02:00,ZBHH 200200Z AUTO 09008KT 6SM 23/07 A2980 RMK T02300070 IEM_DS3505
ZBHH,2002-06-20 03:00,ZBHH 200300Z AUTO 11006KT 19SM 25/07 A2980 RMK SLP030 T02520070 57018 IEM_DS3505
ZBHH,2002-06-20 06:00,ZBHH 200600Z AUTO 04006KT 19SM 28/08 RMK SLP016 T02800082 57012 IEM_DS3505
ZBHH,2002-06-20 07:00,ZBHH 200700Z AUTO 21004KT 6SM 29/06 A2971 RMK T02900060 IEM_DS3505
ZBHH,2002-06-20 08:00,ZBHH 200800Z AUTO 21004KT 6SM 29/06 A2971 RMK T02900060 IEM_DS3505
ZBHH,2002-06-20 09:00,ZBHH 200900Z AUTO 22008KT 19SM 29/07 A2968 RMK SLP998 T02920073 57018 IEM_DS3505
ZBHH,2002-06-20 10:00,ZBHH 201000Z AUTO 23004KT 6SM 29/08 A2968 RMK T02900080 IEM_DS3505
ZBHH,2002-06-20 11:00,ZBHH 201100Z AUTO 24002KT 6SM 27/09 A2968 RMK T02700090 IEM_DS3505
ZBHH,2002-06-20 12:00,ZBHH 201200Z AUTO 22008KT 16SM 27/12 A2971 RMK SLP002 T02720119 52005 IEM_DS3505
ZBHH,2002-06-20 13:00,ZBHH 201300Z AUTO 18004KT 6SM 25/12 A2971 RMK T02500120 IEM_DS3505
ZBHH,2002-06-20 14:00,ZBHH 201400Z AUTO 21006KT 23/15 A2974 RMK T02300150 IEM_DS3505
ZBHH,2002-06-20 15:00,ZBHH 201500Z AUTO 22006KT 12SM 24/15 A2974 RMK SLP010 T02400146 52011 IEM_DS3505
ZBHH,2002-06-20 16:00,ZBHH 201600Z AUTO 18002KT 22/15 A2974 RMK T02200150 IEM_DS3505
ZBHH,2002-06-20 17:00,ZBHH 201700Z AUTO 09004KT 4SM 20/15 A2974 RMK T02000150 IEM_DS3505
ZBHH,2002-06-20 18:00,ZBHH 201800Z AUTO 07004KT 12SM 22/16 A2974 RMK SLP002 T02180156 57006 IEM_DS3505
ZBHH,2002-06-20 19:00,ZBHH 201900Z AUTO 05002KT 4SM 19/14 A2974 RMK T01900140 IEM_DS3505
ZBHH,2002-06-20 20:00,ZBHH 202000Z AUTO 07004KT 4SM 19/15 A2974 RMK T01900150 IEM_DS3505
ZBHH,2002-06-20 21:00,ZBHH 202100Z AUTO 09004KT 9SM 21/16 A2971 RMK SLP004 T02140155 52003 IEM_DS3505
ZBHH,2002-06-20 22:00,ZBHH 202200Z AUTO 08004KT 3SM 20/15 A2974 RMK T02000150 IEM_DS3505
ZBHH,2002-06-20 23:00,ZBHH 202300Z AUTO 22006KT 1SM 18/16 A2974 RMK T01800160 IEM_DS3505
ZBHH,2002-06-21 00:00,ZBHH 210000Z AUTO 00000KT 1SM 18/17 A2977 RMK T01800170 IEM_DS3505
ZBHH,2002-06-21 01:00,ZBHH 210100Z AUTO 00000KT 1SM 18/17 A2977 RMK T01800170 IEM_DS3505
ZBHH,2002-06-21 02:00,ZBHH 210200Z AUTO 08002KT 1SM 18/17 A2974 RMK T01800170 IEM_DS3505
ZBHH,2002-06-21 03:00,ZBHH 210300Z AUTO 07006KT 1SM 18/17 A2974 RMK T01800170 IEM_DS3505
ZBHH,2002-06-21 04:00,ZBHH 210400Z AUTO 11004KT 1SM 18/17 A2971 RMK T01800170 IEM_DS3505
ZBHH,2002-06-21 05:00,ZBHH 210500Z AUTO 11004KT 1SM 18/17 A2971 RMK T01800170 IEM_DS3505
ZBHH,2002-06-21 06:00,ZBHH 210600Z AUTO 07004KT 3SM 18/18 A2971 RMK 60154 SLP017 T01800177 57005 IEM_DS3505
ZBHH,2002-06-21 09:00,ZBHH 210900Z AUTO 07004KT 4SM 18/18 RMK SLP007 T01820176 57009 IEM_DS3505
ZBHH,2002-06-21 13:00,ZBHH 211300Z AUTO 14010KT 1SM 17/16 A2968 RMK T01700160 IEM_DS3505
ZBHH,2002-06-21 14:00,ZBHH 211400Z AUTO 15006KT 2SM 17/16 A2968 RMK T01700160 IEM_DS3505
ZBHH,2002-06-21 15:00,ZBHH 211500Z AUTO 20006KT 4SM 18/17 A2968 RMK SLP025 T01750166 52009 IEM_DS3505
ZBHH,2002-06-21 16:00,ZBHH 211600Z AUTO 00000KT 1 1/4SM 17/16 A2971 RMK T01700160 IEM_DS3505
ZBHH,2002-06-21 17:00,ZBHH 211700Z AUTO 23008KT 1 1/4SM 17/16 A2971 RMK T01700160 IEM_DS3505
ZBHH,2002-06-21 18:00,ZBHH 211800Z AUTO 20006KT 7SM 17/15 A2971 RMK 60028 SLP032 T01730154 52005 IEM_DS3505
ZBHH,2002-06-21 19:00,ZBHH 211900Z AUTO 23004KT 1 1/4SM 17/15 A2974 RMK T01700150 IEM_DS3505
ZBHH,2002-06-21 20:00,ZBHH 212000Z AUTO 24006KT 3SM 17/15 A2974 RMK T01700150 IEM_DS3505
ZBHH,2002-06-21 21:00,ZBHH 212100Z AUTO 20004KT 7SM 17/15 A2974 RMK 70339 SLP042 T01670154 52008 IEM_DS3505
ZBHH,2002-06-21 22:00,ZBHH 212200Z AUTO 22002KT 3SM 16/15 A2974 RMK T01600150 IEM_DS3505
ZBHH,2002-06-21 23:00,ZBHH 212300Z AUTO 20002KT 2 1/2SM 16/15 A2977 RMK T01600150 IEM_DS3505
ZBHH,2002-06-22 00:00,ZBHH 220000Z AUTO 20004KT 7SM 16/16 A2980 RMK 60004 SLP057 T01640156 52012 IEM_DS3505
ZBHH,2002-06-22 01:00,ZBHH 220100Z AUTO 21002KT 1 1/4SM 16/15 A2980 RMK T01600150 IEM_DS3505
ZBHH,2002-06-22 02:00,ZBHH 220200Z AUTO 21002KT 2 1/2SM 16/16 A2980 RMK T01600160 IEM_DS3505
ZBHH,2002-06-22 03:00,ZBHH 220300Z AUTO 18002KT 6SM 18/17 A2980 RMK SLP063 T01830166 52008 IEM_DS3505
ZBHH,2002-06-22 04:00,ZBHH 220400Z AUTO 00000KT 4SM 20/16 A2980 RMK T02000160 IEM_DS3505
ZBHH,2002-06-22 05:00,ZBHH 220500Z AUTO 16002KT 6SM 20/16 A2980 RMK T02000160 IEM_DS3505
ZBHH,2002-06-22 06:00,ZBHH 220600Z AUTO 20002KT 9SM 20/16 A2980 RMK 60003 SLP058 T01980163 57002 IEM_DS3505
ZBHH,2002-06-22 07:00,ZBHH 220700Z AUTO 33004KT 7SM 20/14 A2980 RMK T02000140 IEM_DS3505
ZBHH,2002-06-22 08:00,ZBHH 220800Z AUTO 32004KT 7SM 21/14 A2980 RMK T02100140 IEM_DS3505
ZBHH,2002-06-22 09:00,ZBHH 220900Z AUTO 32002KT 19SM 21/14 A2980 RMK SLP053 T02070135 57004 IEM_DS3505
ZBHH,2002-06-22 10:00,ZBHH 221000Z AUTO 35004KT 7SM 21/14 A2980 RMK T02100140 IEM_DS3505
ZBHH,2002-06-22 11:00,ZBHH 221100Z AUTO 35004KT 7SM 20/14 A2980 RMK T02000140 IEM_DS3505
ZBHH,2002-06-22 12:00,ZBHH 221200Z AUTO 00000KT 12SM 20/15 A2980 RMK SLP055 T01980148 54000 IEM_DS3505
ZBHH,2002-06-22 13:00,ZBHH 221300Z AUTO 06002KT 7SM 19/16 A2980 RMK T01900160 IEM_DS3505
ZBHH,2002-06-22 14:00,ZBHH 221400Z AUTO 36004KT 7SM 18/15 A2983 RMK T01800150 IEM_DS3505
ZBHH,2002-06-22 15:00,ZBHH 221500Z AUTO 00000KT 19SM 18/14 A2983 RMK SLP065 T01820144 52009 IEM_DS3505
ZBHH,2002-06-22 18:00,ZBHH 221800Z AUTO 00000KT 16SM 17/14 RMK SLP058 T01740139 57005 IEM_DS3505
ZBHH,2002-06-22 21:00,ZBHH 222100Z AUTO 00000KT 19SM 17/14 A2977 RMK 70007 SLP051 T01700145 57005 IEM_DS3505
ZBHH,2002-06-22 22:00,ZBHH 222200Z AUTO 00000KT 6SM 16/15 A2980 RMK T01600150 IEM_DS3505
ZBHH,2002-06-22 23:00,ZBHH 222300Z AUTO 00000KT 6SM 17/14 A2980 RMK T01700140 IEM_DS3505
ZBHH,2002-06-23 00:00,ZBHH 230000Z AUTO 00000KT 16SM 19/14 A2980 RMK 70003 SLP054 T01870145 52004 IEM_DS3505
ZBHH,2002-06-23 01:00,ZBHH 230100Z AUTO 00000KT 7SM 20/15 A2980 RMK T02000150 IEM_DS3505
ZBHH,2002-06-23 02:00,ZBHH 230200Z AUTO 28002KT 7SM 20/15 A2983 RMK T02000150 IEM_DS3505
ZBHH,2002-06-23 03:00,ZBHH 230300Z AUTO 00000KT 6SM 22/15 A2980 RMK SLP048 T02240149 57001 IEM_DS3505
ZBHH,2002-06-23 04:00,ZBHH 230400Z AUTO 7SM 22/14 A2980 RMK T02200140 IEM_DS3505
ZBHH,2002-06-23 05:00,ZBHH 230500Z AUTO 21004KT 7SM 24/15 A2977 RMK T02400150 IEM_DS3505
ZBHH,2002-06-23 06:00,ZBHH 230600Z AUTO 18008KT 9SM 25/16 A2977 RMK SLP034 T02480159 57010 IEM_DS3505
ZBHH,2002-06-23 07:00,ZBHH 230700Z AUTO 20006KT 7SM 25/16 A2977 RMK T02500160 IEM_DS3505
ZBHH,2002-06-23 08:00,ZBHH 230800Z AUTO 21004KT 7SM 24/16 A2974 RMK T02400160 IEM_DS3505
ZBHH,2002-06-23 09:00,ZBHH 230900Z AUTO 18010KT 19SM 25/16 A2974 RMK SLP026 T02500165 57007 IEM_DS3505
ZBHH,2002-06-23 10:00,ZBHH 231000Z AUTO 22004KT 7SM 23/16 A2971 RMK T02300160 IEM_DS3505
ZBHH,2002-06-23 11:00,ZBHH 231100Z AUTO 20002KT 7SM 22/17 A2974 RMK T02200170 IEM_DS3505
ZBHH,2002-06-23 12:00,ZBHH 231200Z AUTO 25004KT 19SM 22/14 A2974 RMK 60003 SLP032 T02180138 52002 IEM_DS3505
ZBHH,2002-06-23 13:00,ZBHH 231300Z AUTO 20004KT 7SM 19/15 A2977 RMK T01900150 IEM_DS3505
ZBHH,2002-06-23 14:00,ZBHH 231400Z AUTO 07004KT 5SM 18/15 A2977 RMK T01800150 IEM_DS3505
ZBHH,2002-06-23 15:00,ZBHH 231500Z AUTO 11002KT 12SM 18/14 A2977 RMK SLP042 T01840143 52010 IEM_DS3505
ZBHH,2002-06-23 16:00,ZBHH 231600Z AUTO 35002KT 4SM 17/15 A2977 RMK T01700150 IEM_DS3505
ZBHH,2002-06-23 17:00,ZBHH 231700Z AUTO 35004KT 7SM 16/13 A2977 RMK T01600130 IEM_DS3505
ZBHH,2002-06-23 18:00,ZBHH 231800Z AUTO 16006KT 12SM 20/08 A2974 RMK 60003 SLP027 T02020085 57006 IEM_DS3505
ZBHH,2002-06-23 19:00,ZBHH 231900Z AUTO 08002KT 7SM 16/12 A2977 RMK T01600120 IEM_DS3505
ZBHH,2002-06-23 20:00,ZBHH 232000Z AUTO 08006KT 7SM 16/12 A2977 RMK T01600120 IEM_DS3505
ZBHH,2002-06-23 21:00,ZBHH 232100Z AUTO 27002KT 12SM 17/12 A2983 RMK 70008 SLP046 T01660119 52011 IEM_DS3505
ZBHH,2002-06-23 22:00,ZBHH 232200Z AUTO 18006KT 7SM 15/11 A2974 RMK T01500110 IEM_DS3505
ZBHH,2002-06-23 23:00,ZBHH 232300Z AUTO 27006KT 7SM 15/12 A2977 RMK T01500120 IEM_DS3505
ZBHH,2002-06-24 00:00,ZBHH 240000Z AUTO 27006KT 19SM 18/12 A2977 RMK 60012 SLP045 T01760119 57005 IEM_DS3505
ZBHH,2002-06-24 01:00,ZBHH 240100Z AUTO 23004KT 7SM 19/12 A2977 RMK T01900120 IEM_DS3505
ZBHH,2002-06-24 02:00,ZBHH 240200Z AUTO 25004KT 7SM 20/13 A2980 RMK T02000130 IEM_DS3505
ZBHH,2002-06-24 03:00,ZBHH 240300Z AUTO 20006KT 19SM 22/12 A2977 RMK SLP040 T02150115 57004 IEM_DS3505
ZBHH,2002-06-24 04:00,ZBHH 240400Z AUTO 26002KT 7SM 22/14 A2974 RMK T02200140 IEM_DS3505
ZBHH,2002-06-24 05:00,ZBHH 240500Z AUTO 23002KT 7SM 22/15 A2974 RMK T02200150 IEM_DS3505
ZBHH,2002-06-24 06:00,ZBHH 240600Z AUTO 20004KT 12SM 23/15 A2971 RMK SLP012 T02340150 57018 IEM_DS3505
ZBHH,2002-06-24 07:00,ZBHH 240700Z AUTO 04010KT 7SM 22/15 A2971 RMK T02200150 IEM_DS3505
ZBHH,2002-06-24 08:00,ZBHH 240800Z AUTO 03008KT 7SM 19/13 A2971 RMK T01900130 IEM_DS3505
ZBHH,2002-06-24 09:00,ZBHH 240900Z AUTO 00000KT 12SM 18/13 A2968 RMK SLP022 T01750130 57008 IEM_DS3505
ZBHH,2002-06-24 10:00,ZBHH 241000Z AUTO 05002KT 7SM 18/13 A2971 RMK T01800130 IEM_DS3505
ZBHH,2002-06-24 11:00,ZBHH 241100Z AUTO 30004KT 7SM 18/13 A2971 RMK T01800130 IEM_DS3505
ZBHH,2002-06-24 12:00,ZBHH 241200Z AUTO 00000KT 19SM 18/14 A2974 RMK 60024 SLP034 T01770135 52012 IEM_DS3505
ZBHH,2002-06-24 13:00,ZBHH 241300Z AUTO 00000KT 7SM 17/12 A2974 RMK T01700120 IEM_DS3505
ZBHH,2002-06-24 14:00,ZBHH 241400Z AUTO 10002KT 7SM 16/13 A2977 RMK T01600130 IEM_DS3505
ZBHH,2002-06-24 15:00,ZBHH 241500Z AUTO 00000KT 12SM 16/13 A2977 RMK SLP044 T01650133 52014 IEM_DS3505
ZBHH,2002-06-24 16:00,ZBHH 241600Z AUTO 35002KT 6SM 15/13 A2980 RMK T01500130 IEM_DS3505
ZBHH,2002-06-24 17:00,ZBHH 241700Z AUTO 10002KT 7SM 14/13 A2977 RMK T01400130 IEM_DS3505
ZBHH,2002-06-24 18:00,ZBHH 241800Z AUTO 00000KT 19SM 15/13 A2977 RMK 60003 SLP046 T01520126 52003 IEM_DS3505
ZBHH,2002-06-24 19:00,ZBHH 241900Z AUTO 21002KT 6SM 13/12 A2977 RMK T01300120 IEM_DS3505
ZBHH,2002-06-24 20:00,ZBHH 242000Z AUTO 06004KT 7SM 13/12 A2980 RMK T01300120 IEM_DS3505
ZBHH,2002-06-24 21:00,ZBHH 242100Z AUTO 00000KT 19SM 15/13 A2980 RMK 70030 SLP063 T01480126 52003 IEM_DS3505
ZBHH,2002-06-24 22:00,ZBHH 242200Z AUTO 06002KT 6SM 13/12 A2983 RMK T01300120 IEM_DS3505
ZBHH,2002-06-24 23:00,ZBHH 242300Z AUTO 02002KT 7SM 14/12 A2983 RMK T01400120 IEM_DS3505
ZBHH,2002-06-25 00:00,ZBHH 250000Z AUTO 00000KT 16SM 16/13 A2983 RMK 70024 SLP086 T01640128 52024 IEM_DS3505
ZBHH,2002-06-25 01:00,ZBHH 250100Z AUTO 10002KT 6SM 18/13 A2985 RMK T01800130 IEM_DS3505
ZBHH,2002-06-25 02:00,ZBHH 250200Z AUTO 13002KT 7SM 20/13 A2985 RMK T02000130 IEM_DS3505
ZBHH,2002-06-25 03:00,ZBHH 250300Z AUTO 14004KT 12SM 22/13 A2985 RMK SLP068 T02180132 57008 IEM_DS3505
ZBHH,2002-06-25 04:00,ZBHH 250400Z AUTO 23002KT 7SM 23/13 A2983 RMK T02300130 IEM_DS3505
ZBHH,2002-06-25 05:00,ZBHH 250500Z AUTO 05008KT 7SM 18/14 A2985 RMK T01800140 IEM_DS3505
ZBHH,2002-06-25 06:00,ZBHH 250600Z AUTO 20004KT 9SM 22/15 A2983 RMK 60003 SLP064 T02180147 57006 IEM_DS3505
ZBHH,2002-06-25 07:00,ZBHH 250700Z AUTO 00000KT 7SM 21/15 A2983 RMK T02100150 IEM_DS3505
ZBHH,2002-06-25 08:00,ZBHH 250800Z AUTO 21004KT 7SM 23/16 A2983 RMK T02300160 IEM_DS3505
ZBHH,2002-06-25 09:00,ZBHH 250900Z AUTO 18004KT 12SM 23/15 A2983 RMK SLP059 T02320149 57002 IEM_DS3505
ZBHH,2002-06-25 10:00,ZBHH 251000Z AUTO 13002KT 7SM 23/14 A2983 RMK T02300140 IEM_DS3505
ZBHH,2002-06-25 11:00,ZBHH 251100Z AUTO 09008KT 7SM 20/14 A2985 RMK T02000140 IEM_DS3505
ZBHH,2002-06-25 12:00,ZBHH 251200Z AUTO 07006KT 12SM 21/14 A2988 RMK SLP079 T02090141 52016 IEM_DS3505
ZBHH,2002-06-25 13:00,ZBHH 251300Z AUTO 06006KT 7SM 18/14 A2988 RMK T01800140 IEM_DS3505
ZBHH,2002-06-25 14:00,ZBHH 251400Z AUTO 12002KT 6SM 17/14 A2988 RMK T01700140 IEM_DS3505
ZBHH,2002-06-25 15:00,ZBHH 251500Z AUTO 00000KT 19SM 18/14 RMK SLP086 T01820139 52011 IEM_DS3505
ZBHH,2002-06-25 18:00,ZBHH 251800Z AUTO 00000KT 19SM 16/14 RMK SLP086 T01550136 57005 IEM_DS3505
ZBHH,2002-06-25 21:00,ZBHH 252100Z AUTO 00000KT 19SM 15/12 A2988 RMK 70003 SLP090 T01490123 52005 IEM_DS3505
ZBHH,2002-06-25 22:00,ZBHH 252200Z AUTO 10004KT 6SM 14/12 A2988 RMK T01400120 IEM_DS3505
ZBHH,2002-06-25 23:00,ZBHH 252300Z AUTO 08004KT 6SM 16/13 A2991 RMK T01600130 IEM_DS3505
ZBHH,2002-06-26 00:00,ZBHH 260000Z AUTO 07002KT 19SM 20/13 A2991 RMK 70003 SLP087 T01980131 52002 IEM_DS3505
ZBHH,2002-06-26 01:00,ZBHH 260100Z AUTO 09004KT 6SM 20/14 A2991 RMK T02000140 IEM_DS3505
ZBHH,2002-06-26 02:00,ZBHH 260200Z AUTO 12002KT 6SM 22/15 A2988 RMK T02200150 IEM_DS3505
ZBHH,2002-06-26 03:00,ZBHH 260300Z AUTO 16004KT 12SM 23/14 A2988 RMK SLP079 T02300143 57006 IEM_DS3505
ZBHH,2002-06-26 04:00,ZBHH 260400Z AUTO 24004KT 7SM 24/16 A2988 RMK T02400160 IEM_DS3505
ZBHH,2002-06-26 05:00,ZBHH 260500Z AUTO 22006KT 7SM 25/16 A2985 RMK T02500160 IEM_DS3505
ZBHH,2002-06-26 06:00,ZBHH 260600Z AUTO 16006KT 19SM 25/14 A2985 RMK SLP064 T02520142 57014 IEM_DS3505
ZBHH,2002-06-26 07:00,ZBHH 260700Z AUTO 22006KT 7SM 26/13 A2983 RMK T02600130 IEM_DS3505
ZBHH,2002-06-26 08:00,ZBHH 260800Z AUTO 22006KT 7SM 26/13 A2983 RMK T02600130 IEM_DS3505
ZBHH,2002-06-26 09:00,ZBHH 260900Z AUTO 20004KT 19SM 25/14 A2980 RMK SLP054 T02540142 57010 IEM_DS3505
ZBHH,2002-06-26 10:00,ZBHH 261000Z AUTO 23008KT 7SM 25/14 A2980 RMK T02500140 IEM_DS3505
ZBHH,2002-06-26 11:00,ZBHH 261100Z AUTO 22004KT 7SM 25/15 A2980 RMK T02500150 IEM_DS3505
ZBHH,2002-06-26 12:00,ZBHH 261200Z AUTO 20004KT 16SM 24/15 A2983 RMK SLP049 T02440154 52003 IEM_DS3505
ZBHH,2002-06-26 13:00,ZBHH 261300Z AUTO 16002KT 6SM 22/17 A2983 RMK T02200170 IEM_DS3505
ZBHH,2002-06-26 14:00,ZBHH 261400Z AUTO 12006KT 6SM 21/14 A2988 RMK T02100140 IEM_DS3505
ZBHH,2002-06-26 15:00,ZBHH 261500Z AUTO 04006KT 19SM 21/14 A2988 RMK SLP070 T02090139 52018 IEM_DS3505
ZBHH,2002-06-26 18:00,ZBHH 261800Z AUTO 00000KT 19SM 18/14 RMK SLP068 T01770144 57003 IEM_DS3505
ZBHH,2002-06-26 21:00,ZBHH 262100Z AUTO 07004KT 12SM 18/14 A2988 RMK SLP069 T01790141 52001 IEM_DS3505
ZBHH,2002-06-26 22:00,ZBHH 262200Z AUTO 31002KT 7SM 17/14 A2988 RMK T01700140 IEM_DS3505
ZBHH,2002-06-26 23:00,ZBHH 262300Z AUTO 00000KT 4SM 16/15 A2988 RMK T01600150 IEM_DS3505
ZBHH,2002-06-27 00:00,ZBHH 270000Z AUTO 00000KT 6SM 17/16 A2988 RMK 60035 SLP077 T01730155 52004 IEM_DS3505
ZBHH,2002-06-27 01:00,ZBHH 270100Z AUTO 19002KT 3SM 17/16 A2991 RMK T01700160 IEM_DS3505
ZBHH,2002-06-27 02:00,ZBHH 270200Z AUTO 26004KT 4SM 18/15 A2991 RMK T01800150 IEM_DS3505
ZBHH,2002-06-27 03:00,ZBHH 270300Z AUTO 20004KT 9SM 18/16 A2991 RMK SLP090 T01810159 52007 IEM_DS3505
ZBHH,2002-06-27 04:00,ZBHH 270400Z AUTO 25002KT 4SM 18/15 A2991 RMK T01800150 IEM_DS3505
ZBHH,2002-06-27 05:00,ZBHH 270500Z AUTO 22004KT 7SM 19/15 A2988 RMK T01900150 IEM_DS3505
ZBHH,2002-06-27 06:00,ZBHH 270600Z AUTO 18006KT 7SM 21/14 A2985 RMK 60012 SLP078 T02070145 57012 IEM_DS3505
ZBHH,2002-06-27 07:00,ZBHH 270700Z AUTO 17004KT 7SM 20/15 A2985 RMK T02000150 IEM_DS3505
ZBHH,2002-06-27 08:00,ZBHH 270800Z AUTO 14004KT 7SM 21/15 A2983 RMK T02100150 IEM_DS3505
ZBHH,2002-06-27 09:00,ZBHH 270900Z AUTO 25002KT 16SM 23/16 A2983 RMK SLP056 T02290164 57015 IEM_DS3505
ZBHH,2002-06-27 10:00,ZBHH 271000Z AUTO 09002KT 6SM 21/16 A2983 RMK T02100160 IEM_DS3505
ZBHH,2002-06-27 11:00,ZBHH 271100Z AUTO 01006KT 7SM 19/12 A2985 RMK T01900120 IEM_DS3505
ZBHH,2002-06-27 12:00,ZBHH 271200Z AUTO 20010KT 6SM 21/10 RMK SLP056 T02110101 57004 IEM_DS3505
ZBHH,2002-06-27 13:00,ZBHH 271300Z AUTO 16006KT 7SM 19/12 A2985 RMK T01900120 IEM_DS3505
ZBHH,2002-06-27 14:00,ZBHH 271400Z AUTO 07002KT 7SM 17/13 A2985 RMK T01700130 IEM_DS3505
ZBHH,2002-06-27 15:00,ZBHH 271500Z AUTO 00000KT 12SM 18/13 A2983 RMK SLP073 T01790134 52010 IEM_DS3505
ZBHH,2002-06-27 16:00,ZBHH 271600Z AUTO 20004KT 7SM 15/13 A2985 RMK T01500130 IEM_DS3505
ZBHH,2002-06-27 17:00,ZBHH 271700Z AUTO 02002KT 7SM 16/13 A2985 RMK T01600130 IEM_DS3505
ZBHH,2002-06-27 18:00,ZBHH 271800Z AUTO 00000KT 16SM 17/14 A2985 RMK 60003 SLP072 T01670139 52002 IEM_DS3505
ZBHH,2002-06-27 19:00,ZBHH 271900Z AUTO 09004KT 7SM 15/13 A2983 RMK T01500130 IEM_DS3505
ZBHH,2002-06-27 20:00,ZBHH 272000Z AUTO 07004KT 7SM 14/13 A2983 RMK T01400130 IEM_DS3505
ZBHH,2002-06-27 21:00,ZBHH 272100Z AUTO 02002KT 12SM 15/14 A2983 RMK 70048 SLP066 T01520135 57004 IEM_DS3505
ZBHH,2002-06-27 22:00,ZBHH 272200Z AUTO 00000KT 5SM 15/14 A2985 RMK T01500140 IEM_DS3505
ZBHH,2002-06-27 23:00,ZBHH 272300Z AUTO 08002KT 7SM 17/14 A2985 RMK T01700140 IEM_DS3505
ZBHH,2002-06-28 00:00,ZBHH 280000Z AUTO 00000KT 16SM 18/13 A2983 RMK 70012 SLP068 T01760134 52003 IEM_DS3505
ZBHH,2002-06-28 01:00,ZBHH 280100Z AUTO 18002KT 7SM 21/14 A2983 RMK T02100140 IEM_DS3505
ZBHH,2002-06-28 02:00,ZBHH 280200Z AUTO 00000KT 7SM 22/14 A2983 RMK T02200140 IEM_DS3505
ZBHH,2002-06-28 03:00,ZBHH 280300Z AUTO 07002KT 9SM 21/15 A2983 RMK SLP056 T02130149 57010 IEM_DS3505
ZBHH,2002-06-28 04:00,ZBHH 280400Z AUTO 16002KT 7SM 22/14 A2980 RMK T02200140 IEM_DS3505
ZBHH,2002-06-28 05:00,ZBHH 280500Z AUTO 23004KT 7SM 24/15 A2980 RMK T02400150 IEM_DS3505
ZBHH,2002-06-28 06:00,ZBHH 280600Z AUTO 20004KT 7SM 25/15 A2977 RMK SLP039 T02480154 57011 IEM_DS3505
ZBHH,2002-06-28 07:00,ZBHH 280700Z AUTO 20004KT 7SM 25/17 A2977 RMK T02500170 IEM_DS3505
ZBHH,2002-06-28 08:00,ZBHH 280800Z AUTO 24004KT 7SM 26/18 A2974 RMK T02600180 IEM_DS3505
ZBHH,2002-06-28 09:00,ZBHH 280900Z AUTO 18002KT 12SM 25/17 A2971 RMK SLP021 T02510173 57018 IEM_DS3505
ZBHH,2002-06-28 10:00,ZBHH 281000Z AUTO 09006KT 7SM 24/18 A2971 RMK T02400180 IEM_DS3505
ZBHH,2002-06-28 11:00,ZBHH 281100Z AUTO 04008KT 5SM 23/18 A2974 RMK T02300180 IEM_DS3505
ZBHH,2002-06-28 12:00,ZBHH 281200Z AUTO 07002KT 12SM 24/17 A2971 RMK 60003 SLP021 T02360173 52002 IEM_DS3505
ZBHH,2002-06-28 13:00,ZBHH 281300Z AUTO 02006KT 2 1/2SM 20/12 A2980 RMK T02000120 IEM_DS3505
ZBHH,2002-06-28 14:00,ZBHH 281400Z AUTO 15002KT 7SM 18/14 A2983 RMK T01800140 IEM_DS3505
ZBHH,2002-06-28 15:00,ZBHH 281500Z AUTO 04008KT 12SM 18/15 A2983 RMK SLP051 T01820151 52023 IEM_DS3505
ZBHH,2002-06-28 16:00,ZBHH 281600Z AUTO 36004KT 7SM 18/14 A2980 RMK T01800140 IEM_DS3505
ZBHH,2002-06-28 17:00,ZBHH 281700Z AUTO 31004KT 7SM 17/14 A2980 RMK T01700140 IEM_DS3505
ZBHH,2002-06-28 18:00,ZBHH 281800Z AUTO 22004KT 12SM 18/14 A2980 RMK 60028 SLP041 T01780136 40263//// 57003 IEM_DS3505
ZBHH,2002-06-28 19:00,ZBHH 281900Z AUTO 07006KT 7SM 15/13 A2977 RMK T01500130 IEM_DS3505
ZBHH,2002-06-28 20:00,ZBHH 282000Z AUTO 08002KT 4SM 14/13 A2977 RMK T01400130 IEM_DS3505
ZBHH,2002-06-28 21:00,ZBHH 282100Z AUTO 00000KT 19SM 16/14 A2977 RMK 70028 SLP033 T01640139 57009 IEM_DS3505
ZBHH,2002-06-28 22:00,ZBHH 282200Z AUTO 36004KT 7SM 15/14 A2980 RMK T01500140 IEM_DS3505
ZBHH,2002-06-28 23:00,ZBHH 282300Z AUTO 10002KT 7SM 16/14 A2980 RMK T01600140 IEM_DS3505
ZBHH,2002-06-29 00:00,ZBHH 290000Z AUTO 00000KT 19SM 19/14 A2980 RMK 70028 SLP039 T01930141 52008 IEM_DS3505
ZBHH,2002-06-29 01:00,ZBHH 290100Z AUTO 11002KT 7SM 21/14 A2980 RMK T02100140 IEM_DS3505
ZBHH,2002-06-29 02:00,ZBHH 290200Z AUTO 08002KT 7SM 22/14 A2977 RMK T02200140 IEM_DS3505
ZBHH,2002-06-29 03:00,ZBHH 290300Z AUTO 00000KT 12SM 23/15 A2977 RMK SLP038 T02320147 57004 IEM_DS3505
ZBHH,2002-06-29 04:00,ZBHH 290400Z AUTO 24004KT 6SM 24/16 A2977 RMK T02400160 IEM_DS3505
ZBHH,2002-06-29 05:00,ZBHH 290500Z AUTO 21008KT 6SM 25/16 A2974 RMK T02500160 IEM_DS3505
ZBHH,2002-06-29 06:00,ZBHH 290600Z AUTO 20004KT 19SM 26/16 A2974 RMK SLP020 T02570165 57012 IEM_DS3505
ZBHH,2002-06-29 07:00,ZBHH 290700Z AUTO 23006KT 7SM 26/17 A2971 RMK T02600170 IEM_DS3505
ZBHH,2002-06-29 08:00,ZBHH 290800Z AUTO 24004KT 7SM 25/17 A2971 RMK T02500170 IEM_DS3505
ZBHH,2002-06-29 09:00,ZBHH 290900Z AUTO 18004KT 12SM 25/17 A2971 RMK SLP011 T02460169 57012 IEM_DS3505
ZBHH,2002-06-29 10:00,ZBHH 291000Z AUTO 05002KT 5SM 24/18 A2968 RMK T02400180 IEM_DS3505
ZBHH,2002-06-29 11:00,ZBHH 291100Z AUTO 08002KT 5SM 23/19 A2971 RMK T02300190 IEM_DS3505
ZBHH,2002-06-29 12:00,ZBHH 291200Z AUTO 34006KT 7SM 23/08 A2971 RMK SLP024 T02290083 52013 IEM_DS3505
ZBHH,2002-06-29 13:00,ZBHH 291300Z AUTO 31006KT 7SM 23/08 A2971 RMK T02300080 IEM_DS3505
ZBHH,2002-06-29 14:00,ZBHH 291400Z AUTO 21006KT 7SM 20/12 A2971 RMK T02000120 IEM_DS3505
ZBHH,2002-06-29 15:00,ZBHH 291500Z AUTO 34004KT 9SM 20/11 A2968 RMK SLP010 T01970109 57011 IEM_DS3505
ZBHH,2002-06-29 16:00,ZBHH 291600Z AUTO 04006KT 7SM 19/12 A2974 RMK T01900120 IEM_DS3505
ZBHH,2002-06-29 17:00,ZBHH 291700Z AUTO 06002KT 7SM 18/11 A2974 RMK T01800110 IEM_DS3505
ZBHH,2002-06-29 18:00,ZBHH 291800Z AUTO 04002KT 16SM 19/11 A2971 RMK 60004 SLP011 T01890111 52004 IEM_DS3505
ZBHH,2002-06-29 19:00,ZBHH 291900Z AUTO 10002KT 7SM 17/12 A2971 RMK T01700120 IEM_DS3505
ZBHH,2002-06-29 20:00,ZBHH 292000Z AUTO 27002KT 7SM 16/13 A2971 RMK T01600130 IEM_DS3505
ZBHH,2002-06-29 21:00,ZBHH 292100Z AUTO 00000KT 16SM 17/13 A2971 RMK 70004 SLP021 T01680127 52003 IEM_DS3505
ZBHH,2002-06-29 22:00,ZBHH 292200Z AUTO 07004KT 7SM 15/12 A2971 RMK T01500120 IEM_DS3505
ZBHH,2002-06-29 23:00,ZBHH 292300Z AUTO 07002KT 6SM 16/13 A2971 RMK T01600130 IEM_DS3505
ZBHH,2002-06-30 00:00,ZBHH 300000Z AUTO 04002KT 19SM 20/13 A2971 RMK 70004 SLP019 T02010126 52001 IEM_DS3505
ZBHH,2002-06-30 01:00,ZBHH 300100Z AUTO 10002KT 6SM 21/14 A2971 RMK T02100140 IEM_DS3505
ZBHH,2002-06-30 02:00,ZBHH 300200Z AUTO 00000KT 6SM 23/14 A2971 RMK T02300140 IEM_DS3505
ZBHH,2002-06-30 03:00,ZBHH 300300Z AUTO 00000KT 12SM 24/13 A2971 RMK SLP013 T02400129 57004 IEM_DS3505
ZBHH,2002-06-30 04:00,ZBHH 300400Z AUTO 24004KT 6SM 25/12 A2971 RMK T02500120 IEM_DS3505
ZBHH,2002-06-30 05:00,ZBHH 300500Z AUTO 24004KT 6SM 26/14 A2971 RMK T02600140 IEM_DS3505
ZBHH,2002-06-30 06:00,ZBHH 300600Z AUTO 22006KT 12SM 26/14 A2968 RMK SLP004 T02570142 57006 IEM_DS3505
ZBHH,2002-06-30 07:00,ZBHH 300700Z AUTO 21004KT 6SM 27/15 A2968 RMK T02700150 IEM_DS3505
ZBHH,2002-06-30 08:00,ZBHH 300800Z AUTO 21004KT 6SM 27/16 A2968 RMK T02700160 IEM_DS3505
ZBHH,2002-06-30 09:00,ZBHH 300900Z AUTO 22008KT 16SM 27/16 A2965 RMK SLP996 T02720165 57008 IEM_DS3505
ZBHH,2002-06-30 10:00,ZBHH 301000Z AUTO 24004KT 6SM 27/16 A2965 RMK T02700160 IEM_DS3505
ZBHH,2002-06-30 11:00,ZBHH 301100Z AUTO 33010KT 7SM 27/07 A2968 RMK T02700070 IEM_DS3505
ZBHH,2002-06-30 12:00,ZBHH 301200Z AUTO 29004KT 19SM 25/07 A2971 RMK SLP005 T02540066 52011 IEM_DS3505
ZBHH,2002-06-30 13:00,ZBHH 301300Z AUTO 33008KT 6SM 24/05 A2974 RMK T02400050 IEM_DS3505
ZBHH,2002-06-30 14:00,ZBHH 301400Z AUTO 30006KT 6SM 23/03 A2974 RMK T02300030 IEM_DS3505
ZBHH,2002-06-30 15:00,ZBHH 301500Z AUTO 00000KT 19SM 22/07 A2974 RMK SLP014 T02230072 52009 IEM_DS3505
ZBHH,2002-06-30 18:00,ZBHH 301800Z AUTO 22002KT 19SM 18/08 RMK SLP026 T01750076 52005 IEM_DS3505
ZBHH,2002-06-30 21:00,ZBHH 302100Z AUTO 00000KT 19SM 15/09 A2977 RMK SLP040 T01510088 52011 IEM_DS3505
ZBHH,2002-06-30 22:00,ZBHH 302200Z AUTO 00000KT 6SM 14/10 A2980 RMK T01400100 IEM_DS3505
ZBHH,2002-06-30 23:00,ZBHH 302300Z AUTO 09002KT 6SM 18/11 A2980 RMK T01800110 IEM_DS3505
ZBHH,2002-07-01 00:00,ZBHH 010000Z AUTO 00000KT 12SM 21/09 A2983 RMK SLP045 T02140094 52012 IEM_DS3505
ZBHH,2002-07-01 01:00,ZBHH 010100Z AUTO 30002KT 6SM 22/09 A2983 RMK T02200090 IEM_DS3505
ZBHH,2002-07-01 02:00,ZBHH 010200Z AUTO 35002KT 6SM 23/08 A2983 RMK T02300080 IEM_DS3505
ZBHH,2002-07-01 03:00,ZBHH 010300Z AUTO 00000KT 16SM 24/10 A2985 RMK SLP052 T02410098 52006 IEM_DS3505
ZBHH,2002-07-01 04:00,ZBHH 010400Z AUTO 32002KT 6SM 25/07 A2985 RMK T02500070 IEM_DS3505
ZBHH,2002-07-01 05:00,ZBHH 010500Z AUTO 00000KT 6SM 27/08 A2983 RMK T02700080 IEM_DS3505
ZBHH,2002-07-01 06:00,ZBHH 010600Z AUTO 27004KT 19SM 27/07 A2983 RMK SLP045 T02700073 57010 IEM_DS3505
ZBHH,2002-07-01 07:00,ZBHH 010700Z AUTO 36006KT 6SM 28/05 A2983 RMK T02800050 IEM_DS3505
ZBHH,2002-07-01 08:00,ZBHH 010800Z AUTO 34008KT 6SM 28/05 A2980 RMK T02800050 IEM_DS3505
ZBHH,2002-07-01 09:00,ZBHH 010900Z AUTO 36008KT 19SM 28/04 A2980 RMK SLP042 T02800045 57005 IEM_DS3505
ZBHH,2002-07-01 10:00,ZBHH 011000Z AUTO 03008KT 6SM 27/04 A2980 RMK T02700040 IEM_DS3505
ZBHH,2002-07-01 11:00,ZBHH 011100Z AUTO 05008KT 6SM 26/05 A2980 RMK T02600050 IEM_DS3505
ZBHH,2002-07-01 12:00,ZBHH 011200Z AUTO 02004KT 19SM 26/06 A2983 RMK SLP037 T02590060 52003 IEM_DS3505
ZBHH,2002-07-01 13:00,ZBHH 011300Z AUTO 01006KT 6SM 22/06 A2983 RMK T02200060 IEM_DS3505
ZBHH,2002-07-01 14:00,ZBHH 011400Z AUTO 05002KT 6SM 19/07 A2988 RMK T01900070 IEM_DS3505
ZBHH,2002-07-01 15:00,ZBHH 011500Z AUTO 00000KT 19SM 20/08 A2988 RMK SLP068 T01990085 52022 IEM_DS3505
ZBHH,2002-07-01 16:00,ZBHH 011600Z AUTO 11004KT 6SM 16/08 A2988 RMK T01600080 IEM_DS3505
ZBHH,2002-07-01 17:00,ZBHH 011700Z AUTO 06004KT 6SM 15/08 A2991 RMK T01500080 IEM_DS3505
ZBHH,2002-07-01 18:00,ZBHH 011800Z AUTO 00000KT 19SM 17/09 A2991 RMK SLP078 T01670090 52008 IEM_DS3505
ZBHH,2002-07-01 21:00,ZBHH 012100Z AUTO 00000KT 19SM 15/08 A2988 RMK SLP079 T01510084 54000 IEM_DS3505
ZBHH,2002-07-01 22:00,ZBHH 012200Z AUTO 09004KT 6SM 13/08 A2988 RMK T01300080 IEM_DS3505
ZBHH,2002-07-01 23:00,ZBHH 012300Z AUTO 05004KT 6SM 17/09 A2988 RMK T01700090 IEM_DS3505
ZBHH,2002-07-02 00:00,ZBHH 020000Z AUTO 00000KT 19SM 21/09 A2991 RMK SLP073 T02120089 52002 IEM_DS3505
ZBHH,2002-07-02 01:00,ZBHH 020100Z AUTO 11002KT 6SM 23/10 A2991 RMK T02300100 IEM_DS3505
ZBHH,2002-07-02 02:00,ZBHH 020200Z AUTO 15002KT 6SM 25/10 A2991 RMK T02500100 IEM_DS3505
ZBHH,2002-07-02 03:00,ZBHH 020300Z AUTO 18002KT 19SM 26/09 A2991 RMK SLP076 T02590093 54000 IEM_DS3505
ZBHH,2002-07-02 04:00,ZBHH 020400Z AUTO 21004KT 6SM 27/10 A2991 RMK T02700100 IEM_DS3505
ZBHH,2002-07-02 05:00,ZBHH 020500Z AUTO 20004KT 6SM 26/10 A2988 RMK T02600100 IEM_DS3505
ZBHH,2002-07-02 06:00,ZBHH 020600Z AUTO 18006KT 19SM 28/11 A2988 RMK SLP063 T02780112 57014 IEM_DS3505
ZBHH,2002-07-02 07:00,ZBHH 020700Z AUTO 17002KT 6SM 29/10 A2985 RMK T02900100 IEM_DS3505
ZBHH,2002-07-02 08:00,ZBHH 020800Z AUTO 17002KT 6SM 29/09 A2983 RMK T02900090 IEM_DS3505
ZBHH,2002-07-02 09:00,ZBHH 020900Z AUTO 22006KT 19SM 30/11 A2983 RMK SLP043 T02980110 57017 IEM_DS3505
ZBHH,2002-07-02 10:00,ZBHH 021000Z AUTO 26002KT 6SM 30/08 A2983 RMK T03000080 IEM_DS3505
ZBHH,2002-07-02 11:00,ZBHH 021100Z AUTO 27002KT 6SM 27/13 A2983 RMK T02700130 IEM_DS3505
ZBHH,2002-07-02 12:00,ZBHH 021200Z AUTO 00000KT 12SM 26/12 A2985 RMK SLP047 T02560123 52007 IEM_DS3505
ZBHH,2002-07-02 13:00,ZBHH 021300Z AUTO 09002KT 6SM 23/13 A2985 RMK T02300130 IEM_DS3505
ZBHH,2002-07-02 14:00,ZBHH 021400Z AUTO 07004KT 7SM 20/13 A2985 RMK T02000130 IEM_DS3505
ZBHH,2002-07-02 15:00,ZBHH 021500Z AUTO 02002KT 19SM 23/12 A2985 RMK SLP057 T02300124 52013 IEM_DS3505
ZBHH,2002-07-02 16:00,ZBHH 021600Z AUTO 04002KT 7SM 20/12 A2988 RMK T02000120 IEM_DS3505
ZBHH,2002-07-02 17:00,ZBHH 021700Z AUTO 06006KT 7SM 18/12 A2988 RMK T01800120 IEM_DS3505
ZBHH,2002-07-02 18:00,ZBHH 021800Z AUTO 00000KT 19SM 22/10 A2988 RMK SLP056 T02160103 54000 IEM_DS3505
ZBHH,2002-07-02 19:00,ZBHH 021900Z AUTO 00000KT 7SM 17/13 A2988 RMK T01700130 IEM_DS3505
ZBHH,2002-07-02 20:00,ZBHH 022000Z AUTO 10004KT 7SM 17/12 A2988 RMK T01700120 IEM_DS3505
ZBHH,2002-07-02 21:00,ZBHH 022100Z AUTO 00000KT 19SM 19/13 A2991 RMK SLP067 T01900133 52008 IEM_DS3505
ZBHH,2002-07-02 22:00,ZBHH 022200Z AUTO 09004KT 6SM 16/13 A2991 RMK T01600130 IEM_DS3505
ZBHH,2002-07-02 23:00,ZBHH 022300Z AUTO 00000KT 6SM 18/14 A2991 RMK T01800140 IEM_DS3505
ZBHH,2002-07-03 00:00,ZBHH 030000Z AUTO 00000KT 16SM 23/12 A2991 RMK SLP076 T02260120 52007 IEM_DS3505
ZBHH,2002-07-03 01:00,ZBHH 030100Z AUTO 08002KT 6SM 24/14 A2991 RMK T02400140 IEM_DS3505
ZBHH,2002-07-03 02:00,ZBHH 030200Z AUTO 20002KT 6SM 25/13 A2991 RMK T02500130 IEM_DS3505
ZBHH,2002-07-03 03:00,ZBHH 030300Z AUTO 00000KT 12SM 26/14 A2991 RMK SLP069 T02550137 57005 IEM_DS3505
ZBHH,2002-07-03 04:00,ZBHH 030400Z AUTO 21006KT 7SM 26/13 A2991 RMK T02600130 IEM_DS3505
ZBHH,2002-07-03 05:00,ZBHH 030500Z AUTO 23008KT 7SM 25/14 A2991 RMK T02500140 IEM_DS3505
ZBHH,2002-07-03 06:00,ZBHH 030600Z AUTO 22008G27KT 16SM 21/16 A2991 RMK 60003 SLP086 T02120158 52004 IEM_DS3505
ZBHH,2002-07-03 07:00,ZBHH 030700Z AUTO 23008KT 2 1/2SM 17/15 A2997 RMK T01700150 IEM_DS3505
ZBHH,2002-07-03 08:00,ZBHH 030800Z AUTO 20006KT 2 1/2SM 17/16 A3000 RMK T01700160 IEM_DS3505
ZBHH,2002-07-03 09:00,ZBHH 030900Z AUTO 36004KT 12SM 18/16 A2994 RMK SLP103 T01820161 52005 IEM_DS3505
ZBHH,2002-07-03 10:00,ZBHH 031000Z AUTO 10004KT 6SM 19/16 A2988 RMK T01900160 IEM_DS3505
ZBHH,2002-07-03 11:00,ZBHH 031100Z AUTO 12004KT 7SM 19/16 A2988 RMK T01900160 IEM_DS3505
ZBHH,2002-07-03 12:00,ZBHH 031200Z AUTO 00000KT 12SM 19/16 A2991 RMK 60008 SLP082 T01920157 57010 IEM_DS3505
ZBHH,2002-07-03 13:00,ZBHH 031300Z AUTO 32002KT 7SM 18/16 A2991 RMK T01800160 IEM_DS3505
ZBHH,2002-07-03 14:00,ZBHH 031400Z AUTO 36002KT 4SM 18/16 A2991 RMK T01800160 IEM_DS3505
ZBHH,2002-07-03 15:00,ZBHH 031500Z AUTO 00000KT 12SM 19/16 A2991 RMK SLP083 T01910159 52006 IEM_DS3505
ZBHH,2002-07-03 16:00,ZBHH 031600Z AUTO 10002KT 7SM 18/16 A2994 RMK T01800160 IEM_DS3505
ZBHH,2002-07-03 17:00,ZBHH 031700Z AUTO 08004KT 7SM 17/15 A2994 RMK T01700150 IEM_DS3505
ZBHH,2002-07-03 18:00,ZBHH 031800Z AUTO 00000KT 12SM 18/16 A2991 RMK SLP087 T01830157 57006 IEM_DS3505
ZBHH,2002-07-03 19:00,ZBHH 031900Z AUTO 07002KT 6SM 17/15 A2991 RMK T01700150 IEM_DS3505
ZBHH,2002-07-03 20:00,ZBHH 032000Z AUTO 05002KT 5SM 18/15 A2991 RMK T01800150 IEM_DS3505
ZBHH,2002-07-03 21:00,ZBHH 032100Z AUTO 00000KT 12SM 18/16 A2991 RMK 70009 SLP093 T01850156 54000 IEM_DS3505
ZBHH,2002-07-03 22:00,ZBHH 032200Z AUTO 05004KT 7SM 17/15 A2991 RMK T01700150 IEM_DS3505
ZBHH,2002-07-03 23:00,ZBHH 032300Z AUTO 09002KT 7SM 18/14 A2994 RMK T01800140 IEM_DS3505
ZBHH,2002-07-04 00:00,ZBHH 040000Z AUTO 09004KT 12SM 20/14 A2994 RMK 70009 SLP099 T02010144 52010 IEM_DS3505
ZBHH,2002-07-04 01:00,ZBHH 040100Z AUTO 10004KT 7SM 22/14 A2994 RMK T02200140 IEM_DS3505
ZBHH,2002-07-04 02:00,ZBHH 040200Z AUTO 17002KT 7SM 23/14 A2994 RMK T02300140 IEM_DS3505
ZBHH,2002-07-04 03:00,ZBHH 040300Z AUTO 00000KT 12SM 23/14 A2994 RMK SLP094 T02310140 52001 IEM_DS3505
ZBHH,2002-07-04 04:00,ZBHH 040400Z AUTO 20006KT 7SM 23/16 A2994 RMK T02300160 IEM_DS3505
ZBHH,2002-07-04 05:00,ZBHH 040500Z AUTO 24004KT 7SM 23/16 A2991 RMK T02300160 IEM_DS3505
ZBHH,2002-07-04 06:00,ZBHH 040600Z AUTO 00000KT 12SM 24/17 A2991 RMK SLP084 T02400166 57008 IEM_DS3505
ZBHH,2002-07-04 07:00,ZBHH 040700Z AUTO 21002KT 25/17 A2991 RMK T02500170 IEM_DS3505
ZBHH,2002-07-04 08:00,ZBHH 040800Z AUTO 20002KT 7SM 26/16 A2988 RMK T02600160 IEM_DS3505
ZBHH,2002-07-04 09:00,ZBHH 040900Z AUTO 20002KT 12SM 25/15 A2988 RMK SLP070 T02460149 57011 IEM_DS3505
ZBHH,2002-07-04 10:00,ZBHH 041000Z AUTO 14004KT 7SM 24/15 A2988 RMK T02400150 IEM_DS3505
ZBHH,2002-07-04 11:00,ZBHH 041100Z AUTO 00000KT 7SM 24/15 A2988 RMK T02400150 IEM_DS3505
ZBHH,2002-07-04 12:00,ZBHH 041200Z AUTO 22004KT 16SM 23/17 A2991 RMK SLP079 T02340167 52008 IEM_DS3505
ZBHH,2002-07-04 13:00,ZBHH 041300Z AUTO 23002KT 4SM 21/17 A2991 RMK T02100170 IEM_DS3505
ZBHH,2002-07-04 14:00,ZBHH 041400Z AUTO 23002KT 4SM 21/17 A2994 RMK T02100170 IEM_DS3505
ZBHH,2002-07-04 15:00,ZBHH 041500Z AUTO 35002KT 3SM 20/17 A2994 RMK T02000170 IEM_DS3505
ZBHH,2002-07-04 18:00,ZBHH 041800Z AUTO 02002KT 19SM 20/17 A2994 RMK SLP089 T02010173 57001 IEM_DS3505
ZBHH,2002-07-04 19:00,ZBHH 041900Z AUTO 08004KT 2 1/2SM 18/16 A2994 RMK T01800160 IEM_DS3505
ZBHH,2002-07-04 20:00,ZBHH 042000Z AUTO 07006KT 2 1/2SM 17/15 A2994 RMK T01700150 IEM_DS3505
ZBHH,2002-07-04 21:00,ZBHH 042100Z AUTO 00000KT 12SM 19/16 A2994 RMK SLP093 T01900165 52003 IEM_DS3505
ZBHH,2002-07-04 22:00,ZBHH 042200Z AUTO 05002KT 2 1/2SM 17/15 A2994 RMK T01700150 IEM_DS3505
ZBHH,2002-07-04 23:00,ZBHH 042300Z AUTO 09004KT 2 1/2SM 19/16 A2997 RMK T01900160 IEM_DS3505
ZBHH,2002-07-05 00:00,ZBHH 050000Z AUTO 00000KT 9SM 22/16 A2997 RMK SLP099 T02180158 52008 IEM_DS3505
ZBHH,2002-07-05 01:00,ZBHH 050100Z AUTO 09002KT 23/15 A2997 RMK T02300150 IEM_DS3505
ZBHH,2002-07-05 02:00,ZBHH 050200Z AUTO 07002KT 3SM 25/15 A2997 RMK T02500150 IEM_DS3505
ZBHH,2002-07-05 03:00,ZBHH 050300Z AUTO 00000KT 9SM 25/15 A2997 RMK SLP092 T02520149 57004 IEM_DS3505
ZBHH,2002-07-05 04:00,ZBHH 050400Z AUTO 23002KT 26/15 A2994 RMK T02600150 IEM_DS3505
ZBHH,2002-07-05 05:00,ZBHH 050500Z AUTO 26004KT 27/16 A2994 RMK T02700160 IEM_DS3505
ZBHH,2002-07-05 06:00,ZBHH 050600Z AUTO 00000KT 9SM 28/15 A2991 RMK SLP070 T02800150 57016 IEM_DS3505
ZBHH,2002-07-05 07:00,ZBHH 050700Z AUTO 20002KT 5SM 29/15 A2991 RMK T02900150 IEM_DS3505
ZBHH,2002-07-05 08:00,ZBHH 050800Z AUTO 27004KT 6SM 29/16 A2988 RMK T02900160 IEM_DS3505
ZBHH,2002-07-05 09:00,ZBHH 050900Z AUTO 25002KT 7SM 28/16 A2988 RMK SLP059 T02810161 57012 IEM_DS3505
ZBHH,2002-07-05 10:00,ZBHH 051000Z AUTO 22004KT 6SM 28/16 A2985 RMK T02800160 IEM_DS3505
ZBHH,2002-07-05 11:00,ZBHH 051100Z AUTO 23004KT 5SM 27/17 A2985 RMK T02700170 IEM_DS3505
ZBHH,2002-07-05 12:00,ZBHH 051200Z AUTO 00000KT 12SM 27/16 A2988 RMK SLP059 T02680163 52003 IEM_DS3505
ZBHH,2002-07-05 13:00,ZBHH 051300Z AUTO 36004KT 3SM 24/18 A2988 RMK T02400180 IEM_DS3505
ZBHH,2002-07-05 14:00,ZBHH 051400Z AUTO 08002KT 4SM 22/17 A2988 RMK T02200170 IEM_DS3505
ZBHH,2002-07-05 15:00,ZBHH 051500Z AUTO 00000KT 12SM 23/16 A2988 RMK SLP064 T02260160 52003 IEM_DS3505
ZBHH,2002-07-05 16:00,ZBHH 051600Z AUTO 08004KT 2 1/2SM 20/17 A2988 RMK T02000170 IEM_DS3505
ZBHH,2002-07-05 17:00,ZBHH 051700Z AUTO 04002KT 3SM 19/16 A2988 RMK T01900160 IEM_DS3505
ZBHH,2002-07-05 18:00,ZBHH 051800Z AUTO 00000KT 12SM 21/16 A2988 RMK SLP060 T02120165 57001 IEM_DS3505
ZBHH,2002-07-05 19:00,ZBHH 051900Z AUTO 05002KT 5SM 18/14 A2988 RMK T01800140 IEM_DS3505
ZBHH,2002-07-05 20:00,ZBHH 052000Z AUTO 00000KT 4SM 18/14 A2988 RMK T01800140 IEM_DS3505
ZBHH,2002-07-05 21:00,ZBHH 052100Z AUTO 00000KT 19SM 18/15 A2988 RMK SLP064 T01820148 57002 IEM_DS3505
ZBHH,2002-07-05 22:00,ZBHH 052200Z AUTO 08002KT 6SM 17/14 A2988 RMK T01700140 IEM_DS3505
ZBHH,2002-07-05 23:00,ZBHH 052300Z AUTO 10002KT 6SM 21/15 A2988 RMK T02100150 IEM_DS3505
ZBHH,2002-07-06 00:00,ZBHH 060000Z AUTO 00000KT 12SM 25/15 A2988 RMK SLP055 T02490149 52002 IEM_DS3505
ZBHH,2002-07-06 01:00,ZBHH 060100Z AUTO 12002KT 6SM 26/14 A2988 RMK T02600140 IEM_DS3505
ZBHH,2002-07-06 02:00,ZBHH 060200Z AUTO 14002KT 6SM 28/13 A2988 RMK T02800130 IEM_DS3505
ZBHH,2002-07-06 03:00,ZBHH 060300Z AUTO 00000KT 16SM 28/16 A2985 RMK SLP050 T02800162 57006 IEM_DS3505
ZBHH,2002-07-06 04:00,ZBHH 060400Z AUTO 21004KT 6SM 30/10 A2985 RMK T03000100 IEM_DS3505
ZBHH,2002-07-06 05:00,ZBHH 060500Z AUTO 18004KT 6SM 30/10 A2983 RMK T03000100 IEM_DS3505
ZBHH,2002-07-06 06:00,ZBHH 060600Z AUTO 18002KT 19SM 30/11 A2983 RMK SLP031 T03030113 57016 IEM_DS3505
ZBHH,2002-07-06 07:00,ZBHH 060700Z AUTO 14004KT 6SM 32/08 A2980 RMK T03200080 IEM_DS3505
ZBHH,2002-07-06 08:00,ZBHH 060800Z AUTO 19002KT 6SM 32/09 A2980 RMK T03200090 IEM_DS3505
ZBHH,2002-07-06 09:00,ZBHH 060900Z AUTO 00000KT 19SM 30/15 A2977 RMK SLP024 T03040147 57011 IEM_DS3505
ZBHH,2002-07-06 10:00,ZBHH 061000Z AUTO 22004KT 6SM 31/12 A2977 RMK T03100120 IEM_DS3505
ZBHH,2002-07-06 11:00,ZBHH 061100Z AUTO 22004KT 6SM 29/13 A2977 RMK T02900130 IEM_DS3505
ZBHH,2002-07-06 12:00,ZBHH 061200Z AUTO 00000KT 19SM 28/15 A2977 RMK SLP015 T02840146 54000 IEM_DS3505
ZBHH,2002-07-06 13:00,ZBHH 061300Z AUTO 00000KT 6SM 24/16 A2980 RMK T02400160 IEM_DS3505
ZBHH,2002-07-06 14:00,ZBHH 061400Z AUTO 07006KT 6SM 21/16 A2980 RMK T02100160 IEM_DS3505
ZBHH,2002-07-06 15:00,ZBHH 061500Z AUTO 00000KT 19SM 24/16 A2983 RMK SLP029 T02440158 52011 IEM_DS3505
ZBHH,2002-07-06 16:00,ZBHH 061600Z AUTO 08006KT 6SM 20/13 A2983 RMK T02000130 IEM_DS3505
ZBHH,2002-07-06 18:00,ZBHH 061800Z AUTO 00000KT 19SM 22/11 RMK SLP033 T02210110 52004 IEM_DS3505
ZBHH,2002-07-06 21:00,ZBHH 062100Z AUTO 00000KT 19SM 18/11 A2983 RMK SLP040 T01820113 57001 IEM_DS3505
ZBHH,2002-07-06 22:00,ZBHH 062200Z AUTO 07004KT 6SM 16/11 A2983 RMK T01600110 IEM_DS3505
ZBHH,2002-07-06 23:00,ZBHH 062300Z AUTO 07004KT 6SM 20/12 A2983 RMK T02000120 IEM_DS3505
ZBHH,2002-07-07 00:00,ZBHH 070000Z AUTO 00000KT 19SM 24/12 A2983 RMK SLP038 T02380122 52005 IEM_DS3505
ZBHH,2002-07-07 01:00,ZBHH 070100Z AUTO 08004KT 6SM 26/12 A2983 RMK T02600120 IEM_DS3505
ZBHH,2002-07-07 02:00,ZBHH 070200Z AUTO 09002KT 6SM 27/09 A2983 RMK T02700090 IEM_DS3505
ZBHH,2002-07-07 03:00,ZBHH 070300Z AUTO 00000KT 19SM 28/11 A2983 RMK SLP027 T02820109 57009 IEM_DS3505
ZBHH,2002-07-07 04:00,ZBHH 070400Z AUTO 19004KT 6SM 29/12 A2980 RMK T02900120 IEM_DS3505
ZBHH,2002-07-07 05:00,ZBHH 070500Z AUTO 22006KT 6SM 30/12 A2977 RMK T03000120 IEM_DS3505
ZBHH,2002-07-07 06:00,ZBHH 070600Z AUTO 22004KT 19SM 30/14 A2977 RMK SLP011 T03000143 57015 IEM_DS3505
ZBHH,2002-07-07 07:00,ZBHH 070700Z AUTO 22006KT 6SM 31/15 A2974 RMK T03100150 IEM_DS3505
ZBHH,2002-07-07 08:00,ZBHH 070800Z AUTO 23006KT 6SM 31/16 A2974 RMK T03100160 IEM_DS3505
ZBHH,2002-07-07 09:00,ZBHH 070900Z AUTO 22004KT 19SM 31/17 A2974 RMK SLP005 T03080166 57011 IEM_DS3505
ZBHH,2002-07-07 10:00,ZBHH 071000Z AUTO 22006KT 6SM 30/17 A2974 RMK T03000170 IEM_DS3505
ZBHH,2002-07-07 11:00,ZBHH 071100Z AUTO 21004KT 6SM 29/18 A2974 RMK T02900180 IEM_DS3505
ZBHH,2002-07-07 12:00,ZBHH 071200Z AUTO 20002KT 12SM 29/16 A2974 RMK SLP997 T02920158 54000 IEM_DS3505
ZBHH,2002-07-07 13:00,ZBHH 071300Z AUTO 09004KT 6SM 24/19 A2977 RMK T02400190 IEM_DS3505
ZBHH,2002-07-07 14:00,ZBHH 071400Z AUTO 09004KT 6SM 24/18 A2977 RMK T02400180 IEM_DS3505
ZBHH,2002-07-07 15:00,ZBHH 071500Z AUTO 00000KT 19SM 26/18 A2977 RMK SLP011 T02560177 52014 IEM_DS3505
ZBHH,2002-07-07 16:00,ZBHH 071600Z AUTO 03002KT 6SM 22/17 A2977 RMK T02200170 IEM_DS3505
ZBHH,2002-07-07 17:00,ZBHH 071700Z AUTO 07004KT 6SM 20/16 A2977 RMK T02000160 IEM_DS3505
ZBHH,2002-07-07 18:00,ZBHH 071800Z AUTO 00000KT 19SM 22/16 A2977 RMK SLP017 T02170157 52001 IEM_DS3505
ZBHH,2002-07-07 19:00,ZBHH 071900Z AUTO 08004KT 6SM 20/16 A2980 RMK T02000160 IEM_DS3505
ZBHH,2002-07-07 20:00,ZBHH 072000Z AUTO 09004KT 6SM 19/15 A2977 RMK T01900150 IEM_DS3505
ZBHH,2002-07-07 21:00,ZBHH 072100Z AUTO 00000KT 19SM 21/16 A2980 RMK SLP025 T02080161 52007 IEM_DS3505
ZBHH,2002-07-07 22:00,ZBHH 072200Z AUTO 08004KT 6SM 18/15 A2980 RMK T01800150 IEM_DS3505
ZBHH,2002-07-07 23:00,ZBHH 072300Z AUTO 08002KT 6SM 22/16 A2980 RMK T02200160 IEM_DS3505
ZBHH,2002-07-08 00:00,ZBHH 080000Z AUTO 00000KT 19SM 25/15 A2983 RMK SLP029 T02500152 52008 IEM_DS3505
ZBHH,2002-07-08 01:00,ZBHH 080100Z AUTO 12002KT 5SM 26/16 A2983 RMK T02600160 IEM_DS3505
ZBHH,2002-07-08 02:00,ZBHH 080200Z AUTO 16004KT 5SM 27/17 A2983 RMK T02700170 IEM_DS3505
ZBHH,2002-07-08 03:00,ZBHH 080300Z AUTO 00000KT 12SM 28/18 A2983 RMK SLP021 T02820182 57007 IEM_DS3505
ZBHH,2002-07-08 04:00,ZBHH 080400Z AUTO 25002KT 5SM 29/18 A2980 RMK T02900180 IEM_DS3505
ZBHH,2002-07-08 05:00,ZBHH 080500Z AUTO 20006KT 5SM 31/17 A2977 RMK T03100170 IEM_DS3505
ZBHH,2002-07-08 06:00,ZBHH 080600Z AUTO 20010KT 12SM 31/16 A2977 RMK SLP010 T03110160 57012 IEM_DS3505
ZBHH,2002-07-08 07:00,ZBHH 080700Z AUTO 23010KT 6SM 32/16 A2974 RMK T03200160 IEM_DS3505
ZBHH,2002-07-08 08:00,ZBHH 080800Z AUTO 23008KT 6SM 33/15 A2974 RMK T03300150 IEM_DS3505
ZBHH,2002-07-08 09:00,ZBHH 080900Z AUTO 20010KT 12SM 32/13 RMK SLP999 T03220126 57009 IEM_DS3505
ZBHH,2002-07-08 10:00,ZBHH 081000Z AUTO 22006KT 6SM 31/14 A2971 RMK T03100140 IEM_DS3505
ZBHH,2002-07-08 11:00,ZBHH 081100Z AUTO 21004KT 6SM 30/15 A2971 RMK T03000150 IEM_DS3505
ZBHH,2002-07-08 12:00,ZBHH 081200Z AUTO 18002KT 12SM 30/16 A2974 RMK SLP992 T03000165 57003 IEM_DS3505
ZBHH,2002-07-08 13:00,ZBHH 081300Z AUTO 05002KT 27/18 A2974 RMK T02700180 IEM_DS3505
ZBHH,2002-07-08 14:00,ZBHH 081400Z AUTO 05004KT 24/16 A2974 RMK T02400160 IEM_DS3505
ZBHH,2002-07-08 15:00,ZBHH 081500Z AUTO 00000KT 12SM 25/16 A2974 RMK SLP005 T02460157 52008 IEM_DS3505
ZBHH,2002-07-08 16:00,ZBHH 081600Z AUTO 07002KT 5SM 22/15 A2974 RMK T02200150 IEM_DS3505
ZBHH,2002-07-08 17:00,ZBHH 081700Z AUTO 07004KT 5SM 21/15 A2974 RMK T02100150 IEM_DS3505
ZBHH,2002-07-08 18:00,ZBHH 081800Z AUTO 00000KT 19SM 22/16 A2974 RMK SLP002 T02210165 57002 IEM_DS3505
ZBHH,2002-07-08 19:00,ZBHH 081900Z AUTO 10002KT 21/14 A2974 RMK T02100140 IEM_DS3505
ZBHH,2002-07-08 20:00,ZBHH 082000Z AUTO 09004KT 20/14 A2974 RMK T02000140 IEM_DS3505
ZBHH,2002-07-08 21:00,ZBHH 082100Z AUTO 00000KT 19SM 22/15 A2974 RMK SLP002 T02180151 52001 IEM_DS3505
ZBHH,2002-07-08 22:00,ZBHH 082200Z AUTO 06004KT 4SM 19/15 A2977 RMK T01900150 IEM_DS3505
ZBHH,2002-07-08 23:00,ZBHH 082300Z AUTO 09002KT 4SM 21/16 A2977 RMK T02100160 IEM_DS3505
ZBHH,2002-07-09 00:00,ZBHH 090000Z AUTO 04002KT 19SM 24/16 A2977 RMK SLP009 T02430160 52007 IEM_DS3505
ZBHH,2002-07-09 01:00,ZBHH 090100Z AUTO 13002KT 26/16 A2977 RMK T02600160 IEM_DS3505
ZBHH,2002-07-09 02:00,ZBHH 090200Z AUTO 08002KT 27/17 A2977 RMK T02700170 IEM_DS3505
ZBHH,2002-07-09 03:00,ZBHH 090300Z AUTO 09002KT 12SM 28/18 A2974 RMK SLP008 T02850175 57003 IEM_DS3505
ZBHH,2002-07-09 04:00,ZBHH 090400Z AUTO 21004KT 30/16 A2974 RMK T03000160 IEM_DS3505
ZBHH,2002-07-09 05:00,ZBHH 090500Z AUTO 23004KT 6SM 31/14 A2971 RMK T03100140 IEM_DS3505
ZBHH,2002-07-09 06:00,ZBHH 090600Z AUTO 20006KT 16SM 31/17 A2971 RMK SLP989 T03140168 57016 IEM_DS3505
ZBHH,2002-07-09 07:00,ZBHH 090700Z AUTO 21006KT 6SM 32/15 A2968 RMK T03200150 IEM_DS3505
ZBHH,2002-07-09 08:00,ZBHH 090800Z AUTO 22008KT 6SM 33/15 A2968 RMK T03300150 IEM_DS3505
ZBHH,2002-07-09 09:00,ZBHH 090900Z AUTO 20006KT 16SM 32/14 A2965 RMK SLP971 T03240140 57015 IEM_DS3505
ZBHH,2002-07-09 10:00,ZBHH 091000Z AUTO 21004KT 6SM 32/14 A2962 RMK T03200140 IEM_DS3505
ZBHH,2002-07-09 11:00,ZBHH 091100Z AUTO 23004KT 7SM 31/13 A2965 RMK T03100130 IEM_DS3505
ZBHH,2002-07-09 12:00,ZBHH 091200Z AUTO 07004KT 16SM 28/17 A2968 RMK SLP977 T02840167 52003 IEM_DS3505
ZBHH,2002-07-09 13:00,ZBHH 091300Z AUTO 05004KT 7SM 26/16 A2965 RMK T02600160 IEM_DS3505
ZBHH,2002-07-09 14:00,ZBHH 091400Z AUTO 07006KT 7SM 26/17 A2965 RMK T02600170 IEM_DS3505
ZBHH,2002-07-09 15:00,ZBHH 091500Z AUTO 14002KT 19SM 27/17 A2965 RMK SLP973 T02660174 54000 IEM_DS3505
ZBHH,2002-07-09 16:00,ZBHH 091600Z AUTO 1/8SM A2965 RMK IEM_DS3505
ZBHH,2002-07-09 17:00,ZBHH 091700Z AUTO 05004KT 7SM 23/18 A2965 RMK T02300180 IEM_DS3505
ZBHH,2002-07-09 18:00,ZBHH 091800Z AUTO 00000KT 19SM 24/19 A2962 RMK SLP963 T02420188 57008 IEM_DS3505
ZBHH,2002-07-09 19:00,ZBHH 091900Z AUTO 08004KT 7SM 21/18 A2962 RMK T02100180 IEM_DS3505
ZBHH,2002-07-09 20:00,ZBHH 092000Z AUTO 07004KT 7SM 22/18 A2962 RMK T02200180 IEM_DS3505
ZBHH,2002-07-09 21:00,ZBHH 092100Z AUTO 11006KT 16SM 23/19 A2962 RMK 70004 SLP963 T02260192 57001 IEM_DS3505
ZBHH,2002-07-09 22:00,ZBHH 092200Z AUTO 23004KT 4SM 21/19 A2965 RMK T02100190 IEM_DS3505
ZBHH,2002-07-09 23:00,ZBHH 092300Z AUTO 35002KT 3SM 22/19 A2968 RMK T02200190 IEM_DS3505
ZBHH,2002-07-10 00:00,ZBHH 100000Z AUTO 00000KT 9SM 23/20 A2968 RMK 60008 SLP985 T02280203 52013 IEM_DS3505
ZBHH,2002-07-10 01:00,ZBHH 100100Z AUTO 20002KT 2 1/2SM 22/20 A2968 RMK T02200200 IEM_DS3505
ZBHH,2002-07-10 02:00,ZBHH 100200Z AUTO 20002KT 4SM 24/19 A2971 RMK T02400190 IEM_DS3505
ZBHH,2002-07-10 03:00,ZBHH 100300Z AUTO 00000KT 6SM 23/20 A2971 RMK SLP993 T02300196 52004 IEM_DS3505
ZBHH,2002-07-10 04:00,ZBHH 100400Z AUTO 08004KT 3SM 24/20 A2971 RMK T02400200 IEM_DS3505
ZBHH,2002-07-10 05:00,ZBHH 100500Z AUTO 00000KT 3SM 23/19 A2968 RMK T02300190 IEM_DS3505
ZBHH,2002-07-10 06:00,ZBHH 100600Z AUTO 02002KT 19SM 25/16 A2968 RMK 60000 SLP993 T02520159 54000 IEM_DS3505
ZBHH,2002-07-10 07:00,ZBHH 100700Z AUTO 01006KT 7SM 25/16 A2968 RMK T02500160 IEM_DS3505
ZBHH,2002-07-10 08:00,ZBHH 100800Z AUTO 36004KT 7SM 25/17 A2965 RMK T02500170 IEM_DS3505
ZBHH,2002-07-10 09:00,ZBHH 100900Z AUTO 04004KT 19SM 26/16 A2965 RMK SLP983 T02610157 57010 IEM_DS3505
ZBHH,2002-07-10 10:00,ZBHH 101000Z AUTO 35006KT 7SM 25/16 A2965 RMK T02500160 IEM_DS3505
ZBHH,2002-07-10 11:00,ZBHH 101100Z AUTO 36006KT 6SM 24/14 A2965 RMK T02400140 IEM_DS3505
ZBHH,2002-07-10 12:00,ZBHH 101200Z AUTO 34006KT 19SM 24/14 A2968 RMK SLP989 T02370144 52001 IEM_DS3505
ZBHH,2002-07-10 14:00,ZBHH 101400Z AUTO 07002KT 7SM 21/15 A2968 RMK T02100150 IEM_DS3505
ZBHH,2002-07-10 15:00,ZBHH 101500Z AUTO 27004KT 19SM 22/15 A2965 RMK SLP992 T02240147 52001 IEM_DS3505
ZBHH,2002-07-10 16:00,ZBHH 101600Z AUTO 00000KT 7SM 20/16 A2965 RMK T02000160 IEM_DS3505
ZBHH,2002-07-10 17:00,ZBHH 101700Z AUTO 00000KT 7SM 18/16 A2965 RMK T01800160 IEM_DS3505
ZBHH,2002-07-10 18:00,ZBHH 101800Z AUTO 00000KT 19SM 20/16 A2965 RMK 60003 SLP990 T02000162 57002 IEM_DS3505
ZBHH,2002-07-10 19:00,ZBHH 101900Z AUTO 35002KT 6SM 16/15 A2968 RMK T01600150 IEM_DS3505
ZBHH,2002-07-10 20:00,ZBHH 102000Z AUTO 11002KT 6SM 15/14 A2968 RMK T01500140 IEM_DS3505
ZBHH,2002-07-10 21:00,ZBHH 102100Z AUTO 00000KT 9SM 18/17 A2968 RMK 70003 SLP001 T01810170 52008 IEM_DS3505
ZBHH,2002-07-10 22:00,ZBHH 102200Z AUTO 07002KT 7SM 15/15 A2971 RMK T01500150 IEM_DS3505
ZBHH,2002-07-10 23:00,ZBHH 102300Z AUTO 10002KT 1SM 17/16 A2971 RMK T01700160 IEM_DS3505
ZBHH,2002-07-11 00:00,ZBHH 110000Z AUTO 18002KT 9SM 20/17 A2971 RMK 70001 SLP010 T01970169 52006 IEM_DS3505
ZBHH,2002-07-11 01:00,ZBHH 110100Z AUTO 00000KT 2 1/2SM 20/17 A2971 RMK T02000170 IEM_DS3505
ZBHH,2002-07-11 02:00,ZBHH 110200Z AUTO 21002KT 3SM 22/17 A2968 RMK T02200170 IEM_DS3505
ZBHH,2002-07-11 03:00,ZBHH 110300Z AUTO 22006KT 16SM 24/17 A2968 RMK SLP002 T02390166 57002 IEM_DS3505
ZBHH,2002-07-11 04:00,ZBHH 110400Z AUTO 23004KT 6SM 25/17 A2968 RMK T02500170 IEM_DS3505
ZBHH,2002-07-11 05:00,ZBHH 110500Z AUTO 23006KT 6SM 27/16 A2968 RMK T02700160 IEM_DS3505
ZBHH,2002-07-11 06:00,ZBHH 110600Z AUTO 16006KT 19SM 28/17 A2965 RMK SLP985 T02820166 57011 IEM_DS3505
ZBHH,2002-07-11 07:00,ZBHH 110700Z AUTO 24004KT 6SM 30/16 A2962 RMK T03000160 IEM_DS3505
ZBHH,2002-07-11 08:00,ZBHH 110800Z AUTO 21004KT 6SM 30/16 A2962 RMK T03000160 IEM_DS3505
ZBHH,2002-07-11 09:00,ZBHH 110900Z AUTO 25008KT 19SM 30/15 A2962 RMK SLP973 T02980153 57011 IEM_DS3505
ZBHH,2002-07-11 10:00,ZBHH 111000Z AUTO 22010KT 6SM 29/16 A2962 RMK T02900160 IEM_DS3505
ZBHH,2002-07-11 11:00,ZBHH 111100Z AUTO 21004KT 6SM 28/17 A2962 RMK T02800170 IEM_DS3505
ZBHH,2002-07-11 12:00,ZBHH 111200Z AUTO 25002KT 19SM 28/12 A2962 RMK SLP970 T02840121 57003 IEM_DS3505
ZBHH,2002-07-11 13:00,ZBHH 111300Z AUTO 13004KT 6SM 22/17 A2962 RMK T02200170 IEM_DS3505
ZBHH,2002-07-11 14:00,ZBHH 111400Z AUTO 06004KT 6SM 22/17 A2962 RMK T02200170 IEM_DS3505
ZBHH,2002-07-11 15:00,ZBHH 111500Z AUTO 0SM A2962 RMK 70004 IEM_DS3505
ZBHH,2002-07-11 18:00,ZBHH 111800Z AUTO 00000KT 19SM 20/12 RMK SLP974 T01960122 57001 IEM_DS3505
ZBHH,2002-07-11 21:00,ZBHH 112100Z AUTO 00000KT 12SM 19/12 A2962 RMK SLP972 T01880122 54000 IEM_DS3505
ZBHH,2002-07-11 22:00,ZBHH 112200Z AUTO 06002KT 6SM 18/11 A2962 RMK T01800110 IEM_DS3505
ZBHH,2002-07-11 23:00,ZBHH 112300Z AUTO 08002KT 6SM 20/13 A2965 RMK T02000130 IEM_DS3505
ZBHH,2002-07-12 00:00,ZBHH 120000Z AUTO 00000KT 19SM 25/13 A2965 RMK SLP973 T02460130 52009 IEM_DS3505
ZBHH,2002-07-12 01:00,ZBHH 120100Z AUTO 12002KT 6SM 26/14 A2965 RMK T02600140 IEM_DS3505
ZBHH,2002-07-12 03:00,ZBHH 120300Z AUTO 20004KT 6SM 28/15 A2962 RMK SLP973 T02760151 57004 IEM_DS3505
ZBHH,2002-07-12 04:00,ZBHH 120400Z AUTO 22006KT 6SM 29/16 A2965 RMK T02900160 IEM_DS3505
ZBHH,2002-07-12 05:00,ZBHH 120500Z AUTO 27004KT 29/14 A2965 RMK T02900140 IEM_DS3505
ZBHH,2002-07-12 06:00,ZBHH 120600Z AUTO 34004KT 19SM 30/09 A2965 RMK SLP984 T02960090 52007 IEM_DS3505
ZBHH,2002-07-12 07:00,ZBHH 120700Z AUTO 30002KT 7SM 29/09 A2965 RMK T02900090 IEM_DS3505
ZBHH,2002-07-12 08:00,ZBHH 120800Z AUTO 29002KT 7SM 29/09 A2965 RMK T02900090 IEM_DS3505
ZBHH,2002-07-12 09:00,ZBHH 120900Z AUTO 27002KT 19SM 29/10 A2965 RMK SLP980 T02930100 57006 IEM_DS3505
ZBHH,2002-07-12 10:00,ZBHH 121000Z AUTO 34006KT 6SM 29/04 A2965 RMK T02900040 IEM_DS3505
ZBHH,2002-07-12 11:00,ZBHH 121100Z AUTO 36002KT 6SM 27/06 A2965 RMK T02700060 IEM_DS3505
ZBHH,2002-07-12 12:00,ZBHH 121200Z AUTO 00000KT 19SM 28/04 A2965 RMK SLP976 T02760044 52004 IEM_DS3505
ZBHH,2002-07-12 13:00,ZBHH 121300Z AUTO 07002KT 6SM 26/03 A2968 RMK T02600030 IEM_DS3505
ZBHH,2002-07-12 14:00,ZBHH 121400Z AUTO 27002KT 6SM 24/03 A2971 RMK T02400030 IEM_DS3505
ZBHH,2002-07-12 15:00,ZBHH 121500Z AUTO 00000KT 19SM 25/05 A2971 RMK SLP992 T02520051 52015 IEM_DS3505
ZBHH,2002-07-12 16:00,ZBHH 121600Z AUTO 30004KT 6SM 24/01 A2971 RMK T02400010 IEM_DS3505
ZBHH,2002-07-12 18:00,ZBHH 121800Z AUTO 00000KT 19SM 22/06 RMK SLP991 T02230056 57002 IEM_DS3505
ZBHH,2002-07-12 21:00,ZBHH 122100Z AUTO 34004KT 19SM 24/03 A2977 RMK SLP003 T02450033 52014 IEM_DS3505
ZBHH,2002-07-12 22:00,ZBHH 122200Z AUTO 01006KT 6SM 21/04 A2977 RMK T02100040 IEM_DS3505
ZBHH,2002-07-12 23:00,ZBHH 122300Z AUTO 33004KT 6SM 21/08 A2977 RMK T02100080 IEM_DS3505
ZBHH,2002-07-13 00:00,ZBHH 130000Z AUTO 34008KT 19SM 24/07 A2977 RMK SLP014 T02420073 52006 IEM_DS3505
ZBHH,2002-07-13 01:00,ZBHH 130100Z AUTO 33002KT 6SM 25/07 A2977 RMK T02500070 IEM_DS3505
ZBHH,2002-07-13 02:00,ZBHH 130200Z AUTO 28008KT 6SM 26/07 A2977 RMK T02600070 IEM_DS3505
ZBHH,2002-07-13 03:00,ZBHH 130300Z AUTO 29006KT 19SM 28/08 A2974 RMK SLP005 T02800076 57006 IEM_DS3505
ZBHH,2002-07-13 04:00,ZBHH 130400Z AUTO 31012KT 6SM 30/05 A2974 RMK T03000050 IEM_DS3505
ZBHH,2002-07-13 05:00,ZBHH 130500Z AUTO 31016KT 6SM 31/04 A2974 RMK T03100040 IEM_DS3505
ZBHH,2002-07-13 06:00,ZBHH 130600Z AUTO 29006G25KT 19SM 30/04 A2971 RMK SLP999 T03050037 57006 IEM_DS3505
ZBHH,2002-07-13 07:00,ZBHH 130700Z AUTO 33017G27KT 6SM 31/03 A2971 RMK T03100030 IEM_DS3505
ZBHH,2002-07-13 08:00,ZBHH 130800Z AUTO 32014G23KT 6SM 32/04 A2971 RMK T03200040 IEM_DS3505
ZBHH,2002-07-13 09:00,ZBHH 130900Z AUTO 34004G23KT 19SM 31/05 A2971 RMK SLP983 T03140052 57008 IEM_DS3505
ZBHH,2002-07-13 10:00,ZBHH 131000Z AUTO 32014G25KT 6SM 31/03 A2971 RMK T03100030 IEM_DS3505
ZBHH,2002-07-13 11:00,ZBHH 131100Z AUTO 32014KT 6SM 30/03 A2971 RMK T03000030 IEM_DS3505
ZBHH,2002-07-13 12:00,ZBHH 131200Z AUTO 00000KT 19SM 29/05 A2971 RMK SLP995 T02910054 52006 IEM_DS3505
ZBHH,2002-07-13 13:00,ZBHH 131300Z AUTO 34006KT 6SM 26/04 A2974 RMK T02600040 IEM_DS3505
ZBHH,2002-07-13 14:00,ZBHH 131400Z AUTO 36004KT 6SM 24/06 A2977 RMK T02400060 IEM_DS3505
ZBHH,2002-07-13 15:00,ZBHH 131500Z AUTO 00000KT 19SM 23/08 A2977 RMK SLP009 T02340081 52009 IEM_DS3505
ZBHH,2002-07-13 16:00,ZBHH 131600Z AUTO 05002KT 6SM 19/07 A2974 RMK T01900070 IEM_DS3505
ZBHH,2002-07-13 18:00,ZBHH 131800Z AUTO 00000KT 19SM 19/09 RMK SLP010 T01890088 57003 IEM_DS3505
ZBHH,2002-07-13 20:00,ZBHH 132000Z AUTO 18002KT 6SM 15/09 A2974 RMK T01500090 IEM_DS3505
ZBHH,2002-07-13 21:00,ZBHH 132100Z AUTO 00000KT 19SM 18/10 A2977 RMK SLP016 T01840105 52006 IEM_DS3505
ZBHH,2002-07-13 22:00,ZBHH 132200Z AUTO 07004KT 6SM 15/09 A2977 RMK T01500090 IEM_DS3505
ZBHH,2002-07-13 23:00,ZBHH 132300Z AUTO 07002KT 6SM 18/10 A2977 RMK T01800100 IEM_DS3505
ZBHH,2002-07-14 00:00,ZBHH 140000Z AUTO 09002KT 19SM 22/11 A2977 RMK SLP015 T02230106 52002 IEM_DS3505
ZBHH,2002-07-14 01:00,ZBHH 140100Z AUTO 13002KT 6SM 23/14 A2977 RMK T02300140 IEM_DS3505
ZBHH,2002-07-14 02:00,ZBHH 140200Z AUTO 17004KT 6SM 26/14 A2974 RMK T02600140 IEM_DS3505
ZBHH,2002-07-14 03:00,ZBHH 140300Z AUTO 20006KT 19SM 28/15 A2974 RMK SLP006 T02750148 57009 IEM_DS3505
ZBHH,2002-07-14 04:00,ZBHH 140400Z AUTO 20008KT 6SM 28/13 A2974 RMK T02800130 IEM_DS3505
ZBHH,2002-07-14 05:00,ZBHH 140500Z AUTO 21010KT 6SM 30/13 A2971 RMK T03000130 IEM_DS3505
ZBHH,2002-07-14 06:00,ZBHH 140600Z AUTO 22006KT 19SM 29/15 RMK SLP998 T02900148 57012 IEM_DS3505
ZBHH,2002-07-14 07:00,ZBHH 140700Z AUTO 22008KT 7SM 29/14 A2968 RMK T02900140 IEM_DS3505
ZBHH,2002-07-14 08:00,ZBHH 140800Z AUTO 29008KT 7SM 31/06 A2968 RMK T03100060 IEM_DS3505
ZBHH,2002-07-14 09:00,ZBHH 140900Z AUTO 34006KT 19SM 32/06 A2965 RMK SLP983 T03200064 57009 IEM_DS3505
ZBHH,2002-07-14 10:00,ZBHH 141000Z AUTO 31012KT 7SM 32/05 A2965 RMK T03200050 IEM_DS3505
ZBHH,2002-07-14 11:00,ZBHH 141100Z AUTO 31008KT 7SM 30/06 A2968 RMK T03000060 IEM_DS3505
ZBHH,2002-07-14 12:00,ZBHH 141200Z AUTO 32002KT 19SM 30/07 A2968 RMK SLP985 T02950070 52004 IEM_DS3505
ZBHH,2002-07-14 13:00,ZBHH 141300Z AUTO 36004KT 6SM 25/06 A2971 RMK T02500060 IEM_DS3505
ZBHH,2002-07-14 14:00,ZBHH 141400Z AUTO 03004KT 6SM 21/08 A2971 RMK T02100080 IEM_DS3505
ZBHH,2002-07-14 15:00,ZBHH 141500Z AUTO 00000KT 19SM 24/08 A2971 RMK SLP993 T02450075 52008 IEM_DS3505
ZBHH,2002-07-14 18:00,ZBHH 141800Z AUTO 00000KT 19SM 19/09 RMK SLP001 T01940088 54000 IEM_DS3505
ZBHH,2002-07-14 21:00,ZBHH 142100Z AUTO 00000KT 19SM 18/10 A2971 RMK SLP003 T01810104 52005 IEM_DS3505
ZBHH,2002-07-14 22:00,ZBHH 142200Z AUTO 20002KT 7SM 12/09 A2974 RMK T01200090 IEM_DS3505
ZBHH,2002-07-14 23:00,ZBHH 142300Z AUTO 00000KT 6SM 18/09 A2974 RMK T01800090 IEM_DS3505
ZBHH,2002-07-15 00:00,ZBHH 150000Z AUTO 00000KT 19SM 24/09 A2974 RMK SLP005 T02350094 52007 IEM_DS3505
ZBHH,2002-07-15 01:00,ZBHH 150100Z AUTO 19002KT 6SM 24/11 A2974 RMK T02400110 IEM_DS3505
ZBHH,2002-07-15 02:00,ZBHH 150200Z AUTO 19002KT 6SM 27/10 A2974 RMK T02700100 IEM_DS3505
ZBHH,2002-07-15 03:00,ZBHH 150300Z AUTO 29004KT 19SM 30/04 A2974 RMK SLP997 T02970037 57005 IEM_DS3505
ZBHH,2002-07-15 04:00,ZBHH 150400Z AUTO 31012G23KT 6SM 31/06 A2971 RMK T03100060 IEM_DS3505
ZBHH,2002-07-15 05:00,ZBHH 150500Z AUTO 32017G29KT 6SM 32/04 A2971 RMK T03200040 IEM_DS3505
ZBHH,2002-07-15 06:00,ZBHH 150600Z AUTO 32006KT 19SM 32/04 RMK SLP992 T03220043 57009 IEM_DS3505
ZBHH,2002-07-15 07:00,ZBHH 150700Z AUTO 2 1/2SM RMK IEM_DS3505
ZBHH,2002-07-15 08:00,ZBHH 150800Z AUTO 34016G25KT 6SM 32/05 A2968 RMK T03200050 IEM_DS3505
ZBHH,2002-07-15 09:00,ZBHH 150900Z AUTO 29004KT 19SM 32/05 RMK SLP991 T03220052 57003 IEM_DS3505
ZBHH,2002-07-15 10:00,ZBHH 151000Z AUTO 2 1/2SM RMK IEM_DS3505
ZBHH,2002-07-15 11:00,ZBHH 151100Z AUTO 2 1/2SM RMK IEM_DS3505
ZBHH,2002-07-15 12:00,ZBHH 151200Z AUTO 36002KT 19SM 29/07 A2971 RMK SLP992 T02900066 52005 IEM_DS3505
ZBHH,2002-07-15 13:00,ZBHH 151300Z AUTO 2 1/2SM RMK IEM_DS3505
ZBHH,2002-07-15 14:00,ZBHH 151400Z AUTO 34002KT 6SM 23/08 A2974 RMK T02300080 IEM_DS3505
ZBHH,2002-07-15 15:00,ZBHH 151500Z AUTO 09004KT 19SM 25/08 RMK SLP995 T02540084 52007 IEM_DS3505
ZBHH,2002-07-15 17:00,ZBHH 151700Z AUTO 02010KT 7SM 20/09 A2977 RMK T02000090 IEM_DS3505
ZBHH,2002-07-15 18:00,ZBHH 151800Z AUTO 00000KT 19SM 22/10 A2977 RMK SLP008 T02180097 52009 IEM_DS3505
ZBHH,2002-07-15 19:00,ZBHH 151900Z AUTO 05004KT 7SM 18/09 A2977 RMK T01800090 IEM_DS3505
ZBHH,2002-07-15 20:00,ZBHH 152000Z AUTO 36006KT 7SM 18/08 A2977 RMK T01800080 IEM_DS3505
ZBHH,2002-07-15 21:00,ZBHH 152100Z AUTO 00000KT 19SM 18/10 A2980 RMK SLP024 T01840105 52009 IEM_DS3505
ZBHH,2002-07-15 22:00,ZBHH 152200Z AUTO 12002KT 6SM 16/09 A2980 RMK T01600090 IEM_DS3505
ZBHH,2002-07-15 23:00,ZBHH 152300Z AUTO 08002KT 6SM 18/10 A2983 RMK T01800100 IEM_DS3505
ZBHH,2002-07-16 00:00,ZBHH 160000Z AUTO 34004KT 19SM 23/10 A2983 RMK SLP034 T02300096 52011 IEM_DS3505
ZBHH,2002-07-16 01:00,ZBHH 160100Z AUTO 34002KT 6SM 24/10 A2983 RMK T02400100 IEM_DS3505
ZBHH,2002-07-16 02:00,ZBHH 160200Z AUTO 32010KT 6SM 25/09 A2983 RMK T02500090 IEM_DS3505
ZBHH,2002-07-16 03:00,ZBHH 160300Z AUTO 02006KT 19SM 27/09 A2980 RMK SLP027 T02670093 57006 IEM_DS3505
ZBHH,2002-07-16 04:00,ZBHH 160400Z AUTO 35010KT 6SM 28/09 A2980 RMK T02800090 IEM_DS3505
ZBHH,2002-07-16 05:00,ZBHH 160500Z AUTO 32012KT 6SM 28/09 A2977 RMK T02800090 IEM_DS3505
ZBHH,2002-07-16 06:00,ZBHH 160600Z AUTO 34002KT 19SM 29/09 A2977 RMK SLP015 T02940092 57012 IEM_DS3505
ZBHH,2002-07-16 07:00,ZBHH 160700Z AUTO 35010KT 7SM 29/08 A2977 RMK T02900080 IEM_DS3505
ZBHH,2002-07-16 08:00,ZBHH 160800Z AUTO 34010KT 7SM 30/07 A2974 RMK T03000070 IEM_DS3505
ZBHH,2002-07-16 09:00,ZBHH 160900Z AUTO 02006KT 19SM 30/08 A2974 RMK SLP014 T02960085 57007 IEM_DS3505
ZBHH,2002-07-16 10:00,ZBHH 161000Z AUTO 36010KT 7SM 29/08 A2974 RMK T02900080 IEM_DS3505
ZBHH,2002-07-16 11:00,ZBHH 161100Z AUTO 33006KT 7SM 28/08 A2974 RMK T02800080 IEM_DS3505
ZBHH,2002-07-16 12:00,ZBHH 161200Z AUTO 02002KT 19SM 27/09 A2977 RMK SLP015 T02720094 52005 IEM_DS3505
ZBHH,2002-07-16 13:00,ZBHH 161300Z AUTO 36004KT 6SM 24/09 A2977 RMK T02400090 IEM_DS3505
ZBHH,2002-07-16 14:00,ZBHH 161400Z AUTO 02004KT 6SM 23/09 A2977 RMK T02300090 IEM_DS3505
ZBHH,2002-07-16 15:00,ZBHH 161500Z AUTO 27004KT 19SM 24/10 A2977 RMK SLP018 T02400105 52003 IEM_DS3505
ZBHH,2002-07-16 16:00,ZBHH 161600Z AUTO 04004KT 6SM 22/09 A2977 RMK T02200090 IEM_DS3505
ZBHH,2002-07-16 18:00,ZBHH 161800Z AUTO 00000KT 19SM 22/11 RMK SLP013 T02240108 57002 IEM_DS3505
ZBHH,2002-07-16 21:00,ZBHH 162100Z AUTO 00000KT 19SM 19/12 A2977 RMK SLP020 T01860119 54000 IEM_DS3505
ZBHH,2002-07-16 22:00,ZBHH 162200Z AUTO 10002KT 6SM 16/11 A2977 RMK T01600110 IEM_DS3505
ZBHH,2002-07-16 23:00,ZBHH 162300Z AUTO 10002KT 6SM 19/12 A2977 RMK T01900120 IEM_DS3505
ZBHH,2002-07-17 00:00,ZBHH 170000Z AUTO 00000KT 19SM 24/12 A2977 RMK SLP021 T02380124 52006 IEM_DS3505
ZBHH,2002-07-17 01:00,ZBHH 170100Z AUTO 23002KT 6SM 26/12 A2977 RMK T02600120 IEM_DS3505
ZBHH,2002-07-17 02:00,ZBHH 170200Z AUTO 21006KT 7SM 26/12 A2977 RMK T02600120 IEM_DS3505
ZBHH,2002-07-17 03:00,ZBHH 170300Z AUTO 20006KT 19SM 27/14 A2974 RMK SLP009 T02700145 57011 IEM_DS3505
ZBHH,2002-07-17 04:00,ZBHH 170400Z AUTO 21008KT 7SM 28/12 A2971 RMK T02800120 IEM_DS3505
ZBHH,2002-07-17 05:00,ZBHH 170500Z AUTO 13002KT 7SM A2971 RMK IEM_DS3505
ZBHH,2002-07-17 06:00,ZBHH 170600Z AUTO 09006KT 19SM 25/12 A2971 RMK 60003 SLP011 T02470125 57005 IEM_DS3505
ZBHH,2002-07-17 07:00,ZBHH 170700Z AUTO 16006KT 7SM 21/15 A2971 RMK T02100150 IEM_DS3505
ZBHH,2002-07-17 08:00,ZBHH 170800Z AUTO 07008KT 7SM 21/15 A2971 RMK T02100150 IEM_DS3505
ZBHH,2002-07-17 09:00,ZBHH 170900Z AUTO 04002KT 19SM 23/14 A2968 RMK SLP005 T02330145 57015 IEM_DS3505
ZBHH,2002-07-17 10:00,ZBHH 171000Z AUTO 09008KT 7SM 22/15 A2971 RMK T02200150 IEM_DS3505
ZBHH,2002-07-17 11:00,ZBHH 171100Z AUTO 05008KT 7SM 20/15 A2971 RMK T02000150 IEM_DS3505
ZBHH,2002-07-17 12:00,ZBHH 171200Z AUTO 09002KT 19SM 21/15 A2971 RMK 60008 SLP015 T02060146 52013 IEM_DS3505
ZBHH,2002-07-17 13:00,ZBHH 171300Z AUTO 13002KT 7SM 18/15 A2971 RMK T01800150 IEM_DS3505
ZBHH,2002-07-17 15:00,ZBHH 171500Z AUTO 00000KT 19SM 19/14 A2974 RMK SLP015 T01930144 52004 IEM_DS3505
ZBHH,2002-07-17 16:00,ZBHH 171600Z AUTO 03002KT 7SM 16/13 A2971 RMK T01600130 IEM_DS3505
ZBHH,2002-07-17 17:00,ZBHH 171700Z AUTO 09006KT 7SM 16/13 A2971 RMK T01600130 IEM_DS3505
ZBHH,2002-07-17 18:00,ZBHH 171800Z AUTO 04002KT 12SM 18/14 A2971 RMK 60002 SLP017 T01830135 57004 IEM_DS3505
ZBHH,2002-07-17 19:00,ZBHH 171900Z AUTO 05008KT 6SM 16/13 A2971 RMK T01600130 IEM_DS3505
ZBHH,2002-07-17 20:00,ZBHH 172000Z AUTO 02002KT 7SM 16/13 A2971 RMK T01600130 IEM_DS3505
ZBHH,2002-07-17 21:00,ZBHH 172100Z AUTO 14002KT 19SM 18/13 A2971 RMK 70011 SLP015 T01780133 57006 IEM_DS3505
ZBHH,2002-07-17 22:00,ZBHH 172200Z AUTO 00000KT 7SM 16/14 A2971 RMK T01600140 IEM_DS3505
ZBHH,2002-07-17 23:00,ZBHH 172300Z AUTO 12002KT 7SM 17/15 A2971 RMK T01700150 IEM_DS3505
ZBHH,2002-07-18 00:00,ZBHH 180000Z AUTO 00000KT 19SM 19/13 A2974 RMK 60000 SLP027 T01900130 52008 IEM_DS3505
ZBHH,2002-07-18 01:00,ZBHH 180100Z AUTO 00000KT 7SM 16/14 A2974 RMK T01600140 IEM_DS3505
ZBHH,2002-07-18 02:00,ZBHH 180200Z AUTO 08002KT 7SM 18/14 A2974 RMK T01800140 IEM_DS3505
ZBHH,2002-07-18 03:00,ZBHH 180300Z AUTO 00000KT 19SM 21/14 A2974 RMK SLP030 T02070142 52004 IEM_DS3505
ZBHH,2002-07-18 04:00,ZBHH 180400Z AUTO 04002KT 7SM 19/14 A2974 RMK T01900140 IEM_DS3505
ZBHH,2002-07-18 05:00,ZBHH 180500Z AUTO 34002KT 7SM 21/13 A2971 RMK T02100130 IEM_DS3505
ZBHH,2002-07-18 06:00,ZBHH 180600Z AUTO 29002KT 12SM 17/15 A2974 RMK 60047 SLP039 T01700150 57001 IEM_DS3505
ZBHH,2002-07-18 07:00,ZBHH 180700Z AUTO 35008KT 7SM 18/14 A2974 RMK T01800140 IEM_DS3505
ZBHH,2002-07-18 08:00,ZBHH 180800Z AUTO 31004KT 7SM 20/15 A2971 RMK T02000150 IEM_DS3505
ZBHH,2002-07-18 09:00,ZBHH 180900Z AUTO 29004KT 19SM 21/14 A2971 RMK SLP023 T02120137 57007 IEM_DS3505
ZBHH,2002-07-18 10:00,ZBHH 181000Z AUTO 36010KT 7SM 22/13 A2971 RMK T02200130 IEM_DS3505
ZBHH,2002-07-18 11:00,ZBHH 181100Z AUTO 30006KT 7SM 20/13 A2971 RMK T02000130 IEM_DS3505
ZBHH,2002-07-18 12:00,ZBHH 181200Z AUTO 29002KT 19SM 20/13 A2974 RMK 60003 SLP029 T02050134 52006 IEM_DS3505
ZBHH,2002-07-18 13:00,ZBHH 181300Z AUTO 32004KT 7SM 18/14 A2977 RMK T01800140 IEM_DS3505
ZBHH,2002-07-18 14:00,ZBHH 181400Z AUTO 00000KT 6SM 17/15 A2977 RMK T01700150 IEM_DS3505
ZBHH,2002-07-18 15:00,ZBHH 181500Z AUTO 00000KT 19SM 18/15 A2977 RMK SLP043 T01760150 52010 IEM_DS3505
ZBHH,2002-07-18 17:00,ZBHH 181700Z AUTO 09002KT 7SM 16/14 A2974 RMK T01600140 IEM_DS3505
ZBHH,2002-07-18 18:00,ZBHH 181800Z AUTO 00000KT 19SM 18/15 A2974 RMK SLP042 T01820150 52007 IEM_DS3505
ZBHH,2002-07-18 21:00,ZBHH 182100Z AUTO 00000KT 19SM 17/14 A2977 RMK 70050 SLP038 T01730140 52003 IEM_DS3505
ZBHH,2002-07-18 22:00,ZBHH 182200Z AUTO 06004KT 7SM 14/13 A2977 RMK T01400130 IEM_DS3505
ZBHH,2002-07-18 23:00,ZBHH 182300Z AUTO 11002KT 7SM 16/13 A2977 RMK T01600130 IEM_DS3505
ZBHH,2002-07-19 00:00,ZBHH 190000Z AUTO 00000KT 19SM 20/15 A2980 RMK 70050 SLP041 T02030146 52007 IEM_DS3505
ZBHH,2002-07-19 01:00,ZBHH 190100Z AUTO 13002KT 7SM 21/14 A2980 RMK T02100140 IEM_DS3505
ZBHH,2002-07-19 02:00,ZBHH 190200Z AUTO 08006KT 7SM 22/15 A2980 RMK T02200150 IEM_DS3505
ZBHH,2002-07-19 03:00,ZBHH 190300Z AUTO 11006KT 19SM 23/15 A2977 RMK SLP040 T02340146 57001 IEM_DS3505
ZBHH,2002-07-19 04:00,ZBHH 190400Z AUTO 31002KT 7SM 21/15 A2980 RMK T02100150 IEM_DS3505
ZBHH,2002-07-19 05:00,ZBHH 190500Z AUTO 30002KT 7SM 22/14 A2977 RMK T02200140 IEM_DS3505
ZBHH,2002-07-19 06:00,ZBHH 190600Z AUTO 07004KT 12SM 20/15 A2980 RMK 60003 SLP053 T02030146 52007 IEM_DS3505
ZBHH,2002-07-19 07:00,ZBHH 190700Z AUTO 33004KT 7SM 21/15 A2977 RMK T02100150 IEM_DS3505
ZBHH,2002-07-19 08:00,ZBHH 190800Z AUTO 08008KT 7SM 20/15 A2980 RMK T02000150 IEM_DS3505
ZBHH,2002-07-19 09:00,ZBHH 190900Z AUTO 04006KT 19SM 21/14 A2977 RMK SLP046 T02110143 57006 IEM_DS3505
ZBHH,2002-07-19 10:00,ZBHH 191000Z AUTO 13004KT 7SM 19/15 A2980 RMK T01900150 IEM_DS3505
ZBHH,2002-07-19 11:00,ZBHH 191100Z AUTO 00000KT 7SM 21/14 A2980 RMK T02100140 IEM_DS3505
ZBHH,2002-07-19 12:00,ZBHH 191200Z AUTO 00000KT 12SM 21/16 A2983 RMK 60004 SLP058 T02060157 52015 IEM_DS3505
ZBHH,2002-07-19 13:00,ZBHH 191300Z AUTO 09002KT 4SM 18/16 A2985 RMK T01800160 IEM_DS3505
ZBHH,2002-07-19 14:00,ZBHH 191400Z AUTO 09004KT 5SM 18/16 A2985 RMK T01800160 IEM_DS3505
ZBHH,2002-07-19 15:00,ZBHH 191500Z AUTO 00000KT 19SM 20/15 A2985 RMK SLP063 T01960154 52008 IEM_DS3505
ZBHH,2002-07-19 16:00,ZBHH 191600Z AUTO 10002KT 4SM 17/15 A2985 RMK T01700150 IEM_DS3505
ZBHH,2002-07-19 17:00,ZBHH 191700Z AUTO 00000KT 5SM 16/15 A2985 RMK T01600150 IEM_DS3505
ZBHH,2002-07-19 18:00,ZBHH 191800Z AUTO 00000KT 19SM 17/15 A2985 RMK SLP071 T01720147 57003 IEM_DS3505
ZBHH,2002-07-19 19:00,ZBHH 191900Z AUTO 00000KT 7SM 16/14 A2985 RMK T01600140 IEM_DS3505
ZBHH,2002-07-19 20:00,ZBHH 192000Z AUTO 06002KT 7SM 16/13 A2985 RMK T01600130 IEM_DS3505
ZBHH,2002-07-19 21:00,ZBHH 192100Z AUTO 00000KT 12SM 18/15 A2988 RMK 70004 SLP079 T01780149 52010 IEM_DS3505
ZBHH,2002-07-19 22:00,ZBHH 192200Z AUTO 00000KT 7SM 16/14 A2988 RMK T01600140 IEM_DS3505
ZBHH,2002-07-19 23:00,ZBHH 192300Z AUTO 00000KT 7SM 17/14 A2991 RMK T01700140 IEM_DS3505
ZBHH,2002-07-20 00:00,ZBHH 200000Z AUTO 00000KT 16SM 21/15 A2991 RMK 70004 SLP087 T02060150 52011 IEM_DS3505
ZBHH,2002-07-20 01:00,ZBHH 200100Z AUTO 13002KT 7SM 20/15 A2991 RMK T02000150 IEM_DS3505
ZBHH,2002-07-20 02:00,ZBHH 200200Z AUTO 06002KT 7SM 22/14 A2991 RMK T02200140 IEM_DS3505
ZBHH,2002-07-20 03:00,ZBHH 200300Z AUTO 04004KT 19SM 24/14 A2988 RMK SLP075 T02430136 57005 IEM_DS3505
ZBHH,2002-07-20 05:00,ZBHH 200500Z AUTO 28002KT 7SM 26/15 A2985 RMK T02600150 IEM_DS3505
ZBHH,2002-07-20 06:00,ZBHH 200600Z AUTO 18004KT 7SM 26/14 A2983 RMK T02600140 IEM_DS3505
ZBHH,2002-07-20 07:00,ZBHH 200700Z AUTO 03010KT 3SM A2988 RMK IEM_DS3505
ZBHH,2002-07-20 08:00,ZBHH 200800Z AUTO 02010KT 7SM 17/15 A2988 RMK T01700150 IEM_DS3505
ZBHH,2002-07-20 09:00,ZBHH 200900Z AUTO 09002KT 19SM 18/15 A2985 RMK SLP085 T01780152 52011 IEM_DS3505
ZBHH,2002-07-20 10:00,ZBHH 201000Z AUTO 36004KT 7SM 18/15 A2985 RMK T01800150 IEM_DS3505
ZBHH,2002-07-20 11:00,ZBHH 201100Z AUTO 05002KT 7SM 19/15 A2985 RMK T01900150 IEM_DS3505
ZBHH,2002-07-20 12:00,ZBHH 201200Z AUTO 00000KT 19SM 18/17 A2988 RMK 60106 SLP085 T01820168 52006 IEM_DS3505
ZBHH,2002-07-20 13:00,ZBHH 201300Z AUTO 35002KT 7SM 18/15 A2991 RMK T01800150 IEM_DS3505
ZBHH,2002-07-20 14:00,ZBHH 201400Z AUTO 08002KT 7SM 18/16 A2991 RMK T01800160 IEM_DS3505
ZBHH,2002-07-20 15:00,ZBHH 201500Z AUTO 00000KT 12SM 17/16 A2991 RMK SLP084 T01720158 52004 IEM_DS3505
ZBHH,2002-07-20 16:00,ZBHH 201600Z AUTO 03002KT 7SM 17/14 A2988 RMK T01700140 IEM_DS3505
ZBHH,2002-07-20 17:00,ZBHH 201700Z AUTO 09002KT 7SM 16/14 A2988 RMK T01600140 IEM_DS3505
ZBHH,2002-07-20 18:00,ZBHH 201800Z AUTO 00000KT 19SM 16/14 A2988 RMK SLP077 T01560141 57006 IEM_DS3505
ZBHH,2002-07-20 19:00,ZBHH 201900Z AUTO 00000KT 7SM 16/14 A2988 RMK T01600140 IEM_DS3505
ZBHH,2002-07-20 20:00,ZBHH 202000Z AUTO 00000KT 7SM 16/14 A2988 RMK T01600140 IEM_DS3505
ZBHH,2002-07-20 21:00,ZBHH 202100Z AUTO 00000KT 19SM 17/15 A2988 RMK 70105 SLP090 T01660148 57002 IEM_DS3505
ZBHH,2002-07-20 22:00,ZBHH 202200Z AUTO 02002KT 6SM 16/14 A2988 RMK T01600140 IEM_DS3505
ZBHH,2002-07-20 23:00,ZBHH 202300Z AUTO 05002KT 6SM 17/14 A2988 RMK T01700140 IEM_DS3505
ZBHH,2002-07-21 00:00,ZBHH 210000Z AUTO 00000KT 19SM 20/16 A2988 RMK 70105 SLP085 T02000155 52003 IEM_DS3505
ZBHH,2002-07-21 01:00,ZBHH 210100Z AUTO 06004KT 6SM 22/15 A2988 RMK T02200150 IEM_DS3505
ZBHH,2002-07-21 02:00,ZBHH 210200Z AUTO 08004KT 7SM 23/14 A2988 RMK T02300140 IEM_DS3505
ZBHH,2002-07-21 03:00,ZBHH 210300Z AUTO 11002KT 19SM 23/15 A2988 RMK SLP081 T02310152 54000 IEM_DS3505
ZBHH,2002-07-21 04:00,ZBHH 210400Z AUTO 28002KT 7SM 24/15 A2985 RMK T02400150 IEM_DS3505
ZBHH,2002-07-21 05:00,ZBHH 210500Z AUTO 13010KT 7SM 22/14 A2985 RMK T02200140 IEM_DS3505
ZBHH,2002-07-21 06:00,ZBHH 210600Z AUTO 02006KT 12SM 21/15 A2985 RMK 60000 SLP082 T02090148 57006 IEM_DS3505
ZBHH,2002-07-21 07:00,ZBHH 210700Z AUTO 07004KT 7SM 19/14 A2985 RMK T01900140 IEM_DS3505
ZBHH,2002-07-21 08:00,ZBHH 210800Z AUTO 35004KT 7SM 20/15 A2985 RMK T02000150 IEM_DS3505
ZBHH,2002-07-21 09:00,ZBHH 210900Z AUTO 34004KT 19SM 20/16 A2983 RMK SLP065 T02030159 57014 IEM_DS3505
ZBHH,2002-07-21 10:00,ZBHH 211000Z AUTO 09002KT 7SM 22/16 A2983 RMK T02200160 IEM_DS3505
ZBHH,2002-07-21 11:00,ZBHH 211100Z AUTO 10004KT 7SM 21/15 A2983 RMK T02100150 IEM_DS3505
ZBHH,2002-07-21 12:00,ZBHH 211200Z AUTO 00000KT 19SM 21/16 A2983 RMK 60002 SLP060 T02140157 52004 IEM_DS3505
ZBHH,2002-07-21 13:00,ZBHH 211300Z AUTO 02002KT 7SM 19/15 A2985 RMK T01900150 IEM_DS3505
ZBHH,2002-07-21 14:00,ZBHH 211400Z AUTO 10006KT 7SM 18/14 A2985 RMK T01800140 IEM_DS3505
ZBHH,2002-07-21 15:00,ZBHH 211500Z AUTO 00000KT 19SM 19/16 A2985 RMK SLP070 T01870155 52009 IEM_DS3505
ZBHH,2002-07-21 16:00,ZBHH 211600Z AUTO 08004KT 7SM 16/13 A2985 RMK T01600130 IEM_DS3505
ZBHH,2002-07-21 17:00,ZBHH 211700Z AUTO 02002KT 7SM 16/13 A2985 RMK T01600130 IEM_DS3505
ZBHH,2002-07-21 18:00,ZBHH 211800Z AUTO 00000KT 19SM 16/14 A2983 RMK SLP071 T01650145 57007 IEM_DS3505
ZBHH,2002-07-21 19:00,ZBHH 211900Z AUTO 08004KT 7SM 15/13 A2983 RMK T01500130 IEM_DS3505
ZBHH,2002-07-21 20:00,ZBHH 212000Z AUTO 04002KT 7SM 14/12 A2983 RMK T01400120 IEM_DS3505
ZBHH,2002-07-21 21:00,ZBHH 212100Z AUTO 00000KT 19SM 15/14 A2983 RMK 70003 SLP071 T01530136 57003 IEM_DS3505
ZBHH,2002-07-21 22:00,ZBHH 212200Z AUTO 03002KT 6SM 13/12 A2983 RMK T01300120 IEM_DS3505
ZBHH,2002-07-21 23:00,ZBHH 212300Z AUTO 09004KT 6SM 16/13 A2983 RMK T01600130 IEM_DS3505
ZBHH,2002-07-22 00:00,ZBHH 220000Z AUTO 00000KT 19SM 20/14 A2983 RMK 70003 SLP058 T02000141 57001 IEM_DS3505
ZBHH,2002-07-22 01:00,ZBHH 220100Z AUTO 10004KT 6SM 21/14 A2983 RMK T02100140 IEM_DS3505
ZBHH,2002-07-22 02:00,ZBHH 220200Z AUTO 14002KT 7SM 23/14 A2983 RMK T02300140 IEM_DS3505
ZBHH,2002-07-22 03:00,ZBHH 220300Z AUTO 14004KT 19SM 23/15 A2983 RMK SLP055 T02300150 57002 IEM_DS3505
ZBHH,2002-07-22 04:00,ZBHH 220400Z AUTO 07002KT 7SM 24/14 A2983 RMK T02400140 IEM_DS3505
ZBHH,2002-07-22 05:00,ZBHH 220500Z AUTO 06002KT 7SM 25/14 A2980 RMK T02500140 IEM_DS3505
ZBHH,2002-07-22 06:00,ZBHH 220600Z AUTO 00000KT 19SM 26/13 A2977 RMK SLP032 T02580128 57019 IEM_DS3505
ZBHH,2002-07-22 07:00,ZBHH 220700Z AUTO 02016KT 1 1/2SM 20/13 A2977 RMK T02000130 IEM_DS3505
ZBHH,2002-07-22 08:00,ZBHH 220800Z AUTO 36006KT 7SM 18/14 A2977 RMK T01800140 IEM_DS3505
ZBHH,2002-07-22 09:00,ZBHH 220900Z AUTO 02004KT 12SM 23/12 A2977 RMK SLP042 T02260119 54000 IEM_DS3505
ZBHH,2002-07-22 10:00,ZBHH 221000Z AUTO 00000KT 7SM 20/16 A2977 RMK T02000160 IEM_DS3505
ZBHH,2002-07-22 11:00,ZBHH 221100Z AUTO 04004KT 7SM 20/14 A2977 RMK T02000140 IEM_DS3505
ZBHH,2002-07-22 12:00,ZBHH 221200Z AUTO 00000KT 9SM 20/16 A2980 RMK 60000 SLP051 T02010156 52012 IEM_DS3505
ZBHH,2002-07-22 13:00,ZBHH 221300Z AUTO 04004KT 7SM 19/15 A2983 RMK T01900150 IEM_DS3505
ZBHH,2002-07-22 14:00,ZBHH 221400Z AUTO 07004KT 7SM 18/14 A2983 RMK T01800140 IEM_DS3505
ZBHH,2002-07-22 15:00,ZBHH 221500Z AUTO 29002KT 19SM 19/12 A2983 RMK SLP050 T01920124 52003 IEM_DS3505
ZBHH,2002-07-22 16:00,ZBHH 221600Z AUTO 10002KT 7SM 16/13 A2983 RMK T01600130 IEM_DS3505
ZBHH,2002-07-22 17:00,ZBHH 221700Z AUTO 07004KT 7SM 16/12 A2980 RMK T01600120 IEM_DS3505
ZBHH,2002-07-22 18:00,ZBHH 221800Z AUTO 00000KT 16SM 18/14 RMK SLP042 T01800137 57004 IEM_DS3505
ZBHH,2002-07-22 19:00,ZBHH 221900Z AUTO 00000KT 7SM 16/13 A2980 RMK T01600130 IEM_DS3505
ZBHH,2002-07-22 20:00,ZBHH 222000Z AUTO 00000KT 7SM 15/14 A2980 RMK T01500140 IEM_DS3505
ZBHH,2002-07-22 21:00,ZBHH 222100Z AUTO 00000KT 19SM 15/14 A2980 RMK 70001 SLP059 T01540135 52005 IEM_DS3505
ZBHH,2002-07-22 22:00,ZBHH 222200Z AUTO 10004KT 6SM 14/12 A2983 RMK T01400120 IEM_DS3505
ZBHH,2002-07-22 23:00,ZBHH 222300Z AUTO 06004KT 6SM 17/13 A2983 RMK T01700130 IEM_DS3505
ZBHH,2002-07-23 00:00,ZBHH 230000Z AUTO 00000KT 19SM 21/12 A2983 RMK 70001 SLP060 T02120117 52007 IEM_DS3505
ZBHH,2002-07-23 01:00,ZBHH 230100Z AUTO 05002KT 6SM 22/12 A2983 RMK T02200120 IEM_DS3505
ZBHH,2002-07-23 02:00,ZBHH 230200Z AUTO 30002KT 6SM 23/13 A2983 RMK T02300130 IEM_DS3505
ZBHH,2002-07-23 03:00,ZBHH 230300Z AUTO 11002KT 19SM 26/12 A2983 RMK SLP047 T02600117 57005 IEM_DS3505
ZBHH,2002-07-23 04:00,ZBHH 230400Z AUTO 10006KT 7SM 27/11 A2980 RMK T02700110 IEM_DS3505
ZBHH,2002-07-23 05:00,ZBHH 230500Z AUTO 10006KT 7SM 28/09 A2980 RMK T02800090 IEM_DS3505
ZBHH,2002-07-23 06:00,ZBHH 230600Z AUTO 04006KT 19SM 28/09 A2977 RMK SLP031 T02820087 57012 IEM_DS3505
ZBHH,2002-07-23 07:00,ZBHH 230700Z AUTO 09006KT 7SM 28/07 A2977 RMK T02800070 IEM_DS3505
ZBHH,2002-07-23 08:00,ZBHH 230800Z AUTO 09004KT 7SM 29/07 A2977 RMK T02900070 IEM_DS3505
ZBHH,2002-07-23 09:00,ZBHH 230900Z AUTO 09004KT 19SM 29/07 A2977 RMK SLP028 T02900074 57006 IEM_DS3505
ZBHH,2002-07-23 10:00,ZBHH 231000Z AUTO 08004KT 7SM 28/07 A2977 RMK T02800070 IEM_DS3505
ZBHH,2002-07-23 11:00,ZBHH 231100Z AUTO 06004KT 7SM 26/11 A2977 RMK T02600110 IEM_DS3505
ZBHH,2002-07-23 12:00,ZBHH 231200Z AUTO 02004KT 19SM 26/09 A2980 RMK SLP026 T02650088 52004 IEM_DS3505
ZBHH,2002-07-23 13:00,ZBHH 231300Z AUTO 01004KT 7SM 21/12 A2980 RMK T02100120 IEM_DS3505
ZBHH,2002-07-23 14:00,ZBHH 231400Z AUTO 06002KT 7SM 19/12 A2983 RMK T01900120 IEM_DS3505
ZBHH,2002-07-23 15:00,ZBHH 231500Z AUTO 00000KT 19SM 19/12 A2983 RMK SLP047 T01910116 52014 IEM_DS3505
ZBHH,2002-07-23 16:00,ZBHH 231600Z AUTO 00000KT 6SM 17/11 A2983 RMK T01700110 IEM_DS3505
ZBHH,2002-07-23 18:00,ZBHH 231800Z AUTO 02002KT 19SM 18/12 RMK SLP050 T01760121 52004 IEM_DS3505
ZBHH,2002-07-23 21:00,ZBHH 232100Z AUTO 00000KT 19SM 17/10 A2985 RMK SLP054 T01700102 52004 IEM_DS3505
ZBHH,2002-07-23 22:00,ZBHH 232200Z AUTO 10004KT 6SM 13/10 A2985 RMK T01300100 IEM_DS3505
ZBHH,2002-07-23 23:00,ZBHH 232300Z AUTO 11002KT 6SM 17/11 A2985 RMK T01700110 IEM_DS3505
ZBHH,2002-07-24 00:00,ZBHH 240000Z AUTO 11002KT 19SM 20/13 A2985 RMK SLP063 T02010127 52009 IEM_DS3505
ZBHH,2002-07-24 01:00,ZBHH 240100Z AUTO 00000KT 6SM 20/14 A2988 RMK T02000140 IEM_DS3505
ZBHH,2002-07-24 02:00,ZBHH 240200Z AUTO 00000KT 6SM 23/15 A2988 RMK T02300150 IEM_DS3505
ZBHH,2002-07-24 03:00,ZBHH 240300Z AUTO 00000KT 16SM 26/13 A2985 RMK SLP061 T02600134 57005 IEM_DS3505
ZBHH,2002-07-24 04:00,ZBHH 240400Z AUTO 20002KT 6SM 26/15 A2985 RMK T02600150 IEM_DS3505
ZBHH,2002-07-24 05:00,ZBHH 240500Z AUTO 30008KT 7SM 29/12 A2983 RMK T02900120 IEM_DS3505
ZBHH,2002-07-24 06:00,ZBHH 240600Z AUTO 34006KT 19SM 30/09 A2983 RMK SLP046 T02960092 57009 IEM_DS3505
ZBHH,2002-07-24 07:00,ZBHH 240700Z AUTO 31012KT 7SM 29/11 A2980 RMK T02900110 IEM_DS3505
ZBHH,2002-07-24 08:00,ZBHH 240800Z AUTO 35010KT 7SM 29/10 A2980 RMK T02900100 IEM_DS3505
ZBHH,2002-07-24 09:00,ZBHH 240900Z AUTO 02006G21KT 19SM 29/09 A2980 RMK SLP038 T02940091 57009 IEM_DS3505
ZBHH,2002-07-24 10:00,ZBHH 241000Z AUTO 36008KT 7SM 28/09 A2980 RMK T02800090 IEM_DS3505
ZBHH,2002-07-24 11:00,ZBHH 241100Z AUTO 36008KT 7SM 27/09 A2983 RMK T02700090 IEM_DS3505
ZBHH,2002-07-24 12:00,ZBHH 241200Z AUTO 02006KT 16SM 26/07 A2983 RMK SLP049 T02640071 52010 IEM_DS3505
ZBHH,2002-07-24 13:00,ZBHH 241300Z AUTO 04006KT 7SM 22/09 A2985 RMK T02200090 IEM_DS3505
ZBHH,2002-07-24 14:00,ZBHH 241400Z AUTO 03004KT 6SM 21/08 A2988 RMK T02100080 IEM_DS3505
ZBHH,2002-07-24 15:00,ZBHH 241500Z AUTO 04004KT 19SM 23/07 A2991 RMK SLP066 T02300072 52020 IEM_DS3505
ZBHH,2002-07-24 18:00,ZBHH 241800Z AUTO 04006KT 19SM 20/06 RMK SLP064 T02020060 54000 IEM_DS3505
ZBHH,2002-07-24 21:00,ZBHH 242100Z AUTO 00000KT 19SM 18/07 A2991 RMK SLP071 T01780068 52001 IEM_DS3505
ZBHH,2002-07-24 22:00,ZBHH 242200Z AUTO 05004KT 6SM 14/07 A2991 RMK T01400070 IEM_DS3505
ZBHH,2002-07-24 23:00,ZBHH 242300Z AUTO 09004KT 6SM 16/09 A2994 RMK T01600090 IEM_DS3505
ZBHH,2002-07-25 00:00,ZBHH 250000Z AUTO 04004KT 19SM 21/07 A2994 RMK SLP085 T02120072 52013 IEM_DS3505
ZBHH,2002-07-25 01:00,ZBHH 250100Z AUTO 06002KT 6SM 21/10 A2994 RMK T02100100 IEM_DS3505
ZBHH,2002-07-25 02:00,ZBHH 250200Z AUTO 08008KT 7SM 23/10 A2994 RMK T02300100 IEM_DS3505
ZBHH,2002-07-25 03:00,ZBHH 250300Z AUTO 07006KT 19SM 24/09 A2994 RMK SLP082 T02450087 57003 IEM_DS3505
ZBHH,2002-07-25 04:00,ZBHH 250400Z AUTO 08008KT 7SM 25/09 A2991 RMK T02500090 IEM_DS3505
ZBHH,2002-07-25 05:00,ZBHH 250500Z AUTO 05004KT 7SM 25/09 A2991 RMK T02500090 IEM_DS3505
ZBHH,2002-07-25 06:00,ZBHH 250600Z AUTO 11006KT 19SM 26/08 A2988 RMK SLP068 T02630082 57014 IEM_DS3505
ZBHH,2002-07-25 07:00,ZBHH 250700Z AUTO 06012KT 7SM 26/09 A2988 RMK T02600090 IEM_DS3505
ZBHH,2002-07-25 08:00,ZBHH 250800Z AUTO 05010KT 7SM 26/08 A2985 RMK T02600080 IEM_DS3505
ZBHH,2002-07-25 09:00,ZBHH 250900Z AUTO 07008KT 19SM 27/08 A2985 RMK SLP060 T02710082 57010 IEM_DS3505
ZBHH,2002-07-25 10:00,ZBHH 251000Z AUTO 04010KT 7SM 25/08 A2985 RMK T02500080 IEM_DS3505
ZBHH,2002-07-25 11:00,ZBHH 251100Z AUTO 06010KT 7SM 25/09 A2985 RMK T02500090 IEM_DS3505
ZBHH,2002-07-25 12:00,ZBHH 251200Z AUTO 07004KT 19SM 24/09 A2988 RMK SLP067 T02400094 52007 IEM_DS3505
ZBHH,2002-07-25 13:00,ZBHH 251300Z AUTO 07006KT 6SM 21/10 A2991 RMK T02100100 IEM_DS3505
ZBHH,2002-07-25 14:00,ZBHH 251400Z AUTO 07006KT 6SM 19/10 A2994 RMK T01900100 IEM_DS3505
ZBHH,2002-07-25 15:00,ZBHH 251500Z AUTO 07004KT 19SM 21/09 A2994 RMK SLP088 T02140094 52020 IEM_DS3505
ZBHH,2002-07-25 18:00,ZBHH 251800Z AUTO 00000KT 19SM 19/10 RMK SLP092 T01900100 52002 IEM_DS3505
ZBHH,2002-07-25 21:00,ZBHH 252100Z AUTO 00000KT 19SM 16/11 A2997 RMK SLP100 T01590106 52003 IEM_DS3505
ZBHH,2002-07-25 22:00,ZBHH 252200Z AUTO 00000KT 6SM 14/11 A2997 RMK T01400110 IEM_DS3505
ZBHH,2002-07-25 23:00,ZBHH 252300Z AUTO 08002KT 6SM 16/11 A2997 RMK T01600110 IEM_DS3505
ZBHH,2002-07-26 00:00,ZBHH 260000Z AUTO 00000KT 16SM 22/10 A3000 RMK SLP105 T02160105 52009 IEM_DS3505
ZBHH,2002-07-26 01:00,ZBHH 260100Z AUTO 09006KT 6SM 21/11 A3000 RMK T02100110 IEM_DS3505
ZBHH,2002-07-26 02:00,ZBHH 260200Z AUTO 10006KT 6SM 24/12 A3000 RMK T02400120 IEM_DS3505
ZBHH,2002-07-26 03:00,ZBHH 260300Z AUTO 11006KT 19SM 26/12 A3000 RMK SLP103 T02560122 52001 IEM_DS3505
ZBHH,2002-07-26 04:00,ZBHH 260400Z AUTO 09002KT 6SM 26/11 A2997 RMK T02600110 IEM_DS3505
ZBHH,2002-07-26 05:00,ZBHH 260500Z AUTO 07004KT 7SM 27/10 A2997 RMK T02700100 IEM_DS3505
ZBHH,2002-07-26 06:00,ZBHH 260600Z AUTO 09006KT 19SM 27/12 A2994 RMK SLP090 T02720117 57013 IEM_DS3505
ZBHH,2002-07-26 07:00,ZBHH 260700Z AUTO 09004KT 7SM 27/08 A2994 RMK T02700080 IEM_DS3505
ZBHH,2002-07-26 08:00,ZBHH 260800Z AUTO 09004KT 7SM 28/08 A2991 RMK T02800080 IEM_DS3505
ZBHH,2002-07-26 09:00,ZBHH 260900Z AUTO 09002KT 19SM 28/14 A2991 RMK SLP077 T02850135 57015 IEM_DS3505
ZBHH,2002-07-26 10:00,ZBHH 261000Z AUTO 08008KT 7SM 27/09 A2991 RMK T02700090 IEM_DS3505
ZBHH,2002-07-26 11:00,ZBHH 261100Z AUTO 11006KT 6SM 27/09 A2991 RMK T02700090 IEM_DS3505
ZBHH,2002-07-26 12:00,ZBHH 261200Z AUTO 09004KT 19SM 27/15 A2994 RMK SLP076 T02660146 52006 IEM_DS3505
ZBHH,2002-07-26 13:00,ZBHH 261300Z AUTO 04006KT 6SM 25/10 A2994 RMK T02500100 IEM_DS3505
ZBHH,2002-07-26 14:00,ZBHH 261400Z AUTO 02006KT 6SM 23/11 A2997 RMK T02300110 IEM_DS3505
ZBHH,2002-07-26 15:00,ZBHH 261500Z AUTO 00000KT 19SM 23/13 A2997 RMK SLP084 T02330129 52009 IEM_DS3505
ZBHH,2002-07-26 16:00,ZBHH 261600Z AUTO 07004KT 6SM 18/12 A2997 RMK T01800120 IEM_DS3505
ZBHH,2002-07-26 17:00,ZBHH 261700Z AUTO 06006KT 6SM 18/12 A2997 RMK T01800120 IEM_DS3505
ZBHH,2002-07-26 18:00,ZBHH 261800Z AUTO 00000KT 19SM 20/12 A2997 RMK SLP091 T02050122 52004 IEM_DS3505
ZBHH,2002-07-26 21:00,ZBHH 262100Z AUTO 00000KT 16SM 20/12 A2997 RMK SLP092 T02040125 52003 IEM_DS3505
ZBHH,2002-07-26 22:00,ZBHH 262200Z AUTO 07004KT 6SM 18/13 A3000 RMK T01800130 IEM_DS3505
ZBHH,2002-07-26 23:00,ZBHH 262300Z AUTO 09004KT 6SM 18/14 A3000 RMK T01800140 IEM_DS3505
ZBHH,2002-07-27 00:00,ZBHH 270000Z AUTO 00000KT 16SM 21/15 A3003 RMK 60003 SLP112 T02080154 52015 IEM_DS3505
ZBHH,2002-07-27 06:00,ZBHH 270600Z AUTO 00000KT 19SM 26/17 A3003 RMK 60003 SLP115 T02620172 57009 IEM_DS3505
ZBHH,2002-07-27 08:00,ZBHH 270800Z AUTO 10006KT 7SM 27/10 A3000 RMK T02700100 IEM_DS3505
ZBHH,2002-07-27 09:00,ZBHH 270900Z AUTO 11004KT 16SM 27/17 A3000 RMK SLP096 T02680169 57016 IEM_DS3505
ZBHH,2002-07-27 10:00,ZBHH 271000Z AUTO 13006KT 7SM 26/10 A3000 RMK T02600100 IEM_DS3505
ZBHH,2002-07-27 11:00,ZBHH 271100Z AUTO 13006KT 7SM 24/11 A3000 RMK T02400110 IEM_DS3505
ZBHH,2002-07-27 12:00,ZBHH 271200Z AUTO 11002KT 19SM 24/17 A3003 RMK SLP115 T02400169 52013 IEM_DS3505
ZBHH,2002-07-27 13:00,ZBHH 271300Z AUTO 13006KT 6SM 22/12 A3003 RMK T02200120 IEM_DS3505
ZBHH,2002-07-27 14:00,ZBHH 271400Z AUTO 13004KT 6SM 21/13 A3003 RMK T02100130 IEM_DS3505
ZBHH,2002-07-27 15:00,ZBHH 271500Z AUTO 00000KT 12SM 22/16 A3003 RMK SLP118 T02200165 52004 IEM_DS3505
ZBHH,2002-07-27 17:00,ZBHH 271700Z AUTO 09006KT 7SM 19/12 A3000 RMK T01900120 IEM_DS3505
ZBHH,2002-07-27 18:00,ZBHH 271800Z AUTO 09006KT 12SM 20/16 A3000 RMK SLP109 T02040156 57006 IEM_DS3505
ZBHH,2002-07-27 19:00,ZBHH 271900Z AUTO 08004KT 5SM 17/14 A3000 RMK T01700140 IEM_DS3505
ZBHH,2002-07-27 20:00,ZBHH 272000Z AUTO 07004KT 4SM 17/15 A3000 RMK T01700150 IEM_DS3505
ZBHH,2002-07-27 21:00,ZBHH 272100Z AUTO 00000KT 12SM 18/15 A3000 RMK 70004 SLP114 T01800151 52001 IEM_DS3505
ZBHH,2002-07-27 22:00,ZBHH 272200Z AUTO 00000KT 5SM 17/15 A3000 RMK T01700150 IEM_DS3505
ZBHH,2002-07-27 23:00,ZBHH 272300Z AUTO 06004KT 4SM 17/15 A3000 RMK T01700150 IEM_DS3505
ZBHH,2002-07-28 00:00,ZBHH 280000Z AUTO 07002KT 19SM 19/16 A3003 RMK 60004 SLP121 T01900161 52003 IEM_DS3505
ZBHH,2002-07-28 01:00,ZBHH 280100Z AUTO 03002KT 7SM 19/16 A3000 RMK T01900160 IEM_DS3505
ZBHH,2002-07-28 02:00,ZBHH 280200Z AUTO 00000KT 7SM 20/16 A3000 RMK T02000160 IEM_DS3505
ZBHH,2002-07-28 03:00,ZBHH 280300Z AUTO 32002KT 16SM 22/16 A3000 RMK SLP111 T02150165 57008 IEM_DS3505
ZBHH,2002-07-28 04:00,ZBHH 280400Z AUTO 28004KT 7SM 22/17 A2997 RMK T02200170 IEM_DS3505
ZBHH,2002-07-28 05:00,ZBHH 280500Z AUTO 33002KT 7SM 23/16 A2997 RMK T02300160 IEM_DS3505
ZBHH,2002-07-28 06:00,ZBHH 280600Z AUTO 00000KT 12SM 24/18 A2994 RMK SLP092 T02370179 57016 IEM_DS3505
ZBHH,2002-07-28 07:00,ZBHH 280700Z AUTO 11002KT 7SM 25/17 A2991 RMK T02500170 IEM_DS3505
ZBHH,2002-07-28 08:00,ZBHH 280800Z AUTO 08004KT 7SM 25/18 A2991 RMK T02500180 IEM_DS3505
ZBHH,2002-07-28 09:00,ZBHH 280900Z AUTO 16002KT 19SM 25/20 A2988 RMK SLP077 T02530203 57015 IEM_DS3505
ZBHH,2002-07-28 10:00,ZBHH 281000Z AUTO 10002KT 7SM 25/17 A2988 RMK T02500170 IEM_DS3505
ZBHH,2002-07-28 11:00,ZBHH 281100Z AUTO 09002KT 7SM 25/18 A2988 RMK T02500180 IEM_DS3505
ZBHH,2002-07-28 12:00,ZBHH 281200Z AUTO 09004KT 19SM 24/20 A2988 RMK SLP071 T02430199 57005 IEM_DS3505
ZBHH,2002-07-28 13:00,ZBHH 281300Z AUTO 12002KT 6SM 22/17 A2988 RMK T02200170 IEM_DS3505
ZBHH,2002-07-28 14:00,ZBHH 281400Z AUTO 00000KT 4SM 21/17 A2988 RMK T02100170 IEM_DS3505
ZBHH,2002-07-28 15:00,ZBHH 281500Z AUTO 09004KT 19SM 23/19 A2988 RMK SLP069 T02280189 54000 IEM_DS3505
ZBHH,2002-07-28 16:00,ZBHH 281600Z AUTO 08004KT 5SM 19/17 A2988 RMK T01900170 IEM_DS3505
ZBHH,2002-07-28 17:00,ZBHH 281700Z AUTO 07004KT 4SM 18/16 A2988 RMK T01800160 IEM_DS3505
ZBHH,2002-07-28 18:00,ZBHH 281800Z AUTO 09004KT 19SM 22/18 A2988 RMK SLP062 T02160183 57004 IEM_DS3505
ZBHH,2002-07-28 19:00,ZBHH 281900Z AUTO 09002KT 3SM 19/17 A2988 RMK T01900170 IEM_DS3505
ZBHH,2002-07-28 20:00,ZBHH 282000Z AUTO 09002KT 3SM 19/17 A2985 RMK T01900170 IEM_DS3505
ZBHH,2002-07-28 21:00,ZBHH 282100Z AUTO 00000KT 19SM 21/18 A2985 RMK 70003 SLP060 T02100179 54000 IEM_DS3505
ZBHH,2002-07-28 22:00,ZBHH 282200Z AUTO 07002KT 3SM 19/17 A2988 RMK T01900170 IEM_DS3505
ZBHH,2002-07-28 23:00,ZBHH 282300Z AUTO 00000KT 4SM 20/17 A2988 RMK T02000170 IEM_DS3505
ZBHH,2002-07-29 00:00,ZBHH 290000Z AUTO 20004KT 12SM 22/17 A2988 RMK 60003 SLP071 T02160171 52009 IEM_DS3505
ZBHH,2002-07-29 01:00,ZBHH 290100Z AUTO 21002KT 5SM 22/16 A2988 RMK T02200160 IEM_DS3505
ZBHH,2002-07-29 02:00,ZBHH 290200Z AUTO 19002KT 7SM 23/16 A2988 RMK T02300160 IEM_DS3505
ZBHH,2002-07-29 03:00,ZBHH 290300Z AUTO 20004KT 12SM 25/15 A2988 RMK SLP059 T02480146 57008 IEM_DS3505
ZBHH,2002-07-29 04:00,ZBHH 290400Z AUTO 26004KT 7SM 26/17 A2985 RMK T02600170 IEM_DS3505
ZBHH,2002-07-29 05:00,ZBHH 290500Z AUTO 20002KT 4SM 24/16 A2985 RMK T02400160 IEM_DS3505
ZBHH,2002-07-29 06:00,ZBHH 290600Z AUTO 02002KT 19SM 18/16 A2985 RMK 60075 SLP060 T01830157 57013 IEM_DS3505
ZBHH,2002-07-29 08:00,ZBHH 290800Z AUTO 17004KT 7SM 23/17 A2983 RMK T02300170 IEM_DS3505
ZBHH,2002-07-29 09:00,ZBHH 290900Z AUTO 09002KT 19SM 24/17 A2980 RMK SLP037 T02400173 57011 IEM_DS3505
ZBHH,2002-07-29 10:00,ZBHH 291000Z AUTO 13004KT 7SM 23/16 A2980 RMK T02300160 IEM_DS3505
ZBHH,2002-07-29 11:00,ZBHH 291100Z AUTO 00000KT 23/16 A2980 RMK T02300160 IEM_DS3505
ZBHH,2002-07-29 12:00,ZBHH 291200Z AUTO 00000KT 16SM 22/17 A2980 RMK 60000 SLP043 T02220173 52003 IEM_DS3505
ZBHH,2002-07-29 13:00,ZBHH 291300Z AUTO 34004KT 4SM 20/18 A2980 RMK T02000180 IEM_DS3505
ZBHH,2002-07-29 14:00,ZBHH 291400Z AUTO 09002KT 2 1/2SM 19/17 A2983 RMK T01900170 IEM_DS3505
ZBHH,2002-07-29 15:00,ZBHH 291500Z AUTO 0SM A2983 RMK 70003 IEM_DS3505
ZBHH,2002-07-29 16:00,ZBHH 291600Z AUTO 06002KT 3SM 18/15 A2983 RMK T01800150 IEM_DS3505
ZBHH,2002-07-29 17:00,ZBHH 291700Z AUTO 07002KT 3SM 17/15 A2983 RMK T01700150 IEM_DS3505
ZBHH,2002-07-29 18:00,ZBHH 291800Z AUTO 00000KT 19SM 18/17 A2983 RMK SLP063 T01820168 52001 IEM_DS3505
ZBHH,2002-07-29 19:00,ZBHH 291900Z AUTO 05002KT 3SM 17/15 A2980 RMK T01700150 IEM_DS3505
ZBHH,2002-07-29 21:00,ZBHH 292100Z AUTO 35008G17KT 2 1/2SM 17/16 A2983 RMK T01700160 IEM_DS3505
ZBHH,2002-07-29 22:00,ZBHH 292200Z AUTO 03004KT 4SM 17/16 A2983 RMK T01700160 IEM_DS3505
ZBHH,2002-07-30 00:00,ZBHH 300000Z AUTO 14002KT 6SM 20/18 RMK 60075 SLP066 T02030175 52012 IEM_DS3505
ZBHH,2002-07-30 01:00,ZBHH 300100Z AUTO 08004KT 4SM 21/18 A2985 RMK T02100180 IEM_DS3505
ZBHH,2002-07-30 02:00,ZBHH 300200Z AUTO 11002KT 5SM 23/17 A2985 RMK T02300170 IEM_DS3505
ZBHH,2002-07-30 03:00,ZBHH 300300Z AUTO 02002KT 6SM 25/19 A2985 RMK SLP063 T02460186 57001 IEM_DS3505
ZBHH,2002-07-30 04:00,ZBHH 300400Z AUTO 00000KT 25/18 A2985 RMK T02500180 IEM_DS3505
ZBHH,2002-07-30 05:00,ZBHH 300500Z AUTO 25004KT 25/19 A2985 RMK T02500190 IEM_DS3505
ZBHH,2002-07-30 06:00,ZBHH 300600Z AUTO 00000KT 6SM 25/19 A2983 RMK SLP052 T02540188 57009 IEM_DS3505
ZBHH,2002-07-30 07:00,ZBHH 300700Z AUTO 22002KT 26/19 A2983 RMK T02600190 IEM_DS3505
ZBHH,2002-07-30 08:00,ZBHH 300800Z AUTO 25002KT 26/19 A2980 RMK T02600190 IEM_DS3505
ZBHH,2002-07-30 09:00,ZBHH 300900Z AUTO 00000KT 6SM 26/20 A2983 RMK SLP048 T02630199 57004 IEM_DS3505
ZBHH,2002-07-30 10:00,ZBHH 301000Z AUTO 17002KT 26/20 A2983 RMK T02600200 IEM_DS3505
ZBHH,2002-07-30 11:00,ZBHH 301100Z AUTO 32002KT 26/20 A2980 RMK T02600200 IEM_DS3505
ZBHH,2002-07-30 12:00,ZBHH 301200Z AUTO 00000KT 6SM 25/20 A2983 RMK SLP041 T02540195 57002 IEM_DS3505
ZBHH,2002-07-30 13:00,ZBHH 301300Z AUTO 14002KT 3SM 23/20 A2985 RMK T02300200 IEM_DS3505
ZBHH,2002-07-30 14:00,ZBHH 301400Z AUTO 35002KT 2 1/2SM 22/20 A2985 RMK T02200200 IEM_DS3505
ZBHH,2002-07-30 15:00,ZBHH 301500Z AUTO 00000KT 12SM 22/21 A2985 RMK SLP051 T02220207 52011 IEM_DS3505
ZBHH,2002-07-30 16:00,ZBHH 301600Z AUTO 00000KT 1 1/4SM 20/19 A2985 RMK T02000190 IEM_DS3505
ZBHH,2002-07-30 17:00,ZBHH 301700Z AUTO 01002KT 1 1/2SM 20/19 A2985 RMK T02000190 IEM_DS3505
ZBHH,2002-07-30 18:00,ZBHH 301800Z AUTO 00000KT 9SM 21/20 A2985 RMK SLP055 T02120199 52003 IEM_DS3505
ZBHH,2002-07-30 19:00,ZBHH 301900Z AUTO 07004KT 2SM 18/17 A2985 RMK T01800170 IEM_DS3505
ZBHH,2002-07-30 20:00,ZBHH 302000Z AUTO 06004KT 2 1/2SM 19/17 A2985 RMK T01900170 IEM_DS3505
ZBHH,2002-07-30 21:00,ZBHH 302100Z AUTO 00000KT 9SM 21/19 A2988 RMK 70002 SLP062 T02140191 52008 IEM_DS3505
ZBHH,2002-07-30 22:00,ZBHH 302200Z AUTO 00000KT 1 1/4SM 19/18 A2991 RMK T01900180 IEM_DS3505
ZBHH,2002-07-30 23:00,ZBHH 302300Z AUTO 08004KT 1 1/4SM 20/18 A2991 RMK T02000180 IEM_DS3505
ZBHH,2002-07-31 00:00,ZBHH 310000Z AUTO 09004KT 9SM 21/19 A2991 RMK SLP073 T02120189 52008 IEM_DS3505
ZBHH,2002-07-31 01:00,ZBHH 310100Z AUTO 13004KT 2 1/2SM 21/19 A2991 RMK T02100190 IEM_DS3505
ZBHH,2002-07-31 02:00,ZBHH 310200Z AUTO 19002KT 4SM 23/19 A2994 RMK T02300190 IEM_DS3505
ZBHH,2002-07-31 03:00,ZBHH 310300Z AUTO 00000KT 9SM 22/20 A2991 RMK SLP085 T02180197 52006 IEM_DS3505
ZBHH,2002-07-31 04:00,ZBHH 310400Z AUTO 00000KT 5SM 23/18 A2991 RMK T02300180 IEM_DS3505
ZBHH,2002-07-31 05:00,ZBHH 310500Z AUTO 13002KT 6SM 24/17 A2991 RMK T02400170 IEM_DS3505
ZBHH,2002-07-31 06:00,ZBHH 310600Z AUTO 14006KT 6SM 24/19 A2991 RMK 60000 SLP080 T02410187 57002 IEM_DS3505
ZBHH,2002-07-31 07:00,ZBHH 310700Z AUTO 11006KT 7SM 23/18 A2991 RMK T02300180 IEM_DS3505
ZBHH,2002-07-31 08:00,ZBHH 310800Z AUTO 10002KT 7SM 23/18 A2991 RMK T02300180 IEM_DS3505
ZBHH,2002-07-31 09:00,ZBHH 310900Z AUTO 09002KT 9SM 24/18 A2988 RMK SLP071 T02360183 57009 IEM_DS3505
ZBHH,2002-07-31 10:00,ZBHH 311000Z AUTO 07004KT 7SM 23/18 A2988 RMK T02300180 IEM_DS3505
ZBHH,2002-07-31 11:00,ZBHH 311100Z AUTO 06004KT 4SM 23/18 A2988 RMK T02300180 IEM_DS3505
ZBHH,2002-07-31 12:00,ZBHH 311200Z AUTO 04002KT 12SM 23/18 A2988 RMK 60003 SLP070 T02310183 57002 IEM_DS3505
ZBHH,2002-07-31 13:00,ZBHH 311300Z AUTO 01002KT 4SM 22/19 A2988 RMK T02200190 IEM_DS3505
ZBHH,2002-07-31 14:00,ZBHH 311400Z AUTO 11002KT 4SM 22/19 A2991 RMK T02200190 IEM_DS3505
ZBHH,2002-07-31 15:00,ZBHH 311500Z AUTO 00000KT 12SM 22/19 A2988 RMK SLP073 T02180188 52001 IEM_DS3505
ZBHH,2002-07-31 16:00,ZBHH 311600Z AUTO 11002KT 3SM 20/18 A2988 RMK T02000180 IEM_DS3505
ZBHH,2002-07-31 17:00,ZBHH 311700Z AUTO 07004KT 3SM 20/18 A2988 RMK T02000180 IEM_DS3505
ZBHH,2002-07-31 18:00,ZBHH 311800Z AUTO 00000KT 12SM 21/19 A2988 RMK SLP068 T02140191 57001 IEM_DS3505
ZBHH,2002-07-31 20:00,ZBHH 312000Z AUTO 11002KT 3SM 21/19 A2988 RMK T02100190 IEM_DS3505
ZBHH,2002-07-31 21:00,ZBHH 312100Z AUTO 00000KT 12SM 21/20 A2988 RMK 70008 SLP070 T02110198 52001 IEM_DS3505
ZBHH,2002-07-31 22:00,ZBHH 312200Z AUTO 02004KT 1 1/2SM 20/18 A2988 RMK T02000180 IEM_DS3505
ZBHH,2002-07-31 23:00,ZBHH 312300Z AUTO 03002KT 2SM 20/19 A2991 RMK T02000190 IEM_DS3505
ZBHH,2002-08-01 00:00,ZBHH 010000Z AUTO 00000KT 7SM 22/20 A2991 RMK 60012 SLP077 T02150199 52006 IEM_DS3505
ZBHH,2002-08-01 01:00,ZBHH 010100Z AUTO 07004KT 2SM 22/20 A2991 RMK T02200200 IEM_DS3505
ZBHH,2002-08-01 02:00,ZBHH 010200Z AUTO 09004KT 2SM 22/20 A2991 RMK T02200200 IEM_DS3505
ZBHH,2002-08-01 03:00,ZBHH 010300Z AUTO 00000KT 6SM 24/21 A2991 RMK SLP074 T02380209 57001 IEM_DS3505
ZBHH,2002-08-01 04:00,ZBHH 010400Z AUTO 25002KT 3SM 26/20 A2988 RMK T02600200 IEM_DS3505
ZBHH,2002-08-01 05:00,ZBHH 010500Z AUTO 24004KT 3SM 26/21 A2988 RMK T02600210 IEM_DS3505
ZBHH,2002-08-01 06:00,ZBHH 010600Z AUTO 20002KT 9SM 28/21 A2985 RMK SLP046 T02820212 57018 IEM_DS3505
ZBHH,2002-08-01 07:00,ZBHH 010700Z AUTO 23002KT 3SM 28/21 A2985 RMK T02800210 IEM_DS3505
ZBHH,2002-08-01 08:00,ZBHH 010800Z AUTO 20006KT 29/21 A2983 RMK T02900210 IEM_DS3505
ZBHH,2002-08-01 09:00,ZBHH 010900Z AUTO 18006KT 6SM 29/21 A2983 RMK SLP031 T02900213 57012 IEM_DS3505
ZBHH,2002-08-01 10:00,ZBHH 011000Z AUTO 03006KT 7SM 27/18 A2985 RMK T02700180 IEM_DS3505
ZBHH,2002-08-01 11:00,ZBHH 011100Z AUTO 36004KT 7SM 25/18 A2985 RMK T02500180 IEM_DS3505
ZBHH,2002-08-01 12:00,ZBHH 011200Z AUTO 11004KT 9SM 26/19 A2985 RMK SLP052 T02580190 52013 IEM_DS3505
ZBHH,2002-08-01 13:00,ZBHH 011300Z AUTO 07004KT 4SM 21/19 A2988 RMK T02100190 IEM_DS3505
ZBHH,2002-08-01 14:00,ZBHH 011400Z AUTO 02004KT 4SM 23/18 A2988 RMK T02300180 IEM_DS3505
ZBHH,2002-08-01 15:00,ZBHH 011500Z AUTO 00000KT 6SM 23/20 A2988 RMK SLP067 T02300199 52013 IEM_DS3505
ZBHH,2002-08-01 16:00,ZBHH 011600Z AUTO 05002KT 3SM 21/19 A2988 RMK T02100190 IEM_DS3505
ZBHH,2002-08-01 17:00,ZBHH 011700Z AUTO 06004KT 2 1/2SM 21/19 A2988 RMK T02100190 IEM_DS3505
ZBHH,2002-08-01 18:00,ZBHH 011800Z AUTO 00000KT 6SM 22/20 A2991 RMK SLP065 T02170204 52004 IEM_DS3505
ZBHH,2002-08-01 19:00,ZBHH 011900Z AUTO 08002KT 2SM 20/19 A2991 RMK T02000190 IEM_DS3505
ZBHH,2002-08-01 20:00,ZBHH 012000Z AUTO 09002KT 1 1/2SM 20/19 A2991 RMK T02000190 IEM_DS3505
ZBHH,2002-08-01 21:00,ZBHH 012100Z AUTO 00000KT 5SM 20/20 A2991 RMK 70005 SLP069 T02040198 52002 IEM_DS3505
ZBHH,2002-08-01 22:00,ZBHH 012200Z AUTO 06004KT 2SM 20/18 A2991 RMK T02000180 IEM_DS3505
ZBHH,2002-08-01 23:00,ZBHH 012300Z AUTO 08002KT 2SM 21/20 A2994 RMK T02100200 IEM_DS3505
ZBHH,2002-08-02 00:00,ZBHH 020000Z AUTO 00000KT 6SM 24/21 A2994 RMK SLP075 T02390207 52006 IEM_DS3505
ZBHH,2002-08-02 01:00,ZBHH 020100Z AUTO 12002KT 4SM 26/21 A2994 RMK T02600210 IEM_DS3505
ZBHH,2002-08-02 02:00,ZBHH 020200Z AUTO 00000KT 28/22 A2994 RMK T02800220 IEM_DS3505
ZBHH,2002-08-02 03:00,ZBHH 020300Z AUTO 00000KT 12SM 28/22 A2994 RMK SLP074 T02840217 52002 IEM_DS3505
ZBHH,2002-08-02 04:00,ZBHH 020400Z AUTO 18002KT 30/22 A2991 RMK T03000220 IEM_DS3505
ZBHH,2002-08-02 05:00,ZBHH 020500Z AUTO 15002KT 31/22 A2988 RMK T03100220 IEM_DS3505
ZBHH,2002-08-02 06:00,ZBHH 020600Z AUTO 22006KT 9SM 31/22 A2988 RMK SLP047 T03140220 57021 IEM_DS3505
ZBHH,2002-08-02 07:00,ZBHH 020700Z AUTO 26002KT 5SM 32/21 A2985 RMK T03200210 IEM_DS3505
ZBHH,2002-08-02 08:00,ZBHH 020800Z AUTO 35008G21KT 6SM 32/21 A2985 RMK T03200210 IEM_DS3505
ZBHH,2002-08-02 09:00,ZBHH 020900Z AUTO 04008KT 16SM 30/18 A2988 RMK SLP053 T03010177 52001 IEM_DS3505
ZBHH,2002-08-02 10:00,ZBHH 021000Z AUTO 09016KT 7SM 24/17 A2988 RMK T02400170 IEM_DS3505
ZBHH,2002-08-02 11:00,ZBHH 021100Z AUTO 07010KT 7SM 24/15 A2988 RMK T02400150 IEM_DS3505
ZBHH,2002-08-02 12:00,ZBHH 021200Z AUTO 09004KT 19SM 25/15 A2991 RMK SLP072 T02520151 52014 IEM_DS3505
ZBHH,2002-08-02 13:00,ZBHH 021300Z AUTO 36004KT 7SM 23/16 A2991 RMK T02300160 IEM_DS3505
ZBHH,2002-08-02 14:00,ZBHH 021400Z AUTO 12004KT 6SM 22/17 A2994 RMK T02200170 IEM_DS3505
ZBHH,2002-08-02 15:00,ZBHH 021500Z AUTO 00000KT 19SM 24/16 A2991 RMK SLP067 T02390161 52002 IEM_DS3505
ZBHH,2002-08-02 16:00,ZBHH 021600Z AUTO 09002KT 6SM 20/17 A2991 RMK T02000170 IEM_DS3505
ZBHH,2002-08-02 17:00,ZBHH 021700Z AUTO 01002KT 6SM 20/17 A2991 RMK T02000170 IEM_DS3505
ZBHH,2002-08-02 18:00,ZBHH 021800Z AUTO 00000KT 19SM 21/17 RMK SLP054 T02140172 57011 IEM_DS3505
ZBHH,2002-08-02 20:00,ZBHH 022000Z AUTO 14002KT 6SM 19/16 A2988 RMK T01900160 IEM_DS3505
ZBHH,2002-08-02 21:00,ZBHH 022100Z AUTO 00000KT 16SM 20/17 A2988 RMK SLP053 T01980172 57006 IEM_DS3505
ZBHH,2002-08-02 22:00,ZBHH 022200Z AUTO 05002KT 6SM 19/16 A2988 RMK T01900160 IEM_DS3505
ZBHH,2002-08-02 23:00,ZBHH 022300Z AUTO 08002KT 4SM 19/17 A2988 RMK T01900170 IEM_DS3505
ZBHH,2002-08-03 00:00,ZBHH 030000Z AUTO 00000KT 12SM 24/18 A2985 RMK SLP057 T02360181 52002 IEM_DS3505
ZBHH,2002-08-03 01:00,ZBHH 030100Z AUTO 07002KT 5SM 23/19 A2988 RMK T02300190 IEM_DS3505
ZBHH,2002-08-03 02:00,ZBHH 030200Z AUTO 09002KT 3SM 23/19 A2988 RMK T02300190 IEM_DS3505
ZBHH,2002-08-03 03:00,ZBHH 030300Z AUTO 07002KT 9SM 24/20 A2985 RMK SLP049 T02450195 57008 IEM_DS3505
ZBHH,2002-08-03 04:00,ZBHH 030400Z AUTO 22006G17KT 2 1/2SM 22/19 A2991 RMK T02200190 IEM_DS3505
ZBHH,2002-08-03 05:00,ZBHH 030500Z AUTO 06006KT 3SM 19/18 A2985 RMK T01900180 IEM_DS3505
ZBHH,2002-08-03 06:00,ZBHH 030600Z AUTO 14004KT 7SM 21/19 A2985 RMK 60114 SLP065 T02110193 52003 IEM_DS3505
ZBHH,2002-08-03 07:00,ZBHH 030700Z AUTO 13004KT 7SM 21/19 A2985 RMK T02100190 IEM_DS3505
ZBHH,2002-08-03 08:00,ZBHH 030800Z AUTO 00000KT 7SM 21/19 A2983 RMK T02100190 IEM_DS3505
ZBHH,2002-08-03 09:00,ZBHH 030900Z AUTO 00000KT 9SM 21/19 A2983 RMK SLP052 T02140191 57014 IEM_DS3505
ZBHH,2002-08-03 10:00,ZBHH 031000Z AUTO 14002KT 6SM 21/19 A2980 RMK T02100190 IEM_DS3505
ZBHH,2002-08-03 11:00,ZBHH 031100Z AUTO 20002KT 7SM 21/19 A2980 RMK T02100190 IEM_DS3505
ZBHH,2002-08-03 12:00,ZBHH 031200Z AUTO 04002KT 9SM 21/19 A2980 RMK 60002 SLP039 T02130190 57004 IEM_DS3505
ZBHH,2002-08-03 13:00,ZBHH 031300Z AUTO 35002KT 4SM 20/19 A2980 RMK T02000190 IEM_DS3505
ZBHH,2002-08-03 14:00,ZBHH 031400Z AUTO 33002KT 4SM 20/19 A2977 RMK T02000190 IEM_DS3505
ZBHH,2002-08-03 15:00,ZBHH 031500Z AUTO 00000KT 12SM 20/19 A2977 RMK SLP033 T01990191 57007 IEM_DS3505
ZBHH,2002-08-03 16:00,ZBHH 031600Z AUTO 01004KT 4SM 20/18 A2977 RMK T02000180 IEM_DS3505
ZBHH,2002-08-03 17:00,ZBHH 031700Z AUTO 11002KT 4SM 19/18 A2974 RMK T01900180 IEM_DS3505
ZBHH,2002-08-03 18:00,ZBHH 031800Z AUTO 00000KT 12SM 19/18 A2974 RMK SLP034 T01900185 57007 IEM_DS3505
ZBHH,2002-08-03 19:00,ZBHH 031900Z AUTO 05002KT 2SM 18/17 A2974 RMK T01800170 IEM_DS3505
ZBHH,2002-08-03 20:00,ZBHH 032000Z AUTO 36002KT 2SM 17/16 A2974 RMK T01700160 IEM_DS3505
ZBHH,2002-08-03 21:00,ZBHH 032100Z AUTO 00000KT 12SM 18/18 A2974 RMK 70114 SLP033 T01780175 57002 IEM_DS3505
ZBHH,2002-08-03 22:00,ZBHH 032200Z AUTO 03002KT 7SM 20/16 A2974 RMK T02000160 IEM_DS3505
ZBHH,2002-08-03 23:00,ZBHH 032300Z AUTO 09002KT 4SM 20/17 A2974 RMK T02000170 IEM_DS3505
ZBHH,2002-08-04 00:00,ZBHH 040000Z AUTO 16002KT 9SM 22/19 A2974 RMK 70114 SLP025 T02200187 54000 IEM_DS3505
ZBHH,2002-08-04 01:00,ZBHH 040100Z AUTO 34002KT 7SM 23/18 A2974 RMK T02300180 IEM_DS3505
ZBHH,2002-08-04 02:00,ZBHH 040200Z AUTO 29002KT 7SM 24/19 A2974 RMK T02400190 IEM_DS3505
ZBHH,2002-08-04 03:00,ZBHH 040300Z AUTO 18004KT 6SM 26/20 A2974 RMK SLP012 T02550195 57007 IEM_DS3505
ZBHH,2002-08-04 04:00,ZBHH 040400Z AUTO 21002KT 7SM 26/19 A2971 RMK T02600190 IEM_DS3505
ZBHH,2002-08-04 05:00,ZBHH 040500Z AUTO 25004KT 7SM 27/19 A2971 RMK T02700190 IEM_DS3505
ZBHH,2002-08-04 06:00,ZBHH 040600Z AUTO 27004KT 9SM 27/20 A2968 RMK SLP995 T02740198 57014 IEM_DS3505
ZBHH,2002-08-04 07:00,ZBHH 040700Z AUTO 24004KT 7SM 28/20 A2968 RMK T02800200 IEM_DS3505
ZBHH,2002-08-04 08:00,ZBHH 040800Z AUTO 22002KT 7SM 28/20 A2965 RMK T02800200 IEM_DS3505
ZBHH,2002-08-04 09:00,ZBHH 040900Z AUTO 20004KT 12SM 28/20 A2968 RMK SLP990 T02770198 57006 IEM_DS3505
ZBHH,2002-08-04 10:00,ZBHH 041000Z AUTO 23006KT 7SM 27/21 A2965 RMK T02700210 IEM_DS3505
ZBHH,2002-08-04 11:00,ZBHH 041100Z AUTO 31004KT 3SM 24/21 A2965 RMK T02400210 IEM_DS3505
ZBHH,2002-08-04 12:00,ZBHH 041200Z AUTO 00000KT 12SM 24/19 A2968 RMK 60003 SLP000 T02400192 52010 IEM_DS3505
ZBHH,2002-08-04 13:00,ZBHH 041300Z AUTO 10002KT 3SM 23/20 A2968 RMK T02300200 IEM_DS3505
ZBHH,2002-08-04 14:00,ZBHH 041400Z AUTO 18002KT 2SM 22/20 A2974 RMK T02200200 IEM_DS3505
ZBHH,2002-08-04 15:00,ZBHH 041500Z AUTO 00000KT 12SM 22/20 A2971 RMK SLP011 T02190204 52012 IEM_DS3505
ZBHH,2002-08-04 16:00,ZBHH 041600Z AUTO 05004KT 2 1/2SM 20/19 A2971 RMK T02000190 IEM_DS3505
ZBHH,2002-08-04 17:00,ZBHH 041700Z AUTO 02012G21KT 7SM 20/13 A2974 RMK T02000130 IEM_DS3505
ZBHH,2002-08-04 18:00,ZBHH 041800Z AUTO 10004KT 7SM 19/12 A2974 RMK T01900120 IEM_DS3505
ZBHH,2002-08-04 19:00,ZBHH 041900Z AUTO 21004KT 7SM 16/13 A2977 RMK T01600130 IEM_DS3505
ZBHH,2002-08-04 21:00,ZBHH 042100Z AUTO 00000KT 19SM 18/13 A2977 RMK 70003 SLP038 T01750128 52014 IEM_DS3505
ZBHH,2002-08-04 22:00,ZBHH 042200Z AUTO 34012KT 7SM 18/12 A2983 RMK T01800120 IEM_DS3505
ZBHH,2002-08-04 23:00,ZBHH 042300Z AUTO 35010G19KT 7SM 18/12 A2983 RMK T01800120 IEM_DS3505
ZBHH,2002-08-05 00:00,ZBHH 050000Z AUTO 02006KT 19SM 19/12 A2985 RMK 70003 SLP069 T01940123 52024 IEM_DS3505
ZBHH,2002-08-05 01:00,ZBHH 050100Z AUTO 34010KT 7SM 19/12 A2988 RMK T01900120 IEM_DS3505
ZBHH,2002-08-05 02:00,ZBHH 050200Z AUTO 32012KT 7SM 18/11 A2988 RMK T01800110 IEM_DS3505
ZBHH,2002-08-05 03:00,ZBHH 050300Z AUTO 29006KT 19SM 20/10 A2988 RMK SLP070 T02030097 57001 IEM_DS3505
ZBHH,2002-08-05 04:00,ZBHH 050400Z AUTO 34010KT 7SM 21/08 A2988 RMK T02100080 IEM_DS3505
ZBHH,2002-08-05 05:00,ZBHH 050500Z AUTO 34010KT 7SM 22/06 A2988 RMK T02200060 IEM_DS3505
ZBHH,2002-08-05 06:00,ZBHH 050600Z AUTO 32006KT 19SM 23/05 A2988 RMK SLP067 T02340048 52002 IEM_DS3505
ZBHH,2002-08-05 07:00,ZBHH 050700Z AUTO 32010KT 6SM 23/06 A2985 RMK T02300060 IEM_DS3505
ZBHH,2002-08-05 08:00,ZBHH 050800Z AUTO 35010KT 6SM 23/05 A2985 RMK T02300050 IEM_DS3505
ZBHH,2002-08-05 09:00,ZBHH 050900Z AUTO 34008KT 19SM 24/02 A2985 RMK SLP062 T02360022 57011 IEM_DS3505
ZBHH,2002-08-05 10:00,ZBHH 051000Z AUTO 36010KT 6SM 22/03 A2985 RMK T02200030 IEM_DS3505
ZBHH,2002-08-05 11:00,ZBHH 051100Z AUTO 34008KT 6SM 21/02 A2988 RMK T02100020 IEM_DS3505
ZBHH,2002-08-05 12:00,ZBHH 051200Z AUTO 00000KT 19SM 21/00 A2991 RMK SLP084 T02060001 52017 IEM_DS3505
ZBHH,2002-08-05 13:00,ZBHH 051300Z AUTO 35002KT 6SM 18/01 A2991 RMK T01800010 IEM_DS3505
ZBHH,2002-08-05 14:00,ZBHH 051400Z AUTO 36004KT 6SM 16/02 A2994 RMK T01600020 IEM_DS3505
ZBHH,2002-08-05 15:00,ZBHH 051500Z AUTO 07002KT 19SM 17/02 A2994 RMK SLP103 T01660024 52011 IEM_DS3505
ZBHH,2002-08-05 18:00,ZBHH 051800Z AUTO 00000KT 19SM 13/05 RMK SLP107 T01260053 52002 IEM_DS3505
ZBHH,2002-08-05 21:00,ZBHH 052100Z AUTO 00000KT 19SM 11/06 A2994 RMK SLP105 T01140060 57003 IEM_DS3505
ZBHH,2002-08-05 22:00,ZBHH 052200Z AUTO 32008KT 6SM 11/06 A2994 RMK T01100060 IEM_DS3505
ZBHH,2002-08-05 23:00,ZBHH 052300Z AUTO 04002KT 6SM 13/08 A2997 RMK T01300080 IEM_DS3505
ZBHH,2002-08-06 00:00,ZBHH 060000Z AUTO 00000KT 19SM 17/07 A2997 RMK SLP112 T01710066 52011 IEM_DS3505
ZBHH,2002-08-06 01:00,ZBHH 060100Z AUTO 6SM 18/08 A2997 RMK T01800080 IEM_DS3505
ZBHH,2002-08-06 02:00,ZBHH 060200Z AUTO 34006KT 7SM 19/09 A2997 RMK T01900090 IEM_DS3505
ZBHH,2002-08-06 03:00,ZBHH 060300Z AUTO 04004KT 19SM 20/06 A2997 RMK SLP116 T02020063 52002 IEM_DS3505
ZBHH,2002-08-06 04:00,ZBHH 060400Z AUTO 36006KT 7SM 21/07 A2994 RMK T02100070 IEM_DS3505
ZBHH,2002-08-06 05:00,ZBHH 060500Z AUTO 36004KT 7SM 22/08 A2994 RMK T02200080 IEM_DS3505
ZBHH,2002-08-06 06:00,ZBHH 060600Z AUTO 04008KT 19SM 23/07 A2994 RMK SLP107 T02340067 57010 IEM_DS3505
ZBHH,2002-08-06 07:00,ZBHH 060700Z AUTO 36010KT 7SM 23/08 A2994 RMK T02300080 IEM_DS3505
ZBHH,2002-08-06 08:00,ZBHH 060800Z AUTO 36010KT 7SM 22/08 A2994 RMK T02200080 IEM_DS3505
ZBHH,2002-08-06 09:00,ZBHH 060900Z AUTO 34006KT 19SM 23/07 A2994 RMK SLP111 T02320072 52001 IEM_DS3505
ZBHH,2002-08-06 10:00,ZBHH 061000Z AUTO 07006KT 7SM 21/08 A2994 RMK T02100080 IEM_DS3505
ZBHH,2002-08-06 11:00,ZBHH 061100Z AUTO 06006KT 7SM 20/09 A2997 RMK T02000090 IEM_DS3505
ZBHH,2002-08-06 12:00,ZBHH 061200Z AUTO 04004KT 19SM 21/08 A2997 RMK SLP111 T02060081 52006 IEM_DS3505
ZBHH,2002-08-06 13:00,ZBHH 061300Z AUTO 04006KT 6SM 17/09 A2997 RMK T01700090 IEM_DS3505
ZBHH,2002-08-06 14:00,ZBHH 061400Z AUTO 01004KT 6SM 16/09 A3000 RMK T01600090 IEM_DS3505
ZBHH,2002-08-06 15:00,ZBHH 061500Z AUTO 00000KT 19SM 18/10 A3000 RMK SLP126 T01750098 52013 IEM_DS3505
ZBHH,2002-08-06 16:00,ZBHH 061600Z AUTO 06006KT 6SM 13/09 A3000 RMK T01300090 IEM_DS3505
ZBHH,2002-08-06 18:00,ZBHH 061800Z AUTO 00000KT 19SM 14/10 RMK SLP129 T01390101 52002 IEM_DS3505
ZBHH,2002-08-06 21:00,ZBHH 062100Z AUTO 00000KT 19SM 14/09 A3000 RMK SLP130 T01370093 54000 IEM_DS3505
ZBHH,2002-08-06 22:00,ZBHH 062200Z AUTO 09002KT 6SM 10/08 A3000 RMK T01000080 IEM_DS3505
ZBHH,2002-08-06 23:00,ZBHH 062300Z AUTO 08004KT 6SM 13/10 A3000 RMK T01300100 IEM_DS3505
ZBHH,2002-08-07 00:00,ZBHH 070000Z AUTO 00000KT 19SM 18/09 A3000 RMK SLP128 T01820094 52002 IEM_DS3505
ZBHH,2002-08-07 01:00,ZBHH 070100Z AUTO 00000KT 6SM 19/10 A3000 RMK T01900100 IEM_DS3505
ZBHH,2002-08-07 02:00,ZBHH 070200Z AUTO 20002KT 7SM 21/09 A3000 RMK T02100090 IEM_DS3505
ZBHH,2002-08-07 03:00,ZBHH 070300Z AUTO 20006KT 19SM 22/09 A3000 RMK SLP117 T02220093 57008 IEM_DS3505
ZBHH,2002-08-07 04:00,ZBHH 070400Z AUTO 32002KT 7SM 22/09 A2997 RMK T02200090 IEM_DS3505
ZBHH,2002-08-07 05:00,ZBHH 070500Z AUTO 09004KT 7SM 23/10 A2994 RMK T02300100 IEM_DS3505
ZBHH,2002-08-07 06:00,ZBHH 070600Z AUTO 20006KT 19SM 23/11 A2994 RMK SLP104 T02340108 57016 IEM_DS3505
ZBHH,2002-08-07 07:00,ZBHH 070700Z AUTO 05004KT 7SM 23/09 A2991 RMK T02300090 IEM_DS3505
ZBHH,2002-08-07 08:00,ZBHH 070800Z AUTO 35002KT 7SM 23/09 A2991 RMK T02300090 IEM_DS3505
ZBHH,2002-08-07 09:00,ZBHH 070900Z AUTO 02002KT 19SM 24/10 A2991 RMK SLP090 T02380104 57012 IEM_DS3505
ZBHH,2002-08-07 11:00,ZBHH 071100Z AUTO 07002KT 7SM 22/11 A2991 RMK T02200110 IEM_DS3505
ZBHH,2002-08-07 12:00,ZBHH 071200Z AUTO 36002KT 16SM 21/11 A2991 RMK SLP093 T02090113 52006 IEM_DS3505
ZBHH,2002-08-07 13:00,ZBHH 071300Z AUTO 01002KT 6SM 18/11 A2994 RMK T01800110 IEM_DS3505
ZBHH,2002-08-07 14:00,ZBHH 071400Z AUTO 05002KT 6SM 18/11 A2994 RMK T01800110 IEM_DS3505
ZBHH,2002-08-07 15:00,ZBHH 071500Z AUTO 00000KT 19SM 19/11 A2994 RMK SLP099 T01920108 52009 IEM_DS3505
ZBHH,2002-08-07 16:00,ZBHH 071600Z AUTO 11004KT 6SM 18/11 A2994 RMK T01800110 IEM_DS3505
ZBHH,2002-08-07 18:00,ZBHH 071800Z AUTO 00000KT 19SM 18/11 RMK SLP096 T01760109 57003 IEM_DS3505
ZBHH,2002-08-07 21:00,ZBHH 072100Z AUTO 05002KT 6SM 14/11 A2994 RMK T01400110 IEM_DS3505
ZBHH,2002-08-07 22:00,ZBHH 072200Z AUTO 05002KT 6SM 13/10 A2994 RMK T01300100 IEM_DS3505
ZBHH,2002-08-07 23:00,ZBHH 072300Z AUTO 10002KT 6SM 16/11 A2994 RMK T01600110 IEM_DS3505
ZBHH,2002-08-08 00:00,ZBHH 080000Z AUTO 00000KT 19SM 21/11 A2994 RMK SLP097 T02100108 52005 IEM_DS3505
ZBHH,2002-08-08 01:00,ZBHH 080100Z AUTO 09006KT 7SM 21/11 A2994 RMK T02100110 IEM_DS3505
ZBHH,2002-08-08 02:00,ZBHH 080200Z AUTO 08008KT 7SM 22/10 A2994 RMK T02200100 IEM_DS3505
ZBHH,2002-08-08 03:00,ZBHH 080300Z AUTO 00000KT 19SM 22/09 A2994 RMK SLP095 T02180093 57003 IEM_DS3505
ZBHH,2002-08-08 04:00,ZBHH 080400Z AUTO 07004KT 7SM 23/11 A2994 RMK T02300110 IEM_DS3505
ZBHH,2002-08-08 05:00,ZBHH 080500Z AUTO 07002KT 7SM 24/08 A2991 RMK T02400080 IEM_DS3505
ZBHH,2002-08-08 06:00,ZBHH 080600Z AUTO 00000KT 19SM 24/09 A2991 RMK SLP081 T02400087 57011 IEM_DS3505
ZBHH,2002-08-08 07:00,ZBHH 080700Z AUTO 07006KT 7SM 25/08 A2988 RMK T02500080 IEM_DS3505
ZBHH,2002-08-08 08:00,ZBHH 080800Z AUTO 08006KT 7SM 25/10 A2988 RMK T02500100 IEM_DS3505
ZBHH,2002-08-08 09:00,ZBHH 080900Z AUTO 04002KT 19SM 25/09 A2988 RMK SLP076 T02500094 57008 IEM_DS3505
ZBHH,2002-08-08 10:00,ZBHH 081000Z AUTO 34002KT 7SM 23/12 A2988 RMK T02300120 IEM_DS3505
ZBHH,2002-08-08 11:00,ZBHH 081100Z AUTO 09004KT 7SM 22/13 A2988 RMK T02200130 IEM_DS3505
ZBHH,2002-08-08 12:00,ZBHH 081200Z AUTO 11002KT 19SM 22/11 A2988 RMK SLP077 T02220109 52007 IEM_DS3505
ZBHH,2002-08-08 13:00,ZBHH 081300Z AUTO 06002KT 7SM 19/11 A2991 RMK T01900110 IEM_DS3505
ZBHH,2002-08-08 14:00,ZBHH 081400Z AUTO 06004KT 6SM 17/12 A2994 RMK T01700120 IEM_DS3505
ZBHH,2002-08-08 15:00,ZBHH 081500Z AUTO 00000KT 19SM 20/10 A2994 RMK SLP096 T01980101 52014 IEM_DS3505
ZBHH,2002-08-08 18:00,ZBHH 081800Z AUTO 00000KT 19SM 16/11 RMK SLP100 T01620107 52001 IEM_DS3505
ZBHH,2002-08-08 21:00,ZBHH 082100Z AUTO 00000KT 19SM 13/08 A2994 RMK SLP107 T01320083 52002 IEM_DS3505
ZBHH,2002-08-08 22:00,ZBHH 082200Z AUTO 00000KT 7SM 14/09 A2997 RMK T01400090 IEM_DS3505
ZBHH,2002-08-08 23:00,ZBHH 082300Z AUTO 06004KT 6SM 17/10 A2997 RMK T01700100 IEM_DS3505
ZBHH,2002-08-09 00:00,ZBHH 090000Z AUTO 00000KT 19SM 17/09 A2997 RMK SLP108 T01730087 52004 IEM_DS3505
ZBHH,2002-08-09 01:00,ZBHH 090100Z AUTO 06004KT 6SM 19/09 A2997 RMK T01900090 IEM_DS3505
ZBHH,2002-08-09 02:00,ZBHH 090200Z AUTO 05004KT 6SM 22/09 A2997 RMK T02200090 IEM_DS3505
ZBHH,2002-08-09 03:00,ZBHH 090300Z AUTO 00000KT 19SM 23/07 A2997 RMK SLP104 T02320072 52003 IEM_DS3505
ZBHH,2002-08-09 04:00,ZBHH 090400Z AUTO 07004KT 6SM 24/06 A2997 RMK T02400060 IEM_DS3505
ZBHH,2002-08-09 05:00,ZBHH 090500Z AUTO 11006KT 6SM 25/04 A2994 RMK T02500040 IEM_DS3505
ZBHH,2002-08-09 06:00,ZBHH 090600Z AUTO 04006KT 19SM 25/06 A2991 RMK SLP089 T02520056 57017 IEM_DS3505
ZBHH,2002-08-09 07:00,ZBHH 090700Z AUTO 11004KT 6SM 25/05 A2991 RMK T02500050 IEM_DS3505
ZBHH,2002-08-09 08:00,ZBHH 090800Z AUTO 10004KT 6SM 25/06 A2988 RMK T02500060 IEM_DS3505
ZBHH,2002-08-09 09:00,ZBHH 090900Z AUTO 09006KT 19SM 25/06 A2988 RMK SLP080 T02510063 57013 IEM_DS3505
ZBHH,2002-08-09 10:00,ZBHH 091000Z AUTO 12004KT 7SM 24/06 A2988 RMK T02400060 IEM_DS3505
ZBHH,2002-08-09 11:00,ZBHH 091100Z AUTO 13002KT 6SM 22/08 A2991 RMK T02200080 IEM_DS3505
ZBHH,2002-08-09 12:00,ZBHH 091200Z AUTO 16006KT 19SM 23/07 A2991 RMK SLP089 T02320072 52012 IEM_DS3505
ZBHH,2002-08-09 13:00,ZBHH 091300Z AUTO 06004KT 6SM 19/10 A2994 RMK T01900100 IEM_DS3505
ZBHH,2002-08-09 14:00,ZBHH 091400Z AUTO 06004KT 6SM 17/09 A2994 RMK T01700090 IEM_DS3505
ZBHH,2002-08-09 15:00,ZBHH 091500Z AUTO 09002KT 6SM 16/08 A2997 RMK T01600080 IEM_DS3505
ZBHH,2002-08-09 18:00,ZBHH 091800Z AUTO 00000KT 19SM 18/08 RMK SLP103 T01790077 52004 IEM_DS3505
ZBHH,2002-08-09 21:00,ZBHH 092100Z AUTO 00000KT 19SM 13/08 A2997 RMK SLP116 T01270075 52002 IEM_DS3505
ZBHH,2002-08-09 22:00,ZBHH 092200Z AUTO 06004KT 6SM 11/06 A2997 RMK T01100060 IEM_DS3505
ZBHH,2002-08-09 23:00,ZBHH 092300Z AUTO 07004KT 6SM 14/08 A3000 RMK T01400080 IEM_DS3505
ZBHH,2002-08-10 00:00,ZBHH 100000Z AUTO 00000KT 16SM 19/08 A3000 RMK SLP115 T01940078 52008 IEM_DS3505
ZBHH,2002-08-10 01:00,ZBHH 100100Z AUTO 09006KT 6SM 20/08 A3000 RMK T02000080 IEM_DS3505
ZBHH,2002-08-10 02:00,ZBHH 100200Z AUTO 08008KT 6SM 23/08 A3003 RMK T02300080 IEM_DS3505
ZBHH,2002-08-10 03:00,ZBHH 100300Z AUTO 04004KT 19SM 24/04 A3000 RMK SLP113 T02400044 52001 IEM_DS3505
ZBHH,2002-08-10 04:00,ZBHH 100400Z AUTO 07006KT 7SM 24/05 A3000 RMK T02400050 IEM_DS3505
ZBHH,2002-08-10 05:00,ZBHH 100500Z AUTO 08004KT 7SM 25/05 A2997 RMK T02500050 IEM_DS3505
ZBHH,2002-08-10 06:00,ZBHH 100600Z AUTO 04002KT 19SM 26/05 A2997 RMK SLP103 T02580052 57010 IEM_DS3505
ZBHH,2002-08-10 07:00,ZBHH 100700Z AUTO 08002KT 7SM 25/05 A2997 RMK T02500050 IEM_DS3505
ZBHH,2002-08-10 08:00,ZBHH 100800Z AUTO 21004KT 7SM 26/06 A2994 RMK T02600060 IEM_DS3505
ZBHH,2002-08-10 09:00,ZBHH 100900Z AUTO 20004KT 19SM 26/07 A2994 RMK SLP101 T02570072 57012 IEM_DS3505
ZBHH,2002-08-10 10:00,ZBHH 101000Z AUTO 01006KT 7SM 24/06 A2994 RMK T02400060 IEM_DS3505
ZBHH,2002-08-10 12:00,ZBHH 101200Z AUTO 00000KT 19SM 22/08 A3000 RMK SLP108 T02230078 52013 IEM_DS3505
ZBHH,2002-08-10 13:00,ZBHH 101300Z AUTO 05010KT 7SM 20/06 A3000 RMK T02000060 IEM_DS3505
ZBHH,2002-08-10 14:00,ZBHH 101400Z AUTO 05008KT 7SM 19/06 A3003 RMK T01900060 IEM_DS3505
ZBHH,2002-08-10 15:00,ZBHH 101500Z AUTO 00000KT 19SM 19/08 A3003 RMK SLP127 T01940076 52020 IEM_DS3505
ZBHH,2002-08-10 18:00,ZBHH 101800Z AUTO 00000KT 19SM 16/10 RMK SLP137 T01600101 52006 IEM_DS3505
ZBHH,2002-08-10 21:00,ZBHH 102100Z AUTO 00000KT 19SM 14/08 A3009 RMK SLP149 T01420084 52007 IEM_DS3505
ZBHH,2002-08-10 22:00,ZBHH 102200Z AUTO 09004KT 6SM 10/07 A3009 RMK T01000070 IEM_DS3505
ZBHH,2002-08-10 23:00,ZBHH 102300Z AUTO 08002KT 6SM 13/09 A3009 RMK T01300090 IEM_DS3505
ZBHH,2002-08-11 00:00,ZBHH 110000Z AUTO 00000KT 19SM 18/08 RMK SLP157 T01760082 52007 IEM_DS3505
ZBHH,2002-08-11 03:00,ZBHH 110300Z AUTO 00000KT 19SM 24/09 A3009 RMK SLP148 T02400088 57002 IEM_DS3505
ZBHH,2002-08-11 04:00,ZBHH 110400Z AUTO 7SM 25/07 A3009 RMK T02500070 IEM_DS3505
ZBHH,2002-08-11 05:00,ZBHH 110500Z AUTO 7SM 26/05 A3006 RMK T02600050 IEM_DS3505
ZBHH,2002-08-11 06:00,ZBHH 110600Z AUTO 04004KT 19SM 24/06 A3006 RMK SLP140 T02450063 57012 IEM_DS3505
ZBHH,2002-08-11 07:00,ZBHH 110700Z AUTO 10002KT 7SM 26/06 A3006 RMK T02600060 IEM_DS3505
ZBHH,2002-08-11 08:00,ZBHH 110800Z AUTO 13006KT 7SM 26/05 A3003 RMK T02600050 IEM_DS3505
ZBHH,2002-08-11 09:00,ZBHH 110900Z AUTO 20004KT 19SM 25/06 A3003 RMK SLP133 T02540062 57008 IEM_DS3505
ZBHH,2002-08-11 10:00,ZBHH 111000Z AUTO 18002KT 7SM 26/05 A3003 RMK T02600050 IEM_DS3505
ZBHH,2002-08-11 11:00,ZBHH 111100Z AUTO 15002KT 7SM 24/09 A3006 RMK T02400090 IEM_DS3505
ZBHH,2002-08-11 12:00,ZBHH 111200Z AUTO 09006KT 19SM 23/08 A3006 RMK SLP142 T02290080 52010 IEM_DS3505
ZBHH,2002-08-11 13:00,ZBHH 111300Z AUTO 01006KT 7SM 18/10 A3009 RMK T01800100 IEM_DS3505
ZBHH,2002-08-11 14:00,ZBHH 111400Z AUTO 35002KT 6SM 17/09 A3009 RMK T01700090 IEM_DS3505
ZBHH,2002-08-11 15:00,ZBHH 111500Z AUTO 10004KT 6SM 14/10 A3012 RMK T01400100 IEM_DS3505
ZBHH,2002-08-11 16:00,ZBHH 111600Z AUTO 03004KT 6SM 16/08 A3012 RMK T01600080 IEM_DS3505
ZBHH,2002-08-11 18:00,ZBHH 111800Z AUTO 00000KT 19SM 15/10 RMK SLP160 T01540096 52001 IEM_DS3505
ZBHH,2002-08-11 21:00,ZBHH 112100Z AUTO 00000KT 19SM 13/09 A3009 RMK SLP159 T01260088 57004 IEM_DS3505
ZBHH,2002-08-11 22:00,ZBHH 112200Z AUTO 06004KT 6SM 11/07 A3009 RMK T01100070 IEM_DS3505
ZBHH,2002-08-11 23:00,ZBHH 112300Z AUTO 08004KT 6SM 13/09 A3009 RMK T01300090 IEM_DS3505
ZBHH,2002-08-12 00:00,ZBHH 120000Z AUTO 00000KT 16SM 18/08 A3012 RMK SLP158 T01840085 52005 IEM_DS3505
ZBHH,2002-08-12 01:00,ZBHH 120100Z AUTO 00000KT 6SM 20/10 A3012 RMK T02000100 IEM_DS3505
ZBHH,2002-08-12 02:00,ZBHH 120200Z AUTO 00000KT 6SM 22/10 A3012 RMK T02200100 IEM_DS3505
ZBHH,2002-08-12 03:00,ZBHH 120300Z AUTO 00000KT 12SM 23/10 A3012 RMK SLP154 T02340101 57005 IEM_DS3505
ZBHH,2002-08-12 04:00,ZBHH 120400Z AUTO 23002KT 7SM 25/11 A3009 RMK T02500110 IEM_DS3505
ZBHH,2002-08-12 05:00,ZBHH 120500Z AUTO 22004KT 7SM 26/10 A3006 RMK T02600100 IEM_DS3505
ZBHH,2002-08-12 06:00,ZBHH 120600Z AUTO 18006KT 12SM 26/11 A3006 RMK SLP133 T02590111 57017 IEM_DS3505
ZBHH,2002-08-12 07:00,ZBHH 120700Z AUTO 23006KT 7SM 26/10 A3003 RMK T02600100 IEM_DS3505
ZBHH,2002-08-12 08:00,ZBHH 120800Z AUTO 24008KT 7SM 26/10 A3003 RMK T02600100 IEM_DS3505
ZBHH,2002-08-12 09:00,ZBHH 120900Z AUTO 18004KT 12SM 26/12 A3003 RMK SLP127 T02570115 57011 IEM_DS3505
ZBHH,2002-08-12 10:00,ZBHH 121000Z AUTO 22006KT 7SM 25/12 A3000 RMK T02500120 IEM_DS3505
ZBHH,2002-08-12 11:00,ZBHH 121100Z AUTO 22004KT 7SM 23/12 A3003 RMK T02300120 IEM_DS3505
ZBHH,2002-08-12 12:00,ZBHH 121200Z AUTO 00000KT 16SM 24/10 A3003 RMK SLP120 T02380102 52001 IEM_DS3505
ZBHH,2002-08-12 13:00,ZBHH 121300Z AUTO 07004KT 4SM 17/12 A3003 RMK T01700120 IEM_DS3505
ZBHH,2002-08-12 14:00,ZBHH 121400Z AUTO 10004KT 5SM 17/12 A3003 RMK T01700120 IEM_DS3505
ZBHH,2002-08-12 15:00,ZBHH 121500Z AUTO 00000KT 16SM 20/12 A3006 RMK SLP129 T01960123 52010 IEM_DS3505
ZBHH,2002-08-12 16:00,ZBHH 121600Z AUTO 01002KT 6SM 16/11 A3006 RMK T01600110 IEM_DS3505
ZBHH,2002-08-12 17:00,ZBHH 121700Z AUTO 09002KT 6SM 14/11 A3003 RMK T01400110 IEM_DS3505
ZBHH,2002-08-12 18:00,ZBHH 121800Z AUTO 00000KT 12SM 16/12 RMK SLP124 T01580122 57007 IEM_DS3505
ZBHH,2002-08-12 19:00,ZBHH 121900Z AUTO 08004KT 6SM 13/10 A3003 RMK T01300100 IEM_DS3505
ZBHH,2002-08-12 20:00,ZBHH 122000Z AUTO 07004KT 6SM 13/09 A3000 RMK T01300090 IEM_DS3505
ZBHH,2002-08-12 21:00,ZBHH 122100Z AUTO 00000KT 16SM 15/11 A3000 RMK SLP122 T01480107 57004 IEM_DS3505
ZBHH,2002-08-12 22:00,ZBHH 122200Z AUTO 06004KT 6SM 12/09 A3003 RMK T01200090 IEM_DS3505
ZBHH,2002-08-12 23:00,ZBHH 122300Z AUTO 08002KT 6SM 14/11 A3003 RMK T01400110 IEM_DS3505
ZBHH,2002-08-13 00:00,ZBHH 130000Z AUTO 00000KT 12SM 18/11 A3003 RMK SLP129 T01830110 52009 IEM_DS3505
ZBHH,2002-08-13 01:00,ZBHH 130100Z AUTO 12002KT 6SM 19/11 A3003 RMK T01900110 IEM_DS3505
ZBHH,2002-08-13 02:00,ZBHH 130200Z AUTO 00000KT 6SM 21/11 A3003 RMK T02100110 IEM_DS3505
ZBHH,2002-08-13 03:00,ZBHH 130300Z AUTO 04002KT 6SM 23/11 A3003 RMK SLP124 T02300113 57003 IEM_DS3505
ZBHH,2002-08-13 04:00,ZBHH 130400Z AUTO 23002KT 6SM 25/12 A3000 RMK T02500120 IEM_DS3505
ZBHH,2002-08-13 05:00,ZBHH 130500Z AUTO 16004KT 6SM 26/12 A3000 RMK T02600120 IEM_DS3505
ZBHH,2002-08-13 06:00,ZBHH 130600Z AUTO 18004KT 6SM 27/15 A2997 RMK SLP101 T02680148 57021 IEM_DS3505
ZBHH,2002-08-13 07:00,ZBHH 130700Z AUTO 22002KT 6SM 27/12 A2994 RMK T02700120 IEM_DS3505
ZBHH,2002-08-13 08:00,ZBHH 130800Z AUTO 00000KT 6SM 27/11 A2994 RMK T02700110 IEM_DS3505
ZBHH,2002-08-13 09:00,ZBHH 130900Z AUTO 27002KT 19SM 26/08 A2991 RMK SLP092 T02620080 57011 IEM_DS3505
ZBHH,2002-08-13 10:00,ZBHH 131000Z AUTO 21002KT 6SM 26/14 A2991 RMK T02600140 IEM_DS3505
ZBHH,2002-08-13 11:00,ZBHH 131100Z AUTO 20006KT 7SM 24/10 A2994 RMK T02400100 IEM_DS3505
ZBHH,2002-08-13 12:00,ZBHH 131200Z AUTO 20004KT 12SM 24/11 A2994 RMK SLP097 T02380111 52007 IEM_DS3505
ZBHH,2002-08-13 13:00,ZBHH 131300Z AUTO 22004KT 7SM 21/10 A2997 RMK T02100100 IEM_DS3505
ZBHH,2002-08-13 14:00,ZBHH 131400Z AUTO 11002KT 6SM 20/11 A2994 RMK T02000110 IEM_DS3505
ZBHH,2002-08-13 15:00,ZBHH 131500Z AUTO 09002KT 12SM 21/10 A2997 RMK SLP096 T02120102 52003 IEM_DS3505
ZBHH,2002-08-13 16:00,ZBHH 131600Z AUTO 00000KT 18/10 A2997 RMK T01800100 IEM_DS3505
ZBHH,2002-08-13 18:00,ZBHH 131800Z AUTO 00000KT 19SM 18/11 RMK SLP091 T01800114 57004 IEM_DS3505
ZBHH,2002-08-13 21:00,ZBHH 132100Z AUTO 00000KT 19SM 15/11 A2994 RMK SLP097 T01510110 57001 IEM_DS3505
ZBHH,2002-08-13 22:00,ZBHH 132200Z AUTO 09004KT 6SM 12/09 A2994 RMK T01200090 IEM_DS3505
ZBHH,2002-08-13 23:00,ZBHH 132300Z AUTO 00000KT 6SM 15/10 A2994 RMK T01500100 IEM_DS3505
ZBHH,2002-08-14 00:00,ZBHH 140000Z AUTO 00000KT 12SM 20/11 A2994 RMK SLP095 T02050112 52004 IEM_DS3505
ZBHH,2002-08-14 01:00,ZBHH 140100Z AUTO 18002KT 6SM 20/12 A2994 RMK T02000120 IEM_DS3505
ZBHH,2002-08-14 02:00,ZBHH 140200Z AUTO 14002KT 6SM 22/12 A2994 RMK T02200120 IEM_DS3505
ZBHH,2002-08-14 03:00,ZBHH 140300Z AUTO 20006KT 16SM 25/13 A2994 RMK SLP085 T02460128 57006 IEM_DS3505
ZBHH,2002-08-14 04:00,ZBHH 140400Z AUTO 21004KT 6SM 26/12 A2991 RMK T02600120 IEM_DS3505
ZBHH,2002-08-14 05:00,ZBHH 140500Z AUTO 19004KT 7SM 27/12 A2988 RMK T02700120 IEM_DS3505
ZBHH,2002-08-14 06:00,ZBHH 140600Z AUTO 20010KT 19SM 27/14 A2988 RMK SLP071 T02660136 57015 IEM_DS3505
ZBHH,2002-08-14 07:00,ZBHH 140700Z AUTO 23004KT 7SM 29/11 A2985 RMK T02900110 IEM_DS3505
ZBHH,2002-08-14 08:00,ZBHH 140800Z AUTO 29008KT 7SM 27/12 A2985 RMK T02700120 IEM_DS3505
ZBHH,2002-08-14 09:00,ZBHH 140900Z AUTO 04002KT 19SM 29/11 A2983 RMK SLP058 T02860108 57013 IEM_DS3505
ZBHH,2002-08-14 10:00,ZBHH 141000Z AUTO 18002KT 7SM 25/11 A2983 RMK T02500110 IEM_DS3505
ZBHH,2002-08-14 11:00,ZBHH 141100Z AUTO 00000KT 7SM 24/14 A2985 RMK T02400140 IEM_DS3505
ZBHH,2002-08-14 12:00,ZBHH 141200Z AUTO 00000KT 9SM 22/13 A2985 RMK SLP067 T02170127 52005 IEM_DS3505
ZBHH,2002-08-14 13:00,ZBHH 141300Z AUTO 09002KT 6SM 19/13 A2988 RMK T01900130 IEM_DS3505
ZBHH,2002-08-14 14:00,ZBHH 141400Z AUTO 06002KT 6SM 18/11 A2988 RMK T01800110 IEM_DS3505
ZBHH,2002-08-14 15:00,ZBHH 141500Z AUTO 00000KT 16SM 18/11 A2988 RMK SLP074 T01780106 52007 IEM_DS3505
ZBHH,2002-08-14 17:00,ZBHH 141700Z AUTO 05004KT 16/10 A2991 RMK T01600100 IEM_DS3505
ZBHH,2002-08-14 18:00,ZBHH 141800Z AUTO 00000KT 19SM 17/10 A2991 RMK SLP080 T01720105 52008 IEM_DS3505
ZBHH,2002-08-14 21:00,ZBHH 142100Z AUTO 00000KT 19SM 15/11 A2991 RMK SLP084 T01480107 52003 IEM_DS3505
ZBHH,2002-08-14 22:00,ZBHH 142200Z AUTO 02002KT 6SM 13/09 A2994 RMK T01300090 IEM_DS3505
ZBHH,2002-08-14 23:00,ZBHH 142300Z AUTO 09004KT 6SM 14/11 A2994 RMK T01400110 IEM_DS3505
ZBHH,2002-08-15 00:00,ZBHH 150000Z AUTO 00000KT 12SM 20/11 A2994 RMK SLP100 T02040109 52011 IEM_DS3505
ZBHH,2002-08-15 01:00,ZBHH 150100Z AUTO 11002KT 6SM 21/11 A2994 RMK T02100110 IEM_DS3505
ZBHH,2002-08-15 03:00,ZBHH 150300Z AUTO 00000KT 16SM 25/12 A2994 RMK SLP091 T02480118 57007 IEM_DS3505
ZBHH,2002-08-15 04:00,ZBHH 150400Z AUTO 21002KT 6SM 26/12 A2991 RMK T02600120 IEM_DS3505
ZBHH,2002-08-15 05:00,ZBHH 150500Z AUTO 18002KT 6SM 28/11 A2988 RMK T02800110 IEM_DS3505
ZBHH,2002-08-15 06:00,ZBHH 150600Z AUTO 14002KT 12SM 28/12 A2988 RMK SLP063 T02820116 57019 IEM_DS3505
ZBHH,2002-08-15 07:00,ZBHH 150700Z AUTO 23004KT 7SM 29/10 A2985 RMK T02900100 IEM_DS3505
ZBHH,2002-08-15 08:00,ZBHH 150800Z AUTO 26002KT 7SM 30/10 A2983 RMK T03000100 IEM_DS3505
ZBHH,2002-08-15 09:00,ZBHH 150900Z AUTO 20004KT 16SM 29/12 A2983 RMK SLP054 T02890121 57011 IEM_DS3505
ZBHH,2002-08-15 10:00,ZBHH 151000Z AUTO 23004KT 7SM 29/11 A2983 RMK T02900110 IEM_DS3505
ZBHH,2002-08-15 11:00,ZBHH 151100Z AUTO 15008KT 7SM 25/11 A2985 RMK T02500110 IEM_DS3505
ZBHH,2002-08-15 12:00,ZBHH 151200Z AUTO 16004KT 19SM 27/10 A2988 RMK SLP063 T02700105 52014 IEM_DS3505
ZBHH,2002-08-15 13:00,ZBHH 151300Z AUTO 07006KT 7SM 21/14 A2988 RMK T02100140 IEM_DS3505
ZBHH,2002-08-15 14:00,ZBHH 151400Z AUTO 07002KT 7SM 22/13 A2991 RMK T02200130 IEM_DS3505
ZBHH,2002-08-15 15:00,ZBHH 151500Z AUTO 16002KT 12SM 23/14 A2991 RMK SLP078 T02340136 52015 IEM_DS3505
ZBHH,2002-08-15 16:00,ZBHH 151600Z AUTO 11004KT 6SM 19/14 A2991 RMK T01900140 IEM_DS3505
ZBHH,2002-08-15 18:00,ZBHH 151800Z AUTO 00000KT 12SM 20/12 RMK SLP082 T02000124 52004 IEM_DS3505
ZBHH,2002-08-15 21:00,ZBHH 152100Z AUTO 00000KT 12SM 18/13 A2994 RMK SLP085 T01760129 57001 IEM_DS3505
ZBHH,2002-08-15 22:00,ZBHH 152200Z AUTO 00000KT 3SM 14/11 A2994 RMK T01400110 IEM_DS3505
ZBHH,2002-08-15 23:00,ZBHH 152300Z AUTO 07004KT 3SM 15/12 A2997 RMK T01500120 IEM_DS3505
ZBHH,2002-08-16 00:00,ZBHH 160000Z AUTO 00000KT 12SM 21/14 A2997 RMK SLP095 T02100138 52012 IEM_DS3505
ZBHH,2002-08-16 01:00,ZBHH 160100Z AUTO 10002KT 5SM 22/13 A2997 RMK T02200130 IEM_DS3505
ZBHH,2002-08-16 02:00,ZBHH 160200Z AUTO 24002KT 6SM 24/11 A2997 RMK T02400110 IEM_DS3505
ZBHH,2002-08-16 03:00,ZBHH 160300Z AUTO 00000KT 12SM 25/11 A2997 RMK SLP093 T02470110 57002 IEM_DS3505
ZBHH,2002-08-16 04:00,ZBHH 160400Z AUTO 18002KT 6SM 26/11 A2997 RMK T02600110 IEM_DS3505
ZBHH,2002-08-16 05:00,ZBHH 160500Z AUTO 18004KT 7SM 26/10 A2994 RMK T02600100 IEM_DS3505
ZBHH,2002-08-16 06:00,ZBHH 160600Z AUTO 18006KT 16SM 28/11 A2994 RMK SLP080 T02750110 57012 IEM_DS3505
ZBHH,2002-08-16 07:00,ZBHH 160700Z AUTO 7SM 28/10 A2991 RMK T02800100 IEM_DS3505
ZBHH,2002-08-16 08:00,ZBHH 160800Z AUTO 23002KT 7SM 28/10 A2991 RMK T02800100 IEM_DS3505
ZBHH,2002-08-16 09:00,ZBHH 160900Z AUTO 20004KT 16SM 28/11 A2991 RMK SLP070 T02840109 57012 IEM_DS3505
ZBHH,2002-08-16 10:00,ZBHH 161000Z AUTO 29002KT 6SM 28/10 A2988 RMK T02800100 IEM_DS3505
ZBHH,2002-08-16 11:00,ZBHH 161100Z AUTO 00000KT 7SM 27/11 A2991 RMK T02700110 IEM_DS3505
ZBHH,2002-08-16 12:00,ZBHH 161200Z AUTO 00000KT 16SM 24/13 A2994 RMK SLP083 T02420129 52010 IEM_DS3505
ZBHH,2002-08-16 13:00,ZBHH 161300Z AUTO 03002KT 21/13 A2994 RMK T02100130 IEM_DS3505
ZBHH,2002-08-16 14:00,ZBHH 161400Z AUTO 06004KT 6SM 19/12 A2997 RMK T01900120 IEM_DS3505
ZBHH,2002-08-16 15:00,ZBHH 161500Z AUTO 00000KT 19SM 22/12 A2997 RMK SLP098 T02160124 52015 IEM_DS3505
ZBHH,2002-08-16 18:00,ZBHH 161800Z AUTO 00000KT 19SM 18/12 RMK SLP099 T01830123 54000 IEM_DS3505
ZBHH,2002-08-16 21:00,ZBHH 162100Z AUTO 00000KT 12SM 17/10 A2997 RMK SLP100 T01730100 52001 IEM_DS3505
ZBHH,2002-08-16 22:00,ZBHH 162200Z AUTO 08006KT 4SM 11/08 A3000 RMK T01100080 IEM_DS3505
ZBHH,2002-08-16 23:00,ZBHH 162300Z AUTO 06002KT 4SM 15/10 A3000 RMK T01500100 IEM_DS3505
ZBHH,2002-08-17 00:00,ZBHH 170000Z AUTO 00000KT 12SM 21/11 A3000 RMK SLP113 T02080114 52010 IEM_DS3505
ZBHH,2002-08-17 01:00,ZBHH 170100Z AUTO 13002KT 6SM 22/11 A3000 RMK T02200110 IEM_DS3505
ZBHH,2002-08-17 02:00,ZBHH 170200Z AUTO 14002KT 6SM 24/10 A3003 RMK T02400100 IEM_DS3505
ZBHH,2002-08-17 03:00,ZBHH 170300Z AUTO 14002KT 9SM 27/13 A3000 RMK SLP106 T02690131 54000 IEM_DS3505
ZBHH,2002-08-17 04:00,ZBHH 170400Z AUTO 19002KT 7SM 28/09 A3000 RMK T02800090 IEM_DS3505
ZBHH,2002-08-17 05:00,ZBHH 170500Z AUTO 7SM 30/10 A2997 RMK T03000100 IEM_DS3505
ZBHH,2002-08-17 06:00,ZBHH 170600Z AUTO 18004KT 9SM 31/12 A2994 RMK SLP083 T03110118 57018 IEM_DS3505
ZBHH,2002-08-17 07:00,ZBHH 170700Z AUTO 19006KT 7SM 31/10 A2994 RMK T03100100 IEM_DS3505
ZBHH,2002-08-17 08:00,ZBHH 170800Z AUTO 34002KT 7SM 31/09 A2994 RMK T03100090 IEM_DS3505
ZBHH,2002-08-17 09:00,ZBHH 170900Z AUTO 18002KT 12SM 31/11 A2994 RMK SLP077 T03130109 57007 IEM_DS3505
ZBHH,2002-08-17 10:00,ZBHH 171000Z AUTO 00000KT 7SM 31/08 A2994 RMK T03100080 IEM_DS3505
ZBHH,2002-08-17 11:00,ZBHH 171100Z AUTO 24004KT 7SM 27/12 A2994 RMK T02700120 IEM_DS3505
ZBHH,2002-08-17 12:00,ZBHH 171200Z AUTO 35004KT 7SM 25/09 A2994 RMK T02500090 IEM_DS3505
ZBHH,2002-08-17 13:00,ZBHH 171300Z AUTO 00000KT 6SM 24/09 A2997 RMK T02400090 IEM_DS3505
ZBHH,2002-08-17 14:00,ZBHH 171400Z AUTO 00000KT 6SM 22/08 A2997 RMK T02200080 IEM_DS3505
ZBHH,2002-08-17 15:00,ZBHH 171500Z AUTO 00000KT 16SM 22/11 A2997 RMK SLP094 T02250113 52010 IEM_DS3505
ZBHH,2002-08-17 16:00,ZBHH 171600Z AUTO 07002KT 6SM 19/09 A3000 RMK T01900090 IEM_DS3505
ZBHH,2002-08-17 18:00,ZBHH 171800Z AUTO 00000KT 16SM 21/12 A2997 RMK SLP087 T02120115 57001 IEM_DS3505
ZBHH,2002-08-17 19:00,ZBHH 171900Z AUTO 00000KT 7SM 16/10 A2997 RMK T01600100 IEM_DS3505
ZBHH,2002-08-17 20:00,ZBHH 172000Z AUTO 08004KT 7SM 16/09 A2997 RMK T01600090 IEM_DS3505
ZBHH,2002-08-17 21:00,ZBHH 172100Z AUTO 00000KT 12SM 18/12 A2997 RMK SLP093 T01820115 52001 IEM_DS3505
ZBHH,2002-08-17 22:00,ZBHH 172200Z AUTO 00000KT 6SM 16/10 A3000 RMK T01600100 IEM_DS3505
ZBHH,2002-08-17 23:00,ZBHH 172300Z AUTO 09004KT 6SM 17/10 A3000 RMK T01700100 IEM_DS3505
ZBHH,2002-08-18 00:00,ZBHH 180000Z AUTO 00000KT 19SM 22/11 A3003 RMK SLP111 T02180110 52013 IEM_DS3505
ZBHH,2002-08-18 01:00,ZBHH 180100Z AUTO 10002KT 7SM 22/11 A3003 RMK T02200110 IEM_DS3505
ZBHH,2002-08-18 02:00,ZBHH 180200Z AUTO 00000KT 6SM 26/11 A3003 RMK T02600110 IEM_DS3505
ZBHH,2002-08-18 03:00,ZBHH 180300Z AUTO 00000KT 12SM 28/11 A3003 RMK SLP110 T02800114 52004 IEM_DS3505
ZBHH,2002-08-18 04:00,ZBHH 180400Z AUTO 23004KT 6SM 28/10 A3003 RMK T02800100 IEM_DS3505
ZBHH,2002-08-18 05:00,ZBHH 180500Z AUTO 22006KT 6SM 30/10 A3000 RMK T03000100 IEM_DS3505
ZBHH,2002-08-18 06:00,ZBHH 180600Z AUTO 00000KT 12SM 30/12 A3000 RMK SLP092 T03000121 57015 IEM_DS3505
ZBHH,2002-08-18 07:00,ZBHH 180700Z AUTO 07017KT 7SM 27/07 A3003 RMK T02700070 IEM_DS3505
ZBHH,2002-08-18 08:00,ZBHH 180800Z AUTO 29002KT 7SM 27/09 A3000 RMK T02700090 IEM_DS3505
ZBHH,2002-08-18 09:00,ZBHH 180900Z AUTO 11004KT 19SM 28/10 A3000 RMK SLP102 T02820099 54000 IEM_DS3505
ZBHH,2002-08-18 10:00,ZBHH 181000Z AUTO 30002KT 7SM 26/09 A2997 RMK T02600090 IEM_DS3505
ZBHH,2002-08-18 11:00,ZBHH 181100Z AUTO 01004KT 7SM 24/10 A2997 RMK T02400100 IEM_DS3505
ZBHH,2002-08-18 12:00,ZBHH 181200Z AUTO 04004KT 16SM 25/10 A3000 RMK SLP111 T02530100 52009 IEM_DS3505
ZBHH,2002-08-18 13:00,ZBHH 181300Z AUTO 00000KT 7SM 22/11 A3006 RMK T02200110 IEM_DS3505
ZBHH,2002-08-18 14:00,ZBHH 181400Z AUTO 07004KT 7SM 20/12 A3006 RMK T02000120 IEM_DS3505
ZBHH,2002-08-18 15:00,ZBHH 181500Z AUTO 11004KT 19SM 22/12 A3009 RMK SLP123 T02190121 52016 IEM_DS3505
ZBHH,2002-08-18 18:00,ZBHH 181800Z AUTO 00000KT 19SM 19/12 RMK SLP114 T01870118 57010 IEM_DS3505
ZBHH,2002-08-18 21:00,ZBHH 182100Z AUTO 00000KT 19SM 16/12 RMK SLP120 T01640117 57002 IEM_DS3505
ZBHH,2002-08-19 00:00,ZBHH 190000Z AUTO 00000KT 12SM 19/13 RMK SLP136 T01860131 52013 IEM_DS3505
ZBHH,2002-08-19 03:00,ZBHH 190300Z AUTO 00000KT 12SM 25/13 A3006 RMK SLP128 T02480130 57002 IEM_DS3505
ZBHH,2002-08-19 04:00,ZBHH 190400Z AUTO 22002KT 6SM 26/12 A3006 RMK T02600120 IEM_DS3505
ZBHH,2002-08-19 05:00,ZBHH 190500Z AUTO 21004KT 6SM 27/10 A3003 RMK T02700100 IEM_DS3505
ZBHH,2002-08-19 06:00,ZBHH 190600Z AUTO 00000KT 12SM 29/12 RMK SLP105 T02900116 57019 IEM_DS3505
ZBHH,2002-08-19 08:00,ZBHH 190800Z AUTO 21004KT 6SM 29/12 A3000 RMK T02900120 IEM_DS3505
ZBHH,2002-08-19 09:00,ZBHH 190900Z AUTO 00000KT 12SM 30/12 A2997 RMK SLP098 T02980121 57009 IEM_DS3505
ZBHH,2002-08-19 10:00,ZBHH 191000Z AUTO 22004KT 6SM 28/12 A2997 RMK T02800120 IEM_DS3505
ZBHH,2002-08-19 11:00,ZBHH 191100Z AUTO 23002KT 6SM 27/14 A3000 RMK T02700140 IEM_DS3505
ZBHH,2002-08-19 12:00,ZBHH 191200Z AUTO 00000KT 12SM 25/15 A3000 RMK SLP110 T02520149 52006 IEM_DS3505
ZBHH,2002-08-19 13:00,ZBHH 191300Z AUTO 05004KT 21/14 A3003 RMK T02100140 IEM_DS3505
ZBHH,2002-08-19 14:00,ZBHH 191400Z AUTO 05002KT 6SM 20/13 A3003 RMK T02000130 IEM_DS3505
ZBHH,2002-08-19 15:00,ZBHH 191500Z AUTO 00000KT 12SM 21/15 A3003 RMK SLP117 T02130150 52011 IEM_DS3505
ZBHH,2002-08-19 16:00,ZBHH 191600Z AUTO 04002KT 6SM 19/12 A3003 RMK T01900120 IEM_DS3505
ZBHH,2002-08-19 18:00,ZBHH 191800Z AUTO 00000KT 12SM 19/14 RMK SLP110 T01880144 57003 IEM_DS3505
ZBHH,2002-08-19 21:00,ZBHH 192100Z AUTO 00000KT 12SM 19/13 A3003 RMK SLP111 T01880133 52002 IEM_DS3505
ZBHH,2002-08-19 22:00,ZBHH 192200Z AUTO 08004KT 4SM 15/12 A3003 RMK T01500120 IEM_DS3505
ZBHH,2002-08-19 23:00,ZBHH 192300Z AUTO 00000KT 3SM 15/12 A3006 RMK T01500120 IEM_DS3505
ZBHH,2002-08-20 00:00,ZBHH 200000Z AUTO 00000KT 12SM 20/13 A3006 RMK SLP131 T01980133 52011 IEM_DS3505
ZBHH,2002-08-20 01:00,ZBHH 200100Z AUTO 10002KT 6SM 21/14 A3006 RMK T02100140 IEM_DS3505
ZBHH,2002-08-20 02:00,ZBHH 200200Z AUTO 19002KT 6SM 23/13 A3006 RMK T02300130 IEM_DS3505
ZBHH,2002-08-20 03:00,ZBHH 200300Z AUTO 22006KT 9SM 25/13 A3006 RMK SLP129 T02480132 54000 IEM_DS3505
ZBHH,2002-08-20 04:00,ZBHH 200400Z AUTO 23006KT 3SM 25/14 A3006 RMK T02500140 IEM_DS3505
ZBHH,2002-08-20 05:00,ZBHH 200500Z AUTO 22006KT 26/14 A3003 RMK T02600140 IEM_DS3505
ZBHH,2002-08-20 06:00,ZBHH 200600Z AUTO 20006KT 6SM 27/14 RMK SLP111 T02670137 57017 IEM_DS3505
ZBHH,2002-08-20 07:00,ZBHH 200700Z AUTO 21006KT 27/14 A3000 RMK T02700140 IEM_DS3505
ZBHH,2002-08-20 08:00,ZBHH 200800Z AUTO 22008KT 26/14 A2997 RMK T02600140 IEM_DS3505
ZBHH,2002-08-20 09:00,ZBHH 200900Z AUTO 22004KT 6SM 27/14 A2997 RMK SLP095 T02680140 57014 IEM_DS3505
ZBHH,2002-08-20 10:00,ZBHH 201000Z AUTO 20002KT 26/14 A2997 RMK T02600140 IEM_DS3505
ZBHH,2002-08-20 11:00,ZBHH 201100Z AUTO 22004KT 24/14 A2997 RMK T02400140 IEM_DS3505
ZBHH,2002-08-20 12:00,ZBHH 201200Z AUTO 20004KT 12SM 24/14 A2997 RMK SLP102 T02450136 52004 IEM_DS3505
ZBHH,2002-08-20 13:00,ZBHH 201300Z AUTO 15002KT 21/14 A3000 RMK T02100140 IEM_DS3505
ZBHH,2002-08-20 14:00,ZBHH 201400Z AUTO 00000KT 3SM 19/14 A3000 RMK T01900140 IEM_DS3505
ZBHH,2002-08-20 15:00,ZBHH 201500Z AUTO 25004KT 12SM 22/13 A3000 RMK SLP100 T02180134 52003 IEM_DS3505
ZBHH,2002-08-20 16:00,ZBHH 201600Z AUTO 00000KT 3SM 18/14 A3000 RMK T01800140 IEM_DS3505
ZBHH,2002-08-20 17:00,ZBHH 201700Z AUTO 00000KT 3SM 17/13 A3000 RMK T01700130 IEM_DS3505
ZBHH,2002-08-20 18:00,ZBHH 201800Z AUTO 18004KT 19SM 20/14 A3000 RMK SLP099 T01960136 57002 IEM_DS3505
ZBHH,2002-08-20 20:00,ZBHH 202000Z AUTO 12002KT 2SM 15/13 A2997 RMK T01500130 IEM_DS3505
ZBHH,2002-08-20 21:00,ZBHH 202100Z AUTO 00000KT 12SM 19/14 A2997 RMK SLP095 T01860142 57005 IEM_DS3505
ZBHH,2002-08-20 22:00,ZBHH 202200Z AUTO 00000KT 3SM 17/14 A2997 RMK T01700140 IEM_DS3505
ZBHH,2002-08-20 23:00,ZBHH 202300Z AUTO 00000KT 2 1/2SM 18/14 A2997 RMK T01800140 IEM_DS3505
ZBHH,2002-08-21 00:00,ZBHH 210000Z AUTO 00000KT 9SM 19/14 A2997 RMK SLP100 T01890145 52001 IEM_DS3505
ZBHH,2002-08-21 01:00,ZBHH 210100Z AUTO 23002KT 3SM 19/14 A2997 RMK T01900140 IEM_DS3505
ZBHH,2002-08-21 02:00,ZBHH 210200Z AUTO 24004KT 4SM 20/15 A2994 RMK T02000150 IEM_DS3505
ZBHH,2002-08-21 03:00,ZBHH 210300Z AUTO 20006KT 16SM 22/15 A2994 RMK SLP094 T02170153 57005 IEM_DS3505
ZBHH,2002-08-21 04:00,ZBHH 210400Z AUTO 24004KT 7SM 23/15 A2991 RMK T02300150 IEM_DS3505
ZBHH,2002-08-21 05:00,ZBHH 210500Z AUTO 23006KT 7SM 25/15 A2991 RMK T02500150 IEM_DS3505
ZBHH,2002-08-21 06:00,ZBHH 210600Z AUTO 20006KT 16SM 25/15 A2988 RMK SLP066 T02510148 57023 IEM_DS3505
ZBHH,2002-08-21 07:00,ZBHH 210700Z AUTO 23008KT 7SM 26/14 A2985 RMK T02600140 IEM_DS3505
ZBHH,2002-08-21 08:00,ZBHH 210800Z AUTO 22008KT 7SM 26/14 A2983 RMK T02600140 IEM_DS3505
ZBHH,2002-08-21 09:00,ZBHH 210900Z AUTO 18010KT 16SM 26/15 A2983 RMK SLP049 T02620147 57015 IEM_DS3505
ZBHH,2002-08-21 10:00,ZBHH 211000Z AUTO 22010KT 7SM 25/14 A2983 RMK T02500140 IEM_DS3505
ZBHH,2002-08-21 11:00,ZBHH 211100Z AUTO 18002KT 6SM 24/15 A2983 RMK T02400150 IEM_DS3505
ZBHH,2002-08-21 13:00,ZBHH 211300Z AUTO 01006KT 21/15 A2988 RMK T02100150 IEM_DS3505
ZBHH,2002-08-21 15:00,ZBHH 211500Z AUTO 20004KT 19SM 21/14 A2985 RMK SLP059 T02100138 52006 IEM_DS3505
ZBHH,2002-08-21 16:00,ZBHH 211600Z AUTO 08004KT 7SM 17/14 A2985 RMK T01700140 IEM_DS3505
ZBHH,2002-08-21 17:00,ZBHH 211700Z AUTO 08002KT 7SM 16/14 A2988 RMK T01600140 IEM_DS3505
ZBHH,2002-08-21 18:00,ZBHH 211800Z AUTO 00000KT 19SM 18/15 A2988 RMK 60003 SLP069 T01800149 52010 IEM_DS3505
ZBHH,2002-08-21 19:00,ZBHH 211900Z AUTO 11004KT 7SM 15/13 A2988 RMK T01500130 IEM_DS3505
ZBHH,2002-08-21 20:00,ZBHH 212000Z AUTO 10002KT 7SM 14/12 A2988 RMK T01400120 IEM_DS3505
ZBHH,2002-08-21 21:00,ZBHH 212100Z AUTO 00000KT 19SM 17/13 A2988 RMK 70003 SLP071 T01660132 52001 IEM_DS3505
ZBHH,2002-08-21 22:00,ZBHH 212200Z AUTO 06002KT 4SM 14/12 A2988 RMK T01400120 IEM_DS3505
ZBHH,2002-08-21 23:00,ZBHH 212300Z AUTO 02002KT 4SM 16/13 A2988 RMK T01600130 IEM_DS3505
ZBHH,2002-08-22 00:00,ZBHH 220000Z AUTO 00000KT 19SM 19/14 A2988 RMK 70003 SLP077 T01910140 52007 IEM_DS3505
ZBHH,2002-08-22 01:00,ZBHH 220100Z AUTO 00000KT 21/15 A2991 RMK T02100150 IEM_DS3505
ZBHH,2002-08-22 02:00,ZBHH 220200Z AUTO 00000KT 5SM 23/16 A2991 RMK T02300160 IEM_DS3505
ZBHH,2002-08-22 03:00,ZBHH 220300Z AUTO 14002KT 6SM 25/17 A2988 RMK SLP068 T02470170 57004 IEM_DS3505
ZBHH,2002-08-22 04:00,ZBHH 220400Z AUTO 23004KT 25/17 A2988 RMK T02500170 IEM_DS3505
ZBHH,2002-08-22 05:00,ZBHH 220500Z AUTO 17002KT 6SM 27/17 A2985 RMK T02700170 IEM_DS3505
ZBHH,2002-08-22 06:00,ZBHH 220600Z AUTO 16006KT 9SM 28/17 A2983 RMK SLP049 T02830174 57016 IEM_DS3505
ZBHH,2002-08-22 07:00,ZBHH 220700Z AUTO 32002KT 4SM 22/19 A2985 RMK T02200190 IEM_DS3505
ZBHH,2002-08-22 08:00,ZBHH 220800Z AUTO 30006KT 7SM 21/17 A2985 RMK T02100170 IEM_DS3505
ZBHH,2002-08-22 09:00,ZBHH 220900Z AUTO 29008KT 12SM 19/13 A2988 RMK SLP101 T01920132 52027 IEM_DS3505
ZBHH,2002-08-22 10:00,ZBHH 221000Z AUTO 20006KT 7SM 19/14 A2988 RMK T01900140 IEM_DS3505
ZBHH,2002-08-22 11:00,ZBHH 221100Z AUTO 34004KT 7SM 19/15 A2985 RMK T01900150 IEM_DS3505
ZBHH,2002-08-22 12:00,ZBHH 221200Z AUTO 00000KT 12SM 20/14 A2985 RMK 60028 SLP066 T01990140 57025 IEM_DS3505
ZBHH,2002-08-22 13:00,ZBHH 221300Z AUTO 16006KT 6SM 17/13 A2985 RMK T01700130 IEM_DS3505
ZBHH,2002-08-22 14:00,ZBHH 221400Z AUTO 33004KT 6SM 16/14 A2988 RMK T01600140 IEM_DS3505
ZBHH,2002-08-22 15:00,ZBHH 221500Z AUTO 00000KT 12SM 18/14 A2985 RMK SLP066 T01760145 52006 IEM_DS3505
ZBHH,2002-08-22 16:00,ZBHH 221600Z AUTO 07004KT 4SM 14/12 A2988 RMK T01400120 IEM_DS3505
ZBHH,2002-08-22 17:00,ZBHH 221700Z AUTO 08002KT 6SM 14/11 A2985 RMK T01400110 IEM_DS3505
ZBHH,2002-08-22 18:00,ZBHH 221800Z AUTO 00000KT 12SM 15/13 RMK SLP068 T01530127 52004 IEM_DS3505
ZBHH,2002-08-22 21:00,ZBHH 222100Z AUTO 00000KT 9SM 14/13 RMK 70029 SLP091 T01420126 52001 IEM_DS3505
ZBHH,2002-08-22 22:00,ZBHH 222200Z AUTO 05004KT 6SM 12/09 A2988 RMK T01200090 IEM_DS3505
ZBHH,2002-08-22 23:00,ZBHH 222300Z AUTO 09002KT 6SM 13/10 A2988 RMK T01300100 IEM_DS3505
ZBHH,2002-08-23 00:00,ZBHH 230000Z AUTO 07002KT 19SM 18/12 A2991 RMK 70029 SLP091 T01840117 52009 IEM_DS3505
ZBHH,2002-08-23 01:00,ZBHH 230100Z AUTO 00000KT 6SM 22/12 A2991 RMK T02200120 IEM_DS3505
ZBHH,2002-08-23 02:00,ZBHH 230200Z AUTO 14002KT 6SM 24/12 A2991 RMK T02400120 IEM_DS3505
ZBHH,2002-08-23 03:00,ZBHH 230300Z AUTO 00000KT 19SM 25/13 A2991 RMK SLP080 T02470131 57002 IEM_DS3505
ZBHH,2002-08-23 04:00,ZBHH 230400Z AUTO 21002KT 6SM 26/13 A2988 RMK T02600130 IEM_DS3505
ZBHH,2002-08-23 05:00,ZBHH 230500Z AUTO 20004KT 6SM 27/12 A2985 RMK T02700120 IEM_DS3505
ZBHH,2002-08-23 06:00,ZBHH 230600Z AUTO 22004KT 19SM 28/14 A2985 RMK SLP059 T02840138 57016 IEM_DS3505
ZBHH,2002-08-23 07:00,ZBHH 230700Z AUTO 22006KT 6SM 29/13 A2983 RMK T02900130 IEM_DS3505
ZBHH,2002-08-23 08:00,ZBHH 230800Z AUTO 23006KT 7SM 30/12 A2983 RMK T03000120 IEM_DS3505
ZBHH,2002-08-23 09:00,ZBHH 230900Z AUTO 25004KT 19SM 29/14 RMK SLP048 T02900138 57011 IEM_DS3505
ZBHH,2002-08-23 10:00,ZBHH 231000Z AUTO 24004KT 6SM 27/16 A2980 RMK T02700160 IEM_DS3505
ZBHH,2002-08-23 11:00,ZBHH 231100Z AUTO 11004KT 7SM 24/16 A2983 RMK T02400160 IEM_DS3505
ZBHH,2002-08-23 12:00,ZBHH 231200Z AUTO 00000KT 12SM 23/17 A2983 RMK SLP058 T02290170 52006 IEM_DS3505
ZBHH,2002-08-23 13:00,ZBHH 231300Z AUTO 35004KT 21/14 A2985 RMK T02100140 IEM_DS3505
ZBHH,2002-08-23 14:00,ZBHH 231400Z AUTO 10006KT 4SM 19/14 A2985 RMK T01900140 IEM_DS3505
ZBHH,2002-08-23 15:00,ZBHH 231500Z AUTO 07004KT 12SM 22/14 A2985 RMK SLP056 T02220139 52008 IEM_DS3505
ZBHH,2002-08-23 16:00,ZBHH 231600Z AUTO 00000KT 7SM 18/13 A2985 RMK T01800130 IEM_DS3505
ZBHH,2002-08-23 17:00,ZBHH 231700Z AUTO 07002KT 7SM 17/13 A2985 RMK T01700130 IEM_DS3505
ZBHH,2002-08-23 18:00,ZBHH 231800Z AUTO 00000KT 12SM 18/12 RMK SLP057 T01830120 52001 IEM_DS3505
ZBHH,2002-08-23 19:00,ZBHH 231900Z AUTO 04004KT 7SM 16/11 A2985 RMK T01600110 IEM_DS3505
ZBHH,2002-08-23 20:00,ZBHH 232000Z AUTO 05002KT 7SM 16/11 A2985 RMK T01600110 IEM_DS3505
ZBHH,2002-08-23 21:00,ZBHH 232100Z AUTO 00000KT 19SM 17/13 A2985 RMK SLP054 T01730131 57004 IEM_DS3505
ZBHH,2002-08-23 22:00,ZBHH 232200Z AUTO 00000KT 6SM 14/09 A2985 RMK T01400090 IEM_DS3505
ZBHH,2002-08-23 23:00,ZBHH 232300Z AUTO 00000KT 6SM 15/11 A2985 RMK T01500110 IEM_DS3505
ZBHH,2002-08-24 00:00,ZBHH 240000Z AUTO 00000KT 16SM 22/12 A2988 RMK SLP069 T02160116 52010 IEM_DS3505
ZBHH,2002-08-24 01:00,ZBHH 240100Z AUTO 14002KT 6SM 24/09 A2988 RMK T02400090 IEM_DS3505
ZBHH,2002-08-24 02:00,ZBHH 240200Z AUTO 11002KT 6SM 25/10 A2988 RMK T02500100 IEM_DS3505
ZBHH,2002-08-24 03:00,ZBHH 240300Z AUTO 09002KT 19SM 27/13 A2988 RMK SLP057 T02700129 57002 IEM_DS3505
ZBHH,2002-08-24 04:00,ZBHH 240400Z AUTO 21004KT 6SM 29/10 A2985 RMK T02900100 IEM_DS3505
ZBHH,2002-08-24 05:00,ZBHH 240500Z AUTO 20004KT 6SM 30/10 A2985 RMK T03000100 IEM_DS3505
ZBHH,2002-08-24 06:00,ZBHH 240600Z AUTO 22006KT 16SM 31/12 A2983 RMK SLP041 T03090119 57014 IEM_DS3505
ZBHH,2002-08-24 07:00,ZBHH 240700Z AUTO 23004KT 6SM 32/11 A2980 RMK T03200110 IEM_DS3505
ZBHH,2002-08-24 08:00,ZBHH 240800Z AUTO 22004KT 6SM 32/10 A2980 RMK T03200100 IEM_DS3505
ZBHH,2002-08-24 09:00,ZBHH 240900Z AUTO 18006KT 16SM 32/10 A2977 RMK SLP021 T03150103 57018 IEM_DS3505
ZBHH,2002-08-24 10:00,ZBHH 241000Z AUTO 23004KT 7SM 31/11 A2977 RMK T03100110 IEM_DS3505
ZBHH,2002-08-24 11:00,ZBHH 241100Z AUTO 22002KT 7SM 29/14 A2977 RMK T02900140 IEM_DS3505
ZBHH,2002-08-24 12:00,ZBHH 241200Z AUTO 00000KT 12SM 25/14 A2980 RMK SLP031 T02520142 52005 IEM_DS3505
ZBHH,2002-08-24 13:00,ZBHH 241300Z AUTO 02006KT 7SM 25/11 A2983 RMK T02500110 IEM_DS3505
ZBHH,2002-08-24 14:00,ZBHH 241400Z AUTO 09004KT 7SM 22/11 A2983 RMK T02200110 IEM_DS3505
ZBHH,2002-08-24 15:00,ZBHH 241500Z AUTO 09002KT 12SM 25/11 A2983 RMK SLP037 T02480114 52014 IEM_DS3505
ZBHH,2002-08-24 16:00,ZBHH 241600Z AUTO 28008KT 7SM 23/10 A2988 RMK T02300100 IEM_DS3505
ZBHH,2002-08-24 17:00,ZBHH 241700Z AUTO 27012KT 7SM 21/14 A2991 RMK T02100140 IEM_DS3505
ZBHH,2002-08-24 18:00,ZBHH 241800Z AUTO 07002KT 12SM 18/15 A2988 RMK 60012 SLP062 T01850154 52018 IEM_DS3505
ZBHH,2002-08-24 19:00,ZBHH 241900Z AUTO 11004KT 7SM 17/15 A2988 RMK T01700150 IEM_DS3505
ZBHH,2002-08-24 20:00,ZBHH 242000Z AUTO 27002KT 7SM 17/15 A2988 RMK T01700150 IEM_DS3505
ZBHH,2002-08-24 21:00,ZBHH 242100Z AUTO 00000KT 9SM 17/16 A2991 RMK 70021 SLP072 T01740161 52008 IEM_DS3505
ZBHH,2002-08-24 22:00,ZBHH 242200Z AUTO 15004KT 1 1/2SM 16/15 A2994 RMK T01600150 IEM_DS3505
ZBHH,2002-08-24 23:00,ZBHH 242300Z AUTO 07006KT 2 1/2SM 16/15 A2991 RMK T01600150 IEM_DS3505
ZBHH,2002-08-25 00:00,ZBHH 250000Z AUTO 00000KT 6SM 17/16 A2991 RMK 60035 SLP082 T01680158 57004 IEM_DS3505
ZBHH,2002-08-25 01:00,ZBHH 250100Z AUTO 15004KT 4SM 17/16 A2988 RMK T01700160 IEM_DS3505
ZBHH,2002-08-25 02:00,ZBHH 250200Z AUTO 00000KT 7SM 18/15 A2991 RMK T01800150 IEM_DS3505
ZBHH,2002-08-25 03:00,ZBHH 250300Z AUTO 00000KT 9SM 19/16 A2991 RMK SLP073 T01930160 57004 IEM_DS3505
ZBHH,2002-08-25 04:00,ZBHH 250400Z AUTO 00000KT 7SM 20/15 A2988 RMK T02000150 IEM_DS3505
ZBHH,2002-08-25 05:00,ZBHH 250500Z AUTO 21002KT 6SM 19/16 A2991 RMK T01900160 IEM_DS3505
ZBHH,2002-08-25 06:00,ZBHH 250600Z AUTO 00000KT 7SM 20/16 A2988 RMK 60002 SLP085 T02010163 52001 IEM_DS3505
ZBHH,2002-08-25 07:00,ZBHH 250700Z AUTO 24004KT 7SM 22/16 A2985 RMK T02200160 IEM_DS3505
ZBHH,2002-08-25 08:00,ZBHH 250800Z AUTO 28004KT 7SM 22/15 A2985 RMK T02200150 IEM_DS3505
ZBHH,2002-08-25 09:00,ZBHH 250900Z AUTO 22002KT 12SM 22/16 A2985 RMK SLP074 T02180161 57009 IEM_DS3505
ZBHH,2002-08-25 10:00,ZBHH 251000Z AUTO 28002KT 7SM 22/15 A2985 RMK T02200150 IEM_DS3505
ZBHH,2002-08-25 11:00,ZBHH 251100Z AUTO 00000KT 7SM 21/16 A2985 RMK T02100160 IEM_DS3505
ZBHH,2002-08-25 12:00,ZBHH 251200Z AUTO 00000KT 12SM 19/17 A2988 RMK 60003 SLP083 T01900168 52002 IEM_DS3505
ZBHH,2002-08-25 13:00,ZBHH 251300Z AUTO 04002KT 3SM 17/15 A2988 RMK T01700150 IEM_DS3505
ZBHH,2002-08-25 14:00,ZBHH 251400Z AUTO 03002KT 2SM 17/15 A2988 RMK T01700150 IEM_DS3505
ZBHH,2002-08-25 15:00,ZBHH 251500Z AUTO 00000KT 12SM 18/15 A2988 RMK SLP089 T01780154 52007 IEM_DS3505
ZBHH,2002-08-25 16:00,ZBHH 251600Z AUTO 09004KT 2 1/2SM 15/14 A2988 RMK T01500140 IEM_DS3505
ZBHH,2002-08-25 17:00,ZBHH 251700Z AUTO 06004KT 2 1/2SM 15/14 A2988 RMK T01500140 IEM_DS3505
ZBHH,2002-08-25 18:00,ZBHH 251800Z AUTO 00000KT 16SM 16/15 A2988 RMK SLP087 T01620149 57003 IEM_DS3505
ZBHH,2002-08-25 19:00,ZBHH 251900Z AUTO 05002KT 2 1/2SM 14/12 A2988 RMK T01400120 IEM_DS3505
ZBHH,2002-08-25 20:00,ZBHH 252000Z AUTO 05004KT 2 1/2SM 14/12 A2985 RMK T01400120 IEM_DS3505
ZBHH,2002-08-25 21:00,ZBHH 252100Z AUTO 00000KT 12SM 14/14 A2985 RMK 70027 SLP075 T01400137 57011 IEM_DS3505
ZBHH,2002-08-25 22:00,ZBHH 252200Z AUTO 03002KT 2 1/2SM 13/12 A2985 RMK T01300120 IEM_DS3505
ZBHH,2002-08-25 23:00,ZBHH 252300Z AUTO 09002KT 2SM 13/12 A2988 RMK T01300120 IEM_DS3505
ZBHH,2002-08-26 00:00,ZBHH 260000Z AUTO 00000KT 9SM 17/14 A2988 RMK 70002 SLP085 T01670140 52008 IEM_DS3505
ZBHH,2002-08-26 01:00,ZBHH 260100Z AUTO 06004KT 6SM 17/14 A2988 RMK T01700140 IEM_DS3505
ZBHH,2002-08-26 02:00,ZBHH 260200Z AUTO 09004KT 5SM 20/15 A2988 RMK T02000150 IEM_DS3505
ZBHH,2002-08-26 03:00,ZBHH 260300Z AUTO 00000KT 12SM 22/15 A2985 RMK SLP074 T02160152 57003 IEM_DS3505
ZBHH,2002-08-26 04:00,ZBHH 260400Z AUTO 13002KT 6SM 23/16 A2985 RMK T02300160 IEM_DS3505
ZBHH,2002-08-26 05:00,ZBHH 260500Z AUTO 25002KT 6SM 24/16 A2983 RMK T02400160 IEM_DS3505
ZBHH,2002-08-26 06:00,ZBHH 260600Z AUTO 22004KT 12SM 26/16 A2980 RMK SLP046 T02600155 57019 IEM_DS3505
ZBHH,2002-08-26 07:00,ZBHH 260700Z AUTO 18004KT 6SM 27/14 A2980 RMK T02700140 IEM_DS3505
ZBHH,2002-08-26 08:00,ZBHH 260800Z AUTO 21004KT 7SM 27/14 A2977 RMK T02700140 IEM_DS3505
ZBHH,2002-08-26 09:00,ZBHH 260900Z AUTO 00000KT 12SM 28/14 RMK SLP036 T02760145 57010 IEM_DS3505
ZBHH,2002-08-26 10:00,ZBHH 261000Z AUTO 01006KT 7SM 25/15 A2980 RMK T02500150 IEM_DS3505
ZBHH,2002-08-26 11:00,ZBHH 261100Z AUTO 04004KT 7SM 23/06 A2974 RMK T02300060 IEM_DS3505
ZBHH,2002-08-26 12:00,ZBHH 261200Z AUTO 00000KT 19SM 21/12 RMK SLP043 T02120115 57001 IEM_DS3505
ZBHH,2002-08-26 13:00,ZBHH 261300Z AUTO 34006KT 6SM 17/11 A2977 RMK T01700110 IEM_DS3505
ZBHH,2002-08-26 14:00,ZBHH 261400Z AUTO 12002KT 6SM 17/09 A2980 RMK T01700090 IEM_DS3505
ZBHH,2002-08-26 15:00,ZBHH 261500Z AUTO 00000KT 19SM 18/11 A2980 RMK SLP051 T01820111 52011 IEM_DS3505
ZBHH,2002-08-26 16:00,ZBHH 261600Z AUTO 03004KT 6SM 15/09 A2980 RMK T01500090 IEM_DS3505
ZBHH,2002-08-26 18:00,ZBHH 261800Z AUTO 00000KT 19SM 16/11 RMK SLP045 T01550111 57002 IEM_DS3505
ZBHH,2002-08-26 21:00,ZBHH 262100Z AUTO 00000KT 19SM 14/11 A2980 RMK SLP042 T01370106 57003 IEM_DS3505
ZBHH,2002-08-26 22:00,ZBHH 262200Z AUTO 05002KT 6SM 11/09 A2980 RMK T01100090 IEM_DS3505
ZBHH,2002-08-26 23:00,ZBHH 262300Z AUTO 10002KT 6SM 13/10 A2980 RMK T01300100 IEM_DS3505
ZBHH,2002-08-27 00:00,ZBHH 270000Z AUTO 00000KT 16SM 18/11 A2980 RMK SLP053 T01820109 52006 IEM_DS3505
ZBHH,2002-08-27 01:00,ZBHH 270100Z AUTO 10002KT 6SM 21/12 A2980 RMK T02100120 IEM_DS3505
ZBHH,2002-08-27 02:00,ZBHH 270200Z AUTO 30002KT 6SM 23/09 A2983 RMK T02300090 IEM_DS3505
ZBHH,2002-08-27 03:00,ZBHH 270300Z AUTO 00000KT 9SM 24/10 A2983 RMK SLP048 T02430100 52001 IEM_DS3505
ZBHH,2002-08-27 04:00,ZBHH 270400Z AUTO 22002KT 6SM 25/10 A2980 RMK T02500100 IEM_DS3505
ZBHH,2002-08-27 05:00,ZBHH 270500Z AUTO 21004KT 6SM 26/09 A2980 RMK T02600090 IEM_DS3505
ZBHH,2002-08-27 06:00,ZBHH 270600Z AUTO 00000KT 12SM 28/12 A2977 RMK SLP035 T02790122 57010 IEM_DS3505
ZBHH,2002-08-27 07:00,ZBHH 270700Z AUTO 24004KT 6SM 28/12 A2977 RMK T02800120 IEM_DS3505
ZBHH,2002-08-27 08:00,ZBHH 270800Z AUTO 21004KT 6SM 28/12 A2977 RMK T02800120 IEM_DS3505
ZBHH,2002-08-27 09:00,ZBHH 270900Z AUTO 00000KT 19SM 28/12 A2977 RMK SLP029 T02840125 57007 IEM_DS3505
ZBHH,2002-08-27 10:00,ZBHH 271000Z AUTO 17002KT 6SM 28/12 A2974 RMK T02800120 IEM_DS3505
ZBHH,2002-08-27 11:00,ZBHH 271100Z AUTO 16002KT 6SM 25/16 A2974 RMK T02500160 IEM_DS3505
ZBHH,2002-08-27 12:00,ZBHH 271200Z AUTO 00000KT 6SM 24/15 A2977 RMK SLP036 T02420150 52006 IEM_DS3505
ZBHH,2002-08-27 13:00,ZBHH 271300Z AUTO 36004KT 5SM 20/14 A2977 RMK T02000140 IEM_DS3505
ZBHH,2002-08-27 14:00,ZBHH 271400Z AUTO 09002KT 6SM 18/14 A2980 RMK T01800140 IEM_DS3505
ZBHH,2002-08-27 15:00,ZBHH 271500Z AUTO 00000KT 6SM 19/13 A2980 RMK SLP039 T01860134 52004 IEM_DS3505
ZBHH,2002-08-27 16:00,ZBHH 271600Z AUTO 07004KT 6SM 16/12 A2980 RMK T01600120 IEM_DS3505
ZBHH,2002-08-27 18:00,ZBHH 271800Z AUTO 00000KT 9SM 17/13 RMK SLP037 T01660134 52001 IEM_DS3505
ZBHH,2002-08-27 21:00,ZBHH 272100Z AUTO 00000KT 12SM 17/11 A2980 RMK SLP042 T01680110 52006 IEM_DS3505
ZBHH,2002-08-27 22:00,ZBHH 272200Z AUTO 07004KT 7SM 16/08 A2983 RMK T01600080 IEM_DS3505
ZBHH,2002-08-27 23:00,ZBHH 272300Z AUTO 00000KT 6SM 14/10 A2985 RMK T01400100 IEM_DS3505
ZBHH,2002-08-28 00:00,ZBHH 280000Z AUTO 00000KT 12SM 21/11 A2985 RMK SLP064 T02090113 52019 IEM_DS3505
ZBHH,2002-08-28 01:00,ZBHH 280100Z AUTO 14004KT 6SM 23/08 A2985 RMK T02300080 IEM_DS3505
ZBHH,2002-08-28 02:00,ZBHH 280200Z AUTO 22004KT 6SM 24/09 A2988 RMK T02400090 IEM_DS3505
ZBHH,2002-08-28 03:00,ZBHH 280300Z AUTO 00000KT 12SM 26/08 A2988 RMK SLP070 T02580084 52004 IEM_DS3505
ZBHH,2002-08-28 04:00,ZBHH 280400Z AUTO 22002KT 6SM 27/07 A2988 RMK T02700070 IEM_DS3505
ZBHH,2002-08-28 05:00,ZBHH 280500Z AUTO 21006KT 28/07 A2985 RMK T02800070 IEM_DS3505
ZBHH,2002-08-28 06:00,ZBHH 280600Z AUTO 20004KT 19SM 29/07 A2985 RMK SLP061 T02880073 57006 IEM_DS3505
ZBHH,2002-08-28 07:00,ZBHH 280700Z AUTO 22008KT 7SM 29/07 A2985 RMK T02900070 IEM_DS3505
ZBHH,2002-08-28 08:00,ZBHH 280800Z AUTO 23008KT 7SM 29/07 A2985 RMK T02900070 IEM_DS3505
ZBHH,2002-08-28 09:00,ZBHH 280900Z AUTO 20006KT 19SM 29/06 A2985 RMK SLP058 T02910062 57002 IEM_DS3505
ZBHH,2002-08-28 10:00,ZBHH 281000Z AUTO 30006KT 7SM 28/01 A2985 RMK T02800010 IEM_DS3505
ZBHH,2002-08-28 11:00,ZBHH 281100Z AUTO 35002KT 7SM 25/02 A2988 RMK T02500020 IEM_DS3505
ZBHH,2002-08-28 12:00,ZBHH 281200Z AUTO 00000KT 19SM 25/M02 A2991 RMK SLP073 T02461021 52013 IEM_DS3505
ZBHH,2002-08-28 13:00,ZBHH 281300Z AUTO 02006KT 6SM 22/M05 A2994 RMK T02201050 IEM_DS3505
ZBHH,2002-08-28 14:00,ZBHH 281400Z AUTO 06004KT 6SM 19/M04 A2997 RMK T01901040 IEM_DS3505
ZBHH,2002-08-28 15:00,ZBHH 281500Z AUTO 00000KT 19SM 21/M03 A2997 RMK SLP094 T02081030 52020 IEM_DS3505
ZBHH,2002-08-28 16:00,ZBHH 281600Z AUTO 04002KT 6SM 16/M01 A3000 RMK T01601010 IEM_DS3505
ZBHH,2002-08-28 18:00,ZBHH 281800Z AUTO 00000KT 19SM 14/02 RMK SLP108 T01420017 52006 IEM_DS3505
ZBHH,2002-08-28 21:00,ZBHH 282100Z AUTO 00000KT 19SM 13/02 A3003 RMK SLP123 T01290018 52012 IEM_DS3505
ZBHH,2002-08-28 22:00,ZBHH 282200Z AUTO 07006KT 6SM 09/M01 A3003 RMK T00901010 IEM_DS3505
ZBHH,2002-08-28 23:00,ZBHH 282300Z AUTO 07004KT 6SM 09/02 A3003 RMK T00900020 IEM_DS3505
ZBHH,2002-08-29 00:00,ZBHH 290000Z AUTO 00000KT 19SM 18/03 A3006 RMK SLP132 T01750032 52008 IEM_DS3505
ZBHH,2002-08-29 01:00,ZBHH 290100Z AUTO 09004KT 6SM 19/00 A3006 RMK T01900000 IEM_DS3505
ZBHH,2002-08-29 02:00,ZBHH 290200Z AUTO 04002KT 6SM 22/M02 A3006 RMK T02201020 IEM_DS3505
ZBHH,2002-08-29 03:00,ZBHH 290300Z AUTO 09002KT 19SM 25/M01 A3003 RMK SLP122 T02521012 57002 IEM_DS3505
ZBHH,2002-08-29 04:00,ZBHH 290400Z AUTO 11002KT 6SM 26/M04 A3003 RMK T02601040 IEM_DS3505
ZBHH,2002-08-29 05:00,ZBHH 290500Z AUTO 20004KT 6SM 26/M03 A3000 RMK T02601030 IEM_DS3505
ZBHH,2002-08-29 06:00,ZBHH 290600Z AUTO 20006KT 19SM 27/M05 RMK SLP116 T02701051 57014 IEM_DS3505
ZBHH,2002-08-29 07:00,ZBHH 290700Z AUTO 24006KT 6SM 27/M02 A2997 RMK T02701020 IEM_DS3505
ZBHH,2002-08-29 08:00,ZBHH 290800Z AUTO 22006KT 6SM 27/M04 A2997 RMK T02701040 IEM_DS3505
ZBHH,2002-08-29 09:00,ZBHH 290900Z AUTO 20006KT 19SM 27/M03 A2997 RMK SLP106 T02701027 57011 IEM_DS3505
ZBHH,2002-08-29 10:00,ZBHH 291000Z AUTO 23004KT 6SM 26/M01 A2997 RMK T02601010 IEM_DS3505
ZBHH,2002-08-29 11:00,ZBHH 291100Z AUTO 21002KT 6SM 23/02 A2994 RMK T02300020 IEM_DS3505
ZBHH,2002-08-29 12:00,ZBHH 291200Z AUTO 00000KT 12SM 20/05 A2997 RMK SLP111 T02020049 54000 IEM_DS3505
ZBHH,2002-08-29 13:00,ZBHH 291300Z AUTO 05002KT 6SM 17/01 A2997 RMK T01700010 IEM_DS3505
ZBHH,2002-08-29 14:00,ZBHH 291400Z AUTO 10004KT 6SM 14/04 A2997 RMK T01400040 IEM_DS3505
ZBHH,2002-08-29 15:00,ZBHH 291500Z AUTO 00000KT 19SM 18/02 A2997 RMK SLP107 T01770024 52006 IEM_DS3505
ZBHH,2002-08-29 18:00,ZBHH 291800Z AUTO 00000KT 19SM 13/06 RMK SLP106 T01320056 57006 IEM_DS3505
ZBHH,2002-08-29 21:00,ZBHH 292100Z AUTO 00000KT 19SM 12/04 A2994 RMK SLP103 T01170044 57005 IEM_DS3505
ZBHH,2002-08-29 22:00,ZBHH 292200Z AUTO 07006KT 6SM 07/02 A2994 RMK T00700020 IEM_DS3505
ZBHH,2002-08-29 23:00,ZBHH 292300Z AUTO 06004KT 6SM 10/03 A2994 RMK T01000030 IEM_DS3505
ZBHH,2002-08-30 00:00,ZBHH 300000Z AUTO 00000KT 19SM 17/02 A2994 RMK SLP110 T01710023 52003 IEM_DS3505
ZBHH,2002-08-30 01:00,ZBHH 300100Z AUTO 05004KT 6SM 20/03 A2994 RMK T02000030 IEM_DS3505
ZBHH,2002-08-30 02:00,ZBHH 300200Z AUTO 15002KT 6SM 24/02 A2994 RMK T02400020 IEM_DS3505
ZBHH,2002-08-30 03:00,ZBHH 300300Z AUTO 00000KT 19SM 25/M01 A2994 RMK SLP089 T02521007 57008 IEM_DS3505
ZBHH,2002-08-30 04:00,ZBHH 300400Z AUTO 21004KT 6SM 26/02 A2991 RMK T02600020 IEM_DS3505
ZBHH,2002-08-30 05:00,ZBHH 300500Z AUTO 24006KT 6SM 28/04 A2988 RMK T02800040 IEM_DS3505
ZBHH,2002-08-30 06:00,ZBHH 300600Z AUTO 22004KT 19SM 29/04 A2985 RMK SLP067 T02870036 57021 IEM_DS3505
ZBHH,2002-08-30 07:00,ZBHH 300700Z AUTO 23008KT 6SM 30/05 A2983 RMK T03000050 IEM_DS3505
ZBHH,2002-08-30 08:00,ZBHH 300800Z AUTO 22008KT 6SM 30/06 A2983 RMK T03000060 IEM_DS3505
ZBHH,2002-08-30 09:00,ZBHH 300900Z AUTO 22006KT 19SM 30/06 A2980 RMK SLP048 T03020062 57017 IEM_DS3505
ZBHH,2002-08-30 10:00,ZBHH 301000Z AUTO 19002KT 6SM 29/07 A2980 RMK T02900070 IEM_DS3505
ZBHH,2002-08-30 11:00,ZBHH 301100Z AUTO 16002KT 6SM 26/09 A2980 RMK T02600090 IEM_DS3505
ZBHH,2002-08-30 12:00,ZBHH 301200Z AUTO 00000KT 19SM 24/11 A2983 RMK SLP050 T02440109 52001 IEM_DS3505
ZBHH,2002-08-30 13:00,ZBHH 301300Z AUTO 04002KT 6SM 20/09 A2983 RMK T02000090 IEM_DS3505
ZBHH,2002-08-30 14:00,ZBHH 301400Z AUTO 08004KT 6SM 17/08 A2985 RMK T01700080 IEM_DS3505
ZBHH,2002-08-30 15:00,ZBHH 301500Z AUTO 00000KT 19SM 19/10 A2985 RMK SLP056 T01870096 52010 IEM_DS3505
ZBHH,2002-08-30 16:00,ZBHH 301600Z AUTO 07004KT 6SM 16/06 A2985 RMK T01600060 IEM_DS3505
ZBHH,2002-08-30 18:00,ZBHH 301800Z AUTO 00000KT 19SM 16/08 RMK SLP052 T01630081 57002 IEM_DS3505
ZBHH,2002-08-30 21:00,ZBHH 302100Z AUTO 00000KT 19SM 14/08 A2983 RMK SLP054 T01440080 52001 IEM_DS3505
ZBHH,2002-08-30 22:00,ZBHH 302200Z AUTO 05004KT 6SM 13/06 A2985 RMK T01300060 IEM_DS3505
ZBHH,2002-08-30 23:00,ZBHH 302300Z AUTO 08004KT 6SM 13/06 A2988 RMK T01300060 IEM_DS3505
ZBHH,2002-08-31 00:00,ZBHH 310000Z AUTO 09002KT 19SM 19/08 A2988 RMK SLP070 T01940076 52013 IEM_DS3505
ZBHH,2002-08-31 01:00,ZBHH 310100Z AUTO 08006KT 6SM 23/07 A2988 RMK T02300070 IEM_DS3505
ZBHH,2002-08-31 02:00,ZBHH 310200Z AUTO 00000KT 6SM 26/08 A2988 RMK T02600080 IEM_DS3505
ZBHH,2002-08-31 03:00,ZBHH 310300Z AUTO 20004KT 12SM 27/12 A2985 RMK SLP062 T02740115 57003 IEM_DS3505
ZBHH,2002-08-31 04:00,ZBHH 310400Z AUTO 24006KT 6SM 28/13 A2985 RMK T02800130 IEM_DS3505
ZBHH,2002-08-31 05:00,ZBHH 310500Z AUTO 22004KT 6SM 29/13 A2983 RMK T02900130 IEM_DS3505
ZBHH,2002-08-31 06:00,ZBHH 310600Z AUTO 18004KT 19SM 30/14 A2983 RMK SLP040 T03040138 57018 IEM_DS3505
ZBHH,2002-08-31 07:00,ZBHH 310700Z AUTO 22006KT 6SM 31/13 A2980 RMK T03100130 IEM_DS3505
ZBHH,2002-08-31 08:00,ZBHH 310800Z AUTO 21006KT 6SM 29/12 A2977 RMK T02900120 IEM_DS3505
ZBHH,2002-08-31 09:00,ZBHH 310900Z AUTO 20008KT 19SM 29/11 A2977 RMK SLP029 T02940111 57015 IEM_DS3505
ZBHH,2002-08-31 10:00,ZBHH 311000Z AUTO 23006KT 6SM 29/12 A2977 RMK T02900120 IEM_DS3505
ZBHH,2002-08-31 11:00,ZBHH 311100Z AUTO 00000KT 6SM 26/12 A2977 RMK T02600120 IEM_DS3505
ZBHH,2002-08-31 12:00,ZBHH 311200Z AUTO 00000KT 19SM 25/16 RMK SLP034 T02520160 52006 IEM_DS3505
ZBHH,2002-08-31 13:00,ZBHH 311300Z AUTO 07002KT 21/14 A2980 RMK T02100140 IEM_DS3505
ZBHH,2002-08-31 14:00,ZBHH 311400Z AUTO 09004KT 20/13 A2980 RMK T02000130 IEM_DS3505
ZBHH,2002-08-31 15:00,ZBHH 311500Z AUTO 00000KT 12SM 21/16 A2980 RMK SLP033 T02080161 52005 IEM_DS3505
ZBHH,2002-08-31 18:00,ZBHH 311800Z AUTO 00000KT 19SM 20/15 RMK SLP023 T01960149 57005 IEM_DS3505
ZBHH,2002-08-31 21:00,ZBHH 312100Z AUTO 00000KT 19SM 17/14 A2980 RMK SLP032 T01730135 52003 IEM_DS3505
ZBHH,2002-08-31 22:00,ZBHH 312200Z AUTO 06004KT 4SM 17/11 A2980 RMK T01700110 IEM_DS3505
ZBHH,2002-08-31 23:00,ZBHH 312300Z AUTO 08004KT 4SM 16/12 A2980 RMK T01600120 IEM_DS3505
ZBHH,2002-09-01 00:00,ZBHH 010000Z AUTO 00000KT 19SM 21/14 A2983 RMK SLP046 T02110137 52011 IEM_DS3505
ZBHH,2002-09-01 01:00,ZBHH 010100Z AUTO 15002KT 6SM 24/12 A2983 RMK T02400120 IEM_DS3505
ZBHH,2002-09-01 02:00,ZBHH 010200Z AUTO 20004KT 25/12 A2985 RMK T02500120 IEM_DS3505
ZBHH,2002-09-01 03:00,ZBHH 010300Z AUTO 09002KT 19SM 27/14 A2983 RMK SLP044 T02740136 52002 IEM_DS3505
ZBHH,2002-09-01 04:00,ZBHH 010400Z AUTO 24002KT 6SM 29/13 A2983 RMK T02900130 IEM_DS3505
ZBHH,2002-09-01 05:00,ZBHH 010500Z AUTO 21006KT 6SM 30/13 A2983 RMK T03000130 IEM_DS3505
ZBHH,2002-09-01 06:00,ZBHH 010600Z AUTO 18008KT 16SM 30/13 A2983 RMK SLP030 T03050127 57009 IEM_DS3505
ZBHH,2002-09-01 07:00,ZBHH 010700Z AUTO 22010KT 6SM 31/10 A2980 RMK T03100100 IEM_DS3505
ZBHH,2002-09-01 08:00,ZBHH 010800Z AUTO 32010KT 6SM 33/02 A2980 RMK T03300020 IEM_DS3505
ZBHH,2002-09-01 09:00,ZBHH 010900Z AUTO 34002KT 16SM 32/05 A2983 RMK SLP038 T03180047 52005 IEM_DS3505
ZBHH,2002-09-01 10:00,ZBHH 011000Z AUTO 34004KT 6SM 30/04 A2983 RMK T03000040 IEM_DS3505
ZBHH,2002-09-01 11:00,ZBHH 011100Z AUTO 34004KT 6SM 27/05 A2985 RMK T02700050 IEM_DS3505
ZBHH,2002-09-01 12:00,ZBHH 011200Z AUTO 32004KT 16SM 27/06 A2988 RMK SLP059 T02730061 52018 IEM_DS3505
ZBHH,2002-09-01 13:00,ZBHH 011300Z AUTO 01006KT 6SM 24/05 A2991 RMK T02400050 IEM_DS3505
ZBHH,2002-09-01 14:00,ZBHH 011400Z AUTO 36006KT 6SM 24/04 A2991 RMK T02400040 IEM_DS3505
ZBHH,2002-09-01 15:00,ZBHH 011500Z AUTO 16002KT 19SM 24/06 A2994 RMK SLP069 T02430060 52014 IEM_DS3505
ZBHH,2002-09-01 18:00,ZBHH 011800Z AUTO 27002KT 12SM 20/04 RMK SLP086 T01960040 52013 IEM_DS3505
ZBHH,2002-09-01 21:00,ZBHH 012100Z AUTO 00000KT 12SM 18/05 A3000 RMK SLP103 T01850050 52015 IEM_DS3505
ZBHH,2002-09-01 22:00,ZBHH 012200Z AUTO 02002KT 6SM 17/03 A3006 RMK T01700030 IEM_DS3505
ZBHH,2002-09-01 23:00,ZBHH 012300Z AUTO 05004KT 6SM 17/04 A3006 RMK T01700040 IEM_DS3505
ZBHH,2002-09-02 00:00,ZBHH 020000Z AUTO 27002KT 19SM 19/05 A3009 RMK SLP138 T01880047 52023 IEM_DS3505
ZBHH,2002-09-02 01:00,ZBHH 020100Z AUTO 11004KT 6SM 18/06 A3009 RMK T01800060 IEM_DS3505
ZBHH,2002-09-02 02:00,ZBHH 020200Z AUTO 10006KT 7SM 19/02 A3009 RMK T01900020 IEM_DS3505
ZBHH,2002-09-02 03:00,ZBHH 020300Z AUTO 07002KT 19SM 20/04 A3009 RMK SLP147 T02040041 52006 IEM_DS3505
ZBHH,2002-09-02 04:00,ZBHH 020400Z AUTO 13006KT 7SM 20/03 A3015 RMK T02000030 IEM_DS3505
ZBHH,2002-09-02 05:00,ZBHH 020500Z AUTO 16006KT 7SM 18/08 A3015 RMK T01800080 IEM_DS3505
ZBHH,2002-09-02 06:00,ZBHH 020600Z AUTO 19004KT 7SM 16/10 A3015 RMK T01600100 IEM_DS3505
ZBHH,2002-09-02 07:00,ZBHH 020700Z AUTO 00000KT 7SM 15/12 A3015 RMK T01500120 IEM_DS3505
ZBHH,2002-09-02 08:00,ZBHH 020800Z AUTO 11002KT 5SM 14/11 A3015 RMK T01400110 IEM_DS3505
ZBHH,2002-09-02 09:00,ZBHH 020900Z AUTO 09004KT 12SM 14/11 A3015 RMK SLP189 T01390108 52004 IEM_DS3505
ZBHH,2002-09-02 10:00,ZBHH 021000Z AUTO 09004KT 7SM 13/11 A3015 RMK T01300110 IEM_DS3505
ZBHH,2002-09-02 11:00,ZBHH 021100Z AUTO 02004KT 7SM 13/11 A3012 RMK T01300110 IEM_DS3505
ZBHH,2002-09-02 12:00,ZBHH 021200Z AUTO 00000KT 12SM 14/11 A3018 RMK 60016 SLP190 T01420110 52002 IEM_DS3505
ZBHH,2002-09-02 13:00,ZBHH 021300Z AUTO 03002KT 7SM 13/11 A3018 RMK T01300110 IEM_DS3505
ZBHH,2002-09-02 14:00,ZBHH 021400Z AUTO 05004KT 3SM 13/11 A3018 RMK T01300110 IEM_DS3505
ZBHH,2002-09-02 15:00,ZBHH 021500Z AUTO 02002KT 19SM 14/12 A3018 RMK SLP190 T01380115 52002 IEM_DS3505
ZBHH,2002-09-02 16:00,ZBHH 021600Z AUTO 06006KT 7SM 13/09 A3018 RMK T01300090 IEM_DS3505
ZBHH,2002-09-02 17:00,ZBHH 021700Z AUTO 07008KT 7SM 13/09 A3015 RMK T01300090 IEM_DS3505
ZBHH,2002-09-02 18:00,ZBHH 021800Z AUTO 00000KT 19SM 14/10 A3015 RMK 60000 SLP191 T01400102 57004 IEM_DS3505
ZBHH,2002-09-02 19:00,ZBHH 021900Z AUTO 04004KT 7SM 12/10 A3015 RMK T01200100 IEM_DS3505
ZBHH,2002-09-02 20:00,ZBHH 022000Z AUTO 05006KT 7SM 13/09 A3015 RMK T01300090 IEM_DS3505
ZBHH,2002-09-02 21:00,ZBHH 022100Z AUTO 00000KT 19SM 13/11 A3015 RMK 70014 SLP199 T01340111 57001 IEM_DS3505
ZBHH,2002-09-02 22:00,ZBHH 022200Z AUTO 07008KT 7SM 14/09 A3018 RMK T01400090 IEM_DS3505
ZBHH,2002-09-02 23:00,ZBHH 022300Z AUTO 07008KT 7SM 14/08 A3018 RMK T01400080 IEM_DS3505
ZBHH,2002-09-03 00:00,ZBHH 030000Z AUTO 09002KT 19SM 15/10 A3018 RMK 70014 SLP204 T01520103 52008 IEM_DS3505
ZBHH,2002-09-03 01:00,ZBHH 030100Z AUTO 08008KT 7SM 16/08 A3018 RMK T01600080 IEM_DS3505
ZBHH,2002-09-03 02:00,ZBHH 030200Z AUTO 08010KT 7SM 17/08 A3018 RMK T01700080 IEM_DS3505
ZBHH,2002-09-03 03:00,ZBHH 030300Z AUTO 09004KT 19SM 18/10 A3018 RMK SLP204 T01750096 52004 IEM_DS3505
ZBHH,2002-09-03 04:00,ZBHH 030400Z AUTO 11004KT 7SM 17/11 A3018 RMK T01700110 IEM_DS3505
ZBHH,2002-09-03 05:00,ZBHH 030500Z AUTO 11006KT 7SM 18/11 A3015 RMK T01800110 IEM_DS3505
ZBHH,2002-09-03 06:00,ZBHH 030600Z AUTO 00000KT 19SM 18/12 A3012 RMK SLP181 T01820118 57019 IEM_DS3505
ZBHH,2002-09-03 07:00,ZBHH 030700Z AUTO 10004KT 7SM 18/11 A3012 RMK T01800110 IEM_DS3505
ZBHH,2002-09-03 08:00,ZBHH 030800Z AUTO 09004KT 7SM 18/11 A3009 RMK T01800110 IEM_DS3505
ZBHH,2002-09-03 09:00,ZBHH 030900Z AUTO 07004KT 19SM 19/12 A3009 RMK SLP166 T01860119 57013 IEM_DS3505
ZBHH,2002-09-03 10:00,ZBHH 031000Z AUTO 09006KT 7SM 17/11 A3009 RMK T01700110 IEM_DS3505
ZBHH,2002-09-03 11:00,ZBHH 031100Z AUTO 07006KT 7SM 16/11 A3009 RMK T01600110 IEM_DS3505
ZBHH,2002-09-03 12:00,ZBHH 031200Z AUTO 09002KT 19SM 17/12 A3012 RMK SLP174 T01710121 52007 IEM_DS3505
ZBHH,2002-09-03 13:00,ZBHH 031300Z AUTO 07010KT 7SM 16/11 A3012 RMK T01600110 IEM_DS3505
ZBHH,2002-09-03 14:00,ZBHH 031400Z AUTO 04008KT 7SM 16/11 A3012 RMK T01600110 IEM_DS3505
ZBHH,2002-09-03 15:00,ZBHH 031500Z AUTO 32004KT 19SM 15/10 A3015 RMK SLP182 T01520095 52008 IEM_DS3505
ZBHH,2002-09-03 16:00,ZBHH 031600Z AUTO 04006KT 7SM 13/11 A3015 RMK T01300110 IEM_DS3505
ZBHH,2002-09-03 17:00,ZBHH 031700Z AUTO 08006KT 7SM 12/11 A3012 RMK T01200110 IEM_DS3505
ZBHH,2002-09-03 18:00,ZBHH 031800Z AUTO 09004KT 19SM 13/10 A3012 RMK 60004 SLP179 T01340105 57005 IEM_DS3505
ZBHH,2002-09-03 19:00,ZBHH 031900Z AUTO 09008KT 7SM 12/09 A3012 RMK T01200090 IEM_DS3505
ZBHH,2002-09-03 20:00,ZBHH 032000Z AUTO 06008KT 7SM 13/09 A3012 RMK T01300090 IEM_DS3505
ZBHH,2002-09-03 21:00,ZBHH 032100Z AUTO 00000KT 16SM 13/11 A3012 RMK 70007 SLP174 T01340109 57003 IEM_DS3505
ZBHH,2002-09-03 22:00,ZBHH 032200Z AUTO 06008KT 7SM 12/09 A3012 RMK T01200090 IEM_DS3505
ZBHH,2002-09-03 23:00,ZBHH 032300Z AUTO 7SM 12/09 A3015 RMK T01200090 IEM_DS3505
ZBHH,2002-09-04 00:00,ZBHH 040000Z AUTO 09002KT 19SM 14/10 A3015 RMK 60002 70007 SLP186 T01430105 52009 IEM_DS3505
ZBHH,2002-09-04 01:00,ZBHH 040100Z AUTO 08008KT 7SM 15/09 A3015 RMK T01500090 IEM_DS3505
ZBHH,2002-09-04 02:00,ZBHH 040200Z AUTO 10008KT 7SM 15/09 A3018 RMK T01500090 IEM_DS3505
ZBHH,2002-09-04 03:00,ZBHH 040300Z AUTO 09002KT 12SM 16/10 A3018 RMK SLP197 T01640097 52010 IEM_DS3505
ZBHH,2002-09-04 04:00,ZBHH 040400Z AUTO 10008KT 7SM 16/09 A3018 RMK T01600090 IEM_DS3505
ZBHH,2002-09-04 05:00,ZBHH 040500Z AUTO 09008KT 7SM 17/09 A3015 RMK T01700090 IEM_DS3505
ZBHH,2002-09-04 06:00,ZBHH 040600Z AUTO 11002KT 16SM 18/10 A3015 RMK SLP188 T01820096 57008 IEM_DS3505
ZBHH,2002-09-04 07:00,ZBHH 040700Z AUTO 10010KT 7SM 17/08 RMK T01700080 IEM_DS3505
ZBHH,2002-09-04 08:00,ZBHH 040800Z AUTO 11012KT 7SM 18/07 A3012 RMK T01800070 IEM_DS3505
ZBHH,2002-09-04 09:00,ZBHH 040900Z AUTO 09004KT 19SM 19/08 A3012 RMK SLP180 T01940083 57004 IEM_DS3505
ZBHH,2002-09-04 10:00,ZBHH 041000Z AUTO 09008KT 7SM 18/06 A3015 RMK T01800060 IEM_DS3505
ZBHH,2002-09-04 11:00,ZBHH 041100Z AUTO 10006KT 7SM 16/06 A3015 RMK T01600060 IEM_DS3505
ZBHH,2002-09-04 12:00,ZBHH 041200Z AUTO 00000KT 19SM 16/09 A3018 RMK SLP210 T01580092 52021 IEM_DS3505
ZBHH,2002-09-04 13:00,ZBHH 041300Z AUTO 06006KT 6SM 10/06 A3021 RMK T01000060 IEM_DS3505
ZBHH,2002-09-04 14:00,ZBHH 041400Z AUTO 07004KT 6SM 10/06 A3024 RMK T01000060 IEM_DS3505
ZBHH,2002-09-04 15:00,ZBHH 041500Z AUTO 04002KT 19SM 13/07 A3024 RMK SLP227 T01280067 52013 IEM_DS3505
ZBHH,2002-09-04 18:00,ZBHH 041800Z AUTO 09002KT 19SM 09/06 RMK SLP227 T00890060 57004 IEM_DS3505
ZBHH,2002-09-04 21:00,ZBHH 042100Z AUTO 00000KT 19SM 10/04 A3021 RMK SLP217 T00960045 57005 IEM_DS3505
ZBHH,2002-09-04 22:00,ZBHH 042200Z AUTO 07004KT 6SM 03/01 A3024 RMK T00300010 IEM_DS3505
ZBHH,2002-09-04 23:00,ZBHH 042300Z AUTO 05002KT 6SM 07/04 A3024 RMK T00700040 IEM_DS3505
ZBHH,2002-09-05 00:00,ZBHH 050000Z AUTO 07006KT 19SM 15/03 A3024 RMK SLP223 T01480028 52008 IEM_DS3505
ZBHH,2002-09-05 01:00,ZBHH 050100Z AUTO 06012KT 6SM 17/02 A3024 RMK T01700020 IEM_DS3505
ZBHH,2002-09-05 02:00,ZBHH 050200Z AUTO 08010KT 6SM 18/02 A3027 RMK T01800020 IEM_DS3505
ZBHH,2002-09-05 03:00,ZBHH 050300Z AUTO 18006KT 19SM 21/00 A3024 RMK SLP216 T02060003 54000 IEM_DS3505
ZBHH,2002-09-05 04:00,ZBHH 050400Z AUTO 12012KT 6SM 21/M01 A3021 RMK T02101010 IEM_DS3505
ZBHH,2002-09-05 05:00,ZBHH 050500Z AUTO 13008KT 6SM 21/00 A3018 RMK T02100000 IEM_DS3505
ZBHH,2002-09-05 06:00,ZBHH 050600Z AUTO 18008KT 19SM 22/01 A3018 RMK SLP196 T02240007 57022 IEM_DS3505
ZBHH,2002-09-05 07:00,ZBHH 050700Z AUTO 15006KT 6SM 23/00 A3015 RMK T02300000 IEM_DS3505
ZBHH,2002-09-05 08:00,ZBHH 050800Z AUTO 16008KT 6SM 23/01 A3012 RMK T02300010 IEM_DS3505
ZBHH,2002-09-05 09:00,ZBHH 050900Z AUTO 11006KT 19SM 23/03 A3012 RMK SLP174 T02300032 57017 IEM_DS3505
ZBHH,2002-09-05 10:00,ZBHH 051000Z AUTO 16006KT 6SM 21/03 A3012 RMK T02100030 IEM_DS3505
ZBHH,2002-09-05 11:00,ZBHH 051100Z AUTO 15002KT 6SM 19/04 A3012 RMK T01900040 IEM_DS3505
ZBHH,2002-09-05 12:00,ZBHH 051200Z AUTO 16004KT 19SM 20/05 RMK SLP174 T01960051 52003 IEM_DS3505
ZBHH,2002-09-05 13:00,ZBHH 051300Z AUTO 09004KT 6SM 13/06 A3015 RMK T01300060 IEM_DS3505
ZBHH,2002-09-05 14:00,ZBHH 051400Z AUTO 07004KT 6SM 11/06 A3015 RMK T01100060 IEM_DS3505
ZBHH,2002-09-05 18:00,ZBHH 051800Z AUTO 00000KT 19SM 16/07 RMK SLP165 T01620066 57006 IEM_DS3505
ZBHH,2002-09-05 21:00,ZBHH 052100Z AUTO 07002KT 19SM 16/07 RMK SLP160 T01550068 57004 IEM_DS3505
ZBHH,2002-09-05 22:00,ZBHH 052200Z AUTO 08004KT 7SM 14/07 A3012 RMK T01400070 IEM_DS3505
ZBHH,2002-09-05 23:00,ZBHH 052300Z AUTO 00000KT 7SM 14/08 A3012 RMK T01400080 IEM_DS3505
ZBHH,2002-09-06 00:00,ZBHH 060000Z AUTO 09002KT 19SM 17/04 A3012 RMK SLP166 T01680044 52001 IEM_DS3505
ZBHH,2002-09-06 01:00,ZBHH 060100Z AUTO 08004KT 7SM 16/07 A3012 RMK T01600070 IEM_DS3505
ZBHH,2002-09-06 02:00,ZBHH 060200Z AUTO 14002KT 6SM 18/07 A3009 RMK T01800070 IEM_DS3505
ZBHH,2002-09-06 03:00,ZBHH 060300Z AUTO 00000KT 19SM 19/06 A3009 RMK SLP161 T01900055 57005 IEM_DS3505
ZBHH,2002-09-06 04:00,ZBHH 060400Z AUTO 29002KT 6SM 21/06 A3006 RMK T02100060 IEM_DS3505
ZBHH,2002-09-06 05:00,ZBHH 060500Z AUTO 24006KT 6SM 22/07 A3003 RMK T02200070 IEM_DS3505
ZBHH,2002-09-06 06:00,ZBHH 060600Z AUTO 20006KT 19SM 23/08 A3000 RMK SLP124 T02280083 57027 IEM_DS3505
ZBHH,2002-09-06 07:00,ZBHH 060700Z AUTO 25006KT 6SM 24/08 A2997 RMK T02400080 IEM_DS3505
ZBHH,2002-09-06 08:00,ZBHH 060800Z AUTO 24004KT 6SM 24/09 A2997 RMK T02400090 IEM_DS3505
ZBHH,2002-09-06 10:00,ZBHH 061000Z AUTO 24004KT 6SM 21/10 A2997 RMK T02100100 IEM_DS3505
ZBHH,2002-09-06 11:00,ZBHH 061100Z AUTO 00000KT 20/11 A2997 RMK T02000110 IEM_DS3505
ZBHH,2002-09-06 12:00,ZBHH 061200Z AUTO 00000KT 19SM 21/12 A2997 RMK SLP117 T02120119 52006 IEM_DS3505
ZBHH,2002-09-06 13:00,ZBHH 061300Z AUTO 10002KT 19/12 A3000 RMK T01900120 IEM_DS3505
ZBHH,2002-09-06 14:00,ZBHH 061400Z AUTO 14004KT 7SM 19/10 A2997 RMK T01900100 IEM_DS3505
ZBHH,2002-09-06 15:00,ZBHH 061500Z AUTO 00000KT 19SM 21/12 A3000 RMK SLP116 T02060120 52002 IEM_DS3505
ZBHH,2002-09-06 16:00,ZBHH 061600Z AUTO 13002KT 7SM 18/09 A3000 RMK T01800090 IEM_DS3505
ZBHH,2002-09-06 17:00,ZBHH 061700Z AUTO 35002KT 7SM 18/10 A3000 RMK T01800100 IEM_DS3505
ZBHH,2002-09-06 18:00,ZBHH 061800Z AUTO 00000KT 19SM 20/12 A2997 RMK SLP109 T01960119 57001 IEM_DS3505
ZBHH,2002-09-06 19:00,ZBHH 061900Z AUTO 31002KT 4SM 17/12 A2997 RMK T01700120 IEM_DS3505
ZBHH,2002-09-06 20:00,ZBHH 062000Z AUTO 00000KT 4SM 16/13 A3000 RMK T01600130 IEM_DS3505
ZBHH,2002-09-06 21:00,ZBHH 062100Z AUTO 00000KT 12SM 19/12 A3000 RMK 70001 SLP113 T01880125 52003 IEM_DS3505
ZBHH,2002-09-06 22:00,ZBHH 062200Z AUTO 00000KT 3SM 17/13 A3000 RMK T01700130 IEM_DS3505
ZBHH,2002-09-06 23:00,ZBHH 062300Z AUTO 02002KT 3SM 17/13 A3003 RMK T01700130 IEM_DS3505
ZBHH,2002-09-07 00:00,ZBHH 070000Z AUTO 00000KT 12SM 19/13 A3003 RMK 70001 SLP127 T01880127 52008 IEM_DS3505
ZBHH,2002-09-07 01:00,ZBHH 070100Z AUTO 19004KT 18/12 A3003 RMK T01800120 IEM_DS3505
ZBHH,2002-09-07 02:00,ZBHH 070200Z AUTO 21006KT 19/12 A3003 RMK T01900120 IEM_DS3505
ZBHH,2002-09-07 03:00,ZBHH 070300Z AUTO 20004KT 9SM 20/13 A3003 RMK SLP132 T01990129 52006 IEM_DS3505
ZBHH,2002-09-07 04:00,ZBHH 070400Z AUTO 25004KT 20/13 A3003 RMK T02000130 IEM_DS3505
ZBHH,2002-09-07 05:00,ZBHH 070500Z AUTO 20004KT 21/13 A3003 RMK T02100130 IEM_DS3505
ZBHH,2002-09-07 06:00,ZBHH 070600Z AUTO 18006KT 12SM 23/15 A3003 RMK SLP118 T02270147 57009 IEM_DS3505
ZBHH,2002-09-07 07:00,ZBHH 070700Z AUTO 00000KT 23/14 A3000 RMK T02300140 IEM_DS3505
ZBHH,2002-09-07 08:00,ZBHH 070800Z AUTO 19002KT 24/14 A3000 RMK T02400140 IEM_DS3505
ZBHH,2002-09-07 09:00,ZBHH 070900Z AUTO 18004KT 6SM 24/15 A3000 RMK SLP112 T02350149 57006 IEM_DS3505
ZBHH,2002-09-07 10:00,ZBHH 071000Z AUTO 21002KT 22/15 A3000 RMK T02200150 IEM_DS3505
ZBHH,2002-09-07 11:00,ZBHH 071100Z AUTO 36004KT 7SM 21/15 A3000 RMK T02100150 IEM_DS3505
ZBHH,2002-09-07 12:00,ZBHH 071200Z AUTO 00000KT 12SM 22/16 A3003 RMK SLP127 T02220161 52011 IEM_DS3505
ZBHH,2002-09-07 13:00,ZBHH 071300Z AUTO 36006KT 5SM 20/14 A3006 RMK T02000140 IEM_DS3505
ZBHH,2002-09-07 14:00,ZBHH 071400Z AUTO 36008KT 7SM 20/14 A3006 RMK T02000140 IEM_DS3505
ZBHH,2002-09-07 15:00,ZBHH 071500Z AUTO 29002KT 16SM 21/16 A3009 RMK SLP145 T02080157 52016 IEM_DS3505
ZBHH,2002-09-07 16:00,ZBHH 071600Z AUTO 05002KT 7SM 19/13 A3009 RMK T01900130 IEM_DS3505
ZBHH,2002-09-07 17:00,ZBHH 071700Z AUTO 11002KT 7SM 19/15 A3009 RMK T01900150 IEM_DS3505
ZBHH,2002-09-07 18:00,ZBHH 071800Z AUTO 11002KT 19SM 20/14 A3009 RMK SLP145 T02020143 52004 IEM_DS3505
ZBHH,2002-09-07 19:00,ZBHH 071900Z AUTO 01006KT 7SM 19/13 A3009 RMK T01900130 IEM_DS3505
ZBHH,2002-09-07 20:00,ZBHH 072000Z AUTO 01004KT 7SM 19/13 A3009 RMK T01900130 IEM_DS3505
ZBHH,2002-09-07 21:00,ZBHH 072100Z AUTO 00000KT 19SM 19/14 A3009 RMK 70000 SLP148 T01940138 52002 IEM_DS3505
ZBHH,2002-09-07 22:00,ZBHH 072200Z AUTO 06002KT 7SM 18/13 A3009 RMK T01800130 IEM_DS3505
ZBHH,2002-09-07 23:00,ZBHH 072300Z AUTO 03006KT 7SM 19/12 A3012 RMK T01900120 IEM_DS3505
ZBHH,2002-09-08 00:00,ZBHH 080000Z AUTO 00000KT 19SM 20/13 A3012 RMK 70000 SLP159 T01980133 52008 IEM_DS3505
ZBHH,2002-09-08 01:00,ZBHH 080100Z AUTO 09008KT 6SM 21/09 A3012 RMK T02100090 IEM_DS3505
ZBHH,2002-09-08 02:00,ZBHH 080200Z AUTO 11008KT 6SM 23/10 A3015 RMK T02300100 IEM_DS3505
ZBHH,2002-09-08 03:00,ZBHH 080300Z AUTO 11004KT 19SM 24/11 A3015 RMK SLP157 T02420114 52004 IEM_DS3505
ZBHH,2002-09-08 04:00,ZBHH 080400Z AUTO 14004KT 6SM 25/09 A3015 RMK T02500090 IEM_DS3505
ZBHH,2002-09-08 05:00,ZBHH 080500Z AUTO 15006KT 6SM 26/09 A3012 RMK T02600090 IEM_DS3505
ZBHH,2002-09-08 06:00,ZBHH 080600Z AUTO 04004KT 16SM 27/12 A3009 RMK SLP133 T02740119 57016 IEM_DS3505
ZBHH,2002-09-08 07:00,ZBHH 080700Z AUTO 30002KT 6SM 28/08 A3006 RMK T02800080 IEM_DS3505
ZBHH,2002-09-08 08:00,ZBHH 080800Z AUTO 27004KT 6SM 28/08 A3006 RMK T02800080 IEM_DS3505
ZBHH,2002-09-08 09:00,ZBHH 080900Z AUTO 22006KT 16SM 26/13 A3006 RMK SLP127 T02640129 57009 IEM_DS3505
ZBHH,2002-09-08 10:00,ZBHH 081000Z AUTO 22004KT 6SM 25/12 A3006 RMK T02500120 IEM_DS3505
ZBHH,2002-09-08 11:00,ZBHH 081100Z AUTO 23004KT 6SM 23/13 A3006 RMK T02300130 IEM_DS3505
ZBHH,2002-09-08 12:00,ZBHH 081200Z AUTO 20002KT 16SM 24/13 A3009 RMK SLP142 T02380129 52009 IEM_DS3505
ZBHH,2002-09-08 13:00,ZBHH 081300Z AUTO 08004KT 6SM 18/13 A3012 RMK T01800130 IEM_DS3505
ZBHH,2002-09-08 14:00,ZBHH 081400Z AUTO 08004KT 6SM 18/13 A3012 RMK T01800130 IEM_DS3505
ZBHH,2002-09-08 15:00,ZBHH 081500Z AUTO 07004KT 19SM 20/12 A3012 RMK SLP148 T02030120 52007 IEM_DS3505
ZBHH,2002-09-08 18:00,ZBHH 081800Z AUTO 00000KT 19SM 18/11 RMK SLP144 T01800110 57002 IEM_DS3505
ZBHH,2002-09-08 21:00,ZBHH 082100Z AUTO 00000KT 19SM 18/10 A3009 RMK SLP143 T01780097 57003 IEM_DS3505
ZBHH,2002-09-08 22:00,ZBHH 082200Z AUTO 09004KT 6SM 15/07 A3009 RMK T01500070 IEM_DS3505
ZBHH,2002-09-08 23:00,ZBHH 082300Z AUTO 07004KT 6SM 15/08 A3009 RMK T01500080 IEM_DS3505
ZBHH,2002-09-09 00:00,ZBHH 090000Z AUTO 00000KT 16SM 19/09 A3009 RMK SLP150 T01900089 52004 IEM_DS3505
ZBHH,2002-09-09 01:00,ZBHH 090100Z AUTO 06004KT 6SM 21/07 A3009 RMK T02100070 IEM_DS3505
ZBHH,2002-09-09 02:00,ZBHH 090200Z AUTO 11002KT 6SM 23/07 A3009 RMK T02300070 IEM_DS3505
ZBHH,2002-09-09 03:00,ZBHH 090300Z AUTO 00000KT 19SM 25/08 A3009 RMK SLP139 T02530076 57005 IEM_DS3505
ZBHH,2002-09-09 04:00,ZBHH 090400Z AUTO 22004KT 6SM 26/09 A3006 RMK T02600090 IEM_DS3505
ZBHH,2002-09-09 05:00,ZBHH 090500Z AUTO 22006KT 6SM 27/11 A3003 RMK T02700110 IEM_DS3505
ZBHH,2002-09-09 06:00,ZBHH 090600Z AUTO 20004KT 19SM 27/12 A3003 RMK SLP121 T02680115 57017 IEM_DS3505
ZBHH,2002-09-09 07:00,ZBHH 090700Z AUTO 24010KT 7SM 24/10 A3003 RMK T02400100 IEM_DS3505
ZBHH,2002-09-09 08:00,ZBHH 090800Z AUTO 32006KT 7SM 23/11 A3003 RMK T02300110 IEM_DS3505
ZBHH,2002-09-09 09:00,ZBHH 090900Z AUTO 02006KT 19SM 24/10 A3003 RMK SLP125 T02400096 57002 IEM_DS3505
ZBHH,2002-09-09 10:00,ZBHH 091000Z AUTO 07006KT 7SM 22/10 A3003 RMK T02200100 IEM_DS3505
ZBHH,2002-09-09 11:00,ZBHH 091100Z AUTO 11004KT 7SM 21/12 A3003 RMK T02100120 IEM_DS3505
ZBHH,2002-09-09 12:00,ZBHH 091200Z AUTO 36002KT 19SM 22/12 A3006 RMK SLP136 T02170125 52008 IEM_DS3505
ZBHH,2002-09-09 13:00,ZBHH 091300Z AUTO 36004KT 6SM 19/12 A3006 RMK T01900120 IEM_DS3505
ZBHH,2002-09-09 14:00,ZBHH 091400Z AUTO 01008KT 6SM 20/07 A3009 RMK T02000070 IEM_DS3505
ZBHH,2002-09-09 15:00,ZBHH 091500Z AUTO 00000KT 16SM 20/08 A3009 RMK SLP135 T02040082 52008 IEM_DS3505
ZBHH,2002-09-09 16:00,ZBHH 091600Z AUTO 34010KT 6SM 19/06 A3009 RMK T01900060 IEM_DS3505
ZBHH,2002-09-09 18:00,ZBHH 091800Z AUTO 00000KT 9SM 16/11 RMK 60002 SLP149 T01640111 52008 IEM_DS3505
ZBHH,2002-09-09 21:00,ZBHH 092100Z AUTO 00000KT 19SM 14/12 A3012 RMK 70012 SLP169 T01450121 52009 IEM_DS3505
ZBHH,2002-09-09 22:00,ZBHH 092200Z AUTO 09004KT 7SM 13/12 A3012 RMK T01300120 IEM_DS3505
ZBHH,2002-09-09 23:00,ZBHH 092300Z AUTO 08006KT 7SM 13/11 A3015 RMK T01300110 IEM_DS3505
ZBHH,2002-09-10 00:00,ZBHH 100000Z AUTO 00000KT 16SM 15/12 A3015 RMK 60012 70014 SLP179 T01480118 52005 IEM_DS3505
ZBHH,2002-09-10 01:00,ZBHH 100100Z AUTO 10004KT 7SM 15/08 A3015 RMK T01500080 IEM_DS3505
ZBHH,2002-09-10 02:00,ZBHH 100200Z AUTO 09004KT 7SM 16/06 A3015 RMK T01600060 IEM_DS3505
ZBHH,2002-09-10 03:00,ZBHH 100300Z AUTO 04002KT 19SM 18/06 A3015 RMK SLP172 T01800061 57003 IEM_DS3505
ZBHH,2002-09-10 04:00,ZBHH 100400Z AUTO 09012KT 7SM 17/05 A3012 RMK T01700050 IEM_DS3505
ZBHH,2002-09-10 05:00,ZBHH 100500Z AUTO 09010KT 7SM 17/06 A3009 RMK T01700060 IEM_DS3505
ZBHH,2002-09-10 06:00,ZBHH 100600Z AUTO 04002KT 19SM 18/07 A3009 RMK 60000 SLP163 T01750066 57016 IEM_DS3505
ZBHH,2002-09-10 07:00,ZBHH 100700Z AUTO 08008KT 7SM 17/05 A3009 RMK T01700050 IEM_DS3505
ZBHH,2002-09-10 08:00,ZBHH 100800Z AUTO 07010KT 7SM 16/05 A3006 RMK T01600050 IEM_DS3505
ZBHH,2002-09-10 09:00,ZBHH 100900Z AUTO 09002KT 19SM 17/06 A3006 RMK SLP162 T01700060 57006 IEM_DS3505
ZBHH,2002-09-10 10:00,ZBHH 101000Z AUTO 05008KT 7SM 15/07 A3009 RMK T01500070 IEM_DS3505
ZBHH,2002-09-10 11:00,ZBHH 101100Z AUTO 04004KT 7SM 15/09 A3009 RMK T01500090 IEM_DS3505
ZBHH,2002-09-10 12:00,ZBHH 101200Z AUTO 04006KT 16SM 16/09 A3009 RMK SLP168 T01610089 52004 IEM_DS3505
ZBHH,2002-09-10 13:00,ZBHH 101300Z AUTO 06004KT 7SM 14/10 A3009 RMK T01400100 IEM_DS3505
ZBHH,2002-09-10 14:00,ZBHH 101400Z AUTO 06006KT 7SM 12/09 A3012 RMK T01200090 IEM_DS3505
ZBHH,2002-09-10 15:00,ZBHH 101500Z AUTO 09002KT 12SM 14/12 A3012 RMK SLP176 T01370118 52009 IEM_DS3505
ZBHH,2002-09-10 16:00,ZBHH 101600Z AUTO 07008KT 7SM 11/09 A3012 RMK T01100090 IEM_DS3505
ZBHH,2002-09-10 17:00,ZBHH 101700Z AUTO 06006KT 7SM 11/09 A3012 RMK T01100090 IEM_DS3505
ZBHH,2002-09-10 18:00,ZBHH 101800Z AUTO 09002KT 12SM 12/10 A3009 RMK 60012 SLP177 T01180096 57004 IEM_DS3505
ZBHH,2002-09-10 19:00,ZBHH 101900Z AUTO 08010KT 7SM 11/08 A3009 RMK T01100080 IEM_DS3505
ZBHH,2002-09-10 20:00,ZBHH 102000Z AUTO 06004KT 7SM 11/09 A3009 RMK T01100090 IEM_DS3505
ZBHH,2002-09-10 21:00,ZBHH 102100Z AUTO 00000KT 12SM 12/09 A3009 RMK 70017 SLP176 T01200094 57001 IEM_DS3505
ZBHH,2002-09-10 22:00,ZBHH 102200Z AUTO 04002KT 4SM 10/08 A3009 RMK T01000080 IEM_DS3505
ZBHH,2002-09-10 23:00,ZBHH 102300Z AUTO 00000KT 4SM 10/09 A3012 RMK T01000090 IEM_DS3505
ZBHH,2002-09-11 00:00,ZBHH 110000Z AUTO 00000KT 12SM 11/09 A3015 RMK 60024 70033 SLP202 T01100091 52019 IEM_DS3505
ZBHH,2002-09-11 01:00,ZBHH 110100Z AUTO 06004KT 7SM 10/08 A3015 RMK T01000080 IEM_DS3505
ZBHH,2002-09-11 02:00,ZBHH 110200Z AUTO 00000KT 7SM 10/08 A3018 RMK T01000080 IEM_DS3505
ZBHH,2002-09-11 03:00,ZBHH 110300Z AUTO 14002KT 16SM 12/08 A3018 RMK SLP217 T01210081 52011 IEM_DS3505
ZBHH,2002-09-11 04:00,ZBHH 110400Z AUTO 08016KT 7SM 11/05 A3021 RMK T01100050 IEM_DS3505
ZBHH,2002-09-11 05:00,ZBHH 110500Z AUTO 09010KT 7SM 12/05 A3021 RMK T01200050 IEM_DS3505
ZBHH,2002-09-11 06:00,ZBHH 110600Z AUTO 09006KT 16SM 13/06 A3018 RMK 60012 SLP219 T01320058 54000 IEM_DS3505
ZBHH,2002-09-11 07:00,ZBHH 110700Z AUTO 08008KT 7SM 12/05 A3021 RMK T01200050 IEM_DS3505
ZBHH,2002-09-11 08:00,ZBHH 110800Z AUTO 09008KT 7SM 13/06 A3021 RMK T01300060 IEM_DS3505
ZBHH,2002-09-11 09:00,ZBHH 110900Z AUTO 09002KT 16SM 14/07 A3021 RMK SLP223 T01400066 52005 IEM_DS3505
ZBHH,2002-09-11 10:00,ZBHH 111000Z AUTO 10004KT 7SM 13/06 A3024 RMK T01300060 IEM_DS3505
ZBHH,2002-09-11 11:00,ZBHH 111100Z AUTO 00000KT 7SM 12/07 A3024 RMK T01200070 IEM_DS3505
ZBHH,2002-09-11 12:00,ZBHH 111200Z AUTO 00000KT 16SM 12/06 A3027 RMK 60000 SLP247 T01230065 52016 IEM_DS3505
ZBHH,2002-09-11 13:00,ZBHH 111300Z AUTO 04004KT 7SM 09/06 A3030 RMK T00900060 IEM_DS3505
ZBHH,2002-09-11 14:00,ZBHH 111400Z AUTO 08004KT 7SM 08/05 A3030 RMK T00800050 IEM_DS3505
ZBHH,2002-09-11 15:00,ZBHH 111500Z AUTO 00000KT 16SM 10/08 A3030 RMK SLP261 T00990075 52010 IEM_DS3505
ZBHH,2002-09-11 16:00,ZBHH 111600Z AUTO 35002KT 7SM 07/05 A3030 RMK T00700050 IEM_DS3505
ZBHH,2002-09-11 17:00,ZBHH 111700Z AUTO 11002KT 7SM 06/04 A3030 RMK T00600040 IEM_DS3505
ZBHH,2002-09-11 18:00,ZBHH 111800Z AUTO 00000KT 16SM 09/07 RMK SLP259 T00920066 57001 IEM_DS3505
ZBHH,2002-09-11 19:00,ZBHH 111900Z AUTO 00000KT 7SM 06/04 A3030 RMK T00600040 IEM_DS3505
ZBHH,2002-09-11 20:00,ZBHH 112000Z AUTO 03002KT 7SM 07/05 A3030 RMK T00700050 IEM_DS3505
ZBHH,2002-09-11 21:00,ZBHH 112100Z AUTO 00000KT 19SM 09/07 A3030 RMK 70032 SLP257 T00930071 54000 IEM_DS3505
ZBHH,2002-09-11 22:00,ZBHH 112200Z AUTO 00000KT 7SM 07/05 A3030 RMK T00700050 IEM_DS3505
ZBHH,2002-09-11 23:00,ZBHH 112300Z AUTO 00000KT 7SM 07/06 A3030 RMK T00700060 IEM_DS3505
ZBHH,2002-09-12 00:00,ZBHH 120000Z AUTO 00000KT 16SM 11/07 A3030 RMK 70013 SLP265 T01120066 52007 IEM_DS3505
ZBHH,2002-09-12 01:00,ZBHH 120100Z AUTO 00000KT 7SM 11/07 A3030 RMK T01100070 IEM_DS3505
ZBHH,2002-09-12 02:00,ZBHH 120200Z AUTO 00000KT 7SM 13/07 A3033 RMK T01300070 IEM_DS3505
ZBHH,2002-09-12 03:00,ZBHH 120300Z AUTO 00000KT 16SM 16/05 A3030 RMK SLP259 T01620050 54000 IEM_DS3505
ZBHH,2002-09-12 04:00,ZBHH 120400Z AUTO 17002KT 7SM 18/03 A3030 RMK T01800030 IEM_DS3505
ZBHH,2002-09-12 05:00,ZBHH 120500Z AUTO 09014KT 6SM 18/M02 A3030 RMK T01801020 IEM_DS3505
ZBHH,2002-09-12 06:00,ZBHH 120600Z AUTO 14006KT 19SM 19/M01 A3030 RMK SLP250 T01871006 57004 IEM_DS3505
ZBHH,2002-09-12 07:00,ZBHH 120700Z AUTO 07010KT 6SM 18/00 A3030 RMK T01800000 IEM_DS3505
ZBHH,2002-09-12 08:00,ZBHH 120800Z AUTO 09006KT 6SM 17/02 A3030 RMK T01700020 IEM_DS3505
ZBHH,2002-09-12 09:00,ZBHH 120900Z AUTO 07006KT 19SM 18/02 A3027 RMK SLP246 T01760021 57006 IEM_DS3505
ZBHH,2002-09-12 10:00,ZBHH 121000Z AUTO 06002KT 6SM 16/06 A3027 RMK T01600060 IEM_DS3505
ZBHH,2002-09-12 11:00,ZBHH 121100Z AUTO 07002KT 6SM 14/07 A3030 RMK T01400070 IEM_DS3505
ZBHH,2002-09-12 12:00,ZBHH 121200Z AUTO 00000KT 19SM 15/04 A3030 RMK SLP253 T01480041 52005 IEM_DS3505
ZBHH,2002-09-12 13:00,ZBHH 121300Z AUTO 36002KT 6SM 10/04 A3033 RMK T01000040 IEM_DS3505
ZBHH,2002-09-12 14:00,ZBHH 121400Z AUTO 00000KT 6SM 08/04 A3033 RMK T00800040 IEM_DS3505
ZBHH,2002-09-12 15:00,ZBHH 121500Z AUTO 00000KT 19SM 10/05 A3033 RMK SLP260 T01000052 52006 IEM_DS3505
ZBHH,2002-09-12 16:00,ZBHH 121600Z AUTO 00000KT 6SM 07/03 A3033 RMK T00700030 IEM_DS3505
ZBHH,2002-09-12 17:00,ZBHH 121700Z AUTO 00000KT 6SM 06/03 A3033 RMK T00600030 IEM_DS3505
ZBHH,2002-09-12 18:00,ZBHH 121800Z AUTO 00000KT 19SM 09/04 A3030 RMK SLP253 T00880036 57003 IEM_DS3505
ZBHH,2002-09-12 21:00,ZBHH 122100Z AUTO 00000KT 19SM 06/04 A3030 RMK SLP258 T00640042 57003 IEM_DS3505
ZBHH,2002-09-12 22:00,ZBHH 122200Z AUTO 00000KT 6SM 03/01 A3030 RMK T00300010 IEM_DS3505
ZBHH,2002-09-12 23:00,ZBHH 122300Z AUTO 00000KT 6SM 05/02 A3030 RMK T00500020 IEM_DS3505
ZBHH,2002-09-13 00:00,ZBHH 130000Z AUTO 00000KT 19SM 12/02 A3030 RMK SLP257 T01150023 52004 IEM_DS3505
ZBHH,2002-09-13 01:00,ZBHH 130100Z AUTO 00000KT 6SM 14/04 A3030 RMK T01400040 IEM_DS3505
ZBHH,2002-09-13 02:00,ZBHH 130200Z AUTO 07006KT 6SM 17/00 A3030 RMK T01700000 IEM_DS3505
ZBHH,2002-09-13 03:00,ZBHH 130300Z AUTO 14004KT 19SM 19/M00 A3030 RMK SLP242 T01871002 57009 IEM_DS3505
ZBHH,2002-09-13 04:00,ZBHH 130400Z AUTO 08006KT 6SM 19/M02 A3027 RMK T01901020 IEM_DS3505
ZBHH,2002-09-13 05:00,ZBHH 130500Z AUTO 09008KT 6SM 20/M01 A3024 RMK T02001010 IEM_DS3505
ZBHH,2002-09-13 06:00,ZBHH 130600Z AUTO 09002KT 19SM 21/M01 A3021 RMK SLP217 T02071006 57020 IEM_DS3505
ZBHH,2002-09-13 07:00,ZBHH 130700Z AUTO 11004KT 6SM 21/M01 A3021 RMK T02101010 IEM_DS3505
ZBHH,2002-09-13 08:00,ZBHH 130800Z AUTO 11006KT 6SM 20/M02 A3018 RMK T02001020 IEM_DS3505
ZBHH,2002-09-13 09:00,ZBHH 130900Z AUTO 18002KT 19SM 21/00 A3018 RMK SLP207 T02080004 57013 IEM_DS3505
ZBHH,2002-09-13 10:00,ZBHH 131000Z AUTO 09004KT 6SM 18/00 A3018 RMK T01800000 IEM_DS3505
ZBHH,2002-09-13 11:00,ZBHH 131100Z AUTO 07004KT 6SM 15/00 A3018 RMK T01500000 IEM_DS3505
ZBHH,2002-09-13 12:00,ZBHH 131200Z AUTO 00000KT 19SM 16/06 A3021 RMK SLP213 T01610062 52006 IEM_DS3505
ZBHH,2002-09-13 13:00,ZBHH 131300Z AUTO 06004KT 6SM 10/03 A3021 RMK T01000030 IEM_DS3505
ZBHH,2002-09-13 14:00,ZBHH 131400Z AUTO 00000KT 6SM 09/04 A3021 RMK T00900040 IEM_DS3505
ZBHH,2002-09-13 15:00,ZBHH 131500Z AUTO 00000KT 19SM 11/05 A3021 RMK SLP216 T01100048 52006 IEM_DS3505
ZBHH,2002-09-13 18:00,ZBHH 131800Z AUTO 00000KT 19SM 10/03 RMK SLP213 T00960028 57001 IEM_DS3505
ZBHH,2002-09-13 21:00,ZBHH 132100Z AUTO 00000KT 19SM 07/03 A3021 RMK SLP222 T00660032 52002 IEM_DS3505
ZBHH,2002-09-13 22:00,ZBHH 132200Z AUTO 05002KT 6SM 03/01 A3021 RMK T00300010 IEM_DS3505
ZBHH,2002-09-13 23:00,ZBHH 132300Z AUTO 06004KT 6SM 05/02 A3024 RMK T00500020 IEM_DS3505
ZBHH,2002-09-14 00:00,ZBHH 140000Z AUTO 00000KT 19SM 11/04 A3024 RMK SLP232 T01080035 52008 IEM_DS3505
ZBHH,2002-09-14 01:00,ZBHH 140100Z AUTO 09002KT 6SM 12/04 A3024 RMK T01200040 IEM_DS3505
ZBHH,2002-09-14 02:00,ZBHH 140200Z AUTO 00000KT 6SM 15/05 A3024 RMK T01500050 IEM_DS3505
ZBHH,2002-09-14 03:00,ZBHH 140300Z AUTO 00000KT 19SM 17/05 A3021 RMK SLP220 T01680049 57009 IEM_DS3505
ZBHH,2002-09-14 04:00,ZBHH 140400Z AUTO 24002KT 6SM 18/06 A3021 RMK T01800060 IEM_DS3505
ZBHH,2002-09-14 06:00,ZBHH 140600Z AUTO 22006KT 19SM 21/01 A3015 RMK SLP191 T02100008 57020 IEM_DS3505
ZBHH,2002-09-14 07:00,ZBHH 140700Z AUTO 18004KT 6SM 21/01 A3012 RMK T02100010 IEM_DS3505
ZBHH,2002-09-14 08:00,ZBHH 140800Z AUTO 22004KT 6SM 21/01 A3012 RMK T02100010 IEM_DS3505
ZBHH,2002-09-14 09:00,ZBHH 140900Z AUTO 22004KT 19SM 21/03 A3012 RMK SLP185 T02100027 57011 IEM_DS3505
ZBHH,2002-09-14 10:00,ZBHH 141000Z AUTO 23004KT 6SM 19/03 A3012 RMK T01900030 IEM_DS3505
ZBHH,2002-09-14 11:00,ZBHH 141100Z AUTO 24002KT 6SM 16/05 A3012 RMK T01600050 IEM_DS3505
ZBHH,2002-09-14 12:00,ZBHH 141200Z AUTO 00000KT 19SM 17/04 A3012 RMK SLP189 T01670042 52003 IEM_DS3505
ZBHH,2002-09-14 13:00,ZBHH 141300Z AUTO 00000KT 6SM 12/05 A3015 RMK T01200050 IEM_DS3505
ZBHH,2002-09-14 14:00,ZBHH 141400Z AUTO 06004KT 6SM 09/05 A3015 RMK T00900050 IEM_DS3505
ZBHH,2002-09-14 15:00,ZBHH 141500Z AUTO 00000KT 19SM 13/05 A3015 RMK SLP189 T01270049 52004 IEM_DS3505
ZBHH,2002-09-14 16:00,ZBHH 141600Z AUTO 00000KT 6SM 08/05 A3015 RMK T00800050 IEM_DS3505
ZBHH,2002-09-14 18:00,ZBHH 141800Z AUTO 00000KT 19SM 10/06 RMK SLP184 T00950056 57002 IEM_DS3505
ZBHH,2002-09-14 21:00,ZBHH 142100Z AUTO 00000KT 19SM 09/04 A3012 RMK SLP179 T00880041 57006 IEM_DS3505
ZBHH,2002-09-14 22:00,ZBHH 142200Z AUTO 07004KT 6SM 05/02 A3012 RMK T00500020 IEM_DS3505
ZBHH,2002-09-14 23:00,ZBHH 142300Z AUTO 08002KT 6SM 06/03 A3012 RMK T00600030 IEM_DS3505
ZBHH,2002-09-15 00:00,ZBHH 150000Z AUTO 00000KT 19SM 11/04 A3012 RMK SLP189 T01130039 52005 IEM_DS3505
ZBHH,2002-09-15 01:00,ZBHH 150100Z AUTO 00000KT 6SM 13/06 A3012 RMK T01300060 IEM_DS3505
ZBHH,2002-09-15 02:00,ZBHH 150200Z AUTO 00000KT 6SM 14/06 A3012 RMK T01400060 IEM_DS3505
ZBHH,2002-09-15 03:00,ZBHH 150300Z AUTO 18004KT 12SM 16/05 A3012 RMK SLP187 T01600053 54000 IEM_DS3505
ZBHH,2002-09-15 05:00,ZBHH 150500Z AUTO 24006KT 6SM 18/06 A3006 RMK T01800060 IEM_DS3505
ZBHH,2002-09-15 06:00,ZBHH 150600Z AUTO 20004KT 19SM 20/04 A3006 RMK SLP160 T01960040 57023 IEM_DS3505
ZBHH,2002-09-15 07:00,ZBHH 150700Z AUTO 22004KT 6SM 19/04 A3003 RMK T01900040 IEM_DS3505
ZBHH,2002-09-15 08:00,ZBHH 150800Z AUTO 23006KT 6SM 20/04 A3000 RMK T02000040 IEM_DS3505
ZBHH,2002-09-15 09:00,ZBHH 150900Z AUTO 22006KT 19SM 20/03 A3000 RMK SLP143 T02040030 57015 IEM_DS3505
ZBHH,2002-09-15 10:00,ZBHH 151000Z AUTO 21004KT 6SM 18/02 A3000 RMK T01800020 IEM_DS3505
ZBHH,2002-09-15 11:00,ZBHH 151100Z AUTO 18002KT 6SM 15/04 A3000 RMK T01500040 IEM_DS3505
ZBHH,2002-09-15 12:00,ZBHH 151200Z AUTO 00000KT 19SM 17/05 A3000 RMK SLP147 T01740053 52003 IEM_DS3505
ZBHH,2002-09-15 13:00,ZBHH 151300Z AUTO 01004KT 5SM 12/05 A3003 RMK T01200050 IEM_DS3505
ZBHH,2002-09-15 14:00,ZBHH 151400Z AUTO 10002KT 6SM 11/05 A3003 RMK T01100050 IEM_DS3505
ZBHH,2002-09-15 15:00,ZBHH 151500Z AUTO 32002KT 19SM 15/07 A3003 RMK SLP153 T01480067 52009 IEM_DS3505
ZBHH,2002-09-15 18:00,ZBHH 151800Z AUTO 00000KT 19SM 12/06 RMK SLP146 T01200055 57005 IEM_DS3505
ZBHH,2002-09-15 21:00,ZBHH 152100Z AUTO 00000KT 19SM 11/06 A3003 RMK SLP151 T01120060 52005 IEM_DS3505
ZBHH,2002-09-15 22:00,ZBHH 152200Z AUTO 07004KT 6SM 06/03 A3006 RMK T00600030 IEM_DS3505
ZBHH,2002-09-15 23:00,ZBHH 152300Z AUTO 07004KT 6SM 06/04 A3006 RMK T00600040 IEM_DS3505
ZBHH,2002-09-16 00:00,ZBHH 160000Z AUTO 00000KT 19SM 11/07 A3006 RMK SLP168 T01140069 52009 IEM_DS3505
ZBHH,2002-09-16 01:00,ZBHH 160100Z AUTO 12002KT 6SM 14/06 A3006 RMK T01400060 IEM_DS3505
ZBHH,2002-09-16 02:00,ZBHH 160200Z AUTO 22002KT 6SM 16/07 A3009 RMK T01600070 IEM_DS3505
ZBHH,2002-09-16 03:00,ZBHH 160300Z AUTO 18004KT 19SM 18/08 A3006 RMK SLP159 T01760075 57001 IEM_DS3505
ZBHH,2002-09-16 04:00,ZBHH 160400Z AUTO 19004KT 6SM 19/09 A3006 RMK T01900090 IEM_DS3505
ZBHH,2002-09-16 05:00,ZBHH 160500Z AUTO 24004KT 6SM 20/09 A3003 RMK T02000090 IEM_DS3505
ZBHH,2002-09-16 06:00,ZBHH 160600Z AUTO 18004KT 19SM 22/10 A3000 RMK SLP135 T02180095 57018 IEM_DS3505
ZBHH,2002-09-16 07:00,ZBHH 160700Z AUTO 29004KT 7SM 20/09 A3000 RMK T02000090 IEM_DS3505
ZBHH,2002-09-16 08:00,ZBHH 160800Z AUTO 23004KT 7SM 20/10 A3000 RMK T02000100 IEM_DS3505
ZBHH,2002-09-16 09:00,ZBHH 160900Z AUTO 00000KT 19SM 20/09 A3000 RMK SLP139 T02030093 57003 IEM_DS3505
ZBHH,2002-09-16 10:00,ZBHH 161000Z AUTO 22002KT 7SM 17/11 A3000 RMK T01700110 IEM_DS3505
ZBHH,2002-09-16 11:00,ZBHH 161100Z AUTO 11002KT 5SM 16/10 A2997 RMK T01600100 IEM_DS3505
ZBHH,2002-09-16 12:00,ZBHH 161200Z AUTO 07002KT 19SM 18/07 A3000 RMK SLP145 T01790067 52003 IEM_DS3505
ZBHH,2002-09-16 13:00,ZBHH 161300Z AUTO 00000KT 6SM 15/09 A3003 RMK T01500090 IEM_DS3505
ZBHH,2002-09-16 14:00,ZBHH 161400Z AUTO 00000KT 5SM 13/09 A3003 RMK T01300090 IEM_DS3505
ZBHH,2002-09-16 15:00,ZBHH 161500Z AUTO 00000KT 19SM 14/07 RMK SLP154 T01430070 52013 IEM_DS3505
ZBHH,2002-09-16 18:00,ZBHH 161800Z AUTO 00000KT 19SM 14/07 RMK SLP147 T01410072 52001 IEM_DS3505
ZBHH,2002-09-16 21:00,ZBHH 162100Z AUTO 00000KT 19SM 11/08 A3006 RMK 70000 SLP164 T01070078 52006 IEM_DS3505
ZBHH,2002-09-16 22:00,ZBHH 162200Z AUTO 05002KT 6SM 09/06 A3009 RMK T00900060 IEM_DS3505
ZBHH,2002-09-16 23:00,ZBHH 162300Z AUTO 06002KT 6SM 08/06 A3012 RMK T00800060 IEM_DS3505
ZBHH,2002-09-17 00:00,ZBHH 170000Z AUTO 00000KT 12SM 13/08 A3012 RMK 70000 SLP181 T01320083 52015 IEM_DS3505
ZBHH,2002-09-17 01:00,ZBHH 170100Z AUTO 10004KT 6SM 17/09 A3012 RMK T01700090 IEM_DS3505
ZBHH,2002-09-17 02:00,ZBHH 170200Z AUTO 15002KT 6SM 19/09 A3012 RMK T01900090 IEM_DS3505
ZBHH,2002-09-17 03:00,ZBHH 170300Z AUTO 14004KT 12SM 21/09 A3012 RMK SLP172 T02100093 54000 IEM_DS3505
ZBHH,2002-09-17 04:00,ZBHH 170400Z AUTO 21004KT 6SM 22/10 A3012 RMK T02200100 IEM_DS3505
ZBHH,2002-09-17 05:00,ZBHH 170500Z AUTO 19006KT 6SM 23/08 A3009 RMK T02300080 IEM_DS3505
ZBHH,2002-09-17 06:00,ZBHH 170600Z AUTO 22004KT 19SM 25/08 A3006 RMK SLP142 T02460080 57020 IEM_DS3505
ZBHH,2002-09-17 07:00,ZBHH 170700Z AUTO 25006KT 6SM 25/07 A3006 RMK T02500070 IEM_DS3505
ZBHH,2002-09-17 08:00,ZBHH 170800Z AUTO 22006KT 6SM 26/05 A3003 RMK T02600050 IEM_DS3505
ZBHH,2002-09-17 09:00,ZBHH 170900Z AUTO 20004KT 19SM 26/04 A3003 RMK SLP140 T02560042 57006 IEM_DS3505
ZBHH,2002-09-17 10:00,ZBHH 171000Z AUTO 21004KT 6SM 23/04 A3006 RMK T02300040 IEM_DS3505
ZBHH,2002-09-17 11:00,ZBHH 171100Z AUTO 18002KT 6SM 20/05 A3006 RMK T02000050 IEM_DS3505
ZBHH,2002-09-17 12:00,ZBHH 171200Z AUTO 00000KT 19SM 21/06 A3006 RMK SLP154 T02080056 52008 IEM_DS3505
ZBHH,2002-09-17 13:00,ZBHH 171300Z AUTO 13002KT 6SM 14/06 A3012 RMK T01400060 IEM_DS3505
ZBHH,2002-09-17 14:00,ZBHH 171400Z AUTO 08004KT 6SM 12/06 A3012 RMK T01200060 IEM_DS3505
ZBHH,2002-09-17 15:00,ZBHH 171500Z AUTO 00000KT 19SM 16/07 A3012 RMK SLP173 T01560072 52022 IEM_DS3505
ZBHH,2002-09-17 18:00,ZBHH 171800Z AUTO 00000KT 19SM 14/08 RMK SLP164 T01420077 57004 IEM_DS3505
ZBHH,2002-09-17 21:00,ZBHH 172100Z AUTO 00000KT 19SM 12/07 A3012 RMK SLP168 T01240069 52002 IEM_DS3505
ZBHH,2002-09-17 22:00,ZBHH 172200Z AUTO 06002KT 6SM 09/06 A3015 RMK T00900060 IEM_DS3505
ZBHH,2002-09-17 23:00,ZBHH 172300Z AUTO 35008KT 6SM 10/02 A3018 RMK T01000020 IEM_DS3505
ZBHH,2002-09-18 00:00,ZBHH 180000Z AUTO 32004KT 19SM 12/01 A3021 RMK SLP202 T01180007 52020 IEM_DS3505
ZBHH,2002-09-18 02:00,ZBHH 180200Z AUTO 36010KT 6SM 15/02 A3021 RMK T01500020 IEM_DS3505
ZBHH,2002-09-18 03:00,ZBHH 180300Z AUTO 32008KT 19SM 16/02 A3021 RMK SLP212 T01580017 52006 IEM_DS3505
ZBHH,2002-09-18 04:00,ZBHH 180400Z AUTO 35010KT 6SM 19/04 A3021 RMK T01900040 IEM_DS3505
ZBHH,2002-09-18 05:00,ZBHH 180500Z AUTO 34016KT 7SM 15/04 A3021 RMK T01500040 IEM_DS3505
ZBHH,2002-09-18 06:00,ZBHH 180600Z AUTO 27008G25KT 19SM 16/05 A3021 RMK SLP210 T01600048 57004 IEM_DS3505
ZBHH,2002-09-18 07:00,ZBHH 180700Z AUTO 35014G23KT 7SM 14/05 A3021 RMK T01400050 IEM_DS3505
ZBHH,2002-09-18 08:00,ZBHH 180800Z AUTO 01010KT 7SM 15/05 A3021 RMK T01500050 IEM_DS3505
ZBHH,2002-09-18 09:00,ZBHH 180900Z AUTO 29004KT 16SM 15/04 A3024 RMK SLP225 T01490040 52008 IEM_DS3505
ZBHH,2002-09-18 10:00,ZBHH 181000Z AUTO 36008KT 7SM 12/04 A3024 RMK T01200040 IEM_DS3505
ZBHH,2002-09-18 11:00,ZBHH 181100Z AUTO 35012KT 7SM 11/04 A3027 RMK T01100040 IEM_DS3505
ZBHH,2002-09-18 12:00,ZBHH 181200Z AUTO 00000KT 19SM 11/06 A3027 RMK SLP256 T01130060 52019 IEM_DS3505
ZBHH,2002-09-18 13:00,ZBHH 181300Z AUTO 36006KT 7SM 10/05 A3030 RMK T01000050 IEM_DS3505
ZBHH,2002-09-18 14:00,ZBHH 181400Z AUTO 19002KT 7SM 09/07 A3033 RMK T00900070 IEM_DS3505
ZBHH,2002-09-18 15:00,ZBHH 181500Z AUTO 29002KT 19SM 11/05 A3033 RMK SLP260 T01120050 52012 IEM_DS3505
ZBHH,2002-09-18 16:00,ZBHH 181600Z AUTO 07006KT 7SM 09/06 A3033 RMK T00900060 IEM_DS3505
ZBHH,2002-09-18 17:00,ZBHH 181700Z AUTO 01002KT 7SM 08/06 A3033 RMK T00800060 IEM_DS3505
ZBHH,2002-09-18 18:00,ZBHH 181800Z AUTO 00000KT 12SM 09/06 A3033 RMK 60012 SLP270 T00860061 52004 IEM_DS3505
ZBHH,2002-09-18 19:00,ZBHH 181900Z AUTO 01006KT 7SM 07/05 A3033 RMK T00700050 IEM_DS3505
ZBHH,2002-09-18 20:00,ZBHH 182000Z AUTO 03002KT 7SM 08/06 A3033 RMK T00800060 IEM_DS3505
ZBHH,2002-09-18 21:00,ZBHH 182100Z AUTO 00000KT 12SM 08/07 A3033 RMK 70021 SLP270 T00840068 57003 IEM_DS3505
ZBHH,2002-09-18 22:00,ZBHH 182200Z AUTO 09004KT 7SM 08/07 A3033 RMK T00800070 IEM_DS3505
ZBHH,2002-09-18 23:00,ZBHH 182300Z AUTO 09002KT 7SM 07/06 A3036 RMK T00700060 IEM_DS3505
ZBHH,2002-09-19 00:00,ZBHH 190000Z AUTO 00000KT 16SM 09/07 A3033 RMK 60012 70024 SLP280 T00930067 52004 IEM_DS3505
ZBHH,2002-09-19 01:00,ZBHH 190100Z AUTO 08008KT 7SM 09/05 A3033 RMK T00900050 IEM_DS3505
ZBHH,2002-09-19 02:00,ZBHH 190200Z AUTO 09010KT 7SM 10/05 A3036 RMK T01000050 IEM_DS3505
ZBHH,2002-09-19 03:00,ZBHH 190300Z AUTO 09004KT 19SM 12/05 A3033 RMK SLP275 T01180052 54000 IEM_DS3505
ZBHH,2002-09-19 04:00,ZBHH 190400Z AUTO 09006KT 7SM 12/05 A3033 RMK T01200050 IEM_DS3505
ZBHH,2002-09-19 05:00,ZBHH 190500Z AUTO 06004KT 7SM 11/06 A3030 RMK T01100060 IEM_DS3505
ZBHH,2002-09-19 06:00,ZBHH 190600Z AUTO 16002KT 19SM 13/07 A3030 RMK SLP263 T01300072 57013 IEM_DS3505
ZBHH,2002-09-19 07:00,ZBHH 190700Z AUTO 09004KT 7SM 12/07 A3027 RMK T01200070 IEM_DS3505
ZBHH,2002-09-19 08:00,ZBHH 190800Z AUTO 12004KT 7SM 12/07 A3027 RMK T01200070 IEM_DS3505
ZBHH,2002-09-19 09:00,ZBHH 190900Z AUTO 00000KT 19SM 13/08 A3027 RMK SLP255 T01330077 57007 IEM_DS3505
ZBHH,2002-09-19 10:00,ZBHH 191000Z AUTO 00000KT 7SM 12/07 A3027 RMK T01200070 IEM_DS3505
ZBHH,2002-09-19 11:00,ZBHH 191100Z AUTO 00000KT 6SM 11/08 A3027 RMK T01100080 IEM_DS3505
ZBHH,2002-09-19 12:00,ZBHH 191200Z AUTO 00000KT 12SM 11/08 A3030 RMK SLP261 T01130080 52003 IEM_DS3505
ZBHH,2002-09-19 13:00,ZBHH 191300Z AUTO 00000KT 4SM 08/06 A3030 RMK T00800060 IEM_DS3505
ZBHH,2002-09-19 14:00,ZBHH 191400Z AUTO 07004KT 5SM 07/06 A3030 RMK T00700060 IEM_DS3505
ZBHH,2002-09-19 15:00,ZBHH 191500Z AUTO 00000KT 12SM 09/07 A3030 RMK SLP271 T00890069 52009 IEM_DS3505
ZBHH,2002-09-19 16:00,ZBHH 191600Z AUTO 02002KT 6SM 06/04 A3033 RMK T00600040 IEM_DS3505
ZBHH,2002-09-19 18:00,ZBHH 191800Z AUTO 00000KT 12SM 08/04 RMK SLP269 T00750042 57002 IEM_DS3505
ZBHH,2002-09-19 21:00,ZBHH 192100Z AUTO 00000KT 19SM 05/04 A3030 RMK 70002 SLP267 T00510040 57006 IEM_DS3505
ZBHH,2002-09-19 22:00,ZBHH 192200Z AUTO 07004KT 6SM 03/02 A3030 RMK T00300020 IEM_DS3505
ZBHH,2002-09-19 23:00,ZBHH 192300Z AUTO 03002KT 6SM 03/01 A3030 RMK T00300010 IEM_DS3505
ZBHH,2002-09-20 00:00,ZBHH 200000Z AUTO 00000KT 19SM 08/03 A3033 RMK 70000 SLP279 T00850032 52013 IEM_DS3505
ZBHH,2002-09-20 01:00,ZBHH 200100Z AUTO 10004KT 6SM 10/04 A3033 RMK T01000040 IEM_DS3505
ZBHH,2002-09-20 02:00,ZBHH 200200Z AUTO 36002KT 6SM 12/04 A3033 RMK T01200040 IEM_DS3505
ZBHH,2002-09-20 03:00,ZBHH 200300Z AUTO 00000KT 9SM 14/03 A3033 RMK SLP264 T01430029 57006 IEM_DS3505
ZBHH,2002-09-20 04:00,ZBHH 200400Z AUTO 16002KT 6SM 15/01 A3030 RMK T01500010 IEM_DS3505
ZBHH,2002-09-20 05:00,ZBHH 200500Z AUTO 00000KT 6SM 17/00 A3027 RMK T01700000 IEM_DS3505
ZBHH,2002-09-20 06:00,ZBHH 200600Z AUTO 20002KT 12SM 18/01 A3027 RMK SLP238 T01810008 57018 IEM_DS3505
ZBHH,2002-09-20 07:00,ZBHH 200700Z AUTO 18002KT 6SM 19/01 A3024 RMK T01900010 IEM_DS3505
ZBHH,2002-09-20 08:00,ZBHH 200800Z AUTO 23004KT 6SM 19/M01 A3024 RMK T01901010 IEM_DS3505
ZBHH,2002-09-20 09:00,ZBHH 200900Z AUTO 22002KT 19SM 19/02 A3021 RMK SLP229 T01940018 57010 IEM_DS3505
ZBHH,2002-09-20 10:00,ZBHH 201000Z AUTO 21004KT 6SM 17/03 A3024 RMK T01700030 IEM_DS3505
ZBHH,2002-09-20 11:00,ZBHH 201100Z AUTO 17002KT 6SM 14/04 A3024 RMK T01400040 IEM_DS3505
ZBHH,2002-09-20 12:00,ZBHH 201200Z AUTO 00000KT 19SM 14/05 A3027 RMK SLP252 T01400051 52016 IEM_DS3505
ZBHH,2002-09-20 13:00,ZBHH 201300Z AUTO 07006KT 6SM 07/03 A3030 RMK T00700030 IEM_DS3505
ZBHH,2002-09-20 14:00,ZBHH 201400Z AUTO 07004KT 6SM 08/02 A3030 RMK T00800020 IEM_DS3505
ZBHH,2002-09-20 15:00,ZBHH 201500Z AUTO 00000KT 19SM 10/03 A3030 RMK SLP260 T00960033 52010 IEM_DS3505
ZBHH,2002-09-20 18:00,ZBHH 201800Z AUTO 00000KT 19SM 07/02 RMK SLP257 T00710020 54000 IEM_DS3505
ZBHH,2002-09-20 21:00,ZBHH 202100Z AUTO 00000KT 19SM 06/00 A3030 RMK SLP261 T00580005 52003 IEM_DS3505
ZBHH,2002-09-20 22:00,ZBHH 202200Z AUTO 07004KT 6SM 03/M02 A3033 RMK T00301020 IEM_DS3505
ZBHH,2002-09-20 23:00,ZBHH 202300Z AUTO 07004KT 6SM 03/M01 A3033 RMK T00301010 IEM_DS3505
ZBHH,2002-09-21 00:00,ZBHH 210000Z AUTO 00000KT 19SM 10/M01 A3036 RMK SLP275 T01031013 52011 IEM_DS3505
ZBHH,2002-09-21 01:00,ZBHH 210100Z AUTO 08002KT 6SM 12/00 A3036 RMK T01200000 IEM_DS3505
ZBHH,2002-09-21 02:00,ZBHH 210200Z AUTO 07002KT 6SM 15/M03 A3036 RMK T01501030 IEM_DS3505
ZBHH,2002-09-21 03:00,ZBHH 210300Z AUTO 00000KT 16SM 18/M01 A3036 RMK SLP272 T01761012 52003 IEM_DS3505
ZBHH,2002-09-21 04:00,ZBHH 210400Z AUTO 22004KT 6SM 19/M03 A3033 RMK T01901030 IEM_DS3505
ZBHH,2002-09-21 05:00,ZBHH 210500Z AUTO 34008KT 6SM 20/M07 A3033 RMK T02001070 IEM_DS3505
ZBHH,2002-09-21 06:00,ZBHH 210600Z AUTO 34006KT 19SM 20/M07 A3030 RMK SLP254 T02041071 57015 IEM_DS3505
ZBHH,2002-09-21 07:00,ZBHH 210700Z AUTO 35010KT 6SM 20/M04 A3030 RMK T02001040 IEM_DS3505
ZBHH,2002-09-21 08:00,ZBHH 210800Z AUTO 33014KT 6SM 20/M06 A3027 RMK T02001060 IEM_DS3505
ZBHH,2002-09-21 09:00,ZBHH 210900Z AUTO 34008KT 19SM 20/M05 A3027 RMK SLP248 T01971054 57010 IEM_DS3505
ZBHH,2002-09-21 10:00,ZBHH 211000Z AUTO 35012KT 6SM 18/M06 A3030 RMK T01801060 IEM_DS3505
ZBHH,2002-09-21 11:00,ZBHH 211100Z AUTO 35004KT 6SM 14/M04 A3030 RMK T01401040 IEM_DS3505
ZBHH,2002-09-21 12:00,ZBHH 211200Z AUTO 00000KT 19SM 15/M02 A3033 RMK SLP261 T01541017 52012 IEM_DS3505
ZBHH,2002-09-21 13:00,ZBHH 211300Z AUTO 01004KT 6SM 09/M01 A3033 RMK T00901010 IEM_DS3505
ZBHH,2002-09-21 14:00,ZBHH 211400Z AUTO 02004KT 6SM 07/M02 A3033 RMK T00701020 IEM_DS3505
ZBHH,2002-09-21 15:00,ZBHH 211500Z AUTO 00000KT 19SM 10/M00 RMK SLP261 T01051003 52005 IEM_DS3505
ZBHH,2002-09-21 18:00,ZBHH 211800Z AUTO 32002KT 19SM 10/M02 RMK SLP249 T01041024 57005 IEM_DS3505
ZBHH,2002-09-21 21:00,ZBHH 212100Z AUTO 00000KT 19SM 06/M00 A3030 RMK SLP257 T00621005 57003 IEM_DS3505
ZBHH,2002-09-21 22:00,ZBHH 212200Z AUTO 12004KT 6SM 00/M02 A3030 RMK T00001020 IEM_DS3505
ZBHH,2002-09-21 23:00,ZBHH 212300Z AUTO 13002KT 6SM 01/M02 A3033 RMK T00101020 IEM_DS3505
ZBHH,2002-09-22 00:00,ZBHH 220000Z AUTO 00000KT 19SM 10/M02 A3033 RMK SLP267 T00981017 52008 IEM_DS3505
ZBHH,2002-09-22 01:00,ZBHH 220100Z AUTO 16002KT 6SM 10/00 A3033 RMK T01000000 IEM_DS3505
ZBHH,2002-09-22 02:00,ZBHH 220200Z AUTO 21002KT 6SM 13/M01 A3033 RMK T01301010 IEM_DS3505
ZBHH,2002-09-22 03:00,ZBHH 220300Z AUTO 18006KT 16SM 15/M02 A3030 RMK SLP261 T01471015 57006 IEM_DS3505
ZBHH,2002-09-22 04:00,ZBHH 220400Z AUTO 22006KT 6SM 17/M03 A3027 RMK T01701030 IEM_DS3505
ZBHH,2002-09-22 05:00,ZBHH 220500Z AUTO 23006KT 6SM 19/M02 A3027 RMK T01901020 IEM_DS3505
ZBHH,2002-09-22 06:00,ZBHH 220600Z AUTO 22006KT 19SM 20/M04 A3021 RMK SLP214 T01991044 57031 IEM_DS3505
ZBHH,2002-09-22 07:00,ZBHH 220700Z AUTO 25008KT 6SM 20/M02 A3021 RMK T02001020 IEM_DS3505
ZBHH,2002-09-22 08:00,ZBHH 220800Z AUTO 21008KT 6SM 20/M02 A3018 RMK T02001020 IEM_DS3505
ZBHH,2002-09-22 09:00,ZBHH 220900Z AUTO 20004KT 19SM 20/M03 A3015 RMK SLP203 T02051034 57017 IEM_DS3505
ZBHH,2002-09-22 10:00,ZBHH 221000Z AUTO 20004KT 6SM 18/M01 A3015 RMK T01801010 IEM_DS3505
ZBHH,2002-09-22 11:00,ZBHH 221100Z AUTO 12002KT 6SM 14/M01 A3015 RMK T01401010 IEM_DS3505
ZBHH,2002-09-22 12:00,ZBHH 221200Z AUTO 00000KT 19SM 16/02 A3018 RMK SLP205 T01630022 52001 IEM_DS3505
ZBHH,2002-09-22 13:00,ZBHH 221300Z AUTO 07004KT 6SM 10/01 A3018 RMK T01000010 IEM_DS3505
ZBHH,2002-09-22 14:00,ZBHH 221400Z AUTO 06002KT 6SM 08/01 A3018 RMK T00800010 IEM_DS3505
ZBHH,2002-09-22 15:00,ZBHH 221500Z AUTO 00000KT 19SM 11/02 A3018 RMK SLP208 T01130023 52002 IEM_DS3505
ZBHH,2002-09-22 16:00,ZBHH 221600Z AUTO 06002KT 07/00 A3015 RMK T00700000 IEM_DS3505
ZBHH,2002-09-22 18:00,ZBHH 221800Z AUTO 00000KT 19SM 08/03 RMK SLP196 T00830032 57006 IEM_DS3505
ZBHH,2002-09-22 21:00,ZBHH 222100Z AUTO 00000KT 19SM 07/02 A3015 RMK SLP195 T00660015 57003 IEM_DS3505
ZBHH,2002-09-22 22:00,ZBHH 222200Z AUTO 07004KT 6SM 03/M02 A3012 RMK T00301020 IEM_DS3505
ZBHH,2002-09-22 23:00,ZBHH 222300Z AUTO 06002KT 6SM 04/M01 A3012 RMK T00401010 IEM_DS3505
ZBHH,2002-09-23 00:00,ZBHH 230000Z AUTO 00000KT 16SM 11/M00 A3015 RMK SLP197 T01081001 52002 IEM_DS3505
ZBHH,2002-09-23 01:00,ZBHH 230100Z AUTO 05002KT 6SM 13/00 A3015 RMK T01300000 IEM_DS3505
ZBHH,2002-09-23 02:00,ZBHH 230200Z AUTO 15002KT 6SM 16/M02 A3015 RMK T01601020 IEM_DS3505
ZBHH,2002-09-23 03:00,ZBHH 230300Z AUTO 00000KT 19SM 17/M01 A3012 RMK SLP187 T01731013 57006 IEM_DS3505
ZBHH,2002-09-23 04:00,ZBHH 230400Z AUTO 21002KT 6SM 19/M02 A3009 RMK T01901020 IEM_DS3505
ZBHH,2002-09-23 05:00,ZBHH 230500Z AUTO 23002KT 6SM 21/M01 A3006 RMK T02101010 IEM_DS3505
ZBHH,2002-09-23 06:00,ZBHH 230600Z AUTO 22002KT 19SM 22/M03 A3003 RMK SLP154 T02151031 57027 IEM_DS3505
ZBHH,2002-09-23 07:00,ZBHH 230700Z AUTO 23006KT 6SM 22/M04 A3000 RMK T02201040 IEM_DS3505
ZBHH,2002-09-23 08:00,ZBHH 230800Z AUTO 25004KT 6SM 23/M04 A3000 RMK T02301040 IEM_DS3505
ZBHH,2002-09-23 09:00,ZBHH 230900Z AUTO 20004KT 19SM 22/M03 A3000 RMK SLP141 T02251029 57013 IEM_DS3505
ZBHH,2002-09-23 10:00,ZBHH 231000Z AUTO 21004KT 6SM 20/00 A3000 RMK T02000000 IEM_DS3505
ZBHH,2002-09-23 11:00,ZBHH 231100Z AUTO 12002KT 6SM 15/00 A3000 RMK T01500000 IEM_DS3505
ZBHH,2002-09-23 12:00,ZBHH 231200Z AUTO 00000KT 19SM 16/03 A3000 RMK SLP152 T01600027 52005 IEM_DS3505
ZBHH,2002-09-23 13:00,ZBHH 231300Z AUTO 03004KT 12/00 A3003 RMK T01200000 IEM_DS3505
ZBHH,2002-09-23 14:00,ZBHH 231400Z AUTO 07004KT 6SM 10/01 A3003 RMK T01000010 IEM_DS3505
ZBHH,2002-09-23 15:00,ZBHH 231500Z AUTO 00000KT 16SM 11/04 A3003 RMK SLP154 T01120038 52005 IEM_DS3505
ZBHH,2002-09-23 18:00,ZBHH 231800Z AUTO 00000KT 19SM 09/04 RMK SLP145 T00870037 57004 IEM_DS3505
ZBHH,2002-09-23 21:00,ZBHH 232100Z AUTO 00000KT 19SM 07/02 A3000 RMK SLP150 T00670016 52002 IEM_DS3505
ZBHH,2002-09-23 22:00,ZBHH 232200Z AUTO 08004KT 6SM 05/M02 A3003 RMK T00501020 IEM_DS3505
ZBHH,2002-09-23 23:00,ZBHH 232300Z AUTO 07004KT 6SM 06/M02 A3003 RMK T00601020 IEM_DS3505
ZBHH,2002-09-24 00:00,ZBHH 240000Z AUTO 00000KT 19SM 11/02 A3003 RMK SLP166 T01060020 52009 IEM_DS3505
ZBHH,2002-09-24 01:00,ZBHH 240100Z AUTO 10002KT 6SM 14/00 A3003 RMK T01400000 IEM_DS3505
ZBHH,2002-09-24 02:00,ZBHH 240200Z AUTO 15002KT 6SM 17/M01 A3003 RMK T01701010 IEM_DS3505
ZBHH,2002-09-24 03:00,ZBHH 240300Z AUTO 18002KT 19SM 19/M01 A3003 RMK SLP150 T01871008 57007 IEM_DS3505
ZBHH,2002-09-24 04:00,ZBHH 240400Z AUTO 22004KT 6SM 19/M01 A3003 RMK T01901010 IEM_DS3505
ZBHH,2002-09-24 05:00,ZBHH 240500Z AUTO 24006KT 6SM 21/M01 A3000 RMK T02101010 IEM_DS3505
ZBHH,2002-09-24 06:00,ZBHH 240600Z AUTO 18006KT 19SM 23/M00 A2997 RMK SLP125 T02321005 57019 IEM_DS3505
ZBHH,2002-09-24 07:00,ZBHH 240700Z AUTO 22006KT 6SM 23/M03 A2994 RMK T02301030 IEM_DS3505
ZBHH,2002-09-24 08:00,ZBHH 240800Z AUTO 22008KT 6SM 23/M03 A2994 RMK T02301030 IEM_DS3505
ZBHH,2002-09-24 09:00,ZBHH 240900Z AUTO 20006KT 19SM 24/M03 A2994 RMK SLP117 T02361028 57010 IEM_DS3505
ZBHH,2002-09-24 10:00,ZBHH 241000Z AUTO 21002KT 6SM 21/M01 A2994 RMK T02101010 IEM_DS3505
ZBHH,2002-09-24 11:00,ZBHH 241100Z AUTO 09004KT 6SM 16/00 A2997 RMK T01600000 IEM_DS3505
ZBHH,2002-09-24 12:00,ZBHH 241200Z AUTO 00000KT 19SM 17/03 A2997 RMK SLP135 T01660030 52010 IEM_DS3505
ZBHH,2002-09-24 13:00,ZBHH 241300Z AUTO 06004KT 6SM 12/M01 A3000 RMK T01201010 IEM_DS3505
ZBHH,2002-09-24 14:00,ZBHH 241400Z AUTO 06002KT 6SM 10/00 A3000 RMK T01000000 IEM_DS3505
ZBHH,2002-09-24 15:00,ZBHH 241500Z AUTO 00000KT 19SM 13/04 A3000 RMK SLP140 T01270037 52013 IEM_DS3505
ZBHH,2002-09-24 16:00,ZBHH 241600Z AUTO 06002KT 6SM 09/00 A3000 RMK T00900000 IEM_DS3505
ZBHH,2002-09-24 21:00,ZBHH 242100Z AUTO 00000KT 19SM 08/03 A3003 RMK SLP145 T00780034 52004 IEM_DS3505
ZBHH,2002-09-24 22:00,ZBHH 242200Z AUTO 07004KT 6SM 05/M01 A3003 RMK T00501010 IEM_DS3505
ZBHH,2002-09-24 23:00,ZBHH 242300Z AUTO 08004KT 6SM 06/00 A3003 RMK T00600000 IEM_DS3505
ZBHH,2002-09-25 00:00,ZBHH 250000Z AUTO 00000KT 19SM 11/03 A3003 RMK SLP159 T01100033 52005 IEM_DS3505
ZBHH,2002-09-25 01:00,ZBHH 250100Z AUTO 10002KT 6SM 15/01 A3003 RMK T01500010 IEM_DS3505
ZBHH,2002-09-25 02:00,ZBHH 250200Z AUTO 14002KT 6SM 18/00 A3003 RMK T01800000 IEM_DS3505
ZBHH,2002-09-25 03:00,ZBHH 250300Z AUTO 00000KT 12SM 20/02 A3003 RMK SLP147 T01980022 57001 IEM_DS3505
ZBHH,2002-09-25 04:00,ZBHH 250400Z AUTO 24004KT 6SM 21/01 A3003 RMK T02100010 IEM_DS3505
ZBHH,2002-09-25 05:00,ZBHH 250500Z AUTO 23004KT 6SM 21/01 A3000 RMK T02100010 IEM_DS3505
ZBHH,2002-09-25 06:00,ZBHH 250600Z AUTO 20006KT 19SM 24/M00 A2997 RMK SLP125 T02361004 57017 IEM_DS3505
ZBHH,2002-09-25 07:00,ZBHH 250700Z AUTO 23004KT 6SM 25/00 A2997 RMK T02500000 IEM_DS3505
ZBHH,2002-09-25 08:00,ZBHH 250800Z AUTO 24004KT 6SM 24/00 A2994 RMK T02400000 IEM_DS3505
ZBHH,2002-09-25 09:00,ZBHH 250900Z AUTO 27004KT 19SM 25/00 A2994 RMK SLP114 T02460003 57012 IEM_DS3505
ZBHH,2002-09-25 10:00,ZBHH 251000Z AUTO 00000KT 6SM 22/00 A2994 RMK T02200000 IEM_DS3505
ZBHH,2002-09-25 11:00,ZBHH 251100Z AUTO 12002KT 6SM 16/03 A2997 RMK T01600030 IEM_DS3505
ZBHH,2002-09-25 12:00,ZBHH 251200Z AUTO 00000KT 19SM 18/04 A2997 RMK SLP132 T01770039 52008 IEM_DS3505
ZBHH,2002-09-25 13:00,ZBHH 251300Z AUTO 07004KT 6SM 12/01 A3000 RMK T01200010 IEM_DS3505
ZBHH,2002-09-25 14:00,ZBHH 251400Z AUTO 00000KT 6SM 11/01 A3000 RMK T01100010 IEM_DS3505
ZBHH,2002-09-25 15:00,ZBHH 251500Z AUTO 00000KT 19SM 13/05 A3000 RMK SLP137 T01260048 52012 IEM_DS3505
ZBHH,2002-09-25 18:00,ZBHH 251800Z AUTO 00000KT 19SM 11/03 RMK SLP129 T01100033 57003 IEM_DS3505
ZBHH,2002-09-25 21:00,ZBHH 252100Z AUTO 00000KT 19SM 10/04 A3000 RMK SLP128 T00980041 57001 IEM_DS3505
ZBHH,2002-09-25 22:00,ZBHH 252200Z AUTO 07004KT 6SM 08/01 A3000 RMK T00800010 IEM_DS3505
ZBHH,2002-09-25 23:00,ZBHH 252300Z AUTO 06002KT 6SM 09/02 A3000 RMK T00900020 IEM_DS3505
ZBHH,2002-09-26 00:00,ZBHH 260000Z AUTO 00000KT 12SM 13/04 A3000 RMK SLP141 T01260041 52003 IEM_DS3505
ZBHH,2002-09-26 01:00,ZBHH 260100Z AUTO 06002KT 6SM 16/02 A3000 RMK T01600020 IEM_DS3505
ZBHH,2002-09-26 02:00,ZBHH 260200Z AUTO 06002KT 6SM 17/00 A3000 RMK T01700000 IEM_DS3505
ZBHH,2002-09-26 03:00,ZBHH 260300Z AUTO 09002KT 19SM 18/01 A2997 RMK SLP129 T01820011 57009 IEM_DS3505
ZBHH,2002-09-26 04:00,ZBHH 260400Z AUTO 21002KT 7SM 20/01 A2997 RMK T02000010 IEM_DS3505
ZBHH,2002-09-26 05:00,ZBHH 260500Z AUTO 25002KT 6SM 18/04 A2994 RMK T01800040 IEM_DS3505
ZBHH,2002-09-26 06:00,ZBHH 260600Z AUTO 25016KT 19SM 19/02 A2997 RMK SLP134 T01860018 52002 IEM_DS3505
ZBHH,2002-09-26 07:00,ZBHH 260700Z AUTO 28010KT 7SM 13/07 A2997 RMK T01300070 IEM_DS3505
ZBHH,2002-09-26 08:00,ZBHH 260800Z AUTO 35006KT 7SM 11/05 A3000 RMK T01100050 IEM_DS3505
ZBHH,2002-09-26 09:00,ZBHH 260900Z AUTO 09004KT 19SM 12/07 A2997 RMK SLP146 T01180071 57005 IEM_DS3505
ZBHH,2002-09-26 10:00,ZBHH 261000Z AUTO 09006KT 7SM 10/07 A3000 RMK T01000070 IEM_DS3505
ZBHH,2002-09-26 11:00,ZBHH 261100Z AUTO 32008KT 7SM 11/04 A3003 RMK T01100040 IEM_DS3505
ZBHH,2002-09-26 12:00,ZBHH 261200Z AUTO 16004G17KT 19SM 11/06 A3003 RMK 60008 SLP156 T01120057 52013 IEM_DS3505
ZBHH,2002-09-26 13:00,ZBHH 261300Z AUTO 32006KT 7SM 09/05 A3000 RMK T00900050 IEM_DS3505
ZBHH,2002-09-26 14:00,ZBHH 261400Z AUTO 21004KT 7SM 07/05 A3003 RMK T00700050 IEM_DS3505
ZBHH,2002-09-26 15:00,ZBHH 261500Z AUTO 28004KT 7SM 06/05 A3003 RMK T00600050 IEM_DS3505
ZBHH,2002-09-26 16:00,ZBHH 261600Z AUTO 25004KT 7SM 05/04 A3003 RMK T00500040 IEM_DS3505
ZBHH,2002-09-26 17:00,ZBHH 261700Z AUTO 08002KT 7SM 05/03 A3000 RMK T00500030 IEM_DS3505
ZBHH,2002-09-26 18:00,ZBHH 261800Z AUTO 00000KT 19SM 08/05 A3000 RMK 60000 SLP147 T00840053 57010 IEM_DS3505
ZBHH,2002-09-26 19:00,ZBHH 261900Z AUTO 12002KT 7SM 04/03 A3000 RMK T00400030 IEM_DS3505
ZBHH,2002-09-26 20:00,ZBHH 262000Z AUTO 14002KT 7SM 04/03 A3000 RMK T00400030 IEM_DS3505
ZBHH,2002-09-26 21:00,ZBHH 262100Z AUTO 32006KT 19SM 09/03 A3000 RMK 70007 SLP168 T00890027 52006 IEM_DS3505
ZBHH,2002-09-26 22:00,ZBHH 262200Z AUTO 33002KT 7SM 07/02 A3003 RMK T00700020 IEM_DS3505
ZBHH,2002-09-26 23:00,ZBHH 262300Z AUTO 32012KT 7SM 07/01 A3003 RMK T00700010 IEM_DS3505
ZBHH,2002-09-27 00:00,ZBHH 270000Z AUTO 32006KT 19SM 08/00 A3006 RMK 70007 SLP185 T00840001 52013 IEM_DS3505
ZBHH,2002-09-27 01:00,ZBHH 270100Z AUTO 35010KT 7SM 07/00 A3009 RMK T00700000 IEM_DS3505
ZBHH,2002-09-27 02:00,ZBHH 270200Z AUTO 34010KT 7SM 09/01 A3009 RMK T00900010 IEM_DS3505
ZBHH,2002-09-27 03:00,ZBHH 270300Z AUTO 32008KT 19SM 10/00 A3009 RMK SLP203 T01040005 52015 IEM_DS3505
ZBHH,2002-09-27 04:00,ZBHH 270400Z AUTO 35008KT 7SM 10/01 A3012 RMK T01000010 IEM_DS3505
ZBHH,2002-09-27 05:00,ZBHH 270500Z AUTO 35008KT 7SM 10/01 A3012 RMK T01000010 IEM_DS3505
ZBHH,2002-09-27 06:00,ZBHH 270600Z AUTO 32012G25KT 19SM 13/01 A3009 RMK SLP193 T01270009 57005 IEM_DS3505
ZBHH,2002-09-27 07:00,ZBHH 270700Z AUTO 35012KT 7SM 13/02 A3009 RMK T01300020 IEM_DS3505
ZBHH,2002-09-27 08:00,ZBHH 270800Z AUTO 34012G23KT 7SM 11/03 A3009 RMK T01100030 IEM_DS3505
ZBHH,2002-09-27 09:00,ZBHH 270900Z AUTO 32008KT 19SM 12/04 A3009 RMK SLP196 T01180038 52002 IEM_DS3505
ZBHH,2002-09-27 10:00,ZBHH 271000Z AUTO 34010KT 7SM 11/04 A3009 RMK T01100040 IEM_DS3505
ZBHH,2002-09-27 11:00,ZBHH 271100Z AUTO 34006KT 7SM 09/03 A3012 RMK T00900030 IEM_DS3505
ZBHH,2002-09-27 12:00,ZBHH 271200Z AUTO 00000KT 19SM 10/03 A3012 RMK SLP208 T01030032 52007 IEM_DS3505
ZBHH,2002-09-27 13:00,ZBHH 271300Z AUTO 36008KT 6SM 09/02 A3012 RMK T00900020 IEM_DS3505
ZBHH,2002-09-27 14:00,ZBHH 271400Z AUTO 02004KT 6SM 08/01 A3012 RMK T00800010 IEM_DS3505
ZBHH,2002-09-27 15:00,ZBHH 271500Z AUTO 00000KT 19SM 09/02 A3012 RMK SLP208 T00940020 52002 IEM_DS3505
ZBHH,2002-09-27 18:00,ZBHH 271800Z AUTO 00000KT 19SM 08/M01 RMK SLP205 T00801014 57001 IEM_DS3505
ZBHH,2002-09-27 21:00,ZBHH 272100Z AUTO 00000KT 19SM 06/M01 A3015 RMK SLP220 T00631006 52008 IEM_DS3505
ZBHH,2002-09-27 22:00,ZBHH 272200Z AUTO 24002KT 6SM 03/M02 A3015 RMK T00301020 IEM_DS3505
ZBHH,2002-09-27 23:00,ZBHH 272300Z AUTO 00000KT 6SM 02/M01 A3018 RMK T00201010 IEM_DS3505
ZBHH,2002-09-28 00:00,ZBHH 280000Z AUTO 00000KT 19SM 09/M02 RMK SLP236 T00881018 52016 IEM_DS3505
ZBHH,2002-09-28 03:00,ZBHH 280300Z AUTO 09004KT 19SM 15/M01 A3018 RMK SLP217 T01521009 57006 IEM_DS3505
ZBHH,2002-09-28 04:00,ZBHH 280400Z AUTO 30010KT 6SM 16/00 A3018 RMK T01600000 IEM_DS3505
ZBHH,2002-09-28 05:00,ZBHH 280500Z AUTO 01002KT 6SM 17/01 A3015 RMK T01700010 IEM_DS3505
ZBHH,2002-09-28 06:00,ZBHH 280600Z AUTO 02004KT 19SM 18/02 A3015 RMK SLP204 T01750017 57009 IEM_DS3505
ZBHH,2002-09-28 07:00,ZBHH 280700Z AUTO 07004KT 6SM 17/01 A3015 RMK T01700010 IEM_DS3505
ZBHH,2002-09-28 08:00,ZBHH 280800Z AUTO 07002KT 6SM 16/02 A3015 RMK T01600020 IEM_DS3505
ZBHH,2002-09-28 09:00,ZBHH 280900Z AUTO 05004KT 6SM 17/02 A3015 RMK T01700020 IEM_DS3505
ZBHH,2002-09-28 12:00,ZBHH 281200Z AUTO 00000KT 19SM 13/05 A3018 RMK SLP217 T01320048 52007 IEM_DS3505
ZBHH,2002-09-28 13:00,ZBHH 281300Z AUTO 07006KT 6SM 07/02 A3018 RMK T00700020 IEM_DS3505
ZBHH,2002-09-28 14:00,ZBHH 281400Z AUTO 07006KT 6SM 06/02 A3018 RMK T00600020 IEM_DS3505
ZBHH,2002-09-28 15:00,ZBHH 281500Z AUTO 00000KT 19SM 10/04 A3018 RMK SLP216 T01010042 52006 IEM_DS3505
ZBHH,2002-09-28 18:00,ZBHH 281800Z AUTO 00000KT 19SM 08/03 RMK SLP238 T00800029 57006 IEM_DS3505
ZBHH,2002-09-28 21:00,ZBHH 282100Z AUTO 00000KT 19SM 05/00 A3015 RMK SLP208 T00530004 57006 IEM_DS3505
ZBHH,2002-09-28 22:00,ZBHH 282200Z AUTO 07004KT 6SM 03/00 A3015 RMK T00300000 IEM_DS3505
ZBHH,2002-09-28 23:00,ZBHH 282300Z AUTO 06004KT 6SM 02/00 A3018 RMK T00200000 IEM_DS3505
ZBHH,2002-09-29 00:00,ZBHH 290000Z AUTO 00000KT 19SM 07/02 A3018 RMK SLP223 T00740022 52009 IEM_DS3505
ZBHH,2002-09-29 01:00,ZBHH 290100Z AUTO 10002KT 6SM 10/03 A3018 RMK T01000030 IEM_DS3505
ZBHH,2002-09-29 02:00,ZBHH 290200Z AUTO 6SM 13/03 A3018 RMK T01300030 IEM_DS3505
ZBHH,2002-09-29 03:00,ZBHH 290300Z AUTO 00000KT 19SM 14/04 A3015 RMK SLP205 T01400044 57009 IEM_DS3505
ZBHH,2002-09-29 04:00,ZBHH 290400Z AUTO 23004KT 6SM 16/03 A3012 RMK T01600030 IEM_DS3505
ZBHH,2002-09-29 05:00,ZBHH 290500Z AUTO 23004KT 6SM 17/03 A3009 RMK T01700030 IEM_DS3505
ZBHH,2002-09-29 06:00,ZBHH 290600Z AUTO 20006KT 12SM 19/02 A3006 RMK SLP170 T01880021 57026 IEM_DS3505
ZBHH,2002-09-29 07:00,ZBHH 290700Z AUTO 23006KT 6SM 19/01 A3003 RMK T01900010 IEM_DS3505
ZBHH,2002-09-29 08:00,ZBHH 290800Z AUTO 23006KT 6SM 20/01 A3003 RMK T02000010 IEM_DS3505
ZBHH,2002-09-29 09:00,ZBHH 290900Z AUTO 20004KT 12SM 20/M00 A3003 RMK SLP156 T02011002 57015 IEM_DS3505
ZBHH,2002-09-29 10:00,ZBHH 291000Z AUTO 20002KT 6SM 18/01 A3003 RMK T01800010 IEM_DS3505
ZBHH,2002-09-29 11:00,ZBHH 291100Z AUTO 16004KT 6SM 15/02 A3003 RMK T01500020 IEM_DS3505
ZBHH,2002-09-29 12:00,ZBHH 291200Z AUTO 00000KT 16SM 17/03 A3003 RMK SLP162 T01670026 52003 IEM_DS3505
ZBHH,2002-09-29 13:00,ZBHH 291300Z AUTO 08002KT 11/02 A3003 RMK T01100020 IEM_DS3505
ZBHH,2002-09-29 14:00,ZBHH 291400Z AUTO 06002KT 5SM 10/02 A3003 RMK T01000020 IEM_DS3505
ZBHH,2002-09-29 15:00,ZBHH 291500Z AUTO 00000KT 19SM 12/03 A3003 RMK SLP161 T01170029 52002 IEM_DS3505
ZBHH,2002-09-29 16:00,ZBHH 291600Z AUTO 09004KT 6SM 06/00 A3003 RMK T00600000 IEM_DS3505
ZBHH,2002-09-29 18:00,ZBHH 291800Z AUTO 00000KT 19SM 08/03 RMK SLP152 T00820031 57005 IEM_DS3505
ZBHH,2002-09-29 19:00,ZBHH 291900Z AUTO 06002KT 6SM 04/00 A3000 RMK T00400000 IEM_DS3505
ZBHH,2002-09-29 20:00,ZBHH 292000Z AUTO 03002KT 4SM 05/00 A3000 RMK T00500000 IEM_DS3505
ZBHH,2002-09-29 21:00,ZBHH 292100Z AUTO 00000KT 19SM 06/02 A3000 RMK SLP147 T00630017 57006 IEM_DS3505
ZBHH,2002-09-29 22:00,ZBHH 292200Z AUTO 08002KT 4SM 02/M01 A3000 RMK T00201010 IEM_DS3505
ZBHH,2002-09-29 23:00,ZBHH 292300Z AUTO 10002KT 4SM 03/00 A3000 RMK T00300000 IEM_DS3505
ZBHH,2002-09-30 00:00,ZBHH 300000Z AUTO 00000KT 19SM 10/03 A3000 RMK SLP146 T00990029 54000 IEM_DS3505
ZBHH,2002-09-30 01:00,ZBHH 300100Z AUTO 16002KT 6SM 12/01 A3000 RMK T01200010 IEM_DS3505
ZBHH,2002-09-30 02:00,ZBHH 300200Z AUTO 20004KT 6SM 14/00 A3000 RMK T01400000 IEM_DS3505
ZBHH,2002-09-30 03:00,ZBHH 300300Z AUTO 18002KT 16SM 16/00 A2997 RMK SLP137 T01560002 57007 IEM_DS3505
ZBHH,2002-09-30 04:00,ZBHH 300400Z AUTO 23002KT 6SM 17/00 A2994 RMK T01700000 IEM_DS3505
ZBHH,2002-09-30 05:00,ZBHH 300500Z AUTO 23004KT 6SM 19/01 A2991 RMK T01900010 IEM_DS3505
ZBHH,2002-09-30 06:00,ZBHH 300600Z AUTO 20008KT 19SM 20/M02 A2988 RMK SLP100 T02001018 57031 IEM_DS3505
ZBHH,2002-09-30 07:00,ZBHH 300700Z AUTO 24010G19KT 6SM 21/M01 A2985 RMK T02101010 IEM_DS3505
ZBHH,2002-09-30 08:00,ZBHH 300800Z AUTO 22012KT 6SM 20/M01 A2983 RMK T02001010 IEM_DS3505
ZBHH,2002-09-30 09:00,ZBHH 300900Z AUTO 22006KT 19SM 21/M02 A2985 RMK SLP095 T02121020 57006 IEM_DS3505
ZBHH,2002-09-30 10:00,ZBHH 301000Z AUTO 32016G25KT 5SM 20/M04 A2985 RMK T02001040 IEM_DS3505
ZBHH,2002-09-30 11:00,ZBHH 301100Z AUTO 34021G35KT 3SM 17/M01 A2991 RMK T01701010 IEM_DS3505
ZBHH,2002-09-30 12:00,ZBHH 301200Z AUTO 33016G27KT 3SM 15/M06 A2994 RMK T01501060 IEM_DS3505
ZBHH,2002-09-30 13:00,ZBHH 301300Z AUTO 33019G29KT 13/M06 A2997 RMK T01301060 IEM_DS3505
ZBHH,2002-09-30 14:00,ZBHH 301400Z AUTO 34014G29KT 7SM 11/M09 A3003 RMK T01101090 IEM_DS3505
ZBHH,2002-09-30 15:00,ZBHH 301500Z AUTO 29004G27KT 12SM 11/M08 A3006 RMK SLP173 T01071085 52037 IEM_DS3505
ZBHH,2002-09-30 16:00,ZBHH 301600Z AUTO 33017G31KT 7SM 09/M10 A3006 RMK T00901100 IEM_DS3505
ZBHH,2002-09-30 17:00,ZBHH 301700Z AUTO 33008KT 7SM 07/M10 A3009 RMK T00701100 IEM_DS3505
ZBHH,2002-09-30 18:00,ZBHH 301800Z AUTO 27006G21KT 19SM 07/M11 A3009 RMK SLP178 T00731109 52006 IEM_DS3505
ZBHH,2002-09-30 20:00,ZBHH 302000Z AUTO 34004KT 7SM 03/M10 A3009 RMK T00301100 IEM_DS3505
ZBHH,2002-09-30 21:00,ZBHH 302100Z AUTO 29004KT 19SM 05/M10 A3009 RMK SLP182 T00521100 52002 IEM_DS3505
ZBHH,2002-09-30 22:00,ZBHH 302200Z AUTO 29002KT 6SM 01/M09 A3012 RMK T00101090 IEM_DS3505
ZBHH,2002-09-30 23:00,ZBHH 302300Z AUTO 00000KT 6SM 00/M09 A3012 RMK T00001090 IEM_DS3505
ZBHH,2002-10-01 00:00,ZBHH 010000Z AUTO 29006KT 19SM 05/M11 A3012 RMK SLP208 T00521111 52013 IEM_DS3505
ZBHH,2002-10-01 01:00,ZBHH 010100Z AUTO 36004KT 6SM 06/M11 A3015 RMK T00601110 IEM_DS3505
ZBHH,2002-10-01 02:00,ZBHH 010200Z AUTO 31006KT 6SM 08/M11 A3015 RMK T00801110 IEM_DS3505
ZBHH,2002-10-01 03:00,ZBHH 010300Z AUTO 29006KT 19SM 10/M14 A3012 RMK SLP208 T00951141 57002 IEM_DS3505
ZBHH,2002-10-01 04:00,ZBHH 010400Z AUTO 31008KT 6SM 11/M13 A3009 RMK T01101130 IEM_DS3505
ZBHH,2002-10-01 05:00,ZBHH 010500Z AUTO 29012KT 6SM 12/M13 A3006 RMK T01201130 IEM_DS3505
ZBHH,2002-10-01 06:00,ZBHH 010600Z AUTO 32006KT 19SM 14/M13 A3000 RMK SLP165 T01421134 57036 IEM_DS3505
ZBHH,2002-10-01 07:00,ZBHH 010700Z AUTO 23010G19KT 6SM 14/M12 A3000 RMK T01401120 IEM_DS3505
ZBHH,2002-10-01 08:00,ZBHH 010800Z AUTO 24006KT 6SM 15/M10 A2997 RMK T01501100 IEM_DS3505
ZBHH,2002-10-01 09:00,ZBHH 010900Z AUTO 20004KT 19SM 15/M10 A2997 RMK SLP150 T01541103 57015 IEM_DS3505
ZBHH,2002-10-01 10:00,ZBHH 011000Z AUTO 23006KT 6SM 13/M09 A2994 RMK T01301090 IEM_DS3505
ZBHH,2002-10-01 11:00,ZBHH 011100Z AUTO 21006KT 6SM 10/M08 A2994 RMK T01001080 IEM_DS3505
ZBHH,2002-10-01 12:00,ZBHH 011200Z AUTO 00000KT 19SM 12/M06 A2994 RMK SLP153 T01161056 57005 IEM_DS3505
ZBHH,2002-10-01 13:00,ZBHH 011300Z AUTO 03002KT 06/M07 A2994 RMK T00601070 IEM_DS3505
ZBHH,2002-10-01 14:00,ZBHH 011400Z AUTO 10004KT 5SM 03/M07 A2994 RMK T00301070 IEM_DS3505
ZBHH,2002-10-01 15:00,ZBHH 011500Z AUTO 00000KT 19SM 07/M05 A2994 RMK SLP148 T00721046 57004 IEM_DS3505
ZBHH,2002-10-01 16:00,ZBHH 011600Z AUTO 01/M07 A2991 RMK T00101070 IEM_DS3505
ZBHH,2002-10-01 17:00,ZBHH 011700Z AUTO 6SM 02/M07 A2991 RMK T00201070 IEM_DS3505
ZBHH,2002-10-01 21:00,ZBHH 012100Z AUTO 00000KT 19SM 04/M06 A2988 RMK SLP123 T00371062 57011 IEM_DS3505
ZBHH,2002-10-01 22:00,ZBHH 012200Z AUTO 08002KT 6SM M03/M07 A2988 RMK T10301070 IEM_DS3505
ZBHH,2002-10-01 23:00,ZBHH 012300Z AUTO 10002KT 6SM M03/M07 A2988 RMK T10301070 IEM_DS3505
ZBHH,2002-10-02 00:00,ZBHH 020000Z AUTO 04004KT 19SM 05/M06 A2988 RMK SLP132 T00541055 52003 IEM_DS3505
ZBHH,2002-10-02 01:00,ZBHH 020100Z AUTO 17002KT 6SM 07/M05 A2988 RMK T00701050 IEM_DS3505
ZBHH,2002-10-02 02:00,ZBHH 020200Z AUTO 18004KT 6SM 10/M04 A2988 RMK T01001040 IEM_DS3505
ZBHH,2002-10-02 03:00,ZBHH 020300Z AUTO 25004KT 6SM 13/M03 A2985 RMK T01301030 IEM_DS3505
ZBHH,2002-10-02 04:00,ZBHH 020400Z AUTO 22006KT 6SM 16/M05 A2983 RMK T01601050 IEM_DS3505
ZBHH,2002-10-02 05:00,ZBHH 020500Z AUTO 23004KT 6SM 18/M05 A2983 RMK T01801050 IEM_DS3505
ZBHH,2002-10-02 06:00,ZBHH 020600Z AUTO 32008G25KT 19SM 21/M13 A2977 RMK SLP076 T02091133 57024 IEM_DS3505
ZBHH,2002-10-02 07:00,ZBHH 020700Z AUTO 31016G25KT 6SM 22/M09 A2977 RMK T02201090 IEM_DS3505
ZBHH,2002-10-02 09:00,ZBHH 020900Z AUTO 32008KT 19SM 22/M11 A2977 RMK SLP075 T02201112 57002 IEM_DS3505
ZBHH,2002-10-02 10:00,ZBHH 021000Z AUTO 35006KT 6SM 19/M10 A2980 RMK T01901100 IEM_DS3505
ZBHH,2002-10-02 11:00,ZBHH 021100Z AUTO 01006KT 6SM 15/M09 A2983 RMK T01501090 IEM_DS3505
ZBHH,2002-10-02 12:00,ZBHH 021200Z AUTO 02002KT 19SM 17/M08 A2985 RMK SLP107 T01661085 52021 IEM_DS3505
ZBHH,2002-10-02 13:00,ZBHH 021300Z AUTO 34004KT 6SM 11/M07 A2985 RMK T01101070 IEM_DS3505
ZBHH,2002-10-02 14:00,ZBHH 021400Z AUTO 34008KT 6SM 13/M08 A2988 RMK T01301080 IEM_DS3505
ZBHH,2002-10-02 15:00,ZBHH 021500Z AUTO 02004KT 19SM 13/M07 A2988 RMK SLP113 T01311074 52015 IEM_DS3505
ZBHH,2002-10-02 18:00,ZBHH 021800Z AUTO 00000KT 19SM 10/M06 RMK SLP112 T01051056 52008 IEM_DS3505
ZBHH,2002-10-02 21:00,ZBHH 022100Z AUTO 00000KT 19SM 06/M04 A2994 RMK SLP124 T00621043 52004 IEM_DS3505
ZBHH,2002-10-02 22:00,ZBHH 022200Z AUTO 04002KT 6SM 04/M05 A2994 RMK T00401050 IEM_DS3505
ZBHH,2002-10-02 23:00,ZBHH 022300Z AUTO 04002KT 6SM 05/M04 A2997 RMK T00501040 IEM_DS3505
ZBHH,2002-10-03 00:00,ZBHH 030000Z AUTO 00000KT 19SM 09/M02 A2997 RMK SLP142 T00931020 52012 IEM_DS3505
ZBHH,2002-10-03 01:00,ZBHH 030100Z AUTO 10004KT 6SM 12/M04 A2997 RMK T01201040 IEM_DS3505
ZBHH,2002-10-03 02:00,ZBHH 030200Z AUTO 14002KT 6SM 15/M04 A2997 RMK T01501040 IEM_DS3505
ZBHH,2002-10-03 03:00,ZBHH 030300Z AUTO 00000KT 19SM 18/M02 A2997 RMK SLP132 T01751024 54000 IEM_DS3505
ZBHH,2002-10-03 04:00,ZBHH 030400Z AUTO 19002KT 6SM 19/M02 A2994 RMK T01901020 IEM_DS3505
ZBHH,2002-10-03 05:00,ZBHH 030500Z AUTO 24006KT 6SM 19/M03 A2994 RMK T01901030 IEM_DS3505
ZBHH,2002-10-03 06:00,ZBHH 030600Z AUTO 16004KT 16SM 21/M04 A2991 RMK SLP103 T02091044 57024 IEM_DS3505
ZBHH,2002-10-03 07:00,ZBHH 030700Z AUTO 24006KT 6SM 22/M02 A2991 RMK T02201020 IEM_DS3505
ZBHH,2002-10-03 08:00,ZBHH 030800Z AUTO 24008KT 6SM 22/M03 A2988 RMK T02201030 IEM_DS3505
ZBHH,2002-10-03 09:00,ZBHH 030900Z AUTO 20006KT 16SM 21/M03 A2988 RMK SLP104 T02121033 57007 IEM_DS3505
ZBHH,2002-10-03 10:00,ZBHH 031000Z AUTO 21002KT 6SM 19/M01 A2988 RMK T01901010 IEM_DS3505
ZBHH,2002-10-03 12:00,ZBHH 031200Z AUTO 00000KT 12SM 17/03 A2991 RMK SLP117 T01660027 52009 IEM_DS3505
ZBHH,2002-10-03 13:00,ZBHH 031300Z AUTO 06002KT 12/01 A2991 RMK T01200010 IEM_DS3505
ZBHH,2002-10-03 14:00,ZBHH 031400Z AUTO 36006KT 13/00 A2994 RMK T01300000 IEM_DS3505
ZBHH,2002-10-03 15:00,ZBHH 031500Z AUTO 32004KT 12SM 16/02 A2991 RMK SLP114 T01580015 52011 IEM_DS3505
ZBHH,2002-10-03 18:00,ZBHH 031800Z AUTO 29004KT 16SM 15/M11 RMK SLP130 T01461108 52019 IEM_DS3505
ZBHH,2002-10-03 21:00,ZBHH 032100Z AUTO 32010KT 12SM 09/M06 A3006 RMK SLP163 T00921064 52019 IEM_DS3505
ZBHH,2002-10-03 22:00,ZBHH 032200Z AUTO 30006KT 6SM 07/M08 A3009 RMK T00701080 IEM_DS3505
ZBHH,2002-10-03 23:00,ZBHH 032300Z AUTO 00000KT 6SM 05/M07 A3012 RMK T00501070 IEM_DS3505
ZBHH,2002-10-04 00:00,ZBHH 040000Z AUTO 02002KT 19SM 08/M08 A3012 RMK SLP198 T00811077 52020 IEM_DS3505
ZBHH,2002-10-04 01:00,ZBHH 040100Z AUTO 30008KT 6SM 09/M09 A3015 RMK T00901090 IEM_DS3505
ZBHH,2002-10-04 02:00,ZBHH 040200Z AUTO 31012KT 6SM 11/M09 A3015 RMK T01101090 IEM_DS3505
ZBHH,2002-10-04 03:00,ZBHH 040300Z AUTO 29004G25KT 19SM 14/M13 A3012 RMK SLP184 T01361134 57003 IEM_DS3505
ZBHH,2002-10-04 04:00,ZBHH 040400Z AUTO 32016KT 6SM 14/M12 A3009 RMK T01401120 IEM_DS3505
ZBHH,2002-10-04 05:00,ZBHH 040500Z AUTO 32019G29KT 6SM 14/M13 A3009 RMK T01401130 IEM_DS3505
ZBHH,2002-10-04 06:00,ZBHH 040600Z AUTO 29010G29KT 19SM 15/M16 A3006 RMK SLP162 T01481162 57020 IEM_DS3505
ZBHH,2002-10-04 07:00,ZBHH 040700Z AUTO 30016KT 6SM 15/M13 A3006 RMK T01501130 IEM_DS3505
ZBHH,2002-10-04 08:00,ZBHH 040800Z AUTO 30016G25KT 6SM 14/M13 A3006 RMK T01401130 IEM_DS3505
ZBHH,2002-10-04 09:00,ZBHH 040900Z AUTO 29006G27KT 19SM 13/M16 A3006 RMK SLP187 T01291158 52008 IEM_DS3505
ZBHH,2002-10-04 10:00,ZBHH 041000Z AUTO 31014KT 6SM 11/M12 A3009 RMK T01101120 IEM_DS3505
ZBHH,2002-10-04 11:00,ZBHH 041100Z AUTO 31012KT 6SM 09/M11 A3012 RMK T00901110 IEM_DS3505
ZBHH,2002-10-04 12:00,ZBHH 041200Z AUTO 29006KT 19SM 10/M12 A3012 RMK SLP217 T00991122 52018 IEM_DS3505
ZBHH,2002-10-04 13:00,ZBHH 041300Z AUTO 30010KT 6SM 08/M12 A3015 RMK T00801120 IEM_DS3505
ZBHH,2002-10-04 14:00,ZBHH 041400Z AUTO 30008KT 6SM 06/M12 A3015 RMK T00601120 IEM_DS3505
ZBHH,2002-10-04 15:00,ZBHH 041500Z AUTO 32002KT 19SM 07/M13 A3015 RMK SLP219 T00701129 52007 IEM_DS3505
ZBHH,2002-10-04 18:00,ZBHH 041800Z AUTO 27004KT 19SM 06/M12 RMK SLP217 T00651122 54000 IEM_DS3505
ZBHH,2002-10-04 21:00,ZBHH 042100Z AUTO 00000KT 19SM 04/M12 A3015 RMK SLP220 T00391116 57007 IEM_DS3505
ZBHH,2002-10-04 23:00,ZBHH 042300Z AUTO 28012KT 6SM 02/M15 A3015 RMK T00201150 IEM_DS3505
ZBHH,2002-10-05 00:00,ZBHH 050000Z AUTO 27004G23KT 19SM 04/M18 A3015 RMK SLP233 T00451178 52007 IEM_DS3505
ZBHH,2002-10-05 01:00,ZBHH 050100Z AUTO 29016KT 6SM 03/M15 A3015 RMK T00301150 IEM_DS3505
ZBHH,2002-10-05 02:00,ZBHH 050200Z AUTO 31014G25KT 6SM 03/M15 A3015 RMK T00301150 IEM_DS3505
ZBHH,2002-10-05 03:00,ZBHH 050300Z AUTO 29006G35KT 12SM 05/M11 A3018 RMK SLP244 T00461113 52004 IEM_DS3505
ZBHH,2002-10-05 04:00,ZBHH 050400Z AUTO 30017G27KT 6SM 05/M10 A3015 RMK T00501100 IEM_DS3505
ZBHH,2002-10-05 05:00,ZBHH 050500Z AUTO 31014G25KT 7SM 05/M08 A3015 RMK T00501080 IEM_DS3505
ZBHH,2002-10-05 06:00,ZBHH 050600Z AUTO 32008KT 19SM 06/M09 A3015 RMK SLP235 T00651094 57005 IEM_DS3505
ZBHH,2002-10-05 07:00,ZBHH 050700Z AUTO 30017G27KT 7SM 06/M06 A3015 RMK T00601060 IEM_DS3505
ZBHH,2002-10-05 08:00,ZBHH 050800Z AUTO 30012KT 7SM 06/M06 A3018 RMK T00601060 IEM_DS3505
ZBHH,2002-10-05 09:00,ZBHH 050900Z AUTO 29006KT 19SM 07/M05 A3021 RMK SLP258 T00681053 52015 IEM_DS3505
ZBHH,2002-10-05 10:00,ZBHH 051000Z AUTO 28010KT 7SM 06/M03 A3021 RMK T00601030 IEM_DS3505
ZBHH,2002-10-05 11:00,ZBHH 051100Z AUTO 31012KT 7SM 06/M03 A3021 RMK T00601030 IEM_DS3505
ZBHH,2002-10-05 12:00,ZBHH 051200Z AUTO 32008KT 19SM 07/M03 A3024 RMK SLP274 T00661027 52015 IEM_DS3505
ZBHH,2002-10-05 13:00,ZBHH 051300Z AUTO 33017G31KT 7SM 06/M02 A3024 RMK T00601020 IEM_DS3505
ZBHH,2002-10-05 14:00,ZBHH 051400Z AUTO 32008G19KT 7SM 06/M01 A3027 RMK T00601010 IEM_DS3505
ZBHH,2002-10-05 15:00,ZBHH 051500Z AUTO 34010G19KT 7SM 06/M01 A3027 RMK T00601010 IEM_DS3505
ZBHH,2002-10-05 16:00,ZBHH 051600Z AUTO 34008KT 7SM 06/M02 A3024 RMK T00601020 IEM_DS3505
ZBHH,2002-10-05 17:00,ZBHH 051700Z AUTO 35004KT 7SM 06/M02 A3024 RMK T00601020 IEM_DS3505
ZBHH,2002-10-05 18:00,ZBHH 051800Z AUTO 32004KT 19SM 07/M03 A3024 RMK SLP263 T00711030 57008 IEM_DS3505
ZBHH,2002-10-05 19:00,ZBHH 051900Z AUTO 32006KT 7SM 05/M02 A3024 RMK T00501020 IEM_DS3505
ZBHH,2002-10-05 20:00,ZBHH 052000Z AUTO 31004KT 7SM 05/M01 A3021 RMK T00501010 IEM_DS3505
ZBHH,2002-10-05 21:00,ZBHH 052100Z AUTO 34002KT 19SM 05/01 A3021 RMK 70000 SLP258 T00490008 57009 IEM_DS3505
ZBHH,2002-10-05 22:00,ZBHH 052200Z AUTO 23002KT 7SM 04/01 A3021 RMK T00400010 IEM_DS3505
ZBHH,2002-10-05 23:00,ZBHH 052300Z AUTO 23002KT 7SM 04/M01 A3021 RMK T00401010 IEM_DS3505
ZBHH,2002-10-06 00:00,ZBHH 060000Z AUTO 29006KT 19SM 05/M04 A3021 RMK 70000 SLP258 T00531039 52001 IEM_DS3505
ZBHH,2002-10-06 01:00,ZBHH 060100Z AUTO 35006KT 7SM 06/M02 A3021 RMK T00601020 IEM_DS3505
ZBHH,2002-10-06 02:00,ZBHH 060200Z AUTO 35012KT 7SM 08/M02 A3024 RMK T00801020 IEM_DS3505
ZBHH,2002-10-06 03:00,ZBHH 060300Z AUTO 29006KT 19SM 08/M03 A3021 RMK SLP252 T00811033 54000 IEM_DS3505
ZBHH,2002-10-06 04:00,ZBHH 060400Z AUTO 35012G23KT 7SM 09/M02 A3021 RMK T00901020 IEM_DS3505
ZBHH,2002-10-06 05:00,ZBHH 060500Z AUTO 35008KT 7SM 10/M04 A3018 RMK T01001040 IEM_DS3505
ZBHH,2002-10-06 06:00,ZBHH 060600Z AUTO 04002KT 19SM 10/M04 A3018 RMK SLP225 T00991040 57019 IEM_DS3505
ZBHH,2002-10-06 07:00,ZBHH 060700Z AUTO 34008KT 7SM 09/M05 A3018 RMK T00901050 IEM_DS3505
ZBHH,2002-10-06 08:00,ZBHH 060800Z AUTO 36012KT 7SM 10/M06 A3015 RMK T01001060 IEM_DS3505
ZBHH,2002-10-06 09:00,ZBHH 060900Z AUTO 04006KT 19SM 11/M05 A3018 RMK SLP232 T01061051 57005 IEM_DS3505
ZBHH,2002-10-06 10:00,ZBHH 061000Z AUTO 01008KT 7SM 08/M04 A3018 RMK T00801040 IEM_DS3505
ZBHH,2002-10-06 12:00,ZBHH 061200Z AUTO 00000KT 19SM 07/M03 A3018 RMK SLP248 T00721029 52008 IEM_DS3505
ZBHH,2002-10-06 13:00,ZBHH 061300Z AUTO 22002KT 6SM 02/M03 A3018 RMK T00201030 IEM_DS3505
ZBHH,2002-10-06 14:00,ZBHH 061400Z AUTO 00000KT 6SM 01/M04 A3021 RMK T00101040 IEM_DS3505
ZBHH,2002-10-06 15:00,ZBHH 061500Z AUTO 00000KT 19SM 04/M02 A3021 RMK SLP253 T00371024 52003 IEM_DS3505
ZBHH,2002-10-06 16:00,ZBHH 061600Z AUTO 07004KT 6SM 02/M04 A3021 RMK T00201040 IEM_DS3505
ZBHH,2002-10-06 18:00,ZBHH 061800Z AUTO 00000KT 19SM 03/M02 RMK SLP252 T00281020 52001 IEM_DS3505
ZBHH,2002-10-06 21:00,ZBHH 062100Z AUTO 09002KT 19SM 02/M03 A3021 RMK SLP253 T00161031 54000 IEM_DS3505
ZBHH,2002-10-06 22:00,ZBHH 062200Z AUTO 06004KT 6SM M04/M07 A3021 RMK T10401070 IEM_DS3505
ZBHH,2002-10-06 23:00,ZBHH 062300Z AUTO 12002KT 6SM M03/M06 A3024 RMK T10301060 IEM_DS3505
ZBHH,2002-10-07 00:00,ZBHH 070000Z AUTO 07002KT 19SM 03/M04 A3027 RMK SLP274 T00291041 52014 IEM_DS3505
ZBHH,2002-10-07 01:00,ZBHH 070100Z AUTO 10004KT 6SM 04/M05 A3027 RMK T00401050 IEM_DS3505
ZBHH,2002-10-07 02:00,ZBHH 070200Z AUTO 15004KT 6SM 07/M04 A3027 RMK T00701040 IEM_DS3505
ZBHH,2002-10-07 03:00,ZBHH 070300Z AUTO 00000KT 19SM 09/M03 A3027 RMK SLP268 T00921026 52001 IEM_DS3505
ZBHH,2002-10-07 04:00,ZBHH 070400Z AUTO 14004KT 6SM 09/M06 A3024 RMK T00901060 IEM_DS3505
ZBHH,2002-10-07 05:00,ZBHH 070500Z AUTO 25004KT 6SM 10/M06 A3021 RMK T01001060 IEM_DS3505
ZBHH,2002-10-07 06:00,ZBHH 070600Z AUTO 20004KT 19SM 12/M03 A3018 RMK SLP239 T01221030 57022 IEM_DS3505
ZBHH,2002-10-07 07:00,ZBHH 070700Z AUTO 23004KT 6SM 12/M06 A3018 RMK T01201060 IEM_DS3505
ZBHH,2002-10-07 08:00,ZBHH 070800Z AUTO 24006KT 6SM 13/M06 A3015 RMK T01301060 IEM_DS3505
ZBHH,2002-10-07 09:00,ZBHH 070900Z AUTO 18002KT 19SM 13/M03 A3015 RMK SLP229 T01291028 57009 IEM_DS3505
ZBHH,2002-10-07 11:00,ZBHH 071100Z AUTO 12002KT 6SM 07/M06 A3018 RMK T00701060 IEM_DS3505
ZBHH,2002-10-07 12:00,ZBHH 071200Z AUTO 00000KT 16SM 09/M01 RMK T00881009 IEM_DS3505
ZBHH,2002-10-07 13:00,ZBHH 071300Z AUTO 07002KT 6SM 05/M05 A3018 RMK T00501050 IEM_DS3505
ZBHH,2002-10-07 14:00,ZBHH 071400Z AUTO 07004KT 6SM 04/M05 A3018 RMK T00401050 IEM_DS3505
ZBHH,2002-10-07 15:00,ZBHH 071500Z AUTO 00000KT 19SM 05/M01 A3018 RMK SLP238 T00521008 52002 IEM_DS3505
ZBHH,2002-10-07 18:00,ZBHH 071800Z AUTO 00000KT 19SM 03/M02 RMK SLP236 T00311016 54000 IEM_DS3505
ZBHH,2002-10-07 21:00,ZBHH 072100Z AUTO 00000KT 19SM 02/M03 A3015 RMK SLP231 T00201027 57005 IEM_DS3505
ZBHH,2002-10-07 22:00,ZBHH 072200Z AUTO 08004KT 6SM 00/M06 A3015 RMK T00001060 IEM_DS3505
ZBHH,2002-10-07 23:00,ZBHH 072300Z AUTO 06004KT 6SM 01/M07 A3018 RMK T00101070 IEM_DS3505
ZBHH,2002-10-08 00:00,ZBHH 080000Z AUTO 00000KT 19SM 04/M02 A3018 RMK SLP243 T00411022 52007 IEM_DS3505
ZBHH,2002-10-08 01:00,ZBHH 080100Z AUTO 11002KT 6SM 08/M08 A3018 RMK T00801080 IEM_DS3505
ZBHH,2002-10-08 02:00,ZBHH 080200Z AUTO 00000KT 6SM 10/M08 A3018 RMK T01001080 IEM_DS3505
ZBHH,2002-10-08 03:00,ZBHH 080300Z AUTO 09002KT 19SM 13/M05 A3018 RMK SLP226 T01261046 57005 IEM_DS3505
ZBHH,2002-10-08 04:00,ZBHH 080400Z AUTO 21004KT 6SM 14/M10 A3015 RMK T01401100 IEM_DS3505
ZBHH,2002-10-08 05:00,ZBHH 080500Z AUTO 23004KT 6SM 16/M09 A3012 RMK T01601090 IEM_DS3505
ZBHH,2002-10-08 06:00,ZBHH 080600Z AUTO 22004KT 19SM 18/M05 A3009 RMK SLP187 T01821047 57028 IEM_DS3505
ZBHH,2002-10-08 07:00,ZBHH 080700Z AUTO 23002KT 6SM 19/M09 A3006 RMK T01901090 IEM_DS3505
ZBHH,2002-10-08 08:00,ZBHH 080800Z AUTO 22006KT 6SM 20/M10 A3003 RMK T02001100 IEM_DS3505
ZBHH,2002-10-08 09:00,ZBHH 080900Z AUTO 20004KT 19SM 19/M04 A3003 RMK SLP174 T01941045 57011 IEM_DS3505
ZBHH,2002-10-08 10:00,ZBHH 081000Z AUTO 00000KT 6SM 17/M09 A3006 RMK T01701090 IEM_DS3505
ZBHH,2002-10-08 11:00,ZBHH 081100Z AUTO 06004KT 12/M06 A3006 RMK T01201060 IEM_DS3505
ZBHH,2002-10-08 12:00,ZBHH 081200Z AUTO 00000KT 12SM 12/M00 A3006 RMK SLP193 T01161005 52005 IEM_DS3505
ZBHH,2002-10-08 13:00,ZBHH 081300Z AUTO 06004KT 6SM 08/M08 A3009 RMK T00801080 IEM_DS3505
ZBHH,2002-10-08 14:00,ZBHH 081400Z AUTO 06004KT 08/M08 A3012 RMK T00801080 IEM_DS3505
ZBHH,2002-10-08 15:00,ZBHH 081500Z AUTO 00000KT 12SM 07/M01 A3012 RMK SLP205 T00731011 52019 IEM_DS3505
ZBHH,2002-10-08 16:00,ZBHH 081600Z AUTO 08004KT 6SM 05/M07 A3012 RMK T00501070 IEM_DS3505
ZBHH,2002-10-08 17:00,ZBHH 081700Z AUTO 09004KT 6SM 05/M07 A3015 RMK T00501070 IEM_DS3505
ZBHH,2002-10-08 18:00,ZBHH 081800Z AUTO 00000KT 12SM 06/M02 RMK SLP206 T00571017 52009 IEM_DS3505
ZBHH,2002-10-08 21:00,ZBHH 082100Z AUTO 00000KT 19SM 04/M01 A3015 RMK SLP213 T00391007 52005 IEM_DS3505
ZBHH,2002-10-08 22:00,ZBHH 082200Z AUTO 07004KT 6SM 04/M07 A3018 RMK T00401070 IEM_DS3505
ZBHH,2002-10-08 23:00,ZBHH 082300Z AUTO 04004KT 6SM 04/M06 A3018 RMK T00401060 IEM_DS3505
ZBHH,2002-10-09 00:00,ZBHH 090000Z AUTO 00000KT 16SM 06/M01 A3021 RMK SLP239 T00621013 52012 IEM_DS3505
ZBHH,2002-10-09 01:00,ZBHH 090100Z AUTO 06004KT 6SM 11/M05 A3021 RMK T01101050 IEM_DS3505
ZBHH,2002-10-09 02:00,ZBHH 090200Z AUTO 11002KT 6SM 16/M06 A3021 RMK T01601060 IEM_DS3505
ZBHH,2002-10-09 03:00,ZBHH 090300Z AUTO 00000KT 9SM 17/M01 A3021 RMK SLP222 T01741012 57001 IEM_DS3505
ZBHH,2002-10-09 04:00,ZBHH 090400Z AUTO 16002KT 6SM 19/M06 A3018 RMK T01901060 IEM_DS3505
ZBHH,2002-10-09 05:00,ZBHH 090500Z AUTO 6SM 20/M05 A3015 RMK T02001050 IEM_DS3505
ZBHH,2002-10-09 06:00,ZBHH 090600Z AUTO 00000KT 12SM 20/M01 A3012 RMK SLP196 T01991010 57021 IEM_DS3505
ZBHH,2002-10-09 07:00,ZBHH 090700Z AUTO 25002KT 6SM 20/M04 A3012 RMK T02001040 IEM_DS3505
ZBHH,2002-10-09 08:00,ZBHH 090800Z AUTO 28002KT 6SM 20/M04 A3009 RMK T02001040 IEM_DS3505
ZBHH,2002-10-09 09:00,ZBHH 090900Z AUTO 00000KT 9SM 20/02 A3009 RMK SLP183 T02050015 57014 IEM_DS3505
ZBHH,2002-10-09 11:00,ZBHH 091100Z AUTO 04002KT 2 1/2SM 16/M02 A3009 RMK T01601020 IEM_DS3505
ZBHH,2002-10-09 12:00,ZBHH 091200Z AUTO 00000KT 9SM 14/04 A3009 RMK SLP197 T01450040 52005 IEM_DS3505
ZBHH,2002-10-09 13:00,ZBHH 091300Z AUTO 10004KT 3SM 12/M01 A3009 RMK T01201010 IEM_DS3505
ZBHH,2002-10-09 14:00,ZBHH 091400Z AUTO 08004KT 3SM 12/M02 A3009 RMK T01201020 IEM_DS3505
ZBHH,2002-10-09 15:00,ZBHH 091500Z AUTO 00000KT 9SM 14/04 A3012 RMK SLP175 T01360044 52001 IEM_DS3505
ZBHH,2002-10-09 16:00,ZBHH 091600Z AUTO 06004KT 09/M01 A3012 RMK T00901010 IEM_DS3505
ZBHH,2002-10-09 17:00,ZBHH 091700Z AUTO 09004KT 09/M01 A3012 RMK T00901010 IEM_DS3505
ZBHH,2002-10-09 18:00,ZBHH 091800Z AUTO 00000KT 12SM 10/02 A3012 RMK SLP183 T01050024 52006 IEM_DS3505
ZBHH,2002-10-09 19:00,ZBHH 091900Z AUTO 08004KT 08/M01 A3012 RMK T00801010 IEM_DS3505
ZBHH,2002-10-09 20:00,ZBHH 092000Z AUTO 09002KT 06/M01 A3009 RMK T00601010 IEM_DS3505
ZBHH,2002-10-09 21:00,ZBHH 092100Z AUTO 00000KT 12SM 09/02 A3012 RMK SLP183 T00910024 57002 IEM_DS3505
ZBHH,2002-10-09 22:00,ZBHH 092200Z AUTO 04002KT 4SM 06/00 A3012 RMK T00600000 IEM_DS3505
ZBHH,2002-10-09 23:00,ZBHH 092300Z AUTO 10002KT 06/00 A3012 RMK T00600000 IEM_DS3505
ZBHH,2002-10-10 00:00,ZBHH 100000Z AUTO 04002KT 12SM 11/03 A3015 RMK SLP205 T01080033 52011 IEM_DS3505
ZBHH,2002-10-10 01:00,ZBHH 100100Z AUTO 10002KT 11/02 A3015 RMK T01100020 IEM_DS3505
ZBHH,2002-10-10 02:00,ZBHH 100200Z AUTO 20002KT 15/05 A3015 RMK T01500050 IEM_DS3505
ZBHH,2002-10-10 03:00,ZBHH 100300Z AUTO 18006KT 12SM 16/08 A3015 RMK SLP190 T01640078 57004 IEM_DS3505
ZBHH,2002-10-10 04:00,ZBHH 100400Z AUTO 24008KT 6SM 18/08 A3012 RMK T01800080 IEM_DS3505
ZBHH,2002-10-10 05:00,ZBHH 100500Z AUTO 24008KT 6SM 18/08 A3009 RMK T01800080 IEM_DS3505
ZBHH,2002-10-10 06:00,ZBHH 100600Z AUTO 22004KT 12SM 19/08 A3006 RMK SLP162 T01940076 57025 IEM_DS3505
ZBHH,2002-10-10 07:00,ZBHH 100700Z AUTO 23010KT 6SM 20/04 A3003 RMK T02000040 IEM_DS3505
ZBHH,2002-10-10 08:00,ZBHH 100800Z AUTO 23012KT 7SM 20/01 A3006 RMK T02000010 IEM_DS3505
ZBHH,2002-10-10 09:00,ZBHH 100900Z AUTO 27006KT 12SM 20/M01 A3006 RMK SLP164 T01971007 54000 IEM_DS3505
ZBHH,2002-10-10 10:00,ZBHH 101000Z AUTO 30006KT 6SM 17/M10 A3006 RMK T01701100 IEM_DS3505
ZBHH,2002-10-10 11:00,ZBHH 101100Z AUTO 31008KT 6SM 16/M10 A3009 RMK T01601100 IEM_DS3505
ZBHH,2002-10-10 12:00,ZBHH 101200Z AUTO 32008KT 19SM 16/M06 A3009 RMK SLP186 T01591064 52015 IEM_DS3505
ZBHH,2002-10-10 13:00,ZBHH 101300Z AUTO 33008KT 6SM 13/M09 A3012 RMK T01301090 IEM_DS3505
ZBHH,2002-10-10 14:00,ZBHH 101400Z AUTO 33010KT 6SM 12/M09 A3012 RMK T01201090 IEM_DS3505
ZBHH,2002-10-10 15:00,ZBHH 101500Z AUTO 00000KT 19SM 12/M07 A3012 RMK SLP188 T01211074 52005 IEM_DS3505
ZBHH,2002-10-10 18:00,ZBHH 101800Z AUTO 00000KT 19SM 07/M01 RMK SLP188 T00681008 57004 IEM_DS3505
ZBHH,2002-10-10 21:00,ZBHH 102100Z AUTO 00000KT 19SM 04/M02 A3009 RMK SLP182 T00411022 57010 IEM_DS3505
ZBHH,2002-10-10 22:00,ZBHH 102200Z AUTO 08002KT 6SM 01/M07 A3006 RMK T00101070 IEM_DS3505
ZBHH,2002-10-10 23:00,ZBHH 102300Z AUTO 08006KT 6SM 00/M08 A3006 RMK T00001080 IEM_DS3505
ZBHH,2002-10-11 00:00,ZBHH 110000Z AUTO 00000KT 12SM 06/M03 A3006 RMK SLP181 T00581032 57005 IEM_DS3505
ZBHH,2002-10-11 02:00,ZBHH 110200Z AUTO 00000KT 6SM 12/M08 A3003 RMK T01201080 IEM_DS3505
ZBHH,2002-10-11 03:00,ZBHH 110300Z AUTO 18002KT 19SM 14/M04 A3003 RMK SLP154 T01431044 57015 IEM_DS3505
ZBHH,2002-10-11 04:00,ZBHH 110400Z AUTO 22002KT 6SM 15/M07 A2997 RMK T01501070 IEM_DS3505
ZBHH,2002-10-11 05:00,ZBHH 110500Z AUTO 22008KT 6SM 17/M07 A2994 RMK T01701070 IEM_DS3505
ZBHH,2002-10-11 06:00,ZBHH 110600Z AUTO 22004KT 19SM 19/M04 A2988 RMK SLP112 T01901045 57038 IEM_DS3505
ZBHH,2002-10-11 07:00,ZBHH 110700Z AUTO 25010G19KT 6SM 21/M05 A2985 RMK T02101050 IEM_DS3505
ZBHH,2002-10-11 08:00,ZBHH 110800Z AUTO 24012KT 6SM 21/M05 A2983 RMK T02101050 IEM_DS3505
ZBHH,2002-10-11 09:00,ZBHH 110900Z AUTO 20006KT 19SM 20/M02 A2983 RMK SLP094 T01961022 57020 IEM_DS3505
ZBHH,2002-10-11 10:00,ZBHH 111000Z AUTO 23004KT 6SM 18/M03 A2983 RMK T01801030 IEM_DS3505
ZBHH,2002-10-11 11:00,ZBHH 111100Z AUTO 22004KT 2 1/2SM 15/M02 A2983 RMK T01501020 IEM_DS3505
ZBHH,2002-10-11 12:00,ZBHH 111200Z AUTO 32004KT 16SM 16/01 RMK SLP109 T01620009 52010 IEM_DS3505
ZBHH,2002-10-11 15:00,ZBHH 111500Z AUTO 25004KT 16SM 16/M03 RMK SLP119 T01551028 52024 IEM_DS3505
ZBHH,2002-10-11 18:00,ZBHH 111800Z AUTO 32008KT 12SM 12/M08 RMK SLP139 T01251079 52021 IEM_DS3505
ZBHH,2002-10-11 21:00,ZBHH 112100Z AUTO 29002KT 12SM 07/M10 RMK SLP184 T00661097 52029 IEM_DS3505
ZBHH,2002-10-12 00:00,ZBHH 120000Z AUTO 34006KT 12SM 04/M12 A3018 RMK SLP226 T00381124 52025 IEM_DS3505
ZBHH,2002-10-12 01:00,ZBHH 120100Z AUTO 01010KT 6SM 03/M15 A3018 RMK T00301150 IEM_DS3505
ZBHH,2002-10-12 02:00,ZBHH 120200Z AUTO 01010KT 6SM 05/M14 A3021 RMK T00501140 IEM_DS3505
ZBHH,2002-10-12 03:00,ZBHH 120300Z AUTO 32006KT 19SM 09/M15 A3021 RMK SLP223 T00861154 52006 IEM_DS3505
ZBHH,2002-10-12 04:00,ZBHH 120400Z AUTO 36008KT 6SM 09/M17 A3018 RMK T00901170 IEM_DS3505
ZBHH,2002-10-12 05:00,ZBHH 120500Z AUTO 33012KT 6SM 11/M19 A3015 RMK T01101190 IEM_DS3505
ZBHH,2002-10-12 06:00,ZBHH 120600Z AUTO 18006KT 19SM 13/M14 A3012 RMK SLP194 T01301139 57023 IEM_DS3505
ZBHH,2002-10-12 07:00,ZBHH 120700Z AUTO 22004KT 6SM 13/M18 A3012 RMK T01301180 IEM_DS3505
ZBHH,2002-10-12 08:00,ZBHH 120800Z AUTO 6SM 13/M17 A3012 RMK T01301170 IEM_DS3505
ZBHH,2002-10-12 09:00,ZBHH 120900Z AUTO 20002KT 19SM 14/M13 A3012 RMK SLP202 T01361127 57004 IEM_DS3505
ZBHH,2002-10-12 10:00,ZBHH 121000Z AUTO 13002KT 6SM 10/M16 A3012 RMK T01001160 IEM_DS3505
ZBHH,2002-10-12 11:00,ZBHH 121100Z AUTO 09002KT 6SM 07/M16 A3012 RMK T00701160 IEM_DS3505
ZBHH,2002-10-12 12:00,ZBHH 121200Z AUTO 00000KT 12SM 09/M09 RMK SLP225 T00901087 52006 IEM_DS3505
ZBHH,2002-10-12 13:00,ZBHH 121300Z AUTO 09004KT 6SM 02/M16 A3015 RMK T00201160 IEM_DS3505
ZBHH,2002-10-12 14:00,ZBHH 121400Z AUTO 06002KT 6SM 02/M16 A3015 RMK T00201160 IEM_DS3505
ZBHH,2002-10-12 15:00,ZBHH 121500Z AUTO 00000KT 12SM 05/M09 A3015 RMK SLP228 T00521090 52004 IEM_DS3505
ZBHH,2002-10-12 18:00,ZBHH 121800Z AUTO 00000KT 19SM 02/M08 RMK SLP219 T00221078 57005 IEM_DS3505
ZBHH,2002-10-12 21:00,ZBHH 122100Z AUTO 00000KT 19SM 01/M08 A3009 RMK SLP208 T00131084 57010 IEM_DS3505
ZBHH,2002-10-12 22:00,ZBHH 122200Z AUTO 06004KT 6SM M02/M14 A3009 RMK T10201140 IEM_DS3505
ZBHH,2002-10-12 23:00,ZBHH 122300Z AUTO 10002KT 6SM M04/M14 A3009 RMK T10401140 IEM_DS3505
ZBHH,2002-10-13 00:00,ZBHH 130000Z AUTO 00000KT 12SM 03/M08 A3009 RMK SLP211 T00321075 57003 IEM_DS3505
ZBHH,2002-10-13 01:00,ZBHH 130100Z AUTO 07002KT 07/M13 A3009 RMK T00701130 IEM_DS3505
ZBHH,2002-10-13 02:00,ZBHH 130200Z AUTO 00000KT 10/M13 A3006 RMK T01001130 IEM_DS3505
ZBHH,2002-10-13 03:00,ZBHH 130300Z AUTO 16002KT 9SM 12/M11 A3006 RMK SLP187 T01181107 57011 IEM_DS3505
ZBHH,2002-10-13 04:00,ZBHH 130400Z AUTO 23002KT 5SM 14/M12 A3003 RMK T01401120 IEM_DS3505
ZBHH,2002-10-13 05:00,ZBHH 130500Z AUTO 26006KT 6SM 15/M09 A2997 RMK T01501090 IEM_DS3505
ZBHH,2002-10-13 06:00,ZBHH 130600Z AUTO 20004KT 9SM 17/M07 A2994 RMK SLP143 T01691067 57035 IEM_DS3505
ZBHH,2002-10-13 07:00,ZBHH 130700Z AUTO 23008KT 6SM 17/M07 A2991 RMK T01701070 IEM_DS3505
ZBHH,2002-10-13 08:00,ZBHH 130800Z AUTO 23008KT 6SM 18/M07 A2988 RMK T01801070 IEM_DS3505
ZBHH,2002-10-13 09:00,ZBHH 130900Z AUTO 20004KT 9SM 18/M05 A2988 RMK SLP118 T01851052 57020 IEM_DS3505
ZBHH,2002-10-13 10:00,ZBHH 131000Z AUTO 22002KT 6SM 15/M06 A2985 RMK T01501060 IEM_DS3505
ZBHH,2002-10-13 11:00,ZBHH 131100Z AUTO 03002KT 6SM 11/M06 A2985 RMK T01101060 IEM_DS3505
ZBHH,2002-10-13 12:00,ZBHH 131200Z AUTO 18002KT 19SM 13/M01 A2988 RMK SLP133 T01311010 52006 IEM_DS3505
ZBHH,2002-10-13 13:00,ZBHH 131300Z AUTO 21004KT 5SM 13/02 A2988 RMK T01300020 IEM_DS3505
ZBHH,2002-10-13 14:00,ZBHH 131400Z AUTO 36002KT 11/03 A2988 RMK T01100030 IEM_DS3505
ZBHH,2002-10-13 15:00,ZBHH 131500Z AUTO 00000KT 19SM 11/04 RMK SLP113 T01130042 57004 IEM_DS3505
ZBHH,2002-10-13 18:00,ZBHH 131800Z AUTO 22006KT 19SM 12/05 RMK SLP087 T01160046 57013 IEM_DS3505
ZBHH,2002-10-13 21:00,ZBHH 132100Z AUTO 14004KT 12SM 10/04 A2983 RMK 70000 SLP085 T01040041 57001 IEM_DS3505
ZBHH,2002-10-13 22:00,ZBHH 132200Z AUTO 21002KT 7SM 07/02 A2983 RMK T00700020 IEM_DS3505
ZBHH,2002-10-13 23:00,ZBHH 132300Z AUTO 29006KT 7SM 08/02 A2985 RMK T00800020 IEM_DS3505
ZBHH,2002-10-14 00:00,ZBHH 140000Z AUTO 32002KT 19SM 11/M02 A2985 RMK 70000 SLP110 T01111015 52013 IEM_DS3505
ZBHH,2002-10-14 01:00,ZBHH 140100Z AUTO 29006KT 7SM 10/M01 A2991 RMK T01001010 IEM_DS3505
ZBHH,2002-10-14 02:00,ZBHH 140200Z AUTO 34008G19KT 7SM 13/M01 A2991 RMK T01301010 IEM_DS3505
ZBHH,2002-10-14 03:00,ZBHH 140300Z AUTO 29010G21KT 19SM 15/M01 A2991 RMK SLP126 T01481012 52018 IEM_DS3505
ZBHH,2002-10-14 04:00,ZBHH 140400Z AUTO 32010G19KT 7SM 16/M02 A2991 RMK T01601020 IEM_DS3505
ZBHH,2002-10-14 05:00,ZBHH 140500Z AUTO 33014KT 7SM 17/M05 A2991 RMK T01701050 IEM_DS3505
ZBHH,2002-10-14 06:00,ZBHH 140600Z AUTO 32002G23KT 19SM 17/M07 A2991 RMK SLP116 T01731072 57003 IEM_DS3505
ZBHH,2002-10-14 07:00,ZBHH 140700Z AUTO 31016KT 7SM 17/M07 A2994 RMK T01701070 IEM_DS3505
ZBHH,2002-10-14 08:00,ZBHH 140800Z AUTO 32012KT 6SM 17/M07 A2994 RMK T01701070 IEM_DS3505
ZBHH,2002-10-14 09:00,ZBHH 140900Z AUTO 32010KT 6SM 17/M09 A2994 RMK T01701090 IEM_DS3505
ZBHH,2002-10-14 10:00,ZBHH 141000Z AUTO 33010KT 6SM 15/M09 A2994 RMK T01501090 IEM_DS3505
ZBHH,2002-10-14 11:00,ZBHH 141100Z AUTO 01004KT 6SM 12/M08 A2994 RMK T01201080 IEM_DS3505
ZBHH,2002-10-14 12:00,ZBHH 141200Z AUTO 09002KT 19SM 12/M02 A2997 RMK SLP146 T01241025 52014 IEM_DS3505
ZBHH,2002-10-14 14:00,ZBHH 141400Z AUTO 10004KT 6SM 05/M07 A3000 RMK T00501070 IEM_DS3505
ZBHH,2002-10-14 15:00,ZBHH 141500Z AUTO 00000KT 19SM 09/M04 A3000 RMK SLP152 T00911037 52006 IEM_DS3505
ZBHH,2002-10-14 16:00,ZBHH 141600Z AUTO 09004KT 6SM 03/M07 A3000 RMK T00301070 IEM_DS3505
ZBHH,2002-10-14 17:00,ZBHH 141700Z AUTO 03002KT 6SM 03/M07 A3000 RMK T00301070 IEM_DS3505
ZBHH,2002-10-14 18:00,ZBHH 141800Z AUTO 00000KT 19SM 05/M04 RMK SLP161 T00501036 52004 IEM_DS3505
ZBHH,2002-10-14 21:00,ZBHH 142100Z AUTO 00000KT 19SM 03/M04 A3000 RMK 70000 SLP164 T00301036 54000 IEM_DS3505
ZBHH,2002-10-14 22:00,ZBHH 142200Z AUTO 07002KT 6SM 01/M07 A3000 RMK T00101070 IEM_DS3505
ZBHH,2002-10-14 23:00,ZBHH 142300Z AUTO 08004KT 6SM 00/M07 A3000 RMK T00001070 IEM_DS3505
ZBHH,2002-10-15 00:00,ZBHH 150000Z AUTO 00000KT 19SM 05/M03 A3000 RMK SLP173 T00481032 52001 IEM_DS3505
ZBHH,2002-10-15 01:00,ZBHH 150100Z AUTO 06002KT 6SM 10/M06 A3000 RMK T01001060 IEM_DS3505
ZBHH,2002-10-15 02:00,ZBHH 150200Z AUTO 03002KT 6SM 13/M06 A2997 RMK T01301060 IEM_DS3505
ZBHH,2002-10-15 03:00,ZBHH 150300Z AUTO 16002KT 19SM 16/M02 A2994 RMK SLP140 T01581022 57014 IEM_DS3505
ZBHH,2002-10-15 04:00,ZBHH 150400Z AUTO 24006KT 6SM 17/M02 A2994 RMK T01701020 IEM_DS3505
ZBHH,2002-10-15 05:00,ZBHH 150500Z AUTO 23006KT 6SM 18/M01 A2988 RMK T01801010 IEM_DS3505
ZBHH,2002-10-15 06:00,ZBHH 150600Z AUTO 20006KT 19SM 19/M00 A2985 RMK SLP108 T01941004 57029 IEM_DS3505
ZBHH,2002-10-15 07:00,ZBHH 150700Z AUTO 24008KT 6SM 20/00 A2985 RMK T02000000 IEM_DS3505
ZBHH,2002-10-15 08:00,ZBHH 150800Z AUTO 25006KT 6SM 21/00 A2983 RMK T02100000 IEM_DS3505
ZBHH,2002-10-15 09:00,ZBHH 150900Z AUTO 26002KT 6SM 20/01 A2983 RMK T02000010 IEM_DS3505
ZBHH,2002-10-15 10:00,ZBHH 151000Z AUTO 32002KT 6SM 18/00 A2983 RMK T01800000 IEM_DS3505
ZBHH,2002-10-15 11:00,ZBHH 151100Z AUTO 35002KT 2 1/2SM 13/00 A2983 RMK T01300000 IEM_DS3505
ZBHH,2002-10-15 12:00,ZBHH 151200Z AUTO 00000KT 5SM 13/04 A2985 RMK SLP117 T01320044 52011 IEM_DS3505
ZBHH,2002-10-15 13:00,ZBHH 151300Z AUTO 05002KT 3SM 09/00 A2988 RMK T00900000 IEM_DS3505
ZBHH,2002-10-15 14:00,ZBHH 151400Z AUTO 06002KT 3SM 08/00 A2988 RMK T00800000 IEM_DS3505
ZBHH,2002-10-15 15:00,ZBHH 151500Z AUTO 00000KT 9SM 11/03 A2991 RMK SLP116 T01070032 52016 IEM_DS3505
ZBHH,2002-10-15 18:00,ZBHH 151800Z AUTO 00000KT 9SM 10/01 RMK SLP114 T01020012 52004 IEM_DS3505
ZBHH,2002-10-15 21:00,ZBHH 152100Z AUTO 00000KT 19SM 08/M02 A2991 RMK SLP115 T00811018 57001 IEM_DS3505
ZBHH,2002-10-15 22:00,ZBHH 152200Z AUTO 10004KT 6SM 04/M02 A2991 RMK T00401020 IEM_DS3505
ZBHH,2002-10-15 23:00,ZBHH 152300Z AUTO 09006KT 6SM 06/M01 A2994 RMK T00601010 IEM_DS3505
ZBHH,2002-10-16 00:00,ZBHH 160000Z AUTO 00000KT 7SM 08/01 A2994 RMK SLP141 T00830009 52009 IEM_DS3505
ZBHH,2002-10-16 01:00,ZBHH 160100Z AUTO 07004KT 6SM 13/00 A2994 RMK T01300000 IEM_DS3505
ZBHH,2002-10-16 02:00,ZBHH 160200Z AUTO 10004KT 6SM 17/01 A2994 RMK T01700010 IEM_DS3505
ZBHH,2002-10-16 03:00,ZBHH 160300Z AUTO 00000KT 12SM 19/02 A2994 RMK SLP119 T01890020 57003 IEM_DS3505
ZBHH,2002-10-16 04:00,ZBHH 160400Z AUTO 24006KT 6SM 20/03 A2991 RMK T02000030 IEM_DS3505
ZBHH,2002-10-16 05:00,ZBHH 160500Z AUTO 23002KT 6SM 21/04 A2988 RMK T02100040 IEM_DS3505
ZBHH,2002-10-16 06:00,ZBHH 160600Z AUTO 20002KT 16SM 23/05 A2985 RMK SLP086 T02310052 57022 IEM_DS3505
ZBHH,2002-10-16 07:00,ZBHH 160700Z AUTO 28002KT 6SM 23/04 A2983 RMK T02300040 IEM_DS3505
ZBHH,2002-10-16 08:00,ZBHH 160800Z AUTO 29002KT 6SM 23/04 A2983 RMK T02300040 IEM_DS3505
ZBHH,2002-10-16 09:00,ZBHH 160900Z AUTO 00000KT 19SM 24/07 A2983 RMK SLP075 T02390070 57013 IEM_DS3505
ZBHH,2002-10-16 10:00,ZBHH 161000Z AUTO 08002KT 2 1/2SM 19/03 A2983 RMK T01900030 IEM_DS3505
ZBHH,2002-10-16 11:00,ZBHH 161100Z AUTO 07002KT 2 1/2SM 16/04 A2983 RMK T01600040 IEM_DS3505
ZBHH,2002-10-16 12:00,ZBHH 161200Z AUTO 00000KT 5SM 15/07 A2983 RMK SLP097 T01530069 52004 IEM_DS3505
ZBHH,2002-10-16 13:00,ZBHH 161300Z AUTO 05002KT 12/03 A2983 RMK T01200030 IEM_DS3505
ZBHH,2002-10-16 14:00,ZBHH 161400Z AUTO 00000KT 12/03 A2985 RMK T01200030 IEM_DS3505
ZBHH,2002-10-16 15:00,ZBHH 161500Z AUTO 00000KT 9SM 12/06 A2985 RMK SLP095 T01220056 52012 IEM_DS3505
ZBHH,2002-10-16 16:00,ZBHH 161600Z AUTO 00000KT 08/02 A2985 RMK T00800020 IEM_DS3505
ZBHH,2002-10-16 17:00,ZBHH 161700Z AUTO 07004KT 07/01 A2985 RMK T00700010 IEM_DS3505
ZBHH,2002-10-16 18:00,ZBHH 161800Z AUTO 00000KT 12SM 11/04 A2988 RMK SLP088 T01130044 54000 IEM_DS3505
ZBHH,2002-10-16 19:00,ZBHH 161900Z AUTO 06004KT 08/02 A2985 RMK T00800020 IEM_DS3505
ZBHH,2002-10-16 20:00,ZBHH 162000Z AUTO 03002KT 08/02 A2985 RMK T00800020 IEM_DS3505
ZBHH,2002-10-16 21:00,ZBHH 162100Z AUTO 00000KT 9SM 09/05 A2985 RMK SLP088 T00940053 57002 IEM_DS3505
ZBHH,2002-10-16 22:00,ZBHH 162200Z AUTO 03004KT 5SM 09/03 A2985 RMK T00900030 IEM_DS3505
ZBHH,2002-10-16 23:00,ZBHH 162300Z AUTO 08004KT 5SM 08/02 A2985 RMK T00800020 IEM_DS3505
ZBHH,2002-10-17 00:00,ZBHH 170000Z AUTO 29004KT 6SM 10/04 A2988 RMK SLP113 T01040038 52008 IEM_DS3505
ZBHH,2002-10-17 01:00,ZBHH 170100Z AUTO 34010KT 5SM 13/00 A2991 RMK T01300000 IEM_DS3505
ZBHH,2002-10-17 02:00,ZBHH 170200Z AUTO 35012KT 6SM 13/M02 A2994 RMK T01301020 IEM_DS3505
ZBHH,2002-10-17 03:00,ZBHH 170300Z AUTO 29010KT 19SM 13/M03 A2994 RMK SLP135 T01341033 52019 IEM_DS3505
ZBHH,2002-10-17 04:00,ZBHH 170400Z AUTO 36010KT 7SM 16/M02 A2994 RMK T01601020 IEM_DS3505
ZBHH,2002-10-17 05:00,ZBHH 170500Z AUTO 36010KT 7SM 15/M03 A2994 RMK T01501030 IEM_DS3505
ZBHH,2002-10-17 06:00,ZBHH 170600Z AUTO 36004KT 19SM 16/M00 A2994 RMK SLP122 T01621001 57008 IEM_DS3505
ZBHH,2002-10-17 07:00,ZBHH 170700Z AUTO 09014KT 7SM 14/00 A2994 RMK T01400000 IEM_DS3505
ZBHH,2002-10-17 08:00,ZBHH 170800Z AUTO 09016KT 7SM 13/00 A2997 RMK T01300000 IEM_DS3505
ZBHH,2002-10-17 09:00,ZBHH 170900Z AUTO 14002KT 19SM 15/01 A3000 RMK SLP153 T01470009 52021 IEM_DS3505
ZBHH,2002-10-17 10:00,ZBHH 171000Z AUTO 02008KT 7SM 11/M02 A3003 RMK T01101020 IEM_DS3505
ZBHH,2002-10-17 11:00,ZBHH 171100Z AUTO 01008KT 7SM 10/M02 A3006 RMK T01001020 IEM_DS3505
ZBHH,2002-10-17 12:00,ZBHH 171200Z AUTO 02002KT 16SM 11/M02 A3009 RMK SLP193 T01061020 52029 IEM_DS3505
ZBHH,2002-10-17 13:00,ZBHH 171300Z AUTO 02008KT 7SM 09/M02 A3009 RMK T00901020 IEM_DS3505
ZBHH,2002-10-17 14:00,ZBHH 171400Z AUTO 01004KT 7SM 08/M03 A3015 RMK T00801030 IEM_DS3505
ZBHH,2002-10-17 15:00,ZBHH 171500Z AUTO 32002KT 19SM 08/00 A3015 RMK SLP215 T00770003 52020 IEM_DS3505
ZBHH,2002-10-17 16:00,ZBHH 171600Z AUTO 05006KT 7SM 05/M03 A3015 RMK T00501030 IEM_DS3505
ZBHH,2002-10-17 17:00,ZBHH 171700Z AUTO 08004KT 7SM 03/M03 A3012 RMK T00301030 IEM_DS3505
ZBHH,2002-10-17 18:00,ZBHH 171800Z AUTO 32006KT 19SM 06/M02 A3015 RMK SLP208 T00561021 57005 IEM_DS3505
ZBHH,2002-10-17 19:00,ZBHH 171900Z AUTO 07002KT 7SM 04/M03 A3018 RMK T00401030 IEM_DS3505
ZBHH,2002-10-17 20:00,ZBHH 172000Z AUTO 36010KT 7SM 05/M03 A3018 RMK T00501030 IEM_DS3505
ZBHH,2002-10-17 21:00,ZBHH 172100Z AUTO 02006KT 16SM 06/M02 A3018 RMK SLP224 T00651025 52013 IEM_DS3505
ZBHH,2002-10-17 22:00,ZBHH 172200Z AUTO 01006KT 7SM 05/M03 A3021 RMK T00501030 IEM_DS3505
ZBHH,2002-10-17 23:00,ZBHH 172300Z AUTO 06004KT 7SM 05/M03 A3021 RMK T00501030 IEM_DS3505
ZBHH,2002-10-18 00:00,ZBHH 180000Z AUTO 00000KT 16SM 06/M02 A3021 RMK SLP244 T00601016 52008 IEM_DS3505
ZBHH,2002-10-18 01:00,ZBHH 180100Z AUTO 09010KT 6SM 05/M04 A3021 RMK T00501040 IEM_DS3505
ZBHH,2002-10-18 02:00,ZBHH 180200Z AUTO 08010KT 6SM 06/M04 A3024 RMK T00601040 IEM_DS3505
ZBHH,2002-10-18 03:00,ZBHH 180300Z AUTO 09002KT 19SM 08/M03 A3021 RMK SLP250 T00761026 52003 IEM_DS3505
ZBHH,2002-10-18 04:00,ZBHH 180400Z AUTO 07008KT 6SM 08/M04 A3021 RMK T00801040 IEM_DS3505
ZBHH,2002-10-18 05:00,ZBHH 180500Z AUTO 09008KT 6SM 09/M03 A3018 RMK T00901030 IEM_DS3505
ZBHH,2002-10-18 06:00,ZBHH 180600Z AUTO 14002KT 16SM 10/M03 RMK SLP231 T00981030 57017 IEM_DS3505
ZBHH,2002-10-18 07:00,ZBHH 180700Z AUTO 09008KT 6SM 09/M03 A3015 RMK T00901030 IEM_DS3505
ZBHH,2002-10-18 08:00,ZBHH 180800Z AUTO 09014KT 6SM 08/M02 A3015 RMK T00801020 IEM_DS3505
ZBHH,2002-10-18 09:00,ZBHH 180900Z AUTO 09006KT 16SM 09/M02 A3018 RMK SLP231 T00881022 54000 IEM_DS3505
ZBHH,2002-10-18 10:00,ZBHH 181000Z AUTO 08012KT 6SM 06/M03 A3018 RMK T00601030 IEM_DS3505
ZBHH,2002-10-18 11:00,ZBHH 181100Z AUTO 08010KT 6SM 06/M04 A3021 RMK T00601040 IEM_DS3505
ZBHH,2002-10-18 12:00,ZBHH 181200Z AUTO 11002KT 19SM 07/M04 A3021 RMK SLP254 T00721039 52016 IEM_DS3505
ZBHH,2002-10-18 13:00,ZBHH 181300Z AUTO 08006KT 7SM 04/M03 A3021 RMK T00401030 IEM_DS3505
ZBHH,2002-10-18 14:00,ZBHH 181400Z AUTO 07008KT 7SM 04/M03 A3024 RMK T00401030 IEM_DS3505
ZBHH,2002-10-18 15:00,ZBHH 181500Z AUTO 07002KT 19SM 05/M03 A3024 RMK SLP262 T00531026 52006 IEM_DS3505
ZBHH,2002-10-18 18:00,ZBHH 181800Z AUTO 00000KT 19SM 02/M04 RMK SLP261 T00211035 57003 IEM_DS3505
ZBHH,2002-10-18 21:00,ZBHH 182100Z AUTO 00000KT 19SM M00/M05 A3021 RMK SLP264 T10021047 57004 IEM_DS3505
ZBHH,2002-10-18 22:00,ZBHH 182200Z AUTO 09004KT 6SM M03/M07 A3021 RMK T10301070 IEM_DS3505
ZBHH,2002-10-18 23:00,ZBHH 182300Z AUTO 06002KT 6SM M03/M08 A3024 RMK T10301080 IEM_DS3505
ZBHH,2002-10-19 00:00,ZBHH 190000Z AUTO 00000KT 19SM 01/M05 A3024 RMK SLP276 T00141051 52011 IEM_DS3505
ZBHH,2002-10-19 01:00,ZBHH 190100Z AUTO 05004KT 6SM 04/M06 A3027 RMK T00401060 IEM_DS3505
ZBHH,2002-10-19 02:00,ZBHH 190200Z AUTO 08008KT 6SM 06/M07 A3027 RMK T00601070 IEM_DS3505
ZBHH,2002-10-19 03:00,ZBHH 190300Z AUTO 11004KT 19SM 08/M07 A3024 RMK SLP261 T00771067 57004 IEM_DS3505
ZBHH,2002-10-19 04:00,ZBHH 190400Z AUTO 10002KT 6SM 08/M07 A3021 RMK T00801070 IEM_DS3505
ZBHH,2002-10-19 05:00,ZBHH 190500Z AUTO 6SM 09/M08 A3018 RMK T00901080 IEM_DS3505
ZBHH,2002-10-19 06:00,ZBHH 190600Z AUTO 09002KT 19SM 11/M08 A3015 RMK SLP226 T01081078 57031 IEM_DS3505
ZBHH,2002-10-19 07:00,ZBHH 190700Z AUTO 16002KT 6SM 11/M10 A3012 RMK T01101100 IEM_DS3505
ZBHH,2002-10-19 08:00,ZBHH 190800Z AUTO 17004KT 6SM 12/M10 A3012 RMK T01201100 IEM_DS3505
ZBHH,2002-10-19 09:00,ZBHH 190900Z AUTO 16002KT 19SM 12/M07 A3009 RMK SLP219 T01221067 57008 IEM_DS3505
ZBHH,2002-10-19 10:00,ZBHH 191000Z AUTO 22004KT 6SM 09/M10 A3012 RMK T00901100 IEM_DS3505
ZBHH,2002-10-19 11:00,ZBHH 191100Z AUTO 23002KT 6SM 06/M10 A3012 RMK T00601100 IEM_DS3505
ZBHH,2002-10-19 12:00,ZBHH 191200Z AUTO 00000KT 12SM 06/M03 A3015 RMK SLP242 T00631032 52011 IEM_DS3505
ZBHH,2002-10-19 13:00,ZBHH 191300Z AUTO 11002KT 03/M08 A3015 RMK T00301080 IEM_DS3505
ZBHH,2002-10-19 14:00,ZBHH 191400Z AUTO 06002KT 02/M06 A3015 RMK T00201060 IEM_DS3505
ZBHH,2002-10-19 15:00,ZBHH 191500Z AUTO 07002KT 19SM 06/M01 A3018 RMK SLP239 T00551013 52009 IEM_DS3505
ZBHH,2002-10-19 18:00,ZBHH 191800Z AUTO 00000KT 19SM 06/M00 RMK SLP218 T00601001 57011 IEM_DS3505
ZBHH,2002-10-19 21:00,ZBHH 192100Z AUTO 00000KT 12SM 05/01 A3009 RMK 70000 SLP203 T00540014 57012 IEM_DS3505
ZBHH,2002-10-19 22:00,ZBHH 192200Z AUTO 04002KT 7SM 03/01 A3009 RMK T00300010 IEM_DS3505
ZBHH,2002-10-19 23:00,ZBHH 192300Z AUTO 00000KT 7SM 04/02 A3009 RMK T00400020 IEM_DS3505
ZBHH,2002-10-20 00:00,ZBHH 200000Z AUTO 29008KT 19SM 04/M02 A3015 RMK 60004 70004 SLP232 T00421024 52011 IEM_DS3505
ZBHH,2002-10-20 01:00,ZBHH 200100Z AUTO 33008KT 7SM 03/M04 A3018 RMK T00301040 IEM_DS3505
ZBHH,2002-10-20 02:00,ZBHH 200200Z AUTO 36012G23KT 7SM 04/M07 A3018 RMK T00401070 IEM_DS3505
ZBHH,2002-10-20 03:00,ZBHH 200300Z AUTO 32008G29KT 19SM 04/M09 A3021 RMK SLP262 T00391091 52024 IEM_DS3505
ZBHH,2002-10-20 04:00,ZBHH 200400Z AUTO 34016G29KT 6SM 04/M07 A3021 RMK T00401070 IEM_DS3505
ZBHH,2002-10-20 05:00,ZBHH 200500Z AUTO 31017G27KT 6SM 04/M08 A3021 RMK T00401080 IEM_DS3505
ZBHH,2002-10-20 06:00,ZBHH 200600Z AUTO 29008G21KT 19SM 04/M09 A3024 RMK 60000 SLP268 T00401094 52007 IEM_DS3505
ZBHH,2002-10-20 07:00,ZBHH 200700Z AUTO 34014G23KT 6SM 04/M09 A3024 RMK T00401090 IEM_DS3505
ZBHH,2002-10-20 08:00,ZBHH 200800Z AUTO 33017G29KT 6SM 03/M11 A3024 RMK T00301110 IEM_DS3505
ZBHH,2002-10-20 09:00,ZBHH 200900Z AUTO 32006G23KT 19SM 03/M12 A3027 RMK SLP288 T00291121 52014 IEM_DS3505
ZBHH,2002-10-20 10:00,ZBHH 201000Z AUTO 35016G27KT 6SM 00/M12 A3030 RMK T00001120 IEM_DS3505
ZBHH,2002-10-20 11:00,ZBHH 201100Z AUTO 34014G23KT 6SM M01/M12 A3036 RMK T10101120 IEM_DS3505
ZBHH,2002-10-20 12:00,ZBHH 201200Z AUTO 04004KT 19SM M00/M10 A3036 RMK SLP331 T10021100 52028 IEM_DS3505
ZBHH,2002-10-20 13:00,ZBHH 201300Z AUTO 36012G21KT 6SM M02/M11 A3039 RMK T10201110 IEM_DS3505
ZBHH,2002-10-20 14:00,ZBHH 201400Z AUTO 32006KT 6SM M03/M11 A3042 RMK T10301110 IEM_DS3505
ZBHH,2002-10-20 15:00,ZBHH 201500Z AUTO 32006KT 19SM M02/M10 A3042 RMK SLP356 T10201102 52018 IEM_DS3505
ZBHH,2002-10-20 18:00,ZBHH 201800Z AUTO 20002KT 19SM M04/M12 RMK SLP356 T10391123 57004 IEM_DS3505
ZBHH,2002-10-20 21:00,ZBHH 202100Z AUTO 32002KT 19SM M05/M13 A3045 RMK 70003 SLP374 T10491129 52011 IEM_DS3505
ZBHH,2002-10-20 22:00,ZBHH 202200Z AUTO 03006KT 6SM M08/M14 A3045 RMK T10801140 IEM_DS3505
ZBHH,2002-10-20 23:00,ZBHH 202300Z AUTO 07008KT 6SM M10/M14 A3045 RMK T11001140 IEM_DS3505
ZBHH,2002-10-21 00:00,ZBHH 210000Z AUTO 07004KT 19SM M05/M13 A3045 RMK SLP381 T10471131 54000 IEM_DS3505
ZBHH,2002-10-21 01:00,ZBHH 210100Z AUTO 10004KT 6SM M05/M13 A3045 RMK T10501130 IEM_DS3505
ZBHH,2002-10-21 02:00,ZBHH 210200Z AUTO 36002KT 6SM M03/M14 A3045 RMK T10301140 IEM_DS3505
ZBHH,2002-10-21 03:00,ZBHH 210300Z AUTO 16002KT 19SM M00/M12 A3042 RMK SLP363 T10011118 57010 IEM_DS3505
ZBHH,2002-10-21 04:00,ZBHH 210400Z AUTO 08004KT 6SM 00/M15 A3039 RMK T00001150 IEM_DS3505
ZBHH,2002-10-21 05:00,ZBHH 210500Z AUTO 12004KT 6SM 01/M15 A3036 RMK T00101150 IEM_DS3505
ZBHH,2002-10-21 06:00,ZBHH 210600Z AUTO 11002KT 16SM 03/M11 A3033 RMK SLP333 T00271108 57024 IEM_DS3505
ZBHH,2002-10-21 07:00,ZBHH 210700Z AUTO 6SM 02/M15 A3033 RMK T00201150 IEM_DS3505
ZBHH,2002-10-21 08:00,ZBHH 210800Z AUTO 15002KT 6SM 02/M15 A3033 RMK T00201150 IEM_DS3505
ZBHH,2002-10-21 09:00,ZBHH 210900Z AUTO 22004KT 19SM 02/M12 A3033 RMK SLP324 T00221124 57011 IEM_DS3505
ZBHH,2002-10-21 10:00,ZBHH 211000Z AUTO 22004KT 6SM 00/M15 A3033 RMK T00001150 IEM_DS3505
ZBHH,2002-10-21 11:00,ZBHH 211100Z AUTO 24002KT 6SM M01/M14 A3033 RMK T10101140 IEM_DS3505
ZBHH,2002-10-21 12:00,ZBHH 211200Z AUTO 22004KT 12SM 01/M14 A3033 RMK SLP337 T00101145 52009 IEM_DS3505
ZBHH,2002-10-21 13:00,ZBHH 211300Z AUTO 09002KT 6SM M03/M11 A3033 RMK T10301110 IEM_DS3505
ZBHH,2002-10-21 14:00,ZBHH 211400Z AUTO 11002KT 6SM M03/M12 A3033 RMK T10301120 IEM_DS3505
ZBHH,2002-10-21 15:00,ZBHH 211500Z AUTO 00000KT 12SM 01/M13 A3033 RMK SLP324 T00071132 57002 IEM_DS3505
ZBHH,2002-10-21 18:00,ZBHH 211800Z AUTO 09002KT 19SM M02/M11 RMK SLP305 T10161110 57016 IEM_DS3505
ZBHH,2002-10-21 21:00,ZBHH 212100Z AUTO 00000KT 19SM M02/M11 A3024 RMK SLP297 T10181113 57008 IEM_DS3505
ZBHH,2002-10-21 22:00,ZBHH 212200Z AUTO 09002KT 6SM M06/M12 A3024 RMK T10601120 IEM_DS3505
ZBHH,2002-10-21 23:00,ZBHH 212300Z AUTO 10004KT 6SM M08/M12 A3024 RMK T10801120 IEM_DS3505
ZBHH,2002-10-22 00:00,ZBHH 220000Z AUTO 02004KT 19SM M03/M10 A3024 RMK SLP295 T10281100 57007 IEM_DS3505
ZBHH,2002-10-22 02:00,ZBHH 220200Z AUTO 17002KT 6SM 00/M11 A3021 RMK T00001110 IEM_DS3505
ZBHH,2002-10-22 03:00,ZBHH 220300Z AUTO 18004KT 16SM 01/M11 A3018 RMK SLP275 T00141106 57009 IEM_DS3505
ZBHH,2002-10-22 04:00,ZBHH 220400Z AUTO 24006KT 6SM 03/M12 A3015 RMK T00301120 IEM_DS3505
ZBHH,2002-10-22 05:00,ZBHH 220500Z AUTO 24010KT 6SM 05/M12 A3012 RMK T00501120 IEM_DS3505
ZBHH,2002-10-22 06:00,ZBHH 220600Z AUTO 22008KT 19SM 06/M08 A3006 RMK SLP226 T00621085 57038 IEM_DS3505
ZBHH,2002-10-22 07:00,ZBHH 220700Z AUTO 23014G23KT 6SM 06/M12 A3006 RMK T00601120 IEM_DS3505
ZBHH,2002-10-22 09:00,ZBHH 220900Z AUTO 20008KT 19SM 07/M08 RMK SLP208 T00661082 57015 IEM_DS3505
ZBHH,2002-10-22 10:00,ZBHH 221000Z AUTO 23008KT 6SM 05/M10 A3000 RMK T00501100 IEM_DS3505
ZBHH,2002-10-22 11:00,ZBHH 221100Z AUTO 23006KT 6SM 04/M09 A3000 RMK T00401090 IEM_DS3505
ZBHH,2002-10-22 12:00,ZBHH 221200Z AUTO 22002KT 16SM 05/M06 A3000 RMK SLP206 T00481065 57008 IEM_DS3505
ZBHH,2002-10-22 13:00,ZBHH 221300Z AUTO 21004KT 6SM 02/M08 A2997 RMK T00201080 IEM_DS3505
ZBHH,2002-10-22 14:00,ZBHH 221400Z AUTO 22004KT 6SM 02/M08 A2997 RMK T00201080 IEM_DS3505
ZBHH,2002-10-22 15:00,ZBHH 221500Z AUTO 25002KT 12SM 04/M06 RMK SLP181 T00361064 57015 IEM_DS3505
ZBHH,2002-10-22 18:00,ZBHH 221800Z AUTO 32004KT 12SM 04/M07 RMK SLP154 T00391067 57013 IEM_DS3505
ZBHH,2002-10-22 21:00,ZBHH 222100Z AUTO 00000KT 19SM 02/M07 A2991 RMK SLP156 T00251069 57001 IEM_DS3505
ZBHH,2002-10-22 22:00,ZBHH 222200Z AUTO 34004KT 6SM 00/M08 A2991 RMK T00001080 IEM_DS3505
ZBHH,2002-10-22 23:00,ZBHH 222300Z AUTO 33006KT 6SM 00/M08 A2991 RMK T00001080 IEM_DS3505
ZBHH,2002-10-23 00:00,ZBHH 230000Z AUTO 00000KT 9SM 01/M07 A2991 RMK SLP169 T00101071 52005 IEM_DS3505
ZBHH,2002-10-23 01:00,ZBHH 230100Z AUTO 19002KT 00/M07 A2991 RMK T00001070 IEM_DS3505
ZBHH,2002-10-23 02:00,ZBHH 230200Z AUTO 14004KT 02/M07 A2991 RMK T00201070 IEM_DS3505
ZBHH,2002-10-23 03:00,ZBHH 230300Z AUTO 11004KT 12SM 04/M06 A2991 RMK SLP159 T00421059 57005 IEM_DS3505
ZBHH,2002-10-23 04:00,ZBHH 230400Z AUTO 20004KT 7SM 05/M09 A2988 RMK T00501090 IEM_DS3505
ZBHH,2002-10-23 05:00,ZBHH 230500Z AUTO 30004KT 7SM 04/M06 A2988 RMK T00401060 IEM_DS3505
ZBHH,2002-10-23 06:00,ZBHH 230600Z AUTO 22002KT 19SM 03/M00 A2985 RMK SLP147 T00341001 57011 IEM_DS3505
ZBHH,2002-10-23 07:00,ZBHH 230700Z AUTO 03002KT 7SM 04/M03 A2985 RMK T00401030 IEM_DS3505
ZBHH,2002-10-23 08:00,ZBHH 230800Z AUTO 00000KT 7SM 03/M03 A2988 RMK T00301030 IEM_DS3505
ZBHH,2002-10-23 09:00,ZBHH 230900Z AUTO 32008KT 19SM 06/M10 A2988 RMK SLP150 T00591100 52005 IEM_DS3505
ZBHH,2002-10-23 10:00,ZBHH 231000Z AUTO 36004KT 7SM 03/M07 A2991 RMK T00301070 IEM_DS3505
ZBHH,2002-10-23 11:00,ZBHH 231100Z AUTO 36004KT 7SM 02/M09 A2994 RMK T00201090 IEM_DS3505
ZBHH,2002-10-23 12:00,ZBHH 231200Z AUTO 32004KT 19SM 03/M10 A2997 RMK 60000 SLP193 T00281100 52028 IEM_DS3505
ZBHH,2002-10-23 13:00,ZBHH 231300Z AUTO 01006KT 6SM 01/M13 A3000 RMK T00101130 IEM_DS3505
ZBHH,2002-10-23 14:00,ZBHH 231400Z AUTO 36002KT 6SM 00/M13 A3003 RMK T00001130 IEM_DS3505
ZBHH,2002-10-23 15:00,ZBHH 231500Z AUTO 00000KT 19SM 00/M10 A3003 RMK SLP212 T00041103 52018 IEM_DS3505
ZBHH,2002-10-23 16:00,ZBHH 231600Z AUTO 07002KT 6SM M04/M12 A3003 RMK T10401120 IEM_DS3505
ZBHH,2002-10-23 18:00,ZBHH 231800Z AUTO 00000KT 19SM M01/M11 RMK SLP225 T10121112 52006 IEM_DS3505
ZBHH,2002-10-23 21:00,ZBHH 232100Z AUTO 00000KT 19SM M04/M10 A3006 RMK 70000 SLP233 T10361098 52008 IEM_DS3505
ZBHH,2002-10-23 22:00,ZBHH 232200Z AUTO 06004KT 6SM M11/M15 A3009 RMK T11101150 IEM_DS3505
ZBHH,2002-10-23 23:00,ZBHH 232300Z AUTO 05006KT 6SM M08/M15 A3012 RMK T10801150 IEM_DS3505
ZBHH,2002-10-24 00:00,ZBHH 240000Z AUTO 09002KT 19SM M03/M14 A3012 RMK 70000 SLP257 T10311143 52015 IEM_DS3505
ZBHH,2002-10-24 01:00,ZBHH 240100Z AUTO 05006KT 6SM M02/M14 A3015 RMK T10201140 IEM_DS3505
ZBHH,2002-10-24 02:00,ZBHH 240200Z AUTO 10006KT 6SM 00/M14 A3015 RMK T00001140 IEM_DS3505
ZBHH,2002-10-24 03:00,ZBHH 240300Z AUTO 09002KT 19SM 03/M10 A3015 RMK SLP254 T00301104 52005 IEM_DS3505
ZBHH,2002-10-24 04:00,ZBHH 240400Z AUTO 12004KT 6SM 03/M15 A3012 RMK T00301150 IEM_DS3505
ZBHH,2002-10-24 05:00,ZBHH 240500Z AUTO 18002KT 6SM 03/M15 A3012 RMK T00301150 IEM_DS3505
ZBHH,2002-10-24 06:00,ZBHH 240600Z AUTO 14002KT 19SM 04/M12 A3009 RMK SLP240 T00421115 57013 IEM_DS3505
ZBHH,2002-10-24 07:00,ZBHH 240700Z AUTO 21004KT 6SM 04/M15 A3009 RMK T00401150 IEM_DS3505
ZBHH,2002-10-24 08:00,ZBHH 240800Z AUTO 23004KT 6SM 04/M15 A3009 RMK T00401150 IEM_DS3505
ZBHH,2002-10-24 09:00,ZBHH 240900Z AUTO 22002KT 19SM 04/M13 A3012 RMK SLP251 T00401126 52004 IEM_DS3505
ZBHH,2002-10-24 10:00,ZBHH 241000Z AUTO 27002KT 6SM 01/M15 A3012 RMK T00101150 IEM_DS3505
ZBHH,2002-10-24 11:00,ZBHH 241100Z AUTO 00000KT 00/M15 A3015 RMK T00001150 IEM_DS3505
ZBHH,2002-10-24 12:00,ZBHH 241200Z AUTO 00000KT 16SM 01/M11 A3015 RMK SLP274 T00081112 52015 IEM_DS3505
ZBHH,2002-10-24 13:00,ZBHH 241300Z AUTO 06004KT 6SM M02/M14 A3018 RMK T10201140 IEM_DS3505
ZBHH,2002-10-24 14:00,ZBHH 241400Z AUTO 05004KT 6SM M03/M14 A3021 RMK T10301140 IEM_DS3505
ZBHH,2002-10-24 15:00,ZBHH 241500Z AUTO 32002KT 16SM M00/M13 A3021 RMK SLP280 T10031129 52016 IEM_DS3505
ZBHH,2002-10-24 16:00,ZBHH 241600Z AUTO 05004KT 7SM M06/M14 A3021 RMK T10601140 IEM_DS3505
ZBHH,2002-10-24 18:00,ZBHH 241800Z AUTO 00000KT 19SM M02/M13 RMK SLP286 T10241130 52003 IEM_DS3505
ZBHH,2002-10-24 21:00,ZBHH 242100Z AUTO 09002KT 19SM M03/M13 A3024 RMK SLP291 T10271130 52003 IEM_DS3505
ZBHH,2002-10-24 22:00,ZBHH 242200Z AUTO 6SM M06/M14 A3024 RMK T10601140 IEM_DS3505
ZBHH,2002-10-24 23:00,ZBHH 242300Z AUTO 06002KT 6SM M07/M14 A3024 RMK T10701140 IEM_DS3505
ZBHH,2002-10-25 00:00,ZBHH 250000Z AUTO 00000KT 12SM M03/M13 A3027 RMK SLP310 T10271130 52010 IEM_DS3505
ZBHH,2002-10-25 02:00,ZBHH 250200Z AUTO 20004KT 3SM A3027 RMK IEM_DS3505
ZBHH,2002-10-25 03:00,ZBHH 250300Z AUTO 32006KT 19SM 02/M06 A3027 RMK SLP303 T00231061 52002 IEM_DS3505
ZBHH,2002-10-25 04:00,ZBHH 250400Z AUTO 29010G19KT 7SM 02/M16 A3027 RMK T00201160 IEM_DS3505
ZBHH,2002-10-25 05:00,ZBHH 250500Z AUTO 31014KT 7SM 02/M16 A3024 RMK T00201160 IEM_DS3505
ZBHH,2002-10-25 06:00,ZBHH 250600Z AUTO 32008G27KT 19SM 02/M10 A3024 RMK SLP300 T00171096 57008 IEM_DS3505
ZBHH,2002-10-25 07:00,ZBHH 250700Z AUTO 32017G27KT 7SM 01/M16 A3024 RMK T00101160 IEM_DS3505
ZBHH,2002-10-25 08:00,ZBHH 250800Z AUTO 32014KT 7SM 01/M23 A3024 RMK T00101230 IEM_DS3505
ZBHH,2002-10-25 09:00,ZBHH 250900Z AUTO 32008KT 19SM 02/M19 A3024 RMK SLP303 T00191191 52002 IEM_DS3505
ZBHH,2002-10-25 10:00,ZBHH 251000Z AUTO 32008KT 6SM M01/M22 A3027 RMK T10101220 IEM_DS3505
ZBHH,2002-10-25 11:00,ZBHH 251100Z AUTO 30004KT 6SM M02/M21 A3027 RMK T10201210 IEM_DS3505
ZBHH,2002-10-25 12:00,ZBHH 251200Z AUTO 32002KT 19SM M01/M18 A3027 RMK SLP312 T10081176 52002 IEM_DS3505
ZBHH,2002-10-25 13:00,ZBHH 251300Z AUTO 02002KT 6SM M05/M20 A3024 RMK T10501200 IEM_DS3505
ZBHH,2002-10-25 14:00,ZBHH 251400Z AUTO 09004KT 6SM M08/M22 A3024 RMK T10801220 IEM_DS3505
ZBHH,2002-10-25 15:00,ZBHH 251500Z AUTO 00000KT 16SM M03/M17 RMK SLP289 T10301169 57014 IEM_DS3505
ZBHH,2002-10-25 21:00,ZBHH 252100Z AUTO 00000KT 19SM M06/M16 A3015 RMK SLP279 T10591165 57001 IEM_DS3505
ZBHH,2002-10-25 22:00,ZBHH 252200Z AUTO 36004KT 6SM M08/M14 A3018 RMK T10801140 IEM_DS3505
ZBHH,2002-10-25 23:00,ZBHH 252300Z AUTO 35006KT 6SM M06/M11 A3018 RMK T10601110 IEM_DS3505
ZBHH,2002-10-26 00:00,ZBHH 260000Z AUTO 07002KT 19SM M04/M13 A3018 RMK SLP285 T10421133 52003 IEM_DS3505
ZBHH,2002-10-26 18:00,ZBHH 261800Z AUTO 07002KT 19SM M03/M14 RMK SLP233 T10301141 57007 IEM_DS3505
ZBHH,2002-10-26 21:00,ZBHH 262100Z AUTO 00000KT 19SM M04/M14 A3003 RMK SLP222 T10391139 57011 IEM_DS3505
ZBHH,2002-10-26 22:00,ZBHH 262200Z AUTO 07006KT 6SM M07/M14 A3003 RMK T10701140 IEM_DS3505
ZBHH,2002-10-26 23:00,ZBHH 262300Z AUTO 07006KT 6SM M08/M14 A3003 RMK T10801140 IEM_DS3505
ZBHH,2002-10-27 00:00,ZBHH 270000Z AUTO 14002KT 19SM M04/M12 A3003 RMK SLP229 T10401124 57001 IEM_DS3505
ZBHH,2002-10-27 01:00,ZBHH 270100Z AUTO 07008KT 6SM M02/M13 A3003 RMK T10201130 IEM_DS3505
ZBHH,2002-10-27 02:00,ZBHH 270200Z AUTO 09010KT 6SM 01/M15 A3003 RMK T00101150 IEM_DS3505
ZBHH,2002-10-27 03:00,ZBHH 270300Z AUTO 09004KT 19SM 03/M12 A3000 RMK SLP211 T00341115 57006 IEM_DS3505
ZBHH,2002-10-27 04:00,ZBHH 270400Z AUTO 11006KT 6SM 04/M17 A3000 RMK T00401170 IEM_DS3505
ZBHH,2002-10-27 06:00,ZBHH 270600Z AUTO 09002KT 16SM 07/M16 A2997 RMK SLP195 T00661160 57012 IEM_DS3505
ZBHH,2002-10-27 07:00,ZBHH 270700Z AUTO 08010KT 6SM 05/M16 A3000 RMK T00501160 IEM_DS3505
ZBHH,2002-10-27 08:00,ZBHH 270800Z AUTO 34010KT 6SM 04/M14 A3003 RMK T00401140 IEM_DS3505
ZBHH,2002-10-27 09:00,ZBHH 270900Z AUTO 00000KT 19SM 04/M11 A3003 RMK SLP219 T00421109 52014 IEM_DS3505
ZBHH,2002-10-27 10:00,ZBHH 271000Z AUTO 04002KT 6SM 00/M11 A3006 RMK T00001110 IEM_DS3505
ZBHH,2002-10-27 11:00,ZBHH 271100Z AUTO 08004KT 6SM M03/M11 A3009 RMK T10301110 IEM_DS3505
ZBHH,2002-10-27 12:00,ZBHH 271200Z AUTO 04002KT 19SM 00/M10 A3012 RMK SLP256 T00031095 52024 IEM_DS3505
ZBHH,2002-10-27 13:00,ZBHH 271300Z AUTO 06004KT 6SM M03/M12 A3012 RMK T10301120 IEM_DS3505
ZBHH,2002-10-27 14:00,ZBHH 271400Z AUTO 07002KT 6SM M04/M12 A3012 RMK T10401120 IEM_DS3505
ZBHH,2002-10-27 15:00,ZBHH 271500Z AUTO 04002KT 19SM M02/M14 A3015 RMK SLP258 T10211135 52012 IEM_DS3505
ZBHH,2002-10-27 16:00,ZBHH 271600Z AUTO 07010KT 6SM M06/M14 A3015 RMK T10601140 IEM_DS3505
ZBHH,2002-10-27 18:00,ZBHH 271800Z AUTO 09002KT 19SM M04/M15 RMK SLP253 T10401154 57001 IEM_DS3505
ZBHH,2002-10-27 21:00,ZBHH 272100Z AUTO 09002KT 19SM M06/M15 RMK SLP258 T10581149 57005 IEM_DS3505
ZBHH,2002-10-28 00:00,ZBHH 280000Z AUTO 09002KT 19SM M06/M16 A3015 RMK SLP284 T10591158 52014 IEM_DS3505
ZBHH,2002-10-28 01:00,ZBHH 280100Z AUTO 08006KT 6SM M04/M16 A3015 RMK T10401160 IEM_DS3505
ZBHH,2002-10-28 02:00,ZBHH 280200Z AUTO 11002KT 6SM M01/M15 A3015 RMK T10101150 IEM_DS3505
ZBHH,2002-10-28 03:00,ZBHH 280300Z AUTO 07002KT 19SM 02/M11 A3015 RMK SLP263 T00161107 57007 IEM_DS3505
ZBHH,2002-10-28 04:00,ZBHH 280400Z AUTO 22002KT 6SM 02/M14 A3012 RMK T00201140 IEM_DS3505
ZBHH,2002-10-28 05:00,ZBHH 280500Z AUTO 24004KT 6SM 03/M14 A3012 RMK T00301140 IEM_DS3505
ZBHH,2002-10-28 06:00,ZBHH 280600Z AUTO 20002KT 16SM 04/M12 A3009 RMK SLP238 T00431125 57020 IEM_DS3505
ZBHH,2002-10-28 07:00,ZBHH 280700Z AUTO 20004KT 6SM 04/M13 A3006 RMK T00401130 IEM_DS3505
ZBHH,2002-10-28 08:00,ZBHH 280800Z AUTO 23006KT 6SM 05/M13 A3006 RMK T00501130 IEM_DS3505
ZBHH,2002-10-28 09:00,ZBHH 280900Z AUTO 00000KT 16SM 05/M10 A3006 RMK SLP233 T00511102 57007 IEM_DS3505
ZBHH,2002-10-28 10:00,ZBHH 281000Z AUTO 09002KT 6SM 02/M13 A3006 RMK T00201130 IEM_DS3505
ZBHH,2002-10-28 11:00,ZBHH 281100Z AUTO 03004KT 4SM A3009 RMK IEM_DS3505
ZBHH,2002-10-28 12:00,ZBHH 281200Z AUTO 00000KT 4SM 03/M09 A3009 RMK SLP250 T00281091 52010 IEM_DS3505
ZBHH,2002-10-28 13:00,ZBHH 281300Z AUTO 09004KT 5SM M01/M13 A3009 RMK T10101130 IEM_DS3505
ZBHH,2002-10-28 14:00,ZBHH 281400Z AUTO 08004KT 6SM M01/M13 A3009 RMK T10101130 IEM_DS3505
ZBHH,2002-10-28 15:00,ZBHH 281500Z AUTO 00000KT 6SM 03/M08 A3009 RMK SLP234 T00271083 52002 IEM_DS3505
ZBHH,2002-10-28 18:00,ZBHH 281800Z AUTO 00000KT 6SM 03/M09 RMK SLP221 T00261094 57006 IEM_DS3505
ZBHH,2002-10-28 21:00,ZBHH 282100Z AUTO 00000KT 19SM 00/M07 A3006 RMK SLP218 T00021067 57006 IEM_DS3505
ZBHH,2002-10-28 22:00,ZBHH 282200Z AUTO 09004KT 6SM M04/M09 A3006 RMK T10401090 IEM_DS3505
ZBHH,2002-10-28 23:00,ZBHH 282300Z AUTO 09004KT 6SM M04/M08 A3006 RMK T10401080 IEM_DS3505
ZBHH,2002-10-29 00:00,ZBHH 290000Z AUTO 00000KT 16SM 00/M06 A3006 RMK SLP232 T00021056 52007 IEM_DS3505
ZBHH,2002-10-29 01:00,ZBHH 290100Z AUTO 10002KT 6SM 01/M06 A3009 RMK T00101060 IEM_DS3505
ZBHH,2002-10-29 02:00,ZBHH 290200Z AUTO 07002KT 6SM 04/M06 A3009 RMK T00401060 IEM_DS3505
ZBHH,2002-10-29 03:00,ZBHH 290300Z AUTO 14002KT 16SM 08/M01 A3006 RMK SLP212 T00781010 57002 IEM_DS3505
ZBHH,2002-10-29 04:00,ZBHH 290400Z AUTO 17002KT 6SM 08/M09 A3006 RMK T00801090 IEM_DS3505
ZBHH,2002-10-29 05:00,ZBHH 290500Z AUTO 21002KT 6SM 09/M08 A3003 RMK T00901080 IEM_DS3505
ZBHH,2002-10-29 06:00,ZBHH 290600Z AUTO 18002KT 12SM 10/M05 A3000 RMK SLP184 T01041050 57019 IEM_DS3505
ZBHH,2002-10-29 07:00,ZBHH 290700Z AUTO 24006KT 6SM 09/M08 A3003 RMK T00901080 IEM_DS3505
ZBHH,2002-10-29 08:00,ZBHH 290800Z AUTO 35010KT 6SM 07/M08 A3003 RMK T00701080 IEM_DS3505
ZBHH,2002-10-29 09:00,ZBHH 290900Z AUTO 32006KT 19SM 06/M04 A3006 RMK SLP214 T00641037 52013 IEM_DS3505
ZBHH,2002-10-29 10:00,ZBHH 291000Z AUTO 36008KT 7SM 03/M06 A3009 RMK T00301060 IEM_DS3505
ZBHH,2002-10-29 11:00,ZBHH 291100Z AUTO 36008KT 7SM 03/M06 A3009 RMK T00301060 IEM_DS3505
ZBHH,2002-10-29 12:00,ZBHH 291200Z AUTO 32004KT 19SM 03/M07 A3012 RMK SLP244 T00291067 52019 IEM_DS3505
ZBHH,2002-10-29 13:00,ZBHH 291300Z AUTO 01006KT 7SM 02/M08 A3012 RMK T00201080 IEM_DS3505
ZBHH,2002-10-29 14:00,ZBHH 291400Z AUTO 01004KT 7SM 01/M07 A3015 RMK T00101070 IEM_DS3505
ZBHH,2002-10-29 15:00,ZBHH 291500Z AUTO 00000KT 19SM 01/M08 A3015 RMK SLP236 T00141082 52006 IEM_DS3505
ZBHH,2002-10-29 16:00,ZBHH 291600Z AUTO 01010KT 7SM 00/M11 A3015 RMK T00001110 IEM_DS3505
ZBHH,2002-10-29 17:00,ZBHH 291700Z AUTO 36010KT 7SM 00/M10 A3015 RMK T00001100 IEM_DS3505
ZBHH,2002-10-29 18:00,ZBHH 291800Z AUTO 29006KT 19SM 00/M11 A3018 RMK SLP244 T00001106 52009 IEM_DS3505
ZBHH,2002-10-29 19:00,ZBHH 291900Z AUTO 02010KT 7SM M02/M14 A3018 RMK T10201140 IEM_DS3505
ZBHH,2002-10-29 20:00,ZBHH 292000Z AUTO 36010KT 7SM M01/M15 A3018 RMK T10101150 IEM_DS3505
ZBHH,2002-10-29 21:00,ZBHH 292100Z AUTO 32002KT 19SM M01/M15 A3018 RMK SLP258 T10071151 52003 IEM_DS3505
ZBHH,2002-10-29 22:00,ZBHH 292200Z AUTO 01006KT 7SM M02/M16 A3018 RMK T10201160 IEM_DS3505
ZBHH,2002-10-29 23:00,ZBHH 292300Z AUTO 01008KT 7SM M03/M17 A3018 RMK T10301170 IEM_DS3505
ZBHH,2002-10-30 00:00,ZBHH 300000Z AUTO 00000KT 16SM M02/M14 A3021 RMK SLP278 T10251137 52006 IEM_DS3505
ZBHH,2002-10-30 01:00,ZBHH 300100Z AUTO 36006KT 6SM 00/M17 A3021 RMK T00001170 IEM_DS3505
ZBHH,2002-10-30 02:00,ZBHH 300200Z AUTO 01004KT 6SM 02/M17 A3021 RMK T00201170 IEM_DS3505
ZBHH,2002-10-30 03:00,ZBHH 300300Z AUTO 18002KT 19SM 04/M15 A3021 RMK SLP268 T00451147 52003 IEM_DS3505
ZBHH,2002-10-30 04:00,ZBHH 300400Z AUTO 33004KT 6SM 05/M20 A3021 RMK T00501200 IEM_DS3505
ZBHH,2002-10-30 05:00,ZBHH 300500Z AUTO 33004KT 6SM 05/M18 A3018 RMK T00501180 IEM_DS3505
ZBHH,2002-10-30 06:00,ZBHH 300600Z AUTO 32008KT 19SM 06/M17 A3018 RMK SLP257 T00581170 57010 IEM_DS3505
ZBHH,2002-10-30 07:00,ZBHH 300700Z AUTO 35008KT 6SM 04/M18 A3018 RMK T00401180 IEM_DS3505
ZBHH,2002-10-30 08:00,ZBHH 300800Z AUTO 35010KT 6SM 04/M17 A3018 RMK T00401170 IEM_DS3505
ZBHH,2002-10-30 09:00,ZBHH 300900Z AUTO 36004KT 19SM 05/M11 A3021 RMK SLP274 T00461108 52011 IEM_DS3505
ZBHH,2002-10-30 10:00,ZBHH 301000Z AUTO 36010KT 6SM 01/M18 A3024 RMK T00101180 IEM_DS3505
ZBHH,2002-10-30 11:00,ZBHH 301100Z AUTO 36008KT 6SM 00/M21 A3027 RMK T00001210 IEM_DS3505
ZBHH,2002-10-30 12:00,ZBHH 301200Z AUTO 34002KT 19SM 00/M21 A3030 RMK SLP319 T00001208 52026 IEM_DS3505
ZBHH,2002-10-30 13:00,ZBHH 301300Z AUTO 34008KT 6SM M02/M19 A3033 RMK T10201190 IEM_DS3505
ZBHH,2002-10-30 14:00,ZBHH 301400Z AUTO 36010KT 6SM M03/M19 A3036 RMK T10301190 IEM_DS3505
ZBHH,2002-10-30 15:00,ZBHH 301500Z AUTO 34002KT 19SM M02/M21 A3036 RMK SLP327 T10191210 52018 IEM_DS3505
ZBHH,2002-10-30 18:00,ZBHH 301800Z AUTO 34002KT 19SM M05/M19 RMK SLP339 T10461192 52007 IEM_DS3505
ZBHH,2002-10-30 21:00,ZBHH 302100Z AUTO 29004KT 19SM M05/M16 A3039 RMK SLP346 T10541156 52002 IEM_DS3505
ZBHH,2002-10-30 22:00,ZBHH 302200Z AUTO 02008KT 6SM M07/M16 A3039 RMK T10701160 IEM_DS3505
ZBHH,2002-10-30 23:00,ZBHH 302300Z AUTO 34004KT 6SM M08/M16 A3039 RMK T10801160 IEM_DS3505
ZBHH,2002-10-31 00:00,ZBHH 310000Z AUTO 29004KT 19SM M06/M16 A3042 RMK SLP371 T10611162 52010 IEM_DS3505
ZBHH,2002-10-31 01:00,ZBHH 310100Z AUTO 36008KT 6SM M06/M16 A3042 RMK T10601160 IEM_DS3505
ZBHH,2002-10-31 02:00,ZBHH 310200Z AUTO 36004KT 6SM M04/M16 A3042 RMK T10401160 IEM_DS3505
ZBHH,2002-10-31 03:00,ZBHH 310300Z AUTO 34004KT 19SM M02/M17 A3042 RMK SLP365 T10191166 54000 IEM_DS3505
ZBHH,2002-10-31 04:00,ZBHH 310400Z AUTO 25004KT 6SM M01/M17 A3039 RMK T10101170 IEM_DS3505
ZBHH,2002-10-31 05:00,ZBHH 310500Z AUTO 35002KT 6SM 00/M19 A3036 RMK T00001190 IEM_DS3505
ZBHH,2002-10-31 06:00,ZBHH 310600Z AUTO 29004KT 19SM 02/M16 A3033 RMK SLP340 T00161158 57020 IEM_DS3505
ZBHH,2002-10-31 07:00,ZBHH 310700Z AUTO 35012KT 6SM 00/M21 A3033 RMK T00001210 IEM_DS3505
ZBHH,2002-10-31 08:00,ZBHH 310800Z AUTO 33014KT 6SM 00/M20 A3033 RMK T00001200 IEM_DS3505
ZBHH,2002-10-31 09:00,ZBHH 310900Z AUTO 34006KT 19SM 00/M17 A3033 RMK SLP344 T00041168 57001 IEM_DS3505
ZBHH,2002-10-31 10:00,ZBHH 311000Z AUTO 33010KT 6SM M03/M20 A3036 RMK T10301200 IEM_DS3505
ZBHH,2002-10-31 11:00,ZBHH 311100Z AUTO 35012KT 6SM M04/M20 A3039 RMK T10401200 IEM_DS3505
ZBHH,2002-10-31 12:00,ZBHH 311200Z AUTO 32002KT 19SM M03/M19 A3042 RMK SLP381 T10341188 52022 IEM_DS3505
ZBHH,2002-10-31 13:00,ZBHH 311300Z AUTO 01004KT 6SM M06/M20 A3042 RMK T10601200 IEM_DS3505
ZBHH,2002-10-31 14:00,ZBHH 311400Z AUTO 35014KT 6SM M06/M20 A3042 RMK T10601200 IEM_DS3505
ZBHH,2002-10-31 15:00,ZBHH 311500Z AUTO 34006KT 19SM M05/M21 RMK SLP380 T10461211 52006 IEM_DS3505
ZBHH,2002-10-31 18:00,ZBHH 311800Z AUTO 29006KT 19SM M06/M19 RMK SLP375 T10571192 52001 IEM_DS3505
ZBHH,2002-10-31 21:00,ZBHH 312100Z AUTO 29002KT 19SM M06/M20 A3045 RMK SLP373 T10651202 57006 IEM_DS3505
ZBHH,2002-10-31 22:00,ZBHH 312200Z AUTO 07004KT 6SM M10/M19 A3045 RMK T11001190 IEM_DS3505
ZBHH,2002-10-31 23:00,ZBHH 312300Z AUTO 00000KT 6SM M11/M19 A3045 RMK T11101190 IEM_DS3505
ZBHH,2002-11-01 00:00,ZBHH 010000Z AUTO 00000KT 19SM M07/M17 A3047 RMK SLP401 T10721169 52014 IEM_DS3505
ZBHH,2002-11-01 01:00,ZBHH 010100Z AUTO 28006KT 6SM M06/M19 A3047 RMK T10601190 IEM_DS3505
ZBHH,2002-11-01 02:00,ZBHH 010200Z AUTO 28004KT 6SM M05/M19 A3045 RMK T10501190 IEM_DS3505
ZBHH,2002-11-01 03:00,ZBHH 010300Z AUTO 22008KT 19SM M02/M16 A3042 RMK SLP382 T10241156 57008 IEM_DS3505
ZBHH,2002-11-01 04:00,ZBHH 010400Z AUTO 22008KT 6SM M03/M18 A3042 RMK T10301180 IEM_DS3505
ZBHH,2002-11-01 05:00,ZBHH 010500Z AUTO 23010KT 6SM M01/M18 A3036 RMK T10101180 IEM_DS3505
ZBHH,2002-11-01 06:00,ZBHH 010600Z AUTO 22008KT 19SM 01/M14 A3033 RMK SLP342 T00101145 57030 IEM_DS3505
ZBHH,2002-11-01 07:00,ZBHH 010700Z AUTO 23010KT 6SM 00/M17 A3030 RMK T00001170 IEM_DS3505
ZBHH,2002-11-01 08:00,ZBHH 010800Z AUTO 23010KT 6SM 01/M18 A3030 RMK T00101180 IEM_DS3505
ZBHH,2002-11-01 09:00,ZBHH 010900Z AUTO 32006KT 19SM 03/M18 A3030 RMK SLP326 T00261177 57012 IEM_DS3505
ZBHH,2002-11-01 10:00,ZBHH 011000Z AUTO 31010KT 6SM 00/M21 A3030 RMK T00001210 IEM_DS3505
ZBHH,2002-11-01 11:00,ZBHH 011100Z AUTO 30012G21KT 6SM M01/M21 A3033 RMK T10101210 IEM_DS3505
ZBHH,2002-11-01 12:00,ZBHH 011200Z AUTO 32006KT 19SM 00/M20 A3033 RMK SLP342 T00011195 52007 IEM_DS3505
ZBHH,2002-11-01 13:00,ZBHH 011300Z AUTO 28006KT 6SM M03/M22 A3033 RMK T10301220 IEM_DS3505
ZBHH,2002-11-01 14:00,ZBHH 011400Z AUTO 27008KT 6SM M03/M21 A3033 RMK T10301210 IEM_DS3505
ZBHH,2002-11-01 15:00,ZBHH 011500Z AUTO 20002KT 19SM M02/M18 A3030 RMK SLP327 T10191181 57007 IEM_DS3505
ZBHH,2002-11-01 18:00,ZBHH 011800Z AUTO 00000KT 19SM M05/M17 RMK SLP309 T10491166 57015 IEM_DS3505
ZBHH,2002-11-01 21:00,ZBHH 012100Z AUTO 02002KT 19SM M08/M16 A3021 RMK SLP295 T10781165 57015 IEM_DS3505
ZBHH,2002-11-01 22:00,ZBHH 012200Z AUTO 08006KT 6SM M13/M17 A3021 RMK T11301170 IEM_DS3505
ZBHH,2002-11-01 23:00,ZBHH 012300Z AUTO 11002KT 6SM M13/M17 A3018 RMK T11301170 IEM_DS3505
ZBHH,2002-11-02 00:00,ZBHH 020000Z AUTO 04002KT 19SM M08/M15 A3018 RMK SLP296 T10821152 57006 IEM_DS3505
ZBHH,2002-11-02 01:00,ZBHH 020100Z AUTO 07002KT 6SM M07/M16 A3018 RMK T10701160 IEM_DS3505
ZBHH,2002-11-02 02:00,ZBHH 020200Z AUTO 20004KT 6SM M05/M14 A3018 RMK T10501140 IEM_DS3505
ZBHH,2002-11-02 03:00,ZBHH 020300Z AUTO 18004KT 5SM M01/M14 A3015 RMK SLP273 T10061138 57008 IEM_DS3505
ZBHH,2002-11-02 04:00,ZBHH 020400Z AUTO 00/M14 A3012 RMK T00001140 IEM_DS3505
ZBHH,2002-11-02 05:00,ZBHH 020500Z AUTO 29014KT 6SM 02/M20 A3009 RMK T00201200 IEM_DS3505
ZBHH,2002-11-02 06:00,ZBHH 020600Z AUTO 32008G23KT 19SM 03/ A3009 RMK SLP244 57024 IEM_DS3505
ZBHH,2002-11-02 07:00,ZBHH 020700Z AUTO 32017G31KT 7SM 02/M19 A3009 RMK T00201190 IEM_DS3505
ZBHH,2002-11-02 08:00,ZBHH 020800Z AUTO 33017G27KT 02/M18 A3009 RMK T00201180 IEM_DS3505
ZBHH,2002-11-02 09:00,ZBHH 020900Z AUTO 32012KT 19SM 01/M16 A3012 RMK SLP271 T00081156 52013 IEM_DS3505
ZBHH,2002-11-02 10:00,ZBHH 021000Z AUTO 31012G21KT 7SM M02/M14 A3015 RMK T10201140 IEM_DS3505
ZBHH,2002-11-02 11:00,ZBHH 021100Z AUTO 32016G29KT 7SM M03/M13 A3018 RMK T10301130 IEM_DS3505
ZBHH,2002-11-02 12:00,ZBHH 021200Z AUTO 29008G23KT 19SM M02/M14 A3024 RMK SLP313 T10181136 52030 IEM_DS3505
ZBHH,2002-11-02 13:00,ZBHH 021300Z AUTO 33014KT 7SM M03/M16 A3024 RMK T10301160 IEM_DS3505
ZBHH,2002-11-02 14:00,ZBHH 021400Z AUTO 33014G27KT 6SM M04/M17 A3027 RMK T10401170 IEM_DS3505
ZBHH,2002-11-02 15:00,ZBHH 021500Z AUTO 27004KT 19SM RMK IEM_DS3505
ZBHH,2002-11-02 18:00,ZBHH 021800Z AUTO 29004KT 19SM M04/M16 RMK SLP329 T10441163 52011 IEM_DS3505
ZBHH,2002-11-02 21:00,ZBHH 022100Z AUTO 29006KT 19SM M04/M16 A3033 RMK SLP334 T10451165 57001 IEM_DS3505
ZBHH,2002-11-02 22:00,ZBHH 022200Z AUTO 28012KT 6SM M06/M16 A3033 RMK T10601160 IEM_DS3505
ZBHH,2002-11-02 23:00,ZBHH 022300Z AUTO 29014KT 6SM M06/M16 A3033 RMK T10601160 IEM_DS3505
ZBHH,2002-11-03 00:00,ZBHH 030000Z AUTO 32002KT 19SM M03/M16 A3033 RMK SLP344 T10341156 52006 IEM_DS3505
ZBHH,2002-11-03 01:00,ZBHH 030100Z AUTO 28010KT 6SM M02/M17 A3033 RMK T10201170 IEM_DS3505
ZBHH,2002-11-03 02:00,ZBHH 030200Z AUTO 31012KT 6SM M01/M16 A3033 RMK T10101160 IEM_DS3505
ZBHH,2002-11-03 03:00,ZBHH 030300Z AUTO 22004KT 19SM 01/M16 A3033 RMK SLP329 T00061163 57008 IEM_DS3505
ZBHH,2002-11-03 04:00,ZBHH 030400Z AUTO 24008KT 6SM 02/M16 A3030 RMK T00201160 IEM_DS3505
ZBHH,2002-11-03 05:00,ZBHH 030500Z AUTO 24010KT 6SM 03/M15 A3027 RMK T00301150 IEM_DS3505
ZBHH,2002-11-03 06:00,ZBHH 030600Z AUTO 20004KT 19SM 06/M14 A3024 RMK SLP286 T00591138 57029 IEM_DS3505
ZBHH,2002-11-03 07:00,ZBHH 030700Z AUTO 23008KT 6SM 07/M16 A3021 RMK T00701160 IEM_DS3505
ZBHH,2002-11-03 08:00,ZBHH 030800Z AUTO 27008KT 6SM 08/M18 A3018 RMK T00801180 IEM_DS3505
ZBHH,2002-11-03 09:00,ZBHH 030900Z AUTO 27002KT 19SM 08/M16 A3018 RMK SLP261 T00831164 57017 IEM_DS3505
ZBHH,2002-11-03 10:00,ZBHH 031000Z AUTO 32006KT 6SM 04/M20 A3018 RMK T00401200 IEM_DS3505
ZBHH,2002-11-03 11:00,ZBHH 031100Z AUTO 32006KT 03/M21 A3018 RMK T00301210 IEM_DS3505
ZBHH,2002-11-03 12:00,ZBHH 031200Z AUTO 00000KT 9SM 03/M13 A3021 RMK SLP281 T00261133 52008 IEM_DS3505
ZBHH,2002-11-03 13:00,ZBHH 031300Z AUTO 16002KT 6SM M02/M18 A3021 RMK T10201180 IEM_DS3505
ZBHH,2002-11-03 14:00,ZBHH 031400Z AUTO 00000KT 6SM M03/M17 A3021 RMK T10301170 IEM_DS3505
ZBHH,2002-11-03 15:00,ZBHH 031500Z AUTO 00000KT 19SM M00/M11 RMK SLP280 T10021108 52002 IEM_DS3505
ZBHH,2002-11-03 18:00,ZBHH 031800Z AUTO 00000KT 19SM M03/M13 RMK SLP262 T10261133 57010 IEM_DS3505
ZBHH,2002-11-03 21:00,ZBHH 032100Z AUTO 00000KT 19SM M04/M14 A3015 RMK SLP251 T10421145 57008 IEM_DS3505
ZBHH,2002-11-03 22:00,ZBHH 032200Z AUTO 08004KT 6SM M11/M19 A3015 RMK T11101190 IEM_DS3505
ZBHH,2002-11-03 23:00,ZBHH 032300Z AUTO 04002KT 6SM M11/M18 A3015 RMK T11101180 IEM_DS3505
ZBHH,2002-11-04 00:00,ZBHH 040000Z AUTO 00000KT 12SM M05/M14 A3015 RMK SLP274 T10461135 52007 IEM_DS3505
ZBHH,2002-11-04 01:00,ZBHH 040100Z AUTO 10002KT 6SM M02/M16 A3018 RMK T10201160 IEM_DS3505
ZBHH,2002-11-04 02:00,ZBHH 040200Z AUTO 13002KT 6SM 01/M15 A3018 RMK T00101150 IEM_DS3505
ZBHH,2002-11-04 03:00,ZBHH 040300Z AUTO 16002KT 12SM 04/M11 A3015 RMK SLP258 T00401109 57001 IEM_DS3505
ZBHH,2002-11-04 04:00,ZBHH 040400Z AUTO 19002KT 6SM 04/M15 A3015 RMK T00401150 IEM_DS3505
ZBHH,2002-11-04 05:00,ZBHH 040500Z AUTO 23004KT 6SM 05/M14 A3012 RMK T00501140 IEM_DS3505
ZBHH,2002-11-04 06:00,ZBHH 040600Z AUTO 00000KT 12SM 08/M11 A3009 RMK SLP229 T00771111 57023 IEM_DS3505
ZBHH,2002-11-04 07:00,ZBHH 040700Z AUTO 26002KT 6SM 08/M14 A3006 RMK T00801140 IEM_DS3505
ZBHH,2002-11-04 08:00,ZBHH 040800Z AUTO 25002KT 6SM 08/M14 A3006 RMK T00801140 IEM_DS3505
ZBHH,2002-11-04 09:00,ZBHH 040900Z AUTO 00000KT 12SM 08/M07 A3006 RMK SLP225 T00831073 57006 IEM_DS3505
ZBHH,2002-11-04 10:00,ZBHH 041000Z AUTO 00000KT 3SM 04/M14 A3006 RMK T00401140 IEM_DS3505
ZBHH,2002-11-04 11:00,ZBHH 041100Z AUTO 04004KT 2 1/2SM 00/M15 A3009 RMK T00001150 IEM_DS3505
ZBHH,2002-11-04 12:00,ZBHH 041200Z AUTO 00000KT 5SM 03/ A3009 RMK SLP246 52006 IEM_DS3505
ZBHH,2002-11-04 13:00,ZBHH 041300Z AUTO 08004KT M02/M15 A3009 RMK T10201150 IEM_DS3505
ZBHH,2002-11-04 14:00,ZBHH 041400Z AUTO 09004KT 3SM M03/M16 A3009 RMK T10301160 IEM_DS3505
ZBHH,2002-11-04 15:00,ZBHH 041500Z AUTO 00000KT 5SM 01/M08 A3009 RMK SLP229 T00121081 54000 IEM_DS3505
ZBHH,2002-11-04 16:00,ZBHH 041600Z AUTO 06002KT 2 1/2SM M05/M15 A3006 RMK T10501150 IEM_DS3505
ZBHH,2002-11-04 17:00,ZBHH 041700Z AUTO 05004KT 5SM M05/M16 A3006 RMK T10501160 IEM_DS3505
ZBHH,2002-11-04 18:00,ZBHH 041800Z AUTO 09002KT 5SM M02/M11 A3006 RMK SLP219 T10161109 57007 IEM_DS3505
ZBHH,2002-11-04 19:00,ZBHH 041900Z AUTO 07004KT 5SM M08/M15 A3006 RMK T10801150 IEM_DS3505
ZBHH,2002-11-04 20:00,ZBHH 042000Z AUTO 07004KT M06/M15 A3006 RMK T10601150 IEM_DS3505
ZBHH,2002-11-04 21:00,ZBHH 042100Z AUTO 00000KT 19SM M03/M12 A3006 RMK SLP220 T10281120 54000 IEM_DS3505
ZBHH,2002-11-04 22:00,ZBHH 042200Z AUTO 06002KT 5SM M09/M16 A3006 RMK T10901160 IEM_DS3505
ZBHH,2002-11-04 23:00,ZBHH 042300Z AUTO 02002KT 6SM M08/M16 A3006 RMK T10801160 IEM_DS3505
ZBHH,2002-11-05 00:00,ZBHH 050000Z AUTO 00000KT 5SM M04/M12 A3009 RMK SLP246 T10401119 52008 IEM_DS3505
ZBHH,2002-11-05 01:00,ZBHH 050100Z AUTO 10004KT 6SM M01/M15 A3009 RMK T10101150 IEM_DS3505
ZBHH,2002-11-05 02:00,ZBHH 050200Z AUTO 11004KT 6SM 02/M14 A3009 RMK T00201140 IEM_DS3505
ZBHH,2002-11-05 03:00,ZBHH 050300Z AUTO 18002KT 16SM 05/M09 A3009 RMK SLP228 T00531088 52001 IEM_DS3505
ZBHH,2002-11-05 04:00,ZBHH 050400Z AUTO 22004KT 6SM 06/M14 A3006 RMK T00601140 IEM_DS3505
ZBHH,2002-11-05 05:00,ZBHH 050500Z AUTO 26002KT 6SM 07/M13 A3003 RMK T00701130 IEM_DS3505
ZBHH,2002-11-05 06:00,ZBHH 050600Z AUTO 20004KT 16SM 09/M08 A3003 RMK SLP203 T00931080 57019 IEM_DS3505
ZBHH,2002-11-05 07:00,ZBHH 050700Z AUTO 24004KT 6SM 09/M13 A3000 RMK T00901130 IEM_DS3505
ZBHH,2002-11-05 08:00,ZBHH 050800Z AUTO 00000KT 6SM 10/M13 A3000 RMK T01001130 IEM_DS3505
ZBHH,2002-11-05 09:00,ZBHH 050900Z AUTO 00000KT 12SM 09/M10 A3000 RMK SLP191 T00931095 57013 IEM_DS3505
ZBHH,2002-11-05 10:00,ZBHH 051000Z AUTO 00000KT 6SM 04/M14 A3000 RMK T00401140 IEM_DS3505
ZBHH,2002-11-05 11:00,ZBHH 051100Z AUTO 03002KT 2 1/2SM 02/M14 A3000 RMK T00201140 IEM_DS3505
ZBHH,2002-11-05 12:00,ZBHH 051200Z AUTO 00000KT 4SM 04/M07 A3000 RMK SLP214 T00351066 52005 IEM_DS3505
ZBHH,2002-11-05 13:00,ZBHH 051300Z AUTO 03002KT 3SM M02/M14 A3000 RMK T10201140 IEM_DS3505
ZBHH,2002-11-05 14:00,ZBHH 051400Z AUTO 02002KT 00/M13 A3000 RMK T00001130 IEM_DS3505
ZBHH,2002-11-05 18:00,ZBHH 051800Z AUTO 00000KT 4SM M00/M07 RMK SLP199 T10031074 52004 IEM_DS3505
ZBHH,2002-11-05 21:00,ZBHH 052100Z AUTO 00000KT 12SM M00/M09 A3003 RMK SLP200 T10051089 54000 IEM_DS3505
ZBHH,2002-11-05 22:00,ZBHH 052200Z AUTO 11004KT 6SM M05/M14 A3003 RMK T10501140 IEM_DS3505
ZBHH,2002-11-05 23:00,ZBHH 052300Z AUTO 07004KT 6SM M06/M14 A3006 RMK T10601140 IEM_DS3505
ZBHH,2002-11-06 00:00,ZBHH 060000Z AUTO 00000KT 6SM 00/M09 A3006 RMK SLP228 T00011089 52014 IEM_DS3505
ZBHH,2002-11-06 01:00,ZBHH 060100Z AUTO 11002KT 3SM 00/M12 A3009 RMK T00001120 IEM_DS3505
ZBHH,2002-11-06 02:00,ZBHH 060200Z AUTO 17002KT 5SM 03/M06 A3009 RMK T00301060 IEM_DS3505
ZBHH,2002-11-06 03:00,ZBHH 060300Z AUTO 32008KT 19SM 08/M09 A3012 RMK SLP227 T00791090 52010 IEM_DS3505
ZBHH,2002-11-06 04:00,ZBHH 060400Z AUTO 32014G25KT 6SM 08/M10 A3009 RMK T00801100 IEM_DS3505
ZBHH,2002-11-06 05:00,ZBHH 060500Z AUTO 32016KT 6SM 09/M11 A3009 RMK T00901110 IEM_DS3505
ZBHH,2002-11-06 06:00,ZBHH 060600Z AUTO 32008G25KT 19SM 09/M12 A3009 RMK SLP221 T00901121 57005 IEM_DS3505
ZBHH,2002-11-06 07:00,ZBHH 060700Z AUTO 32017KT 6SM 08/M13 A3012 RMK T00801130 IEM_DS3505
ZBHH,2002-11-06 08:00,ZBHH 060800Z AUTO 33016G25KT 6SM 07/M14 A3012 RMK T00701140 IEM_DS3505
ZBHH,2002-11-06 09:00,ZBHH 060900Z AUTO 34006G25KT 19SM 06/M14 A3015 RMK SLP248 T00631140 52017 IEM_DS3505
ZBHH,2002-11-06 10:00,ZBHH 061000Z AUTO 34010KT 6SM 03/M14 A3018 RMK T00301140 IEM_DS3505
ZBHH,2002-11-06 11:00,ZBHH 061100Z AUTO 33012G21KT 6SM 02/M14 A3021 RMK T00201140 IEM_DS3505
ZBHH,2002-11-06 12:00,ZBHH 061200Z AUTO 32006G21KT 19SM 02/M13 A3024 RMK SLP285 T00191129 52025 IEM_DS3505
ZBHH,2002-11-06 13:00,ZBHH 061300Z AUTO 33008KT 6SM M01/M14 A3024 RMK T10101140 IEM_DS3505
ZBHH,2002-11-06 14:00,ZBHH 061400Z AUTO 30012G23KT 6SM 00/M13 A3027 RMK T00001130 IEM_DS3505
ZBHH,2002-11-06 15:00,ZBHH 061500Z AUTO 32006KT 19SM M00/M14 RMK SLP289 T10031136 52015 IEM_DS3505
ZBHH,2002-11-06 18:00,ZBHH 061800Z AUTO 29004KT 19SM M02/M14 RMK SLP295 T10181136 52004 IEM_DS3505
ZBHH,2002-11-06 21:00,ZBHH 062100Z AUTO 32006KT 19SM M03/M15 A3030 RMK SLP304 T10331147 57001 IEM_DS3505
ZBHH,2002-11-06 22:00,ZBHH 062200Z AUTO 00000KT 6SM M08/M15 A3030 RMK T10801150 IEM_DS3505
ZBHH,2002-11-06 23:00,ZBHH 062300Z AUTO 02004KT 6SM M08/M15 A3030 RMK T10801150 IEM_DS3505
ZBHH,2002-11-07 00:00,ZBHH 070000Z AUTO 32002KT 19SM M04/M14 A3030 RMK SLP322 T10401136 52005 IEM_DS3505
ZBHH,2002-11-07 01:00,ZBHH 070100Z AUTO 34002KT 6SM M04/M14 A3033 RMK T10401140 IEM_DS3505
ZBHH,2002-11-07 02:00,ZBHH 070200Z AUTO 34002KT 6SM M01/M15 A3033 RMK T10101150 IEM_DS3505
ZBHH,2002-11-07 03:00,ZBHH 070300Z AUTO 29004KT 19SM 01/M14 A3033 RMK SLP318 T00121139 52003 IEM_DS3505
ZBHH,2002-11-07 04:00,ZBHH 070400Z AUTO 33010KT 6SM 02/M16 A3030 RMK T00201160 IEM_DS3505
ZBHH,2002-11-07 05:00,ZBHH 070500Z AUTO 31014KT 6SM 03/M16 A3027 RMK T00301160 IEM_DS3505
ZBHH,2002-11-07 06:00,ZBHH 070600Z AUTO 34004KT 19SM 05/M15 A3024 RMK SLP290 T00541152 57019 IEM_DS3505
ZBHH,2002-11-07 07:00,ZBHH 070700Z AUTO 25010KT 6SM 03/M15 A3024 RMK T00301150 IEM_DS3505
ZBHH,2002-11-07 08:00,ZBHH 070800Z AUTO 23008KT 6SM 03/M15 A3021 RMK T00301150 IEM_DS3505
ZBHH,2002-11-07 09:00,ZBHH 070900Z AUTO 22002KT 19SM 04/M12 A3024 RMK SLP288 T00381119 57008 IEM_DS3505
ZBHH,2002-11-07 10:00,ZBHH 071000Z AUTO 35006KT 6SM 00/M17 A3024 RMK T00001170 IEM_DS3505
ZBHH,2002-11-07 11:00,ZBHH 071100Z AUTO 36006KT 6SM M01/M17 A3024 RMK T10101170 IEM_DS3505
ZBHH,2002-11-07 12:00,ZBHH 071200Z AUTO 32004KT 19SM 00/M16 A3027 RMK SLP313 T00051165 52013 IEM_DS3505
ZBHH,2002-11-07 13:00,ZBHH 071300Z AUTO 01008KT 6SM M02/M17 A3027 RMK T10201170 IEM_DS3505
ZBHH,2002-11-07 14:00,ZBHH 071400Z AUTO 35008KT 6SM M03/M17 A3027 RMK T10301170 IEM_DS3505
ZBHH,2002-11-07 15:00,ZBHH 071500Z AUTO 32004KT 19SM M02/M17 A3030 RMK SLP324 T10241170 52015 IEM_DS3505
ZBHH,2002-11-07 18:00,ZBHH 071800Z AUTO 29002KT 19SM M05/M18 RMK SLP335 T10461175 52014 IEM_DS3505
ZBHH,2002-11-07 21:00,ZBHH 072100Z AUTO 00000KT 19SM M07/M17 A3039 RMK SLP352 T10661172 52007 IEM_DS3505
ZBHH,2002-11-07 22:00,ZBHH 072200Z AUTO 31006KT 6SM M08/M17 A3039 RMK T10801170 IEM_DS3505
ZBHH,2002-11-07 23:00,ZBHH 072300Z AUTO 36006KT 6SM M07/M17 A3039 RMK T10701170 IEM_DS3505
ZBHH,2002-11-08 00:00,ZBHH 080000Z AUTO 00000KT 19SM M06/M16 A3042 RMK SLP373 T10581164 52013 IEM_DS3505
ZBHH,2002-11-08 01:00,ZBHH 080100Z AUTO 00000KT 6SM M06/M17 A3045 RMK T10601170 IEM_DS3505
ZBHH,2002-11-08 02:00,ZBHH 080200Z AUTO 27002KT 6SM M03/M16 A3045 RMK T10301160 IEM_DS3505
ZBHH,2002-11-08 03:00,ZBHH 080300Z AUTO 22004KT 9SM M01/M16 A3042 RMK SLP372 T10091164 52003 IEM_DS3505
ZBHH,2002-11-08 04:00,ZBHH 080400Z AUTO 22006KT 6SM M01/M16 A3042 RMK T10101160 IEM_DS3505
ZBHH,2002-11-08 05:00,ZBHH 080500Z AUTO 22006KT 6SM 00/M16 A3039 RMK T00001160 IEM_DS3505
ZBHH,2002-11-08 06:00,ZBHH 080600Z AUTO 18004KT 16SM 02/M13 A3033 RMK SLP337 T00201134 57029 IEM_DS3505
ZBHH,2002-11-08 07:00,ZBHH 080700Z AUTO 22008KT 6SM 01/M15 A3033 RMK T00101150 IEM_DS3505
ZBHH,2002-11-08 08:00,ZBHH 080800Z AUTO 22006KT 6SM 01/M16 A3033 RMK T00101160 IEM_DS3505
ZBHH,2002-11-08 09:00,ZBHH 080900Z AUTO 22004KT 12SM 01/M15 A3030 RMK SLP332 T00131150 57010 IEM_DS3505
ZBHH,2002-11-08 10:00,ZBHH 081000Z AUTO 20002KT 6SM M02/M16 A3030 RMK T10201160 IEM_DS3505
ZBHH,2002-11-08 11:00,ZBHH 081100Z AUTO 00000KT 6SM M03/M16 A3030 RMK T10301160 IEM_DS3505
ZBHH,2002-11-08 12:00,ZBHH 081200Z AUTO 04002KT 9SM M02/M14 A3027 RMK SLP329 T10221138 57009 IEM_DS3505
ZBHH,2002-11-08 13:00,ZBHH 081300Z AUTO 08004KT 6SM M08/M18 A3027 RMK T10801180 IEM_DS3505
ZBHH,2002-11-08 14:00,ZBHH 081400Z AUTO 10004KT 6SM M09/M18 A3027 RMK T10901180 IEM_DS3505
ZBHH,2002-11-08 15:00,ZBHH 081500Z AUTO 00000KT 6SM M04/M13 RMK SLP310 T10381127 57009 IEM_DS3505
ZBHH,2002-11-08 18:00,ZBHH 081800Z AUTO 00000KT 9SM M06/M14 RMK SLP291 T10601135 57015 IEM_DS3505
ZBHH,2002-11-08 21:00,ZBHH 082100Z AUTO 00000KT 19SM M07/M15 A3012 RMK SLP271 T10711147 57022 IEM_DS3505
ZBHH,2002-11-08 23:00,ZBHH 082300Z AUTO 09002KT 6SM M13/M19 A3012 RMK T11301190 IEM_DS3505
ZBHH,2002-11-09 00:00,ZBHH 090000Z AUTO 00000KT 12SM M06/M14 A3012 RMK SLP276 T10651143 57002 IEM_DS3505
ZBHH,2002-11-09 01:00,ZBHH 090100Z AUTO 08004KT 6SM M04/M17 A3009 RMK T10401170 IEM_DS3505
ZBHH,2002-11-09 02:00,ZBHH 090200Z AUTO 12002KT 6SM 00/M17 A3009 RMK T00001170 IEM_DS3505
ZBHH,2002-11-09 03:00,ZBHH 090300Z AUTO 20002KT 12SM 03/M18 A3006 RMK SLP235 T00261175 57019 IEM_DS3505
ZBHH,2002-11-09 04:00,ZBHH 090400Z AUTO 27002KT 6SM 02/M17 A3003 RMK T00201170 IEM_DS3505
ZBHH,2002-11-09 05:00,ZBHH 090500Z AUTO 23006KT 6SM 03/M16 A3000 RMK T00301160 IEM_DS3505
ZBHH,2002-11-09 06:00,ZBHH 090600Z AUTO 18004KT 9SM 06/M14 A2997 RMK SLP196 T00641143 57031 IEM_DS3505
ZBHH,2002-11-09 07:00,ZBHH 090700Z AUTO 27002KT 6SM 06/M15 A2994 RMK T00601150 IEM_DS3505
ZBHH,2002-11-09 08:00,ZBHH 090800Z AUTO 27004KT 6SM 06/M15 A2994 RMK T00601150 IEM_DS3505
ZBHH,2002-11-09 09:00,ZBHH 090900Z AUTO 00000KT 12SM 06/M12 A2994 RMK SLP192 T00561124 57007 IEM_DS3505
ZBHH,2002-11-09 10:00,ZBHH 091000Z AUTO 00000KT 6SM 02/M16 A2994 RMK T00201160 IEM_DS3505
ZBHH,2002-11-09 11:00,ZBHH 091100Z AUTO 05004KT 2 1/2SM M02/M17 A2994 RMK T10201170 IEM_DS3505
ZBHH,2002-11-09 12:00,ZBHH 091200Z AUTO 00000KT 4SM 01/M10 A2997 RMK SLP213 T00101097 52009 IEM_DS3505
ZBHH,2002-11-09 13:00,ZBHH 091300Z AUTO 04004KT 3SM M05/M17 A2997 RMK T10501170 IEM_DS3505
ZBHH,2002-11-09 14:00,ZBHH 091400Z AUTO 00000KT 1 1/4SM M07/M19 A2997 RMK T10701190 IEM_DS3505
ZBHH,2002-11-09 15:00,ZBHH 091500Z AUTO 00000KT 5SM M01/M12 A2997 RMK SLP203 T10141116 52006 IEM_DS3505
ZBHH,2002-11-09 17:00,ZBHH 091700Z AUTO 05004KT M06/M16 A2994 RMK T10601160 IEM_DS3505
ZBHH,2002-11-09 18:00,ZBHH 091800Z AUTO 00000KT 12SM M03/M12 A2994 RMK SLP188 T10321121 57009 IEM_DS3505
ZBHH,2002-11-09 19:00,ZBHH 091900Z AUTO 07002KT 5SM M06/M15 A2994 RMK T10601150 IEM_DS3505
ZBHH,2002-11-09 20:00,ZBHH 092000Z AUTO 06004KT 6SM M06/M15 A2994 RMK T10601150 IEM_DS3505
ZBHH,2002-11-09 21:00,ZBHH 092100Z AUTO 00000KT 19SM M04/M12 A2991 RMK SLP179 T10351121 57010 IEM_DS3505
ZBHH,2002-11-09 22:00,ZBHH 092200Z AUTO 00000KT 4SM M05/M14 A2991 RMK T10501140 IEM_DS3505
ZBHH,2002-11-09 23:00,ZBHH 092300Z AUTO 10002KT M06/M14 A2988 RMK T10601140 IEM_DS3505
ZBHH,2002-11-10 00:00,ZBHH 100000Z AUTO 00000KT 6SM M02/M11 A2991 RMK SLP187 T10221114 54000 IEM_DS3505
ZBHH,2002-11-10 01:00,ZBHH 100100Z AUTO 09002KT 6SM A2991 RMK IEM_DS3505
ZBHH,2002-11-10 02:00,ZBHH 100200Z AUTO 12002KT 5SM 01/M13 A2994 RMK T00101130 IEM_DS3505
ZBHH,2002-11-10 03:00,ZBHH 100300Z AUTO 00000KT 6SM 03/M11 A2991 RMK SLP175 T00321107 57004 IEM_DS3505
ZBHH,2002-11-10 04:00,ZBHH 100400Z AUTO 17002KT 03/M12 A2988 RMK T00301120 IEM_DS3505
ZBHH,2002-11-10 05:00,ZBHH 100500Z AUTO 00000KT 04/M12 A2985 RMK T00401120 IEM_DS3505
ZBHH,2002-11-10 06:00,ZBHH 100600Z AUTO 04002KT 5SM 07/M10 RMK SLP145 T00691105 57023 IEM_DS3505
ZBHH,2002-11-10 07:00,ZBHH 100700Z AUTO 02002KT 06/M12 A2983 RMK T00601120 IEM_DS3505
ZBHH,2002-11-10 08:00,ZBHH 100800Z AUTO 05004KT 06/M12 A2983 RMK T00601120 IEM_DS3505
ZBHH,2002-11-10 09:00,ZBHH 100900Z AUTO 00000KT 5SM 07/M09 A2983 RMK SLP144 T00661091 57002 IEM_DS3505
ZBHH,2002-11-10 10:00,ZBHH 101000Z AUTO 10002KT 2 1/2SM 03/M12 A2983 RMK T00301120 IEM_DS3505
ZBHH,2002-11-10 11:00,ZBHH 101100Z AUTO 1 1/2SM 02/M12 A2988 RMK T00201120 IEM_DS3505
ZBHH,2002-11-10 12:00,ZBHH 101200Z AUTO 32012G39KT 9SM 08/M16 A2991 RMK SLP174 T00761160 52031 IEM_DS3505
ZBHH,2002-11-10 13:00,ZBHH 101300Z AUTO 31016G25KT 1/4SM A3000 RMK IEM_DS3505
ZBHH,2002-11-10 14:00,ZBHH 101400Z AUTO 33014G25KT 3/8SM 02/M19 A3003 RMK T00201190 IEM_DS3505
ZBHH,2002-11-10 15:00,ZBHH 101500Z AUTO 32014KT 4SM 02/M20 A3006 RMK SLP219 T00151203 52038 IEM_DS3505
ZBHH,2002-11-10 16:00,ZBHH 101600Z AUTO 29010KT 1SM 00/M20 A3006 RMK T00001200 IEM_DS3505
ZBHH,2002-11-10 17:00,ZBHH 101700Z AUTO 26008KT 1 1/2SM M01/M21 A3006 RMK T10101210 IEM_DS3505
ZBHH,2002-11-10 18:00,ZBHH 101800Z AUTO 32001KT 12SM M00/M19 A3006 RMK SLP214 T10021192 54000 IEM_DS3505
ZBHH,2002-11-10 19:00,ZBHH 101900Z AUTO 29008KT 1 1/2SM M03/M20 A3006 RMK T10301200 IEM_DS3505
ZBHH,2002-11-10 20:00,ZBHH 102000Z AUTO 30008KT 1 1/2SM M03/M20 A3006 RMK T10301200 IEM_DS3505
ZBHH,2002-11-10 21:00,ZBHH 102100Z AUTO 32004KT 12SM M02/M18 A3006 RMK SLP223 T10231182 52003 IEM_DS3505
ZBHH,2002-11-10 22:00,ZBHH 102200Z AUTO 32004KT 3SM M03/M20 A3006 RMK T10301200 IEM_DS3505
ZBHH,2002-11-10 23:00,ZBHH 102300Z AUTO 33004KT 3SM A3006 RMK IEM_DS3505
ZBHH,2002-11-11 00:00,ZBHH 110000Z AUTO 04002KT 12SM M03/M19 A3009 RMK SLP228 T10311186 52005 IEM_DS3505
ZBHH,2002-11-11 01:00,ZBHH 110100Z AUTO 10002KT 3SM A3009 RMK IEM_DS3505
ZBHH,2002-11-11 02:00,ZBHH 110200Z AUTO 20002KT 3SM M01/M19 A3009 RMK T10101190 IEM_DS3505
ZBHH,2002-11-11 03:00,ZBHH 110300Z AUTO 00000KT 12SM 02/M15 A3006 RMK SLP223 T00151152 57008 IEM_DS3505
ZBHH,2002-11-11 04:00,ZBHH 110400Z AUTO 24008KT 01/M21 A3003 RMK T00101210 IEM_DS3505
ZBHH,2002-11-11 05:00,ZBHH 110500Z AUTO 24010KT 1 1/2SM 02/M21 A2997 RMK T00201210 IEM_DS3505
ZBHH,2002-11-11 06:00,ZBHH 110600Z AUTO 20010KT 5SM 03/M17 A2994 RMK SLP188 T00321173 57030 IEM_DS3505
ZBHH,2002-11-11 07:00,ZBHH 110700Z AUTO 23014KT 1 1/4SM 02/M18 A2994 RMK T00201180 IEM_DS3505
ZBHH,2002-11-11 08:00,ZBHH 110800Z AUTO 24008KT 1 1/2SM 03/M18 A2994 RMK T00301180 IEM_DS3505
ZBHH,2002-11-11 09:00,ZBHH 110900Z AUTO 25002KT 6SM 03/M13 A2994 RMK SLP194 T00341132 52001 IEM_DS3505
ZBHH,2002-11-11 10:00,ZBHH 111000Z AUTO 31016KT 02/M16 A2997 RMK T00201160 IEM_DS3505
ZBHH,2002-11-11 11:00,ZBHH 111100Z AUTO 32008KT 01/M15 A3003 RMK T00101150 IEM_DS3505
ZBHH,2002-11-11 12:00,ZBHH 111200Z AUTO 32006KT 6SM 01/M20 A3006 RMK SLP243 T00121199 52036 IEM_DS3505
ZBHH,2002-11-11 13:00,ZBHH 111300Z AUTO 30008KT M02/M19 A3009 RMK T10201190 IEM_DS3505
ZBHH,2002-11-11 14:00,ZBHH 111400Z AUTO 29010KT M02/M19 A3009 RMK T10201190 IEM_DS3505
ZBHH,2002-11-11 15:00,ZBHH 111500Z AUTO 34006KT 6SM M02/M21 A3012 RMK SLP252 T10161208 52012 IEM_DS3505
ZBHH,2002-11-11 17:00,ZBHH 111700Z AUTO 36006KT 6SM M06/M21 A3012 RMK T10601210 IEM_DS3505
ZBHH,2002-11-11 18:00,ZBHH 111800Z AUTO 29004KT 9SM M04/M24 RMK SLP263 T10441235 52007 IEM_DS3505
ZBHH,2002-11-11 21:00,ZBHH 112100Z AUTO 00000KT 19SM M06/M20 A3015 RMK SLP267 T10561197 52002 IEM_DS3505
ZBHH,2002-11-11 22:00,ZBHH 112200Z AUTO 17002KT 6SM M13/M22 A3015 RMK T11301220 IEM_DS3505
ZBHH,2002-11-11 23:00,ZBHH 112300Z AUTO 08002KT 6SM M13/M23 A3015 RMK T11301230 IEM_DS3505
ZBHH,2002-11-12 00:00,ZBHH 120000Z AUTO 00000KT 9SM M08/M18 A3018 RMK SLP294 T10781179 52014 IEM_DS3505
ZBHH,2002-11-12 01:00,ZBHH 120100Z AUTO 09004KT 6SM M07/M22 A3018 RMK T10701220 IEM_DS3505
ZBHH,2002-11-12 02:00,ZBHH 120200Z AUTO 12002KT 6SM M04/M23 A3018 RMK T10401230 IEM_DS3505
ZBHH,2002-11-12 03:00,ZBHH 120300Z AUTO 18002KT 12SM M02/ A3018 RMK SLP278 57007 IEM_DS3505
ZBHH,2002-11-12 04:00,ZBHH 120400Z AUTO 32002KT 6SM M02/M23 A3015 RMK T10201230 IEM_DS3505
ZBHH,2002-11-12 05:00,ZBHH 120500Z AUTO 02002KT 6SM M01/M23 A3012 RMK T10101230 IEM_DS3505
ZBHH,2002-11-12 06:00,ZBHH 120600Z AUTO 22006KT 19SM 01/M17 A3009 RMK SLP255 T00101166 57020 IEM_DS3505
ZBHH,2002-11-12 07:00,ZBHH 120700Z AUTO 21006KT 6SM 01/M23 A3009 RMK T00101230 IEM_DS3505
ZBHH,2002-11-12 09:00,ZBHH 120900Z AUTO 18002KT 16SM 01/M16 A3006 RMK SLP244 T00101165 57013 IEM_DS3505
ZBHH,2002-11-12 10:00,ZBHH 121000Z AUTO 04002KT 6SM M01/M22 A3009 RMK T10101220 IEM_DS3505
ZBHH,2002-11-12 11:00,ZBHH 121100Z AUTO 33006G16KT 6SM M04/M23 A3012 RMK T10401230 IEM_DS3505
ZBHH,2002-11-12 12:00,ZBHH 121200Z AUTO 34006KT 19SM M02/M20 A3012 RMK SLP282 T10201201 52022 IEM_DS3505
ZBHH,2002-11-12 13:00,ZBHH 121300Z AUTO 35012G21KT 6SM M05/M24 A3015 RMK T10501240 IEM_DS3505
ZBHH,2002-11-12 14:00,ZBHH 121400Z AUTO 36008KT 6SM M06/M24 A3018 RMK T10601240 IEM_DS3505
ZBHH,2002-11-12 15:00,ZBHH 121500Z AUTO 00000KT 19SM M05/M22 RMK SLP294 T10491218 52018 IEM_DS3505
ZBHH,2002-11-12 18:00,ZBHH 121800Z AUTO 34002KT 19SM M06/M22 RMK SLP284 T10591225 57005 IEM_DS3505
ZBHH,2002-11-12 21:00,ZBHH 122100Z AUTO 00000KT 19SM M08/M23 A3015 RMK SLP280 T10821234 57009 IEM_DS3505
ZBHH,2002-11-12 22:00,ZBHH 122200Z AUTO 01002KT 6SM M14/M25 A3015 RMK T11401250 IEM_DS3505
ZBHH,2002-11-12 23:00,ZBHH 122300Z AUTO 06002KT 6SM M16/M26 A3015 RMK T11601260 IEM_DS3505
ZBHH,2002-11-13 00:00,ZBHH 130000Z AUTO 00000KT 12SM M08/M21 A3012 RMK SLP283 T10841208 57004 IEM_DS3505
ZBHH,2002-11-13 01:00,ZBHH 130100Z AUTO 06004KT 6SM M09/M23 A3012 RMK T10901230 IEM_DS3505
ZBHH,2002-11-13 02:00,ZBHH 130200Z AUTO 16002KT 6SM M06/M23 A3012 RMK T10601230 IEM_DS3505
ZBHH,2002-11-13 03:00,ZBHH 130300Z AUTO 20004KT 12SM M03/M20 A3009 RMK SLP260 T10311205 57015 IEM_DS3505
ZBHH,2002-11-13 04:00,ZBHH 130400Z AUTO 23006KT 6SM M03/M21 A3006 RMK T10301210 IEM_DS3505
ZBHH,2002-11-13 05:00,ZBHH 130500Z AUTO 23010KT 6SM M01/M22 A3000 RMK T10101220 IEM_DS3505
ZBHH,2002-11-13 06:00,ZBHH 130600Z AUTO 20010KT 19SM 01/M19 A2997 RMK SLP209 T00101190 57038 IEM_DS3505
ZBHH,2002-11-13 07:00,ZBHH 130700Z AUTO 24014KT 6SM 01/M21 A2991 RMK T00101210 IEM_DS3505
ZBHH,2002-11-13 08:00,ZBHH 130800Z AUTO 24012KT 6SM 01/M21 A2991 RMK T00101210 IEM_DS3505
ZBHH,2002-11-13 09:00,ZBHH 130900Z AUTO 20006KT 19SM 02/M19 A2991 RMK SLP196 T00151192 57015 IEM_DS3505
ZBHH,2002-11-13 10:00,ZBHH 131000Z AUTO 26006KT 6SM M01/M20 A2991 RMK T10101200 IEM_DS3505
ZBHH,2002-11-13 11:00,ZBHH 131100Z AUTO 28010KT 6SM 01/M19 A2994 RMK T00101190 IEM_DS3505
ZBHH,2002-11-13 12:00,ZBHH 131200Z AUTO 20002G21KT 19SM 01/M18 A2994 RMK SLP217 T00121184 52017 IEM_DS3505
ZBHH,2002-11-13 13:00,ZBHH 131300Z AUTO 34008KT 6SM M01/M18 A2997 RMK T10101180 IEM_DS3505
ZBHH,2002-11-13 15:00,ZBHH 131500Z AUTO 29004KT 19SM M02/M18 RMK SLP235 T10191180 52021 IEM_DS3505
ZBHH,2002-11-13 18:00,ZBHH 131800Z AUTO 32004KT 19SM M04/M18 RMK SLP234 T10361182 52004 IEM_DS3505
ZBHH,2002-11-13 21:00,ZBHH 132100Z AUTO 32002KT 12SM M04/M17 A3003 RMK SLP229 T10421172 57005 IEM_DS3505
ZBHH,2002-11-13 22:00,ZBHH 132200Z AUTO 12004KT 6SM M11/M19 A3003 RMK T11101190 IEM_DS3505
ZBHH,2002-11-13 23:00,ZBHH 132300Z AUTO 16002KT 6SM M10/M19 A3006 RMK T11001190 IEM_DS3505
ZBHH,2002-11-14 00:00,ZBHH 140000Z AUTO 29002KT 19SM M05/M17 A3006 RMK SLP240 T10481171 52008 IEM_DS3505
ZBHH,2002-11-14 01:00,ZBHH 140100Z AUTO 18002KT 6SM M05/M17 A3009 RMK T10501170 IEM_DS3505
ZBHH,2002-11-14 02:00,ZBHH 140200Z AUTO 21002KT 6SM M03/M17 A3009 RMK T10301170 IEM_DS3505
ZBHH,2002-11-14 03:00,ZBHH 140300Z AUTO 20006KT 12SM M01/M14 A3009 RMK SLP245 T10081139 52006 IEM_DS3505
ZBHH,2002-11-14 04:00,ZBHH 140400Z AUTO 22006KT 6SM 00/M17 A3006 RMK T00001170 IEM_DS3505
ZBHH,2002-11-14 05:00,ZBHH 140500Z AUTO 19006KT 6SM 01/M16 A3003 RMK T00101160 IEM_DS3505
ZBHH,2002-11-14 06:00,ZBHH 140600Z AUTO 20004KT 19SM 03/M14 A3000 RMK SLP217 T00301140 57020 IEM_DS3505
ZBHH,2002-11-14 07:00,ZBHH 140700Z AUTO 23006KT 6SM 03/M16 A3000 RMK T00301160 IEM_DS3505
ZBHH,2002-11-14 08:00,ZBHH 140800Z AUTO 24006KT 6SM 03/M16 A3000 RMK T00301160 IEM_DS3505
ZBHH,2002-11-14 09:00,ZBHH 140900Z AUTO 20002KT 19SM 03/M14 A3000 RMK SLP216 T00261144 57003 IEM_DS3505
ZBHH,2002-11-14 10:00,ZBHH 141000Z AUTO 17002KT 2SM A3000 RMK IEM_DS3505
ZBHH,2002-11-14 11:00,ZBHH 141100Z AUTO 32002KT 1 1/2SM M02/M15 A3006 RMK T10201150 IEM_DS3505
ZBHH,2002-11-14 12:00,ZBHH 141200Z AUTO 32006KT 19SM 00/M14 A3006 RMK SLP250 T00001141 52023 IEM_DS3505
ZBHH,2002-11-14 13:00,ZBHH 141300Z AUTO 33006KT 6SM M03/M18 A3006 RMK T10301180 IEM_DS3505
ZBHH,2002-11-14 14:00,ZBHH 141400Z AUTO 30002KT 6SM M03/M18 A3009 RMK T10301180 IEM_DS3505
ZBHH,2002-11-14 15:00,ZBHH 141500Z AUTO 32006KT 19SM M02/M15 A3009 RMK SLP253 T10241154 52006 IEM_DS3505
ZBHH,2002-11-14 16:00,ZBHH 141600Z AUTO 36002KT 6SM M04/M18 A3009 RMK T10401180 IEM_DS3505
ZBHH,2002-11-14 18:00,ZBHH 141800Z AUTO 00000KT 19SM M03/M15 RMK SLP242 T10301147 57002 IEM_DS3505
ZBHH,2002-11-14 21:00,ZBHH 142100Z AUTO 00000KT 19SM M07/M16 A3009 RMK SLP249 T10661164 57003 IEM_DS3505
ZBHH,2002-11-14 22:00,ZBHH 142200Z AUTO 08004KT 6SM M13/M20 A3009 RMK T11301200 IEM_DS3505
ZBHH,2002-11-14 23:00,ZBHH 142300Z AUTO 08004KT 6SM M13/M20 A3009 RMK T11301200 IEM_DS3505
ZBHH,2002-11-15 00:00,ZBHH 150000Z AUTO 00000KT 5SM M06/M16 A3009 RMK SLP262 T10631158 52006 IEM_DS3505
ZBHH,2002-11-15 01:00,ZBHH 150100Z AUTO 10002KT 6SM M08/M18 A3012 RMK T10801180 IEM_DS3505
ZBHH,2002-11-15 02:00,ZBHH 150200Z AUTO 13002KT 6SM M04/M17 A3012 RMK T10401170 IEM_DS3505
ZBHH,2002-11-15 03:00,ZBHH 150300Z AUTO 09002KT 7SM M00/M11 A3009 RMK SLP252 T10021110 54000 IEM_DS3505
ZBHH,2002-11-15 04:00,ZBHH 150400Z AUTO 00000KT 6SM 01/M16 A3006 RMK T00101160 IEM_DS3505
ZBHH,2002-11-15 05:00,ZBHH 150500Z AUTO 19004KT 6SM 02/M16 A3003 RMK T00201160 IEM_DS3505
ZBHH,2002-11-15 06:00,ZBHH 150600Z AUTO 18006KT 16SM 04/M09 A3000 RMK SLP205 T00451093 57033 IEM_DS3505
ZBHH,2002-11-15 07:00,ZBHH 150700Z AUTO 24008KT 6SM 04/M14 A2997 RMK T00401140 IEM_DS3505
ZBHH,2002-11-15 08:00,ZBHH 150800Z AUTO 25006KT 6SM 04/M14 A2997 RMK T00401140 IEM_DS3505
ZBHH,2002-11-15 09:00,ZBHH 150900Z AUTO 18006KT 12SM 04/M13 A2997 RMK SLP204 T00421126 57009 IEM_DS3505
ZBHH,2002-11-15 10:00,ZBHH 151000Z AUTO 12002KT 6SM 00/M14 A2997 RMK T00001140 IEM_DS3505
ZBHH,2002-11-15 12:00,ZBHH 151200Z AUTO 32004KT 16SM 02/M13 A3000 RMK SLP228 T00201132 52017 IEM_DS3505
ZBHH,2002-11-15 13:00,ZBHH 151300Z AUTO 00000KT M05/M16 A3003 RMK T10501160 IEM_DS3505
ZBHH,2002-11-15 14:00,ZBHH 151400Z AUTO 00000KT M06/M16 A3003 RMK T10601160 IEM_DS3505
ZBHH,2002-11-15 15:00,ZBHH 151500Z AUTO 02004KT 19SM 00/M14 RMK SLP221 T00041138 52004 IEM_DS3505
ZBHH,2002-11-15 18:00,ZBHH 151800Z AUTO 00000KT 19SM M02/M13 RMK SLP205 T10231127 57010 IEM_DS3505
ZBHH,2002-11-15 21:00,ZBHH 152100Z AUTO 00000KT 19SM M02/M14 A2997 RMK SLP193 T10221137 57011 IEM_DS3505
ZBHH,2002-11-15 22:00,ZBHH 152200Z AUTO 02010KT 6SM M02/M15 A2997 RMK T10201150 IEM_DS3505
ZBHH,2002-11-15 23:00,ZBHH 152300Z AUTO 02008KT 6SM M03/M13 A2997 RMK T10301130 IEM_DS3505
ZBHH,2002-11-16 00:00,ZBHH 160000Z AUTO 29004KT 12SM M01/M11 A3000 RMK SLP211 T10111113 52013 IEM_DS3505
ZBHH,2002-11-16 01:00,ZBHH 160100Z AUTO 34012KT 6SM M03/M11 A3003 RMK T10301110 IEM_DS3505
ZBHH,2002-11-16 02:00,ZBHH 160200Z AUTO 34014KT 6SM M04/M11 A3006 RMK T10401110 IEM_DS3505
ZBHH,2002-11-16 03:00,ZBHH 160300Z AUTO 02006KT 19SM M02/M12 A3006 RMK SLP246 T10201116 52026 IEM_DS3505
ZBHH,2002-11-16 04:00,ZBHH 160400Z AUTO 34012KT 6SM M03/M14 A3009 RMK T10301140 IEM_DS3505
ZBHH,2002-11-16 05:00,ZBHH 160500Z AUTO 34016G25KT 6SM M03/M15 A3009 RMK T10301150 IEM_DS3505
ZBHH,2002-11-16 06:00,ZBHH 160600Z AUTO 36006KT 19SM M02/M14 A3012 RMK SLP268 T10221137 52013 IEM_DS3505
ZBHH,2002-11-16 07:00,ZBHH 160700Z AUTO 33016KT 6SM M05/M16 A3015 RMK T10501160 IEM_DS3505
ZBHH,2002-11-16 08:00,ZBHH 160800Z AUTO 35014KT 6SM M06/M18 A3021 RMK T10601180 IEM_DS3505
ZBHH,2002-11-16 09:00,ZBHH 160900Z AUTO 04006G19KT 19SM M06/M18 A3024 RMK SLP309 T10611176 52027 IEM_DS3505
ZBHH,2002-11-16 10:00,ZBHH 161000Z AUTO 35012KT 6SM M09/M18 A3027 RMK T10901180 IEM_DS3505
ZBHH,2002-11-16 11:00,ZBHH 161100Z AUTO 34010KT 6SM M10/M18 A3030 RMK T11001180 IEM_DS3505
ZBHH,2002-11-16 12:00,ZBHH 161200Z AUTO 02004KT 19SM M09/M17 A3030 RMK SLP344 T10871167 52027 IEM_DS3505
ZBHH,2002-11-16 13:00,ZBHH 161300Z AUTO 35008KT 6SM M11/M18 A3033 RMK T11101180 IEM_DS3505
ZBHH,2002-11-16 14:00,ZBHH 161400Z AUTO 33008KT 6SM M12/M19 A3033 RMK T11201190 IEM_DS3505
ZBHH,2002-11-16 15:00,ZBHH 161500Z AUTO 36002KT 19SM M10/M18 RMK SLP362 T11021180 52011 IEM_DS3505
ZBHH,2002-11-16 18:00,ZBHH 161800Z AUTO 02004KT 19SM M11/M19 RMK SLP363 T11111192 57002 IEM_DS3505
ZBHH,2002-11-16 21:00,ZBHH 162100Z AUTO 00000KT 19SM M12/M19 A3033 RMK 70000 SLP369 T11171194 57005 IEM_DS3505
ZBHH,2002-11-16 22:00,ZBHH 162200Z AUTO 13002KT 6SM M19/M23 A3033 RMK T11901230 IEM_DS3505
ZBHH,2002-11-16 23:00,ZBHH 162300Z AUTO 02002KT 6SM M18/M23 A3033 RMK T11801230 IEM_DS3505
ZBHH,2002-11-17 00:00,ZBHH 170000Z AUTO 00000KT 9SM M13/M19 A3036 RMK 70000 SLP395 T11281191 52014 IEM_DS3505
ZBHH,2002-11-17 01:00,ZBHH 170100Z AUTO 11002KT 6SM M15/M21 A3039 RMK T11501210 IEM_DS3505
ZBHH,2002-11-17 02:00,ZBHH 170200Z AUTO 20002KT 6SM M11/M20 A3036 RMK T11101200 IEM_DS3505
ZBHH,2002-11-17 03:00,ZBHH 170300Z AUTO 00000KT 9SM M08/M17 A3036 RMK SLP390 T10831174 52003 IEM_DS3505
ZBHH,2002-11-17 04:00,ZBHH 170400Z AUTO 6SM M07/M20 A3036 RMK T10701200 IEM_DS3505
ZBHH,2002-11-17 05:00,ZBHH 170500Z AUTO 02004KT 6SM M07/M21 A3033 RMK T10701210 IEM_DS3505
ZBHH,2002-11-17 06:00,ZBHH 170600Z AUTO 16002KT 19SM M04/M18 A3033 RMK SLP365 T10401185 57014 IEM_DS3505
ZBHH,2002-11-17 07:00,ZBHH 170700Z AUTO 27004KT 6SM M05/M20 A3033 RMK T10501200 IEM_DS3505
ZBHH,2002-11-17 08:00,ZBHH 170800Z AUTO 36010KT 6SM M06/M20 A3036 RMK T10601200 IEM_DS3505
ZBHH,2002-11-17 09:00,ZBHH 170900Z AUTO 02004KT 19SM M05/M18 A3036 RMK SLP379 T10541185 52007 IEM_DS3505
ZBHH,2002-11-17 10:00,ZBHH 171000Z AUTO 36006KT 6SM M09/M19 A3039 RMK T10901190 IEM_DS3505
ZBHH,2002-11-17 11:00,ZBHH 171100Z AUTO 34006KT 6SM M11/M19 A3039 RMK T11101190 IEM_DS3505
ZBHH,2002-11-17 12:00,ZBHH 171200Z AUTO 07004KT 19SM M08/M19 A3042 RMK SLP407 T10811186 52016 IEM_DS3505
ZBHH,2002-11-17 13:00,ZBHH 171300Z AUTO 07006KT 6SM M14/M22 A3042 RMK T11401220 IEM_DS3505
ZBHH,2002-11-17 14:00,ZBHH 171400Z AUTO 08008KT 6SM M14/M21 A3045 RMK T11401210 IEM_DS3505
ZBHH,2002-11-17 15:00,ZBHH 171500Z AUTO 07002KT 19SM M10/M20 A3042 RMK SLP407 T11031195 52005 IEM_DS3505
ZBHH,2002-11-17 16:00,ZBHH 171600Z AUTO 07004KT 6SM M14/M21 A3042 RMK T11401210 IEM_DS3505
ZBHH,2002-11-17 18:00,ZBHH 171800Z AUTO 00000KT 16SM M10/M20 RMK SLP386 T11041196 57008 IEM_DS3505
ZBHH,2002-11-17 21:00,ZBHH 172100Z AUTO 04002KT 16SM M10/M21 A3036 RMK SLP375 T10961207 57011 IEM_DS3505
ZBHH,2002-11-17 22:00,ZBHH 172200Z AUTO 10004KT 6SM M12/M22 A3036 RMK T11201220 IEM_DS3505
ZBHH,2002-11-17 23:00,ZBHH 172300Z AUTO 07004KT 6SM M11/M22 A3033 RMK T11101220 IEM_DS3505
ZBHH,2002-11-18 00:00,ZBHH 180000Z AUTO 00000KT 9SM M10/M13 A3033 RMK 70000 SLP378 T10971133 57004 IEM_DS3505
ZBHH,2002-11-18 01:00,ZBHH 180100Z AUTO 02004KT 2SM M11/M13 A3033 RMK T11101130 IEM_DS3505
ZBHH,2002-11-18 05:00,ZBHH 180500Z AUTO 09002KT 7SM M08/M11 A3024 RMK T10801110 IEM_DS3505
ZBHH,2002-11-18 06:00,ZBHH 180600Z AUTO 07002KT 9SM M05/M11 A3021 RMK SLP321 T10541110 57034 IEM_DS3505
ZBHH,2002-11-18 07:00,ZBHH 180700Z AUTO 01002KT 7SM M06/M11 A3018 RMK T10601110 IEM_DS3505
ZBHH,2002-11-18 08:00,ZBHH 180800Z AUTO 03002KT 7SM M06/M11 A3018 RMK T10601110 IEM_DS3505
ZBHH,2002-11-18 09:00,ZBHH 180900Z AUTO 00000KT 7SM M05/M10 A3018 RMK SLP306 T10481097 57010 IEM_DS3505
ZBHH,2002-11-18 10:00,ZBHH 181000Z AUTO 02004KT 3SM M08/M11 A3018 RMK T10801110 IEM_DS3505
ZBHH,2002-11-18 11:00,ZBHH 181100Z AUTO 07002KT 3SM A3018 RMK IEM_DS3505
ZBHH,2002-11-18 12:00,ZBHH 181200Z AUTO 00000KT 5SM M07/M09 A3021 RMK SLP322 T10671091 52009 IEM_DS3505
ZBHH,2002-11-18 13:00,ZBHH 181300Z AUTO 00000KT 2 1/2SM A3021 RMK IEM_DS3505
ZBHH,2002-11-18 14:00,ZBHH 181400Z AUTO 08002KT 3SM M14/M16 A3021 RMK T11401160 IEM_DS3505
ZBHH,2002-11-18 15:00,ZBHH 181500Z AUTO 00000KT 4SM M08/M10 A3024 RMK SLP331 T10821101 52009 IEM_DS3505
ZBHH,2002-11-18 16:00,ZBHH 181600Z AUTO 06002KT 3SM M15/M16 A3024 RMK T11501160 IEM_DS3505
ZBHH,2002-11-18 17:00,ZBHH 181700Z AUTO 00000KT 3SM M16/M17 A3024 RMK T11601170 IEM_DS3505
ZBHH,2002-11-18 18:00,ZBHH 181800Z AUTO 00000KT 6SM M09/M12 A3024 RMK SLP332 T10861115 52005 IEM_DS3505
ZBHH,2002-11-18 20:00,ZBHH 182000Z AUTO 00000KT 3SM M13/M15 A3024 RMK T11301150 IEM_DS3505
ZBHH,2002-11-18 21:00,ZBHH 182100Z AUTO 00000KT 19SM M08/M11 A3021 RMK 70000 SLP321 T10841107 57007 IEM_DS3505
ZBHH,2002-11-18 22:00,ZBHH 182200Z AUTO 10002KT 6SM M13/M16 A3024 RMK T11301160 IEM_DS3505
ZBHH,2002-11-18 23:00,ZBHH 182300Z AUTO 06004KT 6SM M12/M16 A3024 RMK T11201160 IEM_DS3505
ZBHH,2002-11-19 00:00,ZBHH 190000Z AUTO 25002KT 5SM M08/M10 A3027 RMK 70000 SLP343 T10801103 52015 IEM_DS3505
ZBHH,2002-11-19 01:00,ZBHH 190100Z AUTO 09004KT 6SM M12/M14 A3027 RMK T11201140 IEM_DS3505
ZBHH,2002-11-19 02:00,ZBHH 190200Z AUTO 13002KT 4SM A3027 RMK IEM_DS3505
ZBHH,2002-11-19 03:00,ZBHH 190300Z AUTO 21002KT 4SM A3027 RMK IEM_DS3505
ZBHH,2002-11-19 06:00,ZBHH 190600Z AUTO 22004KT 12SM M01/M11 A3021 RMK SLP311 T10061107 57020 IEM_DS3505
ZBHH,2002-11-19 07:00,ZBHH 190700Z AUTO 25004KT 6SM M02/M12 A3021 RMK T10201120 IEM_DS3505
ZBHH,2002-11-19 08:00,ZBHH 190800Z AUTO 29002KT 6SM M02/M10 A3024 RMK T10201100 IEM_DS3505
ZBHH,2002-11-19 09:00,ZBHH 190900Z AUTO 16002KT 12SM M01/M12 A3024 RMK SLP326 T10071117 52013 IEM_DS3505
ZBHH,2002-11-19 10:00,ZBHH 191000Z AUTO 04004KT 3SM M05/M08 A3024 RMK T10501080 IEM_DS3505
ZBHH,2002-11-19 11:00,ZBHH 191100Z AUTO 11002KT 3SM M05/M09 A3027 RMK T10501090 IEM_DS3505
ZBHH,2002-11-19 12:00,ZBHH 191200Z AUTO 00000KT 9SM M02/M07 A3027 RMK SLP329 T10191073 52001 IEM_DS3505
ZBHH,2002-11-19 13:00,ZBHH 191300Z AUTO 03002KT 4SM M05/M08 A3027 RMK T10501080 IEM_DS3505
ZBHH,2002-11-19 14:00,ZBHH 191400Z AUTO 16002KT 4SM M06/M09 A3027 RMK T10601090 IEM_DS3505
ZBHH,2002-11-19 15:00,ZBHH 191500Z AUTO 11002KT 9SM M03/M07 A3027 RMK SLP327 T10301073 52005 IEM_DS3505
ZBHH,2002-11-19 16:00,ZBHH 191600Z AUTO 00000KT 4SM M06/M11 A3027 RMK T10601110 IEM_DS3505
ZBHH,2002-11-19 17:00,ZBHH 191700Z AUTO 00000KT 4SM M07/M10 A3024 RMK T10701100 IEM_DS3505
ZBHH,2002-11-19 18:00,ZBHH 191800Z AUTO 00000KT 6SM M04/M09 A3024 RMK SLP303 T10431086 57017 IEM_DS3505
ZBHH,2002-11-19 19:00,ZBHH 191900Z AUTO 00000KT 4SM M06/M09 A3024 RMK T10601090 IEM_DS3505
ZBHH,2002-11-19 20:00,ZBHH 192000Z AUTO 14002KT 4SM M07/M09 A3024 RMK T10701090 IEM_DS3505
ZBHH,2002-11-19 21:00,ZBHH 192100Z AUTO 29008KT 19SM M03/M10 A3024 RMK SLP307 T10341095 52006 IEM_DS3505
ZBHH,2002-11-19 22:00,ZBHH 192200Z AUTO 00000KT 4SM A3027 RMK IEM_DS3505
ZBHH,2002-11-19 23:00,ZBHH 192300Z AUTO 36004KT 6SM M08/M13 A3030 RMK T10801130 IEM_DS3505
ZBHH,2002-11-20 00:00,ZBHH 200000Z AUTO 32002KT 16SM M07/M13 A3033 RMK SLP348 T10661133 52026 IEM_DS3505
ZBHH,2002-11-20 01:00,ZBHH 200100Z AUTO 36008KT 6SM M07/M13 A3036 RMK T10701130 IEM_DS3505
ZBHH,2002-11-20 02:00,ZBHH 200200Z AUTO 36008KT 6SM M06/M13 A3036 RMK T10601130 IEM_DS3505
ZBHH,2002-11-20 03:00,ZBHH 200300Z AUTO 20004KT 19SM M03/M13 A3036 RMK SLP356 T10281126 52013 IEM_DS3505
ZBHH,2002-11-20 04:00,ZBHH 200400Z AUTO 03004KT 6SM M03/M13 A3036 RMK T10301130 IEM_DS3505
ZBHH,2002-11-20 05:00,ZBHH 200500Z AUTO 26002KT 6SM M01/M14 A3033 RMK T10101140 IEM_DS3505
ZBHH,2002-11-20 06:00,ZBHH 200600Z AUTO 20004KT 19SM 01/M13 A3033 RMK SLP334 T00061133 57015 IEM_DS3505
ZBHH,2002-11-20 07:00,ZBHH 200700Z AUTO 23004KT 6SM M01/M13 A3033 RMK T10101130 IEM_DS3505
ZBHH,2002-11-20 08:00,ZBHH 200800Z AUTO 21004KT 6SM 00/M13 A3033 RMK T00001130 IEM_DS3505
ZBHH,2002-11-20 09:00,ZBHH 200900Z AUTO 20004KT 16SM M00/M12 A3033 RMK SLP332 T10021122 57001 IEM_DS3505
ZBHH,2002-11-20 10:00,ZBHH 201000Z AUTO 13002KT 5SM M05/M14 A3033 RMK T10501140 IEM_DS3505
ZBHH,2002-11-20 11:00,ZBHH 201100Z AUTO 10002KT 3SM M06/M13 A3033 RMK T10601130 IEM_DS3505
ZBHH,2002-11-20 12:00,ZBHH 201200Z AUTO 04002KT 9SM M03/M11 A3033 RMK SLP353 T10291112 52005 IEM_DS3505
ZBHH,2002-11-20 13:00,ZBHH 201300Z AUTO 05002KT 6SM M09/M14 A3033 RMK T10901140 IEM_DS3505
ZBHH,2002-11-20 14:00,ZBHH 201400Z AUTO 07002KT 6SM M10/M14 A3033 RMK T11001140 IEM_DS3505
ZBHH,2002-11-20 15:00,ZBHH 201500Z AUTO 00000KT 9SM M04/M12 RMK SLP341 T10411121 57005 IEM_DS3505
ZBHH,2002-11-20 18:00,ZBHH 201800Z AUTO 00000KT 7SM M06/M11 RMK SLP322 T10601114 57013 IEM_DS3505
ZBHH,2002-11-20 21:00,ZBHH 202100Z AUTO 00000KT 6SM M06/M12 A3021 RMK SLP305 T10651116 57018 IEM_DS3505
ZBHH,2002-11-20 22:00,ZBHH 202200Z AUTO 07004KT 6SM M10/M14 A3021 RMK T11001140 IEM_DS3505
ZBHH,2002-11-20 23:00,ZBHH 202300Z AUTO 08006KT 6SM M10/M14 A3021 RMK T11001140 IEM_DS3505
ZBHH,2002-11-21 00:00,ZBHH 210000Z AUTO 00000KT 6SM M06/M11 A3018 RMK SLP301 T10561108 57007 IEM_DS3505
ZBHH,2002-11-21 01:00,ZBHH 210100Z AUTO 08004KT 6SM M07/M13 A3018 RMK T10701130 IEM_DS3505
ZBHH,2002-11-21 02:00,ZBHH 210200Z AUTO 06004KT 6SM M05/M12 A3018 RMK T10501120 IEM_DS3505
ZBHH,2002-11-21 03:00,ZBHH 210300Z AUTO 09002KT 9SM M01/M12 A3015 RMK SLP282 T10141116 57010 IEM_DS3505
ZBHH,2002-11-21 04:00,ZBHH 210400Z AUTO 07002KT 6SM M01/M14 A3012 RMK T10101140 IEM_DS3505
ZBHH,2002-11-21 05:00,ZBHH 210500Z AUTO 10002KT 6SM M01/M13 A3009 RMK T10101130 IEM_DS3505
ZBHH,2002-11-21 06:00,ZBHH 210600Z AUTO 00000KT 9SM 01/M11 A3006 RMK SLP249 T00121109 57028 IEM_DS3505
ZBHH,2002-11-21 07:00,ZBHH 210700Z AUTO 00000KT 6SM 01/M13 A3003 RMK T00101130 IEM_DS3505
ZBHH,2002-11-21 08:00,ZBHH 210800Z AUTO 02002KT 6SM 01/M13 A3003 RMK T00101130 IEM_DS3505
ZBHH,2002-11-21 09:00,ZBHH 210900Z AUTO 00000KT 12SM 02/M08 A3000 RMK SLP227 T00201075 57018 IEM_DS3505
ZBHH,2002-11-21 10:00,ZBHH 211000Z AUTO 07006KT M03/M12 A3000 RMK T10301120 IEM_DS3505
ZBHH,2002-11-21 11:00,ZBHH 211100Z AUTO 09006KT 5SM M03/M11 A3000 RMK T10301110 IEM_DS3505
ZBHH,2002-11-21 12:00,ZBHH 211200Z AUTO 02002KT 12SM M00/M10 A3000 RMK SLP228 T10041103 57003 IEM_DS3505
ZBHH,2002-11-21 13:00,ZBHH 211300Z AUTO 05004KT 4SM M05/M10 A3000 RMK T10501100 IEM_DS3505
ZBHH,2002-11-21 14:00,ZBHH 211400Z AUTO 07004KT M04/M10 A2997 RMK T10401100 IEM_DS3505
ZBHH,2002-11-21 15:00,ZBHH 211500Z AUTO 00000KT 6SM M01/M11 RMK SLP204 T10121112 57013 IEM_DS3505
ZBHH,2002-11-21 16:00,ZBHH 211600Z AUTO 04004KT 4SM M04/M09 A2994 RMK T10401090 IEM_DS3505
ZBHH,2002-11-21 17:00,ZBHH 211700Z AUTO 08004KT M03/M09 A2994 RMK T10301090 IEM_DS3505
ZBHH,2002-11-21 18:00,ZBHH 211800Z AUTO 00000KT 4SM M03/M09 A2994 RMK SLP196 T10261092 57005 IEM_DS3505
ZBHH,2002-11-21 19:00,ZBHH 211900Z AUTO 03002KT 3SM M04/M09 A2997 RMK T10401090 IEM_DS3505
ZBHH,2002-11-21 20:00,ZBHH 212000Z AUTO 36002KT 4SM M07/M11 A2994 RMK T10701110 IEM_DS3505
ZBHH,2002-11-21 21:00,ZBHH 212100Z AUTO 00000KT 19SM M03/M09 A2997 RMK SLP200 T10281090 52005 IEM_DS3505
ZBHH,2002-11-21 22:00,ZBHH 212200Z AUTO 00000KT 5SM M08/M12 A2997 RMK T10801120 IEM_DS3505
ZBHH,2002-11-21 23:00,ZBHH 212300Z AUTO 10004KT 7SM M07/M11 A2997 RMK T10701110 IEM_DS3505
ZBHH,2002-11-22 00:00,ZBHH 220000Z AUTO 00000KT 12SM M01/M08 A3000 RMK SLP221 T10141078 52016 IEM_DS3505
ZBHH,2002-11-22 01:00,ZBHH 220100Z AUTO 10002KT 6SM M06/M10 A3003 RMK T10601100 IEM_DS3505
ZBHH,2002-11-22 02:00,ZBHH 220200Z AUTO 11002KT 2 1/2SM M04/M10 A3003 RMK T10401100 IEM_DS3505
ZBHH,2002-11-22 03:00,ZBHH 220300Z AUTO 11002KT 3SM M03/M10 A3003 RMK T10301100 IEM_DS3505
ZBHH,2002-11-22 04:00,ZBHH 220400Z AUTO 16002KT 3SM M01/M09 A3006 RMK T10101090 IEM_DS3505
ZBHH,2002-11-22 05:00,ZBHH 220500Z AUTO 00000KT 2SM M02/M06 A3003 RMK T10201060 IEM_DS3505
ZBHH,2002-11-22 06:00,ZBHH 220600Z AUTO 00000KT 6SM 01/M04 A3003 RMK SLP223 T00111035 57006 IEM_DS3505
ZBHH,2002-11-22 07:00,ZBHH 220700Z AUTO 08004KT 4SM 00/M04 A3003 RMK T00001040 IEM_DS3505
ZBHH,2002-11-22 08:00,ZBHH 220800Z AUTO 13002KT 5SM 00/M04 A3006 RMK T00001040 IEM_DS3505
ZBHH,2002-11-22 09:00,ZBHH 220900Z AUTO 25004KT 6SM 01/M04 A3006 RMK SLP241 T00121039 52015 IEM_DS3505
ZBHH,2002-11-22 10:00,ZBHH 221000Z AUTO 26004KT 1 1/2SM M01/M03 A3009 RMK T10101030 IEM_DS3505
ZBHH,2002-11-22 12:00,ZBHH 221200Z AUTO 00000KT 5SM M00/M02 A3012 RMK 60002 SLP256 T10011015 52014 IEM_DS3505
ZBHH,2002-11-22 13:00,ZBHH 221300Z AUTO 36002KT 2SM M02/M02 A3012 RMK T10201020 IEM_DS3505
ZBHH,2002-11-22 14:00,ZBHH 221400Z AUTO 34010KT 7SM M01/M06 A3015 RMK T10101060 IEM_DS3505
ZBHH,2002-11-22 15:00,ZBHH 221500Z AUTO 34002KT 19SM M00/M07 A3018 RMK SLP274 T10041068 52015 IEM_DS3505
ZBHH,2002-11-22 18:00,ZBHH 221800Z AUTO 29002KT 19SM M03/M09 RMK 60000 SLP287 T10341091 52010 IEM_DS3505
ZBHH,2002-11-22 21:00,ZBHH 222100Z AUTO 04002KT 19SM M06/M10 A3021 RMK 70002 SLP298 T10571105 52005 IEM_DS3505
ZBHH,2002-11-22 22:00,ZBHH 222200Z AUTO 08006KT 6SM M11/M15 A3021 RMK T11101150 IEM_DS3505
ZBHH,2002-11-22 23:00,ZBHH 222300Z AUTO 07002KT 6SM M11/M14 A3024 RMK T11101140 IEM_DS3505
ZBHH,2002-11-23 00:00,ZBHH 230000Z AUTO 00000KT 6SM M07/M11 A3024 RMK 70002 SLP315 T10661113 52010 IEM_DS3505
ZBHH,2002-11-23 01:00,ZBHH 230100Z AUTO 12004KT 6SM M08/M13 A3027 RMK T10801130 IEM_DS3505
ZBHH,2002-11-23 02:00,ZBHH 230200Z AUTO 08002KT 6SM M05/M11 A3027 RMK T10501110 IEM_DS3505
ZBHH,2002-11-23 03:00,ZBHH 230300Z AUTO 00000KT 6SM M02/M10 A3027 RMK SLP312 T10161102 52008 IEM_DS3505
ZBHH,2002-11-23 04:00,ZBHH 230400Z AUTO 21002KT 6SM M01/M11 A3027 RMK T10101110 IEM_DS3505
ZBHH,2002-11-23 05:00,ZBHH 230500Z AUTO 22004KT 6SM 00/M09 A3024 RMK T00001090 IEM_DS3505
ZBHH,2002-11-23 06:00,ZBHH 230600Z AUTO 21004KT 00/M08 A3021 RMK T00001080 IEM_DS3505
ZBHH,2002-11-23 07:00,ZBHH 230700Z AUTO 21004KT 6SM 01/M08 A3021 RMK T00101080 IEM_DS3505
ZBHH,2002-11-23 08:00,ZBHH 230800Z AUTO 22002KT 5SM 00/M07 A3024 RMK T00001070 IEM_DS3505
ZBHH,2002-11-23 09:00,ZBHH 230900Z AUTO 29004KT 19SM 00/M12 A3024 RMK SLP304 T00031117 52005 IEM_DS3505
ZBHH,2002-11-23 10:00,ZBHH 231000Z AUTO 35006KT 7SM M01/M10 A3024 RMK T10101100 IEM_DS3505
ZBHH,2002-11-23 11:00,ZBHH 231100Z AUTO 02004KT 6SM M04/M11 A3027 RMK T10401110 IEM_DS3505
ZBHH,2002-11-23 12:00,ZBHH 231200Z AUTO 32004KT 19SM M02/M14 A3027 RMK SLP330 T10241136 52015 IEM_DS3505
ZBHH,2002-11-23 13:00,ZBHH 231300Z AUTO 01004KT 6SM M06/M12 A3030 RMK T10601120 IEM_DS3505
ZBHH,2002-11-23 14:00,ZBHH 231400Z AUTO 01004KT 6SM M06/M13 A3030 RMK T10601130 IEM_DS3505
ZBHH,2002-11-23 15:00,ZBHH 231500Z AUTO 32002KT 19SM M04/M14 A3030 RMK SLP333 T10401142 52010 IEM_DS3505
ZBHH,2002-11-23 18:00,ZBHH 231800Z AUTO 00000KT 19SM M07/M15 RMK SLP324 T10661151 57007 IEM_DS3505
ZBHH,2002-11-23 21:00,ZBHH 232100Z AUTO 00000KT 19SM M07/M12 A3027 RMK 70000 SLP315 T10661123 57010 IEM_DS3505
ZBHH,2002-11-23 22:00,ZBHH 232200Z AUTO 11002KT 7SM M10/M14 A3024 RMK T11001140 IEM_DS3505
ZBHH,2002-11-23 23:00,ZBHH 232300Z AUTO 10004KT 6SM M09/M14 A3024 RMK T10901140 IEM_DS3505
ZBHH,2002-11-24 00:00,ZBHH 240000Z AUTO 16002KT 16SM M07/M14 A3027 RMK 70000 SLP321 T10721143 57002 IEM_DS3505
ZBHH,2002-11-24 03:00,ZBHH 240300Z AUTO 00000KT 9SM M02/M12 A3024 RMK SLP309 T10251120 57004 IEM_DS3505
ZBHH,2002-11-24 04:00,ZBHH 240400Z AUTO 00000KT 6SM M03/M12 A3021 RMK T10301120 IEM_DS3505
ZBHH,2002-11-24 05:00,ZBHH 240500Z AUTO 24004KT 6SM M02/M12 A3018 RMK T10201120 IEM_DS3505
ZBHH,2002-11-24 06:00,ZBHH 240600Z AUTO 20002KT 7SM M00/M10 A3015 RMK SLP280 T10021105 57026 IEM_DS3505
ZBHH,2002-11-24 07:00,ZBHH 240700Z AUTO 25004KT 6SM M01/M11 A3012 RMK T10101110 IEM_DS3505
ZBHH,2002-11-24 08:00,ZBHH 240800Z AUTO 26002KT 6SM M01/M11 A3012 RMK T10101110 IEM_DS3505
ZBHH,2002-11-24 09:00,ZBHH 240900Z AUTO 02002KT 7SM M00/M09 A3012 RMK SLP272 T10011088 57007 IEM_DS3505
ZBHH,2002-11-24 10:00,ZBHH 241000Z AUTO 00000KT 7SM M02/M08 A3012 RMK T10201080 IEM_DS3505
ZBHH,2002-11-24 11:00,ZBHH 241100Z AUTO 05002KT 4SM M05/M09 A3012 RMK T10501090 IEM_DS3505
ZBHH,2002-11-24 12:00,ZBHH 241200Z AUTO 00000KT 6SM M03/M11 A3012 RMK SLP283 T10261106 52003 IEM_DS3505
ZBHH,2002-11-24 13:00,ZBHH 241300Z AUTO 34006KT 6SM M04/M11 A3015 RMK T10401110 IEM_DS3505
ZBHH,2002-11-24 14:00,ZBHH 241400Z AUTO 32008KT 6SM M03/M11 A3015 RMK T10301110 IEM_DS3505
ZBHH,2002-11-24 15:00,ZBHH 241500Z AUTO 32006KT 19SM M03/M11 A3015 RMK SLP275 T10321111 52002 IEM_DS3505
ZBHH,2002-11-24 18:00,ZBHH 241800Z AUTO 32008KT 19SM M05/M14 RMK SLP277 T10461140 52004 IEM_DS3505
ZBHH,2002-11-24 21:00,ZBHH 242100Z AUTO 34004KT 19SM M07/M14 A3015 RMK SLP286 T10721142 52002 IEM_DS3505
ZBHH,2002-11-24 22:00,ZBHH 242200Z AUTO 33006KT 6SM M10/M15 A3018 RMK T11001150 IEM_DS3505
ZBHH,2002-11-24 23:00,ZBHH 242300Z AUTO 36010KT 7SM M10/M16 A3021 RMK T11001160 IEM_DS3505
ZBHH,2002-11-25 00:00,ZBHH 250000Z AUTO 29008KT 19SM M08/M17 A3024 RMK SLP319 T10791167 52022 IEM_DS3505
ZBHH,2002-11-25 01:00,ZBHH 250100Z AUTO 01006KT 7SM M09/M16 A3027 RMK T10901160 IEM_DS3505
ZBHH,2002-11-25 02:00,ZBHH 250200Z AUTO 34012KT 7SM M08/M16 A3027 RMK T10801160 IEM_DS3505
ZBHH,2002-11-25 03:00,ZBHH 250300Z AUTO 29006KT 19SM M06/M15 A3030 RMK SLP336 T10601153 52018 IEM_DS3505
ZBHH,2002-11-25 04:00,ZBHH 250400Z AUTO 35012G21KT 7SM M07/M16 A3030 RMK T10701160 IEM_DS3505
ZBHH,2002-11-25 05:00,ZBHH 250500Z AUTO 36010KT 7SM M06/M16 A3030 RMK T10601160 IEM_DS3505
ZBHH,2002-11-25 06:00,ZBHH 250600Z AUTO 29008G21KT 19SM M05/M16 A3033 RMK SLP340 T10521158 52002 IEM_DS3505
ZBHH,2002-11-25 07:00,ZBHH 250700Z AUTO 34014KT 7SM M06/M17 A3030 RMK T10601170 IEM_DS3505
ZBHH,2002-11-25 08:00,ZBHH 250800Z AUTO 34012KT 7SM M07/M17 A3033 RMK T10701170 IEM_DS3505
ZBHH,2002-11-25 09:00,ZBHH 250900Z AUTO 34006KT 19SM M06/M16 A3033 RMK SLP363 T10611162 52012 IEM_DS3505
ZBHH,2002-11-25 10:00,ZBHH 251000Z AUTO 36004KT 6SM M09/M17 A3036 RMK T10901170 IEM_DS3505
ZBHH,2002-11-25 11:00,ZBHH 251100Z AUTO 33002KT 6SM M10/M17 A3036 RMK T11001170 IEM_DS3505
ZBHH,2002-11-25 12:00,ZBHH 251200Z AUTO 00000KT 12SM M08/M15 A3036 RMK SLP376 T10821146 52005 IEM_DS3505
ZBHH,2002-11-25 13:00,ZBHH 251300Z AUTO 07006KT 6SM M10/M17 A3036 RMK T11001170 IEM_DS3505
ZBHH,2002-11-25 14:00,ZBHH 251400Z AUTO 11002KT 6SM M14/M19 A3036 RMK T11401190 IEM_DS3505
ZBHH,2002-11-25 15:00,ZBHH 251500Z AUTO 00000KT 9SM M09/M16 RMK SLP367 T10881155 57005 IEM_DS3505
ZBHH,2002-11-25 18:00,ZBHH 251800Z AUTO 00000KT 12SM M11/M16 RMK SLP360 T11061158 57008 IEM_DS3505
ZBHH,2002-11-25 21:00,ZBHH 252100Z AUTO 00000KT 19SM M12/M16 A3030 RMK SLP357 T11221165 57009 IEM_DS3505
ZBHH,2002-11-25 22:00,ZBHH 252200Z AUTO 09002KT 6SM M19/M22 A3027 RMK T11901220 IEM_DS3505
ZBHH,2002-11-25 23:00,ZBHH 252300Z AUTO 07004KT 6SM M19/M22 A3027 RMK T11901220 IEM_DS3505
ZBHH,2002-11-26 00:00,ZBHH 260000Z AUTO 07002KT 9SM M12/M16 A3027 RMK SLP357 T11241164 57005 IEM_DS3505
ZBHH,2002-11-26 01:00,ZBHH 260100Z AUTO 34002KT 3SM M14/M19 A3027 RMK T11401190 IEM_DS3505
ZBHH,2002-11-26 02:00,ZBHH 260200Z AUTO 00000KT M11/M18 A3027 RMK T11101180 IEM_DS3505
ZBHH,2002-11-26 03:00,ZBHH 260300Z AUTO 00000KT 6SM M07/M15 A3027 RMK SLP345 T10741152 54000 IEM_DS3505
ZBHH,2002-11-26 04:00,ZBHH 260400Z AUTO 15002KT 6SM M07/M16 A3024 RMK T10701160 IEM_DS3505
ZBHH,2002-11-26 05:00,ZBHH 260500Z AUTO 6SM M06/M16 A3018 RMK T10601160 IEM_DS3505
ZBHH,2002-11-26 06:00,ZBHH 260600Z AUTO 00000KT 6SM M04/M15 A3015 RMK SLP301 T10381150 57035 IEM_DS3505
ZBHH,2002-11-26 07:00,ZBHH 260700Z AUTO 23002KT 6SM M04/M16 A3012 RMK T10401160 IEM_DS3505
ZBHH,2002-11-26 08:00,ZBHH 260800Z AUTO 28002KT 6SM M04/M16 A3012 RMK T10401160 IEM_DS3505
ZBHH,2002-11-26 09:00,ZBHH 260900Z AUTO 02004KT 6SM M04/M17 A3012 RMK SLP288 T10381171 57015 IEM_DS3505
ZBHH,2002-11-26 10:00,ZBHH 261000Z AUTO 06004KT 2 1/2SM M07/M17 A3009 RMK T10701170 IEM_DS3505
ZBHH,2002-11-26 11:00,ZBHH 261100Z AUTO 05002KT 2 1/2SM M08/M17 A3009 RMK T10801170 IEM_DS3505
ZBHH,2002-11-26 12:00,ZBHH 261200Z AUTO 00000KT 4SM M06/M14 A3009 RMK SLP292 T10621144 57002 IEM_DS3505
ZBHH,2002-11-26 13:00,ZBHH 261300Z AUTO 05004KT 3SM M10/M17 A3009 RMK T11001170 IEM_DS3505
ZBHH,2002-11-26 14:00,ZBHH 261400Z AUTO 05004KT 5SM M11/M17 A3009 RMK T11101170 IEM_DS3505
ZBHH,2002-11-26 15:00,ZBHH 261500Z AUTO 00000KT 5SM M07/M15 RMK SLP277 T10721148 57004 IEM_DS3505
ZBHH,2002-11-26 18:00,ZBHH 261800Z AUTO 00000KT 9SM M09/M15 RMK SLP258 T10891150 57012 IEM_DS3505
ZBHH,2002-11-26 21:00,ZBHH 262100Z AUTO 06004KT 6SM M13/M18 A3000 RMK T11301180 IEM_DS3505
ZBHH,2002-11-26 22:00,ZBHH 262200Z AUTO 07006KT 6SM M14/M18 A3000 RMK T11401180 IEM_DS3505
ZBHH,2002-11-26 23:00,ZBHH 262300Z AUTO 08002KT 3SM M13/M17 A3000 RMK T11301170 IEM_DS3505
ZBHH,2002-11-27 00:00,ZBHH 270000Z AUTO 00000KT 5SM M10/M13 A3000 RMK SLP251 T11021131 57006 IEM_DS3505
ZBHH,2002-11-27 01:00,ZBHH 270100Z AUTO 08004KT 4SM A3000 RMK IEM_DS3505
ZBHH,2002-11-27 02:00,ZBHH 270200Z AUTO 11004KT 6SM M04/M14 A2997 RMK T10401140 IEM_DS3505
ZBHH,2002-11-27 03:00,ZBHH 270300Z AUTO 00000KT 9SM 00/M11 A2997 RMK SLP220 T00041113 57005 IEM_DS3505
ZBHH,2002-11-27 04:00,ZBHH 270400Z AUTO 19004KT 6SM 01/M14 A2994 RMK T00101140 IEM_DS3505
ZBHH,2002-11-27 05:00,ZBHH 270500Z AUTO 23002KT 6SM 01/M13 A2991 RMK T00101130 IEM_DS3505
ZBHH,2002-11-27 06:00,ZBHH 270600Z AUTO 00000KT 9SM 02/M12 A2991 RMK SLP196 T00241123 57021 IEM_DS3505
ZBHH,2002-11-27 07:00,ZBHH 270700Z AUTO 28002KT 6SM 02/M13 A2991 RMK T00201130 IEM_DS3505
ZBHH,2002-11-27 08:00,ZBHH 270800Z AUTO 30002KT 02/M13 A2991 RMK T00201130 IEM_DS3505
ZBHH,2002-11-27 09:00,ZBHH 270900Z AUTO 00000KT 7SM 02/M11 A2994 RMK SLP209 T00161112 52007 IEM_DS3505
ZBHH,2002-11-27 10:00,ZBHH 271000Z AUTO 08002KT 1 1/2SM M03/M14 A2994 RMK T10301140 IEM_DS3505
ZBHH,2002-11-27 11:00,ZBHH 271100Z AUTO 00000KT 2SM M05/M14 A2997 RMK T10501140 IEM_DS3505
ZBHH,2002-11-27 12:00,ZBHH 271200Z AUTO 00000KT 5SM M02/M14 A3000 RMK SLP240 T10231139 52018 IEM_DS3505
ZBHH,2002-11-27 13:00,ZBHH 271300Z AUTO 15002KT 2 1/2SM A3000 RMK IEM_DS3505
ZBHH,2002-11-27 14:00,ZBHH 271400Z AUTO 08002KT 3SM A3003 RMK IEM_DS3505
ZBHH,2002-11-27 15:00,ZBHH 271500Z AUTO 00000KT 4SM M04/M13 A3003 RMK SLP230 T10361134 52012 IEM_DS3505
ZBHH,2002-11-27 17:00,ZBHH 271700Z AUTO 35006KT M02/M12 A3003 RMK T10201120 IEM_DS3505
ZBHH,2002-11-27 18:00,ZBHH 271800Z AUTO 34004KT 19SM M01/M12 A3003 RMK SLP219 T10091123 52001 IEM_DS3505
ZBHH,2002-11-27 19:00,ZBHH 271900Z AUTO 36008KT M03/M12 A3006 RMK T10301120 IEM_DS3505
ZBHH,2002-11-27 20:00,ZBHH 272000Z AUTO 02006KT M04/M12 A3006 RMK T10401120 IEM_DS3505
ZBHH,2002-11-27 21:00,ZBHH 272100Z AUTO 00000KT 12SM M02/M13 A3006 RMK SLP234 T10241129 52008 IEM_DS3505
ZBHH,2002-11-27 22:00,ZBHH 272200Z AUTO 03010KT 6SM M05/M13 A3009 RMK T10501130 IEM_DS3505
ZBHH,2002-11-27 23:00,ZBHH 272300Z AUTO 02008KT 6SM M06/M13 A3009 RMK T10601130 IEM_DS3505
ZBHH,2002-11-28 00:00,ZBHH 280000Z AUTO 09002KT 19SM M05/M12 A3012 RMK SLP275 T10541120 52021 IEM_DS3505
ZBHH,2002-11-28 01:00,ZBHH 280100Z AUTO 08004KT 6SM M08/M14 A3015 RMK T10801140 IEM_DS3505
ZBHH,2002-11-28 02:00,ZBHH 280200Z AUTO 08002KT 4SM A3015 RMK IEM_DS3505
ZBHH,2002-11-28 03:00,ZBHH 280300Z AUTO 00000KT 9SM M00/M12 A3015 RMK SLP280 T10041119 52012 IEM_DS3505
ZBHH,2002-11-28 04:00,ZBHH 280400Z AUTO 14002KT 6SM 01/M13 A3015 RMK T00101130 IEM_DS3505
ZBHH,2002-11-28 05:00,ZBHH 280500Z AUTO 31002KT 6SM 02/M15 A3012 RMK T00201150 IEM_DS3505
ZBHH,2002-11-28 06:00,ZBHH 280600Z AUTO 18004KT 9SM 03/M11 A3012 RMK SLP254 T00281111 57010 IEM_DS3505
ZBHH,2002-11-28 07:00,ZBHH 280700Z AUTO 24004KT 6SM 02/M14 A3015 RMK T00201140 IEM_DS3505
ZBHH,2002-11-28 08:00,ZBHH 280800Z AUTO 22004KT 6SM 02/M15 A3015 RMK T00201150 IEM_DS3505
ZBHH,2002-11-28 09:00,ZBHH 280900Z AUTO 20002KT 12SM 01/M12 A3015 RMK SLP272 T00141122 52010 IEM_DS3505
ZBHH,2002-11-28 10:00,ZBHH 281000Z AUTO 23002KT 5SM A3018 RMK IEM_DS3505
ZBHH,2002-11-28 11:00,ZBHH 281100Z AUTO 02004KT 3SM A3021 RMK IEM_DS3505
ZBHH,2002-11-28 12:00,ZBHH 281200Z AUTO 00000KT 4SM M03/M13 A3024 RMK SLP311 T10321133 52017 IEM_DS3505
ZBHH,2002-11-28 13:00,ZBHH 281300Z AUTO 09004KT 3SM A3024 RMK IEM_DS3505
ZBHH,2002-11-28 14:00,ZBHH 281400Z AUTO 09002KT M10/M18 A3024 RMK T11001180 IEM_DS3505
ZBHH,2002-11-28 15:00,ZBHH 281500Z AUTO 07002KT 7SM M05/M14 A3024 RMK SLP302 T10461135 54000 IEM_DS3505
ZBHH,2002-11-28 16:00,ZBHH 281600Z AUTO 07002KT M11/M17 A3024 RMK T11101170 IEM_DS3505
ZBHH,2002-11-28 17:00,ZBHH 281700Z AUTO 07002KT M12/M18 A3024 RMK T11201180 IEM_DS3505
ZBHH,2002-11-28 18:00,ZBHH 281800Z AUTO 04002KT 19SM M07/M14 A3024 RMK SLP304 T10721143 52003 IEM_DS3505
ZBHH,2002-11-28 19:00,ZBHH 281900Z AUTO 05004KT 4SM M13/M17 A3024 RMK T11301170 IEM_DS3505
ZBHH,2002-11-28 20:00,ZBHH 282000Z AUTO 10004KT 4SM M15/M19 A3024 RMK T11501190 IEM_DS3505
ZBHH,2002-11-28 21:00,ZBHH 282100Z AUTO 00000KT 19SM M08/M14 A3024 RMK SLP308 T10791142 57001 IEM_DS3505
ZBHH,2002-11-28 22:00,ZBHH 282200Z AUTO 07004KT 5SM M15/M18 A3024 RMK T11501180 IEM_DS3505
ZBHH,2002-11-28 23:00,ZBHH 282300Z AUTO 36004KT 3SM M15/M18 A3024 RMK T11501180 IEM_DS3505
ZBHH,2002-11-29 00:00,ZBHH 290000Z AUTO 00000KT 6SM M09/M14 A3027 RMK SLP333 T10921143 52009 IEM_DS3505
ZBHH,2002-11-29 01:00,ZBHH 290100Z AUTO 09004KT 3SM M12/M17 A3027 RMK T11201170 IEM_DS3505
ZBHH,2002-11-29 02:00,ZBHH 290200Z AUTO 12004KT M07/M14 A3030 RMK T10701140 IEM_DS3505
ZBHH,2002-11-29 03:00,ZBHH 290300Z AUTO 04002KT 5SM M04/M15 A3027 RMK SLP329 T10361147 52006 IEM_DS3505
ZBHH,2002-11-29 04:00,ZBHH 290400Z AUTO 16002KT 6SM M03/M13 A3024 RMK T10301130 IEM_DS3505
ZBHH,2002-11-29 05:00,ZBHH 290500Z AUTO 25002KT 6SM M01/M14 A3021 RMK T10101140 IEM_DS3505
ZBHH,2002-11-29 06:00,ZBHH 290600Z AUTO 18002KT 6SM 01/M11 A3021 RMK SLP294 T00101108 57026 IEM_DS3505
ZBHH,2002-11-29 07:00,ZBHH 290700Z AUTO 23006KT 6SM 00/M14 A3018 RMK T00001140 IEM_DS3505
ZBHH,2002-11-29 08:00,ZBHH 290800Z AUTO 23006KT 6SM 00/M14 A3018 RMK T00001140 IEM_DS3505
ZBHH,2002-11-29 09:00,ZBHH 290900Z AUTO 18002KT 5SM M00/M12 A3018 RMK SLP297 T10031123 57002 IEM_DS3505
ZBHH,2002-11-29 10:00,ZBHH 291000Z AUTO 00000KT M03/M14 A3021 RMK T10301140 IEM_DS3505
ZBHH,2002-11-29 11:00,ZBHH 291100Z AUTO 06004KT 2 1/2SM M07/M15 A3021 RMK T10701150 IEM_DS3505
ZBHH,2002-11-29 12:00,ZBHH 291200Z AUTO 00000KT 4SM M04/M12 A3021 RMK SLP317 T10371119 52007 IEM_DS3505
ZBHH,2002-11-29 13:00,ZBHH 291300Z AUTO 05004KT 3SM M11/M17 A3021 RMK T11101170 IEM_DS3505
ZBHH,2002-11-29 14:00,ZBHH 291400Z AUTO 03004KT 3SM M10/M16 A3021 RMK T11001160 IEM_DS3505
ZBHH,2002-11-29 15:00,ZBHH 291500Z AUTO 00000KT 5SM M07/M14 A3021 RMK SLP315 T10661145 52004 IEM_DS3505
ZBHH,2002-11-29 16:00,ZBHH 291600Z AUTO 05004KT 2 1/2SM M14/M18 A3021 RMK T11401180 IEM_DS3505
ZBHH,2002-11-29 17:00,ZBHH 291700Z AUTO 06004KT 3SM M14/M19 A3018 RMK T11401190 IEM_DS3505
ZBHH,2002-11-29 18:00,ZBHH 291800Z AUTO 00000KT 5SM M08/M14 A3018 RMK SLP295 T10841143 57011 IEM_DS3505
ZBHH,2002-11-29 19:00,ZBHH 291900Z AUTO 07004KT 3SM M15/M19 A3018 RMK T11501190 IEM_DS3505
ZBHH,2002-11-29 20:00,ZBHH 292000Z AUTO 06002KT 3SM M16/M20 A3015 RMK T11601200 IEM_DS3505
ZBHH,2002-11-29 21:00,ZBHH 292100Z AUTO 00000KT 12SM M09/M15 A3015 RMK SLP283 T10881149 57014 IEM_DS3505
ZBHH,2002-11-29 22:00,ZBHH 292200Z AUTO 05002KT 3SM M16/M20 A3015 RMK T11601200 IEM_DS3505
ZBHH,2002-11-29 23:00,ZBHH 292300Z AUTO 07002KT 4SM M18/M22 A3015 RMK T11801220 IEM_DS3505
ZBHH,2002-11-30 00:00,ZBHH 300000Z AUTO 00000KT 5SM A3015 RMK SLP299 52005 IEM_DS3505
ZBHH,2002-11-30 01:00,ZBHH 300100Z AUTO 08002KT 3SM M12/M18 A3015 RMK T11201180 IEM_DS3505
ZBHH,2002-11-30 02:00,ZBHH 300200Z AUTO 10002KT M07/M18 A3015 RMK T10701180 IEM_DS3505
ZBHH,2002-11-30 03:00,ZBHH 300300Z AUTO 04002KT 12SM M03/M20 A3015 RMK SLP294 T10341204 52002 IEM_DS3505
ZBHH,2002-11-30 04:00,ZBHH 300400Z AUTO 12002KT 6SM M03/M18 A3012 RMK T10301180 IEM_DS3505
ZBHH,2002-11-30 05:00,ZBHH 300500Z AUTO 19002KT 6SM 00/M17 A3009 RMK T00001170 IEM_DS3505
ZBHH,2002-11-30 06:00,ZBHH 300600Z AUTO 14002KT 6SM 01/M15 A3006 RMK SLP253 T00061151 57031 IEM_DS3505
ZBHH,2002-11-30 07:00,ZBHH 300700Z AUTO 19002KT 6SM 01/M18 A3003 RMK T00101180 IEM_DS3505
ZBHH,2002-11-30 08:00,ZBHH 300800Z AUTO 28002KT 6SM 01/M18 A3003 RMK T00101180 IEM_DS3505
ZBHH,2002-11-30 09:00,ZBHH 300900Z AUTO 02004KT 5SM 00/M15 A3003 RMK SLP243 T00041148 57010 IEM_DS3505
ZBHH,2002-11-30 10:00,ZBHH 301000Z AUTO 01002KT 2SM M05/M19 A3003 RMK T10501190 IEM_DS3505
ZBHH,2002-11-30 11:00,ZBHH 301100Z AUTO 03002KT 3SM M07/M19 A3006 RMK T10701190 IEM_DS3505
ZBHH,2002-11-30 12:00,ZBHH 301200Z AUTO 00000KT 4SM M04/M15 A3006 RMK SLP265 T10421151 52008 IEM_DS3505
ZBHH,2002-11-30 13:00,ZBHH 301300Z AUTO 07004KT M10/M19 A3006 RMK T11001190 IEM_DS3505
ZBHH,2002-11-30 14:00,ZBHH 301400Z AUTO 04004KT 3SM M09/M19 A3006 RMK T10901190 IEM_DS3505
ZBHH,2002-11-30 15:00,ZBHH 301500Z AUTO 00000KT 6SM M06/M17 A3006 RMK SLP259 T10601166 52004 IEM_DS3505
ZBHH,2002-11-30 18:00,ZBHH 301800Z AUTO 09004KT 12SM M07/M16 RMK SLP249 T10741158 57003 IEM_DS3505
ZBHH,2002-11-30 21:00,ZBHH 302100Z AUTO 00000KT 19SM M08/M16 A3003 RMK SLP243 T10771156 57006 IEM_DS3505
ZBHH,2002-11-30 22:00,ZBHH 302200Z AUTO 10002KT 6SM M11/M18 A3003 RMK T11101180 IEM_DS3505
ZBHH,2002-11-30 23:00,ZBHH 302300Z AUTO 02004KT 6SM M12/M18 A3003 RMK T11201180 IEM_DS3505
ZBHH,2002-12-01 00:00,ZBHH 010000Z AUTO 00000KT 6SM M09/M16 A3006 RMK SLP266 T10881155 52007 IEM_DS3505
ZBHH,2002-12-01 01:00,ZBHH 010100Z AUTO 10004KT M10/M18 A3009 RMK T11001180 IEM_DS3505
ZBHH,2002-12-01 02:00,ZBHH 010200Z AUTO 00000KT 6SM M05/M17 A3009 RMK T10501170 IEM_DS3505
ZBHH,2002-12-01 03:00,ZBHH 010300Z AUTO 00000KT 7SM 00/M15 A3009 RMK SLP259 T00021146 52010 IEM_DS3505
ZBHH,2002-12-01 04:00,ZBHH 010400Z AUTO 20002KT 6SM 00/M15 A3009 RMK T00001150 IEM_DS3505
ZBHH,2002-12-01 05:00,ZBHH 010500Z AUTO 00000KT 6SM 01/M15 A3006 RMK T00101150 IEM_DS3505
ZBHH,2002-12-01 06:00,ZBHH 010600Z AUTO 20004KT 7SM 04/M14 A3006 RMK SLP240 T00351137 57013 IEM_DS3505
ZBHH,2002-12-01 07:00,ZBHH 010700Z AUTO 23002KT 6SM 02/M15 A3003 RMK T00201150 IEM_DS3505
ZBHH,2002-12-01 08:00,ZBHH 010800Z AUTO 23004KT 6SM 02/M16 A3006 RMK T00201160 IEM_DS3505
ZBHH,2002-12-01 09:00,ZBHH 010900Z AUTO 22002KT 9SM 01/M13 A3006 RMK SLP246 T00141133 54000 IEM_DS3505
ZBHH,2002-12-01 10:00,ZBHH 011000Z AUTO 17002KT M04/M17 A3009 RMK T10401170 IEM_DS3505
ZBHH,2002-12-01 11:00,ZBHH 011100Z AUTO 02004KT 2 1/2SM M05/M16 A3009 RMK T10501160 IEM_DS3505
ZBHH,2002-12-01 12:00,ZBHH 011200Z AUTO 00000KT 5SM M03/M15 A3009 RMK SLP275 T10321151 52013 IEM_DS3505
ZBHH,2002-12-01 13:00,ZBHH 011300Z AUTO 07002KT 3SM M10/M19 A3012 RMK T11001190 IEM_DS3505
ZBHH,2002-12-01 14:00,ZBHH 011400Z AUTO 03002KT 3SM M10/M18 A3015 RMK T11001180 IEM_DS3505
ZBHH,2002-12-01 15:00,ZBHH 011500Z AUTO 00000KT 5SM M05/M15 A3015 RMK SLP273 T10501154 52014 IEM_DS3505
ZBHH,2002-12-01 16:00,ZBHH 011600Z AUTO 07004KT M12/M19 A3015 RMK T11201190 IEM_DS3505
ZBHH,2002-12-01 17:00,ZBHH 011700Z AUTO 08002KT M14/M20 A3015 RMK T11401200 IEM_DS3505
ZBHH,2002-12-01 18:00,ZBHH 011800Z AUTO 00000KT 4SM M08/M16 A3012 RMK SLP267 T10761161 57003 IEM_DS3505
ZBHH,2002-12-01 19:00,ZBHH 011900Z AUTO 06002KT M11/M18 A3015 RMK T11101180 IEM_DS3505
ZBHH,2002-12-01 20:00,ZBHH 012000Z AUTO 05004KT M12/M18 A3012 RMK T11201180 IEM_DS3505
ZBHH,2002-12-01 21:00,ZBHH 012100Z AUTO 00000KT 19SM M09/M15 A3012 RMK SLP273 T10861152 57002 IEM_DS3505
ZBHH,2002-12-01 22:00,ZBHH 012200Z AUTO 06004KT 5SM M14/M19 A3012 RMK T11401190 IEM_DS3505
ZBHH,2002-12-01 23:00,ZBHH 012300Z AUTO 07004KT M14/M20 A3015 RMK T11401200 IEM_DS3505
ZBHH,2002-12-02 00:00,ZBHH 020000Z AUTO 02002KT 6SM M08/M15 A3018 RMK SLP301 T10791153 52016 IEM_DS3505
ZBHH,2002-12-02 01:00,ZBHH 020100Z AUTO 09002KT 3SM M11/M18 A3018 RMK T11101180 IEM_DS3505
ZBHH,2002-12-02 02:00,ZBHH 020200Z AUTO 08004KT 6SM A3018 RMK IEM_DS3505
ZBHH,2002-12-02 03:00,ZBHH 020300Z AUTO 07002KT 9SM M02/M14 A3018 RMK SLP287 T10151142 57002 IEM_DS3505
ZBHH,2002-12-02 04:00,ZBHH 020400Z AUTO 17002KT 6SM 00/M17 A3015 RMK T00001170 IEM_DS3505
ZBHH,2002-12-02 05:00,ZBHH 020500Z AUTO 12002KT 6SM 01/M16 A3012 RMK T00101160 IEM_DS3505
ZBHH,2002-12-02 06:00,ZBHH 020600Z AUTO 18002KT 9SM 02/M15 A3012 RMK SLP268 T00151151 57016 IEM_DS3505
ZBHH,2002-12-02 07:00,ZBHH 020700Z AUTO 14002KT 6SM 01/M16 A3012 RMK T00101160 IEM_DS3505
ZBHH,2002-12-02 08:00,ZBHH 020800Z AUTO 15002KT 6SM 01/M16 A3012 RMK T00101160 IEM_DS3505
ZBHH,2002-12-02 09:00,ZBHH 020900Z AUTO 02002KT 9SM 01/M16 A3012 RMK SLP270 T00141155 57001 IEM_DS3505
ZBHH,2002-12-02 10:00,ZBHH 021000Z AUTO 08002KT 4SM A3012 RMK IEM_DS3505
ZBHH,2002-12-02 11:00,ZBHH 021100Z AUTO 05002KT 5SM A3012 RMK IEM_DS3505
ZBHH,2002-12-02 12:00,ZBHH 021200Z AUTO 00000KT 6SM M01/M14 A3012 RMK SLP271 T10061135 57002 IEM_DS3505
ZBHH,2002-12-02 13:00,ZBHH 021300Z AUTO 03002KT 3SM A3009 RMK IEM_DS3505
ZBHH,2002-12-02 14:00,ZBHH 021400Z AUTO 07004KT 4SM A3009 RMK IEM_DS3505
ZBHH,2002-12-02 15:00,ZBHH 021500Z AUTO 00000KT 6SM M04/M14 A3009 RMK SLP252 T10421145 57010 IEM_DS3505
ZBHH,2002-12-02 16:00,ZBHH 021600Z AUTO 06006KT M10/M17 A3006 RMK T11001170 IEM_DS3505
ZBHH,2002-12-02 17:00,ZBHH 021700Z AUTO 07004KT 6SM M10/M18 A3006 RMK T11001180 IEM_DS3505
ZBHH,2002-12-02 18:00,ZBHH 021800Z AUTO 00000KT 6SM M05/M13 RMK SLP236 T10521127 57010 IEM_DS3505
ZBHH,2002-12-02 21:00,ZBHH 022100Z AUTO 00000KT 12SM M07/M15 A2997 RMK SLP222 T10741151 57017 IEM_DS3505
ZBHH,2002-12-02 22:00,ZBHH 022200Z AUTO 08004KT M11/M17 A2997 RMK T11101170 IEM_DS3505
ZBHH,2002-12-02 23:00,ZBHH 022300Z AUTO 07006KT 6SM M10/M17 A2997 RMK T11001170 IEM_DS3505
ZBHH,2002-12-03 00:00,ZBHH 030000Z AUTO 00000KT 6SM M07/M13 A2997 RMK SLP227 T10731127 54000 IEM_DS3505
ZBHH,2002-12-03 01:00,ZBHH 030100Z AUTO 07004KT 6SM M08/M16 A3000 RMK T10801160 IEM_DS3505
ZBHH,2002-12-03 02:00,ZBHH 030200Z AUTO 08004KT 6SM M03/M14 A2997 RMK T10301140 IEM_DS3505
ZBHH,2002-12-03 03:00,ZBHH 030300Z AUTO 09002KT 9SM 03/M11 A2997 RMK SLP211 T00261114 54000 IEM_DS3505
ZBHH,2002-12-03 04:00,ZBHH 030400Z AUTO 19004KT 6SM 03/M14 A2994 RMK T00301140 IEM_DS3505
ZBHH,2002-12-03 05:00,ZBHH 030500Z AUTO 22002KT 6SM 04/M14 A2991 RMK T00401140 IEM_DS3505
ZBHH,2002-12-03 06:00,ZBHH 030600Z AUTO 14002KT 12SM 06/M11 A2991 RMK SLP173 T00651109 57027 IEM_DS3505
ZBHH,2002-12-03 07:00,ZBHH 030700Z AUTO 00000KT 6SM 05/M14 A2988 RMK T00501140 IEM_DS3505
ZBHH,2002-12-03 08:00,ZBHH 030800Z AUTO 30002KT 6SM 05/M14 A2988 RMK T00501140 IEM_DS3505
ZBHH,2002-12-03 09:00,ZBHH 030900Z AUTO 00000KT 12SM 04/M11 A2988 RMK SLP176 T00421114 57007 IEM_DS3505
ZBHH,2002-12-03 10:00,ZBHH 031000Z AUTO 11002KT 3SM M02/M16 A2988 RMK T10201160 IEM_DS3505
ZBHH,2002-12-03 11:00,ZBHH 031100Z AUTO 09004KT 1 1/2SM M04/M16 A2991 RMK T10401160 IEM_DS3505
ZBHH,2002-12-03 12:00,ZBHH 031200Z AUTO 00000KT 4SM M00/M09 A2991 RMK SLP204 T10051089 52014 IEM_DS3505
ZBHH,2002-12-03 13:00,ZBHH 031300Z AUTO 02002KT 2 1/2SM M05/M14 A2994 RMK T10501140 IEM_DS3505
ZBHH,2002-12-03 14:00,ZBHH 031400Z AUTO 06002KT 2 1/2SM M07/M15 A2994 RMK T10701150 IEM_DS3505
ZBHH,2002-12-03 15:00,ZBHH 031500Z AUTO 00000KT 4SM M01/M10 A2997 RMK SLP199 T10111096 52016 IEM_DS3505
ZBHH,2002-12-03 17:00,ZBHH 031700Z AUTO 34016G25KT 2 1/2SM 01/M13 A3000 RMK T00101130 IEM_DS3505
ZBHH,2002-12-03 18:00,ZBHH 031800Z AUTO 34004KT 7SM 01/M12 A3003 RMK SLP207 T00061116 52019 IEM_DS3505
ZBHH,2002-12-03 19:00,ZBHH 031900Z AUTO 35002KT 1SM M01/M18 A3006 RMK T10101180 IEM_DS3505
ZBHH,2002-12-03 20:00,ZBHH 032000Z AUTO 00000KT 1SM M02/M19 A3009 RMK T10201190 IEM_DS3505
ZBHH,2002-12-03 21:00,ZBHH 032100Z AUTO 32008KT 9SM M02/M20 A3012 RMK SLP244 T10171202 52023 IEM_DS3505
ZBHH,2002-12-03 22:00,ZBHH 032200Z AUTO 34010KT 1 1/2SM M03/M20 A3012 RMK T10301200 IEM_DS3505
ZBHH,2002-12-03 23:00,ZBHH 032300Z AUTO 01006KT 2SM M05/M20 A3015 RMK T10501200 IEM_DS3505
ZBHH,2002-12-04 00:00,ZBHH 040000Z AUTO 32008KT 6SM M04/M19 A3018 RMK SLP289 T10441186 52023 IEM_DS3505
ZBHH,2002-12-04 01:00,ZBHH 040100Z AUTO 35012G21KT 2 1/2SM A3021 RMK IEM_DS3505
ZBHH,2002-12-04 02:00,ZBHH 040200Z AUTO 34014KT 2 1/2SM A3021 RMK IEM_DS3505
ZBHH,2002-12-04 03:00,ZBHH 040300Z AUTO 32002KT 16SM M04/M16 A3021 RMK SLP303 T10451165 52011 IEM_DS3505
ZBHH,2002-12-04 04:00,ZBHH 040400Z AUTO 34012KT 6SM M06/M17 A3021 RMK T10601170 IEM_DS3505
ZBHH,2002-12-04 05:00,ZBHH 040500Z AUTO 35012G21KT 6SM M04/M18 A3018 RMK T10401180 IEM_DS3505
ZBHH,2002-12-04 06:00,ZBHH 040600Z AUTO 00000KT 12SM M02/M19 A3018 RMK SLP276 T10211186 57015 IEM_DS3505
ZBHH,2002-12-04 07:00,ZBHH 040700Z AUTO 32010KT 6SM M04/M18 A3018 RMK T10401180 IEM_DS3505
ZBHH,2002-12-04 08:00,ZBHH 040800Z AUTO 35006KT 6SM M04/M18 A3018 RMK T10401180 IEM_DS3505
ZBHH,2002-12-04 09:00,ZBHH 040900Z AUTO 32002KT 16SM M03/M19 A3018 RMK SLP288 T10291190 52004 IEM_DS3505
ZBHH,2002-12-04 10:00,ZBHH 041000Z AUTO 35006KT 6SM M06/M17 A3021 RMK T10601170 IEM_DS3505
ZBHH,2002-12-04 11:00,ZBHH 041100Z AUTO 32002KT 6SM M07/M18 A3024 RMK T10701180 IEM_DS3505
ZBHH,2002-12-04 12:00,ZBHH 041200Z AUTO 34004KT 9SM M04/M19 A3027 RMK SLP321 T10411187 52020 IEM_DS3505
ZBHH,2002-12-04 13:00,ZBHH 041300Z AUTO 36004KT 6SM M07/M18 A3027 RMK T10701180 IEM_DS3505
ZBHH,2002-12-04 14:00,ZBHH 041400Z AUTO 07006KT 4SM A3027 RMK IEM_DS3505
ZBHH,2002-12-04 15:00,ZBHH 041500Z AUTO 09002KT 9SM M05/M19 A3027 RMK SLP324 T10511186 54000 IEM_DS3505
ZBHH,2002-12-04 16:00,ZBHH 041600Z AUTO 10004KT M11/M20 A3027 RMK T11101200 IEM_DS3505
ZBHH,2002-12-04 17:00,ZBHH 041700Z AUTO 07002KT 5SM M11/M21 A3027 RMK T11101210 IEM_DS3505
ZBHH,2002-12-04 18:00,ZBHH 041800Z AUTO 00000KT 19SM M07/M20 A3027 RMK SLP327 T10721200 52004 IEM_DS3505
ZBHH,2002-12-04 21:00,ZBHH 042100Z AUTO 00000KT 9SM M08/M18 A3027 RMK SLP333 T10821179 52001 IEM_DS3505
ZBHH,2002-12-04 22:00,ZBHH 042200Z AUTO 08004KT 6SM M13/M21 A3027 RMK T11301210 IEM_DS3505
ZBHH,2002-12-04 23:00,ZBHH 042300Z AUTO 08004KT 6SM M14/M21 A3027 RMK T11401210 IEM_DS3505
ZBHH,2002-12-05 00:00,ZBHH 050000Z AUTO 00000KT 6SM M09/M17 A3027 RMK SLP346 T10931170 52006 IEM_DS3505
ZBHH,2002-12-05 01:00,ZBHH 050100Z AUTO 06002KT 4SM A3030 RMK IEM_DS3505
ZBHH,2002-12-05 02:00,ZBHH 050200Z AUTO 10002KT 6SM M08/M20 A3030 RMK T10801200 IEM_DS3505
ZBHH,2002-12-05 03:00,ZBHH 050300Z AUTO 04004KT 12SM M04/M17 A3027 RMK SLP336 T10381172 52001 IEM_DS3505
ZBHH,2002-12-05 04:00,ZBHH 050400Z AUTO 15002KT 6SM M03/M20 A3027 RMK T10301200 IEM_DS3505
ZBHH,2002-12-05 05:00,ZBHH 050500Z AUTO 26002KT 6SM M02/M20 A3021 RMK T10201200 IEM_DS3505
ZBHH,2002-12-05 06:00,ZBHH 050600Z AUTO 00000KT 9SM M02/M16 A3021 RMK SLP308 T10161165 57024 IEM_DS3505
ZBHH,2002-12-05 07:00,ZBHH 050700Z AUTO 00000KT 6SM M02/M21 A3021 RMK T10201210 IEM_DS3505
ZBHH,2002-12-05 08:00,ZBHH 050800Z AUTO 23004KT 6SM M03/M21 A3021 RMK T10301210 IEM_DS3505
ZBHH,2002-12-05 09:00,ZBHH 050900Z AUTO 20002KT 12SM M03/M18 A3021 RMK SLP316 T10261183 52003 IEM_DS3505
ZBHH,2002-12-05 10:00,ZBHH 051000Z AUTO 00000KT 4SM A3024 RMK IEM_DS3505
ZBHH,2002-12-05 11:00,ZBHH 051100Z AUTO 00000KT 3SM A3021 RMK IEM_DS3505
ZBHH,2002-12-05 12:00,ZBHH 051200Z AUTO 22002KT 12SM M03/M16 A3024 RMK SLP334 T10341163 52011 IEM_DS3505
ZBHH,2002-12-05 13:00,ZBHH 051300Z AUTO 00000KT 2 1/2SM RMK IEM_DS3505
ZBHH,2002-12-05 14:00,ZBHH 051400Z AUTO 11004KT 2 1/2SM A3030 RMK IEM_DS3505
ZBHH,2002-12-05 15:00,ZBHH 051500Z AUTO 04002KT 12SM M04/M16 A3030 RMK SLP329 T10401162 52007 IEM_DS3505
ZBHH,2002-12-05 16:00,ZBHH 051600Z AUTO 07002KT M09/M20 A3027 RMK T10901200 IEM_DS3505
ZBHH,2002-12-05 17:00,ZBHH 051700Z AUTO 10002KT M08/M20 A3027 RMK T10801200 IEM_DS3505
ZBHH,2002-12-05 18:00,ZBHH 051800Z AUTO 00000KT 16SM M05/M16 A3027 RMK SLP322 T10471162 57003 IEM_DS3505
ZBHH,2002-12-05 19:00,ZBHH 051900Z AUTO 00000KT M08/M19 A3030 RMK T10801190 IEM_DS3505
ZBHH,2002-12-05 20:00,ZBHH 052000Z AUTO 10002KT M09/M19 A3030 RMK T10901190 IEM_DS3505
ZBHH,2002-12-05 21:00,ZBHH 052100Z AUTO 00000KT 12SM M05/M17 A3030 RMK SLP332 T10481172 52006 IEM_DS3505
ZBHH,2002-12-05 22:00,ZBHH 052200Z AUTO 04002KT 4SM A3027 RMK IEM_DS3505
ZBHH,2002-12-05 23:00,ZBHH 052300Z AUTO 00000KT 4SM A3027 RMK IEM_DS3505
ZBHH,2002-12-06 00:00,ZBHH 060000Z AUTO 29002KT 12SM M07/M19 A3030 RMK SLP337 T10671189 57001 IEM_DS3505
ZBHH,2002-12-06 01:00,ZBHH 060100Z AUTO 01006KT 6SM M08/M21 A3030 RMK T10801210 IEM_DS3505
ZBHH,2002-12-06 02:00,ZBHH 060200Z AUTO 36006KT 6SM M06/M22 A3033 RMK T10601220 IEM_DS3505
ZBHH,2002-12-06 03:00,ZBHH 060300Z AUTO 32004KT 6SM M03/M19 A3036 RMK SLP350 T10301194 52018 IEM_DS3505
ZBHH,2002-12-06 04:00,ZBHH 060400Z AUTO 35012KT 6SM M04/M22 A3033 RMK T10401220 IEM_DS3505
ZBHH,2002-12-06 05:00,ZBHH 060500Z AUTO 33014KT 6SM M04/M22 A3030 RMK T10401220 IEM_DS3505
ZBHH,2002-12-06 06:00,ZBHH 060600Z AUTO 32008KT 12SM M02/M20 A3030 RMK SLP332 T10251198 57016 IEM_DS3505
ZBHH,2002-12-06 07:00,ZBHH 060700Z AUTO 33014KT 6SM M05/M21 A3030 RMK T10501210 IEM_DS3505
ZBHH,2002-12-06 08:00,ZBHH 060800Z AUTO 34012G21KT 6SM M05/M21 A3033 RMK T10501210 IEM_DS3505
ZBHH,2002-12-06 09:00,ZBHH 060900Z AUTO 32006KT 19SM M05/M24 A3033 RMK SLP358 T10521240 52016 IEM_DS3505
ZBHH,2002-12-06 10:00,ZBHH 061000Z AUTO 01010KT 6SM M07/M22 A3036 RMK T10701220 IEM_DS3505
ZBHH,2002-12-06 11:00,ZBHH 061100Z AUTO 02008KT 6SM M07/M22 A3039 RMK T10701220 IEM_DS3505
ZBHH,2002-12-06 12:00,ZBHH 061200Z AUTO 27002KT 12SM M06/M22 A3042 RMK SLP392 T10631217 52023 IEM_DS3505
ZBHH,2002-12-06 13:00,ZBHH 061300Z AUTO 36008KT 6SM M08/M23 A3045 RMK T10801230 IEM_DS3505
ZBHH,2002-12-06 14:00,ZBHH 061400Z AUTO 36008KT 6SM M09/M24 A3045 RMK T10901240 IEM_DS3505
ZBHH,2002-12-06 15:00,ZBHH 061500Z AUTO 29004KT 12SM M08/M23 A3047 RMK SLP407 T10771234 52018 IEM_DS3505
ZBHH,2002-12-06 18:00,ZBHH 061800Z AUTO 29004KT 16SM M08/M26 RMK SLP404 T10851257 57003 IEM_DS3505
ZBHH,2002-12-06 21:00,ZBHH 062100Z AUTO 34002KT 16SM M09/M26 A3045 RMK SLP407 T10901259 57005 IEM_DS3505
ZBHH,2002-12-06 22:00,ZBHH 062200Z AUTO 01006KT 6SM M10/M25 A3045 RMK T11001250 IEM_DS3505
ZBHH,2002-12-06 23:00,ZBHH 062300Z AUTO 01004KT 6SM M11/M26 A3045 RMK T11101260 IEM_DS3505
ZBHH,2002-12-07 00:00,ZBHH 070000Z AUTO 29004KT 16SM M09/M26 A3047 RMK SLP416 T10941258 52005 IEM_DS3505
ZBHH,2002-12-07 01:00,ZBHH 070100Z AUTO 04004KT 6SM M10/M26 A3050 RMK T11001260 IEM_DS3505
ZBHH,2002-12-07 02:00,ZBHH 070200Z AUTO 09004KT 6SM M10/M27 A3050 RMK T11001270 IEM_DS3505
ZBHH,2002-12-07 03:00,ZBHH 070300Z AUTO 00000KT 12SM M06/M23 A3050 RMK SLP423 T10651234 52009 IEM_DS3505
ZBHH,2002-12-07 04:00,ZBHH 070400Z AUTO 6SM M07/M25 A3047 RMK T10701250 IEM_DS3505
ZBHH,2002-12-07 05:00,ZBHH 070500Z AUTO 6SM M06/M23 A3045 RMK T10601230 IEM_DS3505
ZBHH,2002-12-07 06:00,ZBHH 070600Z AUTO 18004KT 6SM M05/M24 A3042 RMK SLP389 T10461245 57027 IEM_DS3505
ZBHH,2002-12-07 07:00,ZBHH 070700Z AUTO 24004KT 6SM M06/M22 A3042 RMK T10601220 IEM_DS3505
ZBHH,2002-12-07 08:00,ZBHH 070800Z AUTO 22004KT 6SM M06/M22 A3042 RMK T10601220 IEM_DS3505
ZBHH,2002-12-07 09:00,ZBHH 070900Z AUTO 20006KT 16SM M05/M19 A3042 RMK SLP394 T10541194 52002 IEM_DS3505
ZBHH,2002-12-07 10:00,ZBHH 071000Z AUTO 21002KT 6SM M08/M19 A3045 RMK T10801190 IEM_DS3505
ZBHH,2002-12-07 11:00,ZBHH 071100Z AUTO 36004KT 7SM M08/M22 A3045 RMK T10801220 IEM_DS3505
ZBHH,2002-12-07 12:00,ZBHH 071200Z AUTO 32002KT 16SM M08/M19 A3045 RMK SLP418 T10781188 52014 IEM_DS3505
ZBHH,2002-12-07 13:00,ZBHH 071300Z AUTO 01004KT 6SM M11/M22 A3047 RMK T11101220 IEM_DS3505
ZBHH,2002-12-07 14:00,ZBHH 071400Z AUTO 03002KT 6SM M11/M22 A3047 RMK T11101220 IEM_DS3505
ZBHH,2002-12-07 15:00,ZBHH 071500Z AUTO 29004KT 19SM M08/M20 A3047 RMK SLP414 T10821196 52002 IEM_DS3505
ZBHH,2002-12-07 21:00,ZBHH 072100Z AUTO 00000KT 19SM M11/M21 A3045 RMK SLP409 T11121214 57008 IEM_DS3505
ZBHH,2002-12-07 22:00,ZBHH 072200Z AUTO 07002KT 6SM M16/M21 A3045 RMK T11601210 IEM_DS3505
ZBHH,2002-12-07 23:00,ZBHH 072300Z AUTO 09004KT 6SM M19/M23 A3045 RMK T11901230 IEM_DS3505
ZBHH,2002-12-08 00:00,ZBHH 080000Z AUTO 32002KT 6SM M12/M18 A3045 RMK SLP419 T11231177 54000 IEM_DS3505
ZBHH,2002-12-08 01:00,ZBHH 080100Z AUTO 11002KT 4SM M16/M21 A3045 RMK T11601210 IEM_DS3505
ZBHH,2002-12-08 02:00,ZBHH 080200Z AUTO 14002KT M14/M21 A3045 RMK T11401210 IEM_DS3505
ZBHH,2002-12-08 03:00,ZBHH 080300Z AUTO 00000KT 9SM M10/M17 A3045 RMK SLP416 T11021166 52002 IEM_DS3505
ZBHH,2002-12-08 04:00,ZBHH 080400Z AUTO 22002KT M11/M19 A3042 RMK T11101190 IEM_DS3505
ZBHH,2002-12-08 05:00,ZBHH 080500Z AUTO 6SM A3039 RMK IEM_DS3505
ZBHH,2002-12-08 06:00,ZBHH 080600Z AUTO 29006KT 12SM M06/M16 A3039 RMK SLP381 T10611162 57025 IEM_DS3505
ZBHH,2002-12-08 07:00,ZBHH 080700Z AUTO 28010KT 7SM M08/M18 A3036 RMK T10801180 IEM_DS3505
ZBHH,2002-12-08 08:00,ZBHH 080800Z AUTO 31010KT 7SM M07/M19 A3036 RMK T10701190 IEM_DS3505
ZBHH,2002-12-08 09:00,ZBHH 080900Z AUTO 32004KT 19SM M07/M17 A3036 RMK SLP385 T10671174 57001 IEM_DS3505
ZBHH,2002-12-08 10:00,ZBHH 081000Z AUTO 34006KT 7SM M10/M22 A3039 RMK T11001220 IEM_DS3505
ZBHH,2002-12-08 11:00,ZBHH 081100Z AUTO 36004KT 7SM M11/M20 A3039 RMK T11101200 IEM_DS3505
ZBHH,2002-12-08 12:00,ZBHH 081200Z AUTO 34004KT 19SM M09/M20 A3042 RMK SLP409 T10921199 52012 IEM_DS3505
ZBHH,2002-12-08 13:00,ZBHH 081300Z AUTO 36004KT 7SM M14/M22 A3042 RMK T11401220 IEM_DS3505
ZBHH,2002-12-08 14:00,ZBHH 081400Z AUTO 02008KT 6SM M14/M22 A3042 RMK T11401220 IEM_DS3505
ZBHH,2002-12-08 18:00,ZBHH 081800Z AUTO 29002KT 19SM M12/M21 RMK SLP395 T11201211 57005 IEM_DS3505
ZBHH,2002-12-08 21:00,ZBHH 082100Z AUTO 00000KT 19SM M14/M23 A3036 RMK SLP392 T11431228 57009 IEM_DS3505
ZBHH,2002-12-08 22:00,ZBHH 082200Z AUTO 14002KT 6SM M21/M26 A3036 RMK T12101260 IEM_DS3505
ZBHH,2002-12-08 23:00,ZBHH 082300Z AUTO 10002KT 6SM M21/M25 A3036 RMK T12101250 IEM_DS3505
ZBHH,2002-12-09 00:00,ZBHH 090000Z AUTO 00000KT 3SM M14/M21 A3036 RMK SLP398 T11421207 57001 IEM_DS3505
ZBHH,2002-12-09 01:00,ZBHH 090100Z AUTO 08002KT M19/M25 A3036 RMK T11901250 IEM_DS3505
ZBHH,2002-12-09 02:00,ZBHH 090200Z AUTO 09002KT 6SM M15/M23 A3036 RMK T11501230 IEM_DS3505
ZBHH,2002-12-09 03:00,ZBHH 090300Z AUTO 00000KT 9SM M10/M19 A3036 RMK SLP389 T11031191 57001 IEM_DS3505
ZBHH,2002-12-09 04:00,ZBHH 090400Z AUTO 19002KT 5SM M11/M22 A3033 RMK T11101220 IEM_DS3505
ZBHH,2002-12-09 05:00,ZBHH 090500Z AUTO 21004KT 6SM M09/M22 A3030 RMK T10901220 IEM_DS3505
ZBHH,2002-12-09 06:00,ZBHH 090600Z AUTO 00000KT 12SM M07/M19 A3027 RMK SLP358 T10671189 57023 IEM_DS3505
ZBHH,2002-12-09 07:00,ZBHH 090700Z AUTO 25004KT 6SM M07/M21 A3027 RMK T10701210 IEM_DS3505
ZBHH,2002-12-09 08:00,ZBHH 090800Z AUTO 24004KT 6SM M07/M21 A3027 RMK T10701210 IEM_DS3505
ZBHH,2002-12-09 09:00,ZBHH 090900Z AUTO 25002KT 12SM M07/M19 A3027 RMK SLP358 T10711189 57006 IEM_DS3505
ZBHH,2002-12-09 10:00,ZBHH 091000Z AUTO 00000KT 3SM M10/M21 A3027 RMK T11001210 IEM_DS3505
ZBHH,2002-12-09 11:00,ZBHH 091100Z AUTO 06002KT 2 1/2SM M12/M22 A3027 RMK T11201220 IEM_DS3505
ZBHH,2002-12-09 12:00,ZBHH 091200Z AUTO 00000KT 5SM M10/M18 A3027 RMK SLP370 T10961175 52005 IEM_DS3505
ZBHH,2002-12-09 13:00,ZBHH 091300Z AUTO 05002KT 3SM M18/M26 A3027 RMK T11801260 IEM_DS3505
ZBHH,2002-12-09 14:00,ZBHH 091400Z AUTO 10004KT 3SM M19/M26 A3027 RMK T11901260 IEM_DS3505
ZBHH,2002-12-09 15:00,ZBHH 091500Z AUTO 00000KT 4SM A3027 RMK SLP359 57002 IEM_DS3505
ZBHH,2002-12-09 16:00,ZBHH 091600Z AUTO 05002KT M17/M24 A3027 RMK T11701240 IEM_DS3505
ZBHH,2002-12-09 17:00,ZBHH 091700Z AUTO 00000KT M20/M26 A3027 RMK T12001260 IEM_DS3505
ZBHH,2002-12-09 18:00,ZBHH 091800Z AUTO 00000KT 6SM M13/M20 A3027 RMK SLP360 T11281201 52003 IEM_DS3505
ZBHH,2002-12-09 19:00,ZBHH 091900Z AUTO 00000KT M20/M26 A3027 RMK T12001260 IEM_DS3505
ZBHH,2002-12-09 20:00,ZBHH 092000Z AUTO 00000KT 4SM M21/M26 A3027 RMK T12101260 IEM_DS3505
ZBHH,2002-12-09 21:00,ZBHH 092100Z AUTO 00000KT 19SM M13/M19 A3027 RMK SLP359 T11341194 57003 IEM_DS3505
ZBHH,2002-12-09 22:00,ZBHH 092200Z AUTO 11004KT 4SM M20/M24 A3027 RMK T12001240 IEM_DS3505
ZBHH,2002-12-09 23:00,ZBHH 092300Z AUTO 36004KT 3SM M20/M24 A3027 RMK T12001240 IEM_DS3505
ZBHH,2002-12-10 00:00,ZBHH 100000Z AUTO 00000KT 6SM M14/M18 A3027 RMK SLP369 T11361181 52002 IEM_DS3505
ZBHH,2002-12-10 01:00,ZBHH 100100Z AUTO 00000KT 2 1/2SM M18/M22 A3027 RMK T11801220 IEM_DS3505
ZBHH,2002-12-10 02:00,ZBHH 100200Z AUTO 18002KT 2SM M13/M19 A3030 RMK T11301190 IEM_DS3505
ZBHH,2002-12-10 03:00,ZBHH 100300Z AUTO 00000KT 4SM M08/M15 A3030 RMK SLP366 T10841149 52008 IEM_DS3505
ZBHH,2002-12-10 04:00,ZBHH 100400Z AUTO 21004KT M08/M17 A3030 RMK T10801170 IEM_DS3505
ZBHH,2002-12-10 05:00,ZBHH 100500Z AUTO 23004KT 5SM M07/M18 A3027 RMK T10701180 IEM_DS3505
ZBHH,2002-12-10 06:00,ZBHH 100600Z AUTO 22004KT 5SM M04/M16 A3024 RMK SLP336 T10411157 57022 IEM_DS3505
ZBHH,2002-12-10 07:00,ZBHH 100700Z AUTO 24004KT M05/M18 A3021 RMK T10501180 IEM_DS3505
ZBHH,2002-12-10 08:00,ZBHH 100800Z AUTO 25002KT 6SM M05/M19 A3021 RMK T10501190 IEM_DS3505
ZBHH,2002-12-10 09:00,ZBHH 100900Z AUTO 22002KT 9SM M05/M19 A3021 RMK SLP335 T10481187 57004 IEM_DS3505
ZBHH,2002-12-10 10:00,ZBHH 101000Z AUTO 02002KT 3SM M10/M19 A3024 RMK T11001190 IEM_DS3505
ZBHH,2002-12-10 11:00,ZBHH 101100Z AUTO 05004KT 3SM M11/M20 A3024 RMK T11101200 IEM_DS3505
ZBHH,2002-12-10 12:00,ZBHH 101200Z AUTO 00000KT 3SM M07/M18 A3024 RMK SLP347 T10741179 52004 IEM_DS3505
ZBHH,2002-12-10 13:00,ZBHH 101300Z AUTO 08004KT 3SM M15/M22 A3024 RMK T11501220 IEM_DS3505
ZBHH,2002-12-10 14:00,ZBHH 101400Z AUTO 06004KT 3SM M14/M21 A3021 RMK T11401210 IEM_DS3505
ZBHH,2002-12-10 15:00,ZBHH 101500Z AUTO 02002KT 5SM M10/M17 A3021 RMK SLP331 T10961168 57007 IEM_DS3505
ZBHH,2002-12-10 16:00,ZBHH 101600Z AUTO 07004KT M17/M23 A3021 RMK T11701230 IEM_DS3505
ZBHH,2002-12-10 18:00,ZBHH 101800Z AUTO 00000KT 12SM M11/M17 RMK SLP318 T11141169 57005 IEM_DS3505
ZBHH,2002-12-10 21:00,ZBHH 102100Z AUTO 00000KT 19SM M13/M18 A3018 RMK SLP316 T11271175 57007 IEM_DS3505
ZBHH,2002-12-10 22:00,ZBHH 102200Z AUTO 07006KT 6SM M17/M21 A3018 RMK T11701210 IEM_DS3505
ZBHH,2002-12-10 23:00,ZBHH 102300Z AUTO 07006KT 3SM M18/M22 A3021 RMK T11801220 IEM_DS3505
ZBHH,2002-12-11 00:00,ZBHH 110000Z AUTO 00000KT 4SM M12/M16 A3021 RMK SLP337 T11171163 52015 IEM_DS3505
ZBHH,2002-12-11 01:00,ZBHH 110100Z AUTO 08004KT 3SM M15/M21 A3024 RMK T11501210 IEM_DS3505
ZBHH,2002-12-11 02:00,ZBHH 110200Z AUTO 08004KT M11/M19 A3024 RMK T11101190 IEM_DS3505
ZBHH,2002-12-11 03:00,ZBHH 110300Z AUTO 11004KT 7SM M05/M13 A3024 RMK SLP334 T10541131 52007 IEM_DS3505
ZBHH,2002-12-11 04:00,ZBHH 110400Z AUTO 00000KT M06/M17 A3024 RMK T10601170 IEM_DS3505
ZBHH,2002-12-11 05:00,ZBHH 110500Z AUTO 15002KT M03/M16 A3021 RMK T10301160 IEM_DS3505
ZBHH,2002-12-11 06:00,ZBHH 110600Z AUTO 22002KT 6SM M02/M12 A3021 RMK SLP317 T10181124 57011 IEM_DS3505
ZBHH,2002-12-11 07:00,ZBHH 110700Z AUTO 24004KT M02/M16 A3021 RMK T10201160 IEM_DS3505
ZBHH,2002-12-11 08:00,ZBHH 110800Z AUTO 25004KT 3SM M03/M17 A3024 RMK T10301170 IEM_DS3505
ZBHH,2002-12-11 09:00,ZBHH 110900Z AUTO 25002KT 6SM M03/M14 A3027 RMK SLP342 T10311137 52016 IEM_DS3505
ZBHH,2002-12-11 10:00,ZBHH 111000Z AUTO 31006KT M06/M17 A3027 RMK T10601170 IEM_DS3505
ZBHH,2002-12-11 11:00,ZBHH 111100Z AUTO 01008KT 6SM M06/M17 A3030 RMK T10601170 IEM_DS3505
ZBHH,2002-12-11 12:00,ZBHH 111200Z AUTO 00000KT 5SM M07/M16 A3033 RMK SLP369 T10671159 52018 IEM_DS3505
ZBHH,2002-12-11 13:00,ZBHH 111300Z AUTO 02006KT 5SM M08/M18 A3033 RMK T10801180 IEM_DS3505
ZBHH,2002-12-11 14:00,ZBHH 111400Z AUTO 04002KT 5SM M10/M19 A3036 RMK T11001190 IEM_DS3505
ZBHH,2002-12-11 15:00,ZBHH 111500Z AUTO 00000KT 9SM M09/M17 A3036 RMK SLP372 T10861172 52012 IEM_DS3505
ZBHH,2002-12-11 21:00,ZBHH 112100Z AUTO 04002KT 12SM M13/M19 A3039 RMK SLP390 T11261189 52005 IEM_DS3505
ZBHH,2002-12-11 22:00,ZBHH 112200Z AUTO 06006KT 5SM M18/M24 A3039 RMK T11801240 IEM_DS3505
ZBHH,2002-12-11 23:00,ZBHH 112300Z AUTO 06002KT M18/M24 A3042 RMK T11801240 IEM_DS3505
ZBHH,2002-12-12 00:00,ZBHH 120000Z AUTO 00000KT 5SM M14/M19 A3045 RMK SLP414 T11381191 52010 IEM_DS3505
ZBHH,2002-12-12 01:00,ZBHH 120100Z AUTO 08006KT M16/M24 A3042 RMK T11601240 IEM_DS3505
ZBHH,2002-12-12 02:00,ZBHH 120200Z AUTO 10002KT 6SM M12/M23 A3045 RMK T11201230 IEM_DS3505
ZBHH,2002-12-12 03:00,ZBHH 120300Z AUTO 18002KT 6SM M06/M19 A3045 RMK SLP403 T10571192 52005 IEM_DS3505
ZBHH,2002-12-12 04:00,ZBHH 120400Z AUTO 00000KT 6SM M06/M19 A3042 RMK T10601190 IEM_DS3505
ZBHH,2002-12-12 05:00,ZBHH 120500Z AUTO 18002KT 6SM M04/M18 A3039 RMK T10401180 IEM_DS3505
ZBHH,2002-12-12 06:00,ZBHH 120600Z AUTO 00000KT 4SM M02/M14 A3039 RMK SLP381 T10221138 57018 IEM_DS3505
ZBHH,2002-12-12 07:00,ZBHH 120700Z AUTO 26002KT M03/M17 A3036 RMK T10301170 IEM_DS3505
ZBHH,2002-12-12 08:00,ZBHH 120800Z AUTO 23002KT M03/M17 A3039 RMK T10301170 IEM_DS3505
ZBHH,2002-12-12 09:00,ZBHH 120900Z AUTO 00000KT 4SM M03/M15 A3039 RMK SLP385 T10331148 57002 IEM_DS3505
ZBHH,2002-12-12 10:00,ZBHH 121000Z AUTO 02002KT 1 1/2SM M06/M17 A3039 RMK T10601170 IEM_DS3505
ZBHH,2002-12-12 11:00,ZBHH 121100Z AUTO 03004KT 2 1/2SM M09/M18 A3039 RMK T10901180 IEM_DS3505
ZBHH,2002-12-12 12:00,ZBHH 121200Z AUTO 00000KT 3SM M07/M16 A3039 RMK SLP403 T10681161 52005 IEM_DS3505
ZBHH,2002-12-12 13:00,ZBHH 121300Z AUTO 00000KT 2 1/2SM M11/M19 A3042 RMK T11101190 IEM_DS3505
ZBHH,2002-12-12 14:00,ZBHH 121400Z AUTO 07002KT M16/M23 A3039 RMK T11601230 IEM_DS3505
ZBHH,2002-12-12 15:00,ZBHH 121500Z AUTO 00000KT 5SM M09/M17 A3039 RMK SLP386 T10871174 54000 IEM_DS3505
ZBHH,2002-12-12 16:00,ZBHH 121600Z AUTO 05004KT 6SM M13/M20 A3039 RMK T11301200 IEM_DS3505
ZBHH,2002-12-12 18:00,ZBHH 121800Z AUTO 00000KT 6SM M11/M16 RMK SLP380 T11061161 57002 IEM_DS3505
ZBHH,2002-12-12 21:00,ZBHH 122100Z AUTO 00000KT 12SM M11/M16 A3036 RMK SLP374 T11091158 57008 IEM_DS3505
ZBHH,2002-12-12 22:00,ZBHH 122200Z AUTO 06002KT 3SM M17/M22 A3036 RMK T11701220 IEM_DS3505
ZBHH,2002-12-12 23:00,ZBHH 122300Z AUTO 08006KT 3SM M16/M21 A3036 RMK T11601210 IEM_DS3505
ZBHH,2002-12-13 00:00,ZBHH 130000Z AUTO 00000KT 4SM M12/M15 A3036 RMK SLP385 T11191152 57001 IEM_DS3505
ZBHH,2002-12-13 01:00,ZBHH 130100Z AUTO 06004KT 2 1/2SM A3036 RMK IEM_DS3505
ZBHH,2002-12-13 02:00,ZBHH 130200Z AUTO 07004KT 2 1/2SM A3036 RMK IEM_DS3505
ZBHH,2002-12-13 03:00,ZBHH 130300Z AUTO 00000KT 7SM M02/M15 A3036 RMK SLP362 T10211149 57002 IEM_DS3505
ZBHH,2002-12-13 04:00,ZBHH 130400Z AUTO 11002KT M02/M16 A3033 RMK T10201160 IEM_DS3505
ZBHH,2002-12-13 05:00,ZBHH 130500Z AUTO 10002KT M01/M15 A3030 RMK T10101150 IEM_DS3505
ZBHH,2002-12-13 06:00,ZBHH 130600Z AUTO 00000KT 12SM 00/M12 A3027 RMK SLP330 T00021123 57027 IEM_DS3505
ZBHH,2002-12-13 07:00,ZBHH 130700Z AUTO 15002KT 6SM 01/M14 A3024 RMK T00101140 IEM_DS3505
ZBHH,2002-12-13 08:00,ZBHH 130800Z AUTO 12002KT 6SM 01/M15 A3024 RMK T00101150 IEM_DS3505
ZBHH,2002-12-13 09:00,ZBHH 130900Z AUTO 00000KT 7SM M00/M14 A3024 RMK SLP319 T10021139 57011 IEM_DS3505
ZBHH,2002-12-13 10:00,ZBHH 131000Z AUTO 01004KT 2SM M05/M16 A3024 RMK T10501160 IEM_DS3505
ZBHH,2002-12-13 11:00,ZBHH 131100Z AUTO 03002KT 2SM M05/M16 A3024 RMK T10501160 IEM_DS3505
ZBHH,2002-12-13 12:00,ZBHH 131200Z AUTO 00000KT 4SM M05/M15 A3024 RMK SLP336 T10481151 52002 IEM_DS3505
ZBHH,2002-12-13 13:00,ZBHH 131300Z AUTO 08004KT 3SM M08/M17 A3024 RMK T10801170 IEM_DS3505
ZBHH,2002-12-13 14:00,ZBHH 131400Z AUTO 00000KT M09/M17 A3021 RMK T10901170 IEM_DS3505
ZBHH,2002-12-13 15:00,ZBHH 131500Z AUTO 00000KT 3SM M06/M13 A3021 RMK SLP305 T10621133 57008 IEM_DS3505
ZBHH,2002-12-13 16:00,ZBHH 131600Z AUTO 03002KT 4SM A3021 RMK IEM_DS3505
ZBHH,2002-12-13 17:00,ZBHH 131700Z AUTO 08002KT M12/M19 A3021 RMK T11201190 IEM_DS3505
ZBHH,2002-12-13 19:00,ZBHH 131900Z AUTO 06004KT M13/M19 A3018 RMK T11301190 IEM_DS3505
ZBHH,2002-12-13 20:00,ZBHH 132000Z AUTO 05002KT M13/M19 A3018 RMK T11301190 IEM_DS3505
ZBHH,2002-12-13 21:00,ZBHH 132100Z AUTO 00000KT 4SM M09/M14 A3015 RMK SLP290 T10861135 57009 IEM_DS3505
ZBHH,2002-12-13 22:00,ZBHH 132200Z AUTO 06002KT 3SM M12/M18 A3015 RMK T11201180 IEM_DS3505
ZBHH,2002-12-13 23:00,ZBHH 132300Z AUTO 08004KT 4SM M13/M18 A3015 RMK T11301180 IEM_DS3505
ZBHH,2002-12-14 00:00,ZBHH 140000Z AUTO 00000KT 4SM M08/M12 A3015 RMK SLP302 T10841122 52001 IEM_DS3505
ZBHH,2002-12-14 01:00,ZBHH 140100Z AUTO 08002KT 2 1/2SM M12/M18 A3018 RMK T11201180 IEM_DS3505
ZBHH,2002-12-14 02:00,ZBHH 140200Z AUTO 06004KT 3SM M05/M15 A3018 RMK T10501150 IEM_DS3505
ZBHH,2002-12-14 03:00,ZBHH 140300Z AUTO 00000KT 5SM 01/M11 A3015 RMK SLP284 T00081107 52002 IEM_DS3505
ZBHH,2002-12-14 04:00,ZBHH 140400Z AUTO 19002KT 01/M14 A3015 RMK T00101140 IEM_DS3505
ZBHH,2002-12-14 05:00,ZBHH 140500Z AUTO 00000KT 3SM 03/M13 A3012 RMK T00301130 IEM_DS3505
ZBHH,2002-12-14 06:00,ZBHH 140600Z AUTO 00000KT 6SM 04/M10 A3009 RMK SLP252 T00421099 57023 IEM_DS3505
ZBHH,2002-12-14 07:00,ZBHH 140700Z AUTO 00000KT 3SM 04/M11 A3009 RMK T00401110 IEM_DS3505
ZBHH,2002-12-14 08:00,ZBHH 140800Z AUTO 25002KT 3SM 03/M11 A3009 RMK T00301110 IEM_DS3505
ZBHH,2002-12-14 09:00,ZBHH 140900Z AUTO 00000KT 6SM 02/M07 A3009 RMK SLP259 T00241067 57001 IEM_DS3505
ZBHH,2002-12-14 10:00,ZBHH 141000Z AUTO 34004KT 1 1/2SM M02/M11 A3012 RMK T10201110 IEM_DS3505
ZBHH,2002-12-14 11:00,ZBHH 141100Z AUTO 36004KT 3SM M02/M13 A3012 RMK T10201130 IEM_DS3505
ZBHH,2002-12-14 12:00,ZBHH 141200Z AUTO 32006KT 19SM M00/M13 A3012 RMK SLP274 T10021133 52008 IEM_DS3505
ZBHH,2002-12-14 13:00,ZBHH 141300Z AUTO 36004KT 6SM M03/M15 A3012 RMK T10301150 IEM_DS3505
ZBHH,2002-12-14 14:00,ZBHH 141400Z AUTO 32002KT 6SM M05/M15 A3012 RMK T10501150 IEM_DS3505
ZBHH,2002-12-14 15:00,ZBHH 141500Z AUTO 34002KT 19SM M01/M14 A3012 RMK SLP253 T10131137 57001 IEM_DS3505
ZBHH,2002-12-14 18:00,ZBHH 141800Z AUTO 00000KT 19SM M02/M12 RMK SLP247 T10251120 54000 IEM_DS3505
ZBHH,2002-12-14 21:00,ZBHH 142100Z AUTO 00000KT 9SM M03/M13 A3009 RMK SLP237 T10291133 57014 IEM_DS3505
ZBHH,2002-12-14 22:00,ZBHH 142200Z AUTO 00000KT 4SM M05/M13 A3009 RMK T10501130 IEM_DS3505
ZBHH,2002-12-14 23:00,ZBHH 142300Z AUTO 13002KT 2 1/2SM M05/M13 A3009 RMK T10501130 IEM_DS3505
ZBHH,2002-12-15 00:00,ZBHH 150000Z AUTO 00000KT 7SM M03/M13 A3009 RMK SLP253 T10301129 52008 IEM_DS3505
ZBHH,2002-12-15 01:00,ZBHH 150100Z AUTO 06002KT 2SM M05/M13 A3012 RMK T10501130 IEM_DS3505
ZBHH,2002-12-15 03:00,ZBHH 150300Z AUTO 00000KT 7SM M02/M12 A3015 RMK SLP269 T10251120 52013 IEM_DS3505
ZBHH,2002-12-15 04:00,ZBHH 150400Z AUTO 00000KT 7SM M02/M11 A3012 RMK T10201110 IEM_DS3505
ZBHH,2002-12-15 05:00,ZBHH 150500Z AUTO 29004KT 6SM M02/M11 A3009 RMK T10201110 IEM_DS3505
ZBHH,2002-12-15 06:00,ZBHH 150600Z AUTO 09002KT 9SM 01/M08 A3009 RMK SLP243 T00141082 57017 IEM_DS3505
ZBHH,2002-12-15 07:00,ZBHH 150700Z AUTO 32006KT 6SM 00/M12 A3009 RMK T00001120 IEM_DS3505
ZBHH,2002-12-15 08:00,ZBHH 150800Z AUTO 35006KT 6SM 00/M11 A3009 RMK T00001110 IEM_DS3505
ZBHH,2002-12-15 09:00,ZBHH 150900Z AUTO 25002KT 12SM 00/M08 A3012 RMK SLP258 T00011076 52010 IEM_DS3505
ZBHH,2002-12-15 10:00,ZBHH 151000Z AUTO 00000KT 7SM M02/M12 A3015 RMK T10201120 IEM_DS3505
ZBHH,2002-12-15 11:00,ZBHH 151100Z AUTO 00000KT M03/M10 A3015 RMK T10301100 IEM_DS3505
ZBHH,2002-12-15 12:00,ZBHH 151200Z AUTO 07002KT 6SM M01/M11 A3015 RMK SLP279 T10131109 52015 IEM_DS3505
ZBHH,2002-12-15 13:00,ZBHH 151300Z AUTO 33004KT 7SM M04/M10 A3018 RMK T10401100 IEM_DS3505
ZBHH,2002-12-15 14:00,ZBHH 151400Z AUTO 01004KT 6SM M03/M10 A3018 RMK T10301100 IEM_DS3505
ZBHH,2002-12-15 15:00,ZBHH 151500Z AUTO 34002KT 19SM M01/M08 RMK SLP286 T10141078 52007 IEM_DS3505
ZBHH,2002-12-15 18:00,ZBHH 151800Z AUTO 00000KT 19SM M03/M12 RMK SLP284 T10281115 52003 IEM_DS3505
ZBHH,2002-12-15 21:00,ZBHH 152100Z AUTO 22002KT 19SM M04/M12 A3021 RMK 70000 SLP290 T10411121 54000 IEM_DS3505
ZBHH,2002-12-15 22:00,ZBHH 152200Z AUTO 15002KT 4SM M08/M14 A3018 RMK T10801140 IEM_DS3505
ZBHH,2002-12-15 23:00,ZBHH 152300Z AUTO 27004KT 4SM M11/M16 A3021 RMK T11101160 IEM_DS3505
ZBHH,2002-12-16 00:00,ZBHH 160000Z AUTO 00000KT 6SM M07/M12 A3024 RMK 70000 SLP311 T10741124 52008 IEM_DS3505
ZBHH,2002-12-16 01:00,ZBHH 160100Z AUTO 00000KT 3SM M10/M15 A3024 RMK T11001150 IEM_DS3505
ZBHH,2002-12-16 02:00,ZBHH 160200Z AUTO 00000KT M06/M13 A3027 RMK T10601130 IEM_DS3505
ZBHH,2002-12-16 03:00,ZBHH 160300Z AUTO 00000KT 4SM M02/M11 A3027 RMK SLP311 T10221111 52011 IEM_DS3505
ZBHH,2002-12-16 04:00,ZBHH 160400Z AUTO 25004KT 2 1/2SM A3024 RMK IEM_DS3505
ZBHH,2002-12-16 05:00,ZBHH 160500Z AUTO 25004KT 4SM A3024 RMK IEM_DS3505
ZBHH,2002-12-16 06:00,ZBHH 160600Z AUTO 00000KT 4SM M01/M10 A3024 RMK SLP296 T10091105 57013 IEM_DS3505
ZBHH,2002-12-16 07:00,ZBHH 160700Z AUTO 00000KT 4SM A3021 RMK IEM_DS3505
ZBHH,2002-12-16 08:00,ZBHH 160800Z AUTO 10002KT 4SM A3021 RMK IEM_DS3505
ZBHH,2002-12-16 09:00,ZBHH 160900Z AUTO 00000KT 4SM M01/M10 A3021 RMK SLP300 T10121105 54000 IEM_DS3505
ZBHH,2002-12-16 10:00,ZBHH 161000Z AUTO 06004KT 3SM M05/M12 A3021 RMK T10501120 IEM_DS3505
ZBHH,2002-12-16 11:00,ZBHH 161100Z AUTO 05004KT RMK IEM_DS3505
ZBHH,2002-12-16 12:00,ZBHH 161200Z AUTO 07002KT 9SM M02/M11 A3018 RMK SLP292 T10221110 57017 IEM_DS3505
ZBHH,2002-12-16 13:00,ZBHH 161300Z AUTO 03004KT M05/M11 A3012 RMK T10501110 IEM_DS3505
ZBHH,2002-12-16 14:00,ZBHH 161400Z AUTO 33002KT M06/M12 A3012 RMK T10601120 IEM_DS3505
ZBHH,2002-12-16 15:00,ZBHH 161500Z AUTO 27002KT 6SM M04/M11 A3012 RMK SLP265 T10361112 57015 IEM_DS3505
ZBHH,2002-12-16 16:00,ZBHH 161600Z AUTO 00000KT 4SM M09/M13 A3009 RMK T10901130 IEM_DS3505
ZBHH,2002-12-16 17:00,ZBHH 161700Z AUTO 11004KT 4SM M11/M15 A3006 RMK T11101150 IEM_DS3505
ZBHH,2002-12-16 18:00,ZBHH 161800Z AUTO 00000KT 12SM M05/M11 A3006 RMK SLP252 T10541110 57012 IEM_DS3505
ZBHH,2002-12-16 19:00,ZBHH 161900Z AUTO 09002KT 2 1/2SM M10/M14 A3009 RMK T11001140 IEM_DS3505
ZBHH,2002-12-16 20:00,ZBHH 162000Z AUTO 14004KT 4SM M11/M14 A3006 RMK T11101140 IEM_DS3505
ZBHH,2002-12-16 21:00,ZBHH 162100Z AUTO 18002KT 12SM M06/M11 A3009 RMK SLP261 T10611106 52005 IEM_DS3505
ZBHH,2002-12-16 22:00,ZBHH 162200Z AUTO 00000KT 3SM M09/M13 A3009 RMK T10901130 IEM_DS3505
ZBHH,2002-12-16 23:00,ZBHH 162300Z AUTO 00000KT 3SM M10/M13 A3012 RMK T11001130 IEM_DS3505
ZBHH,2002-12-17 00:00,ZBHH 170000Z AUTO 00000KT 7SM M07/M11 A3012 RMK SLP276 T10661112 52010 IEM_DS3505
ZBHH,2002-12-17 01:00,ZBHH 170100Z AUTO 00000KT 3SM M08/M13 A3015 RMK T10801130 IEM_DS3505
ZBHH,2002-12-17 02:00,ZBHH 170200Z AUTO 20002KT 3SM A3015 RMK IEM_DS3505
ZBHH,2002-12-17 03:00,ZBHH 170300Z AUTO 00000KT 9SM M05/M11 A3018 RMK SLP291 T10461113 52015 IEM_DS3505
ZBHH,2002-12-17 04:00,ZBHH 170400Z AUTO 24004KT 2 1/2SM A3015 RMK IEM_DS3505
ZBHH,2002-12-17 05:00,ZBHH 170500Z AUTO 25004KT 2 1/2SM A3012 RMK IEM_DS3505
ZBHH,2002-12-17 06:00,ZBHH 170600Z AUTO 22002KT 9SM M01/M09 A3009 RMK SLP262 T10111091 57022 IEM_DS3505
ZBHH,2002-12-17 07:00,ZBHH 170700Z AUTO 24008KT 00/M11 A3009 RMK T00001110 IEM_DS3505
ZBHH,2002-12-17 08:00,ZBHH 170800Z AUTO 24006KT 5SM 00/M11 A3009 RMK T00001110 IEM_DS3505
ZBHH,2002-12-17 09:00,ZBHH 170900Z AUTO 20002KT 12SM 00/M10 A3009 RMK SLP263 T00031101 52002 IEM_DS3505
ZBHH,2002-12-17 10:00,ZBHH 171000Z AUTO 25004KT M03/M11 A3012 RMK T10301110 IEM_DS3505
ZBHH,2002-12-17 11:00,ZBHH 171100Z AUTO 36004KT 6SM M04/M10 A3015 RMK T10401100 IEM_DS3505
ZBHH,2002-12-17 12:00,ZBHH 171200Z AUTO 00000KT 12SM M02/M10 A3018 RMK SLP290 T10221105 52017 IEM_DS3505
ZBHH,2002-12-17 13:00,ZBHH 171300Z AUTO 00000KT 5SM M06/M12 A3018 RMK T10601120 IEM_DS3505
ZBHH,2002-12-17 14:00,ZBHH 171400Z AUTO 04002KT 6SM M08/M13 A3018 RMK T10801130 IEM_DS3505
ZBHH,2002-12-17 15:00,ZBHH 171500Z AUTO 00000KT 12SM M04/M10 A3018 RMK SLP293 T10361103 52004 IEM_DS3505
ZBHH,2002-12-17 18:00,ZBHH 171800Z AUTO 00000KT 12SM M07/M12 RMK SLP290 T10691122 57002 IEM_DS3505
ZBHH,2002-12-17 21:00,ZBHH 172100Z AUTO 00000KT 12SM M08/M13 A3015 RMK SLP281 T10831131 57008 IEM_DS3505
ZBHH,2002-12-17 22:00,ZBHH 172200Z AUTO 07006KT 6SM M13/M16 A3015 RMK T11301160 IEM_DS3505
ZBHH,2002-12-17 23:00,ZBHH 172300Z AUTO 07006KT 6SM M13/M17 A3015 RMK T11301170 IEM_DS3505
ZBHH,2002-12-18 00:00,ZBHH 180000Z AUTO 00000KT 5SM M08/M13 A3015 RMK SLP294 T10791130 52007 IEM_DS3505
ZBHH,2002-12-18 01:00,ZBHH 180100Z AUTO 08004KT 6SM M10/M14 A3018 RMK T11001140 IEM_DS3505
ZBHH,2002-12-18 02:00,ZBHH 180200Z AUTO 07004KT 6SM M07/M14 A3018 RMK T10701140 IEM_DS3505
ZBHH,2002-12-18 03:00,ZBHH 180300Z AUTO 00000KT 4SM M04/M10 A3015 RMK SLP283 T10401104 57004 IEM_DS3505
ZBHH,2002-12-18 04:00,ZBHH 180400Z AUTO 09002KT 6SM M03/M13 A3012 RMK T10301130 IEM_DS3505
ZBHH,2002-12-18 05:00,ZBHH 180500Z AUTO 11004KT 6SM M01/M13 A3009 RMK T10101130 IEM_DS3505
ZBHH,2002-12-18 06:00,ZBHH 180600Z AUTO 00000KT 6SM 01/M11 A3006 RMK SLP251 T00061109 57025 IEM_DS3505
ZBHH,2002-12-18 07:00,ZBHH 180700Z AUTO 14002KT 6SM 00/M13 A3006 RMK T00001130 IEM_DS3505
ZBHH,2002-12-18 08:00,ZBHH 180800Z AUTO 00000KT 6SM 00/M13 A3009 RMK T00001130 IEM_DS3505
ZBHH,2002-12-18 09:00,ZBHH 180900Z AUTO 00000KT 6SM 00/M10 A3009 RMK SLP267 T00021101 52010 IEM_DS3505
ZBHH,2002-12-18 10:00,ZBHH 181000Z AUTO 00000KT M03/M13 A3012 RMK T10301130 IEM_DS3505
ZBHH,2002-12-18 11:00,ZBHH 181100Z AUTO 03002KT 2 1/2SM A3012 RMK IEM_DS3505
ZBHH,2002-12-18 12:00,ZBHH 181200Z AUTO 00000KT 3SM M04/M11 A3015 RMK SLP292 T10381106 52014 IEM_DS3505
ZBHH,2002-12-18 13:00,ZBHH 181300Z AUTO 02002KT 3SM M09/M15 A3018 RMK T10901150 IEM_DS3505
ZBHH,2002-12-18 14:00,ZBHH 181400Z AUTO 05004KT M10/M16 A3018 RMK T11001160 IEM_DS3505
ZBHH,2002-12-18 15:00,ZBHH 181500Z AUTO 00000KT 5SM M06/M12 A3018 RMK SLP301 T10611120 52011 IEM_DS3505
ZBHH,2002-12-18 16:00,ZBHH 181600Z AUTO 08006KT 4SM M12/M16 A3018 RMK T11201160 IEM_DS3505
ZBHH,2002-12-18 17:00,ZBHH 181700Z AUTO 09004KT 4SM M11/M16 A3018 RMK T11101160 IEM_DS3505
ZBHH,2002-12-18 18:00,ZBHH 181800Z AUTO 00000KT 6SM M07/M12 A3018 RMK SLP295 T10691122 52003 IEM_DS3505
ZBHH,2002-12-18 20:00,ZBHH 182000Z AUTO 08006KT 4SM M11/M16 A3018 RMK T11101160 IEM_DS3505
ZBHH,2002-12-18 21:00,ZBHH 182100Z AUTO 09002KT 12SM M07/M12 A3021 RMK SLP299 T10681125 52003 IEM_DS3505
ZBHH,2002-12-18 22:00,ZBHH 182200Z AUTO 06004KT 6SM M09/M15 A3021 RMK T10901150 IEM_DS3505
ZBHH,2002-12-18 23:00,ZBHH 182300Z AUTO 09002KT 6SM M11/M16 A3021 RMK T11101160 IEM_DS3505
ZBHH,2002-12-19 00:00,ZBHH 190000Z AUTO 00000KT 6SM M07/M12 A3021 RMK SLP315 T10661117 52006 IEM_DS3505
ZBHH,2002-12-19 01:00,ZBHH 190100Z AUTO 06004KT 4SM A3024 RMK IEM_DS3505
ZBHH,2002-12-19 02:00,ZBHH 190200Z AUTO 07004KT 5SM A3024 RMK IEM_DS3505
ZBHH,2002-12-19 03:00,ZBHH 190300Z AUTO 36002KT 5SM M03/M10 A3024 RMK SLP314 T10261102 52003 IEM_DS3505
ZBHH,2002-12-19 04:00,ZBHH 190400Z AUTO 01002KT 4SM A3021 RMK IEM_DS3505
ZBHH,2002-12-19 05:00,ZBHH 190500Z AUTO 03006KT 6SM 01/M13 A3015 RMK T00101130 IEM_DS3505
ZBHH,2002-12-19 06:00,ZBHH 190600Z AUTO 14002KT 19SM 04/M09 A3015 RMK SLP267 T00371089 57029 IEM_DS3505
ZBHH,2002-12-19 07:00,ZBHH 190700Z AUTO 20002KT 6SM 04/M12 A3012 RMK T00401120 IEM_DS3505
ZBHH,2002-12-19 08:00,ZBHH 190800Z AUTO 25002KT 6SM 03/M11 A3012 RMK T00301110 IEM_DS3505
ZBHH,2002-12-19 09:00,ZBHH 190900Z AUTO 02002KT 9SM 02/M10 A3012 RMK SLP260 T00241098 57009 IEM_DS3505
ZBHH,2002-12-19 10:00,ZBHH 191000Z AUTO 02002KT 2 1/2SM A3012 RMK IEM_DS3505
ZBHH,2002-12-19 11:00,ZBHH 191100Z AUTO 06006KT 3SM A3012 RMK IEM_DS3505
ZBHH,2002-12-19 12:00,ZBHH 191200Z AUTO 07002KT 9SM M00/M09 A3012 RMK SLP269 T10041089 52002 IEM_DS3505
ZBHH,2002-12-19 13:00,ZBHH 191300Z AUTO 08004KT 4SM A3012 RMK IEM_DS3505
ZBHH,2002-12-19 14:00,ZBHH 191400Z AUTO 07004KT 4SM A3012 RMK IEM_DS3505
ZBHH,2002-12-19 15:00,ZBHH 191500Z AUTO 09004KT 9SM 01/M10 A3012 RMK SLP255 T00071098 57001 IEM_DS3505
ZBHH,2002-12-19 18:00,ZBHH 191800Z AUTO 00000KT 9SM M01/M05 RMK SLP241 T10111051 57003 IEM_DS3505
ZBHH,2002-12-19 21:00,ZBHH 192100Z AUTO 00000KT 9SM M02/M04 A3009 RMK 70003 SLP235 T10171035 57009 IEM_DS3505
ZBHH,2002-12-19 22:00,ZBHH 192200Z AUTO 09006KT 2 1/2SM M03/M06 A3006 RMK T10301060 IEM_DS3505
ZBHH,2002-12-19 23:00,ZBHH 192300Z AUTO 06002KT 2SM M03/M06 A3009 RMK T10301060 IEM_DS3505
ZBHH,2002-12-20 00:00,ZBHH 200000Z AUTO 00000KT 7SM M01/M05 A3009 RMK 60004 70005 SLP249 T10141048 52007 IEM_DS3505
ZBHH,2002-12-20 01:00,ZBHH 200100Z AUTO 09008KT 1 1/2SM M03/M06 A3009 RMK T10301060 IEM_DS3505
ZBHH,2002-12-20 02:00,ZBHH 200200Z AUTO 08006KT 1 1/4SM M04/M05 A3012 RMK T10401050 IEM_DS3505
ZBHH,2002-12-20 03:00,ZBHH 200300Z AUTO 09004KT 4SM M02/M03 A3012 RMK SLP255 T10181026 52007 IEM_DS3505
ZBHH,2002-12-20 04:00,ZBHH 200400Z AUTO 08008KT 1SM M03/M04 A3009 RMK T10301040 IEM_DS3505
ZBHH,2002-12-20 05:00,ZBHH 200500Z AUTO 08006KT 1SM M03/M04 A3009 RMK T10301040 IEM_DS3505
ZBHH,2002-12-20 06:00,ZBHH 200600Z AUTO 09002KT 4SM M01/M02 A3006 RMK 60008 SLP242 T10141025 57015 IEM_DS3505
ZBHH,2002-12-20 07:00,ZBHH 200700Z AUTO 06004KT 1SM M02/M03 A3009 RMK T10201030 IEM_DS3505
ZBHH,2002-12-20 08:00,ZBHH 200800Z AUTO 07002KT 1SM M02/M03 A3009 RMK T10201030 IEM_DS3505
ZBHH,2002-12-20 09:00,ZBHH 200900Z AUTO 07002KT 4SM M01/M02 A3009 RMK SLP256 T10111021 52012 IEM_DS3505
ZBHH,2002-12-20 10:00,ZBHH 201000Z AUTO 00000KT 1SM M02/M03 A3012 RMK T10201030 IEM_DS3505
ZBHH,2002-12-20 11:00,ZBHH 201100Z AUTO 07002KT 1SM M02/M03 A3015 RMK T10201030 IEM_DS3505
ZBHH,2002-12-20 12:00,ZBHH 201200Z AUTO 07002KT 9SM M01/M02 A3015 RMK 60008 SLP269 T10101021 52012 IEM_DS3505
ZBHH,2002-12-20 13:00,ZBHH 201300Z AUTO 00000KT 1SM M03/M03 A3015 RMK T10301030 IEM_DS3505
ZBHH,2002-12-20 14:00,ZBHH 201400Z AUTO 36002KT 1 1/4SM M03/M03 A3015 RMK T10301030 IEM_DS3505
ZBHH,2002-12-20 15:00,ZBHH 201500Z AUTO 07002KT 12SM M01/M02 A3018 RMK SLP276 T10081019 52006 IEM_DS3505
ZBHH,2002-12-20 16:00,ZBHH 201600Z AUTO 09002KT 1SM M04/M04 A3018 RMK T10401040 IEM_DS3505
ZBHH,2002-12-20 17:00,ZBHH 201700Z AUTO 07004KT 1SM M03/M04 A3018 RMK T10301040 IEM_DS3505
ZBHH,2002-12-20 18:00,ZBHH 201800Z AUTO 04002KT 12SM M01/M02 A3018 RMK SLP277 T10111024 52001 IEM_DS3505
ZBHH,2002-12-20 19:00,ZBHH 201900Z AUTO 00000KT 1SM M04/M04 A3018 RMK T10401040 IEM_DS3505
ZBHH,2002-12-20 20:00,ZBHH 202000Z AUTO 08002KT 1SM M04/M05 A3018 RMK T10401050 IEM_DS3505
ZBHH,2002-12-20 21:00,ZBHH 202100Z AUTO 00000KT 12SM M02/M03 A3018 RMK 70018 SLP277 T10151026 54000 IEM_DS3505
ZBHH,2002-12-20 22:00,ZBHH 202200Z AUTO 07004KT 1SM M04/M04 A3018 RMK T10401040 IEM_DS3505
ZBHH,2002-12-20 23:00,ZBHH 202300Z AUTO 08002KT 1SM M03/M04 A3018 RMK T10301040 IEM_DS3505
ZBHH,2002-12-21 00:00,ZBHH 210000Z AUTO 11002KT 9SM M02/M03 A3021 RMK 60004 70019 SLP287 T10161027 52008 IEM_DS3505
ZBHH,2002-12-21 01:00,ZBHH 210100Z AUTO 07002KT 1SM M04/M04 A3021 RMK T10401040 IEM_DS3505
ZBHH,2002-12-21 02:00,ZBHH 210200Z AUTO 10002KT 3/8SM M03/M04 A3021 RMK T10301040 IEM_DS3505
ZBHH,2002-12-21 03:00,ZBHH 210300Z AUTO 00000KT 9SM M01/M02 A3021 RMK SLP290 T10131024 52004 IEM_DS3505
ZBHH,2002-12-21 04:00,ZBHH 210400Z AUTO 16002KT 1SM M02/M03 A3021 RMK T10201030 IEM_DS3505
ZBHH,2002-12-21 05:00,ZBHH 210500Z AUTO 17004KT 1SM M02/M03 A3018 RMK T10201030 IEM_DS3505
ZBHH,2002-12-21 06:00,ZBHH 210600Z AUTO 00000KT 9SM M01/M02 A3018 RMK 60012 SLP275 T10081015 57013 IEM_DS3505
ZBHH,2002-12-21 07:00,ZBHH 210700Z AUTO 17002KT 1SM M02/M03 A3018 RMK T10201030 IEM_DS3505
ZBHH,2002-12-21 08:00,ZBHH 210800Z AUTO 16002KT 1/2SM M02/M02 A3018 RMK T10201020 IEM_DS3505
ZBHH,2002-12-21 09:00,ZBHH 210900Z AUTO 00000KT 6SM M01/M02 A3021 RMK SLP283 T10061015 52007 IEM_DS3505
ZBHH,2002-12-21 10:00,ZBHH 211000Z AUTO 00000KT 3/8SM M02/M03 A3021 RMK T10201030 IEM_DS3505
ZBHH,2002-12-21 11:00,ZBHH 211100Z AUTO 17002KT 1/2SM M02/M03 A3024 RMK T10201030 IEM_DS3505
ZBHH,2002-12-21 12:00,ZBHH 211200Z AUTO 22004KT 6SM M01/M02 A3024 RMK 60004 SLP300 T10081021 52014 IEM_DS3505
ZBHH,2002-12-21 13:00,ZBHH 211300Z AUTO 00000KT 1/2SM M03/M03 A3024 RMK T10301030 IEM_DS3505
ZBHH,2002-12-21 14:00,ZBHH 211400Z AUTO 12002KT 1/2SM M03/M03 A3024 RMK T10301030 IEM_DS3505
ZBHH,2002-12-21 15:00,ZBHH 211500Z AUTO 20002KT 9SM M01/M02 A3024 RMK SLP303 T10071017 52004 IEM_DS3505
ZBHH,2002-12-21 16:00,ZBHH 211600Z AUTO 00000KT 1/2SM M02/M03 A3024 RMK T10201030 IEM_DS3505
ZBHH,2002-12-21 17:00,ZBHH 211700Z AUTO 00000KT 1/2SM M02/M03 A3024 RMK T10201030 IEM_DS3505
ZBHH,2002-12-21 18:00,ZBHH 211800Z AUTO 25004KT 6SM M01/M02 A3024 RMK 60003 SLP300 T10121019 57003 IEM_DS3505
ZBHH,2002-12-21 19:00,ZBHH 211900Z AUTO 22004KT 1/2SM M02/M03 A3024 RMK T10201030 IEM_DS3505
ZBHH,2002-12-21 20:00,ZBHH 212000Z AUTO 23004KT 1SM M05/M05 A3024 RMK T10501050 IEM_DS3505
ZBHH,2002-12-21 21:00,ZBHH 212100Z AUTO 20002KT 3SM M04/M05 A3024 RMK 70024 SLP303 T10421051 57003 IEM_DS3505
ZBHH,2002-12-21 22:00,ZBHH 212200Z AUTO 23006KT 1 1/2SM M06/M08 A3024 RMK T10601080 IEM_DS3505
ZBHH,2002-12-21 23:00,ZBHH 212300Z AUTO 02006KT 2 1/2SM M07/M08 A3024 RMK T10701080 IEM_DS3505
ZBHH,2002-12-22 00:00,ZBHH 220000Z AUTO 32002KT 5SM M06/M10 A3024 RMK 70021 SLP316 T10621098 52006 IEM_DS3505
ZBHH,2002-12-22 01:00,ZBHH 220100Z AUTO 04004KT 3SM M07/M09 A3027 RMK T10701090 IEM_DS3505
ZBHH,2002-12-22 02:00,ZBHH 220200Z AUTO 30004KT 2 1/2SM M07/M09 A3027 RMK T10701090 IEM_DS3505
ZBHH,2002-12-22 03:00,ZBHH 220300Z AUTO 32004KT 6SM M07/M11 A3027 RMK SLP325 T10661108 52007 IEM_DS3505
ZBHH,2002-12-22 04:00,ZBHH 220400Z AUTO 01004KT 7SM M06/M09 A3024 RMK T10601090 IEM_DS3505
ZBHH,2002-12-22 05:00,ZBHH 220500Z AUTO 34004KT 4SM M06/M10 A3024 RMK T10601100 IEM_DS3505
ZBHH,2002-12-22 06:00,ZBHH 220600Z AUTO 32004KT 5SM M07/M11 A3021 RMK 60002 SLP304 T10661108 57019 IEM_DS3505
ZBHH,2002-12-22 07:00,ZBHH 220700Z AUTO 36004KT 1 1/4SM M07/M08 A3021 RMK T10701080 IEM_DS3505
ZBHH,2002-12-22 08:00,ZBHH 220800Z AUTO 36004KT 1 1/2SM M07/M09 A3021 RMK T10701090 IEM_DS3505
ZBHH,2002-12-22 09:00,ZBHH 220900Z AUTO 32002KT 4SM M07/M10 A3024 RMK SLP320 T10741096 52005 IEM_DS3505
ZBHH,2002-12-22 10:00,ZBHH 221000Z AUTO 03006KT 1SM M08/M09 A3024 RMK T10801090 IEM_DS3505
ZBHH,2002-12-22 11:00,ZBHH 221100Z AUTO 01002KT 2SM M08/M09 A3024 RMK T10801090 IEM_DS3505
ZBHH,2002-12-22 12:00,ZBHH 221200Z AUTO 27004KT 7SM M08/M13 A3024 RMK 60008 SLP328 T10821129 52001 IEM_DS3505
ZBHH,2002-12-22 13:00,ZBHH 221300Z AUTO 01004KT 2SM M09/M10 A3024 RMK T10901100 IEM_DS3505
ZBHH,2002-12-22 14:00,ZBHH 221400Z AUTO 01006KT 2SM M10/M12 A3024 RMK T11001120 IEM_DS3505
ZBHH,2002-12-22 15:00,ZBHH 221500Z AUTO 32002KT 7SM M10/M14 A3024 RMK SLP333 T10971139 54000 IEM_DS3505
ZBHH,2002-12-22 16:00,ZBHH 221600Z AUTO 00000KT 2SM M10/M11 A3021 RMK T11001110 IEM_DS3505
ZBHH,2002-12-22 17:00,ZBHH 221700Z AUTO 01008KT 2SM M11/M13 A3021 RMK T11101130 IEM_DS3505
ZBHH,2002-12-22 18:00,ZBHH 221800Z AUTO 29002KT 9SM M10/M14 A3021 RMK 60008 SLP325 T10981135 57007 IEM_DS3505
ZBHH,2002-12-22 19:00,ZBHH 221900Z AUTO 29002KT 2SM M11/M12 A3021 RMK T11101120 IEM_DS3505
ZBHH,2002-12-22 20:00,ZBHH 222000Z AUTO 30002KT 2SM M11/M12 A3021 RMK T11101120 IEM_DS3505
ZBHH,2002-12-22 21:00,ZBHH 222100Z AUTO 00000KT 9SM M10/M13 A3021 RMK 70017 SLP327 T10951131 54000 IEM_DS3505
ZBHH,2002-12-22 22:00,ZBHH 222200Z AUTO 00000KT 1 1/2SM M11/M13 A3021 RMK T11101130 IEM_DS3505
ZBHH,2002-12-22 23:00,ZBHH 222300Z AUTO 24002KT 1 1/2SM M12/M14 A3021 RMK T11201140 IEM_DS3505
ZBHH,2002-12-23 00:00,ZBHH 230000Z AUTO 20006KT 9SM M12/M12 A3024 RMK 60004 70019 SLP349 T11161124 52013 IEM_DS3505
ZBHH,2002-12-23 01:00,ZBHH 230100Z AUTO 22004KT 1SM M14/M16 A3027 RMK T11401160 IEM_DS3505
ZBHH,2002-12-23 02:00,ZBHH 230200Z AUTO 17002KT 1 1/4SM M14/M16 A3027 RMK T11401160 IEM_DS3505
ZBHH,2002-12-23 03:00,ZBHH 230300Z AUTO 18004KT 6SM M12/M13 A3027 RMK SLP361 T11151130 52007 IEM_DS3505
ZBHH,2002-12-23 04:00,ZBHH 230400Z AUTO 22004KT 1 1/4SM M14/M15 A3027 RMK T11401150 IEM_DS3505
ZBHH,2002-12-23 05:00,ZBHH 230500Z AUTO 22002KT 1 1/2SM M13/M15 A3024 RMK T11301150 IEM_DS3505
ZBHH,2002-12-23 06:00,ZBHH 230600Z AUTO 27002KT 6SM M11/M13 A3021 RMK 60002 SLP346 T11131132 57013 IEM_DS3505
ZBHH,2002-12-23 07:00,ZBHH 230700Z AUTO 35004KT 1 1/2SM M14/M17 A3024 RMK T11401170 IEM_DS3505
ZBHH,2002-12-23 08:00,ZBHH 230800Z AUTO 35006KT 7SM M15/M21 A3024 RMK T11501210 IEM_DS3505
ZBHH,2002-12-23 09:00,ZBHH 230900Z AUTO 29006KT 12SM M14/M22 A3027 RMK SLP364 T11361215 52011 IEM_DS3505
ZBHH,2002-12-23 10:00,ZBHH 231000Z AUTO 35010KT 7SM M17/M23 A3027 RMK T11701230 IEM_DS3505
ZBHH,2002-12-23 11:00,ZBHH 231100Z AUTO 36010KT 6SM M18/M23 A3030 RMK T11801230 IEM_DS3505
ZBHH,2002-12-23 12:00,ZBHH 231200Z AUTO 29010KT 19SM M16/M24 A3030 RMK SLP386 T11601244 52009 IEM_DS3505
ZBHH,2002-12-23 13:00,ZBHH 231300Z AUTO 01006KT 7SM M19/M25 A3030 RMK T11901250 IEM_DS3505
ZBHH,2002-12-23 14:00,ZBHH 231400Z AUTO 36006KT 7SM M20/M26 A3030 RMK T12001260 IEM_DS3505
ZBHH,2002-12-23 15:00,ZBHH 231500Z AUTO 32008KT 19SM M18/M25 RMK SLP394 T11761249 52003 IEM_DS3505
ZBHH,2002-12-23 18:00,ZBHH 231800Z AUTO 29006KT 19SM M18/M26 RMK SLP412 T11851257 52014 IEM_DS3505
ZBHH,2002-12-23 21:00,ZBHH 232100Z AUTO 27002KT 19SM M19/M26 A3039 RMK 70005 SLP433 T11911257 52011 IEM_DS3505
ZBHH,2002-12-23 22:00,ZBHH 232200Z AUTO 05002KT 6SM M26/M31 A3039 RMK T12601310 IEM_DS3505
ZBHH,2002-12-23 23:00,ZBHH 232300Z AUTO 03004KT 6SM M23/M28 A3039 RMK T12301280 IEM_DS3505
ZBHH,2002-12-24 00:00,ZBHH 240000Z AUTO 32006KT 19SM M20/M27 A3039 RMK 70003 SLP442 T11951270 52001 IEM_DS3505
ZBHH,2002-12-24 01:00,ZBHH 240100Z AUTO 35008KT 6SM M22/M28 A3042 RMK T12201280 IEM_DS3505
ZBHH,2002-12-24 02:00,ZBHH 240200Z AUTO 00000KT 6SM M23/M29 A3045 RMK T12301290 IEM_DS3505
ZBHH,2002-12-24 03:00,ZBHH 240300Z AUTO 29006KT 19SM M18/M25 A3045 RMK SLP461 T11781254 52017 IEM_DS3505
ZBHH,2002-12-24 04:00,ZBHH 240400Z AUTO 35012KT 6SM M20/M26 A3045 RMK T12001260 IEM_DS3505
ZBHH,2002-12-24 05:00,ZBHH 240500Z AUTO 34008KT 6SM M19/M26 A3045 RMK T11901260 IEM_DS3505
ZBHH,2002-12-24 06:00,ZBHH 240600Z AUTO 27006KT 19SM M17/M24 A3045 RMK SLP468 T11681245 52006 IEM_DS3505
ZBHH,2002-12-24 07:00,ZBHH 240700Z AUTO 6SM M19/M26 A3047 RMK T11901260 IEM_DS3505
ZBHH,2002-12-24 08:00,ZBHH 240800Z AUTO 33008KT 6SM M19/M27 A3047 RMK T11901270 IEM_DS3505
ZBHH,2002-12-24 09:00,ZBHH 240900Z AUTO 29008KT 19SM M17/M26 A3050 RMK SLP487 T11731260 52017 IEM_DS3505
ZBHH,2002-12-24 10:00,ZBHH 241000Z AUTO 02008KT 6SM M20/M27 A3053 RMK T12001270 IEM_DS3505
ZBHH,2002-12-24 11:00,ZBHH 241100Z AUTO 01008KT 6SM M21/M27 A3053 RMK T12101270 IEM_DS3505
ZBHH,2002-12-24 12:00,ZBHH 241200Z AUTO 32006KT 19SM M18/M26 A3056 RMK SLP517 T11841260 52022 IEM_DS3505
ZBHH,2002-12-24 13:00,ZBHH 241300Z AUTO 01010KT 6SM M21/M28 A3059 RMK T12101280 IEM_DS3505
ZBHH,2002-12-24 14:00,ZBHH 241400Z AUTO 01014KT 6SM M21/M28 A3059 RMK T12101280 IEM_DS3505
ZBHH,2002-12-24 15:00,ZBHH 241500Z AUTO 36004KT 19SM M20/M26 A3059 RMK SLP522 T11981263 52005 IEM_DS3505
ZBHH,2002-12-24 16:00,ZBHH 241600Z AUTO 05004KT 6SM M24/M29 A3062 RMK T12401290 IEM_DS3505
ZBHH,2002-12-24 18:00,ZBHH 241800Z AUTO 22002KT 19SM M22/M25 RMK SLP534 T12181253 52008 IEM_DS3505
ZBHH,2002-12-24 21:00,ZBHH 242100Z AUTO 00000KT 19SM M24/M26 A3065 RMK SLP551 T12411258 52008 IEM_DS3505
ZBHH,2002-12-24 22:00,ZBHH 242200Z AUTO 00000KT 6SM M36/M40 A3065 RMK T13601400 IEM_DS3505
ZBHH,2002-12-24 23:00,ZBHH 242300Z AUTO 09002KT 6SM M40/M44 A3068 RMK T14001440 IEM_DS3505
ZBHH,2002-12-25 00:00,ZBHH 250000Z AUTO 00000KT 4SM A3068 RMK SLP569 52012 IEM_DS3505
ZBHH,2002-12-25 01:00,ZBHH 250100Z AUTO 08006KT 5SM M36/M39 A3068 RMK T13601390 IEM_DS3505
ZBHH,2002-12-25 02:00,ZBHH 250200Z AUTO 09004KT 3SM M31/M35 A3071 RMK T13101350 IEM_DS3505
ZBHH,2002-12-25 03:00,ZBHH 250300Z AUTO 11002KT 6SM A3071 RMK SLP577 52012 IEM_DS3505
ZBHH,2002-12-25 04:00,ZBHH 250400Z AUTO 00000KT 6SM M23/M30 A3068 RMK T12301300 IEM_DS3505
ZBHH,2002-12-25 05:00,ZBHH 250500Z AUTO 00000KT 6SM M22/M29 A3068 RMK T12201290 IEM_DS3505
ZBHH,2002-12-25 06:00,ZBHH 250600Z AUTO 27004KT 5SM M19/M23 A3068 RMK SLP555 T11911234 57019 IEM_DS3505
ZBHH,2002-12-25 09:00,ZBHH 250900Z AUTO 32002KT 6SM M20/M23 A3068 RMK SLP566 T11951231 52002 IEM_DS3505
ZBHH,2002-12-25 10:00,ZBHH 251000Z AUTO 00000KT 1 1/4SM M26/M29 A3068 RMK T12601290 IEM_DS3505
ZBHH,2002-12-25 11:00,ZBHH 251100Z AUTO 00000KT 1 1/4SM M30/M34 A3068 RMK T13001340 IEM_DS3505
ZBHH,2002-12-25 12:00,ZBHH 251200Z AUTO 00000KT 6SM A3068 RMK SLP569 57001 IEM_DS3505
ZBHH,2002-12-25 13:00,ZBHH 251300Z AUTO 08004KT 2SM M35/M39 A3068 RMK T13501390 IEM_DS3505
ZBHH,2002-12-25 14:00,ZBHH 251400Z AUTO 06004KT 2 1/2SM M34/M37 A3068 RMK T13401370 IEM_DS3505
ZBHH,2002-12-25 15:00,ZBHH 251500Z AUTO 00000KT 9SM A3068 RMK SLP570 52004 IEM_DS3505
ZBHH,2002-12-25 16:00,ZBHH 251600Z AUTO 07004KT 4SM M37/M41 A3068 RMK T13701410 IEM_DS3505
ZBHH,2002-12-25 17:00,ZBHH 251700Z AUTO 06002KT 4SM M33/M37 A3068 RMK T13301370 IEM_DS3505
ZBHH,2002-12-25 18:00,ZBHH 251800Z AUTO 00000KT 12SM RMK SLP564 57004 IEM_DS3505
ZBHH,2002-12-25 19:00,ZBHH 251900Z AUTO 07004KT 4SM M37/M41 A3068 RMK T13701410 IEM_DS3505
ZBHH,2002-12-25 20:00,ZBHH 252000Z AUTO 00000KT 5SM M36/M40 A3068 RMK T13601400 IEM_DS3505
ZBHH,2002-12-25 21:00,ZBHH 252100Z AUTO 00000KT 12SM A3065 RMK SLP564 57004 IEM_DS3505
ZBHH,2002-12-25 22:00,ZBHH 252200Z AUTO 4SM M36/M40 A3065 RMK T13601400 IEM_DS3505
ZBHH,2002-12-25 23:00,ZBHH 252300Z AUTO 12002KT 4SM M37/M41 A3068 RMK T13701410 IEM_DS3505
ZBHH,2002-12-26 00:00,ZBHH 260000Z AUTO 00000KT 4SM A3068 RMK SLP577 52006 IEM_DS3505
ZBHH,2002-12-26 01:00,ZBHH 260100Z AUTO 00000KT 2 1/2SM M36/M40 A3068 RMK T13601400 IEM_DS3505
ZBHH,2002-12-26 02:00,ZBHH 260200Z AUTO 10002KT 2 1/2SM M32/M35 A3068 RMK T13201350 IEM_DS3505
ZBHH,2002-12-26 03:00,ZBHH 260300Z AUTO 00000KT 5SM A3068 RMK SLP569 52002 IEM_DS3505
ZBHH,2002-12-26 04:00,ZBHH 260400Z AUTO 00000KT 2 1/2SM M24/M27 A3065 RMK T12401270 IEM_DS3505
ZBHH,2002-12-26 05:00,ZBHH 260500Z AUTO 00000KT 2 1/2SM M21/M27 A3062 RMK T12101270 IEM_DS3505
ZBHH,2002-12-26 06:00,ZBHH 260600Z AUTO 22002KT 4SM M20/M23 A3062 RMK SLP549 T12041231 57020 IEM_DS3505
ZBHH,2002-12-26 07:00,ZBHH 260700Z AUTO 19004KT 2 1/2SM M22/M27 A3062 RMK T12201270 IEM_DS3505
ZBHH,2002-12-26 08:00,ZBHH 260800Z AUTO 00000KT 2 1/2SM M22/M28 A3062 RMK T12201280 IEM_DS3505
ZBHH,2002-12-26 09:00,ZBHH 260900Z AUTO 00000KT 3SM M20/M24 A3062 RMK SLP548 T12051237 57004 IEM_DS3505
ZBHH,2002-12-26 10:00,ZBHH 261000Z AUTO 00000KT 1 1/2SM M25/M28 A3059 RMK T12501280 IEM_DS3505
ZBHH,2002-12-26 11:00,ZBHH 261100Z AUTO 00000KT 1 1/2SM M29/M32 A3062 RMK T12901320 IEM_DS3505
ZBHH,2002-12-26 12:00,ZBHH 261200Z AUTO 00000KT 3SM M22/M24 A3062 RMK SLP551 T12171245 57002 IEM_DS3505
ZBHH,2002-12-26 13:00,ZBHH 261300Z AUTO 00000KT 1 1/4SM A3062 RMK IEM_DS3505
ZBHH,2002-12-26 14:00,ZBHH 261400Z AUTO 07002KT 1 1/2SM M35/M39 A3062 RMK T13501390 IEM_DS3505
ZBHH,2002-12-26 15:00,ZBHH 261500Z AUTO 00000KT 3SM A3062 RMK SLP542 52002 IEM_DS3505
ZBHH,2002-12-26 16:00,ZBHH 261600Z AUTO 11002KT 2 1/2SM M37/M41 A3059 RMK T13701410 IEM_DS3505
ZBHH,2002-12-26 17:00,ZBHH 261700Z AUTO 00000KT 2 1/2SM M36/M40 A3056 RMK T13601400 IEM_DS3505
ZBHH,2002-12-26 18:00,ZBHH 261800Z AUTO 00000KT 4SM RMK SLP530 57014 IEM_DS3505
ZBHH,2002-12-26 21:00,ZBHH 262100Z AUTO 00000KT 6SM M25/M28 A3053 RMK SLP518 T12491276 57013 IEM_DS3505
ZBHH,2002-12-26 22:00,ZBHH 262200Z AUTO 36002KT 2 1/2SM M34/M37 A3050 RMK T13401370 IEM_DS3505
ZBHH,2002-12-26 23:00,ZBHH 262300Z AUTO 00000KT 2 1/2SM M37/M41 A3050 RMK T13701410 IEM_DS3505
ZBHH,2002-12-27 00:00,ZBHH 270000Z AUTO 00000KT 3SM A3050 RMK SLP516 57005 IEM_DS3505
ZBHH,2002-12-27 01:00,ZBHH 270100Z AUTO 15002KT 3SM M37/M41 A3050 RMK T13701410 IEM_DS3505
ZBHH,2002-12-27 02:00,ZBHH 270200Z AUTO 00000KT 1SM M32/M36 A3050 RMK T13201360 IEM_DS3505
ZBHH,2002-12-27 03:00,ZBHH 270300Z AUTO 00000KT 1/2SM A3047 RMK SLP501 57007 IEM_DS3505
ZBHH,2002-12-27 04:00,ZBHH 270400Z AUTO 00000KT 1SM M23/M28 A3045 RMK T12301280 IEM_DS3505
ZBHH,2002-12-27 05:00,ZBHH 270500Z AUTO 19002KT 2 1/2SM M23/M29 A3042 RMK T12301290 IEM_DS3505
ZBHH,2002-12-27 06:00,ZBHH 270600Z AUTO 22002KT 1SM M19/M23 A3042 RMK SLP467 T11881228 57026 IEM_DS3505
ZBHH,2002-12-27 07:00,ZBHH 270700Z AUTO 20002KT 2 1/2SM M22/M27 A3042 RMK T12201270 IEM_DS3505
ZBHH,2002-12-27 08:00,ZBHH 270800Z AUTO 15002KT 2SM M23/M28 A3039 RMK T12301280 IEM_DS3505
ZBHH,2002-12-27 09:00,ZBHH 270900Z AUTO 00000KT 5SM M20/M24 A3039 RMK SLP466 T11981236 57005 IEM_DS3505
ZBHH,2002-12-27 10:00,ZBHH 271000Z AUTO 09002KT 1 1/4SM M26/M29 A3039 RMK T12601290 IEM_DS3505
ZBHH,2002-12-27 11:00,ZBHH 271100Z AUTO 00000KT 1SM M29/M32 A3039 RMK T12901320 IEM_DS3505
ZBHH,2002-12-27 12:00,ZBHH 271200Z AUTO 00000KT 5SM M22/M25 A3036 RMK SLP471 T12211253 57003 IEM_DS3505
ZBHH,2002-12-27 13:00,ZBHH 271300Z AUTO 13002KT 1SM A3036 RMK IEM_DS3505
ZBHH,2002-12-27 14:00,ZBHH 271400Z AUTO 11002KT 1SM M36/M40 A3036 RMK T13601400 IEM_DS3505
ZBHH,2002-12-27 15:00,ZBHH 271500Z AUTO 00000KT 3SM A3039 RMK SLP462 54000 IEM_DS3505
ZBHH,2002-12-27 16:00,ZBHH 271600Z AUTO 08004KT 1SM M34/M38 A3036 RMK T13401380 IEM_DS3505
ZBHH,2002-12-27 17:00,ZBHH 271700Z AUTO 02002KT 1SM M34/M39 A3036 RMK T13401390 IEM_DS3505
ZBHH,2002-12-27 18:00,ZBHH 271800Z AUTO 00000KT 6SM A3036 RMK SLP452 57005 IEM_DS3505
ZBHH,2002-12-27 20:00,ZBHH 272000Z AUTO 08002KT 1SM M36/M40 A3033 RMK T13601400 IEM_DS3505
ZBHH,2002-12-27 21:00,ZBHH 272100Z AUTO 00000KT 4SM A3033 RMK SLP443 57012 IEM_DS3505
ZBHH,2002-12-27 22:00,ZBHH 272200Z AUTO 09002KT 1 1/4SM M39/M43 A3033 RMK T13901430 IEM_DS3505
ZBHH,2002-12-27 23:00,ZBHH 272300Z AUTO 00000KT 1 1/4SM M38/M42 A3036 RMK T13801420 IEM_DS3505
ZBHH,2002-12-28 00:00,ZBHH 280000Z AUTO 32002KT 1/4SM A3036 RMK SLP473 52017 IEM_DS3505
ZBHH,2002-12-28 02:00,ZBHH 280200Z AUTO 00000KT 1 1/2SM M32/M35 A3039 RMK T13201350 IEM_DS3505
ZBHH,2002-12-28 03:00,ZBHH 280300Z AUTO 00000KT 1/4SM A3042 RMK SLP479 52011 IEM_DS3505
ZBHH,2002-12-28 04:00,ZBHH 280400Z AUTO 12002KT 2SM M27/M30 A3039 RMK T12701300 IEM_DS3505
ZBHH,2002-12-28 05:00,ZBHH 280500Z AUTO 00000KT 2SM M24/M26 A3036 RMK T12401260 IEM_DS3505
ZBHH,2002-12-28 06:00,ZBHH 280600Z AUTO 00000KT 1/4SM M20/M23 A3036 RMK SLP447 T11981233 57023 IEM_DS3505
ZBHH,2002-12-28 07:00,ZBHH 280700Z AUTO 00000KT 2SM M23/M27 A3033 RMK T12301270 IEM_DS3505
ZBHH,2002-12-28 08:00,ZBHH 280800Z AUTO 00000KT 2SM M23/M27 A3036 RMK T12301270 IEM_DS3505
ZBHH,2002-12-28 09:00,ZBHH 280900Z AUTO 00000KT 3SM M20/M24 A3036 RMK SLP450 T12001240 52001 IEM_DS3505
ZBHH,2002-12-28 10:00,ZBHH 281000Z AUTO 00000KT 2SM M27/M30 A3036 RMK T12701300 IEM_DS3505
ZBHH,2002-12-28 11:00,ZBHH 281100Z AUTO 00000KT 2SM M28/M30 A3036 RMK T12801300 IEM_DS3505
ZBHH,2002-12-28 12:00,ZBHH 281200Z AUTO 00000KT 1 1/4SM M22/M25 A3039 RMK SLP472 T12231249 52010 IEM_DS3505
ZBHH,2002-12-28 13:00,ZBHH 281300Z AUTO 10002KT 1 1/2SM A3039 RMK IEM_DS3505
ZBHH,2002-12-28 14:00,ZBHH 281400Z AUTO 00000KT 1 1/2SM M35/M39 A3039 RMK T13501390 IEM_DS3505
ZBHH,2002-12-28 15:00,ZBHH 281500Z AUTO 00000KT 1SM A3039 RMK SLP473 52004 IEM_DS3505
ZBHH,2002-12-28 16:00,ZBHH 281600Z AUTO 07002KT 2SM M37/M41 A3039 RMK T13701410 IEM_DS3505
ZBHH,2002-12-28 17:00,ZBHH 281700Z AUTO 07002KT 2SM M37/M41 A3036 RMK T13701410 IEM_DS3505
ZBHH,2002-12-28 18:00,ZBHH 281800Z AUTO 00000KT 5SM A3036 RMK SLP456 57010 IEM_DS3505
ZBHH,2002-12-28 19:00,ZBHH 281900Z AUTO 00000KT 2SM M36/M40 A3036 RMK T13601400 IEM_DS3505
ZBHH,2002-12-28 20:00,ZBHH 282000Z AUTO 08002KT 2SM M38/M43 A3033 RMK T13801430 IEM_DS3505
ZBHH,2002-12-28 21:00,ZBHH 282100Z AUTO 00000KT 6SM A3033 RMK SLP443 57012 IEM_DS3505
ZBHH,2002-12-28 22:00,ZBHH 282200Z AUTO 35002KT 2SM M35/M39 A3033 RMK T13501390 IEM_DS3505
ZBHH,2002-12-28 23:00,ZBHH 282300Z AUTO 09002KT 3SM M39/M43 A3030 RMK T13901430 IEM_DS3505
ZBHH,2002-12-29 00:00,ZBHH 290000Z AUTO 00000KT 4SM A3030 RMK SLP451 57001 IEM_DS3505
ZBHH,2002-12-29 01:00,ZBHH 290100Z AUTO 05002KT 1 1/4SM M36/M40 A3033 RMK T13601400 IEM_DS3505
ZBHH,2002-12-29 02:00,ZBHH 290200Z AUTO 11002KT 2SM M32/M36 A3033 RMK T13201360 IEM_DS3505
ZBHH,2002-12-29 03:00,ZBHH 290300Z AUTO 00000KT 3SM A3030 RMK SLP443 54000 IEM_DS3505
ZBHH,2002-12-29 04:00,ZBHH 290400Z AUTO 00000KT 3SM M22/M29 A3027 RMK T12201290 IEM_DS3505
ZBHH,2002-12-29 05:00,ZBHH 290500Z AUTO 13002KT 3SM M22/M29 A3027 RMK T12201290 IEM_DS3505
ZBHH,2002-12-29 06:00,ZBHH 290600Z AUTO 29002KT 5SM M18/M22 A3024 RMK SLP414 T11811222 57019 IEM_DS3505
ZBHH,2002-12-29 07:00,ZBHH 290700Z AUTO 00000KT 2 1/2SM M20/M27 A3024 RMK T12001270 IEM_DS3505
ZBHH,2002-12-29 08:00,ZBHH 290800Z AUTO 00000KT 2 1/2SM M20/M27 A3024 RMK T12001270 IEM_DS3505
ZBHH,2002-12-29 09:00,ZBHH 290900Z AUTO 00000KT 5SM M19/M22 A3024 RMK SLP413 T11881225 57003 IEM_DS3505
ZBHH,2002-12-29 10:00,ZBHH 291000Z AUTO 01002KT 1 1/2SM M24/M28 A3024 RMK T12401280 IEM_DS3505
ZBHH,2002-12-29 11:00,ZBHH 291100Z AUTO 00000KT 1 1/2SM M28/M31 A3024 RMK T12801310 IEM_DS3505
ZBHH,2002-12-29 12:00,ZBHH 291200Z AUTO 00000KT 4SM M20/M24 A3024 RMK SLP419 T12021239 57001 IEM_DS3505
ZBHH,2002-12-29 13:00,ZBHH 291300Z AUTO 00000KT 1 1/2SM M32/M35 A3024 RMK T13201350 IEM_DS3505
ZBHH,2002-12-29 14:00,ZBHH 291400Z AUTO 09002KT 1 1/2SM M33/M36 A3024 RMK T13301360 IEM_DS3505
ZBHH,2002-12-29 15:00,ZBHH 291500Z AUTO 00000KT 4SM A3024 RMK SLP413 52004 IEM_DS3505
ZBHH,2002-12-29 16:00,ZBHH 291600Z AUTO 13002KT 1 1/2SM M32/M35 A3024 RMK T13201350 IEM_DS3505
ZBHH,2002-12-29 17:00,ZBHH 291700Z AUTO 34002KT 1 1/2SM M30/M34 A3024 RMK T13001340 IEM_DS3505
ZBHH,2002-12-29 18:00,ZBHH 291800Z AUTO 00000KT 4SM M22/ A3024 RMK SLP404 57001 IEM_DS3505
ZBHH,2002-12-29 19:00,ZBHH 291900Z AUTO 09004KT 1 1/2SM A3024 RMK IEM_DS3505
ZBHH,2002-12-29 20:00,ZBHH 292000Z AUTO 09002KT 1 1/2SM M32/M35 A3024 RMK T13201350 IEM_DS3505
ZBHH,2002-12-29 21:00,ZBHH 292100Z AUTO 00000KT 5SM A3024 RMK SLP410 57001 IEM_DS3505
ZBHH,2002-12-29 22:00,ZBHH 292200Z AUTO 09002KT 2SM M37/M41 A3024 RMK T13701410 IEM_DS3505
ZBHH,2002-12-29 23:00,ZBHH 292300Z AUTO 08002KT 2SM M35/M39 A3027 RMK T13501390 IEM_DS3505
ZBHH,2002-12-30 00:00,ZBHH 300000Z AUTO 00000KT 2SM A3027 RMK SLP427 52011 IEM_DS3505
ZBHH,2002-12-30 01:00,ZBHH 300100Z AUTO 00000KT 1SM M34/M38 A3030 RMK T13401380 IEM_DS3505
ZBHH,2002-12-30 02:00,ZBHH 300200Z AUTO 10002KT 1SM M32/M36 A3030 RMK T13201360 IEM_DS3505
ZBHH,2002-12-30 03:00,ZBHH 300300Z AUTO 00000KT 3SM A3030 RMK SLP430 52010 IEM_DS3505
ZBHH,2002-12-30 04:00,ZBHH 300400Z AUTO 00000KT 1SM M21/M28 A3030 RMK T12101280 IEM_DS3505
ZBHH,2002-12-30 05:00,ZBHH 300500Z AUTO 00000KT 1 1/4SM M20/M26 A3030 RMK T12001260 IEM_DS3505
ZBHH,2002-12-30 06:00,ZBHH 300600Z AUTO 14002KT 3SM M18/M22 A3027 RMK SLP414 T11781219 57011 IEM_DS3505
ZBHH,2002-12-30 07:00,ZBHH 300700Z AUTO 15002KT 1SM M21/M25 A3030 RMK T12101250 IEM_DS3505
ZBHH,2002-12-30 08:00,ZBHH 300800Z AUTO 00000KT 1SM M21/M25 A3030 RMK T12101250 IEM_DS3505
ZBHH,2002-12-30 09:00,ZBHH 300900Z AUTO 00000KT 2SM M19/M23 A3030 RMK SLP429 T11901227 52006 IEM_DS3505
ZBHH,2002-12-30 10:00,ZBHH 301000Z AUTO 02002KT 1SM M24/M26 A3030 RMK T12401260 IEM_DS3505
ZBHH,2002-12-30 11:00,ZBHH 301100Z AUTO 02002KT 1SM M27/M29 A3033 RMK T12701290 IEM_DS3505
ZBHH,2002-12-30 12:00,ZBHH 301200Z AUTO 00000KT 2 1/2SM M21/M24 A3033 RMK SLP443 T12061235 52008 IEM_DS3505
ZBHH,2002-12-30 13:00,ZBHH 301300Z AUTO 06004KT 1SM A3033 RMK IEM_DS3505
ZBHH,2002-12-30 14:00,ZBHH 301400Z AUTO 07004KT 1SM M29/M32 A3033 RMK T12901320 IEM_DS3505
ZBHH,2002-12-30 15:00,ZBHH 301500Z AUTO 00000KT 2SM M22/M24 A3033 RMK SLP446 T12191245 52008 IEM_DS3505
ZBHH,2002-12-30 18:00,ZBHH 301800Z AUTO 00000KT 3SM M23/M26 A3033 RMK SLP438 T12331258 57003 IEM_DS3505
ZBHH,2002-12-30 19:00,ZBHH 301900Z AUTO 07004KT 1SM A3033 RMK IEM_DS3505
ZBHH,2002-12-30 20:00,ZBHH 302000Z AUTO 03002KT 1SM M30/M34 A3033 RMK T13001340 IEM_DS3505
ZBHH,2002-12-30 21:00,ZBHH 302100Z AUTO 00000KT 3SM M24/M27 A3030 RMK SLP434 T12431270 57009 IEM_DS3505
ZBHH,2002-12-30 22:00,ZBHH 302200Z AUTO 08002KT 1 1/4SM A3030 RMK IEM_DS3505
ZBHH,2002-12-30 23:00,ZBHH 302300Z AUTO 00000KT 1 1/4SM M33/M37 A3030 RMK T13301370 IEM_DS3505
