station,valid,metar
ZLIC,2016-06-24 08:00,ZLIC 240800Z 01005MPS 340V040 CAVOK 28/05 Q1013 BECMG TL0845 BLDU
