station,valid,metar
ZLIC,2024-01-19 06:00,ZLIC 190600Z 20004MPS 5000 BR NSC 04/M02 Q1019 NOSIG
ZLIC,2024-01-21 09:00,ZLIC 210900Z 35002MPS 290V030 CAVOK M10/M20 Q1040 NOSIG
ZLIC,2024-02-13 23:00,ZLIC 132300Z 10002MPS 030V140 CAVOK 00/M21 Q1027 NOSIG
ZLIC,2024-02-28 00:00,ZLIC 280000Z 05003MPS 8000 NSC M05/M07 Q1023 NOSIG
