station,valid,metar
ZHXF,2013-07-26 16:00,ZHXF 261600Z 15002MPS NSC 28/26 Q1002 NOSIG
ZHXF,2013-10-05 20:00,ZHXF 052000Z AUTO 30002MPS //// // //// 16/00 Q1019
ZHXF,2013-10-15 23:00,ZHXF 152300Z 35001MPS CAVOK 12/09 Q1028 NOSIG
ZHXF,2013-10-17 04:00,ZHXF 170400Z 12001MPS 9999 FEW025 18/11 Q1027 NOSIG
