station,valid,metar
ZHXF,2014-08-11 20:00,ZHXF 112000Z 25001MPS CAVOK 21/21 Q1005 NOSIG
ZHXF,2014-08-11 21:00,ZHXF 112100Z 26001MPS CAVOK 21/21 Q1005 NOSIG
ZHXF,2014-08-23 01:00,ZHXF 230100Z 29002MPS CAVOK 25/23 Q1008 NOSIG
