station,valid,metar
ZHHH,2008-01-01 00:00,ZHHH 010000Z AUTO 04002KT 14SM M00/M04 A3056 RMK SLP357 T10041043 52015 IEM_DS3505
ZHHH,2008-01-01 01:00,ZHHH 010100Z AUTO 05004KT 6SM 00/M06 A3059 RMK T00001060 IEM_DS3505
ZHHH,2008-01-01 02:00,ZHHH 010200Z AUTO 07004KT 6SM 03/M04 A3062 RMK T00301040 IEM_DS3505
ZHHH,2008-01-01 03:00,ZHHH 010300Z AUTO 09004KT 16SM 06/M08 A3059 RMK SLP368 T00561079 52011 IEM_DS3505
ZHHH,2008-01-01 04:00,ZHHH 010400Z AUTO 03006KT 6SM 07/M12 A3056 RMK T00701120 IEM_DS3505
ZHHH,2008-01-01 05:00,ZHHH 010500Z AUTO 30006KT 6SM 08/M10 A3056 RMK T00801100 IEM_DS3505
ZHHH,2008-01-01 06:00,ZHHH 010600Z AUTO 02004KT 16SM 08/M13 A3053 RMK SLP344 T00791131 57024 IEM_DS3505
ZHHH,2008-01-01 07:00,ZHHH 010700Z AUTO 6SM 09/M11 A3050 RMK T00901110 IEM_DS3505
ZHHH,2008-01-01 08:00,ZHHH 010800Z AUTO 04006KT 6SM 08/M12 A3050 RMK T00801120 IEM_DS3505
ZHHH,2008-01-01 09:00,ZHHH 010900Z AUTO 27002KT 12SM 07/M11 A3050 RMK SLP335 T00741113 57009 IEM_DS3505
ZHHH,2008-01-01 10:00,ZHHH 011000Z AUTO 04006KT 6SM 05/M11 A3053 RMK T00501110 IEM_DS3505
ZHHH,2008-01-01 11:00,ZHHH 011100Z AUTO 07008KT 6SM 04/M10 A3053 RMK T00401100 IEM_DS3505
ZHHH,2008-01-01 12:00,ZHHH 011200Z AUTO 07002KT 11SM 04/M09 A3053 RMK SLP343 T00351088 52008 IEM_DS3505
ZHHH,2008-01-01 13:00,ZHHH 011300Z AUTO 05008KT 6SM 02/M09 A3053 RMK T00201090 IEM_DS3505
ZHHH,2008-01-01 14:00,ZHHH 011400Z AUTO 07008KT 6SM 02/M09 A3053 RMK T00201090 IEM_DS3505
ZHHH,2008-01-01 15:00,ZHHH 011500Z AUTO 00000KT 9SM 02/M09 A3053 RMK SLP347 T00161088 52004 IEM_DS3505
ZHHH,2008-01-01 16:00,ZHHH 011600Z AUTO 02002KT 6SM 00/M09 A3056 RMK T00001090 IEM_DS3505
ZHHH,2008-01-01 17:00,ZHHH 011700Z AUTO 06004KT 6SM 00/M09 A3053 RMK T00001090 IEM_DS3505
ZHHH,2008-01-01 18:00,ZHHH 011800Z AUTO 27002KT 9SM M01/M06 A3053 RMK SLP344 T10101062 57003 IEM_DS3505
ZHHH,2008-01-01 19:00,ZHHH 011900Z AUTO 02004KT 6SM M01/M09 A3053 RMK T10101090 IEM_DS3505
ZHHH,2008-01-01 20:00,ZHHH 012000Z AUTO 00000KT 6SM M02/M07 A3050 RMK T10201070 IEM_DS3505
ZHHH,2008-01-01 21:00,ZHHH 012100Z AUTO 00000KT 9SM M01/M05 A3050 RMK SLP335 T10131052 57009 IEM_DS3505
ZHHH,2008-01-01 22:00,ZHHH 012200Z AUTO 07004KT 6SM M01/M07 A3050 RMK T10101070 IEM_DS3505
ZHHH,2008-01-01 23:00,ZHHH 012300Z AUTO 12004KT 6SM M02/M06 A3053 RMK T10201060 IEM_DS3505
ZHHH,2008-01-02 00:00,ZHHH 020000Z AUTO 11002KT 11SM M00/M06 A3053 RMK SLP342 T10011065 52007 IEM_DS3505
ZHHH,2008-01-02 01:00,ZHHH 020100Z AUTO 11004KT 4SM 01/M06 A3053 RMK T00101060 IEM_DS3505
ZHHH,2008-01-02 02:00,ZHHH 020200Z AUTO 12004KT 6SM 03/M05 A3053 RMK T00301050 IEM_DS3505
ZHHH,2008-01-02 03:00,ZHHH 020300Z AUTO 04002KT 7SM 06/M10 A3053 RMK SLP340 T00601098 57002 IEM_DS3505
ZHHH,2008-01-02 04:00,ZHHH 020400Z AUTO 15004KT 6SM 06/M08 A3050 RMK T00601080 IEM_DS3505
ZHHH,2008-01-02 05:00,ZHHH 020500Z AUTO 6SM 08/M07 A3045 RMK T00801070 IEM_DS3505
ZHHH,2008-01-02 06:00,ZHHH 020600Z AUTO 25002KT 11SM 09/M11 A3042 RMK SLP303 T00881112 57037 IEM_DS3505
ZHHH,2008-01-02 07:00,ZHHH 020700Z AUTO 6SM 08/M10 A3039 RMK T00801100 IEM_DS3505
ZHHH,2008-01-02 08:00,ZHHH 020800Z AUTO 12004KT 6SM 08/M09 A3039 RMK T00801090 IEM_DS3505
ZHHH,2008-01-02 09:00,ZHHH 020900Z AUTO 07002KT 9SM 08/M09 A3036 RMK SLP286 T00751094 57017 IEM_DS3505
ZHHH,2008-01-02 10:00,ZHHH 021000Z AUTO 11004KT 6SM 06/M07 A3039 RMK T00601070 IEM_DS3505
ZHHH,2008-01-02 11:00,ZHHH 021100Z AUTO 09006KT 6SM 05/M06 A3039 RMK T00501060 IEM_DS3505
ZHHH,2008-01-02 12:00,ZHHH 021200Z AUTO 00000KT 11SM 03/M05 A3039 RMK SLP296 T00281051 52010 IEM_DS3505
ZHHH,2008-01-02 13:00,ZHHH 021300Z AUTO 4SM 04/M06 A3042 RMK T00401060 IEM_DS3505
ZHHH,2008-01-02 14:00,ZHHH 021400Z AUTO 08004KT 4SM 04/M06 A3042 RMK T00401060 IEM_DS3505
ZHHH,2008-01-02 15:00,ZHHH 021500Z AUTO 00000KT 11SM 00/M03 A3042 RMK SLP304 T00011026 52008 IEM_DS3505
ZHHH,2008-01-02 16:00,ZHHH 021600Z AUTO 3SM 02/M06 A3042 RMK T00201060 IEM_DS3505
ZHHH,2008-01-02 17:00,ZHHH 021700Z AUTO 3SM 01/M06 A3039 RMK T00101060 IEM_DS3505
ZHHH,2008-01-02 18:00,ZHHH 021800Z AUTO 09002KT 11SM M00/M02 A3039 RMK SLP291 T10051022 57013 IEM_DS3505
ZHHH,2008-01-02 19:00,ZHHH 021900Z AUTO 08004KT 5SM 01/M05 A3039 RMK T00101050 IEM_DS3505
ZHHH,2008-01-02 20:00,ZHHH 022000Z AUTO 5SM M01/M05 A3039 RMK T10101050 IEM_DS3505
ZHHH,2008-01-02 21:00,ZHHH 022100Z AUTO 00000KT 11SM M01/M03 A3039 RMK SLP290 T10111027 57001 IEM_DS3505
ZHHH,2008-01-02 22:00,ZHHH 022200Z AUTO 08006KT 4SM 00/M04 A3039 RMK T00001040 IEM_DS3505
ZHHH,2008-01-02 23:00,ZHHH 022300Z AUTO 3SM M01/M04 A3039 RMK T10101040 IEM_DS3505
ZHHH,2008-01-03 00:00,ZHHH 030000Z AUTO 00000KT 9SM M01/M02 A3042 RMK SLP297 T10071020 52007 IEM_DS3505
ZHHH,2008-01-03 01:00,ZHHH 030100Z AUTO 09004KT 1 1/2SM 00/M03 A3042 RMK T00001030 IEM_DS3505
ZHHH,2008-01-03 02:00,ZHHH 030200Z AUTO 11004KT 2SM 04/M02 A3042 RMK T00401020 IEM_DS3505
ZHHH,2008-01-03 03:00,ZHHH 030300Z AUTO 18002KT 7SM 08/M04 A3042 RMK SLP306 T00791036 52009 IEM_DS3505
ZHHH,2008-01-03 04:00,ZHHH 030400Z AUTO 4SM 08/M03 A3039 RMK T00801030 IEM_DS3505
ZHHH,2008-01-03 05:00,ZHHH 030500Z AUTO 30004KT 4SM 10/M04 A3036 RMK T01001040 IEM_DS3505
ZHHH,2008-01-03 06:00,ZHHH 030600Z AUTO 32002KT 9SM 11/M06 A3033 RMK SLP268 T01071062 57037 IEM_DS3505
ZHHH,2008-01-03 07:00,ZHHH 030700Z AUTO 30004KT 4SM 11/M03 A3030 RMK T01101030 IEM_DS3505
ZHHH,2008-01-03 08:00,ZHHH 030800Z AUTO 28004KT 4SM 10/M04 A3030 RMK T01001040 IEM_DS3505
ZHHH,2008-01-03 09:00,ZHHH 030900Z AUTO 29002KT 7SM 09/M07 A3030 RMK SLP259 T00891069 57010 IEM_DS3505
ZHHH,2008-01-03 10:00,ZHHH 031000Z AUTO 25002KT 4SM 08/M04 A3030 RMK T00801040 IEM_DS3505
ZHHH,2008-01-03 11:00,ZHHH 031100Z AUTO 32002KT 4SM 08/M02 A3030 RMK T00801020 IEM_DS3505
ZHHH,2008-01-03 12:00,ZHHH 031200Z AUTO 00000KT 9SM 07/M04 A3030 RMK SLP263 T00701035 52004 IEM_DS3505
ZHHH,2008-01-03 13:00,ZHHH 031300Z AUTO 35002KT 3SM 07/M02 A3030 RMK T00701020 IEM_DS3505
ZHHH,2008-01-03 14:00,ZHHH 031400Z AUTO 01004KT 3SM 07/M02 A3033 RMK T00701020 IEM_DS3505
ZHHH,2008-01-03 15:00,ZHHH 031500Z AUTO 27002KT 9SM 07/M02 A3033 RMK SLP275 T00671015 52013 IEM_DS3505
ZHHH,2008-01-03 16:00,ZHHH 031600Z AUTO 00000KT 3SM 06/M01 A3033 RMK T00601010 IEM_DS3505
ZHHH,2008-01-03 17:00,ZHHH 031700Z AUTO 05002KT 2 1/2SM 06/M03 A3033 RMK T00601030 IEM_DS3505
ZHHH,2008-01-03 18:00,ZHHH 031800Z AUTO 07002KT 11SM 06/M02 A3030 RMK SLP265 T00641020 57010 IEM_DS3505
ZHHH,2008-01-03 19:00,ZHHH 031900Z AUTO 10004KT 2 1/2SM 05/M01 A3030 RMK T00501010 IEM_DS3505
ZHHH,2008-01-03 20:00,ZHHH 032000Z AUTO 07006KT 2 1/2SM 05/M02 A3030 RMK T00501020 IEM_DS3505
ZHHH,2008-01-03 21:00,ZHHH 032100Z AUTO 04002KT 11SM 06/M04 A3027 RMK SLP255 T00561035 57010 IEM_DS3505
ZHHH,2008-01-03 22:00,ZHHH 032200Z AUTO 10004KT 2 1/2SM 05/M02 A3030 RMK T00501020 IEM_DS3505
ZHHH,2008-01-03 23:00,ZHHH 032300Z AUTO 11004KT 2 1/2SM 05/M01 A3030 RMK T00501010 IEM_DS3505
ZHHH,2008-01-04 00:00,ZHHH 040000Z AUTO 07002KT 11SM 06/M04 A3033 RMK SLP267 T00591043 52012 IEM_DS3505
ZHHH,2008-01-04 01:00,ZHHH 040100Z AUTO 14004KT 2 1/2SM 05/M01 A3033 RMK T00501010 IEM_DS3505
ZHHH,2008-01-04 02:00,ZHHH 040200Z AUTO 10004KT 2 1/2SM 06/M01 A3036 RMK T00601010 IEM_DS3505
ZHHH,2008-01-04 03:00,ZHHH 040300Z AUTO 34002KT 7SM 08/M03 A3036 RMK SLP275 T00781031 52008 IEM_DS3505
ZHHH,2008-01-04 04:00,ZHHH 040400Z AUTO 32004KT 3SM 08/M03 A3030 RMK T00801030 IEM_DS3505
ZHHH,2008-01-04 05:00,ZHHH 040500Z AUTO 34004KT 3SM 08/M02 A3027 RMK T00801020 IEM_DS3505
ZHHH,2008-01-04 06:00,ZHHH 040600Z AUTO 04002KT 9SM 08/M04 A3024 RMK SLP245 T00841038 57030 IEM_DS3505
ZHHH,2008-01-04 07:00,ZHHH 040700Z AUTO 3SM 09/M03 A3024 RMK T00901030 IEM_DS3505
ZHHH,2008-01-04 08:00,ZHHH 040800Z AUTO 27002KT 3SM 09/M01 A3024 RMK T00901010 IEM_DS3505
ZHHH,2008-01-04 09:00,ZHHH 040900Z AUTO 22002KT 7SM 09/M02 A3027 RMK SLP248 T00861021 52003 IEM_DS3505
ZHHH,2008-01-04 10:00,ZHHH 041000Z AUTO 27002KT 2SM 08/01 A3027 RMK T00800010 IEM_DS3505
ZHHH,2008-01-04 11:00,ZHHH 041100Z AUTO 33002KT 2SM 07/00 A3027 RMK T00700000 IEM_DS3505
ZHHH,2008-01-04 12:00,ZHHH 041200Z AUTO 22002KT 6SM 07/M00 A3030 RMK SLP256 T00691001 52008 IEM_DS3505
ZHHH,2008-01-04 13:00,ZHHH 041300Z AUTO 32002KT 1 1/4SM 07/00 A3030 RMK T00700000 IEM_DS3505
ZHHH,2008-01-04 14:00,ZHHH 041400Z AUTO 27002KT 1SM 07/01 A3030 RMK T00700010 IEM_DS3505
ZHHH,2008-01-04 15:00,ZHHH 041500Z AUTO 29002KT 6SM 07/M01 A3033 RMK SLP272 T00701014 52016 IEM_DS3505
ZHHH,2008-01-04 16:00,ZHHH 041600Z AUTO 34002KT 1SM 06/01 A3033 RMK T00600010 IEM_DS3505
ZHHH,2008-01-04 17:00,ZHHH 041700Z AUTO 32002KT 1SM 05/00 A3030 RMK T00500000 IEM_DS3505
ZHHH,2008-01-04 18:00,ZHHH 041800Z AUTO 00000KT 9SM 02/M01 A3030 RMK SLP259 T00251006 57013 IEM_DS3505
ZHHH,2008-01-04 19:00,ZHHH 041900Z AUTO 18002KT 1SM 04/01 A3027 RMK T00400010 IEM_DS3505
ZHHH,2008-01-04 20:00,ZHHH 042000Z AUTO 21002KT 1SM 04/00 A3027 RMK T00400000 IEM_DS3505
ZHHH,2008-01-04 21:00,ZHHH 042100Z AUTO 22002KT 6SM 02/00 A3027 RMK SLP254 T00230002 57005 IEM_DS3505
ZHHH,2008-01-04 22:00,ZHHH 042200Z AUTO 21002KT 1SM 03/01 A3027 RMK T00300010 IEM_DS3505
ZHHH,2008-01-04 23:00,ZHHH 042300Z AUTO 00000KT 1SM 02/00 A3027 RMK T00200000 IEM_DS3505
ZHHH,2008-01-05 00:00,ZHHH 050000Z AUTO 22002KT 6SM 02/00 A3030 RMK SLP260 T00200004 52005 IEM_DS3505
ZHHH,2008-01-05 01:00,ZHHH 050100Z AUTO 1SM 03/01 A3030 RMK T00300010 IEM_DS3505
ZHHH,2008-01-05 02:00,ZHHH 050200Z AUTO 1SM 06/02 A3030 RMK T00600020 IEM_DS3505
ZHHH,2008-01-05 03:00,ZHHH 050300Z AUTO 22002KT 7SM 10/M01 A3030 RMK SLP261 T01001011 52002 IEM_DS3505
ZHHH,2008-01-05 04:00,ZHHH 050400Z AUTO 1 1/2SM 11/00 A3027 RMK T01100000 IEM_DS3505
ZHHH,2008-01-05 05:00,ZHHH 050500Z AUTO 21004KT 1 1/2SM 11/M02 A3021 RMK T01101020 IEM_DS3505
ZHHH,2008-01-05 06:00,ZHHH 050600Z AUTO 11004KT 7SM 13/M04 A3018 RMK SLP222 T01271044 57039 IEM_DS3505
ZHHH,2008-01-05 07:00,ZHHH 050700Z AUTO 1 1/4SM 12/00 A3015 RMK T01200000 IEM_DS3505
ZHHH,2008-01-05 08:00,ZHHH 050800Z AUTO 11004KT 1 1/4SM 12/M01 A3015 RMK T01201010 IEM_DS3505
ZHHH,2008-01-05 09:00,ZHHH 050900Z AUTO 09002KT 7SM 12/M04 A3015 RMK SLP207 T01191035 57015 IEM_DS3505
ZHHH,2008-01-05 10:00,ZHHH 051000Z AUTO 11006KT 1 1/2SM 10/M02 A3015 RMK T01001020 IEM_DS3505
ZHHH,2008-01-05 11:00,ZHHH 051100Z AUTO 10006KT 1 1/4SM 09/01 A3012 RMK T00900010 IEM_DS3505
ZHHH,2008-01-05 12:00,ZHHH 051200Z AUTO 09002KT 7SM 06/M00 A3015 RMK SLP205 T00551003 57002 IEM_DS3505
ZHHH,2008-01-05 13:00,ZHHH 051300Z AUTO 12006KT 1 1/4SM 08/00 A3015 RMK T00800000 IEM_DS3505
ZHHH,2008-01-05 14:00,ZHHH 051400Z AUTO 10004KT 1 1/2SM 07/00 A3015 RMK T00700000 IEM_DS3505
ZHHH,2008-01-05 15:00,ZHHH 051500Z AUTO 00000KT 7SM 04/00 A3015 RMK SLP205 T00410004 54000 IEM_DS3505
ZHHH,2008-01-05 16:00,ZHHH 051600Z AUTO 06006KT 1 1/4SM 06/M01 A3015 RMK T00601010 IEM_DS3505
ZHHH,2008-01-05 17:00,ZHHH 051700Z AUTO 07006KT 1 1/2SM 05/M01 A3015 RMK T00501010 IEM_DS3505
ZHHH,2008-01-05 18:00,ZHHH 051800Z AUTO 04002KT 6SM 05/M01 A3012 RMK SLP204 T00521008 57001 IEM_DS3505
ZHHH,2008-01-05 19:00,ZHHH 051900Z AUTO 12004KT 1 1/2SM 04/M01 A3012 RMK T00401010 IEM_DS3505
ZHHH,2008-01-05 20:00,ZHHH 052000Z AUTO 11008KT 1 1/2SM 04/00 A3009 RMK T00400000 IEM_DS3505
ZHHH,2008-01-05 21:00,ZHHH 052100Z AUTO 00000KT 5SM 03/M00 A3009 RMK SLP191 T00331003 57013 IEM_DS3505
ZHHH,2008-01-05 22:00,ZHHH 052200Z AUTO 10006KT 1SM 04/00 A3009 RMK T00400000 IEM_DS3505
ZHHH,2008-01-05 23:00,ZHHH 052300Z AUTO 10006KT 1SM 03/M01 A3009 RMK T00301010 IEM_DS3505
ZHHH,2008-01-06 00:00,ZHHH 060000Z AUTO 14002KT 7SM 03/00 A3012 RMK SLP199 T00280002 52008 IEM_DS3505
ZHHH,2008-01-06 01:00,ZHHH 060100Z AUTO 10004KT 1SM 05/01 A3012 RMK T00500010 IEM_DS3505
ZHHH,2008-01-06 02:00,ZHHH 060200Z AUTO 13004KT 1 1/4SM 06/02 A3015 RMK T00600020 IEM_DS3505
ZHHH,2008-01-06 03:00,ZHHH 060300Z AUTO 14004KT 7SM 09/00 A3015 RMK SLP210 T00860001 52011 IEM_DS3505
ZHHH,2008-01-06 04:00,ZHHH 060400Z AUTO 1 1/4SM 08/02 A3012 RMK T00800020 IEM_DS3505
ZHHH,2008-01-06 05:00,ZHHH 060500Z AUTO 1 1/4SM 08/03 A3009 RMK T00800030 IEM_DS3505
ZHHH,2008-01-06 06:00,ZHHH 060600Z AUTO 14002KT 7SM 10/02 A3006 RMK SLP185 T00950017 57025 IEM_DS3505
ZHHH,2008-01-06 07:00,ZHHH 060700Z AUTO 11004KT 1SM 09/03 A3006 RMK T00900030 IEM_DS3505
ZHHH,2008-01-06 08:00,ZHHH 060800Z AUTO 11004KT 1SM 10/03 A3006 RMK T01000030 IEM_DS3505
ZHHH,2008-01-06 09:00,ZHHH 060900Z AUTO 09002KT 7SM 10/02 A3009 RMK SLP188 T01030017 52003 IEM_DS3505
ZHHH,2008-01-06 10:00,ZHHH 061000Z AUTO 11006KT 1SM 08/04 A3009 RMK T00800040 IEM_DS3505
ZHHH,2008-01-06 11:00,ZHHH 061100Z AUTO 12006KT 1SM 08/04 A3012 RMK T00800040 IEM_DS3505
ZHHH,2008-01-06 12:00,ZHHH 061200Z AUTO 09002KT 5SM 06/02 A3015 RMK SLP209 T00570020 52021 IEM_DS3505
ZHHH,2008-01-06 13:00,ZHHH 061300Z AUTO 13004KT 1SM 06/03 A3015 RMK T00600030 IEM_DS3505
ZHHH,2008-01-06 14:00,ZHHH 061400Z AUTO 29002KT 1SM 05/03 A3021 RMK T00500030 IEM_DS3505
ZHHH,2008-01-06 15:00,ZHHH 061500Z AUTO 00000KT 4SM 04/02 A3021 RMK SLP229 T00360023 52020 IEM_DS3505
ZHHH,2008-01-06 16:00,ZHHH 061600Z AUTO 05004KT 1SM 06/03 A3021 RMK T00600030 IEM_DS3505
ZHHH,2008-01-06 17:00,ZHHH 061700Z AUTO 1SM 05/02 A3021 RMK T00500020 IEM_DS3505
ZHHH,2008-01-06 18:00,ZHHH 061800Z AUTO 00000KT 4SM 03/02 A3021 RMK SLP229 T00280019 54000 IEM_DS3505
ZHHH,2008-01-06 19:00,ZHHH 061900Z AUTO 06004KT 1SM 04/02 A3021 RMK T00400020 IEM_DS3505
ZHHH,2008-01-06 20:00,ZHHH 062000Z AUTO 04004KT 1SM 04/01 A3021 RMK T00400010 IEM_DS3505
ZHHH,2008-01-06 21:00,ZHHH 062100Z AUTO 02002KT 6SM 03/02 A3021 RMK SLP235 T00320019 52006 IEM_DS3505
ZHHH,2008-01-06 22:00,ZHHH 062200Z AUTO 1SM 02/00 A3021 RMK T00200000 IEM_DS3505
ZHHH,2008-01-06 23:00,ZHHH 062300Z AUTO 08004KT 1SM 03/01 A3024 RMK T00300010 IEM_DS3505
ZHHH,2008-01-07 00:00,ZHHH 070000Z AUTO 36002KT 6SM 04/01 A3024 RMK SLP241 T00380008 52006 IEM_DS3505
ZHHH,2008-01-07 01:00,ZHHH 070100Z AUTO 05006KT 1SM 04/02 A3024 RMK T00400020 IEM_DS3505
ZHHH,2008-01-07 02:00,ZHHH 070200Z AUTO 05006KT 1SM 07/03 A3027 RMK T00700030 IEM_DS3505
ZHHH,2008-01-07 03:00,ZHHH 070300Z AUTO 09002KT 4SM 10/01 A3027 RMK SLP253 T00950014 52012 IEM_DS3505
ZHHH,2008-01-07 04:00,ZHHH 070400Z AUTO 24004KT 1SM 12/02 A3024 RMK T01200020 IEM_DS3505
ZHHH,2008-01-07 05:00,ZHHH 070500Z AUTO 29004KT 1SM 12/04 A3021 RMK T01200040 IEM_DS3505
ZHHH,2008-01-07 06:00,ZHHH 070600Z AUTO 25002KT 5SM 14/01 A3018 RMK SLP222 T01380014 57031 IEM_DS3505
ZHHH,2008-01-07 07:00,ZHHH 070700Z AUTO 31004KT 1SM 13/04 A3015 RMK T01300040 IEM_DS3505
ZHHH,2008-01-07 08:00,ZHHH 070800Z AUTO 32004KT 1SM 13/04 A3012 RMK T01300040 IEM_DS3505
ZHHH,2008-01-07 09:00,ZHHH 070900Z AUTO 29002KT 4SM 12/03 A3015 RMK SLP205 T01210026 57017 IEM_DS3505
ZHHH,2008-01-07 10:00,ZHHH 071000Z AUTO 34004KT 1 1/4SM 10/04 A3015 RMK T01000040 IEM_DS3505
ZHHH,2008-01-07 11:00,ZHHH 071100Z AUTO 01004KT 1 1/4SM 09/03 A3015 RMK T00900030 IEM_DS3505
ZHHH,2008-01-07 12:00,ZHHH 071200Z AUTO 02002KT 4SM 07/03 A3015 RMK SLP206 T00710026 52001 IEM_DS3505
ZHHH,2008-01-07 13:00,ZHHH 071300Z AUTO 02004KT 1 1/4SM 09/03 A3015 RMK T00900030 IEM_DS3505
ZHHH,2008-01-07 14:00,ZHHH 071400Z AUTO 05006KT 1 1/4SM 09/03 A3015 RMK T00900030 IEM_DS3505
ZHHH,2008-01-07 15:00,ZHHH 071500Z AUTO 07002KT 4SM 08/02 A3012 RMK SLP206 T00770018 54000 IEM_DS3505
ZHHH,2008-01-07 16:00,ZHHH 071600Z AUTO 06008KT 1 1/4SM 07/00 A3012 RMK T00700000 IEM_DS3505
ZHHH,2008-01-07 17:00,ZHHH 071700Z AUTO 07008KT 1 1/4SM 06/00 A3012 RMK T00600000 IEM_DS3505
ZHHH,2008-01-07 18:00,ZHHH 071800Z AUTO 07002KT 7SM 07/M02 A3012 RMK SLP201 T00701022 57005 IEM_DS3505
ZHHH,2008-01-07 19:00,ZHHH 071900Z AUTO 07006KT 1 1/4SM 07/M02 A3012 RMK T00701020 IEM_DS3505
ZHHH,2008-01-07 20:00,ZHHH 072000Z AUTO 08008KT 1 1/4SM 06/M02 A3009 RMK T00601020 IEM_DS3505
ZHHH,2008-01-07 21:00,ZHHH 072100Z AUTO 04002KT 7SM 07/M02 A3009 RMK SLP192 T00671019 57009 IEM_DS3505
ZHHH,2008-01-07 22:00,ZHHH 072200Z AUTO 1 1/4SM 05/00 A3009 RMK T00500000 IEM_DS3505
ZHHH,2008-01-07 23:00,ZHHH 072300Z AUTO 15004KT 1SM 05/01 A3012 RMK T00500010 IEM_DS3505
ZHHH,2008-01-08 00:00,ZHHH 080000Z AUTO 32002KT 7SM 07/M01 A3012 RMK SLP206 T00741013 52014 IEM_DS3505
ZHHH,2008-01-08 01:00,ZHHH 080100Z AUTO 1SM 05/03 A3015 RMK T00500030 IEM_DS3505
ZHHH,2008-01-08 02:00,ZHHH 080200Z AUTO 00000KT 1SM 07/02 A3015 RMK T00700020 IEM_DS3505
ZHHH,2008-01-08 03:00,ZHHH 080300Z AUTO 02002KT 4SM 07/01 A3015 RMK SLP215 T00740010 52009 IEM_DS3505
ZHHH,2008-01-08 04:00,ZHHH 080400Z AUTO 1 1/4SM 07/01 A3012 RMK T00700010 IEM_DS3505
ZHHH,2008-01-08 05:00,ZHHH 080500Z AUTO 1SM 09/02 A3009 RMK T00900020 IEM_DS3505
ZHHH,2008-01-08 06:00,ZHHH 080600Z AUTO 09002KT 4SM 12/M01 A3003 RMK SLP175 T01171008 57040 IEM_DS3505
ZHHH,2008-01-08 07:00,ZHHH 080700Z AUTO 1 1/4SM 12/M01 A3003 RMK T01201010 IEM_DS3505
ZHHH,2008-01-08 08:00,ZHHH 080800Z AUTO 1 1/4SM 11/00 A3003 RMK T01100000 IEM_DS3505
ZHHH,2008-01-08 09:00,ZHHH 080900Z AUTO 07002KT 2 1/2SM 11/03 A3003 RMK SLP172 T01080026 57003 IEM_DS3505
ZHHH,2008-01-08 10:00,ZHHH 081000Z AUTO 11006KT 1SM 10/02 A3003 RMK T01000020 IEM_DS3505
ZHHH,2008-01-08 11:00,ZHHH 081100Z AUTO 12008KT 1SM 08/02 A3003 RMK T00800020 IEM_DS3505
ZHHH,2008-01-08 12:00,ZHHH 081200Z AUTO 11002KT 3SM 08/03 A3006 RMK SLP181 T00840033 52009 IEM_DS3505
ZHHH,2008-01-08 13:00,ZHHH 081300Z AUTO 07004KT 1SM 07/04 A3009 RMK T00700040 IEM_DS3505
ZHHH,2008-01-08 14:00,ZHHH 081400Z AUTO 10006KT 1SM 06/04 A3009 RMK T00600040 IEM_DS3505
ZHHH,2008-01-08 15:00,ZHHH 081500Z AUTO 00000KT 2 1/2SM 05/03 A3009 RMK SLP195 T00470034 52014 IEM_DS3505
ZHHH,2008-01-08 16:00,ZHHH 081600Z AUTO 12006KT 1SM 06/04 A3006 RMK T00600040 IEM_DS3505
ZHHH,2008-01-08 17:00,ZHHH 081700Z AUTO 12004KT 1SM 06/04 A3006 RMK T00600040 IEM_DS3505
ZHHH,2008-01-08 18:00,ZHHH 081800Z AUTO 25002KT 4SM 04/03 A3006 RMK SLP184 T00450033 57011 IEM_DS3505
ZHHH,2008-01-08 19:00,ZHHH 081900Z AUTO 09004KT 1SM 04/03 A3006 RMK T00400030 IEM_DS3505
ZHHH,2008-01-08 20:00,ZHHH 082000Z AUTO 11008KT 1SM 04/03 A3003 RMK T00400030 IEM_DS3505
ZHHH,2008-01-08 21:00,ZHHH 082100Z AUTO 00000KT 2 1/2SM 04/03 A3003 RMK SLP167 T00380028 57017 IEM_DS3505
ZHHH,2008-01-08 22:00,ZHHH 082200Z AUTO 09004KT 1SM 04/03 A3003 RMK T00400030 IEM_DS3505
ZHHH,2008-01-08 23:00,ZHHH 082300Z AUTO 11006KT 3/8SM 04/03 A3003 RMK T00400030 IEM_DS3505
ZHHH,2008-01-09 00:00,ZHHH 090000Z AUTO 09002KT 4SM 05/03 A3006 RMK SLP177 T00520031 52010 IEM_DS3505
ZHHH,2008-01-09 01:00,ZHHH 090100Z AUTO 11010KT 1/2SM 05/04 A3006 RMK T00500040 IEM_DS3505
ZHHH,2008-01-09 02:00,ZHHH 090200Z AUTO 11012KT 1/2SM 07/05 A3006 RMK T00700050 IEM_DS3505
ZHHH,2008-01-09 03:00,ZHHH 090300Z AUTO 09004KT 2 1/2SM 11/04 A3006 RMK SLP183 T01110041 52006 IEM_DS3505
ZHHH,2008-01-09 04:00,ZHHH 090400Z AUTO 11008KT 1SM 12/05 A3003 RMK T01200050 IEM_DS3505
ZHHH,2008-01-09 05:00,ZHHH 090500Z AUTO 10006KT 1SM 13/05 A3000 RMK T01300050 IEM_DS3505
ZHHH,2008-01-09 06:00,ZHHH 090600Z AUTO 09004KT 4SM 16/04 A2997 RMK SLP150 T01560040 57033 IEM_DS3505
ZHHH,2008-01-09 07:00,ZHHH 090700Z AUTO 10010KT 1 1/2SM 15/06 A2994 RMK T01500060 IEM_DS3505
ZHHH,2008-01-09 08:00,ZHHH 090800Z AUTO 10008KT 1 1/2SM 15/06 A2994 RMK T01500060 IEM_DS3505
ZHHH,2008-01-09 09:00,ZHHH 090900Z AUTO 09002KT 5SM 15/05 A2994 RMK SLP138 T01460051 57012 IEM_DS3505
ZHHH,2008-01-09 10:00,ZHHH 091000Z AUTO 08008KT 1SM 13/06 A2994 RMK T01300060 IEM_DS3505
ZHHH,2008-01-09 11:00,ZHHH 091100Z AUTO 07008KT 1SM 13/06 A2994 RMK T01300060 IEM_DS3505
ZHHH,2008-01-09 12:00,ZHHH 091200Z AUTO 07004KT 6SM 14/05 A2997 RMK SLP149 T01370051 52011 IEM_DS3505
ZHHH,2008-01-09 13:00,ZHHH 091300Z AUTO 05010KT 1SM 11/05 A3000 RMK T01100050 IEM_DS3505
ZHHH,2008-01-09 14:00,ZHHH 091400Z AUTO 05012KT 1SM 09/05 A2997 RMK T00900050 IEM_DS3505
ZHHH,2008-01-09 15:00,ZHHH 091500Z AUTO 07004KT 5SM 10/04 A2997 RMK SLP151 T00970037 52002 IEM_DS3505
ZHHH,2008-01-09 16:00,ZHHH 091600Z AUTO 03010KT 1SM 08/04 A3000 RMK T00800040 IEM_DS3505
ZHHH,2008-01-09 17:00,ZHHH 091700Z AUTO 04008KT 1SM 07/03 A3000 RMK T00700030 IEM_DS3505
ZHHH,2008-01-09 18:00,ZHHH 091800Z AUTO 04004KT 3SM 08/03 A3003 RMK SLP168 T00750026 52018 IEM_DS3505
ZHHH,2008-01-09 19:00,ZHHH 091900Z AUTO 04010KT 1SM 06/03 A3003 RMK T00600030 IEM_DS3505
ZHHH,2008-01-09 20:00,ZHHH 092000Z AUTO 04012KT 1SM 05/02 A3000 RMK T00500020 IEM_DS3505
ZHHH,2008-01-09 21:00,ZHHH 092100Z AUTO 09002KT 2 1/2SM 05/02 A3000 RMK SLP159 T00540017 57010 IEM_DS3505
ZHHH,2008-01-09 22:00,ZHHH 092200Z AUTO 04010KT 1SM 05/02 A3000 RMK T00500020 IEM_DS3505
ZHHH,2008-01-09 23:00,ZHHH 092300Z AUTO 03006KT 1SM 05/02 A3003 RMK T00500020 IEM_DS3505
ZHHH,2008-01-10 00:00,ZHHH 100000Z AUTO 02004KT 1 1/4SM 06/02 A3003 RMK SLP175 T00560021 52016 IEM_DS3505
ZHHH,2008-01-10 01:00,ZHHH 100100Z AUTO 04006KT 1/2SM 06/03 A3006 RMK T00600030 IEM_DS3505
ZHHH,2008-01-10 02:00,ZHHH 100200Z AUTO 03008KT 1/2SM 05/03 A3006 RMK T00500030 IEM_DS3505
ZHHH,2008-01-10 03:00,ZHHH 100300Z AUTO 02004KT 3SM 06/02 A3006 RMK SLP180 T00620025 52005 IEM_DS3505
ZHHH,2008-01-10 04:00,ZHHH 100400Z AUTO 03008KT 1SM 06/03 A3003 RMK T00600030 IEM_DS3505
ZHHH,2008-01-10 05:00,ZHHH 100500Z AUTO 03008KT 1SM 06/04 A3000 RMK T00600040 IEM_DS3505
ZHHH,2008-01-10 06:00,ZHHH 100600Z AUTO 34004KT 4SM 07/03 A2997 RMK SLP152 T00690030 57028 IEM_DS3505
ZHHH,2008-01-10 07:00,ZHHH 100700Z AUTO 01006KT 1SM 07/04 A2994 RMK T00700040 IEM_DS3505
ZHHH,2008-01-10 08:00,ZHHH 100800Z AUTO 35006KT 1SM 07/04 A2994 RMK T00700040 IEM_DS3505
ZHHH,2008-01-10 09:00,ZHHH 100900Z AUTO 04004KT 3SM 06/03 A2997 RMK SLP143 T00640030 57009 IEM_DS3505
ZHHH,2008-01-10 10:00,ZHHH 101000Z AUTO 04010KT 1SM 05/03 A2997 RMK T00500030 IEM_DS3505
ZHHH,2008-01-10 11:00,ZHHH 101100Z AUTO 04008KT 1SM 05/03 A2997 RMK T00500030 IEM_DS3505
ZHHH,2008-01-10 12:00,ZHHH 101200Z AUTO 02006KT 7SM 06/02 A2997 RMK SLP156 T00550025 52013 IEM_DS3505
ZHHH,2008-01-10 13:00,ZHHH 101300Z AUTO 02008KT 1SM 04/03 A3000 RMK T00400030 IEM_DS3505
ZHHH,2008-01-10 14:00,ZHHH 101400Z AUTO 03006KT 1SM 04/03 A3003 RMK T00400030 IEM_DS3505
ZHHH,2008-01-10 15:00,ZHHH 101500Z AUTO 32002KT 7SM 04/03 A3003 RMK SLP169 T00440026 52013 IEM_DS3505
ZHHH,2008-01-10 16:00,ZHHH 101600Z AUTO 35006KT 1SM 04/03 A3003 RMK T00400030 IEM_DS3505
ZHHH,2008-01-10 17:00,ZHHH 101700Z AUTO 34006KT 1SM 04/03 A3003 RMK T00400030 IEM_DS3505
ZHHH,2008-01-10 18:00,ZHHH 101800Z AUTO 32002KT 7SM 04/02 A3003 RMK SLP169 T00370021 54000 IEM_DS3505
ZHHH,2008-01-10 19:00,ZHHH 101900Z AUTO 01008KT 2SM 03/02 A3003 RMK T00300020 IEM_DS3505
ZHHH,2008-01-10 20:00,ZHHH 102000Z AUTO 02008KT 2SM 03/02 A3000 RMK T00300020 IEM_DS3505
ZHHH,2008-01-10 21:00,ZHHH 102100Z AUTO 02006KT 6SM 03/01 A3000 RMK 70000 SLP163 T00290014 57006 IEM_DS3505
ZHHH,2008-01-10 22:00,ZHHH 102200Z AUTO 03008KT 2SM 02/01 A3003 RMK T00200010 IEM_DS3505
ZHHH,2008-01-10 23:00,ZHHH 102300Z AUTO 03010KT 2 1/2SM 02/01 A3003 RMK T00200010 IEM_DS3505
ZHHH,2008-01-11 00:00,ZHHH 110000Z AUTO 02004KT 6SM 03/01 A3003 RMK 60000 70001 SLP176 T00280009 52013 IEM_DS3505
ZHHH,2008-01-11 01:00,ZHHH 110100Z AUTO 03010KT 4SM 02/01 A3006 RMK T00200010 IEM_DS3505
ZHHH,2008-01-11 02:00,ZHHH 110200Z AUTO 02010KT 7SM 02/01 A3006 RMK T00200010 IEM_DS3505
ZHHH,2008-01-11 03:00,ZHHH 110300Z AUTO 34002KT 6SM 03/01 A3009 RMK SLP188 T00280013 52012 IEM_DS3505
ZHHH,2008-01-11 04:00,ZHHH 110400Z AUTO 35004KT 1 1/2SM 02/02 A3006 RMK T00200020 IEM_DS3505
ZHHH,2008-01-11 05:00,ZHHH 110500Z AUTO 02006KT 3SM 02/02 A3003 RMK T00200020 IEM_DS3505
ZHHH,2008-01-11 06:00,ZHHH 110600Z AUTO 04004KT 7SM 02/01 A3003 RMK 60031 SLP171 T00230014 57017 IEM_DS3505
ZHHH,2008-01-11 07:00,ZHHH 110700Z AUTO 01004KT 4SM 02/02 A3003 RMK T00200020 IEM_DS3505
ZHHH,2008-01-11 08:00,ZHHH 110800Z AUTO 36004KT 4SM 02/02 A3006 RMK T00200020 IEM_DS3505
ZHHH,2008-01-11 09:00,ZHHH 110900Z AUTO 36004KT 6SM 02/02 A3006 RMK SLP185 T00240017 52014 IEM_DS3505
ZHHH,2008-01-11 10:00,ZHHH 111000Z AUTO 36004KT 4SM 02/02 A3009 RMK T00200020 IEM_DS3505
ZHHH,2008-01-11 11:00,ZHHH 111100Z AUTO 02008KT 4SM 02/02 A3012 RMK T00200020 IEM_DS3505
ZHHH,2008-01-11 12:00,ZHHH 111200Z AUTO 34002KT 7SM 02/02 A3015 RMK 60020 SLP210 T00250016 52024 IEM_DS3505
ZHHH,2008-01-11 13:00,ZHHH 111300Z AUTO 01008KT 7SM 02/02 A3018 RMK T00200020 IEM_DS3505
ZHHH,2008-01-11 14:00,ZHHH 111400Z AUTO 03008KT 7SM 02/02 A3018 RMK T00200020 IEM_DS3505
ZHHH,2008-01-11 15:00,ZHHH 111500Z AUTO 36004KT 11SM 03/01 A3021 RMK SLP237 T00300014 52027 IEM_DS3505
ZHHH,2008-01-11 16:00,ZHHH 111600Z AUTO 01010KT 7SM 02/01 A3024 RMK T00200010 IEM_DS3505
ZHHH,2008-01-11 17:00,ZHHH 111700Z AUTO 02008G17KT 7SM 02/01 A3024 RMK T00200010 IEM_DS3505
ZHHH,2008-01-11 18:00,ZHHH 111800Z AUTO 04004KT 12SM 03/01 A3024 RMK 60000 SLP247 T00270009 52010 IEM_DS3505
ZHHH,2008-01-11 19:00,ZHHH 111900Z AUTO 01008KT 7SM 02/01 A3027 RMK T00200010 IEM_DS3505
ZHHH,2008-01-11 20:00,ZHHH 112000Z AUTO 02010KT 7SM 02/01 A3027 RMK T00200010 IEM_DS3505
ZHHH,2008-01-11 21:00,ZHHH 112100Z AUTO 02006G19KT 11SM 02/01 A3027 RMK 70054 SLP254 T00230010 52007 IEM_DS3505
ZHHH,2008-01-11 22:00,ZHHH 112200Z AUTO 03010KT 7SM 02/01 A3027 RMK T00200010 IEM_DS3505
ZHHH,2008-01-11 23:00,ZHHH 112300Z AUTO 03010KT 7SM A3030 RMK IEM_DS3505
ZHHH,2008-01-12 00:00,ZHHH 120000Z AUTO 02004KT 11SM 02/00 A3033 RMK 60002 70055 SLP270 T00230005 52016 IEM_DS3505
ZHHH,2008-01-12 01:00,ZHHH 120100Z AUTO 03010KT 7SM 02/01 A3036 RMK T00200010 IEM_DS3505
ZHHH,2008-01-12 02:00,ZHHH 120200Z AUTO 03012KT 2 1/2SM 02/01 A3039 RMK T00200010 IEM_DS3505
ZHHH,2008-01-12 03:00,ZHHH 120300Z AUTO 02006KT 7SM 02/01 A3039 RMK SLP286 T00190009 52016 IEM_DS3505
ZHHH,2008-01-12 04:00,ZHHH 120400Z AUTO 03014KT 3SM 02/01 A3036 RMK T00200010 IEM_DS3505
ZHHH,2008-01-12 05:00,ZHHH 120500Z AUTO 03012KT 3SM 01/01 A3036 RMK T00100010 IEM_DS3505
ZHHH,2008-01-12 06:00,ZHHH 120600Z AUTO 02006KT 6SM 01/00 A3036 RMK 60012 SLP281 T00140005 57005 IEM_DS3505
ZHHH,2008-01-12 07:00,ZHHH 120700Z AUTO 03014KT 1 1/2SM 01/00 A3036 RMK T00100000 IEM_DS3505
ZHHH,2008-01-12 08:00,ZHHH 120800Z AUTO 03014KT 3SM 00/00 A3036 RMK T00000000 IEM_DS3505
ZHHH,2008-01-12 09:00,ZHHH 120900Z AUTO 04006KT 6SM 01/M01 A3039 RMK SLP294 T00081010 52013 IEM_DS3505
ZHHH,2008-01-12 10:00,ZHHH 121000Z AUTO 04012G21KT 7SM 00/M01 A3042 RMK T00001010 IEM_DS3505
ZHHH,2008-01-12 11:00,ZHHH 121100Z AUTO 04014KT 7SM 00/M01 A3045 RMK T00001010 IEM_DS3505
ZHHH,2008-01-12 12:00,ZHHH 121200Z AUTO 02008KT 7SM 00/M01 A3045 RMK 60012 SLP318 T00021014 52024 IEM_DS3505
ZHHH,2008-01-12 13:00,ZHHH 121300Z AUTO 04010KT 7SM 00/M02 A3047 RMK T00001020 IEM_DS3505
ZHHH,2008-01-12 14:00,ZHHH 121400Z AUTO 03012KT 7SM 00/M02 A3050 RMK T00001020 IEM_DS3505
ZHHH,2008-01-12 15:00,ZHHH 121500Z AUTO 04004KT 6SM M01/M02 A3053 RMK SLP339 T10071017 52021 IEM_DS3505
ZHHH,2008-01-12 16:00,ZHHH 121600Z AUTO 04012KT 5SM M01/M02 A3053 RMK T10101020 IEM_DS3505
ZHHH,2008-01-12 17:00,ZHHH 121700Z AUTO 04012KT 7SM M01/M02 A3053 RMK T10101020 IEM_DS3505
ZHHH,2008-01-12 18:00,ZHHH 121800Z AUTO 02008KT 6SM M01/M03 A3053 RMK 60008 SLP343 T10061033 52004 IEM_DS3505
ZHHH,2008-01-12 19:00,ZHHH 121900Z AUTO 04012KT 7SM M01/M03 A3053 RMK T10101030 IEM_DS3505
ZHHH,2008-01-12 20:00,ZHHH 122000Z AUTO 03012KT 7SM M02/M03 A3053 RMK T10201030 IEM_DS3505
ZHHH,2008-01-12 21:00,ZHHH 122100Z AUTO 04006KT 6SM M01/M03 A3053 RMK 70029 SLP342 T10141031 57001 IEM_DS3505
ZHHH,2008-01-12 22:00,ZHHH 122200Z AUTO 03012G23KT 7SM M02/M03 A3053 RMK T10201030 IEM_DS3505
ZHHH,2008-01-12 23:00,ZHHH 122300Z AUTO 04014KT 7SM M03/M03 A3056 RMK T10301030 IEM_DS3505
ZHHH,2008-01-13 00:00,ZHHH 130000Z AUTO 36004KT 4SM M03/M03 A3056 RMK 60008 70034 SLP356 T10271034 52014 IEM_DS3505
ZHHH,2008-01-13 01:00,ZHHH 130100Z AUTO 03010KT 1SM M03/M04 A3059 RMK T10301040 IEM_DS3505
ZHHH,2008-01-13 02:00,ZHHH 130200Z AUTO 03010KT 2 1/2SM M03/M03 A3062 RMK T10301030 IEM_DS3505
ZHHH,2008-01-13 03:00,ZHHH 130300Z AUTO 04006KT 6SM M02/M04 A3062 RMK SLP371 T10231040 52014 IEM_DS3505
ZHHH,2008-01-13 04:00,ZHHH 130400Z AUTO 02008KT 7SM M02/M04 A3059 RMK T10201040 IEM_DS3505
ZHHH,2008-01-13 05:00,ZHHH 130500Z AUTO 03010KT 7SM M02/M04 A3056 RMK T10201040 IEM_DS3505
ZHHH,2008-01-13 06:00,ZHHH 130600Z AUTO 04006KT 7SM M02/M04 A3053 RMK 60008 SLP348 T10221044 57022 IEM_DS3505
ZHHH,2008-01-13 07:00,ZHHH 130700Z AUTO 02006KT 7SM M02/M04 A3056 RMK T10201040 IEM_DS3505
ZHHH,2008-01-13 08:00,ZHHH 130800Z AUTO 02008KT 7SM M02/M04 A3056 RMK T10201040 IEM_DS3505
ZHHH,2008-01-13 09:00,ZHHH 130900Z AUTO 04004KT 7SM M02/M04 A3059 RMK SLP359 T10191044 52010 IEM_DS3505
ZHHH,2008-01-13 10:00,ZHHH 131000Z AUTO 02006KT 7SM M02/M04 A3059 RMK T10201040 IEM_DS3505
ZHHH,2008-01-13 11:00,ZHHH 131100Z AUTO 03006KT 6SM M03/M04 A3059 RMK T10301040 IEM_DS3505
ZHHH,2008-01-13 12:00,ZHHH 131200Z AUTO 02004KT 7SM M02/M05 A3062 RMK 60000 SLP370 T10201047 52011 IEM_DS3505
ZHHH,2008-01-13 13:00,ZHHH 131300Z AUTO 02008KT 6SM M03/M05 A3062 RMK T10301050 IEM_DS3505
ZHHH,2008-01-13 14:00,ZHHH 131400Z AUTO 02006KT 6SM M03/M05 A3065 RMK T10301050 IEM_DS3505
ZHHH,2008-01-13 15:00,ZHHH 131500Z AUTO 02004KT 7SM M02/M05 A3065 RMK SLP377 T10231051 52007 IEM_DS3505
ZHHH,2008-01-13 16:00,ZHHH 131600Z AUTO 02006KT 6SM M03/M05 A3062 RMK T10301050 IEM_DS3505
ZHHH,2008-01-13 17:00,ZHHH 131700Z AUTO 02006KT 6SM M03/M05 A3059 RMK T10301050 IEM_DS3505
ZHHH,2008-01-13 18:00,ZHHH 131800Z AUTO 02004KT 11SM M03/M05 A3059 RMK 60002 SLP367 T10301050 57010 IEM_DS3505
ZHHH,2008-01-13 19:00,ZHHH 131900Z AUTO 02004KT 6SM M04/M06 A3059 RMK T10401060 IEM_DS3505
ZHHH,2008-01-13 20:00,ZHHH 132000Z AUTO 02004KT 6SM M04/M05 A3056 RMK T10401050 IEM_DS3505
ZHHH,2008-01-13 21:00,ZHHH 132100Z AUTO 36004KT 9SM M03/M05 A3059 RMK 70016 SLP359 T10321049 57008 IEM_DS3505
ZHHH,2008-01-13 22:00,ZHHH 132200Z AUTO 04008KT 6SM M04/M05 A3056 RMK T10401050 IEM_DS3505
ZHHH,2008-01-13 23:00,ZHHH 132300Z AUTO 03006KT 6SM M04/M05 A3056 RMK T10401050 IEM_DS3505
ZHHH,2008-01-14 00:00,ZHHH 140000Z AUTO 04004KT 11SM M03/M05 A3059 RMK 70009 SLP369 T10311054 52010 IEM_DS3505
ZHHH,2008-01-14 01:00,ZHHH 140100Z AUTO 03006KT 4SM M03/M04 A3062 RMK T10301040 IEM_DS3505
ZHHH,2008-01-14 02:00,ZHHH 140200Z AUTO 35008KT 3SM M02/M04 A3062 RMK T10201040 IEM_DS3505
ZHHH,2008-01-14 03:00,ZHHH 140300Z AUTO 02002KT 11SM M02/M04 A3059 RMK SLP371 T10201042 52002 IEM_DS3505
ZHHH,2008-01-14 04:00,ZHHH 140400Z AUTO 03006KT 1SM M03/M04 A3059 RMK T10301040 IEM_DS3505
ZHHH,2008-01-14 05:00,ZHHH 140500Z AUTO 03006KT 1/2SM M03/M03 A3056 RMK T10301030 IEM_DS3505
ZHHH,2008-01-14 06:00,ZHHH 140600Z AUTO 02002KT 6SM M02/M03 A3053 RMK 60012 SLP341 T10161030 57030 IEM_DS3505
ZHHH,2008-01-14 07:00,ZHHH 140700Z AUTO 01004KT 1 1/2SM M02/M02 A3050 RMK T10201020 IEM_DS3505
ZHHH,2008-01-14 08:00,ZHHH 140800Z AUTO 02004KT 1SM M02/M03 A3050 RMK T10201030 IEM_DS3505
ZHHH,2008-01-14 09:00,ZHHH 140900Z AUTO 36004KT 7SM M02/M03 A3050 RMK SLP332 T10171033 57009 IEM_DS3505
ZHHH,2008-01-14 10:00,ZHHH 141000Z AUTO 02004KT 2 1/2SM M02/M03 A3050 RMK T10201030 IEM_DS3505
ZHHH,2008-01-14 11:00,ZHHH 141100Z AUTO 36004KT 2 1/2SM M02/M02 A3053 RMK T10201020 IEM_DS3505
ZHHH,2008-01-14 12:00,ZHHH 141200Z AUTO 02004KT 9SM M02/M03 A3053 RMK 60000 SLP345 T10151028 52013 IEM_DS3505
ZHHH,2008-01-14 13:00,ZHHH 141300Z AUTO 02006KT 2 1/2SM M02/M03 A3053 RMK T10201030 IEM_DS3505
ZHHH,2008-01-14 14:00,ZHHH 141400Z AUTO 02006KT 1 1/2SM M02/M03 A3056 RMK T10201030 IEM_DS3505
ZHHH,2008-01-14 15:00,ZHHH 141500Z AUTO 02002KT 7SM M02/M03 A3056 RMK SLP353 T10201028 52008 IEM_DS3505
ZHHH,2008-01-14 16:00,ZHHH 141600Z AUTO 02006KT 1SM M03/M03 A3056 RMK T10301030 IEM_DS3505
ZHHH,2008-01-14 17:00,ZHHH 141700Z AUTO 02006KT 1SM M03/M03 A3056 RMK T10301030 IEM_DS3505
ZHHH,2008-01-14 18:00,ZHHH 141800Z AUTO 04004KT 6SM M03/M04 A3056 RMK 60008 SLP353 T10271035 54000 IEM_DS3505
ZHHH,2008-01-14 19:00,ZHHH 141900Z AUTO 02008KT 1SM M04/M04 A3056 RMK T10401040 IEM_DS3505
ZHHH,2008-01-14 20:00,ZHHH 142000Z AUTO 03006KT 1SM M04/M04 A3056 RMK T10401040 IEM_DS3505
ZHHH,2008-01-14 21:00,ZHHH 142100Z AUTO 36004KT 5SM M03/M04 A3056 RMK 70026 SLP353 T10331041 54000 IEM_DS3505
ZHHH,2008-01-14 22:00,ZHHH 142200Z AUTO 02008KT 1SM M04/M04 A3056 RMK T10401040 IEM_DS3505
ZHHH,2008-01-14 23:00,ZHHH 142300Z AUTO 02006KT 1 1/4SM M04/M04 A3059 RMK T10401040 IEM_DS3505
ZHHH,2008-01-15 00:00,ZHHH 150000Z AUTO 02004KT 7SM M04/M05 A3059 RMK 60008 70030 SLP370 T10351048 52017 IEM_DS3505
ZHHH,2008-01-15 01:00,ZHHH 150100Z AUTO 36006KT 5SM M03/M04 A3065 RMK T10301040 IEM_DS3505
ZHHH,2008-01-15 02:00,ZHHH 150200Z AUTO 36006KT 7SM M03/M04 A3065 RMK T10301040 IEM_DS3505
ZHHH,2008-01-15 03:00,ZHHH 150300Z AUTO 32004KT 9SM M02/M04 A3068 RMK SLP391 T10151045 52021 IEM_DS3505
ZHHH,2008-01-15 04:00,ZHHH 150400Z AUTO 02006KT 4SM M01/M03 A3062 RMK T10101030 IEM_DS3505
ZHHH,2008-01-15 05:00,ZHHH 150500Z AUTO 02006KT 4SM M01/M03 A3062 RMK T10101030 IEM_DS3505
ZHHH,2008-01-15 06:00,ZHHH 150600Z AUTO 04004KT 9SM M01/M04 A3059 RMK 60000 SLP368 T10111038 57023 IEM_DS3505
ZHHH,2008-01-15 07:00,ZHHH 150700Z AUTO 03008KT 4SM M01/M03 A3059 RMK T10101030 IEM_DS3505
ZHHH,2008-01-15 08:00,ZHHH 150800Z AUTO 03006KT 4SM M01/M03 A3059 RMK T10101030 IEM_DS3505
ZHHH,2008-01-15 09:00,ZHHH 150900Z AUTO 07002KT 7SM M01/M03 A3062 RMK SLP371 T10101027 52003 IEM_DS3505
ZHHH,2008-01-15 10:00,ZHHH 151000Z AUTO 02006KT 5SM M01/M03 A3065 RMK T10101030 IEM_DS3505
ZHHH,2008-01-15 11:00,ZHHH 151100Z AUTO 02006KT 5SM M02/M03 A3065 RMK T10201030 IEM_DS3505
ZHHH,2008-01-15 12:00,ZHHH 151200Z AUTO 36002KT 9SM M01/M04 A3068 RMK 60000 SLP390 T10141041 52019 IEM_DS3505
ZHHH,2008-01-15 13:00,ZHHH 151300Z AUTO 02004KT 5SM M02/M04 A3068 RMK T10201040 IEM_DS3505
ZHHH,2008-01-15 14:00,ZHHH 151400Z AUTO 01004KT 4SM M02/M04 A3071 RMK T10201040 IEM_DS3505
ZHHH,2008-01-15 15:00,ZHHH 151500Z AUTO 34002KT 7SM M02/M04 A3071 RMK SLP403 T10161038 52013 IEM_DS3505
ZHHH,2008-01-15 16:00,ZHHH 151600Z AUTO 36006KT 4SM M03/M04 A3071 RMK T10301040 IEM_DS3505
ZHHH,2008-01-15 17:00,ZHHH 151700Z AUTO 02006KT 5SM M02/M04 A3071 RMK T10201040 IEM_DS3505
ZHHH,2008-01-15 18:00,ZHHH 151800Z AUTO 36002KT 11SM M02/M05 A3071 RMK SLP405 T10251047 52002 IEM_DS3505
ZHHH,2008-01-15 19:00,ZHHH 151900Z AUTO 5SM M03/M05 A3071 RMK T10301050 IEM_DS3505
ZHHH,2008-01-15 20:00,ZHHH 152000Z AUTO 36002KT 5SM M03/M05 A3071 RMK T10301050 IEM_DS3505
ZHHH,2008-01-15 21:00,ZHHH 152100Z AUTO 36002KT 11SM M03/M05 A3071 RMK 70003 SLP401 T10281050 57004 IEM_DS3505
ZHHH,2008-01-15 22:00,ZHHH 152200Z AUTO 02004KT 5SM M03/M05 A3068 RMK T10301050 IEM_DS3505
ZHHH,2008-01-15 23:00,ZHHH 152300Z AUTO 01004KT 5SM M04/M05 A3071 RMK T10401050 IEM_DS3505
ZHHH,2008-01-16 00:00,ZHHH 160000Z AUTO 32002KT 11SM M03/M05 A3071 RMK 70000 SLP406 T10281050 52005 IEM_DS3505
ZHHH,2008-01-16 02:00,ZHHH 160200Z AUTO 03008KT 5SM M01/M04 A3077 RMK T10101040 IEM_DS3505
ZHHH,2008-01-16 03:00,ZHHH 160300Z AUTO 04006KT 12SM M00/M05 A3074 RMK SLP418 T10011049 52012 IEM_DS3505
ZHHH,2008-01-16 04:00,ZHHH 160400Z AUTO 03006KT 7SM 01/M04 A3074 RMK T00101040 IEM_DS3505
ZHHH,2008-01-16 05:00,ZHHH 160500Z AUTO 02004KT 6SM 01/M04 A3071 RMK T00101040 IEM_DS3505
ZHHH,2008-01-16 06:00,ZHHH 160600Z AUTO 34002KT 11SM 02/M04 A3065 RMK SLP385 T00171042 57032 IEM_DS3505
ZHHH,2008-01-16 07:00,ZHHH 160700Z AUTO 03006KT 6SM 01/M03 A3065 RMK T00101030 IEM_DS3505
ZHHH,2008-01-16 08:00,ZHHH 160800Z AUTO 05006KT 6SM 01/M03 A3065 RMK T00101030 IEM_DS3505
ZHHH,2008-01-16 09:00,ZHHH 160900Z AUTO 04002KT 11SM 01/M04 A3065 RMK SLP380 T00111036 57005 IEM_DS3505
ZHHH,2008-01-16 10:00,ZHHH 161000Z AUTO 03006KT 6SM 00/M03 A3068 RMK T00001030 IEM_DS3505
ZHHH,2008-01-16 11:00,ZHHH 161100Z AUTO 04008KT 6SM M01/M03 A3068 RMK T10101030 IEM_DS3505
ZHHH,2008-01-16 12:00,ZHHH 161200Z AUTO 04006KT 9SM M00/M04 A3068 RMK SLP393 T10031040 52012 IEM_DS3505
ZHHH,2008-01-16 13:00,ZHHH 161300Z AUTO 04010KT 2 1/2SM M02/M04 A3071 RMK T10201040 IEM_DS3505
ZHHH,2008-01-16 14:00,ZHHH 161400Z AUTO 03008KT 2 1/2SM M01/M04 A3071 RMK T10101040 IEM_DS3505
ZHHH,2008-01-16 15:00,ZHHH 161500Z AUTO 02004KT 9SM M01/M04 A3071 RMK SLP408 T10101042 52015 IEM_DS3505
ZHHH,2008-01-16 16:00,ZHHH 161600Z AUTO 34004KT 2 1/2SM M01/M03 A3071 RMK T10101030 IEM_DS3505
ZHHH,2008-01-16 17:00,ZHHH 161700Z AUTO 35004KT 2 1/2SM M02/M03 A3068 RMK T10201030 IEM_DS3505
ZHHH,2008-01-16 18:00,ZHHH 161800Z AUTO 07002KT 7SM M01/M04 A3065 RMK 60000 SLP384 T10131035 57023 IEM_DS3505
ZHHH,2008-01-16 19:00,ZHHH 161900Z AUTO 2 1/2SM M02/M03 A3062 RMK T10201030 IEM_DS3505
ZHHH,2008-01-16 20:00,ZHHH 162000Z AUTO 2 1/2SM M02/M03 A3062 RMK T10201030 IEM_DS3505
ZHHH,2008-01-16 21:00,ZHHH 162100Z AUTO 34004KT 7SM M01/M03 A3062 RMK 70000 SLP370 T10131030 57014 IEM_DS3505
ZHHH,2008-01-16 22:00,ZHHH 162200Z AUTO 01002KT 4SM M02/M03 A3062 RMK T10201030 IEM_DS3505
ZHHH,2008-01-16 23:00,ZHHH 162300Z AUTO 36004KT 4SM M01/M03 A3062 RMK T10101030 IEM_DS3505
ZHHH,2008-01-17 00:00,ZHHH 170000Z AUTO 27002KT 5SM M01/M03 A3059 RMK 60000 70000 SLP370 T10121029 54000 IEM_DS3505
ZHHH,2008-01-17 01:00,ZHHH 170100Z AUTO 2SM M01/M02 A3062 RMK T10101020 IEM_DS3505
ZHHH,2008-01-17 02:00,ZHHH 170200Z AUTO 2SM M01/M02 A3062 RMK T10101020 IEM_DS3505
ZHHH,2008-01-17 03:00,ZHHH 170300Z AUTO 02002KT 6SM 00/M03 A3059 RMK SLP362 T00021030 57008 IEM_DS3505
ZHHH,2008-01-17 04:00,ZHHH 170400Z AUTO 00000KT 2 1/2SM 01/M02 A3059 RMK T00101020 IEM_DS3505
ZHHH,2008-01-17 05:00,ZHHH 170500Z AUTO 29004KT 3SM 01/M02 A3053 RMK T00101020 IEM_DS3505
ZHHH,2008-01-17 06:00,ZHHH 170600Z AUTO 34002KT 7SM 02/M02 A3050 RMK 60000 SLP327 T00161023 57035 IEM_DS3505
ZHHH,2008-01-17 07:00,ZHHH 170700Z AUTO 29004KT 4SM 01/M02 A3047 RMK T00101020 IEM_DS3505
ZHHH,2008-01-17 08:00,ZHHH 170800Z AUTO 4SM 01/M01 A3050 RMK T00101010 IEM_DS3505
ZHHH,2008-01-17 09:00,ZHHH 170900Z AUTO 32002KT 7SM 01/M02 A3047 RMK SLP329 T00131021 52002 IEM_DS3505
ZHHH,2008-01-17 10:00,ZHHH 171000Z AUTO 00000KT 3SM 01/M01 A3050 RMK T00101010 IEM_DS3505
ZHHH,2008-01-17 11:00,ZHHH 171100Z AUTO 01002KT 2 1/2SM 00/M01 A3050 RMK T00001010 IEM_DS3505
ZHHH,2008-01-17 12:00,ZHHH 171200Z AUTO 04002KT 9SM 01/M02 A3053 RMK SLP343 T00101017 52014 IEM_DS3505
ZHHH,2008-01-17 14:00,ZHHH 171400Z AUTO 02004KT 2 1/2SM 00/M02 A3050 RMK T00001020 IEM_DS3505
ZHHH,2008-01-17 15:00,ZHHH 171500Z AUTO 34002KT 11SM M00/M02 A3053 RMK SLP342 T10021015 57001 IEM_DS3505
ZHHH,2008-01-17 16:00,ZHHH 171600Z AUTO 04006KT 2SM M01/M02 A3050 RMK T10101020 IEM_DS3505
ZHHH,2008-01-17 17:00,ZHHH 171700Z AUTO 36004KT 1 1/4SM M01/M02 A3053 RMK T10101020 IEM_DS3505
ZHHH,2008-01-17 18:00,ZHHH 171800Z AUTO 34002KT 9SM M00/M01 A3053 RMK SLP340 T10021013 57002 IEM_DS3505
ZHHH,2008-01-17 19:00,ZHHH 171900Z AUTO 35004KT 1 1/4SM M01/M02 A3053 RMK T10101020 IEM_DS3505
ZHHH,2008-01-17 20:00,ZHHH 172000Z AUTO 02002KT 1 1/4SM M01/M01 A3050 RMK T10101010 IEM_DS3505
ZHHH,2008-01-17 21:00,ZHHH 172100Z AUTO 04002KT 7SM M00/M01 A3050 RMK 70000 SLP329 T10031014 57011 IEM_DS3505
ZHHH,2008-01-17 22:00,ZHHH 172200Z AUTO 07008KT 1 1/4SM 00/M01 A3047 RMK T00001010 IEM_DS3505
ZHHH,2008-01-17 23:00,ZHHH 172300Z AUTO 07010KT 1 1/4SM 00/M01 A3047 RMK T00001010 IEM_DS3505
ZHHH,2008-01-18 00:00,ZHHH 180000Z AUTO 02002KT 6SM 01/M02 A3050 RMK 70000 SLP338 T00061015 52009 IEM_DS3505
ZHHH,2008-01-18 01:00,ZHHH 180100Z AUTO 01004KT 1SM 00/M01 A3050 RMK T00001010 IEM_DS3505
ZHHH,2008-01-18 02:00,ZHHH 180200Z AUTO 04004KT 1SM 00/M01 A3050 RMK T00001010 IEM_DS3505
ZHHH,2008-01-18 03:00,ZHHH 180300Z AUTO 02002KT 5SM 01/M01 A3050 RMK SLP337 T00081010 57001 IEM_DS3505
ZHHH,2008-01-18 04:00,ZHHH 180400Z AUTO 03006KT 1 1/2SM 00/M01 A3047 RMK T00001010 IEM_DS3505
ZHHH,2008-01-18 05:00,ZHHH 180500Z AUTO 02004KT 1SM 00/M01 A3047 RMK T00001010 IEM_DS3505
ZHHH,2008-01-18 06:00,ZHHH 180600Z AUTO 04004KT 4SM 00/M00 A3045 RMK 60002 SLP307 T00041005 57030 IEM_DS3505
ZHHH,2008-01-18 07:00,ZHHH 180700Z AUTO 04006KT 1SM 00/00 A3042 RMK T00000000 IEM_DS3505
ZHHH,2008-01-18 08:00,ZHHH 180800Z AUTO 04006KT 1SM 00/00 A3042 RMK T00000000 IEM_DS3505
ZHHH,2008-01-18 09:00,ZHHH 180900Z AUTO 04004KT 4SM 00/M00 A3042 RMK SLP297 T00031004 57010 IEM_DS3505
ZHHH,2008-01-18 10:00,ZHHH 181000Z AUTO 04004KT 1SM 00/00 A3042 RMK T00000000 IEM_DS3505
ZHHH,2008-01-18 11:00,ZHHH 181100Z AUTO 03004KT 1SM 00/00 A3042 RMK T00000000 IEM_DS3505
ZHHH,2008-01-18 12:00,ZHHH 181200Z AUTO 02002KT 5SM 00/M00 A3042 RMK 60003 SLP302 T00051001 52005 IEM_DS3505
ZHHH,2008-01-18 13:00,ZHHH 181300Z AUTO 02004KT 1/2SM 00/00 A3042 RMK T00000000 IEM_DS3505
ZHHH,2008-01-18 14:00,ZHHH 181400Z AUTO 02004KT 1/2SM 00/00 A3042 RMK T00000000 IEM_DS3505
ZHHH,2008-01-18 15:00,ZHHH 181500Z AUTO 34002KT 4SM 00/M00 A3042 RMK SLP298 T00031001 57004 IEM_DS3505
ZHHH,2008-01-18 16:00,ZHHH 181600Z AUTO 02004KT 1/2SM 00/00 A3039 RMK T00000000 IEM_DS3505
ZHHH,2008-01-18 17:00,ZHHH 181700Z AUTO 02006KT 1/2SM 00/00 A3039 RMK T00000000 IEM_DS3505
ZHHH,2008-01-18 18:00,ZHHH 181800Z AUTO 36002KT 2 1/2SM 00/M00 A3039 RMK 60012 SLP287 T00001004 57011 IEM_DS3505
ZHHH,2008-01-18 19:00,ZHHH 181900Z AUTO 04006KT 1SM M01/M01 A3036 RMK T10101010 IEM_DS3505
ZHHH,2008-01-18 20:00,ZHHH 182000Z AUTO 04006KT 1SM M01/M01 A3033 RMK T10101010 IEM_DS3505
ZHHH,2008-01-18 21:00,ZHHH 182100Z AUTO 04002KT 2SM M00/M01 A3033 RMK 70028 SLP273 T10041007 57014 IEM_DS3505
ZHHH,2008-01-18 22:00,ZHHH 182200Z AUTO 03004KT 1SM M01/M01 A3033 RMK T10101010 IEM_DS3505
ZHHH,2008-01-18 23:00,ZHHH 182300Z AUTO 02004KT 1SM M01/M01 A3033 RMK T10101010 IEM_DS3505
ZHHH,2008-01-19 00:00,ZHHH 190000Z AUTO 04002KT 2SM M00/M01 A3033 RMK 60016 70034 SLP277 T10041008 52004 IEM_DS3505
ZHHH,2008-01-19 01:00,ZHHH 190100Z AUTO 02004KT 1SM M01/M01 A3036 RMK T10101010 IEM_DS3505
ZHHH,2008-01-19 02:00,ZHHH 190200Z AUTO 02004KT 1SM 00/00 A3036 RMK T00000000 IEM_DS3505
ZHHH,2008-01-19 03:00,ZHHH 190300Z AUTO 02004KT 3SM M00/M01 A3036 RMK SLP284 T10011008 52007 IEM_DS3505
ZHHH,2008-01-19 04:00,ZHHH 190400Z AUTO 36004KT 1/2SM 00/00 A3033 RMK T00000000 IEM_DS3505
ZHHH,2008-01-19 05:00,ZHHH 190500Z AUTO 32004KT 1/2SM 00/00 A3030 RMK T00000000 IEM_DS3505
ZHHH,2008-01-19 06:00,ZHHH 190600Z AUTO 00000KT 2SM 00/M01 A3027 RMK 60008 SLP253 T00001006 57031 IEM_DS3505
ZHHH,2008-01-19 07:00,ZHHH 190700Z AUTO 33004KT 3/8SM 00/00 A3024 RMK T00000000 IEM_DS3505
ZHHH,2008-01-19 08:00,ZHHH 190800Z AUTO 3/8SM 00/00 A3024 RMK T00000000 IEM_DS3505
ZHHH,2008-01-19 09:00,ZHHH 190900Z AUTO 25002KT 2SM 00/M00 A3027 RMK SLP250 T00011005 57003 IEM_DS3505
ZHHH,2008-01-19 10:00,ZHHH 191000Z AUTO 35004KT 1SM 00/00 A3027 RMK T00000000 IEM_DS3505
ZHHH,2008-01-19 11:00,ZHHH 191100Z AUTO 32004KT 3/8SM 00/00 A3030 RMK T00000000 IEM_DS3505
ZHHH,2008-01-19 12:00,ZHHH 191200Z AUTO 32002KT 1 1/4SM M00/M01 A3030 RMK 60012 SLP264 T10041008 52014 IEM_DS3505
ZHHH,2008-01-19 13:00,ZHHH 191300Z AUTO 34004KT 1/2SM M01/M01 A3030 RMK T10101010 IEM_DS3505
ZHHH,2008-01-19 14:00,ZHHH 191400Z AUTO 34004KT 1/2SM M01/M01 A3030 RMK T10101010 IEM_DS3505
ZHHH,2008-01-19 15:00,ZHHH 191500Z AUTO 29002KT 4SM M01/M01 A3033 RMK SLP271 T10061012 52007 IEM_DS3505
ZHHH,2008-01-19 16:00,ZHHH 191600Z AUTO 33004KT 1SM M01/M01 A3033 RMK T10101010 IEM_DS3505
ZHHH,2008-01-19 17:00,ZHHH 191700Z AUTO 33006KT 1SM M01/M01 A3033 RMK T10101010 IEM_DS3505
ZHHH,2008-01-19 18:00,ZHHH 191800Z AUTO 29002KT 1 1/4SM M00/M01 A3033 RMK 60002 SLP271 T10041008 54000 IEM_DS3505
ZHHH,2008-01-19 19:00,ZHHH 191900Z AUTO 34006KT 1SM M01/M01 A3033 RMK T10101010 IEM_DS3505
ZHHH,2008-01-19 20:00,ZHHH 192000Z AUTO 34006KT 1SM M01/M01 A3030 RMK T10101010 IEM_DS3505
ZHHH,2008-01-19 21:00,ZHHH 192100Z AUTO 32004KT 1 1/4SM M00/M01 A3030 RMK 70030 SLP266 T10031009 57005 IEM_DS3505
ZHHH,2008-01-19 22:00,ZHHH 192200Z AUTO 35006KT 1SM M01/M01 A3030 RMK T10101010 IEM_DS3505
ZHHH,2008-01-19 23:00,ZHHH 192300Z AUTO 34006KT 1SM M01/M01 A3033 RMK T10101010 IEM_DS3505
ZHHH,2008-01-20 00:00,ZHHH 200000Z AUTO 34004KT 2 1/2SM M00/M01 A3033 RMK 60000 70023 SLP276 T10031009 52010 IEM_DS3505
ZHHH,2008-01-20 01:00,ZHHH 200100Z AUTO 35006KT 1SM M01/M01 A3036 RMK T10101010 IEM_DS3505
ZHHH,2008-01-20 02:00,ZHHH 200200Z AUTO 35008KT 1SM 00/M01 A3036 RMK T00001010 IEM_DS3505
ZHHH,2008-01-20 03:00,ZHHH 200300Z AUTO 34004KT 2SM M00/M01 A3036 RMK SLP287 T10021010 52011 IEM_DS3505
ZHHH,2008-01-20 04:00,ZHHH 200400Z AUTO 35006KT 1SM 00/M01 A3036 RMK T00001010 IEM_DS3505
ZHHH,2008-01-20 05:00,ZHHH 200500Z AUTO 34006KT 1SM 00/M01 A3033 RMK T00001010 IEM_DS3505
ZHHH,2008-01-20 06:00,ZHHH 200600Z AUTO 27002KT 4SM M00/M01 A3030 RMK 60000 SLP268 T10011011 57019 IEM_DS3505
ZHHH,2008-01-20 07:00,ZHHH 200700Z AUTO 35004KT 1SM 00/00 A3030 RMK T00000000 IEM_DS3505
ZHHH,2008-01-20 08:00,ZHHH 200800Z AUTO 36004KT 1SM 00/00 A3030 RMK T00000000 IEM_DS3505
ZHHH,2008-01-20 09:00,ZHHH 200900Z AUTO 29002KT 2SM M00/M01 A3033 RMK SLP268 T10031009 54000 IEM_DS3505
ZHHH,2008-01-20 10:00,ZHHH 201000Z AUTO 01006KT 1SM M01/M01 A3033 RMK T10101010 IEM_DS3505
ZHHH,2008-01-20 11:00,ZHHH 201100Z AUTO 36004KT 1SM M01/M01 A3036 RMK T10101010 IEM_DS3505
ZHHH,2008-01-20 12:00,ZHHH 201200Z AUTO 34002KT 2 1/2SM M01/M01 A3036 RMK 60004 SLP287 T10061013 52019 IEM_DS3505
ZHHH,2008-01-20 13:00,ZHHH 201300Z AUTO 36004KT 1SM 00/M01 A3039 RMK T00001010 IEM_DS3505
ZHHH,2008-01-20 14:00,ZHHH 201400Z AUTO 02008KT 1SM 00/M01 A3039 RMK T00001010 IEM_DS3505
ZHHH,2008-01-20 15:00,ZHHH 201500Z AUTO 02002KT 2 1/2SM M00/M01 A3042 RMK SLP303 T10021013 52016 IEM_DS3505
ZHHH,2008-01-20 16:00,ZHHH 201600Z AUTO 02008KT 1SM 00/M01 A3042 RMK T00001010 IEM_DS3505
ZHHH,2008-01-20 17:00,ZHHH 201700Z AUTO 03008KT 1SM M01/M01 A3042 RMK T10101010 IEM_DS3505
ZHHH,2008-01-20 18:00,ZHHH 201800Z AUTO 04004KT 2SM M00/M02 A3039 RMK 60004 SLP299 T10031017 57004 IEM_DS3505
ZHHH,2008-01-20 19:00,ZHHH 201900Z AUTO 03010KT 1 1/4SM M01/M02 A3039 RMK T10101020 IEM_DS3505
ZHHH,2008-01-20 21:00,ZHHH 202100Z AUTO 36002KT 7SM M01/M02 A3039 RMK 70009 SLP289 T10061022 57010 IEM_DS3505
ZHHH,2008-01-20 22:00,ZHHH 202200Z AUTO 04010KT 1 1/4SM M01/M02 A3036 RMK T10101020 IEM_DS3505
ZHHH,2008-01-20 23:00,ZHHH 202300Z AUTO 03008KT 1 1/4SM M01/M02 A3039 RMK T10101020 IEM_DS3505
ZHHH,2008-01-21 00:00,ZHHH 210000Z AUTO 02004KT 7SM M01/M03 A3039 RMK 60000 70009 SLP294 T10101027 52005 IEM_DS3505
ZHHH,2008-01-21 01:00,ZHHH 210100Z AUTO 01008KT 1SM M01/M03 A3042 RMK T10101030 IEM_DS3505
ZHHH,2008-01-21 02:00,ZHHH 210200Z AUTO 02008KT 1SM M01/M02 A3042 RMK T10101020 IEM_DS3505
ZHHH,2008-01-21 03:00,ZHHH 210300Z AUTO 04004KT 5SM M01/M03 A3045 RMK SLP310 T10141027 52016 IEM_DS3505
ZHHH,2008-01-21 04:00,ZHHH 210400Z AUTO 01006KT 1SM M01/M02 A3042 RMK T10101020 IEM_DS3505
ZHHH,2008-01-21 05:00,ZHHH 210500Z AUTO 02008KT 1 1/4SM M01/M03 A3039 RMK T10101030 IEM_DS3505
ZHHH,2008-01-21 06:00,ZHHH 210600Z AUTO 02004KT 6SM M01/M03 A3036 RMK 60004 SLP280 T10131032 57030 IEM_DS3505
ZHHH,2008-01-21 07:00,ZHHH 210700Z AUTO 02008KT 1 1/2SM M02/M03 A3036 RMK T10201030 IEM_DS3505
ZHHH,2008-01-21 08:00,ZHHH 210800Z AUTO 03008KT 1 1/2SM M02/M03 A3033 RMK T10201030 IEM_DS3505
ZHHH,2008-01-21 09:00,ZHHH 210900Z AUTO 04004KT 6SM M02/M03 A3036 RMK SLP280 T10171028 54000 IEM_DS3505
ZHHH,2008-01-21 10:00,ZHHH 211000Z AUTO 02008KT 2 1/2SM M02/M04 A3036 RMK T10201040 IEM_DS3505
ZHHH,2008-01-21 11:00,ZHHH 211100Z AUTO 02008KT 2 1/2SM M02/M04 A3039 RMK T10201040 IEM_DS3505
ZHHH,2008-01-21 12:00,ZHHH 211200Z AUTO 02004KT 6SM M02/M04 A3042 RMK 60000 SLP301 T10211044 52021 IEM_DS3505
ZHHH,2008-01-21 13:00,ZHHH 211300Z AUTO 02008KT 2 1/2SM M03/M04 A3042 RMK T10301040 IEM_DS3505
ZHHH,2008-01-21 14:00,ZHHH 211400Z AUTO 02008KT 2 1/2SM M03/M04 A3042 RMK T10301040 IEM_DS3505
ZHHH,2008-01-21 15:00,ZHHH 211500Z AUTO 02002KT 7SM M02/M05 A3042 RMK SLP306 T10251048 52005 IEM_DS3505
ZHHH,2008-01-21 16:00,ZHHH 211600Z AUTO 02006KT 2 1/2SM M03/M05 A3042 RMK T10301050 IEM_DS3505
ZHHH,2008-01-21 17:00,ZHHH 211700Z AUTO 03006KT 2 1/2SM M03/M05 A3042 RMK T10301050 IEM_DS3505
ZHHH,2008-01-21 18:00,ZHHH 211800Z AUTO 02002KT 9SM M02/M05 A3042 RMK SLP305 T10251048 57001 IEM_DS3505
ZHHH,2008-01-21 19:00,ZHHH 211900Z AUTO 02008KT 2 1/2SM M03/M05 A3042 RMK T10301050 IEM_DS3505
ZHHH,2008-01-21 20:00,ZHHH 212000Z AUTO 34004KT 2 1/2SM M03/M04 A3042 RMK T10301040 IEM_DS3505
ZHHH,2008-01-21 21:00,ZHHH 212100Z AUTO 34004KT 11SM M03/M05 A3039 RMK 70004 SLP299 T10261046 57006 IEM_DS3505
ZHHH,2008-01-21 22:00,ZHHH 212200Z AUTO 36004KT 2SM M03/M04 A3042 RMK T10301040 IEM_DS3505
ZHHH,2008-01-21 23:00,ZHHH 212300Z AUTO 01004KT 2SM M03/M05 A3042 RMK T10301050 IEM_DS3505
ZHHH,2008-01-22 00:00,ZHHH 220000Z AUTO 34002KT 11SM M02/M05 A3045 RMK 70004 SLP311 T10241050 52012 IEM_DS3505
ZHHH,2008-01-22 01:00,ZHHH 220100Z AUTO 35004KT 2 1/2SM M02/M05 A3047 RMK T10201050 IEM_DS3505
ZHHH,2008-01-22 02:00,ZHHH 220200Z AUTO 02008KT 2 1/2SM M02/M05 A3047 RMK T10201050 IEM_DS3505
ZHHH,2008-01-22 03:00,ZHHH 220300Z AUTO 02002KT 11SM M02/M05 A3047 RMK SLP327 T10171050 52016 IEM_DS3505
ZHHH,2008-01-22 04:00,ZHHH 220400Z AUTO 03008KT 2SM M02/M05 A3047 RMK T10201050 IEM_DS3505
ZHHH,2008-01-22 05:00,ZHHH 220500Z AUTO 03008KT 2SM M02/M04 A3045 RMK T10201040 IEM_DS3505
ZHHH,2008-01-22 06:00,ZHHH 220600Z AUTO 04002KT 7SM M02/M04 A3042 RMK 60000 SLP303 T10161038 57024 IEM_DS3505
ZHHH,2008-01-22 07:00,ZHHH 220700Z AUTO 03006KT 3SM M01/M04 A3042 RMK T10101040 IEM_DS3505
ZHHH,2008-01-22 08:00,ZHHH 220800Z AUTO 33004KT 2 1/2SM M01/M04 A3042 RMK T10101040 IEM_DS3505
ZHHH,2008-01-22 09:00,ZHHH 220900Z AUTO 34002KT 9SM M01/M04 A3045 RMK SLP310 T10121044 52007 IEM_DS3505
ZHHH,2008-01-22 10:00,ZHHH 221000Z AUTO 2 1/2SM M01/M04 A3045 RMK T10101040 IEM_DS3505
ZHHH,2008-01-22 11:00,ZHHH 221100Z AUTO 2 1/2SM M01/M04 A3045 RMK T10101040 IEM_DS3505
ZHHH,2008-01-22 12:00,ZHHH 221200Z AUTO 27002KT 9SM M01/M04 A3047 RMK 60000 SLP318 T10121039 52008 IEM_DS3505
ZHHH,2008-01-22 13:00,ZHHH 221300Z AUTO 4SM M01/M04 A3047 RMK T10101040 IEM_DS3505
ZHHH,2008-01-22 14:00,ZHHH 221400Z AUTO 4SM M01/M04 A3050 RMK T10101040 IEM_DS3505
ZHHH,2008-01-22 15:00,ZHHH 221500Z AUTO 02002KT 9SM M01/M04 A3050 RMK SLP329 T10131040 52011 IEM_DS3505
ZHHH,2008-01-22 16:00,ZHHH 221600Z AUTO 05002KT 4SM M02/M04 A3050 RMK T10201040 IEM_DS3505
ZHHH,2008-01-22 17:00,ZHHH 221700Z AUTO 34002KT 4SM M02/M04 A3050 RMK T10201040 IEM_DS3505
ZHHH,2008-01-22 18:00,ZHHH 221800Z AUTO 27002KT 9SM M01/M03 A3050 RMK SLP333 T10141030 52004 IEM_DS3505
ZHHH,2008-01-22 19:00,ZHHH 221900Z AUTO 03002KT 4SM M02/M04 A3050 RMK T10201040 IEM_DS3505
ZHHH,2008-01-22 20:00,ZHHH 222000Z AUTO 06004KT 4SM M02/M04 A3047 RMK T10201040 IEM_DS3505
ZHHH,2008-01-22 21:00,ZHHH 222100Z AUTO 07002KT 9SM M02/M04 A3047 RMK 70000 SLP323 T10161041 57010 IEM_DS3505
ZHHH,2008-01-22 22:00,ZHHH 222200Z AUTO 02006KT 4SM M02/M04 A3050 RMK T10201040 IEM_DS3505
ZHHH,2008-01-22 23:00,ZHHH 222300Z AUTO 03006KT 4SM M02/M04 A3050 RMK T10201040 IEM_DS3505
ZHHH,2008-01-23 00:00,ZHHH 230000Z AUTO 04004KT 11SM M02/M04 A3050 RMK 70000 SLP335 T10151045 52012 IEM_DS3505
ZHHH,2008-01-23 01:00,ZHHH 230100Z AUTO 03008KT 4SM M02/M04 A3053 RMK T10201040 IEM_DS3505
ZHHH,2008-01-23 02:00,ZHHH 230200Z AUTO 04008KT 4SM M01/M04 A3053 RMK T10101040 IEM_DS3505
ZHHH,2008-01-23 03:00,ZHHH 230300Z AUTO 02006KT 9SM M01/M05 A3056 RMK SLP350 T10081050 52015 IEM_DS3505
ZHHH,2008-01-23 04:00,ZHHH 230400Z AUTO 04008KT 1 1/2SM M01/M04 A3053 RMK T10101040 IEM_DS3505
ZHHH,2008-01-23 05:00,ZHHH 230500Z AUTO 03006KT 1 1/2SM M01/M04 A3053 RMK T10101040 IEM_DS3505
ZHHH,2008-01-23 06:00,ZHHH 230600Z AUTO 34004KT 9SM M00/M04 A3053 RMK SLP342 T10011044 57008 IEM_DS3505
ZHHH,2008-01-23 07:00,ZHHH 230700Z AUTO 02008KT 4SM 00/M05 A3053 RMK T00001050 IEM_DS3505
ZHHH,2008-01-23 08:00,ZHHH 230800Z AUTO 02008KT 4SM M01/M05 A3053 RMK T10101050 IEM_DS3505
ZHHH,2008-01-23 09:00,ZHHH 230900Z AUTO 04004KT 9SM M00/M06 A3056 RMK SLP353 T10051057 52011 IEM_DS3505
ZHHH,2008-01-23 10:00,ZHHH 231000Z AUTO 02008KT 2 1/2SM M01/M05 A3059 RMK T10101050 IEM_DS3505
ZHHH,2008-01-23 11:00,ZHHH 231100Z AUTO 02008KT 2 1/2SM M01/M05 A3062 RMK T10101050 IEM_DS3505
ZHHH,2008-01-23 12:00,ZHHH 231200Z AUTO 34004KT 7SM M01/M06 A3062 RMK SLP373 T10111061 52019 IEM_DS3505
ZHHH,2008-01-23 13:00,ZHHH 231300Z AUTO 03010KT 2SM M02/M05 A3065 RMK T10201050 IEM_DS3505
ZHHH,2008-01-23 14:00,ZHHH 231400Z AUTO 02006KT 2SM M02/M05 A3065 RMK T10201050 IEM_DS3505
ZHHH,2008-01-23 15:00,ZHHH 231500Z AUTO 04004KT 7SM M02/M06 A3065 RMK SLP385 T10151055 52012 IEM_DS3505
ZHHH,2008-01-23 16:00,ZHHH 231600Z AUTO 02008KT 2SM M02/M05 A3068 RMK T10201050 IEM_DS3505
ZHHH,2008-01-23 17:00,ZHHH 231700Z AUTO 03008KT 2 1/2SM M02/M05 A3068 RMK T10201050 IEM_DS3505
ZHHH,2008-01-23 18:00,ZHHH 231800Z AUTO 04004KT 7SM M02/M06 A3065 RMK SLP384 T10171061 54000 IEM_DS3505
ZHHH,2008-01-23 19:00,ZHHH 231900Z AUTO 03008KT 2SM M02/M06 A3065 RMK T10201060 IEM_DS3505
ZHHH,2008-01-23 20:00,ZHHH 232000Z AUTO 03008KT 2SM M02/M07 A3065 RMK T10201070 IEM_DS3505
ZHHH,2008-01-23 21:00,ZHHH 232100Z AUTO 02004KT 9SM M02/M07 A3065 RMK SLP383 T10211074 57002 IEM_DS3505
ZHHH,2008-01-23 22:00,ZHHH 232200Z AUTO 03010KT 2 1/2SM M03/M07 A3065 RMK T10301070 IEM_DS3505
ZHHH,2008-01-23 23:00,ZHHH 232300Z AUTO 03010KT 2 1/2SM M03/M08 A3068 RMK T10301080 IEM_DS3505
ZHHH,2008-01-24 00:00,ZHHH 240000Z AUTO 02006KT 9SM M02/M09 A3068 RMK SLP395 T10251088 52012 IEM_DS3505
ZHHH,2008-01-24 01:00,ZHHH 240100Z AUTO 04008KT 4SM M03/M09 A3068 RMK T10301090 IEM_DS3505
ZHHH,2008-01-24 02:00,ZHHH 240200Z AUTO 01008KT 4SM M03/M09 A3071 RMK T10301090 IEM_DS3505
ZHHH,2008-01-24 03:00,ZHHH 240300Z AUTO 02004KT 9SM M02/M10 A3071 RMK SLP403 T10181101 52008 IEM_DS3505
ZHHH,2008-01-24 04:00,ZHHH 240400Z AUTO 03008KT 6SM M02/M11 A3068 RMK T10201110 IEM_DS3505
ZHHH,2008-01-24 05:00,ZHHH 240500Z AUTO 03008KT 6SM M02/M10 A3065 RMK T10201100 IEM_DS3505
ZHHH,2008-01-24 06:00,ZHHH 240600Z AUTO 07004KT 11SM M02/M11 A3059 RMK SLP368 T10171108 57035 IEM_DS3505
ZHHH,2008-01-24 07:00,ZHHH 240700Z AUTO 02006KT 6SM M02/M09 A3059 RMK T10201090 IEM_DS3505
ZHHH,2008-01-24 08:00,ZHHH 240800Z AUTO 02004KT 6SM M02/M09 A3059 RMK T10201090 IEM_DS3505
ZHHH,2008-01-24 09:00,ZHHH 240900Z AUTO 02002KT 9SM M02/M09 A3059 RMK SLP364 T10171089 57004 IEM_DS3505
ZHHH,2008-01-24 10:00,ZHHH 241000Z AUTO 03004KT 4SM M02/M08 A3059 RMK T10201080 IEM_DS3505
ZHHH,2008-01-24 11:00,ZHHH 241100Z AUTO 04006KT 4SM M03/M08 A3056 RMK T10301080 IEM_DS3505
ZHHH,2008-01-24 12:00,ZHHH 241200Z AUTO 36002KT 9SM M02/M08 A3056 RMK SLP359 T10231082 57005 IEM_DS3505
ZHHH,2008-01-24 13:00,ZHHH 241300Z AUTO 03006KT 4SM M03/M08 A3059 RMK T10301080 IEM_DS3505
ZHHH,2008-01-24 14:00,ZHHH 241400Z AUTO 03006KT 4SM M03/M08 A3059 RMK T10301080 IEM_DS3505
ZHHH,2008-01-24 15:00,ZHHH 241500Z AUTO 04004KT 9SM M02/M09 A3059 RMK SLP365 T10251086 52006 IEM_DS3505
ZHHH,2008-01-24 16:00,ZHHH 241600Z AUTO 03006KT 4SM M03/M08 A3059 RMK T10301080 IEM_DS3505
ZHHH,2008-01-24 17:00,ZHHH 241700Z AUTO 04006KT 3SM M03/M08 A3059 RMK T10301080 IEM_DS3505
ZHHH,2008-01-24 18:00,ZHHH 241800Z AUTO 04002KT 11SM M03/M08 A3056 RMK SLP357 T10261081 57008 IEM_DS3505
ZHHH,2008-01-24 19:00,ZHHH 241900Z AUTO 04004KT 3SM M03/M08 A3056 RMK T10301080 IEM_DS3505
ZHHH,2008-01-24 20:00,ZHHH 242000Z AUTO 05008KT 3SM M03/M08 A3053 RMK T10301080 IEM_DS3505
ZHHH,2008-01-24 21:00,ZHHH 242100Z AUTO 02004KT 11SM M03/M08 A3053 RMK SLP338 T10281081 57019 IEM_DS3505
ZHHH,2008-01-24 22:00,ZHHH 242200Z AUTO 03004KT 3SM M03/M07 A3053 RMK T10301070 IEM_DS3505
ZHHH,2008-01-24 23:00,ZHHH 242300Z AUTO 04006KT 3SM M03/M07 A3053 RMK T10301070 IEM_DS3505
ZHHH,2008-01-25 00:00,ZHHH 250000Z AUTO 04004KT 7SM M03/M07 A3053 RMK 60000 70000 SLP344 T10271069 52006 IEM_DS3505
ZHHH,2008-01-25 01:00,ZHHH 250100Z AUTO 03006KT 3SM M03/M07 A3056 RMK T10301070 IEM_DS3505
ZHHH,2008-01-25 02:00,ZHHH 250200Z AUTO 03006KT 3SM M03/M07 A3056 RMK T10301070 IEM_DS3505
ZHHH,2008-01-25 03:00,ZHHH 250300Z AUTO 04004KT 6SM M03/M05 A3056 RMK SLP358 T10311054 52014 IEM_DS3505
ZHHH,2008-01-25 04:00,ZHHH 250400Z AUTO 01004KT 4SM M02/M07 A3056 RMK T10201070 IEM_DS3505
ZHHH,2008-01-25 05:00,ZHHH 250500Z AUTO 04004KT 4SM M02/M07 A3053 RMK T10201070 IEM_DS3505
ZHHH,2008-01-25 06:00,ZHHH 250600Z AUTO 34002KT 7SM M03/M06 A3050 RMK 60000 SLP338 T10271055 57020 IEM_DS3505
ZHHH,2008-01-25 07:00,ZHHH 250700Z AUTO 34004KT 4SM M02/M07 A3050 RMK T10201070 IEM_DS3505
ZHHH,2008-01-25 08:00,ZHHH 250800Z AUTO 04006KT 4SM M02/M08 A3050 RMK T10201080 IEM_DS3505
ZHHH,2008-01-25 09:00,ZHHH 250900Z AUTO 04004KT 7SM M02/M08 A3050 RMK SLP338 T10191078 54000 IEM_DS3505
ZHHH,2008-01-25 10:00,ZHHH 251000Z AUTO 03006KT 4SM M02/M08 A3050 RMK T10201080 IEM_DS3505
ZHHH,2008-01-25 11:00,ZHHH 251100Z AUTO 03006KT 3SM M02/M07 A3053 RMK T10201070 IEM_DS3505
ZHHH,2008-01-25 12:00,ZHHH 251200Z AUTO 02002KT 9SM M02/M08 A3053 RMK 60000 SLP348 T10211076 52010 IEM_DS3505
ZHHH,2008-01-25 13:00,ZHHH 251300Z AUTO 01006KT 2 1/2SM M02/M07 A3056 RMK T10201070 IEM_DS3505
ZHHH,2008-01-25 14:00,ZHHH 251400Z AUTO 02006KT 2 1/2SM M02/M07 A3056 RMK T10201070 IEM_DS3505
ZHHH,2008-01-25 15:00,ZHHH 251500Z AUTO 02002KT 11SM M02/M07 A3056 RMK SLP355 T10201073 52007 IEM_DS3505
ZHHH,2008-01-25 16:00,ZHHH 251600Z AUTO 36004KT 2SM M02/M07 A3059 RMK T10201070 IEM_DS3505
ZHHH,2008-01-25 17:00,ZHHH 251700Z AUTO 02008KT 2SM M02/M07 A3056 RMK T10201070 IEM_DS3505
ZHHH,2008-01-25 18:00,ZHHH 251800Z AUTO 02002KT 7SM M03/M06 A3056 RMK 60000 SLP353 T10281064 57002 IEM_DS3505
ZHHH,2008-01-25 19:00,ZHHH 251900Z AUTO 36008KT 1SM M04/M05 A3056 RMK T10401050 IEM_DS3505
ZHHH,2008-01-25 20:00,ZHHH 252000Z AUTO 04008KT 1SM M04/M05 A3056 RMK T10401050 IEM_DS3505
ZHHH,2008-01-25 21:00,ZHHH 252100Z AUTO 34004KT 6SM M04/M05 A3056 RMK 70006 SLP356 T10351049 52003 IEM_DS3505
ZHHH,2008-01-25 22:00,ZHHH 252200Z AUTO 36008KT 1SM M04/M05 A3056 RMK T10401050 IEM_DS3505
ZHHH,2008-01-25 23:00,ZHHH 252300Z AUTO 34008KT 1SM M04/M04 A3059 RMK T10401040 IEM_DS3505
ZHHH,2008-01-26 00:00,ZHHH 260000Z AUTO 02004KT 4SM M04/M05 A3062 RMK 60012 70012 SLP368 T10381049 52012 IEM_DS3505
ZHHH,2008-01-26 01:00,ZHHH 260100Z AUTO 01006KT 1SM M04/M04 A3062 RMK T10401040 IEM_DS3505
ZHHH,2008-01-26 02:00,ZHHH 260200Z AUTO 02006KT 1SM M04/M04 A3062 RMK T10401040 IEM_DS3505
ZHHH,2008-01-26 03:00,ZHHH 260300Z AUTO 34002KT 4SM M03/M05 A3065 RMK SLP384 T10311048 52016 IEM_DS3505
ZHHH,2008-01-26 04:00,ZHHH 260400Z AUTO 02008KT 2SM M03/M04 A3062 RMK T10301040 IEM_DS3505
ZHHH,2008-01-26 05:00,ZHHH 260500Z AUTO 02008KT 3SM M02/M05 A3056 RMK T10201050 IEM_DS3505
ZHHH,2008-01-26 06:00,ZHHH 260600Z AUTO 02004KT 7SM M02/M06 A3056 RMK 60012 SLP354 T10181062 57030 IEM_DS3505
ZHHH,2008-01-26 07:00,ZHHH 260700Z AUTO 04008KT 4SM M02/M05 A3053 RMK T10201050 IEM_DS3505
ZHHH,2008-01-26 08:00,ZHHH 260800Z AUTO 05006KT 4SM M01/M05 A3053 RMK T10101050 IEM_DS3505
ZHHH,2008-01-26 09:00,ZHHH 260900Z AUTO 04004KT 7SM M01/M06 A3053 RMK SLP347 T10141056 57007 IEM_DS3505
ZHHH,2008-01-26 10:00,ZHHH 261000Z AUTO 04004KT 4SM M02/M05 A3053 RMK T10201050 IEM_DS3505
ZHHH,2008-01-26 11:00,ZHHH 261100Z AUTO 04008KT 4SM M02/M05 A3056 RMK T10201050 IEM_DS3505
ZHHH,2008-01-26 12:00,ZHHH 261200Z AUTO 34002KT 6SM M02/M05 A3056 RMK 60000 SLP359 T10151052 52012 IEM_DS3505
ZHHH,2008-01-26 13:00,ZHHH 261300Z AUTO 36004KT 1SM M02/M04 A3059 RMK T10201040 IEM_DS3505
ZHHH,2008-01-26 14:00,ZHHH 261400Z AUTO 02006KT 1SM M03/M04 A3056 RMK T10301040 IEM_DS3505
ZHHH,2008-01-26 15:00,ZHHH 261500Z AUTO 36004KT 4SM M02/M04 A3062 RMK SLP364 T10251036 52005 IEM_DS3505
ZHHH,2008-01-26 16:00,ZHHH 261600Z AUTO 02008KT 1 1/4SM M03/M04 A3059 RMK T10301040 IEM_DS3505
ZHHH,2008-01-26 17:00,ZHHH 261700Z AUTO 01008KT 1 1/4SM M03/M04 A3062 RMK T10301040 IEM_DS3505
ZHHH,2008-01-26 18:00,ZHHH 261800Z AUTO 36004KT 5SM M03/M04 A3059 RMK 60008 SLP367 T10281045 52003 IEM_DS3505
ZHHH,2008-01-26 19:00,ZHHH 261900Z AUTO 03008KT 2 1/2SM M03/M04 A3056 RMK T10301040 IEM_DS3505
ZHHH,2008-01-26 20:00,ZHHH 262000Z AUTO 03008KT 2 1/2SM M03/M04 A3053 RMK T10301040 IEM_DS3505
ZHHH,2008-01-26 21:00,ZHHH 262100Z AUTO 02004KT 7SM M03/M05 A3053 RMK 70022 SLP342 T10271047 57025 IEM_DS3505
ZHHH,2008-01-26 22:00,ZHHH 262200Z AUTO 03006KT 1 1/4SM M03/M05 A3053 RMK T10301050 IEM_DS3505
ZHHH,2008-01-26 23:00,ZHHH 262300Z AUTO 02004KT 1/2SM M04/M04 A3053 RMK T10401040 IEM_DS3505
ZHHH,2008-01-27 00:00,ZHHH 270000Z AUTO 02002KT 2SM M03/M04 A3056 RMK 60008 70025 SLP352 T10321039 52010 IEM_DS3505
ZHHH,2008-01-27 00:30,ZHHH 270030Z AUTO 01004KT 3/8SM M04/M04 A3056 RMK T10401040 IEM_DS3505
ZHHH,2008-01-27 01:00,ZHHH 270100Z AUTO 02004KT 1/4SM M04/M04 A3053 RMK T10401040 IEM_DS3505
ZHHH,2008-01-27 01:30,ZHHH 270130Z AUTO 03004KT 3/8SM M04/M04 A3053 RMK T10401040 IEM_DS3505
ZHHH,2008-01-27 02:00,ZHHH 270200Z AUTO 35004KT 3/8SM M04/M04 A3056 RMK T10401040 IEM_DS3505
ZHHH,2008-01-27 02:30,ZHHH 270230Z AUTO 35004KT 1/4SM M03/M04 A3056 RMK T10301040 IEM_DS3505
ZHHH,2008-01-27 03:00,ZHHH 270300Z AUTO 04002KT 2SM M03/M04 A3053 RMK SLP345 T10261039 57007 IEM_DS3505
ZHHH,2008-01-27 04:00,ZHHH 270400Z AUTO 02004KT 1SM M03/M03 A3050 RMK T10301030 IEM_DS3505
ZHHH,2008-01-27 05:00,ZHHH 270500Z AUTO 36004KT 1SM M03/M03 A3045 RMK T10301030 IEM_DS3505
ZHHH,2008-01-27 06:00,ZHHH 270600Z AUTO 34004KT 2 1/2SM M02/M04 A3042 RMK 60016 SLP304 T10221039 57040 IEM_DS3505
ZHHH,2008-01-27 07:00,ZHHH 270700Z AUTO 01004KT 1SM M03/M03 A3039 RMK T10301030 IEM_DS3505
ZHHH,2008-01-27 08:00,ZHHH 270800Z AUTO 36004KT 3/8SM M03/M03 A3039 RMK T10301030 IEM_DS3505
ZHHH,2008-01-27 09:00,ZHHH 270900Z AUTO 02004KT 1 1/4SM M03/M04 A3039 RMK SLP290 T10261036 57014 IEM_DS3505
ZHHH,2008-01-27 10:00,ZHHH 271000Z AUTO 01002KT 1/2SM M03/M03 A3039 RMK T10301030 IEM_DS3505
ZHHH,2008-01-27 11:00,ZHHH 271100Z AUTO 00000KT 1/2SM M03/M03 A3039 RMK T10301030 IEM_DS3505
ZHHH,2008-01-27 12:00,ZHHH 271200Z AUTO 34004KT 1 1/4SM M03/M03 A3039 RMK 60000 SLP297 T10261031 52007 IEM_DS3505
ZHHH,2008-01-27 13:00,ZHHH 271300Z AUTO 33006KT 1SM M03/M03 A3042 RMK T10301030 IEM_DS3505
ZHHH,2008-01-27 14:00,ZHHH 271400Z AUTO 34004KT 1SM M03/M03 A3039 RMK T10301030 IEM_DS3505
ZHHH,2008-01-27 15:00,ZHHH 271500Z AUTO 34002KT 2SM M03/M03 A3036 RMK SLP286 T10271032 57011 IEM_DS3505
ZHHH,2008-01-27 16:00,ZHHH 271600Z AUTO 34006KT 1SM M03/M03 A3036 RMK T10301030 IEM_DS3505
ZHHH,2008-01-27 17:00,ZHHH 271700Z AUTO 34004KT 1SM M03/M03 A3033 RMK T10301030 IEM_DS3505
ZHHH,2008-01-27 18:00,ZHHH 271800Z AUTO 27002KT 1 1/4SM M03/M03 A3036 RMK 60008 SLP279 T10271034 57007 IEM_DS3505
ZHHH,2008-01-27 19:00,ZHHH 271900Z AUTO 34004KT 1/2SM M03/M03 A3030 RMK T10301030 IEM_DS3505
ZHHH,2008-01-27 20:00,ZHHH 272000Z AUTO 32004KT 1/2SM M03/M03 A3030 RMK T10301030 IEM_DS3505
ZHHH,2008-01-27 21:00,ZHHH 272100Z AUTO 34004KT 1 1/4SM M02/M03 A3030 RMK 70042 SLP262 T10241029 57017 IEM_DS3505
ZHHH,2008-01-27 22:00,ZHHH 272200Z AUTO 1/2SM M03/M03 A3027 RMK T10301030 IEM_DS3505
ZHHH,2008-01-27 23:00,ZHHH 272300Z AUTO 35004KT 1/2SM M03/M03 A3027 RMK T10301030 IEM_DS3505
ZHHH,2008-01-28 00:00,ZHHH 280000Z AUTO 32002KT 1SM M03/M04 A3033 RMK 60016 70041 SLP274 T10271035 52012 IEM_DS3505
ZHHH,2008-01-28 01:00,ZHHH 280100Z AUTO 33008KT 3/8SM M03/M03 A3033 RMK T10301030 IEM_DS3505
ZHHH,2008-01-28 02:00,ZHHH 280200Z AUTO 35004KT 3/8SM M03/M03 A3033 RMK T10301030 IEM_DS3505
ZHHH,2008-01-28 03:00,ZHHH 280300Z AUTO 34004KT 1SM M02/M04 A3033 RMK SLP274 T10241035 54000 IEM_DS3505
ZHHH,2008-01-28 04:00,ZHHH 280400Z AUTO 34006KT 1/2SM M03/M03 A3030 RMK T10301030 IEM_DS3505
ZHHH,2008-01-28 05:00,ZHHH 280500Z AUTO 32006KT 1/2SM M03/M03 A3030 RMK T10301030 IEM_DS3505
ZHHH,2008-01-28 06:00,ZHHH 280600Z AUTO 34002KT 1 1/4SM M02/M03 A3024 RMK 60002 SLP242 T10211034 4////1029 57032 IEM_DS3505
ZHHH,2008-01-28 07:00,ZHHH 280700Z AUTO 33004KT 3/8SM M02/M03 A3024 RMK T10201030 IEM_DS3505
ZHHH,2008-01-28 08:00,ZHHH 280800Z AUTO 34004KT 3/8SM M03/M03 A3024 RMK T10301030 IEM_DS3505
ZHHH,2008-01-28 09:00,ZHHH 280900Z AUTO 27002KT 1SM M02/M03 A3024 RMK SLP252 T10211028 52010 IEM_DS3505
ZHHH,2008-01-28 10:00,ZHHH 281000Z AUTO 34004KT 1/2SM M03/M03 A3027 RMK T10301030 IEM_DS3505
ZHHH,2008-01-28 11:00,ZHHH 281100Z AUTO 32004KT 1/2SM M03/M03 A3030 RMK T10301030 IEM_DS3505
ZHHH,2008-01-28 12:00,ZHHH 281200Z AUTO 27002KT 1SM M02/M03 A3027 RMK 60008 SLP257 T10221028 52005 IEM_DS3505
ZHHH,2008-01-28 13:00,ZHHH 281300Z AUTO 32004KT 1/2SM M03/M03 A3027 RMK T10301030 IEM_DS3505
ZHHH,2008-01-28 14:00,ZHHH 281400Z AUTO 34004KT 1/2SM M03/M03 A3030 RMK T10301030 IEM_DS3505
ZHHH,2008-01-28 15:00,ZHHH 281500Z AUTO 29002KT 1 1/4SM M02/M03 A3030 RMK SLP261 T10211028 52004 IEM_DS3505
ZHHH,2008-01-28 16:00,ZHHH 281600Z AUTO 31004KT 1SM M03/M03 A3030 RMK T10301030 IEM_DS3505
ZHHH,2008-01-28 17:00,ZHHH 281700Z AUTO 31004KT 1SM M03/M03 A3030 RMK T10301030 IEM_DS3505
ZHHH,2008-01-28 18:00,ZHHH 281800Z AUTO 27002KT 6SM M02/M03 A3030 RMK 60000 SLP261 T10231030 54000 IEM_DS3505
ZHHH,2008-01-28 19:00,ZHHH 281900Z AUTO 32002KT 3/8SM M04/M04 A3030 RMK T10401040 IEM_DS3505
ZHHH,2008-01-28 20:00,ZHHH 282000Z AUTO 1/8SM M05/M05 A3030 RMK T10501050 IEM_DS3505
ZHHH,2008-01-28 21:00,ZHHH 282100Z AUTO 27002KT 7SM M04/M04 A3030 RMK 70015 SLP262 T10361041 52001 IEM_DS3505
ZHHH,2008-01-28 22:00,ZHHH 282200Z AUTO 23002KT 1/8SM M05/M06 A3030 RMK T10501060 IEM_DS3505
ZHHH,2008-01-28 23:00,ZHHH 282300Z AUTO 31004KT 1/8SM M06/M06 A3033 RMK T10601060 IEM_DS3505
ZHHH,2008-01-29 00:00,ZHHH 290000Z AUTO 34002KT 1/8SM A3036 RMK 70008 SLP283 52020 IEM_DS3505
ZHHH,2008-01-29 01:00,ZHHH 290100Z AUTO 1/8SM M06/M06 A3036 RMK T10601060 IEM_DS3505
ZHHH,2008-01-29 02:00,ZHHH 290200Z AUTO 1/8SM M06/M06 A3039 RMK T10601060 IEM_DS3505
ZHHH,2008-01-29 03:00,ZHHH 290300Z AUTO 34004KT 3/8SM M03/M04 A3039 RMK SLP293 T10331037 52011 IEM_DS3505
ZHHH,2008-01-29 04:00,ZHHH 290400Z AUTO 33004KT 1/8SM M04/M04 A3036 RMK T10401040 IEM_DS3505
ZHHH,2008-01-29 05:00,ZHHH 290500Z AUTO 1/4SM M03/M03 A3033 RMK T10301030 IEM_DS3505
ZHHH,2008-01-29 06:00,ZHHH 290600Z AUTO 00000KT 4SM 02/M03 A3030 RMK SLP263 T00181033 57030 IEM_DS3505
ZHHH,2008-01-29 07:00,ZHHH 290700Z AUTO 1SM M01/M01 A3027 RMK T10101010 IEM_DS3505
ZHHH,2008-01-29 08:00,ZHHH 290800Z AUTO 00000KT 1SM M01/M01 A3027 RMK T10101010 IEM_DS3505
ZHHH,2008-01-29 09:00,ZHHH 290900Z AUTO 02002KT 7SM 01/M04 A3030 RMK SLP256 T00091041 57007 IEM_DS3505
ZHHH,2008-01-29 10:00,ZHHH 291000Z AUTO 32002KT 1SM M02/M03 A3030 RMK T10201030 IEM_DS3505
ZHHH,2008-01-29 11:00,ZHHH 291100Z AUTO 36004KT 1SM M01/M02 A3033 RMK T10101020 IEM_DS3505
ZHHH,2008-01-29 12:00,ZHHH 291200Z AUTO 32002KT 5SM M01/M03 A3033 RMK SLP274 T10111030 52018 IEM_DS3505
ZHHH,2008-01-29 13:00,ZHHH 291300Z AUTO 04002KT 1SM M02/M04 A3033 RMK T10201040 IEM_DS3505
ZHHH,2008-01-29 14:00,ZHHH 291400Z AUTO 00000KT 1 1/4SM M02/M05 A3036 RMK T10201050 IEM_DS3505
ZHHH,2008-01-29 15:00,ZHHH 291500Z AUTO 00000KT 5SM M03/M04 A3039 RMK SLP293 T10321043 52019 IEM_DS3505
ZHHH,2008-01-29 16:00,ZHHH 291600Z AUTO 19004KT 1SM M03/M06 A3039 RMK T10301060 IEM_DS3505
ZHHH,2008-01-29 17:00,ZHHH 291700Z AUTO 31004KT 1SM M03/M05 A3039 RMK T10301050 IEM_DS3505
ZHHH,2008-01-29 18:00,ZHHH 291800Z AUTO 32002KT 5SM M02/M04 A3039 RMK SLP294 T10251039 52001 IEM_DS3505
ZHHH,2008-01-29 19:00,ZHHH 291900Z AUTO 1 1/4SM M02/M05 A3039 RMK T10201050 IEM_DS3505
ZHHH,2008-01-29 20:00,ZHHH 292000Z AUTO 02004KT 1 1/2SM M02/M05 A3039 RMK T10201050 IEM_DS3505
ZHHH,2008-01-29 21:00,ZHHH 292100Z AUTO 34002KT 6SM M02/M05 A3039 RMK 70000 SLP294 T10181046 54000 IEM_DS3505
ZHHH,2008-01-29 22:00,ZHHH 292200Z AUTO 03006KT 1 1/2SM M02/M05 A3039 RMK T10201050 IEM_DS3505
ZHHH,2008-01-29 23:00,ZHHH 292300Z AUTO 02006KT 1 1/2SM M02/M05 A3045 RMK T10201050 IEM_DS3505
ZHHH,2008-01-30 00:00,ZHHH 300000Z AUTO 34004KT 5SM M02/M04 A3047 RMK 60000 70001 SLP325 T10191038 52031 IEM_DS3505
ZHHH,2008-01-30 01:00,ZHHH 300100Z AUTO 02004KT 1 1/4SM M02/M03 A3050 RMK T10201030 IEM_DS3505
ZHHH,2008-01-30 02:00,ZHHH 300200Z AUTO 36004KT 1 1/4SM M01/M02 A3050 RMK T10101020 IEM_DS3505
ZHHH,2008-01-30 03:00,ZHHH 300300Z AUTO 34004KT 6SM M00/M02 A3053 RMK SLP340 T10031025 52015 IEM_DS3505
ZHHH,2008-01-30 04:00,ZHHH 300400Z AUTO 35006KT 2SM 01/M02 A3050 RMK T00101020 IEM_DS3505
ZHHH,2008-01-30 05:00,ZHHH 300500Z AUTO 01006KT 2SM 02/M03 A3047 RMK T00201030 IEM_DS3505
ZHHH,2008-01-30 06:00,ZHHH 300600Z AUTO 34004KT 6SM 02/M03 A3045 RMK 60000 SLP313 T00201027 57027 IEM_DS3505
ZHHH,2008-01-30 07:00,ZHHH 300700Z AUTO 31004KT 1 1/4SM 02/M02 A3045 RMK T00201020 IEM_DS3505
ZHHH,2008-01-30 08:00,ZHHH 300800Z AUTO 30004KT 1 1/4SM 02/M02 A3045 RMK T00201020 IEM_DS3505
ZHHH,2008-01-30 09:00,ZHHH 300900Z AUTO 27002KT 7SM 01/M03 A3045 RMK SLP311 T00121031 57002 IEM_DS3505
ZHHH,2008-01-30 10:00,ZHHH 301000Z AUTO 00000KT 1SM 00/M02 A3045 RMK T00001020 IEM_DS3505
ZHHH,2008-01-30 11:00,ZHHH 301100Z AUTO 33004KT 1SM 00/M03 A3047 RMK T00001030 IEM_DS3505
ZHHH,2008-01-30 12:00,ZHHH 301200Z AUTO 32002KT 9SM 01/M03 A3050 RMK SLP330 T00061030 52019 IEM_DS3505
ZHHH,2008-01-30 13:00,ZHHH 301300Z AUTO 04004KT 1SM 00/M03 A3050 RMK T00001030 IEM_DS3505
ZHHH,2008-01-30 14:00,ZHHH 301400Z AUTO 03006KT 1 1/4SM M01/M04 A3050 RMK T10101040 IEM_DS3505
ZHHH,2008-01-30 15:00,ZHHH 301500Z AUTO 02004KT 7SM M00/M05 A3050 RMK SLP333 T10041046 52003 IEM_DS3505
ZHHH,2008-01-30 16:00,ZHHH 301600Z AUTO 04008KT 1 1/4SM M01/M04 A3047 RMK T10101040 IEM_DS3505
ZHHH,2008-01-30 17:00,ZHHH 301700Z AUTO 1 1/4SM M01/M04 A3050 RMK T10101040 IEM_DS3505
ZHHH,2008-01-30 18:00,ZHHH 301800Z AUTO 29002KT 5SM M00/M04 A3053 RMK SLP341 T10051040 52008 IEM_DS3505
ZHHH,2008-01-30 19:00,ZHHH 301900Z AUTO 26004KT 1SM M01/M03 A3053 RMK T10101030 IEM_DS3505
ZHHH,2008-01-30 20:00,ZHHH 302000Z AUTO 1SM M02/M03 A3050 RMK T10201030 IEM_DS3505
ZHHH,2008-01-30 21:00,ZHHH 302100Z AUTO 29002KT 4SM M01/M04 A3050 RMK 70001 SLP337 T10101037 57004 IEM_DS3505
ZHHH,2008-01-30 22:00,ZHHH 302200Z AUTO 35004KT 1SM M02/M03 A3053 RMK T10201030 IEM_DS3505
ZHHH,2008-01-30 23:00,ZHHH 302300Z AUTO 35004KT 1SM M03/M04 A3053 RMK T10301040 IEM_DS3505
ZHHH,2008-01-31 00:00,ZHHH 310000Z AUTO 00000KT 5SM M02/M04 A3056 RMK 70000 SLP351 T10201042 52014 IEM_DS3505
ZHHH,2008-01-31 01:00,ZHHH 310100Z AUTO 1SM M02/M05 A3056 RMK T10201050 IEM_DS3505
ZHHH,2008-01-31 02:00,ZHHH 310200Z AUTO 05004KT 1 1/4SM 00/M06 A3056 RMK T00001060 IEM_DS3505
ZHHH,2008-01-31 03:00,ZHHH 310300Z AUTO 09004KT 6SM 01/M06 A3056 RMK SLP351 T00091060 54000 IEM_DS3505
ZHHH,2008-01-31 04:00,ZHHH 310400Z AUTO 01004KT 2SM 02/M06 A3053 RMK T00201060 IEM_DS3505
ZHHH,2008-01-31 05:00,ZHHH 310500Z AUTO 05006KT 2SM 02/M06 A3050 RMK T00201060 IEM_DS3505
ZHHH,2008-01-31 06:00,ZHHH 310600Z AUTO 02004KT 9SM 03/M07 A3047 RMK SLP323 T00301072 57028 IEM_DS3505
ZHHH,2008-01-31 07:00,ZHHH 310700Z AUTO 06006KT 3SM 03/M08 A3045 RMK T00301080 IEM_DS3505
ZHHH,2008-01-31 08:00,ZHHH 310800Z AUTO 2 1/2SM 03/M06 A3047 RMK T00301060 IEM_DS3505
ZHHH,2008-01-31 09:00,ZHHH 310900Z AUTO 32002KT 7SM 02/M05 A3045 RMK SLP314 T00251049 57009 IEM_DS3505
ZHHH,2008-01-31 10:00,ZHHH 311000Z AUTO 01004KT 1 1/4SM 01/M03 A3047 RMK T00101030 IEM_DS3505
ZHHH,2008-01-31 11:00,ZHHH 311100Z AUTO 04006KT 1 1/2SM 01/M06 A3045 RMK T00101060 IEM_DS3505
ZHHH,2008-01-31 12:00,ZHHH 311200Z AUTO 00000KT 7SM 01/M06 A3047 RMK SLP324 T00091064 52010 IEM_DS3505
ZHHH,2008-01-31 13:00,ZHHH 311300Z AUTO 07008KT 2 1/2SM 00/M06 A3047 RMK T00001060 IEM_DS3505
ZHHH,2008-01-31 14:00,ZHHH 311400Z AUTO 04006KT 3SM 00/M07 A3047 RMK T00001070 IEM_DS3505
ZHHH,2008-01-31 15:00,ZHHH 311500Z AUTO 02002KT 7SM 01/M07 A3047 RMK SLP323 T00061074 57001 IEM_DS3505
ZHHH,2008-01-31 16:00,ZHHH 311600Z AUTO 02006KT 3SM 00/M06 A3047 RMK T00001060 IEM_DS3505
ZHHH,2008-01-31 17:00,ZHHH 311700Z AUTO 04006KT 3SM M01/M06 A3047 RMK T10101060 IEM_DS3505
ZHHH,2008-01-31 18:00,ZHHH 311800Z AUTO 07002KT 11SM 00/M07 A3047 RMK SLP317 T00001066 57006 IEM_DS3505
ZHHH,2008-01-31 19:00,ZHHH 311900Z AUTO 03004KT 3SM M01/M06 A3045 RMK T10101060 IEM_DS3505
ZHHH,2008-01-31 20:00,ZHHH 312000Z AUTO 03006KT 2SM M01/M06 A3042 RMK T10101060 IEM_DS3505
ZHHH,2008-01-31 21:00,ZHHH 312100Z AUTO 34002KT 9SM M01/M06 A3042 RMK SLP306 T10071059 57011 IEM_DS3505
ZHHH,2008-01-31 22:00,ZHHH 312200Z AUTO 36004KT 2SM M01/M06 A3042 RMK T10101060 IEM_DS3505
ZHHH,2008-01-31 23:00,ZHHH 312300Z AUTO 2SM M01/M04 A3045 RMK T10101040 IEM_DS3505
ZHHH,2008-02-01 00:00,ZHHH 010000Z AUTO 34002KT 9SM M01/M04 A3045 RMK SLP311 T10081041 52005 IEM_DS3505
ZHHH,2008-02-01 01:00,ZHHH 010100Z AUTO 35004KT 1 1/2SM M01/M04 A3045 RMK T10101040 IEM_DS3505
ZHHH,2008-02-01 02:00,ZHHH 010200Z AUTO 1 1/4SM 00/M05 A3045 RMK T00001050 IEM_DS3505
ZHHH,2008-02-01 03:00,ZHHH 010300Z AUTO 36002KT 7SM M00/M05 A3047 RMK SLP316 T10021046 52005 IEM_DS3505
ZHHH,2008-02-01 04:00,ZHHH 010400Z AUTO 02006KT 1SM M02/M03 A3047 RMK T10201030 IEM_DS3505
ZHHH,2008-02-01 05:00,ZHHH 010500Z AUTO 02006KT 1/2SM M02/M03 A3042 RMK T10201030 IEM_DS3505
ZHHH,2008-02-01 06:00,ZHHH 010600Z AUTO 07002KT 1SM M01/M02 A3039 RMK 60012 SLP298 T10121025 57018 IEM_DS3505
ZHHH,2008-02-01 07:00,ZHHH 010700Z AUTO 03006KT 1SM M02/M03 A3042 RMK T10201030 IEM_DS3505
ZHHH,2008-02-01 08:00,ZHHH 010800Z AUTO 03006KT 1SM M02/M03 A3036 RMK T10201030 IEM_DS3505
ZHHH,2008-02-01 09:00,ZHHH 010900Z AUTO 36002KT 6SM M01/M03 A3036 RMK SLP285 T10131033 57013 IEM_DS3505
ZHHH,2008-02-01 10:00,ZHHH 011000Z AUTO 03004KT 1 1/4SM M02/M03 A3036 RMK T10201030 IEM_DS3505
ZHHH,2008-02-01 11:00,ZHHH 011100Z AUTO 1 1/4SM M02/M03 A3039 RMK T10201030 IEM_DS3505
ZHHH,2008-02-01 12:00,ZHHH 011200Z AUTO 02002KT 6SM M02/M03 A3039 RMK 60000 SLP287 T10161032 52002 IEM_DS3505
ZHHH,2008-02-01 13:00,ZHHH 011300Z AUTO 34002KT 1 1/4SM M02/M04 A3036 RMK T10201040 IEM_DS3505
ZHHH,2008-02-01 14:00,ZHHH 011400Z AUTO 26004KT 1SM M02/M03 A3042 RMK T10201030 IEM_DS3505
ZHHH,2008-02-01 15:00,ZHHH 011500Z AUTO 27002KT 6SM M02/M03 A3039 RMK SLP298 T10151031 52011 IEM_DS3505
ZHHH,2008-02-01 16:00,ZHHH 011600Z AUTO 32002KT 1SM M03/M04 A3039 RMK T10301040 IEM_DS3505
ZHHH,2008-02-01 17:00,ZHHH 011700Z AUTO 35002KT 1SM M03/M04 A3036 RMK T10301040 IEM_DS3505
ZHHH,2008-02-01 18:00,ZHHH 011800Z AUTO 27002KT 6SM M02/M04 A3039 RMK SLP291 T10211040 57007 IEM_DS3505
ZHHH,2008-02-01 19:00,ZHHH 011900Z AUTO 00000KT 1/4SM M05/M05 A3036 RMK T10501050 IEM_DS3505
ZHHH,2008-02-01 20:00,ZHHH 012000Z AUTO 32004KT 1/8SM M07/M07 A3033 RMK T10701070 IEM_DS3505
ZHHH,2008-02-01 21:00,ZHHH 012100Z AUTO 29002KT 5SM M04/M05 A3033 RMK 70013 SLP274 T10401050 57017 IEM_DS3505
ZHHH,2008-02-01 22:00,ZHHH 012200Z AUTO 00000KT 1/4SM M06/M06 A3036 RMK T10601060 IEM_DS3505
ZHHH,2008-02-01 23:00,ZHHH 012300Z AUTO 21004KT 1/2SM M07/M08 A3036 RMK T10701080 IEM_DS3505
ZHHH,2008-02-02 00:00,ZHHH 020000Z AUTO 34002KT 6SM M05/M06 A3039 RMK 70013 SLP291 T10471055 52017 IEM_DS3505
ZHHH,2008-02-02 01:00,ZHHH 020100Z AUTO 00000KT 3/8SM M06/M06 A3039 RMK T10601060 IEM_DS3505
ZHHH,2008-02-02 02:00,ZHHH 020200Z AUTO 00000KT 1/2SM M05/M05 A3039 RMK T10501050 IEM_DS3505
ZHHH,2008-02-02 03:00,ZHHH 020300Z AUTO 20004KT 6SM 00/M05 A3039 RMK SLP292 T00041046 52001 IEM_DS3505
ZHHH,2008-02-02 04:00,ZHHH 020400Z AUTO 00000KT 1 1/2SM 00/M04 A3036 RMK T00001040 IEM_DS3505
ZHHH,2008-02-02 05:00,ZHHH 020500Z AUTO 29004KT 6SM 01/M06 A3033 RMK T00101060 IEM_DS3505
ZHHH,2008-02-02 06:00,ZHHH 020600Z AUTO 34004KT 9SM 03/M06 A3030 RMK SLP264 T00261055 57028 IEM_DS3505
ZHHH,2008-02-02 07:00,ZHHH 020700Z AUTO 26004KT 6SM 02/M04 A3030 RMK T00201040 IEM_DS3505
ZHHH,2008-02-02 08:00,ZHHH 020800Z AUTO 6SM 01/M05 A3030 RMK T00101050 IEM_DS3505
ZHHH,2008-02-02 09:00,ZHHH 020900Z AUTO 09002KT 9SM 01/M06 A3030 RMK SLP260 T00141055 57004 IEM_DS3505
ZHHH,2008-02-02 10:00,ZHHH 021000Z AUTO 19004KT 6SM 00/M04 A3030 RMK T00001040 IEM_DS3505
ZHHH,2008-02-02 11:00,ZHHH 021100Z AUTO 17004KT 3SM M01/M04 A3033 RMK T10101040 IEM_DS3505
ZHHH,2008-02-02 12:00,ZHHH 021200Z AUTO 22002KT 9SM M01/M04 A3033 RMK SLP273 T10091042 52013 IEM_DS3505
ZHHH,2008-02-02 13:00,ZHHH 021300Z AUTO 13004KT 1 1/2SM M01/M04 A3036 RMK T10101040 IEM_DS3505
ZHHH,2008-02-02 14:00,ZHHH 021400Z AUTO 20004KT 1SM M02/M04 A3036 RMK T10201040 IEM_DS3505
ZHHH,2008-02-02 15:00,ZHHH 021500Z AUTO 00000KT 9SM M03/M04 A3039 RMK SLP295 T10261043 52022 IEM_DS3505
ZHHH,2008-02-02 16:00,ZHHH 021600Z AUTO 23002KT 1SM M03/M05 A3039 RMK T10301050 IEM_DS3505
ZHHH,2008-02-02 17:00,ZHHH 021700Z AUTO 23002KT 1SM M03/M04 A3039 RMK T10301040 IEM_DS3505
ZHHH,2008-02-02 18:00,ZHHH 021800Z AUTO 00000KT 9SM M04/M05 A3039 RMK SLP288 T10411049 57007 IEM_DS3505
ZHHH,2008-02-02 19:00,ZHHH 021900Z AUTO 36002KT 1SM M03/M05 A3036 RMK T10301050 IEM_DS3505
ZHHH,2008-02-02 20:00,ZHHH 022000Z AUTO 00000KT 1/2SM M04/M05 A3036 RMK T10401050 IEM_DS3505
ZHHH,2008-02-02 21:00,ZHHH 022100Z AUTO 00000KT 6SM M04/M05 A3039 RMK SLP289 T10451052 52001 IEM_DS3505
ZHHH,2008-02-02 22:00,ZHHH 022200Z AUTO 00000KT 1/2SM M05/M05 A3039 RMK T10501050 IEM_DS3505
ZHHH,2008-02-02 23:00,ZHHH 022300Z AUTO 00000KT 1/2SM M05/M06 A3039 RMK T10501060 IEM_DS3505
ZHHH,2008-02-03 00:00,ZHHH 030000Z AUTO 09002KT 5SM M04/M04 A3042 RMK SLP299 T10411045 52010 IEM_DS3505
ZHHH,2008-02-03 01:00,ZHHH 030100Z AUTO 10004KT 1SM M04/M05 A3042 RMK T10401050 IEM_DS3505
ZHHH,2008-02-03 02:00,ZHHH 030200Z AUTO 09004KT 1SM M04/M05 A3045 RMK T10401050 IEM_DS3505
ZHHH,2008-02-03 03:00,ZHHH 030300Z AUTO 11002KT 6SM 02/M04 A3045 RMK SLP307 T00241041 52008 IEM_DS3505
ZHHH,2008-02-03 04:00,ZHHH 030400Z AUTO 10004KT 1SM M01/M03 A3042 RMK T10101030 IEM_DS3505
ZHHH,2008-02-03 05:00,ZHHH 030500Z AUTO 12004KT 1 1/4SM 00/M02 A3036 RMK T00001020 IEM_DS3505
ZHHH,2008-02-03 06:00,ZHHH 030600Z AUTO 11002KT 7SM 04/M03 A3033 RMK SLP271 T00381032 57036 IEM_DS3505
ZHHH,2008-02-03 07:00,ZHHH 030700Z AUTO 13004KT 1 1/2SM 02/M03 A3030 RMK T00201030 IEM_DS3505
ZHHH,2008-02-03 08:00,ZHHH 030800Z AUTO 2SM 03/M03 A3030 RMK T00301030 IEM_DS3505
ZHHH,2008-02-03 09:00,ZHHH 030900Z AUTO 07002KT 7SM 03/M03 A3030 RMK SLP260 T00271026 57011 IEM_DS3505
ZHHH,2008-02-03 10:00,ZHHH 031000Z AUTO 12004KT 1SM 01/M01 A3030 RMK T00101010 IEM_DS3505
ZHHH,2008-02-03 11:00,ZHHH 031100Z AUTO 13004KT 1SM 01/M02 A3030 RMK T00101020 IEM_DS3505
ZHHH,2008-02-03 12:00,ZHHH 031200Z AUTO 16002KT 6SM 01/M03 A3033 RMK SLP272 T00111030 52012 IEM_DS3505
ZHHH,2008-02-03 13:00,ZHHH 031300Z AUTO 1SM 00/M02 A3036 RMK T00001020 IEM_DS3505
ZHHH,2008-02-03 14:00,ZHHH 031400Z AUTO 10004KT 1SM 00/M02 A3033 RMK T00001020 IEM_DS3505
ZHHH,2008-02-03 15:00,ZHHH 031500Z AUTO 10004KT 1SM 00/M02 A3033 RMK T00001020 IEM_DS3505
ZHHH,2008-02-03 16:00,ZHHH 031600Z AUTO 08004KT 1SM 00/M02 A3033 RMK T00001020 IEM_DS3505
ZHHH,2008-02-03 17:00,ZHHH 031700Z AUTO 1SM M01/M02 A3033 RMK T10101020 IEM_DS3505
ZHHH,2008-02-03 18:00,ZHHH 031800Z AUTO 04002KT 6SM M01/M02 A3030 RMK SLP264 T10101024 57009 IEM_DS3505
ZHHH,2008-02-03 19:00,ZHHH 031900Z AUTO 08008KT 1SM M02/M03 A3030 RMK T10201030 IEM_DS3505
ZHHH,2008-02-03 20:00,ZHHH 032000Z AUTO 08006KT 1SM M02/M03 A3030 RMK T10201030 IEM_DS3505
ZHHH,2008-02-03 21:00,ZHHH 032100Z AUTO 07002KT 4SM M03/M04 A3030 RMK SLP262 T10271035 57002 IEM_DS3505
ZHHH,2008-02-03 22:00,ZHHH 032200Z AUTO 09006KT 1SM M03/M04 A3030 RMK T10301040 IEM_DS3505
ZHHH,2008-02-03 23:00,ZHHH 032300Z AUTO 09006KT 1SM M03/M04 A3030 RMK T10301040 IEM_DS3505
ZHHH,2008-02-04 00:00,ZHHH 040000Z AUTO 07002KT 4SM M02/M03 A3030 RMK SLP264 T10211028 52002 IEM_DS3505
ZHHH,2008-02-04 01:00,ZHHH 040100Z AUTO 09008KT 1SM M01/M02 A3033 RMK T10101020 IEM_DS3505
ZHHH,2008-02-04 02:00,ZHHH 040200Z AUTO 11008KT 1SM 00/M02 A3033 RMK T00001020 IEM_DS3505
ZHHH,2008-02-04 03:00,ZHHH 040300Z AUTO 16004KT 7SM 04/M02 A3033 RMK SLP270 T00371021 52006 IEM_DS3505
ZHHH,2008-02-04 04:00,ZHHH 040400Z AUTO 11006KT 1 1/4SM 03/M01 A3030 RMK T00301010 IEM_DS3505
ZHHH,2008-02-04 05:00,ZHHH 040500Z AUTO 10006KT 1 1/2SM 04/M01 A3027 RMK T00401010 IEM_DS3505
ZHHH,2008-02-04 06:00,ZHHH 040600Z AUTO 09004KT 9SM 06/M02 A3027 RMK SLP246 T00601019 57024 IEM_DS3505
ZHHH,2008-02-04 07:00,ZHHH 040700Z AUTO 10004KT 1 1/2SM 05/00 A3024 RMK T00500000 IEM_DS3505
ZHHH,2008-02-04 08:00,ZHHH 040800Z AUTO 09004KT 2 1/2SM 05/00 A3024 RMK T00500000 IEM_DS3505
ZHHH,2008-02-04 09:00,ZHHH 040900Z AUTO 07002KT 7SM 05/M01 A3024 RMK SLP240 T00501010 57006 IEM_DS3505
ZHHH,2008-02-04 10:00,ZHHH 041000Z AUTO 09006KT 3SM 04/00 A3024 RMK T00400000 IEM_DS3505
ZHHH,2008-02-04 11:00,ZHHH 041100Z AUTO 09006KT 3SM 03/00 A3024 RMK T00300000 IEM_DS3505
ZHHH,2008-02-04 12:00,ZHHH 041200Z AUTO 00000KT 7SM 03/M01 A3027 RMK SLP251 T00311011 52011 IEM_DS3505
ZHHH,2008-02-04 13:00,ZHHH 041300Z AUTO 02002KT 2SM 03/00 A3030 RMK T00300000 IEM_DS3505
ZHHH,2008-02-04 14:00,ZHHH 041400Z AUTO 02004KT 2SM 03/M01 A3030 RMK T00301010 IEM_DS3505
ZHHH,2008-02-04 15:00,ZHHH 041500Z AUTO 36002KT 6SM 03/M01 A3030 RMK SLP266 T00311007 52015 IEM_DS3505
ZHHH,2008-02-04 16:00,ZHHH 041600Z AUTO 04008KT 2 1/2SM 02/M02 A3030 RMK T00201020 IEM_DS3505
ZHHH,2008-02-04 17:00,ZHHH 041700Z AUTO 04008KT 2 1/2SM 02/M02 A3030 RMK T00201020 IEM_DS3505
ZHHH,2008-02-04 18:00,ZHHH 041800Z AUTO 34002KT 6SM 02/M03 A3030 RMK SLP262 T00231026 57004 IEM_DS3505
ZHHH,2008-02-04 19:00,ZHHH 041900Z AUTO 2SM 02/M02 A3030 RMK T00201020 IEM_DS3505
ZHHH,2008-02-04 20:00,ZHHH 042000Z AUTO 02004KT 1 1/2SM 02/M01 A3030 RMK T00201010 IEM_DS3505
ZHHH,2008-02-04 21:00,ZHHH 042100Z AUTO 00000KT 6SM 02/M02 A3030 RMK SLP263 T00151017 52001 IEM_DS3505
ZHHH,2008-02-04 22:00,ZHHH 042200Z AUTO 34004KT 1SM 01/M02 A3033 RMK T00101020 IEM_DS3505
ZHHH,2008-02-04 23:00,ZHHH 042300Z AUTO 1 1/4SM 01/M01 A3033 RMK T00101010 IEM_DS3505
ZHHH,2008-02-05 00:00,ZHHH 050000Z AUTO 07002KT 7SM 02/M03 A3036 RMK SLP280 T00191030 52017 IEM_DS3505
ZHHH,2008-02-05 01:00,ZHHH 050100Z AUTO 02006KT 2 1/2SM 02/M04 A3039 RMK T00201040 IEM_DS3505
ZHHH,2008-02-05 02:00,ZHHH 050200Z AUTO 02010KT 2 1/2SM 04/M04 A3039 RMK T00401040 IEM_DS3505
ZHHH,2008-02-05 03:00,ZHHH 050300Z AUTO 02006KT 9SM 04/M05 A3039 RMK SLP294 T00421048 52014 IEM_DS3505
ZHHH,2008-02-05 04:00,ZHHH 050400Z AUTO 02012KT 4SM 05/M05 A3039 RMK T00501050 IEM_DS3505
ZHHH,2008-02-05 05:00,ZHHH 050500Z AUTO 03012KT 4SM 05/M04 A3036 RMK T00501040 IEM_DS3505
ZHHH,2008-02-05 06:00,ZHHH 050600Z AUTO 02006KT 11SM 06/M06 A3033 RMK SLP278 T00601059 57016 IEM_DS3505
ZHHH,2008-02-05 07:00,ZHHH 050700Z AUTO 05012KT 3SM 06/M03 A3033 RMK T00601030 IEM_DS3505
ZHHH,2008-02-05 08:00,ZHHH 050800Z AUTO 05012KT 1 1/4SM 05/M03 A3033 RMK T00501030 IEM_DS3505
ZHHH,2008-02-05 09:00,ZHHH 050900Z AUTO 04004KT 7SM 05/M03 A3036 RMK SLP278 T00481032 54000 IEM_DS3505
ZHHH,2008-02-05 10:00,ZHHH 051000Z AUTO 02012KT 1 1/2SM 03/M04 A3036 RMK T00301040 IEM_DS3505
ZHHH,2008-02-05 11:00,ZHHH 051100Z AUTO 01010KT 1 1/2SM 02/M04 A3039 RMK T00201040 IEM_DS3505
ZHHH,2008-02-05 12:00,ZHHH 051200Z AUTO 02004KT 7SM 02/M05 A3042 RMK SLP300 T00221048 52022 IEM_DS3505
ZHHH,2008-02-05 13:00,ZHHH 051300Z AUTO 02008KT 2SM 02/M04 A3042 RMK T00201040 IEM_DS3505
ZHHH,2008-02-05 14:00,ZHHH 051400Z AUTO 02008KT 2SM 01/M04 A3045 RMK T00101040 IEM_DS3505
ZHHH,2008-02-05 15:00,ZHHH 051500Z AUTO 07002KT 7SM 01/M04 A3045 RMK SLP312 T00141043 52012 IEM_DS3505
ZHHH,2008-02-05 16:00,ZHHH 051600Z AUTO 03006KT 2SM 01/M04 A3045 RMK T00101040 IEM_DS3505
ZHHH,2008-02-05 17:00,ZHHH 051700Z AUTO 02006KT 2SM 00/M04 A3045 RMK T00001040 IEM_DS3505
ZHHH,2008-02-05 18:00,ZHHH 051800Z AUTO 36002KT 7SM 00/M04 A3045 RMK SLP313 T00021044 52001 IEM_DS3505
ZHHH,2008-02-05 19:00,ZHHH 051900Z AUTO 02006KT 2SM 00/M05 A3045 RMK T00001050 IEM_DS3505
ZHHH,2008-02-05 20:00,ZHHH 052000Z AUTO 01006KT 2SM M01/M05 A3045 RMK T10101050 IEM_DS3505
ZHHH,2008-02-05 21:00,ZHHH 052100Z AUTO 04002KT 7SM M00/M05 A3042 RMK SLP304 T10051049 57009 IEM_DS3505
ZHHH,2008-02-05 22:00,ZHHH 052200Z AUTO 03006KT 2SM M01/M05 A3042 RMK T10101050 IEM_DS3505
ZHHH,2008-02-05 23:00,ZHHH 052300Z AUTO 04006KT 1 1/4SM M02/M05 A3045 RMK T10201050 IEM_DS3505
ZHHH,2008-02-06 00:00,ZHHH 060000Z AUTO 04002KT 7SM M01/M06 A3045 RMK SLP316 T10091057 52012 IEM_DS3505
ZHHH,2008-02-06 01:00,ZHHH 060100Z AUTO 04008KT 1 1/2SM 00/M05 A3047 RMK T00001050 IEM_DS3505
ZHHH,2008-02-06 02:00,ZHHH 060200Z AUTO 04010KT 1 1/4SM 01/M04 A3045 RMK T00101040 IEM_DS3505
ZHHH,2008-02-06 03:00,ZHHH 060300Z AUTO 04002KT 9SM 02/M05 A3045 RMK SLP318 T00251047 52002 IEM_DS3505
ZHHH,2008-02-06 04:00,ZHHH 060400Z AUTO 04004KT 1 1/4SM 04/M04 A3045 RMK T00401040 IEM_DS3505
ZHHH,2008-02-06 05:00,ZHHH 060500Z AUTO 01004KT 1 1/4SM 05/M04 A3042 RMK T00501040 IEM_DS3505
ZHHH,2008-02-06 06:00,ZHHH 060600Z AUTO 25002KT 7SM 05/M04 A3039 RMK SLP288 T00531040 57030 IEM_DS3505
ZHHH,2008-02-06 07:00,ZHHH 060700Z AUTO 07004KT 1 1/2SM 06/M04 A3036 RMK T00601040 IEM_DS3505
ZHHH,2008-02-06 08:00,ZHHH 060800Z AUTO 04004KT 1 1/2SM 06/M04 A3033 RMK T00601040 IEM_DS3505
ZHHH,2008-02-06 09:00,ZHHH 060900Z AUTO 11002KT 7SM 05/M05 A3033 RMK SLP271 T00501046 57017 IEM_DS3505
ZHHH,2008-02-06 10:00,ZHHH 061000Z AUTO 14004KT 1 1/2SM 04/M03 A3033 RMK T00401030 IEM_DS3505
ZHHH,2008-02-06 11:00,ZHHH 061100Z AUTO 03004KT 1 1/4SM 03/M03 A3033 RMK T00301030 IEM_DS3505
ZHHH,2008-02-06 12:00,ZHHH 061200Z AUTO 00000KT 5SM 00/M02 A3036 RMK SLP275 T00011016 52004 IEM_DS3505
ZHHH,2008-02-06 13:00,ZHHH 061300Z AUTO 03006KT 1 1/4SM 01/M03 A3036 RMK T00101030 IEM_DS3505
ZHHH,2008-02-06 14:00,ZHHH 061400Z AUTO 04006KT 1 1/2SM 00/M04 A3039 RMK T00001040 IEM_DS3505
ZHHH,2008-02-06 15:00,ZHHH 061500Z AUTO 00000KT 6SM M00/M03 A3036 RMK SLP289 T10051034 52014 IEM_DS3505
ZHHH,2008-02-06 16:00,ZHHH 061600Z AUTO 04004KT 1 1/2SM M01/M03 A3039 RMK T10101030 IEM_DS3505
ZHHH,2008-02-06 17:00,ZHHH 061700Z AUTO 04004KT 1 1/2SM M01/M03 A3039 RMK T10101030 IEM_DS3505
ZHHH,2008-02-06 18:00,ZHHH 061800Z AUTO 00000KT 6SM M01/M04 A3036 RMK SLP286 T10111036 57003 IEM_DS3505
ZHHH,2008-02-06 19:00,ZHHH 061900Z AUTO 1 1/4SM M02/M04 A3036 RMK T10201040 IEM_DS3505
ZHHH,2008-02-06 20:00,ZHHH 062000Z AUTO 08004KT 1 1/4SM M02/M04 A3036 RMK T10201040 IEM_DS3505
ZHHH,2008-02-06 21:00,ZHHH 062100Z AUTO 07002KT 5SM M02/M04 A3033 RMK SLP277 T10181035 57009 IEM_DS3505
ZHHH,2008-02-06 22:00,ZHHH 062200Z AUTO 08004KT 1 1/4SM M03/M04 A3033 RMK T10301040 IEM_DS3505
ZHHH,2008-02-06 23:00,ZHHH 062300Z AUTO 02004KT 1SM M03/M04 A3036 RMK T10301040 IEM_DS3505
ZHHH,2008-02-07 00:00,ZHHH 070000Z AUTO 02002KT 6SM M02/M04 A3036 RMK SLP288 T10201040 52011 IEM_DS3505
ZHHH,2008-02-07 01:00,ZHHH 070100Z AUTO 06004KT 1SM M02/M04 A3039 RMK T10201040 IEM_DS3505
ZHHH,2008-02-07 02:00,ZHHH 070200Z AUTO 10004KT 1SM 00/M03 A3039 RMK T00001030 IEM_DS3505
ZHHH,2008-02-07 03:00,ZHHH 070300Z AUTO 34002KT 7SM 02/M04 A3039 RMK SLP296 T00191038 52008 IEM_DS3505
ZHHH,2008-02-07 04:00,ZHHH 070400Z AUTO 1 1/4SM 03/M02 A3039 RMK T00301020 IEM_DS3505
ZHHH,2008-02-07 05:00,ZHHH 070500Z AUTO 31004KT 1 1/4SM 04/M02 A3033 RMK T00401020 IEM_DS3505
ZHHH,2008-02-07 06:00,ZHHH 070600Z AUTO 07004KT 7SM 05/M02 A3030 RMK SLP268 T00531018 57028 IEM_DS3505
ZHHH,2008-02-07 07:00,ZHHH 070700Z AUTO 30004KT 1 1/4SM 06/M03 A3030 RMK T00601030 IEM_DS3505
ZHHH,2008-02-07 08:00,ZHHH 070800Z AUTO 30006KT 1 1/2SM 06/M03 A3027 RMK T00601030 IEM_DS3505
ZHHH,2008-02-07 09:00,ZHHH 070900Z AUTO 02002KT 7SM 06/M04 A3027 RMK SLP256 T00561040 57012 IEM_DS3505
ZHHH,2008-02-07 10:00,ZHHH 071000Z AUTO 30002KT 2SM 05/M03 A3030 RMK T00501030 IEM_DS3505
ZHHH,2008-02-07 11:00,ZHHH 071100Z AUTO 24004KT 2SM 03/M03 A3030 RMK T00301030 IEM_DS3505
ZHHH,2008-02-07 12:00,ZHHH 071200Z AUTO 00000KT 9SM 00/M01 A3033 RMK SLP272 T00041014 52016 IEM_DS3505
ZHHH,2008-02-07 13:00,ZHHH 071300Z AUTO 05008KT 2SM 02/M04 A3033 RMK T00201040 IEM_DS3505
ZHHH,2008-02-07 14:00,ZHHH 071400Z AUTO 07008KT 2SM 01/M03 A3036 RMK T00101030 IEM_DS3505
ZHHH,2008-02-07 15:00,ZHHH 071500Z AUTO 07002KT 9SM 01/M02 A3036 RMK SLP287 T00091025 52015 IEM_DS3505
ZHHH,2008-02-07 16:00,ZHHH 071600Z AUTO 08006KT 1 1/2SM M01/M03 A3036 RMK T10101030 IEM_DS3505
ZHHH,2008-02-07 17:00,ZHHH 071700Z AUTO 1 1/4SM M01/M03 A3036 RMK T10101030 IEM_DS3505
ZHHH,2008-02-07 18:00,ZHHH 071800Z AUTO 34002KT 7SM M02/M03 A3036 RMK SLP287 T10171030 54000 IEM_DS3505
ZHHH,2008-02-07 19:00,ZHHH 071900Z AUTO 35004KT 1 1/4SM M02/M04 A3036 RMK T10201040 IEM_DS3505
ZHHH,2008-02-07 20:00,ZHHH 072000Z AUTO 00000KT 1 1/4SM M02/M04 A3036 RMK T10201040 IEM_DS3505
ZHHH,2008-02-07 21:00,ZHHH 072100Z AUTO 00000KT 7SM M02/M04 A3039 RMK SLP294 T10161036 52007 IEM_DS3505
ZHHH,2008-02-07 22:00,ZHHH 072200Z AUTO 01006KT 1 1/4SM M02/M04 A3039 RMK T10201040 IEM_DS3505
ZHHH,2008-02-07 23:00,ZHHH 072300Z AUTO 36006KT 1SM M02/M04 A3042 RMK T10201040 IEM_DS3505
ZHHH,2008-02-08 00:00,ZHHH 080000Z AUTO 02004KT 9SM M01/M04 A3045 RMK SLP313 T10091037 52019 IEM_DS3505
ZHHH,2008-02-08 01:00,ZHHH 080100Z AUTO 04010KT 3SM 01/M05 A3047 RMK T00101050 IEM_DS3505
ZHHH,2008-02-08 02:00,ZHHH 080200Z AUTO 04014G23KT 6SM 02/M06 A3050 RMK T00201060 IEM_DS3505
ZHHH,2008-02-08 03:00,ZHHH 080300Z AUTO 07008KT 16SM 03/M10 A3050 RMK SLP334 T00341099 52021 IEM_DS3505
ZHHH,2008-02-08 04:00,ZHHH 080400Z AUTO 04014KT 3SM 04/M07 A3050 RMK T00401070 IEM_DS3505
ZHHH,2008-02-08 05:00,ZHHH 080500Z AUTO 04014KT 4SM 04/M09 A3047 RMK T00401090 IEM_DS3505
ZHHH,2008-02-08 06:00,ZHHH 080600Z AUTO 34004KT 12SM 06/M09 A3045 RMK SLP312 T00581092 57022 IEM_DS3505
ZHHH,2008-02-08 07:00,ZHHH 080700Z AUTO 05012KT 6SM 05/M08 A3045 RMK T00501080 IEM_DS3505
ZHHH,2008-02-08 08:00,ZHHH 080800Z AUTO 04012KT 6SM 05/M09 A3045 RMK T00501090 IEM_DS3505
ZHHH,2008-02-08 09:00,ZHHH 080900Z AUTO 02002KT 12SM 05/M11 A3045 RMK SLP313 T00541108 52001 IEM_DS3505
ZHHH,2008-02-08 10:00,ZHHH 081000Z AUTO 04010KT 6SM 03/M08 A3047 RMK T00301080 IEM_DS3505
ZHHH,2008-02-08 11:00,ZHHH 081100Z AUTO 05010KT 6SM 02/M07 A3047 RMK T00201070 IEM_DS3505
ZHHH,2008-02-08 12:00,ZHHH 081200Z AUTO 09004KT 11SM 02/M08 A3050 RMK SLP329 T00171079 52016 IEM_DS3505
ZHHH,2008-02-08 13:00,ZHHH 081300Z AUTO 06008KT 6SM 00/M07 A3053 RMK T00001070 IEM_DS3505
ZHHH,2008-02-08 14:00,ZHHH 081400Z AUTO 06006KT 6SM 00/M07 A3053 RMK T00001070 IEM_DS3505
ZHHH,2008-02-08 15:00,ZHHH 081500Z AUTO 04002KT 9SM M00/M08 A3056 RMK SLP348 T10021079 52019 IEM_DS3505
ZHHH,2008-02-08 16:00,ZHHH 081600Z AUTO 06004KT 6SM M01/M07 A3056 RMK T10101070 IEM_DS3505
ZHHH,2008-02-08 17:00,ZHHH 081700Z AUTO 03004KT 6SM M02/M07 A3053 RMK T10201070 IEM_DS3505
ZHHH,2008-02-08 18:00,ZHHH 081800Z AUTO 02002KT 11SM M01/M07 A3053 RMK SLP342 T10121067 57006 IEM_DS3505
ZHHH,2008-02-08 19:00,ZHHH 081900Z AUTO 04004KT 6SM M02/M07 A3050 RMK T10201070 IEM_DS3505
ZHHH,2008-02-08 20:00,ZHHH 082000Z AUTO 04004KT 6SM M02/M07 A3050 RMK T10201070 IEM_DS3505
ZHHH,2008-02-08 21:00,ZHHH 082100Z AUTO 04002KT 11SM M02/M07 A3047 RMK SLP326 T10221073 57016 IEM_DS3505
ZHHH,2008-02-08 22:00,ZHHH 082200Z AUTO 05004KT 6SM M03/M07 A3050 RMK T10301070 IEM_DS3505
ZHHH,2008-02-08 23:00,ZHHH 082300Z AUTO 04004KT 6SM M04/M07 A3050 RMK T10401070 IEM_DS3505
ZHHH,2008-02-09 00:00,ZHHH 090000Z AUTO 04004KT 11SM M02/M07 A3053 RMK SLP337 T10211074 52011 IEM_DS3505
ZHHH,2008-02-09 01:00,ZHHH 090100Z AUTO 05008KT 6SM 00/M07 A3053 RMK T00001070 IEM_DS3505
ZHHH,2008-02-09 02:00,ZHHH 090200Z AUTO 06008KT 6SM 01/M08 A3053 RMK T00101080 IEM_DS3505
ZHHH,2008-02-09 03:00,ZHHH 090300Z AUTO 07006KT 11SM 04/M10 A3053 RMK SLP340 T00351098 52003 IEM_DS3505
ZHHH,2008-02-09 04:00,ZHHH 090400Z AUTO 08012KT 6SM 04/M09 A3050 RMK T00401090 IEM_DS3505
ZHHH,2008-02-09 05:00,ZHHH 090500Z AUTO 10008KT 6SM 05/M10 A3047 RMK T00501100 IEM_DS3505
ZHHH,2008-02-09 06:00,ZHHH 090600Z AUTO 09006KT 16SM 06/M12 A3042 RMK SLP308 T00581118 57032 IEM_DS3505
ZHHH,2008-02-09 07:00,ZHHH 090700Z AUTO 26006KT 6SM 06/M09 A3039 RMK T00601090 IEM_DS3505
ZHHH,2008-02-09 08:00,ZHHH 090800Z AUTO 6SM 06/M09 A3039 RMK T00601090 IEM_DS3505
ZHHH,2008-02-09 09:00,ZHHH 090900Z AUTO 20002KT 16SM 06/M11 A3039 RMK SLP287 T00581113 57021 IEM_DS3505
ZHHH,2008-02-09 10:00,ZHHH 091000Z AUTO 16004KT 6SM 04/M07 A3039 RMK T00401070 IEM_DS3505
ZHHH,2008-02-09 11:00,ZHHH 091100Z AUTO 22004KT 6SM 03/M08 A3039 RMK T00301080 IEM_DS3505
ZHHH,2008-02-09 12:00,ZHHH 091200Z AUTO 26002KT 6SM 03/M06 A3042 RMK T00301060 IEM_DS3505
ZHHH,2008-02-09 13:00,ZHHH 091300Z AUTO 04008KT 6SM 03/M07 A3042 RMK T00301070 IEM_DS3505
ZHHH,2008-02-09 14:00,ZHHH 091400Z AUTO 06008KT 6SM 02/M06 A3042 RMK T00201060 IEM_DS3505
ZHHH,2008-02-09 15:00,ZHHH 091500Z AUTO 04004KT 9SM 02/M07 A3042 RMK SLP300 T00201071 52003 IEM_DS3505
ZHHH,2008-02-09 16:00,ZHHH 091600Z AUTO 06008KT 6SM 01/M06 A3042 RMK T00101060 IEM_DS3505
ZHHH,2008-02-09 17:00,ZHHH 091700Z AUTO 05006KT 6SM 01/M06 A3039 RMK T00101060 IEM_DS3505
ZHHH,2008-02-09 18:00,ZHHH 091800Z AUTO 07002KT 9SM 02/M06 A3039 RMK SLP293 T00171064 57007 IEM_DS3505
ZHHH,2008-02-09 19:00,ZHHH 091900Z AUTO 05004KT 6SM 01/M05 A3036 RMK T00101050 IEM_DS3505
ZHHH,2008-02-09 20:00,ZHHH 092000Z AUTO 05004KT 6SM 01/M05 A3036 RMK T00101050 IEM_DS3505
ZHHH,2008-02-09 21:00,ZHHH 092100Z AUTO 09002KT 9SM 01/M06 A3036 RMK SLP284 T00121064 57009 IEM_DS3505
ZHHH,2008-02-09 22:00,ZHHH 092200Z AUTO 03004KT 6SM 01/M05 A3039 RMK T00101050 IEM_DS3505
ZHHH,2008-02-09 23:00,ZHHH 092300Z AUTO 06004KT 6SM 00/M05 A3039 RMK T00001050 IEM_DS3505
ZHHH,2008-02-10 00:00,ZHHH 100000Z AUTO 09004KT 9SM 01/M06 A3039 RMK SLP294 T00121059 52010 IEM_DS3505
ZHHH,2008-02-10 04:00,ZHHH 100400Z AUTO 6SM 04/M04 A3039 RMK T00401040 IEM_DS3505
ZHHH,2008-02-10 05:00,ZHHH 100500Z AUTO 6SM 04/M04 A3036 RMK T00401040 IEM_DS3505
ZHHH,2008-02-10 06:00,ZHHH 100600Z AUTO 16002KT 12SM 04/M05 A3033 RMK SLP273 T00421050 57027 IEM_DS3505
ZHHH,2008-02-10 07:00,ZHHH 100700Z AUTO 28004KT 6SM 05/M04 A3033 RMK T00501040 IEM_DS3505
ZHHH,2008-02-10 08:00,ZHHH 100800Z AUTO 17004KT 6SM 05/M06 A3030 RMK T00501060 IEM_DS3505
ZHHH,2008-02-10 09:00,ZHHH 100900Z AUTO 00000KT 11SM 05/M06 A3030 RMK SLP265 T00491060 57008 IEM_DS3505
ZHHH,2008-02-10 10:00,ZHHH 101000Z AUTO 02002KT 6SM 04/M05 A3030 RMK T00401050 IEM_DS3505
ZHHH,2008-02-10 11:00,ZHHH 101100Z AUTO 16004KT 5SM 04/M05 A3033 RMK T00401050 IEM_DS3505
ZHHH,2008-02-10 12:00,ZHHH 101200Z AUTO 00000KT 11SM 02/M03 A3033 RMK SLP274 T00151026 52009 IEM_DS3505
ZHHH,2008-02-10 13:00,ZHHH 101300Z AUTO 5SM 03/M05 A3033 RMK T00301050 IEM_DS3505
ZHHH,2008-02-10 15:00,ZHHH 101500Z AUTO 00000KT 11SM M00/M02 A3036 RMK SLP281 T10051021 52007 IEM_DS3505
ZHHH,2008-02-10 16:00,ZHHH 101600Z AUTO 04004KT 5SM 01/M02 A3036 RMK T00101020 IEM_DS3505
ZHHH,2008-02-10 17:00,ZHHH 101700Z AUTO 04004KT 6SM 02/M03 A3036 RMK T00201030 IEM_DS3505
ZHHH,2008-02-10 18:00,ZHHH 101800Z AUTO 00000KT 9SM 02/M02 A3036 RMK SLP280 T00181023 57001 IEM_DS3505
ZHHH,2008-02-10 19:00,ZHHH 101900Z AUTO 05006KT 6SM 01/M05 A3033 RMK T00101050 IEM_DS3505
ZHHH,2008-02-10 21:00,ZHHH 102100Z AUTO 00000KT 11SM 02/M04 RMK SLP275 T00181043 57005 IEM_DS3505
ZHHH,2008-02-11 00:00,ZHHH 110000Z AUTO 34002KT 9SM 02/M02 A3039 RMK SLP294 T00151024 52019 IEM_DS3505
ZHHH,2008-02-11 01:00,ZHHH 110100Z AUTO 6SM 01/M03 A3042 RMK T00101030 IEM_DS3505
ZHHH,2008-02-11 02:00,ZHHH 110200Z AUTO 35004KT 6SM 03/M05 A3042 RMK T00301050 IEM_DS3505
ZHHH,2008-02-11 03:00,ZHHH 110300Z AUTO 02004KT 9SM 04/M06 A3042 RMK SLP308 T00371055 52014 IEM_DS3505
ZHHH,2008-02-11 04:00,ZHHH 110400Z AUTO 03008KT 6SM 04/M09 A3042 RMK T00401090 IEM_DS3505
ZHHH,2008-02-11 05:00,ZHHH 110500Z AUTO 02008KT 6SM 05/M08 A3042 RMK T00501080 IEM_DS3505
ZHHH,2008-02-11 06:00,ZHHH 110600Z AUTO 04004KT 12SM 06/M10 A3042 RMK SLP298 T00571097 57010 IEM_DS3505
ZHHH,2008-02-11 07:00,ZHHH 110700Z AUTO 05010KT 6SM 06/M07 A3039 RMK T00601070 IEM_DS3505
ZHHH,2008-02-11 08:00,ZHHH 110800Z AUTO 02008KT 6SM 07/M06 A3039 RMK T00701060 IEM_DS3505
ZHHH,2008-02-11 09:00,ZHHH 110900Z AUTO 02004KT 11SM 07/M08 A3039 RMK SLP296 T00661085 57002 IEM_DS3505
ZHHH,2008-02-11 10:00,ZHHH 111000Z AUTO 03004KT 6SM 05/M04 A3042 RMK T00501040 IEM_DS3505
ZHHH,2008-02-11 11:00,ZHHH 111100Z AUTO 02006KT 6SM 04/M04 A3045 RMK T00401040 IEM_DS3505
ZHHH,2008-02-11 12:00,ZHHH 111200Z AUTO 02004KT 9SM 04/M04 A3047 RMK SLP319 T00411044 52023 IEM_DS3505
ZHHH,2008-02-11 13:00,ZHHH 111300Z AUTO 03006KT 6SM 03/M04 A3047 RMK T00301040 IEM_DS3505
ZHHH,2008-02-11 14:00,ZHHH 111400Z AUTO 03004KT 6SM 02/M04 A3050 RMK T00201040 IEM_DS3505
ZHHH,2008-02-11 15:00,ZHHH 111500Z AUTO 04002KT 9SM 02/M04 A3050 RMK SLP331 T00231036 52012 IEM_DS3505
ZHHH,2008-02-11 16:00,ZHHH 111600Z AUTO 01004KT 6SM 02/M04 A3050 RMK T00201040 IEM_DS3505
ZHHH,2008-02-11 17:00,ZHHH 111700Z AUTO 01004KT 6SM 01/M04 A3050 RMK T00101040 IEM_DS3505
ZHHH,2008-02-11 18:00,ZHHH 111800Z AUTO 00000KT 11SM M00/M03 A3050 RMK SLP335 T10041026 52004 IEM_DS3505
ZHHH,2008-02-11 19:00,ZHHH 111900Z AUTO 35004KT 2SM M01/M04 A3050 RMK T10101040 IEM_DS3505
ZHHH,2008-02-11 20:00,ZHHH 112000Z AUTO 04004KT 2SM 00/M04 A3047 RMK T00001040 IEM_DS3505
ZHHH,2008-02-11 21:00,ZHHH 112100Z AUTO 00000KT 11SM M01/M03 A3050 RMK SLP330 T10141033 57005 IEM_DS3505
ZHHH,2008-02-11 22:00,ZHHH 112200Z AUTO 03006KT 1 1/2SM M01/M04 A3050 RMK T10101040 IEM_DS3505
ZHHH,2008-02-11 23:00,ZHHH 112300Z AUTO 01004KT 1 1/2SM M01/M04 A3053 RMK T10101040 IEM_DS3505
ZHHH,2008-02-12 00:00,ZHHH 120000Z AUTO 00000KT 11SM M01/M04 A3053 RMK SLP345 T10061036 52015 IEM_DS3505
ZHHH,2008-02-12 01:00,ZHHH 120100Z AUTO 36004KT 1 1/2SM 01/M03 A3056 RMK T00101030 IEM_DS3505
ZHHH,2008-02-12 02:00,ZHHH 120200Z AUTO 32006KT 1 1/2SM 02/M02 A3056 RMK T00201020 IEM_DS3505
ZHHH,2008-02-12 03:00,ZHHH 120300Z AUTO 02004KT 9SM 04/M03 A3056 RMK SLP356 T00431032 52011 IEM_DS3505
ZHHH,2008-02-12 04:00,ZHHH 120400Z AUTO 03008KT 1 1/2SM 06/M04 A3056 RMK T00601040 IEM_DS3505
ZHHH,2008-02-12 05:00,ZHHH 120500Z AUTO 04012KT 3SM 07/M09 A3053 RMK T00701090 IEM_DS3505
ZHHH,2008-02-12 06:00,ZHHH 120600Z AUTO 36004KT 9SM 08/M08 A3050 RMK SLP328 T00811084 57028 IEM_DS3505
ZHHH,2008-02-12 07:00,ZHHH 120700Z AUTO 04010KT 3SM 08/M09 A3047 RMK T00801090 IEM_DS3505
ZHHH,2008-02-12 08:00,ZHHH 120800Z AUTO 03010KT 3SM 07/M07 A3047 RMK T00701070 IEM_DS3505
ZHHH,2008-02-12 09:00,ZHHH 120900Z AUTO 04004KT 9SM 07/M08 A3047 RMK SLP316 T00721080 57012 IEM_DS3505
ZHHH,2008-02-12 10:00,ZHHH 121000Z AUTO 03008KT 3SM 05/M04 A3047 RMK T00501040 IEM_DS3505
ZHHH,2008-02-12 11:00,ZHHH 121100Z AUTO 03008KT 3SM 04/M04 A3047 RMK T00401040 IEM_DS3505
ZHHH,2008-02-12 12:00,ZHHH 121200Z AUTO 02004KT 11SM 04/M05 A3050 RMK SLP328 T00381049 52012 IEM_DS3505
ZHHH,2008-02-12 13:00,ZHHH 121300Z AUTO 02006KT 3SM 02/M03 A3050 RMK T00201030 IEM_DS3505
ZHHH,2008-02-12 14:00,ZHHH 121400Z AUTO 03006KT 3SM 01/M03 A3050 RMK T00101030 IEM_DS3505
ZHHH,2008-02-12 15:00,ZHHH 121500Z AUTO 04004KT 11SM 02/M04 A3053 RMK SLP339 T00181037 52011 IEM_DS3505
ZHHH,2008-02-12 16:00,ZHHH 121600Z AUTO 04006KT 3SM 01/M03 A3053 RMK T00101030 IEM_DS3505
ZHHH,2008-02-12 17:00,ZHHH 121700Z AUTO 04006KT 3SM 01/M03 A3053 RMK T00101030 IEM_DS3505
ZHHH,2008-02-12 18:00,ZHHH 121800Z AUTO 02002KT 11SM 01/M04 A3050 RMK SLP336 T00071040 57003 IEM_DS3505
ZHHH,2008-02-12 19:00,ZHHH 121900Z AUTO 04006KT 3SM 00/M04 A3050 RMK T00001040 IEM_DS3505
ZHHH,2008-02-12 20:00,ZHHH 122000Z AUTO 02004KT 3SM M01/M04 A3050 RMK T10101040 IEM_DS3505
ZHHH,2008-02-12 21:00,ZHHH 122100Z AUTO 34002KT 11SM M01/M04 A3050 RMK SLP331 T10081045 57005 IEM_DS3505
ZHHH,2008-02-12 22:00,ZHHH 122200Z AUTO 01004KT 3SM M02/M05 A3050 RMK T10201050 IEM_DS3505
ZHHH,2008-02-12 23:00,ZHHH 122300Z AUTO 05004KT 3SM M02/M05 A3053 RMK T10201050 IEM_DS3505
ZHHH,2008-02-13 00:00,ZHHH 130000Z AUTO 04004KT 12SM M01/M05 A3053 RMK SLP341 T10081054 52010 IEM_DS3505
ZHHH,2008-02-13 01:00,ZHHH 130100Z AUTO 05008KT 3SM 00/M04 A3053 RMK T00001040 IEM_DS3505
ZHHH,2008-02-13 02:00,ZHHH 130200Z AUTO 06008KT 6SM 02/M06 A3056 RMK T00201060 IEM_DS3505
ZHHH,2008-02-13 03:00,ZHHH 130300Z AUTO 09004KT 9SM 04/M04 A3056 RMK SLP349 T00381037 52008 IEM_DS3505
ZHHH,2008-02-13 04:00,ZHHH 130400Z AUTO 06004KT 6SM 05/M05 A3053 RMK T00501050 IEM_DS3505
ZHHH,2008-02-13 05:00,ZHHH 130500Z AUTO 6SM 06/M09 A3050 RMK T00601090 IEM_DS3505
ZHHH,2008-02-13 06:00,ZHHH 130600Z AUTO 29002KT 11SM 06/M06 A3047 RMK SLP318 T00611065 57031 IEM_DS3505
ZHHH,2008-02-13 07:00,ZHHH 130700Z AUTO 6SM 07/M11 A3045 RMK T00701110 IEM_DS3505
ZHHH,2008-02-13 08:00,ZHHH 130800Z AUTO 03004KT 6SM 07/M11 A3042 RMK T00701110 IEM_DS3505
ZHHH,2008-02-13 09:00,ZHHH 130900Z AUTO 07002KT 11SM 07/M12 A3042 RMK SLP304 T00701117 57014 IEM_DS3505
ZHHH,2008-02-13 10:00,ZHHH 131000Z AUTO 31002KT 6SM 06/M09 A3042 RMK T00601090 IEM_DS3505
ZHHH,2008-02-13 11:00,ZHHH 131100Z AUTO 26002KT 6SM 05/M06 A3045 RMK T00501060 IEM_DS3505
ZHHH,2008-02-13 12:00,ZHHH 131200Z AUTO 00000KT 11SM 04/M04 A3045 RMK SLP311 T00371043 52007 IEM_DS3505
ZHHH,2008-02-13 13:00,ZHHH 131300Z AUTO 04006KT 6SM 04/M08 A3045 RMK T00401080 IEM_DS3505
ZHHH,2008-02-13 14:00,ZHHH 131400Z AUTO 06006KT 6SM 03/M07 A3047 RMK T00301070 IEM_DS3505
ZHHH,2008-02-13 15:00,ZHHH 131500Z AUTO 07002KT 12SM 03/M08 A3047 RMK SLP326 T00301078 52015 IEM_DS3505
ZHHH,2008-02-13 16:00,ZHHH 131600Z AUTO 06006KT 6SM 01/M07 A3047 RMK T00101070 IEM_DS3505
ZHHH,2008-02-13 17:00,ZHHH 131700Z AUTO 10004KT 6SM 01/M07 A3047 RMK T00101070 IEM_DS3505
ZHHH,2008-02-13 18:00,ZHHH 131800Z AUTO 00000KT 11SM M01/M04 A3047 RMK SLP325 T10101040 57001 IEM_DS3505
ZHHH,2008-02-13 19:00,ZHHH 131900Z AUTO 04004KT 6SM 00/M07 A3047 RMK T00001070 IEM_DS3505
ZHHH,2008-02-13 20:00,ZHHH 132000Z AUTO 07004KT 6SM 00/M07 A3047 RMK T00001070 IEM_DS3505
ZHHH,2008-02-13 21:00,ZHHH 132100Z AUTO 00000KT 11SM M02/M04 A3047 RMK SLP321 T10231036 57004 IEM_DS3505
ZHHH,2008-02-13 22:00,ZHHH 132200Z AUTO 32002KT 6SM M02/M06 A3047 RMK T10201060 IEM_DS3505
ZHHH,2008-02-13 23:00,ZHHH 132300Z AUTO 27004KT 6SM M02/M04 A3047 RMK T10201040 IEM_DS3505
ZHHH,2008-02-14 00:00,ZHHH 140000Z AUTO 00000KT 16SM M01/M04 A3050 RMK SLP330 T10101035 52009 IEM_DS3505
ZHHH,2008-02-14 01:00,ZHHH 140100Z AUTO 34004KT 6SM 01/M02 A3050 RMK T00101020 IEM_DS3505
ZHHH,2008-02-14 02:00,ZHHH 140200Z AUTO 25004KT 6SM 04/M04 A3050 RMK T00401040 IEM_DS3505
ZHHH,2008-02-14 03:00,ZHHH 140300Z AUTO 27002KT 16SM 07/M10 A3050 RMK SLP334 T00671097 52004 IEM_DS3505
ZHHH,2008-02-14 04:00,ZHHH 140400Z AUTO 26004KT 6SM 07/M07 A3047 RMK T00701070 IEM_DS3505
ZHHH,2008-02-14 05:00,ZHHH 140500Z AUTO 31004KT 6SM 08/M07 A3045 RMK T00801070 IEM_DS3505
ZHHH,2008-02-14 06:00,ZHHH 140600Z AUTO 20002KT 16SM 09/M10 A3042 RMK SLP300 T00931097 57034 IEM_DS3505
ZHHH,2008-02-14 07:00,ZHHH 140700Z AUTO 32004KT 6SM 09/M10 A3039 RMK T00901100 IEM_DS3505
ZHHH,2008-02-14 08:00,ZHHH 140800Z AUTO 31004KT 6SM 10/M10 A3039 RMK T01001100 IEM_DS3505
ZHHH,2008-02-14 09:00,ZHHH 140900Z AUTO 02002KT 12SM 10/M10 A3036 RMK SLP284 T00981098 57016 IEM_DS3505
ZHHH,2008-02-14 10:00,ZHHH 141000Z AUTO 6SM 08/M07 A3036 RMK T00801070 IEM_DS3505
ZHHH,2008-02-14 11:00,ZHHH 141100Z AUTO 6SM 07/M07 A3039 RMK T00701070 IEM_DS3505
ZHHH,2008-02-14 12:00,ZHHH 141200Z AUTO 00000KT 9SM 03/M03 A3039 RMK SLP296 T00291032 52012 IEM_DS3505
ZHHH,2008-02-14 13:00,ZHHH 141300Z AUTO 16004KT 6SM 06/M05 A3042 RMK T00601050 IEM_DS3505
ZHHH,2008-02-14 14:00,ZHHH 141400Z AUTO 19006KT 6SM 06/M06 A3042 RMK T00601060 IEM_DS3505
ZHHH,2008-02-14 15:00,ZHHH 141500Z AUTO 00000KT 11SM 01/M02 A3042 RMK SLP304 T00111021 52008 IEM_DS3505
ZHHH,2008-02-14 16:00,ZHHH 141600Z AUTO 18004KT 6SM 05/M06 A3042 RMK T00501060 IEM_DS3505
ZHHH,2008-02-14 17:00,ZHHH 141700Z AUTO 33002KT 6SM 03/M04 A3042 RMK T00301040 IEM_DS3505
ZHHH,2008-02-14 18:00,ZHHH 141800Z AUTO 00000KT 12SM M00/M02 A3042 RMK SLP302 T10031022 57002 IEM_DS3505
ZHHH,2008-02-14 19:00,ZHHH 141900Z AUTO 10008KT 6SM 01/M03 A3042 RMK T00101030 IEM_DS3505
ZHHH,2008-02-14 20:00,ZHHH 142000Z AUTO 10008KT 6SM 01/M02 A3039 RMK T00101020 IEM_DS3505
ZHHH,2008-02-14 21:00,ZHHH 142100Z AUTO 11002KT 9SM M00/M02 A3042 RMK SLP298 T10031020 57004 IEM_DS3505
ZHHH,2008-02-14 22:00,ZHHH 142200Z AUTO 11008KT 6SM 00/M02 A3042 RMK T00001020 IEM_DS3505
ZHHH,2008-02-14 23:00,ZHHH 142300Z AUTO 11010KT 3SM 00/M02 A3042 RMK T00001020 IEM_DS3505
ZHHH,2008-02-15 00:00,ZHHH 150000Z AUTO 09002KT 11SM M00/M02 A3045 RMK SLP309 T10021015 52011 IEM_DS3505
ZHHH,2008-02-15 01:00,ZHHH 150100Z AUTO 12006KT 2SM 03/M01 A3045 RMK T00301010 IEM_DS3505
ZHHH,2008-02-15 02:00,ZHHH 150200Z AUTO 12006KT 2 1/2SM 05/M01 A3045 RMK T00501010 IEM_DS3505
ZHHH,2008-02-15 03:00,ZHHH 150300Z AUTO 11006KT 11SM 09/M06 A3045 RMK SLP309 T00911059 54000 IEM_DS3505
ZHHH,2008-02-15 04:00,ZHHH 150400Z AUTO 12008KT 2 1/2SM 09/M01 A3042 RMK T00901010 IEM_DS3505
ZHHH,2008-02-15 05:00,ZHHH 150500Z AUTO 13006KT 4SM 11/M02 A3039 RMK T01101020 IEM_DS3505
ZHHH,2008-02-15 06:00,ZHHH 150600Z AUTO 11004KT 12SM 12/M06 A3036 RMK SLP276 T01251065 57032 IEM_DS3505
ZHHH,2008-02-15 07:00,ZHHH 150700Z AUTO 13006KT 6SM 12/M06 A3033 RMK T01201060 IEM_DS3505
ZHHH,2008-02-15 08:00,ZHHH 150800Z AUTO 12006KT 6SM 12/M05 A3033 RMK T01201050 IEM_DS3505
ZHHH,2008-02-15 09:00,ZHHH 150900Z AUTO 09004KT 12SM 12/M08 A3030 RMK SLP262 T01211079 57014 IEM_DS3505
ZHHH,2008-02-15 10:00,ZHHH 151000Z AUTO 10008KT 6SM 10/M04 A3030 RMK T01001040 IEM_DS3505
ZHHH,2008-02-15 11:00,ZHHH 151100Z AUTO 10008KT 3SM 08/M03 A3030 RMK T00801030 IEM_DS3505
ZHHH,2008-02-15 12:00,ZHHH 151200Z AUTO 09002KT 11SM 06/M04 A3030 RMK SLP264 T00631036 52001 IEM_DS3505
ZHHH,2008-02-15 13:00,ZHHH 151300Z AUTO 11008KT 3SM 07/M04 A3030 RMK T00701040 IEM_DS3505
ZHHH,2008-02-15 14:00,ZHHH 151400Z AUTO 11008KT 3SM 06/M04 A3030 RMK T00601040 IEM_DS3505
ZHHH,2008-02-15 15:00,ZHHH 151500Z AUTO 11002KT 12SM 05/M04 A3033 RMK SLP267 T00481045 52004 IEM_DS3505
ZHHH,2008-02-15 16:00,ZHHH 151600Z AUTO 14006KT 3SM 05/M01 A3033 RMK T00501010 IEM_DS3505
ZHHH,2008-02-15 17:00,ZHHH 151700Z AUTO 12006KT 2 1/2SM 04/M02 A3033 RMK T00401020 IEM_DS3505
ZHHH,2008-02-15 18:00,ZHHH 151800Z AUTO 09002KT 12SM 04/M03 A3033 RMK SLP268 T00441027 52001 IEM_DS3505
ZHHH,2008-02-15 19:00,ZHHH 151900Z AUTO 06008KT 2 1/2SM 03/M01 A3033 RMK T00301010 IEM_DS3505
ZHHH,2008-02-15 20:00,ZHHH 152000Z AUTO 07010KT 2 1/2SM 02/M02 A3036 RMK T00201020 IEM_DS3505
ZHHH,2008-02-15 21:00,ZHHH 152100Z AUTO 07002KT 11SM 03/M02 A3033 RMK SLP276 T00291016 52008 IEM_DS3505
ZHHH,2008-02-15 22:00,ZHHH 152200Z AUTO 2 1/2SM 02/M03 A3036 RMK T00201030 IEM_DS3505
ZHHH,2008-02-15 23:00,ZHHH 152300Z AUTO 08004KT 2 1/2SM 01/M03 A3036 RMK T00101030 IEM_DS3505
ZHHH,2008-02-16 00:00,ZHHH 160000Z AUTO 14002KT 14SM 03/M03 A3039 RMK SLP294 T00311026 52017 IEM_DS3505
ZHHH,2008-02-16 01:00,ZHHH 160100Z AUTO 09006KT 2 1/2SM 04/M01 A3042 RMK T00401010 IEM_DS3505
ZHHH,2008-02-16 02:00,ZHHH 160200Z AUTO 11006KT 6SM 07/M02 A3042 RMK T00701020 IEM_DS3505
ZHHH,2008-02-16 03:00,ZHHH 160300Z AUTO 07006KT 16SM 10/M03 A3042 RMK SLP298 T01031034 52005 IEM_DS3505
ZHHH,2008-02-16 04:00,ZHHH 160400Z AUTO 05006KT 6SM 12/M02 A3039 RMK T01201020 IEM_DS3505
ZHHH,2008-02-16 05:00,ZHHH 160500Z AUTO 08008KT 6SM 14/M02 A3036 RMK T01401020 IEM_DS3505
ZHHH,2008-02-16 06:00,ZHHH 160600Z AUTO 14004KT 16SM 14/M06 A3033 RMK SLP272 T01391058 57026 IEM_DS3505
ZHHH,2008-02-16 07:00,ZHHH 160700Z AUTO 08006KT 6SM 15/M04 A3030 RMK T01501040 IEM_DS3505
ZHHH,2008-02-16 08:00,ZHHH 160800Z AUTO 08008KT 6SM 15/M06 A3030 RMK T01501060 IEM_DS3505
ZHHH,2008-02-16 09:00,ZHHH 160900Z AUTO 09002KT 12SM 14/M05 A3030 RMK SLP266 T01451053 57006 IEM_DS3505
ZHHH,2008-02-16 10:00,ZHHH 161000Z AUTO 05008KT 6SM 12/00 A3033 RMK T01200000 IEM_DS3505
ZHHH,2008-02-16 11:00,ZHHH 161100Z AUTO 06012KT 6SM 10/00 A3036 RMK T01000000 IEM_DS3505
ZHHH,2008-02-16 12:00,ZHHH 161200Z AUTO 36002KT 9SM 10/M00 A3039 RMK SLP287 T00951001 52021 IEM_DS3505
ZHHH,2008-02-16 13:00,ZHHH 161300Z AUTO 05010KT 6SM 08/00 A3039 RMK T00800000 IEM_DS3505
ZHHH,2008-02-16 14:00,ZHHH 161400Z AUTO 05010KT 6SM 07/00 A3039 RMK T00700000 IEM_DS3505
ZHHH,2008-02-16 15:00,ZHHH 161500Z AUTO 36002KT 9SM 07/M01 A3042 RMK SLP303 T00691013 52016 IEM_DS3505
ZHHH,2008-02-16 16:00,ZHHH 161600Z AUTO 01004KT 6SM 06/M01 A3042 RMK T00601010 IEM_DS3505
ZHHH,2008-02-16 17:00,ZHHH 161700Z AUTO 00000KT 6SM 05/M01 A3045 RMK T00501010 IEM_DS3505
ZHHH,2008-02-16 18:00,ZHHH 161800Z AUTO 00000KT 11SM 04/M01 A3045 RMK SLP307 T00411007 52004 IEM_DS3505
ZHHH,2008-02-16 19:00,ZHHH 161900Z AUTO 00000KT 6SM 04/M02 A3045 RMK T00401020 IEM_DS3505
ZHHH,2008-02-16 20:00,ZHHH 162000Z AUTO 07004KT 6SM 04/M02 A3042 RMK T00401020 IEM_DS3505
ZHHH,2008-02-16 21:00,ZHHH 162100Z AUTO 07002KT 11SM 04/M02 A3042 RMK SLP300 T00371015 57007 IEM_DS3505
ZHHH,2008-02-16 22:00,ZHHH 162200Z AUTO 07004KT 6SM 03/M02 A3042 RMK T00301020 IEM_DS3505
ZHHH,2008-02-16 23:00,ZHHH 162300Z AUTO 10004KT 4SM 03/M02 A3045 RMK T00301020 IEM_DS3505
ZHHH,2008-02-17 00:00,ZHHH 170000Z AUTO 09002KT 11SM 04/M02 A3047 RMK SLP319 T00421022 52019 IEM_DS3505
ZHHH,2008-02-17 01:00,ZHHH 170100Z AUTO 4SM 05/M01 A3047 RMK T00501010 IEM_DS3505
ZHHH,2008-02-17 02:00,ZHHH 170200Z AUTO 4SM 07/M01 A3050 RMK T00701010 IEM_DS3505
ZHHH,2008-02-17 03:00,ZHHH 170300Z AUTO 04004KT 11SM 09/M02 A3050 RMK SLP326 T00941022 52007 IEM_DS3505
ZHHH,2008-02-17 04:00,ZHHH 170400Z AUTO 11006KT 6SM 11/M02 A3047 RMK T01101020 IEM_DS3505
ZHHH,2008-02-17 05:00,ZHHH 170500Z AUTO 11006KT 6SM 12/M02 A3045 RMK T01201020 IEM_DS3505
ZHHH,2008-02-17 06:00,ZHHH 170600Z AUTO 07002KT 9SM 12/M03 A3039 RMK SLP291 T01251029 57035 IEM_DS3505
ZHHH,2008-02-17 07:00,ZHHH 170700Z AUTO 08006KT 6SM 13/M04 A3039 RMK T01301040 IEM_DS3505
ZHHH,2008-02-17 08:00,ZHHH 170800Z AUTO 11006KT 6SM 13/M03 A3039 RMK T01301030 IEM_DS3505
ZHHH,2008-02-17 09:00,ZHHH 170900Z AUTO 34002KT 11SM 12/M03 A3036 RMK SLP282 T01241034 57009 IEM_DS3505
ZHHH,2008-02-17 10:00,ZHHH 171000Z AUTO 34002KT 6SM 12/00 A3039 RMK T01200000 IEM_DS3505
ZHHH,2008-02-17 11:00,ZHHH 171100Z AUTO 02004KT 6SM 11/00 A3039 RMK T01100000 IEM_DS3505
ZHHH,2008-02-17 12:00,ZHHH 171200Z AUTO 04004KT 9SM 10/M01 A3039 RMK SLP294 T01031008 52012 IEM_DS3505
ZHHH,2008-02-17 13:00,ZHHH 171300Z AUTO 04008KT 6SM 09/01 A3042 RMK T00900010 IEM_DS3505
ZHHH,2008-02-17 14:00,ZHHH 171400Z AUTO 01004KT 6SM 08/01 A3045 RMK T00800010 IEM_DS3505
ZHHH,2008-02-17 15:00,ZHHH 171500Z AUTO 04002KT 9SM 09/M00 A3045 RMK SLP313 T00861002 52019 IEM_DS3505
ZHHH,2008-02-17 16:00,ZHHH 171600Z AUTO 04006KT 6SM 07/01 A3047 RMK T00700010 IEM_DS3505
ZHHH,2008-02-17 17:00,ZHHH 171700Z AUTO 06006KT 4SM 07/01 A3047 RMK T00700010 IEM_DS3505
ZHHH,2008-02-17 18:00,ZHHH 171800Z AUTO 00000KT 11SM 08/00 A3047 RMK SLP325 T00750005 52012 IEM_DS3505
ZHHH,2008-02-17 19:00,ZHHH 171900Z AUTO 3SM 06/02 A3047 RMK T00600020 IEM_DS3505
ZHHH,2008-02-17 20:00,ZHHH 172000Z AUTO 00000KT 3SM 06/02 A3047 RMK T00600020 IEM_DS3505
ZHHH,2008-02-17 21:00,ZHHH 172100Z AUTO 04002KT 9SM 07/01 A3047 RMK SLP326 T00690010 52001 IEM_DS3505
ZHHH,2008-02-17 22:00,ZHHH 172200Z AUTO 3SM 06/02 A3050 RMK T00600020 IEM_DS3505
ZHHH,2008-02-17 23:00,ZHHH 172300Z AUTO 1 1/2SM 06/02 A3050 RMK T00600020 IEM_DS3505
ZHHH,2008-02-18 00:00,ZHHH 180000Z AUTO 32002KT 5SM 07/02 A3053 RMK SLP342 T00700021 52016 IEM_DS3505
ZHHH,2008-02-18 01:00,ZHHH 180100Z AUTO 04006KT 2SM 06/03 A3056 RMK T00600030 IEM_DS3505
ZHHH,2008-02-18 02:00,ZHHH 180200Z AUTO 04006KT 2 1/2SM 07/03 A3056 RMK T00700030 IEM_DS3505
ZHHH,2008-02-18 03:00,ZHHH 180300Z AUTO 22002KT 5SM 09/04 A3056 RMK SLP347 T00910037 52005 IEM_DS3505
ZHHH,2008-02-18 04:00,ZHHH 180400Z AUTO 24004KT 2 1/2SM 10/04 A3053 RMK T01000040 IEM_DS3505
ZHHH,2008-02-18 05:00,ZHHH 180500Z AUTO 23004KT 2 1/2SM 09/04 A3053 RMK T00900040 IEM_DS3505
ZHHH,2008-02-18 06:00,ZHHH 180600Z AUTO 29004KT 7SM 10/02 A3053 RMK SLP336 T00970023 57011 IEM_DS3505
ZHHH,2008-02-18 07:00,ZHHH 180700Z AUTO 32006KT 2 1/2SM 09/03 A3050 RMK T00900030 IEM_DS3505
ZHHH,2008-02-18 08:00,ZHHH 180800Z AUTO 31006KT 2 1/2SM 09/03 A3050 RMK T00900030 IEM_DS3505
ZHHH,2008-02-18 09:00,ZHHH 180900Z AUTO 02002KT 7SM 10/02 A3050 RMK SLP327 T00960022 57009 IEM_DS3505
ZHHH,2008-02-18 10:00,ZHHH 181000Z AUTO 04004KT 2 1/2SM 09/03 A3047 RMK T00900030 IEM_DS3505
ZHHH,2008-02-18 11:00,ZHHH 181100Z AUTO 04006KT 2 1/2SM 07/03 A3047 RMK T00700030 IEM_DS3505
ZHHH,2008-02-18 12:00,ZHHH 181200Z AUTO 04002KT 9SM 07/03 A3047 RMK SLP323 T00690026 57004 IEM_DS3505
ZHHH,2008-02-18 13:00,ZHHH 181300Z AUTO 03006KT 2 1/2SM 05/03 A3050 RMK T00500030 IEM_DS3505
ZHHH,2008-02-18 14:00,ZHHH 181400Z AUTO 36004KT 4SM 05/02 A3053 RMK T00500020 IEM_DS3505
ZHHH,2008-02-18 15:00,ZHHH 181500Z AUTO 27002KT 11SM 06/02 A3053 RMK SLP345 T00550020 52022 IEM_DS3505
ZHHH,2008-02-18 16:00,ZHHH 181600Z AUTO 28004KT 2 1/2SM 04/02 A3053 RMK T00400020 IEM_DS3505
ZHHH,2008-02-18 17:00,ZHHH 181700Z AUTO 34004KT 2 1/2SM 04/02 A3056 RMK T00400020 IEM_DS3505
ZHHH,2008-02-18 18:00,ZHHH 181800Z AUTO 04002KT 9SM 05/02 A3053 RMK SLP342 T00510019 57003 IEM_DS3505
ZHHH,2008-02-18 19:00,ZHHH 181900Z AUTO 2SM 04/03 A3050 RMK T00400030 IEM_DS3505
ZHHH,2008-02-18 20:00,ZHHH 182000Z AUTO 10006KT 1 1/4SM 04/03 A3050 RMK T00400030 IEM_DS3505
ZHHH,2008-02-18 21:00,ZHHH 182100Z AUTO 07002KT 7SM 05/02 A3050 RMK SLP328 T00540019 57014 IEM_DS3505
ZHHH,2008-02-18 22:00,ZHHH 182200Z AUTO 03004KT 1 1/4SM 04/02 A3050 RMK T00400020 IEM_DS3505
ZHHH,2008-02-18 23:00,ZHHH 182300Z AUTO 1 1/2SM 03/02 A3050 RMK T00300020 IEM_DS3505
ZHHH,2008-02-19 00:00,ZHHH 190000Z AUTO 02002KT 7SM 04/02 A3053 RMK SLP339 T00450017 52010 IEM_DS3505
ZHHH,2008-02-19 01:00,ZHHH 190100Z AUTO 1 1/2SM 04/03 A3053 RMK T00400030 IEM_DS3505
ZHHH,2008-02-19 02:00,ZHHH 190200Z AUTO 05004KT 2SM 07/04 A3053 RMK T00700040 IEM_DS3505
ZHHH,2008-02-19 03:00,ZHHH 190300Z AUTO 18002KT 9SM 08/02 A3053 RMK SLP343 T00820024 52004 IEM_DS3505
ZHHH,2008-02-19 04:00,ZHHH 190400Z AUTO 31004KT 3SM 10/04 A3050 RMK T01000040 IEM_DS3505
ZHHH,2008-02-19 05:00,ZHHH 190500Z AUTO 32004KT 3SM 10/02 A3047 RMK T01000020 IEM_DS3505
ZHHH,2008-02-19 06:00,ZHHH 190600Z AUTO 27004KT 9SM 11/02 A3045 RMK SLP312 T01140024 57030 IEM_DS3505
ZHHH,2008-02-19 07:00,ZHHH 190700Z AUTO 3SM 11/04 A3042 RMK T01100040 IEM_DS3505
ZHHH,2008-02-19 08:00,ZHHH 190800Z AUTO 21004KT 3SM 12/04 A3042 RMK T01200040 IEM_DS3505
ZHHH,2008-02-19 09:00,ZHHH 190900Z AUTO 25002KT 7SM 11/03 A3042 RMK SLP298 T01130026 57014 IEM_DS3505
ZHHH,2008-02-19 10:00,ZHHH 191000Z AUTO 21006KT 2SM 10/04 A3042 RMK T01000040 IEM_DS3505
ZHHH,2008-02-19 11:00,ZHHH 191100Z AUTO 20004KT 2SM 09/04 A3042 RMK T00900040 IEM_DS3505
ZHHH,2008-02-19 12:00,ZHHH 191200Z AUTO 25002KT 7SM 10/03 A3042 RMK SLP304 T00970032 52006 IEM_DS3505
ZHHH,2008-02-19 13:00,ZHHH 191300Z AUTO 21004KT 1 1/2SM 08/05 A3042 RMK T00800050 IEM_DS3505
ZHHH,2008-02-19 14:00,ZHHH 191400Z AUTO 22004KT 1 1/2SM 08/04 A3045 RMK T00800040 IEM_DS3505
ZHHH,2008-02-19 15:00,ZHHH 191500Z AUTO 27002KT 9SM 08/03 A3045 RMK SLP308 T00770030 52004 IEM_DS3505
ZHHH,2008-02-19 16:00,ZHHH 191600Z AUTO 1 1/4SM 06/04 A3045 RMK T00600040 IEM_DS3505
ZHHH,2008-02-19 17:00,ZHHH 191700Z AUTO 28002KT 1 1/4SM 07/04 A3045 RMK T00700040 IEM_DS3505
ZHHH,2008-02-19 18:00,ZHHH 191800Z AUTO 27002KT 11SM 06/03 A3045 RMK SLP307 T00600028 57001 IEM_DS3505
ZHHH,2008-02-19 19:00,ZHHH 191900Z AUTO 00000KT 1 1/4SM 05/03 A3045 RMK T00500030 IEM_DS3505
ZHHH,2008-02-19 20:00,ZHHH 192000Z AUTO 00000KT 1 1/4SM 05/04 A3042 RMK T00500040 IEM_DS3505
ZHHH,2008-02-19 21:00,ZHHH 192100Z AUTO 00000KT 9SM 05/03 A3042 RMK SLP303 T00460033 57004 IEM_DS3505
ZHHH,2008-02-19 22:00,ZHHH 192200Z AUTO 15002KT 1 1/4SM 05/04 A3042 RMK T00500040 IEM_DS3505
ZHHH,2008-02-19 23:00,ZHHH 192300Z AUTO 14002KT 1SM 05/04 A3042 RMK T00500040 IEM_DS3505
ZHHH,2008-02-20 00:00,ZHHH 200000Z AUTO 16002KT 6SM 05/04 A3045 RMK SLP310 T00480036 52007 IEM_DS3505
ZHHH,2008-02-20 01:00,ZHHH 200100Z AUTO 1SM 07/06 A3045 RMK T00700060 IEM_DS3505
ZHHH,2008-02-20 02:00,ZHHH 200200Z AUTO 19004KT 1SM 09/06 A3045 RMK T00900060 IEM_DS3505
ZHHH,2008-02-20 03:00,ZHHH 200300Z AUTO 04002KT 7SM 11/03 A3045 RMK SLP308 T01090032 57002 IEM_DS3505
ZHHH,2008-02-20 04:00,ZHHH 200400Z AUTO 26004KT 1SM 11/05 A3042 RMK T01100050 IEM_DS3505
ZHHH,2008-02-20 05:00,ZHHH 200500Z AUTO 23004KT 1 1/4SM 12/05 A3039 RMK T01200050 IEM_DS3505
ZHHH,2008-02-20 06:00,ZHHH 200600Z AUTO 29002KT 7SM 14/04 A3036 RMK SLP275 T01400035 57033 IEM_DS3505
ZHHH,2008-02-20 07:00,ZHHH 200700Z AUTO 1 1/4SM 14/04 A3033 RMK T01400040 IEM_DS3505
ZHHH,2008-02-20 08:00,ZHHH 200800Z AUTO 22006KT 1 1/4SM 13/05 A3030 RMK T01300050 IEM_DS3505
ZHHH,2008-02-20 09:00,ZHHH 200900Z AUTO 14002KT 7SM 13/02 A3030 RMK SLP256 T01340017 57019 IEM_DS3505
ZHHH,2008-02-20 10:00,ZHHH 201000Z AUTO 1 1/4SM 12/04 A3030 RMK T01200040 IEM_DS3505
ZHHH,2008-02-20 11:00,ZHHH 201100Z AUTO 00000KT 1 1/4SM 12/04 A3030 RMK T01200040 IEM_DS3505
ZHHH,2008-02-20 12:00,ZHHH 201200Z AUTO 27002KT 7SM 11/05 A3030 RMK SLP260 T01080047 52004 IEM_DS3505
ZHHH,2008-02-20 13:00,ZHHH 201300Z AUTO 00000KT 1 1/4SM 11/05 A3030 RMK T01100050 IEM_DS3505
ZHHH,2008-02-20 14:00,ZHHH 201400Z AUTO 23004KT 1 1/4SM 11/05 A3030 RMK T01100050 IEM_DS3505
ZHHH,2008-02-20 15:00,ZHHH 201500Z AUTO 27002KT 7SM 11/05 A3030 RMK SLP262 T01080049 52002 IEM_DS3505
ZHHH,2008-02-20 16:00,ZHHH 201600Z AUTO 23004KT 1 1/4SM 11/06 A3030 RMK T01100060 IEM_DS3505
ZHHH,2008-02-20 17:00,ZHHH 201700Z AUTO 23002KT 1 1/4SM 10/06 A3030 RMK T01000060 IEM_DS3505
ZHHH,2008-02-20 18:00,ZHHH 201800Z AUTO 00000KT 7SM 10/06 A3027 RMK SLP254 T00960056 57008 IEM_DS3505
ZHHH,2008-02-20 19:00,ZHHH 201900Z AUTO 24002KT 1 1/4SM 09/06 A3027 RMK T00900060 IEM_DS3505
ZHHH,2008-02-20 20:00,ZHHH 202000Z AUTO 21002KT 1 1/4SM 09/06 A3024 RMK T00900060 IEM_DS3505
ZHHH,2008-02-20 21:00,ZHHH 202100Z AUTO 25002KT 6SM 08/05 A3024 RMK SLP241 T00840046 57013 IEM_DS3505
ZHHH,2008-02-20 22:00,ZHHH 202200Z AUTO 19002KT 1 1/4SM 08/06 A3024 RMK T00800060 IEM_DS3505
ZHHH,2008-02-20 23:00,ZHHH 202300Z AUTO 19002KT 1 1/4SM 08/06 A3024 RMK T00800060 IEM_DS3505
ZHHH,2008-02-21 00:00,ZHHH 210000Z AUTO 22002KT 7SM 08/06 A3027 RMK SLP248 T00770057 52007 IEM_DS3505
ZHHH,2008-02-21 01:00,ZHHH 210100Z AUTO 19004KT 1SM 10/06 A3024 RMK T01000060 IEM_DS3505
ZHHH,2008-02-21 02:00,ZHHH 210200Z AUTO 22006KT 1 1/4SM 12/05 A3024 RMK T01200050 IEM_DS3505
ZHHH,2008-02-21 03:00,ZHHH 210300Z AUTO 25004KT 9SM 13/04 A3024 RMK SLP242 T01330045 57006 IEM_DS3505
ZHHH,2008-02-21 04:00,ZHHH 210400Z AUTO 21010KT 1 1/4SM 14/06 A3024 RMK T01400060 IEM_DS3505
ZHHH,2008-02-21 05:00,ZHHH 210500Z AUTO 20008KT 1 1/2SM 14/06 A3018 RMK T01400060 IEM_DS3505
ZHHH,2008-02-21 06:00,ZHHH 210600Z AUTO 25006KT 11SM 15/04 A3015 RMK SLP215 T01510039 57027 IEM_DS3505
ZHHH,2008-02-21 07:00,ZHHH 210700Z AUTO 21008KT 2 1/2SM 15/06 A3012 RMK T01500060 IEM_DS3505
ZHHH,2008-02-21 08:00,ZHHH 210800Z AUTO 20008KT 4SM 15/05 A3012 RMK T01500050 IEM_DS3505
ZHHH,2008-02-21 09:00,ZHHH 210900Z AUTO 22002KT 9SM 15/03 A3009 RMK SLP194 T01530034 57021 IEM_DS3505
ZHHH,2008-02-21 10:00,ZHHH 211000Z AUTO 21006KT 2SM 13/06 A3012 RMK T01300060 IEM_DS3505
ZHHH,2008-02-21 11:00,ZHHH 211100Z AUTO 20004KT 2 1/2SM 12/06 A3009 RMK T01200060 IEM_DS3505
ZHHH,2008-02-21 12:00,ZHHH 211200Z AUTO 22002KT 7SM 13/05 A3009 RMK SLP194 T01320054 54000 IEM_DS3505
ZHHH,2008-02-21 13:00,ZHHH 211300Z AUTO 16002KT 2 1/2SM 12/06 A3012 RMK T01200060 IEM_DS3505
ZHHH,2008-02-21 14:00,ZHHH 211400Z AUTO 2 1/2SM 12/07 A3012 RMK T01200070 IEM_DS3505
ZHHH,2008-02-21 15:00,ZHHH 211500Z AUTO 00000KT 7SM 12/06 A3009 RMK SLP193 T01200059 54000 IEM_DS3505
ZHHH,2008-02-21 16:00,ZHHH 211600Z AUTO 16004KT 2SM 12/07 A3009 RMK T01200070 IEM_DS3505
ZHHH,2008-02-21 17:00,ZHHH 211700Z AUTO 16002KT 1 1/4SM 11/07 A3009 RMK T01100070 IEM_DS3505
ZHHH,2008-02-21 18:00,ZHHH 211800Z AUTO 00000KT 6SM 10/06 A3006 RMK SLP178 T00990062 57015 IEM_DS3505
ZHHH,2008-02-21 19:00,ZHHH 211900Z AUTO 16004KT 1SM 11/07 A3006 RMK T01100070 IEM_DS3505
ZHHH,2008-02-21 20:00,ZHHH 212000Z AUTO 16004KT 1SM 10/07 A3006 RMK T01000070 IEM_DS3505
ZHHH,2008-02-21 21:00,ZHHH 212100Z AUTO 22002KT 7SM 10/06 A3006 RMK SLP179 T01020065 52001 IEM_DS3505
ZHHH,2008-02-21 22:00,ZHHH 212200Z AUTO 20004KT 1 1/4SM 09/07 A3006 RMK T00900070 IEM_DS3505
ZHHH,2008-02-21 23:00,ZHHH 212300Z AUTO 19004KT 1SM 09/07 A3009 RMK T00900070 IEM_DS3505
ZHHH,2008-02-22 00:00,ZHHH 220000Z AUTO 20002KT 7SM 10/07 A3009 RMK SLP196 T01050070 52016 IEM_DS3505
ZHHH,2008-02-22 01:00,ZHHH 220100Z AUTO 20004KT 1SM 12/09 A3012 RMK T01200090 IEM_DS3505
ZHHH,2008-02-22 02:00,ZHHH 220200Z AUTO 24008KT 1SM 13/09 A3015 RMK T01300090 IEM_DS3505
ZHHH,2008-02-22 03:00,ZHHH 220300Z AUTO 27006KT 11SM 16/06 A3015 RMK SLP212 T01580065 52017 IEM_DS3505
ZHHH,2008-02-22 04:00,ZHHH 220400Z AUTO 26006KT 1 1/2SM 17/08 A3015 RMK T01700080 IEM_DS3505
ZHHH,2008-02-22 05:00,ZHHH 220500Z AUTO 27006KT 1 1/2SM 18/07 A3015 RMK T01800070 IEM_DS3505
ZHHH,2008-02-22 06:00,ZHHH 220600Z AUTO 29004KT 11SM 20/05 A3012 RMK SLP197 T02020054 57015 IEM_DS3505
ZHHH,2008-02-22 07:00,ZHHH 220700Z AUTO 27006KT 3SM 20/08 A3012 RMK T02000080 IEM_DS3505
ZHHH,2008-02-22 08:00,ZHHH 220800Z AUTO 3SM 20/08 A3012 RMK T02000080 IEM_DS3505
ZHHH,2008-02-22 09:00,ZHHH 220900Z AUTO 02002KT 9SM 20/04 A3012 RMK SLP197 T02050041 54000 IEM_DS3505
ZHHH,2008-02-22 10:00,ZHHH 221000Z AUTO 02004KT 3SM 18/07 A3012 RMK T01800070 IEM_DS3505
ZHHH,2008-02-22 11:00,ZHHH 221100Z AUTO 06002KT 2SM 17/07 A3015 RMK T01700070 IEM_DS3505
ZHHH,2008-02-22 12:00,ZHHH 221200Z AUTO 00000KT 9SM 13/07 A3018 RMK SLP217 T01330069 52019 IEM_DS3505
ZHHH,2008-02-22 13:00,ZHHH 221300Z AUTO 06008KT 2SM 14/05 A3018 RMK T01400050 IEM_DS3505
ZHHH,2008-02-22 14:00,ZHHH 221400Z AUTO 05010KT 2SM 13/04 A3018 RMK T01300040 IEM_DS3505
ZHHH,2008-02-22 15:00,ZHHH 221500Z AUTO 09002KT 9SM 13/03 A3021 RMK SLP225 T01340032 52009 IEM_DS3505
ZHHH,2008-02-22 16:00,ZHHH 221600Z AUTO 05008KT 2SM 11/04 A3018 RMK T01100040 IEM_DS3505
ZHHH,2008-02-22 17:00,ZHHH 221700Z AUTO 06008KT 1 1/4SM 10/03 A3018 RMK T01000030 IEM_DS3505
ZHHH,2008-02-22 18:00,ZHHH 221800Z AUTO 09004KT 9SM 11/02 A3018 RMK SLP222 T01090022 57003 IEM_DS3505
ZHHH,2008-02-22 19:00,ZHHH 221900Z AUTO 07006KT 1 1/4SM 09/03 A3018 RMK T00900030 IEM_DS3505
ZHHH,2008-02-22 20:00,ZHHH 222000Z AUTO 08008KT 1 1/2SM 09/02 A3015 RMK T00900020 IEM_DS3505
ZHHH,2008-02-22 21:00,ZHHH 222100Z AUTO 07004KT 9SM 10/01 A3015 RMK SLP213 T01000006 57009 IEM_DS3505
ZHHH,2008-02-22 22:00,ZHHH 222200Z AUTO 11008KT 1 1/4SM 08/02 A3018 RMK T00800020 IEM_DS3505
ZHHH,2008-02-22 23:00,ZHHH 222300Z AUTO 12008KT 1 1/4SM 08/03 A3021 RMK T00800030 IEM_DS3505
ZHHH,2008-02-23 00:00,ZHHH 230000Z AUTO 04004KT 11SM 10/01 A3021 RMK SLP234 T01030006 52020 IEM_DS3505
ZHHH,2008-02-23 01:00,ZHHH 230100Z AUTO 07012KT 1 1/2SM 10/03 A3024 RMK T01000030 IEM_DS3505
ZHHH,2008-02-23 02:00,ZHHH 230200Z AUTO 09010KT 2 1/2SM 13/03 A3024 RMK T01300030 IEM_DS3505
ZHHH,2008-02-23 03:00,ZHHH 230300Z AUTO 09004KT 9SM 15/05 A3024 RMK SLP237 T01490049 52004 IEM_DS3505
ZHHH,2008-02-23 04:00,ZHHH 230400Z AUTO 11010KT 3SM 16/03 A3021 RMK T01600030 IEM_DS3505
ZHHH,2008-02-23 05:00,ZHHH 230500Z AUTO 12012KT 6SM 18/02 A3018 RMK T01800020 IEM_DS3505
ZHHH,2008-02-23 06:00,ZHHH 230600Z AUTO 09004KT 11SM 18/00 A3015 RMK SLP210 T01840005 57027 IEM_DS3505
ZHHH,2008-02-23 07:00,ZHHH 230700Z AUTO 13008KT 3SM 19/03 A3015 RMK T01900030 IEM_DS3505
ZHHH,2008-02-23 08:00,ZHHH 230800Z AUTO 13008KT 3SM 18/04 A3012 RMK T01800040 IEM_DS3505
ZHHH,2008-02-23 09:00,ZHHH 230900Z AUTO 07004KT 11SM 18/01 A3015 RMK SLP204 T01800006 57006 IEM_DS3505
ZHHH,2008-02-23 10:00,ZHHH 231000Z AUTO 06012KT 2 1/2SM 16/02 A3015 RMK T01600020 IEM_DS3505
ZHHH,2008-02-23 11:00,ZHHH 231100Z AUTO 05014KT 2SM 14/03 A3018 RMK T01400030 IEM_DS3505
ZHHH,2008-02-23 12:00,ZHHH 231200Z AUTO 07004KT 11SM 15/01 A3018 RMK SLP224 T01490014 52019 IEM_DS3505
ZHHH,2008-02-23 13:00,ZHHH 231300Z AUTO 05014KT 2SM 12/02 A3021 RMK T01200020 IEM_DS3505
ZHHH,2008-02-23 14:00,ZHHH 231400Z AUTO 06012KT 2SM 11/02 A3021 RMK T01100020 IEM_DS3505
ZHHH,2008-02-23 15:00,ZHHH 231500Z AUTO 04004KT 11SM 12/00 A3024 RMK SLP238 T01190000 52014 IEM_DS3505
ZHHH,2008-02-23 16:00,ZHHH 231600Z AUTO 04010KT 2SM 09/02 A3024 RMK T00900020 IEM_DS3505
ZHHH,2008-02-23 17:00,ZHHH 231700Z AUTO 05014KT 2 1/2SM 09/03 A3024 RMK T00900030 IEM_DS3505
ZHHH,2008-02-23 18:00,ZHHH 231800Z AUTO 07002KT 11SM 10/02 A3024 RMK SLP244 T00970016 52007 IEM_DS3505
ZHHH,2008-02-23 19:00,ZHHH 231900Z AUTO 04010KT 2 1/2SM 08/02 A3027 RMK T00800020 IEM_DS3505
ZHHH,2008-02-23 20:00,ZHHH 232000Z AUTO 05012KT 2 1/2SM 07/02 A3024 RMK T00700020 IEM_DS3505
ZHHH,2008-02-23 21:00,ZHHH 232100Z AUTO 07004KT 9SM 07/01 A3027 RMK SLP242 T00740013 57003 IEM_DS3505
ZHHH,2008-02-23 22:00,ZHHH 232200Z AUTO 04012KT 4SM 05/01 A3024 RMK T00500010 IEM_DS3505
ZHHH,2008-02-23 23:00,ZHHH 232300Z AUTO 04010KT 6SM 05/01 A3030 RMK T00500010 IEM_DS3505
ZHHH,2008-02-24 00:00,ZHHH 240000Z AUTO 04004KT 7SM 05/00 A3030 RMK SLP261 T00540000 52019 IEM_DS3505
ZHHH,2008-02-24 01:00,ZHHH 240100Z AUTO 03010KT 4SM 04/01 A3030 RMK T00400010 IEM_DS3505
ZHHH,2008-02-24 02:00,ZHHH 240200Z AUTO 03010KT 6SM 04/01 A3030 RMK T00400010 IEM_DS3505
ZHHH,2008-02-24 03:00,ZHHH 240300Z AUTO 34004KT 9SM 06/M00 A3030 RMK SLP258 T00551003 57003 IEM_DS3505
ZHHH,2008-02-24 04:00,ZHHH 240400Z AUTO 03010KT 4SM 05/00 A3027 RMK T00500000 IEM_DS3505
ZHHH,2008-02-24 05:00,ZHHH 240500Z AUTO 03006KT 4SM 04/00 A3027 RMK T00400000 IEM_DS3505
ZHHH,2008-02-24 06:00,ZHHH 240600Z AUTO 04004KT 7SM 04/02 A3024 RMK 60003 SLP240 T00440016 57018 IEM_DS3505
ZHHH,2008-02-24 07:00,ZHHH 240700Z AUTO 04010KT 2SM 03/01 A3024 RMK T00300010 IEM_DS3505
ZHHH,2008-02-24 08:00,ZHHH 240800Z AUTO 03012KT 2SM 03/02 A3024 RMK T00300020 IEM_DS3505
ZHHH,2008-02-24 09:00,ZHHH 240900Z AUTO 04006KT 7SM 04/02 A3024 RMK SLP236 T00380018 57004 IEM_DS3505
ZHHH,2008-02-24 10:00,ZHHH 241000Z AUTO 03012KT 2SM 03/02 A3024 RMK T00300020 IEM_DS3505
ZHHH,2008-02-24 11:00,ZHHH 241100Z AUTO 02010KT 2 1/2SM 03/02 A3024 RMK T00300020 IEM_DS3505
ZHHH,2008-02-24 12:00,ZHHH 241200Z AUTO 04006KT 7SM 04/01 A3024 RMK 60016 SLP246 T00350014 52010 IEM_DS3505
ZHHH,2008-02-24 13:00,ZHHH 241300Z AUTO 01006KT 2 1/2SM 03/02 A3030 RMK T00300020 IEM_DS3505
ZHHH,2008-02-24 14:00,ZHHH 241400Z AUTO 02010KT 2SM 02/02 A3027 RMK T00200020 IEM_DS3505
ZHHH,2008-02-24 15:00,ZHHH 241500Z AUTO 34004KT 6SM 03/02 A3030 RMK SLP263 T00300020 52016 IEM_DS3505
ZHHH,2008-02-24 16:00,ZHHH 241600Z AUTO 36006KT 2SM 02/02 A3030 RMK T00200020 IEM_DS3505
ZHHH,2008-02-24 17:00,ZHHH 241700Z AUTO 01006KT 2SM 02/02 A3030 RMK T00200020 IEM_DS3505
ZHHH,2008-02-24 18:00,ZHHH 241800Z AUTO 32004KT 7SM 03/02 A3030 RMK 60039 SLP260 T00270020 57003 IEM_DS3505
ZHHH,2008-02-24 19:00,ZHHH 241900Z AUTO 01008KT 3SM 02/01 A3027 RMK T00200010 IEM_DS3505
ZHHH,2008-02-24 20:00,ZHHH 242000Z AUTO 01010KT 4SM 01/00 A3027 RMK T00100000 IEM_DS3505
ZHHH,2008-02-24 21:00,ZHHH 242100Z AUTO 02004KT 9SM 02/M00 A3027 RMK 70058 SLP254 T00191004 57006 IEM_DS3505
ZHHH,2008-02-24 22:00,ZHHH 242200Z AUTO 01008KT 4SM 01/00 A3027 RMK T00100000 IEM_DS3505
ZHHH,2008-02-24 23:00,ZHHH 242300Z AUTO 02006KT 2 1/2SM 01/00 A3030 RMK T00100000 IEM_DS3505
ZHHH,2008-02-25 00:00,ZHHH 250000Z AUTO 02004KT 9SM 02/M00 A3030 RMK 60002 70058 SLP260 T00161002 52006 IEM_DS3505
ZHHH,2008-02-25 01:00,ZHHH 250100Z AUTO 01010KT 2 1/2SM 01/00 A3030 RMK T00100000 IEM_DS3505
ZHHH,2008-02-25 02:00,ZHHH 250200Z AUTO 01006KT 2 1/2SM 01/00 A3033 RMK T00100000 IEM_DS3505
ZHHH,2008-02-25 03:00,ZHHH 250300Z AUTO 29004KT 7SM 02/00 A3030 RMK SLP263 T00180000 52003 IEM_DS3505
ZHHH,2008-02-25 04:00,ZHHH 250400Z AUTO 01006KT 4SM 02/00 A3030 RMK T00200000 IEM_DS3505
ZHHH,2008-02-25 05:00,ZHHH 250500Z AUTO 02006KT 4SM 02/00 A3027 RMK T00200000 IEM_DS3505
ZHHH,2008-02-25 06:00,ZHHH 250600Z AUTO 29004KT 9SM 03/00 A3027 RMK 60001 SLP252 T00280002 57011 IEM_DS3505
ZHHH,2008-02-25 07:00,ZHHH 250700Z AUTO 36008KT 2 1/2SM 02/01 A3027 RMK T00200010 IEM_DS3505
ZHHH,2008-02-25 08:00,ZHHH 250800Z AUTO 01006KT 1SM 02/01 A3027 RMK T00200010 IEM_DS3505
ZHHH,2008-02-25 09:00,ZHHH 250900Z AUTO 32002KT 6SM 02/01 A3030 RMK SLP260 T00190009 52008 IEM_DS3505
ZHHH,2008-02-25 10:00,ZHHH 251000Z AUTO 35004KT 1SM 01/01 A3033 RMK T00100010 IEM_DS3505
ZHHH,2008-02-25 11:00,ZHHH 251100Z AUTO 02004KT 1SM 01/01 A3033 RMK T00100010 IEM_DS3505
ZHHH,2008-02-25 12:00,ZHHH 251200Z AUTO 34004KT 6SM 02/01 A3033 RMK 60004 SLP274 T00210011 52014 IEM_DS3505
ZHHH,2008-02-25 13:00,ZHHH 251300Z AUTO 34004KT 1SM 01/01 A3036 RMK T00100010 IEM_DS3505
ZHHH,2008-02-25 14:00,ZHHH 251400Z AUTO 34004KT 1SM 01/01 A3039 RMK T00100010 IEM_DS3505
ZHHH,2008-02-25 15:00,ZHHH 251500Z AUTO 27002KT 5SM 02/01 A3039 RMK SLP299 T00190010 52025 IEM_DS3505
ZHHH,2008-02-25 16:00,ZHHH 251600Z AUTO 34004KT 1SM 01/01 A3042 RMK T00100010 IEM_DS3505
ZHHH,2008-02-25 17:00,ZHHH 251700Z AUTO 1SM 01/01 A3039 RMK T00100010 IEM_DS3505
ZHHH,2008-02-25 18:00,ZHHH 251800Z AUTO 32002KT 6SM 02/01 A3042 RMK 60004 SLP298 T00150008 57001 IEM_DS3505
ZHHH,2008-02-25 19:00,ZHHH 251900Z AUTO 35004KT 1SM 01/01 A3039 RMK T00100010 IEM_DS3505
ZHHH,2008-02-25 20:00,ZHHH 252000Z AUTO 28004KT 1SM 01/01 A3042 RMK T00100010 IEM_DS3505
ZHHH,2008-02-25 21:00,ZHHH 252100Z AUTO 27004KT 4SM 02/01 A3042 RMK 70011 SLP308 T00160012 52010 IEM_DS3505
ZHHH,2008-02-25 22:00,ZHHH 252200Z AUTO 33004KT 1SM 01/01 A3045 RMK T00100010 IEM_DS3505
ZHHH,2008-02-25 23:00,ZHHH 252300Z AUTO 29004KT 1/2SM 01/01 A3047 RMK T00100010 IEM_DS3505
ZHHH,2008-02-26 00:00,ZHHH 260000Z AUTO 27004KT 1SM 02/01 A3050 RMK 70011 SLP333 T00180012 52025 IEM_DS3505
ZHHH,2008-02-26 01:00,ZHHH 260100Z AUTO 30004KT 1/2SM 02/02 A3053 RMK T00200020 IEM_DS3505
ZHHH,2008-02-26 02:00,ZHHH 260200Z AUTO 31004KT 1 1/4SM 03/03 A3053 RMK T00300030 IEM_DS3505
ZHHH,2008-02-26 03:00,ZHHH 260300Z AUTO 27004KT 7SM 04/02 A3053 RMK SLP345 T00450015 52012 IEM_DS3505
ZHHH,2008-02-26 04:00,ZHHH 260400Z AUTO 31004KT 1 1/2SM 05/04 A3053 RMK T00500040 IEM_DS3505
ZHHH,2008-02-26 05:00,ZHHH 260500Z AUTO 29004KT 2SM 08/04 A3050 RMK T00800040 IEM_DS3505
ZHHH,2008-02-26 06:00,ZHHH 260600Z AUTO 04006KT 9SM 09/01 A3047 RMK SLP324 T00910008 57021 IEM_DS3505
ZHHH,2008-02-26 07:00,ZHHH 260700Z AUTO 5SM 10/01 A3047 RMK T01000010 IEM_DS3505
ZHHH,2008-02-26 08:00,ZHHH 260800Z AUTO 7SM 11/01 A3047 RMK T01100010 IEM_DS3505
ZHHH,2008-02-26 09:00,ZHHH 260900Z AUTO 16002KT 9SM 10/00 A3047 RMK SLP318 T01020005 57006 IEM_DS3505
ZHHH,2008-02-26 10:00,ZHHH 261000Z AUTO 06008KT 6SM 09/01 A3047 RMK T00900010 IEM_DS3505
ZHHH,2008-02-26 11:00,ZHHH 261100Z AUTO 06008KT 6SM 07/02 A3050 RMK T00700020 IEM_DS3505
ZHHH,2008-02-26 12:00,ZHHH 261200Z AUTO 07002KT 11SM 07/00 A3050 RMK SLP337 T00740002 52019 IEM_DS3505
ZHHH,2008-02-26 13:00,ZHHH 261300Z AUTO 07008KT 6SM 06/00 A3053 RMK T00600000 IEM_DS3505
ZHHH,2008-02-26 14:00,ZHHH 261400Z AUTO 04004KT 6SM 05/00 A3053 RMK T00500000 IEM_DS3505
ZHHH,2008-02-26 15:00,ZHHH 261500Z AUTO 00000KT 11SM 04/00 A3056 RMK SLP348 T00380000 52011 IEM_DS3505
ZHHH,2008-02-26 16:00,ZHHH 261600Z AUTO 06004KT 4SM 03/00 A3053 RMK T00300000 IEM_DS3505
ZHHH,2008-02-26 17:00,ZHHH 261700Z AUTO 4SM 04/00 A3053 RMK T00400000 IEM_DS3505
ZHHH,2008-02-26 18:00,ZHHH 261800Z AUTO 27002KT 9SM 02/01 A3053 RMK SLP343 T00160007 57005 IEM_DS3505
ZHHH,2008-02-26 19:00,ZHHH 261900Z AUTO 29002KT 2 1/2SM 02/00 A3053 RMK T00200000 IEM_DS3505
ZHHH,2008-02-26 20:00,ZHHH 262000Z AUTO 00000KT 2SM 01/00 A3053 RMK T00100000 IEM_DS3505
ZHHH,2008-02-26 21:00,ZHHH 262100Z AUTO 36002KT 9SM 02/00 A3053 RMK SLP346 T00180005 52003 IEM_DS3505
ZHHH,2008-02-26 22:00,ZHHH 262200Z AUTO 02004KT 1 1/4SM 01/00 A3053 RMK T00100000 IEM_DS3505
ZHHH,2008-02-26 23:00,ZHHH 262300Z AUTO 06004KT 1 1/4SM 01/00 A3056 RMK T00100000 IEM_DS3505
ZHHH,2008-02-27 00:00,ZHHH 270000Z AUTO 00000KT 9SM 03/01 A3056 RMK SLP360 T00270011 52014 IEM_DS3505
ZHHH,2008-02-27 01:00,ZHHH 270100Z AUTO 1 1/4SM 05/01 A3059 RMK T00500010 IEM_DS3505
ZHHH,2008-02-27 02:00,ZHHH 270200Z AUTO 1 1/2SM 07/01 A3059 RMK T00700010 IEM_DS3505
ZHHH,2008-02-27 03:00,ZHHH 270300Z AUTO 04002KT 9SM 10/M02 A3056 RMK SLP353 T01021018 57007 IEM_DS3505
ZHHH,2008-02-27 04:00,ZHHH 270400Z AUTO 29004KT 3SM 10/M02 A3053 RMK T01001020 IEM_DS3505
ZHHH,2008-02-27 05:00,ZHHH 270500Z AUTO 31004KT 6SM 12/M03 A3050 RMK T01201030 IEM_DS3505
ZHHH,2008-02-27 06:00,ZHHH 270600Z AUTO 02006KT 14SM 12/M06 A3045 RMK SLP316 T01221058 57036 IEM_DS3505
ZHHH,2008-02-27 07:00,ZHHH 270700Z AUTO 31006KT 6SM 12/M04 A3045 RMK T01201040 IEM_DS3505
ZHHH,2008-02-27 08:00,ZHHH 270800Z AUTO 30004KT 6SM 12/M04 A3042 RMK T01201040 IEM_DS3505
ZHHH,2008-02-27 09:00,ZHHH 270900Z AUTO 07002KT 12SM 12/M07 A3042 RMK SLP295 T01211068 57021 IEM_DS3505
ZHHH,2008-02-27 10:00,ZHHH 271000Z AUTO 6SM 10/M04 A3039 RMK T01001040 IEM_DS3505
ZHHH,2008-02-27 11:00,ZHHH 271100Z AUTO 6SM 09/M03 A3039 RMK T00901030 IEM_DS3505
ZHHH,2008-02-27 12:00,ZHHH 271200Z AUTO 00000KT 11SM 06/00 A3042 RMK SLP299 T00600003 52003 IEM_DS3505
ZHHH,2008-02-27 13:00,ZHHH 271300Z AUTO 00000KT 6SM 08/M02 A3042 RMK T00801020 IEM_DS3505
ZHHH,2008-02-27 14:00,ZHHH 271400Z AUTO 17004KT 6SM 08/M01 A3039 RMK T00801010 IEM_DS3505
ZHHH,2008-02-27 15:00,ZHHH 271500Z AUTO 27002KT 11SM 04/00 A3039 RMK SLP295 T00450005 57003 IEM_DS3505
ZHHH,2008-02-27 16:00,ZHHH 271600Z AUTO 19004KT 6SM 06/01 A3039 RMK T00600010 IEM_DS3505
ZHHH,2008-02-27 17:00,ZHHH 271700Z AUTO 20004KT 6SM 06/01 A3039 RMK T00600010 IEM_DS3505
ZHHH,2008-02-27 18:00,ZHHH 271800Z AUTO 14002KT 11SM 04/01 A3036 RMK SLP283 T00440014 57012 IEM_DS3505
ZHHH,2008-02-27 19:00,ZHHH 271900Z AUTO 16004KT 3SM 05/01 A3033 RMK T00500010 IEM_DS3505
ZHHH,2008-02-27 20:00,ZHHH 272000Z AUTO 17004KT 3SM 05/01 A3033 RMK T00500010 IEM_DS3505
ZHHH,2008-02-27 21:00,ZHHH 272100Z AUTO 36002KT 11SM 04/01 A3030 RMK SLP267 T00390014 57016 IEM_DS3505
ZHHH,2008-02-27 22:00,ZHHH 272200Z AUTO 07002KT 2SM 03/01 A3030 RMK T00300010 IEM_DS3505
ZHHH,2008-02-27 23:00,ZHHH 272300Z AUTO 08002KT 1SM 03/01 A3033 RMK T00300010 IEM_DS3505
ZHHH,2008-02-28 00:00,ZHHH 280000Z AUTO 16002KT 11SM 05/01 A3033 RMK SLP271 T00490014 52004 IEM_DS3505
ZHHH,2008-02-28 01:00,ZHHH 280100Z AUTO 1SM 06/03 A3033 RMK T00600030 IEM_DS3505
ZHHH,2008-02-28 02:00,ZHHH 280200Z AUTO 1 1/4SM 08/02 A3033 RMK T00800020 IEM_DS3505
ZHHH,2008-02-28 03:00,ZHHH 280300Z AUTO 25006KT 16SM 12/M02 A3030 RMK SLP262 T01191016 57009 IEM_DS3505
ZHHH,2008-02-28 04:00,ZHHH 280400Z AUTO 26010KT 3SM 13/02 A3027 RMK T01300020 IEM_DS3505
ZHHH,2008-02-28 05:00,ZHHH 280500Z AUTO 24008KT 3SM 14/02 A3024 RMK T01400020 IEM_DS3505
ZHHH,2008-02-28 06:00,ZHHH 280600Z AUTO 22004KT 14SM 15/01 A3018 RMK SLP224 T01490011 57038 IEM_DS3505
ZHHH,2008-02-28 07:00,ZHHH 280700Z AUTO 28008KT 6SM 15/03 A3015 RMK T01500030 IEM_DS3505
ZHHH,2008-02-28 08:00,ZHHH 280800Z AUTO 26006KT 6SM 15/02 A3015 RMK T01500020 IEM_DS3505
ZHHH,2008-02-28 09:00,ZHHH 280900Z AUTO 25004KT 12SM 15/01 A3012 RMK SLP205 T01520006 57019 IEM_DS3505
ZHHH,2008-02-28 10:00,ZHHH 281000Z AUTO 21004KT 6SM 14/04 A3012 RMK T01400040 IEM_DS3505
ZHHH,2008-02-28 11:00,ZHHH 281100Z AUTO 21006KT 6SM 12/05 A3012 RMK T01200050 IEM_DS3505
ZHHH,2008-02-28 12:00,ZHHH 281200Z AUTO 18002KT 11SM 12/02 A3015 RMK SLP208 T01190024 52003 IEM_DS3505
ZHHH,2008-02-28 13:00,ZHHH 281300Z AUTO 18006KT 6SM 11/05 A3015 RMK T01100050 IEM_DS3505
ZHHH,2008-02-28 14:00,ZHHH 281400Z AUTO 20006KT 6SM 10/05 A3015 RMK T01000050 IEM_DS3505
ZHHH,2008-02-28 15:00,ZHHH 281500Z AUTO 27002KT 11SM 10/04 A3015 RMK SLP211 T01020044 52003 IEM_DS3505
ZHHH,2008-02-28 16:00,ZHHH 281600Z AUTO 24004KT 6SM 09/06 A3015 RMK T00900060 IEM_DS3505
ZHHH,2008-02-28 17:00,ZHHH 281700Z AUTO 22006KT 6SM 09/06 A3012 RMK T00900060 IEM_DS3505
ZHHH,2008-02-28 18:00,ZHHH 281800Z AUTO 25002KT 9SM 08/04 A3012 RMK SLP202 T00840042 57009 IEM_DS3505
ZHHH,2008-02-28 19:00,ZHHH 281900Z AUTO 22002KT 6SM 08/05 A3012 RMK T00800050 IEM_DS3505
ZHHH,2008-02-28 20:00,ZHHH 282000Z AUTO 6SM 06/04 A3009 RMK T00600040 IEM_DS3505
ZHHH,2008-02-28 21:00,ZHHH 282100Z AUTO 27002KT 9SM 08/04 A3009 RMK SLP190 T00770039 57012 IEM_DS3505
ZHHH,2008-02-28 22:00,ZHHH 282200Z AUTO 28004KT 6SM 06/04 A3009 RMK T00600040 IEM_DS3505
ZHHH,2008-02-28 23:00,ZHHH 282300Z AUTO 3SM 06/04 A3009 RMK T00600040 IEM_DS3505
ZHHH,2008-02-29 00:00,ZHHH 290000Z AUTO 20002KT 12SM 08/04 A3012 RMK SLP198 T00800040 52008 IEM_DS3505
ZHHH,2008-02-29 01:00,ZHHH 290100Z AUTO 25004KT 3SM 09/05 A3012 RMK T00900050 IEM_DS3505
ZHHH,2008-02-29 02:00,ZHHH 290200Z AUTO 26006KT 3SM 11/06 A3015 RMK T01100060 IEM_DS3505
ZHHH,2008-02-29 03:00,ZHHH 290300Z AUTO 22004KT 14SM 14/04 A3012 RMK SLP204 T01410041 52006 IEM_DS3505
ZHHH,2008-02-29 04:00,ZHHH 290400Z AUTO 29006KT 3SM 14/07 A3012 RMK T01400070 IEM_DS3505
ZHHH,2008-02-29 05:00,ZHHH 290500Z AUTO 32004KT 6SM 17/05 A3009 RMK T01700050 IEM_DS3505
ZHHH,2008-02-29 06:00,ZHHH 290600Z AUTO 36002KT 14SM 19/M00 A3006 RMK SLP179 T01911003 57024 IEM_DS3505
ZHHH,2008-02-29 07:00,ZHHH 290700Z AUTO 6SM 19/M01 A3003 RMK T01901010 IEM_DS3505
ZHHH,2008-02-29 08:00,ZHHH 290800Z AUTO 6SM 19/M03 A3003 RMK T01901030 IEM_DS3505
ZHHH,2008-02-29 09:00,ZHHH 290900Z AUTO 18002KT 12SM 20/M05 A3003 RMK SLP168 T01951047 57011 IEM_DS3505
ZHHH,2008-02-29 10:00,ZHHH 291000Z AUTO 13004KT 6SM 17/00 A3003 RMK T01700000 IEM_DS3505
ZHHH,2008-02-29 11:00,ZHHH 291100Z AUTO 14006KT 6SM 15/02 A3003 RMK T01500020 IEM_DS3505
ZHHH,2008-02-29 12:00,ZHHH 291200Z AUTO 14002KT 11SM 13/03 A3006 RMK SLP182 T01270028 52013 IEM_DS3505
ZHHH,2008-02-29 13:00,ZHHH 291300Z AUTO 17006KT 3SM 14/03 A3006 RMK T01400030 IEM_DS3505
ZHHH,2008-02-29 14:00,ZHHH 291400Z AUTO 15006KT 3SM 13/03 A3009 RMK T01300030 IEM_DS3505
ZHHH,2008-02-29 15:00,ZHHH 291500Z AUTO 00000KT 11SM 09/03 A3009 RMK SLP192 T00910031 52010 IEM_DS3505
ZHHH,2008-02-29 16:00,ZHHH 291600Z AUTO 12006KT 2SM 11/04 A3009 RMK T01100040 IEM_DS3505
ZHHH,2008-02-29 17:00,ZHHH 291700Z AUTO 14004KT 2SM 12/02 A3009 RMK T01200020 IEM_DS3505
ZHHH,2008-02-29 18:00,ZHHH 291800Z AUTO 09002KT 11SM 08/03 A3009 RMK SLP191 T00840026 54000 IEM_DS3505
ZHHH,2008-02-29 19:00,ZHHH 291900Z AUTO 10002KT 2SM 09/05 A3009 RMK T00900050 IEM_DS3505
ZHHH,2008-02-29 20:00,ZHHH 292000Z AUTO 11004KT 2SM 08/04 A3009 RMK T00800040 IEM_DS3505
ZHHH,2008-02-29 21:00,ZHHH 292100Z AUTO 09002KT 9SM 08/02 A3009 RMK SLP187 T00790022 57004 IEM_DS3505
ZHHH,2008-02-29 22:00,ZHHH 292200Z AUTO 12008KT 1 1/4SM 08/04 A3009 RMK T00800040 IEM_DS3505
ZHHH,2008-02-29 23:00,ZHHH 292300Z AUTO 12008KT 1 1/4SM 07/04 A3009 RMK T00700040 IEM_DS3505
ZHHH,2008-03-01 00:00,ZHHH 010000Z AUTO 16002KT 14SM 08/01 A3012 RMK SLP206 T00850014 52018 IEM_DS3505
ZHHH,2008-03-01 01:00,ZHHH 010100Z AUTO 10006KT 2SM 10/06 A3015 RMK T01000060 IEM_DS3505
ZHHH,2008-03-01 02:00,ZHHH 010200Z AUTO 11004KT 2SM 13/05 A3018 RMK T01300050 IEM_DS3505
ZHHH,2008-03-01 03:00,ZHHH 010300Z AUTO 16002KT 12SM 17/01 A3015 RMK SLP210 T01700006 52005 IEM_DS3505
ZHHH,2008-03-01 04:00,ZHHH 010400Z AUTO 20004KT 2 1/2SM 17/04 A3012 RMK T01700040 IEM_DS3505
ZHHH,2008-03-01 05:00,ZHHH 010500Z AUTO 22008KT 4SM 19/04 A3009 RMK T01900040 IEM_DS3505
ZHHH,2008-03-01 06:00,ZHHH 010600Z AUTO 22006KT 11SM 19/02 A3006 RMK SLP180 T01860020 57030 IEM_DS3505
ZHHH,2008-03-01 07:00,ZHHH 010700Z AUTO 27008KT 4SM 19/06 A3003 RMK T01900060 IEM_DS3505
ZHHH,2008-03-01 08:00,ZHHH 010800Z AUTO 31008KT 4SM 19/07 A3003 RMK T01900070 IEM_DS3505
ZHHH,2008-03-01 09:00,ZHHH 010900Z AUTO 27002KT 11SM 19/05 A3003 RMK SLP173 T01900051 57007 IEM_DS3505
ZHHH,2008-03-01 10:00,ZHHH 011000Z AUTO 27002KT 3SM 17/06 A3006 RMK T01700060 IEM_DS3505
ZHHH,2008-03-01 11:00,ZHHH 011100Z AUTO 3SM 16/06 A3006 RMK T01600060 IEM_DS3505
ZHHH,2008-03-01 12:00,ZHHH 011200Z AUTO 25002KT 9SM 13/08 A3009 RMK SLP191 T01290076 52017 IEM_DS3505
ZHHH,2008-03-01 13:00,ZHHH 011300Z AUTO 3SM 15/08 A3009 RMK T01500080 IEM_DS3505
ZHHH,2008-03-01 14:00,ZHHH 011400Z AUTO 24004KT 3SM 14/08 A3012 RMK T01400080 IEM_DS3505
ZHHH,2008-03-01 15:00,ZHHH 011500Z AUTO 27004KT 9SM 12/06 A3012 RMK SLP204 T01210064 52014 IEM_DS3505
ZHHH,2008-03-01 16:00,ZHHH 011600Z AUTO 29004KT 3SM 12/09 A3015 RMK T01200090 IEM_DS3505
ZHHH,2008-03-01 17:00,ZHHH 011700Z AUTO 30004KT 3SM 12/09 A3015 RMK T01200090 IEM_DS3505
ZHHH,2008-03-01 18:00,ZHHH 011800Z AUTO 32002KT 7SM 10/06 A3015 RMK SLP209 T00960063 52005 IEM_DS3505
ZHHH,2008-03-01 19:00,ZHHH 011900Z AUTO 28002KT 1 1/2SM 10/08 A3015 RMK T01000080 IEM_DS3505
ZHHH,2008-03-01 20:00,ZHHH 012000Z AUTO 25002KT 1SM 09/08 A3012 RMK T00900080 IEM_DS3505
ZHHH,2008-03-01 21:00,ZHHH 012100Z AUTO 00000KT 7SM 08/06 A3015 RMK SLP207 T00770060 57002 IEM_DS3505
ZHHH,2008-03-01 22:00,ZHHH 012200Z AUTO 07004KT 1SM 08/07 A3015 RMK T00800070 IEM_DS3505
ZHHH,2008-03-01 23:00,ZHHH 012300Z AUTO 06006KT 1SM 08/06 A3018 RMK T00800060 IEM_DS3505
ZHHH,2008-03-02 00:00,ZHHH 020000Z AUTO 09002KT 7SM 10/06 A3021 RMK SLP232 T01000063 52024 IEM_DS3505
ZHHH,2008-03-02 01:00,ZHHH 020100Z AUTO 05006KT 2SM 12/05 A3024 RMK T01200050 IEM_DS3505
ZHHH,2008-03-02 02:00,ZHHH 020200Z AUTO 06010KT 2 1/2SM 15/01 A3024 RMK T01500010 IEM_DS3505
ZHHH,2008-03-02 03:00,ZHHH 020300Z AUTO 07006KT 9SM 17/M06 A3024 RMK SLP244 T01691056 52013 IEM_DS3505
ZHHH,2008-03-02 04:00,ZHHH 020400Z AUTO 03008KT 6SM 18/M06 A3024 RMK T01801060 IEM_DS3505
ZHHH,2008-03-02 05:00,ZHHH 020500Z AUTO 03006KT 6SM 19/M05 A3021 RMK T01901050 IEM_DS3505
ZHHH,2008-03-02 06:00,ZHHH 020600Z AUTO 07004KT 16SM 20/M05 A3021 RMK SLP228 T01951047 57016 IEM_DS3505
ZHHH,2008-03-02 07:00,ZHHH 020700Z AUTO 34008KT 6SM 19/M06 A3018 RMK T01901060 IEM_DS3505
ZHHH,2008-03-02 08:00,ZHHH 020800Z AUTO 35008KT 6SM 20/M05 A3018 RMK T02001050 IEM_DS3505
ZHHH,2008-03-02 09:00,ZHHH 020900Z AUTO 34002KT 16SM 19/M06 A3018 RMK SLP222 T01931063 57006 IEM_DS3505
ZHHH,2008-03-02 10:00,ZHHH 021000Z AUTO 02004KT 6SM 17/M04 A3021 RMK T01701040 IEM_DS3505
ZHHH,2008-03-02 11:00,ZHHH 021100Z AUTO 05008KT 6SM 15/M03 A3024 RMK T01501030 IEM_DS3505
ZHHH,2008-03-02 12:00,ZHHH 021200Z AUTO 07004KT 16SM 15/M03 A3027 RMK SLP248 T01491030 52025 IEM_DS3505
ZHHH,2008-03-02 13:00,ZHHH 021300Z AUTO 06012KT 6SM 12/M04 A3027 RMK T01201040 IEM_DS3505
ZHHH,2008-03-02 14:00,ZHHH 021400Z AUTO 05008KT 6SM 11/M04 A3030 RMK T01101040 IEM_DS3505
ZHHH,2008-03-02 15:00,ZHHH 021500Z AUTO 07004KT 16SM 12/M05 A3033 RMK SLP265 T01181052 52018 IEM_DS3505
ZHHH,2008-03-02 16:00,ZHHH 021600Z AUTO 04010KT 6SM 10/M04 A3033 RMK T01001040 IEM_DS3505
ZHHH,2008-03-02 17:00,ZHHH 021700Z AUTO 07006KT 6SM 09/M05 A3033 RMK T00901050 IEM_DS3505
ZHHH,2008-03-02 18:00,ZHHH 021800Z AUTO 02004KT 16SM 10/M06 A3033 RMK SLP269 T00961063 52004 IEM_DS3505
ZHHH,2008-03-02 19:00,ZHHH 021900Z AUTO 08002KT 6SM 08/M05 A3033 RMK T00801050 IEM_DS3505
ZHHH,2008-03-02 20:00,ZHHH 022000Z AUTO 00000KT 6SM 07/M05 A3033 RMK T00701050 IEM_DS3505
ZHHH,2008-03-02 21:00,ZHHH 022100Z AUTO 00000KT 16SM 05/00 A3033 RMK SLP271 T00530003 52001 IEM_DS3505
ZHHH,2008-03-02 22:00,ZHHH 022200Z AUTO 01004KT 6SM 06/M03 A3036 RMK T00601030 IEM_DS3505
ZHHH,2008-03-02 23:00,ZHHH 022300Z AUTO 04004KT 6SM 06/M05 A3036 RMK T00601050 IEM_DS3505
ZHHH,2008-03-03 00:00,ZHHH 030000Z AUTO 04004KT 16SM 09/M03 A3036 RMK SLP286 T00861027 52015 IEM_DS3505
ZHHH,2008-03-03 01:00,ZHHH 030100Z AUTO 6SM 11/M02 A3039 RMK T01101020 IEM_DS3505
ZHHH,2008-03-03 02:00,ZHHH 030200Z AUTO 34004KT 6SM 14/M07 A3039 RMK T01401070 IEM_DS3505
ZHHH,2008-03-03 03:00,ZHHH 030300Z AUTO 34002KT 16SM 16/M09 A3039 RMK SLP287 T01561094 52001 IEM_DS3505
ZHHH,2008-03-03 04:00,ZHHH 030400Z AUTO 02006KT 6SM 17/M08 A3036 RMK T01701080 IEM_DS3505
ZHHH,2008-03-03 05:00,ZHHH 030500Z AUTO 28006KT 6SM 17/M07 A3033 RMK T01701070 IEM_DS3505
ZHHH,2008-03-03 06:00,ZHHH 030600Z AUTO 32006KT 16SM 17/M09 A3030 RMK SLP260 T01731087 57027 IEM_DS3505
ZHHH,2008-03-03 07:00,ZHHH 030700Z AUTO 31010KT 6SM 18/M08 A3027 RMK T01801080 IEM_DS3505
ZHHH,2008-03-03 08:00,ZHHH 030800Z AUTO 32008KT 6SM 18/M07 A3024 RMK T01801070 IEM_DS3505
ZHHH,2008-03-03 09:00,ZHHH 030900Z AUTO 32004KT 16SM 17/M09 A3024 RMK SLP240 T01731087 57020 IEM_DS3505
ZHHH,2008-03-03 10:00,ZHHH 031000Z AUTO 22004KT 6SM 16/M06 A3024 RMK T01601060 IEM_DS3505
ZHHH,2008-03-03 11:00,ZHHH 031100Z AUTO 24004KT 6SM 14/M04 A3024 RMK T01401040 IEM_DS3505
ZHHH,2008-03-03 12:00,ZHHH 031200Z AUTO 11004KT 11SM 11/M05 A3027 RMK SLP247 T01101046 52007 IEM_DS3505
ZHHH,2008-03-03 13:00,ZHHH 031300Z AUTO 12004KT 6SM 12/M02 A3027 RMK T01201020 IEM_DS3505
ZHHH,2008-03-03 14:00,ZHHH 031400Z AUTO 07004KT 6SM 11/M01 A3030 RMK T01101010 IEM_DS3505
ZHHH,2008-03-03 15:00,ZHHH 031500Z AUTO 07002KT 11SM 10/M01 A3030 RMK SLP255 T01001011 52008 IEM_DS3505
ZHHH,2008-03-03 16:00,ZHHH 031600Z AUTO 07006KT 6SM 10/M03 A3027 RMK T01001030 IEM_DS3505
ZHHH,2008-03-03 17:00,ZHHH 031700Z AUTO 06006KT 6SM 09/M04 A3027 RMK T00901040 IEM_DS3505
ZHHH,2008-03-03 18:00,ZHHH 031800Z AUTO 02002KT 12SM 09/M01 A3027 RMK SLP252 T00931014 57003 IEM_DS3505
ZHHH,2008-03-03 19:00,ZHHH 031900Z AUTO 07010KT 6SM 07/M02 A3027 RMK T00701020 IEM_DS3505
ZHHH,2008-03-03 20:00,ZHHH 032000Z AUTO 07012KT 6SM 07/M02 A3027 RMK T00701020 IEM_DS3505
ZHHH,2008-03-03 21:00,ZHHH 032100Z AUTO 09002KT 12SM 08/M02 A3027 RMK SLP254 T00821022 52002 IEM_DS3505
ZHHH,2008-03-03 22:00,ZHHH 032200Z AUTO 12008KT 6SM 07/01 A3030 RMK T00700010 IEM_DS3505
ZHHH,2008-03-03 23:00,ZHHH 032300Z AUTO 11008KT 6SM 06/01 A3030 RMK T00600010 IEM_DS3505
ZHHH,2008-03-04 00:00,ZHHH 040000Z AUTO 07002KT 16SM 09/M01 A3030 RMK SLP265 T00941013 52011 IEM_DS3505
ZHHH,2008-03-04 01:00,ZHHH 040100Z AUTO 11006KT 3SM 09/02 A3033 RMK T00900020 IEM_DS3505
ZHHH,2008-03-04 02:00,ZHHH 040200Z AUTO 12010KT 4SM 12/01 A3033 RMK T01200010 IEM_DS3505
ZHHH,2008-03-04 03:00,ZHHH 040300Z AUTO 14002KT 16SM 16/M03 A3033 RMK SLP267 T01551034 52002 IEM_DS3505
ZHHH,2008-03-04 04:00,ZHHH 040400Z AUTO 13004KT 5SM 16/M01 A3030 RMK T01601010 IEM_DS3505
ZHHH,2008-03-04 05:00,ZHHH 040500Z AUTO 11008KT 5SM 17/M01 A3027 RMK T01701010 IEM_DS3505
ZHHH,2008-03-04 06:00,ZHHH 040600Z AUTO 14006KT 14SM 18/M09 A3024 RMK SLP235 T01771093 57031 IEM_DS3505
ZHHH,2008-03-04 07:00,ZHHH 040700Z AUTO 13008KT 6SM 17/M08 A3021 RMK T01701080 IEM_DS3505
ZHHH,2008-03-04 08:00,ZHHH 040800Z AUTO 11008KT 6SM 17/M07 A3021 RMK T01701070 IEM_DS3505
ZHHH,2008-03-04 09:00,ZHHH 040900Z AUTO 09004KT 12SM 17/M06 A3021 RMK SLP229 T01721059 57007 IEM_DS3505
ZHHH,2008-03-04 10:00,ZHHH 041000Z AUTO 13004KT 6SM 16/M04 A3021 RMK T01601040 IEM_DS3505
ZHHH,2008-03-04 11:00,ZHHH 041100Z AUTO 14004KT 6SM 15/M01 A3021 RMK T01501010 IEM_DS3505
ZHHH,2008-03-04 12:00,ZHHH 041200Z AUTO 00000KT 9SM 14/M03 A3024 RMK SLP235 T01351029 52006 IEM_DS3505
ZHHH,2008-03-04 13:00,ZHHH 041300Z AUTO 01002KT 6SM 14/00 A3024 RMK T01400000 IEM_DS3505
ZHHH,2008-03-04 14:00,ZHHH 041400Z AUTO 07004KT 6SM 13/01 A3024 RMK T01300010 IEM_DS3505
ZHHH,2008-03-04 15:00,ZHHH 041500Z AUTO 11002KT 9SM 12/01 A3024 RMK SLP243 T01150014 52008 IEM_DS3505
ZHHH,2008-03-04 16:00,ZHHH 041600Z AUTO 12006KT 6SM 12/03 A3024 RMK T01200030 IEM_DS3505
ZHHH,2008-03-04 17:00,ZHHH 041700Z AUTO 10006KT 6SM 12/02 A3024 RMK T01200020 IEM_DS3505
ZHHH,2008-03-04 18:00,ZHHH 041800Z AUTO 09002KT 11SM 13/M03 A3024 RMK SLP236 T01281027 57006 IEM_DS3505
ZHHH,2008-03-04 19:00,ZHHH 041900Z AUTO 11008KT 6SM 12/02 A3024 RMK T01200020 IEM_DS3505
ZHHH,2008-03-04 20:00,ZHHH 042000Z AUTO 09008KT 6SM 11/03 A3024 RMK T01100030 IEM_DS3505
ZHHH,2008-03-04 21:00,ZHHH 042100Z AUTO 07002KT 9SM 12/M01 A3024 RMK SLP232 T01251007 57004 IEM_DS3505
ZHHH,2008-03-04 22:00,ZHHH 042200Z AUTO 09010KT 6SM 11/03 A3024 RMK T01100030 IEM_DS3505
ZHHH,2008-03-04 23:00,ZHHH 042300Z AUTO 10008KT 4SM 11/03 A3024 RMK T01100030 IEM_DS3505
ZHHH,2008-03-05 00:00,ZHHH 050000Z AUTO 09002KT 9SM 13/M01 A3027 RMK SLP247 T01261013 52014 IEM_DS3505
ZHHH,2008-03-05 01:00,ZHHH 050100Z AUTO 12006KT 2SM 11/04 A3027 RMK T01100040 IEM_DS3505
ZHHH,2008-03-05 02:00,ZHHH 050200Z AUTO 11008KT 2SM 12/03 A3027 RMK T01200030 IEM_DS3505
ZHHH,2008-03-05 03:00,ZHHH 050300Z AUTO 11006KT 9SM 15/M04 A3024 RMK SLP245 T01501043 57002 IEM_DS3505
ZHHH,2008-03-05 04:00,ZHHH 050400Z AUTO 11012KT 4SM 15/00 A3024 RMK T01500000 IEM_DS3505
ZHHH,2008-03-05 05:00,ZHHH 050500Z AUTO 11014KT 4SM 16/01 A3018 RMK T01600010 IEM_DS3505
ZHHH,2008-03-05 06:00,ZHHH 050600Z AUTO 09004KT 11SM 18/M02 A3015 RMK SLP211 T01761021 57033 IEM_DS3505
ZHHH,2008-03-05 07:00,ZHHH 050700Z AUTO 10010KT 4SM 16/01 A3012 RMK T01600010 IEM_DS3505
ZHHH,2008-03-05 08:00,ZHHH 050800Z AUTO 11010KT 4SM 16/01 A3012 RMK T01600010 IEM_DS3505
ZHHH,2008-03-05 09:00,ZHHH 050900Z AUTO 07002KT 9SM 17/M00 A3012 RMK SLP199 T01681004 57012 IEM_DS3505
ZHHH,2008-03-05 10:00,ZHHH 051000Z AUTO 12008KT 4SM 16/02 A3012 RMK T01600020 IEM_DS3505
ZHHH,2008-03-05 11:00,ZHHH 051100Z AUTO 12008KT 4SM 15/03 A3012 RMK T01500030 IEM_DS3505
ZHHH,2008-03-05 12:00,ZHHH 051200Z AUTO 11004KT 7SM 15/02 A3012 RMK 60000 SLP200 T01510020 52001 IEM_DS3505
ZHHH,2008-03-05 13:00,ZHHH 051300Z AUTO 12010KT 4SM 14/03 A3012 RMK T01400030 IEM_DS3505
ZHHH,2008-03-05 14:00,ZHHH 051400Z AUTO 12006KT 6SM 14/04 A3015 RMK T01400040 IEM_DS3505
ZHHH,2008-03-05 15:00,ZHHH 051500Z AUTO 09004KT 9SM 15/00 A3015 RMK SLP205 T01500004 52005 IEM_DS3505
ZHHH,2008-03-05 16:00,ZHHH 051600Z AUTO 11008KT 6SM 13/03 A3015 RMK T01300030 IEM_DS3505
ZHHH,2008-03-05 17:00,ZHHH 051700Z AUTO 09004KT 7SM 13/03 A3015 RMK T01300030 IEM_DS3505
ZHHH,2008-03-05 18:00,ZHHH 051800Z AUTO 09002KT 9SM 14/01 A3015 RMK 60000 SLP208 T01430009 52003 IEM_DS3505
ZHHH,2008-03-05 19:00,ZHHH 051900Z AUTO 10012KT 6SM 12/04 A3012 RMK T01200040 IEM_DS3505
ZHHH,2008-03-05 20:00,ZHHH 052000Z AUTO 10008KT 6SM 12/05 A3012 RMK T01200050 IEM_DS3505
ZHHH,2008-03-05 21:00,ZHHH 052100Z AUTO 09004KT 9SM 14/00 A3012 RMK 70000 SLP204 T01380004 57004 IEM_DS3505
ZHHH,2008-03-05 22:00,ZHHH 052200Z AUTO 06006KT 6SM 12/05 A3015 RMK T01200050 IEM_DS3505
ZHHH,2008-03-05 23:00,ZHHH 052300Z AUTO 08008KT 6SM 12/05 A3018 RMK T01200050 IEM_DS3505
ZHHH,2008-03-06 00:00,ZHHH 060000Z AUTO 04004KT 7SM 13/04 A3018 RMK 70000 SLP221 T01280043 52017 IEM_DS3505
ZHHH,2008-03-06 01:00,ZHHH 060100Z AUTO 06010KT 4SM 11/07 A3021 RMK T01100070 IEM_DS3505
ZHHH,2008-03-06 02:00,ZHHH 060200Z AUTO 06010KT 3SM 11/08 A3021 RMK T01100080 IEM_DS3505
ZHHH,2008-03-06 03:00,ZHHH 060300Z AUTO 09004KT 7SM 12/08 A3024 RMK SLP237 T01190076 52016 IEM_DS3505
ZHHH,2008-03-06 04:00,ZHHH 060400Z AUTO 05008KT 2 1/2SM 11/08 A3021 RMK T01100080 IEM_DS3505
ZHHH,2008-03-06 05:00,ZHHH 060500Z AUTO 04010KT 2 1/2SM 11/09 A3021 RMK T01100090 IEM_DS3505
ZHHH,2008-03-06 06:00,ZHHH 060600Z AUTO 02006KT 9SM 12/08 A3021 RMK 60000 SLP223 T01240077 57014 IEM_DS3505
ZHHH,2008-03-06 07:00,ZHHH 060700Z AUTO 04010KT 2 1/2SM 12/09 A3018 RMK T01200090 IEM_DS3505
ZHHH,2008-03-06 08:00,ZHHH 060800Z AUTO 04010KT 2SM 11/09 A3021 RMK T01100090 IEM_DS3505
ZHHH,2008-03-06 09:00,ZHHH 060900Z AUTO 02004KT 7SM 11/09 A3021 RMK SLP233 T01120091 52009 IEM_DS3505
ZHHH,2008-03-06 10:00,ZHHH 061000Z AUTO 04008KT 1 1/2SM 10/09 A3024 RMK T01000090 IEM_DS3505
ZHHH,2008-03-06 11:00,ZHHH 061100Z AUTO 04008KT 1 1/2SM 09/09 A3024 RMK T00900090 IEM_DS3505
ZHHH,2008-03-06 12:00,ZHHH 061200Z AUTO 04004KT 6SM 10/08 A3027 RMK 60020 SLP252 T00970085 52019 IEM_DS3505
ZHHH,2008-03-06 13:00,ZHHH 061300Z AUTO 04010KT 1 1/2SM 09/09 A3030 RMK T00900090 IEM_DS3505
ZHHH,2008-03-06 14:00,ZHHH 061400Z AUTO 04010KT 2 1/2SM 09/08 A3033 RMK T00900080 IEM_DS3505
ZHHH,2008-03-06 15:00,ZHHH 061500Z AUTO 36004KT 6SM 09/08 A3036 RMK SLP275 T00920080 52023 IEM_DS3505
ZHHH,2008-03-06 16:00,ZHHH 061600Z AUTO 03008KT 2SM 08/08 A3036 RMK T00800080 IEM_DS3505
ZHHH,2008-03-06 17:00,ZHHH 061700Z AUTO 03008KT 2SM 08/08 A3036 RMK T00800080 IEM_DS3505
ZHHH,2008-03-06 18:00,ZHHH 061800Z AUTO 02004KT 6SM 09/08 A3036 RMK 60012 SLP277 T00890080 52002 IEM_DS3505
ZHHH,2008-03-06 19:00,ZHHH 061900Z AUTO 04008KT 1 1/4SM 08/08 A3033 RMK T00800080 IEM_DS3505
ZHHH,2008-03-06 20:00,ZHHH 062000Z AUTO 04008KT 1 1/4SM 08/08 A3033 RMK T00800080 IEM_DS3505
ZHHH,2008-03-06 21:00,ZHHH 062100Z AUTO 04004KT 6SM 08/07 A3036 RMK 70033 SLP276 T00830071 57001 IEM_DS3505
ZHHH,2008-03-06 22:00,ZHHH 062200Z AUTO 04006KT 1 1/4SM 08/07 A3036 RMK T00800070 IEM_DS3505
ZHHH,2008-03-06 23:00,ZHHH 062300Z AUTO 02004KT 1 1/2SM 08/08 A3036 RMK T00800080 IEM_DS3505
ZHHH,2008-03-07 00:00,ZHHH 070000Z AUTO 04002KT 7SM 08/07 A3039 RMK 60008 70037 SLP293 T00840070 52017 IEM_DS3505
ZHHH,2008-03-07 01:00,ZHHH 070100Z AUTO 04004KT 1 1/2SM 08/08 A3042 RMK T00800080 IEM_DS3505
ZHHH,2008-03-07 02:00,ZHHH 070200Z AUTO 04004KT 1 1/2SM 08/08 A3042 RMK T00800080 IEM_DS3505
ZHHH,2008-03-07 03:00,ZHHH 070300Z AUTO 07002KT 7SM 10/07 A3042 RMK SLP301 T00990068 52008 IEM_DS3505
ZHHH,2008-03-07 04:00,ZHHH 070400Z AUTO 05004KT 6SM 10/08 A3039 RMK T01000080 IEM_DS3505
ZHHH,2008-03-07 05:00,ZHHH 070500Z AUTO 06004KT 6SM 11/08 A3036 RMK T01100080 IEM_DS3505
ZHHH,2008-03-07 06:00,ZHHH 070600Z AUTO 07002KT 11SM 12/06 A3033 RMK 60000 SLP273 T01190060 57028 IEM_DS3505
ZHHH,2008-03-07 07:00,ZHHH 070700Z AUTO 22004KT 6SM 12/08 A3033 RMK T01200080 IEM_DS3505
ZHHH,2008-03-07 08:00,ZHHH 070800Z AUTO 26004KT 6SM 12/08 A3030 RMK T01200080 IEM_DS3505
ZHHH,2008-03-07 09:00,ZHHH 070900Z AUTO 27002KT 9SM 12/07 A3030 RMK SLP264 T01200067 57009 IEM_DS3505
ZHHH,2008-03-07 10:00,ZHHH 071000Z AUTO 25004KT 3SM 11/09 A3030 RMK T01100090 IEM_DS3505
ZHHH,2008-03-07 11:00,ZHHH 071100Z AUTO 00000KT 2 1/2SM 11/09 A3033 RMK T01100090 IEM_DS3505
ZHHH,2008-03-07 12:00,ZHHH 071200Z AUTO 27002KT 7SM 11/08 A3033 RMK 60003 SLP271 T01060084 52007 IEM_DS3505
ZHHH,2008-03-07 13:00,ZHHH 071300Z AUTO 05002KT 1 1/4SM 10/08 A3036 RMK T01000080 IEM_DS3505
ZHHH,2008-03-07 14:00,ZHHH 071400Z AUTO 11004KT 1SM 09/08 A3036 RMK T00900080 IEM_DS3505
ZHHH,2008-03-07 15:00,ZHHH 071500Z AUTO 00000KT 6SM 10/08 A3036 RMK SLP277 T00990083 52006 IEM_DS3505
ZHHH,2008-03-07 16:00,ZHHH 071600Z AUTO 04002KT 1SM 09/08 A3033 RMK T00900080 IEM_DS3505
ZHHH,2008-03-07 17:00,ZHHH 071700Z AUTO 1 1/4SM 09/08 A3033 RMK T00900080 IEM_DS3505
ZHHH,2008-03-07 18:00,ZHHH 071800Z AUTO 25002KT 5SM 10/08 A3030 RMK 60008 SLP265 T00960085 57012 IEM_DS3505
ZHHH,2008-03-07 19:00,ZHHH 071900Z AUTO 03002KT 1SM 08/08 A3030 RMK T00800080 IEM_DS3505
ZHHH,2008-03-07 20:00,ZHHH 072000Z AUTO 06002KT 1SM 08/08 A3027 RMK T00800080 IEM_DS3505
ZHHH,2008-03-07 21:00,ZHHH 072100Z AUTO 00000KT 6SM 09/08 A3027 RMK 70014 SLP251 T00910077 57014 IEM_DS3505
ZHHH,2008-03-07 22:00,ZHHH 072200Z AUTO 08004KT 1SM 08/08 A3027 RMK T00800080 IEM_DS3505
ZHHH,2008-03-07 23:00,ZHHH 072300Z AUTO 12002KT 1SM 08/08 A3030 RMK T00800080 IEM_DS3505
ZHHH,2008-03-08 00:00,ZHHH 080000Z AUTO 27002KT 1 1/4SM 09/08 A3030 RMK 60000 70010 SLP261 T00930082 52010 IEM_DS3505
ZHHH,2008-03-08 01:00,ZHHH 080100Z AUTO 11006KT 1SM 09/08 A3030 RMK T00900080 IEM_DS3505
ZHHH,2008-03-08 02:00,ZHHH 080200Z AUTO 18004KT 1SM 10/09 A3030 RMK T01000090 IEM_DS3505
ZHHH,2008-03-08 03:00,ZHHH 080300Z AUTO 27002KT 9SM 13/07 A3030 RMK SLP261 T01310069 54000 IEM_DS3505
ZHHH,2008-03-08 04:00,ZHHH 080400Z AUTO 29004KT 1SM 13/09 A3030 RMK T01300090 IEM_DS3505
ZHHH,2008-03-08 05:00,ZHHH 080500Z AUTO 27004KT 1 1/2SM 13/08 A3027 RMK T01300080 IEM_DS3505
ZHHH,2008-03-08 06:00,ZHHH 080600Z AUTO 22002KT 9SM 14/07 A3024 RMK SLP240 T01420070 57021 IEM_DS3505
ZHHH,2008-03-08 07:00,ZHHH 080700Z AUTO 22006KT 2SM 14/08 A3021 RMK T01400080 IEM_DS3505
ZHHH,2008-03-08 08:00,ZHHH 080800Z AUTO 2SM 14/08 A3021 RMK T01400080 IEM_DS3505
ZHHH,2008-03-08 09:00,ZHHH 080900Z AUTO 14002KT 7SM 15/07 A3021 RMK SLP225 T01480071 57015 IEM_DS3505
ZHHH,2008-03-08 10:00,ZHHH 081000Z AUTO 12008KT 1SM 13/10 A3018 RMK T01300100 IEM_DS3505
ZHHH,2008-03-08 11:00,ZHHH 081100Z AUTO 13008KT 1SM 11/10 A3021 RMK T01100100 IEM_DS3505
ZHHH,2008-03-08 12:00,ZHHH 081200Z AUTO 11002KT 7SM 12/08 A3021 RMK SLP231 T01190076 52006 IEM_DS3505
ZHHH,2008-03-08 13:00,ZHHH 081300Z AUTO 12006KT 1SM 10/09 A3024 RMK T01000090 IEM_DS3505
ZHHH,2008-03-08 14:00,ZHHH 081400Z AUTO 14006KT 1SM 10/09 A3024 RMK T01000090 IEM_DS3505
ZHHH,2008-03-08 15:00,ZHHH 081500Z AUTO 14002KT 6SM 10/08 A3024 RMK SLP243 T01030079 52012 IEM_DS3505
ZHHH,2008-03-08 16:00,ZHHH 081600Z AUTO 1SM 09/09 A3024 RMK T00900090 IEM_DS3505
ZHHH,2008-03-08 17:00,ZHHH 081700Z AUTO 13006KT 1SM 09/08 A3024 RMK T00900080 IEM_DS3505
ZHHH,2008-03-08 18:00,ZHHH 081800Z AUTO 09002KT 7SM 09/08 A3024 RMK SLP236 T00930079 57007 IEM_DS3505
ZHHH,2008-03-08 19:00,ZHHH 081900Z AUTO 12006KT 1/2SM 08/07 A3021 RMK T00800070 IEM_DS3505
ZHHH,2008-03-08 20:00,ZHHH 082000Z AUTO 11006KT 1/2SM 07/07 A3021 RMK T00700070 IEM_DS3505
ZHHH,2008-03-08 21:00,ZHHH 082100Z AUTO 14002KT 6SM 08/07 A3021 RMK 70000 SLP231 T00810072 57005 IEM_DS3505
ZHHH,2008-03-08 22:00,ZHHH 082200Z AUTO 10004KT 3/8SM 07/07 A3024 RMK T00700070 IEM_DS3505
ZHHH,2008-03-08 23:00,ZHHH 082300Z AUTO 10004KT 1/4SM 06/06 A3024 RMK T00600060 IEM_DS3505
ZHHH,2008-03-09 00:00,ZHHH 090000Z AUTO 09002KT 5SM 09/07 A3027 RMK SLP247 T00880074 52016 IEM_DS3505
ZHHH,2008-03-09 01:00,ZHHH 090100Z AUTO 11008KT 1/2SM 09/09 A3027 RMK T00900090 IEM_DS3505
ZHHH,2008-03-09 02:00,ZHHH 090200Z AUTO 12008KT 1SM 11/10 A3027 RMK T01100100 IEM_DS3505
ZHHH,2008-03-09 03:00,ZHHH 090300Z AUTO 14004KT 9SM 14/08 A3024 RMK SLP243 T01420082 57004 IEM_DS3505
ZHHH,2008-03-09 04:00,ZHHH 090400Z AUTO 11006KT 1 1/2SM 14/10 A3024 RMK T01400100 IEM_DS3505
ZHHH,2008-03-09 05:00,ZHHH 090500Z AUTO 2 1/2SM 16/09 A3018 RMK T01600090 IEM_DS3505
ZHHH,2008-03-09 06:00,ZHHH 090600Z AUTO 16002KT 9SM 18/09 A3015 RMK SLP211 T01790087 57031 IEM_DS3505
ZHHH,2008-03-09 07:00,ZHHH 090700Z AUTO 2 1/2SM 17/10 A3012 RMK T01700100 IEM_DS3505
ZHHH,2008-03-09 08:00,ZHHH 090800Z AUTO 15004KT 2 1/2SM 18/10 A3012 RMK T01800100 IEM_DS3505
ZHHH,2008-03-09 09:00,ZHHH 090900Z AUTO 14002KT 9SM 18/06 A3012 RMK SLP198 T01840059 57013 IEM_DS3505
ZHHH,2008-03-09 10:00,ZHHH 091000Z AUTO 11004KT 2 1/2SM 16/11 A3012 RMK T01600110 IEM_DS3505
ZHHH,2008-03-09 11:00,ZHHH 091100Z AUTO 10006KT 2 1/2SM 15/11 A3012 RMK T01500110 IEM_DS3505
ZHHH,2008-03-09 12:00,ZHHH 091200Z AUTO 09002KT 7SM 15/09 A3015 RMK SLP207 T01460088 52008 IEM_DS3505
ZHHH,2008-03-09 13:00,ZHHH 091300Z AUTO 11006KT 2SM 14/11 A3015 RMK T01400110 IEM_DS3505
ZHHH,2008-03-09 14:00,ZHHH 091400Z AUTO 11006KT 2SM 13/10 A3015 RMK T01300100 IEM_DS3505
ZHHH,2008-03-09 15:00,ZHHH 091500Z AUTO 00000KT 5SM 12/10 A3015 RMK SLP213 T01190098 52007 IEM_DS3505
ZHHH,2008-03-09 16:00,ZHHH 091600Z AUTO 13004KT 2SM 13/10 A3015 RMK T01300100 IEM_DS3505
ZHHH,2008-03-09 17:00,ZHHH 091700Z AUTO 10004KT 1 1/2SM 12/10 A3015 RMK T01200100 IEM_DS3505
ZHHH,2008-03-09 18:00,ZHHH 091800Z AUTO 00000KT 5SM 11/10 A3015 RMK SLP208 T01060097 57005 IEM_DS3505
ZHHH,2008-03-09 19:00,ZHHH 091900Z AUTO 00000KT 1 1/4SM 11/09 A3012 RMK T01100090 IEM_DS3505
ZHHH,2008-03-09 20:00,ZHHH 092000Z AUTO 04004KT 1SM 09/08 A3012 RMK T00900080 IEM_DS3505
ZHHH,2008-03-09 21:00,ZHHH 092100Z AUTO 00000KT 2 1/2SM 09/08 A3012 RMK SLP199 T00890083 57009 IEM_DS3505
ZHHH,2008-03-09 22:00,ZHHH 092200Z AUTO 11006KT 1SM 09/09 A3012 RMK T00900090 IEM_DS3505
ZHHH,2008-03-09 23:00,ZHHH 092300Z AUTO 09006KT 1SM 09/08 A3012 RMK T00900080 IEM_DS3505
ZHHH,2008-03-10 00:00,ZHHH 100000Z AUTO 16002KT 4SM 11/10 A3015 RMK SLP208 T01080099 52009 IEM_DS3505
ZHHH,2008-03-10 01:00,ZHHH 100100Z AUTO 12004KT 1SM 11/10 A3015 RMK T01100100 IEM_DS3505
ZHHH,2008-03-10 02:00,ZHHH 100200Z AUTO 15004KT 1SM 14/11 A3015 RMK T01400110 IEM_DS3505
ZHHH,2008-03-10 03:00,ZHHH 100300Z AUTO 27004KT 9SM 18/10 A3015 RMK SLP206 T01750101 57002 IEM_DS3505
ZHHH,2008-03-10 04:00,ZHHH 100400Z AUTO 24004KT 2SM 18/12 A3012 RMK T01800120 IEM_DS3505
ZHHH,2008-03-10 05:00,ZHHH 100500Z AUTO 26006KT 3SM 19/12 A3009 RMK T01900120 IEM_DS3505
ZHHH,2008-03-10 06:00,ZHHH 100600Z AUTO 16004KT 9SM 21/10 A3003 RMK SLP173 T02090098 57033 IEM_DS3505
ZHHH,2008-03-10 07:00,ZHHH 100700Z AUTO 16004KT 3SM 21/12 A3003 RMK T02100120 IEM_DS3505
ZHHH,2008-03-10 08:00,ZHHH 100800Z AUTO 20006KT 4SM 21/11 A3000 RMK T02100110 IEM_DS3505
ZHHH,2008-03-10 09:00,ZHHH 100900Z AUTO 20004KT 9SM 21/08 A3000 RMK SLP160 T02060079 57013 IEM_DS3505
ZHHH,2008-03-10 10:00,ZHHH 101000Z AUTO 21004KT 3SM 20/10 A3000 RMK T02000100 IEM_DS3505
ZHHH,2008-03-10 11:00,ZHHH 101100Z AUTO 18002KT 3SM 18/11 A3000 RMK T01800110 IEM_DS3505
ZHHH,2008-03-10 12:00,ZHHH 101200Z AUTO 00000KT 9SM 15/11 A3000 RMK SLP164 T01470109 52004 IEM_DS3505
ZHHH,2008-03-10 13:00,ZHHH 101300Z AUTO 13004KT 3SM 16/11 A3003 RMK T01600110 IEM_DS3505
ZHHH,2008-03-10 14:00,ZHHH 101400Z AUTO 15006KT 3SM 16/12 A3003 RMK T01600120 IEM_DS3505
ZHHH,2008-03-10 15:00,ZHHH 101500Z AUTO 25002KT 7SM 13/10 A3006 RMK SLP177 T01310103 52013 IEM_DS3505
ZHHH,2008-03-10 16:00,ZHHH 101600Z AUTO 23004KT 3SM 15/11 A3006 RMK T01500110 IEM_DS3505
ZHHH,2008-03-10 17:00,ZHHH 101700Z AUTO 1 1/2SM 14/11 A3006 RMK T01400110 IEM_DS3505
ZHHH,2008-03-10 18:00,ZHHH 101800Z AUTO 25002KT 7SM 12/11 A3006 RMK SLP183 T01250111 52006 IEM_DS3505
ZHHH,2008-03-10 19:00,ZHHH 101900Z AUTO 00000KT 1 1/4SM 13/12 A3006 RMK T01300120 IEM_DS3505
ZHHH,2008-03-10 20:00,ZHHH 102000Z AUTO 00000KT 1SM 13/12 A3006 RMK T01300120 IEM_DS3505
ZHHH,2008-03-10 21:00,ZHHH 102100Z AUTO 14002KT 4SM 11/11 A3006 RMK SLP176 T01130107 57007 IEM_DS3505
ZHHH,2008-03-10 22:00,ZHHH 102200Z AUTO 10002KT 1SM 12/11 A3006 RMK T01200110 IEM_DS3505
ZHHH,2008-03-10 23:00,ZHHH 102300Z AUTO 11008KT 1SM 11/11 A3009 RMK T01100110 IEM_DS3505
ZHHH,2008-03-11 00:00,ZHHH 110000Z AUTO 07002KT 5SM 14/13 A3009 RMK SLP189 T01360131 52013 IEM_DS3505
ZHHH,2008-03-11 01:00,ZHHH 110100Z AUTO 11004KT 1SM 15/13 A3009 RMK T01500130 IEM_DS3505
ZHHH,2008-03-11 02:00,ZHHH 110200Z AUTO 1SM 18/15 A3009 RMK T01800150 IEM_DS3505
ZHHH,2008-03-11 03:00,ZHHH 110300Z AUTO 20004KT 6SM 20/13 A3009 RMK SLP192 T01950128 52003 IEM_DS3505
ZHHH,2008-03-11 04:00,ZHHH 110400Z AUTO 1 1/4SM 20/15 A3006 RMK T02000150 IEM_DS3505
ZHHH,2008-03-11 06:00,ZHHH 110600Z AUTO 22006KT 9SM 22/13 A3000 RMK SLP163 T02230128 57029 IEM_DS3505
ZHHH,2008-03-11 07:00,ZHHH 110700Z AUTO 20008KT 2SM 23/14 A2997 RMK T02300140 IEM_DS3505
ZHHH,2008-03-11 08:00,ZHHH 110800Z AUTO 22006KT 2 1/2SM 22/14 A2997 RMK T02200140 IEM_DS3505
ZHHH,2008-03-11 09:00,ZHHH 110900Z AUTO 14002KT 9SM 22/12 A2997 RMK SLP151 T02200120 57012 IEM_DS3505
ZHHH,2008-03-11 10:00,ZHHH 111000Z AUTO 1 1/2SM 21/14 A2997 RMK T02100140 IEM_DS3505
ZHHH,2008-03-11 11:00,ZHHH 111100Z AUTO 04002KT 1 1/2SM 19/14 A2997 RMK T01900140 IEM_DS3505
ZHHH,2008-03-11 12:00,ZHHH 111200Z AUTO 09002KT 7SM 18/13 A2997 RMK SLP151 T01810130 54000 IEM_DS3505
ZHHH,2008-03-11 13:00,ZHHH 111300Z AUTO 11006KT 1 1/2SM 18/14 A3000 RMK T01800140 IEM_DS3505
ZHHH,2008-03-11 14:00,ZHHH 111400Z AUTO 11004KT 1 1/4SM 18/14 A3000 RMK T01800140 IEM_DS3505
ZHHH,2008-03-11 15:00,ZHHH 111500Z AUTO 09002KT 7SM 15/13 A3003 RMK SLP165 T01470132 52014 IEM_DS3505
ZHHH,2008-03-11 16:00,ZHHH 111600Z AUTO 08006KT 1 1/4SM 16/14 A3003 RMK T01600140 IEM_DS3505
ZHHH,2008-03-11 17:00,ZHHH 111700Z AUTO 08006KT 1 1/4SM 15/13 A3000 RMK T01500130 IEM_DS3505
ZHHH,2008-03-11 18:00,ZHHH 111800Z AUTO 02002KT 4SM 13/12 A3000 RMK SLP162 T01340125 57003 IEM_DS3505
ZHHH,2008-03-11 19:00,ZHHH 111900Z AUTO 10006KT 1SM 14/12 A3000 RMK T01400120 IEM_DS3505
ZHHH,2008-03-11 20:00,ZHHH 112000Z AUTO 11008KT 1SM 14/12 A2997 RMK T01400120 IEM_DS3505
ZHHH,2008-03-11 21:00,ZHHH 112100Z AUTO 11002KT 5SM 14/12 A2997 RMK SLP148 T01400122 57014 IEM_DS3505
ZHHH,2008-03-11 22:00,ZHHH 112200Z AUTO 11008KT 1SM 13/12 A3000 RMK T01300120 IEM_DS3505
ZHHH,2008-03-11 23:00,ZHHH 112300Z AUTO 12008KT 1SM 13/12 A3000 RMK T01300120 IEM_DS3505
ZHHH,2008-03-12 00:00,ZHHH 120000Z AUTO 11002KT 6SM 16/12 A3000 RMK SLP165 T01560116 52017 IEM_DS3505
ZHHH,2008-03-12 01:00,ZHHH 120100Z AUTO 12010KT 1 1/4SM 16/13 A3003 RMK T01600130 IEM_DS3505
ZHHH,2008-03-12 02:00,ZHHH 120200Z AUTO 12008KT 1 1/4SM 17/13 A3000 RMK T01700130 IEM_DS3505
ZHHH,2008-03-12 03:00,ZHHH 120300Z AUTO 14004KT 7SM 19/11 A3000 RMK SLP161 T01930111 57004 IEM_DS3505
ZHHH,2008-03-12 04:00,ZHHH 120400Z AUTO 13008KT 2SM 20/14 A3000 RMK T02000140 IEM_DS3505
ZHHH,2008-03-12 05:00,ZHHH 120500Z AUTO 13010KT 2 1/2SM 21/14 A2997 RMK T02100140 IEM_DS3505
ZHHH,2008-03-12 06:00,ZHHH 120600Z AUTO 11004KT 9SM 23/11 A2991 RMK SLP133 T02280112 57028 IEM_DS3505
ZHHH,2008-03-12 07:00,ZHHH 120700Z AUTO 13008KT 2 1/2SM 23/14 A2988 RMK T02300140 IEM_DS3505
ZHHH,2008-03-12 08:00,ZHHH 120800Z AUTO 13008KT 2 1/2SM 23/14 A2988 RMK T02300140 IEM_DS3505
ZHHH,2008-03-12 09:00,ZHHH 120900Z AUTO 07002KT 9SM 23/12 A2988 RMK SLP117 T02340118 57016 IEM_DS3505
ZHHH,2008-03-12 10:00,ZHHH 121000Z AUTO 10008KT 2SM 21/14 A2988 RMK T02100140 IEM_DS3505
ZHHH,2008-03-12 11:00,ZHHH 121100Z AUTO 11008KT 2 1/2SM 21/15 A2988 RMK T02100150 IEM_DS3505
ZHHH,2008-03-12 12:00,ZHHH 121200Z AUTO 09004KT 9SM 21/13 A2988 RMK SLP116 T02080128 57001 IEM_DS3505
ZHHH,2008-03-12 13:00,ZHHH 121300Z AUTO 33016G37KT 3SM 18/16 A2994 RMK T01800160 IEM_DS3505
ZHHH,2008-03-12 14:00,ZHHH 121400Z AUTO 36008KT 1SM 16/16 A2997 RMK T01600160 IEM_DS3505
ZHHH,2008-03-12 15:00,ZHHH 121500Z AUTO 34004KT 6SM 17/16 A2997 RMK SLP150 T01660158 52034 IEM_DS3505
ZHHH,2008-03-12 16:00,ZHHH 121600Z AUTO 02012KT 2SM 15/15 A2997 RMK T01500150 IEM_DS3505
ZHHH,2008-03-12 17:00,ZHHH 121700Z AUTO 03004KT 3SM 15/15 A3000 RMK T01500150 IEM_DS3505
ZHHH,2008-03-12 18:00,ZHHH 121800Z AUTO 02004KT 6SM 15/14 A2997 RMK 60102 SLP153 T01490138 52003 IEM_DS3505
ZHHH,2008-03-12 19:00,ZHHH 121900Z AUTO 34008KT 1 1/4SM 14/14 A2997 RMK T01400140 IEM_DS3505
ZHHH,2008-03-12 20:00,ZHHH 122000Z AUTO 04006KT 1 1/4SM 14/14 A2997 RMK T01400140 IEM_DS3505
ZHHH,2008-03-12 21:00,ZHHH 122100Z AUTO 34002KT 7SM 14/13 A3000 RMK 70108 SLP157 T01440131 52004 IEM_DS3505
ZHHH,2008-03-12 22:00,ZHHH 122200Z AUTO 35004KT 1 1/4SM 13/13 A3000 RMK T01300130 IEM_DS3505
ZHHH,2008-03-12 23:00,ZHHH 122300Z AUTO 01004KT 1 1/4SM 13/12 A3003 RMK T01300120 IEM_DS3505
ZHHH,2008-03-13 00:00,ZHHH 130000Z AUTO 34004KT 6SM 14/12 A3009 RMK 60008 70108 SLP186 T01360117 52029 IEM_DS3505
ZHHH,2008-03-13 01:00,ZHHH 130100Z AUTO 03008KT 1SM 14/11 A3012 RMK T01400110 IEM_DS3505
ZHHH,2008-03-13 02:00,ZHHH 130200Z AUTO 03012KT 1SM 15/11 A3012 RMK T01500110 IEM_DS3505
ZHHH,2008-03-13 03:00,ZHHH 130300Z AUTO 36006KT 7SM 16/10 A3012 RMK SLP199 T01600103 52013 IEM_DS3505
ZHHH,2008-03-13 04:00,ZHHH 130400Z AUTO 03010KT 1 1/2SM 16/13 A3012 RMK T01600130 IEM_DS3505
ZHHH,2008-03-13 05:00,ZHHH 130500Z AUTO 02010KT 1 1/2SM 16/12 A3012 RMK T01600120 IEM_DS3505
ZHHH,2008-03-13 06:00,ZHHH 130600Z AUTO 02006KT 7SM 17/11 A3009 RMK SLP191 T01730107 57008 IEM_DS3505
ZHHH,2008-03-13 07:00,ZHHH 130700Z AUTO 03010KT 2SM 18/11 A3009 RMK T01800110 IEM_DS3505
ZHHH,2008-03-13 08:00,ZHHH 130800Z AUTO 03010KT 2SM 19/12 A3006 RMK T01900120 IEM_DS3505
ZHHH,2008-03-13 09:00,ZHHH 130900Z AUTO 04004KT 7SM 18/10 A3009 RMK SLP187 T01810105 57004 IEM_DS3505
ZHHH,2008-03-13 10:00,ZHHH 131000Z AUTO 04008KT 1 1/4SM 17/13 A3009 RMK T01700130 IEM_DS3505
ZHHH,2008-03-13 11:00,ZHHH 131100Z AUTO 05006KT 1 1/4SM 16/12 A3012 RMK T01600120 IEM_DS3505
ZHHH,2008-03-13 12:00,ZHHH 131200Z AUTO 07002KT 7SM 16/11 A3012 RMK SLP202 T01570109 52015 IEM_DS3505
ZHHH,2008-03-13 13:00,ZHHH 131300Z AUTO 1 1/4SM 14/11 A3015 RMK T01400110 IEM_DS3505
ZHHH,2008-03-13 14:00,ZHHH 131400Z AUTO 03006KT 1SM 14/12 A3018 RMK T01400120 IEM_DS3505
ZHHH,2008-03-13 15:00,ZHHH 131500Z AUTO 04004KT 9SM 14/11 A3015 RMK SLP213 T01440110 52011 IEM_DS3505
ZHHH,2008-03-13 16:00,ZHHH 131600Z AUTO 04004KT 1SM 13/11 A3015 RMK T01300110 IEM_DS3505
ZHHH,2008-03-13 17:00,ZHHH 131700Z AUTO 00000KT 1SM 12/11 A3015 RMK T01200110 IEM_DS3505
ZHHH,2008-03-13 18:00,ZHHH 131800Z AUTO 00000KT 6SM 12/11 A3015 RMK SLP212 T01250107 57001 IEM_DS3505
ZHHH,2008-03-13 19:00,ZHHH 131900Z AUTO 00000KT 1SM 11/11 A3015 RMK T01100110 IEM_DS3505
ZHHH,2008-03-13 20:00,ZHHH 132000Z AUTO 00000KT 1SM 11/11 A3012 RMK T01100110 IEM_DS3505
ZHHH,2008-03-13 21:00,ZHHH 132100Z AUTO 07002KT 5SM 12/11 A3012 RMK SLP199 T01230109 57013 IEM_DS3505
ZHHH,2008-03-13 22:00,ZHHH 132200Z AUTO 10008KT 1SM 11/10 A3012 RMK T01100100 IEM_DS3505
ZHHH,2008-03-13 23:00,ZHHH 132300Z AUTO 11006KT 1/2SM 11/10 A3015 RMK T01100100 IEM_DS3505
ZHHH,2008-03-14 00:00,ZHHH 140000Z AUTO 09004KT 5SM 13/11 A3015 RMK SLP209 T01300114 52010 IEM_DS3505
ZHHH,2008-03-14 01:00,ZHHH 140100Z AUTO 11008KT 1SM 13/13 A3015 RMK T01300130 IEM_DS3505
ZHHH,2008-03-14 02:00,ZHHH 140200Z AUTO 11006KT 1SM 16/13 A3015 RMK T01600130 IEM_DS3505
ZHHH,2008-03-14 03:00,ZHHH 140300Z AUTO 14006KT 7SM 19/09 A3015 RMK SLP207 T01860094 57002 IEM_DS3505
ZHHH,2008-03-14 04:00,ZHHH 140400Z AUTO 11010KT 1 1/2SM 19/12 A3012 RMK T01900120 IEM_DS3505
ZHHH,2008-03-14 05:00,ZHHH 140500Z AUTO 11008KT 2SM 19/12 A3009 RMK T01900120 IEM_DS3505
ZHHH,2008-03-14 06:00,ZHHH 140600Z AUTO 09006KT 7SM 21/10 A3006 RMK SLP177 T02060104 57030 IEM_DS3505
ZHHH,2008-03-14 07:00,ZHHH 140700Z AUTO 12008KT 2 1/2SM 21/13 A3003 RMK T02100130 IEM_DS3505
ZHHH,2008-03-14 08:00,ZHHH 140800Z AUTO 11008KT 2 1/2SM 21/13 A3000 RMK T02100130 IEM_DS3505
ZHHH,2008-03-14 09:00,ZHHH 140900Z AUTO 18002KT 7SM 21/10 A3000 RMK SLP157 T02130095 57020 IEM_DS3505
ZHHH,2008-03-14 10:00,ZHHH 141000Z AUTO 11006KT 3SM 19/13 A3000 RMK T01900130 IEM_DS3505
ZHHH,2008-03-14 11:00,ZHHH 141100Z AUTO 11008KT 1 1/2SM 18/14 A3000 RMK T01800140 IEM_DS3505
ZHHH,2008-03-14 12:00,ZHHH 141200Z AUTO 09002KT 7SM 18/11 A3000 RMK SLP158 T01830109 52001 IEM_DS3505
ZHHH,2008-03-14 13:00,ZHHH 141300Z AUTO 14006KT 1 1/4SM 17/14 A3000 RMK T01700140 IEM_DS3505
ZHHH,2008-03-14 14:00,ZHHH 141400Z AUTO 14008KT 1 1/4SM 17/13 A3003 RMK T01700130 IEM_DS3505
ZHHH,2008-03-14 15:00,ZHHH 141500Z AUTO 11002KT 6SM 17/11 A3003 RMK SLP164 T01720106 52006 IEM_DS3505
ZHHH,2008-03-14 16:00,ZHHH 141600Z AUTO 12006KT 1 1/2SM 15/12 A3000 RMK T01500120 IEM_DS3505
ZHHH,2008-03-14 17:00,ZHHH 141700Z AUTO 12004KT 1 1/2SM 15/12 A3003 RMK T01500120 IEM_DS3505
ZHHH,2008-03-14 18:00,ZHHH 141800Z AUTO 11004KT 9SM 16/10 A3000 RMK SLP162 T01600097 57002 IEM_DS3505
ZHHH,2008-03-14 19:00,ZHHH 141900Z AUTO 11006KT 1 1/2SM 14/11 A3000 RMK T01400110 IEM_DS3505
ZHHH,2008-03-14 20:00,ZHHH 142000Z AUTO 11006KT 1 1/2SM 14/11 A3000 RMK T01400110 IEM_DS3505
ZHHH,2008-03-14 21:00,ZHHH 142100Z AUTO 16002KT 11SM 15/09 A2997 RMK SLP153 T01530090 57009 IEM_DS3505
ZHHH,2008-03-14 22:00,ZHHH 142200Z AUTO 12004KT 1 1/4SM 13/11 A3000 RMK T01300110 IEM_DS3505
ZHHH,2008-03-14 23:00,ZHHH 142300Z AUTO 09006KT 1 1/4SM 13/10 A3000 RMK T01300100 IEM_DS3505
ZHHH,2008-03-15 00:00,ZHHH 150000Z AUTO 09002KT 11SM 16/10 A3003 RMK SLP167 T01600099 52014 IEM_DS3505
ZHHH,2008-03-15 01:00,ZHHH 150100Z AUTO 12008KT 2 1/2SM 15/11 A3003 RMK T01500110 IEM_DS3505
ZHHH,2008-03-15 02:00,ZHHH 150200Z AUTO 11008KT 2 1/2SM 17/11 A3006 RMK T01700110 IEM_DS3505
ZHHH,2008-03-15 03:00,ZHHH 150300Z AUTO 14002KT 9SM 18/10 A3006 RMK SLP179 T01820096 52012 IEM_DS3505
ZHHH,2008-03-15 04:00,ZHHH 150400Z AUTO 12006KT 2SM 17/12 A3006 RMK T01700120 IEM_DS3505
ZHHH,2008-03-15 05:00,ZHHH 150500Z AUTO 12004KT 2SM 17/12 A3003 RMK T01700120 IEM_DS3505
ZHHH,2008-03-15 06:00,ZHHH 150600Z AUTO 07002KT 6SM 18/12 A3000 RMK 60000 SLP161 T01820118 57018 IEM_DS3505
ZHHH,2008-03-15 07:00,ZHHH 150700Z AUTO 12004KT 1 1/2SM 17/13 A3000 RMK T01700130 IEM_DS3505
ZHHH,2008-03-15 08:00,ZHHH 150800Z AUTO 12004KT 1 1/2SM 18/13 A2997 RMK T01800130 IEM_DS3505
ZHHH,2008-03-15 09:00,ZHHH 150900Z AUTO 09002KT 5SM 18/13 A2997 RMK SLP150 T01790128 57011 IEM_DS3505
ZHHH,2008-03-15 10:00,ZHHH 151000Z AUTO 16004KT 1SM 17/14 A2997 RMK T01700140 IEM_DS3505
ZHHH,2008-03-15 11:00,ZHHH 151100Z AUTO 1SM 17/14 A2997 RMK T01700140 IEM_DS3505
ZHHH,2008-03-15 12:00,ZHHH 151200Z AUTO 25002KT 4SM 17/13 A3000 RMK 60000 SLP160 T01690130 52010 IEM_DS3505
ZHHH,2008-03-15 13:00,ZHHH 151300Z AUTO 36002KT 1SM 16/14 A3003 RMK T01600140 IEM_DS3505
ZHHH,2008-03-15 14:00,ZHHH 151400Z AUTO 20004KT 1SM 16/14 A3003 RMK T01600140 IEM_DS3505
ZHHH,2008-03-15 15:00,ZHHH 151500Z AUTO 34002KT 4SM 16/15 A3003 RMK SLP171 T01560146 52011 IEM_DS3505
ZHHH,2008-03-15 16:00,ZHHH 151600Z AUTO 00000KT 1/2SM 15/15 A3003 RMK T01500150 IEM_DS3505
ZHHH,2008-03-15 17:00,ZHHH 151700Z AUTO 00000KT 1/2SM 15/15 A3000 RMK T01500150 IEM_DS3505
ZHHH,2008-03-15 18:00,ZHHH 151800Z AUTO 02002KT 4SM 15/15 A3000 RMK 60035 SLP157 T01540148 57014 IEM_DS3505
ZHHH,2008-03-15 19:00,ZHHH 151900Z AUTO 05008KT 3/8SM 15/15 A3000 RMK T01500150 IEM_DS3505
ZHHH,2008-03-15 20:00,ZHHH 152000Z AUTO 08008KT 1SM 14/14 A2997 RMK T01400140 IEM_DS3505
ZHHH,2008-03-15 21:00,ZHHH 152100Z AUTO 07004KT 4SM 15/14 A2997 RMK 70050 SLP149 T01490141 57008 IEM_DS3505
ZHHH,2008-03-15 22:00,ZHHH 152200Z AUTO 08008KT 1SM 14/14 A2997 RMK T01400140 IEM_DS3505
ZHHH,2008-03-15 23:00,ZHHH 152300Z AUTO 09006KT 3/8SM 14/14 A3000 RMK T01400140 IEM_DS3505
ZHHH,2008-03-16 00:00,ZHHH 160000Z AUTO 04002KT 1 1/4SM 14/14 A3003 RMK 60020 70056 SLP165 T01450135 52016 IEM_DS3505
ZHHH,2008-03-16 01:00,ZHHH 160100Z AUTO 04006KT 1/2SM 14/14 A3003 RMK T01400140 IEM_DS3505
ZHHH,2008-03-16 02:00,ZHHH 160200Z AUTO 04006KT 1SM 14/14 A3003 RMK T01400140 IEM_DS3505
ZHHH,2008-03-16 03:00,ZHHH 160300Z AUTO 07004KT 1 1/4SM 15/14 A3003 RMK SLP167 T01470136 52002 IEM_DS3505
ZHHH,2008-03-16 04:00,ZHHH 160400Z AUTO 04006KT 1SM 14/14 A3000 RMK T01400140 IEM_DS3505
ZHHH,2008-03-16 05:00,ZHHH 160500Z AUTO 02006KT 1SM 14/14 A3000 RMK T01400140 IEM_DS3505
ZHHH,2008-03-16 06:00,ZHHH 160600Z AUTO 02004KT 2SM 14/13 A2997 RMK 60008 SLP145 T01440134 57022 IEM_DS3505
ZHHH,2008-03-16 07:00,ZHHH 160700Z AUTO 03008KT 1SM 14/14 A2994 RMK T01400140 IEM_DS3505
ZHHH,2008-03-16 08:00,ZHHH 160800Z AUTO 03006KT 1SM 13/13 A2994 RMK T01300130 IEM_DS3505
ZHHH,2008-03-16 09:00,ZHHH 160900Z AUTO 02006KT 4SM 14/13 A2994 RMK SLP143 T01370128 57002 IEM_DS3505
ZHHH,2008-03-16 10:00,ZHHH 161000Z AUTO 04006KT 1 1/4SM 13/13 A2994 RMK T01300130 IEM_DS3505
ZHHH,2008-03-16 11:00,ZHHH 161100Z AUTO 04006KT 1 1/4SM 13/13 A2994 RMK T01300130 IEM_DS3505
ZHHH,2008-03-16 12:00,ZHHH 161200Z AUTO 02004KT 6SM 14/12 A2997 RMK 60020 SLP149 T01380124 52006 IEM_DS3505
ZHHH,2008-03-16 13:00,ZHHH 161300Z AUTO 05006KT 1 1/4SM 13/12 A3000 RMK T01300120 IEM_DS3505
ZHHH,2008-03-16 14:00,ZHHH 161400Z AUTO 03004KT 1 1/4SM 13/12 A3000 RMK T01300120 IEM_DS3505
ZHHH,2008-03-16 15:00,ZHHH 161500Z AUTO 36002KT 7SM 14/12 A3000 RMK SLP156 T01360118 52007 IEM_DS3505
ZHHH,2008-03-16 16:00,ZHHH 161600Z AUTO 00000KT 1 1/2SM 12/11 A2997 RMK T01200110 IEM_DS3505
ZHHH,2008-03-16 17:00,ZHHH 161700Z AUTO 03002KT 1 1/2SM 12/11 A2997 RMK T01200110 IEM_DS3505
ZHHH,2008-03-16 18:00,ZHHH 161800Z AUTO 07002KT 6SM 13/10 A2997 RMK 60000 SLP145 T01310101 57011 IEM_DS3505
ZHHH,2008-03-16 19:00,ZHHH 161900Z AUTO 02004KT 1 1/4SM 12/12 A2994 RMK T01200120 IEM_DS3505
ZHHH,2008-03-16 20:00,ZHHH 162000Z AUTO 00000KT 1 1/4SM 12/12 A2994 RMK T01200120 IEM_DS3505
ZHHH,2008-03-16 21:00,ZHHH 162100Z AUTO 11002KT 7SM 13/11 A2991 RMK 70034 SLP129 T01290110 57016 IEM_DS3505
ZHHH,2008-03-16 22:00,ZHHH 162200Z AUTO 1 1/2SM 11/10 A2994 RMK T01100100 IEM_DS3505
ZHHH,2008-03-16 23:00,ZHHH 162300Z AUTO 08004KT 2 1/2SM 12/09 A2994 RMK T01200090 IEM_DS3505
ZHHH,2008-03-17 00:00,ZHHH 170000Z AUTO 11002KT 7SM 13/10 A2994 RMK 60000 70028 SLP142 T01290097 52013 IEM_DS3505
ZHHH,2008-03-17 01:00,ZHHH 170100Z AUTO 13008KT 2 1/2SM 13/11 A2994 RMK T01300110 IEM_DS3505
ZHHH,2008-03-17 02:00,ZHHH 170200Z AUTO 14004KT 1 1/2SM 14/13 A2994 RMK T01400130 IEM_DS3505
ZHHH,2008-03-17 03:00,ZHHH 170300Z AUTO 16004KT 9SM 16/12 A2994 RMK SLP140 T01630117 57002 IEM_DS3505
ZHHH,2008-03-17 04:00,ZHHH 170400Z AUTO 16006KT 1 1/2SM 18/14 A2991 RMK T01800140 IEM_DS3505
ZHHH,2008-03-17 05:00,ZHHH 170500Z AUTO 22006KT 1 1/2SM 17/14 A2988 RMK T01700140 IEM_DS3505
ZHHH,2008-03-17 06:00,ZHHH 170600Z AUTO 14004KT 9SM 17/11 A2985 RMK SLP114 T01740108 57026 IEM_DS3505
ZHHH,2008-03-17 07:00,ZHHH 170700Z AUTO 15006KT 1 1/4SM 17/14 A2985 RMK T01700140 IEM_DS3505
ZHHH,2008-03-17 08:00,ZHHH 170800Z AUTO 15004KT 1 1/2SM 18/12 A2983 RMK T01800120 IEM_DS3505
ZHHH,2008-03-17 09:00,ZHHH 170900Z AUTO 16002KT 7SM 18/12 A2983 RMK SLP102 T01770119 57012 IEM_DS3505
ZHHH,2008-03-17 10:00,ZHHH 171000Z AUTO 21006KT 1 1/2SM 17/14 A2983 RMK T01700140 IEM_DS3505
ZHHH,2008-03-17 11:00,ZHHH 171100Z AUTO 23004KT 1 1/4SM 17/14 A2985 RMK T01700140 IEM_DS3505
ZHHH,2008-03-17 12:00,ZHHH 171200Z AUTO 25002KT 7SM 17/13 A2985 RMK SLP110 T01660128 52008 IEM_DS3505
ZHHH,2008-03-17 13:00,ZHHH 171300Z AUTO 22002KT 1 1/4SM 16/14 A2985 RMK T01600140 IEM_DS3505
ZHHH,2008-03-17 14:00,ZHHH 171400Z AUTO 00000KT 1 1/2SM 16/14 A2988 RMK T01600140 IEM_DS3505
ZHHH,2008-03-17 15:00,ZHHH 171500Z AUTO 00000KT 7SM 16/13 A2988 RMK SLP116 T01560131 52006 IEM_DS3505
ZHHH,2008-03-17 16:00,ZHHH 171600Z AUTO 00000KT 1 1/2SM 15/14 A2988 RMK T01500140 IEM_DS3505
ZHHH,2008-03-17 17:00,ZHHH 171700Z AUTO 00000KT 1 1/4SM 15/14 A2985 RMK T01500140 IEM_DS3505
ZHHH,2008-03-17 18:00,ZHHH 171800Z AUTO 25002KT 6SM 16/14 A2985 RMK 60000 SLP111 T01550135 57005 IEM_DS3505
ZHHH,2008-03-17 19:00,ZHHH 171900Z AUTO 25004KT 1SM 15/14 A2985 RMK T01500140 IEM_DS3505
ZHHH,2008-03-17 20:00,ZHHH 172000Z AUTO 22004KT 1SM 15/14 A2983 RMK T01500140 IEM_DS3505
ZHHH,2008-03-17 21:00,ZHHH 172100Z AUTO 22002KT 5SM 15/14 A2983 RMK 70001 SLP101 T01500137 57010 IEM_DS3505
ZHHH,2008-03-17 22:00,ZHHH 172200Z AUTO 00000KT 1SM 14/14 A2985 RMK T01400140 IEM_DS3505
ZHHH,2008-03-17 23:00,ZHHH 172300Z AUTO 24004KT 1SM 15/14 A2988 RMK T01500140 IEM_DS3505
ZHHH,2008-03-18 00:00,ZHHH 180000Z AUTO 22002KT 6SM 15/14 A2988 RMK 60000 70001 SLP124 T01530138 52023 IEM_DS3505
ZHHH,2008-03-18 01:00,ZHHH 180100Z AUTO 27004KT 1/2SM 15/15 A2991 RMK T01500150 IEM_DS3505
ZHHH,2008-03-18 02:00,ZHHH 180200Z AUTO 28004KT 1SM 15/15 A2994 RMK T01500150 IEM_DS3505
ZHHH,2008-03-18 03:00,ZHHH 180300Z AUTO 27004KT 9SM 18/14 A2994 RMK SLP137 T01770140 52013 IEM_DS3505
ZHHH,2008-03-18 04:00,ZHHH 180400Z AUTO 29004KT 2SM 19/16 A2991 RMK T01900160 IEM_DS3505
ZHHH,2008-03-18 05:00,ZHHH 180500Z AUTO 23006KT 3SM 19/15 A2988 RMK T01900150 IEM_DS3505
ZHHH,2008-03-18 06:00,ZHHH 180600Z AUTO 22004KT 11SM 21/13 A2985 RMK SLP114 T02130132 57023 IEM_DS3505
ZHHH,2008-03-18 07:00,ZHHH 180700Z AUTO 30006KT 4SM 22/15 A2985 RMK T02200150 IEM_DS3505
ZHHH,2008-03-18 08:00,ZHHH 180800Z AUTO 4SM 22/15 A2985 RMK T02200150 IEM_DS3505
ZHHH,2008-03-18 09:00,ZHHH 180900Z AUTO 25002KT 12SM 21/14 A2985 RMK SLP113 T02120139 57001 IEM_DS3505
ZHHH,2008-03-18 10:00,ZHHH 181000Z AUTO 00000KT 5SM 21/15 A2988 RMK T02100150 IEM_DS3505
ZHHH,2008-03-18 11:00,ZHHH 181100Z AUTO 4SM 19/16 A2991 RMK T01900160 IEM_DS3505
ZHHH,2008-03-18 12:00,ZHHH 181200Z AUTO 22002KT 9SM 18/14 A2994 RMK SLP139 T01830144 52026 IEM_DS3505
ZHHH,2008-03-18 13:00,ZHHH 181300Z AUTO 3SM 18/16 A2997 RMK T01800160 IEM_DS3505
ZHHH,2008-03-18 14:00,ZHHH 181400Z AUTO 08004KT 1 1/4SM 17/15 A3000 RMK T01700150 IEM_DS3505
ZHHH,2008-03-18 15:00,ZHHH 181500Z AUTO 00000KT 9SM 16/14 A3000 RMK SLP163 T01580143 52024 IEM_DS3505
ZHHH,2008-03-18 16:00,ZHHH 181600Z AUTO 06004KT 1SM 16/15 A3003 RMK T01600150 IEM_DS3505
ZHHH,2008-03-18 17:00,ZHHH 181700Z AUTO 09006KT 1SM 15/15 A3003 RMK T01500150 IEM_DS3505
ZHHH,2008-03-18 18:00,ZHHH 181800Z AUTO 00000KT 6SM 15/14 A3003 RMK SLP167 T01500139 52004 IEM_DS3505
ZHHH,2008-03-18 19:00,ZHHH 181900Z AUTO 04004KT 1SM 15/14 A3003 RMK T01500140 IEM_DS3505
ZHHH,2008-03-18 20:00,ZHHH 182000Z AUTO 05006KT 1SM 15/14 A3003 RMK T01500140 IEM_DS3505
ZHHH,2008-03-18 21:00,ZHHH 182100Z AUTO 36002KT 5SM 14/14 A3006 RMK SLP178 T01450135 52011 IEM_DS3505
ZHHH,2008-03-18 22:00,ZHHH 182200Z AUTO 03010KT 1SM 13/12 A3009 RMK T01300120 IEM_DS3505
ZHHH,2008-03-18 23:00,ZHHH 182300Z AUTO 04012KT 2 1/2SM 13/12 A3012 RMK T01300120 IEM_DS3505
ZHHH,2008-03-19 00:00,ZHHH 190000Z AUTO 07006KT 9SM 14/12 A3015 RMK SLP210 T01440116 52032 IEM_DS3505
ZHHH,2008-03-19 01:00,ZHHH 190100Z AUTO 04012KT 2 1/2SM 16/13 A3018 RMK T01600130 IEM_DS3505
ZHHH,2008-03-19 02:00,ZHHH 190200Z AUTO 06016KT 4SM 17/13 A3021 RMK T01700130 IEM_DS3505
ZHHH,2008-03-19 03:00,ZHHH 190300Z AUTO 07006KT 9SM 19/12 A3018 RMK SLP223 T01860121 52013 IEM_DS3505
ZHHH,2008-03-19 04:00,ZHHH 190400Z AUTO 08012KT 7SM 19/13 A3018 RMK T01900130 IEM_DS3505
ZHHH,2008-03-19 05:00,ZHHH 190500Z AUTO 09010KT 7SM 20/14 A3015 RMK T02000140 IEM_DS3505
ZHHH,2008-03-19 06:00,ZHHH 190600Z AUTO 02004KT 9SM 20/12 A3012 RMK SLP198 T02050117 57025 IEM_DS3505
ZHHH,2008-03-19 07:00,ZHHH 190700Z AUTO 03010KT 7SM 19/14 A3009 RMK T01900140 IEM_DS3505
ZHHH,2008-03-19 08:00,ZHHH 190800Z AUTO 02008KT 4SM 19/14 A3009 RMK T01900140 IEM_DS3505
ZHHH,2008-03-19 09:00,ZHHH 190900Z AUTO 02004KT 11SM 19/12 A3006 RMK SLP179 T01920125 57019 IEM_DS3505
ZHHH,2008-03-19 10:00,ZHHH 191000Z AUTO 05010KT 3SM 17/13 A3006 RMK T01700130 IEM_DS3505
ZHHH,2008-03-19 11:00,ZHHH 191100Z AUTO 05012KT 1 1/2SM 15/13 A3006 RMK T01500130 IEM_DS3505
ZHHH,2008-03-19 12:00,ZHHH 191200Z AUTO 04004KT 11SM 16/11 A3009 RMK SLP186 T01590113 52007 IEM_DS3505
ZHHH,2008-03-19 13:00,ZHHH 191300Z AUTO 06016KT 2SM 13/11 A3009 RMK T01300110 IEM_DS3505
ZHHH,2008-03-19 14:00,ZHHH 191400Z AUTO 06012KT 2SM 13/11 A3009 RMK T01300110 IEM_DS3505
ZHHH,2008-03-19 15:00,ZHHH 191500Z AUTO 07004KT 9SM 14/10 A3009 RMK SLP193 T01390105 52007 IEM_DS3505
ZHHH,2008-03-19 16:00,ZHHH 191600Z AUTO 07010KT 2SM 12/11 A3009 RMK T01200110 IEM_DS3505
ZHHH,2008-03-19 17:00,ZHHH 191700Z AUTO 06008KT 2SM 12/11 A3009 RMK T01200110 IEM_DS3505
ZHHH,2008-03-19 18:00,ZHHH 191800Z AUTO 07004KT 11SM 13/10 RMK SLP181 T01260103 57012 IEM_DS3505
ZHHH,2008-03-19 19:00,ZHHH 191900Z AUTO 08012KT 2SM 11/10 A3003 RMK T01100100 IEM_DS3505
ZHHH,2008-03-19 20:00,ZHHH 192000Z AUTO 10006KT 1 1/2SM 11/10 A3003 RMK T01100100 IEM_DS3505
ZHHH,2008-03-19 21:00,ZHHH 192100Z AUTO 09002KT 11SM 12/10 A3003 RMK SLP163 T01190098 57018 IEM_DS3505
ZHHH,2008-03-19 22:00,ZHHH 192200Z AUTO 07004KT 1SM 10/09 A3003 RMK T01000090 IEM_DS3505
ZHHH,2008-03-19 23:00,ZHHH 192300Z AUTO 07008KT 1SM 09/09 A3003 RMK T00900090 IEM_DS3505
ZHHH,2008-03-20 00:00,ZHHH 200000Z AUTO 09004KT 7SM 12/10 A3003 RMK SLP170 T01220103 52007 IEM_DS3505
ZHHH,2008-03-20 01:00,ZHHH 200100Z AUTO 10010KT 2 1/2SM 13/11 A3003 RMK T01300110 IEM_DS3505
ZHHH,2008-03-20 02:00,ZHHH 200200Z AUTO 11012KT 3SM 14/12 A3003 RMK T01400120 IEM_DS3505
ZHHH,2008-03-20 03:00,ZHHH 200300Z AUTO 09006KT 11SM 18/09 A3003 RMK SLP161 T01800094 57009 IEM_DS3505
ZHHH,2008-03-20 04:00,ZHHH 200400Z AUTO 10010KT 5SM 18/12 A3000 RMK T01800120 IEM_DS3505
ZHHH,2008-03-20 05:00,ZHHH 200500Z AUTO 11012KT 6SM 19/11 A2994 RMK T01900110 IEM_DS3505
ZHHH,2008-03-20 06:00,ZHHH 200600Z AUTO 04004KT 11SM 21/09 A2994 RMK SLP132 T02070093 57029 IEM_DS3505
ZHHH,2008-03-20 07:00,ZHHH 200700Z AUTO 12012KT 7SM 21/11 A2991 RMK T02100110 IEM_DS3505
ZHHH,2008-03-20 08:00,ZHHH 200800Z AUTO 12012KT 6SM 20/11 A2988 RMK T02000110 IEM_DS3505
ZHHH,2008-03-20 09:00,ZHHH 200900Z AUTO 07004KT 9SM 20/10 A2988 RMK SLP120 T02020098 57012 IEM_DS3505
ZHHH,2008-03-20 10:00,ZHHH 201000Z AUTO 11006KT 6SM 19/13 A2988 RMK T01900130 IEM_DS3505
ZHHH,2008-03-20 11:00,ZHHH 201100Z AUTO 11006KT 3SM 18/13 A2988 RMK T01800130 IEM_DS3505
ZHHH,2008-03-20 12:00,ZHHH 201200Z AUTO 07002KT 9SM 18/12 A2991 RMK 60000 SLP128 T01810121 52008 IEM_DS3505
ZHHH,2008-03-20 13:00,ZHHH 201300Z AUTO 10006KT 2 1/2SM 17/13 A2994 RMK T01700130 IEM_DS3505
ZHHH,2008-03-20 14:00,ZHHH 201400Z AUTO 09004KT 2SM 16/14 A2994 RMK T01600140 IEM_DS3505
ZHHH,2008-03-20 15:00,ZHHH 201500Z AUTO 34002KT 7SM 17/13 A2994 RMK SLP137 T01690128 52009 IEM_DS3505
ZHHH,2008-03-20 16:00,ZHHH 201600Z AUTO 02002KT 1 1/2SM 16/14 A2994 RMK T01600140 IEM_DS3505
ZHHH,2008-03-20 17:00,ZHHH 201700Z AUTO 34002KT 1 1/4SM 15/14 A2994 RMK T01500140 IEM_DS3505
ZHHH,2008-03-20 18:00,ZHHH 201800Z AUTO 02002KT 6SM 16/14 A2991 RMK 60002 SLP132 T01600135 57005 IEM_DS3505
ZHHH,2008-03-20 19:00,ZHHH 201900Z AUTO 04004KT 1SM 15/14 A2991 RMK T01500140 IEM_DS3505
ZHHH,2008-03-20 20:00,ZHHH 202000Z AUTO 06006KT 1SM 14/14 A2988 RMK T01400140 IEM_DS3505
ZHHH,2008-03-20 21:00,ZHHH 202100Z AUTO 02002KT 6SM 15/13 A2988 RMK 70004 SLP119 T01470134 57013 IEM_DS3505
ZHHH,2008-03-20 22:00,ZHHH 202200Z AUTO 03008KT 1SM 13/13 A2988 RMK T01300130 IEM_DS3505
ZHHH,2008-03-20 23:00,ZHHH 202300Z AUTO 03008KT 1SM 12/12 A2991 RMK T01200120 IEM_DS3505
ZHHH,2008-03-21 00:00,ZHHH 210000Z AUTO 36004KT 5SM 13/12 A2994 RMK 60008 70010 SLP141 T01290120 52022 IEM_DS3505
ZHHH,2008-03-21 01:00,ZHHH 210100Z AUTO 03012KT 1SM 11/11 A2997 RMK T01100110 IEM_DS3505
ZHHH,2008-03-21 02:00,ZHHH 210200Z AUTO 02010KT 1SM 11/11 A2997 RMK T01100110 IEM_DS3505
ZHHH,2008-03-21 03:00,ZHHH 210300Z AUTO 02008KT 6SM 11/10 A2997 RMK SLP154 T01140098 52013 IEM_DS3505
ZHHH,2008-03-21 04:00,ZHHH 210400Z AUTO 02010KT 2SM 11/10 A2997 RMK T01100100 IEM_DS3505
ZHHH,2008-03-21 05:00,ZHHH 210500Z AUTO 01010KT 2 1/2SM 10/10 A2997 RMK T01000100 IEM_DS3505
ZHHH,2008-03-21 06:00,ZHHH 210600Z AUTO 02006KT 7SM 11/09 A2994 RMK 60012 SLP142 T01110090 57012 IEM_DS3505
ZHHH,2008-03-21 07:00,ZHHH 210700Z AUTO 02010KT 2SM 10/09 A2994 RMK T01000090 IEM_DS3505
ZHHH,2008-03-21 08:00,ZHHH 210800Z AUTO 01008KT 1 1/4SM 10/09 A2994 RMK T01000090 IEM_DS3505
ZHHH,2008-03-21 09:00,ZHHH 210900Z AUTO 36004KT 6SM 10/09 A2997 RMK SLP145 T01050093 52003 IEM_DS3505
ZHHH,2008-03-21 10:00,ZHHH 211000Z AUTO 01008KT 1 1/2SM 10/09 A2997 RMK T01000090 IEM_DS3505
ZHHH,2008-03-21 11:00,ZHHH 211100Z AUTO 01010KT 2SM 09/08 A2997 RMK T00900080 IEM_DS3505
ZHHH,2008-03-21 12:00,ZHHH 211200Z AUTO 34004KT 7SM 10/08 A3000 RMK 60012 SLP166 T01010080 52021 IEM_DS3505
ZHHH,2008-03-21 13:00,ZHHH 211300Z AUTO 02006KT 3SM 09/08 A3003 RMK T00900080 IEM_DS3505
ZHHH,2008-03-21 14:00,ZHHH 211400Z AUTO 2 1/2SM 09/08 A3003 RMK T00900080 IEM_DS3505
ZHHH,2008-03-21 15:00,ZHHH 211500Z AUTO 36002KT 9SM 10/08 A3003 RMK SLP172 T00990078 52005 IEM_DS3505
ZHHH,2008-03-21 16:00,ZHHH 211600Z AUTO 29006KT 2 1/2SM 10/09 A3006 RMK T01000090 IEM_DS3505
ZHHH,2008-03-21 17:00,ZHHH 211700Z AUTO 31008KT 3SM 10/09 A3003 RMK T01000090 IEM_DS3505
ZHHH,2008-03-21 18:00,ZHHH 211800Z AUTO 32002KT 9SM 10/08 A3000 RMK 60002 SLP165 T00950079 57007 IEM_DS3505
ZHHH,2008-03-21 19:00,ZHHH 211900Z AUTO 3SM 09/08 A3003 RMK T00900080 IEM_DS3505
ZHHH,2008-03-21 20:00,ZHHH 212000Z AUTO 2SM 08/08 A3000 RMK T00800080 IEM_DS3505
ZHHH,2008-03-21 21:00,ZHHH 212100Z AUTO 27002KT 9SM 09/08 A3000 RMK 70031 SLP165 T00890075 54000 IEM_DS3505
ZHHH,2008-03-21 22:00,ZHHH 212200Z AUTO 32006KT 1 1/4SM 08/08 A3003 RMK T00800080 IEM_DS3505
ZHHH,2008-03-21 23:00,ZHHH 212300Z AUTO 31004KT 1SM 09/08 A3006 RMK T00900080 IEM_DS3505
ZHHH,2008-03-22 00:00,ZHHH 220000Z AUTO 27004KT 7SM 10/08 A3006 RMK 70026 SLP178 T00990078 52013 IEM_DS3505
ZHHH,2008-03-22 01:00,ZHHH 220100Z AUTO 29006KT 2SM 10/09 A3006 RMK T01000090 IEM_DS3505
ZHHH,2008-03-22 02:00,ZHHH 220200Z AUTO 31006KT 2 1/2SM 11/10 A3009 RMK T01100100 IEM_DS3505
ZHHH,2008-03-22 03:00,ZHHH 220300Z AUTO 29004KT 9SM 13/07 A3006 RMK SLP185 T01300068 52007 IEM_DS3505
ZHHH,2008-03-22 04:00,ZHHH 220400Z AUTO 29006KT 4SM 15/10 A3006 RMK T01500100 IEM_DS3505
ZHHH,2008-03-22 05:00,ZHHH 220500Z AUTO 30006KT 4SM 16/11 A3003 RMK T01600110 IEM_DS3505
ZHHH,2008-03-22 06:00,ZHHH 220600Z AUTO 02002KT 7SM 18/09 A3000 RMK SLP163 T01750089 57021 IEM_DS3505
ZHHH,2008-03-22 07:00,ZHHH 220700Z AUTO 29004KT 4SM 18/12 A3000 RMK T01800120 IEM_DS3505
ZHHH,2008-03-22 08:00,ZHHH 220800Z AUTO 25004KT 5SM 18/12 A3000 RMK T01800120 IEM_DS3505
ZHHH,2008-03-22 09:00,ZHHH 220900Z AUTO 14002KT 7SM 19/08 A2997 RMK SLP155 T01910084 57008 IEM_DS3505
ZHHH,2008-03-22 10:00,ZHHH 221000Z AUTO 18006KT 4SM 17/12 A3000 RMK T01700120 IEM_DS3505
ZHHH,2008-03-22 11:00,ZHHH 221100Z AUTO 16004KT 2 1/2SM 16/11 A3000 RMK T01600110 IEM_DS3505
ZHHH,2008-03-22 12:00,ZHHH 221200Z AUTO 00000KT 7SM 15/10 A3003 RMK SLP168 T01540097 52013 IEM_DS3505
ZHHH,2008-03-22 13:00,ZHHH 221300Z AUTO 23004KT 1 1/2SM 15/11 A3006 RMK T01500110 IEM_DS3505
ZHHH,2008-03-22 14:00,ZHHH 221400Z AUTO 20006KT 1 1/4SM 14/12 A3006 RMK T01400120 IEM_DS3505
ZHHH,2008-03-22 15:00,ZHHH 221500Z AUTO 27002KT 9SM 14/11 A3006 RMK SLP180 T01380110 52012 IEM_DS3505
ZHHH,2008-03-22 16:00,ZHHH 221600Z AUTO 32004KT 1SM 13/11 A3009 RMK T01300110 IEM_DS3505
ZHHH,2008-03-22 17:00,ZHHH 221700Z AUTO 03004KT 1SM 12/12 A3009 RMK T01200120 IEM_DS3505
ZHHH,2008-03-22 18:00,ZHHH 221800Z AUTO 00000KT 7SM 12/11 A3009 RMK SLP192 T01190108 52012 IEM_DS3505
ZHHH,2008-03-22 19:00,ZHHH 221900Z AUTO 03004KT 1SM 12/12 A3009 RMK T01200120 IEM_DS3505
ZHHH,2008-03-22 20:00,ZHHH 222000Z AUTO 06004KT 1SM 12/11 A3009 RMK T01200110 IEM_DS3505
ZHHH,2008-03-22 21:00,ZHHH 222100Z AUTO 11002KT 6SM 11/10 A3009 RMK SLP189 T01140105 57003 IEM_DS3505
ZHHH,2008-03-22 22:00,ZHHH 222200Z AUTO 1SM 11/10 A3009 RMK T01100100 IEM_DS3505
ZHHH,2008-03-22 23:00,ZHHH 222300Z AUTO 04006KT 2SM 13/08 A3012 RMK T01300080 IEM_DS3505
ZHHH,2008-03-23 00:00,ZHHH 230000Z AUTO 04002KT 11SM 13/09 A3015 RMK SLP212 T01310086 52023 IEM_DS3505
ZHHH,2008-03-23 01:00,ZHHH 230100Z AUTO 04010KT 6SM 16/04 A3018 RMK T01600040 IEM_DS3505
ZHHH,2008-03-23 02:00,ZHHH 230200Z AUTO 04012KT 6SM 18/00 A3018 RMK T01800000 IEM_DS3505
ZHHH,2008-03-23 03:00,ZHHH 230300Z AUTO 04008KT 17SM 19/M04 A3018 RMK SLP223 T01891045 52011 IEM_DS3505
ZHHH,2008-03-23 04:00,ZHHH 230400Z AUTO 03008KT 6SM 20/00 A3018 RMK T02000000 IEM_DS3505
ZHHH,2008-03-23 05:00,ZHHH 230500Z AUTO 02006KT 6SM 20/M01 A3015 RMK T02001010 IEM_DS3505
ZHHH,2008-03-23 06:00,ZHHH 230600Z AUTO 09004KT 16SM 21/M01 A3012 RMK SLP201 T02091010 57022 IEM_DS3505
ZHHH,2008-03-23 07:00,ZHHH 230700Z AUTO 6SM 22/00 A3009 RMK T02200000 IEM_DS3505
ZHHH,2008-03-23 08:00,ZHHH 230800Z AUTO 6SM 22/M03 A3009 RMK T02201030 IEM_DS3505
ZHHH,2008-03-23 09:00,ZHHH 230900Z AUTO 04004KT 12SM 21/M04 A3006 RMK SLP183 T02091036 57018 IEM_DS3505
ZHHH,2008-03-23 10:00,ZHHH 231000Z AUTO 13006KT 6SM 19/03 A3009 RMK T01900030 IEM_DS3505
ZHHH,2008-03-23 11:00,ZHHH 231100Z AUTO 12006KT 6SM 18/04 A3009 RMK T01800040 IEM_DS3505
ZHHH,2008-03-23 12:00,ZHHH 231200Z AUTO 09002KT 12SM 15/02 A3009 RMK SLP189 T01480024 52006 IEM_DS3505
ZHHH,2008-03-23 13:00,ZHHH 231300Z AUTO 10008KT 6SM 16/04 A3012 RMK T01600040 IEM_DS3505
ZHHH,2008-03-23 14:00,ZHHH 231400Z AUTO 12006KT 6SM 15/06 A3012 RMK T01500060 IEM_DS3505
ZHHH,2008-03-23 15:00,ZHHH 231500Z AUTO 18002KT 11SM 14/06 A3012 RMK SLP205 T01420058 52016 IEM_DS3505
ZHHH,2008-03-23 16:00,ZHHH 231600Z AUTO 11006KT 6SM 15/06 A3012 RMK T01500060 IEM_DS3505
ZHHH,2008-03-23 17:00,ZHHH 231700Z AUTO 6SM 14/07 A3012 RMK T01400070 IEM_DS3505
ZHHH,2008-03-23 18:00,ZHHH 231800Z AUTO 00000KT 11SM 12/08 A3009 RMK SLP194 T01190084 57011 IEM_DS3505
ZHHH,2008-03-23 19:00,ZHHH 231900Z AUTO 6SM 12/07 A3009 RMK T01200070 IEM_DS3505
ZHHH,2008-03-23 20:00,ZHHH 232000Z AUTO 08004KT 6SM 12/05 A3009 RMK T01200050 IEM_DS3505
ZHHH,2008-03-23 21:00,ZHHH 232100Z AUTO 09002KT 11SM 11/08 A3009 RMK SLP185 T01090080 57009 IEM_DS3505
ZHHH,2008-03-23 22:00,ZHHH 232200Z AUTO 10008KT 6SM 11/07 A3009 RMK T01100070 IEM_DS3505
ZHHH,2008-03-23 23:00,ZHHH 232300Z AUTO 12006KT 6SM 11/08 A3009 RMK T01100080 IEM_DS3505
ZHHH,2008-03-24 00:00,ZHHH 240000Z AUTO 16002KT 11SM 15/06 A3009 RMK SLP192 T01460064 52007 IEM_DS3505
ZHHH,2008-03-24 02:00,ZHHH 240200Z AUTO 13006KT 4SM 17/10 A3009 RMK T01700100 IEM_DS3505
ZHHH,2008-03-24 03:00,ZHHH 240300Z AUTO 14002KT 11SM 20/04 A3009 RMK SLP189 T02030039 57003 IEM_DS3505
ZHHH,2008-03-24 04:00,ZHHH 240400Z AUTO 18008KT 6SM 21/08 A3006 RMK T02100080 IEM_DS3505
ZHHH,2008-03-24 05:00,ZHHH 240500Z AUTO 20008KT 6SM 22/01 A3003 RMK T02200010 IEM_DS3505
ZHHH,2008-03-24 06:00,ZHHH 240600Z AUTO 18002KT 11SM 22/M01 A3000 RMK SLP157 T02201013 57032 IEM_DS3505
ZHHH,2008-03-24 07:00,ZHHH 240700Z AUTO 23008KT 7SM 23/05 A2997 RMK T02300050 IEM_DS3505
ZHHH,2008-03-24 08:00,ZHHH 240800Z AUTO 19006KT 7SM 23/02 A2994 RMK T02300020 IEM_DS3505
ZHHH,2008-03-24 09:00,ZHHH 240900Z AUTO 22002KT 11SM 24/02 A2994 RMK SLP135 T02360019 57022 IEM_DS3505
ZHHH,2008-03-24 10:00,ZHHH 241000Z AUTO 18004KT 6SM 22/06 A2994 RMK T02200060 IEM_DS3505
ZHHH,2008-03-24 11:00,ZHHH 241100Z AUTO 6SM 21/06 A2994 RMK T02100060 IEM_DS3505
ZHHH,2008-03-24 12:00,ZHHH 241200Z AUTO 00000KT 9SM 17/10 A2997 RMK SLP147 T01680104 52012 IEM_DS3505
ZHHH,2008-03-24 13:00,ZHHH 241300Z AUTO 6SM 19/06 A2997 RMK T01900060 IEM_DS3505
ZHHH,2008-03-24 14:00,ZHHH 241400Z AUTO 18004KT 6SM 18/07 A3000 RMK T01800070 IEM_DS3505
ZHHH,2008-03-24 15:00,ZHHH 241500Z AUTO 04002KT 9SM 16/08 A3000 RMK SLP164 T01560081 52017 IEM_DS3505
ZHHH,2008-03-24 16:00,ZHHH 241600Z AUTO 08004KT 6SM 17/07 A3000 RMK T01700070 IEM_DS3505
ZHHH,2008-03-24 17:00,ZHHH 241700Z AUTO 06006KT 6SM 15/09 A3000 RMK T01500090 IEM_DS3505
ZHHH,2008-03-24 18:00,ZHHH 241800Z AUTO 07002KT 9SM 14/08 A3000 RMK SLP158 T01350084 57006 IEM_DS3505
ZHHH,2008-03-24 19:00,ZHHH 241900Z AUTO 07006KT 6SM 14/09 A2997 RMK T01400090 IEM_DS3505
ZHHH,2008-03-24 20:00,ZHHH 242000Z AUTO 06006KT 6SM 14/08 A2997 RMK T01400080 IEM_DS3505
ZHHH,2008-03-24 21:00,ZHHH 242100Z AUTO 04004KT 9SM 14/09 A3000 RMK SLP157 T01450087 57001 IEM_DS3505
ZHHH,2008-03-24 22:00,ZHHH 242200Z AUTO 05012KT 3SM 12/07 A3000 RMK T01200070 IEM_DS3505
ZHHH,2008-03-24 23:00,ZHHH 242300Z AUTO 05012KT 4SM 12/05 A3000 RMK T01200050 IEM_DS3505
ZHHH,2008-03-25 00:00,ZHHH 250000Z AUTO 04004KT 11SM 13/07 A3003 RMK SLP172 T01330066 52015 IEM_DS3505
ZHHH,2008-03-25 01:00,ZHHH 250100Z AUTO 03006KT 4SM 13/04 A3006 RMK T01300040 IEM_DS3505
ZHHH,2008-03-25 02:00,ZHHH 250200Z AUTO 03008KT 6SM 15/05 A3006 RMK T01500050 IEM_DS3505
ZHHH,2008-03-25 03:00,ZHHH 250300Z AUTO 32004KT 11SM 17/04 A3006 RMK SLP185 T01670037 52013 IEM_DS3505
ZHHH,2008-03-25 04:00,ZHHH 250400Z AUTO 01008KT 6SM 18/04 A3006 RMK T01800040 IEM_DS3505
ZHHH,2008-03-25 05:00,ZHHH 250500Z AUTO 02008KT 6SM 19/04 A3003 RMK T01900040 IEM_DS3505
ZHHH,2008-03-25 06:00,ZHHH 250600Z AUTO 07002KT 11SM 19/05 A3003 RMK SLP165 T01930054 57020 IEM_DS3505
ZHHH,2008-03-25 07:00,ZHHH 250700Z AUTO 04008KT 6SM 19/05 A3000 RMK T01900050 IEM_DS3505
ZHHH,2008-03-25 08:00,ZHHH 250800Z AUTO 02004KT 6SM 19/04 A2997 RMK T01900040 IEM_DS3505
ZHHH,2008-03-25 09:00,ZHHH 250900Z AUTO 04004KT 11SM 19/04 A2997 RMK SLP149 T01870041 57016 IEM_DS3505
ZHHH,2008-03-25 10:00,ZHHH 251000Z AUTO 6SM 18/03 A2997 RMK T01800030 IEM_DS3505
ZHHH,2008-03-25 11:00,ZHHH 251100Z AUTO 25002KT 6SM 17/05 A2997 RMK T01700050 IEM_DS3505
ZHHH,2008-03-25 12:00,ZHHH 251200Z AUTO 00000KT 9SM 14/08 A3000 RMK SLP155 T01450082 52006 IEM_DS3505
ZHHH,2008-03-25 13:00,ZHHH 251300Z AUTO 6SM 15/06 A2997 RMK T01500060 IEM_DS3505
ZHHH,2008-03-25 14:00,ZHHH 251400Z AUTO 6SM 14/06 A3000 RMK T01400060 IEM_DS3505
ZHHH,2008-03-25 15:00,ZHHH 251500Z AUTO 00000KT 9SM 12/09 A3000 RMK SLP160 T01220087 52005 IEM_DS3505
ZHHH,2008-03-25 16:00,ZHHH 251600Z AUTO 06002KT 6SM 12/10 A3000 RMK T01200100 IEM_DS3505
ZHHH,2008-03-25 17:00,ZHHH 251700Z AUTO 3SM 12/10 A3000 RMK T01200100 IEM_DS3505
ZHHH,2008-03-25 18:00,ZHHH 251800Z AUTO 00000KT 9SM 12/08 A2997 RMK SLP149 T01160079 57011 IEM_DS3505
ZHHH,2008-03-25 19:00,ZHHH 251900Z AUTO 11002KT 3SM 11/09 A2994 RMK T01100090 IEM_DS3505
ZHHH,2008-03-25 20:00,ZHHH 252000Z AUTO 2SM 11/08 A2994 RMK T01100080 IEM_DS3505
ZHHH,2008-03-25 21:00,ZHHH 252100Z AUTO 11002KT 9SM 12/08 A2991 RMK SLP133 T01160085 57016 IEM_DS3505
ZHHH,2008-03-25 22:00,ZHHH 252200Z AUTO 12008KT 2SM 10/09 A2991 RMK T01000090 IEM_DS3505
ZHHH,2008-03-25 23:00,ZHHH 252300Z AUTO 14006KT 2SM 12/09 A2991 RMK T01200090 IEM_DS3505
ZHHH,2008-03-26 00:00,ZHHH 260000Z AUTO 11004KT 9SM 14/10 A2991 RMK SLP132 T01400100 57001 IEM_DS3505
ZHHH,2008-03-26 01:00,ZHHH 260100Z AUTO 17008KT 1 1/4SM 15/12 A2991 RMK T01500120 IEM_DS3505
ZHHH,2008-03-26 02:00,ZHHH 260200Z AUTO 20010KT 1 1/2SM 18/12 A2991 RMK T01800120 IEM_DS3505
ZHHH,2008-03-26 03:00,ZHHH 260300Z AUTO 22006KT 9SM 20/11 A2988 RMK SLP120 T02050114 57012 IEM_DS3505
ZHHH,2008-03-26 04:00,ZHHH 260400Z AUTO 23014KT 3SM 22/14 A2985 RMK T02200140 IEM_DS3505
ZHHH,2008-03-26 05:00,ZHHH 260500Z AUTO 24012KT 4SM 23/14 A2983 RMK T02300140 IEM_DS3505
ZHHH,2008-03-26 06:00,ZHHH 260600Z AUTO 25008KT 11SM 25/12 A2980 RMK SLP091 T02470116 57029 IEM_DS3505
ZHHH,2008-03-26 07:00,ZHHH 260700Z AUTO 25010KT 6SM 25/14 A2977 RMK T02500140 IEM_DS3505
ZHHH,2008-03-26 08:00,ZHHH 260800Z AUTO 24010KT 6SM 26/14 A2977 RMK T02600140 IEM_DS3505
ZHHH,2008-03-26 09:00,ZHHH 260900Z AUTO 22004KT 12SM 25/14 A2974 RMK SLP074 T02500136 57017 IEM_DS3505
ZHHH,2008-03-26 10:00,ZHHH 261000Z AUTO 23006KT 6SM 24/14 A2974 RMK T02400140 IEM_DS3505
ZHHH,2008-03-26 11:00,ZHHH 261100Z AUTO 19008KT 6SM 21/16 A2977 RMK T02100160 IEM_DS3505
ZHHH,2008-03-26 12:00,ZHHH 261200Z AUTO 25002KT 11SM 20/14 A2977 RMK SLP082 T02040141 52008 IEM_DS3505
ZHHH,2008-03-26 13:00,ZHHH 261300Z AUTO 19006KT 4SM 20/16 A2980 RMK T02000160 IEM_DS3505
ZHHH,2008-03-26 14:00,ZHHH 261400Z AUTO 16004KT 4SM 20/15 A2983 RMK T02000150 IEM_DS3505
ZHHH,2008-03-26 15:00,ZHHH 261500Z AUTO 00000KT 11SM 17/14 A2983 RMK SLP097 T01660144 52015 IEM_DS3505
ZHHH,2008-03-26 16:00,ZHHH 261600Z AUTO 17004KT 4SM 20/14 A2983 RMK T02000140 IEM_DS3505
ZHHH,2008-03-26 17:00,ZHHH 261700Z AUTO 10006KT 4SM 17/15 A2983 RMK T01700150 IEM_DS3505
ZHHH,2008-03-26 18:00,ZHHH 261800Z AUTO 09002KT 9SM 17/12 A2983 RMK SLP091 T01680121 57005 IEM_DS3505
ZHHH,2008-03-26 19:00,ZHHH 261900Z AUTO 10010KT 3SM 16/14 A2980 RMK T01600140 IEM_DS3505
ZHHH,2008-03-26 20:00,ZHHH 262000Z AUTO 10010KT 2 1/2SM 16/14 A2980 RMK T01600140 IEM_DS3505
ZHHH,2008-03-26 21:00,ZHHH 262100Z AUTO 07002KT 9SM 16/12 A2983 RMK SLP093 T01650125 52002 IEM_DS3505
ZHHH,2008-03-26 22:00,ZHHH 262200Z AUTO 09012KT 1 1/2SM 15/13 A2983 RMK T01500130 IEM_DS3505
ZHHH,2008-03-26 23:00,ZHHH 262300Z AUTO 09010KT 1 1/2SM 15/13 A2983 RMK T01500130 IEM_DS3505
ZHHH,2008-03-27 00:00,ZHHH 270000Z AUTO 04004KT 9SM 17/13 A2985 RMK SLP111 T01730132 52017 IEM_DS3505
ZHHH,2008-03-27 01:00,ZHHH 270100Z AUTO 10010KT 3SM 19/15 A2985 RMK T01900150 IEM_DS3505
ZHHH,2008-03-27 02:00,ZHHH 270200Z AUTO 11010KT 3SM 20/15 A2988 RMK T02000150 IEM_DS3505
ZHHH,2008-03-27 03:00,ZHHH 270300Z AUTO 14002KT 9SM 23/11 A2988 RMK SLP119 T02310112 52008 IEM_DS3505
ZHHH,2008-03-27 04:00,ZHHH 270400Z AUTO 20008KT 3SM 24/15 A2988 RMK T02400150 IEM_DS3505
ZHHH,2008-03-27 05:00,ZHHH 270500Z AUTO 24006KT 4SM 25/14 A2985 RMK T02500140 IEM_DS3505
ZHHH,2008-03-27 06:00,ZHHH 270600Z AUTO 25004KT 11SM 26/12 A2983 RMK SLP102 T02580116 57016 IEM_DS3505
ZHHH,2008-03-27 07:00,ZHHH 270700Z AUTO 25006KT 6SM 26/14 A2983 RMK T02600140 IEM_DS3505
ZHHH,2008-03-27 08:00,ZHHH 270800Z AUTO 24006KT 6SM 26/14 A2980 RMK T02600140 IEM_DS3505
ZHHH,2008-03-27 09:00,ZHHH 270900Z AUTO 20002KT 11SM 26/12 A2980 RMK SLP091 T02560121 57011 IEM_DS3505
ZHHH,2008-03-27 10:00,ZHHH 271000Z AUTO 6SM 24/15 A2980 RMK T02400150 IEM_DS3505
ZHHH,2008-03-27 11:00,ZHHH 271100Z AUTO 11004KT 6SM 23/15 A2983 RMK T02300150 IEM_DS3505
ZHHH,2008-03-27 12:00,ZHHH 271200Z AUTO 09002KT 11SM 21/14 A2983 RMK SLP102 T02090141 52010 IEM_DS3505
ZHHH,2008-03-27 13:00,ZHHH 271300Z AUTO 08006KT 2 1/2SM 20/15 A2985 RMK T02000150 IEM_DS3505
ZHHH,2008-03-27 14:00,ZHHH 271400Z AUTO 07010KT 2 1/2SM 19/13 A2985 RMK T01900130 IEM_DS3505
ZHHH,2008-03-27 15:00,ZHHH 271500Z AUTO 07004KT 11SM 19/13 A2985 RMK SLP108 T01940131 52007 IEM_DS3505
ZHHH,2008-03-27 16:00,ZHHH 271600Z AUTO 08008KT 2 1/2SM 17/11 A2985 RMK T01700110 IEM_DS3505
ZHHH,2008-03-27 17:00,ZHHH 271700Z AUTO 08008KT 2 1/2SM 17/11 A2983 RMK T01700110 IEM_DS3505
ZHHH,2008-03-27 18:00,ZHHH 271800Z AUTO 07004KT 9SM 18/12 A2983 RMK SLP098 T01760125 57010 IEM_DS3505
ZHHH,2008-03-27 19:00,ZHHH 271900Z AUTO 08008KT 2 1/2SM 15/11 A2983 RMK T01500110 IEM_DS3505
ZHHH,2008-03-27 20:00,ZHHH 272000Z AUTO 08008KT 3SM 15/12 A2980 RMK T01500120 IEM_DS3505
ZHHH,2008-03-27 21:00,ZHHH 272100Z AUTO 04002KT 7SM 17/12 A2980 RMK 70000 SLP088 T01720119 57010 IEM_DS3505
ZHHH,2008-03-27 22:00,ZHHH 272200Z AUTO 15006KT 4SM 16/12 A2983 RMK T01600120 IEM_DS3505
ZHHH,2008-03-27 23:00,ZHHH 272300Z AUTO 07010KT 2SM 15/12 A2980 RMK T01500120 IEM_DS3505
ZHHH,2008-03-28 00:00,ZHHH 280000Z AUTO 09002KT 9SM 18/11 A2983 RMK 60000 70000 SLP093 T01820113 52005 IEM_DS3505
ZHHH,2008-03-28 01:00,ZHHH 280100Z AUTO 10008KT 2SM 16/13 A2983 RMK T01600130 IEM_DS3505
ZHHH,2008-03-28 02:00,ZHHH 280200Z AUTO 13008KT 2SM 16/13 A2983 RMK T01600130 IEM_DS3505
ZHHH,2008-03-28 03:00,ZHHH 280300Z AUTO 14002KT 9SM 19/12 A2983 RMK SLP100 T01860117 52006 IEM_DS3505
ZHHH,2008-03-28 04:00,ZHHH 280400Z AUTO 13008KT 1 1/2SM 17/13 A2983 RMK T01700130 IEM_DS3505
ZHHH,2008-03-28 05:00,ZHHH 280500Z AUTO 11010KT 1 1/2SM 16/14 A2980 RMK T01600140 IEM_DS3505
ZHHH,2008-03-28 06:00,ZHHH 280600Z AUTO 09004KT 6SM 16/14 A2980 RMK 60003 SLP089 T01560136 57011 IEM_DS3505
ZHHH,2008-03-28 07:00,ZHHH 280700Z AUTO 08010KT 1SM 14/14 A2980 RMK T01400140 IEM_DS3505
ZHHH,2008-03-28 08:00,ZHHH 280800Z AUTO 08010KT 1SM 14/14 A2980 RMK T01400140 IEM_DS3505
ZHHH,2008-03-28 09:00,ZHHH 280900Z AUTO 09004KT 7SM 16/13 A2977 RMK SLP084 T01580129 57005 IEM_DS3505
ZHHH,2008-03-28 10:00,ZHHH 281000Z AUTO 10010KT 1 1/4SM 15/14 A2980 RMK T01500140 IEM_DS3505
ZHHH,2008-03-28 11:00,ZHHH 281100Z AUTO 11010KT 2SM 16/14 A2983 RMK T01600140 IEM_DS3505
ZHHH,2008-03-28 12:00,ZHHH 281200Z AUTO 09002KT 7SM 16/12 A2985 RMK 60004 SLP106 T01630125 52022 IEM_DS3505
ZHHH,2008-03-28 13:00,ZHHH 281300Z AUTO 10010KT 2SM 15/14 A2988 RMK T01500140 IEM_DS3505
ZHHH,2008-03-28 14:00,ZHHH 281400Z AUTO 11012KT 2SM 15/13 A2991 RMK T01500130 IEM_DS3505
ZHHH,2008-03-28 15:00,ZHHH 281500Z AUTO 09004KT 7SM 16/12 A2991 RMK SLP125 T01570125 52019 IEM_DS3505
ZHHH,2008-03-28 16:00,ZHHH 281600Z AUTO 04010KT 1 1/4SM 14/12 A2994 RMK T01400120 IEM_DS3505
ZHHH,2008-03-28 17:00,ZHHH 281700Z AUTO 04010KT 1SM 13/12 A2994 RMK T01300120 IEM_DS3505
ZHHH,2008-03-28 18:00,ZHHH 281800Z AUTO 02004KT 11SM 13/11 A2994 RMK 60000 SLP138 T01330110 52013 IEM_DS3505
ZHHH,2008-03-28 19:00,ZHHH 281900Z AUTO 03010KT 2SM 12/11 A2994 RMK T01200110 IEM_DS3505
ZHHH,2008-03-28 20:00,ZHHH 282000Z AUTO 03014KT 2SM 12/11 A2994 RMK T01200110 IEM_DS3505
ZHHH,2008-03-28 21:00,ZHHH 282100Z AUTO 07004KT 9SM 12/09 A2994 RMK 70008 SLP145 T01240089 52007 IEM_DS3505
ZHHH,2008-03-28 22:00,ZHHH 282200Z AUTO 04006KT 3SM 11/09 A2997 RMK T01100090 IEM_DS3505
ZHHH,2008-03-28 23:00,ZHHH 282300Z AUTO 03012KT 2SM 11/09 A3000 RMK T01100090 IEM_DS3505
ZHHH,2008-03-29 00:00,ZHHH 290000Z AUTO 04004KT 7SM 11/09 A3003 RMK 60000 70008 SLP165 T01130087 52020 IEM_DS3505
ZHHH,2008-03-29 01:00,ZHHH 290100Z AUTO 03012KT 1 1/4SM 10/09 A3003 RMK T01000090 IEM_DS3505
ZHHH,2008-03-29 02:00,ZHHH 290200Z AUTO 02012KT 1 1/4SM 10/09 A3006 RMK T01000090 IEM_DS3505
ZHHH,2008-03-29 03:00,ZHHH 290300Z AUTO 02006KT 6SM 10/08 A3006 RMK SLP182 T01000084 52017 IEM_DS3505
ZHHH,2008-03-29 04:00,ZHHH 290400Z AUTO 02012KT 2SM 10/09 A3006 RMK T01000090 IEM_DS3505
ZHHH,2008-03-29 05:00,ZHHH 290500Z AUTO 01012KT 2SM 09/09 A3006 RMK T00900090 IEM_DS3505
ZHHH,2008-03-29 06:00,ZHHH 290600Z AUTO 02006KT 7SM 10/08 A3003 RMK 60020 SLP173 T01000079 57009 IEM_DS3505
ZHHH,2008-03-29 07:00,ZHHH 290700Z AUTO 02010G19KT 7SM 09/08 A3003 RMK T00900080 IEM_DS3505
ZHHH,2008-03-29 08:00,ZHHH 290800Z AUTO 02012KT 4SM 09/08 A3003 RMK T00900080 IEM_DS3505
ZHHH,2008-03-29 09:00,ZHHH 290900Z AUTO 02006KT 7SM 10/07 A3003 RMK SLP173 T00950073 57001 IEM_DS3505
ZHHH,2008-03-29 10:00,ZHHH 291000Z AUTO 03014KT 7SM 09/08 A3006 RMK T00900080 IEM_DS3505
ZHHH,2008-03-29 11:00,ZHHH 291100Z AUTO 02010KT 7SM 09/08 A3006 RMK T00900080 IEM_DS3505
ZHHH,2008-03-29 12:00,ZHHH 291200Z AUTO 34004KT 7SM 09/07 A3009 RMK 60004 SLP196 T00910072 52023 IEM_DS3505
ZHHH,2008-03-29 13:00,ZHHH 291300Z AUTO 36006KT 7SM 09/08 A3012 RMK T00900080 IEM_DS3505
ZHHH,2008-03-29 14:00,ZHHH 291400Z AUTO 36006KT 7SM 09/08 A3015 RMK T00900080 IEM_DS3505
ZHHH,2008-03-29 15:00,ZHHH 291500Z AUTO 34004KT 7SM 09/07 A3015 RMK SLP213 T00880074 52017 IEM_DS3505
ZHHH,2008-03-29 16:00,ZHHH 291600Z AUTO 02008KT 6SM 08/07 A3015 RMK T00800070 IEM_DS3505
ZHHH,2008-03-29 17:00,ZHHH 291700Z AUTO 02004KT 6SM 08/07 A3012 RMK T00800070 IEM_DS3505
ZHHH,2008-03-29 18:00,ZHHH 291800Z AUTO 34004KT 9SM 09/07 A3015 RMK 60002 SLP209 T00880066 57004 IEM_DS3505
ZHHH,2008-03-29 19:00,ZHHH 291900Z AUTO 36004KT 7SM 08/07 A3012 RMK T00800070 IEM_DS3505
ZHHH,2008-03-29 20:00,ZHHH 292000Z AUTO 02006KT 7SM 08/07 A3012 RMK T00800070 IEM_DS3505
ZHHH,2008-03-29 21:00,ZHHH 292100Z AUTO 04006KT 11SM 08/06 A3012 RMK 70026 SLP197 T00830058 57012 IEM_DS3505
ZHHH,2008-03-29 22:00,ZHHH 292200Z AUTO 03008KT 7SM 08/06 A3012 RMK T00800060 IEM_DS3505
ZHHH,2008-03-29 23:00,ZHHH 292300Z AUTO 02004KT 4SM 08/07 A3018 RMK T00800070 IEM_DS3505
ZHHH,2008-03-30 00:00,ZHHH 300000Z AUTO 04004KT 7SM 09/06 A3018 RMK 60000 70027 SLP219 T00860061 52022 IEM_DS3505
ZHHH,2008-03-30 01:00,ZHHH 300100Z AUTO 04008KT 4SM 08/07 A3018 RMK T00800070 IEM_DS3505
ZHHH,2008-03-30 02:00,ZHHH 300200Z AUTO 03008KT 6SM 10/08 A3018 RMK T01000080 IEM_DS3505
ZHHH,2008-03-30 03:00,ZHHH 300300Z AUTO 02004KT 7SM 10/06 A3018 RMK SLP225 T00990062 52006 IEM_DS3505
ZHHH,2008-03-30 04:00,ZHHH 300400Z AUTO 03006KT 4SM 10/08 A3015 RMK T01000080 IEM_DS3505
ZHHH,2008-03-30 05:00,ZHHH 300500Z AUTO 02004KT 4SM 10/09 A3015 RMK T01000090 IEM_DS3505
ZHHH,2008-03-30 06:00,ZHHH 300600Z AUTO 04004KT 7SM 11/08 A3012 RMK 60000 SLP205 T01110078 57020 IEM_DS3505
ZHHH,2008-03-30 07:00,ZHHH 300700Z AUTO 7SM 13/09 A3012 RMK T01300090 IEM_DS3505
ZHHH,2008-03-30 08:00,ZHHH 300800Z AUTO 22004KT 7SM 13/09 A3009 RMK T01300090 IEM_DS3505
ZHHH,2008-03-30 09:00,ZHHH 300900Z AUTO 00000KT 11SM 12/08 A3009 RMK SLP192 T01250076 57013 IEM_DS3505
ZHHH,2008-03-30 10:00,ZHHH 301000Z AUTO 20006KT 7SM 12/09 A3009 RMK T01200090 IEM_DS3505
ZHHH,2008-03-30 11:00,ZHHH 301100Z AUTO 32002KT 7SM 12/09 A3012 RMK T01200090 IEM_DS3505
ZHHH,2008-03-30 12:00,ZHHH 301200Z AUTO 29002KT 9SM 12/08 A3012 RMK 60000 SLP200 T01210084 52008 IEM_DS3505
ZHHH,2008-03-30 13:00,ZHHH 301300Z AUTO 01002KT 6SM 12/09 A3012 RMK T01200090 IEM_DS3505
ZHHH,2008-03-30 14:00,ZHHH 301400Z AUTO 6SM 12/10 A3015 RMK T01200100 IEM_DS3505
ZHHH,2008-03-30 15:00,ZHHH 301500Z AUTO 09002KT 7SM 11/09 A3015 RMK SLP209 T01120091 52009 IEM_DS3505
ZHHH,2008-03-30 16:00,ZHHH 301600Z AUTO 02002KT 6SM 11/10 A3015 RMK T01100100 IEM_DS3505
ZHHH,2008-03-30 17:00,ZHHH 301700Z AUTO 07004KT 6SM 11/10 A3012 RMK T01100100 IEM_DS3505
ZHHH,2008-03-30 18:00,ZHHH 301800Z AUTO 02002KT 7SM 11/09 A3012 RMK SLP201 T01120093 57008 IEM_DS3505
ZHHH,2008-03-30 19:00,ZHHH 301900Z AUTO 05004KT 4SM 11/09 A3012 RMK T01100090 IEM_DS3505
ZHHH,2008-03-30 20:00,ZHHH 302000Z AUTO 06008KT 4SM 11/09 A3012 RMK T01100090 IEM_DS3505
ZHHH,2008-03-30 21:00,ZHHH 302100Z AUTO 09002KT 7SM 11/09 A3009 RMK 70001 SLP193 T01110094 57008 IEM_DS3505
ZHHH,2008-03-30 22:00,ZHHH 302200Z AUTO 06008KT 4SM 11/09 A3009 RMK T01100090 IEM_DS3505
ZHHH,2008-03-30 23:00,ZHHH 302300Z AUTO 02004KT 4SM 10/09 A3012 RMK T01000090 IEM_DS3505
ZHHH,2008-03-31 00:00,ZHHH 310000Z AUTO 04002KT 9SM 11/08 A3015 RMK 70000 SLP208 T01120084 52015 IEM_DS3505
ZHHH,2008-03-31 01:00,ZHHH 310100Z AUTO 05006KT 3SM 11/09 A3018 RMK T01100090 IEM_DS3505
ZHHH,2008-03-31 02:00,ZHHH 310200Z AUTO 08008KT 2 1/2SM 11/09 A3015 RMK T01100090 IEM_DS3505
ZHHH,2008-03-31 03:00,ZHHH 310300Z AUTO 04002KT 9SM 12/08 A3018 RMK SLP219 T01240079 52011 IEM_DS3505
ZHHH,2008-03-31 04:00,ZHHH 310400Z AUTO 3SM 13/09 A3018 RMK T01300090 IEM_DS3505
ZHHH,2008-03-31 05:00,ZHHH 310500Z AUTO 06006KT 3SM 14/09 A3015 RMK T01400090 IEM_DS3505
ZHHH,2008-03-31 06:00,ZHHH 310600Z AUTO 32002KT 9SM 14/08 A3015 RMK SLP210 T01350077 57009 IEM_DS3505
ZHHH,2008-03-31 07:00,ZHHH 310700Z AUTO 03004KT 3SM 14/09 A3012 RMK T01400090 IEM_DS3505
ZHHH,2008-03-31 08:00,ZHHH 310800Z AUTO 04006KT 3SM 14/09 A3012 RMK T01400090 IEM_DS3505
ZHHH,2008-03-31 09:00,ZHHH 310900Z AUTO 04002KT 9SM 14/08 A3012 RMK SLP199 T01390083 57010 IEM_DS3505
ZHHH,2008-03-31 10:00,ZHHH 311000Z AUTO 04004KT 3SM 13/10 A3012 RMK T01300100 IEM_DS3505
ZHHH,2008-03-31 11:00,ZHHH 311100Z AUTO 06006KT 3SM 13/10 A3012 RMK T01300100 IEM_DS3505
ZHHH,2008-03-31 12:00,ZHHH 311200Z AUTO 09002KT 9SM 13/09 A3012 RMK SLP202 T01300091 52002 IEM_DS3505
ZHHH,2008-03-31 13:00,ZHHH 311300Z AUTO 06006KT 2 1/2SM 12/10 A3015 RMK T01200100 IEM_DS3505
ZHHH,2008-03-31 14:00,ZHHH 311400Z AUTO 08006KT 2 1/2SM 11/10 A3015 RMK T01100100 IEM_DS3505
ZHHH,2008-03-31 15:00,ZHHH 311500Z AUTO 02002KT 9SM 11/08 A3015 RMK SLP212 T01090085 52010 IEM_DS3505
ZHHH,2008-03-31 16:00,ZHHH 311600Z AUTO 1 1/2SM 11/09 A3015 RMK T01100090 IEM_DS3505
ZHHH,2008-03-31 17:00,ZHHH 311700Z AUTO 22002KT 1 1/4SM 10/09 A3015 RMK T01000090 IEM_DS3505
ZHHH,2008-03-31 18:00,ZHHH 311800Z AUTO 00000KT 7SM 10/09 A3015 RMK SLP207 T00960088 57005 IEM_DS3505
ZHHH,2008-03-31 19:00,ZHHH 311900Z AUTO 1SM 10/09 A3012 RMK T01000090 IEM_DS3505
ZHHH,2008-03-31 20:00,ZHHH 312000Z AUTO 05004KT 1SM 10/09 A3012 RMK T01000090 IEM_DS3505
ZHHH,2008-03-31 21:00,ZHHH 312100Z AUTO 00000KT 6SM 11/09 A3012 RMK SLP196 T01070091 57010 IEM_DS3505
ZHHH,2008-03-31 22:00,ZHHH 312200Z AUTO 08006KT 1SM 10/09 A3012 RMK T01000090 IEM_DS3505
ZHHH,2008-03-31 23:00,ZHHH 312300Z AUTO 32002KT 1SM 10/09 A3015 RMK T01000090 IEM_DS3505
ZHHH,2008-04-01 00:00,ZHHH 010000Z AUTO 27002KT 7SM 12/09 A3015 RMK SLP217 T01160090 52020 IEM_DS3505
ZHHH,2008-04-01 01:00,ZHHH 010100Z AUTO 1SM 11/10 A3015 RMK T01100100 IEM_DS3505
ZHHH,2008-04-01 02:00,ZHHH 010200Z AUTO 1 1/4SM 11/11 A3015 RMK T01100110 IEM_DS3505
ZHHH,2008-04-01 03:00,ZHHH 010300Z AUTO 34002KT 7SM 14/10 A3015 RMK SLP207 T01380095 57010 IEM_DS3505
ZHHH,2008-04-01 04:00,ZHHH 010400Z AUTO 25004KT 1 1/2SM 14/10 A3012 RMK T01400100 IEM_DS3505
ZHHH,2008-04-01 05:00,ZHHH 010500Z AUTO 28006KT 1 1/2SM 13/10 A3015 RMK T01300100 IEM_DS3505
ZHHH,2008-04-01 06:00,ZHHH 010600Z AUTO 27004KT 9SM 15/07 A3012 RMK SLP200 T01460067 57007 IEM_DS3505
ZHHH,2008-04-01 07:00,ZHHH 010700Z AUTO 31004KT 2SM 16/08 A3009 RMK T01600080 IEM_DS3505
ZHHH,2008-04-01 08:00,ZHHH 010800Z AUTO 2 1/2SM 15/08 A3009 RMK T01500080 IEM_DS3505
ZHHH,2008-04-01 09:00,ZHHH 010900Z AUTO 34002KT 9SM 16/05 A3006 RMK SLP185 T01550054 57014 IEM_DS3505
ZHHH,2008-04-01 10:00,ZHHH 011000Z AUTO 20004KT 2 1/2SM 15/08 A3009 RMK T01500080 IEM_DS3505
ZHHH,2008-04-01 11:00,ZHHH 011100Z AUTO 21004KT 2 1/2SM 14/08 A3009 RMK T01400080 IEM_DS3505
ZHHH,2008-04-01 12:00,ZHHH 011200Z AUTO 25002KT 7SM 13/08 A3012 RMK SLP204 T01290084 52018 IEM_DS3505
ZHHH,2008-04-01 13:00,ZHHH 011300Z AUTO 19006KT 2SM 12/09 A3015 RMK T01200090 IEM_DS3505
ZHHH,2008-04-01 14:00,ZHHH 011400Z AUTO 20006KT 1 1/4SM 11/10 A3015 RMK T01100100 IEM_DS3505
ZHHH,2008-04-01 15:00,ZHHH 011500Z AUTO 27002KT 6SM 11/09 A3018 RMK SLP218 T01140086 52014 IEM_DS3505
ZHHH,2008-04-01 16:00,ZHHH 011600Z AUTO 24002KT 1SM 11/09 A3018 RMK T01100090 IEM_DS3505
ZHHH,2008-04-01 17:00,ZHHH 011700Z AUTO 28002KT 1SM 10/09 A3018 RMK T01000090 IEM_DS3505
ZHHH,2008-04-01 18:00,ZHHH 011800Z AUTO 27002KT 6SM 11/08 A3015 RMK SLP213 T01060085 57005 IEM_DS3505
ZHHH,2008-04-01 19:00,ZHHH 011900Z AUTO 22004KT 1SM 10/09 A3015 RMK T01000090 IEM_DS3505
ZHHH,2008-04-01 20:00,ZHHH 012000Z AUTO 26004KT 1SM 09/08 A3015 RMK T00900080 IEM_DS3505
ZHHH,2008-04-01 21:00,ZHHH 012100Z AUTO 27002KT 6SM 10/08 A3012 RMK SLP203 T01020085 57009 IEM_DS3505
ZHHH,2008-04-01 22:00,ZHHH 012200Z AUTO 23002KT 1/2SM 09/09 A3015 RMK T00900090 IEM_DS3505
ZHHH,2008-04-01 23:00,ZHHH 012300Z AUTO 3/8SM 09/09 A3015 RMK T00900090 IEM_DS3505
ZHHH,2008-04-02 00:00,ZHHH 020000Z AUTO 25002KT 5SM 11/09 A3018 RMK SLP223 T01130090 52019 IEM_DS3505
ZHHH,2008-04-02 01:00,ZHHH 020100Z AUTO 24004KT 1SM 12/11 A3018 RMK T01200110 IEM_DS3505
ZHHH,2008-04-02 02:00,ZHHH 020200Z AUTO 29004KT 1SM 14/12 A3018 RMK T01400120 IEM_DS3505
ZHHH,2008-04-02 03:00,ZHHH 020300Z AUTO 29004KT 7SM 16/08 A3018 RMK SLP224 T01650082 52002 IEM_DS3505
ZHHH,2008-04-02 04:00,ZHHH 020400Z AUTO 30006KT 1 1/2SM 17/11 A3018 RMK T01700110 IEM_DS3505
ZHHH,2008-04-02 05:00,ZHHH 020500Z AUTO 25004KT 1 1/2SM 18/11 A3015 RMK T01800110 IEM_DS3505
ZHHH,2008-04-02 06:00,ZHHH 020600Z AUTO 09002KT 11SM 20/03 A3012 RMK SLP200 T02020030 57024 IEM_DS3505
ZHHH,2008-04-02 07:00,ZHHH 020700Z AUTO 26006KT 6SM 20/07 A3009 RMK T02000070 IEM_DS3505
ZHHH,2008-04-02 08:00,ZHHH 020800Z AUTO 6SM 19/06 A3006 RMK T01900060 IEM_DS3505
ZHHH,2008-04-02 09:00,ZHHH 020900Z AUTO 27002KT 9SM 19/06 A3009 RMK SLP187 T01940065 57013 IEM_DS3505
ZHHH,2008-04-02 10:00,ZHHH 021000Z AUTO 23004KT 6SM 19/06 A3009 RMK T01900060 IEM_DS3505
ZHHH,2008-04-02 11:00,ZHHH 021100Z AUTO 22008KT 6SM 17/10 A3009 RMK T01700100 IEM_DS3505
ZHHH,2008-04-02 12:00,ZHHH 021200Z AUTO 22002KT 9SM 17/10 A3009 RMK SLP196 T01670099 52009 IEM_DS3505
ZHHH,2008-04-02 13:00,ZHHH 021300Z AUTO 22004KT 6SM 16/11 A3012 RMK T01600110 IEM_DS3505
ZHHH,2008-04-02 14:00,ZHHH 021400Z AUTO 21002KT 6SM 16/11 A3012 RMK T01600110 IEM_DS3505
ZHHH,2008-04-02 15:00,ZHHH 021500Z AUTO 22002KT 7SM 15/10 A3012 RMK SLP202 T01510103 52006 IEM_DS3505
ZHHH,2008-04-02 16:00,ZHHH 021600Z AUTO 23004KT 6SM 15/12 A3012 RMK T01500120 IEM_DS3505
ZHHH,2008-04-02 17:00,ZHHH 021700Z AUTO 26002KT 6SM 14/12 A3012 RMK T01400120 IEM_DS3505
ZHHH,2008-04-02 18:00,ZHHH 021800Z AUTO 00000KT 7SM 13/11 A3009 RMK SLP192 T01290108 57010 IEM_DS3505
ZHHH,2008-04-02 19:00,ZHHH 021900Z AUTO 14004KT 4SM 13/12 A3009 RMK T01300120 IEM_DS3505
ZHHH,2008-04-02 20:00,ZHHH 022000Z AUTO 14004KT 2 1/2SM 13/12 A3006 RMK T01300120 IEM_DS3505
ZHHH,2008-04-02 21:00,ZHHH 022100Z AUTO 11002KT 7SM 14/11 A3006 RMK SLP179 T01350114 57013 IEM_DS3505
ZHHH,2008-04-02 22:00,ZHHH 022200Z AUTO 15004KT 1 1/2SM 13/12 A3006 RMK T01300120 IEM_DS3505
ZHHH,2008-04-02 23:00,ZHHH 022300Z AUTO 16004KT 1SM 13/12 A3006 RMK T01300120 IEM_DS3505
ZHHH,2008-04-03 00:00,ZHHH 030000Z AUTO 14004KT 6SM 14/11 A3009 RMK SLP183 T01410113 52004 IEM_DS3505
ZHHH,2008-04-03 01:00,ZHHH 030100Z AUTO 20004KT 1SM 15/13 A3009 RMK T01500130 IEM_DS3505
ZHHH,2008-04-03 02:00,ZHHH 030200Z AUTO 1SM 15/13 A3009 RMK T01500130 IEM_DS3505
ZHHH,2008-04-03 03:00,ZHHH 030300Z AUTO 11002KT 7SM 17/10 A3009 RMK SLP185 T01690098 52002 IEM_DS3505
ZHHH,2008-04-03 04:00,ZHHH 030400Z AUTO 11004KT 1 1/4SM 17/12 A3006 RMK T01700120 IEM_DS3505
ZHHH,2008-04-03 05:00,ZHHH 030500Z AUTO 1 1/4SM 18/13 A3003 RMK T01800130 IEM_DS3505
ZHHH,2008-04-03 06:00,ZHHH 030600Z AUTO 02002KT 6SM 18/11 A3000 RMK 60000 SLP153 T01760107 57032 IEM_DS3505
ZHHH,2008-04-03 07:00,ZHHH 030700Z AUTO 07006KT 1 1/2SM 16/11 A2997 RMK T01600110 IEM_DS3505
ZHHH,2008-04-03 08:00,ZHHH 030800Z AUTO 03004KT 1 1/2SM 17/12 A2994 RMK T01700120 IEM_DS3505
ZHHH,2008-04-03 09:00,ZHHH 030900Z AUTO 07002KT 7SM 17/10 A2994 RMK SLP139 T01680100 57014 IEM_DS3505
ZHHH,2008-04-03 10:00,ZHHH 031000Z AUTO 02002KT 1 1/4SM 16/13 A2994 RMK T01600130 IEM_DS3505
ZHHH,2008-04-03 11:00,ZHHH 031100Z AUTO 34004KT 1SM 15/12 A2994 RMK T01500120 IEM_DS3505
ZHHH,2008-04-03 12:00,ZHHH 031200Z AUTO 02002KT 7SM 16/12 A2997 RMK 60000 SLP145 T01570115 52006 IEM_DS3505
ZHHH,2008-04-03 13:00,ZHHH 031300Z AUTO 05004KT 1SM 15/12 A2997 RMK T01500120 IEM_DS3505
ZHHH,2008-04-03 14:00,ZHHH 031400Z AUTO 04004KT 1 1/4SM 15/12 A3000 RMK T01500120 IEM_DS3505
ZHHH,2008-04-03 15:00,ZHHH 031500Z AUTO 07002KT 7SM 15/11 A3000 RMK SLP159 T01520110 52014 IEM_DS3505
ZHHH,2008-04-03 16:00,ZHHH 031600Z AUTO 06006KT 1SM 14/12 A3000 RMK T01400120 IEM_DS3505
ZHHH,2008-04-03 17:00,ZHHH 031700Z AUTO 10008KT 1SM 14/12 A2997 RMK T01400120 IEM_DS3505
ZHHH,2008-04-03 18:00,ZHHH 031800Z AUTO 09002KT 9SM 15/10 A2997 RMK 60000 SLP149 T01510097 57010 IEM_DS3505
ZHHH,2008-04-03 19:00,ZHHH 031900Z AUTO 11006KT 1 1/4SM 13/12 A2994 RMK T01300120 IEM_DS3505
ZHHH,2008-04-03 20:00,ZHHH 032000Z AUTO 12004KT 1 1/4SM 14/11 A2997 RMK T01400110 IEM_DS3505
ZHHH,2008-04-03 21:00,ZHHH 032100Z AUTO 09002KT 9SM 14/10 A2994 RMK 70000 SLP141 T01390097 57008 IEM_DS3505
ZHHH,2008-04-03 22:00,ZHHH 032200Z AUTO 1 1/4SM 13/11 A2997 RMK T01300110 IEM_DS3505
ZHHH,2008-04-03 23:00,ZHHH 032300Z AUTO 05004KT 1 1/4SM 13/11 A2997 RMK T01300110 IEM_DS3505
ZHHH,2008-04-04 00:00,ZHHH 040000Z AUTO 09002KT 9SM 15/10 A3000 RMK 70000 SLP159 T01540097 52018 IEM_DS3505
ZHHH,2008-04-04 01:00,ZHHH 040100Z AUTO 13004KT 2SM 16/12 A3000 RMK T01600120 IEM_DS3505
ZHHH,2008-04-04 02:00,ZHHH 040200Z AUTO 12006KT 2SM 17/11 A3003 RMK T01700110 IEM_DS3505
ZHHH,2008-04-04 03:00,ZHHH 040300Z AUTO 20002KT 9SM 18/08 A3003 RMK SLP170 T01790079 52011 IEM_DS3505
ZHHH,2008-04-04 04:00,ZHHH 040400Z AUTO 12006KT 2 1/2SM 18/11 A3000 RMK T01800110 IEM_DS3505
ZHHH,2008-04-04 05:00,ZHHH 040500Z AUTO 12004KT 3SM 19/11 A3000 RMK T01900110 IEM_DS3505
ZHHH,2008-04-04 06:00,ZHHH 040600Z AUTO 11004KT 9SM 19/09 A2997 RMK SLP148 T01920091 57022 IEM_DS3505
ZHHH,2008-04-04 07:00,ZHHH 040700Z AUTO 12008KT 3SM 19/11 A2994 RMK T01900110 IEM_DS3505
ZHHH,2008-04-04 08:00,ZHHH 040800Z AUTO 14006KT 3SM 19/12 A2991 RMK T01900120 IEM_DS3505
ZHHH,2008-04-04 09:00,ZHHH 040900Z AUTO 13008KT 2 1/2SM 18/12 A2991 RMK T01800120 IEM_DS3505
ZHHH,2008-04-04 10:00,ZHHH 041000Z AUTO 14006KT 1 1/2SM 17/13 A2994 RMK T01700130 IEM_DS3505
ZHHH,2008-04-04 11:00,ZHHH 041100Z AUTO 16004KT 1 1/2SM 17/13 A2994 RMK T01700130 IEM_DS3505
ZHHH,2008-04-04 12:00,ZHHH 041200Z AUTO 14002KT 9SM 17/11 A2994 RMK SLP145 T01680113 52009 IEM_DS3505
ZHHH,2008-04-04 13:00,ZHHH 041300Z AUTO 15004KT 1 1/4SM 16/13 A2997 RMK T01600130 IEM_DS3505
ZHHH,2008-04-04 14:00,ZHHH 041400Z AUTO 12004KT 1 1/4SM 15/12 A3000 RMK T01500120 IEM_DS3505
ZHHH,2008-04-04 15:00,ZHHH 041500Z AUTO 00000KT 7SM 14/11 A3000 RMK SLP160 T01400110 52015 IEM_DS3505
ZHHH,2008-04-04 16:00,ZHHH 041600Z AUTO 1 1/4SM 15/13 A3000 RMK T01500130 IEM_DS3505
ZHHH,2008-04-04 17:00,ZHHH 041700Z AUTO 08004KT 1 1/4SM 14/12 A3000 RMK T01400120 IEM_DS3505
ZHHH,2008-04-04 18:00,ZHHH 041800Z AUTO 11002KT 7SM 13/11 A3000 RMK SLP160 T01300112 54000 IEM_DS3505
ZHHH,2008-04-04 19:00,ZHHH 041900Z AUTO 00000KT 1 1/4SM 13/12 A2997 RMK T01300120 IEM_DS3505
ZHHH,2008-04-04 20:00,ZHHH 042000Z AUTO 10002KT 1 1/4SM 13/12 A2997 RMK T01300120 IEM_DS3505
ZHHH,2008-04-04 21:00,ZHHH 042100Z AUTO 18002KT 7SM 14/11 A2997 RMK SLP154 T01390112 57006 IEM_DS3505
ZHHH,2008-04-04 22:00,ZHHH 042200Z AUTO 11008KT 1SM 12/12 A3000 RMK T01200120 IEM_DS3505
ZHHH,2008-04-04 23:00,ZHHH 042300Z AUTO 10004KT 1SM 12/12 A3000 RMK T01200120 IEM_DS3505
ZHHH,2008-04-05 00:00,ZHHH 050000Z AUTO 09002KT 7SM 16/12 A3000 RMK SLP163 T01570121 52009 IEM_DS3505
ZHHH,2008-04-05 01:00,ZHHH 050100Z AUTO 10006KT 1 1/4SM 16/14 A3000 RMK T01600140 IEM_DS3505
ZHHH,2008-04-05 02:00,ZHHH 050200Z AUTO 12006KT 1 1/4SM 18/13 A3003 RMK T01800130 IEM_DS3505
ZHHH,2008-04-05 03:00,ZHHH 050300Z AUTO 09004KT 7SM 19/12 A3000 RMK SLP163 T01870120 54000 IEM_DS3505
ZHHH,2008-04-05 04:00,ZHHH 050400Z AUTO 10004KT 1 1/4SM 18/14 A3000 RMK T01800140 IEM_DS3505
ZHHH,2008-04-05 05:00,ZHHH 050500Z AUTO 16004KT 1 1/4SM 19/14 A2994 RMK T01900140 IEM_DS3505
ZHHH,2008-04-05 06:00,ZHHH 050600Z AUTO 25002KT 6SM 18/12 A2994 RMK SLP140 T01850123 57023 IEM_DS3505
ZHHH,2008-04-05 07:00,ZHHH 050700Z AUTO 14006KT 1SM 18/14 A2991 RMK T01800140 IEM_DS3505
ZHHH,2008-04-05 08:00,ZHHH 050800Z AUTO 14004KT 1SM 17/14 A2991 RMK T01700140 IEM_DS3505
ZHHH,2008-04-05 09:00,ZHHH 050900Z AUTO 04002KT 5SM 17/14 A2991 RMK SLP133 T01700135 57007 IEM_DS3505
ZHHH,2008-04-05 10:00,ZHHH 051000Z AUTO 10004KT 1SM 16/15 A2991 RMK T01600150 IEM_DS3505
ZHHH,2008-04-05 11:00,ZHHH 051100Z AUTO 05004KT 1 1/4SM 16/15 A2994 RMK T01600150 IEM_DS3505
ZHHH,2008-04-05 12:00,ZHHH 051200Z AUTO 07002KT 6SM 16/14 A2994 RMK 60000 SLP144 T01650138 52011 IEM_DS3505
ZHHH,2008-04-05 13:00,ZHHH 051300Z AUTO 12006KT 1 1/4SM 15/15 A2994 RMK T01500150 IEM_DS3505
ZHHH,2008-04-05 14:00,ZHHH 051400Z AUTO 14004KT 1 1/4SM 15/15 A2994 RMK T01500150 IEM_DS3505
ZHHH,2008-04-05 15:00,ZHHH 051500Z AUTO 16002KT 6SM 16/14 A2994 RMK SLP143 T01630140 57001 IEM_DS3505
ZHHH,2008-04-05 16:00,ZHHH 051600Z AUTO 36002KT 1SM 15/15 A2994 RMK T01500150 IEM_DS3505
ZHHH,2008-04-05 17:00,ZHHH 051700Z AUTO 1SM 15/15 A2994 RMK T01500150 IEM_DS3505
ZHHH,2008-04-05 18:00,ZHHH 051800Z AUTO 27002KT 4SM 16/14 A2994 RMK 60000 SLP137 T01580140 57006 IEM_DS3505
ZHHH,2008-04-05 19:00,ZHHH 051900Z AUTO 1/4SM 14/14 A2991 RMK T01400140 IEM_DS3505
ZHHH,2008-04-05 20:00,ZHHH 052000Z AUTO 1/4SM 14/14 A2991 RMK T01400140 IEM_DS3505
ZHHH,2008-04-05 21:00,ZHHH 052100Z AUTO 00000KT 1/2SM 14/14 A2991 RMK 70001 SLP129 T01450139 57008 IEM_DS3505
ZHHH,2008-04-05 22:00,ZHHH 052200Z AUTO 23004KT 1/2SM 14/14 A2991 RMK T01400140 IEM_DS3505
ZHHH,2008-04-05 23:00,ZHHH 052300Z AUTO 1/2SM 14/14 A2994 RMK T01400140 IEM_DS3505
ZHHH,2008-04-06 00:00,ZHHH 060000Z AUTO 29002KT 3/8SM 15/14 A2997 RMK 70001 SLP151 T01470139 52022 IEM_DS3505
ZHHH,2008-04-06 01:00,ZHHH 060100Z AUTO 1SM 15/15 A2997 RMK T01500150 IEM_DS3505
ZHHH,2008-04-06 02:00,ZHHH 060200Z AUTO 1SM 16/15 A2997 RMK T01600150 IEM_DS3505
ZHHH,2008-04-06 03:00,ZHHH 060300Z AUTO 32002KT 7SM 19/14 A2997 RMK SLP151 T01860143 54000 IEM_DS3505
ZHHH,2008-04-06 04:00,ZHHH 060400Z AUTO 1SM 18/16 A2994 RMK T01800160 IEM_DS3505
ZHHH,2008-04-06 05:00,ZHHH 060500Z AUTO 20004KT 1 1/4SM 20/16 A2994 RMK T02000160 IEM_DS3505
ZHHH,2008-04-06 06:00,ZHHH 060600Z AUTO 20004KT 9SM 21/14 A2991 RMK SLP126 T02120139 57025 IEM_DS3505
ZHHH,2008-04-06 07:00,ZHHH 060700Z AUTO 20006KT 1SM 21/16 A2988 RMK T02100160 IEM_DS3505
ZHHH,2008-04-06 08:00,ZHHH 060800Z AUTO 18004KT 1 1/4SM 23/16 A2983 RMK T02300160 IEM_DS3505
ZHHH,2008-04-06 09:00,ZHHH 060900Z AUTO 14004KT 11SM 23/12 A2983 RMK SLP098 T02310118 57028 IEM_DS3505
ZHHH,2008-04-06 10:00,ZHHH 061000Z AUTO 12004KT 1 1/2SM 21/16 A2983 RMK T02100160 IEM_DS3505
ZHHH,2008-04-06 11:00,ZHHH 061100Z AUTO 10008KT 1 1/2SM 20/17 A2983 RMK T02000170 IEM_DS3505
ZHHH,2008-04-06 12:00,ZHHH 061200Z AUTO 02002KT 9SM 19/15 A2983 RMK SLP100 T01940153 52002 IEM_DS3505
ZHHH,2008-04-06 13:00,ZHHH 061300Z AUTO 09008KT 1 1/2SM 18/17 A2985 RMK T01800170 IEM_DS3505
ZHHH,2008-04-06 14:00,ZHHH 061400Z AUTO 11006KT 1 1/2SM 18/16 A2985 RMK T01800160 IEM_DS3505
ZHHH,2008-04-06 15:00,ZHHH 061500Z AUTO 09002KT 7SM 17/15 A2985 RMK SLP107 T01740154 52007 IEM_DS3505
ZHHH,2008-04-06 16:00,ZHHH 061600Z AUTO 09010KT 1 1/4SM 17/16 A2983 RMK T01700160 IEM_DS3505
ZHHH,2008-04-06 17:00,ZHHH 061700Z AUTO 10006KT 1 1/4SM 17/15 A2980 RMK T01700150 IEM_DS3505
ZHHH,2008-04-06 18:00,ZHHH 061800Z AUTO 09002KT 7SM 18/15 A2980 RMK SLP085 T01750150 57021 IEM_DS3505
ZHHH,2008-04-06 19:00,ZHHH 061900Z AUTO 11008KT 1SM 16/16 A2977 RMK T01600160 IEM_DS3505
ZHHH,2008-04-06 20:00,ZHHH 062000Z AUTO 10008KT 1SM 16/16 A2977 RMK T01600160 IEM_DS3505
ZHHH,2008-04-06 21:00,ZHHH 062100Z AUTO 09002KT 7SM 18/15 A2977 RMK SLP073 T01830152 57012 IEM_DS3505
ZHHH,2008-04-06 22:00,ZHHH 062200Z AUTO 10010KT 1 1/4SM 16/15 A2977 RMK T01600150 IEM_DS3505
ZHHH,2008-04-06 23:00,ZHHH 062300Z AUTO 10010KT 1SM 17/16 A2977 RMK T01700160 IEM_DS3505
ZHHH,2008-04-07 00:00,ZHHH 070000Z AUTO 09004KT 7SM 20/16 A2977 RMK SLP079 T01950160 52006 IEM_DS3505
ZHHH,2008-04-07 01:00,ZHHH 070100Z AUTO 12012KT 1 1/2SM 20/18 A2977 RMK T02000180 IEM_DS3505
ZHHH,2008-04-07 02:00,ZHHH 070200Z AUTO 12010KT 2SM 21/19 A2977 RMK T02100190 IEM_DS3505
ZHHH,2008-04-07 03:00,ZHHH 070300Z AUTO 09004KT 7SM 25/18 A2977 RMK SLP077 T02510181 57002 IEM_DS3505
ZHHH,2008-04-07 04:00,ZHHH 070400Z AUTO 12010KT 2SM 24/21 A2974 RMK T02400210 IEM_DS3505
ZHHH,2008-04-07 05:00,ZHHH 070500Z AUTO 11010KT 2SM 26/21 A2971 RMK T02600210 IEM_DS3505
ZHHH,2008-04-07 06:00,ZHHH 070600Z AUTO 07004KT 9SM 29/20 A2968 RMK SLP045 T02930196 57032 IEM_DS3505
ZHHH,2008-04-07 07:00,ZHHH 070700Z AUTO 11012KT 3SM 27/22 A2965 RMK T02700220 IEM_DS3505
ZHHH,2008-04-07 08:00,ZHHH 070800Z AUTO 10010KT 3SM 28/22 A2962 RMK T02800220 IEM_DS3505
ZHHH,2008-04-07 09:00,ZHHH 070900Z AUTO 07002KT 9SM 29/20 A2959 RMK SLP019 T02880200 57026 IEM_DS3505
ZHHH,2008-04-07 10:00,ZHHH 071000Z AUTO 11012KT 2 1/2SM 27/23 A2959 RMK T02700230 IEM_DS3505
ZHHH,2008-04-07 11:00,ZHHH 071100Z AUTO 11012KT 3SM 25/22 A2959 RMK T02500220 IEM_DS3505
ZHHH,2008-04-07 12:00,ZHHH 071200Z AUTO 09006KT 7SM 26/20 A2962 RMK SLP022 T02580197 52003 IEM_DS3505
ZHHH,2008-04-07 13:00,ZHHH 071300Z AUTO 14008KT 2SM 25/22 A2962 RMK T02500220 IEM_DS3505
ZHHH,2008-04-07 14:00,ZHHH 071400Z AUTO 12010KT 2SM 24/21 A2962 RMK T02400210 IEM_DS3505
ZHHH,2008-04-07 15:00,ZHHH 071500Z AUTO 11004KT 9SM 25/20 A2959 RMK SLP019 T02500196 57003 IEM_DS3505
ZHHH,2008-04-07 16:00,ZHHH 071600Z AUTO 10010KT 2SM 23/21 A2959 RMK T02300210 IEM_DS3505
ZHHH,2008-04-07 17:00,ZHHH 071700Z AUTO 10010KT 2SM 23/21 A2959 RMK T02300210 IEM_DS3505
ZHHH,2008-04-07 18:00,ZHHH 071800Z AUTO 11004KT 9SM 24/19 A2953 RMK 60000 SLP000 T02410192 57019 IEM_DS3505
ZHHH,2008-04-07 19:00,ZHHH 071900Z AUTO 11008KT 2SM 22/20 A2950 RMK T02200200 IEM_DS3505
ZHHH,2008-04-07 20:00,ZHHH 072000Z AUTO 16014KT 1 1/2SM 22/21 A2947 RMK T02200210 IEM_DS3505
ZHHH,2008-04-07 21:00,ZHHH 072100Z AUTO 11006KT 9SM 23/19 A2944 RMK 70000 SLP968 T02310191 57032 IEM_DS3505
ZHHH,2008-04-07 22:00,ZHHH 072200Z AUTO 11006KT 2 1/2SM 22/20 A2944 RMK T02200200 IEM_DS3505
ZHHH,2008-04-07 23:00,ZHHH 072300Z AUTO 09008KT 2SM 22/20 A2947 RMK T02200200 IEM_DS3505
ZHHH,2008-04-08 00:00,ZHHH 080000Z AUTO 34002KT 6SM 22/20 A2950 RMK 60002 70002 SLP983 T02230197 52015 IEM_DS3505
ZHHH,2008-04-08 01:00,ZHHH 080100Z AUTO 20004KT 1SM 21/21 A2953 RMK T02100210 IEM_DS3505
ZHHH,2008-04-08 02:00,ZHHH 080200Z AUTO 13012KT 1/2SM 20/20 A2950 RMK T02000200 IEM_DS3505
ZHHH,2008-04-08 03:00,ZHHH 080300Z AUTO 27002KT 6SM 22/21 A2950 RMK SLP989 T02180206 52006 IEM_DS3505
ZHHH,2008-04-08 04:00,ZHHH 080400Z AUTO 25006KT 7SM 23/22 A2950 RMK T02300220 IEM_DS3505
ZHHH,2008-04-08 05:00,ZHHH 080500Z AUTO 7SM 24/22 A2947 RMK T02400220 IEM_DS3505
ZHHH,2008-04-08 06:00,ZHHH 080600Z AUTO 32004KT 16SM 26/21 A2947 RMK 60020 SLP982 T02580210 57007 IEM_DS3505
ZHHH,2008-04-08 07:00,ZHHH 080700Z AUTO 27004KT 7SM 26/23 A2947 RMK T02600230 IEM_DS3505
ZHHH,2008-04-08 08:00,ZHHH 080800Z AUTO 31004KT 7SM 26/23 A2944 RMK T02600230 IEM_DS3505
ZHHH,2008-04-08 09:00,ZHHH 080900Z AUTO 32004KT 9SM 26/21 A2947 RMK SLP979 T02600208 57003 IEM_DS3505
ZHHH,2008-04-08 10:00,ZHHH 081000Z AUTO 35010KT 7SM 23/20 A2950 RMK T02300200 IEM_DS3505
ZHHH,2008-04-08 11:00,ZHHH 081100Z AUTO 36008KT 7SM 21/20 A2953 RMK T02100200 IEM_DS3505
ZHHH,2008-04-08 12:00,ZHHH 081200Z AUTO 32004KT 11SM 21/18 A2956 RMK SLP012 T02130177 52033 IEM_DS3505
ZHHH,2008-04-08 13:00,ZHHH 081300Z AUTO 35008KT 7SM 19/18 A2959 RMK T01900180 IEM_DS3505
ZHHH,2008-04-08 14:00,ZHHH 081400Z AUTO 01006KT 7SM 19/17 A2965 RMK T01900170 IEM_DS3505
ZHHH,2008-04-08 15:00,ZHHH 081500Z AUTO 32004KT 9SM 19/16 A2968 RMK SLP051 T01860158 52039 IEM_DS3505
ZHHH,2008-04-08 16:00,ZHHH 081600Z AUTO 03004KT 7SM 17/15 A2971 RMK T01700150 IEM_DS3505
ZHHH,2008-04-08 17:00,ZHHH 081700Z AUTO 02004KT 7SM 16/14 A2971 RMK T01600140 IEM_DS3505
ZHHH,2008-04-08 18:00,ZHHH 081800Z AUTO 34002KT 11SM 17/13 A2971 RMK SLP059 T01690134 52008 IEM_DS3505
ZHHH,2008-04-08 19:00,ZHHH 081900Z AUTO 03004KT 7SM 16/14 A2971 RMK T01600140 IEM_DS3505
ZHHH,2008-04-08 20:00,ZHHH 082000Z AUTO 03004KT 7SM 16/14 A2974 RMK T01600140 IEM_DS3505
ZHHH,2008-04-08 21:00,ZHHH 082100Z AUTO 00000KT 9SM 16/13 A2974 RMK 70022 SLP073 T01630128 52014 IEM_DS3505
ZHHH,2008-04-08 22:00,ZHHH 082200Z AUTO 02004KT 7SM 15/13 A2977 RMK T01500130 IEM_DS3505
ZHHH,2008-04-08 23:00,ZHHH 082300Z AUTO 34006KT 6SM 16/13 A2980 RMK T01600130 IEM_DS3505
ZHHH,2008-04-09 00:00,ZHHH 090000Z AUTO 02004KT 9SM 17/12 A2983 RMK 70020 SLP101 T01680123 52027 IEM_DS3505
ZHHH,2008-04-09 01:00,ZHHH 090100Z AUTO 04010KT 4SM 17/12 A2985 RMK T01700120 IEM_DS3505
ZHHH,2008-04-09 02:00,ZHHH 090200Z AUTO 03008KT 4SM 17/12 A2988 RMK T01700120 IEM_DS3505
ZHHH,2008-04-09 03:00,ZHHH 090300Z AUTO 04006KT 12SM 19/11 A2988 RMK SLP123 T01890107 52022 IEM_DS3505
ZHHH,2008-04-09 04:00,ZHHH 090400Z AUTO 36008KT 7SM 19/13 A2988 RMK T01900130 IEM_DS3505
ZHHH,2008-04-09 05:00,ZHHH 090500Z AUTO 05006KT 7SM 19/13 A2988 RMK T01900130 IEM_DS3505
ZHHH,2008-04-09 06:00,ZHHH 090600Z AUTO 02008KT 9SM 21/11 A2985 RMK SLP116 T02140109 57007 IEM_DS3505
ZHHH,2008-04-09 07:00,ZHHH 090700Z AUTO 35008KT 6SM 22/12 A2985 RMK T02200120 IEM_DS3505
ZHHH,2008-04-09 08:00,ZHHH 090800Z AUTO 04008KT 6SM 22/12 A2985 RMK T02200120 IEM_DS3505
ZHHH,2008-04-09 09:00,ZHHH 090900Z AUTO 02008KT 9SM 21/09 A2988 RMK SLP117 T02110090 52001 IEM_DS3505
ZHHH,2008-04-09 10:00,ZHHH 091000Z AUTO 05014KT 6SM 18/12 A2991 RMK T01800120 IEM_DS3505
ZHHH,2008-04-09 11:00,ZHHH 091100Z AUTO 04012KT 6SM 17/12 A2994 RMK T01700120 IEM_DS3505
ZHHH,2008-04-09 12:00,ZHHH 091200Z AUTO 07006KT 9SM 17/10 A2994 RMK SLP142 T01740098 52025 IEM_DS3505
ZHHH,2008-04-09 13:00,ZHHH 091300Z AUTO 05006KT 4SM 15/12 A3000 RMK T01500120 IEM_DS3505
ZHHH,2008-04-09 14:00,ZHHH 091400Z AUTO 02004KT 4SM 15/12 A3000 RMK T01500120 IEM_DS3505
ZHHH,2008-04-09 15:00,ZHHH 091500Z AUTO 02006KT 9SM 16/11 A3000 RMK SLP161 T01570107 52019 IEM_DS3505
ZHHH,2008-04-09 16:00,ZHHH 091600Z AUTO 02004KT 4SM 14/12 A3000 RMK T01400120 IEM_DS3505
ZHHH,2008-04-09 17:00,ZHHH 091700Z AUTO 03004KT 4SM 13/11 A3000 RMK T01300110 IEM_DS3505
ZHHH,2008-04-09 18:00,ZHHH 091800Z AUTO 04002KT 11SM 14/10 A3000 RMK SLP156 T01410105 57005 IEM_DS3505
ZHHH,2008-04-09 19:00,ZHHH 091900Z AUTO 04006KT 4SM 12/11 A2997 RMK T01200110 IEM_DS3505
ZHHH,2008-04-09 20:00,ZHHH 092000Z AUTO 04004KT 4SM 12/11 A2997 RMK T01200110 IEM_DS3505
ZHHH,2008-04-09 21:00,ZHHH 092100Z AUTO 04002KT 9SM 13/10 A2997 RMK SLP149 T01310103 57007 IEM_DS3505
ZHHH,2008-04-09 22:00,ZHHH 092200Z AUTO 06006KT 2SM 11/10 A2997 RMK T01100100 IEM_DS3505
ZHHH,2008-04-09 23:00,ZHHH 092300Z AUTO 08008KT 1 1/4SM 12/11 A2997 RMK T01200110 IEM_DS3505
ZHHH,2008-04-10 00:00,ZHHH 100000Z AUTO 07004KT 9SM 14/11 A2997 RMK SLP155 T01440110 52006 IEM_DS3505
ZHHH,2008-04-10 01:00,ZHHH 100100Z AUTO 11008KT 3SM 15/13 A2997 RMK T01500130 IEM_DS3505
ZHHH,2008-04-10 02:00,ZHHH 100200Z AUTO 11008KT 3SM 17/13 A2997 RMK T01700130 IEM_DS3505
ZHHH,2008-04-10 03:00,ZHHH 100300Z AUTO 09004KT 9SM 18/11 A2997 RMK SLP145 T01830114 57010 IEM_DS3505
ZHHH,2008-04-10 04:00,ZHHH 100400Z AUTO 11006KT 4SM 18/13 A2994 RMK T01800130 IEM_DS3505
ZHHH,2008-04-10 05:00,ZHHH 100500Z AUTO 11008KT 6SM 18/12 A2991 RMK T01800120 IEM_DS3505
ZHHH,2008-04-10 06:00,ZHHH 100600Z AUTO 11004KT 9SM 19/11 A2991 RMK SLP123 T01860109 57022 IEM_DS3505
ZHHH,2008-04-10 07:00,ZHHH 100700Z AUTO 11006KT 6SM 18/11 A2988 RMK T01800110 IEM_DS3505
ZHHH,2008-04-10 08:00,ZHHH 100800Z AUTO 10006KT 7SM 17/12 A2988 RMK T01700120 IEM_DS3505
ZHHH,2008-04-10 09:00,ZHHH 100900Z AUTO 04002KT 7SM 16/12 A2988 RMK SLP110 T01650119 57013 IEM_DS3505
ZHHH,2008-04-10 10:00,ZHHH 101000Z AUTO 02002KT 4SM 15/14 A2988 RMK T01500140 IEM_DS3505
ZHHH,2008-04-10 11:00,ZHHH 101100Z AUTO 36004KT 4SM 15/14 A2988 RMK T01500140 IEM_DS3505
ZHHH,2008-04-10 12:00,ZHHH 101200Z AUTO 29002KT 7SM 16/14 A2994 RMK 60016 SLP138 T01550137 52028 IEM_DS3505
ZHHH,2008-04-10 13:00,ZHHH 101300Z AUTO 34004KT 2 1/2SM 14/14 A2994 RMK T01400140 IEM_DS3505
ZHHH,2008-04-10 14:00,ZHHH 101400Z AUTO 2 1/2SM 14/14 A2994 RMK T01400140 IEM_DS3505
ZHHH,2008-04-10 15:00,ZHHH 101500Z AUTO 27004KT 6SM 15/13 A2994 RMK SLP149 T01460131 52011 IEM_DS3505
ZHHH,2008-04-10 16:00,ZHHH 101600Z AUTO 2 1/2SM 14/14 A2997 RMK T01400140 IEM_DS3505
ZHHH,2008-04-10 17:00,ZHHH 101700Z AUTO 2 1/2SM 14/13 A2994 RMK T01400130 IEM_DS3505
ZHHH,2008-04-10 18:00,ZHHH 101800Z AUTO 32002KT 6SM 15/13 A2991 RMK 60024 SLP135 T01460126 57014 IEM_DS3505
ZHHH,2008-04-10 19:00,ZHHH 101900Z AUTO 04004KT 3SM 14/13 A2991 RMK T01400130 IEM_DS3505
ZHHH,2008-04-10 20:00,ZHHH 102000Z AUTO 03004KT 4SM 14/13 A2991 RMK T01400130 IEM_DS3505
ZHHH,2008-04-10 21:00,ZHHH 102100Z AUTO 04002KT 7SM 15/13 A2991 RMK 70040 SLP127 T01470126 57008 IEM_DS3505
ZHHH,2008-04-10 22:00,ZHHH 102200Z AUTO 03004KT 4SM 14/13 A2988 RMK T01400130 IEM_DS3505
ZHHH,2008-04-10 23:00,ZHHH 102300Z AUTO 00000KT 3SM 14/13 A2988 RMK T01400130 IEM_DS3505
ZHHH,2008-04-11 00:00,ZHHH 110000Z AUTO 32002KT 9SM 15/13 A2991 RMK 60000 70040 SLP136 T01500127 52009 IEM_DS3505
ZHHH,2008-04-11 01:00,ZHHH 110100Z AUTO 36004KT 4SM 15/14 A2994 RMK T01500140 IEM_DS3505
ZHHH,2008-04-11 02:00,ZHHH 110200Z AUTO 4SM 15/14 A2994 RMK T01500140 IEM_DS3505
ZHHH,2008-04-11 03:00,ZHHH 110300Z AUTO 02002KT 6SM 15/13 A2991 RMK SLP133 T01520131 57003 IEM_DS3505
ZHHH,2008-04-11 04:00,ZHHH 110400Z AUTO 35004KT 1 1/2SM 15/14 A2994 RMK T01500140 IEM_DS3505
ZHHH,2008-04-11 05:00,ZHHH 110500Z AUTO 33004KT 2SM 15/15 A2991 RMK T01500150 IEM_DS3505
ZHHH,2008-04-11 06:00,ZHHH 110600Z AUTO 34002KT 7SM 15/13 A2991 RMK 60012 SLP135 T01520132 52002 IEM_DS3505
ZHHH,2008-04-11 07:00,ZHHH 110700Z AUTO 3SM 15/14 A2988 RMK T01500140 IEM_DS3505
ZHHH,2008-04-11 08:00,ZHHH 110800Z AUTO 29004KT 2SM 16/15 A2988 RMK T01600150 IEM_DS3505
ZHHH,2008-04-11 09:00,ZHHH 110900Z AUTO 29002KT 9SM 16/14 A2988 RMK SLP123 T01600140 57012 IEM_DS3505
ZHHH,2008-04-11 10:00,ZHHH 111000Z AUTO 1 1/2SM 16/15 A2988 RMK T01600150 IEM_DS3505
ZHHH,2008-04-11 11:00,ZHHH 111100Z AUTO 2SM 16/15 A2991 RMK T01600150 IEM_DS3505
ZHHH,2008-04-11 12:00,ZHHH 111200Z AUTO 34002KT 7SM 16/14 A2994 RMK 60000 SLP136 T01610141 52013 IEM_DS3505
ZHHH,2008-04-11 13:00,ZHHH 111300Z AUTO 03004KT 1 1/2SM 16/15 A2994 RMK T01600150 IEM_DS3505
ZHHH,2008-04-11 14:00,ZHHH 111400Z AUTO 01004KT 2SM 16/15 A2997 RMK T01600150 IEM_DS3505
ZHHH,2008-04-11 15:00,ZHHH 111500Z AUTO 34002KT 7SM 16/14 A3000 RMK SLP157 T01600142 52021 IEM_DS3505
ZHHH,2008-04-11 16:00,ZHHH 111600Z AUTO 2SM 16/14 A3000 RMK T01600140 IEM_DS3505
ZHHH,2008-04-11 17:00,ZHHH 111700Z AUTO 2SM 15/14 A2997 RMK T01500140 IEM_DS3505
ZHHH,2008-04-11 18:00,ZHHH 111800Z AUTO 11002KT 9SM 16/13 A2997 RMK SLP155 T01580129 57002 IEM_DS3505
ZHHH,2008-04-11 19:00,ZHHH 111900Z AUTO 33004KT 2SM 15/14 A3000 RMK T01500140 IEM_DS3505
ZHHH,2008-04-11 20:00,ZHHH 112000Z AUTO 34004KT 2SM 15/14 A3000 RMK T01500140 IEM_DS3505
ZHHH,2008-04-11 21:00,ZHHH 112100Z AUTO 32002KT 9SM 15/13 A3003 RMK 70011 SLP166 T01540131 52011 IEM_DS3505
ZHHH,2008-04-11 22:00,ZHHH 112200Z AUTO 04008KT 2SM 15/13 A3000 RMK T01500130 IEM_DS3505
ZHHH,2008-04-11 23:00,ZHHH 112300Z AUTO 05014KT 1 1/4SM 14/13 A3003 RMK T01400130 IEM_DS3505
ZHHH,2008-04-12 00:00,ZHHH 120000Z AUTO 36004KT 5SM 15/12 A3006 RMK 70011 SLP179 T01510124 52013 IEM_DS3505
ZHHH,2008-04-12 01:00,ZHHH 120100Z AUTO 02008KT 1SM 14/13 A3006 RMK T01400130 IEM_DS3505
ZHHH,2008-04-12 02:00,ZHHH 120200Z AUTO 02006KT 1SM 14/12 A3009 RMK T01400120 IEM_DS3505
ZHHH,2008-04-12 03:00,ZHHH 120300Z AUTO 02004KT 5SM 15/11 A3009 RMK SLP192 T01540114 52013 IEM_DS3505
ZHHH,2008-04-12 04:00,ZHHH 120400Z AUTO 01006KT 1 1/2SM 16/12 A3009 RMK T01600120 IEM_DS3505
ZHHH,2008-04-12 05:00,ZHHH 120500Z AUTO 34006KT 1 1/2SM 17/13 A3006 RMK T01700130 IEM_DS3505
ZHHH,2008-04-12 06:00,ZHHH 120600Z AUTO 32002KT 7SM 16/12 A3003 RMK SLP173 T01620118 57019 IEM_DS3505
ZHHH,2008-04-12 07:00,ZHHH 120700Z AUTO 03006KT 2SM 18/13 A3003 RMK T01800130 IEM_DS3505
ZHHH,2008-04-12 08:00,ZHHH 120800Z AUTO 03008KT 2SM 18/12 A3000 RMK T01800120 IEM_DS3505
ZHHH,2008-04-12 09:00,ZHHH 120900Z AUTO 25002KT 7SM 17/13 A3000 RMK SLP164 T01720129 57009 IEM_DS3505
ZHHH,2008-04-12 10:00,ZHHH 121000Z AUTO 02008KT 2 1/2SM 17/13 A3003 RMK T01700130 IEM_DS3505
ZHHH,2008-04-12 11:00,ZHHH 121100Z AUTO 02006KT 2 1/2SM 16/12 A3003 RMK T01600120 IEM_DS3505
ZHHH,2008-04-12 12:00,ZHHH 121200Z AUTO 02006KT 7SM 16/11 A3006 RMK 60000 SLP176 T01580108 52012 IEM_DS3505
ZHHH,2008-04-12 13:00,ZHHH 121300Z AUTO 35006KT 2 1/2SM 14/13 A3009 RMK T01400130 IEM_DS3505
ZHHH,2008-04-12 14:00,ZHHH 121400Z AUTO 35004KT 1 1/2SM 14/13 A3009 RMK T01400130 IEM_DS3505
ZHHH,2008-04-12 15:00,ZHHH 121500Z AUTO 29002KT 6SM 14/12 A3006 RMK SLP185 T01420122 52009 IEM_DS3505
ZHHH,2008-04-12 16:00,ZHHH 121600Z AUTO 01004KT 1 1/2SM 14/13 A3006 RMK T01400130 IEM_DS3505
ZHHH,2008-04-12 17:00,ZHHH 121700Z AUTO 36004KT 1 1/4SM 14/13 A3006 RMK T01400130 IEM_DS3505
ZHHH,2008-04-12 18:00,ZHHH 121800Z AUTO 34004KT 5SM 14/12 A3006 RMK 60004 SLP179 T01410120 57006 IEM_DS3505
ZHHH,2008-04-12 19:00,ZHHH 121900Z AUTO 35006KT 1SM 13/13 A3003 RMK T01300130 IEM_DS3505
ZHHH,2008-04-12 20:00,ZHHH 122000Z AUTO 36004KT 1SM 13/13 A3003 RMK T01300130 IEM_DS3505
ZHHH,2008-04-12 21:00,ZHHH 122100Z AUTO 04004KT 4SM 13/12 A3003 RMK 70004 SLP164 T01330115 57015 IEM_DS3505
ZHHH,2008-04-12 22:00,ZHHH 122200Z AUTO 03004KT 1SM 13/12 A3003 RMK T01300120 IEM_DS3505
ZHHH,2008-04-12 23:00,ZHHH 122300Z AUTO 04004KT 1SM 13/12 A3006 RMK T01300120 IEM_DS3505
ZHHH,2008-04-13 00:00,ZHHH 130000Z AUTO 36002KT 5SM 14/11 A3009 RMK 60000 70005 SLP192 T01380113 52028 IEM_DS3505
ZHHH,2008-04-13 01:00,ZHHH 130100Z AUTO 02004KT 1SM 14/12 A3012 RMK T01400120 IEM_DS3505
ZHHH,2008-04-13 02:00,ZHHH 130200Z AUTO 05004KT 1SM 14/12 A3012 RMK T01400120 IEM_DS3505
ZHHH,2008-04-13 03:00,ZHHH 130300Z AUTO 02002KT 5SM 15/11 A3009 RMK SLP195 T01460112 52003 IEM_DS3505
ZHHH,2008-04-13 04:00,ZHHH 130400Z AUTO 04004KT 1 1/4SM 15/13 A3009 RMK T01500130 IEM_DS3505
ZHHH,2008-04-13 05:00,ZHHH 130500Z AUTO 00000KT 1 1/4SM 15/13 A3009 RMK T01500130 IEM_DS3505
ZHHH,2008-04-13 06:00,ZHHH 130600Z AUTO 34004KT 7SM 15/12 A3006 RMK 60000 SLP176 T01530117 57019 IEM_DS3505
ZHHH,2008-04-13 07:00,ZHHH 130700Z AUTO 31004KT 1 1/4SM 16/13 A3003 RMK T01600130 IEM_DS3505
ZHHH,2008-04-13 08:00,ZHHH 130800Z AUTO 34004KT 1SM 15/13 A3003 RMK T01500130 IEM_DS3505
ZHHH,2008-04-13 09:00,ZHHH 130900Z AUTO 32002KT 7SM 16/12 A3003 RMK SLP164 T01550123 57012 IEM_DS3505
ZHHH,2008-04-13 10:00,ZHHH 131000Z AUTO 00000KT 1SM 15/13 A3003 RMK T01500130 IEM_DS3505
ZHHH,2008-04-13 11:00,ZHHH 131100Z AUTO 08004KT 1SM 14/13 A3003 RMK T01400130 IEM_DS3505
ZHHH,2008-04-13 12:00,ZHHH 131200Z AUTO 18002KT 6SM 15/12 A3003 RMK SLP169 T01530124 52005 IEM_DS3505
ZHHH,2008-04-13 13:00,ZHHH 131300Z AUTO 1SM 14/13 A3003 RMK T01400130 IEM_DS3505
ZHHH,2008-04-13 14:00,ZHHH 131400Z AUTO 1SM 14/13 A3003 RMK T01400130 IEM_DS3505
ZHHH,2008-04-13 15:00,ZHHH 131500Z AUTO 00000KT 5SM 14/12 A3003 RMK SLP171 T01350122 52002 IEM_DS3505
ZHHH,2008-04-13 16:00,ZHHH 131600Z AUTO 03004KT 1SM 13/13 A3003 RMK T01300130 IEM_DS3505
ZHHH,2008-04-13 17:00,ZHHH 131700Z AUTO 02004KT 1SM 13/12 A3003 RMK T01300120 IEM_DS3505
ZHHH,2008-04-13 18:00,ZHHH 131800Z AUTO 36002KT 4SM 14/12 A3000 RMK SLP163 T01370124 57008 IEM_DS3505
ZHHH,2008-04-13 19:00,ZHHH 131900Z AUTO 07004KT 1SM 13/12 A3000 RMK T01300120 IEM_DS3505
ZHHH,2008-04-13 20:00,ZHHH 132000Z AUTO 09004KT 1SM 13/12 A2997 RMK T01300120 IEM_DS3505
ZHHH,2008-04-13 21:00,ZHHH 132100Z AUTO 09002KT 5SM 14/12 A2997 RMK 70000 SLP156 T01360122 57007 IEM_DS3505
ZHHH,2008-04-13 22:00,ZHHH 132200Z AUTO 08006KT 1SM 13/12 A3000 RMK T01300120 IEM_DS3505
ZHHH,2008-04-13 23:00,ZHHH 132300Z AUTO 09004KT 1SM 13/13 A3003 RMK T01300130 IEM_DS3505
ZHHH,2008-04-14 00:00,ZHHH 140000Z AUTO 07002KT 5SM 14/13 A3003 RMK 70000 SLP172 T01410128 52016 IEM_DS3505
ZHHH,2008-04-14 01:00,ZHHH 140100Z AUTO 09004KT 1SM 14/13 A3006 RMK T01400130 IEM_DS3505
ZHHH,2008-04-14 02:00,ZHHH 140200Z AUTO 08004KT 1SM 14/14 A3003 RMK T01400140 IEM_DS3505
ZHHH,2008-04-14 03:00,ZHHH 140300Z AUTO 07004KT 4SM 15/14 A3003 RMK SLP160 T01520139 57012 IEM_DS3505
ZHHH,2008-04-14 04:00,ZHHH 140400Z AUTO 15004KT 1SM 14/14 A3003 RMK T01400140 IEM_DS3505
ZHHH,2008-04-14 05:00,ZHHH 140500Z AUTO 08004KT 1SM 14/14 A3000 RMK T01400140 IEM_DS3505
ZHHH,2008-04-14 06:00,ZHHH 140600Z AUTO 07002KT 6SM 16/14 A2997 RMK 60008 SLP152 T01570135 57008 IEM_DS3505
ZHHH,2008-04-14 07:00,ZHHH 140700Z AUTO 06004KT 1SM 15/14 A2997 RMK T01500140 IEM_DS3505
ZHHH,2008-04-14 08:00,ZHHH 140800Z AUTO 04004KT 1SM 15/14 A2997 RMK T01500140 IEM_DS3505
ZHHH,2008-04-14 09:00,ZHHH 140900Z AUTO 04004KT 5SM 14/13 A2994 RMK SLP142 T01440134 57010 IEM_DS3505
ZHHH,2008-04-14 10:00,ZHHH 141000Z AUTO 07008KT 1SM 13/13 A2997 RMK T01300130 IEM_DS3505
ZHHH,2008-04-14 11:00,ZHHH 141100Z AUTO 07008KT 1SM 13/13 A2997 RMK T01300130 IEM_DS3505
ZHHH,2008-04-14 12:00,ZHHH 141200Z AUTO 07002KT 4SM 14/13 A2997 RMK 60004 SLP153 T01390131 52011 IEM_DS3505
ZHHH,2008-04-14 13:00,ZHHH 141300Z AUTO 06004KT 1SM 13/13 A3000 RMK T01300130 IEM_DS3505
ZHHH,2008-04-14 14:00,ZHHH 141400Z AUTO 1SM 14/14 A3000 RMK T01400140 IEM_DS3505
ZHHH,2008-04-14 15:00,ZHHH 141500Z AUTO 00000KT 5SM 14/14 A3000 RMK SLP156 T01420136 52003 IEM_DS3505
ZHHH,2008-04-14 16:00,ZHHH 141600Z AUTO 00000KT 1SM 14/14 A2997 RMK T01400140 IEM_DS3505
ZHHH,2008-04-14 17:00,ZHHH 141700Z AUTO 34004KT 1SM 14/14 A2997 RMK T01400140 IEM_DS3505
ZHHH,2008-04-14 18:00,ZHHH 141800Z AUTO 00000KT 4SM 14/14 A2994 RMK 60000 SLP145 T01430135 57011 IEM_DS3505
ZHHH,2008-04-14 19:00,ZHHH 141900Z AUTO 03004KT 1SM 14/14 A2991 RMK T01400140 IEM_DS3505
ZHHH,2008-04-14 20:00,ZHHH 142000Z AUTO 06002KT 1SM 14/14 A2991 RMK T01400140 IEM_DS3505
ZHHH,2008-04-14 21:00,ZHHH 142100Z AUTO 00000KT 4SM 14/14 A2991 RMK 70009 SLP132 T01430135 57013 IEM_DS3505
ZHHH,2008-04-14 22:00,ZHHH 142200Z AUTO 00000KT 1SM 14/14 A2994 RMK T01400140 IEM_DS3505
ZHHH,2008-04-14 23:00,ZHHH 142300Z AUTO 02004KT 1SM 14/14 A2994 RMK T01400140 IEM_DS3505
ZHHH,2008-04-15 00:00,ZHHH 150000Z AUTO 02002KT 4SM 14/13 A2994 RMK 60002 70012 SLP144 T01420134 52012 IEM_DS3505
ZHHH,2008-04-15 01:00,ZHHH 150100Z AUTO 05006KT 1/2SM 14/14 A2997 RMK T01400140 IEM_DS3505
ZHHH,2008-04-15 03:00,ZHHH 150300Z AUTO 07002KT 4SM 15/14 A2997 RMK SLP148 T01480140 52004 IEM_DS3505
ZHHH,2008-04-15 04:00,ZHHH 150400Z AUTO 1SM 15/15 A2994 RMK T01500150 IEM_DS3505
ZHHH,2008-04-15 05:00,ZHHH 150500Z AUTO 07002KT 1SM 15/15 A2994 RMK T01500150 IEM_DS3505
ZHHH,2008-04-15 06:00,ZHHH 150600Z AUTO 34002KT 5SM 16/14 A2991 RMK 60047 SLP135 T01550144 57013 IEM_DS3505
ZHHH,2008-04-15 07:00,ZHHH 150700Z AUTO 1 1/4SM 15/15 A2991 RMK T01500150 IEM_DS3505
ZHHH,2008-04-15 08:00,ZHHH 150800Z AUTO 32004KT 1SM 15/15 A2991 RMK T01500150 IEM_DS3505
ZHHH,2008-04-15 09:00,ZHHH 150900Z AUTO 27002KT 4SM 16/14 A2991 RMK SLP129 T01560143 57006 IEM_DS3505
ZHHH,2008-04-15 10:00,ZHHH 151000Z AUTO 00000KT 1SM 15/15 A2991 RMK T01500150 IEM_DS3505
ZHHH,2008-04-15 11:00,ZHHH 151100Z AUTO 00000KT 1 1/4SM 15/15 A2994 RMK T01500150 IEM_DS3505
ZHHH,2008-04-15 12:00,ZHHH 151200Z AUTO 36002KT 5SM 15/14 A2994 RMK 60001 SLP137 T01510141 52008 IEM_DS3505
ZHHH,2008-04-15 13:00,ZHHH 151300Z AUTO 32002KT 1SM 15/15 A2997 RMK T01500150 IEM_DS3505
ZHHH,2008-04-15 14:00,ZHHH 151400Z AUTO 1SM 15/15 A2997 RMK T01500150 IEM_DS3505
ZHHH,2008-04-15 15:00,ZHHH 151500Z AUTO 27004KT 4SM 15/14 A2997 RMK SLP152 T01500142 52015 IEM_DS3505
ZHHH,2008-04-15 16:00,ZHHH 151600Z AUTO 31002KT 1/2SM 14/14 A2997 RMK T01400140 IEM_DS3505
ZHHH,2008-04-15 17:00,ZHHH 151700Z AUTO 24002KT 1/2SM 14/14 A2997 RMK T01400140 IEM_DS3505
ZHHH,2008-04-15 18:00,ZHHH 151800Z AUTO 00000KT 4SM 15/14 A2994 RMK SLP145 T01480140 57007 IEM_DS3505
ZHHH,2008-04-15 19:00,ZHHH 151900Z AUTO 27002KT 1/2SM 14/14 A2997 RMK T01400140 IEM_DS3505
ZHHH,2008-04-15 20:00,ZHHH 152000Z AUTO 27004KT 1/2SM 14/14 A2997 RMK T01400140 IEM_DS3505
ZHHH,2008-04-15 21:00,ZHHH 152100Z AUTO 27002KT 5SM 15/14 A2997 RMK 70050 SLP147 T01470137 52002 IEM_DS3505
ZHHH,2008-04-15 22:00,ZHHH 152200Z AUTO 28002KT 3/8SM 14/14 A2997 RMK T01400140 IEM_DS3505
ZHHH,2008-04-15 23:00,ZHHH 152300Z AUTO 3/8SM 14/14 A3000 RMK T01400140 IEM_DS3505
ZHHH,2008-04-16 00:00,ZHHH 160000Z AUTO 29002KT 4SM 15/14 A3000 RMK 70048 SLP160 T01500140 52013 IEM_DS3505
ZHHH,2008-04-16 01:00,ZHHH 160100Z AUTO 30004KT 1SM 16/16 A3000 RMK T01600160 IEM_DS3505
ZHHH,2008-04-16 02:00,ZHHH 160200Z AUTO 29004KT 1SM 17/16 A3003 RMK T01700160 IEM_DS3505
ZHHH,2008-04-16 03:00,ZHHH 160300Z AUTO 34002KT 5SM 17/14 A3003 RMK SLP169 T01690145 52009 IEM_DS3505
ZHHH,2008-04-16 04:00,ZHHH 160400Z AUTO 31006KT 1 1/4SM 19/16 A3000 RMK T01900160 IEM_DS3505
ZHHH,2008-04-16 05:00,ZHHH 160500Z AUTO 29006KT 7SM 21/14 A3000 RMK T02100140 IEM_DS3505
ZHHH,2008-04-16 06:00,ZHHH 160600Z AUTO 27002KT 9SM 21/13 A2997 RMK SLP154 T02100132 57015 IEM_DS3505
ZHHH,2008-04-16 07:00,ZHHH 160700Z AUTO 29004KT 7SM 21/15 A2997 RMK T02100150 IEM_DS3505
ZHHH,2008-04-16 08:00,ZHHH 160800Z AUTO 15004KT 7SM 21/15 A2994 RMK T02100150 IEM_DS3505
ZHHH,2008-04-16 09:00,ZHHH 160900Z AUTO 11002KT 9SM 22/12 A2994 RMK SLP142 T02220119 57012 IEM_DS3505
ZHHH,2008-04-16 10:00,ZHHH 161000Z AUTO 14004KT 6SM 20/15 A2997 RMK T02000150 IEM_DS3505
ZHHH,2008-04-16 11:00,ZHHH 161100Z AUTO 6SM 19/15 A2997 RMK T01900150 IEM_DS3505
ZHHH,2008-04-16 12:00,ZHHH 161200Z AUTO 11002KT 9SM 18/14 A2997 RMK SLP152 T01810138 52010 IEM_DS3505
ZHHH,2008-04-16 13:00,ZHHH 161300Z AUTO 13004KT 4SM 18/15 A3000 RMK T01800150 IEM_DS3505
ZHHH,2008-04-16 14:00,ZHHH 161400Z AUTO 11006KT 4SM 17/15 A3003 RMK T01700150 IEM_DS3505
ZHHH,2008-04-16 15:00,ZHHH 161500Z AUTO 11002KT 6SM 16/14 A3003 RMK SLP165 T01560138 52013 IEM_DS3505
ZHHH,2008-04-16 16:00,ZHHH 161600Z AUTO 10004KT 4SM 16/15 A3003 RMK T01600150 IEM_DS3505
ZHHH,2008-04-16 17:00,ZHHH 161700Z AUTO 00000KT 1SM 15/15 A3003 RMK T01500150 IEM_DS3505
ZHHH,2008-04-16 18:00,ZHHH 161800Z AUTO 00000KT 5SM 14/13 A3003 RMK SLP166 T01420134 52001 IEM_DS3505
ZHHH,2008-04-16 19:00,ZHHH 161900Z AUTO 08006KT 1SM 14/14 A3000 RMK T01400140 IEM_DS3505
ZHHH,2008-04-16 20:00,ZHHH 162000Z AUTO 09006KT 1/8SM 14/14 A3000 RMK T01400140 IEM_DS3505
ZHHH,2008-04-16 21:00,ZHHH 162100Z AUTO 04002KT 1/2SM 14/14 A3003 RMK SLP168 T01410136 52002 IEM_DS3505
ZHHH,2008-04-16 22:00,ZHHH 162200Z AUTO 10006KT 1/8SM 14/14 A3003 RMK T01400140 IEM_DS3505
ZHHH,2008-04-16 23:00,ZHHH 162300Z AUTO 12006KT 1/8SM 14/14 A3006 RMK T01400140 IEM_DS3505
ZHHH,2008-04-17 00:00,ZHHH 170000Z AUTO 09002KT 1/8SM 14/14 A3006 RMK SLP181 T01450142 52013 IEM_DS3505
ZHHH,2008-04-17 01:00,ZHHH 170100Z AUTO 12006KT 3/8SM 14/14 A3006 RMK T01400140 IEM_DS3505
ZHHH,2008-04-17 02:00,ZHHH 170200Z AUTO 12006KT 1SM 15/15 A3009 RMK T01500150 IEM_DS3505
ZHHH,2008-04-17 03:00,ZHHH 170300Z AUTO 09004KT 6SM 18/15 A3009 RMK SLP186 T01800151 52005 IEM_DS3505
ZHHH,2008-04-17 04:00,ZHHH 170400Z AUTO 13008KT 1SM 18/17 A3006 RMK T01800170 IEM_DS3505
ZHHH,2008-04-17 05:00,ZHHH 170500Z AUTO 12006KT 1 1/4SM 20/17 A3003 RMK T02000170 IEM_DS3505
ZHHH,2008-04-17 06:00,ZHHH 170600Z AUTO 36002KT 7SM 22/15 A3000 RMK SLP160 T02170146 57026 IEM_DS3505
ZHHH,2008-04-17 07:00,ZHHH 170700Z AUTO 11006KT 2SM 22/15 A2997 RMK T02200150 IEM_DS3505
ZHHH,2008-04-17 08:00,ZHHH 170800Z AUTO 14008KT 3SM 22/13 A2994 RMK T02200130 IEM_DS3505
ZHHH,2008-04-17 09:00,ZHHH 170900Z AUTO 04002KT 7SM 23/12 A2994 RMK SLP136 T02280121 57024 IEM_DS3505
ZHHH,2008-04-17 10:00,ZHHH 171000Z AUTO 10006KT 4SM 21/14 A2991 RMK T02100140 IEM_DS3505
ZHHH,2008-04-17 11:00,ZHHH 171100Z AUTO 13004KT 3SM 20/14 A2994 RMK T02000140 IEM_DS3505
ZHHH,2008-04-17 12:00,ZHHH 171200Z AUTO 09002KT 9SM 17/12 A2994 RMK SLP140 T01730122 52004 IEM_DS3505
ZHHH,2008-04-17 13:00,ZHHH 171300Z AUTO 11004KT 2 1/2SM 18/15 A2997 RMK T01800150 IEM_DS3505
ZHHH,2008-04-17 14:00,ZHHH 171400Z AUTO 10008KT 2SM 18/14 A2997 RMK T01800140 IEM_DS3505
ZHHH,2008-04-17 15:00,ZHHH 171500Z AUTO 09004KT 9SM 18/11 A2997 RMK SLP152 T01760114 52012 IEM_DS3505
ZHHH,2008-04-17 16:00,ZHHH 171600Z AUTO 11008KT 2SM 16/14 A2997 RMK T01600140 IEM_DS3505
ZHHH,2008-04-17 17:00,ZHHH 171700Z AUTO 10006KT 2SM 16/13 A2997 RMK T01600130 IEM_DS3505
ZHHH,2008-04-17 18:00,ZHHH 171800Z AUTO 09002KT 9SM 17/11 A2994 RMK SLP138 T01680109 57014 IEM_DS3505
ZHHH,2008-04-17 19:00,ZHHH 171900Z AUTO 11008KT 2SM 14/13 A2991 RMK T01400130 IEM_DS3505
ZHHH,2008-04-17 20:00,ZHHH 172000Z AUTO 11010KT 2 1/2SM 15/13 A2991 RMK T01500130 IEM_DS3505
ZHHH,2008-04-17 21:00,ZHHH 172100Z AUTO 09002KT 9SM 16/11 A2991 RMK SLP132 T01550107 57006 IEM_DS3505
ZHHH,2008-04-17 22:00,ZHHH 172200Z AUTO 06008KT 2SM 14/13 A2991 RMK T01400130 IEM_DS3505
ZHHH,2008-04-17 23:00,ZHHH 172300Z AUTO 09010KT 2 1/2SM 15/14 A2991 RMK T01500140 IEM_DS3505
ZHHH,2008-04-18 00:00,ZHHH 180000Z AUTO 09002KT 12SM 18/12 A2994 RMK SLP137 T01840124 52005 IEM_DS3505
ZHHH,2008-04-18 01:00,ZHHH 180100Z AUTO 10010KT 4SM 18/15 A2994 RMK T01800150 IEM_DS3505
ZHHH,2008-04-18 02:00,ZHHH 180200Z AUTO 11014KT 6SM 20/14 A2994 RMK T02000140 IEM_DS3505
ZHHH,2008-04-18 03:00,ZHHH 180300Z AUTO 11006KT 11SM 23/13 A2994 RMK SLP136 T02290128 57001 IEM_DS3505
ZHHH,2008-04-18 04:00,ZHHH 180400Z AUTO 12010KT 3SM 22/16 A2991 RMK T02200160 IEM_DS3505
ZHHH,2008-04-18 05:00,ZHHH 180500Z AUTO 12010KT 3SM 23/16 A2988 RMK T02300160 IEM_DS3505
ZHHH,2008-04-18 06:00,ZHHH 180600Z AUTO 18004KT 9SM 26/12 A2985 RMK SLP107 T02600117 57028 IEM_DS3505
ZHHH,2008-04-18 07:00,ZHHH 180700Z AUTO 12010KT 3SM 26/17 A2983 RMK T02600170 IEM_DS3505
ZHHH,2008-04-18 08:00,ZHHH 180800Z AUTO 10012KT 4SM 25/17 A2980 RMK T02500170 IEM_DS3505
ZHHH,2008-04-18 09:00,ZHHH 180900Z AUTO 09004KT 9SM 26/15 A2980 RMK SLP081 T02630147 57026 IEM_DS3505
ZHHH,2008-04-18 10:00,ZHHH 181000Z AUTO 11010KT 7SM 24/19 A2977 RMK T02400190 IEM_DS3505
ZHHH,2008-04-18 11:00,ZHHH 181100Z AUTO 12014KT 7SM 23/19 A2977 RMK T02300190 IEM_DS3505
ZHHH,2008-04-18 12:00,ZHHH 181200Z AUTO 11006KT 7SM 24/16 A2980 RMK SLP085 T02410161 52004 IEM_DS3505
ZHHH,2008-04-18 13:00,ZHHH 181300Z AUTO 12012KT 6SM 22/19 A2980 RMK T02200190 IEM_DS3505
ZHHH,2008-04-18 14:00,ZHHH 181400Z AUTO 14008KT 3SM 21/19 A2980 RMK T02100190 IEM_DS3505
ZHHH,2008-04-18 15:00,ZHHH 181500Z AUTO 11004KT 6SM 22/18 A2980 RMK SLP084 T02160180 57001 IEM_DS3505
ZHHH,2008-04-18 16:00,ZHHH 181600Z AUTO 05004KT 3SM 20/19 A2980 RMK T02000190 IEM_DS3505
ZHHH,2008-04-18 17:00,ZHHH 181700Z AUTO 08010KT 4SM 20/19 A2977 RMK T02000190 IEM_DS3505
ZHHH,2008-04-18 18:00,ZHHH 181800Z AUTO 09002KT 9SM 21/18 A2974 RMK 60008 SLP071 T02120178 57013 IEM_DS3505
ZHHH,2008-04-18 19:00,ZHHH 181900Z AUTO 10010KT 3SM 20/19 A2974 RMK T02000190 IEM_DS3505
ZHHH,2008-04-18 20:00,ZHHH 182000Z AUTO 10010KT 3SM 20/19 A2974 RMK T02000190 IEM_DS3505
ZHHH,2008-04-18 21:00,ZHHH 182100Z AUTO 09002KT 9SM 21/18 A2974 RMK 70006 SLP067 T02080180 57004 IEM_DS3505
ZHHH,2008-04-18 22:00,ZHHH 182200Z AUTO 12010KT 2SM 20/19 A2974 RMK T02000190 IEM_DS3505
ZHHH,2008-04-18 23:00,ZHHH 182300Z AUTO 12010KT 1 1/2SM 21/19 A2974 RMK T02100190 IEM_DS3505
ZHHH,2008-04-19 00:00,ZHHH 190000Z AUTO 11006KT 7SM 22/18 A2974 RMK 70006 SLP069 T02250185 52002 IEM_DS3505
ZHHH,2008-04-19 01:00,ZHHH 190100Z AUTO 12010KT 1 1/4SM 23/21 A2974 RMK T02300210 IEM_DS3505
ZHHH,2008-04-19 02:00,ZHHH 190200Z AUTO 13010KT 1 1/2SM 24/22 A2974 RMK T02400220 IEM_DS3505
ZHHH,2008-04-19 03:00,ZHHH 190300Z AUTO 11006KT 9SM 26/20 A2974 RMK SLP068 T02640198 57001 IEM_DS3505
ZHHH,2008-04-19 04:00,ZHHH 190400Z AUTO 11012KT 2 1/2SM 27/23 A2971 RMK T02700230 IEM_DS3505
ZHHH,2008-04-19 05:00,ZHHH 190500Z AUTO 12010KT 4SM 28/23 A2968 RMK T02800230 IEM_DS3505
ZHHH,2008-04-19 06:00,ZHHH 190600Z AUTO 11004KT 9SM 29/21 A2968 RMK SLP044 T02920209 57024 IEM_DS3505
ZHHH,2008-04-19 07:00,ZHHH 190700Z AUTO 10010KT 4SM 27/23 A2965 RMK T02700230 IEM_DS3505
ZHHH,2008-04-19 08:00,ZHHH 190800Z AUTO 11010KT 2 1/2SM 27/23 A2962 RMK T02700230 IEM_DS3505
ZHHH,2008-04-19 09:00,ZHHH 190900Z AUTO 27004KT 9SM 25/20 A2962 RMK SLP035 T02470204 57009 IEM_DS3505
ZHHH,2008-04-19 10:00,ZHHH 191000Z AUTO 12010KT 3SM 25/23 A2965 RMK T02500230 IEM_DS3505
ZHHH,2008-04-19 11:00,ZHHH 191100Z AUTO 11006KT 2SM 23/22 A2965 RMK T02300220 IEM_DS3505
ZHHH,2008-04-19 12:00,ZHHH 191200Z AUTO 22002KT 9SM 20/18 A2968 RMK SLP045 T01970177 52010 IEM_DS3505
ZHHH,2008-04-19 13:00,ZHHH 191300Z AUTO 33008KT 2SM 18/18 A2971 RMK T01800180 IEM_DS3505
ZHHH,2008-04-19 14:00,ZHHH 191400Z AUTO 33008KT 2SM 17/17 A2971 RMK T01700170 IEM_DS3505
ZHHH,2008-04-19 15:00,ZHHH 191500Z AUTO 27008KT 7SM 17/15 A2974 RMK SLP082 T01700152 52037 IEM_DS3505
ZHHH,2008-04-19 16:00,ZHHH 191600Z AUTO 34006KT 2 1/2SM 16/16 A2974 RMK T01600160 IEM_DS3505
ZHHH,2008-04-19 17:00,ZHHH 191700Z AUTO 35006KT 2 1/2SM 16/16 A2974 RMK T01600160 IEM_DS3505
ZHHH,2008-04-19 18:00,ZHHH 191800Z AUTO 34004KT 7SM 16/15 A2971 RMK 60016 SLP062 T01590148 57020 IEM_DS3505
ZHHH,2008-04-19 19:00,ZHHH 191900Z AUTO 32010KT 2 1/2SM 15/15 A2974 RMK T01500150 IEM_DS3505
ZHHH,2008-04-19 20:00,ZHHH 192000Z AUTO 2SM 14/14 A2974 RMK T01400140 IEM_DS3505
ZHHH,2008-04-19 21:00,ZHHH 192100Z AUTO 34004KT 7SM 15/14 A2974 RMK 70066 SLP069 T01530145 52007 IEM_DS3505
ZHHH,2008-04-19 22:00,ZHHH 192200Z AUTO 34012KT 4SM 14/14 A2977 RMK T01400140 IEM_DS3505
ZHHH,2008-04-19 23:00,ZHHH 192300Z AUTO 34008KT 7SM 15/15 A2980 RMK T01500150 IEM_DS3505
ZHHH,2008-04-20 00:00,ZHHH 200000Z AUTO 29006KT 9SM 16/14 A2983 RMK 60055 70069 SLP100 T01550139 52030 IEM_DS3505
ZHHH,2008-04-20 01:00,ZHHH 200100Z AUTO 36006KT 7SM 15/15 A2985 RMK T01500150 IEM_DS3505
ZHHH,2008-04-20 02:00,ZHHH 200200Z AUTO 34004KT 7SM 15/15 A2985 RMK T01500150 IEM_DS3505
ZHHH,2008-04-20 03:00,ZHHH 200300Z AUTO 34002KT 9SM 16/14 A2985 RMK SLP113 T01610141 52013 IEM_DS3505
ZHHH,2008-04-20 04:00,ZHHH 200400Z AUTO 31004KT 7SM 17/16 A2985 RMK T01700160 IEM_DS3505
ZHHH,2008-04-20 05:00,ZHHH 200500Z AUTO 32004KT 7SM 17/16 A2985 RMK T01700160 IEM_DS3505
ZHHH,2008-04-20 06:00,ZHHH 200600Z AUTO 34004KT 11SM 19/14 A2983 RMK 60000 SLP103 T01870142 57010 IEM_DS3505
ZHHH,2008-04-20 07:00,ZHHH 200700Z AUTO 7SM 18/16 A2983 RMK T01800160 IEM_DS3505
ZHHH,2008-04-20 08:00,ZHHH 200800Z AUTO 01004KT 7SM 19/16 A2983 RMK T01900160 IEM_DS3505
ZHHH,2008-04-20 09:00,ZHHH 200900Z AUTO 04004KT 11SM 19/14 A2983 RMK SLP098 T01900141 57005 IEM_DS3505
ZHHH,2008-04-20 10:00,ZHHH 201000Z AUTO 04006KT 7SM 19/15 A2983 RMK T01900150 IEM_DS3505
ZHHH,2008-04-20 11:00,ZHHH 201100Z AUTO 05010KT 6SM 18/14 A2985 RMK T01800140 IEM_DS3505
ZHHH,2008-04-20 12:00,ZHHH 201200Z AUTO 04004KT 11SM 18/12 A2985 RMK SLP112 T01800122 52014 IEM_DS3505
ZHHH,2008-04-20 13:00,ZHHH 201300Z AUTO 05010KT 6SM 17/14 A2988 RMK T01700140 IEM_DS3505
ZHHH,2008-04-20 14:00,ZHHH 201400Z AUTO 04004KT 6SM 16/14 A2991 RMK T01600140 IEM_DS3505
ZHHH,2008-04-20 15:00,ZHHH 201500Z AUTO 07002KT 9SM 16/13 A2991 RMK SLP133 T01640126 52021 IEM_DS3505
ZHHH,2008-04-20 16:00,ZHHH 201600Z AUTO 03006KT 6SM 16/13 A2994 RMK T01600130 IEM_DS3505
ZHHH,2008-04-20 17:00,ZHHH 201700Z AUTO 03006KT 6SM 15/13 A2994 RMK T01500130 IEM_DS3505
ZHHH,2008-04-20 18:00,ZHHH 201800Z AUTO 02004KT 11SM 16/12 A2991 RMK SLP134 T01570115 52001 IEM_DS3505
ZHHH,2008-04-20 19:00,ZHHH 201900Z AUTO 35004KT 6SM 14/13 A2994 RMK T01400130 IEM_DS3505
ZHHH,2008-04-20 20:00,ZHHH 202000Z AUTO 36004KT 4SM 14/12 A2994 RMK T01400120 IEM_DS3505
ZHHH,2008-04-20 21:00,ZHHH 202100Z AUTO 04002KT 9SM 14/12 A2991 RMK 70004 SLP134 T01410118 54000 IEM_DS3505
ZHHH,2008-04-20 22:00,ZHHH 202200Z AUTO 34004KT 2 1/2SM 12/11 A2997 RMK T01200110 IEM_DS3505
ZHHH,2008-04-20 23:00,ZHHH 202300Z AUTO 36004KT 2SM 13/13 A3000 RMK T01300130 IEM_DS3505
ZHHH,2008-04-21 00:00,ZHHH 210000Z AUTO 34004KT 9SM 16/12 A3000 RMK 70000 SLP164 T01560116 52030 IEM_DS3505
ZHHH,2008-04-21 01:00,ZHHH 210100Z AUTO 04010KT 6SM 17/13 A3003 RMK T01700130 IEM_DS3505
ZHHH,2008-04-21 02:00,ZHHH 210200Z AUTO 02012KT 6SM 18/12 A3003 RMK T01800120 IEM_DS3505
ZHHH,2008-04-21 03:00,ZHHH 210300Z AUTO 04004KT 11SM 19/11 A3003 RMK SLP171 T01910112 52007 IEM_DS3505
ZHHH,2008-04-21 04:00,ZHHH 210400Z AUTO 04010KT 7SM 20/13 A3003 RMK T02000130 IEM_DS3505
ZHHH,2008-04-21 05:00,ZHHH 210500Z AUTO 03010KT 7SM 21/13 A3000 RMK T02100130 IEM_DS3505
ZHHH,2008-04-21 06:00,ZHHH 210600Z AUTO 02004KT 14SM 22/10 A3000 RMK SLP154 T02200095 57017 IEM_DS3505
ZHHH,2008-04-21 07:00,ZHHH 210700Z AUTO 04014KT 7SM 21/13 A2997 RMK T02100130 IEM_DS3505
ZHHH,2008-04-21 08:00,ZHHH 210800Z AUTO 04014KT 7SM 21/12 A2997 RMK T02100120 IEM_DS3505
ZHHH,2008-04-21 09:00,ZHHH 210900Z AUTO 04006KT 11SM 21/10 A2997 RMK SLP146 T02070099 57008 IEM_DS3505
ZHHH,2008-04-21 10:00,ZHHH 211000Z AUTO 04010KT 6SM 19/11 A3000 RMK T01900110 IEM_DS3505
ZHHH,2008-04-21 11:00,ZHHH 211100Z AUTO 04010KT 6SM 18/11 A3000 RMK T01800110 IEM_DS3505
ZHHH,2008-04-21 12:00,ZHHH 211200Z AUTO 04006KT 11SM 18/10 A3006 RMK SLP175 T01830096 52029 IEM_DS3505
ZHHH,2008-04-21 13:00,ZHHH 211300Z AUTO 03006KT 6SM 17/12 A3009 RMK T01700120 IEM_DS3505
ZHHH,2008-04-21 14:00,ZHHH 211400Z AUTO 04008KT 6SM 16/12 A3009 RMK T01600120 IEM_DS3505
ZHHH,2008-04-21 15:00,ZHHH 211500Z AUTO 36002KT 11SM 17/11 A3009 RMK SLP195 T01680106 52020 IEM_DS3505
ZHHH,2008-04-21 16:00,ZHHH 211600Z AUTO 01004KT 7SM 16/12 A3012 RMK T01600120 IEM_DS3505
ZHHH,2008-04-21 17:00,ZHHH 211700Z AUTO 02004KT 7SM 15/13 A3012 RMK T01500130 IEM_DS3505
ZHHH,2008-04-21 18:00,ZHHH 211800Z AUTO 36004KT 9SM 16/12 A3012 RMK 60000 SLP197 T01560120 52002 IEM_DS3505
ZHHH,2008-04-21 19:00,ZHHH 211900Z AUTO 36004KT 6SM 15/13 A3012 RMK T01500130 IEM_DS3505
ZHHH,2008-04-21 20:00,ZHHH 212000Z AUTO 36004KT 6SM 14/13 A3009 RMK T01400130 IEM_DS3505
ZHHH,2008-04-21 21:00,ZHHH 212100Z AUTO 36002KT 7SM 15/12 A3012 RMK 70000 SLP198 T01510117 52001 IEM_DS3505
ZHHH,2008-04-21 22:00,ZHHH 212200Z AUTO 01004KT 3SM 14/13 A3012 RMK T01400130 IEM_DS3505
ZHHH,2008-04-21 23:00,ZHHH 212300Z AUTO 35004KT 3SM 14/13 A3015 RMK T01400130 IEM_DS3505
ZHHH,2008-04-22 00:00,ZHHH 220000Z AUTO 07002KT 9SM 16/12 A3015 RMK 70000 SLP211 T01640122 52013 IEM_DS3505
ZHHH,2008-04-22 01:00,ZHHH 220100Z AUTO 01006KT 3SM 17/13 A3018 RMK T01700130 IEM_DS3505
ZHHH,2008-04-22 02:00,ZHHH 220200Z AUTO 35006KT 3SM 17/12 A3018 RMK T01700120 IEM_DS3505
ZHHH,2008-04-22 03:00,ZHHH 220300Z AUTO 32006KT 11SM 19/11 A3015 RMK SLP215 T01860107 52004 IEM_DS3505
ZHHH,2008-04-22 04:00,ZHHH 220400Z AUTO 35004KT 4SM 19/12 A3015 RMK T01900120 IEM_DS3505
ZHHH,2008-04-22 05:00,ZHHH 220500Z AUTO 34006KT 7SM 19/13 A3012 RMK T01900130 IEM_DS3505
ZHHH,2008-04-22 06:00,ZHHH 220600Z AUTO 29002KT 11SM 20/11 A3012 RMK SLP201 T01960106 57014 IEM_DS3505
ZHHH,2008-04-22 07:00,ZHHH 220700Z AUTO 35006KT 7SM 21/13 A3009 RMK T02100130 IEM_DS3505
ZHHH,2008-04-22 08:00,ZHHH 220800Z AUTO 36008KT 7SM 21/13 A3009 RMK T02100130 IEM_DS3505
ZHHH,2008-04-22 09:00,ZHHH 220900Z AUTO 02006KT 9SM 21/10 A3009 RMK SLP193 T02100099 57008 IEM_DS3505
ZHHH,2008-04-22 10:00,ZHHH 221000Z AUTO 03004KT 7SM 20/13 A3012 RMK T02000130 IEM_DS3505
ZHHH,2008-04-22 11:00,ZHHH 221100Z AUTO 05006KT 7SM 19/13 A3012 RMK T01900130 IEM_DS3505
ZHHH,2008-04-22 12:00,ZHHH 221200Z AUTO 07002KT 9SM 19/11 A3015 RMK SLP211 T01880106 52018 IEM_DS3505
ZHHH,2008-04-22 13:00,ZHHH 221300Z AUTO 05006KT 6SM 17/12 A3018 RMK T01700120 IEM_DS3505
ZHHH,2008-04-22 14:00,ZHHH 221400Z AUTO 04004KT 6SM 16/11 A3021 RMK T01600110 IEM_DS3505
ZHHH,2008-04-22 15:00,ZHHH 221500Z AUTO 04004KT 11SM 17/09 A3024 RMK SLP240 T01690088 52029 IEM_DS3505
ZHHH,2008-04-22 16:00,ZHHH 221600Z AUTO 03004KT 6SM 15/11 A3024 RMK T01500110 IEM_DS3505
ZHHH,2008-04-22 17:00,ZHHH 221700Z AUTO 32002KT 6SM 14/11 A3024 RMK T01400110 IEM_DS3505
ZHHH,2008-04-22 18:00,ZHHH 221800Z AUTO 34002KT 11SM 15/11 A3024 RMK SLP237 T01510111 57003 IEM_DS3505
ZHHH,2008-04-22 19:00,ZHHH 221900Z AUTO 01004KT 6SM 14/11 A3024 RMK T01400110 IEM_DS3505
ZHHH,2008-04-22 20:00,ZHHH 222000Z AUTO 35004KT 6SM 13/11 A3024 RMK T01300110 IEM_DS3505
ZHHH,2008-04-22 21:00,ZHHH 222100Z AUTO 29002KT 11SM 15/09 A3024 RMK SLP243 T01510088 52006 IEM_DS3505
ZHHH,2008-04-22 22:00,ZHHH 222200Z AUTO 36002KT 6SM 13/10 A3027 RMK T01300100 IEM_DS3505
ZHHH,2008-04-22 23:00,ZHHH 222300Z AUTO 6SM 14/10 A3027 RMK T01400100 IEM_DS3505
ZHHH,2008-04-23 00:00,ZHHH 230000Z AUTO 34004KT 11SM 16/06 A3030 RMK SLP256 T01640062 52013 IEM_DS3505
ZHHH,2008-04-23 01:00,ZHHH 230100Z AUTO 03014G23KT 6SM 16/07 A3030 RMK T01600070 IEM_DS3505
ZHHH,2008-04-23 02:00,ZHHH 230200Z AUTO 05016KT 6SM 17/05 A3030 RMK T01700050 IEM_DS3505
ZHHH,2008-04-23 03:00,ZHHH 230300Z AUTO 02006KT 12SM 19/04 A3030 RMK SLP258 T01930043 52002 IEM_DS3505
ZHHH,2008-04-23 04:00,ZHHH 230400Z AUTO 05010KT 6SM 20/05 A3027 RMK T02000050 IEM_DS3505
ZHHH,2008-04-23 05:00,ZHHH 230500Z AUTO 03010KT 6SM 21/04 A3024 RMK T02100040 IEM_DS3505
ZHHH,2008-04-23 06:00,ZHHH 230600Z AUTO 34004KT 12SM 21/00 A3024 RMK SLP236 T02090002 57022 IEM_DS3505
ZHHH,2008-04-23 07:00,ZHHH 230700Z AUTO 04008KT 6SM 21/04 A3021 RMK T02100040 IEM_DS3505
ZHHH,2008-04-23 08:00,ZHHH 230800Z AUTO 04008KT 6SM 21/03 A3018 RMK T02100030 IEM_DS3505
ZHHH,2008-04-23 09:00,ZHHH 230900Z AUTO 34002KT 14SM 21/01 A3018 RMK SLP215 T02120010 57021 IEM_DS3505
ZHHH,2008-04-23 10:00,ZHHH 231000Z AUTO 06010KT 6SM 19/04 A3018 RMK T01900040 IEM_DS3505
ZHHH,2008-04-23 11:00,ZHHH 231100Z AUTO 08008KT 6SM 17/05 A3018 RMK T01700050 IEM_DS3505
ZHHH,2008-04-23 12:00,ZHHH 231200Z AUTO 11002KT 9SM 17/02 A3021 RMK SLP226 T01740022 52011 IEM_DS3505
ZHHH,2008-04-23 14:00,ZHHH 231400Z AUTO 09008KT 6SM 15/07 A3024 RMK T01500070 IEM_DS3505
ZHHH,2008-04-23 15:00,ZHHH 231500Z AUTO 00000KT 11SM 15/05 A3024 RMK SLP239 T01520054 52013 IEM_DS3505
ZHHH,2008-04-23 16:00,ZHHH 231600Z AUTO 10004KT 6SM 14/06 A3024 RMK T01400060 IEM_DS3505
ZHHH,2008-04-23 17:00,ZHHH 231700Z AUTO 06002KT 6SM 14/06 A3021 RMK T01400060 IEM_DS3505
ZHHH,2008-04-23 18:00,ZHHH 231800Z AUTO 09002KT 14SM 13/07 A3018 RMK SLP224 T01290067 57015 IEM_DS3505
ZHHH,2008-04-23 19:00,ZHHH 231900Z AUTO 11006KT 6SM 12/07 A3018 RMK T01200070 IEM_DS3505
ZHHH,2008-04-23 20:00,ZHHH 232000Z AUTO 10008KT 6SM 11/08 A3018 RMK T01100080 IEM_DS3505
ZHHH,2008-04-23 21:00,ZHHH 232100Z AUTO 11002KT 12SM 13/08 A3018 RMK SLP218 T01300081 57006 IEM_DS3505
ZHHH,2008-04-23 22:00,ZHHH 232200Z AUTO 11008KT 6SM 11/09 A3018 RMK T01100090 IEM_DS3505
ZHHH,2008-04-23 23:00,ZHHH 232300Z AUTO 12006KT 4SM 12/11 A3021 RMK T01200110 IEM_DS3505
ZHHH,2008-04-24 00:00,ZHHH 240000Z AUTO 14008KT 6SM 15/10 A3021 RMK T01500100 IEM_DS3505
ZHHH,2008-04-24 01:00,ZHHH 240100Z AUTO 16008KT 6SM 17/09 A3021 RMK T01700090 IEM_DS3505
ZHHH,2008-04-24 02:00,ZHHH 240200Z AUTO 20008KT 6SM 19/07 A3021 RMK T01900070 IEM_DS3505
ZHHH,2008-04-24 03:00,ZHHH 240300Z AUTO 18004KT 11SM 21/05 A3018 RMK SLP223 T02110046 57007 IEM_DS3505
ZHHH,2008-04-24 04:00,ZHHH 240400Z AUTO 21010KT 6SM 22/08 A3015 RMK T02200080 IEM_DS3505
ZHHH,2008-04-24 05:00,ZHHH 240500Z AUTO 19008KT 6SM 23/07 A3012 RMK T02300070 IEM_DS3505
ZHHH,2008-04-24 06:00,ZHHH 240600Z AUTO 22004KT 16SM 24/02 A3009 RMK SLP189 T02360024 57034 IEM_DS3505
ZHHH,2008-04-24 07:00,ZHHH 240700Z AUTO 24010KT 6SM 24/06 A3006 RMK T02400060 IEM_DS3505
ZHHH,2008-04-24 08:00,ZHHH 240800Z AUTO 22010KT 6SM 23/08 A3003 RMK T02300080 IEM_DS3505
ZHHH,2008-04-24 09:00,ZHHH 240900Z AUTO 22004KT 12SM 22/05 A3000 RMK SLP165 T02230048 57024 IEM_DS3505
ZHHH,2008-04-24 10:00,ZHHH 241000Z AUTO 18008KT 6SM 21/10 A3000 RMK T02100100 IEM_DS3505
ZHHH,2008-04-24 11:00,ZHHH 241100Z AUTO 20002KT 6SM 20/11 A3003 RMK T02000110 IEM_DS3505
ZHHH,2008-04-24 12:00,ZHHH 241200Z AUTO 25002KT 11SM 20/09 RMK SLP172 T01980094 52007 IEM_DS3505
ZHHH,2008-04-24 13:00,ZHHH 241300Z AUTO 21004KT 6SM 20/11 A3006 RMK T02000110 IEM_DS3505
ZHHH,2008-04-24 14:00,ZHHH 241400Z AUTO 16004KT 6SM 19/11 A3006 RMK T01900110 IEM_DS3505
ZHHH,2008-04-24 15:00,ZHHH 241500Z AUTO 11002KT 11SM 18/10 A3006 RMK SLP183 T01780104 52011 IEM_DS3505
ZHHH,2008-04-24 17:00,ZHHH 241700Z AUTO 14006KT 3SM 17/13 A3003 RMK T01700130 IEM_DS3505
ZHHH,2008-04-24 18:00,ZHHH 241800Z AUTO 07002KT 11SM 17/12 A3003 RMK SLP169 T01660117 57014 IEM_DS3505
ZHHH,2008-04-24 19:00,ZHHH 241900Z AUTO 19006KT 4SM 16/11 A3000 RMK T01600110 IEM_DS3505
ZHHH,2008-04-24 20:00,ZHHH 242000Z AUTO 18006KT 4SM 16/13 A3000 RMK T01600130 IEM_DS3505
ZHHH,2008-04-24 21:00,ZHHH 242100Z AUTO 18002KT 11SM 16/11 A3000 RMK SLP155 T01650114 57014 IEM_DS3505
ZHHH,2008-04-24 22:00,ZHHH 242200Z AUTO 15004KT 4SM 16/12 A3000 RMK T01600120 IEM_DS3505
ZHHH,2008-04-24 23:00,ZHHH 242300Z AUTO 17004KT 6SM 17/13 A3000 RMK T01700130 IEM_DS3505
ZHHH,2008-04-25 00:00,ZHHH 250000Z AUTO 22004KT 17SM 20/11 A3000 RMK SLP163 T01950113 52008 IEM_DS3505
ZHHH,2008-04-25 01:00,ZHHH 250100Z AUTO 23010KT 6SM 20/14 A3000 RMK T02000140 IEM_DS3505
ZHHH,2008-04-25 02:00,ZHHH 250200Z AUTO 24010KT 6SM 23/15 A3000 RMK T02300150 IEM_DS3505
ZHHH,2008-04-25 03:00,ZHHH 250300Z AUTO 25006KT 16SM 26/11 A3000 RMK SLP155 T02560114 57007 IEM_DS3505
ZHHH,2008-04-25 04:00,ZHHH 250400Z AUTO 25012KT 6SM 26/15 A2997 RMK T02600150 IEM_DS3505
ZHHH,2008-04-25 05:00,ZHHH 250500Z AUTO 24012KT 6SM 27/15 A2994 RMK T02700150 IEM_DS3505
ZHHH,2008-04-25 06:00,ZHHH 250600Z AUTO 20006KT 16SM 27/12 A2991 RMK SLP129 T02710123 57026 IEM_DS3505
ZHHH,2008-04-25 07:00,ZHHH 250700Z AUTO 25010KT 6SM 28/15 A2988 RMK T02800150 IEM_DS3505
ZHHH,2008-04-25 08:00,ZHHH 250800Z AUTO 24012KT 6SM 28/15 A2985 RMK T02800150 IEM_DS3505
ZHHH,2008-04-25 09:00,ZHHH 250900Z AUTO 22004KT 14SM 28/12 A2985 RMK SLP110 T02820121 57019 IEM_DS3505
ZHHH,2008-04-25 10:00,ZHHH 251000Z AUTO 23006KT 6SM 27/16 A2985 RMK T02700160 IEM_DS3505
ZHHH,2008-04-25 11:00,ZHHH 251100Z AUTO 23006KT 6SM 25/17 A2985 RMK T02500170 IEM_DS3505
ZHHH,2008-04-25 12:00,ZHHH 251200Z AUTO 18004KT 11SM 23/16 A2988 RMK SLP119 T02320160 52009 IEM_DS3505
ZHHH,2008-04-25 13:00,ZHHH 251300Z AUTO 17002KT 6SM 22/18 A2991 RMK T02200180 IEM_DS3505
ZHHH,2008-04-25 14:00,ZHHH 251400Z AUTO 19002KT 6SM 22/18 A2991 RMK T02200180 IEM_DS3505
ZHHH,2008-04-25 15:00,ZHHH 251500Z AUTO 29002KT 9SM 20/16 A2994 RMK SLP133 T01960157 52014 IEM_DS3505
ZHHH,2008-04-25 16:00,ZHHH 251600Z AUTO 6SM 20/18 A2994 RMK T02000180 IEM_DS3505
ZHHH,2008-04-25 17:00,ZHHH 251700Z AUTO 09004KT 6SM 19/17 A2994 RMK T01900170 IEM_DS3505
ZHHH,2008-04-25 18:00,ZHHH 251800Z AUTO 09002KT 9SM 18/15 A2991 RMK SLP133 T01840149 54000 IEM_DS3505
ZHHH,2008-04-25 19:00,ZHHH 251900Z AUTO 14004KT 3SM 18/17 A2991 RMK T01800170 IEM_DS3505
ZHHH,2008-04-25 20:00,ZHHH 252000Z AUTO 07006KT 2 1/2SM 17/16 A2994 RMK T01700160 IEM_DS3505
ZHHH,2008-04-25 21:00,ZHHH 252100Z AUTO 07002KT 9SM 18/15 A2994 RMK SLP139 T01780149 52006 IEM_DS3505
ZHHH,2008-04-25 22:00,ZHHH 252200Z AUTO 08008KT 1 1/4SM 16/16 A2997 RMK T01600160 IEM_DS3505
ZHHH,2008-04-25 23:00,ZHHH 252300Z AUTO 10010KT 2SM 17/17 A2997 RMK T01700170 IEM_DS3505
ZHHH,2008-04-26 00:00,ZHHH 260000Z AUTO 07002KT 12SM 22/16 A2997 RMK SLP153 T02150156 52014 IEM_DS3505
ZHHH,2008-04-26 01:00,ZHHH 260100Z AUTO 12008KT 4SM 22/17 A3000 RMK T02200170 IEM_DS3505
ZHHH,2008-04-26 02:00,ZHHH 260200Z AUTO 12008KT 6SM 24/17 A3000 RMK T02400170 IEM_DS3505
ZHHH,2008-04-26 03:00,ZHHH 260300Z AUTO 14008KT 16SM 27/10 A2997 RMK SLP152 T02710099 57001 IEM_DS3505
ZHHH,2008-04-26 04:00,ZHHH 260400Z AUTO 21010KT 6SM 29/14 A2997 RMK T02900140 IEM_DS3505
ZHHH,2008-04-26 05:00,ZHHH 260500Z AUTO 21008KT 6SM 29/15 A2994 RMK T02900150 IEM_DS3505
ZHHH,2008-04-26 06:00,ZHHH 260600Z AUTO 22004KT 14SM 29/13 A2991 RMK SLP129 T02930127 57023 IEM_DS3505
ZHHH,2008-04-26 07:00,ZHHH 260700Z AUTO 21010KT 6SM 29/16 A2988 RMK T02900160 IEM_DS3505
ZHHH,2008-04-26 08:00,ZHHH 260800Z AUTO 22008KT 6SM 30/14 A2985 RMK T03000140 IEM_DS3505
ZHHH,2008-04-26 09:00,ZHHH 260900Z AUTO 20004KT 12SM 30/10 A2985 RMK SLP107 T03010096 57022 IEM_DS3505
ZHHH,2008-04-26 10:00,ZHHH 261000Z AUTO 23008KT 6SM 28/13 A2985 RMK T02800130 IEM_DS3505
ZHHH,2008-04-26 11:00,ZHHH 261100Z AUTO 22006KT 6SM 26/15 A2985 RMK T02600150 IEM_DS3505
ZHHH,2008-04-26 12:00,ZHHH 261200Z AUTO 18002KT 11SM 25/14 A2985 RMK SLP112 T02520144 52005 IEM_DS3505
ZHHH,2008-04-26 13:00,ZHHH 261300Z AUTO 18004KT 6SM 24/16 A2988 RMK T02400160 IEM_DS3505
ZHHH,2008-04-26 14:00,ZHHH 261400Z AUTO 18004KT 6SM 24/16 A2988 RMK T02400160 IEM_DS3505
ZHHH,2008-04-26 15:00,ZHHH 261500Z AUTO 09002KT 11SM 22/16 A2988 RMK SLP121 T02200161 52009 IEM_DS3505
ZHHH,2008-04-26 16:00,ZHHH 261600Z AUTO 17004KT 6SM 23/16 A2988 RMK T02300160 IEM_DS3505
ZHHH,2008-04-26 17:00,ZHHH 261700Z AUTO 21004KT 6SM 22/17 A2988 RMK T02200170 IEM_DS3505
ZHHH,2008-04-26 18:00,ZHHH 261800Z AUTO 00000KT 9SM 21/17 A2985 RMK SLP110 T02070169 57011 IEM_DS3505
ZHHH,2008-04-26 19:00,ZHHH 261900Z AUTO 00000KT 6SM 20/17 A2985 RMK T02000170 IEM_DS3505
ZHHH,2008-04-26 20:00,ZHHH 262000Z AUTO 00000KT 6SM 20/17 A2985 RMK T02000170 IEM_DS3505
ZHHH,2008-04-26 21:00,ZHHH 262100Z AUTO 16002KT 9SM 19/17 A2985 RMK SLP105 T01920168 57005 IEM_DS3505
ZHHH,2008-04-26 22:00,ZHHH 262200Z AUTO 2 1/2SM 19/17 A2985 RMK T01900170 IEM_DS3505
ZHHH,2008-04-26 23:00,ZHHH 262300Z AUTO 16004KT 1SM 20/18 A2988 RMK T02000180 IEM_DS3505
ZHHH,2008-04-27 00:00,ZHHH 270000Z AUTO 14002KT 11SM 22/16 A2988 RMK SLP120 T02210162 52015 IEM_DS3505
ZHHH,2008-04-27 01:00,ZHHH 270100Z AUTO 3SM 24/16 A2991 RMK T02400160 IEM_DS3505
ZHHH,2008-04-27 02:00,ZHHH 270200Z AUTO 3SM 25/17 A2988 RMK T02500170 IEM_DS3505
ZHHH,2008-04-27 03:00,ZHHH 270300Z AUTO 25004KT 12SM 27/10 A2988 RMK SLP122 T02690102 52002 IEM_DS3505
ZHHH,2008-04-27 04:00,ZHHH 270400Z AUTO 32004KT 7SM 27/16 A2988 RMK T02700160 IEM_DS3505
ZHHH,2008-04-27 05:00,ZHHH 270500Z AUTO 36004KT 7SM 27/14 A2985 RMK T02700140 IEM_DS3505
ZHHH,2008-04-27 06:00,ZHHH 270600Z AUTO 07002KT 12SM 29/10 A2985 RMK SLP106 T02880105 57016 IEM_DS3505
ZHHH,2008-04-27 07:00,ZHHH 270700Z AUTO 32004KT 6SM 28/14 A2985 RMK T02800140 IEM_DS3505
ZHHH,2008-04-27 08:00,ZHHH 270800Z AUTO 04010KT 6SM 26/16 A2985 RMK T02600160 IEM_DS3505
ZHHH,2008-04-27 09:00,ZHHH 270900Z AUTO 09004KT 12SM 27/13 A2985 RMK SLP108 T02680128 52002 IEM_DS3505
ZHHH,2008-04-27 10:00,ZHHH 271000Z AUTO 04010KT 6SM 24/16 A2988 RMK T02400160 IEM_DS3505
ZHHH,2008-04-27 11:00,ZHHH 271100Z AUTO 03010KT 6SM 23/16 A2991 RMK T02300160 IEM_DS3505
ZHHH,2008-04-27 12:00,ZHHH 271200Z AUTO 02006KT 11SM 22/14 A2994 RMK SLP137 T02250144 52029 IEM_DS3505
ZHHH,2008-04-27 13:00,ZHHH 271300Z AUTO 04010KT 6SM 20/16 A2994 RMK T02000160 IEM_DS3505
ZHHH,2008-04-27 14:00,ZHHH 271400Z AUTO 02006KT 6SM 20/16 A2997 RMK T02000160 IEM_DS3505
ZHHH,2008-04-27 15:00,ZHHH 271500Z AUTO 36004KT 9SM 20/14 A2997 RMK SLP152 T02010142 52015 IEM_DS3505
ZHHH,2008-04-27 16:00,ZHHH 271600Z AUTO 03006KT 4SM 18/15 A2997 RMK T01800150 IEM_DS3505
ZHHH,2008-04-27 17:00,ZHHH 271700Z AUTO 02006KT 4SM 18/14 A2997 RMK T01800140 IEM_DS3505
ZHHH,2008-04-27 18:00,ZHHH 271800Z AUTO 02002KT 9SM 18/13 A2997 RMK SLP148 T01820131 57004 IEM_DS3505
ZHHH,2008-04-27 19:00,ZHHH 271900Z AUTO 03008KT 3SM 17/14 A2997 RMK T01700140 IEM_DS3505
ZHHH,2008-04-27 20:00,ZHHH 272000Z AUTO 02006KT 3SM 16/13 A2997 RMK T01600130 IEM_DS3505
ZHHH,2008-04-27 21:00,ZHHH 272100Z AUTO 27002KT 9SM 16/13 A2997 RMK SLP154 T01620131 52006 IEM_DS3505
ZHHH,2008-04-27 22:00,ZHHH 272200Z AUTO 34004KT 2SM 14/12 A3000 RMK T01400120 IEM_DS3505
ZHHH,2008-04-27 23:00,ZHHH 272300Z AUTO 02004KT 2 1/2SM 14/12 A3000 RMK T01400120 IEM_DS3505
ZHHH,2008-04-28 00:00,ZHHH 280000Z AUTO 32004KT 12SM 17/10 A3003 RMK SLP165 T01680104 52010 IEM_DS3505
ZHHH,2008-04-28 01:00,ZHHH 280100Z AUTO 01004KT 2 1/2SM 19/14 A3003 RMK T01900140 IEM_DS3505
ZHHH,2008-04-28 02:00,ZHHH 280200Z AUTO 03004KT 1SM 22/13 A3000 RMK T02200130 IEM_DS3505
ZHHH,2008-04-28 03:00,ZHHH 280300Z AUTO 18002KT 16SM 23/11 A3000 RMK SLP163 T02340108 57001 IEM_DS3505
ZHHH,2008-04-28 04:00,ZHHH 280400Z AUTO 6SM 25/13 A2997 RMK T02500130 IEM_DS3505
ZHHH,2008-04-28 05:00,ZHHH 280500Z AUTO 23006KT 6SM 26/14 A2997 RMK T02600140 IEM_DS3505
ZHHH,2008-04-28 06:00,ZHHH 280600Z AUTO 32004KT 12SM 27/11 A2994 RMK SLP136 T02710112 57027 IEM_DS3505
ZHHH,2008-04-28 07:00,ZHHH 280700Z AUTO 6SM 27/11 A2991 RMK T02700110 IEM_DS3505
ZHHH,2008-04-28 08:00,ZHHH 280800Z AUTO 26004KT 6SM 28/09 A2988 RMK T02800090 IEM_DS3505
ZHHH,2008-04-28 09:00,ZHHH 280900Z AUTO 00000KT 12SM 28/08 A2985 RMK SLP111 T02830075 57025 IEM_DS3505
ZHHH,2008-04-28 10:00,ZHHH 281000Z AUTO 10004KT 6SM 26/11 A2985 RMK T02600110 IEM_DS3505
ZHHH,2008-04-28 11:00,ZHHH 281100Z AUTO 6SM 25/09 A2985 RMK T02500090 IEM_DS3505
ZHHH,2008-04-28 12:00,ZHHH 281200Z AUTO 18002KT 12SM 23/07 A2985 RMK SLP113 T02320073 52002 IEM_DS3505
ZHHH,2008-04-28 13:00,ZHHH 281300Z AUTO 22004KT 6SM 23/13 A2988 RMK T02300130 IEM_DS3505
ZHHH,2008-04-28 14:00,ZHHH 281400Z AUTO 00000KT 6SM 22/12 A2991 RMK T02200120 IEM_DS3505
ZHHH,2008-04-28 15:00,ZHHH 281500Z AUTO 00000KT 11SM 18/12 A2991 RMK SLP124 T01820122 52011 IEM_DS3505
ZHHH,2008-04-28 16:00,ZHHH 281600Z AUTO 07002KT 6SM 20/13 A2988 RMK T02000130 IEM_DS3505
ZHHH,2008-04-28 17:00,ZHHH 281700Z AUTO 11006KT 6SM 19/13 A2988 RMK T01900130 IEM_DS3505
ZHHH,2008-04-28 18:00,ZHHH 281800Z AUTO 09002KT 9SM 17/12 A2985 RMK SLP112 T01730120 57012 IEM_DS3505
ZHHH,2008-04-28 19:00,ZHHH 281900Z AUTO 11008KT 3SM 17/15 A2985 RMK T01700150 IEM_DS3505
ZHHH,2008-04-28 20:00,ZHHH 282000Z AUTO 11008KT 3SM 17/15 A2985 RMK T01700150 IEM_DS3505
ZHHH,2008-04-28 21:00,ZHHH 282100Z AUTO 00000KT 9SM 17/14 A2985 RMK SLP113 T01700135 52001 IEM_DS3505
ZHHH,2008-04-28 22:00,ZHHH 282200Z AUTO 11010KT 1 1/4SM 16/15 A2988 RMK T01600150 IEM_DS3505
ZHHH,2008-04-28 23:00,ZHHH 282300Z AUTO 12010KT 1 1/4SM 17/15 A2988 RMK T01700150 IEM_DS3505
ZHHH,2008-04-29 00:00,ZHHH 290000Z AUTO 11004KT 11SM 22/11 A2988 RMK SLP123 T02230114 52010 IEM_DS3505
ZHHH,2008-04-29 01:00,ZHHH 290100Z AUTO 14008KT 2SM 22/16 A2988 RMK T02200160 IEM_DS3505
ZHHH,2008-04-29 02:00,ZHHH 290200Z AUTO 15006KT 2 1/2SM 24/14 A2991 RMK T02400140 IEM_DS3505
ZHHH,2008-04-29 03:00,ZHHH 290300Z AUTO 22004KT 11SM 27/12 A2988 RMK SLP120 T02720117 57003 IEM_DS3505
ZHHH,2008-04-29 04:00,ZHHH 290400Z AUTO 19004KT 3SM 28/15 A2985 RMK T02800150 IEM_DS3505
ZHHH,2008-04-29 05:00,ZHHH 290500Z AUTO 21006KT 4SM 29/14 A2985 RMK T02900140 IEM_DS3505
ZHHH,2008-04-29 06:00,ZHHH 290600Z AUTO 22004KT 12SM 30/10 A2983 RMK SLP096 T03010096 57024 IEM_DS3505
ZHHH,2008-04-29 07:00,ZHHH 290700Z AUTO 20006KT 6SM 30/13 A2980 RMK T03000130 IEM_DS3505
ZHHH,2008-04-29 08:00,ZHHH 290800Z AUTO 21008KT 6SM 30/09 A2977 RMK T03000090 IEM_DS3505
ZHHH,2008-04-29 09:00,ZHHH 290900Z AUTO 20004KT 11SM 29/09 A2977 RMK SLP081 T02930089 57015 IEM_DS3505
ZHHH,2008-04-29 10:00,ZHHH 291000Z AUTO 22004KT 6SM 28/11 A2977 RMK T02800110 IEM_DS3505
ZHHH,2008-04-29 11:00,ZHHH 291100Z AUTO 16004KT 6SM 27/14 A2977 RMK T02700140 IEM_DS3505
ZHHH,2008-04-29 12:00,ZHHH 291200Z AUTO 09002KT 9SM 26/11 A2980 RMK SLP088 T02640110 52007 IEM_DS3505
ZHHH,2008-04-29 13:00,ZHHH 291300Z AUTO 14006KT 6SM 26/14 A2980 RMK T02600140 IEM_DS3505
ZHHH,2008-04-29 14:00,ZHHH 291400Z AUTO 13006KT 6SM 25/17 A2980 RMK T02500170 IEM_DS3505
ZHHH,2008-04-29 15:00,ZHHH 291500Z AUTO 14002KT 9SM 25/14 A2980 RMK SLP091 T02540145 52003 IEM_DS3505
ZHHH,2008-04-29 16:00,ZHHH 291600Z AUTO 12006KT 4SM 24/18 A2980 RMK T02400180 IEM_DS3505
ZHHH,2008-04-29 17:00,ZHHH 291700Z AUTO 12004KT 3SM 23/18 A2977 RMK T02300180 IEM_DS3505
ZHHH,2008-04-29 18:00,ZHHH 291800Z AUTO 11002KT 9SM 24/15 A2977 RMK SLP076 T02440151 57015 IEM_DS3505
ZHHH,2008-04-29 19:00,ZHHH 291900Z AUTO 14004KT 3SM 23/18 A2974 RMK T02300180 IEM_DS3505
ZHHH,2008-04-29 20:00,ZHHH 292000Z AUTO 17002KT 3SM 22/19 A2977 RMK T02200190 IEM_DS3505
ZHHH,2008-04-29 21:00,ZHHH 292100Z AUTO 11002KT 9SM 23/18 A2977 RMK 70000 SLP075 T02270176 57001 IEM_DS3505
ZHHH,2008-04-29 22:00,ZHHH 292200Z AUTO 15004KT 3SM 22/18 A2977 RMK T02200180 IEM_DS3505
ZHHH,2008-04-29 23:00,ZHHH 292300Z AUTO 11006KT 1 1/2SM 21/18 A2977 RMK T02100180 IEM_DS3505
ZHHH,2008-04-30 00:00,ZHHH 300000Z AUTO 00000KT 9SM 24/17 A2977 RMK 60000 70000 SLP084 T02370167 52009 IEM_DS3505
ZHHH,2008-04-30 01:00,ZHHH 300100Z AUTO 14006KT 1SM 23/20 A2980 RMK T02300200 IEM_DS3505
ZHHH,2008-04-30 02:00,ZHHH 300200Z AUTO 19008KT 1SM 25/21 A2980 RMK T02500210 IEM_DS3505
ZHHH,2008-04-30 03:00,ZHHH 300300Z AUTO 22004KT 12SM 28/16 A2980 RMK SLP084 T02770160 54000 IEM_DS3505
ZHHH,2008-04-30 04:00,ZHHH 300400Z AUTO 22010KT 6SM 28/18 A2977 RMK T02800180 IEM_DS3505
ZHHH,2008-04-30 05:00,ZHHH 300500Z AUTO 19014KT 6SM 29/19 A2974 RMK T02900190 IEM_DS3505
ZHHH,2008-04-30 06:00,ZHHH 300600Z AUTO 14006KT 12SM 29/16 A2971 RMK SLP059 T02940159 57025 IEM_DS3505
ZHHH,2008-04-30 07:00,ZHHH 300700Z AUTO 24010KT 7SM 29/19 A2968 RMK T02900190 IEM_DS3505
ZHHH,2008-04-30 08:00,ZHHH 300800Z AUTO 25006KT 6SM 29/19 A2968 RMK T02900190 IEM_DS3505
ZHHH,2008-04-30 09:00,ZHHH 300900Z AUTO 18004KT 12SM 29/16 A2968 RMK SLP049 T02930165 57010 IEM_DS3505
ZHHH,2008-04-30 10:00,ZHHH 301000Z AUTO 23006KT 6SM 28/19 A2968 RMK T02800190 IEM_DS3505
ZHHH,2008-04-30 11:00,ZHHH 301100Z AUTO 22004KT 6SM 27/20 A2971 RMK T02700200 IEM_DS3505
ZHHH,2008-04-30 12:00,ZHHH 301200Z AUTO 16002KT 9SM 26/18 A2971 RMK SLP060 T02640175 52011 IEM_DS3505
ZHHH,2008-04-30 13:00,ZHHH 301300Z AUTO 17004KT 6SM 25/20 A2974 RMK T02500200 IEM_DS3505
ZHHH,2008-04-30 14:00,ZHHH 301400Z AUTO 18004KT 4SM 25/20 A2974 RMK T02500200 IEM_DS3505
ZHHH,2008-04-30 15:00,ZHHH 301500Z AUTO 11002KT 9SM 24/19 A2974 RMK SLP072 T02350186 52012 IEM_DS3505
ZHHH,2008-04-30 16:00,ZHHH 301600Z AUTO 4SM 24/20 A2974 RMK T02400200 IEM_DS3505
ZHHH,2008-04-30 17:00,ZHHH 301700Z AUTO 08002KT 2 1/2SM 22/20 A2974 RMK T02200200 IEM_DS3505
ZHHH,2008-04-30 18:00,ZHHH 301800Z AUTO 14002KT 9SM 23/19 A2974 RMK SLP068 T02290189 57004 IEM_DS3505
ZHHH,2008-04-30 19:00,ZHHH 301900Z AUTO 13004KT 2 1/2SM 22/20 A2971 RMK T02200200 IEM_DS3505
ZHHH,2008-04-30 20:00,ZHHH 302000Z AUTO 07004KT 1 1/4SM 21/20 A2971 RMK T02100200 IEM_DS3505
ZHHH,2008-04-30 21:00,ZHHH 302100Z AUTO 11002KT 9SM 22/19 A2974 RMK 70000 SLP065 T02210189 57003 IEM_DS3505
ZHHH,2008-04-30 22:00,ZHHH 302200Z AUTO 12006KT 1SM 20/20 A2974 RMK T02000200 IEM_DS3505
ZHHH,2008-04-30 23:00,ZHHH 302300Z AUTO 12006KT 1SM 21/21 A2977 RMK T02100210 IEM_DS3505
ZHHH,2008-05-01 00:00,ZHHH 010000Z AUTO 20002KT 9SM 24/19 A2977 RMK SLP080 T02440188 52015 IEM_DS3505
ZHHH,2008-05-01 01:00,ZHHH 010100Z AUTO 12008KT 1 1/4SM 25/22 A2977 RMK T02500220 IEM_DS3505
ZHHH,2008-05-01 02:00,ZHHH 010200Z AUTO 12008KT 2SM 26/22 A2977 RMK T02600220 IEM_DS3505
ZHHH,2008-05-01 03:00,ZHHH 010300Z AUTO 14004KT 11SM 29/19 A2977 RMK SLP077 T02890192 57003 IEM_DS3505
ZHHH,2008-05-01 04:00,ZHHH 010400Z AUTO 3SM 29/22 A2974 RMK T02900220 IEM_DS3505
ZHHH,2008-05-01 05:00,ZHHH 010500Z AUTO 12008KT 3SM 30/22 A2971 RMK T03000220 IEM_DS3505
ZHHH,2008-05-01 06:00,ZHHH 010600Z AUTO 11002KT 12SM 31/18 A2971 RMK SLP054 T03120182 57023 IEM_DS3505
ZHHH,2008-05-01 07:00,ZHHH 010700Z AUTO 13008KT 6SM 31/20 A2968 RMK T03100200 IEM_DS3505
ZHHH,2008-05-01 08:00,ZHHH 010800Z AUTO 12010KT 6SM 31/19 A2965 RMK T03100190 IEM_DS3505
ZHHH,2008-05-01 09:00,ZHHH 010900Z AUTO 11004KT 11SM 31/18 A2965 RMK SLP036 T03140177 57018 IEM_DS3505
ZHHH,2008-05-01 10:00,ZHHH 011000Z AUTO 13006KT 6SM 29/21 A2965 RMK T02900210 IEM_DS3505
ZHHH,2008-05-01 11:00,ZHHH 011100Z AUTO 11010KT 5SM 28/20 A2965 RMK T02800200 IEM_DS3505
ZHHH,2008-05-01 12:00,ZHHH 011200Z AUTO 09006KT 11SM 28/16 A2965 RMK SLP043 T02840163 52007 IEM_DS3505
ZHHH,2008-05-01 13:00,ZHHH 011300Z AUTO 13008KT 4SM 26/20 A2968 RMK T02600200 IEM_DS3505
ZHHH,2008-05-01 14:00,ZHHH 011400Z AUTO 14010KT 2 1/2SM 25/21 A2968 RMK T02500210 IEM_DS3505
ZHHH,2008-05-01 15:00,ZHHH 011500Z AUTO 11004KT 11SM 27/18 A2968 RMK SLP050 T02670180 52007 IEM_DS3505
ZHHH,2008-05-01 16:00,ZHHH 011600Z AUTO 13008KT 2 1/2SM 24/20 A2968 RMK T02400200 IEM_DS3505
ZHHH,2008-05-01 17:00,ZHHH 011700Z AUTO 11008KT 2SM 23/20 A2968 RMK T02300200 IEM_DS3505
ZHHH,2008-05-01 18:00,ZHHH 011800Z AUTO 09004KT 11SM 25/18 A2968 RMK SLP045 T02510183 57005 IEM_DS3505
ZHHH,2008-05-01 19:00,ZHHH 011900Z AUTO 11010KT 2SM 22/19 A2968 RMK T02200190 IEM_DS3505
ZHHH,2008-05-01 20:00,ZHHH 012000Z AUTO 12008KT 2SM 22/19 A2968 RMK T02200190 IEM_DS3505
ZHHH,2008-05-01 21:00,ZHHH 012100Z AUTO 11004KT 11SM 24/18 A2968 RMK SLP048 T02410185 52003 IEM_DS3505
ZHHH,2008-05-01 22:00,ZHHH 012200Z AUTO 12008KT 1 1/2SM 21/19 A2971 RMK T02100190 IEM_DS3505
ZHHH,2008-05-01 23:00,ZHHH 012300Z AUTO 12008KT 1 1/2SM 22/19 A2971 RMK T02200190 IEM_DS3505
ZHHH,2008-05-02 00:00,ZHHH 020000Z AUTO 14002KT 11SM 26/18 A2971 RMK SLP061 T02600184 52013 IEM_DS3505
ZHHH,2008-05-02 01:00,ZHHH 020100Z AUTO 14010KT 3SM 26/21 A2974 RMK T02600210 IEM_DS3505
ZHHH,2008-05-02 02:00,ZHHH 020200Z AUTO 14008KT 3SM 28/21 A2971 RMK T02800210 IEM_DS3505
ZHHH,2008-05-02 03:00,ZHHH 020300Z AUTO 18004KT 11SM 31/19 A2971 RMK SLP057 T03100187 57004 IEM_DS3505
ZHHH,2008-05-02 04:00,ZHHH 020400Z AUTO 15008KT 4SM 31/22 A2968 RMK T03100220 IEM_DS3505
ZHHH,2008-05-02 05:00,ZHHH 020500Z AUTO 19010KT 6SM 32/22 A2965 RMK T03200220 IEM_DS3505
ZHHH,2008-05-02 06:00,ZHHH 020600Z AUTO 18004KT 14SM 33/19 A2965 RMK SLP034 T03280189 57022 IEM_DS3505
ZHHH,2008-05-02 07:00,ZHHH 020700Z AUTO 18008KT 6SM 33/22 A2962 RMK T03300220 IEM_DS3505
ZHHH,2008-05-02 08:00,ZHHH 020800Z AUTO 20008KT 6SM 33/22 A2959 RMK T03300220 IEM_DS3505
ZHHH,2008-05-02 09:00,ZHHH 020900Z AUTO 11004KT 12SM 33/18 A2959 RMK SLP013 T03270185 57021 IEM_DS3505
ZHHH,2008-05-02 10:00,ZHHH 021000Z AUTO 11010KT 4SM 30/23 A2959 RMK T03000230 IEM_DS3505
ZHHH,2008-05-02 11:00,ZHHH 021100Z AUTO 12008KT 4SM 29/22 A2959 RMK T02900220 IEM_DS3505
ZHHH,2008-05-02 12:00,ZHHH 021200Z AUTO 09004KT 9SM 30/20 A2959 RMK SLP020 T03020199 52007 IEM_DS3505
ZHHH,2008-05-02 13:00,ZHHH 021300Z AUTO 12008KT 4SM 28/23 A2962 RMK T02800230 IEM_DS3505
ZHHH,2008-05-02 14:00,ZHHH 021400Z AUTO 11008KT 3SM 28/23 A2962 RMK T02800230 IEM_DS3505
ZHHH,2008-05-02 15:00,ZHHH 021500Z AUTO 11004KT 7SM 29/20 A2962 RMK SLP022 T02940203 52002 IEM_DS3505
ZHHH,2008-05-02 16:00,ZHHH 021600Z AUTO 11008KT 3SM 27/23 A2962 RMK T02700230 IEM_DS3505
ZHHH,2008-05-02 17:00,ZHHH 021700Z AUTO 25012G21KT 2 1/2SM 22/22 A2968 RMK T02200220 IEM_DS3505
ZHHH,2008-05-02 18:00,ZHHH 021800Z AUTO 27004KT 9SM 22/21 A2968 RMK 60138 SLP049 T02210206 52026 IEM_DS3505
ZHHH,2008-05-02 19:00,ZHHH 021900Z AUTO 4SM 21/21 A2968 RMK T02100210 IEM_DS3505
ZHHH,2008-05-02 20:00,ZHHH 022000Z AUTO 02010KT 4SM 21/21 A2965 RMK T02100210 IEM_DS3505
ZHHH,2008-05-02 21:00,ZHHH 022100Z AUTO 07002KT 11SM 22/21 A2965 RMK 70181 SLP036 T02220207 57013 IEM_DS3505
ZHHH,2008-05-02 22:00,ZHHH 022200Z AUTO 06006KT 7SM 21/21 A2968 RMK T02100210 IEM_DS3505
ZHHH,2008-05-02 23:00,ZHHH 022300Z AUTO 02004KT 2 1/2SM 21/21 A2968 RMK T02100210 IEM_DS3505
ZHHH,2008-05-03 00:00,ZHHH 030000Z AUTO 07004KT 7SM 22/21 A2968 RMK 60071 70208 SLP045 T02250206 52009 IEM_DS3505
ZHHH,2008-05-03 01:00,ZHHH 030100Z AUTO 08012KT 2 1/2SM 21/21 A2968 RMK T02100210 IEM_DS3505
ZHHH,2008-05-03 02:00,ZHHH 030200Z AUTO 10012KT 1 1/4SM 20/20 A2968 RMK T02000200 IEM_DS3505
ZHHH,2008-05-03 03:00,ZHHH 030300Z AUTO 09002KT 6SM 23/22 A2968 RMK SLP048 T02270217 52003 IEM_DS3505
ZHHH,2008-05-03 04:00,ZHHH 030400Z AUTO 12008KT 1SM 22/22 A2965 RMK T02200220 IEM_DS3505
ZHHH,2008-05-03 05:00,ZHHH 030500Z AUTO 14010KT 1SM 23/23 A2965 RMK T02300230 IEM_DS3505
ZHHH,2008-05-03 06:00,ZHHH 030600Z AUTO 11008KT 7SM 25/22 A2962 RMK 60043 SLP026 T02520223 57022 IEM_DS3505
ZHHH,2008-05-03 07:00,ZHHH 030700Z AUTO 13010KT 1 1/2SM 25/24 A2959 RMK T02500240 IEM_DS3505
ZHHH,2008-05-03 08:00,ZHHH 030800Z AUTO 13008KT 1 1/2SM 25/24 A2959 RMK T02500240 IEM_DS3505
ZHHH,2008-05-03 09:00,ZHHH 030900Z AUTO 11004KT 9SM 26/23 A2956 RMK SLP007 T02620227 57019 IEM_DS3505
ZHHH,2008-05-03 10:00,ZHHH 031000Z AUTO 11010KT 1SM 25/24 A2956 RMK T02500240 IEM_DS3505
ZHHH,2008-05-03 11:00,ZHHH 031100Z AUTO 10012KT 1SM 24/24 A2956 RMK T02400240 IEM_DS3505
ZHHH,2008-05-03 12:00,ZHHH 031200Z AUTO 09006KT 5SM 25/23 A2959 RMK 60031 SLP008 T02460234 52001 IEM_DS3505
ZHHH,2008-05-03 13:00,ZHHH 031300Z AUTO 04014KT 1SM 23/23 A2959 RMK T02300230 IEM_DS3505
ZHHH,2008-05-03 14:00,ZHHH 031400Z AUTO 35016G29KT 1 1/4SM 20/20 A2965 RMK T02000200 IEM_DS3505
ZHHH,2008-05-03 15:00,ZHHH 031500Z AUTO 34008KT 6SM 20/18 A2968 RMK SLP051 T02020183 52043 IEM_DS3505
ZHHH,2008-05-03 16:00,ZHHH 031600Z AUTO 36006KT 6SM 20/20 A2971 RMK T02000200 IEM_DS3505
ZHHH,2008-05-03 17:00,ZHHH 031700Z AUTO 35008KT 7SM 19/19 A2974 RMK T01900190 IEM_DS3505
ZHHH,2008-05-03 18:00,ZHHH 031800Z AUTO 04002KT 7SM 20/16 A2974 RMK 60343 SLP066 T01980164 52015 IEM_DS3505
ZHHH,2008-05-03 19:00,ZHHH 031900Z AUTO 35010KT 7SM 19/18 A2974 RMK T01900180 IEM_DS3505
ZHHH,2008-05-03 20:00,ZHHH 032000Z AUTO 35008KT 7SM 19/17 A2977 RMK T01900170 IEM_DS3505
ZHHH,2008-05-03 21:00,ZHHH 032100Z AUTO 32004KT 7SM 20/16 A2980 RMK 70444 SLP089 T01990163 52023 IEM_DS3505
ZHHH,2008-05-03 22:00,ZHHH 032200Z AUTO 36008KT 7SM 19/17 A2983 RMK T01900170 IEM_DS3505
ZHHH,2008-05-03 23:00,ZHHH 032300Z AUTO 36008KT 7SM 19/16 A2985 RMK T01900160 IEM_DS3505
ZHHH,2008-05-04 00:00,ZHHH 040000Z AUTO 02002KT 11SM 20/15 A2988 RMK 60000 70417 SLP117 T02000146 52028 IEM_DS3505
ZHHH,2008-05-04 01:00,ZHHH 040100Z AUTO 02012KT 6SM 21/13 A2991 RMK T02100130 IEM_DS3505
ZHHH,2008-05-04 02:00,ZHHH 040200Z AUTO 03008KT 6SM 22/13 A2991 RMK T02200130 IEM_DS3505
ZHHH,2008-05-04 03:00,ZHHH 040300Z AUTO 36004G19KT 16SM 22/09 A2991 RMK SLP132 T02230091 52015 IEM_DS3505
ZHHH,2008-05-04 04:00,ZHHH 040400Z AUTO 02010KT 6SM 24/12 A2991 RMK T02400120 IEM_DS3505
ZHHH,2008-05-04 05:00,ZHHH 040500Z AUTO 03012KT 6SM 24/10 A2991 RMK T02400100 IEM_DS3505
ZHHH,2008-05-04 06:00,ZHHH 040600Z AUTO 02008KT 16SM 24/06 A2988 RMK SLP120 T02440062 57012 IEM_DS3505
ZHHH,2008-05-04 07:00,ZHHH 040700Z AUTO 02008KT 6SM 25/11 A2988 RMK T02500110 IEM_DS3505
ZHHH,2008-05-04 08:00,ZHHH 040800Z AUTO 02004KT 6SM 24/12 A2985 RMK T02400120 IEM_DS3505
ZHHH,2008-05-04 09:00,ZHHH 040900Z AUTO 29002KT 12SM 24/10 A2985 RMK SLP109 T02400096 57011 IEM_DS3505
ZHHH,2008-05-04 10:00,ZHHH 041000Z AUTO 6SM 24/14 A2985 RMK T02400140 IEM_DS3505
ZHHH,2008-05-04 11:00,ZHHH 041100Z AUTO 30002KT 6SM 22/15 A2985 RMK T02200150 IEM_DS3505
ZHHH,2008-05-04 12:00,ZHHH 041200Z AUTO 00000KT 12SM 22/14 A2988 RMK SLP119 T02190145 52010 IEM_DS3505
ZHHH,2008-05-04 13:00,ZHHH 041300Z AUTO 35004KT 6SM 21/16 A2988 RMK T02100160 IEM_DS3505
ZHHH,2008-05-04 14:00,ZHHH 041400Z AUTO 26002KT 6SM 21/16 A2991 RMK T02100160 IEM_DS3505
ZHHH,2008-05-04 15:00,ZHHH 041500Z AUTO 25002KT 12SM 21/14 A2991 RMK SLP127 T02100144 52008 IEM_DS3505
ZHHH,2008-05-04 16:00,ZHHH 041600Z AUTO 24004KT 6SM 20/18 A2991 RMK T02000180 IEM_DS3505
ZHHH,2008-05-04 17:00,ZHHH 041700Z AUTO 23002KT 6SM 20/18 A2988 RMK T02000180 IEM_DS3505
ZHHH,2008-05-04 18:00,ZHHH 041800Z AUTO 00000KT 9SM 20/16 A2985 RMK SLP116 T01960155 57011 IEM_DS3505
ZHHH,2008-05-04 19:00,ZHHH 041900Z AUTO 17002KT 6SM 20/18 A2985 RMK T02000180 IEM_DS3505
ZHHH,2008-05-04 20:00,ZHHH 042000Z AUTO 20002KT 6SM 19/18 A2985 RMK T01900180 IEM_DS3505
ZHHH,2008-05-04 21:00,ZHHH 042100Z AUTO 11002KT 9SM 20/16 A2985 RMK SLP113 T01960159 57003 IEM_DS3505
ZHHH,2008-05-04 22:00,ZHHH 042200Z AUTO 16004KT 6SM 19/17 A2985 RMK T01900170 IEM_DS3505
ZHHH,2008-05-04 23:00,ZHHH 042300Z AUTO 07004KT 2 1/2SM 19/18 A2988 RMK T01900180 IEM_DS3505
ZHHH,2008-05-05 00:00,ZHHH 050000Z AUTO 00000KT 11SM 22/16 A2991 RMK SLP125 T02180163 52012 IEM_DS3505
ZHHH,2008-05-05 01:00,ZHHH 050100Z AUTO 15004KT 3SM 22/18 A2991 RMK T02200180 IEM_DS3505
ZHHH,2008-05-05 02:00,ZHHH 050200Z AUTO 10006KT 4SM 23/18 A2991 RMK T02300180 IEM_DS3505
ZHHH,2008-05-05 03:00,ZHHH 050300Z AUTO 09002KT 12SM 25/14 A2991 RMK SLP123 T02540139 57002 IEM_DS3505
ZHHH,2008-05-05 04:00,ZHHH 050400Z AUTO 12006KT 6SM 24/18 A2988 RMK T02400180 IEM_DS3505
ZHHH,2008-05-05 05:00,ZHHH 050500Z AUTO 11006KT 6SM 25/17 A2985 RMK T02500170 IEM_DS3505
ZHHH,2008-05-05 06:00,ZHHH 050600Z AUTO 14004KT 12SM 26/12 A2983 RMK SLP104 T02630116 57019 IEM_DS3505
ZHHH,2008-05-05 07:00,ZHHH 050700Z AUTO 12008KT 6SM 26/14 A2983 RMK T02600140 IEM_DS3505
ZHHH,2008-05-05 08:00,ZHHH 050800Z AUTO 14008KT 6SM 26/13 A2980 RMK T02600130 IEM_DS3505
ZHHH,2008-05-05 09:00,ZHHH 050900Z AUTO 14004KT 12SM 26/12 A2980 RMK SLP088 T02580116 57016 IEM_DS3505
ZHHH,2008-05-05 10:00,ZHHH 051000Z AUTO 19008KT 6SM 25/14 A2980 RMK T02500140 IEM_DS3505
ZHHH,2008-05-05 11:00,ZHHH 051100Z AUTO 18006KT 6SM 23/16 A2980 RMK T02300160 IEM_DS3505
ZHHH,2008-05-05 12:00,ZHHH 051200Z AUTO 18002KT 11SM 23/15 A2983 RMK SLP095 T02330148 52007 IEM_DS3505
ZHHH,2008-05-05 13:00,ZHHH 051300Z AUTO 18004KT 6SM 22/17 A2983 RMK T02200170 IEM_DS3505
ZHHH,2008-05-05 14:00,ZHHH 051400Z AUTO 20006KT 6SM 22/18 A2983 RMK T02200180 IEM_DS3505
ZHHH,2008-05-05 15:00,ZHHH 051500Z AUTO 00000KT 11SM 22/16 A2983 RMK SLP099 T02190160 52004 IEM_DS3505
ZHHH,2008-05-05 16:00,ZHHH 051600Z AUTO 22006KT 6SM 21/18 A2983 RMK T02100180 IEM_DS3505
ZHHH,2008-05-05 17:00,ZHHH 051700Z AUTO 22006KT 6SM 20/18 A2983 RMK T02000180 IEM_DS3505
ZHHH,2008-05-05 18:00,ZHHH 051800Z AUTO 20002KT 9SM 20/17 A2980 RMK SLP090 T02000170 57009 IEM_DS3505
ZHHH,2008-05-05 19:00,ZHHH 051900Z AUTO 18006KT 3SM 19/18 A2977 RMK T01900180 IEM_DS3505
ZHHH,2008-05-05 20:00,ZHHH 052000Z AUTO 18006KT 3SM 19/18 A2977 RMK T01900180 IEM_DS3505
ZHHH,2008-05-05 21:00,ZHHH 052100Z AUTO 11002KT 6SM 19/17 A2977 RMK SLP084 T01920172 57006 IEM_DS3505
ZHHH,2008-05-05 22:00,ZHHH 052200Z AUTO 19002KT 1 1/2SM 18/18 A2980 RMK T01800180 IEM_DS3505
ZHHH,2008-05-05 23:00,ZHHH 052300Z AUTO 20004KT 1SM 19/19 A2980 RMK T01900190 IEM_DS3505
ZHHH,2008-05-06 00:00,ZHHH 060000Z AUTO 11004KT 12SM 22/17 A2983 RMK SLP095 T02150171 52011 IEM_DS3505
ZHHH,2008-05-06 01:00,ZHHH 060100Z AUTO 18004KT 2SM 23/20 A2983 RMK T02300200 IEM_DS3505
ZHHH,2008-05-06 02:00,ZHHH 060200Z AUTO 18006KT 2SM 24/20 A2980 RMK T02400200 IEM_DS3505
ZHHH,2008-05-06 03:00,ZHHH 060300Z AUTO 11004KT 14SM 26/16 A2980 RMK SLP090 T02600157 57005 IEM_DS3505
ZHHH,2008-05-06 04:00,ZHHH 060400Z AUTO 22006KT 6SM 27/18 A2977 RMK T02700180 IEM_DS3505
ZHHH,2008-05-06 05:00,ZHHH 060500Z AUTO 26006KT 6SM 28/18 A2974 RMK T02800180 IEM_DS3505
ZHHH,2008-05-06 06:00,ZHHH 060600Z AUTO 24004KT 6SM 28/19 A2974 RMK T02800190 IEM_DS3505
ZHHH,2008-05-06 07:00,ZHHH 060700Z AUTO 24006KT 6SM 29/19 A2971 RMK T02900190 IEM_DS3505
ZHHH,2008-05-06 08:00,ZHHH 060800Z AUTO 23006KT 6SM 29/19 A2968 RMK T02900190 IEM_DS3505
ZHHH,2008-05-06 09:00,ZHHH 060900Z AUTO 11002KT 16SM 29/17 A2968 RMK SLP046 T02870173 57019 IEM_DS3505
ZHHH,2008-05-06 10:00,ZHHH 061000Z AUTO 16008KT 7SM 28/19 A2965 RMK T02800190 IEM_DS3505
ZHHH,2008-05-06 11:00,ZHHH 061100Z AUTO 11008KT 7SM 26/21 A2968 RMK T02600210 IEM_DS3505
ZHHH,2008-05-06 12:00,ZHHH 061200Z AUTO 11004KT 14SM 27/18 A2968 RMK SLP046 T02720179 54000 IEM_DS3505
ZHHH,2008-05-06 13:00,ZHHH 061300Z AUTO 14012KT 7SM 24/21 A2968 RMK T02400210 IEM_DS3505
ZHHH,2008-05-06 14:00,ZHHH 061400Z AUTO 14010KT 6SM 24/20 A2971 RMK T02400200 IEM_DS3505
ZHHH,2008-05-06 15:00,ZHHH 061500Z AUTO 11004KT 11SM 24/19 A2971 RMK SLP060 T02430187 52014 IEM_DS3505
ZHHH,2008-05-06 16:00,ZHHH 061600Z AUTO 13008KT 6SM 23/20 A2971 RMK T02300200 IEM_DS3505
ZHHH,2008-05-06 17:00,ZHHH 061700Z AUTO 13006KT 3SM 22/20 A2971 RMK T02200200 IEM_DS3505
ZHHH,2008-05-06 18:00,ZHHH 061800Z AUTO 14002KT 11SM 22/19 A2971 RMK SLP061 T02250189 52001 IEM_DS3505
ZHHH,2008-05-06 19:00,ZHHH 061900Z AUTO 14006KT 2SM 20/20 A2971 RMK T02000200 IEM_DS3505
ZHHH,2008-05-06 20:00,ZHHH 062000Z AUTO 13006KT 1 1/2SM 20/19 A2971 RMK T02000190 IEM_DS3505
ZHHH,2008-05-06 21:00,ZHHH 062100Z AUTO 14004KT 12SM 22/18 A2971 RMK SLP055 T02160184 57006 IEM_DS3505
ZHHH,2008-05-06 22:00,ZHHH 062200Z AUTO 12006KT 1 1/4SM 20/19 A2971 RMK T02000190 IEM_DS3505
ZHHH,2008-05-06 23:00,ZHHH 062300Z AUTO 10008KT 1 1/4SM 20/20 A2971 RMK T02000200 IEM_DS3505
ZHHH,2008-05-07 00:00,ZHHH 070000Z AUTO 14004KT 12SM 24/18 A2974 RMK SLP063 T02450182 52008 IEM_DS3505
ZHHH,2008-05-07 01:00,ZHHH 070100Z AUTO 11008KT 4SM 24/21 A2974 RMK T02400210 IEM_DS3505
ZHHH,2008-05-07 02:00,ZHHH 070200Z AUTO 12008KT 4SM 25/21 A2974 RMK T02500210 IEM_DS3505
ZHHH,2008-05-07 03:00,ZHHH 070300Z AUTO 18002KT 12SM 26/19 A2974 RMK SLP065 T02600192 52002 IEM_DS3505
ZHHH,2008-05-07 04:00,ZHHH 070400Z AUTO 19008KT 7SM 25/22 A2971 RMK T02500220 IEM_DS3505
ZHHH,2008-05-07 05:00,ZHHH 070500Z AUTO 20008KT 7SM 25/22 A2971 RMK T02500220 IEM_DS3505
ZHHH,2008-05-07 06:00,ZHHH 070600Z AUTO 16004KT 11SM 26/20 A2968 RMK SLP050 T02590198 57015 IEM_DS3505
ZHHH,2008-05-07 07:00,ZHHH 070700Z AUTO 15006KT 7SM 25/22 A2968 RMK T02500220 IEM_DS3505
ZHHH,2008-05-07 08:00,ZHHH 070800Z AUTO 13006KT 7SM 26/22 A2965 RMK T02600220 IEM_DS3505
ZHHH,2008-05-07 09:00,ZHHH 070900Z AUTO 11004KT 9SM 26/20 A2962 RMK SLP033 T02610200 57017 IEM_DS3505
ZHHH,2008-05-07 10:00,ZHHH 071000Z AUTO 13006KT 4SM 26/22 A2962 RMK T02600220 IEM_DS3505
ZHHH,2008-05-07 11:00,ZHHH 071100Z AUTO 11006KT 2 1/2SM 25/23 A2965 RMK T02500230 IEM_DS3505
ZHHH,2008-05-07 12:00,ZHHH 071200Z AUTO 07002KT 7SM 26/21 A2968 RMK SLP044 T02570209 52011 IEM_DS3505
ZHHH,2008-05-07 13:00,ZHHH 071300Z AUTO 10008KT 2 1/2SM 24/22 A2968 RMK T02400220 IEM_DS3505
ZHHH,2008-05-07 14:00,ZHHH 071400Z AUTO 10008KT 2SM 23/22 A2971 RMK T02300220 IEM_DS3505
ZHHH,2008-05-07 15:00,ZHHH 071500Z AUTO 07002KT 6SM 24/21 A2971 RMK SLP056 T02410214 52012 IEM_DS3505
ZHHH,2008-05-07 16:00,ZHHH 071600Z AUTO 12008KT 1SM 22/22 A2971 RMK T02200220 IEM_DS3505
ZHHH,2008-05-07 17:00,ZHHH 071700Z AUTO 12008KT 1SM 22/22 A2968 RMK T02200220 IEM_DS3505
ZHHH,2008-05-07 18:00,ZHHH 071800Z AUTO 09002KT 5SM 23/21 A2968 RMK 60004 SLP043 T02260211 57013 IEM_DS3505
ZHHH,2008-05-07 19:00,ZHHH 071900Z AUTO 05006KT 1SM 21/21 A2968 RMK T02100210 IEM_DS3505
ZHHH,2008-05-07 20:00,ZHHH 072000Z AUTO 07006KT 1SM 21/21 A2968 RMK T02100210 IEM_DS3505
ZHHH,2008-05-07 21:00,ZHHH 072100Z AUTO 04002KT 4SM 22/21 A2968 RMK 70139 SLP048 T02210213 52005 IEM_DS3505
ZHHH,2008-05-07 22:00,ZHHH 072200Z AUTO 04004KT 1SM 22/22 A2968 RMK T02200220 IEM_DS3505
ZHHH,2008-05-07 23:00,ZHHH 072300Z AUTO 04010KT 7SM 22/22 A2971 RMK T02200220 IEM_DS3505
ZHHH,2008-05-08 00:00,ZHHH 080000Z AUTO 02004KT 7SM 22/20 A2971 RMK 60146 70150 SLP059 T02220205 52011 IEM_DS3505
ZHHH,2008-05-08 01:00,ZHHH 080100Z AUTO 01008KT 7SM 23/22 A2971 RMK T02300220 IEM_DS3505
ZHHH,2008-05-08 02:00,ZHHH 080200Z AUTO 03012KT 7SM 23/21 A2971 RMK T02300210 IEM_DS3505
ZHHH,2008-05-08 03:00,ZHHH 080300Z AUTO 02004KT 7SM 23/19 A2974 RMK SLP069 T02280192 52010 IEM_DS3505
ZHHH,2008-05-08 04:00,ZHHH 080400Z AUTO 02010KT 2 1/2SM 22/19 A2974 RMK T02200190 IEM_DS3505
ZHHH,2008-05-08 05:00,ZHHH 080500Z AUTO 02008KT 1 1/2SM 21/19 A2971 RMK T02100190 IEM_DS3505
ZHHH,2008-05-08 06:00,ZHHH 080600Z AUTO 32006KT 7SM 21/18 A2971 RMK SLP062 T02140180 57007 IEM_DS3505
ZHHH,2008-05-08 07:00,ZHHH 080700Z AUTO 34010KT 1 1/4SM 20/19 A2971 RMK T02000190 IEM_DS3505
ZHHH,2008-05-08 08:00,ZHHH 080800Z AUTO 34012KT 1 1/4SM 19/18 A2971 RMK T01900180 IEM_DS3505
ZHHH,2008-05-08 09:00,ZHHH 080900Z AUTO 02006KT 6SM 19/18 A2971 RMK SLP055 T01900175 57007 IEM_DS3505
ZHHH,2008-05-08 10:00,ZHHH 081000Z AUTO 35006KT 1 1/2SM 19/19 A2971 RMK T01900190 IEM_DS3505
ZHHH,2008-05-08 11:00,ZHHH 081100Z AUTO 02010KT 1 1/2SM 18/18 A2974 RMK T01800180 IEM_DS3505
ZHHH,2008-05-08 12:00,ZHHH 081200Z AUTO 02006KT 7SM 18/17 A2977 RMK 60020 SLP075 T01840167 52020 IEM_DS3505
ZHHH,2008-05-08 13:00,ZHHH 081300Z AUTO 02008KT 2 1/2SM 18/17 A2977 RMK T01800170 IEM_DS3505
ZHHH,2008-05-08 14:00,ZHHH 081400Z AUTO 01008KT 2 1/2SM 18/18 A2980 RMK T01800180 IEM_DS3505
ZHHH,2008-05-08 15:00,ZHHH 081500Z AUTO 02006KT 11SM 19/16 A2980 RMK SLP093 T01910161 52018 IEM_DS3505
ZHHH,2008-05-08 16:00,ZHHH 081600Z AUTO 02010KT 2SM 18/17 A2980 RMK T01800170 IEM_DS3505
ZHHH,2008-05-08 17:00,ZHHH 081700Z AUTO 02008KT 1 1/2SM 17/17 A2983 RMK T01700170 IEM_DS3505
ZHHH,2008-05-08 18:00,ZHHH 081800Z AUTO 34004KT 11SM 18/16 A2980 RMK 60004 SLP095 T01830157 52002 IEM_DS3505
ZHHH,2008-05-08 19:00,ZHHH 081900Z AUTO 01006KT 1 1/4SM 17/16 A2983 RMK T01700160 IEM_DS3505
ZHHH,2008-05-08 20:00,ZHHH 082000Z AUTO 02008KT 2SM 17/16 A2983 RMK T01700160 IEM_DS3505
ZHHH,2008-05-08 21:00,ZHHH 082100Z AUTO 36004KT 7SM 17/15 A2983 RMK 70051 SLP103 T01720150 52007 IEM_DS3505
ZHHH,2008-05-08 22:00,ZHHH 082200Z AUTO 35006KT 2 1/2SM 17/16 A2983 RMK T01700160 IEM_DS3505
ZHHH,2008-05-08 23:00,ZHHH 082300Z AUTO 36006KT 2 1/2SM 17/16 A2985 RMK T01700160 IEM_DS3505
ZHHH,2008-05-09 00:00,ZHHH 090000Z AUTO 34004KT 6SM 17/15 A2988 RMK 60024 70046 SLP119 T01710154 52016 IEM_DS3505
ZHHH,2008-05-09 01:00,ZHHH 090100Z AUTO 02010KT 2SM 17/16 A2988 RMK T01700160 IEM_DS3505
ZHHH,2008-05-09 02:00,ZHHH 090200Z AUTO 01008KT 4SM 17/16 A2991 RMK T01700160 IEM_DS3505
ZHHH,2008-05-09 03:00,ZHHH 090300Z AUTO 32004KT 5SM 18/16 A2991 RMK SLP129 T01840158 52010 IEM_DS3505
ZHHH,2008-05-09 04:00,ZHHH 090400Z AUTO 02012KT 7SM 18/16 A2991 RMK T01800160 IEM_DS3505
ZHHH,2008-05-09 05:00,ZHHH 090500Z AUTO 02010KT 7SM 19/16 A2991 RMK T01900160 IEM_DS3505
ZHHH,2008-05-09 06:00,ZHHH 090600Z AUTO 02006KT 11SM 20/14 A2991 RMK 60008 SLP126 T01970141 57003 IEM_DS3505
ZHHH,2008-05-09 07:00,ZHHH 090700Z AUTO 02010KT 7SM 20/16 A2991 RMK T02000160 IEM_DS3505
ZHHH,2008-05-09 08:00,ZHHH 090800Z AUTO 02010G19KT 7SM 20/16 A2991 RMK T02000160 IEM_DS3505
ZHHH,2008-05-09 09:00,ZHHH 090900Z AUTO 36006KT 9SM 20/14 A2991 RMK SLP127 T02040141 52001 IEM_DS3505
ZHHH,2008-05-09 10:00,ZHHH 091000Z AUTO 03004KT 6SM 20/16 A2991 RMK T02000160 IEM_DS3505
ZHHH,2008-05-09 11:00,ZHHH 091100Z AUTO 04006KT 6SM 19/16 A2991 RMK T01900160 IEM_DS3505
ZHHH,2008-05-09 12:00,ZHHH 091200Z AUTO 04002KT 9SM 19/14 A2997 RMK SLP144 T01890140 52017 IEM_DS3505
ZHHH,2008-05-09 13:00,ZHHH 091300Z AUTO 07008KT 6SM 17/15 A2997 RMK T01700150 IEM_DS3505
ZHHH,2008-05-09 14:00,ZHHH 091400Z AUTO 06008KT 6SM 17/16 A2997 RMK T01700160 IEM_DS3505
ZHHH,2008-05-09 15:00,ZHHH 091500Z AUTO 04002KT 7SM 18/14 A3000 RMK SLP156 T01750142 52012 IEM_DS3505
ZHHH,2008-05-09 16:00,ZHHH 091600Z AUTO 04006KT 6SM 16/15 A3000 RMK T01600150 IEM_DS3505
ZHHH,2008-05-09 17:00,ZHHH 091700Z AUTO 05004KT 3SM 16/15 A2997 RMK T01600150 IEM_DS3505
ZHHH,2008-05-09 18:00,ZHHH 091800Z AUTO 02002KT 9SM 16/14 A2997 RMK SLP150 T01650140 57006 IEM_DS3505
ZHHH,2008-05-09 19:00,ZHHH 091900Z AUTO 03006KT 2 1/2SM 15/14 A2997 RMK T01500140 IEM_DS3505
ZHHH,2008-05-09 20:00,ZHHH 092000Z AUTO 05004KT 2SM 15/14 A2997 RMK T01500140 IEM_DS3505
ZHHH,2008-05-09 21:00,ZHHH 092100Z AUTO 04002KT 9SM 16/14 A3000 RMK 70015 SLP157 T01580135 52007 IEM_DS3505
ZHHH,2008-05-09 22:00,ZHHH 092200Z AUTO 05004KT 2SM 15/14 A3000 RMK T01500140 IEM_DS3505
ZHHH,2008-05-09 23:00,ZHHH 092300Z AUTO 06004KT 3SM 16/15 A3003 RMK T01600150 IEM_DS3505
ZHHH,2008-05-10 00:00,ZHHH 100000Z AUTO 34004KT 11SM 19/14 A3006 RMK 70008 SLP181 T01880145 52024 IEM_DS3505
ZHHH,2008-05-10 01:00,ZHHH 100100Z AUTO 03008KT 6SM 20/16 A3006 RMK T02000160 IEM_DS3505
ZHHH,2008-05-10 02:00,ZHHH 100200Z AUTO 03010KT 6SM 22/14 A3006 RMK T02200140 IEM_DS3505
ZHHH,2008-05-10 03:00,ZHHH 100300Z AUTO 04008KT 12SM 22/12 A3006 RMK SLP182 T02240118 52001 IEM_DS3505
ZHHH,2008-05-10 04:00,ZHHH 100400Z AUTO 06010KT 6SM 24/15 A3006 RMK T02400150 IEM_DS3505
ZHHH,2008-05-10 05:00,ZHHH 100500Z AUTO 06010KT 7SM 24/13 A3006 RMK T02400130 IEM_DS3505
ZHHH,2008-05-10 06:00,ZHHH 100600Z AUTO 04010KT 7SM 25/10 A3003 RMK T02500100 IEM_DS3505
ZHHH,2008-05-10 07:00,ZHHH 100700Z AUTO 06012KT 6SM 25/10 A3000 RMK T02500100 IEM_DS3505
ZHHH,2008-05-10 08:00,ZHHH 100800Z AUTO 03010KT 6SM 25/11 A3000 RMK T02500110 IEM_DS3505
ZHHH,2008-05-10 09:00,ZHHH 100900Z AUTO 04004KT 11SM 25/08 A2997 RMK SLP152 T02490080 57018 IEM_DS3505
ZHHH,2008-05-10 10:00,ZHHH 101000Z AUTO 02006KT 6SM 24/13 A2997 RMK T02400130 IEM_DS3505
ZHHH,2008-05-10 11:00,ZHHH 101100Z AUTO 03006KT 6SM 22/13 A2997 RMK T02200130 IEM_DS3505
ZHHH,2008-05-10 12:00,ZHHH 101200Z AUTO 07002KT 12SM 22/11 A3000 RMK SLP156 T02210112 52004 IEM_DS3505
ZHHH,2008-05-10 13:00,ZHHH 101300Z AUTO 03006KT 6SM 20/15 A3000 RMK T02000150 IEM_DS3505
ZHHH,2008-05-10 14:00,ZHHH 101400Z AUTO 01002KT 6SM 20/15 A3000 RMK T02000150 IEM_DS3505
ZHHH,2008-05-10 15:00,ZHHH 101500Z AUTO 04004KT 11SM 20/13 A3000 RMK SLP161 T02010126 52005 IEM_DS3505
ZHHH,2008-05-10 16:00,ZHHH 101600Z AUTO 04004KT 6SM 18/15 A3000 RMK T01800150 IEM_DS3505
ZHHH,2008-05-10 17:00,ZHHH 101700Z AUTO 06004KT 6SM 18/15 A2997 RMK T01800150 IEM_DS3505
ZHHH,2008-05-10 18:00,ZHHH 101800Z AUTO 09002KT 9SM 19/14 A2997 RMK SLP145 T01870136 57015 IEM_DS3505
ZHHH,2008-05-10 19:00,ZHHH 101900Z AUTO 09006KT 4SM 17/14 A2994 RMK T01700140 IEM_DS3505
ZHHH,2008-05-10 20:00,ZHHH 102000Z AUTO 12006KT 4SM 16/14 A2994 RMK T01600140 IEM_DS3505
ZHHH,2008-05-10 21:00,ZHHH 102100Z AUTO 09002KT 9SM 16/14 A2994 RMK SLP134 T01630136 57011 IEM_DS3505
ZHHH,2008-05-10 22:00,ZHHH 102200Z AUTO 11006KT 2 1/2SM 15/14 A2994 RMK T01500140 IEM_DS3505
ZHHH,2008-05-10 23:00,ZHHH 102300Z AUTO 12006KT 2SM 17/16 A2994 RMK T01700160 IEM_DS3505
ZHHH,2008-05-11 00:00,ZHHH 110000Z AUTO 11004KT 11SM 21/14 A2994 RMK SLP141 T02070139 52007 IEM_DS3505
ZHHH,2008-05-11 01:00,ZHHH 110100Z AUTO 15006KT 6SM 22/16 A2994 RMK T02200160 IEM_DS3505
ZHHH,2008-05-11 02:00,ZHHH 110200Z AUTO 18006KT 6SM 24/16 A2994 RMK T02400160 IEM_DS3505
ZHHH,2008-05-11 03:00,ZHHH 110300Z AUTO 16004KT 16SM 25/12 A2994 RMK SLP135 T02470116 57006 IEM_DS3505
ZHHH,2008-05-11 04:00,ZHHH 110400Z AUTO 21008KT 6SM 26/15 A2991 RMK T02600150 IEM_DS3505
ZHHH,2008-05-11 05:00,ZHHH 110500Z AUTO 20008KT 6SM 27/13 A2988 RMK T02700130 IEM_DS3505
ZHHH,2008-05-11 06:00,ZHHH 110600Z AUTO 27004KT 14SM 27/11 A2985 RMK SLP112 T02720108 57023 IEM_DS3505
ZHHH,2008-05-11 07:00,ZHHH 110700Z AUTO 26004KT 6SM 28/14 A2985 RMK T02800140 IEM_DS3505
ZHHH,2008-05-11 08:00,ZHHH 110800Z AUTO 27004KT 6SM 28/15 A2983 RMK T02800150 IEM_DS3505
ZHHH,2008-05-11 09:00,ZHHH 110900Z AUTO 20002KT 14SM 28/12 A2983 RMK SLP099 T02760124 57013 IEM_DS3505
ZHHH,2008-05-11 10:00,ZHHH 111000Z AUTO 25004KT 6SM 26/16 A2983 RMK T02600160 IEM_DS3505
ZHHH,2008-05-11 11:00,ZHHH 111100Z AUTO 00000KT 6SM 25/15 A2985 RMK T02500150 IEM_DS3505
ZHHH,2008-05-11 12:00,ZHHH 111200Z AUTO 25002KT 12SM 24/12 A2985 RMK SLP112 T02420125 52013 IEM_DS3505
ZHHH,2008-05-11 13:00,ZHHH 111300Z AUTO 00000KT 6SM 24/17 A2988 RMK T02400170 IEM_DS3505
ZHHH,2008-05-11 14:00,ZHHH 111400Z AUTO 10002KT 6SM 23/18 A2988 RMK T02300180 IEM_DS3505
ZHHH,2008-05-11 15:00,ZHHH 111500Z AUTO 00000KT 9SM 22/16 A2988 RMK SLP122 T02180156 52010 IEM_DS3505
ZHHH,2008-05-11 16:00,ZHHH 111600Z AUTO 00000KT 6SM 23/17 A2991 RMK T02300170 IEM_DS3505
ZHHH,2008-05-11 17:00,ZHHH 111700Z AUTO 02006KT 6SM 21/19 A2991 RMK T02100190 IEM_DS3505
ZHHH,2008-05-11 18:00,ZHHH 111800Z AUTO 27002KT 9SM 22/17 A2991 RMK SLP127 T02220173 52005 IEM_DS3505
ZHHH,2008-05-11 19:00,ZHHH 111900Z AUTO 03006KT 2 1/2SM 20/19 A2988 RMK T02000190 IEM_DS3505
ZHHH,2008-05-11 20:00,ZHHH 112000Z AUTO 03010KT 2 1/2SM 20/18 A2991 RMK T02000180 IEM_DS3505
ZHHH,2008-05-11 21:00,ZHHH 112100Z AUTO 04006KT 9SM 20/17 A2991 RMK 70002 SLP133 T02000166 52006 IEM_DS3505
ZHHH,2008-05-11 22:00,ZHHH 112200Z AUTO 04010KT 2SM 19/17 A2994 RMK T01900170 IEM_DS3505
ZHHH,2008-05-11 23:00,ZHHH 112300Z AUTO 03004KT 2SM 19/17 A2997 RMK T01900170 IEM_DS3505
ZHHH,2008-05-12 00:00,ZHHH 120000Z AUTO 02006KT 12SM 21/15 A3000 RMK 60002 70002 SLP163 T02060149 52030 IEM_DS3505
ZHHH,2008-05-12 01:00,ZHHH 120100Z AUTO 35006KT 3SM 20/17 A3006 RMK T02000170 IEM_DS3505
ZHHH,2008-05-12 02:00,ZHHH 120200Z AUTO 02010KT 4SM 22/13 A3006 RMK T02200130 IEM_DS3505
ZHHH,2008-05-12 03:00,ZHHH 120300Z AUTO 02004KT 14SM 23/11 A3006 RMK SLP182 T02280106 52019 IEM_DS3505
ZHHH,2008-05-12 04:00,ZHHH 120400Z AUTO 04010KT 7SM 23/09 A3006 RMK T02300090 IEM_DS3505
ZHHH,2008-05-12 05:00,ZHHH 120500Z AUTO 04010KT 6SM 24/10 A3003 RMK T02400100 IEM_DS3505
ZHHH,2008-05-12 06:00,ZHHH 120600Z AUTO 34004KT 16SM 24/06 A3003 RMK SLP165 T02390058 57017 IEM_DS3505
ZHHH,2008-05-12 07:00,ZHHH 120700Z AUTO 05012KT 6SM 24/10 A3003 RMK T02400100 IEM_DS3505
ZHHH,2008-05-12 08:00,ZHHH 120800Z AUTO 05012KT 6SM 24/08 A3000 RMK T02400080 IEM_DS3505
ZHHH,2008-05-12 09:00,ZHHH 120900Z AUTO 07004KT 14SM 24/06 A3000 RMK SLP161 T02420060 57004 IEM_DS3505
ZHHH,2008-05-12 10:00,ZHHH 121000Z AUTO 05012KT 6SM 23/09 A3000 RMK T02300090 IEM_DS3505
ZHHH,2008-05-12 11:00,ZHHH 121100Z AUTO 05008KT 6SM 21/08 A3003 RMK T02100080 IEM_DS3505
ZHHH,2008-05-12 12:00,ZHHH 121200Z AUTO 04002KT 12SM 21/06 A3006 RMK SLP177 T02130060 52015 IEM_DS3505
ZHHH,2008-05-12 13:00,ZHHH 121300Z AUTO 08010KT 6SM 18/10 A3006 RMK T01800100 IEM_DS3505
ZHHH,2008-05-12 14:00,ZHHH 121400Z AUTO 08010KT 6SM 18/10 A3009 RMK T01800100 IEM_DS3505
ZHHH,2008-05-12 15:00,ZHHH 121500Z AUTO 09004KT 11SM 19/07 A3009 RMK SLP190 T01910069 52013 IEM_DS3505
ZHHH,2008-05-12 16:00,ZHHH 121600Z AUTO 08010KT 6SM 16/09 A3009 RMK T01600090 IEM_DS3505
ZHHH,2008-05-12 17:00,ZHHH 121700Z AUTO 07004KT 6SM 17/08 A3009 RMK T01700080 IEM_DS3505
ZHHH,2008-05-12 18:00,ZHHH 121800Z AUTO 04002KT 11SM 17/06 A3009 RMK SLP185 T01710057 57005 IEM_DS3505
ZHHH,2008-05-12 19:00,ZHHH 121900Z AUTO 6SM 16/08 A3009 RMK T01600080 IEM_DS3505
ZHHH,2008-05-12 20:00,ZHHH 122000Z AUTO 12004KT 6SM 15/10 A3006 RMK T01500100 IEM_DS3505
ZHHH,2008-05-12 21:00,ZHHH 122100Z AUTO 00000KT 11SM 16/09 A3009 RMK 70000 SLP188 T01560093 52003 IEM_DS3505
ZHHH,2008-05-12 22:00,ZHHH 122200Z AUTO 02004KT 6SM 14/10 A3009 RMK T01400100 IEM_DS3505
ZHHH,2008-05-12 23:00,ZHHH 122300Z AUTO 02004KT 6SM 16/12 A3012 RMK T01600120 IEM_DS3505
ZHHH,2008-05-13 00:00,ZHHH 130000Z AUTO 36002KT 11SM 19/10 A3012 RMK SLP204 T01920105 52016 IEM_DS3505
ZHHH,2008-05-13 01:00,ZHHH 130100Z AUTO 34004KT 6SM 20/11 A3015 RMK T02000110 IEM_DS3505
ZHHH,2008-05-13 02:00,ZHHH 130200Z AUTO 36004KT 6SM 22/11 A3015 RMK T02200110 IEM_DS3505
ZHHH,2008-05-13 03:00,ZHHH 130300Z AUTO 09004KT 14SM 23/10 A3012 RMK SLP203 T02310095 57001 IEM_DS3505
ZHHH,2008-05-13 04:00,ZHHH 130400Z AUTO 34004KT 6SM 25/08 A3012 RMK T02500080 IEM_DS3505
ZHHH,2008-05-13 05:00,ZHHH 130500Z AUTO 32006KT 6SM 25/08 A3009 RMK T02500080 IEM_DS3505
ZHHH,2008-05-13 06:00,ZHHH 130600Z AUTO 32004KT 14SM 26/05 A3006 RMK SLP182 T02600050 57021 IEM_DS3505
ZHHH,2008-05-13 07:00,ZHHH 130700Z AUTO 6SM 26/07 A3003 RMK T02600070 IEM_DS3505
ZHHH,2008-05-13 08:00,ZHHH 130800Z AUTO 6SM 25/08 A3003 RMK T02500080 IEM_DS3505
ZHHH,2008-05-13 09:00,ZHHH 130900Z AUTO 07002KT 12SM 25/05 A3000 RMK SLP163 T02470050 57019 IEM_DS3505
ZHHH,2008-05-13 10:00,ZHHH 131000Z AUTO 19006KT 6SM 24/11 A3003 RMK T02400110 IEM_DS3505
ZHHH,2008-05-13 11:00,ZHHH 131100Z AUTO 15004KT 6SM 23/12 A3003 RMK T02300120 IEM_DS3505
ZHHH,2008-05-13 12:00,ZHHH 131200Z AUTO 00000KT 14SM 22/10 A3003 RMK SLP168 T02210096 52005 IEM_DS3505
ZHHH,2008-05-13 13:00,ZHHH 131300Z AUTO 07010KT 6SM 21/09 A3006 RMK T02100090 IEM_DS3505
ZHHH,2008-05-13 14:00,ZHHH 131400Z AUTO 08006KT 6SM 20/10 A3006 RMK T02000100 IEM_DS3505
ZHHH,2008-05-13 15:00,ZHHH 131500Z AUTO 04002KT 14SM 21/07 A3006 RMK SLP181 T02070073 52014 IEM_DS3505
ZHHH,2008-05-13 16:00,ZHHH 131600Z AUTO 10008KT 6SM 19/10 A3006 RMK T01900100 IEM_DS3505
ZHHH,2008-05-13 17:00,ZHHH 131700Z AUTO 09006KT 6SM 18/10 A3006 RMK T01800100 IEM_DS3505
ZHHH,2008-05-13 18:00,ZHHH 131800Z AUTO 07004KT 16SM 19/08 A3003 RMK SLP170 T01900081 57011 IEM_DS3505
ZHHH,2008-05-13 19:00,ZHHH 131900Z AUTO 08008KT 6SM 17/11 A3003 RMK T01700110 IEM_DS3505
ZHHH,2008-05-13 20:00,ZHHH 132000Z AUTO 09010KT 6SM 16/11 A3003 RMK T01600110 IEM_DS3505
ZHHH,2008-05-13 21:00,ZHHH 132100Z AUTO 09002KT 14SM 18/10 A3003 RMK SLP170 T01790100 57001 IEM_DS3505
ZHHH,2008-05-13 22:00,ZHHH 132200Z AUTO 11008KT 6SM 15/12 A3003 RMK T01500120 IEM_DS3505
ZHHH,2008-05-13 23:00,ZHHH 132300Z AUTO 11010KT 6SM 17/14 A3003 RMK T01700140 IEM_DS3505
ZHHH,2008-05-14 00:00,ZHHH 140000Z AUTO 11004KT 11SM 21/09 A3006 RMK SLP177 T02090092 52007 IEM_DS3505
ZHHH,2008-05-14 01:00,ZHHH 140100Z AUTO 11006KT 5SM 21/14 A3006 RMK T02100140 IEM_DS3505
ZHHH,2008-05-14 02:00,ZHHH 140200Z AUTO 13006KT 5SM 22/14 A3003 RMK T02200140 IEM_DS3505
ZHHH,2008-05-14 03:00,ZHHH 140300Z AUTO 16004KT 12SM 24/09 A3003 RMK SLP168 T02420090 57008 IEM_DS3505
ZHHH,2008-05-14 04:00,ZHHH 140400Z AUTO 17006KT 6SM 25/12 A3000 RMK T02500120 IEM_DS3505
ZHHH,2008-05-14 05:00,ZHHH 140500Z AUTO 21008KT 6SM 25/12 A2997 RMK T02500120 IEM_DS3505
ZHHH,2008-05-14 06:00,ZHHH 140600Z AUTO 16006KT 11SM 26/08 A2994 RMK SLP142 T02590075 57026 IEM_DS3505
ZHHH,2008-05-14 07:00,ZHHH 140700Z AUTO 22008KT 6SM 26/11 A2991 RMK T02600110 IEM_DS3505
ZHHH,2008-05-14 08:00,ZHHH 140800Z AUTO 22008KT 6SM 26/10 A2991 RMK T02600100 IEM_DS3505
ZHHH,2008-05-14 09:00,ZHHH 140900Z AUTO 18004KT 11SM 25/07 A2988 RMK SLP122 T02520074 57020 IEM_DS3505
ZHHH,2008-05-14 10:00,ZHHH 141000Z AUTO 22006KT 6SM 25/11 A2988 RMK T02500110 IEM_DS3505
ZHHH,2008-05-14 11:00,ZHHH 141100Z AUTO 20004KT 6SM 23/12 A2988 RMK T02300120 IEM_DS3505
ZHHH,2008-05-14 12:00,ZHHH 141200Z AUTO 11002KT 11SM 23/10 A2991 RMK SLP125 T02290100 52003 IEM_DS3505
ZHHH,2008-05-14 13:00,ZHHH 141300Z AUTO 17004KT 4SM 22/11 A2991 RMK T02200110 IEM_DS3505
ZHHH,2008-05-14 14:00,ZHHH 141400Z AUTO 18004KT 3SM 22/12 A2991 RMK T02200120 IEM_DS3505
ZHHH,2008-05-14 15:00,ZHHH 141500Z AUTO 14002KT 11SM 20/12 A2991 RMK SLP130 T02040124 52005 IEM_DS3505
ZHHH,2008-05-14 16:00,ZHHH 141600Z AUTO 18004KT 2 1/2SM 20/14 A2991 RMK T02000140 IEM_DS3505
ZHHH,2008-05-14 17:00,ZHHH 141700Z AUTO 18004KT 2SM 20/14 A2991 RMK T02000140 IEM_DS3505
ZHHH,2008-05-14 18:00,ZHHH 141800Z AUTO 14002KT 11SM 19/14 A2991 RMK SLP119 T01930139 57011 IEM_DS3505
ZHHH,2008-05-14 19:00,ZHHH 141900Z AUTO 18004KT 2SM 20/14 A2991 RMK T02000140 IEM_DS3505
ZHHH,2008-05-14 20:00,ZHHH 142000Z AUTO 18004KT 2SM 20/14 A2991 RMK T02000140 IEM_DS3505
ZHHH,2008-05-14 21:00,ZHHH 142100Z AUTO 07002KT 11SM 19/14 A2988 RMK SLP118 T01910135 57001 IEM_DS3505
ZHHH,2008-05-14 22:00,ZHHH 142200Z AUTO 12006KT 1 1/4SM 18/17 A2991 RMK T01800170 IEM_DS3505
ZHHH,2008-05-14 23:00,ZHHH 142300Z AUTO 11006KT 1 1/4SM 18/17 A2991 RMK T01800170 IEM_DS3505
ZHHH,2008-05-15 00:00,ZHHH 150000Z AUTO 11004KT 11SM 22/12 A2991 RMK SLP134 T02190125 52016 IEM_DS3505
ZHHH,2008-05-15 01:00,ZHHH 150100Z AUTO 17006KT 3SM 23/16 A2991 RMK T02300160 IEM_DS3505
ZHHH,2008-05-15 02:00,ZHHH 150200Z AUTO 19006KT 4SM 24/14 A2994 RMK T02400140 IEM_DS3505
ZHHH,2008-05-15 03:00,ZHHH 150300Z AUTO 18002KT 11SM 26/14 A2994 RMK SLP135 T02640139 52001 IEM_DS3505
ZHHH,2008-05-15 04:00,ZHHH 150400Z AUTO 21008KT 6SM 28/17 A2991 RMK T02800170 IEM_DS3505
ZHHH,2008-05-15 05:00,ZHHH 150500Z AUTO 22006KT 6SM 28/18 A2988 RMK T02800180 IEM_DS3505
ZHHH,2008-05-15 06:00,ZHHH 150600Z AUTO 14004KT 11SM 30/15 A2985 RMK SLP111 T02950152 57024 IEM_DS3505
ZHHH,2008-05-15 07:00,ZHHH 150700Z AUTO 23006KT 6SM 30/18 A2983 RMK T03000180 IEM_DS3505
ZHHH,2008-05-15 08:00,ZHHH 150800Z AUTO 25006KT 6SM 30/18 A2983 RMK T03000180 IEM_DS3505
ZHHH,2008-05-15 09:00,ZHHH 150900Z AUTO 22002KT 11SM 30/15 A2980 RMK SLP092 T03010150 57019 IEM_DS3505
ZHHH,2008-05-15 10:00,ZHHH 151000Z AUTO 21006KT 6SM 29/18 A2980 RMK T02900180 IEM_DS3505
ZHHH,2008-05-15 11:00,ZHHH 151100Z AUTO 19006KT 6SM 27/20 A2980 RMK T02700200 IEM_DS3505
ZHHH,2008-05-15 12:00,ZHHH 151200Z AUTO 20002KT 12SM 26/16 A2983 RMK SLP095 T02620165 52003 IEM_DS3505
ZHHH,2008-05-15 13:00,ZHHH 151300Z AUTO 20004KT 6SM 25/20 A2983 RMK T02500200 IEM_DS3505
ZHHH,2008-05-15 14:00,ZHHH 151400Z AUTO 20004KT 6SM 24/19 A2983 RMK T02400190 IEM_DS3505
ZHHH,2008-05-15 15:00,ZHHH 151500Z AUTO 27002KT 11SM 24/16 A2983 RMK SLP102 T02360161 52007 IEM_DS3505
ZHHH,2008-05-15 16:00,ZHHH 151600Z AUTO 23004KT 6SM 24/18 A2985 RMK T02400180 IEM_DS3505
ZHHH,2008-05-15 17:00,ZHHH 151700Z AUTO 22002KT 6SM 24/19 A2985 RMK T02400190 IEM_DS3505
ZHHH,2008-05-15 18:00,ZHHH 151800Z AUTO 25002KT 9SM 23/18 A2983 RMK SLP103 T02280183 52001 IEM_DS3505
ZHHH,2008-05-15 19:00,ZHHH 151900Z AUTO 22006KT 2 1/2SM 22/20 A2983 RMK T02200200 IEM_DS3505
ZHHH,2008-05-15 20:00,ZHHH 152000Z AUTO 21004KT 1 1/4SM 22/20 A2983 RMK T02200200 IEM_DS3505
ZHHH,2008-05-15 21:00,ZHHH 152100Z AUTO 20002KT 6SM 21/19 A2983 RMK SLP101 T02130189 57002 IEM_DS3505
ZHHH,2008-05-15 22:00,ZHHH 152200Z AUTO 21006KT 1SM 21/20 A2983 RMK T02100200 IEM_DS3505
ZHHH,2008-05-15 23:00,ZHHH 152300Z AUTO 22006KT 1 1/4SM 22/20 A2985 RMK T02200200 IEM_DS3505
ZHHH,2008-05-16 00:00,ZHHH 160000Z AUTO 20004KT 9SM 24/18 A2985 RMK SLP111 T02350179 52010 IEM_DS3505
ZHHH,2008-05-16 01:00,ZHHH 160100Z AUTO 22008KT 2 1/2SM 25/20 A2985 RMK T02500200 IEM_DS3505
ZHHH,2008-05-16 02:00,ZHHH 160200Z AUTO 23006KT 3SM 27/20 A2985 RMK T02700200 IEM_DS3505
ZHHH,2008-05-16 03:00,ZHHH 160300Z AUTO 20004KT 11SM 28/16 A2983 RMK SLP104 T02850164 57007 IEM_DS3505
ZHHH,2008-05-16 04:00,ZHHH 160400Z AUTO 22010KT 5SM 30/19 A2983 RMK T03000190 IEM_DS3505
ZHHH,2008-05-16 05:00,ZHHH 160500Z AUTO 23008KT 6SM 31/19 A2980 RMK T03100190 IEM_DS3505
ZHHH,2008-05-16 06:00,ZHHH 160600Z AUTO 22004KT 12SM 31/15 A2977 RMK SLP078 T03060151 57026 IEM_DS3505
ZHHH,2008-05-16 07:00,ZHHH 160700Z AUTO 22006KT 6SM 30/19 A2974 RMK T03000190 IEM_DS3505
ZHHH,2008-05-16 08:00,ZHHH 160800Z AUTO 22006KT 6SM 31/19 A2974 RMK T03100190 IEM_DS3505
ZHHH,2008-05-16 09:00,ZHHH 160900Z AUTO 25002KT 11SM 30/16 A2971 RMK SLP060 T03030160 57018 IEM_DS3505
ZHHH,2008-05-16 10:00,ZHHH 161000Z AUTO 25006KT 6SM 30/20 A2971 RMK T03000200 IEM_DS3505
ZHHH,2008-05-16 11:00,ZHHH 161100Z AUTO 24004KT 6SM 28/20 A2971 RMK T02800200 IEM_DS3505
ZHHH,2008-05-16 12:00,ZHHH 161200Z AUTO 25002KT 9SM 28/17 A2971 RMK SLP063 T02760172 52003 IEM_DS3505
ZHHH,2008-05-16 13:00,ZHHH 161300Z AUTO 21004KT 6SM 27/20 A2974 RMK T02700200 IEM_DS3505
ZHHH,2008-05-16 14:00,ZHHH 161400Z AUTO 21004KT 6SM 26/20 A2974 RMK T02600200 IEM_DS3505
ZHHH,2008-05-16 15:00,ZHHH 161500Z AUTO 25002KT 7SM 25/18 A2974 RMK SLP071 T02530180 52008 IEM_DS3505
ZHHH,2008-05-16 16:00,ZHHH 161600Z AUTO 20004KT 6SM 25/21 A2974 RMK T02500210 IEM_DS3505
ZHHH,2008-05-16 17:00,ZHHH 161700Z AUTO 18004KT 4SM 25/20 A2971 RMK T02500200 IEM_DS3505
ZHHH,2008-05-16 18:00,ZHHH 161800Z AUTO 00000KT 9SM 24/19 A2971 RMK SLP060 T02400191 57011 IEM_DS3505
ZHHH,2008-05-16 19:00,ZHHH 161900Z AUTO 2SM 23/21 A2971 RMK T02300210 IEM_DS3505
ZHHH,2008-05-16 20:00,ZHHH 162000Z AUTO 10006KT 2SM 23/21 A2971 RMK T02300210 IEM_DS3505
ZHHH,2008-05-16 21:00,ZHHH 162100Z AUTO 09002KT 9SM 23/19 A2971 RMK SLP060 T02340193 54000 IEM_DS3505
ZHHH,2008-05-16 22:00,ZHHH 162200Z AUTO 09008KT 1SM 22/21 A2974 RMK T02200210 IEM_DS3505
ZHHH,2008-05-16 23:00,ZHHH 162300Z AUTO 10008KT 1SM 22/21 A2974 RMK T02200210 IEM_DS3505
ZHHH,2008-05-17 00:00,ZHHH 170000Z AUTO 09004KT 5SM 26/20 A2974 RMK SLP067 T02590202 52007 IEM_DS3505
ZHHH,2008-05-17 01:00,ZHHH 170100Z AUTO 11008KT 1 1/2SM 25/21 A2974 RMK T02500210 IEM_DS3505
ZHHH,2008-05-17 02:00,ZHHH 170200Z AUTO 13006KT 2SM 27/20 A2974 RMK T02700200 IEM_DS3505
ZHHH,2008-05-17 03:00,ZHHH 170300Z AUTO 14004KT 6SM 30/18 A2974 RMK SLP064 T03000178 57003 IEM_DS3505
ZHHH,2008-05-17 04:00,ZHHH 170400Z AUTO 12008KT 2 1/2SM 29/21 A2971 RMK T02900210 IEM_DS3505
ZHHH,2008-05-17 05:00,ZHHH 170500Z AUTO 13006KT 2 1/2SM 31/21 A2968 RMK T03100210 IEM_DS3505
ZHHH,2008-05-17 06:00,ZHHH 170600Z AUTO 20006KT 9SM 32/17 A2965 RMK SLP044 T03170168 57020 IEM_DS3505
ZHHH,2008-05-17 07:00,ZHHH 170700Z AUTO 3SM 32/21 A2962 RMK T03200210 IEM_DS3505
ZHHH,2008-05-17 08:00,ZHHH 170800Z AUTO 18006KT 5SM 32/21 A2959 RMK T03200210 IEM_DS3505
ZHHH,2008-05-17 09:00,ZHHH 170900Z AUTO 18004KT 9SM 32/18 A2959 RMK SLP017 T03160179 57027 IEM_DS3505
ZHHH,2008-05-17 10:00,ZHHH 171000Z AUTO 19006KT 4SM 30/22 A2956 RMK T03000220 IEM_DS3505
ZHHH,2008-05-17 11:00,ZHHH 171100Z AUTO 18004KT 3SM 29/21 A2959 RMK T02900210 IEM_DS3505
ZHHH,2008-05-17 12:00,ZHHH 171200Z AUTO 11002KT 9SM 29/19 A2962 RMK SLP025 T02930187 52008 IEM_DS3505
ZHHH,2008-05-17 13:00,ZHHH 171300Z AUTO 12004KT 3SM 28/23 A2962 RMK T02800230 IEM_DS3505
ZHHH,2008-05-17 14:00,ZHHH 171400Z AUTO 32002KT 3SM 28/23 A2965 RMK T02800230 IEM_DS3505
ZHHH,2008-05-17 15:00,ZHHH 171500Z AUTO 00000KT 7SM 26/21 A2965 RMK SLP036 T02640214 52011 IEM_DS3505
ZHHH,2008-05-17 16:00,ZHHH 171600Z AUTO 2 1/2SM 27/24 A2965 RMK T02700240 IEM_DS3505
ZHHH,2008-05-17 17:00,ZHHH 171700Z AUTO 05004KT 2SM 26/23 A2965 RMK T02600230 IEM_DS3505
ZHHH,2008-05-17 18:00,ZHHH 171800Z AUTO 27002KT 7SM 26/21 A2962 RMK SLP033 T02640207 57002 IEM_DS3505
ZHHH,2008-05-17 19:00,ZHHH 171900Z AUTO 1 1/4SM 25/23 A2962 RMK T02500230 IEM_DS3505
ZHHH,2008-05-17 20:00,ZHHH 172000Z AUTO 1 1/4SM 25/23 A2962 RMK T02500230 IEM_DS3505
ZHHH,2008-05-17 21:00,ZHHH 172100Z AUTO 29004KT 7SM 26/21 A2968 RMK SLP039 T02620208 52006 IEM_DS3505
ZHHH,2008-05-17 22:00,ZHHH 172200Z AUTO 05016KT 5SM 20/20 A2968 RMK T02000200 IEM_DS3505
ZHHH,2008-05-17 23:00,ZHHH 172300Z AUTO 09010KT 5SM 21/20 A2971 RMK T02100200 IEM_DS3505
ZHHH,2008-05-18 00:00,ZHHH 180000Z AUTO 04004KT 9SM 22/19 A2971 RMK 60008 70007 SLP062 T02230187 52022 IEM_DS3505
ZHHH,2008-05-18 01:00,ZHHH 180100Z AUTO 02006KT 7SM 22/20 A2974 RMK T02200200 IEM_DS3505
ZHHH,2008-05-18 02:00,ZHHH 180200Z AUTO 03012KT 7SM 22/19 A2977 RMK T02200190 IEM_DS3505
ZHHH,2008-05-18 03:00,ZHHH 180300Z AUTO 36004KT 11SM 23/17 A2977 RMK SLP083 T02310173 52021 IEM_DS3505
ZHHH,2008-05-18 04:00,ZHHH 180400Z AUTO 04008KT 7SM 23/20 A2977 RMK T02300200 IEM_DS3505
ZHHH,2008-05-18 05:00,ZHHH 180500Z AUTO 04010KT 4SM 24/20 A2977 RMK T02400200 IEM_DS3505
ZHHH,2008-05-18 06:00,ZHHH 180600Z AUTO 02004KT 12SM 24/17 A2977 RMK SLP079 T02430173 57004 IEM_DS3505
ZHHH,2008-05-18 07:00,ZHHH 180700Z AUTO 03010KT 3SM 24/19 A2977 RMK T02400190 IEM_DS3505
ZHHH,2008-05-18 08:00,ZHHH 180800Z AUTO 03010KT 3SM 24/19 A2977 RMK T02400190 IEM_DS3505
ZHHH,2008-05-18 09:00,ZHHH 180900Z AUTO 07004KT 11SM 25/16 A2977 RMK SLP082 T02490163 52003 IEM_DS3505
ZHHH,2008-05-18 10:00,ZHHH 181000Z AUTO 03006KT 5SM 25/19 A2977 RMK T02500190 IEM_DS3505
ZHHH,2008-05-18 11:00,ZHHH 181100Z AUTO 04006KT 5SM 24/18 A2980 RMK T02400180 IEM_DS3505
ZHHH,2008-05-18 12:00,ZHHH 181200Z AUTO 04002KT 11SM 24/16 A2983 RMK SLP103 T02360161 52021 IEM_DS3505
ZHHH,2008-05-18 13:00,ZHHH 181300Z AUTO 03006KT 5SM 22/18 A2988 RMK T02200180 IEM_DS3505
ZHHH,2008-05-18 14:00,ZHHH 181400Z AUTO 01004KT 4SM 21/18 A2991 RMK T02100180 IEM_DS3505
ZHHH,2008-05-18 15:00,ZHHH 181500Z AUTO 02002KT 9SM 22/16 A2991 RMK SLP128 T02210162 52025 IEM_DS3505
ZHHH,2008-05-18 16:00,ZHHH 181600Z AUTO 02004KT 4SM 20/17 A2991 RMK T02000170 IEM_DS3505
ZHHH,2008-05-18 17:00,ZHHH 181700Z AUTO 04004KT 3SM 19/17 A2991 RMK T01900170 IEM_DS3505
ZHHH,2008-05-18 18:00,ZHHH 181800Z AUTO 36002KT 11SM 20/16 A2991 RMK SLP128 T02050157 54000 IEM_DS3505
ZHHH,2008-05-18 19:00,ZHHH 181900Z AUTO 06006KT 4SM 19/16 A2991 RMK T01900160 IEM_DS3505
ZHHH,2008-05-18 20:00,ZHHH 182000Z AUTO 06006KT 3SM 18/16 A2991 RMK T01800160 IEM_DS3505
ZHHH,2008-05-18 21:00,ZHHH 182100Z AUTO 34002KT 9SM 19/16 A2994 RMK 70007 SLP136 T01890158 52008 IEM_DS3505
ZHHH,2008-05-18 22:00,ZHHH 182200Z AUTO 3SM 17/16 A2994 RMK T01700160 IEM_DS3505
ZHHH,2008-05-18 23:00,ZHHH 182300Z AUTO 00000KT 3SM 18/17 A2997 RMK T01800170 IEM_DS3505
ZHHH,2008-05-19 00:00,ZHHH 190000Z AUTO 04002KT 9SM 21/17 A2997 RMK SLP148 T02130167 52012 IEM_DS3505
ZHHH,2008-05-19 01:00,ZHHH 190100Z AUTO 3SM 23/18 A2997 RMK T02300180 IEM_DS3505
ZHHH,2008-05-19 02:00,ZHHH 190200Z AUTO 29004KT 3SM 24/18 A2997 RMK T02400180 IEM_DS3505
ZHHH,2008-05-19 03:00,ZHHH 190300Z AUTO 11002KT 11SM 26/14 A2997 RMK SLP149 T02600145 52001 IEM_DS3505
ZHHH,2008-05-19 04:00,ZHHH 190400Z AUTO 29004KT 6SM 26/14 A2994 RMK T02600140 IEM_DS3505
ZHHH,2008-05-19 05:00,ZHHH 190500Z AUTO 6SM 27/15 A2994 RMK T02700150 IEM_DS3505
ZHHH,2008-05-19 06:00,ZHHH 190600Z AUTO 02004KT 12SM 29/07 A2988 RMK SLP123 T02870073 57026 IEM_DS3505
ZHHH,2008-05-19 07:00,ZHHH 190700Z AUTO 28004KT 6SM 29/11 A2988 RMK T02900110 IEM_DS3505
ZHHH,2008-05-19 08:00,ZHHH 190800Z AUTO 6SM 30/11 A2985 RMK T03000110 IEM_DS3505
ZHHH,2008-05-19 09:00,ZHHH 190900Z AUTO 27004KT 11SM 30/08 A2983 RMK SLP105 T02960075 57018 IEM_DS3505
ZHHH,2008-05-19 10:00,ZHHH 191000Z AUTO 23004KT 6SM 28/12 A2985 RMK T02800120 IEM_DS3505
ZHHH,2008-05-19 11:00,ZHHH 191100Z AUTO 20004KT 6SM 27/14 A2983 RMK T02700140 IEM_DS3505
ZHHH,2008-05-19 12:00,ZHHH 191200Z AUTO 09002KT 11SM 24/12 A2985 RMK SLP105 T02440120 54000 IEM_DS3505
ZHHH,2008-05-19 13:00,ZHHH 191300Z AUTO 17004KT 6SM 25/11 A2985 RMK T02500110 IEM_DS3505
ZHHH,2008-05-19 14:00,ZHHH 191400Z AUTO 16004KT 6SM 25/12 A2988 RMK T02500120 IEM_DS3505
ZHHH,2008-05-19 15:00,ZHHH 191500Z AUTO 00000KT 9SM 21/15 A2988 RMK SLP117 T02140153 52012 IEM_DS3505
ZHHH,2008-05-19 16:00,ZHHH 191600Z AUTO 21004KT 6SM 23/15 A2988 RMK T02300150 IEM_DS3505
ZHHH,2008-05-19 17:00,ZHHH 191700Z AUTO 22004KT 3SM 23/14 A2988 RMK T02300140 IEM_DS3505
ZHHH,2008-05-19 18:00,ZHHH 191800Z AUTO 11002KT 9SM 21/15 A2985 RMK SLP110 T02090148 57007 IEM_DS3505
ZHHH,2008-05-19 19:00,ZHHH 191900Z AUTO 16004KT 3SM 22/15 A2985 RMK T02200150 IEM_DS3505
ZHHH,2008-05-19 20:00,ZHHH 192000Z AUTO 06006KT 3SM 19/16 A2985 RMK T01900160 IEM_DS3505
ZHHH,2008-05-19 21:00,ZHHH 192100Z AUTO 14002KT 9SM 20/15 A2985 RMK SLP108 T02010153 57002 IEM_DS3505
ZHHH,2008-05-19 22:00,ZHHH 192200Z AUTO 12006KT 2SM 19/18 A2983 RMK T01900180 IEM_DS3505
ZHHH,2008-05-19 23:00,ZHHH 192300Z AUTO 11006KT 2SM 20/18 A2985 RMK T02000180 IEM_DS3505
ZHHH,2008-05-20 00:00,ZHHH 200000Z AUTO 14002KT 11SM 24/15 A2985 RMK SLP110 T02370150 52002 IEM_DS3505
ZHHH,2008-05-20 01:00,ZHHH 200100Z AUTO 19008KT 2 1/2SM 26/17 A2985 RMK T02600170 IEM_DS3505
ZHHH,2008-05-20 02:00,ZHHH 200200Z AUTO 22010KT 4SM 28/14 A2985 RMK T02800140 IEM_DS3505
ZHHH,2008-05-20 03:00,ZHHH 200300Z AUTO 22004KT 11SM 29/09 A2985 RMK SLP105 T02930089 57005 IEM_DS3505
ZHHH,2008-05-20 04:00,ZHHH 200400Z AUTO 22014KT 6SM 30/10 A2983 RMK T03000100 IEM_DS3505
ZHHH,2008-05-20 05:00,ZHHH 200500Z AUTO 22012KT 6SM 30/11 A2980 RMK T03000110 IEM_DS3505
ZHHH,2008-05-20 06:00,ZHHH 200600Z AUTO 25006KT 11SM 31/07 A2977 RMK SLP077 T03070066 57028 IEM_DS3505
ZHHH,2008-05-20 07:00,ZHHH 200700Z AUTO 25012KT 6SM 31/08 A2974 RMK T03100080 IEM_DS3505
ZHHH,2008-05-20 08:00,ZHHH 200800Z AUTO 23010KT 6SM 31/10 A2971 RMK T03100100 IEM_DS3505
ZHHH,2008-05-20 09:00,ZHHH 200900Z AUTO 27004KT 9SM 31/07 A2971 RMK SLP056 T03080073 57021 IEM_DS3505
ZHHH,2008-05-20 10:00,ZHHH 201000Z AUTO 23006KT 6SM 29/13 A2971 RMK T02900130 IEM_DS3505
ZHHH,2008-05-20 11:00,ZHHH 201100Z AUTO 21008KT 6SM 27/14 A2968 RMK T02700140 IEM_DS3505
ZHHH,2008-05-20 12:00,ZHHH 201200Z AUTO 25002KT 11SM 27/11 A2971 RMK SLP056 T02710108 54000 IEM_DS3505
ZHHH,2008-05-20 13:00,ZHHH 201300Z AUTO 00000KT 6SM 26/14 A2971 RMK T02600140 IEM_DS3505
ZHHH,2008-05-20 14:00,ZHHH 201400Z AUTO 17004KT 6SM 25/15 A2974 RMK T02500150 IEM_DS3505
ZHHH,2008-05-20 15:00,ZHHH 201500Z AUTO 16002KT 9SM 25/14 A2974 RMK SLP071 T02520140 52015 IEM_DS3505
ZHHH,2008-05-20 16:00,ZHHH 201600Z AUTO 00000KT 6SM 25/15 A2974 RMK T02500150 IEM_DS3505
ZHHH,2008-05-20 17:00,ZHHH 201700Z AUTO 00000KT 6SM 25/15 A2974 RMK T02500150 IEM_DS3505
ZHHH,2008-05-20 18:00,ZHHH 201800Z AUTO 09002KT 7SM 24/15 A2974 RMK SLP066 T02360149 57005 IEM_DS3505
ZHHH,2008-05-20 19:00,ZHHH 201900Z AUTO 00000KT 6SM 23/16 A2974 RMK T02300160 IEM_DS3505
ZHHH,2008-05-20 20:00,ZHHH 202000Z AUTO 08004KT 6SM 22/17 A2974 RMK T02200170 IEM_DS3505
ZHHH,2008-05-20 21:00,ZHHH 202100Z AUTO 11002KT 6SM 22/16 A2974 RMK SLP069 T02210162 52003 IEM_DS3505
ZHHH,2008-05-20 22:00,ZHHH 202200Z AUTO 09004KT 3SM 21/19 A2974 RMK T02100190 IEM_DS3505
ZHHH,2008-05-20 23:00,ZHHH 202300Z AUTO 10004KT 1SM 22/20 A2977 RMK T02200200 IEM_DS3505
ZHHH,2008-05-21 00:00,ZHHH 210000Z AUTO 09002KT 9SM 28/13 A2977 RMK SLP079 T02760132 52010 IEM_DS3505
ZHHH,2008-05-21 01:00,ZHHH 210100Z AUTO 10006KT 1 1/2SM 27/21 A2977 RMK T02700210 IEM_DS3505
ZHHH,2008-05-21 02:00,ZHHH 210200Z AUTO 11006KT 2 1/2SM 29/18 A2977 RMK T02900180 IEM_DS3505
ZHHH,2008-05-21 03:00,ZHHH 210300Z AUTO 14004KT 11SM 31/12 A2977 RMK SLP078 T03100119 57001 IEM_DS3505
ZHHH,2008-05-21 04:00,ZHHH 210400Z AUTO 23006KT 6SM 31/16 A2977 RMK T03100160 IEM_DS3505
ZHHH,2008-05-21 05:00,ZHHH 210500Z AUTO 6SM 32/17 A2974 RMK T03200170 IEM_DS3505
ZHHH,2008-05-21 06:00,ZHHH 210600Z AUTO 18006KT 12SM 33/10 A2971 RMK SLP062 T03270095 57016 IEM_DS3505
ZHHH,2008-05-21 07:00,ZHHH 210700Z AUTO 6SM 32/15 A2971 RMK T03200150 IEM_DS3505
ZHHH,2008-05-21 08:00,ZHHH 210800Z AUTO 28004KT 6SM 33/16 A2968 RMK T03300160 IEM_DS3505
ZHHH,2008-05-21 09:00,ZHHH 210900Z AUTO 22004KT 12SM 33/ A2968 RMK SLP044 57018 IEM_DS3505
ZHHH,2008-05-21 10:00,ZHHH 211000Z AUTO 00000KT 6SM 31/17 A2968 RMK T03100170 IEM_DS3505
ZHHH,2008-05-21 11:00,ZHHH 211100Z AUTO 00000KT 6SM 30/16 A2968 RMK T03000160 IEM_DS3505
ZHHH,2008-05-21 12:00,ZHHH 211200Z AUTO 07002KT 11SM 27/13 A2971 RMK SLP055 T02680132 52011 IEM_DS3505
ZHHH,2008-05-21 13:00,ZHHH 211300Z AUTO 2 1/2SM 28/15 A2971 RMK T02800150 IEM_DS3505
ZHHH,2008-05-21 14:00,ZHHH 211400Z AUTO 11004KT 2SM 28/16 A2971 RMK T02800160 IEM_DS3505
ZHHH,2008-05-21 15:00,ZHHH 211500Z AUTO 11002KT 11SM 24/18 A2974 RMK SLP066 T02400177 52011 IEM_DS3505
ZHHH,2008-05-21 16:00,ZHHH 211600Z AUTO 11006KT 2SM 26/18 A2974 RMK T02600180 IEM_DS3505
ZHHH,2008-05-21 17:00,ZHHH 211700Z AUTO 2SM 25/19 A2971 RMK T02500190 IEM_DS3505
ZHHH,2008-05-21 18:00,ZHHH 211800Z AUTO 00000KT 9SM 24/19 A2971 RMK SLP059 T02360189 57007 IEM_DS3505
ZHHH,2008-05-21 19:00,ZHHH 211900Z AUTO 09006KT 2 1/2SM 23/21 A2971 RMK T02300210 IEM_DS3505
ZHHH,2008-05-21 20:00,ZHHH 212000Z AUTO 09008KT 2 1/2SM 23/21 A2971 RMK T02300210 IEM_DS3505
ZHHH,2008-05-21 21:00,ZHHH 212100Z AUTO 07002KT 9SM 24/19 A2971 RMK SLP060 T02420186 52001 IEM_DS3505
ZHHH,2008-05-21 22:00,ZHHH 212200Z AUTO 12006KT 1SM 23/21 A2974 RMK T02300210 IEM_DS3505
ZHHH,2008-05-21 23:00,ZHHH 212300Z AUTO 10006KT 1SM 23/21 A2974 RMK T02300210 IEM_DS3505
ZHHH,2008-05-22 00:00,ZHHH 220000Z AUTO 07002KT 9SM 28/20 A2977 RMK SLP075 T02800198 52015 IEM_DS3505
ZHHH,2008-05-22 01:00,ZHHH 220100Z AUTO 10006KT 1 1/2SM 28/22 A2977 RMK T02800220 IEM_DS3505
ZHHH,2008-05-22 02:00,ZHHH 220200Z AUTO 11006KT 2 1/2SM 29/23 A2977 RMK T02900230 IEM_DS3505
ZHHH,2008-05-22 03:00,ZHHH 220300Z AUTO 14004KT 11SM 32/17 A2977 RMK SLP075 T03160171 54000 IEM_DS3505
ZHHH,2008-05-22 04:00,ZHHH 220400Z AUTO 3SM 32/20 A2974 RMK T03200200 IEM_DS3505
ZHHH,2008-05-22 05:00,ZHHH 220500Z AUTO 30004KT 4SM 33/20 A2974 RMK T03300200 IEM_DS3505
ZHHH,2008-05-22 06:00,ZHHH 220600Z AUTO 20002KT 11SM 34/14 A2971 RMK SLP059 T03360141 57016 IEM_DS3505
ZHHH,2008-05-22 07:00,ZHHH 220700Z AUTO 27004KT 4SM 34/20 A2971 RMK T03400200 IEM_DS3505
ZHHH,2008-05-22 08:00,ZHHH 220800Z AUTO 18006KT 3SM 32/20 A2968 RMK T03200200 IEM_DS3505
ZHHH,2008-05-22 09:00,ZHHH 220900Z AUTO 29002KT 11SM 33/13 A2968 RMK SLP047 T03280130 57012 IEM_DS3505
ZHHH,2008-05-22 10:00,ZHHH 221000Z AUTO 14004KT 2 1/2SM 31/21 A2968 RMK T03100210 IEM_DS3505
ZHHH,2008-05-22 11:00,ZHHH 221100Z AUTO 13006KT 2SM 30/21 A2971 RMK T03000210 IEM_DS3505
ZHHH,2008-05-22 12:00,ZHHH 221200Z AUTO 09002KT 9SM 30/18 A2971 RMK SLP058 T03020176 52012 IEM_DS3505
ZHHH,2008-05-22 13:00,ZHHH 221300Z AUTO 13004KT 2SM 29/22 A2974 RMK T02900220 IEM_DS3505
ZHHH,2008-05-22 14:00,ZHHH 221400Z AUTO 35004KT 1 1/4SM 27/22 A2974 RMK T02700220 IEM_DS3505
ZHHH,2008-05-22 15:00,ZHHH 221500Z AUTO 32002KT 7SM 27/19 A2974 RMK SLP070 T02740192 52012 IEM_DS3505
ZHHH,2008-05-22 16:00,ZHHH 221600Z AUTO 35004KT 1SM 26/21 A2974 RMK T02600210 IEM_DS3505
ZHHH,2008-05-22 18:00,ZHHH 221800Z AUTO 34002KT 7SM 26/19 A2971 RMK SLP060 T02640188 57010 IEM_DS3505
ZHHH,2008-05-22 19:00,ZHHH 221900Z AUTO 1SM 25/23 A2971 RMK T02500230 IEM_DS3505
ZHHH,2008-05-22 20:00,ZHHH 222000Z AUTO 36004KT 1SM 24/23 A2971 RMK T02400230 IEM_DS3505
ZHHH,2008-05-22 21:00,ZHHH 222100Z AUTO 02002KT 7SM 25/20 A2971 RMK SLP058 T02510201 57002 IEM_DS3505
ZHHH,2008-05-22 22:00,ZHHH 222200Z AUTO 01004KT 1SM 24/22 A2971 RMK T02400220 IEM_DS3505
ZHHH,2008-05-22 23:00,ZHHH 222300Z AUTO 04004KT 1SM 24/23 A2974 RMK T02400230 IEM_DS3505
ZHHH,2008-05-23 00:00,ZHHH 230000Z AUTO 04004KT 7SM 26/22 A2974 RMK SLP067 T02640225 52008 IEM_DS3505
ZHHH,2008-05-23 01:00,ZHHH 230100Z AUTO 04004KT 1SM 26/23 A2974 RMK T02600230 IEM_DS3505
ZHHH,2008-05-23 02:00,ZHHH 230200Z AUTO 06006KT 1SM 27/23 A2974 RMK T02700230 IEM_DS3505
ZHHH,2008-05-23 03:00,ZHHH 230300Z AUTO 04002KT 7SM 29/22 A2974 RMK SLP066 T02910218 57001 IEM_DS3505
ZHHH,2008-05-23 04:00,ZHHH 230400Z AUTO 06008KT 1 1/4SM 28/22 A2974 RMK T02800220 IEM_DS3505
ZHHH,2008-05-23 05:00,ZHHH 230500Z AUTO 02004KT 1 1/4SM 28/23 A2971 RMK T02800230 IEM_DS3505
ZHHH,2008-05-23 06:00,ZHHH 230600Z AUTO 27004KT 6SM 28/21 A2971 RMK SLP058 T02780211 57008 IEM_DS3505
ZHHH,2008-05-23 07:00,ZHHH 230700Z AUTO 11012KT 1 1/4SM 22/20 A2971 RMK T02200200 IEM_DS3505
ZHHH,2008-05-23 08:00,ZHHH 230800Z AUTO 09010KT 1 1/4SM 22/21 A2971 RMK T02200210 IEM_DS3505
ZHHH,2008-05-23 09:00,ZHHH 230900Z AUTO 07004KT 6SM 23/20 A2971 RMK SLP055 T02310204 57003 IEM_DS3505
ZHHH,2008-05-23 10:00,ZHHH 231000Z AUTO 09006KT 1SM 21/21 A2965 RMK T02100210 IEM_DS3505
ZHHH,2008-05-23 11:00,ZHHH 231100Z AUTO 11006KT 2SM 21/21 A2965 RMK T02100210 IEM_DS3505
ZHHH,2008-05-23 12:00,ZHHH 231200Z AUTO 36002KT 7SM 23/20 A2968 RMK 60047 SLP049 T02330197 57006 IEM_DS3505
ZHHH,2008-05-23 13:00,ZHHH 231300Z AUTO 11006KT 2SM 22/21 A2968 RMK T02200210 IEM_DS3505
ZHHH,2008-05-23 14:00,ZHHH 231400Z AUTO 05004KT 1 1/4SM 21/21 A2968 RMK T02100210 IEM_DS3505
ZHHH,2008-05-23 15:00,ZHHH 231500Z AUTO 07002KT 7SM 23/20 A2971 RMK SLP054 T02270200 52005 IEM_DS3505
ZHHH,2008-05-23 16:00,ZHHH 231600Z AUTO 13004KT 1 1/4SM 22/21 A2968 RMK T02200210 IEM_DS3505
ZHHH,2008-05-23 17:00,ZHHH 231700Z AUTO 1 1/4SM 22/21 A2968 RMK T02200210 IEM_DS3505
ZHHH,2008-05-23 18:00,ZHHH 231800Z AUTO 00000KT 7SM 22/20 A2968 RMK SLP044 T02220203 57010 IEM_DS3505
ZHHH,2008-05-23 19:00,ZHHH 231900Z AUTO 04002KT 1 1/4SM 22/21 A2968 RMK T02200210 IEM_DS3505
ZHHH,2008-05-23 20:00,ZHHH 232000Z AUTO 1 1/4SM 21/21 A2965 RMK T02100210 IEM_DS3505
ZHHH,2008-05-23 21:00,ZHHH 232100Z AUTO 00000KT 6SM 22/21 A2965 RMK 70046 SLP040 T02240209 57004 IEM_DS3505
ZHHH,2008-05-23 22:00,ZHHH 232200Z AUTO 03002KT 1SM 21/21 A2965 RMK T02100210 IEM_DS3505
ZHHH,2008-05-23 23:00,ZHHH 232300Z AUTO 06004KT 1SM 22/21 A2968 RMK T02200210 IEM_DS3505
ZHHH,2008-05-24 00:00,ZHHH 240000Z AUTO 29002KT 7SM 24/21 A2971 RMK 70046 SLP054 T02420213 52014 IEM_DS3505
ZHHH,2008-05-24 01:00,ZHHH 240100Z AUTO 1SM 23/22 A2971 RMK T02300220 IEM_DS3505
ZHHH,2008-05-24 02:00,ZHHH 240200Z AUTO 1SM 25/23 A2968 RMK T02500230 IEM_DS3505
ZHHH,2008-05-24 03:00,ZHHH 240300Z AUTO 27004KT 7SM 27/22 A2968 RMK SLP050 T02680216 57004 IEM_DS3505
ZHHH,2008-05-24 04:00,ZHHH 240400Z AUTO 22004KT 1 1/4SM 28/24 A2968 RMK T02800240 IEM_DS3505
ZHHH,2008-05-24 05:00,ZHHH 240500Z AUTO 27006KT 1SM 29/24 A2965 RMK T02900240 IEM_DS3505
ZHHH,2008-05-24 06:00,ZHHH 240600Z AUTO 20002KT 9SM 30/21 A2965 RMK SLP037 T02960210 57013 IEM_DS3505
ZHHH,2008-05-24 07:00,ZHHH 240700Z AUTO 27006KT 1 1/2SM 30/24 A2962 RMK T03000240 IEM_DS3505
ZHHH,2008-05-24 08:00,ZHHH 240800Z AUTO 25004KT 1 1/2SM 30/24 A2962 RMK T03000240 IEM_DS3505
ZHHH,2008-05-24 09:00,ZHHH 240900Z AUTO 25004KT 9SM 30/22 A2959 RMK SLP023 T02960215 57014 IEM_DS3505
ZHHH,2008-05-24 10:00,ZHHH 241000Z AUTO 22006KT 1 1/4SM 29/24 A2959 RMK T02900240 IEM_DS3505
ZHHH,2008-05-24 11:00,ZHHH 241100Z AUTO 22004KT 1SM 28/24 A2962 RMK T02800240 IEM_DS3505
ZHHH,2008-05-24 12:00,ZHHH 241200Z AUTO 22002KT 9SM 28/22 A2962 RMK SLP029 T02770217 52006 IEM_DS3505
ZHHH,2008-05-24 13:00,ZHHH 241300Z AUTO 1SM 27/24 A2965 RMK T02700240 IEM_DS3505
ZHHH,2008-05-24 14:00,ZHHH 241400Z AUTO 18004KT 1SM 26/24 A2965 RMK T02600240 IEM_DS3505
ZHHH,2008-05-24 15:00,ZHHH 241500Z AUTO 00000KT 7SM 26/22 A2968 RMK SLP046 T02600225 52017 IEM_DS3505
ZHHH,2008-05-24 16:00,ZHHH 241600Z AUTO 19004KT 1SM 25/24 A2968 RMK T02500240 IEM_DS3505
ZHHH,2008-05-24 17:00,ZHHH 241700Z AUTO 21002KT 1SM 25/24 A2968 RMK T02500240 IEM_DS3505
ZHHH,2008-05-24 18:00,ZHHH 241800Z AUTO 00000KT 7SM 24/22 A2968 RMK SLP044 T02440221 57002 IEM_DS3505
ZHHH,2008-05-24 19:00,ZHHH 241900Z AUTO 34002KT 1SM 25/23 A2968 RMK T02500230 IEM_DS3505
ZHHH,2008-05-24 20:00,ZHHH 242000Z AUTO 04004KT 1/2SM 24/23 A2968 RMK T02400230 IEM_DS3505
ZHHH,2008-05-24 21:00,ZHHH 242100Z AUTO 36002KT 4SM 23/22 A2968 RMK SLP048 T02340220 52004 IEM_DS3505
ZHHH,2008-05-24 22:00,ZHHH 242200Z AUTO 07004KT 1/2SM 23/23 A2971 RMK T02300230 IEM_DS3505
ZHHH,2008-05-24 23:00,ZHHH 242300Z AUTO 11004KT 1/2SM 24/24 A2971 RMK T02400240 IEM_DS3505
ZHHH,2008-05-25 00:00,ZHHH 250000Z AUTO 07002KT 5SM 27/22 A2971 RMK SLP062 T02670223 52014 IEM_DS3505
ZHHH,2008-05-25 01:00,ZHHH 250100Z AUTO 09004KT 1SM 27/25 A2974 RMK T02700250 IEM_DS3505
ZHHH,2008-05-25 02:00,ZHHH 250200Z AUTO 10004KT 1SM 28/25 A2974 RMK T02800250 IEM_DS3505
ZHHH,2008-05-25 03:00,ZHHH 250300Z AUTO 02004KT 5SM 30/22 A2974 RMK SLP066 T02950222 52004 IEM_DS3505
ZHHH,2008-05-25 04:00,ZHHH 250400Z AUTO 10006KT 1SM 30/25 A2971 RMK T03000250 IEM_DS3505
ZHHH,2008-05-25 05:00,ZHHH 250500Z AUTO 12006KT 1SM 31/25 A2971 RMK T03100250 IEM_DS3505
ZHHH,2008-05-25 06:00,ZHHH 250600Z AUTO 02002KT 7SM 32/22 A2968 RMK SLP051 T03200221 57015 IEM_DS3505
ZHHH,2008-05-25 07:00,ZHHH 250700Z AUTO 1 1/2SM 32/24 A2968 RMK T03200240 IEM_DS3505
ZHHH,2008-05-25 08:00,ZHHH 250800Z AUTO 12004KT 2SM 32/23 A2965 RMK T03200230 IEM_DS3505
ZHHH,2008-05-25 09:00,ZHHH 250900Z AUTO 00000KT 7SM 32/21 A2965 RMK SLP033 T03250207 57018 IEM_DS3505
ZHHH,2008-05-25 10:00,ZHHH 251000Z AUTO 10004KT 2 1/2SM 32/24 A2965 RMK T03200240 IEM_DS3505
ZHHH,2008-05-25 11:00,ZHHH 251100Z AUTO 03004KT 1 1/2SM 30/24 A2965 RMK T03000240 IEM_DS3505
ZHHH,2008-05-25 12:00,ZHHH 251200Z AUTO 07002KT 7SM 29/22 A2968 RMK SLP044 T02920224 52011 IEM_DS3505
ZHHH,2008-05-25 13:00,ZHHH 251300Z AUTO 08006KT 1 1/2SM 28/24 A2968 RMK T02800240 IEM_DS3505
ZHHH,2008-05-25 14:00,ZHHH 251400Z AUTO 07004KT 2 1/2SM 28/24 A2971 RMK T02800240 IEM_DS3505
ZHHH,2008-05-25 15:00,ZHHH 251500Z AUTO 07002KT 7SM 27/22 A2971 RMK SLP058 T02690223 52014 IEM_DS3505
ZHHH,2008-05-25 16:00,ZHHH 251600Z AUTO 11006KT 2 1/2SM 27/24 A2971 RMK T02700240 IEM_DS3505
ZHHH,2008-05-25 17:00,ZHHH 251700Z AUTO 10006KT 2 1/2SM 26/24 A2968 RMK T02600240 IEM_DS3505
ZHHH,2008-05-25 18:00,ZHHH 251800Z AUTO 11002KT 7SM 28/22 A2968 RMK SLP047 T02810221 57010 IEM_DS3505
ZHHH,2008-05-25 19:00,ZHHH 251900Z AUTO 10008KT 1 1/4SM 26/24 A2968 RMK T02600240 IEM_DS3505
ZHHH,2008-05-25 20:00,ZHHH 252000Z AUTO 12008KT 1 1/2SM 26/24 A2968 RMK T02600240 IEM_DS3505
ZHHH,2008-05-25 21:00,ZHHH 252100Z AUTO 11004KT 7SM 27/22 A2965 RMK SLP043 T02720217 57004 IEM_DS3505
ZHHH,2008-05-25 22:00,ZHHH 252200Z AUTO 11010KT 1SM 25/24 A2968 RMK T02500240 IEM_DS3505
ZHHH,2008-05-25 23:00,ZHHH 252300Z AUTO 11010KT 1 1/2SM 26/24 A2968 RMK T02600240 IEM_DS3505
ZHHH,2008-05-26 00:00,ZHHH 260000Z AUTO 14004KT 7SM 29/22 A2971 RMK SLP054 T02920222 52011 IEM_DS3505
ZHHH,2008-05-26 01:00,ZHHH 260100Z AUTO 12010KT 1 1/2SM 29/25 A2971 RMK T02900250 IEM_DS3505
ZHHH,2008-05-26 02:00,ZHHH 260200Z AUTO 14008KT 1 1/2SM 30/25 A2971 RMK T03000250 IEM_DS3505
ZHHH,2008-05-26 03:00,ZHHH 260300Z AUTO 14006KT 9SM 32/23 A2968 RMK SLP050 T03240228 57004 IEM_DS3505
ZHHH,2008-05-26 04:00,ZHHH 260400Z AUTO 18008KT 3SM 32/26 A2968 RMK T03200260 IEM_DS3505
ZHHH,2008-05-26 05:00,ZHHH 260500Z AUTO 19006KT 4SM 33/26 A2965 RMK T03300260 IEM_DS3505
ZHHH,2008-05-26 06:00,ZHHH 260600Z AUTO 27004KT 9SM 31/24 A2965 RMK 60002 SLP036 T03090243 57014 IEM_DS3505
ZHHH,2008-05-26 07:00,ZHHH 260700Z AUTO 13008KT 7SM 24/23 A2962 RMK T02400230 IEM_DS3505
ZHHH,2008-05-26 08:00,ZHHH 260800Z AUTO 06006KT 7SM 26/25 A2962 RMK T02600250 IEM_DS3505
ZHHH,2008-05-26 09:00,ZHHH 260900Z AUTO 09002KT 9SM 28/25 A2956 RMK SLP010 T02830247 57026 IEM_DS3505
ZHHH,2008-05-26 10:00,ZHHH 261000Z AUTO 13004KT 2SM 28/27 A2959 RMK T02800270 IEM_DS3505
ZHHH,2008-05-26 11:00,ZHHH 261100Z AUTO 11006KT 1 1/4SM 28/27 A2959 RMK T02800270 IEM_DS3505
ZHHH,2008-05-26 12:00,ZHHH 261200Z AUTO 14002KT 9SM 28/24 A2959 RMK 60059 SLP023 T02840240 52013 IEM_DS3505
ZHHH,2008-05-26 13:00,ZHHH 261300Z AUTO 13004KT 1 1/4SM 28/27 A2962 RMK T02800270 IEM_DS3505
ZHHH,2008-05-26 14:00,ZHHH 261400Z AUTO 1 1/4SM 27/26 A2962 RMK T02700260 IEM_DS3505
ZHHH,2008-05-26 15:00,ZHHH 261500Z AUTO 20002KT 9SM 28/23 A2962 RMK SLP027 T02780234 52004 IEM_DS3505
ZHHH,2008-05-26 16:00,ZHHH 261600Z AUTO 24014KT 2SM 24/23 A2962 RMK T02400230 IEM_DS3505
ZHHH,2008-05-26 17:00,ZHHH 261700Z AUTO 00000KT 3SM 24/23 A2962 RMK T02400230 IEM_DS3505
ZHHH,2008-05-26 18:00,ZHHH 261800Z AUTO 27002KT 7SM 26/23 A2962 RMK 60012 SLP026 T02550234 57001 IEM_DS3505
ZHHH,2008-05-26 19:00,ZHHH 261900Z AUTO 00000KT 3SM 24/24 A2959 RMK T02400240 IEM_DS3505
ZHHH,2008-05-26 20:00,ZHHH 262000Z AUTO 00000KT 3SM 24/24 A2956 RMK T02400240 IEM_DS3505
ZHHH,2008-05-26 21:00,ZHHH 262100Z AUTO 11002KT 9SM 25/23 A2956 RMK 70071 SLP008 T02530228 57019 IEM_DS3505
ZHHH,2008-05-26 22:00,ZHHH 262200Z AUTO 12004KT 2SM 25/25 A2956 RMK T02500250 IEM_DS3505
ZHHH,2008-05-26 23:00,ZHHH 262300Z AUTO 00000KT 2SM 25/25 A2959 RMK T02500250 IEM_DS3505
ZHHH,2008-05-27 00:00,ZHHH 270000Z AUTO 27006KT 9SM 26/23 A2962 RMK 60001 70071 SLP025 T02590234 52017 IEM_DS3505
ZHHH,2008-05-27 01:00,ZHHH 270100Z AUTO 34006KT 1SM 24/24 A2962 RMK T02400240 IEM_DS3505
ZHHH,2008-05-27 02:00,ZHHH 270200Z AUTO 35004KT 2SM 24/24 A2959 RMK T02400240 IEM_DS3505
ZHHH,2008-05-27 03:00,ZHHH 270300Z AUTO 07002KT 6SM 25/24 A2959 RMK SLP014 T02500238 57011 IEM_DS3505
ZHHH,2008-05-27 04:00,ZHHH 270400Z AUTO 06002KT 7SM 24/24 A2956 RMK T02400240 IEM_DS3505
ZHHH,2008-05-27 05:00,ZHHH 270500Z AUTO 06004KT 7SM 25/25 A2953 RMK T02500250 IEM_DS3505
ZHHH,2008-05-27 06:00,ZHHH 270600Z AUTO 36002KT 7SM 26/24 A2953 RMK 60039 SLP997 T02550241 57017 IEM_DS3505
ZHHH,2008-05-27 07:00,ZHHH 270700Z AUTO 02004KT 1 1/2SM 24/24 A2950 RMK T02400240 IEM_DS3505
ZHHH,2008-05-27 08:00,ZHHH 270800Z AUTO 06006KT 7SM 25/25 A2947 RMK T02500250 IEM_DS3505
ZHHH,2008-05-27 09:00,ZHHH 270900Z AUTO 07004KT 7SM 26/24 A2947 RMK SLP977 T02580242 57020 IEM_DS3505
ZHHH,2008-05-27 10:00,ZHHH 271000Z AUTO 08006KT 2SM 25/25 A2947 RMK T02500250 IEM_DS3505
ZHHH,2008-05-27 11:00,ZHHH 271100Z AUTO 07006KT 1 1/2SM 25/25 A2947 RMK T02500250 IEM_DS3505
ZHHH,2008-05-27 12:00,ZHHH 271200Z AUTO 36002KT 5SM 25/24 A2947 RMK 60079 SLP980 T02540244 52003 IEM_DS3505
ZHHH,2008-05-27 13:00,ZHHH 271300Z AUTO 07008KT 2 1/2SM 24/24 A2947 RMK T02400240 IEM_DS3505
ZHHH,2008-05-27 14:00,ZHHH 271400Z AUTO 06008KT 4SM 24/24 A2950 RMK T02400240 IEM_DS3505
ZHHH,2008-05-27 15:00,ZHHH 271500Z AUTO 04004KT 6SM 24/24 A2947 RMK SLP980 T02450235 54000 IEM_DS3505
ZHHH,2008-05-27 16:00,ZHHH 271600Z AUTO 06012KT 3SM 24/24 A2947 RMK T02400240 IEM_DS3505
ZHHH,2008-05-27 17:00,ZHHH 271700Z AUTO 05010KT 1 1/4SM 23/23 A2947 RMK T02300230 IEM_DS3505
ZHHH,2008-05-27 18:00,ZHHH 271800Z AUTO 02004KT 6SM 24/23 A2947 RMK 60248 SLP975 T02400230 57005 IEM_DS3505
ZHHH,2008-05-27 19:00,ZHHH 271900Z AUTO 02006KT 7SM 24/24 A2947 RMK T02400240 IEM_DS3505
ZHHH,2008-05-27 20:00,ZHHH 272000Z AUTO 01006KT 6SM 23/23 A2947 RMK T02300230 IEM_DS3505
ZHHH,2008-05-27 21:00,ZHHH 272100Z AUTO 02006KT 7SM 24/22 A2947 RMK 70399 SLP983 T02360217 52008 IEM_DS3505
ZHHH,2008-05-27 22:00,ZHHH 272200Z AUTO 02010KT 7SM 22/22 A2950 RMK T02200220 IEM_DS3505
ZHHH,2008-05-27 23:00,ZHHH 272300Z AUTO 03010KT 6SM 23/22 A2953 RMK T02300220 IEM_DS3505
ZHHH,2008-05-28 00:00,ZHHH 280000Z AUTO 02006KT 12SM 24/20 A2956 RMK 60031 70399 SLP011 T02380203 52028 IEM_DS3505
ZHHH,2008-05-28 01:00,ZHHH 280100Z AUTO 02010KT 7SM 24/22 A2959 RMK T02400220 IEM_DS3505
ZHHH,2008-05-28 02:00,ZHHH 280200Z AUTO 02008G17KT 7SM 25/22 A2959 RMK T02500220 IEM_DS3505
ZHHH,2008-05-28 03:00,ZHHH 280300Z AUTO 07004KT 12SM 26/21 A2959 RMK SLP020 T02630211 52009 IEM_DS3505
ZHHH,2008-05-28 04:00,ZHHH 280400Z AUTO 02008KT 7SM 27/23 A2959 RMK T02700230 IEM_DS3505
ZHHH,2008-05-28 05:00,ZHHH 280500Z AUTO 03012KT 4SM 28/23 A2959 RMK T02800230 IEM_DS3505
ZHHH,2008-05-28 06:00,ZHHH 280600Z AUTO 36006KT 9SM 28/21 A2959 RMK 60000 SLP017 T02810212 57003 IEM_DS3505
ZHHH,2008-05-28 07:00,ZHHH 280700Z AUTO 04012KT 5SM 28/19 A2959 RMK T02800190 IEM_DS3505
ZHHH,2008-05-28 08:00,ZHHH 280800Z AUTO 03008KT 6SM 29/18 A2959 RMK T02900180 IEM_DS3505
ZHHH,2008-05-28 09:00,ZHHH 280900Z AUTO 07006KT 9SM 29/15 A2959 RMK SLP016 T02890147 57001 IEM_DS3505
ZHHH,2008-05-28 10:00,ZHHH 281000Z AUTO 03006KT 6SM 28/18 A2959 RMK T02800180 IEM_DS3505
ZHHH,2008-05-28 11:00,ZHHH 281100Z AUTO 02006KT 6SM 27/16 A2962 RMK T02700160 IEM_DS3505
ZHHH,2008-05-28 12:00,ZHHH 281200Z AUTO 36002KT 9SM 26/14 A2962 RMK SLP030 T02610136 52014 IEM_DS3505
ZHHH,2008-05-28 13:00,ZHHH 281300Z AUTO 04004KT 6SM 25/16 A2962 RMK T02500160 IEM_DS3505
ZHHH,2008-05-28 14:00,ZHHH 281400Z AUTO 04002KT 6SM 24/17 A2965 RMK T02400170 IEM_DS3505
ZHHH,2008-05-28 15:00,ZHHH 281500Z AUTO 04002KT 9SM 24/15 A2965 RMK SLP038 T02390149 52008 IEM_DS3505
ZHHH,2008-05-28 16:00,ZHHH 281600Z AUTO 00000KT 6SM 23/17 A2965 RMK T02300170 IEM_DS3505
ZHHH,2008-05-28 17:00,ZHHH 281700Z AUTO 00000KT 6SM 22/18 A2965 RMK T02200180 IEM_DS3505
ZHHH,2008-05-28 18:00,ZHHH 281800Z AUTO 36002KT 12SM 22/17 A2962 RMK SLP033 T02230166 57005 IEM_DS3505
ZHHH,2008-05-28 19:00,ZHHH 281900Z AUTO 00000KT 6SM 21/18 A2962 RMK T02100180 IEM_DS3505
ZHHH,2008-05-28 20:00,ZHHH 282000Z AUTO 00000KT 6SM 21/17 A2962 RMK T02100170 IEM_DS3505
ZHHH,2008-05-28 21:00,ZHHH 282100Z AUTO 04002KT 12SM 22/17 A2962 RMK 70000 SLP033 T02160170 54000 IEM_DS3505
ZHHH,2008-05-28 22:00,ZHHH 282200Z AUTO 05004KT 6SM 21/17 A2965 RMK T02100170 IEM_DS3505
ZHHH,2008-05-28 23:00,ZHHH 282300Z AUTO 10004KT 6SM 22/18 A2965 RMK T02200180 IEM_DS3505
ZHHH,2008-05-29 00:00,ZHHH 290000Z AUTO 07002KT 16SM 25/16 A2965 RMK 70000 SLP038 T02510165 52005 IEM_DS3505
ZHHH,2008-05-29 01:00,ZHHH 290100Z AUTO 6SM 25/19 A2965 RMK T02500190 IEM_DS3505
ZHHH,2008-05-29 02:00,ZHHH 290200Z AUTO 12004KT 6SM 26/21 A2965 RMK T02600210 IEM_DS3505
ZHHH,2008-05-29 03:00,ZHHH 290300Z AUTO 29002KT 16SM 29/16 A2965 RMK SLP042 T02940159 52004 IEM_DS3505
ZHHH,2008-05-29 04:00,ZHHH 290400Z AUTO 00000KT 6SM 29/19 A2965 RMK T02900190 IEM_DS3505
ZHHH,2008-05-29 05:00,ZHHH 290500Z AUTO 6SM 30/20 A2965 RMK T03000200 IEM_DS3505
ZHHH,2008-05-29 06:00,ZHHH 290600Z AUTO 36004KT 14SM 31/17 A2962 RMK SLP030 T03120171 57012 IEM_DS3505
ZHHH,2008-05-29 07:00,ZHHH 290700Z AUTO 6SM 31/18 A2962 RMK T03100180 IEM_DS3505
ZHHH,2008-05-29 08:00,ZHHH 290800Z AUTO 6SM 31/17 A2962 RMK T03100170 IEM_DS3505
ZHHH,2008-05-29 09:00,ZHHH 290900Z AUTO 04004KT 11SM 31/12 A2962 RMK SLP030 T03130122 54000 IEM_DS3505
ZHHH,2008-05-29 10:00,ZHHH 291000Z AUTO 25002KT 6SM 30/18 A2965 RMK T03000180 IEM_DS3505
ZHHH,2008-05-29 11:00,ZHHH 291100Z AUTO 00000KT 6SM 30/18 A2965 RMK T03000180 IEM_DS3505
ZHHH,2008-05-29 12:00,ZHHH 291200Z AUTO 00000KT 11SM 28/18 A2968 RMK SLP049 T02830175 52019 IEM_DS3505
ZHHH,2008-05-29 13:00,ZHHH 291300Z AUTO 00000KT 6SM 27/22 A2971 RMK T02700220 IEM_DS3505
ZHHH,2008-05-29 14:00,ZHHH 291400Z AUTO 36002KT 6SM 27/21 A2974 RMK T02700210 IEM_DS3505
ZHHH,2008-05-29 15:00,ZHHH 291500Z AUTO 34002KT 11SM 27/18 A2974 RMK SLP066 T02720177 52017 IEM_DS3505
ZHHH,2008-05-29 16:00,ZHHH 291600Z AUTO 03006KT 6SM 26/20 A2974 RMK T02600200 IEM_DS3505
ZHHH,2008-05-29 17:00,ZHHH 291700Z AUTO 02014G23KT 7SM 25/19 A2977 RMK T02500190 IEM_DS3505
ZHHH,2008-05-29 18:00,ZHHH 291800Z AUTO 02006KT 11SM 25/16 A2977 RMK SLP073 T02510165 52007 IEM_DS3505
ZHHH,2008-05-29 19:00,ZHHH 291900Z AUTO 03012KT 6SM 24/15 A2977 RMK T02400150 IEM_DS3505
ZHHH,2008-05-29 20:00,ZHHH 292000Z AUTO 01008KT 6SM 24/13 A2980 RMK T02400130 IEM_DS3505
ZHHH,2008-05-29 21:00,ZHHH 292100Z AUTO 34004KT 11SM 24/11 A2983 RMK SLP097 T02390109 52024 IEM_DS3505
ZHHH,2008-05-29 22:00,ZHHH 292200Z AUTO 01004KT 6SM 23/09 A2985 RMK T02300090 IEM_DS3505
ZHHH,2008-05-29 23:00,ZHHH 292300Z AUTO 04006KT 6SM 23/08 A2985 RMK T02300080 IEM_DS3505
ZHHH,2008-05-30 00:00,ZHHH 300000Z AUTO 34004KT 9SM 23/10 A2988 RMK SLP118 T02320103 52021 IEM_DS3505
ZHHH,2008-05-30 01:00,ZHHH 300100Z AUTO 04008KT 6SM 25/10 A2988 RMK T02500100 IEM_DS3505
ZHHH,2008-05-30 02:00,ZHHH 300200Z AUTO 03010KT 6SM 25/09 A2991 RMK T02500090 IEM_DS3505
ZHHH,2008-05-30 03:00,ZHHH 300300Z AUTO 36004KT 11SM 27/04 A2991 RMK SLP126 T02670039 52008 IEM_DS3505
ZHHH,2008-05-30 04:00,ZHHH 300400Z AUTO 02006KT 7SM 27/09 A2991 RMK T02700090 IEM_DS3505
ZHHH,2008-05-30 05:00,ZHHH 300500Z AUTO 02008KT 6SM 27/07 A2988 RMK T02700070 IEM_DS3505
ZHHH,2008-05-30 06:00,ZHHH 300600Z AUTO 36006KT 11SM 28/06 A2988 RMK SLP114 T02760058 57012 IEM_DS3505
ZHHH,2008-05-30 07:00,ZHHH 300700Z AUTO 01006KT 6SM 29/09 A2985 RMK T02900090 IEM_DS3505
ZHHH,2008-05-30 08:00,ZHHH 300800Z AUTO 02008KT 6SM 28/06 A2985 RMK T02800060 IEM_DS3505
ZHHH,2008-05-30 09:00,ZHHH 300900Z AUTO 34004KT 11SM 27/09 A2985 RMK SLP106 T02690088 57008 IEM_DS3505
ZHHH,2008-05-30 10:00,ZHHH 301000Z AUTO 01004KT 6SM 25/12 A2985 RMK T02500120 IEM_DS3505
ZHHH,2008-05-30 11:00,ZHHH 301100Z AUTO 01004KT 6SM 24/13 A2985 RMK T02400130 IEM_DS3505
ZHHH,2008-05-30 12:00,ZHHH 301200Z AUTO 04002KT 12SM 24/11 A2988 RMK SLP113 T02420112 52007 IEM_DS3505
ZHHH,2008-05-30 13:00,ZHHH 301300Z AUTO 05004KT 6SM 23/12 A2988 RMK T02300120 IEM_DS3505
ZHHH,2008-05-30 14:00,ZHHH 301400Z AUTO 06004KT 6SM 23/12 A2988 RMK T02300120 IEM_DS3505
ZHHH,2008-05-30 15:00,ZHHH 301500Z AUTO 04002KT 12SM 23/08 A2988 RMK SLP121 T02330082 52008 IEM_DS3505
ZHHH,2008-05-30 16:00,ZHHH 301600Z AUTO 05006KT 6SM 22/13 A2988 RMK T02200130 IEM_DS3505
ZHHH,2008-05-30 17:00,ZHHH 301700Z AUTO 02004KT 6SM 22/13 A2985 RMK T02200130 IEM_DS3505
ZHHH,2008-05-30 18:00,ZHHH 301800Z AUTO 09002KT 11SM 22/10 A2985 RMK SLP109 T02170105 57012 IEM_DS3505
ZHHH,2008-05-30 19:00,ZHHH 301900Z AUTO 12004KT 6SM 20/15 A2985 RMK T02000150 IEM_DS3505
ZHHH,2008-05-30 20:00,ZHHH 302000Z AUTO 09004KT 6SM 20/15 A2985 RMK T02000150 IEM_DS3505
ZHHH,2008-05-30 21:00,ZHHH 302100Z AUTO 09002KT 11SM 20/09 A2985 RMK SLP107 T02030092 57002 IEM_DS3505
ZHHH,2008-05-30 22:00,ZHHH 302200Z AUTO 12006KT 6SM 19/16 A2985 RMK T01900160 IEM_DS3505
ZHHH,2008-05-30 23:00,ZHHH 302300Z AUTO 12006KT 6SM 19/15 A2985 RMK T01900150 IEM_DS3505
ZHHH,2008-05-31 00:00,ZHHH 310000Z AUTO 07002KT 11SM 24/12 A2985 RMK SLP112 T02390119 52005 IEM_DS3505
ZHHH,2008-05-31 01:00,ZHHH 310100Z AUTO 13006KT 6SM 24/16 A2985 RMK T02400160 IEM_DS3505
ZHHH,2008-05-31 02:00,ZHHH 310200Z AUTO 13004KT 6SM 26/14 A2985 RMK T02600140 IEM_DS3505
ZHHH,2008-05-31 03:00,ZHHH 310300Z AUTO 16004KT 9SM 27/08 A2983 RMK SLP103 T02730077 57009 IEM_DS3505
ZHHH,2008-05-31 04:00,ZHHH 310400Z AUTO 6SM 28/14 A2983 RMK T02800140 IEM_DS3505
ZHHH,2008-05-31 05:00,ZHHH 310500Z AUTO 22006KT 6SM 28/13 A2980 RMK T02800130 IEM_DS3505
ZHHH,2008-05-31 06:00,ZHHH 310600Z AUTO 25004KT 11SM 28/09 A2977 RMK SLP082 T02780087 57021 IEM_DS3505
ZHHH,2008-05-31 07:00,ZHHH 310700Z AUTO 23004KT 6SM 27/12 A2977 RMK T02700120 IEM_DS3505
ZHHH,2008-05-31 08:00,ZHHH 310800Z AUTO 24004KT 6SM 27/12 A2974 RMK T02700120 IEM_DS3505
ZHHH,2008-05-31 09:00,ZHHH 310900Z AUTO 34002KT 11SM 27/09 A2971 RMK SLP063 T02700089 57019 IEM_DS3505
ZHHH,2008-05-31 10:00,ZHHH 311000Z AUTO 6SM 26/14 A2971 RMK T02600140 IEM_DS3505
ZHHH,2008-05-31 11:00,ZHHH 311100Z AUTO 26004KT 6SM 25/16 A2971 RMK T02500160 IEM_DS3505
ZHHH,2008-05-31 12:00,ZHHH 311200Z AUTO 25002KT 9SM 25/08 A2971 RMK SLP062 T02520082 57001 IEM_DS3505
ZHHH,2008-05-31 13:00,ZHHH 311300Z AUTO 17004KT 6SM 24/14 A2974 RMK T02400140 IEM_DS3505
ZHHH,2008-05-31 14:00,ZHHH 311400Z AUTO 17006KT 6SM 24/12 A2974 RMK T02400120 IEM_DS3505
ZHHH,2008-05-31 15:00,ZHHH 311500Z AUTO 14002KT 9SM 24/10 A2971 RMK SLP061 T02450104 57001 IEM_DS3505
ZHHH,2008-05-31 16:00,ZHHH 311600Z AUTO 17004KT 6SM 24/13 A2971 RMK T02400130 IEM_DS3505
ZHHH,2008-05-31 17:00,ZHHH 311700Z AUTO 18004KT 6SM 23/15 A2968 RMK T02300150 IEM_DS3505
ZHHH,2008-05-31 18:00,ZHHH 311800Z AUTO 18002KT 9SM 24/15 A2968 RMK SLP050 T02390146 57011 IEM_DS3505
ZHHH,2008-05-31 19:00,ZHHH 311900Z AUTO 17004KT 3SM 23/17 A2968 RMK T02300170 IEM_DS3505
ZHHH,2008-05-31 20:00,ZHHH 312000Z AUTO 18004KT 2 1/2SM 23/17 A2968 RMK T02300170 IEM_DS3505
ZHHH,2008-05-31 21:00,ZHHH 312100Z AUTO 16002KT 9SM 23/16 A2968 RMK SLP044 T02320160 57006 IEM_DS3505
ZHHH,2008-05-31 22:00,ZHHH 312200Z AUTO 14004KT 3SM 23/17 A2965 RMK T02300170 IEM_DS3505
ZHHH,2008-05-31 23:00,ZHHH 312300Z AUTO 00000KT 3SM 24/17 A2968 RMK T02400170 IEM_DS3505
ZHHH,2008-06-01 00:00,ZHHH 010000Z AUTO 11002KT 9SM 24/16 A2968 RMK SLP052 T02440156 52008 IEM_DS3505
ZHHH,2008-06-01 01:00,ZHHH 010100Z AUTO 18006KT 3SM 25/18 A2968 RMK T02500180 IEM_DS3505
ZHHH,2008-06-01 02:00,ZHHH 010200Z AUTO 14004KT 3SM 26/19 A2971 RMK T02600190 IEM_DS3505
ZHHH,2008-06-01 03:00,ZHHH 010300Z AUTO 22006KT 9SM 27/16 A2968 RMK SLP050 T02710164 57002 IEM_DS3505
ZHHH,2008-06-01 04:00,ZHHH 010400Z AUTO 22010KT 3SM 27/20 A2968 RMK T02700200 IEM_DS3505
ZHHH,2008-06-01 05:00,ZHHH 010500Z AUTO 22008KT 3SM 27/20 A2968 RMK T02700200 IEM_DS3505
ZHHH,2008-06-01 06:00,ZHHH 010600Z AUTO 27002KT 9SM 28/18 A2965 RMK SLP044 T02830178 57006 IEM_DS3505
ZHHH,2008-06-01 07:00,ZHHH 010700Z AUTO 22010KT 4SM 28/20 A2965 RMK T02800200 IEM_DS3505
ZHHH,2008-06-01 08:00,ZHHH 010800Z AUTO 23008KT 4SM 28/20 A2965 RMK T02800200 IEM_DS3505
ZHHH,2008-06-01 09:00,ZHHH 010900Z AUTO 22004KT 11SM 28/16 A2965 RMK SLP038 T02810164 57006 IEM_DS3505
ZHHH,2008-06-01 10:00,ZHHH 011000Z AUTO 22004KT 4SM 27/21 A2965 RMK T02700210 IEM_DS3505
ZHHH,2008-06-01 11:00,ZHHH 011100Z AUTO 20004KT 3SM 26/20 A2965 RMK T02600200 IEM_DS3505
ZHHH,2008-06-01 12:00,ZHHH 011200Z AUTO 00000KT 9SM 25/18 A2971 RMK SLP056 T02510183 52018 IEM_DS3505
ZHHH,2008-06-01 13:00,ZHHH 011300Z AUTO 00000KT 3SM 25/20 A2971 RMK T02500200 IEM_DS3505
ZHHH,2008-06-01 14:00,ZHHH 011400Z AUTO 15002KT 3SM 25/20 A2974 RMK T02500200 IEM_DS3505
ZHHH,2008-06-01 15:00,ZHHH 011500Z AUTO 32002KT 9SM 23/19 A2974 RMK SLP072 T02300190 52016 IEM_DS3505
ZHHH,2008-06-01 16:00,ZHHH 011600Z AUTO 01002KT 3SM 23/20 A2977 RMK T02300200 IEM_DS3505
ZHHH,2008-06-01 17:00,ZHHH 011700Z AUTO 00000KT 2 1/2SM 23/20 A2977 RMK T02300200 IEM_DS3505
ZHHH,2008-06-01 18:00,ZHHH 011800Z AUTO 27002KT 9SM 22/20 A2977 RMK SLP077 T02210195 52005 IEM_DS3505
ZHHH,2008-06-01 19:00,ZHHH 011900Z AUTO 00000KT 1 1/4SM 22/20 A2977 RMK T02200200 IEM_DS3505
ZHHH,2008-06-01 20:00,ZHHH 012000Z AUTO 00000KT 1 1/4SM 22/21 A2977 RMK T02200210 IEM_DS3505
ZHHH,2008-06-01 21:00,ZHHH 012100Z AUTO 34002KT 9SM 22/20 A2980 RMK SLP083 T02240201 52006 IEM_DS3505
ZHHH,2008-06-01 22:00,ZHHH 012200Z AUTO 12006KT 1SM 22/21 A2977 RMK T02200210 IEM_DS3505
ZHHH,2008-06-01 23:00,ZHHH 012300Z AUTO 09004KT 1SM 22/21 A2980 RMK T02200210 IEM_DS3505
ZHHH,2008-06-02 00:00,ZHHH 020000Z AUTO 02002KT 5SM 25/20 A2980 RMK SLP090 T02510197 52007 IEM_DS3505
ZHHH,2008-06-02 01:00,ZHHH 020100Z AUTO 03004KT 2 1/2SM 24/22 A2983 RMK T02400220 IEM_DS3505
ZHHH,2008-06-02 02:00,ZHHH 020200Z AUTO 06006KT 2 1/2SM 26/22 A2983 RMK T02600220 IEM_DS3505
ZHHH,2008-06-02 03:00,ZHHH 020300Z AUTO 07004KT 7SM 28/18 A2983 RMK SLP103 T02750185 52013 IEM_DS3505
ZHHH,2008-06-02 04:00,ZHHH 020400Z AUTO 05010KT 6SM 29/16 A2983 RMK T02900160 IEM_DS3505
ZHHH,2008-06-02 05:00,ZHHH 020500Z AUTO 06010KT 6SM 31/14 A2983 RMK T03100140 IEM_DS3505
ZHHH,2008-06-02 06:00,ZHHH 020600Z AUTO 02006KT 11SM 31/10 A2980 RMK SLP089 T03110105 57014 IEM_DS3505
ZHHH,2008-06-02 07:00,ZHHH 020700Z AUTO 05004KT 6SM 32/15 A2980 RMK T03200150 IEM_DS3505
ZHHH,2008-06-02 08:00,ZHHH 020800Z AUTO 6SM 31/15 A2977 RMK T03100150 IEM_DS3505
ZHHH,2008-06-02 09:00,ZHHH 020900Z AUTO 04006KT 11SM 32/09 A2974 RMK SLP073 T03160086 57016 IEM_DS3505
ZHHH,2008-06-02 10:00,ZHHH 021000Z AUTO 00000KT 6SM 30/16 A2974 RMK T03000160 IEM_DS3505
ZHHH,2008-06-02 11:00,ZHHH 021100Z AUTO 00000KT 6SM 29/16 A2977 RMK T02900160 IEM_DS3505
ZHHH,2008-06-02 12:00,ZHHH 021200Z AUTO 07002KT 9SM 27/17 A2977 RMK SLP077 T02690168 52004 IEM_DS3505
ZHHH,2008-06-02 13:00,ZHHH 021300Z AUTO 07004KT 6SM 27/17 A2977 RMK T02700170 IEM_DS3505
ZHHH,2008-06-02 14:00,ZHHH 021400Z AUTO 09002KT 6SM 26/18 A2977 RMK T02600180 IEM_DS3505
ZHHH,2008-06-02 15:00,ZHHH 021500Z AUTO 07002KT 11SM 25/16 A2977 RMK SLP081 T02470164 52004 IEM_DS3505
ZHHH,2008-06-02 16:00,ZHHH 021600Z AUTO 08008KT 6SM 24/18 A2980 RMK T02400180 IEM_DS3505
ZHHH,2008-06-02 17:00,ZHHH 021700Z AUTO 6SM 23/19 A2980 RMK T02300190 IEM_DS3505
ZHHH,2008-06-02 18:00,ZHHH 021800Z AUTO 14002KT 9SM 24/17 A2977 RMK SLP081 T02390167 54000 IEM_DS3505
ZHHH,2008-06-02 19:00,ZHHH 021900Z AUTO 10006KT 6SM 22/19 A2977 RMK T02200190 IEM_DS3505
ZHHH,2008-06-02 20:00,ZHHH 022000Z AUTO 10006KT 3SM 22/19 A2974 RMK T02200190 IEM_DS3505
ZHHH,2008-06-02 21:00,ZHHH 022100Z AUTO 09002KT 9SM 24/17 A2977 RMK SLP079 T02370167 57002 IEM_DS3505
ZHHH,2008-06-02 22:00,ZHHH 022200Z AUTO 07010KT 3SM 21/20 A2980 RMK T02100200 IEM_DS3505
ZHHH,2008-06-02 23:00,ZHHH 022300Z AUTO 11010KT 3SM 23/19 A2980 RMK T02300190 IEM_DS3505
ZHHH,2008-06-03 00:00,ZHHH 030000Z AUTO 11006KT 11SM 26/15 A2977 RMK SLP081 T02580152 52002 IEM_DS3505
ZHHH,2008-06-03 01:00,ZHHH 030100Z AUTO 15010KT 6SM 26/18 A2977 RMK T02600180 IEM_DS3505
ZHHH,2008-06-03 02:00,ZHHH 030200Z AUTO 17008KT 6SM 29/19 A2977 RMK T02900190 IEM_DS3505
ZHHH,2008-06-03 03:00,ZHHH 030300Z AUTO 22004KT 12SM 30/17 A2974 RMK SLP073 T03050169 57008 IEM_DS3505
ZHHH,2008-06-03 04:00,ZHHH 030400Z AUTO 20010KT 6SM 31/21 A2974 RMK T03100210 IEM_DS3505
ZHHH,2008-06-03 05:00,ZHHH 030500Z AUTO 22010KT 6SM 32/22 A2971 RMK T03200220 IEM_DS3505
ZHHH,2008-06-03 06:00,ZHHH 030600Z AUTO 25006KT 11SM 33/18 A2968 RMK SLP047 T03290179 57026 IEM_DS3505
ZHHH,2008-06-03 07:00,ZHHH 030700Z AUTO 24010KT 6SM 33/22 A2965 RMK T03300220 IEM_DS3505
ZHHH,2008-06-03 08:00,ZHHH 030800Z AUTO 22008KT 6SM 32/23 A2965 RMK T03200230 IEM_DS3505
ZHHH,2008-06-03 09:00,ZHHH 030900Z AUTO 27006KT 7SM 33/20 A2962 RMK SLP031 T03320204 57015 IEM_DS3505
ZHHH,2008-06-03 10:00,ZHHH 031000Z AUTO 24004KT 3SM 32/25 A2962 RMK T03200250 IEM_DS3505
ZHHH,2008-06-03 11:00,ZHHH 031100Z AUTO 2SM 30/25 A2965 RMK T03000250 IEM_DS3505
ZHHH,2008-06-03 12:00,ZHHH 031200Z AUTO 29002KT 7SM 30/22 A2971 RMK SLP056 T03020224 52024 IEM_DS3505
ZHHH,2008-06-03 13:00,ZHHH 031300Z AUTO 06010KT 2SM 26/20 A2974 RMK T02600200 IEM_DS3505
ZHHH,2008-06-03 14:00,ZHHH 031400Z AUTO 10012KT 2 1/2SM 24/20 A2977 RMK T02400200 IEM_DS3505
ZHHH,2008-06-03 15:00,ZHHH 031500Z AUTO 07004KT 7SM 26/17 A2980 RMK SLP084 T02610169 52028 IEM_DS3505
ZHHH,2008-06-03 16:00,ZHHH 031600Z AUTO 07010KT 2SM 23/20 A2977 RMK T02300200 IEM_DS3505
ZHHH,2008-06-03 17:00,ZHHH 031700Z AUTO 09006KT 1 1/2SM 23/19 A2980 RMK T02300190 IEM_DS3505
ZHHH,2008-06-03 18:00,ZHHH 031800Z AUTO 32002KT 7SM 24/18 A2980 RMK SLP092 T02410176 52008 IEM_DS3505
ZHHH,2008-06-03 19:00,ZHHH 031900Z AUTO 03006KT 1 1/2SM 22/19 A2980 RMK T02200190 IEM_DS3505
ZHHH,2008-06-03 20:00,ZHHH 032000Z AUTO 04004KT 1 1/4SM 20/18 A2983 RMK T02000180 IEM_DS3505
ZHHH,2008-06-03 21:00,ZHHH 032100Z AUTO 07004KT 6SM 21/16 A2983 RMK SLP098 T02080162 52006 IEM_DS3505
ZHHH,2008-06-03 22:00,ZHHH 032200Z AUTO 04012KT 5SM 18/15 A2983 RMK T01800150 IEM_DS3505
ZHHH,2008-06-03 23:00,ZHHH 032300Z AUTO 03010KT 6SM 19/15 A2985 RMK T01900150 IEM_DS3505
ZHHH,2008-06-04 00:00,ZHHH 040000Z AUTO 02008KT 14SM 21/13 A2988 RMK SLP116 T02060133 52018 IEM_DS3505
ZHHH,2008-06-04 01:00,ZHHH 040100Z AUTO 04012KT 7SM 21/15 A2991 RMK T02100150 IEM_DS3505
ZHHH,2008-06-04 02:00,ZHHH 040200Z AUTO 05014KT 6SM 22/14 A2991 RMK T02200140 IEM_DS3505
ZHHH,2008-06-04 03:00,ZHHH 040300Z AUTO 02008KT 12SM 24/11 A2988 RMK SLP123 T02400110 52007 IEM_DS3505
ZHHH,2008-06-04 04:00,ZHHH 040400Z AUTO 04014KT 6SM 25/14 A2988 RMK T02500140 IEM_DS3505
ZHHH,2008-06-04 05:00,ZHHH 040500Z AUTO 03010KT 6SM 27/14 A2985 RMK T02700140 IEM_DS3505
ZHHH,2008-06-04 06:00,ZHHH 040600Z AUTO 07006KT 14SM 27/11 A2985 RMK SLP108 T02690114 57015 IEM_DS3505
ZHHH,2008-06-04 07:00,ZHHH 040700Z AUTO 05008KT 6SM 27/15 A2983 RMK T02700150 IEM_DS3505
ZHHH,2008-06-04 08:00,ZHHH 040800Z AUTO 04006KT 6SM 27/15 A2983 RMK T02700150 IEM_DS3505
ZHHH,2008-06-04 09:00,ZHHH 040900Z AUTO 04004KT 12SM 28/12 A2980 RMK SLP092 T02760116 57016 IEM_DS3505
ZHHH,2008-06-04 10:00,ZHHH 041000Z AUTO 04006KT 6SM 26/15 A2980 RMK T02600150 IEM_DS3505
ZHHH,2008-06-04 11:00,ZHHH 041100Z AUTO 05004KT 6SM 25/15 A2980 RMK T02500150 IEM_DS3505
ZHHH,2008-06-04 12:00,ZHHH 041200Z AUTO 04004KT 11SM 25/13 A2980 RMK SLP092 T02520134 54000 IEM_DS3505
ZHHH,2008-06-04 13:00,ZHHH 041300Z AUTO 08008KT 4SM 23/17 A2983 RMK T02300170 IEM_DS3505
ZHHH,2008-06-04 14:00,ZHHH 041400Z AUTO 07010KT 3SM 22/17 A2985 RMK T02200170 IEM_DS3505
ZHHH,2008-06-04 15:00,ZHHH 041500Z AUTO 04004KT 11SM 23/14 A2985 RMK SLP106 T02320139 52014 IEM_DS3505
ZHHH,2008-06-04 16:00,ZHHH 041600Z AUTO 07006KT 2 1/2SM 21/17 A2985 RMK T02100170 IEM_DS3505
ZHHH,2008-06-04 17:00,ZHHH 041700Z AUTO 03004KT 2 1/2SM 20/16 A2983 RMK T02000160 IEM_DS3505
ZHHH,2008-06-04 18:00,ZHHH 041800Z AUTO 07002KT 11SM 22/14 A2983 RMK SLP098 T02180142 57008 IEM_DS3505
ZHHH,2008-06-04 19:00,ZHHH 041900Z AUTO 05004KT 4SM 19/17 A2983 RMK T01900170 IEM_DS3505
ZHHH,2008-06-04 20:00,ZHHH 042000Z AUTO 06004KT 2 1/2SM 19/17 A2983 RMK T01900170 IEM_DS3505
ZHHH,2008-06-04 21:00,ZHHH 042100Z AUTO 07002KT 11SM 20/15 A2983 RMK SLP093 T02040150 57005 IEM_DS3505
ZHHH,2008-06-04 22:00,ZHHH 042200Z AUTO 07004KT 2 1/2SM 18/16 A2983 RMK T01800160 IEM_DS3505
ZHHH,2008-06-04 23:00,ZHHH 042300Z AUTO 10006KT 2 1/2SM 19/17 A2983 RMK T01900170 IEM_DS3505
ZHHH,2008-06-05 00:00,ZHHH 050000Z AUTO 09002KT 9SM 21/15 A2983 RMK SLP103 T02140150 52010 IEM_DS3505
ZHHH,2008-06-05 01:00,ZHHH 050100Z AUTO 09006KT 4SM 23/17 A2983 RMK T02300170 IEM_DS3505
ZHHH,2008-06-05 02:00,ZHHH 050200Z AUTO 10004KT 4SM 24/18 A2983 RMK T02400180 IEM_DS3505
ZHHH,2008-06-05 03:00,ZHHH 050300Z AUTO 09004KT 9SM 28/15 A2983 RMK SLP096 T02770150 57007 IEM_DS3505
ZHHH,2008-06-05 04:00,ZHHH 050400Z AUTO 10006KT 4SM 27/18 A2980 RMK T02700180 IEM_DS3505
ZHHH,2008-06-05 05:00,ZHHH 050500Z AUTO 13006KT 4SM 28/18 A2977 RMK T02800180 IEM_DS3505
ZHHH,2008-06-05 06:00,ZHHH 050600Z AUTO 18004G16KT 9SM 30/12 A2977 RMK SLP073 T03050120 57023 IEM_DS3505
ZHHH,2008-06-05 07:00,ZHHH 050700Z AUTO 11006KT 6SM 29/17 A2974 RMK T02900170 IEM_DS3505
ZHHH,2008-06-05 08:00,ZHHH 050800Z AUTO 12008KT 6SM 30/18 A2971 RMK T03000180 IEM_DS3505
ZHHH,2008-06-05 09:00,ZHHH 050900Z AUTO 14006KT 7SM 31/14 A2968 RMK SLP051 T03070143 57022 IEM_DS3505
ZHHH,2008-06-05 10:00,ZHHH 051000Z AUTO 10008KT 6SM 29/18 A2968 RMK T02900180 IEM_DS3505
ZHHH,2008-06-05 11:00,ZHHH 051100Z AUTO 12006KT 6SM 27/18 A2968 RMK T02700180 IEM_DS3505
ZHHH,2008-06-05 12:00,ZHHH 051200Z AUTO 09004KT 11SM 28/14 A2968 RMK SLP051 T02770143 54000 IEM_DS3505
ZHHH,2008-06-05 13:00,ZHHH 051300Z AUTO 13006KT 3SM 25/20 A2971 RMK T02500200 IEM_DS3505
ZHHH,2008-06-05 14:00,ZHHH 051400Z AUTO 14006KT 3SM 25/20 A2971 RMK T02500200 IEM_DS3505
ZHHH,2008-06-05 15:00,ZHHH 051500Z AUTO 11004KT 9SM 26/15 A2974 RMK SLP068 T02650152 52017 IEM_DS3505
ZHHH,2008-06-05 16:00,ZHHH 051600Z AUTO 12006KT 3SM 25/19 A2974 RMK T02500190 IEM_DS3505
ZHHH,2008-06-05 17:00,ZHHH 051700Z AUTO 11006KT 3SM 23/19 A2971 RMK T02300190 IEM_DS3505
ZHHH,2008-06-05 18:00,ZHHH 051800Z AUTO 11004KT 11SM 26/13 A2971 RMK SLP056 T02570132 57012 IEM_DS3505
ZHHH,2008-06-05 19:00,ZHHH 051900Z AUTO 14006KT 3SM 23/19 A2968 RMK T02300190 IEM_DS3505
ZHHH,2008-06-05 20:00,ZHHH 052000Z AUTO 13006KT 3SM 24/18 A2968 RMK T02400180 IEM_DS3505
ZHHH,2008-06-05 21:00,ZHHH 052100Z AUTO 14002KT 11SM 25/14 A2971 RMK SLP056 T02460144 54000 IEM_DS3505
ZHHH,2008-06-05 22:00,ZHHH 052200Z AUTO 13004KT 2SM 22/19 A2971 RMK T02200190 IEM_DS3505
ZHHH,2008-06-05 23:00,ZHHH 052300Z AUTO 11006KT 2 1/2SM 23/19 A2974 RMK T02300190 IEM_DS3505
ZHHH,2008-06-06 00:00,ZHHH 060000Z AUTO 14004KT 14SM 27/15 A2974 RMK SLP068 T02680146 52012 IEM_DS3505
ZHHH,2008-06-06 01:00,ZHHH 060100Z AUTO 12008KT 2 1/2SM 26/20 A2974 RMK T02600200 IEM_DS3505
ZHHH,2008-06-06 02:00,ZHHH 060200Z AUTO 14006KT 2 1/2SM 28/20 A2974 RMK T02800200 IEM_DS3505
ZHHH,2008-06-06 03:00,ZHHH 060300Z AUTO 14002KT 12SM 31/18 A2971 RMK SLP062 T03100177 57006 IEM_DS3505
ZHHH,2008-06-06 04:00,ZHHH 060400Z AUTO 13004KT 4SM 31/21 A2971 RMK T03100210 IEM_DS3505
ZHHH,2008-06-06 05:00,ZHHH 060500Z AUTO 18004KT 4SM 33/22 A2968 RMK T03300220 IEM_DS3505
ZHHH,2008-06-06 06:00,ZHHH 060600Z AUTO 16004KT 12SM 34/20 A2965 RMK SLP041 T03370198 57020 IEM_DS3505
ZHHH,2008-06-06 07:00,ZHHH 060700Z AUTO 25006KT 6SM 34/24 A2965 RMK T03400240 IEM_DS3505
ZHHH,2008-06-06 08:00,ZHHH 060800Z AUTO 00000KT 6SM 34/24 A2965 RMK T03400240 IEM_DS3505
ZHHH,2008-06-06 09:00,ZHHH 060900Z AUTO 29002KT 12SM 34/20 A2965 RMK SLP036 T03440196 57005 IEM_DS3505
ZHHH,2008-06-06 10:00,ZHHH 061000Z AUTO 14002KT 6SM 32/23 A2965 RMK T03200230 IEM_DS3505
ZHHH,2008-06-06 11:00,ZHHH 061100Z AUTO 10006KT 6SM 31/24 A2968 RMK T03100240 IEM_DS3505
ZHHH,2008-06-06 12:00,ZHHH 061200Z AUTO 07002KT 9SM 31/21 A2971 RMK SLP053 T03120208 52017 IEM_DS3505
ZHHH,2008-06-06 13:00,ZHHH 061300Z AUTO 12006KT 3SM 30/24 A2971 RMK T03000240 IEM_DS3505
ZHHH,2008-06-06 14:00,ZHHH 061400Z AUTO 14006KT 3SM 29/24 A2971 RMK T02900240 IEM_DS3505
ZHHH,2008-06-06 15:00,ZHHH 061500Z AUTO 27002KT 9SM 30/21 A2974 RMK SLP067 T03000208 52014 IEM_DS3505
ZHHH,2008-06-06 16:00,ZHHH 061600Z AUTO 2SM 28/24 A2974 RMK T02800240 IEM_DS3505
ZHHH,2008-06-06 17:00,ZHHH 061700Z AUTO 02006KT 1 1/2SM 27/24 A2974 RMK T02700240 IEM_DS3505
ZHHH,2008-06-06 18:00,ZHHH 061800Z AUTO 02004KT 9SM 28/23 A2974 RMK SLP068 T02770226 52001 IEM_DS3505
ZHHH,2008-06-06 19:00,ZHHH 061900Z AUTO 04012KT 2SM 26/22 A2974 RMK T02600220 IEM_DS3505
ZHHH,2008-06-06 20:00,ZHHH 062000Z AUTO 07006KT 2 1/2SM 24/21 A2974 RMK T02400210 IEM_DS3505
ZHHH,2008-06-06 21:00,ZHHH 062100Z AUTO 29004G16KT 7SM 22/21 A2980 RMK 70054 SLP089 T02250206 52020 IEM_DS3505
ZHHH,2008-06-06 22:00,ZHHH 062200Z AUTO 34006KT 1 1/4SM 22/21 A2983 RMK T02200210 IEM_DS3505
ZHHH,2008-06-06 23:00,ZHHH 062300Z AUTO 02006KT 1 1/2SM 22/21 A2980 RMK T02200210 IEM_DS3505
ZHHH,2008-06-07 00:00,ZHHH 070000Z AUTO 07004KT 7SM 23/20 A2980 RMK 60055 70055 SLP088 T02330197 57001 IEM_DS3505
ZHHH,2008-06-07 01:00,ZHHH 070100Z AUTO 05008KT 2SM 23/22 A2980 RMK T02300220 IEM_DS3505
ZHHH,2008-06-07 02:00,ZHHH 070200Z AUTO 06006KT 2SM 25/22 A2980 RMK T02500220 IEM_DS3505
ZHHH,2008-06-07 03:00,ZHHH 070300Z AUTO 04004KT 9SM 28/20 A2980 RMK SLP092 T02760204 52004 IEM_DS3505
ZHHH,2008-06-07 04:00,ZHHH 070400Z AUTO 2 1/2SM 27/22 A2980 RMK T02700220 IEM_DS3505
ZHHH,2008-06-07 05:00,ZHHH 070500Z AUTO 3SM 28/23 A2977 RMK T02800230 IEM_DS3505
ZHHH,2008-06-07 06:00,ZHHH 070600Z AUTO 32004KT 9SM 29/20 A2977 RMK SLP076 T02890201 57016 IEM_DS3505
ZHHH,2008-06-07 07:00,ZHHH 070700Z AUTO 3SM 30/23 A2977 RMK T03000230 IEM_DS3505
ZHHH,2008-06-07 08:00,ZHHH 070800Z AUTO 36004KT 3SM 29/22 A2974 RMK T02900220 IEM_DS3505
ZHHH,2008-06-07 09:00,ZHHH 070900Z AUTO 34004KT 9SM 29/20 A2974 RMK SLP063 T02870204 57013 IEM_DS3505
ZHHH,2008-06-07 10:00,ZHHH 071000Z AUTO 33004KT 1SM 28/24 A2974 RMK T02800240 IEM_DS3505
ZHHH,2008-06-07 11:00,ZHHH 071100Z AUTO 34006KT 1SM 27/24 A2974 RMK T02700240 IEM_DS3505
ZHHH,2008-06-07 12:00,ZHHH 071200Z AUTO 02002KT 6SM 26/22 A2974 RMK SLP071 T02650219 52008 IEM_DS3505
ZHHH,2008-06-07 13:00,ZHHH 071300Z AUTO 1SM 25/23 A2974 RMK T02500230 IEM_DS3505
ZHHH,2008-06-07 14:00,ZHHH 071400Z AUTO 1SM 25/23 A2977 RMK T02500230 IEM_DS3505
ZHHH,2008-06-07 15:00,ZHHH 071500Z AUTO 32004KT 6SM 26/22 A2977 RMK SLP079 T02550222 52008 IEM_DS3505
ZHHH,2008-06-07 16:00,ZHHH 071600Z AUTO 1/2SM 24/23 A2977 RMK T02400230 IEM_DS3505
ZHHH,2008-06-07 17:00,ZHHH 071700Z AUTO 01002KT 1/2SM 24/23 A2974 RMK T02400230 IEM_DS3505
ZHHH,2008-06-07 18:00,ZHHH 071800Z AUTO 29002KT 5SM 25/22 A2974 RMK SLP072 T02470220 57007 IEM_DS3505
ZHHH,2008-06-07 19:00,ZHHH 071900Z AUTO 33004KT 1/2SM 23/23 A2974 RMK T02300230 IEM_DS3505
ZHHH,2008-06-07 20:00,ZHHH 072000Z AUTO 33004KT 1/2SM 23/23 A2974 RMK T02300230 IEM_DS3505
ZHHH,2008-06-07 21:00,ZHHH 072100Z AUTO 27002KT 5SM 24/21 A2974 RMK 70000 SLP070 T02370208 57002 IEM_DS3505
ZHHH,2008-06-07 22:00,ZHHH 072200Z AUTO 02004KT 1/2SM 23/22 A2974 RMK T02300220 IEM_DS3505
ZHHH,2008-06-07 23:00,ZHHH 072300Z AUTO 1SM 23/22 A2977 RMK T02300220 IEM_DS3505
ZHHH,2008-06-08 00:00,ZHHH 080000Z AUTO 34002KT 7SM 25/21 A2977 RMK SLP080 T02480209 52010 IEM_DS3505
ZHHH,2008-06-08 01:00,ZHHH 080100Z AUTO 00000KT 1SM 25/23 A2977 RMK T02500230 IEM_DS3505
ZHHH,2008-06-08 02:00,ZHHH 080200Z AUTO 00000KT 1SM 25/23 A2977 RMK T02500230 IEM_DS3505
ZHHH,2008-06-08 03:00,ZHHH 080300Z AUTO 34004KT 6SM 26/21 A2980 RMK SLP089 T02550214 52009 IEM_DS3505
ZHHH,2008-06-08 04:00,ZHHH 080400Z AUTO 34004KT 1SM 23/23 A2980 RMK T02300230 IEM_DS3505
ZHHH,2008-06-08 05:00,ZHHH 080500Z AUTO 1SM 23/22 A2980 RMK T02300220 IEM_DS3505
ZHHH,2008-06-08 06:00,ZHHH 080600Z AUTO 34004KT 5SM 23/20 A2980 RMK 60008 SLP083 T02290201 57006 IEM_DS3505
ZHHH,2008-06-08 07:00,ZHHH 080700Z AUTO 32006KT 1SM 22/22 A2977 RMK T02200220 IEM_DS3505
ZHHH,2008-06-08 08:00,ZHHH 080800Z AUTO 29006KT 1SM 22/22 A2977 RMK T02200220 IEM_DS3505
ZHHH,2008-06-08 09:00,ZHHH 080900Z AUTO 36002KT 5SM 22/20 A2977 RMK SLP080 T02190205 57003 IEM_DS3505
ZHHH,2008-06-08 10:00,ZHHH 081000Z AUTO 00000KT 1SM 22/22 A2977 RMK T02200220 IEM_DS3505
ZHHH,2008-06-08 11:00,ZHHH 081100Z AUTO 1SM 22/22 A2977 RMK T02200220 IEM_DS3505
ZHHH,2008-06-08 12:00,ZHHH 081200Z AUTO 02002KT 5SM 22/21 A2977 RMK 60059 SLP077 T02210207 57003 IEM_DS3505
ZHHH,2008-06-08 13:00,ZHHH 081300Z AUTO 36002KT 1SM 22/22 A2977 RMK T02200220 IEM_DS3505
ZHHH,2008-06-08 14:00,ZHHH 081400Z AUTO 00000KT 1SM 22/22 A2980 RMK T02200220 IEM_DS3505
ZHHH,2008-06-08 15:00,ZHHH 081500Z AUTO 02002KT 4SM 22/21 A2980 RMK SLP087 T02240214 52010 IEM_DS3505
ZHHH,2008-06-08 16:00,ZHHH 081600Z AUTO 04004KT 1SM 21/21 A2980 RMK T02100210 IEM_DS3505
ZHHH,2008-06-08 17:00,ZHHH 081700Z AUTO 04010KT 1SM 21/21 A2974 RMK T02100210 IEM_DS3505
ZHHH,2008-06-08 18:00,ZHHH 081800Z AUTO 07002KT 6SM 22/22 A2974 RMK 60043 SLP069 T02250215 57018 IEM_DS3505
ZHHH,2008-06-08 19:00,ZHHH 081900Z AUTO 05012KT 1 1/4SM 21/21 A2974 RMK T02100210 IEM_DS3505
ZHHH,2008-06-08 20:00,ZHHH 082000Z AUTO 06014KT 1 1/4SM 21/21 A2974 RMK T02100210 IEM_DS3505
ZHHH,2008-06-08 21:00,ZHHH 082100Z AUTO 04006KT 6SM 22/21 A2974 RMK 70119 SLP067 T02210209 57002 IEM_DS3505
ZHHH,2008-06-08 22:00,ZHHH 082200Z AUTO 07010KT 1SM 21/21 A2974 RMK T02100210 IEM_DS3505
ZHHH,2008-06-08 23:00,ZHHH 082300Z AUTO 08010KT 2 1/2SM 21/21 A2974 RMK T02100210 IEM_DS3505
ZHHH,2008-06-09 00:00,ZHHH 090000Z AUTO 04002KT 6SM 22/21 A2974 RMK 60031 70142 SLP074 T02190207 52007 IEM_DS3505
ZHHH,2008-06-09 01:00,ZHHH 090100Z AUTO 08010KT 2SM 21/21 A2977 RMK T02100210 IEM_DS3505
ZHHH,2008-06-09 02:00,ZHHH 090200Z AUTO 07010KT 3SM 22/22 A2977 RMK T02200220 IEM_DS3505
ZHHH,2008-06-09 03:00,ZHHH 090300Z AUTO 07004KT 7SM 23/21 A2977 RMK SLP075 T02290214 52001 IEM_DS3505
ZHHH,2008-06-09 04:00,ZHHH 090400Z AUTO 08008KT 4SM 23/23 A2974 RMK T02300230 IEM_DS3505
ZHHH,2008-06-09 05:00,ZHHH 090500Z AUTO 05006KT 4SM 23/23 A2974 RMK T02300230 IEM_DS3505
ZHHH,2008-06-09 06:00,ZHHH 090600Z AUTO 04004KT 6SM 24/21 A2974 RMK 60039 SLP067 T02360213 57008 IEM_DS3505
ZHHH,2008-06-09 07:00,ZHHH 090700Z AUTO 02004KT 7SM 23/23 A2971 RMK T02300230 IEM_DS3505
ZHHH,2008-06-09 08:00,ZHHH 090800Z AUTO 03002KT 7SM 23/23 A2971 RMK T02300230 IEM_DS3505
ZHHH,2008-06-09 09:00,ZHHH 090900Z AUTO 04002KT 9SM 23/22 A2971 RMK SLP060 T02330216 57007 IEM_DS3505
ZHHH,2008-06-09 10:00,ZHHH 091000Z AUTO 7SM 22/22 A2971 RMK T02200220 IEM_DS3505
ZHHH,2008-06-09 11:00,ZHHH 091100Z AUTO 00000KT 3SM 22/22 A2971 RMK T02200220 IEM_DS3505
ZHHH,2008-06-09 12:00,ZHHH 091200Z AUTO 04002KT 9SM 23/22 A2971 RMK 60012 SLP063 T02330216 52003 IEM_DS3505
ZHHH,2008-06-09 13:00,ZHHH 091300Z AUTO 00000KT 4SM 22/22 A2971 RMK T02200220 IEM_DS3505
ZHHH,2008-06-09 14:00,ZHHH 091400Z AUTO 00000KT 2SM 22/22 A2974 RMK T02200220 IEM_DS3505
ZHHH,2008-06-09 15:00,ZHHH 091500Z AUTO 02002KT 6SM 23/22 A2974 RMK SLP064 T02270215 52001 IEM_DS3505
ZHHH,2008-06-09 16:00,ZHHH 091600Z AUTO 00000KT 1 1/2SM 22/22 A2971 RMK T02200220 IEM_DS3505
ZHHH,2008-06-09 17:00,ZHHH 091700Z AUTO 00000KT 1SM 22/22 A2971 RMK T02200220 IEM_DS3505
ZHHH,2008-06-09 18:00,ZHHH 091800Z AUTO 02002KT 6SM 22/21 A2968 RMK 60051 SLP049 T02240214 57015 IEM_DS3505
ZHHH,2008-06-09 19:00,ZHHH 091900Z AUTO 05002KT 1 1/4SM 22/22 A2968 RMK T02200220 IEM_DS3505
ZHHH,2008-06-09 20:00,ZHHH 092000Z AUTO 35004KT 1 1/4SM 22/22 A2968 RMK T02200220 IEM_DS3505
ZHHH,2008-06-09 21:00,ZHHH 092100Z AUTO 36002KT 6SM 22/21 A2968 RMK 70138 SLP047 T02230213 57002 IEM_DS3505
ZHHH,2008-06-09 22:00,ZHHH 092200Z AUTO 00000KT 1 1/4SM 22/22 A2968 RMK T02200220 IEM_DS3505
ZHHH,2008-06-09 23:00,ZHHH 092300Z AUTO 00000KT 1SM 22/22 A2968 RMK T02200220 IEM_DS3505
ZHHH,2008-06-10 00:00,ZHHH 100000Z AUTO 27002KT 6SM 22/21 A2968 RMK 60083 70183 SLP054 T02220212 52007 IEM_DS3505
ZHHH,2008-06-10 01:00,ZHHH 100100Z AUTO 32004KT 1SM 22/22 A2968 RMK T02200220 IEM_DS3505
ZHHH,2008-06-10 02:00,ZHHH 100200Z AUTO 1SM 23/23 A2968 RMK T02300230 IEM_DS3505
ZHHH,2008-06-10 03:00,ZHHH 100300Z AUTO 27002KT 6SM 23/22 A2968 RMK SLP053 T02310219 57001 IEM_DS3505
ZHHH,2008-06-10 04:00,ZHHH 100400Z AUTO 36004KT 4SM 24/24 A2968 RMK T02400240 IEM_DS3505
ZHHH,2008-06-10 05:00,ZHHH 100500Z AUTO 05004KT 7SM 25/25 A2968 RMK T02500250 IEM_DS3505
ZHHH,2008-06-10 06:00,ZHHH 100600Z AUTO 04002KT 7SM 25/22 A2968 RMK 60024 SLP047 T02540215 57006 IEM_DS3505
ZHHH,2008-06-10 07:00,ZHHH 100700Z AUTO 12006KT 7SM 24/23 A2968 RMK T02400230 IEM_DS3505
ZHHH,2008-06-10 08:00,ZHHH 100800Z AUTO 16004KT 6SM 25/23 A2965 RMK T02500230 IEM_DS3505
ZHHH,2008-06-10 09:00,ZHHH 100900Z AUTO 07002KT 7SM 24/21 A2965 RMK SLP040 T02450208 57007 IEM_DS3505
ZHHH,2008-06-10 10:00,ZHHH 101000Z AUTO 7SM 24/23 A2968 RMK T02400230 IEM_DS3505
ZHHH,2008-06-10 11:00,ZHHH 101100Z AUTO 03004KT 2 1/2SM 23/23 A2968 RMK T02300230 IEM_DS3505
ZHHH,2008-06-10 12:00,ZHHH 101200Z AUTO 36002KT 9SM 24/21 A2968 RMK 60000 SLP052 T02390214 52012 IEM_DS3505
ZHHH,2008-06-10 13:00,ZHHH 101300Z AUTO 00000KT 2 1/2SM 23/23 A2971 RMK T02300230 IEM_DS3505
ZHHH,2008-06-10 14:00,ZHHH 101400Z AUTO 00000KT 2 1/2SM 23/23 A2971 RMK T02300230 IEM_DS3505
ZHHH,2008-06-10 15:00,ZHHH 101500Z AUTO 04002KT 7SM 23/22 A2974 RMK SLP067 T02320218 52015 IEM_DS3505
ZHHH,2008-06-10 16:00,ZHHH 101600Z AUTO 03002KT 4SM 22/22 A2974 RMK T02200220 IEM_DS3505
ZHHH,2008-06-10 17:00,ZHHH 101700Z AUTO 00000KT 4SM 22/22 A2974 RMK T02200220 IEM_DS3505
ZHHH,2008-06-10 18:00,ZHHH 101800Z AUTO 00000KT 7SM 23/22 A2974 RMK 60001 SLP065 T02300220 57002 IEM_DS3505
ZHHH,2008-06-10 19:00,ZHHH 101900Z AUTO 00000KT 3SM 22/22 A2971 RMK T02200220 IEM_DS3505
ZHHH,2008-06-10 20:00,ZHHH 102000Z AUTO 00000KT 3SM 21/21 A2971 RMK T02100210 IEM_DS3505
ZHHH,2008-06-10 21:00,ZHHH 102100Z AUTO 04002KT 6SM 22/21 A2974 RMK 70093 SLP066 T02250208 52001 IEM_DS3505
ZHHH,2008-06-10 22:00,ZHHH 102200Z AUTO 00000KT 2SM 21/21 A2974 RMK T02100210 IEM_DS3505
ZHHH,2008-06-10 23:00,ZHHH 102300Z AUTO 00000KT 2SM 22/22 A2977 RMK T02200220 IEM_DS3505
ZHHH,2008-06-11 00:00,ZHHH 110000Z AUTO 02004KT 9SM 25/20 A2977 RMK 70026 SLP084 T02470204 52018 IEM_DS3505
ZHHH,2008-06-11 01:00,ZHHH 110100Z AUTO 04004KT 2 1/2SM 25/23 A2980 RMK T02500230 IEM_DS3505
ZHHH,2008-06-11 02:00,ZHHH 110200Z AUTO 06004KT 2 1/2SM 26/23 A2980 RMK T02600230 IEM_DS3505
ZHHH,2008-06-11 03:00,ZHHH 110300Z AUTO 32004KT 9SM 27/20 A2980 RMK SLP087 T02680204 52003 IEM_DS3505
ZHHH,2008-06-11 04:00,ZHHH 110400Z AUTO 3SM 28/23 A2977 RMK T02800230 IEM_DS3505
ZHHH,2008-06-11 05:00,ZHHH 110500Z AUTO 7SM 29/24 A2977 RMK T02900240 IEM_DS3505
ZHHH,2008-06-11 06:00,ZHHH 110600Z AUTO 34004KT 11SM 29/20 A2977 RMK SLP075 T02870202 57012 IEM_DS3505
ZHHH,2008-06-11 07:00,ZHHH 110700Z AUTO 7SM 29/22 A2974 RMK T02900220 IEM_DS3505
ZHHH,2008-06-11 08:00,ZHHH 110800Z AUTO 7SM 30/23 A2974 RMK T03000230 IEM_DS3505
ZHHH,2008-06-11 09:00,ZHHH 110900Z AUTO 27004KT 9SM 29/20 A2971 RMK SLP063 T02870199 57012 IEM_DS3505
ZHHH,2008-06-11 10:00,ZHHH 111000Z AUTO 36002KT 6SM 28/23 A2971 RMK T02800230 IEM_DS3505
ZHHH,2008-06-11 11:00,ZHHH 111100Z AUTO 00000KT 6SM 28/23 A2971 RMK T02800230 IEM_DS3505
ZHHH,2008-06-11 12:00,ZHHH 111200Z AUTO 29002KT 9SM 26/22 A2974 RMK SLP070 T02640216 52007 IEM_DS3505
ZHHH,2008-06-11 13:00,ZHHH 111300Z AUTO 23002KT 3SM 26/23 A2977 RMK T02600230 IEM_DS3505
ZHHH,2008-06-11 14:00,ZHHH 111400Z AUTO 00000KT 2 1/2SM 26/24 A2977 RMK T02600240 IEM_DS3505
ZHHH,2008-06-11 15:00,ZHHH 111500Z AUTO 00000KT 7SM 24/22 A2977 RMK SLP079 T02430220 52009 IEM_DS3505
ZHHH,2008-06-11 16:00,ZHHH 111600Z AUTO 08002KT 2SM 25/23 A2977 RMK T02500230 IEM_DS3505
ZHHH,2008-06-11 17:00,ZHHH 111700Z AUTO 00000KT 2SM 25/23 A2977 RMK T02500230 IEM_DS3505
ZHHH,2008-06-11 18:00,ZHHH 111800Z AUTO 00000KT 7SM 24/22 A2974 RMK SLP070 T02380221 57009 IEM_DS3505
ZHHH,2008-06-11 19:00,ZHHH 111900Z AUTO 24002KT 2SM 24/23 A2974 RMK T02400230 IEM_DS3505
ZHHH,2008-06-11 20:00,ZHHH 112000Z AUTO 00000KT 2SM 24/23 A2974 RMK T02400230 IEM_DS3505
ZHHH,2008-06-11 21:00,ZHHH 112100Z AUTO 00000KT 5SM 23/22 A2974 RMK SLP067 T02330219 57003 IEM_DS3505
ZHHH,2008-06-11 22:00,ZHHH 112200Z AUTO 07004KT 1SM 23/23 A2974 RMK T02300230 IEM_DS3505
ZHHH,2008-06-12 00:00,ZHHH 120000Z AUTO 34002KT 5SM 25/22 A2977 RMK SLP076 T02520219 52009 IEM_DS3505
ZHHH,2008-06-12 01:00,ZHHH 120100Z AUTO 1SM 25/24 A2977 RMK T02500240 IEM_DS3505
ZHHH,2008-06-12 02:00,ZHHH 120200Z AUTO 1 1/4SM 27/25 A2974 RMK T02700250 IEM_DS3505
ZHHH,2008-06-12 03:00,ZHHH 120300Z AUTO 25002KT 6SM 28/22 A2974 RMK SLP070 T02810219 57006 IEM_DS3505
ZHHH,2008-06-12 04:00,ZHHH 120400Z AUTO 2 1/2SM 29/24 A2974 RMK T02900240 IEM_DS3505
ZHHH,2008-06-12 05:00,ZHHH 120500Z AUTO 2SM 29/24 A2971 RMK T02900240 IEM_DS3505
ZHHH,2008-06-12 06:00,ZHHH 120600Z AUTO 29002KT 7SM 30/20 A2971 RMK SLP053 T02960205 57017 IEM_DS3505
ZHHH,2008-06-12 07:00,ZHHH 120700Z AUTO 2SM 29/24 A2968 RMK T02900240 IEM_DS3505
ZHHH,2008-06-12 08:00,ZHHH 120800Z AUTO 00000KT 1 1/2SM 29/24 A2968 RMK T02900240 IEM_DS3505
ZHHH,2008-06-12 09:00,ZHHH 120900Z AUTO 04004KT 7SM 29/21 A2965 RMK SLP039 T02930210 57014 IEM_DS3505
ZHHH,2008-06-12 10:00,ZHHH 121000Z AUTO 01002KT 1 1/4SM 28/24 A2965 RMK T02800240 IEM_DS3505
ZHHH,2008-06-12 11:00,ZHHH 121100Z AUTO 02002KT 1 1/4SM 27/25 A2965 RMK T02700250 IEM_DS3505
ZHHH,2008-06-12 12:00,ZHHH 121200Z AUTO 07002KT 7SM 27/22 A2968 RMK SLP045 T02710225 52006 IEM_DS3505
ZHHH,2008-06-12 13:00,ZHHH 121300Z AUTO 06002KT 1 1/4SM 26/25 A2968 RMK T02600250 IEM_DS3505
ZHHH,2008-06-12 14:00,ZHHH 121400Z AUTO 07004KT 1 1/4SM 26/24 A2968 RMK T02600240 IEM_DS3505
ZHHH,2008-06-12 15:00,ZHHH 121500Z AUTO 09002KT 7SM 26/23 A2968 RMK SLP051 T02590226 52006 IEM_DS3505
ZHHH,2008-06-12 16:00,ZHHH 121600Z AUTO 09006KT 1 1/4SM 25/24 A2968 RMK T02500240 IEM_DS3505
ZHHH,2008-06-12 17:00,ZHHH 121700Z AUTO 08004KT 1 1/2SM 24/24 A2965 RMK T02400240 IEM_DS3505
ZHHH,2008-06-12 18:00,ZHHH 121800Z AUTO 04002KT 7SM 25/23 A2965 RMK SLP038 T02510226 57013 IEM_DS3505
ZHHH,2008-06-12 19:00,ZHHH 121900Z AUTO 07004KT 1SM 24/24 A2965 RMK T02400240 IEM_DS3505
ZHHH,2008-06-12 20:00,ZHHH 122000Z AUTO 10006KT 1SM 24/24 A2962 RMK T02400240 IEM_DS3505
ZHHH,2008-06-12 21:00,ZHHH 122100Z AUTO 09002KT 7SM 25/22 A2965 RMK SLP035 T02500215 57003 IEM_DS3505
ZHHH,2008-06-12 22:00,ZHHH 122200Z AUTO 07006KT 1SM 24/24 A2965 RMK T02400240 IEM_DS3505
ZHHH,2008-06-12 23:00,ZHHH 122300Z AUTO 07006KT 1SM 24/24 A2968 RMK T02400240 IEM_DS3505
ZHHH,2008-06-13 00:00,ZHHH 130000Z AUTO 04004KT 7SM 26/22 A2968 RMK SLP048 T02550224 52013 IEM_DS3505
ZHHH,2008-06-13 01:00,ZHHH 130100Z AUTO 07006KT 1 1/4SM 26/24 A2968 RMK T02600240 IEM_DS3505
ZHHH,2008-06-13 02:00,ZHHH 130200Z AUTO 07010KT 2SM 27/25 A2968 RMK T02700250 IEM_DS3505
ZHHH,2008-06-13 03:00,ZHHH 130300Z AUTO 09006KT 7SM 27/22 A2968 RMK SLP052 T02660218 52004 IEM_DS3505
ZHHH,2008-06-13 04:00,ZHHH 130400Z AUTO 10010KT 3SM 28/25 A2968 RMK T02800250 IEM_DS3505
ZHHH,2008-06-13 05:00,ZHHH 130500Z AUTO 12012KT 4SM 28/24 A2965 RMK T02800240 IEM_DS3505
ZHHH,2008-06-13 06:00,ZHHH 130600Z AUTO 09008KT 7SM 29/21 A2965 RMK SLP033 T02910213 57019 IEM_DS3505
ZHHH,2008-06-13 07:00,ZHHH 130700Z AUTO 12012KT 7SM 28/24 A2962 RMK T02800240 IEM_DS3505
ZHHH,2008-06-13 08:00,ZHHH 130800Z AUTO 13008KT 6SM 28/24 A2959 RMK T02800240 IEM_DS3505
ZHHH,2008-06-13 09:00,ZHHH 130900Z AUTO 09006KT 11SM 29/20 A2959 RMK SLP020 T02910197 57013 IEM_DS3505
ZHHH,2008-06-13 10:00,ZHHH 131000Z AUTO 10010KT 6SM 26/23 A2959 RMK T02600230 IEM_DS3505
ZHHH,2008-06-13 11:00,ZHHH 131100Z AUTO 11008KT 6SM 25/23 A2962 RMK T02500230 IEM_DS3505
ZHHH,2008-06-13 12:00,ZHHH 131200Z AUTO 09004KT 12SM 26/21 A2962 RMK SLP030 T02600208 52010 IEM_DS3505
ZHHH,2008-06-13 13:00,ZHHH 131300Z AUTO 03002KT 6SM 24/22 A2965 RMK T02400220 IEM_DS3505
ZHHH,2008-06-13 14:00,ZHHH 131400Z AUTO 04002KT 4SM 24/23 A2965 RMK T02400230 IEM_DS3505
ZHHH,2008-06-13 15:00,ZHHH 131500Z AUTO 02002KT 11SM 24/22 A2965 RMK SLP036 T02440215 52006 IEM_DS3505
ZHHH,2008-06-13 16:00,ZHHH 131600Z AUTO 02002KT 4SM 23/22 A2965 RMK T02300220 IEM_DS3505
ZHHH,2008-06-13 17:00,ZHHH 131700Z AUTO 02002KT 4SM 23/22 A2962 RMK T02300220 IEM_DS3505
ZHHH,2008-06-13 18:00,ZHHH 131800Z AUTO 27002KT 11SM 24/22 A2962 RMK SLP035 T02370216 57001 IEM_DS3505
ZHHH,2008-06-13 19:00,ZHHH 131900Z AUTO 30002KT 4SM 23/22 A2965 RMK T02300220 IEM_DS3505
ZHHH,2008-06-13 20:00,ZHHH 132000Z AUTO 4SM 23/22 A2965 RMK T02300220 IEM_DS3505
ZHHH,2008-06-13 21:00,ZHHH 132100Z AUTO 34002KT 9SM 23/21 A2965 RMK SLP040 T02290210 52005 IEM_DS3505
ZHHH,2008-06-13 22:00,ZHHH 132200Z AUTO 05002KT 1 1/4SM 22/22 A2965 RMK T02200220 IEM_DS3505
ZHHH,2008-06-13 23:00,ZHHH 132300Z AUTO 06008KT 1 1/4SM 23/23 A2965 RMK T02300230 IEM_DS3505
ZHHH,2008-06-14 00:00,ZHHH 140000Z AUTO 04004KT 9SM 24/21 A2968 RMK SLP051 T02430210 52011 IEM_DS3505
ZHHH,2008-06-14 01:00,ZHHH 140100Z AUTO 03010KT 2SM 26/23 A2968 RMK T02600230 IEM_DS3505
ZHHH,2008-06-14 02:00,ZHHH 140200Z AUTO 01006KT 3SM 28/24 A2968 RMK T02800240 IEM_DS3505
ZHHH,2008-06-14 03:00,ZHHH 140300Z AUTO 36004KT 12SM 28/21 A2971 RMK SLP056 T02800208 52005 IEM_DS3505
ZHHH,2008-06-14 04:00,ZHHH 140400Z AUTO 03006KT 7SM 29/23 A2971 RMK T02900230 IEM_DS3505
ZHHH,2008-06-14 05:00,ZHHH 140500Z AUTO 01004KT 7SM 29/23 A2968 RMK T02900230 IEM_DS3505
ZHHH,2008-06-14 06:00,ZHHH 140600Z AUTO 02006KT 12SM 30/19 A2968 RMK SLP048 T03000194 57008 IEM_DS3505
ZHHH,2008-06-14 07:00,ZHHH 140700Z AUTO 02004KT 7SM 31/22 A2965 RMK T03100220 IEM_DS3505
ZHHH,2008-06-14 08:00,ZHHH 140800Z AUTO 03006KT 7SM 30/22 A2965 RMK T03000220 IEM_DS3505
ZHHH,2008-06-14 09:00,ZHHH 140900Z AUTO 34004KT 11SM 30/20 A2965 RMK SLP038 T02980204 57010 IEM_DS3505
ZHHH,2008-06-14 10:00,ZHHH 141000Z AUTO 02006KT 6SM 29/22 A2965 RMK T02900220 IEM_DS3505
ZHHH,2008-06-14 11:00,ZHHH 141100Z AUTO 04006KT 6SM 28/22 A2968 RMK T02800220 IEM_DS3505
ZHHH,2008-06-14 12:00,ZHHH 141200Z AUTO 02004KT 9SM 28/20 A2971 RMK SLP055 T02770200 52017 IEM_DS3505
ZHHH,2008-06-14 13:00,ZHHH 141300Z AUTO 04008KT 6SM 26/22 A2971 RMK T02600220 IEM_DS3505
ZHHH,2008-06-14 14:00,ZHHH 141400Z AUTO 05010KT 6SM 26/22 A2974 RMK T02600220 IEM_DS3505
ZHHH,2008-06-14 15:00,ZHHH 141500Z AUTO 04004KT 9SM 26/20 A2974 RMK SLP070 T02610197 52015 IEM_DS3505
ZHHH,2008-06-14 16:00,ZHHH 141600Z AUTO 05008KT 6SM 24/22 A2977 RMK T02400220 IEM_DS3505
ZHHH,2008-06-14 17:00,ZHHH 141700Z AUTO 04008KT 6SM 23/21 A2974 RMK T02300210 IEM_DS3505
ZHHH,2008-06-14 18:00,ZHHH 141800Z AUTO 04004KT 9SM 24/19 A2974 RMK SLP070 T02410194 54000 IEM_DS3505
ZHHH,2008-06-14 19:00,ZHHH 141900Z AUTO 04006KT 4SM 22/21 A2974 RMK T02200210 IEM_DS3505
ZHHH,2008-06-14 20:00,ZHHH 142000Z AUTO 05004KT 4SM 22/20 A2974 RMK T02200200 IEM_DS3505
ZHHH,2008-06-14 21:00,ZHHH 142100Z AUTO 02004KT 9SM 23/19 A2977 RMK SLP074 T02280188 52004 IEM_DS3505
ZHHH,2008-06-14 22:00,ZHHH 142200Z AUTO 04008KT 6SM 22/20 A2974 RMK T02200200 IEM_DS3505
ZHHH,2008-06-14 23:00,ZHHH 142300Z AUTO 04006KT 6SM 22/20 A2977 RMK T02200200 IEM_DS3505
ZHHH,2008-06-15 00:00,ZHHH 150000Z AUTO 04006KT 12SM 24/18 A2977 RMK SLP083 T02420182 52009 IEM_DS3505
ZHHH,2008-06-15 01:00,ZHHH 150100Z AUTO 05010KT 6SM 25/21 A2980 RMK T02500210 IEM_DS3505
ZHHH,2008-06-15 02:00,ZHHH 150200Z AUTO 02006KT 7SM 26/21 A2980 RMK T02600210 IEM_DS3505
ZHHH,2008-06-15 03:00,ZHHH 150300Z AUTO 04006KT 16SM 26/18 A2980 RMK SLP087 T02640185 52004 IEM_DS3505
ZHHH,2008-06-15 04:00,ZHHH 150400Z AUTO 05010KT 7SM 27/21 A2980 RMK T02700210 IEM_DS3505
ZHHH,2008-06-15 05:00,ZHHH 150500Z AUTO 04008KT 7SM 27/22 A2977 RMK T02700220 IEM_DS3505
ZHHH,2008-06-15 06:00,ZHHH 150600Z AUTO 07004KT 12SM 28/19 A2977 RMK SLP077 T02820186 57010 IEM_DS3505
ZHHH,2008-06-15 07:00,ZHHH 150700Z AUTO 02008KT 7SM 27/22 A2977 RMK T02700220 IEM_DS3505
ZHHH,2008-06-15 08:00,ZHHH 150800Z AUTO 02008KT 7SM 26/21 A2974 RMK T02600210 IEM_DS3505
ZHHH,2008-06-15 09:00,ZHHH 150900Z AUTO 02004KT 11SM 26/19 A2974 RMK SLP067 T02570189 57010 IEM_DS3505
ZHHH,2008-06-15 10:00,ZHHH 151000Z AUTO 05016KT 7SM 24/20 A2974 RMK T02400200 IEM_DS3505
ZHHH,2008-06-15 11:00,ZHHH 151100Z AUTO 04010KT 6SM 23/20 A2974 RMK T02300200 IEM_DS3505
ZHHH,2008-06-15 12:00,ZHHH 151200Z AUTO 04006KT 11SM 23/18 A2977 RMK SLP077 T02330180 52010 IEM_DS3505
ZHHH,2008-06-15 13:00,ZHHH 151300Z AUTO 04008KT 4SM 22/20 A2977 RMK T02200200 IEM_DS3505
ZHHH,2008-06-15 14:00,ZHHH 151400Z AUTO 04008KT 3SM 22/20 A2980 RMK T02200200 IEM_DS3505
ZHHH,2008-06-15 15:00,ZHHH 151500Z AUTO 02006KT 11SM 22/18 A2980 RMK SLP088 T02250178 52011 IEM_DS3505
ZHHH,2008-06-15 16:00,ZHHH 151600Z AUTO 04004KT 3SM 22/20 A2977 RMK T02200200 IEM_DS3505
ZHHH,2008-06-15 17:00,ZHHH 151700Z AUTO 04002KT 3SM 21/20 A2977 RMK T02100200 IEM_DS3505
ZHHH,2008-06-15 18:00,ZHHH 151800Z AUTO 04004KT 11SM 22/18 A2977 RMK SLP076 T02210183 57012 IEM_DS3505
ZHHH,2008-06-15 19:00,ZHHH 151900Z AUTO 04006KT 4SM 21/20 A2974 RMK T02100200 IEM_DS3505
ZHHH,2008-06-15 20:00,ZHHH 152000Z AUTO 05006KT 4SM 21/20 A2977 RMK T02100200 IEM_DS3505
ZHHH,2008-06-15 21:00,ZHHH 152100Z AUTO 07002KT 9SM 22/19 A2977 RMK SLP074 T02200186 57002 IEM_DS3505
ZHHH,2008-06-15 22:00,ZHHH 152200Z AUTO 2SM 21/20 A2977 RMK T02100200 IEM_DS3505
ZHHH,2008-06-15 23:00,ZHHH 152300Z AUTO 06006KT 2SM 21/20 A2974 RMK T02100200 IEM_DS3505
ZHHH,2008-06-16 00:00,ZHHH 160000Z AUTO 02004KT 7SM 22/19 A2977 RMK 60008 70006 SLP077 T02190193 52003 IEM_DS3505
ZHHH,2008-06-16 01:00,ZHHH 160100Z AUTO 06008KT 3SM 23/21 A2977 RMK T02300210 IEM_DS3505
ZHHH,2008-06-16 02:00,ZHHH 160200Z AUTO 08004KT 7SM 23/21 A2977 RMK T02300210 IEM_DS3505
ZHHH,2008-06-16 03:00,ZHHH 160300Z AUTO 36002KT 7SM 24/19 A2977 RMK SLP082 T02360193 52005 IEM_DS3505
ZHHH,2008-06-16 04:00,ZHHH 160400Z AUTO 7SM 25/22 A2977 RMK T02500220 IEM_DS3505
ZHHH,2008-06-16 05:00,ZHHH 160500Z AUTO 7SM 26/21 A2977 RMK T02600210 IEM_DS3505
ZHHH,2008-06-16 06:00,ZHHH 160600Z AUTO 09002KT 11SM 26/19 A2974 RMK 60000 SLP072 T02580190 57010 IEM_DS3505
ZHHH,2008-06-16 07:00,ZHHH 160700Z AUTO 36004KT 7SM 26/22 A2974 RMK T02600220 IEM_DS3505
ZHHH,2008-06-16 08:00,ZHHH 160800Z AUTO 04004KT 7SM 26/22 A2971 RMK T02600220 IEM_DS3505
ZHHH,2008-06-16 09:00,ZHHH 160900Z AUTO 04004KT 11SM 26/19 A2971 RMK SLP063 T02620189 57009 IEM_DS3505
ZHHH,2008-06-16 10:00,ZHHH 161000Z AUTO 04008KT 7SM 26/21 A2971 RMK T02600210 IEM_DS3505
ZHHH,2008-06-16 11:00,ZHHH 161100Z AUTO 04006KT 6SM 24/21 A2974 RMK T02400210 IEM_DS3505
ZHHH,2008-06-16 12:00,ZHHH 161200Z AUTO 02004KT 11SM 24/19 A2974 RMK SLP070 T02450187 52007 IEM_DS3505
ZHHH,2008-06-16 13:00,ZHHH 161300Z AUTO 04010KT 6SM 23/20 A2977 RMK T02300200 IEM_DS3505
ZHHH,2008-06-16 14:00,ZHHH 161400Z AUTO 06008KT 6SM 22/20 A2977 RMK T02200200 IEM_DS3505
ZHHH,2008-06-16 15:00,ZHHH 161500Z AUTO 04006KT 11SM 23/18 A2980 RMK SLP084 T02310178 52014 IEM_DS3505
ZHHH,2008-06-16 16:00,ZHHH 161600Z AUTO 03004KT 6SM 21/20 A2980 RMK T02100200 IEM_DS3505
ZHHH,2008-06-16 17:00,ZHHH 161700Z AUTO 03006KT 6SM 21/20 A2977 RMK T02100200 IEM_DS3505
ZHHH,2008-06-16 18:00,ZHHH 161800Z AUTO 04004KT 11SM 22/18 A2974 RMK SLP070 T02170183 57014 IEM_DS3505
ZHHH,2008-06-16 19:00,ZHHH 161900Z AUTO 04004KT 3SM 21/20 A2974 RMK T02100200 IEM_DS3505
ZHHH,2008-06-16 20:00,ZHHH 162000Z AUTO 2SM 21/20 A2974 RMK T02100200 IEM_DS3505
ZHHH,2008-06-16 21:00,ZHHH 162100Z AUTO 04004KT 9SM 21/18 A2974 RMK 70006 SLP073 T02140182 52003 IEM_DS3505
ZHHH,2008-06-16 22:00,ZHHH 162200Z AUTO 04006KT 1SM 20/20 A2977 RMK T02000200 IEM_DS3505
ZHHH,2008-06-16 23:00,ZHHH 162300Z AUTO 03004KT 1/2SM 21/20 A2977 RMK T02100200 IEM_DS3505
ZHHH,2008-06-17 00:00,ZHHH 170000Z AUTO 02006KT 7SM 22/18 A2977 RMK 70000 SLP083 T02170183 52010 IEM_DS3505
ZHHH,2008-06-17 01:00,ZHHH 170100Z AUTO 02004KT 1SM 21/20 A2977 RMK T02100200 IEM_DS3505
ZHHH,2008-06-17 02:00,ZHHH 170200Z AUTO 04006KT 1SM 21/20 A2977 RMK T02100200 IEM_DS3505
ZHHH,2008-06-17 03:00,ZHHH 170300Z AUTO 36002KT 6SM 22/19 A2977 RMK SLP083 T02210187 54000 IEM_DS3505
ZHHH,2008-06-17 04:00,ZHHH 170400Z AUTO 02004KT 1SM 22/21 A2977 RMK T02200210 IEM_DS3505
ZHHH,2008-06-17 05:00,ZHHH 170500Z AUTO 1SM 21/20 A2980 RMK T02100200 IEM_DS3505
ZHHH,2008-06-17 06:00,ZHHH 170600Z AUTO 04002KT 6SM 21/19 A2980 RMK 60016 SLP084 T02100193 52001 IEM_DS3505
ZHHH,2008-06-17 07:00,ZHHH 170700Z AUTO 06004KT 1SM 20/20 A2974 RMK T02000200 IEM_DS3505
ZHHH,2008-06-17 08:00,ZHHH 170800Z AUTO 1SM 20/20 A2974 RMK T02000200 IEM_DS3505
ZHHH,2008-06-17 09:00,ZHHH 170900Z AUTO 02004KT 6SM 20/19 A2974 RMK SLP066 T02050190 57018 IEM_DS3505
ZHHH,2008-06-17 10:00,ZHHH 171000Z AUTO 09004KT 1SM 20/20 A2971 RMK T02000200 IEM_DS3505
ZHHH,2008-06-17 11:00,ZHHH 171100Z AUTO 1 1/4SM 20/20 A2971 RMK T02000200 IEM_DS3505
ZHHH,2008-06-17 12:00,ZHHH 171200Z AUTO 34004KT 6SM 20/19 A2974 RMK 60028 SLP066 T02040187 54000 IEM_DS3505
ZHHH,2008-06-17 13:00,ZHHH 171300Z AUTO 00000KT 2SM 19/19 A2974 RMK T01900190 IEM_DS3505
ZHHH,2008-06-17 14:00,ZHHH 171400Z AUTO 00000KT 1 1/4SM 19/19 A2974 RMK T01900190 IEM_DS3505
ZHHH,2008-06-17 15:00,ZHHH 171500Z AUTO 27002KT 5SM 20/18 A2977 RMK SLP080 T01980185 52014 IEM_DS3505
ZHHH,2008-06-17 16:00,ZHHH 171600Z AUTO 00000KT 1 1/4SM 19/19 A2977 RMK T01900190 IEM_DS3505
ZHHH,2008-06-17 17:00,ZHHH 171700Z AUTO 00000KT 1SM 19/19 A2977 RMK T01900190 IEM_DS3505
ZHHH,2008-06-17 18:00,ZHHH 171800Z AUTO 27002KT 5SM 19/18 A2974 RMK SLP073 T01900180 57007 IEM_DS3505
ZHHH,2008-06-17 19:00,ZHHH 171900Z AUTO 00000KT 1SM 18/18 A2974 RMK T01800180 IEM_DS3505
ZHHH,2008-06-17 20:00,ZHHH 172000Z AUTO 00000KT 1/8SM 18/18 A2974 RMK T01800180 IEM_DS3505
ZHHH,2008-06-17 21:00,ZHHH 172100Z AUTO 18002KT 6SM 19/18 A2977 RMK 70043 SLP076 T01870175 52003 IEM_DS3505
ZHHH,2008-06-17 22:00,ZHHH 172200Z AUTO 00000KT 1/8SM 18/18 A2977 RMK T01800180 IEM_DS3505
ZHHH,2008-06-17 23:00,ZHHH 172300Z AUTO 1SM 18/18 A2977 RMK T01800180 IEM_DS3505
ZHHH,2008-06-18 00:00,ZHHH 180000Z AUTO 04002KT 6SM 20/18 A2980 RMK 70043 SLP089 T02040183 52013 IEM_DS3505
ZHHH,2008-06-18 01:00,ZHHH 180100Z AUTO 1SM 19/19 A2980 RMK T01900190 IEM_DS3505
ZHHH,2008-06-18 02:00,ZHHH 180200Z AUTO 08004KT 2SM 21/21 A2980 RMK T02100210 IEM_DS3505
ZHHH,2008-06-18 03:00,ZHHH 180300Z AUTO 11002KT 9SM 24/17 A2980 RMK SLP084 T02450170 57005 IEM_DS3505
ZHHH,2008-06-18 04:00,ZHHH 180400Z AUTO 12004KT 2 1/2SM 24/22 A2977 RMK T02400220 IEM_DS3505
ZHHH,2008-06-18 06:00,ZHHH 180600Z AUTO 18004KT 9SM 26/18 A2974 RMK SLP069 T02650176 57015 IEM_DS3505
ZHHH,2008-06-18 07:00,ZHHH 180700Z AUTO 2 1/2SM 26/21 A2971 RMK T02600210 IEM_DS3505
ZHHH,2008-06-18 08:00,ZHHH 180800Z AUTO 17004KT 4SM 26/21 A2971 RMK T02600210 IEM_DS3505
ZHHH,2008-06-18 09:00,ZHHH 180900Z AUTO 20004KT 9SM 28/17 A2971 RMK SLP057 T02800172 57012 IEM_DS3505
ZHHH,2008-06-18 10:00,ZHHH 181000Z AUTO 12006KT 7SM 26/20 A2971 RMK T02600200 IEM_DS3505
ZHHH,2008-06-18 11:00,ZHHH 181100Z AUTO 09006KT 5SM 25/22 A2971 RMK T02500220 IEM_DS3505
ZHHH,2008-06-18 12:00,ZHHH 181200Z AUTO 14002KT 9SM 26/19 A2971 RMK SLP060 T02560190 52003 IEM_DS3505
ZHHH,2008-06-18 13:00,ZHHH 181300Z AUTO 12004KT 1 1/2SM 24/22 A2974 RMK T02400220 IEM_DS3505
ZHHH,2008-06-18 14:00,ZHHH 181400Z AUTO 10004KT 1 1/4SM 24/22 A2974 RMK T02400220 IEM_DS3505
ZHHH,2008-06-18 15:00,ZHHH 181500Z AUTO 09002KT 9SM 25/20 A2974 RMK SLP072 T02490199 52012 IEM_DS3505
ZHHH,2008-06-18 16:00,ZHHH 181600Z AUTO 13004KT 1 1/4SM 23/22 A2974 RMK T02300220 IEM_DS3505
ZHHH,2008-06-18 17:00,ZHHH 181700Z AUTO 14004KT 2SM 23/23 A2974 RMK T02300230 IEM_DS3505
ZHHH,2008-06-18 18:00,ZHHH 181800Z AUTO 09002KT 9SM 25/20 A2971 RMK SLP061 T02460203 57011 IEM_DS3505
ZHHH,2008-06-18 19:00,ZHHH 181900Z AUTO 12004KT 2SM 23/22 A2971 RMK T02300220 IEM_DS3505
ZHHH,2008-06-18 20:00,ZHHH 182000Z AUTO 14006KT 2SM 23/22 A2971 RMK T02300220 IEM_DS3505
ZHHH,2008-06-18 21:00,ZHHH 182100Z AUTO 09002KT 9SM 24/21 A2971 RMK SLP059 T02390210 57002 IEM_DS3505
ZHHH,2008-06-18 22:00,ZHHH 182200Z AUTO 14008KT 1 1/4SM 23/22 A2971 RMK T02300220 IEM_DS3505
ZHHH,2008-06-18 23:00,ZHHH 182300Z AUTO 15008KT 1 1/4SM 24/23 A2971 RMK T02400230 IEM_DS3505
ZHHH,2008-06-19 00:00,ZHHH 190000Z AUTO 16004KT 11SM 25/21 A2974 RMK SLP064 T02540209 52005 IEM_DS3505
ZHHH,2008-06-19 01:00,ZHHH 190100Z AUTO 15006KT 1 1/2SM 26/24 A2971 RMK T02600240 IEM_DS3505
ZHHH,2008-06-19 02:00,ZHHH 190200Z AUTO 16008KT 3SM 27/24 A2971 RMK T02700240 IEM_DS3505
ZHHH,2008-06-19 03:00,ZHHH 190300Z AUTO 14004KT 11SM 28/21 A2971 RMK SLP056 T02820210 57008 IEM_DS3505
ZHHH,2008-06-19 04:00,ZHHH 190400Z AUTO 20008KT 7SM 27/24 A2971 RMK T02700240 IEM_DS3505
ZHHH,2008-06-19 05:00,ZHHH 190500Z AUTO 21008KT 7SM 28/24 A2971 RMK T02800240 IEM_DS3505
ZHHH,2008-06-19 06:00,ZHHH 190600Z AUTO 18004KT 12SM 29/22 A2968 RMK SLP048 T02880218 57008 IEM_DS3505
ZHHH,2008-06-19 07:00,ZHHH 190700Z AUTO 17006KT 7SM 28/25 A2968 RMK T02800250 IEM_DS3505
ZHHH,2008-06-19 08:00,ZHHH 190800Z AUTO 15006KT 7SM 27/25 A2965 RMK T02700250 IEM_DS3505
ZHHH,2008-06-19 09:00,ZHHH 190900Z AUTO 09004KT 9SM 28/23 A2965 RMK SLP038 T02820227 57010 IEM_DS3505
ZHHH,2008-06-19 10:00,ZHHH 191000Z AUTO 13006KT 7SM 26/25 A2965 RMK T02600250 IEM_DS3505
ZHHH,2008-06-19 11:00,ZHHH 191100Z AUTO 12006KT 7SM 26/25 A2965 RMK T02600250 IEM_DS3505
ZHHH,2008-06-19 12:00,ZHHH 191200Z AUTO 11002KT 9SM 27/23 A2965 RMK 60000 SLP041 T02720232 52003 IEM_DS3505
ZHHH,2008-06-19 13:00,ZHHH 191300Z AUTO 14006KT 2 1/2SM 26/25 A2968 RMK T02600250 IEM_DS3505
ZHHH,2008-06-19 14:00,ZHHH 191400Z AUTO 13006KT 2 1/2SM 25/25 A2968 RMK T02500250 IEM_DS3505
ZHHH,2008-06-19 15:00,ZHHH 191500Z AUTO 11004KT 9SM 26/24 A2968 RMK SLP045 T02620235 52004 IEM_DS3505
ZHHH,2008-06-19 16:00,ZHHH 191600Z AUTO 14006KT 2SM 25/25 A2968 RMK T02500250 IEM_DS3505
ZHHH,2008-06-19 17:00,ZHHH 191700Z AUTO 13006KT 3SM 25/25 A2965 RMK T02500250 IEM_DS3505
ZHHH,2008-06-19 18:00,ZHHH 191800Z AUTO 09002KT 9SM 26/23 A2962 RMK SLP031 T02590234 57014 IEM_DS3505
ZHHH,2008-06-19 19:00,ZHHH 191900Z AUTO 12006KT 2SM 25/25 A2962 RMK T02500250 IEM_DS3505
ZHHH,2008-06-19 20:00,ZHHH 192000Z AUTO 10004KT 2SM 25/25 A2962 RMK T02500250 IEM_DS3505
ZHHH,2008-06-19 21:00,ZHHH 192100Z AUTO 11002KT 9SM 26/24 A2962 RMK 70000 SLP030 T02580235 57001 IEM_DS3505
ZHHH,2008-06-19 22:00,ZHHH 192200Z AUTO 12006KT 1 1/4SM 25/25 A2962 RMK T02500250 IEM_DS3505
ZHHH,2008-06-19 23:00,ZHHH 192300Z AUTO 13006KT 1 1/4SM 26/25 A2962 RMK T02600250 IEM_DS3505
ZHHH,2008-06-20 00:00,ZHHH 200000Z AUTO 11004KT 11SM 28/23 A2965 RMK 70000 SLP038 T02840233 52008 IEM_DS3505
ZHHH,2008-06-20 01:00,ZHHH 200100Z AUTO 14004KT 3SM 29/26 A2965 RMK T02900260 IEM_DS3505
ZHHH,2008-06-20 02:00,ZHHH 200200Z AUTO 18006KT 6SM 29/26 A2965 RMK T02900260 IEM_DS3505
ZHHH,2008-06-20 03:00,ZHHH 200300Z AUTO 18006KT 16SM 33/23 A2962 RMK SLP030 T03290227 57007 IEM_DS3505
ZHHH,2008-06-20 04:00,ZHHH 200400Z AUTO 22019KT 7SM 34/26 A2959 RMK T03400260 IEM_DS3505
ZHHH,2008-06-20 05:00,ZHHH 200500Z AUTO 23016KT 7SM 33/25 A2959 RMK T03300250 IEM_DS3505
ZHHH,2008-06-20 06:00,ZHHH 200600Z AUTO 25008KT 14SM 35/22 A2956 RMK SLP011 T03470224 57019 IEM_DS3505
ZHHH,2008-06-20 07:00,ZHHH 200700Z AUTO 24014KT 7SM 34/26 A2956 RMK T03400260 IEM_DS3505
ZHHH,2008-06-20 08:00,ZHHH 200800Z AUTO 26010KT 7SM 32/27 A2956 RMK T03200270 IEM_DS3505
ZHHH,2008-06-20 09:00,ZHHH 200900Z AUTO 27006KT 12SM 32/23 A2956 RMK SLP004 T03250229 57007 IEM_DS3505
ZHHH,2008-06-20 10:00,ZHHH 201000Z AUTO 25006KT 6SM 31/26 A2956 RMK T03100260 IEM_DS3505
ZHHH,2008-06-20 11:00,ZHHH 201100Z AUTO 6SM 30/27 A2956 RMK T03000270 IEM_DS3505
ZHHH,2008-06-20 12:00,ZHHH 201200Z AUTO 22002KT 7SM 30/24 A2956 RMK 60000 SLP008 T03050244 52004 IEM_DS3505
ZHHH,2008-06-20 13:00,ZHHH 201300Z AUTO 24004KT 6SM 29/26 A2956 RMK T02900260 IEM_DS3505
ZHHH,2008-06-20 14:00,ZHHH 201400Z AUTO 6SM 29/27 A2959 RMK T02900270 IEM_DS3505
ZHHH,2008-06-20 15:00,ZHHH 201500Z AUTO 22004KT 9SM 30/23 A2956 RMK SLP012 T03050227 52004 IEM_DS3505
ZHHH,2008-06-20 16:00,ZHHH 201600Z AUTO 23008KT 6SM 30/26 A2956 RMK T03000260 IEM_DS3505
ZHHH,2008-06-20 17:00,ZHHH 201700Z AUTO 22002KT 6SM 29/26 A2956 RMK T02900260 IEM_DS3505
ZHHH,2008-06-20 18:00,ZHHH 201800Z AUTO 16002KT 11SM 29/23 A2953 RMK 60000 SLP000 T02910233 57012 IEM_DS3505
ZHHH,2008-06-20 19:00,ZHHH 201900Z AUTO 22010KT 6SM 28/25 A2953 RMK T02800250 IEM_DS3505
ZHHH,2008-06-20 20:00,ZHHH 202000Z AUTO 22008KT 6SM 28/25 A2953 RMK T02800250 IEM_DS3505
ZHHH,2008-06-20 21:00,ZHHH 202100Z AUTO 20004KT 9SM 28/23 A2953 RMK 70000 SLP000 T02830230 54000 IEM_DS3505
ZHHH,2008-06-20 22:00,ZHHH 202200Z AUTO 22002KT 6SM 27/25 A2956 RMK T02700250 IEM_DS3505
ZHHH,2008-06-20 23:00,ZHHH 202300Z AUTO 22008KT 7SM 29/26 A2956 RMK T02900260 IEM_DS3505
ZHHH,2008-06-21 00:00,ZHHH 210000Z AUTO 25002KT 12SM 29/23 A2956 RMK 70000 SLP009 T02930233 52009 IEM_DS3505
ZHHH,2008-06-21 01:00,ZHHH 210100Z AUTO 22010KT 6SM 30/26 A2956 RMK T03000260 IEM_DS3505
ZHHH,2008-06-21 02:00,ZHHH 210200Z AUTO 24012KT 6SM 31/26 A2956 RMK T03100260 IEM_DS3505
ZHHH,2008-06-21 03:00,ZHHH 210300Z AUTO 22004KT 12SM 32/23 A2956 RMK SLP008 T03200233 57001 IEM_DS3505
ZHHH,2008-06-21 04:00,ZHHH 210400Z AUTO 24010KT 7SM 32/27 A2956 RMK T03200270 IEM_DS3505
ZHHH,2008-06-21 05:00,ZHHH 210500Z AUTO 24008KT 7SM 33/27 A2953 RMK T03300270 IEM_DS3505
ZHHH,2008-06-21 06:00,ZHHH 210600Z AUTO 22004KT 12SM 34/23 A2953 RMK SLP994 T03390233 57014 IEM_DS3505
ZHHH,2008-06-21 07:00,ZHHH 210700Z AUTO 24012KT 7SM 34/27 A2950 RMK T03400270 IEM_DS3505
ZHHH,2008-06-21 08:00,ZHHH 210800Z AUTO 24012KT 7SM 33/27 A2950 RMK T03300270 IEM_DS3505
ZHHH,2008-06-21 09:00,ZHHH 210900Z AUTO 22004KT 9SM 33/23 A2950 RMK SLP986 T03290233 57008 IEM_DS3505
ZHHH,2008-06-21 10:00,ZHHH 211000Z AUTO 22010KT 7SM 31/27 A2950 RMK T03100270 IEM_DS3505
ZHHH,2008-06-21 11:00,ZHHH 211100Z AUTO 27006KT 6SM 30/28 A2950 RMK T03000280 IEM_DS3505
ZHHH,2008-06-21 12:00,ZHHH 211200Z AUTO 29004KT 9SM 30/26 A2953 RMK 60002 SLP994 T02950257 52008 IEM_DS3505
ZHHH,2008-06-21 13:00,ZHHH 211300Z AUTO 4SM 27/27 A2953 RMK T02700270 IEM_DS3505
ZHHH,2008-06-21 14:00,ZHHH 211400Z AUTO 00000KT 3SM 26/26 A2956 RMK T02600260 IEM_DS3505
ZHHH,2008-06-21 15:00,ZHHH 211500Z AUTO 04002KT 9SM 27/25 A2956 RMK SLP004 T02700248 52010 IEM_DS3505
ZHHH,2008-06-21 16:00,ZHHH 211600Z AUTO 06004KT 7SM 26/26 A2956 RMK T02600260 IEM_DS3505
ZHHH,2008-06-21 17:00,ZHHH 211700Z AUTO 08004KT 7SM 26/26 A2953 RMK T02600260 IEM_DS3505
ZHHH,2008-06-21 18:00,ZHHH 211800Z AUTO 02002KT 7SM 27/25 A2956 RMK 60020 SLP000 T02710251 57004 IEM_DS3505
ZHHH,2008-06-21 19:00,ZHHH 211900Z AUTO 08004KT 3SM 26/26 A2953 RMK T02600260 IEM_DS3505
ZHHH,2008-06-21 20:00,ZHHH 212000Z AUTO 13004KT 3SM 26/26 A2953 RMK T02600260 IEM_DS3505
ZHHH,2008-06-21 21:00,ZHHH 212100Z AUTO 09002KT 7SM 27/25 A2953 RMK 70020 SLP996 T02680250 57004 IEM_DS3505
ZHHH,2008-06-21 22:00,ZHHH 212200Z AUTO 2SM 26/26 A2953 RMK T02600260 IEM_DS3505
ZHHH,2008-06-21 23:00,ZHHH 212300Z AUTO 00000KT 2 1/2SM 26/26 A2956 RMK T02600260 IEM_DS3505
ZHHH,2008-06-22 00:00,ZHHH 220000Z AUTO 07002KT 7SM 27/25 A2956 RMK 60001 70020 SLP006 T02740252 52010 IEM_DS3505
ZHHH,2008-06-22 01:00,ZHHH 220100Z AUTO 1SM 26/26 A2956 RMK T02600260 IEM_DS3505
ZHHH,2008-06-22 02:00,ZHHH 220200Z AUTO 1SM 26/26 A2956 RMK T02600260 IEM_DS3505
ZHHH,2008-06-22 03:00,ZHHH 220300Z AUTO 27004KT 7SM 30/26 A2956 RMK SLP007 T02990259 52001 IEM_DS3505
ZHHH,2008-06-22 04:00,ZHHH 220400Z AUTO 34004KT 1 1/2SM 28/27 A2956 RMK T02800270 IEM_DS3505
ZHHH,2008-06-22 05:00,ZHHH 220500Z AUTO 35006KT 2SM 29/28 A2953 RMK T02900280 IEM_DS3505
ZHHH,2008-06-22 06:00,ZHHH 220600Z AUTO 02004KT 7SM 30/26 A2953 RMK SLP996 T03040257 57011 IEM_DS3505
ZHHH,2008-06-22 07:00,ZHHH 220700Z AUTO 36004KT 3SM 30/28 A2950 RMK T03000280 IEM_DS3505
ZHHH,2008-06-22 08:00,ZHHH 220800Z AUTO 02004KT 3SM 30/28 A2950 RMK T03000280 IEM_DS3505
ZHHH,2008-06-22 09:00,ZHHH 220900Z AUTO 04004KT 7SM 31/26 A2950 RMK SLP989 T03100256 57007 IEM_DS3505
ZHHH,2008-06-22 10:00,ZHHH 221000Z AUTO 06008KT 6SM 29/27 A2950 RMK T02900270 IEM_DS3505
ZHHH,2008-06-22 11:00,ZHHH 221100Z AUTO 06008KT 7SM 28/27 A2950 RMK T02800270 IEM_DS3505
ZHHH,2008-06-22 12:00,ZHHH 221200Z AUTO 07004KT 9SM 29/26 A2953 RMK SLP994 T02900256 52005 IEM_DS3505
ZHHH,2008-06-22 13:00,ZHHH 221300Z AUTO 11006KT 6SM 27/27 A2953 RMK T02700270 IEM_DS3505
ZHHH,2008-06-22 14:00,ZHHH 221400Z AUTO 06002KT 6SM 27/27 A2956 RMK T02700270 IEM_DS3505
ZHHH,2008-06-22 15:00,ZHHH 221500Z AUTO 04004KT 9SM 28/26 A2956 RMK SLP004 T02810255 52010 IEM_DS3505
ZHHH,2008-06-22 16:00,ZHHH 221600Z AUTO 7SM 27/27 A2953 RMK T02700270 IEM_DS3505
ZHHH,2008-06-22 17:00,ZHHH 221700Z AUTO 02004KT 7SM 27/26 A2953 RMK T02700260 IEM_DS3505
ZHHH,2008-06-22 18:00,ZHHH 221800Z AUTO 04002KT 7SM 27/25 A2953 RMK 60012 SLP997 T02690251 57007 IEM_DS3505
ZHHH,2008-06-22 19:00,ZHHH 221900Z AUTO 7SM 26/26 A2950 RMK T02600260 IEM_DS3505
ZHHH,2008-06-22 20:00,ZHHH 222000Z AUTO 4SM 26/26 A2953 RMK T02600260 IEM_DS3505
ZHHH,2008-06-22 21:00,ZHHH 222100Z AUTO 34004KT 7SM 26/24 A2953 RMK 70018 SLP996 T02590243 57001 IEM_DS3505
ZHHH,2008-06-22 22:00,ZHHH 222200Z AUTO 35006KT 3SM 25/25 A2953 RMK T02500250 IEM_DS3505
ZHHH,2008-06-22 23:00,ZHHH 222300Z AUTO 05008KT 2 1/2SM 23/23 A2953 RMK T02300230 IEM_DS3505
ZHHH,2008-06-23 00:00,ZHHH 230000Z AUTO 34002KT 7SM 25/22 A2956 RMK 60012 70023 SLP006 T02480225 52009 IEM_DS3505
ZHHH,2008-06-23 01:00,ZHHH 230100Z AUTO 35004KT 1 1/4SM 24/24 A2956 RMK T02400240 IEM_DS3505
ZHHH,2008-06-23 02:00,ZHHH 230200Z AUTO 35004KT 1 1/4SM 24/23 A2956 RMK T02400230 IEM_DS3505
ZHHH,2008-06-23 03:00,ZHHH 230300Z AUTO 02002KT 7SM 24/21 A2956 RMK SLP013 T02380211 52007 IEM_DS3505
ZHHH,2008-06-23 04:00,ZHHH 230400Z AUTO 05004KT 1 1/4SM 24/23 A2956 RMK T02400230 IEM_DS3505
ZHHH,2008-06-23 05:00,ZHHH 230500Z AUTO 1 1/2SM 24/24 A2956 RMK T02400240 IEM_DS3505
ZHHH,2008-06-23 06:00,ZHHH 230600Z AUTO 29004KT 7SM 26/21 A2956 RMK 60012 SLP006 T02620214 57007 IEM_DS3505
ZHHH,2008-06-23 07:00,ZHHH 230700Z AUTO 00000KT 2 1/2SM 26/24 A2956 RMK T02600240 IEM_DS3505
ZHHH,2008-06-23 08:00,ZHHH 230800Z AUTO 2 1/2SM 26/24 A2956 RMK T02600240 IEM_DS3505
ZHHH,2008-06-23 09:00,ZHHH 230900Z AUTO 29002KT 6SM 26/22 A2953 RMK SLP001 T02640218 57005 IEM_DS3505
ZHHH,2008-06-23 10:00,ZHHH 231000Z AUTO 26002KT 2SM 26/24 A2953 RMK T02600240 IEM_DS3505
ZHHH,2008-06-23 11:00,ZHHH 231100Z AUTO 2SM 26/24 A2953 RMK T02600240 IEM_DS3505
ZHHH,2008-06-23 12:00,ZHHH 231200Z AUTO 27004KT 7SM 26/22 A2956 RMK SLP007 T02560221 52006 IEM_DS3505
ZHHH,2008-06-23 13:00,ZHHH 231300Z AUTO 26004KT 2SM 25/24 A2956 RMK T02500240 IEM_DS3505
ZHHH,2008-06-23 14:00,ZHHH 231400Z AUTO 26004KT 1 1/2SM 24/24 A2959 RMK T02400240 IEM_DS3505
ZHHH,2008-06-23 15:00,ZHHH 231500Z AUTO 27004KT 1 1/2SM 24/24 A2959 RMK T02400240 IEM_DS3505
ZHHH,2008-06-23 16:00,ZHHH 231600Z AUTO 26004KT 1 1/2SM 24/24 A2959 RMK T02400240 IEM_DS3505
ZHHH,2008-06-23 17:00,ZHHH 231700Z AUTO 29006KT 1 1/2SM 23/23 A2959 RMK T02300230 IEM_DS3505
ZHHH,2008-06-23 18:00,ZHHH 231800Z AUTO 27002KT 9SM 24/22 A2959 RMK SLP015 T02360219 57003 IEM_DS3505
ZHHH,2008-06-23 19:00,ZHHH 231900Z AUTO 00000KT 1 1/4SM 23/23 A2959 RMK T02300230 IEM_DS3505
ZHHH,2008-06-23 20:00,ZHHH 232000Z AUTO 00000KT 1 1/4SM 23/23 A2959 RMK T02300230 IEM_DS3505
ZHHH,2008-06-23 21:00,ZHHH 232100Z AUTO 27002KT 9SM 24/21 A2959 RMK 70016 SLP020 T02370214 52005 IEM_DS3505
ZHHH,2008-06-23 22:00,ZHHH 232200Z AUTO 00000KT 1 1/2SM 23/23 A2962 RMK T02300230 IEM_DS3505
ZHHH,2008-06-23 23:00,ZHHH 232300Z AUTO 00000KT 1 1/2SM 24/23 A2962 RMK T02400230 IEM_DS3505
ZHHH,2008-06-24 00:00,ZHHH 240000Z AUTO 04002KT 9SM 25/21 A2965 RMK 70011 SLP035 T02520213 52015 IEM_DS3505
ZHHH,2008-06-24 01:00,ZHHH 240100Z AUTO 07006KT 1 1/4SM 26/25 A2965 RMK T02600250 IEM_DS3505
ZHHH,2008-06-24 02:00,ZHHH 240200Z AUTO 2SM 27/25 A2965 RMK T02700250 IEM_DS3505
ZHHH,2008-06-24 03:00,ZHHH 240300Z AUTO 32002KT 11SM 29/22 A2965 RMK SLP040 T02870215 52005 IEM_DS3505
ZHHH,2008-06-24 04:00,ZHHH 240400Z AUTO 25006KT 6SM 30/26 A2965 RMK T03000260 IEM_DS3505
ZHHH,2008-06-24 05:00,ZHHH 240500Z AUTO 12004KT 6SM 29/25 A2965 RMK T02900250 IEM_DS3505
ZHHH,2008-06-24 06:00,ZHHH 240600Z AUTO 22004KT 11SM 29/23 A2965 RMK SLP036 T02940229 57004 IEM_DS3505
ZHHH,2008-06-24 07:00,ZHHH 240700Z AUTO 11002KT 6SM 32/26 A2962 RMK T03200260 IEM_DS3505
ZHHH,2008-06-24 08:00,ZHHH 240800Z AUTO 24004KT 4SM 30/26 A2962 RMK T03000260 IEM_DS3505
ZHHH,2008-06-24 09:00,ZHHH 240900Z AUTO 00000KT 9SM 29/22 A2962 RMK SLP030 T02900223 57006 IEM_DS3505
ZHHH,2008-06-24 10:00,ZHHH 241000Z AUTO 1SM 29/25 A2962 RMK T02900250 IEM_DS3505
ZHHH,2008-06-24 11:00,ZHHH 241100Z AUTO 00000KT 1SM 28/26 A2965 RMK T02800260 IEM_DS3505
ZHHH,2008-06-24 12:00,ZHHH 241200Z AUTO 27002KT 7SM 27/24 A2965 RMK 60000 SLP039 T02720237 52009 IEM_DS3505
ZHHH,2008-06-24 13:00,ZHHH 241300Z AUTO 20004KT 1SM 27/26 A2968 RMK T02700260 IEM_DS3505
ZHHH,2008-06-24 14:00,ZHHH 241400Z AUTO 1SM 27/26 A2968 RMK T02700260 IEM_DS3505
ZHHH,2008-06-24 15:00,ZHHH 241500Z AUTO 16002KT 7SM 27/24 A2968 RMK SLP053 T02690238 52014 IEM_DS3505
ZHHH,2008-06-24 16:00,ZHHH 241600Z AUTO 00000KT 1SM 26/26 A2968 RMK T02600260 IEM_DS3505
ZHHH,2008-06-24 17:00,ZHHH 241700Z AUTO 00000KT 1SM 26/25 A2968 RMK T02600250 IEM_DS3505
ZHHH,2008-06-24 18:00,ZHHH 241800Z AUTO 09002KT 7SM 26/23 RMK SLP042 T02650234 57011 IEM_DS3505
ZHHH,2008-06-24 19:00,ZHHH 241900Z AUTO 1SM 25/25 A2965 RMK T02500250 IEM_DS3505
ZHHH,2008-06-24 20:00,ZHHH 242000Z AUTO 11004KT 1SM 25/25 A2965 RMK T02500250 IEM_DS3505
ZHHH,2008-06-24 21:00,ZHHH 242100Z AUTO 11002KT 7SM 26/23 A2968 RMK 70000 SLP048 T02590226 52006 IEM_DS3505
ZHHH,2008-06-24 22:00,ZHHH 242200Z AUTO 11006KT 1 1/2SM 25/24 A2968 RMK T02500240 IEM_DS3505
ZHHH,2008-06-24 23:00,ZHHH 242300Z AUTO 13004KT 1 1/4SM 25/25 A2971 RMK T02500250 IEM_DS3505
ZHHH,2008-06-25 00:00,ZHHH 250000Z AUTO 04004KT 7SM 27/22 A2971 RMK 70000 SLP062 T02690223 52014 IEM_DS3505
ZHHH,2008-06-25 01:00,ZHHH 250100Z AUTO 1SM 26/26 A2971 RMK T02600260 IEM_DS3505
ZHHH,2008-06-25 02:00,ZHHH 250200Z AUTO 1SM 28/26 A2971 RMK T02800260 IEM_DS3505
ZHHH,2008-06-25 03:00,ZHHH 250300Z AUTO 09002KT 7SM 30/23 A2971 RMK SLP056 T02970234 57006 IEM_DS3505
ZHHH,2008-06-25 04:00,ZHHH 250400Z AUTO 1 1/4SM 30/26 A2971 RMK T03000260 IEM_DS3505
ZHHH,2008-06-25 05:00,ZHHH 250500Z AUTO 12004KT 1 1/2SM 30/27 A2968 RMK T03000270 IEM_DS3505
ZHHH,2008-06-25 06:00,ZHHH 250600Z AUTO 36002KT 7SM 32/22 A2965 RMK SLP042 T03180225 57013 IEM_DS3505
ZHHH,2008-06-25 07:00,ZHHH 250700Z AUTO 16004KT 2 1/2SM 30/26 A2965 RMK T03000260 IEM_DS3505
ZHHH,2008-06-25 08:00,ZHHH 250800Z AUTO 2 1/2SM 31/26 A2965 RMK T03100260 IEM_DS3505
ZHHH,2008-06-25 09:00,ZHHH 250900Z AUTO 02002KT 7SM 32/22 A2962 RMK SLP029 T03190217 57013 IEM_DS3505
ZHHH,2008-06-25 10:00,ZHHH 251000Z AUTO 13004KT 2 1/2SM 30/26 A2962 RMK T03000260 IEM_DS3505
ZHHH,2008-06-25 11:00,ZHHH 251100Z AUTO 12004KT 2 1/2SM 29/26 A2962 RMK T02900260 IEM_DS3505
ZHHH,2008-06-25 12:00,ZHHH 251200Z AUTO 14004KT 7SM 28/24 A2962 RMK SLP028 T02830237 57002 IEM_DS3505
ZHHH,2008-06-25 13:00,ZHHH 251300Z AUTO 15004KT 1 1/2SM 27/26 A2962 RMK T02700260 IEM_DS3505
ZHHH,2008-06-25 14:00,ZHHH 251400Z AUTO 17004KT 1SM 26/26 A2965 RMK T02600260 IEM_DS3505
ZHHH,2008-06-25 15:00,ZHHH 251500Z AUTO 14002KT 7SM 27/22 A2968 RMK SLP045 T02670225 52017 IEM_DS3505
ZHHH,2008-06-25 16:00,ZHHH 251600Z AUTO 11004KT 1 1/2SM 25/24 A2968 RMK T02500240 IEM_DS3505
ZHHH,2008-06-25 17:00,ZHHH 251700Z AUTO 07004KT 1 1/2SM 25/24 A2968 RMK T02500240 IEM_DS3505
ZHHH,2008-06-25 18:00,ZHHH 251800Z AUTO 02002KT 7SM 26/23 A2965 RMK SLP037 T02600229 57007 IEM_DS3505
ZHHH,2008-06-25 19:00,ZHHH 251900Z AUTO 12004KT 1 1/2SM 24/24 A2965 RMK T02400240 IEM_DS3505
ZHHH,2008-06-25 20:00,ZHHH 252000Z AUTO 10002KT 1 1/4SM 24/24 A2962 RMK T02400240 IEM_DS3505
ZHHH,2008-06-25 21:00,ZHHH 252100Z AUTO 14002KT 7SM 24/22 A2962 RMK SLP036 T02430216 57002 IEM_DS3505
ZHHH,2008-06-25 22:00,ZHHH 252200Z AUTO 11004KT 1SM 24/24 A2965 RMK T02400240 IEM_DS3505
ZHHH,2008-06-25 23:00,ZHHH 252300Z AUTO 12006KT 1 1/4SM 24/24 A2965 RMK T02400240 IEM_DS3505
ZHHH,2008-06-26 00:00,ZHHH 260000Z AUTO 09004KT 7SM 26/23 A2968 RMK SLP046 T02650226 52010 IEM_DS3505
ZHHH,2008-06-26 01:00,ZHHH 260100Z AUTO 07006KT 1 1/4SM 27/25 A2968 RMK T02700250 IEM_DS3505
ZHHH,2008-06-26 02:00,ZHHH 260200Z AUTO 07006KT 2SM 28/25 A2968 RMK T02800250 IEM_DS3505
ZHHH,2008-06-26 03:00,ZHHH 260300Z AUTO 11004KT 9SM 30/22 A2965 RMK SLP041 T02980225 57005 IEM_DS3505
ZHHH,2008-06-26 04:00,ZHHH 260400Z AUTO 3SM 29/25 A2965 RMK T02900250 IEM_DS3505
ZHHH,2008-06-26 05:00,ZHHH 260500Z AUTO 04004KT 2 1/2SM 30/25 A2965 RMK T03000250 IEM_DS3505
ZHHH,2008-06-26 06:00,ZHHH 260600Z AUTO 02002KT 9SM 30/23 A2962 RMK SLP030 T03040226 57010 IEM_DS3505
ZHHH,2008-06-26 07:00,ZHHH 260700Z AUTO 03004KT 3SM 30/26 A2962 RMK T03000260 IEM_DS3505
ZHHH,2008-06-26 08:00,ZHHH 260800Z AUTO 02004KT 4SM 31/26 A2962 RMK T03100260 IEM_DS3505
ZHHH,2008-06-26 09:00,ZHHH 260900Z AUTO 02004KT 9SM 30/22 A2959 RMK SLP020 T02980217 57011 IEM_DS3505
ZHHH,2008-06-26 10:00,ZHHH 261000Z AUTO 02002KT 6SM 29/26 A2959 RMK T02900260 IEM_DS3505
ZHHH,2008-06-26 11:00,ZHHH 261100Z AUTO 04004KT 6SM 28/26 A2959 RMK T02800260 IEM_DS3505
ZHHH,2008-06-26 12:00,ZHHH 261200Z AUTO 07004KT 9SM 28/23 A2962 RMK SLP026 T02850234 52006 IEM_DS3505
ZHHH,2008-06-26 13:00,ZHHH 261300Z AUTO 06008KT 6SM 26/24 A2962 RMK T02600240 IEM_DS3505
ZHHH,2008-06-26 14:00,ZHHH 261400Z AUTO 04006KT 6SM 26/25 A2965 RMK T02600250 IEM_DS3505
ZHHH,2008-06-26 15:00,ZHHH 261500Z AUTO 07002KT 9SM 27/23 A2965 RMK SLP035 T02700226 52010 IEM_DS3505
ZHHH,2008-06-26 16:00,ZHHH 261600Z AUTO 06008KT 2 1/2SM 25/24 A2965 RMK T02500240 IEM_DS3505
ZHHH,2008-06-26 17:00,ZHHH 261700Z AUTO 05002KT 2 1/2SM 24/23 A2962 RMK T02400230 IEM_DS3505
ZHHH,2008-06-26 18:00,ZHHH 261800Z AUTO 04002KT 9SM 26/22 A2962 RMK SLP030 T02570222 57006 IEM_DS3505
ZHHH,2008-06-26 19:00,ZHHH 261900Z AUTO 06006KT 2 1/2SM 24/23 A2962 RMK T02400230 IEM_DS3505
ZHHH,2008-06-26 20:00,ZHHH 262000Z AUTO 05004KT 2 1/2SM 24/23 A2962 RMK T02400230 IEM_DS3505
ZHHH,2008-06-26 21:00,ZHHH 262100Z AUTO 34002KT 9SM 25/22 A2962 RMK SLP025 T02480217 57005 IEM_DS3505
ZHHH,2008-06-26 22:00,ZHHH 262200Z AUTO 00000KT 2SM 24/23 A2962 RMK T02400230 IEM_DS3505
ZHHH,2008-06-26 23:00,ZHHH 262300Z AUTO 06004KT 2SM 24/23 A2962 RMK T02400230 IEM_DS3505
ZHHH,2008-06-27 00:00,ZHHH 270000Z AUTO 09002KT 7SM 26/22 A2962 RMK SLP030 T02560215 52005 IEM_DS3505
ZHHH,2008-06-27 01:00,ZHHH 270100Z AUTO 2SM 25/24 A2962 RMK T02500240 IEM_DS3505
ZHHH,2008-06-27 02:00,ZHHH 270200Z AUTO 2SM 26/24 A2962 RMK T02600240 IEM_DS3505
ZHHH,2008-06-27 03:00,ZHHH 270300Z AUTO 34004KT 6SM 27/23 A2962 RMK SLP032 T02670228 52002 IEM_DS3505
ZHHH,2008-06-27 04:00,ZHHH 270400Z AUTO 00000KT 2 1/2SM 28/25 A2962 RMK T02800250 IEM_DS3505
ZHHH,2008-06-27 05:00,ZHHH 270500Z AUTO 4SM 29/25 A2959 RMK T02900250 IEM_DS3505
ZHHH,2008-06-27 06:00,ZHHH 270600Z AUTO 34004KT 9SM 28/22 A2959 RMK SLP021 T02840224 57011 IEM_DS3505
ZHHH,2008-06-27 07:00,ZHHH 270700Z AUTO 03004KT 7SM 30/25 A2959 RMK T03000250 IEM_DS3505
ZHHH,2008-06-27 08:00,ZHHH 270800Z AUTO 04004KT 7SM 30/25 A2956 RMK T03000250 IEM_DS3505
ZHHH,2008-06-27 09:00,ZHHH 270900Z AUTO 04004KT 9SM 30/21 A2956 RMK SLP012 T02970214 57009 IEM_DS3505
ZHHH,2008-06-27 10:00,ZHHH 271000Z AUTO 7SM 29/25 A2956 RMK T02900250 IEM_DS3505
ZHHH,2008-06-27 11:00,ZHHH 271100Z AUTO 03004KT 7SM 29/25 A2959 RMK T02900250 IEM_DS3505
ZHHH,2008-06-27 12:00,ZHHH 271200Z AUTO 07002KT 9SM 28/22 A2959 RMK SLP017 T02820220 52005 IEM_DS3505
ZHHH,2008-06-27 13:00,ZHHH 271300Z AUTO 04004KT 6SM 27/24 A2959 RMK T02700240 IEM_DS3505
ZHHH,2008-06-27 14:00,ZHHH 271400Z AUTO 04004KT 6SM 26/24 A2962 RMK T02600240 IEM_DS3505
ZHHH,2008-06-27 15:00,ZHHH 271500Z AUTO 07002KT 9SM 27/23 A2962 RMK SLP032 T02660229 52015 IEM_DS3505
ZHHH,2008-06-27 16:00,ZHHH 271600Z AUTO 05006KT 4SM 24/24 A2962 RMK T02400240 IEM_DS3505
ZHHH,2008-06-27 17:00,ZHHH 271700Z AUTO 06004KT 2 1/2SM 24/23 A2962 RMK T02400230 IEM_DS3505
ZHHH,2008-06-27 18:00,ZHHH 271800Z AUTO 02002KT 9SM 25/22 A2962 RMK SLP026 T02510220 57006 IEM_DS3505
ZHHH,2008-06-27 19:00,ZHHH 271900Z AUTO 08004KT 2SM 23/23 A2959 RMK T02300230 IEM_DS3505
ZHHH,2008-06-27 20:00,ZHHH 272000Z AUTO 07002KT 2SM 23/23 A2962 RMK T02300230 IEM_DS3505
ZHHH,2008-06-27 21:00,ZHHH 272100Z AUTO 09002KT 7SM 24/22 A2962 RMK SLP028 T02420221 52002 IEM_DS3505
ZHHH,2008-06-27 22:00,ZHHH 272200Z AUTO 07006KT 1SM 23/23 A2962 RMK T02300230 IEM_DS3505
ZHHH,2008-06-27 23:00,ZHHH 272300Z AUTO 07004KT 1SM 24/24 A2965 RMK T02400240 IEM_DS3505
ZHHH,2008-06-28 00:00,ZHHH 280000Z AUTO 04002KT 5SM 26/23 A2968 RMK SLP047 T02630234 52019 IEM_DS3505
ZHHH,2008-06-28 01:00,ZHHH 280100Z AUTO 11006KT 1 1/4SM 26/25 A2968 RMK T02600250 IEM_DS3505
ZHHH,2008-06-28 02:00,ZHHH 280200Z AUTO 11004KT 1 1/2SM 28/26 A2968 RMK T02800260 IEM_DS3505
ZHHH,2008-06-28 03:00,ZHHH 280300Z AUTO 14002KT 6SM 30/22 A2965 RMK SLP041 T02950222 57006 IEM_DS3505
ZHHH,2008-06-28 04:00,ZHHH 280400Z AUTO 08004KT 1 1/2SM 30/26 A2965 RMK T03000260 IEM_DS3505
ZHHH,2008-06-28 05:00,ZHHH 280500Z AUTO 09004KT 2SM 30/25 A2962 RMK T03000250 IEM_DS3505
ZHHH,2008-06-28 06:00,ZHHH 280600Z AUTO 07004KT 9SM 33/20 A2962 RMK SLP029 T03270199 57011 IEM_DS3505
ZHHH,2008-06-28 07:00,ZHHH 280700Z AUTO 10006KT 3SM 31/26 A2962 RMK T03100260 IEM_DS3505
ZHHH,2008-06-28 08:00,ZHHH 280800Z AUTO 10008KT 4SM 32/25 A2962 RMK T03200250 IEM_DS3505
ZHHH,2008-06-28 09:00,ZHHH 280900Z AUTO 18004KT 11SM 33/20 A2959 RMK SLP019 T03280203 57010 IEM_DS3505
ZHHH,2008-06-28 10:00,ZHHH 281000Z AUTO 12008KT 2 1/2SM 30/26 A2959 RMK T03000260 IEM_DS3505
ZHHH,2008-06-28 11:00,ZHHH 281100Z AUTO 11008KT 2SM 29/26 A2962 RMK T02900260 IEM_DS3505
ZHHH,2008-06-28 12:00,ZHHH 281200Z AUTO 09004KT 9SM 30/23 A2962 RMK SLP026 T02990231 52007 IEM_DS3505
ZHHH,2008-06-28 13:00,ZHHH 281300Z AUTO 12006KT 2SM 28/25 A2965 RMK T02800250 IEM_DS3505
ZHHH,2008-06-28 14:00,ZHHH 281400Z AUTO 12008KT 1 1/4SM 27/25 A2965 RMK T02700250 IEM_DS3505
ZHHH,2008-06-28 15:00,ZHHH 281500Z AUTO 16002KT 6SM 28/23 A2965 RMK SLP041 T02810228 52015 IEM_DS3505
ZHHH,2008-06-28 16:00,ZHHH 281600Z AUTO 11008KT 1 1/4SM 25/24 A2965 RMK T02500240 IEM_DS3505
ZHHH,2008-06-28 17:00,ZHHH 281700Z AUTO 12008KT 1 1/4SM 25/24 A2965 RMK T02500240 IEM_DS3505
ZHHH,2008-06-28 18:00,ZHHH 281800Z AUTO 11004KT 7SM 26/22 A2965 RMK SLP036 T02650224 57005 IEM_DS3505
ZHHH,2008-06-28 19:00,ZHHH 281900Z AUTO 13006KT 1SM 25/24 A2965 RMK T02500240 IEM_DS3505
ZHHH,2008-06-28 20:00,ZHHH 282000Z AUTO 14008KT 1SM 25/24 A2965 RMK T02500240 IEM_DS3505
ZHHH,2008-06-28 21:00,ZHHH 282100Z AUTO 11002KT 7SM 26/22 A2965 RMK SLP034 T02560223 57002 IEM_DS3505
ZHHH,2008-06-28 22:00,ZHHH 282200Z AUTO 14006KT 1SM 25/24 A2965 RMK T02500240 IEM_DS3505
ZHHH,2008-06-28 23:00,ZHHH 282300Z AUTO 12006KT 1SM 25/24 A2968 RMK T02500240 IEM_DS3505
ZHHH,2008-06-29 00:00,ZHHH 290000Z AUTO 09002KT 7SM 28/22 A2968 RMK SLP053 T02770224 52019 IEM_DS3505
ZHHH,2008-06-29 01:00,ZHHH 290100Z AUTO 12008KT 1 1/4SM 28/25 A2968 RMK T02800250 IEM_DS3505
ZHHH,2008-06-29 02:00,ZHHH 290200Z AUTO 12008KT 2SM 29/25 A2968 RMK T02900250 IEM_DS3505
ZHHH,2008-06-29 03:00,ZHHH 290300Z AUTO 16004KT 7SM 31/22 A2968 RMK SLP048 T03080221 57005 IEM_DS3505
ZHHH,2008-06-29 04:00,ZHHH 290400Z AUTO 11006KT 3SM 31/26 A2968 RMK T03100260 IEM_DS3505
ZHHH,2008-06-29 05:00,ZHHH 290500Z AUTO 11008KT 3SM 32/26 A2965 RMK T03200260 IEM_DS3505
ZHHH,2008-06-29 06:00,ZHHH 290600Z AUTO 11004KT 9SM 32/22 A2965 RMK SLP034 T03250217 57014 IEM_DS3505
ZHHH,2008-06-29 07:00,ZHHH 290700Z AUTO 11010KT 6SM 33/23 A2962 RMK T03300230 IEM_DS3505
ZHHH,2008-06-29 08:00,ZHHH 290800Z AUTO 11012KT 6SM 32/25 A2962 RMK T03200250 IEM_DS3505
ZHHH,2008-06-29 09:00,ZHHH 290900Z AUTO 11006KT 9SM 33/21 A2959 RMK SLP018 T03280210 57016 IEM_DS3505
ZHHH,2008-06-29 10:00,ZHHH 291000Z AUTO 12010KT 6SM 31/25 A2959 RMK T03100250 IEM_DS3505
ZHHH,2008-06-29 11:00,ZHHH 291100Z AUTO 12010KT 6SM 30/25 A2962 RMK T03000250 IEM_DS3505
ZHHH,2008-06-29 12:00,ZHHH 291200Z AUTO 09004KT 9SM 30/22 A2962 RMK SLP030 T03010225 52012 IEM_DS3505
ZHHH,2008-06-29 13:00,ZHHH 291300Z AUTO 12008KT 6SM 28/25 A2965 RMK T02800250 IEM_DS3505
ZHHH,2008-06-29 14:00,ZHHH 291400Z AUTO 12010KT 6SM 28/25 A2965 RMK T02800250 IEM_DS3505
ZHHH,2008-06-29 15:00,ZHHH 291500Z AUTO 11006KT 9SM 28/22 A2965 RMK SLP036 T02830223 52006 IEM_DS3505
ZHHH,2008-06-29 16:00,ZHHH 291600Z AUTO 12012KT 6SM 26/24 A2965 RMK T02600240 IEM_DS3505
ZHHH,2008-06-29 17:00,ZHHH 291700Z AUTO 12008KT 6SM 26/25 A2962 RMK T02600250 IEM_DS3505
ZHHH,2008-06-29 18:00,ZHHH 291800Z AUTO 11004KT 11SM 27/23 A2962 RMK SLP028 T02690227 57008 IEM_DS3505
ZHHH,2008-06-29 19:00,ZHHH 291900Z AUTO 13006KT 4SM 26/25 A2962 RMK T02600250 IEM_DS3505
ZHHH,2008-06-29 20:00,ZHHH 292000Z AUTO 13006KT 4SM 26/25 A2965 RMK T02600250 IEM_DS3505
ZHHH,2008-06-29 21:00,ZHHH 292100Z AUTO 11002KT 9SM 27/24 A2965 RMK SLP035 T02680237 52007 IEM_DS3505
ZHHH,2008-06-29 22:00,ZHHH 292200Z AUTO 10004KT 3SM 26/25 A2965 RMK T02600250 IEM_DS3505
ZHHH,2008-06-29 23:00,ZHHH 292300Z AUTO 10008KT 3SM 26/25 A2965 RMK T02600250 IEM_DS3505
ZHHH,2008-06-30 00:00,ZHHH 300000Z AUTO 11006KT 12SM 29/24 A2965 RMK SLP043 T02910235 52008 IEM_DS3505
ZHHH,2008-06-30 01:00,ZHHH 300100Z AUTO 12006KT 4SM 28/26 A2968 RMK T02800260 IEM_DS3505
ZHHH,2008-06-30 02:00,ZHHH 300200Z AUTO 13006KT 5SM 30/26 A2968 RMK T03000260 IEM_DS3505
ZHHH,2008-06-30 03:00,ZHHH 300300Z AUTO 14004KT 12SM 31/23 A2965 RMK SLP042 T03140230 57001 IEM_DS3505
ZHHH,2008-06-30 04:00,ZHHH 300400Z AUTO 16006KT 7SM 31/26 A2965 RMK T03100260 IEM_DS3505
ZHHH,2008-06-30 05:00,ZHHH 300500Z AUTO 20008KT 7SM 32/26 A2965 RMK T03200260 IEM_DS3505
ZHHH,2008-06-30 06:00,ZHHH 300600Z AUTO 18004KT 12SM 33/23 A2962 RMK SLP028 T03300228 57014 IEM_DS3505
ZHHH,2008-06-30 07:00,ZHHH 300700Z AUTO 20006KT 7SM 34/26 A2962 RMK T03400260 IEM_DS3505
ZHHH,2008-06-30 08:00,ZHHH 300800Z AUTO 20006KT 7SM 34/26 A2959 RMK T03400260 IEM_DS3505
ZHHH,2008-06-30 09:00,ZHHH 300900Z AUTO 20004KT 11SM 34/22 A2959 RMK SLP021 T03370222 57007 IEM_DS3505
ZHHH,2008-06-30 10:00,ZHHH 301000Z AUTO 22008KT 7SM 33/26 A2959 RMK T03300260 IEM_DS3505
ZHHH,2008-06-30 11:00,ZHHH 301100Z AUTO 24006KT 6SM 32/25 A2962 RMK T03200250 IEM_DS3505
ZHHH,2008-06-30 12:00,ZHHH 301200Z AUTO 18002KT 11SM 32/22 A2965 RMK SLP033 T03160223 52012 IEM_DS3505
ZHHH,2008-06-30 13:00,ZHHH 301300Z AUTO 6SM 30/26 A2965 RMK T03000260 IEM_DS3505
ZHHH,2008-06-30 14:00,ZHHH 301400Z AUTO 12008KT 6SM 29/27 A2968 RMK T02900270 IEM_DS3505
ZHHH,2008-06-30 15:00,ZHHH 301500Z AUTO 14002KT 11SM 30/24 A2968 RMK SLP048 T03010243 52015 IEM_DS3505
ZHHH,2008-06-30 16:00,ZHHH 301600Z AUTO 13006KT 4SM 28/27 A2968 RMK T02800270 IEM_DS3505
ZHHH,2008-06-30 17:00,ZHHH 301700Z AUTO 13006KT 4SM 27/27 A2965 RMK T02700270 IEM_DS3505
ZHHH,2008-06-30 18:00,ZHHH 301800Z AUTO 09002KT 9SM 29/25 A2965 RMK SLP032 T02900254 57016 IEM_DS3505
ZHHH,2008-06-30 19:00,ZHHH 301900Z AUTO 14004KT 4SM 28/27 A2965 RMK T02800270 IEM_DS3505
ZHHH,2008-06-30 20:00,ZHHH 302000Z AUTO 14002KT 3SM 28/27 A2965 RMK T02800270 IEM_DS3505
ZHHH,2008-06-30 21:00,ZHHH 302100Z AUTO 16002KT 11SM 28/23 A2965 RMK SLP036 T02830232 52004 IEM_DS3505
ZHHH,2008-06-30 22:00,ZHHH 302200Z AUTO 11006KT 3SM 27/27 A2965 RMK T02700270 IEM_DS3505
ZHHH,2008-06-30 23:00,ZHHH 302300Z AUTO 13006KT 3SM 28/27 A2968 RMK T02800270 IEM_DS3505
ZHHH,2008-07-01 00:00,ZHHH 010000Z AUTO 18006KT 11SM 31/22 A2968 RMK SLP047 T03090225 52011 IEM_DS3505
ZHHH,2008-07-01 01:00,ZHHH 010100Z AUTO 22014KT 7SM 32/26 A2968 RMK T03200260 IEM_DS3505
ZHHH,2008-07-01 02:00,ZHHH 010200Z AUTO 22017KT 6SM 32/26 A2968 RMK T03200260 IEM_DS3505
ZHHH,2008-07-01 03:00,ZHHH 010300Z AUTO 20008KT 16SM 32/22 A2968 RMK SLP052 T03250220 52005 IEM_DS3505
ZHHH,2008-07-01 04:00,ZHHH 010400Z AUTO 23016KT 6SM 33/26 A2968 RMK T03300260 IEM_DS3505
ZHHH,2008-07-01 05:00,ZHHH 010500Z AUTO 22017KT 6SM 34/26 A2965 RMK T03400260 IEM_DS3505
ZHHH,2008-07-01 06:00,ZHHH 010600Z AUTO 22006KT 16SM 34/22 A2965 RMK SLP034 T03440218 57018 IEM_DS3505
ZHHH,2008-07-01 07:00,ZHHH 010700Z AUTO 22019KT 6SM 35/26 A2962 RMK T03500260 IEM_DS3505
ZHHH,2008-07-01 08:00,ZHHH 010800Z AUTO 22017G27KT 7SM 34/25 A2959 RMK T03400250 IEM_DS3505
ZHHH,2008-07-01 09:00,ZHHH 010900Z AUTO 22008KT 16SM 34/22 A2959 RMK SLP013 T03360224 57021 IEM_DS3505
ZHHH,2008-07-01 10:00,ZHHH 011000Z AUTO 23010KT 7SM 33/26 A2959 RMK T03300260 IEM_DS3505
ZHHH,2008-07-01 11:00,ZHHH 011100Z AUTO 21010KT 7SM 32/26 A2959 RMK T03200260 IEM_DS3505
ZHHH,2008-07-01 12:00,ZHHH 011200Z AUTO 22002KT 16SM 32/24 A2962 RMK SLP025 T03180236 52012 IEM_DS3505
ZHHH,2008-07-01 13:00,ZHHH 011300Z AUTO 17004KT 6SM 30/27 A2962 RMK T03000270 IEM_DS3505
ZHHH,2008-07-01 14:00,ZHHH 011400Z AUTO 21010KT 6SM 30/26 A2962 RMK T03000260 IEM_DS3505
ZHHH,2008-07-01 15:00,ZHHH 011500Z AUTO 20006KT 16SM 31/23 A2962 RMK SLP032 T03090228 52007 IEM_DS3505
ZHHH,2008-07-01 16:00,ZHHH 011600Z AUTO 21010KT 7SM 30/26 A2962 RMK T03000260 IEM_DS3505
ZHHH,2008-07-01 17:00,ZHHH 011700Z AUTO 20014KT 7SM 30/25 A2959 RMK T03000250 IEM_DS3505
ZHHH,2008-07-01 18:00,ZHHH 011800Z AUTO 22004KT 16SM 30/22 A2956 RMK SLP014 T03030225 57018 IEM_DS3505
ZHHH,2008-07-01 19:00,ZHHH 011900Z AUTO 25008KT 6SM 30/26 A2956 RMK T03000260 IEM_DS3505
ZHHH,2008-07-01 20:00,ZHHH 012000Z AUTO 33006KT 7SM 27/26 A2959 RMK T02700260 IEM_DS3505
ZHHH,2008-07-01 21:00,ZHHH 012100Z AUTO 36004KT 16SM 28/24 A2959 RMK SLP022 T02830245 52008 IEM_DS3505
ZHHH,2008-07-01 22:00,ZHHH 012200Z AUTO 00000KT 7SM 25/25 A2962 RMK T02500250 IEM_DS3505
ZHHH,2008-07-01 23:00,ZHHH 012300Z AUTO 08004KT 7SM 24/24 A2962 RMK T02400240 IEM_DS3505
ZHHH,2008-07-02 00:00,ZHHH 020000Z AUTO 02004KT 12SM 27/24 A2965 RMK 60000 70000 SLP037 T02690244 52015 IEM_DS3505
ZHHH,2008-07-02 01:00,ZHHH 020100Z AUTO 09006KT 1 1/2SM 24/24 A2965 RMK T02400240 IEM_DS3505
ZHHH,2008-07-02 02:00,ZHHH 020200Z AUTO 12006KT 2 1/2SM 25/25 A2965 RMK T02500250 IEM_DS3505
ZHHH,2008-07-02 03:00,ZHHH 020300Z AUTO 02002KT 9SM 27/25 A2968 RMK SLP050 T02720250 52013 IEM_DS3505
ZHHH,2008-07-02 04:00,ZHHH 020400Z AUTO 12006KT 2 1/2SM 25/25 A2968 RMK T02500250 IEM_DS3505
ZHHH,2008-07-02 05:00,ZHHH 020500Z AUTO 12006KT 1SM 25/25 A2968 RMK T02500250 IEM_DS3505
ZHHH,2008-07-02 06:00,ZHHH 020600Z AUTO 11002KT 9SM 27/25 A2968 RMK 60031 SLP045 T02680252 57005 IEM_DS3505
ZHHH,2008-07-02 07:00,ZHHH 020700Z AUTO 11006KT 1 1/2SM 26/26 A2965 RMK T02600260 IEM_DS3505
ZHHH,2008-07-02 08:00,ZHHH 020800Z AUTO 12008KT 1 1/4SM 26/26 A2962 RMK T02600260 IEM_DS3505
ZHHH,2008-07-02 09:00,ZHHH 020900Z AUTO 09002KT 9SM 28/25 A2962 RMK SLP026 T02800254 57019 IEM_DS3505
ZHHH,2008-07-02 10:00,ZHHH 021000Z AUTO 13006KT 2SM 27/27 A2959 RMK T02700270 IEM_DS3505
ZHHH,2008-07-02 11:00,ZHHH 021100Z AUTO 12008KT 1 1/2SM 27/27 A2962 RMK T02700270 IEM_DS3505
ZHHH,2008-07-02 12:00,ZHHH 021200Z AUTO 09002KT 9SM 28/25 A2965 RMK 60002 SLP034 T02760248 52007 IEM_DS3505
ZHHH,2008-07-02 13:00,ZHHH 021300Z AUTO 13008KT 2SM 26/26 A2965 RMK T02600260 IEM_DS3505
ZHHH,2008-07-02 14:00,ZHHH 021400Z AUTO 13008KT 2SM 26/26 A2965 RMK T02600260 IEM_DS3505
ZHHH,2008-07-02 15:00,ZHHH 021500Z AUTO 11002KT 9SM 28/24 A2965 RMK SLP043 T02780240 52009 IEM_DS3505
ZHHH,2008-07-02 16:00,ZHHH 021600Z AUTO 13006KT 1 1/2SM 26/26 A2965 RMK T02600260 IEM_DS3505
ZHHH,2008-07-02 17:00,ZHHH 021700Z AUTO 11006KT 1 1/2SM 26/26 A2965 RMK T02600260 IEM_DS3505
ZHHH,2008-07-02 18:00,ZHHH 021800Z AUTO 14002KT 12SM 28/24 A2965 RMK SLP034 T02770243 57009 IEM_DS3505
ZHHH,2008-07-02 19:00,ZHHH 021900Z AUTO 13006KT 2SM 26/26 A2962 RMK T02600260 IEM_DS3505
ZHHH,2008-07-02 20:00,ZHHH 022000Z AUTO 13004KT 2SM 26/26 A2965 RMK T02600260 IEM_DS3505
ZHHH,2008-07-02 21:00,ZHHH 022100Z AUTO 18002KT 12SM 28/24 A2965 RMK 70032 SLP037 T02780238 52003 IEM_DS3505
ZHHH,2008-07-02 22:00,ZHHH 022200Z AUTO 15004KT 3SM 27/26 A2965 RMK T02700260 IEM_DS3505
ZHHH,2008-07-02 23:00,ZHHH 022300Z AUTO 14004KT 6SM 28/26 A2965 RMK T02800260 IEM_DS3505
ZHHH,2008-07-03 00:00,ZHHH 030000Z AUTO 19010KT 6SM 29/26 A2968 RMK T02900260 IEM_DS3505
ZHHH,2008-07-03 01:00,ZHHH 030100Z AUTO 21014KT 6SM 32/27 A2968 RMK T03200270 IEM_DS3505
ZHHH,2008-07-03 02:00,ZHHH 030200Z AUTO 22016KT 6SM 33/26 A2968 RMK T03300260 IEM_DS3505
ZHHH,2008-07-03 03:00,ZHHH 030300Z AUTO 22006KT 16SM 34/23 A2968 RMK SLP047 T03360227 54000 IEM_DS3505
ZHHH,2008-07-03 04:00,ZHHH 030400Z AUTO 22016KT 6SM 34/26 A2968 RMK T03400260 IEM_DS3505
ZHHH,2008-07-03 05:00,ZHHH 030500Z AUTO 22014KT 6SM 34/26 A2965 RMK T03400260 IEM_DS3505
ZHHH,2008-07-03 06:00,ZHHH 030600Z AUTO 20008KT 16SM 35/22 A2965 RMK SLP037 T03470217 57010 IEM_DS3505
ZHHH,2008-07-03 07:00,ZHHH 030700Z AUTO 22017KT 7SM 35/26 A2962 RMK T03500260 IEM_DS3505
ZHHH,2008-07-03 08:00,ZHHH 030800Z AUTO 22014KT 7SM 34/26 A2962 RMK T03400260 IEM_DS3505
ZHHH,2008-07-03 09:00,ZHHH 030900Z AUTO 25006KT 12SM 34/23 A2962 RMK SLP026 T03450229 57011 IEM_DS3505
ZHHH,2008-07-03 10:00,ZHHH 031000Z AUTO 22010KT 6SM 33/26 A2962 RMK T03300260 IEM_DS3505
ZHHH,2008-07-03 11:00,ZHHH 031100Z AUTO 21008KT 6SM 32/28 A2962 RMK T03200280 IEM_DS3505
ZHHH,2008-07-03 12:00,ZHHH 031200Z AUTO 22002KT 12SM 32/24 A2962 RMK SLP030 T03240236 52004 IEM_DS3505
ZHHH,2008-07-03 13:00,ZHHH 031300Z AUTO 22008KT 6SM 31/27 A2965 RMK T03100270 IEM_DS3505
ZHHH,2008-07-03 14:00,ZHHH 031400Z AUTO 20006KT 6SM 30/27 A2965 RMK T03000270 IEM_DS3505
ZHHH,2008-07-03 15:00,ZHHH 031500Z AUTO 18004KT 11SM 31/24 A2965 RMK SLP042 T03120236 52012 IEM_DS3505
ZHHH,2008-07-03 16:00,ZHHH 031600Z AUTO 19008KT 6SM 30/26 A2965 RMK T03000260 IEM_DS3505
ZHHH,2008-07-03 17:00,ZHHH 031700Z AUTO 18004KT 6SM 30/26 A2962 RMK T03000260 IEM_DS3505
ZHHH,2008-07-03 18:00,ZHHH 031800Z AUTO 11002KT 11SM 30/23 A2962 RMK SLP028 T03010230 57014 IEM_DS3505
ZHHH,2008-07-03 19:00,ZHHH 031900Z AUTO 18006KT 6SM 29/25 A2962 RMK T02900250 IEM_DS3505
ZHHH,2008-07-03 20:00,ZHHH 032000Z AUTO 18006KT 6SM 29/25 A2962 RMK T02900250 IEM_DS3505
ZHHH,2008-07-03 21:00,ZHHH 032100Z AUTO 16002KT 11SM 30/23 A2962 RMK SLP029 T02950227 52001 IEM_DS3505
ZHHH,2008-07-03 22:00,ZHHH 032200Z AUTO 18008KT 6SM 29/25 A2962 RMK T02900250 IEM_DS3505
ZHHH,2008-07-03 23:00,ZHHH 032300Z AUTO 19010KT 6SM 30/25 A2962 RMK T03000250 IEM_DS3505
ZHHH,2008-07-04 00:00,ZHHH 040000Z AUTO 18004KT 17SM 32/22 A2962 RMK SLP034 T03150222 52005 IEM_DS3505
ZHHH,2008-07-04 01:00,ZHHH 040100Z AUTO 21017KT 6SM 33/26 A2965 RMK T03300260 IEM_DS3505
ZHHH,2008-07-04 02:00,ZHHH 040200Z AUTO 22017KT 6SM 32/26 A2965 RMK T03200260 IEM_DS3505
ZHHH,2008-07-04 03:00,ZHHH 040300Z AUTO 22006G31KT 16SM 34/22 A2962 RMK SLP032 T03380219 57002 IEM_DS3505
ZHHH,2008-07-04 04:00,ZHHH 040400Z AUTO 23019KT 6SM 34/26 A2962 RMK T03400260 IEM_DS3505
ZHHH,2008-07-04 05:00,ZHHH 040500Z AUTO 23016KT 6SM 33/26 A2962 RMK T03300260 IEM_DS3505
ZHHH,2008-07-04 06:00,ZHHH 040600Z AUTO 18002KT 16SM 33/23 A2962 RMK SLP023 T03320232 57009 IEM_DS3505
ZHHH,2008-07-04 07:00,ZHHH 040700Z AUTO 22012KT 7SM 33/26 A2959 RMK T03300260 IEM_DS3505
ZHHH,2008-07-04 08:00,ZHHH 040800Z AUTO 22016KT 7SM 33/27 A2956 RMK T03300270 IEM_DS3505
ZHHH,2008-07-04 09:00,ZHHH 040900Z AUTO 20004KT 16SM 32/23 A2956 RMK SLP007 T03250234 57016 IEM_DS3505
ZHHH,2008-07-04 10:00,ZHHH 041000Z AUTO 20010KT 6SM 32/27 A2956 RMK T03200270 IEM_DS3505
ZHHH,2008-07-04 11:00,ZHHH 041100Z AUTO 20012KT 6SM 31/27 A2956 RMK T03100270 IEM_DS3505
ZHHH,2008-07-04 12:00,ZHHH 041200Z AUTO 16004KT 14SM 32/24 A2956 RMK SLP008 T03170240 52001 IEM_DS3505
ZHHH,2008-07-04 13:00,ZHHH 041300Z AUTO 19010KT 6SM 31/26 A2956 RMK T03100260 IEM_DS3505
ZHHH,2008-07-04 14:00,ZHHH 041400Z AUTO 19010KT 6SM 31/26 A2959 RMK T03100260 IEM_DS3505
ZHHH,2008-07-04 15:00,ZHHH 041500Z AUTO 16002KT 14SM 31/23 A2959 RMK SLP014 T03110230 52006 IEM_DS3505
ZHHH,2008-07-04 16:00,ZHHH 041600Z AUTO 18008KT 6SM 30/25 A2956 RMK T03000250 IEM_DS3505
ZHHH,2008-07-04 17:00,ZHHH 041700Z AUTO 19010KT 6SM 30/25 A2956 RMK T03000250 IEM_DS3505
ZHHH,2008-07-04 18:00,ZHHH 041800Z AUTO 11004KT 14SM 30/22 A2953 RMK SLP998 T03040223 57016 IEM_DS3505
ZHHH,2008-07-04 19:00,ZHHH 041900Z AUTO 18010KT 6SM 30/24 A2950 RMK T03000240 IEM_DS3505
ZHHH,2008-07-04 20:00,ZHHH 042000Z AUTO 19008KT 6SM 29/25 A2950 RMK T02900250 IEM_DS3505
ZHHH,2008-07-04 21:00,ZHHH 042100Z AUTO 18004KT 12SM 30/22 A2953 RMK SLP995 T02960221 57003 IEM_DS3505
ZHHH,2008-07-04 22:00,ZHHH 042200Z AUTO 18008KT 6SM 29/25 A2953 RMK T02900250 IEM_DS3505
ZHHH,2008-07-04 23:00,ZHHH 042300Z AUTO 19010KT 6SM 29/25 A2953 RMK T02900250 IEM_DS3505
ZHHH,2008-07-05 00:00,ZHHH 050000Z AUTO 20004KT 16SM 32/22 A2953 RMK SLP999 T03150219 52004 IEM_DS3505
ZHHH,2008-07-05 01:00,ZHHH 050100Z AUTO 22019G29KT 6SM 33/25 A2953 RMK T03300250 IEM_DS3505
ZHHH,2008-07-05 02:00,ZHHH 050200Z AUTO 23019G29KT 6SM 33/25 A2953 RMK T03300250 IEM_DS3505
ZHHH,2008-07-05 03:00,ZHHH 050300Z AUTO 22006G29KT 16SM 33/22 A2956 RMK SLP005 T03270216 52006 IEM_DS3505
ZHHH,2008-07-05 04:00,ZHHH 050400Z AUTO 23019KT 6SM 34/26 A2956 RMK T03400260 IEM_DS3505
ZHHH,2008-07-05 05:00,ZHHH 050500Z AUTO 24014KT 6SM 33/26 A2953 RMK T03300260 IEM_DS3505
ZHHH,2008-07-05 06:00,ZHHH 050600Z AUTO 22008KT 12SM 34/22 A2953 RMK SLP998 T03360224 57007 IEM_DS3505
ZHHH,2008-07-05 07:00,ZHHH 050700Z AUTO 23014KT 6SM 35/26 A2953 RMK T03500260 IEM_DS3505
ZHHH,2008-07-05 08:00,ZHHH 050800Z AUTO 33012KT 7SM 28/25 A2956 RMK T02800250 IEM_DS3505
ZHHH,2008-07-05 09:00,ZHHH 050900Z AUTO 27010KT 9SM 28/23 A2956 RMK SLP006 T02760234 52008 IEM_DS3505
ZHHH,2008-07-05 10:00,ZHHH 051000Z AUTO 24008KT 2SM 25/25 A2959 RMK T02500250 IEM_DS3505
ZHHH,2008-07-05 11:00,ZHHH 051100Z AUTO 7SM 25/25 A2959 RMK T02500250 IEM_DS3505
ZHHH,2008-07-05 12:00,ZHHH 051200Z AUTO 07002KT 6SM 26/24 A2962 RMK 60150 SLP021 T02570245 52015 IEM_DS3505
ZHHH,2008-07-05 13:00,ZHHH 051300Z AUTO 00000KT 7SM 24/24 A2962 RMK T02400240 IEM_DS3505
ZHHH,2008-07-05 14:00,ZHHH 051400Z AUTO 00000KT 7SM 25/25 A2965 RMK T02500250 IEM_DS3505
ZHHH,2008-07-05 15:00,ZHHH 051500Z AUTO 20002KT 7SM 26/24 A2965 RMK SLP042 T02610243 52021 IEM_DS3505
ZHHH,2008-07-05 16:00,ZHHH 051600Z AUTO 20004KT 3SM 25/25 A2965 RMK T02500250 IEM_DS3505
ZHHH,2008-07-05 17:00,ZHHH 051700Z AUTO 18002KT 2SM 25/25 A2965 RMK T02500250 IEM_DS3505
ZHHH,2008-07-05 18:00,ZHHH 051800Z AUTO 18002KT 9SM 26/24 A2962 RMK 60000 SLP033 T02630243 57009 IEM_DS3505
ZHHH,2008-07-05 19:00,ZHHH 051900Z AUTO 26002KT 2SM 26/26 A2962 RMK T02600260 IEM_DS3505
ZHHH,2008-07-05 20:00,ZHHH 052000Z AUTO 1 1/2SM 25/25 A2962 RMK T02500250 IEM_DS3505
ZHHH,2008-07-05 21:00,ZHHH 052100Z AUTO 04002KT 7SM 25/24 A2962 RMK 70150 SLP032 T02540240 57002 IEM_DS3505
ZHHH,2008-07-05 22:00,ZHHH 052200Z AUTO 00000KT 1 1/2SM 24/24 A2962 RMK T02400240 IEM_DS3505
ZHHH,2008-07-05 23:00,ZHHH 052300Z AUTO 06004KT 1 1/2SM 25/25 A2965 RMK T02500250 IEM_DS3505
ZHHH,2008-07-06 00:00,ZHHH 060000Z AUTO 04004KT 6SM 27/25 A2962 RMK 60000 70150 SLP035 T02660248 52003 IEM_DS3505
ZHHH,2008-07-06 01:00,ZHHH 060100Z AUTO 11006KT 1SM 27/27 A2962 RMK T02700270 IEM_DS3505
ZHHH,2008-07-06 02:00,ZHHH 060200Z AUTO 12006KT 1 1/2SM 28/26 A2965 RMK T02800260 IEM_DS3505
ZHHH,2008-07-06 03:00,ZHHH 060300Z AUTO 11004KT 9SM 30/24 A2965 RMK SLP035 T03040241 52001 IEM_DS3505
ZHHH,2008-07-06 04:00,ZHHH 060400Z AUTO 33006KT 2 1/2SM 29/28 A2965 RMK T02900280 IEM_DS3505
ZHHH,2008-07-06 05:00,ZHHH 060500Z AUTO 29017KT 7SM 24/24 A2971 RMK T02400240 IEM_DS3505
ZHHH,2008-07-06 06:00,ZHHH 060600Z AUTO 27012G23KT 7SM 25/22 A2971 RMK 60000 SLP059 T02490218 52023 IEM_DS3505
ZHHH,2008-07-06 07:00,ZHHH 060700Z AUTO 27010KT 7SM 24/24 A2968 RMK T02400240 IEM_DS3505
ZHHH,2008-07-06 08:00,ZHHH 060800Z AUTO 6SM 25/24 A2968 RMK T02500240 IEM_DS3505
ZHHH,2008-07-06 09:00,ZHHH 060900Z AUTO 16002KT 11SM 26/22 A2965 RMK SLP033 T02620218 57026 IEM_DS3505
ZHHH,2008-07-06 10:00,ZHHH 061000Z AUTO 25004KT 7SM 27/24 A2965 RMK T02700240 IEM_DS3505
ZHHH,2008-07-06 11:00,ZHHH 061100Z AUTO 02002KT 7SM 25/24 A2965 RMK T02500240 IEM_DS3505
ZHHH,2008-07-06 12:00,ZHHH 061200Z AUTO 18002KT 11SM 26/22 A2965 RMK 60000 SLP044 T02600223 52011 IEM_DS3505
ZHHH,2008-07-06 13:00,ZHHH 061300Z AUTO 01002KT 6SM 25/24 A2968 RMK T02500240 IEM_DS3505
ZHHH,2008-07-06 14:00,ZHHH 061400Z AUTO 11002KT 6SM 24/24 A2971 RMK T02400240 IEM_DS3505
ZHHH,2008-07-06 15:00,ZHHH 061500Z AUTO 04002KT 9SM 26/23 A2971 RMK SLP058 T02560227 52014 IEM_DS3505
ZHHH,2008-07-06 16:00,ZHHH 061600Z AUTO 08004KT 6SM 24/24 A2968 RMK T02400240 IEM_DS3505
ZHHH,2008-07-06 17:00,ZHHH 061700Z AUTO 11008KT 6SM 25/25 A2968 RMK T02500250 IEM_DS3505
ZHHH,2008-07-06 18:00,ZHHH 061800Z AUTO 14002KT 9SM 26/23 A2965 RMK SLP046 T02600233 57012 IEM_DS3505
ZHHH,2008-07-06 19:00,ZHHH 061900Z AUTO 11006KT 3SM 25/25 A2968 RMK T02500250 IEM_DS3505
ZHHH,2008-07-06 20:00,ZHHH 062000Z AUTO 12008KT 3SM 25/25 A2968 RMK T02500250 IEM_DS3505
ZHHH,2008-07-06 21:00,ZHHH 062100Z AUTO 04002G35KT 7SM 24/22 A2971 RMK 70006 SLP049 T02380219 52003 IEM_DS3505
ZHHH,2008-07-06 22:00,ZHHH 062200Z AUTO 15004KT 7SM 22/22 A2971 RMK T02200220 IEM_DS3505
ZHHH,2008-07-06 23:00,ZHHH 062300Z AUTO 09006KT 7SM 23/23 A2971 RMK T02300230 IEM_DS3505
ZHHH,2008-07-07 00:00,ZHHH 070000Z AUTO 11002KT 9SM 25/23 A2971 RMK 60020 70020 SLP062 T02460227 52013 IEM_DS3505
ZHHH,2008-07-07 01:00,ZHHH 070100Z AUTO 12006KT 7SM 24/24 A2974 RMK T02400240 IEM_DS3505
ZHHH,2008-07-07 02:00,ZHHH 070200Z AUTO 12006KT 7SM 25/25 A2971 RMK T02500250 IEM_DS3505
ZHHH,2008-07-07 03:00,ZHHH 070300Z AUTO 11004KT 12SM 27/22 A2974 RMK SLP067 T02730225 52005 IEM_DS3505
ZHHH,2008-07-07 04:00,ZHHH 070400Z AUTO 14004KT 7SM 27/25 A2974 RMK T02700250 IEM_DS3505
ZHHH,2008-07-07 05:00,ZHHH 070500Z AUTO 12006KT 7SM 27/25 A2974 RMK T02700250 IEM_DS3505
ZHHH,2008-07-07 06:00,ZHHH 070600Z AUTO 16002KT 9SM 28/23 A2971 RMK 60000 SLP062 T02800232 57005 IEM_DS3505
ZHHH,2008-07-07 07:00,ZHHH 070700Z AUTO 05004KT 7SM 28/26 A2971 RMK T02800260 IEM_DS3505
ZHHH,2008-07-07 08:00,ZHHH 070800Z AUTO 02004KT 4SM 28/26 A2971 RMK T02800260 IEM_DS3505
ZHHH,2008-07-07 09:00,ZHHH 070900Z AUTO 34004KT 9SM 28/24 A2968 RMK SLP050 T02780236 57012 IEM_DS3505
ZHHH,2008-07-07 10:00,ZHHH 071000Z AUTO 04004KT 6SM 27/25 A2968 RMK T02700250 IEM_DS3505
ZHHH,2008-07-07 11:00,ZHHH 071100Z AUTO 04004KT 7SM 26/25 A2971 RMK T02600250 IEM_DS3505
ZHHH,2008-07-07 12:00,ZHHH 071200Z AUTO 02004KT 9SM 27/24 A2971 RMK 60000 SLP058 T02690238 52008 IEM_DS3505
ZHHH,2008-07-07 13:00,ZHHH 071300Z AUTO 04004KT 4SM 26/25 A2971 RMK T02600250 IEM_DS3505
ZHHH,2008-07-07 14:00,ZHHH 071400Z AUTO 03004KT 4SM 25/25 A2974 RMK T02500250 IEM_DS3505
ZHHH,2008-07-07 15:00,ZHHH 071500Z AUTO 02002KT 9SM 26/24 A2974 RMK SLP066 T02620235 52008 IEM_DS3505
ZHHH,2008-07-07 16:00,ZHHH 071600Z AUTO 00000KT 3SM 25/25 A2974 RMK T02500250 IEM_DS3505
ZHHH,2008-07-07 17:00,ZHHH 071700Z AUTO 10004KT 3SM 25/25 A2974 RMK T02500250 IEM_DS3505
ZHHH,2008-07-07 18:00,ZHHH 071800Z AUTO 09004KT 7SM 25/23 A2971 RMK 60003 SLP061 T02520231 57005 IEM_DS3505
ZHHH,2008-07-07 19:00,ZHHH 071900Z AUTO 00000KT 3SM 24/24 A2968 RMK T02400240 IEM_DS3505
ZHHH,2008-07-07 20:00,ZHHH 072000Z AUTO 04004KT 5SM 24/24 A2968 RMK T02400240 IEM_DS3505
ZHHH,2008-07-07 21:00,ZHHH 072100Z AUTO 02004KT 6SM 24/23 A2971 RMK 70024 SLP056 T02440230 57005 IEM_DS3505
ZHHH,2008-07-07 22:00,ZHHH 072200Z AUTO 06006KT 7SM 24/24 A2971 RMK T02400240 IEM_DS3505
ZHHH,2008-07-07 23:00,ZHHH 072300Z AUTO 09006KT 7SM 24/24 A2971 RMK T02400240 IEM_DS3505
ZHHH,2008-07-08 00:00,ZHHH 080000Z AUTO 09002KT 7SM 25/24 A2974 RMK 60020 70021 SLP064 T02500236 52008 IEM_DS3505
ZHHH,2008-07-08 01:00,ZHHH 080100Z AUTO 10008KT 7SM 25/25 A2974 RMK T02500250 IEM_DS3505
ZHHH,2008-07-08 02:00,ZHHH 080200Z AUTO 10008KT 7SM 26/26 A2974 RMK T02600260 IEM_DS3505
ZHHH,2008-07-08 03:00,ZHHH 080300Z AUTO 09004KT 7SM 28/24 A2974 RMK SLP064 T02840240 54000 IEM_DS3505
ZHHH,2008-07-08 04:00,ZHHH 080400Z AUTO 06006KT 7SM 29/26 A2971 RMK T02900260 IEM_DS3505
ZHHH,2008-07-08 05:00,ZHHH 080500Z AUTO 09008KT 7SM 29/26 A2971 RMK T02900260 IEM_DS3505
ZHHH,2008-07-08 06:00,ZHHH 080600Z AUTO 07004KT 11SM 30/24 A2971 RMK SLP054 T02960245 57010 IEM_DS3505
ZHHH,2008-07-08 07:00,ZHHH 080700Z AUTO 05008KT 6SM 30/28 A2968 RMK T03000280 IEM_DS3505
ZHHH,2008-07-08 08:00,ZHHH 080800Z AUTO 08010KT 7SM 30/27 A2968 RMK T03000270 IEM_DS3505
ZHHH,2008-07-08 09:00,ZHHH 080900Z AUTO 07004KT 12SM 30/24 A2965 RMK SLP040 T03040241 57014 IEM_DS3505
ZHHH,2008-07-08 10:00,ZHHH 081000Z AUTO 03006KT 7SM 29/27 A2968 RMK T02900270 IEM_DS3505
ZHHH,2008-07-08 11:00,ZHHH 081100Z AUTO 05010KT 7SM 27/26 A2968 RMK T02700260 IEM_DS3505
ZHHH,2008-07-08 12:00,ZHHH 081200Z AUTO 09004KT 6SM 25/24 A2971 RMK 60016 SLP057 T02490235 52017 IEM_DS3505
ZHHH,2008-07-08 13:00,ZHHH 081300Z AUTO 05006KT 4SM 25/25 A2971 RMK T02500250 IEM_DS3505
ZHHH,2008-07-08 14:00,ZHHH 081400Z AUTO 08012KT 5SM 24/24 A2971 RMK T02400240 IEM_DS3505
ZHHH,2008-07-08 15:00,ZHHH 081500Z AUTO 07004KT 7SM 25/23 A2971 RMK SLP060 T02460234 52003 IEM_DS3505
ZHHH,2008-07-08 16:00,ZHHH 081600Z AUTO 08010KT 7SM 24/24 A2971 RMK T02400240 IEM_DS3505
ZHHH,2008-07-08 17:00,ZHHH 081700Z AUTO 09008KT 7SM 24/24 A2971 RMK T02400240 IEM_DS3505
ZHHH,2008-07-08 18:00,ZHHH 081800Z AUTO 07004KT 11SM 25/23 A2968 RMK 60059 SLP049 T02490233 57011 IEM_DS3505
ZHHH,2008-07-08 19:00,ZHHH 081900Z AUTO 04006KT 7SM 24/24 A2968 RMK T02400240 IEM_DS3505
ZHHH,2008-07-08 20:00,ZHHH 082000Z AUTO 08008KT 6SM 24/24 A2968 RMK T02400240 IEM_DS3505
ZHHH,2008-07-08 21:00,ZHHH 082100Z AUTO 07002KT 11SM 25/23 A2968 RMK 70085 SLP051 T02480234 52002 IEM_DS3505
ZHHH,2008-07-08 22:00,ZHHH 082200Z AUTO 07004KT 7SM 24/24 A2971 RMK T02400240 IEM_DS3505
ZHHH,2008-07-08 23:00,ZHHH 082300Z AUTO 06006KT 7SM 24/24 A2971 RMK T02400240 IEM_DS3505
ZHHH,2008-07-09 00:00,ZHHH 090000Z AUTO 09002KT 12SM 26/24 A2971 RMK 70074 SLP063 T02620235 52012 IEM_DS3505
ZHHH,2008-07-09 01:00,ZHHH 090100Z AUTO 06004KT 7SM 25/25 A2974 RMK T02500250 IEM_DS3505
ZHHH,2008-07-09 02:00,ZHHH 090200Z AUTO 08004KT 7SM 26/26 A2974 RMK T02600260 IEM_DS3505
ZHHH,2008-07-09 03:00,ZHHH 090300Z AUTO 32002KT 14SM 28/23 A2974 RMK SLP068 T02790231 52005 IEM_DS3505
ZHHH,2008-07-09 04:00,ZHHH 090400Z AUTO 7SM 26/26 A2974 RMK T02600260 IEM_DS3505
ZHHH,2008-07-09 05:00,ZHHH 090500Z AUTO 32004KT 7SM 29/27 A2971 RMK T02900270 IEM_DS3505
ZHHH,2008-07-09 06:00,ZHHH 090600Z AUTO 20002KT 12SM 30/23 A2971 RMK SLP057 T02980230 57011 IEM_DS3505
ZHHH,2008-07-09 07:00,ZHHH 090700Z AUTO 34006KT 7SM 29/26 A2968 RMK T02900260 IEM_DS3505
ZHHH,2008-07-09 08:00,ZHHH 090800Z AUTO 03006KT 7SM 29/25 A2968 RMK T02900250 IEM_DS3505
ZHHH,2008-07-09 09:00,ZHHH 090900Z AUTO 04006KT 12SM 29/24 A2968 RMK SLP044 T02930235 57013 IEM_DS3505
ZHHH,2008-07-09 10:00,ZHHH 091000Z AUTO 08006KT 7SM 28/26 A2965 RMK T02800260 IEM_DS3505
ZHHH,2008-07-09 11:00,ZHHH 091100Z AUTO 7SM 27/26 A2968 RMK T02700260 IEM_DS3505
ZHHH,2008-07-09 12:00,ZHHH 091200Z AUTO 25002KT 11SM 28/23 A2968 RMK SLP049 T02790231 52005 IEM_DS3505
ZHHH,2008-07-09 13:00,ZHHH 091300Z AUTO 6SM 27/26 A2971 RMK T02700260 IEM_DS3505
ZHHH,2008-07-09 14:00,ZHHH 091400Z AUTO 12006KT 7SM 26/26 A2971 RMK T02600260 IEM_DS3505
ZHHH,2008-07-09 15:00,ZHHH 091500Z AUTO 25002KT 9SM 28/25 A2971 RMK SLP057 T02760248 52008 IEM_DS3505
ZHHH,2008-07-09 16:00,ZHHH 091600Z AUTO 11004KT 7SM 26/26 A2971 RMK T02600260 IEM_DS3505
ZHHH,2008-07-09 17:00,ZHHH 091700Z AUTO 19008KT 1SM 26/26 A2971 RMK T02600260 IEM_DS3505
ZHHH,2008-07-09 18:00,ZHHH 091800Z AUTO 11002KT 7SM 27/25 A2968 RMK SLP053 T02700246 57004 IEM_DS3505
ZHHH,2008-07-09 19:00,ZHHH 091900Z AUTO 15004KT 4SM 26/26 A2968 RMK T02600260 IEM_DS3505
ZHHH,2008-07-09 20:00,ZHHH 092000Z AUTO 15002KT 1 1/2SM 26/26 A2968 RMK T02600260 IEM_DS3505
ZHHH,2008-07-09 21:00,ZHHH 092100Z AUTO 22002KT 7SM 27/24 A2968 RMK SLP051 T02660244 57002 IEM_DS3505
ZHHH,2008-07-09 22:00,ZHHH 092200Z AUTO 1SM 26/26 A2968 RMK T02600260 IEM_DS3505
ZHHH,2008-07-09 23:00,ZHHH 092300Z AUTO 18004KT 1SM 26/26 A2968 RMK T02600260 IEM_DS3505
ZHHH,2008-07-10 00:00,ZHHH 100000Z AUTO 34002KT 5SM 27/25 A2968 RMK 60002 70002 SLP055 T02680250 52004 IEM_DS3505
ZHHH,2008-07-10 01:00,ZHHH 100100Z AUTO 17006KT 1 1/2SM 27/27 A2968 RMK T02700270 IEM_DS3505
ZHHH,2008-07-10 02:00,ZHHH 100200Z AUTO 19006KT 1 1/2SM 27/27 A2968 RMK T02700270 IEM_DS3505
ZHHH,2008-07-10 03:00,ZHHH 100300Z AUTO 18002KT 5SM 27/24 A2968 RMK SLP054 T02670244 57001 IEM_DS3505
ZHHH,2008-07-10 04:00,ZHHH 100400Z AUTO 19006KT 1 1/2SM 27/27 A2968 RMK T02700270 IEM_DS3505
ZHHH,2008-07-10 05:00,ZHHH 100500Z AUTO 22006KT 3SM 26/26 A2965 RMK T02600260 IEM_DS3505
ZHHH,2008-07-10 06:00,ZHHH 100600Z AUTO 20002KT 11SM 29/23 A2965 RMK 60012 SLP036 T02880232 57018 IEM_DS3505
ZHHH,2008-07-10 07:00,ZHHH 100700Z AUTO 00000KT 7SM 28/26 A2962 RMK T02800260 IEM_DS3505
ZHHH,2008-07-10 08:00,ZHHH 100800Z AUTO 7SM 29/26 A2962 RMK T02900260 IEM_DS3505
ZHHH,2008-07-10 09:00,ZHHH 100900Z AUTO 25002KT 11SM 29/23 A2959 RMK SLP024 T02890233 57012 IEM_DS3505
ZHHH,2008-07-10 10:00,ZHHH 101000Z AUTO 4SM 28/26 A2959 RMK T02800260 IEM_DS3505
ZHHH,2008-07-10 11:00,ZHHH 101100Z AUTO 4SM 27/26 A2962 RMK T02700260 IEM_DS3505
ZHHH,2008-07-10 12:00,ZHHH 101200Z AUTO 22002KT 9SM 27/24 A2962 RMK 60000 SLP032 T02740245 52008 IEM_DS3505
ZHHH,2008-07-10 13:00,ZHHH 101300Z AUTO 16004KT 3SM 27/26 A2965 RMK T02700260 IEM_DS3505
ZHHH,2008-07-10 14:00,ZHHH 101400Z AUTO 20006KT 4SM 26/26 A2965 RMK T02600260 IEM_DS3505
ZHHH,2008-07-10 15:00,ZHHH 101500Z AUTO 00000KT 9SM 26/24 A2965 RMK SLP035 T02610238 52003 IEM_DS3505
ZHHH,2008-07-10 16:00,ZHHH 101600Z AUTO 00000KT 3SM 25/25 A2962 RMK T02500250 IEM_DS3505
ZHHH,2008-07-10 17:00,ZHHH 101700Z AUTO 25004KT 3SM 25/25 A2962 RMK T02500250 IEM_DS3505
ZHHH,2008-07-10 18:00,ZHHH 101800Z AUTO 3SM 25/25 A2962 RMK T02500250 IEM_DS3505
ZHHH,2008-07-10 19:00,ZHHH 101900Z AUTO 27002KT 3SM 25/25 A2959 RMK T02500250 IEM_DS3505
ZHHH,2008-07-10 20:00,ZHHH 102000Z AUTO 00000KT 3SM 25/25 A2959 RMK T02500250 IEM_DS3505
ZHHH,2008-07-10 21:00,ZHHH 102100Z AUTO 00000KT 14SM 25/24 A2959 RMK 70014 SLP023 T02540238 57004 IEM_DS3505
ZHHH,2008-07-10 22:00,ZHHH 102200Z AUTO 07004KT 2 1/2SM 25/25 A2959 RMK T02500250 IEM_DS3505
ZHHH,2008-07-10 23:00,ZHHH 102300Z AUTO 11004KT 4SM 26/26 A2962 RMK T02600260 IEM_DS3505
ZHHH,2008-07-11 00:00,ZHHH 110000Z AUTO 00000KT 12SM 27/24 A2962 RMK 70011 SLP027 T02740236 52004 IEM_DS3505
ZHHH,2008-07-11 01:00,ZHHH 110100Z AUTO 00000KT 7SM 27/26 A2962 RMK T02700260 IEM_DS3505
ZHHH,2008-07-11 02:00,ZHHH 110200Z AUTO 7SM 28/26 A2962 RMK T02800260 IEM_DS3505
ZHHH,2008-07-11 03:00,ZHHH 110300Z AUTO 02002KT 9SM 29/25 A2962 RMK SLP027 T02880246 54000 IEM_DS3505
ZHHH,2008-07-11 04:00,ZHHH 110400Z AUTO 28004KT 7SM 30/27 A2962 RMK T03000270 IEM_DS3505
ZHHH,2008-07-11 05:00,ZHHH 110500Z AUTO 27004KT 7SM 30/27 A2959 RMK T03000270 IEM_DS3505
ZHHH,2008-07-11 06:00,ZHHH 110600Z AUTO 34002KT 9SM 32/23 A2956 RMK 60000 SLP008 T03180228 57018 IEM_DS3505
ZHHH,2008-07-11 07:00,ZHHH 110700Z AUTO 30004KT 7SM 32/27 A2953 RMK T03200270 IEM_DS3505
ZHHH,2008-07-11 08:00,ZHHH 110800Z AUTO 28004KT 7SM 32/26 A2953 RMK T03200260 IEM_DS3505
ZHHH,2008-07-11 09:00,ZHHH 110900Z AUTO 25002KT 7SM 32/23 A2950 RMK SLP991 T03230233 57017 IEM_DS3505
ZHHH,2008-07-11 10:00,ZHHH 111000Z AUTO 7SM 32/26 A2950 RMK T03200260 IEM_DS3505
ZHHH,2008-07-11 11:00,ZHHH 111100Z AUTO 00000KT 7SM 30/26 A2953 RMK T03000260 IEM_DS3505
ZHHH,2008-07-11 12:00,ZHHH 111200Z AUTO 04002KT 9SM 30/23 A2956 RMK SLP003 T02990234 52012 IEM_DS3505
ZHHH,2008-07-11 13:00,ZHHH 111300Z AUTO 00000KT 6SM 29/27 A2956 RMK T02900270 IEM_DS3505
ZHHH,2008-07-11 14:00,ZHHH 111400Z AUTO 00000KT 6SM 29/26 A2959 RMK T02900260 IEM_DS3505
ZHHH,2008-07-11 15:00,ZHHH 111500Z AUTO 29004KT 7SM 29/25 A2959 RMK SLP017 T02870247 52014 IEM_DS3505
ZHHH,2008-07-11 16:00,ZHHH 111600Z AUTO 00000KT 6SM 28/27 A2959 RMK T02800270 IEM_DS3505
ZHHH,2008-07-11 17:00,ZHHH 111700Z AUTO 26002KT 3SM 28/27 A2959 RMK T02800270 IEM_DS3505
ZHHH,2008-07-11 18:00,ZHHH 111800Z AUTO 27002KT 9SM 28/25 A2959 RMK SLP014 T02800250 57003 IEM_DS3505
ZHHH,2008-07-11 19:00,ZHHH 111900Z AUTO 1 1/4SM 27/27 A2959 RMK T02700270 IEM_DS3505
ZHHH,2008-07-11 20:00,ZHHH 112000Z AUTO 03002KT 1 1/4SM 27/27 A2959 RMK T02700270 IEM_DS3505
ZHHH,2008-07-11 21:00,ZHHH 112100Z AUTO 07002KT 9SM 27/25 A2959 RMK 70000 SLP014 T02710251 54000 IEM_DS3505
ZHHH,2008-07-11 22:00,ZHHH 112200Z AUTO 04004KT 1SM 26/26 A2959 RMK T02600260 IEM_DS3505
ZHHH,2008-07-11 23:00,ZHHH 112300Z AUTO 08004KT 1 1/2SM 27/27 A2959 RMK T02700270 IEM_DS3505
ZHHH,2008-07-12 00:00,ZHHH 120000Z AUTO 07002KT 11SM 30/25 A2962 RMK 70000 SLP024 T02990254 52010 IEM_DS3505
ZHHH,2008-07-12 01:00,ZHHH 120100Z AUTO 6SM 30/28 A2962 RMK T03000280 IEM_DS3505
ZHHH,2008-07-12 02:00,ZHHH 120200Z AUTO 7SM 31/28 A2962 RMK T03100280 IEM_DS3505
ZHHH,2008-07-12 03:00,ZHHH 120300Z AUTO 34002KT 9SM 31/25 A2962 RMK SLP028 T03120246 52004 IEM_DS3505
ZHHH,2008-07-12 04:00,ZHHH 120400Z AUTO 7SM 32/27 A2962 RMK T03200270 IEM_DS3505
ZHHH,2008-07-12 05:00,ZHHH 120500Z AUTO 7SM 33/28 A2959 RMK T03300280 IEM_DS3505
ZHHH,2008-07-12 06:00,ZHHH 120600Z AUTO 36002KT 9SM 33/23 A2959 RMK 60000 SLP017 T03280234 57011 IEM_DS3505
ZHHH,2008-07-12 07:00,ZHHH 120700Z AUTO 7SM 34/27 A2956 RMK T03400270 IEM_DS3505
ZHHH,2008-07-12 08:00,ZHHH 120800Z AUTO 29004KT 6SM 34/27 A2956 RMK T03400270 IEM_DS3505
ZHHH,2008-07-12 09:00,ZHHH 120900Z AUTO 32004KT 11SM 33/24 A2956 RMK SLP006 T03340243 57011 IEM_DS3505
ZHHH,2008-07-12 10:00,ZHHH 121000Z AUTO 01006KT 7SM 30/27 A2956 RMK T03000270 IEM_DS3505
ZHHH,2008-07-12 11:00,ZHHH 121100Z AUTO 03004KT 6SM 30/27 A2959 RMK T03000270 IEM_DS3505
ZHHH,2008-07-12 12:00,ZHHH 121200Z AUTO 04002KT 11SM 30/25 A2959 RMK SLP019 T02960251 52013 IEM_DS3505
ZHHH,2008-07-12 13:00,ZHHH 121300Z AUTO 01004KT 6SM 29/27 A2962 RMK T02900270 IEM_DS3505
ZHHH,2008-07-12 14:00,ZHHH 121400Z AUTO 6SM 28/27 A2965 RMK T02800270 IEM_DS3505
ZHHH,2008-07-12 15:00,ZHHH 121500Z AUTO 04004KT 12SM 29/25 A2965 RMK SLP037 T02860246 52018 IEM_DS3505
ZHHH,2008-07-12 16:00,ZHHH 121600Z AUTO 34002KT 6SM 27/27 A2965 RMK T02700270 IEM_DS3505
ZHHH,2008-07-12 17:00,ZHHH 121700Z AUTO 04004KT 6SM 27/27 A2962 RMK T02700270 IEM_DS3505
ZHHH,2008-07-12 18:00,ZHHH 121800Z AUTO 34002KT 11SM 28/25 A2962 RMK SLP028 T02790251 57009 IEM_DS3505
ZHHH,2008-07-12 19:00,ZHHH 121900Z AUTO 04002KT 2SM 26/26 A2962 RMK T02600260 IEM_DS3505
ZHHH,2008-07-12 20:00,ZHHH 122000Z AUTO 03004KT 2SM 26/26 A2962 RMK T02600260 IEM_DS3505
ZHHH,2008-07-12 21:00,ZHHH 122100Z AUTO 07002KT 9SM 27/25 A2962 RMK 70000 SLP029 T02730249 52001 IEM_DS3505
ZHHH,2008-07-12 22:00,ZHHH 122200Z AUTO 06006KT 2SM 26/26 A2965 RMK T02600260 IEM_DS3505
ZHHH,2008-07-12 23:00,ZHHH 122300Z AUTO 06008KT 2SM 27/26 A2965 RMK T02700260 IEM_DS3505
ZHHH,2008-07-13 00:00,ZHHH 130000Z AUTO 07006KT 9SM 29/25 A2968 RMK 70000 SLP044 T02890251 52015 IEM_DS3505
ZHHH,2008-07-13 01:00,ZHHH 130100Z AUTO 06006KT 3SM 30/28 A2968 RMK T03000280 IEM_DS3505
ZHHH,2008-07-13 02:00,ZHHH 130200Z AUTO 07006KT 6SM 32/29 A2968 RMK T03200290 IEM_DS3505
ZHHH,2008-07-13 03:00,ZHHH 130300Z AUTO 11004KT 9SM 33/25 A2968 RMK SLP046 T03290254 52002 IEM_DS3505
ZHHH,2008-07-13 04:00,ZHHH 130400Z AUTO 11006KT 7SM 33/29 A2965 RMK T03300290 IEM_DS3505
ZHHH,2008-07-13 05:00,ZHHH 130500Z AUTO 12008KT 7SM 34/29 A2965 RMK T03400290 IEM_DS3505
ZHHH,2008-07-13 06:00,ZHHH 130600Z AUTO 04006KT 11SM 33/25 A2962 RMK SLP025 T03320249 57021 IEM_DS3505
ZHHH,2008-07-13 07:00,ZHHH 130700Z AUTO 09008KT 7SM 34/28 A2959 RMK T03400280 IEM_DS3505
ZHHH,2008-07-13 08:00,ZHHH 130800Z AUTO 09008KT 7SM 35/27 A2959 RMK T03500270 IEM_DS3505
ZHHH,2008-07-13 09:00,ZHHH 130900Z AUTO 11004KT 11SM 34/23 A2959 RMK SLP017 T03440234 57008 IEM_DS3505
ZHHH,2008-07-13 10:00,ZHHH 131000Z AUTO 09008KT 7SM 34/28 A2959 RMK T03400280 IEM_DS3505
ZHHH,2008-07-13 11:00,ZHHH 131100Z AUTO 09006KT 7SM 32/29 A2959 RMK T03200290 IEM_DS3505
ZHHH,2008-07-13 12:00,ZHHH 131200Z AUTO 25002KT 9SM 31/24 A2962 RMK SLP030 T03060240 52013 IEM_DS3505
ZHHH,2008-07-13 13:00,ZHHH 131300Z AUTO 5SM 30/27 A2965 RMK T03000270 IEM_DS3505
ZHHH,2008-07-13 14:00,ZHHH 131400Z AUTO 01004KT 7SM 29/27 A2968 RMK T02900270 IEM_DS3505
ZHHH,2008-07-13 15:00,ZHHH 131500Z AUTO 34004KT 9SM 29/26 A2968 RMK SLP049 T02940256 52019 IEM_DS3505
ZHHH,2008-07-13 16:00,ZHHH 131600Z AUTO 02004KT 6SM 28/27 A2968 RMK T02800270 IEM_DS3505
ZHHH,2008-07-13 17:00,ZHHH 131700Z AUTO 05004KT 6SM 28/27 A2965 RMK T02800270 IEM_DS3505
ZHHH,2008-07-13 18:00,ZHHH 131800Z AUTO 27002KT 7SM 28/26 A2965 RMK SLP039 T02830263 57010 IEM_DS3505
ZHHH,2008-07-13 19:00,ZHHH 131900Z AUTO 05004KT 6SM 27/27 A2965 RMK T02700270 IEM_DS3505
ZHHH,2008-07-13 20:00,ZHHH 132000Z AUTO 09008KT 4SM 27/27 A2965 RMK T02700270 IEM_DS3505
ZHHH,2008-07-13 21:00,ZHHH 132100Z AUTO 04002KT 9SM 28/26 A2965 RMK SLP036 T02810261 57003 IEM_DS3505
ZHHH,2008-07-13 22:00,ZHHH 132200Z AUTO 09006KT 3SM 27/27 A2965 RMK T02700270 IEM_DS3505
ZHHH,2008-07-13 23:00,ZHHH 132300Z AUTO 11008KT 3SM 28/28 A2968 RMK T02800280 IEM_DS3505
ZHHH,2008-07-14 00:00,ZHHH 140000Z AUTO 11004KT 7SM 30/26 A2968 RMK SLP049 T03010258 52013 IEM_DS3505
ZHHH,2008-07-14 01:00,ZHHH 140100Z AUTO 12008KT 2 1/2SM 30/28 A2968 RMK T03000280 IEM_DS3505
ZHHH,2008-07-14 02:00,ZHHH 140200Z AUTO 14006KT 3SM 31/28 A2968 RMK T03100280 IEM_DS3505
ZHHH,2008-07-14 03:00,ZHHH 140300Z AUTO 20004KT 9SM 33/24 A2968 RMK SLP050 T03320241 52001 IEM_DS3505
ZHHH,2008-07-14 04:00,ZHHH 140400Z AUTO 23004KT 4SM 34/29 A2968 RMK T03400290 IEM_DS3505
ZHHH,2008-07-14 05:00,ZHHH 140500Z AUTO 4SM 34/28 A2965 RMK T03400280 IEM_DS3505
ZHHH,2008-07-14 06:00,ZHHH 140600Z AUTO 16004KT 9SM 35/24 A2962 RMK SLP030 T03490239 57020 IEM_DS3505
ZHHH,2008-07-14 07:00,ZHHH 140700Z AUTO 4SM 36/28 A2962 RMK T03600280 IEM_DS3505
ZHHH,2008-07-14 08:00,ZHHH 140800Z AUTO 08006KT 4SM 34/29 A2959 RMK T03400290 IEM_DS3505
ZHHH,2008-07-14 09:00,ZHHH 140900Z AUTO 09006KT 7SM 34/25 A2959 RMK SLP016 T03440249 57014 IEM_DS3505
ZHHH,2008-07-14 10:00,ZHHH 141000Z AUTO 30006KT 3SM 30/28 A2962 RMK T03000280 IEM_DS3505
ZHHH,2008-07-14 11:00,ZHHH 141100Z AUTO 7SM 30/28 A2962 RMK T03000280 IEM_DS3505
ZHHH,2008-07-14 12:00,ZHHH 141200Z AUTO 00000KT 9SM 31/25 A2962 RMK SLP027 T03100251 52011 IEM_DS3505
ZHHH,2008-07-14 13:00,ZHHH 141300Z AUTO 18004KT 3SM 30/28 A2962 RMK T03000280 IEM_DS3505
ZHHH,2008-07-14 14:00,ZHHH 141400Z AUTO 00000KT 2 1/2SM 30/27 A2965 RMK T03000270 IEM_DS3505
ZHHH,2008-07-14 15:00,ZHHH 141500Z AUTO 16002KT 9SM 31/25 A2965 RMK SLP032 T03070251 52005 IEM_DS3505
ZHHH,2008-07-14 16:00,ZHHH 141600Z AUTO 03002KT 2 1/2SM 29/28 A2962 RMK T02900280 IEM_DS3505
ZHHH,2008-07-14 17:00,ZHHH 141700Z AUTO 10004KT 2 1/2SM 29/28 A2962 RMK T02900280 IEM_DS3505
ZHHH,2008-07-14 18:00,ZHHH 141800Z AUTO 00000KT 9SM 30/26 A2962 RMK SLP027 T02990263 57005 IEM_DS3505
ZHHH,2008-07-14 19:00,ZHHH 141900Z AUTO 10006KT 1 1/4SM 28/28 A2962 RMK T02800280 IEM_DS3505
ZHHH,2008-07-14 20:00,ZHHH 142000Z AUTO 11004KT 1 1/4SM 28/28 A2962 RMK T02800280 IEM_DS3505
ZHHH,2008-07-14 21:00,ZHHH 142100Z AUTO 14002KT 9SM 29/26 A2962 RMK SLP027 T02940264 54000 IEM_DS3505
ZHHH,2008-07-14 22:00,ZHHH 142200Z AUTO 13004KT 1SM 28/28 A2962 RMK T02800280 IEM_DS3505
ZHHH,2008-07-14 23:00,ZHHH 142300Z AUTO 15006KT 1SM 29/29 A2962 RMK T02900290 IEM_DS3505
ZHHH,2008-07-15 00:00,ZHHH 150000Z AUTO 18004KT 9SM 31/26 A2962 RMK SLP033 T03110255 52006 IEM_DS3505
ZHHH,2008-07-15 01:00,ZHHH 150100Z AUTO 18006KT 4SM 32/29 A2965 RMK T03200290 IEM_DS3505
ZHHH,2008-07-15 02:00,ZHHH 150200Z AUTO 22004KT 5SM 32/29 A2965 RMK T03200290 IEM_DS3505
ZHHH,2008-07-15 03:00,ZHHH 150300Z AUTO 20004KT 11SM 34/25 A2965 RMK SLP032 T03450253 57001 IEM_DS3505
ZHHH,2008-07-15 04:00,ZHHH 150400Z AUTO 29004KT 7SM 35/29 A2962 RMK T03500290 IEM_DS3505
ZHHH,2008-07-15 05:00,ZHHH 150500Z AUTO 28004KT 7SM 35/29 A2959 RMK T03500290 IEM_DS3505
ZHHH,2008-07-15 06:00,ZHHH 150600Z AUTO 25004KT 11SM 36/24 A2959 RMK SLP015 T03560239 57017 IEM_DS3505
ZHHH,2008-07-15 07:00,ZHHH 150700Z AUTO 29004KT 7SM 33/29 A2959 RMK T03300290 IEM_DS3505
ZHHH,2008-07-15 08:00,ZHHH 150800Z AUTO 11012KT 7SM 30/26 A2959 RMK T03000260 IEM_DS3505
ZHHH,2008-07-15 09:00,ZHHH 150900Z AUTO 11006KT 9SM 30/24 A2959 RMK SLP010 T03010235 57005 IEM_DS3505
ZHHH,2008-07-15 10:00,ZHHH 151000Z AUTO 04010KT 7SM 28/27 A2959 RMK T02800270 IEM_DS3505
ZHHH,2008-07-15 11:00,ZHHH 151100Z AUTO 7SM 28/27 A2959 RMK T02800270 IEM_DS3505
ZHHH,2008-07-15 12:00,ZHHH 151200Z AUTO 02004KT 9SM 29/26 A2962 RMK SLP025 T02910257 52015 IEM_DS3505
ZHHH,2008-07-15 13:00,ZHHH 151300Z AUTO 05006KT 6SM 27/27 A2962 RMK T02700270 IEM_DS3505
ZHHH,2008-07-15 14:00,ZHHH 151400Z AUTO 04006KT 6SM 27/26 A2962 RMK T02700260 IEM_DS3505
ZHHH,2008-07-15 15:00,ZHHH 151500Z AUTO 02004KT 9SM 28/25 A2962 RMK SLP034 T02800248 52009 IEM_DS3505
ZHHH,2008-07-15 16:00,ZHHH 151600Z AUTO 1 1/2SM 27/26 A2962 RMK T02700260 IEM_DS3505
ZHHH,2008-07-15 17:00,ZHHH 151700Z AUTO 03004KT 1 1/2SM 27/26 A2962 RMK T02700260 IEM_DS3505
ZHHH,2008-07-15 18:00,ZHHH 151800Z AUTO 34004KT 9SM 28/25 A2962 RMK SLP027 T02750248 57007 IEM_DS3505
ZHHH,2008-07-15 19:00,ZHHH 151900Z AUTO 02004KT 1SM 26/26 A2962 RMK T02600260 IEM_DS3505
ZHHH,2008-07-15 20:00,ZHHH 152000Z AUTO 03004KT 1 1/4SM 26/25 A2962 RMK T02600250 IEM_DS3505
ZHHH,2008-07-15 21:00,ZHHH 152100Z AUTO 32004KT 9SM 27/23 A2962 RMK SLP026 T02660231 57001 IEM_DS3505
ZHHH,2008-07-15 22:00,ZHHH 152200Z AUTO 05004KT 1 1/4SM 26/25 A2962 RMK T02600250 IEM_DS3505
ZHHH,2008-07-15 23:00,ZHHH 152300Z AUTO 04008KT 1 1/4SM 26/25 A2962 RMK T02600250 IEM_DS3505
ZHHH,2008-07-16 00:00,ZHHH 160000Z AUTO 04006KT 9SM 28/23 A2962 RMK SLP033 T02750233 52007 IEM_DS3505
ZHHH,2008-07-16 01:00,ZHHH 160100Z AUTO 05004KT 1 1/2SM 28/26 A2962 RMK T02800260 IEM_DS3505
ZHHH,2008-07-16 02:00,ZHHH 160200Z AUTO 35004KT 1 1/2SM 28/26 A2965 RMK T02800260 IEM_DS3505
ZHHH,2008-07-16 03:00,ZHHH 160300Z AUTO 34004KT 9SM 30/24 A2965 RMK SLP035 T02980240 52002 IEM_DS3505
ZHHH,2008-07-16 04:00,ZHHH 160400Z AUTO 36004KT 2 1/2SM 30/27 A2962 RMK T03000270 IEM_DS3505
ZHHH,2008-07-16 05:00,ZHHH 160500Z AUTO 2 1/2SM 32/28 A2962 RMK T03200280 IEM_DS3505
ZHHH,2008-07-16 06:00,ZHHH 160600Z AUTO 27004KT 9SM 32/25 A2959 RMK SLP016 T03200251 57019 IEM_DS3505
ZHHH,2008-07-16 07:00,ZHHH 160700Z AUTO 28004KT 1 1/2SM 33/29 A2956 RMK T03300290 IEM_DS3505
ZHHH,2008-07-16 08:00,ZHHH 160800Z AUTO 30004KT 1 1/2SM 33/29 A2953 RMK T03300290 IEM_DS3505
ZHHH,2008-07-16 09:00,ZHHH 160900Z AUTO 29004KT 9SM 32/26 A2953 RMK SLP001 T03240257 57015 IEM_DS3505
ZHHH,2008-07-16 10:00,ZHHH 161000Z AUTO 28004KT 2SM 32/28 A2956 RMK T03200280 IEM_DS3505
ZHHH,2008-07-16 11:00,ZHHH 161100Z AUTO 00000KT 2SM 31/28 A2956 RMK T03100280 IEM_DS3505
ZHHH,2008-07-16 12:00,ZHHH 161200Z AUTO 02002KT 7SM 31/26 A2959 RMK SLP017 T03080259 52016 IEM_DS3505
ZHHH,2008-07-16 13:00,ZHHH 161300Z AUTO 24002KT 1 1/2SM 31/29 A2959 RMK T03100290 IEM_DS3505
ZHHH,2008-07-16 14:00,ZHHH 161400Z AUTO 00000KT 1 1/2SM 30/28 A2959 RMK T03000280 IEM_DS3505
ZHHH,2008-07-16 15:00,ZHHH 161500Z AUTO 27002KT 5SM 30/26 A2959 RMK SLP019 T03040259 52002 IEM_DS3505
ZHHH,2008-07-16 16:00,ZHHH 161600Z AUTO 06006KT 1 1/2SM 29/28 A2959 RMK T02900280 IEM_DS3505
ZHHH,2008-07-16 17:00,ZHHH 161700Z AUTO 07006KT 2 1/2SM 28/26 A2959 RMK T02800260 IEM_DS3505
ZHHH,2008-07-16 18:00,ZHHH 161800Z AUTO 25002KT 6SM 29/26 A2959 RMK SLP018 T02910255 57001 IEM_DS3505
ZHHH,2008-07-16 19:00,ZHHH 161900Z AUTO 10004KT 2 1/2SM 27/26 A2959 RMK T02700260 IEM_DS3505
ZHHH,2008-07-16 20:00,ZHHH 162000Z AUTO 12006KT 1 1/2SM 27/27 A2959 RMK T02700270 IEM_DS3505
ZHHH,2008-07-16 21:00,ZHHH 162100Z AUTO 20002KT 5SM 29/26 A2959 RMK SLP019 T02880262 52001 IEM_DS3505
ZHHH,2008-07-16 22:00,ZHHH 162200Z AUTO 11004KT 1 1/4SM 27/27 A2959 RMK T02700270 IEM_DS3505
ZHHH,2008-07-16 23:00,ZHHH 162300Z AUTO 08006KT 1 1/4SM 27/27 A2959 RMK T02700270 IEM_DS3505
ZHHH,2008-07-17 00:00,ZHHH 170000Z AUTO 09002KT 6SM 30/26 A2959 RMK SLP022 T03040259 52003 IEM_DS3505
ZHHH,2008-07-17 01:00,ZHHH 170100Z AUTO 13006KT 2 1/2SM 30/28 A2962 RMK T03000280 IEM_DS3505
ZHHH,2008-07-17 02:00,ZHHH 170200Z AUTO 12006KT 3SM 31/28 A2959 RMK T03100280 IEM_DS3505
ZHHH,2008-07-17 03:00,ZHHH 170300Z AUTO 16004KT 11SM 34/25 A2962 RMK SLP022 T03360248 54000 IEM_DS3505
ZHHH,2008-07-17 04:00,ZHHH 170400Z AUTO 26004KT 3SM 34/29 A2959 RMK T03400290 IEM_DS3505
ZHHH,2008-07-17 05:00,ZHHH 170500Z AUTO 27004KT 3SM 35/29 A2959 RMK T03500290 IEM_DS3505
ZHHH,2008-07-17 06:00,ZHHH 170600Z AUTO 27006KT 11SM 35/25 A2956 RMK SLP007 T03490251 57015 IEM_DS3505
ZHHH,2008-07-17 07:00,ZHHH 170700Z AUTO 26004KT 4SM 35/28 A2956 RMK T03500280 IEM_DS3505
ZHHH,2008-07-17 08:00,ZHHH 170800Z AUTO 25006KT 4SM 36/29 A2953 RMK T03600290 IEM_DS3505
ZHHH,2008-07-17 09:00,ZHHH 170900Z AUTO 20004KT 11SM 35/25 A2953 RMK SLP996 T03530249 57011 IEM_DS3505
ZHHH,2008-07-17 10:00,ZHHH 171000Z AUTO 3SM 34/29 A2953 RMK T03400290 IEM_DS3505
ZHHH,2008-07-17 11:00,ZHHH 171100Z AUTO 00000KT 3SM 33/29 A2953 RMK T03300290 IEM_DS3505
ZHHH,2008-07-17 12:00,ZHHH 171200Z AUTO 14002KT 11SM 34/25 A2956 RMK SLP006 T03360253 52010 IEM_DS3505
ZHHH,2008-07-17 13:00,ZHHH 171300Z AUTO 13006KT 3SM 32/29 A2956 RMK T03200290 IEM_DS3505
ZHHH,2008-07-17 14:00,ZHHH 171400Z AUTO 13004KT 3SM 31/29 A2959 RMK T03100290 IEM_DS3505
ZHHH,2008-07-17 15:00,ZHHH 171500Z AUTO 25002G12KT 9SM 32/26 A2959 RMK SLP020 T03240260 52014 IEM_DS3505
ZHHH,2008-07-17 16:00,ZHHH 171600Z AUTO 2 1/2SM 31/29 A2959 RMK T03100290 IEM_DS3505
ZHHH,2008-07-17 17:00,ZHHH 171700Z AUTO 24002KT 4SM 31/29 A2959 RMK T03100290 IEM_DS3505
ZHHH,2008-07-17 18:00,ZHHH 171800Z AUTO 29002KT 7SM 31/27 A2956 RMK SLP005 T03100269 57015 IEM_DS3505
ZHHH,2008-07-17 19:00,ZHHH 171900Z AUTO 00000KT 1 1/2SM 30/29 A2956 RMK T03000290 IEM_DS3505
ZHHH,2008-07-17 20:00,ZHHH 172000Z AUTO 22002KT 1 1/2SM 30/29 A2956 RMK T03000290 IEM_DS3505
ZHHH,2008-07-17 21:00,ZHHH 172100Z AUTO 27004KT 6SM 31/26 A2956 RMK SLP009 T03060263 52004 IEM_DS3505
ZHHH,2008-07-17 22:00,ZHHH 172200Z AUTO 32004KT 1SM 29/29 A2956 RMK T02900290 IEM_DS3505
ZHHH,2008-07-17 23:00,ZHHH 172300Z AUTO 31008KT 1SM 30/29 A2959 RMK T03000290 IEM_DS3505
ZHHH,2008-07-18 00:00,ZHHH 180000Z AUTO 32002KT 9SM 29/25 A2962 RMK SLP026 T02930253 52017 IEM_DS3505
ZHHH,2008-07-18 01:00,ZHHH 180100Z AUTO 36004KT 6SM 29/27 A2959 RMK T02900270 IEM_DS3505
ZHHH,2008-07-18 02:00,ZHHH 180200Z AUTO 36004KT 6SM 30/28 A2962 RMK T03000280 IEM_DS3505
ZHHH,2008-07-18 03:00,ZHHH 180300Z AUTO 32004KT 7SM 27/26 A2965 RMK SLP032 T02730255 52006 IEM_DS3505
ZHHH,2008-07-18 04:00,ZHHH 180400Z AUTO 35006KT 7SM 27/26 A2965 RMK T02700260 IEM_DS3505
ZHHH,2008-07-18 05:00,ZHHH 180500Z AUTO 34004KT 7SM 27/26 A2965 RMK T02700260 IEM_DS3505
ZHHH,2008-07-18 06:00,ZHHH 180600Z AUTO 04004KT 11SM 28/25 A2962 RMK 60059 SLP027 T02820246 57005 IEM_DS3505
ZHHH,2008-07-18 07:00,ZHHH 180700Z AUTO 02008KT 7SM 29/26 A2959 RMK T02900260 IEM_DS3505
ZHHH,2008-07-18 08:00,ZHHH 180800Z AUTO 05006KT 7SM 28/25 A2959 RMK T02800250 IEM_DS3505
ZHHH,2008-07-18 09:00,ZHHH 180900Z AUTO 04004KT 12SM 28/24 A2959 RMK SLP017 T02840240 57010 IEM_DS3505
ZHHH,2008-07-18 10:00,ZHHH 181000Z AUTO 36006KT 6SM 28/25 A2959 RMK T02800250 IEM_DS3505
ZHHH,2008-07-18 11:00,ZHHH 181100Z AUTO 33006KT 7SM 27/26 A2959 RMK T02700260 IEM_DS3505
ZHHH,2008-07-18 12:00,ZHHH 181200Z AUTO 02002KT 11SM 26/23 A2962 RMK SLP031 T02640233 52013 IEM_DS3505
ZHHH,2008-07-18 13:00,ZHHH 181300Z AUTO 03004KT 7SM 26/24 A2965 RMK T02600240 IEM_DS3505
ZHHH,2008-07-18 14:00,ZHHH 181400Z AUTO 04004KT 6SM 25/24 A2965 RMK T02500240 IEM_DS3505
ZHHH,2008-07-18 15:00,ZHHH 181500Z AUTO 02004KT 11SM 26/22 A2965 RMK SLP039 T02590224 52008 IEM_DS3505
ZHHH,2008-07-18 16:00,ZHHH 181600Z AUTO 02004KT 6SM 25/24 A2965 RMK T02500240 IEM_DS3505
ZHHH,2008-07-18 17:00,ZHHH 181700Z AUTO 6SM 25/24 A2965 RMK T02500240 IEM_DS3505
ZHHH,2008-07-18 18:00,ZHHH 181800Z AUTO 32002KT 11SM 25/23 A2965 RMK SLP037 T02530228 57002 IEM_DS3505
ZHHH,2008-07-18 19:00,ZHHH 181900Z AUTO 36004KT 6SM 24/23 A2965 RMK T02400230 IEM_DS3505
ZHHH,2008-07-18 20:00,ZHHH 182000Z AUTO 34004KT 6SM 24/24 A2965 RMK T02400240 IEM_DS3505
ZHHH,2008-07-18 21:00,ZHHH 182100Z AUTO 34004KT 7SM 24/22 A2965 RMK 70057 SLP042 T02450224 52005 IEM_DS3505
ZHHH,2008-07-18 22:00,ZHHH 182200Z AUTO 1SM 23/23 A2965 RMK T02300230 IEM_DS3505
ZHHH,2008-07-18 23:00,ZHHH 182300Z AUTO 36004KT 1 1/4SM 23/23 A2968 RMK T02300230 IEM_DS3505
ZHHH,2008-07-19 00:00,ZHHH 190000Z AUTO 34004KT 11SM 26/21 A2968 RMK 70057 SLP051 T02550210 52009 IEM_DS3505
ZHHH,2008-07-19 01:00,ZHHH 190100Z AUTO 01006KT 4SM 26/24 A2968 RMK T02600240 IEM_DS3505
ZHHH,2008-07-19 02:00,ZHHH 190200Z AUTO 4SM 27/24 A2968 RMK T02700240 IEM_DS3505
ZHHH,2008-07-19 03:00,ZHHH 190300Z AUTO 29004KT 16SM 28/21 A2971 RMK SLP056 T02790212 52005 IEM_DS3505
ZHHH,2008-07-19 04:00,ZHHH 190400Z AUTO 01006KT 4SM 28/24 A2968 RMK T02800240 IEM_DS3505
ZHHH,2008-07-19 05:00,ZHHH 190500Z AUTO 36004KT 4SM 29/24 A2968 RMK T02900240 IEM_DS3505
ZHHH,2008-07-19 06:00,ZHHH 190600Z AUTO 25004KT 11SM 30/22 A2968 RMK SLP050 T02980217 57006 IEM_DS3505
ZHHH,2008-07-19 07:00,ZHHH 190700Z AUTO 01004KT 4SM 29/24 A2968 RMK T02900240 IEM_DS3505
ZHHH,2008-07-19 08:00,ZHHH 190800Z AUTO 05006KT 4SM 30/24 A2965 RMK T03000240 IEM_DS3505
ZHHH,2008-07-19 09:00,ZHHH 190900Z AUTO 34002KT 7SM 30/22 A2965 RMK SLP039 T02970216 57011 IEM_DS3505
ZHHH,2008-07-19 10:00,ZHHH 191000Z AUTO 03004KT 4SM 30/24 A2965 RMK T03000240 IEM_DS3505
ZHHH,2008-07-19 11:00,ZHHH 191100Z AUTO 04004KT 4SM 28/24 A2965 RMK T02800240 IEM_DS3505
ZHHH,2008-07-19 12:00,ZHHH 191200Z AUTO 07002KT 9SM 28/21 A2968 RMK SLP046 T02820212 52007 IEM_DS3505
ZHHH,2008-07-19 13:00,ZHHH 191300Z AUTO 06006KT 4SM 26/24 A2968 RMK T02600240 IEM_DS3505
ZHHH,2008-07-19 14:00,ZHHH 191400Z AUTO 04004KT 4SM 26/23 A2971 RMK T02600230 IEM_DS3505
ZHHH,2008-07-19 15:00,ZHHH 191500Z AUTO 04004KT 7SM 27/21 A2971 RMK SLP060 T02690207 52014 IEM_DS3505
ZHHH,2008-07-19 16:00,ZHHH 191600Z AUTO 04004KT 2 1/2SM 25/23 A2971 RMK T02500230 IEM_DS3505
ZHHH,2008-07-19 17:00,ZHHH 191700Z AUTO 06004KT 2SM 25/23 A2971 RMK T02500230 IEM_DS3505
ZHHH,2008-07-19 18:00,ZHHH 191800Z AUTO 00000KT 7SM 26/21 A2968 RMK SLP054 T02590211 57006 IEM_DS3505
ZHHH,2008-07-19 19:00,ZHHH 191900Z AUTO 04002KT 2SM 25/23 A2968 RMK T02500230 IEM_DS3505
ZHHH,2008-07-19 20:00,ZHHH 192000Z AUTO 02004KT 2SM 24/23 A2971 RMK T02400230 IEM_DS3505
ZHHH,2008-07-19 21:00,ZHHH 192100Z AUTO 09002KT 7SM 25/21 A2971 RMK SLP057 T02530214 52003 IEM_DS3505
ZHHH,2008-07-19 22:00,ZHHH 192200Z AUTO 05004KT 1 1/4SM 24/23 A2971 RMK T02400230 IEM_DS3505
ZHHH,2008-07-19 23:00,ZHHH 192300Z AUTO 07008KT 1 1/2SM 25/24 A2974 RMK T02500240 IEM_DS3505
ZHHH,2008-07-20 00:00,ZHHH 200000Z AUTO 09002KT 9SM 27/21 A2974 RMK SLP070 T02670210 52013 IEM_DS3505
ZHHH,2008-07-20 01:00,ZHHH 200100Z AUTO 07006KT 4SM 28/24 A2974 RMK T02800240 IEM_DS3505
ZHHH,2008-07-20 02:00,ZHHH 200200Z AUTO 09004KT 6SM 29/24 A2974 RMK T02900240 IEM_DS3505
ZHHH,2008-07-20 03:00,ZHHH 200300Z AUTO 04004KT 16SM 30/21 A2974 RMK SLP066 T02980206 57004 IEM_DS3505
ZHHH,2008-07-20 04:00,ZHHH 200400Z AUTO 6SM 29/24 A2971 RMK T02900240 IEM_DS3505
ZHHH,2008-07-20 05:00,ZHHH 200500Z AUTO 14006KT 6SM 31/25 A2971 RMK T03100250 IEM_DS3505
ZHHH,2008-07-20 06:00,ZHHH 200600Z AUTO 09004KT 11SM 32/21 A2968 RMK SLP050 T03200212 57015 IEM_DS3505
ZHHH,2008-07-20 07:00,ZHHH 200700Z AUTO 6SM 32/25 A2968 RMK T03200250 IEM_DS3505
ZHHH,2008-07-20 08:00,ZHHH 200800Z AUTO 00000KT 6SM 32/25 A2965 RMK T03200250 IEM_DS3505
ZHHH,2008-07-20 09:00,ZHHH 200900Z AUTO 02004KT 9SM 31/21 A2965 RMK SLP036 T03130212 57014 IEM_DS3505
ZHHH,2008-07-20 10:00,ZHHH 201000Z AUTO 04004KT 6SM 31/25 A2965 RMK T03100250 IEM_DS3505
ZHHH,2008-07-20 11:00,ZHHH 201100Z AUTO 03006KT 6SM 30/25 A2965 RMK T03000250 IEM_DS3505
ZHHH,2008-07-20 12:00,ZHHH 201200Z AUTO 07002KT 11SM 30/23 A2965 RMK SLP040 T02970227 52003 IEM_DS3505
ZHHH,2008-07-20 13:00,ZHHH 201300Z AUTO 05008KT 6SM 27/25 A2965 RMK T02700250 IEM_DS3505
ZHHH,2008-07-20 14:00,ZHHH 201400Z AUTO 04008KT 4SM 27/25 A2968 RMK T02700250 IEM_DS3505
ZHHH,2008-07-20 15:00,ZHHH 201500Z AUTO 09004KT 11SM 28/23 A2968 RMK SLP049 T02790226 52010 IEM_DS3505
ZHHH,2008-07-20 16:00,ZHHH 201600Z AUTO 07008KT 2 1/2SM 26/24 A2968 RMK T02600240 IEM_DS3505
ZHHH,2008-07-20 17:00,ZHHH 201700Z AUTO 07008KT 2 1/2SM 26/24 A2965 RMK T02600240 IEM_DS3505
ZHHH,2008-07-20 18:00,ZHHH 201800Z AUTO 07006KT 11SM 27/22 A2965 RMK SLP035 T02690219 57014 IEM_DS3505
ZHHH,2008-07-20 19:00,ZHHH 201900Z AUTO 07008KT 2 1/2SM 25/24 A2962 RMK T02500240 IEM_DS3505
ZHHH,2008-07-20 20:00,ZHHH 202000Z AUTO 08008KT 3SM 25/24 A2962 RMK T02500240 IEM_DS3505
ZHHH,2008-07-20 21:00,ZHHH 202100Z AUTO 07006KT 11SM 26/22 A2962 RMK SLP029 T02650221 57006 IEM_DS3505
ZHHH,2008-07-20 22:00,ZHHH 202200Z AUTO 09006KT 3SM 25/24 A2962 RMK T02500240 IEM_DS3505
ZHHH,2008-07-20 23:00,ZHHH 202300Z AUTO 08006KT 3SM 26/24 A2965 RMK T02600240 IEM_DS3505
ZHHH,2008-07-21 00:00,ZHHH 210000Z AUTO 07004KT 9SM 28/23 A2965 RMK SLP039 T02850232 52010 IEM_DS3505
ZHHH,2008-07-21 01:00,ZHHH 210100Z AUTO 11008KT 2 1/2SM 28/25 A2965 RMK T02800250 IEM_DS3505
ZHHH,2008-07-21 02:00,ZHHH 210200Z AUTO 11010KT 2SM 29/26 A2965 RMK T02900260 IEM_DS3505
ZHHH,2008-07-21 03:00,ZHHH 210300Z AUTO 11004KT 7SM 32/24 A2962 RMK SLP032 T03200241 57007 IEM_DS3505
ZHHH,2008-07-21 04:00,ZHHH 210400Z AUTO 11006KT 1 1/2SM 32/28 A2962 RMK T03200280 IEM_DS3505
ZHHH,2008-07-21 05:00,ZHHH 210500Z AUTO 12006KT 1 1/2SM 32/28 A2959 RMK T03200280 IEM_DS3505
ZHHH,2008-07-21 06:00,ZHHH 210600Z AUTO 16004KT 9SM 32/22 A2959 RMK SLP013 T03210219 57019 IEM_DS3505
ZHHH,2008-07-21 07:00,ZHHH 210700Z AUTO 36004KT 2SM 31/27 A2956 RMK T03100270 IEM_DS3505
ZHHH,2008-07-21 08:00,ZHHH 210800Z AUTO 05004KT 2SM 31/28 A2956 RMK T03100280 IEM_DS3505
ZHHH,2008-07-21 09:00,ZHHH 210900Z AUTO 09004KT 9SM 28/24 A2956 RMK SLP004 T02810245 57009 IEM_DS3505
ZHHH,2008-07-21 10:00,ZHHH 211000Z AUTO 10006KT 7SM 28/26 A2956 RMK T02800260 IEM_DS3505
ZHHH,2008-07-21 11:00,ZHHH 211100Z AUTO 09004KT 3SM 28/27 A2956 RMK T02800270 IEM_DS3505
ZHHH,2008-07-21 12:00,ZHHH 211200Z AUTO 04002KT 11SM 29/26 A2959 RMK 60024 SLP015 T02860256 52011 IEM_DS3505
ZHHH,2008-07-21 13:00,ZHHH 211300Z AUTO 10010KT 2 1/2SM 27/27 A2959 RMK T02700270 IEM_DS3505
ZHHH,2008-07-21 14:00,ZHHH 211400Z AUTO 09008KT 2SM 27/26 A2959 RMK T02700260 IEM_DS3505
ZHHH,2008-07-21 15:00,ZHHH 211500Z AUTO 09002KT 11SM 28/24 A2959 RMK SLP018 T02840244 52003 IEM_DS3505
ZHHH,2008-07-21 16:00,ZHHH 211600Z AUTO 09008KT 1 1/2SM 27/26 A2959 RMK T02700260 IEM_DS3505
ZHHH,2008-07-21 17:00,ZHHH 211700Z AUTO 09010KT 2SM 26/26 A2956 RMK T02600260 IEM_DS3505
ZHHH,2008-07-21 18:00,ZHHH 211800Z AUTO 11004KT 9SM 28/25 RMK SLP000 T02750249 57018 IEM_DS3505
ZHHH,2008-07-21 19:00,ZHHH 211900Z AUTO 10008KT 3SM 26/26 A2953 RMK T02600260 IEM_DS3505
ZHHH,2008-07-21 20:00,ZHHH 212000Z AUTO 10008KT 3SM 26/26 A2953 RMK T02600260 IEM_DS3505
ZHHH,2008-07-21 21:00,ZHHH 212100Z AUTO 09004KT 11SM 28/25 A2953 RMK 70022 SLP995 T02780248 57005 IEM_DS3505
ZHHH,2008-07-21 22:00,ZHHH 212200Z AUTO 11008KT 2SM 27/27 A2953 RMK T02700270 IEM_DS3505
ZHHH,2008-07-21 23:00,ZHHH 212300Z AUTO 11008KT 2SM 27/27 A2953 RMK T02700270 IEM_DS3505
ZHHH,2008-07-22 00:00,ZHHH 220000Z AUTO 14004KT 11SM 30/24 A2953 RMK 70022 SLP995 T03040241 54000 IEM_DS3505
ZHHH,2008-07-22 01:00,ZHHH 220100Z AUTO 13006KT 2 1/2SM 29/28 A2950 RMK T02900280 IEM_DS3505
ZHHH,2008-07-22 02:00,ZHHH 220200Z AUTO 13006KT 3SM 30/28 A2950 RMK T03000280 IEM_DS3505
ZHHH,2008-07-22 03:00,ZHHH 220300Z AUTO 14004KT 11SM 33/24 A2950 RMK SLP989 T03310237 57006 IEM_DS3505
ZHHH,2008-07-22 04:00,ZHHH 220400Z AUTO 17008KT 7SM 32/27 A2950 RMK T03200270 IEM_DS3505
ZHHH,2008-07-22 05:00,ZHHH 220500Z AUTO 19008KT 7SM 33/27 A2947 RMK T03300270 IEM_DS3505
ZHHH,2008-07-22 06:00,ZHHH 220600Z AUTO 18004KT 12SM 34/24 A2947 RMK SLP978 T03390236 57011 IEM_DS3505
ZHHH,2008-07-22 07:00,ZHHH 220700Z AUTO 21010KT 7SM 33/27 A2947 RMK T03300270 IEM_DS3505
ZHHH,2008-07-22 08:00,ZHHH 220800Z AUTO 24008KT 7SM 34/27 A2944 RMK T03400270 IEM_DS3505
ZHHH,2008-07-22 09:00,ZHHH 220900Z AUTO 25002KT 11SM 33/24 A2944 RMK SLP968 T03320238 57010 IEM_DS3505
ZHHH,2008-07-22 10:00,ZHHH 221000Z AUTO 03004KT 7SM 29/27 A2947 RMK T02900270 IEM_DS3505
ZHHH,2008-07-22 11:00,ZHHH 221100Z AUTO 08008KT 7SM 27/27 A2947 RMK T02700270 IEM_DS3505
ZHHH,2008-07-22 12:00,ZHHH 221200Z AUTO 09002KT 9SM 28/26 A2950 RMK 60016 SLP983 T02830259 52015 IEM_DS3505
ZHHH,2008-07-22 13:00,ZHHH 221300Z AUTO 09010KT 7SM 26/26 A2950 RMK T02600260 IEM_DS3505
ZHHH,2008-07-22 14:00,ZHHH 221400Z AUTO 11012KT 7SM 26/26 A2950 RMK T02600260 IEM_DS3505
ZHHH,2008-07-22 15:00,ZHHH 221500Z AUTO 09002KT 7SM 28/25 A2950 RMK SLP990 T02790253 52007 IEM_DS3505
ZHHH,2008-07-22 16:00,ZHHH 221600Z AUTO 09008KT 4SM 26/26 A2950 RMK T02600260 IEM_DS3505
ZHHH,2008-07-22 17:00,ZHHH 221700Z AUTO 11010KT 4SM 27/27 A2947 RMK T02700270 IEM_DS3505
ZHHH,2008-07-22 18:00,ZHHH 221800Z AUTO 29004KT 9SM 28/25 A2947 RMK 60008 SLP981 T02810253 57009 IEM_DS3505
ZHHH,2008-07-22 19:00,ZHHH 221900Z AUTO 00000KT 4SM 27/27 A2947 RMK T02700270 IEM_DS3505
ZHHH,2008-07-22 20:00,ZHHH 222000Z AUTO 2 1/2SM 26/26 A2950 RMK T02600260 IEM_DS3505
ZHHH,2008-07-22 21:00,ZHHH 222100Z AUTO 18002KT 9SM 27/25 A2947 RMK 70057 SLP982 T02660246 52001 IEM_DS3505
ZHHH,2008-07-22 22:00,ZHHH 222200Z AUTO 11006KT 4SM 26/26 A2947 RMK T02600260 IEM_DS3505
ZHHH,2008-07-22 23:00,ZHHH 222300Z AUTO 4SM 26/26 A2950 RMK T02600260 IEM_DS3505
ZHHH,2008-07-23 00:00,ZHHH 230000Z AUTO 20006KT 11SM 28/25 A2953 RMK 60035 70057 SLP997 T02840250 52015 IEM_DS3505
ZHHH,2008-07-23 01:00,ZHHH 230100Z AUTO 24008KT 7SM 28/27 A2953 RMK T02800270 IEM_DS3505
ZHHH,2008-07-23 02:00,ZHHH 230200Z AUTO 24010KT 7SM 28/26 A2956 RMK T02800260 IEM_DS3505
ZHHH,2008-07-23 03:00,ZHHH 230300Z AUTO 27008KT 11SM 28/23 A2956 RMK SLP014 T02750229 52017 IEM_DS3505
ZHHH,2008-07-23 04:00,ZHHH 230400Z AUTO 26006KT 7SM 26/25 A2959 RMK T02600250 IEM_DS3505
ZHHH,2008-07-23 05:00,ZHHH 230500Z AUTO 28006KT 7SM 27/25 A2956 RMK T02700250 IEM_DS3505
ZHHH,2008-07-23 06:00,ZHHH 230600Z AUTO 27006KT 14SM 27/23 A2956 RMK SLP013 T02680226 57002 IEM_DS3505
ZHHH,2008-07-23 07:00,ZHHH 230700Z AUTO 33008KT 7SM 27/25 A2956 RMK T02700250 IEM_DS3505
ZHHH,2008-07-23 08:00,ZHHH 230800Z AUTO 33006KT 7SM 26/25 A2959 RMK T02600250 IEM_DS3505
ZHHH,2008-07-23 09:00,ZHHH 230900Z AUTO 27002KT 11SM 27/23 A2959 RMK SLP015 T02670234 52002 IEM_DS3505
ZHHH,2008-07-23 10:00,ZHHH 231000Z AUTO 32006KT 7SM 26/25 A2959 RMK T02600250 IEM_DS3505
ZHHH,2008-07-23 11:00,ZHHH 231100Z AUTO 02004KT 7SM 25/25 A2959 RMK T02500250 IEM_DS3505
ZHHH,2008-07-23 12:00,ZHHH 231200Z AUTO 27002KT 12SM 26/23 A2962 RMK SLP032 T02610232 52017 IEM_DS3505
ZHHH,2008-07-23 13:00,ZHHH 231300Z AUTO 7SM 25/25 A2962 RMK T02500250 IEM_DS3505
ZHHH,2008-07-23 14:00,ZHHH 231400Z AUTO 02002KT 7SM 25/25 A2965 RMK T02500250 IEM_DS3505
ZHHH,2008-07-23 15:00,ZHHH 231500Z AUTO 32002KT 12SM 26/23 A2965 RMK SLP039 T02590232 52007 IEM_DS3505
ZHHH,2008-07-23 16:00,ZHHH 231600Z AUTO 05002KT 7SM 25/25 A2965 RMK T02500250 IEM_DS3505
ZHHH,2008-07-23 17:00,ZHHH 231700Z AUTO 04004KT 6SM 24/24 A2965 RMK T02400240 IEM_DS3505
ZHHH,2008-07-23 18:00,ZHHH 231800Z AUTO 04002KT 9SM 26/23 A2965 RMK SLP038 T02550228 57001 IEM_DS3505
ZHHH,2008-07-23 19:00,ZHHH 231900Z AUTO 07004KT 4SM 24/24 A2965 RMK T02400240 IEM_DS3505
ZHHH,2008-07-23 20:00,ZHHH 232000Z AUTO 02002KT 5SM 24/24 A2965 RMK T02400240 IEM_DS3505
ZHHH,2008-07-23 21:00,ZHHH 232100Z AUTO 07002KT 9SM 26/23 A2965 RMK SLP041 T02550226 52003 IEM_DS3505
ZHHH,2008-07-23 22:00,ZHHH 232200Z AUTO 02004KT 5SM 24/24 A2968 RMK T02400240 IEM_DS3505
ZHHH,2008-07-23 23:00,ZHHH 232300Z AUTO 05004KT 5SM 24/24 A2968 RMK T02400240 IEM_DS3505
ZHHH,2008-07-24 00:00,ZHHH 240000Z AUTO 09004KT 11SM 26/23 A2968 RMK SLP051 T02630226 52010 IEM_DS3505
ZHHH,2008-07-24 01:00,ZHHH 240100Z AUTO 09006KT 6SM 27/25 A2968 RMK T02700250 IEM_DS3505
ZHHH,2008-07-24 02:00,ZHHH 240200Z AUTO 12004KT 6SM 29/26 A2971 RMK T02900260 IEM_DS3505
ZHHH,2008-07-24 03:00,ZHHH 240300Z AUTO 07002KT 12SM 29/24 A2968 RMK SLP054 T02940241 52003 IEM_DS3505
ZHHH,2008-07-24 04:00,ZHHH 240400Z AUTO 4SM 30/27 A2968 RMK T03000270 IEM_DS3505
ZHHH,2008-07-24 05:00,ZHHH 240500Z AUTO 28004KT 4SM 31/27 A2968 RMK T03100270 IEM_DS3505
ZHHH,2008-07-24 06:00,ZHHH 240600Z AUTO 18004KT 9SM 33/25 A2965 RMK SLP038 T03270253 57015 IEM_DS3505
ZHHH,2008-07-24 07:00,ZHHH 240700Z AUTO 3SM 33/28 A2965 RMK T03300280 IEM_DS3505
ZHHH,2008-07-24 08:00,ZHHH 240800Z AUTO 4SM 32/28 A2962 RMK T03200280 IEM_DS3505
ZHHH,2008-07-24 09:00,ZHHH 240900Z AUTO 27006KT 9SM 32/25 A2962 RMK SLP031 T03210247 57007 IEM_DS3505
ZHHH,2008-07-24 10:00,ZHHH 241000Z AUTO 29006KT 2SM 31/28 A2965 RMK T03100280 IEM_DS3505
ZHHH,2008-07-24 11:00,ZHHH 241100Z AUTO 28006KT 2SM 29/27 A2965 RMK T02900270 IEM_DS3505
ZHHH,2008-07-24 12:00,ZHHH 241200Z AUTO 27006KT 11SM 29/25 A2965 RMK SLP040 T02880250 52008 IEM_DS3505
ZHHH,2008-07-24 13:00,ZHHH 241300Z AUTO 29006KT 2SM 27/26 A2968 RMK T02700260 IEM_DS3505
ZHHH,2008-07-24 14:00,ZHHH 241400Z AUTO 29006KT 2SM 27/26 A2968 RMK T02700260 IEM_DS3505
ZHHH,2008-07-24 15:00,ZHHH 241500Z AUTO 25004KT 9SM 26/24 A2968 RMK SLP057 T02640237 52017 IEM_DS3505
ZHHH,2008-07-24 16:00,ZHHH 241600Z AUTO 24004KT 2SM 26/25 A2971 RMK T02600250 IEM_DS3505
ZHHH,2008-07-24 17:00,ZHHH 241700Z AUTO 23004KT 2SM 26/25 A2968 RMK T02600250 IEM_DS3505
ZHHH,2008-07-24 18:00,ZHHH 241800Z AUTO 29004KT 7SM 26/23 A2968 RMK 60000 SLP052 T02590232 57004 IEM_DS3505
ZHHH,2008-07-24 19:00,ZHHH 241900Z AUTO 26004KT 2SM 25/25 A2968 RMK T02500250 IEM_DS3505
ZHHH,2008-07-24 20:00,ZHHH 242000Z AUTO 28004KT 2SM 25/25 A2968 RMK T02500250 IEM_DS3505
ZHHH,2008-07-24 21:00,ZHHH 242100Z AUTO 27004KT 7SM 25/23 A2971 RMK 70000 SLP059 T02510228 52006 IEM_DS3505
ZHHH,2008-07-24 22:00,ZHHH 242200Z AUTO 25004KT 1 1/2SM 25/25 A2971 RMK T02500250 IEM_DS3505
ZHHH,2008-07-24 23:00,ZHHH 242300Z AUTO 2 1/2SM 25/25 A2971 RMK T02500250 IEM_DS3505
ZHHH,2008-07-25 00:00,ZHHH 250000Z AUTO 34002KT 11SM 28/23 A2971 RMK 70000 SLP064 T02820229 52005 IEM_DS3505
ZHHH,2008-07-25 01:00,ZHHH 250100Z AUTO 23004KT 4SM 28/26 A2974 RMK T02800260 IEM_DS3505
ZHHH,2008-07-25 02:00,ZHHH 250200Z AUTO 4SM 27/26 A2974 RMK T02700260 IEM_DS3505
ZHHH,2008-07-25 03:00,ZHHH 250300Z AUTO 22004KT 16SM 31/22 A2974 RMK SLP066 T03130223 52002 IEM_DS3505
ZHHH,2008-07-25 04:00,ZHHH 250400Z AUTO 25006KT 6SM 32/26 A2971 RMK T03200260 IEM_DS3505
ZHHH,2008-07-25 05:00,ZHHH 250500Z AUTO 31004KT 6SM 32/27 A2971 RMK T03200270 IEM_DS3505
ZHHH,2008-07-25 06:00,ZHHH 250600Z AUTO 22004KT 16SM 34/24 A2968 RMK SLP052 T03390242 57013 IEM_DS3505
ZHHH,2008-07-25 07:00,ZHHH 250700Z AUTO 28006KT 6SM 34/28 A2968 RMK T03400280 IEM_DS3505
ZHHH,2008-07-25 08:00,ZHHH 250800Z AUTO 25008KT 6SM 35/27 A2965 RMK T03500270 IEM_DS3505
ZHHH,2008-07-25 09:00,ZHHH 250900Z AUTO 27004KT 16SM 34/24 A2965 RMK SLP035 T03420236 57017 IEM_DS3505
ZHHH,2008-07-25 10:00,ZHHH 251000Z AUTO 28004KT 6SM 33/27 A2965 RMK T03300270 IEM_DS3505
ZHHH,2008-07-25 11:00,ZHHH 251100Z AUTO 30004KT 6SM 31/28 A2965 RMK T03100280 IEM_DS3505
ZHHH,2008-07-25 12:00,ZHHH 251200Z AUTO 29004KT 11SM 31/24 A2965 RMK SLP041 T03140245 52006 IEM_DS3505
ZHHH,2008-07-25 13:00,ZHHH 251300Z AUTO 02002KT 4SM 30/28 A2968 RMK T03000280 IEM_DS3505
ZHHH,2008-07-25 14:00,ZHHH 251400Z AUTO 03004KT 3SM 29/27 A2971 RMK T02900270 IEM_DS3505
ZHHH,2008-07-25 15:00,ZHHH 251500Z AUTO 04002KT 11SM 30/26 A2968 RMK SLP051 T02960256 52010 IEM_DS3505
ZHHH,2008-07-25 16:00,ZHHH 251600Z AUTO 08006KT 2 1/2SM 28/27 A2968 RMK T02800270 IEM_DS3505
ZHHH,2008-07-25 17:00,ZHHH 251700Z AUTO 10006KT 2 1/2SM 27/27 A2968 RMK T02700270 IEM_DS3505
ZHHH,2008-07-25 18:00,ZHHH 251800Z AUTO 09002KT 11SM 29/25 A2968 RMK SLP044 T02900252 57007 IEM_DS3505
ZHHH,2008-07-25 19:00,ZHHH 251900Z AUTO 09006KT 2 1/2SM 27/27 A2968 RMK T02700270 IEM_DS3505
ZHHH,2008-07-25 20:00,ZHHH 252000Z AUTO 10006KT 2 1/2SM 27/27 A2968 RMK T02700270 IEM_DS3505
ZHHH,2008-07-25 21:00,ZHHH 252100Z AUTO 09002KT 9SM 28/25 A2968 RMK SLP048 T02830253 52004 IEM_DS3505
ZHHH,2008-07-25 22:00,ZHHH 252200Z AUTO 09004KT 2SM 27/26 A2968 RMK T02700260 IEM_DS3505
ZHHH,2008-07-25 23:00,ZHHH 252300Z AUTO 12006KT 1 1/4SM 27/27 A2971 RMK T02700270 IEM_DS3505
ZHHH,2008-07-26 00:00,ZHHH 260000Z AUTO 14002KT 11SM 30/25 A2971 RMK SLP057 T03040250 52009 IEM_DS3505
ZHHH,2008-07-26 01:00,ZHHH 260100Z AUTO 14006KT 2 1/2SM 31/28 A2971 RMK T03100280 IEM_DS3505
ZHHH,2008-07-26 02:00,ZHHH 260200Z AUTO 15006KT 3SM 33/29 A2971 RMK T03300290 IEM_DS3505
ZHHH,2008-07-26 03:00,ZHHH 260300Z AUTO 18004KT 12SM 35/24 A2971 RMK SLP053 T03470237 57004 IEM_DS3505
ZHHH,2008-07-26 04:00,ZHHH 260400Z AUTO 24006KT 7SM 36/28 A2968 RMK T03600280 IEM_DS3505
ZHHH,2008-07-26 05:00,ZHHH 260500Z AUTO 24006KT 7SM 37/28 A2968 RMK T03700280 IEM_DS3505
ZHHH,2008-07-26 06:00,ZHHH 260600Z AUTO 27004KT 16SM 37/24 A2965 RMK SLP040 T03680240 57013 IEM_DS3505
ZHHH,2008-07-26 07:00,ZHHH 260700Z AUTO 25006KT 7SM 37/28 A2965 RMK T03700280 IEM_DS3505
ZHHH,2008-07-26 08:00,ZHHH 260800Z AUTO 31006KT 7SM 36/28 A2962 RMK T03600280 IEM_DS3505
ZHHH,2008-07-26 09:00,ZHHH 260900Z AUTO 20002KT 16SM 37/23 A2962 RMK SLP030 T03680229 57010 IEM_DS3505
ZHHH,2008-07-26 10:00,ZHHH 261000Z AUTO 32004KT 6SM 35/29 A2962 RMK T03500290 IEM_DS3505
ZHHH,2008-07-26 11:00,ZHHH 261100Z AUTO 00000KT 6SM 34/28 A2965 RMK T03400280 IEM_DS3505
ZHHH,2008-07-26 12:00,ZHHH 261200Z AUTO 00000KT 11SM 34/25 A2965 RMK SLP040 T03350249 52010 IEM_DS3505
ZHHH,2008-07-26 13:00,ZHHH 261300Z AUTO 16002KT 6SM 32/29 A2968 RMK T03200290 IEM_DS3505
ZHHH,2008-07-26 14:00,ZHHH 261400Z AUTO 13004KT 6SM 32/29 A2968 RMK T03200290 IEM_DS3505
ZHHH,2008-07-26 15:00,ZHHH 261500Z AUTO 00000KT 11SM 33/25 A2968 RMK SLP047 T03260246 52007 IEM_DS3505
ZHHH,2008-07-26 16:00,ZHHH 261600Z AUTO 04004KT 2 1/2SM 30/29 A2968 RMK T03000290 IEM_DS3505
ZHHH,2008-07-26 17:00,ZHHH 261700Z AUTO 08006KT 4SM 29/28 A2968 RMK T02900280 IEM_DS3505
ZHHH,2008-07-26 18:00,ZHHH 261800Z AUTO 00000KT 11SM 31/25 A2968 RMK SLP046 T03090250 57001 IEM_DS3505
ZHHH,2008-07-26 19:00,ZHHH 261900Z AUTO 06004KT 3SM 28/28 A2965 RMK T02800280 IEM_DS3505
ZHHH,2008-07-26 20:00,ZHHH 262000Z AUTO 06006KT 3SM 27/27 A2965 RMK T02700270 IEM_DS3505
ZHHH,2008-07-26 21:00,ZHHH 262100Z AUTO 02002KT 9SM 30/27 A2968 RMK SLP045 T02980268 57001 IEM_DS3505
ZHHH,2008-07-26 22:00,ZHHH 262200Z AUTO 08006KT 3SM 27/27 A2968 RMK T02700270 IEM_DS3505
ZHHH,2008-07-26 23:00,ZHHH 262300Z AUTO 04006KT 5SM 27/27 A2971 RMK T02700270 IEM_DS3505
ZHHH,2008-07-27 00:00,ZHHH 270000Z AUTO 07004KT 12SM 30/25 A2971 RMK SLP058 T03030251 52013 IEM_DS3505
ZHHH,2008-07-27 01:00,ZHHH 270100Z AUTO 10006KT 3SM 31/28 A2971 RMK T03100280 IEM_DS3505
ZHHH,2008-07-27 02:00,ZHHH 270200Z AUTO 11006KT 3SM 32/29 A2971 RMK T03200290 IEM_DS3505
ZHHH,2008-07-27 03:00,ZHHH 270300Z AUTO 04004KT 12SM 35/24 A2971 RMK SLP058 T03460239 54000 IEM_DS3505
ZHHH,2008-07-27 04:00,ZHHH 270400Z AUTO 11006KT 3SM 34/29 A2971 RMK T03400290 IEM_DS3505
ZHHH,2008-07-27 05:00,ZHHH 270500Z AUTO 11006KT 4SM 35/28 A2968 RMK T03500280 IEM_DS3505
ZHHH,2008-07-27 06:00,ZHHH 270600Z AUTO 04004KT 12SM 36/25 A2965 RMK SLP041 T03550248 57017 IEM_DS3505
ZHHH,2008-07-27 07:00,ZHHH 270700Z AUTO 09006KT 4SM 36/29 A2965 RMK T03600290 IEM_DS3505
ZHHH,2008-07-27 08:00,ZHHH 270800Z AUTO 12006KT 4SM 36/30 A2962 RMK T03600300 IEM_DS3505
ZHHH,2008-07-27 09:00,ZHHH 270900Z AUTO 11010KT 9SM 30/ A2962 RMK SLP035 57006 IEM_DS3505
ZHHH,2008-07-27 10:00,ZHHH 271000Z AUTO 16010KT 4SM 33/27 A2962 RMK T03300270 IEM_DS3505
ZHHH,2008-07-27 11:00,ZHHH 271100Z AUTO 25004KT 7SM 32/25 A2965 RMK T03200250 IEM_DS3505
ZHHH,2008-07-27 12:00,ZHHH 271200Z AUTO 34004KT 9SM 29/22 A2968 RMK 60051 SLP044 T02930215 52009 IEM_DS3505
ZHHH,2008-07-27 13:00,ZHHH 271300Z AUTO 02004KT 6SM 30/25 A2968 RMK T03000250 IEM_DS3505
ZHHH,2008-07-27 14:00,ZHHH 271400Z AUTO 02004KT 6SM 29/26 A2971 RMK T02900260 IEM_DS3505
ZHHH,2008-07-27 15:00,ZHHH 271500Z AUTO 29002KT 9SM 28/23 A2971 RMK SLP058 T02750233 52014 IEM_DS3505
ZHHH,2008-07-27 16:00,ZHHH 271600Z AUTO 35004KT 6SM 27/26 A2968 RMK T02700260 IEM_DS3505
ZHHH,2008-07-27 17:00,ZHHH 271700Z AUTO 06004KT 6SM 26/25 A2965 RMK T02600250 IEM_DS3505
ZHHH,2008-07-27 18:00,ZHHH 271800Z AUTO 32002KT 9SM 27/24 A2965 RMK SLP040 T02720243 57018 IEM_DS3505
ZHHH,2008-07-27 19:00,ZHHH 271900Z AUTO 6SM 26/26 A2965 RMK T02600260 IEM_DS3505
ZHHH,2008-07-27 20:00,ZHHH 272000Z AUTO 35004KT 6SM 26/26 A2965 RMK T02600260 IEM_DS3505
ZHHH,2008-07-27 21:00,ZHHH 272100Z AUTO 27002KT 9SM 27/24 A2965 RMK 70049 SLP040 T02670245 57001 IEM_DS3505
ZHHH,2008-07-27 22:00,ZHHH 272200Z AUTO 6SM 26/25 A2965 RMK T02600250 IEM_DS3505
ZHHH,2008-07-27 23:00,ZHHH 272300Z AUTO 07004KT 6SM 27/26 A2968 RMK T02700260 IEM_DS3505
ZHHH,2008-07-28 00:00,ZHHH 280000Z AUTO 04002KT 16SM 30/24 A2968 RMK 70049 SLP046 T02970241 52007 IEM_DS3505
ZHHH,2008-07-28 01:00,ZHHH 280100Z AUTO 06006KT 6SM 31/27 A2968 RMK T03100270 IEM_DS3505
ZHHH,2008-07-28 02:00,ZHHH 280200Z AUTO 02004KT 6SM 33/28 A2968 RMK T03300280 IEM_DS3505
ZHHH,2008-07-28 03:00,ZHHH 280300Z AUTO 32002KT 16SM 33/23 A2968 RMK SLP048 T03320232 52002 IEM_DS3505
ZHHH,2008-07-28 04:00,ZHHH 280400Z AUTO 30006KT 6SM 35/29 A2965 RMK T03500290 IEM_DS3505
ZHHH,2008-07-28 05:00,ZHHH 280500Z AUTO 30008KT 7SM 35/29 A2965 RMK T03500290 IEM_DS3505
ZHHH,2008-07-28 06:00,ZHHH 280600Z AUTO 32004KT 14SM 36/25 A2962 RMK SLP026 T03550251 57022 IEM_DS3505
ZHHH,2008-07-28 07:00,ZHHH 280700Z AUTO 32008KT 7SM 37/30 A2959 RMK T03700300 IEM_DS3505
ZHHH,2008-07-28 08:00,ZHHH 280800Z AUTO 33006KT 7SM 36/30 A2956 RMK T03600300 IEM_DS3505
ZHHH,2008-07-28 09:00,ZHHH 280900Z AUTO 02004KT 12SM 36/25 A2956 RMK SLP004 T03600252 57022 IEM_DS3505
ZHHH,2008-07-28 10:00,ZHHH 281000Z AUTO 03010KT 6SM 35/29 A2956 RMK T03500290 IEM_DS3505
ZHHH,2008-07-28 11:00,ZHHH 281100Z AUTO 03008KT 7SM 33/28 A2956 RMK T03300280 IEM_DS3505
ZHHH,2008-07-28 12:00,ZHHH 281200Z AUTO 02006KT 12SM 32/25 A2956 RMK SLP009 T03230249 52005 IEM_DS3505
ZHHH,2008-07-28 13:00,ZHHH 281300Z AUTO 04008KT 6SM 30/28 A2959 RMK T03000280 IEM_DS3505
ZHHH,2008-07-28 14:00,ZHHH 281400Z AUTO 03006KT 6SM 30/28 A2959 RMK T03000280 IEM_DS3505
ZHHH,2008-07-28 15:00,ZHHH 281500Z AUTO 04004KT 12SM 30/25 A2959 RMK SLP017 T03040252 52008 IEM_DS3505
ZHHH,2008-07-28 16:00,ZHHH 281600Z AUTO 04006KT 6SM 29/27 A2959 RMK T02900270 IEM_DS3505
ZHHH,2008-07-28 17:00,ZHHH 281700Z AUTO 04008KT 6SM 29/27 A2956 RMK T02900270 IEM_DS3505
ZHHH,2008-07-28 18:00,ZHHH 281800Z AUTO 02004KT 11SM 29/25 A2956 RMK SLP004 T02910247 57013 IEM_DS3505
ZHHH,2008-07-28 19:00,ZHHH 281900Z AUTO 03006KT 6SM 28/27 A2953 RMK T02800270 IEM_DS3505
ZHHH,2008-07-28 20:00,ZHHH 282000Z AUTO 02004KT 6SM 28/27 A2953 RMK T02800270 IEM_DS3505
ZHHH,2008-07-28 21:00,ZHHH 282100Z AUTO 36004KT 9SM 29/24 A2953 RMK SLP998 T02860244 57006 IEM_DS3505
ZHHH,2008-07-28 22:00,ZHHH 282200Z AUTO 04010KT 6SM 28/26 A2953 RMK T02800260 IEM_DS3505
ZHHH,2008-07-28 23:00,ZHHH 282300Z AUTO 02008KT 6SM 28/26 A2953 RMK T02800260 IEM_DS3505
ZHHH,2008-07-29 00:00,ZHHH 290000Z AUTO 36006KT 11SM 30/24 A2953 RMK SLP999 T02980235 52001 IEM_DS3505
ZHHH,2008-07-29 01:00,ZHHH 290100Z AUTO 03010KT 6SM 31/27 A2953 RMK T03100270 IEM_DS3505
ZHHH,2008-07-29 02:00,ZHHH 290200Z AUTO 03012KT 6SM 33/27 A2953 RMK T03300270 IEM_DS3505
ZHHH,2008-07-29 03:00,ZHHH 290300Z AUTO 34008KT 11SM 32/23 A2953 RMK SLP995 T03230233 57004 IEM_DS3505
ZHHH,2008-07-29 04:00,ZHHH 290400Z AUTO 03014KT 7SM 33/27 A2950 RMK T03300270 IEM_DS3505
ZHHH,2008-07-29 05:00,ZHHH 290500Z AUTO 03014G23KT 6SM 34/27 A2950 RMK T03400270 IEM_DS3505
ZHHH,2008-07-29 06:00,ZHHH 290600Z AUTO 04004KT 12SM 32/24 A2947 RMK SLP978 T03240236 57017 IEM_DS3505
ZHHH,2008-07-29 07:00,ZHHH 290700Z AUTO 03014G23KT 7SM 34/27 A2944 RMK T03400270 IEM_DS3505
ZHHH,2008-07-29 08:00,ZHHH 290800Z AUTO 03014G23KT 7SM 34/27 A2944 RMK T03400270 IEM_DS3505
ZHHH,2008-07-29 09:00,ZHHH 290900Z AUTO 02006KT 11SM 32/23 A2944 RMK SLP964 T03250234 57014 IEM_DS3505
ZHHH,2008-07-29 10:00,ZHHH 291000Z AUTO 02010KT 6SM 32/27 A2944 RMK T03200270 IEM_DS3505
ZHHH,2008-07-29 11:00,ZHHH 291100Z AUTO 02010KT 7SM 31/27 A2944 RMK T03100270 IEM_DS3505
ZHHH,2008-07-29 12:00,ZHHH 291200Z AUTO 02006KT 9SM 31/24 A2944 RMK SLP966 T03080237 52002 IEM_DS3505
ZHHH,2008-07-29 13:00,ZHHH 291300Z AUTO 02012KT 7SM 29/26 A2944 RMK T02900260 IEM_DS3505
ZHHH,2008-07-29 14:00,ZHHH 291400Z AUTO 01006KT 6SM 29/26 A2947 RMK T02900260 IEM_DS3505
ZHHH,2008-07-29 15:00,ZHHH 291500Z AUTO 34004KT 11SM 29/24 A2947 RMK SLP972 T02910238 52006 IEM_DS3505
ZHHH,2008-07-29 16:00,ZHHH 291600Z AUTO 02010KT 6SM 28/26 A2944 RMK T02800260 IEM_DS3505
ZHHH,2008-07-29 17:00,ZHHH 291700Z AUTO 01010KT 6SM 28/26 A2944 RMK T02800260 IEM_DS3505
ZHHH,2008-07-29 18:00,ZHHH 291800Z AUTO 32004KT 12SM 28/24 A2944 RMK SLP966 T02830237 57006 IEM_DS3505
ZHHH,2008-07-29 19:00,ZHHH 291900Z AUTO 35008KT 6SM 27/26 A2941 RMK T02700260 IEM_DS3505
ZHHH,2008-07-29 20:00,ZHHH 292000Z AUTO 01008KT 6SM 27/25 A2941 RMK T02700250 IEM_DS3505
ZHHH,2008-07-29 21:00,ZHHH 292100Z AUTO 34004KT 12SM 28/24 A2944 RMK SLP965 T02750239 57001 IEM_DS3505
ZHHH,2008-07-29 22:00,ZHHH 292200Z AUTO 36006KT 6SM 26/25 A2944 RMK T02600250 IEM_DS3505
ZHHH,2008-07-29 23:00,ZHHH 292300Z AUTO 35008KT 6SM 27/26 A2944 RMK T02700260 IEM_DS3505
ZHHH,2008-07-30 00:00,ZHHH 300000Z AUTO 34006KT 14SM 28/24 A2947 RMK SLP976 T02770237 52011 IEM_DS3505
ZHHH,2008-07-30 01:00,ZHHH 300100Z AUTO 36008KT 7SM 29/26 A2947 RMK T02900260 IEM_DS3505
ZHHH,2008-07-30 02:00,ZHHH 300200Z AUTO 36008KT 7SM 28/26 A2947 RMK T02800260 IEM_DS3505
ZHHH,2008-07-30 03:00,ZHHH 300300Z AUTO 34006KT 16SM 29/23 A2947 RMK SLP976 T02870232 54000 IEM_DS3505
ZHHH,2008-07-30 04:00,ZHHH 300400Z AUTO 35006KT 7SM 26/26 A2947 RMK T02600260 IEM_DS3505
ZHHH,2008-07-30 05:00,ZHHH 300500Z AUTO 34010KT 7SM 27/27 A2944 RMK T02700270 IEM_DS3505
ZHHH,2008-07-30 06:00,ZHHH 300600Z AUTO 29004KT 7SM 27/24 A2944 RMK 60008 SLP969 T02740245 57007 IEM_DS3505
ZHHH,2008-07-30 07:00,ZHHH 300700Z AUTO 35008KT 7SM 29/27 A2944 RMK T02900270 IEM_DS3505
ZHHH,2008-07-30 08:00,ZHHH 300800Z AUTO 34010KT 7SM 29/27 A2944 RMK T02900270 IEM_DS3505
ZHHH,2008-07-30 09:00,ZHHH 300900Z AUTO 27004KT 11SM 28/24 A2944 RMK SLP966 T02810243 57003 IEM_DS3505
ZHHH,2008-07-30 10:00,ZHHH 301000Z AUTO 33008KT 7SM 28/26 A2944 RMK T02800260 IEM_DS3505
ZHHH,2008-07-30 11:00,ZHHH 301100Z AUTO 34008KT 7SM 27/26 A2944 RMK T02700260 IEM_DS3505
ZHHH,2008-07-30 12:00,ZHHH 301200Z AUTO 33008KT 7SM 27/26 A2947 RMK T02700260 IEM_DS3505
ZHHH,2008-07-30 13:00,ZHHH 301300Z AUTO 34008KT 7SM 27/26 A2950 RMK T02700260 IEM_DS3505
ZHHH,2008-07-30 14:00,ZHHH 301400Z AUTO 34006KT 7SM 26/26 A2950 RMK T02600260 IEM_DS3505
ZHHH,2008-07-30 15:00,ZHHH 301500Z AUTO 29002KT 9SM 27/25 A2953 RMK SLP996 T02680246 52016 IEM_DS3505
ZHHH,2008-07-30 16:00,ZHHH 301600Z AUTO 36006KT 2SM 26/26 A2953 RMK T02600260 IEM_DS3505
ZHHH,2008-07-30 17:00,ZHHH 301700Z AUTO 35006KT 2SM 26/26 A2953 RMK T02600260 IEM_DS3505
ZHHH,2008-07-30 18:00,ZHHH 301800Z AUTO 34004KT 7SM 26/24 A2953 RMK 60000 SLP001 T02620244 52004 IEM_DS3505
ZHHH,2008-07-30 19:00,ZHHH 301900Z AUTO 35006KT 1 1/2SM 25/25 A2953 RMK T02500250 IEM_DS3505
ZHHH,2008-07-30 20:00,ZHHH 302000Z AUTO 33006KT 2SM 25/25 A2953 RMK T02500250 IEM_DS3505
ZHHH,2008-07-30 21:00,ZHHH 302100Z AUTO 27004KT 5SM 26/24 A2953 RMK 70045 SLP005 T02560244 52004 IEM_DS3505
ZHHH,2008-07-30 22:00,ZHHH 302200Z AUTO 33006KT 2 1/2SM 25/25 A2956 RMK T02500250 IEM_DS3505
ZHHH,2008-07-30 23:00,ZHHH 302300Z AUTO 32006KT 3SM 26/26 A2959 RMK T02600260 IEM_DS3505
ZHHH,2008-07-31 00:00,ZHHH 310000Z AUTO 29002KT 7SM 26/25 A2959 RMK 60051 70059 SLP022 T02640246 52017 IEM_DS3505
ZHHH,2008-07-31 01:00,ZHHH 310100Z AUTO 33006KT 4SM 27/27 A2959 RMK T02700270 IEM_DS3505
ZHHH,2008-07-31 02:00,ZHHH 310200Z AUTO 32006KT 7SM 27/27 A2962 RMK T02700270 IEM_DS3505
ZHHH,2008-07-31 03:00,ZHHH 310300Z AUTO 29004KT 9SM 28/24 A2962 RMK SLP032 T02790245 52010 IEM_DS3505
ZHHH,2008-07-31 04:00,ZHHH 310400Z AUTO 31006KT 7SM 29/27 A2962 RMK T02900270 IEM_DS3505
ZHHH,2008-07-31 05:00,ZHHH 310500Z AUTO 28006KT 4SM 29/27 A2962 RMK T02900270 IEM_DS3505
ZHHH,2008-07-31 06:00,ZHHH 310600Z AUTO 29006KT 9SM 30/25 A2962 RMK SLP025 T03020246 57006 IEM_DS3505
ZHHH,2008-07-31 07:00,ZHHH 310700Z AUTO 28006KT 7SM 31/27 A2959 RMK T03100270 IEM_DS3505
ZHHH,2008-07-31 08:00,ZHHH 310800Z AUTO 29008KT 7SM 32/27 A2959 RMK T03200270 IEM_DS3505
ZHHH,2008-07-31 09:00,ZHHH 310900Z AUTO 27004KT 9SM 30/24 A2959 RMK SLP023 T02980240 57003 IEM_DS3505
ZHHH,2008-07-31 10:00,ZHHH 311000Z AUTO 34006KT 7SM 30/27 A2962 RMK T03000270 IEM_DS3505
ZHHH,2008-07-31 11:00,ZHHH 311100Z AUTO 34004KT 6SM 29/26 A2962 RMK T02900260 IEM_DS3505
ZHHH,2008-07-31 12:00,ZHHH 311200Z AUTO 22002KT 7SM 28/26 A2965 RMK 60028 SLP042 T02770255 52019 IEM_DS3505
ZHHH,2008-07-31 13:00,ZHHH 311300Z AUTO 33004KT 7SM 28/26 A2968 RMK T02800260 IEM_DS3505
ZHHH,2008-07-31 14:00,ZHHH 311400Z AUTO 00000KT 7SM 27/26 A2968 RMK T02700260 IEM_DS3505
ZHHH,2008-07-31 15:00,ZHHH 311500Z AUTO 27004KT 7SM 28/25 A2968 RMK SLP055 T02750248 52013 IEM_DS3505
ZHHH,2008-07-31 16:00,ZHHH 311600Z AUTO 29006KT 6SM 27/27 A2968 RMK T02700270 IEM_DS3505
ZHHH,2008-07-31 17:00,ZHHH 311700Z AUTO 27006KT 6SM 27/27 A2968 RMK T02700270 IEM_DS3505
ZHHH,2008-07-31 18:00,ZHHH 311800Z AUTO 27004KT 7SM 27/25 A2968 RMK SLP052 T02710246 57003 IEM_DS3505
ZHHH,2008-07-31 19:00,ZHHH 311900Z AUTO 28006KT 3SM 27/26 A2968 RMK T02700260 IEM_DS3505
ZHHH,2008-07-31 20:00,ZHHH 312000Z AUTO 29006KT 2 1/2SM 27/27 A2968 RMK T02700270 IEM_DS3505
ZHHH,2008-07-31 21:00,ZHHH 312100Z AUTO 25002KT 7SM 27/25 A2971 RMK 70042 SLP058 T02710247 52006 IEM_DS3505
ZHHH,2008-07-31 22:00,ZHHH 312200Z AUTO 24006KT 1 1/4SM 27/26 A2971 RMK T02700260 IEM_DS3505
ZHHH,2008-07-31 23:00,ZHHH 312300Z AUTO 25006KT 1 1/2SM 27/27 A2971 RMK T02700270 IEM_DS3505
ZHHH,2008-08-01 00:00,ZHHH 010000Z AUTO 27004KT 7SM 28/25 A2974 RMK 70028 SLP070 T02780248 52012 IEM_DS3505
ZHHH,2008-08-01 01:00,ZHHH 010100Z AUTO 25004KT 4SM 29/27 A2974 RMK T02900270 IEM_DS3505
ZHHH,2008-08-01 02:00,ZHHH 010200Z AUTO 25004KT 4SM 31/28 A2974 RMK T03100280 IEM_DS3505
ZHHH,2008-08-01 03:00,ZHHH 010300Z AUTO 18004KT 9SM 32/25 A2974 RMK SLP072 T03250248 52003 IEM_DS3505
ZHHH,2008-08-01 04:00,ZHHH 010400Z AUTO 30004KT 6SM 33/28 A2974 RMK T03300280 IEM_DS3505
ZHHH,2008-08-01 05:00,ZHHH 010500Z AUTO 24008KT 7SM 34/29 A2974 RMK T03400290 IEM_DS3505
ZHHH,2008-08-01 06:00,ZHHH 010600Z AUTO 25004KT 9SM 34/24 A2971 RMK SLP061 T03420242 57011 IEM_DS3505
ZHHH,2008-08-01 07:00,ZHHH 010700Z AUTO 24006KT 7SM 34/29 A2971 RMK T03400290 IEM_DS3505
ZHHH,2008-08-01 08:00,ZHHH 010800Z AUTO 25006KT 7SM 35/29 A2968 RMK T03500290 IEM_DS3505
ZHHH,2008-08-01 09:00,ZHHH 010900Z AUTO 25004KT 9SM 34/25 A2968 RMK SLP047 T03400246 57014 IEM_DS3505
ZHHH,2008-08-01 10:00,ZHHH 011000Z AUTO 22004KT 7SM 33/28 A2968 RMK T03300280 IEM_DS3505
ZHHH,2008-08-01 11:00,ZHHH 011100Z AUTO 21004KT 6SM 32/28 A2968 RMK T03200280 IEM_DS3505
ZHHH,2008-08-01 12:00,ZHHH 011200Z AUTO 25002KT 9SM 32/25 A2971 RMK SLP058 T03170251 52011 IEM_DS3505
ZHHH,2008-08-01 13:00,ZHHH 011300Z AUTO 21002KT 4SM 31/28 A2974 RMK T03100280 IEM_DS3505
ZHHH,2008-08-01 14:00,ZHHH 011400Z AUTO 17004KT 4SM 30/28 A2971 RMK T03000280 IEM_DS3505
ZHHH,2008-08-01 15:00,ZHHH 011500Z AUTO 18002KT 9SM 30/25 A2971 RMK SLP063 T02990252 52005 IEM_DS3505
ZHHH,2008-08-01 16:00,ZHHH 011600Z AUTO 21004KT 3SM 29/28 A2974 RMK T02900280 IEM_DS3505
ZHHH,2008-08-01 17:00,ZHHH 011700Z AUTO 18002KT 3SM 29/28 A2971 RMK T02900280 IEM_DS3505
ZHHH,2008-08-01 18:00,ZHHH 011800Z AUTO 14002KT 9SM 29/25 A2971 RMK SLP055 T02910251 57008 IEM_DS3505
ZHHH,2008-08-01 19:00,ZHHH 011900Z AUTO 20004KT 3SM 28/27 A2968 RMK T02800270 IEM_DS3505
ZHHH,2008-08-01 20:00,ZHHH 012000Z AUTO 15004KT 3SM 28/27 A2968 RMK T02800270 IEM_DS3505
ZHHH,2008-08-01 21:00,ZHHH 012100Z AUTO 00000KT 9SM 29/25 A2968 RMK SLP054 T02860254 57001 IEM_DS3505
ZHHH,2008-08-01 22:00,ZHHH 012200Z AUTO 2 1/2SM 28/27 A2971 RMK T02800270 IEM_DS3505
ZHHH,2008-08-01 23:00,ZHHH 012300Z AUTO 00000KT 1 1/2SM 28/27 A2971 RMK T02800270 IEM_DS3505
ZHHH,2008-08-02 00:00,ZHHH 020000Z AUTO 11002KT 9SM 30/26 A2971 RMK SLP062 T02950257 52008 IEM_DS3505
ZHHH,2008-08-02 01:00,ZHHH 020100Z AUTO 12004KT 4SM 29/28 A2974 RMK T02900280 IEM_DS3505
ZHHH,2008-08-02 02:00,ZHHH 020200Z AUTO 20008KT 4SM 28/26 A2974 RMK T02800260 IEM_DS3505
ZHHH,2008-08-02 03:00,ZHHH 020300Z AUTO 07006KT 9SM 25/24 A2977 RMK SLP073 T02500236 52010 IEM_DS3505
ZHHH,2008-08-02 04:00,ZHHH 020400Z AUTO 10008KT 1SM 24/24 A2974 RMK T02400240 IEM_DS3505
ZHHH,2008-08-02 05:00,ZHHH 020500Z AUTO 06008KT 2 1/2SM 24/24 A2974 RMK T02400240 IEM_DS3505
ZHHH,2008-08-02 06:00,ZHHH 020600Z AUTO 07002KT 7SM 25/24 A2971 RMK 60051 SLP057 T02510237 57016 IEM_DS3505
ZHHH,2008-08-02 07:00,ZHHH 020700Z AUTO 10004KT 5SM 26/26 A2968 RMK T02600260 IEM_DS3505
ZHHH,2008-08-02 08:00,ZHHH 020800Z AUTO 11006KT 6SM 27/26 A2968 RMK T02700260 IEM_DS3505
ZHHH,2008-08-02 09:00,ZHHH 020900Z AUTO 20004KT 9SM 27/24 A2971 RMK SLP057 T02690236 54000 IEM_DS3505
ZHHH,2008-08-02 10:00,ZHHH 021000Z AUTO 6SM 27/26 A2968 RMK T02700260 IEM_DS3505
ZHHH,2008-08-02 11:00,ZHHH 021100Z AUTO 08004KT 6SM 27/26 A2968 RMK T02700260 IEM_DS3505
ZHHH,2008-08-02 12:00,ZHHH 021200Z AUTO 02002KT 9SM 27/24 A2971 RMK 60008 SLP061 T02690238 52004 IEM_DS3505
ZHHH,2008-08-02 13:00,ZHHH 021300Z AUTO 02004KT 3SM 26/26 A2974 RMK T02600260 IEM_DS3505
ZHHH,2008-08-02 14:00,ZHHH 021400Z AUTO 00000KT 2 1/2SM 26/26 A2974 RMK T02600260 IEM_DS3505
ZHHH,2008-08-02 15:00,ZHHH 021500Z AUTO 27002KT 9SM 26/24 A2974 RMK SLP066 T02640241 52005 IEM_DS3505
ZHHH,2008-08-02 16:00,ZHHH 021600Z AUTO 00000KT 2SM 26/26 A2974 RMK T02600260 IEM_DS3505
ZHHH,2008-08-02 17:00,ZHHH 021700Z AUTO 00000KT 2SM 26/26 A2974 RMK T02600260 IEM_DS3505
ZHHH,2008-08-02 18:00,ZHHH 021800Z AUTO 27002KT 9SM 26/24 A2971 RMK SLP065 T02600240 57001 IEM_DS3505
ZHHH,2008-08-02 19:00,ZHHH 021900Z AUTO 04002KT 1 1/4SM 26/26 A2971 RMK T02600260 IEM_DS3505
ZHHH,2008-08-02 20:00,ZHHH 022000Z AUTO 1 1/4SM 26/26 A2971 RMK T02600260 IEM_DS3505
ZHHH,2008-08-02 21:00,ZHHH 022100Z AUTO 27002KT 9SM 26/24 A2971 RMK 70055 SLP060 T02600242 57005 IEM_DS3505
ZHHH,2008-08-02 22:00,ZHHH 022200Z AUTO 02002KT 1 1/4SM 25/25 A2971 RMK T02500250 IEM_DS3505
ZHHH,2008-08-02 23:00,ZHHH 022300Z AUTO 00000KT 1 1/4SM 26/26 A2974 RMK T02600260 IEM_DS3505
ZHHH,2008-08-03 00:00,ZHHH 030000Z AUTO 02002KT 9SM 26/24 A2974 RMK 70055 SLP071 T02650240 52011 IEM_DS3505
ZHHH,2008-08-03 01:00,ZHHH 030100Z AUTO 07004KT 1 1/2SM 28/26 A2974 RMK T02800260 IEM_DS3505
ZHHH,2008-08-03 02:00,ZHHH 030200Z AUTO 08004KT 3SM 29/27 A2977 RMK T02900270 IEM_DS3505
ZHHH,2008-08-03 03:00,ZHHH 030300Z AUTO 04004KT 9SM 29/24 A2974 RMK SLP074 T02900241 52003 IEM_DS3505
ZHHH,2008-08-03 04:00,ZHHH 030400Z AUTO 09004KT 7SM 31/27 A2974 RMK T03100270 IEM_DS3505
ZHHH,2008-08-03 05:00,ZHHH 030500Z AUTO 7SM 32/27 A2974 RMK T03200270 IEM_DS3505
ZHHH,2008-08-03 06:00,ZHHH 030600Z AUTO 00000KT 9SM 31/23 A2971 RMK SLP057 T03080229 57017 IEM_DS3505
ZHHH,2008-08-03 07:00,ZHHH 030700Z AUTO 7SM 32/27 A2968 RMK T03200270 IEM_DS3505
ZHHH,2008-08-03 08:00,ZHHH 030800Z AUTO 11006KT 7SM 31/27 A2968 RMK T03100270 IEM_DS3505
ZHHH,2008-08-03 09:00,ZHHH 030900Z AUTO 14004KT 11SM 30/24 A2968 RMK SLP049 T03040243 57008 IEM_DS3505
ZHHH,2008-08-03 10:00,ZHHH 031000Z AUTO 16006KT 3SM 30/27 A2968 RMK T03000270 IEM_DS3505
ZHHH,2008-08-03 11:00,ZHHH 031100Z AUTO 18006KT 2SM 29/27 A2968 RMK T02900270 IEM_DS3505
ZHHH,2008-08-03 12:00,ZHHH 031200Z AUTO 18002KT 11SM 28/24 A2971 RMK SLP060 T02800240 52011 IEM_DS3505
ZHHH,2008-08-03 13:00,ZHHH 031300Z AUTO 20004KT 2 1/2SM 28/27 A2974 RMK T02800270 IEM_DS3505
ZHHH,2008-08-03 14:00,ZHHH 031400Z AUTO 19002KT 2 1/2SM 27/26 A2974 RMK T02700260 IEM_DS3505
ZHHH,2008-08-03 15:00,ZHHH 031500Z AUTO 00000KT 9SM 27/24 A2971 RMK SLP066 T02690236 52006 IEM_DS3505
ZHHH,2008-08-03 16:00,ZHHH 031600Z AUTO 4SM 26/25 A2971 RMK T02600250 IEM_DS3505
ZHHH,2008-08-03 17:00,ZHHH 031700Z AUTO 00000KT 4SM 26/25 A2971 RMK T02600250 IEM_DS3505
ZHHH,2008-08-03 18:00,ZHHH 031800Z AUTO 18002KT 11SM 26/23 A2971 RMK SLP062 T02650234 57004 IEM_DS3505
ZHHH,2008-08-03 19:00,ZHHH 031900Z AUTO 3SM 26/26 A2971 RMK T02600260 IEM_DS3505
ZHHH,2008-08-03 20:00,ZHHH 032000Z AUTO 00000KT 3SM 26/25 A2971 RMK T02600250 IEM_DS3505
ZHHH,2008-08-03 21:00,ZHHH 032100Z AUTO 14002KT 11SM 26/24 A2971 RMK SLP062 T02620239 54000 IEM_DS3505
ZHHH,2008-08-03 22:00,ZHHH 032200Z AUTO 00000KT 2 1/2SM 26/26 A2974 RMK T02600260 IEM_DS3505
ZHHH,2008-08-03 23:00,ZHHH 032300Z AUTO 00000KT 1 1/4SM 26/26 A2974 RMK T02600260 IEM_DS3505
ZHHH,2008-08-04 00:00,ZHHH 040000Z AUTO 16002KT 11SM 27/24 A2974 RMK SLP072 T02740241 52010 IEM_DS3505
ZHHH,2008-08-04 01:00,ZHHH 040100Z AUTO 09006KT 2 1/2SM 28/27 A2974 RMK T02800270 IEM_DS3505
ZHHH,2008-08-04 02:00,ZHHH 040200Z AUTO 4SM 29/27 A2977 RMK T02900270 IEM_DS3505
ZHHH,2008-08-04 03:00,ZHHH 040300Z AUTO 16002KT 9SM 30/24 A2974 RMK SLP075 T03010240 52003 IEM_DS3505
ZHHH,2008-08-04 05:00,ZHHH 040500Z AUTO 00000KT 4SM 32/28 A2971 RMK T03200280 IEM_DS3505
ZHHH,2008-08-04 06:00,ZHHH 040600Z AUTO 11002KT 9SM 32/23 A2971 RMK SLP058 T03230233 57016 IEM_DS3505
ZHHH,2008-08-04 07:00,ZHHH 040700Z AUTO 13004KT 4SM 32/28 A2971 RMK T03200280 IEM_DS3505
ZHHH,2008-08-04 08:00,ZHHH 040800Z AUTO 25004KT 4SM 33/27 A2968 RMK T03300270 IEM_DS3505
ZHHH,2008-08-04 09:00,ZHHH 040900Z AUTO 04002KT 11SM 33/23 A2968 RMK SLP046 T03290233 57012 IEM_DS3505
ZHHH,2008-08-04 10:00,ZHHH 041000Z AUTO 00000KT 5SM 31/27 A2968 RMK T03100270 IEM_DS3505
ZHHH,2008-08-04 11:00,ZHHH 041100Z AUTO 00000KT 6SM 30/27 A2968 RMK T03000270 IEM_DS3505
ZHHH,2008-08-04 12:00,ZHHH 041200Z AUTO 27002KT 11SM 30/25 A2971 RMK SLP057 T03030251 52010 IEM_DS3505
ZHHH,2008-08-04 13:00,ZHHH 041300Z AUTO 01002KT 6SM 30/27 A2971 RMK T03000270 IEM_DS3505
ZHHH,2008-08-04 14:00,ZHHH 041400Z AUTO 02004KT 6SM 29/27 A2974 RMK T02900270 IEM_DS3505
ZHHH,2008-08-04 15:00,ZHHH 041500Z AUTO 27002KT 9SM 29/26 A2971 RMK SLP062 T02880260 52006 IEM_DS3505
ZHHH,2008-08-04 16:00,ZHHH 041600Z AUTO 04004KT 6SM 28/27 A2971 RMK T02800270 IEM_DS3505
ZHHH,2008-08-04 17:00,ZHHH 041700Z AUTO 01002KT 4SM 28/27 A2971 RMK T02800270 IEM_DS3505
ZHHH,2008-08-04 18:00,ZHHH 041800Z AUTO 02004KT 9SM 28/25 A2971 RMK SLP058 T02840252 57004 IEM_DS3505
ZHHH,2008-08-04 19:00,ZHHH 041900Z AUTO 04004KT 2 1/2SM 27/27 A2971 RMK T02700270 IEM_DS3505
ZHHH,2008-08-04 20:00,ZHHH 042000Z AUTO 02004KT 2 1/2SM 27/27 A2971 RMK T02700270 IEM_DS3505
ZHHH,2008-08-04 21:00,ZHHH 042100Z AUTO 07004KT 9SM 28/25 A2971 RMK SLP061 T02770253 52003 IEM_DS3505
ZHHH,2008-08-04 22:00,ZHHH 042200Z AUTO 10004KT 1 1/2SM 26/26 A2974 RMK T02600260 IEM_DS3505
ZHHH,2008-08-04 23:00,ZHHH 042300Z AUTO 09006KT 1 1/2SM 27/27 A2974 RMK T02700270 IEM_DS3505
ZHHH,2008-08-05 00:00,ZHHH 050000Z AUTO 07004KT 9SM 30/26 A2974 RMK SLP068 T02990256 52007 IEM_DS3505
ZHHH,2008-08-05 01:00,ZHHH 050100Z AUTO 10006KT 4SM 31/28 A2974 RMK T03100280 IEM_DS3505
ZHHH,2008-08-05 02:00,ZHHH 050200Z AUTO 10004KT 6SM 32/28 A2974 RMK T03200280 IEM_DS3505
ZHHH,2008-08-05 03:00,ZHHH 050300Z AUTO 07004KT 11SM 33/25 A2974 RMK SLP064 T03340254 57004 IEM_DS3505
ZHHH,2008-08-05 04:00,ZHHH 050400Z AUTO 7SM 33/28 A2971 RMK T03300280 IEM_DS3505
ZHHH,2008-08-05 05:00,ZHHH 050500Z AUTO 11004KT 7SM 35/26 A2971 RMK T03500260 IEM_DS3505
ZHHH,2008-08-05 06:00,ZHHH 050600Z AUTO 32002KT 11SM 35/23 A2968 RMK SLP047 T03490233 57017 IEM_DS3505
ZHHH,2008-08-05 07:00,ZHHH 050700Z AUTO 12004KT 7SM 35/26 A2968 RMK T03500260 IEM_DS3505
ZHHH,2008-08-05 08:00,ZHHH 050800Z AUTO 07006KT 6SM 35/25 A2965 RMK T03500250 IEM_DS3505
ZHHH,2008-08-05 09:00,ZHHH 050900Z AUTO 02006KT 9SM 35/23 A2962 RMK SLP026 T03500227 57021 IEM_DS3505
ZHHH,2008-08-05 10:00,ZHHH 051000Z AUTO 01004KT 7SM 35/26 A2962 RMK T03500260 IEM_DS3505
ZHHH,2008-08-05 11:00,ZHHH 051100Z AUTO 03004KT 7SM 33/27 A2962 RMK T03300270 IEM_DS3505
ZHHH,2008-08-05 12:00,ZHHH 051200Z AUTO 07002KT 9SM 32/23 A2965 RMK SLP038 T03220234 52012 IEM_DS3505
ZHHH,2008-08-05 13:00,ZHHH 051300Z AUTO 07010KT 7SM 29/25 A2968 RMK T02900250 IEM_DS3505
ZHHH,2008-08-05 14:00,ZHHH 051400Z AUTO 06010KT 7SM 28/24 A2968 RMK T02800240 IEM_DS3505
ZHHH,2008-08-05 15:00,ZHHH 051500Z AUTO 04004KT 9SM 29/23 A2971 RMK SLP055 T02940226 52017 IEM_DS3505
ZHHH,2008-08-05 16:00,ZHHH 051600Z AUTO 11006KT 6SM 28/24 A2971 RMK T02800240 IEM_DS3505
ZHHH,2008-08-05 17:00,ZHHH 051700Z AUTO 02004KT 6SM 28/24 A2968 RMK T02800240 IEM_DS3505
ZHHH,2008-08-05 18:00,ZHHH 051800Z AUTO 04002KT 12SM 28/23 A2968 RMK SLP046 T02840226 57009 IEM_DS3505
ZHHH,2008-08-05 19:00,ZHHH 051900Z AUTO 05004KT 6SM 27/25 A2968 RMK T02700250 IEM_DS3505
ZHHH,2008-08-05 20:00,ZHHH 052000Z AUTO 04006KT 6SM 27/26 A2968 RMK T02700260 IEM_DS3505
ZHHH,2008-08-05 21:00,ZHHH 052100Z AUTO 07004KT 9SM 28/25 A2968 RMK SLP047 T02780246 52001 IEM_DS3505
ZHHH,2008-08-05 22:00,ZHHH 052200Z AUTO 06008KT 1SM 27/27 A2968 RMK T02700270 IEM_DS3505
ZHHH,2008-08-05 23:00,ZHHH 052300Z AUTO 07010KT 1 1/4SM 27/27 A2968 RMK T02700270 IEM_DS3505
ZHHH,2008-08-06 00:00,ZHHH 060000Z AUTO 09004KT 9SM 29/25 A2968 RMK SLP050 T02940254 52003 IEM_DS3505
ZHHH,2008-08-06 01:00,ZHHH 060100Z AUTO 08010KT 2 1/2SM 30/28 A2971 RMK T03000280 IEM_DS3505
ZHHH,2008-08-06 02:00,ZHHH 060200Z AUTO 08010KT 3SM 32/28 A2971 RMK T03200280 IEM_DS3505
ZHHH,2008-08-06 03:00,ZHHH 060300Z AUTO 09004KT 12SM 34/24 A2971 RMK SLP053 T03420236 52003 IEM_DS3505
ZHHH,2008-08-06 04:00,ZHHH 060400Z AUTO 10008KT 6SM 34/28 A2968 RMK T03400280 IEM_DS3505
ZHHH,2008-08-06 05:00,ZHHH 060500Z AUTO 11008KT 7SM 34/27 A2968 RMK T03400270 IEM_DS3505
ZHHH,2008-08-06 06:00,ZHHH 060600Z AUTO 02006KT 12SM 34/23 A2968 RMK SLP041 T03440228 57012 IEM_DS3505
ZHHH,2008-08-06 07:00,ZHHH 060700Z AUTO 10008KT 7SM 35/27 A2965 RMK T03500270 IEM_DS3505
ZHHH,2008-08-06 08:00,ZHHH 060800Z AUTO 10010KT 7SM 35/26 A2962 RMK T03500260 IEM_DS3505
ZHHH,2008-08-06 09:00,ZHHH 060900Z AUTO 07004KT 12SM 35/22 A2962 RMK SLP029 T03530223 57012 IEM_DS3505
ZHHH,2008-08-06 10:00,ZHHH 061000Z AUTO 04004KT 7SM 34/28 A2962 RMK T03400280 IEM_DS3505
ZHHH,2008-08-06 11:00,ZHHH 061100Z AUTO 01006KT 7SM 32/28 A2962 RMK T03200280 IEM_DS3505
ZHHH,2008-08-06 12:00,ZHHH 061200Z AUTO 18002KT 9SM 33/23 A2965 RMK SLP041 T03270228 52012 IEM_DS3505
ZHHH,2008-08-06 13:00,ZHHH 061300Z AUTO 08006KT 6SM 29/28 A2968 RMK T02900280 IEM_DS3505
ZHHH,2008-08-06 14:00,ZHHH 061400Z AUTO 09006KT 6SM 29/28 A2968 RMK T02900280 IEM_DS3505
ZHHH,2008-08-06 15:00,ZHHH 061500Z AUTO 07002KT 11SM 31/23 A2971 RMK SLP051 T03100234 52010 IEM_DS3505
ZHHH,2008-08-06 16:00,ZHHH 061600Z AUTO 07006KT 6SM 28/27 A2968 RMK T02800270 IEM_DS3505
ZHHH,2008-08-06 17:00,ZHHH 061700Z AUTO 09006KT 6SM 28/27 A2968 RMK T02800270 IEM_DS3505
ZHHH,2008-08-06 18:00,ZHHH 061800Z AUTO 11002KT 11SM 30/24 A2968 RMK SLP043 T03010238 57008 IEM_DS3505
ZHHH,2008-08-06 19:00,ZHHH 061900Z AUTO 07004KT 3SM 27/27 A2968 RMK T02700270 IEM_DS3505
ZHHH,2008-08-06 20:00,ZHHH 062000Z AUTO 06006KT 2 1/2SM 27/27 A2968 RMK T02700270 IEM_DS3505
ZHHH,2008-08-06 21:00,ZHHH 062100Z AUTO 07002KT 11SM 29/25 A2968 RMK SLP046 T02860250 52003 IEM_DS3505
ZHHH,2008-08-06 22:00,ZHHH 062200Z AUTO 07008KT 2SM 27/27 A2971 RMK T02700270 IEM_DS3505
ZHHH,2008-08-06 23:00,ZHHH 062300Z AUTO 06008KT 3SM 28/28 A2971 RMK T02800280 IEM_DS3505
ZHHH,2008-08-07 00:00,ZHHH 070000Z AUTO 04004KT 14SM 30/25 A2971 RMK SLP059 T03020250 52013 IEM_DS3505
ZHHH,2008-08-07 01:00,ZHHH 070100Z AUTO 06008KT 6SM 32/28 A2971 RMK T03200280 IEM_DS3505
ZHHH,2008-08-07 02:00,ZHHH 070200Z AUTO 09008KT 6SM 32/28 A2971 RMK T03200280 IEM_DS3505
ZHHH,2008-08-07 03:00,ZHHH 070300Z AUTO 11004KT 16SM 34/24 A2974 RMK SLP061 T03390236 52002 IEM_DS3505
ZHHH,2008-08-07 04:00,ZHHH 070400Z AUTO 08006KT 7SM 34/28 A2971 RMK T03400280 IEM_DS3505
ZHHH,2008-08-07 05:00,ZHHH 070500Z AUTO 11006KT 7SM 35/28 A2971 RMK T03500280 IEM_DS3505
ZHHH,2008-08-07 06:00,ZHHH 070600Z AUTO 02006KT 12SM 34/24 A2968 RMK SLP047 T03440237 57014 IEM_DS3505
ZHHH,2008-08-07 07:00,ZHHH 070700Z AUTO 12008KT 7SM 35/27 A2968 RMK T03500270 IEM_DS3505
ZHHH,2008-08-07 08:00,ZHHH 070800Z AUTO 13006KT 7SM 35/28 A2965 RMK T03500280 IEM_DS3505
ZHHH,2008-08-07 09:00,ZHHH 070900Z AUTO 02004KT 12SM 35/23 A2965 RMK SLP031 T03500230 57016 IEM_DS3505
ZHHH,2008-08-07 10:00,ZHHH 071000Z AUTO 14006KT 7SM 34/28 A2965 RMK T03400280 IEM_DS3505
ZHHH,2008-08-07 11:00,ZHHH 071100Z AUTO 05012G27KT 7SM 31/27 A2968 RMK T03100270 IEM_DS3505
ZHHH,2008-08-07 12:00,ZHHH 071200Z AUTO 04006KT 11SM 31/23 A2968 RMK SLP046 T03060233 52015 IEM_DS3505
ZHHH,2008-08-07 13:00,ZHHH 071300Z AUTO 09006KT 7SM 28/27 A2968 RMK T02800270 IEM_DS3505
ZHHH,2008-08-07 14:00,ZHHH 071400Z AUTO 00000KT 7SM 28/27 A2971 RMK T02800270 IEM_DS3505
ZHHH,2008-08-07 15:00,ZHHH 071500Z AUTO 04004KT 12SM 30/24 A2971 RMK SLP058 T03040243 52012 IEM_DS3505
ZHHH,2008-08-07 16:00,ZHHH 071600Z AUTO 11008KT 6SM 28/26 A2971 RMK T02800260 IEM_DS3505
ZHHH,2008-08-07 17:00,ZHHH 071700Z AUTO 06004KT 6SM 28/26 A2971 RMK T02800260 IEM_DS3505
ZHHH,2008-08-07 18:00,ZHHH 071800Z AUTO 04002KT 12SM 30/24 A2971 RMK SLP054 T02950237 57004 IEM_DS3505
ZHHH,2008-08-07 19:00,ZHHH 071900Z AUTO 08006KT 6SM 27/26 A2971 RMK T02700260 IEM_DS3505
ZHHH,2008-08-07 20:00,ZHHH 072000Z AUTO 10008KT 6SM 27/26 A2968 RMK T02700260 IEM_DS3505
ZHHH,2008-08-07 21:00,ZHHH 072100Z AUTO 07004KT 12SM 28/24 A2971 RMK SLP053 T02830245 57001 IEM_DS3505
ZHHH,2008-08-07 22:00,ZHHH 072200Z AUTO 07006KT 6SM 27/26 A2971 RMK T02700260 IEM_DS3505
ZHHH,2008-08-07 23:00,ZHHH 072300Z AUTO 07006KT 6SM 27/27 A2971 RMK T02700270 IEM_DS3505
ZHHH,2008-08-08 00:00,ZHHH 080000Z AUTO 09004KT 12SM 31/24 A2974 RMK SLP064 T03110240 52011 IEM_DS3505
ZHHH,2008-08-08 01:00,ZHHH 080100Z AUTO 11006KT 6SM 31/28 A2974 RMK T03100280 IEM_DS3505
ZHHH,2008-08-08 02:00,ZHHH 080200Z AUTO 12006KT 6SM 32/27 A2974 RMK T03200270 IEM_DS3505
ZHHH,2008-08-08 03:00,ZHHH 080300Z AUTO 09002KT 12SM 34/23 A2974 RMK SLP063 T03370234 57001 IEM_DS3505
ZHHH,2008-08-08 04:00,ZHHH 080400Z AUTO 7SM 34/28 A2971 RMK T03400280 IEM_DS3505
ZHHH,2008-08-08 05:00,ZHHH 080500Z AUTO 10004KT 7SM 35/27 A2971 RMK T03500270 IEM_DS3505
ZHHH,2008-08-08 06:00,ZHHH 080600Z AUTO 04004KT 12SM 36/22 A2968 RMK SLP046 T03560225 57017 IEM_DS3505
ZHHH,2008-08-08 07:00,ZHHH 080700Z AUTO 10006KT 7SM 35/25 A2965 RMK T03500250 IEM_DS3505
ZHHH,2008-08-08 08:00,ZHHH 080800Z AUTO 09008KT 7SM 36/26 A2965 RMK T03600260 IEM_DS3505
ZHHH,2008-08-08 09:00,ZHHH 080900Z AUTO 04006KT 12SM 36/20 A2965 RMK SLP031 T03550202 57015 IEM_DS3505
ZHHH,2008-08-08 10:00,ZHHH 081000Z AUTO 11006KT 7SM 34/26 A2962 RMK T03400260 IEM_DS3505
ZHHH,2008-08-08 11:00,ZHHH 081100Z AUTO 13006KT 7SM 33/26 A2962 RMK T03300260 IEM_DS3505
ZHHH,2008-08-08 12:00,ZHHH 081200Z AUTO 04002KT 12SM 33/23 A2965 RMK SLP034 T03260230 52003 IEM_DS3505
ZHHH,2008-08-08 13:00,ZHHH 081300Z AUTO 04006KT 6SM 31/28 A2968 RMK T03100280 IEM_DS3505
ZHHH,2008-08-08 14:00,ZHHH 081400Z AUTO 04006KT 6SM 30/28 A2968 RMK T03000280 IEM_DS3505
ZHHH,2008-08-08 15:00,ZHHH 081500Z AUTO 02004KT 12SM 31/25 A2968 RMK SLP047 T03090253 52013 IEM_DS3505
ZHHH,2008-08-08 16:00,ZHHH 081600Z AUTO 06008KT 3SM 29/27 A2968 RMK T02900270 IEM_DS3505
ZHHH,2008-08-08 17:00,ZHHH 081700Z AUTO 07008KT 3SM 28/27 A2968 RMK T02800270 IEM_DS3505
ZHHH,2008-08-08 18:00,ZHHH 081800Z AUTO 04002KT 12SM 30/25 A2968 RMK SLP042 T02970254 57005 IEM_DS3505
ZHHH,2008-08-08 19:00,ZHHH 081900Z AUTO 09008KT 3SM 28/27 A2965 RMK T02800270 IEM_DS3505
ZHHH,2008-08-08 20:00,ZHHH 082000Z AUTO 10008KT 3SM 27/27 A2965 RMK T02700270 IEM_DS3505
ZHHH,2008-08-08 21:00,ZHHH 082100Z AUTO 16002KT 12SM 29/24 A2965 RMK SLP041 T02920239 57001 IEM_DS3505
ZHHH,2008-08-08 22:00,ZHHH 082200Z AUTO 11006KT 2 1/2SM 27/27 A2965 RMK T02700270 IEM_DS3505
ZHHH,2008-08-08 23:00,ZHHH 082300Z AUTO 07006KT 2 1/2SM 28/27 A2968 RMK T02800270 IEM_DS3505
ZHHH,2008-08-09 00:00,ZHHH 090000Z AUTO 27002KT 12SM 30/24 A2968 RMK SLP047 T03040243 52006 IEM_DS3505
ZHHH,2008-08-09 01:00,ZHHH 090100Z AUTO 13004KT 2 1/2SM 31/27 A2968 RMK T03100270 IEM_DS3505
ZHHH,2008-08-09 02:00,ZHHH 090200Z AUTO 2 1/2SM 32/28 A2968 RMK T03200280 IEM_DS3505
ZHHH,2008-08-09 03:00,ZHHH 090300Z AUTO 27004KT 11SM 32/25 A2968 RMK SLP043 T03240250 57004 IEM_DS3505
ZHHH,2008-08-09 04:00,ZHHH 090400Z AUTO 30004KT 3SM 33/28 A2965 RMK T03300280 IEM_DS3505
ZHHH,2008-08-09 05:00,ZHHH 090500Z AUTO 30004KT 3SM 34/28 A2965 RMK T03400280 IEM_DS3505
ZHHH,2008-08-09 06:00,ZHHH 090600Z AUTO 11002KT 12SM 33/23 A2962 RMK SLP028 T03340228 57015 IEM_DS3505
ZHHH,2008-08-09 07:00,ZHHH 090700Z AUTO 25004KT 4SM 34/28 A2962 RMK T03400280 IEM_DS3505
ZHHH,2008-08-09 08:00,ZHHH 090800Z AUTO 11004KT 4SM 33/28 A2959 RMK T03300280 IEM_DS3505
ZHHH,2008-08-09 09:00,ZHHH 090900Z AUTO 02002KT 11SM 34/23 A2959 RMK SLP017 T03390233 57011 IEM_DS3505
ZHHH,2008-08-09 10:00,ZHHH 091000Z AUTO 00000KT 6SM 33/27 A2959 RMK T03300270 IEM_DS3505
ZHHH,2008-08-09 11:00,ZHHH 091100Z AUTO 32002KT 6SM 32/28 A2959 RMK T03200280 IEM_DS3505
ZHHH,2008-08-09 12:00,ZHHH 091200Z AUTO 34004KT 11SM 32/23 A2962 RMK SLP029 T03210234 52012 IEM_DS3505
ZHHH,2008-08-09 13:00,ZHHH 091300Z AUTO 04008KT 6SM 30/26 A2965 RMK T03000260 IEM_DS3505
ZHHH,2008-08-09 14:00,ZHHH 091400Z AUTO 05008KT 6SM 29/26 A2965 RMK T02900260 IEM_DS3505
ZHHH,2008-08-09 15:00,ZHHH 091500Z AUTO 07004KT 11SM 30/23 A2965 RMK SLP037 T02970234 52008 IEM_DS3505
ZHHH,2008-08-09 16:00,ZHHH 091600Z AUTO 05006KT 6SM 27/25 A2965 RMK T02700250 IEM_DS3505
ZHHH,2008-08-09 17:00,ZHHH 091700Z AUTO 6SM 26/25 A2965 RMK T02600250 IEM_DS3505
ZHHH,2008-08-09 18:00,ZHHH 091800Z AUTO 04004KT 11SM 28/23 A2965 RMK SLP035 T02820229 57002 IEM_DS3505
ZHHH,2008-08-09 19:00,ZHHH 091900Z AUTO 04004KT 3SM 26/25 A2965 RMK T02600250 IEM_DS3505
ZHHH,2008-08-09 20:00,ZHHH 092000Z AUTO 04004KT 3SM 25/24 A2965 RMK T02500240 IEM_DS3505
ZHHH,2008-08-09 21:00,ZHHH 092100Z AUTO 04004KT 11SM 27/23 A2965 RMK SLP035 T02660227 54000 IEM_DS3505
ZHHH,2008-08-09 22:00,ZHHH 092200Z AUTO 05004KT 2SM 24/24 A2965 RMK T02400240 IEM_DS3505
ZHHH,2008-08-09 23:00,ZHHH 092300Z AUTO 04004KT 2SM 25/25 A2965 RMK T02500250 IEM_DS3505
ZHHH,2008-08-10 00:00,ZHHH 100000Z AUTO 04004KT 16SM 28/23 A2968 RMK SLP045 T02770231 52010 IEM_DS3505
ZHHH,2008-08-10 01:00,ZHHH 100100Z AUTO 04006KT 3SM 29/26 A2968 RMK T02900260 IEM_DS3505
ZHHH,2008-08-10 02:00,ZHHH 100200Z AUTO 01004KT 3SM 31/26 A2968 RMK T03100260 IEM_DS3505
ZHHH,2008-08-10 03:00,ZHHH 100300Z AUTO 34006KT 16SM 31/23 A2968 RMK SLP047 T03090228 52002 IEM_DS3505
ZHHH,2008-08-10 04:00,ZHHH 100400Z AUTO 30006KT 6SM 32/25 A2968 RMK T03200250 IEM_DS3505
ZHHH,2008-08-10 05:00,ZHHH 100500Z AUTO 29006KT 6SM 32/25 A2965 RMK T03200250 IEM_DS3505
ZHHH,2008-08-10 06:00,ZHHH 100600Z AUTO 34004KT 16SM 33/19 A2965 RMK SLP033 T03280186 57014 IEM_DS3505
ZHHH,2008-08-10 07:00,ZHHH 100700Z AUTO 36004KT 6SM 34/24 A2962 RMK T03400240 IEM_DS3505
ZHHH,2008-08-10 08:00,ZHHH 100800Z AUTO 02004KT 6SM 35/23 A2959 RMK T03500230 IEM_DS3505
ZHHH,2008-08-10 09:00,ZHHH 100900Z AUTO 32004KT 16SM 33/20 A2959 RMK SLP015 T03340202 57018 IEM_DS3505
ZHHH,2008-08-10 10:00,ZHHH 101000Z AUTO 03006KT 6SM 33/22 A2959 RMK T03300220 IEM_DS3505
ZHHH,2008-08-10 11:00,ZHHH 101100Z AUTO 02004KT 6SM 31/23 A2959 RMK T03100230 IEM_DS3505
ZHHH,2008-08-10 12:00,ZHHH 101200Z AUTO 00000KT 9SM 31/20 A2962 RMK SLP027 T03080201 52012 IEM_DS3505
ZHHH,2008-08-10 13:00,ZHHH 101300Z AUTO 03004KT 6SM 30/26 A2965 RMK T03000260 IEM_DS3505
ZHHH,2008-08-10 14:00,ZHHH 101400Z AUTO 04006KT 4SM 29/26 A2965 RMK T02900260 IEM_DS3505
ZHHH,2008-08-10 15:00,ZHHH 101500Z AUTO 36002KT 9SM 30/24 A2968 RMK SLP045 T02980235 52018 IEM_DS3505
ZHHH,2008-08-10 16:00,ZHHH 101600Z AUTO 02004KT 3SM 29/26 A2968 RMK T02900260 IEM_DS3505
ZHHH,2008-08-10 17:00,ZHHH 101700Z AUTO 34004KT 3SM 27/26 A2965 RMK T02700260 IEM_DS3505
ZHHH,2008-08-10 18:00,ZHHH 101800Z AUTO 02002KT 9SM 28/24 A2965 RMK SLP039 T02850245 57006 IEM_DS3505
ZHHH,2008-08-10 19:00,ZHHH 101900Z AUTO 36002KT 3SM 27/26 A2965 RMK T02700260 IEM_DS3505
ZHHH,2008-08-10 20:00,ZHHH 102000Z AUTO 34004KT 2SM 27/26 A2965 RMK T02700260 IEM_DS3505
ZHHH,2008-08-10 21:00,ZHHH 102100Z AUTO 27002KT 7SM 27/25 A2965 RMK SLP037 T02710246 57002 IEM_DS3505
ZHHH,2008-08-10 22:00,ZHHH 102200Z AUTO 08002KT 2SM 26/26 A2965 RMK T02600260 IEM_DS3505
ZHHH,2008-08-10 23:00,ZHHH 102300Z AUTO 00000KT 2SM 27/26 A2968 RMK T02700260 IEM_DS3505
ZHHH,2008-08-11 00:00,ZHHH 110000Z AUTO 32004KT 9SM 29/25 A2968 RMK SLP050 T02920254 52013 IEM_DS3505
ZHHH,2008-08-11 01:00,ZHHH 110100Z AUTO 3SM 30/27 A2971 RMK T03000270 IEM_DS3505
ZHHH,2008-08-11 02:00,ZHHH 110200Z AUTO 5SM 32/28 A2971 RMK T03200280 IEM_DS3505
ZHHH,2008-08-11 03:00,ZHHH 110300Z AUTO 29004KT 9SM 32/24 A2971 RMK SLP058 T03190242 52008 IEM_DS3505
ZHHH,2008-08-11 04:00,ZHHH 110400Z AUTO 29004KT 7SM 33/28 A2971 RMK T03300280 IEM_DS3505
ZHHH,2008-08-11 05:00,ZHHH 110500Z AUTO 28004KT 7SM 34/27 A2968 RMK T03400270 IEM_DS3505
ZHHH,2008-08-11 06:00,ZHHH 110600Z AUTO 27006KT 9SM 34/23 A2965 RMK SLP043 T03450229 57015 IEM_DS3505
ZHHH,2008-08-11 07:00,ZHHH 110700Z AUTO 32006KT 6SM 35/27 A2965 RMK T03500270 IEM_DS3505
ZHHH,2008-08-11 08:00,ZHHH 110800Z AUTO 32006KT 6SM 35/27 A2965 RMK T03500270 IEM_DS3505
ZHHH,2008-08-11 09:00,ZHHH 110900Z AUTO 29004KT 9SM 34/22 A2965 RMK SLP034 T03360221 57009 IEM_DS3505
ZHHH,2008-08-11 10:00,ZHHH 111000Z AUTO 34006KT 4SM 31/27 A2965 RMK T03100270 IEM_DS3505
ZHHH,2008-08-11 11:00,ZHHH 111100Z AUTO 06008KT 6SM 29/25 A2968 RMK T02900250 IEM_DS3505
ZHHH,2008-08-11 12:00,ZHHH 111200Z AUTO 04002KT 9SM 30/23 A2971 RMK SLP053 T03040233 52019 IEM_DS3505
ZHHH,2008-08-11 13:00,ZHHH 111300Z AUTO 08008KT 6SM 28/25 A2971 RMK T02800250 IEM_DS3505
ZHHH,2008-08-11 14:00,ZHHH 111400Z AUTO 10006KT 6SM 27/25 A2974 RMK T02700250 IEM_DS3505
ZHHH,2008-08-11 15:00,ZHHH 111500Z AUTO 04002KT 9SM 29/23 A2974 RMK SLP069 T02910228 52016 IEM_DS3505
ZHHH,2008-08-11 16:00,ZHHH 111600Z AUTO 6SM 27/25 A2974 RMK T02700250 IEM_DS3505
ZHHH,2008-08-11 17:00,ZHHH 111700Z AUTO 02004KT 4SM 27/25 A2974 RMK T02700250 IEM_DS3505
ZHHH,2008-08-11 18:00,ZHHH 111800Z AUTO 04002KT 9SM 28/25 A2971 RMK SLP062 T02850247 57007 IEM_DS3505
ZHHH,2008-08-11 19:00,ZHHH 111900Z AUTO 07004KT 4SM 26/25 A2971 RMK T02600250 IEM_DS3505
ZHHH,2008-08-11 20:00,ZHHH 112000Z AUTO 03004KT 4SM 26/25 A2974 RMK T02600250 IEM_DS3505
ZHHH,2008-08-11 21:00,ZHHH 112100Z AUTO 04002KT 9SM 28/24 A2974 RMK SLP065 T02780242 52003 IEM_DS3505
ZHHH,2008-08-11 22:00,ZHHH 112200Z AUTO 09006KT 4SM 26/25 A2974 RMK T02600250 IEM_DS3505
ZHHH,2008-08-11 23:00,ZHHH 112300Z AUTO 09008KT 4SM 26/25 A2974 RMK T02600250 IEM_DS3505
ZHHH,2008-08-12 00:00,ZHHH 120000Z AUTO 09004KT 11SM 29/25 A2977 RMK SLP073 T02920247 52008 IEM_DS3505
ZHHH,2008-08-12 01:00,ZHHH 120100Z AUTO 11006KT 4SM 30/27 A2977 RMK T03000270 IEM_DS3505
ZHHH,2008-08-12 02:00,ZHHH 120200Z AUTO 13006KT 4SM 31/28 A2977 RMK T03100280 IEM_DS3505
ZHHH,2008-08-12 03:00,ZHHH 120300Z AUTO 14002KT 9SM 34/22 A2977 RMK SLP077 T03360221 52004 IEM_DS3505
ZHHH,2008-08-12 04:00,ZHHH 120400Z AUTO 32004KT 2 1/2SM 33/28 A2977 RMK T03300280 IEM_DS3505
ZHHH,2008-08-12 05:00,ZHHH 120500Z AUTO 32004KT 2SM 34/28 A2974 RMK T03400280 IEM_DS3505
ZHHH,2008-08-12 06:00,ZHHH 120600Z AUTO 02002KT 9SM 29/23 A2971 RMK 60008 SLP065 T02860228 57013 IEM_DS3505
ZHHH,2008-08-12 07:00,ZHHH 120700Z AUTO 18004KT 4SM 32/27 A2971 RMK T03200270 IEM_DS3505
ZHHH,2008-08-12 08:00,ZHHH 120800Z AUTO 4SM 34/28 A2968 RMK T03400280 IEM_DS3505
ZHHH,2008-08-12 09:00,ZHHH 120900Z AUTO 04002KT 11SM 34/24 A2968 RMK SLP049 T03370240 57015 IEM_DS3505
ZHHH,2008-08-12 10:00,ZHHH 121000Z AUTO 00000KT 4SM 33/27 A2971 RMK T03300270 IEM_DS3505
ZHHH,2008-08-12 11:00,ZHHH 121100Z AUTO 00000KT 4SM 32/27 A2971 RMK T03200270 IEM_DS3505
ZHHH,2008-08-12 12:00,ZHHH 121200Z AUTO 00000KT 9SM 31/26 A2974 RMK SLP065 T03090257 52016 IEM_DS3505
ZHHH,2008-08-12 13:00,ZHHH 121300Z AUTO 2 1/2SM 31/27 A2974 RMK T03100270 IEM_DS3505
ZHHH,2008-08-12 14:00,ZHHH 121400Z AUTO 00000KT 2SM 31/28 A2977 RMK T03100280 IEM_DS3505
ZHHH,2008-08-12 15:00,ZHHH 121500Z AUTO 16002KT 9SM 31/25 A2977 RMK SLP078 T03060250 52013 IEM_DS3505
ZHHH,2008-08-12 16:00,ZHHH 121600Z AUTO 22004KT 1 1/2SM 30/28 A2977 RMK T03000280 IEM_DS3505
ZHHH,2008-08-12 17:00,ZHHH 121700Z AUTO 21004KT 1SM 29/28 A2974 RMK T02900280 IEM_DS3505
ZHHH,2008-08-12 18:00,ZHHH 121800Z AUTO 22002KT 7SM 30/25 A2974 RMK SLP071 T02950246 57008 IEM_DS3505
ZHHH,2008-08-12 19:00,ZHHH 121900Z AUTO 22004KT 1SM 29/27 A2974 RMK T02900270 IEM_DS3505
ZHHH,2008-08-12 20:00,ZHHH 122000Z AUTO 09004KT 1SM 28/27 A2974 RMK T02800270 IEM_DS3505
ZHHH,2008-08-12 21:00,ZHHH 122100Z AUTO 14002KT 6SM 29/24 A2974 RMK 70006 SLP064 T02890245 57006 IEM_DS3505
ZHHH,2008-08-12 22:00,ZHHH 122200Z AUTO 06002KT 1SM 28/27 A2974 RMK T02800270 IEM_DS3505
ZHHH,2008-08-12 23:00,ZHHH 122300Z AUTO 12006KT 1SM 28/27 A2974 RMK T02800270 IEM_DS3505
ZHHH,2008-08-13 00:00,ZHHH 130000Z AUTO 16002KT 7SM 30/24 A2977 RMK 70006 SLP078 T02980244 52014 IEM_DS3505
ZHHH,2008-08-13 01:00,ZHHH 130100Z AUTO 17004KT 1 1/4SM 30/27 A2977 RMK T03000270 IEM_DS3505
ZHHH,2008-08-13 02:00,ZHHH 130200Z AUTO 19008KT 2SM 32/27 A2977 RMK T03200270 IEM_DS3505
ZHHH,2008-08-13 03:00,ZHHH 130300Z AUTO 25006KT 9SM 34/23 A2977 RMK SLP074 T03350232 57004 IEM_DS3505
ZHHH,2008-08-13 04:00,ZHHH 130400Z AUTO 18006KT 4SM 35/27 A2974 RMK T03500270 IEM_DS3505
ZHHH,2008-08-13 05:00,ZHHH 130500Z AUTO 20010KT 7SM 35/27 A2971 RMK T03500270 IEM_DS3505
ZHHH,2008-08-13 06:00,ZHHH 130600Z AUTO 22004KT 14SM 35/23 A2971 RMK SLP055 T03470227 57019 IEM_DS3505
ZHHH,2008-08-13 07:00,ZHHH 130700Z AUTO 21012KT 7SM 35/26 A2968 RMK T03500260 IEM_DS3505
ZHHH,2008-08-13 08:00,ZHHH 130800Z AUTO 24010KT 7SM 35/27 A2965 RMK T03500270 IEM_DS3505
ZHHH,2008-08-13 09:00,ZHHH 130900Z AUTO 22006KT 14SM 34/22 A2968 RMK SLP047 T03350223 57008 IEM_DS3505
ZHHH,2008-08-13 10:00,ZHHH 131000Z AUTO 24008KT 7SM 32/27 A2968 RMK T03200270 IEM_DS3505
ZHHH,2008-08-13 11:00,ZHHH 131100Z AUTO 24006KT 6SM 32/26 A2968 RMK T03200260 IEM_DS3505
ZHHH,2008-08-13 12:00,ZHHH 131200Z AUTO 14004KT 11SM 31/24 A2968 RMK SLP046 T03120236 57001 IEM_DS3505
ZHHH,2008-08-13 13:00,ZHHH 131300Z AUTO 00000KT 7SM 31/27 A2971 RMK T03100270 IEM_DS3505
ZHHH,2008-08-13 14:00,ZHHH 131400Z AUTO 12002KT 6SM 30/27 A2971 RMK T03000270 IEM_DS3505
ZHHH,2008-08-13 15:00,ZHHH 131500Z AUTO 16002KT 11SM 31/23 A2968 RMK SLP049 T03110232 52003 IEM_DS3505
ZHHH,2008-08-13 16:00,ZHHH 131600Z AUTO 11006KT 6SM 28/27 A2968 RMK T02800270 IEM_DS3505
ZHHH,2008-08-13 17:00,ZHHH 131700Z AUTO 12008KT 3SM 28/27 A2965 RMK T02800270 IEM_DS3505
ZHHH,2008-08-13 18:00,ZHHH 131800Z AUTO 27008KT 6SM 24/23 RMK 60004 SLP044 T02450228 57005 IEM_DS3505
ZHHH,2008-08-13 19:00,ZHHH 131900Z AUTO 24010KT 4SM 25/24 A2962 RMK T02500240 IEM_DS3505
ZHHH,2008-08-13 20:00,ZHHH 132000Z AUTO 34004KT 1 1/4SM 25/25 A2962 RMK T02500250 IEM_DS3505
ZHHH,2008-08-13 21:00,ZHHH 132100Z AUTO 09002KT 6SM 25/24 A2962 RMK 70192 SLP028 T02510239 57016 IEM_DS3505
ZHHH,2008-08-13 23:00,ZHHH 132300Z AUTO 34006KT 7SM 25/24 A2962 RMK T02500240 IEM_DS3505
ZHHH,2008-08-14 00:00,ZHHH 140000Z AUTO 02004KT 9SM 26/24 RMK 60189 70194 SLP041 T02600240 52013 IEM_DS3505
ZHHH,2008-08-14 01:00,ZHHH 140100Z AUTO 09008KT 7SM 25/24 A2965 RMK T02500240 IEM_DS3505
ZHHH,2008-08-14 02:00,ZHHH 140200Z AUTO 12008KT 7SM 25/25 A2965 RMK T02500250 IEM_DS3505
ZHHH,2008-08-14 03:00,ZHHH 140300Z AUTO 11004KT 9SM 28/24 A2965 RMK SLP040 T02770241 57001 IEM_DS3505
ZHHH,2008-08-14 04:00,ZHHH 140400Z AUTO 15008KT 7SM 28/26 A2965 RMK T02800260 IEM_DS3505
ZHHH,2008-08-14 05:00,ZHHH 140500Z AUTO 14008KT 7SM 29/27 A2962 RMK T02900270 IEM_DS3505
ZHHH,2008-08-14 06:00,ZHHH 140600Z AUTO 16004KT 9SM 31/25 A2959 RMK 60002 SLP017 T03130247 57023 IEM_DS3505
ZHHH,2008-08-14 07:00,ZHHH 140700Z AUTO 15002KT 7SM 30/27 RMK T03000270 IEM_DS3505
ZHHH,2008-08-14 08:00,ZHHH 140800Z AUTO 16006KT 7SM 30/28 A2956 RMK T03000280 IEM_DS3505
ZHHH,2008-08-14 09:00,ZHHH 140900Z AUTO 36002KT 6SM 26/24 A2956 RMK SLP016 T02590241 57002 IEM_DS3505
ZHHH,2008-08-14 10:00,ZHHH 141000Z AUTO 07004KT 7SM 24/24 A2956 RMK T02400240 IEM_DS3505
ZHHH,2008-08-14 11:00,ZHHH 141100Z AUTO 05002KT 7SM 26/26 A2956 RMK T02600260 IEM_DS3505
ZHHH,2008-08-14 12:00,ZHHH 141200Z AUTO 11002KT 11SM 27/25 A2959 RMK 60098 SLP015 T02740248 57001 IEM_DS3505
ZHHH,2008-08-14 13:00,ZHHH 141300Z AUTO 05006KT 7SM 25/25 A2962 RMK T02500250 IEM_DS3505
ZHHH,2008-08-14 14:00,ZHHH 141400Z AUTO 10006KT 7SM 25/25 A2962 RMK T02500250 IEM_DS3505
ZHHH,2008-08-14 15:00,ZHHH 141500Z AUTO 07002KT 11SM 27/24 A2959 RMK SLP021 T02660244 52006 IEM_DS3505
ZHHH,2008-08-14 16:00,ZHHH 141600Z AUTO 08004KT 7SM 25/25 A2959 RMK T02500250 IEM_DS3505
ZHHH,2008-08-14 17:00,ZHHH 141700Z AUTO 07006KT 7SM 26/26 A2959 RMK T02600260 IEM_DS3505
ZHHH,2008-08-14 18:00,ZHHH 141800Z AUTO 04002KT 9SM 26/24 A2956 RMK SLP010 T02630245 57010 IEM_DS3505
ZHHH,2008-08-14 19:00,ZHHH 141900Z AUTO 05006KT 4SM 25/25 A2956 RMK T02500250 IEM_DS3505
ZHHH,2008-08-14 20:00,ZHHH 142000Z AUTO 05006KT 4SM 25/25 A2956 RMK T02500250 IEM_DS3505
ZHHH,2008-08-14 21:00,ZHHH 142100Z AUTO 04004KT 9SM 26/24 A2953 RMK 70102 SLP001 T02630245 57010 IEM_DS3505
ZHHH,2008-08-14 22:00,ZHHH 142200Z AUTO 07008KT 5SM 25/25 A2953 RMK T02500250 IEM_DS3505
ZHHH,2008-08-14 23:00,ZHHH 142300Z AUTO 06008KT 7SM 26/26 A2956 RMK T02600260 IEM_DS3505
ZHHH,2008-08-15 00:00,ZHHH 150000Z AUTO 04004KT 6SM 27/24 A2956 RMK 60000 70100 SLP014 T02660241 52013 IEM_DS3505
ZHHH,2008-08-15 01:00,ZHHH 150100Z AUTO 07010KT 7SM 27/26 A2959 RMK T02700260 IEM_DS3505
ZHHH,2008-08-15 02:00,ZHHH 150200Z AUTO 08010KT 2SM 25/25 A2959 RMK T02500250 IEM_DS3505
ZHHH,2008-08-15 03:00,ZHHH 150300Z AUTO 07004KT 6SM 26/25 A2959 RMK SLP016 T02580246 52002 IEM_DS3505
ZHHH,2008-08-15 04:00,ZHHH 150400Z AUTO 06010KT 1 1/2SM 25/25 A2959 RMK T02500250 IEM_DS3505
ZHHH,2008-08-15 05:00,ZHHH 150500Z AUTO 05006KT 1 1/2SM 25/25 A2956 RMK T02500250 IEM_DS3505
ZHHH,2008-08-15 06:00,ZHHH 150600Z AUTO 07004KT 6SM 26/24 A2956 RMK 60185 SLP009 T02590239 57007 IEM_DS3505
ZHHH,2008-08-15 07:00,ZHHH 150700Z AUTO 06008KT 1 1/2SM 26/25 A2953 RMK T02600250 IEM_DS3505
ZHHH,2008-08-15 08:00,ZHHH 150800Z AUTO 05008KT 2 1/2SM 26/25 A2953 RMK T02600250 IEM_DS3505
ZHHH,2008-08-15 09:00,ZHHH 150900Z AUTO 07004KT 6SM 26/24 A2953 RMK SLP003 T02600240 57006 IEM_DS3505
ZHHH,2008-08-15 10:00,ZHHH 151000Z AUTO 07010KT 2 1/2SM 25/25 A2956 RMK T02500250 IEM_DS3505
ZHHH,2008-08-15 11:00,ZHHH 151100Z AUTO 04006KT 2 1/2SM 25/25 A2956 RMK T02500250 IEM_DS3505
ZHHH,2008-08-15 12:00,ZHHH 151200Z AUTO 07006KT 6SM 26/24 A2956 RMK 60016 SLP012 T02550237 52009 IEM_DS3505
ZHHH,2008-08-15 13:00,ZHHH 151300Z AUTO 07008KT 2SM 25/25 A2959 RMK T02500250 IEM_DS3505
ZHHH,2008-08-15 14:00,ZHHH 151400Z AUTO 04004KT 1 1/2SM 24/24 A2959 RMK T02400240 IEM_DS3505
ZHHH,2008-08-15 15:00,ZHHH 151500Z AUTO 07002KT 6SM 25/24 A2959 RMK SLP021 T02540236 52009 IEM_DS3505
ZHHH,2008-08-15 16:00,ZHHH 151600Z AUTO 06008KT 2SM 24/24 A2959 RMK T02400240 IEM_DS3505
ZHHH,2008-08-15 17:00,ZHHH 151700Z AUTO 03004KT 2SM 24/24 A2956 RMK T02400240 IEM_DS3505
ZHHH,2008-08-15 18:00,ZHHH 151800Z AUTO 04004KT 6SM 24/23 A2956 RMK 60020 SLP003 T02450231 57018 IEM_DS3505
ZHHH,2008-08-15 19:00,ZHHH 151900Z AUTO 05012KT 1SM 23/23 A2953 RMK T02300230 IEM_DS3505
ZHHH,2008-08-15 20:00,ZHHH 152000Z AUTO 08010KT 1SM 24/24 A2953 RMK T02400240 IEM_DS3505
ZHHH,2008-08-15 21:00,ZHHH 152100Z AUTO 07004KT 5SM 24/23 A2953 RMK 70240 SLP996 T02450233 57007 IEM_DS3505
ZHHH,2008-08-15 22:00,ZHHH 152200Z AUTO 08010KT 1 1/4SM 24/24 A2953 RMK T02400240 IEM_DS3505
ZHHH,2008-08-15 23:00,ZHHH 152300Z AUTO 08012KT 1 1/4SM 24/24 A2953 RMK T02400240 IEM_DS3505
ZHHH,2008-08-16 00:00,ZHHH 160000Z AUTO 11002KT 6SM 25/24 A2953 RMK 60028 70244 SLP002 T02510239 52006 IEM_DS3505
ZHHH,2008-08-16 01:00,ZHHH 160100Z AUTO 10008KT 1SM 24/24 A2956 RMK T02400240 IEM_DS3505
ZHHH,2008-08-16 02:00,ZHHH 160200Z AUTO 10010KT 1 1/4SM 25/25 A2956 RMK T02500250 IEM_DS3505
ZHHH,2008-08-16 03:00,ZHHH 160300Z AUTO 09004KT 6SM 27/25 A2953 RMK SLP002 T02710247 54000 IEM_DS3505
ZHHH,2008-08-16 04:00,ZHHH 160400Z AUTO 11012KT 1 1/2SM 26/26 A2953 RMK T02600260 IEM_DS3505
ZHHH,2008-08-16 05:00,ZHHH 160500Z AUTO 12012KT 1 1/2SM 27/27 A2953 RMK T02700270 IEM_DS3505
ZHHH,2008-08-16 06:00,ZHHH 160600Z AUTO 11002KT 6SM 28/25 A2950 RMK 60012 SLP990 T02790251 57012 IEM_DS3505
ZHHH,2008-08-16 07:00,ZHHH 160700Z AUTO 12010KT 1SM 27/27 A2947 RMK T02700270 IEM_DS3505
ZHHH,2008-08-16 08:00,ZHHH 160800Z AUTO 28004KT 2 1/2SM 25/25 A2950 RMK T02500250 IEM_DS3505
ZHHH,2008-08-16 09:00,ZHHH 160900Z AUTO 20004KT 9SM 27/25 A2950 RMK SLP993 T02700246 52003 IEM_DS3505
ZHHH,2008-08-16 10:00,ZHHH 161000Z AUTO 20006KT 4SM 26/26 A2953 RMK T02600260 IEM_DS3505
ZHHH,2008-08-16 11:00,ZHHH 161100Z AUTO 2 1/2SM 26/26 A2953 RMK T02600260 IEM_DS3505
ZHHH,2008-08-16 12:00,ZHHH 161200Z AUTO 29002KT 7SM 26/25 A2953 RMK 60020 SLP998 T02640246 52005 IEM_DS3505
ZHHH,2008-08-16 13:00,ZHHH 161300Z AUTO 32002KT 3SM 25/25 A2956 RMK T02500250 IEM_DS3505
ZHHH,2008-08-16 14:00,ZHHH 161400Z AUTO 3SM 25/25 A2959 RMK T02500250 IEM_DS3505
ZHHH,2008-08-16 15:00,ZHHH 161500Z AUTO 27004KT 7SM 24/23 A2959 RMK SLP017 T02430227 52019 IEM_DS3505
ZHHH,2008-08-16 16:00,ZHHH 161600Z AUTO 31010KT 5SM 23/23 A2959 RMK T02300230 IEM_DS3505
ZHHH,2008-08-16 17:00,ZHHH 161700Z AUTO 32008KT 7SM 22/22 A2959 RMK T02200220 IEM_DS3505
ZHHH,2008-08-16 18:00,ZHHH 161800Z AUTO 29004KT 11SM 23/20 A2959 RMK 60000 SLP020 T02260205 52003 IEM_DS3505
ZHHH,2008-08-16 19:00,ZHHH 161900Z AUTO 33008KT 7SM 22/22 A2959 RMK T02200220 IEM_DS3505
ZHHH,2008-08-16 20:00,ZHHH 162000Z AUTO 33006KT 7SM 22/22 A2959 RMK T02200220 IEM_DS3505
ZHHH,2008-08-16 21:00,ZHHH 162100Z AUTO 27002KT 9SM 22/20 A2959 RMK 70037 SLP021 T02200203 52001 IEM_DS3505
ZHHH,2008-08-16 22:00,ZHHH 162200Z AUTO 32008KT 7SM 21/21 A2962 RMK T02100210 IEM_DS3505
ZHHH,2008-08-16 23:00,ZHHH 162300Z AUTO 33006KT 2SM 21/21 A2962 RMK T02100210 IEM_DS3505
ZHHH,2008-08-17 00:00,ZHHH 170000Z AUTO 27004KT 6SM 22/20 A2965 RMK 60000 70033 SLP045 T02160199 52024 IEM_DS3505
ZHHH,2008-08-17 01:00,ZHHH 170100Z AUTO 32006KT 1 1/4SM 21/21 A2968 RMK T02100210 IEM_DS3505
ZHHH,2008-08-17 02:00,ZHHH 170200Z AUTO 33004KT 3SM 22/22 A2968 RMK T02200220 IEM_DS3505
ZHHH,2008-08-17 03:00,ZHHH 170300Z AUTO 29004KT 6SM 22/20 A2971 RMK SLP058 T02210202 52013 IEM_DS3505
ZHHH,2008-08-17 04:00,ZHHH 170400Z AUTO 33006KT 2SM 22/22 A2971 RMK T02200220 IEM_DS3505
ZHHH,2008-08-17 05:00,ZHHH 170500Z AUTO 30006KT 7SM 23/23 A2971 RMK T02300230 IEM_DS3505
ZHHH,2008-08-17 06:00,ZHHH 170600Z AUTO 29004KT 9SM 23/20 A2971 RMK 60000 SLP060 T02330203 52002 IEM_DS3505
ZHHH,2008-08-17 07:00,ZHHH 170700Z AUTO 32006KT 7SM 23/22 A2971 RMK T02300220 IEM_DS3505
ZHHH,2008-08-17 08:00,ZHHH 170800Z AUTO 34006KT 7SM 24/22 A2968 RMK T02400220 IEM_DS3505
ZHHH,2008-08-17 09:00,ZHHH 170900Z AUTO 27004KT 7SM 24/20 A2968 RMK SLP055 T02370202 57005 IEM_DS3505
ZHHH,2008-08-17 10:00,ZHHH 171000Z AUTO 00000KT 4SM 24/22 A2971 RMK T02400220 IEM_DS3505
ZHHH,2008-08-17 11:00,ZHHH 171100Z AUTO 36002KT 3SM 23/22 A2971 RMK T02300220 IEM_DS3505
ZHHH,2008-08-17 12:00,ZHHH 171200Z AUTO 27002KT 7SM 24/21 A2971 RMK 60002 SLP062 T02360209 52007 IEM_DS3505
ZHHH,2008-08-17 13:00,ZHHH 171300Z AUTO 00000KT 3SM 23/22 A2974 RMK T02300220 IEM_DS3505
ZHHH,2008-08-17 14:00,ZHHH 171400Z AUTO 00000KT 2 1/2SM 23/22 A2977 RMK T02300220 IEM_DS3505
ZHHH,2008-08-17 15:00,ZHHH 171500Z AUTO 00000KT 7SM 23/21 A2974 RMK SLP074 T02330212 52012 IEM_DS3505
ZHHH,2008-08-17 16:00,ZHHH 171600Z AUTO 00000KT 2 1/2SM 23/22 A2977 RMK T02300220 IEM_DS3505
ZHHH,2008-08-17 17:00,ZHHH 171700Z AUTO 00000KT 2 1/2SM 23/23 A2977 RMK T02300230 IEM_DS3505
ZHHH,2008-08-17 18:00,ZHHH 171800Z AUTO 27004KT 7SM 23/21 A2977 RMK 60000 SLP077 T02300213 52003 IEM_DS3505
ZHHH,2008-08-17 19:00,ZHHH 171900Z AUTO 00000KT 2SM 23/23 A2977 RMK T02300230 IEM_DS3505
ZHHH,2008-08-17 20:00,ZHHH 172000Z AUTO 00000KT 2SM 23/23 A2977 RMK T02300230 IEM_DS3505
ZHHH,2008-08-17 21:00,ZHHH 172100Z AUTO 27002KT 7SM 23/21 A2977 RMK 70003 SLP078 T02260211 52001 IEM_DS3505
ZHHH,2008-08-17 22:00,ZHHH 172200Z AUTO 1 1/4SM 23/23 A2977 RMK T02300230 IEM_DS3505
ZHHH,2008-08-17 23:00,ZHHH 172300Z AUTO 00000KT 1 1/4SM 23/23 A2980 RMK T02300230 IEM_DS3505
ZHHH,2008-08-18 00:00,ZHHH 180000Z AUTO 20002KT 9SM 24/21 A2980 RMK 70003 SLP089 T02430212 52011 IEM_DS3505
ZHHH,2008-08-18 01:00,ZHHH 180100Z AUTO 20004KT 1 1/2SM 25/23 A2983 RMK T02500230 IEM_DS3505
ZHHH,2008-08-18 02:00,ZHHH 180200Z AUTO 21006KT 2 1/2SM 26/23 A2983 RMK T02600230 IEM_DS3505
ZHHH,2008-08-18 03:00,ZHHH 180300Z AUTO 25004KT 12SM 28/21 A2983 RMK SLP096 T02770213 52007 IEM_DS3505
ZHHH,2008-08-18 04:00,ZHHH 180400Z AUTO 7SM 28/24 A2980 RMK T02800240 IEM_DS3505
ZHHH,2008-08-18 05:00,ZHHH 180500Z AUTO 7SM 29/25 A2980 RMK T02900250 IEM_DS3505
ZHHH,2008-08-18 06:00,ZHHH 180600Z AUTO 02002KT 12SM 29/22 A2977 RMK SLP082 T02890224 57014 IEM_DS3505
ZHHH,2008-08-18 07:00,ZHHH 180700Z AUTO 22004KT 7SM 30/25 A2977 RMK T03000250 IEM_DS3505
ZHHH,2008-08-18 08:00,ZHHH 180800Z AUTO 20006KT 7SM 30/25 A2974 RMK T03000250 IEM_DS3505
ZHHH,2008-08-18 09:00,ZHHH 180900Z AUTO 11004KT 12SM 30/22 A2974 RMK SLP072 T02980220 57010 IEM_DS3505
ZHHH,2008-08-18 10:00,ZHHH 181000Z AUTO 20006KT 6SM 28/25 A2974 RMK T02800250 IEM_DS3505
ZHHH,2008-08-18 11:00,ZHHH 181100Z AUTO 20006KT 6SM 27/25 A2974 RMK T02700250 IEM_DS3505
ZHHH,2008-08-18 12:00,ZHHH 181200Z AUTO 00000KT 11SM 27/23 A2974 RMK SLP073 T02710227 52001 IEM_DS3505
ZHHH,2008-08-18 13:00,ZHHH 181300Z AUTO 18004KT 4SM 26/25 A2977 RMK T02600250 IEM_DS3505
ZHHH,2008-08-18 14:00,ZHHH 181400Z AUTO 4SM 26/25 A2977 RMK T02600250 IEM_DS3505
ZHHH,2008-08-18 15:00,ZHHH 181500Z AUTO 11002KT 7SM 26/23 A2977 RMK SLP083 T02610230 52010 IEM_DS3505
ZHHH,2008-08-18 16:00,ZHHH 181600Z AUTO 00000KT 4SM 26/25 A2977 RMK T02600250 IEM_DS3505
ZHHH,2008-08-18 17:00,ZHHH 181700Z AUTO 00000KT 2SM 25/25 A2977 RMK T02500250 IEM_DS3505
ZHHH,2008-08-18 18:00,ZHHH 181800Z AUTO 00000KT 6SM 25/23 A2977 RMK SLP081 T02520233 57002 IEM_DS3505
ZHHH,2008-08-18 19:00,ZHHH 181900Z AUTO 12004KT 1SM 25/25 A2977 RMK T02500250 IEM_DS3505
ZHHH,2008-08-18 20:00,ZHHH 182000Z AUTO 09004KT 1SM 25/25 A2977 RMK T02500250 IEM_DS3505
ZHHH,2008-08-18 21:00,ZHHH 182100Z AUTO 09002KT 5SM 25/24 A2977 RMK SLP079 T02520236 57002 IEM_DS3505
ZHHH,2008-08-18 22:00,ZHHH 182200Z AUTO 11004KT 1SM 25/25 A2977 RMK T02500250 IEM_DS3505
ZHHH,2008-08-18 23:00,ZHHH 182300Z AUTO 12002KT 1SM 26/26 A2980 RMK T02600260 IEM_DS3505
ZHHH,2008-08-19 00:00,ZHHH 190000Z AUTO 11004KT 9SM 28/24 A2980 RMK SLP089 T02850245 52010 IEM_DS3505
ZHHH,2008-08-19 01:00,ZHHH 190100Z AUTO 13004KT 1 1/2SM 30/27 A2980 RMK T03000270 IEM_DS3505
ZHHH,2008-08-19 02:00,ZHHH 190200Z AUTO 15006KT 4SM 31/28 A2980 RMK T03100280 IEM_DS3505
ZHHH,2008-08-19 03:00,ZHHH 190300Z AUTO 20006KT 14SM 33/25 A2980 RMK SLP085 T03290246 57004 IEM_DS3505
ZHHH,2008-08-19 04:00,ZHHH 190400Z AUTO 24006KT 6SM 34/29 A2977 RMK T03400290 IEM_DS3505
ZHHH,2008-08-19 05:00,ZHHH 190500Z AUTO 23008KT 6SM 35/29 A2974 RMK T03500290 IEM_DS3505
ZHHH,2008-08-19 06:00,ZHHH 190600Z AUTO 18004KT 16SM 35/25 A2974 RMK SLP067 T03460248 57017 IEM_DS3505
ZHHH,2008-08-19 07:00,ZHHH 190700Z AUTO 22008KT 7SM 35/29 A2971 RMK T03500290 IEM_DS3505
ZHHH,2008-08-19 08:00,ZHHH 190800Z AUTO 22008KT 6SM 34/28 A2971 RMK T03400280 IEM_DS3505
ZHHH,2008-08-19 09:00,ZHHH 190900Z AUTO 25004KT 16SM 35/24 A2971 RMK SLP055 T03500240 57012 IEM_DS3505
ZHHH,2008-08-19 10:00,ZHHH 191000Z AUTO 22006KT 6SM 33/28 A2971 RMK T03300280 IEM_DS3505
ZHHH,2008-08-19 11:00,ZHHH 191100Z AUTO 20006KT 6SM 32/28 A2971 RMK T03200280 IEM_DS3505
ZHHH,2008-08-19 12:00,ZHHH 191200Z AUTO 16002KT 11SM 32/25 A2971 RMK SLP061 T03170246 52006 IEM_DS3505
ZHHH,2008-08-19 13:00,ZHHH 191300Z AUTO 19006KT 6SM 30/27 A2974 RMK T03000270 IEM_DS3505
ZHHH,2008-08-19 14:00,ZHHH 191400Z AUTO 16006KT 6SM 30/27 A2974 RMK T03000270 IEM_DS3505
ZHHH,2008-08-19 15:00,ZHHH 191500Z AUTO 11002KT 11SM 30/25 A2971 RMK SLP063 T03040248 52002 IEM_DS3505
ZHHH,2008-08-19 16:00,ZHHH 191600Z AUTO 17004KT 6SM 30/27 A2974 RMK T03000270 IEM_DS3505
ZHHH,2008-08-19 17:00,ZHHH 191700Z AUTO 14004KT 6SM 29/28 A2971 RMK T02900280 IEM_DS3505
ZHHH,2008-08-19 18:00,ZHHH 191800Z AUTO 14002KT 11SM 29/26 A2971 RMK SLP056 T02940258 57007 IEM_DS3505
ZHHH,2008-08-19 19:00,ZHHH 191900Z AUTO 14004KT 6SM 29/28 A2968 RMK T02900280 IEM_DS3505
ZHHH,2008-08-19 20:00,ZHHH 192000Z AUTO 12004KT 6SM 28/28 A2968 RMK T02800280 IEM_DS3505
ZHHH,2008-08-19 21:00,ZHHH 192100Z AUTO 09002KT 9SM 29/26 A2971 RMK SLP054 T02890259 57002 IEM_DS3505
ZHHH,2008-08-19 22:00,ZHHH 192200Z AUTO 12006KT 1SM 27/27 A2971 RMK T02700270 IEM_DS3505
ZHHH,2008-08-19 23:00,ZHHH 192300Z AUTO 14006KT 1SM 28/28 A2971 RMK T02800280 IEM_DS3505
ZHHH,2008-08-20 00:00,ZHHH 200000Z AUTO 14004KT 11SM 30/25 A2971 RMK SLP061 T02990254 52007 IEM_DS3505
ZHHH,2008-08-20 01:00,ZHHH 200100Z AUTO 18006KT 1 1/2SM 32/29 A2971 RMK T03200290 IEM_DS3505
ZHHH,2008-08-20 02:00,ZHHH 200200Z AUTO 21008KT 3SM 34/28 A2971 RMK T03400280 IEM_DS3505
ZHHH,2008-08-20 03:00,ZHHH 200300Z AUTO 20006KT 12SM 34/24 A2971 RMK SLP059 T03440243 57002 IEM_DS3505
ZHHH,2008-08-20 04:00,ZHHH 200400Z AUTO 22010KT 6SM 35/29 A2968 RMK T03500290 IEM_DS3505
ZHHH,2008-08-20 05:00,ZHHH 200500Z AUTO 21008KT 6SM 35/29 A2968 RMK T03500290 IEM_DS3505
ZHHH,2008-08-20 06:00,ZHHH 200600Z AUTO 25004KT 12SM 36/24 A2965 RMK SLP042 T03650244 57017 IEM_DS3505
ZHHH,2008-08-20 07:00,ZHHH 200700Z AUTO 24010KT 6SM 37/28 A2965 RMK T03700280 IEM_DS3505
ZHHH,2008-08-20 08:00,ZHHH 200800Z AUTO 22008KT 6SM 36/28 A2962 RMK T03600280 IEM_DS3505
ZHHH,2008-08-20 09:00,ZHHH 200900Z AUTO 22004KT 11SM 36/23 A2962 RMK SLP029 T03580227 57013 IEM_DS3505
ZHHH,2008-08-20 10:00,ZHHH 201000Z AUTO 26002KT 6SM 35/27 A2962 RMK T03500270 IEM_DS3505
ZHHH,2008-08-20 11:00,ZHHH 201100Z AUTO 25002KT 6SM 33/27 A2962 RMK T03300270 IEM_DS3505
ZHHH,2008-08-20 12:00,ZHHH 201200Z AUTO 22002KT 11SM 33/24 A2965 RMK SLP035 T03300245 52006 IEM_DS3505
ZHHH,2008-08-20 13:00,ZHHH 201300Z AUTO 15004KT 6SM 32/28 A2965 RMK T03200280 IEM_DS3505
ZHHH,2008-08-20 14:00,ZHHH 201400Z AUTO 13006KT 6SM 31/28 A2962 RMK T03100280 IEM_DS3505
ZHHH,2008-08-20 15:00,ZHHH 201500Z AUTO 11002KT 11SM 31/25 A2962 RMK SLP032 T03120253 57003 IEM_DS3505
ZHHH,2008-08-20 16:00,ZHHH 201600Z AUTO 6SM 31/28 A2962 RMK T03100280 IEM_DS3505
ZHHH,2008-08-20 17:00,ZHHH 201700Z AUTO 10004KT 6SM 30/28 A2962 RMK T03000280 IEM_DS3505
ZHHH,2008-08-20 18:00,ZHHH 201800Z AUTO 11002KT 11SM 31/26 A2962 RMK SLP027 T03070260 57005 IEM_DS3505
ZHHH,2008-08-20 19:00,ZHHH 201900Z AUTO 14004KT 3SM 29/28 A2962 RMK T02900280 IEM_DS3505
ZHHH,2008-08-20 20:00,ZHHH 202000Z AUTO 13004KT 2SM 29/28 A2959 RMK T02900280 IEM_DS3505
ZHHH,2008-08-20 21:00,ZHHH 202100Z AUTO 04002KT 11SM 30/26 A2959 RMK SLP020 T02990263 57007 IEM_DS3505
ZHHH,2008-08-20 22:00,ZHHH 202200Z AUTO 13004KT 1SM 28/28 A2959 RMK T02800280 IEM_DS3505
ZHHH,2008-08-20 23:00,ZHHH 202300Z AUTO 13004KT 1SM 29/29 A2962 RMK T02900290 IEM_DS3505
ZHHH,2008-08-21 00:00,ZHHH 210000Z AUTO 14004KT 11SM 31/26 A2962 RMK SLP026 T03090257 52006 IEM_DS3505
ZHHH,2008-08-21 01:00,ZHHH 210100Z AUTO 20010KT 4SM 33/28 A2962 RMK T03300280 IEM_DS3505
ZHHH,2008-08-21 02:00,ZHHH 210200Z AUTO 22012KT 6SM 34/28 A2962 RMK T03400280 IEM_DS3505
ZHHH,2008-08-21 03:00,ZHHH 210300Z AUTO 18006KT 12SM 35/24 A2959 RMK SLP023 T03480238 57003 IEM_DS3505
ZHHH,2008-08-21 04:00,ZHHH 210400Z AUTO 24012KT 6SM 36/28 A2959 RMK T03600280 IEM_DS3505
ZHHH,2008-08-21 05:00,ZHHH 210500Z AUTO 24014KT 6SM 37/28 A2956 RMK T03700280 IEM_DS3505
ZHHH,2008-08-21 06:00,ZHHH 210600Z AUTO 25006KT 12SM 36/24 A2956 RMK SLP010 T03610244 57013 IEM_DS3505
ZHHH,2008-08-21 07:00,ZHHH 210700Z AUTO 25010KT 7SM 37/28 A2956 RMK T03700280 IEM_DS3505
ZHHH,2008-08-21 08:00,ZHHH 210800Z AUTO 26008KT 6SM 35/28 A2956 RMK T03500280 IEM_DS3505
ZHHH,2008-08-21 09:00,ZHHH 210900Z AUTO 27004KT 9SM 35/25 A2956 RMK SLP003 T03490248 57007 IEM_DS3505
ZHHH,2008-08-21 10:00,ZHHH 211000Z AUTO 27004KT 7SM 34/30 A2956 RMK T03400300 IEM_DS3505
ZHHH,2008-08-21 11:00,ZHHH 211100Z AUTO 32004KT 6SM 32/29 A2956 RMK T03200290 IEM_DS3505
ZHHH,2008-08-21 12:00,ZHHH 211200Z AUTO 34006KT 9SM 31/25 A2959 RMK SLP019 T03110252 52016 IEM_DS3505
ZHHH,2008-08-21 13:00,ZHHH 211300Z AUTO 35008KT 6SM 29/27 A2962 RMK T02900270 IEM_DS3505
ZHHH,2008-08-21 14:00,ZHHH 211400Z AUTO 33008KT 6SM 29/26 A2965 RMK T02900260 IEM_DS3505
ZHHH,2008-08-21 15:00,ZHHH 211500Z AUTO 32004KT 11SM 28/22 A2965 RMK SLP037 T02850225 52018 IEM_DS3505
ZHHH,2008-08-21 16:00,ZHHH 211600Z AUTO 33006KT 6SM 27/25 A2965 RMK T02700250 IEM_DS3505
ZHHH,2008-08-21 17:00,ZHHH 211700Z AUTO 35006KT 6SM 26/24 A2962 RMK T02600240 IEM_DS3505
ZHHH,2008-08-21 18:00,ZHHH 211800Z AUTO 04002KT 11SM 27/22 A2962 RMK SLP025 T02690219 57012 IEM_DS3505
ZHHH,2008-08-21 19:00,ZHHH 211900Z AUTO 35004KT 7SM 26/25 A2962 RMK T02600250 IEM_DS3505
ZHHH,2008-08-21 20:00,ZHHH 212000Z AUTO 33006KT 6SM 26/25 A2962 RMK T02600250 IEM_DS3505
ZHHH,2008-08-21 21:00,ZHHH 212100Z AUTO 32004KT 11SM 26/22 A2962 RMK SLP026 T02620218 52001 IEM_DS3505
ZHHH,2008-08-21 22:00,ZHHH 212200Z AUTO 35004KT 6SM 25/24 A2962 RMK T02500240 IEM_DS3505
ZHHH,2008-08-21 23:00,ZHHH 212300Z AUTO 34004KT 6SM 26/24 A2965 RMK T02600240 IEM_DS3505
ZHHH,2008-08-22 00:00,ZHHH 220000Z AUTO 29002KT 11SM 27/22 A2965 RMK SLP041 T02700220 52015 IEM_DS3505
ZHHH,2008-08-22 01:00,ZHHH 220100Z AUTO 34006KT 6SM 27/25 A2968 RMK T02700250 IEM_DS3505
ZHHH,2008-08-22 02:00,ZHHH 220200Z AUTO 33008KT 7SM 27/25 A2968 RMK T02700250 IEM_DS3505
ZHHH,2008-08-22 03:00,ZHHH 220300Z AUTO 32006KT 11SM 27/22 A2971 RMK SLP059 T02710216 52017 IEM_DS3505
ZHHH,2008-08-22 04:00,ZHHH 220400Z AUTO 35010KT 5SM 25/25 A2971 RMK T02500250 IEM_DS3505
ZHHH,2008-08-22 05:00,ZHHH 220500Z AUTO 02006KT 7SM 24/23 A2968 RMK T02400230 IEM_DS3505
ZHHH,2008-08-22 06:00,ZHHH 220600Z AUTO 02004KT 7SM 26/20 A2968 RMK 60008 SLP050 T02570200 57009 IEM_DS3505
ZHHH,2008-08-22 07:00,ZHHH 220700Z AUTO 6SM 27/23 A2965 RMK T02700230 IEM_DS3505
ZHHH,2008-08-22 08:00,ZHHH 220800Z AUTO 00000KT 6SM 27/22 A2965 RMK T02700220 IEM_DS3505
ZHHH,2008-08-22 09:00,ZHHH 220900Z AUTO 34002KT 9SM 27/20 A2965 RMK SLP038 T02740202 57012 IEM_DS3505
ZHHH,2008-08-22 10:00,ZHHH 221000Z AUTO 6SM 28/22 A2965 RMK T02800220 IEM_DS3505
ZHHH,2008-08-22 11:00,ZHHH 221100Z AUTO 00000KT 6SM 26/22 A2965 RMK T02600220 IEM_DS3505
ZHHH,2008-08-22 12:00,ZHHH 221200Z AUTO 34002KT 11SM 25/20 A2968 RMK 60000 SLP044 T02500203 52006 IEM_DS3505
ZHHH,2008-08-22 13:00,ZHHH 221300Z AUTO 00000KT 6SM 25/22 A2968 RMK T02500220 IEM_DS3505
ZHHH,2008-08-22 14:00,ZHHH 221400Z AUTO 00000KT 6SM 25/22 A2968 RMK T02500220 IEM_DS3505
ZHHH,2008-08-22 15:00,ZHHH 221500Z AUTO 00000KT 11SM 24/21 A2968 RMK SLP054 T02350214 52010 IEM_DS3505
ZHHH,2008-08-22 16:00,ZHHH 221600Z AUTO 00000KT 6SM 24/22 A2971 RMK T02400220 IEM_DS3505
ZHHH,2008-08-22 17:00,ZHHH 221700Z AUTO 01002KT 6SM 24/22 A2968 RMK T02400220 IEM_DS3505
ZHHH,2008-08-22 18:00,ZHHH 221800Z AUTO 29002KT 11SM 24/22 A2968 RMK SLP047 T02400221 57007 IEM_DS3505
ZHHH,2008-08-22 19:00,ZHHH 221900Z AUTO 02004KT 6SM 23/23 A2968 RMK T02300230 IEM_DS3505
ZHHH,2008-08-22 20:00,ZHHH 222000Z AUTO 05002KT 6SM 23/23 A2968 RMK T02300230 IEM_DS3505
ZHHH,2008-08-22 21:00,ZHHH 222100Z AUTO 32002KT 11SM 24/22 A2968 RMK 70006 SLP052 T02370220 52005 IEM_DS3505
ZHHH,2008-08-22 22:00,ZHHH 222200Z AUTO 03004KT 4SM 23/23 A2971 RMK T02300230 IEM_DS3505
ZHHH,2008-08-22 23:00,ZHHH 222300Z AUTO 6SM 23/23 A2971 RMK T02300230 IEM_DS3505
ZHHH,2008-08-23 00:00,ZHHH 230000Z AUTO 02002KT 12SM 26/22 A2974 RMK 70006 SLP064 T02630217 52012 IEM_DS3505
ZHHH,2008-08-23 01:00,ZHHH 230100Z AUTO 6SM 27/24 A2974 RMK T02700240 IEM_DS3505
ZHHH,2008-08-23 02:00,ZHHH 230200Z AUTO 09004KT 6SM 30/24 A2974 RMK T03000240 IEM_DS3505
ZHHH,2008-08-23 03:00,ZHHH 230300Z AUTO 07004KT 14SM 31/20 A2974 RMK SLP067 T03090199 52003 IEM_DS3505
ZHHH,2008-08-23 04:00,ZHHH 230400Z AUTO 10004KT 7SM 31/24 A2971 RMK T03100240 IEM_DS3505
ZHHH,2008-08-23 05:00,ZHHH 230500Z AUTO 10006KT 7SM 31/23 A2971 RMK T03100230 IEM_DS3505
ZHHH,2008-08-23 06:00,ZHHH 230600Z AUTO 09006KT 11SM 32/18 A2971 RMK SLP052 T03250176 57015 IEM_DS3505
ZHHH,2008-08-23 07:00,ZHHH 230700Z AUTO 09008KT 6SM 33/19 A2968 RMK T03300190 IEM_DS3505
ZHHH,2008-08-23 08:00,ZHHH 230800Z AUTO 12008KT 6SM 32/20 A2968 RMK T03200200 IEM_DS3505
ZHHH,2008-08-23 09:00,ZHHH 230900Z AUTO 07004KT 11SM 33/14 A2968 RMK SLP050 T03270139 57002 IEM_DS3505
ZHHH,2008-08-23 10:00,ZHHH 231000Z AUTO 11006KT 6SM 31/22 A2968 RMK T03100220 IEM_DS3505
ZHHH,2008-08-23 11:00,ZHHH 231100Z AUTO 10004KT 6SM 29/22 A2971 RMK T02900220 IEM_DS3505
ZHHH,2008-08-23 12:00,ZHHH 231200Z AUTO 09002KT 11SM 29/20 A2971 RMK SLP056 T02900202 52006 IEM_DS3505
ZHHH,2008-08-23 13:00,ZHHH 231300Z AUTO 11004KT 6SM 28/23 A2971 RMK T02800230 IEM_DS3505
ZHHH,2008-08-23 14:00,ZHHH 231400Z AUTO 05006KT 6SM 26/23 A2974 RMK T02600230 IEM_DS3505
ZHHH,2008-08-23 15:00,ZHHH 231500Z AUTO 09002KT 11SM 27/21 A2974 RMK SLP068 T02690214 52012 IEM_DS3505
ZHHH,2008-08-23 16:00,ZHHH 231600Z AUTO 09006KT 6SM 26/23 A2974 RMK T02600230 IEM_DS3505
ZHHH,2008-08-23 17:00,ZHHH 231700Z AUTO 11006KT 4SM 25/24 A2974 RMK T02500240 IEM_DS3505
ZHHH,2008-08-23 18:00,ZHHH 231800Z AUTO 14002KT 7SM 27/22 A2974 RMK SLP067 T02670215 54000 IEM_DS3505
ZHHH,2008-08-23 19:00,ZHHH 231900Z AUTO 05004KT 2SM 24/24 A2974 RMK T02400240 IEM_DS3505
ZHHH,2008-08-23 20:00,ZHHH 232000Z AUTO 07006KT 1 1/2SM 24/23 A2974 RMK T02400230 IEM_DS3505
ZHHH,2008-08-23 21:00,ZHHH 232100Z AUTO 07002KT 7SM 26/22 A2974 RMK SLP069 T02560221 52001 IEM_DS3505
ZHHH,2008-08-23 22:00,ZHHH 232200Z AUTO 04006KT 1 1/2SM 23/23 A2977 RMK T02300230 IEM_DS3505
ZHHH,2008-08-23 23:00,ZHHH 232300Z AUTO 06006KT 1 1/2SM 23/23 A2977 RMK T02300230 IEM_DS3505
ZHHH,2008-08-24 00:00,ZHHH 240000Z AUTO 07004KT 9SM 27/22 A2977 RMK SLP080 T02670221 52011 IEM_DS3505
ZHHH,2008-08-24 01:00,ZHHH 240100Z AUTO 07006KT 4SM 27/24 A2977 RMK T02700240 IEM_DS3505
ZHHH,2008-08-24 02:00,ZHHH 240200Z AUTO 08006KT 5SM 29/24 A2977 RMK T02900240 IEM_DS3505
ZHHH,2008-08-24 03:00,ZHHH 240300Z AUTO 02004KT 11SM 30/21 A2977 RMK SLP079 T03030208 57001 IEM_DS3505
ZHHH,2008-08-24 04:00,ZHHH 240400Z AUTO 6SM 31/24 A2977 RMK T03100240 IEM_DS3505
ZHHH,2008-08-24 05:00,ZHHH 240500Z AUTO 09004KT 7SM 31/24 A2974 RMK T03100240 IEM_DS3505
ZHHH,2008-08-24 06:00,ZHHH 240600Z AUTO 04006KT 11SM 31/21 A2974 RMK SLP069 T03100206 57010 IEM_DS3505
ZHHH,2008-08-24 07:00,ZHHH 240700Z AUTO 08006KT 6SM 32/24 A2974 RMK T03200240 IEM_DS3505
ZHHH,2008-08-24 08:00,ZHHH 240800Z AUTO 13006KT 6SM 30/24 A2974 RMK T03000240 IEM_DS3505
ZHHH,2008-08-24 09:00,ZHHH 240900Z AUTO 09004KT 11SM 30/20 A2974 RMK SLP065 T03040203 57004 IEM_DS3505
ZHHH,2008-08-24 10:00,ZHHH 241000Z AUTO 6SM 29/24 A2971 RMK T02900240 IEM_DS3505
ZHHH,2008-08-24 11:00,ZHHH 241100Z AUTO 00000KT 4SM 29/24 A2974 RMK T02900240 IEM_DS3505
ZHHH,2008-08-24 12:00,ZHHH 241200Z AUTO 34002KT 9SM 29/22 A2974 RMK SLP071 T02890224 52006 IEM_DS3505
ZHHH,2008-08-24 13:00,ZHHH 241300Z AUTO 34004KT 6SM 28/22 A2977 RMK T02800220 IEM_DS3505
ZHHH,2008-08-24 14:00,ZHHH 241400Z AUTO 01004KT 6SM 28/23 A2977 RMK T02800230 IEM_DS3505
ZHHH,2008-08-24 15:00,ZHHH 241500Z AUTO 27002KT 7SM 28/20 A2977 RMK SLP078 T02750203 52007 IEM_DS3505
ZHHH,2008-08-24 16:00,ZHHH 241600Z AUTO 3SM 26/25 A2977 RMK T02600250 IEM_DS3505
ZHHH,2008-08-24 17:00,ZHHH 241700Z AUTO 07004KT 3SM 26/24 A2977 RMK T02600240 IEM_DS3505
ZHHH,2008-08-24 18:00,ZHHH 241800Z AUTO 09002KT 7SM 27/22 A2974 RMK 60000 SLP074 T02670225 57004 IEM_DS3505
ZHHH,2008-08-24 19:00,ZHHH 241900Z AUTO 04004KT 3SM 26/24 A2977 RMK T02600240 IEM_DS3505
ZHHH,2008-08-24 20:00,ZHHH 242000Z AUTO 36004KT 3SM 25/24 A2977 RMK T02500240 IEM_DS3505
ZHHH,2008-08-24 21:00,ZHHH 242100Z AUTO 36002KT 7SM 25/23 A2977 RMK 70003 SLP082 T02540231 52008 IEM_DS3505
ZHHH,2008-08-24 22:00,ZHHH 242200Z AUTO 02002KT 3SM 25/24 A2977 RMK T02500240 IEM_DS3505
ZHHH,2008-08-24 23:00,ZHHH 242300Z AUTO 3SM 25/24 A2980 RMK T02500240 IEM_DS3505
ZHHH,2008-08-25 00:00,ZHHH 250000Z AUTO 32002KT 9SM 25/22 A2983 RMK 60003 70003 SLP092 T02540219 52010 IEM_DS3505
ZHHH,2008-08-25 01:00,ZHHH 250100Z AUTO 36004KT 2 1/2SM 25/24 A2980 RMK T02500240 IEM_DS3505
ZHHH,2008-08-25 02:00,ZHHH 250200Z AUTO 3SM 27/25 A2983 RMK T02700250 IEM_DS3505
ZHHH,2008-08-25 03:00,ZHHH 250300Z AUTO 27004KT 9SM 29/21 A2983 RMK SLP097 T02900212 52005 IEM_DS3505
ZHHH,2008-08-25 04:00,ZHHH 250400Z AUTO 30004KT 3SM 28/25 A2980 RMK T02800250 IEM_DS3505
ZHHH,2008-08-25 05:00,ZHHH 250500Z AUTO 31008KT 3SM 28/25 A2983 RMK T02800250 IEM_DS3505
ZHHH,2008-08-25 06:00,ZHHH 250600Z AUTO 29002KT 9SM 27/22 A2980 RMK 60000 SLP090 T02740224 57007 IEM_DS3505
ZHHH,2008-08-25 07:00,ZHHH 250700Z AUTO 34004KT 3SM 28/25 A2980 RMK T02800250 IEM_DS3505
ZHHH,2008-08-25 08:00,ZHHH 250800Z AUTO 34004KT 3SM 29/25 A2980 RMK T02900250 IEM_DS3505
ZHHH,2008-08-25 09:00,ZHHH 250900Z AUTO 27004KT 9SM 28/23 A2980 RMK SLP088 T02790226 57002 IEM_DS3505
ZHHH,2008-08-25 10:00,ZHHH 251000Z AUTO 2SM 28/25 A2977 RMK T02800250 IEM_DS3505
ZHHH,2008-08-25 11:00,ZHHH 251100Z AUTO 30004KT 2SM 27/25 A2980 RMK T02700250 IEM_DS3505
ZHHH,2008-08-25 12:00,ZHHH 251200Z AUTO 27004KT 9SM 27/22 A2980 RMK SLP089 T02690221 52001 IEM_DS3505
ZHHH,2008-08-25 13:00,ZHHH 251300Z AUTO 2SM 26/24 A2980 RMK T02600240 IEM_DS3505
ZHHH,2008-08-25 14:00,ZHHH 251400Z AUTO 36004KT 2SM 26/24 A2983 RMK T02600240 IEM_DS3505
ZHHH,2008-08-25 15:00,ZHHH 251500Z AUTO 25002KT 11SM 26/21 A2983 RMK SLP100 T02640209 52011 IEM_DS3505
ZHHH,2008-08-25 16:00,ZHHH 251600Z AUTO 30004KT 2SM 26/24 A2983 RMK T02600240 IEM_DS3505
ZHHH,2008-08-25 17:00,ZHHH 251700Z AUTO 31004KT 1 1/4SM 25/24 A2983 RMK T02500240 IEM_DS3505
ZHHH,2008-08-25 18:00,ZHHH 251800Z AUTO 27002KT 9SM 25/22 A2980 RMK SLP091 T02530218 57009 IEM_DS3505
ZHHH,2008-08-25 19:00,ZHHH 251900Z AUTO 00000KT 1SM 24/23 A2980 RMK T02400230 IEM_DS3505
ZHHH,2008-08-25 20:00,ZHHH 252000Z AUTO 01002KT 1SM 24/23 A2980 RMK T02400230 IEM_DS3505
ZHHH,2008-08-25 21:00,ZHHH 252100Z AUTO 29002KT 6SM 25/22 A2980 RMK 70000 SLP094 T02460221 52003 IEM_DS3505
ZHHH,2008-08-25 22:00,ZHHH 252200Z AUTO 00000KT 1SM 24/23 A2983 RMK T02400230 IEM_DS3505
ZHHH,2008-08-25 23:00,ZHHH 252300Z AUTO 04002KT 1SM 24/24 A2983 RMK T02400240 IEM_DS3505
ZHHH,2008-08-26 00:00,ZHHH 260000Z AUTO 09002KT 6SM 26/23 A2985 RMK 70000 SLP106 T02560229 52012 IEM_DS3505
ZHHH,2008-08-26 01:00,ZHHH 260100Z AUTO 1 1/4SM 26/25 A2983 RMK T02600250 IEM_DS3505
ZHHH,2008-08-26 02:00,ZHHH 260200Z AUTO 1 1/2SM 28/26 A2985 RMK T02800260 IEM_DS3505
ZHHH,2008-08-26 03:00,ZHHH 260300Z AUTO 00000KT 6SM 30/22 A2983 RMK SLP102 T02970224 57004 IEM_DS3505
ZHHH,2008-08-26 04:00,ZHHH 260400Z AUTO 28006KT 2SM 30/25 A2983 RMK T03000250 IEM_DS3505
ZHHH,2008-08-26 05:00,ZHHH 260500Z AUTO 5SM 31/24 A2983 RMK T03100240 IEM_DS3505
ZHHH,2008-08-26 06:00,ZHHH 260600Z AUTO 04004KT 9SM 32/21 A2980 RMK SLP091 T03210210 57011 IEM_DS3505
ZHHH,2008-08-26 07:00,ZHHH 260700Z AUTO 04006KT 6SM 32/21 A2980 RMK T03200210 IEM_DS3505
ZHHH,2008-08-26 08:00,ZHHH 260800Z AUTO 03004KT 6SM 33/19 A2977 RMK T03300190 IEM_DS3505
ZHHH,2008-08-26 09:00,ZHHH 260900Z AUTO 04004KT 11SM 32/15 A2977 RMK SLP078 T03180149 57013 IEM_DS3505
ZHHH,2008-08-26 10:00,ZHHH 261000Z AUTO 01002KT 6SM 31/19 A2977 RMK T03100190 IEM_DS3505
ZHHH,2008-08-26 11:00,ZHHH 261100Z AUTO 6SM 29/19 A2980 RMK T02900190 IEM_DS3505
ZHHH,2008-08-26 12:00,ZHHH 261200Z AUTO 00000KT 11SM 26/20 A2980 RMK SLP091 T02650201 52013 IEM_DS3505
ZHHH,2008-08-26 13:00,ZHHH 261300Z AUTO 06006KT 6SM 27/22 A2983 RMK T02700220 IEM_DS3505
ZHHH,2008-08-26 14:00,ZHHH 261400Z AUTO 06006KT 6SM 26/22 A2983 RMK T02600220 IEM_DS3505
ZHHH,2008-08-26 15:00,ZHHH 261500Z AUTO 09002KT 11SM 27/20 A2983 RMK SLP099 T02660200 52008 IEM_DS3505
ZHHH,2008-08-26 16:00,ZHHH 261600Z AUTO 07008KT 6SM 25/22 A2983 RMK T02500220 IEM_DS3505
ZHHH,2008-08-26 17:00,ZHHH 261700Z AUTO 00000KT 6SM 25/22 A2983 RMK T02500220 IEM_DS3505
ZHHH,2008-08-26 18:00,ZHHH 261800Z AUTO 07002KT 12SM 26/20 A2983 RMK SLP095 T02550203 57004 IEM_DS3505
ZHHH,2008-08-26 19:00,ZHHH 261900Z AUTO 04002KT 6SM 24/22 A2983 RMK T02400220 IEM_DS3505
ZHHH,2008-08-26 20:00,ZHHH 262000Z AUTO 05004KT 4SM 23/22 A2983 RMK T02300220 IEM_DS3505
ZHHH,2008-08-26 21:00,ZHHH 262100Z AUTO 07002KT 9SM 25/21 A2983 RMK SLP095 T02460211 54000 IEM_DS3505
ZHHH,2008-08-26 22:00,ZHHH 262200Z AUTO 05004KT 4SM 23/22 A2983 RMK T02300220 IEM_DS3505
ZHHH,2008-08-26 23:00,ZHHH 262300Z AUTO 06004KT 3SM 23/23 A2983 RMK T02300230 IEM_DS3505
ZHHH,2008-08-27 00:00,ZHHH 270000Z AUTO 18002KT 9SM 26/23 A2985 RMK SLP106 T02610228 52011 IEM_DS3505
ZHHH,2008-08-27 01:00,ZHHH 270100Z AUTO 12004KT 1 1/4SM 27/26 A2985 RMK T02700260 IEM_DS3505
ZHHH,2008-08-27 02:00,ZHHH 270200Z AUTO 1 1/4SM 28/26 A2985 RMK T02800260 IEM_DS3505
ZHHH,2008-08-27 03:00,ZHHH 270300Z AUTO 32002KT 9SM 30/23 A2985 RMK SLP106 T02950227 54000 IEM_DS3505
ZHHH,2008-08-27 04:00,ZHHH 270400Z AUTO 28004KT 1SM 30/26 A2983 RMK T03000260 IEM_DS3505
ZHHH,2008-08-27 05:00,ZHHH 270500Z AUTO 1SM 30/26 A2983 RMK T03000260 IEM_DS3505
ZHHH,2008-08-27 06:00,ZHHH 270600Z AUTO 34002KT 9SM 30/22 A2980 RMK SLP091 T03000222 57015 IEM_DS3505
ZHHH,2008-08-27 07:00,ZHHH 270700Z AUTO 1 1/2SM 29/26 A2980 RMK T02900260 IEM_DS3505
ZHHH,2008-08-27 08:00,ZHHH 270800Z AUTO 09004KT 1 1/4SM 29/26 A2980 RMK T02900260 IEM_DS3505
ZHHH,2008-08-27 09:00,ZHHH 270900Z AUTO 34002KT 6SM 29/22 A2980 RMK SLP084 T02900225 57007 IEM_DS3505
ZHHH,2008-08-27 10:00,ZHHH 271000Z AUTO 34002KT 1SM 28/25 A2977 RMK T02800250 IEM_DS3505
ZHHH,2008-08-27 11:00,ZHHH 271100Z AUTO 34002KT 1 1/2SM 28/25 A2980 RMK T02800250 IEM_DS3505
ZHHH,2008-08-27 12:00,ZHHH 271200Z AUTO 27002KT 6SM 28/24 A2980 RMK 60000 SLP092 T02770241 52008 IEM_DS3505
ZHHH,2008-08-27 13:00,ZHHH 271300Z AUTO 17002KT 1 1/4SM 27/25 A2980 RMK T02700250 IEM_DS3505
ZHHH,2008-08-27 14:00,ZHHH 271400Z AUTO 00000KT 1SM 27/25 A2983 RMK T02700250 IEM_DS3505
ZHHH,2008-08-27 15:00,ZHHH 271500Z AUTO 00000KT 6SM 27/24 A2983 RMK SLP100 T02700241 52008 IEM_DS3505
ZHHH,2008-08-27 16:00,ZHHH 271600Z AUTO 31004KT 1 1/2SM 26/25 A2983 RMK T02600250 IEM_DS3505
ZHHH,2008-08-27 17:00,ZHHH 271700Z AUTO 1 1/2SM 26/25 A2983 RMK T02600250 IEM_DS3505
ZHHH,2008-08-27 18:00,ZHHH 271800Z AUTO 27004KT 5SM 26/24 A2980 RMK 60000 SLP093 T02630242 57007 IEM_DS3505
ZHHH,2008-08-27 19:00,ZHHH 271900Z AUTO 29004KT 1SM 26/26 A2980 RMK T02600260 IEM_DS3505
ZHHH,2008-08-27 20:00,ZHHH 272000Z AUTO 30004KT 1SM 25/25 A2980 RMK T02500250 IEM_DS3505
ZHHH,2008-08-27 21:00,ZHHH 272100Z AUTO 27002KT 5SM 25/23 A2980 RMK 70000 SLP088 T02490231 57005 IEM_DS3505
ZHHH,2008-08-27 22:00,ZHHH 272200Z AUTO 00000KT 3/8SM 25/25 A2980 RMK T02500250 IEM_DS3505
ZHHH,2008-08-27 23:00,ZHHH 272300Z AUTO 1SM 25/25 A2980 RMK T02500250 IEM_DS3505
ZHHH,2008-08-28 00:00,ZHHH 280000Z AUTO 29002KT 6SM 26/24 A2983 RMK 60000 70000 SLP096 T02580237 52008 IEM_DS3505
ZHHH,2008-08-28 01:00,ZHHH 280100Z AUTO 07004KT 1 1/4SM 26/25 A2980 RMK T02600250 IEM_DS3505
ZHHH,2008-08-28 02:00,ZHHH 280200Z AUTO 08004KT 1SM 27/26 A2983 RMK T02700260 IEM_DS3505
ZHHH,2008-08-28 03:00,ZHHH 280300Z AUTO 11002KT 6SM 27/23 A2980 RMK SLP092 T02670232 57004 IEM_DS3505
ZHHH,2008-08-28 04:00,ZHHH 280400Z AUTO 13006KT 1SM 28/26 A2980 RMK T02800260 IEM_DS3505
ZHHH,2008-08-28 05:00,ZHHH 280500Z AUTO 15006KT 1 1/4SM 28/25 A2977 RMK T02800250 IEM_DS3505
ZHHH,2008-08-28 06:00,ZHHH 280600Z AUTO 16004KT 7SM 29/23 A2974 RMK 60000 SLP072 T02890229 57020 IEM_DS3505
ZHHH,2008-08-28 07:00,ZHHH 280700Z AUTO 11006KT 1SM 28/26 A2974 RMK T02800260 IEM_DS3505
ZHHH,2008-08-28 08:00,ZHHH 280800Z AUTO 12006KT 1SM 27/26 A2974 RMK T02700260 IEM_DS3505
ZHHH,2008-08-28 09:00,ZHHH 280900Z AUTO 11002KT 6SM 27/23 A2971 RMK SLP064 T02660231 57008 IEM_DS3505
ZHHH,2008-08-28 10:00,ZHHH 281000Z AUTO 1SM 26/26 A2971 RMK T02600260 IEM_DS3505
ZHHH,2008-08-28 11:00,ZHHH 281100Z AUTO 11006KT 1SM 25/25 A2974 RMK T02500250 IEM_DS3505
ZHHH,2008-08-28 12:00,ZHHH 281200Z AUTO 14004KT 6SM 26/24 A2974 RMK 60020 SLP067 T02550239 52003 IEM_DS3505
ZHHH,2008-08-28 13:00,ZHHH 281300Z AUTO 14010KT 1 1/4SM 25/25 A2974 RMK T02500250 IEM_DS3505
ZHHH,2008-08-28 14:00,ZHHH 281400Z AUTO 14010KT 1SM 25/25 A2974 RMK T02500250 IEM_DS3505
ZHHH,2008-08-28 15:00,ZHHH 281500Z AUTO 11006KT 5SM 25/23 A2974 RMK SLP066 T02460228 57001 IEM_DS3505
ZHHH,2008-08-28 16:00,ZHHH 281600Z AUTO 13010KT 2SM 24/24 A2971 RMK T02400240 IEM_DS3505
ZHHH,2008-08-28 17:00,ZHHH 281700Z AUTO 11012KT 1 1/4SM 24/24 A2968 RMK T02400240 IEM_DS3505
ZHHH,2008-08-28 18:00,ZHHH 281800Z AUTO 11004KT 6SM 25/24 A2968 RMK 60047 SLP048 T02520236 57018 IEM_DS3505
ZHHH,2008-08-28 19:00,ZHHH 281900Z AUTO 11010KT 1 1/2SM 24/24 A2965 RMK T02400240 IEM_DS3505
ZHHH,2008-08-28 20:00,ZHHH 282000Z AUTO 10008KT 1 1/4SM 24/24 A2965 RMK T02400240 IEM_DS3505
ZHHH,2008-08-28 21:00,ZHHH 282100Z AUTO 07002KT 5SM 25/24 A2965 RMK 70098 SLP039 T02490237 57009 IEM_DS3505
ZHHH,2008-08-28 22:00,ZHHH 282200Z AUTO 05006KT 1SM 24/24 A2968 RMK T02400240 IEM_DS3505
ZHHH,2008-08-28 23:00,ZHHH 282300Z AUTO 07012KT 1 1/2SM 22/22 A2968 RMK T02200220 IEM_DS3505
ZHHH,2008-08-29 00:00,ZHHH 290000Z AUTO 02004KT 6SM 24/23 A2971 RMK 60169 70234 SLP058 T02400228 52019 IEM_DS3505
ZHHH,2008-08-29 01:00,ZHHH 290100Z AUTO 06010KT 7SM 23/23 A2971 RMK T02300230 IEM_DS3505
ZHHH,2008-08-29 02:00,ZHHH 290200Z AUTO 08012KT 7SM 23/23 A2971 RMK T02300230 IEM_DS3505
ZHHH,2008-08-29 03:00,ZHHH 290300Z AUTO 07004KT 6SM 24/23 A2971 RMK SLP063 T02410229 52005 IEM_DS3505
ZHHH,2008-08-29 04:00,ZHHH 290400Z AUTO 09010KT 7SM 24/24 A2971 RMK T02400240 IEM_DS3505
ZHHH,2008-08-29 05:00,ZHHH 290500Z AUTO 10010KT 3SM 25/25 A2971 RMK T02500250 IEM_DS3505
ZHHH,2008-08-29 06:00,ZHHH 290600Z AUTO 09004KT 6SM 26/25 A2968 RMK 60016 SLP049 T02600246 57014 IEM_DS3505
ZHHH,2008-08-29 07:00,ZHHH 290700Z AUTO 10010KT 1SM 25/25 A2968 RMK T02500250 IEM_DS3505
ZHHH,2008-08-29 08:00,ZHHH 290800Z AUTO 09010KT 1SM 25/25 A2965 RMK T02500250 IEM_DS3505
ZHHH,2008-08-29 09:00,ZHHH 290900Z AUTO 09004KT 6SM 27/25 A2965 RMK SLP040 T02660248 57009 IEM_DS3505
ZHHH,2008-08-29 10:00,ZHHH 291000Z AUTO 09010KT 1 1/4SM 25/25 A2965 RMK T02500250 IEM_DS3505
ZHHH,2008-08-29 11:00,ZHHH 291100Z AUTO 08008KT 1 1/4SM 25/25 A2965 RMK T02500250 IEM_DS3505
ZHHH,2008-08-29 12:00,ZHHH 291200Z AUTO 07004KT 5SM 26/25 A2968 RMK 60002 SLP043 T02650249 52003 IEM_DS3505
ZHHH,2008-08-29 13:00,ZHHH 291300Z AUTO 08010KT 1 1/4SM 25/25 A2968 RMK T02500250 IEM_DS3505
ZHHH,2008-08-29 14:00,ZHHH 291400Z AUTO 06008KT 1 1/4SM 24/24 A2971 RMK T02400240 IEM_DS3505
ZHHH,2008-08-29 15:00,ZHHH 291500Z AUTO 07002KT 5SM 26/25 A2968 RMK SLP051 T02640246 52008 IEM_DS3505
ZHHH,2008-08-29 16:00,ZHHH 291600Z AUTO 09010KT 3SM 25/25 A2968 RMK T02500250 IEM_DS3505
ZHHH,2008-08-29 17:00,ZHHH 291700Z AUTO 10012KT 3SM 25/25 A2965 RMK T02500250 IEM_DS3505
ZHHH,2008-08-29 18:00,ZHHH 291800Z AUTO 11004KT 6SM 26/24 A2962 RMK SLP033 T02630243 57018 IEM_DS3505
ZHHH,2008-08-29 19:00,ZHHH 291900Z AUTO 09004KT 2 1/2SM 24/24 A2965 RMK T02400240 IEM_DS3505
ZHHH,2008-08-29 20:00,ZHHH 292000Z AUTO 07008KT 1SM 24/24 A2965 RMK T02400240 IEM_DS3505
ZHHH,2008-08-29 21:00,ZHHH 292100Z AUTO 27002KT 5SM 26/24 A2965 RMK 70174 SLP041 T02560244 52008 IEM_DS3505
ZHHH,2008-08-29 22:00,ZHHH 292200Z AUTO 16004KT 1 1/4SM 25/25 A2965 RMK T02500250 IEM_DS3505
ZHHH,2008-08-29 23:00,ZHHH 292300Z AUTO 10004KT 1SM 25/25 A2965 RMK T02500250 IEM_DS3505
ZHHH,2008-08-30 00:00,ZHHH 300000Z AUTO 27006KT 5SM 25/24 A2968 RMK 60031 70051 SLP052 T02520240 52011 IEM_DS3505
ZHHH,2008-08-30 01:00,ZHHH 300100Z AUTO 31008KT 7SM 23/23 A2971 RMK T02300230 IEM_DS3505
ZHHH,2008-08-30 02:00,ZHHH 300200Z AUTO 33008KT 7SM 22/22 A2971 RMK T02200220 IEM_DS3505
ZHHH,2008-08-30 03:00,ZHHH 300300Z AUTO 27008KT 6SM 22/21 A2974 RMK SLP073 T02230208 52021 IEM_DS3505
ZHHH,2008-08-30 04:00,ZHHH 300400Z AUTO 32010KT 7SM 22/22 A2974 RMK T02200220 IEM_DS3505
ZHHH,2008-08-30 05:00,ZHHH 300500Z AUTO 34010KT 7SM 22/22 A2974 RMK T02200220 IEM_DS3505
ZHHH,2008-08-30 06:00,ZHHH 300600Z AUTO 34004KT 7SM 23/20 A2974 RMK 60016 SLP073 T02260203 54000 IEM_DS3505
ZHHH,2008-08-30 07:00,ZHHH 300700Z AUTO 35010KT 7SM 21/21 A2974 RMK T02100210 IEM_DS3505
ZHHH,2008-08-30 08:00,ZHHH 300800Z AUTO 34008KT 7SM 22/22 A2974 RMK T02200220 IEM_DS3505
ZHHH,2008-08-30 09:00,ZHHH 300900Z AUTO 29002KT 9SM 22/20 A2977 RMK SLP083 T02210202 52010 IEM_DS3505
ZHHH,2008-08-30 10:00,ZHHH 301000Z AUTO 33010KT 7SM 22/22 A2980 RMK T02200220 IEM_DS3505
ZHHH,2008-08-30 11:00,ZHHH 301100Z AUTO 34010KT 7SM 21/21 A2980 RMK T02100210 IEM_DS3505
ZHHH,2008-08-30 12:00,ZHHH 301200Z AUTO 32004G17KT 7SM 22/19 A2983 RMK 60002 SLP102 T02200192 52019 IEM_DS3505
ZHHH,2008-08-30 13:00,ZHHH 301300Z AUTO 34006KT 7SM 21/21 A2985 RMK T02100210 IEM_DS3505
ZHHH,2008-08-30 14:00,ZHHH 301400Z AUTO 34006KT 7SM 21/21 A2985 RMK T02100210 IEM_DS3505
ZHHH,2008-08-30 15:00,ZHHH 301500Z AUTO 32002G16KT 7SM 22/19 A2985 RMK SLP112 T02180194 52010 IEM_DS3505
ZHHH,2008-08-30 16:00,ZHHH 301600Z AUTO 34004KT 6SM 21/21 A2985 RMK T02100210 IEM_DS3505
ZHHH,2008-08-30 17:00,ZHHH 301700Z AUTO 34004KT 6SM 21/20 A2985 RMK T02100200 IEM_DS3505
ZHHH,2008-08-30 18:00,ZHHH 301800Z AUTO 27002KT 9SM 21/19 A2985 RMK SLP112 T02120190 54000 IEM_DS3505
ZHHH,2008-08-30 19:00,ZHHH 301900Z AUTO 00000KT 6SM 20/20 A2985 RMK T02000200 IEM_DS3505
ZHHH,2008-08-30 20:00,ZHHH 302000Z AUTO 30004KT 6SM 20/20 A2985 RMK T02000200 IEM_DS3505
ZHHH,2008-08-30 21:00,ZHHH 302100Z AUTO 27002KT 9SM 21/19 A2985 RMK 70032 SLP110 T02060189 57002 IEM_DS3505
ZHHH,2008-08-30 22:00,ZHHH 302200Z AUTO 6SM 20/20 A2985 RMK T02000200 IEM_DS3505
ZHHH,2008-08-30 23:00,ZHHH 302300Z AUTO 33004KT 6SM 21/21 A2988 RMK T02100210 IEM_DS3505
ZHHH,2008-08-31 00:00,ZHHH 310000Z AUTO 29002KT 11SM 22/19 A2988 RMK 70018 SLP125 T02200194 52015 IEM_DS3505
ZHHH,2008-08-31 01:00,ZHHH 310100Z AUTO 26004KT 3SM 23/22 A2991 RMK T02300220 IEM_DS3505
ZHHH,2008-08-31 02:00,ZHHH 310200Z AUTO 28004KT 3SM 25/22 A2991 RMK T02500220 IEM_DS3505
ZHHH,2008-08-31 03:00,ZHHH 310300Z AUTO 27002KT 12SM 26/19 A2988 RMK SLP125 T02630189 54000 IEM_DS3505
ZHHH,2008-08-31 04:00,ZHHH 310400Z AUTO 27006KT 7SM 27/22 A2988 RMK T02700220 IEM_DS3505
ZHHH,2008-08-31 05:00,ZHHH 310500Z AUTO 7SM 28/22 A2985 RMK T02800220 IEM_DS3505
ZHHH,2008-08-31 06:00,ZHHH 310600Z AUTO 27006KT 14SM 29/18 A2985 RMK SLP109 T02910179 57016 IEM_DS3505
ZHHH,2008-08-31 07:00,ZHHH 310700Z AUTO 26006KT 7SM 29/22 A2983 RMK T02900220 IEM_DS3505
ZHHH,2008-08-31 08:00,ZHHH 310800Z AUTO 27006KT 6SM 29/22 A2983 RMK T02900220 IEM_DS3505
ZHHH,2008-08-31 09:00,ZHHH 310900Z AUTO 27002KT 14SM 29/18 A2983 RMK SLP097 T02910185 57012 IEM_DS3505
ZHHH,2008-08-31 10:00,ZHHH 311000Z AUTO 26004KT 6SM 28/22 A2983 RMK T02800220 IEM_DS3505
ZHHH,2008-08-31 11:00,ZHHH 311100Z AUTO 26004KT 6SM 27/23 A2983 RMK T02700230 IEM_DS3505
ZHHH,2008-08-31 12:00,ZHHH 311200Z AUTO 22002KT 12SM 26/19 A2985 RMK SLP105 T02600194 52008 IEM_DS3505
ZHHH,2008-08-31 13:00,ZHHH 311300Z AUTO 00000KT 6SM 25/23 A2985 RMK T02500230 IEM_DS3505
ZHHH,2008-08-31 14:00,ZHHH 311400Z AUTO 31004KT 6SM 24/23 A2988 RMK T02400230 IEM_DS3505
ZHHH,2008-08-31 15:00,ZHHH 311500Z AUTO 00000KT 11SM 24/21 A2988 RMK SLP118 T02410206 52013 IEM_DS3505
ZHHH,2008-08-31 16:00,ZHHH 311600Z AUTO 02006KT 6SM 24/21 A2988 RMK T02400210 IEM_DS3505
ZHHH,2008-08-31 17:00,ZHHH 311700Z AUTO 03004KT 7SM 23/20 A2988 RMK T02300200 IEM_DS3505
ZHHH,2008-08-31 18:00,ZHHH 311800Z AUTO 00000KT 11SM 22/19 A2985 RMK SLP114 T02250187 57004 IEM_DS3505
ZHHH,2008-08-31 19:00,ZHHH 311900Z AUTO 06002KT 6SM 21/19 A2985 RMK T02100190 IEM_DS3505
ZHHH,2008-08-31 20:00,ZHHH 312000Z AUTO 06004KT 6SM 21/19 A2985 RMK T02100190 IEM_DS3505
ZHHH,2008-08-31 21:00,ZHHH 312100Z AUTO 07002KT 11SM 22/17 A2985 RMK SLP112 T02190173 57002 IEM_DS3505
ZHHH,2008-08-31 22:00,ZHHH 312200Z AUTO 06004KT 6SM 21/18 A2988 RMK T02100180 IEM_DS3505
ZHHH,2008-08-31 23:00,ZHHH 312300Z AUTO 6SM 21/19 A2988 RMK T02100190 IEM_DS3505
ZHHH,2008-09-01 00:00,ZHHH 010000Z AUTO 02004KT 12SM 24/16 A2991 RMK SLP124 T02450165 52012 IEM_DS3505
ZHHH,2008-09-01 01:00,ZHHH 010100Z AUTO 01004KT 6SM 25/20 A2991 RMK T02500200 IEM_DS3505
ZHHH,2008-09-01 02:00,ZHHH 010200Z AUTO 32004KT 6SM 27/20 A2991 RMK T02700200 IEM_DS3505
ZHHH,2008-09-01 03:00,ZHHH 010300Z AUTO 32004KT 12SM 27/17 A2991 RMK SLP133 T02700166 52009 IEM_DS3505
ZHHH,2008-09-01 04:00,ZHHH 010400Z AUTO 28006KT 6SM 28/20 A2991 RMK T02800200 IEM_DS3505
ZHHH,2008-09-01 05:00,ZHHH 010500Z AUTO 29006KT 6SM 29/19 A2988 RMK T02900190 IEM_DS3505
ZHHH,2008-09-01 06:00,ZHHH 010600Z AUTO 04002KT 12SM 30/13 A2988 RMK SLP117 T02960130 57016 IEM_DS3505
ZHHH,2008-09-01 07:00,ZHHH 010700Z AUTO 25004KT 7SM 29/19 A2985 RMK T02900190 IEM_DS3505
ZHHH,2008-09-01 08:00,ZHHH 010800Z AUTO 7SM 29/18 A2985 RMK T02900180 IEM_DS3505
ZHHH,2008-09-01 09:00,ZHHH 010900Z AUTO 34002KT 11SM 29/16 A2985 RMK SLP105 T02890165 57012 IEM_DS3505
ZHHH,2008-09-01 10:00,ZHHH 011000Z AUTO 23002KT 6SM 27/18 A2983 RMK T02700180 IEM_DS3505
ZHHH,2008-09-01 11:00,ZHHH 011100Z AUTO 6SM 27/17 A2985 RMK T02700170 IEM_DS3505
ZHHH,2008-09-01 12:00,ZHHH 011200Z AUTO 07002KT 14SM 24/18 A2985 RMK SLP109 T02400175 52004 IEM_DS3505
ZHHH,2008-09-01 13:00,ZHHH 011300Z AUTO 00000KT 6SM 25/19 A2985 RMK T02500190 IEM_DS3505
ZHHH,2008-09-01 14:00,ZHHH 011400Z AUTO 17004KT 6SM 25/18 A2988 RMK T02500180 IEM_DS3505
ZHHH,2008-09-01 15:00,ZHHH 011500Z AUTO 07002KT 12SM 23/18 A2985 RMK SLP116 T02300179 52007 IEM_DS3505
ZHHH,2008-09-01 16:00,ZHHH 011600Z AUTO 04004KT 4SM 23/21 A2988 RMK T02300210 IEM_DS3505
ZHHH,2008-09-01 17:00,ZHHH 011700Z AUTO 06004KT 4SM 22/20 A2985 RMK T02200200 IEM_DS3505
ZHHH,2008-09-01 18:00,ZHHH 011800Z AUTO 00000KT 9SM 23/20 A2985 RMK SLP109 T02270199 57007 IEM_DS3505
ZHHH,2008-09-01 19:00,ZHHH 011900Z AUTO 06004KT 4SM 21/20 A2985 RMK T02100200 IEM_DS3505
ZHHH,2008-09-01 20:00,ZHHH 012000Z AUTO 10004KT 4SM 21/20 A2988 RMK T02100200 IEM_DS3505
ZHHH,2008-09-01 21:00,ZHHH 012100Z AUTO 07002KT 7SM 22/19 A2988 RMK SLP117 T02250191 52008 IEM_DS3505
ZHHH,2008-09-01 22:00,ZHHH 012200Z AUTO 10004KT 6SM 21/20 A2988 RMK T02100200 IEM_DS3505
ZHHH,2008-09-01 23:00,ZHHH 012300Z AUTO 07006KT 6SM 21/20 A2988 RMK T02100200 IEM_DS3505
ZHHH,2008-09-02 00:00,ZHHH 020000Z AUTO 09002KT 14SM 25/18 A2988 RMK SLP121 T02470177 52004 IEM_DS3505
ZHHH,2008-09-02 01:00,ZHHH 020100Z AUTO 10006KT 6SM 24/20 A2988 RMK T02400200 IEM_DS3505
ZHHH,2008-09-02 02:00,ZHHH 020200Z AUTO 10006KT 6SM 27/21 A2991 RMK T02700210 IEM_DS3505
ZHHH,2008-09-02 03:00,ZHHH 020300Z AUTO 07002KT 14SM 28/16 A2991 RMK SLP124 T02840163 52003 IEM_DS3505
ZHHH,2008-09-02 04:00,ZHHH 020400Z AUTO 14006KT 7SM 28/20 A2988 RMK T02800200 IEM_DS3505
ZHHH,2008-09-02 05:00,ZHHH 020500Z AUTO 11004KT 7SM 29/18 A2988 RMK T02900180 IEM_DS3505
ZHHH,2008-09-02 06:00,ZHHH 020600Z AUTO 11004KT 11SM 29/15 A2985 RMK SLP108 T02940148 57016 IEM_DS3505
ZHHH,2008-09-02 07:00,ZHHH 020700Z AUTO 09006KT 6SM 30/18 A2983 RMK T03000180 IEM_DS3505
ZHHH,2008-09-02 08:00,ZHHH 020800Z AUTO 14004KT 6SM 29/19 A2983 RMK T02900190 IEM_DS3505
ZHHH,2008-09-02 09:00,ZHHH 020900Z AUTO 07004KT 11SM 29/16 A2983 RMK SLP096 T02910160 57012 IEM_DS3505
ZHHH,2008-09-02 10:00,ZHHH 021000Z AUTO 11006KT 6SM 27/19 A2983 RMK T02700190 IEM_DS3505
ZHHH,2008-09-02 11:00,ZHHH 021100Z AUTO 10006KT 6SM 26/19 A2983 RMK T02600190 IEM_DS3505
ZHHH,2008-09-02 12:00,ZHHH 021200Z AUTO 07002KT 11SM 26/16 A2983 RMK SLP102 T02610164 52006 IEM_DS3505
ZHHH,2008-09-02 13:00,ZHHH 021300Z AUTO 09006KT 6SM 25/19 A2985 RMK T02500190 IEM_DS3505
ZHHH,2008-09-02 14:00,ZHHH 021400Z AUTO 11006KT 6SM 24/20 A2985 RMK T02400200 IEM_DS3505
ZHHH,2008-09-02 15:00,ZHHH 021500Z AUTO 09002KT 11SM 24/17 A2985 RMK SLP112 T02360171 52010 IEM_DS3505
ZHHH,2008-09-02 16:00,ZHHH 021600Z AUTO 08006KT 6SM 24/21 A2985 RMK T02400210 IEM_DS3505
ZHHH,2008-09-02 17:00,ZHHH 021700Z AUTO 08008KT 6SM 23/21 A2985 RMK T02300210 IEM_DS3505
ZHHH,2008-09-02 18:00,ZHHH 021800Z AUTO 07002KT 12SM 25/19 A2985 RMK SLP106 T02470189 57006 IEM_DS3505
ZHHH,2008-09-02 19:00,ZHHH 021900Z AUTO 06006KT 4SM 22/21 A2983 RMK T02200210 IEM_DS3505
ZHHH,2008-09-02 20:00,ZHHH 022000Z AUTO 04004KT 4SM 22/21 A2983 RMK T02200210 IEM_DS3505
ZHHH,2008-09-02 21:00,ZHHH 022100Z AUTO 07002KT 9SM 24/19 A2983 RMK SLP102 T02360193 57004 IEM_DS3505
ZHHH,2008-09-02 22:00,ZHHH 022200Z AUTO 07006KT 3SM 22/21 A2985 RMK T02200210 IEM_DS3505
ZHHH,2008-09-02 23:00,ZHHH 022300Z AUTO 08006KT 3SM 22/21 A2985 RMK T02200210 IEM_DS3505
ZHHH,2008-09-03 00:00,ZHHH 030000Z AUTO 09002KT 9SM 24/20 A2985 RMK SLP110 T02410196 52008 IEM_DS3505
ZHHH,2008-09-03 01:00,ZHHH 030100Z AUTO 09008KT 4SM 23/22 A2985 RMK T02300220 IEM_DS3505
ZHHH,2008-09-03 02:00,ZHHH 030200Z AUTO 11006KT 4SM 24/22 A2985 RMK T02400220 IEM_DS3505
ZHHH,2008-09-03 03:00,ZHHH 030300Z AUTO 07002KT 11SM 27/17 A2985 RMK SLP108 T02740167 57002 IEM_DS3505
ZHHH,2008-09-03 04:00,ZHHH 030400Z AUTO 12004KT 4SM 27/22 A2985 RMK T02700220 IEM_DS3505
ZHHH,2008-09-03 05:00,ZHHH 030500Z AUTO 5SM 27/21 A2985 RMK T02700210 IEM_DS3505
ZHHH,2008-09-03 06:00,ZHHH 030600Z AUTO 04006KT 11SM 28/19 A2985 RMK SLP101 T02780191 57007 IEM_DS3505
ZHHH,2008-09-03 07:00,ZHHH 030700Z AUTO 01006KT 5SM 27/20 A2983 RMK T02700200 IEM_DS3505
ZHHH,2008-09-03 08:00,ZHHH 030800Z AUTO 36008KT 7SM 23/21 A2983 RMK T02300210 IEM_DS3505
ZHHH,2008-09-03 09:00,ZHHH 030900Z AUTO 34006KT 7SM 22/18 A2985 RMK SLP107 T02240184 52006 IEM_DS3505
ZHHH,2008-09-03 10:00,ZHHH 031000Z AUTO 34004KT 4SM 20/20 A2985 RMK T02000200 IEM_DS3505
ZHHH,2008-09-03 11:00,ZHHH 031100Z AUTO 35004KT 7SM 20/20 A2985 RMK T02000200 IEM_DS3505
ZHHH,2008-09-03 12:00,ZHHH 031200Z AUTO 02002KT 7SM 21/19 A2985 RMK 60035 SLP115 T02080187 52008 IEM_DS3505
ZHHH,2008-09-03 13:00,ZHHH 031300Z AUTO 00000KT 7SM 20/20 A2988 RMK T02000200 IEM_DS3505
ZHHH,2008-09-03 14:00,ZHHH 031400Z AUTO 02004KT 6SM 20/20 A2988 RMK T02000200 IEM_DS3505
ZHHH,2008-09-03 15:00,ZHHH 031500Z AUTO 34004KT 9SM 21/19 A2988 RMK SLP116 T02130189 52001 IEM_DS3505
ZHHH,2008-09-03 16:00,ZHHH 031600Z AUTO 36004KT 6SM 20/20 A2985 RMK T02000200 IEM_DS3505
ZHHH,2008-09-03 17:00,ZHHH 031700Z AUTO 36004KT 6SM 20/20 A2985 RMK T02000200 IEM_DS3505
ZHHH,2008-09-03 18:00,ZHHH 031800Z AUTO 32002KT 9SM 21/19 A2985 RMK 60004 SLP111 T02120190 57005 IEM_DS3505
ZHHH,2008-09-03 19:00,ZHHH 031900Z AUTO 4SM 20/20 A2985 RMK T02000200 IEM_DS3505
ZHHH,2008-09-03 20:00,ZHHH 032000Z AUTO 00000KT 2 1/2SM 20/20 A2985 RMK T02000200 IEM_DS3505
ZHHH,2008-09-03 21:00,ZHHH 032100Z AUTO 27002KT 7SM 20/19 A2985 RMK 70039 SLP111 T02050186 54000 IEM_DS3505
ZHHH,2008-09-03 22:00,ZHHH 032200Z AUTO 3SM 20/19 A2985 RMK T02000190 IEM_DS3505
ZHHH,2008-09-03 23:00,ZHHH 032300Z AUTO 1 1/4SM 19/19 A2988 RMK T01900190 IEM_DS3505
ZHHH,2008-09-04 00:00,ZHHH 040000Z AUTO 36002KT 6SM 19/18 A2988 RMK 60028 70067 SLP118 T01870175 52006 IEM_DS3505
ZHHH,2008-09-04 01:00,ZHHH 040100Z AUTO 01004KT 1SM 19/19 A2988 RMK T01900190 IEM_DS3505
ZHHH,2008-09-04 02:00,ZHHH 040200Z AUTO 1 1/4SM 20/20 A2988 RMK T02000200 IEM_DS3505
ZHHH,2008-09-04 03:00,ZHHH 040300Z AUTO 29002KT 6SM 20/18 A2988 RMK SLP121 T01960184 52004 IEM_DS3505
ZHHH,2008-09-04 04:00,ZHHH 040400Z AUTO 02004KT 2 1/2SM 20/20 A2988 RMK T02000200 IEM_DS3505
ZHHH,2008-09-04 05:00,ZHHH 040500Z AUTO 4SM 20/20 A2985 RMK T02000200 IEM_DS3505
ZHHH,2008-09-04 06:00,ZHHH 040600Z AUTO 36002KT 9SM 21/19 A2985 RMK 60067 SLP109 T02130190 57012 IEM_DS3505
ZHHH,2008-09-04 07:00,ZHHH 040700Z AUTO 02004KT 4SM 21/21 A2983 RMK T02100210 IEM_DS3505
ZHHH,2008-09-04 08:00,ZHHH 040800Z AUTO 03004KT 4SM 22/22 A2983 RMK T02200220 IEM_DS3505
ZHHH,2008-09-04 09:00,ZHHH 040900Z AUTO 09004KT 9SM 23/19 A2983 RMK SLP097 T02260194 57012 IEM_DS3505
ZHHH,2008-09-04 10:00,ZHHH 041000Z AUTO 5SM 22/21 A2983 RMK T02200210 IEM_DS3505
ZHHH,2008-09-04 11:00,ZHHH 041100Z AUTO 08002KT 6SM 22/21 A2983 RMK T02200210 IEM_DS3505
ZHHH,2008-09-04 12:00,ZHHH 041200Z AUTO 00000KT 9SM 22/20 A2983 RMK SLP100 T02200199 52003 IEM_DS3505
ZHHH,2008-09-04 13:00,ZHHH 041300Z AUTO 11004KT 4SM 21/21 A2983 RMK T02100210 IEM_DS3505
ZHHH,2008-09-04 14:00,ZHHH 041400Z AUTO 00000KT 4SM 21/21 A2985 RMK T02100210 IEM_DS3505
ZHHH,2008-09-04 15:00,ZHHH 041500Z AUTO 34002KT 9SM 21/20 A2985 RMK SLP106 T02110197 52006 IEM_DS3505
ZHHH,2008-09-04 16:00,ZHHH 041600Z AUTO 00000KT 2 1/2SM 21/21 A2985 RMK T02100210 IEM_DS3505
ZHHH,2008-09-04 17:00,ZHHH 041700Z AUTO 01002KT 1 1/2SM 21/21 A2983 RMK T02100210 IEM_DS3505
ZHHH,2008-09-04 18:00,ZHHH 041800Z AUTO 27002KT 7SM 22/20 A2983 RMK SLP104 T02150200 57002 IEM_DS3505
ZHHH,2008-09-04 19:00,ZHHH 041900Z AUTO 1 1/4SM 21/21 A2983 RMK T02100210 IEM_DS3505
ZHHH,2008-09-04 20:00,ZHHH 042000Z AUTO 1SM 21/21 A2983 RMK T02100210 IEM_DS3505
ZHHH,2008-09-04 21:00,ZHHH 042100Z AUTO 27002KT 5SM 21/20 A2983 RMK 70095 SLP100 T02140200 57004 IEM_DS3505
ZHHH,2008-09-04 22:00,ZHHH 042200Z AUTO 02002KT 1SM 20/20 A2983 RMK T02000200 IEM_DS3505
ZHHH,2008-09-04 23:00,ZHHH 042300Z AUTO 02002KT 1SM 20/20 A2985 RMK T02000200 IEM_DS3505
ZHHH,2008-09-05 00:00,ZHHH 050000Z AUTO 16002KT 5SM 22/20 A2985 RMK 70068 SLP113 T02190198 52013 IEM_DS3505
ZHHH,2008-09-05 01:00,ZHHH 050100Z AUTO 2SM 23/22 A2988 RMK T02300220 IEM_DS3505
ZHHH,2008-09-05 02:00,ZHHH 050200Z AUTO 4SM 25/22 A2988 RMK T02500220 IEM_DS3505
ZHHH,2008-09-05 03:00,ZHHH 050300Z AUTO 11002KT 6SM 26/20 A2988 RMK SLP123 T02590195 52010 IEM_DS3505
ZHHH,2008-09-05 04:00,ZHHH 050400Z AUTO 29006KT 7SM 27/23 A2988 RMK T02700230 IEM_DS3505
ZHHH,2008-09-05 05:00,ZHHH 050500Z AUTO 27004KT 7SM 27/23 A2988 RMK T02700230 IEM_DS3505
ZHHH,2008-09-05 06:00,ZHHH 050600Z AUTO 00000KT 9SM 28/20 A2985 RMK SLP111 T02770195 57012 IEM_DS3505
ZHHH,2008-09-05 07:00,ZHHH 050700Z AUTO 28004KT 7SM 29/23 A2985 RMK T02900230 IEM_DS3505
ZHHH,2008-09-05 08:00,ZHHH 050800Z AUTO 32004KT 7SM 28/23 A2985 RMK T02800230 IEM_DS3505
ZHHH,2008-09-05 09:00,ZHHH 050900Z AUTO 36002KT 9SM 28/20 A2985 RMK SLP108 T02790197 57003 IEM_DS3505
ZHHH,2008-09-05 10:00,ZHHH 051000Z AUTO 6SM 27/23 A2985 RMK T02700230 IEM_DS3505
ZHHH,2008-09-05 11:00,ZHHH 051100Z AUTO 6SM 26/22 A2985 RMK T02600220 IEM_DS3505
ZHHH,2008-09-05 12:00,ZHHH 051200Z AUTO 25002KT 7SM 26/21 A2985 RMK SLP114 T02570209 52006 IEM_DS3505
ZHHH,2008-09-05 13:00,ZHHH 051300Z AUTO 15004KT 5SM 25/23 A2988 RMK T02500230 IEM_DS3505
ZHHH,2008-09-05 14:00,ZHHH 051400Z AUTO 17004KT 4SM 25/23 A2991 RMK T02500230 IEM_DS3505
ZHHH,2008-09-05 15:00,ZHHH 051500Z AUTO 14002KT 5SM 25/21 A2991 RMK SLP125 T02510214 52011 IEM_DS3505
ZHHH,2008-09-05 16:00,ZHHH 051600Z AUTO 1 1/4SM 25/24 A2991 RMK T02500240 IEM_DS3505
ZHHH,2008-09-05 17:00,ZHHH 051700Z AUTO 00000KT 1SM 25/24 A2991 RMK T02500240 IEM_DS3505
ZHHH,2008-09-05 18:00,ZHHH 051800Z AUTO 07002KT 6SM 24/21 A2991 RMK SLP123 T02450214 57002 IEM_DS3505
ZHHH,2008-09-05 19:00,ZHHH 051900Z AUTO 07002KT 1SM 24/24 A2991 RMK T02400240 IEM_DS3505
ZHHH,2008-09-05 20:00,ZHHH 052000Z AUTO 1SM 24/24 A2991 RMK T02400240 IEM_DS3505
ZHHH,2008-09-05 21:00,ZHHH 052100Z AUTO 00000KT 5SM 23/22 A2991 RMK SLP126 T02320215 52003 IEM_DS3505
ZHHH,2008-09-05 22:00,ZHHH 052200Z AUTO 06004KT 1SM 23/23 A2991 RMK T02300230 IEM_DS3505
ZHHH,2008-09-05 23:00,ZHHH 052300Z AUTO 07004KT 1SM 23/23 A2994 RMK T02300230 IEM_DS3505
ZHHH,2008-09-06 00:00,ZHHH 060000Z AUTO 04002KT 6SM 25/22 A2994 RMK SLP138 T02470218 52012 IEM_DS3505
ZHHH,2008-09-06 01:00,ZHHH 060100Z AUTO 09004KT 1 1/2SM 26/24 A2994 RMK T02600240 IEM_DS3505
ZHHH,2008-09-06 02:00,ZHHH 060200Z AUTO 08004KT 3SM 28/24 A2994 RMK T02800240 IEM_DS3505
ZHHH,2008-09-06 03:00,ZHHH 060300Z AUTO 09004KT 9SM 29/22 A2994 RMK SLP138 T02880218 54000 IEM_DS3505
ZHHH,2008-09-06 04:00,ZHHH 060400Z AUTO 27004KT 3SM 29/25 A2994 RMK T02900250 IEM_DS3505
ZHHH,2008-09-06 05:00,ZHHH 060500Z AUTO 4SM 30/24 A2991 RMK T03000240 IEM_DS3505
ZHHH,2008-09-06 06:00,ZHHH 060600Z AUTO 14002KT 7SM 29/21 A2988 RMK SLP125 T02880213 57013 IEM_DS3505
ZHHH,2008-09-06 07:00,ZHHH 060700Z AUTO 21006KT 4SM 30/24 A2988 RMK T03000240 IEM_DS3505
ZHHH,2008-09-06 08:00,ZHHH 060800Z AUTO 14006KT 4SM 29/24 A2988 RMK T02900240 IEM_DS3505
ZHHH,2008-09-06 09:00,ZHHH 060900Z AUTO 09004KT 9SM 29/21 A2988 RMK SLP120 T02900207 57005 IEM_DS3505
ZHHH,2008-09-06 10:00,ZHHH 061000Z AUTO 13004KT 3SM 28/25 A2988 RMK T02800250 IEM_DS3505
ZHHH,2008-09-06 11:00,ZHHH 061100Z AUTO 13004KT 3SM 27/24 A2988 RMK T02700240 IEM_DS3505
ZHHH,2008-09-06 12:00,ZHHH 061200Z AUTO 09002KT 9SM 26/22 A2991 RMK SLP125 T02640218 52005 IEM_DS3505
ZHHH,2008-09-06 13:00,ZHHH 061300Z AUTO 11004KT 2 1/2SM 26/24 A2994 RMK T02600240 IEM_DS3505
ZHHH,2008-09-06 14:00,ZHHH 061400Z AUTO 11006KT 2 1/2SM 25/24 A2994 RMK T02500240 IEM_DS3505
ZHHH,2008-09-06 15:00,ZHHH 061500Z AUTO 09002KT 9SM 26/22 A2994 RMK SLP142 T02590222 52017 IEM_DS3505
ZHHH,2008-09-06 16:00,ZHHH 061600Z AUTO 1 1/4SM 25/24 A2994 RMK T02500240 IEM_DS3505
ZHHH,2008-09-06 17:00,ZHHH 061700Z AUTO 10004KT 1 1/4SM 24/24 A2994 RMK T02400240 IEM_DS3505
ZHHH,2008-09-06 18:00,ZHHH 061800Z AUTO 09002KT 9SM 25/22 A2994 RMK SLP138 T02510220 57004 IEM_DS3505
ZHHH,2008-09-06 19:00,ZHHH 061900Z AUTO 11004KT 1 1/4SM 24/24 A2994 RMK T02400240 IEM_DS3505
ZHHH,2008-09-06 20:00,ZHHH 062000Z AUTO 05002KT 1SM 24/24 A2994 RMK T02400240 IEM_DS3505
ZHHH,2008-09-06 21:00,ZHHH 062100Z AUTO 09002KT 9SM 24/22 A2994 RMK SLP136 T02370220 57002 IEM_DS3505
ZHHH,2008-09-06 22:00,ZHHH 062200Z AUTO 07006KT 1SM 23/23 A2994 RMK T02300230 IEM_DS3505
ZHHH,2008-09-06 23:00,ZHHH 062300Z AUTO 06004KT 1SM 24/24 A2997 RMK T02400240 IEM_DS3505
ZHHH,2008-09-07 00:00,ZHHH 070000Z AUTO 04002KT 5SM 25/22 A2997 RMK SLP146 T02540225 52010 IEM_DS3505
ZHHH,2008-09-07 01:00,ZHHH 070100Z AUTO 07004KT 1 1/2SM 26/25 A2997 RMK T02600250 IEM_DS3505
ZHHH,2008-09-07 02:00,ZHHH 070200Z AUTO 08006KT 2SM 28/26 A2997 RMK T02800260 IEM_DS3505
ZHHH,2008-09-07 03:00,ZHHH 070300Z AUTO 14002KT 7SM 29/22 A2997 RMK SLP140 T02940219 57006 IEM_DS3505
ZHHH,2008-09-07 04:00,ZHHH 070400Z AUTO 07004KT 4SM 29/26 A2994 RMK T02900260 IEM_DS3505
ZHHH,2008-09-07 05:00,ZHHH 070500Z AUTO 4SM 30/26 A2991 RMK T03000260 IEM_DS3505
ZHHH,2008-09-07 06:00,ZHHH 070600Z AUTO 04004KT 9SM 31/23 A2991 RMK SLP123 T03120228 57017 IEM_DS3505
ZHHH,2008-09-07 07:00,ZHHH 070700Z AUTO 7SM 32/27 A2988 RMK T03200270 IEM_DS3505
ZHHH,2008-09-07 08:00,ZHHH 070800Z AUTO 11004KT 7SM 31/26 A2985 RMK T03100260 IEM_DS3505
ZHHH,2008-09-07 09:00,ZHHH 070900Z AUTO 04004KT 9SM 31/22 A2985 RMK SLP108 T03090225 57015 IEM_DS3505
ZHHH,2008-09-07 10:00,ZHHH 071000Z AUTO 04004KT 6SM 30/25 A2985 RMK T03000250 IEM_DS3505
ZHHH,2008-09-07 11:00,ZHHH 071100Z AUTO 06004KT 6SM 29/26 A2985 RMK T02900260 IEM_DS3505
ZHHH,2008-09-07 12:00,ZHHH 071200Z AUTO 04002KT 9SM 29/23 A2991 RMK SLP122 T02910233 52014 IEM_DS3505
ZHHH,2008-09-07 13:00,ZHHH 071300Z AUTO 05006KT 7SM 26/25 A2994 RMK T02600250 IEM_DS3505
ZHHH,2008-09-07 14:00,ZHHH 071400Z AUTO 08010KT 4SM 25/25 A2994 RMK T02500250 IEM_DS3505
ZHHH,2008-09-07 15:00,ZHHH 071500Z AUTO 09002KT 9SM 27/24 A2994 RMK SLP138 T02660235 52016 IEM_DS3505
ZHHH,2008-09-07 16:00,ZHHH 071600Z AUTO 07006KT 7SM 25/25 A2994 RMK T02500250 IEM_DS3505
ZHHH,2008-09-07 17:00,ZHHH 071700Z AUTO 09006KT 6SM 25/25 A2994 RMK T02500250 IEM_DS3505
ZHHH,2008-09-07 18:00,ZHHH 071800Z AUTO 07004KT 9SM 26/24 A2991 RMK SLP132 T02580237 57006 IEM_DS3505
ZHHH,2008-09-07 19:00,ZHHH 071900Z AUTO 07006KT 2SM 25/24 A2991 RMK T02500240 IEM_DS3505
ZHHH,2008-09-07 20:00,ZHHH 072000Z AUTO 07006KT 2SM 25/24 A2991 RMK T02500240 IEM_DS3505
ZHHH,2008-09-07 21:00,ZHHH 072100Z AUTO 07004KT 9SM 26/24 A2991 RMK SLP124 T02560235 57008 IEM_DS3505
ZHHH,2008-09-07 22:00,ZHHH 072200Z AUTO 07006KT 1 1/2SM 24/24 A2991 RMK T02400240 IEM_DS3505
ZHHH,2008-09-07 23:00,ZHHH 072300Z AUTO 08006KT 1 1/2SM 25/24 A2994 RMK T02500240 IEM_DS3505
ZHHH,2008-09-08 00:00,ZHHH 080000Z AUTO 07004KT 7SM 26/23 A2994 RMK SLP140 T02590234 52016 IEM_DS3505
ZHHH,2008-09-08 01:00,ZHHH 080100Z AUTO 08008KT 2 1/2SM 26/25 A2997 RMK T02600250 IEM_DS3505
ZHHH,2008-09-08 02:00,ZHHH 080200Z AUTO 09010KT 3SM 27/25 A2997 RMK T02700250 IEM_DS3505
ZHHH,2008-09-08 03:00,ZHHH 080300Z AUTO 07004KT 9SM 28/23 A2994 RMK SLP141 T02850234 52001 IEM_DS3505
ZHHH,2008-09-08 04:00,ZHHH 080400Z AUTO 12008KT 6SM 29/26 A2994 RMK T02900260 IEM_DS3505
ZHHH,2008-09-08 05:00,ZHHH 080500Z AUTO 08008KT 6SM 30/26 A2991 RMK T03000260 IEM_DS3505
ZHHH,2008-09-08 06:00,ZHHH 080600Z AUTO 07004KT 11SM 31/23 A2988 RMK SLP116 T03110232 57025 IEM_DS3505
ZHHH,2008-09-08 07:00,ZHHH 080700Z AUTO 10008KT 7SM 32/27 A2985 RMK T03200270 IEM_DS3505
ZHHH,2008-09-08 08:00,ZHHH 080800Z AUTO 08008KT 7SM 31/27 A2985 RMK T03100270 IEM_DS3505
ZHHH,2008-09-08 09:00,ZHHH 080900Z AUTO 07004KT 11SM 31/23 A2985 RMK SLP108 T03120233 57008 IEM_DS3505
ZHHH,2008-09-08 10:00,ZHHH 081000Z AUTO 04006KT 7SM 29/27 A2985 RMK T02900270 IEM_DS3505
ZHHH,2008-09-08 11:00,ZHHH 081100Z AUTO 05008KT 7SM 28/26 A2988 RMK T02800260 IEM_DS3505
ZHHH,2008-09-08 12:00,ZHHH 081200Z AUTO 07004KT 9SM 28/24 A2988 RMK SLP116 T02850236 52008 IEM_DS3505
ZHHH,2008-09-08 13:00,ZHHH 081300Z AUTO 06008KT 7SM 26/24 A2991 RMK T02600240 IEM_DS3505
ZHHH,2008-09-08 14:00,ZHHH 081400Z AUTO 06008KT 7SM 26/24 A2991 RMK T02600240 IEM_DS3505
ZHHH,2008-09-08 15:00,ZHHH 081500Z AUTO 07004KT 9SM 26/22 A2991 RMK SLP129 T02650224 52013 IEM_DS3505
ZHHH,2008-09-08 16:00,ZHHH 081600Z AUTO 07006KT 7SM 25/24 A2991 RMK T02500240 IEM_DS3505
ZHHH,2008-09-08 17:00,ZHHH 081700Z AUTO 08008KT 4SM 24/24 A2991 RMK T02400240 IEM_DS3505
ZHHH,2008-09-08 18:00,ZHHH 081800Z AUTO 07004KT 9SM 26/23 A2988 RMK SLP121 T02600227 57008 IEM_DS3505
ZHHH,2008-09-08 19:00,ZHHH 081900Z AUTO 07008KT 4SM 24/23 A2988 RMK T02400230 IEM_DS3505
ZHHH,2008-09-08 20:00,ZHHH 082000Z AUTO 04004KT 4SM 24/23 A2988 RMK T02400230 IEM_DS3505
ZHHH,2008-09-08 21:00,ZHHH 082100Z AUTO 04004KT 4SM 23/23 A2988 RMK T02300230 IEM_DS3505
ZHHH,2008-09-08 22:00,ZHHH 082200Z AUTO 08006KT 2 1/2SM 23/23 A2988 RMK T02300230 IEM_DS3505
ZHHH,2008-09-08 23:00,ZHHH 082300Z AUTO 07006KT 2 1/2SM 23/23 A2991 RMK T02300230 IEM_DS3505
ZHHH,2008-09-09 00:00,ZHHH 090000Z AUTO 07004KT 9SM 26/22 A2991 RMK SLP128 T02570220 52009 IEM_DS3505
ZHHH,2008-09-09 01:00,ZHHH 090100Z AUTO 10008KT 4SM 27/25 A2991 RMK T02700250 IEM_DS3505
ZHHH,2008-09-09 02:00,ZHHH 090200Z AUTO 11006KT 4SM 28/25 A2991 RMK T02800250 IEM_DS3505
ZHHH,2008-09-09 03:00,ZHHH 090300Z AUTO 14004KT 11SM 30/22 A2988 RMK SLP122 T03030222 57006 IEM_DS3505
ZHHH,2008-09-09 04:00,ZHHH 090400Z AUTO 3SM 30/26 A2988 RMK T03000260 IEM_DS3505
ZHHH,2008-09-09 05:00,ZHHH 090500Z AUTO 06004KT 3SM 31/26 A2985 RMK T03100260 IEM_DS3505
ZHHH,2008-09-09 06:00,ZHHH 090600Z AUTO 04002KT 9SM 31/23 A2985 RMK SLP104 T03130229 57018 IEM_DS3505
ZHHH,2008-09-09 07:00,ZHHH 090700Z AUTO 3SM 31/26 A2983 RMK T03100260 IEM_DS3505
ZHHH,2008-09-09 08:00,ZHHH 090800Z AUTO 08004KT 4SM 31/26 A2980 RMK T03100260 IEM_DS3505
ZHHH,2008-09-09 09:00,ZHHH 090900Z AUTO 07004KT 9SM 31/23 A2980 RMK SLP088 T03130231 57016 IEM_DS3505
ZHHH,2008-09-09 10:00,ZHHH 091000Z AUTO 4SM 31/26 A2980 RMK T03100260 IEM_DS3505
ZHHH,2008-09-09 11:00,ZHHH 091100Z AUTO 13004KT 3SM 29/26 A2980 RMK T02900260 IEM_DS3505
ZHHH,2008-09-09 12:00,ZHHH 091200Z AUTO 04002KT 9SM 29/24 A2983 RMK SLP096 T02920239 52008 IEM_DS3505
ZHHH,2008-09-09 13:00,ZHHH 091300Z AUTO 06002KT 3SM 28/25 A2983 RMK T02800250 IEM_DS3505
ZHHH,2008-09-09 14:00,ZHHH 091400Z AUTO 00000KT 3SM 28/25 A2985 RMK T02800250 IEM_DS3505
ZHHH,2008-09-09 15:00,ZHHH 091500Z AUTO 34002KT 9SM 27/24 A2985 RMK SLP105 T02690242 52009 IEM_DS3505
ZHHH,2008-09-09 16:00,ZHHH 091600Z AUTO 04002KT 4SM 27/26 A2985 RMK T02700260 IEM_DS3505
ZHHH,2008-09-09 17:00,ZHHH 091700Z AUTO 06006KT 4SM 26/26 A2985 RMK T02600260 IEM_DS3505
ZHHH,2008-09-09 18:00,ZHHH 091800Z AUTO 09002KT 7SM 27/24 A2983 RMK SLP102 T02680243 57003 IEM_DS3505
ZHHH,2008-09-09 19:00,ZHHH 091900Z AUTO 06004KT 2 1/2SM 26/25 A2983 RMK T02600250 IEM_DS3505
ZHHH,2008-09-09 20:00,ZHHH 092000Z AUTO 08004KT 2 1/2SM 25/25 A2983 RMK T02500250 IEM_DS3505
ZHHH,2008-09-09 21:00,ZHHH 092100Z AUTO 09002KT 7SM 26/24 A2985 RMK SLP104 T02650242 52002 IEM_DS3505
ZHHH,2008-09-09 22:00,ZHHH 092200Z AUTO 08004KT 1 1/4SM 25/25 A2985 RMK T02500250 IEM_DS3505
ZHHH,2008-09-09 23:00,ZHHH 092300Z AUTO 04002KT 1 1/4SM 25/25 A2985 RMK T02500250 IEM_DS3505
ZHHH,2008-09-10 00:00,ZHHH 100000Z AUTO 11002KT 9SM 28/24 A2988 RMK SLP115 T02810243 52011 IEM_DS3505
ZHHH,2008-09-10 01:00,ZHHH 100100Z AUTO 2 1/2SM 29/27 A2988 RMK T02900270 IEM_DS3505
ZHHH,2008-09-10 02:00,ZHHH 100200Z AUTO 2 1/2SM 31/27 A2988 RMK T03100270 IEM_DS3505
ZHHH,2008-09-10 03:00,ZHHH 100300Z AUTO 07004KT 12SM 31/24 A2988 RMK SLP121 T03120238 52006 IEM_DS3505
ZHHH,2008-09-10 04:00,ZHHH 100400Z AUTO 30004KT 3SM 32/28 A2988 RMK T03200280 IEM_DS3505
ZHHH,2008-09-10 05:00,ZHHH 100500Z AUTO 34010KT 1SM 25/24 A2991 RMK T02500240 IEM_DS3505
ZHHH,2008-09-10 06:00,ZHHH 100600Z AUTO 36006KT 9SM 26/22 A2988 RMK SLP118 T02650221 57003 IEM_DS3505
ZHHH,2008-09-10 07:00,ZHHH 100700Z AUTO 02008KT 7SM 26/24 A2985 RMK T02600240 IEM_DS3505
ZHHH,2008-09-10 08:00,ZHHH 100800Z AUTO 04012KT 7SM 26/23 A2985 RMK T02600230 IEM_DS3505
ZHHH,2008-09-10 09:00,ZHHH 100900Z AUTO 02006KT 12SM 26/20 A2988 RMK SLP118 T02600196 54000 IEM_DS3505
ZHHH,2008-09-10 10:00,ZHHH 101000Z AUTO 04012KT 6SM 23/20 A2991 RMK T02300200 IEM_DS3505
ZHHH,2008-09-10 11:00,ZHHH 101100Z AUTO 04010KT 7SM 22/20 A2994 RMK T02200200 IEM_DS3505
ZHHH,2008-09-10 12:00,ZHHH 101200Z AUTO 02010KT 9SM 22/18 A2997 RMK SLP143 T02240175 52025 IEM_DS3505
ZHHH,2008-09-10 13:00,ZHHH 101300Z AUTO 02008KT 6SM 21/19 A2997 RMK T02100190 IEM_DS3505
ZHHH,2008-09-10 14:00,ZHHH 101400Z AUTO 01006KT 6SM 21/19 A2997 RMK T02100190 IEM_DS3505
ZHHH,2008-09-10 15:00,ZHHH 101500Z AUTO 02004KT 11SM 22/17 A2997 RMK SLP148 T02170171 52005 IEM_DS3505
ZHHH,2008-09-10 16:00,ZHHH 101600Z AUTO 36006KT 6SM 20/19 A2994 RMK T02000190 IEM_DS3505
ZHHH,2008-09-10 17:00,ZHHH 101700Z AUTO 6SM 20/19 A2994 RMK T02000190 IEM_DS3505
ZHHH,2008-09-10 18:00,ZHHH 101800Z AUTO 32004KT 11SM 21/17 A2997 RMK SLP144 T02080170 57004 IEM_DS3505
ZHHH,2008-09-10 19:00,ZHHH 101900Z AUTO 02004KT 6SM 20/18 A2994 RMK T02000180 IEM_DS3505
ZHHH,2008-09-10 20:00,ZHHH 102000Z AUTO 34008KT 6SM 20/19 A2994 RMK T02000190 IEM_DS3505
ZHHH,2008-09-10 21:00,ZHHH 102100Z AUTO 34004KT 9SM 20/17 A2994 RMK SLP140 T02030167 57004 IEM_DS3505
ZHHH,2008-09-10 22:00,ZHHH 102200Z AUTO 6SM 19/18 A2994 RMK T01900180 IEM_DS3505
ZHHH,2008-09-10 23:00,ZHHH 102300Z AUTO 6SM 19/18 A2994 RMK T01900180 IEM_DS3505
ZHHH,2008-09-11 00:00,ZHHH 110000Z AUTO 29004KT 11SM 21/17 A2994 RMK SLP144 T02140170 52004 IEM_DS3505
ZHHH,2008-09-11 01:00,ZHHH 110100Z AUTO 36004KT 6SM 23/18 A2997 RMK T02300180 IEM_DS3505
ZHHH,2008-09-11 02:00,ZHHH 110200Z AUTO 31006KT 6SM 24/19 A2997 RMK T02400190 IEM_DS3505
ZHHH,2008-09-11 03:00,ZHHH 110300Z AUTO 32004KT 11SM 25/15 A2994 RMK SLP142 T02480152 57002 IEM_DS3505
ZHHH,2008-09-11 04:00,ZHHH 110400Z AUTO 28006KT 6SM 26/19 A2994 RMK T02600190 IEM_DS3505
ZHHH,2008-09-11 05:00,ZHHH 110500Z AUTO 28004KT 6SM 27/19 A2991 RMK T02700190 IEM_DS3505
ZHHH,2008-09-11 06:00,ZHHH 110600Z AUTO 27002KT 12SM 28/15 A2988 RMK SLP118 T02820148 57024 IEM_DS3505
ZHHH,2008-09-11 07:00,ZHHH 110700Z AUTO 6SM 28/19 A2985 RMK T02800190 IEM_DS3505
ZHHH,2008-09-11 08:00,ZHHH 110800Z AUTO 6SM 29/19 A2985 RMK T02900190 IEM_DS3505
ZHHH,2008-09-11 09:00,ZHHH 110900Z AUTO 29002KT 9SM 29/14 A2985 RMK SLP105 T02880142 57013 IEM_DS3505
ZHHH,2008-09-11 10:00,ZHHH 111000Z AUTO 00000KT 6SM 28/19 A2985 RMK T02800190 IEM_DS3505
ZHHH,2008-09-11 11:00,ZHHH 111100Z AUTO 33002KT 6SM 27/19 A2985 RMK T02700190 IEM_DS3505
ZHHH,2008-09-11 12:00,ZHHH 111200Z AUTO 27002KT 11SM 26/17 A2988 RMK SLP114 T02600174 52009 IEM_DS3505
ZHHH,2008-09-11 13:00,ZHHH 111300Z AUTO 05004KT 6SM 24/19 A2988 RMK T02400190 IEM_DS3505
ZHHH,2008-09-11 14:00,ZHHH 111400Z AUTO 04004KT 6SM 23/19 A2988 RMK T02300190 IEM_DS3505
ZHHH,2008-09-11 15:00,ZHHH 111500Z AUTO 32002KT 11SM 24/17 A2988 RMK SLP118 T02410171 52004 IEM_DS3505
ZHHH,2008-09-11 16:00,ZHHH 111600Z AUTO 36004KT 6SM 22/20 A2985 RMK T02200200 IEM_DS3505
ZHHH,2008-09-11 17:00,ZHHH 111700Z AUTO 01004KT 6SM 22/19 A2985 RMK T02200190 IEM_DS3505
ZHHH,2008-09-11 18:00,ZHHH 111800Z AUTO 27002KT 16SM 23/18 A2985 RMK SLP110 T02310184 57008 IEM_DS3505
ZHHH,2008-09-11 19:00,ZHHH 111900Z AUTO 01002KT 6SM 21/19 A2985 RMK T02100190 IEM_DS3505
ZHHH,2008-09-11 20:00,ZHHH 112000Z AUTO 6SM 20/19 A2985 RMK T02000190 IEM_DS3505
ZHHH,2008-09-11 21:00,ZHHH 112100Z AUTO 32002KT 12SM 22/18 A2985 RMK SLP107 T02170185 57003 IEM_DS3505
ZHHH,2008-09-11 22:00,ZHHH 112200Z AUTO 01004KT 4SM 20/19 A2985 RMK T02000190 IEM_DS3505
ZHHH,2008-09-11 23:00,ZHHH 112300Z AUTO 01002KT 5SM 20/20 A2988 RMK T02000200 IEM_DS3505
ZHHH,2008-09-12 00:00,ZHHH 120000Z AUTO 32002KT 12SM 23/19 A2988 RMK SLP119 T02340187 52012 IEM_DS3505
ZHHH,2008-09-12 01:00,ZHHH 120100Z AUTO 6SM 25/20 A2988 RMK T02500200 IEM_DS3505
ZHHH,2008-09-12 02:00,ZHHH 120200Z AUTO 32004KT 6SM 27/19 A2988 RMK T02700190 IEM_DS3505
ZHHH,2008-09-12 03:00,ZHHH 120300Z AUTO 02004KT 12SM 28/14 A2988 RMK SLP122 T02760135 52003 IEM_DS3505
ZHHH,2008-09-12 04:00,ZHHH 120400Z AUTO 03008KT 6SM 30/15 A2985 RMK T03000150 IEM_DS3505
ZHHH,2008-09-12 05:00,ZHHH 120500Z AUTO 34006KT 6SM 30/17 A2985 RMK T03000170 IEM_DS3505
ZHHH,2008-09-12 06:00,ZHHH 120600Z AUTO 27006KT 12SM 30/10 A2983 RMK SLP100 T02990105 57022 IEM_DS3505
ZHHH,2008-09-12 07:00,ZHHH 120700Z AUTO 27004KT 6SM 30/19 A2983 RMK T03000190 IEM_DS3505
ZHHH,2008-09-12 08:00,ZHHH 120800Z AUTO 27004KT 6SM 30/17 A2983 RMK T03000170 IEM_DS3505
ZHHH,2008-09-12 09:00,ZHHH 120900Z AUTO 27002KT 11SM 29/12 A2980 RMK SLP094 T02930118 57006 IEM_DS3505
ZHHH,2008-09-12 10:00,ZHHH 121000Z AUTO 26002KT 6SM 28/17 A2983 RMK T02800170 IEM_DS3505
ZHHH,2008-09-12 11:00,ZHHH 121100Z AUTO 6SM 27/20 A2983 RMK T02700200 IEM_DS3505
ZHHH,2008-09-12 12:00,ZHHH 121200Z AUTO 32002KT 12SM 27/16 A2983 RMK SLP103 T02680158 52009 IEM_DS3505
ZHHH,2008-09-12 13:00,ZHHH 121300Z AUTO 04006KT 6SM 25/20 A2985 RMK T02500200 IEM_DS3505
ZHHH,2008-09-12 14:00,ZHHH 121400Z AUTO 03004KT 6SM 25/20 A2985 RMK T02500200 IEM_DS3505
ZHHH,2008-09-12 15:00,ZHHH 121500Z AUTO 36002KT 11SM 25/19 A2985 RMK SLP110 T02500187 52007 IEM_DS3505
ZHHH,2008-09-12 16:00,ZHHH 121600Z AUTO 03004KT 6SM 24/21 A2985 RMK T02400210 IEM_DS3505
ZHHH,2008-09-12 17:00,ZHHH 121700Z AUTO 02004KT 6SM 23/21 A2983 RMK T02300210 IEM_DS3505
ZHHH,2008-09-12 18:00,ZHHH 121800Z AUTO 04002KT 11SM 24/20 A2983 RMK SLP102 T02410196 57008 IEM_DS3505
ZHHH,2008-09-12 19:00,ZHHH 121900Z AUTO 03004KT 6SM 22/21 A2983 RMK T02200210 IEM_DS3505
ZHHH,2008-09-12 20:00,ZHHH 122000Z AUTO 04004KT 6SM 22/21 A2983 RMK T02200210 IEM_DS3505
ZHHH,2008-09-12 21:00,ZHHH 122100Z AUTO 36002KT 11SM 23/20 A2985 RMK SLP108 T02310199 52006 IEM_DS3505
ZHHH,2008-09-12 22:00,ZHHH 122200Z AUTO 00000KT 6SM 22/21 A2985 RMK T02200210 IEM_DS3505
ZHHH,2008-09-12 23:00,ZHHH 122300Z AUTO 05004KT 6SM 22/22 A2988 RMK T02200220 IEM_DS3505
ZHHH,2008-09-13 00:00,ZHHH 130000Z AUTO 02004KT 14SM 25/20 A2991 RMK SLP124 T02480205 52016 IEM_DS3505
ZHHH,2008-09-13 01:00,ZHHH 130100Z AUTO 07008KT 4SM 26/23 A2991 RMK T02600230 IEM_DS3505
ZHHH,2008-09-13 02:00,ZHHH 130200Z AUTO 07006KT 5SM 28/24 A2991 RMK T02800240 IEM_DS3505
ZHHH,2008-09-13 03:00,ZHHH 130300Z AUTO 09006KT 16SM 29/20 A2991 RMK SLP130 T02860195 52006 IEM_DS3505
ZHHH,2008-09-13 04:00,ZHHH 130400Z AUTO 7SM 30/25 A2991 RMK T03000250 IEM_DS3505
ZHHH,2008-09-13 05:00,ZHHH 130500Z AUTO 7SM 31/24 A2988 RMK T03100240 IEM_DS3505
ZHHH,2008-09-13 06:00,ZHHH 130600Z AUTO 04004KT 12SM 30/20 A2985 RMK SLP110 T03050201 57020 IEM_DS3505
ZHHH,2008-09-13 07:00,ZHHH 130700Z AUTO 02004KT 7SM 31/24 A2985 RMK T03100240 IEM_DS3505
ZHHH,2008-09-13 08:00,ZHHH 130800Z AUTO 04008KT 7SM 31/24 A2983 RMK T03100240 IEM_DS3505
ZHHH,2008-09-13 09:00,ZHHH 130900Z AUTO 02002KT 12SM 31/20 A2983 RMK SLP103 T03070197 57007 IEM_DS3505
ZHHH,2008-09-13 10:00,ZHHH 131000Z AUTO 04006KT 7SM 29/23 A2985 RMK T02900230 IEM_DS3505
ZHHH,2008-09-13 11:00,ZHHH 131100Z AUTO 02004KT 7SM 28/24 A2985 RMK T02800240 IEM_DS3505
ZHHH,2008-09-13 12:00,ZHHH 131200Z AUTO 02004KT 12SM 28/21 A2988 RMK SLP115 T02840207 52012 IEM_DS3505
ZHHH,2008-09-13 13:00,ZHHH 131300Z AUTO 03006KT 6SM 26/23 A2988 RMK T02600230 IEM_DS3505
ZHHH,2008-09-13 14:00,ZHHH 131400Z AUTO 04008KT 6SM 25/23 A2991 RMK T02500230 IEM_DS3505
ZHHH,2008-09-13 15:00,ZHHH 131500Z AUTO 04004KT 11SM 26/21 A2988 RMK SLP125 T02630208 52010 IEM_DS3505
ZHHH,2008-09-13 16:00,ZHHH 131600Z AUTO 05008KT 6SM 25/23 A2988 RMK T02500230 IEM_DS3505
ZHHH,2008-09-13 17:00,ZHHH 131700Z AUTO 06010KT 6SM 24/23 A2988 RMK T02400230 IEM_DS3505
ZHHH,2008-09-13 18:00,ZHHH 131800Z AUTO 36002KT 11SM 25/21 A2988 RMK SLP119 T02510210 57006 IEM_DS3505
ZHHH,2008-09-13 19:00,ZHHH 131900Z AUTO 06006KT 6SM 24/23 A2988 RMK T02400230 IEM_DS3505
ZHHH,2008-09-13 20:00,ZHHH 132000Z AUTO 08004KT 6SM 23/22 A2985 RMK T02300220 IEM_DS3505
ZHHH,2008-09-13 21:00,ZHHH 132100Z AUTO 02004KT 11SM 25/21 A2988 RMK SLP117 T02490212 57002 IEM_DS3505
ZHHH,2008-09-13 22:00,ZHHH 132200Z AUTO 04004KT 6SM 23/22 A2988 RMK T02300220 IEM_DS3505
ZHHH,2008-09-13 23:00,ZHHH 132300Z AUTO 04004KT 6SM 23/23 A2991 RMK T02300230 IEM_DS3505
ZHHH,2008-09-14 00:00,ZHHH 140000Z AUTO 04002KT 11SM 26/21 A2991 RMK SLP130 T02570212 52013 IEM_DS3505
ZHHH,2008-09-14 01:00,ZHHH 140100Z AUTO 36004KT 6SM 28/25 A2991 RMK T02800250 IEM_DS3505
ZHHH,2008-09-14 02:00,ZHHH 140200Z AUTO 05004KT 6SM 29/25 A2991 RMK T02900250 IEM_DS3505
ZHHH,2008-09-14 03:00,ZHHH 140300Z AUTO 32004KT 11SM 29/22 A2991 RMK SLP129 T02910218 57001 IEM_DS3505
ZHHH,2008-09-14 04:00,ZHHH 140400Z AUTO 31006KT 7SM 31/25 A2988 RMK T03100250 IEM_DS3505
ZHHH,2008-09-14 05:00,ZHHH 140500Z AUTO 31004KT 7SM 30/25 A2988 RMK T03000250 IEM_DS3505
ZHHH,2008-09-14 06:00,ZHHH 140600Z AUTO 32004KT 14SM 31/21 A2985 RMK SLP107 T03120214 57022 IEM_DS3505
ZHHH,2008-09-14 07:00,ZHHH 140700Z AUTO 33006KT 7SM 30/26 A2983 RMK T03000260 IEM_DS3505
ZHHH,2008-09-14 08:00,ZHHH 140800Z AUTO 35004KT 7SM 27/26 A2983 RMK T02700260 IEM_DS3505
ZHHH,2008-09-14 09:00,ZHHH 140900Z AUTO 04004KT 11SM 30/21 A2983 RMK SLP099 T02990210 57008 IEM_DS3505
ZHHH,2008-09-14 10:00,ZHHH 141000Z AUTO 02006KT 6SM 28/24 A2983 RMK T02800240 IEM_DS3505
ZHHH,2008-09-14 11:00,ZHHH 141100Z AUTO 03006KT 6SM 27/24 A2983 RMK T02700240 IEM_DS3505
ZHHH,2008-09-14 12:00,ZHHH 141200Z AUTO 34004KT 11SM 27/21 A2985 RMK SLP106 T02740210 52007 IEM_DS3505
ZHHH,2008-09-14 13:00,ZHHH 141300Z AUTO 02004KT 6SM 25/23 A2985 RMK T02500230 IEM_DS3505
ZHHH,2008-09-14 14:00,ZHHH 141400Z AUTO 02004KT 6SM 25/23 A2988 RMK T02500230 IEM_DS3505
ZHHH,2008-09-14 15:00,ZHHH 141500Z AUTO 07002KT 11SM 26/21 A2985 RMK SLP111 T02580206 52005 IEM_DS3505
ZHHH,2008-09-14 16:00,ZHHH 141600Z AUTO 01004KT 4SM 24/23 A2985 RMK T02400230 IEM_DS3505
ZHHH,2008-09-14 17:00,ZHHH 141700Z AUTO 34004KT 4SM 24/23 A2985 RMK T02400230 IEM_DS3505
ZHHH,2008-09-14 18:00,ZHHH 141800Z AUTO 34002KT 11SM 24/21 A2985 RMK SLP111 T02450214 54000 IEM_DS3505
ZHHH,2008-09-14 19:00,ZHHH 141900Z AUTO 3SM 23/23 A2985 RMK T02300230 IEM_DS3505
ZHHH,2008-09-14 20:00,ZHHH 142000Z AUTO 36002KT 3SM 23/22 A2983 RMK T02300220 IEM_DS3505
ZHHH,2008-09-14 21:00,ZHHH 142100Z AUTO 22002KT 9SM 24/22 A2985 RMK SLP107 T02390216 57004 IEM_DS3505
ZHHH,2008-09-14 22:00,ZHHH 142200Z AUTO 3SM 23/23 A2985 RMK T02300230 IEM_DS3505
ZHHH,2008-09-14 23:00,ZHHH 142300Z AUTO 1 1/2SM 23/23 A2985 RMK T02300230 IEM_DS3505
ZHHH,2008-09-15 00:00,ZHHH 150000Z AUTO 09002KT 9SM 25/21 A2985 RMK SLP109 T02480211 52002 IEM_DS3505
ZHHH,2008-09-15 01:00,ZHHH 150100Z AUTO 02006KT 4SM 25/23 A2985 RMK T02500230 IEM_DS3505
ZHHH,2008-09-15 02:00,ZHHH 150200Z AUTO 03006KT 6SM 28/24 A2985 RMK T02800240 IEM_DS3505
ZHHH,2008-09-15 03:00,ZHHH 150300Z AUTO 04006KT 12SM 29/21 A2985 RMK SLP108 T02860209 57001 IEM_DS3505
ZHHH,2008-09-15 04:00,ZHHH 150400Z AUTO 03006KT 7SM 30/24 A2983 RMK T03000240 IEM_DS3505
ZHHH,2008-09-15 05:00,ZHHH 150500Z AUTO 02004KT 7SM 31/23 A2980 RMK T03100230 IEM_DS3505
ZHHH,2008-09-15 06:00,ZHHH 150600Z AUTO 32004KT 12SM 31/20 A2980 RMK SLP085 T03110201 57023 IEM_DS3505
ZHHH,2008-09-15 07:00,ZHHH 150700Z AUTO 04004KT 7SM 32/23 A2977 RMK T03200230 IEM_DS3505
ZHHH,2008-09-15 08:00,ZHHH 150800Z AUTO 34004KT 7SM 31/22 A2977 RMK T03100220 IEM_DS3505
ZHHH,2008-09-15 09:00,ZHHH 150900Z AUTO 34004KT 9SM 31/19 A2977 RMK SLP075 T03120192 57010 IEM_DS3505
ZHHH,2008-09-15 10:00,ZHHH 151000Z AUTO 02004KT 7SM 29/23 A2977 RMK T02900230 IEM_DS3505
ZHHH,2008-09-15 11:00,ZHHH 151100Z AUTO 03004KT 4SM 28/23 A2977 RMK T02800230 IEM_DS3505
ZHHH,2008-09-15 12:00,ZHHH 151200Z AUTO 02004KT 9SM 28/20 A2980 RMK SLP085 T02830203 52010 IEM_DS3505
ZHHH,2008-09-15 13:00,ZHHH 151300Z AUTO 02004KT 3SM 26/22 A2980 RMK T02600220 IEM_DS3505
ZHHH,2008-09-15 14:00,ZHHH 151400Z AUTO 02004KT 3SM 26/22 A2980 RMK T02600220 IEM_DS3505
ZHHH,2008-09-15 15:00,ZHHH 151500Z AUTO 02002KT 9SM 27/19 A2980 RMK SLP093 T02660190 52008 IEM_DS3505
ZHHH,2008-09-15 16:00,ZHHH 151600Z AUTO 02004KT 3SM 25/21 A2980 RMK T02500210 IEM_DS3505
ZHHH,2008-09-15 17:00,ZHHH 151700Z AUTO 36002KT 3SM 25/21 A2980 RMK T02500210 IEM_DS3505
ZHHH,2008-09-15 18:00,ZHHH 151800Z AUTO 32002KT 9SM 25/19 A2980 RMK SLP086 T02540193 57007 IEM_DS3505
ZHHH,2008-09-15 19:00,ZHHH 151900Z AUTO 36002KT 4SM 23/22 A2977 RMK T02300220 IEM_DS3505
ZHHH,2008-09-15 20:00,ZHHH 152000Z AUTO 01002KT 4SM 23/21 A2977 RMK T02300210 IEM_DS3505
ZHHH,2008-09-15 21:00,ZHHH 152100Z AUTO 07002KT 9SM 24/20 A2977 RMK SLP083 T02430200 57003 IEM_DS3505
ZHHH,2008-09-15 22:00,ZHHH 152200Z AUTO 01002KT 3SM 22/21 A2980 RMK T02200210 IEM_DS3505
ZHHH,2008-09-15 23:00,ZHHH 152300Z AUTO 02002KT 3SM 23/22 A2980 RMK T02300220 IEM_DS3505
ZHHH,2008-09-16 00:00,ZHHH 160000Z AUTO 02002KT 11SM 25/20 A2980 RMK SLP091 T02500203 52008 IEM_DS3505
ZHHH,2008-09-16 01:00,ZHHH 160100Z AUTO 4SM 26/22 A2983 RMK T02600220 IEM_DS3505
ZHHH,2008-09-16 02:00,ZHHH 160200Z AUTO 6SM 28/24 A2983 RMK T02800240 IEM_DS3505
ZHHH,2008-09-16 03:00,ZHHH 160300Z AUTO 27002KT 11SM 29/21 A2983 RMK SLP094 T02910213 52003 IEM_DS3505
ZHHH,2008-09-16 04:00,ZHHH 160400Z AUTO 28006KT 3SM 29/25 A2980 RMK T02900250 IEM_DS3505
ZHHH,2008-09-16 05:00,ZHHH 160500Z AUTO 30006KT 4SM 30/25 A2977 RMK T03000250 IEM_DS3505
ZHHH,2008-09-16 06:00,ZHHH 160600Z AUTO 34004KT 12SM 31/21 A2974 RMK SLP074 T03130206 57020 IEM_DS3505
ZHHH,2008-09-16 07:00,ZHHH 160700Z AUTO 30006KT 7SM 32/24 A2974 RMK T03200240 IEM_DS3505
ZHHH,2008-09-16 08:00,ZHHH 160800Z AUTO 30006KT 7SM 32/24 A2974 RMK T03200240 IEM_DS3505
ZHHH,2008-09-16 09:00,ZHHH 160900Z AUTO 27004KT 12SM 32/19 A2974 RMK SLP067 T03160189 57007 IEM_DS3505
ZHHH,2008-09-16 10:00,ZHHH 161000Z AUTO 6SM 30/24 A2974 RMK T03000240 IEM_DS3505
ZHHH,2008-09-16 11:00,ZHHH 161100Z AUTO 00000KT 6SM 28/24 A2974 RMK T02800240 IEM_DS3505
ZHHH,2008-09-16 12:00,ZHHH 161200Z AUTO 11002KT 11SM 29/20 A2977 RMK SLP082 T02870204 52015 IEM_DS3505
ZHHH,2008-09-16 13:00,ZHHH 161300Z AUTO 14004KT 6SM 28/25 A2980 RMK T02800250 IEM_DS3505
ZHHH,2008-09-16 14:00,ZHHH 161400Z AUTO 15004KT 4SM 28/25 A2980 RMK T02800250 IEM_DS3505
ZHHH,2008-09-16 15:00,ZHHH 161500Z AUTO 11002KT 9SM 28/22 A2980 RMK SLP085 T02780218 52003 IEM_DS3505
ZHHH,2008-09-16 16:00,ZHHH 161600Z AUTO 05002KT 2 1/2SM 26/24 A2977 RMK T02600240 IEM_DS3505
ZHHH,2008-09-16 17:00,ZHHH 161700Z AUTO 07004KT 2 1/2SM 25/24 A2977 RMK T02500240 IEM_DS3505
ZHHH,2008-09-16 18:00,ZHHH 161800Z AUTO 00000KT 9SM 26/23 A2977 RMK SLP084 T02650230 57001 IEM_DS3505
ZHHH,2008-09-16 19:00,ZHHH 161900Z AUTO 06004KT 2SM 25/24 A2977 RMK T02500240 IEM_DS3505
ZHHH,2008-09-16 20:00,ZHHH 162000Z AUTO 06004KT 2SM 24/24 A2977 RMK T02400240 IEM_DS3505
ZHHH,2008-09-16 21:00,ZHHH 162100Z AUTO 07002KT 9SM 26/23 A2980 RMK SLP085 T02610234 52001 IEM_DS3505
ZHHH,2008-09-16 22:00,ZHHH 162200Z AUTO 10006KT 1 1/4SM 24/24 A2980 RMK T02400240 IEM_DS3505
ZHHH,2008-09-16 23:00,ZHHH 162300Z AUTO 10008KT 1SM 24/24 A2983 RMK T02400240 IEM_DS3505
ZHHH,2008-09-17 00:00,ZHHH 170000Z AUTO 11002KT 9SM 27/23 A2983 RMK SLP101 T02730233 52016 IEM_DS3505
ZHHH,2008-09-17 01:00,ZHHH 170100Z AUTO 09006KT 2SM 27/26 A2985 RMK T02700260 IEM_DS3505
ZHHH,2008-09-17 02:00,ZHHH 170200Z AUTO 12004KT 1 1/2SM 29/26 A2985 RMK T02900260 IEM_DS3505
ZHHH,2008-09-17 03:00,ZHHH 170300Z AUTO 09002KT 9SM 26/23 A2983 RMK SLP105 T02620227 52004 IEM_DS3505
ZHHH,2008-09-17 04:00,ZHHH 170400Z AUTO 31004KT 2 1/2SM 30/26 A2983 RMK T03000260 IEM_DS3505
ZHHH,2008-09-17 05:00,ZHHH 170500Z AUTO 28004KT 4SM 31/26 A2980 RMK T03100260 IEM_DS3505
ZHHH,2008-09-17 06:00,ZHHH 170600Z AUTO 36002KT 9SM 32/21 A2980 RMK 60024 SLP087 T03170206 57018 IEM_DS3505
ZHHH,2008-09-17 07:00,ZHHH 170700Z AUTO 27004KT 7SM 32/24 A2977 RMK T03200240 IEM_DS3505
ZHHH,2008-09-17 08:00,ZHHH 170800Z AUTO 4SM 31/24 A2977 RMK T03100240 IEM_DS3505
ZHHH,2008-09-17 09:00,ZHHH 170900Z AUTO 32002KT 9SM 31/20 A2977 RMK SLP080 T03110204 57007 IEM_DS3505
ZHHH,2008-09-17 10:00,ZHHH 171000Z AUTO 04002KT 4SM 30/25 A2977 RMK T03000250 IEM_DS3505
ZHHH,2008-09-17 11:00,ZHHH 171100Z AUTO 36002KT 4SM 29/25 A2977 RMK T02900250 IEM_DS3505
ZHHH,2008-09-17 12:00,ZHHH 171200Z AUTO 00000KT 9SM 27/24 A2980 RMK SLP087 T02740236 52007 IEM_DS3505
ZHHH,2008-09-17 13:00,ZHHH 171300Z AUTO 03004KT 2SM 28/25 A2980 RMK T02800250 IEM_DS3505
ZHHH,2008-09-17 14:00,ZHHH 171400Z AUTO 04002KT 2 1/2SM 28/25 A2983 RMK T02800250 IEM_DS3505
ZHHH,2008-09-17 15:00,ZHHH 171500Z AUTO 00000KT 7SM 26/24 A2983 RMK SLP096 T02630242 52009 IEM_DS3505
ZHHH,2008-09-17 16:00,ZHHH 171600Z AUTO 2 1/2SM 26/25 A2983 RMK T02600250 IEM_DS3505
ZHHH,2008-09-17 17:00,ZHHH 171700Z AUTO 05004KT 2 1/2SM 26/24 A2983 RMK T02600240 IEM_DS3505
ZHHH,2008-09-17 18:00,ZHHH 171800Z AUTO 32002KT 9SM 26/24 A2980 RMK SLP092 T02630243 57004 IEM_DS3505
ZHHH,2008-09-17 19:00,ZHHH 171900Z AUTO 02004KT 2 1/2SM 25/24 A2980 RMK T02500240 IEM_DS3505
ZHHH,2008-09-17 20:00,ZHHH 172000Z AUTO 01004KT 1 1/4SM 24/24 A2980 RMK T02400240 IEM_DS3505
ZHHH,2008-09-17 21:00,ZHHH 172100Z AUTO 34002KT 9SM 25/23 A2980 RMK 70023 SLP093 T02510230 52001 IEM_DS3505
ZHHH,2008-09-17 22:00,ZHHH 172200Z AUTO 02002KT 1SM 24/24 A2983 RMK T02400240 IEM_DS3505
ZHHH,2008-09-17 23:00,ZHHH 172300Z AUTO 07006KT 1 1/2SM 24/24 A2983 RMK T02400240 IEM_DS3505
ZHHH,2008-09-18 00:00,ZHHH 180000Z AUTO 04002KT 11SM 27/24 A2983 RMK 70023 SLP101 T02660237 52008 IEM_DS3505
ZHHH,2008-09-18 01:00,ZHHH 180100Z AUTO 11006KT 2 1/2SM 27/26 A2985 RMK T02700260 IEM_DS3505
ZHHH,2008-09-18 02:00,ZHHH 180200Z AUTO 13004KT 2 1/2SM 29/26 A2985 RMK T02900260 IEM_DS3505
ZHHH,2008-09-18 03:00,ZHHH 180300Z AUTO 11004KT 12SM 31/23 A2985 RMK SLP105 T03130226 52004 IEM_DS3505
ZHHH,2008-09-18 04:00,ZHHH 180400Z AUTO 12006KT 4SM 32/25 A2983 RMK T03200250 IEM_DS3505
ZHHH,2008-09-18 05:00,ZHHH 180500Z AUTO 13004KT 5SM 32/25 A2980 RMK T03200250 IEM_DS3505
ZHHH,2008-09-18 06:00,ZHHH 180600Z AUTO 22004KT 12SM 33/21 A2980 RMK SLP084 T03320207 57020 IEM_DS3505
ZHHH,2008-09-18 07:00,ZHHH 180700Z AUTO 11004KT 5SM 32/25 A2977 RMK T03200250 IEM_DS3505
ZHHH,2008-09-18 08:00,ZHHH 180800Z AUTO 5SM 32/24 A2974 RMK T03200240 IEM_DS3505
ZHHH,2008-09-18 09:00,ZHHH 180900Z AUTO 20004KT 16SM 33/20 A2974 RMK SLP069 T03290201 57016 IEM_DS3505
ZHHH,2008-09-18 10:00,ZHHH 181000Z AUTO 11006KT 6SM 30/26 A2974 RMK T03000260 IEM_DS3505
ZHHH,2008-09-18 11:00,ZHHH 181100Z AUTO 09006KT 6SM 30/25 A2977 RMK T03000250 IEM_DS3505
ZHHH,2008-09-18 12:00,ZHHH 181200Z AUTO 36002KT 11SM 30/22 A2977 RMK SLP084 T02990224 52015 IEM_DS3505
ZHHH,2008-09-18 13:00,ZHHH 181300Z AUTO 11006KT 6SM 28/26 A2980 RMK T02800260 IEM_DS3505
ZHHH,2008-09-18 14:00,ZHHH 181400Z AUTO 12008KT 6SM 28/26 A2980 RMK T02800260 IEM_DS3505
ZHHH,2008-09-18 15:00,ZHHH 181500Z AUTO 00000KT 11SM 29/23 A2983 RMK SLP094 T02940229 52011 IEM_DS3505
ZHHH,2008-09-18 16:00,ZHHH 181600Z AUTO 4SM 28/26 A2983 RMK T02800260 IEM_DS3505
ZHHH,2008-09-18 17:00,ZHHH 181700Z AUTO 12004KT 3SM 28/26 A2983 RMK T02800260 IEM_DS3505
ZHHH,2008-09-18 18:00,ZHHH 181800Z AUTO 11002KT 9SM 29/24 A2980 RMK SLP091 T02860240 57003 IEM_DS3505
ZHHH,2008-09-18 19:00,ZHHH 181900Z AUTO 13006KT 2 1/2SM 27/26 A2980 RMK T02700260 IEM_DS3505
ZHHH,2008-09-18 20:00,ZHHH 182000Z AUTO 2 1/2SM 27/26 A2980 RMK T02700260 IEM_DS3505
ZHHH,2008-09-18 21:00,ZHHH 182100Z AUTO 29002KT 6SM 26/24 A2980 RMK SLP093 T02650243 52001 IEM_DS3505
ZHHH,2008-09-18 22:00,ZHHH 182200Z AUTO 36006KT 1SM 25/25 A2983 RMK T02500250 IEM_DS3505
ZHHH,2008-09-18 23:00,ZHHH 182300Z AUTO 36004KT 1SM 24/24 A2983 RMK T02400240 IEM_DS3505
ZHHH,2008-09-19 00:00,ZHHH 190000Z AUTO 07002KT 6SM 26/23 A2983 RMK SLP104 T02620233 52011 IEM_DS3505
ZHHH,2008-09-19 01:00,ZHHH 190100Z AUTO 1 1/4SM 27/26 A2985 RMK T02700260 IEM_DS3505
ZHHH,2008-09-19 02:00,ZHHH 190200Z AUTO 29004KT 1 1/4SM 29/27 A2985 RMK T02900270 IEM_DS3505
ZHHH,2008-09-19 03:00,ZHHH 190300Z AUTO 00000KT 6SM 30/24 A2985 RMK SLP105 T02960240 52001 IEM_DS3505
ZHHH,2008-09-19 04:00,ZHHH 190400Z AUTO 28004KT 2SM 30/27 A2983 RMK T03000270 IEM_DS3505
ZHHH,2008-09-19 05:00,ZHHH 190500Z AUTO 28004KT 1 1/2SM 30/27 A2980 RMK T03000270 IEM_DS3505
ZHHH,2008-09-19 06:00,ZHHH 190600Z AUTO 32002KT 7SM 32/24 A2980 RMK SLP087 T03180244 57017 IEM_DS3505
ZHHH,2008-09-19 07:00,ZHHH 190700Z AUTO 32004KT 2SM 31/27 A2977 RMK T03100270 IEM_DS3505
ZHHH,2008-09-19 08:00,ZHHH 190800Z AUTO 33004KT 2SM 31/27 A2977 RMK T03100270 IEM_DS3505
ZHHH,2008-09-19 09:00,ZHHH 190900Z AUTO 27002KT 7SM 31/24 A2977 RMK SLP079 T03080242 57009 IEM_DS3505
ZHHH,2008-09-19 10:00,ZHHH 191000Z AUTO 35004KT 1 1/4SM 29/27 A2977 RMK T02900270 IEM_DS3505
ZHHH,2008-09-19 11:00,ZHHH 191100Z AUTO 01004KT 1 1/2SM 28/26 A2980 RMK T02800260 IEM_DS3505
ZHHH,2008-09-19 12:00,ZHHH 191200Z AUTO 04004KT 7SM 28/24 A2983 RMK SLP096 T02810239 52017 IEM_DS3505
ZHHH,2008-09-19 13:00,ZHHH 191300Z AUTO 01004KT 1 1/2SM 26/25 A2983 RMK T02600250 IEM_DS3505
ZHHH,2008-09-19 14:00,ZHHH 191400Z AUTO 04004KT 2SM 25/24 A2985 RMK T02500240 IEM_DS3505
ZHHH,2008-09-19 15:00,ZHHH 191500Z AUTO 34002KT 7SM 26/22 A2983 RMK SLP103 T02600225 52007 IEM_DS3505
ZHHH,2008-09-19 16:00,ZHHH 191600Z AUTO 06006KT 2SM 23/23 A2985 RMK T02300230 IEM_DS3505
ZHHH,2008-09-19 17:00,ZHHH 191700Z AUTO 04006KT 2SM 23/22 A2983 RMK T02300220 IEM_DS3505
ZHHH,2008-09-19 18:00,ZHHH 191800Z AUTO 02002KT 9SM 24/21 A2983 RMK SLP098 T02440213 57005 IEM_DS3505
ZHHH,2008-09-19 19:00,ZHHH 191900Z AUTO 06004KT 1 1/4SM 23/22 A2983 RMK T02300220 IEM_DS3505
ZHHH,2008-09-19 20:00,ZHHH 192000Z AUTO 06004KT 1 1/4SM 22/22 A2983 RMK T02200220 IEM_DS3505
ZHHH,2008-09-19 21:00,ZHHH 192100Z AUTO 02004KT 9SM 24/21 A2983 RMK SLP095 T02380207 57003 IEM_DS3505
ZHHH,2008-09-19 22:00,ZHHH 192200Z AUTO 09004KT 1 1/4SM 22/22 A2983 RMK T02200220 IEM_DS3505
ZHHH,2008-09-19 23:00,ZHHH 192300Z AUTO 08006KT 1 1/4SM 23/22 A2983 RMK T02300220 IEM_DS3505
ZHHH,2008-09-20 00:00,ZHHH 200000Z AUTO 14002KT 11SM 25/21 A2983 RMK SLP102 T02500211 52007 IEM_DS3505
ZHHH,2008-09-20 01:00,ZHHH 200100Z AUTO 08006KT 2SM 26/24 A2985 RMK T02600240 IEM_DS3505
ZHHH,2008-09-20 02:00,ZHHH 200200Z AUTO 08004KT 3SM 27/24 A2985 RMK T02700240 IEM_DS3505
ZHHH,2008-09-20 03:00,ZHHH 200300Z AUTO 14002KT 9SM 29/22 A2985 RMK SLP103 T02910223 52001 IEM_DS3505
ZHHH,2008-09-20 04:00,ZHHH 200400Z AUTO 2 1/2SM 30/27 A2983 RMK T03000270 IEM_DS3505
ZHHH,2008-09-20 05:00,ZHHH 200500Z AUTO 29004KT 2 1/2SM 31/27 A2980 RMK T03100270 IEM_DS3505
ZHHH,2008-09-20 06:00,ZHHH 200600Z AUTO 32002KT 9SM 32/24 A2977 RMK SLP079 T03200238 57024 IEM_DS3505
ZHHH,2008-09-20 07:00,ZHHH 200700Z AUTO 31004KT 2 1/2SM 32/28 A2974 RMK T03200280 IEM_DS3505
ZHHH,2008-09-20 08:00,ZHHH 200800Z AUTO 34004KT 2 1/2SM 32/27 A2974 RMK T03200270 IEM_DS3505
ZHHH,2008-09-20 09:00,ZHHH 200900Z AUTO 04004KT 9SM 31/24 A2974 RMK SLP068 T03140240 57011 IEM_DS3505
ZHHH,2008-09-20 10:00,ZHHH 201000Z AUTO 03006KT 1 1/2SM 29/26 A2974 RMK T02900260 IEM_DS3505
ZHHH,2008-09-20 11:00,ZHHH 201100Z AUTO 04008KT 1 1/2SM 27/24 A2974 RMK T02700240 IEM_DS3505
ZHHH,2008-09-20 12:00,ZHHH 201200Z AUTO 04004KT 9SM 28/23 A2977 RMK SLP077 T02770229 52009 IEM_DS3505
ZHHH,2008-09-20 13:00,ZHHH 201300Z AUTO 05006KT 1 1/2SM 25/24 A2977 RMK T02500240 IEM_DS3505
ZHHH,2008-09-20 14:00,ZHHH 201400Z AUTO 03004KT 1 1/4SM 24/23 A2980 RMK T02400230 IEM_DS3505
ZHHH,2008-09-20 15:00,ZHHH 201500Z AUTO 04004KT 9SM 26/22 A2980 RMK SLP084 T02610218 52007 IEM_DS3505
ZHHH,2008-09-20 16:00,ZHHH 201600Z AUTO 05006KT 1SM 24/23 A2977 RMK T02400230 IEM_DS3505
ZHHH,2008-09-20 17:00,ZHHH 201700Z AUTO 04004KT 1SM 23/23 A2977 RMK T02300230 IEM_DS3505
ZHHH,2008-09-20 18:00,ZHHH 201800Z AUTO 04004KT 7SM 25/21 A2977 RMK SLP078 T02470214 57006 IEM_DS3505
ZHHH,2008-09-20 19:00,ZHHH 201900Z AUTO 04006KT 1SM 23/22 A2977 RMK T02300220 IEM_DS3505
ZHHH,2008-09-20 20:00,ZHHH 202000Z AUTO 06006KT 1SM 23/22 A2977 RMK T02300220 IEM_DS3505
ZHHH,2008-09-20 21:00,ZHHH 202100Z AUTO 04004KT 7SM 24/22 A2977 RMK SLP077 T02420215 57001 IEM_DS3505
ZHHH,2008-09-20 22:00,ZHHH 202200Z AUTO 08004KT 1SM 23/23 A2977 RMK T02300230 IEM_DS3505
ZHHH,2008-09-20 23:00,ZHHH 202300Z AUTO 09006KT 1SM 23/23 A2977 RMK T02300230 IEM_DS3505
ZHHH,2008-09-21 00:00,ZHHH 210000Z AUTO 09006KT 9SM 26/22 A2977 RMK SLP084 T02550220 52007 IEM_DS3505
ZHHH,2008-09-21 01:00,ZHHH 210100Z AUTO 10006KT 1 1/4SM 26/25 A2980 RMK T02600250 IEM_DS3505
ZHHH,2008-09-21 02:00,ZHHH 210200Z AUTO 11008KT 1 1/2SM 29/27 A2977 RMK T02900270 IEM_DS3505
ZHHH,2008-09-21 03:00,ZHHH 210300Z AUTO 09004KT 9SM 31/24 A2977 RMK SLP073 T03080240 57011 IEM_DS3505
ZHHH,2008-09-21 04:00,ZHHH 210400Z AUTO 12006KT 1 1/2SM 31/28 A2974 RMK T03100280 IEM_DS3505
ZHHH,2008-09-21 05:00,ZHHH 210500Z AUTO 12006KT 1 1/2SM 32/28 A2971 RMK T03200280 IEM_DS3505
ZHHH,2008-09-21 06:00,ZHHH 210600Z AUTO 14002KT 9SM 35/24 A2968 RMK SLP051 T03470240 57021 IEM_DS3505
ZHHH,2008-09-21 07:00,ZHHH 210700Z AUTO 11004KT 1 1/2SM 34/28 A2968 RMK T03400280 IEM_DS3505
ZHHH,2008-09-21 08:00,ZHHH 210800Z AUTO 1 1/2SM 34/28 A2968 RMK T03400280 IEM_DS3505
ZHHH,2008-09-21 09:00,ZHHH 210900Z AUTO 22002KT 9SM 35/23 A2965 RMK SLP043 T03460233 57008 IEM_DS3505
ZHHH,2008-09-21 10:00,ZHHH 211000Z AUTO 12006KT 1 1/4SM 32/29 A2968 RMK T03200290 IEM_DS3505
ZHHH,2008-09-21 11:00,ZHHH 211100Z AUTO 11006KT 1SM 31/28 A2968 RMK T03100280 IEM_DS3505
ZHHH,2008-09-21 12:00,ZHHH 211200Z AUTO 11002KT 7SM 30/25 A2968 RMK SLP050 T03040248 52006 IEM_DS3505
ZHHH,2008-09-21 13:00,ZHHH 211300Z AUTO 13006KT 1SM 30/28 A2971 RMK T03000280 IEM_DS3505
ZHHH,2008-09-21 14:00,ZHHH 211400Z AUTO 14006KT 1SM 30/28 A2971 RMK T03000280 IEM_DS3505
ZHHH,2008-09-21 15:00,ZHHH 211500Z AUTO 14002KT 7SM 30/25 A2968 RMK SLP052 T03020246 52003 IEM_DS3505
ZHHH,2008-09-21 16:00,ZHHH 211600Z AUTO 12004KT 1SM 29/28 A2968 RMK T02900280 IEM_DS3505
ZHHH,2008-09-21 17:00,ZHHH 211700Z AUTO 13006KT 1SM 28/28 A2968 RMK T02800280 IEM_DS3505
ZHHH,2008-09-21 18:00,ZHHH 211800Z AUTO 14002KT 7SM 29/26 A2968 RMK SLP047 T02940256 57005 IEM_DS3505
ZHHH,2008-09-21 19:00,ZHHH 211900Z AUTO 13006KT 1SM 28/27 A2968 RMK T02800270 IEM_DS3505
ZHHH,2008-09-21 20:00,ZHHH 212000Z AUTO 12006KT 1SM 27/27 A2968 RMK T02700270 IEM_DS3505
ZHHH,2008-09-21 21:00,ZHHH 212100Z AUTO 09002KT 7SM 29/25 A2968 RMK SLP048 T02860250 52001 IEM_DS3505
ZHHH,2008-09-21 22:00,ZHHH 212200Z AUTO 11006KT 1SM 26/26 A2971 RMK T02600260 IEM_DS3505
ZHHH,2008-09-21 23:00,ZHHH 212300Z AUTO 10006KT 1/2SM 26/26 A2971 RMK T02600260 IEM_DS3505
ZHHH,2008-09-22 00:00,ZHHH 220000Z AUTO 09002KT 7SM 30/25 A2971 RMK SLP062 T02950253 52014 IEM_DS3505
ZHHH,2008-09-22 01:00,ZHHH 220100Z AUTO 13006KT 1 1/4SM 30/28 A2974 RMK T03000280 IEM_DS3505
ZHHH,2008-09-22 02:00,ZHHH 220200Z AUTO 14004KT 1 1/4SM 31/28 A2974 RMK T03100280 IEM_DS3505
ZHHH,2008-09-22 03:00,ZHHH 220300Z AUTO 18004KT 9SM 34/25 A2971 RMK SLP061 T03350249 57001 IEM_DS3505
ZHHH,2008-09-22 04:00,ZHHH 220400Z AUTO 22004KT 1 1/4SM 34/29 A2968 RMK T03400290 IEM_DS3505
ZHHH,2008-09-22 05:00,ZHHH 220500Z AUTO 20006KT 1 1/2SM 35/29 A2968 RMK T03500290 IEM_DS3505
ZHHH,2008-09-22 06:00,ZHHH 220600Z AUTO 25006KT 3SM 37/28 A2965 RMK T03700280 IEM_DS3505
ZHHH,2008-09-22 07:00,ZHHH 220700Z AUTO 25004KT 4SM 36/27 A2965 RMK T03600270 IEM_DS3505
ZHHH,2008-09-22 08:00,ZHHH 220800Z AUTO 28004KT 4SM 36/27 A2962 RMK T03600270 IEM_DS3505
ZHHH,2008-09-22 09:00,ZHHH 220900Z AUTO 25004KT 11SM 36/23 A2965 RMK SLP032 T03600226 57004 IEM_DS3505
ZHHH,2008-09-22 10:00,ZHHH 221000Z AUTO 08004KT 3SM 34/29 A2965 RMK T03400290 IEM_DS3505
ZHHH,2008-09-22 11:00,ZHHH 221100Z AUTO 10006KT 2SM 32/29 A2965 RMK T03200290 IEM_DS3505
ZHHH,2008-09-22 12:00,ZHHH 221200Z AUTO 07002KT 11SM 32/25 A2968 RMK SLP051 T03250253 52019 IEM_DS3505
ZHHH,2008-09-22 13:00,ZHHH 221300Z AUTO 07006KT 1 1/4SM 31/28 A2971 RMK T03100280 IEM_DS3505
ZHHH,2008-09-22 14:00,ZHHH 221400Z AUTO 04010KT 1 1/4SM 30/28 A2974 RMK T03000280 IEM_DS3505
ZHHH,2008-09-22 15:00,ZHHH 221500Z AUTO 02004KT 9SM 31/26 A2974 RMK SLP069 T03070260 52018 IEM_DS3505
ZHHH,2008-09-22 16:00,ZHHH 221600Z AUTO 04010KT 1SM 29/27 A2974 RMK T02900270 IEM_DS3505
ZHHH,2008-09-22 17:00,ZHHH 221700Z AUTO 04008KT 1SM 29/27 A2974 RMK T02900270 IEM_DS3505
ZHHH,2008-09-22 18:00,ZHHH 221800Z AUTO 34002KT 7SM 29/24 A2974 RMK SLP067 T02910244 57002 IEM_DS3505
ZHHH,2008-09-22 19:00,ZHHH 221900Z AUTO 01004KT 1SM 28/27 A2974 RMK T02800270 IEM_DS3505
ZHHH,2008-09-22 20:00,ZHHH 222000Z AUTO 02006KT 1SM 27/27 A2974 RMK T02700270 IEM_DS3505
ZHHH,2008-09-22 21:00,ZHHH 222100Z AUTO 34004KT 6SM 28/24 A2977 RMK SLP078 T02810243 52011 IEM_DS3505
ZHHH,2008-09-22 22:00,ZHHH 222200Z AUTO 03006KT 1SM 26/26 A2980 RMK T02600260 IEM_DS3505
ZHHH,2008-09-22 23:00,ZHHH 222300Z AUTO 02008KT 1SM 26/25 A2980 RMK T02600250 IEM_DS3505
ZHHH,2008-09-23 00:00,ZHHH 230000Z AUTO 04006KT 7SM 27/23 A2980 RMK SLP095 T02720230 52016 IEM_DS3505
ZHHH,2008-09-23 01:00,ZHHH 230100Z AUTO 03010G19KT 1SM 27/25 A2983 RMK T02700250 IEM_DS3505
ZHHH,2008-09-23 02:00,ZHHH 230200Z AUTO 02010KT 1 1/4SM 28/25 A2983 RMK T02800250 IEM_DS3505
ZHHH,2008-09-23 03:00,ZHHH 230300Z AUTO 02006KT 7SM 29/23 A2983 RMK SLP102 T02910228 52007 IEM_DS3505
ZHHH,2008-09-23 04:00,ZHHH 230400Z AUTO 02010KT 2SM 30/26 A2983 RMK T03000260 IEM_DS3505
ZHHH,2008-09-23 05:00,ZHHH 230500Z AUTO 02012KT 1 1/4SM 29/26 A2980 RMK T02900260 IEM_DS3505
ZHHH,2008-09-23 06:00,ZHHH 230600Z AUTO 02006KT 7SM 29/23 A2980 RMK SLP087 T02940226 57015 IEM_DS3505
ZHHH,2008-09-23 07:00,ZHHH 230700Z AUTO 02012KT 2SM 29/25 A2980 RMK T02900250 IEM_DS3505
ZHHH,2008-09-23 08:00,ZHHH 230800Z AUTO 02012G23KT 2SM 27/24 A2980 RMK T02700240 IEM_DS3505
ZHHH,2008-09-23 09:00,ZHHH 230900Z AUTO 02006KT 7SM 27/21 A2980 RMK SLP092 T02680213 52005 IEM_DS3505
ZHHH,2008-09-23 10:00,ZHHH 231000Z AUTO 04014G25KT 6SM 25/23 A2983 RMK T02500230 IEM_DS3505
ZHHH,2008-09-23 11:00,ZHHH 231100Z AUTO 03016KT 6SM 24/22 A2983 RMK T02400220 IEM_DS3505
ZHHH,2008-09-23 12:00,ZHHH 231200Z AUTO 02008KT 12SM 24/20 A2985 RMK SLP106 T02390196 52014 IEM_DS3505
ZHHH,2008-09-23 13:00,ZHHH 231300Z AUTO 03012G23KT 6SM 22/21 A2985 RMK T02200210 IEM_DS3505
ZHHH,2008-09-23 14:00,ZHHH 231400Z AUTO 03008KT 6SM 22/21 A2988 RMK T02200210 IEM_DS3505
ZHHH,2008-09-23 15:00,ZHHH 231500Z AUTO 36002KT 12SM 23/19 A2988 RMK SLP116 T02270193 52010 IEM_DS3505
ZHHH,2008-09-23 16:00,ZHHH 231600Z AUTO 03010KT 6SM 22/20 A2988 RMK T02200200 IEM_DS3505
ZHHH,2008-09-23 17:00,ZHHH 231700Z AUTO 03012KT 6SM 21/20 A2985 RMK T02100200 IEM_DS3505
ZHHH,2008-09-23 18:00,ZHHH 231800Z AUTO 03010G21KT 6SM 21/20 A2985 RMK T02100200 IEM_DS3505
ZHHH,2008-09-23 19:00,ZHHH 231900Z AUTO 02008KT 6SM 21/19 A2985 RMK T02100190 IEM_DS3505
ZHHH,2008-09-23 20:00,ZHHH 232000Z AUTO 02008KT 7SM 20/19 A2985 RMK T02000190 IEM_DS3505
ZHHH,2008-09-23 21:00,ZHHH 232100Z AUTO 02008KT 11SM 21/17 A2985 RMK SLP115 T02110173 52006 IEM_DS3505
ZHHH,2008-09-23 22:00,ZHHH 232200Z AUTO 03008KT 7SM 20/18 A2988 RMK T02000180 IEM_DS3505
ZHHH,2008-09-23 23:00,ZHHH 232300Z AUTO 04010KT 7SM 20/18 A2991 RMK T02000180 IEM_DS3505
ZHHH,2008-09-24 00:00,ZHHH 240000Z AUTO 04008KT 16SM 21/17 A2991 RMK 60003 70003 SLP129 T02090167 52014 IEM_DS3505
ZHHH,2008-09-24 01:00,ZHHH 240100Z AUTO 02010KT 7SM 21/18 A2994 RMK T02100180 IEM_DS3505
ZHHH,2008-09-24 02:00,ZHHH 240200Z AUTO 03008KT 7SM 22/19 A2994 RMK T02200190 IEM_DS3505
ZHHH,2008-09-24 03:00,ZHHH 240300Z AUTO 04006KT 16SM 23/17 A2991 RMK SLP136 T02340172 52007 IEM_DS3505
ZHHH,2008-09-24 04:00,ZHHH 240400Z AUTO 03010KT 7SM 23/20 A2991 RMK T02300200 IEM_DS3505
ZHHH,2008-09-24 05:00,ZHHH 240500Z AUTO 04010KT 7SM 26/20 A2988 RMK T02600200 IEM_DS3505
ZHHH,2008-09-24 06:00,ZHHH 240600Z AUTO 02006KT 16SM 25/18 A2985 RMK SLP109 T02500180 57027 IEM_DS3505
ZHHH,2008-09-24 07:00,ZHHH 240700Z AUTO 03008KT 6SM 26/21 A2983 RMK T02600210 IEM_DS3505
ZHHH,2008-09-24 08:00,ZHHH 240800Z AUTO 04008KT 6SM 26/21 A2983 RMK T02600210 IEM_DS3505
ZHHH,2008-09-24 09:00,ZHHH 240900Z AUTO 02004KT 11SM 26/19 A2983 RMK SLP101 T02590186 57008 IEM_DS3505
ZHHH,2008-09-24 10:00,ZHHH 241000Z AUTO 04010KT 6SM 22/19 A2985 RMK T02200190 IEM_DS3505
ZHHH,2008-09-24 11:00,ZHHH 241100Z AUTO 04010KT 6SM 20/18 A2988 RMK T02000180 IEM_DS3505
ZHHH,2008-09-24 12:00,ZHHH 241200Z AUTO 04008KT 11SM 21/17 A2988 RMK SLP119 T02070169 52018 IEM_DS3505
ZHHH,2008-09-24 13:00,ZHHH 241300Z AUTO 03006KT 6SM 19/18 A2994 RMK T01900180 IEM_DS3505
ZHHH,2008-09-24 14:00,ZHHH 241400Z AUTO 02004KT 7SM 19/18 A2994 RMK T01900180 IEM_DS3505
ZHHH,2008-09-24 15:00,ZHHH 241500Z AUTO 02004KT 11SM 20/17 A2994 RMK SLP139 T02020170 52020 IEM_DS3505
ZHHH,2008-09-24 16:00,ZHHH 241600Z AUTO 02006KT 7SM 19/18 A2991 RMK T01900180 IEM_DS3505
ZHHH,2008-09-24 17:00,ZHHH 241700Z AUTO 07004KT 7SM 19/18 A2991 RMK T01900180 IEM_DS3505
ZHHH,2008-09-24 18:00,ZHHH 241800Z AUTO 27002KT 9SM 19/17 A2991 RMK SLP130 T01940168 57009 IEM_DS3505
ZHHH,2008-09-24 19:00,ZHHH 241900Z AUTO 35006KT 7SM 19/18 A2991 RMK T01900180 IEM_DS3505
ZHHH,2008-09-24 20:00,ZHHH 242000Z AUTO 36004KT 7SM 18/18 A2988 RMK T01800180 IEM_DS3505
ZHHH,2008-09-24 21:00,ZHHH 242100Z AUTO 32002KT 9SM 19/16 A2991 RMK 70003 SLP125 T01930165 57005 IEM_DS3505
ZHHH,2008-09-24 22:00,ZHHH 242200Z AUTO 03006KT 6SM 18/18 A2991 RMK T01800180 IEM_DS3505
ZHHH,2008-09-24 23:00,ZHHH 242300Z AUTO 04004KT 7SM 18/17 A2994 RMK T01800170 IEM_DS3505
ZHHH,2008-09-25 00:00,ZHHH 250000Z AUTO 36002KT 14SM 20/17 A2994 RMK SLP138 T02010167 52012 IEM_DS3505
ZHHH,2008-09-25 02:00,ZHHH 250200Z AUTO 36006KT 4SM 22/19 A2997 RMK T02200190 IEM_DS3505
ZHHH,2008-09-25 03:00,ZHHH 250300Z AUTO 34006KT 16SM 23/17 A2994 RMK SLP141 T02310173 52004 IEM_DS3505
ZHHH,2008-09-25 04:00,ZHHH 250400Z AUTO 6SM 25/21 A2994 RMK T02500210 IEM_DS3505
ZHHH,2008-09-25 05:00,ZHHH 250500Z AUTO 31006KT 6SM 26/22 A2991 RMK T02600220 IEM_DS3505
ZHHH,2008-09-25 06:00,ZHHH 250600Z AUTO 29004KT 12SM 26/19 A2988 RMK SLP120 T02590186 57021 IEM_DS3505
ZHHH,2008-09-25 07:00,ZHHH 250700Z AUTO 30008KT 6SM 27/22 A2985 RMK T02700220 IEM_DS3505
ZHHH,2008-09-25 08:00,ZHHH 250800Z AUTO 31004KT 6SM 27/22 A2985 RMK T02700220 IEM_DS3505
ZHHH,2008-09-25 09:00,ZHHH 250900Z AUTO 36004KT 11SM 26/19 A2988 RMK SLP115 T02610193 57005 IEM_DS3505
ZHHH,2008-09-25 10:00,ZHHH 251000Z AUTO 04008KT 4SM 24/20 A2988 RMK T02400200 IEM_DS3505
ZHHH,2008-09-25 11:00,ZHHH 251100Z AUTO 04010KT 3SM 21/19 A2991 RMK T02100190 IEM_DS3505
ZHHH,2008-09-25 12:00,ZHHH 251200Z AUTO 04008KT 11SM 22/17 A2997 RMK SLP145 T02150169 52029 IEM_DS3505
ZHHH,2008-09-25 13:00,ZHHH 251300Z AUTO 03010KT 3SM 20/18 A2997 RMK T02000180 IEM_DS3505
ZHHH,2008-09-25 14:00,ZHHH 251400Z AUTO 03010KT 4SM 20/18 A3000 RMK T02000180 IEM_DS3505
ZHHH,2008-09-25 15:00,ZHHH 251500Z AUTO 02002KT 11SM 20/16 A3000 RMK SLP159 T02040164 52015 IEM_DS3505
ZHHH,2008-09-25 16:00,ZHHH 251600Z AUTO 03008KT 4SM 19/17 A3000 RMK T01900170 IEM_DS3505
ZHHH,2008-09-25 17:00,ZHHH 251700Z AUTO 03010KT 4SM 19/17 A3000 RMK T01900170 IEM_DS3505
ZHHH,2008-09-25 18:00,ZHHH 251800Z AUTO 04010KT 9SM 20/16 A3000 RMK SLP159 T01960157 54000 IEM_DS3505
ZHHH,2008-09-25 19:00,ZHHH 251900Z AUTO 03008KT 4SM 19/17 A3000 RMK T01900170 IEM_DS3505
ZHHH,2008-09-25 20:00,ZHHH 252000Z AUTO 04012KT 4SM 19/16 A3000 RMK T01900160 IEM_DS3505
ZHHH,2008-09-25 21:00,ZHHH 252100Z AUTO 02006KT 9SM 19/15 A3003 RMK SLP167 T01920147 52008 IEM_DS3505
ZHHH,2008-09-25 22:00,ZHHH 252200Z AUTO 03010KT 7SM 18/17 A3003 RMK T01800170 IEM_DS3505
ZHHH,2008-09-25 23:00,ZHHH 252300Z AUTO 03012KT 7SM 19/17 A3006 RMK T01900170 IEM_DS3505
ZHHH,2008-09-26 00:00,ZHHH 260000Z AUTO 02006KT 9SM 19/15 A3009 RMK 60000 70000 SLP189 T01910154 52021 IEM_DS3505
ZHHH,2008-09-26 01:00,ZHHH 260100Z AUTO 02012G21KT 7SM 19/17 A3012 RMK T01900170 IEM_DS3505
ZHHH,2008-09-26 02:00,ZHHH 260200Z AUTO 04012KT 6SM 20/16 A3012 RMK T02000160 IEM_DS3505
ZHHH,2008-09-26 03:00,ZHHH 260300Z AUTO 04008KT 14SM 20/13 A3012 RMK SLP200 T02030128 52011 IEM_DS3505
ZHHH,2008-09-26 04:00,ZHHH 260400Z AUTO 04008KT 7SM 20/15 A3012 RMK T02000150 IEM_DS3505
ZHHH,2008-09-26 05:00,ZHHH 260500Z AUTO 04012KT 7SM 20/15 A3009 RMK T02000150 IEM_DS3505
ZHHH,2008-09-26 06:00,ZHHH 260600Z AUTO 02008KT 11SM 20/13 A3009 RMK 60000 SLP189 T02010126 57011 IEM_DS3505
ZHHH,2008-09-26 07:00,ZHHH 260700Z AUTO 04014KT 7SM 20/14 A3009 RMK T02000140 IEM_DS3505
ZHHH,2008-09-26 08:00,ZHHH 260800Z AUTO 04012KT 7SM 20/14 A3009 RMK T02000140 IEM_DS3505
ZHHH,2008-09-26 09:00,ZHHH 260900Z AUTO 04006KT 9SM 20/12 A3009 RMK SLP188 T02010121 57001 IEM_DS3505
ZHHH,2008-09-26 10:00,ZHHH 261000Z AUTO 04008KT 7SM 20/15 A3009 RMK T02000150 IEM_DS3505
ZHHH,2008-09-26 11:00,ZHHH 261100Z AUTO 04008KT 7SM 19/15 A3012 RMK T01900150 IEM_DS3505
ZHHH,2008-09-26 12:00,ZHHH 261200Z AUTO 04006KT 9SM 20/12 A3012 RMK SLP202 T02010124 52014 IEM_DS3505
ZHHH,2008-09-26 13:00,ZHHH 261300Z AUTO 05008KT 7SM 19/15 A3012 RMK T01900150 IEM_DS3505
ZHHH,2008-09-26 14:00,ZHHH 261400Z AUTO 06008KT 7SM 19/15 A3012 RMK T01900150 IEM_DS3505
ZHHH,2008-09-26 15:00,ZHHH 261500Z AUTO 04004KT 9SM 20/13 A3012 RMK SLP203 T01970127 52001 IEM_DS3505
ZHHH,2008-09-26 16:00,ZHHH 261600Z AUTO 04004KT 7SM 19/16 A3012 RMK T01900160 IEM_DS3505
ZHHH,2008-09-26 18:00,ZHHH 261800Z AUTO 04004KT 11SM 19/14 A3012 RMK SLP197 T01930135 57006 IEM_DS3505
ZHHH,2008-09-26 19:00,ZHHH 261900Z AUTO 04008KT 6SM 18/16 A3012 RMK T01800160 IEM_DS3505
ZHHH,2008-09-26 20:00,ZHHH 262000Z AUTO 04006KT 6SM 18/16 A3009 RMK T01800160 IEM_DS3505
ZHHH,2008-09-26 21:00,ZHHH 262100Z AUTO 04002KT 11SM 19/14 A3009 RMK 70000 SLP194 T01880139 57003 IEM_DS3505
ZHHH,2008-09-26 22:00,ZHHH 262200Z AUTO 05008KT 6SM 18/16 A3009 RMK T01800160 IEM_DS3505
ZHHH,2008-09-26 23:00,ZHHH 262300Z AUTO 03004KT 7SM 18/16 A3012 RMK T01800160 IEM_DS3505
ZHHH,2008-09-27 00:00,ZHHH 270000Z AUTO 04004KT 14SM 18/14 A3012 RMK 70000 SLP201 T01830138 52007 IEM_DS3505
ZHHH,2008-09-27 01:00,ZHHH 270100Z AUTO 05008KT 7SM 18/16 A3012 RMK T01800160 IEM_DS3505
ZHHH,2008-09-27 02:00,ZHHH 270200Z AUTO 04006KT 7SM 18/16 A3015 RMK T01800160 IEM_DS3505
ZHHH,2008-09-27 03:00,ZHHH 270300Z AUTO 02004KT 12SM 19/14 A3012 RMK SLP198 T01930141 57003 IEM_DS3505
ZHHH,2008-09-27 04:00,ZHHH 270400Z AUTO 04006KT 7SM 19/16 A3009 RMK T01900160 IEM_DS3505
ZHHH,2008-09-27 05:00,ZHHH 270500Z AUTO 03006KT 7SM 19/16 A3009 RMK T01900160 IEM_DS3505
ZHHH,2008-09-27 06:00,ZHHH 270600Z AUTO 34004KT 12SM 20/14 A3006 RMK SLP182 T01960142 57016 IEM_DS3505
ZHHH,2008-09-27 07:00,ZHHH 270700Z AUTO 03008KT 7SM 19/16 A3006 RMK T01900160 IEM_DS3505
ZHHH,2008-09-27 08:00,ZHHH 270800Z AUTO 04006KT 7SM 19/16 A3006 RMK T01900160 IEM_DS3505
ZHHH,2008-09-27 09:00,ZHHH 270900Z AUTO 02002KT 11SM 19/14 A3006 RMK SLP183 T01910142 52001 IEM_DS3505
ZHHH,2008-09-27 10:00,ZHHH 271000Z AUTO 03006KT 7SM 18/16 A3009 RMK T01800160 IEM_DS3505
ZHHH,2008-09-27 11:00,ZHHH 271100Z AUTO 02006KT 7SM 18/16 A3009 RMK T01800160 IEM_DS3505
ZHHH,2008-09-27 12:00,ZHHH 271200Z AUTO 04004KT 11SM 18/14 A3012 RMK SLP195 T01850136 52012 IEM_DS3505
ZHHH,2008-09-27 13:00,ZHHH 271300Z AUTO 03004KT 7SM 18/16 A3012 RMK T01800160 IEM_DS3505
ZHHH,2008-09-27 14:00,ZHHH 271400Z AUTO 02006KT 7SM 18/16 A3012 RMK T01800160 IEM_DS3505
ZHHH,2008-09-27 15:00,ZHHH 271500Z AUTO 02004KT 11SM 18/14 A3012 RMK SLP201 T01850138 52006 IEM_DS3505
ZHHH,2008-09-27 16:00,ZHHH 271600Z AUTO 01004KT 3SM 17/15 A3012 RMK T01700150 IEM_DS3505
ZHHH,2008-09-27 17:00,ZHHH 271700Z AUTO 02006KT 3SM 17/16 A3009 RMK T01700160 IEM_DS3505
ZHHH,2008-09-27 18:00,ZHHH 271800Z AUTO 32004KT 9SM 17/15 A3009 RMK SLP190 T01720148 57011 IEM_DS3505
ZHHH,2008-09-27 19:00,ZHHH 271900Z AUTO 01004KT 4SM 17/15 A3009 RMK T01700150 IEM_DS3505
ZHHH,2008-09-27 20:00,ZHHH 272000Z AUTO 02004KT 4SM 17/15 A3009 RMK T01700150 IEM_DS3505
ZHHH,2008-09-27 21:00,ZHHH 272100Z AUTO 34004KT 9SM 18/14 A3009 RMK 70000 SLP188 T01760143 57002 IEM_DS3505
ZHHH,2008-09-27 22:00,ZHHH 272200Z AUTO 02006KT 2SM 16/14 A3009 RMK T01600140 IEM_DS3505
ZHHH,2008-09-27 23:00,ZHHH 272300Z AUTO 02004KT 1SM 16/14 A3009 RMK T01600140 IEM_DS3505
ZHHH,2008-09-28 00:00,ZHHH 280000Z AUTO 04004KT 9SM 17/13 RMK 70000 SLP192 T01720127 52004 IEM_DS3505
ZHHH,2008-09-28 03:00,ZHHH 280300Z AUTO 04006KT 9SM 18/13 RMK SLP195 T01760133 52003 IEM_DS3505
ZHHH,2008-09-28 05:00,ZHHH 280500Z AUTO 36006KT 2 1/2SM 19/16 A3006 RMK T01900160 IEM_DS3505
ZHHH,2008-09-28 06:00,ZHHH 280600Z AUTO 32004KT 11SM 19/14 A3006 RMK SLP180 T01870138 57015 IEM_DS3505
ZHHH,2008-09-28 07:00,ZHHH 280700Z AUTO 35008KT 3SM 18/15 A3006 RMK T01800150 IEM_DS3505
ZHHH,2008-09-28 08:00,ZHHH 280800Z AUTO 36006KT 5SM 18/15 A3006 RMK T01800150 IEM_DS3505
ZHHH,2008-09-28 09:00,ZHHH 280900Z AUTO 36004KT 9SM 17/13 A3006 RMK SLP185 T01730128 52005 IEM_DS3505
ZHHH,2008-09-28 10:00,ZHHH 281000Z AUTO 02008KT 4SM 16/14 A3006 RMK T01600140 IEM_DS3505
ZHHH,2008-09-28 11:00,ZHHH 281100Z AUTO 03008KT 4SM 16/14 A3009 RMK T01600140 IEM_DS3505
ZHHH,2008-09-28 12:00,ZHHH 281200Z AUTO 34006KT 9SM 16/13 A3009 RMK SLP190 T01650128 52005 IEM_DS3505
ZHHH,2008-09-28 13:00,ZHHH 281300Z AUTO 03004KT 4SM 16/14 A3012 RMK T01600140 IEM_DS3505
ZHHH,2008-09-28 14:00,ZHHH 281400Z AUTO 02006KT 4SM 16/14 A3012 RMK T01600140 IEM_DS3505
ZHHH,2008-09-28 15:00,ZHHH 281500Z AUTO 36002KT 9SM 16/13 A3009 RMK SLP194 T01590130 52004 IEM_DS3505
ZHHH,2008-09-28 16:00,ZHHH 281600Z AUTO 34004KT 4SM 15/14 A3012 RMK T01500140 IEM_DS3505
ZHHH,2008-09-28 17:00,ZHHH 281700Z AUTO 35004KT 4SM 15/14 A3009 RMK T01500140 IEM_DS3505
ZHHH,2008-09-28 18:00,ZHHH 281800Z AUTO 34004KT 9SM 16/13 A3009 RMK SLP187 T01580129 57007 IEM_DS3505
ZHHH,2008-09-28 19:00,ZHHH 281900Z AUTO 35004KT 4SM 15/14 A3009 RMK T01500140 IEM_DS3505
ZHHH,2008-09-28 20:00,ZHHH 282000Z AUTO 36004KT 4SM 15/14 A3006 RMK T01500140 IEM_DS3505
ZHHH,2008-09-28 21:00,ZHHH 282100Z AUTO 02002KT 9SM 16/13 A3009 RMK SLP184 T01570126 57003 IEM_DS3505
ZHHH,2008-09-28 22:00,ZHHH 282200Z AUTO 03004KT 7SM 15/14 A3009 RMK T01500140 IEM_DS3505
ZHHH,2008-09-28 23:00,ZHHH 282300Z AUTO 6SM 15/14 A3009 RMK T01500140 IEM_DS3505
ZHHH,2008-09-29 00:00,ZHHH 290000Z AUTO 27002KT 9SM 16/13 A3009 RMK SLP194 T01610130 52010 IEM_DS3505
ZHHH,2008-09-29 01:00,ZHHH 290100Z AUTO 6SM 18/15 A3009 RMK T01800150 IEM_DS3505
ZHHH,2008-09-29 02:00,ZHHH 290200Z AUTO 32004KT 7SM 18/15 A3012 RMK T01800150 IEM_DS3505
ZHHH,2008-09-29 03:00,ZHHH 290300Z AUTO 04004KT 11SM 18/14 A3009 RMK SLP192 T01780135 57002 IEM_DS3505
ZHHH,2008-09-29 04:00,ZHHH 290400Z AUTO 36004KT 7SM 19/16 A3006 RMK T01900160 IEM_DS3505
ZHHH,2008-09-29 05:00,ZHHH 290500Z AUTO 7SM 19/16 A3006 RMK T01900160 IEM_DS3505
ZHHH,2008-09-29 06:00,ZHHH 290600Z AUTO 27002KT 9SM 19/14 A3003 RMK SLP169 T01900138 57023 IEM_DS3505
ZHHH,2008-09-29 07:00,ZHHH 290700Z AUTO 30004KT 7SM 20/17 A3000 RMK T02000170 IEM_DS3505
ZHHH,2008-09-29 08:00,ZHHH 290800Z AUTO 31006KT 7SM 20/17 A3000 RMK T02000170 IEM_DS3505
ZHHH,2008-09-29 09:00,ZHHH 290900Z AUTO 32002KT 11SM 20/14 A3000 RMK SLP165 T01960142 57004 IEM_DS3505
ZHHH,2008-09-29 10:00,ZHHH 291000Z AUTO 36004KT 7SM 19/16 A3003 RMK T01900160 IEM_DS3505
ZHHH,2008-09-29 11:00,ZHHH 291100Z AUTO 04004KT 6SM 18/16 A3003 RMK T01800160 IEM_DS3505
ZHHH,2008-09-29 12:00,ZHHH 291200Z AUTO 36004KT 9SM 19/15 A3006 RMK SLP178 T01880147 52013 IEM_DS3505
ZHHH,2008-09-29 13:00,ZHHH 291300Z AUTO 04006KT 6SM 17/16 A3006 RMK T01700160 IEM_DS3505
ZHHH,2008-09-29 14:00,ZHHH 291400Z AUTO 6SM 17/16 A3009 RMK T01700160 IEM_DS3505
ZHHH,2008-09-29 15:00,ZHHH 291500Z AUTO 32004KT 9SM 18/14 A3006 RMK SLP183 T01800145 52005 IEM_DS3505
ZHHH,2008-09-29 16:00,ZHHH 291600Z AUTO 4SM 17/16 A3006 RMK T01700160 IEM_DS3505
ZHHH,2008-09-29 17:00,ZHHH 291700Z AUTO 32004KT 4SM 17/17 A3006 RMK T01700170 IEM_DS3505
ZHHH,2008-09-29 18:00,ZHHH 291800Z AUTO 27002KT 9SM 17/15 A3006 RMK SLP182 T01730148 57001 IEM_DS3505
ZHHH,2008-09-29 19:00,ZHHH 291900Z AUTO 2 1/2SM 17/17 A3006 RMK T01700170 IEM_DS3505
ZHHH,2008-09-29 20:00,ZHHH 292000Z AUTO 2 1/2SM 17/17 A3003 RMK T01700170 IEM_DS3505
ZHHH,2008-09-29 21:00,ZHHH 292100Z AUTO 32002KT 9SM 17/15 A3003 RMK SLP175 T01730149 57007 IEM_DS3505
ZHHH,2008-09-29 22:00,ZHHH 292200Z AUTO 00000KT 1 1/2SM 17/17 A3006 RMK T01700170 IEM_DS3505
ZHHH,2008-09-29 23:00,ZHHH 292300Z AUTO 00000KT 1 1/4SM 17/17 A3006 RMK T01700170 IEM_DS3505
ZHHH,2008-09-30 00:00,ZHHH 300000Z AUTO 29002KT 7SM 18/15 A3009 RMK SLP188 T01800154 52013 IEM_DS3505
ZHHH,2008-09-30 01:00,ZHHH 300100Z AUTO 1 1/2SM 19/17 A3009 RMK T01900170 IEM_DS3505
ZHHH,2008-09-30 02:00,ZHHH 300200Z AUTO 1 1/2SM 20/18 A3009 RMK T02000180 IEM_DS3505
ZHHH,2008-09-30 03:00,ZHHH 300300Z AUTO 02002KT 9SM 21/16 A3009 RMK SLP192 T02060158 52004 IEM_DS3505
ZHHH,2008-09-30 04:00,ZHHH 300400Z AUTO 2SM 23/19 A3009 RMK T02300190 IEM_DS3505
ZHHH,2008-09-30 05:00,ZHHH 300500Z AUTO 28004KT 3SM 23/18 A3006 RMK T02300180 IEM_DS3505
ZHHH,2008-09-30 06:00,ZHHH 300600Z AUTO 16002KT 11SM 24/16 A3003 RMK SLP172 T02370160 57020 IEM_DS3505
ZHHH,2008-09-30 07:00,ZHHH 300700Z AUTO 29004KT 4SM 25/18 A3003 RMK T02500180 IEM_DS3505
ZHHH,2008-09-30 08:00,ZHHH 300800Z AUTO 25004KT 4SM 25/18 A3003 RMK T02500180 IEM_DS3505
ZHHH,2008-09-30 09:00,ZHHH 300900Z AUTO 25004KT 9SM 24/15 A3003 RMK SLP169 T02440153 57003 IEM_DS3505
ZHHH,2008-09-30 10:00,ZHHH 301000Z AUTO 22004KT 2SM 23/18 A3003 RMK T02300180 IEM_DS3505
ZHHH,2008-09-30 11:00,ZHHH 301100Z AUTO 24004KT 2SM 23/19 A3006 RMK T02300190 IEM_DS3505
ZHHH,2008-09-30 12:00,ZHHH 301200Z AUTO 22002KT 9SM 22/16 A3006 RMK SLP183 T02150165 52014 IEM_DS3505
ZHHH,2008-09-30 13:00,ZHHH 301300Z AUTO 24002KT 2SM 22/19 A3009 RMK T02200190 IEM_DS3505
ZHHH,2008-09-30 14:00,ZHHH 301400Z AUTO 29002KT 2SM 21/19 A3009 RMK T02100190 IEM_DS3505
ZHHH,2008-09-30 15:00,ZHHH 301500Z AUTO 27002KT 7SM 21/17 A3009 RMK SLP190 T02110167 52007 IEM_DS3505
ZHHH,2008-09-30 16:00,ZHHH 301600Z AUTO 00000KT 1 1/4SM 21/19 A3009 RMK T02100190 IEM_DS3505
ZHHH,2008-09-30 17:00,ZHHH 301700Z AUTO 27002KT 1 1/4SM 21/19 A3009 RMK T02100190 IEM_DS3505
ZHHH,2008-09-30 18:00,ZHHH 301800Z AUTO 29002KT 9SM 21/17 A3006 RMK SLP181 T02070169 57008 IEM_DS3505
ZHHH,2008-09-30 19:00,ZHHH 301900Z AUTO 23002KT 1SM 21/19 A3006 RMK T02100190 IEM_DS3505
ZHHH,2008-09-30 20:00,ZHHH 302000Z AUTO 27002KT 1SM 20/19 A3006 RMK T02000190 IEM_DS3505
ZHHH,2008-09-30 21:00,ZHHH 302100Z AUTO 27002KT 6SM 20/17 A3006 RMK SLP177 T01980170 57004 IEM_DS3505
ZHHH,2008-09-30 22:00,ZHHH 302200Z AUTO 04002KT 1SM 19/19 A3006 RMK T01900190 IEM_DS3505
ZHHH,2008-09-30 23:00,ZHHH 302300Z AUTO 06004KT 1SM 19/19 A3006 RMK T01900190 IEM_DS3505
ZHHH,2008-10-01 00:00,ZHHH 010000Z AUTO 11002KT 5SM 21/18 A3009 RMK SLP187 T02060176 52009 IEM_DS3505
ZHHH,2008-10-01 01:00,ZHHH 010100Z AUTO 08006KT 2 1/2SM 21/18 A3009 RMK T02100180 IEM_DS3505
ZHHH,2008-10-01 02:00,ZHHH 010200Z AUTO 09004KT 2 1/2SM 23/19 A3009 RMK T02300190 IEM_DS3505
ZHHH,2008-10-01 03:00,ZHHH 010300Z AUTO 07004KT 9SM 25/14 A3009 RMK SLP191 T02460144 52005 IEM_DS3505
ZHHH,2008-10-01 04:00,ZHHH 010400Z AUTO 29004KT 3SM 26/19 A3006 RMK T02600190 IEM_DS3505
ZHHH,2008-10-01 05:00,ZHHH 010500Z AUTO 27004KT 4SM 25/18 A3006 RMK T02500180 IEM_DS3505
ZHHH,2008-10-01 06:00,ZHHH 010600Z AUTO 4SM 25/18 A3003 RMK T02500180 IEM_DS3505
ZHHH,2008-10-01 07:00,ZHHH 010700Z AUTO 00000KT 4SM 25/18 A3000 RMK T02500180 IEM_DS3505
ZHHH,2008-10-01 08:00,ZHHH 010800Z AUTO 29004KT 4SM 26/18 A3000 RMK T02600180 IEM_DS3505
ZHHH,2008-10-01 09:00,ZHHH 010900Z AUTO 27002KT 9SM 26/15 A3000 RMK SLP156 T02550146 57014 IEM_DS3505
ZHHH,2008-10-01 10:00,ZHHH 011000Z AUTO 00000KT 3SM 24/17 A2997 RMK T02400170 IEM_DS3505
ZHHH,2008-10-01 11:00,ZHHH 011100Z AUTO 00000KT 3SM 22/19 A3000 RMK T02200190 IEM_DS3505
ZHHH,2008-10-01 12:00,ZHHH 011200Z AUTO 25002KT 9SM 22/15 A3000 RMK SLP160 T02220153 52004 IEM_DS3505
ZHHH,2008-10-01 13:00,ZHHH 011300Z AUTO 2SM 21/19 A3000 RMK T02100190 IEM_DS3505
ZHHH,2008-10-01 14:00,ZHHH 011400Z AUTO 24002KT 2SM 21/19 A3000 RMK T02100190 IEM_DS3505
ZHHH,2008-10-01 15:00,ZHHH 011500Z AUTO 25002KT 9SM 19/17 A3000 RMK SLP162 T01920170 52002 IEM_DS3505
ZHHH,2008-10-01 16:00,ZHHH 011600Z AUTO 1SM 20/18 A3000 RMK T02000180 IEM_DS3505
ZHHH,2008-10-01 17:00,ZHHH 011700Z AUTO 06004KT 1SM 20/18 A3000 RMK T02000180 IEM_DS3505
ZHHH,2008-10-01 18:00,ZHHH 011800Z AUTO 07002KT 9SM 19/17 A3000 RMK SLP160 T01910171 57002 IEM_DS3505
ZHHH,2008-10-01 19:00,ZHHH 011900Z AUTO 07004KT 1SM 19/18 A3000 RMK T01900180 IEM_DS3505
ZHHH,2008-10-01 20:00,ZHHH 012000Z AUTO 09004KT 1 1/4SM 19/18 A3000 RMK T01900180 IEM_DS3505
ZHHH,2008-10-01 21:00,ZHHH 012100Z AUTO 02002KT 7SM 18/17 A3000 RMK SLP155 T01820167 57005 IEM_DS3505
ZHHH,2008-10-01 22:00,ZHHH 012200Z AUTO 08004KT 1 1/4SM 18/17 A3000 RMK T01800170 IEM_DS3505
ZHHH,2008-10-01 23:00,ZHHH 012300Z AUTO 07006KT 1SM 18/18 A3000 RMK T01800180 IEM_DS3505
ZHHH,2008-10-02 00:00,ZHHH 020000Z AUTO 04002KT 7SM 20/17 A3003 RMK SLP170 T02000174 52014 IEM_DS3505
ZHHH,2008-10-02 01:00,ZHHH 020100Z AUTO 10004KT 1SM 21/20 A3003 RMK T02100200 IEM_DS3505
ZHHH,2008-10-02 02:00,ZHHH 020200Z AUTO 1SM 23/21 A3003 RMK T02300210 IEM_DS3505
ZHHH,2008-10-02 03:00,ZHHH 020300Z AUTO 36002KT 7SM 26/17 A3003 RMK SLP164 T02550169 57005 IEM_DS3505
ZHHH,2008-10-02 04:00,ZHHH 020400Z AUTO 1 1/4SM 26/20 A3000 RMK T02600200 IEM_DS3505
ZHHH,2008-10-02 05:00,ZHHH 020500Z AUTO 26004KT 1 1/2SM 27/19 A2997 RMK T02700190 IEM_DS3505
ZHHH,2008-10-02 06:00,ZHHH 020600Z AUTO 20002KT 7SM 27/15 A2994 RMK SLP143 T02730150 57021 IEM_DS3505
ZHHH,2008-10-02 07:00,ZHHH 020700Z AUTO 28004KT 3SM 28/19 A2994 RMK T02800190 IEM_DS3505
ZHHH,2008-10-02 08:00,ZHHH 020800Z AUTO 3SM 26/19 A2994 RMK T02600190 IEM_DS3505
ZHHH,2008-10-02 09:00,ZHHH 020900Z AUTO 04002KT 9SM 27/15 A2994 RMK SLP140 T02670148 57003 IEM_DS3505
ZHHH,2008-10-02 10:00,ZHHH 021000Z AUTO 00000KT 3SM 25/18 A2994 RMK T02500180 IEM_DS3505
ZHHH,2008-10-02 11:00,ZHHH 021100Z AUTO 13004KT 3SM 25/18 A2994 RMK T02500180 IEM_DS3505
ZHHH,2008-10-02 12:00,ZHHH 021200Z AUTO 09002KT 9SM 22/18 A2997 RMK SLP146 T02200180 52006 IEM_DS3505
ZHHH,2008-10-02 13:00,ZHHH 021300Z AUTO 3SM 23/19 A2997 RMK T02300190 IEM_DS3505
ZHHH,2008-10-02 14:00,ZHHH 021400Z AUTO 00000KT 3SM 22/19 A2997 RMK T02200190 IEM_DS3505
ZHHH,2008-10-02 15:00,ZHHH 021500Z AUTO 00000KT 9SM 21/18 A2997 RMK SLP148 T02070181 52002 IEM_DS3505
ZHHH,2008-10-02 16:00,ZHHH 021600Z AUTO 06004KT 3SM 22/19 A2997 RMK T02200190 IEM_DS3505
ZHHH,2008-10-02 17:00,ZHHH 021700Z AUTO 07004KT 3SM 21/19 A2994 RMK T02100190 IEM_DS3505
ZHHH,2008-10-02 18:00,ZHHH 021800Z AUTO 02002KT 9SM 21/18 A2994 RMK SLP141 T02100182 57007 IEM_DS3505
ZHHH,2008-10-02 19:00,ZHHH 021900Z AUTO 04002KT 2 1/2SM 21/19 A2994 RMK T02100190 IEM_DS3505
ZHHH,2008-10-02 20:00,ZHHH 022000Z AUTO 08006KT 2SM 21/19 A2994 RMK T02100190 IEM_DS3505
ZHHH,2008-10-02 21:00,ZHHH 022100Z AUTO 07002KT 7SM 22/18 A2994 RMK SLP139 T02190181 57002 IEM_DS3505
ZHHH,2008-10-02 22:00,ZHHH 022200Z AUTO 08006KT 2SM 21/19 A2994 RMK T02100190 IEM_DS3505
ZHHH,2008-10-02 23:00,ZHHH 022300Z AUTO 08006KT 1SM 20/19 A2994 RMK T02000190 IEM_DS3505
ZHHH,2008-10-03 00:00,ZHHH 030000Z AUTO 09002KT 6SM 23/17 A2997 RMK SLP148 T02280173 52009 IEM_DS3505
ZHHH,2008-10-03 01:00,ZHHH 030100Z AUTO 09004KT 1 1/4SM 22/20 A2997 RMK T02200200 IEM_DS3505
ZHHH,2008-10-03 02:00,ZHHH 030200Z AUTO 13004KT 1 1/4SM 24/20 A3000 RMK T02400200 IEM_DS3505
ZHHH,2008-10-03 03:00,ZHHH 030300Z AUTO 07002KT 5SM 25/17 A2997 RMK SLP150 T02530172 52002 IEM_DS3505
ZHHH,2008-10-03 04:00,ZHHH 030400Z AUTO 1 1/4SM 26/21 A2994 RMK T02600210 IEM_DS3505
ZHHH,2008-10-03 05:00,ZHHH 030500Z AUTO 02004KT 2SM 26/20 A2994 RMK T02600200 IEM_DS3505
ZHHH,2008-10-03 06:00,ZHHH 030600Z AUTO 04002KT 7SM 26/16 A2991 RMK SLP131 T02610164 57019 IEM_DS3505
ZHHH,2008-10-03 07:00,ZHHH 030700Z AUTO 04004KT 2SM 25/20 A2991 RMK T02500200 IEM_DS3505
ZHHH,2008-10-03 08:00,ZHHH 030800Z AUTO 04006KT 2SM 25/20 A2991 RMK T02500200 IEM_DS3505
ZHHH,2008-10-03 09:00,ZHHH 030900Z AUTO 34004KT 7SM 25/18 A2994 RMK SLP138 T02470177 52007 IEM_DS3505
ZHHH,2008-10-03 10:00,ZHHH 031000Z AUTO 01004KT 1SM 22/20 A2997 RMK T02200200 IEM_DS3505
ZHHH,2008-10-03 11:00,ZHHH 031100Z AUTO 04008KT 1 1/4SM 20/19 A2997 RMK T02000190 IEM_DS3505
ZHHH,2008-10-03 12:00,ZHHH 031200Z AUTO 02002KT 5SM 20/17 A2997 RMK 60016 SLP154 T01990169 52016 IEM_DS3505
ZHHH,2008-10-03 13:00,ZHHH 031300Z AUTO 03006KT 2SM 19/17 A3000 RMK T01900170 IEM_DS3505
ZHHH,2008-10-03 14:00,ZHHH 031400Z AUTO 06006KT 1 1/4SM 18/18 A3000 RMK T01800180 IEM_DS3505
ZHHH,2008-10-03 15:00,ZHHH 031500Z AUTO 02002KT 6SM 19/16 A3000 RMK SLP163 T01880164 52009 IEM_DS3505
ZHHH,2008-10-03 16:00,ZHHH 031600Z AUTO 1 1/4SM 18/18 A3000 RMK T01800180 IEM_DS3505
ZHHH,2008-10-03 17:00,ZHHH 031700Z AUTO 06004KT 1 1/2SM 18/18 A2997 RMK T01800180 IEM_DS3505
ZHHH,2008-10-03 18:00,ZHHH 031800Z AUTO 07002KT 9SM 18/16 A2997 RMK 60051 SLP148 T01780158 57015 IEM_DS3505
ZHHH,2008-10-03 19:00,ZHHH 031900Z AUTO 06004KT 2SM 18/18 A2997 RMK T01800180 IEM_DS3505
ZHHH,2008-10-03 20:00,ZHHH 032000Z AUTO 09004KT 2SM 18/18 A2994 RMK T01800180 IEM_DS3505
ZHHH,2008-10-03 21:00,ZHHH 032100Z AUTO 04002KT 9SM 19/16 A2994 RMK 70073 SLP139 T01860164 57009 IEM_DS3505
ZHHH,2008-10-03 22:00,ZHHH 032200Z AUTO 06004KT 1 1/4SM 18/18 A2994 RMK T01800180 IEM_DS3505
ZHHH,2008-10-03 23:00,ZHHH 032300Z AUTO 36004KT 1SM 18/18 A2994 RMK T01800180 IEM_DS3505
ZHHH,2008-10-04 00:00,ZHHH 040000Z AUTO 02002KT 6SM 19/17 A2997 RMK 60008 70076 SLP150 T01900170 52010 IEM_DS3505
ZHHH,2008-10-04 01:00,ZHHH 040100Z AUTO 05004KT 1 1/4SM 19/19 A2997 RMK T01900190 IEM_DS3505
ZHHH,2008-10-04 02:00,ZHHH 040200Z AUTO 00000KT 1 1/2SM 19/19 A2997 RMK T01900190 IEM_DS3505
ZHHH,2008-10-04 03:00,ZHHH 040300Z AUTO 32002KT 6SM 19/17 A2997 RMK SLP152 T01880169 52002 IEM_DS3505
ZHHH,2008-10-04 04:00,ZHHH 040400Z AUTO 1 1/4SM 18/18 A2997 RMK T01800180 IEM_DS3505
ZHHH,2008-10-04 05:00,ZHHH 040500Z AUTO 1SM 19/19 A2994 RMK T01900190 IEM_DS3505
ZHHH,2008-10-04 06:00,ZHHH 040600Z AUTO 27002KT 6SM 19/18 A2991 RMK 60016 SLP133 T01940181 57019 IEM_DS3505
ZHHH,2008-10-04 07:00,ZHHH 040700Z AUTO 01004KT 1SM 19/19 A2991 RMK T01900190 IEM_DS3505
ZHHH,2008-10-04 08:00,ZHHH 040800Z AUTO 02006KT 1SM 19/19 A2991 RMK T01900190 IEM_DS3505
ZHHH,2008-10-04 09:00,ZHHH 040900Z AUTO 32002KT 6SM 19/17 A2991 RMK SLP130 T01890174 57003 IEM_DS3505
ZHHH,2008-10-04 10:00,ZHHH 041000Z AUTO 01004KT 2 1/2SM 18/18 A2994 RMK T01800180 IEM_DS3505
ZHHH,2008-10-04 11:00,ZHHH 041100Z AUTO 2 1/2SM 18/18 A2994 RMK T01800180 IEM_DS3505
ZHHH,2008-10-04 12:00,ZHHH 041200Z AUTO 25002KT 7SM 19/17 A2994 RMK 60016 SLP142 T01900173 52012 IEM_DS3505
ZHHH,2008-10-04 13:00,ZHHH 041300Z AUTO 34004KT 1 1/4SM 18/18 A2997 RMK T01800180 IEM_DS3505
ZHHH,2008-10-04 14:00,ZHHH 041400Z AUTO 33006KT 1SM 18/18 A2997 RMK T01800180 IEM_DS3505
ZHHH,2008-10-04 15:00,ZHHH 041500Z AUTO 29004KT 5SM 18/17 A2997 RMK SLP153 T01840167 52011 IEM_DS3505
ZHHH,2008-10-04 16:00,ZHHH 041600Z AUTO 35006KT 1SM 17/17 A2997 RMK T01700170 IEM_DS3505
ZHHH,2008-10-04 17:00,ZHHH 041700Z AUTO 35004KT 1SM 17/17 A2997 RMK T01700170 IEM_DS3505
ZHHH,2008-10-04 18:00,ZHHH 041800Z AUTO 27002KT 4SM 17/16 A2997 RMK SLP149 T01720157 57004 IEM_DS3505
ZHHH,2008-10-04 19:00,ZHHH 041900Z AUTO 33006KT 1SM 16/16 A2997 RMK T01600160 IEM_DS3505
ZHHH,2008-10-04 20:00,ZHHH 042000Z AUTO 03004KT 1SM 16/16 A2994 RMK T01600160 IEM_DS3505
ZHHH,2008-10-04 21:00,ZHHH 042100Z AUTO 20002KT 4SM 16/15 A2994 RMK 70035 SLP144 T01640151 57005 IEM_DS3505
ZHHH,2008-10-04 22:00,ZHHH 042200Z AUTO 1SM 15/15 A2994 RMK T01500150 IEM_DS3505
ZHHH,2008-10-04 23:00,ZHHH 042300Z AUTO 35004KT 1/2SM 15/15 A2997 RMK T01500150 IEM_DS3505
ZHHH,2008-10-05 00:00,ZHHH 050000Z AUTO 27002KT 4SM 17/16 A3000 RMK 70032 SLP156 T01690156 52012 IEM_DS3505
ZHHH,2008-10-05 01:00,ZHHH 050100Z AUTO 31004KT 1/4SM 16/16 A3000 RMK T01600160 IEM_DS3505
ZHHH,2008-10-05 02:00,ZHHH 050200Z AUTO 1SM 18/18 A3000 RMK T01800180 IEM_DS3505
ZHHH,2008-10-05 03:00,ZHHH 050300Z AUTO 29006KT 4SM 20/16 A3000 RMK SLP164 T01980164 52008 IEM_DS3505
ZHHH,2008-10-05 04:00,ZHHH 050400Z AUTO 28004KT 1SM 20/18 A3000 RMK T02000180 IEM_DS3505
ZHHH,2008-10-05 05:00,ZHHH 050500Z AUTO 30006KT 1SM 22/19 A2997 RMK T02200190 IEM_DS3505
ZHHH,2008-10-05 06:00,ZHHH 050600Z AUTO 27004KT 7SM 23/16 A2994 RMK SLP142 T02330156 57022 IEM_DS3505
ZHHH,2008-10-05 07:00,ZHHH 050700Z AUTO 30004KT 1 1/4SM 23/19 A2994 RMK T02300190 IEM_DS3505
ZHHH,2008-10-05 08:00,ZHHH 050800Z AUTO 1 1/4SM 23/19 A2994 RMK T02300190 IEM_DS3505
ZHHH,2008-10-05 09:00,ZHHH 050900Z AUTO 29002KT 6SM 23/17 A2994 RMK SLP141 T02300170 57001 IEM_DS3505
ZHHH,2008-10-05 10:00,ZHHH 051000Z AUTO 00000KT 1SM 22/19 A2994 RMK T02200190 IEM_DS3505
ZHHH,2008-10-05 11:00,ZHHH 051100Z AUTO 00000KT 1SM 21/19 A2997 RMK T02100190 IEM_DS3505
ZHHH,2008-10-05 12:00,ZHHH 051200Z AUTO 00000KT 6SM 20/18 A3000 RMK SLP157 T01990180 52016 IEM_DS3505
ZHHH,2008-10-05 13:00,ZHHH 051300Z AUTO 00000KT 1SM 20/19 A3000 RMK T02000190 IEM_DS3505
ZHHH,2008-10-05 14:00,ZHHH 051400Z AUTO 35002KT 1SM 20/19 A3003 RMK T02000190 IEM_DS3505
ZHHH,2008-10-05 15:00,ZHHH 051500Z AUTO 32002KT 6SM 20/18 A3003 RMK SLP169 T02010181 52012 IEM_DS3505
ZHHH,2008-10-05 16:00,ZHHH 051600Z AUTO 03006KT 1SM 19/17 A3003 RMK T01900170 IEM_DS3505
ZHHH,2008-10-05 17:00,ZHHH 051700Z AUTO 05012KT 1SM 18/16 A3003 RMK T01800160 IEM_DS3505
ZHHH,2008-10-05 18:00,ZHHH 051800Z AUTO 04008KT 6SM 19/13 A3003 RMK SLP173 T01910128 52004 IEM_DS3505
ZHHH,2008-10-05 19:00,ZHHH 051900Z AUTO 04014KT 1 1/4SM 17/13 A3006 RMK T01700130 IEM_DS3505
ZHHH,2008-10-05 20:00,ZHHH 052000Z AUTO 06008KT 2SM 16/13 A3006 RMK T01600130 IEM_DS3505
ZHHH,2008-10-05 21:00,ZHHH 052100Z AUTO 07004KT 7SM 17/11 A3006 RMK SLP182 T01700113 52009 IEM_DS3505
ZHHH,2008-10-05 22:00,ZHHH 052200Z AUTO 04004KT 4SM 15/12 A3009 RMK T01500120 IEM_DS3505
ZHHH,2008-10-05 23:00,ZHHH 052300Z AUTO 03004KT 2 1/2SM 15/12 A3012 RMK T01500120 IEM_DS3505
ZHHH,2008-10-06 00:00,ZHHH 060000Z AUTO 02004KT 11SM 17/11 A3012 RMK SLP201 T01680106 52019 IEM_DS3505
ZHHH,2008-10-06 01:00,ZHHH 060100Z AUTO 03008KT 4SM 18/13 A3015 RMK T01800130 IEM_DS3505
ZHHH,2008-10-06 02:00,ZHHH 060200Z AUTO 05010KT 5SM 20/13 A3015 RMK T02000130 IEM_DS3505
ZHHH,2008-10-06 03:00,ZHHH 060300Z AUTO 04006KT 16SM 21/10 A3012 RMK SLP205 T02090095 52004 IEM_DS3505
ZHHH,2008-10-06 04:00,ZHHH 060400Z AUTO 03008KT 6SM 22/13 A3012 RMK T02200130 IEM_DS3505
ZHHH,2008-10-06 05:00,ZHHH 060500Z AUTO 01008KT 6SM 23/13 A3009 RMK T02300130 IEM_DS3505
ZHHH,2008-10-06 06:00,ZHHH 060600Z AUTO 02006KT 12SM 23/08 A3006 RMK SLP180 T02290082 57025 IEM_DS3505
ZHHH,2008-10-06 07:00,ZHHH 060700Z AUTO 04010KT 6SM 23/12 A3003 RMK T02300120 IEM_DS3505
ZHHH,2008-10-06 08:00,ZHHH 060800Z AUTO 05010KT 6SM 22/12 A3006 RMK T02200120 IEM_DS3505
ZHHH,2008-10-06 09:00,ZHHH 060900Z AUTO 04006KT 12SM 22/08 A3006 RMK SLP179 T02190077 57001 IEM_DS3505
ZHHH,2008-10-06 10:00,ZHHH 061000Z AUTO 04010KT 6SM 18/13 A3006 RMK T01800130 IEM_DS3505
ZHHH,2008-10-06 11:00,ZHHH 061100Z AUTO 04012KT 6SM 16/12 A3009 RMK T01600120 IEM_DS3505
ZHHH,2008-10-06 12:00,ZHHH 061200Z AUTO 07006KT 11SM 17/12 A3012 RMK SLP194 T01670118 52015 IEM_DS3505
ZHHH,2008-10-06 13:00,ZHHH 061300Z AUTO 04008KT 6SM 14/12 A3012 RMK T01400120 IEM_DS3505
ZHHH,2008-10-06 14:00,ZHHH 061400Z AUTO 04008KT 6SM 14/12 A3012 RMK T01400120 IEM_DS3505
ZHHH,2008-10-06 15:00,ZHHH 061500Z AUTO 07004KT 11SM 15/11 A3012 RMK SLP199 T01500108 52005 IEM_DS3505
ZHHH,2008-10-06 16:00,ZHHH 061600Z AUTO 06006KT 3SM 13/12 A3009 RMK T01300120 IEM_DS3505
ZHHH,2008-10-06 17:00,ZHHH 061700Z AUTO 02004KT 2 1/2SM 13/12 A3009 RMK T01300120 IEM_DS3505
ZHHH,2008-10-06 18:00,ZHHH 061800Z AUTO 09002KT 11SM 15/11 A3009 RMK SLP190 T01460112 57009 IEM_DS3505
ZHHH,2008-10-06 19:00,ZHHH 061900Z AUTO 03002KT 2 1/2SM 12/12 A3009 RMK T01200120 IEM_DS3505
ZHHH,2008-10-06 20:00,ZHHH 062000Z AUTO 05002KT 2 1/2SM 12/12 A3009 RMK T01200120 IEM_DS3505
ZHHH,2008-10-06 21:00,ZHHH 062100Z AUTO 04002KT 9SM 14/11 A3012 RMK SLP195 T01400113 52005 IEM_DS3505
ZHHH,2008-10-06 22:00,ZHHH 062200Z AUTO 07004KT 2 1/2SM 12/12 A3012 RMK T01200120 IEM_DS3505
ZHHH,2008-10-06 23:00,ZHHH 062300Z AUTO 09004KT 1 1/4SM 13/12 A3015 RMK T01300120 IEM_DS3505
ZHHH,2008-10-07 00:00,ZHHH 070000Z AUTO 09002KT 9SM 15/12 A3015 RMK SLP211 T01540123 52016 IEM_DS3505
ZHHH,2008-10-07 01:00,ZHHH 070100Z AUTO 10006KT 1 1/2SM 16/15 A3015 RMK T01600150 IEM_DS3505
ZHHH,2008-10-07 02:00,ZHHH 070200Z AUTO 16004KT 2 1/2SM 18/15 A3018 RMK T01800150 IEM_DS3505
ZHHH,2008-10-07 03:00,ZHHH 070300Z AUTO 07004KT 9SM 20/13 A3015 RMK SLP210 T01990129 57001 IEM_DS3505
ZHHH,2008-10-07 04:00,ZHHH 070400Z AUTO 10006KT 2 1/2SM 21/15 A3012 RMK T02100150 IEM_DS3505
ZHHH,2008-10-07 05:00,ZHHH 070500Z AUTO 15008KT 4SM 21/15 A3006 RMK T02100150 IEM_DS3505
ZHHH,2008-10-07 06:00,ZHHH 070600Z AUTO 11004KT 9SM 22/12 A3003 RMK SLP174 T02250119 57036 IEM_DS3505
ZHHH,2008-10-07 07:00,ZHHH 070700Z AUTO 13006KT 4SM 22/14 A3003 RMK T02200140 IEM_DS3505
ZHHH,2008-10-07 08:00,ZHHH 070800Z AUTO 12006KT 4SM 22/12 A3003 RMK T02200120 IEM_DS3505
ZHHH,2008-10-07 09:00,ZHHH 070900Z AUTO 11002KT 9SM 22/12 A3003 RMK SLP165 T02210121 57009 IEM_DS3505
ZHHH,2008-10-07 10:00,ZHHH 071000Z AUTO 09006KT 3SM 20/14 A3000 RMK T02000140 IEM_DS3505
ZHHH,2008-10-07 11:00,ZHHH 071100Z AUTO 08004KT 3SM 19/14 A3003 RMK T01900140 IEM_DS3505
ZHHH,2008-10-07 12:00,ZHHH 071200Z AUTO 00000KT 9SM 18/14 A3003 RMK SLP171 T01800143 52006 IEM_DS3505
ZHHH,2008-10-07 13:00,ZHHH 071300Z AUTO 07004KT 3SM 18/14 A3003 RMK T01800140 IEM_DS3505
ZHHH,2008-10-07 14:00,ZHHH 071400Z AUTO 07004KT 2 1/2SM 18/14 A3006 RMK T01800140 IEM_DS3505
ZHHH,2008-10-07 15:00,ZHHH 071500Z AUTO 00000KT 9SM 16/14 A3006 RMK SLP175 T01590141 52004 IEM_DS3505
ZHHH,2008-10-07 16:00,ZHHH 071600Z AUTO 06006KT 2 1/2SM 16/14 A3006 RMK T01600140 IEM_DS3505
ZHHH,2008-10-07 17:00,ZHHH 071700Z AUTO 07004KT 2 1/2SM 15/14 A3003 RMK T01500140 IEM_DS3505
ZHHH,2008-10-07 18:00,ZHHH 071800Z AUTO 02002KT 7SM 17/14 A3003 RMK SLP174 T01690145 57001 IEM_DS3505
ZHHH,2008-10-07 19:00,ZHHH 071900Z AUTO 06006KT 2SM 15/14 A3003 RMK T01500140 IEM_DS3505
ZHHH,2008-10-07 20:00,ZHHH 072000Z AUTO 05006KT 2SM 15/14 A3003 RMK T01500140 IEM_DS3505
ZHHH,2008-10-07 21:00,ZHHH 072100Z AUTO 07002KT 7SM 16/14 A3006 RMK SLP176 T01610139 52002 IEM_DS3505
ZHHH,2008-10-07 22:00,ZHHH 072200Z AUTO 10006KT 1 1/4SM 15/14 A3006 RMK T01500140 IEM_DS3505
ZHHH,2008-10-07 23:00,ZHHH 072300Z AUTO 09006KT 1 1/4SM 15/15 A3006 RMK T01500150 IEM_DS3505
ZHHH,2008-10-08 00:00,ZHHH 080000Z AUTO 04002KT 7SM 18/15 A3009 RMK SLP185 T01790148 52009 IEM_DS3505
ZHHH,2008-10-08 01:00,ZHHH 080100Z AUTO 06006KT 1 1/2SM 18/17 A3009 RMK T01800170 IEM_DS3505
ZHHH,2008-10-08 02:00,ZHHH 080200Z AUTO 06006KT 2 1/2SM 20/17 A3009 RMK T02000170 IEM_DS3505
ZHHH,2008-10-08 03:00,ZHHH 080300Z AUTO 34004KT 9SM 22/14 A3009 RMK SLP187 T02160138 52002 IEM_DS3505
ZHHH,2008-10-08 04:00,ZHHH 080400Z AUTO 04004KT 5SM 22/16 A3006 RMK T02200160 IEM_DS3505
ZHHH,2008-10-08 05:00,ZHHH 080500Z AUTO 07004KT 5SM 22/16 A3003 RMK T02200160 IEM_DS3505
ZHHH,2008-10-08 06:00,ZHHH 080600Z AUTO 36002KT 9SM 23/13 A3000 RMK SLP165 T02340130 57022 IEM_DS3505
ZHHH,2008-10-08 07:00,ZHHH 080700Z AUTO 14004KT 5SM 22/17 A3000 RMK T02200170 IEM_DS3505
ZHHH,2008-10-08 08:00,ZHHH 080800Z AUTO 16004KT 5SM 22/17 A3000 RMK T02200170 IEM_DS3505
ZHHH,2008-10-08 09:00,ZHHH 080900Z AUTO 27002KT 9SM 22/15 A3003 RMK SLP166 T02230147 52001 IEM_DS3505
ZHHH,2008-10-08 10:00,ZHHH 081000Z AUTO 29002KT 4SM 21/18 A3003 RMK T02100180 IEM_DS3505
ZHHH,2008-10-08 11:00,ZHHH 081100Z AUTO 00000KT 4SM 21/17 A3003 RMK T02100170 IEM_DS3505
ZHHH,2008-10-08 12:00,ZHHH 081200Z AUTO 00000KT 9SM 20/16 A3006 RMK SLP178 T02020156 52012 IEM_DS3505
ZHHH,2008-10-08 13:00,ZHHH 081300Z AUTO 31002KT 2SM 20/18 A3006 RMK T02000180 IEM_DS3505
ZHHH,2008-10-08 14:00,ZHHH 081400Z AUTO 32002KT 1 1/2SM 20/18 A3006 RMK T02000180 IEM_DS3505
ZHHH,2008-10-08 15:00,ZHHH 081500Z AUTO 27002KT 7SM 20/16 A3006 RMK SLP181 T02010159 52003 IEM_DS3505
ZHHH,2008-10-08 16:00,ZHHH 081600Z AUTO 33002KT 1SM 20/18 A3006 RMK T02000180 IEM_DS3505
ZHHH,2008-10-08 17:00,ZHHH 081700Z AUTO 1SM 19/18 A3006 RMK T01900180 IEM_DS3505
ZHHH,2008-10-08 18:00,ZHHH 081800Z AUTO 34002KT 5SM 20/16 A3006 RMK SLP182 T01960157 52001 IEM_DS3505
ZHHH,2008-10-08 19:00,ZHHH 081900Z AUTO 00000KT 1SM 19/18 A3006 RMK T01900180 IEM_DS3505
ZHHH,2008-10-08 20:00,ZHHH 082000Z AUTO 02004KT 1SM 19/18 A3006 RMK T01900180 IEM_DS3505
ZHHH,2008-10-08 21:00,ZHHH 082100Z AUTO 32002KT 5SM 19/17 A3009 RMK 70000 SLP185 T01920168 52003 IEM_DS3505
ZHHH,2008-10-08 22:00,ZHHH 082200Z AUTO 06004KT 1SM 18/17 A3009 RMK T01800170 IEM_DS3505
ZHHH,2008-10-08 23:00,ZHHH 082300Z AUTO 09004KT 1SM 18/18 A3009 RMK T01800180 IEM_DS3505
ZHHH,2008-10-09 00:00,ZHHH 090000Z AUTO 00000KT 6SM 20/16 A3012 RMK 60000 70000 SLP202 T01960157 52017 IEM_DS3505
ZHHH,2008-10-09 01:00,ZHHH 090100Z AUTO 00000KT 1SM 19/18 A3015 RMK T01900180 IEM_DS3505
ZHHH,2008-10-09 02:00,ZHHH 090200Z AUTO 00000KT 1SM 19/18 A3015 RMK T01900180 IEM_DS3505
ZHHH,2008-10-09 03:00,ZHHH 090300Z AUTO 04002KT 7SM 20/16 A3015 RMK SLP206 T02050165 52004 IEM_DS3505
ZHHH,2008-10-09 04:00,ZHHH 090400Z AUTO 1SM 21/19 A3012 RMK T02100190 IEM_DS3505
ZHHH,2008-10-09 05:00,ZHHH 090500Z AUTO 04004KT 1SM 22/19 A3009 RMK T02200190 IEM_DS3505
ZHHH,2008-10-09 06:00,ZHHH 090600Z AUTO 34002KT 7SM 22/16 A3009 RMK SLP190 T02230156 57016 IEM_DS3505
ZHHH,2008-10-09 07:00,ZHHH 090700Z AUTO 31004KT 1SM 21/19 A3009 RMK T02100190 IEM_DS3505
ZHHH,2008-10-09 08:00,ZHHH 090800Z AUTO 00000KT 1SM 21/19 A3009 RMK T02100190 IEM_DS3505
ZHHH,2008-10-09 09:00,ZHHH 090900Z AUTO 36002KT 6SM 21/17 A3009 RMK SLP192 T02130167 52002 IEM_DS3505
ZHHH,2008-10-09 10:00,ZHHH 091000Z AUTO 33006KT 1SM 20/19 A3012 RMK T02000190 IEM_DS3505
ZHHH,2008-10-09 11:00,ZHHH 091100Z AUTO 34004KT 1SM 20/18 A3012 RMK T02000180 IEM_DS3505
ZHHH,2008-10-09 12:00,ZHHH 091200Z AUTO 34002KT 6SM 20/17 A3015 RMK SLP209 T02040166 52017 IEM_DS3505
ZHHH,2008-10-09 13:00,ZHHH 091300Z AUTO 34006KT 1SM 19/19 A3015 RMK T01900190 IEM_DS3505
ZHHH,2008-10-09 14:00,ZHHH 091400Z AUTO 00000KT 1SM 18/18 A3015 RMK T01800180 IEM_DS3505
ZHHH,2008-10-09 15:00,ZHHH 091500Z AUTO 25002KT 4SM 19/17 A3015 RMK SLP212 T01890170 52003 IEM_DS3505
ZHHH,2008-10-09 16:00,ZHHH 091600Z AUTO 34004KT 1SM 18/18 A3015 RMK T01800180 IEM_DS3505
ZHHH,2008-10-09 17:00,ZHHH 091700Z AUTO 33004KT 1SM 18/18 A3015 RMK T01800180 IEM_DS3505
ZHHH,2008-10-09 18:00,ZHHH 091800Z AUTO 34002KT 3SM 18/16 A3015 RMK 60004 SLP210 T01850165 57002 IEM_DS3505
ZHHH,2008-10-09 19:00,ZHHH 091900Z AUTO 32004KT 1SM 18/18 A3015 RMK T01800180 IEM_DS3505
ZHHH,2008-10-09 20:00,ZHHH 092000Z AUTO 35006KT 1/2SM 18/18 A3015 RMK T01800180 IEM_DS3505
ZHHH,2008-10-09 21:00,ZHHH 092100Z AUTO 34002KT 3SM 18/17 A3015 RMK 70005 SLP213 T01850167 52003 IEM_DS3505
ZHHH,2008-10-09 22:00,ZHHH 092200Z AUTO 00000KT 3/8SM 18/18 A3018 RMK T01800180 IEM_DS3505
ZHHH,2008-10-09 23:00,ZHHH 092300Z AUTO 00000KT 3/8SM 18/18 A3018 RMK T01800180 IEM_DS3505
ZHHH,2008-10-10 00:00,ZHHH 100000Z AUTO 27002KT 1 1/4SM 18/17 A3021 RMK 60003 70007 SLP234 T01830170 52021 IEM_DS3505
ZHHH,2008-10-10 01:00,ZHHH 100100Z AUTO 1SM 18/18 A3024 RMK T01800180 IEM_DS3505
ZHHH,2008-10-10 02:00,ZHHH 100200Z AUTO 34004KT 1SM 19/19 A3024 RMK T01900190 IEM_DS3505
ZHHH,2008-10-10 03:00,ZHHH 100300Z AUTO 29002KT 5SM 20/16 A3024 RMK SLP244 T01950165 52010 IEM_DS3505
ZHHH,2008-10-10 04:00,ZHHH 100400Z AUTO 34004KT 1/2SM 19/19 A3024 RMK T01900190 IEM_DS3505
ZHHH,2008-10-10 05:00,ZHHH 100500Z AUTO 33004KT 1SM 19/19 A3021 RMK T01900190 IEM_DS3505
ZHHH,2008-10-10 06:00,ZHHH 100600Z AUTO 32004KT 6SM 19/17 A3021 RMK 60000 SLP226 T01940170 57018 IEM_DS3505
ZHHH,2008-10-10 07:00,ZHHH 100700Z AUTO 34006KT 1/2SM 19/19 A3018 RMK T01900190 IEM_DS3505
ZHHH,2008-10-10 08:00,ZHHH 100800Z AUTO 1SM 19/19 A3018 RMK T01900190 IEM_DS3505
ZHHH,2008-10-10 09:00,ZHHH 100900Z AUTO 32002KT 6SM 20/18 A3021 RMK SLP227 T01950175 52001 IEM_DS3505
ZHHH,2008-10-10 10:00,ZHHH 101000Z AUTO 02004KT 1SM 19/18 A3021 RMK T01900180 IEM_DS3505
ZHHH,2008-10-10 11:00,ZHHH 101100Z AUTO 02006KT 1SM 18/18 A3024 RMK T01800180 IEM_DS3505
ZHHH,2008-10-10 12:00,ZHHH 101200Z AUTO 02002KT 5SM 18/17 A3024 RMK 60002 SLP243 T01840167 52016 IEM_DS3505
ZHHH,2008-10-10 13:00,ZHHH 101300Z AUTO 01004KT 1/2SM 18/18 A3027 RMK T01800180 IEM_DS3505
ZHHH,2008-10-10 14:00,ZHHH 101400Z AUTO 00000KT 3/8SM 18/18 A3027 RMK T01800180 IEM_DS3505
ZHHH,2008-10-10 15:00,ZHHH 101500Z AUTO 36002KT 4SM 18/17 A3027 RMK SLP247 T01830171 52004 IEM_DS3505
ZHHH,2008-10-10 16:00,ZHHH 101600Z AUTO 1/4SM 18/18 A3027 RMK T01800180 IEM_DS3505
ZHHH,2008-10-10 17:00,ZHHH 101700Z AUTO 01004KT 1/4SM 18/18 A3024 RMK T01800180 IEM_DS3505
ZHHH,2008-10-10 18:00,ZHHH 101800Z AUTO 02006KT 1SM 18/17 A3024 RMK 60035 SLP241 T01800169 57006 IEM_DS3505
ZHHH,2008-10-10 19:00,ZHHH 101900Z AUTO 04008KT 1SM 17/17 A3024 RMK T01700170 IEM_DS3505
ZHHH,2008-10-10 20:00,ZHHH 102000Z AUTO 03006KT 1SM 16/16 A3024 RMK T01600160 IEM_DS3505
ZHHH,2008-10-10 21:00,ZHHH 102100Z AUTO 04004KT 2 1/2SM 17/16 A3024 RMK 70066 SLP242 T01690156 52001 IEM_DS3505
ZHHH,2008-10-10 22:00,ZHHH 102200Z AUTO 05010KT 1SM 16/16 A3024 RMK T01600160 IEM_DS3505
ZHHH,2008-10-10 23:00,ZHHH 102300Z AUTO 07008KT 1SM 16/16 A3027 RMK T01600160 IEM_DS3505
ZHHH,2008-10-11 00:00,ZHHH 110000Z AUTO 07004KT 5SM 16/15 A3027 RMK 60039 70076 SLP250 T01650149 52008 IEM_DS3505
ZHHH,2008-10-11 01:00,ZHHH 110100Z AUTO 07002KT 1SM 16/16 A3030 RMK T01600160 IEM_DS3505
ZHHH,2008-10-11 02:00,ZHHH 110200Z AUTO 00000KT 1SM 17/17 A3030 RMK T01700170 IEM_DS3505
ZHHH,2008-10-11 03:00,ZHHH 110300Z AUTO 04004KT 6SM 17/14 A3027 RMK SLP252 T01670145 52002 IEM_DS3505
ZHHH,2008-10-11 04:00,ZHHH 110400Z AUTO 09006KT 1SM 16/16 A3027 RMK T01600160 IEM_DS3505
ZHHH,2008-10-11 05:00,ZHHH 110500Z AUTO 06004KT 1SM 16/16 A3024 RMK T01600160 IEM_DS3505
ZHHH,2008-10-11 06:00,ZHHH 110600Z AUTO 04002KT 6SM 17/15 A3024 RMK 60003 SLP236 T01660150 57016 IEM_DS3505
ZHHH,2008-10-11 07:00,ZHHH 110700Z AUTO 06004KT 1/2SM 16/16 A3021 RMK T01600160 IEM_DS3505
ZHHH,2008-10-11 08:00,ZHHH 110800Z AUTO 00000KT 1/2SM 16/16 A3021 RMK T01600160 IEM_DS3505
ZHHH,2008-10-11 09:00,ZHHH 110900Z AUTO 34002KT 5SM 16/15 RMK SLP236 T01640153 54000 IEM_DS3505
ZHHH,2008-10-11 10:00,ZHHH 111000Z AUTO 00000KT 1SM 16/16 A3024 RMK T01600160 IEM_DS3505
ZHHH,2008-10-11 11:00,ZHHH 111100Z AUTO 00000KT 1SM 16/16 A3024 RMK T01600160 IEM_DS3505
ZHHH,2008-10-11 12:00,ZHHH 111200Z AUTO 36002KT 5SM 17/15 A3024 RMK 60012 SLP242 T01660153 52006 IEM_DS3505
ZHHH,2008-10-11 13:00,ZHHH 111300Z AUTO 02004KT 1SM 16/16 A3024 RMK T01600160 IEM_DS3505
ZHHH,2008-10-11 14:00,ZHHH 111400Z AUTO 01004KT 1 1/4SM 16/16 A3024 RMK T01600160 IEM_DS3505
ZHHH,2008-10-11 15:00,ZHHH 111500Z AUTO 34002KT 6SM 16/14 A3024 RMK SLP243 T01650143 52001 IEM_DS3505
ZHHH,2008-10-11 16:00,ZHHH 111600Z AUTO 00000KT 1 1/2SM 15/15 A3024 RMK T01500150 IEM_DS3505
ZHHH,2008-10-11 17:00,ZHHH 111700Z AUTO 1 1/4SM 15/15 A3024 RMK T01500150 IEM_DS3505
ZHHH,2008-10-11 18:00,ZHHH 111800Z AUTO 32002KT 6SM 16/14 A3024 RMK 60000 SLP236 T01570142 57007 IEM_DS3505
ZHHH,2008-10-11 19:00,ZHHH 111900Z AUTO 00000KT 1/2SM 15/15 A3021 RMK T01500150 IEM_DS3505
ZHHH,2008-10-11 20:00,ZHHH 112000Z AUTO 1/2SM 14/14 A3021 RMK T01400140 IEM_DS3505
ZHHH,2008-10-11 21:00,ZHHH 112100Z AUTO 34002KT 4SM 15/13 A3021 RMK 70027 SLP228 T01470134 57008 IEM_DS3505
ZHHH,2008-10-11 22:00,ZHHH 112200Z AUTO 1/2SM 14/14 A3021 RMK T01400140 IEM_DS3505
ZHHH,2008-10-11 23:00,ZHHH 112300Z AUTO 1 1/4SM 14/14 A3021 RMK T01400140 IEM_DS3505
ZHHH,2008-10-12 00:00,ZHHH 120000Z AUTO 07002KT 11SM 16/12 A3021 RMK 70015 SLP231 T01640118 52003 IEM_DS3505
ZHHH,2008-10-12 01:00,ZHHH 120100Z AUTO 05010KT 3SM 17/13 A3024 RMK T01700130 IEM_DS3505
ZHHH,2008-10-12 02:00,ZHHH 120200Z AUTO 06010KT 3SM 19/13 A3024 RMK T01900130 IEM_DS3505
ZHHH,2008-10-12 03:00,ZHHH 120300Z AUTO 11004KT 16SM 20/12 A3021 RMK SLP234 T02010118 52003 IEM_DS3505
ZHHH,2008-10-12 04:00,ZHHH 120400Z AUTO 13006KT 6SM 22/12 A3021 RMK T02200120 IEM_DS3505
ZHHH,2008-10-12 05:00,ZHHH 120500Z AUTO 6SM 21/11 A3018 RMK T02100110 IEM_DS3505
ZHHH,2008-10-12 06:00,ZHHH 120600Z AUTO 09002KT 14SM 22/10 A3015 RMK SLP206 T02230098 57028 IEM_DS3505
ZHHH,2008-10-12 07:00,ZHHH 120700Z AUTO 6SM 23/11 A3012 RMK T02300110 IEM_DS3505
ZHHH,2008-10-12 08:00,ZHHH 120800Z AUTO 6SM 23/12 A3012 RMK T02300120 IEM_DS3505
ZHHH,2008-10-12 09:00,ZHHH 120900Z AUTO 27004KT 11SM 22/11 A3009 RMK SLP195 T02160107 57011 IEM_DS3505
ZHHH,2008-10-12 10:00,ZHHH 121000Z AUTO 6SM 20/12 A3012 RMK T02000120 IEM_DS3505
ZHHH,2008-10-12 11:00,ZHHH 121100Z AUTO 00000KT 6SM 19/13 A3012 RMK T01900130 IEM_DS3505
ZHHH,2008-10-12 12:00,ZHHH 121200Z AUTO 00000KT 11SM 17/14 A3012 RMK SLP201 T01660137 52006 IEM_DS3505
ZHHH,2008-10-12 13:00,ZHHH 121300Z AUTO 00000KT 6SM 18/15 A3012 RMK T01800150 IEM_DS3505
ZHHH,2008-10-12 14:00,ZHHH 121400Z AUTO 00000KT 6SM 18/15 A3012 RMK T01800150 IEM_DS3505
ZHHH,2008-10-12 15:00,ZHHH 121500Z AUTO 27002KT 9SM 17/14 A3012 RMK SLP204 T01660139 52003 IEM_DS3505
ZHHH,2008-10-12 16:00,ZHHH 121600Z AUTO 6SM 17/14 A3012 RMK T01700140 IEM_DS3505
ZHHH,2008-10-12 17:00,ZHHH 121700Z AUTO 00000KT 6SM 16/14 A3012 RMK T01600140 IEM_DS3505
ZHHH,2008-10-12 18:00,ZHHH 121800Z AUTO 00000KT 9SM 15/13 A3012 RMK SLP199 T01540131 57005 IEM_DS3505
ZHHH,2008-10-12 19:00,ZHHH 121900Z AUTO 00000KT 6SM 16/13 A3012 RMK T01600130 IEM_DS3505
ZHHH,2008-10-12 20:00,ZHHH 122000Z AUTO 00000KT 6SM 16/13 A3009 RMK T01600130 IEM_DS3505
ZHHH,2008-10-12 21:00,ZHHH 122100Z AUTO 00000KT 9SM 14/13 A3009 RMK SLP191 T01450132 57008 IEM_DS3505
ZHHH,2008-10-12 22:00,ZHHH 122200Z AUTO 00000KT 6SM 15/13 A3009 RMK T01500130 IEM_DS3505
ZHHH,2008-10-12 23:00,ZHHH 122300Z AUTO 00000KT 2 1/2SM 15/14 A3012 RMK T01500140 IEM_DS3505
ZHHH,2008-10-13 00:00,ZHHH 130000Z AUTO 16002KT 12SM 18/12 A3012 RMK SLP203 T01760125 52012 IEM_DS3505
ZHHH,2008-10-13 01:00,ZHHH 130100Z AUTO 00000KT 2SM 19/15 A3015 RMK T01900150 IEM_DS3505
ZHHH,2008-10-13 02:00,ZHHH 130200Z AUTO 25004KT 3SM 22/13 A3015 RMK T02200130 IEM_DS3505
ZHHH,2008-10-13 03:00,ZHHH 130300Z AUTO 27004KT 16SM 23/11 A3012 RMK SLP203 T02280106 54000 IEM_DS3505
ZHHH,2008-10-13 04:00,ZHHH 130400Z AUTO 25004KT 6SM 23/14 A3009 RMK T02300140 IEM_DS3505
ZHHH,2008-10-13 05:00,ZHHH 130500Z AUTO 23006KT 6SM 24/14 A3006 RMK T02400140 IEM_DS3505
ZHHH,2008-10-13 06:00,ZHHH 130600Z AUTO 18004KT 14SM 24/10 A3006 RMK SLP177 T02450104 57026 IEM_DS3505
ZHHH,2008-10-13 07:00,ZHHH 130700Z AUTO 27004KT 6SM 25/14 A3003 RMK T02500140 IEM_DS3505
ZHHH,2008-10-13 08:00,ZHHH 130800Z AUTO 29004KT 6SM 25/13 A3003 RMK T02500130 IEM_DS3505
ZHHH,2008-10-13 09:00,ZHHH 130900Z AUTO 27004KT 11SM 24/12 A3006 RMK SLP175 T02400117 57002 IEM_DS3505
ZHHH,2008-10-13 10:00,ZHHH 131000Z AUTO 28002KT 6SM 22/15 A3006 RMK T02200150 IEM_DS3505
ZHHH,2008-10-13 11:00,ZHHH 131100Z AUTO 22006KT 6SM 21/15 A3006 RMK T02100150 IEM_DS3505
ZHHH,2008-10-13 12:00,ZHHH 131200Z AUTO 25002KT 11SM 20/13 A3009 RMK SLP189 T02030130 52014 IEM_DS3505
ZHHH,2008-10-13 13:00,ZHHH 131300Z AUTO 20004KT 6SM 20/16 A3009 RMK T02000160 IEM_DS3505
ZHHH,2008-10-13 14:00,ZHHH 131400Z AUTO 21004KT 6SM 19/16 A3012 RMK T01900160 IEM_DS3505
ZHHH,2008-10-13 15:00,ZHHH 131500Z AUTO 20002KT 9SM 17/14 A3012 RMK SLP199 T01730136 52010 IEM_DS3505
ZHHH,2008-10-13 16:00,ZHHH 131600Z AUTO 20004KT 6SM 18/16 A3012 RMK T01800160 IEM_DS3505
ZHHH,2008-10-13 17:00,ZHHH 131700Z AUTO 00000KT 6SM 17/15 A3012 RMK T01700150 IEM_DS3505
ZHHH,2008-10-13 18:00,ZHHH 131800Z AUTO 18002KT 7SM 16/14 A3012 RMK SLP201 T01600144 52002 IEM_DS3505
ZHHH,2008-10-13 19:00,ZHHH 131900Z AUTO 00000KT 1SM 16/15 A3012 RMK T01600150 IEM_DS3505
ZHHH,2008-10-13 20:00,ZHHH 132000Z AUTO 00000KT 1SM 16/15 A3012 RMK T01600150 IEM_DS3505
ZHHH,2008-10-13 21:00,ZHHH 132100Z AUTO 09002KT 6SM 15/14 A3012 RMK SLP200 T01510140 57001 IEM_DS3505
ZHHH,2008-10-13 22:00,ZHHH 132200Z AUTO 11006KT 1SM 15/15 A3012 RMK T01500150 IEM_DS3505
ZHHH,2008-10-13 23:00,ZHHH 132300Z AUTO 08004KT 1/2SM 15/15 A3015 RMK T01500150 IEM_DS3505
ZHHH,2008-10-14 00:00,ZHHH 140000Z AUTO 07002KT 6SM 18/16 A3018 RMK SLP216 T01760161 52016 IEM_DS3505
ZHHH,2008-10-14 01:00,ZHHH 140100Z AUTO 11006KT 1/4SM 16/16 A3018 RMK T01600160 IEM_DS3505
ZHHH,2008-10-14 02:00,ZHHH 140200Z AUTO 08004KT 1SM 19/19 A3018 RMK T01900190 IEM_DS3505
ZHHH,2008-10-14 03:00,ZHHH 140300Z AUTO 11002KT 9SM 24/14 A3018 RMK SLP221 T02380145 52005 IEM_DS3505
ZHHH,2008-10-14 04:00,ZHHH 140400Z AUTO 31004KT 3SM 25/17 A3015 RMK T02500170 IEM_DS3505
ZHHH,2008-10-14 05:00,ZHHH 140500Z AUTO 32004KT 3SM 27/16 A3015 RMK T02700160 IEM_DS3505
ZHHH,2008-10-14 06:00,ZHHH 140600Z AUTO 11004KT 9SM 26/12 A3012 RMK SLP199 T02650122 57022 IEM_DS3505
ZHHH,2008-10-14 07:00,ZHHH 140700Z AUTO 26004KT 1 1/2SM 27/18 A3009 RMK T02700180 IEM_DS3505
ZHHH,2008-10-14 08:00,ZHHH 140800Z AUTO 2SM 27/17 A3009 RMK T02700170 IEM_DS3505
ZHHH,2008-10-14 09:00,ZHHH 140900Z AUTO 27002KT 9SM 26/13 A3009 RMK SLP192 T02610126 57007 IEM_DS3505
ZHHH,2008-10-14 10:00,ZHHH 141000Z AUTO 00000KT 2SM 23/17 A3009 RMK T02300170 IEM_DS3505
ZHHH,2008-10-14 11:00,ZHHH 141100Z AUTO 00000KT 2SM 22/17 A3012 RMK T02200170 IEM_DS3505
ZHHH,2008-10-14 12:00,ZHHH 141200Z AUTO 00000KT 9SM 19/17 A3012 RMK SLP201 T01870169 52009 IEM_DS3505
ZHHH,2008-10-14 13:00,ZHHH 141300Z AUTO 07004KT 2SM 21/17 A3012 RMK T02100170 IEM_DS3505
ZHHH,2008-10-14 14:00,ZHHH 141400Z AUTO 07004KT 2SM 21/17 A3015 RMK T02100170 IEM_DS3505
ZHHH,2008-10-14 15:00,ZHHH 141500Z AUTO 00000KT 6SM 18/16 A3015 RMK SLP209 T01750164 52008 IEM_DS3505
ZHHH,2008-10-14 16:00,ZHHH 141600Z AUTO 08004KT 2SM 20/17 A3015 RMK T02000170 IEM_DS3505
ZHHH,2008-10-14 17:00,ZHHH 141700Z AUTO 07006KT 1 1/4SM 18/17 A3015 RMK T01800170 IEM_DS3505
ZHHH,2008-10-14 18:00,ZHHH 141800Z AUTO 09002KT 4SM 17/16 A3015 RMK SLP208 T01670157 57001 IEM_DS3505
ZHHH,2008-10-14 19:00,ZHHH 141900Z AUTO 08004KT 1 1/4SM 17/16 A3015 RMK T01700160 IEM_DS3505
ZHHH,2008-10-14 20:00,ZHHH 142000Z AUTO 07004KT 1 1/4SM 16/15 A3015 RMK T01600150 IEM_DS3505
ZHHH,2008-10-14 21:00,ZHHH 142100Z AUTO 07002KT 5SM 17/16 A3015 RMK SLP206 T01730160 57002 IEM_DS3505
ZHHH,2008-10-14 22:00,ZHHH 142200Z AUTO 08008KT 1SM 15/15 A3015 RMK T01500150 IEM_DS3505
ZHHH,2008-10-14 23:00,ZHHH 142300Z AUTO 08006KT 1SM 15/15 A3015 RMK T01500150 IEM_DS3505
ZHHH,2008-10-15 00:00,ZHHH 150000Z AUTO 07002KT 7SM 19/16 A3018 RMK SLP217 T01860160 52011 IEM_DS3505
ZHHH,2008-10-15 01:00,ZHHH 150100Z AUTO 08006KT 1 1/2SM 21/18 A3018 RMK T02100180 IEM_DS3505
ZHHH,2008-10-15 02:00,ZHHH 150200Z AUTO 10008KT 2 1/2SM 23/18 A3018 RMK T02300180 IEM_DS3505
ZHHH,2008-10-15 03:00,ZHHH 150300Z AUTO 09004KT 9SM 26/14 A3018 RMK SLP214 T02570142 57003 IEM_DS3505
ZHHH,2008-10-15 04:00,ZHHH 150400Z AUTO 12006KT 5SM 26/14 A3015 RMK T02600140 IEM_DS3505
ZHHH,2008-10-15 05:00,ZHHH 150500Z AUTO 13006KT 6SM 27/15 A3012 RMK T02700150 IEM_DS3505
ZHHH,2008-10-15 06:00,ZHHH 150600Z AUTO 07004KT 12SM 28/11 A3009 RMK SLP188 T02810108 57025 IEM_DS3505
ZHHH,2008-10-15 07:00,ZHHH 150700Z AUTO 10006KT 6SM 27/13 A3006 RMK T02700130 IEM_DS3505
ZHHH,2008-10-15 08:00,ZHHH 150800Z AUTO 10008KT 6SM 27/14 A3006 RMK T02700140 IEM_DS3505
ZHHH,2008-10-15 09:00,ZHHH 150900Z AUTO 09002KT 12SM 26/10 A3006 RMK SLP180 T02590105 57009 IEM_DS3505
ZHHH,2008-10-15 10:00,ZHHH 151000Z AUTO 10006KT 6SM 24/14 A3006 RMK T02400140 IEM_DS3505
ZHHH,2008-10-15 11:00,ZHHH 151100Z AUTO 00000KT 6SM 24/13 A3009 RMK T02400130 IEM_DS3505
ZHHH,2008-10-15 12:00,ZHHH 151200Z AUTO 32002KT 11SM 21/16 A3009 RMK SLP188 T02080160 52008 IEM_DS3505
ZHHH,2008-10-15 13:00,ZHHH 151300Z AUTO 00000KT 6SM 22/14 A3009 RMK T02200140 IEM_DS3505
ZHHH,2008-10-15 14:00,ZHHH 151400Z AUTO 3SM 21/16 A3012 RMK T02100160 IEM_DS3505
ZHHH,2008-10-15 15:00,ZHHH 151500Z AUTO 00000KT 9SM 19/16 A3012 RMK SLP197 T01890163 52009 IEM_DS3505
ZHHH,2008-10-15 16:00,ZHHH 151600Z AUTO 2 1/2SM 20/16 A3009 RMK T02000160 IEM_DS3505
ZHHH,2008-10-15 17:00,ZHHH 151700Z AUTO 08002KT 2 1/2SM 19/16 A3009 RMK T01900160 IEM_DS3505
ZHHH,2008-10-15 18:00,ZHHH 151800Z AUTO 04002KT 11SM 18/16 A3009 RMK SLP187 T01770155 57009 IEM_DS3505
ZHHH,2008-10-15 19:00,ZHHH 151900Z AUTO 08004KT 3SM 18/15 A3009 RMK T01800150 IEM_DS3505
ZHHH,2008-10-15 20:00,ZHHH 152000Z AUTO 07006KT 3SM 18/15 A3006 RMK T01800150 IEM_DS3505
ZHHH,2008-10-15 21:00,ZHHH 152100Z AUTO 00000KT 9SM 17/15 A3006 RMK SLP181 T01740150 57007 IEM_DS3505
ZHHH,2008-10-15 22:00,ZHHH 152200Z AUTO 10006KT 3SM 17/15 A3006 RMK T01700150 IEM_DS3505
ZHHH,2008-10-15 23:00,ZHHH 152300Z AUTO 12008KT 3SM 17/15 A3006 RMK T01700150 IEM_DS3505
ZHHH,2008-10-16 00:00,ZHHH 160000Z AUTO 09002KT 9SM 20/16 A3009 RMK SLP191 T02030157 52010 IEM_DS3505
ZHHH,2008-10-16 01:00,ZHHH 160100Z AUTO 06004KT 4SM 21/17 A3012 RMK T02100170 IEM_DS3505
ZHHH,2008-10-16 02:00,ZHHH 160200Z AUTO 6SM 23/18 A3012 RMK T02300180 IEM_DS3505
ZHHH,2008-10-16 03:00,ZHHH 160300Z AUTO 29002KT 9SM 25/16 A3012 RMK SLP195 T02510160 52004 IEM_DS3505
ZHHH,2008-10-16 04:00,ZHHH 160400Z AUTO 30006KT 6SM 26/17 A3009 RMK T02600170 IEM_DS3505
ZHHH,2008-10-16 05:00,ZHHH 160500Z AUTO 26004KT 6SM 27/17 A3006 RMK T02700170 IEM_DS3505
ZHHH,2008-10-16 06:00,ZHHH 160600Z AUTO 02004KT 9SM 28/11 A3003 RMK SLP172 T02790106 57022 IEM_DS3505
ZHHH,2008-10-16 07:00,ZHHH 160700Z AUTO 6SM 29/16 A3003 RMK T02900160 IEM_DS3505
ZHHH,2008-10-16 08:00,ZHHH 160800Z AUTO 6SM 28/16 A3003 RMK T02800160 IEM_DS3505
ZHHH,2008-10-16 09:00,ZHHH 160900Z AUTO 09002KT 7SM 27/12 A3003 RMK SLP167 T02730121 57005 IEM_DS3505
ZHHH,2008-10-16 10:00,ZHHH 161000Z AUTO 6SM 25/15 A3003 RMK T02500150 IEM_DS3505
ZHHH,2008-10-16 11:00,ZHHH 161100Z AUTO 6SM 24/15 A3003 RMK T02400150 IEM_DS3505
ZHHH,2008-10-16 12:00,ZHHH 161200Z AUTO 00000KT 9SM 20/17 A3006 RMK SLP178 T01970169 52010 IEM_DS3505
ZHHH,2008-10-16 13:00,ZHHH 161300Z AUTO 05008KT 6SM 22/16 A3006 RMK T02200160 IEM_DS3505
ZHHH,2008-10-16 14:00,ZHHH 161400Z AUTO 05006KT 6SM 21/16 A3009 RMK T02100160 IEM_DS3505
ZHHH,2008-10-16 15:00,ZHHH 161500Z AUTO 00000KT 9SM 19/15 A3009 RMK SLP185 T01920153 52008 IEM_DS3505
ZHHH,2008-10-16 16:00,ZHHH 161600Z AUTO 06006KT 4SM 20/16 A3009 RMK T02000160 IEM_DS3505
ZHHH,2008-10-16 17:00,ZHHH 161700Z AUTO 32002KT 3SM 19/16 A3009 RMK T01900160 IEM_DS3505
ZHHH,2008-10-16 18:00,ZHHH 161800Z AUTO 27002KT 9SM 18/15 A3009 RMK SLP186 T01750150 52001 IEM_DS3505
ZHHH,2008-10-16 19:00,ZHHH 161900Z AUTO 34004KT 3SM 17/16 A3009 RMK T01700160 IEM_DS3505
ZHHH,2008-10-16 20:00,ZHHH 162000Z AUTO 33002KT 2SM 17/16 A3006 RMK T01700160 IEM_DS3505
ZHHH,2008-10-16 21:00,ZHHH 162100Z AUTO 27002KT 9SM 18/15 A3006 RMK SLP184 T01750153 57002 IEM_DS3505
ZHHH,2008-10-16 22:00,ZHHH 162200Z AUTO 36004KT 1 1/4SM 16/15 A3009 RMK T01600150 IEM_DS3505
ZHHH,2008-10-16 23:00,ZHHH 162300Z AUTO 36002KT 1SM 16/15 A3009 RMK T01600150 IEM_DS3505
ZHHH,2008-10-17 00:00,ZHHH 170000Z AUTO 32002KT 7SM 19/16 A3012 RMK SLP198 T01860155 52013 IEM_DS3505
ZHHH,2008-10-17 01:00,ZHHH 170100Z AUTO 1SM 20/18 A3012 RMK T02000180 IEM_DS3505
ZHHH,2008-10-17 02:00,ZHHH 170200Z AUTO 1 1/4SM 23/19 A3012 RMK T02300190 IEM_DS3505
ZHHH,2008-10-17 03:00,ZHHH 170300Z AUTO 04002KT 9SM 24/15 A3012 RMK SLP197 T02420146 57001 IEM_DS3505
ZHHH,2008-10-17 04:00,ZHHH 170400Z AUTO 28004KT 2SM 26/18 A3009 RMK T02600180 IEM_DS3505
ZHHH,2008-10-17 05:00,ZHHH 170500Z AUTO 27004KT 3SM 27/18 A3006 RMK T02700180 IEM_DS3505
ZHHH,2008-10-17 06:00,ZHHH 170600Z AUTO 02004KT 11SM 27/12 A3006 RMK SLP175 T02720124 57021 IEM_DS3505
ZHHH,2008-10-17 07:00,ZHHH 170700Z AUTO 27004KT 6SM 28/18 A3003 RMK T02800180 IEM_DS3505
ZHHH,2008-10-17 08:00,ZHHH 170800Z AUTO 27002KT 6SM 28/17 A3003 RMK T02800170 IEM_DS3505
ZHHH,2008-10-17 09:00,ZHHH 170900Z AUTO 00000KT 11SM 27/13 A3003 RMK SLP173 T02680132 57002 IEM_DS3505
ZHHH,2008-10-17 10:00,ZHHH 171000Z AUTO 23002KT 6SM 24/17 A3006 RMK T02400170 IEM_DS3505
ZHHH,2008-10-17 11:00,ZHHH 171100Z AUTO 02006KT 4SM 23/18 A3006 RMK T02300180 IEM_DS3505
ZHHH,2008-10-17 12:00,ZHHH 171200Z AUTO 36002KT 9SM 22/16 A3009 RMK SLP185 T02210157 52011 IEM_DS3505
ZHHH,2008-10-17 13:00,ZHHH 171300Z AUTO 06008KT 4SM 21/17 A3009 RMK T02100170 IEM_DS3505
ZHHH,2008-10-17 14:00,ZHHH 171400Z AUTO 05006KT 6SM 20/17 A3009 RMK T02000170 IEM_DS3505
ZHHH,2008-10-17 15:00,ZHHH 171500Z AUTO 04002KT 11SM 20/16 A3009 RMK SLP190 T02040158 52006 IEM_DS3505
ZHHH,2008-10-17 16:00,ZHHH 171600Z AUTO 00000KT 6SM 19/17 A3009 RMK T01900170 IEM_DS3505
ZHHH,2008-10-17 17:00,ZHHH 171700Z AUTO 06002KT 6SM 19/17 A3009 RMK T01900170 IEM_DS3505
ZHHH,2008-10-17 18:00,ZHHH 171800Z AUTO 02002KT 11SM 19/16 A3009 RMK SLP191 T01870158 52001 IEM_DS3505
ZHHH,2008-10-17 19:00,ZHHH 171900Z AUTO 36002KT 2 1/2SM 17/16 A3009 RMK T01700160 IEM_DS3505
ZHHH,2008-10-17 20:00,ZHHH 172000Z AUTO 01002KT 2SM 17/17 A3009 RMK T01700170 IEM_DS3505
ZHHH,2008-10-17 21:00,ZHHH 172100Z AUTO 34002KT 6SM 18/16 A3009 RMK SLP194 T01780160 52003 IEM_DS3505
ZHHH,2008-10-17 22:00,ZHHH 172200Z AUTO 01002KT 1SM 16/16 A3012 RMK T01600160 IEM_DS3505
ZHHH,2008-10-17 23:00,ZHHH 172300Z AUTO 36002KT 1SM 16/16 A3012 RMK T01600160 IEM_DS3505
ZHHH,2008-10-18 00:00,ZHHH 180000Z AUTO 27002KT 7SM 18/16 A3015 RMK SLP211 T01810159 52016 IEM_DS3505
ZHHH,2008-10-18 01:00,ZHHH 180100Z AUTO 1 1/4SM 19/18 A3015 RMK T01900180 IEM_DS3505
ZHHH,2008-10-18 02:00,ZHHH 180200Z AUTO 30004KT 2SM 22/19 A3015 RMK T02200190 IEM_DS3505
ZHHH,2008-10-18 03:00,ZHHH 180300Z AUTO 36002KT 9SM 24/16 A3015 RMK SLP207 T02350161 57004 IEM_DS3505
ZHHH,2008-10-18 04:00,ZHHH 180400Z AUTO 31004KT 2SM 25/19 A3012 RMK T02500190 IEM_DS3505
ZHHH,2008-10-18 05:00,ZHHH 180500Z AUTO 27004KT 3SM 26/19 A3009 RMK T02600190 IEM_DS3505
ZHHH,2008-10-18 06:00,ZHHH 180600Z AUTO 32002KT 9SM 27/15 A3009 RMK SLP184 T02680152 57022 IEM_DS3505
ZHHH,2008-10-18 07:00,ZHHH 180700Z AUTO 28004KT 4SM 28/17 A3006 RMK T02800170 IEM_DS3505
ZHHH,2008-10-18 08:00,ZHHH 180800Z AUTO 6SM 28/16 A3006 RMK T02800160 IEM_DS3505
ZHHH,2008-10-18 09:00,ZHHH 180900Z AUTO 36002KT 9SM 26/12 A3006 RMK SLP182 T02640125 57002 IEM_DS3505
ZHHH,2008-10-18 10:00,ZHHH 181000Z AUTO 4SM 25/17 A3006 RMK T02500170 IEM_DS3505
ZHHH,2008-10-18 11:00,ZHHH 181100Z AUTO 00000KT 4SM 23/18 A3009 RMK T02300180 IEM_DS3505
ZHHH,2008-10-18 12:00,ZHHH 181200Z AUTO 00000KT 7SM 20/18 A3012 RMK SLP193 T02000176 52010 IEM_DS3505
ZHHH,2008-10-18 13:00,ZHHH 181300Z AUTO 04004KT 4SM 22/17 A3012 RMK T02200170 IEM_DS3505
ZHHH,2008-10-18 14:00,ZHHH 181400Z AUTO 03004KT 3SM 20/17 A3012 RMK T02000170 IEM_DS3505
ZHHH,2008-10-18 15:00,ZHHH 181500Z AUTO 04002KT 7SM 20/16 A3012 RMK SLP200 T02020156 52007 IEM_DS3505
ZHHH,2008-10-18 16:00,ZHHH 181600Z AUTO 05004KT 2 1/2SM 20/17 A3012 RMK T02000170 IEM_DS3505
ZHHH,2008-10-18 17:00,ZHHH 181700Z AUTO 30002KT 2SM 19/17 A3012 RMK T01900170 IEM_DS3505
ZHHH,2008-10-18 18:00,ZHHH 181800Z AUTO 00000KT 9SM 18/16 A3012 RMK SLP195 T01810161 57004 IEM_DS3505
ZHHH,2008-10-18 19:00,ZHHH 181900Z AUTO 32004KT 1SM 18/17 A3009 RMK T01800170 IEM_DS3505
ZHHH,2008-10-18 20:00,ZHHH 182000Z AUTO 01002KT 1SM 18/17 A3009 RMK T01800170 IEM_DS3505
ZHHH,2008-10-18 21:00,ZHHH 182100Z AUTO 29002KT 7SM 18/16 A3009 RMK SLP188 T01810161 57007 IEM_DS3505
ZHHH,2008-10-18 22:00,ZHHH 182200Z AUTO 34002KT 1SM 17/16 A3009 RMK T01700160 IEM_DS3505
ZHHH,2008-10-18 23:00,ZHHH 182300Z AUTO 34002KT 1SM 17/17 A3012 RMK T01700170 IEM_DS3505
ZHHH,2008-10-19 00:00,ZHHH 190000Z AUTO 02002KT 9SM 19/16 A3012 RMK SLP201 T01910163 52012 IEM_DS3505
ZHHH,2008-10-19 01:00,ZHHH 190100Z AUTO 1 1/2SM 21/17 A3012 RMK T02100170 IEM_DS3505
ZHHH,2008-10-19 02:00,ZHHH 190200Z AUTO 1 1/2SM 23/17 A3012 RMK T02300170 IEM_DS3505
ZHHH,2008-10-19 03:00,ZHHH 190300Z AUTO 02004KT 11SM 24/15 A3012 RMK SLP199 T02450152 57002 IEM_DS3505
ZHHH,2008-10-19 04:00,ZHHH 190400Z AUTO 03006KT 2 1/2SM 26/18 A3009 RMK T02600180 IEM_DS3505
ZHHH,2008-10-19 05:00,ZHHH 190500Z AUTO 2 1/2SM 28/18 A3006 RMK T02800180 IEM_DS3505
ZHHH,2008-10-19 06:00,ZHHH 190600Z AUTO 02002KT 12SM 28/15 A3003 RMK SLP167 T02770154 57031 IEM_DS3505
ZHHH,2008-10-19 07:00,ZHHH 190700Z AUTO 4SM 28/17 A3000 RMK T02800170 IEM_DS3505
ZHHH,2008-10-19 08:00,ZHHH 190800Z AUTO 4SM 28/17 A3000 RMK T02800170 IEM_DS3505
ZHHH,2008-10-19 09:00,ZHHH 190900Z AUTO 00000KT 9SM 27/14 A3000 RMK SLP162 T02670145 57005 IEM_DS3505
ZHHH,2008-10-19 10:00,ZHHH 191000Z AUTO 00000KT 2 1/2SM 25/18 A3000 RMK T02500180 IEM_DS3505
ZHHH,2008-10-19 11:00,ZHHH 191100Z AUTO 05002KT 2 1/2SM 24/17 A3003 RMK T02400170 IEM_DS3505
ZHHH,2008-10-19 12:00,ZHHH 191200Z AUTO 00000KT 9SM 21/18 A3003 RMK SLP171 T02070177 52008 IEM_DS3505
ZHHH,2008-10-19 13:00,ZHHH 191300Z AUTO 06006KT 2SM 22/18 A3003 RMK T02200180 IEM_DS3505
ZHHH,2008-10-19 14:00,ZHHH 191400Z AUTO 05006KT 2SM 21/18 A3006 RMK T02100180 IEM_DS3505
ZHHH,2008-10-19 15:00,ZHHH 191500Z AUTO 09002KT 9SM 21/16 A3003 RMK SLP174 T02120162 52004 IEM_DS3505
ZHHH,2008-10-19 16:00,ZHHH 191600Z AUTO 07006KT 2SM 20/18 A3003 RMK T02000180 IEM_DS3505
ZHHH,2008-10-19 17:00,ZHHH 191700Z AUTO 1 1/2SM 20/18 A3003 RMK T02000180 IEM_DS3505
ZHHH,2008-10-19 18:00,ZHHH 191800Z AUTO 04002KT 7SM 22/16 A3003 RMK SLP167 T02150162 57007 IEM_DS3505
ZHHH,2008-10-19 19:00,ZHHH 191900Z AUTO 02002KT 1 1/2SM 20/18 A3003 RMK T02000180 IEM_DS3505
ZHHH,2008-10-19 20:00,ZHHH 192000Z AUTO 00000KT 1 1/2SM 20/18 A3000 RMK T02000180 IEM_DS3505
ZHHH,2008-10-19 21:00,ZHHH 192100Z AUTO 04002KT 7SM 21/17 A3000 RMK SLP161 T02080168 57006 IEM_DS3505
ZHHH,2008-10-19 22:00,ZHHH 192200Z AUTO 09004KT 1 1/2SM 20/18 A3000 RMK T02000180 IEM_DS3505
ZHHH,2008-10-19 23:00,ZHHH 192300Z AUTO 1 1/4SM 19/18 A3003 RMK T01900180 IEM_DS3505
ZHHH,2008-10-20 00:00,ZHHH 200000Z AUTO 11002KT 9SM 22/17 A3003 RMK SLP168 T02170173 52006 IEM_DS3505
ZHHH,2008-10-20 01:00,ZHHH 200100Z AUTO 09008KT 1 1/4SM 22/19 A3003 RMK T02200190 IEM_DS3505
ZHHH,2008-10-20 02:00,ZHHH 200200Z AUTO 09006KT 1 1/2SM 24/20 A3003 RMK T02400200 IEM_DS3505
ZHHH,2008-10-20 03:00,ZHHH 200300Z AUTO 07002KT 9SM 25/17 A3003 RMK SLP164 T02520174 57003 IEM_DS3505
ZHHH,2008-10-20 04:00,ZHHH 200400Z AUTO 08004KT 1 1/2SM 26/21 A3000 RMK T02600210 IEM_DS3505
ZHHH,2008-10-20 05:00,ZHHH 200500Z AUTO 11006KT 1 1/4SM 26/21 A2997 RMK T02600210 IEM_DS3505
ZHHH,2008-10-20 06:00,ZHHH 200600Z AUTO 11004KT 9SM 28/18 A2994 RMK SLP138 T02810179 57026 IEM_DS3505
ZHHH,2008-10-20 07:00,ZHHH 200700Z AUTO 11006KT 2 1/2SM 27/21 A2991 RMK T02700210 IEM_DS3505
ZHHH,2008-10-20 08:00,ZHHH 200800Z AUTO 13006KT 2SM 27/21 A2991 RMK T02700210 IEM_DS3505
ZHHH,2008-10-20 09:00,ZHHH 200900Z AUTO 02002KT 9SM 27/18 A2991 RMK SLP127 T02740184 57011 IEM_DS3505
ZHHH,2008-10-20 10:00,ZHHH 201000Z AUTO 07006KT 1 1/2SM 25/21 A2991 RMK T02500210 IEM_DS3505
ZHHH,2008-10-20 11:00,ZHHH 201100Z AUTO 08006KT 1 1/4SM 24/21 A2991 RMK T02400210 IEM_DS3505
ZHHH,2008-10-20 12:00,ZHHH 201200Z AUTO 00000KT 9SM 24/19 A2991 RMK SLP130 T02400191 52003 IEM_DS3505
ZHHH,2008-10-20 13:00,ZHHH 201300Z AUTO 1 1/4SM 23/20 A2991 RMK T02300200 IEM_DS3505
ZHHH,2008-10-20 14:00,ZHHH 201400Z AUTO 08008KT 1 1/4SM 22/20 A2991 RMK T02200200 IEM_DS3505
ZHHH,2008-10-20 15:00,ZHHH 201500Z AUTO 02002KT 9SM 24/19 A2991 RMK SLP129 T02350188 57001 IEM_DS3505
ZHHH,2008-10-20 16:00,ZHHH 201600Z AUTO 08008KT 1 1/4SM 22/20 A2988 RMK T02200200 IEM_DS3505
ZHHH,2008-10-20 17:00,ZHHH 201700Z AUTO 10006KT 1 1/4SM 22/20 A2988 RMK T02200200 IEM_DS3505
ZHHH,2008-10-20 18:00,ZHHH 201800Z AUTO 00000KT 7SM 23/19 A2988 RMK SLP117 T02260190 57012 IEM_DS3505
ZHHH,2008-10-20 19:00,ZHHH 201900Z AUTO 32006KT 1SM 22/21 A2988 RMK T02200210 IEM_DS3505
ZHHH,2008-10-20 20:00,ZHHH 202000Z AUTO 35008KT 1SM 20/20 A2988 RMK T02000200 IEM_DS3505
ZHHH,2008-10-20 21:00,ZHHH 202100Z AUTO 34004KT 4SM 21/19 A2988 RMK SLP119 T02130192 52002 IEM_DS3505
ZHHH,2008-10-20 22:00,ZHHH 202200Z AUTO 33006KT 1SM 20/20 A2988 RMK T02000200 IEM_DS3505
ZHHH,2008-10-20 23:00,ZHHH 202300Z AUTO 33008KT 1 1/4SM 20/20 A2991 RMK T02000200 IEM_DS3505
ZHHH,2008-10-21 00:00,ZHHH 210000Z AUTO 32004KT 7SM 21/18 A2991 RMK 60000 70000 SLP132 T02070185 52013 IEM_DS3505
ZHHH,2008-10-21 01:00,ZHHH 210100Z AUTO 33008KT 2 1/2SM 20/20 A2994 RMK T02000200 IEM_DS3505
ZHHH,2008-10-21 02:00,ZHHH 210200Z AUTO 36004KT 4SM 20/20 A2994 RMK T02000200 IEM_DS3505
ZHHH,2008-10-21 03:00,ZHHH 210300Z AUTO 27004KT 7SM 20/18 A2994 RMK SLP138 T02050184 52006 IEM_DS3505
ZHHH,2008-10-21 04:00,ZHHH 210400Z AUTO 32006KT 4SM 20/20 A2991 RMK T02000200 IEM_DS3505
ZHHH,2008-10-21 05:00,ZHHH 210500Z AUTO 32006KT 2SM 20/20 A2991 RMK T02000200 IEM_DS3505
ZHHH,2008-10-21 06:00,ZHHH 210600Z AUTO 27004KT 9SM 21/17 A2988 RMK 60000 SLP120 T02090169 57018 IEM_DS3505
ZHHH,2008-10-21 07:00,ZHHH 210700Z AUTO 32006KT 1 1/2SM 21/19 A2988 RMK T02100190 IEM_DS3505
ZHHH,2008-10-21 08:00,ZHHH 210800Z AUTO 32004KT 1 1/2SM 21/19 A2988 RMK T02100190 IEM_DS3505
ZHHH,2008-10-21 09:00,ZHHH 210900Z AUTO 25002KT 9SM 22/17 A2991 RMK SLP124 T02150173 52004 IEM_DS3505
ZHHH,2008-10-21 10:00,ZHHH 211000Z AUTO 2SM 21/20 A2991 RMK T02100200 IEM_DS3505
ZHHH,2008-10-21 11:00,ZHHH 211100Z AUTO 1 1/2SM 21/20 A2991 RMK T02100200 IEM_DS3505
ZHHH,2008-10-21 12:00,ZHHH 211200Z AUTO 32002KT 9SM 21/18 A2994 RMK SLP134 T02090177 52010 IEM_DS3505
ZHHH,2008-10-21 13:00,ZHHH 211300Z AUTO 1SM 20/20 A2994 RMK T02000200 IEM_DS3505
ZHHH,2008-10-21 14:00,ZHHH 211400Z AUTO 04004KT 1SM 19/19 A2994 RMK T01900190 IEM_DS3505
ZHHH,2008-10-21 15:00,ZHHH 211500Z AUTO 04002KT 7SM 21/18 A2994 RMK SLP142 T02060182 52007 IEM_DS3505
ZHHH,2008-10-21 16:00,ZHHH 211600Z AUTO 05008KT 1 1/2SM 18/18 A2994 RMK T01800180 IEM_DS3505
ZHHH,2008-10-21 17:00,ZHHH 211700Z AUTO 04004KT 1 1/2SM 18/18 A2991 RMK T01800180 IEM_DS3505
ZHHH,2008-10-21 18:00,ZHHH 211800Z AUTO 02002KT 9SM 19/17 A2991 RMK SLP131 T01920170 57011 IEM_DS3505
ZHHH,2008-10-21 19:00,ZHHH 211900Z AUTO 04006KT 1 1/2SM 18/18 A2991 RMK T01800180 IEM_DS3505
ZHHH,2008-10-21 20:00,ZHHH 212000Z AUTO 1 1/4SM 18/18 A2991 RMK T01800180 IEM_DS3505
ZHHH,2008-10-21 21:00,ZHHH 212100Z AUTO 02002KT 7SM 19/17 A2991 RMK 70000 SLP128 T01900170 57003 IEM_DS3505
ZHHH,2008-10-21 22:00,ZHHH 212200Z AUTO 00000KT 1 1/4SM 18/18 A2994 RMK T01800180 IEM_DS3505
ZHHH,2008-10-21 23:00,ZHHH 212300Z AUTO 02004KT 1SM 18/18 A2994 RMK T01800180 IEM_DS3505
ZHHH,2008-10-22 00:00,ZHHH 220000Z AUTO 04002KT 5SM 19/17 A2994 RMK 60000 70000 SLP140 T01930174 52012 IEM_DS3505
ZHHH,2008-10-22 01:00,ZHHH 220100Z AUTO 03006KT 1SM 19/19 A2997 RMK T01900190 IEM_DS3505
ZHHH,2008-10-22 02:00,ZHHH 220200Z AUTO 05008KT 1 1/4SM 20/20 A2994 RMK T02000200 IEM_DS3505
ZHHH,2008-10-22 03:00,ZHHH 220300Z AUTO 07004KT 6SM 21/18 A2991 RMK SLP135 T02130179 57004 IEM_DS3505
ZHHH,2008-10-22 04:00,ZHHH 220400Z AUTO 05008KT 4SM 21/20 A2991 RMK T02100200 IEM_DS3505
ZHHH,2008-10-22 05:00,ZHHH 220500Z AUTO 06006KT 3SM 21/20 A2988 RMK T02100200 IEM_DS3505
ZHHH,2008-10-22 06:00,ZHHH 220600Z AUTO 09002KT 7SM 21/19 A2985 RMK 60002 SLP110 T02120186 57025 IEM_DS3505
ZHHH,2008-10-22 07:00,ZHHH 220700Z AUTO 2 1/2SM 21/20 A2985 RMK T02100200 IEM_DS3505
ZHHH,2008-10-22 08:00,ZHHH 220800Z AUTO 34004KT 1SM 20/20 A2988 RMK T02000200 IEM_DS3505
ZHHH,2008-10-22 09:00,ZHHH 220900Z AUTO 32002KT 3SM 20/19 A2988 RMK SLP124 T02030191 52013 IEM_DS3505
ZHHH,2008-10-22 10:00,ZHHH 221000Z AUTO 35008KT 1SM 19/19 A2991 RMK T01900190 IEM_DS3505
ZHHH,2008-10-22 11:00,ZHHH 221100Z AUTO 35008KT 1SM 19/19 A2994 RMK T01900190 IEM_DS3505
ZHHH,2008-10-22 12:00,ZHHH 221200Z AUTO 34004KT 6SM 19/18 A2997 RMK 60039 SLP154 T01910178 52030 IEM_DS3505
ZHHH,2008-10-22 13:00,ZHHH 221300Z AUTO 35008KT 2 1/2SM 19/19 A3000 RMK T01900190 IEM_DS3505
ZHHH,2008-10-22 14:00,ZHHH 221400Z AUTO 34012KT 4SM 19/19 A3003 RMK T01900190 IEM_DS3505
ZHHH,2008-10-22 15:00,ZHHH 221500Z AUTO 32006KT 7SM 19/16 A3003 RMK SLP175 T01880160 52021 IEM_DS3505
ZHHH,2008-10-22 16:00,ZHHH 221600Z AUTO 34012KT 7SM 17/17 A3006 RMK T01700170 IEM_DS3505
ZHHH,2008-10-22 17:00,ZHHH 221700Z AUTO 34012G21KT 7SM 17/16 A3006 RMK T01700160 IEM_DS3505
ZHHH,2008-10-22 18:00,ZHHH 221800Z AUTO 29002KT 12SM 16/14 A3009 RMK 60000 SLP188 T01640137 52013 IEM_DS3505
ZHHH,2008-10-22 19:00,ZHHH 221900Z AUTO 34010KT 7SM 16/15 A3009 RMK T01600150 IEM_DS3505
ZHHH,2008-10-22 20:00,ZHHH 222000Z AUTO 35006KT 7SM 16/15 A3009 RMK T01600150 IEM_DS3505
ZHHH,2008-10-22 21:00,ZHHH 222100Z AUTO 32004KT 16SM 16/12 A3012 RMK 70041 SLP198 T01570115 52010 IEM_DS3505
ZHHH,2008-10-22 22:00,ZHHH 222200Z AUTO 36006KT 6SM 14/14 A3015 RMK T01400140 IEM_DS3505
ZHHH,2008-10-22 23:00,ZHHH 222300Z AUTO 35006KT 6SM 14/13 A3015 RMK T01400130 IEM_DS3505
ZHHH,2008-10-23 00:00,ZHHH 230000Z AUTO 34004KT 16SM 16/12 A3018 RMK 70041 SLP224 T01580116 52026 IEM_DS3505
ZHHH,2008-10-23 01:00,ZHHH 230100Z AUTO 04006KT 6SM 18/09 A3021 RMK T01800090 IEM_DS3505
ZHHH,2008-10-23 02:00,ZHHH 230200Z AUTO 04008KT 6SM 19/08 A3024 RMK T01900080 IEM_DS3505
ZHHH,2008-10-23 03:00,ZHHH 230300Z AUTO 34006KT 16SM 19/04 A3024 RMK SLP236 T01940036 52012 IEM_DS3505
ZHHH,2008-10-23 04:00,ZHHH 230400Z AUTO 01008G17KT 6SM 21/07 A3021 RMK T02100070 IEM_DS3505
ZHHH,2008-10-23 05:00,ZHHH 230500Z AUTO 33006KT 6SM 22/07 A3018 RMK T02200070 IEM_DS3505
ZHHH,2008-10-23 06:00,ZHHH 230600Z AUTO 34004KT 16SM 21/03 A3018 RMK SLP217 T02120034 57019 IEM_DS3505
ZHHH,2008-10-23 07:00,ZHHH 230700Z AUTO 05006KT 6SM 20/05 A3015 RMK T02000050 IEM_DS3505
ZHHH,2008-10-23 08:00,ZHHH 230800Z AUTO 06008KT 6SM 21/05 A3015 RMK T02100050 IEM_DS3505
ZHHH,2008-10-23 09:00,ZHHH 230900Z AUTO 07004KT 12SM 20/02 A3018 RMK SLP218 T01960025 52001 IEM_DS3505
ZHHH,2008-10-23 10:00,ZHHH 231000Z AUTO 07008KT 6SM 16/07 A3018 RMK T01600070 IEM_DS3505
ZHHH,2008-10-23 11:00,ZHHH 231100Z AUTO 06006KT 6SM 16/06 A3021 RMK T01600060 IEM_DS3505
ZHHH,2008-10-23 12:00,ZHHH 231200Z AUTO 07004KT 12SM 17/04 A3021 RMK SLP235 T01660036 52017 IEM_DS3505
ZHHH,2008-10-23 13:00,ZHHH 231300Z AUTO 07010KT 6SM 14/07 A3024 RMK T01400070 IEM_DS3505
ZHHH,2008-10-23 14:00,ZHHH 231400Z AUTO 06008KT 6SM 13/07 A3027 RMK T01300070 IEM_DS3505
ZHHH,2008-10-23 15:00,ZHHH 231500Z AUTO 07004KT 12SM 15/04 A3027 RMK SLP249 T01500044 52014 IEM_DS3505
ZHHH,2008-10-23 16:00,ZHHH 231600Z AUTO 07006KT 6SM 12/07 A3027 RMK T01200070 IEM_DS3505
ZHHH,2008-10-23 17:00,ZHHH 231700Z AUTO 08010KT 6SM 12/06 A3027 RMK T01200060 IEM_DS3505
ZHHH,2008-10-23 18:00,ZHHH 231800Z AUTO 07002KT 11SM 14/05 A3027 RMK SLP253 T01360050 52004 IEM_DS3505
ZHHH,2008-10-23 19:00,ZHHH 231900Z AUTO 06006KT 6SM 12/06 A3030 RMK T01200060 IEM_DS3505
ZHHH,2008-10-23 20:00,ZHHH 232000Z AUTO 03006KT 6SM 12/06 A3030 RMK T01200060 IEM_DS3505
ZHHH,2008-10-23 21:00,ZHHH 232100Z AUTO 02002KT 11SM 14/03 A3030 RMK SLP258 T01380030 52005 IEM_DS3505
ZHHH,2008-10-23 22:00,ZHHH 232200Z AUTO 03006KT 6SM 12/06 A3030 RMK T01200060 IEM_DS3505
ZHHH,2008-10-23 23:00,ZHHH 232300Z AUTO 05004KT 6SM 11/07 A3033 RMK T01100070 IEM_DS3505
ZHHH,2008-10-24 00:00,ZHHH 240000Z AUTO 04002KT 16SM 14/04 A3033 RMK SLP271 T01430040 52013 IEM_DS3505
ZHHH,2008-10-24 01:00,ZHHH 240100Z AUTO 03008KT 6SM 17/07 A3033 RMK T01700070 IEM_DS3505
ZHHH,2008-10-24 02:00,ZHHH 240200Z AUTO 01008KT 6SM 18/06 A3036 RMK T01800060 IEM_DS3505
ZHHH,2008-10-24 03:00,ZHHH 240300Z AUTO 02006KT 17SM 19/02 A3036 RMK SLP275 T01900015 52004 IEM_DS3505
ZHHH,2008-10-24 04:00,ZHHH 240400Z AUTO 04008KT 6SM 20/04 A3033 RMK T02000040 IEM_DS3505
ZHHH,2008-10-24 05:00,ZHHH 240500Z AUTO 04010KT 6SM 20/05 A3030 RMK T02000050 IEM_DS3505
ZHHH,2008-10-24 06:00,ZHHH 240600Z AUTO 32004KT 16SM 20/02 A3027 RMK SLP250 T01990023 57025 IEM_DS3505
ZHHH,2008-10-24 07:00,ZHHH 240700Z AUTO 04010KT 6SM 20/03 A3024 RMK T02000030 IEM_DS3505
ZHHH,2008-10-24 08:00,ZHHH 240800Z AUTO 04008KT 6SM 20/03 A3024 RMK T02000030 IEM_DS3505
ZHHH,2008-10-24 09:00,ZHHH 240900Z AUTO 04002KT 16SM 19/02 A3024 RMK SLP244 T01910020 57006 IEM_DS3505
ZHHH,2008-10-24 10:00,ZHHH 241000Z AUTO 02004KT 6SM 18/06 A3024 RMK T01800060 IEM_DS3505
ZHHH,2008-10-24 11:00,ZHHH 241100Z AUTO 02004KT 6SM 16/06 A3024 RMK T01600060 IEM_DS3505
ZHHH,2008-10-24 12:00,ZHHH 241200Z AUTO 00000KT 11SM 17/05 A3027 RMK SLP250 T01700053 52006 IEM_DS3505
ZHHH,2008-10-24 13:00,ZHHH 241300Z AUTO 05004KT 6SM 16/06 A3027 RMK T01600060 IEM_DS3505
ZHHH,2008-10-24 14:00,ZHHH 241400Z AUTO 6SM 15/06 A3024 RMK T01500060 IEM_DS3505
ZHHH,2008-10-24 15:00,ZHHH 241500Z AUTO 00000KT 12SM 16/08 A3027 RMK SLP248 T01580078 57002 IEM_DS3505
ZHHH,2008-10-24 16:00,ZHHH 241600Z AUTO 08004KT 6SM 14/08 A3024 RMK T01400080 IEM_DS3505
ZHHH,2008-10-24 17:00,ZHHH 241700Z AUTO 6SM 14/08 A3021 RMK T01400080 IEM_DS3505
ZHHH,2008-10-24 18:00,ZHHH 241800Z AUTO 02002KT 12SM 16/06 A3021 RMK SLP232 T01590063 57016 IEM_DS3505
ZHHH,2008-10-24 19:00,ZHHH 241900Z AUTO 13004KT 6SM 15/08 A3021 RMK T01500080 IEM_DS3505
ZHHH,2008-10-24 20:00,ZHHH 242000Z AUTO 15004KT 7SM 15/10 A3021 RMK T01500100 IEM_DS3505
ZHHH,2008-10-24 21:00,ZHHH 242100Z AUTO 11002KT 11SM 15/10 A3021 RMK 70001 SLP232 T01510101 54000 IEM_DS3505
ZHHH,2008-10-24 22:00,ZHHH 242200Z AUTO 18008KT 7SM 14/11 A3021 RMK T01400110 IEM_DS3505
ZHHH,2008-10-24 23:00,ZHHH 242300Z AUTO 18008KT 4SM 13/12 A3024 RMK T01300120 IEM_DS3505
ZHHH,2008-10-25 00:00,ZHHH 250000Z AUTO 18002KT 9SM 14/10 A3024 RMK 60008 70007 SLP242 T01400102 52010 IEM_DS3505
ZHHH,2008-10-25 01:00,ZHHH 250100Z AUTO 21006KT 3SM 13/13 A3027 RMK T01300130 IEM_DS3505
ZHHH,2008-10-25 02:00,ZHHH 250200Z AUTO 22006KT 5SM 14/13 A3027 RMK T01400130 IEM_DS3505
ZHHH,2008-10-25 03:00,ZHHH 250300Z AUTO 27004KT 7SM 14/10 A3027 RMK SLP253 T01360098 52011 IEM_DS3505
ZHHH,2008-10-25 04:00,ZHHH 250400Z AUTO 26004KT 5SM 13/13 A3024 RMK T01300130 IEM_DS3505
ZHHH,2008-10-25 05:00,ZHHH 250500Z AUTO 27004KT 5SM 13/12 A3021 RMK T01300120 IEM_DS3505
ZHHH,2008-10-25 06:00,ZHHH 250600Z AUTO 34002KT 12SM 14/10 A3021 RMK 60012 SLP224 T01390105 57029 IEM_DS3505
ZHHH,2008-10-25 07:00,ZHHH 250700Z AUTO 7SM 14/12 A3018 RMK T01400120 IEM_DS3505
ZHHH,2008-10-25 08:00,ZHHH 250800Z AUTO 00000KT 5SM 14/12 A3018 RMK T01400120 IEM_DS3505
ZHHH,2008-10-25 09:00,ZHHH 250900Z AUTO 02002KT 11SM 14/11 A3018 RMK SLP222 T01380111 57002 IEM_DS3505
ZHHH,2008-10-25 10:00,ZHHH 251000Z AUTO 5SM 13/12 A3021 RMK T01300120 IEM_DS3505
ZHHH,2008-10-25 11:00,ZHHH 251100Z AUTO 23004KT 5SM 13/12 A3021 RMK T01300120 IEM_DS3505
ZHHH,2008-10-25 12:00,ZHHH 251200Z AUTO 04002KT 9SM 13/11 A3024 RMK 60008 SLP236 T01310112 52014 IEM_DS3505
ZHHH,2008-10-25 13:00,ZHHH 251300Z AUTO 22004KT 3SM 13/12 A3024 RMK T01300120 IEM_DS3505
ZHHH,2008-10-25 14:00,ZHHH 251400Z AUTO 3SM 13/12 A3021 RMK T01300120 IEM_DS3505
ZHHH,2008-10-25 15:00,ZHHH 251500Z AUTO 27002KT 7SM 13/11 A3024 RMK SLP235 T01320114 57001 IEM_DS3505
ZHHH,2008-10-25 16:00,ZHHH 251600Z AUTO 32004KT 2SM 13/13 A3024 RMK T01300130 IEM_DS3505
ZHHH,2008-10-25 17:00,ZHHH 251700Z AUTO 35004KT 2SM 13/13 A3024 RMK T01300130 IEM_DS3505
ZHHH,2008-10-25 18:00,ZHHH 251800Z AUTO 27002KT 9SM 13/11 A3024 RMK 60003 SLP237 T01320111 52002 IEM_DS3505
ZHHH,2008-10-25 19:00,ZHHH 251900Z AUTO 30004KT 2SM 13/13 A3021 RMK T01300130 IEM_DS3505
ZHHH,2008-10-25 20:00,ZHHH 252000Z AUTO 1 1/4SM 13/13 A3021 RMK T01300130 IEM_DS3505
ZHHH,2008-10-25 21:00,ZHHH 252100Z AUTO 27002KT 9SM 13/11 A3021 RMK 70029 SLP233 T01310113 57004 IEM_DS3505
ZHHH,2008-10-25 22:00,ZHHH 252200Z AUTO 00000KT 2 1/2SM 13/13 A3024 RMK T01300130 IEM_DS3505
ZHHH,2008-10-25 23:00,ZHHH 252300Z AUTO 1 1/4SM 13/13 A3024 RMK T01300130 IEM_DS3505
ZHHH,2008-10-26 00:00,ZHHH 260000Z AUTO 27002KT 9SM 14/11 A3027 RMK 60002 70023 SLP248 T01380113 52014 IEM_DS3505
ZHHH,2008-10-26 01:00,ZHHH 260100Z AUTO 23004KT 6SM 14/14 A3027 RMK T01400140 IEM_DS3505
ZHHH,2008-10-26 02:00,ZHHH 260200Z AUTO 28004KT 6SM 15/14 A3027 RMK T01500140 IEM_DS3505
ZHHH,2008-10-26 03:00,ZHHH 260300Z AUTO 27002KT 11SM 15/12 A3027 RMK SLP250 T01530117 52003 IEM_DS3505
ZHHH,2008-10-26 04:00,ZHHH 260400Z AUTO 28004KT 4SM 16/14 A3024 RMK T01600140 IEM_DS3505
ZHHH,2008-10-26 05:00,ZHHH 260500Z AUTO 28006KT 7SM 17/15 A3021 RMK T01700150 IEM_DS3505
ZHHH,2008-10-26 06:00,ZHHH 260600Z AUTO 32002KT 12SM 17/13 A3021 RMK SLP231 T01700127 57019 IEM_DS3505
ZHHH,2008-10-26 07:00,ZHHH 260700Z AUTO 28004KT 7SM 17/15 A3021 RMK T01700150 IEM_DS3505
ZHHH,2008-10-26 08:00,ZHHH 260800Z AUTO 6SM 17/14 A3021 RMK T01700140 IEM_DS3505
ZHHH,2008-10-26 09:00,ZHHH 260900Z AUTO 27002KT 11SM 17/13 A3021 RMK SLP229 T01730130 57002 IEM_DS3505
ZHHH,2008-10-26 10:00,ZHHH 261000Z AUTO 6SM 16/15 A3021 RMK T01600150 IEM_DS3505
ZHHH,2008-10-26 11:00,ZHHH 261100Z AUTO 27002KT 6SM 16/15 A3024 RMK T01600150 IEM_DS3505
ZHHH,2008-10-26 12:00,ZHHH 261200Z AUTO 27002KT 9SM 16/14 A3024 RMK SLP243 T01590136 52014 IEM_DS3505
ZHHH,2008-10-26 13:00,ZHHH 261300Z AUTO 26004KT 6SM 16/15 A3027 RMK T01600150 IEM_DS3505
ZHHH,2008-10-26 14:00,ZHHH 261400Z AUTO 4SM 16/15 A3027 RMK T01600150 IEM_DS3505
ZHHH,2008-10-26 15:00,ZHHH 261500Z AUTO 29004KT 4SM 15/15 A3027 RMK T01500150 IEM_DS3505
ZHHH,2008-10-26 16:00,ZHHH 261600Z AUTO 25004KT 1 1/2SM 15/15 A3027 RMK T01500150 IEM_DS3505
ZHHH,2008-10-26 17:00,ZHHH 261700Z AUTO 1 1/4SM 15/15 A3027 RMK T01500150 IEM_DS3505
ZHHH,2008-10-26 18:00,ZHHH 261800Z AUTO 27002KT 7SM 15/14 A3027 RMK SLP251 T01510136 52001 IEM_DS3505
ZHHH,2008-10-26 19:00,ZHHH 261900Z AUTO 1SM 15/15 A3024 RMK T01500150 IEM_DS3505
ZHHH,2008-10-26 20:00,ZHHH 262000Z AUTO 27004KT 1SM 15/15 A3027 RMK T01500150 IEM_DS3505
ZHHH,2008-10-26 21:00,ZHHH 262100Z AUTO 00000KT 5SM 15/14 A3027 RMK 70001 SLP251 T01510138 54000 IEM_DS3505
ZHHH,2008-10-26 22:00,ZHHH 262200Z AUTO 1/2SM 14/14 A3027 RMK T01400140 IEM_DS3505
ZHHH,2008-10-26 23:00,ZHHH 262300Z AUTO 00000KT 1/2SM 14/14 A3030 RMK T01400140 IEM_DS3505
ZHHH,2008-10-27 00:00,ZHHH 270000Z AUTO 14002KT 6SM 16/14 A3030 RMK SLP261 T01570144 52010 IEM_DS3505
ZHHH,2008-10-27 01:00,ZHHH 270100Z AUTO 08004KT 3/8SM 15/15 A3033 RMK T01500150 IEM_DS3505
ZHHH,2008-10-27 02:00,ZHHH 270200Z AUTO 11004KT 1SM 16/16 A3033 RMK T01600160 IEM_DS3505
ZHHH,2008-10-27 03:00,ZHHH 270300Z AUTO 02002KT 7SM 19/14 A3030 RMK SLP262 T01910139 52001 IEM_DS3505
ZHHH,2008-10-27 04:00,ZHHH 270400Z AUTO 30004KT 1 1/2SM 20/17 A3027 RMK T02000170 IEM_DS3505
ZHHH,2008-10-27 05:00,ZHHH 270500Z AUTO 28004KT 1 1/2SM 21/17 A3024 RMK T02100170 IEM_DS3505
ZHHH,2008-10-27 06:00,ZHHH 270600Z AUTO 07002KT 9SM 22/09 A3021 RMK SLP234 T02150087 57028 IEM_DS3505
ZHHH,2008-10-27 07:00,ZHHH 270700Z AUTO 4SM 21/15 A3021 RMK T02100150 IEM_DS3505
ZHHH,2008-10-27 08:00,ZHHH 270800Z AUTO 4SM 21/14 A3021 RMK T02100140 IEM_DS3505
ZHHH,2008-10-27 09:00,ZHHH 270900Z AUTO 36002KT 9SM 20/10 A3021 RMK SLP227 T02050100 57007 IEM_DS3505
ZHHH,2008-10-27 10:00,ZHHH 271000Z AUTO 00000KT 4SM 19/15 A3018 RMK T01900150 IEM_DS3505
ZHHH,2008-10-27 11:00,ZHHH 271100Z AUTO 03004KT 2 1/2SM 19/16 A3021 RMK T01900160 IEM_DS3505
ZHHH,2008-10-27 12:00,ZHHH 271200Z AUTO 04002KT 9SM 18/13 A3021 RMK SLP228 T01850134 52001 IEM_DS3505
ZHHH,2008-10-27 13:00,ZHHH 271300Z AUTO 04002KT 4SM 18/12 A3021 RMK T01800120 IEM_DS3505
ZHHH,2008-10-27 14:00,ZHHH 271400Z AUTO 03002KT 3SM 18/14 A3018 RMK T01800140 IEM_DS3505
ZHHH,2008-10-27 15:00,ZHHH 271500Z AUTO 11002KT 9SM 17/13 A3018 RMK SLP212 T01740131 57016 IEM_DS3505
ZHHH,2008-10-27 16:00,ZHHH 271600Z AUTO 08004KT 3SM 17/14 A3015 RMK T01700140 IEM_DS3505
ZHHH,2008-10-27 17:00,ZHHH 271700Z AUTO 18002KT 3SM 16/14 A3015 RMK T01600140 IEM_DS3505
ZHHH,2008-10-27 18:00,ZHHH 271800Z AUTO 00000KT 9SM 15/14 A3012 RMK SLP203 T01540136 57009 IEM_DS3505
ZHHH,2008-10-27 19:00,ZHHH 271900Z AUTO 11006KT 2 1/2SM 16/14 A3012 RMK T01600140 IEM_DS3505
ZHHH,2008-10-27 20:00,ZHHH 272000Z AUTO 09008KT 2 1/2SM 16/14 A3009 RMK T01600140 IEM_DS3505
ZHHH,2008-10-27 21:00,ZHHH 272100Z AUTO 07002KT 9SM 17/12 A3009 RMK SLP189 T01680123 57014 IEM_DS3505
ZHHH,2008-10-27 22:00,ZHHH 272200Z AUTO 09006KT 2 1/2SM 16/14 A3009 RMK T01600140 IEM_DS3505
ZHHH,2008-10-27 23:00,ZHHH 272300Z AUTO 09006KT 2 1/2SM 16/14 A3009 RMK T01600140 IEM_DS3505
ZHHH,2008-10-28 00:00,ZHHH 280000Z AUTO 11004KT 9SM 18/13 A3009 RMK SLP188 T01770126 57001 IEM_DS3505
ZHHH,2008-10-28 01:00,ZHHH 280100Z AUTO 12008KT 4SM 18/14 A3012 RMK T01800140 IEM_DS3505
ZHHH,2008-10-28 02:00,ZHHH 280200Z AUTO 13008KT 4SM 19/14 A3009 RMK T01900140 IEM_DS3505
ZHHH,2008-10-28 03:00,ZHHH 280300Z AUTO 11004KT 9SM 20/09 A3006 RMK SLP185 T02050094 57003 IEM_DS3505
ZHHH,2008-10-28 04:00,ZHHH 280400Z AUTO 16004KT 4SM 20/13 A3006 RMK T02000130 IEM_DS3505
ZHHH,2008-10-28 05:00,ZHHH 280500Z AUTO 20006KT 6SM 21/13 A3003 RMK T02100130 IEM_DS3505
ZHHH,2008-10-28 06:00,ZHHH 280600Z AUTO 20002KT 9SM 21/11 A3000 RMK SLP160 T02140114 57025 IEM_DS3505
ZHHH,2008-10-28 07:00,ZHHH 280700Z AUTO 19006KT 6SM 22/14 A2997 RMK T02200140 IEM_DS3505
ZHHH,2008-10-28 08:00,ZHHH 280800Z AUTO 18006KT 6SM 22/15 A2997 RMK T02200150 IEM_DS3505
ZHHH,2008-10-28 09:00,ZHHH 280900Z AUTO 22002KT 9SM 22/12 A2997 RMK SLP146 T02190125 57014 IEM_DS3505
ZHHH,2008-10-28 10:00,ZHHH 281000Z AUTO 33004KT 6SM 21/16 A2997 RMK T02100160 IEM_DS3505
ZHHH,2008-10-28 11:00,ZHHH 281100Z AUTO 06004KT 4SM 20/15 A2997 RMK T02000150 IEM_DS3505
ZHHH,2008-10-28 12:00,ZHHH 281200Z AUTO 02002KT 9SM 19/15 A3000 RMK SLP156 T01940153 52010 IEM_DS3505
ZHHH,2008-10-28 13:00,ZHHH 281300Z AUTO 00000KT 4SM 19/16 A3000 RMK T01900160 IEM_DS3505
ZHHH,2008-10-28 14:00,ZHHH 281400Z AUTO 04006KT 4SM 19/15 A3000 RMK T01900150 IEM_DS3505
ZHHH,2008-10-28 15:00,ZHHH 281500Z AUTO 34002KT 7SM 19/14 A3000 RMK SLP162 T01920145 52006 IEM_DS3505
ZHHH,2008-10-28 16:00,ZHHH 281600Z AUTO 02006KT 4SM 18/15 A3000 RMK T01800150 IEM_DS3505
ZHHH,2008-10-28 17:00,ZHHH 281700Z AUTO 03006KT 4SM 17/15 A3000 RMK T01700150 IEM_DS3505
ZHHH,2008-10-28 18:00,ZHHH 281800Z AUTO 32004KT 9SM 18/14 A3000 RMK SLP158 T01770138 57004 IEM_DS3505
ZHHH,2008-10-28 19:00,ZHHH 281900Z AUTO 02004KT 4SM 17/14 A2997 RMK T01700140 IEM_DS3505
ZHHH,2008-10-28 20:00,ZHHH 282000Z AUTO 34006KT 3SM 16/15 A3000 RMK T01600150 IEM_DS3505
ZHHH,2008-10-28 21:00,ZHHH 282100Z AUTO 07002KT 7SM 16/13 A3003 RMK SLP166 T01640128 52008 IEM_DS3505
ZHHH,2008-10-28 22:00,ZHHH 282200Z AUTO 02004KT 1/2SM 15/15 A3003 RMK T01500150 IEM_DS3505
ZHHH,2008-10-28 23:00,ZHHH 282300Z AUTO 08004KT 1SM 14/14 A3003 RMK T01400140 IEM_DS3505
ZHHH,2008-10-29 00:00,ZHHH 290000Z AUTO 02004KT 5SM 15/14 A3006 RMK 60008 70009 SLP185 T01510138 52019 IEM_DS3505
ZHHH,2008-10-29 01:00,ZHHH 290100Z AUTO 1/2SM 14/14 A3009 RMK T01400140 IEM_DS3505
ZHHH,2008-10-29 02:00,ZHHH 290200Z AUTO 33004KT 1SM 15/15 A3009 RMK T01500150 IEM_DS3505
ZHHH,2008-10-29 03:00,ZHHH 290300Z AUTO 29002KT 5SM 15/14 A3009 RMK SLP195 T01530142 52010 IEM_DS3505
ZHHH,2008-10-29 04:00,ZHHH 290400Z AUTO 35004KT 1/2SM 15/15 A3009 RMK T01500150 IEM_DS3505
ZHHH,2008-10-29 05:00,ZHHH 290500Z AUTO 35006KT 1/2SM 15/15 A3006 RMK T01500150 IEM_DS3505
ZHHH,2008-10-29 06:00,ZHHH 290600Z AUTO 29002KT 4SM 16/14 A3006 RMK 60020 SLP180 T01550142 57015 IEM_DS3505
ZHHH,2008-10-29 07:00,ZHHH 290700Z AUTO 01004KT 1/2SM 15/15 A3006 RMK T01500150 IEM_DS3505
ZHHH,2008-10-29 08:00,ZHHH 290800Z AUTO 36004KT 1/2SM 15/15 A3009 RMK T01500150 IEM_DS3505
ZHHH,2008-10-29 09:00,ZHHH 290900Z AUTO 04004KT 2 1/2SM 16/14 A3009 RMK SLP186 T01570142 52006 IEM_DS3505
ZHHH,2008-10-29 10:00,ZHHH 291000Z AUTO 36002KT 1SM 15/15 A3009 RMK T01500150 IEM_DS3505
ZHHH,2008-10-29 11:00,ZHHH 291100Z AUTO 04004KT 1 1/4SM 15/15 A3009 RMK T01500150 IEM_DS3505
ZHHH,2008-10-29 12:00,ZHHH 291200Z AUTO 32002KT 3SM 16/14 A3012 RMK 60002 SLP202 T01560141 52016 IEM_DS3505
ZHHH,2008-10-29 13:00,ZHHH 291300Z AUTO 02004KT 1 1/4SM 14/14 A3015 RMK T01400140 IEM_DS3505
ZHHH,2008-10-29 14:00,ZHHH 291400Z AUTO 04002KT 1SM 14/14 A3015 RMK T01400140 IEM_DS3505
ZHHH,2008-10-29 15:00,ZHHH 291500Z AUTO 34002KT 4SM 15/14 A3015 RMK SLP209 T01490136 52007 IEM_DS3505
ZHHH,2008-10-29 16:00,ZHHH 291600Z AUTO 01004KT 1SM 14/14 A3015 RMK T01400140 IEM_DS3505
ZHHH,2008-10-29 17:00,ZHHH 291700Z AUTO 00000KT 1SM 14/14 A3015 RMK T01400140 IEM_DS3505
ZHHH,2008-10-29 18:00,ZHHH 291800Z AUTO 04002KT 4SM 15/14 RMK 60016 SLP202 T01470136 57007 IEM_DS3505
ZHHH,2008-10-29 19:00,ZHHH 291900Z AUTO 1SM 14/14 A3012 RMK T01400140 IEM_DS3505
ZHHH,2008-10-29 20:00,ZHHH 292000Z AUTO 01004KT 1SM 14/14 A3015 RMK T01400140 IEM_DS3505
ZHHH,2008-10-29 21:00,ZHHH 292100Z AUTO 07002KT 4SM 15/14 RMK 70047 SLP205 T01490136 52003 IEM_DS3505
ZHHH,2008-10-29 22:00,ZHHH 292200Z AUTO 06006KT 1SM 14/14 A3015 RMK T01400140 IEM_DS3505
ZHHH,2008-10-29 23:00,ZHHH 292300Z AUTO 06006KT 1SM 14/14 A3015 RMK T01400140 IEM_DS3505
ZHHH,2008-10-30 00:00,ZHHH 300000Z AUTO 07002KT 6SM 15/13 A3018 RMK 60000 70038 SLP223 T01520134 52018 IEM_DS3505
ZHHH,2008-10-30 01:00,ZHHH 300100Z AUTO 06006KT 1SM 15/15 A3021 RMK T01500150 IEM_DS3505
ZHHH,2008-10-30 02:00,ZHHH 300200Z AUTO 05004KT 1SM 15/15 A3021 RMK T01500150 IEM_DS3505
ZHHH,2008-10-30 03:00,ZHHH 300300Z AUTO 04002KT 7SM 17/14 A3018 RMK SLP223 T01670138 54000 IEM_DS3505
ZHHH,2008-10-30 04:00,ZHHH 300400Z AUTO 1 1/2SM 17/16 A3018 RMK T01700160 IEM_DS3505
ZHHH,2008-10-30 05:00,ZHHH 300500Z AUTO 1 1/4SM 17/16 A3015 RMK T01700160 IEM_DS3505
ZHHH,2008-10-30 06:00,ZHHH 300600Z AUTO 09002KT 6SM 17/15 A3012 RMK 60001 SLP198 T01710147 57025 IEM_DS3505
ZHHH,2008-10-30 07:00,ZHHH 300700Z AUTO 1 1/4SM 17/16 A3012 RMK T01700160 IEM_DS3505
ZHHH,2008-10-30 08:00,ZHHH 300800Z AUTO 00000KT 1 1/4SM 16/16 A3012 RMK T01600160 IEM_DS3505
ZHHH,2008-10-30 09:00,ZHHH 300900Z AUTO 11002KT 3SM 17/15 A3009 RMK SLP195 T01680152 57003 IEM_DS3505
ZHHH,2008-10-30 10:00,ZHHH 301000Z AUTO 00000KT 1SM 16/16 A3012 RMK T01600160 IEM_DS3505
ZHHH,2008-10-30 11:00,ZHHH 301100Z AUTO 27002KT 1SM 16/16 A3015 RMK T01600160 IEM_DS3505
ZHHH,2008-10-30 12:00,ZHHH 301200Z AUTO 00000KT 4SM 16/15 A3015 RMK 60016 SLP213 T01640153 52018 IEM_DS3505
ZHHH,2008-10-30 14:00,ZHHH 301400Z AUTO 32004KT 1SM 16/16 A3021 RMK T01600160 IEM_DS3505
ZHHH,2008-10-30 15:00,ZHHH 301500Z AUTO 32002KT 4SM 16/15 A3018 RMK SLP225 T01600150 52012 IEM_DS3505
ZHHH,2008-10-30 16:00,ZHHH 301600Z AUTO 00000KT 1SM 15/15 A3018 RMK T01500150 IEM_DS3505
ZHHH,2008-10-30 17:00,ZHHH 301700Z AUTO 1SM 15/15 A3018 RMK T01500150 IEM_DS3505
ZHHH,2008-10-30 18:00,ZHHH 301800Z AUTO 25002KT 3SM 16/15 A3018 RMK 60020 SLP217 T01590149 57008 IEM_DS3505
ZHHH,2008-10-30 19:00,ZHHH 301900Z AUTO 1SM 15/15 A3015 RMK T01500150 IEM_DS3505
ZHHH,2008-10-30 20:00,ZHHH 302000Z AUTO 1SM 15/15 A3015 RMK T01500150 IEM_DS3505
ZHHH,2008-10-30 21:00,ZHHH 302100Z AUTO 00000KT 3SM 16/15 A3015 RMK 70039 SLP208 T01570147 57009 IEM_DS3505
ZHHH,2008-10-30 22:00,ZHHH 302200Z AUTO 1SM 15/15 A3018 RMK T01500150 IEM_DS3505
ZHHH,2008-10-30 23:00,ZHHH 302300Z AUTO 1SM 15/15 A3018 RMK T01500150 IEM_DS3505
ZHHH,2008-10-31 00:00,ZHHH 310000Z AUTO 00000KT 6SM 16/15 A3021 RMK 60003 70040 SLP229 T01580148 52021 IEM_DS3505
ZHHH,2008-10-31 01:00,ZHHH 310100Z AUTO 33004KT 1/2SM 16/16 A3021 RMK T01600160 IEM_DS3505
ZHHH,2008-10-31 02:00,ZHHH 310200Z AUTO 1SM 16/16 A3021 RMK T01600160 IEM_DS3505
ZHHH,2008-10-31 03:00,ZHHH 310300Z AUTO 27004KT 6SM 17/15 A3021 RMK SLP235 T01700146 52006 IEM_DS3505
ZHHH,2008-10-31 04:00,ZHHH 310400Z AUTO 31004KT 1SM 18/17 A3021 RMK T01800170 IEM_DS3505
ZHHH,2008-10-31 05:00,ZHHH 310500Z AUTO 32004KT 1 1/4SM 18/17 A3021 RMK T01800170 IEM_DS3505
ZHHH,2008-10-31 06:00,ZHHH 310600Z AUTO 27002KT 9SM 19/14 A3018 RMK SLP218 T01860145 57017 IEM_DS3505
ZHHH,2008-10-31 07:00,ZHHH 310700Z AUTO 31004KT 1 1/2SM 18/17 A3015 RMK T01800170 IEM_DS3505
ZHHH,2008-10-31 08:00,ZHHH 310800Z AUTO 30004KT 1 1/2SM 18/17 A3018 RMK T01800170 IEM_DS3505
ZHHH,2008-10-31 09:00,ZHHH 310900Z AUTO 34004KT 9SM 18/15 A3018 RMK SLP216 T01820147 57002 IEM_DS3505
ZHHH,2008-10-31 10:00,ZHHH 311000Z AUTO 00000KT 1 1/2SM 17/16 A3015 RMK T01700160 IEM_DS3505
ZHHH,2008-10-31 11:00,ZHHH 311100Z AUTO 31002KT 1 1/4SM 17/16 A3018 RMK T01700160 IEM_DS3505
ZHHH,2008-10-31 12:00,ZHHH 311200Z AUTO 27002KT 9SM 17/15 A3018 RMK SLP225 T01700148 52009 IEM_DS3505
ZHHH,2008-10-31 13:00,ZHHH 311300Z AUTO 00000KT 1 1/4SM 16/16 A3018 RMK T01600160 IEM_DS3505
ZHHH,2008-10-31 14:00,ZHHH 311400Z AUTO 34002KT 1SM 16/16 A3018 RMK T01600160 IEM_DS3505
ZHHH,2008-10-31 15:00,ZHHH 311500Z AUTO 27002KT 9SM 16/15 A3018 RMK SLP222 T01650149 57003 IEM_DS3505
ZHHH,2008-10-31 16:00,ZHHH 311600Z AUTO 00000KT 1SM 16/16 A3018 RMK T01600160 IEM_DS3505
ZHHH,2008-10-31 17:00,ZHHH 311700Z AUTO 1SM 16/16 A3015 RMK T01600160 IEM_DS3505
ZHHH,2008-10-31 18:00,ZHHH 311800Z AUTO 27002KT 6SM 16/15 A3015 RMK SLP216 T01620149 57006 IEM_DS3505
ZHHH,2008-10-31 19:00,ZHHH 311900Z AUTO 08002KT 1SM 15/15 A3012 RMK T01500150 IEM_DS3505
ZHHH,2008-10-31 20:00,ZHHH 312000Z AUTO 36004KT 1SM 15/15 A3015 RMK T01500150 IEM_DS3505
ZHHH,2008-10-31 21:00,ZHHH 312100Z AUTO 09002KT 6SM 16/15 A3015 RMK 70000 SLP206 T01610150 57010 IEM_DS3505
ZHHH,2008-10-31 22:00,ZHHH 312200Z AUTO 12004KT 1SM 15/15 A3015 RMK T01500150 IEM_DS3505
ZHHH,2008-10-31 23:00,ZHHH 312300Z AUTO 14004KT 1SM 15/15 A3015 RMK T01500150 IEM_DS3505
ZHHH,2008-11-01 00:00,ZHHH 010000Z AUTO 18002KT 4SM 16/15 A3018 RMK 60002 70002 SLP224 T01620149 52018 IEM_DS3505
ZHHH,2008-11-01 01:00,ZHHH 010100Z AUTO 14004KT 1SM 16/16 A3021 RMK T01600160 IEM_DS3505
ZHHH,2008-11-01 02:00,ZHHH 010200Z AUTO 1SM 17/17 A3021 RMK T01700170 IEM_DS3505
ZHHH,2008-11-01 03:00,ZHHH 010300Z AUTO 20002KT 7SM 17/14 A3018 RMK SLP222 T01690145 57002 IEM_DS3505
ZHHH,2008-11-01 04:00,ZHHH 010400Z AUTO 1 1/2SM 17/16 A3018 RMK T01700160 IEM_DS3505
ZHHH,2008-11-01 05:00,ZHHH 010500Z AUTO 2 1/2SM 17/16 A3012 RMK T01700160 IEM_DS3505
ZHHH,2008-11-01 06:00,ZHHH 010600Z AUTO 25002KT 9SM 18/15 A3012 RMK 60008 SLP199 T01780147 57023 IEM_DS3505
ZHHH,2008-11-01 07:00,ZHHH 010700Z AUTO 31004KT 3SM 18/16 A3012 RMK T01800160 IEM_DS3505
ZHHH,2008-11-01 08:00,ZHHH 010800Z AUTO 25004KT 3SM 17/16 A3015 RMK T01700160 IEM_DS3505
ZHHH,2008-11-01 09:00,ZHHH 010900Z AUTO 25002KT 9SM 17/15 A3015 RMK SLP207 T01740150 52008 IEM_DS3505
ZHHH,2008-11-01 10:00,ZHHH 011000Z AUTO 20004KT 3SM 16/16 A3012 RMK T01600160 IEM_DS3505
ZHHH,2008-11-01 11:00,ZHHH 011100Z AUTO 17004KT 2 1/2SM 16/16 A3012 RMK T01600160 IEM_DS3505
ZHHH,2008-11-01 12:00,ZHHH 011200Z AUTO 27002KT 6SM 17/16 A3012 RMK 60004 SLP209 T01680155 52002 IEM_DS3505
ZHHH,2008-11-01 13:00,ZHHH 011300Z AUTO 00000KT 1SM 16/16 A3012 RMK T01600160 IEM_DS3505
ZHHH,2008-11-01 14:00,ZHHH 011400Z AUTO 1SM 16/16 A3012 RMK T01600160 IEM_DS3505
ZHHH,2008-11-01 15:00,ZHHH 011500Z AUTO 00000KT 6SM 16/15 A3012 RMK SLP197 T01630150 57012 IEM_DS3505
ZHHH,2008-11-01 16:00,ZHHH 011600Z AUTO 1SM 16/16 A3012 RMK T01600160 IEM_DS3505
ZHHH,2008-11-01 17:00,ZHHH 011700Z AUTO 00000KT 1 1/4SM 16/16 A3012 RMK T01600160 IEM_DS3505
ZHHH,2008-11-01 18:00,ZHHH 011800Z AUTO 00000KT 6SM 16/15 A3009 RMK 60003 SLP192 T01610150 57005 IEM_DS3505
ZHHH,2008-11-01 19:00,ZHHH 011900Z AUTO 09002KT 1SM 15/15 A3009 RMK T01500150 IEM_DS3505
ZHHH,2008-11-01 20:00,ZHHH 012000Z AUTO 1SM 15/15 A3006 RMK T01500150 IEM_DS3505
ZHHH,2008-11-01 21:00,ZHHH 012100Z AUTO 27002KT 5SM 16/15 A3009 RMK 70016 SLP185 T01600150 57007 IEM_DS3505
ZHHH,2008-11-01 22:00,ZHHH 012200Z AUTO 1 1/4SM 15/15 A3006 RMK T01500150 IEM_DS3505
ZHHH,2008-11-01 23:00,ZHHH 012300Z AUTO 1 1/4SM 15/15 A3009 RMK T01500150 IEM_DS3505
ZHHH,2008-11-02 00:00,ZHHH 020000Z AUTO 36002KT 6SM 16/15 A3012 RMK 70014 SLP196 T01590149 52011 IEM_DS3505
ZHHH,2008-11-02 01:00,ZHHH 020100Z AUTO 1 1/2SM 16/16 A3012 RMK T01600160 IEM_DS3505
ZHHH,2008-11-02 02:00,ZHHH 020200Z AUTO 00000KT 2 1/2SM 16/16 A3009 RMK T01600160 IEM_DS3505
ZHHH,2008-11-02 03:00,ZHHH 020300Z AUTO 00000KT 9SM 17/15 A3009 RMK SLP190 T01670147 57006 IEM_DS3505
ZHHH,2008-11-02 04:00,ZHHH 020400Z AUTO 29004KT 4SM 18/17 A3009 RMK T01800170 IEM_DS3505
ZHHH,2008-11-02 05:00,ZHHH 020500Z AUTO 7SM 17/16 A3006 RMK T01700160 IEM_DS3505
ZHHH,2008-11-02 06:00,ZHHH 020600Z AUTO 27002KT 11SM 18/14 A3003 RMK SLP177 T01760145 57013 IEM_DS3505
ZHHH,2008-11-02 07:00,ZHHH 020700Z AUTO 7SM 17/16 A3006 RMK T01700160 IEM_DS3505
ZHHH,2008-11-02 08:00,ZHHH 020800Z AUTO 20004KT 7SM 17/16 A3003 RMK T01700160 IEM_DS3505
ZHHH,2008-11-02 09:00,ZHHH 020900Z AUTO 25004KT 9SM 17/15 A3006 RMK SLP180 T01720147 52003 IEM_DS3505
ZHHH,2008-11-02 10:00,ZHHH 021000Z AUTO 21006KT 7SM 17/16 A3006 RMK T01700160 IEM_DS3505
ZHHH,2008-11-02 11:00,ZHHH 021100Z AUTO 21004KT 4SM 16/16 A3009 RMK T01600160 IEM_DS3505
ZHHH,2008-11-02 12:00,ZHHH 021200Z AUTO 29002KT 9SM 16/15 A3009 RMK SLP192 T01650149 52012 IEM_DS3505
ZHHH,2008-11-02 13:00,ZHHH 021300Z AUTO 25002KT 4SM 16/16 A3012 RMK T01600160 IEM_DS3505
ZHHH,2008-11-02 14:00,ZHHH 021400Z AUTO 00000KT 4SM 16/16 A3009 RMK T01600160 IEM_DS3505
ZHHH,2008-11-02 15:00,ZHHH 021500Z AUTO 00000KT 7SM 16/15 A3012 RMK SLP200 T01580147 52008 IEM_DS3505
ZHHH,2008-11-02 16:00,ZHHH 021600Z AUTO 00000KT 1SM 15/15 A3012 RMK T01500150 IEM_DS3505
ZHHH,2008-11-02 17:00,ZHHH 021700Z AUTO 00000KT 1SM 15/15 A3012 RMK T01500150 IEM_DS3505
ZHHH,2008-11-02 18:00,ZHHH 021800Z AUTO 11002KT 6SM 15/14 A3012 RMK SLP199 T01460138 57001 IEM_DS3505
ZHHH,2008-11-02 19:00,ZHHH 021900Z AUTO 00000KT 1/8SM 14/14 A3012 RMK T01400140 IEM_DS3505
ZHHH,2008-11-02 20:00,ZHHH 022000Z AUTO 1/8SM 14/14 A3012 RMK T01400140 IEM_DS3505
ZHHH,2008-11-02 21:00,ZHHH 022100Z AUTO 00000KT 4SM 15/14 A3012 RMK SLP200 T01480142 52001 IEM_DS3505
ZHHH,2008-11-02 22:00,ZHHH 022200Z AUTO 07002KT 1/8SM 14/14 A3012 RMK T01400140 IEM_DS3505
ZHHH,2008-11-02 23:00,ZHHH 022300Z AUTO 08002KT 1/8SM 13/13 A3015 RMK T01300130 IEM_DS3505
ZHHH,2008-11-03 00:00,ZHHH 030000Z AUTO 00000KT 3SM 16/15 A3018 RMK SLP220 T01560154 52020 IEM_DS3505
ZHHH,2008-11-03 01:00,ZHHH 030100Z AUTO 00000KT 1/4SM 15/15 A3018 RMK T01500150 IEM_DS3505
ZHHH,2008-11-03 02:00,ZHHH 030200Z AUTO 1SM 16/16 A3018 RMK T01600160 IEM_DS3505
ZHHH,2008-11-03 03:00,ZHHH 030300Z AUTO 25002KT 9SM 17/15 A3018 RMK SLP219 T01730151 57001 IEM_DS3505
ZHHH,2008-11-03 04:00,ZHHH 030400Z AUTO 24004KT 1 1/4SM 17/17 A3015 RMK T01700170 IEM_DS3505
ZHHH,2008-11-03 05:00,ZHHH 030500Z AUTO 2 1/2SM 17/17 A3015 RMK T01700170 IEM_DS3505
ZHHH,2008-11-03 06:00,ZHHH 030600Z AUTO 00000KT 11SM 19/16 A3012 RMK SLP203 T01880157 57016 IEM_DS3505
ZHHH,2008-11-03 07:00,ZHHH 030700Z AUTO 7SM 18/16 A3012 RMK T01800160 IEM_DS3505
ZHHH,2008-11-03 08:00,ZHHH 030800Z AUTO 30004KT 7SM 19/16 A3012 RMK T01900160 IEM_DS3505
ZHHH,2008-11-03 09:00,ZHHH 030900Z AUTO 04002KT 11SM 19/15 A3012 RMK SLP197 T01860149 57006 IEM_DS3505
ZHHH,2008-11-03 10:00,ZHHH 031000Z AUTO 04004KT 3SM 16/15 A3012 RMK T01600150 IEM_DS3505
ZHHH,2008-11-03 11:00,ZHHH 031100Z AUTO 06004KT 2 1/2SM 15/15 A3012 RMK T01500150 IEM_DS3505
ZHHH,2008-11-03 12:00,ZHHH 031200Z AUTO 07002KT 7SM 16/14 A3012 RMK SLP201 T01560145 52004 IEM_DS3505
ZHHH,2008-11-03 13:00,ZHHH 031300Z AUTO 02002KT 2 1/2SM 14/14 A3015 RMK T01400140 IEM_DS3505
ZHHH,2008-11-03 14:00,ZHHH 031400Z AUTO 00000KT 2SM 14/14 A3015 RMK T01400140 IEM_DS3505
ZHHH,2008-11-03 15:00,ZHHH 031500Z AUTO 27002KT 7SM 14/14 A3015 RMK SLP215 T01430137 52014 IEM_DS3505
ZHHH,2008-11-03 16:00,ZHHH 031600Z AUTO 01002KT 1 1/4SM 13/13 A3015 RMK T01300130 IEM_DS3505
ZHHH,2008-11-03 17:00,ZHHH 031700Z AUTO 00000KT 1 1/4SM 13/13 A3015 RMK T01300130 IEM_DS3505
ZHHH,2008-11-03 18:00,ZHHH 031800Z AUTO 00000KT 7SM 14/13 A3012 RMK SLP199 T01360133 57016 IEM_DS3505
ZHHH,2008-11-03 19:00,ZHHH 031900Z AUTO 07006KT 1/8SM 12/12 A3012 RMK T01200120 IEM_DS3505
ZHHH,2008-11-03 20:00,ZHHH 032000Z AUTO 02002KT 1/4SM 11/11 A3012 RMK T01100110 IEM_DS3505
ZHHH,2008-11-03 21:00,ZHHH 032100Z AUTO 25002KT 6SM 14/14 A3012 RMK SLP204 T01420139 52005 IEM_DS3505
ZHHH,2008-11-03 22:00,ZHHH 032200Z AUTO 09004KT 1SM 13/13 A3012 RMK T01300130 IEM_DS3505
ZHHH,2008-11-03 23:00,ZHHH 032300Z AUTO 00000KT 1SM 13/13 A3012 RMK T01300130 IEM_DS3505
ZHHH,2008-11-04 00:00,ZHHH 040000Z AUTO 04002KT 2 1/2SM 15/14 A3015 RMK SLP209 T01460143 52005 IEM_DS3505
ZHHH,2008-11-04 01:00,ZHHH 040100Z AUTO 08004KT 1SM 14/14 A3015 RMK T01400140 IEM_DS3505
ZHHH,2008-11-04 02:00,ZHHH 040200Z AUTO 09008KT 1SM 15/15 A3015 RMK T01500150 IEM_DS3505
ZHHH,2008-11-04 03:00,ZHHH 040300Z AUTO 04004KT 6SM 18/16 A3012 RMK SLP200 T01810161 57009 IEM_DS3505
ZHHH,2008-11-04 04:00,ZHHH 040400Z AUTO 1SM 16/16 A3012 RMK T01600160 IEM_DS3505
ZHHH,2008-11-04 05:00,ZHHH 040500Z AUTO 1SM 17/17 A3012 RMK T01700170 IEM_DS3505
ZHHH,2008-11-04 06:00,ZHHH 040600Z AUTO 04002KT 7SM 18/16 A3009 RMK SLP187 T01810161 57013 IEM_DS3505
ZHHH,2008-11-04 07:00,ZHHH 040700Z AUTO 12006KT 2SM 18/17 A3006 RMK T01800170 IEM_DS3505
ZHHH,2008-11-04 08:00,ZHHH 040800Z AUTO 1 1/2SM 18/17 A3009 RMK T01800170 IEM_DS3505
ZHHH,2008-11-04 09:00,ZHHH 040900Z AUTO 11002KT 6SM 18/17 A3006 RMK SLP181 T01850167 57006 IEM_DS3505
ZHHH,2008-11-04 10:00,ZHHH 041000Z AUTO 16004KT 1 1/2SM 17/17 A3009 RMK T01700170 IEM_DS3505
ZHHH,2008-11-04 11:00,ZHHH 041100Z AUTO 00000KT 1 1/4SM 16/16 A3009 RMK T01600160 IEM_DS3505
ZHHH,2008-11-04 12:00,ZHHH 041200Z AUTO 29002KT 6SM 17/16 A3009 RMK SLP195 T01660158 52014 IEM_DS3505
ZHHH,2008-11-04 13:00,ZHHH 041300Z AUTO 36004KT 1SM 16/16 A3012 RMK T01600160 IEM_DS3505
ZHHH,2008-11-04 14:00,ZHHH 041400Z AUTO 04004KT 1SM 16/16 A3009 RMK T01600160 IEM_DS3505
ZHHH,2008-11-04 15:00,ZHHH 041500Z AUTO 00000KT 5SM 16/15 A3009 RMK SLP190 T01590154 57005 IEM_DS3505
ZHHH,2008-11-04 16:00,ZHHH 041600Z AUTO 00000KT 1/2SM 15/15 A3009 RMK T01500150 IEM_DS3505
ZHHH,2008-11-04 17:00,ZHHH 041700Z AUTO 08002KT 1/2SM 15/15 A3009 RMK T01500150 IEM_DS3505
ZHHH,2008-11-04 18:00,ZHHH 041800Z AUTO 00000KT 4SM 16/16 A3009 RMK SLP186 T01620159 57004 IEM_DS3505
ZHHH,2008-11-04 19:00,ZHHH 041900Z AUTO 07004KT 1SM 15/15 A3006 RMK T01500150 IEM_DS3505
ZHHH,2008-11-04 20:00,ZHHH 042000Z AUTO 08004KT 1SM 16/16 A3003 RMK T01600160 IEM_DS3505
ZHHH,2008-11-04 21:00,ZHHH 042100Z AUTO 11002KT 6SM 16/16 A3006 RMK SLP178 T01640159 57008 IEM_DS3505
ZHHH,2008-11-04 22:00,ZHHH 042200Z AUTO 00000KT 1 1/4SM 16/16 A3006 RMK T01600160 IEM_DS3505
ZHHH,2008-11-04 23:00,ZHHH 042300Z AUTO 00000KT 1SM 16/16 A3006 RMK T01600160 IEM_DS3505
ZHHH,2008-11-05 00:00,ZHHH 050000Z AUTO 07002KT 6SM 17/16 A3009 RMK SLP187 T01690163 52009 IEM_DS3505
ZHHH,2008-11-05 01:00,ZHHH 050100Z AUTO 03004KT 1SM 17/17 A3009 RMK T01700170 IEM_DS3505
ZHHH,2008-11-05 02:00,ZHHH 050200Z AUTO 07008KT 2SM 20/20 A3009 RMK T02000200 IEM_DS3505
ZHHH,2008-11-05 03:00,ZHHH 050300Z AUTO 07002KT 7SM 21/18 A3009 RMK SLP188 T02100176 52001 IEM_DS3505
ZHHH,2008-11-05 04:00,ZHHH 050400Z AUTO 13004KT 4SM 23/19 A3006 RMK T02300190 IEM_DS3505
ZHHH,2008-11-05 05:00,ZHHH 050500Z AUTO 4SM 23/20 A3003 RMK T02300200 IEM_DS3505
ZHHH,2008-11-05 06:00,ZHHH 050600Z AUTO 07002KT 7SM 23/17 RMK SLP162 T02290171 57026 IEM_DS3505
ZHHH,2008-11-05 07:00,ZHHH 050700Z AUTO 14006KT 5SM 22/19 A3000 RMK T02200190 IEM_DS3505
ZHHH,2008-11-05 08:00,ZHHH 050800Z AUTO 12004KT 5SM 22/19 A3000 RMK T02200190 IEM_DS3505
ZHHH,2008-11-05 09:00,ZHHH 050900Z AUTO 14002KT 9SM 22/17 A2997 RMK SLP154 T02210173 57008 IEM_DS3505
ZHHH,2008-11-05 10:00,ZHHH 051000Z AUTO 6SM 21/18 A3000 RMK T02100180 IEM_DS3505
ZHHH,2008-11-05 11:00,ZHHH 051100Z AUTO 00000KT 6SM 21/18 A3000 RMK T02100180 IEM_DS3505
ZHHH,2008-11-05 12:00,ZHHH 051200Z AUTO 00000KT 7SM 20/18 A3003 RMK SLP167 T02010182 52013 IEM_DS3505
ZHHH,2008-11-05 13:00,ZHHH 051300Z AUTO 11006KT 7SM 20/19 A3000 RMK T02000190 IEM_DS3505
ZHHH,2008-11-05 14:00,ZHHH 051400Z AUTO 00000KT 6SM 20/19 A3003 RMK T02000190 IEM_DS3505
ZHHH,2008-11-05 15:00,ZHHH 051500Z AUTO 00000KT 6SM 20/19 A3003 RMK SLP169 T01950187 52002 IEM_DS3505
ZHHH,2008-11-05 16:00,ZHHH 051600Z AUTO 6SM 19/18 A3003 RMK T01900180 IEM_DS3505
ZHHH,2008-11-05 17:00,ZHHH 051700Z AUTO 14004KT 3SM 19/19 A3000 RMK T01900190 IEM_DS3505
ZHHH,2008-11-05 18:00,ZHHH 051800Z AUTO 04002KT 7SM 19/18 A3000 RMK 60002 SLP157 T01900185 57012 IEM_DS3505
ZHHH,2008-11-05 19:00,ZHHH 051900Z AUTO 08006KT 1 1/4SM 18/18 A2997 RMK T01800180 IEM_DS3505
ZHHH,2008-11-05 21:00,ZHHH 052100Z AUTO 02004KT 5SM 19/18 A2994 RMK 70024 SLP142 T01880183 57015 IEM_DS3505
ZHHH,2008-11-05 22:00,ZHHH 052200Z AUTO 03004KT 1SM 18/18 A2997 RMK T01800180 IEM_DS3505
ZHHH,2008-11-05 23:00,ZHHH 052300Z AUTO 1SM 18/18 A3000 RMK T01800180 IEM_DS3505
ZHHH,2008-11-06 00:00,ZHHH 060000Z AUTO 04004KT 5SM 18/18 A3000 RMK 60071 70071 SLP155 T01850180 52013 IEM_DS3505
ZHHH,2008-11-06 01:00,ZHHH 060100Z AUTO 03008KT 1SM 18/18 A3003 RMK T01800180 IEM_DS3505
ZHHH,2008-11-06 02:00,ZHHH 060200Z AUTO 03010KT 1SM 17/17 A3003 RMK T01700170 IEM_DS3505
ZHHH,2008-11-06 03:00,ZHHH 060300Z AUTO 36004KT 6SM 17/16 A3003 RMK SLP167 T01730162 52012 IEM_DS3505
ZHHH,2008-11-06 04:00,ZHHH 060400Z AUTO 02006KT 1SM 15/15 A3000 RMK T01500150 IEM_DS3505
ZHHH,2008-11-06 05:00,ZHHH 060500Z AUTO 03008KT 1SM 14/14 A2997 RMK T01400140 IEM_DS3505
ZHHH,2008-11-06 06:00,ZHHH 060600Z AUTO 34004KT 3SM 16/14 A2997 RMK 60024 SLP150 T01550145 57017 IEM_DS3505
ZHHH,2008-11-06 07:00,ZHHH 060700Z AUTO 32010KT 1 1/4SM 15/15 A3000 RMK T01500150 IEM_DS3505
ZHHH,2008-11-06 08:00,ZHHH 060800Z AUTO 36006KT 1SM 15/15 A2997 RMK T01500150 IEM_DS3505
ZHHH,2008-11-06 09:00,ZHHH 060900Z AUTO 32002KT 5SM 15/14 A3000 RMK SLP160 T01510140 52010 IEM_DS3505
ZHHH,2008-11-06 10:00,ZHHH 061000Z AUTO 35006KT 1SM 14/14 A3003 RMK T01400140 IEM_DS3505
ZHHH,2008-11-06 11:00,ZHHH 061100Z AUTO 03008KT 1SM 14/14 A3003 RMK T01400140 IEM_DS3505
ZHHH,2008-11-06 12:00,ZHHH 061200Z AUTO 04002KT 6SM 14/13 A3003 RMK 60016 SLP173 T01450132 52013 IEM_DS3505
ZHHH,2008-11-06 13:00,ZHHH 061300Z AUTO 33006KT 2 1/2SM 14/14 A3006 RMK T01400140 IEM_DS3505
ZHHH,2008-11-06 14:00,ZHHH 061400Z AUTO 04004KT 3SM 14/14 A3006 RMK T01400140 IEM_DS3505
ZHHH,2008-11-06 15:00,ZHHH 061500Z AUTO 00000KT 7SM 15/14 A3009 RMK SLP190 T01480135 52017 IEM_DS3505
ZHHH,2008-11-06 16:00,ZHHH 061600Z AUTO 02004KT 3SM 15/14 A3009 RMK T01500140 IEM_DS3505
ZHHH,2008-11-06 17:00,ZHHH 061700Z AUTO 36006KT 3SM 13/13 A3009 RMK T01300130 IEM_DS3505
ZHHH,2008-11-06 18:00,ZHHH 061800Z AUTO 36002KT 7SM 14/13 A3009 RMK 60004 SLP189 T01400126 57001 IEM_DS3505
ZHHH,2008-11-06 19:00,ZHHH 061900Z AUTO 01004KT 3SM 12/12 A3009 RMK T01200120 IEM_DS3505
ZHHH,2008-11-06 20:00,ZHHH 062000Z AUTO 36006KT 3SM 13/13 A3009 RMK T01300130 IEM_DS3505
ZHHH,2008-11-06 21:00,ZHHH 062100Z AUTO 32002KT 7SM 13/12 A3009 RMK 70100 SLP187 T01320121 57002 IEM_DS3505
ZHHH,2008-11-06 22:00,ZHHH 062200Z AUTO 35006KT 3SM 13/13 A3009 RMK T01300130 IEM_DS3505
ZHHH,2008-11-06 23:00,ZHHH 062300Z AUTO 02006KT 4SM 13/12 A3012 RMK T01300120 IEM_DS3505
ZHHH,2008-11-07 00:00,ZHHH 070000Z AUTO 02002KT 7SM 13/11 A3015 RMK 60012 70054 SLP207 T01340111 52020 IEM_DS3505
ZHHH,2008-11-07 01:00,ZHHH 070100Z AUTO 01004KT 4SM 12/12 A3018 RMK T01200120 IEM_DS3505
ZHHH,2008-11-07 02:00,ZHHH 070200Z AUTO 35006KT 5SM 12/12 A3018 RMK T01200120 IEM_DS3505
ZHHH,2008-11-07 03:00,ZHHH 070300Z AUTO 22002KT 6SM 13/11 A3018 RMK SLP218 T01290111 52011 IEM_DS3505
ZHHH,2008-11-07 04:00,ZHHH 070400Z AUTO 34006KT 7SM 12/12 A3015 RMK T01200120 IEM_DS3505
ZHHH,2008-11-07 05:00,ZHHH 070500Z AUTO 35006KT 7SM 13/13 A3015 RMK T01300130 IEM_DS3505
ZHHH,2008-11-07 06:00,ZHHH 070600Z AUTO 29004KT 7SM 14/12 A3012 RMK 60008 SLP202 T01360117 57016 IEM_DS3505
ZHHH,2008-11-07 07:00,ZHHH 070700Z AUTO 36006KT 7SM 13/12 A3012 RMK T01300120 IEM_DS3505
ZHHH,2008-11-07 08:00,ZHHH 070800Z AUTO 36006KT 7SM 14/12 A3015 RMK T01400120 IEM_DS3505
ZHHH,2008-11-07 09:00,ZHHH 070900Z AUTO 34002KT 9SM 14/12 A3018 RMK SLP216 T01390118 52014 IEM_DS3505
ZHHH,2008-11-07 10:00,ZHHH 071000Z AUTO 36006KT 7SM 13/12 A3018 RMK T01300120 IEM_DS3505
ZHHH,2008-11-07 11:00,ZHHH 071100Z AUTO 36004KT 7SM 13/11 A3021 RMK T01300110 IEM_DS3505
ZHHH,2008-11-07 12:00,ZHHH 071200Z AUTO 32002KT 11SM 14/11 A3021 RMK SLP234 T01360110 52018 IEM_DS3505
ZHHH,2008-11-07 13:00,ZHHH 071300Z AUTO 36006KT 7SM 13/11 A3024 RMK T01300110 IEM_DS3505
ZHHH,2008-11-07 14:00,ZHHH 071400Z AUTO 02006KT 7SM 13/11 A3024 RMK T01300110 IEM_DS3505
ZHHH,2008-11-07 15:00,ZHHH 071500Z AUTO 36004KT 11SM 14/10 A3024 RMK SLP241 T01370101 52006 IEM_DS3505
ZHHH,2008-11-07 16:00,ZHHH 071600Z AUTO 02004KT 7SM 13/11 A3024 RMK T01300110 IEM_DS3505
ZHHH,2008-11-07 17:00,ZHHH 071700Z AUTO 02006KT 7SM 13/11 A3024 RMK T01300110 IEM_DS3505
ZHHH,2008-11-07 18:00,ZHHH 071800Z AUTO 34002KT 11SM 14/11 A3021 RMK SLP235 T01350107 57005 IEM_DS3505
ZHHH,2008-11-07 19:00,ZHHH 071900Z AUTO 35004KT 7SM 13/11 A3021 RMK T01300110 IEM_DS3505
ZHHH,2008-11-07 20:00,ZHHH 072000Z AUTO 35004KT 7SM 13/11 A3021 RMK T01300110 IEM_DS3505
ZHHH,2008-11-07 21:00,ZHHH 072100Z AUTO 34002KT 9SM 13/11 A3024 RMK 70007 SLP237 T01320111 52002 IEM_DS3505
ZHHH,2008-11-07 22:00,ZHHH 072200Z AUTO 01004KT 7SM 13/12 A3024 RMK T01300120 IEM_DS3505
ZHHH,2008-11-07 23:00,ZHHH 072300Z AUTO 01006KT 7SM 13/12 A3027 RMK T01300120 IEM_DS3505
ZHHH,2008-11-08 00:00,ZHHH 080000Z AUTO 02002KT 9SM 14/12 A3027 RMK 70006 SLP255 T01350116 52017 IEM_DS3505
ZHHH,2008-11-08 01:00,ZHHH 080100Z AUTO 03006KT 5SM 13/12 A3030 RMK T01300120 IEM_DS3505
ZHHH,2008-11-08 02:00,ZHHH 080200Z AUTO 05010KT 5SM 14/12 A3030 RMK T01400120 IEM_DS3505
ZHHH,2008-11-08 03:00,ZHHH 080300Z AUTO 09004KT 9SM 14/11 A3030 RMK SLP264 T01410114 52009 IEM_DS3505
ZHHH,2008-11-08 04:00,ZHHH 080400Z AUTO 07010KT 7SM 16/13 A3030 RMK T01600130 IEM_DS3505
ZHHH,2008-11-08 05:00,ZHHH 080500Z AUTO 06010KT 7SM 16/12 A3027 RMK T01600120 IEM_DS3505
ZHHH,2008-11-08 06:00,ZHHH 080600Z AUTO 09004KT 12SM 16/11 A3027 RMK SLP251 T01560114 57012 IEM_DS3505
ZHHH,2008-11-08 07:00,ZHHH 080700Z AUTO 10006KT 7SM 16/12 A3027 RMK T01600120 IEM_DS3505
ZHHH,2008-11-08 08:00,ZHHH 080800Z AUTO 6SM 16/12 A3027 RMK T01600120 IEM_DS3505
ZHHH,2008-11-08 09:00,ZHHH 080900Z AUTO 07002KT 12SM 16/11 A3027 RMK SLP249 T01570113 57002 IEM_DS3505
ZHHH,2008-11-08 10:00,ZHHH 081000Z AUTO 7SM 15/13 A3027 RMK T01500130 IEM_DS3505
ZHHH,2008-11-08 11:00,ZHHH 081100Z AUTO 00000KT 7SM 15/13 A3030 RMK T01500130 IEM_DS3505
ZHHH,2008-11-08 12:00,ZHHH 081200Z AUTO 00000KT 9SM 14/12 A3030 RMK SLP267 T01440124 52017 IEM_DS3505
ZHHH,2008-11-08 13:00,ZHHH 081300Z AUTO 02004KT 6SM 13/10 A3033 RMK T01300100 IEM_DS3505
ZHHH,2008-11-08 14:00,ZHHH 081400Z AUTO 05006KT 6SM 12/09 A3033 RMK T01200090 IEM_DS3505
ZHHH,2008-11-08 15:00,ZHHH 081500Z AUTO 04002KT 9SM 12/08 A3033 RMK SLP273 T01250084 52006 IEM_DS3505
ZHHH,2008-11-08 16:00,ZHHH 081600Z AUTO 05006KT 6SM 11/09 A3033 RMK T01100090 IEM_DS3505
ZHHH,2008-11-08 17:00,ZHHH 081700Z AUTO 04006KT 6SM 11/08 A3033 RMK T01100080 IEM_DS3505
ZHHH,2008-11-08 18:00,ZHHH 081800Z AUTO 02004KT 11SM 11/07 A3033 RMK SLP272 T01140073 57001 IEM_DS3505
ZHHH,2008-11-08 19:00,ZHHH 081900Z AUTO 04004KT 6SM 10/08 A3033 RMK T01000080 IEM_DS3505
ZHHH,2008-11-08 20:00,ZHHH 082000Z AUTO 01004KT 6SM 09/07 A3033 RMK T00900070 IEM_DS3505
ZHHH,2008-11-08 21:00,ZHHH 082100Z AUTO 04002KT 11SM 10/06 A3033 RMK SLP273 T01050063 52001 IEM_DS3505
ZHHH,2008-11-08 22:00,ZHHH 082200Z AUTO 6SM 09/08 A3036 RMK T00900080 IEM_DS3505
ZHHH,2008-11-08 23:00,ZHHH 082300Z AUTO 05006KT 6SM 09/07 A3036 RMK T00900070 IEM_DS3505
ZHHH,2008-11-09 00:00,ZHHH 090000Z AUTO 07002KT 12SM 11/07 A3039 RMK SLP290 T01130074 52017 IEM_DS3505
ZHHH,2008-11-09 01:00,ZHHH 090100Z AUTO 08004KT 6SM 12/09 A3039 RMK T01200090 IEM_DS3505
ZHHH,2008-11-09 02:00,ZHHH 090200Z AUTO 07004KT 6SM 14/09 A3042 RMK T01400090 IEM_DS3505
ZHHH,2008-11-09 03:00,ZHHH 090300Z AUTO 04002KT 11SM 14/07 A3042 RMK SLP298 T01440067 52008 IEM_DS3505
ZHHH,2008-11-09 04:00,ZHHH 090400Z AUTO 04008KT 6SM 17/06 A3039 RMK T01700060 IEM_DS3505
ZHHH,2008-11-09 05:00,ZHHH 090500Z AUTO 08006KT 6SM 17/08 A3036 RMK T01700080 IEM_DS3505
ZHHH,2008-11-09 06:00,ZHHH 090600Z AUTO 04002KT 12SM 17/05 A3033 RMK SLP275 T01740050 57023 IEM_DS3505
ZHHH,2008-11-09 07:00,ZHHH 090700Z AUTO 03004KT 6SM 18/06 A3033 RMK T01800060 IEM_DS3505
ZHHH,2008-11-09 08:00,ZHHH 090800Z AUTO 04004KT 6SM 17/06 A3033 RMK T01700060 IEM_DS3505
ZHHH,2008-11-09 09:00,ZHHH 090900Z AUTO 04004KT 16SM 16/04 A3033 RMK SLP273 T01630037 57002 IEM_DS3505
ZHHH,2008-11-09 10:00,ZHHH 091000Z AUTO 03006KT 6SM 14/07 A3036 RMK T01400070 IEM_DS3505
ZHHH,2008-11-09 11:00,ZHHH 091100Z AUTO 04008KT 6SM 13/07 A3036 RMK T01300070 IEM_DS3505
ZHHH,2008-11-09 12:00,ZHHH 091200Z AUTO 02004KT 12SM 13/05 A3039 RMK SLP291 T01330050 52018 IEM_DS3505
ZHHH,2008-11-09 13:00,ZHHH 091300Z AUTO 04010KT 6SM 12/06 A3039 RMK T01200060 IEM_DS3505
ZHHH,2008-11-09 14:00,ZHHH 091400Z AUTO 04008KT 6SM 11/06 A3042 RMK T01100060 IEM_DS3505
ZHHH,2008-11-09 15:00,ZHHH 091500Z AUTO 02002KT 12SM 11/04 A3042 RMK SLP299 T01130043 52008 IEM_DS3505
ZHHH,2008-11-09 16:00,ZHHH 091600Z AUTO 03004KT 6SM 10/06 A3039 RMK T01000060 IEM_DS3505
ZHHH,2008-11-09 17:00,ZHHH 091700Z AUTO 04006KT 6SM 09/06 A3039 RMK T00900060 IEM_DS3505
ZHHH,2008-11-09 18:00,ZHHH 091800Z AUTO 02004KT 11SM 10/04 A3039 RMK SLP293 T01000042 57006 IEM_DS3505
ZHHH,2008-11-09 19:00,ZHHH 091900Z AUTO 05006KT 6SM 08/05 A3039 RMK T00800050 IEM_DS3505
ZHHH,2008-11-09 20:00,ZHHH 092000Z AUTO 01004KT 6SM 08/05 A3039 RMK T00800050 IEM_DS3505
ZHHH,2008-11-09 21:00,ZHHH 092100Z AUTO 04004KT 12SM 09/04 A3039 RMK SLP295 T00930037 52002 IEM_DS3505
ZHHH,2008-11-09 22:00,ZHHH 092200Z AUTO 04006KT 6SM 08/05 A3039 RMK T00800050 IEM_DS3505
ZHHH,2008-11-09 23:00,ZHHH 092300Z AUTO 07006KT 6SM 07/05 A3042 RMK T00700050 IEM_DS3505
ZHHH,2008-11-10 00:00,ZHHH 100000Z AUTO 07004KT 12SM 10/05 A3042 RMK SLP306 T00980048 52011 IEM_DS3505
ZHHH,2008-11-10 01:00,ZHHH 100100Z AUTO 06008KT 6SM 11/07 A3045 RMK T01100070 IEM_DS3505
ZHHH,2008-11-10 02:00,ZHHH 100200Z AUTO 09008KT 6SM 13/07 A3045 RMK T01300070 IEM_DS3505
ZHHH,2008-11-10 03:00,ZHHH 100300Z AUTO 09002KT 16SM 14/06 A3042 RMK SLP303 T01390060 57003 IEM_DS3505
ZHHH,2008-11-10 04:00,ZHHH 100400Z AUTO 6SM 15/07 A3039 RMK T01500070 IEM_DS3505
ZHHH,2008-11-10 05:00,ZHHH 100500Z AUTO 29006KT 6SM 16/07 A3036 RMK T01600070 IEM_DS3505
ZHHH,2008-11-10 06:00,ZHHH 100600Z AUTO 07002KT 12SM 15/04 A3033 RMK SLP276 T01530044 57027 IEM_DS3505
ZHHH,2008-11-10 07:00,ZHHH 100700Z AUTO 6SM 16/07 A3033 RMK T01600070 IEM_DS3505
ZHHH,2008-11-10 08:00,ZHHH 100800Z AUTO 6SM 16/08 A3030 RMK T01600080 IEM_DS3505
ZHHH,2008-11-10 09:00,ZHHH 100900Z AUTO 07002KT 9SM 14/05 A3033 RMK SLP267 T01440047 57009 IEM_DS3505
ZHHH,2008-11-10 10:00,ZHHH 101000Z AUTO 20004KT 6SM 13/08 A3033 RMK T01300080 IEM_DS3505
ZHHH,2008-11-10 11:00,ZHHH 101100Z AUTO 00000KT 6SM 12/08 A3033 RMK T01200080 IEM_DS3505
ZHHH,2008-11-10 12:00,ZHHH 101200Z AUTO 34002KT 9SM 10/08 A3036 RMK SLP275 T00990082 52008 IEM_DS3505
ZHHH,2008-11-10 13:00,ZHHH 101300Z AUTO 04004KT 6SM 11/06 A3036 RMK T01100060 IEM_DS3505
ZHHH,2008-11-10 14:00,ZHHH 101400Z AUTO 03004KT 6SM 10/06 A3036 RMK T01000060 IEM_DS3505
ZHHH,2008-11-10 15:00,ZHHH 101500Z AUTO 02004KT 9SM 11/05 A3036 RMK SLP286 T01100047 52011 IEM_DS3505
ZHHH,2008-11-10 16:00,ZHHH 101600Z AUTO 04004KT 6SM 09/06 A3036 RMK T00900060 IEM_DS3505
ZHHH,2008-11-10 17:00,ZHHH 101700Z AUTO 06004KT 6SM 09/06 A3036 RMK T00900060 IEM_DS3505
ZHHH,2008-11-10 18:00,ZHHH 101800Z AUTO 04002KT 12SM 10/05 A3036 RMK SLP279 T00980052 57007 IEM_DS3505
ZHHH,2008-11-10 19:00,ZHHH 101900Z AUTO 00000KT 6SM 08/06 A3036 RMK T00800060 IEM_DS3505
ZHHH,2008-11-10 20:00,ZHHH 102000Z AUTO 00000KT 6SM 08/06 A3036 RMK T00800060 IEM_DS3505
ZHHH,2008-11-10 21:00,ZHHH 102100Z AUTO 07002KT 12SM 08/06 A3033 RMK SLP275 T00800055 57004 IEM_DS3505
ZHHH,2008-11-10 22:00,ZHHH 102200Z AUTO 06004KT 6SM 07/05 A3036 RMK T00700050 IEM_DS3505
ZHHH,2008-11-10 23:00,ZHHH 102300Z AUTO 02002KT 6SM 07/05 A3036 RMK T00700050 IEM_DS3505
ZHHH,2008-11-11 00:00,ZHHH 110000Z AUTO 36002KT 12SM 10/06 A3039 RMK SLP291 T00950060 52016 IEM_DS3505
ZHHH,2008-11-11 01:00,ZHHH 110100Z AUTO 08006KT 6SM 11/08 A3039 RMK T01100080 IEM_DS3505
ZHHH,2008-11-11 02:00,ZHHH 110200Z AUTO 09006KT 6SM 13/08 A3039 RMK T01300080 IEM_DS3505
ZHHH,2008-11-11 03:00,ZHHH 110300Z AUTO 16002KT 11SM 14/07 A3039 RMK SLP288 T01450066 57003 IEM_DS3505
ZHHH,2008-11-11 04:00,ZHHH 110400Z AUTO 23004KT 4SM 15/09 A3036 RMK T01500090 IEM_DS3505
ZHHH,2008-11-11 05:00,ZHHH 110500Z AUTO 4SM 15/09 A3033 RMK T01500090 IEM_DS3505
ZHHH,2008-11-11 06:00,ZHHH 110600Z AUTO 02002KT 9SM 16/06 A3027 RMK SLP253 T01570064 57035 IEM_DS3505
ZHHH,2008-11-11 07:00,ZHHH 110700Z AUTO 4SM 17/09 A3027 RMK T01700090 IEM_DS3505
ZHHH,2008-11-11 08:00,ZHHH 110800Z AUTO 14004KT 4SM 16/08 A3024 RMK T01600080 IEM_DS3505
ZHHH,2008-11-11 09:00,ZHHH 110900Z AUTO 02002KT 9SM 15/04 A3024 RMK SLP242 T01470044 57011 IEM_DS3505
ZHHH,2008-11-11 10:00,ZHHH 111000Z AUTO 13004KT 4SM 13/08 A3024 RMK T01300080 IEM_DS3505
ZHHH,2008-11-11 11:00,ZHHH 111100Z AUTO 12004KT 3SM 13/08 A3024 RMK T01300080 IEM_DS3505
ZHHH,2008-11-11 12:00,ZHHH 111200Z AUTO 00000KT 11SM 11/07 A3027 RMK SLP247 T01070068 52005 IEM_DS3505
ZHHH,2008-11-11 13:00,ZHHH 111300Z AUTO 2 1/2SM 12/10 A3027 RMK T01200100 IEM_DS3505
ZHHH,2008-11-11 14:00,ZHHH 111400Z AUTO 00000KT 2 1/2SM 11/08 A3027 RMK T01100080 IEM_DS3505
ZHHH,2008-11-11 15:00,ZHHH 111500Z AUTO 07002KT 7SM 09/08 A3027 RMK SLP251 T00920081 52004 IEM_DS3505
ZHHH,2008-11-11 16:00,ZHHH 111600Z AUTO 07006KT 2SM 10/08 A3027 RMK T01000080 IEM_DS3505
ZHHH,2008-11-11 17:00,ZHHH 111700Z AUTO 07006KT 2SM 09/08 A3027 RMK T00900080 IEM_DS3505
ZHHH,2008-11-11 18:00,ZHHH 111800Z AUTO 11002KT 7SM 10/09 A3024 RMK SLP242 T00960091 57009 IEM_DS3505
ZHHH,2008-11-11 19:00,ZHHH 111900Z AUTO 10006KT 2SM 08/08 A3024 RMK T00800080 IEM_DS3505
ZHHH,2008-11-11 20:00,ZHHH 112000Z AUTO 06004KT 2SM 08/07 A3024 RMK T00800070 IEM_DS3505
ZHHH,2008-11-11 21:00,ZHHH 112100Z AUTO 09002KT 7SM 08/07 A3021 RMK SLP235 T00780067 57007 IEM_DS3505
ZHHH,2008-11-11 22:00,ZHHH 112200Z AUTO 06006KT 1 1/4SM 07/07 A3021 RMK T00700070 IEM_DS3505
ZHHH,2008-11-11 23:00,ZHHH 112300Z AUTO 08006KT 1SM 07/07 A3021 RMK T00700070 IEM_DS3505
ZHHH,2008-11-12 00:00,ZHHH 120000Z AUTO 09002KT 11SM 10/06 A3024 RMK SLP243 T01010064 52008 IEM_DS3505
ZHHH,2008-11-12 01:00,ZHHH 120100Z AUTO 10008KT 2SM 10/09 A3027 RMK T01000090 IEM_DS3505
ZHHH,2008-11-12 02:00,ZHHH 120200Z AUTO 10006KT 3SM 13/10 A3027 RMK T01300100 IEM_DS3505
ZHHH,2008-11-12 03:00,ZHHH 120300Z AUTO 07004KT 12SM 16/04 A3024 RMK SLP243 T01570041 54000 IEM_DS3505
ZHHH,2008-11-12 04:00,ZHHH 120400Z AUTO 13006KT 6SM 16/08 A3021 RMK T01600080 IEM_DS3505
ZHHH,2008-11-12 05:00,ZHHH 120500Z AUTO 12006KT 6SM 17/07 A3018 RMK T01700070 IEM_DS3505
ZHHH,2008-11-12 06:00,ZHHH 120600Z AUTO 09004KT 11SM 18/04 A3015 RMK SLP210 T01840035 57032 IEM_DS3505
ZHHH,2008-11-12 07:00,ZHHH 120700Z AUTO 12006KT 6SM 17/08 A3015 RMK T01700080 IEM_DS3505
ZHHH,2008-11-12 08:00,ZHHH 120800Z AUTO 12006KT 6SM 17/06 A3012 RMK T01700060 IEM_DS3505
ZHHH,2008-11-12 09:00,ZHHH 120900Z AUTO 11002KT 11SM 17/04 A3012 RMK SLP203 T01700043 57008 IEM_DS3505
ZHHH,2008-11-12 10:00,ZHHH 121000Z AUTO 08006KT 6SM 14/08 A3012 RMK T01400080 IEM_DS3505
ZHHH,2008-11-12 11:00,ZHHH 121100Z AUTO 09008KT 6SM 13/08 A3012 RMK T01300080 IEM_DS3505
ZHHH,2008-11-12 12:00,ZHHH 121200Z AUTO 34002KT 11SM 12/08 A3015 RMK SLP209 T01170080 52006 IEM_DS3505
ZHHH,2008-11-12 13:00,ZHHH 121300Z AUTO 07004KT 6SM 12/07 A3015 RMK T01200070 IEM_DS3505
ZHHH,2008-11-12 14:00,ZHHH 121400Z AUTO 06006KT 6SM 11/07 A3018 RMK T01100070 IEM_DS3505
ZHHH,2008-11-12 15:00,ZHHH 121500Z AUTO 07002KT 9SM 10/08 A3018 RMK SLP222 T00950084 52013 IEM_DS3505
ZHHH,2008-11-12 16:00,ZHHH 121600Z AUTO 07006KT 6SM 10/07 A3018 RMK T01000070 IEM_DS3505
ZHHH,2008-11-12 17:00,ZHHH 121700Z AUTO 07006KT 6SM 10/07 A3021 RMK T01000070 IEM_DS3505
ZHHH,2008-11-12 18:00,ZHHH 121800Z AUTO 04002KT 11SM 10/08 A3021 RMK SLP228 T00990083 52007 IEM_DS3505
ZHHH,2008-11-12 19:00,ZHHH 121900Z AUTO 07004KT 6SM 09/07 A3021 RMK T00900070 IEM_DS3505
ZHHH,2008-11-12 20:00,ZHHH 122000Z AUTO 07004KT 6SM 09/07 A3021 RMK T00900070 IEM_DS3505
ZHHH,2008-11-12 21:00,ZHHH 122100Z AUTO 04002KT 11SM 10/08 A3021 RMK SLP229 T00970080 52001 IEM_DS3505
ZHHH,2008-11-12 22:00,ZHHH 122200Z AUTO 07004KT 6SM 08/07 A3024 RMK T00800070 IEM_DS3505
ZHHH,2008-11-12 23:00,ZHHH 122300Z AUTO 10004KT 6SM 08/07 A3024 RMK T00800070 IEM_DS3505
ZHHH,2008-11-13 00:00,ZHHH 130000Z AUTO 09002KT 11SM 11/08 A3024 RMK SLP245 T01100082 52015 IEM_DS3505
ZHHH,2008-11-13 01:00,ZHHH 130100Z AUTO 11006KT 6SM 12/09 A3024 RMK T01200090 IEM_DS3505
ZHHH,2008-11-13 02:00,ZHHH 130200Z AUTO 6SM 15/10 A3027 RMK T01500100 IEM_DS3505
ZHHH,2008-11-13 03:00,ZHHH 130300Z AUTO 29002KT 9SM 17/07 A3024 RMK SLP242 T01710072 57003 IEM_DS3505
ZHHH,2008-11-13 04:00,ZHHH 130400Z AUTO 6SM 18/08 A3024 RMK T01800080 IEM_DS3505
ZHHH,2008-11-13 05:00,ZHHH 130500Z AUTO 31004KT 6SM 19/08 A3018 RMK T01900080 IEM_DS3505
ZHHH,2008-11-13 06:00,ZHHH 130600Z AUTO 04002KT 9SM 19/06 A3018 RMK SLP215 T01880060 57026 IEM_DS3505
ZHHH,2008-11-13 07:00,ZHHH 130700Z AUTO 6SM 20/08 A3015 RMK T02000080 IEM_DS3505
ZHHH,2008-11-13 08:00,ZHHH 130800Z AUTO 16004KT 6SM 19/07 A3015 RMK T01900070 IEM_DS3505
ZHHH,2008-11-13 09:00,ZHHH 130900Z AUTO 04002KT 9SM 18/03 A3015 RMK SLP210 T01770028 57005 IEM_DS3505
ZHHH,2008-11-13 10:00,ZHHH 131000Z AUTO 00000KT 6SM 15/08 A3015 RMK T01500080 IEM_DS3505
ZHHH,2008-11-13 11:00,ZHHH 131100Z AUTO 6SM 15/08 A3015 RMK T01500080 IEM_DS3505
ZHHH,2008-11-13 12:00,ZHHH 131200Z AUTO 00000KT 9SM 11/10 A3018 RMK SLP218 T01140095 52007 IEM_DS3505
ZHHH,2008-11-13 13:00,ZHHH 131300Z AUTO 00000KT 6SM 14/08 A3018 RMK T01400080 IEM_DS3505
ZHHH,2008-11-13 14:00,ZHHH 131400Z AUTO 03004KT 6SM 13/09 A3018 RMK T01300090 IEM_DS3505
ZHHH,2008-11-13 15:00,ZHHH 131500Z AUTO 07002KT 11SM 11/09 A3021 RMK SLP225 T01140093 52008 IEM_DS3505
ZHHH,2008-11-13 16:00,ZHHH 131600Z AUTO 04004KT 6SM 12/09 A3018 RMK T01200090 IEM_DS3505
ZHHH,2008-11-13 17:00,ZHHH 131700Z AUTO 08006KT 6SM 12/08 A3018 RMK T01200080 IEM_DS3505
ZHHH,2008-11-13 18:00,ZHHH 131800Z AUTO 00000KT 9SM 10/09 A3018 RMK SLP217 T00990087 57008 IEM_DS3505
ZHHH,2008-11-13 19:00,ZHHH 131900Z AUTO 00000KT 6SM 10/08 A3015 RMK T01000080 IEM_DS3505
ZHHH,2008-11-13 20:00,ZHHH 132000Z AUTO 06004KT 6SM 10/09 A3015 RMK T01000090 IEM_DS3505
ZHHH,2008-11-13 21:00,ZHHH 132100Z AUTO 00000KT 9SM 09/08 A3015 RMK SLP214 T00940085 57003 IEM_DS3505
ZHHH,2008-11-13 22:00,ZHHH 132200Z AUTO 06002KT 6SM 10/08 A3018 RMK T01000080 IEM_DS3505
ZHHH,2008-11-13 23:00,ZHHH 132300Z AUTO 10004KT 4SM 10/08 A3018 RMK T01000080 IEM_DS3505
ZHHH,2008-11-14 00:00,ZHHH 140000Z AUTO 09002KT 9SM 11/10 A3018 RMK SLP225 T01120098 52010 IEM_DS3505
ZHHH,2008-11-14 01:00,ZHHH 140100Z AUTO 09006KT 1 1/2SM 13/11 A3021 RMK T01300110 IEM_DS3505
ZHHH,2008-11-14 02:00,ZHHH 140200Z AUTO 05004KT 3SM 16/12 A3021 RMK T01600120 IEM_DS3505
ZHHH,2008-11-14 03:00,ZHHH 140300Z AUTO 02004KT 11SM 17/09 RMK SLP228 T01730090 52004 IEM_DS3505
ZHHH,2008-11-14 04:00,ZHHH 140400Z AUTO 10004KT 3SM 18/10 A3015 RMK T01800100 IEM_DS3505
ZHHH,2008-11-14 05:00,ZHHH 140500Z AUTO 15004KT 4SM 19/10 A3012 RMK T01900100 IEM_DS3505
ZHHH,2008-11-14 06:00,ZHHH 140600Z AUTO 07002KT 9SM 20/09 A3009 RMK SLP188 T01980091 57040 IEM_DS3505
ZHHH,2008-11-14 07:00,ZHHH 140700Z AUTO 09004KT 4SM 20/11 A3009 RMK T02000110 IEM_DS3505
ZHHH,2008-11-14 08:00,ZHHH 140800Z AUTO 4SM 19/10 A3006 RMK T01900100 IEM_DS3505
ZHHH,2008-11-14 09:00,ZHHH 140900Z AUTO 09002KT 11SM 18/08 A3006 RMK SLP181 T01820085 57007 IEM_DS3505
ZHHH,2008-11-14 10:00,ZHHH 141000Z AUTO 08006KT 4SM 16/11 A3009 RMK T01600110 IEM_DS3505
ZHHH,2008-11-14 11:00,ZHHH 141100Z AUTO 08006KT 3SM 16/11 A3009 RMK T01600110 IEM_DS3505
ZHHH,2008-11-14 12:00,ZHHH 141200Z AUTO 04002KT 11SM 13/11 A3009 RMK SLP195 T01310108 52013 IEM_DS3505
ZHHH,2008-11-14 13:00,ZHHH 141300Z AUTO 06004KT 3SM 15/10 A3009 RMK T01500100 IEM_DS3505
ZHHH,2008-11-14 14:00,ZHHH 141400Z AUTO 04006KT 3SM 13/10 A3009 RMK T01300100 IEM_DS3505
ZHHH,2008-11-14 15:00,ZHHH 141500Z AUTO 07002KT 11SM 12/10 A3009 RMK SLP192 T01220096 57002 IEM_DS3505
ZHHH,2008-11-14 16:00,ZHHH 141600Z AUTO 04006KT 3SM 12/10 A3009 RMK T01200100 IEM_DS3505
ZHHH,2008-11-14 17:00,ZHHH 141700Z AUTO 36002KT 2 1/2SM 12/10 A3009 RMK T01200100 IEM_DS3505
ZHHH,2008-11-14 18:00,ZHHH 141800Z AUTO 36002KT 9SM 13/10 A3009 RMK SLP193 T01290097 52001 IEM_DS3505
ZHHH,2008-11-14 19:00,ZHHH 141900Z AUTO 05006KT 2SM 11/10 A3009 RMK T01100100 IEM_DS3505
ZHHH,2008-11-14 20:00,ZHHH 142000Z AUTO 05006KT 1 1/4SM 12/10 A3009 RMK T01200100 IEM_DS3505
ZHHH,2008-11-14 21:00,ZHHH 142100Z AUTO 02002KT 9SM 12/10 A3012 RMK SLP196 T01250095 52003 IEM_DS3505
ZHHH,2008-11-14 22:00,ZHHH 142200Z AUTO 1SM 11/10 A3012 RMK T01100100 IEM_DS3505
ZHHH,2008-11-14 23:00,ZHHH 142300Z AUTO 04006KT 1SM 11/10 A3015 RMK T01100100 IEM_DS3505
ZHHH,2008-11-15 00:00,ZHHH 150000Z AUTO 04004KT 7SM 12/09 A3015 RMK SLP211 T01210093 52014 IEM_DS3505
ZHHH,2008-11-15 01:00,ZHHH 150100Z AUTO 05006KT 1SM 12/10 A3015 RMK T01200100 IEM_DS3505
ZHHH,2008-11-15 02:00,ZHHH 150200Z AUTO 03004KT 1SM 12/10 A3018 RMK T01200100 IEM_DS3505
ZHHH,2008-11-15 03:00,ZHHH 150300Z AUTO 36004KT 7SM 14/10 A3015 RMK SLP211 T01400098 52001 IEM_DS3505
ZHHH,2008-11-15 04:00,ZHHH 150400Z AUTO 30006KT 1SM 16/12 A3015 RMK T01600120 IEM_DS3505
ZHHH,2008-11-15 05:00,ZHHH 150500Z AUTO 01004KT 1SM 16/12 A3012 RMK T01600120 IEM_DS3505
ZHHH,2008-11-15 06:00,ZHHH 150600Z AUTO 04004KT 7SM 16/10 A3009 RMK SLP194 T01650101 57017 IEM_DS3505
ZHHH,2008-11-15 07:00,ZHHH 150700Z AUTO 35004KT 1SM 17/12 A3009 RMK T01700120 IEM_DS3505
ZHHH,2008-11-15 08:00,ZHHH 150800Z AUTO 06010KT 1SM 16/12 A3009 RMK T01600120 IEM_DS3505
ZHHH,2008-11-15 09:00,ZHHH 150900Z AUTO 04004KT 6SM 16/10 A3009 RMK SLP187 T01580099 57007 IEM_DS3505
ZHHH,2008-11-15 10:00,ZHHH 151000Z AUTO 05010KT 1SM 14/11 A3009 RMK T01400110 IEM_DS3505
ZHHH,2008-11-15 11:00,ZHHH 151100Z AUTO 04006KT 1SM 13/10 A3012 RMK T01300100 IEM_DS3505
ZHHH,2008-11-15 12:00,ZHHH 151200Z AUTO 04004KT 6SM 13/09 A3012 RMK SLP199 T01340093 52012 IEM_DS3505
ZHHH,2008-11-15 13:00,ZHHH 151300Z AUTO 1SM 13/11 A3012 RMK T01300110 IEM_DS3505
ZHHH,2008-11-15 14:00,ZHHH 151400Z AUTO 03006KT 1SM 13/10 A3012 RMK T01300100 IEM_DS3505
ZHHH,2008-11-15 15:00,ZHHH 151500Z AUTO 32002KT 6SM 13/10 A3015 RMK SLP210 T01310095 52011 IEM_DS3505
ZHHH,2008-11-15 16:00,ZHHH 151600Z AUTO 00000KT 1 1/4SM 13/10 A3015 RMK T01300100 IEM_DS3505
ZHHH,2008-11-15 17:00,ZHHH 151700Z AUTO 00000KT 1 1/4SM 12/11 A3015 RMK T01200110 IEM_DS3505
ZHHH,2008-11-15 18:00,ZHHH 151800Z AUTO 14002KT 7SM 13/10 A3015 RMK SLP208 T01280102 57002 IEM_DS3505
ZHHH,2008-11-15 19:00,ZHHH 151900Z AUTO 00000KT 1 1/4SM 12/10 A3015 RMK T01200100 IEM_DS3505
ZHHH,2008-11-15 20:00,ZHHH 152000Z AUTO 1 1/4SM 12/11 A3015 RMK T01200110 IEM_DS3505
ZHHH,2008-11-15 21:00,ZHHH 152100Z AUTO 00000KT 9SM 12/10 A3012 RMK SLP205 T01240100 57003 IEM_DS3505
ZHHH,2008-11-15 22:00,ZHHH 152200Z AUTO 00000KT 1 1/4SM 12/10 A3015 RMK T01200100 IEM_DS3505
ZHHH,2008-11-15 23:00,ZHHH 152300Z AUTO 00000KT 1 1/4SM 12/10 A3015 RMK T01200100 IEM_DS3505
ZHHH,2008-11-16 00:00,ZHHH 160000Z AUTO 04004KT 11SM 12/09 A3015 RMK SLP211 T01250093 52006 IEM_DS3505
ZHHH,2008-11-16 01:00,ZHHH 160100Z AUTO 00000KT 1SM 12/11 A3018 RMK T01200110 IEM_DS3505
ZHHH,2008-11-16 02:00,ZHHH 160200Z AUTO 04004KT 1 1/4SM 13/11 A3015 RMK T01300110 IEM_DS3505
ZHHH,2008-11-16 03:00,ZHHH 160300Z AUTO 34002KT 9SM 13/10 A3015 RMK SLP212 T01340098 52001 IEM_DS3505
ZHHH,2008-11-16 04:00,ZHHH 160400Z AUTO 1 1/4SM 14/11 A3015 RMK T01400110 IEM_DS3505
ZHHH,2008-11-16 05:00,ZHHH 160500Z AUTO 04004KT 1 1/4SM 15/11 A3009 RMK T01500110 IEM_DS3505
ZHHH,2008-11-16 06:00,ZHHH 160600Z AUTO 34004KT 9SM 15/10 A3009 RMK SLP186 T01480100 57026 IEM_DS3505
ZHHH,2008-11-16 07:00,ZHHH 160700Z AUTO 04004KT 1 1/4SM 14/11 A3006 RMK T01400110 IEM_DS3505
ZHHH,2008-11-16 08:00,ZHHH 160800Z AUTO 1 1/4SM 14/11 A3006 RMK T01400110 IEM_DS3505
ZHHH,2008-11-16 09:00,ZHHH 160900Z AUTO 36002KT 7SM 14/10 RMK SLP185 T01440102 57001 IEM_DS3505
ZHHH,2008-11-16 10:00,ZHHH 161000Z AUTO 1SM 13/11 A3009 RMK T01300110 IEM_DS3505
ZHHH,2008-11-16 11:00,ZHHH 161100Z AUTO 04006KT 1SM 12/11 A3009 RMK T01200110 IEM_DS3505
ZHHH,2008-11-16 12:00,ZHHH 161200Z AUTO 04002KT 6SM 13/10 A3012 RMK SLP200 T01310105 52015 IEM_DS3505
ZHHH,2008-11-16 13:00,ZHHH 161300Z AUTO 06002KT 1SM 12/11 A3012 RMK T01200110 IEM_DS3505
ZHHH,2008-11-16 14:00,ZHHH 161400Z AUTO 34004KT 1 1/4SM 12/11 A3015 RMK T01200110 IEM_DS3505
ZHHH,2008-11-16 15:00,ZHHH 161500Z AUTO 32004KT 6SM 13/10 A3018 RMK SLP216 T01260105 52016 IEM_DS3505
ZHHH,2008-11-16 16:00,ZHHH 161600Z AUTO 1SM 12/11 A3018 RMK T01200110 IEM_DS3505
ZHHH,2008-11-16 17:00,ZHHH 161700Z AUTO 1SM 12/11 A3018 RMK T01200110 IEM_DS3505
ZHHH,2008-11-16 18:00,ZHHH 161800Z AUTO 00000KT 7SM 13/11 A3018 RMK SLP218 T01270106 52002 IEM_DS3505
ZHHH,2008-11-16 19:00,ZHHH 161900Z AUTO 02004KT 1SM 12/11 A3018 RMK T01200110 IEM_DS3505
ZHHH,2008-11-16 20:00,ZHHH 162000Z AUTO 02006KT 1SM 12/10 A3018 RMK T01200100 IEM_DS3505
ZHHH,2008-11-16 21:00,ZHHH 162100Z AUTO 04006KT 7SM 13/09 A3018 RMK SLP220 T01270088 52002 IEM_DS3505
ZHHH,2008-11-16 22:00,ZHHH 162200Z AUTO 01004KT 2SM 12/09 A3021 RMK T01200090 IEM_DS3505
ZHHH,2008-11-16 23:00,ZHHH 162300Z AUTO 01004KT 2SM 12/09 A3021 RMK T01200090 IEM_DS3505
ZHHH,2008-11-17 00:00,ZHHH 170000Z AUTO 27004KT 7SM 12/09 A3024 RMK 60000 70000 SLP244 T01230088 52023 IEM_DS3505
ZHHH,2008-11-17 01:00,ZHHH 170100Z AUTO 01006KT 2 1/2SM 12/10 A3024 RMK T01200100 IEM_DS3505
ZHHH,2008-11-17 02:00,ZHHH 170200Z AUTO 35008KT 2 1/2SM 12/10 A3027 RMK T01200100 IEM_DS3505
ZHHH,2008-11-17 03:00,ZHHH 170300Z AUTO 02004KT 9SM 13/08 A3027 RMK SLP248 T01270076 52004 IEM_DS3505
ZHHH,2008-11-17 04:00,ZHHH 170400Z AUTO 02006KT 4SM 12/09 A3027 RMK T01200090 IEM_DS3505
ZHHH,2008-11-17 05:00,ZHHH 170500Z AUTO 36008KT 4SM 12/10 A3024 RMK T01200100 IEM_DS3505
ZHHH,2008-11-17 06:00,ZHHH 170600Z AUTO 34002KT 7SM 12/09 A3024 RMK 60002 SLP244 T01210088 57004 IEM_DS3505
ZHHH,2008-11-17 07:00,ZHHH 170700Z AUTO 03014KT 4SM 10/07 A3027 RMK T01000070 IEM_DS3505
ZHHH,2008-11-17 08:00,ZHHH 170800Z AUTO 06008KT 4SM 10/08 A3027 RMK T01000080 IEM_DS3505
ZHHH,2008-11-17 09:00,ZHHH 170900Z AUTO 04004KT 7SM 10/07 A3030 RMK SLP261 T01030070 52017 IEM_DS3505
ZHHH,2008-11-17 10:00,ZHHH 171000Z AUTO 00000KT 3SM 10/09 A3033 RMK T01000090 IEM_DS3505
ZHHH,2008-11-17 11:00,ZHHH 171100Z AUTO 3SM 10/09 A3033 RMK T01000090 IEM_DS3505
ZHHH,2008-11-17 12:00,ZHHH 171200Z AUTO 00000KT 7SM 10/08 A3036 RMK 60004 SLP279 T01000078 52018 IEM_DS3505
ZHHH,2008-11-17 13:00,ZHHH 171300Z AUTO 00000KT 2SM 10/09 A3036 RMK T01000090 IEM_DS3505
ZHHH,2008-11-17 14:00,ZHHH 171400Z AUTO 03004KT 1 1/4SM 10/09 A3039 RMK T01000090 IEM_DS3505
ZHHH,2008-11-17 15:00,ZHHH 171500Z AUTO 04002KT 7SM 10/08 A3036 RMK SLP285 T00970083 52006 IEM_DS3505
ZHHH,2008-11-17 16:00,ZHHH 171600Z AUTO 04004KT 1 1/4SM 08/08 A3039 RMK T00800080 IEM_DS3505
ZHHH,2008-11-17 17:00,ZHHH 171700Z AUTO 04006KT 1 1/4SM 08/07 A3039 RMK T00800070 IEM_DS3505
ZHHH,2008-11-17 18:00,ZHHH 171800Z AUTO 02002KT 6SM 09/07 A3039 RMK 60000 SLP287 T00880068 52002 IEM_DS3505
ZHHH,2008-11-17 19:00,ZHHH 171900Z AUTO 00000KT 1SM 07/06 A3036 RMK T00700060 IEM_DS3505
ZHHH,2008-11-17 20:00,ZHHH 172000Z AUTO 01004KT 1SM 07/06 A3039 RMK T00700060 IEM_DS3505
ZHHH,2008-11-17 21:00,ZHHH 172100Z AUTO 02002KT 6SM 08/06 A3039 RMK 70007 SLP290 T00820060 52003 IEM_DS3505
ZHHH,2008-11-17 22:00,ZHHH 172200Z AUTO 1SM 07/06 A3039 RMK T00700060 IEM_DS3505
ZHHH,2008-11-17 23:00,ZHHH 172300Z AUTO 00000KT 1SM 06/06 A3042 RMK T00600060 IEM_DS3505
ZHHH,2008-11-18 00:00,ZHHH 180000Z AUTO 36002KT 5SM 08/07 A3042 RMK 70007 SLP304 T00780072 52014 IEM_DS3505
ZHHH,2008-11-18 01:00,ZHHH 180100Z AUTO 1SM 09/09 A3045 RMK T00900090 IEM_DS3505
ZHHH,2008-11-18 02:00,ZHHH 180200Z AUTO 35006KT 1 1/4SM 11/09 A3045 RMK T01100090 IEM_DS3505
ZHHH,2008-11-18 03:00,ZHHH 180300Z AUTO 02006KT 9SM 13/06 A3045 RMK SLP312 T01260062 52008 IEM_DS3505
ZHHH,2008-11-18 04:00,ZHHH 180400Z AUTO 04012KT 2 1/2SM 14/05 A3042 RMK T01400050 IEM_DS3505
ZHHH,2008-11-18 05:00,ZHHH 180500Z AUTO 04012KT 6SM 14/01 A3042 RMK T01400010 IEM_DS3505
ZHHH,2008-11-18 06:00,ZHHH 180600Z AUTO 07004KT 11SM 15/M01 A3039 RMK SLP292 T01471014 57020 IEM_DS3505
ZHHH,2008-11-18 07:00,ZHHH 180700Z AUTO 04010KT 6SM 13/01 A3039 RMK T01300010 IEM_DS3505
ZHHH,2008-11-18 08:00,ZHHH 180800Z AUTO 05014KT 6SM 13/00 A3039 RMK T01300000 IEM_DS3505
ZHHH,2008-11-18 09:00,ZHHH 180900Z AUTO 02004KT 11SM 12/M03 A3042 RMK SLP298 T01231027 52006 IEM_DS3505
ZHHH,2008-11-18 10:00,ZHHH 181000Z AUTO 04006KT 6SM 10/00 A3042 RMK T01000000 IEM_DS3505
ZHHH,2008-11-18 11:00,ZHHH 181100Z AUTO 07008KT 6SM 09/M01 A3045 RMK T00901010 IEM_DS3505
ZHHH,2008-11-18 12:00,ZHHH 181200Z AUTO 07004KT 12SM 10/M05 A3047 RMK SLP319 T01041048 52021 IEM_DS3505
ZHHH,2008-11-18 13:00,ZHHH 181300Z AUTO 06008KT 6SM 07/M01 A3050 RMK T00701010 IEM_DS3505
ZHHH,2008-11-18 14:00,ZHHH 181400Z AUTO 06006KT 6SM 06/M01 A3053 RMK T00601010 IEM_DS3505
ZHHH,2008-11-18 15:00,ZHHH 181500Z AUTO 07004KT 12SM 08/M04 A3053 RMK SLP343 T00841044 52024 IEM_DS3505
ZHHH,2008-11-18 16:00,ZHHH 181600Z AUTO 07006KT 6SM 06/M02 A3053 RMK T00601020 IEM_DS3505
ZHHH,2008-11-18 17:00,ZHHH 181700Z AUTO 08008KT 6SM 06/M02 A3053 RMK T00601020 IEM_DS3505
ZHHH,2008-11-18 18:00,ZHHH 181800Z AUTO 07002KT 12SM 07/M04 A3053 RMK SLP340 T00721039 57003 IEM_DS3505
ZHHH,2008-11-18 19:00,ZHHH 181900Z AUTO 36004KT 6SM 05/01 A3053 RMK T00500010 IEM_DS3505
ZHHH,2008-11-18 20:00,ZHHH 182000Z AUTO 10002KT 6SM 05/M01 A3053 RMK T00501010 IEM_DS3505
ZHHH,2008-11-18 21:00,ZHHH 182100Z AUTO 02002KT 12SM 07/M03 A3053 RMK SLP344 T00701027 52004 IEM_DS3505
ZHHH,2008-11-18 22:00,ZHHH 182200Z AUTO 03002KT 6SM 05/00 A3056 RMK T00500000 IEM_DS3505
ZHHH,2008-11-18 23:00,ZHHH 182300Z AUTO 6SM 05/02 A3056 RMK T00500020 IEM_DS3505
ZHHH,2008-11-19 00:00,ZHHH 190000Z AUTO 34002KT 16SM 07/01 A3056 RMK SLP357 T00690006 52013 IEM_DS3505
ZHHH,2008-11-19 01:00,ZHHH 190100Z AUTO 6SM 08/01 A3059 RMK T00800010 IEM_DS3505
ZHHH,2008-11-19 02:00,ZHHH 190200Z AUTO 28004KT 6SM 10/M02 A3059 RMK T01001020 IEM_DS3505
ZHHH,2008-11-19 03:00,ZHHH 190300Z AUTO 27002KT 16SM 12/M06 A3059 RMK SLP362 T01191056 52005 IEM_DS3505
ZHHH,2008-11-19 04:00,ZHHH 190400Z AUTO 27004KT 6SM 13/M04 A3056 RMK T01301040 IEM_DS3505
ZHHH,2008-11-19 05:00,ZHHH 190500Z AUTO 29004KT 6SM 14/M03 A3053 RMK T01401030 IEM_DS3505
ZHHH,2008-11-19 06:00,ZHHH 190600Z AUTO 11002KT 17SM 14/M06 A3050 RMK SLP331 T01371065 57031 IEM_DS3505
ZHHH,2008-11-19 07:00,ZHHH 190700Z AUTO 6SM 14/M03 A3047 RMK T01401030 IEM_DS3505
ZHHH,2008-11-19 08:00,ZHHH 190800Z AUTO 22004KT 6SM 14/M03 A3047 RMK T01401030 IEM_DS3505
ZHHH,2008-11-19 09:00,ZHHH 190900Z AUTO 04002KT 16SM 12/M06 A3047 RMK SLP319 T01201064 57012 IEM_DS3505
ZHHH,2008-11-19 10:00,ZHHH 191000Z AUTO 17004KT 6SM 11/M02 A3047 RMK T01101020 IEM_DS3505
ZHHH,2008-11-19 11:00,ZHHH 191100Z AUTO 19006KT 6SM 10/M02 A3047 RMK T01001020 IEM_DS3505
ZHHH,2008-11-19 12:00,ZHHH 191200Z AUTO 00000KT 12SM 07/M00 A3047 RMK SLP325 T00741001 52006 IEM_DS3505
ZHHH,2008-11-19 13:00,ZHHH 191300Z AUTO 23004KT 6SM 09/03 A3047 RMK T00900030 IEM_DS3505
ZHHH,2008-11-19 14:00,ZHHH 191400Z AUTO 25002KT 6SM 08/04 A3050 RMK T00800040 IEM_DS3505
ZHHH,2008-11-19 15:00,ZHHH 191500Z AUTO 25002KT 11SM 06/02 A3050 RMK SLP328 T00640017 52003 IEM_DS3505
ZHHH,2008-11-19 16:00,ZHHH 191600Z AUTO 6SM 06/04 A3050 RMK T00600040 IEM_DS3505
ZHHH,2008-11-19 17:00,ZHHH 191700Z AUTO 4SM 06/03 A3050 RMK T00600030 IEM_DS3505
ZHHH,2008-11-19 18:00,ZHHH 191800Z AUTO 22002KT 12SM 06/03 A3047 RMK SLP319 T00550027 57009 IEM_DS3505
ZHHH,2008-11-19 19:00,ZHHH 191900Z AUTO 00000KT 4SM 05/03 A3045 RMK T00500030 IEM_DS3505
ZHHH,2008-11-19 20:00,ZHHH 192000Z AUTO 09004KT 4SM 05/02 A3045 RMK T00500020 IEM_DS3505
ZHHH,2008-11-19 21:00,ZHHH 192100Z AUTO 09002KT 11SM 04/03 A3045 RMK SLP309 T00450027 57010 IEM_DS3505
ZHHH,2008-11-19 22:00,ZHHH 192200Z AUTO 10008KT 4SM 04/02 A3045 RMK T00400020 IEM_DS3505
ZHHH,2008-11-19 23:00,ZHHH 192300Z AUTO 10008KT 6SM 04/03 A3045 RMK T00400030 IEM_DS3505
ZHHH,2008-11-20 00:00,ZHHH 200000Z AUTO 14002KT 12SM 07/04 A3045 RMK SLP312 T00690037 52003 IEM_DS3505
ZHHH,2008-11-20 01:00,ZHHH 200100Z AUTO 12006KT 3SM 08/06 A3045 RMK T00800060 IEM_DS3505
ZHHH,2008-11-20 02:00,ZHHH 200200Z AUTO 13004KT 4SM 10/07 A3045 RMK T01000070 IEM_DS3505
ZHHH,2008-11-20 03:00,ZHHH 200300Z AUTO 14004KT 12SM 13/M03 A3042 RMK SLP306 T01311028 57006 IEM_DS3505
ZHHH,2008-11-20 04:00,ZHHH 200400Z AUTO 21004KT 6SM 14/02 A3042 RMK T01400020 IEM_DS3505
ZHHH,2008-11-20 05:00,ZHHH 200500Z AUTO 26004KT 6SM 14/00 A3036 RMK T01400000 IEM_DS3505
ZHHH,2008-11-20 06:00,ZHHH 200600Z AUTO 14002KT 14SM 15/M06 A3033 RMK SLP270 T01481056 57036 IEM_DS3505
ZHHH,2008-11-20 07:00,ZHHH 200700Z AUTO 6SM 15/M02 A3030 RMK T01501020 IEM_DS3505
ZHHH,2008-11-20 08:00,ZHHH 200800Z AUTO 6SM 14/M01 A3030 RMK T01401010 IEM_DS3505
ZHHH,2008-11-20 09:00,ZHHH 200900Z AUTO 27002KT 14SM 13/M05 A3030 RMK SLP259 T01341047 57011 IEM_DS3505
ZHHH,2008-11-20 10:00,ZHHH 201000Z AUTO 00000KT 6SM 11/00 A3030 RMK T01100000 IEM_DS3505
ZHHH,2008-11-20 11:00,ZHHH 201100Z AUTO 12004KT 6SM 12/00 A3030 RMK T01200000 IEM_DS3505
ZHHH,2008-11-20 12:00,ZHHH 201200Z AUTO 04002KT 12SM 11/02 A3030 RMK SLP264 T01070015 52005 IEM_DS3505
ZHHH,2008-11-20 13:00,ZHHH 201300Z AUTO 09006KT 6SM 11/03 A3030 RMK T01100030 IEM_DS3505
ZHHH,2008-11-20 14:00,ZHHH 201400Z AUTO 09006KT 6SM 10/03 A3033 RMK T01000030 IEM_DS3505
ZHHH,2008-11-20 15:00,ZHHH 201500Z AUTO 00000KT 11SM 10/04 A3033 RMK SLP270 T01030038 52006 IEM_DS3505
ZHHH,2008-11-20 16:00,ZHHH 201600Z AUTO 11006KT 6SM 10/04 A3033 RMK T01000040 IEM_DS3505
ZHHH,2008-11-20 17:00,ZHHH 201700Z AUTO 10006KT 6SM 10/04 A3033 RMK T01000040 IEM_DS3505
ZHHH,2008-11-20 18:00,ZHHH 201800Z AUTO 11002KT 9SM 10/06 A3033 RMK SLP264 T00990059 57006 IEM_DS3505
ZHHH,2008-11-20 19:00,ZHHH 201900Z AUTO 07004KT 6SM 09/05 A3030 RMK T00900050 IEM_DS3505
ZHHH,2008-11-20 20:00,ZHHH 202000Z AUTO 10008KT 6SM 08/04 A3030 RMK T00800040 IEM_DS3505
ZHHH,2008-11-20 21:00,ZHHH 202100Z AUTO 04002KT 9SM 10/04 A3033 RMK SLP266 T00960040 52002 IEM_DS3505
ZHHH,2008-11-20 22:00,ZHHH 202200Z AUTO 06006KT 6SM 08/05 A3033 RMK T00800050 IEM_DS3505
ZHHH,2008-11-20 23:00,ZHHH 202300Z AUTO 07006KT 6SM 08/04 A3036 RMK T00800040 IEM_DS3505
ZHHH,2008-11-21 00:00,ZHHH 210000Z AUTO 14002KT 9SM 10/06 A3033 RMK SLP274 T00990055 52008 IEM_DS3505
ZHHH,2008-11-21 01:00,ZHHH 210100Z AUTO 09008KT 6SM 10/05 A3036 RMK T01000050 IEM_DS3505
ZHHH,2008-11-21 02:00,ZHHH 210200Z AUTO 09008KT 6SM 11/04 A3039 RMK T01100040 IEM_DS3505
ZHHH,2008-11-21 03:00,ZHHH 210300Z AUTO 11004KT 11SM 14/01 A3036 RMK SLP284 T01350009 52010 IEM_DS3505
ZHHH,2008-11-21 04:00,ZHHH 210400Z AUTO 10006KT 5SM 13/05 A3036 RMK T01300050 IEM_DS3505
ZHHH,2008-11-21 05:00,ZHHH 210500Z AUTO 07006KT 4SM 13/05 A3033 RMK T01300050 IEM_DS3505
ZHHH,2008-11-21 06:00,ZHHH 210600Z AUTO 09004KT 11SM 14/01 A3030 RMK SLP256 T01410011 57028 IEM_DS3505
ZHHH,2008-11-21 07:00,ZHHH 210700Z AUTO 11010KT 5SM 13/03 A3027 RMK T01300030 IEM_DS3505
ZHHH,2008-11-21 08:00,ZHHH 210800Z AUTO 11008KT 6SM 13/03 A3027 RMK T01300030 IEM_DS3505
ZHHH,2008-11-21 09:00,ZHHH 210900Z AUTO 07002KT 11SM 13/02 A3027 RMK SLP247 T01310018 57009 IEM_DS3505
ZHHH,2008-11-21 10:00,ZHHH 211000Z AUTO 08008KT 6SM 12/05 A3027 RMK T01200050 IEM_DS3505
ZHHH,2008-11-21 11:00,ZHHH 211100Z AUTO 08008KT 6SM 11/06 A3027 RMK T01100060 IEM_DS3505
ZHHH,2008-11-21 12:00,ZHHH 211200Z AUTO 09002KT 12SM 13/01 A3030 RMK SLP255 T01270011 52008 IEM_DS3505
ZHHH,2008-11-21 13:00,ZHHH 211300Z AUTO 09006KT 6SM 11/06 A3030 RMK T01100060 IEM_DS3505
ZHHH,2008-11-21 14:00,ZHHH 211400Z AUTO 08006KT 3SM 11/05 A3030 RMK T01100050 IEM_DS3505
ZHHH,2008-11-21 15:00,ZHHH 211500Z AUTO 11002KT 12SM 12/01 A3030 RMK SLP257 T01190012 52002 IEM_DS3505
ZHHH,2008-11-21 16:00,ZHHH 211600Z AUTO 04006KT 3SM 11/06 A3027 RMK T01100060 IEM_DS3505
ZHHH,2008-11-21 17:00,ZHHH 211700Z AUTO 07006KT 6SM 10/05 A3027 RMK T01000050 IEM_DS3505
ZHHH,2008-11-21 18:00,ZHHH 211800Z AUTO 16002KT 11SM 11/04 A3027 RMK SLP249 T01130043 57008 IEM_DS3505
ZHHH,2008-11-21 19:00,ZHHH 211900Z AUTO 6SM 10/05 A3027 RMK T01000050 IEM_DS3505
ZHHH,2008-11-21 20:00,ZHHH 212000Z AUTO 00000KT 6SM 10/07 A3027 RMK T01000070 IEM_DS3505
ZHHH,2008-11-21 21:00,ZHHH 212100Z AUTO 34002KT 11SM 11/05 A3027 RMK SLP247 T01110048 57002 IEM_DS3505
ZHHH,2008-11-21 22:00,ZHHH 212200Z AUTO 05002KT 6SM 10/06 A3027 RMK T01000060 IEM_DS3505
ZHHH,2008-11-21 23:00,ZHHH 212300Z AUTO 08004KT 3SM 10/07 A3027 RMK T01000070 IEM_DS3505
ZHHH,2008-11-22 00:00,ZHHH 220000Z AUTO 09002KT 9SM 11/04 A3027 RMK SLP253 T01100035 52006 IEM_DS3505
ZHHH,2008-11-22 01:00,ZHHH 220100Z AUTO 07004KT 6SM 11/06 A3027 RMK T01100060 IEM_DS3505
ZHHH,2008-11-22 02:00,ZHHH 220200Z AUTO 6SM 11/06 A3030 RMK T01100060 IEM_DS3505
ZHHH,2008-11-22 03:00,ZHHH 220300Z AUTO 32002KT 7SM 12/06 A3030 RMK SLP257 T01210062 52004 IEM_DS3505
ZHHH,2008-11-22 04:00,ZHHH 220400Z AUTO 33004KT 4SM 12/06 A3027 RMK T01200060 IEM_DS3505
ZHHH,2008-11-22 05:00,ZHHH 220500Z AUTO 5SM 12/06 A3024 RMK T01200060 IEM_DS3505
ZHHH,2008-11-22 06:00,ZHHH 220600Z AUTO 04002KT 9SM 13/02 A3024 RMK 60000 SLP238 T01280024 57019 IEM_DS3505
ZHHH,2008-11-22 07:00,ZHHH 220700Z AUTO 6SM 13/07 A3021 RMK T01300070 IEM_DS3505
ZHHH,2008-11-22 08:00,ZHHH 220800Z AUTO 6SM 13/07 A3021 RMK T01300070 IEM_DS3505
ZHHH,2008-11-22 09:00,ZHHH 220900Z AUTO 32002KT 11SM 12/04 A3024 RMK SLP237 T01250040 57001 IEM_DS3505
ZHHH,2008-11-22 10:00,ZHHH 221000Z AUTO 26002KT 6SM 12/06 A3024 RMK T01200060 IEM_DS3505
ZHHH,2008-11-22 11:00,ZHHH 221100Z AUTO 23002KT 6SM 12/07 A3027 RMK T01200070 IEM_DS3505
ZHHH,2008-11-22 12:00,ZHHH 221200Z AUTO 00000KT 9SM 11/06 A3027 RMK SLP253 T01120059 52016 IEM_DS3505
ZHHH,2008-11-22 13:00,ZHHH 221300Z AUTO 26002KT 6SM 11/08 A3027 RMK T01100080 IEM_DS3505
ZHHH,2008-11-22 14:00,ZHHH 221400Z AUTO 29002KT 4SM 11/09 A3030 RMK T01100090 IEM_DS3505
ZHHH,2008-11-22 15:00,ZHHH 221500Z AUTO 29002KT 9SM 11/06 A3030 RMK SLP258 T01140059 52005 IEM_DS3505
ZHHH,2008-11-22 16:00,ZHHH 221600Z AUTO 30002KT 3SM 10/09 A3030 RMK T01000090 IEM_DS3505
ZHHH,2008-11-22 17:00,ZHHH 221700Z AUTO 02002KT 3SM 10/08 A3027 RMK T01000080 IEM_DS3505
ZHHH,2008-11-22 18:00,ZHHH 221800Z AUTO 09002KT 9SM 11/06 A3027 RMK SLP250 T01070065 57008 IEM_DS3505
ZHHH,2008-11-22 19:00,ZHHH 221900Z AUTO 36002KT 3SM 09/07 A3027 RMK T00900070 IEM_DS3505
ZHHH,2008-11-22 20:00,ZHHH 222000Z AUTO 35002KT 2 1/2SM 09/08 A3027 RMK T00900080 IEM_DS3505
ZHHH,2008-11-22 21:00,ZHHH 222100Z AUTO 36002KT 9SM 10/08 A3027 RMK 70000 SLP248 T01020076 57002 IEM_DS3505
ZHHH,2008-11-22 22:00,ZHHH 222200Z AUTO 08002KT 2 1/2SM 08/07 A3027 RMK T00800070 IEM_DS3505
ZHHH,2008-11-22 23:00,ZHHH 222300Z AUTO 1 1/4SM 07/07 A3030 RMK T00700070 IEM_DS3505
ZHHH,2008-11-23 00:00,ZHHH 230000Z AUTO 00000KT 7SM 10/08 A3030 RMK 70000 SLP261 T00980079 52013 IEM_DS3505
ZHHH,2008-11-23 01:00,ZHHH 230100Z AUTO 00000KT 1 1/2SM 10/07 A3030 RMK T01000070 IEM_DS3505
ZHHH,2008-11-23 02:00,ZHHH 230200Z AUTO 2SM 12/07 A3033 RMK T01200070 IEM_DS3505
ZHHH,2008-11-23 03:00,ZHHH 230300Z AUTO 29002KT 7SM 13/04 A3030 RMK SLP263 T01300042 52002 IEM_DS3505
ZHHH,2008-11-23 04:00,ZHHH 230400Z AUTO 31004KT 2 1/2SM 13/07 A3030 RMK T01300070 IEM_DS3505
ZHHH,2008-11-23 05:00,ZHHH 230500Z AUTO 31004KT 3SM 13/06 A3027 RMK T01300060 IEM_DS3505
ZHHH,2008-11-23 06:00,ZHHH 230600Z AUTO 32004KT 9SM 14/02 A3024 RMK SLP243 T01390025 57020 IEM_DS3505
ZHHH,2008-11-23 07:00,ZHHH 230700Z AUTO 25004KT 5SM 15/04 A3024 RMK T01500040 IEM_DS3505
ZHHH,2008-11-23 08:00,ZHHH 230800Z AUTO 22006KT 5SM 14/05 A3024 RMK T01400050 IEM_DS3505
ZHHH,2008-11-23 09:00,ZHHH 230900Z AUTO 27002KT 9SM 14/02 A3024 RMK SLP244 T01360019 52001 IEM_DS3505
ZHHH,2008-11-23 10:00,ZHHH 231000Z AUTO 16004KT 4SM 12/04 A3027 RMK T01200040 IEM_DS3505
ZHHH,2008-11-23 11:00,ZHHH 231100Z AUTO 4SM 11/04 A3030 RMK T01100040 IEM_DS3505
ZHHH,2008-11-23 12:00,ZHHH 231200Z AUTO 00000KT 9SM 09/05 A3033 RMK SLP267 T00910053 52023 IEM_DS3505
ZHHH,2008-11-23 13:00,ZHHH 231300Z AUTO 06008KT 2 1/2SM 10/05 A3033 RMK T01000050 IEM_DS3505
ZHHH,2008-11-23 14:00,ZHHH 231400Z AUTO 06008KT 2 1/2SM 09/06 A3036 RMK T00900060 IEM_DS3505
ZHHH,2008-11-23 15:00,ZHHH 231500Z AUTO 07002KT 9SM 08/06 A3036 RMK SLP282 T00770055 52015 IEM_DS3505
ZHHH,2008-11-23 16:00,ZHHH 231600Z AUTO 07004KT 2 1/2SM 08/06 A3036 RMK T00800060 IEM_DS3505
ZHHH,2008-11-23 17:00,ZHHH 231700Z AUTO 00000KT 2 1/2SM 09/05 A3036 RMK T00900050 IEM_DS3505
ZHHH,2008-11-23 18:00,ZHHH 231800Z AUTO 00000KT 7SM 07/06 A3036 RMK SLP281 T00660056 57001 IEM_DS3505
ZHHH,2008-11-23 19:00,ZHHH 231900Z AUTO 17002KT 2 1/2SM 07/06 A3036 RMK T00700060 IEM_DS3505
ZHHH,2008-11-23 20:00,ZHHH 232000Z AUTO 09002KT 2 1/2SM 08/06 A3036 RMK T00800060 IEM_DS3505
ZHHH,2008-11-23 21:00,ZHHH 232100Z AUTO 00000KT 6SM 06/06 A3033 RMK SLP273 T00650058 57008 IEM_DS3505
ZHHH,2008-11-23 22:00,ZHHH 232200Z AUTO 09002KT 2SM 07/06 A3036 RMK T00700060 IEM_DS3505
ZHHH,2008-11-23 23:00,ZHHH 232300Z AUTO 06004KT 1SM 06/05 A3036 RMK T00600050 IEM_DS3505
ZHHH,2008-11-24 00:00,ZHHH 240000Z AUTO 16002KT 6SM 08/08 A3039 RMK SLP287 T00790076 52014 IEM_DS3505
ZHHH,2008-11-24 01:00,ZHHH 240100Z AUTO 12006KT 1SM 08/07 A3039 RMK T00800070 IEM_DS3505
ZHHH,2008-11-24 02:00,ZHHH 240200Z AUTO 10004KT 1SM 11/09 A3039 RMK T01100090 IEM_DS3505
ZHHH,2008-11-24 03:00,ZHHH 240300Z AUTO 25004KT 9SM 13/08 A3042 RMK SLP299 T01330082 52012 IEM_DS3505
ZHHH,2008-11-24 04:00,ZHHH 240400Z AUTO 33004KT 1 1/4SM 14/10 A3039 RMK T01400100 IEM_DS3505
ZHHH,2008-11-24 05:00,ZHHH 240500Z AUTO 1 1/2SM 15/10 A3036 RMK T01500100 IEM_DS3505
ZHHH,2008-11-24 06:00,ZHHH 240600Z AUTO 27002KT 9SM 16/06 A3033 RMK SLP267 T01640060 57032 IEM_DS3505
ZHHH,2008-11-24 07:00,ZHHH 240700Z AUTO 27004KT 2SM 16/09 A3033 RMK T01600090 IEM_DS3505
ZHHH,2008-11-24 08:00,ZHHH 240800Z AUTO 2SM 16/09 A3033 RMK T01600090 IEM_DS3505
ZHHH,2008-11-24 09:00,ZHHH 240900Z AUTO 09002KT 9SM 15/08 A3033 RMK SLP272 T01520075 52005 IEM_DS3505
ZHHH,2008-11-24 10:00,ZHHH 241000Z AUTO 2SM 14/09 A3036 RMK T01400090 IEM_DS3505
ZHHH,2008-11-24 11:00,ZHHH 241100Z AUTO 12006KT 1 1/4SM 13/09 A3036 RMK T01300090 IEM_DS3505
ZHHH,2008-11-24 12:00,ZHHH 241200Z AUTO 00000KT 7SM 09/08 A3036 RMK SLP284 T00940080 52012 IEM_DS3505
ZHHH,2008-11-24 13:00,ZHHH 241300Z AUTO 10004KT 1 1/4SM 11/09 A3036 RMK T01100090 IEM_DS3505
ZHHH,2008-11-24 14:00,ZHHH 241400Z AUTO 1 1/4SM 09/08 A3039 RMK T00900080 IEM_DS3505
ZHHH,2008-11-24 15:00,ZHHH 241500Z AUTO 00000KT 5SM 08/07 A3039 RMK SLP293 T00830074 52009 IEM_DS3505
ZHHH,2008-11-24 16:00,ZHHH 241600Z AUTO 1SM 08/07 A3039 RMK T00800070 IEM_DS3505
ZHHH,2008-11-24 17:00,ZHHH 241700Z AUTO 03002KT 1SM 08/07 A3042 RMK T00800070 IEM_DS3505
ZHHH,2008-11-24 18:00,ZHHH 241800Z AUTO 32002KT 4SM 08/07 A3042 RMK SLP301 T00800074 52008 IEM_DS3505
ZHHH,2008-11-24 19:00,ZHHH 241900Z AUTO 07004KT 1SM 09/08 A3042 RMK T00900080 IEM_DS3505
ZHHH,2008-11-24 20:00,ZHHH 242000Z AUTO 08006KT 1 1/4SM 07/07 A3042 RMK T00700070 IEM_DS3505
ZHHH,2008-11-24 21:00,ZHHH 242100Z AUTO 02002KT 5SM 09/07 A3042 RMK SLP303 T00860074 52002 IEM_DS3505
ZHHH,2008-11-24 22:00,ZHHH 242200Z AUTO 07006KT 1 1/2SM 07/05 A3042 RMK T00700050 IEM_DS3505
ZHHH,2008-11-24 23:00,ZHHH 242300Z AUTO 05006KT 2 1/2SM 07/03 A3042 RMK T00700030 IEM_DS3505
ZHHH,2008-11-25 00:00,ZHHH 250000Z AUTO 04002KT 12SM 10/00 A3045 RMK SLP313 T00970001 52010 IEM_DS3505
ZHHH,2008-11-25 01:00,ZHHH 250100Z AUTO 03004KT 6SM 11/05 A3047 RMK T01100050 IEM_DS3505
ZHHH,2008-11-25 02:00,ZHHH 250200Z AUTO 04008KT 6SM 14/02 A3047 RMK T01400020 IEM_DS3505
ZHHH,2008-11-25 03:00,ZHHH 250300Z AUTO 04004KT 16SM 14/M02 A3047 RMK SLP319 T01441021 52006 IEM_DS3505
ZHHH,2008-11-25 04:00,ZHHH 250400Z AUTO 07008KT 6SM 17/M01 A3045 RMK T01701010 IEM_DS3505
ZHHH,2008-11-25 05:00,ZHHH 250500Z AUTO 06008KT 6SM 17/M05 A3039 RMK T01701050 IEM_DS3505
ZHHH,2008-11-25 06:00,ZHHH 250600Z AUTO 07004KT 16SM 17/M06 A3036 RMK SLP282 T01721059 57037 IEM_DS3505
ZHHH,2008-11-25 07:00,ZHHH 250700Z AUTO 07006KT 6SM 18/M02 A3033 RMK T01801020 IEM_DS3505
ZHHH,2008-11-25 08:00,ZHHH 250800Z AUTO 08004KT 6SM 17/M02 A3033 RMK T01701020 IEM_DS3505
ZHHH,2008-11-25 09:00,ZHHH 250900Z AUTO 07002KT 12SM 15/M03 A3033 RMK SLP270 T01511033 57012 IEM_DS3505
ZHHH,2008-11-25 10:00,ZHHH 251000Z AUTO 05004KT 6SM 13/00 A3033 RMK T01300000 IEM_DS3505
ZHHH,2008-11-25 11:00,ZHHH 251100Z AUTO 05006KT 6SM 13/00 A3036 RMK T01300000 IEM_DS3505
ZHHH,2008-11-25 12:00,ZHHH 251200Z AUTO 00000KT 9SM 09/04 A3036 RMK SLP280 T00880042 52010 IEM_DS3505
ZHHH,2008-11-25 13:00,ZHHH 251300Z AUTO 06006KT 6SM 10/01 A3036 RMK T01000010 IEM_DS3505
ZHHH,2008-11-25 14:00,ZHHH 251400Z AUTO 07006KT 6SM 10/02 A3036 RMK T01000020 IEM_DS3505
ZHHH,2008-11-25 15:00,ZHHH 251500Z AUTO 04002KT 9SM 11/M00 A3036 RMK SLP285 T01141001 52005 IEM_DS3505
ZHHH,2008-11-25 16:00,ZHHH 251600Z AUTO 08006KT 6SM 10/00 A3036 RMK T01000000 IEM_DS3505
ZHHH,2008-11-25 17:00,ZHHH 251700Z AUTO 06004KT 6SM 10/01 A3036 RMK T01000010 IEM_DS3505
ZHHH,2008-11-25 18:00,ZHHH 251800Z AUTO 00000KT 11SM 11/M00 A3036 RMK SLP276 T01071001 57009 IEM_DS3505
ZHHH,2008-11-25 19:00,ZHHH 251900Z AUTO 13004KT 6SM 10/02 A3033 RMK T01000020 IEM_DS3505
ZHHH,2008-11-25 20:00,ZHHH 252000Z AUTO 08004KT 6SM 09/03 A3030 RMK T00900030 IEM_DS3505
ZHHH,2008-11-25 21:00,ZHHH 252100Z AUTO 07002KT 11SM 10/03 A3030 RMK SLP260 T01010029 57016 IEM_DS3505
ZHHH,2008-11-25 22:00,ZHHH 252200Z AUTO 07006KT 6SM 09/03 A3030 RMK T00900030 IEM_DS3505
ZHHH,2008-11-25 23:00,ZHHH 252300Z AUTO 10006KT 6SM 09/03 A3030 RMK T00900030 IEM_DS3505
ZHHH,2008-11-26 00:00,ZHHH 260000Z AUTO 07002KT 11SM 10/05 A3033 RMK SLP265 T01020054 52005 IEM_DS3505
ZHHH,2008-11-26 01:00,ZHHH 260100Z AUTO 08004KT 4SM 10/05 A3033 RMK T01000050 IEM_DS3505
ZHHH,2008-11-26 02:00,ZHHH 260200Z AUTO 16004KT 4SM 13/06 A3036 RMK T01300060 IEM_DS3505
ZHHH,2008-11-26 03:00,ZHHH 260300Z AUTO 29002KT 9SM 15/04 A3033 RMK SLP274 T01480042 52009 IEM_DS3505
ZHHH,2008-11-26 04:00,ZHHH 260400Z AUTO 28004KT 4SM 17/06 A3030 RMK T01700060 IEM_DS3505
ZHHH,2008-11-26 05:00,ZHHH 260500Z AUTO 30004KT 6SM 18/04 A3027 RMK T01800040 IEM_DS3505
ZHHH,2008-11-26 06:00,ZHHH 260600Z AUTO 32002KT 11SM 18/01 A3024 RMK SLP242 T01820012 57031 IEM_DS3505
ZHHH,2008-11-26 07:00,ZHHH 260700Z AUTO 6SM 18/04 A3024 RMK T01800040 IEM_DS3505
ZHHH,2008-11-26 08:00,ZHHH 260800Z AUTO 31004KT 6SM 17/05 A3027 RMK T01700050 IEM_DS3505
ZHHH,2008-11-26 09:00,ZHHH 260900Z AUTO 00000KT 9SM 15/04 A3030 RMK SLP259 T01530044 52016 IEM_DS3505
ZHHH,2008-11-26 10:00,ZHHH 261000Z AUTO 34004KT 6SM 15/06 A3033 RMK T01500060 IEM_DS3505
ZHHH,2008-11-26 11:00,ZHHH 261100Z AUTO 01006KT 6SM 14/01 A3036 RMK T01400010 IEM_DS3505
ZHHH,2008-11-26 12:00,ZHHH 261200Z AUTO 29004KT 9SM 14/02 A3042 RMK 60000 SLP303 T01430019 52044 IEM_DS3505
ZHHH,2008-11-26 13:00,ZHHH 261300Z AUTO 34008KT 7SM 13/02 A3045 RMK T01300020 IEM_DS3505
ZHHH,2008-11-26 14:00,ZHHH 261400Z AUTO 31006KT 7SM 11/05 A3045 RMK T01100050 IEM_DS3505
ZHHH,2008-11-26 15:00,ZHHH 261500Z AUTO 29004G23KT 9SM 12/02 A3047 RMK SLP322 T01240023 52019 IEM_DS3505
ZHHH,2008-11-26 16:00,ZHHH 261600Z AUTO 33014G23KT 6SM 11/00 A3047 RMK T01100000 IEM_DS3505
ZHHH,2008-11-26 17:00,ZHHH 261700Z AUTO 02006KT 6SM 08/02 A3050 RMK T00800020 IEM_DS3505
ZHHH,2008-11-26 18:00,ZHHH 261800Z AUTO 29002KT 9SM 08/M01 A3050 RMK 60000 SLP337 T00851011 52015 IEM_DS3505
ZHHH,2008-11-26 19:00,ZHHH 261900Z AUTO 35008KT 6SM 07/M01 A3053 RMK T00701010 IEM_DS3505
ZHHH,2008-11-26 20:00,ZHHH 262000Z AUTO 33004KT 6SM 05/01 A3053 RMK T00500010 IEM_DS3505
ZHHH,2008-11-26 21:00,ZHHH 262100Z AUTO 29002KT 11SM 06/M01 A3053 RMK 70000 SLP342 T00631011 52005 IEM_DS3505
ZHHH,2008-11-26 22:00,ZHHH 262200Z AUTO 35006KT 6SM 05/M01 A3053 RMK T00501010 IEM_DS3505
ZHHH,2008-11-26 23:00,ZHHH 262300Z AUTO 36006KT 6SM 04/M01 A3053 RMK T00401010 IEM_DS3505
ZHHH,2008-11-27 00:00,ZHHH 270000Z AUTO 27002KT 16SM 06/M05 A3056 RMK 70000 SLP354 T00601050 52012 IEM_DS3505
ZHHH,2008-11-27 01:00,ZHHH 270100Z AUTO 34006KT 6SM 07/M03 A3059 RMK T00701030 IEM_DS3505
ZHHH,2008-11-27 02:00,ZHHH 270200Z AUTO 32006KT 6SM 09/M04 A3059 RMK T00901040 IEM_DS3505
ZHHH,2008-11-27 03:00,ZHHH 270300Z AUTO 32006KT 16SM 10/M10 A3056 RMK SLP353 T00991097 57001 IEM_DS3505
ZHHH,2008-11-27 04:00,ZHHH 270400Z AUTO 30006KT 6SM 11/M07 A3053 RMK T01101070 IEM_DS3505
ZHHH,2008-11-27 05:00,ZHHH 270500Z AUTO 30006KT 6SM 11/M07 A3047 RMK T01101070 IEM_DS3505
ZHHH,2008-11-27 06:00,ZHHH 270600Z AUTO 29004KT 17SM 11/M12 A3045 RMK SLP313 T01131115 57040 IEM_DS3505
ZHHH,2008-11-27 07:00,ZHHH 270700Z AUTO 32008KT 6SM 12/M09 A3042 RMK T01201090 IEM_DS3505
ZHHH,2008-11-27 08:00,ZHHH 270800Z AUTO 31004KT 6SM 11/M08 A3042 RMK T01101080 IEM_DS3505
ZHHH,2008-11-27 09:00,ZHHH 270900Z AUTO 27002KT 14SM 10/M11 A3042 RMK SLP300 T01011107 57013 IEM_DS3505
ZHHH,2008-11-27 10:00,ZHHH 271000Z AUTO 6SM 08/M05 A3042 RMK T00801050 IEM_DS3505
ZHHH,2008-11-27 11:00,ZHHH 271100Z AUTO 01004KT 6SM 07/M06 A3042 RMK T00701060 IEM_DS3505
ZHHH,2008-11-27 12:00,ZHHH 271200Z AUTO 02002KT 11SM 06/M04 A3042 RMK SLP307 T00571044 52006 IEM_DS3505
ZHHH,2008-11-27 13:00,ZHHH 271300Z AUTO 00000KT 6SM 06/M04 A3045 RMK T00601040 IEM_DS3505
ZHHH,2008-11-27 14:00,ZHHH 271400Z AUTO 21004KT 6SM 06/M01 A3045 RMK T00601010 IEM_DS3505
ZHHH,2008-11-27 15:00,ZHHH 271500Z AUTO 27002KT 11SM 04/M02 A3045 RMK SLP310 T00451019 52004 IEM_DS3505
ZHHH,2008-11-27 16:00,ZHHH 271600Z AUTO 27002KT 6SM 05/01 A3045 RMK T00500010 IEM_DS3505
ZHHH,2008-11-27 17:00,ZHHH 271700Z AUTO 06004KT 6SM 04/00 A3042 RMK T00400000 IEM_DS3505
ZHHH,2008-11-27 18:00,ZHHH 271800Z AUTO 00000KT 11SM 05/M03 A3042 RMK SLP301 T00531028 57009 IEM_DS3505
ZHHH,2008-11-27 19:00,ZHHH 271900Z AUTO 00000KT 6SM 03/M03 A3042 RMK T00301030 IEM_DS3505
ZHHH,2008-11-27 20:00,ZHHH 272000Z AUTO 09004KT 6SM 03/M02 A3039 RMK T00301020 IEM_DS3505
ZHHH,2008-11-27 21:00,ZHHH 272100Z AUTO 00000KT 9SM 02/01 A3039 RMK SLP287 T00240006 57014 IEM_DS3505
ZHHH,2008-11-27 22:00,ZHHH 272200Z AUTO 09004KT 6SM 02/M01 A3039 RMK T00201010 IEM_DS3505
ZHHH,2008-11-27 23:00,ZHHH 272300Z AUTO 09004KT 6SM 02/00 A3039 RMK T00200000 IEM_DS3505
ZHHH,2008-11-28 00:00,ZHHH 280000Z AUTO 09002KT 12SM 06/02 A3042 RMK SLP300 T00550018 52012 IEM_DS3505
ZHHH,2008-11-28 01:00,ZHHH 280100Z AUTO 6SM 06/03 A3042 RMK T00600030 IEM_DS3505
ZHHH,2008-11-28 02:00,ZHHH 280200Z AUTO 21006KT 6SM 09/03 A3042 RMK T00900030 IEM_DS3505
ZHHH,2008-11-28 03:00,ZHHH 280300Z AUTO 16002KT 11SM 11/M02 A3042 RMK SLP298 T01111020 57001 IEM_DS3505
ZHHH,2008-11-28 04:00,ZHHH 280400Z AUTO 21006KT 6SM 12/M01 A3039 RMK T01201010 IEM_DS3505
ZHHH,2008-11-28 05:00,ZHHH 280500Z AUTO 24008KT 6SM 13/00 A3036 RMK T01300000 IEM_DS3505
ZHHH,2008-11-28 06:00,ZHHH 280600Z AUTO 27004KT 11SM 14/M04 A3033 RMK SLP269 T01391043 57029 IEM_DS3505
ZHHH,2008-11-28 07:00,ZHHH 280700Z AUTO 24006KT 6SM 14/00 A3030 RMK T01400000 IEM_DS3505
ZHHH,2008-11-28 08:00,ZHHH 280800Z AUTO 25006KT 6SM 13/00 A3030 RMK T01300000 IEM_DS3505
ZHHH,2008-11-28 09:00,ZHHH 280900Z AUTO 27002KT 9SM 13/M02 A3030 RMK SLP261 T01261017 57008 IEM_DS3505
ZHHH,2008-11-28 10:00,ZHHH 281000Z AUTO 25004KT 6SM 10/01 A3030 RMK T01000010 IEM_DS3505
ZHHH,2008-11-28 11:00,ZHHH 281100Z AUTO 23004KT 6SM 10/02 A3033 RMK T01000020 IEM_DS3505
ZHHH,2008-11-28 12:00,ZHHH 281200Z AUTO 00000KT 11SM 08/02 A3036 RMK SLP280 T00750020 52019 IEM_DS3505
ZHHH,2008-11-28 13:00,ZHHH 281300Z AUTO 24004KT 6SM 09/03 A3036 RMK T00900030 IEM_DS3505
ZHHH,2008-11-28 14:00,ZHHH 281400Z AUTO 23004KT 6SM 09/02 A3039 RMK T00900020 IEM_DS3505
ZHHH,2008-11-28 15:00,ZHHH 281500Z AUTO 00000KT 12SM 06/02 A3039 RMK SLP291 T00630022 52011 IEM_DS3505
ZHHH,2008-11-28 16:00,ZHHH 281600Z AUTO 01002KT 6SM 06/03 A3039 RMK T00600030 IEM_DS3505
ZHHH,2008-11-28 17:00,ZHHH 281700Z AUTO 06004KT 6SM 07/02 A3039 RMK T00700020 IEM_DS3505
ZHHH,2008-11-28 18:00,ZHHH 281800Z AUTO 00000KT 11SM 05/03 A3039 RMK SLP294 T00500032 52003 IEM_DS3505
ZHHH,2008-11-28 19:00,ZHHH 281900Z AUTO 22002KT 6SM 05/03 A3039 RMK T00500030 IEM_DS3505
ZHHH,2008-11-28 20:00,ZHHH 282000Z AUTO 00000KT 6SM 05/04 A3039 RMK T00500040 IEM_DS3505
ZHHH,2008-11-28 21:00,ZHHH 282100Z AUTO 25002KT 11SM 05/03 A3039 RMK SLP298 T00500033 52004 IEM_DS3505
ZHHH,2008-11-28 22:00,ZHHH 282200Z AUTO 06002KT 6SM 04/03 A3042 RMK T00400030 IEM_DS3505
ZHHH,2008-11-28 23:00,ZHHH 282300Z AUTO 04004KT 2SM 03/03 A3045 RMK T00300030 IEM_DS3505
ZHHH,2008-11-29 00:00,ZHHH 290000Z AUTO 36002KT 14SM 06/03 A3045 RMK SLP313 T00650031 52015 IEM_DS3505
ZHHH,2008-11-29 01:00,ZHHH 290100Z AUTO 00000KT 3SM 07/04 A3045 RMK T00700040 IEM_DS3505
ZHHH,2008-11-29 02:00,ZHHH 290200Z AUTO 3SM 10/05 A3045 RMK T01000050 IEM_DS3505
ZHHH,2008-11-29 03:00,ZHHH 290300Z AUTO 27004KT 16SM 12/03 A3045 RMK SLP314 T01150033 52001 IEM_DS3505
ZHHH,2008-11-29 04:00,ZHHH 290400Z AUTO 28004KT 6SM 13/05 A3045 RMK T01300050 IEM_DS3505
ZHHH,2008-11-29 05:00,ZHHH 290500Z AUTO 26004KT 6SM 15/00 A3039 RMK T01500000 IEM_DS3505
ZHHH,2008-11-29 06:00,ZHHH 290600Z AUTO 29002KT 16SM 16/M05 A3039 RMK SLP286 T01591046 57028 IEM_DS3505
ZHHH,2008-11-29 07:00,ZHHH 290700Z AUTO 26004KT 6SM 16/02 A3036 RMK T01600020 IEM_DS3505
ZHHH,2008-11-29 08:00,ZHHH 290800Z AUTO 6SM 16/02 A3036 RMK T01600020 IEM_DS3505
ZHHH,2008-11-29 09:00,ZHHH 290900Z AUTO 25002KT 16SM 13/M01 A3036 RMK SLP283 T01341010 57003 IEM_DS3505
ZHHH,2008-11-29 10:00,ZHHH 291000Z AUTO 15004KT 6SM 13/M01 A3039 RMK T01301010 IEM_DS3505
ZHHH,2008-11-29 11:00,ZHHH 291100Z AUTO 20004KT 6SM 12/M01 A3039 RMK T01201010 IEM_DS3505
ZHHH,2008-11-29 12:00,ZHHH 291200Z AUTO 00000KT 11SM 07/04 A3042 RMK SLP299 T00740035 52016 IEM_DS3505
ZHHH,2008-11-29 13:00,ZHHH 291300Z AUTO 24004KT 6SM 11/01 A3042 RMK T01100010 IEM_DS3505
ZHHH,2008-11-29 14:00,ZHHH 291400Z AUTO 32002KT 4SM 09/02 A3042 RMK T00900020 IEM_DS3505
ZHHH,2008-11-29 15:00,ZHHH 291500Z AUTO 00000KT 11SM 06/04 A3042 RMK SLP300 T00560038 52001 IEM_DS3505
ZHHH,2008-11-29 16:00,ZHHH 291600Z AUTO 36002KT 3SM 07/03 A3039 RMK T00700030 IEM_DS3505
ZHHH,2008-11-29 17:00,ZHHH 291700Z AUTO 00000KT 3SM 07/05 A3039 RMK T00700050 IEM_DS3505
ZHHH,2008-11-29 18:00,ZHHH 291800Z AUTO 07004KT 11SM 05/04 A3039 RMK SLP286 T00480036 57014 IEM_DS3505
ZHHH,2008-11-29 19:00,ZHHH 291900Z AUTO 3SM 07/02 A3036 RMK T00700020 IEM_DS3505
ZHHH,2008-11-29 20:00,ZHHH 292000Z AUTO 08004KT 3SM 06/03 A3036 RMK T00600030 IEM_DS3505
ZHHH,2008-11-29 21:00,ZHHH 292100Z AUTO 00000KT 9SM 04/04 A3036 RMK SLP282 T00430036 57004 IEM_DS3505
ZHHH,2008-11-29 22:00,ZHHH 292200Z AUTO 2SM 05/04 A3036 RMK T00500040 IEM_DS3505
ZHHH,2008-11-29 23:00,ZHHH 292300Z AUTO 00000KT 1SM 05/04 A3039 RMK T00500040 IEM_DS3505
ZHHH,2008-11-30 00:00,ZHHH 300000Z AUTO 16002KT 6SM 07/06 A3039 RMK SLP295 T00660056 52013 IEM_DS3505
ZHHH,2008-11-30 01:00,ZHHH 300100Z AUTO 12006KT 1SM 07/06 A3039 RMK T00700060 IEM_DS3505
ZHHH,2008-11-30 02:00,ZHHH 300200Z AUTO 14004KT 1SM 10/08 A3039 RMK T01000080 IEM_DS3505
ZHHH,2008-11-30 03:00,ZHHH 300300Z AUTO 16002KT 9SM 14/02 A3039 RMK SLP288 T01420018 57007 IEM_DS3505
ZHHH,2008-11-30 04:00,ZHHH 300400Z AUTO 1 1/2SM 15/06 A3036 RMK T01500060 IEM_DS3505
ZHHH,2008-11-30 05:00,ZHHH 300500Z AUTO 21006KT 3SM 18/02 A3030 RMK T01800020 IEM_DS3505
ZHHH,2008-11-30 06:00,ZHHH 300600Z AUTO 22004KT 12SM 18/M04 A3030 RMK SLP258 T01751038 57030 IEM_DS3505
ZHHH,2008-11-30 07:00,ZHHH 300700Z AUTO 20008KT 6SM 18/00 A3027 RMK T01800000 IEM_DS3505
ZHHH,2008-11-30 08:00,ZHHH 300800Z AUTO 19008KT 6SM 17/00 A3027 RMK T01700000 IEM_DS3505
ZHHH,2008-11-30 09:00,ZHHH 300900Z AUTO 09002KT 12SM 15/M01 A3027 RMK SLP246 T01511010 57012 IEM_DS3505
ZHHH,2008-11-30 10:00,ZHHH 301000Z AUTO 15006KT 6SM 14/00 A3024 RMK T01400000 IEM_DS3505
ZHHH,2008-11-30 11:00,ZHHH 301100Z AUTO 14006KT 6SM 13/01 A3027 RMK T01300010 IEM_DS3505
ZHHH,2008-11-30 12:00,ZHHH 301200Z AUTO 09002KT 11SM 08/03 A3027 RMK SLP249 T00810028 52003 IEM_DS3505
ZHHH,2008-11-30 13:00,ZHHH 301300Z AUTO 12006KT 6SM 11/02 A3027 RMK T01100020 IEM_DS3505
ZHHH,2008-11-30 14:00,ZHHH 301400Z AUTO 13006KT 6SM 11/03 A3027 RMK T01100030 IEM_DS3505
ZHHH,2008-11-30 15:00,ZHHH 301500Z AUTO 09002KT 9SM 07/03 A3027 RMK SLP248 T00710026 57001 IEM_DS3505
ZHHH,2008-11-30 16:00,ZHHH 301600Z AUTO 3SM 08/04 A3027 RMK T00800040 IEM_DS3505
ZHHH,2008-11-30 17:00,ZHHH 301700Z AUTO 07004KT 3SM 08/04 A3024 RMK T00800040 IEM_DS3505
ZHHH,2008-11-30 18:00,ZHHH 301800Z AUTO 00000KT 9SM 06/04 A3024 RMK SLP244 T00600042 57004 IEM_DS3505
ZHHH,2008-11-30 19:00,ZHHH 301900Z AUTO 09006KT 2SM 07/05 A3024 RMK T00700050 IEM_DS3505
ZHHH,2008-11-30 20:00,ZHHH 302000Z AUTO 10006KT 2SM 06/05 A3024 RMK T00600050 IEM_DS3505
ZHHH,2008-11-30 21:00,ZHHH 302100Z AUTO 04002KT 9SM 06/04 A3024 RMK SLP237 T00550041 57007 IEM_DS3505
ZHHH,2008-11-30 22:00,ZHHH 302200Z AUTO 11008KT 1 1/2SM 06/05 A3024 RMK T00600050 IEM_DS3505
ZHHH,2008-11-30 23:00,ZHHH 302300Z AUTO 11006KT 1SM 06/05 A3024 RMK T00600050 IEM_DS3505
ZHHH,2008-12-01 00:00,ZHHH 010000Z AUTO 16002KT 11SM 08/04 A3027 RMK SLP252 T00810041 52015 IEM_DS3505
ZHHH,2008-12-01 01:00,ZHHH 010100Z AUTO 14006KT 1 1/2SM 09/07 A3030 RMK T00900070 IEM_DS3505
ZHHH,2008-12-01 02:00,ZHHH 010200Z AUTO 16004KT 2SM 13/07 A3030 RMK T01300070 IEM_DS3505
ZHHH,2008-12-01 03:00,ZHHH 010300Z AUTO 22004KT 9SM 15/04 A3030 RMK SLP256 T01510036 52004 IEM_DS3505
ZHHH,2008-12-01 04:00,ZHHH 010400Z AUTO 20006KT 4SM 16/06 A3027 RMK T01600060 IEM_DS3505
ZHHH,2008-12-01 05:00,ZHHH 010500Z AUTO 20006KT 6SM 18/06 A3021 RMK T01800060 IEM_DS3505
ZHHH,2008-12-01 06:00,ZHHH 010600Z AUTO 24006KT 6SM 19/07 A3021 RMK T01900070 IEM_DS3505
ZHHH,2008-12-01 07:00,ZHHH 010700Z AUTO 20004KT 6SM 19/07 A3018 RMK T01900070 IEM_DS3505
ZHHH,2008-12-01 08:00,ZHHH 010800Z AUTO 6SM 18/07 A3018 RMK T01800070 IEM_DS3505
ZHHH,2008-12-01 09:00,ZHHH 010900Z AUTO 18002KT 11SM 16/05 A3018 RMK SLP216 T01550054 57011 IEM_DS3505
ZHHH,2008-12-01 10:00,ZHHH 011000Z AUTO 16004KT 3SM 15/06 A3018 RMK T01500060 IEM_DS3505
ZHHH,2008-12-01 11:00,ZHHH 011100Z AUTO 17004KT 3SM 14/07 A3018 RMK T01400070 IEM_DS3505
ZHHH,2008-12-01 12:00,ZHHH 011200Z AUTO 22002KT 11SM 11/06 A3018 RMK SLP224 T01070057 52008 IEM_DS3505
ZHHH,2008-12-01 13:00,ZHHH 011300Z AUTO 23002KT 2 1/2SM 11/07 A3021 RMK T01100070 IEM_DS3505
ZHHH,2008-12-01 14:00,ZHHH 011400Z AUTO 17002KT 2 1/2SM 11/07 A3021 RMK T01100070 IEM_DS3505
ZHHH,2008-12-01 15:00,ZHHH 011500Z AUTO 00000KT 9SM 08/07 A3021 RMK SLP229 T00840067 52005 IEM_DS3505
ZHHH,2008-12-01 16:00,ZHHH 011600Z AUTO 16006KT 2 1/2SM 10/07 A3018 RMK T01000070 IEM_DS3505
ZHHH,2008-12-01 17:00,ZHHH 011700Z AUTO 12004KT 2SM 10/08 A3018 RMK T01000080 IEM_DS3505
ZHHH,2008-12-01 18:00,ZHHH 011800Z AUTO 00000KT 7SM 07/06 A3018 RMK SLP217 T00740065 57011 IEM_DS3505
ZHHH,2008-12-01 19:00,ZHHH 011900Z AUTO 07006KT 2SM 07/06 A3018 RMK T00700060 IEM_DS3505
ZHHH,2008-12-01 20:00,ZHHH 012000Z AUTO 10008KT 2SM 07/06 A3015 RMK T00700060 IEM_DS3505
ZHHH,2008-12-01 21:00,ZHHH 012100Z AUTO 00000KT 5SM 07/06 A3015 RMK SLP209 T00690063 57009 IEM_DS3505
ZHHH,2008-12-01 22:00,ZHHH 012200Z AUTO 10008KT 2SM 07/05 A3015 RMK T00700050 IEM_DS3505
ZHHH,2008-12-01 23:00,ZHHH 012300Z AUTO 12008KT 1 1/2SM 07/05 A3015 RMK T00700050 IEM_DS3505
ZHHH,2008-12-02 00:00,ZHHH 020000Z AUTO 09002KT 7SM 08/07 A3015 RMK SLP209 T00810072 54000 IEM_DS3505
ZHHH,2008-12-02 01:00,ZHHH 020100Z AUTO 12008KT 1 1/2SM 10/07 A3015 RMK T01000070 IEM_DS3505
ZHHH,2008-12-02 02:00,ZHHH 020200Z AUTO 12010KT 1 1/2SM 12/08 A3015 RMK T01200080 IEM_DS3505
ZHHH,2008-12-02 03:00,ZHHH 020300Z AUTO 14002KT 9SM 17/05 A3015 RMK SLP209 T01740050 52001 IEM_DS3505
ZHHH,2008-12-02 04:00,ZHHH 020400Z AUTO 14006KT 2SM 17/08 A3012 RMK T01700080 IEM_DS3505
ZHHH,2008-12-02 05:00,ZHHH 020500Z AUTO 11006KT 2 1/2SM 18/08 A3009 RMK T01800080 IEM_DS3505
ZHHH,2008-12-02 06:00,ZHHH 020600Z AUTO 16002KT 9SM 20/03 A3006 RMK SLP175 T02030031 57034 IEM_DS3505
ZHHH,2008-12-02 07:00,ZHHH 020700Z AUTO 12008KT 3SM 19/08 A3003 RMK T01900080 IEM_DS3505
ZHHH,2008-12-02 08:00,ZHHH 020800Z AUTO 13006KT 4SM 19/08 A3000 RMK T01900080 IEM_DS3505
ZHHH,2008-12-02 09:00,ZHHH 020900Z AUTO 09002KT 11SM 17/05 A3000 RMK SLP155 T01740047 57020 IEM_DS3505
ZHHH,2008-12-02 10:00,ZHHH 021000Z AUTO 10008KT 2 1/2SM 15/09 A3000 RMK T01500090 IEM_DS3505
ZHHH,2008-12-02 11:00,ZHHH 021100Z AUTO 10010KT 2 1/2SM 14/08 A3000 RMK T01400080 IEM_DS3505
ZHHH,2008-12-02 12:00,ZHHH 021200Z AUTO 09002KT 9SM 12/07 A3000 RMK SLP156 T01180071 54000 IEM_DS3505
ZHHH,2008-12-02 13:00,ZHHH 021300Z AUTO 11010KT 2 1/2SM 13/08 A2997 RMK T01300080 IEM_DS3505
ZHHH,2008-12-02 14:00,ZHHH 021400Z AUTO 12010KT 2 1/2SM 13/07 A3000 RMK T01300070 IEM_DS3505
ZHHH,2008-12-02 15:00,ZHHH 021500Z AUTO 09002KT 9SM 11/06 A2997 RMK SLP153 T01060060 57002 IEM_DS3505
ZHHH,2008-12-02 16:00,ZHHH 021600Z AUTO 12010KT 4SM 12/06 A2997 RMK T01200060 IEM_DS3505
ZHHH,2008-12-02 17:00,ZHHH 021700Z AUTO 11010KT 4SM 12/06 A2997 RMK T01200060 IEM_DS3505
ZHHH,2008-12-02 18:00,ZHHH 021800Z AUTO 09002KT 9SM 12/04 A2994 RMK SLP140 T01200045 57013 IEM_DS3505
ZHHH,2008-12-02 19:00,ZHHH 021900Z AUTO 11010KT 6SM 12/05 A2994 RMK T01200050 IEM_DS3505
ZHHH,2008-12-02 20:00,ZHHH 022000Z AUTO 12010KT 6SM 12/05 A2994 RMK T01200050 IEM_DS3505
ZHHH,2008-12-02 21:00,ZHHH 022100Z AUTO 09002KT 9SM 11/04 A2994 RMK SLP137 T01120042 57003 IEM_DS3505
ZHHH,2008-12-02 22:00,ZHHH 022200Z AUTO 12010KT 6SM 12/05 A2994 RMK T01200050 IEM_DS3505
ZHHH,2008-12-02 23:00,ZHHH 022300Z AUTO 11012KT 6SM 12/05 A2994 RMK T01200050 IEM_DS3505
ZHHH,2008-12-03 00:00,ZHHH 030000Z AUTO 11002KT 9SM 13/04 A2994 RMK SLP140 T01270039 52003 IEM_DS3505
ZHHH,2008-12-03 01:00,ZHHH 030100Z AUTO 11010KT 6SM 13/06 A2994 RMK T01300060 IEM_DS3505
ZHHH,2008-12-03 02:00,ZHHH 030200Z AUTO 13010KT 6SM 15/07 A2994 RMK T01500070 IEM_DS3505
ZHHH,2008-12-03 03:00,ZHHH 030300Z AUTO 11004KT 11SM 18/02 A2994 RMK SLP143 T01820025 52003 IEM_DS3505
ZHHH,2008-12-03 04:00,ZHHH 030400Z AUTO 6SM 19/07 A2994 RMK T01900070 IEM_DS3505
ZHHH,2008-12-03 05:00,ZHHH 030500Z AUTO 12006KT 4SM 20/07 A2991 RMK T02000070 IEM_DS3505
ZHHH,2008-12-03 06:00,ZHHH 030600Z AUTO 25002KT 11SM 22/03 A2988 RMK SLP123 T02200032 57020 IEM_DS3505
ZHHH,2008-12-03 07:00,ZHHH 030700Z AUTO 18006KT 6SM 22/06 A2988 RMK T02200060 IEM_DS3505
ZHHH,2008-12-03 08:00,ZHHH 030800Z AUTO 18006KT 6SM 21/07 A2991 RMK T02100070 IEM_DS3505
ZHHH,2008-12-03 09:00,ZHHH 030900Z AUTO 07002KT 9SM 18/08 A2994 RMK SLP136 T01840075 52013 IEM_DS3505
ZHHH,2008-12-03 10:00,ZHHH 031000Z AUTO 05006KT 6SM 17/09 A2997 RMK T01700090 IEM_DS3505
ZHHH,2008-12-03 11:00,ZHHH 031100Z AUTO 06006KT 6SM 15/09 A3000 RMK T01500090 IEM_DS3505
ZHHH,2008-12-03 12:00,ZHHH 031200Z AUTO 00000KT 9SM 14/07 A3006 RMK SLP173 T01450071 52037 IEM_DS3505
ZHHH,2008-12-03 13:00,ZHHH 031300Z AUTO 04014KT 6SM 15/07 A3009 RMK T01500070 IEM_DS3505
ZHHH,2008-12-03 14:00,ZHHH 031400Z AUTO 03010KT 6SM 14/07 A3015 RMK T01400070 IEM_DS3505
ZHHH,2008-12-03 15:00,ZHHH 031500Z AUTO 04004KT 9SM 14/04 A3015 RMK SLP211 T01390045 52038 IEM_DS3505
ZHHH,2008-12-03 16:00,ZHHH 031600Z AUTO 03010KT 6SM 13/04 A3018 RMK T01300040 IEM_DS3505
ZHHH,2008-12-03 17:00,ZHHH 031700Z AUTO 02010G19KT 2 1/2SM 13/04 A3021 RMK T01300040 IEM_DS3505
ZHHH,2008-12-03 18:00,ZHHH 031800Z AUTO 04008KT 7SM 14/M01 A3024 RMK SLP243 T01391009 52032 IEM_DS3505
ZHHH,2008-12-03 19:00,ZHHH 031900Z AUTO 03012G21KT 6SM 12/01 A3027 RMK T01200010 IEM_DS3505
ZHHH,2008-12-03 20:00,ZHHH 032000Z AUTO 03008KT 6SM 12/01 A3030 RMK T01200010 IEM_DS3505
ZHHH,2008-12-03 21:00,ZHHH 032100Z AUTO 04006G21KT 7SM 13/M01 A3030 RMK SLP262 T01291011 52019 IEM_DS3505
ZHHH,2008-12-03 22:00,ZHHH 032200Z AUTO 02014G25KT 6SM 12/M01 A3036 RMK T01201010 IEM_DS3505
ZHHH,2008-12-03 23:00,ZHHH 032300Z AUTO 02012KT 6SM 12/M04 A3036 RMK T01201040 IEM_DS3505
ZHHH,2008-12-04 00:00,ZHHH 040000Z AUTO 02004G23KT 9SM 12/M06 A3042 RMK SLP298 T01231057 52035 IEM_DS3505
ZHHH,2008-12-04 01:00,ZHHH 040100Z AUTO 02014G23KT 6SM 11/M04 A3045 RMK T01101040 IEM_DS3505
ZHHH,2008-12-04 02:00,ZHHH 040200Z AUTO 02016G27KT 6SM 10/M01 A3047 RMK T01001010 IEM_DS3505
ZHHH,2008-12-04 03:00,ZHHH 040300Z AUTO 02008KT 9SM 07/03 A3050 RMK SLP330 T00690026 52032 IEM_DS3505
ZHHH,2008-12-04 04:00,ZHHH 040400Z AUTO 02008KT 4SM 07/06 A3047 RMK T00700060 IEM_DS3505
ZHHH,2008-12-04 05:00,ZHHH 040500Z AUTO 03008KT 3SM 08/04 A3047 RMK T00800040 IEM_DS3505
ZHHH,2008-12-04 06:00,ZHHH 040600Z AUTO 02004G19KT 11SM 10/01 A3047 RMK 60000 SLP318 T00950009 57012 IEM_DS3505
ZHHH,2008-12-04 07:00,ZHHH 040700Z AUTO 04010KT 4SM 11/M05 A3047 RMK T01101050 IEM_DS3505
ZHHH,2008-12-04 08:00,ZHHH 040800Z AUTO 03014KT 6SM 11/M08 A3050 RMK T01101080 IEM_DS3505
ZHHH,2008-12-04 09:00,ZHHH 040900Z AUTO 04008KT 12SM 10/M09 A3053 RMK SLP344 T01031094 52026 IEM_DS3505
ZHHH,2008-12-04 10:00,ZHHH 041000Z AUTO 04010KT 6SM 09/M07 A3059 RMK T00901070 IEM_DS3505
ZHHH,2008-12-04 11:00,ZHHH 041100Z AUTO 05010KT 6SM 08/M07 A3062 RMK T00801070 IEM_DS3505
ZHHH,2008-12-04 12:00,ZHHH 041200Z AUTO 07004KT 11SM 09/M09 A3065 RMK SLP378 T00861089 52034 IEM_DS3505
ZHHH,2008-12-04 13:00,ZHHH 041300Z AUTO 04014KT 6SM 07/M10 A3068 RMK T00701100 IEM_DS3505
ZHHH,2008-12-04 14:00,ZHHH 041400Z AUTO 06014KT 6SM 06/M11 A3068 RMK T00601110 IEM_DS3505
ZHHH,2008-12-04 15:00,ZHHH 041500Z AUTO 09004KT 11SM 06/M15 A3071 RMK SLP397 T00621151 52018 IEM_DS3505
ZHHH,2008-12-04 16:00,ZHHH 041600Z AUTO 04014KT 6SM 05/M16 A3071 RMK T00501160 IEM_DS3505
ZHHH,2008-12-04 17:00,ZHHH 041700Z AUTO 05010KT 6SM 04/M14 A3071 RMK T00401140 IEM_DS3505
ZHHH,2008-12-04 18:00,ZHHH 041800Z AUTO 07002KT 16SM 04/M14 A3068 RMK SLP395 T00421141 57002 IEM_DS3505
ZHHH,2008-12-04 19:00,ZHHH 041900Z AUTO 06004KT 6SM 02/M12 A3068 RMK T00201120 IEM_DS3505
ZHHH,2008-12-04 20:00,ZHHH 042000Z AUTO 04006KT 6SM 02/M12 A3068 RMK T00201120 IEM_DS3505
ZHHH,2008-12-04 21:00,ZHHH 042100Z AUTO 07004KT 16SM 03/M15 A3065 RMK 70000 SLP387 T00291152 57008 IEM_DS3505
ZHHH,2008-12-04 22:00,ZHHH 042200Z AUTO 02004KT 6SM 00/M12 A3071 RMK T00001120 IEM_DS3505
ZHHH,2008-12-04 23:00,ZHHH 042300Z AUTO 04006KT 6SM 00/M13 A3071 RMK T00001130 IEM_DS3505
ZHHH,2008-12-05 00:00,ZHHH 050000Z AUTO 07004KT 16SM 02/M17 A3071 RMK 70000 SLP407 T00171172 52020 IEM_DS3505
ZHHH,2008-12-05 01:00,ZHHH 050100Z AUTO 04008KT 6SM 03/M14 A3074 RMK T00301140 IEM_DS3505
ZHHH,2008-12-05 02:00,ZHHH 050200Z AUTO 07010KT 6SM 05/M15 A3074 RMK T00501150 IEM_DS3505
ZHHH,2008-12-05 03:00,ZHHH 050300Z AUTO 07004KT 16SM 06/M17 A3071 RMK SLP405 T00581174 57002 IEM_DS3505
ZHHH,2008-12-05 04:00,ZHHH 050400Z AUTO 06008KT 6SM 07/M17 A3068 RMK T00701170 IEM_DS3505
ZHHH,2008-12-05 05:00,ZHHH 050500Z AUTO 07004KT 6SM 08/M15 A3062 RMK T00801150 IEM_DS3505
ZHHH,2008-12-05 06:00,ZHHH 050600Z AUTO 27002KT 16SM 08/M17 A3059 RMK SLP362 T00771173 57043 IEM_DS3505
ZHHH,2008-12-05 07:00,ZHHH 050700Z AUTO 04004KT 6SM 08/M15 A3056 RMK T00801150 IEM_DS3505
ZHHH,2008-12-05 08:00,ZHHH 050800Z AUTO 6SM 08/M14 A3056 RMK T00801140 IEM_DS3505
ZHHH,2008-12-05 09:00,ZHHH 050900Z AUTO 07004KT 11SM 07/M17 A3056 RMK SLP347 T00681166 57015 IEM_DS3505
ZHHH,2008-12-05 10:00,ZHHH 051000Z AUTO 35002KT 6SM 06/M11 A3053 RMK T00601110 IEM_DS3505
ZHHH,2008-12-05 11:00,ZHHH 051100Z AUTO 6SM 05/M07 A3056 RMK T00501070 IEM_DS3505
ZHHH,2008-12-05 12:00,ZHHH 051200Z AUTO 36002KT 12SM 06/M10 A3056 RMK SLP354 T00601098 52007 IEM_DS3505
ZHHH,2008-12-05 13:00,ZHHH 051300Z AUTO 01002KT 6SM 04/M07 A3059 RMK T00401070 IEM_DS3505
ZHHH,2008-12-05 14:00,ZHHH 051400Z AUTO 01004KT 6SM 04/M07 A3059 RMK T00401070 IEM_DS3505
ZHHH,2008-12-05 15:00,ZHHH 051500Z AUTO 27002KT 12SM 04/M08 A3059 RMK SLP360 T00451083 52006 IEM_DS3505
ZHHH,2008-12-05 16:00,ZHHH 051600Z AUTO 05006KT 6SM 02/M07 A3056 RMK T00201070 IEM_DS3505
ZHHH,2008-12-05 17:00,ZHHH 051700Z AUTO 08006KT 6SM 01/M07 A3056 RMK T00101070 IEM_DS3505
ZHHH,2008-12-05 18:00,ZHHH 051800Z AUTO 00000KT 11SM 03/M10 A3059 RMK SLP360 T00281098 54000 IEM_DS3505
ZHHH,2008-12-05 19:00,ZHHH 051900Z AUTO 07004KT 6SM 01/M08 A3059 RMK T00101080 IEM_DS3505
ZHHH,2008-12-05 20:00,ZHHH 052000Z AUTO 6SM 00/M08 A3056 RMK T00001080 IEM_DS3505
ZHHH,2008-12-05 21:00,ZHHH 052100Z AUTO 04002KT 11SM 01/M06 A3056 RMK SLP351 T00091058 57009 IEM_DS3505
ZHHH,2008-12-05 22:00,ZHHH 052200Z AUTO 07006KT 6SM 00/M07 A3056 RMK T00001070 IEM_DS3505
ZHHH,2008-12-05 23:00,ZHHH 052300Z AUTO 07006KT 3SM M01/M05 A3059 RMK T10101050 IEM_DS3505
ZHHH,2008-12-06 00:00,ZHHH 060000Z AUTO 07004KT 11SM 02/M05 A3059 RMK SLP359 T00161047 52008 IEM_DS3505
ZHHH,2008-12-06 01:00,ZHHH 060100Z AUTO 08008KT 6SM 02/M04 A3059 RMK T00201040 IEM_DS3505
ZHHH,2008-12-06 02:00,ZHHH 060200Z AUTO 11008KT 6SM 04/M02 A3059 RMK T00401020 IEM_DS3505
ZHHH,2008-12-06 03:00,ZHHH 060300Z AUTO 11002KT 11SM 08/M12 A3056 RMK SLP356 T00811118 57003 IEM_DS3505
ZHHH,2008-12-06 04:00,ZHHH 060400Z AUTO 6SM 08/M07 A3053 RMK T00801070 IEM_DS3505
ZHHH,2008-12-06 05:00,ZHHH 060500Z AUTO 12006KT 6SM 09/M08 A3050 RMK T00901080 IEM_DS3505
ZHHH,2008-12-06 06:00,ZHHH 060600Z AUTO 09002KT 12SM 10/M11 A3047 RMK SLP313 T01021112 57042 IEM_DS3505
ZHHH,2008-12-06 07:00,ZHHH 060700Z AUTO 11006KT 6SM 09/M08 A3042 RMK T00901080 IEM_DS3505
ZHHH,2008-12-06 08:00,ZHHH 060800Z AUTO 13004KT 6SM 09/M08 A3042 RMK T00901080 IEM_DS3505
ZHHH,2008-12-06 09:00,ZHHH 060900Z AUTO 07002KT 12SM 09/M10 A3042 RMK SLP302 T00881101 57012 IEM_DS3505
ZHHH,2008-12-06 10:00,ZHHH 061000Z AUTO 09008KT 6SM 06/M07 A3042 RMK T00601070 IEM_DS3505
ZHHH,2008-12-06 11:00,ZHHH 061100Z AUTO 09008KT 6SM 06/M08 A3042 RMK T00601080 IEM_DS3505
ZHHH,2008-12-06 12:00,ZHHH 061200Z AUTO 07002KT 12SM 05/M06 A3042 RMK SLP302 T00501059 54000 IEM_DS3505
ZHHH,2008-12-06 13:00,ZHHH 061300Z AUTO 10010KT 6SM 05/M08 A3042 RMK T00501080 IEM_DS3505
ZHHH,2008-12-06 14:00,ZHHH 061400Z AUTO 13008KT 6SM 05/M05 A3042 RMK T00501050 IEM_DS3505
ZHHH,2008-12-06 15:00,ZHHH 061500Z AUTO 11004KT 11SM 07/M07 A3042 RMK SLP299 T00661067 57002 IEM_DS3505
ZHHH,2008-12-06 16:00,ZHHH 061600Z AUTO 13004KT 6SM 04/M02 A3039 RMK T00401020 IEM_DS3505
ZHHH,2008-12-06 17:00,ZHHH 061700Z AUTO 10006KT 6SM 04/M01 A3039 RMK T00401010 IEM_DS3505
ZHHH,2008-12-06 18:00,ZHHH 061800Z AUTO 14002KT 11SM 06/M05 A3036 RMK SLP286 T00631048 57013 IEM_DS3505
ZHHH,2008-12-06 19:00,ZHHH 061900Z AUTO 14006KT 6SM 05/M03 A3036 RMK T00501030 IEM_DS3505
ZHHH,2008-12-06 20:00,ZHHH 062000Z AUTO 12006KT 6SM 05/M02 A3036 RMK T00501020 IEM_DS3505
ZHHH,2008-12-06 21:00,ZHHH 062100Z AUTO 18002KT 11SM 05/M03 A3033 RMK SLP273 T00531028 57013 IEM_DS3505
ZHHH,2008-12-06 22:00,ZHHH 062200Z AUTO 13004KT 6SM 04/M01 A3033 RMK T00401010 IEM_DS3505
ZHHH,2008-12-06 23:00,ZHHH 062300Z AUTO 08006KT 6SM 03/M01 A3033 RMK T00301010 IEM_DS3505
ZHHH,2008-12-07 00:00,ZHHH 070000Z AUTO 00000KT 11SM 05/M02 A3036 RMK SLP284 T00481023 52010 IEM_DS3505
ZHHH,2008-12-07 01:00,ZHHH 070100Z AUTO 13006KT 6SM 05/01 A3036 RMK T00500010 IEM_DS3505
ZHHH,2008-12-07 02:00,ZHHH 070200Z AUTO 14004KT 6SM 07/01 A3036 RMK T00700010 IEM_DS3505
ZHHH,2008-12-07 03:00,ZHHH 070300Z AUTO 22002KT 11SM 09/M02 A3039 RMK SLP290 T00911016 52007 IEM_DS3505
ZHHH,2008-12-07 04:00,ZHHH 070400Z AUTO 32004KT 6SM 10/00 A3036 RMK T01000000 IEM_DS3505
ZHHH,2008-12-07 05:00,ZHHH 070500Z AUTO 6SM 10/M01 A3030 RMK T01001010 IEM_DS3505
ZHHH,2008-12-07 06:00,ZHHH 070600Z AUTO 27002KT 11SM 11/M02 A3030 RMK SLP258 T01061021 57032 IEM_DS3505
ZHHH,2008-12-07 07:00,ZHHH 070700Z AUTO 19006KT 6SM 10/00 A3027 RMK T01000000 IEM_DS3505
ZHHH,2008-12-07 08:00,ZHHH 070800Z AUTO 20004KT 6SM 09/00 A3027 RMK T00900000 IEM_DS3505
ZHHH,2008-12-07 09:00,ZHHH 070900Z AUTO 20002KT 9SM 10/M02 A3027 RMK SLP251 T00971023 57007 IEM_DS3505
ZHHH,2008-12-07 10:00,ZHHH 071000Z AUTO 19004KT 6SM 09/00 A3030 RMK T00900000 IEM_DS3505
ZHHH,2008-12-07 11:00,ZHHH 071100Z AUTO 23004KT 4SM 08/01 A3033 RMK T00800010 IEM_DS3505
ZHHH,2008-12-07 12:00,ZHHH 071200Z AUTO 11002KT 9SM 09/01 A3036 RMK 60000 SLP279 T00860013 52028 IEM_DS3505
ZHHH,2008-12-07 13:00,ZHHH 071300Z AUTO 00000KT 2 1/2SM 07/02 A3036 RMK T00700020 IEM_DS3505
ZHHH,2008-12-07 14:00,ZHHH 071400Z AUTO 22006KT 2 1/2SM 07/03 A3039 RMK T00700030 IEM_DS3505
ZHHH,2008-12-07 15:00,ZHHH 071500Z AUTO 16002KT 9SM 07/02 A3036 RMK SLP280 T00680015 52001 IEM_DS3505
ZHHH,2008-12-07 16:00,ZHHH 071600Z AUTO 31002KT 2SM 05/03 A3039 RMK T00500030 IEM_DS3505
ZHHH,2008-12-07 17:00,ZHHH 071700Z AUTO 19006KT 2SM 05/03 A3036 RMK T00500030 IEM_DS3505
ZHHH,2008-12-07 18:00,ZHHH 071800Z AUTO 29002KT 11SM 06/00 A3036 RMK SLP283 T00620001 52003 IEM_DS3505
ZHHH,2008-12-07 19:00,ZHHH 071900Z AUTO 2SM 05/03 A3036 RMK T00500030 IEM_DS3505
ZHHH,2008-12-07 20:00,ZHHH 072000Z AUTO 21004KT 2SM 05/02 A3033 RMK T00500020 IEM_DS3505
ZHHH,2008-12-07 21:00,ZHHH 072100Z AUTO 18002KT 11SM 05/00 A3033 RMK 70000 SLP267 T00470003 57016 IEM_DS3505
ZHHH,2008-12-07 22:00,ZHHH 072200Z AUTO 2 1/2SM 03/01 A3033 RMK T00300010 IEM_DS3505
ZHHH,2008-12-07 23:00,ZHHH 072300Z AUTO 14004KT 2 1/2SM 04/02 A3033 RMK T00400020 IEM_DS3505
ZHHH,2008-12-08 00:00,ZHHH 080000Z AUTO 18002KT 12SM 05/03 A3033 RMK 70000 SLP271 T00460026 52004 IEM_DS3505
ZHHH,2008-12-08 01:00,ZHHH 080100Z AUTO 20006KT 2 1/2SM 07/05 A3033 RMK T00700050 IEM_DS3505
ZHHH,2008-12-08 02:00,ZHHH 080200Z AUTO 22010KT 3SM 09/05 A3030 RMK T00900050 IEM_DS3505
ZHHH,2008-12-08 03:00,ZHHH 080300Z AUTO 25004KT 12SM 12/03 A3030 RMK SLP258 T01160034 57013 IEM_DS3505
ZHHH,2008-12-08 04:00,ZHHH 080400Z AUTO 23010KT 4SM 14/06 A3024 RMK T01400060 IEM_DS3505
ZHHH,2008-12-08 05:00,ZHHH 080500Z AUTO 24012KT 6SM 15/06 A3021 RMK T01500060 IEM_DS3505
ZHHH,2008-12-08 06:00,ZHHH 080600Z AUTO 22008KT 12SM 15/04 A3015 RMK SLP216 T01540035 57042 IEM_DS3505
ZHHH,2008-12-08 07:00,ZHHH 080700Z AUTO 22012KT 6SM 16/06 A3012 RMK T01600060 IEM_DS3505
ZHHH,2008-12-08 08:00,ZHHH 080800Z AUTO 22012KT 6SM 15/06 A3012 RMK T01500060 IEM_DS3505
ZHHH,2008-12-08 09:00,ZHHH 080900Z AUTO 29002KT 11SM 14/04 A3012 RMK SLP199 T01380041 57017 IEM_DS3505
ZHHH,2008-12-08 10:00,ZHHH 081000Z AUTO 22008KT 6SM 12/06 A3012 RMK T01200060 IEM_DS3505
ZHHH,2008-12-08 11:00,ZHHH 081100Z AUTO 21008KT 6SM 10/06 A3012 RMK T01000060 IEM_DS3505
ZHHH,2008-12-08 12:00,ZHHH 081200Z AUTO 20004KT 11SM 12/03 A3009 RMK SLP199 T01210033 54000 IEM_DS3505
ZHHH,2008-12-08 13:00,ZHHH 081300Z AUTO 19010KT 6SM 10/06 A3009 RMK T01000060 IEM_DS3505
ZHHH,2008-12-08 14:00,ZHHH 081400Z AUTO 21014KT 6SM 11/06 A3009 RMK T01100060 IEM_DS3505
ZHHH,2008-12-08 15:00,ZHHH 081500Z AUTO 20004KT 11SM 11/04 A3009 RMK SLP189 T01070042 57010 IEM_DS3505
ZHHH,2008-12-08 16:00,ZHHH 081600Z AUTO 17008KT 6SM 10/06 A3009 RMK T01000060 IEM_DS3505
ZHHH,2008-12-08 17:00,ZHHH 081700Z AUTO 16006KT 6SM 09/05 A3006 RMK T00900050 IEM_DS3505
ZHHH,2008-12-08 18:00,ZHHH 081800Z AUTO 16002KT 11SM 09/03 A3006 RMK SLP181 T00870033 57007 IEM_DS3505
ZHHH,2008-12-08 19:00,ZHHH 081900Z AUTO 14006KT 6SM 08/05 A3006 RMK T00800050 IEM_DS3505
ZHHH,2008-12-08 20:00,ZHHH 082000Z AUTO 11008KT 6SM 07/05 A3006 RMK T00700050 IEM_DS3505
ZHHH,2008-12-08 21:00,ZHHH 082100Z AUTO 09002KT 11SM 07/03 A3003 RMK SLP174 T00660032 57008 IEM_DS3505
ZHHH,2008-12-08 22:00,ZHHH 082200Z AUTO 12010KT 4SM 07/05 A3003 RMK T00700050 IEM_DS3505
ZHHH,2008-12-08 23:00,ZHHH 082300Z AUTO 08008KT 4SM 06/05 A3006 RMK T00600050 IEM_DS3505
ZHHH,2008-12-09 00:00,ZHHH 090000Z AUTO 04002KT 12SM 06/04 A3009 RMK SLP190 T00590037 52016 IEM_DS3505
ZHHH,2008-12-09 01:00,ZHHH 090100Z AUTO 12008KT 3SM 09/06 A3012 RMK T00900060 IEM_DS3505
ZHHH,2008-12-09 02:00,ZHHH 090200Z AUTO 14008KT 3SM 11/06 A3012 RMK T01100060 IEM_DS3505
ZHHH,2008-12-09 03:00,ZHHH 090300Z AUTO 14004KT 16SM 15/04 A3009 RMK SLP189 T01510039 54000 IEM_DS3505
ZHHH,2008-12-09 04:00,ZHHH 090400Z AUTO 20008KT 6SM 17/07 A3006 RMK T01700070 IEM_DS3505
ZHHH,2008-12-09 05:00,ZHHH 090500Z AUTO 22006KT 6SM 18/08 A3003 RMK T01800080 IEM_DS3505
ZHHH,2008-12-09 06:00,ZHHH 090600Z AUTO 18006KT 14SM 19/04 A3000 RMK SLP162 T01870045 57027 IEM_DS3505
ZHHH,2008-12-09 07:00,ZHHH 090700Z AUTO 19010KT 6SM 18/08 A3000 RMK T01800080 IEM_DS3505
ZHHH,2008-12-09 08:00,ZHHH 090800Z AUTO 18008KT 6SM 19/08 A3000 RMK T01900080 IEM_DS3505
ZHHH,2008-12-09 09:00,ZHHH 090900Z AUTO 11002KT 12SM 17/05 A3000 RMK SLP159 T01690049 57003 IEM_DS3505
ZHHH,2008-12-09 10:00,ZHHH 091000Z AUTO 16006KT 4SM 15/06 A3000 RMK T01500060 IEM_DS3505
ZHHH,2008-12-09 11:00,ZHHH 091100Z AUTO 13006KT 3SM 14/06 A3003 RMK T01400060 IEM_DS3505
ZHHH,2008-12-09 12:00,ZHHH 091200Z AUTO 00000KT 12SM 13/04 A3003 RMK SLP167 T01310040 52007 IEM_DS3505
ZHHH,2008-12-09 13:00,ZHHH 091300Z AUTO 11006KT 2 1/2SM 12/06 A3003 RMK T01200060 IEM_DS3505
ZHHH,2008-12-09 14:00,ZHHH 091400Z AUTO 10006KT 2 1/2SM 12/06 A3003 RMK T01200060 IEM_DS3505
ZHHH,2008-12-09 15:00,ZHHH 091500Z AUTO 09002KT 11SM 10/05 A3003 RMK SLP174 T01040048 52008 IEM_DS3505
ZHHH,2008-12-09 16:00,ZHHH 091600Z AUTO 11008KT 2SM 10/07 A3006 RMK T01000070 IEM_DS3505
ZHHH,2008-12-09 17:00,ZHHH 091700Z AUTO 11008KT 2SM 09/07 A3003 RMK T00900070 IEM_DS3505
ZHHH,2008-12-09 18:00,ZHHH 091800Z AUTO 00000KT 11SM 07/05 A3003 RMK SLP170 T00710046 57004 IEM_DS3505
ZHHH,2008-12-09 19:00,ZHHH 091900Z AUTO 12008KT 1 1/2SM 09/07 A3003 RMK T00900070 IEM_DS3505
ZHHH,2008-12-09 20:00,ZHHH 092000Z AUTO 08004KT 1 1/2SM 08/07 A3003 RMK T00800070 IEM_DS3505
ZHHH,2008-12-09 21:00,ZHHH 092100Z AUTO 00000KT 9SM 05/04 A3003 RMK SLP175 T00540044 52004 IEM_DS3505
ZHHH,2008-12-09 22:00,ZHHH 092200Z AUTO 10004KT 2 1/2SM 08/06 A3006 RMK T00800060 IEM_DS3505
ZHHH,2008-12-09 23:00,ZHHH 092300Z AUTO 12004KT 2 1/2SM 08/05 A3006 RMK T00800050 IEM_DS3505
ZHHH,2008-12-10 00:00,ZHHH 100000Z AUTO 09002KT 7SM 06/05 A3009 RMK SLP191 T00590052 52016 IEM_DS3505
ZHHH,2008-12-10 01:00,ZHHH 100100Z AUTO 14004KT 4SM 10/07 A3012 RMK T01000070 IEM_DS3505
ZHHH,2008-12-10 02:00,ZHHH 100200Z AUTO 14006KT 6SM 14/07 A3012 RMK T01400070 IEM_DS3505
ZHHH,2008-12-10 03:00,ZHHH 100300Z AUTO 11004KT 11SM 17/02 A3012 RMK SLP198 T01680020 52008 IEM_DS3505
ZHHH,2008-12-10 04:00,ZHHH 100400Z AUTO 14006KT 6SM 18/07 A3009 RMK T01800070 IEM_DS3505
ZHHH,2008-12-10 05:00,ZHHH 100500Z AUTO 6SM 21/06 A3006 RMK T02100060 IEM_DS3505
ZHHH,2008-12-10 06:00,ZHHH 100600Z AUTO 25002KT 11SM 21/01 A3006 RMK SLP180 T02110014 57018 IEM_DS3505
ZHHH,2008-12-10 07:00,ZHHH 100700Z AUTO 24004KT 6SM 21/06 A3006 RMK T02100060 IEM_DS3505
ZHHH,2008-12-10 08:00,ZHHH 100800Z AUTO 33006KT 6SM 19/07 A3009 RMK T01900070 IEM_DS3505
ZHHH,2008-12-10 09:00,ZHHH 100900Z AUTO 32002KT 9SM 18/04 A3009 RMK SLP193 T01760045 52012 IEM_DS3505
ZHHH,2008-12-10 10:00,ZHHH 101000Z AUTO 35002KT 6SM 15/07 A3012 RMK T01500070 IEM_DS3505
ZHHH,2008-12-10 11:00,ZHHH 101100Z AUTO 34004KT 6SM 15/07 A3015 RMK T01500070 IEM_DS3505
ZHHH,2008-12-10 12:00,ZHHH 101200Z AUTO 02004KT 9SM 15/06 A3018 RMK SLP223 T01470058 52030 IEM_DS3505
ZHHH,2008-12-10 13:00,ZHHH 101300Z AUTO 02004KT 3SM 13/08 A3021 RMK T01300080 IEM_DS3505
ZHHH,2008-12-10 14:00,ZHHH 101400Z AUTO 02006KT 3SM 11/06 A3024 RMK T01100060 IEM_DS3505
ZHHH,2008-12-10 15:00,ZHHH 101500Z AUTO 02004KT 9SM 12/03 A3027 RMK SLP246 T01210033 52024 IEM_DS3505
ZHHH,2008-12-10 16:00,ZHHH 101600Z AUTO 05010KT 2 1/2SM 10/04 A3027 RMK T01000040 IEM_DS3505
ZHHH,2008-12-10 17:00,ZHHH 101700Z AUTO 03008KT 2 1/2SM 09/03 A3027 RMK T00900030 IEM_DS3505
ZHHH,2008-12-10 18:00,ZHHH 101800Z AUTO 04004KT 9SM 09/02 A3027 RMK SLP251 T00930015 52005 IEM_DS3505
ZHHH,2008-12-10 19:00,ZHHH 101900Z AUTO 03008KT 1 1/2SM 07/02 A3027 RMK T00700020 IEM_DS3505
ZHHH,2008-12-10 20:00,ZHHH 102000Z AUTO 02004KT 1 1/2SM 06/02 A3027 RMK T00600020 IEM_DS3505
ZHHH,2008-12-10 21:00,ZHHH 102100Z AUTO 04002KT 9SM 07/01 A3027 RMK SLP248 T00690008 57004 IEM_DS3505
ZHHH,2008-12-10 22:00,ZHHH 102200Z AUTO 36006KT 1 1/2SM 05/02 A3024 RMK T00500020 IEM_DS3505
ZHHH,2008-12-10 23:00,ZHHH 102300Z AUTO 1SM 05/02 A3027 RMK T00500020 IEM_DS3505
ZHHH,2008-12-11 00:00,ZHHH 110000Z AUTO 36002KT 7SM 06/02 A3027 RMK SLP252 T00590020 52004 IEM_DS3505
ZHHH,2008-12-11 01:00,ZHHH 110100Z AUTO 36004KT 1SM 05/03 A3027 RMK T00500030 IEM_DS3505
ZHHH,2008-12-11 02:00,ZHHH 110200Z AUTO 1SM 06/03 A3030 RMK T00600030 IEM_DS3505
ZHHH,2008-12-11 03:00,ZHHH 110300Z AUTO 04002KT 9SM 09/01 A3027 RMK SLP250 T00870011 57002 IEM_DS3505
ZHHH,2008-12-11 04:00,ZHHH 110400Z AUTO 28004KT 1 1/4SM 12/04 A3024 RMK T01200040 IEM_DS3505
ZHHH,2008-12-11 05:00,ZHHH 110500Z AUTO 1 1/4SM 14/03 A3018 RMK T01400030 IEM_DS3505
ZHHH,2008-12-11 06:00,ZHHH 110600Z AUTO 04002KT 5SM 14/02 A3015 RMK SLP210 T01410020 57040 IEM_DS3505
ZHHH,2008-12-11 07:00,ZHHH 110700Z AUTO 12004KT 1 1/2SM 14/04 A3012 RMK T01400040 IEM_DS3505
ZHHH,2008-12-11 08:00,ZHHH 110800Z AUTO 14004KT 1 1/2SM 14/04 A3009 RMK T01400040 IEM_DS3505
ZHHH,2008-12-11 09:00,ZHHH 110900Z AUTO 09002KT 3SM 13/04 A3009 RMK SLP185 T01290043 57025 IEM_DS3505
ZHHH,2008-12-11 10:00,ZHHH 111000Z AUTO 10006KT 1 1/4SM 12/05 A3006 RMK T01200050 IEM_DS3505
ZHHH,2008-12-11 11:00,ZHHH 111100Z AUTO 10006KT 1 1/4SM 11/05 A3006 RMK T01100050 IEM_DS3505
ZHHH,2008-12-11 12:00,ZHHH 111200Z AUTO 07002KT 6SM 08/05 A3006 RMK SLP182 T00780046 57003 IEM_DS3505
ZHHH,2008-12-11 13:00,ZHHH 111300Z AUTO 09006KT 1 1/4SM 09/05 A3006 RMK T00900050 IEM_DS3505
ZHHH,2008-12-11 14:00,ZHHH 111400Z AUTO 11008KT 1SM 09/05 A3009 RMK T00900050 IEM_DS3505
ZHHH,2008-12-11 15:00,ZHHH 111500Z AUTO 11002KT 6SM 06/05 A3009 RMK SLP186 T00610046 52004 IEM_DS3505
ZHHH,2008-12-11 16:00,ZHHH 111600Z AUTO 10010KT 1SM 08/05 A3006 RMK T00800050 IEM_DS3505
ZHHH,2008-12-11 17:00,ZHHH 111700Z AUTO 10008KT 1SM 07/05 A3006 RMK T00700050 IEM_DS3505
ZHHH,2008-12-11 18:00,ZHHH 111800Z AUTO 04002KT 9SM 06/03 A3006 RMK SLP180 T00580026 57006 IEM_DS3505
ZHHH,2008-12-11 19:00,ZHHH 111900Z AUTO 10010KT 1SM 06/05 A3006 RMK T00600050 IEM_DS3505
ZHHH,2008-12-11 20:00,ZHHH 112000Z AUTO 10008KT 1SM 06/05 A3003 RMK T00600050 IEM_DS3505
ZHHH,2008-12-11 21:00,ZHHH 112100Z AUTO 00000KT 7SM 05/03 A3003 RMK SLP170 T00520026 57010 IEM_DS3505
ZHHH,2008-12-11 22:00,ZHHH 112200Z AUTO 11008KT 1SM 05/04 A3003 RMK T00500040 IEM_DS3505
ZHHH,2008-12-11 23:00,ZHHH 112300Z AUTO 12006KT 1SM 05/04 A3003 RMK T00500040 IEM_DS3505
ZHHH,2008-12-12 00:00,ZHHH 120000Z AUTO 09002KT 6SM 06/04 A3006 RMK SLP177 T00600037 52007 IEM_DS3505
ZHHH,2008-12-12 01:00,ZHHH 120100Z AUTO 09008KT 1SM 08/06 A3006 RMK T00800060 IEM_DS3505
ZHHH,2008-12-12 02:00,ZHHH 120200Z AUTO 10008KT 1SM 10/07 A3009 RMK T01000070 IEM_DS3505
ZHHH,2008-12-12 03:00,ZHHH 120300Z AUTO 27002KT 6SM 14/05 A3006 RMK SLP184 T01350046 52007 IEM_DS3505
ZHHH,2008-12-12 04:00,ZHHH 120400Z AUTO 11004KT 1SM 14/07 A3006 RMK T01400070 IEM_DS3505
ZHHH,2008-12-12 05:00,ZHHH 120500Z AUTO 1SM 16/06 A3003 RMK T01600060 IEM_DS3505
ZHHH,2008-12-12 06:00,ZHHH 120600Z AUTO 09002KT 5SM 17/04 A3000 RMK SLP162 T01730043 57021 IEM_DS3505
ZHHH,2008-12-12 07:00,ZHHH 120700Z AUTO 30004KT 1 1/2SM 17/06 A3000 RMK T01700060 IEM_DS3505
ZHHH,2008-12-12 08:00,ZHHH 120800Z AUTO 28002KT 1 1/2SM 17/06 A3000 RMK T01700060 IEM_DS3505
ZHHH,2008-12-12 09:00,ZHHH 120900Z AUTO 00000KT 5SM 15/05 A3000 RMK SLP164 T01500052 52001 IEM_DS3505
ZHHH,2008-12-12 10:00,ZHHH 121000Z AUTO 09004KT 1 1/2SM 15/05 A3003 RMK T01500050 IEM_DS3505
ZHHH,2008-12-12 11:00,ZHHH 121100Z AUTO 1 1/4SM 14/05 A3006 RMK T01400050 IEM_DS3505
ZHHH,2008-12-12 12:00,ZHHH 121200Z AUTO 27002KT 6SM 13/06 A3006 RMK SLP185 T01270063 52021 IEM_DS3505
ZHHH,2008-12-12 13:00,ZHHH 121300Z AUTO 02004KT 1 1/4SM 13/06 A3009 RMK T01300060 IEM_DS3505
ZHHH,2008-12-12 14:00,ZHHH 121400Z AUTO 02004KT 1 1/4SM 13/05 A3012 RMK T01300050 IEM_DS3505
ZHHH,2008-12-12 15:00,ZHHH 121500Z AUTO 32002KT 7SM 13/06 A3015 RMK SLP206 T01300057 52022 IEM_DS3505
ZHHH,2008-12-12 16:00,ZHHH 121600Z AUTO 03012G21KT 2 1/2SM 13/04 A3015 RMK T01300040 IEM_DS3505
ZHHH,2008-12-12 17:00,ZHHH 121700Z AUTO 03010KT 1 1/4SM 11/06 A3018 RMK T01100060 IEM_DS3505
ZHHH,2008-12-12 18:00,ZHHH 121800Z AUTO 04008KT 7SM 11/04 A3021 RMK SLP226 T01130045 52020 IEM_DS3505
ZHHH,2008-12-12 19:00,ZHHH 121900Z AUTO 03010KT 1 1/4SM 09/06 A3021 RMK T00900060 IEM_DS3505
ZHHH,2008-12-12 20:00,ZHHH 122000Z AUTO 03010KT 1 1/4SM 07/05 A3024 RMK T00700050 IEM_DS3505
ZHHH,2008-12-12 21:00,ZHHH 122100Z AUTO 04004KT 6SM 08/04 A3024 RMK 70002 SLP246 T00750035 52019 IEM_DS3505
ZHHH,2008-12-12 22:00,ZHHH 122200Z AUTO 03010KT 1SM 06/03 A3030 RMK T00600030 IEM_DS3505
ZHHH,2008-12-12 23:00,ZHHH 122300Z AUTO 03014KT 1SM 06/02 A3033 RMK T00600020 IEM_DS3505
ZHHH,2008-12-13 00:00,ZHHH 130000Z AUTO 36006KT 5SM 06/01 A3036 RMK 60002 70002 SLP280 T00640013 52034 IEM_DS3505
ZHHH,2008-12-13 01:00,ZHHH 130100Z AUTO 02010KT 1SM 06/02 A3039 RMK T00600020 IEM_DS3505
ZHHH,2008-12-13 02:00,ZHHH 130200Z AUTO 02010KT 1SM 07/02 A3042 RMK T00700020 IEM_DS3505
ZHHH,2008-12-13 03:00,ZHHH 130300Z AUTO 29004KT 5SM 08/02 A3042 RMK SLP304 T00780023 52024 IEM_DS3505
ZHHH,2008-12-13 04:00,ZHHH 130400Z AUTO 02010KT 1 1/4SM 07/03 A3042 RMK T00700030 IEM_DS3505
ZHHH,2008-12-13 05:00,ZHHH 130500Z AUTO 03012KT 1 1/4SM 07/03 A3039 RMK T00700030 IEM_DS3505
ZHHH,2008-12-13 06:00,ZHHH 130600Z AUTO 04004KT 6SM 08/02 A3039 RMK SLP291 T00770018 57013 IEM_DS3505
ZHHH,2008-12-13 07:00,ZHHH 130700Z AUTO 02012KT 2 1/2SM 07/03 A3039 RMK T00700030 IEM_DS3505
ZHHH,2008-12-13 08:00,ZHHH 130800Z AUTO 04012KT 2SM 06/03 A3042 RMK T00600030 IEM_DS3505
ZHHH,2008-12-13 09:00,ZHHH 130900Z AUTO 04006KT 7SM 06/01 A3042 RMK SLP298 T00640013 52007 IEM_DS3505
ZHHH,2008-12-13 10:00,ZHHH 131000Z AUTO 02008KT 1 1/4SM 05/02 A3042 RMK T00500020 IEM_DS3505
ZHHH,2008-12-13 11:00,ZHHH 131100Z AUTO 03008KT 1 1/4SM 04/02 A3045 RMK T00400020 IEM_DS3505
ZHHH,2008-12-13 12:00,ZHHH 131200Z AUTO 04006KT 9SM 05/01 A3045 RMK SLP317 T00470008 52018 IEM_DS3505
ZHHH,2008-12-13 13:00,ZHHH 131300Z AUTO 02004KT 1 1/4SM 04/02 A3047 RMK T00400020 IEM_DS3505
ZHHH,2008-12-13 14:00,ZHHH 131400Z AUTO 01004KT 1SM 04/02 A3047 RMK T00400020 IEM_DS3505
ZHHH,2008-12-13 15:00,ZHHH 131500Z AUTO 29002KT 7SM 04/01 A3050 RMK SLP332 T00370011 52015 IEM_DS3505
ZHHH,2008-12-13 16:00,ZHHH 131600Z AUTO 34004KT 1SM 02/01 A3050 RMK T00200010 IEM_DS3505
ZHHH,2008-12-13 17:00,ZHHH 131700Z AUTO 01004KT 1 1/4SM 02/01 A3047 RMK T00200010 IEM_DS3505
ZHHH,2008-12-13 18:00,ZHHH 131800Z AUTO 02002KT 9SM 03/01 A3047 RMK SLP323 T00290011 57009 IEM_DS3505
ZHHH,2008-12-13 19:00,ZHHH 131900Z AUTO 34004KT 1 1/4SM 01/00 A3047 RMK T00100000 IEM_DS3505
ZHHH,2008-12-13 20:00,ZHHH 132000Z AUTO 34004KT 1 1/4SM 01/00 A3047 RMK T00100000 IEM_DS3505
ZHHH,2008-12-13 21:00,ZHHH 132100Z AUTO 29002KT 9SM 02/00 A3047 RMK 70000 SLP321 T00170004 57002 IEM_DS3505
ZHHH,2008-12-13 22:00,ZHHH 132200Z AUTO 32004KT 1 1/4SM 01/00 A3047 RMK T00100000 IEM_DS3505
ZHHH,2008-12-13 23:00,ZHHH 132300Z AUTO 34006KT 1 1/4SM 00/00 A3047 RMK T00000000 IEM_DS3505
ZHHH,2008-12-14 00:00,ZHHH 140000Z AUTO 29002KT 9SM 02/00 A3047 RMK SLP323 T00180003 52002 IEM_DS3505
ZHHH,2008-12-14 01:00,ZHHH 140100Z AUTO 33004KT 1SM 02/02 A3047 RMK T00200020 IEM_DS3505
ZHHH,2008-12-14 02:00,ZHHH 140200Z AUTO 1 1/4SM 04/03 A3047 RMK T00400030 IEM_DS3505
ZHHH,2008-12-14 03:00,ZHHH 140300Z AUTO 29002KT 11SM 06/02 A3045 RMK SLP317 T00620015 57006 IEM_DS3505
ZHHH,2008-12-14 04:00,ZHHH 140400Z AUTO 27004KT 2 1/2SM 08/03 A3042 RMK T00800030 IEM_DS3505
ZHHH,2008-12-14 05:00,ZHHH 140500Z AUTO 26004KT 3SM 09/03 A3039 RMK T00900030 IEM_DS3505
ZHHH,2008-12-14 06:00,ZHHH 140600Z AUTO 20002KT 11SM 10/01 A3036 RMK SLP283 T00980012 57033 IEM_DS3505
ZHHH,2008-12-14 07:00,ZHHH 140700Z AUTO 25004KT 6SM 10/03 A3036 RMK T01000030 IEM_DS3505
ZHHH,2008-12-14 08:00,ZHHH 140800Z AUTO 4SM 10/03 A3036 RMK T01000030 IEM_DS3505
ZHHH,2008-12-14 09:00,ZHHH 140900Z AUTO 22002KT 9SM 09/01 A3033 RMK SLP274 T00930007 57009 IEM_DS3505
ZHHH,2008-12-14 10:00,ZHHH 141000Z AUTO 22006KT 3SM 07/04 A3036 RMK T00700040 IEM_DS3505
ZHHH,2008-12-14 11:00,ZHHH 141100Z AUTO 26004KT 3SM 06/03 A3036 RMK T00600030 IEM_DS3505
ZHHH,2008-12-14 12:00,ZHHH 141200Z AUTO 27002KT 7SM 06/02 A3036 RMK SLP287 T00650022 52012 IEM_DS3505
ZHHH,2008-12-14 13:00,ZHHH 141300Z AUTO 23006KT 2 1/2SM 06/02 A3036 RMK T00600020 IEM_DS3505
ZHHH,2008-12-14 14:00,ZHHH 141400Z AUTO 28002KT 2SM 05/03 A3036 RMK T00500030 IEM_DS3505
ZHHH,2008-12-14 15:00,ZHHH 141500Z AUTO 00000KT 7SM 04/02 A3036 RMK SLP286 T00410020 57001 IEM_DS3505
ZHHH,2008-12-14 16:00,ZHHH 141600Z AUTO 06002KT 1 1/4SM 04/03 A3036 RMK T00400030 IEM_DS3505
ZHHH,2008-12-14 17:00,ZHHH 141700Z AUTO 19002KT 1 1/4SM 03/02 A3036 RMK T00300020 IEM_DS3505
ZHHH,2008-12-14 18:00,ZHHH 141800Z AUTO 14002KT 6SM 03/02 A3033 RMK SLP275 T00340024 57010 IEM_DS3505
ZHHH,2008-12-14 19:00,ZHHH 141900Z AUTO 27002KT 1SM 03/02 A3036 RMK T00300020 IEM_DS3505
ZHHH,2008-12-14 20:00,ZHHH 142000Z AUTO 00000KT 1SM 03/02 A3036 RMK T00300020 IEM_DS3505
ZHHH,2008-12-14 21:00,ZHHH 142100Z AUTO 11002KT 5SM 04/03 A3033 RMK SLP274 T00380026 57001 IEM_DS3505
ZHHH,2008-12-14 22:00,ZHHH 142200Z AUTO 12006KT 1SM 03/03 A3033 RMK T00300030 IEM_DS3505
ZHHH,2008-12-14 23:00,ZHHH 142300Z AUTO 11006KT 1/2SM 02/02 A3033 RMK T00200020 IEM_DS3505
ZHHH,2008-12-15 00:00,ZHHH 150000Z AUTO 09002KT 5SM 04/04 RMK SLP275 T00440037 52001 IEM_DS3505
ZHHH,2008-12-15 01:00,ZHHH 150100Z AUTO 10008KT 1/8SM 02/02 A3036 RMK T00200020 IEM_DS3505
ZHHH,2008-12-15 02:00,ZHHH 150200Z AUTO 10008KT 1/8SM 04/04 A3036 RMK T00400040 IEM_DS3505
ZHHH,2008-12-15 03:00,ZHHH 150300Z AUTO 18004KT 7SM 10/03 A3033 RMK SLP275 T00960027 54000 IEM_DS3505
ZHHH,2008-12-15 04:00,ZHHH 150400Z AUTO 11008KT 1SM 09/09 A3030 RMK T00900090 IEM_DS3505
ZHHH,2008-12-15 05:00,ZHHH 150500Z AUTO 11008KT 1 1/4SM 11/05 A3027 RMK T01100050 IEM_DS3505
ZHHH,2008-12-15 06:00,ZHHH 150600Z AUTO 09004KT 9SM 13/M01 A3024 RMK SLP240 T01261006 57035 IEM_DS3505
ZHHH,2008-12-15 07:00,ZHHH 150700Z AUTO 12006KT 1 1/4SM 12/04 A3021 RMK T01200040 IEM_DS3505
ZHHH,2008-12-15 08:00,ZHHH 150800Z AUTO 1 1/2SM 12/03 A3024 RMK T01200030 IEM_DS3505
ZHHH,2008-12-15 09:00,ZHHH 150900Z AUTO 11002KT 7SM 11/01 A3021 RMK SLP233 T01090014 57007 IEM_DS3505
ZHHH,2008-12-15 10:00,ZHHH 151000Z AUTO 10008KT 1 1/4SM 09/05 A3021 RMK T00900050 IEM_DS3505
ZHHH,2008-12-15 11:00,ZHHH 151100Z AUTO 09008KT 1 1/4SM 08/04 A3021 RMK T00800040 IEM_DS3505
ZHHH,2008-12-15 12:00,ZHHH 151200Z AUTO 09002KT 9SM 08/03 A3021 RMK SLP233 T00780027 54000 IEM_DS3505
ZHHH,2008-12-15 13:00,ZHHH 151300Z AUTO 10008KT 1 1/2SM 08/03 A3021 RMK T00800030 IEM_DS3505
ZHHH,2008-12-15 14:00,ZHHH 151400Z AUTO 11006KT 1 1/2SM 07/03 A3024 RMK T00700030 IEM_DS3505
ZHHH,2008-12-15 15:00,ZHHH 151500Z AUTO 16002KT 7SM 05/03 A3024 RMK SLP237 T00510030 52004 IEM_DS3505
ZHHH,2008-12-15 16:00,ZHHH 151600Z AUTO 12004KT 1 1/2SM 06/03 A3021 RMK T00600030 IEM_DS3505
ZHHH,2008-12-15 17:00,ZHHH 151700Z AUTO 10006KT 1 1/2SM 05/03 A3021 RMK T00500030 IEM_DS3505
ZHHH,2008-12-15 18:00,ZHHH 151800Z AUTO 00000KT 9SM 04/02 A3021 RMK SLP227 T00430025 57010 IEM_DS3505
ZHHH,2008-12-15 19:00,ZHHH 151900Z AUTO 11008KT 1 1/4SM 05/03 A3018 RMK T00500030 IEM_DS3505
ZHHH,2008-12-15 20:00,ZHHH 152000Z AUTO 12008KT 1 1/4SM 05/03 A3018 RMK T00500030 IEM_DS3505
ZHHH,2008-12-15 21:00,ZHHH 152100Z AUTO 09002KT 9SM 04/03 A3018 RMK SLP221 T00370027 57006 IEM_DS3505
ZHHH,2008-12-15 22:00,ZHHH 152200Z AUTO 12010KT 1 1/4SM 04/03 A3018 RMK T00400030 IEM_DS3505
ZHHH,2008-12-15 23:00,ZHHH 152300Z AUTO 15004KT 1SM 05/04 A3018 RMK T00500040 IEM_DS3505
ZHHH,2008-12-16 00:00,ZHHH 160000Z AUTO 14002KT 6SM 05/03 A3021 RMK SLP227 T00540032 52006 IEM_DS3505
ZHHH,2008-12-16 01:00,ZHHH 160100Z AUTO 14006KT 1SM 06/05 A3021 RMK T00600050 IEM_DS3505
ZHHH,2008-12-16 02:00,ZHHH 160200Z AUTO 14004KT 1SM 09/05 A3021 RMK T00900050 IEM_DS3505
ZHHH,2008-12-16 03:00,ZHHH 160300Z AUTO 11002KT 9SM 12/04 A3021 RMK SLP230 T01180036 52003 IEM_DS3505
ZHHH,2008-12-16 04:00,ZHHH 160400Z AUTO 19004KT 1 1/4SM 13/06 A3018 RMK T01300060 IEM_DS3505
ZHHH,2008-12-16 05:00,ZHHH 160500Z AUTO 22004KT 1SM 14/06 A3015 RMK T01400060 IEM_DS3505
ZHHH,2008-12-16 06:00,ZHHH 160600Z AUTO 20002KT 9SM 15/02 A3012 RMK SLP201 T01540022 57029 IEM_DS3505
ZHHH,2008-12-16 07:00,ZHHH 160700Z AUTO 20006KT 1 1/4SM 15/05 A3009 RMK T01500050 IEM_DS3505
ZHHH,2008-12-16 08:00,ZHHH 160800Z AUTO 14006KT 1 1/4SM 14/05 A3009 RMK T01400050 IEM_DS3505
ZHHH,2008-12-16 09:00,ZHHH 160900Z AUTO 09002KT 9SM 14/02 A3012 RMK SLP195 T01360019 57006 IEM_DS3505
ZHHH,2008-12-16 10:00,ZHHH 161000Z AUTO 11006KT 1 1/4SM 12/05 A3012 RMK T01200050 IEM_DS3505
ZHHH,2008-12-16 11:00,ZHHH 161100Z AUTO 11006KT 1 1/4SM 10/05 A3012 RMK T01000050 IEM_DS3505
ZHHH,2008-12-16 12:00,ZHHH 161200Z AUTO 00000KT 7SM 07/04 A3015 RMK SLP209 T00730043 52014 IEM_DS3505
ZHHH,2008-12-16 13:00,ZHHH 161300Z AUTO 13004KT 1 1/4SM 10/05 A3015 RMK T01000050 IEM_DS3505
ZHHH,2008-12-16 14:00,ZHHH 161400Z AUTO 07004KT 1 1/4SM 07/04 A3018 RMK T00700040 IEM_DS3505
ZHHH,2008-12-16 15:00,ZHHH 161500Z AUTO 32002KT 7SM 06/04 A3018 RMK SLP225 T00590039 52016 IEM_DS3505
ZHHH,2008-12-16 16:00,ZHHH 161600Z AUTO 05006KT 1 1/4SM 08/04 A3021 RMK T00800040 IEM_DS3505
ZHHH,2008-12-16 17:00,ZHHH 161700Z AUTO 08006KT 1 1/4SM 07/04 A3021 RMK T00700040 IEM_DS3505
ZHHH,2008-12-16 18:00,ZHHH 161800Z AUTO 00000KT 9SM 05/04 A3021 RMK SLP230 T00530040 52005 IEM_DS3505
ZHHH,2008-12-16 19:00,ZHHH 161900Z AUTO 09004KT 1SM 07/04 A3021 RMK T00700040 IEM_DS3505
ZHHH,2008-12-16 20:00,ZHHH 162000Z AUTO 1SM 07/05 A3021 RMK T00700050 IEM_DS3505
ZHHH,2008-12-16 21:00,ZHHH 162100Z AUTO 00000KT 6SM 05/04 A3021 RMK SLP227 T00460037 57003 IEM_DS3505
ZHHH,2008-12-16 22:00,ZHHH 162200Z AUTO 09004KT 1 1/4SM 05/03 A3021 RMK T00500030 IEM_DS3505
ZHHH,2008-12-16 23:00,ZHHH 162300Z AUTO 08006KT 1 1/4SM 05/03 A3024 RMK T00500030 IEM_DS3505
ZHHH,2008-12-17 00:00,ZHHH 170000Z AUTO 04002KT 6SM 06/05 A3024 RMK SLP240 T00570047 52013 IEM_DS3505
ZHHH,2008-12-17 01:00,ZHHH 170100Z AUTO 09008KT 1 1/4SM 06/04 A3024 RMK T00600040 IEM_DS3505
ZHHH,2008-12-17 02:00,ZHHH 170200Z AUTO 09004KT 1 1/2SM 10/04 A3027 RMK T01000040 IEM_DS3505
ZHHH,2008-12-17 03:00,ZHHH 170300Z AUTO 25002KT 7SM 12/05 A3027 RMK SLP252 T01240049 52012 IEM_DS3505
ZHHH,2008-12-17 04:00,ZHHH 170400Z AUTO 31004KT 2SM 14/06 A3024 RMK T01400060 IEM_DS3505
ZHHH,2008-12-17 05:00,ZHHH 170500Z AUTO 33004KT 2SM 16/06 A3021 RMK T01600060 IEM_DS3505
ZHHH,2008-12-17 06:00,ZHHH 170600Z AUTO 36002KT 9SM 16/04 A3021 RMK SLP231 T01600038 57021 IEM_DS3505
ZHHH,2008-12-17 07:00,ZHHH 170700Z AUTO 29006KT 3SM 17/05 A3021 RMK T01700050 IEM_DS3505
ZHHH,2008-12-17 08:00,ZHHH 170800Z AUTO 3SM 16/05 A3021 RMK T01600050 IEM_DS3505
ZHHH,2008-12-17 09:00,ZHHH 170900Z AUTO 29002KT 9SM 14/05 A3021 RMK SLP233 T01400046 52002 IEM_DS3505
ZHHH,2008-12-17 10:00,ZHHH 171000Z AUTO 32002KT 2SM 12/06 A3024 RMK T01200060 IEM_DS3505
ZHHH,2008-12-17 11:00,ZHHH 171100Z AUTO 34004KT 2SM 11/06 A3024 RMK T01100060 IEM_DS3505
ZHHH,2008-12-17 12:00,ZHHH 171200Z AUTO 32002KT 9SM 08/06 A3027 RMK SLP246 T00810059 52013 IEM_DS3505
ZHHH,2008-12-17 13:00,ZHHH 171300Z AUTO 03004KT 2 1/2SM 10/01 A3027 RMK T01000010 IEM_DS3505
ZHHH,2008-12-17 14:00,ZHHH 171400Z AUTO 04006KT 2 1/2SM 09/02 A3027 RMK T00900020 IEM_DS3505
ZHHH,2008-12-17 15:00,ZHHH 171500Z AUTO 07002KT 9SM 09/01 A3027 RMK SLP253 T00930007 52007 IEM_DS3505
ZHHH,2008-12-17 16:00,ZHHH 171600Z AUTO 04006KT 1 1/2SM 08/03 A3027 RMK T00800030 IEM_DS3505
ZHHH,2008-12-17 17:00,ZHHH 171700Z AUTO 03004KT 1 1/2SM 07/04 A3027 RMK T00700040 IEM_DS3505
ZHHH,2008-12-17 18:00,ZHHH 171800Z AUTO 07002KT 9SM 08/02 A3027 RMK SLP255 T00840022 52002 IEM_DS3505
ZHHH,2008-12-17 19:00,ZHHH 171900Z AUTO 00000KT 1 1/4SM 07/04 A3027 RMK T00700040 IEM_DS3505
ZHHH,2008-12-17 20:00,ZHHH 172000Z AUTO 23002KT 1 1/4SM 05/04 A3027 RMK T00500040 IEM_DS3505
ZHHH,2008-12-17 21:00,ZHHH 172100Z AUTO 32002KT 7SM 05/02 A3027 RMK SLP252 T00500025 57003 IEM_DS3505
ZHHH,2008-12-17 22:00,ZHHH 172200Z AUTO 1SM 04/04 A3027 RMK T00400040 IEM_DS3505
ZHHH,2008-12-17 23:00,ZHHH 172300Z AUTO 1SM 04/04 A3030 RMK T00400040 IEM_DS3505
ZHHH,2008-12-18 00:00,ZHHH 180000Z AUTO 34002KT 7SM 05/03 A3030 RMK SLP266 T00540032 52014 IEM_DS3505
ZHHH,2008-12-18 01:00,ZHHH 180100Z AUTO 06004KT 1SM 06/05 A3033 RMK T00600050 IEM_DS3505
ZHHH,2008-12-18 02:00,ZHHH 180200Z AUTO 10006KT 1SM 08/06 A3033 RMK T00800060 IEM_DS3505
ZHHH,2008-12-18 03:00,ZHHH 180300Z AUTO 36002KT 6SM 10/04 A3033 RMK SLP270 T01020044 52004 IEM_DS3505
ZHHH,2008-12-18 04:00,ZHHH 180400Z AUTO 09004KT 1SM 12/06 A3030 RMK T01200060 IEM_DS3505
ZHHH,2008-12-18 05:00,ZHHH 180500Z AUTO 11004KT 1 1/2SM 13/06 A3024 RMK T01300060 IEM_DS3505
ZHHH,2008-12-18 06:00,ZHHH 180600Z AUTO 02002KT 5SM 14/05 A3024 RMK SLP236 T01400048 57034 IEM_DS3505
ZHHH,2008-12-18 07:00,ZHHH 180700Z AUTO 11006KT 1 1/4SM 14/06 A3021 RMK T01400060 IEM_DS3505
ZHHH,2008-12-18 08:00,ZHHH 180800Z AUTO 11004KT 1 1/4SM 14/06 A3021 RMK T01400060 IEM_DS3505
ZHHH,2008-12-18 09:00,ZHHH 180900Z AUTO 07002KT 5SM 13/05 A3021 RMK SLP228 T01290053 57008 IEM_DS3505
ZHHH,2008-12-18 10:00,ZHHH 181000Z AUTO 09006KT 1 1/4SM 11/06 A3021 RMK T01100060 IEM_DS3505
ZHHH,2008-12-18 11:00,ZHHH 181100Z AUTO 07006KT 1 1/4SM 10/06 A3021 RMK T01000060 IEM_DS3505
ZHHH,2008-12-18 12:00,ZHHH 181200Z AUTO 00000KT 6SM 08/06 A3024 RMK SLP236 T00790057 52008 IEM_DS3505
ZHHH,2008-12-18 13:00,ZHHH 181300Z AUTO 08006KT 1SM 10/05 A3024 RMK T01000050 IEM_DS3505
ZHHH,2008-12-18 14:00,ZHHH 181400Z AUTO 07004KT 1SM 09/05 A3024 RMK T00900050 IEM_DS3505
ZHHH,2008-12-18 15:00,ZHHH 181500Z AUTO 32002KT 5SM 06/05 A3021 RMK SLP233 T00650051 57003 IEM_DS3505
ZHHH,2008-12-18 16:00,ZHHH 181600Z AUTO 08006KT 1SM 08/05 A3021 RMK T00800050 IEM_DS3505
ZHHH,2008-12-18 17:00,ZHHH 181700Z AUTO 11008KT 1SM 07/05 A3018 RMK T00700050 IEM_DS3505
ZHHH,2008-12-18 18:00,ZHHH 181800Z AUTO 11002KT 6SM 08/05 A3015 RMK SLP211 T00810054 57022 IEM_DS3505
ZHHH,2008-12-18 19:00,ZHHH 181900Z AUTO 11008KT 1SM 07/06 A3015 RMK T00700060 IEM_DS3505
ZHHH,2008-12-18 20:00,ZHHH 182000Z AUTO 10006KT 1SM 07/06 A3012 RMK T00700060 IEM_DS3505
ZHHH,2008-12-18 21:00,ZHHH 182100Z AUTO 22002KT 7SM 09/04 A3009 RMK SLP196 T00930045 57015 IEM_DS3505
ZHHH,2008-12-18 22:00,ZHHH 182200Z AUTO 11006KT 1SM 07/06 A3009 RMK T00700060 IEM_DS3505
ZHHH,2008-12-18 23:00,ZHHH 182300Z AUTO 10006KT 1SM 08/06 A3012 RMK T00800060 IEM_DS3505
ZHHH,2008-12-19 00:00,ZHHH 190000Z AUTO 11002KT 6SM 10/05 A3012 RMK SLP202 T00950049 52006 IEM_DS3505
ZHHH,2008-12-19 01:00,ZHHH 190100Z AUTO 14006KT 1SM 09/07 A3012 RMK T00900070 IEM_DS3505
ZHHH,2008-12-19 02:00,ZHHH 190200Z AUTO 12004KT 1SM 11/07 A3012 RMK T01100070 IEM_DS3505
ZHHH,2008-12-19 03:00,ZHHH 190300Z AUTO 16004KT 7SM 14/07 A3012 RMK SLP199 T01360067 57003 IEM_DS3505
ZHHH,2008-12-19 04:00,ZHHH 190400Z AUTO 22008KT 1SM 15/09 A3009 RMK T01500090 IEM_DS3505
ZHHH,2008-12-19 05:00,ZHHH 190500Z AUTO 22006KT 1SM 16/09 A3006 RMK T01600090 IEM_DS3505
ZHHH,2008-12-19 06:00,ZHHH 190600Z AUTO 29002KT 6SM 17/07 A3003 RMK SLP169 T01670074 57029 IEM_DS3505
ZHHH,2008-12-19 07:00,ZHHH 190700Z AUTO 19006KT 1SM 17/09 A3003 RMK T01700090 IEM_DS3505
ZHHH,2008-12-19 08:00,ZHHH 190800Z AUTO 20004KT 1 1/4SM 17/10 A3003 RMK T01700100 IEM_DS3505
ZHHH,2008-12-19 09:00,ZHHH 190900Z AUTO 07002KT 6SM 15/08 A3003 RMK SLP171 T01470084 52002 IEM_DS3505
ZHHH,2008-12-19 10:00,ZHHH 191000Z AUTO 09010KT 1SM 13/09 A3006 RMK T01300090 IEM_DS3505
ZHHH,2008-12-19 11:00,ZHHH 191100Z AUTO 10008KT 1SM 12/08 A3006 RMK T01200080 IEM_DS3505
ZHHH,2008-12-19 12:00,ZHHH 191200Z AUTO 00000KT 7SM 11/07 A3009 RMK SLP188 T01070068 52016 IEM_DS3505
ZHHH,2008-12-19 13:00,ZHHH 191300Z AUTO 14006KT 1SM 12/08 A3009 RMK T01200080 IEM_DS3505
ZHHH,2008-12-19 14:00,ZHHH 191400Z AUTO 10004KT 1SM 12/08 A3009 RMK T01200080 IEM_DS3505
ZHHH,2008-12-19 15:00,ZHHH 191500Z AUTO 00000KT 7SM 10/07 A3009 RMK SLP192 T00960070 52004 IEM_DS3505
ZHHH,2008-12-19 16:00,ZHHH 191600Z AUTO 11008KT 1SM 10/07 A3006 RMK T01000070 IEM_DS3505
ZHHH,2008-12-19 17:00,ZHHH 191700Z AUTO 1SM 10/07 A3006 RMK T01000070 IEM_DS3505
ZHHH,2008-12-19 18:00,ZHHH 191800Z AUTO 02002KT 7SM 09/07 A3009 RMK SLP189 T00930066 57002 IEM_DS3505
ZHHH,2008-12-19 19:00,ZHHH 191900Z AUTO 05006KT 1SM 09/07 A3009 RMK T00900070 IEM_DS3505
ZHHH,2008-12-19 20:00,ZHHH 192000Z AUTO 07010KT 1SM 08/06 A3006 RMK T00800060 IEM_DS3505
ZHHH,2008-12-19 21:00,ZHHH 192100Z AUTO 07006KT 7SM 09/05 A3006 RMK SLP182 T00910053 57007 IEM_DS3505
ZHHH,2008-12-19 22:00,ZHHH 192200Z AUTO 05006KT 1SM 06/04 A3009 RMK T00600040 IEM_DS3505
ZHHH,2008-12-19 23:00,ZHHH 192300Z AUTO 04010KT 1SM 06/04 A3009 RMK T00600040 IEM_DS3505
ZHHH,2008-12-20 00:00,ZHHH 200000Z AUTO 02004KT 5SM 08/03 A3012 RMK SLP198 T00750028 52015 IEM_DS3505
ZHHH,2008-12-20 01:00,ZHHH 200100Z AUTO 05014KT 1SM 06/03 A3015 RMK T00600030 IEM_DS3505
ZHHH,2008-12-20 02:00,ZHHH 200200Z AUTO 04008KT 1SM 06/03 A3015 RMK T00600030 IEM_DS3505
ZHHH,2008-12-20 03:00,ZHHH 200300Z AUTO 36004KT 6SM 07/02 A3015 RMK SLP214 T00740015 52016 IEM_DS3505
ZHHH,2008-12-20 04:00,ZHHH 200400Z AUTO 02006KT 1SM 08/03 A3009 RMK T00800030 IEM_DS3505
ZHHH,2008-12-20 05:00,ZHHH 200500Z AUTO 34006KT 1 1/4SM 09/04 A3009 RMK T00900040 IEM_DS3505
ZHHH,2008-12-20 06:00,ZHHH 200600Z AUTO 32006KT 6SM 09/03 A3009 RMK SLP186 T00870027 57028 IEM_DS3505
ZHHH,2008-12-20 07:00,ZHHH 200700Z AUTO 03008KT 1SM 09/04 A3006 RMK T00900040 IEM_DS3505
ZHHH,2008-12-20 08:00,ZHHH 200800Z AUTO 04008KT 1SM 08/03 A3006 RMK T00800030 IEM_DS3505
ZHHH,2008-12-20 09:00,ZHHH 200900Z AUTO 04002KT 6SM 08/02 A3009 RMK SLP187 T00840018 52001 IEM_DS3505
ZHHH,2008-12-20 10:00,ZHHH 201000Z AUTO 03004KT 1SM 07/03 A3012 RMK T00700030 IEM_DS3505
ZHHH,2008-12-20 11:00,ZHHH 201100Z AUTO 03008KT 1SM 06/02 A3015 RMK T00600020 IEM_DS3505
ZHHH,2008-12-20 12:00,ZHHH 201200Z AUTO 34002KT 6SM 07/01 A3018 RMK SLP218 T00670010 52031 IEM_DS3505
ZHHH,2008-12-20 13:00,ZHHH 201300Z AUTO 03010KT 2SM 05/00 A3021 RMK T00500000 IEM_DS3505
ZHHH,2008-12-20 14:00,ZHHH 201400Z AUTO 02006KT 2SM 06/00 A3024 RMK T00600000 IEM_DS3505
ZHHH,2008-12-20 15:00,ZHHH 201500Z AUTO 34004KT 7SM 06/M01 A3024 RMK SLP243 T00621012 52025 IEM_DS3505
ZHHH,2008-12-20 16:00,ZHHH 201600Z AUTO 34004KT 2SM 06/02 A3024 RMK T00600020 IEM_DS3505
ZHHH,2008-12-20 17:00,ZHHH 201700Z AUTO 35006KT 2SM 06/02 A3024 RMK T00600020 IEM_DS3505
ZHHH,2008-12-20 18:00,ZHHH 201800Z AUTO 02004KT 7SM 06/00 A3027 RMK SLP255 T00640001 52012 IEM_DS3505
ZHHH,2008-12-20 19:00,ZHHH 201900Z AUTO 35004KT 2SM 06/02 A3030 RMK T00600020 IEM_DS3505
ZHHH,2008-12-20 20:00,ZHHH 202000Z AUTO 34010KT 2SM 05/03 A3033 RMK T00500030 IEM_DS3505
ZHHH,2008-12-20 21:00,ZHHH 202100Z AUTO 02002KT 7SM 06/02 A3033 RMK 70000 SLP271 T00550022 52016 IEM_DS3505
ZHHH,2008-12-20 22:00,ZHHH 202200Z AUTO 04010KT 2 1/2SM 05/02 A3036 RMK T00500020 IEM_DS3505
ZHHH,2008-12-20 23:00,ZHHH 202300Z AUTO 03008KT 2 1/2SM 05/02 A3042 RMK T00500020 IEM_DS3505
ZHHH,2008-12-21 00:00,ZHHH 210000Z AUTO 04004KT 9SM 06/01 A3045 RMK 60000 70000 SLP311 T00610008 52040 IEM_DS3505
ZHHH,2008-12-21 01:00,ZHHH 210100Z AUTO 04019KT 2SM 06/M05 A3050 RMK T00601050 IEM_DS3505
ZHHH,2008-12-21 02:00,ZHHH 210200Z AUTO 03017G33KT 2SM 06/M06 A3053 RMK T00601060 IEM_DS3505
ZHHH,2008-12-21 03:00,ZHHH 210300Z AUTO 04010G33KT 9SM 06/M11 A3056 RMK SLP347 T00611106 52035 IEM_DS3505
ZHHH,2008-12-21 04:00,ZHHH 210400Z AUTO 03017G29KT 2SM 05/M09 A3056 RMK T00501090 IEM_DS3505
ZHHH,2008-12-21 05:00,ZHHH 210500Z AUTO 03017KT 2SM 04/M10 A3056 RMK T00401100 IEM_DS3505
ZHHH,2008-12-21 06:00,ZHHH 210600Z AUTO 04008G31KT 9SM 04/M13 A3059 RMK SLP357 T00381126 52010 IEM_DS3505
ZHHH,2008-12-21 07:00,ZHHH 210700Z AUTO 03016G27KT 6SM 02/M10 A3062 RMK T00201100 IEM_DS3505
ZHHH,2008-12-21 08:00,ZHHH 210800Z AUTO 04016G27KT 6SM 02/M13 A3065 RMK T00201130 IEM_DS3505
ZHHH,2008-12-21 09:00,ZHHH 210900Z AUTO 02012KT 9SM 02/M15 A3068 RMK SLP391 T00191151 52034 IEM_DS3505
ZHHH,2008-12-21 10:00,ZHHH 211000Z AUTO 02012KT 6SM 01/M12 A3071 RMK T00101120 IEM_DS3505
ZHHH,2008-12-21 11:00,ZHHH 211100Z AUTO 03012G21KT 6SM 00/M13 A3074 RMK T00001130 IEM_DS3505
ZHHH,2008-12-21 12:00,ZHHH 211200Z AUTO 07008KT 9SM 01/M15 A3077 RMK SLP426 T00061154 52035 IEM_DS3505
ZHHH,2008-12-21 13:00,ZHHH 211300Z AUTO 04014KT 6SM M01/M15 A3080 RMK T10101150 IEM_DS3505
ZHHH,2008-12-21 14:00,ZHHH 211400Z AUTO 04014KT 6SM M01/M16 A3083 RMK T10101160 IEM_DS3505
ZHHH,2008-12-21 15:00,ZHHH 211500Z AUTO 02010KT 9SM M01/M18 A3086 RMK SLP445 T10071183 52019 IEM_DS3505
ZHHH,2008-12-21 16:00,ZHHH 211600Z AUTO 04012KT 6SM M02/M17 A3086 RMK T10201170 IEM_DS3505
ZHHH,2008-12-21 17:00,ZHHH 211700Z AUTO 03012KT 6SM M02/M19 A3086 RMK T10201190 IEM_DS3505
ZHHH,2008-12-21 18:00,ZHHH 211800Z AUTO 02006KT 11SM M02/M20 A3086 RMK SLP452 T10201204 52007 IEM_DS3505
ZHHH,2008-12-21 19:00,ZHHH 211900Z AUTO 03010KT 6SM M03/M20 A3086 RMK T10301200 IEM_DS3505
ZHHH,2008-12-21 20:00,ZHHH 212000Z AUTO 03012KT 6SM M04/M21 A3086 RMK T10401210 IEM_DS3505
ZHHH,2008-12-21 21:00,ZHHH 212100Z AUTO 36004KT 11SM M03/M22 A3083 RMK SLP443 T10331220 57010 IEM_DS3505
ZHHH,2008-12-21 22:00,ZHHH 212200Z AUTO 02008KT 6SM M05/M20 A3083 RMK T10501200 IEM_DS3505
ZHHH,2008-12-21 23:00,ZHHH 212300Z AUTO 02008KT 6SM M05/M21 A3083 RMK T10501210 IEM_DS3505
ZHHH,2008-12-22 00:00,ZHHH 220000Z AUTO 02008KT 14SM M04/M23 A3083 RMK SLP442 T10421233 57001 IEM_DS3505
ZHHH,2008-12-22 01:00,ZHHH 220100Z AUTO 02008KT 6SM M04/M23 A3080 RMK T10401230 IEM_DS3505
ZHHH,2008-12-22 02:00,ZHHH 220200Z AUTO 03010KT 6SM M03/M23 A3083 RMK T10301230 IEM_DS3505
ZHHH,2008-12-22 03:00,ZHHH 220300Z AUTO 04008KT 16SM M02/M24 A3080 RMK SLP432 T10201238 57010 IEM_DS3505
ZHHH,2008-12-22 04:00,ZHHH 220400Z AUTO 03010KT 6SM M01/M21 A3074 RMK T10101210 IEM_DS3505
ZHHH,2008-12-22 05:00,ZHHH 220500Z AUTO 04006KT 6SM M01/M21 A3071 RMK T10101210 IEM_DS3505
ZHHH,2008-12-22 06:00,ZHHH 220600Z AUTO 36004KT 14SM M01/M23 A3068 RMK SLP396 T10091229 57036 IEM_DS3505
ZHHH,2008-12-22 07:00,ZHHH 220700Z AUTO 36006KT 6SM 00/M21 A3068 RMK T00001210 IEM_DS3505
ZHHH,2008-12-22 08:00,ZHHH 220800Z AUTO 6SM 00/M21 A3065 RMK T00001210 IEM_DS3505
ZHHH,2008-12-22 09:00,ZHHH 220900Z AUTO 02006KT 14SM M00/M23 A3065 RMK SLP377 T10041232 57019 IEM_DS3505
ZHHH,2008-12-22 10:00,ZHHH 221000Z AUTO 03004KT 6SM 00/M21 A3062 RMK T00001210 IEM_DS3505
ZHHH,2008-12-22 11:00,ZHHH 221100Z AUTO 6SM 00/M20 A3062 RMK T00001200 IEM_DS3505
ZHHH,2008-12-22 12:00,ZHHH 221200Z AUTO 29002KT 11SM 00/M20 A3065 RMK SLP378 T00001197 52001 IEM_DS3505
ZHHH,2008-12-22 13:00,ZHHH 221300Z AUTO 00000KT 6SM 00/M18 A3065 RMK T00001180 IEM_DS3505
ZHHH,2008-12-22 14:00,ZHHH 221400Z AUTO 00000KT 6SM 00/M18 A3062 RMK T00001180 IEM_DS3505
ZHHH,2008-12-22 15:00,ZHHH 221500Z AUTO 29002KT 11SM M00/M18 A3062 RMK SLP371 T10021183 57006 IEM_DS3505
ZHHH,2008-12-22 16:00,ZHHH 221600Z AUTO 29004KT 6SM 00/M12 A3062 RMK T00001120 IEM_DS3505
ZHHH,2008-12-22 17:00,ZHHH 221700Z AUTO 27002KT 6SM M01/M13 A3059 RMK T10101130 IEM_DS3505
ZHHH,2008-12-22 18:00,ZHHH 221800Z AUTO 29002KT 11SM M00/M17 A3059 RMK SLP357 T10021170 57014 IEM_DS3505
ZHHH,2008-12-22 19:00,ZHHH 221900Z AUTO 28004KT 6SM M01/M12 A3056 RMK T10101120 IEM_DS3505
ZHHH,2008-12-22 20:00,ZHHH 222000Z AUTO 29004KT 6SM M01/M11 A3053 RMK T10101110 IEM_DS3505
ZHHH,2008-12-22 21:00,ZHHH 222100Z AUTO 27002KT 11SM M00/M13 A3053 RMK SLP343 T10041127 57014 IEM_DS3505
ZHHH,2008-12-22 22:00,ZHHH 222200Z AUTO 28004KT 6SM M01/M12 A3053 RMK T10101120 IEM_DS3505
ZHHH,2008-12-22 23:00,ZHHH 222300Z AUTO 24002KT 6SM M01/M11 A3050 RMK T10101110 IEM_DS3505
ZHHH,2008-12-23 00:00,ZHHH 230000Z AUTO 36002KT 11SM M00/M15 A3050 RMK SLP338 T10011148 57005 IEM_DS3505
ZHHH,2008-12-23 01:00,ZHHH 230100Z AUTO 26004KT 6SM 00/M13 A3050 RMK T00001130 IEM_DS3505
ZHHH,2008-12-23 02:00,ZHHH 230200Z AUTO 25004KT 6SM 01/M12 A3053 RMK T00101120 IEM_DS3505
ZHHH,2008-12-23 03:00,ZHHH 230300Z AUTO 18004KT 11SM 01/M14 A3050 RMK SLP334 T00111145 57004 IEM_DS3505
ZHHH,2008-12-23 04:00,ZHHH 230400Z AUTO 22006KT 7SM 02/M12 A3047 RMK T00201120 IEM_DS3505
ZHHH,2008-12-23 05:00,ZHHH 230500Z AUTO 22004KT 7SM 02/M12 A3042 RMK T00201120 IEM_DS3505
ZHHH,2008-12-23 06:00,ZHHH 230600Z AUTO 27004KT 11SM 02/M13 A3042 RMK SLP298 T00191131 57036 IEM_DS3505
ZHHH,2008-12-23 07:00,ZHHH 230700Z AUTO 23006KT 6SM 02/M11 A3039 RMK T00201110 IEM_DS3505
ZHHH,2008-12-23 08:00,ZHHH 230800Z AUTO 20004KT 6SM 02/M10 A3036 RMK T00201100 IEM_DS3505
ZHHH,2008-12-23 09:00,ZHHH 230900Z AUTO 20002KT 11SM 02/M11 A3036 RMK SLP284 T00181110 57014 IEM_DS3505
ZHHH,2008-12-23 10:00,ZHHH 231000Z AUTO 23006KT 6SM 02/M08 A3036 RMK T00201080 IEM_DS3505
ZHHH,2008-12-23 11:00,ZHHH 231100Z AUTO 23006KT 6SM 01/M08 A3036 RMK T00101080 IEM_DS3505
ZHHH,2008-12-23 12:00,ZHHH 231200Z AUTO 25002KT 12SM 02/M08 A3039 RMK SLP289 T00171081 52005 IEM_DS3505
ZHHH,2008-12-23 13:00,ZHHH 231300Z AUTO 23004KT 6SM 01/M07 A3039 RMK T00101070 IEM_DS3505
ZHHH,2008-12-23 14:00,ZHHH 231400Z AUTO 24004KT 6SM 01/M06 A3036 RMK T00101060 IEM_DS3505
ZHHH,2008-12-23 15:00,ZHHH 231500Z AUTO 22004KT 11SM 02/M07 A3036 RMK SLP286 T00151073 57003 IEM_DS3505
ZHHH,2008-12-23 16:00,ZHHH 231600Z AUTO 25004KT 6SM 01/M05 A3036 RMK T00101050 IEM_DS3505
ZHHH,2008-12-23 17:00,ZHHH 231700Z AUTO 23004KT 6SM 01/M06 A3036 RMK T00101060 IEM_DS3505
ZHHH,2008-12-23 18:00,ZHHH 231800Z AUTO 25004KT 11SM 01/M07 A3036 RMK SLP280 T00131067 57006 IEM_DS3505
ZHHH,2008-12-23 19:00,ZHHH 231900Z AUTO 24004KT 6SM 01/M05 A3033 RMK T00101050 IEM_DS3505
ZHHH,2008-12-23 20:00,ZHHH 232000Z AUTO 23004KT 6SM 01/M04 A3033 RMK T00101040 IEM_DS3505
ZHHH,2008-12-23 21:00,ZHHH 232100Z AUTO 29002KT 11SM 01/M05 A3030 RMK SLP265 T00071053 57015 IEM_DS3505
ZHHH,2008-12-23 22:00,ZHHH 232200Z AUTO 20004KT 6SM M01/M04 A3030 RMK T10101040 IEM_DS3505
ZHHH,2008-12-23 23:00,ZHHH 232300Z AUTO 19004KT 6SM M01/M04 A3030 RMK T10101040 IEM_DS3505
ZHHH,2008-12-24 00:00,ZHHH 240000Z AUTO 20002KT 14SM 00/M04 A3033 RMK SLP272 T00041039 52007 IEM_DS3505
ZHHH,2008-12-24 01:00,ZHHH 240100Z AUTO 21006KT 6SM 01/M02 A3033 RMK T00101020 IEM_DS3505
ZHHH,2008-12-24 02:00,ZHHH 240200Z AUTO 24008KT 6SM 04/M02 A3033 RMK T00401020 IEM_DS3505
ZHHH,2008-12-24 03:00,ZHHH 240300Z AUTO 20004KT 12SM 05/M07 A3033 RMK SLP272 T00511071 54000 IEM_DS3505
ZHHH,2008-12-24 04:00,ZHHH 240400Z AUTO 26006KT 6SM 06/M06 A3030 RMK T00601060 IEM_DS3505
ZHHH,2008-12-24 05:00,ZHHH 240500Z AUTO 6SM 07/M06 A3027 RMK T00701060 IEM_DS3505
ZHHH,2008-12-24 06:00,ZHHH 240600Z AUTO 25004KT 12SM 08/M08 A3024 RMK SLP239 T00831078 57032 IEM_DS3505
ZHHH,2008-12-24 07:00,ZHHH 240700Z AUTO 23004KT 6SM 08/M04 A3024 RMK T00801040 IEM_DS3505
ZHHH,2008-12-24 08:00,ZHHH 240800Z AUTO 21004KT 6SM 08/M04 A3024 RMK T00801040 IEM_DS3505
ZHHH,2008-12-24 09:00,ZHHH 240900Z AUTO 27002KT 11SM 08/M06 A3024 RMK SLP239 T00781056 54000 IEM_DS3505
ZHHH,2008-12-24 10:00,ZHHH 241000Z AUTO 14004KT 6SM 06/M04 A3024 RMK T00601040 IEM_DS3505
ZHHH,2008-12-24 11:00,ZHHH 241100Z AUTO 00000KT 6SM 06/M04 A3027 RMK T00601040 IEM_DS3505
ZHHH,2008-12-24 12:00,ZHHH 241200Z AUTO 00000KT 11SM 03/M03 A3030 RMK SLP259 T00301029 52019 IEM_DS3505
ZHHH,2008-12-24 13:00,ZHHH 241300Z AUTO 13006KT 6SM 05/M05 A3030 RMK T00501050 IEM_DS3505
ZHHH,2008-12-24 14:00,ZHHH 241400Z AUTO 12006KT 6SM 04/M04 A3033 RMK T00401040 IEM_DS3505
ZHHH,2008-12-24 15:00,ZHHH 241500Z AUTO 29002KT 9SM 01/M01 A3033 RMK SLP271 T00131013 52012 IEM_DS3505
ZHHH,2008-12-24 16:00,ZHHH 241600Z AUTO 00000KT 6SM 03/M03 A3033 RMK T00301030 IEM_DS3505
ZHHH,2008-12-24 17:00,ZHHH 241700Z AUTO 6SM 01/M03 A3033 RMK T00101030 IEM_DS3505
ZHHH,2008-12-24 18:00,ZHHH 241800Z AUTO 00000KT 9SM 00/M02 A3036 RMK SLP284 T00051019 52013 IEM_DS3505
ZHHH,2008-12-24 19:00,ZHHH 241900Z AUTO 3SM 01/M03 A3036 RMK T00101030 IEM_DS3505
ZHHH,2008-12-24 20:00,ZHHH 242000Z AUTO 07004KT 3SM 00/M03 A3036 RMK T00001030 IEM_DS3505
ZHHH,2008-12-24 21:00,ZHHH 242100Z AUTO 02002KT 9SM M00/M02 A3036 RMK SLP286 T10051019 52002 IEM_DS3505
ZHHH,2008-12-24 22:00,ZHHH 242200Z AUTO 05004KT 3SM 00/M02 A3039 RMK T00001020 IEM_DS3505
ZHHH,2008-12-24 23:00,ZHHH 242300Z AUTO 2SM 00/M03 A3039 RMK T00001030 IEM_DS3505
ZHHH,2008-12-25 00:00,ZHHH 250000Z AUTO 00000KT 9SM M01/M02 A3042 RMK SLP301 T10061023 52015 IEM_DS3505
ZHHH,2008-12-25 01:00,ZHHH 250100Z AUTO 1 1/4SM 02/M01 A3045 RMK T00201010 IEM_DS3505
ZHHH,2008-12-25 02:00,ZHHH 250200Z AUTO 2SM 04/00 A3045 RMK T00400000 IEM_DS3505
ZHHH,2008-12-25 03:00,ZHHH 250300Z AUTO 07004KT 12SM 07/M03 A3042 RMK SLP307 T00741032 52006 IEM_DS3505
ZHHH,2008-12-25 04:00,ZHHH 250400Z AUTO 3SM 09/M01 A3042 RMK T00901010 IEM_DS3505
ZHHH,2008-12-25 05:00,ZHHH 250500Z AUTO 32004KT 3SM 10/M01 A3039 RMK T01001010 IEM_DS3505
ZHHH,2008-12-25 06:00,ZHHH 250600Z AUTO 09006KT 12SM 11/M05 A3036 RMK SLP278 T01061050 57028 IEM_DS3505
ZHHH,2008-12-25 07:00,ZHHH 250700Z AUTO 07004KT 4SM 12/M01 A3036 RMK T01201010 IEM_DS3505
ZHHH,2008-12-25 08:00,ZHHH 250800Z AUTO 05006KT 3SM 12/M02 A3033 RMK T01201020 IEM_DS3505
ZHHH,2008-12-25 09:00,ZHHH 250900Z AUTO 07002KT 11SM 10/M04 A3036 RMK SLP276 T00991045 57003 IEM_DS3505
ZHHH,2008-12-25 10:00,ZHHH 251000Z AUTO 04008KT 2 1/2SM 09/M01 A3036 RMK T00901010 IEM_DS3505
ZHHH,2008-12-25 11:00,ZHHH 251100Z AUTO 04008KT 2 1/2SM 07/M03 A3036 RMK T00701030 IEM_DS3505
ZHHH,2008-12-25 12:00,ZHHH 251200Z AUTO 07002KT 11SM 07/M04 A3039 RMK SLP287 T00701035 52011 IEM_DS3505
ZHHH,2008-12-25 13:00,ZHHH 251300Z AUTO 05008KT 2 1/2SM 05/M04 A3039 RMK T00501040 IEM_DS3505
ZHHH,2008-12-25 14:00,ZHHH 251400Z AUTO 09004KT 2 1/2SM 04/M04 A3039 RMK T00401040 IEM_DS3505
ZHHH,2008-12-25 15:00,ZHHH 251500Z AUTO 04002KT 9SM 06/M05 A3039 RMK SLP295 T00581052 52009 IEM_DS3505
ZHHH,2008-12-25 16:00,ZHHH 251600Z AUTO 07010KT 2 1/2SM 05/M04 A3042 RMK T00501040 IEM_DS3505
ZHHH,2008-12-25 17:00,ZHHH 251700Z AUTO 07010KT 2 1/2SM 05/M04 A3039 RMK T00501040 IEM_DS3505
ZHHH,2008-12-25 18:00,ZHHH 251800Z AUTO 07004KT 9SM 06/M05 A3039 RMK SLP292 T00571050 57003 IEM_DS3505
ZHHH,2008-12-25 19:00,ZHHH 251900Z AUTO 08010KT 2 1/2SM 05/M04 A3036 RMK T00501040 IEM_DS3505
ZHHH,2008-12-25 20:00,ZHHH 252000Z AUTO 08008KT 2 1/2SM 05/M05 A3036 RMK T00501050 IEM_DS3505
ZHHH,2008-12-25 21:00,ZHHH 252100Z AUTO 07002KT 9SM 05/M06 A3033 RMK SLP275 T00541056 57017 IEM_DS3505
ZHHH,2008-12-25 22:00,ZHHH 252200Z AUTO 06006KT 4SM 04/M04 A3033 RMK T00401040 IEM_DS3505
ZHHH,2008-12-25 23:00,ZHHH 252300Z AUTO 2 1/2SM 04/M03 A3036 RMK T00401030 IEM_DS3505
ZHHH,2008-12-26 00:00,ZHHH 260000Z AUTO 07002KT 9SM 05/M05 A3036 RMK SLP280 T00501051 52005 IEM_DS3505
ZHHH,2008-12-26 01:00,ZHHH 260100Z AUTO 04004KT 4SM 05/M04 A3039 RMK T00501040 IEM_DS3505
ZHHH,2008-12-26 02:00,ZHHH 260200Z AUTO 02004KT 4SM 06/M04 A3039 RMK T00601040 IEM_DS3505
ZHHH,2008-12-26 03:00,ZHHH 260300Z AUTO 02004KT 9SM 06/M05 A3039 RMK SLP286 T00611049 52006 IEM_DS3505
ZHHH,2008-12-26 04:00,ZHHH 260400Z AUTO 04004KT 4SM 06/M04 A3036 RMK T00601040 IEM_DS3505
ZHHH,2008-12-26 05:00,ZHHH 260500Z AUTO 4SM 06/M04 A3033 RMK T00601040 IEM_DS3505
ZHHH,2008-12-26 06:00,ZHHH 260600Z AUTO 02002KT 9SM 06/M04 A3030 RMK SLP262 T00631042 57024 IEM_DS3505
ZHHH,2008-12-26 07:00,ZHHH 260700Z AUTO 08006KT 4SM 06/M04 A3027 RMK T00601040 IEM_DS3505
ZHHH,2008-12-26 08:00,ZHHH 260800Z AUTO 09006KT 4SM 06/M04 A3027 RMK T00601040 IEM_DS3505
ZHHH,2008-12-26 09:00,ZHHH 260900Z AUTO 02004KT 9SM 06/M06 A3027 RMK SLP255 T00651055 57007 IEM_DS3505
ZHHH,2008-12-26 10:00,ZHHH 261000Z AUTO 07006KT 3SM 05/M03 A3030 RMK T00501030 IEM_DS3505
ZHHH,2008-12-26 11:00,ZHHH 261100Z AUTO 06006KT 3SM 05/M03 A3030 RMK T00501030 IEM_DS3505
ZHHH,2008-12-26 12:00,ZHHH 261200Z AUTO 07002KT 11SM 06/M04 A3030 RMK SLP260 T00591045 52005 IEM_DS3505
ZHHH,2008-12-26 13:00,ZHHH 261300Z AUTO 07006KT 3SM 04/M02 A3030 RMK T00401020 IEM_DS3505
ZHHH,2008-12-26 14:00,ZHHH 261400Z AUTO 08006KT 4SM 04/M02 A3030 RMK T00401020 IEM_DS3505
ZHHH,2008-12-26 15:00,ZHHH 261500Z AUTO 04002KT 9SM 05/M03 A3030 RMK SLP258 T00481032 57002 IEM_DS3505
ZHHH,2008-12-26 16:00,ZHHH 261600Z AUTO 05004KT 4SM 03/M02 A3027 RMK T00301020 IEM_DS3505
ZHHH,2008-12-26 17:00,ZHHH 261700Z AUTO 05004KT 4SM 03/M02 A3027 RMK T00301020 IEM_DS3505
ZHHH,2008-12-26 18:00,ZHHH 261800Z AUTO 07002KT 9SM 04/M03 RMK SLP243 T00391027 57015 IEM_DS3505
ZHHH,2008-12-26 19:00,ZHHH 261900Z AUTO 08004KT 4SM 03/M02 A3024 RMK T00301020 IEM_DS3505
ZHHH,2008-12-26 20:00,ZHHH 262000Z AUTO 07004KT 4SM 03/M02 A3024 RMK T00301020 IEM_DS3505
ZHHH,2008-12-26 21:00,ZHHH 262100Z AUTO 07002KT 9SM 04/M02 A3021 RMK SLP230 T00381018 57013 IEM_DS3505
ZHHH,2008-12-26 22:00,ZHHH 262200Z AUTO 07006KT 3SM 02/M01 A3018 RMK T00201010 IEM_DS3505
ZHHH,2008-12-26 23:00,ZHHH 262300Z AUTO 09004KT 3SM 03/M01 A3021 RMK T00301010 IEM_DS3505
ZHHH,2008-12-27 00:00,ZHHH 270000Z AUTO 04002KT 9SM 04/M01 A3021 RMK SLP232 T00371007 52002 IEM_DS3505
ZHHH,2008-12-27 01:00,ZHHH 270100Z AUTO 08008KT 2 1/2SM 04/M01 A3021 RMK T00401010 IEM_DS3505
ZHHH,2008-12-27 02:00,ZHHH 270200Z AUTO 10006KT 2 1/2SM 05/00 A3024 RMK T00500000 IEM_DS3505
ZHHH,2008-12-27 03:00,ZHHH 270300Z AUTO 02002KT 5SM 06/00 A3024 RMK SLP238 T00640003 52006 IEM_DS3505
ZHHH,2008-12-27 04:00,ZHHH 270400Z AUTO 11008KT 2 1/2SM 06/00 A3018 RMK T00600000 IEM_DS3505
ZHHH,2008-12-27 05:00,ZHHH 270500Z AUTO 09006KT 2SM 07/00 A3015 RMK T00700000 IEM_DS3505
ZHHH,2008-12-27 06:00,ZHHH 270600Z AUTO 04002KT 6SM 08/00 A3015 RMK SLP205 T00790004 57033 IEM_DS3505
ZHHH,2008-12-27 07:00,ZHHH 270700Z AUTO 08006KT 2SM 07/01 A3012 RMK T00700010 IEM_DS3505
ZHHH,2008-12-27 08:00,ZHHH 270800Z AUTO 06006KT 2SM 07/00 A3012 RMK T00700000 IEM_DS3505
ZHHH,2008-12-27 09:00,ZHHH 270900Z AUTO 09002KT 6SM 07/M00 A3012 RMK SLP200 T00741001 57005 IEM_DS3505
ZHHH,2008-12-27 10:00,ZHHH 271000Z AUTO 1 1/4SM 07/00 A3015 RMK T00700000 IEM_DS3505
ZHHH,2008-12-27 11:00,ZHHH 271100Z AUTO 03004KT 2 1/2SM 06/02 A3015 RMK T00600020 IEM_DS3505
ZHHH,2008-12-27 12:00,ZHHH 271200Z AUTO 00000KT 7SM 07/01 A3015 RMK 60000 SLP213 T00660011 52013 IEM_DS3505
ZHHH,2008-12-27 13:00,ZHHH 271300Z AUTO 06006KT 2SM 06/02 A3018 RMK T00600020 IEM_DS3505
ZHHH,2008-12-27 14:00,ZHHH 271400Z AUTO 07006KT 2SM 05/02 A3018 RMK T00500020 IEM_DS3505
ZHHH,2008-12-27 15:00,ZHHH 271500Z AUTO 04002KT 6SM 06/02 A3018 RMK SLP219 T00570023 52006 IEM_DS3505
ZHHH,2008-12-27 16:00,ZHHH 271600Z AUTO 03006KT 1 1/4SM 04/03 A3018 RMK T00400030 IEM_DS3505
ZHHH,2008-12-27 17:00,ZHHH 271700Z AUTO 04004KT 1SM 04/03 A3018 RMK T00400030 IEM_DS3505
ZHHH,2008-12-27 18:00,ZHHH 271800Z AUTO 36002KT 5SM 04/03 A3018 RMK 60016 SLP222 T00450032 52003 IEM_DS3505
ZHHH,2008-12-27 19:00,ZHHH 271900Z AUTO 1SM 04/04 A3018 RMK T00400040 IEM_DS3505
ZHHH,2008-12-27 20:00,ZHHH 272000Z AUTO 1SM 04/04 A3018 RMK T00400040 IEM_DS3505
ZHHH,2008-12-27 21:00,ZHHH 272100Z AUTO 32002KT 4SM 04/04 A3018 RMK 70020 SLP222 T00440035 54000 IEM_DS3505
ZHHH,2008-12-27 22:00,ZHHH 272200Z AUTO 1SM 04/04 A3018 RMK T00400040 IEM_DS3505
ZHHH,2008-12-27 23:00,ZHHH 272300Z AUTO 04004KT 1SM 04/04 A3021 RMK T00400040 IEM_DS3505
ZHHH,2008-12-28 00:00,ZHHH 280000Z AUTO 29002KT 5SM 05/04 A3024 RMK 60008 70020 SLP240 T00500035 52018 IEM_DS3505
ZHHH,2008-12-28 01:00,ZHHH 280100Z AUTO 03006KT 1 1/2SM 05/04 A3024 RMK T00500040 IEM_DS3505
ZHHH,2008-12-28 02:00,ZHHH 280200Z AUTO 35004KT 1 1/2SM 05/05 A3027 RMK T00500050 IEM_DS3505
ZHHH,2008-12-28 03:00,ZHHH 280300Z AUTO 32004KT 5SM 06/03 A3030 RMK SLP258 T00570034 52018 IEM_DS3505
ZHHH,2008-12-28 04:00,ZHHH 280400Z AUTO 35008KT 1 1/4SM 06/05 A3027 RMK T00600050 IEM_DS3505
ZHHH,2008-12-28 05:00,ZHHH 280500Z AUTO 35006KT 1 1/4SM 06/05 A3027 RMK T00600050 IEM_DS3505
ZHHH,2008-12-28 06:00,ZHHH 280600Z AUTO 32004KT 6SM 06/04 RMK SLP240 T00640036 57018 IEM_DS3505
ZHHH,2008-12-28 07:00,ZHHH 280700Z AUTO 01006KT 1SM 06/05 A3024 RMK T00600050 IEM_DS3505
ZHHH,2008-12-28 08:00,ZHHH 280800Z AUTO 02008KT 1 1/4SM 06/04 A3027 RMK T00600040 IEM_DS3505
ZHHH,2008-12-28 09:00,ZHHH 280900Z AUTO 29002KT 6SM 06/03 A3027 RMK SLP253 T00630033 52013 IEM_DS3505
ZHHH,2008-12-28 10:00,ZHHH 281000Z AUTO 03006KT 1 1/4SM 06/04 A3030 RMK T00600040 IEM_DS3505
ZHHH,2008-12-28 11:00,ZHHH 281100Z AUTO 02006KT 1 1/2SM 05/03 A3033 RMK T00500030 IEM_DS3505
ZHHH,2008-12-28 12:00,ZHHH 281200Z AUTO 32004KT 6SM 06/03 A3033 RMK SLP275 T00580028 52022 IEM_DS3505
ZHHH,2008-12-28 13:00,ZHHH 281300Z AUTO 35004KT 1 1/2SM 05/03 A3036 RMK T00500030 IEM_DS3505
ZHHH,2008-12-28 14:00,ZHHH 281400Z AUTO 1 1/2SM 05/03 A3036 RMK T00500030 IEM_DS3505
ZHHH,2008-12-28 15:00,ZHHH 281500Z AUTO 34002KT 6SM 05/02 A3036 RMK SLP283 T00540024 52008 IEM_DS3505
ZHHH,2008-12-28 16:00,ZHHH 281600Z AUTO 00000KT 1 1/4SM 05/03 A3036 RMK T00500030 IEM_DS3505
ZHHH,2008-12-28 17:00,ZHHH 281700Z AUTO 1SM 04/03 A3036 RMK T00400030 IEM_DS3505
ZHHH,2008-12-28 18:00,ZHHH 281800Z AUTO 32002KT 5SM 05/02 A3036 RMK SLP282 T00460018 57001 IEM_DS3505
ZHHH,2008-12-28 19:00,ZHHH 281900Z AUTO 36004KT 1SM 02/01 A3036 RMK T00200010 IEM_DS3505
ZHHH,2008-12-28 20:00,ZHHH 282000Z AUTO 04004KT 1SM 02/01 A3036 RMK T00200010 IEM_DS3505
ZHHH,2008-12-28 21:00,ZHHH 282100Z AUTO 34002KT 4SM 03/01 A3036 RMK 70000 SLP281 T00280010 57002 IEM_DS3505
ZHHH,2008-12-28 22:00,ZHHH 282200Z AUTO 35004KT 1SM 01/01 A3039 RMK T00100010 IEM_DS3505
ZHHH,2008-12-28 23:00,ZHHH 282300Z AUTO 1SM 01/00 A3039 RMK T00100000 IEM_DS3505
ZHHH,2008-12-29 00:00,ZHHH 290000Z AUTO 04002KT 6SM 03/00 A3042 RMK SLP299 T00290000 52018 IEM_DS3505
ZHHH,2008-12-29 01:00,ZHHH 290100Z AUTO 01004KT 1SM 03/02 A3042 RMK T00300020 IEM_DS3505
ZHHH,2008-12-29 02:00,ZHHH 290200Z AUTO 04010KT 1 1/4SM 05/00 A3042 RMK T00500000 IEM_DS3505
ZHHH,2008-12-29 03:00,ZHHH 290300Z AUTO 36004KT 11SM 06/M03 A3042 RMK SLP301 T00601031 52002 IEM_DS3505
ZHHH,2008-12-29 04:00,ZHHH 290400Z AUTO 04014KT 3SM 07/M04 A3039 RMK T00701040 IEM_DS3505
ZHHH,2008-12-29 05:00,ZHHH 290500Z AUTO 04010KT 3SM 09/M03 A3036 RMK T00901030 IEM_DS3505
ZHHH,2008-12-29 06:00,ZHHH 290600Z AUTO 04002KT 11SM 08/M05 A3033 RMK SLP271 T00841054 57029 IEM_DS3505
ZHHH,2008-12-29 07:00,ZHHH 290700Z AUTO 04008KT 3SM 09/M02 A3033 RMK T00901020 IEM_DS3505
ZHHH,2008-12-29 08:00,ZHHH 290800Z AUTO 03006KT 3SM 08/M02 A3033 RMK T00801020 IEM_DS3505
ZHHH,2008-12-29 09:00,ZHHH 290900Z AUTO 04002KT 9SM 08/M03 A3033 RMK SLP273 T00781031 52002 IEM_DS3505
ZHHH,2008-12-29 10:00,ZHHH 291000Z AUTO 04006KT 1 1/4SM 06/01 A3036 RMK T00600010 IEM_DS3505
ZHHH,2008-12-29 11:00,ZHHH 291100Z AUTO 05010KT 1 1/4SM 05/00 A3039 RMK T00500000 IEM_DS3505
ZHHH,2008-12-29 12:00,ZHHH 291200Z AUTO 02002KT 7SM 06/M01 A3042 RMK SLP301 T00551012 52027 IEM_DS3505
ZHHH,2008-12-29 13:00,ZHHH 291300Z AUTO 03006KT 1 1/4SM 03/00 A3045 RMK T00300000 IEM_DS3505
ZHHH,2008-12-29 14:00,ZHHH 291400Z AUTO 05010KT 1 1/4SM 03/00 A3047 RMK T00300000 IEM_DS3505
ZHHH,2008-12-29 15:00,ZHHH 291500Z AUTO 04006KT 6SM 04/M02 A3047 RMK SLP317 T00401016 52016 IEM_DS3505
ZHHH,2008-12-29 16:00,ZHHH 291600Z AUTO 03004KT 1 1/2SM 04/M01 A3045 RMK T00401010 IEM_DS3505
ZHHH,2008-12-29 17:00,ZHHH 291700Z AUTO 34004KT 1 1/2SM 04/M01 A3045 RMK T00401010 IEM_DS3505
ZHHH,2008-12-29 18:00,ZHHH 291800Z AUTO 34002KT 7SM 04/M02 A3047 RMK 60000 SLP314 T00431017 57002 IEM_DS3505
ZHHH,2008-12-29 19:00,ZHHH 291900Z AUTO 1 1/4SM 03/00 A3045 RMK T00300000 IEM_DS3505
ZHHH,2008-12-29 20:00,ZHHH 292000Z AUTO 04004KT 1 1/4SM 03/00 A3045 RMK T00300000 IEM_DS3505
ZHHH,2008-12-29 21:00,ZHHH 292100Z AUTO 36002KT 7SM 04/M02 A3045 RMK 70000 SLP311 T00351016 57004 IEM_DS3505
ZHHH,2008-12-29 22:00,ZHHH 292200Z AUTO 1 1/4SM 03/00 A3045 RMK T00300000 IEM_DS3505
ZHHH,2008-12-29 23:00,ZHHH 292300Z AUTO 03004KT 1SM 02/00 A3047 RMK T00200000 IEM_DS3505
ZHHH,2008-12-30 00:00,ZHHH 300000Z AUTO 02002KT 7SM 03/M01 A3047 RMK 70000 SLP326 T00321014 52015 IEM_DS3505
ZHHH,2008-12-30 01:00,ZHHH 300100Z AUTO 36006KT 1SM 03/M01 A3050 RMK T00301010 IEM_DS3505
ZHHH,2008-12-30 02:00,ZHHH 300200Z AUTO 03004KT 1 1/4SM 05/M01 A3053 RMK T00501010 IEM_DS3505
ZHHH,2008-12-30 03:00,ZHHH 300300Z AUTO 02004KT 9SM 06/M05 A3050 RMK SLP336 T00641050 52010 IEM_DS3505
ZHHH,2008-12-30 04:00,ZHHH 300400Z AUTO 04008KT 4SM 09/M08 A3047 RMK T00901080 IEM_DS3505
ZHHH,2008-12-30 05:00,ZHHH 300500Z AUTO 02008KT 6SM 09/M09 A3045 RMK T00901090 IEM_DS3505
ZHHH,2008-12-30 06:00,ZHHH 300600Z AUTO 02002KT 12SM 09/M12 A3045 RMK SLP307 T00901122 57028 IEM_DS3505
ZHHH,2008-12-30 07:00,ZHHH 300700Z AUTO 03008KT 6SM 09/M11 A3042 RMK T00901110 IEM_DS3505
ZHHH,2008-12-30 08:00,ZHHH 300800Z AUTO 05008KT 6SM 09/M11 A3045 RMK T00901110 IEM_DS3505
ZHHH,2008-12-30 09:00,ZHHH 300900Z AUTO 04002KT 11SM 08/M12 A3045 RMK SLP313 T00831116 52005 IEM_DS3505
ZHHH,2008-12-30 10:00,ZHHH 301000Z AUTO 04008KT 4SM 07/M06 A3047 RMK T00701060 IEM_DS3505
ZHHH,2008-12-30 11:00,ZHHH 301100Z AUTO 03008KT 4SM 06/M05 A3047 RMK T00601050 IEM_DS3505
ZHHH,2008-12-30 12:00,ZHHH 301200Z AUTO 07004KT 11SM 06/M07 A3050 RMK SLP329 T00651068 52016 IEM_DS3505
ZHHH,2008-12-30 13:00,ZHHH 301300Z AUTO 02004KT 4SM 05/M05 A3050 RMK T00501050 IEM_DS3505
ZHHH,2008-12-30 14:00,ZHHH 301400Z AUTO 02006KT 4SM 05/M06 A3050 RMK T00501060 IEM_DS3505
ZHHH,2008-12-30 15:00,ZHHH 301500Z AUTO 04004KT 11SM 05/M10 A3053 RMK SLP340 T00531097 52011 IEM_DS3505
ZHHH,2008-12-30 16:00,ZHHH 301600Z AUTO 03004KT 4SM 03/M06 A3053 RMK T00301060 IEM_DS3505
ZHHH,2008-12-30 17:00,ZHHH 301700Z AUTO 03004KT 4SM 03/M06 A3053 RMK T00301060 IEM_DS3505
ZHHH,2008-12-30 18:00,ZHHH 301800Z AUTO 34002KT 11SM 04/M08 A3053 RMK SLP340 T00381079 54000 IEM_DS3505
ZHHH,2008-12-30 19:00,ZHHH 301900Z AUTO 01004KT 3SM 02/M06 A3053 RMK T00201060 IEM_DS3505
ZHHH,2008-12-30 20:00,ZHHH 302000Z AUTO 01004KT 2 1/2SM 00/M06 A3053 RMK T00001060 IEM_DS3505
ZHHH,2008-12-30 21:00,ZHHH 302100Z AUTO 29002KT 9SM 01/M06 A3053 RMK SLP342 T00141055 52002 IEM_DS3505
ZHHH,2008-12-30 22:00,ZHHH 302200Z AUTO 01004KT 2SM M01/M06 A3053 RMK T10101060 IEM_DS3505
ZHHH,2008-12-30 23:00,ZHHH 302300Z AUTO 36004KT 1 1/2SM M02/M05 A3056 RMK T10201050 IEM_DS3505
