station,valid,metar
ZHHH,2021-01-01 00:00,ZHHH 010000Z 05002MPS 020V080 CAVOK M03/M06 Q1031 NOSIG
ZHHH,2021-01-01 01:00,ZHHH 010100Z 05002MPS 360V080 CAVOK M00/M03 Q1031 NOSIG
ZHHH,2021-01-01 02:00,ZHHH 010200Z VRB02MPS CAVOK 02/M06 Q1032 NOSIG
ZHHH,2021-01-01 03:00,ZHHH 010300Z VRB02MPS CAVOK 04/M10 Q1031 NOSIG
ZHHH,2021-01-01 04:00,ZHHH 010400Z 21002MPS 140V280 CAVOK 05/M11 Q1030 NOSIG
ZHHH,2021-01-01 05:00,ZHHH 010500Z VRB02MPS CAVOK 06/M09 Q1029 NOSIG
ZHHH,2021-01-01 06:00,ZHHH 010600Z 25002MPS 220V310 CAVOK 06/M08 Q1028 NOSIG
ZHHH,2021-01-01 07:00,ZHHH 010700Z 22002MPS 160V300 CAVOK 07/M06 Q1027 NOSIG
ZHHH,2021-01-01 08:00,ZHHH 010800Z 26002MPS 170V300 CAVOK 07/M06 Q1027 NOSIG
ZHHH,2021-01-01 09:00,ZHHH 010900Z 24002MPS CAVOK 07/M05 Q1027 NOSIG
ZHHH,2021-01-01 10:00,ZHHH 011000Z 24001MPS CAVOK 03/M04 Q1028 NOSIG
ZHHH,2021-01-01 11:00,ZHHH 011100Z VRB01MPS CAVOK 02/M05 Q1028 NOSIG
ZHHH,2021-01-01 12:00,ZHHH 011200Z VRB01MPS CAVOK 01/M04 Q1028 NOSIG
ZHHH,2021-01-01 13:00,ZHHH 011300Z 06002MPS CAVOK 01/M05 Q1029 NOSIG
ZHHH,2021-01-01 14:00,ZHHH 011400Z 06002MPS CAVOK M00/M05 Q1030 NOSIG
ZHHH,2021-01-01 15:00,ZHHH 011500Z VRB01MPS CAVOK 01/M05 Q1030 NOSIG
ZHHH,2021-01-01 16:00,ZHHH 011600Z 09004MPS 7000 NSC 02/M04 Q1028 NOSIG
ZHHH,2021-01-01 17:00,ZHHH 011700Z VRB01MPS 8000 NSC M00/M05 Q1029 NOSIG
ZHHH,2021-01-01 18:00,ZHHH 011800Z 05001MPS 8000 NSC M02/M04 Q1029 NOSIG
ZHHH,2021-01-01 19:00,ZHHH 011900Z 06002MPS 8000 NSC M01/M04 Q1029 NOSIG
ZHHH,2021-01-01 20:00,ZHHH 012000Z 07002MPS 7000 NSC M01/M05 Q1028 NOSIG
ZHHH,2021-01-01 21:00,ZHHH 012100Z 10003MPS 7000 NSC 00/M05 Q1028 NOSIG
ZHHH,2021-01-01 22:00,ZHHH 012200Z 09004MPS 7000 NSC M01/M04 Q1028 NOSIG
ZHHH,2021-01-01 23:00,ZHHH 012300Z 10005MPS 7000 NSC M01/M04 Q1028 NOSIG
ZHHH,2021-01-02 00:00,ZHHH 020000Z 09004MPS 060V120 5000 BR NSC M00/M03 Q1028 NOSIG
ZHHH,2021-01-02 01:00,ZHHH 020100Z 09004MPS 5000 BR NSC 01/M03 Q1029 NOSIG
ZHHH,2021-01-02 02:00,ZHHH 020200Z 10004MPS 6000 NSC 03/M02 Q1029 NOSIG
ZHHH,2021-01-02 03:00,ZHHH 020300Z 08002MPS 040V180 6000 NSC 05/M02 Q1028 NOSIG
ZHHH,2021-01-02 04:00,ZHHH 020400Z 13003MPS 080V180 6000 NSC 07/M03 Q1027 NOSIG
ZHHH,2021-01-02 05:00,ZHHH 020500Z 28002MPS 220V330 6000 NSC 08/M02 Q1026 NOSIG
ZHHH,2021-01-02 06:00,ZHHH 020600Z VRB02MPS 7000 NSC 09/M03 Q1025 NOSIG
ZHHH,2021-01-02 07:00,ZHHH 020700Z 13002MPS 070V170 7000 NSC 10/M05 Q1024 NOSIG
ZHHH,2021-01-02 08:00,ZHHH 020800Z 08003MPS 060V120 8000 NSC 10/M04 Q1024 NOSIG
ZHHH,2021-01-02 09:00,ZHHH 020900Z 09004MPS CAVOK 09/M03 Q1024 NOSIG
ZHHH,2021-01-02 10:00,ZHHH 021000Z 08003MPS CAVOK 07/M04 Q1025 NOSIG
ZHHH,2021-01-02 11:00,ZHHH 021100Z 04003MPS CAVOK 05/M04 Q1025 NOSIG
ZHHH,2021-01-02 12:00,ZHHH 021200Z 08002MPS 050V120 CAVOK 04/M04 Q1026 NOSIG
ZHHH,2021-01-02 13:00,ZHHH 021300Z 03002MPS CAVOK 04/M03 Q1027 NOSIG
ZHHH,2021-01-02 14:00,ZHHH 021400Z 00000MPS CAVOK 05/M04 Q1027 NOSIG
ZHHH,2021-01-02 15:00,ZHHH 021500Z 09002MPS CAVOK 06/M05 Q1027 NOSIG
ZHHH,2021-01-02 16:00,ZHHH 021600Z 06003MPS CAVOK 05/M03 Q1027 NOSIG
ZHHH,2021-01-02 17:00,ZHHH 021700Z 10003MPS CAVOK 06/M04 Q1027 NOSIG
ZHHH,2021-01-02 18:00,ZHHH 021800Z 06002MPS CAVOK 05/M03 Q1027 NOSIG
ZHHH,2021-01-02 19:00,ZHHH 021900Z 00000MPS CAVOK 05/M03 Q1027 NOSIG
ZHHH,2021-01-02 20:00,ZHHH 022000Z 01002MPS 330V040 CAVOK 04/M02 Q1028 NOSIG
ZHHH,2021-01-02 21:00,ZHHH 022100Z 35002MPS 330V030 CAVOK 04/M01 Q1028 NOSIG
ZHHH,2021-01-02 22:00,ZHHH 022200Z 04003MPS CAVOK 04/M01 Q1027 NOSIG
ZHHH,2021-01-02 23:00,ZHHH 022300Z 06002MPS CAVOK 04/M02 Q1028 NOSIG
ZHHH,2021-01-03 00:00,ZHHH 030000Z 07002MPS 040V120 8000 NSC 04/M02 Q1029 NOSIG
ZHHH,2021-01-03 01:00,ZHHH 030100Z 01002MPS 340V050 7000 NSC 04/M01 Q1030 NOSIG
ZHHH,2021-01-03 02:00,ZHHH 030200Z 03002MPS 360V080 7000 NSC 05/M01 Q1030 NOSIG
ZHHH,2021-01-03 03:00,ZHHH 030300Z 04002MPS 320V120 7000 NSC 06/M01 Q1029 NOSIG
ZHHH,2021-01-03 04:00,ZHHH 030400Z 33002MPS 280V060 7000 NSC 07/M01 Q1028 NOSIG
ZHHH,2021-01-03 05:00,ZHHH 030500Z 30002MPS 270V360 7000 NSC 07/M00 Q1028 NOSIG
ZHHH,2021-01-03 06:00,ZHHH 030600Z 20002MPS 150V250 7000 NSC 07/M01 Q1026 NOSIG
ZHHH,2021-01-03 07:00,ZHHH 030700Z 26002MPS 230V300 7000 NSC 07/M01 Q1027 NOSIG
ZHHH,2021-01-03 08:00,ZHHH 030800Z 29002MPS 250V330 7000 NSC 08/M01 Q1027 NOSIG
ZHHH,2021-01-03 09:00,ZHHH 030900Z 25002MPS 5000 HZ NSC 07/M00 Q1028 NOSIG
ZHHH,2021-01-03 10:00,ZHHH 031000Z 00000MPS 5000 HZ NSC 03/M01 Q1028 NOSIG
ZHHH,2021-01-03 11:00,ZHHH 031100Z 21002MPS 180V240 7000 NSC 05/M01 Q1029 NOSIG
ZHHH,2021-01-03 12:00,ZHHH 031200Z VRB01MPS 7000 NSC 03/M01 Q1029 NOSIG
ZHHH,2021-01-03 13:00,ZHHH 031300Z 05003MPS 6000 NSC 03/M00 Q1029 NOSIG
ZHHH,2021-01-03 14:00,ZHHH 031400Z 06003MPS 6000 NSC 02/M01 Q1029 NOSIG
ZHHH,2021-01-03 15:00,ZHHH 031500Z 04002MPS 6000 NSC 03/M01 Q1029 NOSIG
ZHHH,2021-01-03 16:00,ZHHH 031600Z 04002MPS 5000 HZ NSC 02/M02 Q1029 NOSIG
ZHHH,2021-01-03 17:00,ZHHH 031700Z 06003MPS 5000 BR NSC 01/M01 Q1029 NOSIG
ZHHH,2021-01-03 18:00,ZHHH 031800Z VRB01MPS 5000 BR NSC 01/M01 Q1029 NOSIG
ZHHH,2021-01-03 19:00,ZHHH 031900Z VRB01MPS 4500 BR NSC 01/M02 Q1028 NOSIG
ZHHH,2021-01-03 20:00,ZHHH 032000Z 36002MPS 4500 BR NSC 00/M01 Q1028 NOSIG
ZHHH,2021-01-03 21:00,ZHHH 032100Z 02002MPS 4000 BR NSC M00/M01 Q1028 NOSIG
ZHHH,2021-01-03 22:00,ZHHH 032200Z 05002MPS 4000 BR NSC M00/M01 Q1029 BECMG TL2320 2800
ZHHH,2021-01-03 23:00,ZHHH 032300Z 07003MPS 3000 BR NSC 00/M01 Q1028 NOSIG
ZHHH,2021-01-04 00:00,ZHHH 040000Z 08003MPS 2500 BR NSC 01/M01 Q1028 BECMG TL0120 3200
ZHHH,2021-01-04 01:00,ZHHH 040100Z 06002MPS 2500 BR NSC 02/M00 Q1029 NOSIG
ZHHH,2021-01-04 02:00,ZHHH 040200Z 08003MPS 2800 BR NSC 04/01 Q1029 NOSIG
ZHHH,2021-01-04 03:00,ZHHH 040300Z 08002MPS 030V110 3500 HZ NSC 06/01 Q1029 NOSIG
ZHHH,2021-01-04 04:00,ZHHH 040400Z 02002MPS 300V080 3500 HZ NSC 08/00 Q1028 NOSIG
ZHHH,2021-01-04 05:00,ZHHH 040500Z 28002MPS 240V310 4000 HZ NSC 08/01 Q1026 NOSIG
ZHHH,2021-01-04 06:00,ZHHH 040600Z 25002MPS 210V280 4500 HZ NSC 09/M00 Q1026 NOSIG
ZHHH,2021-01-04 07:00,ZHHH 040700Z 25002MPS 4500 HZ NSC 09/M01 Q1025 NOSIG
ZHHH,2021-01-04 08:00,ZHHH 040800Z VRB01MPS 4500 HZ NSC 09/M01 Q1025 NOSIG
ZHHH,2021-01-04 09:00,ZHHH 040900Z VRB01MPS 4500 HZ NSC 09/01 Q1026 NOSIG
ZHHH,2021-01-04 10:00,ZHHH 041000Z VRB01MPS 5000 HZ NSC 08/00 Q1027 NOSIG
ZHHH,2021-01-04 11:00,ZHHH 041100Z 00000MPS 6000 NSC 07/01 Q1028 NOSIG
ZHHH,2021-01-04 12:00,ZHHH 041200Z 03002MPS 360V060 5000 HZ NSC 07/00 Q1028 NOSIG
ZHHH,2021-01-04 13:00,ZHHH 041300Z 04005MPS 5000 HZ NSC 07/01 Q1028 NOSIG
ZHHH,2021-01-04 14:00,ZHHH 041400Z 04004MPS 4000 HZ NSC 06/02 Q1028 NOSIG
ZHHH,2021-01-04 15:00,ZHHH 041500Z 03003MPS 360V060 4000 HZ NSC 06/02 Q1028 NOSIG
ZHHH,2021-01-04 16:00,ZHHH 041600Z 02003MPS 350V060 3000 BR NSC 06/02 Q1029 BECMG TL1700 2500 BR
ZHHH,2021-01-04 17:00,ZHHH 041700Z 01003MPS 330V040 3000 BR NSC 05/02 Q1029 NOSIG
ZHHH,2021-01-04 18:00,ZHHH 041800Z 02003MPS 350V060 3000 BR NSC 05/02 Q1029 NOSIG
ZHHH,2021-01-04 19:00,ZHHH 041900Z 02003MPS 350V060 3000 BR NSC 05/02 Q1029 NOSIG
ZHHH,2021-01-04 20:00,ZHHH 042000Z 01003MPS 330V040 3000 BR NSC 05/02 Q1029 NOSIG
ZHHH,2021-01-04 21:00,ZHHH 042100Z 01003MPS 350V050 3000 BR NSC 04/02 Q1029 NOSIG
ZHHH,2021-01-04 22:00,ZHHH 042200Z 02003MPS 340V060 2500 BR NSC 04/02 Q1030 NOSIG
ZHHH,2021-01-04 23:00,ZHHH 042300Z 01003MPS 330V060 2000 R04L/1400N BR FEW013 04/01 Q1031 NOSIG
ZHHH,2021-01-05 00:00,ZHHH 050000Z 02003MPS 340V050 1200 R04L/1600D R04R/1600N BR FEW013 03/00 Q1032 BECMG TL0150 2000 HZ
ZHHH,2021-01-05 01:00,ZHHH 050100Z 02003MPS 340V060 1100 R04L/1400N R04R/1400N BR FEW015 03/00 Q1033 NOSIG
ZHHH,2021-01-05 02:00,ZHHH 050200Z 01003MPS 330V050 1300 R04L/1400N R04R/1400N BR FEW015 05/01 Q1033 BECMG TL0310 1600
ZHHH,2021-01-05 03:00,ZHHH 050300Z 01004MPS 340V040 1500 HZ NSC 06/01 Q1032 BECMG TL0420 3000
ZHHH,2021-01-05 04:00,ZHHH 050400Z 02004MPS 350V060 1800 HZ FEW015 06/01 Q1031 NOSIG
ZHHH,2021-01-05 05:00,ZHHH 050500Z 02003MPS 340V050 2000 HZ BKN023 05/00 Q1031 NOSIG
ZHHH,2021-01-05 06:00,ZHHH 050600Z 02006MPS 360V060 1800 HZ OVC023 04/M01 Q1030 NOSIG
ZHHH,2021-01-05 07:00,ZHHH 050700Z 04006MPS 360V060 2100 HZ OVC023 04/M01 Q1030 NOSIG
ZHHH,2021-01-05 08:00,ZHHH 050800Z 04005MPS 2100 HZ OVC030 03/M01 Q1031 NOSIG
ZHHH,2021-01-05 09:00,ZHHH 050900Z 02003MPS 350V060 2100 BR NSC 03/M01 Q1031 NOSIG
ZHHH,2021-01-05 10:00,ZHHH 051000Z 02003MPS 340V050 2600 BR NSC 03/M01 Q1031 BECMG TL1120 3000
ZHHH,2021-01-05 11:00,ZHHH 051100Z 04003MPS 3500 BR NSC 02/M01 Q1032 NOSIG
ZHHH,2021-01-05 12:00,ZHHH 051200Z 03005MPS 3500 BR NSC 02/M01 Q1032 NOSIG
ZHHH,2021-01-05 13:00,ZHHH 051300Z 02003MPS 350V050 3200 BR NSC 02/M01 Q1033 NOSIG
ZHHH,2021-01-05 14:00,ZHHH 051400Z 03004MPS 3200 BR NSC 02/M01 Q1032 NOSIG
ZHHH,2021-01-05 15:00,ZHHH 051500Z 03004MPS 3000 BR NSC 02/M01 Q1032 NOSIG
ZHHH,2021-01-05 16:00,ZHHH 051600Z 04004MPS 3000 BR NSC 02/M01 Q1032 NOSIG
ZHHH,2021-01-05 17:00,ZHHH 051700Z 03003MPS 350V060 3000 BR NSC 01/M01 Q1031 NOSIG
ZHHH,2021-01-05 18:00,ZHHH 051800Z 03002MPS 3200 BR NSC 01/M01 Q1031 NOSIG
ZHHH,2021-01-05 19:00,ZHHH 051900Z 05002MPS 3200 BR NSC 00/M02 Q1030 NOSIG
ZHHH,2021-01-05 20:00,ZHHH 052000Z VRB01MPS 3200 BR NSC 01/M00 Q1030 NOSIG
ZHHH,2021-01-05 21:00,ZHHH 052100Z 34002MPS 320V030 2800 BR OVC040 01/M00 Q1030 NOSIG
ZHHH,2021-01-05 22:00,ZHHH 052200Z 05002MPS 2800 BR SCT030 01/M00 Q1029 NOSIG
ZHHH,2021-01-05 23:00,ZHHH 052300Z 03002MPS 350V080 3000 BR NSC 01/M01 Q1030 BECMG TL0040 2500
ZHHH,2021-01-06 00:00,ZHHH 060000Z 02002MPS 340V060 2300 BR NSC 01/M01 Q1030 BECMG TL0140 3000
ZHHH,2021-01-06 01:00,ZHHH 060100Z 04003MPS 2400 BR NSC 01/M01 Q1030 NOSIG
ZHHH,2021-01-06 02:00,ZHHH 060200Z 01003MPS 340V050 3000 BR NSC 02/M01 Q1031 NOSIG
ZHHH,2021-01-06 03:00,ZHHH 060300Z 04002MPS 340V080 3200 BR NSC 03/M01 Q1030 NOSIG
ZHHH,2021-01-06 04:00,ZHHH 060400Z 32002MPS 270V010 4000 BR NSC 03/M00 Q1030 NOSIG
ZHHH,2021-01-06 05:00,ZHHH 060500Z 34002MPS 290V040 3000 BR NSC 03/M01 Q1029 BECMG TL0550 2500
ZHHH,2021-01-06 06:00,ZHHH 060600Z 02002MPS 330V050 4500 HZ NSC 04/M04 Q1028 NOSIG
ZHHH,2021-01-06 07:00,ZHHH 060700Z 35003MPS 310V020 4500 HZ NSC 04/M01 Q1028 NOSIG
ZHHH,2021-01-06 08:00,ZHHH 060800Z 02003MPS 340V050 7000 NSC 04/M05 Q1028 NOSIG
ZHHH,2021-01-06 09:00,ZHHH 060900Z 03004MPS 350V050 6000 NSC 04/M04 Q1029 NOSIG
ZHHH,2021-01-06 10:00,ZHHH 061000Z 03003MPS 6000 NSC 03/M07 Q1030 NOSIG
ZHHH,2021-01-06 11:00,ZHHH 061100Z 02003MPS 350V050 6000 NSC 03/M05 Q1031 NOSIG
ZHHH,2021-01-06 12:00,ZHHH 061200Z 03003MPS 6000 NSC 02/M05 Q1032 NOSIG
ZHHH,2021-01-06 13:00,ZHHH 061300Z 03003MPS 350V050 6000 NSC 02/M06 Q1032 NOSIG
ZHHH,2021-01-06 14:00,ZHHH 061400Z 02003MPS 350V050 6000 NSC 02/M07 Q1033 NOSIG
ZHHH,2021-01-06 15:00,ZHHH 061500Z 03004MPS 360V060 6000 NSC 02/M09 Q1034 NOSIG
ZHHH,2021-01-06 16:00,ZHHH 061600Z 02005G10MPS 350V050 CAVOK 02/M12 Q1034 NOSIG
ZHHH,2021-01-06 17:00,ZHHH 061700Z 02005MPS 350V070 CAVOK 02/M14 Q1034 NOSIG
ZHHH,2021-01-06 18:00,ZHHH 061800Z 02006MPS 350V060 CAVOK 02/M15 Q1034 NOSIG
ZHHH,2021-01-06 19:00,ZHHH 061900Z 02005G10MPS CAVOK 02/M15 Q1035 NOSIG
ZHHH,2021-01-06 20:00,ZHHH 062000Z 02006G11MPS 350V050 CAVOK 01/M14 Q1035 NOSIG
ZHHH,2021-01-06 21:00,ZHHH 062100Z 02006MPS 350V060 CAVOK 00/M13 Q1036 NOSIG
ZHHH,2021-01-06 22:00,ZHHH 062200Z 02006MPS CAVOK M00/M14 Q1037 NOSIG
ZHHH,2021-01-06 23:00,ZHHH 062300Z 03006MPS CAVOK M01/M15 Q1038 NOSIG
ZHHH,2021-01-07 00:00,ZHHH 070000Z 02004MPS 350V050 CAVOK M02/M13 Q1039 NOSIG
ZHHH,2021-01-07 01:00,ZHHH 070100Z 02005MPS 340V050 CAVOK M02/M13 Q1040 NOSIG
ZHHH,2021-01-07 02:00,ZHHH 070200Z 03005MPS 350V060 CAVOK M02/M15 Q1040 NOSIG
ZHHH,2021-01-07 03:00,ZHHH 070300Z 02005MPS 320V050 CAVOK M01/M16 Q1040 NOSIG
ZHHH,2021-01-07 04:00,ZHHH 070400Z 01005MPS 340V040 CAVOK M01/M18 Q1038 NOSIG
ZHHH,2021-01-07 05:00,ZHHH 070500Z 04006MPS 010V070 CAVOK M00/M18 Q1037 NOSIG
ZHHH,2021-01-07 06:00,ZHHH 070600Z 02004MPS 330V060 CAVOK M01/M19 Q1036 NOSIG
ZHHH,2021-01-07 07:00,ZHHH 070700Z 04005MPS CAVOK M01/M18 Q1036 NOSIG
ZHHH,2021-01-07 08:00,ZHHH 070800Z 04007MPS 010V070 CAVOK M02/M19 Q1036 NOSIG
ZHHH,2021-01-07 09:00,ZHHH 070900Z 04005MPS 010V070 CAVOK M02/M18 Q1037 NOSIG
ZHHH,2021-01-07 10:00,ZHHH 071000Z 04005MPS 360V060 CAVOK M03/M18 Q1037 NOSIG
ZHHH,2021-01-07 11:00,ZHHH 071100Z 05005MPS CAVOK M04/M17 Q1037 NOSIG
ZHHH,2021-01-07 12:00,ZHHH 071200Z 03003MPS CAVOK M04/M17 Q1038 NOSIG
ZHHH,2021-01-07 13:00,ZHHH 071300Z 04002MPS CAVOK M05/M16 Q1039 NOSIG
ZHHH,2021-01-07 14:00,ZHHH 071400Z 05003MPS CAVOK M04/M15 Q1039 NOSIG
ZHHH,2021-01-07 15:00,ZHHH 071500Z 05004MPS CAVOK M04/M16 Q1038 NOSIG
ZHHH,2021-01-07 16:00,ZHHH 071600Z 05003MPS CAVOK M04/M16 Q1038 NOSIG
ZHHH,2021-01-07 17:00,ZHHH 071700Z 06003MPS CAVOK M04/M16 Q1038 NOSIG
ZHHH,2021-01-07 18:00,ZHHH 071800Z 11002MPS 080V140 CAVOK M04/M15 Q1038 NOSIG
ZHHH,2021-01-07 19:00,ZHHH 071900Z 08002MPS CAVOK M05/M16 Q1038 NOSIG
ZHHH,2021-01-07 20:00,ZHHH 072000Z 08002MPS CAVOK M06/M15 Q1038 NOSIG
ZHHH,2021-01-07 21:00,ZHHH 072100Z 12002MPS CAVOK M05/M18 Q1037 NOSIG
ZHHH,2021-01-07 22:00,ZHHH 072200Z 13001MPS CAVOK M07/M13 Q1037 NOSIG
ZHHH,2021-01-07 23:00,ZHHH 072300Z 00000MPS CAVOK M07/M13 Q1038 NOSIG
ZHHH,2021-01-08 00:00,ZHHH 080000Z 00000MPS CAVOK M05/M14 Q1038 NOSIG
ZHHH,2021-01-08 01:00,ZHHH 080100Z 29002MPS 260V350 CAVOK M03/M14 Q1039 NOSIG
ZHHH,2021-01-08 02:00,ZHHH 080200Z 26002MPS 190V310 CAVOK M02/M14 Q1039 NOSIG
ZHHH,2021-01-08 03:00,ZHHH 080300Z 24003MPS 200V290 CAVOK M00/M16 Q1038 NOSIG
ZHHH,2021-01-08 04:00,ZHHH 080400Z 26003MPS 230V290 CAVOK 00/M17 Q1037 NOSIG
ZHHH,2021-01-08 05:00,ZHHH 080500Z 27003MPS 210V300 CAVOK 02/M17 Q1035 NOSIG
ZHHH,2021-01-08 06:00,ZHHH 080600Z 28002MPS 230V340 CAVOK 02/M17 Q1034 NOSIG
ZHHH,2021-01-08 07:00,ZHHH 080700Z 27002MPS 200V330 CAVOK 02/M17 Q1034 NOSIG
ZHHH,2021-01-08 08:00,ZHHH 080800Z 24002MPS 190V280 CAVOK 03/M16 Q1032 NOSIG
ZHHH,2021-01-08 09:00,ZHHH 080900Z 23002MPS 150V280 CAVOK 03/M15 Q1032 NOSIG
ZHHH,2021-01-08 10:00,ZHHH 081000Z 22003MPS CAVOK M00/M12 Q1032 NOSIG
ZHHH,2021-01-08 11:00,ZHHH 081100Z 23002MPS CAVOK M00/M11 Q1033 NOSIG
ZHHH,2021-01-08 12:00,ZHHH 081200Z 23002MPS CAVOK M01/M10 Q1033 NOSIG
ZHHH,2021-01-08 13:00,ZHHH 081300Z 23001MPS CAVOK M02/M10 Q1033 NOSIG
ZHHH,2021-01-08 14:00,ZHHH 081400Z 21002MPS 180V260 CAVOK M01/M10 Q1033 NOSIG
ZHHH,2021-01-08 15:00,ZHHH 081500Z 22002MPS CAVOK M02/M10 Q1033 NOSIG
ZHHH,2021-01-08 16:00,ZHHH 081600Z 27002MPS CAVOK M03/M09 Q1033 NOSIG
ZHHH,2021-01-08 17:00,ZHHH 081700Z 25001MPS CAVOK M03/M08 Q1033 NOSIG
ZHHH,2021-01-08 18:00,ZHHH 081800Z 22001MPS CAVOK M03/M09 Q1033 NOSIG
ZHHH,2021-01-08 19:00,ZHHH 081900Z 23001MPS CAVOK M03/M09 Q1033 NOSIG
ZHHH,2021-01-08 20:00,ZHHH 082000Z 25001MPS CAVOK M03/M08 Q1032 NOSIG
ZHHH,2021-01-08 21:00,ZHHH 082100Z VRB01MPS CAVOK M04/M08 Q1032 NOSIG
ZHHH,2021-01-08 22:00,ZHHH 082200Z 00000MPS CAVOK M05/M09 Q1033 NOSIG
ZHHH,2021-01-08 23:00,ZHHH 082300Z 09002MPS CAVOK M03/M07 Q1033 NOSIG
ZHHH,2021-01-09 00:00,ZHHH 090000Z 10002MPS CAVOK M02/M07 Q1033 NOSIG
ZHHH,2021-01-09 01:00,ZHHH 090100Z 12002MPS 090V150 CAVOK M00/M07 Q1033 NOSIG
ZHHH,2021-01-09 02:00,ZHHH 090200Z 12002MPS 080V190 CAVOK 02/M10 Q1033 NOSIG
ZHHH,2021-01-09 03:00,ZHHH 090300Z 27002MPS 220V310 CAVOK 02/M09 Q1033 NOSIG
ZHHH,2021-01-09 04:00,ZHHH 090400Z 30002MPS 270V340 CAVOK 03/M08 Q1033 NOSIG
ZHHH,2021-01-09 05:00,ZHHH 090500Z 28002MPS 240V360 CAVOK 05/M09 Q1032 NOSIG
ZHHH,2021-01-09 06:00,ZHHH 090600Z 29003MPS 230V350 CAVOK 05/M09 Q1030 NOSIG
ZHHH,2021-01-09 07:00,ZHHH 090700Z 27002MPS 220V340 CAVOK 06/M10 Q1029 NOSIG
ZHHH,2021-01-09 08:00,ZHHH 090800Z 24002MPS 170V310 CAVOK 06/M11 Q1029 NOSIG
ZHHH,2021-01-09 09:00,ZHHH 090900Z 00000MPS CAVOK 06/M11 Q1029 NOSIG
ZHHH,2021-01-09 10:00,ZHHH 091000Z VRB01MPS CAVOK 02/M08 Q1029 NOSIG
ZHHH,2021-01-09 11:00,ZHHH 091100Z VRB01MPS CAVOK 03/M09 Q1030 NOSIG
ZHHH,2021-01-09 12:00,ZHHH 091200Z 24001MPS CAVOK M00/M07 Q1030 NOSIG
ZHHH,2021-01-09 13:00,ZHHH 091300Z 24001MPS CAVOK 01/M07 Q1031 NOSIG
ZHHH,2021-01-09 14:00,ZHHH 091400Z VRB01MPS CAVOK M00/M03 Q1031 NOSIG
ZHHH,2021-01-09 15:00,ZHHH 091500Z 04002MPS CAVOK M00/M06 Q1031 NOSIG
ZHHH,2021-01-09 16:00,ZHHH 091600Z 06003MPS CAVOK 00/M07 Q1031 NOSIG
ZHHH,2021-01-09 17:00,ZHHH 091700Z 11003MPS CAVOK 01/M08 Q1031 NOSIG
ZHHH,2021-01-09 18:00,ZHHH 091800Z 06002MPS CAVOK M00/M07 Q1031 NOSIG
ZHHH,2021-01-09 19:00,ZHHH 091900Z 05003MPS CAVOK M01/M06 Q1032 NOSIG
ZHHH,2021-01-09 20:00,ZHHH 092000Z 09002MPS CAVOK M01/M08 Q1031 NOSIG
ZHHH,2021-01-09 21:00,ZHHH 092100Z 04002MPS CAVOK M02/M07 Q1031 NOSIG
ZHHH,2021-01-09 22:00,ZHHH 092200Z 06002MPS CAVOK M02/M07 Q1030 NOSIG
ZHHH,2021-01-09 23:00,ZHHH 092300Z 08002MPS CAVOK M01/M08 Q1030 NOSIG
ZHHH,2021-01-10 00:00,ZHHH 100000Z 10003MPS CAVOK M00/M07 Q1030 NOSIG
ZHHH,2021-01-10 01:00,ZHHH 100100Z 12002MPS 060V150 CAVOK 01/M09 Q1031 NOSIG
ZHHH,2021-01-10 02:00,ZHHH 100200Z 04002MPS CAVOK 02/M09 Q1033 NOSIG
ZHHH,2021-01-10 03:00,ZHHH 100300Z 04003MPS 360V080 CAVOK 05/M12 Q1032 NOSIG
ZHHH,2021-01-10 04:00,ZHHH 100400Z 06004MPS CAVOK 06/M16 Q1032 NOSIG
ZHHH,2021-01-10 05:00,ZHHH 100500Z VRB02MPS CAVOK 07/M15 Q1030 NOSIG
ZHHH,2021-01-10 06:00,ZHHH 100600Z 28002MPS 240V340 CAVOK 07/M13 Q1029 NOSIG
ZHHH,2021-01-10 07:00,ZHHH 100700Z VRB02MPS CAVOK 08/M16 Q1028 NOSIG
ZHHH,2021-01-10 08:00,ZHHH 100800Z 32002MPS 260V360 CAVOK 07/M13 Q1028 NOSIG
ZHHH,2021-01-10 09:00,ZHHH 100900Z VRB01MPS CAVOK 07/M11 Q1029 NOSIG
ZHHH,2021-01-10 10:00,ZHHH 101000Z 03002MPS CAVOK 06/M13 Q1030 NOSIG
ZHHH,2021-01-10 11:00,ZHHH 101100Z 04004MPS CAVOK 05/M13 Q1031 NOSIG
ZHHH,2021-01-10 12:00,ZHHH 101200Z 03004MPS 360V060 CAVOK 04/M13 Q1032 NOSIG
ZHHH,2021-01-10 13:00,ZHHH 101300Z 04005MPS CAVOK 04/M13 Q1032 NOSIG
ZHHH,2021-01-10 14:00,ZHHH 101400Z 03003MPS CAVOK 03/M12 Q1033 NOSIG
ZHHH,2021-01-10 15:00,ZHHH 101500Z 01002MPS 340V060 CAVOK 01/M11 Q1033 NOSIG
ZHHH,2021-01-10 16:00,ZHHH 101600Z 00000MPS CAVOK M00/M12 Q1033 NOSIG
ZHHH,2021-01-10 17:00,ZHHH 101700Z 27002MPS CAVOK 02/M09 Q1035 NOSIG
ZHHH,2021-01-10 18:00,ZHHH 101800Z 31002MPS 260V050 CAVOK 01/M07 Q1035 NOSIG
ZHHH,2021-01-10 19:00,ZHHH 101900Z VRB01MPS CAVOK 00/M10 Q1034 NOSIG
ZHHH,2021-01-10 20:00,ZHHH 102000Z 34002MPS 310V010 CAVOK M00/M09 Q1034 NOSIG
ZHHH,2021-01-10 21:00,ZHHH 102100Z VRB01MPS CAVOK 00/M08 Q1034 NOSIG
ZHHH,2021-01-10 22:00,ZHHH 102200Z 24002MPS CAVOK M01/M06 Q1034 NOSIG
ZHHH,2021-01-10 23:00,ZHHH 102300Z VRB01MPS CAVOK M01/M06 Q1034 NOSIG
ZHHH,2021-01-11 00:00,ZHHH 110000Z VRB01MPS CAVOK M01/M06 Q1034 NOSIG
ZHHH,2021-01-11 01:00,ZHHH 110100Z 23002MPS CAVOK 01/M06 Q1035 NOSIG
ZHHH,2021-01-11 02:00,ZHHH 110200Z 26002MPS 230V290 CAVOK 04/M07 Q1035 NOSIG
ZHHH,2021-01-11 03:00,ZHHH 110300Z 32004MPS 270V080 CAVOK 06/M11 Q1035 NOSIG
ZHHH,2021-01-11 04:00,ZHHH 110400Z 34004MPS 300V010 CAVOK 07/M11 Q1034 NOSIG
ZHHH,2021-01-11 05:00,ZHHH 110500Z 32005MPS 270V010 CAVOK 07/M12 Q1032 NOSIG
ZHHH,2021-01-11 06:00,ZHHH 110600Z 32005MPS 260V060 CAVOK 08/M12 Q1031 NOSIG
ZHHH,2021-01-11 07:00,ZHHH 110700Z 31005MPS 270V350 CAVOK 08/M12 Q1031 NOSIG
ZHHH,2021-01-11 08:00,ZHHH 110800Z 32004MPS 270V010 CAVOK 07/M12 Q1031 NOSIG
ZHHH,2021-01-11 09:00,ZHHH 110900Z 33003MPS 280V050 CAVOK 06/M11 Q1031 NOSIG
ZHHH,2021-01-11 10:00,ZHHH 111000Z VRB01MPS CAVOK 03/M09 Q1031 NOSIG
ZHHH,2021-01-11 11:00,ZHHH 111100Z 00000MPS CAVOK 01/M09 Q1031 NOSIG
ZHHH,2021-01-11 12:00,ZHHH 111200Z VRB01MPS CAVOK 02/M08 Q1031 NOSIG
ZHHH,2021-01-11 13:00,ZHHH 111300Z 22002MPS CAVOK 02/M09 Q1031 NOSIG
ZHHH,2021-01-11 14:00,ZHHH 111400Z 19002MPS CAVOK 02/M09 Q1031 NOSIG
ZHHH,2021-01-11 15:00,ZHHH 111500Z 22002MPS CAVOK 01/M08 Q1031 NOSIG
ZHHH,2021-01-11 16:00,ZHHH 111600Z 22003MPS CAVOK 00/M09 Q1030 NOSIG
ZHHH,2021-01-11 17:00,ZHHH 111700Z 20002MPS CAVOK 00/M08 Q1029 NOSIG
ZHHH,2021-01-11 18:00,ZHHH 111800Z 19002MPS CAVOK 00/M10 Q1028 NOSIG
ZHHH,2021-01-11 19:00,ZHHH 111900Z 17002MPS CAVOK M01/M09 Q1028 NOSIG
ZHHH,2021-01-11 20:00,ZHHH 112000Z 24002MPS CAVOK M00/M06 Q1027 NOSIG
ZHHH,2021-01-11 21:00,ZHHH 112100Z 23001MPS CAVOK M03/M06 Q1026 NOSIG
ZHHH,2021-01-11 22:00,ZHHH 112200Z 22002MPS CAVOK M02/M06 Q1026 NOSIG
ZHHH,2021-01-11 23:00,ZHHH 112300Z 24003MPS CAVOK 00/M06 Q1025 NOSIG
ZHHH,2021-01-12 00:00,ZHHH 120000Z VRB01MPS CAVOK 01/M06 Q1025 NOSIG
ZHHH,2021-01-12 01:00,ZHHH 120100Z 22005MPS CAVOK 03/M05 Q1025 NOSIG
ZHHH,2021-01-12 02:00,ZHHH 120200Z 21005MPS CAVOK 06/M06 Q1025 NOSIG
ZHHH,2021-01-12 03:00,ZHHH 120300Z 20005MPS CAVOK 08/M06 Q1025 NOSIG
ZHHH,2021-01-12 04:00,ZHHH 120400Z 21005MPS 170V230 CAVOK 09/M05 Q1023 NOSIG
ZHHH,2021-01-12 05:00,ZHHH 120500Z 21005MPS CAVOK 11/M04 Q1022 NOSIG
ZHHH,2021-01-12 06:00,ZHHH 120600Z 21005MPS 170V230 CAVOK 11/M04 Q1021 NOSIG
ZHHH,2021-01-12 07:00,ZHHH 120700Z 22005MPS CAVOK 12/M04 Q1020 NOSIG
ZHHH,2021-01-12 08:00,ZHHH 120800Z 21005MPS CAVOK 12/M03 Q1019 NOSIG
ZHHH,2021-01-12 09:00,ZHHH 120900Z 21005MPS CAVOK 10/M02 Q1019 NOSIG
ZHHH,2021-01-12 10:00,ZHHH 121000Z 20004MPS CAVOK 08/M03 Q1019 NOSIG
ZHHH,2021-01-12 11:00,ZHHH 121100Z 20003MPS CAVOK 07/M03 Q1018 NOSIG
ZHHH,2021-01-12 12:00,ZHHH 121200Z 19002MPS CAVOK 07/M03 Q1018 NOSIG
ZHHH,2021-01-12 13:00,ZHHH 121300Z 20002MPS CAVOK 05/M02 Q1018 NOSIG
ZHHH,2021-01-12 14:00,ZHHH 121400Z 16002MPS CAVOK 04/M03 Q1019 NOSIG
ZHHH,2021-01-12 15:00,ZHHH 121500Z 15002MPS CAVOK 04/M04 Q1019 NOSIG
ZHHH,2021-01-12 16:00,ZHHH 121600Z 18004MPS CAVOK 07/M05 Q1018 NOSIG
ZHHH,2021-01-12 17:00,ZHHH 121700Z 16003MPS CAVOK 07/M05 Q1018 NOSIG
ZHHH,2021-01-12 18:00,ZHHH 121800Z 14002MPS CAVOK 02/M05 Q1018 NOSIG
ZHHH,2021-01-12 19:00,ZHHH 121900Z 17003MPS CAVOK 04/M05 Q1018 NOSIG
ZHHH,2021-01-12 20:00,ZHHH 122000Z 05003MPS 8000 NSC 02/M04 Q1018 NOSIG
ZHHH,2021-01-12 21:00,ZHHH 122100Z 09002MPS 8000 NSC 01/M03 Q1018 NOSIG
ZHHH,2021-01-12 22:00,ZHHH 122200Z VRB01MPS 8000 NSC 02/M03 Q1018 NOSIG
ZHHH,2021-01-12 23:00,ZHHH 122300Z 14003MPS 8000 NSC 02/M03 Q1018 NOSIG
ZHHH,2021-01-13 00:00,ZHHH 130000Z VRB01MPS 6000 NSC 02/M03 Q1018 NOSIG
ZHHH,2021-01-13 01:00,ZHHH 130100Z 14002MPS 8000 NSC 06/M03 Q1019 NOSIG
ZHHH,2021-01-13 02:00,ZHHH 130200Z 10002MPS 080V150 8000 NSC 09/M02 Q1020 NOSIG
ZHHH,2021-01-13 03:00,ZHHH 130300Z 18003MPS 110V230 CAVOK 12/M03 Q1019 NOSIG
ZHHH,2021-01-13 04:00,ZHHH 130400Z 21004MPS 170V250 CAVOK 14/M04 Q1018 NOSIG
ZHHH,2021-01-13 05:00,ZHHH 130500Z 20003MPS 160V230 CAVOK 15/M04 Q1017 NOSIG
ZHHH,2021-01-13 06:00,ZHHH 130600Z 20003MPS 170V240 CAVOK 16/M04 Q1017 NOSIG
ZHHH,2021-01-13 07:00,ZHHH 130700Z 17002MPS 140V220 CAVOK 16/M03 Q1016 NOSIG
ZHHH,2021-01-13 08:00,ZHHH 130800Z 20004MPS CAVOK 16/M03 Q1016 NOSIG
ZHHH,2021-01-13 09:00,ZHHH 130900Z 18003MPS CAVOK 15/M03 Q1016 NOSIG
ZHHH,2021-01-13 10:00,ZHHH 131000Z 18003MPS CAVOK 12/M03 Q1016 NOSIG
ZHHH,2021-01-13 11:00,ZHHH 131100Z 16001MPS CAVOK 08/M03 Q1017 NOSIG
ZHHH,2021-01-13 12:00,ZHHH 131200Z 13001MPS CAVOK 08/M03 Q1017 NOSIG
ZHHH,2021-01-13 13:00,ZHHH 131300Z 12003MPS CAVOK 08/M03 Q1017 NOSIG
ZHHH,2021-01-13 14:00,ZHHH 131400Z VRB01MPS CAVOK 08/M02 Q1018 NOSIG
ZHHH,2021-01-13 15:00,ZHHH 131500Z VRB01MPS CAVOK 07/M02 Q1018 NOSIG
ZHHH,2021-01-13 16:00,ZHHH 131600Z VRB01MPS CAVOK 06/M02 Q1018 NOSIG
ZHHH,2021-01-13 17:00,ZHHH 131700Z 12004MPS 7000 NSC 08/M02 Q1018 NOSIG
ZHHH,2021-01-13 18:00,ZHHH 131800Z 05002MPS 7000 NSC 05/M02 Q1018 NOSIG
ZHHH,2021-01-13 19:00,ZHHH 131900Z VRB01MPS 7000 NSC 05/M01 Q1017 NOSIG
ZHHH,2021-01-13 20:00,ZHHH 132000Z 11004MPS 8000 NSC 07/M01 Q1017 NOSIG
ZHHH,2021-01-13 21:00,ZHHH 132100Z 09002MPS 010V120 8000 NSC 07/M01 Q1017 NOSIG
ZHHH,2021-01-13 22:00,ZHHH 132200Z 11003MPS 8000 NSC 06/M01 Q1017 NOSIG
ZHHH,2021-01-13 23:00,ZHHH 132300Z 06002MPS 030V110 8000 NSC 05/M02 Q1017 NOSIG
ZHHH,2021-01-14 00:00,ZHHH 140000Z 05002MPS 360V110 7000 NSC 04/M01 Q1017 NOSIG
ZHHH,2021-01-14 01:00,ZHHH 140100Z 10003MPS 050V120 6000 NSC 08/M00 Q1017 NOSIG
ZHHH,2021-01-14 02:00,ZHHH 140200Z 12003MPS 090V160 7000 NSC 11/00 Q1017 NOSIG
ZHHH,2021-01-14 03:00,ZHHH 140300Z 12003MPS 7000 NSC 13/00 Q1017 NOSIG
ZHHH,2021-01-14 04:00,ZHHH 140400Z 16003MPS 120V200 8000 NSC 16/M02 Q1016 NOSIG
ZHHH,2021-01-14 05:00,ZHHH 140500Z 17003MPS 140V220 8000 NSC 18/M04 Q1014 NOSIG
ZHHH,2021-01-14 06:00,ZHHH 140600Z 20004MPS CAVOK 19/M03 Q1013 NOSIG
ZHHH,2021-01-14 07:00,ZHHH 140700Z 18004MPS CAVOK 19/M03 Q1012 NOSIG
ZHHH,2021-01-14 08:00,ZHHH 140800Z 19005MPS CAVOK 19/M03 Q1012 NOSIG
ZHHH,2021-01-14 09:00,ZHHH 140900Z 18002MPS CAVOK 18/M02 Q1012 NOSIG
ZHHH,2021-01-14 10:00,ZHHH 141000Z 16002MPS CAVOK 14/M02 Q1013 NOSIG
ZHHH,2021-01-14 11:00,ZHHH 141100Z 00000MPS CAVOK 11/M03 Q1013 NOSIG
ZHHH,2021-01-14 12:00,ZHHH 141200Z 00000MPS CAVOK 10/M03 Q1013 NOSIG
ZHHH,2021-01-14 13:00,ZHHH 141300Z 09002MPS CAVOK 11/M03 Q1014 NOSIG
ZHHH,2021-01-14 14:00,ZHHH 141400Z 00000MPS CAVOK 08/05 Q1014 NOSIG
ZHHH,2021-01-14 15:00,ZHHH 141500Z VRB01MPS CAVOK 07/M01 Q1015 NOSIG
ZHHH,2021-01-14 16:00,ZHHH 141600Z VRB01MPS CAVOK 06/M01 Q1015 NOSIG
ZHHH,2021-01-14 17:00,ZHHH 141700Z VRB01MPS CAVOK 06/M00 Q1015 NOSIG
ZHHH,2021-01-14 18:00,ZHHH 141800Z 05004MPS CAVOK 06/01 Q1015 NOSIG
ZHHH,2021-01-14 19:00,ZHHH 141900Z 06004MPS 8000 NSC 06/01 Q1016 NOSIG
ZHHH,2021-01-14 20:00,ZHHH 142000Z 07003MPS 8000 NSC 06/01 Q1016 NOSIG
ZHHH,2021-01-14 21:00,ZHHH 142100Z 06003MPS 8000 NSC 06/01 Q1016 NOSIG
ZHHH,2021-01-14 22:00,ZHHH 142200Z VRB01MPS 8000 NSC 07/M01 Q1016 NOSIG
ZHHH,2021-01-14 23:00,ZHHH 142300Z 03002MPS 340V060 8000 NSC 05/M00 Q1017 NOSIG
ZHHH,2021-01-15 00:00,ZHHH 150000Z VRB01MPS 7000 NSC 05/00 Q1017 NOSIG
ZHHH,2021-01-15 01:00,ZHHH 150100Z 07003MPS 7000 NSC 08/01 Q1018 NOSIG
ZHHH,2021-01-15 02:00,ZHHH 150200Z 07003MPS 7000 NSC 11/01 Q1019 NOSIG
ZHHH,2021-01-15 03:00,ZHHH 150300Z 05007MPS 8000 NSC 15/M03 Q1019 NOSIG
ZHHH,2021-01-15 04:00,ZHHH 150400Z 04006MPS 340V060 7000 NSC 16/M04 Q1018 NOSIG
ZHHH,2021-01-15 05:00,ZHHH 150500Z 01004MPS 320V040 6000 NSC 17/M04 Q1017 NOSIG
ZHHH,2021-01-15 06:00,ZHHH 150600Z 02004MPS 330V060 6000 NSC 18/M06 Q1017 NOSIG
ZHHH,2021-01-15 07:00,ZHHH 150700Z 02005MPS 340V060 6000 NSC 17/M07 Q1017 NOSIG
ZHHH,2021-01-15 08:00,ZHHH 150800Z 03006MPS 6000 NSC 16/M10 Q1017 NOSIG
ZHHH,2021-01-15 09:00,ZHHH 150900Z 02004MPS 340V050 6000 NSC 15/M08 Q1018 NOSIG
ZHHH,2021-01-15 10:00,ZHHH 151000Z 02004MPS 6000 NSC 13/M07 Q1019 NOSIG
ZHHH,2021-01-15 11:00,ZHHH 151100Z 02004MPS 350V060 8000 NSC 11/M08 Q1019 NOSIG
ZHHH,2021-01-15 12:00,ZHHH 151200Z 04005MPS 8000 NSC 10/M08 Q1020 NOSIG
ZHHH,2021-01-15 13:00,ZHHH 151300Z 04005MPS 360V060 CAVOK 10/M08 Q1021 NOSIG
ZHHH,2021-01-15 14:00,ZHHH 151400Z 05006MPS CAVOK 09/M08 Q1021 NOSIG
ZHHH,2021-01-15 15:00,ZHHH 151500Z 04003MPS 360V060 CAVOK 09/M08 Q1021 NOSIG
ZHHH,2021-01-15 16:00,ZHHH 151600Z 03003MPS 340V060 CAVOK 09/M07 Q1022 NOSIG
ZHHH,2021-01-15 17:00,ZHHH 151700Z 04004MPS CAVOK 09/M08 Q1022 NOSIG
ZHHH,2021-01-15 18:00,ZHHH 151800Z 02003MPS 350V050 CAVOK 08/M08 Q1024 NOSIG
ZHHH,2021-01-15 19:00,ZHHH 151900Z 02003MPS 340V050 CAVOK 07/M08 Q1025 NOSIG
ZHHH,2021-01-15 20:00,ZHHH 152000Z 02003MPS 8000 NSC 06/M08 Q1025 NOSIG
ZHHH,2021-01-15 21:00,ZHHH 152100Z 02004MPS 350V070 8000 NSC 06/M07 Q1025 NOSIG
ZHHH,2021-01-15 22:00,ZHHH 152200Z 03003MPS 360V060 8000 NSC 05/M07 Q1026 NOSIG
ZHHH,2021-01-15 23:00,ZHHH 152300Z 05003MPS 360V080 8000 NSC 03/M07 Q1026 NOSIG
ZHHH,2021-01-16 00:00,ZHHH 160000Z VRB01MPS 5000 HZ NSC 04/M06 Q1027 NOSIG
ZHHH,2021-01-16 01:00,ZHHH 160100Z 04003MPS 6000 NSC 06/M06 Q1027 NOSIG
ZHHH,2021-01-16 02:00,ZHHH 160200Z 04005MPS 6000 NSC 06/M05 Q1028 NOSIG
ZHHH,2021-01-16 03:00,ZHHH 160300Z 03003MPS 340V060 6000 NSC 07/M05 Q1028 NOSIG
ZHHH,2021-01-16 04:00,ZHHH 160400Z 02005MPS 6000 NSC 08/M06 Q1027 NOSIG
ZHHH,2021-01-16 05:00,ZHHH 160500Z 01005MPS 340V040 6000 NSC 09/M07 Q1027 NOSIG
ZHHH,2021-01-16 06:00,ZHHH 160600Z 02005G11MPS 340V060 6000 NSC 10/M06 Q1027 NOSIG
ZHHH,2021-01-16 07:00,ZHHH 160700Z 03006MPS 350V060 7000 NSC 09/M09 Q1027 NOSIG
ZHHH,2021-01-16 08:00,ZHHH 160800Z 02006MPS 340V050 7000 NSC 09/M07 Q1027 NOSIG
ZHHH,2021-01-16 09:00,ZHHH 160900Z 02004MPS 330V050 7000 NSC 08/M07 Q1028 NOSIG
ZHHH,2021-01-16 10:00,ZHHH 161000Z 02004MPS 350V050 8000 NSC 07/M07 Q1030 NOSIG
ZHHH,2021-01-16 11:00,ZHHH 161100Z 36005MPS 330V040 8000 NSC 06/M06 Q1031 NOSIG
ZHHH,2021-01-16 12:00,ZHHH 161200Z 01005MPS 340V040 9000 NSC 06/M07 Q1033 NOSIG
ZHHH,2021-01-16 13:00,ZHHH 161300Z 01005MPS CAVOK 05/M08 Q1034 NOSIG
ZHHH,2021-01-16 14:00,ZHHH 161400Z 01005MPS 340V040 CAVOK 05/M08 Q1035 NOSIG
ZHHH,2021-01-16 15:00,ZHHH 161500Z 02004MPS 340V060 CAVOK 05/M08 Q1036 NOSIG
ZHHH,2021-01-16 16:00,ZHHH 161600Z 02003MPS 340V050 CAVOK 04/M07 Q1036 NOSIG
ZHHH,2021-01-16 17:00,ZHHH 161700Z 36003MPS 330V040 CAVOK 04/M06 Q1037 NOSIG
ZHHH,2021-01-16 18:00,ZHHH 161800Z 35002MPS 290V030 9999 FEW040 03/M04 Q1037 NOSIG
ZHHH,2021-01-16 19:00,ZHHH 161900Z 36002MPS 330V060 CAVOK 03/M05 Q1037 NOSIG
ZHHH,2021-01-16 20:00,ZHHH 162000Z 36002MPS CAVOK 02/M05 Q1037 NOSIG
ZHHH,2021-01-16 21:00,ZHHH 162100Z 02001MPS CAVOK 00/M05 Q1037 NOSIG
ZHHH,2021-01-16 22:00,ZHHH 162200Z 02001MPS CAVOK M00/M06 Q1037 NOSIG
ZHHH,2021-01-16 23:00,ZHHH 162300Z 35001MPS CAVOK M01/M04 Q1037 NOSIG
ZHHH,2021-01-17 00:00,ZHHH 170000Z 33001MPS 6000 NSC M00/M03 Q1038 NOSIG
ZHHH,2021-01-17 01:00,ZHHH 170100Z VRB01MPS 6000 NSC 03/M06 Q1038 NOSIG
ZHHH,2021-01-17 02:00,ZHHH 170200Z VRB01MPS 8000 NSC 04/M05 Q1038 NOSIG
ZHHH,2021-01-17 03:00,ZHHH 170300Z 36003MPS 320V050 8000 NSC 06/M08 Q1038 NOSIG
ZHHH,2021-01-17 04:00,ZHHH 170400Z 28003MPS 240V340 CAVOK 06/M09 Q1036 NOSIG
ZHHH,2021-01-17 05:00,ZHHH 170500Z 27002MPS 210V340 CAVOK 07/M13 Q1035 NOSIG
ZHHH,2021-01-17 06:00,ZHHH 170600Z 28003MPS 250V320 CAVOK 07/M13 Q1033 NOSIG
ZHHH,2021-01-17 07:00,ZHHH 170700Z 28002MPS 240V340 CAVOK 07/M12 Q1032 NOSIG
ZHHH,2021-01-17 08:00,ZHHH 170800Z 27002MPS 240V300 CAVOK 08/M13 Q1032 NOSIG
ZHHH,2021-01-17 09:00,ZHHH 170900Z 22002MPS CAVOK 07/M12 Q1031 NOSIG
ZHHH,2021-01-17 10:00,ZHHH 171000Z 21002MPS CAVOK 05/M09 Q1031 NOSIG
ZHHH,2021-01-17 11:00,ZHHH 171100Z 22002MPS CAVOK 04/M07 Q1030 NOSIG
ZHHH,2021-01-17 12:00,ZHHH 171200Z 20003MPS CAVOK 03/M08 Q1030 NOSIG
ZHHH,2021-01-17 13:00,ZHHH 171300Z 21003MPS CAVOK 03/M08 Q1030 NOSIG
ZHHH,2021-01-17 14:00,ZHHH 171400Z 22002MPS CAVOK 02/M06 Q1030 NOSIG
ZHHH,2021-01-17 15:00,ZHHH 171500Z 20003MPS CAVOK 03/M08 Q1029 NOSIG
ZHHH,2021-01-17 16:00,ZHHH 171600Z 19002MPS CAVOK 03/M08 Q1028 NOSIG
ZHHH,2021-01-17 17:00,ZHHH 171700Z 15002MPS CAVOK 01/M07 Q1028 NOSIG
ZHHH,2021-01-17 18:00,ZHHH 171800Z 16002MPS CAVOK 01/M07 Q1027 NOSIG
ZHHH,2021-01-17 19:00,ZHHH 171900Z 15002MPS CAVOK 03/M07 Q1027 NOSIG
ZHHH,2021-01-17 20:00,ZHHH 172000Z 10001MPS CAVOK 00/M06 Q1027 NOSIG
ZHHH,2021-01-17 21:00,ZHHH 172100Z 14002MPS CAVOK 00/M05 Q1026 NOSIG
ZHHH,2021-01-17 22:00,ZHHH 172200Z VRB01MPS 8000 NSC 01/M04 Q1027 NOSIG
ZHHH,2021-01-17 23:00,ZHHH 172300Z VRB01MPS 8000 NSC 01/M04 Q1027 NOSIG
ZHHH,2021-01-18 00:00,ZHHH 180000Z VRB01MPS 6000 NSC 00/M04 Q1027 NOSIG
ZHHH,2021-01-18 01:00,ZHHH 180100Z 13002G07MPS 090V190 8000 NSC 05/M03 Q1027 NOSIG
ZHHH,2021-01-18 02:00,ZHHH 180200Z 21003MPS 170V230 CAVOK 07/M03 Q1028 NOSIG
ZHHH,2021-01-18 03:00,ZHHH 180300Z 21003MPS 160V260 CAVOK 09/M03 Q1027 NOSIG
ZHHH,2021-01-18 04:00,ZHHH 180400Z VRB03MPS CAVOK 11/M01 Q1026 NOSIG
ZHHH,2021-01-18 05:00,ZHHH 180500Z 18003MPS 150V230 CAVOK 12/M01 Q1025 NOSIG
ZHHH,2021-01-18 06:00,ZHHH 180600Z 21003MPS 190V250 CAVOK 13/M01 Q1024 NOSIG
ZHHH,2021-01-18 07:00,ZHHH 180700Z 20003MPS 160V260 CAVOK 14/M01 Q1023 NOSIG
ZHHH,2021-01-18 08:00,ZHHH 180800Z 25002MPS 210V280 CAVOK 13/M02 Q1023 NOSIG
ZHHH,2021-01-18 09:00,ZHHH 180900Z 17003MPS 140V200 CAVOK 13/M01 Q1023 NOSIG
ZHHH,2021-01-18 10:00,ZHHH 181000Z 17002MPS CAVOK 11/M02 Q1023 NOSIG
ZHHH,2021-01-18 11:00,ZHHH 181100Z 14002MPS CAVOK 10/M03 Q1023 NOSIG
ZHHH,2021-01-18 12:00,ZHHH 181200Z 13002MPS CAVOK 09/M02 Q1023 NOSIG
ZHHH,2021-01-18 13:00,ZHHH 181300Z 10003MPS CAVOK 08/M01 Q1023 NOSIG
ZHHH,2021-01-18 14:00,ZHHH 181400Z 11004MPS CAVOK 08/M00 Q1023 NOSIG
ZHHH,2021-01-18 15:00,ZHHH 181500Z 11003MPS CAVOK 07/M00 Q1023 NOSIG
ZHHH,2021-01-18 16:00,ZHHH 181600Z 12002MPS 090V190 CAVOK 04/M02 Q1022 NOSIG
ZHHH,2021-01-18 17:00,ZHHH 181700Z 09002MPS CAVOK 03/M01 Q1022 NOSIG
ZHHH,2021-01-18 18:00,ZHHH 181800Z 09003MPS CAVOK 05/M01 Q1022 NOSIG
ZHHH,2021-01-18 19:00,ZHHH 181900Z 09003G09MPS 060V140 CAVOK 05/M01 Q1022 NOSIG
ZHHH,2021-01-18 20:00,ZHHH 182000Z 11004MPS CAVOK 05/M01 Q1022 NOSIG
ZHHH,2021-01-18 21:00,ZHHH 182100Z 11004MPS CAVOK 05/M02 Q1022 NOSIG
ZHHH,2021-01-18 22:00,ZHHH 182200Z 11004MPS CAVOK 05/M02 Q1022 NOSIG
ZHHH,2021-01-18 23:00,ZHHH 182300Z 09003MPS CAVOK 03/M02 Q1022 NOSIG
ZHHH,2021-01-19 00:00,ZHHH 190000Z 10003MPS CAVOK 04/M02 Q1022 NOSIG
ZHHH,2021-01-19 01:00,ZHHH 190100Z 11004MPS 8000 NSC 07/M02 Q1023 NOSIG
ZHHH,2021-01-19 02:00,ZHHH 190200Z 12004MPS 080V140 8000 NSC 10/M02 Q1023 NOSIG
ZHHH,2021-01-19 03:00,ZHHH 190300Z 11005MPS 8000 NSC 11/M02 Q1023 NOSIG
ZHHH,2021-01-19 04:00,ZHHH 190400Z 11004MPS 080V150 7000 NSC 12/M03 Q1022 NOSIG
ZHHH,2021-01-19 05:00,ZHHH 190500Z 12003MPS 070V170 CAVOK 14/M04 Q1021 NOSIG
ZHHH,2021-01-19 06:00,ZHHH 190600Z 10003MPS 010V160 CAVOK 14/M03 Q1020 NOSIG
ZHHH,2021-01-19 07:00,ZHHH 190700Z 11003MPS 070V140 CAVOK 14/M04 Q1019 NOSIG
ZHHH,2021-01-19 08:00,ZHHH 190800Z 12003MPS 080V160 CAVOK 15/M05 Q1019 NOSIG
ZHHH,2021-01-19 09:00,ZHHH 190900Z 10004MPS CAVOK 14/M03 Q1019 NOSIG
ZHHH,2021-01-19 10:00,ZHHH 191000Z 09005MPS CAVOK 12/M03 Q1019 NOSIG
ZHHH,2021-01-19 11:00,ZHHH 191100Z 10004MPS CAVOK 11/M03 Q1019 NOSIG
ZHHH,2021-01-19 12:00,ZHHH 191200Z 10004MPS CAVOK 10/M03 Q1019 NOSIG
ZHHH,2021-01-19 13:00,ZHHH 191300Z 10004MPS CAVOK 10/M02 Q1020 NOSIG
ZHHH,2021-01-19 14:00,ZHHH 191400Z 09004MPS CAVOK 10/M02 Q1020 NOSIG
ZHHH,2021-01-19 15:00,ZHHH 191500Z 10005MPS CAVOK 09/M02 Q1019 NOSIG
ZHHH,2021-01-19 16:00,ZHHH 191600Z 11004MPS CAVOK 09/M02 Q1019 NOSIG
ZHHH,2021-01-19 17:00,ZHHH 191700Z 11003MPS CAVOK 08/M02 Q1019 NOSIG
ZHHH,2021-01-19 18:00,ZHHH 191800Z 09004MPS CAVOK 07/M02 Q1019 NOSIG
ZHHH,2021-01-19 19:00,ZHHH 191900Z 09006MPS CAVOK 07/M03 Q1019 NOSIG
ZHHH,2021-01-19 20:00,ZHHH 192000Z 10004MPS CAVOK 07/M04 Q1019 NOSIG
ZHHH,2021-01-19 21:00,ZHHH 192100Z 10005MPS CAVOK 07/M04 Q1019 NOSIG
ZHHH,2021-01-19 22:00,ZHHH 192200Z 09005MPS CAVOK 07/M04 Q1019 NOSIG
ZHHH,2021-01-19 23:00,ZHHH 192300Z 10004MPS CAVOK 07/M03 Q1019 NOSIG
ZHHH,2021-01-20 00:00,ZHHH 200000Z 09006MPS CAVOK 08/M04 Q1019 NOSIG
ZHHH,2021-01-20 01:00,ZHHH 200100Z 08004MPS CAVOK 08/M03 Q1020 NOSIG
ZHHH,2021-01-20 02:00,ZHHH 200200Z 08003MPS CAVOK 09/M03 Q1021 NOSIG
ZHHH,2021-01-20 03:00,ZHHH 200300Z 07003MPS 040V100 9999 -RA NSC 09/M00 Q1021 NOSIG
ZHHH,2021-01-20 04:00,ZHHH 200400Z 07003MPS CAVOK 09/M01 Q1020 NOSIG
ZHHH,2021-01-20 05:00,ZHHH 200500Z 07002MPS 8000 NSC 10/M00 Q1020 NOSIG
ZHHH,2021-01-20 06:00,ZHHH 200600Z 07003MPS 040V100 7000 -RA NSC 10/02 Q1019 NOSIG
ZHHH,2021-01-20 07:00,ZHHH 200700Z 05003MPS 7000 -RA BKN040 10/04 Q1019 NOSIG
ZHHH,2021-01-20 08:00,ZHHH 200800Z 05003MPS 6000 -RA BKN040 09/05 Q1019 NOSIG
ZHHH,2021-01-20 09:00,ZHHH 200900Z 08004MPS 5000 -RA BR BKN040 08/05 Q1019 NOSIG
ZHHH,2021-01-20 10:00,ZHHH 201000Z 08003MPS 5000 BR NSC 08/06 Q1019 NOSIG
ZHHH,2021-01-20 11:00,ZHHH 201100Z 09002MPS 060V120 5000 BR NSC 08/04 Q1020 NOSIG
ZHHH,2021-01-20 12:00,ZHHH 201200Z 06002MPS 6000 NSC 08/05 Q1020 NOSIG
ZHHH,2021-01-20 13:00,ZHHH 201300Z 06002MPS 040V100 6000 NSC 07/05 Q1020 NOSIG
ZHHH,2021-01-20 14:00,ZHHH 201400Z 34002MPS 6000 NSC 07/05 Q1020 NOSIG
ZHHH,2021-01-20 15:00,ZHHH 201500Z 04002MPS 020V080 6000 NSC 07/04 Q1020 NOSIG
ZHHH,2021-01-20 16:00,ZHHH 201600Z VRB01MPS 6000 NSC 07/05 Q1020 NOSIG
ZHHH,2021-01-20 17:00,ZHHH 201700Z 05002MPS 6000 NSC 07/05 Q1020 NOSIG
ZHHH,2021-01-20 18:00,ZHHH 201800Z 02001MPS 6000 -RA NSC 07/05 Q1019 NOSIG
ZHHH,2021-01-20 19:00,ZHHH 201900Z 30001MPS 6000 NSC 07/06 Q1020 NOSIG
ZHHH,2021-01-20 20:00,ZHHH 202000Z VRB01MPS 6000 -RA NSC 07/05 Q1020 NOSIG
ZHHH,2021-01-20 21:00,ZHHH 202100Z 12001MPS 6000 -RA NSC 07/06 Q1019 NOSIG
ZHHH,2021-01-20 22:00,ZHHH 202200Z 08002MPS 5000 BR NSC 07/05 Q1019 NOSIG
ZHHH,2021-01-20 23:00,ZHHH 202300Z 31002MPS 4500 -RA BR NSC 07/05 Q1020 NOSIG
ZHHH,2021-01-21 00:00,ZHHH 210000Z VRB01MPS 3000 BR FEW015 06/05 Q1020 NOSIG
ZHHH,2021-01-21 01:00,ZHHH 210100Z VRB01MPS 3400 BR NSC 07/04 Q1021 NOSIG
ZHHH,2021-01-21 02:00,ZHHH 210200Z VRB01MPS 3400 BR NSC 07/04 Q1021 NOSIG
ZHHH,2021-01-21 03:00,ZHHH 210300Z VRB01MPS 3700 BR NSC 08/04 Q1021 NOSIG
ZHHH,2021-01-21 04:00,ZHHH 210400Z VRB01MPS 3000 BR OVC046 08/04 Q1021 NOSIG
ZHHH,2021-01-21 05:00,ZHHH 210500Z VRB01MPS 2800 -RA BR FEW010 OVC046 08/06 Q1020 NOSIG
ZHHH,2021-01-21 06:00,ZHHH 210600Z VRB01MPS 2300 -RA BR FEW010 08/06 Q1019 NOSIG
ZHHH,2021-01-21 07:00,ZHHH 210700Z 27002MPS 240V330 2300 -RA BR FEW010 09/06 Q1019 NOSIG
ZHHH,2021-01-21 08:00,ZHHH 210800Z VRB01MPS 2500 -RA BR FEW010 09/06 Q1019 NOSIG
ZHHH,2021-01-21 09:00,ZHHH 210900Z VRB01MPS 2000 -RA BR FEW010 OVC040 08/06 Q1019 NOSIG
ZHHH,2021-01-21 10:00,ZHHH 211000Z 00000MPS 2100 BR FEW015 OVC040 08/07 Q1020 NOSIG
ZHHH,2021-01-21 11:00,ZHHH 211100Z 22002MPS 180V250 3400 BR OVC040 08/07 Q1020 NOSIG
ZHHH,2021-01-21 12:00,ZHHH 211200Z 25002MPS 3400 BR OVC040 08/07 Q1020 NOSIG
ZHHH,2021-01-21 13:00,ZHHH 211300Z VRB01MPS 3200 BR OVC040 08/07 Q1021 NOSIG
ZHHH,2021-01-21 14:00,ZHHH 211400Z 26001MPS 3000 BR OVC040 08/07 Q1021 NOSIG
ZHHH,2021-01-21 15:00,ZHHH 211500Z 00000MPS 2800 BR SCT023 OVC040 08/07 Q1020 BECMG TL1620 3000
ZHHH,2021-01-21 16:00,ZHHH 211600Z VRB01MPS 2500 BR FEW011 OVC040 07/07 Q1020 BECMG TL1710 3000
ZHHH,2021-01-21 17:00,ZHHH 211700Z 27001MPS 2100 BR SCT020 OVC040 07/07 Q1020 NOSIG
ZHHH,2021-01-21 18:00,ZHHH 211800Z VRB01MPS 2200 BR SCT020 OVC040 07/07 Q1020 NOSIG
ZHHH,2021-01-21 19:00,ZHHH 211900Z VRB01MPS 2200 BR SCT020 OVC040 07/07 Q1020 NOSIG
ZHHH,2021-01-21 20:00,ZHHH 212000Z VRB01MPS 2800 -RA BR SCT020 OVC040 07/07 Q1019 NOSIG
ZHHH,2021-01-21 21:00,ZHHH 212100Z 27002MPS 240V300 2500 -RA BR SCT020 OVC040 07/07 Q1019 BECMG TL2240 3000
ZHHH,2021-01-21 22:00,ZHHH 212200Z VRB01MPS 2000 -RA BR SCT010 OVC040 07/07 Q1020 BECMG TL2340 3000
ZHHH,2021-01-21 23:00,ZHHH 212300Z 00000MPS 1800 -RA BR SCT010 OVC040 07/07 Q1020 BECMG TL0040 3000
ZHHH,2021-01-22 00:00,ZHHH 220000Z VRB01MPS 1200 R04L/1300N R04R/P2000 BR SCT008 OVC033 07/07 Q1020 BECMG TL0140 2000
ZHHH,2021-01-22 01:00,ZHHH 220100Z 00000MPS 1200 R04L/1600U R04R/1800N BR NSC 07/07 Q1021 BECMG TL0230 1600 BR
ZHHH,2021-01-22 02:00,ZHHH 220200Z VRB01MPS 1200 R04L/1200V1400N R04R/1400N BR NSC 07/07 Q1021 NOSIG
ZHHH,2021-01-22 03:00,ZHHH 220300Z VRB01MPS 1400 R04L/1300U R04R/1700U BR NSC 08/08 Q1020 BECMG TL0400 1600
ZHHH,2021-01-22 04:00,ZHHH 220400Z VRB01MPS 2000 BR SCT025 08/07 Q1020 BECMG TL0540 3200
ZHHH,2021-01-22 05:00,ZHHH 220500Z VRB01MPS 2000 -RA BR NSC 08/07 Q1019 NOSIG
ZHHH,2021-01-22 06:00,ZHHH 220600Z 31002MPS 270V340 2000 BR SCT020 08/08 Q1018 NOSIG
ZHHH,2021-01-22 07:00,ZHHH 220700Z VRB01MPS 2000 BR SCT020 09/07 Q1017 NOSIG
ZHHH,2021-01-22 08:00,ZHHH 220800Z VRB01MPS 2000 BR SCT011 09/07 Q1017 NOSIG
ZHHH,2021-01-22 09:00,ZHHH 220900Z 04002MPS 360V060 3500 BR NSC 08/07 Q1018 NOSIG
ZHHH,2021-01-22 10:00,ZHHH 221000Z 04003MPS 4000 BR NSC 08/07 Q1018 NOSIG
ZHHH,2021-01-22 11:00,ZHHH 221100Z 04002MPS 4000 BR SCT015 07/07 Q1019 NOSIG
ZHHH,2021-01-22 12:00,ZHHH 221200Z 04003MPS 2500 BR SCT012 07/07 Q1019 NOSIG
ZHHH,2021-01-22 13:00,ZHHH 221300Z 02002MPS 350V060 2500 BR SCT012 07/07 Q1019 NOSIG
ZHHH,2021-01-22 14:00,ZHHH 221400Z VRB01MPS 2500 BR SCT012 07/07 Q1020 NOSIG
ZHHH,2021-01-22 15:00,ZHHH 221500Z VRB01MPS 1500 -RA BR SCT007 07/07 Q1020 NOSIG
ZHHH,2021-01-22 16:00,ZHHH 221600Z 32002MPS 260V030 1200 R04L/1400U R04R/1600D -RA BR SCT007 07/07 Q1020 BECMG TL1730 1500
ZHHH,2021-01-22 17:00,ZHHH 221700Z 34002MPS 1200 R04L/1400N R04R/1100V1200N -RA BR SCT007 06/06 Q1020 NOSIG
ZHHH,2021-01-22 18:00,ZHHH 221800Z 36002MPS 320V040 1200 R04L/1300V1400N R04R/1100V1300N BR SCT007 06/06 Q1019 NOSIG
ZHHH,2021-01-22 19:00,ZHHH 221900Z VRB01MPS 1200 R04L/1600N R04R/1000V1100D BR SCT004 SCT006 06/06 Q1019 BECMG TL2050 0700 FG
ZHHH,2021-01-22 20:00,ZHHH 222000Z VRB01MPS 1400 R04L/1700D R04R/1200V1300N BR SCT004 OVC033 06/06 Q1019 BECMG TL2150 0700 FG
ZHHH,2021-01-22 21:00,ZHHH 222100Z 31002MPS 280V350 1200 R04L/1500N R04R/0900V1000U BR SCT004 OVC033 06/06 Q1019 BECMG TL2200 0700 FG
ZHHH,2021-01-22 22:00,ZHHH 222200Z VRB01MPS 0900 R04L/1400D R04R/0900V1000U FG SCT004 05/05 Q1020 BECMG TL2310 0700
ZHHH,2021-01-22 23:00,ZHHH 222300Z VRB01MPS 0900 R04L/0900V1200N R04R/0900N FG SCT004 05/05 Q1020 BECMG TL0010 0700
ZHHH,2021-01-23 00:00,ZHHH 230000Z 01002MPS 0700 R04L/0750N R04R/0900V1100N FG SCT004 BKN040 05/05 Q1020 BECMG TL0100 0800
ZHHH,2021-01-23 01:00,ZHHH 230100Z 28002MPS 240V320 0700 R04L/0800N R04R/1000V1100U FG SCT004 BKN040 06/06 Q1021 BECMG TL0130 0800
ZHHH,2021-01-23 02:00,ZHHH 230200Z 28002MPS 250V310 0700 R04L/0800V0900N R04R/1000V1100N FG SCT006 OVC026 06/06 Q1022 BECMG TL0230 0800
ZHHH,2021-01-23 03:00,ZHHH 230300Z 26002MPS 0600 R04L/0800N R04R/0800V1100D FG SCT003 OVC020 06/06 Q1022 BECMG TL0420 0800
ZHHH,2021-01-23 04:00,ZHHH 230400Z 28002MPS 240V320 0600 R04L/0900V1000U R04R/0900V1000D FG VV005 07/07 Q1021 BECMG TL0520 0800
ZHHH,2021-01-23 05:00,ZHHH 230500Z 32002MPS 270V360 1000 R04L/1200V1300N R04R/1100V1400U BR SCT006 OVC026 08/07 Q1020 BECMG TL0610 1600
ZHHH,2021-01-23 06:00,ZHHH 230600Z 30002MPS 260V350 1200 R04L/1400N R04R/1500U BR SCT008 OVC026 08/07 Q1021 BECMG TL0720 1600
ZHHH,2021-01-23 07:00,ZHHH 230700Z 34002MPS 290V030 1400 R04L/1500U R04R/1500N BR SCT012 OVC030 09/07 Q1021 BECMG TL0820 2000
ZHHH,2021-01-23 08:00,ZHHH 230800Z 04003MPS 350V070 2500 BR SCT012 OVC030 10/06 Q1020 BECMG TL0920 3000
ZHHH,2021-01-23 09:00,ZHHH 230900Z 04004MPS 4500 BR SCT017 OVC030 10/05 Q1020 NOSIG
ZHHH,2021-01-23 10:00,ZHHH 231000Z 07003MPS 4000 BR NSC 08/05 Q1020 NOSIG
ZHHH,2021-01-23 11:00,ZHHH 231100Z 09003MPS 4000 BR NSC 08/05 Q1021 NOSIG
ZHHH,2021-01-23 12:00,ZHHH 231200Z 07002MPS 040V110 4000 BR NSC 06/05 Q1022 NOSIG
ZHHH,2021-01-23 13:00,ZHHH 231300Z 08004MPS 3400 BR NSC 07/06 Q1021 BECMG TL1440 2800
ZHHH,2021-01-23 14:00,ZHHH 231400Z 06003MPS 3000 BR BKN020 06/05 Q1021 BECMG TL1440 2800
ZHHH,2021-01-23 15:00,ZHHH 231500Z 05003MPS 2800 BR FEW010 BKN020 06/06 Q1022 NOSIG
ZHHH,2021-01-23 16:00,ZHHH 231600Z 03002MPS 360V060 2800 BR FEW010 BKN020 06/06 Q1022 NOSIG
ZHHH,2021-01-23 17:00,ZHHH 231700Z 04003MPS 3000 BR OVC020 06/06 Q1022 NOSIG
ZHHH,2021-01-23 18:00,ZHHH 231800Z 06004MPS 3000 BR OVC020 06/06 Q1021 NOSIG
ZHHH,2021-01-23 19:00,ZHHH 231900Z 08004MPS 4000 BR OVC020 07/06 Q1021 NOSIG
ZHHH,2021-01-23 20:00,ZHHH 232000Z 08002MPS 010V150 4000 BR OVC020 07/06 Q1020 NOSIG
ZHHH,2021-01-23 21:00,ZHHH 232100Z 06004MPS 3300 BR OVC020 07/06 Q1020 NOSIG
ZHHH,2021-01-23 22:00,ZHHH 232200Z 07002MPS 3600 BR OVC020 06/06 Q1020 BECMG TL2340 2800
ZHHH,2021-01-23 23:00,ZHHH 232300Z 06003MPS 3000 BR OVC020 06/06 Q1021 BECMG TL2340 2800
ZHHH,2021-01-24 00:00,ZHHH 240000Z 07005MPS 2200 BR NSC 07/06 Q1020 BECMG TL0140 3200
ZHHH,2021-01-24 01:00,ZHHH 240100Z 10006MPS 3500 BR NSC 08/06 Q1021 NOSIG
ZHHH,2021-01-24 02:00,ZHHH 240200Z 11006MPS 6000 SCT020 10/06 Q1021 NOSIG
ZHHH,2021-01-24 03:00,ZHHH 240300Z 08005MPS 040V110 6000 SCT020 09/06 Q1021 NOSIG
ZHHH,2021-01-24 04:00,ZHHH 240400Z 08004MPS 7000 SCT020 10/06 Q1021 NOSIG
ZHHH,2021-01-24 05:00,ZHHH 240500Z 10005MPS 9000 BKN023 10/06 Q1019 NOSIG
ZHHH,2021-01-24 06:00,ZHHH 240600Z 10005MPS 9999 SCT023 10/06 Q1018 NOSIG
ZHHH,2021-01-24 07:00,ZHHH 240700Z 10004MPS 8000 SCT023 10/06 Q1018 NOSIG
ZHHH,2021-01-24 08:00,ZHHH 240800Z 10004MPS 8000 -RA NSC 10/06 Q1017 NOSIG
ZHHH,2021-01-24 09:00,ZHHH 240900Z 10003MPS 8000 -RA NSC 10/07 Q1018 NOSIG
ZHHH,2021-01-24 10:00,ZHHH 241000Z 04002MPS 5000 -RA BR FEW015 09/08 Q1018 NOSIG
ZHHH,2021-01-24 11:00,ZHHH 241100Z 04003MPS 5000 -RA BR FEW015 08/08 Q1018 NOSIG
ZHHH,2021-01-24 12:00,ZHHH 241200Z 04004MPS 3500 -RA BR FEW015 07/07 Q1019 NOSIG
ZHHH,2021-01-24 13:00,ZHHH 241300Z 03004MPS 3500 -RA BR FEW012 07/07 Q1019 NOSIG
ZHHH,2021-01-24 14:00,ZHHH 241400Z 03004MPS 3200 -RA BR FEW012 07/07 Q1020 NOSIG
ZHHH,2021-01-24 15:00,ZHHH 241500Z 03003MPS 360V060 3200 -RA BR FEW010 OVC040 07/07 Q1020 NOSIG
ZHHH,2021-01-24 16:00,ZHHH 241600Z 02002MPS 3000 -RA BR FEW010 OVC040 07/07 Q1021 BECMG TL1740 2500
ZHHH,2021-01-24 17:00,ZHHH 241700Z 01002MPS 330V050 2500 -RA BR FEW006 SCT020 OVC033 07/07 Q1021 NOSIG
ZHHH,2021-01-24 18:00,ZHHH 241800Z VRB01MPS 2000 -RA BR FEW004 SCT006 OVC026 07/07 Q1021 NOSIG
ZHHH,2021-01-24 19:00,ZHHH 241900Z 03002MPS 360V060 3000 -RA BR FEW004 SCT006 OVC026 07/07 Q1021 NOSIG
ZHHH,2021-01-24 20:00,ZHHH 242000Z 02003MPS 350V050 3000 -RA BR FEW004 SCT006 OVC026 06/06 Q1021 NOSIG
ZHHH,2021-01-24 21:00,ZHHH 242100Z 03003MPS 3000 -RA BR FEW005 SCT007 OVC026 06/06 Q1022 BECMG TL2220 2500
ZHHH,2021-01-24 22:00,ZHHH 242200Z 02003MPS 350V050 3500 -RA BR SCT007 OVC023 06/06 Q1022 NOSIG
ZHHH,2021-01-24 23:00,ZHHH 242300Z 03003MPS 3200 -RA BR SCT007 OVC023 06/06 Q1022 NOSIG
ZHHH,2021-01-25 00:00,ZHHH 250000Z 02003MPS 2300 -RA BR SCT011 OVC023 06/06 Q1023 BECMG TL0140 3000
ZHHH,2021-01-25 01:00,ZHHH 250100Z 36003MPS 330V040 2500 BR SCT011 06/05 Q1024 NOSIG
ZHHH,2021-01-25 02:00,ZHHH 250200Z 34002MPS 250V020 2300 BR SCT011 06/06 Q1024 NOSIG
ZHHH,2021-01-25 03:00,ZHHH 250300Z 34003MPS 300V020 1700 BR SCT007 06/06 Q1024 BECMG TL0440 1200
ZHHH,2021-01-25 04:00,ZHHH 250400Z 34004MPS 310V010 1300 R04L/1700N R04R/1400N -RA BR SCT007 05/05 Q1024 NOSIG
ZHHH,2021-01-25 05:00,ZHHH 250500Z 34003MPS 290V020 1100 R04L/1500N R04R/1200V1400N -RA BR SCT007 OVC040 05/05 Q1024 NOSIG
ZHHH,2021-01-25 06:00,ZHHH 250600Z 34004MPS 300V020 0900 R04L/1200V1400N R04R/1100N -RA FG SCT007 SCT011 OVC040 05/05 Q1023 NOSIG
ZHHH,2021-01-25 07:00,ZHHH 250700Z 34004MPS 310V020 0900 R04L/1400N R04R/1200V1300N -RA FG SCT007 SCT014 OVC040 05/04 Q1023 NOSIG
ZHHH,2021-01-25 08:00,ZHHH 250800Z 35003MPS 310V040 1000 R04L/1400N R04R/1200V1300D -RA BR SCT009 SCT015 OVC040 05/04 Q1023 BECMG TL0940 1500
ZHHH,2021-01-25 09:00,ZHHH 250900Z 34003MPS 280V020 1300 R04L/1700D R04R/1500U BR SCT015 05/04 Q1024 BECMG TL0940 1500
ZHHH,2021-01-25 10:00,ZHHH 251000Z 36002MPS 320V040 1500 -RA BR SCT011 05/04 Q1024 NOSIG
ZHHH,2021-01-25 11:00,ZHHH 251100Z VRB01MPS 2000 -RA BR FEW008 OVC023 04/04 Q1024 NOSIG
ZHHH,2021-01-25 12:00,ZHHH 251200Z VRB01MPS 1900 BR SCT009 OVC040 04/04 Q1024 NOSIG
ZHHH,2021-01-25 13:00,ZHHH 251300Z VRB01MPS 2100 BR OVC030 04/04 Q1025 NOSIG
ZHHH,2021-01-25 14:00,ZHHH 251400Z VRB01MPS 2300 BR OVC030 04/03 Q1025 NOSIG
ZHHH,2021-01-25 15:00,ZHHH 251500Z 30002MPS 250V350 2000 BR OVC030 05/04 Q1026 NOSIG
ZHHH,2021-01-25 16:00,ZHHH 251600Z VRB02MPS 2000 BR OVC040 05/04 Q1026 NOSIG
ZHHH,2021-01-25 17:00,ZHHH 251700Z VRB01MPS 2100 BR OVC040 05/04 Q1025 NOSIG
ZHHH,2021-01-25 18:00,ZHHH 251800Z 27001MPS 1900 BR NSC 05/05 Q1025 NOSIG
ZHHH,2021-01-25 19:00,ZHHH 251900Z 27002MPS 230V300 1900 BR SCT016 05/04 Q1025 NOSIG
ZHHH,2021-01-25 20:00,ZHHH 252000Z VRB01MPS 1900 BR SCT016 04/04 Q1025 NOSIG
ZHHH,2021-01-25 21:00,ZHHH 252100Z 28002MPS 240V360 1900 BR SCT016 04/04 Q1025 BECMG TL2240 0600 FG
ZHHH,2021-01-25 22:00,ZHHH 252200Z 25002MPS 230V300 1600 R04L/1300D R04R/1200N BR SCT004 OVC040 04/04 Q1025 BECMG TL2240 0600 FG
ZHHH,2021-01-25 23:00,ZHHH 252300Z 28002MPS 0600 R04L/0500N R04R/0500D FG VV002 04/04 Q1026 BECMG TL2340 0400
ZHHH,2021-01-26 00:00,ZHHH 260000Z 28002MPS 240V320 0200 R04L/0200N R04R/0175N FG VV001 03/03 Q1026 BECMG TL0120 0400
ZHHH,2021-01-26 01:00,ZHHH 260100Z VRB01MPS 0300 R22R/0450D R22L/0650V1000N FG VV001 04/04 Q1027 BECMG TL0140 0700
ZHHH,2021-01-26 02:00,ZHHH 260200Z VRB01MPS 0450 R22R/0600V0750N R22L/0700V1100U FG VV002 04/04 Q1027 BECMG TL0240 0700
ZHHH,2021-01-26 03:00,ZHHH 260300Z 30002MPS 250V350 0800 R22R/1100V1300N R22L/1100V1300N FG VV004 04/04 Q1027 BECMG TL0450 1500 BR
ZHHH,2021-01-26 04:00,ZHHH 260400Z 26003MPS 230V320 1400 R22R/1500U R22L/1500D BR SCT006 SCT007 05/05 Q1026 NOSIG
ZHHH,2021-01-26 05:00,ZHHH 260500Z 26003MPS 230V290 1700 BR FEW013 SCT023 07/05 Q1025 NOSIG
ZHHH,2021-01-26 06:00,ZHHH 260600Z 26003MPS 230V290 2100 BR FEW023 08/05 Q1024 NOSIG
ZHHH,2021-01-26 07:00,ZHHH 260700Z 28002MPS 230V330 2100 BR FEW020 09/05 Q1024 NOSIG
ZHHH,2021-01-26 08:00,ZHHH 260800Z 25002MPS 220V280 2200 BR SCT030 09/05 Q1023 NOSIG
ZHHH,2021-01-26 09:00,ZHHH 260900Z 26002MPS 230V300 2200 BR SCT033 09/05 Q1023 BECMG TL1050 3000
ZHHH,2021-01-26 10:00,ZHHH 261000Z 22002MPS 2000 BR NSC 08/05 Q1024 NOSIG
ZHHH,2021-01-26 11:00,ZHHH 261100Z 22002MPS 3100 BR NSC 07/05 Q1024 NOSIG
ZHHH,2021-01-26 12:00,ZHHH 261200Z 25001MPS 3100 BR NSC 07/05 Q1024 NOSIG
ZHHH,2021-01-26 13:00,ZHHH 261300Z VRB01MPS 3000 BR NSC 06/05 Q1025 BECMG TL1350 2800
ZHHH,2021-01-26 14:00,ZHHH 261400Z 33001MPS 2800 BR NSC 07/06 Q1025 NOSIG
ZHHH,2021-01-26 15:00,ZHHH 261500Z 34001MPS 2500 BR NSC 06/06 Q1025 NOSIG
ZHHH,2021-01-26 16:00,ZHHH 261600Z 05002MPS 2500 BR OVC040 06/05 Q1025 NOSIG
ZHHH,2021-01-26 17:00,ZHHH 261700Z 06002MPS 3200 BR OVC040 06/04 Q1025 NOSIG
ZHHH,2021-01-26 18:00,ZHHH 261800Z 05001MPS 3200 BR OVC040 06/04 Q1025 NOSIG
ZHHH,2021-01-26 19:00,ZHHH 261900Z 04002MPS 3400 BR OVC040 06/04 Q1023 NOSIG
ZHHH,2021-01-26 20:00,ZHHH 262000Z 08003MPS 3400 BR OVC040 06/04 Q1022 NOSIG
ZHHH,2021-01-26 21:00,ZHHH 262100Z 09003MPS 3400 BR OVC033 06/04 Q1023 BECMG TL2250 2500
ZHHH,2021-01-26 22:00,ZHHH 262200Z 07003MPS 3000 BR FEW020 OVC033 06/04 Q1023 BECMG TL2250 2500
ZHHH,2021-01-26 23:00,ZHHH 262300Z 08003MPS 2500 BR SCT020 BKN033 06/05 Q1023 NOSIG
ZHHH,2021-01-27 00:00,ZHHH 270000Z 03002MPS 360V060 1700 BR OVC026 06/05 Q1023 BECMG TL0050 1200
ZHHH,2021-01-27 01:00,ZHHH 270100Z 06003MPS 1200 R04L/1900D R04R/1600U -RA BR OVC023 06/05 Q1024 NOSIG
ZHHH,2021-01-27 02:00,ZHHH 270200Z 03002MPS 360V070 1400 R04L/1500U R04R/1500D -RA BR OVC023 06/06 Q1024 NOSIG
ZHHH,2021-01-27 03:00,ZHHH 270300Z 05002MPS 020V080 1400 R04L/1600N R04R/1400N -RA BR OVC020 07/06 Q1024 NOSIG
ZHHH,2021-01-27 04:00,ZHHH 270400Z VRB01MPS 1400 R04L/1500N R04R/1500N -RA BR SCT010 OVC040 07/06 Q1023 BECMG TL0450 1600
ZHHH,2021-01-27 05:00,ZHHH 270500Z 01001MPS 1500 BR SCT015 OVC040 07/06 Q1022 NOSIG
ZHHH,2021-01-27 06:00,ZHHH 270600Z VRB01MPS 1500 BR SCT015 OVC040 07/06 Q1022 NOSIG
ZHHH,2021-01-27 07:00,ZHHH 270700Z VRB01MPS 1200 R04L/1200V1300D R04R/1500N -RA BR SCT007 OVC030 06/06 Q1022 NOSIG
ZHHH,2021-01-27 08:00,ZHHH 270800Z 36002MPS 310V040 1000 R04L/0900V1100U R04R/1200V1300D -RA BR SCT006 OVC030 06/06 Q1022 NOSIG
ZHHH,2021-01-27 09:00,ZHHH 270900Z 34002MPS 290V040 1000 R04L/1200U R04R/1200V1400N -RA BR SCT006 OVC030 06/06 Q1022 NOSIG
ZHHH,2021-01-27 10:00,ZHHH 271000Z 00000MPS 1200 R04L/1800U R04R/1700U -RA BR SCT004 OVC046 06/06 Q1022 BECMG TL1100 1600
ZHHH,2021-01-27 11:00,ZHHH 271100Z 27001MPS 1600 BR FEW004 06/06 Q1023 NOSIG
ZHHH,2021-01-27 12:00,ZHHH 271200Z 27001MPS 1500 R04L/1400D R04R/1900D BR NSC 06/06 Q1024 BECMG TL1250 1200
ZHHH,2021-01-27 13:00,ZHHH 271300Z VRB01MPS 1800 BR FEW005 06/06 Q1025 NOSIG
ZHHH,2021-01-27 14:00,ZHHH 271400Z VRB01MPS 1400 R04L/0325V1400N R04R/1800D BR FEW005 05/05 Q1026 BECMG TL1520 0700 FG
ZHHH,2021-01-27 15:00,ZHHH 271500Z VRB01MPS 0800 R04L/0175N R04R/1800U FG NSC 03/03 Q1027 BECMG TL1600 0600
ZHHH,2021-01-27 16:00,ZHHH 271600Z 27002MPS 0150 R04L/0175V0275N R04R/0550V1300D FG VV001 05/05 Q1027 NOSIG
ZHHH,2021-01-27 17:00,ZHHH 271700Z 23002MPS 0150 R04L/0175N R04R/0150N FG VV001 04/04 Q1028 NOSIG
ZHHH,2021-01-27 18:00,ZHHH 271800Z 24002MPS 0200 R04L/0275N R04R/0250D FG VV001 04/04 Q1028 NOSIG
ZHHH,2021-01-27 19:00,ZHHH 271900Z 22002MPS 0200 R04L/0250N R04R/0200N FG VV001 04/04 Q1027 NOSIG
ZHHH,2021-01-27 20:00,ZHHH 272000Z 22002MPS 0200 R04L/0225N R04R/0200N FG VV001 03/03 Q1027 NOSIG
ZHHH,2021-01-27 21:00,ZHHH 272100Z 24002MPS 0200 R04L/0250N R04R/0225V0275N FG VV001 03/03 Q1027 NOSIG
ZHHH,2021-01-27 22:00,ZHHH 272200Z VRB01MPS 0300 R04L/0300N R04R/0300V0400N FG VV001 03/03 Q1028 NOSIG
ZHHH,2021-01-27 23:00,ZHHH 272300Z VRB01MPS 0300 R04L/0300N R04R/0375N FG VV001 03/03 Q1029 NOSIG
ZHHH,2021-01-28 00:00,ZHHH 280000Z 25001MPS 0200 R04L/0200V0275N R04R/0250D FG VV001 02/02 Q1030 BECMG TL0120 0600
ZHHH,2021-01-28 01:00,ZHHH 280100Z VRB01MPS 0150 R04L/0075V0200N R04R/0150N FG VV001 03/03 Q1031 NOSIG
ZHHH,2021-01-28 02:00,ZHHH 280200Z 22001MPS 0150 R04L/0200V0350N R04R/0150V0225N FG VV001 04/04 Q1032 NOSIG
ZHHH,2021-01-28 03:00,ZHHH 280300Z VRB01MPS 0200 R04L/0225V0400N R04R/0200V0275N FG VV001 04/04 Q1032 NOSIG
ZHHH,2021-01-28 04:00,ZHHH 280400Z 28002MPS 210V330 1700 R04L/1200U R04R/1400U BR NSC 06/06 Q1032 NOSIG
ZHHH,2021-01-28 05:00,ZHHH 280500Z 28002MPS 250V330 2800 BR FEW004 06/06 Q1031 BECMG TL0540 3000
ZHHH,2021-01-28 06:00,ZHHH 280600Z 26003MPS 230V300 6000 NSC 09/06 Q1030 NOSIG
ZHHH,2021-01-28 07:00,ZHHH 280700Z 28003MPS 240V330 7000 NSC 10/04 Q1030 NOSIG
ZHHH,2021-01-28 08:00,ZHHH 280800Z 27002MPS 230V330 7000 NSC 11/01 Q1029 NOSIG
ZHHH,2021-01-28 09:00,ZHHH 280900Z VRB01MPS 8000 NSC 11/M01 Q1029 NOSIG
ZHHH,2021-01-28 10:00,ZHHH 281000Z 00000MPS 8000 NSC 08/00 Q1029 NOSIG
ZHHH,2021-01-28 11:00,ZHHH 281100Z 06001MPS CAVOK 07/M02 Q1029 NOSIG
ZHHH,2021-01-28 12:00,ZHHH 281200Z 11002MPS CAVOK 08/M04 Q1030 NOSIG
ZHHH,2021-01-28 13:00,ZHHH 281300Z 09004MPS CAVOK 08/M05 Q1029 NOSIG
ZHHH,2021-01-28 14:00,ZHHH 281400Z 08003MPS CAVOK 06/M04 Q1030 NOSIG
ZHHH,2021-01-28 15:00,ZHHH 281500Z 08003MPS CAVOK 04/M05 Q1030 NOSIG
ZHHH,2021-01-28 16:00,ZHHH 281600Z 05002MPS CAVOK 03/M04 Q1030 NOSIG
ZHHH,2021-01-28 17:00,ZHHH 281700Z 16002MPS 120V200 CAVOK 03/M04 Q1030 NOSIG
ZHHH,2021-01-28 18:00,ZHHH 281800Z 13002MPS 110V180 CAVOK 03/M04 Q1029 NOSIG
ZHHH,2021-01-28 19:00,ZHHH 281900Z VRB01MPS CAVOK 02/M04 Q1029 NOSIG
ZHHH,2021-01-28 20:00,ZHHH 282000Z 03002MPS CAVOK M00/M02 Q1028 NOSIG
ZHHH,2021-01-28 21:00,ZHHH 282100Z 05002MPS CAVOK 01/M03 Q1028 NOSIG
ZHHH,2021-01-28 22:00,ZHHH 282200Z 08003MPS CAVOK 00/M03 Q1028 NOSIG
ZHHH,2021-01-28 23:00,ZHHH 282300Z 09005MPS CAVOK 02/M03 Q1028 NOSIG
ZHHH,2021-01-29 00:00,ZHHH 290000Z 10003MPS CAVOK 03/M01 Q1028 NOSIG
ZHHH,2021-01-29 01:00,ZHHH 290100Z 10003MPS 8000 NSC 05/00 Q1028 NOSIG
ZHHH,2021-01-29 02:00,ZHHH 290200Z 11005MPS 7000 NSC 08/M01 Q1028 NOSIG
ZHHH,2021-01-29 03:00,ZHHH 290300Z 12004MPS 7000 NSC 09/M03 Q1028 NOSIG
ZHHH,2021-01-29 04:00,ZHHH 290400Z 11004MPS 7000 NSC 11/M02 Q1027 NOSIG
ZHHH,2021-01-29 05:00,ZHHH 290500Z 11004MPS 070V150 7000 NSC 12/M00 Q1025 NOSIG
ZHHH,2021-01-29 06:00,ZHHH 290600Z 11003MPS 080V140 8000 NSC 13/M02 Q1024 NOSIG
ZHHH,2021-01-29 07:00,ZHHH 290700Z 12004MPS 090V150 6000 NSC 14/M03 Q1023 NOSIG
ZHHH,2021-01-29 08:00,ZHHH 290800Z 15002MPS 060V180 8000 NSC 13/M05 Q1023 NOSIG
ZHHH,2021-01-29 09:00,ZHHH 290900Z 12003MPS 090V150 CAVOK 13/M03 Q1023 NOSIG
ZHHH,2021-01-29 10:00,ZHHH 291000Z 09003MPS CAVOK 12/M01 Q1023 NOSIG
ZHHH,2021-01-29 11:00,ZHHH 291100Z 09004MPS CAVOK 11/M03 Q1023 NOSIG
ZHHH,2021-01-29 12:00,ZHHH 291200Z 10003MPS CAVOK 11/M03 Q1023 NOSIG
ZHHH,2021-01-29 13:00,ZHHH 291300Z 09004MPS CAVOK 11/M03 Q1023 NOSIG
ZHHH,2021-01-29 14:00,ZHHH 291400Z 09002MPS CAVOK 10/M03 Q1024 NOSIG
ZHHH,2021-01-29 15:00,ZHHH 291500Z 10003MPS CAVOK 10/M04 Q1024 NOSIG
ZHHH,2021-01-29 16:00,ZHHH 291600Z 08003MPS CAVOK 09/M03 Q1024 NOSIG
ZHHH,2021-01-29 17:00,ZHHH 291700Z 08003MPS CAVOK 09/M03 Q1024 NOSIG
ZHHH,2021-01-29 18:00,ZHHH 291800Z 11004MPS CAVOK 09/M03 Q1024 NOSIG
ZHHH,2021-01-29 19:00,ZHHH 291900Z 06002MPS CAVOK 08/M01 Q1023 NOSIG
ZHHH,2021-01-29 20:00,ZHHH 292000Z 08003MPS CAVOK 09/M02 Q1023 NOSIG
ZHHH,2021-01-29 21:00,ZHHH 292100Z 09003MPS CAVOK 08/M02 Q1023 NOSIG
ZHHH,2021-01-29 22:00,ZHHH 292200Z 08003MPS CAVOK 08/M01 Q1023 NOSIG
ZHHH,2021-01-29 23:00,ZHHH 292300Z 12002MPS CAVOK 08/M02 Q1024 NOSIG
ZHHH,2021-01-30 00:00,ZHHH 300000Z 08003MPS CAVOK 08/M01 Q1024 NOSIG
ZHHH,2021-01-30 01:00,ZHHH 300100Z 09002MPS 060V120 CAVOK 09/M01 Q1025 NOSIG
ZHHH,2021-01-30 02:00,ZHHH 300200Z 08002MPS 040V100 CAVOK 09/M01 Q1025 NOSIG
ZHHH,2021-01-30 03:00,ZHHH 300300Z VRB01MPS CAVOK 10/M01 Q1025 NOSIG
ZHHH,2021-01-30 04:00,ZHHH 300400Z VRB01MPS CAVOK 10/M01 Q1025 NOSIG
ZHHH,2021-01-30 05:00,ZHHH 300500Z 12002MPS 080V150 CAVOK 10/M01 Q1024 NOSIG
ZHHH,2021-01-30 06:00,ZHHH 300600Z VRB01MPS CAVOK 11/01 Q1023 NOSIG
ZHHH,2021-01-30 07:00,ZHHH 300700Z 08002MPS 040V120 CAVOK 11/M02 Q1023 NOSIG
ZHHH,2021-01-30 08:00,ZHHH 300800Z 10003MPS CAVOK 11/M02 Q1023 NOSIG
ZHHH,2021-01-30 09:00,ZHHH 300900Z 10002MPS CAVOK 11/M01 Q1022 NOSIG
ZHHH,2021-01-30 10:00,ZHHH 301000Z 10002MPS CAVOK 10/M01 Q1023 NOSIG
ZHHH,2021-01-30 11:00,ZHHH 301100Z 11003MPS CAVOK 10/M00 Q1023 NOSIG
ZHHH,2021-01-30 12:00,ZHHH 301200Z 06002MPS CAVOK 09/02 Q1023 NOSIG
ZHHH,2021-01-30 13:00,ZHHH 301300Z 07002MPS CAVOK 09/02 Q1023 NOSIG
ZHHH,2021-01-30 14:00,ZHHH 301400Z 07002MPS CAVOK 09/03 Q1024 NOSIG
ZHHH,2021-01-30 15:00,ZHHH 301500Z 00000MPS CAVOK 09/02 Q1024 NOSIG
ZHHH,2021-01-30 16:00,ZHHH 301600Z 17002MPS CAVOK 09/03 Q1024 NOSIG
ZHHH,2021-01-30 17:00,ZHHH 301700Z VRB01MPS 8000 NSC 08/03 Q1024 NOSIG
ZHHH,2021-01-30 18:00,ZHHH 301800Z 00000MPS 8000 NSC 07/04 Q1023 NOSIG
ZHHH,2021-01-30 19:00,ZHHH 301900Z 00000MPS 7000 NSC 05/03 Q1023 NOSIG
ZHHH,2021-01-30 20:00,ZHHH 302000Z VRB01MPS 7000 NSC 06/03 Q1023 NOSIG
ZHHH,2021-01-30 21:00,ZHHH 302100Z 05002MPS 6000 NSC 05/04 Q1023 NOSIG
ZHHH,2021-01-30 22:00,ZHHH 302200Z VRB01MPS 6000 NSC 06/04 Q1022 NOSIG
ZHHH,2021-01-30 23:00,ZHHH 302300Z 27001MPS 6000 NSC 05/04 Q1024 NOSIG
ZHHH,2021-01-31 00:00,ZHHH 310000Z 00000MPS 5000 BR NSC 06/05 Q1024 NOSIG
ZHHH,2021-01-31 01:00,ZHHH 310100Z 06001MPS 5000 BR NSC 07/05 Q1024 NOSIG
ZHHH,2021-01-31 02:00,ZHHH 310200Z 14002MPS 110V170 4500 -RA BR NSC 08/06 Q1024 BECMG TL0350 2800
ZHHH,2021-01-31 03:00,ZHHH 310300Z 20002MPS 140V250 4500 -RA BR NSC 08/06 Q1025 NOSIG
ZHHH,2021-01-31 04:00,ZHHH 310400Z VRB01MPS 4000 -RA BR NSC 08/07 Q1024 NOSIG
ZHHH,2021-01-31 05:00,ZHHH 310500Z 19003MPS 4000 -RA BR NSC 08/07 Q1023 NOSIG
ZHHH,2021-01-31 06:00,ZHHH 310600Z 25002MPS 4000 -RA BR NSC 08/07 Q1022 NOSIG
ZHHH,2021-01-31 07:00,ZHHH 310700Z VRB01MPS 3500 -RA BR NSC 08/07 Q1021 NOSIG
ZHHH,2021-01-31 08:00,ZHHH 310800Z VRB01MPS 3000 -RA BR NSC 08/07 Q1021 NOSIG
ZHHH,2021-01-31 09:00,ZHHH 310900Z VRB01MPS 3000 -RA BR OVC040 07/07 Q1022 NOSIG
ZHHH,2021-01-31 10:00,ZHHH 311000Z 13002MPS 070V160 3400 BR NSC 07/06 Q1022 NOSIG
ZHHH,2021-01-31 11:00,ZHHH 311100Z VRB01MPS 4500 -RA BR OVC040 07/07 Q1022 NOSIG
ZHHH,2021-01-31 12:00,ZHHH 311200Z VRB01MPS 5000 BR OVC040 07/07 Q1022 NOSIG
ZHHH,2021-01-31 13:00,ZHHH 311300Z 36002MPS 320V030 3400 -RA BR FEW009 OVC040 07/07 Q1022 NOSIG
ZHHH,2021-01-31 14:00,ZHHH 311400Z 00000MPS 3400 -RA BR FEW009 SCT014 07/07 Q1023 BECMG TL1510 2800
ZHHH,2021-01-31 15:00,ZHHH 311500Z 05001MPS 2500 -RA BR FEW007 07/07 Q1022 NOSIG
ZHHH,2021-01-31 16:00,ZHHH 311600Z 17002MPS 2100 -RA BR SCT005 OVC026 07/07 Q1022 NOSIG
ZHHH,2021-01-31 17:00,ZHHH 311700Z VRB01MPS 2000 -RA BR SCT004 SCT007 OVC020 07/07 Q1022 NOSIG
ZHHH,2021-01-31 18:00,ZHHH 311800Z VRB01MPS 2500 BR FEW003 SCT005 OVC016 07/07 Q1022 NOSIG
ZHHH,2021-01-31 19:00,ZHHH 311900Z 03001MPS 2500 BR FEW003 SCT005 OVC020 07/07 Q1022 NOSIG
ZHHH,2021-01-31 20:00,ZHHH 312000Z VRB01MPS 2800 BR SCT004 SCT005 OVC020 07/07 Q1021 NOSIG
ZHHH,2021-01-31 21:00,ZHHH 312100Z 00000MPS 3000 BR SCT004 SCT005 OVC020 07/07 Q1021 BECMG TL2210 2500
ZHHH,2021-01-31 22:00,ZHHH 312200Z 00000MPS 2800 BR FEW004 SCT006 OVC020 06/06 Q1021 NOSIG
ZHHH,2021-01-31 23:00,ZHHH 312300Z 19002MPS 160V220 2500 BR FEW004 SCT006 OVC026 07/07 Q1022 NOSIG
ZHHH,2021-02-01 00:00,ZHHH 010000Z 22002MPS 180V240 1200 R04L/P2000 R04R/1700D BR SCT005 OVC026 07/07 Q1021 BECMG TL0150 1600
ZHHH,2021-02-01 01:00,ZHHH 010100Z VRB01MPS 1600 BR SCT005 OVC033 07/07 Q1022 NOSIG
ZHHH,2021-02-01 02:00,ZHHH 010200Z 25002MPS 2500 BR SCT006 OVC033 07/07 Q1023 BECMG TL0340 3000
ZHHH,2021-02-01 03:00,ZHHH 010300Z 29002MPS 240V340 1700 BR SCT005 OVC033 07/07 Q1023 BECMG TL0440 3000
ZHHH,2021-02-01 04:00,ZHHH 010400Z 28003MPS 240V310 2500 BR SCT010 08/08 Q1023 BECMG TL0440 3200
ZHHH,2021-02-01 05:00,ZHHH 010500Z 27002MPS 240V310 3500 BR SCT010 09/08 Q1022 NOSIG
ZHHH,2021-02-01 06:00,ZHHH 010600Z 28002MPS 230V340 4500 BR SCT013 10/08 Q1021 NOSIG
ZHHH,2021-02-01 07:00,ZHHH 010700Z VRB01MPS 5000 BR NSC 11/08 Q1021 NOSIG
ZHHH,2021-02-01 08:00,ZHHH 010800Z VRB01MPS 5000 BR FEW020 12/08 Q1021 NOSIG
ZHHH,2021-02-01 09:00,ZHHH 010900Z 18002MPS 130V220 5000 BR NSC 11/08 Q1021 NOSIG
ZHHH,2021-02-01 10:00,ZHHH 011000Z 14002MPS 4500 BR NSC 10/08 Q1022 NOSIG
ZHHH,2021-02-01 11:00,ZHHH 011100Z 11002MPS 060V130 5000 BR NSC 09/07 Q1022 NOSIG
ZHHH,2021-02-01 12:00,ZHHH 011200Z 12003MPS 4500 BR NSC 09/08 Q1023 NOSIG
ZHHH,2021-02-01 13:00,ZHHH 011300Z 11002MPS 060V140 3500 BR NSC 08/07 Q1024 NOSIG
ZHHH,2021-02-01 14:00,ZHHH 011400Z 04002MPS 350V080 2000 BR NSC 06/06 Q1024 BECMG TL1550 1200
ZHHH,2021-02-01 15:00,ZHHH 011500Z 07003MPS 0250 R04L/1600U R04R/0300V0500D FG VV002 05/05 Q1025 NOSIG
ZHHH,2021-02-01 16:00,ZHHH 011600Z VRB01MPS 0150 R04L/0200N R04R/0175N FG VV001 05/05 Q1026 NOSIG
ZHHH,2021-02-01 17:00,ZHHH 011700Z 06003MPS 0200 R04L/0150N R04R/0250N FG VV001 05/05 Q1026 NOSIG
ZHHH,2021-02-01 18:00,ZHHH 011800Z 05003MPS 0200 R04L/0175N R04R/0275N FG VV001 04/04 Q1026 NOSIG
ZHHH,2021-02-01 19:00,ZHHH 011900Z 07003MPS 0200 R04L/0175N R04R/0275N FG VV001 04/04 Q1026 NOSIG
ZHHH,2021-02-01 20:00,ZHHH 012000Z 12002MPS 090V170 0200 R04L/0200N R04R/0300N FG VV001 04/04 Q1025 NOSIG
ZHHH,2021-02-01 21:00,ZHHH 012100Z VRB01MPS 0800 R04L/1100U R04R/0550V0800U FG SCT003 04/04 Q1026 NOSIG
ZHHH,2021-02-01 22:00,ZHHH 012200Z 04002MPS 2000 BR SCT010 05/05 Q1026 NOSIG
ZHHH,2021-02-01 23:00,ZHHH 012300Z VRB01MPS 3000 BR BKN030 05/05 Q1027 BECMG TL2350 2000
ZHHH,2021-02-02 00:00,ZHHH 020000Z 06002MPS 1800 BR NSC 06/06 Q1027 BECMG TL0150 3000
ZHHH,2021-02-02 01:00,ZHHH 020100Z 05003MPS 010V070 1500 BR SCT004 06/06 Q1028 BECMG TL0250 3200
ZHHH,2021-02-02 02:00,ZHHH 020200Z 06003MPS 0700 R04L/1600N R04R/1600D FG VV003 07/07 Q1028 NOSIG
ZHHH,2021-02-02 03:00,ZHHH 020300Z 04003MPS 360V080 1300 R04L/P2000 R04R/1800D BR FEW004 SCT005 07/07 Q1028 BECMG TL0350 1600
ZHHH,2021-02-02 04:00,ZHHH 020400Z 36003MPS 310V060 3200 BR SCT008 07/07 Q1028 NOSIG
ZHHH,2021-02-02 05:00,ZHHH 020500Z 04002MPS 350V130 4000 BR SCT013 09/07 Q1027 NOSIG
ZHHH,2021-02-02 06:00,ZHHH 020600Z VRB02MPS 5000 BR NSC 11/06 Q1026 NOSIG
ZHHH,2021-02-02 07:00,ZHHH 020700Z 07002MPS 010V120 5000 HZ NSC 12/06 Q1025 NOSIG
ZHHH,2021-02-02 08:00,ZHHH 020800Z 11003MPS 050V130 7000 NSC 13/05 Q1024 NOSIG
ZHHH,2021-02-02 09:00,ZHHH 020900Z 10002MPS 070V140 6000 NSC 12/06 Q1024 NOSIG
ZHHH,2021-02-02 10:00,ZHHH 021000Z 08002MPS 5000 HZ NSC 11/06 Q1024 NOSIG
ZHHH,2021-02-02 11:00,ZHHH 021100Z 12002MPS 070V140 6000 NSC 11/06 Q1025 NOSIG
ZHHH,2021-02-02 12:00,ZHHH 021200Z 11002MPS 6000 NSC 10/07 Q1025 NOSIG
ZHHH,2021-02-02 13:00,ZHHH 021300Z 13002MPS 080V150 5000 BR NSC 09/07 Q1025 NOSIG
ZHHH,2021-02-02 14:00,ZHHH 021400Z 06003MPS 5000 BR NSC 08/07 Q1025 NOSIG
ZHHH,2021-02-02 15:00,ZHHH 021500Z 10004MPS 5000 BR NSC 09/07 Q1024 NOSIG
ZHHH,2021-02-02 16:00,ZHHH 021600Z 12002MPS 060V140 5000 BR NSC 08/07 Q1024 NOSIG
ZHHH,2021-02-02 17:00,ZHHH 021700Z 36001MPS 4500 BR NSC 06/06 Q1024 NOSIG
ZHHH,2021-02-02 18:00,ZHHH 021800Z 06002MPS 020V090 4500 BR NSC 07/07 Q1024 NOSIG
ZHHH,2021-02-02 19:00,ZHHH 021900Z VRB01MPS 4500 BR NSC 07/07 Q1024 NOSIG
ZHHH,2021-02-02 20:00,ZHHH 022000Z 06002MPS 3500 BR NSC 06/06 Q1023 NOSIG
ZHHH,2021-02-02 21:00,ZHHH 022100Z VRB01MPS 3500 BR NSC 06/06 Q1023 BECMG TL2140 2500
ZHHH,2021-02-02 22:00,ZHHH 022200Z VRB01MPS 2500 BR NSC 06/06 Q1023 NOSIG
ZHHH,2021-02-02 23:00,ZHHH 022300Z 09002MPS 2500 BR NSC 05/05 Q1023 BECMG TL2350 1400
ZHHH,2021-02-03 00:00,ZHHH 030000Z 06001MPS 2000 BR NSC 06/06 Q1024 NOSIG
ZHHH,2021-02-03 01:00,ZHHH 030100Z VRB02MPS 1500 BR NSC 08/08 Q1024 NOSIG
ZHHH,2021-02-03 02:00,ZHHH 030200Z 24002MPS 170V310 0300 R04L/0325V0550N R04R/0275V0450N FG VV001 07/07 Q1025 NOSIG
ZHHH,2021-02-03 03:00,ZHHH 030300Z 23002MPS 200V260 0300 R04L/0325V0700U R04R/0550N FG VV001 08/08 Q1025 NOSIG
ZHHH,2021-02-03 04:00,ZHHH 030400Z 23003MPS 200V260 0900 R04L/0900V1300U R04R/1300D FG VV003 08/08 Q1024 BECMG TL0440 2000 BR
ZHHH,2021-02-03 05:00,ZHHH 030500Z 23003MPS 200V270 2000 BR SCT007 10/09 Q1024 BECMG TL0650 3000
ZHHH,2021-02-03 06:00,ZHHH 030600Z 27002MPS 220V320 2400 BR SCT040 11/09 Q1023 BECMG TL0650 3000
ZHHH,2021-02-03 07:00,ZHHH 030700Z 28002MPS 230V360 3200 BR NSC 13/08 Q1022 NOSIG
ZHHH,2021-02-03 08:00,ZHHH 030800Z 26002MPS 170V320 4000 HZ NSC 14/08 Q1021 NOSIG
ZHHH,2021-02-03 09:00,ZHHH 030900Z VRB01MPS 5000 HZ NSC 14/08 Q1022 NOSIG
ZHHH,2021-02-03 10:00,ZHHH 031000Z 24001MPS 4000 BR NSC 11/08 Q1023 NOSIG
ZHHH,2021-02-03 11:00,ZHHH 031100Z 24002MPS 5000 BR NSC 10/08 Q1024 NOSIG
ZHHH,2021-02-03 12:00,ZHHH 031200Z VRB01MPS 5000 BR NSC 10/08 Q1024 NOSIG
ZHHH,2021-02-03 13:00,ZHHH 031300Z VRB01MPS 4500 BR NSC 10/08 Q1025 NOSIG
ZHHH,2021-02-03 14:00,ZHHH 031400Z 35002MPS 330V030 4000 BR NSC 09/08 Q1025 NOSIG
ZHHH,2021-02-03 15:00,ZHHH 031500Z 01002MPS 3500 BR NSC 09/08 Q1025 NOSIG
ZHHH,2021-02-03 16:00,ZHHH 031600Z 34002MPS 3200 BR NSC 08/08 Q1026 NOSIG
ZHHH,2021-02-03 17:00,ZHHH 031700Z 05001MPS 4000 BR NSC 08/07 Q1025 NOSIG
ZHHH,2021-02-03 18:00,ZHHH 031800Z 02002MPS 340V050 4500 BR NSC 08/07 Q1025 NOSIG
ZHHH,2021-02-03 19:00,ZHHH 031900Z 03003MPS 6000 NSC 09/05 Q1025 NOSIG
ZHHH,2021-02-03 20:00,ZHHH 032000Z 02002MPS 6000 NSC 09/05 Q1025 NOSIG
ZHHH,2021-02-03 21:00,ZHHH 032100Z 03002MPS 6000 NSC 08/04 Q1025 NOSIG
ZHHH,2021-02-03 22:00,ZHHH 032200Z 05002MPS 6000 NSC 08/04 Q1026 NOSIG
ZHHH,2021-02-03 23:00,ZHHH 032300Z 04002MPS 6000 NSC 08/05 Q1026 NOSIG
ZHHH,2021-02-04 00:00,ZHHH 040000Z 06002MPS 4000 HZ NSC 09/04 Q1027 NOSIG
ZHHH,2021-02-04 01:00,ZHHH 040100Z 08004MPS 5000 HZ NSC 10/04 Q1027 NOSIG
ZHHH,2021-02-04 02:00,ZHHH 040200Z 08004MPS 6000 NSC 12/02 Q1027 NOSIG
ZHHH,2021-02-04 03:00,ZHHH 040300Z 10004MPS 070V130 7000 NSC 12/03 Q1026 NOSIG
ZHHH,2021-02-04 04:00,ZHHH 040400Z 09003MPS 060V160 5000 HZ NSC 13/04 Q1026 NOSIG
ZHHH,2021-02-04 05:00,ZHHH 040500Z 08002MPS 050V120 4500 HZ NSC 13/05 Q1025 NOSIG
ZHHH,2021-02-04 06:00,ZHHH 040600Z 07003MPS 4500 -RA HZ NSC 13/05 Q1023 NOSIG
ZHHH,2021-02-04 07:00,ZHHH 040700Z 06004MPS 4500 -RA HZ NSC 13/06 Q1022 NOSIG
ZHHH,2021-02-04 08:00,ZHHH 040800Z 08002MPS 5000 -RA HZ NSC 13/05 Q1022 NOSIG
ZHHH,2021-02-04 09:00,ZHHH 040900Z 34001MPS 4000 -RA BR NSC 11/09 Q1022 NOSIG
ZHHH,2021-02-04 10:00,ZHHH 041000Z 35002MPS 5000 -RA BR NSC 10/10 Q1022 NOSIG
ZHHH,2021-02-04 11:00,ZHHH 041100Z 36001MPS 5000 -RA BR NSC 10/10 Q1023 NOSIG
ZHHH,2021-02-04 12:00,ZHHH 041200Z 36002MPS 310V050 5000 -RA BR NSC 08/08 Q1023 NOSIG
ZHHH,2021-02-04 13:00,ZHHH 041300Z 35002MPS 300V020 4500 -RA BR SCT033 08/08 Q1024 NOSIG
ZHHH,2021-02-04 14:00,ZHHH 041400Z 01002MPS 330V040 3500 -RA BR SCT033 08/08 Q1024 NOSIG
ZHHH,2021-02-04 15:00,ZHHH 041500Z VRB01MPS 3500 -RA BR SCT033 08/08 Q1024 NOSIG
ZHHH,2021-02-04 16:00,ZHHH 041600Z VRB01MPS 3500 -RA BR SCT030 08/08 Q1024 NOSIG
ZHHH,2021-02-04 17:00,ZHHH 041700Z VRB01MPS 4000 BR SCT030 08/08 Q1024 NOSIG
ZHHH,2021-02-04 18:00,ZHHH 041800Z VRB01MPS 2800 BR OVC033 08/08 Q1023 NOSIG
ZHHH,2021-02-04 19:00,ZHHH 041900Z 34002MPS 310V030 2300 -RA BR OVC033 08/08 Q1022 NOSIG
ZHHH,2021-02-04 20:00,ZHHH 042000Z 36002MPS 330V030 2200 BR OVC033 08/08 Q1022 NOSIG
ZHHH,2021-02-04 21:00,ZHHH 042100Z 36002MPS 2500 BR FEW023 OVC033 08/08 Q1021 NOSIG
ZHHH,2021-02-04 22:00,ZHHH 042200Z VRB01MPS 2200 BR OVC033 08/08 Q1021 NOSIG
ZHHH,2021-02-04 23:00,ZHHH 042300Z 30002MPS 250V350 2000 -RA BR FEW005 08/08 Q1022 NOSIG
ZHHH,2021-02-05 00:00,ZHHH 050000Z 31002MPS 240V350 1200 R04L/1900U R04R/P2000 -RA BR FEW005 OVC040 08/08 Q1023 BECMG TL0150 2000
ZHHH,2021-02-05 01:00,ZHHH 050100Z 31002MPS 260V360 2000 -RA BR FEW008 07/07 Q1023 BECMG TL0250 3000
ZHHH,2021-02-05 02:00,ZHHH 050200Z 30003MPS 250V330 2600 -RA BR SCT014 07/07 Q1024 BECMG TL0310 3000
ZHHH,2021-02-05 03:00,ZHHH 050300Z 31003MPS 260V360 4000 -RA BR SCT014 08/07 Q1024 NOSIG
ZHHH,2021-02-05 04:00,ZHHH 050400Z 29002MPS 230V320 6000 SCT015 08/06 Q1023 NOSIG
ZHHH,2021-02-05 05:00,ZHHH 050500Z 27002MPS 5000 BR SCT015 09/07 Q1022 NOSIG
ZHHH,2021-02-05 06:00,ZHHH 050600Z 24002MPS 5000 BR NSC 09/07 Q1021 NOSIG
ZHHH,2021-02-05 07:00,ZHHH 050700Z 22002MPS 190V250 5000 BR NSC 10/08 Q1021 NOSIG
ZHHH,2021-02-05 08:00,ZHHH 050800Z 20004MPS 6000 NSC 11/08 Q1020 NOSIG
ZHHH,2021-02-05 09:00,ZHHH 050900Z 22004MPS 7000 NSC 11/07 Q1020 NOSIG
ZHHH,2021-02-05 10:00,ZHHH 051000Z 22003MPS 6000 NSC 09/08 Q1020 NOSIG
ZHHH,2021-02-05 11:00,ZHHH 051100Z 21003MPS 7000 NSC 08/07 Q1020 NOSIG
ZHHH,2021-02-05 12:00,ZHHH 051200Z 21003MPS 6000 NSC 08/07 Q1021 NOSIG
ZHHH,2021-02-05 13:00,ZHHH 051300Z 20003MPS 5000 BR NSC 07/07 Q1021 NOSIG
ZHHH,2021-02-05 14:00,ZHHH 051400Z 22002MPS 5000 BR NSC 07/07 Q1022 NOSIG
ZHHH,2021-02-05 15:00,ZHHH 051500Z 20002MPS 4800 BR NSC 06/06 Q1022 NOSIG
ZHHH,2021-02-05 16:00,ZHHH 051600Z 21002MPS 160V240 3500 BR SCT010 06/06 Q1022 BECMG TL1710 1500
ZHHH,2021-02-05 17:00,ZHHH 051700Z 23002MPS 5000 BR SCT007 07/07 Q1022 BECMG TL1810 1500
ZHHH,2021-02-05 18:00,ZHHH 051800Z 18002MPS 4000 BR NSC 06/06 Q1022 BECMG TL1910 1500
ZHHH,2021-02-05 19:00,ZHHH 051900Z 19002MPS 4000 BR BKN006 06/06 Q1021 BECMG TL2010 1500
ZHHH,2021-02-05 20:00,ZHHH 052000Z 21002MPS 4000 BR OVC006 07/07 Q1021 NOSIG
ZHHH,2021-02-05 21:00,ZHHH 052100Z 23002MPS 180V280 4000 BR OVC005 07/07 Q1021 NOSIG
ZHHH,2021-02-05 22:00,ZHHH 052200Z 17003MPS 140V220 3500 BR OVC005 07/07 Q1021 BECMG TL2340 0600 FG VV002
ZHHH,2021-02-05 23:00,ZHHH 052300Z 16002MPS 130V190 4000 BR OVC007 07/07 Q1021 NOSIG
ZHHH,2021-02-06 00:00,ZHHH 060000Z 13002MPS 100V170 2500 BR OVC009 07/07 Q1022 BECMG TL0140 3000
ZHHH,2021-02-06 01:00,ZHHH 060100Z 12002MPS 090V150 2500 BR OVC009 07/07 Q1022 NOSIG
ZHHH,2021-02-06 02:00,ZHHH 060200Z VRB01MPS 3000 BR OVC010 08/07 Q1022 NOSIG
ZHHH,2021-02-06 03:00,ZHHH 060300Z VRB02MPS 3500 BR OVC010 08/07 Q1022 NOSIG
ZHHH,2021-02-06 04:00,ZHHH 060400Z VRB01MPS 4500 BR BKN013 OVC016 09/07 Q1021 NOSIG
ZHHH,2021-02-06 05:00,ZHHH 060500Z 26002MPS 200V350 4800 BR SCT014 BKN020 10/07 Q1021 NOSIG
ZHHH,2021-02-06 06:00,ZHHH 060600Z 24003MPS 220V290 5000 BR SCT014 10/07 Q1019 NOSIG
ZHHH,2021-02-06 07:00,ZHHH 060700Z 24002MPS 180V270 7000 BKN015 10/08 Q1019 NOSIG
ZHHH,2021-02-06 08:00,ZHHH 060800Z VRB02MPS 7000 NSC 11/08 Q1018 NOSIG
ZHHH,2021-02-06 09:00,ZHHH 060900Z 31002MPS 270V350 6000 NSC 10/08 Q1018 NOSIG
ZHHH,2021-02-06 10:00,ZHHH 061000Z 33001MPS 6000 NSC 10/08 Q1018 NOSIG
ZHHH,2021-02-06 11:00,ZHHH 061100Z 34001MPS 6000 NSC 09/08 Q1018 NOSIG
ZHHH,2021-02-06 12:00,ZHHH 061200Z 35001MPS 6000 NSC 09/08 Q1019 NOSIG
ZHHH,2021-02-06 13:00,ZHHH 061300Z 36002MPS 340V040 5000 -RA BR NSC 09/09 Q1019 NOSIG
ZHHH,2021-02-06 14:00,ZHHH 061400Z 01002MPS 340V050 5000 BR NSC 09/09 Q1019 NOSIG
ZHHH,2021-02-06 15:00,ZHHH 061500Z VRB01MPS 5000 BR NSC 08/08 Q1020 NOSIG
ZHHH,2021-02-06 16:00,ZHHH 061600Z 00000MPS 4000 BR NSC 08/08 Q1019 NOSIG
ZHHH,2021-02-06 17:00,ZHHH 061700Z VRB01MPS 4000 BR NSC 08/08 Q1020 NOSIG
ZHHH,2021-02-06 18:00,ZHHH 061800Z 06001MPS 4000 BR NSC 08/08 Q1019 NOSIG
ZHHH,2021-02-06 19:00,ZHHH 061900Z 00000MPS 4200 BR NSC 08/08 Q1019 NOSIG
ZHHH,2021-02-06 20:00,ZHHH 062000Z 34001MPS 4000 BR NSC 08/08 Q1019 NOSIG
ZHHH,2021-02-06 21:00,ZHHH 062100Z 04001MPS 4000 BR NSC 08/08 Q1019 NOSIG
ZHHH,2021-02-06 22:00,ZHHH 062200Z 07003MPS 4000 BR NSC 09/09 Q1018 BECMG TL2340 1600
ZHHH,2021-02-06 23:00,ZHHH 062300Z VRB01MPS 3200 BR NSC 09/09 Q1019 BECMG TL2340 2000
ZHHH,2021-02-07 00:00,ZHHH 070000Z 04001MPS 3500 BR NSC 09/09 Q1020 NOSIG
ZHHH,2021-02-07 01:00,ZHHH 070100Z 05003MPS 3000 BR NSC 10/09 Q1020 NOSIG
ZHHH,2021-02-07 02:00,ZHHH 070200Z 05002MPS 3500 -RA BR NSC 11/09 Q1021 NOSIG
ZHHH,2021-02-07 03:00,ZHHH 070300Z VRB01MPS 3000 -RA BR NSC 11/10 Q1022 BECMG TL0340 2800
ZHHH,2021-02-07 04:00,ZHHH 070400Z 30002MPS 280V340 2300 -RA BR SCT015 10/10 Q1022 NOSIG
ZHHH,2021-02-07 05:00,ZHHH 070500Z VRB01MPS 2300 -RA BR SCT015 10/10 Q1021 BECMG TL0640 3000
ZHHH,2021-02-07 06:00,ZHHH 070600Z 26002MPS 2300 -RA BR SCT015 10/10 Q1020 NOSIG
ZHHH,2021-02-07 07:00,ZHHH 070700Z VRB01MPS 2500 -RA BR SCT020 10/10 Q1020 NOSIG
ZHHH,2021-02-07 08:00,ZHHH 070800Z 28001MPS 2000 -RA BR FEW010 OVC040 10/10 Q1021 NOSIG
ZHHH,2021-02-07 09:00,ZHHH 070900Z 24002MPS 1300 R04L/1700D R04R/P2000 -RA BR FEW010 OVC040 10/10 Q1022 NOSIG
ZHHH,2021-02-07 10:00,ZHHH 071000Z 00000MPS 1800 -RA BR FEW010 10/10 Q1022 NOSIG
ZHHH,2021-02-07 11:00,ZHHH 071100Z 30002MPS 260V030 1800 -RA BR FEW010 10/10 Q1024 NOSIG
ZHHH,2021-02-07 12:00,ZHHH 071200Z 34002MPS 3500 -RA BR NSC 10/10 Q1024 NOSIG
ZHHH,2021-02-07 13:00,ZHHH 071300Z 01003MPS 350V050 4200 BR NSC 10/10 Q1025 NOSIG
ZHHH,2021-02-07 14:00,ZHHH 071400Z 03003MPS 4200 -RA BR NSC 10/08 Q1026 NOSIG
ZHHH,2021-02-07 15:00,ZHHH 071500Z 02003MPS 4200 -RA BR NSC 09/07 Q1026 NOSIG
ZHHH,2021-02-07 16:00,ZHHH 071600Z 05003MPS 4500 -RA BR NSC 08/07 Q1026 NOSIG
ZHHH,2021-02-07 17:00,ZHHH 071700Z 03002MPS 350V050 4500 -RA BR NSC 08/06 Q1026 NOSIG
ZHHH,2021-02-07 18:00,ZHHH 071800Z 35002MPS 320V040 5000 BR NSC 08/06 Q1026 NOSIG
ZHHH,2021-02-07 19:00,ZHHH 071900Z VRB01MPS 5000 BR NSC 08/06 Q1026 NOSIG
ZHHH,2021-02-07 20:00,ZHHH 072000Z 36002MPS 340V050 5000 BR NSC 08/04 Q1026 NOSIG
ZHHH,2021-02-07 21:00,ZHHH 072100Z 02004MPS 5000 BR NSC 08/03 Q1026 NOSIG
ZHHH,2021-02-07 22:00,ZHHH 072200Z 01002MPS 340V050 4500 BR NSC 08/04 Q1027 NOSIG
ZHHH,2021-02-07 23:00,ZHHH 072300Z 04003MPS 360V070 4500 BR NSC 08/04 Q1027 NOSIG
ZHHH,2021-02-08 00:00,ZHHH 080000Z 02003MPS 350V050 4500 BR NSC 08/04 Q1029 NOSIG
ZHHH,2021-02-08 01:00,ZHHH 080100Z 02004MPS 350V060 6000 BKN033 08/03 Q1029 NOSIG
ZHHH,2021-02-08 02:00,ZHHH 080200Z 03004MPS 330V060 7000 NSC 08/03 Q1030 NOSIG
ZHHH,2021-02-08 03:00,ZHHH 080300Z 03005MPS 7000 NSC 09/03 Q1030 NOSIG
ZHHH,2021-02-08 04:00,ZHHH 080400Z 04004MPS 340V060 7000 NSC 10/04 Q1030 NOSIG
ZHHH,2021-02-08 05:00,ZHHH 080500Z 03004MPS 330V070 8000 NSC 11/04 Q1029 NOSIG
ZHHH,2021-02-08 06:00,ZHHH 080600Z 03004MPS 310V070 8000 NSC 12/04 Q1028 NOSIG
ZHHH,2021-02-08 07:00,ZHHH 080700Z 05004MPS 020V080 8000 NSC 13/04 Q1027 NOSIG
ZHHH,2021-02-08 08:00,ZHHH 080800Z 04004MPS 360V060 8000 NSC 12/04 Q1027 NOSIG
ZHHH,2021-02-08 09:00,ZHHH 080900Z 01003MPS 340V040 8000 NSC 12/04 Q1027 NOSIG
ZHHH,2021-02-08 10:00,ZHHH 081000Z 02004MPS 350V050 CAVOK 11/04 Q1028 NOSIG
ZHHH,2021-02-08 11:00,ZHHH 081100Z 03004MPS CAVOK 10/03 Q1028 NOSIG
ZHHH,2021-02-08 12:00,ZHHH 081200Z 04003MPS CAVOK 09/03 Q1028 NOSIG
ZHHH,2021-02-08 13:00,ZHHH 081300Z 03002MPS CAVOK 08/03 Q1029 NOSIG
ZHHH,2021-02-08 14:00,ZHHH 081400Z 05002MPS CAVOK 07/04 Q1029 NOSIG
ZHHH,2021-02-08 15:00,ZHHH 081500Z 02002MPS CAVOK 07/04 Q1029 NOSIG
ZHHH,2021-02-08 16:00,ZHHH 081600Z 04002MPS CAVOK 07/04 Q1029 NOSIG
ZHHH,2021-02-08 17:00,ZHHH 081700Z 04003MPS 8000 BKN014 06/04 Q1028 NOSIG
ZHHH,2021-02-08 18:00,ZHHH 081800Z VRB01MPS 8000 BKN014 07/05 Q1028 NOSIG
ZHHH,2021-02-08 19:00,ZHHH 081900Z VRB01MPS 8000 BKN012 07/04 Q1027 NOSIG
ZHHH,2021-02-08 20:00,ZHHH 082000Z 06001MPS 8000 BKN012 07/04 Q1026 NOSIG
ZHHH,2021-02-08 21:00,ZHHH 082100Z 04002MPS 8000 BKN013 07/05 Q1026 NOSIG
ZHHH,2021-02-08 22:00,ZHHH 082200Z VRB01MPS 8000 BKN013 07/05 Q1026 NOSIG
ZHHH,2021-02-08 23:00,ZHHH 082300Z 06002MPS 8000 BKN016 07/04 Q1026 NOSIG
ZHHH,2021-02-09 00:00,ZHHH 090000Z 08002MPS 7000 SCT017 07/04 Q1027 NOSIG
ZHHH,2021-02-09 01:00,ZHHH 090100Z 09003MPS 7000 SCT017 08/04 Q1027 NOSIG
ZHHH,2021-02-09 02:00,ZHHH 090200Z 11003MPS 070V140 7000 FEW015 09/05 Q1027 NOSIG
ZHHH,2021-02-09 03:00,ZHHH 090300Z 16002MPS 080V220 7000 FEW020 11/06 Q1027 NOSIG
ZHHH,2021-02-09 04:00,ZHHH 090400Z 10002MPS 030V190 7000 NSC 12/05 Q1026 NOSIG
ZHHH,2021-02-09 05:00,ZHHH 090500Z VRB02MPS 7000 NSC 12/05 Q1024 NOSIG
ZHHH,2021-02-09 06:00,ZHHH 090600Z 30002MPS 260V340 7000 NSC 13/05 Q1023 NOSIG
ZHHH,2021-02-09 07:00,ZHHH 090700Z 29002MPS 220V350 7000 NSC 13/05 Q1023 NOSIG
ZHHH,2021-02-09 08:00,ZHHH 090800Z VRB02MPS 6000 NSC 14/05 Q1022 NOSIG
ZHHH,2021-02-09 09:00,ZHHH 090900Z VRB01MPS 6000 NSC 13/06 Q1022 NOSIG
ZHHH,2021-02-09 10:00,ZHHH 091000Z 11002MPS 070V130 6000 NSC 13/04 Q1022 NOSIG
ZHHH,2021-02-09 11:00,ZHHH 091100Z 12002MPS 060V150 7000 NSC 13/04 Q1022 NOSIG
ZHHH,2021-02-09 12:00,ZHHH 091200Z 22001MPS 8000 NSC 11/06 Q1022 NOSIG
ZHHH,2021-02-09 13:00,ZHHH 091300Z VRB01MPS CAVOK 10/06 Q1023 NOSIG
ZHHH,2021-02-09 14:00,ZHHH 091400Z 29001MPS 6000 NSC 11/09 Q1023 NOSIG
ZHHH,2021-02-09 15:00,ZHHH 091500Z VRB01MPS 6000 NSC 10/08 Q1023 NOSIG
ZHHH,2021-02-09 16:00,ZHHH 091600Z 00000MPS 6000 NSC 09/08 Q1022 NOSIG
ZHHH,2021-02-09 17:00,ZHHH 091700Z 05002MPS 5000 BR NSC 09/08 Q1022 NOSIG
ZHHH,2021-02-09 18:00,ZHHH 091800Z 05002MPS 5000 BR NSC 09/08 Q1022 NOSIG
ZHHH,2021-02-09 19:00,ZHHH 091900Z 00000MPS 5000 BR NSC 08/07 Q1022 NOSIG
ZHHH,2021-02-09 20:00,ZHHH 092000Z 01001MPS 5000 BR NSC 08/07 Q1021 NOSIG
ZHHH,2021-02-09 21:00,ZHHH 092100Z 06002MPS 5000 BR NSC 08/07 Q1021 NOSIG
ZHHH,2021-02-09 22:00,ZHHH 092200Z 14002MPS 5000 BR NSC 09/08 Q1021 NOSIG
ZHHH,2021-02-09 23:00,ZHHH 092300Z 07002MPS 020V090 4500 BR NSC 08/08 Q1022 NOSIG
ZHHH,2021-02-10 00:00,ZHHH 100000Z 08003MPS 3500 BR NSC 09/08 Q1021 NOSIG
ZHHH,2021-02-10 01:00,ZHHH 100100Z 11004MPS 5000 BR NSC 09/08 Q1022 NOSIG
ZHHH,2021-02-10 02:00,ZHHH 100200Z 09002MPS 050V120 5000 BR NSC 11/08 Q1023 NOSIG
ZHHH,2021-02-10 03:00,ZHHH 100300Z 07003MPS 5000 BR NSC 11/07 Q1023 NOSIG
ZHHH,2021-02-10 04:00,ZHHH 100400Z 07003MPS 6000 NSC 12/07 Q1022 NOSIG
ZHHH,2021-02-10 05:00,ZHHH 100500Z 09003MPS 060V120 6000 NSC 13/06 Q1021 NOSIG
ZHHH,2021-02-10 06:00,ZHHH 100600Z 11002MPS 080V140 8000 NSC 13/06 Q1020 NOSIG
ZHHH,2021-02-10 07:00,ZHHH 100700Z 12002MPS 060V160 8000 NSC 13/06 Q1020 NOSIG
ZHHH,2021-02-10 08:00,ZHHH 100800Z 14002MPS 090V160 8000 NSC 13/07 Q1020 NOSIG
ZHHH,2021-02-10 09:00,ZHHH 100900Z VRB01MPS 8000 NSC 13/07 Q1020 NOSIG
ZHHH,2021-02-10 10:00,ZHHH 101000Z VRB01MPS 8000 NSC 12/08 Q1020 NOSIG
ZHHH,2021-02-10 11:00,ZHHH 101100Z 29001MPS 8000 NSC 12/09 Q1020 NOSIG
ZHHH,2021-02-10 12:00,ZHHH 101200Z 28001MPS 7000 NSC 10/10 Q1020 NOSIG
ZHHH,2021-02-10 13:00,ZHHH 101300Z 00000MPS 7000 NSC 10/10 Q1021 NOSIG
ZHHH,2021-02-10 14:00,ZHHH 101400Z 20001MPS 6000 NSC 10/10 Q1021 NOSIG
ZHHH,2021-02-10 15:00,ZHHH 101500Z 00000MPS 6000 NSC 10/10 Q1021 NOSIG
ZHHH,2021-02-10 16:00,ZHHH 101600Z VRB01MPS 5000 BR NSC 10/09 Q1020 NOSIG
ZHHH,2021-02-10 17:00,ZHHH 101700Z VRB01MPS 5000 BR NSC 10/10 Q1020 NOSIG
ZHHH,2021-02-10 18:00,ZHHH 101800Z 06002MPS 4800 -RA BR NSC 09/09 Q1020 NOSIG
ZHHH,2021-02-10 19:00,ZHHH 101900Z 06002MPS 5000 BR NSC 10/09 Q1020 NOSIG
ZHHH,2021-02-10 20:00,ZHHH 102000Z VRB01MPS 5000 BR NSC 10/08 Q1020 NOSIG
ZHHH,2021-02-10 21:00,ZHHH 102100Z 00000MPS 5000 BR NSC 10/09 Q1020 NOSIG
ZHHH,2021-02-10 22:00,ZHHH 102200Z 07001MPS 5000 BR NSC 10/09 Q1020 NOSIG
ZHHH,2021-02-10 23:00,ZHHH 102300Z 03001MPS 5000 BR NSC 09/08 Q1020 NOSIG
ZHHH,2021-02-11 00:00,ZHHH 110000Z 33001MPS 3500 BR NSC 10/09 Q1020 NOSIG
ZHHH,2021-02-11 01:00,ZHHH 110100Z VRB01MPS 3200 BR NSC 11/09 Q1021 NOSIG
ZHHH,2021-02-11 02:00,ZHHH 110200Z 05002MPS 4000 BR NSC 12/08 Q1020 NOSIG
ZHHH,2021-02-11 03:00,ZHHH 110300Z VRB01MPS 4500 HZ NSC 15/08 Q1020 NOSIG
ZHHH,2021-02-11 04:00,ZHHH 110400Z VRB01MPS 5000 HZ NSC 16/08 Q1019 NOSIG
ZHHH,2021-02-11 05:00,ZHHH 110500Z 26003MPS 5000 HZ NSC 17/09 Q1019 NOSIG
ZHHH,2021-02-11 06:00,ZHHH 110600Z 25002MPS 220V290 CAVOK 18/08 Q1018 NOSIG
ZHHH,2021-02-11 07:00,ZHHH 110700Z 25002MPS 200V290 CAVOK 18/08 Q1018 NOSIG
ZHHH,2021-02-11 08:00,ZHHH 110800Z 22002MPS 180V280 CAVOK 19/08 Q1018 NOSIG
ZHHH,2021-02-11 09:00,ZHHH 110900Z 22002MPS 190V250 CAVOK 18/08 Q1018 NOSIG
ZHHH,2021-02-11 10:00,ZHHH 111000Z 24002MPS 210V280 8000 NSC 17/10 Q1018 NOSIG
ZHHH,2021-02-11 11:00,ZHHH 111100Z 22001MPS 8000 NSC 14/10 Q1018 NOSIG
ZHHH,2021-02-11 12:00,ZHHH 111200Z 16002MPS 8000 NSC 14/09 Q1018 NOSIG
ZHHH,2021-02-11 13:00,ZHHH 111300Z 13002MPS 6000 NSC 14/09 Q1018 NOSIG
ZHHH,2021-02-11 14:00,ZHHH 111400Z 00000MPS 6000 NSC 11/09 Q1019 NOSIG
ZHHH,2021-02-11 15:00,ZHHH 111500Z 16001MPS 5000 BR NSC 10/10 Q1019 NOSIG
ZHHH,2021-02-11 16:00,ZHHH 111600Z 24001MPS 4500 BR BKN033 11/11 Q1019 NOSIG
ZHHH,2021-02-11 17:00,ZHHH 111700Z VRB01MPS 4500 BR BKN033 12/11 Q1019 NOSIG
ZHHH,2021-02-11 18:00,ZHHH 111800Z 19003MPS 4500 BR BKN030 12/11 Q1019 NOSIG
ZHHH,2021-02-11 19:00,ZHHH 111900Z 20003MPS 5000 BR BKN030 12/11 Q1019 NOSIG
ZHHH,2021-02-11 20:00,ZHHH 112000Z 16002MPS 5000 BR OVC033 12/11 Q1018 NOSIG
ZHHH,2021-02-11 21:00,ZHHH 112100Z 13002MPS 5000 BR OVC033 11/09 Q1018 NOSIG
ZHHH,2021-02-11 22:00,ZHHH 112200Z 21002MPS 4000 BR OVC033 10/09 Q1019 BECMG TL2330 1600
ZHHH,2021-02-11 23:00,ZHHH 112300Z 19002MPS 4000 BR SCT040 10/10 Q1019 BECMG TL2350 2000
ZHHH,2021-02-12 00:00,ZHHH 120000Z 20001MPS 2200 BR FEW020 10/10 Q1020 BECMG TL0150 3000
ZHHH,2021-02-12 01:00,ZHHH 120100Z 23002MPS 200V260 0900 R22R/1300D R22L/1400D FG NSC 11/11 Q1021 NOSIG
ZHHH,2021-02-12 02:00,ZHHH 120200Z 22002MPS 180V270 0900 R22R/1300V1400N R22L/1100V1300D FG VV004 11/11 Q1021 BECMG TL0340 1800 BR
ZHHH,2021-02-12 03:00,ZHHH 120300Z VRB01MPS 1200 R22R/1600N R22L/1400N BR OVC006 12/12 Q1021 BECMG TL0340 1800
ZHHH,2021-02-12 04:00,ZHHH 120400Z 26002MPS 200V330 1500 BR OVC009 13/12 Q1021 NOSIG
ZHHH,2021-02-12 05:00,ZHHH 120500Z VRB01MPS 2500 BR SCT013 14/11 Q1020 BECMG TL0620 3000
ZHHH,2021-02-12 06:00,ZHHH 120600Z 28002MPS 220V310 3400 BR FEW015 15/12 Q1019 NOSIG
ZHHH,2021-02-12 07:00,ZHHH 120700Z 27002MPS 230V330 4000 BR FEW015 16/12 Q1018 NOSIG
ZHHH,2021-02-12 08:00,ZHHH 120800Z 28002MPS 220V340 4500 HZ FEW023 SCT033 17/11 Q1018 NOSIG
ZHHH,2021-02-12 09:00,ZHHH 120900Z VRB01MPS 4500 HZ SCT033 17/10 Q1018 NOSIG
ZHHH,2021-02-12 10:00,ZHHH 121000Z VRB01MPS 3000 BR SCT026 15/11 Q1018 BECMG TL1140 2800
ZHHH,2021-02-12 11:00,ZHHH 121100Z VRB01MPS 4500 BR SCT033 13/11 Q1019 NOSIG
ZHHH,2021-02-12 12:00,ZHHH 121200Z 05002MPS 5000 BR NSC 12/10 Q1019 NOSIG
ZHHH,2021-02-12 13:00,ZHHH 121300Z 05001MPS 5000 BR NSC 11/10 Q1019 NOSIG
ZHHH,2021-02-12 14:00,ZHHH 121400Z 05002MPS 6000 NSC 12/10 Q1020 NOSIG
ZHHH,2021-02-12 15:00,ZHHH 121500Z 05002MPS 6000 NSC 10/10 Q1020 NOSIG
ZHHH,2021-02-12 16:00,ZHHH 121600Z 07001MPS 6000 NSC 11/10 Q1020 NOSIG
ZHHH,2021-02-12 17:00,ZHHH 121700Z 10003MPS 5000 BR NSC 12/10 Q1020 NOSIG
ZHHH,2021-02-12 18:00,ZHHH 121800Z 06002MPS 5000 BR NSC 09/09 Q1020 NOSIG
ZHHH,2021-02-12 19:00,ZHHH 121900Z 07002MPS 3300 BR NSC 09/09 Q1020 NOSIG
ZHHH,2021-02-12 20:00,ZHHH 122000Z 07002MPS 3000 BR NSC 09/09 Q1020 NOSIG
ZHHH,2021-02-12 21:00,ZHHH 122100Z 09003MPS 3000 BR NSC 10/10 Q1020 BECMG TL2240 2000
ZHHH,2021-02-12 22:00,ZHHH 122200Z 09004MPS 3500 BR NSC 10/09 Q1020 BECMG TL2340 2000
ZHHH,2021-02-12 23:00,ZHHH 122300Z 09004MPS 3200 BR NSC 10/09 Q1020 BECMG TL2340 2000
ZHHH,2021-02-13 00:00,ZHHH 130000Z 10003MPS 2000 BR NSC 10/09 Q1021 BECMG TL0140 3000
ZHHH,2021-02-13 01:00,ZHHH 130100Z 11003MPS 3000 BR NSC 12/10 Q1022 NOSIG
ZHHH,2021-02-13 02:00,ZHHH 130200Z 11003MPS 080V140 3500 BR NSC 14/11 Q1021 NOSIG
ZHHH,2021-02-13 03:00,ZHHH 130300Z 10003MPS 070V130 4000 BR NSC 16/11 Q1021 NOSIG
ZHHH,2021-02-13 04:00,ZHHH 130400Z 13003MPS 070V170 5000 HZ NSC 17/11 Q1020 NOSIG
ZHHH,2021-02-13 05:00,ZHHH 130500Z 10002MPS 020V190 5000 HZ FEW023 18/11 Q1019 NOSIG
ZHHH,2021-02-13 06:00,ZHHH 130600Z VRB01MPS 8000 FEW023 19/10 Q1018 NOSIG
ZHHH,2021-02-13 07:00,ZHHH 130700Z 23003MPS 180V290 9999 SCT040 19/09 Q1017 NOSIG
ZHHH,2021-02-13 08:00,ZHHH 130800Z 21002MPS 170V230 9999 SCT040 20/08 Q1017 NOSIG
ZHHH,2021-02-13 09:00,ZHHH 130900Z 19002MPS 9999 SCT040 18/09 Q1017 NOSIG
ZHHH,2021-02-13 10:00,ZHHH 131000Z 26002MPS CAVOK 17/10 Q1017 NOSIG
ZHHH,2021-02-13 11:00,ZHHH 131100Z 00000MPS 8000 NSC 14/10 Q1017 NOSIG
ZHHH,2021-02-13 12:00,ZHHH 131200Z 00000MPS 7000 NSC 13/12 Q1018 NOSIG
ZHHH,2021-02-13 13:00,ZHHH 131300Z 27001MPS 5000 BR NSC 12/12 Q1018 NOSIG
ZHHH,2021-02-13 14:00,ZHHH 131400Z 29002MPS 5000 BR NSC 13/13 Q1018 NOSIG
ZHHH,2021-02-13 15:00,ZHHH 131500Z VRB01MPS 5000 BR NSC 13/12 Q1018 NOSIG
ZHHH,2021-02-13 16:00,ZHHH 131600Z 18001MPS 5000 BR NSC 12/12 Q1017 NOSIG
ZHHH,2021-02-13 17:00,ZHHH 131700Z 26001MPS 4000 BR NSC 12/12 Q1017 NOSIG
ZHHH,2021-02-13 18:00,ZHHH 131800Z VRB01MPS 4000 BR NSC 13/13 Q1017 NOSIG
ZHHH,2021-02-13 19:00,ZHHH 131900Z 21002MPS 3500 BR NSC 11/11 Q1016 NOSIG
ZHHH,2021-02-13 20:00,ZHHH 132000Z 22002MPS 3200 BR NSC 11/11 Q1016 NOSIG
ZHHH,2021-02-13 21:00,ZHHH 132100Z 00000MPS 3200 BR NSC 10/10 Q1016 BECMG TL2240 2500
ZHHH,2021-02-13 22:00,ZHHH 132200Z 18002MPS 3500 BR NSC 11/11 Q1016 BECMG TL2340 2800
ZHHH,2021-02-13 23:00,ZHHH 132300Z 00000MPS 3500 BR NSC 10/10 Q1016 BECMG TL0040 2800
ZHHH,2021-02-14 00:00,ZHHH 140000Z 28001MPS 2500 BR NSC 11/11 Q1017 BECMG TL0120 3000
ZHHH,2021-02-14 01:00,ZHHH 140100Z 24002MPS 220V280 3500 BR NSC 13/12 Q1017 NOSIG
ZHHH,2021-02-14 02:00,ZHHH 140200Z VRB01MPS 4000 BR NSC 14/12 Q1017 NOSIG
ZHHH,2021-02-14 03:00,ZHHH 140300Z 27002MPS 220V350 6000 NSC 16/11 Q1018 NOSIG
ZHHH,2021-02-14 04:00,ZHHH 140400Z 28003MPS 230V310 8000 FEW026 17/10 Q1017 NOSIG
ZHHH,2021-02-14 05:00,ZHHH 140500Z 26003MPS 210V310 9000 SCT026 18/09 Q1016 NOSIG
ZHHH,2021-02-14 06:00,ZHHH 140600Z 26004MPS 230V290 9999 SCT026 19/08 Q1015 NOSIG
ZHHH,2021-02-14 07:00,ZHHH 140700Z 26004MPS 240V300 9999 FEW026 20/09 Q1014 NOSIG
ZHHH,2021-02-14 08:00,ZHHH 140800Z 28003MPS 240V350 9999 FEW026 20/09 Q1015 NOSIG
ZHHH,2021-02-14 09:00,ZHHH 140900Z 25002MPS 220V280 CAVOK 19/09 Q1014 NOSIG
ZHHH,2021-02-14 10:00,ZHHH 141000Z 22002MPS CAVOK 18/09 Q1014 NOSIG
ZHHH,2021-02-14 11:00,ZHHH 141100Z 18001MPS CAVOK 16/09 Q1015 NOSIG
ZHHH,2021-02-14 12:00,ZHHH 141200Z 22001MPS CAVOK 14/09 Q1015 NOSIG
ZHHH,2021-02-14 13:00,ZHHH 141300Z 21001MPS CAVOK 12/11 Q1016 NOSIG
ZHHH,2021-02-14 14:00,ZHHH 141400Z VRB01MPS CAVOK 12/10 Q1016 NOSIG
ZHHH,2021-02-14 15:00,ZHHH 141500Z 00000MPS 8000 NSC 11/10 Q1016 NOSIG
ZHHH,2021-02-14 16:00,ZHHH 141600Z 06001MPS 8000 NSC 10/10 Q1017 NOSIG
ZHHH,2021-02-14 17:00,ZHHH 141700Z 08001MPS 8000 NSC 11/10 Q1016 NOSIG
ZHHH,2021-02-14 18:00,ZHHH 141800Z 07002MPS 020V090 6000 NSC 10/10 Q1016 NOSIG
ZHHH,2021-02-14 19:00,ZHHH 141900Z 06003MPS 4500 BR NSC 11/10 Q1016 NOSIG
ZHHH,2021-02-14 20:00,ZHHH 142000Z 04003MPS 4200 BR NSC 10/10 Q1016 NOSIG
ZHHH,2021-02-14 21:00,ZHHH 142100Z 04003MPS 5000 BR NSC 10/09 Q1017 BECMG TL2250 2400
ZHHH,2021-02-14 22:00,ZHHH 142200Z 06003MPS 5000 BR NSC 09/08 Q1018 BECMG TL2350 2500
ZHHH,2021-02-14 23:00,ZHHH 142300Z 04002MPS 6000 NSC 09/09 Q1018 BECMG TL2350 2500 BR
ZHHH,2021-02-15 00:00,ZHHH 150000Z 03002MPS 7000 NSC 12/10 Q1019 NOSIG
ZHHH,2021-02-15 01:00,ZHHH 150100Z 02005MPS 350V050 5000 BR NSC 13/10 Q1020 NOSIG
ZHHH,2021-02-15 02:00,ZHHH 150200Z 03007MPS 350V050 3500 BR NSC 14/10 Q1021 NOSIG
ZHHH,2021-02-15 03:00,ZHHH 150300Z 02007MPS 3500 HZ NSC 15/10 Q1021 NOSIG
ZHHH,2021-02-15 04:00,ZHHH 150400Z 03006MPS 340V050 3500 HZ NSC 16/09 Q1021 NOSIG
ZHHH,2021-02-15 05:00,ZHHH 150500Z 03008G13MPS 360V060 3200 HZ FEW026 16/09 Q1019 NOSIG
ZHHH,2021-02-15 06:00,ZHHH 150600Z 02005MPS 340V040 3200 HZ FEW026 16/07 Q1018 NOSIG
ZHHH,2021-02-15 07:00,ZHHH 150700Z 02006MPS 330V050 3500 HZ NSC 16/06 Q1018 NOSIG
ZHHH,2021-02-15 08:00,ZHHH 150800Z 02005MPS 330V040 3000 HZ NSC 15/07 Q1018 NOSIG
ZHHH,2021-02-15 09:00,ZHHH 150900Z 01004MPS 340V050 3000 HZ NSC 14/06 Q1019 NOSIG
ZHHH,2021-02-15 10:00,ZHHH 151000Z 02005MPS 340V060 3200 HZ NSC 12/05 Q1019 NOSIG
ZHHH,2021-02-15 11:00,ZHHH 151100Z 03004MPS 360V060 4000 HZ NSC 11/04 Q1020 NOSIG
ZHHH,2021-02-15 12:00,ZHHH 151200Z 02004MPS 4000 HZ NSC 11/03 Q1019 NOSIG
ZHHH,2021-02-15 13:00,ZHHH 151300Z 04003MPS 4500 HZ NSC 10/02 Q1019 NOSIG
ZHHH,2021-02-15 14:00,ZHHH 151400Z 03004MPS 350V050 4500 -RA HZ NSC 10/02 Q1019 NOSIG
ZHHH,2021-02-15 15:00,ZHHH 151500Z VRB01MPS 5000 -RA HZ NSC 09/05 Q1020 NOSIG
ZHHH,2021-02-15 16:00,ZHHH 151600Z 29002MPS 200V340 5000 -RA BR NSC 09/07 Q1020 NOSIG
ZHHH,2021-02-15 17:00,ZHHH 151700Z VRB01MPS 4500 -RA BR NSC 09/07 Q1020 NOSIG
ZHHH,2021-02-15 18:00,ZHHH 151800Z VRB01MPS 4500 -RA BR NSC 09/06 Q1019 NOSIG
ZHHH,2021-02-15 19:00,ZHHH 151900Z 34002MPS 310V010 4500 -RA BR NSC 09/05 Q1020 NOSIG
ZHHH,2021-02-15 20:00,ZHHH 152000Z 35002MPS 310V030 4500 BR NSC 08/05 Q1019 NOSIG
ZHHH,2021-02-15 21:00,ZHHH 152100Z 36002MPS 320V020 4500 BR NSC 08/05 Q1019 NOSIG
ZHHH,2021-02-15 22:00,ZHHH 152200Z 36002MPS 300V030 4500 BR NSC 08/05 Q1019 NOSIG
ZHHH,2021-02-15 23:00,ZHHH 152300Z 00000MPS 4500 BR NSC 07/04 Q1020 BECMG TL0020 2800
ZHHH,2021-02-16 00:00,ZHHH 160000Z 36002MPS 4000 BR NSC 08/04 Q1020 NOSIG
ZHHH,2021-02-16 01:00,ZHHH 160100Z 30002MPS 240V340 5000 HZ NSC 10/04 Q1021 NOSIG
ZHHH,2021-02-16 02:00,ZHHH 160200Z 30002MPS 240V360 5000 HZ NSC 11/05 Q1021 NOSIG
ZHHH,2021-02-16 03:00,ZHHH 160300Z 30002MPS 240V010 6000 NSC 13/04 Q1021 NOSIG
ZHHH,2021-02-16 04:00,ZHHH 160400Z 29003MPS 240V320 7000 NSC 14/04 Q1021 NOSIG
ZHHH,2021-02-16 05:00,ZHHH 160500Z 29002MPS 210V340 8000 NSC 15/04 Q1020 NOSIG
ZHHH,2021-02-16 06:00,ZHHH 160600Z 26002MPS 210V340 CAVOK 17/04 Q1019 NOSIG
ZHHH,2021-02-16 07:00,ZHHH 160700Z 30003MPS 260V360 CAVOK 18/00 Q1019 NOSIG
ZHHH,2021-02-16 08:00,ZHHH 160800Z 31003MPS 240V010 CAVOK 18/01 Q1019 NOSIG
ZHHH,2021-02-16 09:00,ZHHH 160900Z VRB01MPS CAVOK 18/01 Q1019 NOSIG
ZHHH,2021-02-16 10:00,ZHHH 161000Z 23002MPS CAVOK 16/02 Q1020 NOSIG
ZHHH,2021-02-16 11:00,ZHHH 161100Z 24002MPS CAVOK 14/04 Q1020 NOSIG
ZHHH,2021-02-16 12:00,ZHHH 161200Z 31002MPS 230V040 CAVOK 13/05 Q1022 NOSIG
ZHHH,2021-02-16 13:00,ZHHH 161300Z VRB01MPS CAVOK 12/04 Q1023 NOSIG
ZHHH,2021-02-16 14:00,ZHHH 161400Z 10003MPS 070V130 CAVOK 13/M01 Q1023 NOSIG
ZHHH,2021-02-16 15:00,ZHHH 161500Z 00000MPS CAVOK 10/03 Q1024 NOSIG
ZHHH,2021-02-16 16:00,ZHHH 161600Z 00000MPS CAVOK 08/02 Q1024 NOSIG
ZHHH,2021-02-16 17:00,ZHHH 161700Z 00000MPS CAVOK 08/02 Q1024 NOSIG
ZHHH,2021-02-16 18:00,ZHHH 161800Z VRB01MPS CAVOK 09/02 Q1024 NOSIG
ZHHH,2021-02-16 19:00,ZHHH 161900Z 12001MPS CAVOK 08/02 Q1024 NOSIG
ZHHH,2021-02-16 20:00,ZHHH 162000Z VRB01MPS CAVOK 07/03 Q1024 NOSIG
ZHHH,2021-02-16 21:00,ZHHH 162100Z VRB01MPS CAVOK 06/03 Q1025 NOSIG
ZHHH,2021-02-16 22:00,ZHHH 162200Z 05004MPS CAVOK 05/02 Q1025 NOSIG
ZHHH,2021-02-16 23:00,ZHHH 162300Z 07003MPS CAVOK 04/01 Q1026 NOSIG
ZHHH,2021-02-17 00:00,ZHHH 170000Z 08004MPS CAVOK 08/00 Q1026 NOSIG
ZHHH,2021-02-17 01:00,ZHHH 170100Z 06004MPS CAVOK 10/01 Q1027 NOSIG
ZHHH,2021-02-17 02:00,ZHHH 170200Z 08003MPS 030V140 CAVOK 13/02 Q1028 NOSIG
ZHHH,2021-02-17 03:00,ZHHH 170300Z 08003MPS 350V160 CAVOK 15/00 Q1028 NOSIG
ZHHH,2021-02-17 04:00,ZHHH 170400Z 04003MPS 360V100 CAVOK 16/M04 Q1028 NOSIG
ZHHH,2021-02-17 05:00,ZHHH 170500Z VRB03MPS CAVOK 17/M03 Q1027 NOSIG
ZHHH,2021-02-17 06:00,ZHHH 170600Z VRB03MPS CAVOK 17/M03 Q1026 NOSIG
ZHHH,2021-02-17 07:00,ZHHH 170700Z VRB02MPS CAVOK 17/M03 Q1025 NOSIG
ZHHH,2021-02-17 08:00,ZHHH 170800Z VRB02MPS CAVOK 18/M01 Q1026 NOSIG
ZHHH,2021-02-17 09:00,ZHHH 170900Z 25002MPS 220V290 CAVOK 17/M01 Q1025 NOSIG
ZHHH,2021-02-17 10:00,ZHHH 171000Z 04003MPS CAVOK 15/M04 Q1026 NOSIG
ZHHH,2021-02-17 11:00,ZHHH 171100Z 04004MPS CAVOK 13/M04 Q1026 NOSIG
ZHHH,2021-02-17 12:00,ZHHH 171200Z 06005MPS CAVOK 12/M02 Q1027 NOSIG
ZHHH,2021-02-17 13:00,ZHHH 171300Z 08005MPS CAVOK 12/M02 Q1028 NOSIG
ZHHH,2021-02-17 14:00,ZHHH 171400Z 08005MPS CAVOK 12/M02 Q1028 NOSIG
ZHHH,2021-02-17 15:00,ZHHH 171500Z 07004MPS CAVOK 10/M01 Q1029 NOSIG
ZHHH,2021-02-17 16:00,ZHHH 171600Z 06003MPS CAVOK 08/M01 Q1029 NOSIG
ZHHH,2021-02-17 17:00,ZHHH 171700Z 07004MPS CAVOK 09/M00 Q1029 NOSIG
ZHHH,2021-02-17 18:00,ZHHH 171800Z 09003MPS CAVOK 08/00 Q1029 NOSIG
ZHHH,2021-02-17 19:00,ZHHH 171900Z 10003MPS CAVOK 08/01 Q1029 NOSIG
ZHHH,2021-02-17 20:00,ZHHH 172000Z 08002MPS 050V110 8000 NSC 05/01 Q1029 NOSIG
ZHHH,2021-02-17 21:00,ZHHH 172100Z 06002MPS 8000 NSC 06/01 Q1029 NOSIG
ZHHH,2021-02-17 22:00,ZHHH 172200Z 06002MPS 7000 NSC 05/02 Q1029 NOSIG
ZHHH,2021-02-17 23:00,ZHHH 172300Z 06003MPS 5000 BR NSC 04/02 Q1030 NOSIG
ZHHH,2021-02-18 00:00,ZHHH 180000Z 08003MPS 5000 BR NSC 07/03 Q1030 NOSIG
ZHHH,2021-02-18 01:00,ZHHH 180100Z 09004MPS 5000 HZ NSC 09/04 Q1031 NOSIG
ZHHH,2021-02-18 02:00,ZHHH 180200Z 10004MPS 080V140 5000 HZ NSC 11/05 Q1031 NOSIG
ZHHH,2021-02-18 03:00,ZHHH 180300Z 10003MPS 070V170 4500 HZ NSC 13/04 Q1031 NOSIG
ZHHH,2021-02-18 04:00,ZHHH 180400Z 10002MPS 040V130 6000 NSC 15/04 Q1030 NOSIG
ZHHH,2021-02-18 05:00,ZHHH 180500Z VRB02MPS 8000 NSC 16/01 Q1029 NOSIG
ZHHH,2021-02-18 06:00,ZHHH 180600Z VRB02MPS 8000 NSC 17/02 Q1028 NOSIG
ZHHH,2021-02-18 07:00,ZHHH 180700Z 27002MPS 230V320 CAVOK 17/00 Q1027 NOSIG
ZHHH,2021-02-18 08:00,ZHHH 180800Z 31002MPS 270V350 CAVOK 18/M01 Q1026 NOSIG
ZHHH,2021-02-18 09:00,ZHHH 180900Z VRB01MPS CAVOK 18/M00 Q1026 NOSIG
ZHHH,2021-02-18 10:00,ZHHH 181000Z 13002MPS 080V200 CAVOK 16/00 Q1026 NOSIG
ZHHH,2021-02-18 11:00,ZHHH 181100Z 13002MPS CAVOK 15/01 Q1026 NOSIG
ZHHH,2021-02-18 12:00,ZHHH 181200Z 12003MPS CAVOK 15/01 Q1026 NOSIG
ZHHH,2021-02-18 13:00,ZHHH 181300Z 11003MPS CAVOK 14/01 Q1026 NOSIG
ZHHH,2021-02-18 14:00,ZHHH 181400Z 13002MPS 050V140 CAVOK 12/03 Q1026 NOSIG
ZHHH,2021-02-18 15:00,ZHHH 181500Z VRB01MPS CAVOK 11/03 Q1026 NOSIG
ZHHH,2021-02-18 16:00,ZHHH 181600Z VRB01MPS CAVOK 09/04 Q1026 NOSIG
ZHHH,2021-02-18 17:00,ZHHH 181700Z 14002MPS CAVOK 09/04 Q1025 NOSIG
ZHHH,2021-02-18 18:00,ZHHH 181800Z VRB01MPS CAVOK 08/04 Q1024 NOSIG
ZHHH,2021-02-18 19:00,ZHHH 181900Z 00000MPS CAVOK 08/05 Q1024 NOSIG
ZHHH,2021-02-18 20:00,ZHHH 182000Z 10001MPS CAVOK 07/03 Q1023 NOSIG
ZHHH,2021-02-18 21:00,ZHHH 182100Z 07002MPS CAVOK 07/03 Q1023 NOSIG
ZHHH,2021-02-18 22:00,ZHHH 182200Z 08001MPS CAVOK 07/03 Q1023 NOSIG
ZHHH,2021-02-18 23:00,ZHHH 182300Z 16001MPS 6000 NSC 06/04 Q1023 NOSIG
ZHHH,2021-02-19 00:00,ZHHH 190000Z VRB01MPS 6000 NSC 10/06 Q1024 NOSIG
ZHHH,2021-02-19 01:00,ZHHH 190100Z 14002MPS 100V190 8000 NSC 13/05 Q1024 NOSIG
ZHHH,2021-02-19 02:00,ZHHH 190200Z 20003MPS 160V230 CAVOK 15/05 Q1024 NOSIG
ZHHH,2021-02-19 03:00,ZHHH 190300Z 22005MPS CAVOK 17/05 Q1023 NOSIG
ZHHH,2021-02-19 04:00,ZHHH 190400Z 22005MPS 190V250 CAVOK 18/06 Q1023 NOSIG
ZHHH,2021-02-19 05:00,ZHHH 190500Z 24005MPS CAVOK 19/06 Q1021 NOSIG
ZHHH,2021-02-19 06:00,ZHHH 190600Z 25004MPS 220V290 CAVOK 20/07 Q1020 NOSIG
ZHHH,2021-02-19 07:00,ZHHH 190700Z 22005MPS 180V260 CAVOK 21/07 Q1019 NOSIG
ZHHH,2021-02-19 08:00,ZHHH 190800Z 21005MPS CAVOK 21/08 Q1018 NOSIG
ZHHH,2021-02-19 09:00,ZHHH 190900Z 23005MPS CAVOK 20/07 Q1018 NOSIG
ZHHH,2021-02-19 10:00,ZHHH 191000Z 20004MPS CAVOK 18/08 Q1018 NOSIG
ZHHH,2021-02-19 11:00,ZHHH 191100Z 20003MPS CAVOK 16/08 Q1019 NOSIG
ZHHH,2021-02-19 12:00,ZHHH 191200Z 20004MPS CAVOK 15/07 Q1019 NOSIG
ZHHH,2021-02-19 13:00,ZHHH 191300Z 21004MPS CAVOK 15/07 Q1019 NOSIG
ZHHH,2021-02-19 14:00,ZHHH 191400Z 21002MPS CAVOK 14/06 Q1019 NOSIG
ZHHH,2021-02-19 15:00,ZHHH 191500Z 21002MPS CAVOK 13/06 Q1019 NOSIG
ZHHH,2021-02-19 16:00,ZHHH 191600Z 21003MPS CAVOK 13/05 Q1019 NOSIG
ZHHH,2021-02-19 17:00,ZHHH 191700Z 21002MPS CAVOK 12/06 Q1018 NOSIG
ZHHH,2021-02-19 18:00,ZHHH 191800Z 00000MPS CAVOK 09/05 Q1018 NOSIG
ZHHH,2021-02-19 19:00,ZHHH 191900Z 00000MPS CAVOK 08/06 Q1017 NOSIG
ZHHH,2021-02-19 20:00,ZHHH 192000Z VRB01MPS CAVOK 10/05 Q1017 NOSIG
ZHHH,2021-02-19 21:00,ZHHH 192100Z 00000MPS CAVOK 08/05 Q1017 NOSIG
ZHHH,2021-02-19 22:00,ZHHH 192200Z VRB01MPS CAVOK 08/05 Q1017 NOSIG
ZHHH,2021-02-19 23:00,ZHHH 192300Z 00000MPS CAVOK 07/05 Q1017 NOSIG
ZHHH,2021-02-20 00:00,ZHHH 200000Z 14001MPS CAVOK 12/07 Q1018 NOSIG
ZHHH,2021-02-20 01:00,ZHHH 200100Z 17002MPS 130V230 CAVOK 16/06 Q1019 NOSIG
ZHHH,2021-02-20 02:00,ZHHH 200200Z 21004MPS CAVOK 17/06 Q1018 NOSIG
ZHHH,2021-02-20 03:00,ZHHH 200300Z 21005MPS CAVOK 19/07 Q1018 NOSIG
ZHHH,2021-02-20 04:00,ZHHH 200400Z 20005MPS CAVOK 21/07 Q1017 NOSIG
ZHHH,2021-02-20 05:00,ZHHH 200500Z 22006MPS CAVOK 22/07 Q1016 NOSIG
ZHHH,2021-02-20 06:00,ZHHH 200600Z 20005MPS CAVOK 23/07 Q1015 NOSIG
ZHHH,2021-02-20 07:00,ZHHH 200700Z 21005MPS CAVOK 23/08 Q1014 NOSIG
ZHHH,2021-02-20 08:00,ZHHH 200800Z 23006MPS CAVOK 23/04 Q1014 NOSIG
ZHHH,2021-02-20 09:00,ZHHH 200900Z 22005MPS CAVOK 22/07 Q1014 NOSIG
ZHHH,2021-02-20 10:00,ZHHH 201000Z 22003MPS CAVOK 20/06 Q1014 NOSIG
ZHHH,2021-02-20 11:00,ZHHH 201100Z 21003MPS CAVOK 17/06 Q1013 NOSIG
ZHHH,2021-02-20 12:00,ZHHH 201200Z 20002MPS CAVOK 16/06 Q1014 NOSIG
ZHHH,2021-02-20 13:00,ZHHH 201300Z 19004MPS CAVOK 17/07 Q1014 NOSIG
ZHHH,2021-02-20 14:00,ZHHH 201400Z 19003MPS CAVOK 15/07 Q1014 NOSIG
ZHHH,2021-02-20 15:00,ZHHH 201500Z 16002MPS CAVOK 13/07 Q1014 NOSIG
ZHHH,2021-02-20 16:00,ZHHH 201600Z 18004MPS CAVOK 16/07 Q1014 NOSIG
ZHHH,2021-02-20 17:00,ZHHH 201700Z 14002MPS CAVOK 13/07 Q1014 NOSIG
ZHHH,2021-02-20 18:00,ZHHH 201800Z 13003MPS CAVOK 15/06 Q1013 NOSIG
ZHHH,2021-02-20 19:00,ZHHH 201900Z 12003MPS CAVOK 14/07 Q1013 NOSIG
ZHHH,2021-02-20 20:00,ZHHH 202000Z 12002MPS CAVOK 14/08 Q1012 NOSIG
ZHHH,2021-02-20 21:00,ZHHH 202100Z 12002MPS CAVOK 13/07 Q1012 NOSIG
ZHHH,2021-02-20 22:00,ZHHH 202200Z 12002MPS CAVOK 10/08 Q1012 NOSIG
ZHHH,2021-02-20 23:00,ZHHH 202300Z 14002MPS 090V210 CAVOK 10/06 Q1013 NOSIG
ZHHH,2021-02-21 00:00,ZHHH 210000Z 11002MPS 070V150 8000 NSC 15/07 Q1013 NOSIG
ZHHH,2021-02-21 01:00,ZHHH 210100Z 11003MPS 080V150 CAVOK 17/08 Q1013 NOSIG
ZHHH,2021-02-21 02:00,ZHHH 210200Z 20003MPS 150V240 CAVOK 20/06 Q1014 NOSIG
ZHHH,2021-02-21 03:00,ZHHH 210300Z 21005MPS CAVOK 22/07 Q1013 NOSIG
ZHHH,2021-02-21 04:00,ZHHH 210400Z 21005MPS 180V240 CAVOK 24/07 Q1012 NOSIG
ZHHH,2021-02-21 05:00,ZHHH 210500Z 23006MPS CAVOK 24/07 Q1011 NOSIG
ZHHH,2021-02-21 06:00,ZHHH 210600Z 24005MPS CAVOK 25/07 Q1010 NOSIG
ZHHH,2021-02-21 07:00,ZHHH 210700Z 24005MPS CAVOK 26/08 Q1010 NOSIG
ZHHH,2021-02-21 08:00,ZHHH 210800Z 21005MPS CAVOK 25/09 Q1010 NOSIG
ZHHH,2021-02-21 09:00,ZHHH 210900Z 21003MPS CAVOK 25/10 Q1010 NOSIG
ZHHH,2021-02-21 10:00,ZHHH 211000Z 20003MPS CAVOK 22/10 Q1010 NOSIG
ZHHH,2021-02-21 11:00,ZHHH 211100Z 20002MPS CAVOK 20/10 Q1010 NOSIG
ZHHH,2021-02-21 12:00,ZHHH 211200Z 19002MPS CAVOK 19/10 Q1011 NOSIG
ZHHH,2021-02-21 13:00,ZHHH 211300Z 23002MPS CAVOK 18/10 Q1011 NOSIG
ZHHH,2021-02-21 14:00,ZHHH 211400Z 00000MPS CAVOK 17/11 Q1012 NOSIG
ZHHH,2021-02-21 15:00,ZHHH 211500Z 00000MPS CAVOK 16/10 Q1012 NOSIG
ZHHH,2021-02-21 16:00,ZHHH 211600Z 00000MPS CAVOK 16/10 Q1013 NOSIG
ZHHH,2021-02-21 17:00,ZHHH 211700Z 10002MPS CAVOK 16/11 Q1013 NOSIG
ZHHH,2021-02-21 18:00,ZHHH 211800Z 08002MPS CAVOK 15/10 Q1012 NOSIG
ZHHH,2021-02-21 19:00,ZHHH 211900Z VRB01MPS CAVOK 15/10 Q1012 NOSIG
ZHHH,2021-02-21 20:00,ZHHH 212000Z VRB01MPS CAVOK 16/10 Q1012 NOSIG
ZHHH,2021-02-21 21:00,ZHHH 212100Z 05002MPS CAVOK 15/10 Q1012 NOSIG
ZHHH,2021-02-21 22:00,ZHHH 212200Z 04002MPS 320V110 CAVOK 14/10 Q1013 NOSIG
ZHHH,2021-02-21 23:00,ZHHH 212300Z 07002MPS CAVOK 14/09 Q1014 NOSIG
ZHHH,2021-02-22 00:00,ZHHH 220000Z VRB01MPS CAVOK 15/09 Q1015 NOSIG
ZHHH,2021-02-22 01:00,ZHHH 220100Z 11003MPS 060V140 CAVOK 18/10 Q1015 NOSIG
ZHHH,2021-02-22 02:00,ZHHH 220200Z 10002MPS 050V140 8000 NSC 21/10 Q1016 NOSIG
ZHHH,2021-02-22 03:00,ZHHH 220300Z 10002MPS 070V130 8000 NSC 23/10 Q1015 NOSIG
ZHHH,2021-02-22 04:00,ZHHH 220400Z VRB01MPS CAVOK 25/12 Q1015 NOSIG
ZHHH,2021-02-22 05:00,ZHHH 220500Z 08002MPS 020V120 CAVOK 26/11 Q1014 NOSIG
ZHHH,2021-02-22 06:00,ZHHH 220600Z VRB02MPS CAVOK 27/11 Q1013 NOSIG
ZHHH,2021-02-22 07:00,ZHHH 220700Z 28002MPS 240V320 CAVOK 27/13 Q1013 NOSIG
ZHHH,2021-02-22 08:00,ZHHH 220800Z 26002MPS 230V310 CAVOK 28/11 Q1013 NOSIG
ZHHH,2021-02-22 09:00,ZHHH 220900Z VRB01MPS CAVOK 28/11 Q1013 NOSIG
ZHHH,2021-02-22 10:00,ZHHH 221000Z 00000MPS CAVOK 25/10 Q1014 NOSIG
ZHHH,2021-02-22 11:00,ZHHH 221100Z 04005MPS 350V060 CAVOK 23/04 Q1015 NOSIG
ZHHH,2021-02-22 12:00,ZHHH 221200Z 04004MPS 360V060 CAVOK 21/06 Q1016 NOSIG
ZHHH,2021-02-22 13:00,ZHHH 221300Z 04006MPS CAVOK 20/08 Q1016 NOSIG
ZHHH,2021-02-22 14:00,ZHHH 221400Z 04006MPS 8000 NSC 18/09 Q1017 NOSIG
ZHHH,2021-02-22 15:00,ZHHH 221500Z 06005MPS 6000 NSC 18/09 Q1018 NOSIG
ZHHH,2021-02-22 16:00,ZHHH 221600Z 04003MPS 7000 NSC 16/07 Q1018 NOSIG
ZHHH,2021-02-22 17:00,ZHHH 221700Z 01002MPS 7000 NSC 15/06 Q1018 NOSIG
ZHHH,2021-02-22 18:00,ZHHH 221800Z 02003MPS 7000 NSC 14/05 Q1019 NOSIG
ZHHH,2021-02-22 19:00,ZHHH 221900Z 04003MPS 6000 NSC 12/05 Q1018 NOSIG
ZHHH,2021-02-22 20:00,ZHHH 222000Z 05003MPS 7000 NSC 12/06 Q1018 NOSIG
ZHHH,2021-02-22 21:00,ZHHH 222100Z 02002MPS 7000 NSC 11/05 Q1018 NOSIG
ZHHH,2021-02-22 22:00,ZHHH 222200Z 01002MPS 340V040 7000 NSC 11/05 Q1018 NOSIG
ZHHH,2021-02-22 23:00,ZHHH 222300Z 04003MPS 6000 NSC 10/05 Q1018 NOSIG
ZHHH,2021-02-23 00:00,ZHHH 230000Z 04004MPS 8000 NSC 11/05 Q1019 NOSIG
ZHHH,2021-02-23 01:00,ZHHH 230100Z 05004MPS CAVOK 13/04 Q1020 NOSIG
ZHHH,2021-02-23 02:00,ZHHH 230200Z 06004MPS 9000 NSC 15/05 Q1019 NOSIG
ZHHH,2021-02-23 03:00,ZHHH 230300Z 07004MPS 030V110 9000 NSC 17/06 Q1019 NOSIG
ZHHH,2021-02-23 04:00,ZHHH 230400Z 06003MPS 350V110 7000 NSC 18/06 Q1018 NOSIG
ZHHH,2021-02-23 05:00,ZHHH 230500Z 04003MPS 340V120 7000 NSC 19/06 Q1017 NOSIG
ZHHH,2021-02-23 06:00,ZHHH 230600Z 08004MPS 050V120 7000 NSC 20/07 Q1016 NOSIG
ZHHH,2021-02-23 07:00,ZHHH 230700Z 10003MPS 060V160 9000 NSC 21/08 Q1015 NOSIG
ZHHH,2021-02-23 08:00,ZHHH 230800Z 12003MPS 080V150 9000 NSC 20/08 Q1015 NOSIG
ZHHH,2021-02-23 09:00,ZHHH 230900Z 01002MPS 9000 NSC 20/08 Q1014 NOSIG
ZHHH,2021-02-23 10:00,ZHHH 231000Z 01002MPS 320V050 CAVOK 18/07 Q1015 NOSIG
ZHHH,2021-02-23 11:00,ZHHH 231100Z 34002MPS 270V360 9999 SCT040 17/08 Q1015 NOSIG
ZHHH,2021-02-23 12:00,ZHHH 231200Z 03002MPS 9999 SCT026 16/06 Q1016 NOSIG
ZHHH,2021-02-23 13:00,ZHHH 231300Z 03003MPS 9999 -RA FEW010 FEW030CB BKN040 16/06 Q1016 NOSIG
ZHHH,2021-02-23 14:00,ZHHH 231400Z 04004MPS 9999 -RA FEW010 FEW030CB BKN040 13/09 Q1016 NOSIG
ZHHH,2021-02-23 15:00,ZHHH 231500Z 02004MPS 9999 -RA FEW010 BKN040 12/08 Q1016 NOSIG
ZHHH,2021-02-23 16:00,ZHHH 231600Z 05004MPS CAVOK 12/09 Q1017 NOSIG
ZHHH,2021-02-23 17:00,ZHHH 231700Z 04004MPS 9999 SCT040 11/08 Q1016 NOSIG
ZHHH,2021-02-23 18:00,ZHHH 231800Z 02003MPS 9999 SCT040 11/07 Q1016 NOSIG
ZHHH,2021-02-23 19:00,ZHHH 231900Z 04003MPS 9999 BKN040 11/08 Q1016 NOSIG
ZHHH,2021-02-23 20:00,ZHHH 232000Z 02003MPS 330V050 CAVOK 11/07 Q1016 NOSIG
ZHHH,2021-02-23 21:00,ZHHH 232100Z 04003MPS CAVOK 11/07 Q1016 NOSIG
ZHHH,2021-02-23 22:00,ZHHH 232200Z 03003MPS 360V060 CAVOK 10/07 Q1016 NOSIG
ZHHH,2021-02-23 23:00,ZHHH 232300Z 04005MPS 350V060 9000 NSC 10/06 Q1017 NOSIG
ZHHH,2021-02-24 00:00,ZHHH 240000Z 04006MPS 360V060 CAVOK 09/06 Q1017 NOSIG
ZHHH,2021-02-24 01:00,ZHHH 240100Z 03004MPS 350V050 CAVOK 10/06 Q1018 NOSIG
ZHHH,2021-02-24 02:00,ZHHH 240200Z 04004MPS 360V060 CAVOK 11/06 Q1018 NOSIG
ZHHH,2021-02-24 03:00,ZHHH 240300Z 02004MPS 320V050 9000 -RA NSC 11/07 Q1016 NOSIG
ZHHH,2021-02-24 04:00,ZHHH 240400Z 04003MPS 340V060 9000 NSC 13/07 Q1016 NOSIG
ZHHH,2021-02-24 05:00,ZHHH 240500Z 02003MPS 310V060 CAVOK 14/07 Q1014 NOSIG
ZHHH,2021-02-24 06:00,ZHHH 240600Z 04003MPS 330V090 CAVOK 14/07 Q1013 NOSIG
ZHHH,2021-02-24 07:00,ZHHH 240700Z 03003MPS 350V060 CAVOK 15/07 Q1012 NOSIG
ZHHH,2021-02-24 08:00,ZHHH 240800Z 03003MPS 320V050 CAVOK 15/07 Q1012 NOSIG
ZHHH,2021-02-24 09:00,ZHHH 240900Z 02003MPS 350V050 CAVOK 14/07 Q1012 NOSIG
ZHHH,2021-02-24 10:00,ZHHH 241000Z 03005MPS CAVOK 12/06 Q1012 NOSIG
ZHHH,2021-02-24 11:00,ZHHH 241100Z 04005MPS 9999 SCT040 11/06 Q1012 NOSIG
ZHHH,2021-02-24 12:00,ZHHH 241200Z 03004MPS 9999 FEW040 10/06 Q1013 NOSIG
ZHHH,2021-02-24 13:00,ZHHH 241300Z 03003MPS 360V060 8000 NSC 10/06 Q1013 NOSIG
ZHHH,2021-02-24 14:00,ZHHH 241400Z 01003MPS 340V050 8000 -RA OVC046 09/06 Q1013 NOSIG
ZHHH,2021-02-24 15:00,ZHHH 241500Z 35004MPS 310V020 7000 OVC040 09/07 Q1014 BECMG TL1550 TSRA SCT030CB
ZHHH,2021-02-24 16:00,ZHHH 241600Z 33004MPS 280V020 5000 -TSRA BR FEW011 SCT026CB 08/08 Q1014 BECMG TL1640 TSRA
ZHHH,2021-02-24 17:00,ZHHH 241700Z 01005MPS 340V040 3500 +TSRA BR SCT006 SCT020CB 07/07 Q1014 BECMG TL1740 TSRA
ZHHH,2021-02-24 18:00,ZHHH 241800Z 02005MPS 350V050 6000 -RA OVC009 07/07 Q1014 RETSRA NOSIG
ZHHH,2021-02-24 19:00,ZHHH 241900Z 02004MPS 340V040 7000 RA OVC011 07/07 Q1015 NOSIG
ZHHH,2021-02-24 20:00,ZHHH 242000Z 36005MPS 330V030 9999 -RA SCT008 SCT011 OVC023 06/06 Q1015 RERA NOSIG
ZHHH,2021-02-24 21:00,ZHHH 242100Z 03005MPS 360V060 8000 -RA SCT008 OVC030 05/05 Q1015 RERA BECMG TL2120 RA
ZHHH,2021-02-24 22:00,ZHHH 242200Z 03006MPS 350V050 9999 -RA SCT008 OVC030 05/04 Q1015 NOSIG
ZHHH,2021-02-24 23:00,ZHHH 242300Z 03005MPS 360V060 9999 SCT014 OVC030 05/05 Q1016 NOSIG
ZHHH,2021-02-25 00:00,ZHHH 250000Z 01004MPS 330V050 9999 SCT015 OVC040 05/04 Q1017 NOSIG
ZHHH,2021-02-25 01:00,ZHHH 250100Z 02004MPS 340V040 6000 -RA SCT014 OVC040 05/05 Q1018 NOSIG
ZHHH,2021-02-25 02:00,ZHHH 250200Z 02004MPS 350V060 9999 SCT015 OVC033 06/04 Q1018 NOSIG
ZHHH,2021-02-25 03:00,ZHHH 250300Z 02003MPS 330V060 9999 -RA SCT015 OVC040 06/04 Q1019 NOSIG
ZHHH,2021-02-25 04:00,ZHHH 250400Z 34004MPS 320V020 9999 SCT016 OVC040 06/05 Q1018 NOSIG
ZHHH,2021-02-25 05:00,ZHHH 250500Z 35004MPS 310V030 8000 FEW011 SCT016 OVC040 06/05 Q1018 NOSIG
ZHHH,2021-02-25 06:00,ZHHH 250600Z 02005MPS 7000 FEW011 SCT016 OVC040 06/04 Q1017 NOSIG
ZHHH,2021-02-25 07:00,ZHHH 250700Z 01005MPS 330V040 5000 BR FEW011 SCT016 OVC040 05/04 Q1017 NOSIG
ZHHH,2021-02-25 08:00,ZHHH 250800Z 02004MPS 340V050 5000 BR FEW011 SCT016 OVC040 05/04 Q1017 NOSIG
ZHHH,2021-02-25 09:00,ZHHH 250900Z 02005MPS 350V050 2800 -RA BR SCT011 SCT016 OVC040 05/04 Q1018 BECMG TL0950 3000
ZHHH,2021-02-25 10:00,ZHHH 251000Z 02004MPS 6000 -RA SCT011 OVC040 05/04 Q1018 NOSIG
ZHHH,2021-02-25 11:00,ZHHH 251100Z 02005MPS 350V060 9999 SCT013 OVC040 05/04 Q1018 NOSIG
ZHHH,2021-02-25 12:00,ZHHH 251200Z 03005MPS 9999 SCT013 OVC040 05/04 Q1018 NOSIG
ZHHH,2021-02-25 13:00,ZHHH 251300Z 02005MPS 350V060 9999 SCT015 OVC040 05/03 Q1019 NOSIG
ZHHH,2021-02-25 14:00,ZHHH 251400Z 02004MPS 350V050 9999 SCT015 OVC040 05/04 Q1019 NOSIG
ZHHH,2021-02-25 15:00,ZHHH 251500Z 01003MPS 330V040 9999 SCT013 OVC040 05/05 Q1019 NOSIG
ZHHH,2021-02-25 16:00,ZHHH 251600Z 35004MPS 320V020 9999 -RA SCT013 OVC040 05/05 Q1019 NOSIG
ZHHH,2021-02-25 17:00,ZHHH 251700Z 35004MPS 320V020 5000 -RA BR SCT005 OVC033 05/05 Q1020 NOSIG
ZHHH,2021-02-25 18:00,ZHHH 251800Z 35004MPS 320V020 5000 -RA BR SCT005 SCT010 OVC033 05/05 Q1020 NOSIG
ZHHH,2021-02-25 19:00,ZHHH 251900Z 36003MPS 330V040 7000 -RA BKN005 OVC026 05/05 Q1020 NOSIG
ZHHH,2021-02-25 20:00,ZHHH 252000Z 04005MPS 7000 -RA FEW005 SCT010 OVC040 05/05 Q1018 NOSIG
ZHHH,2021-02-25 21:00,ZHHH 252100Z 02004MPS 350V050 9999 -RA SCT006 SCT010 OVC040 04/04 Q1019 NOSIG
ZHHH,2021-02-25 22:00,ZHHH 252200Z 01004MPS 340V040 9999 -RA SCT008 SCT012 OVC040 04/04 Q1020 NOSIG
ZHHH,2021-02-25 23:00,ZHHH 252300Z 35003MPS 320V020 9999 -RA SCT008 SCT012 OVC040 04/04 Q1020 NOSIG
ZHHH,2021-02-26 00:00,ZHHH 260000Z 36002MPS 320V030 9999 SCT009 SCT016 OVC040 04/04 Q1021 NOSIG
ZHHH,2021-02-26 01:00,ZHHH 260100Z 01003MPS 330V060 9999 SCT013 04/03 Q1022 NOSIG
ZHHH,2021-02-26 02:00,ZHHH 260200Z 03003MPS 350V050 9999 SCT013 OVC040 05/04 Q1022 NOSIG
ZHHH,2021-02-26 03:00,ZHHH 260300Z 02003MPS 340V050 9999 SCT013 OVC040 06/04 Q1022 NOSIG
ZHHH,2021-02-26 04:00,ZHHH 260400Z 04005MPS 9999 SCT014 07/05 Q1022 NOSIG
ZHHH,2021-02-26 05:00,ZHHH 260500Z 01003MPS 320V050 9999 SCT014 BKN030 07/05 Q1021 NOSIG
ZHHH,2021-02-26 06:00,ZHHH 260600Z 02003MPS 330V050 9999 SCT020 BKN030 07/05 Q1021 NOSIG
ZHHH,2021-02-26 07:00,ZHHH 260700Z 02003MPS 340V050 9999 SCT020 OVC040 08/05 Q1020 NOSIG
ZHHH,2021-02-26 08:00,ZHHH 260800Z 03004MPS 340V050 9999 SCT015 OVC040 07/05 Q1020 NOSIG
ZHHH,2021-02-26 09:00,ZHHH 260900Z 02003MPS 330V050 8000 SCT015 OVC040 07/05 Q1020 NOSIG
ZHHH,2021-02-26 10:00,ZHHH 261000Z 03003MPS 360V060 7000 SCT015 OVC040 07/05 Q1020 NOSIG
ZHHH,2021-02-26 11:00,ZHHH 261100Z 02003MPS 350V050 6000 BKN011 OVC033 06/05 Q1021 NOSIG
ZHHH,2021-02-26 12:00,ZHHH 261200Z 03003MPS 350V050 6000 SCT011 SCT016 OVC033 06/05 Q1021 NOSIG
ZHHH,2021-02-26 13:00,ZHHH 261300Z 02003MPS 350V050 6000 SCT015 OVC030 06/05 Q1022 NOSIG
ZHHH,2021-02-26 14:00,ZHHH 261400Z 01003MPS 340V040 5000 BR SCT015 OVC030 06/05 Q1022 BECMG TL1415 RA
ZHHH,2021-02-26 15:00,ZHHH 261500Z 36002MPS 320V040 5000 -SHRA BR SCT015 OVC025 06/05 Q1022 NOSIG
ZHHH,2021-02-26 16:00,ZHHH 261600Z 03002MPS 360V060 5000 BR FEW015 OVC025 06/05 Q1022 NOSIG
ZHHH,2021-02-26 17:00,ZHHH 261700Z 02003MPS 340V060 5000 BR OVC025 06/05 Q1022 NOSIG
ZHHH,2021-02-26 18:00,ZHHH 261800Z 02002MPS 340V050 5000 BR OVC027 06/05 Q1022 NOSIG
ZHHH,2021-02-26 19:00,ZHHH 261900Z 03002MPS 350V060 5000 BR OVC040 06/05 Q1022 NOSIG
ZHHH,2021-02-26 20:00,ZHHH 262000Z 02002MPS 340V060 5000 BR OVC040 06/05 Q1022 NOSIG
ZHHH,2021-02-26 21:00,ZHHH 262100Z 02002MPS 350V060 5000 BR OVC040 06/05 Q1022 NOSIG
ZHHH,2021-02-26 22:00,ZHHH 262200Z 03002MPS 5000 BR OVC040 06/05 Q1022 NOSIG
ZHHH,2021-02-26 23:00,ZHHH 262300Z 03002MPS 360V060 3000 BR NSC 06/05 Q1022 NOSIG
ZHHH,2021-02-27 00:00,ZHHH 270000Z 05003MPS 3500 BR NSC 06/06 Q1022 NOSIG
ZHHH,2021-02-27 01:00,ZHHH 270100Z 04002MPS 010V080 3500 BR SCT011 07/06 Q1023 NOSIG
ZHHH,2021-02-27 02:00,ZHHH 270200Z 09002MPS 020V140 4200 BR SCT011 08/06 Q1023 NOSIG
ZHHH,2021-02-27 03:00,ZHHH 270300Z VRB02MPS 4800 BR FEW016 09/06 Q1023 NOSIG
ZHHH,2021-02-27 04:00,ZHHH 270400Z 28002MPS 240V350 5000 BR SCT020 09/06 Q1022 NOSIG
ZHHH,2021-02-27 05:00,ZHHH 270500Z 28002MPS 250V330 5000 HZ SCT020 10/06 Q1021 NOSIG
ZHHH,2021-02-27 06:00,ZHHH 270600Z 27002MPS 220V340 5000 HZ FEW020 SCT030 11/06 Q1020 NOSIG
ZHHH,2021-02-27 07:00,ZHHH 270700Z 32002MPS 250V360 5000 HZ FEW020 SCT033 11/07 Q1020 NOSIG
ZHHH,2021-02-27 08:00,ZHHH 270800Z 28002MPS 240V320 4500 HZ FEW020 SCT033 11/06 Q1019 NOSIG
ZHHH,2021-02-27 09:00,ZHHH 270900Z VRB01MPS 4500 HZ FEW015 SCT020 11/06 Q1020 NOSIG
ZHHH,2021-02-27 10:00,ZHHH 271000Z VRB01MPS 5000 HZ SCT020 11/06 Q1019 NOSIG
ZHHH,2021-02-27 11:00,ZHHH 271100Z VRB01MPS 8000 BKN033 11/07 Q1020 NOSIG
ZHHH,2021-02-27 12:00,ZHHH 271200Z VRB01MPS 7000 BKN033 10/08 Q1020 NOSIG
ZHHH,2021-02-27 13:00,ZHHH 271300Z 33001MPS 8000 OVC026 11/08 Q1021 NOSIG
ZHHH,2021-02-27 14:00,ZHHH 271400Z VRB01MPS 8000 OVC026 10/08 Q1021 NOSIG
ZHHH,2021-02-27 15:00,ZHHH 271500Z 03002MPS 6000 FEW007 OVC026 10/08 Q1021 NOSIG
ZHHH,2021-02-27 16:00,ZHHH 271600Z 06004MPS 4500 BR OVC025 09/08 Q1020 NOSIG
ZHHH,2021-02-27 17:00,ZHHH 271700Z 06004MPS 4500 BR OVC023 09/07 Q1020 NOSIG
ZHHH,2021-02-27 18:00,ZHHH 271800Z 06005MPS 3800 -RA BR OVC020 09/08 Q1019 NOSIG
ZHHH,2021-02-27 19:00,ZHHH 271900Z 06004MPS 3500 -RA BR FEW010 OVC026 08/08 Q1019 NOSIG
ZHHH,2021-02-27 20:00,ZHHH 272000Z 10002MPS 060V120 3500 -RA BR FEW010 OVC033 08/08 Q1019 NOSIG
ZHHH,2021-02-27 21:00,ZHHH 272100Z 02001MPS 3000 -RA BR SCT005 OVC026 08/08 Q1018 BECMG TL2250 2800
ZHHH,2021-02-27 22:00,ZHHH 272200Z 05004MPS 2800 -RA BR FEW005 SCT009 OVC026 08/08 Q1018 NOSIG
ZHHH,2021-02-27 23:00,ZHHH 272300Z 05004MPS 2000 R04L/1400D R04R/P2000 -RA BR FEW005 SCT009 OVC026 08/08 Q1018 NOSIG
ZHHH,2021-02-28 00:00,ZHHH 280000Z 10003MPS 060V120 2000 -RA BR SCT010 OVC033 09/09 Q1018 BECMG TL0150 3000
ZHHH,2021-02-28 01:00,ZHHH 280100Z 06004MPS 1700 -RA BR FEW005 SCT010 OVC033 08/08 Q1018 BECMG TL0220 1400
ZHHH,2021-02-28 02:00,ZHHH 280200Z 06004MPS 1700 -RA BR SCT005 SCT010 OVC023 09/09 Q1018 NOSIG
ZHHH,2021-02-28 03:00,ZHHH 280300Z 11004MPS 1700 -RA BR SCT005 SCT010 OVC023 09/09 Q1018 NOSIG
ZHHH,2021-02-28 04:00,ZHHH 280400Z 11003MPS 060V130 1400 R04L/P2000 R04R/1800D -RA BR SCT004 SCT006 OVC040 10/10 Q1017 BECMG TL0450 2000
ZHHH,2021-02-28 05:00,ZHHH 280500Z 07002MPS 030V110 1700 BR SCT004 SCT006 OVC040 10/10 Q1016 NOSIG
ZHHH,2021-02-28 06:00,ZHHH 280600Z VRB01MPS 1700 -RA BR SCT005 SCT010 OVC033 10/10 Q1015 BECMG TL0740 1400
ZHHH,2021-02-28 07:00,ZHHH 280700Z VRB01MPS 1000 R04L/1400U R04R/1800U -RA BR SCT003 SCT004 OVC033 10/10 Q1015 BECMG TL0840 1600
ZHHH,2021-02-28 08:00,ZHHH 280800Z VRB01MPS 1000 R04L/1800U R04R/P2000 -RA BR OVC004 10/10 Q1014 BECMG TL0950 1600
ZHHH,2021-02-28 09:00,ZHHH 280900Z 35002MPS 1500 -RA BR SCT003 SCT006 OVC026 10/10 Q1014 NOSIG
ZHHH,2021-02-28 10:00,ZHHH 281000Z 01002MPS 340V040 1500 -RA BR SCT003 SCT006 OVC026 10/10 Q1014 NOSIG
ZHHH,2021-02-28 11:00,ZHHH 281100Z VRB01MPS 2000 -SHRA BR SCT003 SCT004 OVC020 10/10 Q1014 RETS BECMG TL1220 3000
ZHHH,2021-02-28 12:00,ZHHH 281200Z 03003MPS 320V070 2500 -SHRA BR SCT003 SCT004 OVC020 10/10 Q1014 BECMG TL1320 3000
ZHHH,2021-02-28 13:00,ZHHH 281300Z VRB02MPS 2500 SHRA BR SCT003 SCT004 OVC020 10/10 Q1016 BECMG TL1420 -RA
ZHHH,2021-02-28 14:00,ZHHH 281400Z VRB01MPS 3500 -SHRA BR SCT003 SCT004 OVC020 10/10 Q1016 RESHRA NOSIG
ZHHH,2021-02-28 15:00,ZHHH 281500Z 34002MPS 280V020 4000 -SHRA BR SCT003 SCT004 OVC020 10/10 Q1017 NOSIG
ZHHH,2021-02-28 16:00,ZHHH 281600Z 33002MPS 270V040 3000 -SHRA BR SCT003 SCT004 OVC020 10/10 Q1018 NOSIG
ZHHH,2021-02-28 17:00,ZHHH 281700Z 33003MPS 270V070 8000 -RA SCT005 OVC026 09/09 Q1018 NOSIG
ZHHH,2021-02-28 18:00,ZHHH 281800Z 34004MPS 300V020 8000 -RA SCT005 OVC026 09/09 Q1018 NOSIG
ZHHH,2021-02-28 19:00,ZHHH 281900Z 34004MPS 8000 -RA SCT004 OVC030 09/09 Q1018 NOSIG
ZHHH,2021-02-28 20:00,ZHHH 282000Z 35003MPS 320V030 8000 -RA SCT005 SCT007 OVC030 09/09 Q1018 NOSIG
ZHHH,2021-02-28 21:00,ZHHH 282100Z 35003MPS 320V020 6000 -RA SCT004 OVC040 09/09 Q1018 NOSIG
ZHHH,2021-02-28 22:00,ZHHH 282200Z 34002MPS 290V020 6000 -RA FEW006 SCT015 OVC040 09/09 Q1019 NOSIG
ZHHH,2021-02-28 23:00,ZHHH 282300Z 34003MPS 300V030 7000 -RA FEW010 SCT020 OVC033 09/09 Q1020 NOSIG
ZHHH,2021-03-01 00:00,ZHHH 010000Z 34004MPS 310V010 5000 -RA BR FEW009 SCT020 OVC033 09/09 Q1021 NOSIG
ZHHH,2021-03-01 01:00,ZHHH 010100Z 34003MPS 300V030 3500 -RA BR FEW007 OVC033 09/09 Q1023 NOSIG
ZHHH,2021-03-01 02:00,ZHHH 010200Z 34005MPS 310V030 6000 -RA SCT009 OVC040 09/09 Q1024 NOSIG
ZHHH,2021-03-01 03:00,ZHHH 010300Z 34005MPS 300V010 8000 -RA SCT009 09/09 Q1024 NOSIG
ZHHH,2021-03-01 04:00,ZHHH 010400Z 35005MPS 310V020 9999 -RA SCT013 OVC040 09/08 Q1025 NOSIG
ZHHH,2021-03-01 05:00,ZHHH 010500Z 35004MPS 300V030 9999 -RA SCT013 09/08 Q1025 NOSIG
ZHHH,2021-03-01 06:00,ZHHH 010600Z 34004MPS 310V020 9999 -RA SCT011 BKN020 09/08 Q1024 NOSIG
ZHHH,2021-03-01 07:00,ZHHH 010700Z 35004MPS 320V030 9999 -RA SCT014 BKN020 09/07 Q1025 NOSIG
ZHHH,2021-03-01 08:00,ZHHH 010800Z 35006MPS 310V010 9999 BKN025 09/06 Q1025 NOSIG
ZHHH,2021-03-01 09:00,ZHHH 010900Z 36005MPS 320V040 9999 -RA BKN022 08/05 Q1026 NOSIG
ZHHH,2021-03-01 10:00,ZHHH 011000Z 02004MPS 350V060 9999 SCT022 08/05 Q1027 NOSIG
ZHHH,2021-03-01 11:00,ZHHH 011100Z 02003MPS 9999 SCT026 07/05 Q1028 NOSIG
ZHHH,2021-03-01 12:00,ZHHH 011200Z 05004MPS 9999 BKN026 07/05 Q1029 NOSIG
ZHHH,2021-03-01 13:00,ZHHH 011300Z 04003MPS 360V060 9999 SCT026 06/05 Q1029 NOSIG
ZHHH,2021-03-01 14:00,ZHHH 011400Z 03003MPS 360V060 CAVOK 06/04 Q1029 NOSIG
ZHHH,2021-03-01 15:00,ZHHH 011500Z 03003MPS 360V060 9999 FEW030 06/04 Q1030 NOSIG
ZHHH,2021-03-01 16:00,ZHHH 011600Z 03002MPS 360V060 CAVOK 06/04 Q1029 NOSIG
ZHHH,2021-03-01 17:00,ZHHH 011700Z 03003MPS 9999 FEW033 05/03 Q1030 NOSIG
ZHHH,2021-03-01 18:00,ZHHH 011800Z 02003MPS 340V050 9999 SCT020 05/03 Q1030 NOSIG
ZHHH,2021-03-01 19:00,ZHHH 011900Z 05003MPS 9999 SCT020 03/03 Q1030 NOSIG
ZHHH,2021-03-01 20:00,ZHHH 012000Z 04002MPS 9999 SCT015 03/03 Q1029 NOSIG
ZHHH,2021-03-01 21:00,ZHHH 012100Z 05003MPS 8000 FEW015 03/02 Q1029 NOSIG
ZHHH,2021-03-01 22:00,ZHHH 012200Z 07002MPS 8000 NSC 02/02 Q1029 NOSIG
ZHHH,2021-03-01 23:00,ZHHH 012300Z 04002MPS 360V080 5000 BR NSC 02/02 Q1029 NOSIG
ZHHH,2021-03-02 00:00,ZHHH 020000Z 00000MPS 6000 NSC 04/03 Q1030 NOSIG
ZHHH,2021-03-02 01:00,ZHHH 020100Z 05003MPS 020V080 8000 NSC 06/03 Q1030 NOSIG
ZHHH,2021-03-02 02:00,ZHHH 020200Z VRB02MPS CAVOK 07/03 Q1031 NOSIG
ZHHH,2021-03-02 03:00,ZHHH 020300Z 26003MPS 240V310 CAVOK 08/04 Q1030 NOSIG
ZHHH,2021-03-02 04:00,ZHHH 020400Z 26002MPS 230V290 CAVOK 09/04 Q1030 NOSIG
ZHHH,2021-03-02 05:00,ZHHH 020500Z 29002MPS 250V030 CAVOK 11/04 Q1028 NOSIG
ZHHH,2021-03-02 06:00,ZHHH 020600Z 26003MPS 240V310 CAVOK 11/03 Q1027 NOSIG
ZHHH,2021-03-02 07:00,ZHHH 020700Z VRB01MPS CAVOK 12/01 Q1026 NOSIG
ZHHH,2021-03-02 08:00,ZHHH 020800Z 13004MPS 070V170 CAVOK 13/02 Q1026 NOSIG
ZHHH,2021-03-02 09:00,ZHHH 020900Z 14003MPS 080V170 CAVOK 13/01 Q1026 NOSIG
ZHHH,2021-03-02 10:00,ZHHH 021000Z 15002MPS 100V200 CAVOK 12/01 Q1026 NOSIG
ZHHH,2021-03-02 11:00,ZHHH 021100Z 18002MPS 130V200 CAVOK 12/02 Q1025 NOSIG
ZHHH,2021-03-02 12:00,ZHHH 021200Z 19002MPS 130V220 CAVOK 11/04 Q1026 NOSIG
ZHHH,2021-03-02 13:00,ZHHH 021300Z VRB01MPS CAVOK 11/05 Q1026 NOSIG
ZHHH,2021-03-02 14:00,ZHHH 021400Z 01002MPS CAVOK 10/06 Q1026 NOSIG
ZHHH,2021-03-02 15:00,ZHHH 021500Z 08003MPS CAVOK 11/05 Q1026 NOSIG
ZHHH,2021-03-02 16:00,ZHHH 021600Z 13002MPS CAVOK 10/06 Q1026 NOSIG
ZHHH,2021-03-02 17:00,ZHHH 021700Z 07002MPS CAVOK 09/07 Q1026 NOSIG
ZHHH,2021-03-02 18:00,ZHHH 021800Z 07002MPS CAVOK 09/07 Q1026 NOSIG
ZHHH,2021-03-02 19:00,ZHHH 021900Z 07002MPS CAVOK 08/06 Q1025 NOSIG
ZHHH,2021-03-02 20:00,ZHHH 022000Z 12002MPS 8000 NSC 09/06 Q1024 NOSIG
ZHHH,2021-03-02 21:00,ZHHH 022100Z 10003MPS 8000 NSC 09/07 Q1024 NOSIG
ZHHH,2021-03-02 22:00,ZHHH 022200Z 09003MPS 7000 NSC 09/07 Q1023 NOSIG
ZHHH,2021-03-02 23:00,ZHHH 022300Z 04002MPS 5000 BR NSC 08/07 Q1024 NOSIG
ZHHH,2021-03-03 00:00,ZHHH 030000Z 05002MPS 6000 NSC 08/06 Q1024 NOSIG
ZHHH,2021-03-03 01:00,ZHHH 030100Z 09002MPS 060V150 6000 NSC 10/07 Q1024 NOSIG
ZHHH,2021-03-03 02:00,ZHHH 030200Z VRB01MPS 6000 NSC 10/06 Q1024 NOSIG
ZHHH,2021-03-03 03:00,ZHHH 030300Z VRB01MPS 6000 NSC 11/06 Q1024 NOSIG
ZHHH,2021-03-03 04:00,ZHHH 030400Z 28002MPS 250V320 6000 NSC 11/06 Q1023 NOSIG
ZHHH,2021-03-03 05:00,ZHHH 030500Z 22002MPS 090V250 7000 NSC 12/06 Q1022 NOSIG
ZHHH,2021-03-03 06:00,ZHHH 030600Z 20003MPS 8000 NSC 12/03 Q1021 NOSIG
ZHHH,2021-03-03 07:00,ZHHH 030700Z 15002MPS 100V200 8000 NSC 12/04 Q1020 NOSIG
ZHHH,2021-03-03 08:00,ZHHH 030800Z 20003MPS 160V230 8000 NSC 12/05 Q1020 NOSIG
ZHHH,2021-03-03 09:00,ZHHH 030900Z 18002MPS 090V240 7000 NSC 12/05 Q1020 NOSIG
ZHHH,2021-03-03 10:00,ZHHH 031000Z 19003MPS 150V220 7000 NSC 12/06 Q1020 NOSIG
ZHHH,2021-03-03 11:00,ZHHH 031100Z 18003MPS 150V210 8000 NSC 11/06 Q1020 NOSIG
ZHHH,2021-03-03 12:00,ZHHH 031200Z 19002MPS 160V220 8000 NSC 11/07 Q1021 NOSIG
ZHHH,2021-03-03 13:00,ZHHH 031300Z 18002MPS 140V210 8000 NSC 10/07 Q1021 NOSIG
ZHHH,2021-03-03 14:00,ZHHH 031400Z VRB01MPS 6000 NSC 09/07 Q1022 NOSIG
ZHHH,2021-03-03 15:00,ZHHH 031500Z 11002MPS 080V140 6000 NSC 09/07 Q1021 NOSIG
ZHHH,2021-03-03 16:00,ZHHH 031600Z 00000MPS 5000 BR NSC 07/07 Q1021 NOSIG
ZHHH,2021-03-03 17:00,ZHHH 031700Z 14002MPS 5000 BR NSC 08/08 Q1022 NOSIG
ZHHH,2021-03-03 18:00,ZHHH 031800Z 14002MPS 5000 BR NSC 07/07 Q1021 NOSIG
ZHHH,2021-03-03 19:00,ZHHH 031900Z 12001MPS 5000 BR NSC 06/06 Q1021 NOSIG
ZHHH,2021-03-03 20:00,ZHHH 032000Z 12001MPS 4000 BR NSC 06/06 Q1020 NOSIG
ZHHH,2021-03-03 21:00,ZHHH 032100Z 12002MPS 4000 BR NSC 06/06 Q1020 BECMG TL2250 1600
ZHHH,2021-03-03 22:00,ZHHH 032200Z 11003MPS 4000 BR NSC 07/07 Q1020 BECMG TL2320 1200
ZHHH,2021-03-03 23:00,ZHHH 032300Z 11003MPS 2500 BR NSC 07/07 Q1020 NOSIG
ZHHH,2021-03-04 00:00,ZHHH 040000Z 11003MPS 2500 BR NSC 09/08 Q1021 BECMG TL0100 3000
ZHHH,2021-03-04 01:00,ZHHH 040100Z 12002MPS 080V160 3400 BR NSC 11/09 Q1021 NOSIG
ZHHH,2021-03-04 02:00,ZHHH 040200Z 15002MPS 090V210 5000 BR NSC 13/09 Q1021 NOSIG
ZHHH,2021-03-04 03:00,ZHHH 040300Z VRB02MPS 7000 SCT020 14/08 Q1021 NOSIG
ZHHH,2021-03-04 04:00,ZHHH 040400Z 23002MPS 170V280 8000 SCT020 14/08 Q1021 NOSIG
ZHHH,2021-03-04 05:00,ZHHH 040500Z 19003MPS 140V230 8000 FEW026 16/08 Q1020 NOSIG
ZHHH,2021-03-04 06:00,ZHHH 040600Z VRB03MPS CAVOK 16/07 Q1018 NOSIG
ZHHH,2021-03-04 07:00,ZHHH 040700Z VRB02MPS CAVOK 17/07 Q1018 NOSIG
ZHHH,2021-03-04 08:00,ZHHH 040800Z 13003MPS 070V170 CAVOK 17/06 Q1017 NOSIG
ZHHH,2021-03-04 09:00,ZHHH 040900Z 16002MPS 060V200 CAVOK 17/06 Q1017 NOSIG
ZHHH,2021-03-04 10:00,ZHHH 041000Z 11003MPS 8000 NSC 16/07 Q1017 NOSIG
ZHHH,2021-03-04 11:00,ZHHH 041100Z 08004MPS 040V100 CAVOK 15/05 Q1017 NOSIG
ZHHH,2021-03-04 12:00,ZHHH 041200Z 08004G09MPS 020V100 CAVOK 14/07 Q1017 NOSIG
ZHHH,2021-03-04 13:00,ZHHH 041300Z 14002MPS 110V180 CAVOK 14/07 Q1018 NOSIG
ZHHH,2021-03-04 14:00,ZHHH 041400Z 09003MPS 040V130 CAVOK 14/07 Q1018 NOSIG
ZHHH,2021-03-04 15:00,ZHHH 041500Z 10004MPS CAVOK 14/08 Q1018 NOSIG
ZHHH,2021-03-04 16:00,ZHHH 041600Z 11003MPS 080V140 CAVOK 13/08 Q1018 NOSIG
ZHHH,2021-03-04 17:00,ZHHH 041700Z 10005MPS CAVOK 13/07 Q1017 NOSIG
ZHHH,2021-03-04 18:00,ZHHH 041800Z 10005MPS CAVOK 13/07 Q1017 NOSIG
ZHHH,2021-03-04 19:00,ZHHH 041900Z 10005MPS CAVOK 12/07 Q1017 NOSIG
ZHHH,2021-03-04 20:00,ZHHH 042000Z 10005MPS CAVOK 12/07 Q1016 NOSIG
ZHHH,2021-03-04 21:00,ZHHH 042100Z 10005MPS CAVOK 12/08 Q1016 NOSIG
ZHHH,2021-03-04 22:00,ZHHH 042200Z 12005MPS CAVOK 12/07 Q1016 NOSIG
ZHHH,2021-03-04 23:00,ZHHH 042300Z 10005MPS CAVOK 12/08 Q1015 NOSIG
ZHHH,2021-03-05 00:00,ZHHH 050000Z 11005MPS CAVOK 12/08 Q1016 NOSIG
ZHHH,2021-03-05 01:00,ZHHH 050100Z 11003MPS 080V140 3500 -RA BR SCT015 11/10 Q1017 NOSIG
ZHHH,2021-03-05 02:00,ZHHH 050200Z 12003MPS 080V140 3000 SHRA BR SCT015 11/11 Q1017 BECMG TL0320 -RA
ZHHH,2021-03-05 03:00,ZHHH 050300Z 13003MPS 090V160 3000 -RA BR FEW010 OVC040 11/11 Q1017 RESHRA NOSIG
ZHHH,2021-03-05 04:00,ZHHH 050400Z 10002MPS 2500 -RA BR SCT008 OVC033 11/11 Q1017 BECMG TL0550 3000
ZHHH,2021-03-05 05:00,ZHHH 050500Z 10002MPS 070V140 4000 -RA BR FEW007 OVC033 11/11 Q1015 NOSIG
ZHHH,2021-03-05 06:00,ZHHH 050600Z VRB01MPS 4000 BR SCT007 OVC033 12/12 Q1015 NOSIG
ZHHH,2021-03-05 07:00,ZHHH 050700Z 02002MPS 5000 BR SCT009 OVC033 12/11 Q1014 NOSIG
ZHHH,2021-03-05 08:00,ZHHH 050800Z 02002MPS 330V070 3000 -RA BR SCT006 OVC033 12/12 Q1014 BECMG TL0850 2500
ZHHH,2021-03-05 09:00,ZHHH 050900Z 08002MPS 2500 -DZ BR FEW005 SCT007 OVC033 12/12 Q1015 BECMG TL1040 3000
ZHHH,2021-03-05 10:00,ZHHH 051000Z 11002MPS 060V140 2200 -DZ BR FEW005 SCT007 OVC033 12/12 Q1015 BECMG TL1120 3000
ZHHH,2021-03-05 11:00,ZHHH 051100Z 02002MPS 340V060 2500 -RA BR BKN004 OVC033 11/11 Q1016 BECMG TL1240 3000
ZHHH,2021-03-05 12:00,ZHHH 051200Z 03002MPS 360V060 2500 BR BKN004 OVC033 11/11 Q1016 BECMG TL1320 3000
ZHHH,2021-03-05 13:00,ZHHH 051300Z 04002MPS 020V080 4000 BR BKN004 OVC033 11/11 Q1017 NOSIG
ZHHH,2021-03-05 14:00,ZHHH 051400Z 03002MPS 4000 -RA BR BKN004 OVC033 11/11 Q1017 NOSIG
ZHHH,2021-03-05 15:00,ZHHH 051500Z VRB01MPS 4000 -RA BR SCT004 SCT008 OVC033 11/11 Q1018 NOSIG
ZHHH,2021-03-05 16:00,ZHHH 051600Z 36001MPS 3000 -RA BR SCT004 SCT008 OVC033 11/11 Q1018 BECMG TL1720 2500
ZHHH,2021-03-05 17:00,ZHHH 051700Z VRB01MPS 4000 -RA BR FEW003 SCT007 OVC033 11/11 Q1018 NOSIG
ZHHH,2021-03-05 18:00,ZHHH 051800Z 30002MPS 240V360 3000 -RA BR SCT003 SCT007 OVC033 11/11 Q1018 NOSIG
ZHHH,2021-03-05 19:00,ZHHH 051900Z 01002MPS 330V030 3000 -RA BR SCT003 OVC030 11/11 Q1018 NOSIG
ZHHH,2021-03-05 20:00,ZHHH 052000Z 01003MPS 340V040 8000 SCT005 OVC030 11/11 Q1018 NOSIG
ZHHH,2021-03-05 21:00,ZHHH 052100Z 03004MPS 360V060 5000 -RA BR SCT007 OVC030 11/11 Q1019 NOSIG
ZHHH,2021-03-05 22:00,ZHHH 052200Z 04005MPS 3500 -RA BR SCT007 OVC030 11/11 Q1020 NOSIG
ZHHH,2021-03-05 23:00,ZHHH 052300Z 04007MPS 5000 BR SCT030 11/10 Q1021 NOSIG
ZHHH,2021-03-06 00:00,ZHHH 060000Z 04005MPS 2500 -RA BR SCT010 OVC030 10/10 Q1022 BECMG TL0140 3000
ZHHH,2021-03-06 01:00,ZHHH 060100Z 04006G11MPS 2100 -RA BR SCT011 OVC030 10/09 Q1023 BECMG TL0250 3000
ZHHH,2021-03-06 02:00,ZHHH 060200Z 02006MPS 350V050 1800 R04L/P2000 R04R/1000D -RA BR SCT009 OVC030 08/07 Q1024 BECMG TL0240 1200
ZHHH,2021-03-06 03:00,ZHHH 060300Z 02006MPS 3000 -RA BR SCT010 OVC030 08/07 Q1025 NOSIG
ZHHH,2021-03-06 04:00,ZHHH 060400Z 02005MPS 340V050 3000 -RA BR SCT010 OVC040 08/07 Q1025 NOSIG
ZHHH,2021-03-06 05:00,ZHHH 060500Z 02005MPS 350V050 2500 -RA BR SCT010 OVC040 07/07 Q1025 BECMG TL0640 3000
ZHHH,2021-03-06 06:00,ZHHH 060600Z 02005MPS 350V050 1500 R04L/P2000 R04R/1100V1400N -RA BR SCT006 OVC033 07/07 Q1025 BECMG TL0740 3000
ZHHH,2021-03-06 07:00,ZHHH 060700Z 02005G10MPS 2500 -RA BR FEW006 SCT009 OVC033 07/07 Q1025 BECMG TL0740 3000
ZHHH,2021-03-06 08:00,ZHHH 060800Z 02006MPS 350V050 4500 -RA BR SCT011 OVC033 07/06 Q1025 NOSIG
ZHHH,2021-03-06 09:00,ZHHH 060900Z 02006MPS 5000 -RA BR SCT011 OVC040 07/06 Q1025 NOSIG
ZHHH,2021-03-06 10:00,ZHHH 061000Z 02006MPS 350V050 6000 SCT007 OVC040 06/05 Q1026 NOSIG
ZHHH,2021-03-06 11:00,ZHHH 061100Z 01005MPS 350V050 8000 SCT007 OVC040 06/04 Q1027 NOSIG
ZHHH,2021-03-06 12:00,ZHHH 061200Z 01004MPS 340V050 9000 SCT010 05/04 Q1028 NOSIG
ZHHH,2021-03-06 13:00,ZHHH 061300Z 01005MPS 330V050 8000 -RA SCT008 05/04 Q1029 NOSIG
ZHHH,2021-03-06 14:00,ZHHH 061400Z 02004MPS 340V050 6000 SCT008 05/04 Q1029 NOSIG
ZHHH,2021-03-06 15:00,ZHHH 061500Z 02004MPS 340V040 6000 -RA FEW008 05/04 Q1029 NOSIG
ZHHH,2021-03-06 16:00,ZHHH 061600Z 02003MPS 350V050 5000 BR FEW008 OVC040 05/03 Q1029 NOSIG
ZHHH,2021-03-06 17:00,ZHHH 061700Z 02004MPS 350V050 4500 BR FEW010 OVC040 04/03 Q1029 NOSIG
ZHHH,2021-03-06 18:00,ZHHH 061800Z 03004MPS 350V050 4000 -RA BR FEW010 OVC040 04/03 Q1028 NOSIG
ZHHH,2021-03-06 19:00,ZHHH 061900Z 02004MPS 340V050 5000 -RA BR SCT009 OVC033 04/03 Q1028 NOSIG
ZHHH,2021-03-06 20:00,ZHHH 062000Z 02004MPS 4500 -RA BR SCT009 OVC033 04/03 Q1028 NOSIG
ZHHH,2021-03-06 21:00,ZHHH 062100Z 01003MPS 340V050 4000 -RA BR SCT010 OVC033 04/03 Q1028 BECMG TL2250 2500
ZHHH,2021-03-06 22:00,ZHHH 062200Z 02002MPS 4000 -RA BR SCT010 OVC033 03/03 Q1028 BECMG TL2250 2400
ZHHH,2021-03-06 23:00,ZHHH 062300Z 02004MPS 340V050 3500 BR SCT010 OVC040 03/02 Q1029 BECMG TL2350 2500
ZHHH,2021-03-07 00:00,ZHHH 070000Z 04003MPS 4000 BR OVC040 04/03 Q1029 NOSIG
ZHHH,2021-03-07 01:00,ZHHH 070100Z 03004MPS 360V060 4000 BR OVC040 04/02 Q1030 NOSIG
ZHHH,2021-03-07 02:00,ZHHH 070200Z 03003MPS 350V060 4000 BR FEW016 OVC040 04/02 Q1030 NOSIG
ZHHH,2021-03-07 03:00,ZHHH 070300Z 02003MPS 350V060 5000 BR NSC 05/03 Q1030 NOSIG
ZHHH,2021-03-07 04:00,ZHHH 070400Z 02002MPS 330V060 5000 BR NSC 06/03 Q1029 NOSIG
ZHHH,2021-03-07 05:00,ZHHH 070500Z 02003MPS 330V070 5000 BR NSC 07/03 Q1028 NOSIG
ZHHH,2021-03-07 06:00,ZHHH 070600Z 01003MPS 310V040 5000 HZ NSC 08/03 Q1027 NOSIG
ZHHH,2021-03-07 07:00,ZHHH 070700Z 03003MPS 350V070 5000 HZ NSC 09/04 Q1027 NOSIG
ZHHH,2021-03-07 08:00,ZHHH 070800Z 04003MPS 340V060 5000 HZ OVC040 09/04 Q1026 NOSIG
ZHHH,2021-03-07 09:00,ZHHH 070900Z VRB01MPS 6000 OVC040 09/05 Q1026 NOSIG
ZHHH,2021-03-07 10:00,ZHHH 071000Z VRB01MPS 6000 NSC 09/05 Q1026 NOSIG
ZHHH,2021-03-07 11:00,ZHHH 071100Z VRB01MPS 6000 NSC 09/05 Q1026 NOSIG
ZHHH,2021-03-07 12:00,ZHHH 071200Z VRB01MPS 6000 NSC 09/06 Q1027 NOSIG
ZHHH,2021-03-07 13:00,ZHHH 071300Z 24001MPS 6000 NSC 08/07 Q1027 NOSIG
ZHHH,2021-03-07 14:00,ZHHH 071400Z VRB01MPS 6000 NSC 08/06 Q1028 NOSIG
ZHHH,2021-03-07 15:00,ZHHH 071500Z 03002MPS 6000 NSC 08/07 Q1028 NOSIG
ZHHH,2021-03-07 16:00,ZHHH 071600Z 04003MPS 6000 NSC 07/05 Q1027 NOSIG
ZHHH,2021-03-07 17:00,ZHHH 071700Z 04002MPS 5000 BR OVC040 07/05 Q1027 NOSIG
ZHHH,2021-03-07 18:00,ZHHH 071800Z 04002MPS 020V090 5000 BR OVC040 07/05 Q1026 NOSIG
ZHHH,2021-03-07 19:00,ZHHH 071900Z 05001MPS 5000 BR OVC026 06/05 Q1026 NOSIG
ZHHH,2021-03-07 20:00,ZHHH 072000Z 05002MPS 5000 BR OVC030 06/05 Q1025 NOSIG
ZHHH,2021-03-07 21:00,ZHHH 072100Z 06004MPS 5000 BR OVC030 06/04 Q1024 NOSIG
ZHHH,2021-03-07 22:00,ZHHH 072200Z 07003MPS 5000 BR OVC030 07/04 Q1024 NOSIG
ZHHH,2021-03-07 23:00,ZHHH 072300Z 12002MPS 100V160 4000 BR OVC033 07/04 Q1024 NOSIG
ZHHH,2021-03-08 00:00,ZHHH 080000Z 10003MPS 4000 BR OVC040 07/04 Q1025 NOSIG
ZHHH,2021-03-08 01:00,ZHHH 080100Z 03002MPS 350V060 3500 BR NSC 07/05 Q1026 NOSIG
ZHHH,2021-03-08 02:00,ZHHH 080200Z 03002MPS 320V070 3500 BR NSC 08/06 Q1026 NOSIG
ZHHH,2021-03-08 03:00,ZHHH 080300Z 36002MPS 320V020 3000 -RA BR FEW024 08/07 Q1026 NOSIG
ZHHH,2021-03-08 04:00,ZHHH 080400Z VRB01MPS 2300 -RA BR SCT011 SCT026 08/07 Q1026 BECMG TL0440 RA
ZHHH,2021-03-08 05:00,ZHHH 080500Z 34002MPS 290V020 2100 -RA BR FEW007 SCT010 OVC040 08/08 Q1025 NOSIG
ZHHH,2021-03-08 06:00,ZHHH 080600Z VRB02MPS 1300 R04L/1500N R04R/1600N -RA BR SCT005 SCT010 OVC040 08/08 Q1024 BECMG TL0740 1800
ZHHH,2021-03-08 07:00,ZHHH 080700Z 36003MPS 330V070 1700 -RA BR SCT005 SCT010 OVC040 08/08 Q1023 NOSIG
ZHHH,2021-03-08 08:00,ZHHH 080800Z 01002MPS 330V050 2500 BR SCT010 OVC040 09/08 Q1023 BECMG TL0840 3200
ZHHH,2021-03-08 09:00,ZHHH 080900Z VRB01MPS 3700 BR SCT010 OVC040 09/08 Q1023 NOSIG
ZHHH,2021-03-08 10:00,ZHHH 081000Z VRB01MPS 4000 BR BKN023 OVC040 09/08 Q1023 NOSIG
ZHHH,2021-03-08 11:00,ZHHH 081100Z VRB01MPS 5000 BR FEW014 SCT023 09/08 Q1024 NOSIG
ZHHH,2021-03-08 12:00,ZHHH 081200Z 35002MPS 320V020 5000 BR FEW010 BKN020 09/08 Q1024 NOSIG
ZHHH,2021-03-08 13:00,ZHHH 081300Z 01002MPS 330V050 5000 BR FEW011 BKN026 08/08 Q1025 NOSIG
ZHHH,2021-03-08 14:00,ZHHH 081400Z 35002MPS 5000 BR FEW013 BKN026 08/08 Q1025 NOSIG
ZHHH,2021-03-08 15:00,ZHHH 081500Z 36002MPS 330V030 5000 BR FEW013 BKN026 08/08 Q1026 NOSIG
ZHHH,2021-03-08 16:00,ZHHH 081600Z VRB01MPS 5000 BR SCT010 BKN026 08/08 Q1026 NOSIG
ZHHH,2021-03-08 17:00,ZHHH 081700Z VRB01MPS 5000 BR FEW014 08/08 Q1026 NOSIG
ZHHH,2021-03-08 18:00,ZHHH 081800Z 36001MPS 4000 BR NSC 08/08 Q1025 NOSIG
ZHHH,2021-03-08 19:00,ZHHH 081900Z 35001MPS 4000 BR NSC 08/08 Q1025 NOSIG
ZHHH,2021-03-08 20:00,ZHHH 082000Z VRB01MPS 4000 BR NSC 08/08 Q1024 NOSIG
ZHHH,2021-03-08 21:00,ZHHH 082100Z 02001MPS 4000 BR SCT006 07/07 Q1024 NOSIG
ZHHH,2021-03-08 22:00,ZHHH 082200Z 03002MPS 4000 BR SCT006 07/07 Q1025 NOSIG
ZHHH,2021-03-08 23:00,ZHHH 082300Z VRB01MPS 3000 BR NSC 07/07 Q1025 BECMG TL2340 2500
ZHHH,2021-03-09 00:00,ZHHH 090000Z VRB01MPS 3600 BR NSC 07/07 Q1026 NOSIG
ZHHH,2021-03-09 01:00,ZHHH 090100Z VRB01MPS 4500 BR NSC 08/07 Q1027 NOSIG
ZHHH,2021-03-09 02:00,ZHHH 090200Z 29002MPS 230V350 6000 SCT010 09/06 Q1027 NOSIG
ZHHH,2021-03-09 03:00,ZHHH 090300Z 33002MPS 280V030 8000 SCT025 10/06 Q1027 NOSIG
ZHHH,2021-03-09 04:00,ZHHH 090400Z 32002MPS 260V360 8000 BKN020 11/07 Q1027 NOSIG
ZHHH,2021-03-09 05:00,ZHHH 090500Z 31002MPS 260V010 8000 SCT023 11/06 Q1026 NOSIG
ZHHH,2021-03-09 06:00,ZHHH 090600Z 32002MPS 270V010 8000 BKN026 11/05 Q1025 NOSIG
ZHHH,2021-03-09 07:00,ZHHH 090700Z 27003MPS 230V320 9000 BKN026 12/05 Q1025 NOSIG
ZHHH,2021-03-09 08:00,ZHHH 090800Z 26003MPS 220V300 9000 BKN026 12/06 Q1025 NOSIG
ZHHH,2021-03-09 09:00,ZHHH 090900Z 27002MPS 250V320 9000 SCT020 BKN030 12/06 Q1025 NOSIG
ZHHH,2021-03-09 10:00,ZHHH 091000Z 29002MPS 230V340 9000 NSC 11/06 Q1025 NOSIG
ZHHH,2021-03-09 11:00,ZHHH 091100Z 32002MPS 280V360 8000 SCT040 10/07 Q1026 NOSIG
ZHHH,2021-03-09 12:00,ZHHH 091200Z 31002MPS 260V360 8000 BKN040 10/07 Q1026 NOSIG
ZHHH,2021-03-09 13:00,ZHHH 091300Z 30002MPS 240V360 8000 BKN040 10/08 Q1027 NOSIG
ZHHH,2021-03-09 14:00,ZHHH 091400Z 36002MPS 330V040 8000 BKN040 09/07 Q1027 NOSIG
ZHHH,2021-03-09 15:00,ZHHH 091500Z 02002MPS 350V050 8000 BKN040 09/07 Q1027 NOSIG
ZHHH,2021-03-09 16:00,ZHHH 091600Z VRB01MPS 9999 OVC040 09/06 Q1027 NOSIG
ZHHH,2021-03-09 17:00,ZHHH 091700Z VRB01MPS 9999 OVC040 09/07 Q1026 NOSIG
ZHHH,2021-03-09 18:00,ZHHH 091800Z VRB01MPS 9999 OVC040 09/07 Q1026 NOSIG
ZHHH,2021-03-09 19:00,ZHHH 091900Z 01001MPS 9999 BKN040 09/07 Q1025 NOSIG
ZHHH,2021-03-09 20:00,ZHHH 092000Z VRB01MPS 9999 BKN040 09/08 Q1025 NOSIG
ZHHH,2021-03-09 21:00,ZHHH 092100Z 03001MPS 9999 BKN040 09/07 Q1025 NOSIG
ZHHH,2021-03-09 22:00,ZHHH 092200Z 03002MPS 8000 NSC 08/07 Q1025 NOSIG
ZHHH,2021-03-09 23:00,ZHHH 092300Z 04003MPS 7000 BKN040 08/07 Q1025 NOSIG
ZHHH,2021-03-10 00:00,ZHHH 100000Z 08002MPS 060V120 7000 SCT040 09/07 Q1026 NOSIG
ZHHH,2021-03-10 01:00,ZHHH 100100Z 06003MPS 7000 NSC 11/08 Q1026 NOSIG
ZHHH,2021-03-10 02:00,ZHHH 100200Z 07003MPS 040V120 7000 NSC 12/08 Q1026 NOSIG
ZHHH,2021-03-10 03:00,ZHHH 100300Z 09003MPS 030V120 6000 NSC 13/08 Q1025 NOSIG
ZHHH,2021-03-10 04:00,ZHHH 100400Z 08003MPS 030V120 8000 SCT040 14/08 Q1024 NOSIG
ZHHH,2021-03-10 05:00,ZHHH 100500Z 08003MPS 030V120 8000 SCT040 14/07 Q1023 NOSIG
ZHHH,2021-03-10 06:00,ZHHH 100600Z 07002MPS 020V110 9999 SCT040 15/07 Q1022 NOSIG
ZHHH,2021-03-10 07:00,ZHHH 100700Z 11004MPS 070V140 9999 SCT040 14/07 Q1022 NOSIG
ZHHH,2021-03-10 08:00,ZHHH 100800Z 10003MPS 060V120 9999 -RA OVC040 14/08 Q1021 NOSIG
ZHHH,2021-03-10 09:00,ZHHH 100900Z 10003MPS 080V140 8000 -RA OVC040 13/10 Q1021 NOSIG
ZHHH,2021-03-10 10:00,ZHHH 101000Z 13002MPS 090V150 7000 -RA SCT033 12/11 Q1021 NOSIG
ZHHH,2021-03-10 11:00,ZHHH 101100Z 13002MPS 090V160 7000 -RA BKN040 12/11 Q1022 NOSIG
ZHHH,2021-03-10 12:00,ZHHH 101200Z 09002MPS 8000 -RA BKN040 12/11 Q1022 NOSIG
ZHHH,2021-03-10 13:00,ZHHH 101300Z VRB01MPS 8000 BKN040 12/11 Q1023 NOSIG
ZHHH,2021-03-10 14:00,ZHHH 101400Z 20002MPS 120V240 6000 -RA OVC040 11/11 Q1023 NOSIG
ZHHH,2021-03-10 15:00,ZHHH 101500Z VRB01MPS 3500 -RA BR SCT005 OVC033 11/11 Q1023 NOSIG
ZHHH,2021-03-10 16:00,ZHHH 101600Z VRB01MPS 1500 -RA BR BKN003 OVC020 11/11 Q1023 NOSIG
ZHHH,2021-03-10 17:00,ZHHH 101700Z 31002MPS 260V050 1500 -RA BR BKN003 OVC020 11/11 Q1022 BECMG TL1820 1200
ZHHH,2021-03-10 18:00,ZHHH 101800Z 34002MPS 310V010 2000 -RA BR FEW003 SCT005 OVC023 11/11 Q1022 BECMG TL1920 RA
ZHHH,2021-03-10 19:00,ZHHH 101900Z VRB01MPS 2000 -RA BR FEW003 SCT005 OVC023 11/11 Q1021 NOSIG
ZHHH,2021-03-10 20:00,ZHHH 102000Z VRB01MPS 2500 -RA BR FEW003 SCT005 OVC023 10/10 Q1021 NOSIG
ZHHH,2021-03-10 21:00,ZHHH 102100Z VRB01MPS 2500 -RA BR SCT003 SCT004 OVC023 10/10 Q1021 NOSIG
ZHHH,2021-03-10 22:00,ZHHH 102200Z 35003MPS 310V030 2300 -RA BR SCT003 SCT004 OVC023 10/10 Q1021 NOSIG
ZHHH,2021-03-10 23:00,ZHHH 102300Z 32002MPS 270V030 2000 -RA BR SCT003 SCT004 OVC023 10/10 Q1022 BECMG TL0030 3000
ZHHH,2021-03-11 00:00,ZHHH 110000Z 36002MPS 310V030 2500 -RA BR FEW005 OVC023 10/10 Q1022 BECMG TL0120 3000
ZHHH,2021-03-11 01:00,ZHHH 110100Z 34002MPS 300V020 4500 BR FEW005 OVC023 10/10 Q1023 NOSIG
ZHHH,2021-03-11 02:00,ZHHH 110200Z 32002MPS 240V020 6000 FEW008 OVC040 11/11 Q1023 NOSIG
ZHHH,2021-03-11 03:00,ZHHH 110300Z 31002MPS 260V350 6000 FEW008 SCT011 OVC040 11/11 Q1024 NOSIG
ZHHH,2021-03-11 04:00,ZHHH 110400Z 30002MPS 250V010 7000 SCT011 SCT013 12/11 Q1023 NOSIG
ZHHH,2021-03-11 05:00,ZHHH 110500Z 27002MPS 240V310 7000 SCT013 SCT020 13/11 Q1022 NOSIG
ZHHH,2021-03-11 06:00,ZHHH 110600Z 30003MPS 210V350 8000 SCT013 SCT023 13/11 Q1022 NOSIG
ZHHH,2021-03-11 07:00,ZHHH 110700Z 30002MPS 240V350 9000 SCT015 BKN026 13/11 Q1022 NOSIG
ZHHH,2021-03-11 08:00,ZHHH 110800Z 31002MPS 240V020 9999 SCT016 OVC030 14/11 Q1021 NOSIG
ZHHH,2021-03-11 09:00,ZHHH 110900Z 32002MPS 270V010 9999 SCT015 OVC030 14/10 Q1022 NOSIG
ZHHH,2021-03-11 10:00,ZHHH 111000Z 04003MPS 9999 OVC040 13/11 Q1022 NOSIG
ZHHH,2021-03-11 11:00,ZHHH 111100Z 06003MPS 9999 BKN040 12/11 Q1023 NOSIG
ZHHH,2021-03-11 12:00,ZHHH 111200Z 08003MPS 7000 BKN040 12/11 Q1024 NOSIG
ZHHH,2021-03-11 13:00,ZHHH 111300Z 09003MPS 050V120 7000 NSC 12/11 Q1024 NOSIG
ZHHH,2021-03-11 14:00,ZHHH 111400Z VRB01MPS 7000 NSC 10/10 Q1024 NOSIG
ZHHH,2021-03-11 15:00,ZHHH 111500Z 30001MPS 4500 BR NSC 09/09 Q1024 NOSIG
ZHHH,2021-03-11 16:00,ZHHH 111600Z 14002MPS 090V170 4500 BR NSC 10/10 Q1024 NOSIG
ZHHH,2021-03-11 17:00,ZHHH 111700Z VRB01MPS 4500 BR NSC 09/09 Q1024 NOSIG
ZHHH,2021-03-11 18:00,ZHHH 111800Z 00000MPS 4500 BR NSC 09/09 Q1024 NOSIG
ZHHH,2021-03-11 19:00,ZHHH 111900Z 32001MPS 5000 BR NSC 07/07 Q1024 NOSIG
ZHHH,2021-03-11 20:00,ZHHH 112000Z 35001MPS 3000 R04L/0375V0650D R04R/P2000 BR BCFG NSC 07/07 Q1024 NOSIG
ZHHH,2021-03-11 21:00,ZHHH 112100Z 06002MPS 1500 R04L/0450N R04R/0325V0500N BR BCFG NSC 07/07 Q1024 BECMG TL2140 0600 FG
ZHHH,2021-03-11 22:00,ZHHH 112200Z 04002MPS 2000 R04L/0550V0700N R04R/0800V1300N BR BCFG NSC 06/06 Q1024 BECMG TL2240 0800 FG
ZHHH,2021-03-11 23:00,ZHHH 112300Z 05003MPS 2000 R04L/P2000 R04R/0450D BR BCFG NSC 07/07 Q1025 BECMG TL0040 3000
ZHHH,2021-03-12 00:00,ZHHH 120000Z 06003MPS 3000 BR BCFG NSC 09/09 Q1025 NOSIG
ZHHH,2021-03-12 01:00,ZHHH 120100Z 06003MPS 030V090 5000 BR NSC 12/11 Q1026 NOSIG
ZHHH,2021-03-12 02:00,ZHHH 120200Z 07003MPS 040V120 6000 NSC 14/10 Q1026 NOSIG
ZHHH,2021-03-12 03:00,ZHHH 120300Z VRB02MPS 8000 SCT026 15/09 Q1026 NOSIG
ZHHH,2021-03-12 04:00,ZHHH 120400Z 30002MPS 250V340 9999 FEW025 BKN040 15/09 Q1025 NOSIG
ZHHH,2021-03-12 05:00,ZHHH 120500Z 26002MPS 230V310 9999 FEW025 BKN040 15/09 Q1024 NOSIG
ZHHH,2021-03-12 06:00,ZHHH 120600Z VRB01MPS 9999 FEW025 BKN040 16/08 Q1023 NOSIG
ZHHH,2021-03-12 07:00,ZHHH 120700Z VRB01MPS CAVOK 17/07 Q1023 NOSIG
ZHHH,2021-03-12 08:00,ZHHH 120800Z VRB01MPS CAVOK 16/08 Q1022 NOSIG
ZHHH,2021-03-12 09:00,ZHHH 120900Z VRB01MPS CAVOK 16/07 Q1022 NOSIG
ZHHH,2021-03-12 10:00,ZHHH 121000Z 14002MPS 090V170 CAVOK 16/07 Q1022 NOSIG
ZHHH,2021-03-12 11:00,ZHHH 121100Z 12003MPS 070V140 CAVOK 15/08 Q1022 NOSIG
ZHHH,2021-03-12 12:00,ZHHH 121200Z 11002MPS 070V140 CAVOK 14/08 Q1023 NOSIG
ZHHH,2021-03-12 13:00,ZHHH 121300Z 13002MPS 090V160 CAVOK 14/09 Q1022 NOSIG
ZHHH,2021-03-12 14:00,ZHHH 121400Z 10002MPS 060V140 CAVOK 13/08 Q1023 NOSIG
ZHHH,2021-03-12 15:00,ZHHH 121500Z 07002MPS CAVOK 11/09 Q1022 NOSIG
ZHHH,2021-03-12 16:00,ZHHH 121600Z 04003MPS 6000 NSC 11/10 Q1022 NOSIG
ZHHH,2021-03-12 17:00,ZHHH 121700Z 06003MPS 6000 NSC 10/10 Q1023 NOSIG
ZHHH,2021-03-12 18:00,ZHHH 121800Z 06003MPS 5000 BR NSC 10/10 Q1022 NOSIG
ZHHH,2021-03-12 19:00,ZHHH 121900Z 07003MPS 5000 BR NSC 09/09 Q1021 NOSIG
ZHHH,2021-03-12 20:00,ZHHH 122000Z 05003MPS 5000 BR NSC 09/09 Q1021 NOSIG
ZHHH,2021-03-12 21:00,ZHHH 122100Z 02002MPS 5000 BR NSC 09/09 Q1022 NOSIG
ZHHH,2021-03-12 22:00,ZHHH 122200Z 09002MPS 5000 BR NSC 10/10 Q1022 NOSIG
ZHHH,2021-03-12 23:00,ZHHH 122300Z 06002MPS 4000 BR NSC 09/09 Q1022 NOSIG
ZHHH,2021-03-13 00:00,ZHHH 130000Z 03002MPS 320V060 5000 BR NSC 10/10 Q1023 NOSIG
ZHHH,2021-03-13 01:00,ZHHH 130100Z 11003MPS 060V130 7000 NSC 13/10 Q1023 NOSIG
ZHHH,2021-03-13 02:00,ZHHH 130200Z 08003MPS 8000 NSC 14/10 Q1024 NOSIG
ZHHH,2021-03-13 03:00,ZHHH 130300Z 11002MPS 060V150 8000 NSC 15/11 Q1023 NOSIG
ZHHH,2021-03-13 04:00,ZHHH 130400Z 13003MPS 090V170 CAVOK 15/09 Q1022 NOSIG
ZHHH,2021-03-13 05:00,ZHHH 130500Z 08003MPS 360V130 9999 FEW040 17/09 Q1021 NOSIG
ZHHH,2021-03-13 06:00,ZHHH 130600Z VRB02MPS 9999 SCT040 18/08 Q1020 NOSIG
ZHHH,2021-03-13 07:00,ZHHH 130700Z VRB01MPS 9999 SCT040 18/08 Q1020 NOSIG
ZHHH,2021-03-13 08:00,ZHHH 130800Z 27002MPS 230V320 9999 SCT040 18/08 Q1019 NOSIG
ZHHH,2021-03-13 09:00,ZHHH 130900Z 24002MPS 200V300 9999 BKN046 18/09 Q1019 NOSIG
ZHHH,2021-03-13 10:00,ZHHH 131000Z 00000MPS 9999 BKN046 17/09 Q1019 NOSIG
ZHHH,2021-03-13 11:00,ZHHH 131100Z 00000MPS CAVOK 16/10 Q1019 NOSIG
ZHHH,2021-03-13 12:00,ZHHH 131200Z 34001MPS CAVOK 15/10 Q1019 NOSIG
ZHHH,2021-03-13 13:00,ZHHH 131300Z 03001MPS CAVOK 15/10 Q1020 NOSIG
ZHHH,2021-03-13 14:00,ZHHH 131400Z 04002MPS CAVOK 13/11 Q1020 NOSIG
ZHHH,2021-03-13 15:00,ZHHH 131500Z 09004MPS CAVOK 14/10 Q1020 NOSIG
ZHHH,2021-03-13 16:00,ZHHH 131600Z 10003MPS CAVOK 14/10 Q1019 NOSIG
ZHHH,2021-03-13 17:00,ZHHH 131700Z 10003MPS CAVOK 13/10 Q1019 NOSIG
ZHHH,2021-03-13 18:00,ZHHH 131800Z 10003MPS 8000 NSC 12/10 Q1018 NOSIG
ZHHH,2021-03-13 19:00,ZHHH 131900Z 11003MPS 7000 NSC 12/10 Q1018 NOSIG
ZHHH,2021-03-13 20:00,ZHHH 132000Z 08003MPS 6000 NSC 11/10 Q1017 NOSIG
ZHHH,2021-03-13 21:00,ZHHH 132100Z 11003MPS 6000 NSC 11/10 Q1017 NOSIG
ZHHH,2021-03-13 22:00,ZHHH 132200Z 10003MPS 4500 BR NSC 11/10 Q1017 NOSIG
ZHHH,2021-03-13 23:00,ZHHH 132300Z 08003MPS 2500 BR NSC 10/10 Q1017 BECMG TL0050 3000
ZHHH,2021-03-14 00:00,ZHHH 140000Z 10002MPS 3000 BR NSC 13/12 Q1018 NOSIG
ZHHH,2021-03-14 01:00,ZHHH 140100Z 12003MPS 4000 BR NSC 15/11 Q1018 NOSIG
ZHHH,2021-03-14 02:00,ZHHH 140200Z 11003MPS 080V160 5000 HZ NSC 17/11 Q1018 NOSIG
ZHHH,2021-03-14 03:00,ZHHH 140300Z 15003MPS 090V190 5000 HZ NSC 18/12 Q1017 NOSIG
ZHHH,2021-03-14 04:00,ZHHH 140400Z 14003MPS 090V180 6000 NSC 20/12 Q1016 NOSIG
ZHHH,2021-03-14 05:00,ZHHH 140500Z 16003MPS 090V240 7000 FEW023 21/12 Q1015 NOSIG
ZHHH,2021-03-14 06:00,ZHHH 140600Z 20004MPS 8000 FEW023 21/12 Q1013 NOSIG
ZHHH,2021-03-14 07:00,ZHHH 140700Z 19004MPS 160V220 8000 FEW026TCU SCT040 22/12 Q1013 NOSIG
ZHHH,2021-03-14 08:00,ZHHH 140800Z 19002MPS 140V290 9999 FEW026 22/12 Q1012 NOSIG
ZHHH,2021-03-14 09:00,ZHHH 140900Z 17002MPS 130V220 CAVOK 22/12 Q1011 NOSIG
ZHHH,2021-03-14 10:00,ZHHH 141000Z 12004MPS CAVOK 21/12 Q1011 NOSIG
ZHHH,2021-03-14 11:00,ZHHH 141100Z 12005MPS CAVOK 21/13 Q1010 NOSIG
ZHHH,2021-03-14 12:00,ZHHH 141200Z 12005MPS CAVOK 20/13 Q1010 NOSIG
ZHHH,2021-03-14 13:00,ZHHH 141300Z 13004MPS 7000 NSC 19/13 Q1011 NOSIG
ZHHH,2021-03-14 14:00,ZHHH 141400Z 13002MPS 7000 NSC 19/13 Q1011 NOSIG
ZHHH,2021-03-14 15:00,ZHHH 141500Z 12002MPS 8000 NSC 19/13 Q1011 NOSIG
ZHHH,2021-03-14 16:00,ZHHH 141600Z 11004MPS 8000 NSC 19/13 Q1011 NOSIG
ZHHH,2021-03-14 17:00,ZHHH 141700Z 13003MPS 8000 NSC 18/13 Q1010 NOSIG
ZHHH,2021-03-14 18:00,ZHHH 141800Z 12004MPS 7000 NSC 18/14 Q1010 NOSIG
ZHHH,2021-03-14 19:00,ZHHH 141900Z 11004MPS 7000 -RA NSC 17/15 Q1009 NOSIG
ZHHH,2021-03-14 20:00,ZHHH 142000Z 12003MPS 6000 BKN040 17/15 Q1008 NOSIG
ZHHH,2021-03-14 21:00,ZHHH 142100Z 08003MPS 050V110 6000 NSC 17/15 Q1008 NOSIG
ZHHH,2021-03-14 22:00,ZHHH 142200Z 09004MPS 6000 SCT040 17/15 Q1008 NOSIG
ZHHH,2021-03-14 23:00,ZHHH 142300Z 09003MPS 4000 BR NSC 16/15 Q1009 BECMG TL0040 RA
ZHHH,2021-03-15 00:00,ZHHH 150000Z 03002MPS 360V070 4000 BR BKN030 16/15 Q1009 NOSIG
ZHHH,2021-03-15 01:00,ZHHH 150100Z 12003MPS 4000 -RA BR SCT025 16/16 Q1010 NOSIG
ZHHH,2021-03-15 02:00,ZHHH 150200Z 11004MPS 3500 -RA BR OVC040 17/16 Q1010 BECMG TL0310 RA
ZHHH,2021-03-15 03:00,ZHHH 150300Z VRB01MPS 2500 -RA BR OVC030 17/17 Q1010 NOSIG
ZHHH,2021-03-15 04:00,ZHHH 150400Z 12002MPS 080V200 2100 -RA BR OVC026 17/17 Q1010 NOSIG
ZHHH,2021-03-15 05:00,ZHHH 150500Z 10002MPS 020V120 1300 R22R/P2000 R22L/1700N -RA BR SCT014 OVC026 17/17 Q1010 BECMG TL0650 2000
ZHHH,2021-03-15 06:00,ZHHH 150600Z 04003MPS 1300 R04L/P2000 R04R/P2000 -RA BR BKN003 OVC026 17/17 Q1009 BECMG TL0650 2000
ZHHH,2021-03-15 07:00,ZHHH 150700Z 10004MPS 1300 R04L/P2000 R04R/1700D -RA BR BKN003 OVC026 17/17 Q1009 BECMG TL0750 2000
ZHHH,2021-03-15 08:00,ZHHH 150800Z 09003MPS 1700 BR SCT003 SCT011 OVC026 17/17 Q1009 BECMG TL0850 1300
ZHHH,2021-03-15 09:00,ZHHH 150900Z 10004MPS 070V130 1600 BR SCT004 SCT015 OVC026 17/17 Q1010 NOSIG
ZHHH,2021-03-15 10:00,ZHHH 151000Z 08003MPS 1600 BR SCT004 SCT005 OVC026 17/17 Q1010 BECMG TL1130 1400
ZHHH,2021-03-15 11:00,ZHHH 151100Z 09003MPS 060V130 2500 -RA BR SCT003 OVC030 17/17 Q1011 NOSIG
ZHHH,2021-03-15 12:00,ZHHH 151200Z 09003MPS 060V120 2500 -RA BR SCT003 OVC030 17/17 Q1011 BECMG TL1320 3000
ZHHH,2021-03-15 13:00,ZHHH 151300Z 06004MPS 2500 BR SCT003 OVC030 17/17 Q1012 NOSIG
ZHHH,2021-03-15 14:00,ZHHH 151400Z 03002MPS 360V060 2500 BR SCT005 OVC040 17/17 Q1012 NOSIG
ZHHH,2021-03-15 15:00,ZHHH 151500Z 02002MPS 330V060 2800 BR SCT004 OVC040 17/17 Q1013 BECMG TL1620 3000
ZHHH,2021-03-15 16:00,ZHHH 151600Z VRB01MPS 4000 BR SCT013 17/17 Q1013 NOSIG
ZHHH,2021-03-15 17:00,ZHHH 151700Z 03002MPS 4500 BR SCT020 17/17 Q1013 NOSIG
ZHHH,2021-03-15 18:00,ZHHH 151800Z VRB01MPS 4500 BR SCT030 17/17 Q1013 NOSIG
ZHHH,2021-03-15 19:00,ZHHH 151900Z 01002MPS 340V040 5000 BR SCT030 17/17 Q1012 NOSIG
ZHHH,2021-03-15 20:00,ZHHH 152000Z 03005MPS 6000 SCT030 17/17 Q1012 NOSIG
ZHHH,2021-03-15 21:00,ZHHH 152100Z 03003MPS 360V060 6000 SCT030 17/17 Q1013 NOSIG
ZHHH,2021-03-15 22:00,ZHHH 152200Z 03004MPS 360V060 6000 FEW015 OVC040 17/17 Q1013 NOSIG
ZHHH,2021-03-15 23:00,ZHHH 152300Z 04005MPS 6000 OVC040 17/16 Q1014 NOSIG
ZHHH,2021-03-16 00:00,ZHHH 160000Z 02003MPS 350V050 5000 -RA BR OVC040 16/16 Q1015 NOSIG
ZHHH,2021-03-16 01:00,ZHHH 160100Z 03004MPS 360V060 4000 BR OVC040 17/15 Q1016 NOSIG
ZHHH,2021-03-16 02:00,ZHHH 160200Z 04005MPS 4500 BR FEW023 18/16 Q1016 NOSIG
ZHHH,2021-03-16 03:00,ZHHH 160300Z 04006MPS 4500 BR FEW023 18/15 Q1016 NOSIG
ZHHH,2021-03-16 04:00,ZHHH 160400Z 06006MPS 4500 -RA BR FEW011 OVC040 19/15 Q1016 NOSIG
ZHHH,2021-03-16 05:00,ZHHH 160500Z 05006MPS 5000 BR FEW013 19/15 Q1015 NOSIG
ZHHH,2021-03-16 06:00,ZHHH 160600Z 04005MPS 5000 BR FEW023 19/15 Q1014 NOSIG
ZHHH,2021-03-16 07:00,ZHHH 160700Z 02004MPS 340V040 4500 BR NSC 18/14 Q1014 NOSIG
ZHHH,2021-03-16 08:00,ZHHH 160800Z 03006MPS 3200 BR NSC 17/14 Q1014 NOSIG
ZHHH,2021-03-16 09:00,ZHHH 160900Z 04005MPS 2800 BR NSC 16/14 Q1014 BECMG TL1040 3200
ZHHH,2021-03-16 10:00,ZHHH 161000Z 03005MPS 2800 BR OVC040 16/13 Q1014 BECMG TL1150 3000
ZHHH,2021-03-16 11:00,ZHHH 161100Z 03004MPS 350V050 4000 BR OVC040 15/13 Q1015 NOSIG
ZHHH,2021-03-16 12:00,ZHHH 161200Z 03004MPS 360V060 5000 BR OVC040 15/12 Q1015 NOSIG
ZHHH,2021-03-16 13:00,ZHHH 161300Z 04004MPS 5000 BR OVC033 15/12 Q1015 NOSIG
ZHHH,2021-03-16 14:00,ZHHH 161400Z 03002MPS 350V070 6000 OVC033 15/12 Q1016 NOSIG
ZHHH,2021-03-16 15:00,ZHHH 161500Z 03003MPS 5000 -RA BR OVC040 14/12 Q1016 NOSIG
ZHHH,2021-03-16 16:00,ZHHH 161600Z 04003MPS 5000 -RA BR FEW020 OVC040 14/12 Q1015 NOSIG
ZHHH,2021-03-16 17:00,ZHHH 161700Z 04003MPS 360V060 5000 BR OVC040 13/11 Q1015 NOSIG
ZHHH,2021-03-16 18:00,ZHHH 161800Z 04003MPS 5000 BR OVC040 13/11 Q1015 NOSIG
ZHHH,2021-03-16 19:00,ZHHH 161900Z 03003MPS 4000 BR OVC040 13/11 Q1015 NOSIG
ZHHH,2021-03-16 20:00,ZHHH 162000Z 02003MPS 4500 -RA BR OVC040 12/12 Q1015 NOSIG
ZHHH,2021-03-16 21:00,ZHHH 162100Z 02003MPS 360V060 4000 -RA BR OVC033 12/12 Q1015 NOSIG
ZHHH,2021-03-16 22:00,ZHHH 162200Z 02002MPS 350V050 3000 -RA BR OVC026 12/12 Q1015 NOSIG
ZHHH,2021-03-16 23:00,ZHHH 162300Z 05004MPS 2500 -RA BR OVC026 12/12 Q1015 NOSIG
ZHHH,2021-03-17 00:00,ZHHH 170000Z 04004MPS 360V060 3000 -RA BR SCT026 12/12 Q1015 NOSIG
ZHHH,2021-03-17 01:00,ZHHH 170100Z 04002MPS 350V050 3000 -RA BR SCT007 OVC033 12/12 Q1016 NOSIG
ZHHH,2021-03-17 02:00,ZHHH 170200Z 03003MPS 340V060 5000 BR SCT009 BKN033 13/13 Q1016 NOSIG
ZHHH,2021-03-17 03:00,ZHHH 170300Z 02002MPS 340V060 8000 SCT011 OVC033 14/13 Q1016 NOSIG
ZHHH,2021-03-17 04:00,ZHHH 170400Z 03003MPS 350V050 9999 SCT014 OVC040 15/13 Q1015 NOSIG
ZHHH,2021-03-17 05:00,ZHHH 170500Z 04003MPS 340V080 9999 SCT016 OVC040 16/14 Q1015 NOSIG
ZHHH,2021-03-17 06:00,ZHHH 170600Z 02002MPS 330V070 9999 BKN018 OVC040 16/13 Q1014 NOSIG
ZHHH,2021-03-17 07:00,ZHHH 170700Z 04004MPS 360V060 9999 SCT020 BKN040 17/14 Q1013 NOSIG
ZHHH,2021-03-17 08:00,ZHHH 170800Z 08003MPS 9999 BKN020 OVC033 17/13 Q1013 NOSIG
ZHHH,2021-03-17 09:00,ZHHH 170900Z 02003MPS 9999 BKN023 OVC033 17/13 Q1013 NOSIG
ZHHH,2021-03-17 10:00,ZHHH 171000Z 04003MPS 9999 BKN023 OVC033 16/13 Q1014 NOSIG
ZHHH,2021-03-17 11:00,ZHHH 171100Z 04003MPS 350V060 9999 -RA BKN022 OVC033 15/13 Q1014 NOSIG
ZHHH,2021-03-17 12:00,ZHHH 171200Z 04003MPS 7000 -RA BKN020 OVC033 14/13 Q1015 NOSIG
ZHHH,2021-03-17 13:00,ZHHH 171300Z 06005MPS 7000 BKN020 OVC033 13/13 Q1015 NOSIG
ZHHH,2021-03-17 14:00,ZHHH 171400Z 04002MPS 360V060 7000 -RA FEW010 BKN020 OVC033 13/13 Q1016 NOSIG
ZHHH,2021-03-17 15:00,ZHHH 171500Z 08004MPS 050V130 3500 SHRA BR SCT010 BKN020 OVC033 12/12 Q1015 NOSIG
ZHHH,2021-03-17 16:00,ZHHH 171600Z 03002MPS 350V080 3500 SHRA BR SCT004 SCT006 OVC030 12/12 Q1015 BECMG TL1650 -RA BR
ZHHH,2021-03-17 17:00,ZHHH 171700Z 04005MPS 350V070 4000 SHRA BR SCT004 SCT006 OVC020 11/11 Q1015 BECMG TL1740 -RA BR
ZHHH,2021-03-17 18:00,ZHHH 171800Z 03003MPS 5000 -RA BR FEW005 SCT010 OVC030 11/11 Q1015 RESHRA NOSIG
ZHHH,2021-03-17 19:00,ZHHH 171900Z 04004MPS 5000 -RA BR OVC020 10/10 Q1015 NOSIG
ZHHH,2021-03-17 20:00,ZHHH 172000Z 04002MPS 6000 FEW007 OVC020 10/10 Q1014 NOSIG
ZHHH,2021-03-17 21:00,ZHHH 172100Z 04003MPS 5000 -RA BR FEW016 OVC023 10/10 Q1014 NOSIG
ZHHH,2021-03-17 22:00,ZHHH 172200Z 03002MPS 340V070 4500 -RA BR FEW005 SCT013 OVC023 10/10 Q1015 NOSIG
ZHHH,2021-03-17 23:00,ZHHH 172300Z 05003MPS 3000 -RA BR SCT005 OVC033 10/10 Q1015 BECMG TL2350 2800
ZHHH,2021-03-18 00:00,ZHHH 180000Z 03002MPS 4500 BR FEW015 OVC033 10/10 Q1016 NOSIG
ZHHH,2021-03-18 01:00,ZHHH 180100Z 03003MPS 360V060 4500 BR FEW015 OVC033 10/10 Q1016 NOSIG
ZHHH,2021-03-18 02:00,ZHHH 180200Z 04003MPS 4500 BR FEW015 OVC033 11/11 Q1016 NOSIG
ZHHH,2021-03-18 03:00,ZHHH 180300Z 02003MPS 330V040 3500 -RA BR SCT010 OVC033 11/10 Q1016 NOSIG
ZHHH,2021-03-18 04:00,ZHHH 180400Z 03003MPS 350V060 1800 -RA BR SCT007 OVC033 11/11 Q1015 NOSIG
ZHHH,2021-03-18 05:00,ZHHH 180500Z 04005MPS 3000 -RA BR SCT007 OVC030 10/10 Q1015 NOSIG
ZHHH,2021-03-18 06:00,ZHHH 180600Z 03004MPS 360V060 4000 -RA BR SCT008 OVC030 10/10 Q1014 NOSIG
ZHHH,2021-03-18 07:00,ZHHH 180700Z 02003MPS 330V050 3000 -RA BR SCT008 OVC030 10/10 Q1014 RERA NOSIG
ZHHH,2021-03-18 08:00,ZHHH 180800Z 04005MPS 5000 -RA BR SCT008 OVC030 10/10 Q1014 NOSIG
ZHHH,2021-03-18 09:00,ZHHH 180900Z 36003MPS 330V040 4000 SHRA BR SCT008 OVC030 10/10 Q1014 NOSIG
ZHHH,2021-03-18 10:00,ZHHH 181000Z 36002MPS 320V030 3500 -RA BR SCT007 OVC030 10/10 Q1015 RESHRA NOSIG
ZHHH,2021-03-18 11:00,ZHHH 181100Z 02004MPS 350V060 8000 SCT009 OVC030 10/10 Q1015 NOSIG
ZHHH,2021-03-18 12:00,ZHHH 181200Z 04005MPS 8000 -RA SCT010 OVC040 10/10 Q1015 NOSIG
ZHHH,2021-03-18 13:00,ZHHH 181300Z 01003MPS 330V040 8000 -RA SCT010 OVC040 09/09 Q1016 NOSIG
ZHHH,2021-03-18 14:00,ZHHH 181400Z 01002MPS 340V040 6000 -RA SCT010 OVC040 09/09 Q1017 NOSIG
ZHHH,2021-03-18 15:00,ZHHH 181500Z 03003MPS 350V060 8000 -RA SCT007 OVC040 09/09 Q1017 NOSIG
ZHHH,2021-03-18 16:00,ZHHH 181600Z 03004MPS 350V060 8000 SCT011 OVC040 08/08 Q1017 NOSIG
ZHHH,2021-03-18 17:00,ZHHH 181700Z 02004MPS 340V060 8000 SCT011 OVC040 07/07 Q1017 NOSIG
ZHHH,2021-03-18 18:00,ZHHH 181800Z 02003MPS 340V050 5000 BR SCT011 OVC040 07/07 Q1017 NOSIG
ZHHH,2021-03-18 19:00,ZHHH 181900Z 03003MPS 5000 BR SCT011 OVC040 07/07 Q1017 NOSIG
ZHHH,2021-03-18 20:00,ZHHH 182000Z 03004MPS 8000 SCT011 OVC040 07/06 Q1017 NOSIG
ZHHH,2021-03-18 21:00,ZHHH 182100Z 02004MPS 350V050 CAVOK 07/06 Q1017 NOSIG
ZHHH,2021-03-18 22:00,ZHHH 182200Z 03003MPS 350V060 CAVOK 07/06 Q1017 NOSIG
ZHHH,2021-03-18 23:00,ZHHH 182300Z 02003MPS 360V060 9999 SCT011 07/06 Q1017 NOSIG
ZHHH,2021-03-19 00:00,ZHHH 190000Z 03004MPS 360V060 9999 SCT020 07/06 Q1018 NOSIG
ZHHH,2021-03-19 01:00,ZHHH 190100Z 02003MPS 340V050 9999 FEW013 08/06 Q1018 NOSIG
ZHHH,2021-03-19 02:00,ZHHH 190200Z 03003MPS 350V060 9999 FEW020 SCT023 08/07 Q1018 NOSIG
ZHHH,2021-03-19 03:00,ZHHH 190300Z 03004MPS 350V060 9999 SCT013 09/06 Q1017 NOSIG
ZHHH,2021-03-19 04:00,ZHHH 190400Z 01002MPS 320V040 9999 SCT014 09/06 Q1017 NOSIG
ZHHH,2021-03-19 05:00,ZHHH 190500Z 03003MPS 360V060 9999 FEW018 09/07 Q1016 NOSIG
ZHHH,2021-03-19 06:00,ZHHH 190600Z 04003MPS 350V070 9999 SCT017 10/07 Q1014 NOSIG
ZHHH,2021-03-19 07:00,ZHHH 190700Z 36002MPS 320V040 9999 SCT017 10/07 Q1014 NOSIG
ZHHH,2021-03-19 08:00,ZHHH 190800Z 35002MPS 300V050 7000 -RA SCT015 09/08 Q1014 NOSIG
ZHHH,2021-03-19 09:00,ZHHH 190900Z 34003MPS 280V030 2600 -RA BR SCT010 09/08 Q1014 NOSIG
ZHHH,2021-03-19 10:00,ZHHH 191000Z 34005MPS 310V020 1400 R04L/P2000 R04R/P2000 -RA BR SCT005 OVC040 08/08 Q1015 BECMG TL1140 2000
ZHHH,2021-03-19 11:00,ZHHH 191100Z 35005MPS 320V020 2600 -RA BR SCT007 OVC033 07/07 Q1016 BECMG TL1240 3200
ZHHH,2021-03-19 12:00,ZHHH 191200Z 35004MPS 320V020 2100 -RA BR FEW005 SCT007 OVC026 07/07 Q1018 NOSIG
ZHHH,2021-03-19 13:00,ZHHH 191300Z 35003MPS 310V020 3000 -RA BR FEW005 SCT007 OVC026 08/08 Q1019 BECMG TL1340 2800
ZHHH,2021-03-19 14:00,ZHHH 191400Z VRB01MPS 5000 BR SCT007 08/08 Q1019 NOSIG
ZHHH,2021-03-19 15:00,ZHHH 191500Z 35002MPS 320V020 5000 BR SCT005 08/08 Q1019 NOSIG
ZHHH,2021-03-19 16:00,ZHHH 191600Z VRB01MPS 5000 BR FEW013 08/08 Q1019 NOSIG
ZHHH,2021-03-19 17:00,ZHHH 191700Z 33003MPS 230V020 4000 BR SCT013 08/08 Q1020 NOSIG
ZHHH,2021-03-19 18:00,ZHHH 191800Z 33003MPS 270V010 4000 BR NSC 08/08 Q1020 NOSIG
ZHHH,2021-03-19 19:00,ZHHH 191900Z 36002MPS 320V050 4000 BR FEW014 08/08 Q1019 NOSIG
ZHHH,2021-03-19 20:00,ZHHH 192000Z VRB01MPS 4000 BR FEW014 07/07 Q1019 NOSIG
ZHHH,2021-03-19 21:00,ZHHH 192100Z VRB01MPS 4000 BR FEW014 08/07 Q1020 BECMG TL2240 2800
ZHHH,2021-03-19 22:00,ZHHH 192200Z 01002MPS 3500 BR FEW014 07/07 Q1019 BECMG TL2240 2800
ZHHH,2021-03-19 23:00,ZHHH 192300Z 02001MPS 1300 R04L/1900N R04R/1000V1400U BR NSC 06/06 Q1020 BECMG TL0040 2000
ZHHH,2021-03-20 00:00,ZHHH 200000Z VRB01MPS 2000 BR NSC 08/08 Q1021 BECMG TL0040 3000
ZHHH,2021-03-20 01:00,ZHHH 200100Z 03002MPS 340V070 3400 BR NSC 09/07 Q1021 NOSIG
ZHHH,2021-03-20 02:00,ZHHH 200200Z 04004MPS 360V080 4500 BR NSC 11/06 Q1020 NOSIG
ZHHH,2021-03-20 03:00,ZHHH 200300Z 28003MPS 240V340 5000 HZ SCT033 12/08 Q1021 NOSIG
ZHHH,2021-03-20 04:00,ZHHH 200400Z 29003MPS 250V350 5000 HZ SCT020 BKN033 12/07 Q1021 NOSIG
ZHHH,2021-03-20 05:00,ZHHH 200500Z 29002MPS 240V350 5000 HZ SCT020 OVC033 12/08 Q1020 NOSIG
ZHHH,2021-03-20 06:00,ZHHH 200600Z 29002MPS 250V330 5000 HZ SCT030 OVC040 13/08 Q1018 NOSIG
ZHHH,2021-03-20 08:00,ZHHH 200800Z 02004MPS 330V050 9999 FEW040 15/05 Q1018 NOSIG
ZHHH,2021-03-20 09:00,ZHHH 200900Z 03004MPS CAVOK 14/05 Q1019 NOSIG
ZHHH,2021-03-20 10:00,ZHHH 201000Z 03003MPS 350V050 8000 NSC 13/06 Q1019 NOSIG
ZHHH,2021-03-20 11:00,ZHHH 201100Z 04003MPS 8000 NSC 13/06 Q1021 NOSIG
ZHHH,2021-03-20 12:00,ZHHH 201200Z 02003MPS 340V060 8000 -RA NSC 13/06 Q1022 NOSIG
ZHHH,2021-03-20 13:00,ZHHH 201300Z 02003MPS 350V050 CAVOK 13/06 Q1023 NOSIG
ZHHH,2021-03-20 14:00,ZHHH 201400Z 02004MPS 340V040 CAVOK 12/05 Q1024 NOSIG
ZHHH,2021-03-20 15:00,ZHHH 201500Z 35003MPS 320V030 CAVOK 12/05 Q1024 NOSIG
ZHHH,2021-03-20 16:00,ZHHH 201600Z 01003MPS 330V050 CAVOK 12/05 Q1024 NOSIG
ZHHH,2021-03-20 17:00,ZHHH 201700Z 36002MPS 330V030 CAVOK 12/05 Q1024 NOSIG
ZHHH,2021-03-20 18:00,ZHHH 201800Z VRB01MPS CAVOK 11/07 Q1024 NOSIG
ZHHH,2021-03-20 19:00,ZHHH 201900Z 36002MPS 340V040 CAVOK 11/08 Q1023 NOSIG
ZHHH,2021-03-20 20:00,ZHHH 202000Z VRB02MPS 8000 NSC 11/09 Q1025 NOSIG
ZHHH,2021-03-20 21:00,ZHHH 202100Z 34003MPS 300V050 7000 NSC 11/09 Q1025 NOSIG
ZHHH,2021-03-20 22:00,ZHHH 202200Z 35003MPS 320V030 7000 NSC 11/08 Q1025 NOSIG
ZHHH,2021-03-20 23:00,ZHHH 202300Z 35003MPS 320V020 5000 BR FEW040 11/09 Q1026 NOSIG
ZHHH,2021-03-21 00:00,ZHHH 210000Z VRB02MPS 6000 SCT033 11/08 Q1027 NOSIG
ZHHH,2021-03-21 01:00,ZHHH 210100Z 36003MPS 6000 SCT033 12/08 Q1028 NOSIG
ZHHH,2021-03-21 02:00,ZHHH 210200Z 36002MPS 270V030 6000 SCT033 13/08 Q1028 NOSIG
ZHHH,2021-03-21 03:00,ZHHH 210300Z 32002MPS 220V360 6000 SCT026 14/08 Q1028 NOSIG
ZHHH,2021-03-21 04:00,ZHHH 210400Z 01004MPS 280V070 5000 HZ NSC 16/03 Q1028 NOSIG
ZHHH,2021-03-21 05:00,ZHHH 210500Z 02004MPS 340V060 5000 HZ NSC 17/03 Q1027 NOSIG
ZHHH,2021-03-21 06:00,ZHHH 210600Z 04005MPS 360V060 6000 NSC 16/04 Q1027 NOSIG
ZHHH,2021-03-21 07:00,ZHHH 210700Z 02005MPS 340V050 6000 NSC 17/02 Q1026 NOSIG
ZHHH,2021-03-21 08:00,ZHHH 210800Z 04006MPS 8000 FEW020 16/M01 Q1026 NOSIG
ZHHH,2021-03-21 09:00,ZHHH 210900Z 03004MPS 340V060 8000 FEW020 15/M00 Q1026 NOSIG
ZHHH,2021-03-21 10:00,ZHHH 211000Z 04005MPS CAVOK 15/01 Q1027 NOSIG
ZHHH,2021-03-21 11:00,ZHHH 211100Z 04005MPS CAVOK 13/00 Q1027 NOSIG
ZHHH,2021-03-21 12:00,ZHHH 211200Z 04004MPS CAVOK 12/01 Q1028 NOSIG
ZHHH,2021-03-21 13:00,ZHHH 211300Z 04004MPS CAVOK 12/M00 Q1029 NOSIG
ZHHH,2021-03-21 14:00,ZHHH 211400Z 04003MPS CAVOK 10/01 Q1029 NOSIG
ZHHH,2021-03-21 15:00,ZHHH 211500Z 04003MPS CAVOK 10/01 Q1030 NOSIG
ZHHH,2021-03-21 16:00,ZHHH 211600Z 05003MPS CAVOK 09/02 Q1030 NOSIG
ZHHH,2021-03-21 17:00,ZHHH 211700Z 05002MPS CAVOK 09/02 Q1030 NOSIG
ZHHH,2021-03-21 18:00,ZHHH 211800Z 06002MPS CAVOK 08/02 Q1030 NOSIG
ZHHH,2021-03-21 19:00,ZHHH 211900Z 06002MPS CAVOK 07/02 Q1029 NOSIG
ZHHH,2021-03-21 20:00,ZHHH 212000Z 35001MPS CAVOK 06/02 Q1029 NOSIG
ZHHH,2021-03-21 21:00,ZHHH 212100Z 36002MPS CAVOK 05/04 Q1030 NOSIG
ZHHH,2021-03-21 22:00,ZHHH 212200Z 02002MPS CAVOK 05/04 Q1030 NOSIG
ZHHH,2021-03-21 23:00,ZHHH 212300Z VRB01MPS CAVOK 06/03 Q1031 NOSIG
ZHHH,2021-03-22 00:00,ZHHH 220000Z VRB01MPS CAVOK 09/03 Q1031 NOSIG
ZHHH,2021-03-22 01:00,ZHHH 220100Z VRB01MPS CAVOK 12/01 Q1032 NOSIG
ZHHH,2021-03-22 02:00,ZHHH 220200Z VRB02MPS CAVOK 13/00 Q1032 NOSIG
ZHHH,2021-03-22 03:00,ZHHH 220300Z VRB03MPS CAVOK 15/M01 Q1031 NOSIG
ZHHH,2021-03-22 04:00,ZHHH 220400Z VRB02MPS CAVOK 15/M06 Q1030 NOSIG
ZHHH,2021-03-22 05:00,ZHHH 220500Z 26002MPS 190V340 CAVOK 16/M06 Q1029 NOSIG
ZHHH,2021-03-22 06:00,ZHHH 220600Z 28002MPS 230V360 CAVOK 17/M04 Q1028 NOSIG
ZHHH,2021-03-22 07:00,ZHHH 220700Z VRB01MPS CAVOK 17/M05 Q1027 NOSIG
ZHHH,2021-03-22 08:00,ZHHH 220800Z VRB01MPS CAVOK 17/M04 Q1026 NOSIG
ZHHH,2021-03-22 09:00,ZHHH 220900Z 23002MPS 160V310 CAVOK 17/M04 Q1026 NOSIG
ZHHH,2021-03-22 10:00,ZHHH 221000Z 20003MPS 160V220 CAVOK 16/M03 Q1025 NOSIG
ZHHH,2021-03-22 11:00,ZHHH 221100Z 18002MPS 140V220 CAVOK 15/M03 Q1025 NOSIG
ZHHH,2021-03-22 12:00,ZHHH 221200Z 18002MPS 100V220 CAVOK 13/M01 Q1026 NOSIG
ZHHH,2021-03-22 13:00,ZHHH 221300Z 22002MPS CAVOK 11/02 Q1026 NOSIG
ZHHH,2021-03-22 14:00,ZHHH 221400Z 22001MPS CAVOK 10/04 Q1026 NOSIG
ZHHH,2021-03-22 15:00,ZHHH 221500Z 22002MPS CAVOK 11/04 Q1026 NOSIG
ZHHH,2021-03-22 16:00,ZHHH 221600Z 22002MPS CAVOK 09/04 Q1025 NOSIG
ZHHH,2021-03-22 17:00,ZHHH 221700Z 22002MPS CAVOK 09/03 Q1024 NOSIG
ZHHH,2021-03-22 18:00,ZHHH 221800Z 00000MPS CAVOK 06/06 Q1024 NOSIG
ZHHH,2021-03-22 19:00,ZHHH 221900Z 14001MPS CAVOK 06/05 Q1024 NOSIG
ZHHH,2021-03-22 20:00,ZHHH 222000Z 06002MPS 040V110 CAVOK 07/04 Q1023 NOSIG
ZHHH,2021-03-22 21:00,ZHHH 222100Z VRB01MPS CAVOK 08/04 Q1022 NOSIG
ZHHH,2021-03-22 22:00,ZHHH 222200Z 06002MPS CAVOK 07/05 Q1022 NOSIG
ZHHH,2021-03-22 23:00,ZHHH 222300Z 09003MPS 7000 NSC 09/06 Q1022 NOSIG
ZHHH,2021-03-23 00:00,ZHHH 230000Z 11004MPS 080V140 6000 NSC 10/06 Q1022 NOSIG
ZHHH,2021-03-23 01:00,ZHHH 230100Z 12003MPS 100V170 6000 NSC 12/05 Q1022 NOSIG
ZHHH,2021-03-23 02:00,ZHHH 230200Z 13002MPS 060V170 8000 NSC 14/04 Q1022 NOSIG
ZHHH,2021-03-23 03:00,ZHHH 230300Z 19004MPS 150V220 CAVOK 15/01 Q1022 NOSIG
ZHHH,2021-03-23 04:00,ZHHH 230400Z 22004MPS 190V250 CAVOK 16/02 Q1021 NOSIG
ZHHH,2021-03-23 05:00,ZHHH 230500Z 21005MPS CAVOK 17/02 Q1019 NOSIG
ZHHH,2021-03-23 06:00,ZHHH 230600Z 21004MPS CAVOK 17/02 Q1018 NOSIG
ZHHH,2021-03-23 07:00,ZHHH 230700Z 24004MPS 9999 BKN040 17/02 Q1017 NOSIG
ZHHH,2021-03-23 08:00,ZHHH 230800Z 23003MPS 9999 BKN040 16/04 Q1017 NOSIG
ZHHH,2021-03-23 09:00,ZHHH 230900Z 21003MPS 9999 BKN040 15/04 Q1017 NOSIG
ZHHH,2021-03-23 10:00,ZHHH 231000Z 18002MPS 150V210 9999 FEW020 SCT040 15/04 Q1017 NOSIG
ZHHH,2021-03-23 11:00,ZHHH 231100Z VRB01MPS CAVOK 15/05 Q1017 NOSIG
ZHHH,2021-03-23 12:00,ZHHH 231200Z 21002MPS CAVOK 14/05 Q1017 NOSIG
ZHHH,2021-03-23 13:00,ZHHH 231300Z 20003MPS CAVOK 14/05 Q1017 NOSIG
ZHHH,2021-03-23 14:00,ZHHH 231400Z 19002MPS CAVOK 14/04 Q1018 NOSIG
ZHHH,2021-03-23 15:00,ZHHH 231500Z 00000MPS CAVOK 12/05 Q1018 NOSIG
ZHHH,2021-03-23 16:00,ZHHH 231600Z 18003MPS CAVOK 12/05 Q1017 NOSIG
ZHHH,2021-03-23 17:00,ZHHH 231700Z 20002MPS CAVOK 12/05 Q1016 NOSIG
ZHHH,2021-03-23 18:00,ZHHH 231800Z 16002MPS CAVOK 12/05 Q1016 NOSIG
ZHHH,2021-03-23 19:00,ZHHH 231900Z VRB01MPS CAVOK 08/07 Q1016 NOSIG
ZHHH,2021-03-23 20:00,ZHHH 232000Z VRB01MPS CAVOK 08/06 Q1016 NOSIG
ZHHH,2021-03-23 21:00,ZHHH 232100Z VRB01MPS CAVOK 09/07 Q1016 NOSIG
ZHHH,2021-03-23 22:00,ZHHH 232200Z 11003MPS CAVOK 11/07 Q1016 NOSIG
ZHHH,2021-03-23 23:00,ZHHH 232300Z 13003MPS CAVOK 11/07 Q1016 NOSIG
ZHHH,2021-03-24 00:00,ZHHH 240000Z VRB01MPS CAVOK 14/07 Q1017 NOSIG
ZHHH,2021-03-24 01:00,ZHHH 240100Z 18003MPS 140V210 CAVOK 15/05 Q1018 NOSIG
ZHHH,2021-03-24 02:00,ZHHH 240200Z 26002MPS 230V290 CAVOK 16/06 Q1018 NOSIG
ZHHH,2021-03-24 03:00,ZHHH 240300Z 22003MPS 190V250 CAVOK 18/06 Q1018 NOSIG
ZHHH,2021-03-24 04:00,ZHHH 240400Z 22003MPS 160V250 CAVOK 19/07 Q1017 NOSIG
ZHHH,2021-03-24 05:00,ZHHH 240500Z 21003MPS 160V260 CAVOK 21/07 Q1016 NOSIG
ZHHH,2021-03-24 06:00,ZHHH 240600Z 22003MPS 170V300 CAVOK 21/07 Q1016 NOSIG
ZHHH,2021-03-24 07:00,ZHHH 240700Z VRB02MPS CAVOK 22/07 Q1015 NOSIG
ZHHH,2021-03-24 08:00,ZHHH 240800Z 22003MPS 140V250 CAVOK 23/07 Q1015 NOSIG
ZHHH,2021-03-24 09:00,ZHHH 240900Z 23002MPS 190V260 CAVOK 23/08 Q1015 NOSIG
ZHHH,2021-03-24 10:00,ZHHH 241000Z 13002MPS 100V160 CAVOK 21/08 Q1015 NOSIG
ZHHH,2021-03-24 11:00,ZHHH 241100Z 14002MPS CAVOK 20/08 Q1015 NOSIG
ZHHH,2021-03-24 12:00,ZHHH 241200Z 10003MPS CAVOK 19/09 Q1016 NOSIG
ZHHH,2021-03-24 13:00,ZHHH 241300Z 07003MPS CAVOK 16/10 Q1017 NOSIG
ZHHH,2021-03-24 14:00,ZHHH 241400Z 07002MPS 050V130 CAVOK 18/10 Q1017 NOSIG
ZHHH,2021-03-24 15:00,ZHHH 241500Z 10004MPS CAVOK 17/09 Q1018 NOSIG
ZHHH,2021-03-24 16:00,ZHHH 241600Z 10004MPS CAVOK 16/10 Q1017 NOSIG
ZHHH,2021-03-24 17:00,ZHHH 241700Z 10004MPS CAVOK 15/09 Q1018 NOSIG
ZHHH,2021-03-24 18:00,ZHHH 241800Z 11003MPS 080V140 CAVOK 15/08 Q1018 NOSIG
ZHHH,2021-03-24 19:00,ZHHH 241900Z 12003MPS CAVOK 15/07 Q1018 NOSIG
ZHHH,2021-03-24 20:00,ZHHH 242000Z 12003MPS CAVOK 14/07 Q1018 NOSIG
ZHHH,2021-03-24 21:00,ZHHH 242100Z 11003MPS CAVOK 14/07 Q1018 NOSIG
ZHHH,2021-03-24 22:00,ZHHH 242200Z 10003MPS CAVOK 13/07 Q1018 NOSIG
ZHHH,2021-03-24 23:00,ZHHH 242300Z 10004MPS CAVOK 13/08 Q1019 NOSIG
ZHHH,2021-03-25 00:00,ZHHH 250000Z 10004MPS CAVOK 15/08 Q1020 NOSIG
ZHHH,2021-03-25 01:00,ZHHH 250100Z 11004MPS CAVOK 17/08 Q1020 NOSIG
ZHHH,2021-03-25 02:00,ZHHH 250200Z 11005MPS CAVOK 19/08 Q1020 NOSIG
ZHHH,2021-03-25 03:00,ZHHH 250300Z 10006MPS 070V130 CAVOK 21/08 Q1020 NOSIG
ZHHH,2021-03-25 04:00,ZHHH 250400Z 11005MPS 080V140 CAVOK 22/08 Q1019 NOSIG
ZHHH,2021-03-25 05:00,ZHHH 250500Z 11005MPS 080V150 CAVOK 24/07 Q1018 NOSIG
ZHHH,2021-03-25 06:00,ZHHH 250600Z 11004MPS 070V160 CAVOK 24/05 Q1017 NOSIG
ZHHH,2021-03-25 07:00,ZHHH 250700Z 12004MPS 060V150 CAVOK 24/06 Q1015 NOSIG
ZHHH,2021-03-25 08:00,ZHHH 250800Z 11004MPS 070V140 CAVOK 25/07 Q1015 NOSIG
ZHHH,2021-03-25 09:00,ZHHH 250900Z 11005MPS CAVOK 24/07 Q1014 NOSIG
ZHHH,2021-03-25 10:00,ZHHH 251000Z 10005MPS CAVOK 23/07 Q1014 NOSIG
ZHHH,2021-03-25 11:00,ZHHH 251100Z 10004MPS CAVOK 21/06 Q1014 NOSIG
ZHHH,2021-03-25 12:00,ZHHH 251200Z 10004MPS CAVOK 21/05 Q1014 NOSIG
ZHHH,2021-03-25 13:00,ZHHH 251300Z 11005MPS CAVOK 20/06 Q1014 NOSIG
ZHHH,2021-03-25 14:00,ZHHH 251400Z 12005MPS 090V150 CAVOK 20/08 Q1015 NOSIG
ZHHH,2021-03-25 15:00,ZHHH 251500Z 11004MPS 080V140 CAVOK 19/08 Q1015 NOSIG
ZHHH,2021-03-25 16:00,ZHHH 251600Z 12004MPS CAVOK 19/09 Q1014 NOSIG
ZHHH,2021-03-25 17:00,ZHHH 251700Z 12004MPS CAVOK 18/09 Q1014 NOSIG
ZHHH,2021-03-25 18:00,ZHHH 251800Z 09004MPS CAVOK 17/10 Q1013 NOSIG
ZHHH,2021-03-25 19:00,ZHHH 251900Z 08004MPS CAVOK 16/10 Q1012 NOSIG
ZHHH,2021-03-25 20:00,ZHHH 252000Z 11003MPS 070V130 CAVOK 17/10 Q1012 NOSIG
ZHHH,2021-03-25 21:00,ZHHH 252100Z 11005MPS CAVOK 17/09 Q1012 NOSIG
ZHHH,2021-03-25 22:00,ZHHH 252200Z 11005MPS CAVOK 17/09 Q1012 NOSIG
ZHHH,2021-03-25 23:00,ZHHH 252300Z 10004MPS CAVOK 17/09 Q1013 NOSIG
ZHHH,2021-03-26 00:00,ZHHH 260000Z 04002MPS 340V090 6000 -RA NSC 16/12 Q1013 NOSIG
ZHHH,2021-03-26 01:00,ZHHH 260100Z 10005MPS 7000 NSC 18/11 Q1013 NOSIG
ZHHH,2021-03-26 02:00,ZHHH 260200Z 13004MPS 7000 NSC 20/10 Q1013 NOSIG
ZHHH,2021-03-26 03:00,ZHHH 260300Z 11003MPS 7000 SCT040 18/12 Q1013 NOSIG
ZHHH,2021-03-26 04:00,ZHHH 260400Z 02002MPS 340V040 6000 -SHRA SCT040 17/14 Q1012 NOSIG
ZHHH,2021-03-26 05:00,ZHHH 260500Z 02003MPS 350V050 7000 -RA NSC 16/15 Q1012 NOSIG
ZHHH,2021-03-26 06:00,ZHHH 260600Z VRB01MPS 7000 NSC 16/15 Q1011 NOSIG
ZHHH,2021-03-26 07:00,ZHHH 260700Z 33002MPS 260V010 6000 -RA NSC 16/15 Q1010 BECMG TL0740 SHRA
ZHHH,2021-03-26 08:00,ZHHH 260800Z 35002MPS 300V050 3500 SHRA BR SCT007 OVC040 14/14 Q1010 BECMG TL0840 -RA
ZHHH,2021-03-26 09:00,ZHHH 260900Z 02002MPS 360V060 2500 -SHRA BR SCT007 OVC040 14/14 Q1010 RESHRA BECMG TL1040 3200
ZHHH,2021-03-26 10:00,ZHHH 261000Z 03003MPS 2500 -SHRA BR SCT006 OVC040 14/14 Q1010 NOSIG
ZHHH,2021-03-26 11:00,ZHHH 261100Z 02002MPS 340V050 3000 -SHRA BR FEW004 SCT006 OVC040 14/14 Q1010 NOSIG
ZHHH,2021-03-26 12:00,ZHHH 261200Z 35002MPS 300V020 3500 -SHRA BR FEW004 SCT006 OVC040 14/14 Q1011 RESHRA BECMG TL1230 RA
ZHHH,2021-03-26 13:00,ZHHH 261300Z 36002MPS 320V070 3500 -SHRA BR FEW004 SCT005 OVC033 14/14 Q1011 NOSIG
ZHHH,2021-03-26 14:00,ZHHH 261400Z 35002MPS 320V020 3500 -RA BR BKN004 OVC026 14/14 Q1012 NOSIG
ZHHH,2021-03-26 15:00,ZHHH 261500Z 34002MPS 270V020 4000 -RA BR FEW004 SCT005 OVC026 14/14 Q1012 NOSIG
ZHHH,2021-03-26 16:00,ZHHH 261600Z 33002MPS 270V060 4000 BR FEW006 SCT010 OVC033 14/14 Q1012 NOSIG
ZHHH,2021-03-26 17:00,ZHHH 261700Z 31002MPS 260V040 4000 BR FEW006 SCT010 OVC033 14/14 Q1011 NOSIG
ZHHH,2021-03-26 18:00,ZHHH 261800Z 33002MPS 240V030 4500 BR SCT006 OVC033 14/14 Q1011 NOSIG
ZHHH,2021-03-26 19:00,ZHHH 261900Z 31002MPS 260V030 6000 SCT006 14/14 Q1011 NOSIG
ZHHH,2021-03-26 20:00,ZHHH 262000Z VRB02MPS 6000 SCT006 14/14 Q1010 NOSIG
ZHHH,2021-03-26 21:00,ZHHH 262100Z VRB02MPS 6000 SCT007 14/14 Q1010 NOSIG
ZHHH,2021-03-26 22:00,ZHHH 262200Z 32002MPS 230V030 6000 SCT007 14/14 Q1011 NOSIG
ZHHH,2021-03-26 23:00,ZHHH 262300Z VRB01MPS 5000 BR SCT020 14/14 Q1011 NOSIG
ZHHH,2021-03-27 00:00,ZHHH 270000Z 00000MPS 5000 BR FEW020 14/14 Q1011 NOSIG
ZHHH,2021-03-27 01:00,ZHHH 270100Z 27002MPS 240V330 8000 SCT020 15/15 Q1012 NOSIG
ZHHH,2021-03-27 02:00,ZHHH 270200Z 25002MPS 180V280 9999 SCT014 16/14 Q1013 NOSIG
ZHHH,2021-03-27 03:00,ZHHH 270300Z 25002MPS 200V310 9999 SCT020 17/14 Q1012 NOSIG
ZHHH,2021-03-27 04:00,ZHHH 270400Z 28002MPS 220V350 9999 FEW020 18/14 Q1012 NOSIG
ZHHH,2021-03-27 05:00,ZHHH 270500Z 22002MPS 170V320 9999 FEW020 19/14 Q1011 NOSIG
ZHHH,2021-03-27 06:00,ZHHH 270600Z 26003MPS 220V310 9999 SCT020 SCT033 20/13 Q1010 NOSIG
ZHHH,2021-03-27 07:00,ZHHH 270700Z 25003MPS 210V320 9999 BKN020 21/14 Q1009 NOSIG
ZHHH,2021-03-27 08:00,ZHHH 270800Z 26002MPS 210V290 9999 FEW026 21/14 Q1009 NOSIG
ZHHH,2021-03-27 09:00,ZHHH 270900Z 24003MPS CAVOK 20/14 Q1009 NOSIG
ZHHH,2021-03-27 10:00,ZHHH 271000Z 23003MPS CAVOK 19/15 Q1009 NOSIG
ZHHH,2021-03-27 11:00,ZHHH 271100Z 23004MPS 7000 NSC 18/16 Q1010 NOSIG
ZHHH,2021-03-27 12:00,ZHHH 271200Z 23003MPS 6000 NSC 17/16 Q1010 NOSIG
ZHHH,2021-03-27 13:00,ZHHH 271300Z 23003MPS 6000 NSC 16/16 Q1011 NOSIG
ZHHH,2021-03-27 14:00,ZHHH 271400Z 22003MPS 4800 BR NSC 15/15 Q1011 NOSIG
ZHHH,2021-03-27 15:00,ZHHH 271500Z 24003MPS 4000 BR NSC 15/15 Q1011 NOSIG
ZHHH,2021-03-27 16:00,ZHHH 271600Z 24002MPS 3800 BR NSC 15/15 Q1011 BECMG TL1750 2800
ZHHH,2021-03-27 17:00,ZHHH 271700Z 24003MPS 2700 BR NSC 15/15 Q1011 NOSIG
ZHHH,2021-03-27 18:00,ZHHH 271800Z 24002MPS 210V280 2500 BR NSC 14/14 Q1010 NOSIG
ZHHH,2021-03-27 19:00,ZHHH 271900Z 22002MPS 2500 BR NSC 13/13 Q1010 NOSIG
ZHHH,2021-03-27 20:00,ZHHH 272000Z 16002MPS 2000 BR NSC 13/13 Q1009 BECMG TL2150 1400
ZHHH,2021-03-27 21:00,ZHHH 272100Z 18002MPS 2000 BR NSC 13/13 Q1009 BECMG TL2250 1400
ZHHH,2021-03-27 22:00,ZHHH 272200Z 18003MPS 2500 BR NSC 13/13 Q1010 BECMG TL2320 1400
ZHHH,2021-03-27 23:00,ZHHH 272300Z 19002MPS 1500 BR NSC 13/13 Q1010 BECMG TL2350 1400
ZHHH,2021-03-28 00:00,ZHHH 280000Z 20002MPS 170V240 2000 BR FEW006 14/14 Q1011 BECMG TL0120 3000
ZHHH,2021-03-28 01:00,ZHHH 280100Z 19004MPS 160V220 3000 BR SCT008 15/15 Q1011 NOSIG
ZHHH,2021-03-28 02:00,ZHHH 280200Z 19003MPS 160V240 4500 BR SCT011 17/15 Q1011 NOSIG
ZHHH,2021-03-28 03:00,ZHHH 280300Z 26002MPS 200V330 6000 FEW016 19/15 Q1011 NOSIG
ZHHH,2021-03-28 04:00,ZHHH 280400Z 24003MPS 170V290 9000 FEW020 20/15 Q1010 NOSIG
ZHHH,2021-03-28 05:00,ZHHH 280500Z 21004MPS 9000 NSC 22/14 Q1009 NOSIG
ZHHH,2021-03-28 06:00,ZHHH 280600Z VRB03MPS CAVOK 23/16 Q1008 NOSIG
ZHHH,2021-03-28 07:00,ZHHH 280700Z 25003MPS 180V290 CAVOK 24/14 Q1007 NOSIG
ZHHH,2021-03-28 08:00,ZHHH 280800Z 21003MPS 180V250 CAVOK 24/14 Q1006 NOSIG
ZHHH,2021-03-28 09:00,ZHHH 280900Z 18005MPS CAVOK 24/12 Q1006 NOSIG
ZHHH,2021-03-28 10:00,ZHHH 281000Z 22003MPS CAVOK 23/13 Q1006 NOSIG
ZHHH,2021-03-28 11:00,ZHHH 281100Z 18002G07MPS 130V210 CAVOK 21/13 Q1006 NOSIG
ZHHH,2021-03-28 12:00,ZHHH 281200Z VRB02MPS CAVOK 22/12 Q1006 NOSIG
ZHHH,2021-03-28 13:00,ZHHH 281300Z 11003MPS CAVOK 20/13 Q1006 NOSIG
ZHHH,2021-03-28 14:00,ZHHH 281400Z 11003MPS CAVOK 20/13 Q1007 NOSIG
ZHHH,2021-03-28 15:00,ZHHH 281500Z 11004MPS CAVOK 20/13 Q1006 NOSIG
ZHHH,2021-03-28 16:00,ZHHH 281600Z 12003MPS CAVOK 19/13 Q1006 NOSIG
ZHHH,2021-03-28 17:00,ZHHH 281700Z 13004MPS CAVOK 19/12 Q1006 NOSIG
ZHHH,2021-03-28 18:00,ZHHH 281800Z 12003MPS CAVOK 19/12 Q1005 NOSIG
ZHHH,2021-03-28 19:00,ZHHH 281900Z 10004MPS 7000 NSC 17/14 Q1004 NOSIG
ZHHH,2021-03-28 20:00,ZHHH 282000Z 10005MPS 7000 NSC 17/15 Q1004 NOSIG
ZHHH,2021-03-28 21:00,ZHHH 282100Z 09005MPS 7000 NSC 16/15 Q1004 NOSIG
ZHHH,2021-03-28 22:00,ZHHH 282200Z 10006MPS 7000 NSC 17/14 Q1005 NOSIG
ZHHH,2021-03-28 23:00,ZHHH 282300Z 09005MPS 7000 NSC 17/14 Q1005 NOSIG
ZHHH,2021-03-29 00:00,ZHHH 290000Z 09005MPS 9000 NSC 17/13 Q1005 NOSIG
ZHHH,2021-03-29 01:00,ZHHH 290100Z 11005MPS 8000 NSC 19/13 Q1005 NOSIG
ZHHH,2021-03-29 02:00,ZHHH 290200Z 11006MPS 8000 SCT040 20/13 Q1005 NOSIG
ZHHH,2021-03-29 03:00,ZHHH 290300Z 12006MPS 6000 SCT040 22/14 Q1004 NOSIG
ZHHH,2021-03-29 04:00,ZHHH 290400Z 11005MPS 6000 BKN040 23/15 Q1003 NOSIG
ZHHH,2021-03-29 05:00,ZHHH 290500Z 05003MPS 360V100 7000 OVC040 24/15 Q1002 NOSIG
ZHHH,2021-03-29 06:00,ZHHH 290600Z 03004MPS 9000 OVC040 23/16 Q1002 NOSIG
ZHHH,2021-03-29 07:00,ZHHH 290700Z 04003MPS 9999 OVC040 22/16 Q1002 NOSIG
ZHHH,2021-03-29 08:00,ZHHH 290800Z 04003MPS 360V060 CAVOK 23/15 Q1001 NOSIG
ZHHH,2021-03-29 09:00,ZHHH 290900Z 03003MPS 360V070 CAVOK 22/15 Q1001 NOSIG
ZHHH,2021-03-29 10:00,ZHHH 291000Z 04004MPS 9999 SCT040 22/14 Q1001 NOSIG
ZHHH,2021-03-29 11:00,ZHHH 291100Z 04005MPS 9999 SCT040 21/14 Q1002 NOSIG
ZHHH,2021-03-29 12:00,ZHHH 291200Z 04004MPS 9999 SCT040 20/16 Q1002 NOSIG
ZHHH,2021-03-29 13:00,ZHHH 291300Z 03004MPS 360V060 8000 -RA SCT040 20/17 Q1003 NOSIG
ZHHH,2021-03-29 14:00,ZHHH 291400Z 07002MPS 040V100 8000 NSC 20/17 Q1004 NOSIG
ZHHH,2021-03-29 15:00,ZHHH 291500Z 23001MPS 8000 NSC 19/17 Q1005 NOSIG
ZHHH,2021-03-29 16:00,ZHHH 291600Z 36001MPS 8000 NSC 19/17 Q1005 NOSIG
ZHHH,2021-03-29 17:00,ZHHH 291700Z 05002MPS 8000 NSC 19/17 Q1005 NOSIG
ZHHH,2021-03-29 18:00,ZHHH 291800Z 03002MPS 8000 SCT040 19/17 Q1004 NOSIG
ZHHH,2021-03-29 19:00,ZHHH 291900Z 04002MPS 350V060 7000 OVC040 19/16 Q1004 NOSIG
ZHHH,2021-03-29 20:00,ZHHH 292000Z 03004MPS 6000 -RA OVC040 18/16 Q1004 NOSIG
ZHHH,2021-03-29 21:00,ZHHH 292100Z 01002MPS 330V040 7000 NSC 18/15 Q1005 NOSIG
ZHHH,2021-03-29 22:00,ZHHH 292200Z 02002MPS 350V060 7000 NSC 17/15 Q1005 NOSIG
ZHHH,2021-03-29 23:00,ZHHH 292300Z 04003MPS 350V070 5000 BR OVC040 16/14 Q1006 NOSIG
ZHHH,2021-03-30 00:00,ZHHH 300000Z 04003MPS 350V080 5000 BR NSC 16/14 Q1006 NOSIG
ZHHH,2021-03-30 01:00,ZHHH 300100Z 03002MPS 350V070 5000 BR NSC 17/14 Q1007 NOSIG
ZHHH,2021-03-30 02:00,ZHHH 300200Z 03002MPS 340V060 5000 BR NSC 18/14 Q1007 NOSIG
ZHHH,2021-03-30 03:00,ZHHH 300300Z 07004MPS 5000 HZ NSC 19/14 Q1007 NOSIG
ZHHH,2021-03-30 04:00,ZHHH 300400Z 05005MPS 5000 HZ NSC 19/14 Q1006 NOSIG
ZHHH,2021-03-30 05:00,ZHHH 300500Z 09003MPS 050V140 5000 HZ NSC 19/14 Q1006 BECMG TL0530 TSRA SCT030CB
ZHHH,2021-03-30 06:00,ZHHH 300600Z 08003MPS 060V120 5000 -RA HZ OVC040 19/14 Q1005 BECMG TL0620 TSRA FEW030CB
ZHHH,2021-03-30 07:00,ZHHH 300700Z 04004MPS 5000 -RA BR SCT015 OVC040 17/16 Q1003 RETSRA BECMG TL0750 TSRA
ZHHH,2021-03-30 08:00,ZHHH 300800Z 10003MPS 070V130 4000 RA BR SCT020 OVC040 16/16 Q1004 BECMG TL0940 -RA
ZHHH,2021-03-30 09:00,ZHHH 300900Z 06007MPS 5000 -RA BR BKN040 16/16 Q1002 RERA BECMG TL0930 TSRA
ZHHH,2021-03-30 10:00,ZHHH 301000Z 04002MPS 340V080 3400 -TSRA BR SCT014 FEW030CB BKN040 15/15 Q1003 BECMG TL1050 TSRA
ZHHH,2021-03-30 11:00,ZHHH 301100Z 33002MPS 270V040 4500 -TSRA BR FEW007 FEW030CB BKN040 15/15 Q1004 BECMG TL1150 TSRA
ZHHH,2021-03-30 12:00,ZHHH 301200Z 03002MPS 010V070 4500 TSRA BR FEW006 SCT020 FEW030CB BKN033 15/15 Q1004 NOSIG
ZHHH,2021-03-30 13:00,ZHHH 301300Z 05003MPS 010V080 4500 TSRA BR SCT014 FEW030CB BKN033 15/15 Q1005 NOSIG
ZHHH,2021-03-30 14:00,ZHHH 301400Z 08005MPS 4500 -RA BR SCT016 BKN026 16/16 Q1003 RETSRA NOSIG
ZHHH,2021-03-30 15:00,ZHHH 301500Z 06003MPS 4000 -RA BR SCT016 OVC026 16/16 Q1003 BECMG TL1540 TSRA
ZHHH,2021-03-30 16:00,ZHHH 301600Z 29006MPS 260V320 3000 +TSRA BR SCT013 FEW023CB BKN026 16/16 Q1004 BECMG TL1650 TSRA
ZHHH,2021-03-30 17:00,ZHHH 301700Z VRB01MPS 5000 TSRA BR SCT005 FEW023CB BKN026 16/16 Q1004 BECMG TL1740 -RA
ZHHH,2021-03-30 18:00,ZHHH 301800Z 09002MPS 6000 FEW007 16/16 Q1003 RETSRA NOSIG
ZHHH,2021-03-30 19:00,ZHHH 301900Z 05002MPS 8000 SCT005 SCT007 OVC026 16/16 Q1003 NOSIG
ZHHH,2021-03-30 20:00,ZHHH 302000Z VRB01MPS 7000 SCT004 SCT006 OVC020 16/16 Q1003 NOSIG
ZHHH,2021-03-30 21:00,ZHHH 302100Z 04002MPS 360V060 7000 -RA SCT005 OVC016 16/16 Q1003 NOSIG
ZHHH,2021-03-30 22:00,ZHHH 302200Z VRB01MPS 1200 R04L/P2000 R04R/P2000 -RA BR BKN003 16/16 Q1003 NOSIG
ZHHH,2021-03-30 23:00,ZHHH 302300Z 35002MPS 300V030 1200 R04L/P2000 R04R/P2000 -RA BR OVC003 15/15 Q1004 NOSIG
ZHHH,2021-03-31 00:00,ZHHH 310000Z 34002MPS 280V020 1200 R04L/1700N R04R/P2000 -RA BR OVC002 15/15 Q1005 BECMG TL0150 2500
ZHHH,2021-03-31 01:00,ZHHH 310100Z 02002MPS 350V050 1500 -RA BR SCT002 OVC004 15/15 Q1005 NOSIG
ZHHH,2021-03-31 02:00,ZHHH 310200Z 36003MPS 300V030 1500 -RA BR SCT002 OVC004 15/15 Q1005 NOSIG
ZHHH,2021-03-31 03:00,ZHHH 310300Z 02002MPS 330V050 1500 -RA BR SCT003 OVC005 14/14 Q1005 NOSIG
ZHHH,2021-03-31 04:00,ZHHH 310400Z 02003MPS 330V050 2500 -RA BR SCT003 OVC005 14/14 Q1005 BECMG TL0440 3000
ZHHH,2021-03-31 05:00,ZHHH 310500Z 02003MPS 350V050 2500 -RA BR SCT003 OVC005 13/13 Q1005 BECMG TL0550 3000
ZHHH,2021-03-31 06:00,ZHHH 310600Z 03004MPS 360V060 3500 -RA BR SCT005 SCT007 OVC016 13/13 Q1005 NOSIG
ZHHH,2021-03-31 07:00,ZHHH 310700Z 03004MPS 3500 -RA BR SCT007 SCT011 OVC023 13/13 Q1004 NOSIG
ZHHH,2021-03-31 08:00,ZHHH 310800Z 03005MPS 360V060 4000 -RA BR FEW007 SCT014 OVC023 13/13 Q1004 NOSIG
ZHHH,2021-03-31 09:00,ZHHH 310900Z 02003MPS 350V060 4000 -RA BR FEW007 SCT010 OVC023 12/12 Q1005 NOSIG
ZHHH,2021-03-31 10:00,ZHHH 311000Z 04004MPS 8000 -RA FEW010 OVC023 13/13 Q1005 NOSIG
ZHHH,2021-03-31 11:00,ZHHH 311100Z 03004MPS 350V060 8000 -TSRA FEW010 FEW020CB BKN023 13/12 Q1005 NOSIG
ZHHH,2021-03-31 12:00,ZHHH 311200Z 02003MPS 350V050 9999 FEW010 OVC023 13/12 Q1006 RETS NOSIG
ZHHH,2021-03-31 13:00,ZHHH 311300Z 02004MPS 340V050 9999 FEW010 OVC023 12/12 Q1007 NOSIG
ZHHH,2021-03-31 14:00,ZHHH 311400Z 03003MPS 320V070 9999 FEW011 OVC023 12/12 Q1007 NOSIG
ZHHH,2021-03-31 15:00,ZHHH 311500Z 02003MPS 350V060 9999 FEW011 OVC023 12/12 Q1007 NOSIG
ZHHH,2021-03-31 16:00,ZHHH 311600Z 35002MPS 310V020 3000 -RA BR FEW003 SCT005 OVC023 12/12 Q1007 NOSIG
ZHHH,2021-03-31 17:00,ZHHH 311700Z 01002MPS 320V050 4000 -RA BR FEW003 SCT005 OVC023 11/11 Q1008 NOSIG
ZHHH,2021-03-31 18:00,ZHHH 311800Z 36002MPS 280V040 4000 -RA BR FEW003 SCT005 OVC023 11/11 Q1008 NOSIG
ZHHH,2021-03-31 19:00,ZHHH 311900Z 02002MPS 340V060 8000 -RA SCT005 SCT010 OVC023 11/11 Q1007 NOSIG
ZHHH,2021-03-31 20:00,ZHHH 312000Z VRB01MPS 8000 -RA SCT005 SCT010 OVC023 11/11 Q1008 NOSIG
ZHHH,2021-03-31 21:00,ZHHH 312100Z VRB01MPS 8000 FEW005 SCT011 OVC023 12/12 Q1008 NOSIG
ZHHH,2021-03-31 22:00,ZHHH 312200Z VRB01MPS 8000 FEW005 SCT011 OVC023 12/12 Q1008 NOSIG
ZHHH,2021-03-31 23:00,ZHHH 312300Z VRB01MPS 8000 FEW005 SCT011 OVC023 12/12 Q1009 NOSIG
ZHHH,2021-04-01 00:00,ZHHH 010000Z 00000MPS 4500 -RA BR SCT005 SCT011 OVC023 12/12 Q1010 NOSIG
ZHHH,2021-04-01 01:00,ZHHH 010100Z 03003MPS 340V060 2600 -RA BR FEW004 SCT009 OVC023 12/12 Q1011 NOSIG
ZHHH,2021-04-01 02:00,ZHHH 010200Z 03003MPS 320V070 6000 SCT015 SCT023 OVC033 12/12 Q1011 NOSIG
ZHHH,2021-04-01 03:00,ZHHH 010300Z 02002MPS 360V060 7000 -RA SCT015 SCT023 OVC033 12/12 Q1011 NOSIG
ZHHH,2021-04-01 04:00,ZHHH 010400Z 01002MPS 330V050 8000 -RA SCT012 OVC033 13/12 Q1010 NOSIG
ZHHH,2021-04-01 05:00,ZHHH 010500Z 01003MPS 320V040 9999 -RA SCT012 OVC033 13/12 Q1010 NOSIG
ZHHH,2021-04-01 06:00,ZHHH 010600Z 33002MPS 280V030 5000 -RA BR SCT012 OVC040 13/13 Q1010 NOSIG
ZHHH,2021-04-01 07:00,ZHHH 010700Z 36002MPS 320V030 8000 -RA SCT007 OVC040 13/13 Q1009 NOSIG
ZHHH,2021-04-01 08:00,ZHHH 010800Z VRB01MPS 9999 SCT010 OVC040 13/13 Q1009 NOSIG
ZHHH,2021-04-01 09:00,ZHHH 010900Z 02003MPS 340V050 9999 SCT010 OVC040 13/13 Q1010 NOSIG
ZHHH,2021-04-01 10:00,ZHHH 011000Z 36002MPS 300V040 9999 -RA SCT015 SCT026 OVC033 13/13 Q1010 NOSIG
ZHHH,2021-04-01 11:00,ZHHH 011100Z 03003MPS 360V060 9999 SCT020 SCT026 OVC040 13/13 Q1010 NOSIG
ZHHH,2021-04-01 12:00,ZHHH 011200Z 36003MPS 340V040 9999 SCT026 OVC040 13/13 Q1011 NOSIG
ZHHH,2021-04-01 13:00,ZHHH 011300Z 36003MPS 320V030 9999 FEW015 OVC033 13/12 Q1012 NOSIG
ZHHH,2021-04-01 14:00,ZHHH 011400Z VRB01MPS 9999 SCT010 OVC033 13/13 Q1012 NOSIG
ZHHH,2021-04-01 15:00,ZHHH 011500Z VRB01MPS 9999 FEW020 OVC033 13/13 Q1013 NOSIG
ZHHH,2021-04-01 16:00,ZHHH 011600Z 32002MPS 250V030 9999 FEW011 SCT020 OVC033 13/13 Q1013 NOSIG
ZHHH,2021-04-01 17:00,ZHHH 011700Z 33002MPS 280V360 7000 SCT008 SCT011 OVC026 12/12 Q1013 NOSIG
ZHHH,2021-04-01 18:00,ZHHH 011800Z 36002MPS 300V050 7000 -RA SCT008 SCT011 OVC026 12/12 Q1013 NOSIG
ZHHH,2021-04-01 19:00,ZHHH 011900Z 35002MPS 290V040 8000 FEW007 12/12 Q1012 NOSIG
ZHHH,2021-04-01 20:00,ZHHH 012000Z VRB01MPS 8000 FEW007 13/13 Q1012 NOSIG
ZHHH,2021-04-01 21:00,ZHHH 012100Z 03002MPS 360V060 8000 -RA SCT030 13/13 Q1012 NOSIG
ZHHH,2021-04-01 22:00,ZHHH 012200Z 02002MPS 350V050 9999 SCT030 12/12 Q1013 NOSIG
ZHHH,2021-04-01 23:00,ZHHH 012300Z 01002MPS 330V050 9999 -RA SCT030 12/12 Q1013 NOSIG
ZHHH,2021-04-02 00:00,ZHHH 020000Z 02002MPS 340V040 5000 -RA BR SCT010 OVC040 13/13 Q1014 NOSIG
ZHHH,2021-04-02 01:00,ZHHH 020100Z 01003MPS 340V040 5000 -RA BR SCT010 OVC030 13/13 Q1015 NOSIG
ZHHH,2021-04-02 02:00,ZHHH 020200Z 36002MPS 330V040 6000 -RA SCT007 OVC030 13/13 Q1015 NOSIG
ZHHH,2021-04-02 03:00,ZHHH 020300Z 36002MPS 330V040 6000 -RA SCT007 SCT010 OVC030 13/13 Q1015 NOSIG
ZHHH,2021-04-02 04:00,ZHHH 020400Z 04003MPS 360V070 5000 -RA BR FEW010 OVC040 13/13 Q1014 NOSIG
ZHHH,2021-04-02 05:00,ZHHH 020500Z 34002MPS 240V030 6000 -RA FEW011 SCT016 OVC033 13/13 Q1015 NOSIG
ZHHH,2021-04-02 06:00,ZHHH 020600Z 03003MPS 7000 -RA FEW011 SCT016 OVC033 14/14 Q1013 NOSIG
ZHHH,2021-04-02 07:00,ZHHH 020700Z 03004MPS 330V050 9999 FEW011 SCT014 OVC030 14/13 Q1013 NOSIG
ZHHH,2021-04-02 08:00,ZHHH 020800Z 02003MPS 340V050 9999 -RA FEW013 SCT015 OVC030 13/13 Q1013 NOSIG
ZHHH,2021-04-02 09:00,ZHHH 020900Z 04003MPS 9999 FEW015 OVC030 13/12 Q1013 NOSIG
ZHHH,2021-04-02 10:00,ZHHH 021000Z 36002MPS 340V040 9999 -RA FEW015 OVC033 13/13 Q1014 NOSIG
ZHHH,2021-04-02 11:00,ZHHH 021100Z 02003MPS 340V070 9999 FEW015 OVC033 13/12 Q1014 NOSIG
ZHHH,2021-04-02 12:00,ZHHH 021200Z 36002MPS 320V040 9999 SCT016 OVC033 13/13 Q1015 NOSIG
ZHHH,2021-04-02 13:00,ZHHH 021300Z 02003MPS 330V050 9999 BKN016 OVC033 13/12 Q1016 NOSIG
ZHHH,2021-04-02 14:00,ZHHH 021400Z 33003MPS 280V040 4500 -RA BR BKN006 OVC020 12/12 Q1017 NOSIG
ZHHH,2021-04-02 15:00,ZHHH 021500Z 35004MPS 320V020 2000 -RA BR BKN004 OVC020 11/11 Q1017 BECMG TL1620 3000
ZHHH,2021-04-02 16:00,ZHHH 021600Z 36003MPS 320V040 3000 -RA BR BKN006 OVC020 11/11 Q1017 NOSIG
ZHHH,2021-04-02 17:00,ZHHH 021700Z VRB01MPS 5000 BR FEW007 SCT011 OVC020 11/11 Q1018 NOSIG
ZHHH,2021-04-02 18:00,ZHHH 021800Z 34002MPS 290V080 5000 BR FEW007 SCT011 OVC020 11/11 Q1018 NOSIG
ZHHH,2021-04-02 19:00,ZHHH 021900Z 35002MPS 290V050 5000 BR BKN016 OVC030 11/11 Q1018 NOSIG
ZHHH,2021-04-02 20:00,ZHHH 022000Z 04002MPS 360V060 5000 BR SCT015 11/11 Q1017 NOSIG
ZHHH,2021-04-02 21:00,ZHHH 022100Z 01003MPS 340V040 6000 OVC016 11/10 Q1017 NOSIG
ZHHH,2021-04-02 22:00,ZHHH 022200Z 01002MPS 330V040 6000 -RA SCT015 OVC020 11/11 Q1018 NOSIG
ZHHH,2021-04-02 23:00,ZHHH 022300Z 04005MPS 350V060 3400 -RA BR SCT014 OVC020 11/11 Q1018 NOSIG
ZHHH,2021-04-03 00:00,ZHHH 030000Z 36002MPS 300V050 3000 BR SCT013 OVC020 11/11 Q1019 NOSIG
ZHHH,2021-04-03 01:00,ZHHH 030100Z 36002MPS 300V040 7000 -RA FEW010 SCT020 OVC040 12/11 Q1020 NOSIG
ZHHH,2021-04-03 02:00,ZHHH 030200Z VRB03MPS 3500 RA BR SCT007 OVC040 11/11 Q1021 NOSIG
ZHHH,2021-04-03 03:00,ZHHH 030300Z 35003MPS 300V050 1600 -RA BR SCT005 SCT007 OVC026 11/11 Q1021 RERA BECMG TL0440 3200
ZHHH,2021-04-03 04:00,ZHHH 030400Z 34003MPS 300V030 2500 -RA BR SCT007 OVC026 12/12 Q1020 BECMG TL0520 3000
ZHHH,2021-04-03 05:00,ZHHH 030500Z 34003MPS 280V040 6000 SCT011 OVC026 12/11 Q1020 NOSIG
ZHHH,2021-04-03 06:00,ZHHH 030600Z 34003MPS 280V070 6000 SCT011 OVC026 13/11 Q1020 NOSIG
ZHHH,2021-04-03 07:00,ZHHH 030700Z 34004MPS 290V030 6000 SCT011 OVC026 13/11 Q1020 NOSIG
ZHHH,2021-04-03 08:00,ZHHH 030800Z 35004MPS 300V030 6000 SCT011 OVC026 13/11 Q1019 NOSIG
ZHHH,2021-04-03 09:00,ZHHH 030900Z 36003MPS 320V030 8000 OVC023 13/11 Q1020 NOSIG
ZHHH,2021-04-03 10:00,ZHHH 031000Z 02003MPS 360V060 8000 BKN020 13/11 Q1020 NOSIG
ZHHH,2021-04-03 11:00,ZHHH 031100Z 02002MPS 340V070 7000 SCT007 BKN016 12/11 Q1021 NOSIG
ZHHH,2021-04-03 12:00,ZHHH 031200Z 03003MPS 360V060 7000 OVC018 12/10 Q1021 NOSIG
ZHHH,2021-04-03 13:00,ZHHH 031300Z 02002MPS 330V060 7000 BKN026 12/10 Q1022 NOSIG
ZHHH,2021-04-03 14:00,ZHHH 031400Z 01002MPS 340V060 7000 BKN023 12/10 Q1023 NOSIG
ZHHH,2021-04-03 15:00,ZHHH 031500Z 01002MPS 300V050 7000 BKN023 12/10 Q1023 NOSIG
ZHHH,2021-04-03 16:00,ZHHH 031600Z 35002MPS 270V040 7000 BKN030 12/11 Q1023 NOSIG
ZHHH,2021-04-03 17:00,ZHHH 031700Z 36003MPS 320V030 6000 FEW020 12/11 Q1023 NOSIG
ZHHH,2021-04-03 18:00,ZHHH 031800Z 34003MPS 290V080 6000 OVC023 12/11 Q1023 NOSIG
ZHHH,2021-04-03 19:00,ZHHH 031900Z 35003MPS 300V040 6000 OVC023 11/11 Q1023 NOSIG
ZHHH,2021-04-03 20:00,ZHHH 032000Z 35002MPS 300V030 6000 OVC040 11/11 Q1023 NOSIG
ZHHH,2021-04-03 21:00,ZHHH 032100Z 01002MPS 320V050 8000 OVC040 11/11 Q1023 NOSIG
ZHHH,2021-04-03 22:00,ZHHH 032200Z 02003MPS 340V050 9999 OVC040 11/09 Q1024 NOSIG
ZHHH,2021-04-03 23:00,ZHHH 032300Z 03004MPS CAVOK 11/10 Q1024 NOSIG
ZHHH,2021-04-04 00:00,ZHHH 040000Z 02004MPS 350V070 6000 FEW015 11/10 Q1025 NOSIG
ZHHH,2021-04-04 01:00,ZHHH 040100Z 02003MPS 340V050 6000 SCT015 12/10 Q1025 NOSIG
ZHHH,2021-04-04 02:00,ZHHH 040200Z 01004MPS 340V040 6000 SCT015 12/09 Q1026 NOSIG
ZHHH,2021-04-04 03:00,ZHHH 040300Z 03005MPS 350V050 6000 SCT022 13/09 Q1025 NOSIG
ZHHH,2021-04-04 04:00,ZHHH 040400Z 03004MPS 330V060 6000 SCT026 14/09 Q1025 NOSIG
ZHHH,2021-04-04 05:00,ZHHH 040500Z 04003MPS 360V060 8000 SCT026 15/10 Q1024 NOSIG
ZHHH,2021-04-04 06:00,ZHHH 040600Z 03003MPS 360V070 9999 BKN033 16/08 Q1023 NOSIG
ZHHH,2021-04-04 07:00,ZHHH 040700Z 03004MPS 340V070 9999 SCT026 17/07 Q1022 NOSIG
ZHHH,2021-04-04 08:00,ZHHH 040800Z 03002MPS 310V060 9999 FEW033 17/06 Q1022 NOSIG
ZHHH,2021-04-04 09:00,ZHHH 040900Z 02003MPS 280V060 CAVOK 18/04 Q1022 NOSIG
ZHHH,2021-04-04 10:00,ZHHH 041000Z 03003MPS 350V060 CAVOK 17/03 Q1022 NOSIG
ZHHH,2021-04-04 11:00,ZHHH 041100Z 04004MPS CAVOK 15/01 Q1022 NOSIG
ZHHH,2021-04-04 12:00,ZHHH 041200Z 03003MPS 360V060 CAVOK 15/01 Q1023 NOSIG
ZHHH,2021-04-04 13:00,ZHHH 041300Z 02003MPS 340V060 CAVOK 14/02 Q1024 NOSIG
ZHHH,2021-04-04 14:00,ZHHH 041400Z 03003MPS 350V050 CAVOK 14/02 Q1024 NOSIG
ZHHH,2021-04-04 15:00,ZHHH 041500Z 04004MPS CAVOK 14/03 Q1024 NOSIG
ZHHH,2021-04-04 16:00,ZHHH 041600Z 05004MPS CAVOK 13/03 Q1024 NOSIG
ZHHH,2021-04-04 17:00,ZHHH 041700Z 03002MPS CAVOK 13/03 Q1024 NOSIG
ZHHH,2021-04-04 18:00,ZHHH 041800Z 08004MPS CAVOK 13/02 Q1023 NOSIG
ZHHH,2021-04-04 19:00,ZHHH 041900Z 07003MPS CAVOK 13/03 Q1023 NOSIG
ZHHH,2021-04-04 20:00,ZHHH 042000Z 09002MPS 060V120 CAVOK 13/04 Q1023 NOSIG
ZHHH,2021-04-04 21:00,ZHHH 042100Z 07003MPS CAVOK 12/05 Q1022 NOSIG
ZHHH,2021-04-04 22:00,ZHHH 042200Z 07003MPS CAVOK 12/05 Q1022 NOSIG
ZHHH,2021-04-04 23:00,ZHHH 042300Z 04002MPS CAVOK 12/06 Q1023 NOSIG
ZHHH,2021-04-05 00:00,ZHHH 050000Z 04002MPS CAVOK 13/05 Q1024 NOSIG
ZHHH,2021-04-05 01:00,ZHHH 050100Z 05003MPS CAVOK 13/04 Q1024 NOSIG
ZHHH,2021-04-05 02:00,ZHHH 050200Z 11003MPS 060V140 CAVOK 14/04 Q1023 NOSIG
ZHHH,2021-04-05 03:00,ZHHH 050300Z 11003MPS 080V140 CAVOK 14/05 Q1023 NOSIG
ZHHH,2021-04-05 04:00,ZHHH 050400Z 10003MPS 070V130 9999 -RA FEW010 15/06 Q1023 NOSIG
ZHHH,2021-04-05 05:00,ZHHH 050500Z 14002MPS 080V170 9999 -RA NSC 15/06 Q1022 NOSIG
ZHHH,2021-04-05 06:00,ZHHH 050600Z 14003MPS 100V190 CAVOK 15/04 Q1021 NOSIG
ZHHH,2021-04-05 07:00,ZHHH 050700Z 12003MPS 080V150 CAVOK 15/04 Q1021 NOSIG
ZHHH,2021-04-05 08:00,ZHHH 050800Z 13002MPS 060V160 CAVOK 15/04 Q1021 NOSIG
ZHHH,2021-04-05 09:00,ZHHH 050900Z 12002MPS 070V160 CAVOK 15/03 Q1020 NOSIG
ZHHH,2021-04-05 10:00,ZHHH 051000Z 11003MPS 080V160 CAVOK 14/05 Q1020 NOSIG
ZHHH,2021-04-05 11:00,ZHHH 051100Z 11003MPS 080V140 CAVOK 14/04 Q1021 NOSIG
ZHHH,2021-04-05 12:00,ZHHH 051200Z 12003MPS 080V140 CAVOK 14/04 Q1020 NOSIG
ZHHH,2021-04-05 13:00,ZHHH 051300Z 12002MPS 060V150 CAVOK 14/04 Q1021 NOSIG
ZHHH,2021-04-05 14:00,ZHHH 051400Z 14003MPS CAVOK 13/05 Q1021 NOSIG
ZHHH,2021-04-05 15:00,ZHHH 051500Z 00000MPS CAVOK 11/07 Q1021 NOSIG
ZHHH,2021-04-05 16:00,ZHHH 051600Z VRB01MPS CAVOK 10/08 Q1021 NOSIG
ZHHH,2021-04-05 17:00,ZHHH 051700Z 04002MPS CAVOK 10/08 Q1021 NOSIG
ZHHH,2021-04-05 18:00,ZHHH 051800Z 06002MPS CAVOK 10/08 Q1021 NOSIG
ZHHH,2021-04-05 19:00,ZHHH 051900Z 06001MPS CAVOK 10/08 Q1021 NOSIG
ZHHH,2021-04-05 20:00,ZHHH 052000Z VRB01MPS CAVOK 10/08 Q1021 NOSIG
ZHHH,2021-04-05 21:00,ZHHH 052100Z 08002MPS CAVOK 08/08 Q1021 NOSIG
ZHHH,2021-04-05 22:00,ZHHH 052200Z 11003MPS CAVOK 10/07 Q1021 NOSIG
ZHHH,2021-04-05 23:00,ZHHH 052300Z 09003MPS CAVOK 11/08 Q1021 NOSIG
ZHHH,2021-04-06 00:00,ZHHH 060000Z 06003MPS CAVOK 12/08 Q1022 NOSIG
ZHHH,2021-04-06 01:00,ZHHH 060100Z 10002MPS 060V140 CAVOK 14/07 Q1023 NOSIG
ZHHH,2021-04-06 02:00,ZHHH 060200Z VRB01MPS CAVOK 15/07 Q1023 NOSIG
ZHHH,2021-04-06 03:00,ZHHH 060300Z 10002MPS 020V160 CAVOK 17/08 Q1023 NOSIG
ZHHH,2021-04-06 04:00,ZHHH 060400Z VRB03MPS CAVOK 17/05 Q1022 NOSIG
ZHHH,2021-04-06 05:00,ZHHH 060500Z 13004MPS 090V170 CAVOK 18/06 Q1022 NOSIG
ZHHH,2021-04-06 06:00,ZHHH 060600Z 12003MPS 090V160 CAVOK 17/06 Q1021 NOSIG
ZHHH,2021-04-06 07:00,ZHHH 060700Z 10003MPS 070V130 CAVOK 18/05 Q1020 NOSIG
ZHHH,2021-04-06 08:00,ZHHH 060800Z 20003MPS 070V240 CAVOK 18/08 Q1021 NOSIG
ZHHH,2021-04-06 09:00,ZHHH 060900Z VRB01MPS CAVOK 17/08 Q1020 NOSIG
ZHHH,2021-04-06 10:00,ZHHH 061000Z 13002MPS 090V150 CAVOK 17/06 Q1019 NOSIG
ZHHH,2021-04-06 11:00,ZHHH 061100Z 01002MPS CAVOK 15/09 Q1020 NOSIG
ZHHH,2021-04-06 12:00,ZHHH 061200Z 25001MPS CAVOK 15/10 Q1021 NOSIG
ZHHH,2021-04-06 13:00,ZHHH 061300Z 32001MPS CAVOK 15/13 Q1022 NOSIG
ZHHH,2021-04-06 14:00,ZHHH 061400Z 00000MPS CAVOK 15/13 Q1023 NOSIG
ZHHH,2021-04-06 15:00,ZHHH 061500Z VRB01MPS 9999 -RA NSC 14/14 Q1022 NOSIG
ZHHH,2021-04-06 16:00,ZHHH 061600Z 05003MPS 9999 -RA NSC 14/12 Q1021 NOSIG
ZHHH,2021-04-06 17:00,ZHHH 061700Z 05003MPS 8000 -RA NSC 14/12 Q1019 NOSIG
ZHHH,2021-04-06 18:00,ZHHH 061800Z 26002MPS 230V290 8000 -RA NSC 14/13 Q1020 NOSIG
ZHHH,2021-04-06 19:00,ZHHH 061900Z VRB02MPS 4500 -RA BR SCT033 14/14 Q1020 NOSIG
ZHHH,2021-04-06 20:00,ZHHH 062000Z 02002MPS 330V040 4000 -RA BR OVC040 13/13 Q1019 NOSIG
ZHHH,2021-04-06 21:00,ZHHH 062100Z 04003MPS 360V060 5000 -RA BR NSC 13/13 Q1018 NOSIG
ZHHH,2021-04-06 22:00,ZHHH 062200Z 33002MPS 280V020 5000 -RA BR OVC040 12/12 Q1020 BECMG TL2250 RA
ZHHH,2021-04-06 23:00,ZHHH 062300Z 36002MPS 310V040 4000 -RA BR NSC 12/12 Q1020 NOSIG
ZHHH,2021-04-07 00:00,ZHHH 070000Z VRB01MPS 3500 -RA BR NSC 12/12 Q1021 NOSIG
ZHHH,2021-04-07 01:00,ZHHH 070100Z 03003MPS 340V060 2500 RA BR SCT005 OVC033 12/12 Q1021 BECMG TL0150 3000
ZHHH,2021-04-07 02:00,ZHHH 070200Z 04003MPS 3000 -RA BR SCT005 OVC033 12/12 Q1021 RERA NOSIG
ZHHH,2021-04-07 03:00,ZHHH 070300Z 01002MPS 310V060 2600 -RA BR BKN005 OVC033 12/12 Q1021 BECMG TL0450 3000 SCT010
ZHHH,2021-04-07 04:00,ZHHH 070400Z 03003MPS 350V060 2800 -RA BR BKN005 OVC033 12/12 Q1020 BECMG TL0520 3000 SCT010
ZHHH,2021-04-07 05:00,ZHHH 070500Z 03003MPS 360V060 3500 -RA BR SCT008 SCT011 OVC033 13/13 Q1019 NOSIG
ZHHH,2021-04-07 06:00,ZHHH 070600Z 05006MPS 3000 -RA BR SCT005 SCT008 OVC033 13/13 Q1017 NOSIG
ZHHH,2021-04-07 07:00,ZHHH 070700Z 04004MPS 360V060 2300 -RA BR SCT008 SCT011 OVC033 13/13 Q1017 BECMG TL0840 3200
ZHHH,2021-04-07 08:00,ZHHH 070800Z 02003MPS 350V050 2300 -RA BR SCT005 SCT008 OVC026 12/12 Q1017 BECMG TL0840 3200
ZHHH,2021-04-07 09:00,ZHHH 070900Z 01003MPS 340V040 1900 -RA BR SCT005 SCT007 OVC026 12/12 Q1017 NOSIG
ZHHH,2021-04-07 10:00,ZHHH 071000Z 01003MPS 340V050 1900 -RA BR SCT005 SCT007 OVC026 12/12 Q1018 BECMG TL1150 3000
ZHHH,2021-04-07 11:00,ZHHH 071100Z 03003MPS 360V060 3500 -RA BR SCT007 OVC026 12/12 Q1018 NOSIG
ZHHH,2021-04-07 12:00,ZHHH 071200Z 04004MPS 6000 -RA SCT007 OVC026 12/12 Q1019 NOSIG
ZHHH,2021-04-07 13:00,ZHHH 071300Z 03002MPS 350V060 6000 -RA FEW010 OVC040 12/12 Q1019 NOSIG
ZHHH,2021-04-07 14:00,ZHHH 071400Z 03002MPS 340V080 4500 -RA BR FEW010 OVC033 12/12 Q1020 NOSIG
ZHHH,2021-04-07 15:00,ZHHH 071500Z 35002MPS 320V020 4500 -RA BR FEW010 OVC033 12/12 Q1020 NOSIG
ZHHH,2021-04-07 16:00,ZHHH 071600Z 02002MPS 360V060 6000 OVC033 12/12 Q1019 NOSIG
ZHHH,2021-04-07 17:00,ZHHH 071700Z VRB01MPS 6000 OVC033 12/12 Q1019 NOSIG
ZHHH,2021-04-07 18:00,ZHHH 071800Z 35002MPS 290V030 3500 BR FEW006 OVC030 12/12 Q1019 NOSIG
ZHHH,2021-04-07 19:00,ZHHH 071900Z 36002MPS 310V040 3500 BR OVC030 12/12 Q1019 NOSIG
ZHHH,2021-04-07 20:00,ZHHH 072000Z 01002MPS 330V050 3500 BR OVC030 12/12 Q1019 NOSIG
ZHHH,2021-04-07 21:00,ZHHH 072100Z 02002MPS 340V070 4000 BR OVC033 11/11 Q1019 NOSIG
ZHHH,2021-04-07 22:00,ZHHH 072200Z 36002MPS 330V030 4000 BR OVC033 12/12 Q1020 BECMG TL2350 2800
ZHHH,2021-04-07 23:00,ZHHH 072300Z 02002MPS 340V050 3000 BR OVC040 12/12 Q1021 BECMG TL0020 2800
ZHHH,2021-04-08 00:00,ZHHH 080000Z 03003MPS 340V060 3500 BR NSC 12/12 Q1021 NOSIG
ZHHH,2021-04-08 01:00,ZHHH 080100Z 04004MPS 360V060 5000 BR NSC 13/11 Q1022 NOSIG
ZHHH,2021-04-08 02:00,ZHHH 080200Z 03003MPS 350V070 7000 NSC 14/11 Q1023 NOSIG
ZHHH,2021-04-08 03:00,ZHHH 080300Z 07005MPS 8000 NSC 16/11 Q1022 NOSIG
ZHHH,2021-04-08 04:00,ZHHH 080400Z 09004MPS 060V120 CAVOK 17/09 Q1022 NOSIG
ZHHH,2021-04-08 05:00,ZHHH 080500Z VRB02MPS 9999 FEW025 18/10 Q1021 NOSIG
ZHHH,2021-04-08 06:00,ZHHH 080600Z 27003MPS 240V320 9999 SCT040 18/09 Q1020 NOSIG
ZHHH,2021-04-08 07:00,ZHHH 080700Z 23003MPS 200V260 9999 SCT040 19/09 Q1020 NOSIG
ZHHH,2021-04-08 08:00,ZHHH 080800Z 25002MPS 220V300 CAVOK 19/09 Q1019 NOSIG
ZHHH,2021-04-08 09:00,ZHHH 080900Z 26002MPS 200V310 CAVOK 20/08 Q1019 NOSIG
ZHHH,2021-04-08 10:00,ZHHH 081000Z 23001MPS CAVOK 18/10 Q1019 NOSIG
ZHHH,2021-04-08 11:00,ZHHH 081100Z 04004MPS 010V090 CAVOK 18/09 Q1020 NOSIG
ZHHH,2021-04-08 12:00,ZHHH 081200Z 04005MPS CAVOK 17/08 Q1020 NOSIG
ZHHH,2021-04-08 13:00,ZHHH 081300Z 05005MPS CAVOK 16/08 Q1021 NOSIG
ZHHH,2021-04-08 14:00,ZHHH 081400Z 14004MPS 100V170 9999 OVC040 17/11 Q1021 NOSIG
ZHHH,2021-04-08 15:00,ZHHH 081500Z 14004MPS 9999 OVC040 16/11 Q1022 NOSIG
ZHHH,2021-04-08 16:00,ZHHH 081600Z 18002MPS 9999 OVC040 15/11 Q1022 NOSIG
ZHHH,2021-04-08 17:00,ZHHH 081700Z 12001MPS 9999 OVC046 15/11 Q1022 NOSIG
ZHHH,2021-04-08 18:00,ZHHH 081800Z 06002MPS 020V080 CAVOK 15/13 Q1021 NOSIG
ZHHH,2021-04-08 19:00,ZHHH 081900Z 05002MPS 6000 NSC 14/13 Q1022 NOSIG
ZHHH,2021-04-08 20:00,ZHHH 082000Z 05003MPS 5000 BR NSC 13/13 Q1022 NOSIG
ZHHH,2021-04-08 21:00,ZHHH 082100Z 05003MPS 7000 NSC 11/11 Q1022 NOSIG
ZHHH,2021-04-08 22:00,ZHHH 082200Z 04002MPS 5000 BR NSC 11/11 Q1022 NOSIG
ZHHH,2021-04-08 23:00,ZHHH 082300Z 05003MPS 5000 BR NSC 11/11 Q1022 NOSIG
ZHHH,2021-04-09 00:00,ZHHH 090000Z 06003MPS 8000 NSC 13/10 Q1023 NOSIG
ZHHH,2021-04-09 01:00,ZHHH 090100Z 07004MPS 040V100 CAVOK 16/08 Q1023 NOSIG
ZHHH,2021-04-09 02:00,ZHHH 090200Z 11004MPS 080V140 CAVOK 18/08 Q1023 NOSIG
ZHHH,2021-04-09 03:00,ZHHH 090300Z 10005MPS 070V140 CAVOK 19/06 Q1023 NOSIG
ZHHH,2021-04-09 04:00,ZHHH 090400Z 08004MPS 050V130 CAVOK 19/07 Q1023 NOSIG
ZHHH,2021-04-09 05:00,ZHHH 090500Z 12006MPS 090V160 9999 FEW033 20/06 Q1022 NOSIG
ZHHH,2021-04-09 06:00,ZHHH 090600Z 14005MPS 080V170 9999 FEW033 20/06 Q1021 NOSIG
ZHHH,2021-04-09 07:00,ZHHH 090700Z 14005MPS 9999 FEW033 21/06 Q1020 NOSIG
ZHHH,2021-04-09 08:00,ZHHH 090800Z 13003MPS 080V170 CAVOK 21/05 Q1020 NOSIG
ZHHH,2021-04-09 09:00,ZHHH 090900Z 10003MPS 060V130 CAVOK 21/05 Q1019 NOSIG
ZHHH,2021-04-09 10:00,ZHHH 091000Z 09003MPS 060V130 CAVOK 20/05 Q1019 NOSIG
ZHHH,2021-04-09 11:00,ZHHH 091100Z 27002MPS CAVOK 17/09 Q1020 NOSIG
ZHHH,2021-04-09 12:00,ZHHH 091200Z VRB01MPS CAVOK 16/11 Q1021 NOSIG
ZHHH,2021-04-09 13:00,ZHHH 091300Z 02002MPS CAVOK 16/10 Q1021 NOSIG
ZHHH,2021-04-09 14:00,ZHHH 091400Z 03002MPS CAVOK 16/10 Q1022 NOSIG
ZHHH,2021-04-09 15:00,ZHHH 091500Z 00000MPS CAVOK 14/11 Q1022 NOSIG
ZHHH,2021-04-09 16:00,ZHHH 091600Z 06001MPS CAVOK 13/11 Q1022 NOSIG
ZHHH,2021-04-09 17:00,ZHHH 091700Z 05002MPS 030V120 CAVOK 13/09 Q1022 NOSIG
ZHHH,2021-04-09 18:00,ZHHH 091800Z 08002MPS CAVOK 13/10 Q1021 NOSIG
ZHHH,2021-04-09 19:00,ZHHH 091900Z 06002MPS CAVOK 14/09 Q1021 NOSIG
ZHHH,2021-04-09 20:00,ZHHH 092000Z 05003MPS CAVOK 13/10 Q1021 NOSIG
ZHHH,2021-04-09 21:00,ZHHH 092100Z 09003MPS CAVOK 14/09 Q1021 NOSIG
ZHHH,2021-04-09 22:00,ZHHH 092200Z 09003MPS CAVOK 14/08 Q1021 NOSIG
ZHHH,2021-04-09 23:00,ZHHH 092300Z 10002MPS 080V140 CAVOK 14/07 Q1022 NOSIG
ZHHH,2021-04-10 00:00,ZHHH 100000Z 10004MPS CAVOK 15/06 Q1022 NOSIG
ZHHH,2021-04-10 01:00,ZHHH 100100Z 08005MPS CAVOK 16/06 Q1023 NOSIG
ZHHH,2021-04-10 02:00,ZHHH 100200Z 11004MPS 070V140 CAVOK 18/06 Q1023 NOSIG
ZHHH,2021-04-10 03:00,ZHHH 100300Z 12003MPS 080V150 CAVOK 18/05 Q1023 NOSIG
ZHHH,2021-04-10 04:00,ZHHH 100400Z 12003MPS 080V160 CAVOK 19/04 Q1022 NOSIG
ZHHH,2021-04-10 05:00,ZHHH 100500Z VRB03MPS CAVOK 20/04 Q1022 NOSIG
ZHHH,2021-04-10 06:00,ZHHH 100600Z 11002MPS 060V160 CAVOK 20/04 Q1021 NOSIG
ZHHH,2021-04-10 07:00,ZHHH 100700Z 28002MPS 240V340 CAVOK 20/06 Q1020 NOSIG
ZHHH,2021-04-10 08:00,ZHHH 100800Z 30002MPS 270V340 CAVOK 19/07 Q1020 NOSIG
ZHHH,2021-04-10 09:00,ZHHH 100900Z 00000MPS CAVOK 19/10 Q1020 NOSIG
ZHHH,2021-04-10 10:00,ZHHH 101000Z 00000MPS CAVOK 18/10 Q1020 NOSIG
ZHHH,2021-04-10 11:00,ZHHH 101100Z 00000MPS CAVOK 18/08 Q1020 NOSIG
ZHHH,2021-04-10 12:00,ZHHH 101200Z 03002MPS CAVOK 17/08 Q1020 NOSIG
ZHHH,2021-04-10 13:00,ZHHH 101300Z 00000MPS CAVOK 17/11 Q1021 NOSIG
ZHHH,2021-04-10 14:00,ZHHH 101400Z 29001MPS CAVOK 16/13 Q1021 NOSIG
ZHHH,2021-04-10 15:00,ZHHH 101500Z 00000MPS CAVOK 16/12 Q1021 NOSIG
ZHHH,2021-04-10 16:00,ZHHH 101600Z 00000MPS CAVOK 16/14 Q1021 NOSIG
ZHHH,2021-04-10 17:00,ZHHH 101700Z 00000MPS CAVOK 15/14 Q1021 NOSIG
ZHHH,2021-04-10 18:00,ZHHH 101800Z 20002MPS 8000 NSC 16/14 Q1021 NOSIG
ZHHH,2021-04-10 19:00,ZHHH 101900Z 18002MPS 7000 NSC 16/13 Q1020 NOSIG
ZHHH,2021-04-10 20:00,ZHHH 102000Z 13003MPS 7000 OVC033 16/12 Q1020 NOSIG
ZHHH,2021-04-10 21:00,ZHHH 102100Z 12003MPS 090V150 7000 OVC033 16/11 Q1020 NOSIG
ZHHH,2021-04-10 22:00,ZHHH 102200Z 11002MPS 7000 OVC033 16/11 Q1020 NOSIG
ZHHH,2021-04-10 23:00,ZHHH 102300Z 09003MPS 7000 OVC033 16/12 Q1020 NOSIG
ZHHH,2021-04-11 00:00,ZHHH 110000Z 07002MPS 040V110 7000 OVC040 16/12 Q1021 NOSIG
ZHHH,2021-04-11 01:00,ZHHH 110100Z VRB01MPS 7000 OVC040 16/12 Q1021 NOSIG
ZHHH,2021-04-11 02:00,ZHHH 110200Z 10002MPS 050V150 5000 -RA BR OVC040 16/12 Q1021 NOSIG
ZHHH,2021-04-11 03:00,ZHHH 110300Z 12002MPS 070V150 5000 -RA BR OVC040 15/13 Q1021 NOSIG
ZHHH,2021-04-11 04:00,ZHHH 110400Z 11002MPS 070V140 5000 -RA BR SCT014 OVC040 16/13 Q1021 NOSIG
ZHHH,2021-04-11 05:00,ZHHH 110500Z 12003MPS 4000 -RA BR FEW013 FEW023TCU OVC033 15/13 Q1020 NOSIG
ZHHH,2021-04-11 06:00,ZHHH 110600Z 12003MPS 090V150 2500 -RA BR FEW010 FEW023TCU OVC033 15/14 Q1019 BECMG TL0750 3000
ZHHH,2021-04-11 07:00,ZHHH 110700Z 10003MPS 2500 -RA BR SCT010 OVC033 14/14 Q1019 NOSIG
ZHHH,2021-04-11 08:00,ZHHH 110800Z 11003MPS 2600 BR SCT010 OVC033 14/14 Q1018 NOSIG
ZHHH,2021-04-11 09:00,ZHHH 110900Z 08003MPS 050V110 2000 -RA BR SCT010 OVC033 14/14 Q1018 NOSIG
ZHHH,2021-04-11 10:00,ZHHH 111000Z 09003MPS 1800 -RA BR SCT006 SCT009 OVC033 14/14 Q1018 BECMG TL1150 3000
ZHHH,2021-04-11 11:00,ZHHH 111100Z 08004MPS 3300 -RA BR SCT006 SCT013 OVC033 14/14 Q1018 NOSIG
ZHHH,2021-04-11 12:00,ZHHH 111200Z 08003MPS 3500 -RA BR FEW005 SCT014 OVC033 14/14 Q1019 NOSIG
ZHHH,2021-04-11 13:00,ZHHH 111300Z 08003MPS 050V110 3500 -RA BR SCT014 OVC033 14/14 Q1019 NOSIG
ZHHH,2021-04-11 14:00,ZHHH 111400Z 08003MPS 3000 -RA BR SCT005 SCT014 OVC033 14/14 Q1019 BECMG TL1550 2800
ZHHH,2021-04-11 15:00,ZHHH 111500Z 06002MPS 3000 BR SCT005 SCT013 OVC033 14/14 Q1019 BECMG TL1550 2800
ZHHH,2021-04-11 16:00,ZHHH 111600Z 01002MPS 330V040 2800 BR SCT005 SCT013 OVC033 14/14 Q1019 BECMG TL1700 3000
ZHHH,2021-04-11 17:00,ZHHH 111700Z 10002MPS 070V130 3000 BR SCT005 SCT013 OVC033 14/14 Q1018 NOSIG
ZHHH,2021-04-11 18:00,ZHHH 111800Z VRB01MPS 3000 BR FEW005 SCT008 OVC033 14/14 Q1018 NOSIG
ZHHH,2021-04-11 19:00,ZHHH 111900Z 01002MPS 340V040 3000 BR SCT003 OVC033 14/14 Q1017 NOSIG
ZHHH,2021-04-11 20:00,ZHHH 112000Z VRB01MPS 3500 BR FEW003 SCT019 OVC033 13/13 Q1017 NOSIG
ZHHH,2021-04-11 21:00,ZHHH 112100Z VRB01MPS 3500 BR FEW003 13/13 Q1017 NOSIG
ZHHH,2021-04-11 22:00,ZHHH 112200Z 00000MPS 3000 BR FEW010 OVC040 13/13 Q1017 BECMG TL2350 2800
ZHHH,2021-04-11 23:00,ZHHH 112300Z VRB01MPS 2500 BR FEW010 14/14 Q1018 BECMG TL0050 3000
ZHHH,2021-04-12 00:00,ZHHH 120000Z VRB01MPS 2500 BR SCT033 14/14 Q1018 BECMG TL0050 3000
ZHHH,2021-04-12 01:00,ZHHH 120100Z 26002MPS 220V300 5000 BR SCT009 15/14 Q1019 NOSIG
ZHHH,2021-04-12 02:00,ZHHH 120200Z 29002MPS 230V030 5000 BR SCT009 15/14 Q1019 NOSIG
ZHHH,2021-04-12 03:00,ZHHH 120300Z 34002MPS 250V050 7000 SCT012 16/14 Q1018 NOSIG
ZHHH,2021-04-12 04:00,ZHHH 120400Z 26002MPS 200V320 6000 FEW012 SCT020 17/14 Q1018 NOSIG
ZHHH,2021-04-12 05:00,ZHHH 120500Z 28002MPS 230V350 6000 SCT026 18/13 Q1017 NOSIG
ZHHH,2021-04-12 06:00,ZHHH 120600Z 25002MPS 190V350 6000 FEW033 19/14 Q1016 NOSIG
ZHHH,2021-04-12 07:00,ZHHH 120700Z 27002MPS 8000 FEW033 20/13 Q1015 NOSIG
ZHHH,2021-04-12 08:00,ZHHH 120800Z VRB02MPS 9999 FEW040 21/12 Q1015 NOSIG
ZHHH,2021-04-12 09:00,ZHHH 120900Z VRB02MPS 9999 FEW040 21/12 Q1014 NOSIG
ZHHH,2021-04-12 10:00,ZHHH 121000Z 23002MPS 200V260 CAVOK 21/12 Q1015 NOSIG
ZHHH,2021-04-12 11:00,ZHHH 121100Z 20002MPS 140V250 CAVOK 19/11 Q1015 NOSIG
ZHHH,2021-04-12 12:00,ZHHH 121200Z VRB01MPS CAVOK 19/11 Q1016 NOSIG
ZHHH,2021-04-12 13:00,ZHHH 121300Z 20002MPS 140V240 CAVOK 19/13 Q1017 NOSIG
ZHHH,2021-04-12 14:00,ZHHH 121400Z 20003MPS 150V230 CAVOK 18/14 Q1018 NOSIG
ZHHH,2021-04-12 15:00,ZHHH 121500Z 23002MPS 7000 NSC 17/15 Q1018 NOSIG
ZHHH,2021-04-12 16:00,ZHHH 121600Z 24002MPS 7000 NSC 17/15 Q1018 NOSIG
ZHHH,2021-04-12 17:00,ZHHH 121700Z VRB01MPS 5000 BR NSC 17/16 Q1018 NOSIG
ZHHH,2021-04-12 18:00,ZHHH 121800Z 22001MPS 5000 BR NSC 16/16 Q1017 NOSIG
ZHHH,2021-04-12 19:00,ZHHH 121900Z 20001MPS 4000 BR NSC 15/15 Q1017 NOSIG
ZHHH,2021-04-12 20:00,ZHHH 122000Z 00000MPS 3000 BR NSC 15/15 Q1017 NOSIG
ZHHH,2021-04-12 21:00,ZHHH 122100Z VRB01MPS 3000 BR NSC 14/14 Q1017 NOSIG
ZHHH,2021-04-12 22:00,ZHHH 122200Z 00000MPS 2500 BR SCT040 14/14 Q1017 BECMG TL2340 3000
ZHHH,2021-04-12 23:00,ZHHH 122300Z 00000MPS 2300 BR NSC 15/15 Q1018 BECMG TL0020 3000
ZHHH,2021-04-13 00:00,ZHHH 130000Z 08002MPS 060V120 2300 BR NSC 17/16 Q1018 BECMG TL0120 3000
ZHHH,2021-04-13 01:00,ZHHH 130100Z VRB01MPS 2500 BR NSC 19/16 Q1019 BECMG TL0200 3200
ZHHH,2021-04-13 02:00,ZHHH 130200Z VRB02MPS 3200 BR NSC 20/16 Q1019 NOSIG
ZHHH,2021-04-13 03:00,ZHHH 130300Z 25002MPS 160V280 4200 BR NSC 20/17 Q1018 NOSIG
ZHHH,2021-04-13 04:00,ZHHH 130400Z 25002MPS 180V300 5000 HZ FEW020 22/16 Q1018 NOSIG
ZHHH,2021-04-13 05:00,ZHHH 130500Z 14003MPS 080V170 5000 HZ FEW030 23/15 Q1017 NOSIG
ZHHH,2021-04-13 06:00,ZHHH 130600Z 12003MPS 080V170 8000 NSC 23/15 Q1016 NOSIG
ZHHH,2021-04-13 07:00,ZHHH 130700Z 14003MPS 110V170 8000 FEW026 22/14 Q1016 NOSIG
ZHHH,2021-04-13 08:00,ZHHH 130800Z 00000MPS 8000 NSC 22/16 Q1015 NOSIG
ZHHH,2021-04-13 09:00,ZHHH 130900Z VRB01MPS 8000 BKN040 22/16 Q1015 NOSIG
ZHHH,2021-04-13 10:00,ZHHH 131000Z 22002MPS 7000 NSC 21/16 Q1015 NOSIG
ZHHH,2021-04-13 11:00,ZHHH 131100Z 00000MPS 7000 NSC 20/16 Q1015 NOSIG
ZHHH,2021-04-13 12:00,ZHHH 131200Z 03003MPS 360V060 6000 BKN040 20/16 Q1016 NOSIG
ZHHH,2021-04-13 13:00,ZHHH 131300Z 04004MPS 360V060 4500 BR OVC040 19/16 Q1017 NOSIG
ZHHH,2021-04-13 14:00,ZHHH 131400Z 04004MPS 4500 BR NSC 18/16 Q1018 NOSIG
ZHHH,2021-04-13 15:00,ZHHH 131500Z 04004MPS 4500 BR NSC 18/15 Q1018 NOSIG
ZHHH,2021-04-13 16:00,ZHHH 131600Z 36002MPS 320V050 4000 BR OVC040 17/15 Q1019 NOSIG
ZHHH,2021-04-13 17:00,ZHHH 131700Z 02002MPS 340V060 4000 BR FEW020 OVC040 17/15 Q1019 NOSIG
ZHHH,2021-04-13 18:00,ZHHH 131800Z 02003MPS 340V050 4500 BR FEW014 OVC030 16/15 Q1018 NOSIG
ZHHH,2021-04-13 19:00,ZHHH 131900Z 03003MPS 350V080 4200 BR OVC030 16/14 Q1018 NOSIG
ZHHH,2021-04-13 20:00,ZHHH 132000Z 01004MPS 330V040 4200 BR FEW013 BKN016 15/14 Q1018 NOSIG
ZHHH,2021-04-13 21:00,ZHHH 132100Z 03003MPS 340V060 4500 BR SCT014 BKN023 15/14 Q1018 NOSIG
ZHHH,2021-04-13 22:00,ZHHH 132200Z 03004MPS 350V060 2800 BR SCT011 OVC030 15/14 Q1018 NOSIG
ZHHH,2021-04-13 23:00,ZHHH 132300Z 04005MPS 360V060 3200 BR FEW011 OVC030 15/13 Q1019 NOSIG
ZHHH,2021-04-14 00:00,ZHHH 140000Z 03004MPS 350V070 3800 BR FEW011 OVC040 15/13 Q1020 NOSIG
ZHHH,2021-04-14 01:00,ZHHH 140100Z 03004MPS 350V060 4500 BR OVC040 16/13 Q1020 NOSIG
ZHHH,2021-04-14 02:00,ZHHH 140200Z 04004MPS 340V070 4500 BR SCT020 OVC040 16/13 Q1020 NOSIG
ZHHH,2021-04-14 03:00,ZHHH 140300Z 06006MPS 360V080 5000 HZ SCT020 OVC040 18/13 Q1020 NOSIG
ZHHH,2021-04-14 04:00,ZHHH 140400Z 03004MPS 330V060 5000 HZ SCT020 OVC040 18/13 Q1019 NOSIG
ZHHH,2021-04-14 05:00,ZHHH 140500Z 06004MPS 020V080 6000 SCT040 19/13 Q1018 NOSIG
ZHHH,2021-04-14 06:00,ZHHH 140600Z 06004MPS 030V090 6000 SCT040 20/13 Q1017 NOSIG
ZHHH,2021-04-14 07:00,ZHHH 140700Z 04003MPS 340V070 7000 SCT040 21/13 Q1016 NOSIG
ZHHH,2021-04-14 08:00,ZHHH 140800Z VRB02MPS 7000 BKN040 21/13 Q1015 NOSIG
ZHHH,2021-04-14 09:00,ZHHH 140900Z 00000MPS 7000 OVC040 20/13 Q1015 NOSIG
ZHHH,2021-04-14 10:00,ZHHH 141000Z 00000MPS 7000 BKN040 20/14 Q1015 NOSIG
ZHHH,2021-04-14 11:00,ZHHH 141100Z 00000MPS 7000 NSC 19/15 Q1015 NOSIG
ZHHH,2021-04-14 12:00,ZHHH 141200Z 00000MPS 7000 NSC 19/14 Q1016 NOSIG
ZHHH,2021-04-14 13:00,ZHHH 141300Z 02002MPS 350V050 7000 NSC 18/12 Q1016 NOSIG
ZHHH,2021-04-14 14:00,ZHHH 141400Z 04003MPS 7000 NSC 18/13 Q1016 NOSIG
ZHHH,2021-04-14 15:00,ZHHH 141500Z 08004MPS 7000 NSC 18/13 Q1016 NOSIG
ZHHH,2021-04-14 16:00,ZHHH 141600Z 07003MPS 7000 NSC 17/13 Q1016 NOSIG
ZHHH,2021-04-14 17:00,ZHHH 141700Z 07003MPS 6000 NSC 17/13 Q1016 NOSIG
ZHHH,2021-04-14 18:00,ZHHH 141800Z 07002MPS 6000 SCT026 16/14 Q1015 NOSIG
ZHHH,2021-04-14 19:00,ZHHH 141900Z VRB01MPS 6000 SCT026 16/14 Q1015 NOSIG
ZHHH,2021-04-14 20:00,ZHHH 142000Z 02001MPS 6000 BKN020 16/15 Q1014 NOSIG
ZHHH,2021-04-14 21:00,ZHHH 142100Z 07002MPS 5000 BR BKN020 15/15 Q1014 NOSIG
ZHHH,2021-04-14 22:00,ZHHH 142200Z 05002MPS 360V070 3500 BR SCT015 OVC030 16/15 Q1014 NOSIG
ZHHH,2021-04-14 23:00,ZHHH 142300Z 11002MPS 090V150 3000 BR SCT015 OVC026 16/15 Q1015 BECMG TL0030 2500
ZHHH,2021-04-15 00:00,ZHHH 150000Z 10003MPS 2800 BR SCT015 OVC030 17/14 Q1015 BECMG TL0130 3000
ZHHH,2021-04-15 01:00,ZHHH 150100Z 11003MPS 090V160 3000 BR SCT015 OVC030 18/14 Q1015 NOSIG
ZHHH,2021-04-15 02:00,ZHHH 150200Z 13002MPS 090V190 3000 BR FEW026 OVC040 19/15 Q1015 NOSIG
ZHHH,2021-04-15 03:00,ZHHH 150300Z 24002MPS 190V300 3200 HZ FEW026 OVC040 19/14 Q1015 NOSIG
ZHHH,2021-04-15 04:00,ZHHH 150400Z 24003MPS 190V290 4000 HZ SCT025 BKN040 21/15 Q1014 NOSIG
ZHHH,2021-04-15 05:00,ZHHH 150500Z 27002MPS 240V320 4000 HZ SCT030 21/15 Q1014 NOSIG
ZHHH,2021-04-15 06:00,ZHHH 150600Z 26002MPS 210V300 4000 HZ SCT020 BKN040 21/15 Q1013 NOSIG
ZHHH,2021-04-15 07:00,ZHHH 150700Z 21002MPS 160V250 5000 HZ SCT025 22/15 Q1013 NOSIG
ZHHH,2021-04-15 08:00,ZHHH 150800Z 27002MPS 220V310 6000 SCT025 22/15 Q1012 NOSIG
ZHHH,2021-04-15 09:00,ZHHH 150900Z 25002MPS 200V300 6000 FEW025 22/15 Q1012 NOSIG
ZHHH,2021-04-15 10:00,ZHHH 151000Z 26001MPS 6000 NSC 21/16 Q1013 NOSIG
ZHHH,2021-04-15 11:00,ZHHH 151100Z 23002MPS 6000 NSC 20/16 Q1013 NOSIG
ZHHH,2021-04-15 12:00,ZHHH 151200Z 23001MPS 5000 BR NSC 18/17 Q1014 NOSIG
ZHHH,2021-04-15 13:00,ZHHH 151300Z 22002MPS 5000 BR NSC 18/17 Q1015 NOSIG
ZHHH,2021-04-15 14:00,ZHHH 151400Z 27001MPS 4500 BR NSC 17/17 Q1016 NOSIG
ZHHH,2021-04-15 15:00,ZHHH 151500Z 23001MPS 4500 BR NSC 17/17 Q1016 NOSIG
ZHHH,2021-04-15 16:00,ZHHH 151600Z 22002MPS 4000 BR NSC 17/16 Q1016 NOSIG
ZHHH,2021-04-15 17:00,ZHHH 151700Z 22002MPS 170V250 4000 BR NSC 18/17 Q1015 NOSIG
ZHHH,2021-04-15 18:00,ZHHH 151800Z 25002MPS 200V280 4000 BR NSC 18/17 Q1015 NOSIG
ZHHH,2021-04-15 19:00,ZHHH 151900Z VRB01MPS 3000 BR NSC 17/17 Q1015 NOSIG
ZHHH,2021-04-15 20:00,ZHHH 152000Z 00000MPS 3000 BR NSC 16/16 Q1015 NOSIG
ZHHH,2021-04-15 21:00,ZHHH 152100Z 00000MPS 3000 BR NSC 16/16 Q1015 BECMG TL2250 2500
ZHHH,2021-04-15 22:00,ZHHH 152200Z 05002MPS 2800 BR NSC 17/17 Q1015 NOSIG
ZHHH,2021-04-15 23:00,ZHHH 152300Z 07002MPS 050V120 2800 R04L/1800U R04R/1200V1400U BR NSC 17/17 Q1015 NOSIG
ZHHH,2021-04-16 00:00,ZHHH 160000Z 07002MPS 010V120 2800 BR NSC 19/17 Q1016 BECMG TL0140 3000
ZHHH,2021-04-16 01:00,ZHHH 160100Z VRB01MPS 2500 BR NSC 20/17 Q1017 BECMG TL0140 3000
ZHHH,2021-04-16 02:00,ZHHH 160200Z 11002MPS 050V200 3000 BR NSC 21/17 Q1017 NOSIG
ZHHH,2021-04-16 03:00,ZHHH 160300Z 26002MPS 240V310 3200 BR NSC 21/17 Q1018 NOSIG
ZHHH,2021-04-16 04:00,ZHHH 160400Z 24003MPS 220V280 4000 HZ NSC 22/17 Q1017 NOSIG
ZHHH,2021-04-16 05:00,ZHHH 160500Z 31002MPS 240V350 5000 HZ NSC 23/16 Q1017 NOSIG
ZHHH,2021-04-16 06:00,ZHHH 160600Z 27002MPS 240V320 5000 HZ NSC 23/16 Q1016 NOSIG
ZHHH,2021-04-16 07:00,ZHHH 160700Z 30002MPS 240V010 6000 FEW026 24/14 Q1015 NOSIG
ZHHH,2021-04-16 08:00,ZHHH 160800Z VRB01MPS 8000 SCT030 24/11 Q1015 NOSIG
ZHHH,2021-04-16 09:00,ZHHH 160900Z VRB01MPS 8000 SCT030 24/12 Q1015 NOSIG
ZHHH,2021-04-16 10:00,ZHHH 161000Z 00000MPS 9000 NSC 23/14 Q1015 NOSIG
ZHHH,2021-04-16 11:00,ZHHH 161100Z 01001MPS 8000 NSC 21/14 Q1016 NOSIG
ZHHH,2021-04-16 12:00,ZHHH 161200Z VRB01MPS 8000 NSC 19/14 Q1017 NOSIG
ZHHH,2021-04-16 13:00,ZHHH 161300Z 34001MPS 8000 NSC 18/15 Q1018 NOSIG
ZHHH,2021-04-16 14:00,ZHHH 161400Z 29001MPS 8000 NSC 18/16 Q1018 NOSIG
ZHHH,2021-04-16 15:00,ZHHH 161500Z 26001MPS 8000 NSC 16/16 Q1018 NOSIG
ZHHH,2021-04-16 16:00,ZHHH 161600Z 18002MPS 8000 NSC 17/16 Q1018 NOSIG
ZHHH,2021-04-16 17:00,ZHHH 161700Z 34002MPS 8000 NSC 16/16 Q1018 NOSIG
ZHHH,2021-04-16 18:00,ZHHH 161800Z 00000MPS 7000 NSC 15/15 Q1018 NOSIG
ZHHH,2021-04-16 19:00,ZHHH 161900Z 22002MPS 7000 SCT033 16/16 Q1018 NOSIG
ZHHH,2021-04-16 20:00,ZHHH 162000Z 28001MPS 7000 SCT033 16/16 Q1018 NOSIG
ZHHH,2021-04-16 21:00,ZHHH 162100Z 34002MPS 290V030 6000 SCT033 14/14 Q1019 NOSIG
ZHHH,2021-04-16 22:00,ZHHH 162200Z 05005MPS 6000 SCT033 14/12 Q1021 NOSIG
ZHHH,2021-04-16 23:00,ZHHH 162300Z 05003MPS 6000 NSC 15/13 Q1021 NOSIG
ZHHH,2021-04-17 00:00,ZHHH 170000Z 04005MPS 7000 NSC 17/11 Q1022 NOSIG
ZHHH,2021-04-17 01:00,ZHHH 170100Z 04006MPS 5000 HZ NSC 19/09 Q1023 NOSIG
ZHHH,2021-04-17 02:00,ZHHH 170200Z 04006MPS 350V060 8000 NSC 21/06 Q1023 NOSIG
ZHHH,2021-04-17 03:00,ZHHH 170300Z 04009MPS 8000 NSC 22/02 Q1024 NOSIG
ZHHH,2021-04-17 04:00,ZHHH 170400Z 04007MPS 360V060 CAVOK 23/04 Q1023 NOSIG
ZHHH,2021-04-17 05:00,ZHHH 170500Z 04005MPS 350V060 CAVOK 23/03 Q1023 NOSIG
ZHHH,2021-04-17 06:00,ZHHH 170600Z 03004MPS 340V060 CAVOK 23/01 Q1022 NOSIG
ZHHH,2021-04-17 07:00,ZHHH 170700Z 03003MPS 330V080 CAVOK 23/01 Q1021 NOSIG
ZHHH,2021-04-17 08:00,ZHHH 170800Z 03003MPS 340V060 9999 FEW033 23/02 Q1021 NOSIG
ZHHH,2021-04-17 09:00,ZHHH 170900Z 02003MPS 340V050 CAVOK 22/02 Q1020 NOSIG
ZHHH,2021-04-17 10:00,ZHHH 171000Z 02003MPS 350V050 CAVOK 21/02 Q1020 NOSIG
ZHHH,2021-04-17 11:00,ZHHH 171100Z 02002MPS 350V050 CAVOK 19/03 Q1021 NOSIG
ZHHH,2021-04-17 12:00,ZHHH 171200Z 03003MPS CAVOK 18/03 Q1021 NOSIG
ZHHH,2021-04-17 13:00,ZHHH 171300Z 03003MPS CAVOK 18/03 Q1022 NOSIG
ZHHH,2021-04-17 14:00,ZHHH 171400Z 03002MPS CAVOK 17/04 Q1021 NOSIG
ZHHH,2021-04-17 15:00,ZHHH 171500Z 03002MPS CAVOK 16/04 Q1021 NOSIG
ZHHH,2021-04-17 16:00,ZHHH 171600Z 04003MPS CAVOK 16/05 Q1021 NOSIG
ZHHH,2021-04-17 17:00,ZHHH 171700Z 06003MPS CAVOK 15/05 Q1021 NOSIG
ZHHH,2021-04-17 18:00,ZHHH 171800Z 07004MPS CAVOK 16/04 Q1020 NOSIG
ZHHH,2021-04-17 19:00,ZHHH 171900Z VRB01MPS CAVOK 14/05 Q1020 NOSIG
ZHHH,2021-04-17 20:00,ZHHH 172000Z 09003MPS CAVOK 15/05 Q1020 NOSIG
ZHHH,2021-04-17 21:00,ZHHH 172100Z 07004MPS CAVOK 15/05 Q1019 NOSIG
ZHHH,2021-04-17 22:00,ZHHH 172200Z 09004MPS CAVOK 15/05 Q1020 NOSIG
ZHHH,2021-04-17 23:00,ZHHH 172300Z 10003G08MPS 050V140 CAVOK 15/07 Q1020 NOSIG
ZHHH,2021-04-18 00:00,ZHHH 180000Z 10004MPS CAVOK 17/08 Q1020 NOSIG
ZHHH,2021-04-18 01:00,ZHHH 180100Z 11005MPS CAVOK 19/08 Q1020 NOSIG
ZHHH,2021-04-18 02:00,ZHHH 180200Z 12005MPS CAVOK 19/06 Q1020 NOSIG
ZHHH,2021-04-18 03:00,ZHHH 180300Z 11003MPS 080V160 CAVOK 20/08 Q1021 NOSIG
ZHHH,2021-04-18 04:00,ZHHH 180400Z 08003MPS CAVOK 19/07 Q1020 NOSIG
ZHHH,2021-04-18 05:00,ZHHH 180500Z 10003MPS CAVOK 19/08 Q1019 NOSIG
ZHHH,2021-04-18 06:00,ZHHH 180600Z 07002MPS 040V100 CAVOK 19/08 Q1019 NOSIG
ZHHH,2021-04-18 07:00,ZHHH 180700Z 12002MPS 080V180 CAVOK 19/07 Q1019 NOSIG
ZHHH,2021-04-18 08:00,ZHHH 180800Z 18002MPS 110V210 CAVOK 20/05 Q1018 NOSIG
ZHHH,2021-04-18 09:00,ZHHH 180900Z 19003MPS 150V220 CAVOK 20/04 Q1017 NOSIG
ZHHH,2021-04-18 10:00,ZHHH 181000Z 24001MPS CAVOK 19/07 Q1017 NOSIG
ZHHH,2021-04-18 11:00,ZHHH 181100Z VRB01MPS CAVOK 17/06 Q1017 NOSIG
ZHHH,2021-04-18 12:00,ZHHH 181200Z 24001MPS CAVOK 17/09 Q1018 NOSIG
ZHHH,2021-04-18 13:00,ZHHH 181300Z 00000MPS CAVOK 17/08 Q1018 NOSIG
ZHHH,2021-04-18 14:00,ZHHH 181400Z VRB01MPS CAVOK 17/08 Q1018 NOSIG
ZHHH,2021-04-18 15:00,ZHHH 181500Z 27001MPS CAVOK 16/09 Q1018 NOSIG
ZHHH,2021-04-18 16:00,ZHHH 181600Z 00000MPS CAVOK 16/12 Q1017 NOSIG
ZHHH,2021-04-18 17:00,ZHHH 181700Z 00000MPS CAVOK 15/11 Q1017 NOSIG
ZHHH,2021-04-18 18:00,ZHHH 181800Z 00000MPS CAVOK 15/11 Q1016 NOSIG
ZHHH,2021-04-18 19:00,ZHHH 181900Z 00000MPS CAVOK 13/12 Q1016 NOSIG
ZHHH,2021-04-18 20:00,ZHHH 182000Z 00000MPS CAVOK 13/12 Q1016 NOSIG
ZHHH,2021-04-18 21:00,ZHHH 182100Z 00000MPS CAVOK 14/12 Q1015 NOSIG
ZHHH,2021-04-18 22:00,ZHHH 182200Z 06001MPS CAVOK 14/12 Q1015 NOSIG
ZHHH,2021-04-18 23:00,ZHHH 182300Z 05003MPS CAVOK 15/12 Q1016 NOSIG
ZHHH,2021-04-19 00:00,ZHHH 190000Z 07003MPS 040V100 CAVOK 16/12 Q1016 NOSIG
ZHHH,2021-04-19 01:00,ZHHH 190100Z 10003MPS 050V130 CAVOK 18/11 Q1016 NOSIG
ZHHH,2021-04-19 02:00,ZHHH 190200Z 10004MPS CAVOK 19/09 Q1016 NOSIG
ZHHH,2021-04-19 03:00,ZHHH 190300Z 10003MPS 050V150 CAVOK 20/09 Q1016 NOSIG
ZHHH,2021-04-19 04:00,ZHHH 190400Z 10004MPS 070V140 CAVOK 20/07 Q1015 NOSIG
ZHHH,2021-04-19 05:00,ZHHH 190500Z 11004MPS 080V140 8000 NSC 21/09 Q1014 NOSIG
ZHHH,2021-04-19 06:00,ZHHH 190600Z 10004MPS 060V130 7000 NSC 21/09 Q1014 NOSIG
ZHHH,2021-04-19 07:00,ZHHH 190700Z 09003MPS 060V120 7000 NSC 21/09 Q1013 NOSIG
ZHHH,2021-04-19 08:00,ZHHH 190800Z 08003MPS 040V120 CAVOK 21/09 Q1012 NOSIG
ZHHH,2021-04-19 09:00,ZHHH 190900Z 09004MPS 050V110 CAVOK 21/09 Q1012 NOSIG
ZHHH,2021-04-19 10:00,ZHHH 191000Z 09004MPS CAVOK 21/09 Q1012 NOSIG
ZHHH,2021-04-19 11:00,ZHHH 191100Z 10003MPS 070V130 CAVOK 21/09 Q1012 NOSIG
ZHHH,2021-04-19 12:00,ZHHH 191200Z 09003MPS CAVOK 21/08 Q1012 NOSIG
ZHHH,2021-04-19 13:00,ZHHH 191300Z 09003MPS CAVOK 20/08 Q1013 NOSIG
ZHHH,2021-04-19 14:00,ZHHH 191400Z 11003MPS CAVOK 20/10 Q1013 NOSIG
ZHHH,2021-04-19 15:00,ZHHH 191500Z 12003MPS 080V140 CAVOK 20/10 Q1013 NOSIG
ZHHH,2021-04-19 16:00,ZHHH 191600Z 10003MPS CAVOK 20/09 Q1012 NOSIG
ZHHH,2021-04-19 17:00,ZHHH 191700Z 09003MPS CAVOK 19/10 Q1012 NOSIG
ZHHH,2021-04-19 18:00,ZHHH 191800Z 12002MPS CAVOK 19/11 Q1012 NOSIG
ZHHH,2021-04-19 19:00,ZHHH 191900Z 11002MPS 080V160 CAVOK 19/11 Q1012 NOSIG
ZHHH,2021-04-19 20:00,ZHHH 192000Z 12002MPS CAVOK 19/12 Q1012 NOSIG
ZHHH,2021-04-19 21:00,ZHHH 192100Z 12002MPS 070V140 9999 OVC040 19/12 Q1012 NOSIG
ZHHH,2021-04-19 22:00,ZHHH 192200Z 12003MPS 9999 OVC040 18/12 Q1012 NOSIG
ZHHH,2021-04-19 23:00,ZHHH 192300Z 09003MPS 060V120 9999 OVC040 18/12 Q1012 NOSIG
ZHHH,2021-04-20 00:00,ZHHH 200000Z 05003MPS 7000 OVC033 17/15 Q1013 NOSIG
ZHHH,2021-04-20 01:00,ZHHH 200100Z 09003MPS 5000 BR OVC040 18/15 Q1013 NOSIG
ZHHH,2021-04-20 02:00,ZHHH 200200Z 08002MPS 050V110 5000 -RA BR OVC040 18/16 Q1013 NOSIG
ZHHH,2021-04-20 03:00,ZHHH 200300Z 06003MPS 030V090 6000 OVC040 19/17 Q1013 NOSIG
ZHHH,2021-04-20 04:00,ZHHH 200400Z 09004MPS 8000 FEW030 20/16 Q1012 NOSIG
ZHHH,2021-04-20 05:00,ZHHH 200500Z 10004MPS 060V130 8000 NSC 22/16 Q1011 NOSIG
ZHHH,2021-04-20 06:00,ZHHH 200600Z 08003MPS 010V150 8000 NSC 23/16 Q1010 NOSIG
ZHHH,2021-04-20 07:00,ZHHH 200700Z 07004MPS 040V110 8000 SCT040 23/17 Q1010 NOSIG
ZHHH,2021-04-20 08:00,ZHHH 200800Z 05004MPS 8000 NSC 23/17 Q1009 NOSIG
ZHHH,2021-04-20 09:00,ZHHH 200900Z 02002MPS 340V050 8000 -RA NSC 22/18 Q1009 NOSIG
ZHHH,2021-04-20 10:00,ZHHH 201000Z 35002MPS 310V040 5000 -RA BR OVC040 20/20 Q1009 NOSIG
ZHHH,2021-04-20 11:00,ZHHH 201100Z 31003MPS 240V030 5000 -RA BR OVC026 19/19 Q1011 BECMG TL1120 TSRA FEW030CB
ZHHH,2021-04-20 12:00,ZHHH 201200Z 03003MPS 6000 -RA FEW007 SCT015 18/18 Q1010 RESHRA NOSIG
ZHHH,2021-04-20 13:00,ZHHH 201300Z 03003MPS 6000 -RA FEW007 OVC020 18/18 Q1011 NOSIG
ZHHH,2021-04-20 14:00,ZHHH 201400Z 04004MPS 350V050 6000 -RA OVC020 18/18 Q1011 NOSIG
ZHHH,2021-04-20 15:00,ZHHH 201500Z 04002MPS 4000 -RA BR FEW004 SCT011 OVC020 17/17 Q1012 NOSIG
ZHHH,2021-04-20 16:00,ZHHH 201600Z 06004MPS 4000 -RA BR FEW004 SCT008 OVC020 17/17 Q1011 NOSIG
ZHHH,2021-04-20 17:00,ZHHH 201700Z 02002MPS 330V050 3500 -RA BR OVC004 17/17 Q1011 NOSIG
ZHHH,2021-04-20 18:00,ZHHH 201800Z VRB01MPS 4500 BR OVC004 17/17 Q1011 NOSIG
ZHHH,2021-04-20 19:00,ZHHH 201900Z 03002MPS 350V060 4500 BR BKN004 OVC016 17/17 Q1011 NOSIG
ZHHH,2021-04-20 20:00,ZHHH 202000Z 02002MPS 350V050 4500 BR SCT004 OVC016 17/17 Q1010 NOSIG
ZHHH,2021-04-20 21:00,ZHHH 202100Z 04002MPS 360V060 4000 BR SCT004 OVC016 17/17 Q1010 NOSIG
ZHHH,2021-04-20 22:00,ZHHH 202200Z VRB01MPS 2000 BR OVC016 17/17 Q1011 NOSIG
ZHHH,2021-04-20 23:00,ZHHH 202300Z VRB01MPS 2200 BR OVC016 17/17 Q1012 NOSIG
ZHHH,2021-04-21 00:00,ZHHH 210000Z VRB02MPS 1300 R04L/1400N R04R/P2000 -RA BR BKN003 OVC016 17/17 Q1012 BECMG TL0150 3000 SCT020
ZHHH,2021-04-21 01:00,ZHHH 210100Z 35002MPS 290V030 1500 BR BKN003 OVC016 17/17 Q1013 BECMG TL0250 3000 SCT005
ZHHH,2021-04-21 02:00,ZHHH 210200Z VRB01MPS 1500 BR BKN003 OVC016 17/17 Q1013 BECMG TL0350 3000 SCT005
ZHHH,2021-04-21 03:00,ZHHH 210300Z 02002MPS 330V060 1200 R04L/1600U R04R/1700D BR BKN003 OVC016 17/17 Q1013 BECMG TL0450 1500 SCT005
ZHHH,2021-04-21 04:00,ZHHH 210400Z VRB01MPS 2500 BR NSC 18/18 Q1012 BECMG TL0550 3000
ZHHH,2021-04-21 05:00,ZHHH 210500Z VRB01MPS 2800 BR NSC 18/18 Q1012 BECMG TL0550 3000
ZHHH,2021-04-21 06:00,ZHHH 210600Z 35002MPS 310V070 2500 BR SCT005 18/18 Q1011 NOSIG
ZHHH,2021-04-21 07:00,ZHHH 210700Z 03003MPS 340V060 2500 BR SCT005 19/19 Q1010 NOSIG
ZHHH,2021-04-21 08:00,ZHHH 210800Z 04003MPS 2800 BR SCT007 19/19 Q1010 BECMG TL0850 3000
ZHHH,2021-04-21 09:00,ZHHH 210900Z 03003MPS 3000 BR SCT007 18/18 Q1011 NOSIG
ZHHH,2021-04-21 10:00,ZHHH 211000Z 01002MPS 320V050 5000 BR SCT007 18/18 Q1011 NOSIG
ZHHH,2021-04-21 11:00,ZHHH 211100Z 02003MPS 2500 -RA BR SCT007 OVC033 17/17 Q1011 NOSIG
ZHHH,2021-04-21 12:00,ZHHH 211200Z 04006MPS 2800 SHRA BR SCT007 OVC033 16/16 Q1011 BECMG TL1350 TSRA
ZHHH,2021-04-21 13:00,ZHHH 211300Z 08006MPS 3500 SHRA BR SCT007 16/16 Q1011 BECMG TL1410 2800 TSRA
ZHHH,2021-04-21 14:00,ZHHH 211400Z 04005MPS 3500 -SHRA BR FEW005 SCT007 16/16 Q1011 RESHRA NOSIG
ZHHH,2021-04-21 15:00,ZHHH 211500Z 03002MPS 330V060 7000 -RA FEW005 SCT007 16/16 Q1012 NOSIG
ZHHH,2021-04-21 16:00,ZHHH 211600Z 36002MPS 310V050 8000 FEW007 SCT011 16/16 Q1012 NOSIG
ZHHH,2021-04-21 17:00,ZHHH 211700Z VRB01MPS 8000 FEW007 SCT011 16/16 Q1011 NOSIG
ZHHH,2021-04-21 18:00,ZHHH 211800Z VRB02MPS 5000 BR FEW007 SCT011 16/16 Q1011 NOSIG
ZHHH,2021-04-21 19:00,ZHHH 211900Z 34003MPS 270V040 6000 SCT005 15/15 Q1010 NOSIG
ZHHH,2021-04-21 20:00,ZHHH 212000Z 35002MPS 270V060 4000 BR SCT005 15/15 Q1010 NOSIG
ZHHH,2021-04-21 21:00,ZHHH 212100Z 34003MPS 280V040 2500 -RA BR SCT004 OVC030 15/15 Q1011 NOSIG
ZHHH,2021-04-21 22:00,ZHHH 212200Z 35002MPS 280V040 2500 -RA BR FEW003 SCT004 OVC030 15/15 Q1012 BECMG TL2350 3000
ZHHH,2021-04-21 23:00,ZHHH 212300Z 04003MPS 3500 -RA BR SCT040 15/15 Q1012 RESHRA NOSIG
ZHHH,2021-04-22 00:00,ZHHH 220000Z 04003MPS 350V070 9999 FEW007 SCT040 15/15 Q1012 NOSIG
ZHHH,2021-04-22 01:00,ZHHH 220100Z 02002MPS 330V050 9999 FEW009 SCT033 16/16 Q1013 NOSIG
ZHHH,2021-04-22 02:00,ZHHH 220200Z VRB01MPS 9999 FEW009 SCT040 16/16 Q1013 NOSIG
ZHHH,2021-04-22 03:00,ZHHH 220300Z 32002MPS 220V020 7000 SCT020 17/16 Q1013 NOSIG
ZHHH,2021-04-22 04:00,ZHHH 220400Z VRB01MPS 9999 FEW010 BKN023 17/16 Q1013 NOSIG
ZHHH,2021-04-22 05:00,ZHHH 220500Z 28002MPS 240V340 9999 FEW020 SCT023 18/16 Q1012 NOSIG
ZHHH,2021-04-22 06:00,ZHHH 220600Z 26002MPS 230V300 9999 SCT020 FEW023TCU BKN040 19/17 Q1012 NOSIG
ZHHH,2021-04-22 07:00,ZHHH 220700Z 27002MPS 240V310 9999 FEW020 SCT023TCU 20/17 Q1011 NOSIG
ZHHH,2021-04-22 08:00,ZHHH 220800Z 30002MPS 240V010 9999 FEW020 BKN033 21/17 Q1010 NOSIG
ZHHH,2021-04-22 09:00,ZHHH 220900Z VRB01MPS 9999 FEW020 OVC033 21/17 Q1010 NOSIG
ZHHH,2021-04-22 10:00,ZHHH 221000Z 00000MPS 9999 FEW020 BKN033 20/17 Q1010 NOSIG
ZHHH,2021-04-22 11:00,ZHHH 221100Z 03001MPS 9999 BKN033 20/18 Q1010 NOSIG
ZHHH,2021-04-22 12:00,ZHHH 221200Z 06006MPS 9999 BKN033 20/16 Q1011 NOSIG
ZHHH,2021-04-22 13:00,ZHHH 221300Z 05006MPS 9999 BKN040 17/16 Q1012 NOSIG
ZHHH,2021-04-22 14:00,ZHHH 221400Z 05005MPS CAVOK 16/15 Q1013 NOSIG
ZHHH,2021-04-22 15:00,ZHHH 221500Z 06005MPS CAVOK 16/15 Q1012 NOSIG
ZHHH,2021-04-22 16:00,ZHHH 221600Z 05004MPS CAVOK 16/15 Q1012 NOSIG
ZHHH,2021-04-22 17:00,ZHHH 221700Z 04004MPS CAVOK 15/15 Q1012 NOSIG
ZHHH,2021-04-22 18:00,ZHHH 221800Z 36002MPS CAVOK 15/15 Q1012 NOSIG
ZHHH,2021-04-22 19:00,ZHHH 221900Z 04002MPS 7000 NSC 14/14 Q1012 NOSIG
ZHHH,2021-04-22 20:00,ZHHH 222000Z 01002MPS 340V060 7000 SCT020 BKN030 15/15 Q1012 NOSIG
ZHHH,2021-04-22 21:00,ZHHH 222100Z 04002MPS 7000 SCT020 BKN033 15/15 Q1012 NOSIG
ZHHH,2021-04-22 22:00,ZHHH 222200Z VRB01MPS 6000 SCT020 OVC033 15/15 Q1013 NOSIG
ZHHH,2021-04-22 23:00,ZHHH 222300Z VRB01MPS 6000 OVC033 16/16 Q1013 NOSIG
ZHHH,2021-04-23 00:00,ZHHH 230000Z 06003MPS 030V090 8000 OVC033 17/16 Q1013 NOSIG
ZHHH,2021-04-23 01:00,ZHHH 230100Z 04003MPS 9999 BKN033 18/16 Q1014 NOSIG
ZHHH,2021-04-23 02:00,ZHHH 230200Z 04003MPS 360V060 9999 SCT026 19/16 Q1014 NOSIG
ZHHH,2021-04-23 03:00,ZHHH 230300Z VRB01MPS 9999 FEW020 SCT023 20/16 Q1014 NOSIG
ZHHH,2021-04-23 04:00,ZHHH 230400Z 05006MPS 360V080 9999 FEW020 SCT033 22/18 Q1013 NOSIG
ZHHH,2021-04-23 05:00,ZHHH 230500Z 04004MPS 010V090 9999 SCT023 22/17 Q1012 NOSIG
ZHHH,2021-04-23 06:00,ZHHH 230600Z 05004MPS 010V090 9999 SCT023 22/17 Q1012 NOSIG
ZHHH,2021-04-23 07:00,ZHHH 230700Z 06005MPS 020V090 9999 FEW020 SCT030 22/18 Q1011 NOSIG
ZHHH,2021-04-23 08:00,ZHHH 230800Z 05006MPS 9999 FEW030 22/18 Q1010 NOSIG
ZHHH,2021-04-23 09:00,ZHHH 230900Z 05006MPS CAVOK 23/17 Q1010 NOSIG
ZHHH,2021-04-23 10:00,ZHHH 231000Z 04007MPS CAVOK 21/17 Q1010 NOSIG
ZHHH,2021-04-23 11:00,ZHHH 231100Z 05006MPS CAVOK 20/16 Q1010 NOSIG
ZHHH,2021-04-23 12:00,ZHHH 231200Z 05004MPS CAVOK 18/16 Q1011 NOSIG
ZHHH,2021-04-23 13:00,ZHHH 231300Z 36002MPS 340V040 CAVOK 17/16 Q1012 NOSIG
ZHHH,2021-04-23 14:00,ZHHH 231400Z 02002MPS 9999 BKN030 17/16 Q1012 NOSIG
ZHHH,2021-04-23 15:00,ZHHH 231500Z 03002MPS 360V060 8000 BKN030 18/15 Q1013 NOSIG
ZHHH,2021-04-23 16:00,ZHHH 231600Z 02002MPS 7000 NSC 17/15 Q1013 NOSIG
ZHHH,2021-04-23 17:00,ZHHH 231700Z 07004MPS 6000 NSC 17/15 Q1012 NOSIG
ZHHH,2021-04-23 18:00,ZHHH 231800Z 05008MPS 6000 NSC 17/16 Q1011 NOSIG
ZHHH,2021-04-23 19:00,ZHHH 231900Z 05005MPS 5000 BR BKN030 17/15 Q1011 NOSIG
ZHHH,2021-04-23 20:00,ZHHH 232000Z 02003MPS 330V070 6000 OVC033 17/15 Q1012 NOSIG
ZHHH,2021-04-23 21:00,ZHHH 232100Z 03003MPS 350V060 5000 BR NSC 16/15 Q1012 NOSIG
ZHHH,2021-04-23 22:00,ZHHH 232200Z 03003MPS 350V080 4000 BR NSC 16/14 Q1013 NOSIG
ZHHH,2021-04-23 23:00,ZHHH 232300Z 04004MPS 4000 BR NSC 16/14 Q1013 NOSIG
ZHHH,2021-04-24 00:00,ZHHH 240000Z 03004MPS 340V060 4000 BR NSC 16/14 Q1014 NOSIG
ZHHH,2021-04-24 01:00,ZHHH 240100Z 03005MPS 350V050 4000 -RA BR NSC 16/14 Q1015 NOSIG
ZHHH,2021-04-24 02:00,ZHHH 240200Z 03004MPS 340V060 4000 BR SCT040 16/14 Q1015 NOSIG
ZHHH,2021-04-24 03:00,ZHHH 240300Z 03005MPS 350V060 4000 -RA BR OVC040 16/14 Q1016 NOSIG
ZHHH,2021-04-24 04:00,ZHHH 240400Z 04006MPS 3500 -RA BR OVC040 16/15 Q1015 NOSIG
ZHHH,2021-04-24 05:00,ZHHH 240500Z 03005MPS 350V050 3000 -RA BR OVC040 15/15 Q1015 NOSIG
ZHHH,2021-04-24 06:00,ZHHH 240600Z 03007MPS 2500 -RA BR OVC040 15/15 Q1014 NOSIG
ZHHH,2021-04-24 07:00,ZHHH 240700Z 03006MPS 2500 -RA BR SCT009 OVC040 15/15 Q1014 NOSIG
ZHHH,2021-04-24 08:00,ZHHH 240800Z 03005MPS 2500 -RA BR SCT009 OVC040 15/15 Q1014 BECMG TL0950 3000
ZHHH,2021-04-24 09:00,ZHHH 240900Z 03004MPS 2800 -RA BR SCT009 OVC040 15/15 Q1014 BECMG TL0950 3000
ZHHH,2021-04-24 10:00,ZHHH 241000Z 03003MPS 340V060 2800 -RA BR SCT009 OVC040 14/14 Q1015 BECMG TL1150 3000
ZHHH,2021-04-24 11:00,ZHHH 241100Z 02004MPS 340V050 2800 -RA BR SCT009 OVC040 14/14 Q1015 BECMG TL1200 3000
ZHHH,2021-04-24 12:00,ZHHH 241200Z 02003MPS 350V060 5000 -RA BR FEW010 14/14 Q1016 NOSIG
ZHHH,2021-04-24 13:00,ZHHH 241300Z 02004MPS 330V050 5000 BR SCT020 14/14 Q1017 NOSIG
ZHHH,2021-04-24 14:00,ZHHH 241400Z 02004MPS 350V050 5000 BR SCT020 15/14 Q1018 NOSIG
ZHHH,2021-04-24 15:00,ZHHH 241500Z 02004G09MPS 340V040 5000 -RA BR SCT020 15/14 Q1018 NOSIG
ZHHH,2021-04-24 16:00,ZHHH 241600Z 01003MPS 330V060 3000 SHRA BR SCT007 14/14 Q1019 BECMG TL1640 -RA
ZHHH,2021-04-24 17:00,ZHHH 241700Z 01003MPS 320V060 4000 -RA BR FEW007 14/14 Q1019 RESHRA NOSIG
ZHHH,2021-04-24 18:00,ZHHH 241800Z 03003MPS 5000 BR NSC 14/14 Q1017 NOSIG
ZHHH,2021-04-24 19:00,ZHHH 241900Z 01003MPS 330V060 5000 BR NSC 14/14 Q1017 NOSIG
ZHHH,2021-04-24 20:00,ZHHH 242000Z 02003MPS 340V040 5000 BR NSC 14/14 Q1017 NOSIG
ZHHH,2021-04-24 21:00,ZHHH 242100Z 01002MPS 330V050 5000 BR NSC 14/14 Q1018 NOSIG
ZHHH,2021-04-24 22:00,ZHHH 242200Z 02003MPS 340V040 5000 BR NSC 14/14 Q1018 NOSIG
ZHHH,2021-04-24 23:00,ZHHH 242300Z 01003MPS 340V040 4000 BR NSC 15/14 Q1019 NOSIG
ZHHH,2021-04-25 00:00,ZHHH 250000Z 02004MPS 340V050 5000 BR FEW015 15/15 Q1020 NOSIG
ZHHH,2021-04-25 01:00,ZHHH 250100Z 03004MPS 330V060 8000 SCT015 BKN040 16/14 Q1020 NOSIG
ZHHH,2021-04-25 02:00,ZHHH 250200Z 03004MPS 360V060 9999 SCT020 17/14 Q1020 NOSIG
ZHHH,2021-04-25 03:00,ZHHH 250300Z 01004MPS 310V050 9999 SCT022 17/14 Q1020 NOSIG
ZHHH,2021-04-25 04:00,ZHHH 250400Z 02004MPS 330V050 9999 SCT030 18/14 Q1020 NOSIG
ZHHH,2021-04-25 05:00,ZHHH 250500Z 02003MPS 340V050 9999 SCT030 18/14 Q1019 NOSIG
ZHHH,2021-04-25 06:00,ZHHH 250600Z 02003MPS 330V060 9999 BKN030 19/14 Q1018 NOSIG
ZHHH,2021-04-25 07:00,ZHHH 250700Z 03004MPS 350V060 9999 BKN030 19/14 Q1017 NOSIG
ZHHH,2021-04-25 08:00,ZHHH 250800Z 04004MPS 360V060 9999 BKN030 19/14 Q1017 NOSIG
ZHHH,2021-04-25 09:00,ZHHH 250900Z 03003MPS 330V060 9999 OVC033 19/14 Q1017 NOSIG
ZHHH,2021-04-25 10:00,ZHHH 251000Z 02004MPS 350V050 CAVOK 18/14 Q1017 NOSIG
ZHHH,2021-04-25 11:00,ZHHH 251100Z 02004MPS 350V050 CAVOK 17/13 Q1018 NOSIG
ZHHH,2021-04-25 12:00,ZHHH 251200Z 01003MPS 320V050 CAVOK 16/14 Q1019 NOSIG
ZHHH,2021-04-25 13:00,ZHHH 251300Z 02003MPS 7000 NSC 15/13 Q1020 NOSIG
ZHHH,2021-04-25 14:00,ZHHH 251400Z 02002MPS 7000 NSC 15/13 Q1020 NOSIG
ZHHH,2021-04-25 15:00,ZHHH 251500Z 02002MPS 340V050 7000 NSC 15/14 Q1020 NOSIG
ZHHH,2021-04-25 16:00,ZHHH 251600Z 02002MPS 350V050 7000 NSC 15/14 Q1020 NOSIG
ZHHH,2021-04-25 17:00,ZHHH 251700Z VRB01MPS 7000 NSC 15/14 Q1019 NOSIG
ZHHH,2021-04-25 18:00,ZHHH 251800Z 02002MPS 330V050 6000 NSC 15/13 Q1019 NOSIG
ZHHH,2021-04-25 19:00,ZHHH 251900Z 02002MPS 340V080 5000 BR NSC 14/13 Q1019 NOSIG
ZHHH,2021-04-25 20:00,ZHHH 252000Z 03002MPS 320V060 5000 BR NSC 14/13 Q1018 NOSIG
ZHHH,2021-04-25 21:00,ZHHH 252100Z 03003MPS 5000 BR NSC 14/13 Q1017 NOSIG
ZHHH,2021-04-25 22:00,ZHHH 252200Z VRB01MPS 3800 BR OVC040 14/13 Q1018 NOSIG
ZHHH,2021-04-25 23:00,ZHHH 252300Z VRB01MPS 4500 BR OVC040 14/13 Q1019 NOSIG
ZHHH,2021-04-26 00:00,ZHHH 260000Z 35002MPS 250V060 5000 BR SCT026 OVC040 15/13 Q1019 NOSIG
ZHHH,2021-04-26 01:00,ZHHH 260100Z 34002MPS 280V040 5000 BR OVC040 15/14 Q1019 NOSIG
ZHHH,2021-04-26 02:00,ZHHH 260200Z 30002MPS 250V020 6000 FEW020 16/13 Q1019 NOSIG
ZHHH,2021-04-26 03:00,ZHHH 260300Z 33002MPS 270V020 6000 SCT020 16/14 Q1018 NOSIG
ZHHH,2021-04-26 04:00,ZHHH 260400Z 35002MPS 290V030 7000 FEW020 17/14 Q1018 NOSIG
ZHHH,2021-04-26 05:00,ZHHH 260500Z 34002MPS 280V050 7000 SCT016 17/14 Q1017 NOSIG
ZHHH,2021-04-26 06:00,ZHHH 260600Z 33002MPS 270V040 7000 NSC 18/13 Q1017 NOSIG
ZHHH,2021-04-26 07:00,ZHHH 260700Z VRB01MPS 8000 FEW020 18/13 Q1016 NOSIG
ZHHH,2021-04-26 08:00,ZHHH 260800Z VRB01MPS 8000 SCT040 17/14 Q1016 NOSIG
ZHHH,2021-04-26 09:00,ZHHH 260900Z VRB01MPS 8000 NSC 17/14 Q1016 NOSIG
ZHHH,2021-04-26 10:00,ZHHH 261000Z 31002MPS 240V010 7000 NSC 17/15 Q1016 NOSIG
ZHHH,2021-04-26 11:00,ZHHH 261100Z VRB01MPS 6000 NSC 17/15 Q1016 NOSIG
ZHHH,2021-04-26 12:00,ZHHH 261200Z 28001MPS 7000 -RA NSC 16/15 Q1017 NOSIG
ZHHH,2021-04-26 13:00,ZHHH 261300Z VRB01MPS 5000 -RA BR NSC 16/16 Q1018 NOSIG
ZHHH,2021-04-26 14:00,ZHHH 261400Z VRB01MPS 5000 -RA BR NSC 16/16 Q1018 NOSIG
ZHHH,2021-04-26 15:00,ZHHH 261500Z VRB01MPS 4500 BR NSC 16/16 Q1018 NOSIG
ZHHH,2021-04-26 16:00,ZHHH 261600Z 00000MPS 4000 -RA BR NSC 15/15 Q1018 NOSIG
ZHHH,2021-04-26 17:00,ZHHH 261700Z 24001MPS 4000 BR NSC 15/15 Q1018 NOSIG
ZHHH,2021-04-26 18:00,ZHHH 261800Z VRB01MPS 4500 BR NSC 16/16 Q1017 NOSIG
ZHHH,2021-04-26 19:00,ZHHH 261900Z 24002MPS 210V270 4000 BR NSC 16/16 Q1017 NOSIG
ZHHH,2021-04-26 20:00,ZHHH 262000Z 24002MPS 4000 BR NSC 15/15 Q1017 NOSIG
ZHHH,2021-04-26 21:00,ZHHH 262100Z VRB01MPS 4000 BR NSC 15/15 Q1017 BECMG TL2250 2800
ZHHH,2021-04-26 22:00,ZHHH 262200Z 22002MPS 2000 BR NSC 15/15 Q1017 BECMG TL2350 3000
ZHHH,2021-04-26 23:00,ZHHH 262300Z 24002MPS 2000 BR NSC 15/15 Q1017 BECMG TL0050 3000
ZHHH,2021-04-27 00:00,ZHHH 270000Z 28002MPS 240V340 2500 BR FEW020 16/16 Q1017 BECMG TL0050 3000
ZHHH,2021-04-27 01:00,ZHHH 270100Z VRB02MPS 4000 BR NSC 17/16 Q1018 NOSIG
ZHHH,2021-04-27 02:00,ZHHH 270200Z 26002MPS 230V300 4500 BR NSC 18/16 Q1018 NOSIG
ZHHH,2021-04-27 03:00,ZHHH 270300Z 26002MPS 240V330 5000 BR NSC 19/16 Q1018 NOSIG
ZHHH,2021-04-27 04:00,ZHHH 270400Z VRB02MPS 5000 BR NSC 20/16 Q1018 NOSIG
ZHHH,2021-04-27 05:00,ZHHH 270500Z 35002MPS 280V090 5000 HZ NSC 20/15 Q1018 NOSIG
ZHHH,2021-04-27 06:00,ZHHH 270600Z 26002MPS 200V350 6000 NSC 21/16 Q1016 NOSIG
ZHHH,2021-04-27 07:00,ZHHH 270700Z 32002MPS 260V360 8000 NSC 22/15 Q1016 NOSIG
ZHHH,2021-04-27 08:00,ZHHH 270800Z 26002MPS CAVOK 23/16 Q1015 NOSIG
ZHHH,2021-04-27 09:00,ZHHH 270900Z 27002MPS 240V330 CAVOK 23/15 Q1015 NOSIG
ZHHH,2021-04-27 10:00,ZHHH 271000Z 27001MPS CAVOK 22/16 Q1016 NOSIG
ZHHH,2021-04-27 11:00,ZHHH 271100Z 25001MPS CAVOK 20/15 Q1016 NOSIG
ZHHH,2021-04-27 12:00,ZHHH 271200Z 26001MPS CAVOK 18/16 Q1017 NOSIG
ZHHH,2021-04-27 13:00,ZHHH 271300Z 00000MPS CAVOK 17/17 Q1018 NOSIG
ZHHH,2021-04-27 14:00,ZHHH 271400Z 31002MPS 270V340 9000 NSC 18/18 Q1018 NOSIG
ZHHH,2021-04-27 15:00,ZHHH 271500Z 23001MPS 8000 NSC 17/17 Q1019 NOSIG
ZHHH,2021-04-27 16:00,ZHHH 271600Z 22001MPS 6000 NSC 17/17 Q1019 NOSIG
ZHHH,2021-04-27 17:00,ZHHH 271700Z 22001MPS 5000 BR NSC 16/16 Q1019 NOSIG
ZHHH,2021-04-27 18:00,ZHHH 271800Z 34001MPS 5000 BR NSC 15/15 Q1019 NOSIG
ZHHH,2021-04-27 19:00,ZHHH 271900Z 00000MPS 5000 BR NSC 15/15 Q1018 NOSIG
ZHHH,2021-04-27 20:00,ZHHH 272000Z VRB01MPS 5000 BR NSC 15/15 Q1018 NOSIG
ZHHH,2021-04-27 21:00,ZHHH 272100Z 02002MPS 5000 BR NSC 15/15 Q1019 NOSIG
ZHHH,2021-04-27 22:00,ZHHH 272200Z 04002MPS 5000 BR NSC 14/14 Q1019 NOSIG
ZHHH,2021-04-27 23:00,ZHHH 272300Z VRB01MPS 5000 BR NSC 15/15 Q1020 NOSIG
ZHHH,2021-04-28 00:00,ZHHH 280000Z 36002MPS 320V040 6000 NSC 17/16 Q1020 NOSIG
ZHHH,2021-04-28 01:00,ZHHH 280100Z VRB01MPS 6000 NSC 19/17 Q1021 NOSIG
ZHHH,2021-04-28 02:00,ZHHH 280200Z 35002MPS 300V100 CAVOK 22/15 Q1020 NOSIG
ZHHH,2021-04-28 03:00,ZHHH 280300Z 31002MPS 260V050 CAVOK 22/16 Q1020 NOSIG
ZHHH,2021-04-28 04:00,ZHHH 280400Z VRB04MPS CAVOK 22/12 Q1020 NOSIG
ZHHH,2021-04-28 05:00,ZHHH 280500Z VRB02MPS CAVOK 23/12 Q1019 NOSIG
ZHHH,2021-04-28 06:00,ZHHH 280600Z VRB02MPS CAVOK 23/12 Q1018 NOSIG
ZHHH,2021-04-28 07:00,ZHHH 280700Z 32002MPS 230V030 CAVOK 23/12 Q1017 NOSIG
ZHHH,2021-04-28 08:00,ZHHH 280800Z 34002MPS 280V060 CAVOK 23/12 Q1017 NOSIG
ZHHH,2021-04-28 09:00,ZHHH 280900Z VRB01MPS CAVOK 24/13 Q1016 NOSIG
ZHHH,2021-04-28 10:00,ZHHH 281000Z 00000MPS CAVOK 23/14 Q1016 NOSIG
ZHHH,2021-04-28 11:00,ZHHH 281100Z 23002MPS CAVOK 20/14 Q1016 NOSIG
ZHHH,2021-04-28 12:00,ZHHH 281200Z 20004MPS CAVOK 20/14 Q1016 NOSIG
ZHHH,2021-04-28 13:00,ZHHH 281300Z VRB01MPS CAVOK 18/15 Q1017 NOSIG
ZHHH,2021-04-28 14:00,ZHHH 281400Z 29001MPS CAVOK 17/16 Q1017 NOSIG
ZHHH,2021-04-28 15:00,ZHHH 281500Z 22002MPS CAVOK 17/16 Q1017 NOSIG
ZHHH,2021-04-28 16:00,ZHHH 281600Z 22002MPS CAVOK 16/16 Q1017 NOSIG
ZHHH,2021-04-28 17:00,ZHHH 281700Z VRB01MPS CAVOK 16/16 Q1016 NOSIG
ZHHH,2021-04-28 18:00,ZHHH 281800Z 23002MPS CAVOK 16/15 Q1016 NOSIG
ZHHH,2021-04-28 19:00,ZHHH 281900Z 21001MPS CAVOK 15/15 Q1015 NOSIG
ZHHH,2021-04-28 20:00,ZHHH 282000Z 22002MPS CAVOK 15/14 Q1015 NOSIG
ZHHH,2021-04-28 21:00,ZHHH 282100Z 20002MPS CAVOK 15/13 Q1014 NOSIG
ZHHH,2021-04-28 22:00,ZHHH 282200Z 19002MPS CAVOK 15/13 Q1013 NOSIG
ZHHH,2021-04-28 23:00,ZHHH 282300Z 21004MPS CAVOK 18/14 Q1013 NOSIG
ZHHH,2021-04-29 00:00,ZHHH 290000Z 23004MPS CAVOK 20/14 Q1013 NOSIG
ZHHH,2021-04-29 01:00,ZHHH 290100Z 23006MPS CAVOK 22/15 Q1013 NOSIG
ZHHH,2021-04-29 02:00,ZHHH 290200Z 22006MPS CAVOK 23/15 Q1012 NOSIG
ZHHH,2021-04-29 03:00,ZHHH 290300Z 22006MPS CAVOK 25/14 Q1012 NOSIG
ZHHH,2021-04-29 04:00,ZHHH 290400Z 22007MPS CAVOK 26/15 Q1010 NOSIG
ZHHH,2021-04-29 05:00,ZHHH 290500Z 22007MPS CAVOK 27/16 Q1009 NOSIG
ZHHH,2021-04-29 06:00,ZHHH 290600Z 23008MPS CAVOK 27/15 Q1008 NOSIG
ZHHH,2021-04-29 07:00,ZHHH 290700Z 22008MPS CAVOK 27/14 Q1007 NOSIG
ZHHH,2021-04-29 08:00,ZHHH 290800Z 23009MPS CAVOK 27/15 Q1007 NOSIG
ZHHH,2021-04-29 09:00,ZHHH 290900Z 22008MPS CAVOK 26/15 Q1007 NOSIG
ZHHH,2021-04-29 10:00,ZHHH 291000Z 22005MPS CAVOK 25/16 Q1007 NOSIG
ZHHH,2021-04-29 11:00,ZHHH 291100Z 21003MPS CAVOK 23/16 Q1007 NOSIG
ZHHH,2021-04-29 12:00,ZHHH 291200Z 22003MPS CAVOK 22/15 Q1007 NOSIG
ZHHH,2021-04-29 13:00,ZHHH 291300Z 21003MPS CAVOK 21/16 Q1007 NOSIG
ZHHH,2021-04-29 14:00,ZHHH 291400Z VRB01MPS CAVOK 21/16 Q1008 NOSIG
ZHHH,2021-04-29 15:00,ZHHH 291500Z 20004MPS CAVOK 22/15 Q1007 NOSIG
ZHHH,2021-04-29 16:00,ZHHH 291600Z 22003MPS CAVOK 22/15 Q1007 NOSIG
ZHHH,2021-04-29 17:00,ZHHH 291700Z 24002MPS CAVOK 21/15 Q1007 NOSIG
ZHHH,2021-04-29 18:00,ZHHH 291800Z 22002MPS 200V260 CAVOK 21/15 Q1006 NOSIG
ZHHH,2021-04-29 19:00,ZHHH 291900Z 22002MPS CAVOK 20/16 Q1006 NOSIG
ZHHH,2021-04-29 20:00,ZHHH 292000Z 14002MPS CAVOK 19/16 Q1006 NOSIG
ZHHH,2021-04-29 21:00,ZHHH 292100Z 18002MPS CAVOK 17/17 Q1005 NOSIG
ZHHH,2021-04-29 22:00,ZHHH 292200Z 21002MPS CAVOK 19/17 Q1006 NOSIG
ZHHH,2021-04-29 23:00,ZHHH 292300Z 20004MPS CAVOK 21/17 Q1006 NOSIG
ZHHH,2021-04-30 00:00,ZHHH 300000Z 21006MPS CAVOK 23/17 Q1006 NOSIG
ZHHH,2021-04-30 01:00,ZHHH 300100Z 24006MPS CAVOK 25/17 Q1006 NOSIG
ZHHH,2021-04-30 02:00,ZHHH 300200Z 23007MPS CAVOK 26/17 Q1006 NOSIG
ZHHH,2021-04-30 03:00,ZHHH 300300Z 23005MPS 200V260 CAVOK 28/17 Q1006 NOSIG
ZHHH,2021-04-30 04:00,ZHHH 300400Z 22006MPS CAVOK 29/18 Q1006 NOSIG
ZHHH,2021-04-30 05:00,ZHHH 300500Z 22007MPS CAVOK 30/17 Q1005 NOSIG
ZHHH,2021-04-30 06:00,ZHHH 300600Z 22006MPS CAVOK 30/18 Q1004 NOSIG
ZHHH,2021-04-30 07:00,ZHHH 300700Z 24005MPS 210V280 CAVOK 30/18 Q1004 NOSIG
ZHHH,2021-04-30 08:00,ZHHH 300800Z 22006MPS CAVOK 31/19 Q1003 NOSIG
ZHHH,2021-04-30 09:00,ZHHH 300900Z 22005MPS CAVOK 29/20 Q1003 NOSIG
ZHHH,2021-04-30 10:00,ZHHH 301000Z 22004G09MPS CAVOK 29/20 Q1003 NOSIG
ZHHH,2021-04-30 11:00,ZHHH 301100Z 22003MPS 9999 FEW030 26/20 Q1004 NOSIG
ZHHH,2021-04-30 12:00,ZHHH 301200Z 18002MPS 140V200 9999 FEW040 26/19 Q1004 NOSIG
ZHHH,2021-04-30 13:00,ZHHH 301300Z 22001MPS CAVOK 23/20 Q1005 NOSIG
ZHHH,2021-04-30 14:00,ZHHH 301400Z 00000MPS CAVOK 22/21 Q1006 NOSIG
ZHHH,2021-04-30 15:00,ZHHH 301500Z 00000MPS CAVOK 21/20 Q1006 NOSIG
ZHHH,2021-04-30 16:00,ZHHH 301600Z 00000MPS CAVOK 20/20 Q1006 NOSIG
ZHHH,2021-04-30 17:00,ZHHH 301700Z 03003MPS CAVOK 23/21 Q1007 NOSIG
ZHHH,2021-04-30 18:00,ZHHH 301800Z 07002MPS CAVOK 22/20 Q1007 NOSIG
ZHHH,2021-04-30 19:00,ZHHH 301900Z 05004MPS 360V100 CAVOK 22/20 Q1008 NOSIG
ZHHH,2021-04-30 20:00,ZHHH 302000Z 06007MPS CAVOK 20/15 Q1008 NOSIG
ZHHH,2021-04-30 21:00,ZHHH 302100Z 04005MPS 010V070 CAVOK 19/10 Q1009 NOSIG
ZHHH,2021-04-30 22:00,ZHHH 302200Z 06004MPS CAVOK 18/09 Q1010 NOSIG
ZHHH,2021-04-30 23:00,ZHHH 302300Z 04002MPS 350V070 CAVOK 19/10 Q1011 NOSIG
ZHHH,2021-05-01 00:00,ZHHH 010000Z 03003MPS 350V060 CAVOK 21/11 Q1012 NOSIG
ZHHH,2021-05-01 01:00,ZHHH 010100Z 06006MPS CAVOK 23/09 Q1013 NOSIG
ZHHH,2021-05-01 02:00,ZHHH 010200Z 05003MPS 330V090 CAVOK 24/11 Q1012 NOSIG
ZHHH,2021-05-01 03:00,ZHHH 010300Z 10003MPS 030V180 CAVOK 26/13 Q1012 NOSIG
ZHHH,2021-05-01 04:00,ZHHH 010400Z 13004MPS 070V210 CAVOK 27/15 Q1011 NOSIG
ZHHH,2021-05-01 05:00,ZHHH 010500Z 11004MPS 060V160 CAVOK 28/15 Q1010 NOSIG
ZHHH,2021-05-01 06:00,ZHHH 010600Z 12003MPS 070V200 CAVOK 29/16 Q1010 NOSIG
ZHHH,2021-05-01 07:00,ZHHH 010700Z VRB02MPS CAVOK 30/16 Q1009 NOSIG
ZHHH,2021-05-01 08:00,ZHHH 010800Z VRB02MPS CAVOK 30/16 Q1008 NOSIG
ZHHH,2021-05-01 09:00,ZHHH 010900Z VRB01MPS CAVOK 30/17 Q1008 NOSIG
ZHHH,2021-05-01 10:00,ZHHH 011000Z 12002MPS CAVOK 30/15 Q1007 NOSIG
ZHHH,2021-05-01 11:00,ZHHH 011100Z 11003MPS 080V140 CAVOK 28/15 Q1007 NOSIG
ZHHH,2021-05-01 12:00,ZHHH 011200Z 11004MPS CAVOK 27/16 Q1008 NOSIG
ZHHH,2021-05-01 13:00,ZHHH 011300Z 09004MPS CAVOK 26/16 Q1009 NOSIG
ZHHH,2021-05-01 14:00,ZHHH 011400Z 10004MPS CAVOK 25/15 Q1009 NOSIG
ZHHH,2021-05-01 15:00,ZHHH 011500Z 10003MPS CAVOK 24/15 Q1009 NOSIG
ZHHH,2021-05-01 16:00,ZHHH 011600Z 09003MPS CAVOK 24/15 Q1009 NOSIG
ZHHH,2021-05-01 17:00,ZHHH 011700Z 09005MPS CAVOK 23/15 Q1009 NOSIG
ZHHH,2021-05-01 18:00,ZHHH 011800Z 08005MPS CAVOK 22/15 Q1009 NOSIG
ZHHH,2021-05-01 19:00,ZHHH 011900Z 08005MPS CAVOK 22/15 Q1010 NOSIG
ZHHH,2021-05-01 20:00,ZHHH 012000Z 08004MPS CAVOK 21/15 Q1010 NOSIG
ZHHH,2021-05-01 21:00,ZHHH 012100Z 07004MPS CAVOK 21/16 Q1011 NOSIG
ZHHH,2021-05-01 22:00,ZHHH 012200Z 09002MPS 060V120 CAVOK 21/16 Q1011 NOSIG
ZHHH,2021-05-01 23:00,ZHHH 012300Z 08004MPS CAVOK 22/16 Q1012 NOSIG
ZHHH,2021-05-02 00:00,ZHHH 020000Z 07004MPS 040V100 CAVOK 24/16 Q1013 NOSIG
ZHHH,2021-05-02 01:00,ZHHH 020100Z 08006MPS 050V110 CAVOK 25/15 Q1014 NOSIG
ZHHH,2021-05-02 02:00,ZHHH 020200Z 08006MPS 050V110 CAVOK 26/15 Q1014 NOSIG
ZHHH,2021-05-02 03:00,ZHHH 020300Z 08006MPS CAVOK 27/15 Q1014 NOSIG
ZHHH,2021-05-02 04:00,ZHHH 020400Z 07006MPS 040V120 CAVOK 28/15 Q1013 NOSIG
ZHHH,2021-05-02 05:00,ZHHH 020500Z 08005MPS CAVOK 29/16 Q1013 NOSIG
ZHHH,2021-05-02 06:00,ZHHH 020600Z 08005MPS 040V110 CAVOK 29/16 Q1012 NOSIG
ZHHH,2021-05-02 07:00,ZHHH 020700Z 09005MPS CAVOK 30/16 Q1011 NOSIG
ZHHH,2021-05-02 08:00,ZHHH 020800Z 07005MPS 040V100 CAVOK 30/16 Q1010 NOSIG
ZHHH,2021-05-02 09:00,ZHHH 020900Z 03005MPS 360V060 CAVOK 28/16 Q1010 NOSIG
ZHHH,2021-05-02 10:00,ZHHH 021000Z 05007MPS CAVOK 27/15 Q1010 NOSIG
ZHHH,2021-05-02 11:00,ZHHH 021100Z 06006MPS CAVOK 25/13 Q1010 NOSIG
ZHHH,2021-05-02 12:00,ZHHH 021200Z 05006MPS CAVOK 23/12 Q1010 NOSIG
ZHHH,2021-05-02 13:00,ZHHH 021300Z 04003MPS CAVOK 22/12 Q1011 NOSIG
ZHHH,2021-05-02 14:00,ZHHH 021400Z 06004MPS CAVOK 22/11 Q1011 NOSIG
ZHHH,2021-05-02 15:00,ZHHH 021500Z 06004MPS CAVOK 21/12 Q1011 NOSIG
ZHHH,2021-05-02 16:00,ZHHH 021600Z 06003MPS CAVOK 20/13 Q1011 NOSIG
ZHHH,2021-05-02 17:00,ZHHH 021700Z 06004MPS CAVOK 21/13 Q1010 NOSIG
ZHHH,2021-05-02 18:00,ZHHH 021800Z 07005MPS CAVOK 20/12 Q1009 NOSIG
ZHHH,2021-05-02 19:00,ZHHH 021900Z 08004MPS CAVOK 20/13 Q1008 NOSIG
ZHHH,2021-05-02 20:00,ZHHH 022000Z 04004MPS 010V070 CAVOK 19/14 Q1008 NOSIG
ZHHH,2021-05-02 21:00,ZHHH 022100Z 05003MPS CAVOK 19/14 Q1008 NOSIG
ZHHH,2021-05-02 22:00,ZHHH 022200Z 03003MPS CAVOK 18/14 Q1008 NOSIG
ZHHH,2021-05-02 23:00,ZHHH 022300Z 08004MPS CAVOK 20/14 Q1008 NOSIG
ZHHH,2021-05-03 00:00,ZHHH 030000Z 11005MPS CAVOK 23/14 Q1008 NOSIG
ZHHH,2021-05-03 01:00,ZHHH 030100Z 10005MPS 070V130 CAVOK 24/14 Q1007 NOSIG
ZHHH,2021-05-03 02:00,ZHHH 030200Z 10004MPS CAVOK 24/15 Q1008 NOSIG
ZHHH,2021-05-03 03:00,ZHHH 030300Z 10004MPS CAVOK 25/15 Q1007 NOSIG
ZHHH,2021-05-03 04:00,ZHHH 030400Z 08004MPS 8000 NSC 25/16 Q1006 NOSIG
ZHHH,2021-05-03 05:00,ZHHH 030500Z 04003MPS 8000 -RA NSC 24/17 Q1006 NOSIG
ZHHH,2021-05-03 06:00,ZHHH 030600Z 34003MPS 280V020 3000 TSRA BR SCT026CB 19/18 Q1005 NOSIG
ZHHH,2021-05-03 07:00,ZHHH 030700Z 01003MPS 330V050 3500 -TSRA BR FEW026CB 17/17 Q1005 RESHRA NOSIG
ZHHH,2021-05-03 08:00,ZHHH 030800Z 04004MPS 2500 -SHRA BR NSC 19/19 Q1004 RETS BECMG TL0840 SHRA
ZHHH,2021-05-03 09:00,ZHHH 030900Z 08005MPS 1800 -TSRA BR FEW026CB BKN040 20/20 Q1003 RESHRA NOSIG
ZHHH,2021-05-03 10:00,ZHHH 031000Z 35003MPS 270V060 3400 -RA BR SCT005 OVC026 19/19 Q1005 RETS NOSIG
ZHHH,2021-05-03 11:00,ZHHH 031100Z 34004MPS 270V040 4500 -RA BR SCT006 OVC026 16/16 Q1005 RESHRA NOSIG
ZHHH,2021-05-03 12:00,ZHHH 031200Z 36003MPS 310V060 5000 -RA BR SCT005 OVC026 15/15 Q1006 NOSIG
ZHHH,2021-05-03 13:00,ZHHH 031300Z VRB02MPS 8000 -RA FEW004 SCT006 OVC020 16/16 Q1006 NOSIG
ZHHH,2021-05-03 14:00,ZHHH 031400Z VRB02MPS 8000 SCT006 OVC016 16/16 Q1008 NOSIG
ZHHH,2021-05-03 15:00,ZHHH 031500Z VRB02MPS 8000 SCT006 OVC016 15/15 Q1008 NOSIG
ZHHH,2021-05-03 16:00,ZHHH 031600Z VRB03MPS 9999 SCT007 OVC016 15/15 Q1009 NOSIG
ZHHH,2021-05-03 17:00,ZHHH 031700Z VRB02MPS 9999 -RA SCT009 OVC016 15/15 Q1009 NOSIG
ZHHH,2021-05-03 18:00,ZHHH 031800Z VRB02MPS 5000 -RA BR FEW005 SCT008 OVC020 15/15 Q1009 NOSIG
ZHHH,2021-05-03 19:00,ZHHH 031900Z 33003MPS 260V030 9999 FEW004 SCT006 15/15 Q1009 NOSIG
ZHHH,2021-05-03 20:00,ZHHH 032000Z 35003MPS 290V030 9999 SCT006 SCT008 15/15 Q1009 NOSIG
ZHHH,2021-05-03 21:00,ZHHH 032100Z 33002MPS 240V030 9999 FEW006 OVC040 16/16 Q1010 NOSIG
ZHHH,2021-05-03 22:00,ZHHH 032200Z VRB02MPS CAVOK 16/16 Q1011 NOSIG
ZHHH,2021-05-03 23:00,ZHHH 032300Z 35002MPS 270V060 8000 NSC 17/16 Q1011 NOSIG
ZHHH,2021-05-04 00:00,ZHHH 040000Z 35003MPS 300V040 7000 NSC 18/15 Q1012 NOSIG
ZHHH,2021-05-04 01:00,ZHHH 040100Z 34003MPS 280V040 8000 NSC 19/16 Q1012 NOSIG
ZHHH,2021-05-04 02:00,ZHHH 040200Z 31003MPS 210V010 8000 NSC 20/16 Q1013 NOSIG
ZHHH,2021-05-04 03:00,ZHHH 040300Z VRB02MPS 8000 NSC 22/16 Q1013 NOSIG
ZHHH,2021-05-04 04:00,ZHHH 040400Z VRB02MPS 8000 SCT020 24/17 Q1013 NOSIG
ZHHH,2021-05-04 05:00,ZHHH 040500Z 02004MPS 340V070 8000 FEW030 25/15 Q1013 NOSIG
ZHHH,2021-05-04 06:00,ZHHH 040600Z 02006MPS 340V050 CAVOK 25/13 Q1013 NOSIG
ZHHH,2021-05-04 07:00,ZHHH 040700Z 03005MPS 350V060 CAVOK 25/13 Q1013 NOSIG
ZHHH,2021-05-04 08:00,ZHHH 040800Z 03006MPS 360V060 CAVOK 26/10 Q1012 NOSIG
ZHHH,2021-05-04 09:00,ZHHH 040900Z 02005MPS 340V050 CAVOK 25/10 Q1013 NOSIG
ZHHH,2021-05-04 10:00,ZHHH 041000Z 03004MPS CAVOK 24/09 Q1014 NOSIG
ZHHH,2021-05-04 11:00,ZHHH 041100Z 03003MPS CAVOK 23/10 Q1014 NOSIG
ZHHH,2021-05-04 12:00,ZHHH 041200Z 05002MPS CAVOK 21/11 Q1014 NOSIG
ZHHH,2021-05-04 13:00,ZHHH 041300Z VRB01MPS CAVOK 20/14 Q1015 NOSIG
ZHHH,2021-05-04 14:00,ZHHH 041400Z 06002MPS 010V130 CAVOK 19/12 Q1016 NOSIG
ZHHH,2021-05-04 15:00,ZHHH 041500Z 00000MPS CAVOK 18/16 Q1016 NOSIG
ZHHH,2021-05-04 16:00,ZHHH 041600Z 00000MPS CAVOK 16/15 Q1017 NOSIG
ZHHH,2021-05-04 17:00,ZHHH 041700Z 04002MPS CAVOK 16/14 Q1017 NOSIG
ZHHH,2021-05-04 18:00,ZHHH 041800Z 05002MPS CAVOK 17/14 Q1017 NOSIG
ZHHH,2021-05-04 19:00,ZHHH 041900Z 00000MPS CAVOK 15/15 Q1017 NOSIG
ZHHH,2021-05-04 20:00,ZHHH 042000Z 00000MPS CAVOK 15/15 Q1017 NOSIG
ZHHH,2021-05-04 21:00,ZHHH 042100Z 05002MPS CAVOK 15/13 Q1017 NOSIG
ZHHH,2021-05-04 22:00,ZHHH 042200Z 05002MPS CAVOK 16/14 Q1017 NOSIG
ZHHH,2021-05-04 23:00,ZHHH 042300Z 10002MPS 050V130 CAVOK 19/15 Q1018 NOSIG
ZHHH,2021-05-05 00:00,ZHHH 050000Z 05002MPS CAVOK 21/13 Q1018 NOSIG
ZHHH,2021-05-05 01:00,ZHHH 050100Z VRB01MPS CAVOK 22/14 Q1019 NOSIG
ZHHH,2021-05-05 02:00,ZHHH 050200Z 30002MPS 250V010 CAVOK 23/15 Q1019 NOSIG
ZHHH,2021-05-05 03:00,ZHHH 050300Z 26002MPS 230V300 CAVOK 24/11 Q1018 NOSIG
ZHHH,2021-05-05 04:00,ZHHH 050400Z 28002MPS 240V360 CAVOK 25/09 Q1018 NOSIG
ZHHH,2021-05-05 05:00,ZHHH 050500Z 26002MPS 200V360 CAVOK 26/08 Q1017 NOSIG
ZHHH,2021-05-05 06:00,ZHHH 050600Z VRB02MPS CAVOK 28/07 Q1016 NOSIG
ZHHH,2021-05-05 07:00,ZHHH 050700Z VRB01MPS CAVOK 28/07 Q1015 NOSIG
ZHHH,2021-05-05 08:00,ZHHH 050800Z VRB01MPS CAVOK 27/06 Q1014 NOSIG
ZHHH,2021-05-05 09:00,ZHHH 050900Z VRB01MPS CAVOK 27/10 Q1014 NOSIG
ZHHH,2021-05-05 10:00,ZHHH 051000Z 00000MPS CAVOK 25/13 Q1014 NOSIG
ZHHH,2021-05-05 11:00,ZHHH 051100Z 08004MPS CAVOK 26/09 Q1014 NOSIG
ZHHH,2021-05-05 12:00,ZHHH 051200Z 09003MPS 060V140 CAVOK 25/09 Q1014 NOSIG
ZHHH,2021-05-05 13:00,ZHHH 051300Z 10003MPS CAVOK 25/09 Q1014 NOSIG
ZHHH,2021-05-05 14:00,ZHHH 051400Z 12003MPS 070V140 CAVOK 24/09 Q1015 NOSIG
ZHHH,2021-05-05 15:00,ZHHH 051500Z 13002MPS 080V150 CAVOK 24/10 Q1014 NOSIG
ZHHH,2021-05-05 16:00,ZHHH 051600Z VRB01MPS CAVOK 24/08 Q1014 NOSIG
ZHHH,2021-05-05 17:00,ZHHH 051700Z VRB01MPS CAVOK 21/13 Q1014 NOSIG
ZHHH,2021-05-05 18:00,ZHHH 051800Z 00000MPS CAVOK 20/12 Q1014 NOSIG
ZHHH,2021-05-05 19:00,ZHHH 051900Z 00000MPS 9999 -RA NSC 19/16 Q1014 NOSIG
ZHHH,2021-05-05 20:00,ZHHH 052000Z 23002MPS 200V260 9999 -RA NSC 19/17 Q1014 NOSIG
ZHHH,2021-05-05 21:00,ZHHH 052100Z 20002MPS CAVOK 20/17 Q1013 NOSIG
ZHHH,2021-05-05 22:00,ZHHH 052200Z 18002MPS CAVOK 21/15 Q1013 NOSIG
ZHHH,2021-05-05 23:00,ZHHH 052300Z 17004MPS CAVOK 22/14 Q1013 NOSIG
ZHHH,2021-05-06 00:00,ZHHH 060000Z 00000MPS CAVOK 22/18 Q1014 NOSIG
ZHHH,2021-05-06 01:00,ZHHH 060100Z 22002MPS 190V260 CAVOK 23/16 Q1014 NOSIG
ZHHH,2021-05-06 02:00,ZHHH 060200Z VRB01MPS CAVOK 23/16 Q1014 NOSIG
ZHHH,2021-05-06 03:00,ZHHH 060300Z 23005MPS CAVOK 23/14 Q1014 NOSIG
ZHHH,2021-05-06 04:00,ZHHH 060400Z 23006MPS CAVOK 22/16 Q1014 NOSIG
ZHHH,2021-05-06 05:00,ZHHH 060500Z 24005MPS CAVOK 21/17 Q1014 NOSIG
ZHHH,2021-05-06 06:00,ZHHH 060600Z 22005MPS CAVOK 21/16 Q1014 NOSIG
ZHHH,2021-05-06 07:00,ZHHH 060700Z 22006MPS 9999 SCT020 20/17 Q1013 NOSIG
ZHHH,2021-05-06 08:00,ZHHH 060800Z 20005MPS 9999 SCT020 20/18 Q1013 NOSIG
ZHHH,2021-05-06 09:00,ZHHH 060900Z 18003MPS 160V230 9999 FEW017 20/17 Q1012 NOSIG
ZHHH,2021-05-06 10:00,ZHHH 061000Z 20004MPS 9999 FEW017 20/17 Q1012 NOSIG
ZHHH,2021-05-06 11:00,ZHHH 061100Z 19003MPS CAVOK 19/17 Q1012 NOSIG
ZHHH,2021-05-06 12:00,ZHHH 061200Z 19003MPS CAVOK 19/17 Q1012 NOSIG
ZHHH,2021-05-06 13:00,ZHHH 061300Z 20003MPS CAVOK 19/17 Q1013 NOSIG
ZHHH,2021-05-06 14:00,ZHHH 061400Z 22002MPS 180V240 8000 NSC 19/17 Q1014 NOSIG
ZHHH,2021-05-06 15:00,ZHHH 061500Z 21003MPS 8000 NSC 18/17 Q1013 NOSIG
ZHHH,2021-05-06 16:00,ZHHH 061600Z 20003MPS 6000 NSC 18/18 Q1012 NOSIG
ZHHH,2021-05-06 17:00,ZHHH 061700Z 25002MPS 6000 NSC 18/18 Q1012 NOSIG
ZHHH,2021-05-06 18:00,ZHHH 061800Z 22001MPS 6000 NSC 17/17 Q1012 NOSIG
ZHHH,2021-05-06 19:00,ZHHH 061900Z VRB01MPS 5000 BR NSC 17/17 Q1012 NOSIG
ZHHH,2021-05-06 20:00,ZHHH 062000Z 00000MPS 5000 BR BKN016 17/17 Q1011 NOSIG
ZHHH,2021-05-06 21:00,ZHHH 062100Z VRB01MPS 5000 BR SCT011 BKN016 17/17 Q1012 NOSIG
ZHHH,2021-05-06 22:00,ZHHH 062200Z 20002MPS 4000 BR SCT011 BKN033 19/19 Q1012 BECMG TL2350 2800
ZHHH,2021-05-06 23:00,ZHHH 062300Z 00000MPS 4500 BR SCT014 20/18 Q1013 NOSIG
ZHHH,2021-05-07 00:00,ZHHH 070000Z VRB01MPS 6000 FEW012 20/19 Q1014 NOSIG
ZHHH,2021-05-07 01:00,ZHHH 070100Z 28002MPS 220V350 6000 SCT020 20/19 Q1014 NOSIG
ZHHH,2021-05-07 02:00,ZHHH 070200Z VRB01MPS 6000 SCT020 SCT030 21/18 Q1014 NOSIG
ZHHH,2021-05-07 03:00,ZHHH 070300Z VRB02MPS 6000 SCT020 SCT030 22/19 Q1014 NOSIG
ZHHH,2021-05-07 04:00,ZHHH 070400Z 25002MPS 220V290 7000 BKN040 23/19 Q1014 NOSIG
ZHHH,2021-05-07 05:00,ZHHH 070500Z VRB02MPS 7000 NSC 24/18 Q1013 NOSIG
ZHHH,2021-05-07 06:00,ZHHH 070600Z VRB02MPS CAVOK 26/17 Q1012 NOSIG
ZHHH,2021-05-07 07:00,ZHHH 070700Z 01002MPS 280V060 CAVOK 27/17 Q1011 NOSIG
ZHHH,2021-05-07 08:00,ZHHH 070800Z VRB02MPS CAVOK 27/16 Q1011 NOSIG
ZHHH,2021-05-07 09:00,ZHHH 070900Z 02002MPS 350V050 CAVOK 26/18 Q1010 NOSIG
ZHHH,2021-05-07 10:00,ZHHH 071000Z 00000MPS CAVOK 25/18 Q1010 NOSIG
ZHHH,2021-05-07 11:00,ZHHH 071100Z 35002MPS CAVOK 22/18 Q1010 NOSIG
ZHHH,2021-05-07 12:00,ZHHH 071200Z 36001MPS CAVOK 21/16 Q1010 NOSIG
ZHHH,2021-05-07 13:00,ZHHH 071300Z 00000MPS CAVOK 20/18 Q1010 NOSIG
ZHHH,2021-05-07 14:00,ZHHH 071400Z 32001MPS CAVOK 20/20 Q1010 NOSIG
ZHHH,2021-05-07 15:00,ZHHH 071500Z 25001MPS CAVOK 20/20 Q1010 NOSIG
ZHHH,2021-05-07 16:00,ZHHH 071600Z VRB01MPS CAVOK 20/20 Q1010 NOSIG
ZHHH,2021-05-07 17:00,ZHHH 071700Z 00000MPS CAVOK 20/20 Q1009 NOSIG
ZHHH,2021-05-07 18:00,ZHHH 071800Z 21002MPS CAVOK 19/19 Q1009 NOSIG
ZHHH,2021-05-07 19:00,ZHHH 071900Z 21002MPS 170V230 8000 NSC 20/19 Q1008 NOSIG
ZHHH,2021-05-07 20:00,ZHHH 072000Z 19002MPS 8000 NSC 20/20 Q1008 NOSIG
ZHHH,2021-05-07 21:00,ZHHH 072100Z 19002MPS 140V210 5000 BR NSC 20/20 Q1008 NOSIG
ZHHH,2021-05-07 22:00,ZHHH 072200Z VRB01MPS 3500 BR NSC 19/19 Q1008 BECMG TL2310 2800
ZHHH,2021-05-07 23:00,ZHHH 072300Z VRB01MPS 3500 BR NSC 22/21 Q1008 NOSIG
ZHHH,2021-05-08 00:00,ZHHH 080000Z 23003MPS 210V270 3500 BR NSC 23/22 Q1008 NOSIG
ZHHH,2021-05-08 01:00,ZHHH 080100Z 22005MPS 200V260 7000 SCT020 25/22 Q1008 NOSIG
ZHHH,2021-05-08 02:00,ZHHH 080200Z 23004MPS 200V260 7000 SCT020 25/21 Q1008 NOSIG
ZHHH,2021-05-08 03:00,ZHHH 080300Z 22005MPS 9999 FEW020 27/21 Q1008 NOSIG
ZHHH,2021-05-08 04:00,ZHHH 080400Z 24005MPS 200V270 9999 FEW020 28/19 Q1008 NOSIG
ZHHH,2021-05-08 05:00,ZHHH 080500Z 24004MPS 210V280 9999 FEW020 28/19 Q1007 NOSIG
ZHHH,2021-05-08 06:00,ZHHH 080600Z 24004MPS CAVOK 29/18 Q1006 NOSIG
ZHHH,2021-05-08 07:00,ZHHH 080700Z 22004MPS 190V260 CAVOK 30/19 Q1005 NOSIG
ZHHH,2021-05-08 08:00,ZHHH 080800Z 20005MPS CAVOK 30/19 Q1005 NOSIG
ZHHH,2021-05-08 09:00,ZHHH 080900Z 22005MPS CAVOK 30/18 Q1004 NOSIG
ZHHH,2021-05-08 10:00,ZHHH 081000Z 20004MPS CAVOK 29/16 Q1005 NOSIG
ZHHH,2021-05-08 11:00,ZHHH 081100Z 22002MPS CAVOK 26/18 Q1005 NOSIG
ZHHH,2021-05-08 12:00,ZHHH 081200Z 18002MPS CAVOK 25/17 Q1005 NOSIG
ZHHH,2021-05-08 13:00,ZHHH 081300Z 18002MPS CAVOK 25/18 Q1006 NOSIG
ZHHH,2021-05-08 14:00,ZHHH 081400Z 15002MPS CAVOK 25/18 Q1006 NOSIG
ZHHH,2021-05-08 15:00,ZHHH 081500Z 17003MPS CAVOK 25/19 Q1006 NOSIG
ZHHH,2021-05-08 16:00,ZHHH 081600Z 00000MPS CAVOK 23/20 Q1006 NOSIG
ZHHH,2021-05-08 17:00,ZHHH 081700Z 19002MPS 160V230 CAVOK 24/20 Q1006 NOSIG
ZHHH,2021-05-08 18:00,ZHHH 081800Z 18002MPS 150V240 CAVOK 24/21 Q1006 NOSIG
ZHHH,2021-05-08 19:00,ZHHH 081900Z 18002MPS CAVOK 23/21 Q1006 NOSIG
ZHHH,2021-05-08 20:00,ZHHH 082000Z 18003MPS CAVOK 23/21 Q1005 NOSIG
ZHHH,2021-05-08 21:00,ZHHH 082100Z 14003MPS CAVOK 23/21 Q1006 NOSIG
ZHHH,2021-05-08 22:00,ZHHH 082200Z 13003MPS CAVOK 23/22 Q1006 NOSIG
ZHHH,2021-05-08 23:00,ZHHH 082300Z 13002MPS 100V160 7000 NSC 24/22 Q1006 NOSIG
ZHHH,2021-05-09 00:00,ZHHH 090000Z 15004MPS 5000 BR NSC 26/22 Q1007 NOSIG
ZHHH,2021-05-09 01:00,ZHHH 090100Z 15004MPS 5000 HZ NSC 28/22 Q1007 NOSIG
ZHHH,2021-05-09 02:00,ZHHH 090200Z 19005MPS 160V260 7000 FEW030 29/21 Q1007 NOSIG
ZHHH,2021-05-09 03:00,ZHHH 090300Z 17004MPS 120V220 CAVOK 30/21 Q1007 NOSIG
ZHHH,2021-05-09 04:00,ZHHH 090400Z 18004MPS 140V220 CAVOK 31/20 Q1006 NOSIG
ZHHH,2021-05-09 05:00,ZHHH 090500Z 22004MPS 200V260 CAVOK 31/20 Q1006 NOSIG
ZHHH,2021-05-09 06:00,ZHHH 090600Z VRB03MPS CAVOK 32/18 Q1005 NOSIG
ZHHH,2021-05-09 07:00,ZHHH 090700Z 23003MPS 160V300 CAVOK 33/19 Q1004 NOSIG
ZHHH,2021-05-09 08:00,ZHHH 090800Z 22004MPS 190V250 CAVOK 33/19 Q1003 NOSIG
ZHHH,2021-05-09 09:00,ZHHH 090900Z 21005MPS CAVOK 32/18 Q1003 NOSIG
ZHHH,2021-05-09 10:00,ZHHH 091000Z 18003MPS 140V210 CAVOK 32/17 Q1002 NOSIG
ZHHH,2021-05-09 11:00,ZHHH 091100Z 20002MPS 170V240 CAVOK 29/19 Q1002 NOSIG
ZHHH,2021-05-09 12:00,ZHHH 091200Z 12002MPS 100V220 CAVOK 30/18 Q1002 NOSIG
ZHHH,2021-05-09 13:00,ZHHH 091300Z 11004MPS 350V130 CAVOK 29/21 Q1003 NOSIG
ZHHH,2021-05-09 14:00,ZHHH 091400Z 12004MPS CAVOK 28/22 Q1004 NOSIG
ZHHH,2021-05-09 15:00,ZHHH 091500Z 12003MPS CAVOK 28/22 Q1004 NOSIG
ZHHH,2021-05-09 16:00,ZHHH 091600Z 12003MPS CAVOK 27/23 Q1004 NOSIG
ZHHH,2021-05-09 17:00,ZHHH 091700Z 12003MPS CAVOK 27/23 Q1003 NOSIG
ZHHH,2021-05-09 18:00,ZHHH 091800Z 12003MPS CAVOK 26/24 Q1003 NOSIG
ZHHH,2021-05-09 19:00,ZHHH 091900Z 12003MPS 8000 NSC 26/24 Q1002 NOSIG
ZHHH,2021-05-09 20:00,ZHHH 092000Z 13002MPS 8000 NSC 26/24 Q1002 NOSIG
ZHHH,2021-05-09 21:00,ZHHH 092100Z 10003MPS 7000 NSC 25/24 Q1002 NOSIG
ZHHH,2021-05-09 22:00,ZHHH 092200Z 10003MPS 5000 BR NSC 25/24 Q1002 NOSIG
ZHHH,2021-05-09 23:00,ZHHH 092300Z 11003MPS 4500 BR NSC 26/24 Q1003 NOSIG
ZHHH,2021-05-10 00:00,ZHHH 100000Z 12003MPS 6000 NSC 28/24 Q1003 NOSIG
ZHHH,2021-05-10 01:00,ZHHH 100100Z 12003MPS 050V180 8000 NSC 30/24 Q1003 NOSIG
ZHHH,2021-05-10 02:00,ZHHH 100200Z 14003MPS 080V190 CAVOK 30/24 Q1004 NOSIG
ZHHH,2021-05-10 03:00,ZHHH 100300Z 18004MPS 150V210 9999 SCT026 FEW033TCU 31/23 Q1003 NOSIG
ZHHH,2021-05-10 04:00,ZHHH 100400Z 20004MPS 150V230 9999 SCT033 FEW040TCU 32/23 Q1003 NOSIG
ZHHH,2021-05-10 05:00,ZHHH 100500Z 24003MPS 190V290 9999 SCT033 FEW040TCU 32/24 Q1002 NOSIG
ZHHH,2021-05-10 06:00,ZHHH 100600Z 25002MPS 220V280 9999 SCT033 FEW040TCU 31/23 Q1001 BECMG TL0700 TSRA
ZHHH,2021-05-10 07:00,ZHHH 100700Z 23010G16MPS 190V250 0700 R22R/0400V0650D R22L/0450V0700D +TSRA SCT033CB 22/22 Q1004 NOSIG
ZHHH,2021-05-10 08:00,ZHHH 100800Z VRB02MPS 1600 TSRA FEW004 SCT026CB 22/22 Q1004 BECMG TL0840 3000 -RA BR
ZHHH,2021-05-10 09:00,ZHHH 100900Z 02003MPS 340V060 5000 -SHRA BR FEW004 FEW026CB SCT040 22/22 Q1003 RETSRA NOSIG
ZHHH,2021-05-10 10:00,ZHHH 101000Z 09004MPS 9999 -SHRA FEW004 FEW026CB BKN040 22/22 Q1003 NOSIG
ZHHH,2021-05-10 11:00,ZHHH 101100Z 10005MPS 8000 SHRA SCT005 FEW026CB BKN033 22/22 Q1003 BECMG TL1200 -RA
ZHHH,2021-05-10 12:00,ZHHH 101200Z 09005MPS 9999 SCT007 22/22 Q1003 RESHRA NOSIG
ZHHH,2021-05-10 13:00,ZHHH 101300Z 03002MPS 9999 -SHRA FEW007 22/22 Q1004 NOSIG
ZHHH,2021-05-10 14:00,ZHHH 101400Z 06003MPS 9999 -SHRA FEW007 22/22 Q1004 NOSIG
ZHHH,2021-05-10 15:00,ZHHH 101500Z 04005MPS 9999 SCT005 SCT010 22/22 Q1004 NOSIG
ZHHH,2021-05-10 16:00,ZHHH 101600Z 04003MPS 9999 SCT014 21/21 Q1004 NOSIG
ZHHH,2021-05-10 17:00,ZHHH 101700Z 03003MPS 9999 SCT007 21/21 Q1004 NOSIG
ZHHH,2021-05-10 18:00,ZHHH 101800Z 05003MPS 020V080 9999 SCT010 21/21 Q1003 NOSIG
ZHHH,2021-05-10 19:00,ZHHH 101900Z VRB01MPS 9999 SCT010 OVC040 21/21 Q1003 NOSIG
ZHHH,2021-05-10 20:00,ZHHH 102000Z 03002MPS 350V060 9999 SCT010 OVC040 21/21 Q1003 NOSIG
ZHHH,2021-05-10 21:00,ZHHH 102100Z 03003MPS 350V060 9999 SCT012 OVC040 21/21 Q1003 NOSIG
ZHHH,2021-05-10 22:00,ZHHH 102200Z 04003MPS 5000 BR SCT012 21/21 Q1004 NOSIG
ZHHH,2021-05-10 23:00,ZHHH 102300Z 02003MPS 340V050 4000 BR SCT012 21/21 Q1005 NOSIG
ZHHH,2021-05-11 00:00,ZHHH 110000Z 03004MPS 360V060 4000 BR SCT015 21/20 Q1005 NOSIG
ZHHH,2021-05-11 01:00,ZHHH 110100Z 02003MPS 340V050 4000 BR SCT015 21/20 Q1006 NOSIG
ZHHH,2021-05-11 02:00,ZHHH 110200Z 01003MPS 330V050 4500 BR SCT015 21/20 Q1006 NOSIG
ZHHH,2021-05-11 03:00,ZHHH 110300Z 35003MPS 320V030 4500 BR SCT015 21/21 Q1007 NOSIG
ZHHH,2021-05-11 04:00,ZHHH 110400Z 36003MPS 310V050 2000 -DZ BR FEW005 SCT009 OVC040 20/20 Q1006 NOSIG
ZHHH,2021-05-11 05:00,ZHHH 110500Z 36003MPS 290V050 2800 BR FEW007 SCT009 OVC040 20/20 Q1006 BECMG TL0620 3000
ZHHH,2021-05-11 06:00,ZHHH 110600Z 35003MPS 310V050 3000 -RA BR FEW007 SCT010 OVC040 20/20 Q1006 NOSIG
ZHHH,2021-05-11 07:00,ZHHH 110700Z 35003MPS 290V040 3500 -RA BR SCT010 OVC040 20/20 Q1006 NOSIG
ZHHH,2021-05-11 08:00,ZHHH 110800Z 02004MPS 340V060 5000 BR SCT012 21/20 Q1006 NOSIG
ZHHH,2021-05-11 09:00,ZHHH 110900Z 36003MPS 310V040 5000 BR SCT012 21/20 Q1006 NOSIG
ZHHH,2021-05-11 10:00,ZHHH 111000Z 36002MPS 300V050 5000 BR SCT012 20/20 Q1006 NOSIG
ZHHH,2021-05-11 11:00,ZHHH 111100Z 03003MPS 350V050 6000 FEW012 OVC026 20/19 Q1007 NOSIG
ZHHH,2021-05-11 12:00,ZHHH 111200Z 03004MPS 350V060 6000 OVC026 20/19 Q1007 NOSIG
ZHHH,2021-05-11 13:00,ZHHH 111300Z 02003MPS 350V060 6000 OVC026 19/19 Q1008 NOSIG
ZHHH,2021-05-11 14:00,ZHHH 111400Z 04003MPS 6000 OVC026 19/19 Q1008 NOSIG
ZHHH,2021-05-11 15:00,ZHHH 111500Z 03003MPS 360V060 6000 OVC026 19/18 Q1008 NOSIG
ZHHH,2021-05-11 16:00,ZHHH 111600Z 04003MPS 360V060 6000 OVC026 19/19 Q1008 NOSIG
ZHHH,2021-05-11 17:00,ZHHH 111700Z 05003MPS 6000 OVC026 19/18 Q1008 NOSIG
ZHHH,2021-05-11 18:00,ZHHH 111800Z 03002MPS 350V060 6000 OVC026 18/18 Q1007 NOSIG
ZHHH,2021-05-11 19:00,ZHHH 111900Z 04001MPS 5000 BR SCT025 OVC040 18/18 Q1007 NOSIG
ZHHH,2021-05-11 20:00,ZHHH 112000Z 05003MPS 5000 BR OVC040 18/18 Q1007 NOSIG
ZHHH,2021-05-11 21:00,ZHHH 112100Z 04002MPS 5000 BR OVC040 18/18 Q1007 NOSIG
ZHHH,2021-05-11 22:00,ZHHH 112200Z 04002MPS 3000 BR OVC040 18/18 Q1008 BECMG TL2310 2800
ZHHH,2021-05-11 23:00,ZHHH 112300Z 06002MPS 4000 BR OVC040 19/18 Q1008 NOSIG
ZHHH,2021-05-12 00:00,ZHHH 120000Z VRB01MPS 4000 BR OVC040 20/19 Q1009 NOSIG
ZHHH,2021-05-12 01:00,ZHHH 120100Z 06002MPS 020V110 4200 BR SCT011 20/19 Q1009 NOSIG
ZHHH,2021-05-12 02:00,ZHHH 120200Z 04003MPS 340V080 4000 BR SCT010 21/20 Q1009 NOSIG
ZHHH,2021-05-12 03:00,ZHHH 120300Z 06002MPS 020V100 4500 BR SCT010 20/19 Q1009 NOSIG
ZHHH,2021-05-12 04:00,ZHHH 120400Z 36002MPS 280V070 4500 BR SCT011 21/20 Q1008 NOSIG
ZHHH,2021-05-12 05:00,ZHHH 120500Z VRB02MPS 5000 BR FEW014 SCT018 23/20 Q1008 NOSIG
ZHHH,2021-05-12 06:00,ZHHH 120600Z VRB02MPS 5000 BR SCT016 BKN020 23/21 Q1007 NOSIG
ZHHH,2021-05-12 07:00,ZHHH 120700Z VRB01MPS 7000 SCT016 BKN026 24/21 Q1006 NOSIG
ZHHH,2021-05-12 08:00,ZHHH 120800Z 25002MPS 210V280 7000 SCT020 SCT026 24/21 Q1006 NOSIG
ZHHH,2021-05-12 09:00,ZHHH 120900Z VRB01MPS 6000 FEW023 SCT040 24/22 Q1005 NOSIG
ZHHH,2021-05-12 10:00,ZHHH 121000Z VRB01MPS 6000 FEW023 BKN040 24/21 Q1006 NOSIG
ZHHH,2021-05-12 11:00,ZHHH 121100Z 26001MPS 6000 NSC 22/22 Q1006 NOSIG
ZHHH,2021-05-12 12:00,ZHHH 121200Z VRB01MPS 9000 NSC 22/22 Q1007 NOSIG
ZHHH,2021-05-12 13:00,ZHHH 121300Z 01001MPS 9999 BKN033 22/22 Q1007 NOSIG
ZHHH,2021-05-12 14:00,ZHHH 121400Z 03002MPS 9999 BKN030 22/22 Q1007 NOSIG
ZHHH,2021-05-12 15:00,ZHHH 121500Z 01002MPS 8000 BKN026 22/22 Q1008 NOSIG
ZHHH,2021-05-12 16:00,ZHHH 121600Z 06004MPS 7000 -RA BKN040 22/22 Q1007 NOSIG
ZHHH,2021-05-12 17:00,ZHHH 121700Z 04003MPS 7000 NSC 21/21 Q1007 NOSIG
ZHHH,2021-05-12 18:00,ZHHH 121800Z 06003MPS 6000 NSC 21/21 Q1006 NOSIG
ZHHH,2021-05-12 19:00,ZHHH 121900Z 04003MPS 5000 BR NSC 20/20 Q1006 NOSIG
ZHHH,2021-05-12 20:00,ZHHH 122000Z 07004MPS 5000 BR OVC020 20/20 Q1006 NOSIG
ZHHH,2021-05-12 21:00,ZHHH 122100Z 07003MPS 5000 BR OVC020 21/21 Q1006 NOSIG
ZHHH,2021-05-12 22:00,ZHHH 122200Z 10003MPS 3400 BR SCT018 OVC033 21/21 Q1007 NOSIG
ZHHH,2021-05-12 23:00,ZHHH 122300Z 08003MPS 3400 BR OVC040 21/21 Q1007 NOSIG
ZHHH,2021-05-13 00:00,ZHHH 130000Z 09004MPS 3400 BR OVC040 23/23 Q1007 NOSIG
ZHHH,2021-05-13 01:00,ZHHH 130100Z 12004MPS 070V150 4000 BR NSC 24/22 Q1007 NOSIG
ZHHH,2021-05-13 02:00,ZHHH 130200Z 12004MPS 080V140 5000 BR FEW015 25/22 Q1006 NOSIG
ZHHH,2021-05-13 03:00,ZHHH 130300Z 12004MPS 060V190 5000 BR SCT020 27/22 Q1006 NOSIG
ZHHH,2021-05-13 04:00,ZHHH 130400Z 10004MPS 050V140 5000 BR SCT020 27/22 Q1006 NOSIG
ZHHH,2021-05-13 05:00,ZHHH 130500Z 12004MPS 5000 BR SCT020TCU 26/23 Q1006 BECMG TL0540 TSRA
ZHHH,2021-05-13 06:00,ZHHH 130600Z VRB03MPS 2500 -SHRA BR FEW010 FEW020CB 24/24 Q1005 RESHRA NOSIG
ZHHH,2021-05-13 07:00,ZHHH 130700Z 12002MPS 2500 -SHRA BR SCT007 OVC040 24/24 Q1005 NOSIG
ZHHH,2021-05-13 08:00,ZHHH 130800Z 09003MPS 060V120 2300 -RA BR SCT007 OVC033 24/24 Q1004 NOSIG
ZHHH,2021-05-13 09:00,ZHHH 130900Z 11004MPS 050V120 1800 -RA BR SCT007 OVC033 23/23 Q1004 NOSIG
ZHHH,2021-05-13 10:00,ZHHH 131000Z 11003MPS 060V130 1500 -RA BR FEW010 OVC033 24/24 Q1004 NOSIG
ZHHH,2021-05-13 11:00,ZHHH 131100Z VRB03MPS 1500 SHRA BR SCT007 OVC040 23/23 Q1004 NOSIG
ZHHH,2021-05-13 12:00,ZHHH 131200Z 12004MPS 2500 BR FEW005 SCT007 OVC040 23/23 Q1004 RESHRA BECMG TL1250 3000
ZHHH,2021-05-13 13:00,ZHHH 131300Z 13003MPS 3000 BR SCT007 OVC040 23/23 Q1005 NOSIG
ZHHH,2021-05-13 14:00,ZHHH 131400Z 14004MPS 5000 BR SCT006 OVC033 23/23 Q1005 NOSIG
ZHHH,2021-05-13 15:00,ZHHH 131500Z 12003MPS 5000 -SHRA BR SCT006 OVC033 23/23 Q1005 NOSIG
ZHHH,2021-05-13 16:00,ZHHH 131600Z 08004MPS 350V120 5000 BR FEW006 22/22 Q1004 NOSIG
ZHHH,2021-05-13 17:00,ZHHH 131700Z 10003MPS 070V130 6000 SCT033 23/23 Q1004 NOSIG
ZHHH,2021-05-13 18:00,ZHHH 131800Z 10003MPS 6000 SCT033 22/22 Q1003 NOSIG
ZHHH,2021-05-13 19:00,ZHHH 131900Z 12003MPS 5000 BR SCT033 23/23 Q1003 NOSIG
ZHHH,2021-05-13 20:00,ZHHH 132000Z 12003MPS 110V170 4000 -RA BR SCT006 SCT033 23/23 Q1003 NOSIG
ZHHH,2021-05-13 21:00,ZHHH 132100Z 12004MPS 4000 -RA BR SCT006 SCT033 23/23 Q1003 NOSIG
ZHHH,2021-05-13 22:00,ZHHH 132200Z 11004MPS 2000 -RA BR SCT006 SCT033 23/23 Q1003 NOSIG
ZHHH,2021-05-13 23:00,ZHHH 132300Z 11003MPS 2000 -RA BR BKN033 23/23 Q1003 NOSIG
ZHHH,2021-05-14 00:00,ZHHH 140000Z 12004MPS 2000 SHRA BR SCT030CB 23/23 Q1004 BECMG TL0020 TSRA
ZHHH,2021-05-14 01:00,ZHHH 140100Z VRB01MPS 4000 BR SCT040 23/23 Q1004 RETSRA NOSIG
ZHHH,2021-05-14 02:00,ZHHH 140200Z VRB02MPS 6000 SCT025 23/23 Q1004 NOSIG
ZHHH,2021-05-14 03:00,ZHHH 140300Z 16003MPS 080V200 9999 FEW011 25/24 Q1003 NOSIG
ZHHH,2021-05-14 04:00,ZHHH 140400Z 12002MPS 030V200 CAVOK 26/25 Q1002 NOSIG
ZHHH,2021-05-14 05:00,ZHHH 140500Z VRB01MPS CAVOK 27/24 Q1002 NOSIG
ZHHH,2021-05-14 06:00,ZHHH 140600Z VRB01MPS CAVOK 28/24 Q1002 NOSIG
ZHHH,2021-05-14 07:00,ZHHH 140700Z 35002MPS 310V100 CAVOK 28/25 Q1001 NOSIG
ZHHH,2021-05-14 08:00,ZHHH 140800Z 05004MPS 020V090 CAVOK 29/26 Q1000 NOSIG
ZHHH,2021-05-14 09:00,ZHHH 140900Z 07004MPS 040V110 CAVOK 29/25 Q1000 NOSIG
ZHHH,2021-05-14 10:00,ZHHH 141000Z 09005MPS CAVOK 29/25 Q1000 NOSIG
ZHHH,2021-05-14 11:00,ZHHH 141100Z 08005MPS CAVOK 28/25 Q1000 NOSIG
ZHHH,2021-05-14 12:00,ZHHH 141200Z 09007MPS 9999 TS FEW040CB 27/25 Q1000 NOSIG
ZHHH,2021-05-14 13:00,ZHHH 141300Z 18006MPS 130V210 4500 TSRA BR SCT040CB 25/25 Q1002 NOSIG
ZHHH,2021-05-14 14:00,ZHHH 141400Z 12006MPS 8000 FEW040 25/25 Q1001 RETSRA NOSIG
ZHHH,2021-05-14 15:00,ZHHH 141500Z 13004MPS 090V160 8000 NSC 25/25 Q1001 NOSIG
ZHHH,2021-05-14 16:00,ZHHH 141600Z 09005MPS 8000 NSC 24/24 Q1000 NOSIG
ZHHH,2021-05-14 17:00,ZHHH 141700Z 10006MPS 9999 TS FEW040CB 24/24 Q0999 NOSIG
ZHHH,2021-05-14 18:00,ZHHH 141800Z VRB03MPS 9999 -TSRA FEW030CB 23/23 Q1000 NOSIG
ZHHH,2021-05-14 19:00,ZHHH 141900Z 05003MPS 020V090 9999 -RA FEW030CB 24/24 Q0999 RETS NOSIG
ZHHH,2021-05-14 20:00,ZHHH 142000Z 02004MPS 330V060 8000 -SHRA FEW030CB 23/23 Q1000 RESHRA NOSIG
ZHHH,2021-05-14 21:00,ZHHH 142100Z 06004MPS 9999 -SHRA NSC 23/23 Q0999 NOSIG
ZHHH,2021-05-14 22:00,ZHHH 142200Z VRB03G09MPS 6000 -TSRA SCT007 FEW020CB BKN026 23/23 Q1000 NOSIG
ZHHH,2021-05-14 23:00,ZHHH 142300Z VRB02MPS 6000 TSRA SCT007 FEW020CB BKN026 22/22 Q1001 NOSIG
ZHHH,2021-05-15 00:00,ZHHH 150000Z VRB01MPS 8000 TSRA SCT007 FEW020CB 21/21 Q1001 NOSIG
ZHHH,2021-05-15 01:00,ZHHH 150100Z 18005MPS 150V210 9999 -RA SCT011 22/22 Q1001 RETSRA NOSIG
ZHHH,2021-05-15 02:00,ZHHH 150200Z 25003MPS 220V300 9999 SCT040 23/23 Q1001 NOSIG
ZHHH,2021-05-15 03:00,ZHHH 150300Z VRB01MPS 9999 -TSRA SCT009 FEW020CB BKN033 24/24 Q1001 BECMG TL0340 TSRA
ZHHH,2021-05-15 04:00,ZHHH 150400Z VRB03MPS 5000 +TSRA BR FEW003 SCT009 SCT020CB 22/22 Q1001 BECMG TL0530 -TSRA
ZHHH,2021-05-15 05:00,ZHHH 150500Z VRB03MPS 5000 TSRA BR SCT011 SCT023CB SCT023 22/22 Q1000 BECMG TL0540 3000 -RA
ZHHH,2021-05-15 06:00,ZHHH 150600Z VRB01MPS 9999 SCT010 24/24 Q1000 RETSRA NOSIG
ZHHH,2021-05-15 07:00,ZHHH 150700Z VRB01MPS 9999 SCT023 BKN040 25/25 Q1000 NOSIG
ZHHH,2021-05-15 08:00,ZHHH 150800Z 32002MPS 280V030 9999 SCT020 26/25 Q0999 NOSIG
ZHHH,2021-05-15 09:00,ZHHH 150900Z 33002MPS 270V030 9999 FEW023 26/24 Q0999 NOSIG
ZHHH,2021-05-15 10:00,ZHHH 151000Z 04001MPS 9999 SCT030 25/24 Q0998 NOSIG
ZHHH,2021-05-15 11:00,ZHHH 151100Z 05002MPS 010V100 9999 SCT030 25/24 Q0999 NOSIG
ZHHH,2021-05-15 12:00,ZHHH 151200Z 01002MPS 310V050 8000 -TSRA FEW030CB BKN030 25/25 Q0999 BECMG TL1240 TSRA
ZHHH,2021-05-15 13:00,ZHHH 151300Z 04005MPS 7000 -TSRA FEW003 FEW020CB SCT020 24/24 Q1000 RESHRA BECMG TL1340 TSRA
ZHHH,2021-05-15 14:00,ZHHH 151400Z VRB01MPS 8000 TSRA SCT033CB 23/23 Q1002 NOSIG
ZHHH,2021-05-15 15:00,ZHHH 151500Z 01002MPS 340V070 4000 TSRA BR FEW005 SCT040CB BKN040 24/24 Q1002 BECMG TL1530 -TSRA
ZHHH,2021-05-15 16:00,ZHHH 151600Z VRB01MPS 4500 BR FEW006 23/23 Q1002 RETSRA NOSIG
ZHHH,2021-05-15 17:00,ZHHH 151700Z VRB01MPS 6000 FEW004 BKN023 23/23 Q1002 NOSIG
ZHHH,2021-05-15 18:00,ZHHH 151800Z 34005MPS 260V030 5000 -RA BR SCT007 OVC020 22/22 Q1002 NOSIG
ZHHH,2021-05-15 19:00,ZHHH 151900Z 36003MPS 310V030 9999 -RA SCT005 OVC026 21/21 Q1003 NOSIG
ZHHH,2021-05-15 20:00,ZHHH 152000Z VRB04MPS 9999 SCT005 OVC016 21/21 Q1003 NOSIG
ZHHH,2021-05-15 21:00,ZHHH 152100Z 34004MPS 290V050 9999 FEW005 OVC026 21/21 Q1004 NOSIG
ZHHH,2021-05-15 22:00,ZHHH 152200Z 35004MPS 300V040 9999 FEW016 BKN020 OVC033 21/20 Q1006 NOSIG
ZHHH,2021-05-15 23:00,ZHHH 152300Z 36004MPS 310V050 9999 SCT016 OVC026 20/19 Q1007 NOSIG
ZHHH,2021-05-16 00:00,ZHHH 160000Z 02003MPS 340V060 9999 SCT010 OVC033 18/17 Q1008 NOSIG
ZHHH,2021-05-16 01:00,ZHHH 160100Z 04005MPS 330V070 9999 SCT010 OVC033 17/16 Q1010 NOSIG
ZHHH,2021-05-16 02:00,ZHHH 160200Z 03005MPS 350V060 9999 SCT018 OVC033 17/15 Q1010 NOSIG
ZHHH,2021-05-16 03:00,ZHHH 160300Z 03006G11MPS 350V050 9999 SCT020 18/14 Q1011 NOSIG
ZHHH,2021-05-16 04:00,ZHHH 160400Z 03006MPS 360V060 9999 FEW025 18/15 Q1010 NOSIG
ZHHH,2021-05-16 05:00,ZHHH 160500Z 04006MPS CAVOK 19/15 Q1011 NOSIG
ZHHH,2021-05-16 06:00,ZHHH 160600Z 03004MPS 350V050 9999 SCT025 18/15 Q1011 NOSIG
ZHHH,2021-05-16 07:00,ZHHH 160700Z 02003MPS 340V060 9999 SCT025 17/14 Q1011 NOSIG
ZHHH,2021-05-16 08:00,ZHHH 160800Z 03004MPS 360V060 9999 -RA SCT025 17/15 Q1011 NOSIG
ZHHH,2021-05-16 09:00,ZHHH 160900Z 03004MPS 360V060 9999 SCT025 17/13 Q1012 NOSIG
ZHHH,2021-05-16 10:00,ZHHH 161000Z 02003MPS 350V050 9999 FEW020 SCT040 17/14 Q1012 NOSIG
ZHHH,2021-05-16 11:00,ZHHH 161100Z 02003MPS 9999 -RA FEW020 BKN040 16/14 Q1013 NOSIG
ZHHH,2021-05-16 12:00,ZHHH 161200Z 01002MPS 330V050 9999 FEW020 BKN040 16/15 Q1014 NOSIG
ZHHH,2021-05-16 13:00,ZHHH 161300Z 03003MPS 350V060 9999 -RA FEW013 OVC040 15/15 Q1014 NOSIG
ZHHH,2021-05-16 14:00,ZHHH 161400Z 02003MPS 340V050 9999 FEW013 SCT040 15/14 Q1015 NOSIG
ZHHH,2021-05-16 15:00,ZHHH 161500Z 03002MPS 360V060 9999 SCT040 15/15 Q1015 NOSIG
ZHHH,2021-05-16 16:00,ZHHH 161600Z 01003MPS 340V050 CAVOK 15/15 Q1015 NOSIG
ZHHH,2021-05-16 17:00,ZHHH 161700Z 35003MPS 320V050 CAVOK 15/15 Q1015 NOSIG
ZHHH,2021-05-16 18:00,ZHHH 161800Z 36002MPS 280V080 CAVOK 15/15 Q1014 NOSIG
ZHHH,2021-05-16 19:00,ZHHH 161900Z 36002MPS 320V030 CAVOK 15/14 Q1015 NOSIG
ZHHH,2021-05-16 20:00,ZHHH 162000Z VRB01MPS CAVOK 15/14 Q1014 NOSIG
ZHHH,2021-05-16 21:00,ZHHH 162100Z VRB01MPS CAVOK 14/14 Q1014 NOSIG
ZHHH,2021-05-16 22:00,ZHHH 162200Z 01002MPS 320V050 8000 NSC 14/14 Q1015 NOSIG
ZHHH,2021-05-16 23:00,ZHHH 162300Z 34003MPS 300V040 8000 NSC 16/15 Q1015 NOSIG
ZHHH,2021-05-17 00:00,ZHHH 170000Z 35002MPS 260V070 9999 FEW020 17/15 Q1016 NOSIG
ZHHH,2021-05-17 01:00,ZHHH 170100Z VRB02MPS 9999 SCT020 18/14 Q1016 NOSIG
ZHHH,2021-05-17 02:00,ZHHH 170200Z 02003MPS 310V070 9999 SCT020 19/14 Q1015 NOSIG
ZHHH,2021-05-17 03:00,ZHHH 170300Z 33002MPS 260V070 9999 SCT020 20/14 Q1015 NOSIG
ZHHH,2021-05-17 04:00,ZHHH 170400Z 30003MPS 250V360 9999 SCT026 20/13 Q1015 NOSIG
ZHHH,2021-05-17 05:00,ZHHH 170500Z VRB02MPS 9999 FEW033 21/12 Q1013 NOSIG
ZHHH,2021-05-17 06:00,ZHHH 170600Z 26002MPS 230V320 9999 SCT040 21/13 Q1014 NOSIG
ZHHH,2021-05-17 07:00,ZHHH 170700Z 28002MPS 220V320 9999 SCT033 22/13 Q1014 NOSIG
ZHHH,2021-05-17 08:00,ZHHH 170800Z VRB02MPS 9999 FEW040 21/13 Q1013 NOSIG
ZHHH,2021-05-17 09:00,ZHHH 170900Z VRB01MPS 9999 -RA NSC 20/14 Q1013 NOSIG
ZHHH,2021-05-17 10:00,ZHHH 171000Z 00000MPS 9999 -RA NSC 20/15 Q1012 NOSIG
ZHHH,2021-05-17 11:00,ZHHH 171100Z 25003MPS 9999 -RA NSC 19/16 Q1013 NOSIG
ZHHH,2021-05-17 12:00,ZHHH 171200Z 27002MPS 230V310 CAVOK 19/16 Q1013 NOSIG
ZHHH,2021-05-17 13:00,ZHHH 171300Z 24003MPS 220V280 CAVOK 19/17 Q1014 NOSIG
ZHHH,2021-05-17 14:00,ZHHH 171400Z 24003MPS 210V290 CAVOK 19/17 Q1014 NOSIG
ZHHH,2021-05-17 15:00,ZHHH 171500Z 25002MPS 220V290 7000 NSC 18/17 Q1014 NOSIG
ZHHH,2021-05-17 16:00,ZHHH 171600Z 26002MPS 220V300 7000 NSC 18/17 Q1014 NOSIG
ZHHH,2021-05-17 17:00,ZHHH 171700Z 25002MPS 220V280 7000 NSC 18/17 Q1014 NOSIG
ZHHH,2021-05-17 18:00,ZHHH 171800Z 24002MPS 200V290 7000 FEW012 18/17 Q1013 NOSIG
ZHHH,2021-05-17 19:00,ZHHH 171900Z 24002MPS 190V330 7000 FEW016 18/17 Q1013 NOSIG
ZHHH,2021-05-17 20:00,ZHHH 172000Z 27002MPS 240V320 7000 FEW016 18/17 Q1012 NOSIG
ZHHH,2021-05-17 21:00,ZHHH 172100Z VRB01MPS 5000 BR SCT012 17/17 Q1012 NOSIG
ZHHH,2021-05-17 22:00,ZHHH 172200Z 08001MPS 2500 BR SCT012 17/17 Q1012 BECMG TL2340 3000
ZHHH,2021-05-17 23:00,ZHHH 172300Z VRB01MPS 3000 BR NSC 18/17 Q1013 NOSIG
ZHHH,2021-05-18 00:00,ZHHH 180000Z VRB01MPS 3000 BR SCT012 18/17 Q1013 NOSIG
ZHHH,2021-05-18 01:00,ZHHH 180100Z VRB01MPS 5000 BR FEW020TCU FEW020 20/17 Q1013 NOSIG
ZHHH,2021-05-18 02:00,ZHHH 180200Z VRB01MPS 6000 FEW020 20/17 Q1013 NOSIG
ZHHH,2021-05-18 03:00,ZHHH 180300Z VRB01MPS 6000 FEW020 20/17 Q1013 NOSIG
ZHHH,2021-05-18 04:00,ZHHH 180400Z 23003MPS 6000 SCT023 20/17 Q1013 NOSIG
ZHHH,2021-05-18 05:00,ZHHH 180500Z VRB01MPS 6000 FEW023 20/17 Q1011 NOSIG
ZHHH,2021-05-18 06:00,ZHHH 180600Z 25002MPS 190V310 7000 NSC 20/17 Q1011 NOSIG
ZHHH,2021-05-18 07:00,ZHHH 180700Z 24003MPS 7000 FEW023 21/16 Q1011 NOSIG
ZHHH,2021-05-18 08:00,ZHHH 180800Z 27002MPS 210V340 8000 FEW020 21/16 Q1010 NOSIG
ZHHH,2021-05-18 09:00,ZHHH 180900Z 29002MPS 240V020 8000 FEW020 22/17 Q1010 NOSIG
ZHHH,2021-05-18 10:00,ZHHH 181000Z VRB01MPS 9000 NSC 22/15 Q1010 NOSIG
ZHHH,2021-05-18 11:00,ZHHH 181100Z 00000MPS 8000 NSC 19/17 Q1010 NOSIG
ZHHH,2021-05-18 12:00,ZHHH 181200Z 22003MPS 8000 NSC 19/17 Q1010 NOSIG
ZHHH,2021-05-18 13:00,ZHHH 181300Z 22003MPS 7000 NSC 19/17 Q1010 NOSIG
ZHHH,2021-05-18 14:00,ZHHH 181400Z 19002MPS 150V220 7000 NSC 19/17 Q1010 NOSIG
ZHHH,2021-05-18 15:00,ZHHH 181500Z 21002MPS 6000 NSC 19/17 Q1010 NOSIG
ZHHH,2021-05-18 16:00,ZHHH 181600Z 23002MPS 5000 BR NSC 18/17 Q1010 NOSIG
ZHHH,2021-05-18 17:00,ZHHH 181700Z 21001MPS 5000 BR NSC 17/17 Q1009 NOSIG
ZHHH,2021-05-18 18:00,ZHHH 181800Z 20001MPS 4500 BR NSC 17/17 Q1009 NOSIG
ZHHH,2021-05-18 19:00,ZHHH 181900Z VRB01MPS 4500 BR NSC 18/18 Q1009 NOSIG
ZHHH,2021-05-18 20:00,ZHHH 182000Z 00000MPS 4500 BR NSC 18/18 Q1008 NOSIG
ZHHH,2021-05-18 21:00,ZHHH 182100Z VRB01MPS 4500 BR NSC 18/18 Q1008 BECMG TL2250 2000
ZHHH,2021-05-18 22:00,ZHHH 182200Z 05002MPS 2500 BR NSC 18/18 Q1008 NOSIG
ZHHH,2021-05-18 23:00,ZHHH 182300Z 05003MPS 2000 BR NSC 18/18 Q1008 NOSIG
ZHHH,2021-05-19 00:00,ZHHH 190000Z 04003MPS 1700 BR NSC 19/19 Q1009 NOSIG
ZHHH,2021-05-19 01:00,ZHHH 190100Z VRB01MPS 1900 -RA BR FEW013 19/18 Q1010 NOSIG
ZHHH,2021-05-19 02:00,ZHHH 190200Z 05002MPS 360V100 1900 -RA BR SCT013 19/19 Q1009 NOSIG
ZHHH,2021-05-19 03:00,ZHHH 190300Z VRB01MPS 2000 -RA BR SCT009 19/19 Q1009 NOSIG
ZHHH,2021-05-19 04:00,ZHHH 190400Z 00000MPS 2500 -RA BR SCT010 19/19 Q1009 NOSIG
ZHHH,2021-05-19 05:00,ZHHH 190500Z VRB01MPS 2500 BR SCT010 19/19 Q1007 BECMG TL0600 3000
ZHHH,2021-05-19 06:00,ZHHH 190600Z 13003MPS 080V160 2000 -RA BR FEW010 19/19 Q1008 NOSIG
ZHHH,2021-05-19 07:00,ZHHH 190700Z VRB02MPS 3500 BR FEW010 19/18 Q1006 NOSIG
ZHHH,2021-05-19 08:00,ZHHH 190800Z VRB01MPS 4500 BR NSC 19/16 Q1006 NOSIG
ZHHH,2021-05-19 09:00,ZHHH 190900Z 24002MPS 200V310 5000 HZ NSC 20/15 Q1006 NOSIG
ZHHH,2021-05-19 10:00,ZHHH 191000Z VRB01MPS 6000 NSC 20/17 Q1007 NOSIG
ZHHH,2021-05-19 11:00,ZHHH 191100Z VRB01MPS 4500 BR NSC 19/18 Q1007 NOSIG
ZHHH,2021-05-19 12:00,ZHHH 191200Z 23001MPS 5000 BR NSC 18/18 Q1007 NOSIG
ZHHH,2021-05-19 13:00,ZHHH 191300Z 25002MPS 5000 BR NSC 19/18 Q1008 NOSIG
ZHHH,2021-05-19 14:00,ZHHH 191400Z 25002MPS 220V290 5000 BR NSC 19/18 Q1008 NOSIG
ZHHH,2021-05-19 15:00,ZHHH 191500Z 23002MPS 5000 BR NSC 18/18 Q1008 NOSIG
ZHHH,2021-05-19 16:00,ZHHH 191600Z 23003MPS 220V280 5000 BR NSC 19/18 Q1009 NOSIG
ZHHH,2021-05-19 17:00,ZHHH 191700Z 23003MPS 5000 BR NSC 18/18 Q1008 NOSIG
ZHHH,2021-05-19 18:00,ZHHH 191800Z 24003MPS 220V280 5000 BR NSC 18/18 Q1008 NOSIG
ZHHH,2021-05-19 19:00,ZHHH 191900Z 24002MPS 220V280 4500 BR FEW013 18/18 Q1007 NOSIG
ZHHH,2021-05-19 20:00,ZHHH 192000Z 26002MPS 220V290 4500 BR NSC 18/18 Q1008 NOSIG
ZHHH,2021-05-19 21:00,ZHHH 192100Z 23002MPS 5000 BR NSC 18/18 Q1008 NOSIG
ZHHH,2021-05-19 22:00,ZHHH 192200Z 00000MPS 3000 BR NSC 17/17 Q1008 BECMG TL2330 2500
ZHHH,2021-05-19 23:00,ZHHH 192300Z 14002MPS 100V160 3000 BR NSC 18/18 Q1009 NOSIG
ZHHH,2021-05-20 00:00,ZHHH 200000Z 16004MPS 130V200 5000 BR NSC 19/17 Q1009 NOSIG
ZHHH,2021-05-20 01:00,ZHHH 200100Z 20003MPS 120V240 7000 NSC 20/17 Q1009 NOSIG
ZHHH,2021-05-20 02:00,ZHHH 200200Z 23002MPS 160V280 CAVOK 21/16 Q1010 NOSIG
ZHHH,2021-05-20 03:00,ZHHH 200300Z 22002MPS 170V260 CAVOK 21/15 Q1010 NOSIG
ZHHH,2021-05-20 04:00,ZHHH 200400Z 22002MPS 150V300 CAVOK 22/15 Q1009 NOSIG
ZHHH,2021-05-20 05:00,ZHHH 200500Z 21002MPS 150V260 CAVOK 23/15 Q1008 NOSIG
ZHHH,2021-05-20 06:00,ZHHH 200600Z 22002MPS 170V260 CAVOK 23/17 Q1008 NOSIG
ZHHH,2021-05-20 07:00,ZHHH 200700Z 21003MPS 160V240 7000 NSC 24/17 Q1008 NOSIG
ZHHH,2021-05-20 08:00,ZHHH 200800Z 19004MPS 160V220 7000 NSC 24/17 Q1008 NOSIG
ZHHH,2021-05-20 09:00,ZHHH 200900Z 21004MPS 7000 NSC 23/17 Q1008 NOSIG
ZHHH,2021-05-20 10:00,ZHHH 201000Z 20003MPS 160V220 7000 NSC 23/16 Q1008 NOSIG
ZHHH,2021-05-20 11:00,ZHHH 201100Z 20002MPS 110V270 CAVOK 22/16 Q1007 NOSIG
ZHHH,2021-05-20 12:00,ZHHH 201200Z 22002MPS CAVOK 21/17 Q1008 NOSIG
ZHHH,2021-05-20 13:00,ZHHH 201300Z 21002MPS 180V240 CAVOK 21/17 Q1008 NOSIG
ZHHH,2021-05-20 14:00,ZHHH 201400Z 17002MPS CAVOK 21/17 Q1008 NOSIG
ZHHH,2021-05-20 15:00,ZHHH 201500Z 07002MPS 030V160 CAVOK 20/18 Q1009 NOSIG
ZHHH,2021-05-20 16:00,ZHHH 201600Z 13002MPS CAVOK 21/18 Q1008 NOSIG
ZHHH,2021-05-20 17:00,ZHHH 201700Z 00000MPS CAVOK 20/18 Q1008 NOSIG
ZHHH,2021-05-20 18:00,ZHHH 201800Z VRB01MPS CAVOK 19/18 Q1008 NOSIG
ZHHH,2021-05-20 19:00,ZHHH 201900Z VRB01MPS CAVOK 19/19 Q1008 NOSIG
ZHHH,2021-05-20 20:00,ZHHH 202000Z VRB01MPS CAVOK 19/19 Q1008 NOSIG
ZHHH,2021-05-20 21:00,ZHHH 202100Z VRB02MPS CAVOK 19/18 Q1008 NOSIG
ZHHH,2021-05-20 22:00,ZHHH 202200Z 09001MPS 5000 BR NSC 19/19 Q1008 NOSIG
ZHHH,2021-05-20 23:00,ZHHH 202300Z VRB01MPS 5000 BR NSC 22/20 Q1008 NOSIG
ZHHH,2021-05-21 00:00,ZHHH 210000Z VRB01MPS 7000 NSC 21/18 Q1009 NOSIG
ZHHH,2021-05-21 01:00,ZHHH 210100Z 28002MPS 250V330 8000 NSC 22/18 Q1009 NOSIG
ZHHH,2021-05-21 02:00,ZHHH 210200Z VRB01MPS CAVOK 23/18 Q1009 NOSIG
ZHHH,2021-05-21 03:00,ZHHH 210300Z 28002MPS 220V360 CAVOK 24/19 Q1008 NOSIG
ZHHH,2021-05-21 04:00,ZHHH 210400Z 26002MPS 220V310 8000 NSC 25/18 Q1008 NOSIG
ZHHH,2021-05-21 05:00,ZHHH 210500Z VRB01MPS 8000 NSC 25/18 Q1008 NOSIG
ZHHH,2021-05-21 06:00,ZHHH 210600Z VRB01MPS 6000 NSC 24/19 Q1007 NOSIG
ZHHH,2021-05-21 07:00,ZHHH 210700Z 27002MPS 230V350 6000 -RA SCT040 24/20 Q1007 NOSIG
ZHHH,2021-05-21 08:00,ZHHH 210800Z VRB01MPS 6000 NSC 24/20 Q1006 NOSIG
ZHHH,2021-05-21 09:00,ZHHH 210900Z 00000MPS 6000 NSC 24/20 Q1007 NOSIG
ZHHH,2021-05-21 10:00,ZHHH 211000Z 00000MPS 6000 NSC 23/21 Q1007 NOSIG
ZHHH,2021-05-21 11:00,ZHHH 211100Z 00000MPS 6000 NSC 23/22 Q1007 NOSIG
ZHHH,2021-05-21 12:00,ZHHH 211200Z VRB01MPS 6000 NSC 23/21 Q1007 NOSIG
ZHHH,2021-05-21 13:00,ZHHH 211300Z 00000MPS 6000 NSC 22/22 Q1007 NOSIG
ZHHH,2021-05-21 14:00,ZHHH 211400Z 26001MPS 6000 NSC 22/22 Q1008 NOSIG
ZHHH,2021-05-21 15:00,ZHHH 211500Z 24002MPS 4500 BR NSC 22/22 Q1008 NOSIG
ZHHH,2021-05-21 16:00,ZHHH 211600Z VRB01MPS 4500 BR NSC 22/21 Q1008 NOSIG
ZHHH,2021-05-21 17:00,ZHHH 211700Z 36001MPS 4500 BR NSC 21/21 Q1007 NOSIG
ZHHH,2021-05-21 18:00,ZHHH 211800Z VRB01MPS 4500 BR NSC 21/21 Q1007 NOSIG
ZHHH,2021-05-21 19:00,ZHHH 211900Z VRB01MPS 4000 BR NSC 20/20 Q1007 NOSIG
ZHHH,2021-05-21 20:00,ZHHH 212000Z 16001MPS 4000 BR NSC 21/21 Q1006 NOSIG
ZHHH,2021-05-21 21:00,ZHHH 212100Z VRB01MPS 3800 BR NSC 20/20 Q1007 BECMG TL2210 2800
ZHHH,2021-05-21 22:00,ZHHH 212200Z 04002MPS 3500 BR NSC 20/20 Q1007 BECMG TL2250 2800
ZHHH,2021-05-21 23:00,ZHHH 212300Z 04002MPS 3500 BR NSC 21/21 Q1007 NOSIG
ZHHH,2021-05-22 00:00,ZHHH 220000Z 06003MPS 3000 BR NSC 22/20 Q1008 NOSIG
ZHHH,2021-05-22 01:00,ZHHH 220100Z 11003MPS 070V130 5000 BR NSC 23/19 Q1008 NOSIG
ZHHH,2021-05-22 02:00,ZHHH 220200Z 11005MPS 5000 BR NSC 24/20 Q1007 NOSIG
ZHHH,2021-05-22 03:00,ZHHH 220300Z 11005MPS 070V140 6000 NSC 25/18 Q1007 NOSIG
ZHHH,2021-05-22 04:00,ZHHH 220400Z 13004MPS 090V170 8000 NSC 26/18 Q1007 NOSIG
ZHHH,2021-05-22 05:00,ZHHH 220500Z 16003MPS 110V200 7000 NSC 26/19 Q1007 NOSIG
ZHHH,2021-05-22 06:00,ZHHH 220600Z 14003MPS 090V160 8000 -RA NSC 25/19 Q1005 NOSIG
ZHHH,2021-05-22 07:00,ZHHH 220700Z 12003MPS 070V150 CAVOK 24/19 Q1005 NOSIG
ZHHH,2021-05-22 08:00,ZHHH 220800Z 14003MPS 9999 -RA NSC 24/20 Q1004 NOSIG
ZHHH,2021-05-22 09:00,ZHHH 220900Z 15003MPS 7000 -RA NSC 22/20 Q1005 NOSIG
ZHHH,2021-05-22 10:00,ZHHH 221000Z 12003MPS 080V160 8000 -RA NSC 21/20 Q1005 NOSIG
ZHHH,2021-05-22 11:00,ZHHH 221100Z 13002MPS 4000 -RA BR SCT020 OVC040 20/20 Q1005 NOSIG
ZHHH,2021-05-22 12:00,ZHHH 221200Z 10003MPS 050V140 5000 -RA BR OVC040 20/20 Q1006 NOSIG
ZHHH,2021-05-22 13:00,ZHHH 221300Z 11003MPS 080V140 4200 -RA BR FEW008 OVC040 21/21 Q1006 NOSIG
ZHHH,2021-05-22 14:00,ZHHH 221400Z 05003MPS 030V090 4000 -RA BR FEW005 SCT016 OVC033 20/20 Q1006 NOSIG
ZHHH,2021-05-22 15:00,ZHHH 221500Z 08003MPS 050V140 3000 -RA BR FEW004 SCT005 OVC020 21/21 Q1006 NOSIG
ZHHH,2021-05-22 16:00,ZHHH 221600Z 06003MPS 2500 -RA BR SCT003 SCT005 OVC020 21/21 Q1006 NOSIG
ZHHH,2021-05-22 17:00,ZHHH 221700Z 04003MPS 2500 -RA BR SCT004 OVC020 20/20 Q1006 NOSIG
ZHHH,2021-05-22 18:00,ZHHH 221800Z 03002MPS 2500 -RA BR FEW003 SCT006 OVC016 20/20 Q1006 NOSIG
ZHHH,2021-05-22 19:00,ZHHH 221900Z 02003MPS 340V050 2500 -RA BR SCT003 SCT006 OVC020 20/20 Q1006 NOSIG
ZHHH,2021-05-22 20:00,ZHHH 222000Z 01002MPS 330V050 2800 -RA BR SCT004 SCT007 OVC020 20/20 Q1006 NOSIG
ZHHH,2021-05-22 21:00,ZHHH 222100Z 36003MPS 310V050 3500 -RA BR SCT004 SCT007 OVC020 20/20 Q1006 NOSIG
ZHHH,2021-05-22 22:00,ZHHH 222200Z 36004MPS 320V050 2200 -RA BR FEW005 SCT010 OVC020 20/20 Q1007 BECMG TL2340 3000
ZHHH,2021-05-22 23:00,ZHHH 222300Z 36003MPS 310V050 3200 -RA BR FEW010 OVC030 20/20 Q1007 NOSIG
ZHHH,2021-05-23 00:00,ZHHH 230000Z 36003MPS 330V040 3200 -RA BR FEW010 OVC040 20/20 Q1008 NOSIG
ZHHH,2021-05-23 01:00,ZHHH 230100Z 33002MPS 240V040 3200 BR FEW010 OVC040 21/21 Q1009 NOSIG
ZHHH,2021-05-23 02:00,ZHHH 230200Z 35003MPS 300V030 3200 BR FEW010 OVC040 21/21 Q1009 NOSIG
ZHHH,2021-05-23 03:00,ZHHH 230300Z VRB02MPS 4000 BR FEW010 OVC040 21/21 Q1011 NOSIG
ZHHH,2021-05-23 04:00,ZHHH 230400Z 01003MPS 330V060 5000 BR FEW020 22/22 Q1010 NOSIG
ZHHH,2021-05-23 05:00,ZHHH 230500Z 03004MPS 350V060 9999 FEW040 21/18 Q1010 NOSIG
ZHHH,2021-05-23 06:00,ZHHH 230600Z 36004MPS 310V040 9999 SCT020 22/19 Q1010 NOSIG
ZHHH,2021-05-23 07:00,ZHHH 230700Z 35003MPS 270V040 9999 -RA SCT033 21/19 Q1011 NOSIG
ZHHH,2021-05-23 08:00,ZHHH 230800Z 35004MPS 290V040 7000 -RA SCT033 20/19 Q1011 NOSIG
ZHHH,2021-05-23 09:00,ZHHH 230900Z 36004MPS 290V050 9999 SCT033 20/19 Q1012 NOSIG
ZHHH,2021-05-23 10:00,ZHHH 231000Z 01002MPS 320V050 9999 SCT033 20/19 Q1012 NOSIG
ZHHH,2021-05-23 11:00,ZHHH 231100Z VRB01MPS 9999 SCT033 20/19 Q1012 NOSIG
ZHHH,2021-05-23 12:00,ZHHH 231200Z VRB01MPS CAVOK 19/18 Q1013 NOSIG
ZHHH,2021-05-23 13:00,ZHHH 231300Z VRB01MPS CAVOK 20/19 Q1014 NOSIG
ZHHH,2021-05-23 14:00,ZHHH 231400Z VRB02MPS CAVOK 20/19 Q1015 NOSIG
ZHHH,2021-05-23 15:00,ZHHH 231500Z 34002MPS 280V060 CAVOK 19/18 Q1015 NOSIG
ZHHH,2021-05-23 16:00,ZHHH 231600Z 34003MPS 290V040 CAVOK 19/19 Q1014 NOSIG
ZHHH,2021-05-23 17:00,ZHHH 231700Z 35002MPS 310V020 CAVOK 19/19 Q1014 NOSIG
ZHHH,2021-05-23 18:00,ZHHH 231800Z 34002MPS 280V030 CAVOK 19/19 Q1014 NOSIG
ZHHH,2021-05-23 19:00,ZHHH 231900Z 35002MPS 280V060 CAVOK 19/19 Q1014 NOSIG
ZHHH,2021-05-23 20:00,ZHHH 232000Z 35002MPS 280V040 CAVOK 19/19 Q1014 NOSIG
ZHHH,2021-05-23 21:00,ZHHH 232100Z 00000MPS CAVOK 18/18 Q1013 NOSIG
ZHHH,2021-05-23 22:00,ZHHH 232200Z 00000MPS 5000 BR NSC 18/18 Q1014 NOSIG
ZHHH,2021-05-23 23:00,ZHHH 232300Z VRB01MPS 8000 NSC 20/19 Q1014 NOSIG
ZHHH,2021-05-24 00:00,ZHHH 240000Z 27002MPS 240V300 CAVOK 20/19 Q1015 NOSIG
ZHHH,2021-05-24 01:00,ZHHH 240100Z 26002MPS 220V300 CAVOK 21/19 Q1015 NOSIG
ZHHH,2021-05-24 02:00,ZHHH 240200Z 25002MPS 190V300 CAVOK 22/19 Q1015 NOSIG
ZHHH,2021-05-24 03:00,ZHHH 240300Z 26002MPS 220V300 CAVOK 23/17 Q1015 NOSIG
ZHHH,2021-05-24 04:00,ZHHH 240400Z 25002MPS 220V310 CAVOK 24/16 Q1015 NOSIG
ZHHH,2021-05-24 05:00,ZHHH 240500Z 26002MPS 220V300 CAVOK 25/17 Q1014 NOSIG
ZHHH,2021-05-24 06:00,ZHHH 240600Z 28002MPS 220V330 CAVOK 25/18 Q1013 NOSIG
ZHHH,2021-05-24 07:00,ZHHH 240700Z 25002MPS 210V290 CAVOK 25/18 Q1013 NOSIG
ZHHH,2021-05-24 08:00,ZHHH 240800Z 27002MPS 230V320 CAVOK 25/19 Q1012 NOSIG
ZHHH,2021-05-24 09:00,ZHHH 240900Z VRB01MPS CAVOK 25/19 Q1012 NOSIG
ZHHH,2021-05-24 10:00,ZHHH 241000Z VRB01MPS CAVOK 25/18 Q1012 NOSIG
ZHHH,2021-05-24 11:00,ZHHH 241100Z 24002MPS CAVOK 24/19 Q1012 NOSIG
ZHHH,2021-05-24 12:00,ZHHH 241200Z 22002MPS CAVOK 23/20 Q1012 NOSIG
ZHHH,2021-05-24 13:00,ZHHH 241300Z 23002MPS CAVOK 23/19 Q1012 NOSIG
ZHHH,2021-05-24 14:00,ZHHH 241400Z 24001MPS CAVOK 22/19 Q1013 NOSIG
ZHHH,2021-05-24 15:00,ZHHH 241500Z 23002MPS CAVOK 22/19 Q1013 NOSIG
ZHHH,2021-05-24 16:00,ZHHH 241600Z 23002MPS CAVOK 23/19 Q1013 NOSIG
ZHHH,2021-05-24 17:00,ZHHH 241700Z 22002MPS CAVOK 22/20 Q1012 NOSIG
ZHHH,2021-05-24 18:00,ZHHH 241800Z 20002MPS 180V240 CAVOK 22/20 Q1012 NOSIG
ZHHH,2021-05-24 19:00,ZHHH 241900Z 20001MPS CAVOK 21/20 Q1011 NOSIG
ZHHH,2021-05-24 20:00,ZHHH 242000Z 18001MPS CAVOK 21/20 Q1011 NOSIG
ZHHH,2021-05-24 21:00,ZHHH 242100Z 19002MPS CAVOK 20/20 Q1011 NOSIG
ZHHH,2021-05-24 22:00,ZHHH 242200Z 17003MPS CAVOK 21/19 Q1012 NOSIG
ZHHH,2021-05-24 23:00,ZHHH 242300Z 18002MPS 140V240 CAVOK 22/19 Q1013 NOSIG
ZHHH,2021-05-25 00:00,ZHHH 250000Z 18002MPS 130V270 CAVOK 24/19 Q1013 NOSIG
ZHHH,2021-05-25 01:00,ZHHH 250100Z 21002MPS 180V270 8000 NSC 24/20 Q1013 NOSIG
ZHHH,2021-05-25 02:00,ZHHH 250200Z 22002MPS 150V290 CAVOK 25/19 Q1012 NOSIG
ZHHH,2021-05-25 03:00,ZHHH 250300Z 22002MPS 190V260 CAVOK 26/19 Q1012 NOSIG
ZHHH,2021-05-25 04:00,ZHHH 250400Z 26002MPS 200V330 CAVOK 26/17 Q1012 NOSIG
ZHHH,2021-05-25 05:00,ZHHH 250500Z 28002MPS 240V330 CAVOK 27/17 Q1011 NOSIG
ZHHH,2021-05-25 06:00,ZHHH 250600Z VRB01MPS CAVOK 27/18 Q1010 NOSIG
ZHHH,2021-05-25 07:00,ZHHH 250700Z 00000MPS CAVOK 27/18 Q1009 NOSIG
ZHHH,2021-05-25 08:00,ZHHH 250800Z 24003MPS CAVOK 26/18 Q1009 NOSIG
ZHHH,2021-05-25 09:00,ZHHH 250900Z 24002MPS 210V290 CAVOK 26/18 Q1009 NOSIG
ZHHH,2021-05-25 10:00,ZHHH 251000Z 31002MPS 230V020 9999 -RA FEW015 25/20 Q1008 NOSIG
ZHHH,2021-05-25 11:00,ZHHH 251100Z VRB01MPS 9999 FEW020 24/21 Q1008 NOSIG
ZHHH,2021-05-25 12:00,ZHHH 251200Z VRB01MPS CAVOK 23/22 Q1008 NOSIG
ZHHH,2021-05-25 13:00,ZHHH 251300Z 23004MPS 9999 -RA NSC 23/21 Q1009 NOSIG
ZHHH,2021-05-25 14:00,ZHHH 251400Z 30002MPS 240V350 9999 -RA NSC 23/20 Q1008 NOSIG
ZHHH,2021-05-25 15:00,ZHHH 251500Z 14002MPS CAVOK 22/20 Q1009 NOSIG
ZHHH,2021-05-25 16:00,ZHHH 251600Z 24002MPS 8000 -RA OVC040 22/21 Q1008 NOSIG
ZHHH,2021-05-25 17:00,ZHHH 251700Z 25002MPS 220V280 7000 -RA OVC040 22/21 Q1007 NOSIG
ZHHH,2021-05-25 18:00,ZHHH 251800Z 29002MPS 230V340 9999 -RA OVC040 21/19 Q1007 NOSIG
ZHHH,2021-05-25 19:00,ZHHH 251900Z VRB01MPS 7000 -RA SCT016 21/20 Q1006 NOSIG
ZHHH,2021-05-25 20:00,ZHHH 252000Z 02001MPS 7000 -RA OVC033 20/20 Q1006 NOSIG
ZHHH,2021-05-25 21:00,ZHHH 252100Z 02002MPS 350V060 6000 -RA FEW009 OVC030 19/19 Q1006 NOSIG
ZHHH,2021-05-25 22:00,ZHHH 252200Z 04002MPS 010V070 3000 -RA BR FEW005 SCT007 OVC030 19/19 Q1005 NOSIG
ZHHH,2021-05-25 23:00,ZHHH 252300Z 06003MPS 2000 -RA BR SCT003 SCT006 OVC016 19/19 Q1006 BECMG TL2350 RA
ZHHH,2021-05-26 00:00,ZHHH 260000Z 04002MPS 2000 -RA BR FEW003 SCT005 OVC020 19/19 Q1006 BECMG TL0030 RA
ZHHH,2021-05-26 01:00,ZHHH 260100Z 05002MPS 2600 -RA BR SCT003 SCT005 OVC020 19/19 Q1006 NOSIG
ZHHH,2021-05-26 02:00,ZHHH 260200Z 06002MPS 4000 -RA BR SCT003 SCT005 OVC020 19/19 Q1006 NOSIG
ZHHH,2021-05-26 03:00,ZHHH 260300Z 00000MPS 2800 RA BR FEW003 SCT007 OVC030 19/19 Q1006 NOSIG
ZHHH,2021-05-26 04:00,ZHHH 260400Z 26002MPS 210V330 2800 RA BR FEW003 SCT007 OVC030 19/19 Q1006 BECMG TL0450 3000 -RA
ZHHH,2021-05-26 05:00,ZHHH 260500Z 28003MPS 230V330 4000 -RA BR FEW004 SCT007 OVC030 20/20 Q1006 RERA BECMG TL0550 2800 RA
ZHHH,2021-05-26 06:00,ZHHH 260600Z 27003MPS 230V330 7000 -RA SCT007 OVC040 19/19 Q1006 NOSIG
ZHHH,2021-05-26 07:00,ZHHH 260700Z 24003MPS 9999 -RA SCT007 20/20 Q1005 NOSIG
ZHHH,2021-05-26 08:00,ZHHH 260800Z 20004MPS 9999 SCT007 20/20 Q1005 NOSIG
ZHHH,2021-05-26 09:00,ZHHH 260900Z 23004MPS 9999 SCT007 20/20 Q1004 NOSIG
ZHHH,2021-05-26 10:00,ZHHH 261000Z 23005MPS 9999 SCT011 OVC040 20/20 Q1005 NOSIG
ZHHH,2021-05-26 11:00,ZHHH 261100Z 23004MPS 9999 SCT011 20/20 Q1005 NOSIG
ZHHH,2021-05-26 12:00,ZHHH 261200Z 24002MPS 9999 SCT011 20/20 Q1005 NOSIG
ZHHH,2021-05-26 13:00,ZHHH 261300Z 23003MPS 9999 FEW011 20/19 Q1006 NOSIG
ZHHH,2021-05-26 14:00,ZHHH 261400Z 22004MPS CAVOK 20/19 Q1007 NOSIG
ZHHH,2021-05-26 15:00,ZHHH 261500Z 23002MPS 200V290 CAVOK 20/20 Q1008 NOSIG
ZHHH,2021-05-26 16:00,ZHHH 261600Z 24003MPS 210V270 9999 SCT011 20/20 Q1008 NOSIG
ZHHH,2021-05-26 17:00,ZHHH 261700Z 24002MPS 210V270 9999 SCT011 20/20 Q1008 NOSIG
ZHHH,2021-05-26 18:00,ZHHH 261800Z 24002MPS 210V290 9999 SCT011 20/20 Q1007 NOSIG
ZHHH,2021-05-26 19:00,ZHHH 261900Z 24003MPS 200V270 7000 BKN007 20/20 Q1008 NOSIG
ZHHH,2021-05-26 20:00,ZHHH 262000Z 22003MPS 7000 BKN007 20/20 Q1008 NOSIG
ZHHH,2021-05-26 21:00,ZHHH 262100Z 23003MPS 7000 BKN007 20/20 Q1008 NOSIG
ZHHH,2021-05-26 22:00,ZHHH 262200Z 22002MPS 6000 OVC023 20/20 Q1008 NOSIG
ZHHH,2021-05-26 23:00,ZHHH 262300Z 15001MPS 6000 OVC023 21/21 Q1008 NOSIG
ZHHH,2021-05-27 00:00,ZHHH 270000Z 21002MPS 150V260 9000 SCT020 21/21 Q1009 NOSIG
ZHHH,2021-05-27 01:00,ZHHH 270100Z 21002MPS 170V240 9999 SCT015 22/20 Q1009 NOSIG
ZHHH,2021-05-27 02:00,ZHHH 270200Z VRB01MPS 9999 SCT015 23/21 Q1009 NOSIG
ZHHH,2021-05-27 03:00,ZHHH 270300Z 22003MPS 190V270 9999 SCT015 23/21 Q1009 NOSIG
ZHHH,2021-05-27 04:00,ZHHH 270400Z 24003MPS 220V280 9999 SCT016 23/21 Q1009 NOSIG
ZHHH,2021-05-27 05:00,ZHHH 270500Z 26002MPS 200V290 8000 FEW018 24/21 Q1009 NOSIG
ZHHH,2021-05-27 06:00,ZHHH 270600Z 27002MPS 240V320 8000 NSC 24/21 Q1007 NOSIG
ZHHH,2021-05-27 07:00,ZHHH 270700Z 22002MPS 140V290 8000 NSC 25/21 Q1007 NOSIG
ZHHH,2021-05-27 08:00,ZHHH 270800Z 21003MPS 8000 NSC 25/22 Q1007 NOSIG
ZHHH,2021-05-27 09:00,ZHHH 270900Z 21004MPS CAVOK 25/21 Q1006 NOSIG
ZHHH,2021-05-27 10:00,ZHHH 271000Z 21003MPS CAVOK 24/22 Q1006 NOSIG
ZHHH,2021-05-27 11:00,ZHHH 271100Z 19003MPS CAVOK 24/21 Q1006 NOSIG
ZHHH,2021-05-27 12:00,ZHHH 271200Z 22003MPS CAVOK 23/21 Q1006 NOSIG
ZHHH,2021-05-27 13:00,ZHHH 271300Z 21003MPS CAVOK 23/21 Q1007 NOSIG
ZHHH,2021-05-27 14:00,ZHHH 271400Z 21003MPS CAVOK 23/22 Q1007 NOSIG
ZHHH,2021-05-27 15:00,ZHHH 271500Z 21004MPS CAVOK 23/22 Q1007 NOSIG
ZHHH,2021-05-27 16:00,ZHHH 271600Z 22005MPS CAVOK 23/23 Q1006 NOSIG
ZHHH,2021-05-27 17:00,ZHHH 271700Z 21004MPS 8000 NSC 23/22 Q1006 NOSIG
ZHHH,2021-05-27 18:00,ZHHH 271800Z 22003MPS 8000 NSC 23/22 Q1006 NOSIG
ZHHH,2021-05-27 19:00,ZHHH 271900Z 22003MPS 8000 NSC 22/22 Q1006 NOSIG
ZHHH,2021-05-27 20:00,ZHHH 272000Z 21004MPS CAVOK 22/21 Q1006 NOSIG
ZHHH,2021-05-27 21:00,ZHHH 272100Z 22003MPS CAVOK 22/20 Q1006 NOSIG
ZHHH,2021-05-27 22:00,ZHHH 272200Z 23003MPS CAVOK 22/20 Q1006 NOSIG
ZHHH,2021-05-27 23:00,ZHHH 272300Z VRB01MPS CAVOK 22/20 Q1007 NOSIG
ZHHH,2021-05-28 00:00,ZHHH 280000Z 20002MPS 140V230 CAVOK 23/20 Q1007 NOSIG
ZHHH,2021-05-28 01:00,ZHHH 280100Z VRB01MPS CAVOK 24/20 Q1008 NOSIG
ZHHH,2021-05-28 02:00,ZHHH 280200Z VRB01MPS CAVOK 24/21 Q1009 NOSIG
ZHHH,2021-05-28 03:00,ZHHH 280300Z VRB01MPS CAVOK 24/21 Q1009 NOSIG
ZHHH,2021-05-28 04:00,ZHHH 280400Z VRB01MPS CAVOK 24/21 Q1009 NOSIG
ZHHH,2021-05-28 05:00,ZHHH 280500Z 23003MPS 9999 FEW023 24/21 Q1009 NOSIG
ZHHH,2021-05-28 06:00,ZHHH 280600Z VRB02MPS CAVOK 25/22 Q1008 NOSIG
ZHHH,2021-05-28 07:00,ZHHH 280700Z 24003MPS 210V270 9999 FEW026 25/22 Q1008 NOSIG
ZHHH,2021-05-28 08:00,ZHHH 280800Z 21002MPS 150V260 9999 FEW023 26/22 Q1007 NOSIG
ZHHH,2021-05-28 09:00,ZHHH 280900Z 23002MPS 190V260 9999 SCT026 25/22 Q1008 NOSIG
ZHHH,2021-05-28 10:00,ZHHH 281000Z 24002MPS 9999 SCT040 25/22 Q1007 NOSIG
ZHHH,2021-05-28 11:00,ZHHH 281100Z 20003MPS 160V230 9999 BKN040 24/22 Q1008 NOSIG
ZHHH,2021-05-28 12:00,ZHHH 281200Z 21004MPS 9999 BKN040 23/21 Q1008 NOSIG
ZHHH,2021-05-28 13:00,ZHHH 281300Z 21002MPS 150V240 CAVOK 23/21 Q1008 NOSIG
ZHHH,2021-05-28 14:00,ZHHH 281400Z 23002MPS 190V270 CAVOK 23/21 Q1009 NOSIG
ZHHH,2021-05-28 15:00,ZHHH 281500Z 22002MPS 9999 FEW019 BKN040 22/22 Q1009 NOSIG
ZHHH,2021-05-28 16:00,ZHHH 281600Z 23002MPS 8000 SCT015 22/22 Q1009 NOSIG
ZHHH,2021-05-28 17:00,ZHHH 281700Z 23002MPS 7000 NSC 21/21 Q1008 NOSIG
ZHHH,2021-05-28 18:00,ZHHH 281800Z 22002MPS 6000 NSC 21/21 Q1008 NOSIG
ZHHH,2021-05-28 19:00,ZHHH 281900Z 21002MPS 6000 FEW020 21/21 Q1008 NOSIG
ZHHH,2021-05-28 20:00,ZHHH 282000Z 20001MPS 6000 NSC 21/21 Q1007 NOSIG
ZHHH,2021-05-28 21:00,ZHHH 282100Z 16002MPS 6000 NSC 20/20 Q1007 NOSIG
ZHHH,2021-05-28 22:00,ZHHH 282200Z 16003MPS 5000 BR NSC 20/20 Q1007 NOSIG
ZHHH,2021-05-28 23:00,ZHHH 282300Z 17003MPS 6000 NSC 22/21 Q1007 NOSIG
ZHHH,2021-05-29 00:00,ZHHH 290000Z 19002MPS 160V220 8000 NSC 24/22 Q1007 NOSIG
ZHHH,2021-05-29 01:00,ZHHH 290100Z 21003MPS CAVOK 25/20 Q1007 NOSIG
ZHHH,2021-05-29 02:00,ZHHH 290200Z 23004MPS CAVOK 27/21 Q1007 NOSIG
ZHHH,2021-05-29 03:00,ZHHH 290300Z 22005MPS CAVOK 27/21 Q1007 NOSIG
ZHHH,2021-05-29 04:00,ZHHH 290400Z 24004MPS CAVOK 27/20 Q1007 NOSIG
ZHHH,2021-05-29 05:00,ZHHH 290500Z 24004MPS CAVOK 27/19 Q1006 NOSIG
ZHHH,2021-05-29 06:00,ZHHH 290600Z 24004MPS CAVOK 26/19 Q1005 NOSIG
ZHHH,2021-05-29 07:00,ZHHH 290700Z 23003MPS CAVOK 26/21 Q1005 NOSIG
ZHHH,2021-05-29 08:00,ZHHH 290800Z 24003MPS CAVOK 26/20 Q1004 NOSIG
ZHHH,2021-05-29 09:00,ZHHH 290900Z 24003MPS CAVOK 26/21 Q1004 NOSIG
ZHHH,2021-05-29 10:00,ZHHH 291000Z 24003MPS CAVOK 25/22 Q1005 NOSIG
ZHHH,2021-05-29 11:00,ZHHH 291100Z 22004MPS CAVOK 24/23 Q1005 NOSIG
ZHHH,2021-05-29 12:00,ZHHH 291200Z 20003MPS CAVOK 24/22 Q1005 NOSIG
ZHHH,2021-05-29 13:00,ZHHH 291300Z 20003MPS CAVOK 24/23 Q1006 NOSIG
ZHHH,2021-05-29 14:00,ZHHH 291400Z 20004MPS CAVOK 23/22 Q1006 NOSIG
ZHHH,2021-05-29 15:00,ZHHH 291500Z 21004MPS CAVOK 23/21 Q1006 NOSIG
ZHHH,2021-05-29 16:00,ZHHH 291600Z 22004MPS CAVOK 22/21 Q1006 NOSIG
ZHHH,2021-05-29 17:00,ZHHH 291700Z 23003MPS CAVOK 21/20 Q1006 NOSIG
ZHHH,2021-05-29 18:00,ZHHH 291800Z VRB01MPS CAVOK 20/20 Q1006 NOSIG
ZHHH,2021-05-29 19:00,ZHHH 291900Z 00000MPS CAVOK 20/20 Q1005 NOSIG
ZHHH,2021-05-29 20:00,ZHHH 292000Z 00000MPS CAVOK 19/19 Q1006 NOSIG
ZHHH,2021-05-29 21:00,ZHHH 292100Z VRB01MPS CAVOK 19/19 Q1006 NOSIG
ZHHH,2021-05-29 22:00,ZHHH 292200Z 07001MPS CAVOK 20/20 Q1006 NOSIG
ZHHH,2021-05-29 23:00,ZHHH 292300Z 13002MPS 100V170 CAVOK 22/21 Q1006 NOSIG
ZHHH,2021-05-30 00:00,ZHHH 300000Z 20002MPS 160V240 CAVOK 23/21 Q1006 NOSIG
ZHHH,2021-05-30 01:00,ZHHH 300100Z 22002MPS 180V250 CAVOK 24/21 Q1006 NOSIG
ZHHH,2021-05-30 02:00,ZHHH 300200Z 26002MPS 230V330 9999 FEW023 25/22 Q1006 NOSIG
ZHHH,2021-05-30 03:00,ZHHH 300300Z 29002MPS 240V350 9999 FEW023 26/22 Q1006 NOSIG
ZHHH,2021-05-30 04:00,ZHHH 300400Z 30002MPS 230V360 9999 FEW023 27/22 Q1005 NOSIG
ZHHH,2021-05-30 05:00,ZHHH 300500Z VRB02MPS CAVOK 29/23 Q1005 NOSIG
ZHHH,2021-05-30 06:00,ZHHH 300600Z 27003MPS 230V300 CAVOK 28/23 Q1004 NOSIG
ZHHH,2021-05-30 07:00,ZHHH 300700Z 30002MPS 220V360 CAVOK 29/22 Q1004 NOSIG
ZHHH,2021-05-30 08:00,ZHHH 300800Z 29002MPS 190V340 CAVOK 30/23 Q1004 NOSIG
ZHHH,2021-05-30 09:00,ZHHH 300900Z VRB01MPS CAVOK 29/24 Q1003 NOSIG
ZHHH,2021-05-30 10:00,ZHHH 301000Z VRB01MPS CAVOK 28/23 Q1003 NOSIG
ZHHH,2021-05-30 11:00,ZHHH 301100Z VRB01MPS CAVOK 28/23 Q1003 NOSIG
ZHHH,2021-05-30 12:00,ZHHH 301200Z VRB01MPS CAVOK 26/24 Q1004 NOSIG
ZHHH,2021-05-30 13:00,ZHHH 301300Z 26001MPS CAVOK 26/24 Q1004 NOSIG
ZHHH,2021-05-30 14:00,ZHHH 301400Z VRB01MPS CAVOK 24/24 Q1005 NOSIG
ZHHH,2021-05-30 15:00,ZHHH 301500Z 34001MPS CAVOK 24/24 Q1005 NOSIG
ZHHH,2021-05-30 16:00,ZHHH 301600Z 01001MPS CAVOK 23/23 Q1005 NOSIG
ZHHH,2021-05-30 17:00,ZHHH 301700Z 05002MPS CAVOK 24/24 Q1005 NOSIG
ZHHH,2021-05-30 18:00,ZHHH 301800Z 06001MPS CAVOK 24/24 Q1004 NOSIG
ZHHH,2021-05-30 19:00,ZHHH 301900Z VRB01MPS CAVOK 23/23 Q1004 NOSIG
ZHHH,2021-05-30 20:00,ZHHH 302000Z 05001MPS 8000 NSC 23/23 Q1004 NOSIG
ZHHH,2021-05-30 21:00,ZHHH 302100Z 07001MPS 8000 NSC 22/22 Q1004 NOSIG
ZHHH,2021-05-30 22:00,ZHHH 302200Z 04002MPS 5000 BR NSC 23/23 Q1004 NOSIG
ZHHH,2021-05-30 23:00,ZHHH 302300Z 10003MPS 5000 BR NSC 24/24 Q1004 NOSIG
ZHHH,2021-05-31 00:00,ZHHH 310000Z 09004MPS 5000 BR NSC 25/24 Q1004 NOSIG
ZHHH,2021-05-31 01:00,ZHHH 310100Z 12003MPS 080V160 5000 HZ NSC 27/22 Q1004 NOSIG
ZHHH,2021-05-31 02:00,ZHHH 310200Z 11004MPS 060V140 5000 HZ NSC 28/22 Q1005 NOSIG
ZHHH,2021-05-31 03:00,ZHHH 310300Z 11004MPS 070V150 7000 NSC 30/22 Q1004 NOSIG
ZHHH,2021-05-31 04:00,ZHHH 310400Z 10005MPS 8000 FEW023 30/22 Q1004 NOSIG
ZHHH,2021-05-31 05:00,ZHHH 310500Z 10004MPS 060V130 9999 SCT033 31/21 Q1004 NOSIG
ZHHH,2021-05-31 06:00,ZHHH 310600Z 13004MPS 060V160 9999 SCT033 32/22 Q1003 NOSIG
ZHHH,2021-05-31 07:00,ZHHH 310700Z 11004MPS 070V160 9999 FEW033TCU FEW033 32/21 Q1003 NOSIG
ZHHH,2021-05-31 08:00,ZHHH 310800Z 12004MPS 070V150 9999 FEW033TCU 32/21 Q1003 NOSIG
ZHHH,2021-05-31 09:00,ZHHH 310900Z 11004MPS 080V150 CAVOK 31/21 Q1002 NOSIG
ZHHH,2021-05-31 10:00,ZHHH 311000Z 10005MPS CAVOK 31/21 Q1002 NOSIG
ZHHH,2021-05-31 11:00,ZHHH 311100Z 10004MPS CAVOK 30/21 Q1002 NOSIG
ZHHH,2021-05-31 12:00,ZHHH 311200Z 12003MPS CAVOK 29/21 Q1003 NOSIG
ZHHH,2021-05-31 13:00,ZHHH 311300Z 12003MPS CAVOK 29/21 Q1003 NOSIG
ZHHH,2021-05-31 14:00,ZHHH 311400Z 12002MPS 090V150 CAVOK 29/21 Q1004 NOSIG
ZHHH,2021-05-31 15:00,ZHHH 311500Z 08002MPS 040V110 CAVOK 26/22 Q1004 NOSIG
ZHHH,2021-05-31 16:00,ZHHH 311600Z VRB01MPS CAVOK 25/23 Q1004 NOSIG
ZHHH,2021-05-31 17:00,ZHHH 311700Z 06003MPS CAVOK 25/24 Q1004 NOSIG
ZHHH,2021-05-31 18:00,ZHHH 311800Z 03002MPS CAVOK 24/24 Q1004 NOSIG
ZHHH,2021-05-31 19:00,ZHHH 311900Z 05002MPS CAVOK 24/24 Q1004 NOSIG
ZHHH,2021-05-31 20:00,ZHHH 312000Z 05002MPS CAVOK 23/23 Q1004 NOSIG
ZHHH,2021-05-31 21:00,ZHHH 312100Z 07002MPS CAVOK 23/23 Q1004 NOSIG
ZHHH,2021-05-31 22:00,ZHHH 312200Z 10003MPS CAVOK 24/23 Q1004 NOSIG
ZHHH,2021-05-31 23:00,ZHHH 312300Z 11002MPS 080V140 CAVOK 25/23 Q1005 NOSIG
ZHHH,2021-06-01 00:00,ZHHH 010000Z 08003MPS 040V100 CAVOK 28/23 Q1005 NOSIG
ZHHH,2021-06-01 01:00,ZHHH 010100Z 09003MPS 010V150 CAVOK 29/22 Q1006 NOSIG
ZHHH,2021-06-01 02:00,ZHHH 010200Z 10003MPS 060V120 CAVOK 30/22 Q1005 NOSIG
ZHHH,2021-06-01 03:00,ZHHH 010300Z 13003MPS 100V160 CAVOK 31/22 Q1005 NOSIG
ZHHH,2021-06-01 04:00,ZHHH 010400Z 08003MPS 030V130 9999 SCT018 32/22 Q1005 NOSIG
ZHHH,2021-06-01 05:00,ZHHH 010500Z VRB03MPS 9999 SCT020 32/21 Q1005 NOSIG
ZHHH,2021-06-01 06:00,ZHHH 010600Z VRB02MPS 9999 FEW022 FEW024TCU 31/22 Q1004 NOSIG
ZHHH,2021-06-01 07:00,ZHHH 010700Z 30002MPS 230V360 9999 FEW022 FEW024TCU 33/22 Q1003 NOSIG
ZHHH,2021-06-01 08:00,ZHHH 010800Z 22003MPS 140V260 9999 FEW022 SCT024TCU 32/21 Q1003 NOSIG
ZHHH,2021-06-01 09:00,ZHHH 010900Z 28002MPS 240V360 9999 FEW022 FEW024TCU 32/22 Q1003 NOSIG
ZHHH,2021-06-01 10:00,ZHHH 011000Z VRB01MPS 9999 FEW026TCU 32/22 Q1003 NOSIG
ZHHH,2021-06-01 11:00,ZHHH 011100Z 33001MPS CAVOK 29/23 Q1003 NOSIG
ZHHH,2021-06-01 12:00,ZHHH 011200Z 35001MPS CAVOK 28/24 Q1004 NOSIG
ZHHH,2021-06-01 13:00,ZHHH 011300Z 01002MPS CAVOK 29/23 Q1004 NOSIG
ZHHH,2021-06-01 14:00,ZHHH 011400Z 03002MPS CAVOK 29/23 Q1004 NOSIG
ZHHH,2021-06-01 15:00,ZHHH 011500Z 06003MPS CAVOK 29/23 Q1004 NOSIG
ZHHH,2021-06-01 16:00,ZHHH 011600Z 06002MPS 020V100 CAVOK 28/23 Q1004 NOSIG
ZHHH,2021-06-01 17:00,ZHHH 011700Z 02002MPS CAVOK 27/25 Q1004 NOSIG
ZHHH,2021-06-01 18:00,ZHHH 011800Z 08002MPS CAVOK 28/24 Q1003 NOSIG
ZHHH,2021-06-01 19:00,ZHHH 011900Z 10003MPS CAVOK 27/25 Q1003 NOSIG
ZHHH,2021-06-01 20:00,ZHHH 012000Z 12004MPS 8000 NSC 27/25 Q1003 NOSIG
ZHHH,2021-06-01 21:00,ZHHH 012100Z 11003MPS 8000 NSC 27/25 Q1004 NOSIG
ZHHH,2021-06-01 22:00,ZHHH 012200Z 10002MPS 5000 BR NSC 27/26 Q1003 NOSIG
ZHHH,2021-06-01 23:00,ZHHH 012300Z 10003MPS 5000 BR NSC 28/26 Q1004 NOSIG
ZHHH,2021-06-02 00:00,ZHHH 020000Z 11003MPS 070V130 5000 BR NSC 28/26 Q1004 NOSIG
ZHHH,2021-06-02 01:00,ZHHH 020100Z VRB01MPS 6000 NSC 30/26 Q1004 NOSIG
ZHHH,2021-06-02 02:00,ZHHH 020200Z 32002MPS 240V020 6000 NSC 30/26 Q1004 NOSIG
ZHHH,2021-06-02 03:00,ZHHH 020300Z VRB02MPS 8000 SCT026 31/26 Q1004 NOSIG
ZHHH,2021-06-02 04:00,ZHHH 020400Z 29002MPS 230V350 8000 SCT026 32/25 Q1004 NOSIG
ZHHH,2021-06-02 05:00,ZHHH 020500Z 30002MPS 250V030 8000 SCT026 33/23 Q1003 NOSIG
ZHHH,2021-06-02 06:00,ZHHH 020600Z 31002MPS 230V010 9999 SCT026 34/21 Q1003 NOSIG
ZHHH,2021-06-02 07:00,ZHHH 020700Z 00000MPS 9999 FEW026 33/23 Q1002 NOSIG
ZHHH,2021-06-02 08:00,ZHHH 020800Z 00000MPS 9999 FEW026 34/22 Q1001 NOSIG
ZHHH,2021-06-02 09:00,ZHHH 020900Z 16004MPS 120V190 CAVOK 33/23 Q1002 NOSIG
ZHHH,2021-06-02 10:00,ZHHH 021000Z 17003MPS 120V220 CAVOK 32/22 Q1001 NOSIG
ZHHH,2021-06-02 11:00,ZHHH 021100Z 18003MPS 150V220 CAVOK 32/22 Q1002 NOSIG
ZHHH,2021-06-02 12:00,ZHHH 021200Z 18004MPS CAVOK 30/22 Q1002 NOSIG
ZHHH,2021-06-02 13:00,ZHHH 021300Z 21003MPS CAVOK 29/23 Q1003 NOSIG
ZHHH,2021-06-02 14:00,ZHHH 021400Z 22003MPS CAVOK 29/25 Q1003 NOSIG
ZHHH,2021-06-02 15:00,ZHHH 021500Z 23001MPS CAVOK 29/26 Q1004 NOSIG
ZHHH,2021-06-02 16:00,ZHHH 021600Z 23001MPS CAVOK 28/27 Q1004 NOSIG
ZHHH,2021-06-02 17:00,ZHHH 021700Z VRB01MPS 8000 NSC 28/27 Q1004 NOSIG
ZHHH,2021-06-02 18:00,ZHHH 021800Z 25002MPS 220V280 8000 -RA SCT023 27/27 Q1003 NOSIG
ZHHH,2021-06-02 19:00,ZHHH 021900Z 00000MPS 6000 -RA SCT023 27/27 Q1003 NOSIG
ZHHH,2021-06-02 20:00,ZHHH 022000Z 19002MPS 6000 -RA SCT023 27/27 Q1003 NOSIG
ZHHH,2021-06-02 21:00,ZHHH 022100Z VRB01MPS 6000 NSC 26/26 Q1003 NOSIG
ZHHH,2021-06-02 22:00,ZHHH 022200Z 03006MPS 360V060 6000 -RA SCT020 24/23 Q1004 NOSIG
ZHHH,2021-06-02 23:00,ZHHH 022300Z 02006MPS 340V050 3000 RA BR SCT020 22/22 Q1006 BECMG TL2340 -RA
ZHHH,2021-06-03 00:00,ZHHH 030000Z 36004MPS 310V040 7000 -RA OVC040 22/22 Q1007 RERA NOSIG
ZHHH,2021-06-03 01:00,ZHHH 030100Z 01007G14MPS 330V050 7000 -RA BKN040 22/20 Q1007 NOSIG
ZHHH,2021-06-03 02:00,ZHHH 030200Z 02003MPS 350V050 9999 -RA BKN040 22/21 Q1008 NOSIG
ZHHH,2021-06-03 03:00,ZHHH 030300Z 05004MPS 300V080 9999 -RA SCT040 23/21 Q1008 NOSIG
ZHHH,2021-06-03 04:00,ZHHH 030400Z 01002MPS 310V050 9999 SCT033 23/20 Q1009 NOSIG
ZHHH,2021-06-03 05:00,ZHHH 030500Z 04002MPS 340V080 9999 -RA BKN040 24/20 Q1008 NOSIG
ZHHH,2021-06-03 06:00,ZHHH 030600Z 01003MPS 320V050 9999 FEW020 SCT033 24/21 Q1008 NOSIG
ZHHH,2021-06-03 07:00,ZHHH 030700Z 05006MPS 9999 FEW020 SCT033 24/14 Q1008 NOSIG
ZHHH,2021-06-03 08:00,ZHHH 030800Z 36004MPS 300V040 9999 SCT026 23/16 Q1008 NOSIG
ZHHH,2021-06-03 09:00,ZHHH 030900Z 02004MPS 340V050 9999 -RA NSC 19/16 Q1009 NOSIG
ZHHH,2021-06-03 10:00,ZHHH 031000Z 06002MPS 030V090 9999 -RA NSC 19/17 Q1009 NOSIG
ZHHH,2021-06-03 11:00,ZHHH 031100Z 00000MPS 9999 -RA NSC 19/19 Q1010 NOSIG
ZHHH,2021-06-03 12:00,ZHHH 031200Z 00000MPS CAVOK 19/19 Q1010 NOSIG
ZHHH,2021-06-03 13:00,ZHHH 031300Z 00000MPS CAVOK 19/19 Q1011 NOSIG
ZHHH,2021-06-03 14:00,ZHHH 031400Z 00000MPS CAVOK 18/18 Q1011 NOSIG
ZHHH,2021-06-03 15:00,ZHHH 031500Z 00000MPS CAVOK 19/18 Q1011 NOSIG
ZHHH,2021-06-03 16:00,ZHHH 031600Z 36001MPS CAVOK 18/18 Q1010 NOSIG
ZHHH,2021-06-03 17:00,ZHHH 031700Z 35002MPS 300V030 CAVOK 19/19 Q1010 NOSIG
ZHHH,2021-06-03 18:00,ZHHH 031800Z 00000MPS CAVOK 18/18 Q1010 NOSIG
ZHHH,2021-06-03 19:00,ZHHH 031900Z VRB01MPS 8000 NSC 18/18 Q1010 NOSIG
ZHHH,2021-06-03 20:00,ZHHH 032000Z VRB01MPS 7000 NSC 19/19 Q1009 NOSIG
ZHHH,2021-06-03 21:00,ZHHH 032100Z 29002MPS 230V330 6000 NSC 19/19 Q1009 NOSIG
ZHHH,2021-06-03 22:00,ZHHH 032200Z 24002MPS 9000 NSC 19/19 Q1010 NOSIG
ZHHH,2021-06-03 23:00,ZHHH 032300Z 23003MPS 200V260 9000 NSC 20/20 Q1010 NOSIG
ZHHH,2021-06-04 00:00,ZHHH 040000Z 25002MPS 180V300 CAVOK 21/20 Q1010 NOSIG
ZHHH,2021-06-04 01:00,ZHHH 040100Z 25003MPS 220V280 CAVOK 22/17 Q1010 NOSIG
ZHHH,2021-06-04 02:00,ZHHH 040200Z 25003MPS 210V290 CAVOK 23/17 Q1010 NOSIG
ZHHH,2021-06-04 03:00,ZHHH 040300Z 24003MPS 210V280 CAVOK 24/17 Q1009 NOSIG
ZHHH,2021-06-04 04:00,ZHHH 040400Z 26003MPS 220V300 CAVOK 25/17 Q1009 NOSIG
ZHHH,2021-06-04 05:00,ZHHH 040500Z 24003MPS 200V280 CAVOK 27/17 Q1008 NOSIG
ZHHH,2021-06-04 06:00,ZHHH 040600Z 24004MPS 210V270 CAVOK 28/16 Q1007 NOSIG
ZHHH,2021-06-04 07:00,ZHHH 040700Z 22005MPS 190V260 CAVOK 28/16 Q1006 NOSIG
ZHHH,2021-06-04 08:00,ZHHH 040800Z 23005MPS CAVOK 29/15 Q1005 NOSIG
ZHHH,2021-06-04 09:00,ZHHH 040900Z 22005MPS CAVOK 28/16 Q1005 NOSIG
ZHHH,2021-06-04 10:00,ZHHH 041000Z 23004MPS CAVOK 27/16 Q1004 NOSIG
ZHHH,2021-06-04 11:00,ZHHH 041100Z 23004MPS CAVOK 26/17 Q1005 NOSIG
ZHHH,2021-06-04 12:00,ZHHH 041200Z 20003MPS CAVOK 24/18 Q1005 NOSIG
ZHHH,2021-06-04 13:00,ZHHH 041300Z 20003MPS 170V260 CAVOK 24/17 Q1006 NOSIG
ZHHH,2021-06-04 14:00,ZHHH 041400Z 19003MPS CAVOK 24/17 Q1006 NOSIG
ZHHH,2021-06-04 15:00,ZHHH 041500Z 21002MPS CAVOK 23/18 Q1006 NOSIG
ZHHH,2021-06-04 16:00,ZHHH 041600Z 21002MPS CAVOK 22/17 Q1006 NOSIG
ZHHH,2021-06-04 17:00,ZHHH 041700Z 20003MPS CAVOK 22/17 Q1005 NOSIG
ZHHH,2021-06-04 18:00,ZHHH 041800Z 21003MPS CAVOK 22/18 Q1005 NOSIG
ZHHH,2021-06-04 19:00,ZHHH 041900Z 19002MPS CAVOK 21/18 Q1005 NOSIG
ZHHH,2021-06-04 20:00,ZHHH 042000Z 19002MPS 160V220 CAVOK 21/18 Q1005 NOSIG
ZHHH,2021-06-04 21:00,ZHHH 042100Z 18003MPS CAVOK 21/17 Q1005 NOSIG
ZHHH,2021-06-04 22:00,ZHHH 042200Z 18002MPS CAVOK 21/18 Q1005 NOSIG
ZHHH,2021-06-04 23:00,ZHHH 042300Z 18002MPS CAVOK 23/17 Q1005 NOSIG
ZHHH,2021-06-05 00:00,ZHHH 050000Z 18004MPS CAVOK 25/16 Q1005 NOSIG
ZHHH,2021-06-05 01:00,ZHHH 050100Z 21004MPS 170V240 CAVOK 26/16 Q1005 NOSIG
ZHHH,2021-06-05 02:00,ZHHH 050200Z 20003MPS 170V230 CAVOK 28/15 Q1005 NOSIG
ZHHH,2021-06-05 03:00,ZHHH 050300Z 21003MPS 180V240 CAVOK 29/16 Q1005 NOSIG
ZHHH,2021-06-05 04:00,ZHHH 050400Z 21003MPS 160V270 CAVOK 29/17 Q1004 NOSIG
ZHHH,2021-06-05 05:00,ZHHH 050500Z 22003MPS 180V250 CAVOK 30/16 Q1003 NOSIG
ZHHH,2021-06-05 06:00,ZHHH 050600Z 22004MPS 180V240 CAVOK 31/16 Q1003 NOSIG
ZHHH,2021-06-05 07:00,ZHHH 050700Z 23004MPS 200V260 CAVOK 31/18 Q1002 NOSIG
ZHHH,2021-06-05 08:00,ZHHH 050800Z 21004MPS 180V240 CAVOK 32/18 Q1001 NOSIG
ZHHH,2021-06-05 09:00,ZHHH 050900Z 22004MPS CAVOK 32/16 Q1001 NOSIG
ZHHH,2021-06-05 10:00,ZHHH 051000Z 22004MPS CAVOK 31/17 Q1001 NOSIG
ZHHH,2021-06-05 11:00,ZHHH 051100Z 21004MPS CAVOK 29/17 Q1002 NOSIG
ZHHH,2021-06-05 12:00,ZHHH 051200Z 21003MPS CAVOK 27/17 Q1002 NOSIG
ZHHH,2021-06-05 13:00,ZHHH 051300Z 17002MPS CAVOK 24/18 Q1002 NOSIG
ZHHH,2021-06-05 14:00,ZHHH 051400Z 24001MPS CAVOK 23/20 Q1003 NOSIG
ZHHH,2021-06-05 15:00,ZHHH 051500Z 19003MPS CAVOK 25/20 Q1003 NOSIG
ZHHH,2021-06-05 16:00,ZHHH 051600Z 18002MPS CAVOK 25/20 Q1003 NOSIG
ZHHH,2021-06-05 17:00,ZHHH 051700Z 15002MPS CAVOK 25/19 Q1003 NOSIG
ZHHH,2021-06-05 18:00,ZHHH 051800Z 12003MPS CAVOK 25/21 Q1002 NOSIG
ZHHH,2021-06-05 19:00,ZHHH 051900Z 12003MPS CAVOK 25/20 Q1003 NOSIG
ZHHH,2021-06-05 20:00,ZHHH 052000Z 11003MPS CAVOK 24/21 Q1003 NOSIG
ZHHH,2021-06-05 21:00,ZHHH 052100Z 10003MPS CAVOK 23/20 Q1003 NOSIG
ZHHH,2021-06-05 22:00,ZHHH 052200Z 11004MPS CAVOK 23/21 Q1003 NOSIG
ZHHH,2021-06-05 23:00,ZHHH 052300Z 12003MPS 090V150 6000 NSC 25/21 Q1004 NOSIG
ZHHH,2021-06-06 00:00,ZHHH 060000Z VRB03MPS CAVOK 27/21 Q1004 NOSIG
ZHHH,2021-06-06 01:00,ZHHH 060100Z 12003MPS 090V150 8000 NSC 28/20 Q1004 NOSIG
ZHHH,2021-06-06 02:00,ZHHH 060200Z 18003MPS 120V230 CAVOK 30/17 Q1005 NOSIG
ZHHH,2021-06-06 03:00,ZHHH 060300Z 18004MPS CAVOK 32/15 Q1004 NOSIG
ZHHH,2021-06-06 04:00,ZHHH 060400Z 19004MPS 150V230 CAVOK 33/14 Q1004 NOSIG
ZHHH,2021-06-06 05:00,ZHHH 060500Z 19003MPS 120V240 CAVOK 34/15 Q1004 NOSIG
ZHHH,2021-06-06 06:00,ZHHH 060600Z 20003MPS 140V240 CAVOK 34/14 Q1003 NOSIG
ZHHH,2021-06-06 07:00,ZHHH 060700Z 22004MPS 180V250 CAVOK 35/15 Q1003 NOSIG
ZHHH,2021-06-06 08:00,ZHHH 060800Z 22003MPS CAVOK 35/15 Q1003 NOSIG
ZHHH,2021-06-06 09:00,ZHHH 060900Z 12003MPS 020V180 CAVOK 35/16 Q1003 NOSIG
ZHHH,2021-06-06 10:00,ZHHH 061000Z 12003MPS CAVOK 34/15 Q1003 NOSIG
ZHHH,2021-06-06 11:00,ZHHH 061100Z 12003MPS CAVOK 32/16 Q1003 NOSIG
ZHHH,2021-06-06 12:00,ZHHH 061200Z 11004MPS CAVOK 31/15 Q1004 NOSIG
ZHHH,2021-06-06 13:00,ZHHH 061300Z 12004MPS CAVOK 30/15 Q1004 NOSIG
ZHHH,2021-06-06 14:00,ZHHH 061400Z 12004MPS CAVOK 29/17 Q1005 NOSIG
ZHHH,2021-06-06 15:00,ZHHH 061500Z 12004MPS CAVOK 29/18 Q1005 NOSIG
ZHHH,2021-06-06 16:00,ZHHH 061600Z 11004MPS CAVOK 28/19 Q1005 NOSIG
ZHHH,2021-06-06 17:00,ZHHH 061700Z 08003MPS CAVOK 27/17 Q1005 NOSIG
ZHHH,2021-06-06 18:00,ZHHH 061800Z 06003MPS CAVOK 23/18 Q1006 NOSIG
ZHHH,2021-06-06 19:00,ZHHH 061900Z 05003MPS CAVOK 24/18 Q1006 NOSIG
ZHHH,2021-06-06 20:00,ZHHH 062000Z 09004MPS CAVOK 25/16 Q1006 NOSIG
ZHHH,2021-06-06 21:00,ZHHH 062100Z 10003MPS CAVOK 25/16 Q1007 NOSIG
ZHHH,2021-06-06 22:00,ZHHH 062200Z 10004G09MPS 030V140 CAVOK 25/16 Q1007 NOSIG
ZHHH,2021-06-06 23:00,ZHHH 062300Z 11003MPS CAVOK 26/16 Q1007 NOSIG
ZHHH,2021-06-07 00:00,ZHHH 070000Z 11003MPS 080V160 CAVOK 28/17 Q1008 NOSIG
ZHHH,2021-06-07 01:00,ZHHH 070100Z 10003MPS 340V150 CAVOK 30/17 Q1008 NOSIG
ZHHH,2021-06-07 02:00,ZHHH 070200Z 11003MPS 050V200 CAVOK 32/17 Q1008 NOSIG
ZHHH,2021-06-07 03:00,ZHHH 070300Z 20004MPS 170V240 CAVOK 34/14 Q1007 NOSIG
ZHHH,2021-06-07 04:00,ZHHH 070400Z 19004MPS 150V230 CAVOK 34/13 Q1007 NOSIG
ZHHH,2021-06-07 05:00,ZHHH 070500Z 11003G09MPS 040V180 CAVOK 34/14 Q1007 NOSIG
ZHHH,2021-06-07 06:00,ZHHH 070600Z 10003MPS 020V150 CAVOK 35/14 Q1006 NOSIG
ZHHH,2021-06-07 07:00,ZHHH 070700Z 23003MPS 190V260 CAVOK 35/12 Q1006 NOSIG
ZHHH,2021-06-07 08:00,ZHHH 070800Z 13004MPS 090V170 CAVOK 35/13 Q1006 NOSIG
ZHHH,2021-06-07 09:00,ZHHH 070900Z 13004MPS 100V160 CAVOK 34/12 Q1005 NOSIG
ZHHH,2021-06-07 10:00,ZHHH 071000Z VRB02MPS CAVOK 34/12 Q1005 NOSIG
ZHHH,2021-06-07 11:00,ZHHH 071100Z 13002MPS 100V160 CAVOK 33/15 Q1005 NOSIG
ZHHH,2021-06-07 12:00,ZHHH 071200Z 00000MPS CAVOK 28/20 Q1006 NOSIG
ZHHH,2021-06-07 13:00,ZHHH 071300Z 00000MPS CAVOK 26/21 Q1006 NOSIG
ZHHH,2021-06-07 14:00,ZHHH 071400Z VRB03MPS CAVOK 30/18 Q1007 NOSIG
ZHHH,2021-06-07 15:00,ZHHH 071500Z 10003MPS CAVOK 30/19 Q1007 NOSIG
ZHHH,2021-06-07 16:00,ZHHH 071600Z 12003MPS 090V150 CAVOK 29/19 Q1007 NOSIG
ZHHH,2021-06-07 17:00,ZHHH 071700Z 09003MPS CAVOK 29/19 Q1007 NOSIG
ZHHH,2021-06-07 18:00,ZHHH 071800Z 09003MPS CAVOK 28/20 Q1007 NOSIG
ZHHH,2021-06-07 19:00,ZHHH 071900Z 08003MPS CAVOK 26/20 Q1006 NOSIG
ZHHH,2021-06-07 20:00,ZHHH 072000Z 05003MPS CAVOK 24/22 Q1006 NOSIG
ZHHH,2021-06-07 21:00,ZHHH 072100Z 06003MPS CAVOK 24/22 Q1007 NOSIG
ZHHH,2021-06-07 22:00,ZHHH 072200Z 09003MPS CAVOK 26/22 Q1007 NOSIG
ZHHH,2021-06-07 23:00,ZHHH 072300Z 09004MPS CAVOK 26/21 Q1007 NOSIG
ZHHH,2021-06-08 00:00,ZHHH 080000Z 09004MPS 360V110 CAVOK 27/21 Q1008 NOSIG
ZHHH,2021-06-08 01:00,ZHHH 080100Z 08003MPS 010V120 CAVOK 29/21 Q1008 NOSIG
ZHHH,2021-06-08 02:00,ZHHH 080200Z 08003MPS 020V130 CAVOK 31/20 Q1008 NOSIG
ZHHH,2021-06-08 03:00,ZHHH 080300Z 09003MPS 020V130 CAVOK 32/20 Q1008 NOSIG
ZHHH,2021-06-08 04:00,ZHHH 080400Z 11003MPS 020V180 CAVOK 34/20 Q1008 NOSIG
ZHHH,2021-06-08 05:00,ZHHH 080500Z VRB03MPS CAVOK 35/19 Q1008 NOSIG
ZHHH,2021-06-08 06:00,ZHHH 080600Z VRB01MPS CAVOK 35/21 Q1007 NOSIG
ZHHH,2021-06-08 07:00,ZHHH 080700Z VRB02MPS CAVOK 34/20 Q1007 NOSIG
ZHHH,2021-06-08 08:00,ZHHH 080800Z 02003MPS 340V060 CAVOK 33/21 Q1006 NOSIG
ZHHH,2021-06-08 09:00,ZHHH 080900Z 04002MPS 360V090 CAVOK 33/20 Q1006 NOSIG
ZHHH,2021-06-08 10:00,ZHHH 081000Z 09003MPS CAVOK 34/15 Q1006 NOSIG
ZHHH,2021-06-08 11:00,ZHHH 081100Z 03003MPS CAVOK 31/18 Q1006 NOSIG
ZHHH,2021-06-08 12:00,ZHHH 081200Z 08003MPS CAVOK 32/19 Q1006 NOSIG
ZHHH,2021-06-08 13:00,ZHHH 081300Z 05003MPS CAVOK 29/20 Q1007 NOSIG
ZHHH,2021-06-08 14:00,ZHHH 081400Z 09003MPS CAVOK 31/19 Q1007 NOSIG
ZHHH,2021-06-08 15:00,ZHHH 081500Z 10003MPS CAVOK 30/21 Q1007 NOSIG
ZHHH,2021-06-08 16:00,ZHHH 081600Z 08003MPS 040V100 CAVOK 28/21 Q1007 NOSIG
ZHHH,2021-06-08 17:00,ZHHH 081700Z 06003MPS CAVOK 27/21 Q1006 NOSIG
ZHHH,2021-06-08 18:00,ZHHH 081800Z 08003MPS CAVOK 28/21 Q1006 NOSIG
ZHHH,2021-06-08 19:00,ZHHH 081900Z 07003MPS CAVOK 27/22 Q1006 NOSIG
ZHHH,2021-06-08 20:00,ZHHH 082000Z 09003MPS CAVOK 27/22 Q1006 NOSIG
ZHHH,2021-06-08 21:00,ZHHH 082100Z 08004MPS CAVOK 27/22 Q1006 NOSIG
ZHHH,2021-06-08 22:00,ZHHH 082200Z 09004MPS CAVOK 27/21 Q1006 NOSIG
ZHHH,2021-06-08 23:00,ZHHH 082300Z 09004MPS CAVOK 28/21 Q1006 NOSIG
ZHHH,2021-06-09 00:00,ZHHH 090000Z 10004MPS CAVOK 29/21 Q1006 NOSIG
ZHHH,2021-06-09 01:00,ZHHH 090100Z 10003MPS 040V140 9999 SCT030 30/22 Q1007 NOSIG
ZHHH,2021-06-09 02:00,ZHHH 090200Z 10004MPS CAVOK 32/21 Q1007 NOSIG
ZHHH,2021-06-09 03:00,ZHHH 090300Z VRB03MPS CAVOK 33/20 Q1007 NOSIG
ZHHH,2021-06-09 04:00,ZHHH 090400Z 29002MPS 220V020 CAVOK 33/21 Q1006 NOSIG
ZHHH,2021-06-09 05:00,ZHHH 090500Z 31002MPS 280V340 9999 SCT020TCU FEW020 33/23 Q1006 NOSIG
ZHHH,2021-06-09 06:00,ZHHH 090600Z 33002MPS 280V030 9999 FEW026TCU 34/22 Q1005 NOSIG
ZHHH,2021-06-09 07:00,ZHHH 090700Z VRB01MPS 9999 SCT040 32/24 Q1005 NOSIG
ZHHH,2021-06-09 08:00,ZHHH 090800Z 12008MPS 9999 SCT040 29/22 Q1005 NOSIG
ZHHH,2021-06-09 09:00,ZHHH 090900Z 08003MPS 040V100 CAVOK 30/21 Q1004 NOSIG
ZHHH,2021-06-09 10:00,ZHHH 091000Z VRB01MPS CAVOK 29/24 Q1004 NOSIG
ZHHH,2021-06-09 11:00,ZHHH 091100Z VRB01G06MPS CAVOK 30/24 Q1005 NOSIG
ZHHH,2021-06-09 12:00,ZHHH 091200Z VRB01MPS CAVOK 28/25 Q1005 NOSIG
ZHHH,2021-06-09 13:00,ZHHH 091300Z 03002MPS CAVOK 29/25 Q1006 NOSIG
ZHHH,2021-06-09 14:00,ZHHH 091400Z 05002MPS 010V110 CAVOK 28/25 Q1006 NOSIG
ZHHH,2021-06-09 15:00,ZHHH 091500Z 00000MPS 9999 -RA NSC 28/25 Q1006 NOSIG
ZHHH,2021-06-09 16:00,ZHHH 091600Z 00000MPS 9999 -RA NSC 26/26 Q1006 NOSIG
ZHHH,2021-06-09 17:00,ZHHH 091700Z 18002MPS 140V210 9999 -RA NSC 28/25 Q1005 NOSIG
ZHHH,2021-06-09 18:00,ZHHH 091800Z VRB01MPS CAVOK 27/26 Q1005 NOSIG
ZHHH,2021-06-09 19:00,ZHHH 091900Z 29002MPS 250V360 8000 -RA FEW017 27/26 Q1005 NOSIG
ZHHH,2021-06-09 20:00,ZHHH 092000Z 25002MPS 210V300 8000 -RA FEW033 27/25 Q1005 NOSIG
ZHHH,2021-06-09 21:00,ZHHH 092100Z 15002MPS 9999 -RA FEW016 BKN040 25/25 Q1005 NOSIG
ZHHH,2021-06-09 22:00,ZHHH 092200Z 05002MPS 9999 -RA SCT040 25/25 Q1006 NOSIG
ZHHH,2021-06-09 23:00,ZHHH 092300Z VRB01MPS 8000 SCT015 25/25 Q1006 NOSIG
ZHHH,2021-06-10 00:00,ZHHH 100000Z VRB01MPS 8000 NSC 25/25 Q1006 NOSIG
ZHHH,2021-06-10 01:00,ZHHH 100100Z VRB02MPS 7000 FEW020 25/25 Q1007 NOSIG
ZHHH,2021-06-10 02:00,ZHHH 100200Z 36002MPS 310V060 5000 BR NSC 26/25 Q1007 NOSIG
ZHHH,2021-06-10 03:00,ZHHH 100300Z VRB01MPS 4000 -RA BR SCT014 26/25 Q1007 NOSIG
ZHHH,2021-06-10 04:00,ZHHH 100400Z VRB01MPS 4000 -RA BR SCT011 26/25 Q1007 NOSIG
ZHHH,2021-06-10 05:00,ZHHH 100500Z 28002MPS 240V330 4500 -RA BR SCT014 26/25 Q1007 NOSIG
ZHHH,2021-06-10 06:00,ZHHH 100600Z 24002MPS 5000 BR NSC 27/25 Q1007 NOSIG
ZHHH,2021-06-10 07:00,ZHHH 100700Z 24002MPS 200V270 5000 BR NSC 27/25 Q1006 NOSIG
ZHHH,2021-06-10 08:00,ZHHH 100800Z 23003MPS 6000 NSC 27/25 Q1006 NOSIG
ZHHH,2021-06-10 09:00,ZHHH 100900Z VRB01MPS 7000 NSC 27/24 Q1005 NOSIG
ZHHH,2021-06-10 10:00,ZHHH 101000Z VRB01MPS 6000 NSC 27/25 Q1005 NOSIG
ZHHH,2021-06-10 11:00,ZHHH 101100Z 26002MPS 220V290 8000 NSC 27/24 Q1006 NOSIG
ZHHH,2021-06-10 12:00,ZHHH 101200Z VRB01MPS 8000 FEW023 27/24 Q1006 NOSIG
ZHHH,2021-06-10 13:00,ZHHH 101300Z 23002MPS 8000 NSC 26/24 Q1007 NOSIG
ZHHH,2021-06-10 14:00,ZHHH 101400Z 25001MPS 8000 NSC 26/24 Q1007 NOSIG
ZHHH,2021-06-10 15:00,ZHHH 101500Z VRB01MPS CAVOK 25/24 Q1007 NOSIG
ZHHH,2021-06-10 16:00,ZHHH 101600Z 25002MPS 220V290 CAVOK 26/24 Q1007 NOSIG
ZHHH,2021-06-10 17:00,ZHHH 101700Z VRB01MPS 6000 NSC 24/24 Q1006 NOSIG
ZHHH,2021-06-10 18:00,ZHHH 101800Z 29002MPS 260V340 6000 NSC 25/24 Q1006 NOSIG
ZHHH,2021-06-10 19:00,ZHHH 101900Z 28002MPS 220V330 5000 BR FEW016 25/25 Q1007 NOSIG
ZHHH,2021-06-10 20:00,ZHHH 102000Z 30002MPS 240V350 5000 BR FEW011 25/24 Q1007 NOSIG
ZHHH,2021-06-10 21:00,ZHHH 102100Z VRB01MPS 7000 NSC 25/23 Q1007 NOSIG
ZHHH,2021-06-10 22:00,ZHHH 102200Z VRB01MPS 3500 BR NSC 24/24 Q1007 NOSIG
ZHHH,2021-06-10 23:00,ZHHH 102300Z 05003MPS 2500 BR NSC 25/25 Q1008 BECMG TL0040 3000
ZHHH,2021-06-11 00:00,ZHHH 110000Z VRB01MPS 4000 BR NSC 26/24 Q1008 NOSIG
ZHHH,2021-06-11 01:00,ZHHH 110100Z VRB01MPS 4000 BR NSC 27/24 Q1009 NOSIG
ZHHH,2021-06-11 02:00,ZHHH 110200Z VRB01MPS 4000 BR SCT020 28/24 Q1009 NOSIG
ZHHH,2021-06-11 03:00,ZHHH 110300Z 29002MPS 230V350 4000 BR SCT020 28/25 Q1009 NOSIG
ZHHH,2021-06-11 04:00,ZHHH 110400Z VRB01MPS 5000 HZ FEW030TCU 30/24 Q1009 NOSIG
ZHHH,2021-06-11 05:00,ZHHH 110500Z VRB01MPS 4000 HZ FEW030TCU 30/23 Q1008 NOSIG
ZHHH,2021-06-11 06:00,ZHHH 110600Z VRB02MPS 3000 HZ FEW026 FEW030TCU 31/22 Q1008 NOSIG
ZHHH,2021-06-11 07:00,ZHHH 110700Z 11003MPS 080V150 4000 HZ NSC 31/23 Q1007 NOSIG
ZHHH,2021-06-11 08:00,ZHHH 110800Z 11004MPS 080V150 5000 HZ NSC 31/23 Q1007 NOSIG
ZHHH,2021-06-11 09:00,ZHHH 110900Z 15003MPS 090V180 6000 -RA NSC 31/22 Q1007 NOSIG
ZHHH,2021-06-11 10:00,ZHHH 111000Z 20003MPS 160V220 7000 NSC 30/22 Q1007 NOSIG
ZHHH,2021-06-11 11:00,ZHHH 111100Z VRB02MPS 8000 NSC 30/22 Q1007 NOSIG
ZHHH,2021-06-11 12:00,ZHHH 111200Z 11003MPS 080V140 8000 NSC 29/23 Q1007 NOSIG
ZHHH,2021-06-11 13:00,ZHHH 111300Z VRB02MPS 8000 NSC 29/24 Q1008 NOSIG
ZHHH,2021-06-11 14:00,ZHHH 111400Z 15002MPS 090V200 8000 NSC 29/24 Q1009 NOSIG
ZHHH,2021-06-11 15:00,ZHHH 111500Z 17002MPS 130V190 8000 NSC 29/24 Q1009 NOSIG
ZHHH,2021-06-11 16:00,ZHHH 111600Z VRB01MPS 6000 NSC 28/25 Q1009 NOSIG
ZHHH,2021-06-11 17:00,ZHHH 111700Z VRB01MPS 6000 NSC 27/26 Q1009 NOSIG
ZHHH,2021-06-11 18:00,ZHHH 111800Z VRB01MPS 5000 BR NSC 26/26 Q1008 NOSIG
ZHHH,2021-06-11 19:00,ZHHH 111900Z VRB01MPS 4000 BR NSC 26/26 Q1008 NOSIG
ZHHH,2021-06-11 20:00,ZHHH 112000Z 10002MPS 4000 BR NSC 27/26 Q1008 NOSIG
ZHHH,2021-06-11 21:00,ZHHH 112100Z 09003MPS 3000 BR NSC 27/26 Q1008 BECMG TL2220 2500
ZHHH,2021-06-11 22:00,ZHHH 112200Z 08002MPS 1400 R04L/P2000 R04R/1900U BR NSC 27/27 Q1008 BECMG TL2310 2000
ZHHH,2021-06-11 23:00,ZHHH 112300Z 09002MPS 060V120 1600 BR NSC 27/26 Q1009 BECMG TL0010 3000
ZHHH,2021-06-12 00:00,ZHHH 120000Z 07002MPS 030V090 2000 -RA BR NSC 27/27 Q1009 BECMG TL0120 3000
ZHHH,2021-06-12 01:00,ZHHH 120100Z 05003MPS 030V090 1700 -RA BR NSC 27/27 Q1010 NOSIG
ZHHH,2021-06-12 02:00,ZHHH 120200Z 05002MPS 360V080 2700 BR NSC 27/26 Q1010 BECMG TL0340 3000
ZHHH,2021-06-12 03:00,ZHHH 120300Z 06003MPS 3500 -RA BR SCT030 27/25 Q1010 NOSIG
ZHHH,2021-06-12 04:00,ZHHH 120400Z 06003MPS 5000 BR NSC 28/26 Q1009 NOSIG
ZHHH,2021-06-12 05:00,ZHHH 120500Z 03003MPS 5000 -RA BR FEW020 26/26 Q1009 NOSIG
ZHHH,2021-06-12 06:00,ZHHH 120600Z 05004MPS 6000 NSC 27/26 Q1009 NOSIG
ZHHH,2021-06-12 07:00,ZHHH 120700Z 06004MPS 4000 -RA BR SCT010 27/27 Q1008 NOSIG
ZHHH,2021-06-12 08:00,ZHHH 120800Z 03003MPS 340V050 4000 BR SCT010 27/27 Q1008 NOSIG
ZHHH,2021-06-12 09:00,ZHHH 120900Z 06004MPS 6000 FEW010 27/27 Q1007 NOSIG
ZHHH,2021-06-12 10:00,ZHHH 121000Z 09004MPS 8000 FEW030TCU SCT040 27/26 Q1007 NOSIG
ZHHH,2021-06-12 11:00,ZHHH 121100Z 09004MPS 8000 -RA NSC 27/27 Q1007 NOSIG
ZHHH,2021-06-12 12:00,ZHHH 121200Z 09005MPS 6000 -RA BKN040 27/27 Q1007 NOSIG
ZHHH,2021-06-12 13:00,ZHHH 121300Z 12002MPS 080V140 8000 NSC 27/27 Q1007 NOSIG
ZHHH,2021-06-12 14:00,ZHHH 121400Z 11003MPS 060V130 6000 -RA NSC 27/27 Q1008 NOSIG
ZHHH,2021-06-12 15:00,ZHHH 121500Z 12003MPS 9999 -RA NSC 27/25 Q1008 NOSIG
ZHHH,2021-06-12 16:00,ZHHH 121600Z 09003MPS CAVOK 26/26 Q1008 NOSIG
ZHHH,2021-06-12 17:00,ZHHH 121700Z 09004MPS 5000 BR NSC 26/26 Q1007 NOSIG
ZHHH,2021-06-12 18:00,ZHHH 121800Z 09004MPS 7000 NSC 26/26 Q1006 NOSIG
ZHHH,2021-06-12 19:00,ZHHH 121900Z 11003MPS 8000 NSC 26/26 Q1006 NOSIG
ZHHH,2021-06-12 20:00,ZHHH 122000Z 10003MPS 6000 FEW020 26/26 Q1006 NOSIG
ZHHH,2021-06-12 21:00,ZHHH 122100Z 10004MPS 5000 BR SCT020 26/26 Q1006 NOSIG
ZHHH,2021-06-12 22:00,ZHHH 122200Z 12004MPS 3500 BR FEW020 26/26 Q1006 BECMG TL2240 2500
ZHHH,2021-06-12 23:00,ZHHH 122300Z 13004MPS 4000 BR NSC 27/27 Q1006 NOSIG
ZHHH,2021-06-13 00:00,ZHHH 130000Z 12003MPS 080V160 4000 BR NSC 28/27 Q1006 NOSIG
ZHHH,2021-06-13 01:00,ZHHH 130100Z 15003MPS 100V180 5000 BR NSC 29/27 Q1006 NOSIG
ZHHH,2021-06-13 02:00,ZHHH 130200Z 15003MPS 110V180 7000 NSC 30/27 Q1006 NOSIG
ZHHH,2021-06-13 03:00,ZHHH 130300Z 14003MPS 090V180 7000 NSC 32/26 Q1005 NOSIG
ZHHH,2021-06-13 04:00,ZHHH 130400Z 18004MPS 090V220 9999 FEW023 33/26 Q1005 NOSIG
ZHHH,2021-06-13 05:00,ZHHH 130500Z 19004MPS 160V220 9999 SCT023 34/26 Q1004 NOSIG
ZHHH,2021-06-13 06:00,ZHHH 130600Z 23004MPS 9999 SCT023 34/26 Q1003 NOSIG
ZHHH,2021-06-13 07:00,ZHHH 130700Z 21004MPS 180V240 9999 SCT023 34/26 Q1003 NOSIG
ZHHH,2021-06-13 08:00,ZHHH 130800Z 20004MPS 170V230 9999 FEW023TCU SCT030 35/25 Q1002 NOSIG
ZHHH,2021-06-13 09:00,ZHHH 130900Z 19005MPS 9999 FEW030 35/25 Q1001 NOSIG
ZHHH,2021-06-13 10:00,ZHHH 131000Z 16003MPS 9999 SCT023TCU 34/25 Q1001 NOSIG
ZHHH,2021-06-13 11:00,ZHHH 131100Z 21003MPS 9999 FEW033 32/25 Q1002 NOSIG
ZHHH,2021-06-13 12:00,ZHHH 131200Z 19002MPS 9999 SCT040 32/25 Q1002 NOSIG
ZHHH,2021-06-13 13:00,ZHHH 131300Z 16003MPS 9999 SCT033 32/27 Q1002 NOSIG
ZHHH,2021-06-13 14:00,ZHHH 131400Z 14003MPS 9999 SCT040 31/27 Q1003 NOSIG
ZHHH,2021-06-13 15:00,ZHHH 131500Z 13003MPS CAVOK 31/27 Q1002 NOSIG
ZHHH,2021-06-13 16:00,ZHHH 131600Z 17003MPS CAVOK 30/28 Q1002 NOSIG
ZHHH,2021-06-13 17:00,ZHHH 131700Z 15002MPS CAVOK 30/28 Q1001 NOSIG
ZHHH,2021-06-13 18:00,ZHHH 131800Z 14002MPS CAVOK 30/28 Q1001 NOSIG
ZHHH,2021-06-13 19:00,ZHHH 131900Z 12002MPS 090V150 CAVOK 30/28 Q1001 NOSIG
ZHHH,2021-06-13 20:00,ZHHH 132000Z 12003MPS 090V150 CAVOK 29/28 Q1001 NOSIG
ZHHH,2021-06-13 21:00,ZHHH 132100Z 12003MPS 090V150 CAVOK 29/28 Q1001 NOSIG
ZHHH,2021-06-13 22:00,ZHHH 132200Z 17004MPS CAVOK 30/26 Q1001 NOSIG
ZHHH,2021-06-13 23:00,ZHHH 132300Z 18004MPS CAVOK 30/26 Q1001 NOSIG
ZHHH,2021-06-14 00:00,ZHHH 140000Z 19006MPS CAVOK 31/25 Q1001 NOSIG
ZHHH,2021-06-14 01:00,ZHHH 140100Z 20006MPS CAVOK 32/26 Q1001 NOSIG
ZHHH,2021-06-14 02:00,ZHHH 140200Z 21008MPS CAVOK 32/25 Q1001 NOSIG
ZHHH,2021-06-14 03:00,ZHHH 140300Z 22008MPS CAVOK 33/26 Q1000 NOSIG
ZHHH,2021-06-14 04:00,ZHHH 140400Z 20009MPS CAVOK 35/25 Q1000 NOSIG
ZHHH,2021-06-14 05:00,ZHHH 140500Z 21007MPS CAVOK 35/25 Q0999 NOSIG
ZHHH,2021-06-14 06:00,ZHHH 140600Z 20008MPS 9999 FEW025 35/24 Q0999 NOSIG
ZHHH,2021-06-14 07:00,ZHHH 140700Z 20007MPS 9999 FEW025 36/24 Q0997 NOSIG
ZHHH,2021-06-14 08:00,ZHHH 140800Z 21007MPS 9999 FEW025 36/24 Q0997 NOSIG
ZHHH,2021-06-14 09:00,ZHHH 140900Z 22008MPS 9999 FEW025 35/24 Q0996 NOSIG
ZHHH,2021-06-14 10:00,ZHHH 141000Z 21007MPS 9999 FEW026 34/24 Q0996 NOSIG
ZHHH,2021-06-14 11:00,ZHHH 141100Z 21004MPS 9999 FEW026 33/24 Q0997 NOSIG
ZHHH,2021-06-14 12:00,ZHHH 141200Z 21004MPS CAVOK 33/24 Q0997 NOSIG
ZHHH,2021-06-14 13:00,ZHHH 141300Z 20003MPS CAVOK 32/25 Q0997 NOSIG
ZHHH,2021-06-14 14:00,ZHHH 141400Z 19003MPS CAVOK 32/24 Q0997 NOSIG
ZHHH,2021-06-14 15:00,ZHHH 141500Z 20003MPS CAVOK 31/25 Q0998 NOSIG
ZHHH,2021-06-14 16:00,ZHHH 141600Z 20003MPS CAVOK 32/24 Q0998 NOSIG
ZHHH,2021-06-14 17:00,ZHHH 141700Z 21006MPS CAVOK 32/24 Q0997 NOSIG
ZHHH,2021-06-14 18:00,ZHHH 141800Z 20006MPS CAVOK 31/24 Q0996 NOSIG
ZHHH,2021-06-14 19:00,ZHHH 141900Z 20007MPS CAVOK 31/24 Q0996 NOSIG
ZHHH,2021-06-14 20:00,ZHHH 142000Z 20006MPS CAVOK 31/24 Q0996 NOSIG
ZHHH,2021-06-14 21:00,ZHHH 142100Z 22003MPS CAVOK 30/24 Q0996 NOSIG
ZHHH,2021-06-14 22:00,ZHHH 142200Z 22004MPS CAVOK 30/24 Q0997 NOSIG
ZHHH,2021-06-14 23:00,ZHHH 142300Z 22005MPS CAVOK 30/25 Q0997 NOSIG
ZHHH,2021-06-15 00:00,ZHHH 150000Z 22006MPS 200V260 CAVOK 31/24 Q0997 NOSIG
ZHHH,2021-06-15 01:00,ZHHH 150100Z 22006MPS CAVOK 33/25 Q0997 NOSIG
ZHHH,2021-06-15 02:00,ZHHH 150200Z 23007MPS CAVOK 34/24 Q0997 NOSIG
ZHHH,2021-06-15 03:00,ZHHH 150300Z 23006MPS 9999 SCT020 35/24 Q0998 NOSIG
ZHHH,2021-06-15 04:00,ZHHH 150400Z 24005MPS 9999 FEW023TCU BKN023 33/24 Q0998 NOSIG
ZHHH,2021-06-15 05:00,ZHHH 150500Z 24005MPS 200V280 9999 SCT023TCU FEW023 35/25 Q0997 NOSIG
ZHHH,2021-06-15 06:00,ZHHH 150600Z 23006MPS 9999 SCT023TCU FEW023 36/25 Q0997 NOSIG
ZHHH,2021-06-15 07:00,ZHHH 150700Z 24005MPS 210V270 9999 FEW023TCU FEW023 35/25 Q0996 NOSIG
ZHHH,2021-06-15 08:00,ZHHH 150800Z 23006MPS 9999 FEW023TCU FEW023 34/25 Q0996 NOSIG
ZHHH,2021-06-15 09:00,ZHHH 150900Z 24005MPS 9999 FEW023 34/24 Q0996 NOSIG
ZHHH,2021-06-15 10:00,ZHHH 151000Z 24004MPS 9999 FEW023CB 33/25 Q0996 NOSIG
ZHHH,2021-06-15 11:00,ZHHH 151100Z 23003MPS 9999 FEW023CB 33/25 Q0997 NOSIG
ZHHH,2021-06-15 12:00,ZHHH 151200Z 23001MPS 9999 FEW023CB 31/26 Q0997 NOSIG
ZHHH,2021-06-15 13:00,ZHHH 151300Z 00000MPS 9999 FEW020 30/27 Q0998 NOSIG
ZHHH,2021-06-15 14:00,ZHHH 151400Z VRB02MPS 9999 SCT020 32/26 Q0998 NOSIG
ZHHH,2021-06-15 15:00,ZHHH 151500Z VRB01MPS 9999 SCT020 32/27 Q0999 NOSIG
ZHHH,2021-06-15 16:00,ZHHH 151600Z 19003MPS 9999 SCT020 32/27 Q0998 NOSIG
ZHHH,2021-06-15 17:00,ZHHH 151700Z 21004MPS CAVOK 32/26 Q0998 NOSIG
ZHHH,2021-06-15 18:00,ZHHH 151800Z VRB01MPS CAVOK 31/28 Q0998 NOSIG
ZHHH,2021-06-15 19:00,ZHHH 151900Z 24001MPS CAVOK 29/28 Q0998 NOSIG
ZHHH,2021-06-15 20:00,ZHHH 152000Z 35001MPS CAVOK 29/29 Q0998 NOSIG
ZHHH,2021-06-15 21:00,ZHHH 152100Z 00000MPS CAVOK 28/28 Q0999 NOSIG
ZHHH,2021-06-15 22:00,ZHHH 152200Z 23001MPS CAVOK 29/28 Q1000 NOSIG
ZHHH,2021-06-15 23:00,ZHHH 152300Z 20001MPS CAVOK 30/28 Q1000 NOSIG
ZHHH,2021-06-16 00:00,ZHHH 160000Z 20002MPS 170V230 CAVOK 31/27 Q1001 NOSIG
ZHHH,2021-06-16 01:00,ZHHH 160100Z 22003MPS 190V260 CAVOK 31/27 Q1001 NOSIG
ZHHH,2021-06-16 02:00,ZHHH 160200Z 23004MPS 210V270 CAVOK 32/27 Q1001 NOSIG
ZHHH,2021-06-16 03:00,ZHHH 160300Z 23003MPS 190V270 CAVOK 33/27 Q1001 NOSIG
ZHHH,2021-06-16 04:00,ZHHH 160400Z 25003MPS 200V300 9999 FEW023TCU FEW023 34/27 Q1001 NOSIG
ZHHH,2021-06-16 05:00,ZHHH 160500Z 24003MPS 200V270 9999 SCT023TCU 35/26 Q1000 NOSIG
ZHHH,2021-06-16 06:00,ZHHH 160600Z 22005MPS 200V290 9999 SCT023TCU 36/25 Q1000 NOSIG
ZHHH,2021-06-16 07:00,ZHHH 160700Z 23005MPS 200V270 9999 FEW016 SCT020TCU 36/26 Q1000 NOSIG
ZHHH,2021-06-16 08:00,ZHHH 160800Z 24004MPS 9999 FEW020 FEW026TCU 35/25 Q0999 NOSIG
ZHHH,2021-06-16 09:00,ZHHH 160900Z 24005MPS 220V280 9999 FEW033 34/25 Q0999 NOSIG
ZHHH,2021-06-16 10:00,ZHHH 161000Z 23003MPS CAVOK 34/25 Q1000 NOSIG
ZHHH,2021-06-16 11:00,ZHHH 161100Z 23002MPS CAVOK 33/25 Q1000 NOSIG
ZHHH,2021-06-16 12:00,ZHHH 161200Z 00000MPS CAVOK 31/26 Q1001 NOSIG
ZHHH,2021-06-16 13:00,ZHHH 161300Z 36002MPS 270V060 CAVOK 30/28 Q1002 NOSIG
ZHHH,2021-06-16 14:00,ZHHH 161400Z 05004MPS CAVOK 29/28 Q1002 NOSIG
ZHHH,2021-06-16 15:00,ZHHH 161500Z 06005MPS CAVOK 29/27 Q1002 NOSIG
ZHHH,2021-06-16 16:00,ZHHH 161600Z 01002MPS 340V050 CAVOK 28/27 Q1002 NOSIG
ZHHH,2021-06-16 17:00,ZHHH 161700Z 03003MPS CAVOK 27/27 Q1002 NOSIG
ZHHH,2021-06-16 18:00,ZHHH 161800Z 04002MPS 350V070 9999 SCT040 27/27 Q1002 NOSIG
ZHHH,2021-06-16 19:00,ZHHH 161900Z 04002MPS 360V060 9999 FEW006 27/27 Q1002 NOSIG
ZHHH,2021-06-16 20:00,ZHHH 162000Z 05003MPS CAVOK 26/26 Q1002 NOSIG
ZHHH,2021-06-16 21:00,ZHHH 162100Z 04004MPS 9999 FEW010 26/26 Q1002 NOSIG
ZHHH,2021-06-16 22:00,ZHHH 162200Z 06002MPS 9999 FEW020 26/26 Q1003 NOSIG
ZHHH,2021-06-16 23:00,ZHHH 162300Z 04003MPS CAVOK 27/26 Q1003 NOSIG
ZHHH,2021-06-17 00:00,ZHHH 170000Z 04004MPS 9999 SCT020 27/26 Q1004 NOSIG
ZHHH,2021-06-17 01:00,ZHHH 170100Z 04003MPS 350V060 9999 SCT020 26/25 Q1004 NOSIG
ZHHH,2021-06-17 02:00,ZHHH 170200Z 04003MPS 350V050 9999 SCT020 26/25 Q1004 NOSIG
ZHHH,2021-06-17 03:00,ZHHH 170300Z 04005MPS 9999 SCT023 26/24 Q1004 NOSIG
ZHHH,2021-06-17 04:00,ZHHH 170400Z 03004MPS 360V060 9999 SCT023 26/24 Q1004 NOSIG
ZHHH,2021-06-17 05:00,ZHHH 170500Z 03004MPS 9999 SCT023 OVC040 26/24 Q1004 NOSIG
ZHHH,2021-06-17 06:00,ZHHH 170600Z 36002MPS 300V040 9999 BKN020 OVC040 26/25 Q1004 NOSIG
ZHHH,2021-06-17 07:00,ZHHH 170700Z 35003MPS 270V080 9999 BKN020 OVC040 26/25 Q1004 NOSIG
ZHHH,2021-06-17 08:00,ZHHH 170800Z 02003MPS 340V060 9999 SCT026 27/22 Q1004 NOSIG
ZHHH,2021-06-17 09:00,ZHHH 170900Z 36002MPS 270V070 9999 SCT026 26/24 Q1004 NOSIG
ZHHH,2021-06-17 10:00,ZHHH 171000Z 03003MPS 350V060 9999 SCT026 26/23 Q1004 NOSIG
ZHHH,2021-06-17 11:00,ZHHH 171100Z 03004MPS 9999 OVC040 26/22 Q1005 NOSIG
ZHHH,2021-06-17 12:00,ZHHH 171200Z 02003MPS 340V050 9999 OVC040 25/22 Q1005 NOSIG
ZHHH,2021-06-17 13:00,ZHHH 171300Z 02004MPS 350V050 9999 OVC040 25/22 Q1006 NOSIG
ZHHH,2021-06-17 14:00,ZHHH 171400Z 03002MPS 350V060 9999 OVC040 24/22 Q1006 NOSIG
ZHHH,2021-06-17 15:00,ZHHH 171500Z 01002MPS 320V050 9999 OVC040 24/23 Q1006 NOSIG
ZHHH,2021-06-17 16:00,ZHHH 171600Z 36002MPS 320V060 9999 OVC040 24/23 Q1005 NOSIG
ZHHH,2021-06-17 17:00,ZHHH 171700Z 01002MPS 340V050 9999 OVC040 24/22 Q1005 NOSIG
ZHHH,2021-06-17 18:00,ZHHH 171800Z 35002MPS 310V030 9999 OVC040 24/22 Q1005 NOSIG
ZHHH,2021-06-17 19:00,ZHHH 171900Z 36002MPS 270V040 9999 OVC040 24/22 Q1004 NOSIG
ZHHH,2021-06-17 20:00,ZHHH 172000Z VRB01MPS 9999 OVC040 24/22 Q1004 NOSIG
ZHHH,2021-06-17 21:00,ZHHH 172100Z 36002MPS 310V060 9999 OVC040 24/22 Q1004 NOSIG
ZHHH,2021-06-17 22:00,ZHHH 172200Z 35002MPS 280V030 9999 SCT026 OVC040 24/22 Q1005 NOSIG
ZHHH,2021-06-17 23:00,ZHHH 172300Z 36002MPS 320V040 5000 -RA BR FEW012 OVC040 22/22 Q1005 RESHRA NOSIG
ZHHH,2021-06-18 00:00,ZHHH 180000Z 36002MPS 330V060 5000 BR FEW011 OVC040 22/22 Q1005 NOSIG
ZHHH,2021-06-18 01:00,ZHHH 180100Z VRB01MPS 7000 -RA FEW015 22/22 Q1006 NOSIG
ZHHH,2021-06-18 02:00,ZHHH 180200Z 03002MPS 350V050 8000 -RA NSC 23/23 Q1006 NOSIG
ZHHH,2021-06-18 03:00,ZHHH 180300Z 02002MPS 340V070 9999 FEW014 25/21 Q1005 NOSIG
ZHHH,2021-06-18 04:00,ZHHH 180400Z VRB01MPS 9999 SCT020 25/22 Q1005 NOSIG
ZHHH,2021-06-18 05:00,ZHHH 180500Z 01003MPS 330V050 9999 SCT023 26/19 Q1005 NOSIG
ZHHH,2021-06-18 06:00,ZHHH 180600Z 01003MPS 320V050 9999 FEW023 SCT033 26/19 Q1005 NOSIG
ZHHH,2021-06-18 07:00,ZHHH 180700Z 01003MPS 310V040 CAVOK 26/19 Q1004 NOSIG
ZHHH,2021-06-18 08:00,ZHHH 180800Z 01003MPS 320V040 9999 FEW020 26/19 Q1004 NOSIG
ZHHH,2021-06-18 09:00,ZHHH 180900Z 02004MPS 350V060 9999 SCT040 24/20 Q1004 NOSIG
ZHHH,2021-06-18 10:00,ZHHH 181000Z 03004MPS CAVOK 23/19 Q1004 NOSIG
ZHHH,2021-06-18 11:00,ZHHH 181100Z 03002MPS 360V060 9999 -RA FEW015 22/20 Q1005 NOSIG
ZHHH,2021-06-18 12:00,ZHHH 181200Z 03002MPS 360V060 CAVOK 22/19 Q1005 NOSIG
ZHHH,2021-06-18 13:00,ZHHH 181300Z 02002MPS 330V050 CAVOK 22/19 Q1005 NOSIG
ZHHH,2021-06-18 14:00,ZHHH 181400Z VRB02MPS CAVOK 22/20 Q1005 NOSIG
ZHHH,2021-06-18 15:00,ZHHH 181500Z 35003MPS 310V030 CAVOK 22/20 Q1005 NOSIG
ZHHH,2021-06-18 16:00,ZHHH 181600Z 35002MPS 300V030 CAVOK 22/20 Q1005 NOSIG
ZHHH,2021-06-18 17:00,ZHHH 181700Z 36003MPS 320V040 9999 -RA NSC 22/20 Q1004 NOSIG
ZHHH,2021-06-18 18:00,ZHHH 181800Z 36002MPS 320V050 9999 -RA FEW010 22/20 Q1004 NOSIG
ZHHH,2021-06-18 19:00,ZHHH 181900Z 01002MPS 340V040 6000 -RA FEW010 BKN020 21/21 Q1004 NOSIG
ZHHH,2021-06-18 20:00,ZHHH 182000Z 03002MPS 340V060 9999 -RA FEW010 20/20 Q1004 NOSIG
ZHHH,2021-06-18 21:00,ZHHH 182100Z 03002MPS 360V060 4000 SHRA SCT008 FEW030CB BKN040 19/19 Q1004 BECMG TL2230 -TSRA
ZHHH,2021-06-18 22:00,ZHHH 182200Z VRB01MPS 4000 -RA BR FEW008 OVC040 19/19 Q1004 RESHRA BECMG TL2330 RA
ZHHH,2021-06-18 23:00,ZHHH 182300Z VRB01MPS 3500 -SHRA BR SCT008 FEW030CB BKN040 19/19 Q1004 RESHRA NOSIG
ZHHH,2021-06-19 00:00,ZHHH 190000Z 05002MPS 020V080 9999 SCT008 BKN033 20/20 Q1004 NOSIG
ZHHH,2021-06-19 01:00,ZHHH 190100Z VRB01MPS 9999 SCT016 20/20 Q1004 NOSIG
ZHHH,2021-06-19 02:00,ZHHH 190200Z VRB01MPS 9999 -RA SCT011 OVC040 21/21 Q1005 NOSIG
ZHHH,2021-06-19 03:00,ZHHH 190300Z 36002MPS 310V040 9999 FEW008 SCT012 22/21 Q1004 NOSIG
ZHHH,2021-06-19 04:00,ZHHH 190400Z 36002MPS 270V060 9999 SCT012 22/21 Q1004 NOSIG
ZHHH,2021-06-19 05:00,ZHHH 190500Z 35002MPS 270V070 9999 SCT015 22/21 Q1004 BECMG TL0600 SHRA
ZHHH,2021-06-19 06:00,ZHHH 190600Z 02002MPS 340V060 6000 SHRA SCT012 21/21 Q1003 NOSIG
ZHHH,2021-06-19 07:00,ZHHH 190700Z VRB01MPS 6000 -RA SCT012 21/21 Q1003 RESHRA NOSIG
ZHHH,2021-06-19 08:00,ZHHH 190800Z VRB01MPS 9999 -RA SCT008 21/21 Q1003 NOSIG
ZHHH,2021-06-19 09:00,ZHHH 190900Z 35002MPS 300V050 9999 SCT008 22/22 Q1002 NOSIG
ZHHH,2021-06-19 10:00,ZHHH 191000Z VRB01MPS 9999 -RA SCT020 OVC040 22/22 Q1003 NOSIG
ZHHH,2021-06-19 11:00,ZHHH 191100Z VRB01MPS 9999 -RA SCT011 BKN040 21/21 Q1003 NOSIG
ZHHH,2021-06-19 12:00,ZHHH 191200Z VRB01MPS 9999 SCT023 OVC040 21/21 Q1003 NOSIG
ZHHH,2021-06-19 13:00,ZHHH 191300Z VRB01MPS 9999 -RA FEW015 OVC020 22/22 Q1003 NOSIG
ZHHH,2021-06-19 14:00,ZHHH 191400Z VRB01MPS 9999 -RA FEW020 OVC026 22/22 Q1003 NOSIG
ZHHH,2021-06-19 15:00,ZHHH 191500Z 22001MPS 6000 FEW007 SCT014 OVC040 22/22 Q1003 NOSIG
ZHHH,2021-06-19 16:00,ZHHH 191600Z VRB01MPS 6000 FEW007 SCT015 OVC040 22/22 Q1003 NOSIG
ZHHH,2021-06-19 17:00,ZHHH 191700Z VRB01MPS 6000 SCT008 22/22 Q1002 NOSIG
ZHHH,2021-06-19 18:00,ZHHH 191800Z VRB02MPS 6000 SCT008 22/22 Q1002 NOSIG
ZHHH,2021-06-19 19:00,ZHHH 191900Z VRB01MPS 6000 SCT008 22/22 Q1002 NOSIG
ZHHH,2021-06-19 20:00,ZHHH 192000Z 02002MPS 6000 NSC 21/21 Q1001 NOSIG
ZHHH,2021-06-19 21:00,ZHHH 192100Z VRB01MPS 5000 BR NSC 21/21 Q1001 NOSIG
ZHHH,2021-06-19 22:00,ZHHH 192200Z 03001MPS 3500 BR NSC 21/21 Q1002 NOSIG
ZHHH,2021-06-19 23:00,ZHHH 192300Z VRB01MPS 4000 BR SCT010 21/21 Q1003 NOSIG
ZHHH,2021-06-20 00:00,ZHHH 200000Z VRB01MPS 5000 BR SCT010 22/22 Q1003 NOSIG
ZHHH,2021-06-20 01:00,ZHHH 200100Z VRB01MPS 5000 BR SCT012 22/22 Q1003 NOSIG
ZHHH,2021-06-20 02:00,ZHHH 200200Z VRB01MPS 6000 FEW012 24/23 Q1003 NOSIG
ZHHH,2021-06-20 03:00,ZHHH 200300Z VRB01MPS 6000 SCT014 24/23 Q1003 NOSIG
ZHHH,2021-06-20 04:00,ZHHH 200400Z VRB01MPS 8000 SCT014 24/22 Q1003 NOSIG
ZHHH,2021-06-20 05:00,ZHHH 200500Z 30002MPS 240V360 8000 SCT014 25/22 Q1003 NOSIG
ZHHH,2021-06-20 06:00,ZHHH 200600Z 31002MPS 240V360 9999 SCT020 26/22 Q1002 NOSIG
ZHHH,2021-06-20 07:00,ZHHH 200700Z 26002MPS 230V330 9999 SCT020 27/22 Q1002 NOSIG
ZHHH,2021-06-20 08:00,ZHHH 200800Z VRB01MPS 9999 SCT020 27/21 Q1001 NOSIG
ZHHH,2021-06-20 09:00,ZHHH 200900Z VRB01MPS 9999 SCT020 28/22 Q1001 NOSIG
ZHHH,2021-06-20 10:00,ZHHH 201000Z 25002MPS 210V300 9999 FEW026 27/22 Q1001 NOSIG
ZHHH,2021-06-20 11:00,ZHHH 201100Z 27002MPS 240V300 CAVOK 27/22 Q1002 NOSIG
ZHHH,2021-06-20 12:00,ZHHH 201200Z VRB01MPS CAVOK 26/22 Q1002 NOSIG
ZHHH,2021-06-20 13:00,ZHHH 201300Z VRB01MPS CAVOK 26/23 Q1003 NOSIG
ZHHH,2021-06-20 14:00,ZHHH 201400Z VRB01MPS CAVOK 26/23 Q1003 NOSIG
ZHHH,2021-06-20 15:00,ZHHH 201500Z 23002MPS 220V280 CAVOK 26/23 Q1003 NOSIG
ZHHH,2021-06-20 16:00,ZHHH 201600Z 23002MPS CAVOK 25/24 Q1003 NOSIG
ZHHH,2021-06-20 17:00,ZHHH 201700Z 24002MPS CAVOK 25/24 Q1002 NOSIG
ZHHH,2021-06-20 18:00,ZHHH 201800Z 24002MPS CAVOK 24/24 Q1002 NOSIG
ZHHH,2021-06-20 19:00,ZHHH 201900Z 24002MPS 220V280 7000 NSC 24/24 Q1002 NOSIG
ZHHH,2021-06-20 20:00,ZHHH 202000Z 24002MPS 200V270 7000 NSC 24/24 Q1002 NOSIG
ZHHH,2021-06-20 21:00,ZHHH 202100Z 23002MPS 5000 BR NSC 24/24 Q1002 NOSIG
ZHHH,2021-06-20 22:00,ZHHH 202200Z VRB01MPS 3000 BR NSC 24/24 Q1002 NOSIG
ZHHH,2021-06-20 23:00,ZHHH 202300Z 23002MPS 3000 BR NSC 24/24 Q1003 NOSIG
ZHHH,2021-06-21 00:00,ZHHH 210000Z 24002MPS 210V270 3000 BR NSC 25/24 Q1004 NOSIG
ZHHH,2021-06-21 01:00,ZHHH 210100Z 26002MPS 240V310 4500 BR NSC 26/24 Q1004 NOSIG
ZHHH,2021-06-21 02:00,ZHHH 210200Z VRB02MPS 4500 BR FEW016 27/23 Q1004 NOSIG
ZHHH,2021-06-21 03:00,ZHHH 210300Z 25002MPS 5000 BR NSC 27/23 Q1004 NOSIG
ZHHH,2021-06-21 04:00,ZHHH 210400Z 26002MPS 230V300 7000 NSC 27/24 Q1004 NOSIG
ZHHH,2021-06-21 05:00,ZHHH 210500Z 25002MPS 210V290 7000 NSC 28/24 Q1003 NOSIG
ZHHH,2021-06-21 06:00,ZHHH 210600Z 26002MPS 220V310 9000 FEW020TCU 28/24 Q1003 NOSIG
ZHHH,2021-06-21 07:00,ZHHH 210700Z 24002MPS 210V270 8000 NSC 28/24 Q1003 NOSIG
ZHHH,2021-06-21 08:00,ZHHH 210800Z 24002MPS 210V270 6000 NSC 28/25 Q1002 NOSIG
ZHHH,2021-06-21 09:00,ZHHH 210900Z 25002MPS 220V290 4500 BR NSC 27/25 Q1003 NOSIG
ZHHH,2021-06-21 10:00,ZHHH 211000Z 26002MPS 210V300 4500 BR NSC 27/25 Q1003 NOSIG
ZHHH,2021-06-21 11:00,ZHHH 211100Z 25002MPS 220V290 6000 NSC 27/24 Q1003 NOSIG
ZHHH,2021-06-21 12:00,ZHHH 211200Z 24002MPS 6000 NSC 26/25 Q1003 NOSIG
ZHHH,2021-06-21 13:00,ZHHH 211300Z 27002MPS 210V310 6000 NSC 26/25 Q1004 NOSIG
ZHHH,2021-06-21 14:00,ZHHH 211400Z VRB01MPS 6000 NSC 26/25 Q1004 NOSIG
ZHHH,2021-06-21 15:00,ZHHH 211500Z 23001MPS 5000 BR NSC 25/25 Q1004 NOSIG
ZHHH,2021-06-21 16:00,ZHHH 211600Z VRB01MPS 4500 BR NSC 25/25 Q1005 NOSIG
ZHHH,2021-06-21 17:00,ZHHH 211700Z VRB01MPS 4000 BR NSC 25/25 Q1004 NOSIG
ZHHH,2021-06-21 18:00,ZHHH 211800Z 25001MPS 2500 BR NSC 24/24 Q1004 NOSIG
ZHHH,2021-06-21 19:00,ZHHH 211900Z 00000MPS 2800 BR NSC 24/24 Q1004 NOSIG
ZHHH,2021-06-21 20:00,ZHHH 212000Z 00000MPS 2500 BR NSC 23/23 Q1004 NOSIG
ZHHH,2021-06-21 21:00,ZHHH 212100Z 00000MPS 1800 R04L/1500D R04R/1400N BR NSC 23/23 Q1005 BECMG TL2220 1400
ZHHH,2021-06-21 22:00,ZHHH 212200Z 00000MPS 1200 R04L/0600V1000U R04R/1000V1200U BR NSC 23/23 Q1005 BECMG TL2240 1800
ZHHH,2021-06-21 23:00,ZHHH 212300Z 05003MPS 0400 R04L/0300V0650D R04R/1400D FG VV001 23/23 Q1006 BECMG TL2340 0800
ZHHH,2021-06-22 00:00,ZHHH 220000Z 06002MPS 040V120 1600 R04L/P2000 R04R/1400U BR SCT003 24/24 Q1006 BECMG TL0110 3000
ZHHH,2021-06-22 01:00,ZHHH 220100Z VRB02MPS 4000 BR FEW025 27/25 Q1006 NOSIG
ZHHH,2021-06-22 02:00,ZHHH 220200Z VRB01MPS 6000 SCT025 29/25 Q1006 NOSIG
ZHHH,2021-06-22 03:00,ZHHH 220300Z VRB02MPS 8000 SCT025 29/25 Q1006 NOSIG
ZHHH,2021-06-22 04:00,ZHHH 220400Z VRB02MPS 9999 SCT026 30/24 Q1006 NOSIG
ZHHH,2021-06-22 05:00,ZHHH 220500Z 31002MPS 270V350 9999 SCT033 31/22 Q1006 NOSIG
ZHHH,2021-06-22 06:00,ZHHH 220600Z 32002MPS 220V030 9999 SCT030 32/22 Q1005 NOSIG
ZHHH,2021-06-22 07:00,ZHHH 220700Z 36002MPS 270V040 9999 FEW030 33/21 Q1005 NOSIG
ZHHH,2021-06-22 08:00,ZHHH 220800Z 01002MPS 330V050 9999 FEW030 33/21 Q1005 NOSIG
ZHHH,2021-06-22 09:00,ZHHH 220900Z 02002MPS 340V050 CAVOK 33/21 Q1004 NOSIG
ZHHH,2021-06-22 10:00,ZHHH 221000Z 00000MPS CAVOK 33/21 Q1005 NOSIG
ZHHH,2021-06-22 11:00,ZHHH 221100Z 13003MPS 080V160 CAVOK 32/19 Q1005 NOSIG
ZHHH,2021-06-22 12:00,ZHHH 221200Z 12002MPS 080V140 CAVOK 31/19 Q1005 NOSIG
ZHHH,2021-06-22 13:00,ZHHH 221300Z 12002MPS 080V160 CAVOK 28/20 Q1006 NOSIG
ZHHH,2021-06-22 14:00,ZHHH 221400Z VRB01MPS CAVOK 26/22 Q1006 NOSIG
ZHHH,2021-06-22 15:00,ZHHH 221500Z 04003MPS CAVOK 27/23 Q1007 NOSIG
ZHHH,2021-06-22 16:00,ZHHH 221600Z 05003MPS CAVOK 26/23 Q1006 NOSIG
ZHHH,2021-06-22 17:00,ZHHH 221700Z 08003MPS CAVOK 27/23 Q1007 NOSIG
ZHHH,2021-06-22 18:00,ZHHH 221800Z 05002MPS CAVOK 25/23 Q1006 NOSIG
ZHHH,2021-06-22 19:00,ZHHH 221900Z 04003MPS CAVOK 25/22 Q1006 NOSIG
ZHHH,2021-06-22 20:00,ZHHH 222000Z 04002MPS CAVOK 24/23 Q1006 NOSIG
ZHHH,2021-06-22 21:00,ZHHH 222100Z 04002MPS CAVOK 24/23 Q1007 NOSIG
ZHHH,2021-06-22 22:00,ZHHH 222200Z VRB01MPS 6000 NSC 23/23 Q1007 NOSIG
ZHHH,2021-06-22 23:00,ZHHH 222300Z 09003MPS 8000 NSC 25/23 Q1007 NOSIG
ZHHH,2021-06-23 00:00,ZHHH 230000Z 07004MPS 8000 NSC 27/22 Q1008 NOSIG
ZHHH,2021-06-23 01:00,ZHHH 230100Z 10003MPS 070V140 CAVOK 29/21 Q1008 NOSIG
ZHHH,2021-06-23 02:00,ZHHH 230200Z 11004MPS 070V150 CAVOK 30/19 Q1008 NOSIG
ZHHH,2021-06-23 03:00,ZHHH 230300Z 10004MPS 070V180 CAVOK 31/19 Q1008 NOSIG
ZHHH,2021-06-23 04:00,ZHHH 230400Z 12003MPS 060V170 CAVOK 32/18 Q1008 NOSIG
ZHHH,2021-06-23 05:00,ZHHH 230500Z 08004MPS 050V130 CAVOK 33/18 Q1007 NOSIG
ZHHH,2021-06-23 06:00,ZHHH 230600Z 09004MPS 050V160 CAVOK 33/17 Q1006 NOSIG
ZHHH,2021-06-23 07:00,ZHHH 230700Z 10004MPS 060V130 CAVOK 35/14 Q1006 NOSIG
ZHHH,2021-06-23 08:00,ZHHH 230800Z 09004MPS 060V130 CAVOK 34/14 Q1005 NOSIG
ZHHH,2021-06-23 09:00,ZHHH 230900Z 09003MPS 040V120 CAVOK 34/15 Q1005 NOSIG
ZHHH,2021-06-23 10:00,ZHHH 231000Z 11004MPS 070V150 CAVOK 34/16 Q1005 NOSIG
ZHHH,2021-06-23 11:00,ZHHH 231100Z 12003MPS 070V150 CAVOK 32/17 Q1005 NOSIG
ZHHH,2021-06-23 12:00,ZHHH 231200Z 09003MPS CAVOK 32/18 Q1006 NOSIG
ZHHH,2021-06-23 13:00,ZHHH 231300Z 10003MPS CAVOK 31/19 Q1006 NOSIG
ZHHH,2021-06-23 14:00,ZHHH 231400Z 14003MPS 090V160 CAVOK 30/18 Q1007 NOSIG
ZHHH,2021-06-23 15:00,ZHHH 231500Z 13003MPS CAVOK 29/18 Q1007 NOSIG
ZHHH,2021-06-23 16:00,ZHHH 231600Z 12002MPS CAVOK 29/18 Q1007 NOSIG
ZHHH,2021-06-23 17:00,ZHHH 231700Z 08003MPS CAVOK 28/19 Q1006 NOSIG
ZHHH,2021-06-23 18:00,ZHHH 231800Z 04002MPS CAVOK 25/20 Q1006 NOSIG
ZHHH,2021-06-23 19:00,ZHHH 231900Z 07003MPS CAVOK 26/23 Q1006 NOSIG
ZHHH,2021-06-23 20:00,ZHHH 232000Z 06003MPS CAVOK 26/23 Q1005 NOSIG
ZHHH,2021-06-23 21:00,ZHHH 232100Z 08004MPS CAVOK 26/21 Q1005 NOSIG
ZHHH,2021-06-23 22:00,ZHHH 232200Z 07005MPS CAVOK 26/20 Q1006 NOSIG
ZHHH,2021-06-23 23:00,ZHHH 232300Z 09004MPS CAVOK 27/20 Q1005 NOSIG
ZHHH,2021-06-24 00:00,ZHHH 240000Z 11004MPS 060V130 CAVOK 29/21 Q1006 NOSIG
ZHHH,2021-06-24 01:00,ZHHH 240100Z 11005MPS 080V150 CAVOK 30/21 Q1006 NOSIG
ZHHH,2021-06-24 02:00,ZHHH 240200Z 11004MPS 060V150 CAVOK 32/21 Q1006 NOSIG
ZHHH,2021-06-24 03:00,ZHHH 240300Z 11004MPS 070V140 9999 FEW020 32/21 Q1006 NOSIG
ZHHH,2021-06-24 04:00,ZHHH 240400Z 11003MPS 360V170 9999 SCT033 33/21 Q1005 NOSIG
ZHHH,2021-06-24 05:00,ZHHH 240500Z 10003MPS 040V160 CAVOK 33/21 Q1005 NOSIG
ZHHH,2021-06-24 06:00,ZHHH 240600Z 12004MPS 080V160 CAVOK 33/22 Q1004 NOSIG
ZHHH,2021-06-24 07:00,ZHHH 240700Z 11004MPS 070V150 CAVOK 33/21 Q1004 NOSIG
ZHHH,2021-06-24 08:00,ZHHH 240800Z 11004MPS 070V140 CAVOK 33/22 Q1003 NOSIG
ZHHH,2021-06-24 09:00,ZHHH 240900Z 10004MPS 060V120 CAVOK 33/22 Q1003 NOSIG
ZHHH,2021-06-24 10:00,ZHHH 241000Z 11004MPS 080V150 CAVOK 32/21 Q1003 NOSIG
ZHHH,2021-06-24 11:00,ZHHH 241100Z 11004MPS 080V140 CAVOK 32/22 Q1003 NOSIG
ZHHH,2021-06-24 12:00,ZHHH 241200Z 12003MPS 080V140 CAVOK 31/22 Q1004 NOSIG
ZHHH,2021-06-24 13:00,ZHHH 241300Z 11004MPS 080V140 CAVOK 30/22 Q1004 NOSIG
ZHHH,2021-06-24 14:00,ZHHH 241400Z 12003MPS 070V140 CAVOK 30/22 Q1005 NOSIG
ZHHH,2021-06-24 15:00,ZHHH 241500Z 12003MPS CAVOK 29/23 Q1005 NOSIG
ZHHH,2021-06-24 16:00,ZHHH 241600Z 12003MPS CAVOK 29/22 Q1005 NOSIG
ZHHH,2021-06-24 17:00,ZHHH 241700Z 10003MPS CAVOK 28/22 Q1004 NOSIG
ZHHH,2021-06-24 18:00,ZHHH 241800Z 09003MPS CAVOK 28/22 Q1004 NOSIG
ZHHH,2021-06-24 19:00,ZHHH 241900Z 07003MPS CAVOK 27/22 Q1004 NOSIG
ZHHH,2021-06-24 20:00,ZHHH 242000Z 09003MPS CAVOK 27/23 Q1004 NOSIG
ZHHH,2021-06-24 21:00,ZHHH 242100Z 09003MPS CAVOK 27/23 Q1004 NOSIG
ZHHH,2021-06-24 22:00,ZHHH 242200Z 09003MPS CAVOK 27/23 Q1004 NOSIG
ZHHH,2021-06-24 23:00,ZHHH 242300Z 11003MPS CAVOK 27/24 Q1004 NOSIG
ZHHH,2021-06-25 00:00,ZHHH 250000Z 13003MPS 070V210 CAVOK 29/23 Q1004 NOSIG
ZHHH,2021-06-25 01:00,ZHHH 250100Z 20002MPS 130V260 CAVOK 30/23 Q1004 NOSIG
ZHHH,2021-06-25 02:00,ZHHH 250200Z 31002MPS 240V360 9999 FEW020TCU SCT026 31/23 Q1004 NOSIG
ZHHH,2021-06-25 03:00,ZHHH 250300Z VRB01MPS 9999 FEW026TCU SCT033 32/24 Q1004 NOSIG
ZHHH,2021-06-25 04:00,ZHHH 250400Z VRB01MPS 9999 SCT025 32/23 Q1004 NOSIG
ZHHH,2021-06-25 05:00,ZHHH 250500Z 31002MPS 250V360 9999 SCT025 32/23 Q1003 NOSIG
ZHHH,2021-06-25 06:00,ZHHH 250600Z 28002MPS 200V340 9999 FEW025TCU 33/22 Q1003 NOSIG
ZHHH,2021-06-25 07:00,ZHHH 250700Z VRB02MPS 9999 FEW025TCU 34/22 Q1002 NOSIG
ZHHH,2021-06-25 08:00,ZHHH 250800Z 28002MPS 230V020 9999 FEW030 35/22 Q1002 NOSIG
ZHHH,2021-06-25 09:00,ZHHH 250900Z 34002MPS 280V040 9999 FEW030 34/22 Q1001 NOSIG
ZHHH,2021-06-25 10:00,ZHHH 251000Z VRB01MPS 9999 FEW030 34/22 Q1001 NOSIG
ZHHH,2021-06-25 11:00,ZHHH 251100Z VRB01MPS 9999 FEW040 33/24 Q1001 NOSIG
ZHHH,2021-06-25 12:00,ZHHH 251200Z 03002MPS CAVOK 31/22 Q1002 NOSIG
ZHHH,2021-06-25 13:00,ZHHH 251300Z 03004MPS 350V060 CAVOK 30/24 Q1002 NOSIG
ZHHH,2021-06-25 14:00,ZHHH 251400Z 05006MPS CAVOK 29/26 Q1003 NOSIG
ZHHH,2021-06-25 15:00,ZHHH 251500Z 05004MPS CAVOK 28/26 Q1003 NOSIG
ZHHH,2021-06-25 16:00,ZHHH 251600Z 08004MPS CAVOK 28/25 Q1003 NOSIG
ZHHH,2021-06-25 17:00,ZHHH 251700Z 09003MPS CAVOK 28/26 Q1003 NOSIG
ZHHH,2021-06-25 18:00,ZHHH 251800Z 06003MPS CAVOK 28/26 Q1002 NOSIG
ZHHH,2021-06-25 19:00,ZHHH 251900Z 08003MPS 050V110 CAVOK 28/26 Q1002 NOSIG
ZHHH,2021-06-25 20:00,ZHHH 252000Z 08003MPS CAVOK 27/26 Q1001 NOSIG
ZHHH,2021-06-25 21:00,ZHHH 252100Z 08003MPS CAVOK 28/27 Q1002 NOSIG
ZHHH,2021-06-25 22:00,ZHHH 252200Z 09003MPS 6000 NSC 28/27 Q1002 NOSIG
ZHHH,2021-06-25 23:00,ZHHH 252300Z 09004MPS 6000 NSC 28/27 Q1002 NOSIG
ZHHH,2021-06-26 00:00,ZHHH 260000Z 12004MPS 080V140 6000 NSC 29/27 Q1003 NOSIG
ZHHH,2021-06-26 01:00,ZHHH 260100Z 10004MPS 070V130 6000 NSC 31/26 Q1002 NOSIG
ZHHH,2021-06-26 02:00,ZHHH 260200Z 15002MPS 070V210 7000 FEW023 32/27 Q1003 NOSIG
ZHHH,2021-06-26 03:00,ZHHH 260300Z 18003MPS 120V240 8000 SCT030 33/26 Q1003 NOSIG
ZHHH,2021-06-26 04:00,ZHHH 260400Z 23003MPS 170V300 8000 SCT030 33/26 Q1002 NOSIG
ZHHH,2021-06-26 05:00,ZHHH 260500Z 22004MPS 180V240 9999 SCT030 34/26 Q1002 NOSIG
ZHHH,2021-06-26 06:00,ZHHH 260600Z 21003MPS 170V250 9999 SCT030 34/26 Q1001 NOSIG
ZHHH,2021-06-26 07:00,ZHHH 260700Z VRB02MPS 9999 SCT030 34/26 Q1001 NOSIG
ZHHH,2021-06-26 08:00,ZHHH 260800Z 03003MPS 340V060 9999 SCT030 30/27 Q1001 NOSIG
ZHHH,2021-06-26 09:00,ZHHH 260900Z 04006MPS 9999 FEW023CB SCT030 28/26 Q1001 BECMG TL0920 TSRA
ZHHH,2021-06-26 10:00,ZHHH 261000Z 01004MPS 310V040 6000 -RA FEW011 FEW023CB 26/26 Q1001 RESHRA NOSIG
ZHHH,2021-06-26 11:00,ZHHH 261100Z 10003MPS 040V140 6000 NSC 27/27 Q1002 NOSIG
ZHHH,2021-06-26 12:00,ZHHH 261200Z 09004MPS 7000 NSC 28/27 Q1002 NOSIG
ZHHH,2021-06-26 13:00,ZHHH 261300Z 08004MPS 7000 NSC 28/27 Q1001 NOSIG
ZHHH,2021-06-26 14:00,ZHHH 261400Z 11003MPS 7000 NSC 28/27 Q1002 NOSIG
ZHHH,2021-06-26 15:00,ZHHH 261500Z 08003MPS 6000 NSC 28/28 Q1002 NOSIG
ZHHH,2021-06-26 16:00,ZHHH 261600Z 07003MPS 6000 NSC 27/27 Q1002 NOSIG
ZHHH,2021-06-26 17:00,ZHHH 261700Z 09003MPS 6000 NSC 28/28 Q1001 NOSIG
ZHHH,2021-06-26 18:00,ZHHH 261800Z 09003MPS 6000 NSC 28/27 Q1001 NOSIG
ZHHH,2021-06-26 19:00,ZHHH 261900Z 09003MPS 9999 -RA NSC 27/27 Q1001 NOSIG
ZHHH,2021-06-26 20:00,ZHHH 262000Z 36001MPS 6000 SHRA FEW020 FEW023CB 26/26 Q1001 BECMG TL2110 TSRA
ZHHH,2021-06-26 21:00,ZHHH 262100Z VRB01MPS 6000 SHRA FEW005 FEW023CB BKN030 26/26 Q1001 NOSIG
ZHHH,2021-06-26 22:00,ZHHH 262200Z 00000MPS 4000 -RA BR SCT010 OVC040 26/26 Q1001 RESHRA BECMG TL2340 RA
ZHHH,2021-06-26 23:00,ZHHH 262300Z VRB01MPS 5000 -RA BR FEW010 OVC040 26/26 Q1001 BECMG TL0040 SHRA
ZHHH,2021-06-27 00:00,ZHHH 270000Z VRB01MPS 6000 FEW010 OVC040 27/27 Q1001 NOSIG
ZHHH,2021-06-27 01:00,ZHHH 270100Z 03002MPS 350V050 6000 SCT008 OVC033 26/26 Q1002 NOSIG
ZHHH,2021-06-27 02:00,ZHHH 270200Z 06003MPS 9999 FEW015 SCT026 OVC040 27/27 Q1002 NOSIG
ZHHH,2021-06-27 03:00,ZHHH 270300Z 05004MPS 9999 -RA FEW015 SCT020 OVC033 27/27 Q1001 NOSIG
ZHHH,2021-06-27 04:00,ZHHH 270400Z 02003MPS 340V060 3500 SHRA BR FEW007 SCT013 FEW030CB BKN030 27/27 Q1001 BECMG TL0540 -RA
ZHHH,2021-06-27 05:00,ZHHH 270500Z VRB01MPS 9999 -RA SCT006 SCT011 OVC030 26/26 Q1001 RETSRA NOSIG
ZHHH,2021-06-27 06:00,ZHHH 270600Z 06004MPS 9999 SCT020 SCT033 26/26 Q1000 NOSIG
ZHHH,2021-06-27 07:00,ZHHH 270700Z 05002MPS 360V090 9999 SCT020 28/28 Q1000 NOSIG
ZHHH,2021-06-27 08:00,ZHHH 270800Z 08002MPS 020V110 9999 FEW020TCU BKN023 28/28 Q1000 NOSIG
ZHHH,2021-06-27 09:00,ZHHH 270900Z VRB01MPS 9999 SCT023 29/27 Q0999 NOSIG
ZHHH,2021-06-27 10:00,ZHHH 271000Z 36002MPS 320V030 9999 SCT020 29/28 Q0999 NOSIG
ZHHH,2021-06-27 11:00,ZHHH 271100Z VRB01MPS 9999 SCT020 28/28 Q1000 NOSIG
ZHHH,2021-06-27 12:00,ZHHH 271200Z 03002MPS CAVOK 28/27 Q1000 NOSIG
ZHHH,2021-06-27 13:00,ZHHH 271300Z 02002MPS 340V050 CAVOK 27/27 Q1001 NOSIG
ZHHH,2021-06-27 14:00,ZHHH 271400Z 35001MPS CAVOK 27/27 Q1001 NOSIG
ZHHH,2021-06-27 15:00,ZHHH 271500Z 03002MPS CAVOK 27/27 Q1001 NOSIG
ZHHH,2021-06-27 16:00,ZHHH 271600Z 02002MPS 340V050 CAVOK 27/27 Q1001 NOSIG
ZHHH,2021-06-27 17:00,ZHHH 271700Z 02002MPS CAVOK 26/26 Q1001 NOSIG
ZHHH,2021-06-27 18:00,ZHHH 271800Z VRB01MPS CAVOK 26/26 Q1001 NOSIG
ZHHH,2021-06-27 19:00,ZHHH 271900Z 02002MPS CAVOK 25/25 Q1000 NOSIG
ZHHH,2021-06-27 20:00,ZHHH 272000Z 02002MPS CAVOK 25/25 Q1001 NOSIG
ZHHH,2021-06-27 21:00,ZHHH 272100Z 03003MPS 360V070 CAVOK 25/25 Q1001 NOSIG
ZHHH,2021-06-27 22:00,ZHHH 272200Z 03002MPS CAVOK 25/25 Q1001 NOSIG
ZHHH,2021-06-27 23:00,ZHHH 272300Z 04003MPS 350V060 CAVOK 26/26 Q1002 NOSIG
ZHHH,2021-06-28 00:00,ZHHH 280000Z 05003MPS 360V080 9999 FEW023 28/26 Q1002 NOSIG
ZHHH,2021-06-28 01:00,ZHHH 280100Z 06005MPS CAVOK 29/25 Q1002 NOSIG
ZHHH,2021-06-28 02:00,ZHHH 280200Z 04004MPS 350V090 9999 FEW025 30/25 Q1002 NOSIG
ZHHH,2021-06-28 03:00,ZHHH 280300Z 04004MPS 350V090 9999 SCT025 31/26 Q1002 NOSIG
ZHHH,2021-06-28 04:00,ZHHH 280400Z 05004MPS 350V090 9999 BKN026 32/25 Q1001 NOSIG
ZHHH,2021-06-28 05:00,ZHHH 280500Z 02003MPS 330V060 9999 BKN026 33/26 Q1001 NOSIG
ZHHH,2021-06-28 06:00,ZHHH 280600Z 04003MPS 350V080 9999 SCT033 34/25 Q1001 NOSIG
ZHHH,2021-06-28 07:00,ZHHH 280700Z 05004MPS 010V100 9999 BKN033 34/23 Q1000 NOSIG
ZHHH,2021-06-28 08:00,ZHHH 280800Z 07005MPS 9999 SCT033 34/22 Q1000 NOSIG
ZHHH,2021-06-28 09:00,ZHHH 280900Z 02002MPS 320V060 9999 SCT040 33/24 Q1000 NOSIG
ZHHH,2021-06-28 10:00,ZHHH 281000Z 03003MPS 350V060 9999 FEW040 32/24 Q0999 NOSIG
ZHHH,2021-06-28 11:00,ZHHH 281100Z 03003MPS CAVOK 31/25 Q1000 NOSIG
ZHHH,2021-06-28 12:00,ZHHH 281200Z 03003MPS CAVOK 30/24 Q1000 NOSIG
ZHHH,2021-06-28 13:00,ZHHH 281300Z 03003MPS CAVOK 29/25 Q1001 NOSIG
ZHHH,2021-06-28 14:00,ZHHH 281400Z 03002MPS CAVOK 29/25 Q1002 NOSIG
ZHHH,2021-06-28 15:00,ZHHH 281500Z 04002MPS CAVOK 28/26 Q1002 NOSIG
ZHHH,2021-06-28 16:00,ZHHH 281600Z 04002MPS CAVOK 27/26 Q1002 NOSIG
ZHHH,2021-06-28 17:00,ZHHH 281700Z 04002MPS CAVOK 27/26 Q1002 NOSIG
ZHHH,2021-06-28 18:00,ZHHH 281800Z 10003MPS CAVOK 27/26 Q1001 NOSIG
ZHHH,2021-06-28 19:00,ZHHH 281900Z 09003MPS CAVOK 28/25 Q1001 NOSIG
ZHHH,2021-06-28 20:00,ZHHH 282000Z 06003MPS CAVOK 26/26 Q1001 NOSIG
ZHHH,2021-06-28 21:00,ZHHH 282100Z 07003MPS CAVOK 27/26 Q1001 NOSIG
ZHHH,2021-06-28 22:00,ZHHH 282200Z 06003MPS 6000 NSC 26/26 Q1002 NOSIG
ZHHH,2021-06-28 23:00,ZHHH 282300Z 11003MPS 6000 NSC 28/26 Q1002 NOSIG
ZHHH,2021-06-29 00:00,ZHHH 290000Z 09003MPS 050V110 6000 NSC 29/25 Q1002 NOSIG
ZHHH,2021-06-29 01:00,ZHHH 290100Z 10003MPS 060V130 6000 NSC 30/26 Q1002 NOSIG
ZHHH,2021-06-29 02:00,ZHHH 290200Z 11003MPS 070V160 6000 NSC 31/25 Q1002 NOSIG
ZHHH,2021-06-29 03:00,ZHHH 290300Z VRB02MPS 6000 NSC 32/25 Q1002 NOSIG
ZHHH,2021-06-29 04:00,ZHHH 290400Z VRB02MPS 8000 SCT030TCU 34/25 Q1002 NOSIG
ZHHH,2021-06-29 05:00,ZHHH 290500Z VRB01MPS 9999 FEW030TCU SCT040 33/25 Q1001 NOSIG
ZHHH,2021-06-29 06:00,ZHHH 290600Z VRB01MPS 9999 BKN040 33/26 Q1001 NOSIG
ZHHH,2021-06-29 07:00,ZHHH 290700Z VRB02MPS 9999 FEW040 34/24 Q1000 NOSIG
ZHHH,2021-06-29 08:00,ZHHH 290800Z VRB01MPS 9999 FEW040 33/25 Q1000 NOSIG
ZHHH,2021-06-29 09:00,ZHHH 290900Z 11002MPS 040V190 9999 FEW033 34/23 Q0999 NOSIG
ZHHH,2021-06-29 10:00,ZHHH 291000Z 13002MPS 060V200 CAVOK 33/23 Q0999 NOSIG
ZHHH,2021-06-29 11:00,ZHHH 291100Z 00000MPS CAVOK 31/26 Q0999 NOSIG
ZHHH,2021-06-29 12:00,ZHHH 291200Z 00000MPS CAVOK 29/27 Q1000 NOSIG
ZHHH,2021-06-29 13:00,ZHHH 291300Z 12002MPS 080V160 CAVOK 32/25 Q1000 NOSIG
ZHHH,2021-06-29 14:00,ZHHH 291400Z 12003MPS CAVOK 32/25 Q1001 NOSIG
ZHHH,2021-06-29 15:00,ZHHH 291500Z VRB01MPS CAVOK 30/26 Q1001 NOSIG
ZHHH,2021-06-29 16:00,ZHHH 291600Z 23001MPS CAVOK 29/26 Q1001 NOSIG
ZHHH,2021-06-29 17:00,ZHHH 291700Z 24002MPS CAVOK 29/27 Q1001 NOSIG
ZHHH,2021-06-29 18:00,ZHHH 291800Z VRB01MPS CAVOK 28/27 Q1000 NOSIG
ZHHH,2021-06-29 19:00,ZHHH 291900Z 34002MPS CAVOK 28/28 Q1000 NOSIG
ZHHH,2021-06-29 20:00,ZHHH 292000Z 06002MPS CAVOK 28/28 Q1000 NOSIG
ZHHH,2021-06-29 21:00,ZHHH 292100Z 10002MPS 040V120 7000 NSC 28/28 Q1000 NOSIG
ZHHH,2021-06-29 22:00,ZHHH 292200Z 10003MPS 5000 BR NSC 29/28 Q1000 NOSIG
ZHHH,2021-06-29 23:00,ZHHH 292300Z 12003MPS 5000 BR NSC 29/28 Q1001 NOSIG
ZHHH,2021-06-30 00:00,ZHHH 300000Z 10002MPS 050V140 5000 BR NSC 30/28 Q1002 NOSIG
ZHHH,2021-06-30 01:00,ZHHH 300100Z 04002MPS 360V080 5000 BR NSC 30/29 Q1002 NOSIG
ZHHH,2021-06-30 02:00,ZHHH 300200Z VRB02MPS 6000 FEW023TCU 31/28 Q1002 NOSIG
ZHHH,2021-06-30 03:00,ZHHH 300300Z 09002MPS 030V120 6000 FEW023TCU FEW023 31/27 Q1002 NOSIG
ZHHH,2021-06-30 04:00,ZHHH 300400Z 12003MPS 090V150 5000 -RA BR FEW015 31/28 Q1002 NOSIG
ZHHH,2021-06-30 05:00,ZHHH 300500Z 18004MPS 140V210 9999 FEW023 31/26 Q1001 NOSIG
ZHHH,2021-06-30 06:00,ZHHH 300600Z 19004MPS 160V230 CAVOK 32/24 Q1002 NOSIG
ZHHH,2021-06-30 07:00,ZHHH 300700Z 22004MPS CAVOK 32/25 Q1001 NOSIG
ZHHH,2021-06-30 08:00,ZHHH 300800Z 26002MPS 220V300 CAVOK 32/25 Q1000 NOSIG
ZHHH,2021-06-30 09:00,ZHHH 300900Z 22003MPS 170V250 CAVOK 33/24 Q1000 NOSIG
ZHHH,2021-06-30 10:00,ZHHH 301000Z VRB02MPS CAVOK 33/24 Q1000 NOSIG
ZHHH,2021-06-30 11:00,ZHHH 301100Z 17003MPS 130V210 CAVOK 32/25 Q1000 NOSIG
ZHHH,2021-06-30 12:00,ZHHH 301200Z 20003MPS 160V220 CAVOK 31/25 Q1000 NOSIG
ZHHH,2021-06-30 13:00,ZHHH 301300Z 23003MPS 9999 SCT033 29/26 Q1002 NOSIG
ZHHH,2021-06-30 14:00,ZHHH 301400Z 24002MPS 220V280 8000 NSC 28/27 Q1002 NOSIG
ZHHH,2021-06-30 15:00,ZHHH 301500Z 00000MPS 8000 NSC 28/27 Q1002 NOSIG
ZHHH,2021-06-30 16:00,ZHHH 301600Z 35001MPS 7000 NSC 27/27 Q1002 NOSIG
ZHHH,2021-06-30 17:00,ZHHH 301700Z 03002MPS 6000 NSC 27/27 Q1002 NOSIG
ZHHH,2021-06-30 18:00,ZHHH 301800Z 03002MPS 6000 -RA NSC 27/27 Q1002 NOSIG
ZHHH,2021-06-30 19:00,ZHHH 301900Z 08004MPS 6000 NSC 28/28 Q1000 NOSIG
ZHHH,2021-06-30 20:00,ZHHH 302000Z 11004MPS 7000 NSC 28/27 Q1000 NOSIG
ZHHH,2021-06-30 21:00,ZHHH 302100Z 14003MPS 7000 NSC 28/27 Q1000 NOSIG
ZHHH,2021-06-30 22:00,ZHHH 302200Z 15003MPS 110V180 7000 NSC 28/27 Q1001 NOSIG
ZHHH,2021-06-30 23:00,ZHHH 302300Z 16003MPS 8000 SCT014 28/26 Q1001 NOSIG
ZHHH,2021-07-01 00:00,ZHHH 010000Z 16003MPS 8000 NSC 28/25 Q1001 NOSIG
ZHHH,2021-07-01 01:00,ZHHH 010100Z 09002MPS 060V120 9999 -RA FEW015 27/26 Q1002 NOSIG
ZHHH,2021-07-01 02:00,ZHHH 010200Z 11003MPS 050V170 9999 FEW023TCU SCT023 28/26 Q1002 NOSIG
ZHHH,2021-07-01 03:00,ZHHH 010300Z 14004MPS 9999 FEW023TCU SCT023 29/26 Q1001 NOSIG
ZHHH,2021-07-01 04:00,ZHHH 010400Z 13004MPS 080V160 9999 FEW023 FEW026TCU 30/26 Q1001 BECMG TL0540 RA
ZHHH,2021-07-01 05:00,ZHHH 010500Z 11005MPS 9999 -SHRA SCT023TCU 30/26 Q1000 BECMG TL0640 RA
ZHHH,2021-07-01 06:00,ZHHH 010600Z 12005MPS 8000 SCT020 29/26 Q1000 BECMG TL0740 RA
ZHHH,2021-07-01 07:00,ZHHH 010700Z 12005MPS 6000 -RA FEW015 27/27 Q1000 NOSIG
ZHHH,2021-07-01 08:00,ZHHH 010800Z 12006MPS 8000 -RA SCT013 27/26 Q0999 NOSIG
ZHHH,2021-07-01 09:00,ZHHH 010900Z 11005MPS 9999 SCT013 SCT023 26/26 Q0999 NOSIG
ZHHH,2021-07-01 10:00,ZHHH 011000Z 09005MPS 040V120 3000 -RA BR SCT008 SCT023 OVC040 26/26 Q0999 NOSIG
ZHHH,2021-07-01 11:00,ZHHH 011100Z 10005MPS 3200 -RA BR FEW006 SCT010 OVC033 25/25 Q0999 NOSIG
ZHHH,2021-07-01 12:00,ZHHH 011200Z 10006MPS 7000 -RA FEW006 SCT010 OVC040 25/25 Q1000 NOSIG
ZHHH,2021-07-01 13:00,ZHHH 011300Z 09005MPS 5000 -RA BR SCT005 SCT007 OVC030 25/25 Q1001 NOSIG
ZHHH,2021-07-01 14:00,ZHHH 011400Z 09006MPS 3000 -RA BR SCT004 SCT006 OVC030 25/25 Q1001 NOSIG
ZHHH,2021-07-01 15:00,ZHHH 011500Z 08005MPS 3000 SHRA BR SCT004 SCT006 FEW030CB BKN030 24/24 Q1001 BECMG TL1640 -RA
ZHHH,2021-07-01 16:00,ZHHH 011600Z 10004MPS 4000 -RA BR SCT004 SCT006 OVC033 25/25 Q1001 RESHRA NOSIG
ZHHH,2021-07-01 17:00,ZHHH 011700Z 11003MPS 4000 -RA BR SCT005 SCT007 OVC033 25/25 Q1001 NOSIG
ZHHH,2021-07-01 18:00,ZHHH 011800Z 10004MPS 6000 SCT005 SCT007 OVC033 25/25 Q1000 NOSIG
ZHHH,2021-07-01 19:00,ZHHH 011900Z 10004MPS 6000 SCT005 SCT007 OVC033 25/25 Q1000 NOSIG
ZHHH,2021-07-01 20:00,ZHHH 012000Z 10004MPS 6000 SCT006 SCT011 OVC040 25/25 Q1000 NOSIG
ZHHH,2021-07-01 21:00,ZHHH 012100Z 10003MPS 6000 SCT006 25/25 Q1000 NOSIG
ZHHH,2021-07-01 22:00,ZHHH 012200Z 08003MPS 4000 BR FEW017 BKN040 25/25 Q1000 NOSIG
ZHHH,2021-07-01 23:00,ZHHH 012300Z 07004MPS 4000 BR SCT005 26/26 Q1001 NOSIG
ZHHH,2021-07-02 00:00,ZHHH 020000Z 05004MPS 5000 BR SCT005 26/26 Q1001 NOSIG
ZHHH,2021-07-02 01:00,ZHHH 020100Z 08004MPS 4000 BR SCT005 26/26 Q1001 NOSIG
ZHHH,2021-07-02 02:00,ZHHH 020200Z 04004MPS 3500 -RA BR SCT005 25/25 Q1001 NOSIG
ZHHH,2021-07-02 03:00,ZHHH 020300Z 18003MPS 080V220 5000 -RA BR SCT005 26/26 Q1001 BECMG TL0320 RA
ZHHH,2021-07-02 04:00,ZHHH 020400Z 15003MPS 9999 FEW007 SCT012 27/27 Q1000 RESHRA NOSIG
ZHHH,2021-07-02 05:00,ZHHH 020500Z 13003MPS 100V160 9999 FEW012 BKN030 28/28 Q0999 NOSIG
ZHHH,2021-07-02 06:00,ZHHH 020600Z 16003MPS 9999 SCT010 BKN025 28/27 Q0999 NOSIG
ZHHH,2021-07-02 07:00,ZHHH 020700Z 18006MPS 9999 -RA SCT010 BKN025 28/27 Q0998 NOSIG
ZHHH,2021-07-02 08:00,ZHHH 020800Z 18005MPS 5000 SHRA BR SCT010 BKN025 27/27 Q0998 NOSIG
ZHHH,2021-07-02 09:00,ZHHH 020900Z 18005MPS 160V220 9999 -RA SCT007 BKN025 27/27 Q0998 RESHRA NOSIG
ZHHH,2021-07-02 10:00,ZHHH 021000Z 19004MPS 4000 -RA BR SCT004 OVC040 26/26 Q0998 NOSIG
ZHHH,2021-07-02 11:00,ZHHH 021100Z 19004MPS 4000 -RA BR SCT004 OVC040 26/26 Q0998 NOSIG
ZHHH,2021-07-02 12:00,ZHHH 021200Z 21003MPS 180V240 9999 SCT007 BKN040 26/26 Q0999 NOSIG
ZHHH,2021-07-02 13:00,ZHHH 021300Z 22003MPS 9999 -RA SCT005 SCT010 BKN040 26/26 Q0999 NOSIG
ZHHH,2021-07-02 14:00,ZHHH 021400Z 22004MPS 9999 -RA SCT005 SCT009 BKN040 26/26 Q1000 NOSIG
ZHHH,2021-07-02 15:00,ZHHH 021500Z 23004MPS 9999 -RA SCT005 SCT009 BKN040 26/26 Q1000 NOSIG
ZHHH,2021-07-02 16:00,ZHHH 021600Z 24003MPS 220V280 9999 -RA SCT006 SCT009 OVC040 26/26 Q1000 NOSIG
ZHHH,2021-07-02 17:00,ZHHH 021700Z VRB02MPS 8000 -RA SCT004 SCT008 OVC040 26/26 Q0999 NOSIG
ZHHH,2021-07-02 18:00,ZHHH 021800Z 28002MPS 240V330 9999 -RA SCT006 OVC040 26/26 Q0999 NOSIG
ZHHH,2021-07-02 19:00,ZHHH 021900Z VRB03MPS 9999 SCT006 OVC040 25/25 Q1000 NOSIG
ZHHH,2021-07-02 20:00,ZHHH 022000Z VRB01MPS 9999 SCT007 OVC040 25/25 Q1000 NOSIG
ZHHH,2021-07-02 21:00,ZHHH 022100Z 35002MPS 290V050 9999 SCT007 OVC040 25/25 Q1001 NOSIG
ZHHH,2021-07-02 22:00,ZHHH 022200Z 02002MPS 320V060 9999 SCT033 24/24 Q1001 NOSIG
ZHHH,2021-07-02 23:00,ZHHH 022300Z 04003MPS 9999 SCT033 24/24 Q1002 NOSIG
ZHHH,2021-07-03 00:00,ZHHH 030000Z 04003MPS 9999 -RA NSC 25/24 Q1002 NOSIG
ZHHH,2021-07-03 01:00,ZHHH 030100Z 04003MPS 360V060 9999 SCT033 25/25 Q1003 NOSIG
ZHHH,2021-07-03 02:00,ZHHH 030200Z 03003MPS 360V060 9999 SCT026 26/24 Q1003 NOSIG
ZHHH,2021-07-03 03:00,ZHHH 030300Z 02002MPS 310V060 9999 SCT040 26/24 Q1003 NOSIG
ZHHH,2021-07-03 04:00,ZHHH 030400Z 01003MPS 310V050 9999 FEW023 SCT040 28/25 Q1003 NOSIG
ZHHH,2021-07-03 05:00,ZHHH 030500Z VRB03MPS CAVOK 29/23 Q1002 NOSIG
ZHHH,2021-07-03 06:00,ZHHH 030600Z 02002MPS 320V050 9999 FEW023TCU FEW023 29/24 Q1002 NOSIG
ZHHH,2021-07-03 07:00,ZHHH 030700Z 04003MPS 360V060 9999 FEW030 29/22 Q1002 NOSIG
ZHHH,2021-07-03 08:00,ZHHH 030800Z 01002MPS 340V050 CAVOK 28/23 Q1002 NOSIG
ZHHH,2021-07-03 09:00,ZHHH 030900Z 02002MPS 9999 -RA NSC 28/25 Q1002 NOSIG
ZHHH,2021-07-03 10:00,ZHHH 031000Z VRB01MPS CAVOK 27/24 Q1002 NOSIG
ZHHH,2021-07-03 11:00,ZHHH 031100Z 35001MPS CAVOK 26/25 Q1003 NOSIG
ZHHH,2021-07-03 12:00,ZHHH 031200Z 06002MPS 010V090 CAVOK 27/24 Q1003 NOSIG
ZHHH,2021-07-03 13:00,ZHHH 031300Z VRB01MPS CAVOK 27/25 Q1004 NOSIG
ZHHH,2021-07-03 14:00,ZHHH 031400Z VRB01MPS CAVOK 26/25 Q1004 NOSIG
ZHHH,2021-07-03 15:00,ZHHH 031500Z 24001MPS CAVOK 26/26 Q1004 NOSIG
ZHHH,2021-07-03 16:00,ZHHH 031600Z VRB01MPS CAVOK 25/25 Q1004 NOSIG
ZHHH,2021-07-03 17:00,ZHHH 031700Z VRB01MPS CAVOK 26/26 Q1003 NOSIG
ZHHH,2021-07-03 18:00,ZHHH 031800Z VRB01MPS 9999 OVC033 26/26 Q1003 NOSIG
ZHHH,2021-07-03 19:00,ZHHH 031900Z 00000MPS 8000 OVC023 26/26 Q1003 NOSIG
ZHHH,2021-07-03 20:00,ZHHH 032000Z 00000MPS 7000 FEW014 OVC023 26/26 Q1003 NOSIG
ZHHH,2021-07-03 21:00,ZHHH 032100Z 36001MPS 6000 SCT007 OVC033 25/25 Q1003 NOSIG
ZHHH,2021-07-03 22:00,ZHHH 032200Z 03002MPS 350V060 4500 BR SCT020 OVC033 25/25 Q1003 NOSIG
ZHHH,2021-07-03 23:00,ZHHH 032300Z 08002MPS 6000 FEW014 OVC040 26/26 Q1004 NOSIG
ZHHH,2021-07-04 00:00,ZHHH 040000Z VRB01MPS 6000 FEW014 OVC040 26/26 Q1004 NOSIG
ZHHH,2021-07-04 01:00,ZHHH 040100Z 04003MPS 1100 R04L/P2000 R04R/P2000 -RA BR SCT003 SCT005 OVC033 25/25 Q1005 BECMG TL0150 2000
ZHHH,2021-07-04 02:00,ZHHH 040200Z VRB01MPS 1100 R04L/P2000 R04R/P2000 -RA BR SCT003 SCT004 OVC033 25/25 Q1005 BECMG TL0250 2000
ZHHH,2021-07-04 03:00,ZHHH 040300Z 36002MPS 320V040 1500 -RA BR SCT003 SCT004 OVC033 25/25 Q1005 BECMG TL0450 3000
ZHHH,2021-07-04 04:00,ZHHH 040400Z 36002MPS 300V050 2000 -RA BR SCT003 SCT004 OVC033 25/25 Q1005 BECMG TL0550 3000
ZHHH,2021-07-04 05:00,ZHHH 040500Z 35002MPS 320V040 3500 -RA BR SCT004 SCT005 OVC033 25/25 Q1005 NOSIG
ZHHH,2021-07-04 06:00,ZHHH 040600Z 36002MPS 310V050 5000 -RA BR SCT004 SCT005 OVC033 26/26 Q1005 NOSIG
ZHHH,2021-07-04 07:00,ZHHH 040700Z 01002MPS 330V050 8000 -RA SCT005 SCT006 OVC033 25/25 Q1004 NOSIG
ZHHH,2021-07-04 08:00,ZHHH 040800Z 01001MPS 8000 -RA FEW005 SCT006 OVC040 25/25 Q1004 NOSIG
ZHHH,2021-07-04 09:00,ZHHH 040900Z 34002MPS 300V020 2000 -RA BR SCT004 SCT005 OVC040 25/25 Q1004 BECMG TL1040 3000
ZHHH,2021-07-04 10:00,ZHHH 041000Z VRB01MPS 8000 SCT006 OVC040 25/25 Q1004 NOSIG
ZHHH,2021-07-04 11:00,ZHHH 041100Z 05003MPS 020V080 9999 SCT007 26/26 Q1005 NOSIG
ZHHH,2021-07-04 12:00,ZHHH 041200Z 04002MPS 9999 SCT010 25/25 Q1005 NOSIG
ZHHH,2021-07-04 13:00,ZHHH 041300Z 04002MPS 360V070 9999 BKN010 25/25 Q1005 NOSIG
ZHHH,2021-07-04 14:00,ZHHH 041400Z 06003MPS 9999 BKN010 25/25 Q1006 NOSIG
ZHHH,2021-07-04 15:00,ZHHH 041500Z 09003MPS 9999 SCT010 OVC040 25/25 Q1006 NOSIG
ZHHH,2021-07-04 16:00,ZHHH 041600Z 08002MPS 9999 OVC040 25/25 Q1005 NOSIG
ZHHH,2021-07-04 17:00,ZHHH 041700Z 03002MPS 360V060 9999 SCT010 OVC040 25/25 Q1005 NOSIG
ZHHH,2021-07-04 18:00,ZHHH 041800Z 04002MPS 9999 -RA SCT010 OVC040 25/25 Q1005 NOSIG
ZHHH,2021-07-04 19:00,ZHHH 041900Z 07002MPS 9999 SCT011 OVC040 25/25 Q1005 NOSIG
ZHHH,2021-07-04 20:00,ZHHH 042000Z 06003MPS 9999 -RA SCT011 OVC040 24/24 Q1005 NOSIG
ZHHH,2021-07-04 21:00,ZHHH 042100Z 07002MPS 9999 FEW008 SCT011 OVC040 25/25 Q1005 NOSIG
ZHHH,2021-07-04 22:00,ZHHH 042200Z 03001MPS 9999 FEW008 SCT011 OVC040 25/25 Q1005 NOSIG
ZHHH,2021-07-04 23:00,ZHHH 042300Z 05002MPS 010V070 8000 FEW007 SCT010 OVC040 25/25 Q1006 NOSIG
ZHHH,2021-07-05 00:00,ZHHH 050000Z 05003MPS 6000 -RA FEW006 SCT010 OVC033 25/25 Q1006 NOSIG
ZHHH,2021-07-05 01:00,ZHHH 050100Z 04003MPS 360V080 6000 SCT006 SCT010 OVC033 26/26 Q1005 NOSIG
ZHHH,2021-07-05 02:00,ZHHH 050200Z 04002MPS 010V070 6000 SCT008 OVC033 26/26 Q1006 NOSIG
ZHHH,2021-07-05 03:00,ZHHH 050300Z 08004MPS 060V120 5000 BR SCT008 OVC033 27/27 Q1006 NOSIG
ZHHH,2021-07-05 04:00,ZHHH 050400Z 02002MPS 290V070 2000 SHRA BR SCT008 FEW030CB BKN033 26/26 Q1005 BECMG TL0550 3000 -RA
ZHHH,2021-07-05 05:00,ZHHH 050500Z 03003MPS 4000 -RA BR SCT004 SCT008 OVC033 25/25 Q1005 RESHRA NOSIG
ZHHH,2021-07-05 06:00,ZHHH 050600Z 05003MPS 8000 SCT010 OVC040 25/25 Q1004 NOSIG
ZHHH,2021-07-05 07:00,ZHHH 050700Z 03003MPS 9999 FEW005 OVC040 25/25 Q1004 BECMG TL0820 2000 TSRA
ZHHH,2021-07-05 08:00,ZHHH 050800Z 04004MPS 9999 -RA FEW006 OVC040 25/25 Q1004 BECMG TL0820 RA
ZHHH,2021-07-05 09:00,ZHHH 050900Z 08004MPS 9999 -RA FEW006 OVC040 25/25 Q1004 NOSIG
ZHHH,2021-07-05 10:00,ZHHH 051000Z 04003MPS 9999 SCT006 OVC033 25/25 Q1004 NOSIG
ZHHH,2021-07-05 11:00,ZHHH 051100Z 06005MPS 9999 -RA FEW011 25/25 Q1004 NOSIG
ZHHH,2021-07-05 12:00,ZHHH 051200Z 07003MPS 040V100 9999 FEW008 25/25 Q1005 NOSIG
ZHHH,2021-07-05 13:00,ZHHH 051300Z 09004MPS 9999 FEW007 OVC026 25/25 Q1005 NOSIG
ZHHH,2021-07-05 14:00,ZHHH 051400Z 08003MPS 9999 SCT006 OVC023 25/25 Q1005 NOSIG
ZHHH,2021-07-05 15:00,ZHHH 051500Z 09003MPS 060V120 9999 SCT004 SCT005 OVC020 25/25 Q1005 NOSIG
ZHHH,2021-07-05 16:00,ZHHH 051600Z 07002MPS 6000 BKN003 OVC020 25/25 Q1005 NOSIG
ZHHH,2021-07-05 17:00,ZHHH 051700Z 09002MPS 4000 BR BKN003 OVC020 25/25 Q1004 BECMG TL1740 SCT006
ZHHH,2021-07-05 18:00,ZHHH 051800Z VRB01MPS 4000 BR BKN003 OVC020 25/25 Q1004 NOSIG
ZHHH,2021-07-05 19:00,ZHHH 051900Z 05002MPS 010V070 1300 R04L/1000V1400D R04R/P2000 BR BKN003 OVC020 25/25 Q1003 NOSIG
ZHHH,2021-07-05 20:00,ZHHH 052000Z 02002MPS 340V050 1000 R04L/1100V1400N R04R/0700D BR BKN002 OVC020 24/24 Q1003 NOSIG
ZHHH,2021-07-05 21:00,ZHHH 052100Z VRB01MPS 1000 R04L/1400D R04R/0800V1300U BR BKN002 OVC020 25/25 Q1003 BECMG TL2240 1500
ZHHH,2021-07-05 22:00,ZHHH 052200Z VRB01MPS 0600 R04L/0800N R04R/0500D FG VV002 25/25 Q1004 BECMG TL2250 1000
ZHHH,2021-07-05 23:00,ZHHH 052300Z VRB01MPS 0500 R04L/0650N R04R/0450N FG VV002 25/25 Q1004 BECMG TL2340 0600
ZHHH,2021-07-06 00:00,ZHHH 060000Z 09002MPS 0800 R04L/1200U R04R/0650V0800N FG VV002 25/25 Q1004 BECMG TL0040 2000
ZHHH,2021-07-06 01:00,ZHHH 060100Z VRB01MPS 3000 BR SCT007 26/26 Q1004 NOSIG
ZHHH,2021-07-06 02:00,ZHHH 060200Z 22002MPS 140V270 4000 BR SCT009 28/28 Q1004 NOSIG
ZHHH,2021-07-06 03:00,ZHHH 060300Z 26002MPS 220V290 4000 BR NSC 29/28 Q1004 NOSIG
ZHHH,2021-07-06 04:00,ZHHH 060400Z 29002MPS 240V320 4000 BR NSC 29/29 Q1005 NOSIG
ZHHH,2021-07-06 05:00,ZHHH 060500Z 28002MPS 230V340 5000 BR NSC 29/29 Q1004 NOSIG
ZHHH,2021-07-06 06:00,ZHHH 060600Z VRB01MPS 5000 BR NSC 30/30 Q1003 NOSIG
ZHHH,2021-07-06 07:00,ZHHH 060700Z VRB01MPS 5000 BR NSC 30/29 Q1003 NOSIG
ZHHH,2021-07-06 08:00,ZHHH 060800Z 30002MPS 240V020 5000 BR NSC 30/29 Q1003 NOSIG
ZHHH,2021-07-06 09:00,ZHHH 060900Z VRB01MPS 5000 BR NSC 31/29 Q1003 NOSIG
ZHHH,2021-07-06 10:00,ZHHH 061000Z VRB01MPS 8000 NSC 30/29 Q1003 NOSIG
ZHHH,2021-07-06 11:00,ZHHH 061100Z VRB01MPS 8000 NSC 30/29 Q1003 NOSIG
ZHHH,2021-07-06 12:00,ZHHH 061200Z 26001MPS CAVOK 28/28 Q1004 NOSIG
ZHHH,2021-07-06 13:00,ZHHH 061300Z VRB01MPS CAVOK 28/28 Q1005 NOSIG
ZHHH,2021-07-06 14:00,ZHHH 061400Z 00000MPS 8000 NSC 27/27 Q1005 NOSIG
ZHHH,2021-07-06 15:00,ZHHH 061500Z VRB01MPS 8000 NSC 28/28 Q1005 NOSIG
ZHHH,2021-07-06 16:00,ZHHH 061600Z 00000MPS 8000 BKN020 28/28 Q1005 NOSIG
ZHHH,2021-07-06 17:00,ZHHH 061700Z 31001MPS 6000 BKN020 27/27 Q1005 NOSIG
ZHHH,2021-07-06 18:00,ZHHH 061800Z VRB01MPS 6000 NSC 27/27 Q1004 NOSIG
ZHHH,2021-07-06 19:00,ZHHH 061900Z VRB01MPS 3500 BR NSC 27/27 Q1004 NOSIG
ZHHH,2021-07-06 20:00,ZHHH 062000Z 00000MPS 3200 BR NSC 26/26 Q1004 NOSIG
ZHHH,2021-07-06 21:00,ZHHH 062100Z 14001MPS 3200 BR NSC 26/26 Q1005 NOSIG
ZHHH,2021-07-06 22:00,ZHHH 062200Z 11002MPS 080V140 1600 BR NSC 27/27 Q1005 BECMG TL2320 1400
ZHHH,2021-07-06 23:00,ZHHH 062300Z VRB01MPS 1800 BR SCT014 28/28 Q1005 BECMG TL0050 3000
ZHHH,2021-07-07 00:00,ZHHH 070000Z 07003MPS 3000 BR SCT011 29/29 Q1006 NOSIG
ZHHH,2021-07-07 01:00,ZHHH 070100Z VRB02MPS 3800 BR NSC 30/29 Q1006 NOSIG
ZHHH,2021-07-07 02:00,ZHHH 070200Z 26002MPS 190V300 4000 BR FEW030TCU 31/30 Q1006 NOSIG
ZHHH,2021-07-07 03:00,ZHHH 070300Z 35003MPS 290V060 9999 -RA SCT030TCU 28/28 Q1007 NOSIG
ZHHH,2021-07-07 04:00,ZHHH 070400Z 34003MPS 280V030 9999 FEW023 30/28 Q1007 NOSIG
ZHHH,2021-07-07 05:00,ZHHH 070500Z VRB03G08MPS 9999 FEW023 BKN040 30/26 Q1007 NOSIG
ZHHH,2021-07-07 06:00,ZHHH 070600Z 33003MPS 250V030 9999 FEW033 29/27 Q1006 NOSIG
ZHHH,2021-07-07 07:00,ZHHH 070700Z 28002MPS 240V010 CAVOK 30/26 Q1005 NOSIG
ZHHH,2021-07-07 08:00,ZHHH 070800Z 30002MPS 260V010 CAVOK 30/27 Q1004 NOSIG
ZHHH,2021-07-07 09:00,ZHHH 070900Z 35004MPS 320V020 9999 FEW040 29/27 Q1005 NOSIG
ZHHH,2021-07-07 10:00,ZHHH 071000Z 34002MPS 290V050 CAVOK 29/26 Q1005 NOSIG
ZHHH,2021-07-07 11:00,ZHHH 071100Z 24001MPS 9999 FEW033 29/27 Q1005 NOSIG
ZHHH,2021-07-07 12:00,ZHHH 071200Z 29001MPS 9999 BKN033 28/27 Q1005 NOSIG
ZHHH,2021-07-07 13:00,ZHHH 071300Z 35001MPS 9999 BKN040 28/27 Q1006 NOSIG
ZHHH,2021-07-07 14:00,ZHHH 071400Z VRB01MPS CAVOK 28/27 Q1007 NOSIG
ZHHH,2021-07-07 15:00,ZHHH 071500Z 12002MPS 070V160 CAVOK 29/27 Q1006 NOSIG
ZHHH,2021-07-07 16:00,ZHHH 071600Z VRB01MPS 9999 BKN033 29/27 Q1007 NOSIG
ZHHH,2021-07-07 17:00,ZHHH 071700Z 00000MPS 9999 SCT026 27/27 Q1006 NOSIG
ZHHH,2021-07-07 18:00,ZHHH 071800Z 10002MPS CAVOK 27/27 Q1006 NOSIG
ZHHH,2021-07-07 19:00,ZHHH 071900Z 09002MPS 070V130 CAVOK 27/27 Q1005 NOSIG
ZHHH,2021-07-07 20:00,ZHHH 072000Z 09002MPS 8000 NSC 27/27 Q1005 NOSIG
ZHHH,2021-07-07 21:00,ZHHH 072100Z 10002MPS 8000 NSC 28/28 Q1005 NOSIG
ZHHH,2021-07-07 22:00,ZHHH 072200Z 11001MPS 7000 NSC 28/28 Q1006 NOSIG
ZHHH,2021-07-07 23:00,ZHHH 072300Z 13002MPS 6000 NSC 28/28 Q1006 NOSIG
ZHHH,2021-07-08 00:00,ZHHH 080000Z 18003MPS 140V210 8000 NSC 30/28 Q1006 NOSIG
ZHHH,2021-07-08 01:00,ZHHH 080100Z 23003MPS 200V260 CAVOK 30/28 Q1006 NOSIG
ZHHH,2021-07-08 02:00,ZHHH 080200Z 24004MPS CAVOK 30/28 Q1006 NOSIG
ZHHH,2021-07-08 03:00,ZHHH 080300Z 22005MPS CAVOK 31/28 Q1007 NOSIG
ZHHH,2021-07-08 04:00,ZHHH 080400Z 24006MPS 9999 FEW033 30/28 Q1008 NOSIG
ZHHH,2021-07-08 05:00,ZHHH 080500Z 24006MPS 9999 -RA FEW020 29/28 Q1008 NOSIG
ZHHH,2021-07-08 06:00,ZHHH 080600Z 28003MPS 230V350 8000 -RA FEW020 29/29 Q1007 NOSIG
ZHHH,2021-07-08 07:00,ZHHH 080700Z 28002MPS 240V330 5000 BR FEW033 29/29 Q1006 NOSIG
ZHHH,2021-07-08 08:00,ZHHH 080800Z 26002MPS 230V320 5000 BR SCT026 30/29 Q1005 NOSIG
ZHHH,2021-07-08 09:00,ZHHH 080900Z 23002MPS 200V270 5000 BR SCT026 30/29 Q1004 NOSIG
ZHHH,2021-07-08 10:00,ZHHH 081000Z 27002MPS 230V320 5000 BR FEW010 29/28 Q1004 NOSIG
ZHHH,2021-07-08 11:00,ZHHH 081100Z 23002MPS 200V320 7000 -RA SCT030 29/29 Q1006 NOSIG
ZHHH,2021-07-08 12:00,ZHHH 081200Z 20004MPS 9999 -RA SCT030 28/27 Q1006 NOSIG
ZHHH,2021-07-08 13:00,ZHHH 081300Z 18004MPS CAVOK 28/26 Q1006 NOSIG
ZHHH,2021-07-08 14:00,ZHHH 081400Z 19003MPS CAVOK 28/26 Q1006 NOSIG
ZHHH,2021-07-08 15:00,ZHHH 081500Z 19004MPS CAVOK 28/26 Q1006 NOSIG
ZHHH,2021-07-08 16:00,ZHHH 081600Z 18003MPS CAVOK 28/26 Q1005 NOSIG
ZHHH,2021-07-08 17:00,ZHHH 081700Z 16002MPS CAVOK 27/26 Q1006 NOSIG
ZHHH,2021-07-08 18:00,ZHHH 081800Z 15002MPS 110V170 CAVOK 27/26 Q1005 NOSIG
ZHHH,2021-07-08 19:00,ZHHH 081900Z 13002MPS CAVOK 28/26 Q1005 NOSIG
ZHHH,2021-07-08 20:00,ZHHH 082000Z 12003MPS CAVOK 27/27 Q1005 NOSIG
ZHHH,2021-07-08 21:00,ZHHH 082100Z 14003MPS CAVOK 27/27 Q1004 NOSIG
ZHHH,2021-07-08 22:00,ZHHH 082200Z 17004MPS CAVOK 28/27 Q1004 NOSIG
ZHHH,2021-07-08 23:00,ZHHH 082300Z 19005MPS CAVOK 30/26 Q1004 NOSIG
ZHHH,2021-07-09 00:00,ZHHH 090000Z 20005MPS 9999 -RA NSC 30/26 Q1005 NOSIG
ZHHH,2021-07-09 01:00,ZHHH 090100Z 19004MPS CAVOK 31/27 Q1005 NOSIG
ZHHH,2021-07-09 02:00,ZHHH 090200Z 21005MPS CAVOK 31/27 Q1005 NOSIG
ZHHH,2021-07-09 03:00,ZHHH 090300Z 22005MPS CAVOK 32/27 Q1005 NOSIG
ZHHH,2021-07-09 04:00,ZHHH 090400Z 21007MPS CAVOK 33/27 Q1005 NOSIG
ZHHH,2021-07-09 05:00,ZHHH 090500Z 22007MPS CAVOK 33/27 Q1005 NOSIG
ZHHH,2021-07-09 06:00,ZHHH 090600Z 23007MPS 9999 SCT030 33/27 Q1004 NOSIG
ZHHH,2021-07-09 07:00,ZHHH 090700Z 23008MPS 9999 SCT040 33/27 Q1004 NOSIG
ZHHH,2021-07-09 08:00,ZHHH 090800Z 24008MPS 9999 FEW030 33/27 Q1004 NOSIG
ZHHH,2021-07-09 09:00,ZHHH 090900Z 22007MPS 9999 FEW030 32/27 Q1004 NOSIG
ZHHH,2021-07-09 10:00,ZHHH 091000Z 22006MPS CAVOK 31/27 Q1004 NOSIG
ZHHH,2021-07-09 11:00,ZHHH 091100Z 22006MPS CAVOK 31/27 Q1004 NOSIG
ZHHH,2021-07-09 12:00,ZHHH 091200Z 22004MPS CAVOK 30/27 Q1004 NOSIG
ZHHH,2021-07-09 13:00,ZHHH 091300Z 21004MPS CAVOK 30/27 Q1004 NOSIG
ZHHH,2021-07-09 14:00,ZHHH 091400Z 18003MPS CAVOK 30/27 Q1005 NOSIG
ZHHH,2021-07-09 15:00,ZHHH 091500Z 17003MPS CAVOK 30/27 Q1004 NOSIG
ZHHH,2021-07-09 16:00,ZHHH 091600Z 16003MPS 120V210 CAVOK 31/26 Q1005 NOSIG
ZHHH,2021-07-09 17:00,ZHHH 091700Z 17002MPS 130V190 CAVOK 30/27 Q1004 NOSIG
ZHHH,2021-07-09 18:00,ZHHH 091800Z 06002MPS 360V120 9999 -RA NSC 28/28 Q1004 NOSIG
ZHHH,2021-07-09 19:00,ZHHH 091900Z 13003MPS CAVOK 29/28 Q1004 NOSIG
ZHHH,2021-07-09 20:00,ZHHH 092000Z 11003MPS CAVOK 29/28 Q1004 NOSIG
ZHHH,2021-07-09 21:00,ZHHH 092100Z 10003MPS CAVOK 29/27 Q1004 NOSIG
ZHHH,2021-07-09 22:00,ZHHH 092200Z 13002MPS 080V180 CAVOK 29/28 Q1004 NOSIG
ZHHH,2021-07-09 23:00,ZHHH 092300Z 12003MPS CAVOK 29/28 Q1004 NOSIG
ZHHH,2021-07-10 00:00,ZHHH 100000Z 17004MPS CAVOK 31/26 Q1005 NOSIG
ZHHH,2021-07-10 01:00,ZHHH 100100Z 19005MPS CAVOK 31/26 Q1005 NOSIG
ZHHH,2021-07-10 02:00,ZHHH 100200Z 20005MPS CAVOK 32/26 Q1005 NOSIG
ZHHH,2021-07-10 03:00,ZHHH 100300Z 20005MPS CAVOK 33/26 Q1005 NOSIG
ZHHH,2021-07-10 04:00,ZHHH 100400Z 20007MPS CAVOK 34/25 Q1005 NOSIG
ZHHH,2021-07-10 05:00,ZHHH 100500Z 22008MPS CAVOK 34/24 Q1005 NOSIG
ZHHH,2021-07-10 06:00,ZHHH 100600Z 21008MPS CAVOK 35/24 Q1005 NOSIG
ZHHH,2021-07-10 07:00,ZHHH 100700Z 21006MPS CAVOK 34/25 Q1004 NOSIG
ZHHH,2021-07-10 08:00,ZHHH 100800Z 20004MPS CAVOK 34/25 Q1004 NOSIG
ZHHH,2021-07-10 09:00,ZHHH 100900Z 20004MPS CAVOK 34/24 Q1004 NOSIG
ZHHH,2021-07-10 10:00,ZHHH 101000Z 21003MPS CAVOK 33/25 Q1004 NOSIG
ZHHH,2021-07-10 11:00,ZHHH 101100Z 21002MPS 140V300 CAVOK 33/24 Q1004 NOSIG
ZHHH,2021-07-10 12:00,ZHHH 101200Z 17002MPS 150V210 CAVOK 32/25 Q1005 NOSIG
ZHHH,2021-07-10 13:00,ZHHH 101300Z VRB01MPS CAVOK 32/26 Q1006 NOSIG
ZHHH,2021-07-10 14:00,ZHHH 101400Z 10003MPS 060V140 CAVOK 32/25 Q1006 NOSIG
ZHHH,2021-07-10 15:00,ZHHH 101500Z 12003G08MPS 060V170 CAVOK 31/25 Q1006 NOSIG
ZHHH,2021-07-10 16:00,ZHHH 101600Z 12004MPS CAVOK 31/26 Q1006 NOSIG
ZHHH,2021-07-10 17:00,ZHHH 101700Z 12004MPS CAVOK 31/26 Q1005 NOSIG
ZHHH,2021-07-10 18:00,ZHHH 101800Z 12004MPS CAVOK 31/26 Q1005 NOSIG
ZHHH,2021-07-10 19:00,ZHHH 101900Z 13004MPS CAVOK 30/26 Q1005 NOSIG
ZHHH,2021-07-10 20:00,ZHHH 102000Z VRB04MPS CAVOK 30/25 Q1004 NOSIG
ZHHH,2021-07-10 21:00,ZHHH 102100Z 16005MPS CAVOK 31/24 Q1004 NOSIG
ZHHH,2021-07-10 22:00,ZHHH 102200Z 17005MPS CAVOK 32/24 Q1004 NOSIG
ZHHH,2021-07-10 23:00,ZHHH 102300Z 17004MPS CAVOK 32/24 Q1005 NOSIG
ZHHH,2021-07-11 00:00,ZHHH 110000Z 18005MPS CAVOK 32/24 Q1005 NOSIG
ZHHH,2021-07-11 01:00,ZHHH 110100Z 19005MPS CAVOK 32/24 Q1005 NOSIG
ZHHH,2021-07-11 02:00,ZHHH 110200Z 19007MPS CAVOK 33/24 Q1005 NOSIG
ZHHH,2021-07-11 03:00,ZHHH 110300Z 20007MPS CAVOK 33/24 Q1005 NOSIG
ZHHH,2021-07-11 04:00,ZHHH 110400Z 19006MPS CAVOK 33/25 Q1005 NOSIG
ZHHH,2021-07-11 05:00,ZHHH 110500Z 18004MPS 160V220 CAVOK 33/25 Q1004 NOSIG
ZHHH,2021-07-11 06:00,ZHHH 110600Z 20005MPS CAVOK 34/24 Q1003 NOSIG
ZHHH,2021-07-11 07:00,ZHHH 110700Z 19004MPS CAVOK 34/24 Q1003 NOSIG
ZHHH,2021-07-11 08:00,ZHHH 110800Z 18004MPS CAVOK 35/24 Q1002 NOSIG
ZHHH,2021-07-11 09:00,ZHHH 110900Z 20005MPS CAVOK 35/24 Q1002 NOSIG
ZHHH,2021-07-11 10:00,ZHHH 111000Z 23005MPS CAVOK 35/24 Q1002 NOSIG
ZHHH,2021-07-11 11:00,ZHHH 111100Z 20003MPS CAVOK 33/25 Q1002 NOSIG
ZHHH,2021-07-11 12:00,ZHHH 111200Z 19004MPS CAVOK 33/25 Q1003 NOSIG
ZHHH,2021-07-11 13:00,ZHHH 111300Z 19005MPS CAVOK 33/24 Q1003 NOSIG
ZHHH,2021-07-11 14:00,ZHHH 111400Z 17004MPS CAVOK 33/24 Q1003 NOSIG
ZHHH,2021-07-11 15:00,ZHHH 111500Z 18006MPS CAVOK 33/23 Q1002 NOSIG
ZHHH,2021-07-11 16:00,ZHHH 111600Z 18006MPS CAVOK 33/23 Q1002 NOSIG
ZHHH,2021-07-11 17:00,ZHHH 111700Z 18005MPS CAVOK 33/22 Q1002 NOSIG
ZHHH,2021-07-11 18:00,ZHHH 111800Z 18004MPS CAVOK 32/22 Q1002 NOSIG
ZHHH,2021-07-11 19:00,ZHHH 111900Z 18005MPS CAVOK 32/22 Q1002 NOSIG
ZHHH,2021-07-11 20:00,ZHHH 112000Z 19005MPS CAVOK 32/22 Q1002 NOSIG
ZHHH,2021-07-11 21:00,ZHHH 112100Z 19006MPS CAVOK 32/22 Q1002 NOSIG
ZHHH,2021-07-11 22:00,ZHHH 112200Z 19006MPS CAVOK 31/22 Q1002 NOSIG
ZHHH,2021-07-11 23:00,ZHHH 112300Z 19006MPS CAVOK 31/23 Q1002 NOSIG
ZHHH,2021-07-12 00:00,ZHHH 120000Z 20007MPS CAVOK 31/23 Q1002 NOSIG
ZHHH,2021-07-12 01:00,ZHHH 120100Z 21008MPS CAVOK 31/23 Q1003 NOSIG
ZHHH,2021-07-12 02:00,ZHHH 120200Z 22006MPS 9999 -RA NSC 31/24 Q1003 NOSIG
ZHHH,2021-07-12 03:00,ZHHH 120300Z 21006MPS CAVOK 31/23 Q1002 NOSIG
ZHHH,2021-07-12 04:00,ZHHH 120400Z 20005MPS 9999 -RA NSC 31/24 Q1002 NOSIG
ZHHH,2021-07-12 05:00,ZHHH 120500Z 21006MPS CAVOK 33/25 Q1002 NOSIG
ZHHH,2021-07-12 06:00,ZHHH 120600Z 21006MPS CAVOK 34/25 Q1001 NOSIG
ZHHH,2021-07-12 07:00,ZHHH 120700Z 22008MPS 9999 SCT033 34/24 Q1001 NOSIG
ZHHH,2021-07-12 08:00,ZHHH 120800Z 23008MPS CAVOK 34/23 Q1001 NOSIG
ZHHH,2021-07-12 09:00,ZHHH 120900Z 22007MPS CAVOK 34/25 Q1000 NOSIG
ZHHH,2021-07-12 10:00,ZHHH 121000Z 24002MPS CAVOK 33/26 Q1000 NOSIG
ZHHH,2021-07-12 11:00,ZHHH 121100Z 23002MPS 190V270 CAVOK 32/26 Q1000 NOSIG
ZHHH,2021-07-12 12:00,ZHHH 121200Z 18002MPS CAVOK 32/25 Q1000 NOSIG
ZHHH,2021-07-12 13:00,ZHHH 121300Z 18003MPS CAVOK 33/25 Q1000 NOSIG
ZHHH,2021-07-12 14:00,ZHHH 121400Z 17003MPS CAVOK 33/25 Q1000 NOSIG
ZHHH,2021-07-12 15:00,ZHHH 121500Z 17005MPS CAVOK 33/24 Q0999 BECMG TL1630 TSRA FEW023CB BKN040
ZHHH,2021-07-12 16:00,ZHHH 121600Z 18006MPS 9999 TS FEW040CB 33/23 Q0999 BECMG TL1630 TSRA
ZHHH,2021-07-12 17:00,ZHHH 121700Z 29004MPS 240V340 6000 -TSRA SCT007 FEW030CB 27/27 Q1000 NOSIG
ZHHH,2021-07-12 18:00,ZHHH 121800Z VRB02MPS 9999 TSRA SCT009 FEW030CB 26/26 Q1000 BECMG TL1940 -RA SCT020
ZHHH,2021-07-12 19:00,ZHHH 121900Z 13002MPS 080V190 9999 -TSRA FEW010 FEW030CB 26/26 Q0999 RESHRA BECMG TL2010 -RA SCT020
ZHHH,2021-07-12 20:00,ZHHH 122000Z 13003MPS 090V150 9999 -RA NSC 27/27 Q0999 RETS NOSIG
ZHHH,2021-07-12 21:00,ZHHH 122100Z 19004MPS 9999 -RA NSC 28/27 Q0999 NOSIG
ZHHH,2021-07-12 22:00,ZHHH 122200Z 18003MPS CAVOK 28/26 Q0999 NOSIG
ZHHH,2021-07-12 23:00,ZHHH 122300Z 19006MPS CAVOK 29/26 Q1000 NOSIG
ZHHH,2021-07-13 00:00,ZHHH 130000Z 21008MPS CAVOK 30/25 Q1000 NOSIG
ZHHH,2021-07-13 01:00,ZHHH 130100Z 21008MPS CAVOK 31/26 Q1000 NOSIG
ZHHH,2021-07-13 02:00,ZHHH 130200Z 21009MPS CAVOK 32/26 Q1001 NOSIG
ZHHH,2021-07-13 03:00,ZHHH 130300Z 22010MPS 9999 FEW026 32/25 Q1001 NOSIG
ZHHH,2021-07-13 04:00,ZHHH 130400Z 22009G14MPS 9999 FEW026 31/26 Q1001 NOSIG
ZHHH,2021-07-13 05:00,ZHHH 130500Z 22007MPS 9999 FEW026 31/26 Q1001 NOSIG
ZHHH,2021-07-13 06:00,ZHHH 130600Z 22009MPS 9999 FEW026 31/26 Q1001 NOSIG
ZHHH,2021-07-13 07:00,ZHHH 130700Z 19006MPS 9999 FEW026 32/26 Q1000 NOSIG
ZHHH,2021-07-13 08:00,ZHHH 130800Z 20007MPS CAVOK 33/25 Q1000 NOSIG
ZHHH,2021-07-13 09:00,ZHHH 130900Z 21007MPS 180V240 CAVOK 34/25 Q1000 NOSIG
ZHHH,2021-07-13 10:00,ZHHH 131000Z 20005MPS CAVOK 34/24 Q1000 NOSIG
ZHHH,2021-07-13 11:00,ZHHH 131100Z 18004MPS CAVOK 33/25 Q1000 NOSIG
ZHHH,2021-07-13 12:00,ZHHH 131200Z 17003MPS CAVOK 32/26 Q1000 NOSIG
ZHHH,2021-07-13 13:00,ZHHH 131300Z 14003MPS CAVOK 32/26 Q1001 NOSIG
ZHHH,2021-07-13 14:00,ZHHH 131400Z 13003MPS CAVOK 31/27 Q1001 NOSIG
ZHHH,2021-07-13 15:00,ZHHH 131500Z 13003MPS CAVOK 31/26 Q1001 NOSIG
ZHHH,2021-07-13 16:00,ZHHH 131600Z 13003MPS CAVOK 31/27 Q1001 NOSIG
ZHHH,2021-07-13 17:00,ZHHH 131700Z 13003MPS CAVOK 31/27 Q1000 NOSIG
ZHHH,2021-07-13 18:00,ZHHH 131800Z 13003MPS 9999 BKN040 31/27 Q1001 NOSIG
ZHHH,2021-07-13 19:00,ZHHH 131900Z 14003MPS CAVOK 31/26 Q1001 NOSIG
ZHHH,2021-07-13 20:00,ZHHH 132000Z 17004MPS CAVOK 32/24 Q1001 NOSIG
ZHHH,2021-07-13 21:00,ZHHH 132100Z 17003MPS CAVOK 32/24 Q1001 NOSIG
ZHHH,2021-07-13 22:00,ZHHH 132200Z 18004MPS CAVOK 32/24 Q1002 NOSIG
ZHHH,2021-07-13 23:00,ZHHH 132300Z 18005MPS CAVOK 32/24 Q1002 NOSIG
ZHHH,2021-07-14 00:00,ZHHH 140000Z 20006MPS CAVOK 33/24 Q1002 NOSIG
ZHHH,2021-07-14 01:00,ZHHH 140100Z 20008MPS CAVOK 34/24 Q1003 NOSIG
ZHHH,2021-07-14 02:00,ZHHH 140200Z 22008MPS CAVOK 35/24 Q1003 NOSIG
ZHHH,2021-07-14 03:00,ZHHH 140300Z 21008MPS CAVOK 35/24 Q1003 NOSIG
ZHHH,2021-07-14 04:00,ZHHH 140400Z 21007MPS CAVOK 36/24 Q1003 NOSIG
ZHHH,2021-07-14 05:00,ZHHH 140500Z 21008MPS 9999 FEW033 36/24 Q1002 NOSIG
ZHHH,2021-07-14 06:00,ZHHH 140600Z 21006MPS 9999 FEW033 37/24 Q1002 NOSIG
ZHHH,2021-07-14 07:00,ZHHH 140700Z 22006MPS 9999 FEW033 37/24 Q1002 NOSIG
ZHHH,2021-07-14 08:00,ZHHH 140800Z 22006MPS 9999 FEW040 36/24 Q1002 NOSIG
ZHHH,2021-07-14 09:00,ZHHH 140900Z 22006MPS 9999 FEW040 36/24 Q1001 NOSIG
ZHHH,2021-07-14 10:00,ZHHH 141000Z 18004MPS CAVOK 36/24 Q1001 NOSIG
ZHHH,2021-07-14 11:00,ZHHH 141100Z 20003MPS CAVOK 35/25 Q1001 NOSIG
ZHHH,2021-07-14 12:00,ZHHH 141200Z 20002MPS CAVOK 34/25 Q1002 NOSIG
ZHHH,2021-07-14 13:00,ZHHH 141300Z 18002MPS CAVOK 33/25 Q1002 NOSIG
ZHHH,2021-07-14 14:00,ZHHH 141400Z 00000MPS CAVOK 30/28 Q1003 NOSIG
ZHHH,2021-07-14 15:00,ZHHH 141500Z 18002MPS CAVOK 33/26 Q1004 NOSIG
ZHHH,2021-07-14 16:00,ZHHH 141600Z 18004MPS CAVOK 33/26 Q1003 NOSIG
ZHHH,2021-07-14 17:00,ZHHH 141700Z 17004MPS CAVOK 34/25 Q1003 NOSIG
ZHHH,2021-07-14 18:00,ZHHH 141800Z 16003MPS 120V180 CAVOK 33/25 Q1003 NOSIG
ZHHH,2021-07-14 19:00,ZHHH 141900Z 17004MPS CAVOK 33/24 Q1003 NOSIG
ZHHH,2021-07-14 20:00,ZHHH 142000Z 12002MPS CAVOK 31/27 Q1003 NOSIG
ZHHH,2021-07-14 21:00,ZHHH 142100Z 12003MPS CAVOK 32/26 Q1004 NOSIG
ZHHH,2021-07-14 22:00,ZHHH 142200Z VRB02G11MPS CAVOK 31/26 Q1004 NOSIG
ZHHH,2021-07-14 23:00,ZHHH 142300Z 16003MPS CAVOK 33/25 Q1004 NOSIG
ZHHH,2021-07-15 00:00,ZHHH 150000Z 16004MPS CAVOK 34/24 Q1005 NOSIG
ZHHH,2021-07-15 01:00,ZHHH 150100Z 20006MPS 160V220 CAVOK 35/24 Q1005 NOSIG
ZHHH,2021-07-15 02:00,ZHHH 150200Z 20005MPS CAVOK 35/24 Q1005 NOSIG
ZHHH,2021-07-15 03:00,ZHHH 150300Z 21006MPS CAVOK 36/24 Q1005 NOSIG
ZHHH,2021-07-15 04:00,ZHHH 150400Z 21005MPS CAVOK 36/24 Q1005 NOSIG
ZHHH,2021-07-15 05:00,ZHHH 150500Z 22005MPS CAVOK 37/24 Q1005 NOSIG
ZHHH,2021-07-15 06:00,ZHHH 150600Z 21004MPS 180V240 9999 FEW026 37/24 Q1004 NOSIG
ZHHH,2021-07-15 07:00,ZHHH 150700Z 21007MPS 9999 FEW026 38/24 Q1004 NOSIG
ZHHH,2021-07-15 08:00,ZHHH 150800Z 21006MPS 180V240 9999 FEW026 37/23 Q1004 NOSIG
ZHHH,2021-07-15 09:00,ZHHH 150900Z 22004MPS 9999 FEW026 36/23 Q1003 NOSIG
ZHHH,2021-07-15 10:00,ZHHH 151000Z 22002MPS 200V260 CAVOK 35/24 Q1003 NOSIG
ZHHH,2021-07-15 11:00,ZHHH 151100Z 23002MPS 200V280 CAVOK 34/26 Q1004 NOSIG
ZHHH,2021-07-15 12:00,ZHHH 151200Z 27001MPS CAVOK 32/26 Q1005 NOSIG
ZHHH,2021-07-15 13:00,ZHHH 151300Z 00000MPS CAVOK 30/28 Q1006 NOSIG
ZHHH,2021-07-15 14:00,ZHHH 151400Z 15002MPS 120V180 CAVOK 34/25 Q1006 NOSIG
ZHHH,2021-07-15 15:00,ZHHH 151500Z 00000MPS CAVOK 30/28 Q1006 NOSIG
ZHHH,2021-07-15 16:00,ZHHH 151600Z 04002MPS CAVOK 31/27 Q1006 NOSIG
ZHHH,2021-07-15 17:00,ZHHH 151700Z 08002MPS 040V140 CAVOK 30/28 Q1005 NOSIG
ZHHH,2021-07-15 18:00,ZHHH 151800Z VRB01MPS CAVOK 30/28 Q1005 NOSIG
ZHHH,2021-07-15 19:00,ZHHH 151900Z 07002MPS 040V100 CAVOK 29/29 Q1005 NOSIG
ZHHH,2021-07-15 20:00,ZHHH 152000Z 06002MPS CAVOK 30/29 Q1005 NOSIG
ZHHH,2021-07-15 21:00,ZHHH 152100Z 09002MPS CAVOK 30/28 Q1005 NOSIG
ZHHH,2021-07-15 22:00,ZHHH 152200Z 11001MPS CAVOK 30/28 Q1005 NOSIG
ZHHH,2021-07-15 23:00,ZHHH 152300Z 06002MPS 010V080 CAVOK 30/29 Q1006 NOSIG
ZHHH,2021-07-16 00:00,ZHHH 160000Z 06003MPS CAVOK 30/29 Q1007 NOSIG
ZHHH,2021-07-16 01:00,ZHHH 160100Z 10002MPS 070V130 8000 NSC 32/28 Q1007 NOSIG
ZHHH,2021-07-16 02:00,ZHHH 160200Z 07004MPS 8000 NSC 31/28 Q1007 NOSIG
ZHHH,2021-07-16 03:00,ZHHH 160300Z 06004MPS 040V100 8000 NSC 32/29 Q1007 NOSIG
ZHHH,2021-07-16 04:00,ZHHH 160400Z 07003MPS 040V100 8000 FEW030 32/29 Q1007 NOSIG
ZHHH,2021-07-16 05:00,ZHHH 160500Z 09004MPS 060V130 8000 NSC 33/29 Q1006 NOSIG
ZHHH,2021-07-16 06:00,ZHHH 160600Z 10003MPS 060V140 7000 NSC 33/29 Q1005 NOSIG
ZHHH,2021-07-16 07:00,ZHHH 160700Z 24002MPS 9000 FEW026 34/28 Q1005 NOSIG
ZHHH,2021-07-16 08:00,ZHHH 160800Z VRB01MPS CAVOK 33/29 Q1004 NOSIG
ZHHH,2021-07-16 09:00,ZHHH 160900Z 01002MPS 330V040 CAVOK 34/29 Q1004 NOSIG
ZHHH,2021-07-16 10:00,ZHHH 161000Z VRB01MPS 9999 FEW023 FEW026TCU 34/30 Q1004 NOSIG
ZHHH,2021-07-16 11:00,ZHHH 161100Z 36002MPS 310V040 8000 FEW023 32/30 Q1004 NOSIG
ZHHH,2021-07-16 12:00,ZHHH 161200Z 02003MPS 8000 NSC 31/30 Q1004 NOSIG
ZHHH,2021-07-16 13:00,ZHHH 161300Z 04003MPS 8000 NSC 30/30 Q1005 NOSIG
ZHHH,2021-07-16 14:00,ZHHH 161400Z 06004MPS 8000 FEW020 30/30 Q1006 NOSIG
ZHHH,2021-07-16 15:00,ZHHH 161500Z 08003MPS 8000 NSC 31/30 Q1005 NOSIG
ZHHH,2021-07-16 16:00,ZHHH 161600Z 27005MPS 240V300 9999 TS FEW023CB 28/23 Q1004 BECMG TL1640 NSW
ZHHH,2021-07-16 17:00,ZHHH 161700Z 02002MPS 270V060 9999 TS FEW023CB SCT023 26/25 Q1006 NOSIG
ZHHH,2021-07-16 18:00,ZHHH 161800Z 36002MPS 320V030 9999 FEW026 26/25 Q1004 RETS NOSIG
ZHHH,2021-07-16 19:00,ZHHH 161900Z 02002MPS 340V040 9999 -RA FEW040 26/26 Q1004 NOSIG
ZHHH,2021-07-16 20:00,ZHHH 162000Z VRB01MPS 9999 -RA NSC 26/26 Q1003 NOSIG
ZHHH,2021-07-16 21:00,ZHHH 162100Z 05002MPS CAVOK 25/25 Q1003 NOSIG
ZHHH,2021-07-16 22:00,ZHHH 162200Z 10002MPS 060V120 9999 BKN040 26/26 Q1004 NOSIG
ZHHH,2021-07-16 23:00,ZHHH 162300Z 10004MPS 9999 BKN040 27/26 Q1005 NOSIG
ZHHH,2021-07-17 00:00,ZHHH 170000Z 02002MPS 320V090 9999 BKN026 27/27 Q1005 RERA BECMG TL0020 TSRA
ZHHH,2021-07-17 01:00,ZHHH 170100Z 06003MPS 5000 -TSRA SCT006 FEW023CB BKN023 25/25 Q1005 RESHRA BECMG TL0110 TSRA
ZHHH,2021-07-17 02:00,ZHHH 170200Z 14003MPS 080V160 4000 -SHRA SCT006 FEW030CB BKN030 25/25 Q1004 RETSRA NOSIG
ZHHH,2021-07-17 03:00,ZHHH 170300Z 11002MPS 070V170 5000 BR SCT016 BKN030 26/26 Q1005 NOSIG
ZHHH,2021-07-17 04:00,ZHHH 170400Z 23007MPS 9999 BKN030 OVC040 26/26 Q1005 NOSIG
ZHHH,2021-07-17 05:00,ZHHH 170500Z 22004MPS 200V270 9999 FEW020 BKN030 OVC040 26/25 Q1004 BECMG TL0530 SHRA
ZHHH,2021-07-17 06:00,ZHHH 170600Z 24002MPS 210V310 9999 SCT020 28/27 Q1003 NOSIG
ZHHH,2021-07-17 07:00,ZHHH 170700Z 17003MPS 070V210 9999 SCT020 28/27 Q1003 NOSIG
ZHHH,2021-07-17 08:00,ZHHH 170800Z 19004MPS 150V210 9999 SCT020 OVC040 29/27 Q1003 BECMG TL0920 2800 TSRA FEW023CB
ZHHH,2021-07-17 09:00,ZHHH 170900Z 18005MPS 9999 FEW010 BKN030 OVC040 28/26 Q1002 BECMG TL0930 TSRA FEW023CB
ZHHH,2021-07-17 10:00,ZHHH 171000Z 19003MPS 160V220 9999 -SHRA FEW010 FEW026CB BKN040 27/26 Q1002 BECMG TL1020 TSRA
ZHHH,2021-07-17 11:00,ZHHH 171100Z 22003MPS 180V240 9999 -SHRA FEW010 FEW026CB 26/26 Q1002 NOSIG
ZHHH,2021-07-17 12:00,ZHHH 171200Z 18003MPS CAVOK 26/26 Q1002 NOSIG
ZHHH,2021-07-17 13:00,ZHHH 171300Z 16002G09MPS 120V280 9999 FEW026 26/26 Q1004 NOSIG
ZHHH,2021-07-17 14:00,ZHHH 171400Z 16002MPS 130V240 9999 SCT026 26/26 Q1004 NOSIG
ZHHH,2021-07-17 15:00,ZHHH 171500Z 14002MPS 9999 SCT026 26/26 Q1004 NOSIG
ZHHH,2021-07-17 16:00,ZHHH 171600Z 00000MPS 9999 FEW026 26/26 Q1004 NOSIG
ZHHH,2021-07-17 17:00,ZHHH 171700Z 05002MPS 010V090 9999 SCT020 26/26 Q1004 NOSIG
ZHHH,2021-07-17 18:00,ZHHH 171800Z 05003MPS 9999 SCT016 SCT023 25/25 Q1003 NOSIG
ZHHH,2021-07-17 19:00,ZHHH 171900Z 08003MPS 8000 SCT030 25/25 Q1003 NOSIG
ZHHH,2021-07-17 20:00,ZHHH 172000Z 11002MPS 090V150 7000 SCT030 25/25 Q1003 NOSIG
ZHHH,2021-07-17 21:00,ZHHH 172100Z 11003MPS 7000 SCT030 26/26 Q1003 NOSIG
ZHHH,2021-07-17 22:00,ZHHH 172200Z 11003G08MPS 060V140 4000 BR NSC 26/26 Q1003 NOSIG
ZHHH,2021-07-17 23:00,ZHHH 172300Z 05002MPS 020V120 4000 -RA BR SCT016 OVC030 25/25 Q1003 NOSIG
ZHHH,2021-07-18 00:00,ZHHH 180000Z 12003MPS 070V140 2500 -RA BR SCT010 OVC030 25/25 Q1003 RESHRA BECMG TL0120 6000
ZHHH,2021-07-18 01:00,ZHHH 180100Z 09002MPS 060V130 4000 BR NSC 26/26 Q1004 NOSIG
ZHHH,2021-07-18 02:00,ZHHH 180200Z 17002MPS 110V210 5000 BR SCT010 27/27 Q1004 NOSIG
ZHHH,2021-07-18 03:00,ZHHH 180300Z 14002MPS 080V240 6000 FEW012 BKN030 28/27 Q1004 BECMG TL0330 SHRA
ZHHH,2021-07-18 04:00,ZHHH 180400Z 19002MPS 150V230 7000 BKN030 29/27 Q1003 NOSIG
ZHHH,2021-07-18 05:00,ZHHH 180500Z 10002MPS 040V160 7000 BKN030 30/27 Q1003 NOSIG
ZHHH,2021-07-18 06:00,ZHHH 180600Z 21004MPS 7000 BKN026 30/28 Q1002 BECMG TL0720 TSRA FEW030CB BKN040
ZHHH,2021-07-18 07:00,ZHHH 180700Z 04005MPS 3500 TSRA BR FEW010 FEW030CB BKN040 28/27 Q1002 NOSIG
ZHHH,2021-07-18 08:00,ZHHH 180800Z 08005MPS 4000 -RA BR FEW013 27/27 Q1001 RETSRA NOSIG
ZHHH,2021-07-18 09:00,ZHHH 180900Z 23002MPS 7000 OVC040 27/27 Q1001 BECMG TL1010 TSRA FEW030CB BKN040
ZHHH,2021-07-18 10:00,ZHHH 181000Z VRB01MPS 5000 -RA BR SCT033 26/26 Q1001 RESHRA NOSIG
ZHHH,2021-07-18 11:00,ZHHH 181100Z 18003MPS 150V260 5000 BR SCT020 27/27 Q1002 NOSIG
ZHHH,2021-07-18 12:00,ZHHH 181200Z VRB01MPS CAVOK 26/26 Q1003 NOSIG
ZHHH,2021-07-18 13:00,ZHHH 181300Z 15002MPS CAVOK 26/26 Q1003 NOSIG
ZHHH,2021-07-18 14:00,ZHHH 181400Z 10004MPS 070V130 9999 TS FEW030CB 26/26 Q1004 BECMG TL1500 -RA
ZHHH,2021-07-18 15:00,ZHHH 181500Z 12003MPS 6000 NSC 26/26 Q1004 RETS NOSIG
ZHHH,2021-07-18 16:00,ZHHH 181600Z 12002MPS 080V150 8000 NSC 26/26 Q1004 BECMG TL1650 SHRA
ZHHH,2021-07-18 17:00,ZHHH 181700Z 14002MPS 070V190 8000 NSC 26/26 Q1004 BECMG TL1730 SHRA
ZHHH,2021-07-18 18:00,ZHHH 181800Z 14003MPS 4000 SHRA BR SCT011 26/26 Q1003 BECMG TL1830 -RA
ZHHH,2021-07-18 19:00,ZHHH 181900Z 12002MPS 100V160 4000 TSRA BR SCT011 SCT030CB BKN040 25/25 Q1003 BECMG TL1950 -RA
ZHHH,2021-07-18 20:00,ZHHH 182000Z 07004MPS 7000 -RA SCT011 OVC030 25/25 Q1003 RETSRA BECMG TL2030 SHRA
ZHHH,2021-07-18 21:00,ZHHH 182100Z 06003MPS 8000 -RA SCT010 OVC030 25/25 Q1003 RESHRA NOSIG
ZHHH,2021-07-18 22:00,ZHHH 182200Z 12002MPS 6000 SCT010 OVC030 25/25 Q1004 NOSIG
ZHHH,2021-07-18 23:00,ZHHH 182300Z 12002MPS 5000 BR OVC040 26/26 Q1004 NOSIG
ZHHH,2021-07-19 00:00,ZHHH 190000Z 11002MPS 080V140 4000 BR SCT010 OVC040 27/27 Q1004 NOSIG
ZHHH,2021-07-19 01:00,ZHHH 190100Z 19003MPS 160V220 8000 SCT009 27/27 Q1005 NOSIG
ZHHH,2021-07-19 02:00,ZHHH 190200Z 16003MPS 100V210 9000 FEW011 28/27 Q1005 NOSIG
ZHHH,2021-07-19 03:00,ZHHH 190300Z 19002MPS 120V260 7000 SCT015 29/27 Q1005 NOSIG
ZHHH,2021-07-19 04:00,ZHHH 190400Z 08004MPS 9999 -TSRA SCT016 SCT020CB 28/28 Q1005 RESHRA NOSIG
ZHHH,2021-07-19 05:00,ZHHH 190500Z 11007MPS 5000 +TSRA BR FEW006 SCT016CB OVC033 26/26 Q1004 NOSIG
ZHHH,2021-07-19 06:00,ZHHH 190600Z 09004MPS 9999 -RA SCT033 25/25 Q1004 RETSRA NOSIG
ZHHH,2021-07-19 07:00,ZHHH 190700Z 12004MPS 9999 -RA BKN040 26/26 Q1003 NOSIG
ZHHH,2021-07-19 08:00,ZHHH 190800Z 07003MPS 040V100 CAVOK 27/27 Q1003 NOSIG
ZHHH,2021-07-19 09:00,ZHHH 190900Z 06003MPS 020V110 7000 NSC 28/27 Q1003 NOSIG
ZHHH,2021-07-19 10:00,ZHHH 191000Z 07003MPS 040V120 6000 NSC 27/27 Q1003 NOSIG
ZHHH,2021-07-19 11:00,ZHHH 191100Z 09004MPS 6000 NSC 28/28 Q1003 NOSIG
ZHHH,2021-07-19 12:00,ZHHH 191200Z 08003MPS 010V110 5000 BR NSC 27/27 Q1004 NOSIG
ZHHH,2021-07-19 13:00,ZHHH 191300Z 09003MPS 040V120 6000 NSC 27/27 Q1004 NOSIG
ZHHH,2021-07-19 14:00,ZHHH 191400Z 07003MPS 010V110 5000 BR NSC 27/27 Q1005 NOSIG
ZHHH,2021-07-19 15:00,ZHHH 191500Z 08004MPS 5000 BR NSC 27/27 Q1005 NOSIG
ZHHH,2021-07-19 16:00,ZHHH 191600Z 08003MPS 040V120 6000 NSC 27/27 Q1005 NOSIG
ZHHH,2021-07-19 17:00,ZHHH 191700Z 09004MPS 040V110 8000 NSC 27/27 Q1004 NOSIG
ZHHH,2021-07-19 18:00,ZHHH 191800Z 08003MPS 8000 NSC 27/27 Q1004 NOSIG
ZHHH,2021-07-19 19:00,ZHHH 191900Z 09004MPS 8000 NSC 27/27 Q1004 NOSIG
ZHHH,2021-07-19 20:00,ZHHH 192000Z 09004MPS 8000 NSC 26/26 Q1004 NOSIG
ZHHH,2021-07-19 21:00,ZHHH 192100Z 10003MPS 8000 NSC 26/26 Q1004 NOSIG
ZHHH,2021-07-19 22:00,ZHHH 192200Z 09003MPS 8000 NSC 26/26 Q1005 NOSIG
ZHHH,2021-07-19 23:00,ZHHH 192300Z 10003MPS 8000 NSC 27/27 Q1005 NOSIG
ZHHH,2021-07-20 00:00,ZHHH 200000Z 10003MPS 8000 FEW026 27/27 Q1006 NOSIG
ZHHH,2021-07-20 01:00,ZHHH 200100Z 13003MPS 080V160 8000 NSC 29/27 Q1006 NOSIG
ZHHH,2021-07-20 02:00,ZHHH 200200Z 12003MPS 080V160 9999 FEW040 30/26 Q1006 NOSIG
ZHHH,2021-07-20 03:00,ZHHH 200300Z 11004MPS 080V150 CAVOK 31/26 Q1006 NOSIG
ZHHH,2021-07-20 04:00,ZHHH 200400Z 10004MPS 070V150 9999 FEW030 32/26 Q1005 NOSIG
ZHHH,2021-07-20 05:00,ZHHH 200500Z 11005MPS 080V140 9999 FEW020TCU 33/26 Q1005 NOSIG
ZHHH,2021-07-20 06:00,ZHHH 200600Z 11004MPS 070V160 9999 FEW020TCU 34/25 Q1004 NOSIG
ZHHH,2021-07-20 07:00,ZHHH 200700Z 10005MPS 9999 FEW020TCU SCT030 33/24 Q1003 NOSIG
ZHHH,2021-07-20 08:00,ZHHH 200800Z 09004MPS 9999 FEW040 33/25 Q1003 NOSIG
ZHHH,2021-07-20 09:00,ZHHH 200900Z 06004MPS 9999 FEW026 32/26 Q1003 NOSIG
ZHHH,2021-07-20 10:00,ZHHH 201000Z 10004MPS CAVOK 32/25 Q1003 NOSIG
ZHHH,2021-07-20 11:00,ZHHH 201100Z 10003MPS 070V140 CAVOK 32/25 Q1004 NOSIG
ZHHH,2021-07-20 12:00,ZHHH 201200Z 10003MPS 070V130 CAVOK 32/24 Q1004 NOSIG
ZHHH,2021-07-20 13:00,ZHHH 201300Z 10004MPS CAVOK 31/26 Q1004 NOSIG
ZHHH,2021-07-20 14:00,ZHHH 201400Z 12003MPS 080V140 CAVOK 31/25 Q1005 NOSIG
ZHHH,2021-07-20 15:00,ZHHH 201500Z 11004MPS 080V140 CAVOK 31/24 Q1005 NOSIG
ZHHH,2021-07-20 16:00,ZHHH 201600Z 11003MPS 080V140 CAVOK 31/24 Q1005 NOSIG
ZHHH,2021-07-20 17:00,ZHHH 201700Z 09003MPS CAVOK 30/25 Q1005 NOSIG
ZHHH,2021-07-20 18:00,ZHHH 201800Z 10002MPS 070V130 CAVOK 29/26 Q1004 NOSIG
ZHHH,2021-07-20 19:00,ZHHH 201900Z 09003MPS CAVOK 29/27 Q1004 NOSIG
ZHHH,2021-07-20 20:00,ZHHH 202000Z 04002MPS CAVOK 27/27 Q1003 NOSIG
ZHHH,2021-07-20 21:00,ZHHH 202100Z 07004MPS CAVOK 27/27 Q1004 NOSIG
ZHHH,2021-07-20 22:00,ZHHH 202200Z 09004MPS CAVOK 27/27 Q1004 NOSIG
ZHHH,2021-07-20 23:00,ZHHH 202300Z 09004MPS CAVOK 28/27 Q1005 NOSIG
ZHHH,2021-07-21 00:00,ZHHH 210000Z 09004MPS CAVOK 30/27 Q1005 NOSIG
ZHHH,2021-07-21 01:00,ZHHH 210100Z 11005MPS CAVOK 31/27 Q1005 NOSIG
ZHHH,2021-07-21 02:00,ZHHH 210200Z 11005MPS 080V140 CAVOK 32/27 Q1005 NOSIG
ZHHH,2021-07-21 03:00,ZHHH 210300Z 13005MPS 080V160 CAVOK 33/26 Q1005 NOSIG
ZHHH,2021-07-21 04:00,ZHHH 210400Z 11006MPS CAVOK 34/26 Q1004 NOSIG
ZHHH,2021-07-21 05:00,ZHHH 210500Z 10005MPS 080V140 9999 FEW030 34/26 Q1004 NOSIG
ZHHH,2021-07-21 06:00,ZHHH 210600Z 10004MPS 070V140 9999 FEW030TCU 35/26 Q1003 NOSIG
ZHHH,2021-07-21 07:00,ZHHH 210700Z 11004MPS 060V150 9999 FEW030TCU 35/25 Q1002 NOSIG
ZHHH,2021-07-21 08:00,ZHHH 210800Z 11004MPS 070V140 9999 FEW030TCU 36/24 Q1002 NOSIG
ZHHH,2021-07-21 09:00,ZHHH 210900Z 19006MPS 9999 FEW030TCU 33/23 Q1002 NOSIG
ZHHH,2021-07-21 10:00,ZHHH 211000Z 11003MPS 080V140 9999 FEW030CB 34/25 Q1002 NOSIG
ZHHH,2021-07-21 11:00,ZHHH 211100Z 05006MPS 9999 FEW030CB 31/25 Q1003 NOSIG
ZHHH,2021-07-21 12:00,ZHHH 211200Z 04004MPS 9999 FEW030CB 29/25 Q1004 NOSIG
ZHHH,2021-07-21 13:00,ZHHH 211300Z 06005MPS 040V100 CAVOK 29/24 Q1004 NOSIG
ZHHH,2021-07-21 14:00,ZHHH 211400Z 06004MPS CAVOK 29/25 Q1005 NOSIG
ZHHH,2021-07-21 15:00,ZHHH 211500Z 09004MPS CAVOK 28/26 Q1005 NOSIG
ZHHH,2021-07-21 16:00,ZHHH 211600Z 09003MPS CAVOK 28/26 Q1004 NOSIG
ZHHH,2021-07-21 17:00,ZHHH 211700Z 07004MPS CAVOK 28/26 Q1004 NOSIG
ZHHH,2021-07-21 18:00,ZHHH 211800Z 06004MPS CAVOK 27/27 Q1004 NOSIG
ZHHH,2021-07-21 19:00,ZHHH 211900Z 06004MPS CAVOK 26/26 Q1003 NOSIG
ZHHH,2021-07-21 20:00,ZHHH 212000Z 04002MPS CAVOK 26/26 Q1003 NOSIG
ZHHH,2021-07-21 21:00,ZHHH 212100Z 08002MPS CAVOK 27/27 Q1003 NOSIG
ZHHH,2021-07-21 22:00,ZHHH 212200Z 07002MPS CAVOK 26/26 Q1003 NOSIG
ZHHH,2021-07-21 23:00,ZHHH 212300Z 08003MPS 030V100 CAVOK 28/27 Q1003 NOSIG
ZHHH,2021-07-22 00:00,ZHHH 220000Z 09004MPS CAVOK 29/26 Q1004 NOSIG
ZHHH,2021-07-22 01:00,ZHHH 220100Z VRB03MPS CAVOK 31/26 Q1004 NOSIG
ZHHH,2021-07-22 02:00,ZHHH 220200Z 10005MPS CAVOK 32/25 Q1004 NOSIG
ZHHH,2021-07-22 03:00,ZHHH 220300Z 10004MPS CAVOK 33/24 Q1004 NOSIG
ZHHH,2021-07-22 04:00,ZHHH 220400Z 11004MPS 060V160 9999 FEW033TCU 34/24 Q1004 NOSIG
ZHHH,2021-07-22 05:00,ZHHH 220500Z 10003MPS 030V140 9999 FEW033CB 34/24 Q1003 NOSIG
ZHHH,2021-07-22 06:00,ZHHH 220600Z 08003MPS 030V120 9999 SCT033TCU 35/22 Q1003 NOSIG
ZHHH,2021-07-22 07:00,ZHHH 220700Z 10004MPS 060V150 9999 SCT033TCU 35/23 Q1002 NOSIG
ZHHH,2021-07-22 08:00,ZHHH 220800Z 05003MPS 340V120 9999 SCT033CB 35/22 Q1002 NOSIG
ZHHH,2021-07-22 09:00,ZHHH 220900Z 11003MPS 050V170 9999 FEW033TCU 35/23 Q1001 NOSIG
ZHHH,2021-07-22 10:00,ZHHH 221000Z 13003MPS 080V160 9999 FEW033TCU 33/23 Q1001 NOSIG
ZHHH,2021-07-22 11:00,ZHHH 221100Z 05004MPS 010V070 9999 SCT040 33/25 Q1001 NOSIG
ZHHH,2021-07-22 12:00,ZHHH 221200Z 03003MPS CAVOK 31/26 Q1002 NOSIG
ZHHH,2021-07-22 13:00,ZHHH 221300Z 03003MPS CAVOK 30/27 Q1003 NOSIG
ZHHH,2021-07-22 14:00,ZHHH 221400Z 04003MPS CAVOK 29/27 Q1003 NOSIG
ZHHH,2021-07-22 15:00,ZHHH 221500Z 05004MPS CAVOK 28/26 Q1004 NOSIG
ZHHH,2021-07-22 16:00,ZHHH 221600Z 07005MPS CAVOK 28/26 Q1003 NOSIG
ZHHH,2021-07-22 17:00,ZHHH 221700Z 07004MPS CAVOK 28/26 Q1003 NOSIG
ZHHH,2021-07-22 18:00,ZHHH 221800Z 05003MPS 010V070 CAVOK 28/26 Q1003 NOSIG
ZHHH,2021-07-22 19:00,ZHHH 221900Z 05003MPS 360V080 CAVOK 27/25 Q1003 NOSIG
ZHHH,2021-07-22 20:00,ZHHH 222000Z VRB01MPS CAVOK 27/26 Q1003 NOSIG
ZHHH,2021-07-22 21:00,ZHHH 222100Z 04003MPS CAVOK 26/26 Q1003 NOSIG
ZHHH,2021-07-22 22:00,ZHHH 222200Z 04003MPS CAVOK 27/26 Q1003 NOSIG
ZHHH,2021-07-22 23:00,ZHHH 222300Z 04003MPS CAVOK 27/26 Q1003 NOSIG
ZHHH,2021-07-23 00:00,ZHHH 230000Z 04003MPS CAVOK 28/26 Q1004 NOSIG
ZHHH,2021-07-23 01:00,ZHHH 230100Z 06005MPS CAVOK 29/25 Q1004 NOSIG
ZHHH,2021-07-23 02:00,ZHHH 230200Z 04003MPS 350V090 CAVOK 31/27 Q1004 NOSIG
ZHHH,2021-07-23 03:00,ZHHH 230300Z 07004MPS 020V130 CAVOK 32/26 Q1004 NOSIG
ZHHH,2021-07-23 04:00,ZHHH 230400Z 11004MPS 060V160 9999 FEW030 34/25 Q1004 NOSIG
ZHHH,2021-07-23 05:00,ZHHH 230500Z VRB03MPS 9999 SCT040 34/24 Q1003 NOSIG
ZHHH,2021-07-23 06:00,ZHHH 230600Z VRB02MPS 9999 SCT040 33/26 Q1003 NOSIG
ZHHH,2021-07-23 07:00,ZHHH 230700Z 33002MPS 210V010 9999 SCT040 33/25 Q1002 NOSIG
ZHHH,2021-07-23 08:00,ZHHH 230800Z 01004MPS 320V050 9999 FEW033CB SCT033 31/25 Q1001 BECMG TL0830 TSRA
ZHHH,2021-07-23 09:00,ZHHH 230900Z 15003MPS 090V180 9999 -SHRA FEW010 FEW033CB 28/26 Q1002 RETS NOSIG
ZHHH,2021-07-23 10:00,ZHHH 231000Z VRB01MPS 9999 FEW033TCU 30/27 Q1001 NOSIG
ZHHH,2021-07-23 11:00,ZHHH 231100Z VRB01MPS CAVOK 30/28 Q1001 NOSIG
ZHHH,2021-07-23 12:00,ZHHH 231200Z 01002MPS 330V060 9999 FEW033CB 30/29 Q1002 NOSIG
ZHHH,2021-07-23 13:00,ZHHH 231300Z 02002MPS CAVOK 29/27 Q1002 NOSIG
ZHHH,2021-07-23 14:00,ZHHH 231400Z 03002MPS CAVOK 29/27 Q1003 NOSIG
ZHHH,2021-07-23 15:00,ZHHH 231500Z 04005MPS CAVOK 28/27 Q1003 NOSIG
ZHHH,2021-07-23 16:00,ZHHH 231600Z 05006MPS CAVOK 28/26 Q1003 NOSIG
ZHHH,2021-07-23 17:00,ZHHH 231700Z 04003MPS CAVOK 28/26 Q1003 NOSIG
ZHHH,2021-07-23 18:00,ZHHH 231800Z VRB01MPS CAVOK 27/27 Q1003 NOSIG
ZHHH,2021-07-23 19:00,ZHHH 231900Z 04004MPS CAVOK 27/27 Q1003 NOSIG
ZHHH,2021-07-23 20:00,ZHHH 232000Z 04004MPS CAVOK 27/26 Q1003 NOSIG
ZHHH,2021-07-23 21:00,ZHHH 232100Z 06005MPS CAVOK 27/26 Q1003 NOSIG
ZHHH,2021-07-23 22:00,ZHHH 232200Z 05005MPS CAVOK 27/26 Q1003 NOSIG
ZHHH,2021-07-23 23:00,ZHHH 232300Z 05005MPS CAVOK 28/26 Q1003 NOSIG
ZHHH,2021-07-24 00:00,ZHHH 240000Z 05006MPS CAVOK 29/25 Q1004 NOSIG
ZHHH,2021-07-24 01:00,ZHHH 240100Z 05004MPS 020V090 CAVOK 30/25 Q1004 NOSIG
ZHHH,2021-07-24 02:00,ZHHH 240200Z 04004MPS 360V070 CAVOK 32/25 Q1004 NOSIG
ZHHH,2021-07-24 03:00,ZHHH 240300Z 03005MPS 350V060 9999 FEW040 32/24 Q1004 NOSIG
ZHHH,2021-07-24 04:00,ZHHH 240400Z 07005MPS 040V110 9999 SCT026 33/22 Q1004 NOSIG
ZHHH,2021-07-24 05:00,ZHHH 240500Z 01003MPS 270V060 9999 BKN026 33/23 Q1003 NOSIG
ZHHH,2021-07-24 06:00,ZHHH 240600Z 02003MPS 330V050 9999 BKN026 33/24 Q1002 NOSIG
ZHHH,2021-07-24 07:00,ZHHH 240700Z 03004MPS 350V070 9999 SCT026 34/23 Q1002 NOSIG
ZHHH,2021-07-24 08:00,ZHHH 240800Z 03005MPS 350V060 9999 SCT026 34/22 Q1001 NOSIG
ZHHH,2021-07-24 09:00,ZHHH 240900Z 03004MPS 350V070 9999 SCT026 33/24 Q1001 NOSIG
ZHHH,2021-07-24 10:00,ZHHH 241000Z 04005MPS 9999 SCT033 32/23 Q1001 NOSIG
ZHHH,2021-07-24 11:00,ZHHH 241100Z 03004MPS 360V060 9999 SCT033 31/23 Q1001 NOSIG
ZHHH,2021-07-24 12:00,ZHHH 241200Z 05006MPS CAVOK 29/21 Q1002 NOSIG
ZHHH,2021-07-24 13:00,ZHHH 241300Z 03003MPS 360V060 CAVOK 28/22 Q1003 NOSIG
ZHHH,2021-07-24 14:00,ZHHH 241400Z 03003MPS 350V060 CAVOK 28/22 Q1003 NOSIG
ZHHH,2021-07-24 15:00,ZHHH 241500Z 04003MPS 010V070 CAVOK 27/23 Q1003 NOSIG
ZHHH,2021-07-24 16:00,ZHHH 241600Z 01002MPS 340V040 CAVOK 27/24 Q1003 NOSIG
ZHHH,2021-07-24 17:00,ZHHH 241700Z 04002MPS CAVOK 27/24 Q1003 NOSIG
ZHHH,2021-07-24 18:00,ZHHH 241800Z 04002MPS 010V070 CAVOK 26/24 Q1002 NOSIG
ZHHH,2021-07-24 19:00,ZHHH 241900Z 02002MPS CAVOK 26/25 Q1002 NOSIG
ZHHH,2021-07-24 20:00,ZHHH 242000Z 00000MPS CAVOK 25/25 Q1002 NOSIG
ZHHH,2021-07-24 21:00,ZHHH 242100Z 01002MPS CAVOK 26/25 Q1003 NOSIG
ZHHH,2021-07-24 22:00,ZHHH 242200Z 02002MPS CAVOK 26/25 Q1003 NOSIG
ZHHH,2021-07-24 23:00,ZHHH 242300Z 03003MPS 360V060 CAVOK 26/25 Q1003 NOSIG
ZHHH,2021-07-25 00:00,ZHHH 250000Z 04003MPS 340V070 CAVOK 28/25 Q1003 NOSIG
ZHHH,2021-07-25 01:00,ZHHH 250100Z 03003MPS 350V060 CAVOK 30/25 Q1003 NOSIG
ZHHH,2021-07-25 02:00,ZHHH 250200Z 03004MPS 340V060 9999 FEW030 31/25 Q1003 NOSIG
ZHHH,2021-07-25 03:00,ZHHH 250300Z 04005MPS 350V070 9999 SCT030 32/23 Q1003 NOSIG
ZHHH,2021-07-25 04:00,ZHHH 250400Z 03005MPS 330V060 9999 SCT030 33/24 Q1002 NOSIG
ZHHH,2021-07-25 05:00,ZHHH 250500Z 01003MPS 330V040 9999 SCT030 33/24 Q1002 NOSIG
ZHHH,2021-07-25 06:00,ZHHH 250600Z 03004MPS 340V070 9999 SCT030 33/23 Q1001 NOSIG
ZHHH,2021-07-25 07:00,ZHHH 250700Z 01003MPS 310V050 9999 SCT040 34/23 Q1000 NOSIG
ZHHH,2021-07-25 08:00,ZHHH 250800Z 02004MPS 340V060 9999 SCT040 34/22 Q1000 NOSIG
ZHHH,2021-07-25 09:00,ZHHH 250900Z 01003MPS 330V060 9999 SCT040 33/23 Q1000 NOSIG
ZHHH,2021-07-25 10:00,ZHHH 251000Z 03004MPS 360V060 9999 FEW030 33/22 Q0999 NOSIG
ZHHH,2021-07-25 11:00,ZHHH 251100Z 02003MPS 9999 FEW030 31/22 Q0999 NOSIG
ZHHH,2021-07-25 12:00,ZHHH 251200Z 03003MPS CAVOK 30/23 Q1000 NOSIG
ZHHH,2021-07-25 13:00,ZHHH 251300Z 03003MPS CAVOK 29/23 Q1000 NOSIG
ZHHH,2021-07-25 14:00,ZHHH 251400Z 03003MPS CAVOK 29/23 Q1001 NOSIG
ZHHH,2021-07-25 15:00,ZHHH 251500Z 36002MPS 330V040 CAVOK 27/25 Q1001 NOSIG
ZHHH,2021-07-25 16:00,ZHHH 251600Z 03003MPS CAVOK 28/24 Q1001 NOSIG
ZHHH,2021-07-25 17:00,ZHHH 251700Z 02002MPS CAVOK 27/24 Q1000 NOSIG
ZHHH,2021-07-25 18:00,ZHHH 251800Z 01002MPS 350V060 CAVOK 27/25 Q1000 NOSIG
ZHHH,2021-07-25 19:00,ZHHH 251900Z VRB01MPS CAVOK 26/25 Q0999 NOSIG
ZHHH,2021-07-25 20:00,ZHHH 252000Z VRB01MPS CAVOK 26/26 Q0999 NOSIG
ZHHH,2021-07-25 21:00,ZHHH 252100Z 33001MPS CAVOK 26/26 Q0999 NOSIG
ZHHH,2021-07-25 22:00,ZHHH 252200Z VRB01MPS CAVOK 26/26 Q0999 NOSIG
ZHHH,2021-07-25 23:00,ZHHH 252300Z VRB02MPS CAVOK 27/26 Q0999 NOSIG
ZHHH,2021-07-26 00:00,ZHHH 260000Z 34002MPS 280V040 CAVOK 27/26 Q0999 NOSIG
ZHHH,2021-07-26 01:00,ZHHH 260100Z 33002MPS 240V020 CAVOK 29/26 Q0999 NOSIG
ZHHH,2021-07-26 02:00,ZHHH 260200Z 33003MPS 270V020 9999 FEW030 30/26 Q0999 NOSIG
ZHHH,2021-07-26 03:00,ZHHH 260300Z 34003MPS 280V040 9999 SCT030 31/25 Q0999 NOSIG
ZHHH,2021-07-26 04:00,ZHHH 260400Z 02003MPS 330V080 9999 FEW033TCU SCT040 32/24 Q0999 NOSIG
ZHHH,2021-07-26 05:00,ZHHH 260500Z 33003MPS 260V030 9999 FEW033TCU SCT040 32/25 Q0998 NOSIG
ZHHH,2021-07-26 06:00,ZHHH 260600Z 01003MPS 320V040 9999 FEW033TCU SCT040 33/25 Q0998 NOSIG
ZHHH,2021-07-26 07:00,ZHHH 260700Z 36003MPS 300V050 9999 SCT040 34/24 Q0997 NOSIG
ZHHH,2021-07-26 08:00,ZHHH 260800Z VRB02MPS 9999 BKN040 34/24 Q0996 NOSIG
ZHHH,2021-07-26 09:00,ZHHH 260900Z 34002MPS 300V030 9999 BKN033 33/25 Q0996 NOSIG
ZHHH,2021-07-26 10:00,ZHHH 261000Z 35002MPS 300V030 9999 BKN040 33/25 Q0996 NOSIG
ZHHH,2021-07-26 11:00,ZHHH 261100Z 01002MPS 330V060 CAVOK 32/25 Q0996 NOSIG
ZHHH,2021-07-26 12:00,ZHHH 261200Z 02002MPS 340V040 CAVOK 31/25 Q0997 NOSIG
ZHHH,2021-07-26 13:00,ZHHH 261300Z 02002MPS CAVOK 30/24 Q0997 NOSIG
ZHHH,2021-07-26 14:00,ZHHH 261400Z 04004MPS CAVOK 30/24 Q0998 NOSIG
ZHHH,2021-07-26 15:00,ZHHH 261500Z 01003MPS 320V050 9999 -RA NSC 28/26 Q0998 NOSIG
ZHHH,2021-07-26 16:00,ZHHH 261600Z 03003MPS 350V050 CAVOK 28/26 Q0998 NOSIG
ZHHH,2021-07-26 17:00,ZHHH 261700Z 36002MPS 310V060 CAVOK 28/26 Q0997 NOSIG
ZHHH,2021-07-26 18:00,ZHHH 261800Z 01002MPS 340V060 CAVOK 28/26 Q0997 NOSIG
ZHHH,2021-07-26 19:00,ZHHH 261900Z VRB01MPS CAVOK 28/27 Q0997 NOSIG
ZHHH,2021-07-26 20:00,ZHHH 262000Z VRB01MPS CAVOK 28/26 Q0997 NOSIG
ZHHH,2021-07-26 21:00,ZHHH 262100Z 34002MPS 270V050 CAVOK 27/27 Q0997 NOSIG
ZHHH,2021-07-26 22:00,ZHHH 262200Z VRB02MPS CAVOK 27/27 Q0997 NOSIG
ZHHH,2021-07-26 23:00,ZHHH 262300Z VRB02MPS CAVOK 28/27 Q0997 NOSIG
ZHHH,2021-07-27 00:00,ZHHH 270000Z 33003MPS 270V030 CAVOK 29/26 Q0998 NOSIG
ZHHH,2021-07-27 01:00,ZHHH 270100Z 34004MPS 250V060 9999 SCT026 29/26 Q0998 NOSIG
ZHHH,2021-07-27 02:00,ZHHH 270200Z 01003MPS 310V050 9999 SCT026 30/26 Q0998 NOSIG
ZHHH,2021-07-27 03:00,ZHHH 270300Z 35003MPS 300V050 9999 SCT026 30/26 Q0998 NOSIG
ZHHH,2021-07-27 04:00,ZHHH 270400Z 36003MPS 320V050 9999 SCT026 30/27 Q0997 NOSIG
ZHHH,2021-07-27 05:00,ZHHH 270500Z 35005MPS 310V030 9999 SCT023 31/26 Q0997 NOSIG
ZHHH,2021-07-27 06:00,ZHHH 270600Z 35004MPS 300V040 9999 SCT023 32/27 Q0996 NOSIG
ZHHH,2021-07-27 07:00,ZHHH 270700Z VRB04MPS 9999 SCT033 33/26 Q0995 NOSIG
ZHHH,2021-07-27 08:00,ZHHH 270800Z 35004MPS 300V050 9999 SCT033 33/25 Q0995 NOSIG
ZHHH,2021-07-27 09:00,ZHHH 270900Z 01005MPS 330V040 9999 SCT033 33/25 Q0994 NOSIG
ZHHH,2021-07-27 10:00,ZHHH 271000Z 36004MPS 330V040 9999 BKN033 33/25 Q0994 NOSIG
ZHHH,2021-07-27 11:00,ZHHH 271100Z 36002MPS 310V070 9999 -RA BKN040 27/27 Q0995 RESHRA NOSIG
ZHHH,2021-07-27 12:00,ZHHH 271200Z 34002MPS 280V020 CAVOK 27/27 Q0995 NOSIG
ZHHH,2021-07-27 13:00,ZHHH 271300Z 34003MPS 290V040 CAVOK 27/27 Q0996 NOSIG
ZHHH,2021-07-27 14:00,ZHHH 271400Z VRB02MPS CAVOK 27/27 Q0996 NOSIG
ZHHH,2021-07-27 15:00,ZHHH 271500Z 35003MPS 270V030 9999 -SHRA NSC 26/26 Q0996 NOSIG
ZHHH,2021-07-27 16:00,ZHHH 271600Z 34002MPS 210V020 CAVOK 27/27 Q0996 NOSIG
ZHHH,2021-07-27 17:00,ZHHH 271700Z 35003MPS 310V030 9999 SCT033 26/26 Q0996 NOSIG
ZHHH,2021-07-27 18:00,ZHHH 271800Z VRB02MPS 9999 SCT033 27/26 Q0996 NOSIG
ZHHH,2021-07-27 19:00,ZHHH 271900Z 31003MPS 250V030 CAVOK 27/26 Q0996 NOSIG
ZHHH,2021-07-27 20:00,ZHHH 272000Z VRB02MPS CAVOK 27/27 Q0995 NOSIG
ZHHH,2021-07-27 21:00,ZHHH 272100Z 32003G08MPS 220V020 CAVOK 27/26 Q0995 NOSIG
ZHHH,2021-07-27 22:00,ZHHH 272200Z VRB03MPS CAVOK 27/26 Q0995 NOSIG
ZHHH,2021-07-27 23:00,ZHHH 272300Z 31004MPS 250V020 CAVOK 27/26 Q0995 NOSIG
ZHHH,2021-07-28 00:00,ZHHH 280000Z VRB03MPS 9999 FEW016 28/26 Q0996 NOSIG
ZHHH,2021-07-28 01:00,ZHHH 280100Z VRB04G09MPS 9999 SCT020 BKN040 28/26 Q0996 NOSIG
ZHHH,2021-07-28 02:00,ZHHH 280200Z 33005MPS 270V080 9999 SCT020 BKN040 29/26 Q0996 NOSIG
ZHHH,2021-07-28 03:00,ZHHH 280300Z 32004MPS 240V040 9999 SCT020 OVC040 28/25 Q0996 NOSIG
ZHHH,2021-07-28 04:00,ZHHH 280400Z 35004MPS 300V040 9999 SCT030 30/26 Q0996 NOSIG
ZHHH,2021-07-28 05:00,ZHHH 280500Z 34005MPS 280V020 9999 SCT030 29/26 Q0996 NOSIG
ZHHH,2021-07-28 06:00,ZHHH 280600Z 36005MPS 320V030 9999 BKN040 29/26 Q0995 NOSIG
ZHHH,2021-07-28 07:00,ZHHH 280700Z 34005MPS 280V020 9999 BKN040 30/26 Q0995 NOSIG
ZHHH,2021-07-28 08:00,ZHHH 280800Z 36005G11MPS 320V050 9999 BKN040 29/25 Q0995 NOSIG
ZHHH,2021-07-28 09:00,ZHHH 280900Z 35005MPS 320V050 9999 SCT040 29/25 Q0995 NOSIG
ZHHH,2021-07-28 10:00,ZHHH 281000Z 35004MPS 310V040 9999 SCT040 28/24 Q0995 NOSIG
ZHHH,2021-07-28 11:00,ZHHH 281100Z 34003MPS 280V040 CAVOK 28/25 Q0996 NOSIG
ZHHH,2021-07-28 12:00,ZHHH 281200Z 36002MPS 320V040 CAVOK 27/25 Q0997 NOSIG
ZHHH,2021-07-28 13:00,ZHHH 281300Z VRB01MPS CAVOK 27/25 Q0997 NOSIG
ZHHH,2021-07-28 14:00,ZHHH 281400Z 30002MPS 240V010 9999 BKN040 27/25 Q0998 NOSIG
ZHHH,2021-07-28 15:00,ZHHH 281500Z 29002MPS 240V320 CAVOK 27/25 Q0998 NOSIG
ZHHH,2021-07-28 16:00,ZHHH 281600Z 29002MPS 220V330 CAVOK 27/25 Q0998 NOSIG
ZHHH,2021-07-28 17:00,ZHHH 281700Z 26003MPS 210V320 CAVOK 27/26 Q0998 NOSIG
ZHHH,2021-07-28 18:00,ZHHH 281800Z 26002MPS 200V310 CAVOK 27/25 Q0998 NOSIG
ZHHH,2021-07-28 19:00,ZHHH 281900Z 28003MPS 240V340 CAVOK 27/25 Q0998 NOSIG
ZHHH,2021-07-28 20:00,ZHHH 282000Z 29003MPS 250V340 CAVOK 26/25 Q0998 NOSIG
ZHHH,2021-07-28 21:00,ZHHH 282100Z 28002MPS 260V320 CAVOK 26/24 Q0998 NOSIG
ZHHH,2021-07-28 22:00,ZHHH 282200Z VRB01MPS CAVOK 26/25 Q0998 NOSIG
ZHHH,2021-07-28 23:00,ZHHH 282300Z 26002MPS 230V310 CAVOK 27/25 Q0999 NOSIG
ZHHH,2021-07-29 00:00,ZHHH 290000Z VRB02MPS CAVOK 28/24 Q0999 NOSIG
ZHHH,2021-07-29 01:00,ZHHH 290100Z 27003MPS 230V300 CAVOK 29/23 Q0999 NOSIG
ZHHH,2021-07-29 02:00,ZHHH 290200Z 27002MPS 220V340 CAVOK 30/23 Q0999 NOSIG
ZHHH,2021-07-29 03:00,ZHHH 290300Z 28002MPS 220V010 CAVOK 31/23 Q0999 NOSIG
ZHHH,2021-07-29 04:00,ZHHH 290400Z VRB02MPS 9999 FEW030 32/23 Q0999 NOSIG
ZHHH,2021-07-29 05:00,ZHHH 290500Z VRB02MPS 9999 FEW030 32/22 Q0999 NOSIG
ZHHH,2021-07-29 06:00,ZHHH 290600Z 26002MPS 230V300 9999 FEW030 33/22 Q0999 NOSIG
ZHHH,2021-07-29 07:00,ZHHH 290700Z 30002MPS 240V040 9999 FEW030 34/22 Q0998 NOSIG
ZHHH,2021-07-29 08:00,ZHHH 290800Z 30002MPS 230V030 9999 FEW030 34/22 Q0997 NOSIG
ZHHH,2021-07-29 09:00,ZHHH 290900Z 28002MPS 220V350 9999 FEW030TCU FEW030 33/24 Q0997 NOSIG
ZHHH,2021-07-29 10:00,ZHHH 291000Z VRB01MPS 9999 FEW030TCU FEW030 33/24 Q0997 NOSIG
ZHHH,2021-07-29 11:00,ZHHH 291100Z 00000MPS 9999 FEW033 32/24 Q0997 NOSIG
ZHHH,2021-07-29 12:00,ZHHH 291200Z 00000MPS CAVOK 29/26 Q0998 NOSIG
ZHHH,2021-07-29 13:00,ZHHH 291300Z 00000MPS CAVOK 28/27 Q0999 NOSIG
ZHHH,2021-07-29 14:00,ZHHH 291400Z 00000MPS CAVOK 28/27 Q1000 NOSIG
ZHHH,2021-07-29 15:00,ZHHH 291500Z 24002MPS CAVOK 30/26 Q1000 NOSIG
ZHHH,2021-07-29 16:00,ZHHH 291600Z VRB01MPS CAVOK 28/26 Q0999 NOSIG
ZHHH,2021-07-29 17:00,ZHHH 291700Z 00000MPS CAVOK 27/27 Q0999 NOSIG
ZHHH,2021-07-29 18:00,ZHHH 291800Z 04002MPS CAVOK 27/27 Q0999 NOSIG
ZHHH,2021-07-29 19:00,ZHHH 291900Z 05002MPS CAVOK 27/26 Q0999 NOSIG
ZHHH,2021-07-29 20:00,ZHHH 292000Z 00000MPS CAVOK 26/26 Q0998 NOSIG
ZHHH,2021-07-29 21:00,ZHHH 292100Z 00000MPS CAVOK 26/26 Q0999 NOSIG
ZHHH,2021-07-29 22:00,ZHHH 292200Z 05002MPS CAVOK 27/27 Q0999 NOSIG
ZHHH,2021-07-29 23:00,ZHHH 292300Z 07003MPS CAVOK 28/27 Q0999 NOSIG
ZHHH,2021-07-30 00:00,ZHHH 300000Z 11002MPS 070V130 CAVOK 30/26 Q1000 NOSIG
ZHHH,2021-07-30 01:00,ZHHH 300100Z VRB02MPS 9999 FEW020 32/26 Q1000 NOSIG
ZHHH,2021-07-30 02:00,ZHHH 300200Z VRB02MPS 9999 FEW020 33/25 Q0999 NOSIG
ZHHH,2021-07-30 03:00,ZHHH 300300Z 22003MPS 120V250 9999 SCT040 34/23 Q0999 NOSIG
ZHHH,2021-07-30 04:00,ZHHH 300400Z 24003MPS 200V290 9999 SCT040 35/23 Q0999 NOSIG
ZHHH,2021-07-30 05:00,ZHHH 300500Z 21003MPS 170V250 CAVOK 35/23 Q0998 NOSIG
ZHHH,2021-07-30 06:00,ZHHH 300600Z 23003MPS 200V290 9999 SCT033 36/23 Q0997 NOSIG
ZHHH,2021-07-30 07:00,ZHHH 300700Z 28002MPS 220V350 9999 SCT033 36/23 Q0997 NOSIG
ZHHH,2021-07-30 08:00,ZHHH 300800Z 33002MPS 270V040 9999 FEW033TCU FEW033 36/24 Q0996 NOSIG
ZHHH,2021-07-30 09:00,ZHHH 300900Z 32002MPS 290V350 9999 FEW033TCU FEW033 36/24 Q0996 NOSIG
ZHHH,2021-07-30 10:00,ZHHH 301000Z VRB01MPS 9999 FEW040TCU FEW040 36/24 Q0996 NOSIG
ZHHH,2021-07-30 11:00,ZHHH 301100Z 29002MPS 240V360 9999 FEW040 33/25 Q0996 NOSIG
ZHHH,2021-07-30 12:00,ZHHH 301200Z VRB01MPS CAVOK 32/26 Q0997 NOSIG
ZHHH,2021-07-30 13:00,ZHHH 301300Z 31001MPS CAVOK 30/28 Q0998 NOSIG
ZHHH,2021-07-30 14:00,ZHHH 301400Z 00000MPS CAVOK 29/28 Q0998 NOSIG
ZHHH,2021-07-30 15:00,ZHHH 301500Z 00000MPS CAVOK 29/27 Q0998 NOSIG
ZHHH,2021-07-30 16:00,ZHHH 301600Z 00000MPS CAVOK 29/27 Q0998 NOSIG
ZHHH,2021-07-30 17:00,ZHHH 301700Z 00000MPS CAVOK 28/26 Q0997 NOSIG
ZHHH,2021-07-30 18:00,ZHHH 301800Z 00000MPS CAVOK 28/28 Q0997 NOSIG
ZHHH,2021-07-30 19:00,ZHHH 301900Z 33001MPS CAVOK 28/28 Q0997 NOSIG
ZHHH,2021-07-30 20:00,ZHHH 302000Z 01001MPS CAVOK 28/28 Q0997 NOSIG
ZHHH,2021-07-30 21:00,ZHHH 302100Z 06002MPS CAVOK 28/27 Q0997 NOSIG
ZHHH,2021-07-30 22:00,ZHHH 302200Z 06002MPS 7000 NSC 28/27 Q0998 NOSIG
ZHHH,2021-07-30 23:00,ZHHH 302300Z 09002MPS 060V120 5000 BR NSC 30/28 Q0998 NOSIG
ZHHH,2021-07-31 00:00,ZHHH 310000Z 11002MPS 070V140 6000 NSC 31/27 Q0998 NOSIG
ZHHH,2021-07-31 01:00,ZHHH 310100Z VRB02MPS 8000 NSC 33/26 Q0998 NOSIG
ZHHH,2021-07-31 02:00,ZHHH 310200Z VRB02MPS 8000 SCT030 34/26 Q0998 NOSIG
ZHHH,2021-07-31 03:00,ZHHH 310300Z 26002MPS 180V350 8000 SCT030 35/27 Q0998 NOSIG
ZHHH,2021-07-31 04:00,ZHHH 310400Z 27002MPS 220V320 9999 SCT030 35/26 Q0998 NOSIG
ZHHH,2021-07-31 05:00,ZHHH 310500Z VRB02MPS 9999 SCT030 35/25 Q0997 NOSIG
ZHHH,2021-07-31 06:00,ZHHH 310600Z 28002MPS 190V340 9999 SCT030 36/25 Q0997 NOSIG
ZHHH,2021-07-31 07:00,ZHHH 310700Z VRB02MPS 9999 SCT030 37/24 Q0996 NOSIG
ZHHH,2021-07-31 08:00,ZHHH 310800Z 29002MPS 240V020 9999 SCT033 36/26 Q0996 NOSIG
ZHHH,2021-07-31 09:00,ZHHH 310900Z VRB02MPS 9999 FEW030TCU SCT040 36/27 Q0995 NOSIG
ZHHH,2021-07-31 10:00,ZHHH 311000Z 30002MPS 250V350 CAVOK 35/27 Q0995 NOSIG
ZHHH,2021-07-31 11:00,ZHHH 311100Z 30002MPS 260V330 CAVOK 34/27 Q0996 NOSIG
ZHHH,2021-07-31 12:00,ZHHH 311200Z VRB01MPS CAVOK 32/28 Q0996 NOSIG
ZHHH,2021-07-31 13:00,ZHHH 311300Z 29001MPS CAVOK 32/29 Q0997 NOSIG
ZHHH,2021-07-31 14:00,ZHHH 311400Z 33001MPS CAVOK 31/30 Q0997 NOSIG
ZHHH,2021-07-31 15:00,ZHHH 311500Z 01002MPS CAVOK 30/30 Q0997 NOSIG
ZHHH,2021-07-31 16:00,ZHHH 311600Z 35001MPS CAVOK 30/30 Q0998 NOSIG
ZHHH,2021-07-31 17:00,ZHHH 311700Z VRB01MPS CAVOK 30/29 Q0998 NOSIG
ZHHH,2021-07-31 18:00,ZHHH 311800Z 26001MPS CAVOK 30/30 Q0997 NOSIG
ZHHH,2021-07-31 19:00,ZHHH 311900Z 01001MPS CAVOK 29/29 Q0996 NOSIG
ZHHH,2021-07-31 20:00,ZHHH 312000Z 05002MPS CAVOK 29/29 Q0996 NOSIG
ZHHH,2021-07-31 21:00,ZHHH 312100Z 04002MPS CAVOK 28/28 Q0996 NOSIG
ZHHH,2021-07-31 22:00,ZHHH 312200Z 08002MPS CAVOK 29/27 Q0996 NOSIG
ZHHH,2021-07-31 23:00,ZHHH 312300Z 05002MPS CAVOK 30/27 Q0997 NOSIG
ZHHH,2021-08-01 00:00,ZHHH 010000Z 06003MPS 020V090 CAVOK 31/28 Q0997 NOSIG
ZHHH,2021-08-01 01:00,ZHHH 010100Z 10003MPS 060V140 8000 NSC 33/28 Q0998 NOSIG
ZHHH,2021-08-01 02:00,ZHHH 010200Z 14003MPS 080V200 8000 NSC 34/27 Q0998 NOSIG
ZHHH,2021-08-01 03:00,ZHHH 010300Z VRB02MPS CAVOK 35/27 Q0998 NOSIG
ZHHH,2021-08-01 04:00,ZHHH 010400Z 25002MPS 200V310 9999 FEW033 35/27 Q0997 NOSIG
ZHHH,2021-08-01 05:00,ZHHH 010500Z 31002MPS 260V050 9999 FEW033 36/25 Q0997 NOSIG
ZHHH,2021-08-01 06:00,ZHHH 010600Z 31002MPS 250V360 9999 FEW033 37/24 Q0996 NOSIG
ZHHH,2021-08-01 07:00,ZHHH 010700Z 30002MPS 240V020 9999 FEW033 37/25 Q0996 NOSIG
ZHHH,2021-08-01 08:00,ZHHH 010800Z VRB01MPS 9999 FEW033 38/24 Q0995 NOSIG
ZHHH,2021-08-01 09:00,ZHHH 010900Z 29002MPS 240V340 CAVOK 37/25 Q0995 NOSIG
ZHHH,2021-08-01 10:00,ZHHH 011000Z 28002MPS 230V330 CAVOK 36/26 Q0995 NOSIG
ZHHH,2021-08-01 11:00,ZHHH 011100Z VRB01MPS CAVOK 35/27 Q0996 NOSIG
ZHHH,2021-08-01 12:00,ZHHH 011200Z 00000MPS CAVOK 32/28 Q0997 NOSIG
ZHHH,2021-08-01 13:00,ZHHH 011300Z 01002MPS CAVOK 32/28 Q0997 NOSIG
ZHHH,2021-08-01 14:00,ZHHH 011400Z VRB01MPS CAVOK 31/29 Q0997 NOSIG
ZHHH,2021-08-01 15:00,ZHHH 011500Z VRB01MPS CAVOK 32/30 Q0997 NOSIG
ZHHH,2021-08-01 16:00,ZHHH 011600Z VRB01MPS CAVOK 31/29 Q0998 NOSIG
ZHHH,2021-08-01 17:00,ZHHH 011700Z 06002MPS CAVOK 31/28 Q0998 NOSIG
ZHHH,2021-08-01 18:00,ZHHH 011800Z 07003MPS CAVOK 31/27 Q0998 NOSIG
ZHHH,2021-08-01 19:00,ZHHH 011900Z 06003MPS CAVOK 30/28 Q0998 NOSIG
ZHHH,2021-08-01 20:00,ZHHH 012000Z VRB01MPS CAVOK 29/28 Q0998 NOSIG
ZHHH,2021-08-01 21:00,ZHHH 012100Z 05002MPS CAVOK 29/28 Q0998 NOSIG
ZHHH,2021-08-01 22:00,ZHHH 012200Z 04003MPS CAVOK 28/28 Q0999 NOSIG
ZHHH,2021-08-01 23:00,ZHHH 012300Z 04005MPS CAVOK 29/28 Q0999 NOSIG
ZHHH,2021-08-02 00:00,ZHHH 020000Z 07006MPS CAVOK 31/28 Q1000 NOSIG
ZHHH,2021-08-02 01:00,ZHHH 020100Z 06006MPS CAVOK 32/28 Q1000 NOSIG
ZHHH,2021-08-02 02:00,ZHHH 020200Z 06004MPS 020V090 CAVOK 33/28 Q1000 NOSIG
ZHHH,2021-08-02 03:00,ZHHH 020300Z 02003MPS 340V060 9999 FEW023 34/28 Q1000 NOSIG
ZHHH,2021-08-02 04:00,ZHHH 020400Z VRB02MPS CAVOK 35/28 Q1000 NOSIG
ZHHH,2021-08-02 05:00,ZHHH 020500Z 35003MPS 280V030 9999 FEW026TCU 35/28 Q0999 NOSIG
ZHHH,2021-08-02 06:00,ZHHH 020600Z 34002MPS 270V020 9999 FEW026CB FEW040TCU SCT040 34/27 Q0999 BECMG TL0710 TSRA
ZHHH,2021-08-02 07:00,ZHHH 020700Z 29003MPS 230V360 9999 FEW026CB FEW040TCU 32/26 Q0999 NOSIG
ZHHH,2021-08-02 08:00,ZHHH 020800Z 33002MPS 250V030 9999 FEW033CB FEW040TCU 33/29 Q0999 NOSIG
ZHHH,2021-08-02 09:00,ZHHH 020900Z 33002MPS 260V010 9999 FEW033CB 35/28 Q0999 NOSIG
ZHHH,2021-08-02 10:00,ZHHH 021000Z 02002MPS 350V050 9999 FEW033CB 34/27 Q0998 NOSIG
ZHHH,2021-08-02 11:00,ZHHH 021100Z 10004MPS CAVOK 33/25 Q0999 NOSIG
ZHHH,2021-08-02 12:00,ZHHH 021200Z 04005MPS CAVOK 32/27 Q1000 NOSIG
ZHHH,2021-08-02 13:00,ZHHH 021300Z 04004MPS CAVOK 31/28 Q1000 NOSIG
ZHHH,2021-08-02 14:00,ZHHH 021400Z 03003MPS CAVOK 30/28 Q1001 NOSIG
ZHHH,2021-08-02 15:00,ZHHH 021500Z 03003MPS 360V060 CAVOK 30/27 Q1001 NOSIG
ZHHH,2021-08-02 16:00,ZHHH 021600Z 06002MPS 010V120 CAVOK 29/26 Q1001 NOSIG
ZHHH,2021-08-02 17:00,ZHHH 021700Z 02002MPS CAVOK 28/26 Q1001 NOSIG
ZHHH,2021-08-02 18:00,ZHHH 021800Z 03002MPS CAVOK 28/27 Q1000 NOSIG
ZHHH,2021-08-02 19:00,ZHHH 021900Z 04002MPS CAVOK 27/26 Q1000 NOSIG
ZHHH,2021-08-02 20:00,ZHHH 022000Z 05002MPS CAVOK 28/26 Q1000 NOSIG
ZHHH,2021-08-02 21:00,ZHHH 022100Z 01001MPS CAVOK 27/26 Q1001 NOSIG
ZHHH,2021-08-02 22:00,ZHHH 022200Z 05003MPS CAVOK 27/26 Q1002 NOSIG
ZHHH,2021-08-02 23:00,ZHHH 022300Z 01002MPS 340V050 CAVOK 28/27 Q1002 NOSIG
ZHHH,2021-08-03 00:00,ZHHH 030000Z 04003MPS 360V070 CAVOK 29/27 Q1003 NOSIG
ZHHH,2021-08-03 01:00,ZHHH 030100Z 05003MPS 350V080 CAVOK 30/27 Q1003 NOSIG
ZHHH,2021-08-03 02:00,ZHHH 030200Z 02003MPS 340V080 CAVOK 32/27 Q1003 NOSIG
ZHHH,2021-08-03 03:00,ZHHH 030300Z 04003MPS 330V140 9999 FEW030 33/25 Q1003 NOSIG
ZHHH,2021-08-03 04:00,ZHHH 030400Z 02003MPS 300V070 9999 SCT030 34/25 Q1002 NOSIG
ZHHH,2021-08-03 05:00,ZHHH 030500Z 34002MPS 260V040 9999 SCT040 35/25 Q1002 NOSIG
ZHHH,2021-08-03 06:00,ZHHH 030600Z VRB02MPS 9999 SCT040 35/24 Q1002 NOSIG
ZHHH,2021-08-03 07:00,ZHHH 030700Z 02003MPS 320V090 9999 SCT040 36/24 Q1001 NOSIG
ZHHH,2021-08-03 08:00,ZHHH 030800Z 02004MPS 340V060 9999 FEW030TCU 36/25 Q1001 NOSIG
ZHHH,2021-08-03 09:00,ZHHH 030900Z 03004MPS 350V070 9999 FEW030TCU 35/24 Q1001 NOSIG
ZHHH,2021-08-03 10:00,ZHHH 031000Z 02003MPS 350V060 9999 FEW030TCU 34/25 Q1001 NOSIG
ZHHH,2021-08-03 11:00,ZHHH 031100Z 02003MPS 340V050 9999 FEW033 33/25 Q1001 NOSIG
ZHHH,2021-08-03 12:00,ZHHH 031200Z 02002MPS CAVOK 31/25 Q1002 NOSIG
ZHHH,2021-08-03 13:00,ZHHH 031300Z 04004MPS 010V070 CAVOK 31/25 Q1002 NOSIG
ZHHH,2021-08-03 14:00,ZHHH 031400Z 02003MPS 350V050 CAVOK 30/25 Q1003 NOSIG
ZHHH,2021-08-03 15:00,ZHHH 031500Z 03003MPS CAVOK 29/25 Q1003 NOSIG
ZHHH,2021-08-03 16:00,ZHHH 031600Z 04003MPS CAVOK 29/25 Q1003 NOSIG
ZHHH,2021-08-03 17:00,ZHHH 031700Z 05004MPS CAVOK 28/24 Q1003 NOSIG
ZHHH,2021-08-03 18:00,ZHHH 031800Z 02002MPS 340V060 CAVOK 27/25 Q1002 NOSIG
ZHHH,2021-08-03 19:00,ZHHH 031900Z 04003MPS 360V060 CAVOK 27/25 Q1002 NOSIG
ZHHH,2021-08-03 20:00,ZHHH 032000Z 04003MPS CAVOK 27/25 Q1002 NOSIG
ZHHH,2021-08-03 21:00,ZHHH 032100Z 36002MPS 320V020 CAVOK 27/26 Q1002 NOSIG
ZHHH,2021-08-03 22:00,ZHHH 032200Z 03002MPS CAVOK 27/26 Q1002 NOSIG
ZHHH,2021-08-03 23:00,ZHHH 032300Z 05003MPS 010V070 CAVOK 28/26 Q1003 NOSIG
ZHHH,2021-08-04 00:00,ZHHH 040000Z 01003MPS 320V050 CAVOK 30/27 Q1003 NOSIG
ZHHH,2021-08-04 01:00,ZHHH 040100Z 02004MPS 320V070 CAVOK 31/26 Q1003 NOSIG
ZHHH,2021-08-04 02:00,ZHHH 040200Z 02003MPS 320V070 9999 FEW040 32/26 Q1003 NOSIG
ZHHH,2021-08-04 03:00,ZHHH 040300Z 34003MPS 290V020 9999 FEW030 32/27 Q1003 NOSIG
ZHHH,2021-08-04 04:00,ZHHH 040400Z 36003MPS 310V060 9999 SCT026 34/26 Q1002 NOSIG
ZHHH,2021-08-04 05:00,ZHHH 040500Z 02003MPS 320V080 9999 BKN026 35/25 Q1001 NOSIG
ZHHH,2021-08-04 06:00,ZHHH 040600Z 01003MPS 330V040 9999 BKN033 35/25 Q1000 NOSIG
ZHHH,2021-08-04 07:00,ZHHH 040700Z 02004MPS 340V050 9999 BKN026 35/25 Q1000 NOSIG
ZHHH,2021-08-04 08:00,ZHHH 040800Z 02003MPS 330V070 9999 BKN026 35/25 Q0999 NOSIG
ZHHH,2021-08-04 09:00,ZHHH 040900Z 04005MPS 9999 BKN026 35/25 Q0999 NOSIG
ZHHH,2021-08-04 10:00,ZHHH 041000Z 03004MPS 350V060 9999 SCT026 34/25 Q0999 NOSIG
ZHHH,2021-08-04 11:00,ZHHH 041100Z 03003MPS 350V060 9999 FEW040 33/26 Q0999 NOSIG
ZHHH,2021-08-04 12:00,ZHHH 041200Z 02003MPS 310V040 CAVOK 32/26 Q1000 NOSIG
ZHHH,2021-08-04 13:00,ZHHH 041300Z 03004MPS CAVOK 31/26 Q1000 NOSIG
ZHHH,2021-08-04 14:00,ZHHH 041400Z 04005MPS CAVOK 31/27 Q1000 NOSIG
ZHHH,2021-08-04 15:00,ZHHH 041500Z 04004MPS CAVOK 30/27 Q1000 NOSIG
ZHHH,2021-08-04 16:00,ZHHH 041600Z 04003MPS CAVOK 29/27 Q1000 NOSIG
ZHHH,2021-08-04 17:00,ZHHH 041700Z 04002MPS CAVOK 29/27 Q1000 NOSIG
ZHHH,2021-08-04 18:00,ZHHH 041800Z 04003MPS CAVOK 29/27 Q1000 NOSIG
ZHHH,2021-08-04 19:00,ZHHH 041900Z 04003MPS CAVOK 28/27 Q0999 NOSIG
ZHHH,2021-08-04 20:00,ZHHH 042000Z 03003MPS CAVOK 28/27 Q0999 NOSIG
ZHHH,2021-08-04 21:00,ZHHH 042100Z 03002MPS CAVOK 28/27 Q0999 NOSIG
ZHHH,2021-08-04 22:00,ZHHH 042200Z 05004MPS CAVOK 28/27 Q0999 NOSIG
ZHHH,2021-08-04 23:00,ZHHH 042300Z 03002MPS 350V070 CAVOK 29/27 Q1000 NOSIG
ZHHH,2021-08-05 00:00,ZHHH 050000Z 01002MPS 320V060 CAVOK 31/27 Q1000 NOSIG
ZHHH,2021-08-05 01:00,ZHHH 050100Z 06003MPS 020V110 CAVOK 32/26 Q1000 NOSIG
ZHHH,2021-08-05 02:00,ZHHH 050200Z 01003MPS 320V070 CAVOK 34/26 Q1000 NOSIG
ZHHH,2021-08-05 03:00,ZHHH 050300Z VRB02MPS 9999 FEW033 35/24 Q1000 NOSIG
ZHHH,2021-08-05 04:00,ZHHH 050400Z 03003MPS 330V090 9999 FEW026 FEW030TCU 35/25 Q1000 NOSIG
ZHHH,2021-08-05 05:00,ZHHH 050500Z 08006MPS 010V100 9999 SCT030TCU 36/26 Q0999 NOSIG
ZHHH,2021-08-05 06:00,ZHHH 050600Z 06004MPS 340V090 9999 FEW026 FEW030TCU 36/25 Q0998 NOSIG
ZHHH,2021-08-05 07:00,ZHHH 050700Z 03003MPS 330V090 9999 FEW026 FEW030CB 36/25 Q0998 NOSIG
ZHHH,2021-08-05 08:00,ZHHH 050800Z 04006MPS 360V060 9999 FEW026 FEW030CB 35/23 Q0998 NOSIG
ZHHH,2021-08-05 09:00,ZHHH 050900Z 03004MPS 360V060 9999 FEW026 FEW030TCU 34/25 Q0997 NOSIG
ZHHH,2021-08-05 10:00,ZHHH 051000Z 04005MPS 9999 FEW026 FEW030TCU 34/23 Q0998 NOSIG
ZHHH,2021-08-05 11:00,ZHHH 051100Z 03004MPS 360V060 CAVOK 32/24 Q0998 NOSIG
ZHHH,2021-08-05 12:00,ZHHH 051200Z 03003MPS 360V060 CAVOK 31/24 Q0999 NOSIG
ZHHH,2021-08-05 13:00,ZHHH 051300Z 04003MPS CAVOK 31/24 Q1000 NOSIG
ZHHH,2021-08-05 14:00,ZHHH 051400Z 02003MPS 350V050 CAVOK 30/25 Q1000 NOSIG
ZHHH,2021-08-05 15:00,ZHHH 051500Z 03003MPS CAVOK 29/25 Q1000 NOSIG
ZHHH,2021-08-05 16:00,ZHHH 051600Z 03002MPS CAVOK 29/25 Q1000 NOSIG
ZHHH,2021-08-05 17:00,ZHHH 051700Z 04003MPS CAVOK 29/26 Q0999 NOSIG
ZHHH,2021-08-05 18:00,ZHHH 051800Z 05003MPS CAVOK 28/26 Q0999 NOSIG
ZHHH,2021-08-05 19:00,ZHHH 051900Z 02002MPS 340V050 CAVOK 28/26 Q0999 NOSIG
ZHHH,2021-08-05 20:00,ZHHH 052000Z VRB01MPS CAVOK 28/27 Q0999 NOSIG
ZHHH,2021-08-05 21:00,ZHHH 052100Z 03002MPS 350V060 9999 -RA NSC 27/27 Q0999 NOSIG
ZHHH,2021-08-05 22:00,ZHHH 052200Z 03002MPS 9999 FEW030TCU 27/27 Q1000 NOSIG
ZHHH,2021-08-05 23:00,ZHHH 052300Z 36002MPS 310V050 CAVOK 29/27 Q1000 NOSIG
ZHHH,2021-08-06 00:00,ZHHH 060000Z 35002MPS 310V040 CAVOK 30/27 Q1000 NOSIG
ZHHH,2021-08-06 01:00,ZHHH 060100Z 04004MPS 350V060 9999 FEW026 31/27 Q1000 NOSIG
ZHHH,2021-08-06 02:00,ZHHH 060200Z 03005MPS 350V070 9999 FEW040 32/26 Q1001 NOSIG
ZHHH,2021-08-06 03:00,ZHHH 060300Z 02003MPS 330V060 9999 BKN033 33/26 Q1000 NOSIG
ZHHH,2021-08-06 04:00,ZHHH 060400Z 04004MPS 330V060 9999 FEW033TCU SCT033 34/26 Q1000 NOSIG
ZHHH,2021-08-06 05:00,ZHHH 060500Z 02004MPS 330V060 9999 SCT033TCU FEW033 35/26 Q0999 NOSIG
ZHHH,2021-08-06 06:00,ZHHH 060600Z 03005MPS 340V070 9999 SCT033TCU FEW033 35/25 Q0998 NOSIG
ZHHH,2021-08-06 07:00,ZHHH 060700Z 04004MPS 350V060 9999 FEW033TCU FEW033 36/25 Q0998 NOSIG
ZHHH,2021-08-06 08:00,ZHHH 060800Z 03005MPS 360V060 9999 FEW033TCU FEW033 35/25 Q0998 NOSIG
ZHHH,2021-08-06 09:00,ZHHH 060900Z 02004MPS 340V060 9999 FEW033TCU FEW033 35/25 Q0998 NOSIG
ZHHH,2021-08-06 10:00,ZHHH 061000Z 04005MPS 360V060 9999 FEW033TCU 34/25 Q0998 NOSIG
ZHHH,2021-08-06 11:00,ZHHH 061100Z 03004MPS 360V060 9999 FEW030 FEW033TCU 32/25 Q0998 NOSIG
ZHHH,2021-08-06 12:00,ZHHH 061200Z 02003MPS 350V050 CAVOK 31/25 Q0999 NOSIG
ZHHH,2021-08-06 13:00,ZHHH 061300Z 02002MPS 350V050 CAVOK 30/25 Q0999 NOSIG
ZHHH,2021-08-06 14:00,ZHHH 061400Z 03003MPS 350V050 CAVOK 30/25 Q1000 NOSIG
ZHHH,2021-08-06 15:00,ZHHH 061500Z 03003MPS 360V060 CAVOK 29/25 Q1000 NOSIG
ZHHH,2021-08-06 16:00,ZHHH 061600Z 04002MPS 360V060 CAVOK 29/26 Q1000 NOSIG
ZHHH,2021-08-06 17:00,ZHHH 061700Z 05004MPS CAVOK 29/26 Q1000 NOSIG
ZHHH,2021-08-06 18:00,ZHHH 061800Z 05004MPS CAVOK 28/26 Q1000 NOSIG
ZHHH,2021-08-06 19:00,ZHHH 061900Z 06002MPS CAVOK 29/26 Q1000 NOSIG
ZHHH,2021-08-06 20:00,ZHHH 062000Z 04002MPS CAVOK 28/27 Q1000 NOSIG
ZHHH,2021-08-06 21:00,ZHHH 062100Z 05002MPS 360V100 CAVOK 28/27 Q1000 NOSIG
ZHHH,2021-08-06 22:00,ZHHH 062200Z 02002MPS CAVOK 27/27 Q1001 NOSIG
ZHHH,2021-08-06 23:00,ZHHH 062300Z 05004MPS 9999 FEW033 29/27 Q1001 NOSIG
ZHHH,2021-08-07 00:00,ZHHH 070000Z 06003MPS CAVOK 30/26 Q1002 NOSIG
ZHHH,2021-08-07 01:00,ZHHH 070100Z 06002MPS 340V140 CAVOK 32/26 Q1002 NOSIG
ZHHH,2021-08-07 02:00,ZHHH 070200Z 33002MPS 240V010 9999 FEW030 32/26 Q1002 NOSIG
ZHHH,2021-08-07 03:00,ZHHH 070300Z 34002MPS 250V030 9999 SCT030 34/25 Q1003 NOSIG
ZHHH,2021-08-07 04:00,ZHHH 070400Z 31002MPS 260V030 9999 FEW030TCU SCT030 34/25 Q1002 NOSIG
ZHHH,2021-08-07 05:00,ZHHH 070500Z 34002MPS 290V050 9999 FEW030TCU SCT030 35/26 Q1002 NOSIG
ZHHH,2021-08-07 06:00,ZHHH 070600Z 01003MPS 320V060 9999 FEW030TCU SCT030 35/24 Q1001 NOSIG
ZHHH,2021-08-07 07:00,ZHHH 070700Z 36002MPS 290V090 9999 SCT030 36/23 Q1000 NOSIG
ZHHH,2021-08-07 08:00,ZHHH 070800Z 01002MPS 320V080 9999 FEW030 35/23 Q1000 NOSIG
ZHHH,2021-08-07 09:00,ZHHH 070900Z 36003MPS 320V040 9999 FEW030 36/24 Q1000 NOSIG
ZHHH,2021-08-07 10:00,ZHHH 071000Z 03004MPS 350V050 9999 FEW030 34/25 Q1000 NOSIG
ZHHH,2021-08-07 11:00,ZHHH 071100Z 03005MPS 9999 FEW030TCU 32/26 Q1001 NOSIG
ZHHH,2021-08-07 12:00,ZHHH 071200Z 04004MPS CAVOK 31/26 Q1002 NOSIG
ZHHH,2021-08-07 13:00,ZHHH 071300Z 04004MPS 360V060 CAVOK 30/26 Q1003 NOSIG
ZHHH,2021-08-07 14:00,ZHHH 071400Z 07005MPS CAVOK 30/26 Q1004 NOSIG
ZHHH,2021-08-07 15:00,ZHHH 071500Z 10004MPS CAVOK 30/26 Q1004 NOSIG
ZHHH,2021-08-07 16:00,ZHHH 071600Z 05003MPS 010V080 CAVOK 29/26 Q1004 NOSIG
ZHHH,2021-08-07 17:00,ZHHH 071700Z 08003MPS CAVOK 28/27 Q1003 NOSIG
ZHHH,2021-08-07 18:00,ZHHH 071800Z 07003MPS CAVOK 28/26 Q1003 NOSIG
ZHHH,2021-08-07 19:00,ZHHH 071900Z 06005MPS CAVOK 28/25 Q1003 NOSIG
ZHHH,2021-08-07 20:00,ZHHH 072000Z 08002MPS CAVOK 28/26 Q1003 NOSIG
ZHHH,2021-08-07 21:00,ZHHH 072100Z 06003MPS CAVOK 27/26 Q1003 NOSIG
ZHHH,2021-08-07 22:00,ZHHH 072200Z VRB01MPS 8000 NSC 27/27 Q1003 NOSIG
ZHHH,2021-08-07 23:00,ZHHH 072300Z 06003MPS 8000 NSC 28/27 Q1004 NOSIG
ZHHH,2021-08-08 00:00,ZHHH 080000Z 05004MPS CAVOK 30/27 Q1004 NOSIG
ZHHH,2021-08-08 01:00,ZHHH 080100Z 09004MPS 060V130 CAVOK 32/26 Q1004 NOSIG
ZHHH,2021-08-08 02:00,ZHHH 080200Z 10004MPS CAVOK 33/25 Q1005 NOSIG
ZHHH,2021-08-08 03:00,ZHHH 080300Z 10003MPS 050V140 9999 FEW030 34/25 Q1005 NOSIG
ZHHH,2021-08-08 04:00,ZHHH 080400Z 11003MPS 070V140 9999 SCT030 34/26 Q1004 NOSIG
ZHHH,2021-08-08 05:00,ZHHH 080500Z 13003MPS 040V190 9999 SCT030 35/25 Q1004 NOSIG
ZHHH,2021-08-08 06:00,ZHHH 080600Z VRB03MPS 9999 SCT040 35/23 Q1003 NOSIG
ZHHH,2021-08-08 07:00,ZHHH 080700Z 12003MPS 070V190 9999 FEW040 35/23 Q1003 NOSIG
ZHHH,2021-08-08 08:00,ZHHH 080800Z 08003MPS 010V150 9999 FEW040 35/23 Q1002 NOSIG
ZHHH,2021-08-08 09:00,ZHHH 080900Z 03003MPS 350V060 CAVOK 34/23 Q1002 NOSIG
ZHHH,2021-08-08 10:00,ZHHH 081000Z 06004MPS 9999 FEW030CB 34/23 Q1002 NOSIG
ZHHH,2021-08-08 11:00,ZHHH 081100Z 06003MPS 020V080 9999 FEW030CB 33/24 Q1002 NOSIG
ZHHH,2021-08-08 12:00,ZHHH 081200Z 10003MPS 9999 FEW030 33/24 Q1003 NOSIG
ZHHH,2021-08-08 13:00,ZHHH 081300Z 04003MPS CAVOK 31/25 Q1004 NOSIG
ZHHH,2021-08-08 14:00,ZHHH 081400Z 03003MPS CAVOK 30/26 Q1004 NOSIG
ZHHH,2021-08-08 15:00,ZHHH 081500Z 04004MPS CAVOK 30/26 Q1004 NOSIG
ZHHH,2021-08-08 16:00,ZHHH 081600Z 05004MPS CAVOK 30/26 Q1004 NOSIG
ZHHH,2021-08-08 17:00,ZHHH 081700Z 07004MPS CAVOK 30/25 Q1004 NOSIG
ZHHH,2021-08-08 18:00,ZHHH 081800Z 07004MPS 9999 -RA NSC 30/25 Q1003 NOSIG
ZHHH,2021-08-08 19:00,ZHHH 081900Z 07004MPS CAVOK 29/25 Q1003 NOSIG
ZHHH,2021-08-08 20:00,ZHHH 082000Z 07004MPS CAVOK 29/26 Q1003 NOSIG
ZHHH,2021-08-08 21:00,ZHHH 082100Z 04003MPS CAVOK 28/27 Q1002 NOSIG
ZHHH,2021-08-08 22:00,ZHHH 082200Z 07004MPS CAVOK 28/27 Q1002 NOSIG
ZHHH,2021-08-08 23:00,ZHHH 082300Z 08004MPS CAVOK 29/26 Q1003 NOSIG
ZHHH,2021-08-09 00:00,ZHHH 090000Z 09005MPS CAVOK 29/27 Q1004 NOSIG
ZHHH,2021-08-09 01:00,ZHHH 090100Z 09004MPS CAVOK 31/27 Q1003 NOSIG
ZHHH,2021-08-09 02:00,ZHHH 090200Z 10005MPS 060V120 CAVOK 32/26 Q1003 NOSIG
ZHHH,2021-08-09 03:00,ZHHH 090300Z 09006MPS CAVOK 32/26 Q1003 NOSIG
ZHHH,2021-08-09 04:00,ZHHH 090400Z 07007MPS CAVOK 31/26 Q1003 NOSIG
ZHHH,2021-08-09 05:00,ZHHH 090500Z 04006MPS 3000 -RA BR OVC040 27/27 Q1002 NOSIG
ZHHH,2021-08-09 06:00,ZHHH 090600Z 05010MPS 2000 SHRA BR FEW020 OVC033 25/25 Q1002 BECMG TL0650 1400 +TSRA SCT030CB BKN040
ZHHH,2021-08-09 07:00,ZHHH 090700Z 06009MPS 2200 SHRA BR SCT006 OVC033 24/24 Q1003 RETS BECMG TL0750 3000 -RA BR
ZHHH,2021-08-09 08:00,ZHHH 090800Z 06006MPS 9999 -RA SCT016 OVC033 24/24 Q1003 RESHRA NOSIG
ZHHH,2021-08-09 09:00,ZHHH 090900Z 06008MPS 9999 -RA FEW016 SCT040 24/24 Q1002 NOSIG
ZHHH,2021-08-09 10:00,ZHHH 091000Z 06007MPS 9999 -RA FEW016 SCT040 24/24 Q1002 NOSIG
ZHHH,2021-08-09 11:00,ZHHH 091100Z 08006MPS 9999 FEW016 SCT040 25/25 Q1002 NOSIG
ZHHH,2021-08-09 12:00,ZHHH 091200Z 09005MPS 9999 SCT040 25/25 Q1003 NOSIG
ZHHH,2021-08-09 13:00,ZHHH 091300Z 06003MPS 9999 -RA SCT033 25/25 Q1004 NOSIG
ZHHH,2021-08-09 14:00,ZHHH 091400Z 04003MPS 9999 -RA SCT033 24/24 Q1004 NOSIG
ZHHH,2021-08-09 15:00,ZHHH 091500Z 03002MPS 350V070 9999 FEW016 SCT033 24/24 Q1004 BECMG TL1620 TSRA FEW030CB
ZHHH,2021-08-09 16:00,ZHHH 091600Z VRB01MPS 8000 -SHRA SCT012 FEW026CB 24/24 Q1004 RESHRA BECMG TL1650 SHRA
ZHHH,2021-08-09 17:00,ZHHH 091700Z 04004MPS 5000 -SHRA FEW004 FEW026CB BKN040 24/24 Q1004 RESHRA NOSIG
ZHHH,2021-08-09 18:00,ZHHH 091800Z 02003MPS 350V050 8000 -SHRA FEW004 BKN040 24/24 Q1004 NOSIG
ZHHH,2021-08-09 19:00,ZHHH 091900Z VRB02MPS 6000 -RA SCT006 OVC020 24/24 Q1003 NOSIG
ZHHH,2021-08-09 20:00,ZHHH 092000Z 04003MPS 360V070 8000 -RA FEW008 OVC026 24/24 Q1003 NOSIG
ZHHH,2021-08-09 21:00,ZHHH 092100Z 06003MPS 8000 -RA FEW005 OVC020 24/24 Q1003 NOSIG
ZHHH,2021-08-09 22:00,ZHHH 092200Z 05003MPS 7000 -RA FEW004 OVC020 24/24 Q1003 NOSIG
ZHHH,2021-08-09 23:00,ZHHH 092300Z 06003MPS 8000 -RA FEW006 OVC020 24/24 Q1004 NOSIG
ZHHH,2021-08-10 00:00,ZHHH 100000Z 04003MPS 010V070 9999 FEW006 OVC023 25/25 Q1004 NOSIG
ZHHH,2021-08-10 01:00,ZHHH 100100Z 04003MPS 8000 -RA SCT009 25/25 Q1004 NOSIG
ZHHH,2021-08-10 02:00,ZHHH 100200Z 06004MPS 4000 -RA BR SCT007 25/25 Q1004 NOSIG
ZHHH,2021-08-10 03:00,ZHHH 100300Z 03002MPS 2800 -RA BR FEW007 25/25 Q1005 BECMG TL0340 3000
ZHHH,2021-08-10 04:00,ZHHH 100400Z 03002MPS 330V060 2000 -RA BR FEW003 SCT007 OVC040 25/25 Q1005 BECMG TL0540 3000
ZHHH,2021-08-10 05:00,ZHHH 100500Z 04002MPS 360V060 3500 -DZ BR FEW005 SCT007 OVC040 25/25 Q1004 BECMG TL0540 2500 SHRA FEW005 SCT007 FEW023CB
ZHHH,2021-08-10 06:00,ZHHH 100600Z 04003MPS 3500 -RA BR FEW005 SCT007 OVC040 25/25 Q1004 RESHRA BECMG TL0720 2500 SHRA FEW005 SCT007 FEW023CB
ZHHH,2021-08-10 07:00,ZHHH 100700Z 00000MPS 3000 SHRA BR FEW005 SCT007 OVC040 25/25 Q1004 BECMG TL0820 -RA BR
ZHHH,2021-08-10 08:00,ZHHH 100800Z VRB01MPS 3500 -RA BR FEW004 SCT030 OVC040 25/25 Q1004 RESHRA BECMG TL0840 SHRA BR
ZHHH,2021-08-10 09:00,ZHHH 100900Z 04002MPS 350V060 4500 SHRA BR FEW003 SCT015 25/25 Q1004 BECMG TL0940 -RA BR
ZHHH,2021-08-10 10:00,ZHHH 101000Z 03002MPS 350V070 9999 -RA SCT004 SCT020 25/25 Q1003 RESHRA NOSIG
ZHHH,2021-08-10 11:00,ZHHH 101100Z 07002MPS 030V110 9999 -RA SCT005 SCT011 25/25 Q1003 NOSIG
ZHHH,2021-08-10 12:00,ZHHH 101200Z 00000MPS 9999 -RA FEW006 OVC020 25/25 Q1004 NOSIG
ZHHH,2021-08-10 13:00,ZHHH 101300Z 17002MPS 110V200 9999 FEW006 OVC020 26/26 Q1005 NOSIG
ZHHH,2021-08-10 14:00,ZHHH 101400Z 01001MPS 9999 FEW010 26/26 Q1005 NOSIG
ZHHH,2021-08-10 15:00,ZHHH 101500Z 00000MPS 9999 FEW010 OVC033 26/26 Q1005 NOSIG
ZHHH,2021-08-10 16:00,ZHHH 101600Z 28002MPS 230V320 9999 -RA FEW003 SCT005 OVC020 26/26 Q1005 NOSIG
ZHHH,2021-08-10 17:00,ZHHH 101700Z VRB01MPS 8000 SCT004 SCT007 OVC020 26/26 Q1005 NOSIG
ZHHH,2021-08-10 18:00,ZHHH 101800Z 04001MPS 6000 SCT003 SCT008 OVC020 26/26 Q1005 NOSIG
ZHHH,2021-08-10 19:00,ZHHH 101900Z 03002MPS 340V060 9999 SCT015 26/26 Q1005 NOSIG
ZHHH,2021-08-10 20:00,ZHHH 102000Z VRB01MPS 9999 OVC033 26/26 Q1005 NOSIG
ZHHH,2021-08-10 21:00,ZHHH 102100Z VRB01MPS CAVOK 26/26 Q1005 NOSIG
ZHHH,2021-08-10 22:00,ZHHH 102200Z 02002MPS 340V050 3500 BR SCT010 26/26 Q1005 NOSIG
ZHHH,2021-08-10 23:00,ZHHH 102300Z 05002MPS 4500 BR FEW020 26/26 Q1006 NOSIG
ZHHH,2021-08-11 00:00,ZHHH 110000Z VRB01MPS 5000 BR SCT007 26/26 Q1006 NOSIG
ZHHH,2021-08-11 01:00,ZHHH 110100Z 12002MPS 080V150 8000 SCT030 SCT040 27/27 Q1006 NOSIG
ZHHH,2021-08-11 02:00,ZHHH 110200Z 15002MPS 120V190 9999 FEW030 28/28 Q1006 NOSIG
ZHHH,2021-08-11 03:00,ZHHH 110300Z 26002MPS 220V300 9999 FEW030 29/28 Q1007 NOSIG
ZHHH,2021-08-11 04:00,ZHHH 110400Z 24002MPS 180V310 9999 FEW020 SCT023TCU 30/28 Q1006 NOSIG
ZHHH,2021-08-11 05:00,ZHHH 110500Z 25002MPS 210V360 9999 FEW023 30/28 Q1006 NOSIG
ZHHH,2021-08-11 06:00,ZHHH 110600Z VRB02MPS 9999 SCT023 31/27 Q1005 NOSIG
ZHHH,2021-08-11 07:00,ZHHH 110700Z 30002MPS 230V020 9999 SCT023 31/28 Q1005 NOSIG
ZHHH,2021-08-11 08:00,ZHHH 110800Z 32002MPS 260V050 9999 FEW020 FEW023TCU 32/27 Q1005 NOSIG
ZHHH,2021-08-11 09:00,ZHHH 110900Z 09005MPS 8000 SHRA FEW020 SCT026CB 30/29 Q1004 NOSIG
ZHHH,2021-08-11 10:00,ZHHH 111000Z 10005MPS 050V130 3000 R04L/1700U R04R/1200D +SHRA BR FEW010 SCT026CB 27/27 Q1005 BECMG TL1120 -RA
ZHHH,2021-08-11 11:00,ZHHH 111100Z 06005MPS 4000 SHRA BR FEW010 SCT026CB 26/26 Q1005 BECMG TL1130 -RA
ZHHH,2021-08-11 12:00,ZHHH 111200Z VRB01MPS 8000 -SHRA SCT010 FEW026CB 26/26 Q1005 RESHRA NOSIG
ZHHH,2021-08-11 13:00,ZHHH 111300Z 06003MPS 8000 FEW010 26/26 Q1006 NOSIG
ZHHH,2021-08-11 14:00,ZHHH 111400Z 09004MPS 9999 FEW010 OVC033 27/27 Q1007 NOSIG
ZHHH,2021-08-11 15:00,ZHHH 111500Z 09003MPS 9999 OVC040 27/27 Q1007 NOSIG
ZHHH,2021-08-11 16:00,ZHHH 111600Z 11002MPS 080V140 CAVOK 27/27 Q1007 NOSIG
ZHHH,2021-08-11 17:00,ZHHH 111700Z 08002MPS CAVOK 27/27 Q1006 NOSIG
ZHHH,2021-08-11 18:00,ZHHH 111800Z 06003MPS 7000 NSC 27/27 Q1006 NOSIG
ZHHH,2021-08-11 19:00,ZHHH 111900Z 06003MPS 7000 SCT008 SCT020 27/27 Q1006 NOSIG
ZHHH,2021-08-11 20:00,ZHHH 112000Z 06003MPS 7000 SCT006 SCT010 OVC040 27/27 Q1006 NOSIG
ZHHH,2021-08-11 21:00,ZHHH 112100Z 08003MPS 7000 SCT006 SCT010 OVC040 27/27 Q1006 NOSIG
ZHHH,2021-08-11 22:00,ZHHH 112200Z 08004MPS 7000 SCT006 SCT014 OVC033 27/27 Q1006 NOSIG
ZHHH,2021-08-11 23:00,ZHHH 112300Z 09004MPS 060V120 3500 -RA BR SCT006 OVC033 27/27 Q1006 BECMG TL2340 SHRA
ZHHH,2021-08-12 00:00,ZHHH 120000Z 10004MPS 3500 -SHRA BR SCT003 FEW030CB BKN033 26/26 Q1007 RESHRA NOSIG
ZHHH,2021-08-12 01:00,ZHHH 120100Z 11004MPS 9999 -RA FEW011 26/26 Q1007 NOSIG
ZHHH,2021-08-12 02:00,ZHHH 120200Z 09004MPS 6000 -TSRA SCT004 FEW030CB BKN040 26/26 Q1007 NOSIG
ZHHH,2021-08-12 03:00,ZHHH 120300Z 10005MPS 4000 -TSRA BR SCT004 FEW030CB BKN040 26/26 Q1006 NOSIG
ZHHH,2021-08-12 04:00,ZHHH 120400Z 11005MPS 4000 -TSRA BR SCT005 FEW030CB BKN040 26/26 Q1005 NOSIG
ZHHH,2021-08-12 05:00,ZHHH 120500Z 33002MPS 250V040 0700 R04L/1400U +TSRA SCT005 SCT030CB 26/26 Q1005 BECMG TL0530 1000 TSRA BR
ZHHH,2021-08-12 06:00,ZHHH 120600Z 06005MPS 9999 -SHRA SCT005 FEW030CB BKN033 26/26 Q1005 RETSRA NOSIG
ZHHH,2021-08-12 07:00,ZHHH 120700Z 04005MPS 010V070 9999 SCT005 FEW030CB OVC040 26/26 Q1004 NOSIG
ZHHH,2021-08-12 08:00,ZHHH 120800Z 06006MPS 4000 -SHRA SCT005 OVC040 26/26 Q1004 NOSIG
ZHHH,2021-08-12 09:00,ZHHH 120900Z 06003MPS 040V100 9999 SCT006 OVC040 26/26 Q1004 NOSIG
ZHHH,2021-08-12 10:00,ZHHH 121000Z 09003MPS 9999 SCT006 OVC040 27/27 Q1004 NOSIG
ZHHH,2021-08-12 11:00,ZHHH 121100Z 09004MPS 9999 SCT011 OVC040 27/27 Q1004 NOSIG
ZHHH,2021-08-12 12:00,ZHHH 121200Z 09005MPS 9999 SCT009 OVC040 26/26 Q1005 NOSIG
ZHHH,2021-08-12 13:00,ZHHH 121300Z 10004MPS 9999 SCT009 OVC040 26/26 Q1005 NOSIG
ZHHH,2021-08-12 14:00,ZHHH 121400Z 05005MPS 9999 SCT007 OVC030 26/26 Q1005 NOSIG
ZHHH,2021-08-12 15:00,ZHHH 121500Z 04004MPS 5000 -RA BR SCT005 OVC030 25/25 Q1005 NOSIG
ZHHH,2021-08-12 16:00,ZHHH 121600Z 05006MPS 9999 SCT005 OVC030 24/24 Q1004 NOSIG
ZHHH,2021-08-12 17:00,ZHHH 121700Z 04003MPS 9999 SCT005 OVC026 24/24 Q1004 NOSIG
ZHHH,2021-08-12 18:00,ZHHH 121800Z 06005MPS 9999 SCT011 OVC026 24/24 Q1004 NOSIG
ZHHH,2021-08-12 19:00,ZHHH 121900Z 04005MPS 9999 -SHRA SCT007 OVC026 23/23 Q1003 NOSIG
ZHHH,2021-08-12 20:00,ZHHH 122000Z 05004MPS 9999 -SHRA FEW005 SCT007 OVC026 23/23 Q1003 NOSIG
ZHHH,2021-08-12 21:00,ZHHH 122100Z 04003MPS 010V070 9999 -SHRA FEW005 SCT007 OVC026 23/23 Q1003 NOSIG
ZHHH,2021-08-12 22:00,ZHHH 122200Z 05004MPS 9999 -SHRA FEW005 SCT007 OVC033 24/24 Q1003 NOSIG
ZHHH,2021-08-12 23:00,ZHHH 122300Z 06004MPS 9999 FEW006 SCT010 OVC033 24/24 Q1003 NOSIG
ZHHH,2021-08-13 00:00,ZHHH 130000Z 02002MPS 310V060 3500 -SHRA BR FEW006 SCT010 OVC033 24/24 Q1003 NOSIG
ZHHH,2021-08-13 01:00,ZHHH 130100Z 04008MPS 5000 -RA BR FEW008 SCT011 OVC033 23/23 Q1003 BECMG TL0240 SHRA
ZHHH,2021-08-13 02:00,ZHHH 130200Z 04007MPS 9999 SCT010 OVC033 23/23 Q1003 BECMG TL0240 SHRA
ZHHH,2021-08-13 03:00,ZHHH 130300Z 03004MPS 9999 -RA SCT010 OVC033 23/23 Q1004 NOSIG
ZHHH,2021-08-13 04:00,ZHHH 130400Z 03005MPS 340V060 9999 -RA SCT011 OVC033 23/23 Q1003 RESHRA NOSIG
ZHHH,2021-08-13 05:00,ZHHH 130500Z 02004MPS 350V050 9999 -RA SCT010 OVC033 23/23 Q1003 NOSIG
ZHHH,2021-08-13 06:00,ZHHH 130600Z 02004MPS 340V060 5000 -RA BR SCT007 OVC040 22/22 Q1004 NOSIG
ZHHH,2021-08-13 07:00,ZHHH 130700Z 03005G10MPS 330V060 7000 -RA SCT007 OVC033 22/22 Q1003 NOSIG
ZHHH,2021-08-13 08:00,ZHHH 130800Z 03006MPS 350V060 9999 -RA SCT007 OVC033 22/22 Q1004 NOSIG
ZHHH,2021-08-13 09:00,ZHHH 130900Z 02005MPS 340V050 4500 -RA BR SCT010 OVC033 21/21 Q1004 NOSIG
ZHHH,2021-08-13 10:00,ZHHH 131000Z 03005MPS 6000 -RA SCT009 OVC033 21/21 Q1004 NOSIG
ZHHH,2021-08-13 11:00,ZHHH 131100Z 04005MPS 8000 SCT023 OVC040 22/22 Q1004 NOSIG
ZHHH,2021-08-13 12:00,ZHHH 131200Z 05005MPS 8000 -RA SCT023 OVC040 22/22 Q1005 NOSIG
ZHHH,2021-08-13 13:00,ZHHH 131300Z 01002MPS 330V050 8000 -RA OVC040 21/21 Q1006 NOSIG
ZHHH,2021-08-13 14:00,ZHHH 131400Z 03002MPS 350V060 6000 -RA SCT018 OVC033 21/21 Q1006 NOSIG
ZHHH,2021-08-13 15:00,ZHHH 131500Z 03002MPS 340V060 5000 -RA BR FEW004 OVC026 21/21 Q1006 NOSIG
ZHHH,2021-08-13 16:00,ZHHH 131600Z 03003MPS 340V060 8000 -RA SCT005 OVC026 21/21 Q1006 NOSIG
ZHHH,2021-08-13 17:00,ZHHH 131700Z 03003MPS 360V060 5000 -RA BR FEW004 SCT005 OVC026 21/21 Q1006 NOSIG
ZHHH,2021-08-13 18:00,ZHHH 131800Z 03003MPS 5000 -RA BR FEW004 SCT007 OVC026 21/21 Q1006 NOSIG
ZHHH,2021-08-13 19:00,ZHHH 131900Z 03003MPS 360V060 6000 -RA SCT004 SCT006 OVC026 21/21 Q1006 NOSIG
ZHHH,2021-08-13 20:00,ZHHH 132000Z 04003MPS 7000 -RA SCT004 OVC033 21/21 Q1006 NOSIG
ZHHH,2021-08-13 21:00,ZHHH 132100Z 02003MPS 350V060 7000 -RA SCT003 SCT006 OVC033 21/21 Q1006 NOSIG
ZHHH,2021-08-13 22:00,ZHHH 132200Z 03003MPS 350V060 3200 -RA BR SCT005 OVC033 21/21 Q1006 NOSIG
ZHHH,2021-08-13 23:00,ZHHH 132300Z 03004MPS 350V060 5000 -RA BR SCT005 OVC033 21/21 Q1007 NOSIG
ZHHH,2021-08-14 00:00,ZHHH 140000Z 04003MPS 360V060 9999 SCT007 OVC033 22/22 Q1007 NOSIG
ZHHH,2021-08-14 01:00,ZHHH 140100Z 04003MPS 360V060 9999 SCT012 23/23 Q1007 NOSIG
ZHHH,2021-08-14 02:00,ZHHH 140200Z 04004MPS 340V080 8000 -RA SCT007 OVC040 23/23 Q1007 NOSIG
ZHHH,2021-08-14 03:00,ZHHH 140300Z 02003MPS 340V050 9999 -DZ SCT011 OVC040 24/24 Q1008 NOSIG
ZHHH,2021-08-14 04:00,ZHHH 140400Z 01003MPS 260V060 9999 -DZ SCT011 OVC040 25/25 Q1007 NOSIG
ZHHH,2021-08-14 05:00,ZHHH 140500Z 03004MPS 310V060 9999 SCT011 OVC040 25/24 Q1007 NOSIG
ZHHH,2021-08-14 06:00,ZHHH 140600Z 03003MPS 340V050 9999 SCT010 SCT030 OVC040 26/24 Q1007 NOSIG
ZHHH,2021-08-14 07:00,ZHHH 140700Z 01002MPS 320V040 9999 SCT010 SCT030 OVC040 25/25 Q1007 NOSIG
ZHHH,2021-08-14 08:00,ZHHH 140800Z 02002MPS 340V070 9999 FEW010 SCT030 OVC040 25/24 Q1007 NOSIG
ZHHH,2021-08-14 09:00,ZHHH 140900Z 03002MPS 9999 SCT030 OVC040 25/24 Q1007 NOSIG
ZHHH,2021-08-14 10:00,ZHHH 141000Z 03002MPS 360V060 CAVOK 25/24 Q1006 NOSIG
ZHHH,2021-08-14 11:00,ZHHH 141100Z 02002MPS 340V040 CAVOK 25/24 Q1007 NOSIG
ZHHH,2021-08-14 12:00,ZHHH 141200Z 02002MPS CAVOK 24/23 Q1007 NOSIG
ZHHH,2021-08-14 13:00,ZHHH 141300Z 03002MPS CAVOK 24/24 Q1008 NOSIG
ZHHH,2021-08-14 14:00,ZHHH 141400Z 03002MPS 340V050 CAVOK 24/24 Q1008 NOSIG
ZHHH,2021-08-14 15:00,ZHHH 141500Z VRB01MPS CAVOK 24/24 Q1008 NOSIG
ZHHH,2021-08-14 16:00,ZHHH 141600Z VRB01MPS CAVOK 24/24 Q1008 NOSIG
ZHHH,2021-08-14 17:00,ZHHH 141700Z 01001MPS CAVOK 23/23 Q1008 NOSIG
ZHHH,2021-08-14 18:00,ZHHH 141800Z 03001MPS CAVOK 23/23 Q1008 NOSIG
ZHHH,2021-08-14 19:00,ZHHH 141900Z 03001MPS CAVOK 23/23 Q1008 NOSIG
ZHHH,2021-08-14 20:00,ZHHH 142000Z 00000MPS CAVOK 23/23 Q1008 NOSIG
ZHHH,2021-08-14 21:00,ZHHH 142100Z 00000MPS CAVOK 23/23 Q1008 NOSIG
ZHHH,2021-08-14 22:00,ZHHH 142200Z 04002MPS CAVOK 23/23 Q1008 NOSIG
ZHHH,2021-08-14 23:00,ZHHH 142300Z 03002MPS CAVOK 23/23 Q1009 NOSIG
ZHHH,2021-08-15 00:00,ZHHH 150000Z 07003MPS CAVOK 24/24 Q1009 NOSIG
ZHHH,2021-08-15 01:00,ZHHH 150100Z 06003MPS CAVOK 25/24 Q1010 NOSIG
ZHHH,2021-08-15 02:00,ZHHH 150200Z 09002MPS 030V140 CAVOK 26/24 Q1010 NOSIG
ZHHH,2021-08-15 03:00,ZHHH 150300Z 05002MPS 340V140 9999 FEW033 26/24 Q1010 NOSIG
ZHHH,2021-08-15 04:00,ZHHH 150400Z 32002MPS 260V020 9999 SCT030 27/25 Q1010 NOSIG
ZHHH,2021-08-15 05:00,ZHHH 150500Z 23002MPS 200V270 9999 SCT030 27/25 Q1010 NOSIG
ZHHH,2021-08-15 06:00,ZHHH 150600Z 22002MPS 140V300 9999 SCT030 27/25 Q1010 NOSIG
ZHHH,2021-08-15 07:00,ZHHH 150700Z 22003MPS 9999 SCT030 27/25 Q1010 NOSIG
ZHHH,2021-08-15 08:00,ZHHH 150800Z 21003MPS 9999 SCT030 26/25 Q1010 NOSIG
ZHHH,2021-08-15 09:00,ZHHH 150900Z 03002MPS 350V050 5000 -RA BR SCT010 BKN030 25/25 Q1010 NOSIG
ZHHH,2021-08-15 10:00,ZHHH 151000Z VRB01MPS 8000 -RA SCT010 OVC040 25/25 Q1009 NOSIG
ZHHH,2021-08-15 11:00,ZHHH 151100Z 02001MPS 7000 -RA SCT010 25/25 Q1009 NOSIG
ZHHH,2021-08-15 12:00,ZHHH 151200Z 07002MPS 030V110 8000 -RA SCT008 25/25 Q1010 NOSIG
ZHHH,2021-08-15 13:00,ZHHH 151300Z 11001MPS CAVOK 25/25 Q1010 NOSIG
ZHHH,2021-08-15 14:00,ZHHH 151400Z 00000MPS CAVOK 24/24 Q1011 NOSIG
ZHHH,2021-08-15 15:00,ZHHH 151500Z 00000MPS CAVOK 24/24 Q1011 NOSIG
ZHHH,2021-08-15 16:00,ZHHH 151600Z 00000MPS CAVOK 24/24 Q1011 NOSIG
ZHHH,2021-08-15 17:00,ZHHH 151700Z 00000MPS CAVOK 24/24 Q1011 NOSIG
ZHHH,2021-08-15 18:00,ZHHH 151800Z 01001MPS 8000 SCT006 OVC033 24/24 Q1011 NOSIG
ZHHH,2021-08-15 19:00,ZHHH 151900Z 03002MPS 360V060 8000 SCT011 OVC040 24/24 Q1011 NOSIG
ZHHH,2021-08-15 20:00,ZHHH 152000Z 05001MPS 6000 SCT011 OVC033 24/24 Q1011 NOSIG
ZHHH,2021-08-15 21:00,ZHHH 152100Z 13002MPS 6000 SCT011 OVC033 25/25 Q1011 NOSIG
ZHHH,2021-08-15 22:00,ZHHH 152200Z 11002MPS 6000 OVC030 25/25 Q1011 NOSIG
ZHHH,2021-08-15 23:00,ZHHH 152300Z 06002MPS 360V090 6000 OVC030 25/25 Q1012 NOSIG
ZHHH,2021-08-16 00:00,ZHHH 160000Z VRB01MPS 6000 FEW010 OVC030 24/24 Q1012 NOSIG
ZHHH,2021-08-16 01:00,ZHHH 160100Z 09002MPS 4000 -RA BR FEW003 SCT007 OVC040 25/25 Q1012 NOSIG
ZHHH,2021-08-16 02:00,ZHHH 160200Z 09002MPS 060V130 8000 SCT005 OVC040 25/25 Q1012 NOSIG
ZHHH,2021-08-16 03:00,ZHHH 160300Z 09003MPS 060V120 9999 -RA FEW006 SCT020 OVC040 25/25 Q1012 NOSIG
ZHHH,2021-08-16 04:00,ZHHH 160400Z VRB01MPS 9999 -RA FEW007 SCT020 OVC040 26/26 Q1012 NOSIG
ZHHH,2021-08-16 05:00,ZHHH 160500Z VRB01MPS 3400 -RA BR FEW006 SCT015 OVC033 25/25 Q1011 NOSIG
ZHHH,2021-08-16 06:00,ZHHH 160600Z 06002MPS 030V090 4500 -RA BR FEW006 SCT015 OVC033 25/25 Q1011 NOSIG
ZHHH,2021-08-16 07:00,ZHHH 160700Z 03002MPS 340V060 7000 SCT009 OVC033 26/26 Q1010 NOSIG
ZHHH,2021-08-16 08:00,ZHHH 160800Z 03001MPS 8000 -RA FEW009 SCT016 26/26 Q1010 NOSIG
ZHHH,2021-08-16 09:00,ZHHH 160900Z 09002MPS 040V120 8000 -RA FEW007 SCT016 26/26 Q1010 BECMG TL0940 SHRA
ZHHH,2021-08-16 10:00,ZHHH 161000Z 14002MPS 100V170 8000 -RA FEW007 SCT026 26/26 Q1010 BECMG TL1040 SHRA
ZHHH,2021-08-16 11:00,ZHHH 161100Z VRB01MPS 4000 -RA BR FEW010 SCT026 25/25 Q1011 BECMG TL1130 SHRA
ZHHH,2021-08-16 12:00,ZHHH 161200Z 00000MPS 7000 -RA FEW003 SCT007 25/25 Q1011 RESHRA NOSIG
ZHHH,2021-08-16 13:00,ZHHH 161300Z 06002MPS CAVOK 25/25 Q1011 NOSIG
ZHHH,2021-08-16 14:00,ZHHH 161400Z 10003MPS 9999 SCT003 25/25 Q1011 NOSIG
ZHHH,2021-08-16 15:00,ZHHH 161500Z VRB01MPS 9999 -RA FEW006 BKN026 25/25 Q1011 NOSIG
ZHHH,2021-08-16 16:00,ZHHH 161600Z VRB01MPS 9999 BKN023 25/25 Q1011 NOSIG
ZHHH,2021-08-16 17:00,ZHHH 161700Z 01002MPS 330V040 7000 FEW003 BKN040 25/25 Q1011 NOSIG
ZHHH,2021-08-16 18:00,ZHHH 161800Z 02002MPS 7000 SCT002 24/24 Q1010 NOSIG
ZHHH,2021-08-16 19:00,ZHHH 161900Z 06001MPS 6000 FEW014 25/25 Q1010 NOSIG
ZHHH,2021-08-16 20:00,ZHHH 162000Z 04001MPS 5000 BR FEW016 25/25 Q1010 NOSIG
ZHHH,2021-08-16 21:00,ZHHH 162100Z 07002MPS 7000 NSC 25/25 Q1010 NOSIG
ZHHH,2021-08-16 22:00,ZHHH 162200Z 06002MPS 7000 NSC 24/24 Q1010 NOSIG
ZHHH,2021-08-16 23:00,ZHHH 162300Z 12002MPS 7000 SCT004 25/25 Q1010 NOSIG
ZHHH,2021-08-17 00:00,ZHHH 170000Z 07002MPS 7000 FEW007 25/25 Q1011 NOSIG
ZHHH,2021-08-17 01:00,ZHHH 170100Z 08003MPS 040V120 9999 SCT030 26/26 Q1011 NOSIG
ZHHH,2021-08-17 02:00,ZHHH 170200Z 09003MPS 060V120 9999 FEW011 SCT023 27/27 Q1011 NOSIG
ZHHH,2021-08-17 03:00,ZHHH 170300Z 11003MPS 070V140 9999 FEW011 SCT023 28/26 Q1011 NOSIG
ZHHH,2021-08-17 04:00,ZHHH 170400Z 07002MPS 010V120 9999 SCT015 29/26 Q1010 NOSIG
ZHHH,2021-08-17 05:00,ZHHH 170500Z VRB01MPS 9999 SCT015 30/26 Q1009 NOSIG
ZHHH,2021-08-17 06:00,ZHHH 170600Z 05002MPS 360V100 9999 SCT025 30/26 Q1009 NOSIG
ZHHH,2021-08-17 07:00,ZHHH 170700Z 27003MPS 230V310 9999 SCT026 30/27 Q1008 NOSIG
ZHHH,2021-08-17 08:00,ZHHH 170800Z 28002MPS 230V350 9999 SCT026 32/28 Q1007 NOSIG
ZHHH,2021-08-17 09:00,ZHHH 170900Z 27002MPS 230V310 9999 SCT026 31/27 Q1007 NOSIG
ZHHH,2021-08-17 10:00,ZHHH 171000Z 26003MPS 240V300 9999 -SHRA FEW023CB SCT030 26/26 Q1008 RESHRA NOSIG
ZHHH,2021-08-17 11:00,ZHHH 171100Z 02002MPS 9999 FEW023CB SCT040 26/26 Q1008 NOSIG
ZHHH,2021-08-17 12:00,ZHHH 171200Z 01002MPS 340V040 CAVOK 26/26 Q1008 NOSIG
ZHHH,2021-08-17 13:00,ZHHH 171300Z 05002MPS CAVOK 26/26 Q1009 NOSIG
ZHHH,2021-08-17 14:00,ZHHH 171400Z 10004MPS CAVOK 27/27 Q1009 NOSIG
ZHHH,2021-08-17 15:00,ZHHH 171500Z 11003MPS CAVOK 27/27 Q1010 NOSIG
ZHHH,2021-08-17 16:00,ZHHH 171600Z 09003MPS 8000 NSC 26/26 Q1009 NOSIG
ZHHH,2021-08-17 17:00,ZHHH 171700Z 09002MPS 050V110 CAVOK 26/26 Q1009 NOSIG
ZHHH,2021-08-17 18:00,ZHHH 171800Z 07002MPS CAVOK 26/26 Q1008 NOSIG
ZHHH,2021-08-17 19:00,ZHHH 171900Z 06004MPS CAVOK 26/26 Q1008 NOSIG
ZHHH,2021-08-17 20:00,ZHHH 172000Z 06003MPS CAVOK 26/26 Q1008 NOSIG
ZHHH,2021-08-17 21:00,ZHHH 172100Z 06003MPS CAVOK 26/26 Q1008 NOSIG
ZHHH,2021-08-17 22:00,ZHHH 172200Z 04002MPS CAVOK 26/26 Q1009 NOSIG
ZHHH,2021-08-17 23:00,ZHHH 172300Z 09004MPS CAVOK 26/26 Q1009 NOSIG
ZHHH,2021-08-18 00:00,ZHHH 180000Z 06003MPS CAVOK 27/27 Q1009 NOSIG
ZHHH,2021-08-18 01:00,ZHHH 180100Z 07003MPS CAVOK 28/27 Q1009 NOSIG
ZHHH,2021-08-18 02:00,ZHHH 180200Z 06004MPS 030V090 9999 FEW026 29/26 Q1009 NOSIG
ZHHH,2021-08-18 03:00,ZHHH 180300Z 08002MPS 040V140 9999 FEW026 30/26 Q1009 NOSIG
ZHHH,2021-08-18 04:00,ZHHH 180400Z VRB02MPS 9999 SCT033 31/25 Q1009 NOSIG
ZHHH,2021-08-18 05:00,ZHHH 180500Z 11003MPS 060V170 9999 FEW033TCU 32/25 Q1008 NOSIG
ZHHH,2021-08-18 06:00,ZHHH 180600Z 07003MPS 020V110 9999 FEW033TCU 32/26 Q1007 NOSIG
ZHHH,2021-08-18 07:00,ZHHH 180700Z VRB02MPS 9999 FEW033TCU 32/25 Q1006 NOSIG
ZHHH,2021-08-18 08:00,ZHHH 180800Z 10003MPS 060V150 9999 FEW033CB 32/24 Q1006 NOSIG
ZHHH,2021-08-18 09:00,ZHHH 180900Z 04003MPS 340V080 9999 FEW033CB 32/24 Q1006 NOSIG
ZHHH,2021-08-18 10:00,ZHHH 181000Z 03002MPS 360V060 9999 FEW030CB SCT040 29/27 Q1006 NOSIG
ZHHH,2021-08-18 11:00,ZHHH 181100Z 00000MPS 9999 SCT040 29/27 Q1006 NOSIG
ZHHH,2021-08-18 12:00,ZHHH 181200Z 36002MPS CAVOK 28/28 Q1006 NOSIG
ZHHH,2021-08-18 13:00,ZHHH 181300Z 04003MPS CAVOK 28/26 Q1007 NOSIG
ZHHH,2021-08-18 14:00,ZHHH 181400Z 04002MPS CAVOK 28/26 Q1007 NOSIG
ZHHH,2021-08-18 15:00,ZHHH 181500Z 06003MPS CAVOK 28/26 Q1007 NOSIG
ZHHH,2021-08-18 16:00,ZHHH 181600Z 08003MPS CAVOK 28/26 Q1007 NOSIG
ZHHH,2021-08-18 17:00,ZHHH 181700Z 03002MPS CAVOK 27/27 Q1007 NOSIG
ZHHH,2021-08-18 18:00,ZHHH 181800Z 07003MPS CAVOK 28/26 Q1007 NOSIG
ZHHH,2021-08-18 19:00,ZHHH 181900Z 07003MPS CAVOK 27/26 Q1006 NOSIG
ZHHH,2021-08-18 20:00,ZHHH 182000Z 07002MPS 050V110 CAVOK 26/26 Q1006 NOSIG
ZHHH,2021-08-18 21:00,ZHHH 182100Z 08002MPS CAVOK 27/27 Q1006 NOSIG
ZHHH,2021-08-18 22:00,ZHHH 182200Z 06002MPS CAVOK 26/26 Q1007 NOSIG
ZHHH,2021-08-18 23:00,ZHHH 182300Z 09003MPS CAVOK 27/27 Q1007 NOSIG
ZHHH,2021-08-19 00:00,ZHHH 190000Z 11005MPS CAVOK 29/25 Q1007 NOSIG
ZHHH,2021-08-19 01:00,ZHHH 190100Z 13004MPS 090V150 CAVOK 30/25 Q1007 NOSIG
ZHHH,2021-08-19 02:00,ZHHH 190200Z 11005MPS CAVOK 31/25 Q1007 NOSIG
ZHHH,2021-08-19 03:00,ZHHH 190300Z 13003G08MPS 070V170 CAVOK 32/25 Q1007 NOSIG
ZHHH,2021-08-19 04:00,ZHHH 190400Z 22003MPS 9999 FEW033 33/25 Q1007 NOSIG
ZHHH,2021-08-19 05:00,ZHHH 190500Z 22003MPS 180V240 9999 FEW030 33/25 Q1006 NOSIG
ZHHH,2021-08-19 06:00,ZHHH 190600Z VRB02MPS 9999 SCT030 33/26 Q1006 NOSIG
ZHHH,2021-08-19 07:00,ZHHH 190700Z 12003MPS 010V160 9999 FEW030 34/25 Q1005 NOSIG
ZHHH,2021-08-19 08:00,ZHHH 190800Z 12003MPS 050V180 9999 SCT033 33/25 Q1005 NOSIG
ZHHH,2021-08-19 09:00,ZHHH 190900Z 19006MPS 9999 -RA BKN033 27/26 Q1005 RETS NOSIG
ZHHH,2021-08-19 10:00,ZHHH 191000Z 16003MPS CAVOK 30/25 Q1004 NOSIG
ZHHH,2021-08-19 11:00,ZHHH 191100Z 16002MPS 130V200 CAVOK 30/25 Q1005 NOSIG
ZHHH,2021-08-19 12:00,ZHHH 191200Z 14002MPS CAVOK 29/26 Q1005 NOSIG
ZHHH,2021-08-19 13:00,ZHHH 191300Z 12002MPS CAVOK 29/26 Q1006 NOSIG
ZHHH,2021-08-19 14:00,ZHHH 191400Z VRB01MPS CAVOK 28/27 Q1006 NOSIG
ZHHH,2021-08-19 15:00,ZHHH 191500Z 00000MPS CAVOK 27/27 Q1006 NOSIG
ZHHH,2021-08-19 16:00,ZHHH 191600Z 00000MPS CAVOK 27/27 Q1006 NOSIG
ZHHH,2021-08-19 17:00,ZHHH 191700Z 00000MPS CAVOK 27/27 Q1005 NOSIG
ZHHH,2021-08-19 18:00,ZHHH 191800Z 00000MPS CAVOK 26/26 Q1005 NOSIG
ZHHH,2021-08-19 19:00,ZHHH 191900Z VRB01MPS CAVOK 27/27 Q1004 NOSIG
ZHHH,2021-08-19 20:00,ZHHH 192000Z 12002MPS 360V140 CAVOK 28/28 Q1004 NOSIG
ZHHH,2021-08-19 21:00,ZHHH 192100Z 12002MPS CAVOK 28/28 Q1004 NOSIG
ZHHH,2021-08-19 22:00,ZHHH 192200Z 12002MPS 7000 NSC 28/28 Q1004 NOSIG
ZHHH,2021-08-19 23:00,ZHHH 192300Z 14002MPS 8000 NSC 28/28 Q1005 NOSIG
ZHHH,2021-08-20 00:00,ZHHH 200000Z 15003MPS CAVOK 29/27 Q1005 NOSIG
ZHHH,2021-08-20 01:00,ZHHH 200100Z 16004MPS 140V200 CAVOK 31/27 Q1005 NOSIG
ZHHH,2021-08-20 02:00,ZHHH 200200Z 21006MPS CAVOK 33/27 Q1005 NOSIG
ZHHH,2021-08-20 03:00,ZHHH 200300Z 22006MPS CAVOK 33/27 Q1004 NOSIG
ZHHH,2021-08-20 04:00,ZHHH 200400Z 22005MPS CAVOK 33/28 Q1004 NOSIG
ZHHH,2021-08-20 05:00,ZHHH 200500Z 21005MPS CAVOK 33/28 Q1004 NOSIG
ZHHH,2021-08-20 06:00,ZHHH 200600Z 22003MPS 9999 SCT023 OVC040 33/28 Q1003 NOSIG
ZHHH,2021-08-20 07:00,ZHHH 200700Z 21003MPS 9999 FEW023 32/28 Q1002 NOSIG
ZHHH,2021-08-20 08:00,ZHHH 200800Z 16002MPS 070V200 9999 SCT023 31/28 Q1003 BECMG TL0850 TSRA SCT020 FEW023CB
ZHHH,2021-08-20 09:00,ZHHH 200900Z 35007G12MPS 320V020 1000 R04L/1300U R04R/1000D +TSRA FEW010 SCT023CB 25/25 Q1005 BECMG TL1000 6000 -TSRA
ZHHH,2021-08-20 10:00,ZHHH 201000Z 18003MPS 150V210 8000 -TSRA SCT020 FEW023CB 25/25 Q1003 RESHRA NOSIG
ZHHH,2021-08-20 11:00,ZHHH 201100Z VRB01MPS 9999 -SHRA SCT007 25/25 Q1003 RETS NOSIG
ZHHH,2021-08-20 12:00,ZHHH 201200Z VRB01MPS 9999 FEW007 25/25 Q1005 NOSIG
ZHHH,2021-08-20 13:00,ZHHH 201300Z 01002MPS 330V050 CAVOK 25/25 Q1006 NOSIG
ZHHH,2021-08-20 14:00,ZHHH 201400Z 06004MPS CAVOK 25/25 Q1006 NOSIG
ZHHH,2021-08-20 15:00,ZHHH 201500Z VRB01MPS 9999 SCT016 25/25 Q1007 NOSIG
ZHHH,2021-08-20 16:00,ZHHH 201600Z 02001MPS 9999 FEW004 BKN016 25/25 Q1006 NOSIG
ZHHH,2021-08-20 17:00,ZHHH 201700Z VRB01MPS 9999 FEW020 25/25 Q1006 NOSIG
ZHHH,2021-08-20 18:00,ZHHH 201800Z 00000MPS 9999 BKN023 25/25 Q1005 NOSIG
ZHHH,2021-08-20 19:00,ZHHH 201900Z VRB01MPS 9999 BKN023 25/25 Q1005 NOSIG
ZHHH,2021-08-20 20:00,ZHHH 202000Z VRB01MPS 9999 BKN023 25/25 Q1005 NOSIG
ZHHH,2021-08-20 21:00,ZHHH 202100Z VRB01MPS 9999 BKN023 25/25 Q1005 NOSIG
ZHHH,2021-08-20 22:00,ZHHH 202200Z 04003MPS 9999 BKN023 25/25 Q1005 NOSIG
ZHHH,2021-08-20 23:00,ZHHH 202300Z 04002MPS 9999 BKN023 25/25 Q1006 NOSIG
ZHHH,2021-08-21 00:00,ZHHH 210000Z 07003MPS 9999 BKN023 26/26 Q1006 NOSIG
ZHHH,2021-08-21 01:00,ZHHH 210100Z 04003MPS 9999 FEW008 SCT023 OVC033 26/26 Q1007 NOSIG
ZHHH,2021-08-21 02:00,ZHHH 210200Z 07003MPS 020V090 9999 FEW008 FEW020TCU SCT023 BKN033 27/26 Q1007 NOSIG
ZHHH,2021-08-21 03:00,ZHHH 210300Z VRB02MPS 9999 FEW010 FEW020TCU SCT030 29/26 Q1007 NOSIG
ZHHH,2021-08-21 04:00,ZHHH 210400Z 26002MPS 230V320 9999 SCT030 30/25 Q1006 NOSIG
ZHHH,2021-08-21 05:00,ZHHH 210500Z 26002MPS 220V010 9999 SCT030 31/26 Q1006 NOSIG
ZHHH,2021-08-21 06:00,ZHHH 210600Z 25002MPS 190V310 9999 SCT030 31/26 Q1005 NOSIG
ZHHH,2021-08-21 07:00,ZHHH 210700Z 30002MPS 240V360 9999 SCT030 32/25 Q1004 NOSIG
ZHHH,2021-08-21 08:00,ZHHH 210800Z 25002MPS 230V300 9999 SCT030 32/25 Q1004 NOSIG
ZHHH,2021-08-21 09:00,ZHHH 210900Z VRB02MPS 9999 SCT030 33/26 Q1004 NOSIG
ZHHH,2021-08-21 10:00,ZHHH 211000Z 00000MPS 9999 FEW030 32/26 Q1003 NOSIG
ZHHH,2021-08-21 11:00,ZHHH 211100Z 01002MPS 360V060 CAVOK 29/27 Q1004 NOSIG
ZHHH,2021-08-21 12:00,ZHHH 211200Z 09003MPS CAVOK 30/25 Q1004 NOSIG
ZHHH,2021-08-21 13:00,ZHHH 211300Z 09003MPS CAVOK 30/26 Q1005 NOSIG
ZHHH,2021-08-21 14:00,ZHHH 211400Z 11003MPS 080V150 CAVOK 30/25 Q1005 NOSIG
ZHHH,2021-08-21 15:00,ZHHH 211500Z 10003MPS CAVOK 29/26 Q1005 NOSIG
ZHHH,2021-08-21 16:00,ZHHH 211600Z 10003MPS CAVOK 29/26 Q1005 NOSIG
ZHHH,2021-08-21 17:00,ZHHH 211700Z 10002MPS CAVOK 29/26 Q1004 NOSIG
ZHHH,2021-08-21 18:00,ZHHH 211800Z 08003MPS CAVOK 28/27 Q1004 NOSIG
ZHHH,2021-08-21 19:00,ZHHH 211900Z 09003MPS CAVOK 28/28 Q1003 NOSIG
ZHHH,2021-08-21 20:00,ZHHH 212000Z 09004MPS 8000 NSC 28/28 Q1003 NOSIG
ZHHH,2021-08-21 21:00,ZHHH 212100Z 11004MPS 8000 NSC 28/28 Q1003 NOSIG
ZHHH,2021-08-21 22:00,ZHHH 212200Z 11004MPS 5000 BR NSC 28/28 Q1003 NOSIG
ZHHH,2021-08-21 23:00,ZHHH 212300Z 10004MPS 5000 BR NSC 28/28 Q1003 NOSIG
ZHHH,2021-08-22 00:00,ZHHH 220000Z 11005MPS 5000 BR NSC 29/28 Q1004 NOSIG
ZHHH,2021-08-22 01:00,ZHHH 220100Z 12005MPS 4000 BR NSC 31/29 Q1004 NOSIG
ZHHH,2021-08-22 02:00,ZHHH 220200Z 12005MPS 4000 BR NSC 32/29 Q1004 NOSIG
ZHHH,2021-08-22 03:00,ZHHH 220300Z 13004MPS 060V180 8000 NSC 33/28 Q1003 NOSIG
ZHHH,2021-08-22 04:00,ZHHH 220400Z 14003MPS 100V170 CAVOK 34/28 Q1003 NOSIG
ZHHH,2021-08-22 05:00,ZHHH 220500Z 16003MPS 100V210 9999 SCT040 34/27 Q1003 NOSIG
ZHHH,2021-08-22 06:00,ZHHH 220600Z 20003MPS 150V250 9999 SCT040TCU 35/27 Q1002 NOSIG
ZHHH,2021-08-22 07:00,ZHHH 220700Z 17004MPS 9999 -SHRA FEW033 SCT040TCU 34/27 Q1001 NOSIG
ZHHH,2021-08-22 08:00,ZHHH 220800Z 15005MPS 9999 SCT040 33/27 Q1000 NOSIG
ZHHH,2021-08-22 09:00,ZHHH 220900Z 14004MPS CAVOK 34/26 Q1000 NOSIG
ZHHH,2021-08-22 10:00,ZHHH 221000Z 13003MPS CAVOK 33/26 Q1000 NOSIG
ZHHH,2021-08-22 11:00,ZHHH 221100Z 12003MPS CAVOK 32/26 Q1001 NOSIG
ZHHH,2021-08-22 12:00,ZHHH 221200Z 11004MPS CAVOK 31/27 Q1001 NOSIG
ZHHH,2021-08-22 13:00,ZHHH 221300Z 12004MPS CAVOK 31/28 Q1001 NOSIG
ZHHH,2021-08-22 14:00,ZHHH 221400Z 12002MPS CAVOK 31/28 Q1002 NOSIG
ZHHH,2021-08-22 15:00,ZHHH 221500Z 13003MPS CAVOK 31/28 Q1002 NOSIG
ZHHH,2021-08-22 16:00,ZHHH 221600Z 12003MPS CAVOK 31/28 Q1001 NOSIG
ZHHH,2021-08-22 17:00,ZHHH 221700Z 11003MPS CAVOK 30/29 Q1001 NOSIG
ZHHH,2021-08-22 18:00,ZHHH 221800Z 14003MPS CAVOK 30/29 Q1000 NOSIG
ZHHH,2021-08-22 19:00,ZHHH 221900Z 13002MPS CAVOK 30/28 Q1000 NOSIG
ZHHH,2021-08-22 20:00,ZHHH 222000Z 14002MPS CAVOK 30/28 Q1000 NOSIG
ZHHH,2021-08-22 21:00,ZHHH 222100Z 11002MPS CAVOK 30/28 Q1000 NOSIG
ZHHH,2021-08-22 22:00,ZHHH 222200Z VRB02MPS 5000 BR NSC 29/29 Q1000 NOSIG
ZHHH,2021-08-22 23:00,ZHHH 222300Z VRB01MPS 3000 BR NSC 29/29 Q1001 BECMG TL2350 2800
ZHHH,2021-08-23 00:00,ZHHH 230000Z 34002MPS 290V040 4000 BR SCT006 28/28 Q1001 NOSIG
ZHHH,2021-08-23 01:00,ZHHH 230100Z 34002MPS 250V040 6000 NSC 29/29 Q1002 NOSIG
ZHHH,2021-08-23 02:00,ZHHH 230200Z 31002MPS 260V030 CAVOK 30/28 Q1002 NOSIG
ZHHH,2021-08-23 03:00,ZHHH 230300Z 30002MPS 260V340 CAVOK 31/28 Q1002 NOSIG
ZHHH,2021-08-23 04:00,ZHHH 230400Z VRB02MPS 9999 FEW026 32/28 Q1002 NOSIG
ZHHH,2021-08-23 05:00,ZHHH 230500Z 30003MPS 240V050 9999 FEW023 31/29 Q1001 NOSIG
ZHHH,2021-08-23 06:00,ZHHH 230600Z 34003MPS 290V020 9999 SCT026 29/27 Q1001 NOSIG
ZHHH,2021-08-23 07:00,ZHHH 230700Z 36003MPS 310V050 9999 BKN026 28/26 Q1001 NOSIG
ZHHH,2021-08-23 08:00,ZHHH 230800Z 02003MPS 340V050 9999 BKN026 27/25 Q1001 NOSIG
ZHHH,2021-08-23 09:00,ZHHH 230900Z 05003MPS 9999 BKN026 27/25 Q1001 NOSIG
ZHHH,2021-08-23 10:00,ZHHH 231000Z 02002MPS 340V050 9999 SCT026 26/25 Q1002 NOSIG
ZHHH,2021-08-23 11:00,ZHHH 231100Z 03002MPS 9999 SCT026 26/24 Q1002 NOSIG
ZHHH,2021-08-23 12:00,ZHHH 231200Z 02002MPS 350V060 CAVOK 25/24 Q1002 NOSIG
ZHHH,2021-08-23 13:00,ZHHH 231300Z 03002MPS CAVOK 25/24 Q1003 NOSIG
ZHHH,2021-08-23 14:00,ZHHH 231400Z 04003MPS CAVOK 25/24 Q1003 NOSIG
ZHHH,2021-08-23 15:00,ZHHH 231500Z 01002MPS 310V050 9999 -RA BKN040 25/24 Q1003 BECMG TL1610 RA
ZHHH,2021-08-23 16:00,ZHHH 231600Z 03002MPS 350V060 2500 +TSRA SCT004 SCT023CB BKN026 23/23 Q1004 BECMG TL1710 -TSRA
ZHHH,2021-08-23 17:00,ZHHH 231700Z 05003MPS 5000 TSRA SCT004 FEW023CB BKN026 23/23 Q1004 BECMG TL1810 +TSRA
ZHHH,2021-08-23 18:00,ZHHH 231800Z 10004MPS 6000 SHRA FEW026CB BKN033 22/22 Q1004 RETS NOSIG
ZHHH,2021-08-23 19:00,ZHHH 231900Z 13003MPS 060V170 7000 SHRA SCT010 FEW026CB BKN033 22/22 Q1003 NOSIG
ZHHH,2021-08-23 20:00,ZHHH 232000Z 06003MPS 020V100 8000 SHRA SCT010 FEW026CB BKN040 22/22 Q1003 NOSIG
ZHHH,2021-08-23 21:00,ZHHH 232100Z VRB01MPS 2000 +SHRA SCT005 FEW026CB BKN033 22/22 Q1003 NOSIG
ZHHH,2021-08-23 22:00,ZHHH 232200Z 03002MPS 8000 -RA FEW010 SCT020 OVC033 22/22 Q1003 RESHRA NOSIG
ZHHH,2021-08-23 23:00,ZHHH 232300Z 05004MPS 9999 -RA SCT010 BKN030 22/22 Q1004 NOSIG
ZHHH,2021-08-24 00:00,ZHHH 240000Z 08003MPS 040V130 8000 -RA SCT011 OVC033 22/22 Q1004 NOSIG
ZHHH,2021-08-24 01:00,ZHHH 240100Z 03003MPS 350V060 9999 -RA SCT007 22/22 Q1004 NOSIG
ZHHH,2021-08-24 02:00,ZHHH 240200Z 05002MPS 010V090 9999 -RA SCT007 23/23 Q1004 NOSIG
ZHHH,2021-08-24 03:00,ZHHH 240300Z VRB01MPS 9999 FEW007 24/24 Q1004 NOSIG
ZHHH,2021-08-24 04:00,ZHHH 240400Z 10002MPS 050V140 9999 -RA FEW020 25/24 Q1004 NOSIG
ZHHH,2021-08-24 05:00,ZHHH 240500Z VRB01MPS 9999 SCT015 25/25 Q1004 NOSIG
ZHHH,2021-08-24 06:00,ZHHH 240600Z 25002MPS 210V280 9999 FEW014 26/25 Q1004 NOSIG
ZHHH,2021-08-24 07:00,ZHHH 240700Z 23003MPS 9999 SCT011 OVC040 26/26 Q1003 NOSIG
ZHHH,2021-08-24 08:00,ZHHH 240800Z 21005MPS CAVOK 26/26 Q1003 NOSIG
ZHHH,2021-08-24 09:00,ZHHH 240900Z 23005MPS 9999 FEW014 27/26 Q1003 NOSIG
ZHHH,2021-08-24 10:00,ZHHH 241000Z 22004MPS 9999 FEW014 26/26 Q1003 NOSIG
ZHHH,2021-08-24 11:00,ZHHH 241100Z 23004MPS CAVOK 26/26 Q1003 NOSIG
ZHHH,2021-08-24 12:00,ZHHH 241200Z 23003MPS CAVOK 25/25 Q1004 NOSIG
ZHHH,2021-08-24 13:00,ZHHH 241300Z 23004MPS CAVOK 25/25 Q1005 NOSIG
ZHHH,2021-08-24 14:00,ZHHH 241400Z 22004MPS 9999 SCT010 25/25 Q1006 NOSIG
ZHHH,2021-08-24 15:00,ZHHH 241500Z 22004MPS 9999 SCT010 25/25 Q1006 NOSIG
ZHHH,2021-08-24 16:00,ZHHH 241600Z 23004MPS 9999 SCT010 25/25 Q1006 NOSIG
ZHHH,2021-08-24 17:00,ZHHH 241700Z 23003MPS 9999 SCT010 25/25 Q1007 NOSIG
ZHHH,2021-08-24 18:00,ZHHH 241800Z 23003MPS 9999 BKN023 25/25 Q1006 NOSIG
ZHHH,2021-08-24 19:00,ZHHH 241900Z 20003MPS 9999 FEW008 SCT013 BKN023 24/24 Q1006 NOSIG
ZHHH,2021-08-24 20:00,ZHHH 242000Z 18001MPS 9999 FEW009 24/24 Q1006 NOSIG
ZHHH,2021-08-24 21:00,ZHHH 242100Z 00000MPS CAVOK 23/23 Q1006 NOSIG
ZHHH,2021-08-24 22:00,ZHHH 242200Z 15002MPS CAVOK 24/24 Q1007 NOSIG
ZHHH,2021-08-24 23:00,ZHHH 242300Z VRB01MPS CAVOK 25/25 Q1007 NOSIG
ZHHH,2021-08-25 00:00,ZHHH 250000Z VRB01MPS CAVOK 26/24 Q1007 NOSIG
ZHHH,2021-08-25 01:00,ZHHH 250100Z 18002MPS 160V230 CAVOK 26/24 Q1008 NOSIG
ZHHH,2021-08-25 02:00,ZHHH 250200Z 23002MPS 180V300 CAVOK 27/24 Q1008 NOSIG
ZHHH,2021-08-25 03:00,ZHHH 250300Z 22002MPS 180V240 CAVOK 28/24 Q1008 NOSIG
ZHHH,2021-08-25 04:00,ZHHH 250400Z 22002MPS 150V260 CAVOK 29/24 Q1008 NOSIG
ZHHH,2021-08-25 05:00,ZHHH 250500Z 26002MPS 230V310 CAVOK 29/25 Q1007 NOSIG
ZHHH,2021-08-25 06:00,ZHHH 250600Z 26002MPS 200V300 CAVOK 30/25 Q1007 NOSIG
ZHHH,2021-08-25 07:00,ZHHH 250700Z 27002MPS 230V320 CAVOK 29/25 Q1007 NOSIG
ZHHH,2021-08-25 08:00,ZHHH 250800Z 25002MPS 220V300 CAVOK 29/25 Q1007 NOSIG
ZHHH,2021-08-25 09:00,ZHHH 250900Z 24002MPS 210V280 9999 -RA FEW020 28/26 Q1008 NOSIG
ZHHH,2021-08-25 10:00,ZHHH 251000Z 25002MPS 200V300 CAVOK 28/26 Q1008 NOSIG
ZHHH,2021-08-25 11:00,ZHHH 251100Z VRB01MPS CAVOK 27/26 Q1008 NOSIG
ZHHH,2021-08-25 12:00,ZHHH 251200Z VRB01MPS CAVOK 27/26 Q1008 NOSIG
ZHHH,2021-08-25 13:00,ZHHH 251300Z 25002MPS 220V290 CAVOK 27/26 Q1009 NOSIG
ZHHH,2021-08-25 14:00,ZHHH 251400Z 25002MPS 210V300 CAVOK 27/26 Q1010 NOSIG
ZHHH,2021-08-25 15:00,ZHHH 251500Z VRB01MPS 9999 -RA NSC 26/26 Q1010 NOSIG
ZHHH,2021-08-25 16:00,ZHHH 251600Z 14002MPS 8000 NSC 26/26 Q1010 NOSIG
ZHHH,2021-08-25 17:00,ZHHH 251700Z VRB01MPS 8000 NSC 26/26 Q1010 NOSIG
ZHHH,2021-08-25 18:00,ZHHH 251800Z 01002MPS 340V040 8000 NSC 26/26 Q1010 NOSIG
ZHHH,2021-08-25 19:00,ZHHH 251900Z VRB01MPS 8000 NSC 26/26 Q1009 NOSIG
ZHHH,2021-08-25 20:00,ZHHH 252000Z 01002MPS 8000 NSC 25/25 Q1010 NOSIG
ZHHH,2021-08-25 21:00,ZHHH 252100Z 02002MPS 340V060 8000 NSC 25/25 Q1010 NOSIG
ZHHH,2021-08-25 22:00,ZHHH 252200Z 03003MPS 8000 -RA NSC 25/25 Q1010 NOSIG
ZHHH,2021-08-25 23:00,ZHHH 252300Z 05004MPS CAVOK 25/22 Q1011 NOSIG
ZHHH,2021-08-26 00:00,ZHHH 260000Z 34002MPS 240V030 9999 FEW040 24/23 Q1011 NOSIG
ZHHH,2021-08-26 01:00,ZHHH 260100Z 36002MPS 290V050 CAVOK 24/23 Q1010 NOSIG
ZHHH,2021-08-26 02:00,ZHHH 260200Z VRB03MPS 9999 -RA FEW011 OVC040 24/23 Q1012 BECMG TL0300 SHRA
ZHHH,2021-08-26 03:00,ZHHH 260300Z 34004MPS 250V030 9999 -RA SCT010 OVC040 23/23 Q1012 NOSIG
ZHHH,2021-08-26 04:00,ZHHH 260400Z 36004MPS 320V050 9999 -RA SCT010 23/22 Q1011 NOSIG
ZHHH,2021-08-26 05:00,ZHHH 260500Z 03004MPS 340V060 9999 SCT020 23/21 Q1011 NOSIG
ZHHH,2021-08-26 06:00,ZHHH 260600Z 35003MPS 280V050 9999 SCT015 SCT030 23/22 Q1012 NOSIG
ZHHH,2021-08-26 07:00,ZHHH 260700Z 35003MPS 260V040 9999 SCT015 BKN030 24/22 Q1011 NOSIG
ZHHH,2021-08-26 08:00,ZHHH 260800Z 02003MPS 340V050 9999 SCT017 BKN033 23/21 Q1011 NOSIG
ZHHH,2021-08-26 09:00,ZHHH 260900Z 03003MPS 360V060 9999 SCT017 BKN033 23/21 Q1011 NOSIG
ZHHH,2021-08-26 10:00,ZHHH 261000Z 03002MPS 340V060 9999 OVC033 23/21 Q1011 NOSIG
ZHHH,2021-08-26 11:00,ZHHH 261100Z 01003MPS 320V050 9999 OVC033 22/21 Q1011 NOSIG
ZHHH,2021-08-26 12:00,ZHHH 261200Z 05002MPS 020V080 9999 OVC033 22/21 Q1012 NOSIG
ZHHH,2021-08-26 13:00,ZHHH 261300Z 35003MPS 300V040 9999 OVC033 22/22 Q1012 NOSIG
ZHHH,2021-08-26 14:00,ZHHH 261400Z 35003MPS 270V080 9999 SCT016 OVC033 22/21 Q1013 NOSIG
ZHHH,2021-08-26 15:00,ZHHH 261500Z VRB03MPS 9999 SCT010 OVC033 21/21 Q1013 NOSIG
ZHHH,2021-08-26 16:00,ZHHH 261600Z 35002MPS 280V040 9999 SCT010 OVC033 21/21 Q1013 NOSIG
ZHHH,2021-08-26 17:00,ZHHH 261700Z 32002MPS 260V050 9999 SCT010 OVC033 21/21 Q1013 NOSIG
ZHHH,2021-08-26 18:00,ZHHH 261800Z VRB01MPS 9999 SCT010 OVC040 21/21 Q1012 NOSIG
ZHHH,2021-08-26 19:00,ZHHH 261900Z 32002MPS 230V020 9999 SCT010 OVC033 21/21 Q1012 NOSIG
ZHHH,2021-08-26 20:00,ZHHH 262000Z VRB03MPS 9999 SCT009 OVC030 21/21 Q1012 NOSIG
ZHHH,2021-08-26 21:00,ZHHH 262100Z VRB02MPS 9999 BKN009 OVC030 21/21 Q1012 NOSIG
ZHHH,2021-08-26 22:00,ZHHH 262200Z 35002MPS 270V060 9999 BKN009 OVC030 21/21 Q1012 NOSIG
ZHHH,2021-08-26 23:00,ZHHH 262300Z 02002MPS 340V050 9999 SCT007 SCT011 OVC030 21/21 Q1013 NOSIG
ZHHH,2021-08-27 00:00,ZHHH 270000Z 34002MPS 300V040 2000 SHRA SCT011 OVC030 20/20 Q1014 BECMG TL0040 3000 -RA
ZHHH,2021-08-27 01:00,ZHHH 270100Z VRB01MPS 9999 FEW006 SCT014 OVC030 21/21 Q1014 RESHRA NOSIG
ZHHH,2021-08-27 02:00,ZHHH 270200Z 01002MPS 340V040 9999 FEW007 SCT014 OVC040 21/21 Q1014 NOSIG
ZHHH,2021-08-27 03:00,ZHHH 270300Z 36002MPS 290V060 9999 FEW011 SCT020 22/22 Q1014 NOSIG
ZHHH,2021-08-27 04:00,ZHHH 270400Z VRB02MPS 9999 -RA FEW020 BKN023 22/22 Q1014 NOSIG
ZHHH,2021-08-27 05:00,ZHHH 270500Z 34003MPS 280V020 9999 FEW020 BKN023 22/22 Q1014 NOSIG
ZHHH,2021-08-27 06:00,ZHHH 270600Z 34002MPS 250V040 9999 SCT020 BKN030 23/22 Q1013 NOSIG
ZHHH,2021-08-27 07:00,ZHHH 270700Z 34002MPS 290V020 9999 SCT023 23/22 Q1013 NOSIG
ZHHH,2021-08-27 08:00,ZHHH 270800Z 36002MPS 320V040 9999 BKN020 23/22 Q1012 NOSIG
ZHHH,2021-08-27 09:00,ZHHH 270900Z VRB01MPS 9999 BKN023 23/22 Q1012 NOSIG
ZHHH,2021-08-27 10:00,ZHHH 271000Z VRB01MPS 9999 FEW020 BKN030 23/22 Q1012 NOSIG
ZHHH,2021-08-27 11:00,ZHHH 271100Z VRB01MPS 9999 FEW020 SCT030 23/23 Q1013 NOSIG
ZHHH,2021-08-27 12:00,ZHHH 271200Z 03001MPS 9999 FEW020 BKN040 23/22 Q1013 NOSIG
ZHHH,2021-08-27 13:00,ZHHH 271300Z 02002MPS 340V050 9999 BKN033 22/22 Q1014 NOSIG
ZHHH,2021-08-27 14:00,ZHHH 271400Z 36002MPS 320V040 9999 BKN026 22/22 Q1013 NOSIG
ZHHH,2021-08-27 15:00,ZHHH 271500Z VRB01MPS 9999 BKN026 22/22 Q1013 NOSIG
ZHHH,2021-08-27 16:00,ZHHH 271600Z 07001MPS 9999 SCT040 22/22 Q1013 NOSIG
ZHHH,2021-08-27 17:00,ZHHH 271700Z VRB01MPS CAVOK 22/22 Q1013 NOSIG
ZHHH,2021-08-27 18:00,ZHHH 271800Z 05002MPS 360V080 9999 BKN026 22/22 Q1012 NOSIG
ZHHH,2021-08-27 19:00,ZHHH 271900Z VRB01MPS 9999 OVC026 22/22 Q1013 NOSIG
ZHHH,2021-08-27 20:00,ZHHH 272000Z 08002MPS 9999 OVC023 22/22 Q1012 NOSIG
ZHHH,2021-08-27 21:00,ZHHH 272100Z VRB01MPS 9999 OVC023 22/22 Q1012 NOSIG
ZHHH,2021-08-27 22:00,ZHHH 272200Z 06002MPS 9999 FEW020 OVC030 22/22 Q1012 NOSIG
ZHHH,2021-08-27 23:00,ZHHH 272300Z 06002MPS 040V100 9999 FEW023 OVC040 22/22 Q1013 NOSIG
ZHHH,2021-08-28 00:00,ZHHH 280000Z 07002MPS 040V110 9999 FEW023TCU BKN040 23/23 Q1012 NOSIG
ZHHH,2021-08-28 01:00,ZHHH 280100Z VRB02MPS 9999 FEW016 SCT023 25/22 Q1012 NOSIG
ZHHH,2021-08-28 02:00,ZHHH 280200Z VRB01MPS 9999 SCT020 OVC040 25/23 Q1013 NOSIG
ZHHH,2021-08-28 03:00,ZHHH 280300Z 16002MPS 100V260 9999 SCT020 OVC040 25/23 Q1013 NOSIG
ZHHH,2021-08-28 04:00,ZHHH 280400Z VRB01MPS 9999 SCT020 OVC040 26/23 Q1012 NOSIG
ZHHH,2021-08-28 05:00,ZHHH 280500Z 05003MPS 340V080 9999 SCT020 OVC040 27/24 Q1012 NOSIG
ZHHH,2021-08-28 06:00,ZHHH 280600Z 09002MPS 020V190 9999 OVC026 27/23 Q1011 NOSIG
ZHHH,2021-08-28 07:00,ZHHH 280700Z 11003MPS 070V150 9999 OVC026 28/24 Q1011 NOSIG
ZHHH,2021-08-28 08:00,ZHHH 280800Z 08002MPS 030V130 9999 BKN026 29/24 Q1010 NOSIG
ZHHH,2021-08-28 09:00,ZHHH 280900Z 10003MPS 080V140 9999 BKN026 28/24 Q1010 NOSIG
ZHHH,2021-08-28 10:00,ZHHH 281000Z 09004MPS 060V120 CAVOK 28/25 Q1010 NOSIG
ZHHH,2021-08-28 11:00,ZHHH 281100Z 08004MPS CAVOK 27/25 Q1010 NOSIG
ZHHH,2021-08-28 12:00,ZHHH 281200Z 09004MPS 9999 FEW026 27/25 Q1011 NOSIG
ZHHH,2021-08-28 13:00,ZHHH 281300Z 09003MPS CAVOK 27/25 Q1011 NOSIG
ZHHH,2021-08-28 14:00,ZHHH 281400Z 10003MPS 060V130 8000 NSC 27/25 Q1011 NOSIG
ZHHH,2021-08-28 15:00,ZHHH 281500Z 09003MPS 7000 NSC 26/25 Q1011 NOSIG
ZHHH,2021-08-28 16:00,ZHHH 281600Z 09003MPS 6000 NSC 26/25 Q1010 NOSIG
ZHHH,2021-08-28 17:00,ZHHH 281700Z 06003MPS 6000 NSC 25/25 Q1010 NOSIG
ZHHH,2021-08-28 18:00,ZHHH 281800Z 07003MPS 6000 NSC 25/25 Q1009 NOSIG
ZHHH,2021-08-28 19:00,ZHHH 281900Z 09004MPS 6000 NSC 25/25 Q1009 NOSIG
ZHHH,2021-08-28 20:00,ZHHH 282000Z 08003MPS 6000 NSC 25/25 Q1009 NOSIG
ZHHH,2021-08-28 21:00,ZHHH 282100Z 07003MPS 6000 NSC 25/25 Q1009 NOSIG
ZHHH,2021-08-28 22:00,ZHHH 282200Z 08003MPS 5000 BR NSC 25/25 Q1010 NOSIG
ZHHH,2021-08-28 23:00,ZHHH 282300Z 10004MPS 5000 BR NSC 25/25 Q1010 NOSIG
ZHHH,2021-08-29 00:00,ZHHH 290000Z 11004MPS 070V140 7000 NSC 26/26 Q1011 NOSIG
ZHHH,2021-08-29 01:00,ZHHH 290100Z 11004MPS 7000 NSC 27/27 Q1011 NOSIG
ZHHH,2021-08-29 02:00,ZHHH 290200Z 12004MPS 080V150 CAVOK 28/27 Q1011 NOSIG
ZHHH,2021-08-29 03:00,ZHHH 290300Z 11003MPS 060V160 CAVOK 30/27 Q1011 NOSIG
ZHHH,2021-08-29 04:00,ZHHH 290400Z VRB02MPS CAVOK 32/26 Q1010 NOSIG
ZHHH,2021-08-29 05:00,ZHHH 290500Z 18003MPS 130V220 9999 FEW030 33/25 Q1009 NOSIG
ZHHH,2021-08-29 06:00,ZHHH 290600Z 19003MPS 150V250 9999 FEW030 33/26 Q1009 NOSIG
ZHHH,2021-08-29 07:00,ZHHH 290700Z 24003MPS 9999 FEW030 33/24 Q1008 NOSIG
ZHHH,2021-08-29 08:00,ZHHH 290800Z 26002MPS 220V310 9999 FEW030TCU 33/24 Q1008 NOSIG
ZHHH,2021-08-29 09:00,ZHHH 290900Z VRB01MPS 9999 FEW030TCU 33/26 Q1008 NOSIG
ZHHH,2021-08-29 10:00,ZHHH 291000Z 29002MPS 9999 FEW030TCU 32/26 Q1009 NOSIG
ZHHH,2021-08-29 11:00,ZHHH 291100Z 03002MPS 9999 FEW030TCU 30/26 Q1009 NOSIG
ZHHH,2021-08-29 12:00,ZHHH 291200Z 12004MPS CAVOK 30/26 Q1009 NOSIG
ZHHH,2021-08-29 13:00,ZHHH 291300Z 14003MPS 9999 -SHRA FEW033CB 29/26 Q1010 NOSIG
ZHHH,2021-08-29 14:00,ZHHH 291400Z 12003MPS 080V140 CAVOK 29/25 Q1010 NOSIG
ZHHH,2021-08-29 15:00,ZHHH 291500Z 12003MPS 080V140 CAVOK 29/26 Q1010 NOSIG
ZHHH,2021-08-29 16:00,ZHHH 291600Z 11004MPS CAVOK 28/25 Q1010 NOSIG
ZHHH,2021-08-29 17:00,ZHHH 291700Z 11004MPS CAVOK 28/25 Q1010 NOSIG
ZHHH,2021-08-29 18:00,ZHHH 291800Z 10004MPS CAVOK 28/25 Q1009 NOSIG
ZHHH,2021-08-29 19:00,ZHHH 291900Z 11003MPS CAVOK 27/25 Q1009 NOSIG
ZHHH,2021-08-29 20:00,ZHHH 292000Z 11003MPS CAVOK 27/25 Q1009 NOSIG
ZHHH,2021-08-29 21:00,ZHHH 292100Z 07002MPS CAVOK 26/26 Q1010 NOSIG
ZHHH,2021-08-29 22:00,ZHHH 292200Z 09003MPS CAVOK 27/26 Q1010 NOSIG
ZHHH,2021-08-29 23:00,ZHHH 292300Z 11003MPS CAVOK 27/26 Q1010 NOSIG
ZHHH,2021-08-30 00:00,ZHHH 300000Z 12004MPS CAVOK 28/27 Q1010 NOSIG
ZHHH,2021-08-30 01:00,ZHHH 300100Z 14003MPS 080V170 CAVOK 31/26 Q1011 NOSIG
ZHHH,2021-08-30 02:00,ZHHH 300200Z 19003MPS 140V220 CAVOK 33/26 Q1011 NOSIG
ZHHH,2021-08-30 03:00,ZHHH 300300Z 21004MPS CAVOK 34/25 Q1011 NOSIG
ZHHH,2021-08-30 04:00,ZHHH 300400Z 20004MPS 180V240 CAVOK 35/24 Q1010 NOSIG
ZHHH,2021-08-30 05:00,ZHHH 300500Z 20005MPS 160V240 CAVOK 35/24 Q1009 NOSIG
ZHHH,2021-08-30 06:00,ZHHH 300600Z 23006MPS CAVOK 35/23 Q1009 NOSIG
ZHHH,2021-08-30 07:00,ZHHH 300700Z 22004MPS CAVOK 35/23 Q1009 NOSIG
ZHHH,2021-08-30 08:00,ZHHH 300800Z 21004MPS 160V240 CAVOK 36/24 Q1008 NOSIG
ZHHH,2021-08-30 09:00,ZHHH 300900Z 24002MPS 200V280 CAVOK 35/24 Q1008 NOSIG
ZHHH,2021-08-30 10:00,ZHHH 301000Z 25002MPS 9999 FEW030 34/25 Q1008 NOSIG
ZHHH,2021-08-30 11:00,ZHHH 301100Z 00000MPS 9999 FEW023 FEW026TCU 31/26 Q1009 NOSIG
ZHHH,2021-08-30 12:00,ZHHH 301200Z 12003MPS 070V140 CAVOK 33/25 Q1009 NOSIG
ZHHH,2021-08-30 13:00,ZHHH 301300Z 10002MPS CAVOK 32/25 Q1010 NOSIG
ZHHH,2021-08-30 14:00,ZHHH 301400Z 12003MPS CAVOK 32/25 Q1010 NOSIG
ZHHH,2021-08-30 15:00,ZHHH 301500Z 13002MPS CAVOK 31/26 Q1010 NOSIG
ZHHH,2021-08-30 16:00,ZHHH 301600Z 00000MPS CAVOK 28/28 Q1010 NOSIG
ZHHH,2021-08-30 17:00,ZHHH 301700Z 11002MPS 9999 FEW033 30/27 Q1009 NOSIG
ZHHH,2021-08-30 18:00,ZHHH 301800Z 12002MPS CAVOK 29/28 Q1009 NOSIG
ZHHH,2021-08-30 19:00,ZHHH 301900Z 12003MPS CAVOK 29/27 Q1009 NOSIG
ZHHH,2021-08-30 20:00,ZHHH 302000Z 12003MPS CAVOK 29/27 Q1009 NOSIG
ZHHH,2021-08-30 21:00,ZHHH 302100Z 09002MPS CAVOK 28/27 Q1009 NOSIG
ZHHH,2021-08-30 22:00,ZHHH 302200Z 10003MPS CAVOK 28/27 Q1009 NOSIG
ZHHH,2021-08-30 23:00,ZHHH 302300Z 11003MPS CAVOK 29/27 Q1010 NOSIG
ZHHH,2021-08-31 00:00,ZHHH 310000Z 11002MPS 060V150 CAVOK 31/27 Q1010 NOSIG
ZHHH,2021-08-31 01:00,ZHHH 310100Z 16003MPS 120V190 CAVOK 32/27 Q1010 NOSIG
ZHHH,2021-08-31 02:00,ZHHH 310200Z 18003MPS 150V230 CAVOK 33/26 Q1010 NOSIG
ZHHH,2021-08-31 03:00,ZHHH 310300Z 20003MPS 130V250 CAVOK 34/26 Q1010 NOSIG
ZHHH,2021-08-31 04:00,ZHHH 310400Z 24003MPS 210V300 9999 FEW023 FEW026TCU 35/26 Q1010 NOSIG
ZHHH,2021-08-31 05:00,ZHHH 310500Z 26003MPS 230V320 9999 FEW023TCU 35/25 Q1010 NOSIG
ZHHH,2021-08-31 06:00,ZHHH 310600Z 25003MPS 220V280 9999 FEW023CB 36/24 Q1009 NOSIG
ZHHH,2021-08-31 07:00,ZHHH 310700Z 25003MPS 220V300 9999 FEW023TCU 36/24 Q1009 NOSIG
ZHHH,2021-08-31 08:00,ZHHH 310800Z 25003MPS 220V280 9999 FEW023TCU 36/25 Q1008 NOSIG
ZHHH,2021-08-31 09:00,ZHHH 310900Z 25002MPS 230V290 9999 FEW020CB 36/24 Q1008 NOSIG
ZHHH,2021-08-31 10:00,ZHHH 311000Z 27001MPS 9999 FEW023TCU 33/26 Q1008 NOSIG
ZHHH,2021-08-31 11:00,ZHHH 311100Z 00000MPS 9999 FEW023TCU 30/27 Q1008 NOSIG
ZHHH,2021-08-31 12:00,ZHHH 311200Z 00000MPS CAVOK 30/28 Q1009 NOSIG
ZHHH,2021-08-31 13:00,ZHHH 311300Z 00000MPS CAVOK 30/26 Q1010 NOSIG
ZHHH,2021-08-31 14:00,ZHHH 311400Z 04004MPS CAVOK 29/28 Q1010 NOSIG
ZHHH,2021-08-31 15:00,ZHHH 311500Z 05006MPS CAVOK 28/28 Q1010 NOSIG
ZHHH,2021-08-31 16:00,ZHHH 311600Z 05006MPS CAVOK 27/27 Q1010 NOSIG
ZHHH,2021-08-31 17:00,ZHHH 311700Z 05005MPS CAVOK 26/26 Q1010 NOSIG
ZHHH,2021-08-31 18:00,ZHHH 311800Z 03003MPS 350V070 9999 FEW010 26/26 Q1010 NOSIG
ZHHH,2021-08-31 19:00,ZHHH 311900Z 04004MPS 360V060 CAVOK 25/25 Q1010 NOSIG
ZHHH,2021-08-31 20:00,ZHHH 312000Z 04004MPS 360V060 9999 FEW011 24/24 Q1010 NOSIG
ZHHH,2021-08-31 21:00,ZHHH 312100Z 05004MPS CAVOK 24/24 Q1010 NOSIG
ZHHH,2021-08-31 22:00,ZHHH 312200Z 05003MPS CAVOK 24/24 Q1010 NOSIG
ZHHH,2021-08-31 23:00,ZHHH 312300Z 04004MPS 360V060 CAVOK 24/24 Q1011 NOSIG
ZHHH,2021-09-01 00:00,ZHHH 010000Z 03003MPS 340V060 CAVOK 26/24 Q1011 NOSIG
ZHHH,2021-09-01 01:00,ZHHH 010100Z 06004MPS 030V090 CAVOK 27/25 Q1011 NOSIG
ZHHH,2021-09-01 02:00,ZHHH 010200Z 06003MPS 030V100 CAVOK 29/25 Q1011 NOSIG
ZHHH,2021-09-01 03:00,ZHHH 010300Z 05002MPS 360V090 CAVOK 30/25 Q1011 NOSIG
ZHHH,2021-09-01 04:00,ZHHH 010400Z 03002MPS 320V130 CAVOK 31/26 Q1010 NOSIG
ZHHH,2021-09-01 05:00,ZHHH 010500Z VRB02MPS 9999 SCT026 32/26 Q1010 NOSIG
ZHHH,2021-09-01 06:00,ZHHH 010600Z 02002MPS 310V060 9999 SCT026 33/27 Q1009 NOSIG
ZHHH,2021-09-01 07:00,ZHHH 010700Z VRB02MPS 9999 SCT026 33/28 Q1008 NOSIG
ZHHH,2021-09-01 08:00,ZHHH 010800Z 31002MPS 260V360 9999 SCT026 33/27 Q1008 NOSIG
ZHHH,2021-09-01 09:00,ZHHH 010900Z 32002MPS 270V030 9999 FEW026TCU SCT026 33/27 Q1008 NOSIG
ZHHH,2021-09-01 10:00,ZHHH 011000Z 01002MPS 330V050 9999 FEW026TCU 32/28 Q1008 NOSIG
ZHHH,2021-09-01 11:00,ZHHH 011100Z 03003MPS 360V060 9999 FEW026TCU 28/26 Q1009 NOSIG
ZHHH,2021-09-01 12:00,ZHHH 011200Z 03004MPS CAVOK 26/25 Q1010 NOSIG
ZHHH,2021-09-01 13:00,ZHHH 011300Z 03004MPS 9999 SCT033 25/24 Q1011 NOSIG
ZHHH,2021-09-01 14:00,ZHHH 011400Z 01002MPS 310V050 9999 SCT033 24/24 Q1011 NOSIG
ZHHH,2021-09-01 15:00,ZHHH 011500Z 04004MPS 010V070 9999 SCT033 24/24 Q1011 NOSIG
ZHHH,2021-09-01 16:00,ZHHH 011600Z 04003MPS 9999 SCT033 24/24 Q1011 NOSIG
ZHHH,2021-09-01 17:00,ZHHH 011700Z 03002MPS 340V060 CAVOK 23/23 Q1011 NOSIG
ZHHH,2021-09-01 18:00,ZHHH 011800Z 04002MPS 360V060 9999 SCT023 23/23 Q1010 NOSIG
ZHHH,2021-09-01 19:00,ZHHH 011900Z 03002MPS 320V060 9999 BKN009 23/23 Q1010 NOSIG
ZHHH,2021-09-01 20:00,ZHHH 012000Z VRB01MPS 9999 BKN007 OVC030 23/23 Q1010 NOSIG
ZHHH,2021-09-01 21:00,ZHHH 012100Z 03002MPS 9999 SCT010 OVC030 23/23 Q1010 NOSIG
ZHHH,2021-09-01 22:00,ZHHH 012200Z 02001MPS 8000 NSC 23/23 Q1010 NOSIG
ZHHH,2021-09-01 23:00,ZHHH 012300Z VRB01MPS 8000 NSC 24/24 Q1011 NOSIG
ZHHH,2021-09-02 00:00,ZHHH 020000Z VRB01MPS 8000 SCT009 24/24 Q1011 NOSIG
ZHHH,2021-09-02 01:00,ZHHH 020100Z 02002MPS 340V060 8000 FEW009 BKN030 24/24 Q1011 NOSIG
ZHHH,2021-09-02 02:00,ZHHH 020200Z VRB01MPS 9999 SCT030 25/24 Q1011 NOSIG
ZHHH,2021-09-02 03:00,ZHHH 020300Z 30002MPS 250V340 CAVOK 26/25 Q1011 NOSIG
ZHHH,2021-09-02 04:00,ZHHH 020400Z 29002MPS 230V020 9999 FEW033 28/25 Q1010 NOSIG
ZHHH,2021-09-02 05:00,ZHHH 020500Z 33002MPS 230V030 9999 SCT033 29/25 Q1009 NOSIG
ZHHH,2021-09-02 06:00,ZHHH 020600Z VRB02MPS 9999 SCT033 29/25 Q1009 NOSIG
ZHHH,2021-09-02 07:00,ZHHH 020700Z 29002MPS 220V020 9999 SCT033 29/25 Q1008 NOSIG
ZHHH,2021-09-02 08:00,ZHHH 020800Z 32002MPS 250V040 CAVOK 29/26 Q1007 NOSIG
ZHHH,2021-09-02 09:00,ZHHH 020900Z 33002MPS 270V010 CAVOK 29/26 Q1007 NOSIG
ZHHH,2021-09-02 10:00,ZHHH 021000Z VRB01MPS CAVOK 29/26 Q1007 NOSIG
ZHHH,2021-09-02 11:00,ZHHH 021100Z 02002MPS CAVOK 28/26 Q1007 NOSIG
ZHHH,2021-09-02 12:00,ZHHH 021200Z 36002MPS 330V030 CAVOK 27/27 Q1008 NOSIG
ZHHH,2021-09-02 13:00,ZHHH 021300Z 03002MPS CAVOK 27/26 Q1008 NOSIG
ZHHH,2021-09-02 14:00,ZHHH 021400Z 02002MPS 340V050 CAVOK 27/26 Q1008 NOSIG
ZHHH,2021-09-02 15:00,ZHHH 021500Z 04002MPS CAVOK 26/26 Q1008 NOSIG
ZHHH,2021-09-02 16:00,ZHHH 021600Z 02002MPS 350V050 CAVOK 26/26 Q1007 NOSIG
ZHHH,2021-09-02 17:00,ZHHH 021700Z 07003MPS 030V100 9999 SCT040 26/25 Q1007 NOSIG
ZHHH,2021-09-02 18:00,ZHHH 021800Z 05002MPS 360V060 CAVOK 25/25 Q1007 NOSIG
ZHHH,2021-09-02 19:00,ZHHH 021900Z 04001MPS CAVOK 25/25 Q1007 NOSIG
ZHHH,2021-09-02 20:00,ZHHH 022000Z 07002MPS 9999 BKN033 25/25 Q1007 NOSIG
ZHHH,2021-09-02 21:00,ZHHH 022100Z 09003MPS 9999 BKN033 25/25 Q1007 NOSIG
ZHHH,2021-09-02 22:00,ZHHH 022200Z 06004MPS 9999 SCT026 25/25 Q1007 NOSIG
ZHHH,2021-09-02 23:00,ZHHH 022300Z 10003MPS 9999 FEW026 26/25 Q1007 NOSIG
ZHHH,2021-09-03 00:00,ZHHH 030000Z 11003MPS 060V140 CAVOK 27/26 Q1007 NOSIG
ZHHH,2021-09-03 01:00,ZHHH 030100Z 13003MPS 100V160 CAVOK 29/26 Q1007 NOSIG
ZHHH,2021-09-03 02:00,ZHHH 030200Z 14002MPS 090V200 CAVOK 30/26 Q1007 NOSIG
ZHHH,2021-09-03 03:00,ZHHH 030300Z VRB02MPS 9999 FEW023 32/26 Q1007 NOSIG
ZHHH,2021-09-03 04:00,ZHHH 030400Z VRB02MPS 9999 FEW026 33/27 Q1006 NOSIG
ZHHH,2021-09-03 05:00,ZHHH 030500Z VRB02MPS 9999 SCT033 34/26 Q1005 NOSIG
ZHHH,2021-09-03 06:00,ZHHH 030600Z 18003MPS 120V280 9999 FEW033 SCT040 34/25 Q1004 NOSIG
ZHHH,2021-09-03 07:00,ZHHH 030700Z VRB02MPS 9999 FEW026 FEW030TCU 35/25 Q1003 NOSIG
ZHHH,2021-09-03 08:00,ZHHH 030800Z VRB02MPS 9999 FEW026 FEW030TCU 35/25 Q1003 NOSIG
ZHHH,2021-09-03 09:00,ZHHH 030900Z 29002MPS 240V360 9999 FEW030TCU BKN040 34/26 Q1003 NOSIG
ZHHH,2021-09-03 10:00,ZHHH 031000Z VRB01MPS 9999 FEW030TCU SCT040 33/27 Q1003 NOSIG
ZHHH,2021-09-03 11:00,ZHHH 031100Z 09003MPS 050V120 9999 TS FEW030CB 32/26 Q1004 BECMG TL1200 NSW
ZHHH,2021-09-03 12:00,ZHHH 031200Z 11006MPS 9999 TS FEW023 FEW030CB 31/26 Q1005 BECMG TL1240 NSW
ZHHH,2021-09-03 13:00,ZHHH 031300Z 15003MPS 100V160 CAVOK 30/26 Q1006 RETS NOSIG
ZHHH,2021-09-03 14:00,ZHHH 031400Z 10004MPS 070V130 CAVOK 29/25 Q1006 NOSIG
ZHHH,2021-09-03 15:00,ZHHH 031500Z 10003MPS CAVOK 29/26 Q1005 NOSIG
ZHHH,2021-09-03 16:00,ZHHH 031600Z 12003MPS CAVOK 29/27 Q1005 NOSIG
ZHHH,2021-09-03 17:00,ZHHH 031700Z 11003MPS CAVOK 29/27 Q1005 NOSIG
ZHHH,2021-09-03 18:00,ZHHH 031800Z 12004MPS CAVOK 29/27 Q1005 NOSIG
ZHHH,2021-09-03 19:00,ZHHH 031900Z 12004MPS CAVOK 29/27 Q1004 NOSIG
ZHHH,2021-09-03 20:00,ZHHH 032000Z 13004MPS CAVOK 28/28 Q1004 NOSIG
ZHHH,2021-09-03 21:00,ZHHH 032100Z 13003MPS 8000 NSC 29/28 Q1004 NOSIG
ZHHH,2021-09-03 22:00,ZHHH 032200Z 13003MPS 6000 NSC 28/28 Q1004 NOSIG
ZHHH,2021-09-03 23:00,ZHHH 032300Z 12003MPS 6000 NSC 29/28 Q1004 NOSIG
ZHHH,2021-09-04 00:00,ZHHH 040000Z 12003MPS 080V150 6000 NSC 29/27 Q1005 NOSIG
ZHHH,2021-09-04 01:00,ZHHH 040100Z 10003MPS 6000 NSC 30/27 Q1005 NOSIG
ZHHH,2021-09-04 02:00,ZHHH 040200Z 12003MPS 080V150 7000 NSC 31/27 Q1006 NOSIG
ZHHH,2021-09-04 03:00,ZHHH 040300Z 11004MPS 070V150 7000 NSC 32/27 Q1006 NOSIG
ZHHH,2021-09-04 04:00,ZHHH 040400Z 17005MPS 140V220 CAVOK 34/26 Q1005 NOSIG
ZHHH,2021-09-04 05:00,ZHHH 040500Z 19005MPS 160V220 9999 FEW026 35/26 Q1005 NOSIG
ZHHH,2021-09-04 06:00,ZHHH 040600Z 24004MPS 9999 FEW026 35/26 Q1005 NOSIG
ZHHH,2021-09-04 07:00,ZHHH 040700Z 22004MPS 9999 FEW026 36/25 Q1004 NOSIG
ZHHH,2021-09-04 08:00,ZHHH 040800Z 24003MPS 9999 FEW026TCU 35/25 Q1004 NOSIG
ZHHH,2021-09-04 09:00,ZHHH 040900Z 22003MPS 190V250 9999 FEW026 35/26 Q1004 NOSIG
ZHHH,2021-09-04 10:00,ZHHH 041000Z 21004MPS 9999 FEW026 35/25 Q1005 NOSIG
ZHHH,2021-09-04 11:00,ZHHH 041100Z 20002MPS 160V230 CAVOK 33/25 Q1005 NOSIG
ZHHH,2021-09-04 12:00,ZHHH 041200Z 18002MPS 140V220 CAVOK 30/26 Q1006 NOSIG
ZHHH,2021-09-04 13:00,ZHHH 041300Z VRB01MPS CAVOK 30/26 Q1007 NOSIG
ZHHH,2021-09-04 14:00,ZHHH 041400Z 11004MPS CAVOK 32/26 Q1007 NOSIG
ZHHH,2021-09-04 15:00,ZHHH 041500Z 04005MPS CAVOK 28/26 Q1007 NOSIG
ZHHH,2021-09-04 16:00,ZHHH 041600Z 05008MPS CAVOK 27/24 Q1008 NOSIG
ZHHH,2021-09-04 17:00,ZHHH 041700Z 03004MPS 360V070 CAVOK 25/23 Q1008 NOSIG
ZHHH,2021-09-04 18:00,ZHHH 041800Z 04004MPS 9999 BKN020 25/22 Q1008 NOSIG
ZHHH,2021-09-04 19:00,ZHHH 041900Z 04004MPS 360V060 CAVOK 24/23 Q1008 NOSIG
ZHHH,2021-09-04 20:00,ZHHH 042000Z 04003MPS 360V070 9999 BKN020 24/23 Q1009 NOSIG
ZHHH,2021-09-04 21:00,ZHHH 042100Z 04004MPS 020V080 9999 BKN023 24/22 Q1009 NOSIG
ZHHH,2021-09-04 22:00,ZHHH 042200Z 04004MPS 360V060 9999 SCT023 23/21 Q1010 NOSIG
ZHHH,2021-09-04 23:00,ZHHH 042300Z 04005MPS 360V060 9999 BKN040 23/21 Q1010 NOSIG
ZHHH,2021-09-05 00:00,ZHHH 050000Z 04004MPS CAVOK 24/21 Q1011 NOSIG
ZHHH,2021-09-05 01:00,ZHHH 050100Z 04004MPS 360V060 CAVOK 25/22 Q1011 NOSIG
ZHHH,2021-09-05 02:00,ZHHH 050200Z 01003MPS 330V060 CAVOK 27/22 Q1011 NOSIG
ZHHH,2021-09-05 03:00,ZHHH 050300Z 01003MPS 340V070 CAVOK 28/23 Q1011 NOSIG
ZHHH,2021-09-05 04:00,ZHHH 050400Z 01003MPS 310V050 CAVOK 30/23 Q1011 NOSIG
ZHHH,2021-09-05 05:00,ZHHH 050500Z 03003MPS 330V080 CAVOK 31/24 Q1010 NOSIG
ZHHH,2021-09-05 06:00,ZHHH 050600Z 36003MPS 300V060 CAVOK 31/24 Q1010 NOSIG
ZHHH,2021-09-05 07:00,ZHHH 050700Z 36002MPS 290V050 9999 SCT030 31/25 Q1009 NOSIG
ZHHH,2021-09-05 08:00,ZHHH 050800Z 04005MPS 9999 SCT030 30/24 Q1009 NOSIG
ZHHH,2021-09-05 09:00,ZHHH 050900Z 04005MPS 350V060 9999 SCT030 28/24 Q1010 NOSIG
ZHHH,2021-09-05 10:00,ZHHH 051000Z 04006MPS 360V060 CAVOK 27/22 Q1011 NOSIG
ZHHH,2021-09-05 11:00,ZHHH 051100Z 04006MPS CAVOK 26/22 Q1012 NOSIG
ZHHH,2021-09-05 12:00,ZHHH 051200Z 04006MPS CAVOK 25/22 Q1012 NOSIG
ZHHH,2021-09-05 13:00,ZHHH 051300Z 05006MPS CAVOK 24/22 Q1013 NOSIG
ZHHH,2021-09-05 14:00,ZHHH 051400Z 04004MPS CAVOK 24/22 Q1013 NOSIG
ZHHH,2021-09-05 15:00,ZHHH 051500Z 04004MPS CAVOK 24/22 Q1013 NOSIG
ZHHH,2021-09-05 16:00,ZHHH 051600Z 04003MPS 360V060 CAVOK 23/22 Q1013 NOSIG
ZHHH,2021-09-05 17:00,ZHHH 051700Z 03002MPS CAVOK 23/22 Q1013 NOSIG
ZHHH,2021-09-05 18:00,ZHHH 051800Z 03002MPS CAVOK 23/22 Q1013 NOSIG
ZHHH,2021-09-05 19:00,ZHHH 051900Z 03002MPS 360V060 CAVOK 23/22 Q1013 NOSIG
ZHHH,2021-09-05 20:00,ZHHH 052000Z 06003MPS 9999 FEW033 23/21 Q1013 NOSIG
ZHHH,2021-09-05 21:00,ZHHH 052100Z 03002MPS 350V050 9999 FEW033 23/22 Q1013 NOSIG
ZHHH,2021-09-05 22:00,ZHHH 052200Z 04002MPS 360V070 9999 BKN033 23/22 Q1013 NOSIG
ZHHH,2021-09-05 23:00,ZHHH 052300Z 04002MPS 9999 FEW033 24/22 Q1014 NOSIG
ZHHH,2021-09-06 00:00,ZHHH 060000Z 36002MPS 300V030 9999 FEW033 24/23 Q1015 NOSIG
ZHHH,2021-09-06 01:00,ZHHH 060100Z 03003MPS 330V070 CAVOK 25/22 Q1015 NOSIG
ZHHH,2021-09-06 02:00,ZHHH 060200Z 03003MPS 340V080 CAVOK 25/22 Q1016 NOSIG
ZHHH,2021-09-06 03:00,ZHHH 060300Z 04004MPS 350V070 9999 FEW033 27/22 Q1015 NOSIG
ZHHH,2021-09-06 04:00,ZHHH 060400Z 36004MPS 330V040 9999 FEW025 27/22 Q1015 NOSIG
ZHHH,2021-09-06 05:00,ZHHH 060500Z 01003MPS 300V060 9999 SCT025 27/22 Q1014 NOSIG
ZHHH,2021-09-06 06:00,ZHHH 060600Z 36003MPS 320V060 9999 BKN030 27/22 Q1014 NOSIG
ZHHH,2021-09-06 07:00,ZHHH 060700Z 03004MPS 340V070 9999 BKN030 27/22 Q1014 NOSIG
ZHHH,2021-09-06 08:00,ZHHH 060800Z 02004MPS 350V050 9999 BKN030 26/21 Q1014 NOSIG
ZHHH,2021-09-06 09:00,ZHHH 060900Z 04005MPS 9999 SCT033 26/21 Q1014 NOSIG
ZHHH,2021-09-06 10:00,ZHHH 061000Z 02003MPS 350V060 9999 SCT033 25/21 Q1014 NOSIG
ZHHH,2021-09-06 11:00,ZHHH 061100Z 03003MPS 340V060 9999 BKN040 25/21 Q1014 NOSIG
ZHHH,2021-09-06 12:00,ZHHH 061200Z 01002MPS 340V060 9999 BKN040 24/22 Q1015 NOSIG
ZHHH,2021-09-06 13:00,ZHHH 061300Z 01002MPS 280V060 9999 BKN040 24/21 Q1016 NOSIG
ZHHH,2021-09-06 14:00,ZHHH 061400Z 02002MPS 330V080 CAVOK 24/22 Q1016 NOSIG
ZHHH,2021-09-06 15:00,ZHHH 061500Z 36003MPS 320V020 CAVOK 23/22 Q1016 NOSIG
ZHHH,2021-09-06 16:00,ZHHH 061600Z 36002MPS 320V030 CAVOK 23/22 Q1016 NOSIG
ZHHH,2021-09-06 17:00,ZHHH 061700Z 36003MPS 320V040 CAVOK 23/22 Q1016 NOSIG
ZHHH,2021-09-06 18:00,ZHHH 061800Z 36002MPS 320V040 CAVOK 23/22 Q1016 NOSIG
ZHHH,2021-09-06 19:00,ZHHH 061900Z 02002MPS 330V050 CAVOK 23/22 Q1016 NOSIG
ZHHH,2021-09-06 20:00,ZHHH 062000Z 02003MPS 350V060 CAVOK 23/21 Q1015 NOSIG
ZHHH,2021-09-06 21:00,ZHHH 062100Z 02003MPS 350V060 CAVOK 23/21 Q1015 NOSIG
ZHHH,2021-09-06 22:00,ZHHH 062200Z 02002MPS 350V050 CAVOK 22/22 Q1016 NOSIG
ZHHH,2021-09-06 23:00,ZHHH 062300Z 36002MPS 310V050 9999 -RA NSC 23/22 Q1016 NOSIG
ZHHH,2021-09-07 00:00,ZHHH 070000Z 02002MPS 330V060 CAVOK 23/22 Q1016 NOSIG
ZHHH,2021-09-07 01:00,ZHHH 070100Z 01003MPS 330V050 CAVOK 24/20 Q1017 NOSIG
ZHHH,2021-09-07 02:00,ZHHH 070200Z 02002MPS 330V060 CAVOK 25/21 Q1017 NOSIG
ZHHH,2021-09-07 03:00,ZHHH 070300Z 03003MPS 330V070 CAVOK 25/20 Q1016 NOSIG
ZHHH,2021-09-07 04:00,ZHHH 070400Z 01003MPS 310V060 CAVOK 25/21 Q1016 NOSIG
ZHHH,2021-09-07 05:00,ZHHH 070500Z 01002MPS 310V050 CAVOK 25/21 Q1015 NOSIG
ZHHH,2021-09-07 06:00,ZHHH 070600Z 01003MPS 330V050 CAVOK 25/22 Q1015 NOSIG
ZHHH,2021-09-07 07:00,ZHHH 070700Z 36002MPS 290V060 CAVOK 26/21 Q1014 NOSIG
ZHHH,2021-09-07 08:00,ZHHH 070800Z 30002MPS 220V020 CAVOK 27/22 Q1013 NOSIG
ZHHH,2021-09-07 09:00,ZHHH 070900Z 36002MPS 310V060 9999 FEW030 28/21 Q1013 NOSIG
ZHHH,2021-09-07 10:00,ZHHH 071000Z 00000MPS CAVOK 28/22 Q1013 NOSIG
ZHHH,2021-09-07 11:00,ZHHH 071100Z 33001MPS CAVOK 25/23 Q1013 NOSIG
ZHHH,2021-09-07 12:00,ZHHH 071200Z 04003MPS CAVOK 25/21 Q1013 NOSIG
ZHHH,2021-09-07 13:00,ZHHH 071300Z 04003MPS CAVOK 24/21 Q1013 NOSIG
ZHHH,2021-09-07 14:00,ZHHH 071400Z 06003MPS 030V090 CAVOK 24/21 Q1014 NOSIG
ZHHH,2021-09-07 15:00,ZHHH 071500Z 04002MPS CAVOK 23/21 Q1014 NOSIG
ZHHH,2021-09-07 16:00,ZHHH 071600Z 05001MPS CAVOK 22/21 Q1014 NOSIG
ZHHH,2021-09-07 17:00,ZHHH 071700Z 10002MPS 050V130 CAVOK 23/21 Q1013 NOSIG
ZHHH,2021-09-07 18:00,ZHHH 071800Z 06002MPS 020V110 CAVOK 22/21 Q1013 NOSIG
ZHHH,2021-09-07 19:00,ZHHH 071900Z 00000MPS CAVOK 21/21 Q1012 NOSIG
ZHHH,2021-09-07 20:00,ZHHH 072000Z 01002MPS CAVOK 21/21 Q1012 NOSIG
ZHHH,2021-09-07 21:00,ZHHH 072100Z 06002MPS CAVOK 22/22 Q1012 NOSIG
ZHHH,2021-09-07 22:00,ZHHH 072200Z 08002MPS CAVOK 22/22 Q1012 NOSIG
ZHHH,2021-09-07 23:00,ZHHH 072300Z 07003MPS CAVOK 23/22 Q1012 NOSIG
ZHHH,2021-09-08 00:00,ZHHH 080000Z 08003MPS CAVOK 24/21 Q1012 NOSIG
ZHHH,2021-09-08 01:00,ZHHH 080100Z 06002MPS 020V080 CAVOK 25/21 Q1013 NOSIG
ZHHH,2021-09-08 02:00,ZHHH 080200Z VRB01MPS CAVOK 26/21 Q1013 NOSIG
ZHHH,2021-09-08 03:00,ZHHH 080300Z 28002MPS 220V020 CAVOK 27/21 Q1013 NOSIG
ZHHH,2021-09-08 04:00,ZHHH 080400Z 31002MPS 250V040 9999 FEW033 28/21 Q1012 NOSIG
ZHHH,2021-09-08 05:00,ZHHH 080500Z VRB02MPS 9999 FEW033 29/21 Q1011 NOSIG
ZHHH,2021-09-08 06:00,ZHHH 080600Z 29002MPS 230V020 9999 FEW033 30/18 Q1010 NOSIG
ZHHH,2021-09-08 07:00,ZHHH 080700Z 32002MPS 270V360 9999 FEW026TCU 30/18 Q1010 NOSIG
ZHHH,2021-09-08 08:00,ZHHH 080800Z 28002MPS 230V340 9999 FEW026TCU 31/19 Q1009 NOSIG
ZHHH,2021-09-08 09:00,ZHHH 080900Z VRB01MPS 9999 FEW033 31/20 Q1009 NOSIG
ZHHH,2021-09-08 10:00,ZHHH 081000Z VRB01MPS CAVOK 30/21 Q1009 NOSIG
ZHHH,2021-09-08 11:00,ZHHH 081100Z VRB01MPS CAVOK 27/20 Q1009 NOSIG
ZHHH,2021-09-08 12:00,ZHHH 081200Z 34001MPS CAVOK 26/21 Q1010 NOSIG
ZHHH,2021-09-08 13:00,ZHHH 081300Z 00000MPS CAVOK 25/23 Q1011 NOSIG
ZHHH,2021-09-08 14:00,ZHHH 081400Z VRB01MPS CAVOK 25/23 Q1011 NOSIG
ZHHH,2021-09-08 15:00,ZHHH 081500Z VRB01MPS CAVOK 24/24 Q1011 NOSIG
ZHHH,2021-09-08 16:00,ZHHH 081600Z 31001MPS CAVOK 23/23 Q1011 NOSIG
ZHHH,2021-09-08 17:00,ZHHH 081700Z 29001MPS CAVOK 24/24 Q1010 NOSIG
ZHHH,2021-09-08 18:00,ZHHH 081800Z 00000MPS CAVOK 23/23 Q1010 NOSIG
ZHHH,2021-09-08 19:00,ZHHH 081900Z 00000MPS CAVOK 23/23 Q1010 NOSIG
ZHHH,2021-09-08 20:00,ZHHH 082000Z 00000MPS CAVOK 23/23 Q1010 NOSIG
ZHHH,2021-09-08 21:00,ZHHH 082100Z 00000MPS CAVOK 23/23 Q1010 NOSIG
ZHHH,2021-09-08 22:00,ZHHH 082200Z 00000MPS 7000 NSC 23/23 Q1010 NOSIG
ZHHH,2021-09-08 23:00,ZHHH 082300Z 04001MPS 7000 NSC 24/24 Q1011 NOSIG
ZHHH,2021-09-09 00:00,ZHHH 090000Z 13002MPS 080V190 6000 NSC 27/24 Q1011 NOSIG
ZHHH,2021-09-09 01:00,ZHHH 090100Z VRB02MPS 8000 NSC 29/22 Q1011 NOSIG
ZHHH,2021-09-09 02:00,ZHHH 090200Z VRB02MPS CAVOK 30/19 Q1012 NOSIG
ZHHH,2021-09-09 03:00,ZHHH 090300Z 23002MPS 150V300 CAVOK 31/20 Q1011 NOSIG
ZHHH,2021-09-09 04:00,ZHHH 090400Z 32002MPS 260V050 CAVOK 31/20 Q1011 NOSIG
ZHHH,2021-09-09 05:00,ZHHH 090500Z 31002MPS 230V010 CAVOK 32/21 Q1010 NOSIG
ZHHH,2021-09-09 06:00,ZHHH 090600Z VRB02MPS 9999 FEW033 32/21 Q1010 NOSIG
ZHHH,2021-09-09 07:00,ZHHH 090700Z 31002MPS 250V030 9999 FEW033 33/21 Q1009 NOSIG
ZHHH,2021-09-09 08:00,ZHHH 090800Z VRB01MPS 9999 FEW033 33/21 Q1009 NOSIG
ZHHH,2021-09-09 09:00,ZHHH 090900Z VRB01MPS 9999 FEW033 32/21 Q1009 NOSIG
ZHHH,2021-09-09 10:00,ZHHH 091000Z VRB01MPS CAVOK 31/21 Q1009 NOSIG
ZHHH,2021-09-09 11:00,ZHHH 091100Z 00000MPS CAVOK 29/22 Q1009 NOSIG
ZHHH,2021-09-09 12:00,ZHHH 091200Z 00000MPS CAVOK 28/25 Q1009 NOSIG
ZHHH,2021-09-09 13:00,ZHHH 091300Z 35001MPS CAVOK 27/25 Q1010 NOSIG
ZHHH,2021-09-09 14:00,ZHHH 091400Z 36001MPS CAVOK 26/25 Q1010 NOSIG
ZHHH,2021-09-09 15:00,ZHHH 091500Z 05002MPS CAVOK 26/24 Q1010 NOSIG
ZHHH,2021-09-09 16:00,ZHHH 091600Z VRB01MPS CAVOK 25/23 Q1010 NOSIG
ZHHH,2021-09-09 17:00,ZHHH 091700Z 00000MPS CAVOK 24/23 Q1010 NOSIG
ZHHH,2021-09-09 18:00,ZHHH 091800Z 00000MPS CAVOK 24/24 Q1010 NOSIG
ZHHH,2021-09-09 19:00,ZHHH 091900Z 00000MPS CAVOK 23/23 Q1010 NOSIG
ZHHH,2021-09-09 20:00,ZHHH 092000Z 07001MPS CAVOK 23/23 Q1010 NOSIG
ZHHH,2021-09-09 21:00,ZHHH 092100Z 07002MPS CAVOK 24/23 Q1010 NOSIG
ZHHH,2021-09-09 22:00,ZHHH 092200Z 06002MPS CAVOK 23/23 Q1010 NOSIG
ZHHH,2021-09-09 23:00,ZHHH 092300Z 08002MPS CAVOK 25/23 Q1010 NOSIG
ZHHH,2021-09-10 00:00,ZHHH 100000Z 08002MPS 040V130 6000 NSC 27/24 Q1011 NOSIG
ZHHH,2021-09-10 01:00,ZHHH 100100Z 13002MPS 060V180 8000 NSC 29/24 Q1011 NOSIG
ZHHH,2021-09-10 02:00,ZHHH 100200Z 29002MPS 220V360 CAVOK 30/23 Q1011 NOSIG
ZHHH,2021-09-10 03:00,ZHHH 100300Z 28002MPS 190V360 CAVOK 31/23 Q1011 NOSIG
ZHHH,2021-09-10 04:00,ZHHH 100400Z VRB02MPS CAVOK 31/22 Q1010 NOSIG
ZHHH,2021-09-10 05:00,ZHHH 100500Z 30002MPS 260V340 CAVOK 32/23 Q1010 NOSIG
ZHHH,2021-09-10 06:00,ZHHH 100600Z 32002MPS 270V020 CAVOK 33/23 Q1009 NOSIG
ZHHH,2021-09-10 07:00,ZHHH 100700Z VRB02MPS CAVOK 33/22 Q1009 NOSIG
ZHHH,2021-09-10 08:00,ZHHH 100800Z 33002MPS 280V030 CAVOK 34/22 Q1008 NOSIG
ZHHH,2021-09-10 09:00,ZHHH 100900Z VRB01MPS CAVOK 34/21 Q1008 NOSIG
ZHHH,2021-09-10 10:00,ZHHH 101000Z VRB01MPS CAVOK 32/23 Q1008 NOSIG
ZHHH,2021-09-10 11:00,ZHHH 101100Z 35001MPS CAVOK 28/24 Q1008 NOSIG
ZHHH,2021-09-10 12:00,ZHHH 101200Z 01002MPS CAVOK 26/25 Q1008 NOSIG
ZHHH,2021-09-10 13:00,ZHHH 101300Z VRB01MPS CAVOK 26/25 Q1009 NOSIG
ZHHH,2021-09-10 14:00,ZHHH 101400Z 35001MPS CAVOK 26/25 Q1009 NOSIG
ZHHH,2021-09-10 15:00,ZHHH 101500Z 04002MPS CAVOK 26/21 Q1009 NOSIG
ZHHH,2021-09-10 16:00,ZHHH 101600Z 05002MPS CAVOK 24/23 Q1009 NOSIG
ZHHH,2021-09-10 17:00,ZHHH 101700Z 06003MPS CAVOK 26/23 Q1009 NOSIG
ZHHH,2021-09-10 18:00,ZHHH 101800Z VRB01MPS CAVOK 25/23 Q1008 NOSIG
ZHHH,2021-09-10 19:00,ZHHH 101900Z 08005MPS CAVOK 26/23 Q1008 NOSIG
ZHHH,2021-09-10 20:00,ZHHH 102000Z 07002MPS CAVOK 25/23 Q1008 NOSIG
ZHHH,2021-09-10 21:00,ZHHH 102100Z 05002MPS 8000 NSC 24/23 Q1008 NOSIG
ZHHH,2021-09-10 22:00,ZHHH 102200Z 06002MPS 8000 NSC 23/23 Q1008 NOSIG
ZHHH,2021-09-10 23:00,ZHHH 102300Z 05002MPS 010V090 9000 NSC 25/23 Q1008 NOSIG
ZHHH,2021-09-11 00:00,ZHHH 110000Z 08002MPS 040V120 CAVOK 27/22 Q1009 NOSIG
ZHHH,2021-09-11 01:00,ZHHH 110100Z VRB02MPS 9999 FEW026 29/23 Q1009 NOSIG
ZHHH,2021-09-11 02:00,ZHHH 110200Z 12002MPS 050V180 9999 FEW033 31/23 Q1009 NOSIG
ZHHH,2021-09-11 03:00,ZHHH 110300Z VRB02MPS CAVOK 32/22 Q1009 NOSIG
ZHHH,2021-09-11 04:00,ZHHH 110400Z VRB02MPS CAVOK 32/22 Q1008 NOSIG
ZHHH,2021-09-11 05:00,ZHHH 110500Z VRB02MPS CAVOK 33/22 Q1007 NOSIG
ZHHH,2021-09-11 06:00,ZHHH 110600Z 26003MPS 240V020 CAVOK 34/22 Q1006 NOSIG
ZHHH,2021-09-11 07:00,ZHHH 110700Z 23003MPS 190V300 CAVOK 34/21 Q1006 NOSIG
ZHHH,2021-09-11 08:00,ZHHH 110800Z VRB01MPS CAVOK 34/20 Q1005 NOSIG
ZHHH,2021-09-11 09:00,ZHHH 110900Z 25002MPS 180V280 CAVOK 35/20 Q1005 NOSIG
ZHHH,2021-09-11 10:00,ZHHH 111000Z 00000MPS CAVOK 31/20 Q1005 NOSIG
ZHHH,2021-09-11 11:00,ZHHH 111100Z 00000MPS CAVOK 29/21 Q1005 NOSIG
ZHHH,2021-09-11 12:00,ZHHH 111200Z 00000MPS CAVOK 29/26 Q1005 NOSIG
ZHHH,2021-09-11 13:00,ZHHH 111300Z 03004MPS CAVOK 29/20 Q1006 NOSIG
ZHHH,2021-09-11 14:00,ZHHH 111400Z 04004MPS CAVOK 28/21 Q1006 NOSIG
ZHHH,2021-09-11 15:00,ZHHH 111500Z 04003MPS CAVOK 26/21 Q1006 NOSIG
ZHHH,2021-09-11 16:00,ZHHH 111600Z 05005MPS CAVOK 26/21 Q1006 NOSIG
ZHHH,2021-09-11 17:00,ZHHH 111700Z 07005MPS CAVOK 26/21 Q1006 NOSIG
ZHHH,2021-09-11 18:00,ZHHH 111800Z 08005MPS CAVOK 26/21 Q1005 NOSIG
ZHHH,2021-09-11 19:00,ZHHH 111900Z 06003MPS CAVOK 25/21 Q1005 NOSIG
ZHHH,2021-09-11 20:00,ZHHH 112000Z 05002MPS 010V080 CAVOK 24/22 Q1005 NOSIG
ZHHH,2021-09-11 21:00,ZHHH 112100Z 04002MPS CAVOK 24/22 Q1005 NOSIG
ZHHH,2021-09-11 22:00,ZHHH 112200Z 04003MPS CAVOK 24/22 Q1006 NOSIG
ZHHH,2021-09-11 23:00,ZHHH 112300Z 04003MPS CAVOK 25/22 Q1006 NOSIG
ZHHH,2021-09-12 00:00,ZHHH 120000Z 04004MPS 360V060 CAVOK 27/23 Q1006 NOSIG
ZHHH,2021-09-12 01:00,ZHHH 120100Z 05006MPS CAVOK 30/22 Q1007 NOSIG
ZHHH,2021-09-12 02:00,ZHHH 120200Z 04003MPS 330V110 CAVOK 31/23 Q1007 NOSIG
ZHHH,2021-09-12 03:00,ZHHH 120300Z 05003MPS 360V080 CAVOK 32/21 Q1007 NOSIG
ZHHH,2021-09-12 04:00,ZHHH 120400Z 01002MPS 300V070 CAVOK 33/21 Q1006 NOSIG
ZHHH,2021-09-12 05:00,ZHHH 120500Z 06004MPS 010V110 CAVOK 35/20 Q1006 NOSIG
ZHHH,2021-09-12 06:00,ZHHH 120600Z 04004MPS 350V080 CAVOK 36/16 Q1005 NOSIG
ZHHH,2021-09-12 07:00,ZHHH 120700Z 06003MPS 350V110 9999 FEW040 36/16 Q1005 NOSIG
ZHHH,2021-09-12 08:00,ZHHH 120800Z 02003MPS 340V060 9999 FEW040 35/19 Q1004 NOSIG
ZHHH,2021-09-12 09:00,ZHHH 120900Z 03004MPS CAVOK 34/18 Q1005 NOSIG
ZHHH,2021-09-12 10:00,ZHHH 121000Z 03004MPS 350V060 9999 FEW033 32/19 Q1005 NOSIG
ZHHH,2021-09-12 11:00,ZHHH 121100Z 03004MPS 360V060 CAVOK 29/20 Q1005 NOSIG
ZHHH,2021-09-12 12:00,ZHHH 121200Z 04005MPS CAVOK 28/21 Q1006 NOSIG
ZHHH,2021-09-12 13:00,ZHHH 121300Z 05005MPS CAVOK 27/20 Q1007 NOSIG
ZHHH,2021-09-12 14:00,ZHHH 121400Z 06006MPS CAVOK 27/20 Q1007 NOSIG
ZHHH,2021-09-12 15:00,ZHHH 121500Z 04004MPS CAVOK 26/21 Q1008 NOSIG
ZHHH,2021-09-12 16:00,ZHHH 121600Z 04002MPS CAVOK 25/21 Q1008 NOSIG
ZHHH,2021-09-12 17:00,ZHHH 121700Z 03003MPS CAVOK 25/22 Q1009 NOSIG
ZHHH,2021-09-12 18:00,ZHHH 121800Z 04003MPS CAVOK 25/22 Q1009 NOSIG
ZHHH,2021-09-12 19:00,ZHHH 121900Z 03003MPS 360V060 CAVOK 24/22 Q1009 NOSIG
ZHHH,2021-09-12 20:00,ZHHH 122000Z 03003MPS 360V060 CAVOK 24/22 Q1009 NOSIG
ZHHH,2021-09-12 21:00,ZHHH 122100Z 02002MPS CAVOK 23/22 Q1009 NOSIG
ZHHH,2021-09-12 22:00,ZHHH 122200Z 02002MPS CAVOK 23/22 Q1009 NOSIG
ZHHH,2021-09-12 23:00,ZHHH 122300Z 01002MPS 330V040 CAVOK 24/22 Q1010 NOSIG
ZHHH,2021-09-13 00:00,ZHHH 130000Z 04002MPS 360V080 CAVOK 25/22 Q1010 NOSIG
ZHHH,2021-09-13 01:00,ZHHH 130100Z 05003MPS 360V080 CAVOK 27/22 Q1011 NOSIG
ZHHH,2021-09-13 02:00,ZHHH 130200Z 01002MPS 320V110 CAVOK 28/22 Q1011 NOSIG
ZHHH,2021-09-13 03:00,ZHHH 130300Z VRB02MPS CAVOK 30/21 Q1011 NOSIG
ZHHH,2021-09-13 04:00,ZHHH 130400Z 36003MPS 270V050 9999 FEW030 31/20 Q1011 NOSIG
ZHHH,2021-09-13 05:00,ZHHH 130500Z 34002MPS 270V060 9999 SCT030 32/20 Q1011 NOSIG
ZHHH,2021-09-13 06:00,ZHHH 130600Z VRB02MPS 9999 SCT030 33/18 Q1010 NOSIG
ZHHH,2021-09-13 07:00,ZHHH 130700Z VRB02MPS 9999 SCT040 32/20 Q1010 NOSIG
ZHHH,2021-09-13 08:00,ZHHH 130800Z 03005MPS 9999 SCT040 31/21 Q1010 NOSIG
ZHHH,2021-09-13 09:00,ZHHH 130900Z 03005MPS 360V060 9999 SCT040 30/22 Q1010 NOSIG
ZHHH,2021-09-13 10:00,ZHHH 131000Z 03003MPS 360V060 9999 SCT040 29/22 Q1010 NOSIG
ZHHH,2021-09-13 11:00,ZHHH 131100Z 03003MPS CAVOK 28/22 Q1010 NOSIG
ZHHH,2021-09-13 12:00,ZHHH 131200Z 02002MPS 340V040 CAVOK 27/22 Q1011 NOSIG
ZHHH,2021-09-13 13:00,ZHHH 131300Z 02003MPS 340V040 CAVOK 27/21 Q1012 NOSIG
ZHHH,2021-09-13 14:00,ZHHH 131400Z 01002MPS 340V070 CAVOK 26/21 Q1012 NOSIG
ZHHH,2021-09-13 15:00,ZHHH 131500Z 04003MPS CAVOK 26/21 Q1013 NOSIG
ZHHH,2021-09-13 16:00,ZHHH 131600Z 04003MPS CAVOK 25/20 Q1013 NOSIG
ZHHH,2021-09-13 17:00,ZHHH 131700Z 04003MPS CAVOK 25/21 Q1013 NOSIG
ZHHH,2021-09-13 18:00,ZHHH 131800Z 05003MPS CAVOK 24/20 Q1013 NOSIG
ZHHH,2021-09-13 19:00,ZHHH 131900Z 03003MPS CAVOK 24/19 Q1013 NOSIG
ZHHH,2021-09-13 20:00,ZHHH 132000Z VRB01MPS CAVOK 23/20 Q1013 NOSIG
ZHHH,2021-09-13 21:00,ZHHH 132100Z 03002MPS CAVOK 23/19 Q1013 NOSIG
ZHHH,2021-09-13 22:00,ZHHH 132200Z 04003MPS CAVOK 23/20 Q1014 NOSIG
ZHHH,2021-09-13 23:00,ZHHH 132300Z 04002MPS 360V070 CAVOK 24/20 Q1014 NOSIG
ZHHH,2021-09-14 00:00,ZHHH 140000Z 02002MPS 340V060 CAVOK 26/21 Q1015 NOSIG
ZHHH,2021-09-14 01:00,ZHHH 140100Z 02003MPS 280V080 CAVOK 28/21 Q1015 NOSIG
ZHHH,2021-09-14 02:00,ZHHH 140200Z VRB03MPS CAVOK 29/20 Q1016 NOSIG
ZHHH,2021-09-14 03:00,ZHHH 140300Z 05004MPS 340V100 CAVOK 30/19 Q1016 NOSIG
ZHHH,2021-09-14 04:00,ZHHH 140400Z 02002MPS 310V070 9999 FEW030 31/19 Q1015 NOSIG
ZHHH,2021-09-14 05:00,ZHHH 140500Z VRB02MPS 9999 FEW030 32/19 Q1015 NOSIG
ZHHH,2021-09-14 06:00,ZHHH 140600Z VRB02MPS 9999 FEW033 32/19 Q1014 NOSIG
ZHHH,2021-09-14 07:00,ZHHH 140700Z 06004MPS 360V090 9999 FEW033 34/19 Q1013 NOSIG
ZHHH,2021-09-14 08:00,ZHHH 140800Z 01002MPS 320V060 CAVOK 33/19 Q1013 NOSIG
ZHHH,2021-09-14 09:00,ZHHH 140900Z 02003MPS 330V060 CAVOK 32/19 Q1013 NOSIG
ZHHH,2021-09-14 10:00,ZHHH 141000Z 03003MPS 9999 FEW040 31/20 Q1013 NOSIG
ZHHH,2021-09-14 11:00,ZHHH 141100Z 03003MPS 9999 SCT040 29/20 Q1013 NOSIG
ZHHH,2021-09-14 12:00,ZHHH 141200Z 03003MPS 360V060 CAVOK 28/20 Q1014 NOSIG
ZHHH,2021-09-14 13:00,ZHHH 141300Z 03004MPS CAVOK 27/19 Q1015 NOSIG
ZHHH,2021-09-14 14:00,ZHHH 141400Z 04004MPS CAVOK 26/19 Q1015 NOSIG
ZHHH,2021-09-14 15:00,ZHHH 141500Z 04004MPS CAVOK 26/19 Q1015 NOSIG
ZHHH,2021-09-14 16:00,ZHHH 141600Z 05004MPS CAVOK 25/18 Q1015 NOSIG
ZHHH,2021-09-14 17:00,ZHHH 141700Z 06005MPS CAVOK 25/17 Q1015 NOSIG
ZHHH,2021-09-14 18:00,ZHHH 141800Z 06002MPS 010V100 CAVOK 24/16 Q1014 NOSIG
ZHHH,2021-09-14 19:00,ZHHH 141900Z 06002MPS 030V090 CAVOK 23/17 Q1014 NOSIG
ZHHH,2021-09-14 20:00,ZHHH 142000Z 04002MPS CAVOK 23/16 Q1014 NOSIG
ZHHH,2021-09-14 21:00,ZHHH 142100Z 10002MPS CAVOK 24/17 Q1014 NOSIG
ZHHH,2021-09-14 22:00,ZHHH 142200Z 06002MPS 030V090 CAVOK 22/18 Q1014 NOSIG
ZHHH,2021-09-14 23:00,ZHHH 142300Z 12002MPS CAVOK 24/18 Q1015 NOSIG
ZHHH,2021-09-15 00:00,ZHHH 150000Z 08003MPS CAVOK 26/17 Q1015 NOSIG
ZHHH,2021-09-15 01:00,ZHHH 150100Z 07003MPS 040V120 CAVOK 28/16 Q1015 NOSIG
ZHHH,2021-09-15 02:00,ZHHH 150200Z 09003MPS 060V120 CAVOK 29/16 Q1015 NOSIG
ZHHH,2021-09-15 03:00,ZHHH 150300Z 11003MPS 060V150 CAVOK 30/18 Q1015 NOSIG
ZHHH,2021-09-15 04:00,ZHHH 150400Z 10003MPS 040V140 CAVOK 30/18 Q1014 NOSIG
ZHHH,2021-09-15 05:00,ZHHH 150500Z 14004G09MPS 090V180 9999 FEW033 32/16 Q1014 NOSIG
ZHHH,2021-09-15 06:00,ZHHH 150600Z 10003MPS 060V170 CAVOK 32/15 Q1013 NOSIG
ZHHH,2021-09-15 07:00,ZHHH 150700Z 11004MPS 080V140 CAVOK 33/11 Q1012 NOSIG
ZHHH,2021-09-15 08:00,ZHHH 150800Z 13003MPS 080V180 CAVOK 32/12 Q1012 NOSIG
ZHHH,2021-09-15 09:00,ZHHH 150900Z 12003MPS 070V150 CAVOK 32/13 Q1012 NOSIG
ZHHH,2021-09-15 10:00,ZHHH 151000Z 08004MPS CAVOK 31/13 Q1012 NOSIG
ZHHH,2021-09-15 11:00,ZHHH 151100Z 09003MPS CAVOK 30/10 Q1012 NOSIG
ZHHH,2021-09-15 12:00,ZHHH 151200Z 13002MPS 090V170 CAVOK 29/11 Q1012 NOSIG
ZHHH,2021-09-15 13:00,ZHHH 151300Z 13002MPS CAVOK 29/13 Q1013 NOSIG
ZHHH,2021-09-15 14:00,ZHHH 151400Z 00000MPS CAVOK 23/16 Q1013 NOSIG
ZHHH,2021-09-15 15:00,ZHHH 151500Z 04003MPS CAVOK 25/17 Q1013 NOSIG
ZHHH,2021-09-15 16:00,ZHHH 151600Z 05003MPS CAVOK 24/18 Q1013 NOSIG
ZHHH,2021-09-15 17:00,ZHHH 151700Z 06003MPS CAVOK 24/18 Q1012 NOSIG
ZHHH,2021-09-15 18:00,ZHHH 151800Z 08003MPS CAVOK 24/19 Q1012 NOSIG
ZHHH,2021-09-15 19:00,ZHHH 151900Z 08004MPS CAVOK 25/20 Q1011 NOSIG
ZHHH,2021-09-15 20:00,ZHHH 152000Z 09003MPS CAVOK 24/20 Q1011 NOSIG
ZHHH,2021-09-15 21:00,ZHHH 152100Z 09003MPS CAVOK 24/21 Q1011 NOSIG
ZHHH,2021-09-15 22:00,ZHHH 152200Z 08003MPS CAVOK 23/21 Q1012 NOSIG
ZHHH,2021-09-15 23:00,ZHHH 152300Z 08003MPS 7000 NSC 24/21 Q1012 NOSIG
ZHHH,2021-09-16 00:00,ZHHH 160000Z 08003MPS 7000 NSC 25/22 Q1012 NOSIG
ZHHH,2021-09-16 01:00,ZHHH 160100Z 08003MPS 040V110 6000 NSC 27/22 Q1013 NOSIG
ZHHH,2021-09-16 02:00,ZHHH 160200Z VRB01MPS 6000 NSC 29/22 Q1012 NOSIG
ZHHH,2021-09-16 03:00,ZHHH 160300Z 31002MPS 240V360 7000 NSC 29/23 Q1012 NOSIG
ZHHH,2021-09-16 04:00,ZHHH 160400Z 30003MPS 260V040 8000 FEW020 30/22 Q1011 NOSIG
ZHHH,2021-09-16 05:00,ZHHH 160500Z 28003MPS 230V310 9999 FEW020 31/20 Q1010 NOSIG
ZHHH,2021-09-16 06:00,ZHHH 160600Z 32003MPS 250V040 9999 FEW023 32/18 Q1010 NOSIG
ZHHH,2021-09-16 07:00,ZHHH 160700Z 04003MPS 310V100 CAVOK 33/15 Q1009 NOSIG
ZHHH,2021-09-16 08:00,ZHHH 160800Z 02002MPS 320V060 CAVOK 33/16 Q1009 NOSIG
ZHHH,2021-09-16 09:00,ZHHH 160900Z 35002MPS 280V050 CAVOK 32/16 Q1009 NOSIG
ZHHH,2021-09-16 10:00,ZHHH 161000Z 03002MPS CAVOK 31/17 Q1009 NOSIG
ZHHH,2021-09-16 11:00,ZHHH 161100Z 04002MPS CAVOK 29/17 Q1009 NOSIG
ZHHH,2021-09-16 12:00,ZHHH 161200Z 02003MPS CAVOK 28/18 Q1010 NOSIG
ZHHH,2021-09-16 13:00,ZHHH 161300Z 04003MPS CAVOK 27/19 Q1010 NOSIG
ZHHH,2021-09-16 14:00,ZHHH 161400Z 05003MPS CAVOK 27/19 Q1011 NOSIG
ZHHH,2021-09-16 15:00,ZHHH 161500Z 05003MPS CAVOK 26/19 Q1010 NOSIG
ZHHH,2021-09-16 16:00,ZHHH 161600Z 07004MPS CAVOK 26/19 Q1010 NOSIG
ZHHH,2021-09-16 17:00,ZHHH 161700Z 08005MPS CAVOK 27/19 Q1010 NOSIG
ZHHH,2021-09-16 18:00,ZHHH 161800Z 10003MPS CAVOK 26/20 Q1010 NOSIG
ZHHH,2021-09-16 19:00,ZHHH 161900Z 08003MPS CAVOK 25/21 Q1010 NOSIG
ZHHH,2021-09-16 20:00,ZHHH 162000Z 07004MPS CAVOK 25/22 Q1010 NOSIG
ZHHH,2021-09-16 21:00,ZHHH 162100Z 09003MPS 7000 NSC 25/23 Q1010 NOSIG
ZHHH,2021-09-16 22:00,ZHHH 162200Z 05003MPS 7000 NSC 23/23 Q1010 NOSIG
ZHHH,2021-09-16 23:00,ZHHH 162300Z 07004MPS 7000 NSC 24/21 Q1011 NOSIG
ZHHH,2021-09-17 00:00,ZHHH 170000Z 06004MPS CAVOK 26/21 Q1012 NOSIG
ZHHH,2021-09-17 01:00,ZHHH 170100Z 08004MPS 040V100 CAVOK 27/20 Q1012 NOSIG
ZHHH,2021-09-17 02:00,ZHHH 170200Z 09005MPS CAVOK 29/20 Q1013 NOSIG
ZHHH,2021-09-17 03:00,ZHHH 170300Z 11004MPS 050V150 CAVOK 29/20 Q1012 NOSIG
ZHHH,2021-09-17 04:00,ZHHH 170400Z 09003MPS 050V210 CAVOK 30/20 Q1012 NOSIG
ZHHH,2021-09-17 05:00,ZHHH 170500Z 10003MPS 020V170 CAVOK 31/20 Q1010 NOSIG
ZHHH,2021-09-17 06:00,ZHHH 170600Z 12004MPS 060V160 CAVOK 32/19 Q1010 NOSIG
ZHHH,2021-09-17 07:00,ZHHH 170700Z 07003MPS 010V140 CAVOK 32/19 Q1009 NOSIG
ZHHH,2021-09-17 08:00,ZHHH 170800Z 08003MPS 020V140 CAVOK 32/19 Q1009 NOSIG
ZHHH,2021-09-17 09:00,ZHHH 170900Z 07003MPS 030V100 CAVOK 31/18 Q1009 NOSIG
ZHHH,2021-09-17 10:00,ZHHH 171000Z 10004MPS CAVOK 31/18 Q1009 NOSIG
ZHHH,2021-09-17 11:00,ZHHH 171100Z 09003MPS CAVOK 30/18 Q1010 NOSIG
ZHHH,2021-09-17 12:00,ZHHH 171200Z 09003MPS CAVOK 30/18 Q1010 NOSIG
ZHHH,2021-09-17 13:00,ZHHH 171300Z 04004MPS CAVOK 28/19 Q1011 NOSIG
ZHHH,2021-09-17 14:00,ZHHH 171400Z 05005MPS CAVOK 27/19 Q1011 NOSIG
ZHHH,2021-09-17 15:00,ZHHH 171500Z 07004MPS CAVOK 27/20 Q1011 NOSIG
ZHHH,2021-09-17 16:00,ZHHH 171600Z 04003MPS 010V080 CAVOK 26/20 Q1011 NOSIG
ZHHH,2021-09-17 17:00,ZHHH 171700Z 05003MPS CAVOK 25/20 Q1011 NOSIG
ZHHH,2021-09-17 18:00,ZHHH 171800Z 05004MPS CAVOK 24/21 Q1011 NOSIG
ZHHH,2021-09-17 19:00,ZHHH 171900Z 08004MPS CAVOK 25/21 Q1011 NOSIG
ZHHH,2021-09-17 20:00,ZHHH 172000Z 05003MPS CAVOK 24/22 Q1010 NOSIG
ZHHH,2021-09-17 21:00,ZHHH 172100Z 08004MPS CAVOK 24/21 Q1010 NOSIG
ZHHH,2021-09-17 22:00,ZHHH 172200Z 06004MPS CAVOK 23/21 Q1011 NOSIG
ZHHH,2021-09-17 23:00,ZHHH 172300Z 05004MPS 8000 NSC 23/22 Q1011 NOSIG
ZHHH,2021-09-18 00:00,ZHHH 180000Z 09005MPS 8000 NSC 25/21 Q1012 NOSIG
ZHHH,2021-09-18 01:00,ZHHH 180100Z 09005MPS CAVOK 27/21 Q1012 NOSIG
ZHHH,2021-09-18 02:00,ZHHH 180200Z 11005MPS 090V150 CAVOK 28/19 Q1012 NOSIG
ZHHH,2021-09-18 03:00,ZHHH 180300Z 11005MPS 080V150 CAVOK 30/19 Q1011 NOSIG
ZHHH,2021-09-18 04:00,ZHHH 180400Z 11004MPS 070V150 CAVOK 30/19 Q1011 NOSIG
ZHHH,2021-09-18 05:00,ZHHH 180500Z 12004MPS 070V170 CAVOK 32/19 Q1010 NOSIG
ZHHH,2021-09-18 06:00,ZHHH 180600Z 10004MPS 040V150 CAVOK 33/19 Q1009 NOSIG
ZHHH,2021-09-18 07:00,ZHHH 180700Z 12004MPS 080V170 CAVOK 33/18 Q1008 NOSIG
ZHHH,2021-09-18 08:00,ZHHH 180800Z 12004MPS CAVOK 33/19 Q1008 NOSIG
ZHHH,2021-09-18 09:00,ZHHH 180900Z 11004MPS 070V130 CAVOK 33/18 Q1007 NOSIG
ZHHH,2021-09-18 10:00,ZHHH 181000Z 10004MPS CAVOK 32/19 Q1008 NOSIG
ZHHH,2021-09-18 11:00,ZHHH 181100Z 09004MPS CAVOK 31/20 Q1008 NOSIG
ZHHH,2021-09-18 12:00,ZHHH 181200Z 10004MPS 070V140 CAVOK 31/20 Q1009 NOSIG
ZHHH,2021-09-18 13:00,ZHHH 181300Z 12003MPS CAVOK 30/21 Q1009 NOSIG
ZHHH,2021-09-18 14:00,ZHHH 181400Z 12004MPS 090V150 CAVOK 30/21 Q1009 NOSIG
ZHHH,2021-09-18 15:00,ZHHH 181500Z 12004MPS CAVOK 29/22 Q1009 NOSIG
ZHHH,2021-09-18 16:00,ZHHH 181600Z 12004MPS CAVOK 29/22 Q1008 NOSIG
ZHHH,2021-09-18 17:00,ZHHH 181700Z 12004MPS CAVOK 29/22 Q1008 NOSIG
ZHHH,2021-09-18 18:00,ZHHH 181800Z 12004MPS CAVOK 29/22 Q1007 NOSIG
ZHHH,2021-09-18 19:00,ZHHH 181900Z 12004MPS CAVOK 28/22 Q1007 NOSIG
ZHHH,2021-09-18 20:00,ZHHH 182000Z 12004MPS CAVOK 28/22 Q1006 NOSIG
ZHHH,2021-09-18 21:00,ZHHH 182100Z 12004MPS CAVOK 28/22 Q1006 NOSIG
ZHHH,2021-09-18 22:00,ZHHH 182200Z 12004MPS CAVOK 28/22 Q1006 NOSIG
ZHHH,2021-09-18 23:00,ZHHH 182300Z 13003MPS CAVOK 28/22 Q1007 NOSIG
ZHHH,2021-09-19 00:00,ZHHH 190000Z 14004MPS CAVOK 30/22 Q1007 NOSIG
ZHHH,2021-09-19 01:00,ZHHH 190100Z 17005MPS CAVOK 32/22 Q1007 NOSIG
ZHHH,2021-09-19 02:00,ZHHH 190200Z 18006MPS CAVOK 33/22 Q1007 NOSIG
ZHHH,2021-09-19 03:00,ZHHH 190300Z 20007MPS CAVOK 34/22 Q1007 NOSIG
ZHHH,2021-09-19 04:00,ZHHH 190400Z 20006MPS CAVOK 35/23 Q1006 NOSIG
ZHHH,2021-09-19 05:00,ZHHH 190500Z 23008MPS 9999 FEW040 34/22 Q1005 NOSIG
ZHHH,2021-09-19 06:00,ZHHH 190600Z 22006MPS 9999 FEW033TCU FEW033 35/23 Q1005 NOSIG
ZHHH,2021-09-19 07:00,ZHHH 190700Z 21007MPS 9999 FEW033 35/22 Q1004 NOSIG
ZHHH,2021-09-19 08:00,ZHHH 190800Z 23005MPS 9999 FEW033 FEW040TCU 34/23 Q1004 NOSIG
ZHHH,2021-09-19 09:00,ZHHH 190900Z VRB05MPS 9999 BKN026 28/23 Q1005 BECMG TL0950 RA
ZHHH,2021-09-19 10:00,ZHHH 191000Z 35004MPS 300V030 CAVOK 24/23 Q1004 BECMG TL1120 TSRA FEW030CB BKN040
ZHHH,2021-09-19 11:00,ZHHH 191100Z 31005MPS 260V010 9999 -TSRA FEW020CB BKN020 23/23 Q1007 NOSIG
ZHHH,2021-09-19 12:00,ZHHH 191200Z 35004G09MPS 290V050 8000 TSRA FEW010 SCT016CB BKN020 21/21 Q1006 NOSIG
ZHHH,2021-09-19 13:00,ZHHH 191300Z 35005G10MPS 270V040 9999 -TSRA FEW010 FEW026CB BKN040 20/20 Q1008 RESHRA NOSIG
ZHHH,2021-09-19 14:00,ZHHH 191400Z 01003MPS 320V060 9999 -TSRA SCT010 FEW026CB BKN026 20/20 Q1008 NOSIG
ZHHH,2021-09-19 15:00,ZHHH 191500Z 04003MPS 010V070 9999 -TSRA FEW009 FEW026CB BKN026 19/19 Q1009 RESHRA NOSIG
ZHHH,2021-09-19 16:00,ZHHH 191600Z 01002MPS 310V040 8000 SHRA FEW004 SCT007 FEW026CB BKN026 19/19 Q1010 RETS NOSIG
ZHHH,2021-09-19 17:00,ZHHH 191700Z VRB01MPS 9999 -SHRA SCT007 BKN026 19/19 Q1010 RESHRA NOSIG
ZHHH,2021-09-19 18:00,ZHHH 191800Z 00000MPS 9999 -SHRA SCT007 BKN026 19/19 Q1010 NOSIG
ZHHH,2021-09-19 19:00,ZHHH 191900Z 36002MPS 310V040 9999 -RA FEW013 BKN023 18/18 Q1009 NOSIG
ZHHH,2021-09-19 20:00,ZHHH 192000Z 35002MPS 310V030 9999 BKN016 19/19 Q1010 NOSIG
ZHHH,2021-09-19 21:00,ZHHH 192100Z VRB01MPS 9999 SCT016 19/19 Q1011 NOSIG
ZHHH,2021-09-19 22:00,ZHHH 192200Z VRB01MPS 9999 FEW016 BKN023 19/19 Q1010 NOSIG
ZHHH,2021-09-19 23:00,ZHHH 192300Z VRB01MPS 9999 BKN023 20/20 Q1011 NOSIG
ZHHH,2021-09-20 00:00,ZHHH 200000Z 25003MPS 220V300 9999 SCT020 BKN030 21/20 Q1011 NOSIG
ZHHH,2021-09-20 01:00,ZHHH 200100Z 24003MPS 210V270 9999 FEW011 SCT020 21/21 Q1011 NOSIG
ZHHH,2021-09-20 02:00,ZHHH 200200Z 24003MPS 220V300 9999 SCT016 22/21 Q1012 NOSIG
ZHHH,2021-09-20 03:00,ZHHH 200300Z 24004MPS 9999 SCT016 23/21 Q1011 NOSIG
ZHHH,2021-09-20 04:00,ZHHH 200400Z 24004MPS 9999 SCT016 24/21 Q1010 NOSIG
ZHHH,2021-09-20 05:00,ZHHH 200500Z 26003MPS 220V300 9999 SCT016 24/22 Q1010 NOSIG
ZHHH,2021-09-20 06:00,ZHHH 200600Z 25003MPS 200V290 9999 BKN026 26/21 Q1009 NOSIG
ZHHH,2021-09-20 07:00,ZHHH 200700Z 23004MPS 200V270 9999 BKN026 26/20 Q1008 NOSIG
ZHHH,2021-09-20 08:00,ZHHH 200800Z 22004MPS 180V240 9999 SCT033 26/21 Q1008 NOSIG
ZHHH,2021-09-20 09:00,ZHHH 200900Z 21004MPS 9999 SCT033 27/21 Q1008 NOSIG
ZHHH,2021-09-20 10:00,ZHHH 201000Z 21004MPS 9999 FEW033 26/21 Q1008 NOSIG
ZHHH,2021-09-20 11:00,ZHHH 201100Z 21005MPS CAVOK 25/21 Q1008 NOSIG
ZHHH,2021-09-20 12:00,ZHHH 201200Z 21003MPS 180V240 CAVOK 25/22 Q1009 NOSIG
ZHHH,2021-09-20 13:00,ZHHH 201300Z 21003MPS CAVOK 24/22 Q1009 NOSIG
ZHHH,2021-09-20 14:00,ZHHH 201400Z 22002MPS CAVOK 24/22 Q1010 NOSIG
ZHHH,2021-09-20 15:00,ZHHH 201500Z 22003MPS CAVOK 24/23 Q1010 NOSIG
ZHHH,2021-09-20 16:00,ZHHH 201600Z 24002MPS 200V280 CAVOK 24/23 Q1010 NOSIG
ZHHH,2021-09-20 17:00,ZHHH 201700Z 23002MPS CAVOK 23/23 Q1010 NOSIG
ZHHH,2021-09-20 18:00,ZHHH 201800Z 18002MPS CAVOK 23/23 Q1009 NOSIG
ZHHH,2021-09-20 19:00,ZHHH 201900Z 17002MPS CAVOK 23/23 Q1009 NOSIG
ZHHH,2021-09-20 20:00,ZHHH 202000Z 19002MPS 160V220 CAVOK 23/23 Q1008 NOSIG
ZHHH,2021-09-20 21:00,ZHHH 202100Z 17002MPS CAVOK 23/23 Q1009 NOSIG
ZHHH,2021-09-20 22:00,ZHHH 202200Z 17002MPS CAVOK 23/23 Q1009 NOSIG
ZHHH,2021-09-20 23:00,ZHHH 202300Z 18002MPS CAVOK 24/23 Q1009 NOSIG
ZHHH,2021-09-21 00:00,ZHHH 210000Z 19003MPS CAVOK 25/22 Q1010 NOSIG
ZHHH,2021-09-21 01:00,ZHHH 210100Z 22004MPS CAVOK 26/23 Q1009 NOSIG
ZHHH,2021-09-21 02:00,ZHHH 210200Z 22004MPS 190V250 CAVOK 27/23 Q1010 NOSIG
ZHHH,2021-09-21 03:00,ZHHH 210300Z 24004MPS 220V280 CAVOK 28/23 Q1009 NOSIG
ZHHH,2021-09-21 04:00,ZHHH 210400Z VRB02MPS CAVOK 30/23 Q1008 NOSIG
ZHHH,2021-09-21 05:00,ZHHH 210500Z 21004MPS 180V240 CAVOK 31/23 Q1008 NOSIG
ZHHH,2021-09-21 06:00,ZHHH 210600Z 22004MPS CAVOK 32/23 Q1007 NOSIG
ZHHH,2021-09-21 07:00,ZHHH 210700Z 23004MPS CAVOK 32/23 Q1006 NOSIG
ZHHH,2021-09-21 08:00,ZHHH 210800Z 22004MPS CAVOK 32/23 Q1006 NOSIG
ZHHH,2021-09-21 09:00,ZHHH 210900Z 21004MPS CAVOK 31/23 Q1006 NOSIG
ZHHH,2021-09-21 10:00,ZHHH 211000Z 21003MPS CAVOK 30/24 Q1006 NOSIG
ZHHH,2021-09-21 11:00,ZHHH 211100Z 21002MPS CAVOK 28/24 Q1006 NOSIG
ZHHH,2021-09-21 12:00,ZHHH 211200Z VRB01MPS CAVOK 26/23 Q1007 NOSIG
ZHHH,2021-09-21 13:00,ZHHH 211300Z 00000MPS CAVOK 25/23 Q1008 NOSIG
ZHHH,2021-09-21 14:00,ZHHH 211400Z 16001MPS CAVOK 24/23 Q1008 NOSIG
ZHHH,2021-09-21 15:00,ZHHH 211500Z 00000MPS CAVOK 26/24 Q1009 NOSIG
ZHHH,2021-09-21 16:00,ZHHH 211600Z VRB01MPS CAVOK 25/22 Q1009 NOSIG
ZHHH,2021-09-21 17:00,ZHHH 211700Z 05002MPS 020V080 CAVOK 25/22 Q1009 NOSIG
ZHHH,2021-09-21 18:00,ZHHH 211800Z 04002MPS 360V110 CAVOK 25/23 Q1009 NOSIG
ZHHH,2021-09-21 19:00,ZHHH 211900Z 10004MPS CAVOK 25/24 Q1008 NOSIG
ZHHH,2021-09-21 20:00,ZHHH 212000Z 10004MPS CAVOK 25/24 Q1008 NOSIG
ZHHH,2021-09-21 21:00,ZHHH 212100Z 09003MPS CAVOK 24/23 Q1009 NOSIG
ZHHH,2021-09-21 22:00,ZHHH 212200Z 10004MPS 8000 NSC 24/23 Q1009 NOSIG
ZHHH,2021-09-21 23:00,ZHHH 212300Z 10003MPS 8000 NSC 25/23 Q1010 NOSIG
ZHHH,2021-09-22 00:00,ZHHH 220000Z 11004MPS 8000 NSC 26/23 Q1010 NOSIG
ZHHH,2021-09-22 01:00,ZHHH 220100Z 11003MPS 070V140 CAVOK 28/22 Q1011 NOSIG
ZHHH,2021-09-22 02:00,ZHHH 220200Z 14002MPS 080V190 CAVOK 30/22 Q1011 NOSIG
ZHHH,2021-09-22 03:00,ZHHH 220300Z 19003MPS 140V230 CAVOK 32/20 Q1011 NOSIG
ZHHH,2021-09-22 04:00,ZHHH 220400Z 23003MPS 180V260 CAVOK 33/20 Q1010 NOSIG
ZHHH,2021-09-22 05:00,ZHHH 220500Z 22003MPS CAVOK 34/20 Q1010 NOSIG
ZHHH,2021-09-22 06:00,ZHHH 220600Z 24003MPS 210V290 CAVOK 34/18 Q1010 NOSIG
ZHHH,2021-09-22 07:00,ZHHH 220700Z 23004MPS CAVOK 35/17 Q1009 NOSIG
ZHHH,2021-09-22 08:00,ZHHH 220800Z 23002MPS 180V280 CAVOK 35/16 Q1009 NOSIG
ZHHH,2021-09-22 09:00,ZHHH 220900Z 25002MPS CAVOK 34/20 Q1008 NOSIG
ZHHH,2021-09-22 10:00,ZHHH 221000Z VRB01MPS CAVOK 30/20 Q1008 NOSIG
ZHHH,2021-09-22 11:00,ZHHH 221100Z 06003MPS 030V100 CAVOK 29/18 Q1009 NOSIG
ZHHH,2021-09-22 12:00,ZHHH 221200Z 10003MPS CAVOK 31/17 Q1010 NOSIG
ZHHH,2021-09-22 13:00,ZHHH 221300Z 11003MPS CAVOK 30/18 Q1011 NOSIG
ZHHH,2021-09-22 14:00,ZHHH 221400Z 12004MPS CAVOK 30/19 Q1011 NOSIG
ZHHH,2021-09-22 15:00,ZHHH 221500Z 10003MPS CAVOK 29/20 Q1011 NOSIG
ZHHH,2021-09-22 16:00,ZHHH 221600Z 10004MPS CAVOK 28/20 Q1011 NOSIG
ZHHH,2021-09-22 17:00,ZHHH 221700Z 10004MPS CAVOK 27/20 Q1011 NOSIG
ZHHH,2021-09-22 18:00,ZHHH 221800Z 12003MPS CAVOK 26/20 Q1011 NOSIG
ZHHH,2021-09-22 19:00,ZHHH 221900Z 12004MPS CAVOK 26/20 Q1011 NOSIG
ZHHH,2021-09-22 20:00,ZHHH 222000Z 11004MPS CAVOK 25/20 Q1011 NOSIG
ZHHH,2021-09-22 21:00,ZHHH 222100Z 10004MPS CAVOK 25/20 Q1011 NOSIG
ZHHH,2021-09-22 22:00,ZHHH 222200Z 10004MPS CAVOK 25/19 Q1011 NOSIG
ZHHH,2021-09-22 23:00,ZHHH 222300Z 10005MPS CAVOK 25/19 Q1012 NOSIG
ZHHH,2021-09-23 00:00,ZHHH 230000Z 12004MPS CAVOK 26/19 Q1012 NOSIG
ZHHH,2021-09-23 01:00,ZHHH 230100Z 12005MPS CAVOK 28/19 Q1012 NOSIG
ZHHH,2021-09-23 02:00,ZHHH 230200Z 13003MPS 080V160 CAVOK 31/19 Q1013 NOSIG
ZHHH,2021-09-23 03:00,ZHHH 230300Z 13003MPS 050V220 CAVOK 32/20 Q1013 NOSIG
ZHHH,2021-09-23 04:00,ZHHH 230400Z 11003MPS 080V170 CAVOK 33/19 Q1013 NOSIG
ZHHH,2021-09-23 05:00,ZHHH 230500Z 12003MPS 090V180 CAVOK 34/19 Q1012 NOSIG
ZHHH,2021-09-23 06:00,ZHHH 230600Z 11004MPS 080V170 CAVOK 34/19 Q1011 NOSIG
ZHHH,2021-09-23 07:00,ZHHH 230700Z 19004MPS CAVOK 35/19 Q1011 NOSIG
ZHHH,2021-09-23 08:00,ZHHH 230800Z 18003MPS 150V210 CAVOK 35/20 Q1011 NOSIG
ZHHH,2021-09-23 09:00,ZHHH 230900Z 11004MPS 090V150 CAVOK 34/20 Q1011 NOSIG
ZHHH,2021-09-23 10:00,ZHHH 231000Z 09004MPS CAVOK 32/21 Q1011 NOSIG
ZHHH,2021-09-23 11:00,ZHHH 231100Z 10004MPS CAVOK 32/21 Q1011 NOSIG
ZHHH,2021-09-23 12:00,ZHHH 231200Z 09004MPS CAVOK 31/20 Q1012 NOSIG
ZHHH,2021-09-23 13:00,ZHHH 231300Z 11004MPS CAVOK 30/20 Q1012 NOSIG
ZHHH,2021-09-23 14:00,ZHHH 231400Z 11004MPS CAVOK 30/21 Q1013 NOSIG
ZHHH,2021-09-23 15:00,ZHHH 231500Z 12004MPS CAVOK 30/21 Q1012 NOSIG
ZHHH,2021-09-23 16:00,ZHHH 231600Z 11004MPS CAVOK 29/21 Q1013 NOSIG
ZHHH,2021-09-23 17:00,ZHHH 231700Z 11004MPS CAVOK 29/21 Q1012 NOSIG
ZHHH,2021-09-23 18:00,ZHHH 231800Z 11005MPS CAVOK 28/21 Q1012 NOSIG
ZHHH,2021-09-23 19:00,ZHHH 231900Z 11004MPS CAVOK 28/22 Q1012 NOSIG
ZHHH,2021-09-23 20:00,ZHHH 232000Z 11004MPS CAVOK 28/22 Q1012 NOSIG
ZHHH,2021-09-23 21:00,ZHHH 232100Z 11004MPS CAVOK 28/22 Q1012 NOSIG
ZHHH,2021-09-23 22:00,ZHHH 232200Z 10004MPS CAVOK 27/22 Q1012 NOSIG
ZHHH,2021-09-23 23:00,ZHHH 232300Z 09004MPS CAVOK 27/22 Q1012 NOSIG
ZHHH,2021-09-24 00:00,ZHHH 240000Z VRB02MPS CAVOK 28/23 Q1013 NOSIG
ZHHH,2021-09-24 01:00,ZHHH 240100Z 10004MPS 070V130 CAVOK 29/22 Q1013 NOSIG
ZHHH,2021-09-24 02:00,ZHHH 240200Z 10005MPS CAVOK 30/23 Q1014 NOSIG
ZHHH,2021-09-24 03:00,ZHHH 240300Z 11005MPS CAVOK 32/23 Q1013 NOSIG
ZHHH,2021-09-24 04:00,ZHHH 240400Z 11004MPS CAVOK 34/23 Q1012 NOSIG
ZHHH,2021-09-24 05:00,ZHHH 240500Z 18005MPS 140V210 CAVOK 35/23 Q1012 NOSIG
ZHHH,2021-09-24 06:00,ZHHH 240600Z 18003MPS 120V220 CAVOK 35/23 Q1011 NOSIG
ZHHH,2021-09-24 07:00,ZHHH 240700Z 21004MPS CAVOK 35/23 Q1010 NOSIG
ZHHH,2021-09-24 08:00,ZHHH 240800Z 20003MPS CAVOK 35/23 Q1010 NOSIG
ZHHH,2021-09-24 09:00,ZHHH 240900Z 23004MPS CAVOK 35/22 Q1010 NOSIG
ZHHH,2021-09-24 10:00,ZHHH 241000Z 15009MPS 8000 -SHRA FEW023 FEW026CB 31/23 Q1011 NOSIG
ZHHH,2021-09-24 11:00,ZHHH 241100Z 10005MPS 9999 TS SCT033CB 28/24 Q1011 BECMG TL1130 NSW
ZHHH,2021-09-24 12:00,ZHHH 241200Z 11003MPS 060V140 CAVOK 28/25 Q1010 RETS NOSIG
ZHHH,2021-09-24 13:00,ZHHH 241300Z 11004MPS CAVOK 29/26 Q1011 NOSIG
ZHHH,2021-09-24 14:00,ZHHH 241400Z 10003MPS 070V130 CAVOK 29/26 Q1011 NOSIG
ZHHH,2021-09-24 15:00,ZHHH 241500Z 11003MPS CAVOK 29/26 Q1010 NOSIG
ZHHH,2021-09-24 16:00,ZHHH 241600Z 13003MPS 090V160 CAVOK 29/25 Q1010 NOSIG
ZHHH,2021-09-24 17:00,ZHHH 241700Z 13003MPS CAVOK 29/25 Q1010 NOSIG
ZHHH,2021-09-24 18:00,ZHHH 241800Z 14002MPS CAVOK 29/25 Q1010 NOSIG
ZHHH,2021-09-24 19:00,ZHHH 241900Z 11004MPS 070V140 CAVOK 29/26 Q1010 NOSIG
ZHHH,2021-09-24 20:00,ZHHH 242000Z 12003MPS CAVOK 28/26 Q1010 NOSIG
ZHHH,2021-09-24 21:00,ZHHH 242100Z 12003MPS 070V140 CAVOK 29/25 Q1009 NOSIG
ZHHH,2021-09-24 22:00,ZHHH 242200Z 12003MPS CAVOK 29/24 Q1010 NOSIG
ZHHH,2021-09-24 23:00,ZHHH 242300Z 11004MPS CAVOK 28/25 Q1010 NOSIG
ZHHH,2021-09-25 00:00,ZHHH 250000Z 11004MPS 020V150 CAVOK 29/25 Q1011 NOSIG
ZHHH,2021-09-25 01:00,ZHHH 250100Z 12004MPS CAVOK 31/25 Q1011 NOSIG
ZHHH,2021-09-25 02:00,ZHHH 250200Z 16004MPS CAVOK 33/24 Q1012 NOSIG
ZHHH,2021-09-25 03:00,ZHHH 250300Z 20006MPS CAVOK 34/23 Q1011 NOSIG
ZHHH,2021-09-25 04:00,ZHHH 250400Z 23004MPS 200V260 CAVOK 35/23 Q1011 NOSIG
ZHHH,2021-09-25 05:00,ZHHH 250500Z 22003MPS 180V260 CAVOK 35/23 Q1010 NOSIG
ZHHH,2021-09-25 06:00,ZHHH 250600Z 21004MPS 180V240 9999 FEW033 36/23 Q1009 NOSIG
ZHHH,2021-09-25 07:00,ZHHH 250700Z 20004MPS 180V240 9999 FEW033 36/22 Q1009 NOSIG
ZHHH,2021-09-25 08:00,ZHHH 250800Z 22004MPS 9999 FEW033 36/22 Q1009 NOSIG
ZHHH,2021-09-25 09:00,ZHHH 250900Z 21003MPS 9999 FEW033 35/22 Q1010 NOSIG
ZHHH,2021-09-25 10:00,ZHHH 251000Z VRB01MPS 9999 FEW026 33/23 Q1010 NOSIG
ZHHH,2021-09-25 11:00,ZHHH 251100Z 00000MPS CAVOK 29/23 Q1010 NOSIG
ZHHH,2021-09-25 12:00,ZHHH 251200Z VRB01MPS CAVOK 32/23 Q1010 NOSIG
ZHHH,2021-09-25 13:00,ZHHH 251300Z 09003G09MPS 080V140 CAVOK 32/23 Q1011 NOSIG
ZHHH,2021-09-25 14:00,ZHHH 251400Z 12003MPS CAVOK 31/24 Q1011 NOSIG
ZHHH,2021-09-25 15:00,ZHHH 251500Z 12003MPS CAVOK 31/25 Q1011 NOSIG
ZHHH,2021-09-25 16:00,ZHHH 251600Z 12003MPS CAVOK 31/24 Q1011 NOSIG
ZHHH,2021-09-25 17:00,ZHHH 251700Z 10003MPS CAVOK 30/24 Q1011 NOSIG
ZHHH,2021-09-25 18:00,ZHHH 251800Z 09004MPS CAVOK 29/24 Q1011 NOSIG
ZHHH,2021-09-25 19:00,ZHHH 251900Z 08005MPS CAVOK 28/26 Q1011 NOSIG
ZHHH,2021-09-25 20:00,ZHHH 252000Z 10005MPS CAVOK 27/26 Q1010 NOSIG
ZHHH,2021-09-25 21:00,ZHHH 252100Z 09004MPS CAVOK 27/26 Q1011 NOSIG
ZHHH,2021-09-25 22:00,ZHHH 252200Z 09004MPS CAVOK 26/26 Q1011 NOSIG
ZHHH,2021-09-25 23:00,ZHHH 252300Z 09004MPS 6000 NSC 26/26 Q1012 NOSIG
ZHHH,2021-09-26 00:00,ZHHH 260000Z 08005MPS 6000 NSC 27/26 Q1012 NOSIG
ZHHH,2021-09-26 01:00,ZHHH 260100Z 10004MPS 7000 NSC 30/26 Q1012 NOSIG
ZHHH,2021-09-26 02:00,ZHHH 260200Z 11004MPS 080V140 8000 NSC 32/26 Q1012 NOSIG
ZHHH,2021-09-26 03:00,ZHHH 260300Z 12003MPS 070V190 CAVOK 34/26 Q1012 NOSIG
ZHHH,2021-09-26 04:00,ZHHH 260400Z VRB02MPS CAVOK 35/24 Q1011 NOSIG
ZHHH,2021-09-26 05:00,ZHHH 260500Z 24003MPS 180V290 CAVOK 36/23 Q1011 NOSIG
ZHHH,2021-09-26 06:00,ZHHH 260600Z 27002MPS 220V320 9999 FEW023 36/23 Q1010 NOSIG
ZHHH,2021-09-26 07:00,ZHHH 260700Z VRB01MPS 9999 SCT023 35/24 Q1009 NOSIG
ZHHH,2021-09-26 08:00,ZHHH 260800Z VRB01MPS 9999 SCT023 36/24 Q1009 NOSIG
ZHHH,2021-09-26 09:00,ZHHH 260900Z 25002MPS 220V290 9999 SCT023 36/23 Q1010 NOSIG
ZHHH,2021-09-26 10:00,ZHHH 261000Z 27001MPS 9999 FEW026 FEW030TCU 32/25 Q1010 NOSIG
ZHHH,2021-09-26 11:00,ZHHH 261100Z 04005MPS 9999 FEW026 29/24 Q1010 NOSIG
ZHHH,2021-09-26 12:00,ZHHH 261200Z 03006MPS 360V060 CAVOK 27/24 Q1012 NOSIG
ZHHH,2021-09-26 13:00,ZHHH 261300Z 03004MPS 360V060 CAVOK 24/23 Q1012 NOSIG
ZHHH,2021-09-26 14:00,ZHHH 261400Z 04005MPS 360V060 CAVOK 24/22 Q1013 NOSIG
ZHHH,2021-09-26 15:00,ZHHH 261500Z 04005MPS 360V070 CAVOK 23/22 Q1013 NOSIG
ZHHH,2021-09-26 16:00,ZHHH 261600Z 03004MPS 010V070 CAVOK 23/22 Q1013 NOSIG
ZHHH,2021-09-26 17:00,ZHHH 261700Z 03003MPS 360V060 CAVOK 23/22 Q1013 NOSIG
ZHHH,2021-09-26 18:00,ZHHH 261800Z 03003MPS 330V060 CAVOK 22/21 Q1013 NOSIG
ZHHH,2021-09-26 19:00,ZHHH 261900Z 03004MPS 360V060 CAVOK 22/21 Q1012 NOSIG
ZHHH,2021-09-26 20:00,ZHHH 262000Z 03004MPS CAVOK 22/21 Q1013 NOSIG
ZHHH,2021-09-26 21:00,ZHHH 262100Z 04005MPS CAVOK 22/21 Q1013 NOSIG
ZHHH,2021-09-26 22:00,ZHHH 262200Z 03003MPS 360V060 CAVOK 22/20 Q1013 NOSIG
ZHHH,2021-09-26 23:00,ZHHH 262300Z 04004MPS 350V080 CAVOK 22/20 Q1014 NOSIG
ZHHH,2021-09-27 00:00,ZHHH 270000Z 03003MPS 360V060 CAVOK 23/20 Q1014 NOSIG
ZHHH,2021-09-27 01:00,ZHHH 270100Z 04005MPS 010V080 CAVOK 25/20 Q1014 NOSIG
ZHHH,2021-09-27 02:00,ZHHH 270200Z 02004MPS 350V060 CAVOK 27/21 Q1014 NOSIG
ZHHH,2021-09-27 03:00,ZHHH 270300Z 04004MPS 340V080 CAVOK 28/21 Q1014 NOSIG
ZHHH,2021-09-27 04:00,ZHHH 270400Z 04003MPS 300V070 CAVOK 28/21 Q1013 NOSIG
ZHHH,2021-09-27 05:00,ZHHH 270500Z 34002MPS 260V030 CAVOK 28/22 Q1013 NOSIG
ZHHH,2021-09-27 06:00,ZHHH 270600Z 30002MPS 260V010 CAVOK 28/23 Q1012 NOSIG
ZHHH,2021-09-27 07:00,ZHHH 270700Z VRB01MPS CAVOK 29/23 Q1011 NOSIG
ZHHH,2021-09-27 08:00,ZHHH 270800Z 03003MPS 350V060 CAVOK 29/23 Q1011 NOSIG
ZHHH,2021-09-27 09:00,ZHHH 270900Z 04003MPS 360V060 CAVOK 29/22 Q1011 NOSIG
ZHHH,2021-09-27 10:00,ZHHH 271000Z 03004MPS CAVOK 28/22 Q1011 NOSIG
ZHHH,2021-09-27 11:00,ZHHH 271100Z 04004MPS CAVOK 27/22 Q1011 NOSIG
ZHHH,2021-09-27 12:00,ZHHH 271200Z 05005MPS CAVOK 26/22 Q1011 NOSIG
ZHHH,2021-09-27 13:00,ZHHH 271300Z 04003MPS 360V070 CAVOK 25/22 Q1012 NOSIG
ZHHH,2021-09-27 14:00,ZHHH 271400Z 06004MPS 020V080 CAVOK 25/22 Q1012 NOSIG
ZHHH,2021-09-27 15:00,ZHHH 271500Z VRB01MPS CAVOK 24/22 Q1012 NOSIG
ZHHH,2021-09-27 16:00,ZHHH 271600Z 04003MPS CAVOK 24/22 Q1012 NOSIG
ZHHH,2021-09-27 17:00,ZHHH 271700Z 04002MPS CAVOK 23/22 Q1011 NOSIG
ZHHH,2021-09-27 18:00,ZHHH 271800Z 05003MPS 010V070 CAVOK 23/22 Q1011 NOSIG
ZHHH,2021-09-27 19:00,ZHHH 271900Z 04002MPS 360V060 CAVOK 23/22 Q1010 NOSIG
ZHHH,2021-09-27 20:00,ZHHH 272000Z 05003MPS 360V080 CAVOK 23/22 Q1010 NOSIG
ZHHH,2021-09-27 21:00,ZHHH 272100Z 05003MPS CAVOK 23/22 Q1010 NOSIG
ZHHH,2021-09-27 22:00,ZHHH 272200Z 06003MPS CAVOK 23/22 Q1010 NOSIG
ZHHH,2021-09-27 23:00,ZHHH 272300Z 08002MPS 060V140 CAVOK 23/22 Q1010 NOSIG
ZHHH,2021-09-28 00:00,ZHHH 280000Z 07003MPS CAVOK 24/22 Q1011 NOSIG
ZHHH,2021-09-28 01:00,ZHHH 280100Z 07003MPS 040V110 CAVOK 26/23 Q1011 NOSIG
ZHHH,2021-09-28 02:00,ZHHH 280200Z 11003MPS 070V150 7000 NSC 27/23 Q1011 NOSIG
ZHHH,2021-09-28 03:00,ZHHH 280300Z 12004MPS 090V150 7000 NSC 29/24 Q1010 NOSIG
ZHHH,2021-09-28 04:00,ZHHH 280400Z 09004MPS 040V120 6000 NSC 30/24 Q1009 NOSIG
ZHHH,2021-09-28 05:00,ZHHH 280500Z VRB02MPS 6000 NSC 31/24 Q1008 NOSIG
ZHHH,2021-09-28 06:00,ZHHH 280600Z 27002MPS 220V010 7000 SCT030 32/24 Q1007 NOSIG
ZHHH,2021-09-28 07:00,ZHHH 280700Z 27002MPS 240V020 7000 BKN033 32/25 Q1007 NOSIG
ZHHH,2021-09-28 08:00,ZHHH 280800Z VRB01MPS 8000 FEW030TCU SCT030 32/24 Q1006 NOSIG
ZHHH,2021-09-28 09:00,ZHHH 280900Z VRB01MPS 9999 FEW033 31/25 Q1006 NOSIG
ZHHH,2021-09-28 10:00,ZHHH 281000Z VRB01MPS 9999 FEW033TCU SCT040 30/26 Q1006 NOSIG
ZHHH,2021-09-28 11:00,ZHHH 281100Z 01004MPS 330V050 9999 FEW030CB BKN040 28/24 Q1007 NOSIG
ZHHH,2021-09-28 12:00,ZHHH 281200Z 02004G09MPS 320V050 9999 -TSRA SCT008 FEW030CB BKN033 24/24 Q1008 BECMG TL1220 +TSRA
ZHHH,2021-09-28 13:00,ZHHH 281300Z 03005MPS 350V060 6000 -TSRA FEW010 FEW030CB 22/22 Q1009 RESHRA BECMG TL1320 -RA
ZHHH,2021-09-28 14:00,ZHHH 281400Z 03004MPS 360V060 9999 SCT040 22/22 Q1010 RETS NOSIG
ZHHH,2021-09-28 15:00,ZHHH 281500Z 03004MPS 350V060 9999 BKN040 22/22 Q1010 NOSIG
ZHHH,2021-09-28 16:00,ZHHH 281600Z 01002MPS 330V050 9999 OVC040 22/22 Q1010 NOSIG
ZHHH,2021-09-28 17:00,ZHHH 281700Z 36003MPS 310V040 9999 OVC040 22/22 Q1010 NOSIG
ZHHH,2021-09-28 18:00,ZHHH 281800Z 36002MPS 320V040 9999 -RA NSC 22/22 Q1009 NOSIG
ZHHH,2021-09-28 19:00,ZHHH 281900Z 36003MPS 310V050 9999 FEW008 BKN030 21/21 Q1009 NOSIG
ZHHH,2021-09-28 20:00,ZHHH 282000Z 35003MPS 300V070 9999 FEW008 OVC040 21/21 Q1010 NOSIG
ZHHH,2021-09-28 21:00,ZHHH 282100Z 35003MPS 300V040 9999 -RA FEW008 SCT040 21/21 Q1010 NOSIG
ZHHH,2021-09-28 22:00,ZHHH 282200Z 36003MPS 320V040 9999 FEW010 20/20 Q1010 NOSIG
ZHHH,2021-09-28 23:00,ZHHH 282300Z 34002MPS 270V030 9999 FEW040 20/20 Q1011 NOSIG
ZHHH,2021-09-29 00:00,ZHHH 290000Z 35002MPS 310V050 9999 FEW009 BKN033 21/21 Q1011 NOSIG
ZHHH,2021-09-29 01:00,ZHHH 290100Z 02003MPS 330V060 9999 FEW015 SCT020 21/20 Q1011 NOSIG
ZHHH,2021-09-29 02:00,ZHHH 290200Z 36002MPS 300V050 9999 BKN018 22/20 Q1012 NOSIG
ZHHH,2021-09-29 03:00,ZHHH 290300Z VRB01MPS 9999 BKN022 24/21 Q1012 NOSIG
ZHHH,2021-09-29 04:00,ZHHH 290400Z 01002MPS 320V080 9999 BKN023 25/21 Q1011 NOSIG
ZHHH,2021-09-29 05:00,ZHHH 290500Z 28003MPS 220V010 9999 FEW023 SCT026 25/20 Q1010 NOSIG
ZHHH,2021-09-29 06:00,ZHHH 290600Z VRB01MPS 9999 SCT026 26/20 Q1010 NOSIG
ZHHH,2021-09-29 07:00,ZHHH 290700Z 26002MPS 230V310 9999 SCT030 27/21 Q1009 NOSIG
ZHHH,2021-09-29 08:00,ZHHH 290800Z VRB01MPS 9999 SCT030 28/20 Q1009 NOSIG
ZHHH,2021-09-29 09:00,ZHHH 290900Z VRB01MPS 9999 SCT033 28/20 Q1009 NOSIG
ZHHH,2021-09-29 10:00,ZHHH 291000Z 03003MPS 9999 FEW026 26/20 Q1009 NOSIG
ZHHH,2021-09-29 11:00,ZHHH 291100Z 08004MPS CAVOK 25/19 Q1010 NOSIG
ZHHH,2021-09-29 12:00,ZHHH 291200Z 06003MPS CAVOK 24/20 Q1011 NOSIG
ZHHH,2021-09-29 13:00,ZHHH 291300Z 07003MPS CAVOK 23/20 Q1011 NOSIG
ZHHH,2021-09-29 14:00,ZHHH 291400Z 07004MPS CAVOK 23/19 Q1011 NOSIG
ZHHH,2021-09-29 15:00,ZHHH 291500Z 08002MPS CAVOK 22/20 Q1011 NOSIG
ZHHH,2021-09-29 16:00,ZHHH 291600Z 08002MPS 040V130 CAVOK 22/19 Q1011 NOSIG
ZHHH,2021-09-29 17:00,ZHHH 291700Z VRB01MPS CAVOK 20/20 Q1011 NOSIG
ZHHH,2021-09-29 18:00,ZHHH 291800Z 02002MPS CAVOK 20/20 Q1011 NOSIG
ZHHH,2021-09-29 19:00,ZHHH 291900Z 06002MPS CAVOK 20/20 Q1011 NOSIG
ZHHH,2021-09-29 20:00,ZHHH 292000Z 06002MPS CAVOK 19/19 Q1011 NOSIG
ZHHH,2021-09-29 21:00,ZHHH 292100Z 08002MPS CAVOK 20/19 Q1011 NOSIG
ZHHH,2021-09-29 22:00,ZHHH 292200Z 06002MPS 020V090 CAVOK 19/19 Q1011 NOSIG
ZHHH,2021-09-29 23:00,ZHHH 292300Z 08003MPS CAVOK 20/20 Q1011 NOSIG
ZHHH,2021-09-30 00:00,ZHHH 300000Z 07003MPS CAVOK 22/20 Q1011 NOSIG
ZHHH,2021-09-30 01:00,ZHHH 300100Z 09002MPS 040V130 CAVOK 24/21 Q1012 NOSIG
ZHHH,2021-09-30 02:00,ZHHH 300200Z VRB01MPS CAVOK 25/21 Q1012 NOSIG
ZHHH,2021-09-30 03:00,ZHHH 300300Z 26003MPS 200V330 9999 SCT023 26/21 Q1011 NOSIG
ZHHH,2021-09-30 04:00,ZHHH 300400Z VRB02MPS 9999 SCT026 27/20 Q1010 NOSIG
ZHHH,2021-09-30 05:00,ZHHH 300500Z VRB02MPS 9999 FEW026 28/21 Q1010 NOSIG
ZHHH,2021-09-30 06:00,ZHHH 300600Z 28002MPS 220V360 9999 FEW026 28/21 Q1009 NOSIG
ZHHH,2021-09-30 07:00,ZHHH 300700Z 29002MPS 230V010 CAVOK 29/21 Q1008 NOSIG
ZHHH,2021-09-30 08:00,ZHHH 300800Z 30002MPS 250V350 CAVOK 29/20 Q1008 NOSIG
ZHHH,2021-09-30 09:00,ZHHH 300900Z VRB01MPS CAVOK 29/20 Q1008 NOSIG
ZHHH,2021-09-30 10:00,ZHHH 301000Z VRB01MPS CAVOK 27/21 Q1008 NOSIG
ZHHH,2021-09-30 11:00,ZHHH 301100Z 00000MPS CAVOK 24/21 Q1008 NOSIG
ZHHH,2021-09-30 12:00,ZHHH 301200Z 11003MPS 070V130 CAVOK 27/21 Q1009 NOSIG
ZHHH,2021-09-30 13:00,ZHHH 301300Z 12002MPS 070V150 CAVOK 26/21 Q1009 NOSIG
ZHHH,2021-09-30 14:00,ZHHH 301400Z VRB01MPS CAVOK 23/22 Q1009 NOSIG
ZHHH,2021-09-30 15:00,ZHHH 301500Z 11003MPS 060V140 CAVOK 25/22 Q1009 NOSIG
ZHHH,2021-09-30 16:00,ZHHH 301600Z 06002MPS CAVOK 23/22 Q1009 NOSIG
ZHHH,2021-09-30 17:00,ZHHH 301700Z VRB01MPS CAVOK 22/22 Q1009 NOSIG
ZHHH,2021-09-30 18:00,ZHHH 301800Z VRB01MPS CAVOK 22/22 Q1009 NOSIG
ZHHH,2021-09-30 19:00,ZHHH 301900Z 00000MPS CAVOK 22/22 Q1009 NOSIG
ZHHH,2021-09-30 20:00,ZHHH 302000Z 00000MPS 8000 NSC 21/21 Q1009 NOSIG
ZHHH,2021-09-30 21:00,ZHHH 302100Z VRB01MPS 7000 NSC 21/21 Q1009 NOSIG
ZHHH,2021-09-30 22:00,ZHHH 302200Z 06002MPS 4500 BR NSC 21/21 Q1009 NOSIG
ZHHH,2021-09-30 23:00,ZHHH 302300Z 07002MPS 040V110 1700 PRFG BR NSC 22/22 Q1009 BECMG TL0020 3200
ZHHH,2021-10-01 00:00,ZHHH 010000Z 09002MPS 060V120 2200 BR NSC 24/24 Q1010 BECMG TL0120 3200
ZHHH,2021-10-01 01:00,ZHHH 010100Z VRB01MPS 3400 BR NSC 27/23 Q1010 NOSIG
ZHHH,2021-10-01 02:00,ZHHH 010200Z VRB01MPS 7000 SCT020 27/23 Q1011 NOSIG
ZHHH,2021-10-01 03:00,ZHHH 010300Z VRB02MPS 9999 SCT023 28/22 Q1010 NOSIG
ZHHH,2021-10-01 04:00,ZHHH 010400Z 27002MPS 230V350 CAVOK 28/22 Q1010 NOSIG
ZHHH,2021-10-01 05:00,ZHHH 010500Z 25003MPS 210V290 CAVOK 30/21 Q1009 NOSIG
ZHHH,2021-10-01 06:00,ZHHH 010600Z 26002MPS 220V310 CAVOK 31/19 Q1008 NOSIG
ZHHH,2021-10-01 07:00,ZHHH 010700Z 32002MPS 240V010 CAVOK 31/19 Q1008 NOSIG
ZHHH,2021-10-01 08:00,ZHHH 010800Z VRB01MPS CAVOK 31/19 Q1008 NOSIG
ZHHH,2021-10-01 09:00,ZHHH 010900Z VRB01MPS CAVOK 32/20 Q1007 NOSIG
ZHHH,2021-10-01 10:00,ZHHH 011000Z VRB01MPS CAVOK 29/17 Q1007 NOSIG
ZHHH,2021-10-01 11:00,ZHHH 011100Z 11003MPS CAVOK 29/20 Q1008 NOSIG
ZHHH,2021-10-01 12:00,ZHHH 011200Z 12003MPS CAVOK 29/20 Q1009 NOSIG
ZHHH,2021-10-01 13:00,ZHHH 011300Z 11002MPS 080V140 CAVOK 28/21 Q1009 NOSIG
ZHHH,2021-10-01 14:00,ZHHH 011400Z 08002MPS 040V150 CAVOK 27/21 Q1010 NOSIG
ZHHH,2021-10-01 15:00,ZHHH 011500Z VRB02MPS CAVOK 27/22 Q1010 NOSIG
ZHHH,2021-10-01 16:00,ZHHH 011600Z 12003MPS CAVOK 26/22 Q1010 NOSIG
ZHHH,2021-10-01 17:00,ZHHH 011700Z 05003MPS CAVOK 24/23 Q1010 NOSIG
ZHHH,2021-10-01 18:00,ZHHH 011800Z 04004MPS 7000 NSC 24/23 Q1010 NOSIG
ZHHH,2021-10-01 19:00,ZHHH 011900Z 10004MPS 7000 NSC 24/22 Q1010 NOSIG
ZHHH,2021-10-01 20:00,ZHHH 012000Z 12004MPS 9000 NSC 24/22 Q1009 NOSIG
ZHHH,2021-10-01 21:00,ZHHH 012100Z 07003MPS 9000 NSC 23/22 Q1009 NOSIG
ZHHH,2021-10-01 22:00,ZHHH 012200Z 10003MPS 060V120 9000 NSC 23/22 Q1010 NOSIG
ZHHH,2021-10-01 23:00,ZHHH 012300Z 09003MPS 7000 NSC 24/22 Q1010 NOSIG
ZHHH,2021-10-02 00:00,ZHHH 020000Z 10004MPS 9000 NSC 25/22 Q1010 NOSIG
ZHHH,2021-10-02 01:00,ZHHH 020100Z 11005MPS 7000 NSC 27/22 Q1011 NOSIG
ZHHH,2021-10-02 02:00,ZHHH 020200Z 12004MPS 090V150 7000 NSC 29/22 Q1011 NOSIG
ZHHH,2021-10-02 03:00,ZHHH 020300Z 14003MPS 090V220 7000 NSC 30/22 Q1010 NOSIG
ZHHH,2021-10-02 04:00,ZHHH 020400Z 10004MPS 060V190 CAVOK 32/21 Q1009 NOSIG
ZHHH,2021-10-02 05:00,ZHHH 020500Z 11003MPS 060V210 CAVOK 33/22 Q1008 NOSIG
ZHHH,2021-10-02 06:00,ZHHH 020600Z 10003MPS 040V160 CAVOK 33/21 Q1008 NOSIG
ZHHH,2021-10-02 07:00,ZHHH 020700Z 15003MPS 070V190 CAVOK 34/21 Q1007 NOSIG
ZHHH,2021-10-02 08:00,ZHHH 020800Z 15003MPS 120V210 CAVOK 34/21 Q1007 NOSIG
ZHHH,2021-10-02 09:00,ZHHH 020900Z 16003MPS 070V220 CAVOK 33/20 Q1007 NOSIG
ZHHH,2021-10-02 10:00,ZHHH 021000Z 12003MPS CAVOK 32/20 Q1007 NOSIG
ZHHH,2021-10-02 11:00,ZHHH 021100Z 11005MPS CAVOK 30/22 Q1007 NOSIG
ZHHH,2021-10-02 12:00,ZHHH 021200Z 11004MPS CAVOK 30/22 Q1008 NOSIG
ZHHH,2021-10-02 13:00,ZHHH 021300Z 11005MPS CAVOK 29/22 Q1008 NOSIG
ZHHH,2021-10-02 14:00,ZHHH 021400Z 12004MPS CAVOK 29/22 Q1008 NOSIG
ZHHH,2021-10-02 15:00,ZHHH 021500Z 12003MPS CAVOK 29/21 Q1008 NOSIG
ZHHH,2021-10-02 16:00,ZHHH 021600Z 12003MPS CAVOK 28/21 Q1007 NOSIG
ZHHH,2021-10-02 17:00,ZHHH 021700Z 13004MPS CAVOK 28/21 Q1007 NOSIG
ZHHH,2021-10-02 18:00,ZHHH 021800Z 11004MPS CAVOK 27/21 Q1007 NOSIG
ZHHH,2021-10-02 19:00,ZHHH 021900Z 11005MPS CAVOK 27/21 Q1007 NOSIG
ZHHH,2021-10-02 20:00,ZHHH 022000Z 11004MPS CAVOK 27/21 Q1008 NOSIG
ZHHH,2021-10-02 21:00,ZHHH 022100Z 11004MPS CAVOK 27/21 Q1008 NOSIG
ZHHH,2021-10-02 22:00,ZHHH 022200Z 12004MPS CAVOK 26/20 Q1008 NOSIG
ZHHH,2021-10-02 23:00,ZHHH 022300Z 12004MPS CAVOK 27/21 Q1008 NOSIG
ZHHH,2021-10-03 00:00,ZHHH 030000Z 11004MPS CAVOK 28/21 Q1009 NOSIG
ZHHH,2021-10-03 01:00,ZHHH 030100Z 13004MPS 090V170 CAVOK 30/21 Q1009 NOSIG
ZHHH,2021-10-03 02:00,ZHHH 030200Z 15004MPS CAVOK 32/21 Q1009 NOSIG
ZHHH,2021-10-03 03:00,ZHHH 030300Z 18005MPS CAVOK 34/22 Q1009 NOSIG
ZHHH,2021-10-03 04:00,ZHHH 030400Z 20006MPS 170V230 CAVOK 35/23 Q1009 NOSIG
ZHHH,2021-10-03 05:00,ZHHH 030500Z 22006MPS 180V240 CAVOK 35/23 Q1008 NOSIG
ZHHH,2021-10-03 06:00,ZHHH 030600Z 21006MPS 9999 FEW023 36/23 Q1007 NOSIG
ZHHH,2021-10-03 07:00,ZHHH 030700Z 22006MPS 9999 FEW023 36/22 Q1007 NOSIG
ZHHH,2021-10-03 08:00,ZHHH 030800Z 21004MPS 9999 FEW023 36/22 Q1007 NOSIG
ZHHH,2021-10-03 09:00,ZHHH 030900Z 18005MPS 9999 FEW023 35/23 Q1007 NOSIG
ZHHH,2021-10-03 10:00,ZHHH 031000Z 17004MPS CAVOK 34/22 Q1007 NOSIG
ZHHH,2021-10-03 11:00,ZHHH 031100Z 13004G09MPS 080V150 CAVOK 33/23 Q1008 NOSIG
ZHHH,2021-10-03 12:00,ZHHH 031200Z 12004MPS CAVOK 32/24 Q1008 NOSIG
ZHHH,2021-10-03 13:00,ZHHH 031300Z 14004MPS CAVOK 32/24 Q1009 NOSIG
ZHHH,2021-10-03 14:00,ZHHH 031400Z 14005MPS CAVOK 31/24 Q1009 NOSIG
ZHHH,2021-10-03 15:00,ZHHH 031500Z 14004MPS CAVOK 31/24 Q1009 NOSIG
ZHHH,2021-10-03 16:00,ZHHH 031600Z 13004MPS CAVOK 31/24 Q1009 NOSIG
ZHHH,2021-10-03 17:00,ZHHH 031700Z 14004MPS CAVOK 30/23 Q1009 NOSIG
ZHHH,2021-10-03 18:00,ZHHH 031800Z 12003MPS CAVOK 30/24 Q1009 NOSIG
ZHHH,2021-10-03 19:00,ZHHH 031900Z 12004MPS CAVOK 29/24 Q1009 NOSIG
ZHHH,2021-10-03 20:00,ZHHH 032000Z 11004MPS CAVOK 29/24 Q1009 NOSIG
ZHHH,2021-10-03 21:00,ZHHH 032100Z 11004MPS CAVOK 29/23 Q1010 NOSIG
ZHHH,2021-10-03 22:00,ZHHH 032200Z 12004MPS CAVOK 29/23 Q1010 NOSIG
ZHHH,2021-10-03 23:00,ZHHH 032300Z 11005MPS CAVOK 29/23 Q1011 NOSIG
ZHHH,2021-10-04 00:00,ZHHH 040000Z 11004MPS CAVOK 30/23 Q1012 NOSIG
ZHHH,2021-10-04 01:00,ZHHH 040100Z 13004G12MPS 040V190 CAVOK 32/23 Q1012 NOSIG
ZHHH,2021-10-04 02:00,ZHHH 040200Z 14005MPS CAVOK 33/22 Q1013 NOSIG
ZHHH,2021-10-04 03:00,ZHHH 040300Z 20005MPS 160V220 CAVOK 35/22 Q1012 NOSIG
ZHHH,2021-10-04 04:00,ZHHH 040400Z 18006G15MPS 140V220 CAVOK 36/22 Q1012 NOSIG
ZHHH,2021-10-04 05:00,ZHHH 040500Z 18005MPS 150V210 CAVOK 37/22 Q1011 NOSIG
ZHHH,2021-10-04 06:00,ZHHH 040600Z 18005MPS 150V210 CAVOK 36/21 Q1010 NOSIG
ZHHH,2021-10-04 07:00,ZHHH 040700Z 20004MPS 160V230 9999 FEW040 37/22 Q1010 NOSIG
ZHHH,2021-10-04 08:00,ZHHH 040800Z 22004MPS 9999 FEW040 36/21 Q1010 NOSIG
ZHHH,2021-10-04 09:00,ZHHH 040900Z 14003MPS 100V200 9999 FEW040 35/22 Q1010 NOSIG
ZHHH,2021-10-04 10:00,ZHHH 041000Z 11004MPS 9999 FEW040 34/23 Q1011 NOSIG
ZHHH,2021-10-04 11:00,ZHHH 041100Z 10005MPS CAVOK 33/22 Q1011 NOSIG
ZHHH,2021-10-04 12:00,ZHHH 041200Z 11005MPS CAVOK 32/22 Q1012 NOSIG
ZHHH,2021-10-04 13:00,ZHHH 041300Z 11005MPS CAVOK 31/22 Q1013 NOSIG
ZHHH,2021-10-04 14:00,ZHHH 041400Z 12004MPS CAVOK 31/22 Q1013 NOSIG
ZHHH,2021-10-04 15:00,ZHHH 041500Z 11004MPS CAVOK 30/22 Q1013 NOSIG
ZHHH,2021-10-04 16:00,ZHHH 041600Z 10004MPS CAVOK 29/22 Q1013 NOSIG
ZHHH,2021-10-04 19:00,ZHHH 041900Z 04006MPS CAVOK 23/20 Q1013 NOSIG
ZHHH,2021-10-04 20:00,ZHHH 042000Z 06007MPS CAVOK 22/19 Q1013 NOSIG
ZHHH,2021-10-04 21:00,ZHHH 042100Z 05006MPS CAVOK 20/18 Q1014 NOSIG
ZHHH,2021-10-04 22:00,ZHHH 042200Z 04006MPS CAVOK 19/18 Q1015 NOSIG
ZHHH,2021-10-04 23:00,ZHHH 042300Z 04005MPS CAVOK 19/17 Q1016 NOSIG
ZHHH,2021-10-05 00:00,ZHHH 050000Z 04006MPS CAVOK 20/17 Q1017 NOSIG
ZHHH,2021-10-05 07:00,ZHHH 050700Z 03006MPS CAVOK 25/17 Q1014 NOSIG
ZHHH,2021-10-05 08:00,ZHHH 050800Z 05009MPS CAVOK 24/17 Q1014 NOSIG
ZHHH,2021-10-05 09:00,ZHHH 050900Z 04008MPS CAVOK 22/16 Q1014 NOSIG
ZHHH,2021-10-05 11:00,ZHHH 051100Z 04007MPS CAVOK 18/16 Q1015 NOSIG
ZHHH,2021-10-05 13:00,ZHHH 051300Z 04006MPS 360V060 CAVOK 17/16 Q1017 NOSIG
ZHHH,2021-10-05 14:00,ZHHH 051400Z 04005MPS CAVOK 17/15 Q1017 NOSIG
ZHHH,2021-10-05 15:00,ZHHH 051500Z 03004MPS 340V060 CAVOK 17/15 Q1017 NOSIG
ZHHH,2021-10-05 16:00,ZHHH 051600Z 03003MPS 350V050 CAVOK 17/16 Q1017 NOSIG
ZHHH,2021-10-05 17:00,ZHHH 051700Z 02003MPS 340V070 CAVOK 16/15 Q1017 NOSIG
ZHHH,2021-10-05 18:00,ZHHH 051800Z 04004MPS 360V060 9999 FEW013 16/15 Q1017 NOSIG
ZHHH,2021-10-05 19:00,ZHHH 051900Z 02003MPS 350V050 CAVOK 16/15 Q1016 NOSIG
ZHHH,2021-10-05 20:00,ZHHH 052000Z 02002MPS 340V060 CAVOK 16/16 Q1017 NOSIG
ZHHH,2021-10-05 21:00,ZHHH 052100Z 03003MPS 350V060 9999 SCT013 17/15 Q1017 NOSIG
ZHHH,2021-10-05 22:00,ZHHH 052200Z 03004MPS 350V060 9999 SCT013 16/15 Q1017 NOSIG
ZHHH,2021-10-05 23:00,ZHHH 052300Z 04004MPS 360V060 9999 SCT013 16/15 Q1017 NOSIG
ZHHH,2021-10-06 00:00,ZHHH 060000Z 04006MPS 9999 SCT013 17/15 Q1017 NOSIG
ZHHH,2021-10-06 01:00,ZHHH 060100Z 03003MPS 340V060 9999 SCT020 18/15 Q1017 NOSIG
ZHHH,2021-10-06 02:00,ZHHH 060200Z 03003MPS 340V060 9999 SCT030 19/15 Q1018 NOSIG
ZHHH,2021-10-06 03:00,ZHHH 060300Z 04004MPS 340V060 CAVOK 20/15 Q1017 NOSIG
ZHHH,2021-10-06 04:00,ZHHH 060400Z 36003MPS 310V060 9999 BKN040 22/16 Q1016 NOSIG
ZHHH,2021-10-06 05:00,ZHHH 060500Z 01002MPS 280V060 9999 BKN040 23/17 Q1015 NOSIG
ZHHH,2021-10-06 06:00,ZHHH 060600Z 33002MPS 230V030 9999 BKN040 24/18 Q1014 NOSIG
ZHHH,2021-10-06 07:00,ZHHH 060700Z 34003MPS 260V050 9999 BKN040 24/17 Q1014 NOSIG
ZHHH,2021-10-06 08:00,ZHHH 060800Z 01003MPS 320V060 CAVOK 24/18 Q1014 NOSIG
ZHHH,2021-10-06 09:00,ZHHH 060900Z 04006MPS CAVOK 21/16 Q1014 NOSIG
ZHHH,2021-10-06 10:00,ZHHH 061000Z 03004MPS 350V060 CAVOK 18/15 Q1015 NOSIG
ZHHH,2021-10-06 11:00,ZHHH 061100Z 04006MPS CAVOK 16/14 Q1015 NOSIG
ZHHH,2021-10-06 12:00,ZHHH 061200Z 04005MPS 360V070 CAVOK 16/14 Q1016 NOSIG
ZHHH,2021-10-06 13:00,ZHHH 061300Z 03004MPS 9999 BKN030 16/14 Q1017 NOSIG
ZHHH,2021-10-06 14:00,ZHHH 061400Z 03005MPS 340V060 9999 BKN026 15/13 Q1017 NOSIG
ZHHH,2021-10-06 15:00,ZHHH 061500Z 03004MPS 340V060 9999 BKN026 15/13 Q1018 NOSIG
ZHHH,2021-10-06 16:00,ZHHH 061600Z 02003MPS 340V050 9999 BKN026 15/13 Q1017 NOSIG
ZHHH,2021-10-06 17:00,ZHHH 061700Z 02004MPS 340V060 9999 BKN020 15/13 Q1017 NOSIG
ZHHH,2021-10-06 18:00,ZHHH 061800Z 02004MPS 340V050 9999 BKN020 15/13 Q1017 NOSIG
ZHHH,2021-10-06 19:00,ZHHH 061900Z 35003MPS 270V040 9999 BKN020 15/14 Q1017 NOSIG
ZHHH,2021-10-06 20:00,ZHHH 062000Z 01002MPS 330V060 9999 SCT011 SCT015 15/14 Q1017 NOSIG
ZHHH,2021-10-06 21:00,ZHHH 062100Z 03004MPS 340V060 9999 SCT011 SCT015 15/13 Q1017 NOSIG
ZHHH,2021-10-06 22:00,ZHHH 062200Z 02004MPS 340V060 9999 SCT011 SCT015 15/14 Q1017 NOSIG
ZHHH,2021-10-06 23:00,ZHHH 062300Z 03005MPS 360V060 9999 SCT011 OVC026 15/14 Q1018 NOSIG
ZHHH,2021-10-07 00:00,ZHHH 070000Z 03004MPS 360V070 9999 SCT011 OVC026 15/13 Q1018 NOSIG
ZHHH,2021-10-07 01:00,ZHHH 070100Z 03004MPS 330V060 9999 SCT014 OVC026 15/13 Q1019 NOSIG
ZHHH,2021-10-07 02:00,ZHHH 070200Z 03003MPS 350V060 9999 SCT018 OVC030 16/13 Q1019 NOSIG
ZHHH,2021-10-07 03:00,ZHHH 070300Z 34003MPS 270V040 9999 SCT018 OVC030 17/14 Q1018 NOSIG
ZHHH,2021-10-07 04:00,ZHHH 070400Z 04005MPS 360V060 9999 SCT023 OVC040 18/13 Q1018 NOSIG
ZHHH,2021-10-07 05:00,ZHHH 070500Z 03004MPS 320V060 9999 SCT023 OVC040 19/14 Q1017 NOSIG
ZHHH,2021-10-07 06:00,ZHHH 070600Z 03004MPS 350V060 9999 OVC040 19/14 Q1016 NOSIG
ZHHH,2021-10-07 07:00,ZHHH 070700Z 04005MPS 010V080 CAVOK 21/14 Q1016 NOSIG
ZHHH,2021-10-07 08:00,ZHHH 070800Z 04005MPS 9999 FEW040 20/14 Q1016 NOSIG
ZHHH,2021-10-07 09:00,ZHHH 070900Z 04005MPS 9999 FEW030 19/15 Q1016 NOSIG
ZHHH,2021-10-07 10:00,ZHHH 071000Z 03005MPS 360V060 9999 FEW023 SCT040 17/14 Q1016 NOSIG
ZHHH,2021-10-07 11:00,ZHHH 071100Z 03004MPS 350V050 9999 BKN020 17/14 Q1017 NOSIG
ZHHH,2021-10-07 12:00,ZHHH 071200Z 04005MPS 9999 SCT016 OVC020 16/14 Q1017 NOSIG
ZHHH,2021-10-07 13:00,ZHHH 071300Z 03003MPS 9999 SCT015 OVC020 16/14 Q1017 NOSIG
ZHHH,2021-10-07 14:00,ZHHH 071400Z 02004MPS 350V060 9999 OVC016 16/14 Q1018 NOSIG
ZHHH,2021-10-07 15:00,ZHHH 071500Z 02003MPS 340V050 9999 OVC016 16/14 Q1018 NOSIG
ZHHH,2021-10-07 16:00,ZHHH 071600Z 02003MPS 330V050 9999 SCT013 OVC016 16/14 Q1018 NOSIG
ZHHH,2021-10-07 17:00,ZHHH 071700Z 02003MPS 340V050 9999 SCT013 OVC016 16/14 Q1017 NOSIG
ZHHH,2021-10-07 18:00,ZHHH 071800Z 03003MPS 350V050 9999 SCT013 OVC020 16/14 Q1017 NOSIG
ZHHH,2021-10-07 19:00,ZHHH 071900Z 03004MPS 340V050 9999 FEW013 OVC030 16/14 Q1017 NOSIG
ZHHH,2021-10-07 20:00,ZHHH 072000Z 03004MPS 350V060 9999 OVC030 16/14 Q1017 NOSIG
ZHHH,2021-10-07 21:00,ZHHH 072100Z 04004MPS 9999 BKN040 16/14 Q1017 NOSIG
ZHHH,2021-10-07 22:00,ZHHH 072200Z 03003MPS 350V060 9999 BKN040 15/14 Q1017 NOSIG
ZHHH,2021-10-07 23:00,ZHHH 072300Z 03003MPS 360V060 7000 OVC033 15/14 Q1017 NOSIG
ZHHH,2021-10-08 00:00,ZHHH 080000Z 03003MPS 340V060 7000 FEW011 OVC033 16/14 Q1018 NOSIG
ZHHH,2021-10-08 01:00,ZHHH 080100Z 03003MPS 350V060 8000 FEW013 OVC040 16/15 Q1018 NOSIG
ZHHH,2021-10-08 02:00,ZHHH 080200Z VRB03MPS 8000 FEW015 OVC046 17/15 Q1018 NOSIG
ZHHH,2021-10-08 03:00,ZHHH 080300Z 05004MPS 360V070 9999 FEW020 19/14 Q1018 NOSIG
ZHHH,2021-10-08 04:00,ZHHH 080400Z 01003MPS 300V070 9999 FEW020 OVC040 19/15 Q1017 NOSIG
ZHHH,2021-10-08 05:00,ZHHH 080500Z 05003MPS 360V080 9999 OVC040 20/15 Q1016 NOSIG
ZHHH,2021-10-08 06:00,ZHHH 080600Z 04003MPS 330V070 9999 BKN040 21/16 Q1015 NOSIG
ZHHH,2021-10-08 07:00,ZHHH 080700Z 04003MPS 010V080 9999 OVC040 22/16 Q1015 NOSIG
ZHHH,2021-10-08 08:00,ZHHH 080800Z 04005MPS 9999 OVC040 21/16 Q1015 NOSIG
ZHHH,2021-10-08 09:00,ZHHH 080900Z 04004MPS 9999 BKN040 20/16 Q1015 NOSIG
ZHHH,2021-10-08 10:00,ZHHH 081000Z 04006MPS 9999 BKN033 19/16 Q1015 NOSIG
ZHHH,2021-10-08 11:00,ZHHH 081100Z 04004MPS CAVOK 18/16 Q1016 NOSIG
ZHHH,2021-10-08 12:00,ZHHH 081200Z 04003MPS 360V070 9999 BKN040 17/16 Q1016 NOSIG
ZHHH,2021-10-08 13:00,ZHHH 081300Z 04003MPS 9999 BKN040 17/16 Q1017 NOSIG
ZHHH,2021-10-08 14:00,ZHHH 081400Z 03003MPS 360V060 9999 BKN040 17/16 Q1017 NOSIG
ZHHH,2021-10-08 15:00,ZHHH 081500Z 02002MPS 340V060 9999 BKN040 17/16 Q1017 NOSIG
ZHHH,2021-10-08 16:00,ZHHH 081600Z 03003MPS 330V060 9999 BKN040 17/16 Q1017 NOSIG
ZHHH,2021-10-08 17:00,ZHHH 081700Z 03003MPS 350V050 9999 OVC033 17/16 Q1017 NOSIG
ZHHH,2021-10-08 18:00,ZHHH 081800Z 01002MPS 330V070 9999 OVC033 17/17 Q1016 NOSIG
ZHHH,2021-10-08 19:00,ZHHH 081900Z 03002MPS 340V060 CAVOK 17/17 Q1016 NOSIG
ZHHH,2021-10-08 20:00,ZHHH 082000Z 03003MPS 350V060 CAVOK 17/17 Q1016 NOSIG
ZHHH,2021-10-08 21:00,ZHHH 082100Z 03002MPS 340V050 CAVOK 17/17 Q1016 NOSIG
ZHHH,2021-10-08 22:00,ZHHH 082200Z 35002MPS 320V060 7000 NSC 17/17 Q1017 NOSIG
ZHHH,2021-10-08 23:00,ZHHH 082300Z 36003MPS 320V040 7000 NSC 17/17 Q1017 NOSIG
ZHHH,2021-10-09 00:00,ZHHH 090000Z 36002MPS 300V040 7000 NSC 18/17 Q1017 NOSIG
ZHHH,2021-10-09 01:00,ZHHH 090100Z VRB02MPS 9999 FEW013 19/18 Q1018 NOSIG
ZHHH,2021-10-09 02:00,ZHHH 090200Z VRB02MPS 9999 FEW013 20/18 Q1018 NOSIG
ZHHH,2021-10-09 03:00,ZHHH 090300Z 31002MPS 240V030 9999 FEW013 20/18 Q1017 NOSIG
ZHHH,2021-10-09 04:00,ZHHH 090400Z 30002MPS 230V030 9999 FEW014 22/18 Q1017 NOSIG
ZHHH,2021-10-09 05:00,ZHHH 090500Z VRB02MPS CAVOK 24/19 Q1016 NOSIG
ZHHH,2021-10-09 06:00,ZHHH 090600Z 28003MPS 250V360 CAVOK 24/19 Q1015 NOSIG
ZHHH,2021-10-09 07:00,ZHHH 090700Z 28002MPS 250V330 CAVOK 25/19 Q1014 NOSIG
ZHHH,2021-10-09 08:00,ZHHH 090800Z 35003MPS 290V050 CAVOK 25/20 Q1014 NOSIG
ZHHH,2021-10-09 09:00,ZHHH 090900Z 34003MPS 300V020 CAVOK 24/19 Q1015 NOSIG
ZHHH,2021-10-09 10:00,ZHHH 091000Z 02003MPS 340V050 CAVOK 22/18 Q1015 NOSIG
ZHHH,2021-10-09 11:00,ZHHH 091100Z 03004MPS CAVOK 20/18 Q1016 NOSIG
ZHHH,2021-10-09 12:00,ZHHH 091200Z 04005MPS 360V060 CAVOK 19/18 Q1017 NOSIG
ZHHH,2021-10-09 13:00,ZHHH 091300Z 03005MPS 360V060 CAVOK 19/17 Q1018 NOSIG
ZHHH,2021-10-09 14:00,ZHHH 091400Z 03004MPS 350V060 CAVOK 19/18 Q1018 NOSIG
ZHHH,2021-10-09 15:00,ZHHH 091500Z 03004MPS 350V060 CAVOK 19/18 Q1018 NOSIG
ZHHH,2021-10-09 16:00,ZHHH 091600Z 02004MPS 340V050 CAVOK 19/18 Q1018 NOSIG
ZHHH,2021-10-09 17:00,ZHHH 091700Z 03004MPS 360V060 9999 -RA NSC 19/19 Q1018 NOSIG
ZHHH,2021-10-09 18:00,ZHHH 091800Z 02003MPS 340V070 9999 -RA NSC 19/19 Q1018 NOSIG
ZHHH,2021-10-09 19:00,ZHHH 091900Z 02004MPS 340V050 9999 -RA SCT014 18/18 Q1017 NOSIG
ZHHH,2021-10-09 20:00,ZHHH 092000Z 02003MPS 340V060 9999 -RA FEW014 BKN020 18/18 Q1018 NOSIG
ZHHH,2021-10-09 21:00,ZHHH 092100Z 03004MPS 340V060 7000 -RA FEW011 SCT020 OVC040 18/18 Q1018 NOSIG
ZHHH,2021-10-09 22:00,ZHHH 092200Z 02003MPS 340V050 6000 -RA FEW011 SCT020 OVC040 18/18 Q1019 NOSIG
ZHHH,2021-10-09 23:00,ZHHH 092300Z 02003MPS 310V050 4500 -RA BR SCT011 OVC033 17/17 Q1019 NOSIG
ZHHH,2021-10-10 00:00,ZHHH 100000Z 02003MPS 340V060 4000 -RA BR SCT011 OVC033 17/17 Q1020 NOSIG
ZHHH,2021-10-10 01:00,ZHHH 100100Z 03004MPS 340V060 7000 -RA SCT011 OVC040 18/18 Q1020 NOSIG
ZHHH,2021-10-10 02:00,ZHHH 100200Z 02006MPS 350V060 9999 SCT015 OVC040 18/18 Q1021 NOSIG
ZHHH,2021-10-10 03:00,ZHHH 100300Z 02005MPS 340V050 9999 -RA SCT015 OVC040 18/18 Q1021 NOSIG
ZHHH,2021-10-10 04:00,ZHHH 100400Z 02005MPS 340V060 9999 -RA SCT018 OVC040 18/17 Q1021 NOSIG
ZHHH,2021-10-10 05:00,ZHHH 100500Z 02004MPS 340V050 7000 -RA SCT018 OVC040 17/17 Q1020 NOSIG
ZHHH,2021-10-10 06:00,ZHHH 100600Z 01004MPS 330V050 7000 -RA SCT018 OVC040 16/16 Q1020 NOSIG
ZHHH,2021-10-10 07:00,ZHHH 100700Z 01004MPS 330V050 7000 -RA FEW018 OVC040 15/15 Q1020 NOSIG
ZHHH,2021-10-10 08:00,ZHHH 100800Z 01004MPS 340V040 7000 -RA FEW018 OVC040 15/15 Q1021 NOSIG
ZHHH,2021-10-10 09:00,ZHHH 100900Z 02004MPS 340V050 9000 -RA FEW018 OVC040 15/15 Q1021 NOSIG
ZHHH,2021-10-10 10:00,ZHHH 101000Z 02004MPS 340V050 8000 -RA SCT015 OVC040 15/15 Q1022 NOSIG
ZHHH,2021-10-10 11:00,ZHHH 101100Z 02005MPS 340V050 9999 SCT020 OVC040 15/15 Q1022 NOSIG
ZHHH,2021-10-10 12:00,ZHHH 101200Z 02005MPS 350V050 9999 SCT020 OVC040 15/14 Q1023 NOSIG
ZHHH,2021-10-10 13:00,ZHHH 101300Z 02005MPS 340V060 CAVOK 16/13 Q1024 NOSIG
ZHHH,2021-10-10 14:00,ZHHH 101400Z 02004MPS 340V050 CAVOK 16/12 Q1024 NOSIG
ZHHH,2021-10-10 15:00,ZHHH 101500Z 02003MPS 340V060 CAVOK 16/11 Q1024 NOSIG
ZHHH,2021-10-10 16:00,ZHHH 101600Z 02004MPS 330V050 CAVOK 16/11 Q1024 NOSIG
ZHHH,2021-10-10 17:00,ZHHH 101700Z 02005MPS 340V050 CAVOK 15/11 Q1024 NOSIG
ZHHH,2021-10-10 18:00,ZHHH 101800Z 02004MPS 330V050 CAVOK 15/11 Q1023 NOSIG
ZHHH,2021-10-10 19:00,ZHHH 101900Z 01004MPS 330V050 CAVOK 15/10 Q1023 NOSIG
ZHHH,2021-10-10 20:00,ZHHH 102000Z 02004MPS 340V070 CAVOK 15/09 Q1023 NOSIG
ZHHH,2021-10-10 21:00,ZHHH 102100Z 03005MPS 350V050 CAVOK 15/08 Q1023 NOSIG
ZHHH,2021-10-10 22:00,ZHHH 102200Z 02004MPS 330V050 CAVOK 15/09 Q1023 NOSIG
ZHHH,2021-10-10 23:00,ZHHH 102300Z 02004MPS 330V060 CAVOK 15/08 Q1024 NOSIG
ZHHH,2021-10-11 00:00,ZHHH 110000Z 02004MPS 340V060 CAVOK 15/08 Q1024 NOSIG
ZHHH,2021-10-11 01:00,ZHHH 110100Z 02004MPS 330V070 CAVOK 15/08 Q1025 NOSIG
ZHHH,2021-10-11 02:00,ZHHH 110200Z 02004MPS 330V050 CAVOK 16/07 Q1025 NOSIG
ZHHH,2021-10-11 03:00,ZHHH 110300Z 03005MPS 360V060 CAVOK 17/07 Q1024 NOSIG
ZHHH,2021-10-11 04:00,ZHHH 110400Z 02005MPS 340V050 CAVOK 17/08 Q1024 NOSIG
ZHHH,2021-10-11 05:00,ZHHH 110500Z 01004MPS 330V060 CAVOK 19/08 Q1022 NOSIG
ZHHH,2021-10-11 06:00,ZHHH 110600Z 04005MPS 350V070 CAVOK 19/09 Q1022 NOSIG
ZHHH,2021-10-11 07:00,ZHHH 110700Z 02004MPS 340V060 CAVOK 20/09 Q1021 NOSIG
ZHHH,2021-10-11 08:00,ZHHH 110800Z 01004MPS 330V050 CAVOK 19/09 Q1021 NOSIG
ZHHH,2021-10-11 09:00,ZHHH 110900Z 01004MPS 330V060 CAVOK 18/10 Q1021 NOSIG
ZHHH,2021-10-11 10:00,ZHHH 111000Z 01003MPS 330V050 CAVOK 17/09 Q1022 NOSIG
ZHHH,2021-10-11 11:00,ZHHH 111100Z 01002MPS 330V050 CAVOK 17/10 Q1022 NOSIG
ZHHH,2021-10-11 12:00,ZHHH 111200Z 02002MPS 340V050 CAVOK 16/09 Q1022 NOSIG
ZHHH,2021-10-11 13:00,ZHHH 111300Z 02003MPS 340V050 CAVOK 16/09 Q1023 NOSIG
ZHHH,2021-10-11 14:00,ZHHH 111400Z 02002MPS 340V060 9999 SCT040 16/09 Q1023 NOSIG
ZHHH,2021-10-11 15:00,ZHHH 111500Z 03003MPS 350V080 9999 BKN040 16/09 Q1023 NOSIG
ZHHH,2021-10-11 16:00,ZHHH 111600Z 02002MPS 350V060 9999 BKN040 16/09 Q1022 NOSIG
ZHHH,2021-10-11 17:00,ZHHH 111700Z 03003MPS 350V060 9999 BKN040 16/09 Q1022 NOSIG
ZHHH,2021-10-11 18:00,ZHHH 111800Z 36002MPS 310V030 9999 BKN040 16/10 Q1022 NOSIG
ZHHH,2021-10-11 19:00,ZHHH 111900Z 03003MPS 350V050 9999 BKN040 16/09 Q1022 NOSIG
ZHHH,2021-10-11 20:00,ZHHH 112000Z 02004MPS 350V050 CAVOK 16/09 Q1022 NOSIG
ZHHH,2021-10-11 21:00,ZHHH 112100Z 03003MPS 350V060 CAVOK 15/09 Q1021 NOSIG
ZHHH,2021-10-11 22:00,ZHHH 112200Z 02004MPS 340V050 CAVOK 15/10 Q1022 NOSIG
ZHHH,2021-10-11 23:00,ZHHH 112300Z 03004MPS 360V060 CAVOK 16/10 Q1022 NOSIG
ZHHH,2021-10-12 00:00,ZHHH 120000Z 03004MPS 350V050 CAVOK 17/11 Q1023 NOSIG
ZHHH,2021-10-12 01:00,ZHHH 120100Z 04005MPS 340V050 CAVOK 17/11 Q1023 NOSIG
ZHHH,2021-10-12 02:00,ZHHH 120200Z 04005MPS 360V060 CAVOK 19/11 Q1023 NOSIG
ZHHH,2021-10-12 03:00,ZHHH 120300Z 03005MPS 340V060 CAVOK 20/11 Q1022 NOSIG
ZHHH,2021-10-12 04:00,ZHHH 120400Z 01005MPS 330V050 CAVOK 22/11 Q1021 NOSIG
ZHHH,2021-10-12 05:00,ZHHH 120500Z 02004MPS 330V070 CAVOK 22/11 Q1020 NOSIG
ZHHH,2021-10-12 06:00,ZHHH 120600Z 03004MPS 340V060 CAVOK 23/11 Q1019 NOSIG
ZHHH,2021-10-12 07:00,ZHHH 120700Z 04006MPS 360V060 CAVOK 24/10 Q1019 NOSIG
ZHHH,2021-10-12 08:00,ZHHH 120800Z 03005MPS 360V060 CAVOK 24/10 Q1019 NOSIG
ZHHH,2021-10-12 09:00,ZHHH 120900Z 03005MPS 350V060 CAVOK 23/10 Q1019 NOSIG
ZHHH,2021-10-12 10:00,ZHHH 121000Z 02005MPS 340V060 CAVOK 21/10 Q1019 NOSIG
ZHHH,2021-10-12 11:00,ZHHH 121100Z 02004MPS 330V050 CAVOK 20/10 Q1020 NOSIG
ZHHH,2021-10-12 12:00,ZHHH 121200Z 02003MPS 360V060 CAVOK 19/10 Q1020 NOSIG
ZHHH,2021-10-12 13:00,ZHHH 121300Z 03004MPS 340V060 CAVOK 19/10 Q1021 NOSIG
ZHHH,2021-10-12 14:00,ZHHH 121400Z 03004MPS 360V060 CAVOK 19/10 Q1021 NOSIG
ZHHH,2021-10-12 15:00,ZHHH 121500Z 04003MPS CAVOK 18/11 Q1021 NOSIG
ZHHH,2021-10-12 16:00,ZHHH 121600Z 02002MPS 340V040 CAVOK 17/10 Q1021 NOSIG
ZHHH,2021-10-12 17:00,ZHHH 121700Z 03003MPS CAVOK 17/09 Q1020 NOSIG
ZHHH,2021-10-12 18:00,ZHHH 121800Z 02002MPS 320V060 CAVOK 17/09 Q1020 NOSIG
ZHHH,2021-10-12 19:00,ZHHH 121900Z 03002MPS 360V060 CAVOK 17/09 Q1020 NOSIG
ZHHH,2021-10-12 20:00,ZHHH 122000Z 02003MPS 340V060 CAVOK 17/09 Q1020 NOSIG
ZHHH,2021-10-12 21:00,ZHHH 122100Z 02002MPS 350V060 CAVOK 17/10 Q1020 NOSIG
ZHHH,2021-10-12 22:00,ZHHH 122200Z 02003MPS 340V060 CAVOK 17/10 Q1021 NOSIG
ZHHH,2021-10-12 23:00,ZHHH 122300Z 03003MPS 340V060 CAVOK 17/10 Q1021 NOSIG
ZHHH,2021-10-13 00:00,ZHHH 130000Z 03003MPS 340V060 CAVOK 18/11 Q1022 NOSIG
ZHHH,2021-10-13 01:00,ZHHH 130100Z 03004MPS 340V060 CAVOK 19/11 Q1022 NOSIG
ZHHH,2021-10-13 02:00,ZHHH 130200Z 02003MPS 340V060 9999 -RA SCT026 17/15 Q1022 NOSIG
ZHHH,2021-10-13 03:00,ZHHH 130300Z 03004MPS 350V060 CAVOK 19/13 Q1021 NOSIG
ZHHH,2021-10-13 04:00,ZHHH 130400Z 03004MPS 360V060 CAVOK 20/12 Q1021 NOSIG
ZHHH,2021-10-13 05:00,ZHHH 130500Z 04005MPS 340V080 CAVOK 22/12 Q1020 NOSIG
ZHHH,2021-10-13 06:00,ZHHH 130600Z 03005MPS 340V060 CAVOK 22/12 Q1019 NOSIG
ZHHH,2021-10-13 07:00,ZHHH 130700Z VRB03MPS CAVOK 21/14 Q1018 NOSIG
ZHHH,2021-10-13 08:00,ZHHH 130800Z 36002MPS 310V050 CAVOK 21/14 Q1018 NOSIG
ZHHH,2021-10-13 09:00,ZHHH 130900Z 02002MPS 310V070 CAVOK 22/14 Q1018 NOSIG
ZHHH,2021-10-13 10:00,ZHHH 131000Z 02003MPS CAVOK 22/11 Q1018 NOSIG
ZHHH,2021-10-13 11:00,ZHHH 131100Z 02003MPS 360V060 CAVOK 21/12 Q1018 NOSIG
ZHHH,2021-10-13 12:00,ZHHH 131200Z 02003MPS 350V060 CAVOK 21/12 Q1018 NOSIG
ZHHH,2021-10-13 13:00,ZHHH 131300Z 03003MPS CAVOK 21/11 Q1019 NOSIG
ZHHH,2021-10-13 14:00,ZHHH 131400Z 01002MPS 340V060 9999 BKN040 21/11 Q1019 NOSIG
ZHHH,2021-10-13 15:00,ZHHH 131500Z VRB01MPS 9999 BKN040 20/13 Q1019 NOSIG
ZHHH,2021-10-13 16:00,ZHHH 131600Z 03002MPS 9999 BKN040 20/13 Q1018 NOSIG
ZHHH,2021-10-13 17:00,ZHHH 131700Z 03002MPS 350V060 9999 BKN040 21/12 Q1018 NOSIG
ZHHH,2021-10-13 18:00,ZHHH 131800Z 34001MPS 9999 OVC033 20/15 Q1017 NOSIG
ZHHH,2021-10-13 19:00,ZHHH 131900Z VRB01MPS 9999 OVC040 20/14 Q1017 NOSIG
ZHHH,2021-10-13 20:00,ZHHH 132000Z 02002MPS 9999 OVC040 20/14 Q1017 NOSIG
ZHHH,2021-10-13 21:00,ZHHH 132100Z 01002MPS 340V060 9999 OVC040 21/14 Q1018 NOSIG
ZHHH,2021-10-13 22:00,ZHHH 132200Z 01002MPS 320V050 9999 OVC040 20/14 Q1018 NOSIG
ZHHH,2021-10-13 23:00,ZHHH 132300Z 03003MPS 340V060 9999 OVC033 20/14 Q1019 NOSIG
ZHHH,2021-10-14 00:00,ZHHH 140000Z 04002MPS 360V060 6000 -RA OVC023 20/14 Q1019 NOSIG
ZHHH,2021-10-14 01:00,ZHHH 140100Z 01002MPS 330V070 3400 -RA BR OVC020 18/18 Q1020 NOSIG
ZHHH,2021-10-14 02:00,ZHHH 140200Z 35002MPS 270V050 2000 R04L/1400D R04R/P2000 -RA BR FEW004 OVC016 18/18 Q1020 BECMG TL0340 3500
ZHHH,2021-10-14 03:00,ZHHH 140300Z VRB02MPS 1500 -RA BR FEW003 SCT007 OVC016 18/18 Q1020 BECMG TL0440 3000
ZHHH,2021-10-14 04:00,ZHHH 140400Z 36003MPS 300V060 2800 -RA BR SCT006 OVC040 18/18 Q1019 BECMG TL0510 3000
ZHHH,2021-10-14 05:00,ZHHH 140500Z 01004MPS 290V060 1500 -RA BR SCT006 OVC033 18/18 Q1019 BECMG TL0610 3000
ZHHH,2021-10-14 06:00,ZHHH 140600Z 34003MPS 300V020 2000 -RA BR SCT007 OVC033 17/17 Q1018 BECMG TL0720 3000
ZHHH,2021-10-14 07:00,ZHHH 140700Z 34004MPS 300V040 1500 -RA BR SCT007 OVC033 17/17 Q1018 NOSIG
ZHHH,2021-10-14 08:00,ZHHH 140800Z 35004MPS 300V060 2500 BR FEW007 OVC033 17/17 Q1018 BECMG TL0950 3000
ZHHH,2021-10-14 09:00,ZHHH 140900Z 35004MPS 290V030 2000 BR FEW009 OVC040 17/17 Q1018 BECMG TL1010 3000
ZHHH,2021-10-14 10:00,ZHHH 141000Z 35003MPS 300V030 3000 BR OVC033 17/17 Q1019 NOSIG
ZHHH,2021-10-14 11:00,ZHHH 141100Z 35002MPS 250V040 4500 BR OVC040 17/17 Q1019 NOSIG
ZHHH,2021-10-14 12:00,ZHHH 141200Z 02002MPS 340V070 4500 BR OVC040 17/17 Q1020 NOSIG
ZHHH,2021-10-14 13:00,ZHHH 141300Z 02002MPS 320V060 4500 BR OVC033 17/17 Q1020 NOSIG
ZHHH,2021-10-14 14:00,ZHHH 141400Z 02002MPS 340V090 3900 -RA BR OVC030 17/17 Q1020 NOSIG
ZHHH,2021-10-14 15:00,ZHHH 141500Z 04003MPS 3600 -RA BR SCT008 OVC030 17/17 Q1021 NOSIG
ZHHH,2021-10-14 16:00,ZHHH 141600Z 03003MPS 340V050 3400 -RA BR FEW011 OVC030 16/16 Q1020 NOSIG
ZHHH,2021-10-14 17:00,ZHHH 141700Z 01002MPS 330V050 2100 -RA BR FEW005 SCT009 OVC030 16/16 Q1020 NOSIG
ZHHH,2021-10-14 18:00,ZHHH 141800Z 02003MPS 340V050 3000 -RA BR SCT009 OVC033 16/16 Q1020 NOSIG
ZHHH,2021-10-14 19:00,ZHHH 141900Z 01003MPS 320V060 4000 BR SCT013 OVC033 16/16 Q1019 NOSIG
ZHHH,2021-10-14 20:00,ZHHH 142000Z 01003MPS 320V060 4000 BR SCT013 OVC033 16/16 Q1019 NOSIG
ZHHH,2021-10-14 21:00,ZHHH 142100Z 02003MPS 340V050 3500 -RA BR SCT011 OVC033 16/16 Q1019 NOSIG
ZHHH,2021-10-14 22:00,ZHHH 142200Z 01003MPS 330V050 4500 BR SCT011 OVC033 16/16 Q1020 NOSIG
ZHHH,2021-10-14 23:00,ZHHH 142300Z 36002MPS 330V040 4500 -RA BR SCT011 OVC040 16/16 Q1020 NOSIG
ZHHH,2021-10-15 00:00,ZHHH 150000Z 02002MPS 340V050 4500 -RA BR SCT015 OVC040 16/16 Q1021 NOSIG
ZHHH,2021-10-15 01:00,ZHHH 150100Z 02003MPS 340V050 5000 -RA BR SCT015 OVC040 16/16 Q1022 NOSIG
ZHHH,2021-10-15 02:00,ZHHH 150200Z 01004MPS 330V060 5000 -RA BR SCT015 OVC040 17/17 Q1022 NOSIG
ZHHH,2021-10-15 03:00,ZHHH 150300Z 01004MPS 330V060 7000 -RA SCT015 OVC040 17/17 Q1022 NOSIG
ZHHH,2021-10-15 04:00,ZHHH 150400Z 35004MPS 320V030 7000 -RA SCT015 OVC040 17/17 Q1022 NOSIG
ZHHH,2021-10-15 05:00,ZHHH 150500Z 36003MPS 320V030 7000 SCT015 OVC040 17/17 Q1021 NOSIG
ZHHH,2021-10-15 06:00,ZHHH 150600Z 01003MPS 320V050 5000 -RA BR SCT015 OVC040 17/17 Q1021 NOSIG
ZHHH,2021-10-15 07:00,ZHHH 150700Z 01003MPS 330V040 7000 -RA SCT015 OVC040 17/17 Q1021 NOSIG
ZHHH,2021-10-15 08:00,ZHHH 150800Z 34003MPS 250V030 9999 SCT011 OVC030 17/16 Q1021 NOSIG
ZHHH,2021-10-15 09:00,ZHHH 150900Z 35004MPS 310V030 9999 BKN020 OVC040 16/16 Q1022 NOSIG
ZHHH,2021-10-15 10:00,ZHHH 151000Z 02006MPS 340V060 9999 BKN020 OVC040 16/15 Q1023 WS RWY04L NOSIG
ZHHH,2021-10-15 11:00,ZHHH 151100Z 02004MPS 360V060 9999 BKN020 OVC040 15/15 Q1023 NOSIG
ZHHH,2021-10-15 12:00,ZHHH 151200Z 02005G11MPS 350V050 9999 -RA SCT013 OVC026 15/14 Q1024 NOSIG
ZHHH,2021-10-15 13:00,ZHHH 151300Z 01005MPS 340V050 9999 -RA SCT013 OVC026 14/14 Q1025 NOSIG
ZHHH,2021-10-15 14:00,ZHHH 151400Z 01004MPS 330V060 9999 -RA SCT013 OVC026 14/14 Q1025 NOSIG
ZHHH,2021-10-15 15:00,ZHHH 151500Z 36002MPS 300V050 6000 -RA SCT013 OVC026 14/14 Q1025 NOSIG
ZHHH,2021-10-15 16:00,ZHHH 151600Z 36003MPS 300V040 6000 -RA SCT007 OVC026 14/14 Q1025 NOSIG
ZHHH,2021-10-15 17:00,ZHHH 151700Z 35003MPS 300V040 6000 -RA SCT007 OVC026 14/14 Q1025 NOSIG
ZHHH,2021-10-15 18:00,ZHHH 151800Z 36003MPS 320V050 6000 -RA SCT007 OVC026 14/14 Q1025 NOSIG
ZHHH,2021-10-15 19:00,ZHHH 151900Z 35003MPS 290V100 4500 RA SCT005 OVC026 14/14 Q1025 NOSIG
ZHHH,2021-10-15 20:00,ZHHH 152000Z 36003MPS 320V040 6000 -RA SCT007 OVC026 14/14 Q1025 RERA NOSIG
ZHHH,2021-10-15 21:00,ZHHH 152100Z 36003MPS 300V060 6000 -RA SCT007 OVC026 14/14 Q1026 NOSIG
ZHHH,2021-10-15 22:00,ZHHH 152200Z 01003MPS 330V050 8000 -RA NSC 14/14 Q1026 NOSIG
ZHHH,2021-10-15 23:00,ZHHH 152300Z 01004MPS 330V050 8000 -RA NSC 14/14 Q1027 NOSIG
ZHHH,2021-10-16 00:00,ZHHH 160000Z 02003MPS 340V050 9999 -RA OVC040 14/14 Q1028 NOSIG
ZHHH,2021-10-16 01:00,ZHHH 160100Z 02003MPS 340V060 8000 -RA SCT015 OVC040 15/15 Q1030 NOSIG
ZHHH,2021-10-16 02:00,ZHHH 160200Z 02003MPS 330V050 6000 -RA SCT012 15/15 Q1030 NOSIG
ZHHH,2021-10-16 03:00,ZHHH 160300Z 02003MPS 340V050 8000 -RA SCT012 15/15 Q1030 NOSIG
ZHHH,2021-10-16 04:00,ZHHH 160400Z 01003MPS 330V050 8000 -RA SCT012 15/15 Q1030 NOSIG
ZHHH,2021-10-16 05:00,ZHHH 160500Z 04006MPS 360V060 9999 -RA SCT015 15/14 Q1030 NOSIG
ZHHH,2021-10-16 06:00,ZHHH 160600Z 03006MPS 360V060 9999 -RA SCT015 15/12 Q1030 NOSIG
ZHHH,2021-10-16 07:00,ZHHH 160700Z 03004MPS 9999 -RA SCT014 15/13 Q1030 NOSIG
ZHHH,2021-10-16 08:00,ZHHH 160800Z 04005MPS 360V060 9999 SCT014 15/13 Q1031 NOSIG
ZHHH,2021-10-16 09:00,ZHHH 160900Z 04005MPS 9999 SCT040 15/11 Q1030 NOSIG
ZHHH,2021-10-16 10:00,ZHHH 161000Z 02003MPS 340V040 CAVOK 15/13 Q1031 NOSIG
ZHHH,2021-10-16 11:00,ZHHH 161100Z 01002MPS 320V050 CAVOK 14/13 Q1032 NOSIG
ZHHH,2021-10-16 12:00,ZHHH 161200Z 01003MPS 320V060 CAVOK 14/13 Q1032 NOSIG
ZHHH,2021-10-16 13:00,ZHHH 161300Z 01003MPS 340V050 CAVOK 14/12 Q1033 NOSIG
ZHHH,2021-10-16 14:00,ZHHH 161400Z 02003MPS 340V060 CAVOK 14/12 Q1033 NOSIG
ZHHH,2021-10-16 15:00,ZHHH 161500Z 02003MPS CAVOK 14/12 Q1033 NOSIG
ZHHH,2021-10-16 16:00,ZHHH 161600Z 02003MPS 340V060 CAVOK 13/12 Q1033 NOSIG
ZHHH,2021-10-16 17:00,ZHHH 161700Z 02003MPS 340V050 CAVOK 13/11 Q1033 NOSIG
ZHHH,2021-10-16 18:00,ZHHH 161800Z 03003MPS CAVOK 13/11 Q1033 NOSIG
ZHHH,2021-10-16 19:00,ZHHH 161900Z 03004MPS 360V060 CAVOK 12/10 Q1032 NOSIG
ZHHH,2021-10-16 20:00,ZHHH 162000Z 02003MPS 340V050 CAVOK 12/10 Q1032 NOSIG
ZHHH,2021-10-16 21:00,ZHHH 162100Z 02004MPS 350V060 CAVOK 11/09 Q1032 NOSIG
ZHHH,2021-10-16 22:00,ZHHH 162200Z 03003MPS 350V050 CAVOK 11/08 Q1032 NOSIG
ZHHH,2021-10-16 23:00,ZHHH 162300Z 03002MPS 350V050 CAVOK 10/07 Q1033 NOSIG
ZHHH,2021-10-17 00:00,ZHHH 170000Z 03004MPS 330V050 CAVOK 11/07 Q1033 NOSIG
ZHHH,2021-10-17 01:00,ZHHH 170100Z 02003MPS 330V040 CAVOK 11/07 Q1034 NOSIG
ZHHH,2021-10-17 02:00,ZHHH 170200Z 05003MPS 010V090 CAVOK 12/07 Q1033 NOSIG
ZHHH,2021-10-17 03:00,ZHHH 170300Z 05002MPS 350V090 CAVOK 13/08 Q1033 NOSIG
ZHHH,2021-10-17 04:00,ZHHH 170400Z 05002MPS 350V120 CAVOK 14/06 Q1032 NOSIG
ZHHH,2021-10-17 05:00,ZHHH 170500Z 08003MPS 020V120 CAVOK 15/06 Q1030 NOSIG
ZHHH,2021-10-17 06:00,ZHHH 170600Z 11003MPS 050V150 CAVOK 15/07 Q1029 NOSIG
ZHHH,2021-10-17 07:00,ZHHH 170700Z VRB01MPS CAVOK 15/06 Q1029 NOSIG
ZHHH,2021-10-17 08:00,ZHHH 170800Z VRB01MPS CAVOK 15/06 Q1028 NOSIG
ZHHH,2021-10-17 09:00,ZHHH 170900Z VRB01MPS CAVOK 15/07 Q1028 NOSIG
ZHHH,2021-10-17 10:00,ZHHH 171000Z 20002MPS 160V230 CAVOK 14/06 Q1027 NOSIG
ZHHH,2021-10-17 11:00,ZHHH 171100Z VRB01MPS CAVOK 14/09 Q1027 NOSIG
ZHHH,2021-10-17 12:00,ZHHH 171200Z 00000MPS CAVOK 13/10 Q1027 NOSIG
ZHHH,2021-10-17 13:00,ZHHH 171300Z VRB01MPS CAVOK 13/08 Q1027 NOSIG
ZHHH,2021-10-17 14:00,ZHHH 171400Z VRB01MPS CAVOK 13/11 Q1027 NOSIG
ZHHH,2021-10-17 15:00,ZHHH 171500Z 03002MPS CAVOK 13/09 Q1027 NOSIG
ZHHH,2021-10-17 16:00,ZHHH 171600Z 04001MPS 9999 -RA NSC 12/10 Q1027 NOSIG
ZHHH,2021-10-17 17:00,ZHHH 171700Z VRB01MPS 9999 -RA NSC 13/11 Q1026 NOSIG
ZHHH,2021-10-17 18:00,ZHHH 171800Z 23002MPS 9999 -RA NSC 12/11 Q1026 NOSIG
ZHHH,2021-10-17 19:00,ZHHH 171900Z VRB01MPS 9999 -RA NSC 12/10 Q1025 NOSIG
ZHHH,2021-10-17 20:00,ZHHH 172000Z 23002MPS 200V260 CAVOK 12/10 Q1025 NOSIG
ZHHH,2021-10-17 21:00,ZHHH 172100Z 21001MPS CAVOK 12/11 Q1024 NOSIG
ZHHH,2021-10-17 22:00,ZHHH 172200Z 16002MPS CAVOK 12/11 Q1024 NOSIG
ZHHH,2021-10-17 23:00,ZHHH 172300Z VRB01MPS CAVOK 13/11 Q1024 NOSIG
ZHHH,2021-10-18 00:00,ZHHH 180000Z 21002MPS CAVOK 13/11 Q1024 NOSIG
ZHHH,2021-10-18 01:00,ZHHH 180100Z 20002MPS 140V240 CAVOK 14/11 Q1024 NOSIG
ZHHH,2021-10-18 02:00,ZHHH 180200Z 22003MPS 9999 SCT030 14/12 Q1024 NOSIG
ZHHH,2021-10-18 03:00,ZHHH 180300Z 23003MPS 180V270 9999 SCT030 15/11 Q1024 NOSIG
ZHHH,2021-10-18 04:00,ZHHH 180400Z 25002MPS 200V310 9999 SCT030 15/10 Q1024 NOSIG
ZHHH,2021-10-18 05:00,ZHHH 180500Z 29002MPS 220V360 9999 SCT030 OVC040 15/10 Q1023 NOSIG
ZHHH,2021-10-18 06:00,ZHHH 180600Z 26002MPS 220V290 9999 BKN030 15/10 Q1022 NOSIG
ZHHH,2021-10-18 07:00,ZHHH 180700Z 23002MPS 200V260 9999 SCT040 15/09 Q1021 NOSIG
ZHHH,2021-10-18 08:00,ZHHH 180800Z VRB01MPS CAVOK 15/11 Q1021 NOSIG
ZHHH,2021-10-18 09:00,ZHHH 180900Z VRB01MPS CAVOK 15/11 Q1021 NOSIG
ZHHH,2021-10-18 10:00,ZHHH 181000Z VRB01MPS CAVOK 14/11 Q1021 NOSIG
ZHHH,2021-10-18 11:00,ZHHH 181100Z 00000MPS CAVOK 13/12 Q1022 NOSIG
ZHHH,2021-10-18 12:00,ZHHH 181200Z VRB01MPS CAVOK 14/11 Q1022 NOSIG
ZHHH,2021-10-18 13:00,ZHHH 181300Z VRB01MPS CAVOK 13/12 Q1023 NOSIG
ZHHH,2021-10-18 14:00,ZHHH 181400Z VRB01MPS CAVOK 13/11 Q1024 NOSIG
ZHHH,2021-10-18 15:00,ZHHH 181500Z VRB01MPS CAVOK 12/12 Q1023 NOSIG
ZHHH,2021-10-18 16:00,ZHHH 181600Z 22001MPS CAVOK 12/12 Q1023 NOSIG
ZHHH,2021-10-18 17:00,ZHHH 181700Z 04002MPS 7000 NSC 11/11 Q1023 NOSIG
ZHHH,2021-10-18 18:00,ZHHH 181800Z 06002MPS 7000 NSC 11/11 Q1023 NOSIG
ZHHH,2021-10-18 19:00,ZHHH 181900Z 06003MPS 7000 NSC 12/12 Q1022 NOSIG
ZHHH,2021-10-18 20:00,ZHHH 182000Z VRB01MPS 7000 NSC 12/12 Q1022 NOSIG
ZHHH,2021-10-18 21:00,ZHHH 182100Z 06003MPS 7000 NSC 12/12 Q1022 NOSIG
ZHHH,2021-10-18 22:00,ZHHH 182200Z 06004MPS 7000 NSC 12/12 Q1023 NOSIG
ZHHH,2021-10-18 23:00,ZHHH 182300Z 10003MPS 070V130 6000 NSC 12/11 Q1023 NOSIG
ZHHH,2021-10-19 00:00,ZHHH 190000Z 08003MPS 6000 NSC 13/12 Q1024 NOSIG
ZHHH,2021-10-19 01:00,ZHHH 190100Z 08003MPS 050V110 6000 NSC 13/12 Q1025 NOSIG
ZHHH,2021-10-19 02:00,ZHHH 190200Z 06003MPS 7000 NSC 14/11 Q1025 NOSIG
ZHHH,2021-10-19 03:00,ZHHH 190300Z 08003MPS 050V110 7000 NSC 14/11 Q1024 NOSIG
ZHHH,2021-10-19 04:00,ZHHH 190400Z 09003MPS 7000 NSC 15/11 Q1024 NOSIG
ZHHH,2021-10-19 05:00,ZHHH 190500Z 09002MPS 040V140 8000 NSC 15/11 Q1023 NOSIG
ZHHH,2021-10-19 06:00,ZHHH 190600Z VRB01MPS 7000 NSC 15/12 Q1022 NOSIG
ZHHH,2021-10-19 07:00,ZHHH 190700Z 02002MPS 350V060 7000 -RA NSC 15/13 Q1022 NOSIG
ZHHH,2021-10-19 08:00,ZHHH 190800Z VRB01MPS 8000 NSC 15/13 Q1023 NOSIG
ZHHH,2021-10-19 09:00,ZHHH 190900Z VRB01MPS 8000 NSC 14/14 Q1023 NOSIG
ZHHH,2021-10-19 10:00,ZHHH 191000Z 02002MPS 350V050 8000 -RA NSC 14/14 Q1023 NOSIG
ZHHH,2021-10-19 11:00,ZHHH 191100Z 01002MPS 330V050 8000 -RA NSC 14/14 Q1024 NOSIG
ZHHH,2021-10-19 12:00,ZHHH 191200Z 02002MPS 330V060 8000 NSC 14/14 Q1024 NOSIG
ZHHH,2021-10-19 13:00,ZHHH 191300Z 03002MPS CAVOK 14/13 Q1024 NOSIG
ZHHH,2021-10-19 14:00,ZHHH 191400Z 03003MPS 360V060 9999 -RA NSC 13/13 Q1025 NOSIG
ZHHH,2021-10-19 15:00,ZHHH 191500Z 03004MPS 9999 -RA NSC 14/13 Q1024 NOSIG
ZHHH,2021-10-19 16:00,ZHHH 191600Z 04004MPS 8000 -RA NSC 13/13 Q1023 NOSIG
ZHHH,2021-10-19 17:00,ZHHH 191700Z 03003MPS 350V060 6000 NSC 13/13 Q1023 NOSIG
ZHHH,2021-10-19 18:00,ZHHH 191800Z 04004MPS 360V060 5000 BR NSC 13/13 Q1023 NOSIG
ZHHH,2021-10-19 19:00,ZHHH 191900Z 04005MPS 360V060 5000 -RA BR NSC 12/12 Q1023 NOSIG
ZHHH,2021-10-19 20:00,ZHHH 192000Z 04004MPS 5000 -RA BR NSC 12/12 Q1022 NOSIG
ZHHH,2021-10-19 21:00,ZHHH 192100Z 04004MPS 4000 -RA BR NSC 12/12 Q1022 NOSIG
ZHHH,2021-10-19 22:00,ZHHH 192200Z 02003MPS 340V050 4000 -RA BR NSC 12/12 Q1023 NOSIG
ZHHH,2021-10-19 23:00,ZHHH 192300Z 03003MPS 2000 -RA BR NSC 12/12 Q1023 BECMG TL0050 3000
ZHHH,2021-10-20 00:00,ZHHH 200000Z 03003MPS 350V060 1500 -RA BR SCT020 12/12 Q1023 NOSIG
ZHHH,2021-10-20 01:00,ZHHH 200100Z 03003MPS 360V060 2200 -RA BR SCT010 OVC033 12/12 Q1024 NOSIG
ZHHH,2021-10-20 02:00,ZHHH 200200Z 02003MPS 350V060 2600 -RA BR SCT008 OVC033 12/12 Q1024 NOSIG
ZHHH,2021-10-20 03:00,ZHHH 200300Z 02004MPS 340V060 2600 -RA BR SCT007 OVC033 12/12 Q1024 BECMG TL0420 3000
ZHHH,2021-10-20 04:00,ZHHH 200400Z 03004MPS 360V080 2800 -RA BR SCT007 OVC033 12/12 Q1023 BECMG TL0450 3000
ZHHH,2021-10-20 05:00,ZHHH 200500Z 04005MPS 6000 -RA SCT010 OVC033 12/12 Q1022 NOSIG
ZHHH,2021-10-20 06:00,ZHHH 200600Z 04005MPS 010V070 5000 -RA BR SCT007 OVC033 12/12 Q1022 NOSIG
ZHHH,2021-10-20 07:00,ZHHH 200700Z 04005MPS 010V070 7000 -RA SCT007 SCT010 OVC033 12/12 Q1022 NOSIG
ZHHH,2021-10-20 08:00,ZHHH 200800Z 03004MPS 350V070 7000 -RA SCT008 OVC033 11/11 Q1023 NOSIG
ZHHH,2021-10-20 09:00,ZHHH 200900Z 03004MPS 330V060 7000 -RA SCT008 OVC033 11/11 Q1023 NOSIG
ZHHH,2021-10-20 10:00,ZHHH 201000Z 03003MPS 350V050 8000 -RA SCT009 OVC040 11/11 Q1023 NOSIG
ZHHH,2021-10-20 11:00,ZHHH 201100Z 02002MPS 340V060 9999 -RA SCT005 OVC040 10/10 Q1024 NOSIG
ZHHH,2021-10-20 12:00,ZHHH 201200Z 02002MPS 9999 -RA FEW010 10/10 Q1024 NOSIG
ZHHH,2021-10-20 13:00,ZHHH 201300Z 02002MPS 330V060 9999 -RA FEW010 10/10 Q1024 NOSIG
ZHHH,2021-10-20 14:00,ZHHH 201400Z 02002MPS 340V050 9999 -RA FEW010 10/10 Q1025 NOSIG
ZHHH,2021-10-20 15:00,ZHHH 201500Z VRB01MPS 9999 -RA SCT005 10/10 Q1024 NOSIG
ZHHH,2021-10-20 16:00,ZHHH 201600Z VRB01MPS 9999 -RA SCT005 10/10 Q1024 NOSIG
ZHHH,2021-10-20 17:00,ZHHH 201700Z 36002MPS 320V050 8000 FEW008 10/10 Q1024 NOSIG
ZHHH,2021-10-20 18:00,ZHHH 201800Z 02002MPS 340V050 7000 SCT008 10/10 Q1024 NOSIG
ZHHH,2021-10-20 19:00,ZHHH 201900Z 36002MPS 280V050 7000 SCT006 SCT008 10/10 Q1023 NOSIG
ZHHH,2021-10-20 20:00,ZHHH 202000Z 03002MPS 7000 SCT006 SCT008 10/10 Q1024 NOSIG
ZHHH,2021-10-20 21:00,ZHHH 202100Z 03002MPS 360V060 8000 SCT006 BKN020 10/10 Q1024 NOSIG
ZHHH,2021-10-20 22:00,ZHHH 202200Z 04002MPS CAVOK 10/10 Q1024 NOSIG
ZHHH,2021-10-20 23:00,ZHHH 202300Z 04002MPS 360V060 CAVOK 10/10 Q1024 NOSIG
ZHHH,2021-10-21 00:00,ZHHH 210000Z 02003MPS 340V060 CAVOK 10/10 Q1025 NOSIG
ZHHH,2021-10-21 01:00,ZHHH 210100Z 05003MPS 360V070 9999 SCT017 11/10 Q1026 NOSIG
ZHHH,2021-10-21 02:00,ZHHH 210200Z 04003MPS 350V090 9999 SCT020 11/10 Q1026 NOSIG
ZHHH,2021-10-21 03:00,ZHHH 210300Z VRB01MPS 9999 FEW020 12/10 Q1026 NOSIG
ZHHH,2021-10-21 04:00,ZHHH 210400Z 22002MPS 180V250 9999 FEW020 13/10 Q1026 NOSIG
ZHHH,2021-10-21 05:00,ZHHH 210500Z 28002MPS 220V340 9999 FEW033 13/11 Q1025 NOSIG
ZHHH,2021-10-21 06:00,ZHHH 210600Z 25002MPS 170V300 CAVOK 15/11 Q1024 NOSIG
ZHHH,2021-10-21 07:00,ZHHH 210700Z VRB01MPS 9999 FEW020 15/10 Q1024 NOSIG
ZHHH,2021-10-21 08:00,ZHHH 210800Z 24002MPS 180V280 CAVOK 16/10 Q1024 NOSIG
ZHHH,2021-10-21 09:00,ZHHH 210900Z VRB01MPS CAVOK 16/11 Q1024 NOSIG
ZHHH,2021-10-21 10:00,ZHHH 211000Z 18002MPS CAVOK 15/11 Q1024 NOSIG
ZHHH,2021-10-21 11:00,ZHHH 211100Z 19002MPS 150V210 CAVOK 15/12 Q1025 NOSIG
ZHHH,2021-10-21 12:00,ZHHH 211200Z 18002MPS 150V230 CAVOK 15/12 Q1025 NOSIG
ZHHH,2021-10-21 13:00,ZHHH 211300Z 24001MPS CAVOK 13/13 Q1026 NOSIG
ZHHH,2021-10-21 14:00,ZHHH 211400Z 26001MPS CAVOK 13/13 Q1026 NOSIG
ZHHH,2021-10-21 15:00,ZHHH 211500Z 36001MPS CAVOK 13/13 Q1026 NOSIG
ZHHH,2021-10-21 16:00,ZHHH 211600Z 04001MPS CAVOK 13/13 Q1026 NOSIG
ZHHH,2021-10-21 17:00,ZHHH 211700Z 02002MPS 8000 NSC 13/13 Q1026 NOSIG
ZHHH,2021-10-21 18:00,ZHHH 211800Z 03002MPS 8000 NSC 13/13 Q1026 NOSIG
ZHHH,2021-10-21 19:00,ZHHH 211900Z 03001MPS 8000 NSC 12/12 Q1026 NOSIG
ZHHH,2021-10-21 20:00,ZHHH 212000Z 02001MPS 8000 NSC 12/12 Q1026 NOSIG
ZHHH,2021-10-21 21:00,ZHHH 212100Z VRB01MPS CAVOK 11/11 Q1027 NOSIG
ZHHH,2021-10-21 22:00,ZHHH 212200Z 06001MPS CAVOK 11/11 Q1027 NOSIG
ZHHH,2021-10-21 23:00,ZHHH 212300Z 09002MPS 7000 NSC 12/12 Q1028 NOSIG
ZHHH,2021-10-22 00:00,ZHHH 220000Z 08002MPS 7000 NSC 13/12 Q1028 NOSIG
ZHHH,2021-10-22 01:00,ZHHH 220100Z 07003MPS 040V100 7000 NSC 14/13 Q1029 NOSIG
ZHHH,2021-10-22 02:00,ZHHH 220200Z 04002MPS 350V080 7000 NSC 15/13 Q1030 NOSIG
ZHHH,2021-10-22 03:00,ZHHH 220300Z 04003MPS 010V080 7000 NSC 16/12 Q1030 NOSIG
ZHHH,2021-10-22 04:00,ZHHH 220400Z 07004MPS 030V090 7000 NSC 17/12 Q1028 NOSIG
ZHHH,2021-10-22 05:00,ZHHH 220500Z 04004MPS 360V090 7000 NSC 18/09 Q1028 NOSIG
ZHHH,2021-10-22 06:00,ZHHH 220600Z 04003MPS 350V080 7000 NSC 18/08 Q1027 NOSIG
ZHHH,2021-10-22 07:00,ZHHH 220700Z 04004MPS 010V070 CAVOK 18/08 Q1027 NOSIG
ZHHH,2021-10-22 08:00,ZHHH 220800Z 07004MPS CAVOK 18/07 Q1027 NOSIG
ZHHH,2021-10-22 09:00,ZHHH 220900Z 06002MPS 010V080 CAVOK 17/09 Q1027 NOSIG
ZHHH,2021-10-22 10:00,ZHHH 221000Z 04003MPS CAVOK 16/07 Q1027 NOSIG
ZHHH,2021-10-22 11:00,ZHHH 221100Z 04003MPS CAVOK 14/07 Q1027 NOSIG
ZHHH,2021-10-22 12:00,ZHHH 221200Z 03002MPS CAVOK 13/07 Q1028 NOSIG
ZHHH,2021-10-22 13:00,ZHHH 221300Z 05002MPS 7000 NSC 12/10 Q1027 NOSIG
ZHHH,2021-10-22 14:00,ZHHH 221400Z 05002MPS 7000 NSC 12/10 Q1028 NOSIG
ZHHH,2021-10-22 15:00,ZHHH 221500Z 02001MPS 7000 NSC 11/10 Q1028 NOSIG
ZHHH,2021-10-22 16:00,ZHHH 221600Z 04002MPS 7000 NSC 11/10 Q1028 NOSIG
ZHHH,2021-10-22 17:00,ZHHH 221700Z 06003MPS 6000 NSC 11/10 Q1028 NOSIG
ZHHH,2021-10-22 18:00,ZHHH 221800Z 04002MPS 6000 NSC 11/10 Q1027 NOSIG
ZHHH,2021-10-22 19:00,ZHHH 221900Z VRB01MPS 4500 BR NSC 10/10 Q1027 NOSIG
ZHHH,2021-10-22 20:00,ZHHH 222000Z 11002MPS 4000 BR NSC 10/10 Q1026 NOSIG
ZHHH,2021-10-22 21:00,ZHHH 222100Z 10004MPS 4000 BR NSC 11/10 Q1026 BECMG TL2240 2000
ZHHH,2021-10-22 22:00,ZHHH 222200Z 09003MPS 4000 BR NSC 11/10 Q1027 BECMG TL2240 2000
ZHHH,2021-10-22 23:00,ZHHH 222300Z 08003MPS 2200 BR NSC 10/10 Q1027 BECMG TL0050 3000
ZHHH,2021-10-23 00:00,ZHHH 230000Z 07003MPS 2500 BR NSC 12/10 Q1028 BECMG TL0050 3000
ZHHH,2021-10-23 01:00,ZHHH 230100Z 08003MPS 6000 NSC 14/11 Q1028 NOSIG
ZHHH,2021-10-23 02:00,ZHHH 230200Z 09003MPS 340V140 6000 NSC 16/10 Q1028 NOSIG
ZHHH,2021-10-23 03:00,ZHHH 230300Z 13004MPS 100V170 6000 NSC 17/08 Q1028 NOSIG
ZHHH,2021-10-23 04:00,ZHHH 230400Z 10004MPS 030V140 7000 NSC 18/06 Q1027 NOSIG
ZHHH,2021-10-23 05:00,ZHHH 230500Z 12003MPS 070V160 8000 NSC 19/05 Q1026 NOSIG
ZHHH,2021-10-23 06:00,ZHHH 230600Z 12002MPS 060V190 9000 NSC 19/04 Q1025 NOSIG
ZHHH,2021-10-23 07:00,ZHHH 230700Z VRB01MPS CAVOK 20/04 Q1025 NOSIG
ZHHH,2021-10-23 08:00,ZHHH 230800Z VRB01MPS CAVOK 19/06 Q1025 NOSIG
ZHHH,2021-10-23 09:00,ZHHH 230900Z 25001MPS CAVOK 18/08 Q1025 NOSIG
ZHHH,2021-10-23 10:00,ZHHH 231000Z 24001MPS CAVOK 16/08 Q1025 NOSIG
ZHHH,2021-10-23 11:00,ZHHH 231100Z 28001MPS CAVOK 14/10 Q1026 NOSIG
ZHHH,2021-10-23 12:00,ZHHH 231200Z 29001MPS CAVOK 14/13 Q1026 NOSIG
ZHHH,2021-10-23 13:00,ZHHH 231300Z 36002MPS CAVOK 13/12 Q1026 NOSIG
ZHHH,2021-10-23 14:00,ZHHH 231400Z 01002MPS CAVOK 13/11 Q1026 NOSIG
ZHHH,2021-10-23 15:00,ZHHH 231500Z 00000MPS CAVOK 12/12 Q1026 NOSIG
ZHHH,2021-10-23 16:00,ZHHH 231600Z 33001MPS CAVOK 12/12 Q1026 NOSIG
ZHHH,2021-10-23 17:00,ZHHH 231700Z 02002MPS CAVOK 11/11 Q1026 NOSIG
ZHHH,2021-10-23 18:00,ZHHH 231800Z VRB01MPS CAVOK 11/11 Q1026 NOSIG
ZHHH,2021-10-23 19:00,ZHHH 231900Z 34001MPS 7000 NSC 10/10 Q1026 NOSIG
ZHHH,2021-10-23 20:00,ZHHH 232000Z 33002MPS 300V360 6000 NSC 11/11 Q1026 NOSIG
ZHHH,2021-10-23 21:00,ZHHH 232100Z 05001MPS 6000 NSC 10/10 Q1026 BECMG TL2250 2800
ZHHH,2021-10-23 22:00,ZHHH 232200Z VRB01MPS 5000 BR NSC 09/09 Q1026 BECMG TL2250 2800
ZHHH,2021-10-23 23:00,ZHHH 232300Z 36001MPS 5000 BR NSC 09/09 Q1026 NOSIG
ZHHH,2021-10-24 00:00,ZHHH 240000Z 34002MPS 300V030 5000 BR NSC 12/12 Q1027 NOSIG
ZHHH,2021-10-24 01:00,ZHHH 240100Z VRB01MPS 4500 BR NSC 14/12 Q1027 NOSIG
ZHHH,2021-10-24 02:00,ZHHH 240200Z VRB01MPS 6000 NSC 16/10 Q1027 NOSIG
ZHHH,2021-10-24 03:00,ZHHH 240300Z 26002MPS 230V310 6000 NSC 17/10 Q1027 NOSIG
ZHHH,2021-10-24 04:00,ZHHH 240400Z 25002MPS 220V300 8000 NSC 18/09 Q1026 NOSIG
ZHHH,2021-10-24 05:00,ZHHH 240500Z VRB02MPS 8000 NSC 20/08 Q1025 NOSIG
ZHHH,2021-10-24 06:00,ZHHH 240600Z VRB01MPS 7000 NSC 20/08 Q1024 NOSIG
ZHHH,2021-10-24 07:00,ZHHH 240700Z 24002MPS 180V270 8000 NSC 20/05 Q1023 NOSIG
ZHHH,2021-10-24 08:00,ZHHH 240800Z 26002MPS 220V330 9000 NSC 21/06 Q1023 NOSIG
ZHHH,2021-10-24 09:00,ZHHH 240900Z VRB01MPS 9000 NSC 20/08 Q1023 NOSIG
ZHHH,2021-10-24 10:00,ZHHH 241000Z 23001MPS CAVOK 16/08 Q1023 NOSIG
ZHHH,2021-10-24 11:00,ZHHH 241100Z VRB01MPS CAVOK 15/08 Q1024 NOSIG
ZHHH,2021-10-24 12:00,ZHHH 241200Z 22002MPS 170V240 CAVOK 13/06 Q1024 NOSIG
ZHHH,2021-10-24 13:00,ZHHH 241300Z VRB01MPS CAVOK 14/10 Q1024 NOSIG
ZHHH,2021-10-24 14:00,ZHHH 241400Z 00000MPS 7000 NSC 12/12 Q1024 NOSIG
ZHHH,2021-10-24 15:00,ZHHH 241500Z 05002MPS 7000 NSC 13/10 Q1024 NOSIG
ZHHH,2021-10-24 16:00,ZHHH 241600Z 05002MPS CAVOK 13/09 Q1024 NOSIG
ZHHH,2021-10-24 17:00,ZHHH 241700Z 05002MPS CAVOK 12/10 Q1024 NOSIG
ZHHH,2021-10-24 18:00,ZHHH 241800Z 06002MPS CAVOK 12/10 Q1024 NOSIG
ZHHH,2021-10-24 19:00,ZHHH 241900Z 04002MPS 8000 NSC 12/10 Q1024 NOSIG
ZHHH,2021-10-24 20:00,ZHHH 242000Z 36002MPS 8000 NSC 10/10 Q1023 NOSIG
ZHHH,2021-10-24 21:00,ZHHH 242100Z 05002MPS 8000 NSC 10/10 Q1023 NOSIG
ZHHH,2021-10-24 22:00,ZHHH 242200Z 07002MPS 010V100 7000 NSC 12/10 Q1023 NOSIG
ZHHH,2021-10-24 23:00,ZHHH 242300Z 08002MPS 050V110 7000 NSC 11/10 Q1024 NOSIG
ZHHH,2021-10-25 00:00,ZHHH 250000Z 11002MPS 080V140 7000 NSC 13/10 Q1024 NOSIG
ZHHH,2021-10-25 01:00,ZHHH 250100Z 09002MPS 050V120 6000 NSC 15/10 Q1024 NOSIG
ZHHH,2021-10-25 02:00,ZHHH 250200Z 11002MPS 060V150 6000 NSC 17/11 Q1024 NOSIG
ZHHH,2021-10-25 03:00,ZHHH 250300Z VRB01MPS 6000 NSC 19/11 Q1024 NOSIG
ZHHH,2021-10-25 04:00,ZHHH 250400Z VRB01MPS 6000 NSC 20/12 Q1023 NOSIG
ZHHH,2021-10-25 05:00,ZHHH 250500Z VRB03MPS 9000 NSC 21/08 Q1021 NOSIG
ZHHH,2021-10-25 06:00,ZHHH 250600Z 15003MPS 100V200 9000 NSC 21/08 Q1020 NOSIG
ZHHH,2021-10-25 07:00,ZHHH 250700Z 10002MPS 030V160 9000 NSC 22/09 Q1020 NOSIG
ZHHH,2021-10-25 08:00,ZHHH 250800Z 10002MPS 030V150 9000 NSC 21/09 Q1019 NOSIG
ZHHH,2021-10-25 09:00,ZHHH 250900Z 12003MPS 080V140 CAVOK 21/07 Q1019 NOSIG
ZHHH,2021-10-25 10:00,ZHHH 251000Z 11003MPS 060V150 CAVOK 20/08 Q1019 NOSIG
ZHHH,2021-10-25 11:00,ZHHH 251100Z 11002MPS CAVOK 19/08 Q1019 NOSIG
ZHHH,2021-10-25 12:00,ZHHH 251200Z VRB01MPS CAVOK 15/10 Q1020 NOSIG
ZHHH,2021-10-25 13:00,ZHHH 251300Z VRB01MPS CAVOK 13/11 Q1020 NOSIG
ZHHH,2021-10-25 14:00,ZHHH 251400Z 06002MPS CAVOK 14/10 Q1019 NOSIG
ZHHH,2021-10-25 15:00,ZHHH 251500Z 05002MPS CAVOK 15/10 Q1020 NOSIG
ZHHH,2021-10-25 16:00,ZHHH 251600Z 06002MPS 8000 NSC 14/11 Q1020 NOSIG
ZHHH,2021-10-25 17:00,ZHHH 251700Z 06002MPS 8000 NSC 13/11 Q1020 NOSIG
ZHHH,2021-10-25 18:00,ZHHH 251800Z 09003MPS 7000 NSC 15/11 Q1020 NOSIG
ZHHH,2021-10-25 19:00,ZHHH 251900Z 04003MPS 7000 NSC 13/11 Q1020 NOSIG
ZHHH,2021-10-25 20:00,ZHHH 252000Z 07003MPS 7000 NSC 13/11 Q1019 NOSIG
ZHHH,2021-10-25 21:00,ZHHH 252100Z 04002MPS 6000 NSC 12/12 Q1019 NOSIG
ZHHH,2021-10-25 22:00,ZHHH 252200Z 10003MPS 6000 NSC 13/12 Q1019 NOSIG
ZHHH,2021-10-25 23:00,ZHHH 252300Z 09003MPS 4000 BR NSC 13/12 Q1020 NOSIG
ZHHH,2021-10-26 00:00,ZHHH 260000Z 07003MPS 4000 BR NSC 14/12 Q1021 NOSIG
ZHHH,2021-10-26 01:00,ZHHH 260100Z 09003MPS 060V120 4000 BR NSC 15/12 Q1021 NOSIG
ZHHH,2021-10-26 02:00,ZHHH 260200Z 10002MPS 060V140 7000 NSC 16/11 Q1022 NOSIG
ZHHH,2021-10-26 03:00,ZHHH 260300Z 08002MPS 040V120 7000 NSC 17/12 Q1021 NOSIG
ZHHH,2021-10-26 04:00,ZHHH 260400Z 05002MPS 020V110 7000 NSC 18/12 Q1021 NOSIG
ZHHH,2021-10-26 05:00,ZHHH 260500Z 26002MPS 230V330 CAVOK 19/14 Q1020 NOSIG
ZHHH,2021-10-26 06:00,ZHHH 260600Z 27003MPS 220V310 CAVOK 20/13 Q1019 NOSIG
ZHHH,2021-10-26 07:00,ZHHH 260700Z 34002MPS 240V040 CAVOK 22/11 Q1019 NOSIG
ZHHH,2021-10-26 08:00,ZHHH 260800Z 34002MPS 300V050 CAVOK 20/12 Q1019 NOSIG
ZHHH,2021-10-26 09:00,ZHHH 260900Z 35002MPS 300V060 CAVOK 19/12 Q1019 NOSIG
ZHHH,2021-10-26 10:00,ZHHH 261000Z 00000MPS CAVOK 18/14 Q1020 NOSIG
ZHHH,2021-10-26 11:00,ZHHH 261100Z VRB01MPS CAVOK 18/12 Q1020 NOSIG
ZHHH,2021-10-26 12:00,ZHHH 261200Z VRB01MPS CAVOK 17/13 Q1021 NOSIG
ZHHH,2021-10-26 13:00,ZHHH 261300Z 36002MPS 320V040 CAVOK 17/12 Q1021 NOSIG
ZHHH,2021-10-26 14:00,ZHHH 261400Z 36001MPS CAVOK 16/13 Q1021 NOSIG
ZHHH,2021-10-26 15:00,ZHHH 261500Z VRB01MPS CAVOK 16/14 Q1022 NOSIG
ZHHH,2021-10-26 16:00,ZHHH 261600Z 34002MPS 290V070 6000 NSC 16/14 Q1022 NOSIG
ZHHH,2021-10-26 17:00,ZHHH 261700Z VRB01MPS 6000 NSC 16/14 Q1022 NOSIG
ZHHH,2021-10-26 18:00,ZHHH 261800Z 34002MPS 6000 NSC 16/14 Q1022 NOSIG
ZHHH,2021-10-26 19:00,ZHHH 261900Z 34002MPS 300V030 6000 NSC 15/15 Q1022 NOSIG
ZHHH,2021-10-26 20:00,ZHHH 262000Z VRB01MPS 6000 NSC 15/14 Q1022 NOSIG
ZHHH,2021-10-26 21:00,ZHHH 262100Z VRB01MPS 6000 NSC 15/14 Q1022 NOSIG
ZHHH,2021-10-26 22:00,ZHHH 262200Z 00000MPS 8000 NSC 15/15 Q1022 NOSIG
ZHHH,2021-10-26 23:00,ZHHH 262300Z 36001MPS 6000 NSC 14/14 Q1023 NOSIG
ZHHH,2021-10-27 00:00,ZHHH 270000Z VRB01MPS 6000 NSC 15/15 Q1023 NOSIG
ZHHH,2021-10-27 01:00,ZHHH 270100Z VRB02MPS 6000 NSC 17/14 Q1024 NOSIG
ZHHH,2021-10-27 02:00,ZHHH 270200Z 29002MPS 240V330 6000 NSC 18/15 Q1024 NOSIG
ZHHH,2021-10-27 03:00,ZHHH 270300Z 04002MPS 340V090 7000 NSC 21/13 Q1024 NOSIG
ZHHH,2021-10-27 04:00,ZHHH 270400Z 08002MPS 030V120 7000 NSC 22/12 Q1023 NOSIG
ZHHH,2021-10-27 05:00,ZHHH 270500Z VRB02MPS 7000 NSC 23/11 Q1022 NOSIG
ZHHH,2021-10-27 06:00,ZHHH 270600Z 26003MPS 8000 NSC 23/11 Q1021 NOSIG
ZHHH,2021-10-27 07:00,ZHHH 270700Z 25002MPS 230V290 8000 FEW033 23/10 Q1021 NOSIG
ZHHH,2021-10-27 08:00,ZHHH 270800Z 25002MPS CAVOK 23/10 Q1021 NOSIG
ZHHH,2021-10-27 09:00,ZHHH 270900Z 00000MPS CAVOK 23/10 Q1021 NOSIG
ZHHH,2021-10-27 10:00,ZHHH 271000Z VRB01MPS CAVOK 18/11 Q1021 NOSIG
ZHHH,2021-10-27 11:00,ZHHH 271100Z VRB01MPS CAVOK 18/15 Q1021 NOSIG
ZHHH,2021-10-27 12:00,ZHHH 271200Z 04002MPS CAVOK 18/14 Q1022 NOSIG
ZHHH,2021-10-27 13:00,ZHHH 271300Z 04002MPS 8000 NSC 18/12 Q1022 NOSIG
ZHHH,2021-10-27 14:00,ZHHH 271400Z 05002MPS 8000 NSC 17/12 Q1022 NOSIG
ZHHH,2021-10-27 15:00,ZHHH 271500Z 04002MPS 8000 NSC 17/11 Q1022 NOSIG
ZHHH,2021-10-27 16:00,ZHHH 271600Z 01002MPS 320V060 8000 NSC 16/12 Q1022 NOSIG
ZHHH,2021-10-27 17:00,ZHHH 271700Z 02001MPS 7000 NSC 14/13 Q1022 NOSIG
ZHHH,2021-10-27 18:00,ZHHH 271800Z 36001MPS 6000 NSC 15/12 Q1022 NOSIG
ZHHH,2021-10-27 19:00,ZHHH 271900Z 34001MPS 6000 NSC 14/14 Q1022 NOSIG
ZHHH,2021-10-27 20:00,ZHHH 272000Z 33001MPS 4500 BR NSC 14/14 Q1022 NOSIG
ZHHH,2021-10-27 21:00,ZHHH 272100Z VRB01MPS 4000 BR NSC 14/14 Q1022 NOSIG
ZHHH,2021-10-27 22:00,ZHHH 272200Z 35001MPS 4000 BR NSC 14/14 Q1023 BECMG TL2250 2800
ZHHH,2021-10-27 23:00,ZHHH 272300Z 34001MPS 2000 R04L/1300N R04R/P2000 BR NSC 14/14 Q1023 BECMG TL0050 3000
ZHHH,2021-10-28 00:00,ZHHH 280000Z VRB01MPS 1800 R04L/1300V1400U R04R/1700U BR NSC 15/15 Q1024 BECMG TL0050 3000
ZHHH,2021-10-28 01:00,ZHHH 280100Z VRB01MPS 2500 BR NSC 18/14 Q1025 BECMG TL0140 3000
ZHHH,2021-10-28 02:00,ZHHH 280200Z VRB02MPS 4000 HZ NSC 19/13 Q1024 NOSIG
ZHHH,2021-10-28 03:00,ZHHH 280300Z 27002MPS 240V300 4000 HZ NSC 19/14 Q1024 NOSIG
ZHHH,2021-10-28 04:00,ZHHH 280400Z 26002MPS 230V310 4000 HZ NSC 20/13 Q1023 NOSIG
ZHHH,2021-10-28 05:00,ZHHH 280500Z 26002MPS 4000 HZ NSC 21/12 Q1022 NOSIG
ZHHH,2021-10-28 06:00,ZHHH 280600Z 24002MPS 220V280 4000 HZ NSC 22/12 Q1021 NOSIG
ZHHH,2021-10-28 07:00,ZHHH 280700Z VRB02MPS 6000 NSC 23/12 Q1021 NOSIG
ZHHH,2021-10-28 08:00,ZHHH 280800Z 30002MPS 250V350 7000 NSC 23/12 Q1021 NOSIG
ZHHH,2021-10-28 09:00,ZHHH 280900Z 00000MPS 8000 NSC 22/14 Q1021 NOSIG
ZHHH,2021-10-28 10:00,ZHHH 281000Z 31001MPS 6000 NSC 18/14 Q1021 NOSIG
ZHHH,2021-10-28 11:00,ZHHH 281100Z 35001MPS 7000 NSC 17/16 Q1022 NOSIG
ZHHH,2021-10-28 12:00,ZHHH 281200Z 00000MPS 7000 NSC 17/16 Q1023 NOSIG
ZHHH,2021-10-28 13:00,ZHHH 281300Z 29001MPS 6000 NSC 16/16 Q1023 NOSIG
ZHHH,2021-10-28 14:00,ZHHH 281400Z 04002MPS 6000 NSC 17/14 Q1023 NOSIG
ZHHH,2021-10-28 15:00,ZHHH 281500Z 04003MPS 7000 NSC 18/12 Q1023 NOSIG
ZHHH,2021-10-28 16:00,ZHHH 281600Z 05002MPS 8000 NSC 17/12 Q1023 NOSIG
ZHHH,2021-10-28 17:00,ZHHH 281700Z VRB01MPS 8000 NSC 16/13 Q1023 NOSIG
ZHHH,2021-10-28 18:00,ZHHH 281800Z VRB01MPS 7000 NSC 14/13 Q1022 NOSIG
ZHHH,2021-10-28 19:00,ZHHH 281900Z 08002MPS 050V110 7000 NSC 16/13 Q1022 NOSIG
ZHHH,2021-10-28 20:00,ZHHH 282000Z 07001MPS 7000 NSC 14/13 Q1022 NOSIG
ZHHH,2021-10-28 21:00,ZHHH 282100Z 04003MPS 6000 NSC 14/13 Q1022 NOSIG
ZHHH,2021-10-28 22:00,ZHHH 282200Z 06001MPS 6000 NSC 13/13 Q1023 NOSIG
ZHHH,2021-10-28 23:00,ZHHH 282300Z 06002MPS 4500 BR NSC 13/13 Q1023 NOSIG
ZHHH,2021-10-29 00:00,ZHHH 290000Z 10003MPS 4500 BR NSC 16/13 Q1024 NOSIG
ZHHH,2021-10-29 01:00,ZHHH 290100Z 10003MPS 4500 BR NSC 18/14 Q1024 NOSIG
ZHHH,2021-10-29 02:00,ZHHH 290200Z 10003MPS 070V140 4500 HZ NSC 19/14 Q1024 NOSIG
ZHHH,2021-10-29 03:00,ZHHH 290300Z VRB02MPS 4000 HZ NSC 21/15 Q1024 NOSIG
ZHHH,2021-10-29 04:00,ZHHH 290400Z 27002MPS 240V310 4000 HZ NSC 21/14 Q1023 NOSIG
ZHHH,2021-10-29 05:00,ZHHH 290500Z 30002MPS 240V360 4000 HZ NSC 22/13 Q1022 NOSIG
ZHHH,2021-10-29 06:00,ZHHH 290600Z 33002MPS 270V040 4500 HZ NSC 22/13 Q1021 NOSIG
ZHHH,2021-10-29 07:00,ZHHH 290700Z VRB01MPS 4000 HZ NSC 22/14 Q1021 NOSIG
ZHHH,2021-10-29 08:00,ZHHH 290800Z 24001MPS 4500 HZ NSC 21/13 Q1021 NOSIG
ZHHH,2021-10-29 09:00,ZHHH 290900Z 22002MPS 4500 HZ FEW040 21/15 Q1021 NOSIG
ZHHH,2021-10-29 10:00,ZHHH 291000Z 25002MPS 210V290 4500 HZ FEW040 20/15 Q1021 NOSIG
ZHHH,2021-10-29 11:00,ZHHH 291100Z 27002MPS 220V310 4500 HZ FEW040 19/15 Q1022 NOSIG
ZHHH,2021-10-29 12:00,ZHHH 291200Z VRB01MPS 4500 BR NSC 19/15 Q1022 NOSIG
ZHHH,2021-10-29 13:00,ZHHH 291300Z VRB01MPS 4500 BR NSC 18/15 Q1022 NOSIG
ZHHH,2021-10-29 14:00,ZHHH 291400Z 24002MPS 210V280 4500 BR NSC 18/16 Q1022 NOSIG
ZHHH,2021-10-29 15:00,ZHHH 291500Z VRB01MPS 4500 BR NSC 18/16 Q1022 NOSIG
ZHHH,2021-10-29 16:00,ZHHH 291600Z 30002MPS 250V350 4000 BR NSC 17/16 Q1022 NOSIG
ZHHH,2021-10-29 17:00,ZHHH 291700Z 00000MPS 4000 BR NSC 15/15 Q1022 NOSIG
ZHHH,2021-10-29 18:00,ZHHH 291800Z 21001MPS 3000 BR NSC 15/15 Q1022 NOSIG
ZHHH,2021-10-29 19:00,ZHHH 291900Z 23002MPS 2000 BR NSC 15/15 Q1022 NOSIG
ZHHH,2021-10-29 20:00,ZHHH 292000Z 23001MPS 1800 R04L/P2000 R04R/1400N BR NSC 15/15 Q1022 NOSIG
ZHHH,2021-10-29 21:00,ZHHH 292100Z 25001MPS 1500 BR NSC 14/14 Q1022 BECMG TL2150 1200
ZHHH,2021-10-29 22:00,ZHHH 292200Z 00000MPS 1200 R04L/1500D R04R/1300D BR NSC 13/13 Q1023 BECMG TL2320 0700 FG
ZHHH,2021-10-29 23:00,ZHHH 292300Z 00000MPS 0700 R04L/0700N R04R/0325V0550D FG NSC 13/13 Q1023 BECMG TL0040 1200 BR
ZHHH,2021-10-30 00:00,ZHHH 300000Z 00000MPS 0600 R04L/0325D R04R/0700V0900N FG NSC 15/15 Q1023 BECMG TL0040 1200 BR
ZHHH,2021-10-30 01:00,ZHHH 300100Z 00000MPS 1000 R04L/0800V1100U R04R/1100V1200N BR NSC 15/15 Q1024 BECMG TL0210 1800
ZHHH,2021-10-30 02:00,ZHHH 300200Z 00000MPS 1800 R04L/1300U R04R/P2000 BR NSC 17/17 Q1024 BECMG TL0310 3000
ZHHH,2021-10-30 03:00,ZHHH 300300Z 26002MPS 230V300 2500 HZ NSC 19/14 Q1024 BECMG TL0410 3000
ZHHH,2021-10-30 04:00,ZHHH 300400Z 27002MPS 250V330 2500 HZ NSC 20/15 Q1023 BECMG TL0520 3000
ZHHH,2021-10-30 05:00,ZHHH 300500Z 27002MPS 230V320 3000 HZ NSC 22/15 Q1023 NOSIG
ZHHH,2021-10-30 06:00,ZHHH 300600Z VRB01MPS 5000 HZ NSC 23/12 Q1022 NOSIG
ZHHH,2021-10-30 07:00,ZHHH 300700Z 25002MPS 6000 NSC 23/10 Q1021 NOSIG
ZHHH,2021-10-30 08:00,ZHHH 300800Z VRB01MPS 6000 NSC 23/11 Q1021 NOSIG
ZHHH,2021-10-30 09:00,ZHHH 300900Z 29001MPS 6000 FEW033 22/13 Q1021 NOSIG
ZHHH,2021-10-30 10:00,ZHHH 301000Z 36001MPS 6000 FEW033 19/12 Q1021 NOSIG
ZHHH,2021-10-30 11:00,ZHHH 301100Z 01002MPS 6000 NSC 18/12 Q1022 NOSIG
ZHHH,2021-10-30 12:00,ZHHH 301200Z VRB01MPS 6000 NSC 16/13 Q1022 NOSIG
ZHHH,2021-10-30 13:00,ZHHH 301300Z 02001MPS 5000 BR NSC 16/16 Q1023 NOSIG
ZHHH,2021-10-30 14:00,ZHHH 301400Z 06001MPS 5000 BR NSC 16/15 Q1023 NOSIG
ZHHH,2021-10-30 15:00,ZHHH 301500Z VRB01MPS 4500 BR NSC 16/15 Q1023 NOSIG
ZHHH,2021-10-30 16:00,ZHHH 301600Z 04001MPS 4500 BR NSC 15/14 Q1023 NOSIG
ZHHH,2021-10-30 17:00,ZHHH 301700Z 06003MPS 4500 BR NSC 16/14 Q1023 NOSIG
ZHHH,2021-10-30 18:00,ZHHH 301800Z 08002MPS 4500 BR NSC 17/14 Q1023 NOSIG
ZHHH,2021-10-30 19:00,ZHHH 301900Z 09002MPS 4500 BR NSC 17/14 Q1022 NOSIG
ZHHH,2021-10-30 20:00,ZHHH 302000Z 05002MPS 4500 BR NSC 15/14 Q1022 NOSIG
ZHHH,2021-10-30 21:00,ZHHH 302100Z 08002MPS 4500 BR NSC 15/14 Q1022 BECMG TL2250 2500
ZHHH,2021-10-30 22:00,ZHHH 302200Z 06002MPS 4500 BR NSC 14/14 Q1022 BECMG TL2350 2800
ZHHH,2021-10-30 23:00,ZHHH 302300Z 04002MPS 360V080 2500 BR NSC 14/14 Q1022 BECMG TL0050 3000
ZHHH,2021-10-31 00:00,ZHHH 310000Z VRB01MPS 2800 BR NSC 17/14 Q1023 BECMG TL0050 3000
ZHHH,2021-10-31 01:00,ZHHH 310100Z 11004MPS 4000 HZ NSC 18/13 Q1024 NOSIG
ZHHH,2021-10-31 02:00,ZHHH 310200Z 06002MPS 020V100 5000 HZ NSC 20/14 Q1023 NOSIG
ZHHH,2021-10-31 03:00,ZHHH 310300Z 09002MPS 040V150 5000 HZ NSC 20/14 Q1023 NOSIG
ZHHH,2021-10-31 04:00,ZHHH 310400Z 26002MPS 240V300 5000 HZ NSC 20/14 Q1023 NOSIG
ZHHH,2021-10-31 05:00,ZHHH 310500Z 33002MPS 260V050 4500 HZ NSC 21/14 Q1022 NOSIG
ZHHH,2021-10-31 06:00,ZHHH 310600Z VRB01MPS 6000 NSC 23/13 Q1021 NOSIG
ZHHH,2021-10-31 07:00,ZHHH 310700Z VRB01MPS 6000 NSC 22/13 Q1021 NOSIG
ZHHH,2021-10-31 08:00,ZHHH 310800Z 00000MPS 7000 NSC 22/14 Q1021 NOSIG
ZHHH,2021-10-31 09:00,ZHHH 310900Z 00000MPS 6000 NSC 21/16 Q1021 NOSIG
ZHHH,2021-10-31 10:00,ZHHH 311000Z 00000MPS 8000 NSC 20/17 Q1022 NOSIG
ZHHH,2021-10-31 11:00,ZHHH 311100Z 00000MPS 8000 NSC 19/17 Q1022 NOSIG
ZHHH,2021-10-31 12:00,ZHHH 311200Z 01002MPS 8000 NSC 19/16 Q1022 NOSIG
ZHHH,2021-10-31 13:00,ZHHH 311300Z 04003MPS 8000 NSC 19/15 Q1022 NOSIG
ZHHH,2021-10-31 14:00,ZHHH 311400Z 04002MPS CAVOK 19/14 Q1023 NOSIG
ZHHH,2021-10-31 15:00,ZHHH 311500Z 04003MPS CAVOK 19/13 Q1023 NOSIG
ZHHH,2021-10-31 16:00,ZHHH 311600Z 03002MPS CAVOK 18/13 Q1023 NOSIG
ZHHH,2021-10-31 17:00,ZHHH 311700Z 02002MPS 340V050 CAVOK 18/13 Q1023 NOSIG
ZHHH,2021-10-31 18:00,ZHHH 311800Z VRB01MPS CAVOK 18/13 Q1023 NOSIG
ZHHH,2021-10-31 19:00,ZHHH 311900Z VRB01MPS CAVOK 17/13 Q1023 NOSIG
ZHHH,2021-10-31 20:00,ZHHH 312000Z 08004MPS CAVOK 18/12 Q1022 NOSIG
ZHHH,2021-10-31 21:00,ZHHH 312100Z 04002MPS CAVOK 16/12 Q1023 NOSIG
ZHHH,2021-10-31 22:00,ZHHH 312200Z 07004MPS CAVOK 17/12 Q1023 NOSIG
ZHHH,2021-10-31 23:00,ZHHH 312300Z 09003MPS CAVOK 18/10 Q1023 NOSIG
ZHHH,2021-11-01 00:00,ZHHH 010000Z 09003MPS 8000 NSC 18/10 Q1024 NOSIG
ZHHH,2021-11-01 01:00,ZHHH 010100Z 05003MPS 8000 NSC 19/11 Q1025 NOSIG
ZHHH,2021-11-01 02:00,ZHHH 010200Z 07003MPS 8000 NSC 20/10 Q1025 NOSIG
ZHHH,2021-11-01 03:00,ZHHH 010300Z 09003MPS 040V170 8000 NSC 21/10 Q1024 NOSIG
ZHHH,2021-11-01 04:00,ZHHH 010400Z 10002MPS 050V140 CAVOK 22/08 Q1024 NOSIG
ZHHH,2021-11-01 05:00,ZHHH 010500Z VRB02MPS CAVOK 23/08 Q1023 NOSIG
ZHHH,2021-11-01 06:00,ZHHH 010600Z 10003MPS 040V160 CAVOK 23/07 Q1022 NOSIG
ZHHH,2021-11-01 07:00,ZHHH 010700Z VRB02MPS CAVOK 23/08 Q1021 NOSIG
ZHHH,2021-11-01 08:00,ZHHH 010800Z VRB01MPS CAVOK 22/09 Q1022 NOSIG
ZHHH,2021-11-01 09:00,ZHHH 010900Z VRB01MPS CAVOK 22/07 Q1022 NOSIG
ZHHH,2021-11-01 10:00,ZHHH 011000Z VRB01MPS CAVOK 20/09 Q1022 NOSIG
ZHHH,2021-11-01 11:00,ZHHH 011100Z 03003MPS 360V060 5000 HZ NSC 20/12 Q1022 NOSIG
ZHHH,2021-11-01 12:00,ZHHH 011200Z 04003MPS 4000 HZ NSC 19/13 Q1023 NOSIG
ZHHH,2021-11-01 13:00,ZHHH 011300Z 04003MPS 3500 HZ NSC 19/13 Q1023 NOSIG
ZHHH,2021-11-01 14:00,ZHHH 011400Z 04002MPS 3300 HZ NSC 18/13 Q1023 NOSIG
ZHHH,2021-11-01 15:00,ZHHH 011500Z 04002MPS 3300 HZ NSC 18/13 Q1023 NOSIG
ZHHH,2021-11-01 16:00,ZHHH 011600Z VRB01MPS 3300 BR NSC 17/14 Q1023 NOSIG
ZHHH,2021-11-01 17:00,ZHHH 011700Z VRB01MPS 3500 BR NSC 17/14 Q1023 NOSIG
ZHHH,2021-11-01 18:00,ZHHH 011800Z VRB01MPS 3500 BR NSC 17/15 Q1023 NOSIG
ZHHH,2021-11-01 19:00,ZHHH 011900Z VRB01MPS 3500 BR NSC 17/15 Q1023 NOSIG
ZHHH,2021-11-01 20:00,ZHHH 012000Z 02002MPS 3500 BR NSC 17/15 Q1022 NOSIG
ZHHH,2021-11-01 21:00,ZHHH 012100Z 36001MPS 3000 BR NSC 16/15 Q1022 BECMG TL2250 2500
ZHHH,2021-11-01 22:00,ZHHH 012200Z 36001MPS 3000 BR NSC 16/16 Q1022 BECMG TL2300 2500
ZHHH,2021-11-01 23:00,ZHHH 012300Z 02001MPS 2000 BR NSC 15/15 Q1022 NOSIG
ZHHH,2021-11-02 00:00,ZHHH 020000Z VRB01MPS 2000 BR NSC 16/15 Q1023 BECMG TL0150 3000
ZHHH,2021-11-02 01:00,ZHHH 020100Z VRB01MPS 2000 BR NSC 17/15 Q1024 BECMG TL0240 3000
ZHHH,2021-11-02 02:00,ZHHH 020200Z 09003MPS 050V130 2500 BR NSC 18/14 Q1023 BECMG TL0240 3000
ZHHH,2021-11-02 03:00,ZHHH 020300Z 33002MPS 280V020 3000 BR NSC 19/14 Q1024 NOSIG
ZHHH,2021-11-02 04:00,ZHHH 020400Z VRB01MPS 4000 HZ NSC 20/14 Q1023 NOSIG
ZHHH,2021-11-02 05:00,ZHHH 020500Z 26002MPS 220V300 4500 HZ NSC 21/13 Q1022 NOSIG
ZHHH,2021-11-02 06:00,ZHHH 020600Z 25002MPS 170V320 6000 NSC 22/11 Q1021 NOSIG
ZHHH,2021-11-02 07:00,ZHHH 020700Z 24002MPS 190V310 6000 NSC 22/12 Q1020 NOSIG
ZHHH,2021-11-02 08:00,ZHHH 020800Z 20002MPS 160V220 6000 NSC 22/12 Q1020 NOSIG
ZHHH,2021-11-02 09:00,ZHHH 020900Z 21002MPS 5000 HZ NSC 21/13 Q1020 NOSIG
ZHHH,2021-11-02 10:00,ZHHH 021000Z 18002MPS 150V220 5000 HZ NSC 21/12 Q1020 NOSIG
ZHHH,2021-11-02 11:00,ZHHH 021100Z 18002MPS 140V220 6000 NSC 21/12 Q1021 NOSIG
ZHHH,2021-11-02 12:00,ZHHH 021200Z VRB02MPS 6000 NSC 21/12 Q1021 NOSIG
ZHHH,2021-11-02 13:00,ZHHH 021300Z VRB01MPS 6000 NSC 18/15 Q1021 NOSIG
ZHHH,2021-11-02 14:00,ZHHH 021400Z 00000MPS 6000 NSC 17/17 Q1022 NOSIG
ZHHH,2021-11-02 15:00,ZHHH 021500Z 05002MPS 6000 NSC 17/16 Q1022 NOSIG
ZHHH,2021-11-02 16:00,ZHHH 021600Z 03002MPS 350V060 5000 BR NSC 16/16 Q1022 NOSIG
ZHHH,2021-11-02 17:00,ZHHH 021700Z 00000MPS 5000 BR NSC 15/15 Q1022 NOSIG
ZHHH,2021-11-02 18:00,ZHHH 021800Z 06002MPS 5000 BR NSC 15/15 Q1021 NOSIG
ZHHH,2021-11-02 19:00,ZHHH 021900Z 06002MPS 4200 BR NSC 15/15 Q1021 NOSIG
ZHHH,2021-11-02 20:00,ZHHH 022000Z 08004MPS 3800 BR NSC 16/15 Q1020 NOSIG
ZHHH,2021-11-02 21:00,ZHHH 022100Z 12002MPS 070V130 3800 BR NSC 16/14 Q1021 BECMG TL2250 2000
ZHHH,2021-11-02 22:00,ZHHH 022200Z 07003MPS 3500 BR NSC 15/14 Q1021 BECMG TL2310 2000
ZHHH,2021-11-02 23:00,ZHHH 022300Z 07002MPS 2000 BR NSC 14/14 Q1021 NOSIG
ZHHH,2021-11-03 00:00,ZHHH 030000Z 06002MPS 2300 BR NSC 16/15 Q1021 NOSIG
ZHHH,2021-11-03 01:00,ZHHH 030100Z 08002MPS 2500 BR NSC 17/15 Q1022 BECMG TL0210 3000
ZHHH,2021-11-03 02:00,ZHHH 030200Z 06002MPS 360V130 3000 BR NSC 19/16 Q1022 NOSIG
ZHHH,2021-11-03 03:00,ZHHH 030300Z VRB02MPS 4000 HZ NSC 20/15 Q1021 NOSIG
ZHHH,2021-11-03 04:00,ZHHH 030400Z VRB02MPS 4200 HZ NSC 21/13 Q1020 NOSIG
ZHHH,2021-11-03 05:00,ZHHH 030500Z 26002MPS 220V300 4500 HZ NSC 21/13 Q1019 NOSIG
ZHHH,2021-11-03 06:00,ZHHH 030600Z 27002MPS 230V300 5000 HZ FEW030 23/12 Q1018 NOSIG
ZHHH,2021-11-03 07:00,ZHHH 030700Z 27002MPS 230V320 5000 HZ FEW030 23/12 Q1017 NOSIG
ZHHH,2021-11-03 08:00,ZHHH 030800Z 27002MPS 240V340 6000 NSC 22/12 Q1017 NOSIG
ZHHH,2021-11-03 09:00,ZHHH 030900Z 30001MPS 6000 NSC 21/13 Q1017 NOSIG
ZHHH,2021-11-03 10:00,ZHHH 031000Z 34001MPS 6000 NSC 20/13 Q1017 NOSIG
ZHHH,2021-11-03 11:00,ZHHH 031100Z 23001MPS 6000 -RA NSC 20/14 Q1017 NOSIG
ZHHH,2021-11-03 12:00,ZHHH 031200Z 00000MPS 6000 -RA NSC 19/14 Q1017 NOSIG
ZHHH,2021-11-03 13:00,ZHHH 031300Z 04003MPS 8000 NSC 20/11 Q1018 NOSIG
ZHHH,2021-11-03 14:00,ZHHH 031400Z VRB01MPS 5000 -RA BR NSC 18/18 Q1018 NOSIG
ZHHH,2021-11-03 15:00,ZHHH 031500Z 01002MPS 340V040 5000 -RA BR NSC 18/16 Q1018 NOSIG
ZHHH,2021-11-03 16:00,ZHHH 031600Z 03002MPS 6000 NSC 18/15 Q1018 NOSIG
ZHHH,2021-11-03 17:00,ZHHH 031700Z 04002MPS 5000 BR NSC 17/16 Q1017 NOSIG
ZHHH,2021-11-03 18:00,ZHHH 031800Z 05002MPS 5000 BR NSC 17/16 Q1017 NOSIG
ZHHH,2021-11-03 19:00,ZHHH 031900Z 08002MPS 5000 BR NSC 17/16 Q1017 NOSIG
ZHHH,2021-11-03 20:00,ZHHH 032000Z 09004MPS 5000 BR NSC 17/16 Q1016 NOSIG
ZHHH,2021-11-03 21:00,ZHHH 032100Z 07004MPS 5000 BR NSC 17/16 Q1016 NOSIG
ZHHH,2021-11-03 22:00,ZHHH 032200Z 10003MPS 5000 BR NSC 17/16 Q1016 NOSIG
ZHHH,2021-11-03 23:00,ZHHH 032300Z 06003MPS 3400 BR NSC 17/16 Q1016 BECMG TL0020 2800
ZHHH,2021-11-04 00:00,ZHHH 040000Z 07004MPS 3400 BR NSC 17/16 Q1016 NOSIG
ZHHH,2021-11-04 01:00,ZHHH 040100Z 10003MPS 070V130 4500 BR NSC 18/16 Q1017 NOSIG
ZHHH,2021-11-04 02:00,ZHHH 040200Z 11004MPS 090V150 4500 BR NSC 19/15 Q1017 NOSIG
ZHHH,2021-11-04 03:00,ZHHH 040300Z 11004MPS 5000 BR NSC 20/15 Q1016 NOSIG
ZHHH,2021-11-04 04:00,ZHHH 040400Z 11003MPS 080V140 5000 HZ NSC 21/15 Q1016 NOSIG
ZHHH,2021-11-04 05:00,ZHHH 040500Z 10002MPS 060V170 5000 HZ NSC 21/14 Q1015 NOSIG
ZHHH,2021-11-04 06:00,ZHHH 040600Z 13003MPS 100V160 5000 HZ NSC 21/14 Q1014 NOSIG
ZHHH,2021-11-04 07:00,ZHHH 040700Z 14003MPS 110V180 5000 HZ NSC 21/14 Q1013 NOSIG
ZHHH,2021-11-04 08:00,ZHHH 040800Z VRB01MPS 5000 HZ NSC 21/14 Q1013 NOSIG
ZHHH,2021-11-04 09:00,ZHHH 040900Z 12002MPS 090V150 5000 HZ OVC040 21/15 Q1013 NOSIG
ZHHH,2021-11-04 10:00,ZHHH 041000Z 11002MPS 6000 OVC040 20/15 Q1012 NOSIG
ZHHH,2021-11-04 11:00,ZHHH 041100Z 12003MPS 090V160 5000 BR OVC040 20/16 Q1013 NOSIG
ZHHH,2021-11-04 12:00,ZHHH 041200Z 11004MPS 3500 -RA BR OVC020 19/17 Q1014 NOSIG
ZHHH,2021-11-04 13:00,ZHHH 041300Z 12003MPS 090V150 4500 BR OVC026 18/18 Q1014 NOSIG
ZHHH,2021-11-04 14:00,ZHHH 041400Z 08003MPS 050V110 3000 -RA BR SCT010 OVC020 18/18 Q1014 BECMG TL1440 2800
ZHHH,2021-11-04 15:00,ZHHH 041500Z 09003MPS 060V120 2000 -RA BR FEW004 SCT010 OVC020 18/18 Q1014 BECMG TL1640 3200
ZHHH,2021-11-04 16:00,ZHHH 041600Z 08003MPS 2000 -RA BR SCT003 SCT007 OVC020 17/17 Q1013 NOSIG
ZHHH,2021-11-04 17:00,ZHHH 041700Z 05004MPS 1300 R04L/P2000 R04R/1300V1400D -RA BR SCT003 SCT005 OVC020 17/17 Q1013 NOSIG
ZHHH,2021-11-04 18:00,ZHHH 041800Z 06004MPS 2000 -RA BR SCT003 SCT005 OVC020 17/17 Q1013 NOSIG
ZHHH,2021-11-04 19:00,ZHHH 041900Z 08004MPS 1600 R04L/P2000 R04R/1100V1400U -RA BR SCT003 SCT004 OVC023 17/17 Q1012 NOSIG
ZHHH,2021-11-04 20:00,ZHHH 042000Z 07004MPS 2200 -RA BR SCT004 SCT006 OVC023 17/17 Q1012 NOSIG
ZHHH,2021-11-04 21:00,ZHHH 042100Z 09003MPS 2600 BR SCT004 OVC026 17/17 Q1012 BECMG TL2240 1300
ZHHH,2021-11-04 22:00,ZHHH 042200Z 07004MPS 2800 BR SCT005 OVC026 17/17 Q1012 NOSIG
ZHHH,2021-11-04 23:00,ZHHH 042300Z 06003MPS 2000 R04L/P2000 R04R/1100V1400U BR SCT007 OVC026 16/16 Q1013 BECMG TL0040 3200
ZHHH,2021-11-05 00:00,ZHHH 050000Z 05004MPS 360V070 1600 BR SCT010 OVC030 17/17 Q1013 NOSIG
ZHHH,2021-11-05 01:00,ZHHH 050100Z 05003MPS 2000 BR SCT010 OVC030 17/17 Q1013 NOSIG
ZHHH,2021-11-05 02:00,ZHHH 050200Z 05003MPS 2500 BR SCT010 OVC033 18/18 Q1013 BECMG TL0340 3000
ZHHH,2021-11-05 03:00,ZHHH 050300Z 05002MPS 2800 BR SCT010 OVC033 19/19 Q1012 BECMG TL0340 3000
ZHHH,2021-11-05 04:00,ZHHH 050400Z VRB01MPS 3800 BR SCT011 OVC033 19/18 Q1012 NOSIG
ZHHH,2021-11-05 05:00,ZHHH 050500Z VRB01MPS 4500 BR SCT011 OVC033 20/19 Q1010 NOSIG
ZHHH,2021-11-05 06:00,ZHHH 050600Z VRB01MPS 4500 BR SCT013 OVC030 19/19 Q1010 NOSIG
ZHHH,2021-11-05 07:00,ZHHH 050700Z VRB01MPS 3300 -RA BR SCT040 19/19 Q1009 NOSIG
ZHHH,2021-11-05 08:00,ZHHH 050800Z 36002MPS 320V030 4000 -RA BR FEW010 BKN040 20/20 Q1009 NOSIG
ZHHH,2021-11-05 09:00,ZHHH 050900Z 02002MPS 330V050 5000 BR SCT040 19/19 Q1010 NOSIG
ZHHH,2021-11-05 10:00,ZHHH 051000Z VRB01MPS 5000 BR SCT040 19/19 Q1010 NOSIG
ZHHH,2021-11-05 11:00,ZHHH 051100Z 36001MPS 5000 -RA BR OVC040 19/19 Q1010 NOSIG
ZHHH,2021-11-05 12:00,ZHHH 051200Z 35001MPS 4000 -RA BR SCT007 OVC040 18/18 Q1011 NOSIG
ZHHH,2021-11-05 13:00,ZHHH 051300Z 03001MPS 4000 BR SCT007 OVC040 18/18 Q1011 NOSIG
ZHHH,2021-11-05 14:00,ZHHH 051400Z 02002MPS 350V050 5000 BR SCT007 OVC033 18/18 Q1012 NOSIG
ZHHH,2021-11-05 15:00,ZHHH 051500Z VRB01MPS 5000 BR SCT010 OVC033 18/18 Q1012 NOSIG
ZHHH,2021-11-05 16:00,ZHHH 051600Z VRB01MPS 5000 BR SCT010 OVC033 18/18 Q1012 NOSIG
ZHHH,2021-11-05 17:00,ZHHH 051700Z 35001MPS 5000 BR OVC033 18/18 Q1012 NOSIG
ZHHH,2021-11-05 18:00,ZHHH 051800Z 02002MPS 350V050 5000 BR OVC040 18/18 Q1012 NOSIG
ZHHH,2021-11-05 19:00,ZHHH 051900Z VRB01MPS 7000 OVC040 18/18 Q1012 NOSIG
ZHHH,2021-11-05 20:00,ZHHH 052000Z 02002MPS 330V050 7000 OVC033 18/18 Q1012 NOSIG
ZHHH,2021-11-05 21:00,ZHHH 052100Z VRB01MPS 6000 OVC033 18/18 Q1012 BECMG TL2250 2000 BR
ZHHH,2021-11-05 22:00,ZHHH 052200Z VRB01MPS 6000 OVC040 18/18 Q1012 NOSIG
ZHHH,2021-11-05 23:00,ZHHH 052300Z 03002MPS 4000 BR BKN040 17/17 Q1013 NOSIG
ZHHH,2021-11-06 00:00,ZHHH 060000Z 04002MPS 360V060 3200 BR BKN040 18/18 Q1014 NOSIG
ZHHH,2021-11-06 01:00,ZHHH 060100Z 04002MPS 360V070 4200 BR OVC040 18/18 Q1014 NOSIG
ZHHH,2021-11-06 02:00,ZHHH 060200Z 03003MPS 320V060 5000 BR BKN040 20/18 Q1014 NOSIG
ZHHH,2021-11-06 03:00,ZHHH 060300Z 04004MPS 350V060 5000 BR SCT040 20/18 Q1014 NOSIG
ZHHH,2021-11-06 04:00,ZHHH 060400Z 04002MPS 320V080 6000 SCT040 21/18 Q1014 NOSIG
ZHHH,2021-11-06 05:00,ZHHH 060500Z 22002MPS 190V250 6000 SCT040 21/18 Q1013 NOSIG
ZHHH,2021-11-06 06:00,ZHHH 060600Z 03003MPS 340V050 9999 SCT040 22/17 Q1012 NOSIG
ZHHH,2021-11-06 07:00,ZHHH 060700Z 03002MPS 340V060 9999 FEW040 22/17 Q1012 NOSIG
ZHHH,2021-11-06 08:00,ZHHH 060800Z 02003MPS 340V050 CAVOK 22/17 Q1013 NOSIG
ZHHH,2021-11-06 09:00,ZHHH 060900Z 03004MPS CAVOK 21/17 Q1013 NOSIG
ZHHH,2021-11-06 10:00,ZHHH 061000Z 03003MPS 8000 SCT030 BKN040 20/17 Q1014 NOSIG
ZHHH,2021-11-06 11:00,ZHHH 061100Z 04004MPS CAVOK 19/17 Q1014 NOSIG
ZHHH,2021-11-06 12:00,ZHHH 061200Z 03003MPS 350V060 CAVOK 19/17 Q1014 NOSIG
ZHHH,2021-11-06 13:00,ZHHH 061300Z 03004MPS 340V050 CAVOK 19/17 Q1014 NOSIG
ZHHH,2021-11-06 14:00,ZHHH 061400Z 04004MPS CAVOK 18/17 Q1015 NOSIG
ZHHH,2021-11-06 15:00,ZHHH 061500Z 03002MPS 350V070 7000 -RA BKN040 18/17 Q1015 NOSIG
ZHHH,2021-11-06 16:00,ZHHH 061600Z 03004MPS 8000 BKN040 18/17 Q1015 NOSIG
ZHHH,2021-11-06 17:00,ZHHH 061700Z 03004MPS 350V050 8000 BKN040 18/17 Q1015 NOSIG
ZHHH,2021-11-06 18:00,ZHHH 061800Z 02004MPS 350V080 9999 -RA SCT009 18/17 Q1016 NOSIG
ZHHH,2021-11-06 19:00,ZHHH 061900Z 02006G11MPS 320V040 9999 -RA SCT014 14/13 Q1017 NOSIG
ZHHH,2021-11-06 20:00,ZHHH 062000Z 03003MPS 330V060 7000 -RA SCT010 11/11 Q1019 NOSIG
ZHHH,2021-11-06 21:00,ZHHH 062100Z 03004MPS 330V070 9000 -RA SCT009 10/10 Q1020 NOSIG
ZHHH,2021-11-06 22:00,ZHHH 062200Z 03006G11MPS 350V050 9999 -RA SCT009 08/08 Q1021 NOSIG
ZHHH,2021-11-06 23:00,ZHHH 062300Z 03008G13MPS 9999 -RA SCT016 08/07 Q1022 NOSIG
ZHHH,2021-11-07 00:00,ZHHH 070000Z 02006G11MPS 330V050 9999 -RA SCT016 08/06 Q1024 NOSIG
ZHHH,2021-11-07 01:00,ZHHH 070100Z 03005G10MPS 350V050 9999 FEW016 SCT026 08/06 Q1025 NOSIG
ZHHH,2021-11-07 02:00,ZHHH 070200Z 02006MPS 330V050 9999 BKN026 08/05 Q1027 NOSIG
ZHHH,2021-11-07 03:00,ZHHH 070300Z 36006MPS 320V040 9999 -RA BKN020 07/05 Q1028 NOSIG
ZHHH,2021-11-07 04:00,ZHHH 070400Z 35006MPS 300V070 9999 BKN020 OVC040 07/05 Q1028 NOSIG
ZHHH,2021-11-07 05:00,ZHHH 070500Z 35005MPS 300V040 9999 BKN020 OVC040 07/05 Q1028 NOSIG
ZHHH,2021-11-07 06:00,ZHHH 070600Z 35006G11MPS 320V020 9999 BKN020 06/04 Q1028 NOSIG
ZHHH,2021-11-07 07:00,ZHHH 070700Z 35006MPS 310V020 9999 SCT030 07/01 Q1028 NOSIG
ZHHH,2021-11-07 08:00,ZHHH 070800Z 35004MPS 320V030 9999 SCT030 07/01 Q1028 NOSIG
ZHHH,2021-11-07 09:00,ZHHH 070900Z 36003MPS 330V040 CAVOK 07/02 Q1029 NOSIG
ZHHH,2021-11-07 10:00,ZHHH 071000Z 01004MPS 330V050 CAVOK 07/01 Q1029 NOSIG
ZHHH,2021-11-07 11:00,ZHHH 071100Z 35003MPS 290V050 CAVOK 07/02 Q1030 NOSIG
ZHHH,2021-11-07 12:00,ZHHH 071200Z 36002MPS 310V050 CAVOK 07/02 Q1031 NOSIG
ZHHH,2021-11-07 13:00,ZHHH 071300Z 34002MPS 260V020 CAVOK 07/03 Q1031 NOSIG
ZHHH,2021-11-07 14:00,ZHHH 071400Z 03002MPS CAVOK 06/04 Q1032 NOSIG
ZHHH,2021-11-07 15:00,ZHHH 071500Z 02002MPS 350V060 CAVOK 06/04 Q1032 NOSIG
ZHHH,2021-11-07 16:00,ZHHH 071600Z 04002MPS 360V060 CAVOK 06/05 Q1032 NOSIG
ZHHH,2021-11-07 17:00,ZHHH 071700Z 02002MPS 330V050 CAVOK 05/03 Q1032 NOSIG
ZHHH,2021-11-07 18:00,ZHHH 071800Z 35002MPS 320V030 CAVOK 04/01 Q1032 NOSIG
ZHHH,2021-11-07 19:00,ZHHH 071900Z VRB01MPS CAVOK 03/01 Q1031 NOSIG
ZHHH,2021-11-07 20:00,ZHHH 072000Z 07002MPS CAVOK 04/00 Q1031 NOSIG
ZHHH,2021-11-07 21:00,ZHHH 072100Z VRB01MPS CAVOK 03/01 Q1031 NOSIG
ZHHH,2021-11-07 22:00,ZHHH 072200Z 00000MPS CAVOK 03/02 Q1031 NOSIG
ZHHH,2021-11-07 23:00,ZHHH 072300Z VRB01MPS CAVOK 02/M00 Q1031 NOSIG
ZHHH,2021-11-08 00:00,ZHHH 080000Z 13002MPS 080V150 CAVOK 07/M05 Q1031 NOSIG
ZHHH,2021-11-08 01:00,ZHHH 080100Z 21002MPS 160V270 CAVOK 08/M02 Q1031 NOSIG
ZHHH,2021-11-08 02:00,ZHHH 080200Z VRB02MPS CAVOK 09/M03 Q1031 NOSIG
ZHHH,2021-11-08 03:00,ZHHH 080300Z VRB02MPS CAVOK 10/M02 Q1031 NOSIG
ZHHH,2021-11-08 04:00,ZHHH 080400Z VRB03MPS CAVOK 11/M02 Q1029 NOSIG
ZHHH,2021-11-08 05:00,ZHHH 080500Z 31003MPS 260V010 CAVOK 12/M03 Q1028 NOSIG
ZHHH,2021-11-08 06:00,ZHHH 080600Z VRB02MPS CAVOK 13/M03 Q1027 NOSIG
ZHHH,2021-11-08 07:00,ZHHH 080700Z 27003MPS 230V320 CAVOK 13/M03 Q1026 NOSIG
ZHHH,2021-11-08 08:00,ZHHH 080800Z 29002MPS 240V020 CAVOK 14/M04 Q1026 NOSIG
ZHHH,2021-11-08 09:00,ZHHH 080900Z 23003MPS CAVOK 12/M00 Q1026 NOSIG
ZHHH,2021-11-08 10:00,ZHHH 081000Z 22003MPS CAVOK 10/01 Q1026 NOSIG
ZHHH,2021-11-08 11:00,ZHHH 081100Z 23002MPS CAVOK 10/01 Q1026 NOSIG
ZHHH,2021-11-08 12:00,ZHHH 081200Z 23003MPS CAVOK 09/02 Q1026 NOSIG
ZHHH,2021-11-08 13:00,ZHHH 081300Z 23002MPS CAVOK 09/03 Q1027 NOSIG
ZHHH,2021-11-08 14:00,ZHHH 081400Z 24003MPS CAVOK 10/02 Q1027 NOSIG
ZHHH,2021-11-08 15:00,ZHHH 081500Z 24002MPS 220V280 CAVOK 10/03 Q1027 NOSIG
ZHHH,2021-11-08 16:00,ZHHH 081600Z 24002MPS 210V270 CAVOK 10/03 Q1027 NOSIG
ZHHH,2021-11-08 17:00,ZHHH 081700Z 21002MPS 180V240 CAVOK 09/04 Q1027 NOSIG
ZHHH,2021-11-08 18:00,ZHHH 081800Z 24002MPS 210V280 CAVOK 09/04 Q1027 NOSIG
ZHHH,2021-11-08 19:00,ZHHH 081900Z 26002MPS 230V310 CAVOK 09/04 Q1026 NOSIG
ZHHH,2021-11-08 20:00,ZHHH 082000Z 26002MPS 220V290 CAVOK 09/04 Q1026 NOSIG
ZHHH,2021-11-08 21:00,ZHHH 082100Z 26001MPS CAVOK 06/05 Q1026 NOSIG
ZHHH,2021-11-08 22:00,ZHHH 082200Z 00000MPS CAVOK 05/05 Q1026 NOSIG
ZHHH,2021-11-08 23:00,ZHHH 082300Z VRB01MPS 8000 NSC 05/05 Q1027 NOSIG
ZHHH,2021-11-09 00:00,ZHHH 090000Z VRB01MPS CAVOK 09/07 Q1027 NOSIG
ZHHH,2021-11-09 01:00,ZHHH 090100Z 25002MPS 210V310 CAVOK 10/06 Q1027 NOSIG
ZHHH,2021-11-09 02:00,ZHHH 090200Z 27002MPS 230V330 CAVOK 11/05 Q1027 NOSIG
ZHHH,2021-11-09 03:00,ZHHH 090300Z 29002MPS 240V330 CAVOK 12/05 Q1026 NOSIG
ZHHH,2021-11-09 04:00,ZHHH 090400Z 24002MPS 200V300 CAVOK 13/05 Q1025 NOSIG
ZHHH,2021-11-09 05:00,ZHHH 090500Z 26002MPS 220V320 CAVOK 13/04 Q1024 NOSIG
ZHHH,2021-11-09 06:00,ZHHH 090600Z 25002MPS 200V300 CAVOK 14/04 Q1023 NOSIG
ZHHH,2021-11-09 07:00,ZHHH 090700Z 24002MPS 210V290 CAVOK 14/03 Q1022 NOSIG
ZHHH,2021-11-09 08:00,ZHHH 090800Z 23003MPS CAVOK 14/03 Q1023 NOSIG
ZHHH,2021-11-09 09:00,ZHHH 090900Z 23003MPS CAVOK 13/05 Q1022 NOSIG
ZHHH,2021-11-09 10:00,ZHHH 091000Z 24003MPS CAVOK 13/04 Q1022 NOSIG
ZHHH,2021-11-09 11:00,ZHHH 091100Z 22002MPS CAVOK 11/05 Q1023 NOSIG
ZHHH,2021-11-09 12:00,ZHHH 091200Z 23002MPS 200V260 CAVOK 11/05 Q1023 NOSIG
ZHHH,2021-11-09 13:00,ZHHH 091300Z 24003MPS CAVOK 11/04 Q1024 NOSIG
ZHHH,2021-11-09 14:00,ZHHH 091400Z 26003MPS 210V300 CAVOK 11/05 Q1024 NOSIG
ZHHH,2021-11-09 15:00,ZHHH 091500Z 25003MPS 220V290 CAVOK 10/05 Q1024 NOSIG
ZHHH,2021-11-09 16:00,ZHHH 091600Z 25002MPS 210V310 CAVOK 10/04 Q1023 NOSIG
ZHHH,2021-11-09 17:00,ZHHH 091700Z 24002MPS CAVOK 09/04 Q1023 NOSIG
ZHHH,2021-11-09 18:00,ZHHH 091800Z VRB01MPS CAVOK 07/05 Q1022 NOSIG
ZHHH,2021-11-09 19:00,ZHHH 091900Z VRB01MPS CAVOK 06/05 Q1023 NOSIG
ZHHH,2021-11-09 20:00,ZHHH 092000Z 26002MPS 230V290 CAVOK 08/05 Q1022 NOSIG
ZHHH,2021-11-09 21:00,ZHHH 092100Z 25002MPS CAVOK 07/05 Q1022 NOSIG
ZHHH,2021-11-09 22:00,ZHHH 092200Z 24003MPS CAVOK 08/06 Q1022 NOSIG
ZHHH,2021-11-09 23:00,ZHHH 092300Z 24003MPS 8000 NSC 08/07 Q1022 NOSIG
ZHHH,2021-11-10 00:00,ZHHH 100000Z 26002MPS 230V320 6000 NSC 09/07 Q1023 NOSIG
ZHHH,2021-11-10 01:00,ZHHH 100100Z 26002MPS 230V290 7000 NSC 11/08 Q1023 NOSIG
ZHHH,2021-11-10 02:00,ZHHH 100200Z 26003MPS 220V310 CAVOK 13/07 Q1023 NOSIG
ZHHH,2021-11-10 03:00,ZHHH 100300Z 26003MPS 230V310 CAVOK 15/04 Q1023 NOSIG
ZHHH,2021-11-10 04:00,ZHHH 100400Z VRB03MPS CAVOK 17/M01 Q1022 NOSIG
ZHHH,2021-11-10 05:00,ZHHH 100500Z VRB03MPS CAVOK 18/M01 Q1021 NOSIG
ZHHH,2021-11-10 06:00,ZHHH 100600Z 28003MPS 240V350 CAVOK 18/M01 Q1020 NOSIG
ZHHH,2021-11-10 07:00,ZHHH 100700Z VRB02MPS CAVOK 19/M01 Q1020 NOSIG
ZHHH,2021-11-10 08:00,ZHHH 100800Z VRB01MPS CAVOK 19/00 Q1020 NOSIG
ZHHH,2021-11-10 09:00,ZHHH 100900Z 15002MPS CAVOK 17/00 Q1019 NOSIG
ZHHH,2021-11-10 10:00,ZHHH 101000Z 12002MPS CAVOK 15/03 Q1019 NOSIG
ZHHH,2021-11-10 11:00,ZHHH 101100Z 00000MPS CAVOK 12/02 Q1020 NOSIG
ZHHH,2021-11-10 12:00,ZHHH 101200Z 17002MPS 140V220 CAVOK 13/04 Q1021 NOSIG
ZHHH,2021-11-10 13:00,ZHHH 101300Z VRB01MPS CAVOK 11/05 Q1021 NOSIG
ZHHH,2021-11-10 14:00,ZHHH 101400Z 24001MPS CAVOK 11/07 Q1021 NOSIG
ZHHH,2021-11-10 15:00,ZHHH 101500Z 00000MPS CAVOK 11/09 Q1021 NOSIG
ZHHH,2021-11-10 16:00,ZHHH 101600Z 24002MPS CAVOK 13/10 Q1021 NOSIG
ZHHH,2021-11-10 17:00,ZHHH 101700Z 00000MPS CAVOK 10/09 Q1021 NOSIG
ZHHH,2021-11-10 18:00,ZHHH 101800Z 00000MPS CAVOK 09/09 Q1021 NOSIG
ZHHH,2021-11-10 19:00,ZHHH 101900Z 06002MPS CAVOK 09/09 Q1021 NOSIG
ZHHH,2021-11-10 20:00,ZHHH 102000Z 07001MPS CAVOK 08/07 Q1021 NOSIG
ZHHH,2021-11-10 21:00,ZHHH 102100Z VRB01MPS CAVOK 08/06 Q1022 NOSIG
ZHHH,2021-11-10 22:00,ZHHH 102200Z 09003MPS CAVOK 09/04 Q1022 NOSIG
ZHHH,2021-11-10 23:00,ZHHH 102300Z 08002MPS CAVOK 08/04 Q1022 NOSIG
ZHHH,2021-11-11 00:00,ZHHH 110000Z 05002MPS CAVOK 10/05 Q1023 NOSIG
ZHHH,2021-11-11 01:00,ZHHH 110100Z 07002MPS CAVOK 12/06 Q1024 NOSIG
ZHHH,2021-11-11 02:00,ZHHH 110200Z 07002MPS 010V120 CAVOK 14/04 Q1024 NOSIG
ZHHH,2021-11-11 03:00,ZHHH 110300Z VRB01MPS CAVOK 16/06 Q1023 NOSIG
ZHHH,2021-11-11 04:00,ZHHH 110400Z 27002MPS 230V350 CAVOK 17/04 Q1023 NOSIG
ZHHH,2021-11-11 05:00,ZHHH 110500Z 28003MPS 240V310 CAVOK 18/01 Q1022 NOSIG
ZHHH,2021-11-11 06:00,ZHHH 110600Z 25002MPS 210V280 CAVOK 18/02 Q1021 NOSIG
ZHHH,2021-11-11 07:00,ZHHH 110700Z VRB01MPS CAVOK 18/02 Q1021 NOSIG
ZHHH,2021-11-11 08:00,ZHHH 110800Z 00000MPS CAVOK 18/01 Q1020 NOSIG
ZHHH,2021-11-11 09:00,ZHHH 110900Z VRB01MPS CAVOK 16/06 Q1021 NOSIG
ZHHH,2021-11-11 10:00,ZHHH 111000Z 34001MPS CAVOK 14/08 Q1022 NOSIG
ZHHH,2021-11-11 11:00,ZHHH 111100Z 33001MPS CAVOK 14/05 Q1023 NOSIG
ZHHH,2021-11-11 12:00,ZHHH 111200Z 36001MPS CAVOK 13/07 Q1024 NOSIG
ZHHH,2021-11-11 13:00,ZHHH 111300Z 33001MPS CAVOK 13/06 Q1025 NOSIG
ZHHH,2021-11-11 14:00,ZHHH 111400Z 08002MPS 040V110 9999 -RA NSC 14/08 Q1025 NOSIG
ZHHH,2021-11-11 15:00,ZHHH 111500Z 00000MPS CAVOK 12/10 Q1024 NOSIG
ZHHH,2021-11-11 16:00,ZHHH 111600Z VRB01MPS CAVOK 12/10 Q1025 NOSIG
ZHHH,2021-11-11 17:00,ZHHH 111700Z 01002MPS CAVOK 12/06 Q1024 NOSIG
ZHHH,2021-11-11 18:00,ZHHH 111800Z 00000MPS CAVOK 11/09 Q1024 NOSIG
ZHHH,2021-11-11 19:00,ZHHH 111900Z VRB01MPS CAVOK 11/09 Q1024 NOSIG
ZHHH,2021-11-11 20:00,ZHHH 112000Z VRB01MPS CAVOK 10/10 Q1024 NOSIG
ZHHH,2021-11-11 21:00,ZHHH 112100Z 27002MPS 240V300 CAVOK 11/10 Q1025 NOSIG
ZHHH,2021-11-11 22:00,ZHHH 112200Z 00000MPS CAVOK 09/08 Q1024 NOSIG
ZHHH,2021-11-11 23:00,ZHHH 112300Z 00000MPS CAVOK 07/07 Q1025 NOSIG
ZHHH,2021-11-12 00:00,ZHHH 120000Z VRB01MPS CAVOK 11/09 Q1026 NOSIG
ZHHH,2021-11-12 01:00,ZHHH 120100Z VRB01MPS CAVOK 12/08 Q1026 NOSIG
ZHHH,2021-11-12 02:00,ZHHH 120200Z 32002MPS 250V040 CAVOK 15/04 Q1026 NOSIG
ZHHH,2021-11-12 03:00,ZHHH 120300Z 28002MPS 230V330 CAVOK 15/02 Q1026 NOSIG
ZHHH,2021-11-12 04:00,ZHHH 120400Z 26002MPS 230V320 CAVOK 16/01 Q1024 NOSIG
ZHHH,2021-11-12 05:00,ZHHH 120500Z 25002MPS 210V280 CAVOK 17/00 Q1023 NOSIG
ZHHH,2021-11-12 06:00,ZHHH 120600Z VRB01MPS CAVOK 18/01 Q1022 NOSIG
ZHHH,2021-11-12 07:00,ZHHH 120700Z 26002MPS 220V300 CAVOK 18/00 Q1022 NOSIG
ZHHH,2021-11-12 08:00,ZHHH 120800Z 26002MPS 210V300 CAVOK 17/M01 Q1021 NOSIG
ZHHH,2021-11-12 09:00,ZHHH 120900Z VRB01MPS CAVOK 16/02 Q1021 NOSIG
ZHHH,2021-11-12 10:00,ZHHH 121000Z 00000MPS CAVOK 13/05 Q1022 NOSIG
ZHHH,2021-11-12 11:00,ZHHH 121100Z 00000MPS CAVOK 12/05 Q1023 NOSIG
ZHHH,2021-11-12 12:00,ZHHH 121200Z 00000MPS CAVOK 11/08 Q1023 NOSIG
ZHHH,2021-11-12 13:00,ZHHH 121300Z VRB01MPS CAVOK 11/09 Q1023 NOSIG
ZHHH,2021-11-12 14:00,ZHHH 121400Z VRB01MPS CAVOK 10/07 Q1023 NOSIG
ZHHH,2021-11-12 15:00,ZHHH 121500Z 26002MPS CAVOK 11/06 Q1023 NOSIG
ZHHH,2021-11-12 16:00,ZHHH 121600Z 25001MPS CAVOK 11/07 Q1023 NOSIG
ZHHH,2021-11-12 17:00,ZHHH 121700Z 25002MPS CAVOK 11/07 Q1023 NOSIG
ZHHH,2021-11-12 18:00,ZHHH 121800Z 28002MPS 240V310 CAVOK 11/06 Q1023 NOSIG
ZHHH,2021-11-12 19:00,ZHHH 121900Z VRB01MPS CAVOK 09/06 Q1022 NOSIG
ZHHH,2021-11-12 20:00,ZHHH 122000Z 18001MPS CAVOK 07/07 Q1022 NOSIG
ZHHH,2021-11-12 21:00,ZHHH 122100Z 00000MPS CAVOK 07/07 Q1022 NOSIG
ZHHH,2021-11-12 22:00,ZHHH 122200Z 16001MPS CAVOK 06/06 Q1022 NOSIG
ZHHH,2021-11-12 23:00,ZHHH 122300Z 00000MPS CAVOK 06/06 Q1022 NOSIG
ZHHH,2021-11-13 00:00,ZHHH 130000Z 24001MPS CAVOK 10/08 Q1023 NOSIG
ZHHH,2021-11-13 01:00,ZHHH 130100Z 23002MPS CAVOK 12/08 Q1023 NOSIG
ZHHH,2021-11-13 02:00,ZHHH 130200Z 23003MPS 190V250 CAVOK 14/05 Q1023 NOSIG
ZHHH,2021-11-13 03:00,ZHHH 130300Z 24003MPS 210V290 CAVOK 16/06 Q1022 NOSIG
ZHHH,2021-11-13 04:00,ZHHH 130400Z 24004MPS CAVOK 18/07 Q1022 NOSIG
ZHHH,2021-11-13 05:00,ZHHH 130500Z 24003MPS 220V290 CAVOK 18/06 Q1021 NOSIG
ZHHH,2021-11-13 06:00,ZHHH 130600Z 25002MPS 230V290 CAVOK 19/05 Q1020 NOSIG
ZHHH,2021-11-13 07:00,ZHHH 130700Z 25003MPS 210V290 CAVOK 20/02 Q1019 NOSIG
ZHHH,2021-11-13 08:00,ZHHH 130800Z 23003MPS 200V260 CAVOK 20/03 Q1019 NOSIG
ZHHH,2021-11-13 09:00,ZHHH 130900Z 22002MPS CAVOK 18/04 Q1019 NOSIG
ZHHH,2021-11-13 10:00,ZHHH 131000Z 23002MPS CAVOK 15/04 Q1020 NOSIG
ZHHH,2021-11-13 11:00,ZHHH 131100Z 20002MPS CAVOK 15/05 Q1020 NOSIG
ZHHH,2021-11-13 12:00,ZHHH 131200Z 20002MPS CAVOK 14/07 Q1020 NOSIG
ZHHH,2021-11-13 13:00,ZHHH 131300Z 21002MPS CAVOK 13/08 Q1021 NOSIG
ZHHH,2021-11-13 14:00,ZHHH 131400Z 23001MPS CAVOK 11/08 Q1022 NOSIG
ZHHH,2021-11-13 15:00,ZHHH 131500Z 00000MPS CAVOK 11/08 Q1022 NOSIG
ZHHH,2021-11-13 16:00,ZHHH 131600Z 22001MPS CAVOK 11/08 Q1022 NOSIG
ZHHH,2021-11-13 17:00,ZHHH 131700Z 20001MPS CAVOK 09/08 Q1021 NOSIG
ZHHH,2021-11-13 18:00,ZHHH 131800Z 19001MPS CAVOK 09/08 Q1021 NOSIG
ZHHH,2021-11-13 19:00,ZHHH 131900Z 00000MPS CAVOK 08/08 Q1021 NOSIG
ZHHH,2021-11-13 20:00,ZHHH 132000Z 06002MPS CAVOK 09/08 Q1021 NOSIG
ZHHH,2021-11-13 21:00,ZHHH 132100Z 06002MPS 040V100 8000 NSC 08/08 Q1021 NOSIG
ZHHH,2021-11-13 22:00,ZHHH 132200Z 06002MPS 040V100 6000 NSC 08/08 Q1022 NOSIG
ZHHH,2021-11-13 23:00,ZHHH 132300Z 07002MPS 7000 PRFG NSC 08/08 Q1022 NOSIG
ZHHH,2021-11-14 00:00,ZHHH 140000Z VRB01MPS 6000 PRFG NSC 11/10 Q1023 NOSIG
ZHHH,2021-11-14 01:00,ZHHH 140100Z VRB01MPS 6000 NSC 14/10 Q1023 NOSIG
ZHHH,2021-11-14 02:00,ZHHH 140200Z 18002MPS 150V250 7000 NSC 16/09 Q1023 NOSIG
ZHHH,2021-11-14 03:00,ZHHH 140300Z 19002MPS 140V290 CAVOK 18/08 Q1022 NOSIG
ZHHH,2021-11-14 04:00,ZHHH 140400Z 15002MPS 080V230 CAVOK 19/07 Q1021 NOSIG
ZHHH,2021-11-14 05:00,ZHHH 140500Z VRB02MPS CAVOK 20/07 Q1020 NOSIG
ZHHH,2021-11-14 06:00,ZHHH 140600Z VRB01MPS CAVOK 21/06 Q1019 NOSIG
ZHHH,2021-11-14 07:00,ZHHH 140700Z 15002MPS 110V190 CAVOK 21/04 Q1018 NOSIG
ZHHH,2021-11-14 08:00,ZHHH 140800Z 13002MPS 070V160 CAVOK 20/05 Q1018 NOSIG
ZHHH,2021-11-14 09:00,ZHHH 140900Z 12002MPS CAVOK 19/05 Q1018 NOSIG
ZHHH,2021-11-14 10:00,ZHHH 141000Z 12002MPS CAVOK 18/04 Q1019 NOSIG
ZHHH,2021-11-14 11:00,ZHHH 141100Z 11003MPS CAVOK 16/06 Q1020 NOSIG
ZHHH,2021-11-14 12:00,ZHHH 141200Z 10003MPS CAVOK 16/06 Q1020 NOSIG
ZHHH,2021-11-14 13:00,ZHHH 141300Z 06002MPS CAVOK 13/06 Q1020 NOSIG
ZHHH,2021-11-14 14:00,ZHHH 141400Z VRB01MPS CAVOK 12/06 Q1020 NOSIG
ZHHH,2021-11-14 15:00,ZHHH 141500Z 00000MPS CAVOK 10/08 Q1021 NOSIG
ZHHH,2021-11-14 16:00,ZHHH 141600Z 05003MPS CAVOK 12/07 Q1020 NOSIG
ZHHH,2021-11-14 17:00,ZHHH 141700Z VRB01MPS CAVOK 09/08 Q1021 NOSIG
ZHHH,2021-11-14 18:00,ZHHH 141800Z 10003MPS 7000 NSC 12/06 Q1020 NOSIG
ZHHH,2021-11-14 19:00,ZHHH 141900Z 12005MPS 9000 NSC 12/05 Q1020 NOSIG
ZHHH,2021-11-14 20:00,ZHHH 142000Z 11004MPS 9000 NSC 11/06 Q1020 NOSIG
ZHHH,2021-11-14 21:00,ZHHH 142100Z 09004MPS 9000 NSC 11/06 Q1019 NOSIG
ZHHH,2021-11-14 22:00,ZHHH 142200Z 02001MPS 9000 NSC 08/07 Q1020 NOSIG
ZHHH,2021-11-14 23:00,ZHHH 142300Z 05003MPS 6000 NSC 08/06 Q1020 NOSIG
ZHHH,2021-11-15 00:00,ZHHH 150000Z 06003MPS 6000 NSC 10/07 Q1020 NOSIG
ZHHH,2021-11-15 01:00,ZHHH 150100Z 09004MPS CAVOK 13/07 Q1020 NOSIG
ZHHH,2021-11-15 02:00,ZHHH 150200Z 09004MPS CAVOK 15/06 Q1021 NOSIG
ZHHH,2021-11-15 03:00,ZHHH 150300Z 10003MPS 060V140 CAVOK 17/06 Q1020 NOSIG
ZHHH,2021-11-15 04:00,ZHHH 150400Z 09003MPS 040V140 CAVOK 19/06 Q1019 NOSIG
ZHHH,2021-11-15 05:00,ZHHH 150500Z 05002MPS 340V100 CAVOK 20/05 Q1018 NOSIG
ZHHH,2021-11-15 06:00,ZHHH 150600Z 11003MPS 060V140 CAVOK 21/04 Q1017 NOSIG
ZHHH,2021-11-15 07:00,ZHHH 150700Z 09003MPS 040V110 CAVOK 22/00 Q1017 NOSIG
ZHHH,2021-11-15 08:00,ZHHH 150800Z 08004MPS 050V110 CAVOK 21/01 Q1017 NOSIG
ZHHH,2021-11-15 09:00,ZHHH 150900Z 10003MPS CAVOK 20/01 Q1017 NOSIG
ZHHH,2021-11-15 10:00,ZHHH 151000Z 09003MPS CAVOK 20/02 Q1017 NOSIG
ZHHH,2021-11-15 11:00,ZHHH 151100Z 13002MPS 090V150 CAVOK 20/03 Q1018 NOSIG
ZHHH,2021-11-15 12:00,ZHHH 151200Z 05002MPS CAVOK 17/05 Q1018 NOSIG
ZHHH,2021-11-15 13:00,ZHHH 151300Z 35002MPS 310V020 CAVOK 16/06 Q1019 NOSIG
ZHHH,2021-11-15 14:00,ZHHH 151400Z 04002MPS CAVOK 16/05 Q1020 NOSIG
ZHHH,2021-11-15 15:00,ZHHH 151500Z VRB01MPS CAVOK 14/07 Q1020 NOSIG
ZHHH,2021-11-15 16:00,ZHHH 151600Z 04002MPS CAVOK 15/05 Q1020 NOSIG
ZHHH,2021-11-15 17:00,ZHHH 151700Z VRB01MPS CAVOK 15/05 Q1020 NOSIG
ZHHH,2021-11-15 18:00,ZHHH 151800Z VRB01MPS CAVOK 14/10 Q1020 NOSIG
ZHHH,2021-11-15 19:00,ZHHH 151900Z 36001MPS CAVOK 13/12 Q1020 NOSIG
ZHHH,2021-11-15 20:00,ZHHH 152000Z 35002MPS 330V030 CAVOK 12/09 Q1020 NOSIG
ZHHH,2021-11-15 21:00,ZHHH 152100Z 03001MPS CAVOK 12/08 Q1020 NOSIG
ZHHH,2021-11-15 22:00,ZHHH 152200Z 06003MPS CAVOK 12/07 Q1020 NOSIG
ZHHH,2021-11-15 23:00,ZHHH 152300Z 07004MPS CAVOK 12/06 Q1020 NOSIG
ZHHH,2021-11-16 00:00,ZHHH 160000Z 06004MPS CAVOK 14/06 Q1021 NOSIG
ZHHH,2021-11-16 01:00,ZHHH 160100Z 05003MPS CAVOK 16/06 Q1022 NOSIG
ZHHH,2021-11-16 02:00,ZHHH 160200Z 06004MPS CAVOK 19/06 Q1022 NOSIG
ZHHH,2021-11-16 03:00,ZHHH 160300Z 05003MPS 010V100 CAVOK 20/04 Q1022 NOSIG
ZHHH,2021-11-16 04:00,ZHHH 160400Z VRB02MPS CAVOK 21/05 Q1021 NOSIG
ZHHH,2021-11-16 05:00,ZHHH 160500Z VRB02MPS CAVOK 21/05 Q1021 NOSIG
ZHHH,2021-11-16 06:00,ZHHH 160600Z 27002MPS 220V300 CAVOK 21/06 Q1020 NOSIG
ZHHH,2021-11-16 07:00,ZHHH 160700Z 25002MPS 210V290 CAVOK 22/05 Q1019 NOSIG
ZHHH,2021-11-16 08:00,ZHHH 160800Z VRB01MPS CAVOK 21/06 Q1020 NOSIG
ZHHH,2021-11-16 09:00,ZHHH 160900Z VRB01MPS CAVOK 19/08 Q1020 NOSIG
ZHHH,2021-11-16 10:00,ZHHH 161000Z 04003MPS 7000 NSC 19/07 Q1021 NOSIG
ZHHH,2021-11-16 11:00,ZHHH 161100Z 04004MPS 5000 HZ NSC 17/08 Q1021 NOSIG
ZHHH,2021-11-16 12:00,ZHHH 161200Z 04004MPS 5000 HZ NSC 17/07 Q1022 NOSIG
ZHHH,2021-11-16 13:00,ZHHH 161300Z 02003MPS 330V060 5000 HZ NSC 16/07 Q1022 NOSIG
ZHHH,2021-11-16 14:00,ZHHH 161400Z VRB01MPS 5000 HZ NSC 16/08 Q1023 NOSIG
ZHHH,2021-11-16 15:00,ZHHH 161500Z VRB01MPS 5000 HZ NSC 16/08 Q1023 NOSIG
ZHHH,2021-11-16 16:00,ZHHH 161600Z VRB01MPS 5000 HZ NSC 15/09 Q1023 NOSIG
ZHHH,2021-11-16 17:00,ZHHH 161700Z VRB01MPS 4500 HZ NSC 15/10 Q1023 NOSIG
ZHHH,2021-11-16 18:00,ZHHH 161800Z 36001MPS 4500 HZ NSC 14/09 Q1022 NOSIG
ZHHH,2021-11-16 19:00,ZHHH 161900Z VRB01MPS 4000 BR NSC 13/10 Q1022 NOSIG
ZHHH,2021-11-16 20:00,ZHHH 162000Z VRB01MPS 4000 HZ NSC 14/10 Q1022 NOSIG
ZHHH,2021-11-16 21:00,ZHHH 162100Z VRB01MPS 4000 HZ NSC 14/09 Q1022 NOSIG
ZHHH,2021-11-16 22:00,ZHHH 162200Z 34002MPS 4200 HZ NSC 14/09 Q1022 NOSIG
ZHHH,2021-11-16 23:00,ZHHH 162300Z 00000MPS 3000 HZ NSC 14/10 Q1022 BECMG TL2340 2500
ZHHH,2021-11-17 00:00,ZHHH 170000Z 29001MPS 2300 BR NSC 14/10 Q1023 BECMG TL0140 3200
ZHHH,2021-11-17 01:00,ZHHH 170100Z VRB01MPS 2300 HZ NSC 14/10 Q1024 NOSIG
ZHHH,2021-11-17 02:00,ZHHH 170200Z VRB01MPS 2300 HZ NSC 15/09 Q1024 NOSIG
ZHHH,2021-11-17 03:00,ZHHH 170300Z 32002MPS 240V010 2300 HZ NSC 15/09 Q1023 NOSIG
ZHHH,2021-11-17 04:00,ZHHH 170400Z 26002MPS 230V330 2500 HZ SCT025 16/09 Q1023 BECMG TL0450 3200
ZHHH,2021-11-17 05:00,ZHHH 170500Z 26002MPS 220V300 2800 HZ NSC 17/10 Q1022 BECMG TL0610 3200
ZHHH,2021-11-17 06:00,ZHHH 170600Z 25002MPS 220V290 3000 HZ SCT030 18/09 Q1021 NOSIG
ZHHH,2021-11-17 07:00,ZHHH 170700Z 31002MPS 260V010 3500 HZ NSC 18/09 Q1021 NOSIG
ZHHH,2021-11-17 08:00,ZHHH 170800Z VRB01MPS 4000 HZ NSC 18/09 Q1021 NOSIG
ZHHH,2021-11-17 09:00,ZHHH 170900Z VRB01MPS 4000 HZ NSC 17/09 Q1020 NOSIG
ZHHH,2021-11-17 10:00,ZHHH 171000Z 00000MPS 4000 HZ NSC 16/11 Q1021 NOSIG
ZHHH,2021-11-17 11:00,ZHHH 171100Z 25001MPS 4000 BR NSC 16/12 Q1021 NOSIG
ZHHH,2021-11-17 12:00,ZHHH 171200Z 29001MPS 4000 HZ NSC 15/10 Q1021 NOSIG
ZHHH,2021-11-17 13:00,ZHHH 171300Z 24001MPS 3500 BR NSC 13/12 Q1021 NOSIG
ZHHH,2021-11-17 14:00,ZHHH 171400Z VRB01MPS 3500 BR NSC 12/12 Q1021 NOSIG
ZHHH,2021-11-17 15:00,ZHHH 171500Z VRB01MPS 3500 BR NSC 12/12 Q1021 BECMG TL1640 2500
ZHHH,2021-11-17 16:00,ZHHH 171600Z VRB01MPS 3200 BR NSC 11/11 Q1021 BECMG TL1740 2500
ZHHH,2021-11-17 17:00,ZHHH 171700Z 00000MPS 2800 BR NSC 10/10 Q1020 NOSIG
ZHHH,2021-11-17 18:00,ZHHH 171800Z 21001MPS 2800 BR NSC 10/10 Q1020 NOSIG
ZHHH,2021-11-17 19:00,ZHHH 171900Z 23001MPS 2800 BR NSC 09/09 Q1020 NOSIG
ZHHH,2021-11-17 20:00,ZHHH 172000Z 00000MPS 2500 BR NSC 09/09 Q1020 NOSIG
ZHHH,2021-11-17 21:00,ZHHH 172100Z 22001MPS 2800 BR NSC 09/09 Q1019 BECMG TL2140 1200
ZHHH,2021-11-17 22:00,ZHHH 172200Z 20001MPS 2800 BR NSC 09/09 Q1019 BECMG TL2240 0800 FG
ZHHH,2021-11-17 23:00,ZHHH 172300Z 00000MPS 2000 R22R/P2000 R22L/1200U BR NSC 08/08 Q1019 BECMG TL2340 0800 FG
ZHHH,2021-11-18 00:00,ZHHH 180000Z 07002MPS 1500 R04L/1700U R04R/1100V1300U BR NSC 11/11 Q1019 BECMG TL0140 3000
ZHHH,2021-11-18 01:00,ZHHH 180100Z 10002MPS 050V120 1700 BR NSC 13/11 Q1019 BECMG TL0220 3000
ZHHH,2021-11-18 02:00,ZHHH 180200Z 10002MPS 040V180 2000 BR NSC 16/11 Q1019 BECMG TL0320 3000
ZHHH,2021-11-18 03:00,ZHHH 180300Z VRB02MPS 3000 BR NSC 18/09 Q1018 NOSIG
ZHHH,2021-11-18 04:00,ZHHH 180400Z 20002MPS 160V240 4000 HZ NSC 19/09 Q1017 NOSIG
ZHHH,2021-11-18 05:00,ZHHH 180500Z 17003MPS 150V220 4500 HZ NSC 20/07 Q1016 NOSIG
ZHHH,2021-11-18 06:00,ZHHH 180600Z 18003MPS 140V200 6000 NSC 20/06 Q1014 NOSIG
ZHHH,2021-11-18 07:00,ZHHH 180700Z 19003MPS 160V230 7000 NSC 21/06 Q1014 NOSIG
ZHHH,2021-11-18 08:00,ZHHH 180800Z 19003MPS 150V220 7000 NSC 20/06 Q1014 NOSIG
ZHHH,2021-11-18 09:00,ZHHH 180900Z 17002MPS 6000 NSC 19/06 Q1014 NOSIG
ZHHH,2021-11-18 10:00,ZHHH 181000Z 12002MPS 6000 NSC 17/07 Q1014 NOSIG
ZHHH,2021-11-18 11:00,ZHHH 181100Z 10003MPS 340V120 6000 NSC 17/08 Q1014 NOSIG
ZHHH,2021-11-18 12:00,ZHHH 181200Z 10003MPS 5000 HZ NSC 16/07 Q1014 NOSIG
ZHHH,2021-11-18 13:00,ZHHH 181300Z 11002MPS 5000 HZ NSC 16/08 Q1015 NOSIG
ZHHH,2021-11-18 14:00,ZHHH 181400Z 11004MPS 4000 HZ NSC 16/09 Q1015 NOSIG
ZHHH,2021-11-18 15:00,ZHHH 181500Z 11004MPS 3300 HZ NSC 15/11 Q1015 BECMG TL1640 2500
ZHHH,2021-11-18 16:00,ZHHH 181600Z 11004MPS 3100 BR NSC 15/12 Q1015 BECMG TL1740 2500
ZHHH,2021-11-18 17:00,ZHHH 181700Z 11003MPS 2500 BR NSC 14/12 Q1015 NOSIG
ZHHH,2021-11-18 18:00,ZHHH 181800Z 11004MPS 2500 BR NSC 14/12 Q1014 NOSIG
ZHHH,2021-11-18 19:00,ZHHH 181900Z 10004MPS 2300 BR NSC 13/12 Q1014 NOSIG
ZHHH,2021-11-18 20:00,ZHHH 182000Z 10003MPS 2300 BR NSC 13/12 Q1014 NOSIG
ZHHH,2021-11-18 21:00,ZHHH 182100Z 10003MPS 2300 BR NSC 12/12 Q1014 BECMG TL2240 1400
ZHHH,2021-11-18 22:00,ZHHH 182200Z 09003MPS 2300 BR NSC 12/12 Q1014 BECMG TL2320 1400
ZHHH,2021-11-18 23:00,ZHHH 182300Z 09004MPS 1700 BR NSC 12/12 Q1015 BECMG TL0050 3000
ZHHH,2021-11-19 00:00,ZHHH 190000Z 12004MPS 1700 BR NSC 13/12 Q1016 BECMG TL0140 3000
ZHHH,2021-11-19 01:00,ZHHH 190100Z 12003MPS 1800 BR NSC 14/12 Q1016 NOSIG
ZHHH,2021-11-19 02:00,ZHHH 190200Z 10005MPS 1800 BR NSC 15/12 Q1016 NOSIG
ZHHH,2021-11-19 03:00,ZHHH 190300Z 09004MPS 2500 HZ NSC 17/12 Q1016 BECMG TL0440 3000
ZHHH,2021-11-19 04:00,ZHHH 190400Z 08003MPS 2900 HZ NSC 18/11 Q1016 BECMG TL0440 3000
ZHHH,2021-11-19 05:00,ZHHH 190500Z 08003MPS 050V120 4500 HZ NSC 19/11 Q1014 NOSIG
ZHHH,2021-11-19 06:00,ZHHH 190600Z 05003MPS 020V090 5000 HZ NSC 20/10 Q1014 NOSIG
ZHHH,2021-11-19 07:00,ZHHH 190700Z 10002MPS 030V190 7000 NSC 21/10 Q1013 NOSIG
ZHHH,2021-11-19 08:00,ZHHH 190800Z 13002MPS 080V160 7000 NSC 21/09 Q1013 NOSIG
ZHHH,2021-11-19 09:00,ZHHH 190900Z 10004MPS 6000 NSC 20/08 Q1012 NOSIG
ZHHH,2021-11-19 10:00,ZHHH 191000Z 09004MPS 050V110 CAVOK 19/08 Q1012 NOSIG
ZHHH,2021-11-19 11:00,ZHHH 191100Z 10003MPS CAVOK 18/07 Q1013 NOSIG
ZHHH,2021-11-19 12:00,ZHHH 191200Z 07004MPS CAVOK 17/07 Q1013 NOSIG
ZHHH,2021-11-19 13:00,ZHHH 191300Z 06003MPS CAVOK 15/09 Q1014 NOSIG
ZHHH,2021-11-19 14:00,ZHHH 191400Z 05003MPS 7000 NSC 14/10 Q1015 NOSIG
ZHHH,2021-11-19 15:00,ZHHH 191500Z 05003MPS 7000 NSC 14/10 Q1015 NOSIG
ZHHH,2021-11-19 16:00,ZHHH 191600Z 07002MPS 7000 NSC 13/12 Q1015 NOSIG
ZHHH,2021-11-19 17:00,ZHHH 191700Z 09003MPS 7000 NSC 14/12 Q1015 NOSIG
ZHHH,2021-11-19 18:00,ZHHH 191800Z 10004MPS 6000 NSC 15/11 Q1014 NOSIG
ZHHH,2021-11-19 19:00,ZHHH 191900Z 09003MPS 5000 BR NSC 15/12 Q1014 NOSIG
ZHHH,2021-11-19 20:00,ZHHH 192000Z 07004MPS 5000 BR NSC 13/12 Q1014 NOSIG
ZHHH,2021-11-19 21:00,ZHHH 192100Z 07004MPS 5000 BR NSC 13/11 Q1014 NOSIG
ZHHH,2021-11-19 22:00,ZHHH 192200Z 09004MPS 5000 BR NSC 13/11 Q1014 NOSIG
ZHHH,2021-11-19 23:00,ZHHH 192300Z 07003MPS 6000 NSC 13/10 Q1014 NOSIG
ZHHH,2021-11-20 00:00,ZHHH 200000Z 08004MPS 7000 NSC 14/09 Q1015 NOSIG
ZHHH,2021-11-20 01:00,ZHHH 200100Z 08003MPS 7000 NSC 15/09 Q1015 NOSIG
ZHHH,2021-11-20 02:00,ZHHH 200200Z 07004MPS CAVOK 16/09 Q1016 NOSIG
ZHHH,2021-11-20 03:00,ZHHH 200300Z 06004MPS CAVOK 16/09 Q1015 NOSIG
ZHHH,2021-11-20 04:00,ZHHH 200400Z 08003MPS 050V110 CAVOK 17/09 Q1015 NOSIG
ZHHH,2021-11-20 05:00,ZHHH 200500Z 10003MPS 070V140 CAVOK 17/10 Q1014 NOSIG
ZHHH,2021-11-20 06:00,ZHHH 200600Z 08004MPS CAVOK 17/10 Q1014 NOSIG
ZHHH,2021-11-20 07:00,ZHHH 200700Z 10003MPS 9999 -RA NSC 17/12 Q1014 NOSIG
ZHHH,2021-11-20 08:00,ZHHH 200800Z 09004MPS 8000 -RA OVC033 16/13 Q1014 NOSIG
ZHHH,2021-11-20 09:00,ZHHH 200900Z 11002MPS 6000 OVC023 16/13 Q1015 NOSIG
ZHHH,2021-11-20 10:00,ZHHH 201000Z 04004MPS 4500 BR OVC023 15/12 Q1015 NOSIG
ZHHH,2021-11-20 11:00,ZHHH 201100Z 04004MPS 2700 BR OVC023 14/13 Q1016 NOSIG
ZHHH,2021-11-20 12:00,ZHHH 201200Z 04004MPS 360V070 2700 BR OVC023 14/13 Q1017 NOSIG
ZHHH,2021-11-20 13:00,ZHHH 201300Z 04004MPS 2000 BR OVC026 13/13 Q1017 NOSIG
ZHHH,2021-11-20 14:00,ZHHH 201400Z 02003MPS 340V060 2000 BR OVC026 13/13 Q1018 NOSIG
ZHHH,2021-11-20 15:00,ZHHH 201500Z 02003MPS 340V050 2700 BR FEW010 BKN026 13/12 Q1019 BECMG TL1550 3000
ZHHH,2021-11-20 16:00,ZHHH 201600Z 03003MPS 340V060 3300 BR FEW010 BKN026 13/12 Q1019 NOSIG
ZHHH,2021-11-20 17:00,ZHHH 201700Z 35002MPS 290V040 3000 BR SCT010 OVC026 13/12 Q1019 NOSIG
ZHHH,2021-11-20 18:00,ZHHH 201800Z 02004MPS 320V050 3000 BR SCT014 OVC040 13/11 Q1019 NOSIG
ZHHH,2021-11-20 19:00,ZHHH 201900Z 36002MPS 310V040 3000 BR SCT014 OVC040 13/12 Q1019 NOSIG
ZHHH,2021-11-20 20:00,ZHHH 202000Z 36002MPS 310V040 3000 BR SCT014 OVC040 13/11 Q1019 NOSIG
ZHHH,2021-11-20 21:00,ZHHH 202100Z 01003MPS 240V040 4000 BR OVC023 13/11 Q1020 NOSIG
ZHHH,2021-11-20 22:00,ZHHH 202200Z 01002MPS 330V050 4000 BR OVC023 13/11 Q1020 NOSIG
ZHHH,2021-11-20 23:00,ZHHH 202300Z 03003MPS 340V070 4000 BR OVC040 13/09 Q1021 NOSIG
ZHHH,2021-11-21 00:00,ZHHH 210000Z 04003MPS 4000 BR NSC 13/09 Q1022 NOSIG
ZHHH,2021-11-21 01:00,ZHHH 210100Z 04005MPS 360V060 6000 NSC 13/07 Q1022 NOSIG
ZHHH,2021-11-21 02:00,ZHHH 210200Z 03004MPS 360V060 6000 NSC 13/06 Q1024 NOSIG
ZHHH,2021-11-21 03:00,ZHHH 210300Z 04005MPS 7000 -RA NSC 13/06 Q1023 NOSIG
ZHHH,2021-11-21 04:00,ZHHH 210400Z 03003MPS 7000 -RA NSC 13/06 Q1022 NOSIG
ZHHH,2021-11-21 05:00,ZHHH 210500Z 02004MPS 360V060 8000 NSC 14/03 Q1022 NOSIG
ZHHH,2021-11-21 06:00,ZHHH 210600Z 02003MPS 320V050 CAVOK 14/02 Q1022 NOSIG
ZHHH,2021-11-21 07:00,ZHHH 210700Z 36003MPS 300V060 CAVOK 14/02 Q1022 NOSIG
ZHHH,2021-11-21 08:00,ZHHH 210800Z 36002MPS 320V040 CAVOK 14/01 Q1023 NOSIG
ZHHH,2021-11-21 09:00,ZHHH 210900Z 36002MPS 330V030 CAVOK 14/02 Q1023 NOSIG
ZHHH,2021-11-21 10:00,ZHHH 211000Z 35002MPS 320V020 CAVOK 13/02 Q1024 NOSIG
ZHHH,2021-11-21 11:00,ZHHH 211100Z 35003MPS 320V040 CAVOK 13/00 Q1026 NOSIG
ZHHH,2021-11-21 12:00,ZHHH 211200Z 01002MPS 340V050 CAVOK 12/M00 Q1026 NOSIG
ZHHH,2021-11-21 13:00,ZHHH 211300Z 03003MPS CAVOK 12/M03 Q1027 NOSIG
ZHHH,2021-11-21 14:00,ZHHH 211400Z 04003MPS CAVOK 12/M02 Q1027 NOSIG
ZHHH,2021-11-21 15:00,ZHHH 211500Z 04005MPS CAVOK 12/M04 Q1028 NOSIG
ZHHH,2021-11-21 16:00,ZHHH 211600Z 04004MPS CAVOK 11/M04 Q1028 NOSIG
ZHHH,2021-11-21 17:00,ZHHH 211700Z 04003MPS 360V060 CAVOK 11/M04 Q1029 NOSIG
ZHHH,2021-11-21 18:00,ZHHH 211800Z 05003MPS CAVOK 10/M03 Q1029 NOSIG
ZHHH,2021-11-21 19:00,ZHHH 211900Z 04005MPS CAVOK 10/M06 Q1029 NOSIG
ZHHH,2021-11-21 20:00,ZHHH 212000Z 03005MPS 360V060 CAVOK 09/M12 Q1029 NOSIG
ZHHH,2021-11-21 21:00,ZHHH 212100Z 03006MPS 350V060 CAVOK 08/M12 Q1029 NOSIG
ZHHH,2021-11-21 22:00,ZHHH 212200Z 02005MPS 360V060 CAVOK 08/M12 Q1030 NOSIG
ZHHH,2021-11-21 23:00,ZHHH 212300Z 03004MPS 360V060 CAVOK 07/M11 Q1031 NOSIG
ZHHH,2021-11-22 00:00,ZHHH 220000Z 03004MPS CAVOK 07/M11 Q1031 NOSIG
ZHHH,2021-11-22 01:00,ZHHH 220100Z 03004MPS 340V060 CAVOK 08/M12 Q1032 NOSIG
ZHHH,2021-11-22 02:00,ZHHH 220200Z 02005MPS 340V060 CAVOK 09/M13 Q1032 NOSIG
ZHHH,2021-11-22 03:00,ZHHH 220300Z 01005MPS 320V060 CAVOK 09/M15 Q1032 NOSIG
ZHHH,2021-11-22 04:00,ZHHH 220400Z 04005MPS 310V060 CAVOK 10/M16 Q1031 NOSIG
ZHHH,2021-11-22 05:00,ZHHH 220500Z 04004MPS 330V070 CAVOK 10/M16 Q1030 NOSIG
ZHHH,2021-11-22 06:00,ZHHH 220600Z 02003MPS 320V060 CAVOK 11/M17 Q1028 NOSIG
ZHHH,2021-11-22 07:00,ZHHH 220700Z 36002MPS 280V040 CAVOK 11/M17 Q1028 NOSIG
ZHHH,2021-11-22 08:00,ZHHH 220800Z 05004MPS CAVOK 10/M15 Q1028 NOSIG
ZHHH,2021-11-22 09:00,ZHHH 220900Z 05003MPS 010V090 CAVOK 09/M13 Q1028 NOSIG
ZHHH,2021-11-22 10:00,ZHHH 221000Z 07003MPS CAVOK 08/M13 Q1028 NOSIG
ZHHH,2021-11-22 11:00,ZHHH 221100Z 08003MPS CAVOK 08/M12 Q1028 NOSIG
ZHHH,2021-11-22 12:00,ZHHH 221200Z 05002MPS CAVOK 07/M10 Q1028 NOSIG
ZHHH,2021-11-22 13:00,ZHHH 221300Z 07004MPS CAVOK 07/M10 Q1028 NOSIG
ZHHH,2021-11-22 14:00,ZHHH 221400Z 09003MPS CAVOK 07/M12 Q1029 NOSIG
ZHHH,2021-11-22 15:00,ZHHH 221500Z VRB01MPS CAVOK 03/M06 Q1029 NOSIG
ZHHH,2021-11-22 16:00,ZHHH 221600Z VRB01MPS CAVOK 04/M07 Q1029 NOSIG
ZHHH,2021-11-22 17:00,ZHHH 221700Z 04002MPS CAVOK 04/M08 Q1029 NOSIG
ZHHH,2021-11-22 18:00,ZHHH 221800Z 06002MPS CAVOK 04/M07 Q1029 NOSIG
ZHHH,2021-11-22 19:00,ZHHH 221900Z VRB01MPS CAVOK 05/M04 Q1028 NOSIG
ZHHH,2021-11-22 20:00,ZHHH 222000Z VRB01MPS CAVOK 04/M07 Q1028 NOSIG
ZHHH,2021-11-22 21:00,ZHHH 222100Z 05002MPS 030V090 CAVOK 04/M04 Q1028 NOSIG
ZHHH,2021-11-22 22:00,ZHHH 222200Z 07003MPS CAVOK 05/M05 Q1028 NOSIG
ZHHH,2021-11-22 23:00,ZHHH 222300Z 11003MPS CAVOK 05/M05 Q1028 NOSIG
ZHHH,2021-11-23 00:00,ZHHH 230000Z 07003MPS CAVOK 05/M04 Q1029 NOSIG
ZHHH,2021-11-23 01:00,ZHHH 230100Z VRB01MPS CAVOK 08/M02 Q1029 NOSIG
ZHHH,2021-11-23 02:00,ZHHH 230200Z 23002MPS 170V270 CAVOK 10/M04 Q1030 NOSIG
ZHHH,2021-11-23 03:00,ZHHH 230300Z VRB02MPS CAVOK 11/M03 Q1029 NOSIG
ZHHH,2021-11-23 04:00,ZHHH 230400Z VRB02MPS CAVOK 12/M06 Q1028 NOSIG
ZHHH,2021-11-23 05:00,ZHHH 230500Z VRB02MPS CAVOK 13/M06 Q1027 NOSIG
ZHHH,2021-11-23 06:00,ZHHH 230600Z 26002MPS 200V340 CAVOK 14/M06 Q1026 NOSIG
ZHHH,2021-11-23 07:00,ZHHH 230700Z VRB02MPS CAVOK 15/M06 Q1025 NOSIG
ZHHH,2021-11-23 08:00,ZHHH 230800Z 18002MPS 140V220 CAVOK 14/M05 Q1025 NOSIG
ZHHH,2021-11-23 09:00,ZHHH 230900Z 22001MPS CAVOK 14/M03 Q1024 NOSIG
ZHHH,2021-11-23 10:00,ZHHH 231000Z 20002MPS CAVOK 11/M04 Q1025 NOSIG
ZHHH,2021-11-23 11:00,ZHHH 231100Z 23002MPS CAVOK 09/M01 Q1025 NOSIG
ZHHH,2021-11-23 12:00,ZHHH 231200Z 21002MPS CAVOK 09/M01 Q1025 NOSIG
ZHHH,2021-11-23 13:00,ZHHH 231300Z 19001MPS CAVOK 07/M02 Q1026 NOSIG
ZHHH,2021-11-23 14:00,ZHHH 231400Z 00000MPS CAVOK 06/M02 Q1026 NOSIG
ZHHH,2021-11-23 15:00,ZHHH 231500Z 00000MPS CAVOK 05/M01 Q1026 NOSIG
ZHHH,2021-11-23 16:00,ZHHH 231600Z 00000MPS CAVOK 04/M01 Q1026 NOSIG
ZHHH,2021-11-23 17:00,ZHHH 231700Z 00000MPS CAVOK 05/01 Q1025 NOSIG
ZHHH,2021-11-23 18:00,ZHHH 231800Z 00000MPS CAVOK 04/01 Q1025 NOSIG
ZHHH,2021-11-23 19:00,ZHHH 231900Z 00000MPS 8000 NSC 04/03 Q1025 NOSIG
ZHHH,2021-11-23 20:00,ZHHH 232000Z VRB01MPS 8000 NSC 06/03 Q1024 NOSIG
ZHHH,2021-11-23 21:00,ZHHH 232100Z 06002MPS 030V140 8000 NSC 06/02 Q1024 NOSIG
ZHHH,2021-11-23 22:00,ZHHH 232200Z VRB01MPS 8000 NSC 04/02 Q1024 NOSIG
ZHHH,2021-11-23 23:00,ZHHH 232300Z VRB01MPS 8000 NSC 06/02 Q1024 NOSIG
ZHHH,2021-11-24 00:00,ZHHH 240000Z 10002MPS 040V130 6000 NSC 08/04 Q1024 NOSIG
ZHHH,2021-11-24 01:00,ZHHH 240100Z 12002MPS 040V160 7000 NSC 10/03 Q1025 NOSIG
ZHHH,2021-11-24 02:00,ZHHH 240200Z 17002MPS 120V230 CAVOK 12/01 Q1025 NOSIG
ZHHH,2021-11-24 03:00,ZHHH 240300Z 22004MPS CAVOK 14/M02 Q1024 NOSIG
ZHHH,2021-11-24 04:00,ZHHH 240400Z 22004MPS 180V260 CAVOK 15/M01 Q1023 NOSIG
ZHHH,2021-11-24 05:00,ZHHH 240500Z 21004MPS 180V250 CAVOK 20/M00 Q1022 NOSIG
ZHHH,2021-11-24 06:00,ZHHH 240600Z 22003MPS 190V270 CAVOK 18/01 Q1021 NOSIG
ZHHH,2021-11-24 07:00,ZHHH 240700Z 22004MPS CAVOK 18/02 Q1020 NOSIG
ZHHH,2021-11-24 08:00,ZHHH 240800Z 21003MPS CAVOK 18/02 Q1020 NOSIG
ZHHH,2021-11-24 09:00,ZHHH 240900Z 20003MPS CAVOK 16/03 Q1020 NOSIG
ZHHH,2021-11-24 10:00,ZHHH 241000Z 19003MPS CAVOK 15/02 Q1020 NOSIG
ZHHH,2021-11-24 11:00,ZHHH 241100Z 19002MPS CAVOK 13/02 Q1020 NOSIG
ZHHH,2021-11-24 12:00,ZHHH 241200Z 19002MPS CAVOK 11/03 Q1020 NOSIG
ZHHH,2021-11-24 13:00,ZHHH 241300Z 00000MPS CAVOK 08/04 Q1021 NOSIG
ZHHH,2021-11-24 14:00,ZHHH 241400Z 13001MPS CAVOK 09/03 Q1021 NOSIG
ZHHH,2021-11-24 15:00,ZHHH 241500Z 00000MPS CAVOK 07/02 Q1021 NOSIG
ZHHH,2021-11-24 16:00,ZHHH 241600Z 08002MPS CAVOK 08/03 Q1021 NOSIG
ZHHH,2021-11-24 17:00,ZHHH 241700Z VRB01MPS CAVOK 08/02 Q1021 NOSIG
ZHHH,2021-11-24 18:00,ZHHH 241800Z 00000MPS CAVOK 07/03 Q1021 NOSIG
ZHHH,2021-11-24 19:00,ZHHH 241900Z 06002MPS CAVOK 07/04 Q1021 NOSIG
ZHHH,2021-11-24 20:00,ZHHH 242000Z 08002MPS CAVOK 07/04 Q1021 NOSIG
ZHHH,2021-11-24 21:00,ZHHH 242100Z 07003MPS CAVOK 07/04 Q1021 NOSIG
ZHHH,2021-11-24 22:00,ZHHH 242200Z 06001MPS CAVOK 06/04 Q1021 NOSIG
ZHHH,2021-11-24 23:00,ZHHH 242300Z 06002MPS 020V120 8000 NSC 08/05 Q1022 NOSIG
ZHHH,2021-11-25 00:00,ZHHH 250000Z 06003MPS 8000 NSC 08/05 Q1023 NOSIG
ZHHH,2021-11-25 01:00,ZHHH 250100Z 11002MPS 070V140 6000 NSC 11/05 Q1023 NOSIG
ZHHH,2021-11-25 02:00,ZHHH 250200Z 10002MPS 060V150 6000 NSC 14/06 Q1023 NOSIG
ZHHH,2021-11-25 03:00,ZHHH 250300Z 20002MPS 150V270 8000 NSC 15/03 Q1023 NOSIG
ZHHH,2021-11-25 04:00,ZHHH 250400Z VRB01MPS CAVOK 16/05 Q1022 NOSIG
ZHHH,2021-11-25 05:00,ZHHH 250500Z VRB02MPS CAVOK 17/04 Q1021 NOSIG
ZHHH,2021-11-25 06:00,ZHHH 250600Z 25002MPS 210V310 CAVOK 18/05 Q1021 NOSIG
ZHHH,2021-11-25 07:00,ZHHH 250700Z 25002MPS CAVOK 18/04 Q1020 NOSIG
ZHHH,2021-11-25 08:00,ZHHH 250800Z 22002MPS 180V250 CAVOK 19/05 Q1020 NOSIG
ZHHH,2021-11-25 09:00,ZHHH 250900Z VRB01MPS CAVOK 18/06 Q1020 NOSIG
ZHHH,2021-11-25 10:00,ZHHH 251000Z 15001MPS CAVOK 15/05 Q1021 NOSIG
ZHHH,2021-11-25 11:00,ZHHH 251100Z 12002MPS 080V170 CAVOK 14/05 Q1021 NOSIG
ZHHH,2021-11-25 12:00,ZHHH 251200Z 00000MPS 8000 NSC 11/05 Q1022 NOSIG
ZHHH,2021-11-25 13:00,ZHHH 251300Z VRB01MPS 8000 NSC 09/06 Q1022 NOSIG
ZHHH,2021-11-25 14:00,ZHHH 251400Z 00000MPS 8000 NSC 09/08 Q1023 NOSIG
ZHHH,2021-11-25 15:00,ZHHH 251500Z 05001MPS 8000 NSC 08/08 Q1023 NOSIG
ZHHH,2021-11-25 16:00,ZHHH 251600Z 05002MPS 7000 NSC 07/06 Q1023 NOSIG
ZHHH,2021-11-25 17:00,ZHHH 251700Z 08002MPS 7000 NSC 09/05 Q1023 NOSIG
ZHHH,2021-11-25 18:00,ZHHH 251800Z 05002MPS 7000 NSC 07/05 Q1023 NOSIG
ZHHH,2021-11-25 19:00,ZHHH 251900Z 00000MPS 6000 NSC 06/05 Q1023 NOSIG
ZHHH,2021-11-25 20:00,ZHHH 252000Z 06003MPS 6000 NSC 07/05 Q1023 NOSIG
ZHHH,2021-11-25 21:00,ZHHH 252100Z 08002MPS 6000 NSC 06/04 Q1024 NOSIG
ZHHH,2021-11-25 22:00,ZHHH 252200Z 15002MPS 6000 NSC 08/05 Q1024 NOSIG
ZHHH,2021-11-25 23:00,ZHHH 252300Z 09002MPS 5000 BR NSC 08/04 Q1025 NOSIG
ZHHH,2021-11-26 00:00,ZHHH 260000Z 10002MPS 060V140 5000 BR NSC 10/04 Q1026 NOSIG
ZHHH,2021-11-26 01:00,ZHHH 260100Z 10002MPS 050V130 5000 HZ NSC 11/05 Q1027 NOSIG
ZHHH,2021-11-26 02:00,ZHHH 260200Z 09002MPS 040V120 6000 NSC 13/05 Q1027 NOSIG
ZHHH,2021-11-26 03:00,ZHHH 260300Z 07002MPS 030V100 6000 NSC 15/06 Q1027 NOSIG
ZHHH,2021-11-26 04:00,ZHHH 260400Z VRB01MPS 7000 NSC 17/08 Q1026 NOSIG
ZHHH,2021-11-26 05:00,ZHHH 260500Z VRB02MPS 7000 NSC 18/07 Q1026 NOSIG
ZHHH,2021-11-26 06:00,ZHHH 260600Z 26002MPS 230V330 7000 NSC 19/06 Q1025 NOSIG
ZHHH,2021-11-26 07:00,ZHHH 260700Z 27002MPS 210V320 8000 NSC 20/05 Q1025 NOSIG
ZHHH,2021-11-26 08:00,ZHHH 260800Z VRB02MPS CAVOK 21/03 Q1025 NOSIG
ZHHH,2021-11-26 09:00,ZHHH 260900Z 29001MPS CAVOK 18/05 Q1025 NOSIG
ZHHH,2021-11-26 10:00,ZHHH 261000Z 30001MPS CAVOK 13/06 Q1025 NOSIG
ZHHH,2021-11-26 11:00,ZHHH 261100Z 02003MPS 340V050 8000 NSC 15/04 Q1026 NOSIG
ZHHH,2021-11-26 12:00,ZHHH 261200Z 04003MPS CAVOK 14/02 Q1027 NOSIG
ZHHH,2021-11-26 13:00,ZHHH 261300Z 06004MPS CAVOK 12/01 Q1027 NOSIG
ZHHH,2021-11-26 14:00,ZHHH 261400Z 06003MPS CAVOK 11/01 Q1027 NOSIG
ZHHH,2021-11-26 15:00,ZHHH 261500Z 07005MPS CAVOK 12/M00 Q1028 NOSIG
ZHHH,2021-11-26 16:00,ZHHH 261600Z 08004MPS CAVOK 12/M01 Q1028 NOSIG
ZHHH,2021-11-26 17:00,ZHHH 261700Z 07003MPS CAVOK 09/00 Q1028 NOSIG
ZHHH,2021-11-26 18:00,ZHHH 261800Z 06003MPS CAVOK 10/M00 Q1028 NOSIG
ZHHH,2021-11-26 19:00,ZHHH 261900Z 08002MPS CAVOK 09/M00 Q1028 NOSIG
ZHHH,2021-11-26 20:00,ZHHH 262000Z 07002MPS CAVOK 07/00 Q1028 NOSIG
ZHHH,2021-11-26 21:00,ZHHH 262100Z 05002MPS 010V070 CAVOK 06/00 Q1028 NOSIG
ZHHH,2021-11-26 22:00,ZHHH 262200Z 08004MPS CAVOK 09/M01 Q1028 NOSIG
ZHHH,2021-11-26 23:00,ZHHH 262300Z 11001MPS 7000 NSC 06/M00 Q1029 NOSIG
ZHHH,2021-11-27 00:00,ZHHH 270000Z 08002MPS 050V130 7000 NSC 09/01 Q1029 NOSIG
ZHHH,2021-11-27 01:00,ZHHH 270100Z 09002MPS 6000 NSC 11/M00 Q1030 NOSIG
ZHHH,2021-11-27 02:00,ZHHH 270200Z 08002MPS 050V120 6000 NSC 13/01 Q1030 NOSIG
ZHHH,2021-11-27 03:00,ZHHH 270300Z 10002MPS 020V150 6000 NSC 15/00 Q1030 NOSIG
ZHHH,2021-11-27 04:00,ZHHH 270400Z 10004MPS 5000 HZ NSC 16/00 Q1029 NOSIG
ZHHH,2021-11-27 05:00,ZHHH 270500Z 13003MPS 070V170 5000 HZ NSC 17/00 Q1028 NOSIG
ZHHH,2021-11-27 06:00,ZHHH 270600Z 10003MPS 030V160 5000 HZ NSC 18/M02 Q1027 NOSIG
ZHHH,2021-11-27 07:00,ZHHH 270700Z 11002MPS 010V160 5000 HZ NSC 19/M03 Q1027 NOSIG
ZHHH,2021-11-27 08:00,ZHHH 270800Z 10002MPS 020V190 8000 NSC 18/M02 Q1026 NOSIG
ZHHH,2021-11-27 09:00,ZHHH 270900Z 08002MPS 8000 NSC 17/M04 Q1027 NOSIG
ZHHH,2021-11-27 10:00,ZHHH 271000Z 00000MPS CAVOK 13/M03 Q1027 NOSIG
ZHHH,2021-11-27 11:00,ZHHH 271100Z 32001MPS CAVOK 10/00 Q1027 NOSIG
ZHHH,2021-11-27 12:00,ZHHH 271200Z VRB01MPS 8000 NSC 09/02 Q1027 NOSIG
ZHHH,2021-11-27 13:00,ZHHH 271300Z 05003MPS 8000 NSC 11/01 Q1028 NOSIG
ZHHH,2021-11-27 14:00,ZHHH 271400Z 10003MPS 7000 NSC 12/00 Q1028 NOSIG
ZHHH,2021-11-27 15:00,ZHHH 271500Z 08003MPS 6000 NSC 11/02 Q1028 NOSIG
ZHHH,2021-11-27 16:00,ZHHH 271600Z 06002MPS 040V100 6000 NSC 10/02 Q1027 NOSIG
ZHHH,2021-11-27 17:00,ZHHH 271700Z 08002MPS 050V110 6000 NSC 07/03 Q1027 NOSIG
ZHHH,2021-11-27 18:00,ZHHH 271800Z 08002MPS 5000 HZ NSC 08/03 Q1027 NOSIG
ZHHH,2021-11-27 19:00,ZHHH 271900Z 04002MPS 5000 HZ NSC 08/03 Q1026 NOSIG
ZHHH,2021-11-27 20:00,ZHHH 272000Z 04002MPS 5000 BR NSC 07/04 Q1026 NOSIG
ZHHH,2021-11-27 21:00,ZHHH 272100Z VRB01MPS 5000 BR NSC 06/04 Q1027 NOSIG
ZHHH,2021-11-27 22:00,ZHHH 272200Z 09001MPS 5000 BR NSC 05/05 Q1027 NOSIG
ZHHH,2021-11-27 23:00,ZHHH 272300Z 05001MPS 3500 BR NSC 05/04 Q1027 NOSIG
ZHHH,2021-11-28 00:00,ZHHH 280000Z VRB01MPS 3000 BR NSC 08/06 Q1027 NOSIG
ZHHH,2021-11-28 01:00,ZHHH 280100Z 06003MPS 3500 BR NSC 10/05 Q1028 NOSIG
ZHHH,2021-11-28 02:00,ZHHH 280200Z 09002MPS 350V140 3500 HZ NSC 13/06 Q1028 NOSIG
ZHHH,2021-11-28 03:00,ZHHH 280300Z VRB01MPS 4000 HZ NSC 14/07 Q1028 NOSIG
ZHHH,2021-11-28 04:00,ZHHH 280400Z VRB03MPS 7000 NSC 16/05 Q1027 NOSIG
ZHHH,2021-11-28 05:00,ZHHH 280500Z 12003MPS 080V170 7000 NSC 17/06 Q1026 NOSIG
ZHHH,2021-11-28 06:00,ZHHH 280600Z VRB02MPS 7000 NSC 18/06 Q1025 NOSIG
ZHHH,2021-11-28 07:00,ZHHH 280700Z 12003MPS 080V160 7000 NSC 18/06 Q1024 NOSIG
ZHHH,2021-11-28 08:00,ZHHH 280800Z 14002MPS 080V170 7000 NSC 17/06 Q1024 NOSIG
ZHHH,2021-11-28 09:00,ZHHH 280900Z VRB01MPS 7000 NSC 17/06 Q1024 NOSIG
ZHHH,2021-11-28 10:00,ZHHH 281000Z 00000MPS 8000 NSC 15/07 Q1024 NOSIG
ZHHH,2021-11-28 11:00,ZHHH 281100Z 00000MPS 8000 NSC 14/07 Q1025 NOSIG
ZHHH,2021-11-28 12:00,ZHHH 281200Z VRB01MPS 8000 NSC 14/07 Q1025 NOSIG
ZHHH,2021-11-28 13:00,ZHHH 281300Z 04002MPS 8000 NSC 14/07 Q1025 NOSIG
ZHHH,2021-11-28 14:00,ZHHH 281400Z 05002MPS 8000 NSC 14/07 Q1025 NOSIG
ZHHH,2021-11-28 15:00,ZHHH 281500Z 05002MPS 8000 NSC 13/06 Q1025 NOSIG
ZHHH,2021-11-28 16:00,ZHHH 281600Z 05003MPS 8000 NSC 13/07 Q1025 NOSIG
ZHHH,2021-11-28 17:00,ZHHH 281700Z 03002MPS 8000 NSC 13/07 Q1025 NOSIG
ZHHH,2021-11-28 18:00,ZHHH 281800Z 04002MPS 8000 NSC 11/05 Q1025 NOSIG
ZHHH,2021-11-28 19:00,ZHHH 281900Z 02002MPS 8000 NSC 10/05 Q1025 NOSIG
ZHHH,2021-11-28 20:00,ZHHH 282000Z 00000MPS 8000 NSC 08/05 Q1025 NOSIG
ZHHH,2021-11-28 21:00,ZHHH 282100Z 36001MPS 8000 NSC 07/07 Q1025 NOSIG
ZHHH,2021-11-28 22:00,ZHHH 282200Z 34001MPS 5000 BR NSC 07/07 Q1025 NOSIG
ZHHH,2021-11-28 23:00,ZHHH 282300Z 00000MPS 4000 BR NSC 07/07 Q1025 BECMG TL0040 2800
ZHHH,2021-11-29 00:00,ZHHH 290000Z VRB01MPS 3000 BR NSC 09/09 Q1025 NOSIG
ZHHH,2021-11-29 01:00,ZHHH 290100Z VRB01MPS 4000 BR NSC 11/08 Q1026 NOSIG
ZHHH,2021-11-29 02:00,ZHHH 290200Z 32002MPS 240V350 4000 BR NSC 12/08 Q1026 NOSIG
ZHHH,2021-11-29 03:00,ZHHH 290300Z 26002MPS 220V330 5000 BR NSC 13/07 Q1025 NOSIG
ZHHH,2021-11-29 04:00,ZHHH 290400Z 25002MPS 220V320 5000 HZ NSC 15/08 Q1024 NOSIG
ZHHH,2021-11-29 05:00,ZHHH 290500Z 25002MPS 220V340 5000 HZ NSC 16/07 Q1023 NOSIG
ZHHH,2021-11-29 06:00,ZHHH 290600Z 26003MPS 230V290 6000 NSC 18/07 Q1023 NOSIG
ZHHH,2021-11-29 07:00,ZHHH 290700Z 29004MPS 240V340 6000 NSC 18/05 Q1023 NOSIG
ZHHH,2021-11-29 08:00,ZHHH 290800Z 34003MPS 290V040 6000 NSC 17/05 Q1023 NOSIG
ZHHH,2021-11-29 09:00,ZHHH 290900Z 33003MPS 240V050 6000 NSC 17/04 Q1024 NOSIG
ZHHH,2021-11-29 10:00,ZHHH 291000Z 35004MPS 320V030 6000 NSC 15/06 Q1026 NOSIG
ZHHH,2021-11-29 11:00,ZHHH 291100Z 33004MPS 250V040 6000 NSC 14/05 Q1027 NOSIG
ZHHH,2021-11-29 12:00,ZHHH 291200Z 35005G10MPS 300V020 CAVOK 13/04 Q1027 NOSIG
ZHHH,2021-11-29 13:00,ZHHH 291300Z 34004MPS 310V020 CAVOK 12/04 Q1028 NOSIG
ZHHH,2021-11-29 14:00,ZHHH 291400Z VRB04G09MPS CAVOK 11/06 Q1029 NOSIG
ZHHH,2021-11-29 15:00,ZHHH 291500Z 34004MPS 290V040 CAVOK 09/07 Q1030 NOSIG
ZHHH,2021-11-29 16:00,ZHHH 291600Z 35004MPS 310V060 9999 OVC040 09/07 Q1030 NOSIG
ZHHH,2021-11-29 17:00,ZHHH 291700Z 33002MPS 270V050 CAVOK 09/07 Q1030 NOSIG
ZHHH,2021-11-29 18:00,ZHHH 291800Z VRB03MPS CAVOK 09/06 Q1030 NOSIG
ZHHH,2021-11-29 19:00,ZHHH 291900Z 32003MPS 260V050 CAVOK 08/05 Q1030 NOSIG
ZHHH,2021-11-29 20:00,ZHHH 292000Z VRB02MPS CAVOK 07/04 Q1030 NOSIG
ZHHH,2021-11-29 21:00,ZHHH 292100Z 32002MPS 270V030 CAVOK 07/03 Q1030 NOSIG
ZHHH,2021-11-29 22:00,ZHHH 292200Z 33002MPS 260V040 CAVOK 07/03 Q1030 NOSIG
ZHHH,2021-11-29 23:00,ZHHH 292300Z 29002MPS 250V340 CAVOK 07/03 Q1030 NOSIG
ZHHH,2021-11-30 00:00,ZHHH 300000Z VRB02MPS CAVOK 08/02 Q1031 NOSIG
ZHHH,2021-11-30 01:00,ZHHH 300100Z VRB02MPS CAVOK 09/02 Q1032 NOSIG
ZHHH,2021-11-30 02:00,ZHHH 300200Z 34002MPS 240V030 CAVOK 11/01 Q1032 NOSIG
ZHHH,2021-11-30 03:00,ZHHH 300300Z 33002MPS 270V030 CAVOK 12/00 Q1032 NOSIG
ZHHH,2021-11-30 04:00,ZHHH 300400Z VRB02MPS CAVOK 13/M02 Q1031 NOSIG
ZHHH,2021-11-30 05:00,ZHHH 300500Z 35003MPS 290V040 CAVOK 15/M04 Q1030 NOSIG
ZHHH,2021-11-30 06:00,ZHHH 300600Z 34004MPS 280V040 CAVOK 15/M06 Q1028 NOSIG
ZHHH,2021-11-30 07:00,ZHHH 300700Z 34004MPS 290V030 CAVOK 15/M05 Q1028 NOSIG
ZHHH,2021-11-30 08:00,ZHHH 300800Z 36004MPS 320V040 CAVOK 15/M07 Q1027 NOSIG
ZHHH,2021-11-30 09:00,ZHHH 300900Z 35003MPS 310V020 CAVOK 14/M06 Q1028 NOSIG
ZHHH,2021-11-30 10:00,ZHHH 301000Z VRB01MPS CAVOK 10/M03 Q1028 NOSIG
ZHHH,2021-11-30 11:00,ZHHH 301100Z 04003MPS CAVOK 10/M06 Q1029 NOSIG
ZHHH,2021-11-30 12:00,ZHHH 301200Z 04004MPS CAVOK 09/M07 Q1030 NOSIG
ZHHH,2021-11-30 13:00,ZHHH 301300Z 06003MPS CAVOK 07/M06 Q1030 NOSIG
ZHHH,2021-11-30 14:00,ZHHH 301400Z 07003MPS CAVOK 07/M06 Q1030 NOSIG
ZHHH,2021-11-30 15:00,ZHHH 301500Z 09002MPS 050V120 CAVOK 07/M06 Q1031 NOSIG
ZHHH,2021-11-30 16:00,ZHHH 301600Z 06002MPS CAVOK 04/M05 Q1030 NOSIG
ZHHH,2021-11-30 17:00,ZHHH 301700Z 06003MPS CAVOK 05/M05 Q1030 NOSIG
ZHHH,2021-11-30 18:00,ZHHH 301800Z 00000MPS CAVOK 03/M06 Q1031 NOSIG
ZHHH,2021-11-30 19:00,ZHHH 301900Z 00000MPS CAVOK 03/M07 Q1031 NOSIG
ZHHH,2021-11-30 20:00,ZHHH 302000Z 07001MPS CAVOK 02/M04 Q1031 NOSIG
ZHHH,2021-11-30 21:00,ZHHH 302100Z 05002MPS CAVOK 03/M05 Q1031 NOSIG
ZHHH,2021-11-30 22:00,ZHHH 302200Z 01002MPS CAVOK 01/M04 Q1031 NOSIG
ZHHH,2021-11-30 23:00,ZHHH 302300Z 36001MPS CAVOK 01/M03 Q1032 NOSIG
ZHHH,2021-12-01 00:00,ZHHH 010000Z 00000MPS CAVOK 05/M01 Q1033 NOSIG
ZHHH,2021-12-01 01:00,ZHHH 010100Z 07002MPS 030V100 CAVOK 07/M05 Q1033 NOSIG
ZHHH,2021-12-01 02:00,ZHHH 010200Z 06003MPS 030V090 CAVOK 09/M06 Q1033 NOSIG
ZHHH,2021-12-01 03:00,ZHHH 010300Z VRB01MPS CAVOK 11/M06 Q1033 NOSIG
ZHHH,2021-12-01 04:00,ZHHH 010400Z VRB02MPS CAVOK 12/M06 Q1032 NOSIG
ZHHH,2021-12-01 05:00,ZHHH 010500Z 24002MPS 180V290 CAVOK 12/M05 Q1030 NOSIG
ZHHH,2021-12-01 06:00,ZHHH 010600Z 15003MPS 100V200 CAVOK 13/M08 Q1029 NOSIG
ZHHH,2021-12-01 07:00,ZHHH 010700Z 16003MPS 100V220 CAVOK 13/M09 Q1028 NOSIG
ZHHH,2021-12-01 08:00,ZHHH 010800Z 15002MPS 100V190 CAVOK 12/M09 Q1028 NOSIG
ZHHH,2021-12-01 09:00,ZHHH 010900Z 14002MPS CAVOK 11/M08 Q1028 NOSIG
ZHHH,2021-12-01 10:00,ZHHH 011000Z 21002MPS 180V250 CAVOK 09/M04 Q1028 NOSIG
ZHHH,2021-12-01 11:00,ZHHH 011100Z VRB01MPS CAVOK 08/M05 Q1028 NOSIG
ZHHH,2021-12-01 12:00,ZHHH 011200Z VRB01MPS CAVOK 06/M04 Q1029 NOSIG
ZHHH,2021-12-01 13:00,ZHHH 011300Z VRB01MPS CAVOK 05/M02 Q1029 NOSIG
ZHHH,2021-12-01 14:00,ZHHH 011400Z 30002MPS CAVOK 07/03 Q1030 NOSIG
ZHHH,2021-12-01 15:00,ZHHH 011500Z 00000MPS CAVOK 05/01 Q1030 NOSIG
ZHHH,2021-12-01 16:00,ZHHH 011600Z 06001MPS CAVOK 05/M01 Q1029 NOSIG
ZHHH,2021-12-01 17:00,ZHHH 011700Z 00000MPS CAVOK 04/M02 Q1028 NOSIG
ZHHH,2021-12-01 18:00,ZHHH 011800Z 00000MPS CAVOK 02/M02 Q1028 NOSIG
ZHHH,2021-12-01 19:00,ZHHH 011900Z 15002MPS CAVOK 04/M02 Q1028 NOSIG
ZHHH,2021-12-01 20:00,ZHHH 012000Z 00000MPS CAVOK 02/M02 Q1028 NOSIG
ZHHH,2021-12-01 21:00,ZHHH 012100Z 07001MPS CAVOK 02/M00 Q1027 NOSIG
ZHHH,2021-12-01 22:00,ZHHH 012200Z 06002MPS CAVOK 02/M02 Q1028 NOSIG
ZHHH,2021-12-01 23:00,ZHHH 012300Z 09002MPS 060V120 CAVOK 03/M02 Q1028 NOSIG
ZHHH,2021-12-02 00:00,ZHHH 020000Z 09002MPS 030V160 CAVOK 06/01 Q1028 NOSIG
ZHHH,2021-12-02 01:00,ZHHH 020100Z VRB01MPS CAVOK 08/03 Q1028 NOSIG
ZHHH,2021-12-02 02:00,ZHHH 020200Z 22002MPS 150V270 CAVOK 09/03 Q1028 NOSIG
ZHHH,2021-12-02 03:00,ZHHH 020300Z 30002MPS 220V350 CAVOK 11/01 Q1028 NOSIG
ZHHH,2021-12-02 04:00,ZHHH 020400Z 27003MPS 220V310 CAVOK 12/M02 Q1026 NOSIG
ZHHH,2021-12-02 05:00,ZHHH 020500Z 27003MPS 220V310 CAVOK 14/M02 Q1025 NOSIG
ZHHH,2021-12-02 06:00,ZHHH 020600Z 25004MPS 210V300 CAVOK 14/M01 Q1024 NOSIG
ZHHH,2021-12-02 07:00,ZHHH 020700Z 24003MPS 220V280 CAVOK 15/M02 Q1023 NOSIG
ZHHH,2021-12-02 08:00,ZHHH 020800Z 28002MPS 210V330 CAVOK 15/M00 Q1023 NOSIG
ZHHH,2021-12-02 09:00,ZHHH 020900Z VRB01MPS CAVOK 14/02 Q1024 NOSIG
ZHHH,2021-12-02 10:00,ZHHH 021000Z 24002MPS CAVOK 10/04 Q1024 NOSIG
ZHHH,2021-12-02 11:00,ZHHH 021100Z 24001MPS CAVOK 10/01 Q1025 NOSIG
ZHHH,2021-12-02 12:00,ZHHH 021200Z 23003MPS CAVOK 10/01 Q1025 NOSIG
ZHHH,2021-12-02 13:00,ZHHH 021300Z 23003MPS CAVOK 09/02 Q1025 NOSIG
ZHHH,2021-12-02 14:00,ZHHH 021400Z 20003MPS CAVOK 09/02 Q1025 NOSIG
ZHHH,2021-12-02 15:00,ZHHH 021500Z 23002MPS CAVOK 08/02 Q1025 NOSIG
ZHHH,2021-12-02 16:00,ZHHH 021600Z 00000MPS CAVOK 06/02 Q1025 NOSIG
ZHHH,2021-12-02 17:00,ZHHH 021700Z 24002MPS CAVOK 07/03 Q1025 NOSIG
ZHHH,2021-12-02 18:00,ZHHH 021800Z 00000MPS CAVOK 04/03 Q1025 NOSIG
ZHHH,2021-12-02 19:00,ZHHH 021900Z 00000MPS 8000 NSC 04/04 Q1025 NOSIG
ZHHH,2021-12-02 20:00,ZHHH 022000Z 00000MPS 8000 NSC 04/02 Q1025 NOSIG
ZHHH,2021-12-02 21:00,ZHHH 022100Z 00000MPS 8000 NSC 03/03 Q1025 NOSIG
ZHHH,2021-12-02 22:00,ZHHH 022200Z 00000MPS 7000 NSC 03/03 Q1025 NOSIG
ZHHH,2021-12-02 23:00,ZHHH 022300Z 06002MPS 5000 BR NSC 04/03 Q1026 NOSIG
ZHHH,2021-12-03 00:00,ZHHH 030000Z 04002MPS 5000 BR NSC 05/03 Q1027 NOSIG
ZHHH,2021-12-03 01:00,ZHHH 030100Z 08002MPS 010V120 5000 BR NSC 08/04 Q1027 NOSIG
ZHHH,2021-12-03 02:00,ZHHH 030200Z VRB01MPS 5000 HZ NSC 11/04 Q1028 NOSIG
ZHHH,2021-12-03 03:00,ZHHH 030300Z 29002MPS 240V320 5000 HZ NSC 11/05 Q1028 NOSIG
ZHHH,2021-12-03 04:00,ZHHH 030400Z 29002MPS 250V360 7000 NSC 14/03 Q1027 NOSIG
ZHHH,2021-12-03 05:00,ZHHH 030500Z 25003MPS 7000 NSC 15/03 Q1026 NOSIG
ZHHH,2021-12-03 06:00,ZHHH 030600Z 24002MPS 140V290 CAVOK 17/M03 Q1025 NOSIG
ZHHH,2021-12-03 07:00,ZHHH 030700Z 24002MPS 200V290 CAVOK 17/M04 Q1025 NOSIG
ZHHH,2021-12-03 08:00,ZHHH 030800Z VRB01MPS CAVOK 18/M06 Q1025 NOSIG
ZHHH,2021-12-03 09:00,ZHHH 030900Z VRB01MPS CAVOK 15/M02 Q1025 NOSIG
ZHHH,2021-12-03 10:00,ZHHH 031000Z 10002MPS 070V130 CAVOK 15/M02 Q1025 NOSIG
ZHHH,2021-12-03 11:00,ZHHH 031100Z 10003MPS CAVOK 14/M02 Q1026 NOSIG
ZHHH,2021-12-03 12:00,ZHHH 031200Z 22002MPS CAVOK 12/00 Q1026 NOSIG
ZHHH,2021-12-03 13:00,ZHHH 031300Z 00000MPS CAVOK 09/02 Q1027 NOSIG
ZHHH,2021-12-03 14:00,ZHHH 031400Z 05003MPS 8000 NSC 09/01 Q1027 NOSIG
ZHHH,2021-12-03 15:00,ZHHH 031500Z VRB01MPS 8000 NSC 07/M00 Q1027 NOSIG
ZHHH,2021-12-03 16:00,ZHHH 031600Z 07002MPS 8000 NSC 07/M02 Q1027 NOSIG
ZHHH,2021-12-03 17:00,ZHHH 031700Z 06002MPS CAVOK 08/M03 Q1027 NOSIG
ZHHH,2021-12-03 18:00,ZHHH 031800Z 01001MPS CAVOK 06/M03 Q1027 NOSIG
ZHHH,2021-12-03 19:00,ZHHH 031900Z 08002MPS 050V110 CAVOK 06/M02 Q1027 NOSIG
ZHHH,2021-12-03 20:00,ZHHH 032000Z 10003MPS CAVOK 08/M01 Q1027 NOSIG
ZHHH,2021-12-03 21:00,ZHHH 032100Z 10005MPS CAVOK 08/M03 Q1026 NOSIG
ZHHH,2021-12-03 22:00,ZHHH 032200Z 09003MPS CAVOK 07/M03 Q1026 NOSIG
ZHHH,2021-12-03 23:00,ZHHH 032300Z 04003MPS CAVOK 05/M01 Q1027 NOSIG
ZHHH,2021-12-04 00:00,ZHHH 040000Z 06003MPS CAVOK 06/M00 Q1028 NOSIG
ZHHH,2021-12-04 01:00,ZHHH 040100Z 06003MPS CAVOK 08/M00 Q1028 NOSIG
ZHHH,2021-12-04 02:00,ZHHH 040200Z 09003MPS 060V120 8000 NSC 11/01 Q1029 NOSIG
ZHHH,2021-12-04 03:00,ZHHH 040300Z 07002MPS 020V140 7000 NSC 14/01 Q1029 NOSIG
ZHHH,2021-12-04 04:00,ZHHH 040400Z 11002MPS 040V160 6000 NSC 15/00 Q1028 NOSIG
ZHHH,2021-12-04 05:00,ZHHH 040500Z 04002MPS 010V090 8000 NSC 16/M03 Q1027 NOSIG
ZHHH,2021-12-04 06:00,ZHHH 040600Z VRB02MPS CAVOK 17/M02 Q1026 NOSIG
ZHHH,2021-12-04 07:00,ZHHH 040700Z 13002MPS 070V180 CAVOK 17/M03 Q1025 NOSIG
ZHHH,2021-12-04 08:00,ZHHH 040800Z 08003MPS CAVOK 17/M05 Q1025 NOSIG
ZHHH,2021-12-04 09:00,ZHHH 040900Z 11003MPS CAVOK 15/M04 Q1025 NOSIG
ZHHH,2021-12-04 10:00,ZHHH 041000Z 12002MPS CAVOK 14/M02 Q1026 NOSIG
ZHHH,2021-12-04 11:00,ZHHH 041100Z 12002MPS CAVOK 12/M02 Q1026 NOSIG
ZHHH,2021-12-04 12:00,ZHHH 041200Z 08001MPS CAVOK 08/M02 Q1026 NOSIG
ZHHH,2021-12-04 13:00,ZHHH 041300Z 00000MPS 7000 NSC 07/M02 Q1026 NOSIG
ZHHH,2021-12-04 14:00,ZHHH 041400Z 05001MPS 7000 NSC 06/M01 Q1027 NOSIG
ZHHH,2021-12-04 15:00,ZHHH 041500Z 04002MPS 7000 NSC 07/M00 Q1027 NOSIG
ZHHH,2021-12-04 16:00,ZHHH 041600Z 07003MPS 7000 NSC 08/M01 Q1026 NOSIG
ZHHH,2021-12-04 17:00,ZHHH 041700Z 12003MPS 7000 NSC 09/00 Q1026 NOSIG
ZHHH,2021-12-04 18:00,ZHHH 041800Z 05003MPS 7000 NSC 07/M00 Q1026 NOSIG
ZHHH,2021-12-04 19:00,ZHHH 041900Z 04002MPS 7000 NSC 04/M00 Q1026 NOSIG
ZHHH,2021-12-04 20:00,ZHHH 042000Z 06003MPS 7000 NSC 05/M00 Q1026 NOSIG
ZHHH,2021-12-04 21:00,ZHHH 042100Z 03002MPS 7000 NSC 05/M01 Q1026 NOSIG
ZHHH,2021-12-04 22:00,ZHHH 042200Z 12003MPS 7000 NSC 06/00 Q1026 NOSIG
ZHHH,2021-12-04 23:00,ZHHH 042300Z 05002MPS 7000 NSC 05/M01 Q1027 NOSIG
ZHHH,2021-12-05 00:00,ZHHH 050000Z 10002MPS 060V140 6000 NSC 07/M01 Q1027 NOSIG
ZHHH,2021-12-05 01:00,ZHHH 050100Z 07003MPS 040V100 8000 NSC 09/M00 Q1027 NOSIG
ZHHH,2021-12-05 02:00,ZHHH 050200Z 09002MPS 050V120 8000 NSC 11/M00 Q1027 NOSIG
ZHHH,2021-12-05 03:00,ZHHH 050300Z 09003MPS 7000 NSC 14/M00 Q1027 NOSIG
ZHHH,2021-12-05 04:00,ZHHH 050400Z 11003MPS 070V160 7000 NSC 15/M00 Q1026 NOSIG
ZHHH,2021-12-05 05:00,ZHHH 050500Z 14002MPS 080V180 7000 NSC 17/M00 Q1025 NOSIG
ZHHH,2021-12-05 06:00,ZHHH 050600Z VRB01MPS 7000 NSC 18/M01 Q1024 NOSIG
ZHHH,2021-12-05 07:00,ZHHH 050700Z 24002MPS 190V290 8000 NSC 18/M01 Q1024 NOSIG
ZHHH,2021-12-05 08:00,ZHHH 050800Z 22002MPS CAVOK 18/M02 Q1024 NOSIG
ZHHH,2021-12-05 09:00,ZHHH 050900Z VRB01MPS CAVOK 16/M01 Q1024 NOSIG
ZHHH,2021-12-05 10:00,ZHHH 051000Z VRB01MPS CAVOK 13/M02 Q1024 NOSIG
ZHHH,2021-12-05 11:00,ZHHH 051100Z 00000MPS CAVOK 10/M02 Q1024 NOSIG
ZHHH,2021-12-05 12:00,ZHHH 051200Z 00000MPS 8000 NSC 09/02 Q1024 NOSIG
ZHHH,2021-12-05 13:00,ZHHH 051300Z 00000MPS 8000 NSC 08/00 Q1025 NOSIG
ZHHH,2021-12-05 14:00,ZHHH 051400Z 00000MPS 8000 NSC 07/01 Q1025 NOSIG
ZHHH,2021-12-05 15:00,ZHHH 051500Z 00000MPS 8000 NSC 06/05 Q1025 NOSIG
ZHHH,2021-12-05 16:00,ZHHH 051600Z 00000MPS 7000 NSC 05/05 Q1025 NOSIG
ZHHH,2021-12-05 17:00,ZHHH 051700Z 00000MPS 7000 NSC 05/03 Q1024 NOSIG
ZHHH,2021-12-05 18:00,ZHHH 051800Z 05002MPS 7000 NSC 06/01 Q1025 NOSIG
ZHHH,2021-12-05 19:00,ZHHH 051900Z 09002MPS 6000 NSC 07/00 Q1024 NOSIG
ZHHH,2021-12-05 20:00,ZHHH 052000Z 00000MPS 6000 NSC 05/01 Q1024 NOSIG
ZHHH,2021-12-05 21:00,ZHHH 052100Z 06002MPS 6000 NSC 05/01 Q1024 NOSIG
ZHHH,2021-12-05 22:00,ZHHH 052200Z 10002MPS 6000 NSC 07/02 Q1024 NOSIG
ZHHH,2021-12-05 23:00,ZHHH 052300Z VRB01MPS 5000 BR NSC 03/01 Q1025 NOSIG
ZHHH,2021-12-06 00:00,ZHHH 060000Z 09002MPS 5000 HZ NSC 07/00 Q1026 NOSIG
ZHHH,2021-12-06 01:00,ZHHH 060100Z 11004MPS 5000 HZ NSC 09/01 Q1026 NOSIG
ZHHH,2021-12-06 02:00,ZHHH 060200Z 11003MPS 080V140 5000 HZ NSC 12/03 Q1027 NOSIG
ZHHH,2021-12-06 03:00,ZHHH 060300Z 09003MPS 060V130 5000 HZ NSC 14/03 Q1027 NOSIG
ZHHH,2021-12-06 04:00,ZHHH 060400Z 07003MPS 040V110 5000 HZ NSC 16/02 Q1027 NOSIG
ZHHH,2021-12-06 05:00,ZHHH 060500Z 15002MPS 100V190 6000 NSC 18/M00 Q1026 NOSIG
ZHHH,2021-12-06 06:00,ZHHH 060600Z 25002MPS 230V290 7000 NSC 17/M01 Q1025 NOSIG
ZHHH,2021-12-06 07:00,ZHHH 060700Z 26002MPS 230V310 7000 NSC 18/01 Q1025 NOSIG
ZHHH,2021-12-06 08:00,ZHHH 060800Z 29002MPS 250V350 7000 NSC 18/03 Q1025 NOSIG
ZHHH,2021-12-06 09:00,ZHHH 060900Z 23001MPS 6000 NSC 16/05 Q1025 NOSIG
ZHHH,2021-12-06 10:00,ZHHH 061000Z 00000MPS 6000 NSC 12/03 Q1026 NOSIG
ZHHH,2021-12-06 11:00,ZHHH 061100Z 31001MPS 7000 NSC 11/06 Q1027 NOSIG
ZHHH,2021-12-06 12:00,ZHHH 061200Z 03003MPS 8000 NSC 13/M00 Q1027 NOSIG
ZHHH,2021-12-06 13:00,ZHHH 061300Z 04004MPS 7000 NSC 12/M00 Q1027 NOSIG
ZHHH,2021-12-06 14:00,ZHHH 061400Z 03004MPS 6000 NSC 12/M01 Q1028 NOSIG
ZHHH,2021-12-06 15:00,ZHHH 061500Z 03004MPS 350V060 6000 NSC 11/M01 Q1028 NOSIG
ZHHH,2021-12-06 16:00,ZHHH 061600Z 03005MPS 360V060 6000 NSC 11/M01 Q1028 NOSIG
ZHHH,2021-12-06 17:00,ZHHH 061700Z 03005MPS 330V060 6000 NSC 10/M01 Q1028 NOSIG
ZHHH,2021-12-06 18:00,ZHHH 061800Z 04004MPS 6000 NSC 09/M02 Q1028 NOSIG
ZHHH,2021-12-06 19:00,ZHHH 061900Z 03004MPS 360V060 8000 NSC 08/M02 Q1029 NOSIG
ZHHH,2021-12-06 20:00,ZHHH 062000Z 03004MPS 360V060 8000 NSC 08/M03 Q1028 NOSIG
ZHHH,2021-12-06 21:00,ZHHH 062100Z 03003MPS 350V070 8000 NSC 07/M03 Q1029 NOSIG
ZHHH,2021-12-06 22:00,ZHHH 062200Z 03003MPS CAVOK 06/M03 Q1029 NOSIG
ZHHH,2021-12-06 23:00,ZHHH 062300Z 04003MPS 8000 NSC 05/M03 Q1029 NOSIG
ZHHH,2021-12-07 00:00,ZHHH 070000Z 04003MPS 7000 NSC 06/M03 Q1030 NOSIG
ZHHH,2021-12-07 01:00,ZHHH 070100Z 04004MPS 7000 NSC 08/M02 Q1030 NOSIG
ZHHH,2021-12-07 02:00,ZHHH 070200Z 04003MPS 350V060 7000 NSC 10/M02 Q1030 NOSIG
ZHHH,2021-12-07 03:00,ZHHH 070300Z 03003MPS 330V080 6000 NSC 11/M02 Q1030 NOSIG
ZHHH,2021-12-07 04:00,ZHHH 070400Z VRB02MPS 6000 NSC 12/M01 Q1029 NOSIG
ZHHH,2021-12-07 05:00,ZHHH 070500Z 02002MPS 330V060 6000 NSC 13/M01 Q1028 NOSIG
ZHHH,2021-12-07 06:00,ZHHH 070600Z 03003MPS 310V090 5000 HZ NSC 14/M01 Q1027 NOSIG
ZHHH,2021-12-07 07:00,ZHHH 070700Z 04002MPS 350V070 5000 HZ NSC 14/M00 Q1027 NOSIG
ZHHH,2021-12-07 08:00,ZHHH 070800Z 02003MPS 340V050 5000 HZ NSC 15/M00 Q1027 NOSIG
ZHHH,2021-12-07 09:00,ZHHH 070900Z 02003MPS 340V040 5000 HZ NSC 13/00 Q1027 NOSIG
ZHHH,2021-12-07 10:00,ZHHH 071000Z 04006MPS 5000 HZ NSC 12/02 Q1027 NOSIG
ZHHH,2021-12-07 11:00,ZHHH 071100Z 04006MPS 4500 HZ NSC 11/02 Q1028 NOSIG
ZHHH,2021-12-07 12:00,ZHHH 071200Z 04003MPS 4000 HZ NSC 10/03 Q1028 NOSIG
ZHHH,2021-12-07 13:00,ZHHH 071300Z 03003MPS 4000 HZ NSC 10/03 Q1028 NOSIG
ZHHH,2021-12-07 14:00,ZHHH 071400Z 03003MPS 360V060 4000 HZ NSC 09/03 Q1028 NOSIG
ZHHH,2021-12-07 15:00,ZHHH 071500Z 02002MPS 340V040 4000 HZ NSC 09/03 Q1029 NOSIG
ZHHH,2021-12-07 16:00,ZHHH 071600Z 01002MPS 4000 HZ NSC 08/03 Q1029 NOSIG
ZHHH,2021-12-07 17:00,ZHHH 071700Z VRB01MPS 3500 HZ NSC 08/04 Q1028 NOSIG
ZHHH,2021-12-07 18:00,ZHHH 071800Z 01001MPS 3500 HZ NSC 08/04 Q1028 NOSIG
ZHHH,2021-12-07 19:00,ZHHH 071900Z 02002MPS 340V040 3500 HZ NSC 09/04 Q1028 NOSIG
ZHHH,2021-12-07 20:00,ZHHH 072000Z VRB01MPS 3500 HZ NSC 08/04 Q1028 NOSIG
ZHHH,2021-12-07 21:00,ZHHH 072100Z VRB01MPS 3500 BR NSC 09/05 Q1028 NOSIG
ZHHH,2021-12-07 22:00,ZHHH 072200Z 36001MPS 3500 BR NSC 08/05 Q1028 NOSIG
ZHHH,2021-12-07 23:00,ZHHH 072300Z VRB01MPS 3500 BR NSC 08/06 Q1029 BECMG TL0040 2800
ZHHH,2021-12-08 00:00,ZHHH 080000Z 02002MPS 340V050 2000 BR NSC 08/05 Q1029 BECMG TL0140 3000
ZHHH,2021-12-08 01:00,ZHHH 080100Z VRB01MPS 2000 BR NSC 09/05 Q1030 BECMG TL0240 3000
ZHHH,2021-12-08 02:00,ZHHH 080200Z 06003MPS 2600 HZ NSC 11/05 Q1030 BECMG TL0240 3000
ZHHH,2021-12-08 03:00,ZHHH 080300Z 32002MPS 280V080 2600 HZ NSC 12/06 Q1030 BECMG TL0440 3000
ZHHH,2021-12-08 04:00,ZHHH 080400Z 30002MPS 250V350 3000 HZ NSC 12/06 Q1029 NOSIG
ZHHH,2021-12-08 05:00,ZHHH 080500Z 25002MPS 3400 HZ NSC 13/05 Q1028 NOSIG
ZHHH,2021-12-08 06:00,ZHHH 080600Z 27002MPS 220V300 3400 HZ NSC 14/03 Q1027 NOSIG
ZHHH,2021-12-08 07:00,ZHHH 080700Z 25002MPS 220V280 4500 HZ NSC 15/03 Q1026 NOSIG
ZHHH,2021-12-08 08:00,ZHHH 080800Z 22002MPS 180V250 4500 HZ NSC 14/03 Q1026 NOSIG
ZHHH,2021-12-08 09:00,ZHHH 080900Z 00000MPS 5000 HZ NSC 14/04 Q1026 NOSIG
ZHHH,2021-12-08 10:00,ZHHH 081000Z VRB01MPS 5000 HZ NSC 13/04 Q1027 NOSIG
ZHHH,2021-12-08 11:00,ZHHH 081100Z 33002MPS 270V030 5000 HZ NSC 13/05 Q1027 NOSIG
ZHHH,2021-12-08 12:00,ZHHH 081200Z 34002MPS 290V090 5000 HZ NSC 12/06 Q1028 NOSIG
ZHHH,2021-12-08 13:00,ZHHH 081300Z 33002MPS 280V020 4000 HZ NSC 12/06 Q1028 NOSIG
ZHHH,2021-12-08 14:00,ZHHH 081400Z 34002MPS 280V050 4000 HZ NSC 11/06 Q1028 NOSIG
ZHHH,2021-12-08 15:00,ZHHH 081500Z VRB01MPS 4000 HZ NSC 11/06 Q1028 NOSIG
ZHHH,2021-12-08 16:00,ZHHH 081600Z VRB01MPS 4000 HZ NSC 11/06 Q1028 NOSIG
ZHHH,2021-12-08 17:00,ZHHH 081700Z VRB01MPS 4000 BR NSC 10/06 Q1027 NOSIG
ZHHH,2021-12-08 18:00,ZHHH 081800Z 33002MPS 260V040 4000 BR NSC 10/06 Q1027 NOSIG
ZHHH,2021-12-08 19:00,ZHHH 081900Z VRB01MPS 3400 BR NSC 09/06 Q1027 NOSIG
ZHHH,2021-12-08 20:00,ZHHH 082000Z VRB01MPS 3400 BR NSC 08/06 Q1027 NOSIG
ZHHH,2021-12-08 21:00,ZHHH 082100Z 32002MPS 250V350 3000 BR NSC 08/06 Q1027 BECMG TL2220 2500
ZHHH,2021-12-08 22:00,ZHHH 082200Z 32002MPS 270V010 2700 BR NSC 08/07 Q1027 BECMG TL2240 2500
ZHHH,2021-12-08 23:00,ZHHH 082300Z 32002MPS 280V360 2100 BR NSC 07/06 Q1028 BECMG TL2340 1400
ZHHH,2021-12-09 00:00,ZHHH 090000Z 32001MPS 1300 R04L/1700D R04R/1700D BR NSC 07/07 Q1028 BECMG TL0040 1800
ZHHH,2021-12-09 01:00,ZHHH 090100Z 00000MPS 1500 R04L/1600N R04R/1400N BR NSC 09/07 Q1029 BECMG TL0240 3000
ZHHH,2021-12-09 02:00,ZHHH 090200Z VRB01MPS 1800 BR NSC 09/07 Q1029 BECMG TL0340 3000
ZHHH,2021-12-09 03:00,ZHHH 090300Z 31002MPS 240V050 2000 BR NSC 11/07 Q1029 BECMG TL0440 3000
ZHHH,2021-12-09 04:00,ZHHH 090400Z 26002MPS 230V320 2500 HZ NSC 12/07 Q1028 BECMG TL0510 3000
ZHHH,2021-12-09 05:00,ZHHH 090500Z 25002MPS 200V320 3000 HZ NSC 14/06 Q1027 NOSIG
ZHHH,2021-12-09 06:00,ZHHH 090600Z VRB01MPS 4200 HZ NSC 14/04 Q1026 NOSIG
ZHHH,2021-12-09 07:00,ZHHH 090700Z VRB01MPS 4200 HZ NSC 16/05 Q1026 NOSIG
ZHHH,2021-12-09 08:00,ZHHH 090800Z VRB01MPS 4000 HZ NSC 15/04 Q1026 NOSIG
ZHHH,2021-12-09 09:00,ZHHH 090900Z 00000MPS 4000 HZ NSC 14/04 Q1025 NOSIG
ZHHH,2021-12-09 10:00,ZHHH 091000Z 20001MPS 4000 HZ NSC 10/03 Q1026 NOSIG
ZHHH,2021-12-09 11:00,ZHHH 091100Z 00000MPS 4000 HZ NSC 09/04 Q1026 NOSIG
ZHHH,2021-12-09 12:00,ZHHH 091200Z 00000MPS 5000 BR NSC 08/04 Q1026 NOSIG
ZHHH,2021-12-09 13:00,ZHHH 091300Z 01001MPS 4000 BR NSC 07/04 Q1026 NOSIG
ZHHH,2021-12-09 14:00,ZHHH 091400Z 04002MPS 4000 BR NSC 07/04 Q1026 NOSIG
ZHHH,2021-12-09 15:00,ZHHH 091500Z 05002MPS 4000 HZ NSC 08/04 Q1026 NOSIG
ZHHH,2021-12-09 16:00,ZHHH 091600Z 06003MPS 4000 HZ NSC 09/04 Q1026 NOSIG
ZHHH,2021-12-09 17:00,ZHHH 091700Z VRB01MPS 4000 BR NSC 07/04 Q1026 NOSIG
ZHHH,2021-12-09 18:00,ZHHH 091800Z 05002MPS 4000 BR NSC 06/04 Q1026 NOSIG
ZHHH,2021-12-09 19:00,ZHHH 091900Z 06002MPS 3600 BR NSC 06/04 Q1026 NOSIG
ZHHH,2021-12-09 20:00,ZHHH 092000Z 07002MPS 3600 BR NSC 06/04 Q1026 NOSIG
ZHHH,2021-12-09 21:00,ZHHH 092100Z 06002MPS 3300 R04L/P2000 R04R/1400U BR NSC 06/05 Q1025 BECMG TL2240 2500
ZHHH,2021-12-09 22:00,ZHHH 092200Z 06002MPS 3300 BR NSC 05/04 Q1025 BECMG TL2320 2500
ZHHH,2021-12-09 23:00,ZHHH 092300Z 06002MPS 2500 BR NSC 05/04 Q1025 BECMG TL0050 3000
ZHHH,2021-12-10 00:00,ZHHH 100000Z 10002MPS 2000 R04L/P2000 R04R/1400U BR NSC 07/05 Q1026 BECMG TL0140 3000
ZHHH,2021-12-10 01:00,ZHHH 100100Z 09003MPS 060V120 2300 BR NSC 09/05 Q1027 BECMG TL0240 3000
ZHHH,2021-12-10 02:00,ZHHH 100200Z 07004MPS 2600 HZ NSC 11/05 Q1027 BECMG TL0240 3000
ZHHH,2021-12-10 03:00,ZHHH 100300Z 09004MPS 3300 HZ NSC 14/05 Q1026 NOSIG
ZHHH,2021-12-10 04:00,ZHHH 100400Z 10003MPS 020V130 3300 HZ NSC 15/06 Q1025 NOSIG
ZHHH,2021-12-10 05:00,ZHHH 100500Z 12003MPS 080V150 4000 HZ NSC 17/06 Q1024 NOSIG
ZHHH,2021-12-10 06:00,ZHHH 100600Z 14003MPS 090V170 4000 HZ NSC 17/06 Q1023 NOSIG
ZHHH,2021-12-10 07:00,ZHHH 100700Z 10003MPS 4000 HZ NSC 17/06 Q1022 NOSIG
ZHHH,2021-12-10 08:00,ZHHH 100800Z 12002MPS 090V150 4000 HZ NSC 17/06 Q1022 NOSIG
ZHHH,2021-12-10 09:00,ZHHH 100900Z 09003MPS 050V110 3500 HZ NSC 17/06 Q1022 NOSIG
ZHHH,2021-12-10 10:00,ZHHH 101000Z 04001MPS 5000 HZ NSC 14/06 Q1022 NOSIG
ZHHH,2021-12-10 11:00,ZHHH 101100Z 35002MPS 320V030 5000 HZ NSC 12/06 Q1023 NOSIG
ZHHH,2021-12-10 12:00,ZHHH 101200Z 05002MPS 5000 HZ NSC 15/07 Q1023 NOSIG
ZHHH,2021-12-10 13:00,ZHHH 101300Z VRB01MPS 5000 HZ NSC 14/06 Q1023 NOSIG
ZHHH,2021-12-10 14:00,ZHHH 101400Z 34001MPS 5000 HZ NSC 12/08 Q1024 NOSIG
ZHHH,2021-12-10 15:00,ZHHH 101500Z 36001MPS 5000 BR NSC 10/07 Q1024 NOSIG
ZHHH,2021-12-10 16:00,ZHHH 101600Z VRB01MPS 5000 BR NSC 11/06 Q1024 NOSIG
ZHHH,2021-12-10 17:00,ZHHH 101700Z VRB01MPS 5000 BR NSC 10/08 Q1024 NOSIG
ZHHH,2021-12-10 18:00,ZHHH 101800Z VRB01MPS 5000 BR NSC 11/08 Q1024 NOSIG
ZHHH,2021-12-10 19:00,ZHHH 101900Z VRB01MPS 4500 BR NSC 12/08 Q1024 NOSIG
ZHHH,2021-12-10 20:00,ZHHH 102000Z VRB01MPS 4500 BR NSC 12/07 Q1024 NOSIG
ZHHH,2021-12-10 21:00,ZHHH 102100Z VRB01MPS 4500 BR NSC 12/07 Q1025 NOSIG
ZHHH,2021-12-10 22:00,ZHHH 102200Z 03002MPS 360V060 4500 HZ NSC 12/07 Q1025 NOSIG
ZHHH,2021-12-10 23:00,ZHHH 102300Z 02002MPS 3500 HZ NSC 12/07 Q1025 BECMG TL0020 2500
ZHHH,2021-12-11 00:00,ZHHH 110000Z 35002MPS 320V030 2600 -RA HZ NSC 11/07 Q1027 NOSIG
ZHHH,2021-12-11 01:00,ZHHH 110100Z 35003MPS 320V040 2300 -RA BR NSC 11/08 Q1027 NOSIG
ZHHH,2021-12-11 02:00,ZHHH 110200Z 01002MPS 330V050 2300 BR NSC 11/08 Q1028 NOSIG
ZHHH,2021-12-11 03:00,ZHHH 110300Z 03004MPS 340V060 2300 BR NSC 11/07 Q1028 NOSIG
ZHHH,2021-12-11 04:00,ZHHH 110400Z 02003MPS 1800 -RA BR OVC040 10/09 Q1027 BECMG TL0450 1400
ZHHH,2021-12-11 05:00,ZHHH 110500Z 36002MPS 330V040 1300 R04L/1500N R04R/1600N -RA BR FEW016 OVC040 10/10 Q1027 NOSIG
ZHHH,2021-12-11 06:00,ZHHH 110600Z 32002MPS 240V050 1200 R04L/1500U R04R/1500N -RA BR OVC033 10/10 Q1026 NOSIG
ZHHH,2021-12-11 07:00,ZHHH 110700Z 33002MPS 270V030 1200 R04L/1500U R04R/1500U -RA BR SCT014 OVC030 10/10 Q1026 NOSIG
ZHHH,2021-12-11 08:00,ZHHH 110800Z 34003MPS 310V030 1200 R04L/1600U R04R/1600U -RA BR SCT014 OVC030 10/10 Q1027 NOSIG
ZHHH,2021-12-11 09:00,ZHHH 110900Z 35002MPS 310V010 1200 R04L/1500N R04R/1600N -RA BR SCT013 OVC030 10/10 Q1027 BECMG TL1050 1600
ZHHH,2021-12-11 10:00,ZHHH 111000Z 35002MPS 310V030 1300 R04L/1500N R04R/1700N -RA BR SCT014 OVC030 09/09 Q1028 BECMG TL1110 1500
ZHHH,2021-12-11 11:00,ZHHH 111100Z 35002MPS 310V020 1300 R04L/1500D R04R/1700N -RA BR SCT014 OVC030 09/09 Q1029 NOSIG
ZHHH,2021-12-11 12:00,ZHHH 111200Z 35003MPS 320V040 1500 -RA BR SCT014 OVC030 09/09 Q1029 NOSIG
ZHHH,2021-12-11 13:00,ZHHH 111300Z 35002MPS 310V030 1500 -RA BR SCT014 OVC030 09/09 Q1029 BECMG TL1440 3000
ZHHH,2021-12-11 14:00,ZHHH 111400Z 35003MPS 310V020 1800 -RA BR SCT020 OVC030 09/09 Q1030 NOSIG
ZHHH,2021-12-11 15:00,ZHHH 111500Z 34002MPS 290V040 2000 -RA BR SCT020 OVC040 09/09 Q1030 NOSIG
ZHHH,2021-12-11 16:00,ZHHH 111600Z 35003MPS 320V020 2000 -RA BR FEW020 OVC040 09/09 Q1030 BECMG TL1740 3000
ZHHH,2021-12-11 17:00,ZHHH 111700Z 35002MPS 300V030 2000 -RA BR FEW020 OVC040 08/08 Q1030 NOSIG
ZHHH,2021-12-11 18:00,ZHHH 111800Z VRB01MPS 2000 -RA BR FEW020 08/08 Q1030 NOSIG
ZHHH,2021-12-11 19:00,ZHHH 111900Z 34002MPS 280V040 2000 -RA BR FEW010 08/08 Q1031 NOSIG
ZHHH,2021-12-11 20:00,ZHHH 112000Z 36002MPS 320V040 2200 -RA BR FEW010 08/08 Q1030 NOSIG
ZHHH,2021-12-11 21:00,ZHHH 112100Z 36002MPS 330V040 2500 BR FEW010 08/08 Q1030 BECMG TL2240 3000
ZHHH,2021-12-11 22:00,ZHHH 112200Z 36002MPS 330V030 2500 BR FEW010 08/08 Q1031 BECMG TL2340 3000
ZHHH,2021-12-11 23:00,ZHHH 112300Z 36002MPS 330V040 3000 BR FEW010 08/08 Q1032 NOSIG
ZHHH,2021-12-12 00:00,ZHHH 120000Z 35003MPS 310V030 2000 BR FEW010 08/08 Q1032 BECMG TL0140 3000
ZHHH,2021-12-12 01:00,ZHHH 120100Z 03002MPS 360V060 2000 BR FEW010 09/09 Q1032 NOSIG
ZHHH,2021-12-12 02:00,ZHHH 120200Z 36002MPS 310V050 2500 BR NSC 09/08 Q1033 BECMG TL0350 3000
ZHHH,2021-12-12 03:00,ZHHH 120300Z 01003MPS 330V050 2800 BR NSC 10/07 Q1033 BECMG TL0350 3000
ZHHH,2021-12-12 04:00,ZHHH 120400Z 02004MPS 320V060 4500 HZ NSC 11/06 Q1033 NOSIG
ZHHH,2021-12-12 05:00,ZHHH 120500Z 02004MPS 330V060 5000 HZ NSC 12/04 Q1032 NOSIG
ZHHH,2021-12-12 06:00,ZHHH 120600Z 02005MPS 340V050 5000 HZ NSC 13/04 Q1032 NOSIG
ZHHH,2021-12-12 07:00,ZHHH 120700Z 02004MPS 350V050 5000 HZ NSC 12/04 Q1032 NOSIG
ZHHH,2021-12-12 08:00,ZHHH 120800Z 02004MPS 360V060 5000 HZ NSC 12/04 Q1032 NOSIG
ZHHH,2021-12-12 09:00,ZHHH 120900Z 02005MPS 350V050 5000 HZ NSC 11/04 Q1032 NOSIG
ZHHH,2021-12-12 10:00,ZHHH 121000Z 02004MPS 5000 HZ NSC 10/04 Q1032 NOSIG
ZHHH,2021-12-12 11:00,ZHHH 121100Z 02003MPS 350V050 4500 BR NSC 09/05 Q1033 NOSIG
ZHHH,2021-12-12 12:00,ZHHH 121200Z 02003MPS 350V050 4500 BR NSC 08/06 Q1033 NOSIG
ZHHH,2021-12-12 13:00,ZHHH 121300Z 03003MPS 3500 BR NSC 08/07 Q1033 BECMG TL1450 2500
ZHHH,2021-12-12 14:00,ZHHH 121400Z 03002MPS 350V060 2800 BR NSC 08/07 Q1034 NOSIG
ZHHH,2021-12-12 15:00,ZHHH 121500Z 03002MPS 2500 BR NSC 07/07 Q1033 NOSIG
ZHHH,2021-12-12 16:00,ZHHH 121600Z 03002MPS 2200 BR NSC 06/06 Q1033 NOSIG
ZHHH,2021-12-12 17:00,ZHHH 121700Z 03002MPS 350V060 2200 BR NSC 06/06 Q1033 NOSIG
ZHHH,2021-12-12 18:00,ZHHH 121800Z 35002MPS 2200 BR NSC 05/05 Q1033 NOSIG
ZHHH,2021-12-12 19:00,ZHHH 121900Z 36001MPS 1500 BR NSC 04/04 Q1032 NOSIG
ZHHH,2021-12-12 20:00,ZHHH 122000Z VRB01MPS 1500 R04L/1800U R04R/1100U BR NSC 04/04 Q1031 BECMG TL2110 0800 FG
ZHHH,2021-12-12 21:00,ZHHH 122100Z 06001MPS 1500 BR NSC 05/05 Q1031 BECMG TL2150 0800 FG
ZHHH,2021-12-12 22:00,ZHHH 122200Z 06001MPS 1500 BR NSC 04/04 Q1031 BECMG TL2310 0600 FG
ZHHH,2021-12-12 23:00,ZHHH 122300Z 35001MPS 1500 R04L/0250D R04R/P2000 BR NSC 03/03 Q1031 BECMG TL2350 0700 FG
ZHHH,2021-12-13 00:00,ZHHH 130000Z 03001MPS 1000 R04L/0300V0650U R04R/0900V1100D BR BCFG NSC 03/03 Q1031 BECMG TL0150 1500 BR
ZHHH,2021-12-13 01:00,ZHHH 130100Z 04001MPS 1300 R04L/1300N R04R/0900V1000N BR NSC 05/05 Q1031 BECMG TL0150 1500
ZHHH,2021-12-13 02:00,ZHHH 130200Z 10002MPS 050V130 1300 R04L/1500D R04R/1300N BR NSC 08/07 Q1031 BECMG TL0240 1500
ZHHH,2021-12-13 03:00,ZHHH 130300Z 11003MPS 1500 R04L/1600N R04R/1300V1400N BR NSC 09/07 Q1030 BECMG TL0440 3000
ZHHH,2021-12-13 04:00,ZHHH 130400Z 12003MPS 1700 BR NSC 10/06 Q1029 NOSIG
ZHHH,2021-12-13 05:00,ZHHH 130500Z 14002MPS 070V180 2000 HZ NSC 11/06 Q1028 BECMG TL0650 3000
ZHHH,2021-12-13 06:00,ZHHH 130600Z 12002MPS 030V170 2300 HZ NSC 12/06 Q1026 BECMG TL0730 3000
ZHHH,2021-12-13 07:00,ZHHH 130700Z 12002MPS 050V160 2600 HZ SCT026 12/05 Q1026 BECMG TL0800 3000
ZHHH,2021-12-13 08:00,ZHHH 130800Z 11002MPS 040V150 3100 HZ SCT026 12/05 Q1025 NOSIG
ZHHH,2021-12-13 09:00,ZHHH 130900Z 11004MPS 3100 HZ BKN040 11/06 Q1025 NOSIG
ZHHH,2021-12-13 10:00,ZHHH 131000Z 12003MPS 090V150 4500 HZ SCT040 10/05 Q1025 NOSIG
ZHHH,2021-12-13 11:00,ZHHH 131100Z 14003MPS 100V160 5000 HZ NSC 10/04 Q1025 NOSIG
ZHHH,2021-12-13 12:00,ZHHH 131200Z 15002MPS 090V170 5000 HZ NSC 09/04 Q1025 NOSIG
ZHHH,2021-12-13 13:00,ZHHH 131300Z 11003MPS 4500 HZ NSC 09/04 Q1025 NOSIG
ZHHH,2021-12-13 14:00,ZHHH 131400Z 12002MPS 4500 BR NSC 09/05 Q1025 NOSIG
ZHHH,2021-12-13 15:00,ZHHH 131500Z 13002MPS 090V150 4500 BR NSC 09/05 Q1025 NOSIG
ZHHH,2021-12-13 16:00,ZHHH 131600Z 13002MPS 090V170 4500 BR NSC 09/05 Q1025 NOSIG
ZHHH,2021-12-13 17:00,ZHHH 131700Z VRB01MPS 4000 BR NSC 06/05 Q1024 NOSIG
ZHHH,2021-12-13 18:00,ZHHH 131800Z 10001MPS 4000 BR NSC 06/05 Q1024 NOSIG
ZHHH,2021-12-13 19:00,ZHHH 131900Z VRB01MPS 3500 BR NSC 06/06 Q1023 NOSIG
ZHHH,2021-12-13 20:00,ZHHH 132000Z 09001MPS 3000 BR NSC 05/05 Q1023 NOSIG
ZHHH,2021-12-13 21:00,ZHHH 132100Z 06002MPS 3000 BR FEW030 05/05 Q1022 BECMG TL2230 2000
ZHHH,2021-12-13 22:00,ZHHH 132200Z VRB01MPS 2500 BR NSC 05/05 Q1022 NOSIG
ZHHH,2021-12-13 23:00,ZHHH 132300Z 11002MPS 080V150 2000 BR NSC 06/06 Q1022 NOSIG
ZHHH,2021-12-14 00:00,ZHHH 140000Z 05003MPS 1700 BR NSC 06/06 Q1022 BECMG TL0120 3000
ZHHH,2021-12-14 01:00,ZHHH 140100Z VRB01MPS 1800 BR NSC 09/08 Q1023 BECMG TL0140 3000
ZHHH,2021-12-14 02:00,ZHHH 140200Z 17003MPS 140V210 3200 BR NSC 11/07 Q1023 NOSIG
ZHHH,2021-12-14 03:00,ZHHH 140300Z 20002MPS 150V240 5000 HZ NSC 11/07 Q1023 NOSIG
ZHHH,2021-12-14 04:00,ZHHH 140400Z 20002MPS 130V280 5000 HZ NSC 13/06 Q1022 NOSIG
ZHHH,2021-12-14 05:00,ZHHH 140500Z 21003MPS 170V240 6000 FEW030 13/06 Q1020 NOSIG
ZHHH,2021-12-14 06:00,ZHHH 140600Z 17002MPS 110V250 6000 FEW030 14/06 Q1019 NOSIG
ZHHH,2021-12-14 07:00,ZHHH 140700Z VRB01MPS 6000 FEW030 13/06 Q1019 NOSIG
ZHHH,2021-12-14 08:00,ZHHH 140800Z 18002MPS 150V220 7000 NSC 13/06 Q1019 NOSIG
ZHHH,2021-12-14 09:00,ZHHH 140900Z 11002MPS 6000 NSC 13/06 Q1019 NOSIG
ZHHH,2021-12-14 10:00,ZHHH 141000Z 13002MPS 060V140 7000 NSC 13/06 Q1019 NOSIG
ZHHH,2021-12-14 11:00,ZHHH 141100Z 11003MPS 7000 NSC 13/06 Q1019 NOSIG
ZHHH,2021-12-14 12:00,ZHHH 141200Z 10003MPS 7000 NSC 12/06 Q1019 NOSIG
ZHHH,2021-12-14 13:00,ZHHH 141300Z 09003MPS 6000 NSC 12/06 Q1020 NOSIG
ZHHH,2021-12-14 14:00,ZHHH 141400Z 08002MPS 6000 NSC 12/07 Q1020 NOSIG
ZHHH,2021-12-14 15:00,ZHHH 141500Z 05002MPS 6000 NSC 11/07 Q1021 NOSIG
ZHHH,2021-12-14 16:00,ZHHH 141600Z VRB01MPS 6000 NSC 11/07 Q1021 NOSIG
ZHHH,2021-12-14 17:00,ZHHH 141700Z 10002MPS 6000 NSC 12/06 Q1020 NOSIG
ZHHH,2021-12-14 18:00,ZHHH 141800Z 10003MPS 060V120 6000 NSC 12/07 Q1020 NOSIG
ZHHH,2021-12-14 19:00,ZHHH 141900Z 10003MPS 6000 NSC 11/07 Q1019 NOSIG
ZHHH,2021-12-14 20:00,ZHHH 142000Z 08003MPS 5000 BR NSC 11/07 Q1019 NOSIG
ZHHH,2021-12-14 21:00,ZHHH 142100Z 09003MPS 060V120 5000 BR NSC 11/07 Q1019 NOSIG
ZHHH,2021-12-14 22:00,ZHHH 142200Z 06002MPS 5000 BR NSC 10/08 Q1019 NOSIG
ZHHH,2021-12-14 23:00,ZHHH 142300Z 04002MPS 5000 BR NSC 10/08 Q1019 NOSIG
ZHHH,2021-12-15 00:00,ZHHH 150000Z 07003MPS 3500 BR NSC 11/08 Q1019 NOSIG
ZHHH,2021-12-15 01:00,ZHHH 150100Z 09003MPS 3200 BR NSC 11/08 Q1019 NOSIG
ZHHH,2021-12-15 02:00,ZHHH 150200Z 08003MPS 3000 BR NSC 12/09 Q1020 NOSIG
ZHHH,2021-12-15 03:00,ZHHH 150300Z 08003MPS 060V120 3000 BR NSC 12/09 Q1020 BECMG TL0440 2500
ZHHH,2021-12-15 04:00,ZHHH 150400Z 10003MPS 060V120 3000 BR NSC 12/09 Q1019 BECMG TL0540 2500
ZHHH,2021-12-15 05:00,ZHHH 150500Z 07002MPS 3000 BR NSC 12/09 Q1018 BECMG TL0640 2500
ZHHH,2021-12-15 06:00,ZHHH 150600Z 06002MPS 010V080 3300 BR NSC 12/09 Q1017 NOSIG
ZHHH,2021-12-15 07:00,ZHHH 150700Z 03002MPS 350V060 2800 -RA BR NSC 12/10 Q1017 NOSIG
ZHHH,2021-12-15 08:00,ZHHH 150800Z 07004MPS 2500 -RA BR NSC 11/11 Q1017 NOSIG
ZHHH,2021-12-15 09:00,ZHHH 150900Z 10002MPS 2800 -RA BR OVC040 12/11 Q1017 BECMG TL1040 3000
ZHHH,2021-12-15 10:00,ZHHH 151000Z 11003MPS 2300 -RA BR SCT010 OVC033 11/11 Q1018 NOSIG
ZHHH,2021-12-15 11:00,ZHHH 151100Z 09002MPS 1800 -RA BR FEW003 SCT004 OVC026 11/11 Q1018 BECMG TL1240 1400
ZHHH,2021-12-15 12:00,ZHHH 151200Z 06002MPS 1800 -RA BR FEW003 SCT004 OVC026 11/11 Q1019 NOSIG
ZHHH,2021-12-15 13:00,ZHHH 151300Z 02002MPS 1800 -RA BR FEW003 SCT004 OVC026 10/10 Q1020 NOSIG
ZHHH,2021-12-15 14:00,ZHHH 151400Z VRB01MPS 2000 -RA BR FEW003 SCT005 OVC026 10/10 Q1020 NOSIG
ZHHH,2021-12-15 15:00,ZHHH 151500Z 35002MPS 310V020 2000 -RA BR FEW003 SCT005 OVC026 10/10 Q1021 NOSIG
ZHHH,2021-12-15 16:00,ZHHH 151600Z 35002MPS 310V040 1800 -RA BR SCT003 SCT004 OVC026 10/10 Q1021 NOSIG
ZHHH,2021-12-15 17:00,ZHHH 151700Z 34002MPS 260V030 1800 -RA BR SCT003 SCT004 OVC026 10/10 Q1021 NOSIG
ZHHH,2021-12-15 18:00,ZHHH 151800Z VRB01MPS 2000 BR SCT004 OVC033 10/10 Q1020 NOSIG
ZHHH,2021-12-15 19:00,ZHHH 151900Z 32002MPS 280V360 2000 BR SCT004 OVC033 10/10 Q1021 NOSIG
ZHHH,2021-12-15 20:00,ZHHH 152000Z VRB01MPS 2000 BR OVC033 10/10 Q1021 NOSIG
ZHHH,2021-12-15 21:00,ZHHH 152100Z VRB01MPS 2200 BR OVC033 10/10 Q1020 BECMG TL2240 1400
ZHHH,2021-12-15 22:00,ZHHH 152200Z VRB01MPS 2500 BR OVC033 10/10 Q1021 BECMG TL2240 1400
ZHHH,2021-12-15 23:00,ZHHH 152300Z 34002MPS 310V020 2500 BR OVC040 10/10 Q1021 BECMG TL0050 3000
ZHHH,2021-12-16 00:00,ZHHH 160000Z 35002MPS 320V030 1500 BR OVC040 10/10 Q1022 NOSIG
ZHHH,2021-12-16 01:00,ZHHH 160100Z 33002MPS 250V020 1500 BR NSC 10/10 Q1023 NOSIG
ZHHH,2021-12-16 02:00,ZHHH 160200Z 34002MPS 290V040 2000 BR NSC 10/10 Q1024 NOSIG
ZHHH,2021-12-16 03:00,ZHHH 160300Z 36002MPS 340V040 2400 BR NSC 11/10 Q1024 BECMG TL0440 3000
ZHHH,2021-12-16 04:00,ZHHH 160400Z 01002MPS 320V040 2800 BR NSC 11/08 Q1024 BECMG TL0440 3000
ZHHH,2021-12-16 05:00,ZHHH 160500Z 36003MPS 300V050 5000 BR NSC 12/02 Q1023 NOSIG
ZHHH,2021-12-16 06:00,ZHHH 160600Z 36003MPS 320V050 5000 HZ NSC 12/02 Q1023 NOSIG
ZHHH,2021-12-16 07:00,ZHHH 160700Z VRB01MPS 5000 HZ NSC 12/04 Q1023 NOSIG
ZHHH,2021-12-16 08:00,ZHHH 160800Z 36002MPS 330V040 6000 NSC 11/03 Q1024 NOSIG
ZHHH,2021-12-16 09:00,ZHHH 160900Z VRB01MPS 6000 NSC 11/03 Q1024 NOSIG
ZHHH,2021-12-16 10:00,ZHHH 161000Z 02002MPS 340V050 8000 NSC 10/02 Q1025 NOSIG
ZHHH,2021-12-16 11:00,ZHHH 161100Z VRB01MPS CAVOK 10/02 Q1026 NOSIG
ZHHH,2021-12-16 12:00,ZHHH 161200Z VRB01MPS CAVOK 10/02 Q1027 NOSIG
ZHHH,2021-12-16 13:00,ZHHH 161300Z 36002MPS 320V030 CAVOK 11/00 Q1029 NOSIG
ZHHH,2021-12-16 14:00,ZHHH 161400Z 35002MPS 320V020 CAVOK 11/01 Q1029 NOSIG
ZHHH,2021-12-16 15:00,ZHHH 161500Z 01002MPS 320V050 CAVOK 11/M00 Q1029 NOSIG
ZHHH,2021-12-16 16:00,ZHHH 161600Z 01002MPS CAVOK 10/M01 Q1029 NOSIG
ZHHH,2021-12-16 17:00,ZHHH 161700Z 33002MPS 240V360 CAVOK 09/00 Q1031 NOSIG
ZHHH,2021-12-16 18:00,ZHHH 161800Z 03004MPS CAVOK 08/M01 Q1031 NOSIG
ZHHH,2021-12-16 19:00,ZHHH 161900Z 01002MPS CAVOK 07/M02 Q1031 NOSIG
ZHHH,2021-12-16 20:00,ZHHH 162000Z 05002MPS CAVOK 06/M03 Q1031 NOSIG
ZHHH,2021-12-16 21:00,ZHHH 162100Z 36002MPS CAVOK 06/M04 Q1031 NOSIG
ZHHH,2021-12-16 22:00,ZHHH 162200Z 02003MPS CAVOK 07/M06 Q1032 NOSIG
ZHHH,2021-12-16 23:00,ZHHH 162300Z 03003MPS CAVOK 06/M07 Q1033 NOSIG
ZHHH,2021-12-17 00:00,ZHHH 170000Z 04004MPS 360V060 CAVOK 07/M07 Q1033 NOSIG
ZHHH,2021-12-17 01:00,ZHHH 170100Z 04004MPS 360V060 CAVOK 08/M07 Q1035 NOSIG
ZHHH,2021-12-17 02:00,ZHHH 170200Z 04006MPS 360V060 CAVOK 10/M07 Q1035 NOSIG
ZHHH,2021-12-17 03:00,ZHHH 170300Z 03006MPS 350V050 CAVOK 11/M07 Q1035 NOSIG
ZHHH,2021-12-17 04:00,ZHHH 170400Z 03007MPS 360V060 CAVOK 11/M09 Q1035 NOSIG
ZHHH,2021-12-17 05:00,ZHHH 170500Z 04007MPS 350V060 CAVOK 11/M08 Q1034 NOSIG
ZHHH,2021-12-17 06:00,ZHHH 170600Z 04007MPS CAVOK 11/M11 Q1033 NOSIG
ZHHH,2021-12-17 07:00,ZHHH 170700Z 03007MPS CAVOK 11/M11 Q1033 NOSIG
ZHHH,2021-12-17 08:00,ZHHH 170800Z 03007MPS 360V060 CAVOK 10/M13 Q1032 NOSIG
ZHHH,2021-12-17 09:00,ZHHH 170900Z 02005MPS 340V040 CAVOK 08/M12 Q1033 NOSIG
ZHHH,2021-12-17 10:00,ZHHH 171000Z 03004MPS CAVOK 07/M10 Q1033 NOSIG
ZHHH,2021-12-17 11:00,ZHHH 171100Z 03004MPS CAVOK 06/M07 Q1034 NOSIG
ZHHH,2021-12-17 12:00,ZHHH 171200Z 02003MPS CAVOK 05/M07 Q1035 NOSIG
ZHHH,2021-12-17 13:00,ZHHH 171300Z 03004MPS 350V050 CAVOK 05/M08 Q1035 NOSIG
ZHHH,2021-12-17 14:00,ZHHH 171400Z 04005MPS CAVOK 04/M08 Q1035 NOSIG
ZHHH,2021-12-17 15:00,ZHHH 171500Z 03003MPS CAVOK 03/M09 Q1035 NOSIG
ZHHH,2021-12-17 16:00,ZHHH 171600Z 03002MPS 360V060 CAVOK 02/M09 Q1035 NOSIG
ZHHH,2021-12-17 17:00,ZHHH 171700Z 05002MPS 010V090 CAVOK 01/M08 Q1035 NOSIG
ZHHH,2021-12-17 18:00,ZHHH 171800Z 04003MPS CAVOK 01/M09 Q1035 NOSIG
ZHHH,2021-12-17 19:00,ZHHH 171900Z 07002MPS 030V140 CAVOK 01/M08 Q1035 NOSIG
ZHHH,2021-12-17 20:00,ZHHH 172000Z 08002MPS CAVOK 00/M08 Q1034 NOSIG
ZHHH,2021-12-17 21:00,ZHHH 172100Z 04001MPS CAVOK M00/M07 Q1034 NOSIG
ZHHH,2021-12-17 22:00,ZHHH 172200Z 07001MPS CAVOK 01/M06 Q1034 NOSIG
ZHHH,2021-12-17 23:00,ZHHH 172300Z 00000MPS CAVOK 01/M07 Q1035 NOSIG
ZHHH,2021-12-18 00:00,ZHHH 180000Z 04001MPS CAVOK 02/M07 Q1035 NOSIG
ZHHH,2021-12-18 01:00,ZHHH 180100Z VRB01MPS CAVOK 05/M06 Q1035 NOSIG
ZHHH,2021-12-18 02:00,ZHHH 180200Z 28002MPS 240V320 CAVOK 04/M07 Q1035 NOSIG
ZHHH,2021-12-18 03:00,ZHHH 180300Z 27002MPS 220V320 CAVOK 06/M08 Q1035 NOSIG
ZHHH,2021-12-18 04:00,ZHHH 180400Z 25002MPS 210V330 CAVOK 07/M10 Q1033 NOSIG
ZHHH,2021-12-18 05:00,ZHHH 180500Z 25002MPS 170V300 CAVOK 08/M11 Q1032 NOSIG
ZHHH,2021-12-18 06:00,ZHHH 180600Z 26003MPS 230V290 CAVOK 09/M09 Q1031 NOSIG
ZHHH,2021-12-18 07:00,ZHHH 180700Z 24002MPS 170V310 CAVOK 10/M09 Q1031 NOSIG
ZHHH,2021-12-18 08:00,ZHHH 180800Z 26002MPS 220V300 CAVOK 10/M09 Q1030 NOSIG
ZHHH,2021-12-18 09:00,ZHHH 180900Z 29002MPS 250V340 CAVOK 09/M07 Q1030 NOSIG
ZHHH,2021-12-18 10:00,ZHHH 181000Z 28002MPS 230V330 CAVOK 09/M05 Q1030 NOSIG
ZHHH,2021-12-18 11:00,ZHHH 181100Z 25001MPS CAVOK 08/M02 Q1030 NOSIG
ZHHH,2021-12-18 12:00,ZHHH 181200Z 25002MPS CAVOK 08/M03 Q1030 NOSIG
ZHHH,2021-12-18 13:00,ZHHH 181300Z 23002MPS CAVOK 07/M03 Q1031 NOSIG
ZHHH,2021-12-18 14:00,ZHHH 181400Z 23002MPS CAVOK 07/M03 Q1031 NOSIG
ZHHH,2021-12-18 15:00,ZHHH 181500Z 24001MPS CAVOK 07/M02 Q1031 NOSIG
ZHHH,2021-12-18 16:00,ZHHH 181600Z 22002MPS CAVOK 07/M02 Q1031 NOSIG
ZHHH,2021-12-18 17:00,ZHHH 181700Z VRB01MPS CAVOK 07/M02 Q1031 NOSIG
ZHHH,2021-12-18 18:00,ZHHH 181800Z 20001MPS CAVOK 05/M02 Q1030 NOSIG
ZHHH,2021-12-18 19:00,ZHHH 181900Z 14002MPS CAVOK 04/M02 Q1030 NOSIG
ZHHH,2021-12-18 20:00,ZHHH 182000Z 08001MPS CAVOK 03/M01 Q1030 NOSIG
ZHHH,2021-12-18 21:00,ZHHH 182100Z 06001MPS CAVOK 02/M02 Q1029 NOSIG
ZHHH,2021-12-18 22:00,ZHHH 182200Z 07002MPS CAVOK 03/M02 Q1029 NOSIG
ZHHH,2021-12-18 23:00,ZHHH 182300Z 00000MPS CAVOK 02/M02 Q1029 NOSIG
ZHHH,2021-12-19 00:00,ZHHH 190000Z 06002MPS 5000 HZ NSC 04/M00 Q1029 NOSIG
ZHHH,2021-12-19 01:00,ZHHH 190100Z VRB01MPS 5000 HZ NSC 07/M01 Q1029 NOSIG
ZHHH,2021-12-19 02:00,ZHHH 190200Z VRB01MPS 7000 NSC 10/M00 Q1029 NOSIG
ZHHH,2021-12-19 03:00,ZHHH 190300Z VRB02MPS 7000 NSC 11/M02 Q1029 NOSIG
ZHHH,2021-12-19 04:00,ZHHH 190400Z VRB02MPS 9000 NSC 12/M02 Q1028 NOSIG
ZHHH,2021-12-19 05:00,ZHHH 190500Z 26002MPS 210V340 CAVOK 13/M03 Q1027 NOSIG
ZHHH,2021-12-19 06:00,ZHHH 190600Z 25002MPS 200V320 CAVOK 14/M03 Q1025 NOSIG
ZHHH,2021-12-19 07:00,ZHHH 190700Z 22002MPS 190V270 CAVOK 15/M04 Q1025 NOSIG
ZHHH,2021-12-19 08:00,ZHHH 190800Z 17002MPS 140V220 CAVOK 14/M05 Q1024 NOSIG
ZHHH,2021-12-19 09:00,ZHHH 190900Z 18002MPS CAVOK 13/M04 Q1024 NOSIG
ZHHH,2021-12-19 10:00,ZHHH 191000Z 12002MPS CAVOK 12/M03 Q1024 NOSIG
ZHHH,2021-12-19 11:00,ZHHH 191100Z 12002MPS CAVOK 09/M02 Q1023 NOSIG
ZHHH,2021-12-19 12:00,ZHHH 191200Z 13002MPS CAVOK 09/M03 Q1024 NOSIG
ZHHH,2021-12-19 13:00,ZHHH 191300Z 00000MPS 8000 NSC 08/02 Q1024 NOSIG
ZHHH,2021-12-19 14:00,ZHHH 191400Z 00000MPS 8000 NSC 08/M00 Q1024 NOSIG
ZHHH,2021-12-19 15:00,ZHHH 191500Z 15001MPS 8000 NSC 07/01 Q1024 NOSIG
ZHHH,2021-12-19 16:00,ZHHH 191600Z VRB01MPS 8000 NSC 08/01 Q1024 NOSIG
ZHHH,2021-12-19 17:00,ZHHH 191700Z 00000MPS 8000 NSC 08/00 Q1023 NOSIG
ZHHH,2021-12-19 18:00,ZHHH 191800Z 06002MPS 8000 NSC 08/01 Q1023 NOSIG
ZHHH,2021-12-19 19:00,ZHHH 191900Z 12002MPS 8000 NSC 09/M01 Q1023 NOSIG
ZHHH,2021-12-19 20:00,ZHHH 192000Z 12002MPS 7000 NSC 09/01 Q1022 NOSIG
ZHHH,2021-12-19 21:00,ZHHH 192100Z VRB01MPS 7000 NSC 09/02 Q1022 NOSIG
ZHHH,2021-12-19 22:00,ZHHH 192200Z VRB01MPS 7000 NSC 09/02 Q1022 NOSIG
ZHHH,2021-12-19 23:00,ZHHH 192300Z 00000MPS 6000 NSC 08/02 Q1022 NOSIG
ZHHH,2021-12-20 00:00,ZHHH 200000Z 10002MPS 070V140 6000 NSC 09/02 Q1022 NOSIG
ZHHH,2021-12-20 01:00,ZHHH 200100Z VRB01MPS 6000 NSC 11/01 Q1023 NOSIG
ZHHH,2021-12-20 02:00,ZHHH 200200Z 16002MPS 080V190 6000 NSC 13/01 Q1023 NOSIG
ZHHH,2021-12-20 03:00,ZHHH 200300Z 20003MPS 160V250 CAVOK 14/M00 Q1023 NOSIG
ZHHH,2021-12-20 04:00,ZHHH 200400Z 23003MPS 200V260 CAVOK 15/M00 Q1021 NOSIG
ZHHH,2021-12-20 05:00,ZHHH 200500Z 22003MPS 180V260 CAVOK 16/M00 Q1020 NOSIG
ZHHH,2021-12-20 06:00,ZHHH 200600Z 23004MPS 200V260 CAVOK 17/M02 Q1019 NOSIG
ZHHH,2021-12-20 07:00,ZHHH 200700Z 21002MPS 180V250 CAVOK 17/M00 Q1019 NOSIG
ZHHH,2021-12-20 08:00,ZHHH 200800Z 21003MPS CAVOK 17/00 Q1019 NOSIG
ZHHH,2021-12-20 09:00,ZHHH 200900Z VRB02MPS CAVOK 16/01 Q1018 NOSIG
ZHHH,2021-12-20 10:00,ZHHH 201000Z 20002MPS CAVOK 13/01 Q1019 NOSIG
ZHHH,2021-12-20 11:00,ZHHH 201100Z 18002MPS CAVOK 12/00 Q1019 NOSIG
ZHHH,2021-12-20 12:00,ZHHH 201200Z 20001MPS CAVOK 09/02 Q1019 NOSIG
ZHHH,2021-12-20 13:00,ZHHH 201300Z 16001MPS CAVOK 10/03 Q1020 NOSIG
ZHHH,2021-12-20 14:00,ZHHH 201400Z 20002MPS 180V250 CAVOK 09/01 Q1020 NOSIG
ZHHH,2021-12-20 15:00,ZHHH 201500Z 00000MPS CAVOK 09/03 Q1020 NOSIG
ZHHH,2021-12-20 16:00,ZHHH 201600Z 00000MPS CAVOK 06/04 Q1020 NOSIG
ZHHH,2021-12-20 17:00,ZHHH 201700Z 00000MPS CAVOK 08/03 Q1020 NOSIG
ZHHH,2021-12-20 18:00,ZHHH 201800Z 14001MPS CAVOK 06/03 Q1020 NOSIG
ZHHH,2021-12-20 19:00,ZHHH 201900Z 00000MPS 6000 NSC 05/03 Q1019 NOSIG
ZHHH,2021-12-20 20:00,ZHHH 202000Z 14001MPS 6000 NSC 04/03 Q1019 NOSIG
ZHHH,2021-12-20 21:00,ZHHH 202100Z VRB01MPS 6000 NSC 06/03 Q1019 NOSIG
ZHHH,2021-12-20 22:00,ZHHH 202200Z VRB01MPS 5000 BR NSC 05/03 Q1019 NOSIG
ZHHH,2021-12-20 23:00,ZHHH 202300Z VRB01MPS 5000 BR NSC 05/04 Q1020 NOSIG
ZHHH,2021-12-21 00:00,ZHHH 210000Z 07002MPS 360V120 4000 BR NSC 07/05 Q1020 NOSIG
ZHHH,2021-12-21 01:00,ZHHH 210100Z 00000MPS 4000 HZ NSC 10/05 Q1021 NOSIG
ZHHH,2021-12-21 02:00,ZHHH 210200Z VRB01MPS 4500 HZ NSC 13/06 Q1022 NOSIG
ZHHH,2021-12-21 03:00,ZHHH 210300Z 26002MPS 200V300 5000 HZ NSC 13/06 Q1021 NOSIG
ZHHH,2021-12-21 04:00,ZHHH 210400Z VRB02MPS 5000 HZ NSC 14/06 Q1020 NOSIG
ZHHH,2021-12-21 05:00,ZHHH 210500Z VRB02MPS 6000 NSC 16/05 Q1019 NOSIG
ZHHH,2021-12-21 06:00,ZHHH 210600Z VRB01MPS 6000 NSC 17/05 Q1018 NOSIG
ZHHH,2021-12-21 07:00,ZHHH 210700Z 26002MPS 180V300 8000 NSC 17/04 Q1018 NOSIG
ZHHH,2021-12-21 08:00,ZHHH 210800Z VRB01MPS 8000 NSC 19/04 Q1018 NOSIG
ZHHH,2021-12-21 09:00,ZHHH 210900Z 00000MPS 8000 NSC 18/03 Q1018 NOSIG
ZHHH,2021-12-21 10:00,ZHHH 211000Z 19001MPS 8000 NSC 12/03 Q1019 NOSIG
ZHHH,2021-12-21 11:00,ZHHH 211100Z VRB01MPS 8000 NSC 12/03 Q1019 NOSIG
ZHHH,2021-12-21 12:00,ZHHH 211200Z 14002MPS 8000 NSC 11/03 Q1020 NOSIG
ZHHH,2021-12-21 13:00,ZHHH 211300Z VRB01MPS 6000 NSC 09/05 Q1020 NOSIG
ZHHH,2021-12-21 14:00,ZHHH 211400Z 00000MPS 6000 NSC 07/04 Q1020 NOSIG
ZHHH,2021-12-21 15:00,ZHHH 211500Z VRB01MPS 6000 NSC 07/06 Q1021 NOSIG
ZHHH,2021-12-21 16:00,ZHHH 211600Z 04002MPS 5000 BR NSC 06/04 Q1020 NOSIG
ZHHH,2021-12-21 17:00,ZHHH 211700Z 00000MPS 5000 BR NSC 06/04 Q1020 NOSIG
ZHHH,2021-12-21 18:00,ZHHH 211800Z VRB01MPS 5000 BR NSC 05/04 Q1021 NOSIG
ZHHH,2021-12-21 19:00,ZHHH 211900Z 05001MPS 5000 BR NSC 05/05 Q1021 NOSIG
ZHHH,2021-12-21 20:00,ZHHH 212000Z 10002MPS 4500 BR NSC 06/04 Q1021 NOSIG
ZHHH,2021-12-21 21:00,ZHHH 212100Z 09003MPS 4000 BR NSC 07/04 Q1020 NOSIG
ZHHH,2021-12-21 22:00,ZHHH 212200Z 08002MPS 4000 BR NSC 06/04 Q1021 BECMG TL2350 2500
ZHHH,2021-12-21 23:00,ZHHH 212300Z 10002MPS 5000 BR NSC 07/04 Q1021 BECMG TL2350 2500
ZHHH,2021-12-22 00:00,ZHHH 220000Z 06003MPS 2800 BR NSC 05/04 Q1022 BECMG TL0120 3000
ZHHH,2021-12-22 01:00,ZHHH 220100Z 09002MPS 060V120 3000 BR NSC 08/05 Q1022 NOSIG
ZHHH,2021-12-22 02:00,ZHHH 220200Z 09003MPS 060V120 3500 HZ NSC 10/06 Q1023 NOSIG
ZHHH,2021-12-22 03:00,ZHHH 220300Z 11002MPS 060V150 3300 HZ NSC 13/07 Q1023 NOSIG
ZHHH,2021-12-22 04:00,ZHHH 220400Z 08002MPS 040V120 3200 HZ NSC 15/06 Q1022 BECMG TL0550 2500
ZHHH,2021-12-22 05:00,ZHHH 220500Z VRB02MPS 3500 HZ NSC 17/05 Q1021 NOSIG
ZHHH,2021-12-22 06:00,ZHHH 220600Z VRB02MPS 4000 HZ NSC 18/05 Q1020 NOSIG
ZHHH,2021-12-22 07:00,ZHHH 220700Z VRB02MPS 5000 HZ NSC 18/03 Q1020 NOSIG
ZHHH,2021-12-22 08:00,ZHHH 220800Z 16002MPS 090V210 7000 NSC 18/M02 Q1019 NOSIG
ZHHH,2021-12-22 09:00,ZHHH 220900Z VRB01MPS 7000 NSC 17/01 Q1020 NOSIG
ZHHH,2021-12-22 10:00,ZHHH 221000Z 00000MPS 7000 NSC 13/M00 Q1020 NOSIG
ZHHH,2021-12-22 11:00,ZHHH 221100Z VRB01MPS 6000 NSC 11/01 Q1020 NOSIG
ZHHH,2021-12-22 12:00,ZHHH 221200Z VRB01MPS 6000 NSC 10/01 Q1020 NOSIG
ZHHH,2021-12-22 13:00,ZHHH 221300Z 06002MPS 6000 NSC 09/02 Q1020 NOSIG
ZHHH,2021-12-22 14:00,ZHHH 221400Z 06002MPS 7000 NSC 09/01 Q1020 NOSIG
ZHHH,2021-12-22 15:00,ZHHH 221500Z 10003MPS 7000 NSC 11/01 Q1020 NOSIG
ZHHH,2021-12-22 16:00,ZHHH 221600Z 07004MPS 7000 NSC 09/01 Q1020 NOSIG
ZHHH,2021-12-22 17:00,ZHHH 221700Z 08002MPS 050V110 6000 NSC 06/01 Q1020 NOSIG
ZHHH,2021-12-22 18:00,ZHHH 221800Z 09003MPS 6000 NSC 09/02 Q1020 NOSIG
ZHHH,2021-12-22 19:00,ZHHH 221900Z 04002MPS 6000 NSC 05/02 Q1020 NOSIG
ZHHH,2021-12-22 20:00,ZHHH 222000Z 10004MPS 5000 HZ NSC 09/02 Q1019 NOSIG
ZHHH,2021-12-22 21:00,ZHHH 222100Z 09004MPS 5000 HZ NSC 08/01 Q1019 NOSIG
ZHHH,2021-12-22 22:00,ZHHH 222200Z 09004MPS 5000 HZ NSC 08/01 Q1019 BECMG TL2340 2500
ZHHH,2021-12-22 23:00,ZHHH 222300Z 06003MPS 5000 BR NSC 05/02 Q1020 BECMG TL0020 2500
ZHHH,2021-12-23 00:00,ZHHH 230000Z 08003MPS 050V110 4000 BR NSC 07/02 Q1020 NOSIG
ZHHH,2021-12-23 01:00,ZHHH 230100Z 08004MPS 5000 HZ NSC 08/02 Q1020 NOSIG
ZHHH,2021-12-23 02:00,ZHHH 230200Z 08004MPS 5000 HZ NSC 10/03 Q1020 NOSIG
ZHHH,2021-12-23 03:00,ZHHH 230300Z 11003MPS 070V130 4000 HZ NSC 13/03 Q1020 NOSIG
ZHHH,2021-12-23 04:00,ZHHH 230400Z 12003MPS 070V140 5000 HZ NSC 14/03 Q1018 NOSIG
ZHHH,2021-12-23 05:00,ZHHH 230500Z 10003MPS 060V160 5000 HZ NSC 16/02 Q1017 NOSIG
ZHHH,2021-12-23 06:00,ZHHH 230600Z 10004MPS 5000 HZ NSC 16/03 Q1016 NOSIG
ZHHH,2021-12-23 07:00,ZHHH 230700Z 10003MPS 050V150 6000 NSC 17/03 Q1016 NOSIG
ZHHH,2021-12-23 08:00,ZHHH 230800Z 13002MPS 070V220 7000 NSC 17/02 Q1015 NOSIG
ZHHH,2021-12-23 09:00,ZHHH 230900Z 31001MPS 7000 NSC 16/03 Q1016 NOSIG
ZHHH,2021-12-23 10:00,ZHHH 231000Z 04002MPS 6000 NSC 14/03 Q1016 NOSIG
ZHHH,2021-12-23 11:00,ZHHH 231100Z 06003MPS 7000 NSC 12/03 Q1017 NOSIG
ZHHH,2021-12-23 12:00,ZHHH 231200Z 04003MPS 7000 NSC 11/03 Q1017 NOSIG
ZHHH,2021-12-23 13:00,ZHHH 231300Z 05004MPS 4500 HZ NSC 09/03 Q1018 NOSIG
ZHHH,2021-12-23 14:00,ZHHH 231400Z 06005MPS 4000 HZ NSC 09/03 Q1018 NOSIG
ZHHH,2021-12-23 15:00,ZHHH 231500Z 04004MPS 4000 HZ NSC 09/03 Q1019 NOSIG
ZHHH,2021-12-23 16:00,ZHHH 231600Z 04004MPS 3500 HZ NSC 08/03 Q1019 NOSIG
ZHHH,2021-12-23 17:00,ZHHH 231700Z 03003MPS 350V050 3500 BR NSC 07/03 Q1019 NOSIG
ZHHH,2021-12-23 18:00,ZHHH 231800Z 03004MPS 360V060 3000 BR NSC 07/03 Q1020 NOSIG
ZHHH,2021-12-23 19:00,ZHHH 231900Z 04003MPS 3000 BR OVC040 06/03 Q1020 NOSIG
ZHHH,2021-12-23 20:00,ZHHH 232000Z 04003MPS 3000 BR OVC040 06/03 Q1021 NOSIG
ZHHH,2021-12-23 21:00,ZHHH 232100Z 04003MPS 360V060 3000 BR OVC040 06/03 Q1021 NOSIG
ZHHH,2021-12-23 22:00,ZHHH 232200Z 02003MPS 350V050 3300 BR OVC040 06/03 Q1022 NOSIG
ZHHH,2021-12-23 23:00,ZHHH 232300Z 03005MPS 3300 BR NSC 06/03 Q1023 BECMG TL0040 2500
ZHHH,2021-12-24 00:00,ZHHH 240000Z 01004MPS 330V050 2200 BR NSC 06/03 Q1024 NOSIG
ZHHH,2021-12-24 01:00,ZHHH 240100Z 01004MPS 340V040 2200 BR OVC026 06/03 Q1025 BECMG TL0220 3000
ZHHH,2021-12-24 02:00,ZHHH 240200Z 01005MPS 340V040 2000 BR OVC026 06/03 Q1026 NOSIG
ZHHH,2021-12-24 03:00,ZHHH 240300Z 03005MPS 2300 BR OVC033 07/03 Q1027 BECMG TL0420 3000
ZHHH,2021-12-24 04:00,ZHHH 240400Z 03006MPS 350V050 2300 BR OVC033 07/03 Q1027 NOSIG
ZHHH,2021-12-24 05:00,ZHHH 240500Z 01005MPS 340V050 2800 BR OVC033 07/03 Q1026 BECMG TL0540 3200
ZHHH,2021-12-24 06:00,ZHHH 240600Z 02005G10MPS 340V050 3500 BR OVC026 06/03 Q1027 NOSIG
ZHHH,2021-12-24 07:00,ZHHH 240700Z 02006MPS 340V040 4000 BR OVC026 06/02 Q1027 NOSIG
ZHHH,2021-12-24 08:00,ZHHH 240800Z 01005MPS 340V050 4000 BR OVC026 05/02 Q1028 NOSIG
ZHHH,2021-12-24 09:00,ZHHH 240900Z 02005MPS 350V050 4000 BR OVC026 05/01 Q1029 NOSIG
ZHHH,2021-12-24 10:00,ZHHH 241000Z 03006G11MPS 350V050 5000 BR OVC023 04/00 Q1030 NOSIG
ZHHH,2021-12-24 11:00,ZHHH 241100Z 02006G12MPS 340V040 5000 BR OVC023 03/00 Q1031 NOSIG
ZHHH,2021-12-24 12:00,ZHHH 241200Z 02006MPS 350V050 9999 OVC023 03/M00 Q1031 NOSIG
ZHHH,2021-12-24 13:00,ZHHH 241300Z 02005MPS 340V050 9999 OVC023 03/M00 Q1032 NOSIG
ZHHH,2021-12-24 14:00,ZHHH 241400Z 03006MPS 350V050 9999 OVC023 03/M01 Q1032 NOSIG
ZHHH,2021-12-24 15:00,ZHHH 241500Z 02006MPS 350V050 9999 OVC026 03/M01 Q1033 NOSIG
ZHHH,2021-12-24 16:00,ZHHH 241600Z 02005MPS 350V060 9999 OVC026 03/M01 Q1033 NOSIG
ZHHH,2021-12-24 17:00,ZHHH 241700Z 03005MPS 340V050 9999 OVC026 03/M01 Q1033 NOSIG
ZHHH,2021-12-24 18:00,ZHHH 241800Z 02005MPS 9999 OVC026 02/M02 Q1033 NOSIG
ZHHH,2021-12-24 19:00,ZHHH 241900Z 03005MPS 350V060 9999 -SN OVC026 02/M02 Q1033 NOSIG
ZHHH,2021-12-24 20:00,ZHHH 242000Z 03005MPS 350V050 9999 -SN OVC026 02/M03 Q1034 NOSIG
ZHHH,2021-12-24 21:00,ZHHH 242100Z 02005MPS 340V050 9999 -SN OVC026 01/M03 Q1035 NOSIG
ZHHH,2021-12-24 22:00,ZHHH 242200Z 03005MPS 350V050 8000 -SN OVC040 01/M03 Q1035 NOSIG
ZHHH,2021-12-24 23:00,ZHHH 242300Z 04005G10MPS 7000 -SN OVC040 00/M03 Q1036 NOSIG
ZHHH,2021-12-25 00:00,ZHHH 250000Z 03005MPS 360V060 6000 -SN OVC040 M00/M03 Q1036 NOSIG
ZHHH,2021-12-25 01:00,ZHHH 250100Z 03005MPS 360V060 8000 -SN OVC040 00/M04 Q1037 NOSIG
ZHHH,2021-12-25 02:00,ZHHH 250200Z 03005MPS 8000 -SN OVC033 00/M05 Q1038 NOSIG
ZHHH,2021-12-25 03:00,ZHHH 250300Z 04006MPS 8000 -SN OVC033 00/M05 Q1038 NOSIG
ZHHH,2021-12-25 04:00,ZHHH 250400Z 03005MPS 360V060 8000 -SN OVC033 00/M06 Q1037 NOSIG
ZHHH,2021-12-25 05:00,ZHHH 250500Z 05006MPS 9000 -SN OVC033 01/M07 Q1037 NOSIG
ZHHH,2021-12-25 06:00,ZHHH 250600Z 04005MPS 9000 -SN OVC030 01/M07 Q1036 NOSIG
ZHHH,2021-12-25 07:00,ZHHH 250700Z 02004MPS 340V080 9000 -SN OVC030 01/M08 Q1037 NOSIG
ZHHH,2021-12-25 08:00,ZHHH 250800Z 03005MPS 340V060 9999 OVC033 01/M09 Q1037 NOSIG
ZHHH,2021-12-25 09:00,ZHHH 250900Z 03005MPS 350V060 9999 OVC033 00/M09 Q1038 NOSIG
ZHHH,2021-12-25 10:00,ZHHH 251000Z 03006MPS 9999 OVC033 00/M10 Q1038 NOSIG
ZHHH,2021-12-25 11:00,ZHHH 251100Z 03005MPS 9999 OVC040 00/M09 Q1039 NOSIG
ZHHH,2021-12-25 12:00,ZHHH 251200Z 03005MPS 350V060 9999 OVC040 M00/M08 Q1040 NOSIG
ZHHH,2021-12-25 13:00,ZHHH 251300Z 03004MPS 350V060 9999 OVC040 M00/M08 Q1041 NOSIG
ZHHH,2021-12-25 14:00,ZHHH 251400Z 02004MPS 350V050 9999 OVC040 M01/M08 Q1041 NOSIG
ZHHH,2021-12-25 15:00,ZHHH 251500Z 03004MPS 340V060 9999 OVC040 M01/M09 Q1041 NOSIG
ZHHH,2021-12-25 16:00,ZHHH 251600Z 03005MPS 9999 -SN OVC040 M01/M09 Q1042 NOSIG
ZHHH,2021-12-25 17:00,ZHHH 251700Z 03005MPS 350V060 9999 -SN OVC040 M01/M09 Q1041 NOSIG
ZHHH,2021-12-25 18:00,ZHHH 251800Z 02005MPS 330V050 9999 -SN OVC040 M01/M10 Q1042 NOSIG
ZHHH,2021-12-25 19:00,ZHHH 251900Z 03006MPS 360V060 9999 -SN OVC040 M01/M09 Q1042 NOSIG
ZHHH,2021-12-25 20:00,ZHHH 252000Z 03006MPS 350V050 CAVOK M02/M10 Q1042 NOSIG
ZHHH,2021-12-25 21:00,ZHHH 252100Z 02004MPS 330V050 CAVOK M02/M10 Q1043 NOSIG
ZHHH,2021-12-25 22:00,ZHHH 252200Z 04006MPS 350V060 CAVOK M02/M11 Q1042 NOSIG
ZHHH,2021-12-25 23:00,ZHHH 252300Z 03006MPS CAVOK M02/M11 Q1043 NOSIG
ZHHH,2021-12-26 00:00,ZHHH 260000Z 02004MPS 320V050 CAVOK M02/M11 Q1044 NOSIG
ZHHH,2021-12-26 01:00,ZHHH 260100Z 02004MPS 340V060 CAVOK M02/M12 Q1045 NOSIG
ZHHH,2021-12-26 02:00,ZHHH 260200Z 01005MPS 340V040 CAVOK M01/M11 Q1045 NOSIG
ZHHH,2021-12-26 03:00,ZHHH 260300Z 03005MPS 340V050 CAVOK 00/M15 Q1044 NOSIG
ZHHH,2021-12-26 04:00,ZHHH 260400Z 02004MPS 340V050 CAVOK 01/M15 Q1043 NOSIG
ZHHH,2021-12-26 05:00,ZHHH 260500Z 36004MPS 320V040 CAVOK 01/M14 Q1042 NOSIG
ZHHH,2021-12-26 06:00,ZHHH 260600Z 03003MPS 340V060 CAVOK 01/M15 Q1042 NOSIG
ZHHH,2021-12-26 07:00,ZHHH 260700Z 36003MPS 330V030 CAVOK 01/M14 Q1041 NOSIG
ZHHH,2021-12-26 08:00,ZHHH 260800Z 02003MPS 340V050 CAVOK 01/M15 Q1041 NOSIG
ZHHH,2021-12-26 09:00,ZHHH 260900Z 02003MPS 340V060 CAVOK 01/M14 Q1041 NOSIG
ZHHH,2021-12-26 10:00,ZHHH 261000Z 02003MPS 350V060 CAVOK 01/M13 Q1041 NOSIG
ZHHH,2021-12-26 11:00,ZHHH 261100Z 01003MPS CAVOK 00/M13 Q1041 NOSIG
ZHHH,2021-12-26 12:00,ZHHH 261200Z 02002MPS 340V060 CAVOK M00/M13 Q1041 NOSIG
ZHHH,2021-12-26 13:00,ZHHH 261300Z VRB01MPS CAVOK M00/M12 Q1042 NOSIG
ZHHH,2021-12-26 14:00,ZHHH 261400Z 35002MPS 320V030 CAVOK M00/M11 Q1042 NOSIG
ZHHH,2021-12-26 15:00,ZHHH 261500Z 01002MPS 340V040 CAVOK M00/M11 Q1041 NOSIG
ZHHH,2021-12-26 16:00,ZHHH 261600Z VRB01MPS CAVOK M00/M10 Q1041 NOSIG
ZHHH,2021-12-26 17:00,ZHHH 261700Z 03002MPS CAVOK M01/M10 Q1040 NOSIG
ZHHH,2021-12-26 18:00,ZHHH 261800Z VRB01MPS CAVOK M01/M11 Q1040 NOSIG
ZHHH,2021-12-26 19:00,ZHHH 261900Z VRB01MPS CAVOK M01/M11 Q1040 NOSIG
ZHHH,2021-12-26 20:00,ZHHH 262000Z 04002MPS CAVOK M01/M11 Q1039 NOSIG
ZHHH,2021-12-26 21:00,ZHHH 262100Z 02001MPS CAVOK M01/M11 Q1039 NOSIG
ZHHH,2021-12-26 22:00,ZHHH 262200Z 04003MPS CAVOK M02/M11 Q1039 NOSIG
ZHHH,2021-12-26 23:00,ZHHH 262300Z 05002MPS CAVOK M03/M11 Q1039 NOSIG
ZHHH,2021-12-27 00:00,ZHHH 270000Z 03002MPS CAVOK M02/M11 Q1039 NOSIG
ZHHH,2021-12-27 01:00,ZHHH 270100Z 06003MPS CAVOK M01/M12 Q1039 NOSIG
ZHHH,2021-12-27 02:00,ZHHH 270200Z 07002MPS 010V140 CAVOK 01/M13 Q1040 NOSIG
ZHHH,2021-12-27 03:00,ZHHH 270300Z 27002MPS 230V310 CAVOK 01/M12 Q1039 NOSIG
ZHHH,2021-12-27 04:00,ZHHH 270400Z 25002MPS 200V320 CAVOK 01/M13 Q1038 NOSIG
ZHHH,2021-12-27 05:00,ZHHH 270500Z 26002MPS 180V330 CAVOK 02/M13 Q1036 NOSIG
ZHHH,2021-12-27 06:00,ZHHH 270600Z VRB01MPS CAVOK 03/M14 Q1035 NOSIG
ZHHH,2021-12-27 07:00,ZHHH 270700Z 28002MPS 230V320 CAVOK 04/M14 Q1035 NOSIG
ZHHH,2021-12-27 08:00,ZHHH 270800Z VRB01MPS CAVOK 04/M16 Q1035 NOSIG
ZHHH,2021-12-27 09:00,ZHHH 270900Z VRB01MPS CAVOK 04/M15 Q1034 NOSIG
ZHHH,2021-12-27 10:00,ZHHH 271000Z 00000MPS CAVOK 03/M14 Q1034 NOSIG
ZHHH,2021-12-27 11:00,ZHHH 271100Z 00000MPS CAVOK 03/M13 Q1034 NOSIG
ZHHH,2021-12-27 12:00,ZHHH 271200Z 23001MPS CAVOK 03/M13 Q1034 NOSIG
ZHHH,2021-12-27 13:00,ZHHH 271300Z 22002MPS CAVOK 03/M13 Q1034 NOSIG
ZHHH,2021-12-27 14:00,ZHHH 271400Z 24003MPS CAVOK 03/M08 Q1034 NOSIG
ZHHH,2021-12-27 15:00,ZHHH 271500Z 24002MPS 210V270 CAVOK 03/M09 Q1034 NOSIG
ZHHH,2021-12-27 16:00,ZHHH 271600Z 24002MPS 200V270 CAVOK 03/M08 Q1033 NOSIG
ZHHH,2021-12-27 17:00,ZHHH 271700Z 22002MPS CAVOK 03/M08 Q1033 NOSIG
ZHHH,2021-12-27 18:00,ZHHH 271800Z 24002MPS CAVOK 03/M08 Q1032 NOSIG
ZHHH,2021-12-27 19:00,ZHHH 271900Z 22002MPS CAVOK 03/M07 Q1032 NOSIG
ZHHH,2021-12-27 20:00,ZHHH 272000Z VRB01MPS CAVOK 03/M07 Q1031 NOSIG
ZHHH,2021-12-27 21:00,ZHHH 272100Z 22002MPS CAVOK 02/M06 Q1031 NOSIG
ZHHH,2021-12-27 22:00,ZHHH 272200Z 21002MPS CAVOK 03/M06 Q1031 NOSIG
ZHHH,2021-12-27 23:00,ZHHH 272300Z 20003MPS 160V230 CAVOK 03/M06 Q1031 NOSIG
ZHHH,2021-12-28 00:00,ZHHH 280000Z 22002MPS 8000 NSC 03/M06 Q1031 NOSIG
ZHHH,2021-12-28 01:00,ZHHH 280100Z 22003MPS 8000 NSC 03/M05 Q1031 NOSIG
ZHHH,2021-12-28 02:00,ZHHH 280200Z 23003MPS 8000 NSC 03/M06 Q1032 NOSIG
ZHHH,2021-12-28 03:00,ZHHH 280300Z 19002MPS 140V240 8000 NSC 04/M05 Q1031 NOSIG
ZHHH,2021-12-28 04:00,ZHHH 280400Z 22004MPS 190V250 6000 NSC 05/M05 Q1030 NOSIG
ZHHH,2021-12-28 05:00,ZHHH 280500Z 26003MPS 230V300 7000 NSC 06/M05 Q1029 NOSIG
ZHHH,2021-12-28 06:00,ZHHH 280600Z 26003MPS 210V310 8000 NSC 07/M05 Q1027 NOSIG
ZHHH,2021-12-28 07:00,ZHHH 280700Z 25003MPS 210V280 8000 NSC 08/M06 Q1027 NOSIG
ZHHH,2021-12-28 08:00,ZHHH 280800Z 23004MPS CAVOK 08/M06 Q1027 NOSIG
ZHHH,2021-12-28 09:00,ZHHH 280900Z 22003MPS CAVOK 07/M03 Q1027 NOSIG
ZHHH,2021-12-28 10:00,ZHHH 281000Z 20002MPS 8000 NSC 05/M02 Q1027 NOSIG
ZHHH,2021-12-28 11:00,ZHHH 281100Z 22003MPS 8000 NSC 04/M01 Q1027 NOSIG
ZHHH,2021-12-28 12:00,ZHHH 281200Z 22003MPS 8000 NSC 03/M01 Q1028 NOSIG
ZHHH,2021-12-28 13:00,ZHHH 281300Z 23003MPS 8000 NSC 03/M01 Q1028 NOSIG
ZHHH,2021-12-28 14:00,ZHHH 281400Z 21002MPS 8000 NSC 03/M01 Q1029 NOSIG
ZHHH,2021-12-28 15:00,ZHHH 281500Z 23002MPS 8000 NSC 04/M00 Q1029 NOSIG
ZHHH,2021-12-28 16:00,ZHHH 281600Z 24003MPS 7000 NSC 04/M00 Q1029 NOSIG
ZHHH,2021-12-28 17:00,ZHHH 281700Z 25002MPS 220V280 7000 NSC 03/M01 Q1029 NOSIG
ZHHH,2021-12-28 18:00,ZHHH 281800Z 27002MPS 7000 NSC 02/M00 Q1029 NOSIG
ZHHH,2021-12-28 19:00,ZHHH 281900Z VRB01MPS 7000 NSC M00/M02 Q1029 NOSIG
ZHHH,2021-12-28 20:00,ZHHH 282000Z 00000MPS 6000 NSC M01/M02 Q1029 NOSIG
ZHHH,2021-12-28 21:00,ZHHH 282100Z 09001MPS 6000 NSC M00/M01 Q1029 NOSIG
ZHHH,2021-12-28 22:00,ZHHH 282200Z 19001MPS 6000 NSC M00/M02 Q1029 NOSIG
ZHHH,2021-12-28 23:00,ZHHH 282300Z 20001MPS 5000 BR NSC M01/M02 Q1030 NOSIG
ZHHH,2021-12-29 00:00,ZHHH 290000Z 00000MPS 4000 BR NSC M00/M01 Q1031 NOSIG
ZHHH,2021-12-29 01:00,ZHHH 290100Z 21001MPS 6000 NSC 04/M01 Q1031 NOSIG
ZHHH,2021-12-29 02:00,ZHHH 290200Z 25002MPS 190V290 6000 NSC 04/M02 Q1032 NOSIG
ZHHH,2021-12-29 03:00,ZHHH 290300Z 30002MPS 180V350 6000 NSC 06/M01 Q1032 NOSIG
ZHHH,2021-12-29 04:00,ZHHH 290400Z 25002MPS 180V320 8000 NSC 07/M01 Q1031 NOSIG
ZHHH,2021-12-29 05:00,ZHHH 290500Z VRB02MPS CAVOK 08/M01 Q1030 NOSIG
ZHHH,2021-12-29 06:00,ZHHH 290600Z 27002MPS 210V330 CAVOK 09/M01 Q1029 NOSIG
ZHHH,2021-12-29 07:00,ZHHH 290700Z 32002MPS 270V060 CAVOK 10/M04 Q1029 NOSIG
ZHHH,2021-12-29 08:00,ZHHH 290800Z VRB01MPS CAVOK 11/M04 Q1029 NOSIG
ZHHH,2021-12-29 09:00,ZHHH 290900Z VRB01MPS CAVOK 10/M04 Q1029 NOSIG
ZHHH,2021-12-29 10:00,ZHHH 291000Z 00000MPS CAVOK 07/M03 Q1030 NOSIG
ZHHH,2021-12-29 11:00,ZHHH 291100Z 00000MPS CAVOK 05/M03 Q1030 NOSIG
ZHHH,2021-12-29 12:00,ZHHH 291200Z 00000MPS CAVOK 05/M04 Q1031 NOSIG
ZHHH,2021-12-29 13:00,ZHHH 291300Z 24001MPS CAVOK 03/M03 Q1031 NOSIG
ZHHH,2021-12-29 14:00,ZHHH 291400Z 00000MPS 8000 NSC 03/01 Q1031 NOSIG
ZHHH,2021-12-29 15:00,ZHHH 291500Z 00000MPS 8000 NSC 03/M02 Q1032 NOSIG
ZHHH,2021-12-29 16:00,ZHHH 291600Z 03002MPS 8000 NSC 01/M02 Q1032 NOSIG
ZHHH,2021-12-29 17:00,ZHHH 291700Z 06002MPS 8000 NSC 02/M02 Q1032 NOSIG
ZHHH,2021-12-29 18:00,ZHHH 291800Z 05002MPS 8000 NSC 03/M03 Q1032 NOSIG
ZHHH,2021-12-29 19:00,ZHHH 291900Z 00000MPS 7000 NSC 02/M03 Q1031 NOSIG
ZHHH,2021-12-29 20:00,ZHHH 292000Z 06002MPS 7000 NSC 02/M04 Q1031 NOSIG
ZHHH,2021-12-29 21:00,ZHHH 292100Z 36002MPS 7000 NSC M01/M03 Q1032 NOSIG
ZHHH,2021-12-29 22:00,ZHHH 292200Z 05003MPS 8000 NSC 01/M04 Q1032 NOSIG
ZHHH,2021-12-29 23:00,ZHHH 292300Z 00000MPS CAVOK M00/M05 Q1032 NOSIG
ZHHH,2021-12-30 00:00,ZHHH 300000Z 09002MPS 060V140 CAVOK 02/M05 Q1033 NOSIG
ZHHH,2021-12-30 01:00,ZHHH 300100Z 13002MPS 090V150 8000 NSC 04/M02 Q1034 NOSIG
ZHHH,2021-12-30 02:00,ZHHH 300200Z VRB01MPS 8000 NSC 07/M05 Q1034 NOSIG
ZHHH,2021-12-30 03:00,ZHHH 300300Z 11002MPS 060V220 8000 NSC 08/M06 Q1034 NOSIG
ZHHH,2021-12-30 04:00,ZHHH 300400Z 08002MPS 030V200 8000 NSC 09/M06 Q1033 NOSIG
ZHHH,2021-12-30 05:00,ZHHH 300500Z 11002MPS 060V140 CAVOK 10/M07 Q1031 NOSIG
ZHHH,2021-12-30 06:00,ZHHH 300600Z 25002MPS 210V270 CAVOK 11/M08 Q1031 NOSIG
ZHHH,2021-12-30 07:00,ZHHH 300700Z 26002MPS 210V290 CAVOK 11/M06 Q1030 NOSIG
ZHHH,2021-12-30 08:00,ZHHH 300800Z 25002MPS 220V290 CAVOK 12/M05 Q1030 NOSIG
ZHHH,2021-12-30 09:00,ZHHH 300900Z 22001MPS CAVOK 11/M05 Q1030 NOSIG
ZHHH,2021-12-30 10:00,ZHHH 301000Z VRB01MPS CAVOK 08/M05 Q1030 NOSIG
ZHHH,2021-12-30 11:00,ZHHH 301100Z 23002MPS CAVOK 06/M06 Q1031 NOSIG
ZHHH,2021-12-30 12:00,ZHHH 301200Z VRB01MPS CAVOK 05/M06 Q1031 NOSIG
ZHHH,2021-12-30 13:00,ZHHH 301300Z 05003MPS 8000 NSC 05/M04 Q1032 NOSIG
ZHHH,2021-12-30 14:00,ZHHH 301400Z VRB01MPS 8000 NSC 04/M05 Q1032 NOSIG
ZHHH,2021-12-30 15:00,ZHHH 301500Z 00000MPS 8000 NSC 02/01 Q1032 NOSIG
ZHHH,2021-12-30 16:00,ZHHH 301600Z 00000MPS 8000 NSC 02/01 Q1032 NOSIG
ZHHH,2021-12-30 17:00,ZHHH 301700Z VRB01MPS 8000 NSC M00/M02 Q1031 NOSIG
ZHHH,2021-12-30 18:00,ZHHH 301800Z 05002MPS CAVOK 01/M07 Q1031 NOSIG
ZHHH,2021-12-30 19:00,ZHHH 301900Z 06002MPS CAVOK 03/M07 Q1031 NOSIG
ZHHH,2021-12-30 20:00,ZHHH 302000Z 05002MPS CAVOK 02/M06 Q1031 NOSIG
ZHHH,2021-12-30 21:00,ZHHH 302100Z 08002MPS CAVOK 01/M05 Q1031 NOSIG
ZHHH,2021-12-30 22:00,ZHHH 302200Z 07003MPS CAVOK 02/M05 Q1032 NOSIG
ZHHH,2021-12-30 23:00,ZHHH 302300Z 12003MPS CAVOK 03/M06 Q1032 NOSIG
