station,valid,metar
ZHHH,2003-01-01 00:00,ZHHH 010000Z 08001MPS 2300 BR SKC M00/M04 Q1031 NOSIG
ZHHH,2003-01-01 01:00,ZHHH 010100Z 09001MPS 3000 HZ SKC 01/M04 Q1031 NOSIG
ZHHH,2003-01-01 02:00,ZHHH 010200Z 14001MPS 3500 HZ NSC 02/M03 Q1032 NOSIG
ZHHH,2003-01-01 03:00,ZHHH 010300Z 08002MPS 1700 HZ NSC 03/M02 Q1031 NOSIG
ZHHH,2003-01-01 04:00,ZHHH 010400Z 12002MPS 2500 HZ NSC 05/M03 Q1030 NOSIG
ZHHH,2003-01-01 05:00,ZHHH 010500Z 07001MPS 3500 HZ NSC 06/M03 Q1029 NOSIG
ZHHH,2003-01-01 06:00,ZHHH 010600Z 13002MPS 4000 HZ NSC 06/M03 Q1029 NOSIG
ZHHH,2003-01-01 07:00,ZHHH 010700Z 17001MPS 5000 HZ NSC 06/M03 Q1029 NOSIG
ZHHH,2003-01-01 08:00,ZHHH 010800Z 22001MPS 4000 HZ NSC 06/M03 Q1029 NOSIG
ZHHH,2003-01-01 09:00,ZHHH 010900Z 19001MPS 2500 HZ NSC 06/M02 Q1029 NOSIG
ZHHH,2003-01-01 10:00,ZHHH 011000Z 00000MPS 3000 HZ NSC 05/M03 Q1029 NOSIG
ZHHH,2003-01-01 11:00,ZHHH 011100Z 03001MPS 2500 HZ NSC 05/M01 Q1030 NOSIG
ZHHH,2003-01-01 12:00,ZHHH 011200Z 04002MPS 2500 HZ NSC 05/M02 Q1030 NOSIG
ZHHH,2003-01-01 13:00,ZHHH 011300Z 05004MPS 3000 HZ NSC 04/M02 Q1030 NOSIG
ZHHH,2003-01-01 14:00,ZHHH 011400Z 04003MPS 000V070 2500 HZ NSC 04/M01 Q1031 NOSIG
ZHHH,2003-01-01 15:00,ZHHH 011500Z 03002MPS 2500 HZ NSC 03/M01 Q1031 NOSIG
ZHHH,2003-01-01 16:00,ZHHH 011600Z 02002MPS 2500 HZ NSC 03/M01 Q1031 NOSIG
ZHHH,2003-01-01 17:00,ZHHH 011700Z 02001MPS 2500 HZ NSC 03/M02 Q1030 NOSIG
ZHHH,2003-01-01 18:00,ZHHH 011800Z 00000MPS 2500 HZ NSC 03/M01 Q1030 NOSIG
ZHHH,2003-01-01 19:00,ZHHH 011900Z 36001MPS 2000 BR NSC 03/M01 Q1029 NOSIG
ZHHH,2003-01-01 20:00,ZHHH 012000Z 36001MPS 1800 BR OVC010 02/M00 Q1029 NOSIG
ZHHH,2003-01-01 21:00,ZHHH 012100Z 28001MPS 1600 BR NSC 02/M01 Q1029 NOSIG
ZHHH,2003-01-01 22:00,ZHHH 012200Z 32002MPS 1600 BR NSC 02/M00 Q1029 NOSIG
ZHHH,2003-01-01 23:00,ZHHH 012300Z 34002MPS 1500 BR NSC 02/M00 Q1030 NOSIG
ZHHH,2003-01-02 00:00,ZHHH 020000Z 32001MPS 1700 BR NSC 02/M00 Q1031 NOSIG
ZHHH,2003-01-02 01:00,ZHHH 020100Z 33003MPS 290V010 1800 BR SCT000 OVC100 02/M01 Q1032 NOSIG
ZHHH,2003-01-02 02:00,ZHHH 020200Z 35003MPS 320V020 1800 BR NSC 02/M01 Q1033 NOSIG
ZHHH,2003-01-02 03:00,ZHHH 020300Z 35003MPS 320V020 1800 BR NSC 03/M01 Q1033 NOSIG
ZHHH,2003-01-02 04:00,ZHHH 020400Z 32004MPS 290V000 2100 HZ NSC 03/M02 Q1032 NOSIG
ZHHH,2003-01-02 05:00,ZHHH 020500Z 35004MPS 320V050 2100 HZ SCT020 OVC050 04/M02 Q1031 NOSIG
ZHHH,2003-01-02 06:00,ZHHH 020600Z 35004MPS 310V030 2100 HZ SCT020 OVC050 04/M02 Q1030 NOSIG
ZHHH,2003-01-02 07:00,ZHHH 020700Z 33004MPS 290V360 2600 HZ NSC 05/M03 Q1031 NOSIG
ZHHH,2003-01-02 08:00,ZHHH 020800Z 35002MPS 3000 HZ NSC 05/M03 Q1031 NOSIG
ZHHH,2003-01-02 09:00,ZHHH 020900Z 36002MPS 4000 HZ NSC 05/M03 Q1031 NOSIG
ZHHH,2003-01-02 10:00,ZHHH 021000Z 30001MPS 2500 HZ SKC 03/M03 Q1032 NOSIG
ZHHH,2003-01-02 11:00,ZHHH 021100Z 27002MPS 2500 HZ SKC 03/M02 Q1032 NOSIG
ZHHH,2003-01-02 12:00,ZHHH 021200Z 27001MPS 2000 HZ SKC 02/M02 Q1033 NOSIG
ZHHH,2003-01-02 13:00,ZHHH 021300Z 00000MPS 2000 HZ SKC 02/M03 Q1034 NOSIG
ZHHH,2003-01-02 14:00,ZHHH 021400Z 23002MPS 2000 HZ SKC 02/M03 Q1034 NOSIG
ZHHH,2003-01-02 15:00,ZHHH 021500Z 22001MPS 1800 HZ SKC 01/M03 Q1035 NOSIG
ZHHH,2003-01-02 16:00,ZHHH 021600Z 22001MPS 1800 HZ SKC 01/M02 Q1034 NOSIG
ZHHH,2003-01-02 17:00,ZHHH 021700Z 22001MPS 1600 HZ SKC 00/M02 Q1034 NOSIG
ZHHH,2003-01-02 18:00,ZHHH 021800Z 22001MPS 1500 BR SKC 00/M02 Q1034 NOSIG
ZHHH,2003-01-02 19:00,ZHHH 021900Z 35001MPS 1500 BR SKC M01/M02 Q1034 NOSIG
ZHHH,2003-01-02 20:00,ZHHH 022000Z 35001MPS 1200 BR SKC M01/M02 Q1034 NOSIG
ZHHH,2003-01-02 21:00,ZHHH 022100Z 03001MPS 1200 BR SKC M01/M02 Q1035 NOSIG
ZHHH,2003-01-02 22:00,ZHHH 022200Z 04002MPS 1200 BR SKC M01/M02 Q1036 NOSIG
ZHHH,2003-01-02 23:00,ZHHH 022300Z 07003MPS 1200 BR SKC M01/M03 Q1036 NOSIG
ZHHH,2003-01-03 00:00,ZHHH 030000Z 07004MPS 1500 BR SKC M01/M04 Q1037 NOSIG
ZHHH,2003-01-03 01:00,ZHHH 030100Z 07004MPS 2000 BR SKC M00/M03 Q1037 NOSIG
ZHHH,2003-01-03 02:00,ZHHH 030200Z 08005MPS 4000 HZ SKC 02/M05 Q1038 NOSIG
ZHHH,2003-01-03 03:00,ZHHH 030300Z 09005MPS CAVOK 03/M07 Q1037 NOSIG
ZHHH,2003-01-03 04:00,ZHHH 030400Z 08004MPS 060V130 CAVOK 04/M05 Q1036 NOSIG
ZHHH,2003-01-03 05:00,ZHHH 030500Z 06005MPS 030V100 CAVOK 04/M08 Q1035 NOSIG
ZHHH,2003-01-03 06:00,ZHHH 030600Z 08005MPS 050V110 CAVOK 05/M09 Q1034 NOSIG
ZHHH,2003-01-03 07:00,ZHHH 030700Z 08004MPS CAVOK 05/M10 Q1034 NOSIG
ZHHH,2003-01-03 08:00,ZHHH 030800Z 07005MPS CAVOK 04/M10 Q1033 NOSIG
ZHHH,2003-01-03 09:00,ZHHH 030900Z 07004MPS CAVOK 03/M10 Q1033 NOSIG
ZHHH,2003-01-03 10:00,ZHHH 031000Z 07004MPS CAVOK 02/M09 Q1032 NOSIG
ZHHH,2003-01-03 11:00,ZHHH 031100Z 07002MPS CAVOK 02/M08 Q1033 NOSIG
ZHHH,2003-01-03 12:00,ZHHH 031200Z 05003MPS CAVOK 01/M09 Q1033 NOSIG
ZHHH,2003-01-03 13:00,ZHHH 031300Z 06003MPS CAVOK 00/M08 Q1033 NOSIG
ZHHH,2003-01-03 14:00,ZHHH 031400Z 05002MPS CAVOK 00/M08 Q1032 NOSIG
ZHHH,2003-01-03 15:00,ZHHH 031500Z 06003MPS CAVOK M00/M08 Q1032 NOSIG
ZHHH,2003-01-03 16:00,ZHHH 031600Z 07003MPS CAVOK M00/M08 Q1032 NOSIG
ZHHH,2003-01-03 17:00,ZHHH 031700Z 05001MPS CAVOK M00/M08 Q1032 NOSIG
ZHHH,2003-01-03 18:00,ZHHH 031800Z 08002MPS CAVOK M01/M07 Q1032 NOSIG
ZHHH,2003-01-03 19:00,ZHHH 031900Z AUTO 07002MPS 3000 // ////// M01/M06 Q1032 NOSIG
ZHHH,2003-01-03 20:00,ZHHH 032000Z 07001MPS CAVOK M01/M06 Q1032 NOSIG
ZHHH,2003-01-03 21:00,ZHHH 032100Z 06002MPS CAVOK M01/M06 Q1032 NOSIG
ZHHH,2003-01-03 22:00,ZHHH 032200Z 05002MPS CAVOK M01/M07 Q1032 NOSIG
ZHHH,2003-01-03 23:00,ZHHH 032300Z 06003MPS CAVOK M01/M08 Q1033 NOSIG
ZHHH,2003-01-04 00:00,ZHHH 040000Z 05002MPS CAVOK M01/M07 Q1034 NOSIG
ZHHH,2003-01-04 01:00,ZHHH 040100Z 04002MPS CAVOK 00/M07 Q1035 NOSIG
ZHHH,2003-01-04 02:00,ZHHH 040200Z 05006MPS CAVOK 02/M10 Q1036 NOSIG
ZHHH,2003-01-04 03:00,ZHHH 040300Z 04007MPS 010V070 CAVOK 02/M10 Q1036 NOSIG
ZHHH,2003-01-04 04:00,ZHHH 040400Z 03008MPS 010V070 CAVOK 03/M11 Q1036 NOSIG
ZHHH,2003-01-04 05:00,ZHHH 040500Z 04008MPS 010V070 CAVOK 04/M12 Q1036 NOSIG
ZHHH,2003-01-04 06:00,ZHHH 040600Z 03007MPS 360V060 CAVOK 05/M11 Q1035 NOSIG
ZHHH,2003-01-04 07:00,ZHHH 040700Z 04007MPS 010V070 CAVOK 05/M13 Q1036 NOSIG
ZHHH,2003-01-04 08:00,ZHHH 040800Z 04007MPS 010V070 CAVOK 04/M12 Q1036 NOSIG
ZHHH,2003-01-04 09:00,ZHHH 040900Z 04005MPS 010V070 CAVOK 03/M11 Q1036 NOSIG
ZHHH,2003-01-04 10:00,ZHHH 041000Z 04005MPS 010V070 CAVOK 02/M09 Q1037 NOSIG
ZHHH,2003-01-04 11:00,ZHHH 041100Z 04004MPS CAVOK 01/M10 Q1038 NOSIG
ZHHH,2003-01-04 12:00,ZHHH 041200Z 04002MPS CAVOK M00/M10 Q1039 NOSIG
ZHHH,2003-01-04 13:00,ZHHH 041300Z 04002MPS CAVOK M01/M10 Q1040 NOSIG
ZHHH,2003-01-04 14:00,ZHHH 041400Z 35001MPS CAVOK M01/M10 Q1040 NOSIG
ZHHH,2003-01-04 15:00,ZHHH 041500Z 01001MPS CAVOK M02/M11 Q1041 NOSIG
ZHHH,2003-01-04 16:00,ZHHH 041600Z 03002MPS CAVOK M02/M10 Q1041 NOSIG
ZHHH,2003-01-04 17:00,ZHHH 041700Z 01002MPS CAVOK M02/M11 Q1041 NOSIG
ZHHH,2003-01-04 18:00,ZHHH 041800Z 02002MPS CAVOK M03/M10 Q1041 NOSIG
ZHHH,2003-01-04 19:00,ZHHH 041900Z 01003MPS 340V050 CAVOK M03/M11 Q1041 NOSIG
ZHHH,2003-01-04 20:00,ZHHH 042000Z 01002MPS CAVOK M03/M11 Q1041 NOSIG
ZHHH,2003-01-04 21:00,ZHHH 042100Z 03002MPS CAVOK M03/M12 Q1041 NOSIG
ZHHH,2003-01-04 22:00,ZHHH 042200Z 01002MPS CAVOK M03/M11 Q1041 NOSIG
ZHHH,2003-01-04 23:00,ZHHH 042300Z 04002MPS CAVOK M03/M12 Q1041 NOSIG
ZHHH,2003-01-05 00:00,ZHHH 050000Z 02003MPS 360V060 CAVOK M02/M11 Q1041 NOSIG
ZHHH,2003-01-05 01:00,ZHHH 050100Z 04003MPS CAVOK M02/M12 Q1042 NOSIG
ZHHH,2003-01-05 02:00,ZHHH 050200Z 06003MPS 020V100 CAVOK M00/00 Q1043 NOSIG
ZHHH,2003-01-05 03:00,ZHHH 050300Z 06003MPS 010V100 CAVOK 00/M15 Q1042 NOSIG
ZHHH,2003-01-05 04:00,ZHHH 050400Z 07003MPS 030V110 CAVOK 01/M16 Q1041 NOSIG
ZHHH,2003-01-05 05:00,ZHHH 050500Z 10003MPS 050V160 CAVOK 01/M15 Q1039 NOSIG
ZHHH,2003-01-05 06:00,ZHHH 050600Z 13003MPS 080V180 CAVOK 02/M15 Q1039 NOSIG
ZHHH,2003-01-05 07:00,ZHHH 050700Z 16002MPS CAVOK 02/M15 Q1039 NOSIG
ZHHH,2003-01-05 08:00,ZHHH 050800Z 18001MPS CAVOK 02/M17 Q1038 NOSIG
ZHHH,2003-01-05 09:00,ZHHH 050900Z 22001MPS CAVOK 01/M15 Q1039 NOSIG
ZHHH,2003-01-05 10:00,ZHHH 051000Z 24001MPS CAVOK 01/M13 Q1039 NOSIG
ZHHH,2003-01-05 11:00,ZHHH 051100Z 23001MPS CAVOK 01/M14 Q1038 NOSIG
ZHHH,2003-01-05 12:00,ZHHH 051200Z 23001MPS CAVOK 01/M11 Q1038 NOSIG
ZHHH,2003-01-05 13:00,ZHHH 051300Z 24001MPS CAVOK 01/M11 Q1038 NOSIG
ZHHH,2003-01-05 14:00,ZHHH 051400Z AUTO 26002KT 6SM 01/M08 A3068 RMK T00101080 IEM_DS3505
ZHHH,2003-01-05 15:00,ZHHH 051500Z 00000MPS CAVOK 01/M09 Q1037 NOSIG
ZHHH,2003-01-05 16:00,ZHHH 051600Z AUTO 32001MPS 9999 ////// 00/M07 Q1037 NOSIG
ZHHH,2003-01-05 17:00,ZHHH 051700Z 00000MPS CAVOK 00/M09 Q1036 NOSIG
ZHHH,2003-01-05 18:00,ZHHH 051800Z 18001MPS CAVOK 00/M08 Q1036 NOSIG
ZHHH,2003-01-05 19:00,ZHHH 051900Z 00000MPS CAVOK M00/M09 Q1035 NOSIG
ZHHH,2003-01-05 20:00,ZHHH 052000Z 00000MPS CAVOK M00/M10 Q1035 NOSIG
ZHHH,2003-01-05 21:00,ZHHH 052100Z 18001MPS CAVOK M00/M09 Q1034 NOSIG
ZHHH,2003-01-05 22:00,ZHHH 052200Z 18001MPS CAVOK M01/M08 Q1034 NOSIG
ZHHH,2003-01-05 23:00,ZHHH 052300Z AUTO 19002KT 6SM M01/M08 A3053 RMK T10101080 IEM_DS3505
ZHHH,2003-01-06 00:00,ZHHH 060000Z AUTO 14002KT 9SM 00/M08 A3053 RMK SLP345 T00051075 57001 IEM_DS3505
ZHHH,2003-01-06 01:00,ZHHH 060100Z AUTO 18002KT 00/M08 A3053 RMK T00001080 IEM_DS3505
ZHHH,2003-01-06 02:00,ZHHH 060200Z 20002MPS 6000 NSC 01/M10 Q1035 NOSIG
ZHHH,2003-01-06 03:00,ZHHH 060300Z 21002MPS CAVOK 02/M11 Q1034 NOSIG
ZHHH,2003-01-06 04:00,ZHHH 060400Z 21001MPS CAVOK 02/M11 Q1033 NOSIG
ZHHH,2003-01-06 05:00,ZHHH 060500Z 21002MPS CAVOK 02/M09 Q1032 NOSIG
ZHHH,2003-01-06 06:00,ZHHH 060600Z 21001MPS CAVOK 03/M09 Q1031 NOSIG
ZHHH,2003-01-06 07:00,ZHHH 060700Z 28001MPS CAVOK 03/M09 Q1031 NOSIG
ZHHH,2003-01-06 08:00,ZHHH 060800Z 24001MPS CAVOK 03/M09 Q1031 NOSIG
ZHHH,2003-01-06 09:00,ZHHH 060900Z 21001MPS CAVOK 02/M09 Q1032 NOSIG
ZHHH,2003-01-06 10:00,ZHHH 061000Z 00000MPS 7000 NSC 02/M09 Q1032 NOSIG
ZHHH,2003-01-06 11:00,ZHHH 061100Z 00000MPS 4000 HZ NSC 02/M09 Q1032 NOSIG
ZHHH,2003-01-06 12:00,ZHHH 061200Z 00000MPS 4000 HZ NSC 01/M07 Q1033 NOSIG
ZHHH,2003-01-06 13:00,ZHHH 061300Z 00000MPS 3000 HZ SKC 00/M06 Q1033 NOSIG
ZHHH,2003-01-06 14:00,ZHHH 061400Z 03001MPS 3000 HZ SKC M00/M06 Q1033 NOSIG
ZHHH,2003-01-06 15:00,ZHHH 061500Z 36001MPS 3000 HZ SKC M01/M06 Q1034 NOSIG
ZHHH,2003-01-06 16:00,ZHHH 061600Z 34001MPS 3000 HZ SKC M01/M06 Q1034 NOSIG
ZHHH,2003-01-06 17:00,ZHHH 061700Z 35001MPS 3000 BR SKC M02/M06 Q1034 NOSIG
ZHHH,2003-01-06 18:00,ZHHH 061800Z 33001MPS 3000 BR SKC M02/M05 Q1034 NOSIG
ZHHH,2003-01-06 19:00,ZHHH 061900Z 34001MPS 3500 BR SKC M03/M05 Q1034 NOSIG
ZHHH,2003-01-06 20:00,ZHHH 062000Z 35001MPS 3000 BR SKC M03/M04 Q1034 NOSIG
ZHHH,2003-01-06 21:00,ZHHH 062100Z 02001MPS 2500 BR SKC M04/M05 Q1034 NOSIG
ZHHH,2003-01-06 22:00,ZHHH 062200Z 00000MPS 2500 BR SKC M04/M06 Q1034 NOSIG
ZHHH,2003-01-06 23:00,ZHHH 062300Z 34001MPS 1800 BR SKC M04/M06 Q1034 NOSIG
ZHHH,2003-01-07 00:00,ZHHH 070000Z 33002MPS 1800 BR SKC M04/M06 Q1035 NOSIG
ZHHH,2003-01-07 01:00,ZHHH 070100Z 35001MPS 1800 BR SKC M02/M04 Q1035 NOSIG
ZHHH,2003-01-07 02:00,ZHHH 070200Z 07003MPS 2500 HZ SKC 00/M04 Q1034 NOSIG
ZHHH,2003-01-07 03:00,ZHHH 070300Z 07005MPS 040V100 4000 HZ SKC 03/M08 Q1035 NOSIG
ZHHH,2003-01-07 04:00,ZHHH 070400Z 06003MPS 360V110 CAVOK 04/M08 Q1034 NOSIG
ZHHH,2003-01-07 05:00,ZHHH 070500Z 07004MPS CAVOK 05/M09 Q1032 NOSIG
ZHHH,2003-01-07 06:00,ZHHH 070600Z 34002MPS CAVOK 06/M07 Q1032 NOSIG
ZHHH,2003-01-07 07:00,ZHHH 070700Z 06003MPS 340V110 CAVOK 06/M08 Q1031 NOSIG
ZHHH,2003-01-07 08:00,ZHHH 070800Z 30002MPS CAVOK 06/M07 Q1032 NOSIG
ZHHH,2003-01-07 09:00,ZHHH 070900Z 32003MPS 270V340 CAVOK 05/M06 Q1032 NOSIG
ZHHH,2003-01-07 10:00,ZHHH 071000Z 26001MPS CAVOK 04/M05 Q1032 NOSIG
ZHHH,2003-01-07 11:00,ZHHH 071100Z 30001MPS 5000 HZ SKC 02/M05 Q1032 NOSIG
ZHHH,2003-01-07 12:00,ZHHH 071200Z 26001MPS 5000 HZ SKC 02/M04 Q1033 NOSIG
ZHHH,2003-01-07 13:00,ZHHH 071300Z 06003MPS 030V090 5000 HZ SKC 02/M05 Q1033 NOSIG
ZHHH,2003-01-07 14:00,ZHHH 071400Z 07004MPS 4000 HZ SKC 01/M05 Q1033 NOSIG
ZHHH,2003-01-07 15:00,ZHHH 071500Z 07004MPS 3000 HZ SKC 00/M05 Q1033 NOSIG
ZHHH,2003-01-07 16:00,ZHHH 071600Z 07003MPS 3000 HZ SKC M00/M05 Q1033 NOSIG
ZHHH,2003-01-07 17:00,ZHHH 071700Z 14001MPS 3000 HZ SKC M01/M05 Q1033 NOSIG
ZHHH,2003-01-07 18:00,ZHHH 071800Z 12001MPS 4000 HZ SKC M01/M05 Q1032 NOSIG
ZHHH,2003-01-07 19:00,ZHHH 071900Z 11002MPS 4000 HZ SKC M01/M04 Q1032 NOSIG
ZHHH,2003-01-07 20:00,ZHHH 072000Z 10001MPS 4000 BR SKC M01/M05 Q1032 NOSIG
ZHHH,2003-01-07 21:00,ZHHH 072100Z 09003MPS 4000 BR SKC M02/M05 Q1031 NOSIG
ZHHH,2003-01-07 22:00,ZHHH 072200Z 10001MPS 4000 BR SKC M02/M05 Q1031 NOSIG
ZHHH,2003-01-07 23:00,ZHHH 072300Z 00000MPS 2500 BR SKC M02/M04 Q1031 NOSIG
ZHHH,2003-01-08 00:00,ZHHH 080000Z 10001MPS 1600 BR SKC M02/M04 Q1031 NOSIG
ZHHH,2003-01-08 01:00,ZHHH 080100Z 12002MPS 1500 BR SKC M01/M03 Q1031 NOSIG
ZHHH,2003-01-08 02:00,ZHHH 080200Z 13002MPS 1600 BR SKC 01/M02 Q1032 NOSIG
ZHHH,2003-01-08 03:00,ZHHH 080300Z AUTO 16002KT 6SM 04/M02 RMK SLP330 T00371025 52013 IEM_DS3505
ZHHH,2003-01-08 04:00,ZHHH 080400Z 23002MPS 1300 HZ NSC 05/M02 Q1031 NOSIG
ZHHH,2003-01-08 05:00,ZHHH 080500Z 20002MPS 2000 HZ SKC 06/M05 Q1029 NOSIG
ZHHH,2003-01-08 06:00,ZHHH 080600Z 20002MPS 2400 HZ SKC 06/M05 Q1028 NOSIG
ZHHH,2003-01-08 07:00,ZHHH 080700Z 13002MPS 3000 HZ SKC 06/M06 Q1027 NOSIG
ZHHH,2003-01-08 08:00,ZHHH 080800Z 13002MPS 3000 HZ NSC 06/M06 Q1027 NOSIG
ZHHH,2003-01-08 09:00,ZHHH 080900Z 12002MPS 2800 HZ NSC 06/M04 Q1027 NOSIG
ZHHH,2003-01-08 10:00,ZHHH 081000Z 12002MPS 2600 HZ NSC 05/M03 Q1027 NOSIG
ZHHH,2003-01-08 11:00,ZHHH 081100Z 10002MPS 3000 HZ SKC 04/M04 Q1027 NOSIG
ZHHH,2003-01-08 12:00,ZHHH 081200Z 08001MPS 3000 HZ SKC 04/M04 Q1027 NOSIG
ZHHH,2003-01-08 13:00,ZHHH 081300Z 06001MPS 2500 HZ SKC 03/M04 Q1027 NOSIG
ZHHH,2003-01-08 14:00,ZHHH 081400Z 00000MPS 2500 HZ SKC 01/M03 Q1028 NOSIG
ZHHH,2003-01-08 15:00,ZHHH 081500Z 36001MPS 2500 HZ SKC 01/M03 Q1028 NOSIG
ZHHH,2003-01-08 16:00,ZHHH 081600Z 34002MPS 1600 BR SKC 00/M02 Q1028 NOSIG
ZHHH,2003-01-08 17:00,ZHHH 081700Z 06002MPS 1600 BR SKC 01/M03 Q1027 NOSIG
ZHHH,2003-01-08 18:00,ZHHH 081800Z 33002MPS 1600 BR SKC 01/M03 Q1027 NOSIG
ZHHH,2003-01-08 19:00,ZHHH 081900Z 04001MPS 1600 BR SKC 01/M02 Q1027 NOSIG
ZHHH,2003-01-08 20:00,ZHHH 082000Z 12001MPS 1800 BR SKC 00/M02 Q1027 NOSIG
ZHHH,2003-01-08 21:00,ZHHH 082100Z 13002MPS 1700 BR SKC 01/M04 Q1026 NOSIG
ZHHH,2003-01-08 22:00,ZHHH 082200Z 14002MPS 1700 BR SKC 01/M03 Q1026 NOSIG
ZHHH,2003-01-08 23:00,ZHHH 082300Z 04001MPS 1200 BR SKC M00/M02 Q1027 NOSIG
ZHHH,2003-01-09 00:00,ZHHH 090000Z 02002MPS 1200 BR SKC M01/M03 Q1028 NOSIG
ZHHH,2003-01-09 01:00,ZHHH 090100Z 08001MPS 1100 R04/1200N BR NSC 00/M02 Q1028 NOSIG
ZHHH,2003-01-09 02:00,ZHHH 090200Z 15002MPS 1200 R04/1200N BR SKC 03/M01 Q1028 NOSIG
ZHHH,2003-01-09 03:00,ZHHH 090300Z 22001MPS 1400 R04/1200N BR SKC 05/00 Q1028 NOSIG
ZHHH,2003-01-09 04:00,ZHHH 090400Z 26002MPS 1500 HZ SKC 06/M01 Q1027 NOSIG
ZHHH,2003-01-09 05:00,ZHHH 090500Z 28002MPS 1600 HZ SKC 07/M02 Q1026 NOSIG
ZHHH,2003-01-09 06:00,ZHHH 090600Z 31002MPS 3000 HZ SKC 09/M02 Q1025 NOSIG
ZHHH,2003-01-09 07:00,ZHHH 090700Z 32003MPS 280V360 5000 HZ SKC 09/M01 Q1025 NOSIG
ZHHH,2003-01-09 08:00,ZHHH 090800Z 32002MPS 5000 HZ SKC 09/M02 Q1025 NOSIG
ZHHH,2003-01-09 09:00,ZHHH 090900Z 27001MPS 5000 HZ SKC 08/M01 Q1025 NOSIG
ZHHH,2003-01-09 10:00,ZHHH 091000Z 28001MPS 3000 HZ NSC 06/01 Q1026 NOSIG
ZHHH,2003-01-09 11:00,ZHHH 091100Z 28001MPS 2400 HZ SKC 06/M00 Q1027 NOSIG
ZHHH,2003-01-09 12:00,ZHHH 091200Z 28001MPS 2400 HZ SKC 05/00 Q1027 NOSIG
ZHHH,2003-01-09 13:00,ZHHH 091300Z 29002MPS 2400 HZ SKC 04/01 Q1027 NOSIG
ZHHH,2003-01-09 14:00,ZHHH 091400Z 29001MPS 2400 BR SKC 04/01 Q1027 NOSIG
ZHHH,2003-01-09 15:00,ZHHH 091500Z 29002MPS 2400 BR SKC 04/01 Q1028 NOSIG
ZHHH,2003-01-09 16:00,ZHHH 091600Z 26001MPS 2400 BR NSC 04/02 Q1028 NOSIG
ZHHH,2003-01-09 17:00,ZHHH 091700Z 25001MPS 2000 BR NSC 04/01 Q1027 NOSIG
ZHHH,2003-01-09 18:00,ZHHH 091800Z 21001MPS 2000 BR NSC 03/01 Q1027 NOSIG
ZHHH,2003-01-09 19:00,ZHHH 091900Z 23001MPS 1500 BR SKC 03/01 Q1027 NOSIG
ZHHH,2003-01-09 20:00,ZHHH 092000Z 24002MPS 1500 BR SKC 02/00 Q1027 NOSIG
ZHHH,2003-01-09 21:00,ZHHH 092100Z 28001MPS 1500 BR SKC 01/M00 Q1027 NOSIG
ZHHH,2003-01-09 22:00,ZHHH 092200Z 28001MPS 1200 R04/1400 BR SKC 01/M00 Q1027 NOSIG
ZHHH,2003-01-09 23:00,ZHHH 092300Z 28001MPS 0800 R04/1000N FG SKC 00/M01 Q1028 NOSIG
ZHHH,2003-01-10 00:00,ZHHH 100000Z 24001MPS 0700 R04/0600 FG SKC 01/00 Q1028 NOSIG
ZHHH,2003-01-10 01:00,ZHHH 100100Z 24002MPS 0800 R04/0600 FG SKC 02/01 Q1028 NOSIG
ZHHH,2003-01-10 02:00,ZHHH 100200Z 25001MPS 1000 R04/0800 BR SKC 03/02 Q1029 NOSIG
ZHHH,2003-01-10 03:00,ZHHH 100300Z 26002MPS 1200 R04/1200 BR SKC 05/03 Q1029 NOSIG
ZHHH,2003-01-10 04:00,ZHHH 100400Z 28001MPS 1600 HZ SKC 07/03 Q1028 NOSIG
ZHHH,2003-01-10 05:00,ZHHH 100500Z 30001MPS 1600 HZ SKC 09/03 Q1027 NOSIG
ZHHH,2003-01-10 06:00,ZHHH 100600Z 29002MPS 1800 HZ SKC 10/02 Q1026 NOSIG
ZHHH,2003-01-10 07:00,ZHHH 100700Z 28002MPS 2000 HZ SKC 11/01 Q1026 NOSIG
ZHHH,2003-01-10 08:00,ZHHH 100800Z 20001MPS 2400 HZ SKC 11/01 Q1026 NOSIG
ZHHH,2003-01-10 09:00,ZHHH 100900Z 20001MPS 2500 HZ SKC 10/01 Q1026 NOSIG
ZHHH,2003-01-10 10:00,ZHHH 101000Z 19001MPS 2500 HZ SKC 09/00 Q1026 NOSIG
ZHHH,2003-01-10 11:00,ZHHH 101100Z 18002MPS 2500 HZ SKC 08/01 Q1027 NOSIG
ZHHH,2003-01-10 12:00,ZHHH 101200Z 16002MPS 2800 HZ SKC 08/01 Q1028 NOSIG
ZHHH,2003-01-10 13:00,ZHHH 101300Z 16002MPS 3000 HZ SKC 07/02 Q1028 NOSIG
ZHHH,2003-01-10 14:00,ZHHH 101400Z 20001MPS 3000 HZ SKC 07/02 Q1029 NOSIG
ZHHH,2003-01-10 15:00,ZHHH 101500Z 00000MPS 2300 HZ SKC 05/02 Q1029 NOSIG
ZHHH,2003-01-10 16:00,ZHHH 101600Z 03001MPS 1600 BR SKC 04/02 Q1029 NOSIG
ZHHH,2003-01-10 17:00,ZHHH 101700Z 05002MPS 1600 BR SKC 05/02 Q1029 NOSIG
ZHHH,2003-01-10 18:00,ZHHH 101800Z 00000MPS 1600 BR SKC 04/01 Q1029 NOSIG
ZHHH,2003-01-10 19:00,ZHHH 101900Z 09002MPS 1600 BR SKC 03/01 Q1029 NOSIG
ZHHH,2003-01-10 20:00,ZHHH 102000Z 14001MPS 1400 BR SKC 03/01 Q1029 NOSIG
ZHHH,2003-01-10 21:00,ZHHH 102100Z 19001MPS 1400 BR SKC 02/01 Q1029 NOSIG
ZHHH,2003-01-10 22:00,ZHHH 102200Z 09001MPS 1400 BR SKC 01/M00 Q1029 NOSIG
ZHHH,2003-01-10 23:00,ZHHH 102300Z 10003MPS 1400 BR SKC 02/01 Q1029 NOSIG
ZHHH,2003-01-11 00:00,ZHHH 110000Z 00000MPS 1300 R04/0700N BR SKC 02/00 Q1030 NOSIG
ZHHH,2003-01-11 01:00,ZHHH 110100Z 00000MPS 1300 R04/0900 BR NSC 03/01 Q1030 NOSIG
ZHHH,2003-01-11 02:00,ZHHH 110200Z 16001MPS 1600 R04/1200N HZ NSC 06/01 Q1031 NOSIG
ZHHH,2003-01-11 03:00,ZHHH 110300Z 08002MPS 2400 HZ SKC 07/M02 Q1031 NOSIG
ZHHH,2003-01-11 04:00,ZHHH 110400Z 14001MPS 5000 HZ SKC 09/M02 Q1030 NOSIG
ZHHH,2003-01-11 05:00,ZHHH 110500Z 20002MPS 7000 SKC 09/M02 Q1029 NOSIG
ZHHH,2003-01-11 06:00,ZHHH 110600Z 19001MPS CAVOK 11/M03 Q1028 NOSIG
ZHHH,2003-01-11 07:00,ZHHH 110700Z 24001MPS CAVOK 12/M03 Q1027 NOSIG
ZHHH,2003-01-11 08:00,ZHHH 110800Z 22001MPS CAVOK 12/M02 Q1027 NOSIG
ZHHH,2003-01-11 09:00,ZHHH 110900Z 14001MPS CAVOK 10/M01 Q1027 NOSIG
ZHHH,2003-01-11 10:00,ZHHH 111000Z 12002MPS 6000 SKC 09/M02 Q1027 NOSIG
ZHHH,2003-01-11 11:00,ZHHH 111100Z 14002MPS 4000 HZ SKC 09/M02 Q1028 NOSIG
ZHHH,2003-01-11 12:00,ZHHH 111200Z 14002MPS 4000 HZ SKC 08/M02 Q1028 NOSIG
ZHHH,2003-01-11 13:00,ZHHH 111300Z 19002MPS 3500 HZ SKC 08/M02 Q1028 NOSIG
ZHHH,2003-01-11 14:00,ZHHH 111400Z 14001MPS 3000 HZ SKC 07/M01 Q1028 NOSIG
ZHHH,2003-01-11 15:00,ZHHH 111500Z 00000MPS 3000 HZ SKC 05/M01 Q1028 NOSIG
ZHHH,2003-01-11 16:00,ZHHH 111600Z 33001MPS 3000 HZ SKC 03/M01 Q1028 NOSIG
ZHHH,2003-01-11 17:00,ZHHH 111700Z 07002MPS 3000 HZ SKC 03/M01 Q1027 NOSIG
ZHHH,2003-01-11 18:00,ZHHH 111800Z 23001MPS 2500 HZ SKC 03/M01 Q1027 NOSIG
ZHHH,2003-01-11 19:00,ZHHH 111900Z 12002MPS 1500 BR SKC 03/M00 Q1026 NOSIG
ZHHH,2003-01-11 20:00,ZHHH 112000Z 12001MPS 1400 BR SKC 02/M00 Q1026 NOSIG
ZHHH,2003-01-11 21:00,ZHHH 112100Z 11002MPS 1400 BR SKC 02/M00 Q1025 NOSIG
ZHHH,2003-01-11 22:00,ZHHH 112200Z 27001MPS 1200 BR SKC 01/M01 Q1026 NOSIG
ZHHH,2003-01-11 23:00,ZHHH 112300Z 09001MPS 1200 BR NSC 01/M00 Q1026 NOSIG
ZHHH,2003-01-12 00:00,ZHHH 120000Z 10002MPS 1200 BR NSC 01/M00 Q1026 NOSIG
ZHHH,2003-01-12 01:00,ZHHH 120100Z 13002MPS 1300 BR NSC 02/00 Q1026 NOSIG
ZHHH,2003-01-12 02:00,ZHHH 120200Z 12002MPS 1500 BR SKC 04/02 Q1026 NOSIG
ZHHH,2003-01-12 03:00,ZHHH 120300Z 15002MPS 1500 BR SKC 05/02 Q1026 NOSIG
ZHHH,2003-01-12 04:00,ZHHH 120400Z 13001MPS 1200 R04/1000N BR SKC 10/03 Q1025 NOSIG
ZHHH,2003-01-12 05:00,ZHHH 120500Z 19002MPS 1600 HZ SKC 11/01 Q1024 NOSIG
ZHHH,2003-01-12 06:00,ZHHH 120600Z 22002MPS 2500 HZ NSC 12/M01 Q1023 NOSIG
ZHHH,2003-01-12 07:00,ZHHH 120700Z 20002MPS 4000 HZ NSC 12/00 Q1022 NOSIG
ZHHH,2003-01-12 08:00,ZHHH 120800Z 20003MPS 160V230 3000 HZ SKC 12/01 Q1021 NOSIG
ZHHH,2003-01-12 09:00,ZHHH 120900Z 18001MPS 3000 HZ SKC 11/02 Q1022 NOSIG
ZHHH,2003-01-12 10:00,ZHHH 121000Z 18002MPS 1700 HZ SKC 10/02 Q1022 NOSIG
ZHHH,2003-01-12 11:00,ZHHH 121100Z 14002MPS 1700 HZ SKC 10/02 Q1022 NOSIG
ZHHH,2003-01-12 12:00,ZHHH 121200Z 16002MPS 1500 R04/1500N HZ SKC 09/02 Q1022 NOSIG
ZHHH,2003-01-12 13:00,ZHHH 121300Z 14002MPS 1500 R04/1500N HZ SKC 07/02 Q1022 NOSIG
ZHHH,2003-01-12 14:00,ZHHH 121400Z 11001MPS 1500 HZ SKC 07/02 Q1022 NOSIG
ZHHH,2003-01-12 15:00,ZHHH 121500Z 09001MPS 1500 HZ SKC 06/02 Q1022 NOSIG
ZHHH,2003-01-12 16:00,ZHHH 121600Z 12001MPS 1500 HZ SKC 06/02 Q1022 NOSIG
ZHHH,2003-01-12 17:00,ZHHH 121700Z 14001MPS 2000 BR SKC 06/02 Q1022 NOSIG
ZHHH,2003-01-12 18:00,ZHHH 121800Z 12001MPS 1600 BR SKC 05/02 Q1022 NOSIG
ZHHH,2003-01-12 19:00,ZHHH 121900Z 12002MPS 1500 BR SKC 04/02 Q1022 NOSIG
ZHHH,2003-01-12 20:00,ZHHH 122000Z 11002MPS 1500 BR SKC 04/01 Q1021 NOSIG
ZHHH,2003-01-12 21:00,ZHHH 122100Z 11002MPS 1500 BR SKC 04/01 Q1021 NOSIG
ZHHH,2003-01-12 22:00,ZHHH 122200Z 12004MPS 1500 BR SKC 03/00 Q1021 NOSIG
ZHHH,2003-01-12 23:00,ZHHH 122300Z 13002MPS 1300 BR SKC 03/00 Q1022 NOSIG
ZHHH,2003-01-13 00:00,ZHHH 130000Z 13002MPS 1200 R04/1200N BR SKC 03/M00 Q1022 NOSIG
ZHHH,2003-01-13 01:00,ZHHH 130100Z 13002MPS 1300 R04/1400N BR SKC 04/01 Q1022 NOSIG
ZHHH,2003-01-13 02:00,ZHHH 130200Z 12002MPS 1400 R04/1400N BR SKC 06/02 Q1023 NOSIG
ZHHH,2003-01-13 03:00,ZHHH 130300Z 13002MPS 1500 R04/1400U HZ SKC 09/03 Q1023 NOSIG
ZHHH,2003-01-13 04:00,ZHHH 130400Z 22003MPS 170V270 2500 HZ SKC 12/02 Q1022 NOSIG
ZHHH,2003-01-13 05:00,ZHHH 130500Z 19002MPS 4000 HZ SKC 14/03 Q1021 NOSIG
ZHHH,2003-01-13 06:00,ZHHH 130600Z 17002MPS 4000 HZ SKC 15/03 Q1020 NOSIG
ZHHH,2003-01-13 07:00,ZHHH 130700Z 19002MPS 4000 HZ SKC 16/04 Q1020 NOSIG
ZHHH,2003-01-13 08:00,ZHHH 130800Z 18001MPS 4000 HZ SKC 16/05 Q1020 NOSIG
ZHHH,2003-01-13 09:00,ZHHH 130900Z 17001MPS 5000 HZ SKC 15/05 Q1020 NOSIG
ZHHH,2003-01-13 10:00,ZHHH 131000Z 12001MPS 3000 HZ SKC 13/05 Q1021 NOSIG
ZHHH,2003-01-13 11:00,ZHHH 131100Z 11002MPS 2100 HZ SKC 12/04 Q1021 NOSIG
ZHHH,2003-01-13 12:00,ZHHH 131200Z 10002MPS 2000 HZ SKC 11/04 Q1022 NOSIG
ZHHH,2003-01-13 13:00,ZHHH 131300Z 07003MPS 1500 HZ SKC 10/04 Q1023 NOSIG
ZHHH,2003-01-13 14:00,ZHHH 131400Z 14001MPS 1500 HZ SKC 09/04 Q1023 NOSIG
ZHHH,2003-01-13 15:00,ZHHH 131500Z 10002MPS 1500 HZ SKC 09/03 Q1024 NOSIG
ZHHH,2003-01-13 16:00,ZHHH 131600Z 07003MPS 2000 HZ SKC 07/03 Q1024 NOSIG
ZHHH,2003-01-13 17:00,ZHHH 131700Z 07003MPS 1600 BR SKC 06/03 Q1024 NOSIG
ZHHH,2003-01-13 18:00,ZHHH 131800Z 08002MPS 1600 BR SKC 06/03 Q1025 NOSIG
ZHHH,2003-01-13 19:00,ZHHH 131900Z 07004MPS 2000 BR SKC 06/03 Q1025 NOSIG
ZHHH,2003-01-13 20:00,ZHHH 132000Z 04002MPS 2000 BR SKC 06/03 Q1026 NOSIG
ZHHH,2003-01-13 21:00,ZHHH 132100Z 34002MPS 2500 HZ SKC 05/01 Q1026 NOSIG
ZHHH,2003-01-13 22:00,ZHHH 132200Z 02002MPS 3000 HZ SKC 04/02 Q1026 NOSIG
ZHHH,2003-01-13 23:00,ZHHH 132300Z 03002MPS 4000 HZ SKC 05/M02 Q1027 NOSIG
ZHHH,2003-01-14 00:00,ZHHH 140000Z 04005MPS 010V070 6000 SKC 06/M03 Q1028 NOSIG
ZHHH,2003-01-14 01:00,ZHHH 140100Z 05005MPS 010V070 6000 SKC 07/M03 Q1028 NOSIG
ZHHH,2003-01-14 03:00,ZHHH 140300Z 05006MPS 010V080 CAVOK 11/M03 Q1030
ZHHH,2003-01-14 04:00,ZHHH 140400Z 04005MPS 010V070 CAVOK 13/M04 Q1029 NOSIG
ZHHH,2003-01-14 05:00,ZHHH 140500Z 04004MPS 000V080 CAVOK 14/M03 Q1028 NOSIG
ZHHH,2003-01-14 06:00,ZHHH 140600Z 03004MPS 350V070 CAVOK 15/M04 Q1027 NOSIG
ZHHH,2003-01-14 07:00,ZHHH 140700Z 03004MPS 340V070 CAVOK 13/M02 Q1027 NOSIG
ZHHH,2003-01-14 08:00,ZHHH 140800Z 01004MPS CAVOK 13/M02 Q1027 NOSIG
ZHHH,2003-01-14 09:00,ZHHH 140900Z 03004MPS 010V070 CAVOK 11/M01 Q1028 NOSIG
ZHHH,2003-01-14 10:00,ZHHH 141000Z 03004MPS 360V060 5000 HZ NSC 09/M01 Q1028 NOSIG
ZHHH,2003-01-14 11:00,ZHHH 141100Z 03004MPS 4000 HZ NSC 08/M01 Q1029 NOSIG
ZHHH,2003-01-14 12:00,ZHHH 141200Z 04005MPS 010V070 4000 HZ NSC 07/M01 Q1029 NOSIG
ZHHH,2003-01-14 13:00,ZHHH 141300Z 05005MPS 4000 HZ SKC 06/M01 Q1030 NOSIG
ZHHH,2003-01-14 14:00,ZHHH 141400Z 02002MPS 4000 HZ SKC 05/M01 Q1030 NOSIG
ZHHH,2003-01-14 15:00,ZHHH 141500Z 03003MPS 360V060 5000 HZ SKC 05/M01 Q1031 NOSIG
ZHHH,2003-01-14 16:00,ZHHH 141600Z 03001MPS 5000 HZ SKC 05/M01 Q1031 NOSIG
ZHHH,2003-01-14 17:00,ZHHH 141700Z 03002MPS 5000 HZ SKC 04/M00 Q1031 NOSIG
ZHHH,2003-01-14 18:00,ZHHH 141800Z 03002MPS 4000 HZ NSC 05/M00 Q1031 NOSIG
ZHHH,2003-01-14 19:00,ZHHH 141900Z 36001MPS 4000 HZ BKN100 04/M00 Q1031 NOSIG
ZHHH,2003-01-14 20:00,ZHHH 142000Z 23001MPS 4000 HZ BKN100 04/00 Q1031 NOSIG
ZHHH,2003-01-14 21:00,ZHHH 142100Z 05001MPS 4000 HZ NSC 04/00 Q1030 NOSIG
ZHHH,2003-01-14 22:00,ZHHH 142200Z 05001MPS 4000 HZ NSC 04/01 Q1030 NOSIG
ZHHH,2003-01-14 23:00,ZHHH 142300Z 04001MPS 5000 BR NSC 04/01 Q1031 NOSIG
ZHHH,2003-01-15 00:00,ZHHH 150000Z 05002MPS 5000 BR NSC 04/01 Q1031 NOSIG
ZHHH,2003-01-15 01:00,ZHHH 150100Z 11003MPS 080V140 4000 BR NSC 04/01 Q1031 NOSIG
ZHHH,2003-01-15 02:00,ZHHH 150200Z AUTO 12006KT 4SM 06/01 A3045 RMK T00600010 IEM_DS3505
ZHHH,2003-01-15 03:00,ZHHH 150300Z 11002MPS 7000 NSC 06/01 Q1031 NOSIG
ZHHH,2003-01-15 04:00,ZHHH 150400Z 11002MPS 6000 NSC 07/01 Q1030 NOSIG
ZHHH,2003-01-15 05:00,ZHHH 150500Z 10001MPS 5000 HZ NSC 07/00 Q1029 NOSIG
ZHHH,2003-01-15 06:00,ZHHH 150600Z 09002MPS 5000 HZ NSC 08/00 Q1028 NOSIG
ZHHH,2003-01-15 07:00,ZHHH 150700Z 13001MPS 5000 HZ NSC 09/M00 Q1028 NOSIG
ZHHH,2003-01-15 08:00,ZHHH 150800Z 11001MPS 6000 SKC 09/M00 Q1028 NOSIG
ZHHH,2003-01-15 09:00,ZHHH 150900Z 10002MPS 6000 SKC 08/00 Q1027 NOSIG
ZHHH,2003-01-15 10:00,ZHHH 151000Z 09002MPS 4000 HZ NSC 07/01 Q1027 NOSIG
ZHHH,2003-01-15 11:00,ZHHH 151100Z 10003MPS 070V140 3000 HZ NSC 06/01 Q1027 NOSIG
ZHHH,2003-01-15 12:00,ZHHH 151200Z 11003MPS 3000 HZ NSC 06/01 Q1027 NOSIG
ZHHH,2003-01-15 13:00,ZHHH 151300Z 12003MPS 3000 HZ SKC 05/01 Q1027 NOSIG
ZHHH,2003-01-15 14:00,ZHHH 151400Z 13002MPS 2500 BR SKC 05/02 Q1027 NOSIG
ZHHH,2003-01-15 15:00,ZHHH 151500Z 14002MPS 2500 BR SKC 04/01 Q1027 NOSIG
ZHHH,2003-01-15 16:00,ZHHH 151600Z 14002MPS 2300 BR SKC 04/01 Q1027 NOSIG
ZHHH,2003-01-15 17:00,ZHHH 151700Z 14002MPS 2100 BR SKC 04/02 Q1027 NOSIG
ZHHH,2003-01-15 18:00,ZHHH 151800Z 15002MPS 2100 BR SKC 04/01 Q1026 NOSIG
ZHHH,2003-01-15 19:00,ZHHH 151900Z 13002MPS 1800 BR SKC 04/02 Q1026 NOSIG
ZHHH,2003-01-15 20:00,ZHHH 152000Z 14002MPS 1600 BR SKC 03/02 Q1025 NOSIG
ZHHH,2003-01-15 21:00,ZHHH 152100Z 14002MPS 1700 BR SKC 03/01 Q1025 NOSIG
ZHHH,2003-01-15 22:00,ZHHH 152200Z 12002MPS 1500 BR SKC 02/01 Q1025 NOSIG
ZHHH,2003-01-15 23:00,ZHHH 152300Z 12003MPS 1600 BR SKC 02/01 Q1026 NOSIG
ZHHH,2003-01-16 00:00,ZHHH 160000Z 12003MPS 090V150 1200 R04/1200N BR SKC 02/01 Q1025 NOSIG
ZHHH,2003-01-16 01:00,ZHHH 160100Z 14003MPS 1000 R04/1000N BR SKC 03/02 Q1025 NOSIG
ZHHH,2003-01-16 02:00,ZHHH 160200Z 13004MPS 1600 BR SKC 05/03 Q1025 NOSIG
ZHHH,2003-01-16 03:00,ZHHH 160300Z 14004MPS 100V180 1800 HZ SKC 08/03 Q1025 NOSIG
ZHHH,2003-01-16 04:00,ZHHH 160400Z 17002MPS 2100 HZ SKC 10/03 Q1024 NOSIG
ZHHH,2003-01-16 05:00,ZHHH 160500Z 20004MPS 150V250 2500 HZ SKC 11/03 Q1023 NOSIG
ZHHH,2003-01-16 06:00,ZHHH 160600Z 20004MPS 160V240 5000 HZ SKC 13/03 Q1022 NOSIG
ZHHH,2003-01-16 07:00,ZHHH 160700Z 19004MPS 160V230 5000 HZ SKC 14/04 Q1021 NOSIG
ZHHH,2003-01-16 08:00,ZHHH 160800Z 19003MPS 160V220 5000 HZ SKC 14/04 Q1020 NOSIG
ZHHH,2003-01-16 09:00,ZHHH 160900Z 18002MPS 4000 HZ SKC 14/04 Q1021 NOSIG
ZHHH,2003-01-16 10:00,ZHHH 161000Z 13003MPS 2500 HZ SKC 12/04 Q1021 NOSIG
ZHHH,2003-01-16 11:00,ZHHH 161100Z 12003MPS 2500 HZ SKC 11/05 Q1021 NOSIG
ZHHH,2003-01-16 12:00,ZHHH 161200Z 12004MPS 090V150 2200 HZ SKC 10/05 Q1021 NOSIG
ZHHH,2003-01-16 13:00,ZHHH 161300Z 11002MPS 2500 HZ SKC 09/05 Q1022 NOSIG
ZHHH,2003-01-16 15:00,ZHHH 161500Z 11003MPS 2500 BR SKC 08/05 Q1022 NOSIG
ZHHH,2003-01-16 18:00,ZHHH 161800Z 06003MPS 1800 BR SKC 06/04 Q1023 NOSIG
ZHHH,2003-01-16 19:00,ZHHH 161900Z 12003MPS 1600 BR SKC 06/04 Q1023 NOSIG
ZHHH,2003-01-16 20:00,ZHHH 162000Z 10003MPS 070V140 1600 BR SKC 06/04 Q1022 NOSIG
ZHHH,2003-01-16 21:00,ZHHH 162100Z 11004MPS 1600 BR SKC 06/04 Q1022 NOSIG
ZHHH,2003-01-16 22:00,ZHHH 162200Z 11003MPS 1600 BR SKC 06/03 Q1023 NOSIG
ZHHH,2003-01-16 23:00,ZHHH 162300Z 08002MPS 1500 BR SKC 05/03 Q1024 NOSIG
ZHHH,2003-01-17 00:00,ZHHH 170000Z 09001MPS 1600 BR SKC 06/03 Q1025 NOSIG
ZHHH,2003-01-17 01:00,ZHHH 170100Z 08001MPS 1800 BR SKC 06/03 Q1026 NOSIG
ZHHH,2003-01-17 02:00,ZHHH 170200Z 11001MPS 1600 R04/1400N BR SKC 08/05 Q1026 NOSIG
ZHHH,2003-01-17 03:00,ZHHH 170300Z 08002MPS 3000 HZ SKC 11/06 Q1026 NOSIG
ZHHH,2003-01-17 04:00,ZHHH 170400Z 07004MPS 030V110 2500 HZ SKC 12/05 Q1026 NOSIG
ZHHH,2003-01-17 05:00,ZHHH 170500Z 07004MPS 030V110 2500 HZ SKC 12/05 Q1026 NOSIG
ZHHH,2003-01-17 06:00,ZHHH 170600Z 04004MPS 3000 HZ SKC 15/05 Q1024 NOSIG
ZHHH,2003-01-17 07:00,ZHHH 170700Z 04004MPS 360V070 2500 HZ SKC 15/05 Q1024
ZHHH,2003-01-17 08:00,ZHHH 170800Z 04004MPS 020V100 2500 HZ SKC 15/04 Q1024 NOSIG
ZHHH,2003-01-17 09:00,ZHHH 170900Z 03004MPS 010V070 2500 HZ SKC 14/04 Q1025 NOSIG
ZHHH,2003-01-17 10:00,ZHHH 171000Z 03003MPS 340V060 2100 HZ NSC 11/03 Q1025 NOSIG
ZHHH,2003-01-17 11:00,ZHHH 171100Z 05005MPS 2100 HZ NSC 10/03 Q1025 NOSIG
ZHHH,2003-01-17 12:00,ZHHH 171200Z 04004MPS 2100 HZ NSC 08/03 Q1026 NOSIG
ZHHH,2003-01-17 13:00,ZHHH 171300Z 04003MPS 2000 HZ NSC 08/03 Q1026 NOSIG
ZHHH,2003-01-17 14:00,ZHHH 171400Z 06003MPS 2100 HZ NSC 07/03 Q1026 NOSIG
ZHHH,2003-01-17 15:00,ZHHH 171500Z 05003MPS 1800 HZ SKC 07/03 Q1026 NOSIG
ZHHH,2003-01-17 16:00,ZHHH 171600Z 03003MPS 1800 HZ SKC 07/02 Q1027 NOSIG
ZHHH,2003-01-17 17:00,ZHHH 171700Z 36003MPS 2000 HZ NSC 07/02 Q1027 NOSIG
ZHHH,2003-01-17 18:00,ZHHH 171800Z 28002MPS 1800 BR SKC 06/03 Q1027 NOSIG
ZHHH,2003-01-17 19:00,ZHHH 171900Z 02002MPS 1400 BR SKC 05/03 Q1026 NOSIG
ZHHH,2003-01-17 20:00,ZHHH 172000Z 02002MPS 1400 BR SKC 05/03 Q1026 NOSIG
ZHHH,2003-01-17 21:00,ZHHH 172100Z 02002MPS 1400 BR SKC 06/03 Q1025 NOSIG
ZHHH,2003-01-17 22:00,ZHHH 172200Z 02002MPS 1400 BR SKC 06/03 Q1025 NOSIG
ZHHH,2003-01-17 23:00,ZHHH 172300Z 01001MPS 1400 BR NSC 06/03 Q1026 NOSIG
ZHHH,2003-01-18 00:00,ZHHH 180000Z 34002MPS 0900 R04/1000N FG NSC 06/04 Q1027 NOSIG
ZHHH,2003-01-18 01:00,ZHHH 180100Z 35002MPS 0800 R04/1000N FG FEW020 OVC100 06/03 Q1027 NOSIG
ZHHH,2003-01-18 02:00,ZHHH 180200Z 33002MPS 0800 R04/1000N FG NSC 06/03 Q1028 NOSIG
ZHHH,2003-01-18 03:00,ZHHH 180300Z 34002MPS 0700 R04/1000N FG NSC 06/03 Q1028 NOSIG
ZHHH,2003-01-18 04:00,ZHHH 180400Z 30002MPS 0700 R04/0700N FG -RA SCT012 OVC060 06/04 Q1027 NOSIG
ZHHH,2003-01-18 05:00,ZHHH 180500Z 34004MPS 0900 R04/0900N FG SCT033 OVC100 07/03 Q1026 NOSIG
ZHHH,2003-01-18 06:00,ZHHH 180600Z 35004MPS 1100 R04/1000N BR SCT033 OVC110 09/03 Q1026 NOSIG
ZHHH,2003-01-18 07:00,ZHHH 180700Z 30001MPS 1200 R04/1200N HZ SCT033 OVC110 09/02 Q1025 NOSIG
ZHHH,2003-01-18 08:00,ZHHH 180800Z 28002MPS 1400 R04/1200N HZ FEW040 OVC100 09/02 Q1025 NOSIG
ZHHH,2003-01-18 09:00,ZHHH 180900Z 26001MPS 1200 R04/1000N HZ NSC 08/03 Q1026 NOSIG
ZHHH,2003-01-18 10:00,ZHHH 181000Z 24002MPS 1000 R04/1400U HZ NSC 07/02 Q1026 NOSIG
ZHHH,2003-01-18 11:00,ZHHH 181100Z 25001MPS 1000 R04/P1500 BR NSC 06/02 Q1026 NOSIG
ZHHH,2003-01-18 12:00,ZHHH 181200Z 25001MPS 1000 R04/1400 BR SKC 06/03 Q1027 NOSIG
ZHHH,2003-01-18 13:00,ZHHH 181300Z 00000MPS 1000 R04/1200 BR SKC 05/03 Q1027 NOSIG
ZHHH,2003-01-18 14:00,ZHHH 181400Z 00000MPS 0800 R04/1000 FG SKC 05/02 Q1027 NOSIG
ZHHH,2003-01-18 15:00,ZHHH 181500Z 26001MPS 0800 R04/1000 FG SKC 05/03 Q1027 NOSIG
ZHHH,2003-01-18 16:00,ZHHH 181600Z 23001MPS 0800 R04/0600 FG SKC 04/03 Q1027 NOSIG
ZHHH,2003-01-18 17:00,ZHHH 181700Z 26001MPS 0500 R04/0200 FG SKC 03/02 Q1027 NOSIG
ZHHH,2003-01-18 18:00,ZHHH 181800Z 00000MPS 0500 R04/0200 FG SKC 03/03 Q1027 NOSIG
ZHHH,2003-01-18 19:00,ZHHH 181900Z 00000MPS 0400 R04/0300N FG SKC 03/02 Q1026 NOSIG
ZHHH,2003-01-18 20:00,ZHHH 182000Z 00000MPS 0300 R04/0300N FG SKC M01/M01 Q1025 NOSIG
ZHHH,2003-01-18 21:00,ZHHH 182100Z 00000MPS 0300 R04/0300N FG SKC M01/M02 Q1026 NOSIG
ZHHH,2003-01-18 22:00,ZHHH 182200Z 00000MPS 0050 FG SKC M00/M01 Q1026 NOSIG
ZHHH,2003-01-18 23:00,ZHHH 182300Z 00000MPS 0050 R04/0050N FG SKC M01/M01 Q1026 NOSIG
ZHHH,2003-01-19 00:00,ZHHH 190000Z 10002MPS 0050 R04/0050N FG VV004 M00/M00 Q1027 NOSIG
ZHHH,2003-01-19 01:00,ZHHH 190100Z 14003MPS 0050 FG VV005 00/00 Q1027 NOSIG
ZHHH,2003-01-19 02:00,ZHHH 190200Z 12003MPS 0050 FG VV005 00/00 Q1028 NOSIG
ZHHH,2003-01-19 03:00,ZHHH 190300Z 11003MPS 080V140 0100 R04/0075N FG VV005 01/01 Q1027 NOSIG
ZHHH,2003-01-19 04:00,ZHHH 190400Z 12002MPS 0050 R04/0100N FG VV001 02/02 Q1026 NOSIG
ZHHH,2003-01-19 05:00,ZHHH 190500Z 10003MPS 070V140 0150 R04/0200N FG VV001 04/04 Q1025 NOSIG
ZHHH,2003-01-19 06:00,ZHHH 190600Z 11003MPS 070V150 0350 R04/0450N FG SKC 05/05 Q1023 NOSIG
ZHHH,2003-01-19 07:00,ZHHH 190700Z 11003MPS 0450 R04/0600N FG SKC 06/06 Q1023 NOSIG
ZHHH,2003-01-19 08:00,ZHHH 190800Z 09003MPS 070V140 0600 R04/0800N FG SKC 07/06 Q1022 NOSIG
ZHHH,2003-01-19 09:00,ZHHH 190900Z 10003MPS 070V130 0700 R04/0700N FG SKC 06/05 Q1022 NOSIG
ZHHH,2003-01-19 10:00,ZHHH 191000Z 10003MPS 0500 R04/0700N FG NSC 05/04 Q1021 NOSIG
ZHHH,2003-01-19 11:00,ZHHH 191100Z 10004MPS 0700 R04/1000N FG NSC 05/04 Q1021 NOSIG
ZHHH,2003-01-19 12:00,ZHHH 191200Z 07004MPS 0700 R04/0900N FG NSC 05/04 Q1021 NOSIG
ZHHH,2003-01-19 13:00,ZHHH 191300Z 07003MPS 0800 R04/1500 FG SKC 05/03 Q1021 NOSIG
ZHHH,2003-01-19 14:00,ZHHH 191400Z 10001MPS 1000 R04/1500 BR SKC 05/03 Q1021 NOSIG
ZHHH,2003-01-19 15:00,ZHHH 191500Z 12003MPS 0800 R04/1000 FG SKC 04/03 Q1021 NOSIG
ZHHH,2003-01-19 16:00,ZHHH 191600Z 11004MPS 0800 R04/1200N FG SKC 04/03 Q1021 NOSIG
ZHHH,2003-01-19 17:00,ZHHH 191700Z 07003MPS 0800 R04/1000N FG SKC 05/03 Q1021 NOSIG
ZHHH,2003-01-19 18:00,ZHHH 191800Z 06003MPS 0800 R04/1100N FG SKC 05/02 Q1021 NOSIG
ZHHH,2003-01-19 19:00,ZHHH 191900Z 04002MPS 0900 R04/P1500 FG SKC 05/02 Q1021 NOSIG
ZHHH,2003-01-19 20:00,ZHHH 192000Z 09003MPS 1000 R04/P1500 BR SKC 05/03 Q1020 NOSIG
ZHHH,2003-01-19 21:00,ZHHH 192100Z 05001MPS 1000 R04/P1500 BR SKC 05/02 Q1021 NOSIG
ZHHH,2003-01-19 22:00,ZHHH 192200Z 03001MPS 1200 R04/P1500 BR SKC 05/02 Q1021 NOSIG
ZHHH,2003-01-19 23:00,ZHHH 192300Z 12001MPS 1200 R04/P1500 BR SKC 05/02 Q1021 NOSIG
ZHHH,2003-01-20 00:00,ZHHH 200000Z 20001MPS 1000 R04/1200N BR SKC 05/03 Q1022 NOSIG
ZHHH,2003-01-20 01:00,ZHHH 200100Z 27001MPS 1000 R04/1000N BR NSC 05/03 Q1023 NOSIG
ZHHH,2003-01-20 02:00,ZHHH 200200Z 34001MPS 1000 R04/1200U BR NSC 06/03 Q1024 NOSIG
ZHHH,2003-01-20 03:00,ZHHH 200300Z 33001MPS 1300 R04/1200D BR NSC 07/03 Q1024 NOSIG
ZHHH,2003-01-20 04:00,ZHHH 200400Z 09001MPS 1600 BR NSC 07/03 Q1023 NOSIG
ZHHH,2003-01-20 05:00,ZHHH 200500Z 30001MPS 1800 HZ NSC 09/03 Q1022 NOSIG
ZHHH,2003-01-20 06:00,ZHHH 200600Z 22001MPS 2000 HZ SKC 11/04 Q1021 NOSIG
ZHHH,2003-01-20 07:00,ZHHH 200700Z 20001MPS 2500 HZ SKC 12/04 Q1021 NOSIG
ZHHH,2003-01-20 08:00,ZHHH 200800Z 22001MPS 2500 HZ SKC 13/05 Q1021 NOSIG
ZHHH,2003-01-20 09:00,ZHHH 200900Z 20001MPS 2500 HZ SKC 12/04 Q1021 NOSIG
ZHHH,2003-01-20 10:00,ZHHH 201000Z 07004MPS 1800 HZ SKC 11/01 Q1022 NOSIG
ZHHH,2003-01-20 11:00,ZHHH 201100Z 07004MPS 1800 HZ SKC 09/00 Q1022 NOSIG
ZHHH,2003-01-20 12:00,ZHHH 201200Z 06003MPS 020V090 1500 HZ SKC 08/01 Q1022 NOSIG
ZHHH,2003-01-20 13:00,ZHHH 201300Z 04003MPS 010V070 1500 HZ SKC 07/01 Q1023 NOSIG
ZHHH,2003-01-20 14:00,ZHHH 201400Z 08003MPS 050V110 1200 R04/P1500 HZ SKC 05/01 Q1022 NOSIG
ZHHH,2003-01-20 15:00,ZHHH 201500Z 13002MPS 1200 R04/P1500 BR SKC 05/01 Q1023 NOSIG
ZHHH,2003-01-20 16:00,ZHHH 201600Z 05002MPS 1200 R04/P1500 BR SKC 03/00 Q1023 NOSIG
ZHHH,2003-01-20 17:00,ZHHH 201700Z 05001MPS 1200 R04/P1500 BR SKC 04/01 Q1023 NOSIG
ZHHH,2003-01-20 18:00,ZHHH 201800Z 06004MPS 1300 R04/P1500 BR SKC 04/00 Q1023 NOSIG
ZHHH,2003-01-20 19:00,ZHHH 201900Z 07004MPS 1800 BR SKC 02/M00 Q1022 NOSIG
ZHHH,2003-01-20 20:00,ZHHH 202000Z 08003MPS 1800 BR SKC 02/M00 Q1021 NOSIG
ZHHH,2003-01-20 21:00,ZHHH 202100Z 06002MPS 1800 BR SKC 02/M00 Q1021 NOSIG
ZHHH,2003-01-20 22:00,ZHHH 202200Z 08002MPS 1500 BR SKC 01/M00 Q1021 NOSIG
ZHHH,2003-01-20 23:00,ZHHH 202300Z 00000MPS 1500 BR SKC 02/00 Q1021 NOSIG
ZHHH,2003-01-21 00:00,ZHHH 210000Z 08003MPS 1000 R04/1000N BR SKC 01/M00 Q1021 NOSIG
ZHHH,2003-01-21 01:00,ZHHH 210100Z 09004MPS 1300 R04/0900N BR SKC 02/00 Q1020 NOSIG
ZHHH,2003-01-21 02:00,ZHHH 210200Z 10007MPS 080V140 1600 R04/1400N BR SKC 05/02 Q1019 NOSIG
ZHHH,2003-01-21 03:00,ZHHH 210300Z 12002MPS 1600 BR NSC 06/02 Q1020 NOSIG
ZHHH,2003-01-21 04:00,ZHHH 210400Z 11001MPS 1600 HZ NSC 08/02 Q1019 NOSIG
ZHHH,2003-01-21 05:00,ZHHH 210500Z 11003MPS 1600 HZ NSC 09/03 Q1017 NOSIG
ZHHH,2003-01-21 06:00,ZHHH 210600Z 12003MPS 2000 HZ NSC 10/02 Q1016 NOSIG
ZHHH,2003-01-21 07:00,ZHHH 210700Z 10002MPS 2000 HZ NSC 10/03 Q1016 NOSIG
ZHHH,2003-01-21 08:00,ZHHH 210800Z 11002MPS 2000 HZ NSC 10/03 Q1015 NOSIG
ZHHH,2003-01-21 09:00,ZHHH 210900Z 10003MPS 1700 HZ NSC 10/04 Q1015 NOSIG
ZHHH,2003-01-21 10:00,ZHHH 211000Z 08002MPS 1600 HZ NSC 09/04 Q1015 NOSIG
ZHHH,2003-01-21 11:00,ZHHH 211100Z 10003MPS 1500 HZ NSC 09/04 Q1015 NOSIG
ZHHH,2003-01-21 12:00,ZHHH 211200Z 36002MPS 1400 BR NSC 08/04 Q1015 NOSIG
ZHHH,2003-01-21 13:00,ZHHH 211300Z 36002MPS 1400 BR NSC 08/05 Q1016 NOSIG
ZHHH,2003-01-21 14:00,ZHHH 211400Z 36003MPS 310V030 1400 -RA BR SCT040 OVC060 08/05 Q1017 NOSIG
ZHHH,2003-01-21 15:00,ZHHH 211500Z 35005MPS 320V020 1600 BR SCT040 OVC050 08/05 Q1018 NOSIG
ZHHH,2003-01-21 16:00,ZHHH 211600Z 35006MPS 1500 -RA BR SCT040 OVC050 07/05 Q1018 NOSIG
ZHHH,2003-01-21 17:00,ZHHH 211700Z 36002MPS 1500 -RA BR BKN040 OVC050 06/05 Q1018 NOSIG
ZHHH,2003-01-21 18:00,ZHHH 211800Z AUTO 36002KT 6SM 06/06 RMK 60016 SLP184 T00640055 52001 IEM_DS3505
ZHHH,2003-01-21 21:00,ZHHH 212100Z 33003MPS 1000 -RA BR SCT010 OVC040 05/05 Q1018 NOSIG
ZHHH,2003-01-21 22:00,ZHHH 212200Z 32001MPS 1000 RO4/1400 BR SCT010 OVC040 05/04 Q1018 NOSIG
ZHHH,2003-01-21 23:00,ZHHH 212300Z 27001MPS 0700 R04/1000 FG NSC 04/04 Q1018 NOSIG
ZHHH,2003-01-22 00:00,ZHHH 220000Z 28002MPS 0150 R04/0100 FG SKC 03/03 Q1019 NOSIG
ZHHH,2003-01-22 01:00,ZHHH 220100Z 27002MPS 0050 R04/0075N FG VV004 04/04 Q1019 NOSIG
ZHHH,2003-01-22 02:00,ZHHH 220200Z 30002MPS 0100 R04/0100V0125N FG VV004 04/04 Q1020 NOSIG
ZHHH,2003-01-22 03:00,ZHHH 220300Z 32002MPS 0150 R04/0150V0250N FG VV006 05/05 Q1020 NOSIG
ZHHH,2003-01-22 04:00,ZHHH 220400Z 32003MPS 280V360 0200 R04/0200U FG VV008 05/05 Q1019 NOSIG
ZHHH,2003-01-22 05:00,ZHHH 220500Z 32002MPS 0700 R04/0700N FG SKC 07/07 Q1018 NOSIG
ZHHH,2003-01-22 06:00,ZHHH 220600Z 31003MPS 280V350 0900 R04/0800N FG SCT006 09/07 Q1018 NOSIG
ZHHH,2003-01-22 07:00,ZHHH 220700Z 34004MPS 300V020 1800 HZ SKC 12/05 Q1017 NOSIG
ZHHH,2003-01-22 08:00,ZHHH 220800Z 32004MPS 290V350 2400 HZ SKC 13/03 Q1017 NOSIG
ZHHH,2003-01-22 09:00,ZHHH 220900Z 34003MPS 300V020 3000 HZ SKC 12/02 Q1017 NOSIG
ZHHH,2003-01-22 10:00,ZHHH 221000Z 35002MPS 3000 HZ SKC 11/03 Q1019 NOSIG
ZHHH,2003-01-22 11:00,ZHHH 221100Z 34002MPS 3000 HZ NSC 10/03 Q1020 NOSIG
ZHHH,2003-01-22 12:00,ZHHH 221200Z 04002MPS 3000 HZ NSC 09/04 Q1020 NOSIG
ZHHH,2003-01-22 13:00,ZHHH 221300Z 05004MPS 3500 HZ SKC 08/02 Q1021 NOSIG
ZHHH,2003-01-22 14:00,ZHHH 221400Z 08003MPS 3500 HZ SKC 08/01 Q1022 NOSIG
ZHHH,2003-01-22 15:00,ZHHH 221500Z 08002MPS 3500 HZ SKC 07/01 Q1022 NOSIG
ZHHH,2003-01-22 16:00,ZHHH 221600Z 00000MPS 3000 HZ SKC 05/01 Q1022 NOSIG
ZHHH,2003-01-22 17:00,ZHHH 221700Z 34001MPS 3000 HZ SKC 05/01 Q1022 NOSIG
ZHHH,2003-01-22 18:00,ZHHH 221800Z 00000MPS 3000 HZ SKC 06/M01 Q1022 NOSIG
ZHHH,2003-01-22 19:00,ZHHH 221900Z 00000MPS 3000 HZ SKC 06/M01 Q1022 NOSIG
ZHHH,2003-01-22 20:00,ZHHH 222000Z 04001MPS 4000 HZ SKC 05/M01 Q1022 NOSIG
ZHHH,2003-01-22 21:00,ZHHH 222100Z 05002MPS 4000 HZ SKC 04/M01 Q1022 NOSIG
ZHHH,2003-01-22 22:00,ZHHH 222200Z 11002MPS 2000 HZ SKC 03/M00 Q1023 NOSIG
ZHHH,2003-01-22 23:00,ZHHH 222300Z 07003MPS 4000 BR SKC 03/M01 Q1023 NOSIG
ZHHH,2003-01-23 00:00,ZHHH 230000Z 12003MPS 7000 SKC 02/M00 Q1024 NOSIG
ZHHH,2003-01-23 01:00,ZHHH 230100Z 12005MPS 080V140 5000 BR SKC 03/01 Q1023 NOSIG
ZHHH,2003-01-23 02:00,ZHHH 230200Z 10005MPS 5000 HZ SKC 05/01 Q1023 NOSIG
ZHHH,2003-01-23 03:00,ZHHH 230300Z 12004MPS 070V140 2500 HZ SKC 07/03 Q1023 NOSIG
ZHHH,2003-01-23 04:00,ZHHH 230400Z 12002MPS 2100 HZ NSC 10/04 Q1022 NOSIG
ZHHH,2003-01-23 05:00,ZHHH 230500Z 13003MPS 090V170 2500 HZ NSC 10/02 Q1021 NOSIG
ZHHH,2003-01-23 06:00,ZHHH 230600Z 13003MPS 030V160 5000 HZ NSC 12/01 Q1020 NOSIG
ZHHH,2003-01-23 07:00,ZHHH 230700Z 17003MPS 140V210 8000 NSC 12/00 Q1019 NOSIG
ZHHH,2003-01-23 08:00,ZHHH 230800Z 18002MPS CAVOK 12/M01 Q1019 NOSIG
ZHHH,2003-01-23 09:00,ZHHH 230900Z 11002MPS CAVOK 11/M00 Q1018 NOSIG
ZHHH,2003-01-23 10:00,ZHHH 231000Z 11002MPS CAVOK 10/01 Q1018 NOSIG
ZHHH,2003-01-23 11:00,ZHHH 231100Z 11003MPS CAVOK 09/01 Q1018 NOSIG
ZHHH,2003-01-23 12:00,ZHHH 231200Z 12003MPS CAVOK 08/01 Q1018 NOSIG
ZHHH,2003-01-23 13:00,ZHHH 231300Z 10003MPS 070V130 CAVOK 07/00 Q1018 NOSIG
ZHHH,2003-01-23 14:00,ZHHH 231400Z 11003MPS CAVOK 07/00 Q1018 NOSIG
ZHHH,2003-01-23 15:00,ZHHH 231500Z 11004MPS 6000 SKC 06/01 Q1018 NOSIG
ZHHH,2003-01-23 16:00,ZHHH 231600Z 11003MPS 6000 SKC 05/00 Q1018 NOSIG
ZHHH,2003-01-23 17:00,ZHHH 231700Z 11004MPS 5000 HZ SKC 05/00 Q1018 NOSIG
ZHHH,2003-01-23 18:00,ZHHH 231800Z 10006MPS 7000 SKC 05/M00 Q1017 NOSIG
ZHHH,2003-01-23 19:00,ZHHH 231900Z 10006MPS 7000 NSC 05/00 Q1017 NOSIG
ZHHH,2003-01-23 20:00,ZHHH 232000Z 12004MPS 7000 NSC 05/M00 Q1017 NOSIG
ZHHH,2003-01-23 21:00,ZHHH 232100Z 10003MPS CAVOK 04/00 Q1017 NOSIG
ZHHH,2003-01-23 22:00,ZHHH 232200Z 09003MPS CAVOK 04/00 Q1017 NOSIG
ZHHH,2003-01-23 23:00,ZHHH 232300Z 09004MPS CAVOK 04/M00 Q1017 NOSIG
ZHHH,2003-01-24 00:00,ZHHH 240000Z 10004MPS 6000 NSC 05/M00 Q1017 NOSIG
ZHHH,2003-01-24 01:00,ZHHH 240100Z 13002MPS 6000 NSC 05/01 Q1018 NOSIG
ZHHH,2003-01-24 02:00,ZHHH 240200Z 13003MPS 6000 NSC 07/01 Q1019 NOSIG
ZHHH,2003-01-24 03:00,ZHHH 240300Z 12005MPS 6000 NSC 07/00 Q1019 NOSIG
ZHHH,2003-01-24 04:00,ZHHH 240400Z 11005MPS 6000 NSC 08/M01 Q1018 NOSIG
ZHHH,2003-01-24 05:00,ZHHH 240500Z 11005MPS CAVOK 09/M00 Q1017 NOSIG
ZHHH,2003-01-24 06:00,ZHHH 240600Z 11005MPS CAVOK 09/00 Q1016 NOSIG
ZHHH,2003-01-24 07:00,ZHHH 240700Z 12005MPS CAVOK 09/01 Q1016 NOSIG
ZHHH,2003-01-24 08:00,ZHHH 240800Z 12004MPS 080V150 CAVOK 09/00 Q1016 NOSIG
ZHHH,2003-01-24 09:00,ZHHH 240900Z 11004MPS 070V140 7000 -RA SCT040 OVC070 08/03 Q1017 NOSIG
ZHHH,2003-01-24 10:00,ZHHH 241000Z 12004MPS 090V160 6000 -RA OVC040 07/04 Q1017 NOSIG
ZHHH,2003-01-24 11:00,ZHHH 241100Z 09003MPS 7000 OVC040 06/04 Q1017 NOSIG
ZHHH,2003-01-24 12:00,ZHHH 241200Z 06003MPS 4000 BR -RA OVC040 06/05 Q1018 NOSIG
ZHHH,2003-01-24 13:00,ZHHH 241300Z 06003MPS 4000 BR -RA OVC040 06/05 Q1019 NOSIG
ZHHH,2003-01-24 14:00,ZHHH 241400Z 05003MPS 4000 BR -RA SCT020 OVC040 06/05 Q1019 NOSIG
ZHHH,2003-01-24 15:00,ZHHH 241500Z 03002MPS 3000 BR -RA BKN020 OVC040 06/05 Q1019 NOSIG
ZHHH,2003-01-24 16:00,ZHHH 241600Z 02002MPS 3000 BR -RA BKN020 OVC040 06/05 Q1019 NOSIG
ZHHH,2003-01-24 17:00,ZHHH 241700Z 04003MPS 000V070 4000 BR -RA BKN020 OVC040 06/05 Q1018 NOSIG
ZHHH,2003-01-24 18:00,ZHHH 241800Z 03002MPS 4000 BR BKN020 OVC040 06/05 Q1018 NOSIG
ZHHH,2003-01-24 19:00,ZHHH 241900Z 04003MPS 010V080 3000 BR BKN020 OVC040 06/05 Q1017 NOSIG
ZHHH,2003-01-24 20:00,ZHHH 242000Z 03003MPS 010V070 3000 BR SCT020 OVC040 06/05 Q1017 NOSIG
ZHHH,2003-01-24 21:00,ZHHH 242100Z 04004MPS 010V070 3500 BR SCT020 OVC040 06/04 Q1017 NOSIG
ZHHH,2003-01-24 22:00,ZHHH 242200Z 04003MPS 3000 BR SCT010 OVC040 06/04 Q1017 NOSIG
ZHHH,2003-01-24 23:00,ZHHH 242300Z 03003MPS 1500 BR NSC 05/05 Q1017 NOSIG
ZHHH,2003-01-25 00:00,ZHHH 250000Z 02002MPS 1300 R04/1000N -RA BR SCT007 OVC040 05/04 Q1018 NOSIG
ZHHH,2003-01-25 01:00,ZHHH 250100Z 03002MPS 0900 R04/1200N -RA FG SCT007 OVC030 05/05 Q1018 NOSIG
ZHHH,2003-01-25 02:00,ZHHH 250200Z 01002MPS 0700 R04/0900N RA FG SCT006 OVC020 05/05 Q1019 NOSIG
ZHHH,2003-01-25 03:00,ZHHH 250300Z 35003MPS 320V030 0700 R04/0800N RA FG SCT006 OVC020 05/05 Q1019 NOSIG
ZHHH,2003-01-25 04:00,ZHHH 250400Z 02002MPS 1000 R04/1000N RA BR SCT006 OVC033 05/05 Q1019 NOSIG
ZHHH,2003-01-25 05:00,ZHHH 250500Z 04004MPS 360V070 3000 -RA BR SCT009 OVC033 05/04 Q1018 NOSIG
ZHHH,2003-01-25 06:00,ZHHH 250600Z 03004MPS 350V070 4000 -RA BR FEW006 SCT010 OVC033 05/04 Q1017 NOSIG
ZHHH,2003-01-25 07:00,ZHHH 250700Z 01003MPS 350V050 4000 -RA BR FEW006 SCT010 OVC033 05/04 Q1018 NOSIG
ZHHH,2003-01-25 08:00,ZHHH 250800Z 02002MPS 3000 -RA BR SCT009 OVC033 05/04 Q1018 NOSIG
ZHHH,2003-01-25 09:00,ZHHH 250900Z 36004MPS 2500 -RA BR SCT008 SCT020 OVC033 04/04 Q1018 NOSIG
ZHHH,2003-01-25 10:00,ZHHH 251000Z 03003MPS 350V070 5000 BR FEW010 OVC033 04/04 Q1019 NOSIG
ZHHH,2003-01-25 11:00,ZHHH 251100Z 02005MPS 360V060 9999 FEW020 OVC033 04/03 Q1020 NOSIG
ZHHH,2003-01-25 12:00,ZHHH 251200Z 01002MPS 9999 SCT020 OVC033 04/02 Q1021 NOSIG
ZHHH,2003-01-25 13:00,ZHHH 251300Z 35001MPS 9999 SCT020 OVC040 04/03 Q1021 NOSIG
ZHHH,2003-01-25 14:00,ZHHH 251400Z 33003MPS 9999 OVC040 04/03 Q1022 NOSIG
ZHHH,2003-01-25 15:00,ZHHH 251500Z 35003MPS 320V020 9999 SCT020 OVC040 03/02 Q1023 NOSIG
ZHHH,2003-01-25 16:00,ZHHH 251600Z 34004MPS 310V030 9999 SCT020 OVC050 03/02 Q1023 NOSIG
ZHHH,2003-01-25 17:00,ZHHH 251700Z 35003MPS 310V020 5000 BR SCT020 OVC050 03/02 Q1023 NOSIG
ZHHH,2003-01-25 18:00,ZHHH 251800Z 36003MPS 4000 BR FEW020 OVC050 03/02 Q1023 NOSIG
ZHHH,2003-01-25 19:00,ZHHH 251900Z 36003MPS 320V030 1400 R04/1600N BR NSC 03/02 Q1023 NOSIG
ZHHH,2003-01-25 20:00,ZHHH 252000Z 36002MPS 1300 R04/1600N BR FEW033 SCT230 03/02 Q1022 NOSIG
ZHHH,2003-01-25 21:00,ZHHH 252100Z 36002MPS 1300 R04/1600N BR FEW033 03/02 Q1022 NOSIG
ZHHH,2003-01-25 22:00,ZHHH 252200Z 35003MPS 320V020 1300 R04/1600N BR BKN040 03/02 Q1023 NOSIG
ZHHH,2003-01-25 23:00,ZHHH 252300Z 35003MPS 310V030 1300 R04/1600N BR OVC040 03/02 Q1024 NOSIG
ZHHH,2003-01-26 00:00,ZHHH 260000Z 34003MPS 310V020 1300 R04/1200N BR OVC040 03/02 Q1024 NOSIG
ZHHH,2003-01-26 01:00,ZHHH 260100Z 36003MPS 320V030 1400 R04/1200N BR SCT012 OVC040 03/02 Q1024 NOSIG
ZHHH,2003-01-26 02:00,ZHHH 260200Z 34004MPS 310V010 1600 BR SCT012 OVC040 04/03 Q1026 NOSIG
ZHHH,2003-01-26 03:00,ZHHH 260300Z 36004MPS 320V040 2000 BR NSC 04/03 Q1025 NOSIG
ZHHH,2003-01-26 04:00,ZHHH 260400Z 02005MPS 340V050 3000 BR SCT016 BKN060 05/03 Q1025 NOSIG
ZHHH,2003-01-26 05:00,ZHHH 260500Z 04005MPS 010V070 3000 BR SCT019 BKN050 06/03 Q1024 NOSIG
ZHHH,2003-01-26 06:00,ZHHH 260600Z 03005MPS 000V060 3000 BR SCT025 OVC050 05/02 Q1024 NOSIG
ZHHH,2003-01-26 07:00,ZHHH 260700Z 36004MPS 320V040 3000 BR BKN019 OVC050 05/02 Q1024 NOSIG
ZHHH,2003-01-26 08:00,ZHHH 260800Z 36005MPS 340V040 3000 -RA BR BKN017 OVC050 04/03 Q1025 NOSIG
ZHHH,2003-01-26 09:00,ZHHH 260900Z 36005MPS 330V030 2500 -RA BR SCT010 OVC050 04/03 Q1025 NOSIG
ZHHH,2003-01-26 10:00,ZHHH 261000Z 36004MPS 310V030 1800 -RA BR SCT007 SCT009 OVC050 04/03 Q1027 NOSIG
ZHHH,2003-01-26 11:00,ZHHH 261100Z 36003MPS 330V050 1800 -RA BR SCT007 SCT010 OVC050 04/03 Q1028 NOSIG
ZHHH,2003-01-26 12:00,ZHHH 261200Z 03003MPS 340V070 2500 -RA BR SCT010 SCT020 OVC060 04/03 Q1029 NOSIG
ZHHH,2003-01-26 13:00,ZHHH 261300Z 36001MPS 2100 -RA BR SCT010 BKN022 OVC060 03/03 Q1030 NOSIG
ZHHH,2003-01-26 14:00,ZHHH 261400Z 03001MPS 2000 -RA BR SCT008 BKN022 OVC060 04/03 Q1031 NOSIG
ZHHH,2003-01-26 15:00,ZHHH 261500Z 32001MPS 2000 BR FEW012 OVC060 03/03 Q1032 NOSIG
ZHHH,2003-01-26 16:00,ZHHH 261600Z 28001MPS 2100 BR FEW012 OVC060 03/03 Q1032 NOSIG
ZHHH,2003-01-26 17:00,ZHHH 261700Z 30002MPS 1500 BR FEW012 OVC060 03/03 Q1032 NOSIG
ZHHH,2003-01-26 18:00,ZHHH 261800Z 00000MPS 1500 BR FEW012 OVC060 02/02 Q1032 NOSIG
ZHHH,2003-01-26 19:00,ZHHH 261900Z 27001MPS 1500 R04/1400U BR SKC 02/02 Q1032 NOSIG
ZHHH,2003-01-26 20:00,ZHHH 262000Z 00000MPS 0800 R04/0200V0450N FG SKC 02/02 Q1032 NOSIG
ZHHH,2003-01-26 21:00,ZHHH 262100Z 01001MPS 0800 R04/0200V0300N FG SKC 01/01 Q1032 NOSIG
ZHHH,2003-01-26 22:00,ZHHH 262200Z 03002MPS 1200 R04/1400N BR SKC 02/02 Q1032 NOSIG
ZHHH,2003-01-26 23:00,ZHHH 262300Z 31001MPS 1200 R04/0300N BR SKC 01/01 Q1033 NOSIG
ZHHH,2003-01-27 00:00,ZHHH 270000Z 02003MPS 320V070 CAVOK 02/M04 Q1034 NOSIG
ZHHH,2003-01-27 01:00,ZHHH 270100Z 05005MPS CAVOK 02/M05 Q1035 NOSIG
ZHHH,2003-01-27 02:00,ZHHH 270200Z 06006MPS CAVOK 03/M05 Q1035 NOSIG
ZHHH,2003-01-27 03:00,ZHHH 270300Z 04005MPS 010V070 CAVOK 04/M06 Q1035 NOSIG
ZHHH,2003-01-27 04:00,ZHHH 270400Z 02002MPS CAVOK 05/M06 Q1034 NOSIG
ZHHH,2003-01-27 05:00,ZHHH 270500Z 31002MPS CAVOK 07/M06 Q1033 NOSIG
ZHHH,2003-01-27 06:00,ZHHH 270600Z 33005MPS 310V010 CAVOK 06/M07 Q1032 NOSIG
ZHHH,2003-01-27 07:00,ZHHH 270700Z 33004MPS 280V010 CAVOK 08/M05 Q1031 NOSIG
ZHHH,2003-01-27 08:00,ZHHH 270800Z 34003MPS 300V040 CAVOK 07/M07 Q1031 NOSIG
ZHHH,2003-01-27 09:00,ZHHH 270900Z 01002MPS CAVOK 07/M08 Q1030 NOSIG
ZHHH,2003-01-27 10:00,ZHHH 271000Z 10002MPS CAVOK 05/M05 Q1031 NOSIG
ZHHH,2003-01-27 11:00,ZHHH 271100Z 12003MPS CAVOK 04/M03 Q1031 NOSIG
ZHHH,2003-01-27 12:00,ZHHH 271200Z 13003MPS CAVOK 03/M04 Q1031 NOSIG
ZHHH,2003-01-27 13:00,ZHHH 271300Z 12003MPS 090V150 CAVOK 03/M04 Q1031 NOSIG
ZHHH,2003-01-27 14:00,ZHHH 271400Z 12003MPS 080V140 CAVOK 02/M04 Q1032 NOSIG
ZHHH,2003-01-27 15:00,ZHHH 271500Z 12002MPS CAVOK 02/M05 Q1031 NOSIG
ZHHH,2003-01-27 16:00,ZHHH 271600Z 13002MPS CAVOK 02/M04 Q1030 NOSIG
ZHHH,2003-01-27 17:00,ZHHH 271700Z 00000MPS CAVOK 02/M03 Q1030 NOSIG
ZHHH,2003-01-27 18:00,ZHHH 271800Z 16001MPS CAVOK 02/M04 Q1030 NOSIG
ZHHH,2003-01-27 19:00,ZHHH 271900Z 16001MPS CAVOK 02/M04 Q1030 NOSIG
ZHHH,2003-01-27 20:00,ZHHH 272000Z 16001MPS CAVOK 01/M03 Q1029 NOSIG
ZHHH,2003-01-27 21:00,ZHHH 272100Z 13001MPS CAVOK 00/M03 Q1029 NOSIG
ZHHH,2003-01-27 22:00,ZHHH 272200Z 12001MPS CAVOK M00/M03 Q1029 NOSIG
ZHHH,2003-01-27 23:00,ZHHH 272300Z 11001MPS CAVOK M00/M02 Q1029 NOSIG
ZHHH,2003-01-28 00:00,ZHHH 280000Z 10001MPS CAVOK M00/M02 Q1029 NOSIG
ZHHH,2003-01-28 01:00,ZHHH 280100Z 12002MPS 2500 BR SKC 01/M01 Q1030
ZHHH,2003-01-28 02:00,ZHHH 280200Z 18002MPS 6000 SKC 04/01 Q1030 NOSIG
ZHHH,2003-01-28 03:00,ZHHH 280300Z 20001MPS CAVOK 07/M01 Q1030 NOSIG
ZHHH,2003-01-28 04:00,ZHHH 280400Z 26002MPS CAVOK 08/M01 Q1029 NOSIG
ZHHH,2003-01-28 05:00,ZHHH 280500Z 24003MPS 190V320 CAVOK 10/M01 Q1028 NOSIG
ZHHH,2003-01-28 06:00,ZHHH 280600Z 26003MPS 210V310 CAVOK 10/M00 Q1027 NOSIG
ZHHH,2003-01-28 07:00,ZHHH 280700Z 23002MPS CAVOK 11/M00 Q1026 NOSIG
ZHHH,2003-01-28 08:00,ZHHH 280800Z 22002MPS CAVOK 11/00 Q1026 NOSIG
ZHHH,2003-01-28 09:00,ZHHH 280900Z 00000MPS CAVOK 11/00 Q1026 NOSIG
ZHHH,2003-01-28 10:00,ZHHH 281000Z 12002MPS CAVOK 09/01 Q1027 NOSIG
ZHHH,2003-01-28 11:00,ZHHH 281100Z 12002MPS CAVOK 08/01 Q1027 NOSIG
ZHHH,2003-01-28 12:00,ZHHH 281200Z 12003MPS 090V150 CAVOK 07/02 Q1028 NOSIG
ZHHH,2003-01-28 13:00,ZHHH 281300Z 11004MPS CAVOK 06/01 Q1029 NOSIG
ZHHH,2003-01-28 14:00,ZHHH 281400Z 11003MPS CAVOK 05/01 Q1029 NOSIG
ZHHH,2003-01-28 15:00,ZHHH 281500Z 12003MPS 070V130 CAVOK 05/01 Q1029 NOSIG
ZHHH,2003-01-28 16:00,ZHHH 281600Z 11003MPS CAVOK 04/01 Q1029 NOSIG
ZHHH,2003-01-28 17:00,ZHHH 281700Z 09002MPS CAVOK 03/01 Q1029 NOSIG
ZHHH,2003-01-28 18:00,ZHHH 281800Z 07004MPS CAVOK 03/01 Q1029 NOSIG
ZHHH,2003-01-28 19:00,ZHHH 281900Z 07004MPS CAVOK 03/01 Q1029 NOSIG
ZHHH,2003-01-28 20:00,ZHHH 282000Z 07004MPS CAVOK 03/00 Q1028 NOSIG
ZHHH,2003-01-28 21:00,ZHHH 282100Z 06005MPS CAVOK 02/00 Q1028 NOSIG
ZHHH,2003-01-28 22:00,ZHHH 282200Z 06003MPS CAVOK 02/M00 Q1028 NOSIG
ZHHH,2003-01-28 23:00,ZHHH 282300Z 13002MPS 5000 BR SKC 01/M01 Q1028 NOSIG
ZHHH,2003-01-29 00:00,ZHHH 290000Z 12003MPS 4000 BR SKC 01/M00 Q1029 NOSIG
ZHHH,2003-01-29 01:00,ZHHH 290100Z 10004MPS 070V140 4000 BR NSC 02/00 Q1029 NOSIG
ZHHH,2003-01-29 02:00,ZHHH 290200Z 09004MPS 4000 BR NSC 04/01 Q1030 NOSIG
ZHHH,2003-01-29 03:00,ZHHH 290300Z 10004MPS 070V140 7000 NSC 06/01 Q1030 NOSIG
ZHHH,2003-01-29 04:00,ZHHH 290400Z 11005MPS 070V140 7000 NSC 09/01 Q1029 NOSIG
ZHHH,2003-01-29 05:00,ZHHH 290500Z 12005MPS 080V150 CAVOK 09/00 Q1028 NOSIG
ZHHH,2003-01-29 06:00,ZHHH 290600Z 11006MPS CAVOK 10/00 Q1027 NOSIG
ZHHH,2003-01-29 07:00,ZHHH 290700Z 12005MPS CAVOK 11/00 Q1026 NOSIG
ZHHH,2003-01-29 08:00,ZHHH 290800Z 11006MPS 080V140 CAVOK 10/M01 Q1026 NOSIG
ZHHH,2003-01-29 09:00,ZHHH 290900Z 12005MPS CAVOK 10/M00 Q1026 NOSIG
ZHHH,2003-01-29 10:00,ZHHH 291000Z 11003MPS 070V140 CAVOK 09/02 Q1025 NOSIG
ZHHH,2003-01-29 11:00,ZHHH 291100Z 10003MPS CAVOK 08/03 Q1026 NOSIG
ZHHH,2003-01-29 12:00,ZHHH 291200Z 10004MPS 080V140 CAVOK 08/02 Q1026 NOSIG
ZHHH,2003-01-29 13:00,ZHHH 291300Z 12004MPS 080V140 CAVOK 08/01 Q1026 NOSIG
ZHHH,2003-01-29 14:00,ZHHH 291400Z 12003MPS 090V160 CAVOK 08/M01 Q1026 NOSIG
ZHHH,2003-01-29 15:00,ZHHH 291500Z 11004MPS CAVOK 08/M00 Q1026 NOSIG
ZHHH,2003-01-29 16:00,ZHHH 291600Z 10004MPS 070V140 CAVOK 07/00 Q1025 NOSIG
ZHHH,2003-01-29 17:00,ZHHH 291700Z 11004MPS CAVOK 07/01 Q1025 NOSIG
ZHHH,2003-01-29 18:00,ZHHH 291800Z 11004MPS CAVOK 07/02 Q1025 NOSIG
ZHHH,2003-01-29 19:00,ZHHH 291900Z 11004MPS CAVOK 07/02 Q1024 NOSIG
ZHHH,2003-01-29 20:00,ZHHH 292000Z 11005MPS CAVOK 06/02 Q1024 NOSIG
ZHHH,2003-01-29 21:00,ZHHH 292100Z 12005MPS CAVOK 06/01 Q1023 NOSIG
ZHHH,2003-01-29 22:00,ZHHH 292200Z 12004MPS CAVOK 06/01 Q1023 NOSIG
ZHHH,2003-01-29 23:00,ZHHH 292300Z 13003MPS CAVOK 06/01 Q1023 NOSIG
ZHHH,2003-01-30 00:00,ZHHH 300000Z 13003MPS CAVOK 07/00 Q1024 NOSIG
ZHHH,2003-01-30 01:00,ZHHH 300100Z 11004MPS 080V140 CAVOK 07/01 Q1023 NOSIG
ZHHH,2003-01-30 02:00,ZHHH 300200Z 14002MPS CAVOK 07/01 Q1024 NOSIG
ZHHH,2003-01-30 03:00,ZHHH 300300Z 13003MPS 080V160 7000 NSC 07/02 Q1024 NOSIG
ZHHH,2003-01-30 04:00,ZHHH 300400Z 13004MPS 100V160 7000 FEW020 OVC066 07/01 Q1023 NOSIG
ZHHH,2003-01-30 05:00,ZHHH 300500Z 14003MPS 090V180 7000 -RA FEW020 OVC066 07/01 Q1022 NOSIG
ZHHH,2003-01-30 06:00,ZHHH 300600Z 12004MPS 2500 -RA SCT020 OVC070 06/04 Q1021 NOSIG
ZHHH,2003-01-30 07:00,ZHHH 300700Z 11004MPS 1400 R04/1200D -RA BR SCT010 SCT015 OVC040 05/04 Q1021 NOSIG
ZHHH,2003-01-30 08:00,ZHHH 300800Z 10004MPS 1000 R04/1000N -RA BR SCT010 SCT015 OVC040 05/04 Q1020 NOSIG
ZHHH,2003-01-30 09:00,ZHHH 300900Z 08004MPS 1000 R04/1200N -RA BR SCT010 OVC040 05/05 Q1021 NOSIG
ZHHH,2003-01-30 10:00,ZHHH 301000Z 09003MPS 0900 R04/1000V1400N -RA SCT006 OVC040 05/05 Q1021 NOSIG
ZHHH,2003-01-30 11:00,ZHHH 301100Z 04003MPS 010V070 1000 R04/1400U -RA FEW006 SCT020 OVC040 05/05 Q1021 NOSIG
ZHHH,2003-01-30 12:00,ZHHH 301200Z 04003MPS 010V070 1500 -RA FEW006 SCT016 OVC040 05/05 Q1022 NOSIG
ZHHH,2003-01-30 13:00,ZHHH 301300Z 05005MPS 1500 -RA FEW006 SCT010 OVC040 05/05 Q1022 NOSIG
ZHHH,2003-01-30 14:00,ZHHH 301400Z 04005MPS 010V070 1600 -RA BKN020 OVC040 04/03 Q1023 NOSIG
ZHHH,2003-01-30 15:00,ZHHH 301500Z 03006MPS 000V060 1600 -RA FEW006 BKN020 OVC040 03/03 Q1023 NOSIG
ZHHH,2003-01-30 16:00,ZHHH 301600Z 05005MPS 010V070 1600 -RA BKN020 OVC040 03/03 Q1022 NOSIG
ZHHH,2003-01-30 17:00,ZHHH 301700Z 36004MPS 320V040 1700 -RA BKN020 OVC040 03/03 Q1024 NOSIG
ZHHH,2003-01-30 18:00,ZHHH 301800Z 34004MPS 290V020 1500 -RA BKN020 OVC040 03/03 Q1024 NOSIG
ZHHH,2003-01-30 19:00,ZHHH 301900Z 02003MPS 340V060 1500 -RA BKN020 OVC040 03/03 Q1024 NOSIG
ZHHH,2003-01-30 20:00,ZHHH 302000Z 01003MPS 340V050 3000 -RA BKN020 OVC040 03/02 Q1023 NOSIG
ZHHH,2003-01-30 21:00,ZHHH 302100Z 02004MPS 350V050 9999 BKN020 OVC040 02/02 Q1023 NOSIG
ZHHH,2003-01-30 22:00,ZHHH 302200Z 02003MPS 340V050 6000 BKN020 OVC040 02/01 Q1024 NOSIG
ZHHH,2003-01-30 23:00,ZHHH 302300Z 34002MPS 3000 -RA BR SCT020 OVC040 02/01 Q1025 NOSIG
ZHHH,2003-01-31 00:00,ZHHH 310000Z 35004MPS 310V010 1500 -RA BR BKN020 OVC040 02/02 Q1025 NOSIG
ZHHH,2003-01-31 01:00,ZHHH 310100Z 36004MPS 320V040 1300 R04/1200N -RA BR BKN010 OVC033 02/01 Q1026 NOSIG
ZHHH,2003-01-31 02:00,ZHHH 310200Z 03005MPS 000V060 2000 -SN BR BKN010 OVC033 02/01 Q1027 NOSIG
ZHHH,2003-01-31 03:00,ZHHH 310300Z 02004MPS 340V060 1500 R04/1400D -SN BR BKN010 OVC030 02/01 Q1028 NOSIG
ZHHH,2003-01-31 04:00,ZHHH 310400Z 01004MPS 340V050 1600 R04/1200V1600N -RA BR BKN010 OVC030 02/01 Q1027 NOSIG
ZHHH,2003-01-31 05:00,ZHHH 310500Z 01003MPS 340V050 2000 -RA BR BKN010 OVC030 02/01 Q1027 NOSIG
ZHHH,2003-01-31 06:00,ZHHH 310600Z 02004MPS 340V050 3000 -RA BR BKN010 OVC040 02/01 Q1026 NOSIG
ZHHH,2003-01-31 07:00,ZHHH 310700Z 01004MPS 340V050 3000 BR BKN010 OVC040 02/01 Q1027 NOSIG
ZHHH,2003-01-31 08:00,ZHHH 310800Z 03005MPS 000V060 2000 BR BKN010 OVC033 03/01 Q1027 NOSIG
ZHHH,2003-01-31 09:00,ZHHH 310900Z 02005MPS 350V060 2000 BR BKN010 OVC033 02/01 Q1028 NOSIG
ZHHH,2003-01-31 10:00,ZHHH 311000Z 02004MPS 340V050 2000 BR BKN010 OVC033 02/01 Q1028 NOSIG
ZHHH,2003-01-31 11:00,ZHHH 311100Z 01003MPS 340V050 2300 BR BKN010 OVC033 02/01 Q1029 NOSIG
ZHHH,2003-01-31 12:00,ZHHH 311200Z 02005MPS 360V060 3000 BR BKN010 OVC033 02/01 Q1029 NOSIG
ZHHH,2003-01-31 13:00,ZHHH 311300Z 03004MPS 000V060 4000 BR BKN010 OVC033 02/00 Q1030 NOSIG
ZHHH,2003-01-31 14:00,ZHHH 311400Z 01004MPS 340V040 4000 BR FEW010 SCT040 02/M00 Q1030 NOSIG
ZHHH,2003-01-31 15:00,ZHHH 311500Z 02003MPS 340V050 4000 BR NSC 02/M00 Q1031 NOSIG
ZHHH,2003-01-31 16:00,ZHHH 311600Z 02004MPS 4000 BR SKC 01/M00 Q1031 NOSIG
ZHHH,2003-01-31 17:00,ZHHH 311700Z 02003MPS 350V050 5000 BR SKC 01/M00 Q1031 NOSIG
ZHHH,2003-01-31 18:00,ZHHH 311800Z 01002MPS 5000 BR SKC 01/M00 Q1031 NOSIG
ZHHH,2003-01-31 19:00,ZHHH 311900Z 36002MPS 5000 BR SKC 01/M00 Q1032 NOSIG
ZHHH,2003-01-31 20:00,ZHHH 312000Z 02003MPS 5000 BR SKC 01/M00 Q1031 NOSIG
ZHHH,2003-01-31 21:00,ZHHH 312100Z 02004MPS 340V050 4000 BR SKC 02/00 Q1032 NOSIG
ZHHH,2003-01-31 22:00,ZHHH 312200Z 02003MPS 360V070 4000 BR SKC 02/00 Q1032 NOSIG
ZHHH,2003-01-31 23:00,ZHHH 312300Z 02002MPS 2500 BR BKN010 OVC040 02/00 Q1033 NOSIG
ZHHH,2003-02-01 00:00,ZHHH 010000Z 01004MPS 320V060 2000 BR SCT012 OVC040 02/M00 Q1033 NOSIG
ZHHH,2003-02-01 01:00,ZHHH 010100Z 36002MPS 1200 R04/1000N BR SCT012 OVC040 02/00 Q1034 NOSIG
ZHHH,2003-02-01 02:00,ZHHH 010200Z 03003MPS 000V070 1800 R04/1000N BR NSC 03/01 Q1034 NOSIG
ZHHH,2003-02-01 03:00,ZHHH 010300Z 05004MPS 2000 BR NSC 04/01 Q1034 NOSIG
ZHHH,2003-02-01 04:00,ZHHH 010400Z 07004MPS 040V110 2000 BR NSC 05/01 Q1033 NOSIG
ZHHH,2003-02-01 05:00,ZHHH 010500Z 06005MPS 030V090 5000 HZ FEW023 06/01 Q1032 NOSIG
ZHHH,2003-02-01 06:00,ZHHH 010600Z 06002MPS 4000 HZ SCT023 07/01 Q1032 NOSIG
ZHHH,2003-02-01 07:00,ZHHH 010700Z 30001MPS 3000 HZ FEW020 SCT033 BKN130 07/02 Q1032 NOSIG
ZHHH,2003-02-01 08:00,ZHHH 010800Z 22002MPS 3000 HZ FEW020 BKN030 BKN130 06/02 Q1032 NOSIG
ZHHH,2003-02-01 09:00,ZHHH 010900Z 22002MPS 2000 BR SCT030 BKN130 06/02 Q1032 NOSIG
ZHHH,2003-02-01 10:00,ZHHH 011000Z 19001MPS 1800 BR SCT020 BKN060 05/02 Q1032 NOSIG
ZHHH,2003-02-01 11:00,ZHHH 011100Z 20002MPS 2000 BR SCT020 BKN060 05/02 Q1032 NOSIG
ZHHH,2003-02-01 12:00,ZHHH 011200Z 20003MPS 1900 BR SCT020 BKN050 05/03 Q1033 NOSIG
ZHHH,2003-02-01 13:00,ZHHH 011300Z 22003MPS 2100 BR BKN040 05/02 Q1033 NOSIG
ZHHH,2003-02-01 14:00,ZHHH 011400Z 23001MPS 2400 BR SCT011 OVC040 05/02 Q1033 NOSIG
ZHHH,2003-02-01 15:00,ZHHH 011500Z 18001MPS 2100 BR SCT011 OVC040 04/02 Q1033 NOSIG
ZHHH,2003-02-01 16:00,ZHHH 011600Z AUTO 00000KT 1 1/2SM 04/02 A3050 RMK T00400020 IEM_DS3505
ZHHH,2003-02-01 18:00,ZHHH 011800Z 26001MPS 1600 BR NSC 03/02 Q1033 NOSIG
ZHHH,2003-02-01 19:00,ZHHH 011900Z 00000MPS 1300 R04/0900V1200N BR NSC 02/01 Q1033 NOSIG
ZHHH,2003-02-01 20:00,ZHHH 012000Z 00000MPS 1000 R04/1000N BR SKC 02/01 Q1033 NOSIG
ZHHH,2003-02-01 21:00,ZHHH 012100Z 22001MPS 1000 R04/1000V1400N BR NSC 02/01 Q1032 NOSIG
ZHHH,2003-02-01 22:00,ZHHH 012200Z 09001MPS 1000 R04/1200N BR NSC 02/01 Q1032 NOSIG
ZHHH,2003-02-01 23:00,ZHHH 012300Z 06002MPS 0700 R04/0900N FG NSC 01/01 Q1032 NOSIG
ZHHH,2003-02-02 00:00,ZHHH 020000Z 07002MPS 0800 R04/0900N FG NSC 01/01 Q1032 NOSIG
ZHHH,2003-02-02 01:00,ZHHH 020100Z 08002MPS 1000 R04/1000N BR SKC 02/01 Q1032 NOSIG
ZHHH,2003-02-02 02:00,ZHHH 020200Z 08001MPS 1800 BR NSC 04/02 Q1033 NOSIG
ZHHH,2003-02-02 03:00,ZHHH 020300Z 14001MPS 2100 BR NSC 06/03 Q1033 NOSIG
ZHHH,2003-02-02 04:00,ZHHH 020400Z 12002MPS 2500 BR NSC 07/03 Q1033 NOSIG
ZHHH,2003-02-02 05:00,ZHHH 020500Z 15002MPS 3000 HZ NSC 08/03 Q1031 NOSIG
ZHHH,2003-02-02 06:00,ZHHH 020600Z 10002MPS 5000 HZ NSC 08/02 Q1030 NOSIG
ZHHH,2003-02-02 07:00,ZHHH 020700Z 07002MPS 6000 NSC 08/01 Q1030 NOSIG
ZHHH,2003-02-02 08:00,ZHHH 020800Z 05001MPS 6000 NSC 08/02 Q1030 NOSIG
ZHHH,2003-02-02 09:00,ZHHH 020900Z 07001MPS 5000 HZ NSC 08/02 Q1030 NOSIG
ZHHH,2003-02-02 10:00,ZHHH 021000Z 09001MPS 5000 HZ NSC 08/02 Q1030 NOSIG
ZHHH,2003-02-02 11:00,ZHHH 021100Z 04001MPS 5000 HZ NSC 07/03 Q1029 NOSIG
ZHHH,2003-02-02 12:00,ZHHH 021200Z 34001MPS 3000 BR NSC 07/04 Q1030 NOSIG
ZHHH,2003-02-02 13:00,ZHHH 021300Z 34002MPS 2000 BR NSC 07/04 Q1031 NOSIG
ZHHH,2003-02-02 14:00,ZHHH 021400Z 34002MPS 2500 BR NSC 06/04 Q1031 NOSIG
ZHHH,2003-02-02 15:00,ZHHH 021500Z 30002MPS 2500 BR NSC 06/03 Q1031 NOSIG
ZHHH,2003-02-02 16:00,ZHHH 021600Z 33001MPS 2500 BR NSC 06/03 Q1031 NOSIG
ZHHH,2003-02-02 17:00,ZHHH 021700Z 33002MPS 2500 BR NSC 06/04 Q1031 NOSIG
ZHHH,2003-02-02 18:00,ZHHH 021800Z 36002MPS 2500 BR NSC 05/03 Q1030 NOSIG
ZHHH,2003-02-02 19:00,ZHHH 021900Z 33001MPS 2500 BR NSC 05/03 Q1030 NOSIG
ZHHH,2003-02-02 20:00,ZHHH 022000Z 33001MPS 2500 BR NSC 05/03 Q1030 NOSIG
ZHHH,2003-02-02 21:00,ZHHH 022100Z 34001MPS 2000 BR NSC 04/03 Q1030 NOSIG
ZHHH,2003-02-02 22:00,ZHHH 022200Z 36001MPS 2000 BR NSC 04/03 Q1030 NOSIG
ZHHH,2003-02-02 23:00,ZHHH 022300Z 34001MPS 1600 BR NSC 04/03 Q1030 NOSIG
ZHHH,2003-02-03 00:00,ZHHH 030000Z 32001MPS 1200 R04/1400N BR NSC 04/03 Q1030 NOSIG
ZHHH,2003-02-03 01:00,ZHHH 030100Z 00000MPS 1800 BR NSC 05/04 Q1031 NOSIG
ZHHH,2003-02-03 02:00,ZHHH 030200Z 13001MPS 2500 BR NSC 06/04 Q1030 NOSIG
ZHHH,2003-02-03 03:00,ZHHH 030300Z 29001MPS 3500 HZ NSC 08/03 Q1031 NOSIG
ZHHH,2003-02-03 04:00,ZHHH 030400Z 29002MPS 4000 HZ NSC 08/03 Q1031 NOSIG
ZHHH,2003-02-03 05:00,ZHHH 030500Z 32002MPS 4000 HZ NSC 08/04 Q1029 NOSIG
ZHHH,2003-02-03 06:00,ZHHH 030600Z 32002MPS 4000 HZ NSC 08/04 Q1028 NOSIG
ZHHH,2003-02-03 07:00,ZHHH 030700Z 29002MPS 4000 HZ NSC 08/03 Q1028 NOSIG
ZHHH,2003-02-03 08:00,ZHHH 030800Z 28002MPS 4000 HZ NSC 08/01 Q1028 NOSIG
ZHHH,2003-02-03 09:00,ZHHH 030900Z 28001MPS 5000 HZ NSC 08/01 Q1028 NOSIG
ZHHH,2003-02-03 10:00,ZHHH 031000Z 29002MPS 5000 HZ NSC 07/03 Q1029 NOSIG
ZHHH,2003-02-03 11:00,ZHHH 031100Z 28001MPS 4000 HZ NSC 07/04 Q1029 NOSIG
ZHHH,2003-02-03 12:00,ZHHH 031200Z 22002MPS 4000 BR NSC 07/04 Q1029 NOSIG
ZHHH,2003-02-03 13:00,ZHHH 031300Z 30002MPS 1800 BR SKC 06/04 Q1029 NOSIG
ZHHH,2003-02-03 14:00,ZHHH 031400Z 29002MPS 1600 BR SKC 05/04 Q1030 NOSIG
ZHHH,2003-02-03 15:00,ZHHH 031500Z 32002MPS 1600 BR SKC 04/03 Q1030 NOSIG
ZHHH,2003-02-03 16:00,ZHHH 031600Z 28001MPS 1600 BR SKC 04/03 Q1030 NOSIG
ZHHH,2003-02-03 17:00,ZHHH 031700Z 30001MPS 1000 R04/0800N BR SKC 03/03 Q1030 NOSIG
ZHHH,2003-02-03 18:00,ZHHH 031800Z 28001MPS 1000 R04/0800N BR SKC 03/03 Q1030 NOSIG
ZHHH,2003-02-03 19:00,ZHHH 031900Z 27002MPS 0500 FG SKC 03/02 Q1030 NOSIG
ZHHH,2003-02-03 20:00,ZHHH 032000Z 29001MPS 0050 FG VV003 01/01 Q1030 NOSIG
ZHHH,2003-02-03 21:00,ZHHH 032100Z 32001MPS 0050 FG VV003 01/01 Q1030 NOSIG
ZHHH,2003-02-03 22:00,ZHHH 032200Z 28002MPS 0050 FG VV003 01/01 Q1030 NOSIG
ZHHH,2003-02-03 23:00,ZHHH 032300Z 29001MPS 0050 R04/0125N FG VV003 00/00 Q1031 NOSIG
ZHHH,2003-02-04 00:00,ZHHH 040000Z 00000MPS 0050 R04/0125N FG VV003 00/00 Q1032 NOSIG
ZHHH,2003-02-04 01:00,ZHHH 040100Z 36001MPS 0050 R04/0100N FG VV003 01/01 Q1032 NOSIG
ZHHH,2003-02-04 02:00,ZHHH 040200Z 00000MPS 0200 R04/0200V0250N FG SKC 03/03 Q1032 NOSIG
ZHHH,2003-02-04 03:00,ZHHH 040300Z 12002MPS 0500 R04/0400V0700N FG SCT003 03/03 Q1033 NOSIG
ZHHH,2003-02-04 04:00,ZHHH 040400Z 15001MPS 2000 BR NSC 06/06 Q1033 NOSIG
ZHHH,2003-02-04 05:00,ZHHH 040500Z 22003MPS 150V270 2000 BR NSC 08/06 Q1032 NOSIG
ZHHH,2003-02-04 06:00,ZHHH 040600Z 29002MPS 2800 BR NSC 10/04 Q1031 NOSIG
ZHHH,2003-02-04 07:00,ZHHH 040700Z 32001MPS 8000 NSC 12/M02 Q1031 NOSIG
ZHHH,2003-02-04 08:00,ZHHH 040800Z 02003MPS 350V070 CAVOK 12/M04 Q1031 NOSIG
ZHHH,2003-02-04 09:00,ZHHH 040900Z 04004MPS 360V070 CAVOK 11/M04 Q1031 NOSIG
ZHHH,2003-02-04 10:00,ZHHH 041000Z 05002MPS CAVOK 10/M03 Q1031 NOSIG
ZHHH,2003-02-04 11:00,ZHHH 041100Z 06004MPS CAVOK 08/M02 Q1032 NOSIG
ZHHH,2003-02-04 12:00,ZHHH 041200Z 06004MPS CAVOK 07/M02 Q1032 NOSIG
ZHHH,2003-02-04 13:00,ZHHH 041300Z 06004MPS CAVOK 07/M02 Q1033 NOSIG
ZHHH,2003-02-04 14:00,ZHHH 041400Z 07004MPS CAVOK 06/M02 Q1034 NOSIG
ZHHH,2003-02-04 15:00,ZHHH 041500Z 07003MPS CAVOK 05/M02 Q1034 NOSIG
ZHHH,2003-02-04 16:00,ZHHH 041600Z 06003MPS CAVOK 05/M03 Q1034 NOSIG
ZHHH,2003-02-04 17:00,ZHHH 041700Z 06003MPS CAVOK 04/M03 Q1034 NOSIG
ZHHH,2003-02-04 18:00,ZHHH 041800Z 01001MPS CAVOK 03/M02 Q1034 NOSIG
ZHHH,2003-02-04 19:00,ZHHH 041900Z 01002MPS CAVOK 03/M02 Q1034 NOSIG
ZHHH,2003-02-04 20:00,ZHHH 042000Z 02002MPS CAVOK 02/M02 Q1034 NOSIG
ZHHH,2003-02-04 21:00,ZHHH 042100Z 05002MPS CAVOK 02/M02 Q1034 NOSIG
ZHHH,2003-02-04 22:00,ZHHH 042200Z 01002MPS CAVOK 02/M02 Q1034 NOSIG
ZHHH,2003-02-04 23:00,ZHHH 042300Z 03001MPS 2500 BR SKC 02/M02 Q1035 NOSIG
ZHHH,2003-02-05 00:00,ZHHH 050000Z 19001MPS 2500 BR SKC 01/M02 Q1036 NOSIG
ZHHH,2003-02-05 01:00,ZHHH 050100Z 35001MPS 2500 BR NSC 03/M01 Q1036 NOSIG
ZHHH,2003-02-05 02:00,ZHHH 050200Z 06002MPS 3500 HZ NSC 06/M01 Q1036 NOSIG
ZHHH,2003-02-05 03:00,ZHHH 050300Z 06002MPS 5000 HZ NSC 07/M02 Q1036 NOSIG
ZHHH,2003-02-05 04:00,ZHHH 050400Z 13002MPS 6000 NSC 09/M04 Q1036 NOSIG
ZHHH,2003-02-05 05:00,ZHHH 050500Z 14002MPS 6000 SKC 10/M02 Q1035 NOSIG
ZHHH,2003-02-05 06:00,ZHHH 050600Z 12002MPS CAVOK 10/M03 Q1034 NOSIG
ZHHH,2003-02-05 07:00,ZHHH 050700Z 11002MPS CAVOK 10/M05 Q1033 NOSIG
ZHHH,2003-02-05 08:00,ZHHH 050800Z 14002MPS CAVOK 10/M06 Q1032 NOSIG
ZHHH,2003-02-05 09:00,ZHHH 050900Z 15001MPS CAVOK 10/M05 Q1032 NOSIG
ZHHH,2003-02-05 10:00,ZHHH 051000Z 00000MPS CAVOK 09/M07 Q1032 NOSIG
ZHHH,2003-02-05 11:00,ZHHH 051100Z 00000MPS CAVOK 08/M06 Q1032 NOSIG
ZHHH,2003-02-05 12:00,ZHHH 051200Z 00000MPS CAVOK 08/M05 Q1032 NOSIG
ZHHH,2003-02-05 13:00,ZHHH 051300Z 14001MPS CAVOK 07/M05 Q1032 NOSIG
ZHHH,2003-02-05 14:00,ZHHH 051400Z 07002MPS CAVOK 06/M03 Q1032 NOSIG
ZHHH,2003-02-05 15:00,ZHHH 051500Z 12001MPS CAVOK 06/M04 Q1032 NOSIG
ZHHH,2003-02-05 16:00,ZHHH 051600Z 07003MPS CAVOK 05/M02 Q1032 NOSIG
ZHHH,2003-02-05 17:00,ZHHH 051700Z 06003MPS CAVOK 04/M01 Q1032 NOSIG
ZHHH,2003-02-05 18:00,ZHHH 051800Z 11002MPS CAVOK 04/M00 Q1031 NOSIG
ZHHH,2003-02-05 19:00,ZHHH 051900Z 12003MPS CAVOK 04/01 Q1030 NOSIG
ZHHH,2003-02-05 20:00,ZHHH 052000Z 11003MPS CAVOK 03/01 Q1029 NOSIG
ZHHH,2003-02-05 21:00,ZHHH 052100Z 11003MPS CAVOK 03/00 Q1029 NOSIG
ZHHH,2003-02-05 22:00,ZHHH 052200Z 11002MPS CAVOK 03/M01 Q1029 NOSIG
ZHHH,2003-02-05 23:00,ZHHH 052300Z 11003MPS CAVOK 02/M00 Q1029 NOSIG
ZHHH,2003-02-06 00:00,ZHHH 060000Z 11003MPS 6000 SKC 02/M00 Q1029 NOSIG
ZHHH,2003-02-06 01:00,ZHHH 060100Z 11003MPS 6000 SKC 03/00 Q1030 NOSIG
ZHHH,2003-02-06 02:00,ZHHH 060200Z 12003MPS 090V150 CAVOK 06/M00 Q1029 NOSIG
ZHHH,2003-02-06 03:00,ZHHH 060300Z 13004MPS 100V160 CAVOK 08/M01 Q1029 NOSIG
ZHHH,2003-02-06 04:00,ZHHH 060400Z 12004MPS 090V160 CAVOK 09/M01 Q1028 NOSIG
ZHHH,2003-02-06 05:00,ZHHH 060500Z 16003MPS 110V200 CAVOK 11/M03 Q1026 NOSIG
ZHHH,2003-02-06 06:00,ZHHH 060600Z 22003MPS 180V270 CAVOK 12/M02 Q1025 NOSIG
ZHHH,2003-02-06 07:00,ZHHH 060700Z 19003MPS 110V240 CAVOK 12/M01 Q1024 NOSIG
ZHHH,2003-02-06 08:00,ZHHH 060800Z 19003MPS 130V230 CAVOK 12/M00 Q1023 NOSIG
ZHHH,2003-02-06 09:00,ZHHH 060900Z AUTO 22002KT 9SM 12/01 RMK SLP235 T01220010 57016 IEM_DS3505
ZHHH,2003-02-06 10:00,ZHHH 061000Z 19001MPS CAVOK 11/01 Q1023 NOSIG
ZHHH,2003-02-06 11:00,ZHHH 061100Z 14002MPS CAVOK 10/01 Q1023 NOSIG
ZHHH,2003-02-06 12:00,ZHHH 061200Z 16002MPS CAVOK 10/03 Q1023 NOSIG
ZHHH,2003-02-06 13:00,ZHHH 061300Z 19002MPS CAVOK 09/03 Q1023 NOSIG
ZHHH,2003-02-06 14:00,ZHHH 061400Z 19001MPS CAVOK 09/03 Q1022 NOSIG
ZHHH,2003-02-06 15:00,ZHHH 061500Z 17001MPS CAVOK 08/03 Q1022 NOSIG
ZHHH,2003-02-06 16:00,ZHHH 061600Z 14001MPS CAVOK 08/03 Q1022 NOSIG
ZHHH,2003-02-06 17:00,ZHHH 061700Z 14001MPS CAVOK 08/03 Q1021 NOSIG
ZHHH,2003-02-06 18:00,ZHHH 061800Z 00000MPS CAVOK 08/02 Q1020 NOSIG
ZHHH,2003-02-06 19:00,ZHHH 061900Z 12002MPS CAVOK 07/04 Q1019 NOSIG
ZHHH,2003-02-06 20:00,ZHHH 062000Z 14002MPS CAVOK 07/05 Q1018 NOSIG
ZHHH,2003-02-06 21:00,ZHHH 062100Z 14003MPS CAVOK 08/04 Q1017 NOSIG
ZHHH,2003-02-06 22:00,ZHHH 062200Z AUTO 15004KT 6SM 08/03 A3003 RMK T00800030 IEM_DS3505
ZHHH,2003-02-06 23:00,ZHHH 062300Z 15002MPS 5000 BR NSC 07/03 Q1017 NOSIG
ZHHH,2003-02-07 00:00,ZHHH 070000Z 13004MPS 5000 BR NSC 08/03 Q1017 NOSIG
ZHHH,2003-02-07 01:00,ZHHH 070100Z 14003MPS 090V150 2500 BR NSC 08/03 Q1017 NOSIG
ZHHH,2003-02-07 02:00,ZHHH 070200Z 13003MPS 3000 BR NSC 08/04 Q1017 NOSIG
ZHHH,2003-02-07 03:00,ZHHH 070300Z 13003MPS 090V150 3000 BR NSC 09/05 Q1017 NOSIG
ZHHH,2003-02-07 04:00,ZHHH 070400Z 12002MPS 3000 BR NSC 09/04 Q1016 NOSIG
ZHHH,2003-02-07 05:00,ZHHH 070500Z 12002MPS 4000 BR NSC 09/05 Q1015 NOSIG
ZHHH,2003-02-07 06:00,ZHHH 070600Z 13001MPS 2000 -RA BR SCT008 OVC060 08/06 Q1014 NOSIG
ZHHH,2003-02-07 07:00,ZHHH 070700Z 15002MPS 2000 -RA BR FEW004 SCT007 OVC050 08/06 Q1014 NOSIG
ZHHH,2003-02-07 08:00,ZHHH 070800Z 13003MPS 2000 BR SCT010 OVC050 08/06 Q1013 NOSIG
ZHHH,2003-02-07 09:00,ZHHH 070900Z 13003MPS 2000 BR SCT010 OVC050 08/07 Q1013 NOSIG
ZHHH,2003-02-07 10:00,ZHHH 071000Z 12005MPS 1800 BR SCT010 OVC050 08/06 Q1012 NOSIG
ZHHH,2003-02-07 11:00,ZHHH 071100Z 13003MPS 070V150 1800 BR FEW009 OVC040 08/06 Q1013 NOSIG
ZHHH,2003-02-07 12:00,ZHHH 071200Z 11003MPS 2500 BR SKC 07/06 Q1013 NOSIG
ZHHH,2003-02-07 13:00,ZHHH 071300Z 11002MPS 3000 BR SKC 07/06 Q1014 NOSIG
ZHHH,2003-02-07 14:00,ZHHH 071400Z 13003MPS 1600 BR SKC 07/06 Q1014 NOSIG
ZHHH,2003-02-07 15:00,ZHHH 071500Z 10002MPS 1200 R04/1400 BR SKC 06/06 Q1014 NOSIG
ZHHH,2003-02-07 16:00,ZHHH 071600Z 13003MPS 1000 R04/1200D BR SKC 06/06 Q1014 NOSIG
ZHHH,2003-02-07 17:00,ZHHH 071700Z 12001MPS 1200 R04/1000D BR SKC 06/06 Q1014 NOSIG
ZHHH,2003-02-07 18:00,ZHHH 071800Z 12001MPS 0700 R04/0700D FG SKC 06/06 Q1014 NOSIG
ZHHH,2003-02-07 19:00,ZHHH 071900Z 12002MPS 0600 R04/0400D FG SKC 05/05 Q1014 NOSIG
ZHHH,2003-02-07 20:00,ZHHH 072000Z 13001MPS 0300 R04/0150V0350N FG SKC 05/05 Q1014 NOSIG
ZHHH,2003-02-07 21:00,ZHHH 072100Z 12002MPS 0150 R04/0150N FG SKC 05/05 Q1014 NOSIG
ZHHH,2003-02-07 22:00,ZHHH 072200Z 13002MPS 0150 R04/0150N FG SKC 04/04 Q1014 NOSIG
ZHHH,2003-02-07 23:00,ZHHH 072300Z 12002MPS 0100 R04/0150N FG SKC 04/04 Q1015 NOSIG
ZHHH,2003-02-08 00:00,ZHHH 080000Z 12004MPS 0100 R04/0200V0250N FG SKC 04/04 Q1015 NOSIG
ZHHH,2003-02-08 01:00,ZHHH 080100Z 11004MPS 0300 R04/0150V0800N FG SKC 05/05 Q1016 NOSIG
ZHHH,2003-02-08 02:00,ZHHH 080200Z 13002MPS 2000 BR SKC 07/07 Q1017 NOSIG
ZHHH,2003-02-08 03:00,ZHHH 080300Z 12003MPS 080V150 2500 BR SKC 09/09 Q1017 NOSIG
ZHHH,2003-02-08 04:00,ZHHH 080400Z 12003MPS 080V150 2500 BR SKC 11/09 Q1016 NOSIG
ZHHH,2003-02-08 05:00,ZHHH 080500Z 13002MPS 3500 BR SKC 14/10 Q1015 NOSIG
ZHHH,2003-02-08 06:00,ZHHH 080600Z 12003MPS 060V160 4000 HZ SKC 15/09 Q1013 NOSIG
ZHHH,2003-02-08 07:00,ZHHH 080700Z 12004MPS 090V150 4000 HZ SKC 16/09 Q1013 NOSIG
ZHHH,2003-02-08 08:00,ZHHH 080800Z 11004MPS 080V140 4000 HZ SKC 16/09 Q1012 NOSIG
ZHHH,2003-02-08 09:00,ZHHH 080900Z 12003MPS 090V160 4000 HZ SKC 16/10 Q1012 NOSIG
ZHHH,2003-02-08 10:00,ZHHH 081000Z 11003MPS 080V140 7000 SKC 14/10 Q1012 NOSIG
ZHHH,2003-02-08 11:00,ZHHH 081100Z 11003MPS 7000 SKC 13/10 Q1012 NOSIG
ZHHH,2003-02-08 12:00,ZHHH 081200Z 11005MPS 7000 SKC 13/10 Q1012 NOSIG
ZHHH,2003-02-08 13:00,ZHHH 081300Z 11006MPS 8000 SKC 13/10 Q1012 NOSIG
ZHHH,2003-02-08 14:00,ZHHH 081400Z 11005MPS 6000 SKC 12/10 Q1012 NOSIG
ZHHH,2003-02-08 15:00,ZHHH 081500Z 11005MPS 4000 BR SKC 12/10 Q1012 NOSIG
ZHHH,2003-02-08 16:00,ZHHH 081600Z 12007MPS 4000 BR SKC 13/10 Q1012 NOSIG
ZHHH,2003-02-08 17:00,ZHHH 081700Z 12006MPS 4000 BR SKC 12/10 Q1012 NOSIG
ZHHH,2003-02-08 18:00,ZHHH 081800Z 11006MPS 4000 BR NSC 12/10 Q1012 NOSIG
ZHHH,2003-02-08 19:00,ZHHH 081900Z 10005MPS 3500 BR NSC 11/09 Q1012 NOSIG
ZHHH,2003-02-08 20:00,ZHHH 082000Z 11006MPS 3500 BR NSC 12/10 Q1011 NOSIG
ZHHH,2003-02-08 21:00,ZHHH 082100Z 12007MPS 3500 BR NSC 12/10 Q1010 NOSIG
ZHHH,2003-02-08 22:00,ZHHH 082200Z 10006MPS 3000 BR NSC 11/10 Q1010 NOSIG
ZHHH,2003-02-08 23:00,ZHHH 082300Z 10005MPS 070V140 4000 BR NSC 11/10 Q1011 NOSIG
ZHHH,2003-02-09 00:00,ZHHH 090000Z 07003MPS 3000 BR NSC 11/10 Q1011 NOSIG
ZHHH,2003-02-09 01:00,ZHHH 090100Z 10005MPS 4000 BR SCT020 OVC050 12/10 Q1012 NOSIG
ZHHH,2003-02-09 02:00,ZHHH 090200Z 11006MPS 3500 BR -RA SCT033 OVC050 12/11 Q1012 NOSIG
ZHHH,2003-02-09 03:00,ZHHH 090300Z 11005MPS 2100 BR -RA SCT020 OVC050 13/11 Q1012 NOSIG
ZHHH,2003-02-09 04:00,ZHHH 090400Z 32001MPS 2100 BR SCT020 OVC050 13/12 Q1012 NOSIG
ZHHH,2003-02-09 05:00,ZHHH 090500Z 03002MPS 2000 BR SCT020 OVC050 13/12 Q1012 NOSIG
ZHHH,2003-02-09 06:00,ZHHH 090600Z 05004MPS 2300 BR SCT020 OVC050 13/12 Q1011 NOSIG
ZHHH,2003-02-09 07:00,ZHHH 090700Z 04004MPS 010V070 3000 BR SCT020 OVC050 12/11 Q1011 NOSIG
ZHHH,2003-02-09 08:00,ZHHH 090800Z 04005MPS 000V070 4000 -RA BR SCT020 OVC050 10/09 Q1012 NOSIG
ZHHH,2003-02-09 09:00,ZHHH 090900Z 03004MPS 000V060 5000 BR BKN020 OVC050 09/08 Q1013 NOSIG
ZHHH,2003-02-09 10:00,ZHHH 091000Z 04004MPS 360V070 9999 BKN020 OVC050 09/08 Q1014 NOSIG
ZHHH,2003-02-09 11:00,ZHHH 091100Z 04005MPS 010V070 9999 BKN020 OVC050 08/07 Q1015 NOSIG
ZHHH,2003-02-09 12:00,ZHHH 091200Z 03005G10MPS 360V060 6000 -RA FEW010 SCT020 OVC050 08/07 Q1016 NOSIG
ZHHH,2003-02-09 13:00,ZHHH 091300Z 03007MPS 000V060 6000 FEW010 SCT020 OVC050 08/06 Q1017 NOSIG
ZHHH,2003-02-09 14:00,ZHHH 091400Z 04007MPS 000V070 3000 -RA BR SCT010 SCT020 OVC040 07/06 Q1018 RERA NOSIG
ZHHH,2003-02-09 15:00,ZHHH 091500Z 03006MPS 350V060 2500 RA BR SCT010 SCT015 OVC040 07/06 Q1019 NOSIG
ZHHH,2003-02-09 16:00,ZHHH 091600Z 02006MPS 350V060 2500 -RA BR SCT010 OVC040 05/05 Q1020 RERA NOSIG
ZHHH,2003-02-09 17:00,ZHHH 091700Z 02006MPS 350V060 5000 BR SCT010 OVC040 05/03 Q1020 NOSIG
ZHHH,2003-02-09 18:00,ZHHH 091800Z 03007MPS 350V050 5000 BR SCT010 OVC040 04/02 Q1021 NOSIG
ZHHH,2003-02-09 19:00,ZHHH 091900Z 02007MPS 350V050 9999 SCT010 OVC040 03/01 Q1022 NOSIG
ZHHH,2003-02-09 20:00,ZHHH 092000Z 02007MPS 9999 SCT010 OVC040 02/00 Q1022 NOSIG
ZHHH,2003-02-09 21:00,ZHHH 092100Z AUTO 04006KT 9SM 03/00 RMK 70011 SLP235 T00280002 52019 IEM_DS3505
ZHHH,2003-02-09 22:00,ZHHH 092200Z 02007MPS 340V050 9999 BKN010 OVC040 01/M01 Q1024 NOSIG
ZHHH,2003-02-09 23:00,ZHHH 092300Z 03008MPS 000V060 9999 SCT010 OVC050 01/M01 Q1023 NOSIG
ZHHH,2003-02-10 00:00,ZHHH 100000Z 03007MPS 000V060 9999 FEW020 OVC050 01/M01 Q1024 NOSIG
ZHHH,2003-02-10 01:00,ZHHH 100100Z 04008MPS 360V070 9999 FEW010 BKN020 OVC050 01/M01 Q1024 NOSIG
ZHHH,2003-02-10 02:00,ZHHH 100200Z 03007MPS 4000 -RA SCT010 BKN015 OVC040 01/M00 Q1025 NOSIG
ZHHH,2003-02-10 03:00,ZHHH 100300Z 02006MPS 340V060 5000 BR BKN010 OVC030 01/M00 Q1025 NOSIG
ZHHH,2003-02-10 04:00,ZHHH 100400Z 02005MPS 340V060 1600 R04/1400D -RA BR FEW004 SCT010 OVC030 00/M01 Q1026 NOSIG
ZHHH,2003-02-10 05:00,ZHHH 100500Z 03006MPS 1800 -RASN FEW003 SCT009 OVC033 M00/M01 Q1025 NOSIG
ZHHH,2003-02-10 06:00,ZHHH 100600Z 36004MPS 330V050 5000 -RA SCT007 SCT011 OVC040 00/M00 Q1024 NOSIG
ZHHH,2003-02-10 07:00,ZHHH 100700Z 01004MPS 320V050 5000 RA SCT007 SCT011 OVC033 00/M01 Q1025 NOSIG
ZHHH,2003-02-10 08:00,ZHHH 100800Z 36004MPS 330V040 9999 -RA SCT010 SCT016 OVC050 00/M01 Q1025 NOSIG
ZHHH,2003-02-10 09:00,ZHHH 100900Z 03006MPS 360V060 9999 -RA FEW012 SCT020 OVC050 M01/M02 Q1026 NOSIG
ZHHH,2003-02-10 10:00,ZHHH 101000Z 03005MPS 340V050 6000 -RA SCT005 BKN010 OVC030 M01/M03 Q1026 NOSIG
ZHHH,2003-02-10 11:00,ZHHH 101100Z 02004MPS 330V060 5000 -RA SCT005 BKN010 OVC030 M01/M03 Q1027 NOSIG
ZHHH,2003-02-10 12:00,ZHHH 101200Z 02003MPS 360V060 4000 -RA SCT005 BKN010 OVC025 M01/M02 Q1028 NOSIG
ZHHH,2003-02-10 13:00,ZHHH 101300Z 01002MPS 4000 -RA SCT005 BKN010 OVC025 M02/M03 Q1029 REPL NOSIG
ZHHH,2003-02-10 14:00,ZHHH 101400Z 36002MPS 4000 BR BKN015 OVC033 M02/M03 Q1030 NOSIG
ZHHH,2003-02-10 15:00,ZHHH 101500Z 01002MPS 6000 -SN BKN012 OVC033 M02/M03 Q1030 NOSIG
ZHHH,2003-02-10 16:00,ZHHH 101600Z 35003MPS 310V020 9999 SCT005 OVC040 M02/M03 Q1031 NOSIG
ZHHH,2003-02-10 17:00,ZHHH 101700Z 01002MPS 9999 SCT015 OVC040 M02/M03 Q1031 NOSIG
ZHHH,2003-02-10 18:00,ZHHH 101800Z 02002MPS 9999 OVC040 M02/M04 Q1031 NOSIG
ZHHH,2003-02-10 19:00,ZHHH 101900Z 02002MPS 9999 OVC040 M02/M04 Q1030 NOSIG
ZHHH,2003-02-10 20:00,ZHHH 102000Z 03003MPS 9999 OVC033 M02/M04 Q1029 NOSIG
ZHHH,2003-02-10 21:00,ZHHH 102100Z 03003MPS 000V070 9999 OVC033 M03/M04 Q1029 NOSIG
ZHHH,2003-02-10 22:00,ZHHH 102200Z 03003MPS 360V060 9999 FEW011 OVC040 M03/M04 Q1030 NOSIG
ZHHH,2003-02-10 23:00,ZHHH 102300Z 02002MPS 9999 SCT011 OVC040 M02/M04 Q1032 NOSIG
ZHHH,2003-02-11 00:00,ZHHH 110000Z 03002MPS 9999 SCT020 OVC050 M02/M04 Q1032 NOSIG
ZHHH,2003-02-11 01:00,ZHHH 110100Z 02004MPS 360V060 3000 BR SCT020 OVC060 M03/M04 Q1033 NOSIG
ZHHH,2003-02-11 02:00,ZHHH 110200Z 02003MPS 360V060 1100 R04/1000D SN BR SCT010 OVC050 M03/M03 Q1034 NOSIG
ZHHH,2003-02-11 03:00,ZHHH 110300Z 02002MPS 2000 -SN BR SCT009 OVC050 M02/M03 Q1033 NOSIG
ZHHH,2003-02-11 04:00,ZHHH 110400Z 01002MPS 2500 -SN BR SCT010 OVC050 M02/M02 Q1033 NOSIG
ZHHH,2003-02-11 05:00,ZHHH 110500Z 33002MPS 1600 R04/1000N -SN BR SCT010 OVC050 M01/M02 Q1033 NOSIG
ZHHH,2003-02-11 06:00,ZHHH 110600Z 36002MPS 2500 -SN BR SCT010 OVC050 M01/M01 Q1031 NOSIG
ZHHH,2003-02-11 07:00,ZHHH 110700Z 03003MPS 360V060 3500 -SN BR SCT010 OVC050 M00/M01 Q1031 NOSIG
ZHHH,2003-02-11 08:00,ZHHH 110800Z 05003MPS 6000 BKN020 OVC050 M00/M03 Q1031 NOSIG
ZHHH,2003-02-11 09:00,ZHHH 110900Z 04003MPS 360V070 6000 SCT033 OVC066 M00/M03 Q1031 NOSIG
ZHHH,2003-02-11 10:00,ZHHH 111000Z 03002MPS 5000 BR SCT033 OVC070 M01/M03 Q1032 NOSIG
ZHHH,2003-02-11 11:00,ZHHH 111100Z 03003MPS 360V070 6000 SCT030 OVC060 M01/M04 Q1032 NOSIG
ZHHH,2003-02-11 12:00,ZHHH 111200Z 03002MPS 6000 NSC M01/M05 Q1033 NOSIG
ZHHH,2003-02-11 13:00,ZHHH 111300Z 03003MPS 350V060 7000 NSC M01/M05 Q1033 NOSIG
ZHHH,2003-02-11 14:00,ZHHH 111400Z 03003MPS 360V070 7000 NSC M01/M05 Q1034 NOSIG
ZHHH,2003-02-11 15:00,ZHHH 111500Z 03002MPS 7000 SCT013 OVC050 M02/M05 Q1033 NOSIG
ZHHH,2003-02-11 16:00,ZHHH 111600Z 03002MPS 6000 SCT013 OVC050 M02/M05 Q1034 NOSIG
ZHHH,2003-02-11 17:00,ZHHH 111700Z 03001MPS 6000 NSC M02/M05 Q1033 NOSIG
ZHHH,2003-02-11 18:00,ZHHH 111800Z 03001MPS CAVOK M02/M05 Q1033 NOSIG
ZHHH,2003-02-11 19:00,ZHHH 111900Z 02001MPS CAVOK M02/M05 Q1032 NOSIG
ZHHH,2003-02-11 20:00,ZHHH 112000Z 02001MPS CAVOK M02/M05 Q1032 NOSIG
ZHHH,2003-02-11 21:00,ZHHH 112100Z 02001MPS CAVOK M02/M05 Q1031 NOSIG
ZHHH,2003-02-11 22:00,ZHHH 112200Z 04001MPS CAVOK M02/M05 Q1031 NOSIG
ZHHH,2003-02-11 23:00,ZHHH 112300Z 03001MPS CAVOK M02/M05 Q1032 NOSIG
ZHHH,2003-02-12 00:00,ZHHH 120000Z 06002MPS CAVOK M02/M05 Q1032 NOSIG
ZHHH,2003-02-12 01:00,ZHHH 120100Z 04001MPS 5000 BR NSC M01/M05 Q1034 NOSIG
ZHHH,2003-02-12 02:00,ZHHH 120200Z 05002MPS CAVOK M01/M05 Q1034 NOSIG
ZHHH,2003-02-12 03:00,ZHHH 120300Z 07001MPS CAVOK 00/M04 Q1034 NOSIG
ZHHH,2003-02-12 04:00,ZHHH 120400Z 32001MPS CAVOK 01/M04 Q1033 NOSIG
ZHHH,2003-02-12 05:00,ZHHH 120500Z 25002MPS CAVOK 03/M02 Q1032 NOSIG
ZHHH,2003-02-12 06:00,ZHHH 120600Z 33001MPS CAVOK 03/M04 Q1031 NOSIG
ZHHH,2003-02-12 07:00,ZHHH 120700Z 26002MPS CAVOK 04/M03 Q1030 NOSIG
ZHHH,2003-02-12 08:00,ZHHH 120800Z 24002MPS CAVOK 04/M02 Q1030 NOSIG
ZHHH,2003-02-12 09:00,ZHHH 120900Z 25002MPS CAVOK 04/M02 Q1029 NOSIG
ZHHH,2003-02-12 10:00,ZHHH 121000Z 20002MPS CAVOK 03/M03 Q1029 NOSIG
ZHHH,2003-02-12 11:00,ZHHH 121100Z 21001MPS CAVOK 02/M03 Q1029 NOSIG
ZHHH,2003-02-12 12:00,ZHHH 121200Z 24001MPS CAVOK 02/M01 Q1029 NOSIG
ZHHH,2003-02-12 13:00,ZHHH 121300Z 27001MPS CAVOK 01/M02 Q1030 NOSIG
ZHHH,2003-02-12 14:00,ZHHH 121400Z 24001MPS CAVOK 01/M02 Q1030 NOSIG
ZHHH,2003-02-12 15:00,ZHHH 121500Z 20001MPS 5000 BR SKC 01/M02 Q1030 NOSIG
ZHHH,2003-02-12 16:00,ZHHH 121600Z 22002MPS 4000 BR SKC 01/M01 Q1029 NOSIG
ZHHH,2003-02-12 17:00,ZHHH 121700Z 22001MPS 4000 BR SKC 01/M01 Q1029 NOSIG
ZHHH,2003-02-12 18:00,ZHHH 121800Z 13001MPS 2000 BR SKC 00/M01 Q1028 NOSIG
ZHHH,2003-02-12 19:00,ZHHH 121900Z 00000MPS 2000 BR SKC 00/M01 Q1028 NOSIG
ZHHH,2003-02-12 20:00,ZHHH 122000Z 00000MPS 1500 BR SKC M00/M01 Q1028 NOSIG
ZHHH,2003-02-12 21:00,ZHHH 122100Z 09001MPS 1000 R04/P1500 BR SKC M00/M01 Q1027 NOSIG
ZHHH,2003-02-12 22:00,ZHHH 122200Z 00000MPS 0800 R04/1400N FZFG SKC M00/M01 Q1028 NOSIG
ZHHH,2003-02-12 23:00,ZHHH 122300Z 00000MPS 0800 R04/1200D FG FEW010 OVC070 00/M00 Q1028 NOSIG
ZHHH,2003-02-13 00:00,ZHHH 130000Z 17001MPS 0700 R04/0700N FG NSC 00/M00 Q1028 NOSIG
ZHHH,2003-02-13 01:00,ZHHH 130100Z 33001MPS 0800 R04/0800N FG NSC 01/01 Q1028 NOSIG
ZHHH,2003-02-13 02:00,ZHHH 130200Z 32001MPS 1000 R04/1200D BR NSC 01/00 Q1029 NOSIG
ZHHH,2003-02-13 03:00,ZHHH 130300Z 03001MPS 1500 BR NSC 02/00 Q1029 NOSIG
ZHHH,2003-02-13 04:00,ZHHH 130400Z 04002MPS 1500 BR SCT040 OVC060 03/01 Q1027 NOSIG
ZHHH,2003-02-13 05:00,ZHHH 130500Z 00000MPS 4000 BR SCT033 OVC060 03/01 Q1027 NOSIG
ZHHH,2003-02-13 06:00,ZHHH 130600Z 36001MPS 2500 BR SCT033 OVC060 03/01 Q1025 NOSIG
ZHHH,2003-02-13 07:00,ZHHH 130700Z 34002MPS 2500 BR SCT033 OVC060 03/01 Q1025 NOSIG
ZHHH,2003-02-13 08:00,ZHHH 130800Z 08002MPS 4000 BR SCT040 OVC060 03/01 Q1025 NOSIG
ZHHH,2003-02-13 09:00,ZHHH 130900Z 06002MPS 1800 -RA BR SCT020 OVC050 03/01 Q1025 NOSIG
ZHHH,2003-02-13 11:00,ZHHH 131100Z 04002MPS 1500 RA BR SCT010 OVC033 02/02 Q1025 NOSIG
ZHHH,2003-02-13 12:00,ZHHH 131200Z 08001MPS 1500 RA BR SCT010 OVC033 02/02 Q1025 NOSIG
ZHHH,2003-02-13 13:00,ZHHH 131300Z 04001MPS 1300 R04/P1500 RA BR BKN010 OVC033 02/02 Q1026 NOSIG
ZHHH,2003-02-13 14:00,ZHHH 131400Z 04002MPS 1000 R04/1200D -RA BR BKN010 OVC020 02/02 Q1026 RERA NOSIG
ZHHH,2003-02-13 15:00,ZHHH 131500Z 02002MPS 0700 R04/0900D RA FG BKN004 OVC020 02/02 Q1027 NOSIG
ZHHH,2003-02-13 16:00,ZHHH 131600Z 04002MPS 0600 R04/1000N RA FG BKN003 OVC020 02/02 Q1026 NOSIG
ZHHH,2003-02-13 17:00,ZHHH 131700Z 06003MPS 0600 R04/1400N -RA FG BKN003 OVC020 02/02 Q1026 NOSIG
ZHHH,2003-02-13 18:00,ZHHH 131800Z 09002MPS 0800 R04/P1500 -RA FG BKN003 OVC020 02/02 Q1025 NOSIG
ZHHH,2003-02-13 19:00,ZHHH 131900Z 05001MPS 1000 R04/1400N BR BKN010 OVC033 02/02 Q1025 RERA NOSIG
ZHHH,2003-02-13 20:00,ZHHH 132000Z 05001MPS 1000 R04/1400N BR BKN010 OVC033 02/02 Q1024 NOSIG
ZHHH,2003-02-13 21:00,ZHHH 132100Z 06001MPS 1000 R04/1200N BR BKN010 OVC040 02/02 Q1024 NOSIG
ZHHH,2003-02-13 22:00,ZHHH 132200Z 04001MPS 0800 R04/1000N FG -RA SCT005 BKN010 OVC030 02/02 Q1023 NOSIG
ZHHH,2003-02-13 23:00,ZHHH 132300Z 03001MPS 0800 R04/1200 FG SCT012 OVC030 02/02 Q1024 NOSIG
ZHHH,2003-02-14 00:00,ZHHH 140000Z 04002MPS 0800 R04/0900N FG -RA BKN008 OVC030 02/02 Q1024 NOSIG
ZHHH,2003-02-14 01:00,ZHHH 140100Z 36001MPS 0700 R04/0700D FG -RA SCT004 SCT010 OVC030 02/02 Q1025 NOSIG
ZHHH,2003-02-14 02:00,ZHHH 140200Z 34001MPS 0700 R04/0700N FG -RA SCT004 SCT010 OVC030 03/02 Q1025 NOSIG
ZHHH,2003-02-14 03:00,ZHHH 140300Z 00000MPS 1000 R04/1000N -RA BR SCT005 SCT009 OVC040 03/03 Q1024 NOSIG
ZHHH,2003-02-14 04:00,ZHHH 140400Z 01001MPS 1000 R04/1000N -RA BR SCT005 OVC033 03/03 Q1024 NOSIG
ZHHH,2003-02-14 05:00,ZHHH 140500Z 31001MPS 1000 R04/1000N -RA BR SCT005 OVC033 03/03 Q1023 NOSIG
ZHHH,2003-02-14 06:00,ZHHH 140600Z 31002MPS 0700 R04/0600N -RA FG SCT005 OVC033 04/04 Q1022 NOSIG
ZHHH,2003-02-14 07:00,ZHHH 140700Z 32002MPS 0600 R04/0600N FG -RA SCT005 OVC033 04/04 Q1022 NOSIG
ZHHH,2003-02-14 08:00,ZHHH 140800Z 32002MPS 0700 R04/0700N FG -RA SCT005 OVC033 04/04 Q1022 NOSIG
ZHHH,2003-02-14 09:00,ZHHH 140900Z 35002MPS 0900 R04/0900V1200D FG SCT005 OVC033 04/04 Q1021 NOSIG
ZHHH,2003-02-14 10:00,ZHHH 141000Z 36001MPS 1200 R04/1200N BR SCT006 OVC040 04/04 Q1021 NOSIG
ZHHH,2003-02-14 11:00,ZHHH 141100Z 35001MPS 1000 R04/1400N BR SCT006 OVC040 04/04 Q1021 NOSIG
ZHHH,2003-02-14 12:00,ZHHH 141200Z 33002MPS 1000 R04/1400U BR FEW009 OVC040 04/04 Q1022 NOSIG
ZHHH,2003-02-14 13:00,ZHHH 141300Z 33002MPS 0800 R04/1400N FG FEW010 OVC050 04/04 Q1023 NOSIG
ZHHH,2003-02-14 14:00,ZHHH 141400Z 34004MPS 290V010 0900 R04/1400N FG -RA SCT007 OVC040 04/04 Q1023 NOSIG
ZHHH,2003-02-14 15:00,ZHHH 141500Z 33002MPS 0900 R04/1400N FG -RA SCT007 OVC040 03/03 Q1023 NOSIG
ZHHH,2003-02-14 16:00,ZHHH 141600Z 35003MPS 320V030 0700 R04/1400U FG SCT006 OVC040 03/03 Q1022 NOSIG
ZHHH,2003-02-14 17:00,ZHHH 141700Z 36003MPS 320V020 0700 R04/1200U FG -RA SCT006 OVC040 03/03 Q1022 NOSIG
ZHHH,2003-02-14 18:00,ZHHH 141800Z 33003MPS 280V020 0700 R04/1400U FG -RA SCT004 OVC033 03/03 Q1023 NOSIG
ZHHH,2003-02-14 19:00,ZHHH 141900Z 34001MPS 0700 R04/1200D FG -RA SCT004 OVC033 03/03 Q1022 NOSIG
ZHHH,2003-02-14 20:00,ZHHH 142000Z 34003MPS 310V010 0700 R04/1200D FG OVC033 03/03 Q1021 NOSIG
ZHHH,2003-02-14 21:00,ZHHH 142100Z 33002MPS 0700 R04/1300D FG OVC033 03/03 Q1022 NOSIG
ZHHH,2003-02-14 22:00,ZHHH 142200Z 35002MPS 0700 R04/1200N FG OVC033 03/03 Q1021 NOSIG
ZHHH,2003-02-14 23:00,ZHHH 142300Z 35002MPS 0900 R04/1400N FG OVC040 03/03 Q1021 NOSIG
ZHHH,2003-02-15 00:00,ZHHH 150000Z 35001MPS 0800 R04/1000N FG SCT005 OVC040 03/03 Q1021 NOSIG
ZHHH,2003-02-15 01:00,ZHHH 150100Z 34003MPS 320V030 0800 R04/0700N FG SCT005 OVC040 03/03 Q1022 NOSIG
ZHHH,2003-02-15 02:00,ZHHH 150200Z 36003MPS 320V040 1000 R04/0900N BR SCT005 OVC040 04/03 Q1021 NOSIG
ZHHH,2003-02-15 03:00,ZHHH 150300Z 33002MPS 1000 R04/0900N BR SCT005 OVC040 04/04 Q1022 NOSIG
ZHHH,2003-02-15 04:00,ZHHH 150400Z 32003MPS 290V010 1200 R04/0900N BR SCT010 OVC040 04/04 Q1022 NOSIG
ZHHH,2003-02-15 05:00,ZHHH 150500Z 35003MPS 320V020 1100 R04/1000N BR -RA SCT007 OVC040 04/04 Q1021 NOSIG
ZHHH,2003-02-15 06:00,ZHHH 150600Z 34003MPS 1100 R04/0900N BR -RA SCT011 OVC040 04/04 Q1020 NOSIG
ZHHH,2003-02-15 07:00,ZHHH 150700Z 36002MPS 1100 R04/1000N BR -RA SCT010 OVC040 04/04 Q1019 NOSIG
ZHHH,2003-02-15 08:00,ZHHH 150800Z 02002MPS 2000 BR SCT026 OVC040 05/04 Q1019 NOSIG
ZHHH,2003-02-15 09:00,ZHHH 150900Z 02002MPS 2400 BR BKN026 OVC040 04/03 Q1020 NOSIG
ZHHH,2003-02-15 10:00,ZHHH 151000Z 02001MPS 1800 -RA BR BKN020 OVC040 05/04 Q1020 NOSIG
ZHHH,2003-02-15 11:00,ZHHH 151100Z 02001MPS 2000 BR NSC 04/03 Q1020 NOSIG
ZHHH,2003-02-15 12:00,ZHHH 151200Z 01001MPS 2000 BR NSC 04/03 Q1021 NOSIG
ZHHH,2003-02-15 13:00,ZHHH 151300Z 36002MPS 2000 BR NSC 04/03 Q1021 NOSIG
ZHHH,2003-02-15 14:00,ZHHH 151400Z 34001MPS 1800 BR NSC 04/03 Q1022 NOSIG
ZHHH,2003-02-15 15:00,ZHHH 151500Z 29002MPS 1500 R04/1400N BR NSC 04/04 Q1022 NOSIG
ZHHH,2003-02-15 16:00,ZHHH 151600Z 36001MPS 1500 R04/1400D BR NSC 04/04 Q1021 NOSIG
ZHHH,2003-02-15 18:00,ZHHH 151800Z 35003MPS 320V020 1500 BR NSC 04/04 Q1022 NOSIG
ZHHH,2003-02-15 19:00,ZHHH 151900Z 35002MPS 1200 R04/P1500 BR OVC040 04/04 Q1022 NOSIG
ZHHH,2003-02-15 20:00,ZHHH 152000Z 35001MPS 1200 R04/P1500 BR OVC040 04/04 Q1022 NOSIG
ZHHH,2003-02-15 21:00,ZHHH 152100Z 35002MPS 1100 R04/1400N BR OVC040 04/04 Q1022 NOSIG
ZHHH,2003-02-15 22:00,ZHHH 152200Z 33001MPS 1000 R04/1400N BR OVC040 04/04 Q1022 NOSIG
ZHHH,2003-02-15 23:00,ZHHH 152300Z 34001MPS 1000 R04/1400N BR NSC 04/03 Q1022 NOSIG
ZHHH,2003-02-16 00:00,ZHHH 160000Z 33001MPS 0800 R04/1000N FG NSC 04/04 Q1023 NOSIG
ZHHH,2003-02-16 01:00,ZHHH 160100Z 29001MPS 0800 R04/0800N FG NSC 05/04 Q1024 NOSIG
ZHHH,2003-02-16 02:00,ZHHH 160200Z 31002MPS 0800 R04/0800N -RA FG SCT020 OVC050 05/04 Q1025 NOSIG
ZHHH,2003-02-16 03:00,ZHHH 160300Z 30002MPS 1000 R04/1000N BR SCT020 OVC050 06/05 Q1025 NOSIG
ZHHH,2003-02-16 04:00,ZHHH 160400Z 36001MPS 1400 R04/1400N BR SCT020 OVC050 07/05 Q1025 NOSIG
ZHHH,2003-02-16 05:00,ZHHH 160500Z 06003MPS 020V100 3000 BR SCT020 OVC050 07/04 Q1024 NOSIG
ZHHH,2003-02-16 06:00,ZHHH 160600Z 08003MPS 040V100 3000 BR SCT020 OVC050 07/04 Q1023 NOSIG
ZHHH,2003-02-16 07:00,ZHHH 160700Z 08003MPS 040V110 4000 BR SCT020 OVC040 08/05 Q1023 NOSIG
ZHHH,2003-02-16 08:00,ZHHH 160800Z 11003MPS 080V140 4000 BR SCT020 OVC040 08/05 Q1022 NOSIG
ZHHH,2003-02-16 09:00,ZHHH 160900Z 11003MPS 080V150 4000 BR SCT020 OVC040 08/05 Q1023 NOSIG
ZHHH,2003-02-16 10:00,ZHHH 161000Z 14002MPS 4000 BR SCT020 OVC040 07/05 Q1023 NOSIG
ZHHH,2003-02-16 11:00,ZHHH 161100Z 15002MPS 2100 BR SCT020 OVC040 07/05 Q1024 NOSIG
ZHHH,2003-02-16 12:00,ZHHH 161200Z 19001MPS 1800 BR SCT020 OVC040 07/05 Q1024 NOSIG
ZHHH,2003-02-16 13:00,ZHHH 161300Z 17001MPS 1500 BR SCT020 OVC040 07/05 Q1025 NOSIG
ZHHH,2003-02-16 14:00,ZHHH 161400Z 16001MPS 1200 R04/P1500 BR SCT020 OVC040 06/05 Q1024 NOSIG
ZHHH,2003-02-16 15:00,ZHHH 161500Z 14001MPS 1200 R04/P1500 BR SCT020 OVC040 06/05 Q1024 NOSIG
ZHHH,2003-02-16 16:00,ZHHH 161600Z 10001MPS 1200 R04/P1500 BR SCT020 OVC040 06/05 Q1024 NOSIG
ZHHH,2003-02-16 17:00,ZHHH 161700Z 14001MPS 1300 R04/P1500 BR SCT020 OVC040 06/05 Q1024 NOSIG
ZHHH,2003-02-16 18:00,ZHHH 161800Z 15001MPS 1300 R04/P1500 BR SCT020 OVC040 06/05 Q1024 NOSIG
ZHHH,2003-02-16 19:00,ZHHH 161900Z 17001MPS 1300 R04/1400N BR NSC 06/05 Q1024 NOSIG
ZHHH,2003-02-16 20:00,ZHHH 162000Z 21002MPS 1300 R04/1400N BR NSC 06/05 Q1024 NOSIG
ZHHH,2003-02-16 21:00,ZHHH 162100Z 23001MPS 1000 R04/1200N BR NSC 06/05 Q1023 NOSIG
ZHHH,2003-02-16 22:00,ZHHH 162200Z 00000MPS 1000 R04/1200N BR NSC 06/05 Q1023 NOSIG
ZHHH,2003-02-16 23:00,ZHHH 162300Z 20001MPS 0800 R04/1200N FG NSC 06/05 Q1024 NOSIG
ZHHH,2003-02-17 00:00,ZHHH 170000Z 18001MPS 0700 R04/1000N FG NSC 06/05 Q1024 NOSIG
ZHHH,2003-02-17 01:00,ZHHH 170100Z 00000MPS 1500 R04/1400N BR SCT033 OVC070 06/05 Q1024 NOSIG
ZHHH,2003-02-17 02:00,ZHHH 170200Z 35001MPS 1600 BR SCT033 OVC070 07/05 Q1024 NOSIG
ZHHH,2003-02-17 03:00,ZHHH 170300Z 26001MPS 6000 NSC 09/05 Q1024 NOSIG
ZHHH,2003-02-17 04:00,ZHHH 170400Z 22002MPS 3000 BR FEW016 10/06 Q1023 NOSIG
ZHHH,2003-02-17 05:00,ZHHH 170500Z 20002MPS 4000 BR FEW019 10/05 Q1022 NOSIG
ZHHH,2003-02-17 06:00,ZHHH 170600Z 22002MPS 4000 BR BKN024 09/05 Q1021 NOSIG
ZHHH,2003-02-17 07:00,ZHHH 170700Z 19001MPS 2500 BR BKN020 10/05 Q1021 NOSIG
ZHHH,2003-02-17 08:00,ZHHH 170800Z 13002MPS 3000 BR FEW015 BKN027 10/05 Q1021 NOSIG
ZHHH,2003-02-17 09:00,ZHHH 170900Z 21001MPS 3000 BR BKN027 10/05 Q1020 NOSIG
ZHHH,2003-02-17 10:00,ZHHH 171000Z 15002MPS 3000 BR NSC 09/06 Q1020 NOSIG
ZHHH,2003-02-17 11:00,ZHHH 171100Z 13002MPS 2500 BR NSC 08/05 Q1021 NOSIG
ZHHH,2003-02-17 12:00,ZHHH 171200Z 11002MPS 2000 BR SKC 07/06 Q1021 NOSIG
ZHHH,2003-02-17 13:00,ZHHH 171300Z 14002MPS 2000 BR SKC 07/06 Q1021 NOSIG
ZHHH,2003-02-17 14:00,ZHHH 171400Z 08001MPS 2000 BR NSC 07/06 Q1022 NOSIG
ZHHH,2003-02-17 15:00,ZHHH 171500Z 11002MPS 1800 BR NSC 07/05 Q1022 NOSIG
ZHHH,2003-02-17 18:00,ZHHH 171800Z AUTO 34002KT 7SM 07/05 RMK SLP214 T00700050 57011 IEM_DS3505
ZHHH,2003-02-17 19:00,ZHHH 171900Z 08001MPS 2000 BR SKC 06/05 Q1021 NOSIG
ZHHH,2003-02-17 20:00,ZHHH 172000Z 04001MPS 1800 BR SKC 05/04 Q1020 NOSIG
ZHHH,2003-02-17 21:00,ZHHH 172100Z 13001MPS 0800 R04/1200D FG NSC 05/04 Q1021 NOSIG
ZHHH,2003-02-17 22:00,ZHHH 172200Z 00000MPS 0800 R04/1200N FG NSC 05/04 Q1021 NOSIG
ZHHH,2003-02-17 23:00,ZHHH 172300Z 09002MPS 0900 R04/1200N FG SKC 05/04 Q1021 NOSIG
ZHHH,2003-02-18 00:00,ZHHH 180000Z 10003MPS 0900 R04/1000D FG NSC 05/04 Q1021 NOSIG
ZHHH,2003-02-18 01:00,ZHHH 180100Z 11003MPS 1400 R04/1400N BR NSC 06/05 Q1021 NOSIG
ZHHH,2003-02-18 02:00,ZHHH 180200Z 10003MPS 2000 BR NSC 08/06 Q1022 NOSIG
ZHHH,2003-02-18 03:00,ZHHH 180300Z 12002MPS 4000 BR SKC 10/06 Q1022 NOSIG
ZHHH,2003-02-18 04:00,ZHHH 180400Z 10002MPS CAVOK 12/06 Q1022 NOSIG
ZHHH,2003-02-18 05:00,ZHHH 180500Z 07001MPS CAVOK 13/06 Q1021 NOSIG
ZHHH,2003-02-18 06:00,ZHHH 180600Z 13001MPS CAVOK 13/07 Q1020 NOSIG
ZHHH,2003-02-18 07:00,ZHHH 180700Z 11003MPS 060V160 CAVOK 14/07 Q1020 NOSIG
ZHHH,2003-02-18 08:00,ZHHH 180800Z 16002MPS CAVOK 14/07 Q1019 NOSIG
ZHHH,2003-02-18 09:00,ZHHH 180900Z 20002MPS CAVOK 14/07 Q1019 NOSIG
ZHHH,2003-02-18 10:00,ZHHH 181000Z 24001MPS CAVOK 13/06 Q1020 NOSIG
ZHHH,2003-02-18 11:00,ZHHH 181100Z 31001MPS CAVOK 13/08 Q1019 NOSIG
ZHHH,2003-02-18 12:00,ZHHH 181200Z 34001MPS CAVOK 12/08 Q1020 NOSIG
ZHHH,2003-02-18 13:00,ZHHH 181300Z 01002MPS CAVOK 12/07 Q1020 NOSIG
ZHHH,2003-02-18 14:00,ZHHH 181400Z 36001MPS CAVOK 12/08 Q1021 NOSIG
ZHHH,2003-02-18 15:00,ZHHH 181500Z 02002MPS 7000 BKN040 11/08 Q1021 NOSIG
ZHHH,2003-02-18 16:00,ZHHH 181600Z 01002MPS 5000 BR OVC040 11/08 Q1021 NOSIG
ZHHH,2003-02-18 18:00,ZHHH 181800Z AUTO 00000KT 7SM 11/08 RMK SLP223 T01070080 52007 IEM_DS3505
ZHHH,2003-02-18 19:00,ZHHH 181900Z 06002MPS 6000 NSC 10/07 Q1022 NOSIG
ZHHH,2003-02-18 20:00,ZHHH 182000Z 04002MPS 6000 SKC 09/07 Q1022 NOSIG
ZHHH,2003-02-18 21:00,ZHHH 182100Z 36002MPS 6000 SKC 08/06 Q1022 NOSIG
ZHHH,2003-02-18 22:00,ZHHH 182200Z 01001MPS 4000 BR SKC 07/05 Q1022 NOSIG
ZHHH,2003-02-18 23:00,ZHHH 182300Z 35001MPS 6000 SKC 08/05 Q1023 NOSIG
ZHHH,2003-02-19 00:00,ZHHH 190000Z 02002MPS 8000 SKC 09/06 Q1023 NOSIG
ZHHH,2003-02-19 01:00,ZHHH 190100Z 02002MPS CAVOK 10/06 Q1024 NOSIG
ZHHH,2003-02-19 03:00,ZHHH 190300Z 06004MPS 030V090 CAVOK 14/07 Q1025 NOSIG
ZHHH,2003-02-19 04:00,ZHHH 190400Z 07003MPS 030V110 CAVOK 15/05 Q1025 NOSIG
ZHHH,2003-02-19 05:00,ZHHH 190500Z 09003MPS 040V230 CAVOK 16/05 Q1025 NOSIG
ZHHH,2003-02-19 06:00,ZHHH 190600Z 10002MPS CAVOK 17/05 Q1024 NOSIG
ZHHH,2003-02-19 07:00,ZHHH 190700Z 14002MPS CAVOK 17/03 Q1023 NOSIG
ZHHH,2003-02-19 08:00,ZHHH 190800Z 18002MPS CAVOK 17/03 Q1023 NOSIG
ZHHH,2003-02-19 09:00,ZHHH 190900Z 12002MPS CAVOK 16/02 Q1023 NOSIG
ZHHH,2003-02-19 10:00,ZHHH 191000Z 14001MPS CAVOK 15/04 Q1023 NOSIG
ZHHH,2003-02-19 11:00,ZHHH 191100Z 16002MPS CAVOK 14/05 Q1023 NOSIG
ZHHH,2003-02-19 12:00,ZHHH 191200Z AUTO 00000KT 9SM 11/08 RMK SLP232 T01130083 57002 IEM_DS3505
ZHHH,2003-02-19 13:00,ZHHH 191300Z 12002MPS CAVOK 13/06 Q1023 NOSIG
ZHHH,2003-02-19 14:00,ZHHH 191400Z 05002MPS CAVOK 12/06 Q1024 NOSIG
ZHHH,2003-02-19 15:00,ZHHH 191500Z 08004MPS CAVOK 10/06 Q1023 NOSIG
ZHHH,2003-02-19 16:00,ZHHH 191600Z 09003MPS CAVOK 10/06 Q1023 NOSIG
ZHHH,2003-02-19 17:00,ZHHH 191700Z 09003MPS CAVOK 09/06 Q1023 NOSIG
ZHHH,2003-02-19 18:00,ZHHH 191800Z 14002MPS CAVOK 10/06 Q1022 NOSIG
ZHHH,2003-02-19 19:00,ZHHH 191900Z 12003MPS CAVOK 08/06 Q1021 NOSIG
ZHHH,2003-02-19 20:00,ZHHH 192000Z 11002MPS CAVOK 08/06 Q1021 NOSIG
ZHHH,2003-02-19 21:00,ZHHH 192100Z 12003MPS 4000 BR SKC 07/05 Q1021 NOSIG
ZHHH,2003-02-19 22:00,ZHHH 192200Z 12004MPS 3000 BR SKC 07/05 Q1020 NOSIG
ZHHH,2003-02-19 23:00,ZHHH 192300Z 12005MPS 3000 BR SKC 07/05 Q1020 NOSIG
ZHHH,2003-02-20 00:00,ZHHH 200000Z 12003MPS 090V150 3000 BR SKC 07/05 Q1020 NOSIG
ZHHH,2003-02-20 01:00,ZHHH 200100Z 13004MPS 5000 BR SKC 09/05 Q1020 NOSIG
ZHHH,2003-02-20 02:00,ZHHH 200200Z 12007MPS 5000 HZ NSC 11/05 Q1019 NOSIG
ZHHH,2003-02-20 03:00,ZHHH 200300Z 13006MPS 100V160 4000 HZ NSC 12/06 Q1019 NOSIG
ZHHH,2003-02-20 04:00,ZHHH 200400Z 14006MPS 4000 HZ NSC 13/06 Q1018 NOSIG
ZHHH,2003-02-20 05:00,ZHHH 200500Z 13005MPS 100V160 4000 HZ NSC 14/07 Q1016 NOSIG
ZHHH,2003-02-20 06:00,ZHHH 200600Z 14006MPS 8000 NSC 15/07 Q1015 NOSIG
ZHHH,2003-02-20 07:00,ZHHH 200700Z 12005MPS 100V160 8000 NSC 14/08 Q1014 NOSIG
ZHHH,2003-02-20 08:00,ZHHH 200800Z 12006MPS 8000 NSC 15/08 Q1013 NOSIG
ZHHH,2003-02-20 09:00,ZHHH 200900Z 12007MPS 090V150 CAVOK 14/07 Q1012 NOSIG
ZHHH,2003-02-20 10:00,ZHHH 201000Z 12008MPS CAVOK 14/07 Q1011 NOSIG
ZHHH,2003-02-20 11:00,ZHHH 201100Z 12007MPS CAVOK 14/07 Q1011 NOSIG
ZHHH,2003-02-20 12:00,ZHHH 201200Z 12008MPS CAVOK 15/07 Q1011 NOSIG
ZHHH,2003-02-20 13:00,ZHHH 201300Z 13007MPS CAVOK 14/08 Q1011 NOSIG
ZHHH,2003-02-20 14:00,ZHHH 201400Z 13007MPS 9999 SCT033 OVC070 14/08 Q1011 NOSIG
ZHHH,2003-02-20 15:00,ZHHH 201500Z 12007MPS 9999 SCT033 OVC060 14/09 Q1011 NOSIG
ZHHH,2003-02-20 16:00,ZHHH 201600Z 13006MPS 9999 SCT033 OVC060 14/09 Q1011 NOSIG
ZHHH,2003-02-20 17:00,ZHHH 201700Z 12007MPS CAVOK 14/10 Q1010 NOSIG
ZHHH,2003-02-20 18:00,ZHHH 201800Z 13005MPS CAVOK 14/10 Q1010 NOSIG
ZHHH,2003-02-20 21:00,ZHHH 202100Z AUTO 11004KT 7SM 16/10 RMK SLP086 T01550099 57018 IEM_DS3505
ZHHH,2003-02-20 22:00,ZHHH 202200Z 12004MPS CAVOK 14/10 Q1008 NOSIG
ZHHH,2003-02-20 23:00,ZHHH 202300Z 12004MPS 9999 SCT020 OVC060 14/10 Q1009 NOSIG
ZHHH,2003-02-21 00:00,ZHHH 210000Z 12005MPS 9999 SCT040 OVC060 14/10 Q1009 NOSIG
ZHHH,2003-02-21 02:00,ZHHH 210200Z 12005MPS 7000 SCT030 OVC050 14/11 Q1009 NOSIG
ZHHH,2003-02-21 03:00,ZHHH 210300Z 12005MPS 7000 BKN040 15/12 Q1009 NOSIG
ZHHH,2003-02-21 04:00,ZHHH 210400Z 12005MPS 080V150 4000 BR NSC 17/13 Q1008 NOSIG
ZHHH,2003-02-21 05:00,ZHHH 210500Z 10002MPS 4000 BR FEW023 BKN040 OVC100 17/13 Q1008 NOSIG
ZHHH,2003-02-21 06:00,ZHHH 210600Z 08003MPS 050V110 4000 BR FEW030TCU SCT050 OVC100 18/14 Q1007 NOSIG
ZHHH,2003-02-21 07:00,ZHHH 210700Z 05004MPS 5000 BR SCT023 FEW030TCU OVC050 19/14 Q1007 NOSIG
ZHHH,2003-02-21 08:00,ZHHH 210800Z 05005MPS 020V080 5000 BR FEW023 SCT030TCU OVC060 15/12 Q1007 NOSIG
ZHHH,2003-02-21 09:00,ZHHH 210900Z 02004MPS 340V050 4000 BR SCT023 OVC060 13/11 Q1008 NOSIG
ZHHH,2003-02-21 10:00,ZHHH 211000Z AUTO 36010KT 2 1/2SM 11/09 A2980 RMK T01100090 IEM_DS3505
ZHHH,2003-02-21 11:00,ZHHH 211100Z 02004MPS 340V050 9999 SCT020 OVC040 09/07 Q1010 NOSIG
ZHHH,2003-02-21 12:00,ZHHH 211200Z 04006MPS 010V070 9999 -RA SCT020 OVC040 08/06 Q1011 NOSIG
ZHHH,2003-02-21 13:00,ZHHH 211300Z 03007MPS 7000 -TSRA SCT010 FEW040CB BKN040 07/07 Q1012 NOSIG
ZHHH,2003-02-21 14:00,ZHHH 211400Z 03005MPS 340V070 9999 SCT012 FEW040CB BKN040 07/07 Q1013 NOSIG
ZHHH,2003-02-21 15:00,ZHHH 211500Z 04006MPS 9999 SCT016 OVC050 07/06 Q1014 NOSIG
ZHHH,2003-02-21 16:00,ZHHH 211600Z 04005MPS 000V070 CAVOK 07/06 Q1014 NOSIG
ZHHH,2003-02-21 17:00,ZHHH 211700Z 03005MPS 340V060 9999 SCT020 OVC050 07/05 Q1015 NOSIG
ZHHH,2003-02-21 18:00,ZHHH 211800Z 35003MPS 290V060 9999 FEW015 OVC050 07/06 Q1015 NOSIG
ZHHH,2003-02-21 19:00,ZHHH 211900Z 03002MPS 9999 FEW015 OVC050 07/05 Q1015 NOSIG
ZHHH,2003-02-21 20:00,ZHHH 212000Z 33003MPS 290V030 7000 NSC 07/06 Q1016 NOSIG
ZHHH,2003-02-21 21:00,ZHHH 212100Z 01003MPS 340V050 5000 BR NSC 07/06 Q1015 NOSIG
ZHHH,2003-02-21 22:00,ZHHH 212200Z 02002MPS 2000 BR NSC 06/05 Q1016 NOSIG
ZHHH,2003-02-21 23:00,ZHHH 212300Z 34003MPS 310V030 2000 BR NSC 06/04 Q1017 NOSIG
ZHHH,2003-02-22 00:00,ZHHH 220000Z 34003MPS 300V020 2000 BR NSC 06/04 Q1018 NOSIG
ZHHH,2003-02-22 01:00,ZHHH 220100Z 35004MPS 320V020 2000 BR NSC 06/05 Q1018 NOSIG
ZHHH,2003-02-22 02:00,ZHHH 220200Z 03004MPS 350V070 3000 -RA BR NSC 06/04 Q1018 NOSIG
ZHHH,2003-02-22 03:00,ZHHH 220300Z 02004MPS 340V050 3000 -RA BR NSC 06/05 Q1018 NOSIG
ZHHH,2003-02-22 04:00,ZHHH 220400Z 01002MPS 3000 BR NSC 07/05 Q1018 NOSIG
ZHHH,2003-02-22 05:00,ZHHH 220500Z 03004MPS 000V060 3000 BR NSC 08/05 Q1017 NOSIG
ZHHH,2003-02-22 06:00,ZHHH 220600Z 03005MPS 000V070 3000 BR NSC 08/04 Q1016 NOSIG
ZHHH,2003-02-22 07:00,ZHHH 220700Z 04004MPS 000V070 4000 BR NSC 08/04 Q1016 NOSIG
ZHHH,2003-02-22 08:00,ZHHH 220800Z 02003MPS 340V050 4000 BR BKN026 OVC060 08/05 Q1016 NOSIG
ZHHH,2003-02-22 09:00,ZHHH 220900Z 02002MPS 4000 BR BKN026 OVC060 08/04 Q1016 NOSIG
ZHHH,2003-02-22 10:00,ZHHH 221000Z 02002MPS 3000 BR BKN020 OVC060 08/05 Q1016 NOSIG
ZHHH,2003-02-22 11:00,ZHHH 221100Z 01003MPS 340V050 3000 BR BKN020 OVC060 08/05 Q1017 NOSIG
ZHHH,2003-02-22 12:00,ZHHH 221200Z 03004MPS 360V060 2500 BR BKN020 OVC060 07/04 Q1018 NOSIG
ZHHH,2003-02-22 13:00,ZHHH 221300Z 03005MPS 360V060 2000 BR BKN020 OVC060 06/04 Q1018 NOSIG
ZHHH,2003-02-22 14:00,ZHHH 221400Z 03005MPS 360V060 2000 BR BKN020 OVC060 06/04 Q1019 NOSIG
ZHHH,2003-02-22 15:00,ZHHH 221500Z 03004MPS 360V070 2000 BR BKN020 OVC060 06/04 Q1019 NOSIG
ZHHH,2003-02-22 16:00,ZHHH 221600Z 03003MPS 340V070 2000 BR BKN020 OVC060 06/04 Q1019 NOSIG
ZHHH,2003-02-22 17:00,ZHHH 221700Z 03004MPS 360V060 2500 BR BKN020 OVC060 06/04 Q1018 NOSIG
ZHHH,2003-02-22 18:00,ZHHH 221800Z 03003MPS 340V070 2500 BR BKN033 OVC060 06/04 Q1018 NOSIG
ZHHH,2003-02-22 19:00,ZHHH 221900Z 02003MPS 340V060 9999 OVC040 06/04 Q1018 NOSIG
ZHHH,2003-02-22 20:00,ZHHH 222000Z 03004MPS 000V070 2500 BR NSC 06/04 Q1018 NOSIG
ZHHH,2003-02-22 21:00,ZHHH 222100Z 32002MPS 2500 BR NSC 06/04 Q1018 NOSIG
ZHHH,2003-02-22 22:00,ZHHH 222200Z 35001MPS 2500 BR NSC 06/04 Q1019 NOSIG
ZHHH,2003-02-22 23:00,ZHHH 222300Z 01002MPS 2000 BR -RA NSC 05/05 Q1019 NOSIG
ZHHH,2003-02-23 00:00,ZHHH 230000Z 05002MPS 1800 BR NSC 06/04 Q1019 NOSIG
ZHHH,2003-02-23 01:00,ZHHH 230100Z 35005MPS 320V030 1800 BR -RA FEW020 OVC060 06/04 Q1021 NOSIG
ZHHH,2003-02-23 02:00,ZHHH 230200Z 05005MPS 010V100 3000 BR FEW020 OVC060 07/05 Q1020 NOSIG
ZHHH,2003-02-23 03:00,ZHHH 230300Z 31004MPS 270V330 2500 BR FEW010 SCT020 OVC060 07/05 Q1021 NOSIG
ZHHH,2003-02-23 04:00,ZHHH 230400Z 35002MPS 3000 BR BKN020 OVC050 07/05 Q1020 NOSIG
ZHHH,2003-02-23 05:00,ZHHH 230500Z 35001MPS 3000 BR SCT020 OVC050 08/05 Q1020 NOSIG
ZHHH,2003-02-23 06:00,ZHHH 230600Z 27002MPS 3500 BR SCT020 OVC050 09/05 Q1019 NOSIG
ZHHH,2003-02-23 07:00,ZHHH 230700Z 03002MPS 3500 BR SCT020 BKN050 09/05 Q1019 NOSIG
ZHHH,2003-02-23 08:00,ZHHH 230800Z 29002MPS 4000 HZ BKN020 SCT050 10/05 Q1019 NOSIG
ZHHH,2003-02-23 09:00,ZHHH 230900Z 00000MPS 3500 HZ SCT020 BKN050 10/05 Q1019 NOSIG
ZHHH,2003-02-23 10:00,ZHHH 231000Z 16002MPS 3000 BR SCT020 BKN100 09/05 Q1019 NOSIG
ZHHH,2003-02-23 11:00,ZHHH 231100Z 16002MPS 2100 BR SCT020 OVC100 09/06 Q1019 NOSIG
ZHHH,2003-02-23 12:00,ZHHH 231200Z 10002MPS 2100 BR SCT020 BKN100 08/06 Q1020 NOSIG
ZHHH,2003-02-23 13:00,ZHHH 231300Z 11002MPS 2100 BR FEW020 07/06 Q1020 NOSIG
ZHHH,2003-02-23 14:00,ZHHH 231400Z 12002MPS 2100 BR SKC 07/05 Q1021 NOSIG
ZHHH,2003-02-23 15:00,ZHHH 231500Z 17001MPS 2000 BR SKC 07/05 Q1021 NOSIG
ZHHH,2003-02-23 16:00,ZHHH 231600Z 07001MPS 2000 BR SKC 06/05 Q1021 NOSIG
ZHHH,2003-02-23 17:00,ZHHH 231700Z 06002MPS 2000 BR SKC 06/04 Q1021 NOSIG
ZHHH,2003-02-23 18:00,ZHHH 231800Z 07002MPS 1800 BR SKC 05/04 Q1021 NOSIG
ZHHH,2003-02-23 19:00,ZHHH 231900Z 07002MPS 2500 BR SKC 05/04 Q1021 NOSIG
ZHHH,2003-02-23 20:00,ZHHH 232000Z 07002MPS 1700 BR SKC 04/04 Q1021 NOSIG
ZHHH,2003-02-23 21:00,ZHHH 232100Z 08003MPS 1600 BR SKC 04/03 Q1020 NOSIG
ZHHH,2003-02-23 22:00,ZHHH 232200Z 10003MPS 1700 BR SKC 05/04 Q1020 NOSIG
ZHHH,2003-02-23 23:00,ZHHH 232300Z 05002MPS 1000 R04/P1500 BR SKC 04/04 Q1021 NOSIG
ZHHH,2003-02-24 00:00,ZHHH 240000Z 10002MPS 1200 R04/P1500 BR NSC 05/04 Q1021 NOSIG
ZHHH,2003-02-24 01:00,ZHHH 240100Z 06002MPS 1400 R04/1400N BR NSC 05/05 Q1022 NOSIG
ZHHH,2003-02-24 02:00,ZHHH 240200Z 08003MPS 1600 BR NSC 07/06 Q1021 NOSIG
ZHHH,2003-02-24 03:00,ZHHH 240300Z 12003MPS 070V160 2200 BR NSC 09/06 Q1021 NOSIG
ZHHH,2003-02-24 04:00,ZHHH 240400Z 13005MPS 100V160 2500 BR NSC 09/06 Q1020 NOSIG
ZHHH,2003-02-24 05:00,ZHHH 240500Z 13005MPS 2800 BR NSC 09/07 Q1019 NOSIG
ZHHH,2003-02-24 06:00,ZHHH 240600Z 12003MPS 070V140 2800 BR NSC 09/06 Q1018 NOSIG
ZHHH,2003-02-24 07:00,ZHHH 240700Z 09003MPS 050V140 3000 BR SCT010 BKN100 09/06 Q1018 NOSIG
ZHHH,2003-02-24 08:00,ZHHH 240800Z 07004MPS 3000 -TS RA BR SCT010 FEW040CB BKN040 09/07 Q1018 NOSIG
ZHHH,2003-02-24 09:00,ZHHH 240900Z 07003MPS 040V100 2000 -RA BR SCT007 FEW040TCU BKN040 09/07 Q1018 RETS NOSIG
ZHHH,2003-02-24 10:00,ZHHH 241000Z 11003MPS 080V140 2500 BR SCT015 OVC050 09/07 Q1018 NOSIG
ZHHH,2003-02-24 11:00,ZHHH 241100Z 11002MPS 3000 BR NSC 09/07 Q1018 NOSIG
ZHHH,2003-02-24 12:00,ZHHH 241200Z 06002MPS 4000 BR NSC 09/08 Q1018 NOSIG
ZHHH,2003-02-24 13:00,ZHHH 241300Z 09003MPS 3000 BR NSC 09/08 Q1017 NOSIG
ZHHH,2003-02-24 14:00,ZHHH 241400Z 06002MPS 3000 BR NSC 09/08 Q1018 NOSIG
ZHHH,2003-02-24 15:00,ZHHH 241500Z 05002MPS 3000 BR NSC 09/08 Q1018 NOSIG
ZHHH,2003-02-24 17:00,ZHHH 241700Z 06002MPS 3000 BR NSC 09/08 Q1018 NOSIG
ZHHH,2003-02-24 18:00,ZHHH 241800Z 08002MPS 5000 BR NSC 09/08 Q1017 NOSIG
ZHHH,2003-02-24 19:00,ZHHH 241900Z 08002MPS 4000 BR NSC 09/08 Q1017 NOSIG
ZHHH,2003-02-24 20:00,ZHHH 242000Z 11002MPS 4000 BR NSC 09/09 Q1017 NOSIG
ZHHH,2003-02-24 21:00,ZHHH 242100Z 10003MPS 4000 BR NSC 09/08 Q1016 NOSIG
ZHHH,2003-02-24 22:00,ZHHH 242200Z 10003MPS 4000 BR SCT033 OVC050 09/09 Q1016 NOSIG
ZHHH,2003-02-24 23:00,ZHHH 242300Z 08002MPS 2500 BR -RA SCT033 OVC060 09/09 Q1017 NOSIG
ZHHH,2003-02-25 00:00,ZHHH 250000Z 08003MPS 2000 BR SCT033 OVC060 09/09 Q1017 NOSIG
ZHHH,2003-02-25 01:00,ZHHH 250100Z 10004MPS 070V140 4000 BR SCT040 SCT210 11/09 Q1017 NOSIG
ZHHH,2003-02-25 02:00,ZHHH 250200Z 13004MPS 5000 BR NSC 12/09 Q1017 NOSIG
ZHHH,2003-02-25 03:00,ZHHH 250300Z 11002MPS 5000 BR NSC 11/09 Q1017 NOSIG
ZHHH,2003-02-25 04:00,ZHHH 250400Z 00000MPS 2500 -TSRA BR SCT033CB OVC050 11/10 Q1016 NOSIG
ZHHH,2003-02-25 05:00,ZHHH 250500Z 00000MPS 2000 -RA BR SCT010 FEW040CB OVC050 11/10 Q1016 RETS NOSIG
ZHHH,2003-02-25 06:00,ZHHH 250600Z 35002MPS 1600 -RA BR SCT010 OVC050 11/10 Q1015 NOSIG
ZHHH,2003-02-25 07:00,ZHHH 250700Z 35004MPS 320V030 1600 -RA BR SCT010 OVC050 10/10 Q1015 NOSIG
ZHHH,2003-02-25 08:00,ZHHH 250800Z 36003MPS 310V030 1600 -RA BR SCT010 OVC050 10/10 Q1015 NOSIG
ZHHH,2003-02-25 09:00,ZHHH 250900Z 02002MPS 1500 -RA BR SCT010 OVC040 10/10 Q1015 NOSIG
ZHHH,2003-02-25 10:00,ZHHH 251000Z 03001MPS 1600 -RA BR SCT010 OVC040 10/10 Q1015 NOSIG
ZHHH,2003-02-25 11:00,ZHHH 251100Z 01001MPS 1600 -RA BR SCT010 OVC040 10/10 Q1016 NOSIG
ZHHH,2003-02-25 12:00,ZHHH 251200Z 35001MPS 1200 R04/1200D -RA BR FEW004 SCT010 OVC040 10/10 Q1016 NOSIG
ZHHH,2003-02-25 13:00,ZHHH 251300Z 36001MPS 1000 R04/1000N -RA BR FEW003 SCT010 OVC033 10/10 Q1017 NOSIG
ZHHH,2003-02-25 14:00,ZHHH 251400Z 35001MPS 1800 -RA BR SCT010 OVC033 10/10 Q1017 NOSIG
ZHHH,2003-02-25 15:00,ZHHH 251500Z 32003MPS 300V360 1300 R04/1400N -RA BR SCT010 OVC033 10/10 Q1018 NOSIG
ZHHH,2003-02-25 16:00,ZHHH 251600Z 34002MPS 1400 R04/1600N -RA BR SCT010 OVC033 10/10 Q1018 NOSIG
ZHHH,2003-02-25 17:00,ZHHH 251700Z 34002MPS 1400 R04/1600D -RA BR SCT010 OVC033 09/09 Q1018 NOSIG
ZHHH,2003-02-25 18:00,ZHHH 251800Z 34002MPS 1600 BR OVC033 09/09 Q1017 NOSIG
ZHHH,2003-02-25 19:00,ZHHH 251900Z 03002MPS 1800 BR SCT020 OVC033 09/09 Q1017 NOSIG
ZHHH,2003-02-25 20:00,ZHHH 252000Z 02003MPS 340V060 3000 BR SCT020 OVC033 09/09 Q1017 NOSIG
ZHHH,2003-02-25 21:00,ZHHH 252100Z 33002MPS 2100 -RA BR SCT020 OVC033 09/08 Q1018 NOSIG
ZHHH,2003-02-25 22:00,ZHHH 252200Z 04002MPS 2000 -RA BR SCT020 OVC033 09/08 Q1018 NOSIG
ZHHH,2003-02-25 23:00,ZHHH 252300Z 01003MPS 340V050 1600 -RA BR OVC033 09/08 Q1018 NOSIG
ZHHH,2003-02-26 00:00,ZHHH 260000Z 03004MPS 360V080 1300 R04/1200N -RA BR OVC033 09/08 Q1019 NOSIG
ZHHH,2003-02-26 01:00,ZHHH 260100Z 05005MPS 1200 R04/1000N -RA BR SCT006 OVC033 09/08 Q1018 NOSIG
ZHHH,2003-02-26 02:00,ZHHH 260200Z 02004MPS 1300 R04/1200N BR FEW006 OVC033 09/08 Q1020 NOSIG
ZHHH,2003-02-26 03:00,ZHHH 260300Z 01003MPS 340V040 1400 R04/1200N BR SCT020 OVC030 10/08 Q1020 NOSIG
ZHHH,2003-02-26 04:00,ZHHH 260400Z 02004MPS 340V060 1600 BR OVC030 10/08 Q1020 NOSIG
ZHHH,2003-02-26 05:00,ZHHH 260500Z 03006MPS 000V060 1100 R04/1000N -DZ BR SCT020 OVC030 10/07 Q1020 NOSIG
ZHHH,2003-02-26 06:00,ZHHH 260600Z 03005MPS 340V070 1000 R04/1000N BR SCT020 OVC030 10/07 Q1019 NOSIG
ZHHH,2003-02-26 07:00,ZHHH 260700Z 03005MPS 000V070 1100 R04/1000N -DZ BR SCT020 OVC030 09/07 Q1020 NOSIG
ZHHH,2003-02-26 08:00,ZHHH 260800Z 04006MPS 010V070 1400 R04/1400N BR SCT020 OVC030 09/07 Q1020 NOSIG
ZHHH,2003-02-26 09:00,ZHHH 260900Z 03005MPS 1400 R04/1400N -DZ BR SCT020 OVC030 09/07 Q1020 NOSIG
ZHHH,2003-02-26 10:00,ZHHH 261000Z 05004MPS 1400 R04/1400N BR SCT023 OVC030 09/08 Q1020 NOSIG
ZHHH,2003-02-26 11:00,ZHHH 261100Z 04004MPS 010V070 1800 BR SCT020 OVC030 09/07 Q1021 NOSIG
ZHHH,2003-02-26 12:00,ZHHH 261200Z 05005MPS 2000 BR SCT020 OVC030 09/07 Q1021 NOSIG
ZHHH,2003-02-26 13:00,ZHHH 261300Z 04003MPS 010V070 2000 -RA BR SCT020 OVC030 09/07 Q1022 NOSIG
ZHHH,2003-02-26 14:00,ZHHH 261400Z 05004MPS 2000 BR SCT020 OVC030 09/07 Q1022 NOSIG
ZHHH,2003-02-26 15:00,ZHHH 261500Z 05004MPS 010V070 1800 BR SCT020 OVC033 09/07 Q1022 NOSIG
ZHHH,2003-02-26 16:00,ZHHH 261600Z 04003MPS 010V070 1800 BR SCT023 OVC033 09/07 Q1022 NOSIG
ZHHH,2003-02-26 17:00,ZHHH 261700Z 04003MPS 010V070 2000 -RA BR SCT021 OVC033 08/07 Q1022 NOSIG
ZHHH,2003-02-26 18:00,ZHHH 261800Z 05003MPS 2300 BR SCT021 OVC033 09/07 Q1021 NOSIG
ZHHH,2003-02-26 19:00,ZHHH 261900Z 01002MPS 2100 BR BKN020 OVC033 09/08 Q1022 NOSIG
ZHHH,2003-02-26 20:00,ZHHH 262000Z 05003MPS 2000 BR BKN020 OVC033 09/08 Q1021 NOSIG
ZHHH,2003-02-26 21:00,ZHHH 262100Z 06003MPS 2000 BR SCT020 OVC033 09/07 Q1020 NOSIG
ZHHH,2003-02-26 22:00,ZHHH 262200Z 04002MPS 2000 BR SCT020 OVC033 08/07 Q1021 NOSIG
ZHHH,2003-02-26 23:00,ZHHH 262300Z 01002MPS 2100 -RA BR SCT020 OVC033 08/07 Q1021 NOSIG
ZHHH,2003-02-27 00:00,ZHHH 270000Z 31002MPS 1400 R04/1400N RA BR SCT020 OVC033 08/08 Q1022 NOSIG
ZHHH,2003-02-27 01:00,ZHHH 270100Z 05003MPS 1400 R04/1200N RA BR SCT010 OVC033 08/08 Q1022 NOSIG
ZHHH,2003-02-27 02:00,ZHHH 270200Z 05005MPS 2000 -RA BR SCT010 OVC033 08/08 Q1022 RERA NOSIG
ZHHH,2003-02-27 03:00,ZHHH 270300Z 05003MPS 2000 -RA BR SCT010 OVC033 09/08 Q1022 NOSIG
ZHHH,2003-02-27 04:00,ZHHH 270400Z 03004MPS 000V070 4500 BR SCT020 OVC040 09/08 Q1023 NOSIG
ZHHH,2003-02-27 05:00,ZHHH 270500Z 04004MPS 010V070 4500 BR SCT015 OVC040 09/08 Q1021 NOSIG
ZHHH,2003-02-27 06:00,ZHHH 270600Z 04003MPS 000V060 6000 SCT012 OVC040 09/08 Q1021 NOSIG
ZHHH,2003-02-27 07:00,ZHHH 270700Z 05004MPS 010V070 6000 -RA SCT012 OVC040 08/07 Q1020 NOSIG
ZHHH,2003-02-27 08:00,ZHHH 270800Z 03004MPS 3000 -RA FEW006 SCT012 OVC030 08/07 Q1019 NOSIG
ZHHH,2003-02-27 09:00,ZHHH 270900Z 03004MPS 360V070 3000 -RA FEW006 SCT012 OVC025 07/06 Q1020 NOSIG
ZHHH,2003-02-27 10:00,ZHHH 271000Z 03004MPS 340V070 3000 -RA BR SCT010 OVC020 07/06 Q1021 NOSIG
ZHHH,2003-02-27 11:00,ZHHH 271100Z 04004MPS 000V070 3000 -RA BR SCT007 OVC020 06/06 Q1020 NOSIG
ZHHH,2003-02-27 12:00,ZHHH 271200Z 04005MPS 010V070 5000 -RA BR SCT007 OVC020 06/06 Q1021 NOSIG
ZHHH,2003-02-27 13:00,ZHHH 271300Z 02004MPS 340V060 5000 -RA BR SCT007 OVC020 06/05 Q1022 NOSIG
ZHHH,2003-02-27 14:00,ZHHH 271400Z 02003MPS 340V050 9999 -RA BKN006 OVC020 06/05 Q1022 NOSIG
ZHHH,2003-02-27 15:00,ZHHH 271500Z 02002MPS 5000 TSRA BKN005 SCT020CB BKN020 06/05 Q1022 NOSIG
ZHHH,2003-02-27 16:00,ZHHH 271600Z 03003MPS 340V060 5000 -RA BKN005 OVC020 06/05 Q1022 RETSRA NOSIG
ZHHH,2003-02-27 17:00,ZHHH 271700Z 01002MPS 5000 -RA BR BKN005 OVC020 06/06 Q1022 NOSIG
ZHHH,2003-02-27 18:00,ZHHH 271800Z 36003MPS 320V020 2200 -RA BR BKN005 OVC020 06/05 Q1022 NOSIG
ZHHH,2003-02-27 21:00,ZHHH 272100Z 03003MPS 350V060 6000 -RA BKN005 OVC020 05/05 Q1019 NOSIG
ZHHH,2003-02-27 22:00,ZHHH 272200Z 04003MPS 000V070 6000 -RA BKN005 OVC020 05/04 Q1020 NOSIG
ZHHH,2003-02-27 23:00,ZHHH 272300Z 02002MPS 2500 -RA BR SCT006 OVC025 05/05 Q1021 NOSIG
ZHHH,2003-02-28 00:00,ZHHH 280000Z 34001MPS 2000 -RA BR SCT005 OVC025 05/04 Q1020 NOSIG
ZHHH,2003-02-28 01:00,ZHHH 280100Z 01002MPS 2000 -RA BR SCT004 OVC030 05/05 Q1020 NOSIG
ZHHH,2003-02-28 02:00,ZHHH 280200Z 02002MPS 1000 -RA BR SCT004 OVC030 04/04 Q1021 NOSIG
ZHHH,2003-02-28 03:00,ZHHH 280300Z 03002MPS 2000 -RA BR FEW004 SCT007 OVC040 05/04 Q1020 NOSIG
ZHHH,2003-02-28 04:00,ZHHH 280400Z 34001MPS 1800 -RA BR FEW004 SCT009 OVC040 05/05 Q1020 NOSIG
ZHHH,2003-02-28 05:00,ZHHH 280500Z 34003MPS 310V030 2000 -RA BR FEW004 SCT009 OVC040 05/05 Q1019 NOSIG
ZHHH,2003-02-28 06:00,ZHHH 280600Z 31002MPS 2500 -RA BR FEW004 SCT009 OVC040 05/05 Q1018 NOSIG
ZHHH,2003-02-28 07:00,ZHHH 280700Z 34003MPS 310V020 3000 -RA BR FEW004 SCT009 OVC040 05/05 Q1017 NOSIG
ZHHH,2003-02-28 08:00,ZHHH 280800Z 33004MPS 300V000 6000 FEW004 SCT009 OVC040 06/05 Q1017 NOSIG
ZHHH,2003-02-28 09:00,ZHHH 280900Z 34004MPS 6000 SCT010 OVC040 05/05 Q1017 NOSIG
ZHHH,2003-02-28 10:00,ZHHH 281000Z 03003MPS 000V070 4000 BR SCT007 OVC040 05/04 Q1017 NOSIG
ZHHH,2003-02-28 11:00,ZHHH 281100Z 10001MPS 1600 BR SCT007 OVC033 05/05 Q1017 NOSIG
ZHHH,2003-02-28 12:00,ZHHH 281200Z 36001MPS 1800 BR FEW004 SCT008 OVC040 05/05 Q1018 NOSIG
ZHHH,2003-02-28 13:00,ZHHH 281300Z 36001MPS 2200 BR SCT004 SCT007 OVC040 05/05 Q1018 NOSIG
ZHHH,2003-02-28 14:00,ZHHH 281400Z 34003MPS 320V020 2500 BR SCT004 SCT007 OVC040 05/05 Q1019 NOSIG
ZHHH,2003-02-28 15:00,ZHHH 281500Z 34003MPS 300V010 2800 BR SCT006 OVC030 05/05 Q1019 NOSIG
ZHHH,2003-02-28 17:00,ZHHH 281700Z 32002MPS 3000 BR SCT005 OVC026 05/05 Q1019 NOSIG
ZHHH,2003-02-28 18:00,ZHHH 281800Z 29002MPS 3000 BR SCT005 OVC026 05/04 Q1019 NOSIG
ZHHH,2003-02-28 19:00,ZHHH 281900Z 32004MPS 290V350 3000 BR OVC030 04/03 Q1019 NOSIG
ZHHH,2003-02-28 21:00,ZHHH 282100Z AUTO 34002KT 6SM 05/04 RMK 70065 SLP188 T00530039 57006 IEM_DS3505
ZHHH,2003-02-28 22:00,ZHHH 282200Z 33001MPS 5000 BR NSC 04/03 Q1018 NOSIG
ZHHH,2003-02-28 23:00,ZHHH 282300Z 00000MPS 4000 BR NSC 04/03 Q1019 NOSIG
ZHHH,2003-03-01 00:00,ZHHH 010000Z 00000MPS 4000 BR NSC 04/03 Q1019 NOSIG
ZHHH,2003-03-01 01:00,ZHHH 010100Z 35001MPS 3000 BR SCT006 OVC050 04/04 Q1020 NOSIG
ZHHH,2003-03-01 02:00,ZHHH 010200Z 00000MPS 4000 BR SCT006 SCT010 OVC050 05/04 Q1020 NOSIG
ZHHH,2003-03-01 03:00,ZHHH 010300Z 25001MPS 4000 BR SCT006 SCT010 OVC050 06/04 Q1020 NOSIG
ZHHH,2003-03-01 04:00,ZHHH 010400Z 11001MPS 5000 BR SCT011 OVC050 06/04 Q1019 NOSIG
ZHHH,2003-03-01 05:00,ZHHH 010500Z 09002MPS 5000 BR SCT013 OVC050 07/04 Q1018 NOSIG
ZHHH,2003-03-01 06:00,ZHHH 010600Z 09002MPS 5000 BR SCT013 OVC050 07/05 Q1017 NOSIG
ZHHH,2003-03-01 07:00,ZHHH 010700Z 09003MPS 2400 BR BKN012 OVC050 07/05 Q1016 NOSIG
ZHHH,2003-03-01 08:00,ZHHH 010800Z 10003MPS 2500 BR BKN013 OVC060 07/05 Q1016 NOSIG
ZHHH,2003-03-01 09:00,ZHHH 010900Z 11002MPS 2500 BR BKN015 OVC060 08/05 Q1015 NOSIG
ZHHH,2003-03-01 10:00,ZHHH 011000Z 14001MPS 3000 BR BKN015 OVC060 08/06 Q1015 NOSIG
ZHHH,2003-03-01 11:00,ZHHH 011100Z 09002MPS 3000 BR BKN015 OVC060 08/06 Q1015 NOSIG
ZHHH,2003-03-01 12:00,ZHHH 011200Z 04001MPS 3000 BR BKN016 OVC060 08/07 Q1015 NOSIG
ZHHH,2003-03-01 13:00,ZHHH 011300Z 10004MPS 3000 BR BKN020 OVC060 09/07 Q1015 NOSIG
ZHHH,2003-03-01 14:00,ZHHH 011400Z 12006MPS 5000 BR BKN020 OVC060 10/08 Q1014 NOSIG
ZHHH,2003-03-01 15:00,ZHHH 011500Z 14005MPS 5000 BR BKN020 OVC060 10/08 Q1014 NOSIG
ZHHH,2003-03-01 16:00,ZHHH 011600Z 14003MPS 5000 BR BKN020 OVC060 10/08 Q1014 NOSIG
ZHHH,2003-03-01 17:00,ZHHH 011700Z 14004MPS 5000 BR BKN020 OVC060 10/08 Q1013 NOSIG
ZHHH,2003-03-01 18:00,ZHHH 011800Z 13002MPS 5000 BR SCT033 OVC060 09/08 Q1013 NOSIG
ZHHH,2003-03-01 19:00,ZHHH 011900Z 11004MPS 3000 BR OVC036 10/08 Q1012 NOSIG
ZHHH,2003-03-01 20:00,ZHHH 012000Z 13003MPS 3000 BR OVC033 10/08 Q1012 NOSIG
ZHHH,2003-03-01 21:00,ZHHH 012100Z 13003MPS 3000 BR OVC033 10/08 Q1011 NOSIG
ZHHH,2003-03-01 22:00,ZHHH 012200Z 15003MPS 2500 -RA BR OVC030 10/08 Q1011 NOSIG
ZHHH,2003-03-01 23:00,ZHHH 012300Z 15002MPS 2500 BR OVC030 10/09 Q1010 NOSIG
ZHHH,2003-03-02 00:00,ZHHH 020000Z 14003MPS 3000 BR OVC040 10/09 Q1010 NOSIG
ZHHH,2003-03-02 01:00,ZHHH 020100Z 15002MPS 3000 BR OVC040 10/09 Q1010 NOSIG
ZHHH,2003-03-02 02:00,ZHHH 020200Z 15003MPS 120V180 4000 BR OVC040 11/09 Q1010 NOSIG
ZHHH,2003-03-02 03:00,ZHHH 020300Z 19001MPS 4000 BR SCT020 OVC040 12/09 Q1009 NOSIG
ZHHH,2003-03-02 04:00,ZHHH 020400Z 32003MPS 2600 BR SCT033 OVC060 11/10 Q1010 NOSIG
ZHHH,2003-03-02 05:00,ZHHH 020500Z 30002MPS 2600 BR SCT020 OVC060 11/10 Q1008 NOSIG
ZHHH,2003-03-02 06:00,ZHHH 020600Z 32003MPS 290V360 2000 BR SCT020 OVC060 11/10 Q1008 NOSIG
ZHHH,2003-03-02 07:00,ZHHH 020700Z 35003MPS 320V020 1800 BR -RA SCT020 OVC050 10/10 Q1008 NOSIG
ZHHH,2003-03-02 08:00,ZHHH 020800Z 35003MPS 320V020 1500 BR -DZ SCT010 OVC040 10/09 Q1008 NOSIG
ZHHH,2003-03-02 09:00,ZHHH 020900Z 34002MPS 1500 BR SCT010 OVC040 10/09 Q1008 NOSIG
ZHHH,2003-03-02 10:00,ZHHH 021000Z 00000MPS 1500 -RA BR SCT010 OVC040 10/09 Q1008 NOSIG
ZHHH,2003-03-02 11:00,ZHHH 021100Z 00000MPS 1500 BR FEW005 SCT010 OVC040 10/09 Q1009 NOSIG
ZHHH,2003-03-02 12:00,ZHHH 021200Z 32001MPS 1500 BR SCT010 OVC040 10/09 Q1010 NOSIG
ZHHH,2003-03-02 13:00,ZHHH 021300Z 29002MPS 1500 BR SCT010 OVC040 10/09 Q1011 NOSIG
ZHHH,2003-03-02 14:00,ZHHH 021400Z 31003MPS 1500 BR SCT010 OVC040 09/09 Q1012 NOSIG
ZHHH,2003-03-02 15:00,ZHHH 021500Z 34002MPS 1500 BR SCT010 OVC040 09/09 Q1012 NOSIG
ZHHH,2003-03-02 16:00,ZHHH 021600Z 36003MPS 330V030 1600 BR SCT010 OVC040 09/09 Q1013 NOSIG
ZHHH,2003-03-02 17:00,ZHHH 021700Z 01003MPS 1600 BR SCT010 OVC040 10/09 Q1013 NOSIG
ZHHH,2003-03-02 18:00,ZHHH 021800Z 36003MPS 2000 BR SCT010 OVC040 10/09 Q1013 NOSIG
ZHHH,2003-03-02 21:00,ZHHH 022100Z 03007G13MPS 2000 BR SCT020 OVC050 11/08 Q1015 NOSIG
ZHHH,2003-03-02 22:00,ZHHH 022200Z 05008G16MPS 020V080 3000 BR SCT020 OVC050 10/07 Q1015 NOSIG
ZHHH,2003-03-02 23:00,ZHHH 022300Z 04009G14MPS 3000 BR SCT020 OVC050 09/07 Q1016 NOSIG
ZHHH,2003-03-03 00:00,ZHHH 030000Z 03008MPS 3000 BR SCT020 OVC050 09/07 Q1018 NOSIG
ZHHH,2003-03-03 01:00,ZHHH 030100Z 04007MPS 010V080 2000 BR SCT010 OVC033 09/06 Q1019 NOSIG
ZHHH,2003-03-03 02:00,ZHHH 030200Z 04009MPS 010V070 2000 BR SCT015 OVC050 09/06 Q1020 NOSIG
ZHHH,2003-03-03 03:00,ZHHH 030300Z AUTO 02008KT 9SM 10/06 RMK SLP199 T00990060 52017 IEM_DS3505
ZHHH,2003-03-03 04:00,ZHHH 030400Z 03009G00MPS 7000 NSC 08/03 Q1020 NOSIG
ZHHH,2003-03-03 05:00,ZHHH 030500Z 04009G15MPS 7000 NSC 08/02 Q1020 NOSIG
ZHHH,2003-03-03 06:00,ZHHH 030600Z 04008G16MPS 010V080 9000 NSC 07/01 Q1020 NOSIG
ZHHH,2003-03-03 07:00,ZHHH 030700Z 04008G14MPS 010V070 9000 -RA SCT040 OVC070 06/00 Q1020 NOSIG
ZHHH,2003-03-03 08:00,ZHHH 030800Z 03008G14MPS 000V070 9999 -RA SCT040 OVC070 05/01 Q1020 NOSIG
ZHHH,2003-03-03 09:00,ZHHH 030900Z 03008MPS 9999 -PL RA SCT020 SCT030 OVC060 03/01 Q1020 NOSIG
ZHHH,2003-03-03 10:00,ZHHH 031000Z 03007MPS 360V070 9999 -RA SCT020 OVC060 03/01 Q1021 RERA NOSIG
ZHHH,2003-03-03 11:00,ZHHH 031100Z 04005MPS 010V070 9999 -RA SCT020 OVC060 03/01 Q1022 NOSIG
ZHHH,2003-03-03 12:00,ZHHH 031200Z 03006MPS 000V060 9999 SCT040 OVC070 03/00 Q1023 NOSIG
ZHHH,2003-03-03 13:00,ZHHH 031300Z 03005MPS 000V070 9999 -RA SCT030 OVC070 03/M01 Q1023 NOSIG
ZHHH,2003-03-03 15:00,ZHHH 031500Z 03006MPS 000V060 9999 SCT012 OVC060 03/M02 Q1024 NOSIG
ZHHH,2003-03-03 18:00,ZHHH 031800Z AUTO 02006KT 6SM 03/M03 RMK 60003 SLP239 T00321031 57004 IEM_DS3505
ZHHH,2003-03-03 20:00,ZHHH 032000Z 07004MPS CAVOK 02/M03 Q1022 NOSIG
ZHHH,2003-03-03 21:00,ZHHH 032100Z AUTO 04004KT 6SM 03/M02 RMK 70005 SLP227 T00291024 57013 IEM_DS3505
ZHHH,2003-03-03 22:00,ZHHH 032200Z 05005MPS CAVOK 02/M03 Q1022 NOSIG
ZHHH,2003-03-03 23:00,ZHHH 032300Z 06004MPS CAVOK 02/M03 Q1022 NOSIG
ZHHH,2003-03-04 00:00,ZHHH 040000Z 05005MPS CAVOK 03/M03 Q1022 NOSIG
ZHHH,2003-03-04 01:00,ZHHH 040100Z 06006MPS CAVOK 03/M03 Q1022 NOSIG
ZHHH,2003-03-04 02:00,ZHHH 040200Z 06006MPS 030V090 CAVOK 04/M04 Q1022 NOSIG
ZHHH,2003-03-04 03:00,ZHHH 040300Z 04004MPS 000V070 CAVOK 04/M03 Q1022 NOSIG
ZHHH,2003-03-04 04:00,ZHHH 040400Z 05005MPS 360V070 9999 SCT040 OVC060 04/M04 Q1022 NOSIG
ZHHH,2003-03-04 05:00,ZHHH 040500Z 04004MPS 360V070 CAVOK 04/M02 Q1021 NOSIG
ZHHH,2003-03-04 06:00,ZHHH 040600Z 04005MPS 360V070 CAVOK 05/M02 Q1020 NOSIG
ZHHH,2003-03-04 07:00,ZHHH 040700Z 03005MPS 360V070 CAVOK 04/M02 Q1019 NOSIG
ZHHH,2003-03-04 08:00,ZHHH 040800Z 03005MPS 9999 -RA NSC 04/M01 Q1018 NOSIG
ZHHH,2003-03-04 09:00,ZHHH 040900Z 04006MPS 010V070 9999 -RA FEW015 OVC060 03/M01 Q1018 NOSIG
ZHHH,2003-03-04 10:00,ZHHH 041000Z 03006MPS 9999 -RA SCT015 OVC050 02/M01 Q1019 NOSIG
ZHHH,2003-03-04 11:00,ZHHH 041100Z 03006MPS 010V070 5000 -RA SCT015 OVC050 01/00 Q1019 NOSIG
ZHHH,2003-03-04 12:00,ZHHH 041200Z 04006MPS 010V070 5000 BR FEW015 OVC050 01/00 Q1019 NOSIG
ZHHH,2003-03-04 13:00,ZHHH 041300Z 04006MPS 010V070 5000 BR FEW013 OVC050 01/00 Q1020 NOSIG
ZHHH,2003-03-04 14:00,ZHHH 041400Z 04005MPS 000V070 3000 -RA BR NSC 01/00 Q1020 NOSIG
ZHHH,2003-03-04 15:00,ZHHH 041500Z 03004MPS 360V060 3000 -RA BR FEW006 OVC046 01/00 Q1021 NOSIG
ZHHH,2003-03-04 16:00,ZHHH 041600Z 02004MPS 360V060 3000 -RA BR FEW006 OVC030 01/00 Q1021 NOSIG
ZHHH,2003-03-04 17:00,ZHHH 041700Z 02004MPS 350V060 3000 -RA BR FEW006 OVC030 01/00 Q1021 NOSIG
ZHHH,2003-03-04 18:00,ZHHH 041800Z 03004MPS 360V060 3000 BR OVC040 01/00 Q1020 NOSIG
ZHHH,2003-03-04 19:00,ZHHH 041900Z 04005MPS 3000 BR FEW010 OVC033 01/00 Q1019 NOSIG
ZHHH,2003-03-04 20:00,ZHHH 042000Z 04005MPS 010V070 3000 BR OVC033 01/00 Q1017 NOSIG
ZHHH,2003-03-04 21:00,ZHHH 042100Z 04004MPS 360V070 3000 BR OVC033 01/00 Q1018 NOSIG
ZHHH,2003-03-04 22:00,ZHHH 042200Z 01003MPS 3000 -RA BR SCT010 OVC033 01/00 Q1018 NOSIG
ZHHH,2003-03-04 23:00,ZHHH 042300Z 01002MPS 9999 -RA SCT010 OVC020 01/01 Q1019 NOSIG
ZHHH,2003-03-05 00:00,ZHHH 050000Z 35003MPS 320V020 5000 -RA SCT006 OVC020 01/01 Q1019 NOSIG
ZHHH,2003-03-05 01:00,ZHHH 050100Z 36003MPS 330V030 4000 -RA BR BKN006 OVC020 01/01 Q1020 NOSIG
ZHHH,2003-03-05 02:00,ZHHH 050200Z 35004MPS 320V020 3000 RA BR BKN005 OVC020 01/01 Q1021 NOSIG
ZHHH,2003-03-05 03:00,ZHHH 050300Z 35003MPS 310V030 3000 RA BR BKN005 OVC020 02/01 Q1021 NOSIG
ZHHH,2003-03-05 04:00,ZHHH 050400Z 01003MPS 340V050 3000 RA BR BKN004 OVC033 01/01 Q1021 NOSIG
ZHHH,2003-03-05 05:00,ZHHH 050500Z 01004MPS 340V050 6000 RA BKN004 OVC030 01/01 Q1021 REPL NOSIG
ZHHH,2003-03-05 06:00,ZHHH 050600Z 01004MPS 340V050 7000 -RA SCT004 OVC030 01/M00 Q1020 RERA NOSIG
ZHHH,2003-03-05 07:00,ZHHH 050700Z 02004MPS 340V050 9999 SCT006 OVC050 01/M01 Q1020 NOSIG
ZHHH,2003-03-05 08:00,ZHHH 050800Z 01005MPS 340V050 9999 SCT006 OVC050 01/M01 Q1020 NOSIG
ZHHH,2003-03-05 09:00,ZHHH 050900Z 01005MPS 340V040 9999 SCT006 SCT015 OVC050 01/M01 Q1020 NOSIG
ZHHH,2003-03-05 10:00,ZHHH 051000Z 01005MPS 340V040 9999 BKN010 OVC033 01/M01 Q1021 NOSIG
ZHHH,2003-03-05 11:00,ZHHH 051100Z 01004MPS 340V060 9999 BKN010 OVC020 01/M01 Q1022 NOSIG
ZHHH,2003-03-05 12:00,ZHHH 051200Z 01004MPS 340V050 9999 BKN010 OVC020 01/M01 Q1023 NOSIG
ZHHH,2003-03-05 13:00,ZHHH 051300Z AUTO 01008KT 7SM 01/M01 A3024 RMK T00101010 IEM_DS3505
ZHHH,2003-03-05 14:00,ZHHH 051400Z 36003MPS 330V040 9999 BKN010 OVC020 01/M01 Q1025 NOSIG
ZHHH,2003-03-05 15:00,ZHHH 051500Z 01005MPS 340V040 9999 BKN010 OVC020 01/M01 Q1025 NOSIG
ZHHH,2003-03-05 16:00,ZHHH 051600Z 35004MPS 320V020 9999 SCT010 OVC020 01/M01 Q1026 NOSIG
ZHHH,2003-03-05 17:00,ZHHH 051700Z 01004MPS 340V060 9999 SCT010 OVC020 01/M01 Q1027 NOSIG
ZHHH,2003-03-05 18:00,ZHHH 051800Z 01004MPS 330V050 9999 SCT010 OVC020 01/M02 Q1026 NOSIG
ZHHH,2003-03-05 19:00,ZHHH 051900Z 02005MPS 360V070 9999 SCT010 OVC020 01/M02 Q1026 NOSIG
ZHHH,2003-03-05 20:00,ZHHH 052000Z 02004MPS 340V070 9999 SCT010 OVC030 00/M02 Q1025 NOSIG
ZHHH,2003-03-05 21:00,ZHHH 052100Z 02003MPS 340V060 9999 SCT010 OVC030 01/M01 Q1026 NOSIG
ZHHH,2003-03-05 22:00,ZHHH 052200Z 35003MPS 320V040 6000 SCT010 OVC030 00/M01 Q1026 NOSIG
ZHHH,2003-03-05 23:00,ZHHH 052300Z AUTO 36008KT 4SM 01/M01 A3030 RMK T00101010 IEM_DS3505
ZHHH,2003-03-06 00:00,ZHHH 060000Z 36003MPS 330V030 4000 BR BKN010 OVC030 01/M01 Q1027 NOSIG
ZHHH,2003-03-06 01:00,ZHHH 060100Z 34004MPS 310V020 2500 BR SCT010 OVC040 01/M01 Q1028 NOSIG
ZHHH,2003-03-06 02:00,ZHHH 060200Z 35005MPS 300V020 3000 BR SCT015 OVC040 01/M01 Q1028 NOSIG
ZHHH,2003-03-06 03:00,ZHHH 060300Z 34003MPS 320V020 3000 BR SCT015 OVC060 02/M01 Q1028 NOSIG
ZHHH,2003-03-06 04:00,ZHHH 060400Z 36003MPS 320V030 3000 BR SCT010 OVC050 03/M00 Q1027 NOSIG
ZHHH,2003-03-06 05:00,ZHHH 060500Z 35003MPS 290V090 4000 BR SCT011 OVC050 04/M01 Q1026 NOSIG
ZHHH,2003-03-06 06:00,ZHHH 060600Z 28002MPS 9999 FEW014 SCT020 05/00 Q1025 NOSIG
ZHHH,2003-03-06 07:00,ZHHH 060700Z 30003MPS 250V360 9999 FEW015 06/M00 Q1025 NOSIG
ZHHH,2003-03-06 08:00,ZHHH 060800Z 29002MPS CAVOK 06/00 Q1025 NOSIG
ZHHH,2003-03-06 09:00,ZHHH 060900Z 25001MPS CAVOK 06/00 Q1025 NOSIG
ZHHH,2003-03-06 10:00,ZHHH 061000Z 29002MPS CAVOK 06/M01 Q1025 NOSIG
ZHHH,2003-03-06 11:00,ZHHH 061100Z 28002MPS CAVOK 05/00 Q1025 NOSIG
ZHHH,2003-03-06 12:00,ZHHH 061200Z 21001MPS CAVOK 04/01 Q1026 NOSIG
ZHHH,2003-03-06 13:00,ZHHH 061300Z 23002MPS CAVOK 04/01 Q1026 NOSIG
ZHHH,2003-03-06 14:00,ZHHH 061400Z 23003MPS 6000 SKC 04/01 Q1027 NOSIG
ZHHH,2003-03-06 15:00,ZHHH 061500Z 24003MPS 5000 BR SKC 03/01 Q1028 NOSIG
ZHHH,2003-03-06 16:00,ZHHH 061600Z 26002MPS 5000 BR SKC 03/01 Q1028 NOSIG
ZHHH,2003-03-06 17:00,ZHHH 061700Z 29002MPS 3000 BR SKC 02/01 Q1028 NOSIG
ZHHH,2003-03-06 18:00,ZHHH 061800Z 22001MPS 3000 BR SKC 02/01 Q1027 NOSIG
ZHHH,2003-03-06 19:00,ZHHH 061900Z 25001MPS 3000 BR SKC 02/01 Q1027 NOSIG
ZHHH,2003-03-06 20:00,ZHHH 062000Z 24001MPS 3000 BR SKC 01/00 Q1026 NOSIG
ZHHH,2003-03-06 21:00,ZHHH 062100Z 23002MPS 2500 BR SKC 01/00 Q1026 NOSIG
ZHHH,2003-03-06 22:00,ZHHH 062200Z 24002MPS 3000 BR SKC 01/00 Q1026 NOSIG
ZHHH,2003-03-06 23:00,ZHHH 062300Z 28002MPS 1600 BR SKC 01/00 Q1028 NOSIG
ZHHH,2003-03-07 00:00,ZHHH 070000Z 29002MPS 1600 BR SKC 02/01 Q1029 NOSIG
ZHHH,2003-03-07 01:00,ZHHH 070100Z 26002MPS 2500 BR SKC 03/01 Q1029 NOSIG
ZHHH,2003-03-07 02:00,ZHHH 070200Z 30002MPS 3000 BR SKC 04/02 Q1029 NOSIG
ZHHH,2003-03-07 03:00,ZHHH 070300Z 32001MPS 3000 BR SKC 07/03 Q1029 NOSIG
ZHHH,2003-03-07 04:00,ZHHH 070400Z 29002MPS 9999 FEW020 09/03 Q1028 NOSIG
ZHHH,2003-03-07 05:00,ZHHH 070500Z 25002MPS CAVOK 11/03 Q1027 NOSIG
ZHHH,2003-03-07 06:00,ZHHH 070600Z 27002MPS CAVOK 12/02 Q1026 NOSIG
ZHHH,2003-03-07 07:00,ZHHH 070700Z 30002MPS CAVOK 13/02 Q1025 NOSIG
ZHHH,2003-03-07 08:00,ZHHH 070800Z 35002MPS CAVOK 14/02 Q1025 NOSIG
ZHHH,2003-03-07 09:00,ZHHH 070900Z 32002MPS CAVOK 13/02 Q1025 NOSIG
ZHHH,2003-03-07 10:00,ZHHH 071000Z 00000MPS CAVOK 12/01 Q1025 NOSIG
ZHHH,2003-03-07 11:00,ZHHH 071100Z 00000MPS CAVOK 11/01 Q1025 NOSIG
ZHHH,2003-03-07 12:00,ZHHH 071200Z 04001MPS CAVOK 11/03 Q1026 NOSIG
ZHHH,2003-03-07 13:00,ZHHH 071300Z 06002MPS CAVOK 10/02 Q1027 NOSIG
ZHHH,2003-03-07 14:00,ZHHH 071400Z 08002MPS CAVOK 09/02 Q1027 NOSIG
ZHHH,2003-03-07 15:00,ZHHH 071500Z 27002MPS CAVOK 07/05 Q1028 NOSIG
ZHHH,2003-03-07 16:00,ZHHH 071600Z 28001MPS 6000 NSC 07/05 Q1028 NOSIG
ZHHH,2003-03-07 17:00,ZHHH 071700Z 28001MPS 6000 NSC 06/04 Q1028 NOSIG
ZHHH,2003-03-07 18:00,ZHHH 071800Z 30002MPS 6000 NSC 06/04 Q1028 NOSIG
ZHHH,2003-03-07 19:00,ZHHH 071900Z 35001MPS 3000 BR SKC 05/04 Q1027 NOSIG
ZHHH,2003-03-07 20:00,ZHHH 072000Z 33002MPS 3000 BR SKC 05/04 Q1027 NOSIG
ZHHH,2003-03-07 21:00,ZHHH 072100Z 34001MPS 3000 BR SKC 04/03 Q1028 NOSIG
ZHHH,2003-03-07 22:00,ZHHH 072200Z 00000MPS 3000 BR SKC 05/02 Q1028 NOSIG
ZHHH,2003-03-07 23:00,ZHHH 072300Z 00000MPS 5000 BR SKC 04/01 Q1029 NOSIG
ZHHH,2003-03-08 00:00,ZHHH 080000Z 13001MPS 5000 BR SKC 05/03 Q1030 NOSIG
ZHHH,2003-03-08 01:00,ZHHH 080100Z 13002MPS 5000 BR SKC 07/04 Q1030 NOSIG
ZHHH,2003-03-08 02:00,ZHHH 080200Z 10002MPS CAVOK 09/03 Q1031 NOSIG
ZHHH,2003-03-08 03:00,ZHHH 080300Z 11002MPS CAVOK 11/03 Q1030 NOSIG
ZHHH,2003-03-08 04:00,ZHHH 080400Z 12002MPS CAVOK 12/03 Q1030 NOSIG
ZHHH,2003-03-08 05:00,ZHHH 080500Z 12002MPS CAVOK 13/00 Q1029 NOSIG
ZHHH,2003-03-08 06:00,ZHHH 080600Z 15002MPS CAVOK 14/M03 Q1028 NOSIG
ZHHH,2003-03-08 07:00,ZHHH 080700Z 12002MPS CAVOK 14/M04 Q1028 NOSIG
ZHHH,2003-03-08 08:00,ZHHH 080800Z 12002MPS CAVOK 14/M00 Q1027 NOSIG
ZHHH,2003-03-08 09:00,ZHHH 080900Z 16001MPS CAVOK 14/M02 Q1027 NOSIG
ZHHH,2003-03-08 10:00,ZHHH 081000Z 00000MPS CAVOK 13/M02 Q1027 NOSIG
ZHHH,2003-03-08 11:00,ZHHH 081100Z 00000MPS CAVOK 12/M00 Q1027 NOSIG
ZHHH,2003-03-08 12:00,ZHHH 081200Z 02001MPS CAVOK 12/01 Q1027 NOSIG
ZHHH,2003-03-08 13:00,ZHHH 081300Z 02002MPS CAVOK 11/00 Q1028 NOSIG
ZHHH,2003-03-08 14:00,ZHHH 081400Z 17001MPS CAVOK 10/03 Q1029 NOSIG
ZHHH,2003-03-08 15:00,ZHHH 081500Z 00000MPS CAVOK 10/02 Q1029 NOSIG
ZHHH,2003-03-08 16:00,ZHHH 081600Z 11001MPS CAVOK 10/02 Q1029 NOSIG
ZHHH,2003-03-08 17:00,ZHHH 081700Z 11002MPS CAVOK 09/05 Q1029 NOSIG
ZHHH,2003-03-08 18:00,ZHHH 081800Z 10001MPS CAVOK 08/03 Q1029 NOSIG
ZHHH,2003-03-08 19:00,ZHHH 081900Z 09001MPS CAVOK 08/03 Q1028 NOSIG
ZHHH,2003-03-08 20:00,ZHHH 082000Z 09002MPS CAVOK 07/04 Q1027 NOSIG
ZHHH,2003-03-08 21:00,ZHHH 082100Z 08004MPS CAVOK 06/04 Q1027 NOSIG
ZHHH,2003-03-08 22:00,ZHHH 082200Z 07004MPS CAVOK 06/03 Q1028 NOSIG
ZHHH,2003-03-08 23:00,ZHHH 082300Z 08003MPS CAVOK 06/04 Q1028 NOSIG
ZHHH,2003-03-09 00:00,ZHHH 090000Z 05002MPS CAVOK 07/04 Q1029 NOSIG
ZHHH,2003-03-09 01:00,ZHHH 090100Z 08004MPS CAVOK 09/04 Q1030 NOSIG
ZHHH,2003-03-09 02:00,ZHHH 090200Z 12003MPS 070V150 CAVOK 10/04 Q1030 NOSIG
ZHHH,2003-03-09 03:00,ZHHH 090300Z 13002MPS CAVOK 10/05 Q1030 NOSIG
ZHHH,2003-03-09 04:00,ZHHH 090400Z 11001MPS CAVOK 11/04 Q1030 NOSIG
ZHHH,2003-03-09 05:00,ZHHH 090500Z 00000MPS CAVOK 12/03 Q1029 NOSIG
ZHHH,2003-03-09 06:00,ZHHH 090600Z 12002MPS CAVOK 12/02 Q1028 NOSIG
ZHHH,2003-03-09 07:00,ZHHH 090700Z 11002MPS CAVOK 12/M01 Q1027 NOSIG
ZHHH,2003-03-09 08:00,ZHHH 090800Z 12002MPS CAVOK 12/01 Q1027 NOSIG
ZHHH,2003-03-09 09:00,ZHHH 090900Z 12002MPS CAVOK 13/01 Q1026 NOSIG
ZHHH,2003-03-09 10:00,ZHHH 091000Z 14001MPS CAVOK 12/02 Q1026 NOSIG
ZHHH,2003-03-09 11:00,ZHHH 091100Z 12001MPS CAVOK 11/03 Q1027 NOSIG
ZHHH,2003-03-09 12:00,ZHHH 091200Z 13001MPS CAVOK 10/03 Q1027 NOSIG
ZHHH,2003-03-09 13:00,ZHHH 091300Z 16001MPS CAVOK 10/02 Q1027 NOSIG
ZHHH,2003-03-09 14:00,ZHHH 091400Z 17002MPS CAVOK 10/02 Q1028 NOSIG
ZHHH,2003-03-09 15:00,ZHHH 091500Z 00000MPS CAVOK 09/02 Q1028 NOSIG
ZHHH,2003-03-09 16:00,ZHHH 091600Z 00000MPS CAVOK 07/03 Q1028 NOSIG
ZHHH,2003-03-09 17:00,ZHHH 091700Z 03002MPS CAVOK 07/04 Q1028 NOSIG
ZHHH,2003-03-09 18:00,ZHHH 091800Z 07003MPS CAVOK 06/03 Q1028 NOSIG
ZHHH,2003-03-09 19:00,ZHHH 091900Z 08003MPS CAVOK 06/02 Q1028 NOSIG
ZHHH,2003-03-09 20:00,ZHHH 092000Z 10003MPS CAVOK 06/02 Q1027 NOSIG
ZHHH,2003-03-09 21:00,ZHHH 092100Z 11003MPS 5000 BR SKC 05/03 Q1027 NOSIG
ZHHH,2003-03-09 22:00,ZHHH 092200Z 12003MPS 5000 BR SKC 05/03 Q1027 NOSIG
ZHHH,2003-03-09 23:00,ZHHH 092300Z 12003MPS 2100 BR SKC 05/03 Q1027 NOSIG
ZHHH,2003-03-10 00:00,ZHHH 100000Z 11003MPS 2400 BR SKC 05/03 Q1028 NOSIG
ZHHH,2003-03-10 01:00,ZHHH 100100Z 12002MPS 2000 BR SKC 07/04 Q1028 NOSIG
ZHHH,2003-03-10 02:00,ZHHH 100200Z 12003MPS 070V160 4000 HZ SKC 09/05 Q1028 NOSIG
ZHHH,2003-03-10 03:00,ZHHH 100300Z 13004MPS 080V160 2000 HZ SKC 12/05 Q1028 NOSIG
ZHHH,2003-03-10 04:00,ZHHH 100400Z 13004MPS 100V170 CAVOK 14/03 Q1028 NOSIG
ZHHH,2003-03-10 05:00,ZHHH 100500Z 17004MPS 120V200 CAVOK 15/02 Q1027 NOSIG
ZHHH,2003-03-10 06:00,ZHHH 100600Z 13005MPS 100V160 CAVOK 15/02 Q1026 NOSIG
ZHHH,2003-03-10 07:00,ZHHH 100700Z 15004MPS 100V180 CAVOK 16/00 Q1025 NOSIG
ZHHH,2003-03-10 08:00,ZHHH 100800Z 14004MPS 110V180 CAVOK 16/02 Q1025 NOSIG
ZHHH,2003-03-10 09:00,ZHHH 100900Z 12004MPS CAVOK 16/02 Q1025 NOSIG
ZHHH,2003-03-10 10:00,ZHHH 101000Z 10004MPS 070V130 CAVOK 14/04 Q1024 NOSIG
ZHHH,2003-03-10 11:00,ZHHH 101100Z 10003MPS CAVOK 13/04 Q1024 NOSIG
ZHHH,2003-03-10 12:00,ZHHH 101200Z 11003MPS CAVOK 12/04 Q1024 NOSIG
ZHHH,2003-03-10 13:00,ZHHH 101300Z 12004MPS CAVOK 11/05 Q1024 NOSIG
ZHHH,2003-03-10 14:00,ZHHH 101400Z 12004MPS CAVOK 10/04 Q1024 NOSIG
ZHHH,2003-03-10 15:00,ZHHH 101500Z 12005MPS CAVOK 11/04 Q1024 NOSIG
ZHHH,2003-03-10 16:00,ZHHH 101600Z 12004MPS CAVOK 10/04 Q1024 NOSIG
ZHHH,2003-03-10 17:00,ZHHH 101700Z 08004MPS CAVOK 09/04 Q1024 NOSIG
ZHHH,2003-03-10 18:00,ZHHH 101800Z 09004MPS CAVOK 08/04 Q1024 NOSIG
ZHHH,2003-03-10 19:00,ZHHH 101900Z 09003MPS CAVOK 09/03 Q1024 NOSIG
ZHHH,2003-03-10 20:00,ZHHH 102000Z 10004MPS CAVOK 09/03 Q1024 NOSIG
ZHHH,2003-03-10 21:00,ZHHH 102100Z 10004MPS CAVOK 09/04 Q1024 NOSIG
ZHHH,2003-03-10 22:00,ZHHH 102200Z 09005MPS CAVOK 08/05 Q1024 NOSIG
ZHHH,2003-03-10 23:00,ZHHH 102300Z 10006MPS CAVOK 08/04 Q1024 NOSIG
ZHHH,2003-03-11 00:00,ZHHH 110000Z 08004MPS 7000 NSC 08/05 Q1025 NOSIG
ZHHH,2003-03-11 01:00,ZHHH 110100Z 09003MPS 5000 BR NSC 08/05 Q1025 NOSIG
ZHHH,2003-03-11 02:00,ZHHH 110200Z 08002MPS 5000 BR NSC 09/05 Q1026 NOSIG
ZHHH,2003-03-11 03:00,ZHHH 110300Z 11003MPS 060V140 5000 BR NSC 10/06 Q1026 NOSIG
ZHHH,2003-03-11 04:00,ZHHH 110400Z 14004MPS 110V180 4000 -RA BR FEW010 OVC080 11/07 Q1026 NOSIG
ZHHH,2003-03-11 05:00,ZHHH 110500Z 15003MPS 120V180 5000 HZ NSC 10/05 Q1025 NOSIG
ZHHH,2003-03-11 06:00,ZHHH 110600Z 15003MPS 100V180 5000 -RA BR FEW010 OVC070 10/07 Q1024 NOSIG
ZHHH,2003-03-11 07:00,ZHHH 110700Z 11001MPS 4000 -RA BR NSC 10/06 Q1025 NOSIG
ZHHH,2003-03-11 08:00,ZHHH 110800Z 05002MPS 3000 -RA BR FEW006 OVC050 10/07 Q1025 NOSIG
ZHHH,2003-03-11 09:00,ZHHH 110900Z 08003MPS 2500 -RA BR NSC 09/07 Q1025 NOSIG
ZHHH,2003-03-11 10:00,ZHHH 111000Z 08003MPS 2500 -RA BR NSC 09/07 Q1026 NOSIG
ZHHH,2003-03-11 11:00,ZHHH 111100Z 06002MPS 3000 -RA BR NSC 09/07 Q1026 NOSIG
ZHHH,2003-03-11 12:00,ZHHH 111200Z 05002MPS 3000 -RA BR SCT033 OVC050 09/07 Q1027 NOSIG
ZHHH,2003-03-11 13:00,ZHHH 111300Z 03003MPS 000V070 2200 -RA BR SCT010 OVC033 09/07 Q1028 NOSIG
ZHHH,2003-03-11 14:00,ZHHH 111400Z 04003MPS 000V070 2000 BR SCT010 OVC033 09/08 Q1028 NOSIG
ZHHH,2003-03-11 15:00,ZHHH 111500Z 04002MPS 2000 BR SCT010 OVC033 09/08 Q1029 NOSIG
ZHHH,2003-03-11 16:00,ZHHH 111600Z 02001MPS 2000 BR SCT010 OVC033 09/08 Q1028 NOSIG
ZHHH,2003-03-11 17:00,ZHHH 111700Z 36001MPS 1500 BR SCT010 OVC033 08/08 Q1028 NOSIG
ZHHH,2003-03-11 18:00,ZHHH 111800Z 34002MPS 1500 BR SCT010 OVC033 08/07 Q1028 NOSIG
ZHHH,2003-03-11 19:00,ZHHH 111900Z 36002MPS 1500 BR SCT010 OVC033 08/08 Q1028 NOSIG
ZHHH,2003-03-11 20:00,ZHHH 112000Z 02003MPS 1500 BR SCT010 OVC033 08/08 Q1027 NOSIG
ZHHH,2003-03-11 21:00,ZHHH 112100Z 02002MPS 1500 BR SCT010 OVC033 08/07 Q1028 NOSIG
ZHHH,2003-03-11 22:00,ZHHH 112200Z 03003MPS 340V060 1500 BR SCT010 OVC033 08/07 Q1028 NOSIG
ZHHH,2003-03-11 23:00,ZHHH 112300Z 05003MPS 1500 BR SCT010 OVC033 08/07 Q1029 NOSIG
ZHHH,2003-03-12 00:00,ZHHH 120000Z 03004MPS 1500 BR NSC 08/07 Q1029 NOSIG
ZHHH,2003-03-12 01:00,ZHHH 120100Z 03003MPS 340V060 1600 BR NSC 09/07 Q1030 NOSIG
ZHHH,2003-03-12 02:00,ZHHH 120200Z 02003MPS 1700 BR SCT026 OVC060 09/07 Q1030 NOSIG
ZHHH,2003-03-12 03:00,ZHHH 120300Z 03003MPS 360V060 1800 BR SCT030 OVC060 09/07 Q1030 NOSIG
ZHHH,2003-03-12 04:00,ZHHH 120400Z 02003MPS 2500 BR NSC 10/07 Q1030 NOSIG
ZHHH,2003-03-12 05:00,ZHHH 120500Z 02003MPS 360V060 2000 -RA BR FEW010 OVC080 10/08 Q1030 NOSIG
ZHHH,2003-03-12 06:00,ZHHH 120600Z 04004MPS 000V070 1800 -RA BR FEW008 OVC066 10/08 Q1029 NOSIG
ZHHH,2003-03-12 07:00,ZHHH 120700Z 05005MPS 000V070 1600 -RA BR FEW006 OVC050 10/08 Q1029 NOSIG
ZHHH,2003-03-12 08:00,ZHHH 120800Z 04004MPS 010V070 1600 BR FEW006 OVC050 10/08 Q1029 NOSIG
ZHHH,2003-03-12 09:00,ZHHH 120900Z 05004MPS 010V070 1800 BR NSC 10/08 Q1029 NOSIG
ZHHH,2003-03-12 10:00,ZHHH 121000Z 04003MPS 360V070 2000 BR NSC 10/08 Q1029 NOSIG
ZHHH,2003-03-12 11:00,ZHHH 121100Z 05002MPS 2000 BR NSC 10/07 Q1030 NOSIG
ZHHH,2003-03-12 12:00,ZHHH 121200Z 01001MPS 2500 BR NSC 09/08 Q1030 NOSIG
ZHHH,2003-03-12 13:00,ZHHH 121300Z 03002MPS 2100 BR NSC 09/08 Q1031 NOSIG
ZHHH,2003-03-12 14:00,ZHHH 121400Z 04003MPS 010V070 2300 BR NSC 09/07 Q1031 NOSIG
ZHHH,2003-03-12 15:00,ZHHH 121500Z 04003MPS 2400 BR NSC 09/07 Q1031 NOSIG
ZHHH,2003-03-12 16:00,ZHHH 121600Z 02001MPS 2100 BR NSC 09/07 Q1032 NOSIG
ZHHH,2003-03-12 17:00,ZHHH 121700Z 36002MPS 2500 BR NSC 09/07 Q1031 NOSIG
ZHHH,2003-03-12 18:00,ZHHH 121800Z 36001MPS 2000 BR NSC 08/07 Q1030 NOSIG
ZHHH,2003-03-12 19:00,ZHHH 121900Z 03002MPS 2000 BR NSC 08/07 Q1030 NOSIG
ZHHH,2003-03-12 20:00,ZHHH 122000Z 03003MPS 1800 BR NSC 08/07 Q1030 NOSIG
ZHHH,2003-03-12 21:00,ZHHH 122100Z 03003MPS 000V060 1800 BR NSC 08/07 Q1030 NOSIG
ZHHH,2003-03-12 22:00,ZHHH 122200Z 03003MPS 360V070 1800 BR NSC 08/07 Q1030 NOSIG
ZHHH,2003-03-12 23:00,ZHHH 122300Z 04003MPS 010V070 1600 BR NSC 08/06 Q1031 NOSIG
ZHHH,2003-03-13 00:00,ZHHH 130000Z 04002MPS 1600 BR NSC 08/06 Q1031 NOSIG
ZHHH,2003-03-13 01:00,ZHHH 130100Z 05004MPS 020V080 2500 BR NSC 09/07 Q1031 NOSIG
ZHHH,2003-03-13 02:00,ZHHH 130200Z 03003MPS 350V060 3000 BR NSC 11/08 Q1031 NOSIG
ZHHH,2003-03-13 03:00,ZHHH 130300Z 02002MPS 3000 BR SCT033 OVC050 11/08 Q1031 NOSIG
ZHHH,2003-03-13 04:00,ZHHH 130400Z 02002MPS 2500 BR NSC 11/08 Q1031 NOSIG
ZHHH,2003-03-13 05:00,ZHHH 130500Z 03002MPS 2100 BR NSC 11/08 Q1029 NOSIG
ZHHH,2003-03-13 06:00,ZHHH 130600Z 04003MPS 3000 -RA BR NSC 11/08 Q1028 NOSIG
ZHHH,2003-03-13 07:00,ZHHH 130700Z 03001MPS 2600 -RA BR FEW010 OVC050 11/09 Q1027 NOSIG
ZHHH,2003-03-13 08:00,ZHHH 130800Z 01001MPS 3000 BR NSC 11/09 Q1027 NOSIG
ZHHH,2003-03-13 09:00,ZHHH 130900Z 01001MPS 2400 -RA BR SCT040 OVC060 10/09 Q1027 NOSIG
ZHHH,2003-03-13 10:00,ZHHH 131000Z 35002MPS 3000 -RA BR BKN020 OVC060 10/09 Q1026 NOSIG
ZHHH,2003-03-13 11:00,ZHHH 131100Z 04003MPS 010V070 2500 -RA BR BKN020 OVC060 09/09 Q1026 NOSIG
ZHHH,2003-03-13 12:00,ZHHH 131200Z 04003MPS 2500 -RA BR SCT010 OVC020 09/08 Q1026 NOSIG
ZHHH,2003-03-13 13:00,ZHHH 131300Z 03002MPS 2500 -RA BR SCT010 OVC020 09/08 Q1027 NOSIG
ZHHH,2003-03-13 14:00,ZHHH 131400Z 05002MPS 2000 -RA BR SCT010 OVC020 09/08 Q1026 NOSIG
ZHHH,2003-03-13 15:00,ZHHH 131500Z 01001MPS 2000 -RA BR SCT010 OVC020 09/08 Q1026 NOSIG
ZHHH,2003-03-13 16:00,ZHHH 131600Z 04001MPS 1600 -RA BR SCT003 SCT010 OVC020 09/08 Q1025 NOSIG
ZHHH,2003-03-13 17:00,ZHHH 131700Z 05001MPS 1600 -RA BR SCT003 SCT010 OVC020 09/09 Q1025 NOSIG
ZHHH,2003-03-13 18:00,ZHHH 131800Z 08002MPS 1600 -RA BR SCT003 SCT010 OVC020 09/09 Q1024 NOSIG
ZHHH,2003-03-13 19:00,ZHHH 131900Z 11001MPS 1600 -RA BR SCT010 OVC030 09/09 Q1023 NOSIG
ZHHH,2003-03-13 21:00,ZHHH 132100Z 07002MPS 1700 -RA BR SCT010 OVC030 09/09 Q1021 NOSIG
ZHHH,2003-03-13 22:00,ZHHH 132200Z AUTO 09004KT 1SM 09/09 A3015 RMK T00900090 IEM_DS3505
ZHHH,2003-03-13 23:00,ZHHH 132300Z 09002MPS 1600 -RA BR SCT010 OVC030 09/09 Q1021 NOSIG
ZHHH,2003-03-14 00:00,ZHHH 140000Z 09002MPS 1600 -RA BR FEW010 OVC030 09/09 Q1020 NOSIG
ZHHH,2003-03-14 01:00,ZHHH 140100Z 05002MPS 1200 R04/1200N -RA BR SCT007 OVC030 09/09 Q1020 NOSIG
ZHHH,2003-03-14 02:00,ZHHH 140200Z 06002MPS 1200 R04/1200V1800D -RA BR SCT007 OVC030 09/09 Q1021 NOSIG
ZHHH,2003-03-14 03:00,ZHHH 140300Z 07002MPS 1600 -RA BR SCT007 OVC030 09/09 Q1020 NOSIG
ZHHH,2003-03-14 04:00,ZHHH 140400Z 04002MPS 1600 -RA BR SCT005 OVC030 09/09 Q1020 NOSIG
ZHHH,2003-03-14 05:00,ZHHH 140500Z 05002MPS 2200 -RA BR FEW004 OVC030 09/09 Q1019 NOSIG
ZHHH,2003-03-14 06:00,ZHHH 140600Z 06001MPS 2500 -RA BR SCT004 OVC030 09/09 Q1018 NOSIG
ZHHH,2003-03-14 07:00,ZHHH 140700Z 08001MPS 2500 -RA BR SCT003 SCT007 OVC030 09/09 Q1018 NOSIG
ZHHH,2003-03-14 08:00,ZHHH 140800Z 05001MPS 2500 -RA BR SCT003 SCT007 OVC030 09/09 Q1018 NOSIG
ZHHH,2003-03-14 09:00,ZHHH 140900Z 04002MPS 9999 -RA SCT003 SCT010 OVC033 09/09 Q1018 NOSIG
ZHHH,2003-03-14 10:00,ZHHH 141000Z 05003MPS 5000 -RA SCT003 SCT010 OVC033 09/09 Q1018 NOSIG
ZHHH,2003-03-14 11:00,ZHHH 141100Z 04004MPS 5000 -RA SCT003 OVC033 08/08 Q1019 NOSIG
ZHHH,2003-03-14 12:00,ZHHH 141200Z 03004MPS 000V070 5000 -RA SCT003 OVC033 08/07 Q1020 NOSIG
ZHHH,2003-03-14 13:00,ZHHH 141300Z 04005MPS 000V070 4000 -RA SCT003 OVC033 07/07 Q1020 NOSIG
ZHHH,2003-03-14 14:00,ZHHH 141400Z 03004MPS 000V060 6000 -RA SCT003 OVC033 07/07 Q1021 NOSIG
ZHHH,2003-03-14 15:00,ZHHH 141500Z 03004MPS 000V100 6000 -RA SCT003 OVC033 06/06 Q1020 NOSIG
ZHHH,2003-03-14 16:00,ZHHH 141600Z 02003MPS 340V060 6000 -RA SCT003 SCT010 OVC033 06/06 Q1021 NOSIG
ZHHH,2003-03-14 17:00,ZHHH 141700Z 02002MPS 9999 SCT003 SCT010 OVC033 06/05 Q1020 NOSIG
ZHHH,2003-03-14 18:00,ZHHH 141800Z 04004MPS 010V080 9999 SCT010 OVC033 06/05 Q1019 NOSIG
ZHHH,2003-03-14 19:00,ZHHH 141900Z 03004MPS 340V080 9999 SCT010 OVC033 05/05 Q1018 NOSIG
ZHHH,2003-03-14 20:00,ZHHH 142000Z 02003MPS 9999 -RA SCT010 OVC033 05/05 Q1019 NOSIG
ZHHH,2003-03-14 21:00,ZHHH 142100Z 04004MPS 000V070 9999 SCT010 OVC033 05/04 Q1018 NOSIG
ZHHH,2003-03-14 22:00,ZHHH 142200Z 03004MPS 000V060 9999 -RA SCT010 OVC033 05/05 Q1018 NOSIG
ZHHH,2003-03-14 23:00,ZHHH 142300Z 03003MPS 360V060 9999 -RA SCT010 OVC033 05/05 Q1018 NOSIG
ZHHH,2003-03-15 00:00,ZHHH 150000Z 04004MPS 350V070 9999 -RA SCT008 SCT020 OVC033 05/04 Q1018 NOSIG
ZHHH,2003-03-15 01:00,ZHHH 150100Z 03003MPS 000V070 9999 SCT010 SCT030 OVC050 05/05 Q1019 NOSIG
ZHHH,2003-03-15 02:00,ZHHH 150200Z 03003MPS 360V070 9999 SCT010 OVC033 05/05 Q1019 NOSIG
ZHHH,2003-03-15 03:00,ZHHH 150300Z 03003MPS 9999 -DZ SCT010 OVC025 06/05 Q1019 NOSIG
ZHHH,2003-03-15 04:00,ZHHH 150400Z 03003MPS 000V070 9999 -DZ SCT004 SCT007 OVC030 06/05 Q1018 NOSIG
ZHHH,2003-03-15 05:00,ZHHH 150500Z 04003MPS 000V070 3000 -DZ BR SCT003 SCT005 OVC030 06/06 Q1017 NOSIG
ZHHH,2003-03-15 06:00,ZHHH 150600Z 04004MPS 010V070 3000 -DZ BR SCT004 SCT006 OVC033 06/06 Q1016 NOSIG
ZHHH,2003-03-15 07:00,ZHHH 150700Z 04003MPS 010V070 3000 -DZ BR SCT003 SCT005 OVC030 06/06 Q1015 NOSIG
ZHHH,2003-03-15 08:00,ZHHH 150800Z 04004MPS 010V070 1900 -RA BR SCT003 SCT005 OVC030 06/06 Q1014 NOSIG
ZHHH,2003-03-15 09:00,ZHHH 150900Z 05004MPS 3000 RA BR SCT003 SCT005 OVC030 06/06 Q1014 NOSIG
ZHHH,2003-03-15 10:00,ZHHH 151000Z 06003MPS 4000 -RA FEW004 SCT007 OVC030 06/06 Q1014 NOSIG
ZHHH,2003-03-15 11:00,ZHHH 151100Z 03002MPS 4000 -TSRA SCT004 SCT007 SCT025CB OVC030 06/06 Q1015 NOSIG
ZHHH,2003-03-15 12:00,ZHHH 151200Z 01002MPS 4000 -TSRA SCT003 SCT006 FEW020CB OVC030 06/06 Q1015 NOSIG
ZHHH,2003-03-15 13:00,ZHHH 151300Z 02002MPS 4000 -TSRA SCT005 SCT020CB OVC025 06/06 Q1015 NOSIG
ZHHH,2003-03-15 14:00,ZHHH 151400Z 36002MPS 9999 -TSRA SCT005 SCT020CB OVC025 06/06 Q1015 NOSIG
ZHHH,2003-03-15 15:00,ZHHH 151500Z 36002MPS 6000 TSRA SCT003 BKN020CB OVC025 06/06 Q1016 NOSIG
ZHHH,2003-03-15 16:00,ZHHH 151600Z 01001MPS 9999 SCT005 SCT007 OVC030 06/06 Q1016 NOSIG
ZHHH,2003-03-15 17:00,ZHHH 151700Z 33004MPS 310V010 5000 -RA SCT005 SCT007 OVC030 06/06 Q1016 NOSIG
ZHHH,2003-03-15 18:00,ZHHH 151800Z 36003MPS 310V030 5000 -RA SCT005 SCT007 OVC030 06/06 Q1016 NOSIG
ZHHH,2003-03-15 19:00,ZHHH 151900Z 02002MPS 9999 -RA SCT004 SCT006 OVC026 06/06 Q1016 NOSIG
ZHHH,2003-03-15 20:00,ZHHH 152000Z 02002MPS 9999 FEW005 SCT015 OVC030 06/06 Q1016 NOSIG
ZHHH,2003-03-15 21:00,ZHHH 152100Z 04003MPS 010V070 9999 SCT018 OVC033 06/06 Q1016 NOSIG
ZHHH,2003-03-15 22:00,ZHHH 152200Z 03002MPS 9999 SCT020 OVC033 06/06 Q1017 NOSIG
ZHHH,2003-03-15 23:00,ZHHH 152300Z 04002MPS 9999 FEW020 OVC050 06/05 Q1018 NOSIG
ZHHH,2003-03-16 00:00,ZHHH 160000Z 04003MPS 010V070 9999 FEW020 OVC050 06/05 Q1018 NOSIG
ZHHH,2003-03-16 01:00,ZHHH 160100Z 02003MPS 340V060 9999 FEW020 OVC070 06/05 Q1019 NOSIG
ZHHH,2003-03-16 02:00,ZHHH 160200Z 03004MPS 350V060 9999 FEW020 SCT060 OVC100 07/06 Q1020 NOSIG
ZHHH,2003-03-16 03:00,ZHHH 160300Z 01004MPS 340V070 9999 SCT018 OVC060 07/05 Q1020 NOSIG
ZHHH,2003-03-16 04:00,ZHHH 160400Z 01004MPS 340V050 9999 SCT010 OVC020 07/05 Q1020 NOSIG
ZHHH,2003-03-16 05:00,ZHHH 160500Z 02004MPS 360V060 9999 SCT010 OVC020 07/05 Q1020 NOSIG
ZHHH,2003-03-16 06:00,ZHHH 160600Z 03004MPS 340V070 9999 FEW010 OVC020 07/05 Q1020 NOSIG
ZHHH,2003-03-16 07:00,ZHHH 160700Z 02004MPS 340V070 3000 -RA SCT010 OVC020 06/05 Q1020 NOSIG
ZHHH,2003-03-16 08:00,ZHHH 160800Z 02004MPS 340V060 2500 -RA SCT010 OVC020 06/06 Q1020 NOSIG
ZHHH,2003-03-16 09:00,ZHHH 160900Z 02005MPS 350V070 5000 BR SCT010 OVC020 06/06 Q1020 NOSIG
ZHHH,2003-03-16 10:00,ZHHH 161000Z 02005MPS 330V060 5000 BR SCT010 OVC030 06/05 Q1021 NOSIG
ZHHH,2003-03-16 11:00,ZHHH 161100Z 02004MPS 360V060 4000 -RA BR SCT010 OVC030 06/05 Q1021 NOSIG
ZHHH,2003-03-16 12:00,ZHHH 161200Z 02004MPS 5000 BR SCT010 OVC030 06/05 Q1021 NOSIG
ZHHH,2003-03-16 13:00,ZHHH 161300Z 02005MPS 340V060 4000 -RA BR SCT008 OVC030 06/05 Q1022 NOSIG
ZHHH,2003-03-16 14:00,ZHHH 161400Z 02004MPS 340V050 4000 BR SCT008 OVC030 06/05 Q1023 NOSIG
ZHHH,2003-03-16 15:00,ZHHH 161500Z 03004MPS 350V070 4000 BR SCT008 OVC030 06/05 Q1023 NOSIG
ZHHH,2003-03-16 16:00,ZHHH 161600Z 03004MPS 360V060 3000 -RA BR SCT007 OVC030 06/05 Q1022 NOSIG
ZHHH,2003-03-16 17:00,ZHHH 161700Z 02003MPS 350V050 3000 -RA BR SCT007 OVC030 05/05 Q1023 NOSIG
ZHHH,2003-03-16 18:00,ZHHH 161800Z 01003MPS 330V050 3000 -RA BR SCT007 OVC030 05/05 Q1023 NOSIG
ZHHH,2003-03-16 19:00,ZHHH 161900Z 01003MPS 350V060 4000 -RA BR SCT007 OVC030 05/05 Q1022 NOSIG
ZHHH,2003-03-16 20:00,ZHHH 162000Z 02003MPS 340V050 4000 BR SCT007 OVC030 05/05 Q1022 NOSIG
ZHHH,2003-03-16 21:00,ZHHH 162100Z 03004MPS 360V070 4000 BR SCT007 OVC030 05/05 Q1022 NOSIG
ZHHH,2003-03-16 22:00,ZHHH 162200Z 04006MPS 4000 BR FEW010 OVC030 05/04 Q1021 NOSIG
ZHHH,2003-03-16 23:00,ZHHH 162300Z 04005MPS 010V080 9999 SCT020 OVC033 06/04 Q1022 NOSIG
ZHHH,2003-03-17 00:00,ZHHH 170000Z 01003MPS 330V050 9999 SCT020 OVC033 06/04 Q1024 NOSIG
ZHHH,2003-03-17 01:00,ZHHH 170100Z 01004MPS 340V050 5000 RA BR SCT020 OVC033 06/04 Q1024 NOSIG
ZHHH,2003-03-17 02:00,ZHHH 170200Z 36002MPS 2300 RA BR FEW010 SCT020 OVC033 06/05 Q1025 NOSIG
ZHHH,2003-03-17 03:00,ZHHH 170300Z 01003MPS 340V050 1800 RA BR SCT008 BKN020 OVC033 06/05 Q1025 NOSIG
ZHHH,2003-03-17 04:00,ZHHH 170400Z 36003MPS 340V060 1800 -RA BR SCT007 SCT020 OVC033 06/05 Q1025 RERA NOSIG
ZHHH,2003-03-17 05:00,ZHHH 170500Z 01003MPS 340V050 2100 -RA BR FEW007 SCT012 OVC033 06/05 Q1025 NOSIG
ZHHH,2003-03-17 06:00,ZHHH 170600Z 02004MPS 340V060 2100 -RA BR SCT012 OVC033 05/05 Q1025 NOSIG
ZHHH,2003-03-17 07:00,ZHHH 170700Z 02005MPS 340V050 3500 -RA BR SCT012 OVC033 05/04 Q1025 NOSIG
ZHHH,2003-03-17 08:00,ZHHH 170800Z 01005MPS 340V050 3500 -RA BR SCT012 OVC033 05/04 Q1026 NOSIG
ZHHH,2003-03-17 09:00,ZHHH 170900Z 02004MPS 340V050 5000 BR SCT012 OVC033 05/03 Q1026 NOSIG
ZHHH,2003-03-17 10:00,ZHHH 171000Z 03006MPS 000V070 5000 BR FEW012 SCT020 OVC033 04/03 Q1027 NOSIG
ZHHH,2003-03-17 11:00,ZHHH 171100Z 03005MPS 000V070 5000 BR SCT020 OVC033 04/03 Q1027 NOSIG
ZHHH,2003-03-17 12:00,ZHHH 171200Z 02004MPS 350V060 9999 BKN020 OVC033 04/03 Q1028 NOSIG
ZHHH,2003-03-17 13:00,ZHHH 171300Z 03004MPS 9999 BKN020 OVC033 04/03 Q1029 NOSIG
ZHHH,2003-03-17 14:00,ZHHH 171400Z 04004MPS 010V070 9999 BKN020 OVC033 04/03 Q1030 NOSIG
ZHHH,2003-03-17 15:00,ZHHH 171500Z 03003MPS 000V060 9999 BKN020 OVC033 04/03 Q1030 NOSIG
ZHHH,2003-03-17 16:00,ZHHH 171600Z 03003MPS 000V070 9999 BKN020 OVC033 05/03 Q1030 NOSIG
ZHHH,2003-03-17 17:00,ZHHH 171700Z 04003MPS 010V070 9999 BKN020 OVC033 05/03 Q1030 NOSIG
ZHHH,2003-03-17 18:00,ZHHH 171800Z AUTO 04002KT 6SM 04/03 RMK SLP301 T00410034 57003 IEM_DS3505
ZHHH,2003-03-17 21:00,ZHHH 172100Z 05004MPS 4000 BR SCT010 OVC033 04/03 Q1029 NOSIG
ZHHH,2003-03-17 22:00,ZHHH 172200Z 06002MPS 4000 BR SCT010 OVC033 04/03 Q1028 NOSIG
ZHHH,2003-03-17 23:00,ZHHH 172300Z 00000MPS 5000 BR OVC033 04/03 Q1029 NOSIG
ZHHH,2003-03-18 00:00,ZHHH 180000Z 36001MPS 5000 BR SCT020 OVC033 05/04 Q1029 NOSIG
ZHHH,2003-03-18 01:00,ZHHH 180100Z 36001MPS 5000 BR NSC 05/04 Q1030 NOSIG
ZHHH,2003-03-18 02:00,ZHHH 180200Z 04002MPS 7000 FEW020 OVC050 06/04 Q1030 NOSIG
ZHHH,2003-03-18 03:00,ZHHH 180300Z 03002MPS 7000 FEW020 OVC050 06/04 Q1030 NOSIG
ZHHH,2003-03-18 04:00,ZHHH 180400Z 02002MPS 9999 BKN020 OVC050 06/03 Q1030 NOSIG
ZHHH,2003-03-18 05:00,ZHHH 180500Z 36002MPS 9999 BKN020 OVC050 06/03 Q1029 NOSIG
ZHHH,2003-03-18 06:00,ZHHH 180600Z 33002MPS 9999 OVC030 07/04 Q1029 NOSIG
ZHHH,2003-03-18 07:00,ZHHH 180700Z 33002MPS 6000 OVC030 07/04 Q1028 NOSIG
ZHHH,2003-03-18 08:00,ZHHH 180800Z 34002MPS 6000 OVC030 07/04 Q1028 NOSIG
ZHHH,2003-03-18 09:00,ZHHH 180900Z 00000MPS 6000 OVC030 07/04 Q1028 NOSIG
ZHHH,2003-03-18 10:00,ZHHH 181000Z 29001MPS 6000 OVC040 07/04 Q1028 NOSIG
ZHHH,2003-03-18 11:00,ZHHH 181100Z 28001MPS 4000 BR OVC040 06/05 Q1028 NOSIG
ZHHH,2003-03-18 12:00,ZHHH 181200Z 26001MPS 4000 BR OVC040 06/05 Q1028 NOSIG
ZHHH,2003-03-18 13:00,ZHHH 181300Z 28002MPS 5000 BR NSC 06/05 Q1029 NOSIG
ZHHH,2003-03-18 14:00,ZHHH 181400Z 29001MPS 4000 BR NSC 06/05 Q1029 NOSIG
ZHHH,2003-03-18 15:00,ZHHH 181500Z 30001MPS 3000 BR NSC 06/05 Q1029 NOSIG
ZHHH,2003-03-18 16:00,ZHHH 181600Z 28001MPS 4000 BR NSC 06/05 Q1029 NOSIG
ZHHH,2003-03-18 17:00,ZHHH 181700Z 28002MPS 5000 BR NSC 06/05 Q1028 NOSIG
ZHHH,2003-03-18 18:00,ZHHH 181800Z 31001MPS 2000 BR NSC 06/05 Q1028 NOSIG
ZHHH,2003-03-18 19:00,ZHHH 181900Z 01001MPS 2500 BR NSC 05/05 Q1027 NOSIG
ZHHH,2003-03-18 20:00,ZHHH 182000Z 02001MPS 1600 BR SKC 05/05 Q1026 NOSIG
ZHHH,2003-03-18 21:00,ZHHH 182100Z 00000MPS 1600 BR SKC 06/05 Q1026 NOSIG
ZHHH,2003-03-18 22:00,ZHHH 182200Z 19001MPS 1400 BR SKC 05/04 Q1027 NOSIG
ZHHH,2003-03-18 23:00,ZHHH 182300Z 29001MPS 1000 R04/1000N BR NSC 05/04 Q1027 NOSIG
ZHHH,2003-03-19 00:00,ZHHH 190000Z 34001MPS 1000 R04/1000N BR NSC 05/05 Q1028 NOSIG
ZHHH,2003-03-19 01:00,ZHHH 190100Z 34001MPS 1100 R04/1200N BR NSC 07/06 Q1028 NOSIG
ZHHH,2003-03-19 02:00,ZHHH 190200Z 36001MPS 1800 BR NSC 08/05 Q1028 NOSIG
ZHHH,2003-03-19 03:00,ZHHH 190300Z 12001MPS 2600 BR NSC 09/05 Q1027 NOSIG
ZHHH,2003-03-19 04:00,ZHHH 190400Z 22001MPS 4000 HZ NSC 10/05 Q1027 NOSIG
ZHHH,2003-03-19 05:00,ZHHH 190500Z 29001MPS 4000 HZ NSC 10/05 Q1026 NOSIG
ZHHH,2003-03-19 06:00,ZHHH 190600Z AUTO 25002KT 7SM 12/04 RMK SLP254 T01160041 57026 IEM_DS3505
ZHHH,2003-03-19 07:00,ZHHH 190700Z 00000MPS 5000 HZ NSC 10/04 Q1024 NOSIG
ZHHH,2003-03-19 08:00,ZHHH 190800Z 32001MPS 5000 HZ NSC 10/04 Q1024 NOSIG
ZHHH,2003-03-19 09:00,ZHHH 190900Z 32001MPS 5000 HZ NSC 10/05 Q1024 NOSIG
ZHHH,2003-03-19 10:00,ZHHH 191000Z 33001MPS 4000 HZ NSC 10/05 Q1023 NOSIG
ZHHH,2003-03-19 11:00,ZHHH 191100Z 32001MPS 4000 HZ NSC 09/06 Q1023 NOSIG
ZHHH,2003-03-19 12:00,ZHHH 191200Z 00000MPS 4000 HZ NSC 09/06 Q1023 NOSIG
ZHHH,2003-03-19 13:00,ZHHH 191300Z 00000MPS 4000 HZ NSC 09/05 Q1023 NOSIG
ZHHH,2003-03-19 14:00,ZHHH 191400Z 26001MPS 4000 HZ NSC 09/04 Q1023 NOSIG
ZHHH,2003-03-19 15:00,ZHHH 191500Z 26001MPS 3000 HZ NSC 08/05 Q1023 NOSIG
ZHHH,2003-03-19 16:00,ZHHH 191600Z 29001MPS 3000 HZ NSC 08/05 Q1023 NOSIG
ZHHH,2003-03-19 17:00,ZHHH 191700Z 32001MPS 3000 BR NSC 07/05 Q1023 NOSIG
ZHHH,2003-03-19 18:00,ZHHH 191800Z 00000MPS 3000 BR NSC 07/04 Q1023 NOSIG
ZHHH,2003-03-19 20:00,ZHHH 192000Z 00000MPS 3000 BR NSC 07/04 Q1021 NOSIG
ZHHH,2003-03-19 21:00,ZHHH 192100Z 00000MPS 3000 BR NSC 06/04 Q1022 NOSIG
ZHHH,2003-03-19 22:00,ZHHH 192200Z 00000MPS 3000 BR NSC 06/05 Q1022 NOSIG
ZHHH,2003-03-19 23:00,ZHHH 192300Z 18001MPS 2000 BR NSC 06/05 Q1022 NOSIG
ZHHH,2003-03-20 00:00,ZHHH 200000Z 19002MPS 1500 R04/1000N BR NSC 07/06 Q1023 NOSIG
ZHHH,2003-03-20 01:00,ZHHH 200100Z 21002MPS 1600 BR SKC 09/07 Q1023 NOSIG
ZHHH,2003-03-20 02:00,ZHHH 200200Z 22002MPS 2000 BR SKC 10/06 Q1023 NOSIG
ZHHH,2003-03-20 03:00,ZHHH 200300Z 24003MPS 200V280 2500 HZ NSC 11/06 Q1023 NOSIG
ZHHH,2003-03-20 04:00,ZHHH 200400Z AUTO 22006KT 2SM 12/05 A3018 RMK T01200050 IEM_DS3505
ZHHH,2003-03-20 05:00,ZHHH 200500Z 24003MPS 210V310 7000 NSC 13/06 Q1022 NOSIG
ZHHH,2003-03-20 06:00,ZHHH 200600Z 22004MPS 190V290 CAVOK 14/05 Q1021 NOSIG
ZHHH,2003-03-20 07:00,ZHHH 200700Z 24003MPS 190V300 CAVOK 14/05 Q1020 NOSIG
ZHHH,2003-03-20 08:00,ZHHH 200800Z 22003MPS 180V260 CAVOK 15/06 Q1019 NOSIG
ZHHH,2003-03-20 09:00,ZHHH 200900Z 22003MPS 180V240 CAVOK 15/05 Q1019 NOSIG
ZHHH,2003-03-20 10:00,ZHHH 201000Z 22002MPS CAVOK 14/07 Q1019 NOSIG
ZHHH,2003-03-20 11:00,ZHHH 201100Z 20002MPS 5000 HZ SKC 12/08 Q1020 NOSIG
ZHHH,2003-03-20 12:00,ZHHH 201200Z 19002MPS 5000 BR SKC 11/07 Q1020 NOSIG
ZHHH,2003-03-20 13:00,ZHHH 201300Z 17001MPS 3000 HZ SKC 12/07 Q1021 NOSIG
ZHHH,2003-03-20 14:00,ZHHH 201400Z 00000MPS 2300 HZ SKC 11/06 Q1022 NOSIG
ZHHH,2003-03-20 15:00,ZHHH 201500Z 22001MPS 2100 BR SKC 10/07 Q1022 NOSIG
ZHHH,2003-03-20 16:00,ZHHH 201600Z AUTO 00000KT 1 1/2SM 09/07 A3018 RMK T00900070 IEM_DS3505
ZHHH,2003-03-20 17:00,ZHHH 201700Z 22001MPS 2000 BR NSC 09/07 Q1023 NOSIG
ZHHH,2003-03-20 18:00,ZHHH 201800Z 30001MPS 2000 BR SKC 09/07 Q1023 NOSIG
ZHHH,2003-03-20 19:00,ZHHH 201900Z 00000MPS 2000 BR SKC 08/07 Q1023 NOSIG
ZHHH,2003-03-20 20:00,ZHHH 202000Z 36001MPS 2000 BR SKC 08/07 Q1023 NOSIG
ZHHH,2003-03-20 21:00,ZHHH 202100Z 02002MPS 2000 BR SKC 07/06 Q1024 NOSIG
ZHHH,2003-03-20 22:00,ZHHH 202200Z 03001MPS 2200 BR SKC 07/06 Q1025 NOSIG
ZHHH,2003-03-20 23:00,ZHHH 202300Z 05002MPS 1800 BR SKC 07/05 Q1026 NOSIG
ZHHH,2003-03-21 00:00,ZHHH 210000Z 03005MPS 360V070 2500 BR SKC 09/06 Q1027 NOSIG
ZHHH,2003-03-21 01:00,ZHHH 210100Z 03004MPS CAVOK 10/04 Q1028 NOSIG
ZHHH,2003-03-21 02:00,ZHHH 210200Z 04005MPS CAVOK 12/01 Q1028 NOSIG
ZHHH,2003-03-21 03:00,ZHHH 210300Z 03005MPS CAVOK 13/01 Q1028 NOSIG
ZHHH,2003-03-21 04:00,ZHHH 210400Z 02004MPS CAVOK 15/M00 Q1028 NOSIG
ZHHH,2003-03-21 05:00,ZHHH 210500Z 05004MPS CAVOK 15/00 Q1028 NOSIG
ZHHH,2003-03-21 06:00,ZHHH 210600Z 03004MPS CAVOK 16/00 Q1027 NOSIG
ZHHH,2003-03-21 07:00,ZHHH 210700Z 02003MPS CAVOK 17/M00 Q1027 NOSIG
ZHHH,2003-03-21 08:00,ZHHH 210800Z 02004MPS CAVOK 16/M00 Q1026 NOSIG
ZHHH,2003-03-21 09:00,ZHHH 210900Z 03004MPS CAVOK 15/M01 Q1027 NOSIG
ZHHH,2003-03-21 10:00,ZHHH 211000Z 03005MPS CAVOK 14/M01 Q1027 NOSIG
ZHHH,2003-03-21 11:00,ZHHH 211100Z 02002MPS CAVOK 12/M00 Q1027 NOSIG
ZHHH,2003-03-21 12:00,ZHHH 211200Z 01003MPS CAVOK 11/00 Q1027 NOSIG
ZHHH,2003-03-21 13:00,ZHHH 211300Z 36002MPS CAVOK 10/M00 Q1028 NOSIG
ZHHH,2003-03-21 14:00,ZHHH 211400Z 04003MPS CAVOK 10/M00 Q1029 NOSIG
ZHHH,2003-03-21 15:00,ZHHH 211500Z 01002MPS CAVOK 09/00 Q1029 NOSIG
ZHHH,2003-03-21 16:00,ZHHH 211600Z 04002MPS CAVOK 08/01 Q1029 NOSIG
ZHHH,2003-03-21 17:00,ZHHH 211700Z 03004MPS CAVOK 09/M00 Q1029 NOSIG
ZHHH,2003-03-21 18:00,ZHHH 211800Z 05004MPS CAVOK 09/M00 Q1028 NOSIG
ZHHH,2003-03-21 19:00,ZHHH 211900Z AUTO /////MPS //// // ////// 08/01 Q1028 NOSIG
ZHHH,2003-03-21 20:00,ZHHH 212000Z 03002MPS CAVOK 08/01 Q1028 NOSIG
ZHHH,2003-03-21 21:00,ZHHH 212100Z 00000MPS CAVOK 07/01 Q1027 NOSIG
ZHHH,2003-03-21 22:00,ZHHH 212200Z 00000MPS CAVOK 07/02 Q1028 NOSIG
ZHHH,2003-03-21 23:00,ZHHH 212300Z 02002MPS CAVOK 06/02 Q1028 NOSIG
ZHHH,2003-03-22 00:00,ZHHH 220000Z 04001MPS CAVOK 07/02 Q1028 NOSIG
ZHHH,2003-03-22 01:00,ZHHH 220100Z 08003MPS CAVOK 10/02 Q1029 NOSIG
ZHHH,2003-03-22 02:00,ZHHH 220200Z 09002MPS CAVOK 10/01 Q1028 NOSIG
ZHHH,2003-03-22 03:00,ZHHH 220300Z 10003MPS CAVOK 11/02 Q1028 NOSIG
ZHHH,2003-03-22 04:00,ZHHH 220400Z 03001MPS CAVOK 12/02 Q1027 NOSIG
ZHHH,2003-03-22 05:00,ZHHH 220500Z 13001MPS CAVOK 14/03 Q1026 NOSIG
ZHHH,2003-03-22 06:00,ZHHH 220600Z 36003MPS CAVOK 14/02 Q1025 NOSIG
ZHHH,2003-03-22 07:00,ZHHH 220700Z 26003MPS CAVOK 14/03 Q1024 NOSIG
ZHHH,2003-03-22 08:00,ZHHH 220800Z 30002MPS 9999 FEW030 OVC080 13/02 Q1024 NOSIG
ZHHH,2003-03-22 09:00,ZHHH 220900Z 30002MPS CAVOK 13/03 Q1024 NOSIG
ZHHH,2003-03-22 10:00,ZHHH 221000Z 25002MPS CAVOK 13/05 Q1024 NOSIG
ZHHH,2003-03-22 11:00,ZHHH 221100Z 23002MPS 9999 FEW015 BKN030 OVC100 13/05 Q1025 NOSIG
ZHHH,2003-03-22 12:00,ZHHH 221200Z 00000MPS 9999 SCT010 OVC033 12/02 Q1025 NOSIG
ZHHH,2003-03-22 13:00,ZHHH 221300Z 25002MPS 9999 SCT010 OVC030 12/05 Q1025 NOSIG
ZHHH,2003-03-22 14:00,ZHHH 221400Z 27002MPS 9999 SCT010 OVC040 11/07 Q1025 NOSIG
ZHHH,2003-03-22 15:00,ZHHH 221500Z 28004MPS 9999 FEW010 OVC040 11/07 Q1025 NOSIG
ZHHH,2003-03-22 16:00,ZHHH 221600Z 26002MPS 9999 FEW010 OVC040 11/07 Q1025 NOSIG
ZHHH,2003-03-22 17:00,ZHHH 221700Z 29003MPS 9999 FEW010 OVC040 10/07 Q1024 NOSIG
ZHHH,2003-03-22 18:00,ZHHH 221800Z 27002MPS 9999 FEW010 OVC050 10/07 Q1023 NOSIG
ZHHH,2003-03-22 19:00,ZHHH 221900Z 29002MPS 3000 BR NSC 10/07 Q1023 NOSIG
ZHHH,2003-03-22 20:00,ZHHH 222000Z 28001MPS 3000 BR NSC 10/07 Q1023 NOSIG
ZHHH,2003-03-22 21:00,ZHHH 222100Z 23002MPS 3000 BR NSC 09/08 Q1023 NOSIG
ZHHH,2003-03-22 22:00,ZHHH 222200Z 31002MPS 2500 BR NSC 09/07 Q1023 NOSIG
ZHHH,2003-03-22 23:00,ZHHH 222300Z 24002MPS 2500 BR NSC 08/07 Q1024 NOSIG
ZHHH,2003-03-23 00:00,ZHHH 230000Z 28003MPS 2400 BR NSC 09/08 Q1025 NOSIG
ZHHH,2003-03-23 01:00,ZHHH 230100Z 26003MPS 3000 BR SKC 10/08 Q1025 NOSIG
ZHHH,2003-03-23 02:00,ZHHH 230200Z 23002MPS 5000 HZ SKC 12/07 Q1025 NOSIG
ZHHH,2003-03-23 03:00,ZHHH 230300Z 24004MPS 6000 SKC 14/07 Q1025 NOSIG
ZHHH,2003-03-23 04:00,ZHHH 230400Z 26004MPS 5000 HZ SKC 14/07 Q1024 NOSIG
ZHHH,2003-03-23 05:00,ZHHH 230500Z 21004MPS 5000 HZ SKC 15/06 Q1023 NOSIG
ZHHH,2003-03-23 06:00,ZHHH 230600Z 24003MPS 6000 NSC 16/07 Q1022 NOSIG
ZHHH,2003-03-23 07:00,ZHHH 230700Z 20004MPS 6000 NSC 16/07 Q1021 NOSIG
ZHHH,2003-03-23 08:00,ZHHH 230800Z 24003MPS CAVOK 16/08 Q1021 NOSIG
ZHHH,2003-03-23 09:00,ZHHH 230900Z 20003MPS CAVOK 16/09 Q1021 NOSIG
ZHHH,2003-03-23 10:00,ZHHH 231000Z 21003MPS CAVOK 16/09 Q1021 NOSIG
ZHHH,2003-03-23 11:00,ZHHH 231100Z 19002MPS 5000 HZ NSC 14/09 Q1021 NOSIG
ZHHH,2003-03-23 12:00,ZHHH 231200Z 18003MPS 5000 HZ NSC 13/10 Q1021 NOSIG
ZHHH,2003-03-23 13:00,ZHHH 231300Z 28002MPS 5000 BR NSC 13/10 Q1022 NOSIG
ZHHH,2003-03-23 14:00,ZHHH 231400Z 00000MPS 5000 BR NSC 12/10 Q1022 NOSIG
ZHHH,2003-03-23 15:00,ZHHH 231500Z 00000MPS 5000 BR NSC 12/09 Q1023 NOSIG
ZHHH,2003-03-23 16:00,ZHHH 231600Z 00000MPS 5000 BR SKC 11/09 Q1023 NOSIG
ZHHH,2003-03-23 17:00,ZHHH 231700Z 00000MPS 5000 BR SKC 11/09 Q1022 NOSIG
ZHHH,2003-03-23 18:00,ZHHH 231800Z 20002MPS 4000 BR SKC 11/09 Q1022 NOSIG
ZHHH,2003-03-23 19:00,ZHHH 231900Z 00000MPS 2000 BR SKC 11/10 Q1021 NOSIG
ZHHH,2003-03-23 20:00,ZHHH 232000Z 17002MPS 2000 BR SKC 10/09 Q1021 NOSIG
ZHHH,2003-03-23 21:00,ZHHH 232100Z 00000MPS 2000 BR SKC 10/09 Q1021 NOSIG
ZHHH,2003-03-23 22:00,ZHHH 232200Z 00000MPS 1500 BR SKC 10/08 Q1021 NOSIG
ZHHH,2003-03-23 23:00,ZHHH 232300Z 00000MPS 1200 R04/1200N BR NSC 10/08 Q1022 NOSIG
ZHHH,2003-03-24 00:00,ZHHH 240000Z 05002MPS 1000 R04/1000N BR NSC 10/09 Q1022 NOSIG
ZHHH,2003-03-24 01:00,ZHHH 240100Z 13002MPS 2000 BR NSC 13/10 Q1022 NOSIG
ZHHH,2003-03-24 02:00,ZHHH 240200Z 11002MPS 2400 BR NSC 15/10 Q1023 NOSIG
ZHHH,2003-03-24 03:00,ZHHH 240300Z 14004MPS 2100 HZ NSC 15/09 Q1022 NOSIG
ZHHH,2003-03-24 04:00,ZHHH 240400Z 14003MPS 2200 HZ SKC 17/09 Q1021 NOSIG
ZHHH,2003-03-24 05:00,ZHHH 240500Z 06002MPS 4500 HZ SKC 18/10 Q1020 NOSIG
ZHHH,2003-03-24 06:00,ZHHH 240600Z 01003MPS 3000 HZ SKC 19/10 Q1019 NOSIG
ZHHH,2003-03-24 07:00,ZHHH 240700Z 25002MPS 1700 HZ SKC 19/10 Q1018 NOSIG
ZHHH,2003-03-24 08:00,ZHHH 240800Z 26002MPS 1700 HZ SKC 19/11 Q1018 NOSIG
ZHHH,2003-03-24 09:00,ZHHH 240900Z 00000MPS 2200 HZ SKC 20/10 Q1018 NOSIG
ZHHH,2003-03-24 10:00,ZHHH 241000Z 00000MPS 2100 HZ SKC 19/10 Q1018 NOSIG
ZHHH,2003-03-24 11:00,ZHHH 241100Z 00000MPS 2400 HZ SKC 18/10 Q1018 NOSIG
ZHHH,2003-03-24 12:00,ZHHH 241200Z 00000MPS 1800 HZ SKC 17/11 Q1018 NOSIG
ZHHH,2003-03-24 13:00,ZHHH 241300Z 12002MPS 2000 HZ SKC 16/12 Q1018 NOSIG
ZHHH,2003-03-24 14:00,ZHHH 241400Z 00000MPS 2000 HZ SKC 15/11 Q1019 NOSIG
ZHHH,2003-03-24 15:00,ZHHH 241500Z 00000MPS 1800 HZ SKC 15/11 Q1019 NOSIG
ZHHH,2003-03-24 16:00,ZHHH 241600Z 00000MPS 1600 HZ SKC 14/10 Q1020 NOSIG
ZHHH,2003-03-24 17:00,ZHHH 241700Z 00000MPS 2100 BR SKC 14/10 Q1020 NOSIG
ZHHH,2003-03-24 18:00,ZHHH 241800Z 00000MPS 2100 BR SKC 13/11 Q1019 NOSIG
ZHHH,2003-03-24 19:00,ZHHH 241900Z 10003MPS 3000 BR SKC 13/11 Q1018 NOSIG
ZHHH,2003-03-24 20:00,ZHHH 242000Z 10002MPS 3000 BR SKC 13/11 Q1018 NOSIG
ZHHH,2003-03-24 21:00,ZHHH 242100Z 10002MPS 3500 BR SKC 12/11 Q1018 NOSIG
ZHHH,2003-03-24 22:00,ZHHH 242200Z 09003MPS 2000 BR SKC 12/10 Q1018 NOSIG
ZHHH,2003-03-24 23:00,ZHHH 242300Z 08003MPS 1400 R04/1300N BR SKC 12/10 Q1019 NOSIG
ZHHH,2003-03-25 00:00,ZHHH 250000Z 09003MPS 1300 R04/1300N BR SKC 13/11 Q1019 NOSIG
ZHHH,2003-03-25 01:00,ZHHH 250100Z 11003MPS 1300 R04/1400N BR SKC 15/12 Q1019 NOSIG
ZHHH,2003-03-25 03:00,ZHHH 250300Z 12003MPS 3000 HZ SKC 20/11 Q1019 NOSIG
ZHHH,2003-03-25 04:00,ZHHH 250400Z 13004MPS 5000 HZ SKC 21/11 Q1018 NOSIG
ZHHH,2003-03-25 05:00,ZHHH 250500Z 19003MPS CAVOK 24/11 Q1017 NOSIG
ZHHH,2003-03-25 06:00,ZHHH 250600Z 20003MPS CAVOK 24/10 Q1016 NOSIG
ZHHH,2003-03-25 07:00,ZHHH 250700Z 17003MPS CAVOK 24/10 Q1015 NOSIG
ZHHH,2003-03-25 08:00,ZHHH 250800Z 21004MPS CAVOK 25/10 Q1015 NOSIG
ZHHH,2003-03-25 09:00,ZHHH 250900Z 18003MPS CAVOK 25/12 Q1014 NOSIG
ZHHH,2003-03-25 10:00,ZHHH 251000Z 12002MPS CAVOK 23/11 Q1014 NOSIG
ZHHH,2003-03-25 11:00,ZHHH 251100Z 11002MPS CAVOK 21/13 Q1014 NOSIG
ZHHH,2003-03-25 12:00,ZHHH 251200Z 12003MPS CAVOK 20/13 Q1014 NOSIG
ZHHH,2003-03-25 13:00,ZHHH 251300Z 11002MPS CAVOK 19/14 Q1014 NOSIG
ZHHH,2003-03-25 14:00,ZHHH 251400Z 11003MPS CAVOK 18/14 Q1014 NOSIG
ZHHH,2003-03-25 15:00,ZHHH 251500Z 11004MPS CAVOK 18/14 Q1014 NOSIG
ZHHH,2003-03-25 16:00,ZHHH 251600Z 12003MPS CAVOK 17/13 Q1013 NOSIG
ZHHH,2003-03-25 17:00,ZHHH 251700Z 09003MPS CAVOK 16/13 Q1013 NOSIG
ZHHH,2003-03-25 18:00,ZHHH 251800Z 11003MPS CAVOK 16/13 Q1013 NOSIG
ZHHH,2003-03-25 19:00,ZHHH 251900Z 11005MPS CAVOK 16/13 Q1013 NOSIG
ZHHH,2003-03-25 20:00,ZHHH 252000Z 11004MPS 6000 SKC 15/12 Q1013 NOSIG
ZHHH,2003-03-25 21:00,ZHHH 252100Z 12005MPS 6000 SKC 15/12 Q1012 NOSIG
ZHHH,2003-03-25 22:00,ZHHH 252200Z 13005MPS 6000 SKC 15/12 Q1012 NOSIG
ZHHH,2003-03-25 23:00,ZHHH 252300Z 12004MPS 5000 BR SKC 16/12 Q1012 NOSIG
ZHHH,2003-03-26 00:00,ZHHH 260000Z 12003MPS 5000 BR SKC 16/13 Q1013 NOSIG
ZHHH,2003-03-26 01:00,ZHHH 260100Z 14003MPS 6000 SKC 20/13 Q1013 NOSIG
ZHHH,2003-03-26 02:00,ZHHH 260200Z 18005MPS CAVOK 24/14 Q1014 NOSIG
ZHHH,2003-03-26 03:00,ZHHH 260300Z 18006MPS CAVOK 25/16 Q1013 NOSIG
ZHHH,2003-03-26 04:00,ZHHH 260400Z 20004MPS CAVOK 26/16 Q1012 NOSIG
ZHHH,2003-03-26 05:00,ZHHH 260500Z 21005MPS CAVOK 28/17 Q1011 NOSIG
ZHHH,2003-03-26 06:00,ZHHH 260600Z 22005MPS CAVOK 28/16 Q1010 NOSIG
ZHHH,2003-03-26 07:00,ZHHH 260700Z 24004MPS CAVOK 26/17 Q1010 NOSIG
ZHHH,2003-03-26 08:00,ZHHH 260800Z 26003MPS CAVOK 25/17 Q1010 NOSIG
ZHHH,2003-03-26 09:00,ZHHH 260900Z 30004MPS 9999 -TSRA FEW040CB OVC050 23/19 Q1010 NOSIG
ZHHH,2003-03-26 10:00,ZHHH 261000Z 27004MPS 1200 R04/1200N TSRA SCT040CB OVC050 19/19 Q1011 NOSIG
ZHHH,2003-03-26 11:00,ZHHH 261100Z 00000MPS 2000 -TS BR SCT013 FEW033CB BKN050 19/19 Q1011 NOSIG
ZHHH,2003-03-26 12:00,ZHHH 261200Z 03006MPS 1500 TSRA SCT013 SCT033CB BKN050 17/16 Q1013 NOSIG
ZHHH,2003-03-26 13:00,ZHHH 261300Z 03006MPS 1500 BR FEW033CB BKN050 16/14 Q1014 RETSRA NOSIG
ZHHH,2003-03-26 14:00,ZHHH 261400Z 02006MPS 1800 BR NSC 16/13 Q1014 NOSIG
ZHHH,2003-03-26 15:00,ZHHH 261500Z 04004MPS 1600 BR NSC 16/13 Q1014 NOSIG
ZHHH,2003-03-26 16:00,ZHHH 261600Z 03002MPS 1500 BR NSC 16/13 Q1016 NOSIG
ZHHH,2003-03-26 17:00,ZHHH 261700Z 01004MPS 2000 HZ NSC 16/10 Q1017 NOSIG
ZHHH,2003-03-26 18:00,ZHHH 261800Z 33004MPS 4000 HZ NSC 15/09 Q1018 NOSIG
ZHHH,2003-03-26 19:00,ZHHH 261900Z 35006MPS 4000 HZ NSC 14/08 Q1018 NOSIG
ZHHH,2003-03-26 20:00,ZHHH 262000Z 36004MPS 5000 HZ NSC 13/09 Q1018 NOSIG
ZHHH,2003-03-26 21:00,ZHHH 262100Z AUTO 34002KT 9SM 13/09 A3009 RMK 70054 SLP193 T01340094 52013 IEM_DS3505
ZHHH,2003-03-26 22:00,ZHHH 262200Z AUTO 02010KT 2 1/2SM 12/10 A3012 RMK T01200100 IEM_DS3505
ZHHH,2003-03-26 23:00,ZHHH 262300Z AUTO 01012KT 2 1/2SM 12/10 A3012 RMK T01200100 IEM_DS3505
ZHHH,2003-03-27 00:00,ZHHH 270000Z AUTO 36006KT 12SM 14/10 A3018 RMK 70054 SLP222 T01390099 52029 IEM_DS3505
ZHHH,2003-03-27 01:00,ZHHH 270100Z 36005MPS 2500 BR SKC 14/10 Q1022 NOSIG
ZHHH,2003-03-27 02:00,ZHHH 270200Z 36004MPS 5000 HZ SKC 16/10 Q1023 NOSIG
ZHHH,2003-03-27 03:00,ZHHH 270300Z 03004MPS 8000 SKC 17/10 Q1024 NOSIG
ZHHH,2003-03-27 04:00,ZHHH 270400Z 03003MPS CAVOK 18/11 Q1023 NOSIG
ZHHH,2003-03-27 05:00,ZHHH 270500Z 04005MPS CAVOK 19/09 Q1021 NOSIG
ZHHH,2003-03-27 06:00,ZHHH 270600Z 05004MPS CAVOK 20/10 Q1020 NOSIG
ZHHH,2003-03-27 08:00,ZHHH 270800Z 02002MPS CAVOK 20/09 Q1019
ZHHH,2003-03-27 09:00,ZHHH 270900Z 03003MPS CAVOK 20/08 Q1018 NOSIG
ZHHH,2003-03-27 10:00,ZHHH 271000Z 07002MPS CAVOK 19/08 Q1018
ZHHH,2003-03-27 11:00,ZHHH 271100Z 03004MPS CAVOK 18/07 Q1018
ZHHH,2003-03-27 12:00,ZHHH 271200Z 03003MPS CAVOK 16/08 Q1019
ZHHH,2003-03-27 13:00,ZHHH 271300Z 02003MPS CAVOK 15/06 Q1019 NOSIG
ZHHH,2003-03-27 14:00,ZHHH 271400Z 04003MPS CAVOK 14/05 Q1019 NOSIG
ZHHH,2003-03-27 15:00,ZHHH 271500Z 04003MPS CAVOK 14/05 Q1019 NOSIG
ZHHH,2003-03-27 16:00,ZHHH 271600Z 04004MPS CAVOK 13/05 Q1019 NOSIG
ZHHH,2003-03-27 17:00,ZHHH 271700Z 07004MPS CAVOK 13/05 Q1018 NOSIG
ZHHH,2003-03-27 18:00,ZHHH 271800Z 06003MPS CAVOK 13/06 Q1017 NOSIG
ZHHH,2003-03-27 19:00,ZHHH 271900Z AUTO 09004KT 6SM 12/07 A3000 RMK T01200070 IEM_DS3505
ZHHH,2003-03-27 20:00,ZHHH 272000Z 10003MPS CAVOK 12/07 Q1016 NOSIG
ZHHH,2003-03-27 21:00,ZHHH 272100Z 09002MPS CAVOK 12/07 Q1016 NOSIG
ZHHH,2003-03-27 22:00,ZHHH 272200Z 06003MPS CAVOK 12/07 Q1017 NOSIG
ZHHH,2003-03-27 23:00,ZHHH 272300Z 08004MPS CAVOK 12/07 Q1017 NOSIG
ZHHH,2003-03-28 00:00,ZHHH 280000Z 09003MPS CAVOK 13/07 Q1017 NOSIG
ZHHH,2003-03-28 01:00,ZHHH 280100Z AUTO 05006KT 6SM 14/08 A3006 RMK T01400080 IEM_DS3505
ZHHH,2003-03-28 02:00,ZHHH 280200Z AUTO 13006KT 6SM 15/09 A3003 RMK T01500090 IEM_DS3505
ZHHH,2003-03-28 03:00,ZHHH 280300Z AUTO 14004KT 11SM 18/08 A3003 RMK SLP174 T01810076 57003 IEM_DS3505
ZHHH,2003-03-28 04:00,ZHHH 280400Z AUTO 12004KT 6SM 18/09 A3000 RMK T01800090 IEM_DS3505
ZHHH,2003-03-28 05:00,ZHHH 280500Z AUTO 06006KT 6SM 20/10 A2997 RMK T02000100 IEM_DS3505
ZHHH,2003-03-28 06:00,ZHHH 280600Z AUTO 25002KT 12SM 22/09 A2994 RMK SLP144 T02150088 57030 IEM_DS3505
ZHHH,2003-03-28 07:00,ZHHH 280700Z AUTO 18006KT 6SM 22/10 A2991 RMK T02200100 IEM_DS3505
ZHHH,2003-03-28 08:00,ZHHH 280800Z 20002MPS CAVOK 22/10 Q1012 NOSIG
ZHHH,2003-03-28 09:00,ZHHH 280900Z 14002MPS CAVOK 21/10 Q1012 NOSIG
ZHHH,2003-03-28 10:00,ZHHH 281000Z 14002MPS CAVOK 20/10 Q1012 NOSIG
ZHHH,2003-03-28 11:00,ZHHH 281100Z 10001MPS CAVOK 19/12 Q1012 NOSIG
ZHHH,2003-03-28 12:00,ZHHH 281200Z 12002MPS CAVOK 18/12 Q1012 NOSIG
ZHHH,2003-03-28 13:00,ZHHH 281300Z 14002MPS 6000 SKC 18/13 Q1012 NOSIG
ZHHH,2003-03-28 14:00,ZHHH 281400Z 15002MPS 6000 SKC 17/13 Q1012 NOSIG
ZHHH,2003-03-28 15:00,ZHHH 281500Z 12003MPS 5000 BR SKC 17/13 Q1012 NOSIG
ZHHH,2003-03-28 16:00,ZHHH 281600Z 15002MPS 3000 BR SKC 16/13 Q1012 NOSIG
ZHHH,2003-03-28 17:00,ZHHH 281700Z 12002MPS 2500 BR SKC 16/14 Q1012 NOSIG
ZHHH,2003-03-28 18:00,ZHHH 281800Z 12002MPS 2500 BR SKC 16/13 Q1011 NOSIG
ZHHH,2003-03-28 19:00,ZHHH 281900Z AUTO /////MPS 1800 // ////// 15/13 Q1011 NOSIG
ZHHH,2003-03-28 20:00,ZHHH 282000Z 12003MPS 2000 BR SKC 14/13 Q1010 NOSIG
ZHHH,2003-03-28 21:00,ZHHH 282100Z 12002MPS 2000 BR SKC 14/13 Q1010 NOSIG
ZHHH,2003-03-28 22:00,ZHHH 282200Z 13002MPS 2000 BR SKC 14/12 Q1010 NOSIG
ZHHH,2003-03-28 23:00,ZHHH 282300Z 13003MPS 1500 BR SKC 14/12 Q1010 NOSIG
ZHHH,2003-03-29 00:00,ZHHH 290000Z 12003MPS 1500 R04/1400N BR SKC 15/13 Q1010 NOSIG
ZHHH,2003-03-29 01:00,ZHHH 290100Z 15005MPS 2000 BR SKC 17/14 Q1010 NOSIG
ZHHH,2003-03-29 02:00,ZHHH 290200Z 16004MPS 5000 HZ SKC 20/14 Q1010 NOSIG
ZHHH,2003-03-29 03:00,ZHHH 290300Z 19005MPS 6000 SKC 22/14 Q1010 NOSIG
ZHHH,2003-03-29 04:00,ZHHH 290400Z 17005MPS CAVOK 23/15 Q1009 NOSIG
ZHHH,2003-03-29 05:00,ZHHH 290500Z 18006MPS CAVOK 24/16 Q1008 NOSIG
ZHHH,2003-03-29 06:00,ZHHH 290600Z 16006MPS CAVOK 24/15 Q1007 NOSIG
ZHHH,2003-03-29 07:00,ZHHH 290700Z 19005MPS CAVOK 26/14 Q1006 NOSIG
ZHHH,2003-03-29 08:00,ZHHH 290800Z 20005MPS CAVOK 26/15 Q1006 NOSIG
ZHHH,2003-03-29 09:00,ZHHH 290900Z 18004MPS CAVOK 26/16 Q1005 NOSIG
ZHHH,2003-03-29 10:00,ZHHH 291000Z 18003MPS CAVOK 24/17 Q1005 NOSIG
ZHHH,2003-03-29 11:00,ZHHH 291100Z 12003MPS CAVOK 22/17 Q1005 NOSIG
ZHHH,2003-03-29 12:00,ZHHH 291200Z 14004MPS CAVOK 21/17 Q1005 NOSIG
ZHHH,2003-03-29 13:00,ZHHH 291300Z 11005MPS CAVOK 20/17 Q1005 NOSIG
ZHHH,2003-03-29 14:00,ZHHH 291400Z 12004MPS CAVOK 20/17 Q1005 NOSIG
ZHHH,2003-03-29 15:00,ZHHH 291500Z 12005MPS CAVOK 19/17 Q1005 NOSIG
ZHHH,2003-03-29 16:00,ZHHH 291600Z 13004MPS CAVOK 19/16 Q1005 NOSIG
ZHHH,2003-03-29 17:00,ZHHH 291700Z 11004MPS CAVOK 18/16 Q1005 NOSIG
ZHHH,2003-03-29 18:00,ZHHH 291800Z 12005MPS CAVOK 17/16 Q1004 NOSIG
ZHHH,2003-03-29 19:00,ZHHH 291900Z 11003MPS CAVOK 17/15 Q1004 NOSIG
ZHHH,2003-03-29 20:00,ZHHH 292000Z 09003MPS CAVOK 17/15 Q1004 NOSIG
ZHHH,2003-03-29 21:00,ZHHH 292100Z 10002MPS CAVOK 17/15 Q1004 NOSIG
ZHHH,2003-03-29 22:00,ZHHH 292200Z 12004MPS 4000 BR SKC 17/15 Q1004 NOSIG
ZHHH,2003-03-29 23:00,ZHHH 292300Z 11004MPS 4000 BR SKC 17/15 Q1005 NOSIG
ZHHH,2003-03-30 00:00,ZHHH 300000Z 11003MPS 4000 BR SKC 18/16 Q1005 NOSIG
ZHHH,2003-03-30 01:00,ZHHH 300100Z 12004MPS 3000 BR SKC 20/16 Q1006 NOSIG
ZHHH,2003-03-30 02:00,ZHHH 300200Z 11004MPS 5000 HZ NSC 23/18 Q1006 NOSIG
ZHHH,2003-03-30 03:00,ZHHH 300300Z 15004MPS 5000 HZ NSC 24/19 Q1006 NOSIG
ZHHH,2003-03-30 04:00,ZHHH 300400Z 16005MPS CAVOK 26/19 Q1005 NOSIG
ZHHH,2003-03-30 05:00,ZHHH 300500Z 16005MPS CAVOK 27/20 Q1004 NOSIG
ZHHH,2003-03-30 06:00,ZHHH 300600Z 19005MPS CAVOK 29/21 Q1003 NOSIG
ZHHH,2003-03-30 07:00,ZHHH 300700Z 14004MPS CAVOK 28/20 Q1002 NOSIG
ZHHH,2003-03-30 08:00,ZHHH 300800Z 13005MPS 9999 SCT040 28/20 Q1001 NOSIG
ZHHH,2003-03-30 09:00,ZHHH 300900Z 13005MPS 9999 FEW040 BKN120 27/21 Q1001 NOSIG
ZHHH,2003-03-30 10:00,ZHHH 301000Z 09003MPS 9999 FEW030 BKN120 26/22 Q1001 NOSIG
ZHHH,2003-03-30 11:00,ZHHH 301100Z 11004MPS 9999 SCT027 BKN110 25/21 Q1001 NOSIG
ZHHH,2003-03-30 12:00,ZHHH 301200Z 09003MPS 7000 SCT027 BKN110 24/21 Q1002 NOSIG
ZHHH,2003-03-30 13:00,ZHHH 301300Z 06002MPS 9999 FEW030TCU BKN050 23/21 Q1003 RETSRA NOSIG
ZHHH,2003-03-30 14:00,ZHHH 301400Z 09003MPS CAVOK 23/21 Q1003 NOSIG
ZHHH,2003-03-30 15:00,ZHHH 301500Z 10002MPS CAVOK 22/21 Q1003 NOSIG
ZHHH,2003-03-30 16:00,ZHHH 301600Z 09003MPS CAVOK 22/20 Q1003 NOSIG
ZHHH,2003-03-30 17:00,ZHHH 301700Z 10002MPS 5000 BR NSC 21/20 Q1003 NOSIG
ZHHH,2003-03-30 18:00,ZHHH 301800Z 07002MPS 4000 BR NSC 21/20 Q1002 NOSIG
ZHHH,2003-03-30 19:00,ZHHH 301900Z 00000MPS 2500 BR NSC 21/20 Q1002 NOSIG
ZHHH,2003-03-30 20:00,ZHHH 302000Z 00000MPS 3000 BR NSC 21/20 Q1002 NOSIG
ZHHH,2003-03-30 21:00,ZHHH 302100Z 08002MPS 3000 BR NSC 21/20 Q1002 NOSIG
ZHHH,2003-03-30 22:00,ZHHH 302200Z 07003MPS 1600 -TSRA BR SCT010 FEW033CB OVC050 21/20 Q1003 NOSIG
ZHHH,2003-03-30 23:00,ZHHH 302300Z 10002MPS 2000 BR SCT033TCU SCT070 20/20 Q1003 NOSIG
ZHHH,2003-03-31 00:00,ZHHH 310000Z 13003MPS 3000 BR SKC 21/21 Q1003 NOSIG
ZHHH,2003-03-31 01:00,ZHHH 310100Z 09003MPS 2800 BR NSC 22/21 Q1004 NOSIG
ZHHH,2003-03-31 02:00,ZHHH 310200Z 08003MPS 4000 BR NSC 22/21 Q1005 NOSIG
ZHHH,2003-03-31 03:00,ZHHH 310300Z 09003MPS 7000 NSC 23/21 Q1005 NOSIG
ZHHH,2003-03-31 04:00,ZHHH 310400Z 08003MPS 7000 SCT020 SCT033 BKN120 24/22 Q1004 NOSIG
ZHHH,2003-03-31 05:00,ZHHH 310500Z 09003MPS 7000 SCT020 BKN100 25/22 Q1003 NOSIG
ZHHH,2003-03-31 06:00,ZHHH 310600Z 06002MPS 5000 BR SCT020 BKN100 26/22 Q1003 NOSIG
ZHHH,2003-03-31 07:00,ZHHH 310700Z 08002MPS CAVOK 27/22 Q1002 NOSIG
ZHHH,2003-03-31 08:00,ZHHH 310800Z 08001MPS 9999 SCT023 BKN120 27/22 Q1002 NOSIG
ZHHH,2003-03-31 09:00,ZHHH 310900Z 06003MPS 9999 SCT023 OVC050 26/22 Q1002 NOSIG
ZHHH,2003-03-31 10:00,ZHHH 311000Z 07002MPS 5000 BR NSC 25/22 Q1003 NOSIG
ZHHH,2003-03-31 11:00,ZHHH 311100Z 05002MPS 5000 BR NSC 25/22 Q1003 NOSIG
ZHHH,2003-03-31 12:00,ZHHH 311200Z 05003MPS 5000 BR NSC 23/21 Q1003 NOSIG
ZHHH,2003-03-31 13:00,ZHHH 311300Z 04005MPS 5000 BR SCT040 OVC100 22/20 Q1004 NOSIG
ZHHH,2003-03-31 14:00,ZHHH 311400Z 03005MPS 4000 -TSRA BR FEW007 SCT050CB SCT050 21/20 Q1004 NOSIG
ZHHH,2003-03-31 15:00,ZHHH 311500Z 03004MPS 2000 -TSRA BR FEW010 SCT050CB BKN050 19/18 Q1005 NOSIG
ZHHH,2003-03-31 16:00,ZHHH 311600Z 05005MPS 2000 -TSRA BR SCT050CB BKN050 18/17 Q1005 NOSIG
ZHHH,2003-03-31 17:00,ZHHH 311700Z 05005MPS 1800 -TSRA BR OVC050CB 17/17 Q1005 NOSIG
ZHHH,2003-03-31 18:00,ZHHH 311800Z 06006MPS 1800 -TSRA BR OVC050CB 17/17 Q1004 NOSIG
ZHHH,2003-03-31 19:00,ZHHH 311900Z 05007MPS 1800 -TSRA BR SCT040CB BKN050 17/17 Q1005 NOSIG
ZHHH,2003-03-31 20:00,ZHHH 312000Z 02007MPS 1600 -TSRA BR BKN040CB BKN060 16/16 Q1004 NOSIG
ZHHH,2003-03-31 21:00,ZHHH 312100Z 36002MPS 1800 -TSRA BR BKN040CB BKN060 16/16 Q1005 NOSIG
ZHHH,2003-03-31 22:00,ZHHH 312200Z 02007MPS 3000 RA BR SCT040CB OVC060 16/16 Q1005 RETS NOSIG
ZHHH,2003-03-31 23:00,ZHHH 312300Z 04009MPS 7000 RA BKN040 OVC130 16/16 Q1005 NOSIG
ZHHH,2003-04-01 00:00,ZHHH 010000Z AUTO 07006KT 7SM 17/16 A2968 RMK 60209 70239 SLP051 T01680155 52001 IEM_DS3505
ZHHH,2003-04-01 01:00,ZHHH 010100Z 02004MPS 9999 SCT010 BKN033 17/16 Q1006 NOSIG
ZHHH,2003-04-01 02:00,ZHHH 010200Z 36005MPS 9999 SCT010 BKN100 17/16 Q1006 NOSIG
ZHHH,2003-04-01 03:00,ZHHH 010300Z 03005MPS 9999 SCT010 OVC100 17/15 Q1006 NOSIG
ZHHH,2003-04-01 04:00,ZHHH 010400Z 01006MPS 9999 FEW010 OVC070 16/14 Q1005 NOSIG
ZHHH,2003-04-01 05:00,ZHHH 010500Z 36006MPS 6000 SCT020 OVC070 16/14 Q1005 NOSIG
ZHHH,2003-04-01 06:00,ZHHH 010600Z 01006MPS 5000 BR SCT010 SCT020 OVC050 15/13 Q1005 NOSIG
ZHHH,2003-04-01 08:00,ZHHH 010800Z 02007MPS 5000 -RA BR SCT010 SCT020 OVC040 14/13 Q1005 NOSIG
ZHHH,2003-04-01 09:00,ZHHH 010900Z 01005MPS 5000 -RA BR SCT010 BKN020 OVC033 14/12 Q1006 NOSIG
ZHHH,2003-04-01 10:00,ZHHH 011000Z 36005MPS 9999 SCT010 BKN020 OVC033 13/12 Q1006 NOSIG
ZHHH,2003-04-01 11:00,ZHHH 011100Z 03005MPS 9999 SCT010 OVC033 13/12 Q1006 NOSIG
ZHHH,2003-04-01 12:00,ZHHH 011200Z 35005MPS 9999 SCT010 OVC033 14/12 Q1007 NOSIG
ZHHH,2003-04-01 13:00,ZHHH 011300Z 35006MPS 9999 -RA SCT010 SCT020 OVC033 13/12 Q1009 NOSIG
ZHHH,2003-04-01 14:00,ZHHH 011400Z 35006MPS 9999 SCT010 SCT020 OVC033 13/11 Q1009 NOSIG
ZHHH,2003-04-01 15:00,ZHHH 011500Z 01004MPS 5000 -RA SCT010 OVC033 13/11 Q1010 NOSIG
ZHHH,2003-04-01 16:00,ZHHH 011600Z 36006MPS 4000 -RA SCT010 OVC033 12/10 Q1009 NOSIG
ZHHH,2003-04-01 17:00,ZHHH 011700Z 02005MPS 5000 -RA SCT010 OVC033 11/10 Q1009 NOSIG
ZHHH,2003-04-01 18:00,ZHHH 011800Z 03004MPS 5000 BR SCT010 OVC033 11/09 Q1010 NOSIG
ZHHH,2003-04-01 19:00,ZHHH 011900Z 36005MPS 6000 SCT010 OVC033 11/09 Q1009 NOSIG
ZHHH,2003-04-01 20:00,ZHHH 012000Z 36005MPS 6000 SCT010 OVC033 11/09 Q1009 NOSIG
ZHHH,2003-04-01 21:00,ZHHH 012100Z 02004MPS 3000 BR -RA SCT010 OVC033 10/09 Q1010 NOSIG
ZHHH,2003-04-01 22:00,ZHHH 012200Z 01005MPS 3000 BR -RA SCT010 OVC033 09/08 Q1011 NOSIG
ZHHH,2003-04-01 23:00,ZHHH 012300Z 02006MPS 6000 SCT010 OVC033 09/07 Q1012 NOSIG
ZHHH,2003-04-02 00:00,ZHHH 020000Z 36005MPS 6000 -RA SCT010 OVC033 09/07 Q1013 NOSIG
ZHHH,2003-04-02 01:00,ZHHH 020100Z 36005MPS 6000 SCT008 OVC033 09/07 Q1014 NOSIG
ZHHH,2003-04-02 02:00,ZHHH 020200Z 04004MPS 1800 -RA BR SCT007 BKN010 OVC025 09/08 Q1014 NOSIG
ZHHH,2003-04-02 03:00,ZHHH 020300Z 35005MPS 1600 -RA BR SCT007 BKN010 OVC025 09/07 Q1015 NOSIG
ZHHH,2003-04-02 05:00,ZHHH 020500Z 36006MPS 2500 BR SCT010 OVC025 10/08 Q1014 NOSIG
ZHHH,2003-04-02 06:00,ZHHH 020600Z 35007MPS 3000 BR SCT010 OVC025 11/08 Q1014 NOSIG
ZHHH,2003-04-02 07:00,ZHHH 020700Z 35006MPS 3000 BR SCT010 OVC020 10/08 Q1014 NOSIG
ZHHH,2003-04-02 08:00,ZHHH 020800Z 34006MPS 3000 BR SCT010 OVC020 10/08 Q1014 NOSIG
ZHHH,2003-04-02 09:00,ZHHH 020900Z 01006MPS 3000 BR -RA SCT010 OVC020 10/08 Q1014 NOSIG
ZHHH,2003-04-02 10:00,ZHHH 021000Z 03003MPS 3000 BR SCT010 OVC020 10/08 Q1015 NOSIG
ZHHH,2003-04-02 11:00,ZHHH 021100Z 36004MPS 3000 BR SCT010 OVC020 10/08 Q1015 NOSIG
ZHHH,2003-04-02 12:00,ZHHH 021200Z 35003MPS 2500 -RA BR SCT010 OVC020 10/08 Q1016 NOSIG
ZHHH,2003-04-02 13:00,ZHHH 021300Z 01002MPS 3000 BR SCT010 OVC020 10/08 Q1016 NOSIG
ZHHH,2003-04-02 14:00,ZHHH 021400Z 36004MPS 2500 BR SCT010 OVC020 10/08 Q1016 NOSIG
ZHHH,2003-04-02 15:00,ZHHH 021500Z 35002MPS 3000 BR SCT010 OVC020 10/08 Q1016 NOSIG
ZHHH,2003-04-02 16:00,ZHHH 021600Z 01002MPS 5000 BR SCT010 OVC020 10/09 Q1016 NOSIG
ZHHH,2003-04-02 17:00,ZHHH 021700Z 01002MPS 3000 BR SCT010 OVC025 10/08 Q1016 NOSIG
ZHHH,2003-04-02 18:00,ZHHH 021800Z 03002MPS 4000 BR SCT018 OVC025 10/08 Q1016 NOSIG
ZHHH,2003-04-02 19:00,ZHHH 021900Z 02002MPS 2000 BR SCT010 OVC025 10/09 Q1015 NOSIG
ZHHH,2003-04-02 20:00,ZHHH 022000Z 36003MPS 2500 BR NSC 10/09 Q1015 NOSIG
ZHHH,2003-04-02 21:00,ZHHH 022100Z 36003MPS 1800 BR NSC 10/08 Q1014 NOSIG
ZHHH,2003-04-02 22:00,ZHHH 022200Z 01002MPS 1700 BR NSC 10/08 Q1015 NOSIG
ZHHH,2003-04-02 23:00,ZHHH 022300Z 01003MPS 1700 BR NSC 10/08 Q1015 NOSIG
ZHHH,2003-04-03 00:00,ZHHH 030000Z 03002MPS 1700 BR NSC 10/08 Q1016 NOSIG
ZHHH,2003-04-03 01:00,ZHHH 030100Z 03003MPS 1800 BR NSC 10/08 Q1016 NOSIG
ZHHH,2003-04-03 02:00,ZHHH 030200Z 02004MPS 1800 BR NSC 11/08 Q1017 NOSIG
ZHHH,2003-04-03 03:00,ZHHH 030300Z 02005MPS 1300 R04/1300N BR SCT020 OVC050 10/09 Q1016 NOSIG
ZHHH,2003-04-03 04:00,ZHHH 030400Z 02004MPS 1300 R04/1400U BR SCT010 SCT020 OVC050 10/09 Q1015 NOSIG
ZHHH,2003-04-03 05:00,ZHHH 030500Z 02004MPS 2000 BR SCT020 OVC050 11/09 Q1015 NOSIG
ZHHH,2003-04-03 06:00,ZHHH 030600Z 34002MPS 2000 -RA BR FEW010 SCT020 OVC040 11/10 Q1014 NOSIG
ZHHH,2003-04-03 07:00,ZHHH 030700Z 02003MPS 1300 R04/1000D -RA BR SCT010 SCT020 OVC040 11/10 Q1014 NOSIG
ZHHH,2003-04-03 08:00,ZHHH 030800Z 35003MPS 320V020 1000 R04/0900N -RA BR BKN005 OVC020 11/10 Q1014 NOSIG
ZHHH,2003-04-03 09:00,ZHHH 030900Z 35003MPS 1000 R04/1000N -RA BR BKN005 OVC020 11/10 Q1013 NOSIG
ZHHH,2003-04-03 10:00,ZHHH 031000Z 01003MPS 1000 R04/1000N RA BR BKN005 OVC020 10/10 Q1014 NOSIG
ZHHH,2003-04-03 11:00,ZHHH 031100Z 02003MPS 350V060 1000 R04/1400N RA BR BKN005 OVC020 10/10 Q1014 NOSIG
ZHHH,2003-04-03 12:00,ZHHH 031200Z 34003MPS 320V020 1000 R04/1400N RA BR BKN005 OVC020 10/10 Q1015 NOSIG
ZHHH,2003-04-03 13:00,ZHHH 031300Z 33003MPS 0800 R04/1400N RA FG BKN005 OVC020 10/10 Q1016 NOSIG
ZHHH,2003-04-03 14:00,ZHHH 031400Z 34004MPS 300V360 0700 R04/1200N RA FG BKN005 OVC020 10/10 Q1017 NOSIG
ZHHH,2003-04-03 15:00,ZHHH 031500Z 02005MPS 0700 R04/1200N RA FG BKN005 OVC020 10/10 Q1016 NOSIG
ZHHH,2003-04-03 16:00,ZHHH 031600Z 02004MPS 1100 R04/1400N -RA BR SCT005 OVC020 10/10 Q1017 NOSIG
ZHHH,2003-04-03 17:00,ZHHH 031700Z 36003MPS 1000 R04/1400N -RA BR SCT005 OVC020 10/10 Q1017 NOSIG
ZHHH,2003-04-03 18:00,ZHHH 031800Z 01003MPS 1000 R04/1400N -RA BR SCT005 OVC020 10/10 Q1017 NOSIG
ZHHH,2003-04-03 19:00,ZHHH 031900Z 35002MPS 1000 R04/1400N BR OVC040 10/10 Q1016 NOSIG
ZHHH,2003-04-03 20:00,ZHHH 032000Z 35003MPS 0900 R04/P1500 FG OVC040 10/10 Q1017 NOSIG
ZHHH,2003-04-03 21:00,ZHHH 032100Z 36002MPS 0900 FG NSC 11/10 Q1017 NOSIG
ZHHH,2003-04-03 22:00,ZHHH 032200Z 01004MPS 1000 R04/P1500 BR NSC 11/10 Q1017 NOSIG
ZHHH,2003-04-03 23:00,ZHHH 032300Z 36004MPS 1000 R04/1000N BR NSC 11/10 Q1018 NOSIG
ZHHH,2003-04-04 00:00,ZHHH 040000Z 03004MPS 2500 BR NSC 11/09 Q1019 NOSIG
ZHHH,2003-04-04 01:00,ZHHH 040100Z 03004MPS 4000 BR NSC 12/09 Q1020 NOSIG
ZHHH,2003-04-04 02:00,ZHHH 040200Z 02004MPS 350V050 4000 BR NSC 12/09 Q1021 NOSIG
ZHHH,2003-04-04 03:00,ZHHH 040300Z 03005MPS 360V060 6000 FEW020 OVC070 13/08 Q1021 NOSIG
ZHHH,2003-04-04 04:00,ZHHH 040400Z 01005MPS 9999 BKN020 14/09 Q1021 NOSIG
ZHHH,2003-04-04 05:00,ZHHH 040500Z 02005MPS 350V050 9999 SCT030 15/08 Q1020 NOSIG
ZHHH,2003-04-04 06:00,ZHHH 040600Z 36006MPS CAVOK 16/08 Q1020 NOSIG
ZHHH,2003-04-04 07:00,ZHHH 040700Z 02006MPS 350V060 9999 SCT030 16/07 Q1019 NOSIG
ZHHH,2003-04-04 08:00,ZHHH 040800Z 03006MPS 9999 BKN030 16/06 Q1019 NOSIG
ZHHH,2003-04-04 09:00,ZHHH 040900Z 03006MPS 000V070 9999 SCT030 BKN050 15/07 Q1020 NOSIG
ZHHH,2003-04-04 10:00,ZHHH 041000Z 03005MPS CAVOK 14/07 Q1020 NOSIG
ZHHH,2003-04-04 11:00,ZHHH 041100Z 03004MPS CAVOK 13/07 Q1020 NOSIG
ZHHH,2003-04-04 12:00,ZHHH 041200Z 02003MPS CAVOK 12/07 Q1020 NOSIG
ZHHH,2003-04-04 13:00,ZHHH 041300Z 01003MPS CAVOK 11/08 Q1021 NOSIG
ZHHH,2003-04-04 14:00,ZHHH 041400Z 02003MPS CAVOK 11/07 Q1022 NOSIG
ZHHH,2003-04-04 15:00,ZHHH 041500Z 02003MPS CAVOK 11/07 Q1022 NOSIG
ZHHH,2003-04-04 16:00,ZHHH 041600Z 02003MPS CAVOK 10/07 Q1022 NOSIG
ZHHH,2003-04-04 17:00,ZHHH 041700Z 02003MPS CAVOK 09/07 Q1022 NOSIG
ZHHH,2003-04-04 18:00,ZHHH 041800Z 05001MPS CAVOK 09/07 Q1021 NOSIG
ZHHH,2003-04-04 19:00,ZHHH 041900Z 02002MPS CAVOK 10/08 Q1021 NOSIG
ZHHH,2003-04-04 20:00,ZHHH 042000Z 06002MPS CAVOK 09/08 Q1021 NOSIG
ZHHH,2003-04-04 21:00,ZHHH 042100Z 05003MPS 6000 NSC 10/08 Q1021 NOSIG
ZHHH,2003-04-04 22:00,ZHHH 042200Z 05003MPS 3000 BR NSC 09/08 Q1022 NOSIG
ZHHH,2003-04-04 23:00,ZHHH 042300Z 05002MPS 2000 BR SKC 09/08 Q1022 NOSIG
ZHHH,2003-04-05 00:00,ZHHH 050000Z 06003MPS 2500 BR SKC 10/08 Q1022 NOSIG
ZHHH,2003-04-05 01:00,ZHHH 050100Z 07004MPS 3000 BR SKC 13/09 Q1022 NOSIG
ZHHH,2003-04-05 02:00,ZHHH 050200Z 11003MPS 4000 HZ SKC 15/09 Q1022 NOSIG
ZHHH,2003-04-05 03:00,ZHHH 050300Z 14003MPS 110V200 4000 HZ SKC 16/09 Q1022 NOSIG
ZHHH,2003-04-05 04:00,ZHHH 050400Z 14002MPS 6000 SKC 16/07 Q1021 NOSIG
ZHHH,2003-04-05 05:00,ZHHH 050500Z 10003MPS 330V200 5000 HZ SKC 17/08 Q1020 NOSIG
ZHHH,2003-04-05 06:00,ZHHH 050600Z 09003MPS 000V130 3000 HZ SCT030 18/08 Q1019 NOSIG
ZHHH,2003-04-05 07:00,ZHHH 050700Z 16003MPS 130V220 5000 HZ SCT030 18/08 Q1018 NOSIG
ZHHH,2003-04-05 08:00,ZHHH 050800Z 18002MPS 5000 HZ NSC 17/07 Q1018 NOSIG
ZHHH,2003-04-05 09:00,ZHHH 050900Z 10001MPS 8000 NSC 18/07 Q1017 NOSIG
ZHHH,2003-04-05 10:00,ZHHH 051000Z 30002MPS 8000 NSC 17/07 Q1017 NOSIG
ZHHH,2003-04-05 11:00,ZHHH 051100Z 33001MPS 4000 HZ NSC 16/09 Q1017 NOSIG
ZHHH,2003-04-05 12:00,ZHHH 051200Z 01002MPS 4000 HZ NSC 16/09 Q1017 NOSIG
ZHHH,2003-04-05 13:00,ZHHH 051300Z 36002MPS 5000 HZ NSC 16/11 Q1018 NOSIG
ZHHH,2003-04-05 14:00,ZHHH 051400Z 12002MPS 4000 -RA BR NSC 15/11 Q1018 NOSIG
ZHHH,2003-04-05 15:00,ZHHH 051500Z 14001MPS 1800 BR NSC 15/11 Q1017 NOSIG
ZHHH,2003-04-05 16:00,ZHHH 051600Z 27001MPS 3000 BR NSC 15/12 Q1018 NOSIG
ZHHH,2003-04-05 17:00,ZHHH 051700Z 00000MPS 2400 BR NSC 15/11 Q1017 NOSIG
ZHHH,2003-04-05 18:00,ZHHH 051800Z 33001MPS 2100 BR NSC 14/12 Q1017 NOSIG
ZHHH,2003-04-05 19:00,ZHHH 051900Z 07001MPS 2000 BR NSC 14/12 Q1016 NOSIG
ZHHH,2003-04-05 20:00,ZHHH 052000Z 06002MPS 2000 BR NSC 14/12 Q1016 NOSIG
ZHHH,2003-04-05 21:00,ZHHH 052100Z 08001MPS 2500 BR NSC 14/12 Q1016 NOSIG
ZHHH,2003-04-05 22:00,ZHHH 052200Z 11002MPS 2000 BR NSC 13/12 Q1015 NOSIG
ZHHH,2003-04-05 23:00,ZHHH 052300Z 10002MPS 1200 R04/1000N BR SKC 13/12 Q1015 NOSIG
ZHHH,2003-04-06 00:00,ZHHH 060000Z 11002MPS 1200 R04/1000N BR NSC 14/13 Q1015 NOSIG
ZHHH,2003-04-06 01:00,ZHHH 060100Z 15004MPS 1800 BR SKC 16/12 Q1015 NOSIG
ZHHH,2003-04-06 02:00,ZHHH 060200Z 16004MPS 130V210 2000 HZ SKC 18/13 Q1016 NOSIG
ZHHH,2003-04-06 03:00,ZHHH 060300Z 21004MPS 180V240 2200 HZ SKC 18/12 Q1016 NOSIG
ZHHH,2003-04-06 04:00,ZHHH 060400Z 20004MPS 170V250 3000 HZ SKC 19/11 Q1015 NOSIG
ZHHH,2003-04-06 05:00,ZHHH 060500Z 19004MPS 160V220 3000 HZ SKC 20/11 Q1014 NOSIG
ZHHH,2003-04-06 06:00,ZHHH 060600Z 25005MPS 200V280 5000 HZ NSC 20/11 Q1013 NOSIG
ZHHH,2003-04-06 07:00,ZHHH 060700Z 22003MPS 150V260 6000 NSC 20/11 Q1012 NOSIG
ZHHH,2003-04-06 08:00,ZHHH 060800Z 26003MPS 6000 NSC 20/11 Q1012 NOSIG
ZHHH,2003-04-06 09:00,ZHHH 060900Z 25002MPS 5000 HZ NSC 19/12 Q1012 NOSIG
ZHHH,2003-04-06 10:00,ZHHH 061000Z 26002MPS 2500 -RA BR NSC 18/13 Q1012 NOSIG
ZHHH,2003-04-06 11:00,ZHHH 061100Z 26003MPS 2500 BR FEW020 OVC050 16/14 Q1012 NOSIG
ZHHH,2003-04-06 12:00,ZHHH 061200Z 28002MPS 2500 BR OVC046 16/14 Q1013 NOSIG
ZHHH,2003-04-06 13:00,ZHHH 061300Z 31004MPS 2500 BR FEW020 OVC043 16/13 Q1014 NOSIG
ZHHH,2003-04-06 14:00,ZHHH 061400Z 28003MPS 1800 -RA BR SCT020 OVC040 15/13 Q1015 NOSIG
ZHHH,2003-04-06 15:00,ZHHH 061500Z 28003MPS 1500 BR SCT020 OVC050 15/14 Q1015 NOSIG
ZHHH,2003-04-06 16:00,ZHHH 061600Z 29003MPS 1500 BR FEW020 OVC050 15/13 Q1014 NOSIG
ZHHH,2003-04-06 17:00,ZHHH 061700Z 32003MPS 300V000 1500 BR NSC 14/13 Q1014 NOSIG
ZHHH,2003-04-06 18:00,ZHHH 061800Z 30004MPS 1300 R04/P1500 BR SCT008 OVC050 14/13 Q1014 NOSIG
ZHHH,2003-04-06 19:00,ZHHH 061900Z 30002MPS 1300 R04/1400N BR OVC040 14/13 Q1013 NOSIG
ZHHH,2003-04-06 20:00,ZHHH 062000Z 30003MPS 270V330 1300 R04/P1500 BR OVC040 14/13 Q1013 NOSIG
ZHHH,2003-04-06 21:00,ZHHH 062100Z 30004MPS 1400 R04/P1500 BR OVC040 14/13 Q1013 NOSIG
ZHHH,2003-04-06 22:00,ZHHH 062200Z 28002MPS 1300 R04/1400N BR OVC040 14/13 Q1014 NOSIG
ZHHH,2003-04-06 23:00,ZHHH 062300Z 26003MPS 1100 R04/0800N BR NSC 13/13 Q1014 NOSIG
ZHHH,2003-04-07 00:00,ZHHH 070000Z 27003MPS 1200 R04/1200N BR NSC 14/13 Q1014 NOSIG
ZHHH,2003-04-07 01:00,ZHHH 070100Z 27004MPS 1600 R04/1200N BR NSC 15/13 Q1015 NOSIG
ZHHH,2003-04-07 02:00,ZHHH 070200Z 27004MPS 2300 BR NSC 16/14 Q1015 NOSIG
ZHHH,2003-04-07 03:00,ZHHH 070300Z 30004MPS 260V340 CAVOK 18/11 Q1015 NOSIG
ZHHH,2003-04-07 04:00,ZHHH 070400Z 31005MPS 280V360 CAVOK 20/12 Q1014 NOSIG
ZHHH,2003-04-07 05:00,ZHHH 070500Z 32006MPS 280V350 CAVOK 20/10 Q1014 NOSIG
ZHHH,2003-04-07 06:00,ZHHH 070600Z 30005MPS 250V340 CAVOK 22/11 Q1013 NOSIG
ZHHH,2003-04-07 07:00,ZHHH 070700Z 31004MPS 280V350 CAVOK 23/12 Q1012 NOSIG
ZHHH,2003-04-07 08:00,ZHHH 070800Z 25004MPS 220V290 CAVOK 23/12 Q1012 NOSIG
ZHHH,2003-04-07 09:00,ZHHH 070900Z 25003MPS 220V290 CAVOK 22/12 Q1012 NOSIG
ZHHH,2003-04-07 10:00,ZHHH 071000Z 24003MPS CAVOK 21/13 Q1012 NOSIG
ZHHH,2003-04-07 11:00,ZHHH 071100Z 25003MPS CAVOK 20/13 Q1013 NOSIG
ZHHH,2003-04-07 12:00,ZHHH 071200Z 26002MPS CAVOK 19/13 Q1014 NOSIG
ZHHH,2003-04-07 13:00,ZHHH 071300Z 26001MPS CAVOK 19/13 Q1015 NOSIG
ZHHH,2003-04-07 14:00,ZHHH 071400Z 24002MPS CAVOK 18/15 Q1016 NOSIG
ZHHH,2003-04-07 15:00,ZHHH 071500Z 23002MPS CAVOK 17/15 Q1017 NOSIG
ZHHH,2003-04-07 16:00,ZHHH 071600Z 05002MPS CAVOK 17/15 Q1017 NOSIG
ZHHH,2003-04-07 17:00,ZHHH 071700Z 00000MPS CAVOK 17/14 Q1017 NOSIG
ZHHH,2003-04-07 18:00,ZHHH 071800Z 00000MPS CAVOK 16/14 Q1017 NOSIG
ZHHH,2003-04-07 19:00,ZHHH 071900Z 00000MPS 4000 BR NSC 16/14 Q1017 NOSIG
ZHHH,2003-04-07 20:00,ZHHH 072000Z 00000MPS 3500 BR NSC 15/13 Q1017 NOSIG
ZHHH,2003-04-07 21:00,ZHHH 072100Z 00000MPS 2000 BR NSC 15/14 Q1017 NOSIG
ZHHH,2003-04-07 22:00,ZHHH 072200Z 00000MPS 1000 BR SKC 15/14 Q1017 NOSIG
ZHHH,2003-04-07 23:00,ZHHH 072300Z 13002MPS 1000 R04/1000N BR NSC 14/14 Q1017 NOSIG
ZHHH,2003-04-08 00:00,ZHHH 080000Z 10002MPS 1000 R04/0900N BR NSC 16/15 Q1018 NOSIG
ZHHH,2003-04-08 01:00,ZHHH 080100Z 11002MPS 1300 R04/1000N BR NSC 18/15 Q1019 NOSIG
ZHHH,2003-04-08 02:00,ZHHH 080200Z 00000MPS 1600 BR NSC 20/15 Q1019 NOSIG
ZHHH,2003-04-08 03:00,ZHHH 080300Z 33001MPS 1600 BR NSC 20/16 Q1020 NOSIG
ZHHH,2003-04-08 04:00,ZHHH 080400Z 33002MPS 2500 BR BKN040 21/16 Q1019 NOSIG
ZHHH,2003-04-08 05:00,ZHHH 080500Z 35002MPS 3000 HZ NSC 21/14 Q1019 NOSIG
ZHHH,2003-04-08 06:00,ZHHH 080600Z 02002MPS 3000 HZ NSC 21/14 Q1017 NOSIG
ZHHH,2003-04-08 07:00,ZHHH 080700Z 00000MPS 5000 HZ NSC 22/13 Q1017 NOSIG
ZHHH,2003-04-08 08:00,ZHHH 080800Z 04002MPS CAVOK 22/12 Q1016 NOSIG
ZHHH,2003-04-08 09:00,ZHHH 080900Z 08003MPS CAVOK 22/13 Q1016 NOSIG
ZHHH,2003-04-08 10:00,ZHHH 081000Z 07003MPS CAVOK 21/13 Q1016 NOSIG
ZHHH,2003-04-08 11:00,ZHHH 081100Z 00000MPS CAVOK 20/14 Q1017 NOSIG
ZHHH,2003-04-08 12:00,ZHHH 081200Z 30002MPS CAVOK 20/14 Q1017 NOSIG
ZHHH,2003-04-08 13:00,ZHHH 081300Z 36002MPS 5000 BR NSC 18/15 Q1019 NOSIG
ZHHH,2003-04-08 14:00,ZHHH 081400Z 03003MPS 5000 BR NSC 18/13 Q1019 NOSIG
ZHHH,2003-04-08 15:00,ZHHH 081500Z 05004MPS 5000 BR NSC 18/13 Q1019 NOSIG
ZHHH,2003-04-08 16:00,ZHHH 081600Z 08003MPS 7000 NSC 18/13 Q1019 NOSIG
ZHHH,2003-04-08 17:00,ZHHH 081700Z 07003MPS 6000 NSC 17/13 Q1018 NOSIG
ZHHH,2003-04-08 18:00,ZHHH 081800Z AUTO 36002KT 7SM 18/14 A3006 RMK SLP179 T01770135 57014 IEM_DS3505
ZHHH,2003-04-08 19:00,ZHHH 081900Z 05003MPS 2400 BR SKC 16/13 Q1018 NOSIG
ZHHH,2003-04-08 20:00,ZHHH 082000Z 06003MPS 5000 BR SKC 16/13 Q1017 NOSIG
ZHHH,2003-04-08 21:00,ZHHH 082100Z 04003MPS 5000 BR SKC 15/12 Q1017 NOSIG
ZHHH,2003-04-08 22:00,ZHHH 082200Z 04004MPS 2500 BR NSC 15/12 Q1017 NOSIG
ZHHH,2003-04-08 23:00,ZHHH 082300Z 09001MPS 4000 BR NSC 15/12 Q1018 NOSIG
ZHHH,2003-04-09 00:00,ZHHH 090000Z 07004MPS 2000 BR SCT016 BKN120 16/12 Q1018 NOSIG
ZHHH,2003-04-09 01:00,ZHHH 090100Z 09003MPS 2500 BR FEW020 BKN220 16/13 Q1019 NOSIG
ZHHH,2003-04-09 02:00,ZHHH 090200Z 10005MPS 6000 NSC 19/13 Q1019 NOSIG
ZHHH,2003-04-09 03:00,ZHHH 090300Z 12006MPS CAVOK 21/12 Q1018 NOSIG
ZHHH,2003-04-09 04:00,ZHHH 090400Z 12007MPS CAVOK 21/10 Q1017 NOSIG
ZHHH,2003-04-09 05:00,ZHHH 090500Z 13007MPS CAVOK 23/11 Q1017 NOSIG
ZHHH,2003-04-09 06:00,ZHHH 090600Z 14006MPS CAVOK 23/12 Q1015 NOSIG
ZHHH,2003-04-09 07:00,ZHHH 090700Z 12007MPS CAVOK 24/12 Q1014 NOSIG
ZHHH,2003-04-09 08:00,ZHHH 090800Z 13007MPS CAVOK 24/12 Q1014 NOSIG
ZHHH,2003-04-09 09:00,ZHHH 090900Z 12006MPS CAVOK 23/13 Q1013 NOSIG
ZHHH,2003-04-09 10:00,ZHHH 091000Z AUTO 12012KT 6SM 22/13 A2991 RMK T02200130 IEM_DS3505
ZHHH,2003-04-09 11:00,ZHHH 091100Z 13006MPS CAVOK 21/14 Q1014 NOSIG
ZHHH,2003-04-09 12:00,ZHHH 091200Z 13006MPS CAVOK 20/14 Q1014 NOSIG
ZHHH,2003-04-09 13:00,ZHHH 091300Z 12007MPS 7000 NSC 19/14 Q1014 NOSIG
ZHHH,2003-04-09 14:00,ZHHH 091400Z 12007MPS 6000 NSC 19/14 Q1014 NOSIG
ZHHH,2003-04-09 15:00,ZHHH 091500Z 12006MPS 6000 NSC 18/14 Q1014 NOSIG
ZHHH,2003-04-09 16:00,ZHHH 091600Z 12005MPS 6000 NSC 18/14 Q1014 NOSIG
ZHHH,2003-04-09 17:00,ZHHH 091700Z 12006MPS 6000 NSC 18/13 Q1014 NOSIG
ZHHH,2003-04-09 18:00,ZHHH 091800Z 12007MPS 6000 NSC 18/13 Q1012 NOSIG
ZHHH,2003-04-09 19:00,ZHHH 091900Z 12007MPS 2500 BR NSC 17/13 Q1012 NOSIG
ZHHH,2003-04-09 20:00,ZHHH 092000Z 12007MPS 2500 BR NSC 16/14 Q1011 NOSIG
ZHHH,2003-04-09 21:00,ZHHH 092100Z 13006MPS 1500 TSRA BR OVC060CB 15/14 Q1012 NOSIG
ZHHH,2003-04-09 23:00,ZHHH 092300Z AUTO 13014KT 1SM 15/14 A2988 RMK T01500140 IEM_DS3505
ZHHH,2003-04-10 00:00,ZHHH 100000Z 10006MPS 1400 R04/P1500 -RA BR SCT006 OVC040 14/14 Q1012 NOSIG
ZHHH,2003-04-10 01:00,ZHHH 100100Z 12005MPS 4000 -RA BR SCT006 OVC040 15/14 Q1012 NOSIG
ZHHH,2003-04-10 02:00,ZHHH 100200Z 10003MPS 060V120 2500 -RA BR SCT006 SCT010 OVC040 15/14 Q1014 NOSIG
ZHHH,2003-04-10 03:00,ZHHH 100300Z 10004MPS 3000 -RA BR SCT006 SCT010 OVC040 15/14 Q1013 NOSIG
ZHHH,2003-04-10 04:00,ZHHH 100400Z 07004MPS 1200 R04/1000N RA BR SCT006 SCT010 OVC040 15/14 Q1014 NOSIG
ZHHH,2003-04-10 05:00,ZHHH 100500Z 04004MPS 1200 R04/1000N RA BR SCT006 SCT010 OVC033 15/14 Q1014 NOSIG
ZHHH,2003-04-10 06:00,ZHHH 100600Z 04004MPS 1800 -RA BR SCT006 SCT007 OVC033 15/14 Q1013 RERA NOSIG
ZHHH,2003-04-10 07:00,ZHHH 100700Z 04005MPS 010V070 6000 SCT006 OVC033 14/13 Q1013 NOSIG
ZHHH,2003-04-10 08:00,ZHHH 100800Z 04007MPS 6000 -RA SCT020 OVC033 13/12 Q1013 NOSIG
ZHHH,2003-04-10 09:00,ZHHH 100900Z AUTO 04004KT 7SM 14/12 A2991 RMK SLP138 T01360118 52005 IEM_DS3505
ZHHH,2003-04-10 10:00,ZHHH 101000Z 04006MPS 9999 OVC020 13/11 Q1014 NOSIG
ZHHH,2003-04-10 11:00,ZHHH 101100Z 05004MPS 9999 OVC033 13/11 Q1014 NOSIG
ZHHH,2003-04-10 12:00,ZHHH 101200Z 03004MPS 9999 BKN033 13/11 Q1015 NOSIG
ZHHH,2003-04-10 13:00,ZHHH 101300Z 06002MPS CAVOK 12/10 Q1016 NOSIG
ZHHH,2003-04-10 14:00,ZHHH 101400Z AUTO 05004KT 6SM 11/10 A3000 RMK T01100100 IEM_DS3505
ZHHH,2003-04-10 15:00,ZHHH 101500Z AUTO 34002KT 6SM 12/10 A3000 RMK SLP165 T01230103 52009 IEM_DS3505
ZHHH,2003-04-10 16:00,ZHHH 101600Z AUTO 00000KT 6SM 11/10 A2997 RMK T01100100 IEM_DS3505
ZHHH,2003-04-10 17:00,ZHHH 101700Z 28002MPS 6000 SKC 11/10 Q1015 NOSIG
ZHHH,2003-04-10 18:00,ZHHH 101800Z 35002MPS 3000 BR SKC 10/10 Q1015 NOSIG
ZHHH,2003-04-10 19:00,ZHHH 101900Z 34002MPS 2000 BR SKC 10/10 Q1014 NOSIG
ZHHH,2003-04-10 20:00,ZHHH 102000Z 00000MPS 1800 BR SKC 10/09 Q1014 NOSIG
ZHHH,2003-04-10 21:00,ZHHH 102100Z 12002MPS 1500 BR SKC 10/09 Q1014 NOSIG
ZHHH,2003-04-10 22:00,ZHHH 102200Z 08002MPS 1500 R04/1200N BR SKC 10/10 Q1013 NOSIG
ZHHH,2003-04-10 23:00,ZHHH 102300Z 00000MPS 0600 R04/0800N FG SKC 10/10 Q1014 NOSIG
ZHHH,2003-04-11 00:00,ZHHH 110000Z 12002MPS 1800 BR SKC 11/11 Q1015 NOSIG
ZHHH,2003-04-11 01:00,ZHHH 110100Z 13002MPS 2100 BR SKC 13/11 Q1015 NOSIG
ZHHH,2003-04-11 02:00,ZHHH 110200Z 14002MPS 2200 BR SKC 14/12 Q1015 NOSIG
ZHHH,2003-04-11 03:00,ZHHH 110300Z 10002MPS 2500 BR NSC 16/12 Q1015 NOSIG
ZHHH,2003-04-11 04:00,ZHHH 110400Z 03002MPS 6000 NSC 16/12 Q1014 NOSIG
ZHHH,2003-04-11 05:00,ZHHH 110500Z 13002MPS 6000 NSC 17/12 Q1013 NOSIG
ZHHH,2003-04-11 06:00,ZHHH 110600Z 13002MPS 6000 NSC 17/12 Q1012 NOSIG
ZHHH,2003-04-11 07:00,ZHHH 110700Z 10002MPS 6000 NSC 17/13 Q1011 NOSIG
ZHHH,2003-04-11 08:00,ZHHH 110800Z 10002MPS 6000 NSC 17/13 Q1011 NOSIG
ZHHH,2003-04-11 09:00,ZHHH 110900Z 13002MPS 6000 NSC 17/13 Q1011 NOSIG
ZHHH,2003-04-11 10:00,ZHHH 111000Z 13002MPS 4000 BR NSC 16/13 Q1011 NOSIG
ZHHH,2003-04-11 11:00,ZHHH 111100Z 03001MPS 5000 BR NSC 16/13 Q1011 NOSIG
ZHHH,2003-04-11 12:00,ZHHH 111200Z 07002MPS 5000 BR NSC 16/14 Q1012 NOSIG
ZHHH,2003-04-11 13:00,ZHHH 111300Z 00000MPS 3000 BR NSC 15/14 Q1012 NOSIG
ZHHH,2003-04-11 14:00,ZHHH 111400Z 01002MPS 2500 BR SKC 15/14 Q1013 NOSIG
ZHHH,2003-04-11 15:00,ZHHH 111500Z 03002MPS 3000 BR SKC 15/13 Q1013 NOSIG
ZHHH,2003-04-11 16:00,ZHHH 111600Z 08001MPS 2500 BR SKC 14/14 Q1012 NOSIG
ZHHH,2003-04-11 17:00,ZHHH 111700Z 00000MPS 3000 BR SKC 14/13 Q1012 NOSIG
ZHHH,2003-04-11 18:00,ZHHH 111800Z 00000MPS 3000 BR NSC 14/13 Q1012 NOSIG
ZHHH,2003-04-11 19:00,ZHHH 111900Z 03001MPS 4000 BR NSC 14/13 Q1012 NOSIG
ZHHH,2003-04-11 20:00,ZHHH 112000Z 01001MPS 4000 BR NSC 14/13 Q1011 NOSIG
ZHHH,2003-04-11 21:00,ZHHH 112100Z AUTO 34002KT 6SM 15/14 RMK 70000 SLP115 T01460137 57007 IEM_DS3505
ZHHH,2003-04-11 22:00,ZHHH 112200Z 03003MPS 2500 BR NSC 13/12 Q1011 NOSIG
ZHHH,2003-04-11 23:00,ZHHH 112300Z 07002MPS 2000 BR NSC 13/12 Q1012 NOSIG
ZHHH,2003-04-12 00:00,ZHHH 120000Z 08002MPS 1600 BR NSC 13/13 Q1012 NOSIG
ZHHH,2003-04-12 01:00,ZHHH 120100Z 07003MPS 1800 BR NSC 14/14 Q1012 NOSIG
ZHHH,2003-04-12 02:00,ZHHH 120200Z 07003MPS 2100 BR NSC 15/14 Q1012 NOSIG
ZHHH,2003-04-12 03:00,ZHHH 120300Z 33002MPS 3000 BR NSC 17/14 Q1013 NOSIG
ZHHH,2003-04-12 04:00,ZHHH 120400Z 29004MPS 2500 BR NSC 16/14 Q1013 NOSIG
ZHHH,2003-04-12 05:00,ZHHH 120500Z 29004MPS 2500 BR SCT017 OVC060 16/14 Q1013 NOSIG
ZHHH,2003-04-12 06:00,ZHHH 120600Z 06002MPS 2500 BR SCT017 OVC100 16/15 Q1010 NOSIG
ZHHH,2003-04-12 07:00,ZHHH 120700Z 35003MPS 320V020 4000 BR SCT020 BKN120 18/14 Q1010 NOSIG
ZHHH,2003-04-12 08:00,ZHHH 120800Z 35002MPS 6000 SCT020 BKN120 19/14 Q1010 NOSIG
ZHHH,2003-04-12 09:00,ZHHH 120900Z 27001MPS CAVOK 20/14 Q1010 NOSIG
ZHHH,2003-04-12 10:00,ZHHH 121000Z AUTO 27004KT 6SM 20/14 A2985 RMK T02000140 IEM_DS3505
ZHHH,2003-04-12 11:00,ZHHH 121100Z AUTO 00000KT 6SM 19/13 A2985 RMK T01900130 IEM_DS3505
ZHHH,2003-04-12 12:00,ZHHH 121200Z 36002MPS CAVOK 18/15 Q1012 NOSIG
ZHHH,2003-04-12 13:00,ZHHH 121300Z AUTO 03004KT 6SM 18/14 A2991 RMK T01800140 IEM_DS3505
ZHHH,2003-04-12 14:00,ZHHH 121400Z AUTO 03006KT 6SM 17/14 A2994 RMK T01700140 IEM_DS3505
ZHHH,2003-04-12 15:00,ZHHH 121500Z 03002MPS CAVOK 17/14 Q1014 NOSIG
ZHHH,2003-04-12 16:00,ZHHH 121600Z 03002MPS CAVOK 17/14 Q1015 NOSIG
ZHHH,2003-04-12 17:00,ZHHH 121700Z AUTO 04006KT 6SM 17/14 A2997 RMK T01700140 IEM_DS3505
ZHHH,2003-04-12 18:00,ZHHH 121800Z 03003MPS 5000 BR NSC 17/14 Q1015 NOSIG
ZHHH,2003-04-12 19:00,ZHHH 121900Z 05003MPS 4000 BR NSC 17/14 Q1014 NOSIG
ZHHH,2003-04-12 20:00,ZHHH 122000Z 03004MPS 5000 BR NSC 17/11 Q1014 NOSIG
ZHHH,2003-04-12 21:00,ZHHH 122100Z 02004MPS 5000 BR NSC 16/09 Q1014 NOSIG
ZHHH,2003-04-12 22:00,ZHHH 122200Z 06004MPS 020V090 3000 BR NSC 16/08 Q1014 NOSIG
ZHHH,2003-04-12 23:00,ZHHH 122300Z 02005MPS 350V060 4000 HZ NSC 16/06 Q1015 NOSIG
ZHHH,2003-04-13 00:00,ZHHH 130000Z AUTO 36006KT 9SM 17/05 RMK 70000 SLP158 T01660053 52011 IEM_DS3505
ZHHH,2003-04-13 01:00,ZHHH 130100Z 02004MPS 4000 HZ BKN020 OVC050 16/06 Q1016 NOSIG
ZHHH,2003-04-13 02:00,ZHHH 130200Z AUTO 02008KT 2 1/2SM 16/06 A3003 RMK T01600060 IEM_DS3505
ZHHH,2003-04-13 03:00,ZHHH 130300Z 06004MPS 3500 HZ SCT012 OVC070 16/10 Q1018 NOSIG
ZHHH,2003-04-13 06:00,ZHHH 130600Z 02005MPS CAVOK 17/06 Q1015 NOSIG
ZHHH,2003-04-13 07:00,ZHHH 130700Z 04002MPS CAVOK 17/06 Q1016 NOSIG
ZHHH,2003-04-13 08:00,ZHHH 130800Z 00000MPS CAVOK 16/05 Q1016 NOSIG
ZHHH,2003-04-13 09:00,ZHHH 130900Z 00000MPS CAVOK 16/07 Q1016 NOSIG
ZHHH,2003-04-13 10:00,ZHHH 131000Z 35004MPS 6000 -RA SCT020 OVC070 15/08 Q1017 NOSIG
ZHHH,2003-04-13 11:00,ZHHH 131100Z 05002MPS 9999 FEW033 OVC100 15/06 Q1018 NOSIG
ZHHH,2003-04-13 12:00,ZHHH 131200Z 35001MPS 9999 FEW033 BKN100 14/07 Q1018 NOSIG
ZHHH,2003-04-13 13:00,ZHHH 131300Z 00000MPS CAVOK 14/07 Q1019 NOSIG
ZHHH,2003-04-13 14:00,ZHHH 131400Z 32002MPS CAVOK 13/10 Q1019 NOSIG
ZHHH,2003-04-13 15:00,ZHHH 131500Z 33001MPS 5000 BR NSC 13/09 Q1019 NOSIG
ZHHH,2003-04-13 16:00,ZHHH 131600Z 33003MPS 5000 BR SKC 13/09 Q1019 NOSIG
ZHHH,2003-04-13 17:00,ZHHH 131700Z 32003MPS CAVOK 12/09 Q1019 NOSIG
ZHHH,2003-04-13 18:00,ZHHH 131800Z 31003MPS CAVOK 12/09 Q1018 NOSIG
ZHHH,2003-04-13 19:00,ZHHH 131900Z 28002MPS CAVOK 11/09 Q1017 NOSIG
ZHHH,2003-04-13 20:00,ZHHH 132000Z 25002MPS 5000 BR SKC 11/09 Q1017 NOSIG
ZHHH,2003-04-13 21:00,ZHHH 132100Z 26002MPS 4000 BR SKC 10/09 Q1017 NOSIG
ZHHH,2003-04-13 22:00,ZHHH 132200Z 22001MPS 6000 NSC 10/09 Q1017 NOSIG
ZHHH,2003-04-13 23:00,ZHHH 132300Z 00000MPS 6000 NSC 11/09 Q1018 NOSIG
ZHHH,2003-04-14 00:00,ZHHH 140000Z 24003MPS 7000 SKC 12/10 Q1019 NOSIG
ZHHH,2003-04-14 01:00,ZHHH 140100Z 23003MPS CAVOK 14/09 Q1019 NOSIG
ZHHH,2003-04-14 02:00,ZHHH 140200Z 34004MPS CAVOK 16/10 Q1019 NOSIG
ZHHH,2003-04-14 03:00,ZHHH 140300Z 25004MPS CAVOK 18/10 Q1019 NOSIG
ZHHH,2003-04-14 04:00,ZHHH 140400Z 26004MPS 240V300 CAVOK 19/09 Q1019 NOSIG
ZHHH,2003-04-14 05:00,ZHHH 140500Z 23004MPS 180V280 CAVOK 20/10 Q1018 NOSIG
ZHHH,2003-04-14 06:00,ZHHH 140600Z 22004MPS 180V250 CAVOK 20/10 Q1017 NOSIG
ZHHH,2003-04-14 07:00,ZHHH 140700Z 23004MPS 180V280 CAVOK 21/10 Q1015 NOSIG
ZHHH,2003-04-14 08:00,ZHHH 140800Z 23004MPS CAVOK 21/09 Q1015 NOSIG
ZHHH,2003-04-14 09:00,ZHHH 140900Z 22004MPS 190V250 CAVOK 21/10 Q1014 NOSIG
ZHHH,2003-04-14 12:00,ZHHH 141200Z 22003MPS CAVOK 17/10 Q1014 NOSIG
ZHHH,2003-04-14 13:00,ZHHH 141300Z 23003MPS CAVOK 17/10 Q1015 NOSIG
ZHHH,2003-04-14 14:00,ZHHH 141400Z 00000MPS CAVOK 16/11 Q1015 NOSIG
ZHHH,2003-04-14 15:00,ZHHH 141500Z 14002MPS CAVOK 16/11 Q1015 NOSIG
ZHHH,2003-04-14 16:00,ZHHH 141600Z 14003MPS CAVOK 15/12 Q1015 NOSIG
ZHHH,2003-04-14 18:00,ZHHH 141800Z AUTO 14002KT 9SM 15/11 RMK SLP143 T01490107 57009 IEM_DS3505
ZHHH,2003-04-14 21:00,ZHHH 142100Z AUTO 11002KT 9SM 15/11 RMK SLP135 T01470114 57008 IEM_DS3505
ZHHH,2003-04-14 22:00,ZHHH 142200Z 11003MPS 1600 BR SKC 12/12 Q1014 NOSIG
ZHHH,2003-04-14 23:00,ZHHH 142300Z 12003MPS 1800 BR SKC 13/12 Q1014 NOSIG
ZHHH,2003-04-15 00:00,ZHHH 150000Z 12004MPS 1800 BR SKC 14/13 Q1015 NOSIG
ZHHH,2003-04-15 01:00,ZHHH 150100Z 13004MPS 2500 BR SKC 17/13 Q1015 NOSIG
ZHHH,2003-04-15 02:00,ZHHH 150200Z 14003MPS 3000 HZ SKC 19/12 Q1015 NOSIG
ZHHH,2003-04-15 03:00,ZHHH 150300Z 19004MPS 6000 SKC 22/11 Q1015 NOSIG
ZHHH,2003-04-15 04:00,ZHHH 150400Z 19005MPS CAVOK 23/12 Q1015 NOSIG
ZHHH,2003-04-15 05:00,ZHHH 150500Z 22006MPS CAVOK 24/11 Q1014 NOSIG
ZHHH,2003-04-15 06:00,ZHHH 150600Z 20006MPS CAVOK 25/12 Q1013 NOSIG
ZHHH,2003-04-15 07:00,ZHHH 150700Z 17004MPS 140V200 CAVOK 25/11 Q1012 NOSIG
ZHHH,2003-04-15 08:00,ZHHH 150800Z AUTO 16008KT 6SM 26/11 A2985 RMK T02600110 IEM_DS3505
ZHHH,2003-04-15 09:00,ZHHH 150900Z AUTO 16006KT 12SM 26/10 A2985 RMK SLP108 T02640095 57021 IEM_DS3505
ZHHH,2003-04-15 10:00,ZHHH 151000Z AUTO 14008KT 6SM 25/13 A2983 RMK T02500130 IEM_DS3505
ZHHH,2003-04-15 11:00,ZHHH 151100Z AUTO 12006KT 6SM 22/16 A2983 RMK T02200160 IEM_DS3505
ZHHH,2003-04-15 12:00,ZHHH 151200Z AUTO 09002KT 12SM 23/14 A2983 RMK SLP103 T02280145 57005 IEM_DS3505
ZHHH,2003-04-15 13:00,ZHHH 151300Z AUTO 13010KT 6SM 20/16 A2983 RMK T02000160 IEM_DS3505
ZHHH,2003-04-15 14:00,ZHHH 151400Z AUTO 13010KT 6SM 20/16 A2985 RMK T02000160 IEM_DS3505
ZHHH,2003-04-15 15:00,ZHHH 151500Z AUTO 11004KT 11SM 21/14 A2988 RMK SLP118 T02070141 52015 IEM_DS3505
ZHHH,2003-04-15 16:00,ZHHH 151600Z AUTO 12006KT 6SM 18/15 A2988 RMK T01800150 IEM_DS3505
ZHHH,2003-04-15 17:00,ZHHH 151700Z AUTO 12004KT 6SM 18/15 A2985 RMK T01800150 IEM_DS3505
ZHHH,2003-04-15 18:00,ZHHH 151800Z AUTO 11004KT 11SM 19/13 A2985 RMK SLP109 T01890126 57009 IEM_DS3505
ZHHH,2003-04-15 19:00,ZHHH 151900Z AUTO 12008KT 3SM 18/13 A2983 RMK T01800130 IEM_DS3505
ZHHH,2003-04-15 20:00,ZHHH 152000Z AUTO 12008KT 3SM 17/13 A2983 RMK T01700130 IEM_DS3505
ZHHH,2003-04-15 21:00,ZHHH 152100Z 13004MPS 6000 SKC 17/13 Q1010 NOSIG
ZHHH,2003-04-15 22:00,ZHHH 152200Z AUTO 12008KT 4SM 17/13 A2983 RMK T01700130 IEM_DS3505
ZHHH,2003-04-16 00:00,ZHHH 160000Z AUTO 11002KT 12SM 21/12 A2985 RMK SLP114 T02110124 52012 IEM_DS3505
ZHHH,2003-04-16 01:00,ZHHH 160100Z AUTO 14012KT 6SM 21/14 A2988 RMK T02100140 IEM_DS3505
ZHHH,2003-04-16 02:00,ZHHH 160200Z AUTO 14014KT 6SM 23/15 A2988 RMK T02300150 IEM_DS3505
ZHHH,2003-04-16 03:00,ZHHH 160300Z AUTO 09002KT 12SM 27/15 A2985 RMK SLP116 T02660149 52002 IEM_DS3505
ZHHH,2003-04-16 04:00,ZHHH 160400Z AUTO 15010KT 6SM 27/16 A2983 RMK T02700160 IEM_DS3505
ZHHH,2003-04-16 05:00,ZHHH 160500Z AUTO 15012KT 6SM 28/17 A2980 RMK T02800170 IEM_DS3505
ZHHH,2003-04-16 06:00,ZHHH 160600Z AUTO 14006KT 12SM 29/16 A2980 RMK SLP087 T02900162 57029 IEM_DS3505
ZHHH,2003-04-16 07:00,ZHHH 160700Z 15006MPS CAVOK 29/18 Q1008 NOSIG
ZHHH,2003-04-16 08:00,ZHHH 160800Z AUTO 15010KT 6SM 29/18 A2974 RMK T02900180 IEM_DS3505
ZHHH,2003-04-16 09:00,ZHHH 160900Z AUTO 11004KT 12SM 30/18 A2971 RMK SLP061 T03020178 57026 IEM_DS3505
ZHHH,2003-04-16 10:00,ZHHH 161000Z AUTO 13008KT 6SM 27/20 A2971 RMK T02700200 IEM_DS3505
ZHHH,2003-04-16 11:00,ZHHH 161100Z AUTO 13010KT 6SM 26/20 A2971 RMK T02600200 IEM_DS3505
ZHHH,2003-04-16 12:00,ZHHH 161200Z AUTO 11004KT 11SM 27/19 A2971 RMK SLP065 T02720186 52004 IEM_DS3505
ZHHH,2003-04-16 13:00,ZHHH 161300Z AUTO 13008KT 6SM 24/20 A2974 RMK T02400200 IEM_DS3505
ZHHH,2003-04-16 14:00,ZHHH 161400Z 13004MPS CAVOK 25/20 Q1007 NOSIG
ZHHH,2003-04-16 15:00,ZHHH 161500Z 12003MPS CAVOK 24/20 Q1007 NOSIG
ZHHH,2003-04-16 16:00,ZHHH 161600Z 14005MPS CAVOK 25/20 Q1007 NOSIG
ZHHH,2003-04-16 17:00,ZHHH 161700Z 12003MPS CAVOK 24/20 Q1007 NOSIG
ZHHH,2003-04-16 18:00,ZHHH 161800Z 12004MPS CAVOK 23/20 Q1007 NOSIG
ZHHH,2003-04-16 19:00,ZHHH 161900Z 13003MPS CAVOK 23/21 Q1006 NOSIG
ZHHH,2003-04-16 20:00,ZHHH 162000Z 13003MPS CAVOK 23/20 Q1006 NOSIG
ZHHH,2003-04-16 21:00,ZHHH 162100Z 14003MPS 1000 NSC 23/20 Q1006 NOSIG
ZHHH,2003-04-16 22:00,ZHHH 162200Z 14003MPS 6000 NSC 23/21 Q1005 NOSIG
ZHHH,2003-04-16 23:00,ZHHH 162300Z 14005MPS 6000 NSC 23/20 Q1006 NOSIG
ZHHH,2003-04-17 00:00,ZHHH 170000Z 15006MPS 6000 NSC 24/21 Q1006 NOSIG
ZHHH,2003-04-17 01:00,ZHHH 170100Z 15004MPS CAVOK 24/21 Q1007 NOSIG
ZHHH,2003-04-17 02:00,ZHHH 170200Z 15005MPS CAVOK 25/21 Q1007 NOSIG
ZHHH,2003-04-17 03:00,ZHHH 170300Z 14003MPS CAVOK 26/21 Q1007 NOSIG
ZHHH,2003-04-17 04:00,ZHHH 170400Z 18003MPS CAVOK 28/21 Q1007 NOSIG
ZHHH,2003-04-17 05:00,ZHHH 170500Z 18006MPS 9999 FEW025TCU BKN070 31/22 Q1006 NOSIG
ZHHH,2003-04-17 06:00,ZHHH 170600Z 20008MPS 9999 FEW025TCU BKN110 31/21 Q1005 NOSIG
ZHHH,2003-04-17 07:00,ZHHH 170700Z 20006MPS CAVOK 31/21 Q1004 NOSIG
ZHHH,2003-04-17 09:00,ZHHH 170900Z 19003MPS 150V210 9999 SCT025TCU BKN110 29/22 Q1003 NOSIG
ZHHH,2003-04-17 10:00,ZHHH 171000Z 12006MPS 9999 SCT026 28/23 Q1003 NOSIG
ZHHH,2003-04-17 11:00,ZHHH 171100Z 12004MPS 9999 SCT026 26/23 Q1004 NOSIG
ZHHH,2003-04-17 12:00,ZHHH 171200Z 12004MPS 9999 SCT026 25/23 Q1004 NOSIG
ZHHH,2003-04-17 13:00,ZHHH 171300Z 14004MPS 9999 FEW026TCU SCT026 BKN120 25/22 Q1005 NOSIG
ZHHH,2003-04-17 14:00,ZHHH 171400Z 12005MPS 6000 -TSRA SCT026 FEW030CB BKN100 24/22 Q1005 NOSIG
ZHHH,2003-04-17 15:00,ZHHH 171500Z 12003MPS 3000 BR SCT026 FEW030CB BKN100 24/22 Q1005 RETS NOSIG
ZHHH,2003-04-17 16:00,ZHHH 171600Z 34004MPS 310V030 5000 -TS BR FEW030CB FEW030 BKN100 23/22 Q1006 NOSIG
ZHHH,2003-04-17 17:00,ZHHH 171700Z 10003MPS 2700 BR SCT026 BKN110 23/22 Q1005 NOSIG
ZHHH,2003-04-17 18:00,ZHHH 171800Z 10003MPS 4000 BR SCT026 22/21 Q1004 NOSIG
ZHHH,2003-04-17 19:00,ZHHH 171900Z AUTO 10002MPS 2600 // ////// 22/21 Q1004 NOSIG
ZHHH,2003-04-17 20:00,ZHHH 172000Z 10002MPS 9999 SCT025 22/21 Q1005 NOSIG
ZHHH,2003-04-17 21:00,ZHHH 172100Z 12002MPS 9999 FEW030CB OVC050 22/21 Q1006 NOSIG
ZHHH,2003-04-17 22:00,ZHHH 172200Z 06008MPS 9999 -TS RA SCT020CB OVC033 20/19 Q1007 NOSIG
ZHHH,2003-04-17 23:00,ZHHH 172300Z 06007MPS 2000 TS RA SCT004 SCT020CB OVC030 16/15 Q1009 NOSIG
ZHHH,2003-04-18 00:00,ZHHH 180000Z 05007MPS 6000 -TS SCT004 SCT020CB OVC030 14/13 Q1011 NOSIG
ZHHH,2003-04-18 01:00,ZHHH 180100Z 03006MPS 9999 -TS SCT020 FEW066CB BKN066 12/11 Q1012 NOSIG
ZHHH,2003-04-18 02:00,ZHHH 180200Z 03006MPS 9999 -RA SCT020 SCT040 OVC070 12/11 Q1013 NOSIG
ZHHH,2003-04-18 03:00,ZHHH 180300Z 05006MPS 9999 FEW010 OVC050 13/11 Q1014 NOSIG
ZHHH,2003-04-18 04:00,ZHHH 180400Z 05007MPS 9999 SCT020 BKN110 14/11 Q1014 NOSIG
ZHHH,2003-04-18 05:00,ZHHH 180500Z 04007MPS 9999 BKN033 OVC110 16/12 Q1014 NOSIG
ZHHH,2003-04-18 06:00,ZHHH 180600Z 04008MPS 9999 BKN033 OVC110 16/11 Q1014 NOSIG
ZHHH,2003-04-18 07:00,ZHHH 180700Z 04006MPS 9999 FEW010 BKN033 OVC100 15/11 Q1013 NOSIG
ZHHH,2003-04-18 08:00,ZHHH 180800Z 04006MPS 9999 FEW033TCU SCT050 BKN100 16/11 Q1012 NOSIG
ZHHH,2003-04-18 09:00,ZHHH 180900Z 04007MPS CAVOK 16/11 Q1012 NOSIG
ZHHH,2003-04-18 10:00,ZHHH 181000Z 04007MPS CAVOK 16/11 Q1012 NOSIG
ZHHH,2003-04-18 11:00,ZHHH 181100Z 04004MPS CAVOK 15/11 Q1013 NOSIG
ZHHH,2003-04-18 12:00,ZHHH 181200Z 36005MPS CAVOK 15/11 Q1014 NOSIG
ZHHH,2003-04-18 13:00,ZHHH 181300Z 01005MPS CAVOK 14/11 Q1014 NOSIG
ZHHH,2003-04-18 14:00,ZHHH 181400Z 03003MPS 7000 -RA OVC043 13/11 Q1015 NOSIG
ZHHH,2003-04-18 15:00,ZHHH 181500Z 03005MPS 7000 -RA OVC046 12/11 Q1014 NOSIG
ZHHH,2003-04-18 16:00,ZHHH 181600Z 03003MPS 8000 -RA OVC040 12/11 Q1013 NOSIG
ZHHH,2003-04-18 17:00,ZHHH 181700Z 03003MPS 6000 SCT010 OVC040 12/11 Q1013 NOSIG
ZHHH,2003-04-18 18:00,ZHHH 181800Z 03004MPS 5000 -RA BR BKN020 OVC040 12/10 Q1012 NOSIG
ZHHH,2003-04-18 19:00,ZHHH 181900Z 03005MPS 3500 -RA BR BKN020 OVC040 11/10 Q1012 NOSIG
ZHHH,2003-04-18 20:00,ZHHH 182000Z 02006MPS 350V050 3000 BR SCT015 OVC040 11/10 Q1012 NOSIG
ZHHH,2003-04-18 21:00,ZHHH 182100Z 04006MPS 3000 BR SCT015 OVC040 10/10 Q1011 NOSIG
ZHHH,2003-04-18 22:00,ZHHH 182200Z 02005MPS 2500 -RA BR SCT015 OVC040 10/10 Q1012 NOSIG
ZHHH,2003-04-18 23:00,ZHHH 182300Z 02004MPS 2500 -RA BR SCT015 OVC040 10/10 Q1013 NOSIG
ZHHH,2003-04-19 00:00,ZHHH 190000Z 04004MPS 010V070 9999 SCT005 OVC040 10/10 Q1013 NOSIG
ZHHH,2003-04-19 01:00,ZHHH 190100Z 04005MPS 9999 BKN006 BKN020 OVC040 11/10 Q1013 NOSIG
ZHHH,2003-04-19 02:00,ZHHH 190200Z 02004MPS 9999 BKN007 OVC020 11/10 Q1013 NOSIG
ZHHH,2003-04-19 03:00,ZHHH 190300Z AUTO 36004KT 6SM 12/10 A2991 RMK SLP133 T01220099 52002 IEM_DS3505
ZHHH,2003-04-19 04:00,ZHHH 190400Z AUTO 02006KT 7SM 12/10 A2991 RMK T01200100 IEM_DS3505
ZHHH,2003-04-19 05:00,ZHHH 190500Z AUTO 02008KT 7SM 12/11 A2988 RMK T01200110 IEM_DS3505
ZHHH,2003-04-19 06:00,ZHHH 190600Z AUTO 32002KT 6SM 12/11 A2988 RMK 60012 SLP124 T01220109 57009 IEM_DS3505
ZHHH,2003-04-19 07:00,ZHHH 190700Z 03003MPS 4000 -RA SCT010 OVC020 11/10 Q1012 NOSIG
ZHHH,2003-04-19 08:00,ZHHH 190800Z 05004MPS 9999 -RA FEW006 SCT010 OVC020 11/10 Q1012 NOSIG
ZHHH,2003-04-19 09:00,ZHHH 190900Z 04003MPS 9999 -RA FEW006 SCT010 OVC020 11/10 Q1012 NOSIG
ZHHH,2003-04-19 10:00,ZHHH 191000Z AUTO 04008KT 7SM 11/10 A2988 RMK T01100100 IEM_DS3505
ZHHH,2003-04-19 11:00,ZHHH 191100Z 05004MPS 9999 -RA SCT010 OVC020 11/10 Q1013 NOSIG
ZHHH,2003-04-19 12:00,ZHHH 191200Z 04004MPS 9999 SCT010 OVC020 11/10 Q1014 NOSIG
ZHHH,2003-04-19 13:00,ZHHH 191300Z 04003MPS 9999 SCT010 OVC020 11/09 Q1014 NOSIG
ZHHH,2003-04-19 14:00,ZHHH 191400Z 03003MPS 9999 SCT010 OVC020 10/09 Q1015 NOSIG
ZHHH,2003-04-19 15:00,ZHHH 191500Z 04004MPS 9999 SCT010 OVC020 10/09 Q1015 NOSIG
ZHHH,2003-04-19 16:00,ZHHH 191600Z 04004MPS 9999 SCT010 OVC020 10/09 Q1015 NOSIG
ZHHH,2003-04-19 17:00,ZHHH 191700Z 04003MPS 9999 SCT010 OVC020 10/09 Q1016 NOSIG
ZHHH,2003-04-19 18:00,ZHHH 191800Z 04003MPS 9999 SCT010 OVC020 10/09 Q1015 NOSIG
ZHHH,2003-04-19 19:00,ZHHH 191900Z 03003MPS 9999 OVC020 10/09 Q1016 NOSIG
ZHHH,2003-04-19 20:00,ZHHH 192000Z 02003MPS CAVOK 10/09 Q1016 NOSIG
ZHHH,2003-04-19 21:00,ZHHH 192100Z 03003MPS 9999 BKN020 OVC050 10/09 Q1016 NOSIG
ZHHH,2003-04-19 22:00,ZHHH 192200Z 02003MPS 9999 BKN020 OVC050 10/09 Q1016 NOSIG
ZHHH,2003-04-19 23:00,ZHHH 192300Z 36002MPS CAVOK 11/09 Q1017 NOSIG
ZHHH,2003-04-20 00:00,ZHHH 200000Z 04003MPS 9999 SCT020 OVC050 11/09 Q1018 NOSIG
ZHHH,2003-04-20 01:00,ZHHH 200100Z 05004MPS 9999 SCT020 OVC080 12/09 Q1018 NOSIG
ZHHH,2003-04-20 02:00,ZHHH 200200Z 06004MPS 020V100 9999 SCT020 OVC070 13/10 Q1018 NOSIG
ZHHH,2003-04-20 03:00,ZHHH 200300Z 06003MPS 010V100 9999 BKN020 14/10 Q1019 NOSIG
ZHHH,2003-04-20 05:00,ZHHH 200500Z 28001MPS 9999 SCT022 BKN040 15/10 Q1019 NOSIG
ZHHH,2003-04-20 06:00,ZHHH 200600Z 03002MPS 9999 SCT022 BKN050 16/11 Q1018 NOSIG
ZHHH,2003-04-20 07:00,ZHHH 200700Z 07004MPS 9999 BKN030 16/11 Q1018 NOSIG
ZHHH,2003-04-20 08:00,ZHHH 200800Z 05004MPS 9999 SCT022 BKN050 17/11 Q1018 NOSIG
ZHHH,2003-04-20 09:00,ZHHH 200900Z 05004MPS 9999 SCT026 BKN050 17/12 Q1018 NOSIG
ZHHH,2003-04-20 10:00,ZHHH 201000Z 08004MPS CAVOK 16/12 Q1018 NOSIG
ZHHH,2003-04-20 11:00,ZHHH 201100Z 14002MPS 9999 SCT020 OVC070 16/13 Q1019 NOSIG
ZHHH,2003-04-20 12:00,ZHHH 201200Z 08003MPS 9999 SCT020 OVC070 15/13 Q1019 NOSIG
ZHHH,2003-04-20 13:00,ZHHH 201300Z 07005MPS 9999 SCT020 OVC060 15/11 Q1020 NOSIG
ZHHH,2003-04-20 14:00,ZHHH 201400Z 06004MPS 9999 SCT013 OVC060 15/11 Q1021 NOSIG
ZHHH,2003-04-20 15:00,ZHHH 201500Z 06003MPS 9999 SCT013 OVC060 15/11 Q1021 NOSIG
ZHHH,2003-04-20 16:00,ZHHH 201600Z 06003MPS 9999 SCT013 OVC050 14/11 Q1021 NOSIG
ZHHH,2003-04-20 17:00,ZHHH 201700Z 06005MPS 9999 SCT013 OVC050 14/11 Q1020 NOSIG
ZHHH,2003-04-20 18:00,ZHHH 201800Z 06004MPS 9999 SCT013 OVC050 14/11 Q1020 NOSIG
ZHHH,2003-04-20 19:00,ZHHH 201900Z 06003MPS 9999 SCT012 OVC050 14/11 Q1019 NOSIG
ZHHH,2003-04-20 20:00,ZHHH 202000Z 06002MPS 9999 SCT020 OVC050 13/12 Q1019 NOSIG
ZHHH,2003-04-20 21:00,ZHHH 202100Z 02003MPS 5000 -RA BR SCT020 OVC050 13/12 Q1019 NOSIG
ZHHH,2003-04-20 22:00,ZHHH 202200Z 03002MPS 1900 -RA BR SCT011 OVC040 13/12 Q1020 NOSIG
ZHHH,2003-04-20 23:00,ZHHH 202300Z 34003MPS 1600 -RA BR SCT012 OVC033 13/12 Q1020 NOSIG
ZHHH,2003-04-21 00:00,ZHHH 210000Z 35005MPS 1000 -RA BR SCT011 OVC033 12/12 Q1021 NOSIG
ZHHH,2003-04-21 01:00,ZHHH 210100Z 35003MPS 310V020 1000 R04/0900N -RA BR SCT010 OVC033 13/12 Q1021 NOSIG
ZHHH,2003-04-21 02:00,ZHHH 210200Z 01003MPS 1000 R04/0800N -RA BR SCT010 OVC033 13/13 Q1022 NOSIG
ZHHH,2003-04-21 03:00,ZHHH 210300Z 08004MPS 1800 -RA BR SCT010 OVC033 14/13 Q1021 NOSIG
ZHHH,2003-04-21 04:00,ZHHH 210400Z 08004MPS 2200 BR FEW010 BKN033 15/13 Q1020 NOSIG
ZHHH,2003-04-21 05:00,ZHHH 210500Z 10004MPS 070V130 6000 SCT010 OVC025 16/14 Q1019 NOSIG
ZHHH,2003-04-21 06:00,ZHHH 210600Z 11004MPS 5000 BR SCT009 OVC023 16/13 Q1018 NOSIG
ZHHH,2003-04-21 07:00,ZHHH 210700Z 11003MPS 3000 BR SCT012 OVC033 16/13 Q1018 NOSIG
ZHHH,2003-04-21 08:00,ZHHH 210800Z 12003MPS 3000 BR SCT011 OVC030 16/13 Q1017 NOSIG
ZHHH,2003-04-21 09:00,ZHHH 210900Z 09004MPS 2500 BR SCT011 OVC033 16/14 Q1017 NOSIG
ZHHH,2003-04-21 11:00,ZHHH 211100Z 10004MPS 2500 BR NSC 15/14 Q1017 NOSIG
ZHHH,2003-04-21 12:00,ZHHH 211200Z 10004MPS 3000 BR SCT033 OVC100 15/14 Q1017 NOSIG
ZHHH,2003-04-21 13:00,ZHHH 211300Z 10004MPS 2500 BR SCT033 OVC100 15/14 Q1017 NOSIG
ZHHH,2003-04-21 14:00,ZHHH 211400Z 10004MPS 2500 BR SCT010 OVC040 15/13 Q1018 NOSIG
ZHHH,2003-04-21 15:00,ZHHH 211500Z 09004MPS 3000 BR SCT010 OVC040 15/13 Q1017 NOSIG
ZHHH,2003-04-21 16:00,ZHHH 211600Z 10003MPS 3000 BR SCT010 OVC040 15/13 Q1018 NOSIG
ZHHH,2003-04-21 17:00,ZHHH 211700Z 09003MPS 3000 BR SCT010 OVC040 15/13 Q1017 NOSIG
ZHHH,2003-04-21 18:00,ZHHH 211800Z 07002MPS 2500 BR NSC 15/13 Q1017 NOSIG
ZHHH,2003-04-21 19:00,ZHHH 211900Z 09001MPS 2500 BR SCT010 OVC050 15/13 Q1016 NOSIG
ZHHH,2003-04-21 20:00,ZHHH 212000Z 08003MPS 2500 BR SCT016 OVC050 14/13 Q1015 NOSIG
ZHHH,2003-04-21 21:00,ZHHH 212100Z 00000MPS 2500 BR SCT016 OVC060 14/13 Q1016 NOSIG
ZHHH,2003-04-21 22:00,ZHHH 212200Z 07002MPS 2300 BR NSC 14/13 Q1016 NOSIG
ZHHH,2003-04-21 23:00,ZHHH 212300Z 07001MPS 2200 BR NSC 14/13 Q1016 NOSIG
ZHHH,2003-04-22 00:00,ZHHH 220000Z 09002MPS 1800 BR NSC 14/13 Q1016 NOSIG
ZHHH,2003-04-22 01:00,ZHHH 220100Z 05003MPS 2500 BR SCT010 OVC060 15/13 Q1016 NOSIG
ZHHH,2003-04-22 02:00,ZHHH 220200Z 02003MPS 1800 BR SCT010 OVC060 14/13 Q1017 NOSIG
ZHHH,2003-04-22 03:00,ZHHH 220300Z 02003MPS 1600 BR -RA SCT010 OVC060 14/13 Q1017 NOSIG
ZHHH,2003-04-22 04:00,ZHHH 220400Z 03004MPS 1000 R04/0800N BR -RA SCT010 OVC025 14/13 Q1017 NOSIG
ZHHH,2003-04-22 05:00,ZHHH 220500Z 04003MPS 1600 BR -RA SCT010 OVC030 13/13 Q1017 NOSIG
ZHHH,2003-04-22 06:00,ZHHH 220600Z 04004MPS 1600 BR -RA SCT010 OVC025 13/13 Q1016 NOSIG
ZHHH,2003-04-22 07:00,ZHHH 220700Z 04004MPS 000V060 4000 -RA BR SCT010 OVC025 13/12 Q1016 NOSIG
ZHHH,2003-04-22 08:00,ZHHH 220800Z 04003MPS 4000 -RA BR SCT010 OVC025 13/12 Q1016 NOSIG
ZHHH,2003-04-22 09:00,ZHHH 220900Z 03003MPS 2500 BR SCT010 OVC025 13/12 Q1016 NOSIG
ZHHH,2003-04-22 10:00,ZHHH 221000Z 04004MPS 9999 SCT010 OVC040 12/12 Q1016 NOSIG
ZHHH,2003-04-22 11:00,ZHHH 221100Z 02003MPS 360V060 9999 -RA SCT010 OVC040 12/12 Q1016 NOSIG
ZHHH,2003-04-22 12:00,ZHHH 221200Z 02003MPS 9999 -RA SCT010 OVC030 12/12 Q1017 NOSIG
ZHHH,2003-04-22 13:00,ZHHH 221300Z 03003MPS 360V060 9999 SCT010 OVC030 12/11 Q1017 NOSIG
ZHHH,2003-04-22 14:00,ZHHH 221400Z AUTO 02006KT 7SM 12/11 A3006 RMK T01200110 IEM_DS3505
ZHHH,2003-04-22 15:00,ZHHH 221500Z 01002MPS 9999 FEW010 OVC030 12/11 Q1018 NOSIG
ZHHH,2003-04-22 16:00,ZHHH 221600Z 32002MPS 9999 FEW010 OVC033 12/11 Q1018 NOSIG
ZHHH,2003-04-22 17:00,ZHHH 221700Z 33003MPS 9999 SCT010 OVC033 12/12 Q1018 NOSIG
ZHHH,2003-04-22 18:00,ZHHH 221800Z 34002MPS 9999 FEW010 OVC040 12/11 Q1017 NOSIG
ZHHH,2003-04-22 19:00,ZHHH 221900Z 36002MPS 9999 FEW010 OVC040 12/12 Q1017 NOSIG
ZHHH,2003-04-22 20:00,ZHHH 222000Z 04001MPS 9999 FEW010 OVC040 12/11 Q1016 NOSIG
ZHHH,2003-04-22 21:00,ZHHH 222100Z 31001MPS CAVOK 12/11 Q1016 NOSIG
ZHHH,2003-04-22 22:00,ZHHH 222200Z 10003MPS CAVOK 12/11 Q1016 NOSIG
ZHHH,2003-04-22 23:00,ZHHH 222300Z 34003MPS CAVOK 12/11 Q1017 NOSIG
ZHHH,2003-04-23 00:00,ZHHH 230000Z 36002MPS 5000 BR NSC 12/11 Q1017 NOSIG
ZHHH,2003-04-23 01:00,ZHHH 230100Z 01002MPS 2500 BR FEW015 OVC050 13/12 Q1017 NOSIG
ZHHH,2003-04-23 02:00,ZHHH 230200Z 04004MPS 5000 BR NSC 15/11 Q1017 NOSIG
ZHHH,2003-04-23 03:00,ZHHH 230300Z 01004MPS 7000 NSC 16/11 Q1018 NOSIG
ZHHH,2003-04-23 04:00,ZHHH 230400Z 32004MPS 290V350 6000 SCT015 OVC040 16/12 Q1018 NOSIG
ZHHH,2003-04-23 05:00,ZHHH 230500Z 35003MPS 320V020 3500 BR SCT015 OVC040 15/12 Q1017 NOSIG
ZHHH,2003-04-23 06:00,ZHHH 230600Z 35003MPS 2000 BR SCT030 OVC050 14/12 Q1016 NOSIG
ZHHH,2003-04-23 07:00,ZHHH 230700Z 33004MPS 300V360 1400 R04/1400N BR SCT015 OVC040 13/13 Q1016 NOSIG
ZHHH,2003-04-23 08:00,ZHHH 230800Z 35004MPS 1400 R04/1200N -RA SCT007 SCT010 OVC030 13/12 Q1016 NOSIG
ZHHH,2003-04-23 09:00,ZHHH 230900Z 34003MPS 1200 R04/1000N -RA SCT007 SCT010 OVC030 13/12 Q1016 NOSIG
ZHHH,2003-04-23 10:00,ZHHH 231000Z 02001MPS 1200 -RA SCT007 SCT010 OVC030 13/12 Q1016 NOSIG
ZHHH,2003-04-23 11:00,ZHHH 231100Z 34002MPS 1300 -RA BR SCT008 OVC030 13/13 Q1016 NOSIG
ZHHH,2003-04-23 12:00,ZHHH 231200Z 01002MPS 1300 -RA BR SCT008 OVC040 13/12 Q1016 NOSIG
ZHHH,2003-04-23 13:00,ZHHH 231300Z 34002MPS 1300 BR SCT007 OVC040 13/12 Q1017 NOSIG
ZHHH,2003-04-23 14:00,ZHHH 231400Z 01001MPS 1300 BR NSC 13/12 Q1017 NOSIG
ZHHH,2003-04-23 15:00,ZHHH 231500Z 32002MPS 1400 BR BKN040 12/12 Q1017 NOSIG
ZHHH,2003-04-23 16:00,ZHHH 231600Z 00000MPS 1600 BR BKN040 12/12 Q1017 NOSIG
ZHHH,2003-04-23 17:00,ZHHH 231700Z 00000MPS 1600 BR BKN040 12/12 Q1016 NOSIG
ZHHH,2003-04-23 18:00,ZHHH 231800Z 00000MPS 2000 BR NSC 12/12 Q1015 NOSIG
ZHHH,2003-04-23 19:00,ZHHH 231900Z 00000MPS 1000 R04/1000N BR NSC 12/12 Q1015 NOSIG
ZHHH,2003-04-23 20:00,ZHHH 232000Z 00000MPS 1000 R04/P1500 BR NSC 12/12 Q1014 NOSIG
ZHHH,2003-04-23 21:00,ZHHH 232100Z 00000MPS 1000 R04/1000N BR NSC 12/12 Q1014 NOSIG
ZHHH,2003-04-23 22:00,ZHHH 232200Z 00000MPS 0700 R04/0600N FG NSC 12/12 Q1014 NOSIG
ZHHH,2003-04-23 23:00,ZHHH 232300Z 00000MPS 1000 R04/0600N BR NSC 12/12 Q1014 NOSIG
ZHHH,2003-04-24 00:00,ZHHH 240000Z 31001MPS 1500 BR FEW020 OVC100 13/13 Q1015 NOSIG
ZHHH,2003-04-24 01:00,ZHHH 240100Z 29002MPS 2000 BR NSC 13/12 Q1015 NOSIG
ZHHH,2003-04-24 02:00,ZHHH 240200Z 30004MPS 1000 BR SCT007 OVC070 13/12 Q1016 NOSIG
ZHHH,2003-04-24 03:00,ZHHH 240300Z 31005MPS 1000 -RA BR SCT006 OVC050 13/13 Q1016 NOSIG
ZHHH,2003-04-24 04:00,ZHHH 240400Z 34003MPS 300V000 1000 R04/1000N -RA BR SCT007 OVC040 13/13 Q1015 NOSIG
ZHHH,2003-04-24 05:00,ZHHH 240500Z 35003MPS 310V020 1000 R04/0900N -RA BR SCT007 OVC040 13/13 Q1015 NOSIG
ZHHH,2003-04-24 06:00,ZHHH 240600Z 32003MPS 290V350 1100 R04/1100 -RA BR SCT007 OVC040 13/13 Q1014 NOSIG
ZHHH,2003-04-24 07:00,ZHHH 240700Z 33003MPS 300V000 1600 -RA BR SCT015 OVC050 14/13 Q1013 NOSIG
ZHHH,2003-04-24 08:00,ZHHH 240800Z 33004MPS 2000 -RA BR SCT015 OVC060 14/13 Q1013 NOSIG
ZHHH,2003-04-24 09:00,ZHHH 240900Z 32005MPS 280V350 3000 -RA BR FEW015 BKN050 OVC110 13/13 Q1013 NOSIG
ZHHH,2003-04-24 10:00,ZHHH 241000Z 32004MPS 4000 BR NSC 14/13 Q1013 NOSIG
ZHHH,2003-04-24 11:00,ZHHH 241100Z 33003MPS CAVOK 13/13 Q1013 NOSIG
ZHHH,2003-04-24 12:00,ZHHH 241200Z 33001MPS CAVOK 13/12 Q1013 NOSIG
ZHHH,2003-04-24 13:00,ZHHH 241300Z 33002MPS CAVOK 12/12 Q1013 NOSIG
ZHHH,2003-04-24 14:00,ZHHH 241400Z 00000MPS 5000 BR SKC 12/12 Q1014 NOSIG
ZHHH,2003-04-24 15:00,ZHHH 241500Z 00000MPS 5000 BR SKC 12/12 Q1014 NOSIG
ZHHH,2003-04-24 16:00,ZHHH 241600Z 27002MPS 2000 BR SKC 11/11 Q1014 NOSIG
ZHHH,2003-04-24 17:00,ZHHH 241700Z 00000MPS 1800 BR SKC 11/11 Q1014 NOSIG
ZHHH,2003-04-24 18:00,ZHHH 241800Z 00000MPS 1200 R04/P1500 BR SKC 12/12 Q1013 NOSIG
ZHHH,2003-04-24 19:00,ZHHH 241900Z 00000MPS 1200 R04/P1500 BR SKC 12/12 Q1013 NOSIG
ZHHH,2003-04-24 20:00,ZHHH 242000Z 24002MPS 1200 R04/1200N BR SKC 12/12 Q1013 NOSIG
ZHHH,2003-04-24 21:00,ZHHH 242100Z 25002MPS 0900 R04/1200N FG SKC 12/12 Q1013 NOSIG
ZHHH,2003-04-24 22:00,ZHHH 242200Z 24002MPS 0700 R04/0600N FG SKC 12/12 Q1014 NOSIG
ZHHH,2003-04-24 23:00,ZHHH 242300Z 19002MPS 1300 R04/1400U BR NSC 12/12 Q1014 NOSIG
ZHHH,2003-04-25 00:00,ZHHH 250000Z 20002MPS 2000 BR SCT020 OVC100 13/13 Q1014 NOSIG
ZHHH,2003-04-25 01:00,ZHHH 250100Z 20003MPS 160V250 2000 BR BKN020 OVC060 13/13 Q1015 NOSIG
ZHHH,2003-04-25 02:00,ZHHH 250200Z 18002MPS 2300 BR SCT010 BKN020 15/13 Q1015 NOSIG
ZHHH,2003-04-25 03:00,ZHHH 250300Z 22003MPS 170V280 4000 BR FEW010 BKN020 16/14 Q1015 NOSIG
ZHHH,2003-04-25 04:00,ZHHH 250400Z 21002MPS 9999 SCT010 19/15 Q1015 NOSIG
ZHHH,2003-04-25 05:00,ZHHH 250500Z 21003MPS 9999 SCT020 20/15 Q1014 NOSIG
ZHHH,2003-04-25 06:00,ZHHH 250600Z 21003MPS CAVOK 21/15 Q1014 NOSIG
ZHHH,2003-04-25 07:00,ZHHH 250700Z 21003MPS 9999 FEW023 21/15 Q1013 NOSIG
ZHHH,2003-04-25 08:00,ZHHH 250800Z 21002MPS CAVOK 21/14 Q1013 NOSIG
ZHHH,2003-04-25 09:00,ZHHH 250900Z 23003MPS CAVOK 22/14 Q1013 NOSIG
ZHHH,2003-04-25 10:00,ZHHH 251000Z 18002MPS CAVOK 21/14 Q1013 NOSIG
ZHHH,2003-04-25 11:00,ZHHH 251100Z 17002MPS CAVOK 20/14 Q1013 NOSIG
ZHHH,2003-04-25 12:00,ZHHH 251200Z 12002MPS CAVOK 19/16 Q1013 NOSIG
ZHHH,2003-04-25 13:00,ZHHH 251300Z 11003MPS 090V190 CAVOK 18/16 Q1014 NOSIG
ZHHH,2003-04-25 14:00,ZHHH 251400Z 12003MPS CAVOK 18/16 Q1014 NOSIG
ZHHH,2003-04-25 15:00,ZHHH 251500Z 13002MPS CAVOK 17/15 Q1014 NOSIG
ZHHH,2003-04-25 16:00,ZHHH 251600Z 11002MPS CAVOK 17/15 Q1014 NOSIG
ZHHH,2003-04-25 17:00,ZHHH 251700Z 09002MPS CAVOK 16/14 Q1014 NOSIG
ZHHH,2003-04-25 18:00,ZHHH 251800Z 10003MPS CAVOK 16/14 Q1013 NOSIG
ZHHH,2003-04-25 19:00,ZHHH 251900Z 09003MPS 4000 BR NSC 15/14 Q1013 NOSIG
ZHHH,2003-04-25 20:00,ZHHH 252000Z 08003MPS 3500 BR NSC 15/14 Q1014 NOSIG
ZHHH,2003-04-25 21:00,ZHHH 252100Z 12003MPS 3500 BR NSC 15/14 Q1014 NOSIG
ZHHH,2003-04-25 22:00,ZHHH 252200Z 12003MPS 3000 BR NSC 15/14 Q1014 NOSIG
ZHHH,2003-04-25 23:00,ZHHH 252300Z 12004MPS 4000 BR NSC 16/14 Q1014 NOSIG
ZHHH,2003-04-26 00:00,ZHHH 260000Z 12004MPS 4000 BR NSC 17/15 Q1014 NOSIG
ZHHH,2003-04-26 01:00,ZHHH 260100Z 13004MPS 4000 BR NSC 18/15 Q1015 NOSIG
ZHHH,2003-04-26 02:00,ZHHH 260200Z 13004MPS 4000 BR SKC 20/16 Q1015 NOSIG
ZHHH,2003-04-26 03:00,ZHHH 260300Z 16002MPS 4000 HZ NSC 21/16 Q1015 NOSIG
ZHHH,2003-04-26 04:00,ZHHH 260400Z 12002MPS 4000 HZ NSC 22/17 Q1015 NOSIG
ZHHH,2003-04-26 05:00,ZHHH 260500Z 14002MPS 4500 HZ NSC 24/16 Q1014 NOSIG
ZHHH,2003-04-26 06:00,ZHHH 260600Z 03001MPS 6000 NSC 25/16 Q1014 NOSIG
ZHHH,2003-04-26 07:00,ZHHH 260700Z 22003MPS 7000 NSC 24/15 Q1013 NOSIG
ZHHH,2003-04-26 08:00,ZHHH 260800Z 00000MPS 7000 NSC 25/16 Q1012 NOSIG
ZHHH,2003-04-26 09:00,ZHHH 260900Z 13002MPS 7000 NSC 24/16 Q1012 NOSIG
ZHHH,2003-04-26 10:00,ZHHH 261000Z 17001MPS 7000 NSC 24/16 Q1012 NOSIG
ZHHH,2003-04-26 11:00,ZHHH 261100Z 03002MPS 7000 NSC 23/17 Q1013 NOSIG
ZHHH,2003-04-26 12:00,ZHHH 261200Z 07001MPS 7000 NSC 22/18 Q1013 NOSIG
ZHHH,2003-04-26 13:00,ZHHH 261300Z 06002MPS 3500 BR NSC 21/18 Q1013 NOSIG
ZHHH,2003-04-26 14:00,ZHHH 261400Z 04002MPS 2000 BR NSC 20/17 Q1014 NOSIG
ZHHH,2003-04-26 15:00,ZHHH 261500Z 03002MPS 2000 BR NSC 20/17 Q1015 NOSIG
ZHHH,2003-04-26 16:00,ZHHH 261600Z 04001MPS 2500 BR NSC 19/16 Q1015 NOSIG
ZHHH,2003-04-26 17:00,ZHHH 261700Z 02003MPS 3000 BR NSC 19/16 Q1014 NOSIG
ZHHH,2003-04-26 18:00,ZHHH 261800Z 03003MPS 3000 BR SKC 19/16 Q1014 NOSIG
ZHHH,2003-04-26 19:00,ZHHH 261900Z 06002MPS 5000 BR SKC 19/16 Q1013 NOSIG
ZHHH,2003-04-26 20:00,ZHHH 262000Z 10002MPS 3000 BR NSC 19/16 Q1012 NOSIG
ZHHH,2003-04-26 21:00,ZHHH 262100Z 10002MPS 2000 BR NSC 18/16 Q1013 NOSIG
ZHHH,2003-04-26 22:00,ZHHH 262200Z 06003MPS 3000 BR NSC 18/16 Q1013 NOSIG
ZHHH,2003-04-26 23:00,ZHHH 262300Z 08004MPS 4000 BR NSC 19/16 Q1013 NOSIG
ZHHH,2003-04-27 00:00,ZHHH 270000Z 36003MPS 7000 NSC 19/16 Q1015 NOSIG
ZHHH,2003-04-27 01:00,ZHHH 270100Z 06003MPS 9999 BKN020 OVC060 18/15 Q1015 NOSIG
ZHHH,2003-04-27 03:00,ZHHH 270300Z 04005MPS 9999 BKN030 OVC100 18/14 Q1016 NOSIG
ZHHH,2003-04-27 04:00,ZHHH 270400Z 04004MPS 010V070 CAVOK 18/14 Q1015 NOSIG
ZHHH,2003-04-27 05:00,ZHHH 270500Z 06004MPS 020V090 CAVOK 18/14 Q1015 NOSIG
ZHHH,2003-04-27 06:00,ZHHH 270600Z 08004MPS CAVOK 19/14 Q1014 NOSIG
ZHHH,2003-04-27 07:00,ZHHH 270700Z 06004MPS CAVOK 18/14 Q1013 NOSIG
ZHHH,2003-04-27 08:00,ZHHH 270800Z 36004MPS 320V030 9999 -RA SCT020 OVC050 16/15 Q1013 RERA NOSIG
ZHHH,2003-04-27 09:00,ZHHH 270900Z 03004MPS 360V060 3000 TSRA FEW010 SCT030CB OVC040 16/15 Q1013 NOSIG
ZHHH,2003-04-27 11:00,ZHHH 271100Z 04002MPS 1800 -RA SCT010 FEW030CB OVC060 16/16 Q1013 RETSRA NOSIG
ZHHH,2003-04-27 12:00,ZHHH 271200Z 05002MPS 3000 -RA SCT010 OVC060 16/16 Q1013 NOSIG
ZHHH,2003-04-27 13:00,ZHHH 271300Z 05003MPS 3500 -RA SCT010 OVC060 16/16 Q1014 NOSIG
ZHHH,2003-04-27 14:00,ZHHH 271400Z 02002MPS 3500 -RA SCT010 OVC050 16/16 Q1014 NOSIG
ZHHH,2003-04-27 15:00,ZHHH 271500Z 00000MPS 3000 -RA SCT010 OVC050 16/16 Q1015 NOSIG
ZHHH,2003-04-27 16:00,ZHHH 271600Z 00000MPS 3000 -RA SCT010 OVC050 16/16 Q1014 NOSIG
ZHHH,2003-04-27 17:00,ZHHH 271700Z 12002MPS 2500 -RA SCT010 OVC040 16/16 Q1014 NOSIG
ZHHH,2003-04-27 18:00,ZHHH 271800Z 12001MPS 2500 BR SCT010 OVC040 16/16 Q1013 NOSIG
ZHHH,2003-04-27 19:00,ZHHH 271900Z 00000MPS 2000 -RA BR SCT006 OVC040 16/16 Q1013 NOSIG
ZHHH,2003-04-27 20:00,ZHHH 272000Z 01001MPS 2000 BR SCT006 OVC040 16/16 Q1013 NOSIG
ZHHH,2003-04-27 21:00,ZHHH 272100Z 03002MPS 1800 -RA BR SCT005 OVC040 16/16 Q1013 NOSIG
ZHHH,2003-04-27 22:00,ZHHH 272200Z 06002MPS 2500 BR SCT010 OVC040 16/16 Q1013 NOSIG
ZHHH,2003-04-27 23:00,ZHHH 272300Z 10002MPS 2200 BR SCT010 OVC040 16/16 Q1013 NOSIG
ZHHH,2003-04-28 00:00,ZHHH 280000Z 10002MPS 2000 BR SCT011 OVC040 17/17 Q1013 NOSIG
ZHHH,2003-04-28 01:00,ZHHH 280100Z 00000MPS 1400 R04/1300N BR SCT004 OVC025 18/18 Q1014 NOSIG
ZHHH,2003-04-28 02:00,ZHHH 280200Z 24001MPS 1200 R04/1200N BR SCT003 OVC020 18/18 Q1014 NOSIG
ZHHH,2003-04-28 03:00,ZHHH 280300Z 24001MPS 1200 R04/1000N -DZ BR SCT003 OVC020 18/18 Q1014 NOSIG
ZHHH,2003-04-28 04:00,ZHHH 280400Z 26001MPS 1200 R04/1000N -DZ BR SCT003 OVC020 18/18 Q1014 NOSIG
ZHHH,2003-04-28 05:00,ZHHH 280500Z 19002MPS 1200 R04/1000N BR SCT003 OVC020 19/19 Q1013 NOSIG
ZHHH,2003-04-28 06:00,ZHHH 280600Z 19002MPS 1200 R04/1000N BR SCT003 OVC020 19/19 Q1013 NOSIG
ZHHH,2003-04-28 07:00,ZHHH 280700Z 20002MPS 1500 BR SCT010 OVC020 19/18 Q1012 NOSIG
ZHHH,2003-04-28 08:00,ZHHH 280800Z 19002MPS 2000 BR SCT010 OVC020 19/18 Q1011 NOSIG
ZHHH,2003-04-28 09:00,ZHHH 280900Z 15002MPS 1800 BR OVC020 19/18 Q1011 NOSIG
ZHHH,2003-04-28 10:00,ZHHH 281000Z 10002MPS 1100 R04/1000N BR OVC025 19/18 Q1011 NOSIG
ZHHH,2003-04-28 11:00,ZHHH 281100Z 11002MPS 0900 R04/1400N FG OVC025 19/18 Q1011 NOSIG
ZHHH,2003-04-28 12:00,ZHHH 281200Z 09002MPS 0900 R04/1200N FG OVC025 19/19 Q1012 NOSIG
ZHHH,2003-04-28 13:00,ZHHH 281300Z 08001MPS 0900 R04/1200N -RA FG OVC025 19/18 Q1012 NOSIG
ZHHH,2003-04-28 14:00,ZHHH 281400Z 22002MPS 0600 R04/0900N -TSRA SCT005 SCT020CB OVC025 19/19 Q1014 NOSIG
ZHHH,2003-04-28 15:00,ZHHH 281500Z 00000MPS 0700 R04/0800N -TSRA SCT005 FEW025CB OVC033 18/18 Q1013 NOSIG
ZHHH,2003-04-28 16:00,ZHHH 281600Z 15002MPS 0600 R04/0800N -DZ FG SCT007 OVC050 18/18 Q1013 RETS NOSIG
ZHHH,2003-04-28 17:00,ZHHH 281700Z 00000MPS 0600 R04/0800N -RA FG SCT007 OVC050 18/18 Q1014 NOSIG
ZHHH,2003-04-28 18:00,ZHHH 281800Z 34003MPS 310V010 0600 R04/0800N -RA FG SCT007 OVC040 18/18 Q1013 NOSIG
ZHHH,2003-04-28 19:00,ZHHH 281900Z 32003MPS 0600 RA FG BKN005 OVC020 18/18 Q1014 NOSIG
ZHHH,2003-04-28 20:00,ZHHH 282000Z 30001MPS 0600 R04/0900D RA FG BKN003 OVC020 18/18 Q1013 NOSIG
ZHHH,2003-04-28 21:00,ZHHH 282100Z 34003MPS 300V010 0500 R04/1000N RA FG BKN003 OVC020 18/18 Q1013 NOSIG
ZHHH,2003-04-28 22:00,ZHHH 282200Z 26002MPS 0400 R04/0700N -RA FG BKN003 OVC020 18/18 Q1014 RERA NOSIG
ZHHH,2003-04-28 23:00,ZHHH 282300Z 26002MPS 0400 R04/0500N FG BKN003 OVC020 18/18 Q1015 NOSIG
ZHHH,2003-04-29 00:00,ZHHH 290000Z 28003MPS 250V310 1000 R22/1000N BR OVC040 19/19 Q1016 NOSIG
ZHHH,2003-04-29 03:00,ZHHH 290300Z 35004MPS 5000 BR NSC 22/19 Q1018 NOSIG
ZHHH,2003-04-29 04:00,ZHHH 290400Z 36003MPS 330V040 6000 SCT020 OVC100 23/19 Q1018 NOSIG
ZHHH,2003-04-29 05:00,ZHHH 290500Z 02006MPS 350V050 9999 SCT020 BKN100 23/17 Q1018 NOSIG
ZHHH,2003-04-29 06:00,ZHHH 290600Z 04004MPS 9999 FEW020 BKN100 23/17 Q1018 NOSIG
ZHHH,2003-04-29 07:00,ZHHH 290700Z 03005MPS 360V060 9999 FEW020 BKN130 24/16 Q1018 NOSIG
ZHHH,2003-04-29 08:00,ZHHH 290800Z 04005MPS 9999 FEW020 BKN100 23/16 Q1018 NOSIG
ZHHH,2003-04-29 09:00,ZHHH 290900Z 05003MPS CAVOK 23/16 Q1018 NOSIG
ZHHH,2003-04-29 10:00,ZHHH 291000Z 04003MPS CAVOK 22/16 Q1018 NOSIG
ZHHH,2003-04-29 11:00,ZHHH 291100Z 04003MPS CAVOK 21/15 Q1019 NOSIG
ZHHH,2003-04-29 12:00,ZHHH 291200Z 03004MPS CAVOK 20/15 Q1021 NOSIG
ZHHH,2003-04-29 13:00,ZHHH 291300Z 03003MPS CAVOK 19/15 Q1021 NOSIG
ZHHH,2003-04-29 14:00,ZHHH 291400Z 05003MPS CAVOK 19/15 Q1022 NOSIG
ZHHH,2003-04-29 15:00,ZHHH 291500Z 33001MPS CAVOK 18/14 Q1022 NOSIG
ZHHH,2003-04-29 16:00,ZHHH 291600Z 00000MPS CAVOK 18/14 Q1022 NOSIG
ZHHH,2003-04-29 17:00,ZHHH 291700Z 00000MPS CAVOK 17/14 Q1021 NOSIG
ZHHH,2003-04-29 18:00,ZHHH 291800Z 00000MPS CAVOK 17/14 Q1021 NOSIG
ZHHH,2003-04-29 19:00,ZHHH 291900Z 00000MPS CAVOK 15/14 Q1021 NOSIG
ZHHH,2003-04-29 20:00,ZHHH 292000Z 02001MPS CAVOK 16/14 Q1021 NOSIG
ZHHH,2003-04-29 21:00,ZHHH 292100Z 33003MPS 6000 NSC 15/14 Q1021 NOSIG
ZHHH,2003-04-29 22:00,ZHHH 292200Z 31002MPS 3000 BR NSC 15/14 Q1022 NOSIG
ZHHH,2003-04-29 23:00,ZHHH 292300Z 00000MPS 2500 BR SKC 16/16 Q1022 NOSIG
ZHHH,2003-04-30 00:00,ZHHH 300000Z 00000MPS 4000 BR SKC 19/16 Q1022 NOSIG
ZHHH,2003-04-30 01:00,ZHHH 300100Z 19001MPS CAVOK 21/16 Q1022 NOSIG
ZHHH,2003-04-30 02:00,ZHHH 300200Z 23002MPS CAVOK 21/17 Q1022 NOSIG
ZHHH,2003-04-30 03:00,ZHHH 300300Z 23003MPS CAVOK 23/17 Q1022 NOSIG
ZHHH,2003-04-30 04:00,ZHHH 300400Z 23003MPS 180V300 CAVOK 24/18 Q1022 NOSIG
ZHHH,2003-04-30 05:00,ZHHH 300500Z 23003MPS 200V280 CAVOK 25/18 Q1021 NOSIG
ZHHH,2003-04-30 06:00,ZHHH 300600Z 26003MPS 210V310 CAVOK 26/18 Q1020 NOSIG
ZHHH,2003-04-30 07:00,ZHHH 300700Z 24004MPS 220V280 CAVOK 27/18 Q1018 NOSIG
ZHHH,2003-04-30 08:00,ZHHH 300800Z 24004MPS 200V260 CAVOK 26/17 Q1017 NOSIG
ZHHH,2003-04-30 09:00,ZHHH 300900Z 23003MPS CAVOK 26/17 Q1016 NOSIG
ZHHH,2003-04-30 10:00,ZHHH 301000Z 22003MPS CAVOK 25/17 Q1016 NOSIG
ZHHH,2003-04-30 11:00,ZHHH 301100Z 19003MPS CAVOK 23/19 Q1016 NOSIG
ZHHH,2003-04-30 12:00,ZHHH 301200Z 20003MPS CAVOK 23/18 Q1016 NOSIG
ZHHH,2003-04-30 13:00,ZHHH 301300Z 19003MPS CAVOK 22/18 Q1016 NOSIG
ZHHH,2003-04-30 14:00,ZHHH 301400Z 20003MPS CAVOK 21/17 Q1016 NOSIG
ZHHH,2003-04-30 15:00,ZHHH 301500Z 19002MPS CAVOK 21/17 Q1016 NOSIG
ZHHH,2003-04-30 16:00,ZHHH 301600Z 00000MPS CAVOK 21/16 Q1016 NOSIG
ZHHH,2003-04-30 17:00,ZHHH 301700Z 00000MPS CAVOK 19/17 Q1015 NOSIG
ZHHH,2003-04-30 18:00,ZHHH 301800Z 10002MPS 6000 SKC 18/17 Q1015 NOSIG
ZHHH,2003-04-30 19:00,ZHHH 301900Z 10002MPS 2500 BR SKC 18/16 Q1014 NOSIG
ZHHH,2003-04-30 20:00,ZHHH 302000Z 11003MPS 3000 BR SKC 17/15 Q1014 NOSIG
ZHHH,2003-04-30 21:00,ZHHH 302100Z 13003MPS 1600 BR SKC 17/16 Q1014 NOSIG
ZHHH,2003-04-30 22:00,ZHHH 302200Z 13003MPS 2000 BR SKC 17/16 Q1014 NOSIG
ZHHH,2003-04-30 23:00,ZHHH 302300Z 13003MPS 1400 R04/1200N BR SKC 18/16 Q1014 NOSIG
ZHHH,2003-05-01 00:00,ZHHH 010000Z 14003MPS 1400 R04/P1500 BR SKC 19/17 Q1015 NOSIG
ZHHH,2003-05-01 01:00,ZHHH 010100Z 15004MPS 4000 BR SKC 21/17 Q1015 NOSIG
ZHHH,2003-05-01 02:00,ZHHH 010200Z 15004MPS 5000 HZ SKC 23/16 Q1015 NOSIG
ZHHH,2003-05-01 03:00,ZHHH 010300Z 14003MPS CAVOK 25/16 Q1015 NOSIG
ZHHH,2003-05-01 04:00,ZHHH 010400Z 21005MPS 160V230 CAVOK 27/14 Q1014 NOSIG
ZHHH,2003-05-01 05:00,ZHHH 010500Z 20005MPS CAVOK 28/14 Q1013 NOSIG
ZHHH,2003-05-01 06:00,ZHHH 010600Z 20005MPS CAVOK 29/14 Q1012 NOSIG
ZHHH,2003-05-01 07:00,ZHHH 010700Z 21005MPS 170V240 CAVOK 28/12 Q1011 NOSIG
ZHHH,2003-05-01 08:00,ZHHH 010800Z 20004MPS CAVOK 29/12 Q1010 NOSIG
ZHHH,2003-05-01 09:00,ZHHH 010900Z 19004MPS CAVOK 28/12 Q1009 NOSIG
ZHHH,2003-05-01 10:00,ZHHH 011000Z 19003MPS CAVOK 27/12 Q1009 NOSIG
ZHHH,2003-05-01 11:00,ZHHH 011100Z 15002MPS CAVOK 25/13 Q1009 NOSIG
ZHHH,2003-05-01 12:00,ZHHH 011200Z 14003MPS CAVOK 23/15 Q1009 NOSIG
ZHHH,2003-05-01 13:00,ZHHH 011300Z 13002MPS CAVOK 23/15 Q1009 NOSIG
ZHHH,2003-05-01 14:00,ZHHH 011400Z 13003MPS CAVOK 22/14 Q1009 NOSIG
ZHHH,2003-05-01 15:00,ZHHH 011500Z 12003MPS CAVOK 21/16 Q1009 NOSIG
ZHHH,2003-05-01 16:00,ZHHH 011600Z 13002MPS CAVOK 21/16 Q1009 NOSIG
ZHHH,2003-05-01 17:00,ZHHH 011700Z 13002MPS CAVOK 20/17 Q1008 NOSIG
ZHHH,2003-05-01 18:00,ZHHH 011800Z 12003MPS CAVOK 20/17 Q1008 NOSIG
ZHHH,2003-05-01 19:00,ZHHH 011900Z 10003MPS CAVOK 19/16 Q1007 NOSIG
ZHHH,2003-05-01 20:00,ZHHH 012000Z 13004MPS CAVOK 19/16 Q1007 NOSIG
ZHHH,2003-05-01 21:00,ZHHH 012100Z 12004MPS CAVOK 19/16 Q1007 NOSIG
ZHHH,2003-05-01 22:00,ZHHH 012200Z 12004MPS CAVOK 18/16 Q1007 NOSIG
ZHHH,2003-05-01 23:00,ZHHH 012300Z 13004MPS CAVOK 19/16 Q1007 NOSIG
ZHHH,2003-05-02 00:00,ZHHH 020000Z 13004MPS CAVOK 21/16 Q1007 NOSIG
ZHHH,2003-05-02 01:00,ZHHH 020100Z 14005MPS CAVOK 22/15 Q1007 NOSIG
ZHHH,2003-05-02 02:00,ZHHH 020200Z 15005MPS CAVOK 24/15 Q1007 NOSIG
ZHHH,2003-05-02 03:00,ZHHH 020300Z 15005MPS CAVOK 25/15 Q1007 NOSIG
ZHHH,2003-05-02 04:00,ZHHH 020400Z 15005MPS CAVOK 27/17 Q1006 NOSIG
ZHHH,2003-05-02 05:00,ZHHH 020500Z 19006MPS CAVOK 28/15 Q1006 NOSIG
ZHHH,2003-05-02 06:00,ZHHH 020600Z 21006MPS 170V230 CAVOK 28/17 Q1005 NOSIG
ZHHH,2003-05-02 07:00,ZHHH 020700Z 20006MPS 170V230 CAVOK 28/17 Q1005 NOSIG
ZHHH,2003-05-02 08:00,ZHHH 020800Z 15002MPS 9999 SCT033 OVC100 25/18 Q1004 NOSIG
ZHHH,2003-05-02 09:00,ZHHH 020900Z 12003MPS 9999 SCT033 OVC100 25/20 Q1004 NOSIG
ZHHH,2003-05-02 10:00,ZHHH 021000Z 13002MPS 9999 SCT033 OVC100 24/20 Q1004 NOSIG
ZHHH,2003-05-02 11:00,ZHHH 021100Z 10002MPS CAVOK 24/21 Q1003 NOSIG
ZHHH,2003-05-02 12:00,ZHHH 021200Z 11003MPS CAVOK 24/21 Q1004 NOSIG
ZHHH,2003-05-02 13:00,ZHHH 021300Z 10002MPS CAVOK 23/20 Q1004 NOSIG
ZHHH,2003-05-02 14:00,ZHHH 021400Z 13002MPS CAVOK 23/20 Q1005 NOSIG
ZHHH,2003-05-02 15:00,ZHHH 021500Z 12003MPS CAVOK 23/20 Q1005 NOSIG
ZHHH,2003-05-02 16:00,ZHHH 021600Z 11003MPS CAVOK 22/20 Q1005 NOSIG
ZHHH,2003-05-02 17:00,ZHHH 021700Z 09002MPS 6000 -RA SCT020 OVC100 22/20 Q1004 NOSIG
ZHHH,2003-05-02 18:00,ZHHH 021800Z 13002MPS 3000 -RA BKN020 OVC100 21/20 Q1004 NOSIG
ZHHH,2003-05-02 19:00,ZHHH 021900Z 12003MPS 2500 -RA BR NSC 21/20 Q1003 NOSIG
ZHHH,2003-05-02 20:00,ZHHH 022000Z 11005MPS 3000 -RA BR NSC 21/20 Q1003 NOSIG
ZHHH,2003-05-02 21:00,ZHHH 022100Z 14004MPS 1800 -RA BR BKN040 OVC090 21/20 Q1003 NOSIG
ZHHH,2003-05-02 22:00,ZHHH 022200Z 12004MPS 1200 R04/1200 -RA BR BKN040 OVC090 20/20 Q1003 NOSIG
ZHHH,2003-05-02 23:00,ZHHH 022300Z 12006MPS 1200 R04/1200 BR BKN033 OVC090 20/20 Q1004 NOSIG
ZHHH,2003-05-03 00:00,ZHHH 030000Z AUTO 11004KT 5SM 22/20 RMK 60016 70021 SLP044 T02190198 52010 IEM_DS3505
ZHHH,2003-05-03 01:00,ZHHH 030100Z 12004MPS 1200 R04/1000N BR SCT008 OVC033 21/20 Q1004 NOSIG
ZHHH,2003-05-03 02:00,ZHHH 030200Z 13004MPS 1300 R04/1200N BR SCT008 OVC033 21/21 Q1005 NOSIG
ZHHH,2003-05-03 03:00,ZHHH 030300Z 13003MPS 1300 R04/1200N BR SCT010 OVC033 21/21 Q1005 NOSIG
ZHHH,2003-05-03 04:00,ZHHH 030400Z 13004MPS 1600 BR SCT010 OVC033 22/21 Q1004 NOSIG
ZHHH,2003-05-03 05:00,ZHHH 030500Z 13003MPS 1800 BR SCT013 OVC060 23/22 Q1004 NOSIG
ZHHH,2003-05-03 06:00,ZHHH 030600Z 11003MPS 080V150 1800 BR SCT016 OVC060 24/22 Q1003 NOSIG
ZHHH,2003-05-03 07:00,ZHHH 030700Z 08004MPS 1800 BR SCT010 OVC050 23/22 Q1003 NOSIG
ZHHH,2003-05-03 08:00,ZHHH 030800Z 07003MPS 2500 BR SCT020 OVC050 23/22 Q1003 NOSIG
ZHHH,2003-05-03 09:00,ZHHH 030900Z 07004MPS 1700 -RA BR SCT010 OVC040 22/21 Q1003 NOSIG
ZHHH,2003-05-03 10:00,ZHHH 031000Z 06005MPS 1600 BR SCT010 OVC040 22/21 Q1003 NOSIG
ZHHH,2003-05-03 11:00,ZHHH 031100Z 06005MPS 1600 BR SCT010 OVC040 21/21 Q1003 NOSIG
ZHHH,2003-05-03 12:00,ZHHH 031200Z 06004MPS 2500 BR SCT010 OVC050 21/21 Q1004 NOSIG
ZHHH,2003-05-03 13:00,ZHHH 031300Z 05004MPS 3000 BR SCT010 OVC050 21/20 Q1005 NOSIG
ZHHH,2003-05-03 14:00,ZHHH 031400Z 05004MPS 3000 BR SCT009 OVC050 21/20 Q1005 NOSIG
ZHHH,2003-05-03 15:00,ZHHH 031500Z 05004MPS 3500 BR SCT009 OVC050 21/20 Q1005 NOSIG
ZHHH,2003-05-03 16:00,ZHHH 031600Z 06005MPS 3500 BR SCT009 OVC050 20/20 Q1005 NOSIG
ZHHH,2003-05-03 17:00,ZHHH 031700Z 04004MPS 3500 BR SCT009 OVC050 20/20 Q1005 NOSIG
ZHHH,2003-05-03 18:00,ZHHH 031800Z 04004MPS 4000 BR SCT009 OVC050 20/19 Q1005 NOSIG
ZHHH,2003-05-03 19:00,ZHHH 031900Z 05004MPS 3000 BR BKN018 OVC050 20/19 Q1005 NOSIG
ZHHH,2003-05-03 20:00,ZHHH 032000Z 03004MPS 3000 BR BKN018 OVC050 20/19 Q1005 NOSIG
ZHHH,2003-05-03 21:00,ZHHH 032100Z 04004MPS 3000 BR SCT019 OVC050 20/19 Q1004 NOSIG
ZHHH,2003-05-03 22:00,ZHHH 032200Z 04003MPS 3000 BR BKN022 OVC050 20/19 Q1005 NOSIG
ZHHH,2003-05-03 23:00,ZHHH 032300Z 04005MPS 3000 BR SCT020 BKN060 20/19 Q1005 NOSIG
ZHHH,2003-05-04 00:00,ZHHH 040000Z 04005MPS 9999 BKN026 OVC060 21/20 Q1006 NOSIG
ZHHH,2003-05-04 01:00,ZHHH 040100Z 04003MPS 360V060 9999 BKN020 OVC060 21/20 Q1007 NOSIG
ZHHH,2003-05-04 02:00,ZHHH 040200Z 05004MPS 9999 BKN025 OVC060 21/20 Q1007 NOSIG
ZHHH,2003-05-04 03:00,ZHHH 040300Z 05004MPS 020V080 5000 -RA BKN025 OVC060 20/20 Q1007 NOSIG
ZHHH,2003-05-04 04:00,ZHHH 040400Z 04004MPS 1300 -RA BR SCT010 SCT020 BKN050 20/20 Q1006 NOSIG
ZHHH,2003-05-04 05:00,ZHHH 040500Z 04004MPS 1300 R04/1200N RA BR SCT010 OVC020 20/20 Q1006 NOSIG
ZHHH,2003-05-04 06:00,ZHHH 040600Z 04005MPS 1300 RA BR SCT010 OVC020 21/21 Q1005 NOSIG
ZHHH,2003-05-04 07:00,ZHHH 040700Z 04005MPS 2000 -RA BR SCT006 OVC020 21/21 Q1005 NOSIG
ZHHH,2003-05-04 08:00,ZHHH 040800Z 05004MPS 1800 -RA BR SCT006 SCT010 OVC020 21/20 Q1005 NOSIG
ZHHH,2003-05-04 09:00,ZHHH 040900Z 04004MPS 1600 R04/1200N BR SCT010 OVC020 21/20 Q1005 NOSIG
ZHHH,2003-05-04 10:00,ZHHH 041000Z 04003MPS 1600 R04/1400N BR SCT020 OVC050 21/20 Q1005 NOSIG
ZHHH,2003-05-04 11:00,ZHHH 041100Z 06004MPS 1600 BR SCT020 OVC050 21/20 Q1005 NOSIG
ZHHH,2003-05-04 12:00,ZHHH 041200Z 06003MPS 1600 BR SCT020 OVC050 21/20 Q1005 NOSIG
ZHHH,2003-05-04 13:00,ZHHH 041300Z 05002MPS 1700 BR NSC 21/20 Q1005 NOSIG
ZHHH,2003-05-04 14:00,ZHHH 041400Z 05004MPS 2500 BR FEW012 OVC050 21/20 Q1006 NOSIG
ZHHH,2003-05-04 15:00,ZHHH 041500Z 05004MPS 2800 BR BKN030 21/20 Q1006 NOSIG
ZHHH,2003-05-04 16:00,ZHHH 041600Z 05004MPS 2400 BR BKN040 20/20 Q1006 NOSIG
ZHHH,2003-05-04 17:00,ZHHH 041700Z 05004MPS 2700 BR BKN040 20/20 Q1005 NOSIG
ZHHH,2003-05-04 18:00,ZHHH 041800Z 05002MPS 3000 BR BKN030 20/20 Q1005 NOSIG
ZHHH,2003-05-04 19:00,ZHHH 041900Z 06003MPS 3000 BR OVC040 20/20 Q1005 NOSIG
ZHHH,2003-05-04 20:00,ZHHH 042000Z 06003MPS 3000 BR OVC040 21/20 Q1005 NOSIG
ZHHH,2003-05-04 21:00,ZHHH 042100Z 07004MPS 3000 BR OVC040 20/19 Q1004 NOSIG
ZHHH,2003-05-04 22:00,ZHHH 042200Z 08004MPS 3000 BR NSC 20/20 Q1005 NOSIG
ZHHH,2003-05-04 23:00,ZHHH 042300Z 11005MPS 070V150 4000 BR SCT010 SCT020 OVC050 20/20 Q1005 NOSIG
ZHHH,2003-05-05 00:00,ZHHH 050000Z 05003MPS 1400 R04/1400N RA BR SCT010 SCT020 OVC050 20/19 Q1005 NOSIG
ZHHH,2003-05-05 01:00,ZHHH 050100Z 07004MPS 3000 BR SCT010 OVC050 20/20 Q1005 NOSIG
ZHHH,2003-05-05 02:00,ZHHH 050200Z 07004MPS 9999 -DZ SCT020 OVC050 21/20 Q1005 NOSIG
ZHHH,2003-05-05 03:00,ZHHH 050300Z 08004MPS 9999 SCT006 SCT010 OVC033 21/20 Q1006 NOSIG
ZHHH,2003-05-05 04:00,ZHHH 050400Z 08004MPS 9999 SCT010 OVC033 22/20 Q1005 NOSIG
ZHHH,2003-05-05 05:00,ZHHH 050500Z 07003MPS 050V110 9999 SCT010 BKN100 23/21 Q1005 NOSIG
ZHHH,2003-05-05 06:00,ZHHH 050600Z 05003MPS 020V110 9999 SCT010 OVC100 24/22 Q1004 NOSIG
ZHHH,2003-05-05 07:00,ZHHH 050700Z 04004MPS 360V060 9999 SCT020 OVC100 23/22 Q1004 NOSIG
ZHHH,2003-05-05 08:00,ZHHH 050800Z 04005MPS 9999 SCT020 OVC100 23/22 Q1003 NOSIG
ZHHH,2003-05-05 09:00,ZHHH 050900Z 05004MPS 9999 SCT020 OVC100 23/21 Q1003 NOSIG
ZHHH,2003-05-05 10:00,ZHHH 051000Z 04005MPS 9999 SCT020 BKN100 22/21 Q1003 NOSIG
ZHHH,2003-05-05 11:00,ZHHH 051100Z 05005MPS CAVOK 21/20 Q1003 NOSIG
ZHHH,2003-05-05 12:00,ZHHH 051200Z 04004MPS 9999 SCT020 OVC130 21/20 Q1004 NOSIG
ZHHH,2003-05-05 13:00,ZHHH 051300Z 05005MPS 9999 SCT020 OVC130 21/20 Q1004 NOSIG
ZHHH,2003-05-05 14:00,ZHHH 051400Z 05004MPS 9999 SCT020 OVC130 20/19 Q1004 NOSIG
ZHHH,2003-05-05 15:00,ZHHH 051500Z 05005MPS 9999 SCT020 20/19 Q1004 NOSIG
ZHHH,2003-05-05 16:00,ZHHH 051600Z 06004MPS 9999 SCT020 20/19 Q1003 NOSIG
ZHHH,2003-05-05 17:00,ZHHH 051700Z 05004MPS CAVOK 20/19 Q1002 NOSIG
ZHHH,2003-05-05 18:00,ZHHH 051800Z 05004MPS 9999 BKN020 19/19 Q1002 NOSIG
ZHHH,2003-05-05 19:00,ZHHH 051900Z 08005MPS 9999 BKN020 20/19 Q1001 NOSIG
ZHHH,2003-05-05 20:00,ZHHH 052000Z 08005MPS 9999 -TS SCT020 FEW030CB OVC100 20/19 Q1001 NOSIG
ZHHH,2003-05-05 21:00,ZHHH 052100Z 05004MPS 020V080 9999 -TSRA SCT010 FEW030CB OVC050 20/19 Q1000 NOSIG
ZHHH,2003-05-05 22:00,ZHHH 052200Z 08004MPS 6000 -RA FEW010 FEW030CB BKN050 20/19 Q1000 RETS NOSIG
ZHHH,2003-05-05 23:00,ZHHH 052300Z 10004MPS 6000 NSC 21/20 Q1000 NOSIG
ZHHH,2003-05-06 00:00,ZHHH 060000Z 09003MPS 4000 BR SCT010 OVC050 21/20 Q1001 NOSIG
ZHHH,2003-05-06 01:00,ZHHH 060100Z 05003MPS 360V060 2500 -RA BR SCT010 OVC050 21/21 Q1001 NOSIG
ZHHH,2003-05-06 02:00,ZHHH 060200Z 05004MPS 4000 BR FEW010 OVC040 21/21 Q1001 NOSIG
ZHHH,2003-05-06 03:00,ZHHH 060300Z 08005MPS 6000 SCT020 OVC046 22/22 Q1000 NOSIG
ZHHH,2003-05-06 04:00,ZHHH 060400Z 07005MPS 6000 -RA SCT018 OVC040 22/22 Q0999 NOSIG
ZHHH,2003-05-06 05:00,ZHHH 060500Z 01003MPS 330V040 1600 -TSRA BR FEW006 SCT007 FEW033CB OVC040 22/21 Q0999 NOSIG
ZHHH,2003-05-06 06:00,ZHHH 060600Z 36003MPS 1400 R04/1400N TSRA BR FEW006 SCT007 FEW033CB OVC040 21/21 Q0999 NOSIG
ZHHH,2003-05-06 07:00,ZHHH 060700Z 36003MPS 2500 -TSRA BR SCT008 FEW030CB OVC040 21/21 Q0998 NOSIG
ZHHH,2003-05-06 08:00,ZHHH 060800Z 09003MPS 040V120 2500 BR SCT010 OVC033 21/21 Q0998 NOSIG
ZHHH,2003-05-06 09:00,ZHHH 060900Z 02002MPS 3000 RA BR FEW004 SCT007 OVC030 21/21 Q0998 NOSIG
ZHHH,2003-05-06 10:00,ZHHH 061000Z 32002MPS 3000 -RA BR SCT005 OVC050 21/21 Q0998 NOSIG
ZHHH,2003-05-06 11:00,ZHHH 061100Z 33005MPS 9999 -RA BKN005 OVC050 20/20 Q0999 NOSIG
ZHHH,2003-05-06 12:00,ZHHH 061200Z 34005MPS 300V000 9999 BKN008 OVC050 19/19 Q1000 NOSIG
ZHHH,2003-05-06 13:00,ZHHH 061300Z 34005MPS 9999 BKN009 OVC050 19/19 Q1001 NOSIG
ZHHH,2003-05-06 14:00,ZHHH 061400Z 34005MPS 9999 FEW006 OVC040 19/18 Q1002 NOSIG
ZHHH,2003-05-06 15:00,ZHHH 061500Z 33005MPS 300V010 9999 FEW020 BKN050 19/18 Q1003 NOSIG
ZHHH,2003-05-06 16:00,ZHHH 061600Z 36003MPS 330V030 CAVOK 19/18 Q1003 NOSIG
ZHHH,2003-05-06 17:00,ZHHH 061700Z 33003MPS 290V360 9999 BKN020 OVC060 18/18 Q1004 NOSIG
ZHHH,2003-05-06 18:00,ZHHH 061800Z 34005MPS 9999 BKN023 OVC060 18/18 Q1004 NOSIG
ZHHH,2003-05-06 19:00,ZHHH 061900Z 30004MPS 290V350 9999 BKN020 OVC050 18/18 Q1004 NOSIG
ZHHH,2003-05-06 20:00,ZHHH 062000Z 33005MPS 9999 BKN020 OVC050 18/18 Q1005 NOSIG
ZHHH,2003-05-06 21:00,ZHHH 062100Z 32004MPS 290V010 9999 BKN020 OVC050 18/17 Q1005 NOSIG
ZHHH,2003-05-06 22:00,ZHHH 062200Z 32004MPS 290V350 9999 BKN020 OVC050 18/17 Q1006 NOSIG
ZHHH,2003-05-06 23:00,ZHHH 062300Z 29004MPS 260V320 9999 -RA SCT023 OVC050 18/17 Q1008 NOSIG
ZHHH,2003-05-07 00:00,ZHHH 070000Z 32004MPS 9999 -RA BKN010 OVC060 18/18 Q1008 NOSIG
ZHHH,2003-05-07 01:00,ZHHH 070100Z 34003MPS 300V020 CAVOK 19/18 Q1008 NOSIG
ZHHH,2003-05-07 02:00,ZHHH 070200Z 35004MPS CAVOK 20/18 Q1009 NOSIG
ZHHH,2003-05-07 03:00,ZHHH 070300Z 34004MPS 310V030 CAVOK 21/18 Q1009 NOSIG
ZHHH,2003-05-07 04:00,ZHHH 070400Z 01003MPS 9999 SCT020 BKN100 22/17 Q1009 NOSIG
ZHHH,2003-05-07 05:00,ZHHH 070500Z 12002MPS 9999 SCT020 BKN120 23/18 Q1009 NOSIG
ZHHH,2003-05-07 06:00,ZHHH 070600Z 16001MPS 9999 SCT015 BKN120 23/17 Q1010 NOSIG
ZHHH,2003-05-07 07:00,ZHHH 070700Z 22001MPS 9999 SCT018 BKN110 23/18 Q1010 NOSIG
ZHHH,2003-05-07 08:00,ZHHH 070800Z 13002MPS 9999 SCT022 BKN110 24/18 Q1010 NOSIG
ZHHH,2003-05-07 09:00,ZHHH 070900Z 07003MPS 9999 SCT033 BKN050 23/18 Q1011 NOSIG
ZHHH,2003-05-07 10:00,ZHHH 071000Z 07002MPS CAVOK 23/18 Q1011 NOSIG
ZHHH,2003-05-07 11:00,ZHHH 071100Z 04005MPS CAVOK 21/17 Q1012 NOSIG
ZHHH,2003-05-07 12:00,ZHHH 071200Z 03005MPS 000V060 9999 SCT033 BKN050 21/16 Q1013 NOSIG
ZHHH,2003-05-07 13:00,ZHHH 071300Z 04005MPS 9999 SCT033 BKN050 20/16 Q1014 NOSIG
ZHHH,2003-05-07 14:00,ZHHH 071400Z 04007MPS 9999 SCT033 BKN050 19/16 Q1015 NOSIG
ZHHH,2003-05-07 15:00,ZHHH 071500Z 04006MPS 000V060 9999 SCT033 BKN050 18/16 Q1016 NOSIG
ZHHH,2003-05-07 16:00,ZHHH 071600Z 04006MPS 9999 SCT033 BKN050 17/15 Q1016 NOSIG
ZHHH,2003-05-07 17:00,ZHHH 071700Z 03006MPS 9999 SCT020 OVC050 17/15 Q1016 NOSIG
ZHHH,2003-05-07 18:00,ZHHH 071800Z 04005MPS 9999 SCT020 OVC050 16/14 Q1016 NOSIG
ZHHH,2003-05-07 19:00,ZHHH 071900Z 03006MPS 000V060 CAVOK 16/14 Q1016 NOSIG
ZHHH,2003-05-07 20:00,ZHHH 072000Z 03006MPS 360V060 CAVOK 16/13 Q1017 NOSIG
ZHHH,2003-05-07 21:00,ZHHH 072100Z 03006MPS CAVOK 15/13 Q1018 NOSIG
ZHHH,2003-05-07 22:00,ZHHH 072200Z 03006MPS 000V060 2000 BR NSC 15/12 Q1018 NOSIG
ZHHH,2003-05-07 23:00,ZHHH 072300Z 02006MPS 3000 BR NSC 15/13 Q1019 NOSIG
ZHHH,2003-05-08 00:00,ZHHH 080000Z 03007MPS 360V060 5000 BR NSC 16/13 Q1019 NOSIG
ZHHH,2003-05-08 01:00,ZHHH 080100Z 03007MPS 6000 SKC 17/12 Q1020 NOSIG
ZHHH,2003-05-08 02:00,ZHHH 080200Z 03005MPS 360V060 CAVOK 18/11 Q1020 NOSIG
ZHHH,2003-05-08 03:00,ZHHH 080300Z 02005MPS 340V060 CAVOK 20/08 Q1021 NOSIG
ZHHH,2003-05-08 04:00,ZHHH 080400Z 03006MPS CAVOK 20/09 Q1020 NOSIG
ZHHH,2003-05-08 05:00,ZHHH 080500Z 04006MPS CAVOK 21/09 Q1020 NOSIG
ZHHH,2003-05-08 06:00,ZHHH 080600Z 01004MPS CAVOK 21/09 Q1019 NOSIG
ZHHH,2003-05-08 07:00,ZHHH 080700Z 04004MPS CAVOK 22/10 Q1019 NOSIG
ZHHH,2003-05-08 08:00,ZHHH 080800Z 03004MPS 350V070 CAVOK 22/10 Q1019 NOSIG
ZHHH,2003-05-08 09:00,ZHHH 080900Z 03004MPS 350V060 CAVOK 22/08 Q1019 NOSIG
ZHHH,2003-05-08 10:00,ZHHH 081000Z 03005MPS CAVOK 21/07 Q1019 NOSIG
ZHHH,2003-05-08 11:00,ZHHH 081100Z 03004MPS CAVOK 19/08 Q1019 NOSIG
ZHHH,2003-05-08 12:00,ZHHH 081200Z 02003MPS 360V060 CAVOK 18/08 Q1020 NOSIG
ZHHH,2003-05-08 13:00,ZHHH 081300Z 04005MPS CAVOK 18/07 Q1020 NOSIG
ZHHH,2003-05-08 14:00,ZHHH 081400Z 04004MPS CAVOK 17/08 Q1020 NOSIG
ZHHH,2003-05-08 15:00,ZHHH 081500Z 03003MPS CAVOK 17/09 Q1021 NOSIG
ZHHH,2003-05-08 16:00,ZHHH 081600Z 03003MPS CAVOK 17/10 Q1021 NOSIG
ZHHH,2003-05-08 17:00,ZHHH 081700Z 04003MPS CAVOK 16/10 Q1020 NOSIG
ZHHH,2003-05-08 18:00,ZHHH 081800Z 05003MPS CAVOK 15/10 Q1019 NOSIG
ZHHH,2003-05-08 19:00,ZHHH 081900Z 04003MPS 000V060 CAVOK 16/10 Q1019 NOSIG
ZHHH,2003-05-08 20:00,ZHHH 082000Z 04003MPS CAVOK 16/10 Q1020 NOSIG
ZHHH,2003-05-08 21:00,ZHHH 082100Z 06002MPS CAVOK 15/10 Q1020 NOSIG
ZHHH,2003-05-08 22:00,ZHHH 082200Z 09003MPS CAVOK 15/09 Q1020 NOSIG
ZHHH,2003-05-08 23:00,ZHHH 082300Z 05002MPS CAVOK 16/10 Q1021 NOSIG
ZHHH,2003-05-09 00:00,ZHHH 090000Z 07003MPS CAVOK 16/10 Q1021 NOSIG
ZHHH,2003-05-09 01:00,ZHHH 090100Z 08003MPS CAVOK 17/09 Q1021 NOSIG
ZHHH,2003-05-09 02:00,ZHHH 090200Z 08004MPS CAVOK 18/09 Q1021 NOSIG
ZHHH,2003-05-09 03:00,ZHHH 090300Z 09003MPS CAVOK 18/10 Q1021 NOSIG
ZHHH,2003-05-09 04:00,ZHHH 090400Z 09001MPS 9999 -RA NSC 18/10 Q1021 NOSIG
ZHHH,2003-05-09 05:00,ZHHH 090500Z 01001MPS 9999 -RA NSC 18/10 Q1021 NOSIG
ZHHH,2003-05-09 06:00,ZHHH 090600Z 34003MPS 300V020 9999 -RA NSC 18/13 Q1020 NOSIG
ZHHH,2003-05-09 08:00,ZHHH 090800Z 27002MPS 9999 -RA SCT010 SCT033 OVC070 17/14 Q1019 NOSIG
ZHHH,2003-05-09 09:00,ZHHH 090900Z 33001MPS 7000 -RA SCT010 SCT033 OVC070 16/14 Q1019 NOSIG
ZHHH,2003-05-09 10:00,ZHHH 091000Z 29002MPS 9999 SCT010 SCT033 OVC070 17/13 Q1019 NOSIG
ZHHH,2003-05-09 11:00,ZHHH 091100Z 31002MPS 9999 SCT033 OVC070 16/13 Q1019 NOSIG
ZHHH,2003-05-09 12:00,ZHHH 091200Z 33002MPS 9999 SCT033 OVC070 16/13 Q1020 NOSIG
ZHHH,2003-05-09 13:00,ZHHH 091300Z 01001MPS 9999 SCT033 OVC070 16/13 Q1020 NOSIG
ZHHH,2003-05-09 14:00,ZHHH 091400Z 00000MPS 9999 SCT033 OVC070 16/13 Q1020 NOSIG
ZHHH,2003-05-09 15:00,ZHHH 091500Z 00000MPS 9999 SCT033 OVC070 17/12 Q1020 NOSIG
ZHHH,2003-05-09 16:00,ZHHH 091600Z 32001MPS CAVOK 16/13 Q1020 NOSIG
ZHHH,2003-05-09 17:00,ZHHH 091700Z 33002MPS CAVOK 16/13 Q1020 NOSIG
ZHHH,2003-05-09 18:00,ZHHH 091800Z 00000MPS 6000 NSC 16/14 Q1019 NOSIG
ZHHH,2003-05-09 19:00,ZHHH 091900Z 30002MPS 5000 BR FEW020 OVC060 16/13 Q1019 NOSIG
ZHHH,2003-05-09 20:00,ZHHH 092000Z 31001MPS 5000 BR NSC 16/13 Q1019 NOSIG
ZHHH,2003-05-09 21:00,ZHHH 092100Z 32002MPS 5000 BR NSC 15/13 Q1019 NOSIG
ZHHH,2003-05-09 22:00,ZHHH 092200Z 00000MPS 4000 BR NSC 15/12 Q1019 NOSIG
ZHHH,2003-05-09 23:00,ZHHH 092300Z 00000MPS 5000 BR NSC 16/12 Q1019 NOSIG
ZHHH,2003-05-10 00:00,ZHHH 100000Z 00000MPS 6000 NSC 16/12 Q1019 NOSIG
ZHHH,2003-05-10 01:00,ZHHH 100100Z 25002MPS 6000 NSC 17/13 Q1019 NOSIG
ZHHH,2003-05-10 02:00,ZHHH 100200Z 24002MPS CAVOK 18/12 Q1019 NOSIG
ZHHH,2003-05-10 03:00,ZHHH 100300Z 27001MPS CAVOK 19/13 Q1018 NOSIG
ZHHH,2003-05-10 04:00,ZHHH 100400Z 26002MPS 6000 NSC 20/13 Q1018 NOSIG
ZHHH,2003-05-10 05:00,ZHHH 100500Z 28003MPS 240V310 6000 NSC 20/12 Q1017 NOSIG
ZHHH,2003-05-10 06:00,ZHHH 100600Z 32001MPS 6000 NSC 20/13 Q1017 NOSIG
ZHHH,2003-05-10 07:00,ZHHH 100700Z 24003MPS 210V270 6000 NSC 20/13 Q1016 NOSIG
ZHHH,2003-05-10 08:00,ZHHH 100800Z 24003MPS 170V290 6000 NSC 21/14 Q1015 NOSIG
ZHHH,2003-05-10 09:00,ZHHH 100900Z 24003MPS 180V270 5000 HZ NSC 21/14 Q1015 NOSIG
ZHHH,2003-05-10 10:00,ZHHH 101000Z 21004MPS 5000 HZ NSC 20/14 Q1015 NOSIG
ZHHH,2003-05-10 11:00,ZHHH 101100Z 21003MPS 5000 HZ NSC 19/15 Q1015 NOSIG
ZHHH,2003-05-10 12:00,ZHHH 101200Z 21003MPS 5000 BR NSC 18/14 Q1016 NOSIG
ZHHH,2003-05-10 13:00,ZHHH 101300Z 23002MPS 3000 BR SKC 18/15 Q1016 NOSIG
ZHHH,2003-05-10 14:00,ZHHH 101400Z 21002MPS 3000 BR SKC 18/15 Q1017 NOSIG
ZHHH,2003-05-10 15:00,ZHHH 101500Z 23003MPS 3000 BR SKC 17/15 Q1017 NOSIG
ZHHH,2003-05-10 16:00,ZHHH 101600Z 24002MPS 2500 BR SKC 17/15 Q1017 NOSIG
ZHHH,2003-05-10 17:00,ZHHH 101700Z 24002MPS 2000 BR SKC 17/15 Q1016 NOSIG
ZHHH,2003-05-10 18:00,ZHHH 101800Z 00000MPS 2000 BR SKC 17/16 Q1016 NOSIG
ZHHH,2003-05-10 19:00,ZHHH 101900Z 00000MPS 2000 BR SKC 16/15 Q1015 NOSIG
ZHHH,2003-05-10 20:00,ZHHH 102000Z 00000MPS 1300 R04/P1500 BR SKC 16/15 Q1015 NOSIG
ZHHH,2003-05-10 21:00,ZHHH 102100Z 23001MPS 1300 R04/P1500 BR SKC 16/15 Q1015 NOSIG
ZHHH,2003-05-10 22:00,ZHHH 102200Z 08001MPS 1000 R04/0900D BR SKC 15/15 Q1015 NOSIG
ZHHH,2003-05-10 23:00,ZHHH 102300Z 00000MPS 1000 R04/0600N BR NSC 16/16 Q1016 NOSIG
ZHHH,2003-05-11 00:00,ZHHH 110000Z 12001MPS 1000 R04/1200U BR SCT030 17/17 Q1016 NOSIG
ZHHH,2003-05-11 01:00,ZHHH 110100Z 11002MPS 1200 R04/1200N BR SCT020 18/16 Q1016 NOSIG
ZHHH,2003-05-11 02:00,ZHHH 110200Z 16002MPS 1400 R04/1400U BR SCT020 SCT100 20/17 Q1016 NOSIG
ZHHH,2003-05-11 03:00,ZHHH 110300Z 13003MPS 100V170 1400 R04/P1500 BR NSC 20/16 Q1016 NOSIG
ZHHH,2003-05-11 04:00,ZHHH 110400Z 15002MPS 1600 HZ NSC 22/17 Q1015 NOSIG
ZHHH,2003-05-11 05:00,ZHHH 110500Z 14002MPS 2500 HZ NSC 22/17 Q1014 NOSIG
ZHHH,2003-05-11 06:00,ZHHH 110600Z 14002MPS 2500 HZ NSC 23/17 Q1014 NOSIG
ZHHH,2003-05-11 07:00,ZHHH 110700Z AUTO 16006KT 2SM 24/17 A2991 RMK T02400170 IEM_DS3505
ZHHH,2003-05-11 08:00,ZHHH 110800Z 14003MPS 110V200 3000 HZ SKC 24/17 Q1012 NOSIG
ZHHH,2003-05-11 09:00,ZHHH 110900Z AUTO 11002KT 11SM 25/15 A2988 RMK SLP119 T02490151 57019 IEM_DS3505
ZHHH,2003-05-11 10:00,ZHHH 111000Z 12003MPS 2500 HZ NSC 24/18 Q1012 NOSIG
ZHHH,2003-05-11 11:00,ZHHH 111100Z 12002MPS 2500 HZ NSC 23/17 Q1012 NOSIG
ZHHH,2003-05-11 12:00,ZHHH 111200Z 14001MPS 2100 BR NSC 22/18 Q1012 NOSIG
ZHHH,2003-05-11 13:00,ZHHH 111300Z 09001MPS 1600 BR NSC 22/19 Q1013 NOSIG
ZHHH,2003-05-11 14:00,ZHHH 111400Z 09002MPS 1600 BR NSC 22/18 Q1013 NOSIG
ZHHH,2003-05-11 15:00,ZHHH 111500Z 00000MPS 1500 BR NSC 21/18 Q1013 NOSIG
ZHHH,2003-05-11 16:00,ZHHH 111600Z 03002MPS 1500 -RA BR SCT020 OVC130 21/19 Q1013 NOSIG
ZHHH,2003-05-11 17:00,ZHHH 111700Z 07002MPS 1400 R04/1400N -RA BR SCT020 OVC070 20/19 Q1012 NOSIG
ZHHH,2003-05-11 18:00,ZHHH 111800Z 04002MPS 1500 -RA BR SCT020 OVC070 20/19 Q1012 NOSIG
ZHHH,2003-05-11 19:00,ZHHH 111900Z 04002MPS 1500 -RA BR SCT020 OVC070 20/19 Q1011 NOSIG
ZHHH,2003-05-11 20:00,ZHHH 112000Z 36001MPS 1500 RA BR SCT020 OVC050 20/19 Q1013 NOSIG
ZHHH,2003-05-11 21:00,ZHHH 112100Z 09004MPS 1800 -RA BR SCT010 OVC050 19/19 Q1012 RERA NOSIG
ZHHH,2003-05-11 22:00,ZHHH 112200Z 08005MPS 1600 -RA BR SCT010 OVC050 19/19 Q1012 NOSIG
ZHHH,2003-05-11 23:00,ZHHH 112300Z 09005MPS 1600 BR SCT010 OVC050 19/19 Q1013 NOSIG
ZHHH,2003-05-12 00:00,ZHHH 120000Z 07003MPS 030V090 2000 -RA BR SCT010 OVC050 19/19 Q1013 NOSIG
ZHHH,2003-05-12 01:00,ZHHH 120100Z 07003MPS 1600 -TSRA BR SCT010 SCT030CB OVC050 19/18 Q1013 NOSIG
ZHHH,2003-05-12 02:00,ZHHH 120200Z 08005MPS 3000 BR FEW018 SCT050 BKN100 20/19 Q1012 NOSIG
ZHHH,2003-05-12 03:00,ZHHH 120300Z 12005MPS 4000 BR BKN018 BKN100 22/20 Q1012 NOSIG
ZHHH,2003-05-12 04:00,ZHHH 120400Z 04001MPS 6000 SCT013 SCT033 OVC060 21/20 Q1013 NOSIG
ZHHH,2003-05-12 05:00,ZHHH 120500Z 10001MPS 6000 SCT012 OVC050 21/20 Q1013 NOSIG
ZHHH,2003-05-12 06:00,ZHHH 120600Z 10002MPS 3000 BR SCT012 OVC050 22/20 Q1012 NOSIG
ZHHH,2003-05-12 07:00,ZHHH 120700Z 04002MPS 3000 BR SCT013 OVC050 22/20 Q1012 NOSIG
ZHHH,2003-05-12 08:00,ZHHH 120800Z 07003MPS 040V100 5000 -RA BR SCT012 OVC040 21/20 Q1011 NOSIG
ZHHH,2003-05-12 09:00,ZHHH 120900Z 06002MPS 5000 BR SCT013 OVC050 21/20 Q1011 NOSIG
ZHHH,2003-05-12 10:00,ZHHH 121000Z 06002MPS 1800 -RA BR SCT009 SCT016 OVC040 20/19 Q1011 NOSIG
ZHHH,2003-05-12 11:00,ZHHH 121100Z 33001MPS 1200 BR SCT016 OVC050 20/20 Q1011 NOSIG
ZHHH,2003-05-12 12:00,ZHHH 121200Z 02002MPS 1400 BR SCT016 OVC050 20/20 Q1011 NOSIG
ZHHH,2003-05-12 13:00,ZHHH 121300Z 07002MPS 1200 R04/1000D BR SCT014 OVC050 20/20 Q1012 NOSIG
ZHHH,2003-05-12 14:00,ZHHH 121400Z 03002MPS 1200 R04/1000N BR SCT011 OVC040 20/20 Q1012 NOSIG
ZHHH,2003-05-12 15:00,ZHHH 121500Z 00000MPS 1200 R04/1200U BR SCT010 OVC040 20/20 Q1012 NOSIG
ZHHH,2003-05-12 16:00,ZHHH 121600Z 00000MPS 1200 R04/1200N BR SCT020 OVC050 20/20 Q1012 NOSIG
ZHHH,2003-05-12 17:00,ZHHH 121700Z 04002MPS 1200 R04/1200N BR SCT020 OVC050 20/20 Q1011 NOSIG
ZHHH,2003-05-12 18:00,ZHHH 121800Z 00000MPS 1200 R04/1200N BR SCT015 OVC050 20/20 Q1011 NOSIG
ZHHH,2003-05-12 19:00,ZHHH 121900Z 00000MPS 1000 R04/1000N BR SCT015 OVC050 20/20 Q1011 NOSIG
ZHHH,2003-05-12 20:00,ZHHH 122000Z 34002MPS 1000 R04/1000N BR SCT015 OVC050 20/20 Q1011 NOSIG
ZHHH,2003-05-12 21:00,ZHHH 122100Z 00000MPS 1000 R04/1000N BR SCT015 OVC050 20/20 Q1011 NOSIG
ZHHH,2003-05-12 22:00,ZHHH 122200Z 33001MPS 1000 R04/1000N BR NSC 20/20 Q1011 NOSIG
ZHHH,2003-05-12 23:00,ZHHH 122300Z 35001MPS 0800 R04/0800N FG NSC 20/20 Q1012 NOSIG
ZHHH,2003-05-13 00:00,ZHHH 130000Z 00000MPS 1300 R04/1200N BR NSC 20/20 Q1012 NOSIG
ZHHH,2003-05-13 01:00,ZHHH 130100Z 08001MPS 2000 BR SCT006 22/21 Q1012 NOSIG
ZHHH,2003-05-13 02:00,ZHHH 130200Z 33002MPS 3000 BR BKN019 22/20 Q1012 NOSIG
ZHHH,2003-05-13 03:00,ZHHH 130300Z 29001MPS 4000 BR BKN020 23/20 Q1012 NOSIG
ZHHH,2003-05-13 04:00,ZHHH 130400Z 10001MPS 9999 BKN020 FEW022TCU 25/20 Q1012 NOSIG
ZHHH,2003-05-13 05:00,ZHHH 130500Z 06002MPS 9999 FEW010 SCT025TCU OVC030 25/20 Q1011 NOSIG
ZHHH,2003-05-13 06:00,ZHHH 130600Z 08002MPS 9999 FEW012 FEW025TCU BKN030 24/21 Q1011 NOSIG
ZHHH,2003-05-13 07:00,ZHHH 130700Z 09002MPS 9999 SCT020 OVC060 24/21 Q1010 NOSIG
ZHHH,2003-05-13 08:00,ZHHH 130800Z 00000MPS 9999 SCT020 OVC060 24/20 Q1009 NOSIG
ZHHH,2003-05-13 09:00,ZHHH 130900Z 04002MPS 9999 SCT020 OVC050 24/21 Q1009 NOSIG
ZHHH,2003-05-13 10:00,ZHHH 131000Z 02003MPS CAVOK 24/21 Q1009 NOSIG
ZHHH,2003-05-13 11:00,ZHHH 131100Z 02002MPS CAVOK 23/20 Q1009 NOSIG
ZHHH,2003-05-13 12:00,ZHHH 131200Z 04004MPS CAVOK 22/20 Q1009 NOSIG
ZHHH,2003-05-13 13:00,ZHHH 131300Z 06004MPS CAVOK 21/19 Q1010 NOSIG
ZHHH,2003-05-13 14:00,ZHHH 131400Z 05005MPS CAVOK 20/19 Q1010 NOSIG
ZHHH,2003-05-13 15:00,ZHHH 131500Z 04003MPS CAVOK 20/18 Q1010 NOSIG
ZHHH,2003-05-13 16:00,ZHHH 131600Z 06003MPS CAVOK 20/18 Q1009 NOSIG
ZHHH,2003-05-13 17:00,ZHHH 131700Z 07003MPS 6000 NSC 19/18 Q1010 NOSIG
ZHHH,2003-05-13 18:00,ZHHH 131800Z 04003MPS 6000 NSC 19/18 Q1009 NOSIG
ZHHH,2003-05-13 19:00,ZHHH 131900Z 07002MPS 2500 -RA BR SCT020 OVC050 19/18 Q1008 NOSIG
ZHHH,2003-05-13 20:00,ZHHH 132000Z 03002MPS 2500 -RA BR SCT020 OVC050 19/18 Q1008 NOSIG
ZHHH,2003-05-13 21:00,ZHHH 132100Z 03003MPS 000V060 2000 BR NSC 18/18 Q1007 NOSIG
ZHHH,2003-05-13 22:00,ZHHH 132200Z 36003MPS 2500 BR NSC 19/18 Q1008 NOSIG
ZHHH,2003-05-13 23:00,ZHHH 132300Z 00000MPS 1800 BR NSC 19/19 Q1008 NOSIG
ZHHH,2003-05-14 00:00,ZHHH 140000Z 01002MPS 7000 NSC 20/20 Q1009 NOSIG
ZHHH,2003-05-14 01:00,ZHHH 140100Z 01002MPS 6000 NSC 21/20 Q1009 NOSIG
ZHHH,2003-05-14 02:00,ZHHH 140200Z 35003MPS 310V040 6000 FEW030 SCT110 22/20 Q1009 NOSIG
ZHHH,2003-05-14 03:00,ZHHH 140300Z 03002MPS 9999 SCT020 24/20 Q1008 NOSIG
ZHHH,2003-05-14 04:00,ZHHH 140400Z 01003MPS 330V050 9999 SCT020 25/20 Q1008 NOSIG
ZHHH,2003-05-14 05:00,ZHHH 140500Z 34002MPS 9999 SCT020 26/20 Q1008 NOSIG
ZHHH,2003-05-14 06:00,ZHHH 140600Z 05005MPS 9999 SCT020 FEW033TCU SCT033 25/20 Q1008 NOSIG
ZHHH,2003-05-14 07:00,ZHHH 140700Z 06003MPS 040V100 9999 SCT020 FEW030TCU 26/20 Q1007 NOSIG
ZHHH,2003-05-14 08:00,ZHHH 140800Z 05003MPS 350V080 9999 SCT020 FEW030TCU 26/20 Q1007 NOSIG
ZHHH,2003-05-14 09:00,ZHHH 140900Z 03005MPS 000V070 9999 SCT020 26/20 Q1007 NOSIG
ZHHH,2003-05-14 10:00,ZHHH 141000Z 04006MPS 9999 FEW033 24/19 Q1007 NOSIG
ZHHH,2003-05-14 11:00,ZHHH 141100Z 04006MPS CAVOK 23/19 Q1008 NOSIG
ZHHH,2003-05-14 12:00,ZHHH 141200Z 04005MPS CAVOK 22/19 Q1009 NOSIG
ZHHH,2003-05-14 13:00,ZHHH 141300Z 05004MPS CAVOK 21/19 Q1009 NOSIG
ZHHH,2003-05-14 14:00,ZHHH 141400Z 06003MPS CAVOK 21/19 Q1010 NOSIG
ZHHH,2003-05-14 15:00,ZHHH 141500Z 06002MPS CAVOK 20/19 Q1011 NOSIG
ZHHH,2003-05-14 16:00,ZHHH 141600Z 02003MPS CAVOK 20/19 Q1011 NOSIG
ZHHH,2003-05-14 17:00,ZHHH 141700Z 02004MPS CAVOK 19/18 Q1010 NOSIG
ZHHH,2003-05-14 18:00,ZHHH 141800Z 02003MPS CAVOK 19/18 Q1011 NOSIG
ZHHH,2003-05-14 19:00,ZHHH 141900Z 04002MPS CAVOK 19/18 Q1011 NOSIG
ZHHH,2003-05-14 20:00,ZHHH 142000Z 05002MPS CAVOK 18/18 Q1011 NOSIG
ZHHH,2003-05-14 21:00,ZHHH 142100Z 04002MPS CAVOK 18/18 Q1010 NOSIG
ZHHH,2003-05-14 22:00,ZHHH 142200Z 04003MPS 6000 SKC 18/17 Q1010 NOSIG
ZHHH,2003-05-14 23:00,ZHHH 142300Z 04004MPS 6000 NSC 19/18 Q1011 NOSIG
ZHHH,2003-05-15 00:00,ZHHH 150000Z 04004MPS 6000 NSC 20/18 Q1011 NOSIG
ZHHH,2003-05-15 01:00,ZHHH 150100Z 04005MPS 9999 BKN020 OVC100 21/19 Q1011 NOSIG
ZHHH,2003-05-15 02:00,ZHHH 150200Z 06004MPS 9999 BKN020 OVC100 22/19 Q1011 NOSIG
ZHHH,2003-05-15 03:00,ZHHH 150300Z 06005MPS 9999 BKN020 OVC050 23/18 Q1011 NOSIG
ZHHH,2003-05-15 04:00,ZHHH 150400Z 08005MPS 9999 SCT015 OVC040 24/19 Q1011 NOSIG
ZHHH,2003-05-15 05:00,ZHHH 150500Z 07004MPS 040V100 9999 SCT020 OVC040 25/19 Q1011 NOSIG
ZHHH,2003-05-15 06:00,ZHHH 150600Z 09004MPS 060V120 9999 SCT020 OVC050 25/19 Q1010 NOSIG
ZHHH,2003-05-15 07:00,ZHHH 150700Z 08003MPS 040V120 9999 FEW022 BKN090 26/19 Q1009 NOSIG
ZHHH,2003-05-15 08:00,ZHHH 150800Z 03004MPS 9999 FEW022 BKN110 25/20 Q1009 NOSIG
ZHHH,2003-05-15 09:00,ZHHH 150900Z 03006MPS 9999 FEW024TCU SCT024 BKN100 24/19 Q1009 NOSIG
ZHHH,2003-05-15 10:00,ZHHH 151000Z 04005MPS 9999 FEW024TCU SCT024 OVC100 23/19 Q1009 NOSIG
ZHHH,2003-05-15 11:00,ZHHH 151100Z 04007MPS 9999 FEW024TCU SCT024 OVC100 22/19 Q1008 NOSIG
ZHHH,2003-05-15 12:00,ZHHH 151200Z 05006MPS 9999 FEW024TCU SCT024 OVC100 22/19 Q1009 NOSIG
ZHHH,2003-05-15 13:00,ZHHH 151300Z 04005MPS 9999 -RA FEW024TCU SCT024 OVC050 21/19 Q1010 NOSIG
ZHHH,2003-05-15 14:00,ZHHH 151400Z 04006MPS 9999 -RA FEW024TCU SCT024 OVC050 21/19 Q1010 NOSIG
ZHHH,2003-05-15 15:00,ZHHH 151500Z 05005MPS 9999 -RA SCT020 OVC050 20/19 Q1011 NOSIG
ZHHH,2003-05-15 16:00,ZHHH 151600Z 04005MPS 6000 -RA SCT020 OVC050 19/19 Q1010 NOSIG
ZHHH,2003-05-15 17:00,ZHHH 151700Z 05005MPS 5000 -RA SCT020 OVC050 19/19 Q1010 NOSIG
ZHHH,2003-05-15 18:00,ZHHH 151800Z 04004MPS 4000 -RA BR BKN020 OVC050 19/18 Q1009 NOSIG
ZHHH,2003-05-15 19:00,ZHHH 151900Z 04005MPS 2000 BR BKN020 OVC050 19/18 Q1009 NOSIG
ZHHH,2003-05-15 20:00,ZHHH 152000Z 04004MPS 2000 BR BKN020 OVC050 19/18 Q1009 NOSIG
ZHHH,2003-05-15 21:00,ZHHH 152100Z 06004MPS 2500 BR SCT016 OVC060 19/18 Q1009 NOSIG
ZHHH,2003-05-15 22:00,ZHHH 152200Z 08005MPS 3000 BR NSC 19/18 Q1009 NOSIG
ZHHH,2003-05-15 23:00,ZHHH 152300Z 05003MPS 4000 BR NSC 19/18 Q1009 NOSIG
ZHHH,2003-05-16 00:00,ZHHH 160000Z 06005MPS 4000 BR NSC 19/18 Q1010 NOSIG
ZHHH,2003-05-16 01:00,ZHHH 160100Z 04004MPS 6000 NSC 19/18 Q1010 NOSIG
ZHHH,2003-05-16 02:00,ZHHH 160200Z 02004MPS 7000 NSC 20/18 Q1010 NOSIG
ZHHH,2003-05-16 03:00,ZHHH 160300Z 02004MPS 360V060 7000 NSC 20/18 Q1010 NOSIG
ZHHH,2003-05-16 04:00,ZHHH 160400Z 04004MPS 7000 -RA NSC 20/19 Q1010 NOSIG
ZHHH,2003-05-16 05:00,ZHHH 160500Z 02005MPS 2500 -RA BR NSC 20/19 Q1009 NOSIG
ZHHH,2003-05-16 06:00,ZHHH 160600Z 01004MPS 2300 -RA BR NSC 20/19 Q1009 NOSIG
ZHHH,2003-05-16 07:00,ZHHH 160700Z 01003MPS 2400 -RA BR NSC 20/19 Q1008 NOSIG
ZHHH,2003-05-16 08:00,ZHHH 160800Z 02002MPS 2500 BR NSC 20/19 Q1008 NOSIG
ZHHH,2003-05-16 09:00,ZHHH 160900Z 35002MPS 2500 -RA BR NSC 20/19 Q1008 NOSIG
ZHHH,2003-05-16 10:00,ZHHH 161000Z 33001MPS 1600 BR NSC 20/19 Q1008 NOSIG
ZHHH,2003-05-16 11:00,ZHHH 161100Z 36002MPS 1400 R04/P1500 BR NSC 20/19 Q1008 NOSIG
ZHHH,2003-05-16 12:00,ZHHH 161200Z 01003MPS 1400 R04/P1500 BR NSC 20/19 Q1009 NOSIG
ZHHH,2003-05-16 13:00,ZHHH 161300Z 36002MPS 1400 R04/P1500 BR NSC 20/18 Q1010 NOSIG
ZHHH,2003-05-16 14:00,ZHHH 161400Z 03002MPS 1400 R04/P1500 BR NSC 20/18 Q1009 NOSIG
ZHHH,2003-05-16 15:00,ZHHH 161500Z 03002MPS 1400 R04/P1500 BR NSC 19/18 Q1009 NOSIG
ZHHH,2003-05-16 16:00,ZHHH 161600Z 36002MPS 1300 R04/P1500 BR NSC 19/18 Q1009 NOSIG
ZHHH,2003-05-16 17:00,ZHHH 161700Z 31001MPS 1300 R04/P1500 BR NSC 19/19 Q1009 NOSIG
ZHHH,2003-05-16 18:00,ZHHH 161800Z 36002MPS 1300 R04/P1500 BR NSC 19/19 Q1008 NOSIG
ZHHH,2003-05-16 19:00,ZHHH 161900Z 36002MPS 1500 BR NSC 19/18 Q1008 NOSIG
ZHHH,2003-05-16 20:00,ZHHH 162000Z 36002MPS 1500 BR NSC 19/18 Q1008 NOSIG
ZHHH,2003-05-16 21:00,ZHHH 162100Z 36002MPS 1500 BR NSC 18/18 Q1008 NOSIG
ZHHH,2003-05-16 22:00,ZHHH 162200Z 33002MPS 1000 R04/1000N BR NSC 18/18 Q1008 NOSIG
ZHHH,2003-05-16 23:00,ZHHH 162300Z 02002MPS 1100 R04/1000N BR NSC 19/18 Q1008 NOSIG
ZHHH,2003-05-17 00:00,ZHHH 170000Z 03002MPS 2400 BR NSC 20/18 Q1009 NOSIG
ZHHH,2003-05-17 01:00,ZHHH 170100Z 04005MPS 4000 BR NSC 21/18 Q1010 NOSIG
ZHHH,2003-05-17 02:00,ZHHH 170200Z 05004MPS 4000 BR NSC 22/18 Q1009 NOSIG
ZHHH,2003-05-17 03:00,ZHHH 170300Z 03003MPS 360V070 5000 BR NSC 22/18 Q1009 NOSIG
ZHHH,2003-05-17 04:00,ZHHH 170400Z 03004MPS 5000 BR NSC 23/18 Q1009 NOSIG
ZHHH,2003-05-17 05:00,ZHHH 170500Z 03003MPS 350V070 5000 BR NSC 23/18 Q1009 NOSIG
ZHHH,2003-05-17 06:00,ZHHH 170600Z 04004MPS 000V060 5000 BR NSC 23/18 Q1008 NOSIG
ZHHH,2003-05-17 07:00,ZHHH 170700Z 01004MPS 340V050 5000 HZ NSC 23/18 Q1008 NOSIG
ZHHH,2003-05-17 08:00,ZHHH 170800Z 01004MPS 5000 HZ NSC 22/18 Q1008 NOSIG
ZHHH,2003-05-17 09:00,ZHHH 170900Z 03005MPS 5000 HZ NSC 22/18 Q1008 NOSIG
ZHHH,2003-05-17 10:00,ZHHH 171000Z 04004MPS 6000 NSC 22/17 Q1008 NOSIG
ZHHH,2003-05-17 11:00,ZHHH 171100Z 02002MPS 4000 BR NSC 21/18 Q1008 NOSIG
ZHHH,2003-05-17 12:00,ZHHH 171200Z 34002MPS 2500 BR NSC 21/18 Q1009 NOSIG
ZHHH,2003-05-17 13:00,ZHHH 171300Z 35002MPS 2000 BR NSC 20/18 Q1009 NOSIG
ZHHH,2003-05-17 14:00,ZHHH 171400Z 01002MPS 2000 BR NSC 21/18 Q1010 NOSIG
ZHHH,2003-05-17 15:00,ZHHH 171500Z 36002MPS 2000 BR NSC 20/18 Q1010 NOSIG
ZHHH,2003-05-17 16:00,ZHHH 171600Z 02002MPS 2000 BR NSC 20/18 Q1011 NOSIG
ZHHH,2003-05-17 17:00,ZHHH 171700Z 04002MPS 2500 BR NSC 20/18 Q1011 NOSIG
ZHHH,2003-05-17 18:00,ZHHH 171800Z AUTO 00000KT 9SM 20/18 A2984 RMK SLP107 T02040181 57001 IEM_DS3505
ZHHH,2003-05-17 19:00,ZHHH 171900Z 03002MPS 2000 BR NSC 19/18 Q1010 NOSIG
ZHHH,2003-05-17 20:00,ZHHH 172000Z 01002MPS 2000 BR NSC 19/18 Q1010 NOSIG
ZHHH,2003-05-17 21:00,ZHHH 172100Z 02002MPS 1700 BR NSC 19/18 Q1010 NOSIG
ZHHH,2003-05-17 22:00,ZHHH 172200Z 34001MPS 2000 BR NSC 19/18 Q1011 NOSIG
ZHHH,2003-05-17 23:00,ZHHH 172300Z 07001MPS 3000 BR NSC 20/18 Q1011 NOSIG
ZHHH,2003-05-18 00:00,ZHHH 180000Z 00000MPS 3000 BR NSC 21/19 Q1011 NOSIG
ZHHH,2003-05-18 01:00,ZHHH 180100Z 00000MPS 2500 BR NSC 21/19 Q1011 NOSIG
ZHHH,2003-05-18 02:00,ZHHH 180200Z 28001MPS 2500 BR FEW020 BKN100 23/20 Q1011 NOSIG
ZHHH,2003-05-18 03:00,ZHHH 180300Z 15001MPS 3000 HZ FEW020 BKN100 24/19 Q1011 NOSIG
ZHHH,2003-05-18 04:00,ZHHH 180400Z 33002MPS 6000 NSC 25/20 Q1011 NOSIG
ZHHH,2003-05-18 05:00,ZHHH 180500Z 05002MPS 9999 SCT020 26/18 Q1011 NOSIG
ZHHH,2003-05-18 06:00,ZHHH 180600Z 15002MPS 9999 FEW020 27/17 Q1010 NOSIG
ZHHH,2003-05-18 07:00,ZHHH 180700Z 26002MPS 9999 SCT023 FEW030TCU 26/19 Q1010 NOSIG
ZHHH,2003-05-18 08:00,ZHHH 180800Z 24003MPS CAVOK 27/19 Q1010 NOSIG
ZHHH,2003-05-18 09:00,ZHHH 180900Z 24002MPS CAVOK 26/18 Q1010 NOSIG
ZHHH,2003-05-18 10:00,ZHHH 181000Z 10002MPS 2500 BR SCT023 FEW033TCU 23/20 Q1010 NOSIG
ZHHH,2003-05-18 11:00,ZHHH 181100Z 00000MPS 2500 BR NSC 23/20 Q1010 NOSIG
ZHHH,2003-05-18 12:00,ZHHH 181200Z 26002MPS 2100 BR NSC 23/21 Q1010 NOSIG
ZHHH,2003-05-18 13:00,ZHHH 181300Z 31002MPS 1600 BR NSC 22/21 Q1011 NOSIG
ZHHH,2003-05-18 14:00,ZHHH 181400Z 33002MPS 1600 BR NSC 22/21 Q1011 NOSIG
ZHHH,2003-05-18 15:00,ZHHH 181500Z 00000MPS 1500 BR NSC 22/20 Q1011 NOSIG
ZHHH,2003-05-18 16:00,ZHHH 181600Z 00000MPS 1500 BR NSC 21/20 Q1011 NOSIG
ZHHH,2003-05-18 17:00,ZHHH 181700Z 00000MPS 1000 R04/1200N BR SKC 21/20 Q1011 NOSIG
ZHHH,2003-05-18 18:00,ZHHH 181800Z 00000MPS 1000 R04/1200N BR SKC 21/19 Q1011 NOSIG
ZHHH,2003-05-18 19:00,ZHHH 181900Z 00000MPS 1600 BR SKC 20/19 Q1011 NOSIG
ZHHH,2003-05-18 20:00,ZHHH 182000Z 00000MPS 1200 R04/1000N BR SKC 20/19 Q1012 NOSIG
ZHHH,2003-05-18 21:00,ZHHH 182100Z 00000MPS 1200 R04/1400N BR SKC 20/19 Q1012 NOSIG
ZHHH,2003-05-18 22:00,ZHHH 182200Z 00000MPS 1000 R04/1000N BR SKC 19/19 Q1013 NOSIG
ZHHH,2003-05-18 23:00,ZHHH 182300Z 00000MPS 1000 R04/1000N BR SKC 20/20 Q1013 NOSIG
ZHHH,2003-05-19 00:00,ZHHH 190000Z 00000MPS 1000 R04/1000N BR NSC 22/20 Q1014 NOSIG
ZHHH,2003-05-19 01:00,ZHHH 190100Z 00000MPS 1400 BR NSC 23/21 Q1014 NOSIG
ZHHH,2003-05-19 02:00,ZHHH 190200Z 26002MPS 2400 BR NSC 25/21 Q1014 NOSIG
ZHHH,2003-05-19 03:00,ZHHH 190300Z 25003MPS 210V290 2500 BR NSC 27/21 Q1014 NOSIG
ZHHH,2003-05-19 04:00,ZHHH 190400Z 25004MPS 220V300 5000 HZ NSC 28/20 Q1014 NOSIG
ZHHH,2003-05-19 05:00,ZHHH 190500Z 29003MPS 250V320 5000 HZ NSC 29/20 Q1013 NOSIG
ZHHH,2003-05-19 06:00,ZHHH 190600Z 30004MPS 250V350 7000 SKC 29/19 Q1013 NOSIG
ZHHH,2003-05-19 07:00,ZHHH 190700Z 29003MPS 250V350 CAVOK 29/19 Q1012 NOSIG
ZHHH,2003-05-19 08:00,ZHHH 190800Z 26003MPS 240V320 CAVOK 30/19 Q1012 NOSIG
ZHHH,2003-05-19 09:00,ZHHH 190900Z 27002MPS CAVOK 29/18 Q1011 NOSIG
ZHHH,2003-05-19 10:00,ZHHH 191000Z 26003MPS CAVOK 28/21 Q1011 NOSIG
ZHHH,2003-05-19 11:00,ZHHH 191100Z 24003MPS 1000 NSC 27/21 Q1012 NOSIG
ZHHH,2003-05-19 12:00,ZHHH 191200Z 25003MPS 4000 BR NSC 26/22 Q1013 NOSIG
ZHHH,2003-05-19 13:00,ZHHH 191300Z 26002MPS 2000 BR NSC 25/22 Q1014 NOSIG
ZHHH,2003-05-19 14:00,ZHHH 191400Z 00000MPS 2000 BR NSC 24/22 Q1014 NOSIG
ZHHH,2003-05-19 15:00,ZHHH 191500Z 09001MPS 2100 BR NSC 24/21 Q1015 NOSIG
ZHHH,2003-05-19 16:00,ZHHH 191600Z 08002MPS 2100 BR NSC 23/20 Q1015 NOSIG
ZHHH,2003-05-19 17:00,ZHHH 191700Z 08002MPS 2100 BR NSC 22/20 Q1015 NOSIG
ZHHH,2003-05-19 18:00,ZHHH 191800Z 05003MPS 2100 BR NSC 22/19 Q1015 NOSIG
ZHHH,2003-05-19 19:00,ZHHH 191900Z 06002MPS 2500 BR NSC 22/19 Q1015 NOSIG
ZHHH,2003-05-19 20:00,ZHHH 192000Z 08002MPS 2500 BR NSC 21/18 Q1015 NOSIG
ZHHH,2003-05-19 21:00,ZHHH 192100Z 06001MPS 2500 BR NSC 21/18 Q1016 NOSIG
ZHHH,2003-05-19 22:00,ZHHH 192200Z 07001MPS 3000 BR NSC 21/18 Q1016 NOSIG
ZHHH,2003-05-19 23:00,ZHHH 192300Z 04002MPS 3000 BR NSC 21/19 Q1017 NOSIG
ZHHH,2003-05-20 00:00,ZHHH 200000Z 03003MPS 7000 NSC 23/19 Q1017 NOSIG
ZHHH,2003-05-20 01:00,ZHHH 200100Z 02003MPS 360V060 CAVOK 25/19 Q1017 NOSIG
ZHHH,2003-05-20 02:00,ZHHH 200200Z 06002MPS CAVOK 26/16 Q1018 NOSIG
ZHHH,2003-05-20 03:00,ZHHH 200300Z 08004MPS 050V120 CAVOK 27/14 Q1017 NOSIG
ZHHH,2003-05-20 04:00,ZHHH 200400Z 09003MPS 060V120 CAVOK 27/12 Q1017 NOSIG
ZHHH,2003-05-20 05:00,ZHHH 200500Z 08003MPS 030V110 CAVOK 28/13 Q1016 NOSIG
ZHHH,2003-05-20 06:00,ZHHH 200600Z 07004MPS 020V110 CAVOK 28/11 Q1016 NOSIG
ZHHH,2003-05-20 07:00,ZHHH 200700Z 08002MPS CAVOK 28/12 Q1015 NOSIG
ZHHH,2003-05-20 08:00,ZHHH 200800Z 14002MPS CAVOK 28/10 Q1014 NOSIG
ZHHH,2003-05-20 09:00,ZHHH 200900Z 17001MPS CAVOK 28/12 Q1014 NOSIG
ZHHH,2003-05-20 10:00,ZHHH 201000Z 29001MPS CAVOK 27/14 Q1015 NOSIG
ZHHH,2003-05-20 11:00,ZHHH 201100Z 30002MPS CAVOK 26/16 Q1015 NOSIG
ZHHH,2003-05-20 12:00,ZHHH 201200Z 32002MPS CAVOK 26/17 Q1015 NOSIG
ZHHH,2003-05-20 13:00,ZHHH 201300Z 36002MPS CAVOK 26/14 Q1015 NOSIG
ZHHH,2003-05-20 14:00,ZHHH 201400Z 02003MPS CAVOK 25/16 Q1015 NOSIG
ZHHH,2003-05-20 15:00,ZHHH 201500Z 02003MPS CAVOK 24/16 Q1015 NOSIG
ZHHH,2003-05-20 16:00,ZHHH 201600Z 04003MPS CAVOK 24/16 Q1015 NOSIG
ZHHH,2003-05-20 17:00,ZHHH 201700Z 06002MPS CAVOK 23/16 Q1015 NOSIG
ZHHH,2003-05-20 18:00,ZHHH 201800Z 05002MPS CAVOK 23/16 Q1015 NOSIG
ZHHH,2003-05-20 19:00,ZHHH 201900Z 05002MPS CAVOK 22/17 Q1014 NOSIG
ZHHH,2003-05-20 21:00,ZHHH 202100Z 01004MPS CAVOK 21/17 Q1015 NOSIG
ZHHH,2003-05-20 22:00,ZHHH 202200Z 15001MPS CAVOK 21/16 Q1015 NOSIG
ZHHH,2003-05-20 23:00,ZHHH 202300Z 34001MPS 6000 -RA NSC 21/17 Q1016 NOSIG
ZHHH,2003-05-21 00:00,ZHHH 210000Z 34003MPS 2500 -RA BR SCT012 OVC070 21/16 Q1016 NOSIG
ZHHH,2003-05-21 01:00,ZHHH 210100Z 14001MPS 2500 -RA BR SCT012 OVC070 21/16 Q1016 NOSIG
ZHHH,2003-05-21 02:00,ZHHH 210200Z 02002MPS 3000 -RA BR SCT010 OVC070 20/17 Q1016 NOSIG
ZHHH,2003-05-21 03:00,ZHHH 210300Z 36003MPS 3500 -RA BR SCT010 OVC070 20/17 Q1016 NOSIG
ZHHH,2003-05-21 04:00,ZHHH 210400Z 32001MPS 3500 -RA BR SCT010 OVC070 19/17 Q1016 NOSIG
ZHHH,2003-05-21 05:00,ZHHH 210500Z 02003MPS 6000 -RA SCT010 OVC060 19/17 Q1016 NOSIG
ZHHH,2003-05-21 06:00,ZHHH 210600Z 11002MPS 5000 -RA BR FEW010 SCT020 OVC050 18/16 Q1015 NOSIG
ZHHH,2003-05-21 07:00,ZHHH 210700Z 12001MPS 5000 -RA BR FEW010 SCT020 OVC050 17/16 Q1015 NOSIG
ZHHH,2003-05-21 08:00,ZHHH 210800Z 09002MPS 4000 RA BR SCT020 BKN050 17/16 Q1015 NOSIG
ZHHH,2003-05-21 09:00,ZHHH 210900Z 08003MPS 4000 RA BR SCT020 BKN050 17/16 Q1014 NOSIG
ZHHH,2003-05-21 10:00,ZHHH 211000Z 08003MPS 5000 RA BR SCT020 OVC050 17/16 Q1014 NOSIG
ZHHH,2003-05-21 11:00,ZHHH 211100Z 10002MPS CAVOK 17/16 Q1014 RERA NOSIG
ZHHH,2003-05-21 12:00,ZHHH 211200Z 13002MPS CAVOK 17/15 Q1014 NOSIG
ZHHH,2003-05-21 13:00,ZHHH 211300Z 16002MPS CAVOK 18/15 Q1014 NOSIG
ZHHH,2003-05-21 14:00,ZHHH 211400Z 21002MPS CAVOK 17/16 Q1015 NOSIG
ZHHH,2003-05-21 15:00,ZHHH 211500Z 12001MPS 6000 NSC 18/16 Q1015 NOSIG
ZHHH,2003-05-21 16:00,ZHHH 211600Z 10001MPS 6000 NSC 18/17 Q1014 NOSIG
ZHHH,2003-05-21 17:00,ZHHH 211700Z 00000MPS 4000 BR NSC 18/17 Q1014 NOSIG
ZHHH,2003-05-21 18:00,ZHHH 211800Z 34001MPS 3000 BR SCT010 OVC100 18/17 Q1013 NOSIG
ZHHH,2003-05-21 19:00,ZHHH 211900Z 36001MPS 2100 BR SCT010 OVC070 18/17 Q1013 NOSIG
ZHHH,2003-05-21 20:00,ZHHH 212000Z 00000MPS 2100 BR SCT010 OVC070 18/17 Q1013 NOSIG
ZHHH,2003-05-21 21:00,ZHHH 212100Z 00000MPS 2100 BR SCT010 OVC070 17/17 Q1013 NOSIG
ZHHH,2003-05-21 22:00,ZHHH 212200Z 00000MPS 2100 BR NSC 17/16 Q1013 NOSIG
ZHHH,2003-05-21 23:00,ZHHH 212300Z 02002MPS 1800 BR NSC 18/17 Q1013 NOSIG
ZHHH,2003-05-22 00:00,ZHHH 220000Z 12001MPS 1800 BR NSC 19/17 Q1013 NOSIG
ZHHH,2003-05-22 01:00,ZHHH 220100Z 07001MPS 6000 NSC 20/17 Q1013 NOSIG
ZHHH,2003-05-22 02:00,ZHHH 220200Z 00000MPS 7000 FEW020 BKN130 20/17 Q1013 NOSIG
ZHHH,2003-05-22 03:00,ZHHH 220300Z 24002MPS 7000 FEW020 BKN160 21/18 Q1013 NOSIG
ZHHH,2003-05-22 04:00,ZHHH 220400Z 25003MPS CAVOK 22/18 Q1013 NOSIG
ZHHH,2003-05-22 05:00,ZHHH 220500Z 26003MPS 200V310 9999 FEW022 BKN160 23/17 Q1012 NOSIG
ZHHH,2003-05-22 06:00,ZHHH 220600Z 26003MPS 220V310 7000 FEW028TCU FEW028 BKN140 23/18 Q1012 NOSIG
ZHHH,2003-05-22 07:00,ZHHH 220700Z 23002MPS 7000 FEW028TCU FEW028 BKN140 23/18 Q1011 NOSIG
ZHHH,2003-05-22 08:00,ZHHH 220800Z 26002MPS 5000 HZ SCT028TCU FEW028 BKN130 23/18 Q1011 NOSIG
ZHHH,2003-05-22 09:00,ZHHH 220900Z 29001MPS 4000 HZ SCT028TCU FEW028 BKN130 23/18 Q1010 NOSIG
ZHHH,2003-05-22 10:00,ZHHH 221000Z 26002MPS 4000 HZ NSC 22/18 Q1011 NOSIG
ZHHH,2003-05-22 11:00,ZHHH 221100Z 24002MPS 3000 BR NSC 22/18 Q1011 NOSIG
ZHHH,2003-05-22 12:00,ZHHH 221200Z 16002MPS 3000 BR NSC 22/19 Q1011 NOSIG
ZHHH,2003-05-22 13:00,ZHHH 221300Z 00000MPS 3000 BR NSC 21/18 Q1011 NOSIG
ZHHH,2003-05-22 14:00,ZHHH 221400Z 00000MPS 3000 BR NSC 21/19 Q1011 NOSIG
ZHHH,2003-05-22 15:00,ZHHH 221500Z 00000MPS 3000 BR NSC 21/19 Q1011 NOSIG
ZHHH,2003-05-22 16:00,ZHHH 221600Z 07002MPS 3000 BR NSC 20/19 Q1011 NOSIG
ZHHH,2003-05-22 17:00,ZHHH 221700Z 00000MPS 2500 BR NSC 20/19 Q1011 NOSIG
ZHHH,2003-05-22 18:00,ZHHH 221800Z 05001MPS 2000 BR NSC 20/19 Q1011 NOSIG
ZHHH,2003-05-22 19:00,ZHHH 221900Z 07001MPS 2500 BR NSC 19/19 Q1010 NOSIG
ZHHH,2003-05-22 20:00,ZHHH 222000Z 00000MPS 1400 R04/1400D BR NSC 19/18 Q1010 NOSIG
ZHHH,2003-05-22 21:00,ZHHH 222100Z 09002MPS 1300 R04/1300N BR NSC 19/18 Q1010 NOSIG
ZHHH,2003-05-22 22:00,ZHHH 222200Z 04001MPS 1300 R04/1300N -RA BR NSC 19/18 Q1011 NOSIG
ZHHH,2003-05-22 23:00,ZHHH 222300Z 00000MPS 1300 R04/1300N -RA BR NSC 20/19 Q1011 NOSIG
ZHHH,2003-05-23 00:00,ZHHH 230000Z 06002MPS 1300 R04/1300N BR NSC 20/19 Q1010 NOSIG
ZHHH,2003-05-23 01:00,ZHHH 230100Z 07001MPS 1300 R04/1200N BR NSC 20/19 Q1011 NOSIG
ZHHH,2003-05-23 02:00,ZHHH 230200Z 00000MPS 1300 R04/1200N BR NSC 21/19 Q1011 NOSIG
ZHHH,2003-05-23 03:00,ZHHH 230300Z 00000MPS 1300 R04/1200N -RA BR SCT040 OVC080 21/20 Q1011 NOSIG
ZHHH,2003-05-23 04:00,ZHHH 230400Z 05001MPS 1300 R04/1200N -RA BR FEW010 OVC050 21/19 Q1010 NOSIG
ZHHH,2003-05-23 05:00,ZHHH 230500Z 01002MPS 1100 R04/0800N -RA BR SCT010 OVC050 20/19 Q1010 NOSIG
ZHHH,2003-05-23 06:00,ZHHH 230600Z 33002MPS 0700 R04/0700N -RA FG SCT010 OVC040 20/20 Q1009 NOSIG
ZHHH,2003-05-23 07:00,ZHHH 230700Z 33003MPS 2000 -RA BR SCT010 OVC050 19/19 Q1009 NOSIG
ZHHH,2003-05-23 08:00,ZHHH 230800Z 33002MPS 2000 -RA BR SCT010 OVC050 19/18 Q1009 NOSIG
ZHHH,2003-05-23 09:00,ZHHH 230900Z 00000MPS 2000 -RA BR SCT010 OVC050 19/17 Q1008 NOSIG
ZHHH,2003-05-23 10:00,ZHHH 231000Z 00000MPS 3000 BR SCT020 OVC070 19/17 Q1008 NOSIG
ZHHH,2003-05-23 11:00,ZHHH 231100Z 00000MPS 3000 BR NSC 18/17 Q1008 NOSIG
ZHHH,2003-05-23 12:00,ZHHH 231200Z 00000MPS 3000 BR NSC 18/18 Q1009 NOSIG
ZHHH,2003-05-23 13:00,ZHHH 231300Z 00000MPS 2500 BR NSC 18/18 Q1009 NOSIG
ZHHH,2003-05-23 14:00,ZHHH 231400Z 00000MPS 1600 BR SKC 18/18 Q1009 NOSIG
ZHHH,2003-05-23 15:00,ZHHH 231500Z 30002MPS 1600 BR SKC 18/17 Q1010 NOSIG
ZHHH,2003-05-23 17:00,ZHHH 231700Z 33002MPS 1600 BR SKC 18/17 Q1009 NOSIG
ZHHH,2003-05-23 18:00,ZHHH 231800Z 33002MPS 1600 BR SKC 18/18 Q1009 NOSIG
ZHHH,2003-05-23 19:00,ZHHH 231900Z 34003MPS 1300 R04/1400D BR NSC 17/17 Q1009 NOSIG
ZHHH,2003-05-23 20:00,ZHHH 232000Z 30002MPS 1100 R04/1000D BR NSC 18/18 Q1009 NOSIG
ZHHH,2003-05-23 21:00,ZHHH 232100Z 28002MPS 1400 R04/1400U BR NSC 18/18 Q1009 NOSIG
ZHHH,2003-05-23 22:00,ZHHH 232200Z 28002MPS 0700 R04/0500U FG NSC 18/18 Q1010 NOSIG
ZHHH,2003-05-23 23:00,ZHHH 232300Z 31002MPS 0700 R04/0600N FG NSC 18/18 Q1010 NOSIG
ZHHH,2003-05-24 00:00,ZHHH 240000Z 32002MPS 1100 R04/1400N BR NSC 19/19 Q1011 NOSIG
ZHHH,2003-05-24 01:00,ZHHH 240100Z 31003MPS 280V340 1400 R04/P1500 BR FEW006 SCT013 OVC100 20/20 Q1011 NOSIG
ZHHH,2003-05-24 02:00,ZHHH 240200Z 32003MPS 280V350 1600 BR SCT006 SCT010 21/19 Q1011 NOSIG
ZHHH,2003-05-24 03:00,ZHHH 240300Z 01003MPS 330V060 2000 BR FEW006 SCT010 BKN100 22/19 Q1011 NOSIG
ZHHH,2003-05-24 04:00,ZHHH 240400Z 26002MPS 3000 BR FEW010 BKN020 23/20 Q1011 NOSIG
ZHHH,2003-05-24 05:00,ZHHH 240500Z 24003MPS 4000 BR FEW020 BKN120 23/20 Q1011 NOSIG
ZHHH,2003-05-24 06:00,ZHHH 240600Z 25002MPS 4000 BR FEW020 BKN120 25/20 Q1010 NOSIG
ZHHH,2003-05-24 07:00,ZHHH 240700Z 25001MPS 4000 BR FEW020 BKN100 26/21 Q1010 NOSIG
ZHHH,2003-05-24 08:00,ZHHH 240800Z 22003MPS 170V260 4000 BR FEW020 BKN100 25/21 Q1009 NOSIG
ZHHH,2003-05-24 09:00,ZHHH 240900Z 23004MPS 4000 BR NSC 25/20 Q1009 NOSIG
ZHHH,2003-05-24 10:00,ZHHH 241000Z 23004MPS 2100 BR NSC 24/20 Q1009 NOSIG
ZHHH,2003-05-24 11:00,ZHHH 241100Z 24003MPS 2100 BR NSC 24/20 Q1009 NOSIG
ZHHH,2003-05-24 12:00,ZHHH 241200Z 23003MPS 1600 BR NSC 23/20 Q1010 NOSIG
ZHHH,2003-05-24 13:00,ZHHH 241300Z 26002MPS 1500 BR NSC 23/20 Q1010 NOSIG
ZHHH,2003-05-24 14:00,ZHHH 241400Z 24001MPS 1500 BR NSC 22/20 Q1011 NOSIG
ZHHH,2003-05-24 15:00,ZHHH 241500Z 28001MPS 1500 BR NSC 22/20 Q1011 NOSIG
ZHHH,2003-05-24 16:00,ZHHH 241600Z 00000MPS 1200 R04/P1500 BR NSC 21/20 Q1010 NOSIG
ZHHH,2003-05-24 17:00,ZHHH 241700Z 36001MPS 1200 R04/P1500 BR NSC 21/20 Q1010 NOSIG
ZHHH,2003-05-24 18:00,ZHHH 241800Z 36001MPS 1000 R04/1000N BR NSC 21/20 Q1010 NOSIG
ZHHH,2003-05-24 19:00,ZHHH 241900Z 01002MPS 1000 R04/1200N BR NSC 20/20 Q1010 NOSIG
ZHHH,2003-05-24 20:00,ZHHH 242000Z 05002MPS 1000 R04/1000N BR NSC 20/20 Q1010 NOSIG
ZHHH,2003-05-24 21:00,ZHHH 242100Z 03002MPS 1000 R04/1000N BR NSC 20/19 Q1011 NOSIG
ZHHH,2003-05-24 22:00,ZHHH 242200Z 09002MPS 1000 R04/1000N BR NSC 19/19 Q1011 NOSIG
ZHHH,2003-05-24 23:00,ZHHH 242300Z 09002MPS 1000 R04/1000N BR NSC 20/19 Q1012 NOSIG
ZHHH,2003-05-25 00:00,ZHHH 250000Z 09003MPS 1000 R04/1000N BR NSC 21/20 Q1012 NOSIG
ZHHH,2003-05-25 01:00,ZHHH 250100Z 09003MPS 1600 BR NSC 22/20 Q1012 NOSIG
ZHHH,2003-05-25 02:00,ZHHH 250200Z 13003MPS 100V160 1600 BR NSC 24/22 Q1012 NOSIG
ZHHH,2003-05-25 03:00,ZHHH 250300Z 11003MPS 070V150 1600 BR NSC 25/21 Q1012 NOSIG
ZHHH,2003-05-25 04:00,ZHHH 250400Z 11003MPS 1600 HZ SKC 26/21 Q1012 NOSIG
ZHHH,2003-05-25 05:00,ZHHH 250500Z 14002MPS 1600 HZ SKC 26/22 Q1011 NOSIG
ZHHH,2003-05-25 06:00,ZHHH 250600Z 13003MPS 100V170 1800 HZ SCT025 27/21 Q1010 NOSIG
ZHHH,2003-05-25 07:00,ZHHH 250700Z 10003MPS 070V130 1600 HZ SCT025 28/20 Q1010 NOSIG
ZHHH,2003-05-25 08:00,ZHHH 250800Z 10003MPS 070V130 5000 HZ SCT025 28/19 Q1009 NOSIG
ZHHH,2003-05-25 09:00,ZHHH 250900Z 12002MPS 5000 HZ SKC 28/19 Q1008 NOSIG
ZHHH,2003-05-25 10:00,ZHHH 251000Z 12002MPS 4000 HZ SKC 28/19 Q1008 NOSIG
ZHHH,2003-05-25 11:00,ZHHH 251100Z 11001MPS 4000 HZ SKC 27/20 Q1008 NOSIG
ZHHH,2003-05-25 12:00,ZHHH 251200Z 00000MPS 2000 HZ SKC 26/20 Q1009 NOSIG
ZHHH,2003-05-25 13:00,ZHHH 251300Z 00000MPS 1600 HZ SKC 25/21 Q1009 NOSIG
ZHHH,2003-05-25 14:00,ZHHH 251400Z 09002MPS 1600 BR SKC 24/21 Q1010 NOSIG
ZHHH,2003-05-25 15:00,ZHHH 251500Z 11002MPS 1200 R04/1200N BR SKC 24/19 Q1010 NOSIG
ZHHH,2003-05-25 16:00,ZHHH 251600Z 12002MPS 1200 R04/1200N BR SKC 23/19 Q1010 NOSIG
ZHHH,2003-05-25 17:00,ZHHH 251700Z 08002MPS 1200 BR SKC 22/18 Q1010 NOSIG
ZHHH,2003-05-25 18:00,ZHHH 251800Z 09002MPS 1200 BR SKC 21/19 Q1009 NOSIG
ZHHH,2003-05-25 19:00,ZHHH 251900Z 09002MPS 2000 BR SKC 21/19 Q1009 NOSIG
ZHHH,2003-05-25 20:00,ZHHH 252000Z 08002MPS 3000 BR SKC 21/17 Q1009 NOSIG
ZHHH,2003-05-25 21:00,ZHHH 252100Z 14002MPS 3000 BR SKC 20/18 Q1009 NOSIG
ZHHH,2003-05-26 00:00,ZHHH 260000Z 13004MPS 2800 BR SKC 22/19 Q1010 NOSIG
ZHHH,2003-05-26 01:00,ZHHH 260100Z 13005MPS 5000 BR SKC 24/19 Q1010 NOSIG
ZHHH,2003-05-26 02:00,ZHHH 260200Z 13006MPS 110V170 CAVOK 25/18 Q1010 NOSIG
ZHHH,2003-05-26 03:00,ZHHH 260300Z 13004MPS 100V170 CAVOK 26/16 Q1010 NOSIG
ZHHH,2003-05-26 04:00,ZHHH 260400Z 13004MPS 100V160 CAVOK 27/15 Q1009 NOSIG
ZHHH,2003-05-26 05:00,ZHHH 260500Z 13005MPS CAVOK 27/15 Q1008 NOSIG
ZHHH,2003-05-26 06:00,ZHHH 260600Z 12005MPS 100V160 CAVOK 28/16 Q1008 NOSIG
ZHHH,2003-05-26 07:00,ZHHH 260700Z 12004MPS 090V160 CAVOK 29/16 Q1007 NOSIG
ZHHH,2003-05-26 08:00,ZHHH 260800Z 14004MPS 110V170 CAVOK 29/15 Q1006 NOSIG
ZHHH,2003-05-26 09:00,ZHHH 260900Z 12003MPS CAVOK 28/17 Q1005 NOSIG
ZHHH,2003-05-26 10:00,ZHHH 261000Z 10002MPS CAVOK 28/18 Q1005 NOSIG
ZHHH,2003-05-26 11:00,ZHHH 261100Z 00000MPS CAVOK 27/18 Q1006 NOSIG
ZHHH,2003-05-26 12:00,ZHHH 261200Z 04002MPS CAVOK 26/17 Q1006 NOSIG
ZHHH,2003-05-26 13:00,ZHHH 261300Z 04003MPS CAVOK 26/17 Q1006 NOSIG
ZHHH,2003-05-26 14:00,ZHHH 261400Z 04002MPS CAVOK 25/18 Q1007 NOSIG
ZHHH,2003-05-26 15:00,ZHHH 261500Z 11002MPS CAVOK 24/19 Q1007 NOSIG
ZHHH,2003-05-26 16:00,ZHHH 261600Z 14003MPS 100V170 CAVOK 24/19 Q1006 NOSIG
ZHHH,2003-05-26 17:00,ZHHH 261700Z 11002MPS 6000 -RA NSC 24/19 Q1005 NOSIG
ZHHH,2003-05-26 18:00,ZHHH 261800Z 10003MPS 080V140 6000 -RA NSC 23/18 Q1005 NOSIG
ZHHH,2003-05-26 19:00,ZHHH 261900Z 22002MPS CAVOK 23/18 Q1005 NOSIG
ZHHH,2003-05-26 20:00,ZHHH 262000Z 06002MPS 4000 BR NSC 22/19 Q1005 NOSIG
ZHHH,2003-05-26 21:00,ZHHH 262100Z 04001MPS 4000 BR NSC 22/19 Q1005 NOSIG
ZHHH,2003-05-26 22:00,ZHHH 262200Z 06002MPS 4000 HZ NSC 22/17 Q1006 NOSIG
ZHHH,2003-05-26 23:00,ZHHH 262300Z 05001MPS 3500 BR NSC 22/18 Q1006 NOSIG
ZHHH,2003-05-27 00:00,ZHHH 270000Z 00000MPS 3500 BR NSC 23/19 Q1007 NOSIG
ZHHH,2003-05-27 01:00,ZHHH 270100Z 00000MPS 5000 HZ NSC 24/18 Q1007 NOSIG
ZHHH,2003-05-27 02:00,ZHHH 270200Z 13001MPS 5000 HZ NSC 24/18 Q1007 NOSIG
ZHHH,2003-05-27 03:00,ZHHH 270300Z 21001MPS 4000 HZ NSC 24/18 Q1007 NOSIG
ZHHH,2003-05-27 04:00,ZHHH 270400Z 33003MPS 300V360 4000 -RA HZ NSC 24/20 Q1007 NOSIG
ZHHH,2003-05-27 05:00,ZHHH 270500Z 35002MPS 2500 HZ SCT040 OVC100 25/19 Q1007 NOSIG
ZHHH,2003-05-27 06:00,ZHHH 270600Z 33002MPS 2500 HZ SCT040 OVC090 26/18 Q1006 NOSIG
ZHHH,2003-05-27 07:00,ZHHH 270700Z 29002MPS 2800 HZ NSC 26/18 Q1005 NOSIG
ZHHH,2003-05-27 08:00,ZHHH 270800Z 33002MPS 3000 HZ NSC 26/18 Q1005 NOSIG
ZHHH,2003-05-27 09:00,ZHHH 270900Z 25003MPS 4000 HZ NSC 26/18 Q1005 NOSIG
ZHHH,2003-05-27 10:00,ZHHH 271000Z 26002MPS 5000 HZ NSC 25/18 Q1005 NOSIG
ZHHH,2003-05-27 11:00,ZHHH 271100Z 28002MPS 1600 HZ NSC 25/19 Q1005 NOSIG
ZHHH,2003-05-27 12:00,ZHHH 271200Z 28003MPS 1600 BR NSC 24/21 Q1005 NOSIG
ZHHH,2003-05-27 13:00,ZHHH 271300Z 28002MPS 1600 BR NSC 24/20 Q1006 NOSIG
ZHHH,2003-05-27 14:00,ZHHH 271400Z 28003MPS 1600 BR NSC 23/20 Q1006 NOSIG
ZHHH,2003-05-27 15:00,ZHHH 271500Z 26003MPS 1600 BR NSC 22/20 Q1006 NOSIG
ZHHH,2003-05-27 16:00,ZHHH 271600Z 26003MPS 1800 BR NSC 22/20 Q1006 NOSIG
ZHHH,2003-05-27 17:00,ZHHH 271700Z 27003MPS 2500 BR NSC 21/19 Q1006 NOSIG
ZHHH,2003-05-27 18:00,ZHHH 271800Z 27003MPS 2500 BR NSC 21/19 Q1005 NOSIG
ZHHH,2003-05-27 19:00,ZHHH 271900Z 28003MPS 4000 BR NSC 21/19 Q1005 NOSIG
ZHHH,2003-05-27 20:00,ZHHH 272000Z 27003MPS 3000 BR NSC 21/19 Q1005 NOSIG
ZHHH,2003-05-27 21:00,ZHHH 272100Z 27002MPS 3000 BR NSC 21/19 Q1005 NOSIG
ZHHH,2003-05-27 22:00,ZHHH 272200Z 26002MPS 3000 BR NSC 21/19 Q1005 NOSIG
ZHHH,2003-05-27 23:00,ZHHH 272300Z 26003MPS 3000 BR NSC 21/19 Q1006 NOSIG
ZHHH,2003-05-28 00:00,ZHHH 280000Z 27002MPS 2400 BR NSC 21/19 Q1006 NOSIG
ZHHH,2003-05-28 01:00,ZHHH 280100Z 29003MPS 1800 BR NSC 22/20 Q1006 NOSIG
ZHHH,2003-05-28 02:00,ZHHH 280200Z 34002MPS 1600 BR NSC 23/21 Q1006 NOSIG
ZHHH,2003-05-28 03:00,ZHHH 280300Z 30001MPS 1700 BR NSC 25/21 Q1006 NOSIG
ZHHH,2003-05-28 04:00,ZHHH 280400Z 34003MPS 300V010 2500 HZ NSC 27/20 Q1006 NOSIG
ZHHH,2003-05-28 05:00,ZHHH 280500Z 36003MPS 300V080 3000 HZ NSC 28/20 Q1005 NOSIG
ZHHH,2003-05-28 06:00,ZHHH 280600Z 32002MPS 3000 HZ NSC 27/20 Q1005 NOSIG
ZHHH,2003-05-28 07:00,ZHHH 280700Z 34003MPS 310V020 3000 HZ NSC 27/20 Q1005 NOSIG
ZHHH,2003-05-28 08:00,ZHHH 280800Z 35003MPS 330V030 3000 HZ NSC 27/20 Q1004 NOSIG
ZHHH,2003-05-28 09:00,ZHHH 280900Z 01002MPS 4000 HZ NSC 27/19 Q1004 NOSIG
ZHHH,2003-05-28 10:00,ZHHH 281000Z 01002MPS 2500 HZ NSC 26/20 Q1005 NOSIG
ZHHH,2003-05-28 11:00,ZHHH 281100Z 02001MPS 2500 HZ NSC 26/19 Q1005 NOSIG
ZHHH,2003-05-28 12:00,ZHHH 281200Z 00000MPS 1800 HZ NSC 25/20 Q1005 NOSIG
ZHHH,2003-05-28 13:00,ZHHH 281300Z 24003MPS 1300 R04/1200N BR SKC 24/22 Q1006 NOSIG
ZHHH,2003-05-28 14:00,ZHHH 281400Z 25002MPS 1300 R04/1300N BR SKC 23/22 Q1006 NOSIG
ZHHH,2003-05-28 15:00,ZHHH 281500Z 26003MPS 1300 R04/1300N BR SKC 23/21 Q1007 NOSIG
ZHHH,2003-05-28 16:00,ZHHH 281600Z 24002MPS 1600 BR SKC 22/21 Q1007 NOSIG
ZHHH,2003-05-28 17:00,ZHHH 281700Z 27002MPS 2000 BR SKC 22/21 Q1006 NOSIG
ZHHH,2003-05-28 18:00,ZHHH 281800Z AUTO 27002KT 7SM 22/20 A2972 RMK SLP066 T02170198 57004 IEM_DS3505
ZHHH,2003-05-28 19:00,ZHHH 281900Z 27002MPS 1600 BR NSC 21/21 Q1006 NOSIG
ZHHH,2003-05-28 20:00,ZHHH 282000Z 00000MPS 1000 R04/1200N BR NSC 21/20 Q1006 NOSIG
ZHHH,2003-05-28 21:00,ZHHH 282100Z 00000MPS 1000 R04/1200N BR NSC 21/20 Q1007 NOSIG
ZHHH,2003-05-28 22:00,ZHHH 282200Z 25002MPS 1000 R04/1000N BR SKC 20/20 Q1007 NOSIG
ZHHH,2003-05-28 23:00,ZHHH 282300Z 24002MPS 1000 R04/0900N BR SKC 21/20 Q1008 NOSIG
ZHHH,2003-05-29 00:00,ZHHH 290000Z 24002MPS 1000 R04/1000N BR SKC 22/21 Q1008 NOSIG
ZHHH,2003-05-29 01:00,ZHHH 290100Z 27002MPS 1200 R04/1400U BR SKC 23/21 Q1008 NOSIG
ZHHH,2003-05-29 02:00,ZHHH 290200Z 34001MPS 1400 R04/1400U BR SKC 25/22 Q1009 NOSIG
ZHHH,2003-05-29 03:00,ZHHH 290300Z 28002MPS 1800 BR SKC 26/22 Q1009 NOSIG
ZHHH,2003-05-29 04:00,ZHHH 290400Z 26003MPS 220V290 2000 HZ SKC 28/22 Q1008 NOSIG
ZHHH,2003-05-29 05:00,ZHHH 290500Z 32002MPS 2500 HZ SKC 30/22 Q1008 NOSIG
ZHHH,2003-05-29 06:00,ZHHH 290600Z 29003MPS 250V350 5000 HZ SKC 30/23 Q1007 NOSIG
ZHHH,2003-05-29 07:00,ZHHH 290700Z 30003MPS 240V340 6000 SKC 31/20 Q1006 NOSIG
ZHHH,2003-05-29 08:00,ZHHH 290800Z 27002MPS CAVOK 32/20 Q1006 NOSIG
ZHHH,2003-05-29 09:00,ZHHH 290900Z 24002MPS CAVOK 32/21 Q1006 NOSIG
ZHHH,2003-05-29 10:00,ZHHH 291000Z 25002MPS 9999 SCT030 31/21 Q1006 NOSIG
ZHHH,2003-05-29 11:00,ZHHH 291100Z 05002MPS 6000 SCT030 30/21 Q1006 NOSIG
ZHHH,2003-05-29 12:00,ZHHH 291200Z 04003MPS 6000 FEW033 29/19 Q1007 NOSIG
ZHHH,2003-05-29 13:00,ZHHH 291300Z 03002MPS 4000 HZ SKC 27/19 Q1008 NOSIG
ZHHH,2003-05-29 14:00,ZHHH 291400Z 01003MPS 4000 HZ SKC 26/15 Q1008 NOSIG
ZHHH,2003-05-29 15:00,ZHHH 291500Z 02003MPS 4000 HZ SKC 27/13 Q1009 NOSIG
ZHHH,2003-05-29 16:00,ZHHH 291600Z 01002MPS 4000 HZ SKC 26/13 Q1009 NOSIG
ZHHH,2003-05-29 17:00,ZHHH 291700Z 02003MPS 4000 HZ SKC 24/14 Q1008 NOSIG
ZHHH,2003-05-29 18:00,ZHHH 291800Z 03003MPS 4000 HZ SKC 22/15 Q1008 NOSIG
ZHHH,2003-05-29 19:00,ZHHH 291900Z 01003MPS 5000 HZ SKC 22/16 Q1008 NOSIG
ZHHH,2003-05-29 20:00,ZHHH 292000Z 01003MPS 5000 HZ SKC 22/15 Q1008 NOSIG
ZHHH,2003-05-29 21:00,ZHHH 292100Z 02004MPS 5000 HZ SKC 22/16 Q1008 NOSIG
ZHHH,2003-05-29 22:00,ZHHH 292200Z 02004MPS 5000 HZ SKC 22/17 Q1009 NOSIG
ZHHH,2003-05-29 23:00,ZHHH 292300Z 02004MPS 4000 HZ SKC 23/18 Q1009 NOSIG
ZHHH,2003-05-30 00:00,ZHHH 300000Z 35003MPS 320V020 2500 HZ NSC 24/20 Q1010 NOSIG
ZHHH,2003-05-30 01:00,ZHHH 300100Z 04004MPS 3000 HZ NSC 27/21 Q1010 NOSIG
ZHHH,2003-05-30 02:00,ZHHH 300200Z 04007MPS 3500 HZ NSC 28/19 Q1010 NOSIG
ZHHH,2003-05-30 03:00,ZHHH 300300Z 05005MPS 4000 HZ NSC 28/19 Q1010 NOSIG
ZHHH,2003-05-30 04:00,ZHHH 300400Z 04005MPS 7000 SKC 30/19 Q1010 NOSIG
ZHHH,2003-05-30 05:00,ZHHH 300500Z 05005MPS 010V080 CAVOK 30/19 Q1009 NOSIG
ZHHH,2003-05-30 06:00,ZHHH 300600Z 05004MPS 010V100 CAVOK 31/19 Q1009 NOSIG
ZHHH,2003-05-30 07:00,ZHHH 300700Z 05004MPS 020V100 9999 SCT023 SCT230 31/19 Q1008 NOSIG
ZHHH,2003-05-30 08:00,ZHHH 300800Z 02003MPS 340V070 9999 FEW023 31/18 Q1008 NOSIG
ZHHH,2003-05-30 09:00,ZHHH 300900Z 03003MPS 360V060 9999 FEW023 32/19 Q1008 NOSIG
ZHHH,2003-05-30 10:00,ZHHH 301000Z 04003MPS 9999 FEW023 31/19 Q1008 NOSIG
ZHHH,2003-05-30 11:00,ZHHH 301100Z 03003MPS CAVOK 29/20 Q1008 NOSIG
ZHHH,2003-05-30 12:00,ZHHH 301200Z 03003MPS 4000 HZ NSC 28/20 Q1009 NOSIG
ZHHH,2003-05-30 13:00,ZHHH 301300Z 04003MPS 3000 HZ NSC 27/20 Q1009 NOSIG
ZHHH,2003-05-30 14:00,ZHHH 301400Z 05004MPS 3000 HZ NSC 26/19 Q1010 NOSIG
ZHHH,2003-05-30 15:00,ZHHH 301500Z 04003MPS 4000 HZ SKC 25/19 Q1010 NOSIG
ZHHH,2003-05-30 16:00,ZHHH 301600Z 06003MPS 2700 HZ SKC 25/19 Q1010 NOSIG
ZHHH,2003-05-30 17:00,ZHHH 301700Z 07003MPS 2400 HZ SKC 24/19 Q1010 NOSIG
ZHHH,2003-05-30 18:00,ZHHH 301800Z 08002MPS 2500 HZ SKC 24/19 Q1010 NOSIG
ZHHH,2003-05-30 19:00,ZHHH 301900Z 07003MPS 3000 HZ SKC 23/19 Q1010 NOSIG
ZHHH,2003-05-30 20:00,ZHHH 302000Z 06003MPS 3000 BR SKC 23/19 Q1010 NOSIG
ZHHH,2003-05-30 21:00,ZHHH 302100Z AUTO 07002KT 9SM 24/20 A2984 RMK SLP107 T02390205 52008 IEM_DS3505
ZHHH,2003-05-30 22:00,ZHHH 302200Z 07002MPS 2500 BR NSC 22/19 Q1011 NOSIG
ZHHH,2003-05-30 23:00,ZHHH 302300Z 10002MPS 2000 BR SKC 23/19 Q1011 NOSIG
ZHHH,2003-05-31 00:00,ZHHH 310000Z 09003MPS 2000 BR SKC 24/20 Q1012 NOSIG
ZHHH,2003-05-31 01:00,ZHHH 310100Z 08004MPS 3000 HZ SKC 26/20 Q1012 NOSIG
ZHHH,2003-05-31 02:00,ZHHH 310200Z 08003MPS 040V110 3000 HZ SKC 27/21 Q1012 NOSIG
ZHHH,2003-05-31 03:00,ZHHH 310300Z 08002MPS 3000 HZ SKC 29/20 Q1011 NOSIG
ZHHH,2003-05-31 04:00,ZHHH 310400Z 08002MPS 3000 HZ SKC 30/21 Q1011 NOSIG
ZHHH,2003-05-31 05:00,ZHHH 310500Z 09002MPS 3000 HZ SKC 30/20 Q1010 NOSIG
ZHHH,2003-05-31 06:00,ZHHH 310600Z 04002MPS 3000 HZ SKC 31/20 Q1010 NOSIG
ZHHH,2003-05-31 07:00,ZHHH 310700Z 13001MPS 6000 SKC 31/18 Q1009 NOSIG
ZHHH,2003-05-31 08:00,ZHHH 310800Z 12001MPS 6000 SKC 32/17 Q1008 NOSIG
ZHHH,2003-05-31 09:00,ZHHH 310900Z 13001MPS CAVOK 31/18 Q1008 NOSIG
ZHHH,2003-05-31 10:00,ZHHH 311000Z 12002MPS CAVOK 31/15 Q1008 NOSIG
ZHHH,2003-05-31 11:00,ZHHH 311100Z 19001MPS CAVOK 30/14 Q1008 NOSIG
ZHHH,2003-05-31 12:00,ZHHH 311200Z 00000MPS CAVOK 29/15 Q1008 NOSIG
ZHHH,2003-05-31 13:00,ZHHH 311300Z 00000MPS CAVOK 28/17 Q1008 NOSIG
ZHHH,2003-05-31 14:00,ZHHH 311400Z 00000MPS 6000 SKC 27/21 Q1009 NOSIG
ZHHH,2003-05-31 15:00,ZHHH 311500Z 04002MPS 6000 SKC 26/20 Q1009 NOSIG
ZHHH,2003-05-31 16:00,ZHHH 311600Z 10001MPS 6000 SKC 26/17 Q1009 NOSIG
ZHHH,2003-05-31 17:00,ZHHH 311700Z 12002MPS 6000 SKC 25/19 Q1009 NOSIG
ZHHH,2003-05-31 18:00,ZHHH 311800Z 10001MPS 6000 SKC 25/19 Q1009 NOSIG
ZHHH,2003-05-31 21:00,ZHHH 312100Z 06002MPS 2500 BR SKC 23/21 Q1008 NOSIG
ZHHH,2003-05-31 22:00,ZHHH 312200Z 08002MPS 2000 BR SKC 23/21 Q1009 NOSIG
ZHHH,2003-05-31 23:00,ZHHH 312300Z 06002MPS 1600 BR NSC 24/21 Q1009 NOSIG
ZHHH,2003-06-01 00:00,ZHHH 010000Z 07002MPS 1600 BR NSC 25/22 Q1009 NOSIG
ZHHH,2003-06-01 01:00,ZHHH 010100Z 12002MPS 2500 HZ NSC 27/21 Q1009 NOSIG
ZHHH,2003-06-01 02:00,ZHHH 010200Z 11003MPS 070V140 4000 HZ NSC 29/19 Q1009 NOSIG
ZHHH,2003-06-01 03:00,ZHHH 010300Z 12002MPS CAVOK 29/19 Q1009 NOSIG
ZHHH,2003-06-01 04:00,ZHHH 010400Z 13002MPS CAVOK 31/17 Q1009 NOSIG
ZHHH,2003-06-01 05:00,ZHHH 010500Z 16003MPS 6000 NSC 31/19 Q1008 NOSIG
ZHHH,2003-06-01 06:00,ZHHH 010600Z 15003MPS 110V210 CAVOK 32/18 Q1007 NOSIG
ZHHH,2003-06-01 07:00,ZHHH 010700Z 15002MPS CAVOK 32/18 Q1007 NOSIG
ZHHH,2003-06-01 08:00,ZHHH 010800Z 09002MPS CAVOK 32/17 Q1006 NOSIG
ZHHH,2003-06-01 09:00,ZHHH 010900Z 12003MPS 060V150 CAVOK 32/17 Q1006 NOSIG
ZHHH,2003-06-01 10:00,ZHHH 011000Z 13002MPS CAVOK 31/17 Q1006 NOSIG
ZHHH,2003-06-01 11:00,ZHHH 011100Z 15001MPS CAVOK 30/18 Q1006 NOSIG
ZHHH,2003-06-01 12:00,ZHHH 011200Z 18002MPS CAVOK 30/16 Q1006 NOSIG
ZHHH,2003-06-01 13:00,ZHHH 011300Z 00000MPS CAVOK 29/16 Q1007 NOSIG
ZHHH,2003-06-01 14:00,ZHHH 011400Z 05001MPS CAVOK 28/19 Q1007 NOSIG
ZHHH,2003-06-01 15:00,ZHHH 011500Z 08002MPS CAVOK 27/20 Q1007 NOSIG
ZHHH,2003-06-01 16:00,ZHHH 011600Z 11001MPS CAVOK 27/20 Q1007 NOSIG
ZHHH,2003-06-01 17:00,ZHHH 011700Z 09002MPS CAVOK 26/22 Q1007 NOSIG
ZHHH,2003-06-01 18:00,ZHHH 011800Z 10002MPS CAVOK 26/22 Q1007 NOSIG
ZHHH,2003-06-01 19:00,ZHHH 011900Z 10002MPS CAVOK 25/21 Q1006 NOSIG
ZHHH,2003-06-01 20:00,ZHHH 012000Z 10002MPS CAVOK 24/20 Q1006 NOSIG
ZHHH,2003-06-01 21:00,ZHHH 012100Z 09002MPS CAVOK 24/21 Q1006 NOSIG
ZHHH,2003-06-01 22:00,ZHHH 012200Z 11003MPS 5000 BR NSC 24/21 Q1006 NOSIG
ZHHH,2003-06-01 23:00,ZHHH 012300Z 09003MPS 4000 BR NSC 24/21 Q1006 NOSIG
ZHHH,2003-06-02 00:00,ZHHH 020000Z 10003MPS 3000 BR NSC 25/22 Q1007 NOSIG
ZHHH,2003-06-02 01:00,ZHHH 020100Z 10003MPS 4000 BR NSC 27/22 Q1007 NOSIG
ZHHH,2003-06-02 02:00,ZHHH 020200Z 10003MPS 7000 NSC 28/20 Q1007 NOSIG
ZHHH,2003-06-02 03:00,ZHHH 020300Z 13004MPS 7000 NSC 29/19 Q1007 NOSIG
ZHHH,2003-06-02 04:00,ZHHH 020400Z 12003MPS 7000 NSC 29/19 Q1007 NOSIG
ZHHH,2003-06-02 05:00,ZHHH 020500Z 10002MPS 5000 HZ NSC 28/20 Q1007 NOSIG
ZHHH,2003-06-02 06:00,ZHHH 020600Z 09003MPS 060V120 4000 HZ NSC 29/20 Q1006 NOSIG
ZHHH,2003-06-02 07:00,ZHHH 020700Z 06002MPS 4000 HZ NSC 28/21 Q1006 NOSIG
ZHHH,2003-06-02 08:00,ZHHH 020800Z 09001MPS 4000 HZ NSC 28/21 Q1006 NOSIG
ZHHH,2003-06-02 09:00,ZHHH 020900Z 00000MPS 3000 HZ NSC 28/20 Q1006 NOSIG
ZHHH,2003-06-02 10:00,ZHHH 021000Z 26001MPS 4000 -RA BR FEW023 FEW033TCU OVC120 26/22 Q1006 NOSIG
ZHHH,2003-06-02 11:00,ZHHH 021100Z 26002MPS 3000 BR NSC 26/22 Q1006 NOSIG
ZHHH,2003-06-02 12:00,ZHHH 021200Z 28002MPS 3000 BR NSC 25/22 Q1006 NOSIG
ZHHH,2003-06-02 13:00,ZHHH 021300Z 03002MPS 2500 BR NSC 25/21 Q1006 NOSIG
ZHHH,2003-06-02 14:00,ZHHH 021400Z 07004MPS 1800 BR NSC 24/20 Q1007 NOSIG
ZHHH,2003-06-02 15:00,ZHHH 021500Z 04001MPS 1600 BR NSC 24/18 Q1007 NOSIG
ZHHH,2003-06-02 16:00,ZHHH 021600Z 09001MPS 2000 BR NSC 23/19 Q1008 NOSIG
ZHHH,2003-06-02 17:00,ZHHH 021700Z 08002MPS 2500 BR NSC 22/19 Q1007 NOSIG
ZHHH,2003-06-02 18:00,ZHHH 021800Z 04002MPS 3000 BR NSC 22/19 Q1007 NOSIG
ZHHH,2003-06-02 19:00,ZHHH 021900Z 05001MPS 3000 BR NSC 22/19 Q1007 NOSIG
ZHHH,2003-06-02 21:00,ZHHH 022100Z 00000MPS 1800 BR NSC 22/19 Q1007 NOSIG
ZHHH,2003-06-02 22:00,ZHHH 022200Z 05002MPS 2000 BR NSC 21/19 Q1007 NOSIG
ZHHH,2003-06-02 23:00,ZHHH 022300Z 08002MPS 2200 BR NSC 22/19 Q1007 NOSIG
ZHHH,2003-06-03 00:00,ZHHH 030000Z 10004MPS 2900 BR NSC 23/20 Q1008 NOSIG
ZHHH,2003-06-03 01:00,ZHHH 030100Z 10004MPS 5000 BR NSC 24/19 Q1008 NOSIG
ZHHH,2003-06-03 02:00,ZHHH 030200Z 10002MPS CAVOK 25/20 Q1008 NOSIG
ZHHH,2003-06-03 03:00,ZHHH 030300Z 09003MPS CAVOK 25/20 Q1009 NOSIG
ZHHH,2003-06-03 04:00,ZHHH 030400Z 07003MPS 020V110 CAVOK 26/20 Q1009 NOSIG
ZHHH,2003-06-03 05:00,ZHHH 030500Z 04004MPS 360V060 CAVOK 26/20 Q1009 NOSIG
ZHHH,2003-06-03 06:00,ZHHH 030600Z 04006MPS 360V060 4000 HZ SCT020 BKN100 25/20 Q1009 NOSIG
ZHHH,2003-06-03 07:00,ZHHH 030700Z 04005MPS 4000 HZ FEW020 BKN100 24/20 Q1008 NOSIG
ZHHH,2003-06-03 08:00,ZHHH 030800Z 05004MPS 4000 HZ NSC 24/20 Q1007 NOSIG
ZHHH,2003-06-03 09:00,ZHHH 030900Z 03003MPS 6000 NSC 24/20 Q1007 NOSIG
ZHHH,2003-06-03 10:00,ZHHH 031000Z 05004MPS 6000 SKC 24/20 Q1007 NOSIG
ZHHH,2003-06-03 11:00,ZHHH 031100Z 04002MPS 4000 HZ SKC 23/19 Q1008 NOSIG
ZHHH,2003-06-03 12:00,ZHHH 031200Z 04003MPS 3000 HZ NSC 23/19 Q1009 NOSIG
ZHHH,2003-06-03 13:00,ZHHH 031300Z 02002MPS 3000 BR NSC 22/20 Q1009 NOSIG
ZHHH,2003-06-03 14:00,ZHHH 031400Z 02002MPS 3000 BR SKC 22/19 Q1010 NOSIG
ZHHH,2003-06-03 15:00,ZHHH 031500Z 02003MPS 3000 BR SKC 21/18 Q1010 NOSIG
ZHHH,2003-06-03 16:00,ZHHH 031600Z 03003MPS 000V060 2000 BR SKC 21/18 Q1010 NOSIG
ZHHH,2003-06-03 18:00,ZHHH 031800Z 32002MPS 2000 BR SKC 20/19 Q1010 NOSIG
ZHHH,2003-06-03 19:00,ZHHH 031900Z 34002MPS 1500 BR NSC 20/19 Q1010 NOSIG
ZHHH,2003-06-03 20:00,ZHHH 032000Z 00000MPS 1500 BR NSC 20/19 Q1010 NOSIG
ZHHH,2003-06-03 21:00,ZHHH 032100Z 30002MPS 1500 BR NSC 20/19 Q1010 NOSIG
ZHHH,2003-06-03 22:00,ZHHH 032200Z 30002MPS 1000 R04/1000N BR NSC 20/19 Q1011 NOSIG
ZHHH,2003-06-04 00:00,ZHHH 040000Z 01001MPS 1000 R04/1000N BR SKC 21/19 Q1011 NOSIG
ZHHH,2003-06-04 01:00,ZHHH 040100Z 12001MPS 1200 R04/1200U BR SKC 23/19 Q1011 NOSIG
ZHHH,2003-06-04 02:00,ZHHH 040200Z 08001MPS 1400 R04/1200N BR SKC 24/20 Q1011 NOSIG
ZHHH,2003-06-04 03:00,ZHHH 040300Z 16002MPS 1400 R04/1300U HZ NSC 26/19 Q1011 NOSIG
ZHHH,2003-06-04 04:00,ZHHH 040400Z 25003MPS 220V290 2000 HZ NSC 26/19 Q1011 NOSIG
ZHHH,2003-06-04 05:00,ZHHH 040500Z 26002MPS 3000 HZ NSC 28/17 Q1010 NOSIG
ZHHH,2003-06-04 06:00,ZHHH 040600Z 33002MPS 4000 HZ NSC 28/17 Q1010 NOSIG
ZHHH,2003-06-04 07:00,ZHHH 040700Z 25003MPS 220V280 4000 HZ NSC 29/18 Q1009 NOSIG
ZHHH,2003-06-04 08:00,ZHHH 040800Z 27002MPS 4000 HZ NSC 29/19 Q1009 NOSIG
ZHHH,2003-06-04 09:00,ZHHH 040900Z 33001MPS 3000 HZ SKC 29/19 Q1008 NOSIG
ZHHH,2003-06-04 10:00,ZHHH 041000Z 32002MPS 2500 HZ NSC 28/19 Q1008 NOSIG
ZHHH,2003-06-04 11:00,ZHHH 041100Z 30001MPS 3000 HZ NSC 28/16 Q1008 NOSIG
ZHHH,2003-06-04 12:00,ZHHH 041200Z 00000MPS 3000 HZ NSC 27/15 Q1008 NOSIG
ZHHH,2003-06-04 13:00,ZHHH 041300Z 24002MPS 3000 HZ SKC 26/18 Q1009 NOSIG
ZHHH,2003-06-04 14:00,ZHHH 041400Z 25002MPS 3000 HZ NSC 26/19 Q1009 NOSIG
ZHHH,2003-06-04 15:00,ZHHH 041500Z 25003MPS 3000 HZ NSC 25/20 Q1009 NOSIG
ZHHH,2003-06-04 16:00,ZHHH 041600Z 25002MPS 3000 BR NSC 25/21 Q1009 NOSIG
ZHHH,2003-06-04 17:00,ZHHH 041700Z 27002MPS 2100 BR NSC 25/21 Q1009 NOSIG
ZHHH,2003-06-04 18:00,ZHHH 041800Z 00000MPS 2100 BR NSC 25/21 Q1008 NOSIG
ZHHH,2003-06-04 19:00,ZHHH 041900Z 22002MPS 2000 BR FEW011 OVC100 24/21 Q1008 NOSIG
ZHHH,2003-06-04 20:00,ZHHH 042000Z 23001MPS 2000 BR FEW020 OVC100 24/21 Q1008 NOSIG
ZHHH,2003-06-04 21:00,ZHHH 042100Z 26002MPS 2000 BR FEW020 OVC100 24/21 Q1008 NOSIG
ZHHH,2003-06-04 22:00,ZHHH 042200Z 36001MPS 1000 R04/1000N BR NSC 24/21 Q1008 NOSIG
ZHHH,2003-06-04 23:00,ZHHH 042300Z 22002MPS 1100 R04/1000N BR NSC 24/22 Q1008 NOSIG
ZHHH,2003-06-05 00:00,ZHHH 050000Z 00000MPS 1100 R04/1000N BR NSC 25/22 Q1008 NOSIG
ZHHH,2003-06-05 01:00,ZHHH 050100Z 05001MPS 1300 R04/1300U BR NSC 26/22 Q1008 NOSIG
ZHHH,2003-06-05 02:00,ZHHH 050200Z 16001MPS 1400 R04/1400U BR NSC 27/22 Q1008 NOSIG
ZHHH,2003-06-05 03:00,ZHHH 050300Z 27002MPS 1800 HZ NSC 28/20 Q1008 NOSIG
ZHHH,2003-06-05 04:00,ZHHH 050400Z 30001MPS 2500 HZ NSC 28/20 Q1008 NOSIG
ZHHH,2003-06-05 05:00,ZHHH 050500Z 31002MPS 2500 HZ NSC 29/20 Q1007 NOSIG
ZHHH,2003-06-05 06:00,ZHHH 050600Z 26002MPS 3000 HZ NSC 29/20 Q1007 NOSIG
ZHHH,2003-06-05 07:00,ZHHH 050700Z 27001MPS 2000 HZ NSC 29/21 Q1006 NOSIG
ZHHH,2003-06-05 08:00,ZHHH 050800Z 30001MPS 1800 HZ NSC 29/21 Q1006 NOSIG
ZHHH,2003-06-05 09:00,ZHHH 050900Z 28003MPS 250V330 2000 HZ NSC 29/20 Q1006 NOSIG
ZHHH,2003-06-05 10:00,ZHHH 051000Z 26002MPS 2500 HZ NSC 28/20 Q1006 NOSIG
ZHHH,2003-06-05 11:00,ZHHH 051100Z 25001MPS 1800 HZ NSC 27/21 Q1006 NOSIG
ZHHH,2003-06-05 12:00,ZHHH 051200Z 23003MPS 1600 HZ NSC 27/22 Q1006 NOSIG
ZHHH,2003-06-05 13:00,ZHHH 051300Z 29002MPS 1600 HZ NSC 26/22 Q1007 NOSIG
ZHHH,2003-06-05 14:00,ZHHH 051400Z 27002MPS 1600 BR NSC 26/22 Q1007 NOSIG
ZHHH,2003-06-05 15:00,ZHHH 051500Z 23004MPS 1800 BR NSC 25/22 Q1008 NOSIG
ZHHH,2003-06-05 16:00,ZHHH 051600Z 25003MPS 2000 BR NSC 25/23 Q1007 NOSIG
ZHHH,2003-06-05 17:00,ZHHH 051700Z 25003MPS 1600 BR NSC 24/23 Q1006 NOSIG
ZHHH,2003-06-05 18:00,ZHHH 051800Z AUTO 27002KT 9SM 24/21 A2970 RMK SLP061 T02450214 57018 IEM_DS3505
ZHHH,2003-06-05 19:00,ZHHH 051900Z 32002MPS 1600 BR NSC 24/22 Q1006 NOSIG
ZHHH,2003-06-05 20:00,ZHHH 052000Z 05001MPS 1200 R04/1200N BR NSC 23/22 Q1006 NOSIG
ZHHH,2003-06-05 21:00,ZHHH 052100Z 03003MPS 1200 R04/1200N BR NSC 23/22 Q1006 NOSIG
ZHHH,2003-06-05 22:00,ZHHH 052200Z 08001MPS 1200 R04/1200N BR NSC 23/22 Q1006 NOSIG
ZHHH,2003-06-05 23:00,ZHHH 052300Z 00000MPS 0800 R04/0700N FG NSC 23/22 Q1006 NOSIG
ZHHH,2003-06-06 00:00,ZHHH 060000Z 20002MPS 0900 R04/0800N FG NSC 24/23 Q1006 NOSIG
ZHHH,2003-06-06 01:00,ZHHH 060100Z 28001MPS 1000 R04/0900N BR NSC 25/23 Q1006 NOSIG
ZHHH,2003-06-06 02:00,ZHHH 060200Z 25002MPS 1000 R04/0900N BR NSC 25/23 Q1006 NOSIG
ZHHH,2003-06-06 03:00,ZHHH 060300Z 28002MPS 1000 R04/1000 BR NSC 26/23 Q1006 NOSIG
ZHHH,2003-06-06 04:00,ZHHH 060400Z 25002MPS 1400 R04/1000N BR NSC 26/23 Q1006 NOSIG
ZHHH,2003-06-06 05:00,ZHHH 060500Z 26002MPS 1400 R04/1200N BR NSC 28/24 Q1005 NOSIG
ZHHH,2003-06-06 06:00,ZHHH 060600Z 26002MPS 1400 R04/1300N BR NSC 27/23 Q1005 NOSIG
ZHHH,2003-06-06 07:00,ZHHH 060700Z 30002MPS 1400 R04/1200N BR NSC 28/23 Q1004 NOSIG
ZHHH,2003-06-06 08:00,ZHHH 060800Z 26002MPS 1400 R04/1400N BR NSC 28/23 Q1004 NOSIG
ZHHH,2003-06-06 09:00,ZHHH 060900Z 26002MPS 1400 R04/1400N HZ NSC 28/23 Q1003 NOSIG
ZHHH,2003-06-06 10:00,ZHHH 061000Z 26002MPS 1400 R04/1200N HZ NSC 28/24 Q1003 NOSIG
ZHHH,2003-06-06 11:00,ZHHH 061100Z 23002MPS 1400 R04/1200N HZ NSC 27/23 Q1003 NOSIG
ZHHH,2003-06-06 12:00,ZHHH 061200Z 24002MPS 1400 BR NSC 27/24 Q1004 NOSIG
ZHHH,2003-06-06 13:00,ZHHH 061300Z 24002MPS 1400 BR NSC 26/24 Q1004 NOSIG
ZHHH,2003-06-06 14:00,ZHHH 061400Z 14001MPS 1400 BR NSC 26/24 Q1005 NOSIG
ZHHH,2003-06-06 15:00,ZHHH 061500Z 00000MPS 1400 BR NSC 25/24 Q1005 NOSIG
ZHHH,2003-06-06 16:00,ZHHH 061600Z 00000MPS 1400 BR NSC 25/24 Q1005 NOSIG
ZHHH,2003-06-06 17:00,ZHHH 061700Z 00000MPS 1200 R04/1400N BR NSC 25/24 Q1004 NOSIG
ZHHH,2003-06-06 18:00,ZHHH 061800Z 00000MPS 1200 R04/1400N BR NSC 24/24 Q1004 NOSIG
ZHHH,2003-06-06 19:00,ZHHH 061900Z 00000MPS 1600 BR OVC012 24/24 Q1003 NOSIG
ZHHH,2003-06-06 20:00,ZHHH 062000Z 00000MPS 1600 BR NSC 24/23 Q1003 NOSIG
ZHHH,2003-06-06 21:00,ZHHH 062100Z 00000MPS 1000 R04/0900N BR NSC 24/23 Q1004 NOSIG
ZHHH,2003-06-06 22:00,ZHHH 062200Z 05002MPS 0900 R04/0800N FG SKC 23/23 Q1004 NOSIG
ZHHH,2003-06-06 23:00,ZHHH 062300Z 04002MPS 0050 R04/0050N FG SKC 23/23 Q1005 NOSIG
ZHHH,2003-06-07 00:00,ZHHH 070000Z 00000MPS 0100 R04/0100N FG SKC 23/23 Q1005 NOSIG
ZHHH,2003-06-07 01:00,ZHHH 070100Z 10001MPS 0300 R04/0700N FG SKC 24/24 Q1005 NOSIG
ZHHH,2003-06-07 02:00,ZHHH 070200Z 14001MPS 0900 R04/0900U FG SKC 26/25 Q1005 NOSIG
ZHHH,2003-06-07 03:00,ZHHH 070300Z 11001MPS 1500 R04/1200N BR SKC 28/25 Q1005 NOSIG
ZHHH,2003-06-07 04:00,ZHHH 070400Z 02001MPS 1500 R04/1200N HZ SKC 30/24 Q1004 NOSIG
ZHHH,2003-06-07 05:00,ZHHH 070500Z 02001MPS 1500 R04/1200N HZ SKC 31/24 Q1003 NOSIG
ZHHH,2003-06-07 06:00,ZHHH 070600Z 01002MPS 2500 HZ SKC 32/21 Q1003 NOSIG
ZHHH,2003-06-07 07:00,ZHHH 070700Z 07002MPS 5000 HZ SKC 33/20 Q1002 NOSIG
ZHHH,2003-06-07 08:00,ZHHH 070800Z 06002MPS CAVOK 34/18 Q1002 NOSIG
ZHHH,2003-06-07 09:00,ZHHH 070900Z 03002MPS CAVOK 34/16 Q1002 NOSIG
ZHHH,2003-06-07 10:00,ZHHH 071000Z 14001MPS CAVOK 33/18 Q1001 NOSIG
ZHHH,2003-06-07 11:00,ZHHH 071100Z 28001MPS CAVOK 32/17 Q1002 NOSIG
ZHHH,2003-06-07 12:00,ZHHH 071200Z 24002MPS CAVOK 31/16 Q1003 NOSIG
ZHHH,2003-06-07 13:00,ZHHH 071300Z 25002MPS CAVOK 30/18 Q1003 NOSIG
ZHHH,2003-06-07 14:00,ZHHH 071400Z 12001MPS CAVOK 28/22 Q1004 NOSIG
ZHHH,2003-06-07 15:00,ZHHH 071500Z 04002MPS 1900 SKC 27/23 Q1004 NOSIG
ZHHH,2003-06-07 16:00,ZHHH 071600Z 03001MPS CAVOK 27/21 Q1004 NOSIG
ZHHH,2003-06-07 17:00,ZHHH 071700Z 00000MPS 6000 SKC 27/22 Q1004 NOSIG
ZHHH,2003-06-07 18:00,ZHHH 071800Z 06002MPS 3000 BR SKC 26/23 Q1004 NOSIG
ZHHH,2003-06-07 19:00,ZHHH 071900Z 04001MPS 2100 BR SKC 26/23 Q1004 NOSIG
ZHHH,2003-06-07 20:00,ZHHH 072000Z 08001MPS 2100 BR SKC 25/23 Q1004 NOSIG
ZHHH,2003-06-07 21:00,ZHHH 072100Z 04002MPS 1500 BR SKC 24/23 Q1004 NOSIG
ZHHH,2003-06-07 22:00,ZHHH 072200Z 06002MPS 1500 R04/1200N BR NSC 24/22 Q1005 NOSIG
ZHHH,2003-06-07 23:00,ZHHH 072300Z 09002MPS 1200 R04/1000N BR NSC 24/23 Q1005 NOSIG
ZHHH,2003-06-08 00:00,ZHHH 080000Z 12003MPS 080V140 1200 R04/1000N BR NSC 26/24 Q1005 NOSIG
ZHHH,2003-06-08 01:00,ZHHH 080100Z 14003MPS 1400 R04/1400U BR NSC 27/25 Q1005 NOSIG
ZHHH,2003-06-08 02:00,ZHHH 080200Z 15003MPS 1700 BR NSC 28/24 Q1005 NOSIG
ZHHH,2003-06-08 03:00,ZHHH 080300Z 14003MPS 2100 BR NSC 30/23 Q1005 NOSIG
ZHHH,2003-06-08 04:00,ZHHH 080400Z 14003MPS 100V170 2500 HZ NSC 31/23 Q1005 NOSIG
ZHHH,2003-06-08 05:00,ZHHH 080500Z 15003MPS 2400 HZ SCT026 BKN130 31/23 Q1004 NOSIG
ZHHH,2003-06-08 06:00,ZHHH 080600Z 15002MPS 2500 HZ SCT026 BKN130 31/23 Q1004 NOSIG
ZHHH,2003-06-08 07:00,ZHHH 080700Z 13002MPS 3000 HZ SCT026 BKN140 31/23 Q1003 NOSIG
ZHHH,2003-06-08 08:00,ZHHH 080800Z 11002MPS 3000 HZ NSC 32/22 Q1003 NOSIG
ZHHH,2003-06-08 09:00,ZHHH 080900Z 09002MPS 5000 HZ NSC 32/22 Q1002 NOSIG
ZHHH,2003-06-08 10:00,ZHHH 081000Z 08003MPS 5000 HZ SKC 31/22 Q1002 NOSIG
ZHHH,2003-06-08 11:00,ZHHH 081100Z 07003MPS 3000 HZ NSC 30/24 Q1002 NOSIG
ZHHH,2003-06-08 12:00,ZHHH 081200Z 06002MPS 2000 HZ NSC 29/23 Q1002 NOSIG
ZHHH,2003-06-08 13:00,ZHHH 081300Z 07002MPS 2500 HZ NSC 28/23 Q1003 NOSIG
ZHHH,2003-06-08 14:00,ZHHH 081400Z 07002MPS 3000 HZ SKC 28/23 Q1003 NOSIG
ZHHH,2003-06-08 15:00,ZHHH 081500Z 11002MPS 3500 BR SKC 27/23 Q1004 NOSIG
ZHHH,2003-06-08 16:00,ZHHH 081600Z 09002MPS 3500 BR SKC 27/23 Q1003 NOSIG
ZHHH,2003-06-08 17:00,ZHHH 081700Z 08002MPS 2500 BR SKC 26/24 Q1003 NOSIG
ZHHH,2003-06-08 18:00,ZHHH 081800Z AUTO 11002KT 7SM 28/23 A2960 RMK SLP027 T02770228 57009 IEM_DS3505
ZHHH,2003-06-08 21:00,ZHHH 082100Z 12002MPS 3000 BR SKC 25/23 Q1003 NOSIG
ZHHH,2003-06-08 22:00,ZHHH 082200Z 10002MPS 3000 BR NSC 25/23 Q1003 NOSIG
ZHHH,2003-06-08 23:00,ZHHH 082300Z 13002MPS 3000 BR NSC 26/23 Q1004 NOSIG
ZHHH,2003-06-09 00:00,ZHHH 090000Z 13003MPS 5000 BR NSC 27/24 Q1004 NOSIG
ZHHH,2003-06-09 01:00,ZHHH 090100Z 15003MPS 6000 NSC 28/24 Q1004 NOSIG
ZHHH,2003-06-09 02:00,ZHHH 090200Z 15003MPS 100V170 6000 SKC 29/24 Q1004 NOSIG
ZHHH,2003-06-09 03:00,ZHHH 090300Z 14003MPS 110V180 6000 NSC 30/25 Q1003 NOSIG
ZHHH,2003-06-09 04:00,ZHHH 090400Z 13003MPS 080V180 6000 SCT026 BKN130 31/24 Q1003 NOSIG
ZHHH,2003-06-09 05:00,ZHHH 090500Z 16003MPS 130V190 6000 FEW030TCU SCT030 31/24 Q1003 NOSIG
ZHHH,2003-06-09 06:00,ZHHH 090600Z 14003MPS 100V170 6000 FEW030TCU SCT030 31/24 Q1002 NOSIG
ZHHH,2003-06-09 07:00,ZHHH 090700Z 15003MPS 6000 SCT030 BKN130 31/24 Q1002 NOSIG
ZHHH,2003-06-09 08:00,ZHHH 090800Z 22003MPS 170V250 CAVOK 31/24 Q1001 NOSIG
ZHHH,2003-06-09 09:00,ZHHH 090900Z 28001MPS CAVOK 30/24 Q1001 NOSIG
ZHHH,2003-06-09 10:00,ZHHH 091000Z 29001MPS CAVOK 30/24 Q1001 NOSIG
ZHHH,2003-06-09 11:00,ZHHH 091100Z 08002MPS 3000 HZ NSC 30/24 Q1002 NOSIG
ZHHH,2003-06-09 12:00,ZHHH 091200Z 11001MPS 4000 BR NSC 29/25 Q1003 NOSIG
ZHHH,2003-06-09 13:00,ZHHH 091300Z 07002MPS 4000 BR NSC 29/25 Q1003 NOSIG
ZHHH,2003-06-09 14:00,ZHHH 091400Z 11003MPS 6000 NSC 28/24 Q1004 NOSIG
ZHHH,2003-06-09 15:00,ZHHH 091500Z 10002MPS 6000 NSC 27/23 Q1003 NOSIG
ZHHH,2003-06-09 16:00,ZHHH 091600Z 08002MPS 6000 NSC 26/23 Q1003 NOSIG
ZHHH,2003-06-09 17:00,ZHHH 091700Z 06003MPS 6000 NSC 25/22 Q1003 NOSIG
ZHHH,2003-06-09 18:00,ZHHH 091800Z 07003MPS 6000 NSC 25/22 Q1004 NOSIG
ZHHH,2003-06-09 19:00,ZHHH 091900Z 05005MPS 6000 NSC 25/22 Q1004 NOSIG
ZHHH,2003-06-09 20:00,ZHHH 092000Z 05006MPS 6000 NSC 23/22 Q1004 NOSIG
ZHHH,2003-06-09 21:00,ZHHH 092100Z 05005MPS 6000 NSC 23/21 Q1004 NOSIG
ZHHH,2003-06-09 22:00,ZHHH 092200Z 07003MPS CAVOK 23/22 Q1004 NOSIG
ZHHH,2003-06-09 23:00,ZHHH 092300Z 04004MPS CAVOK 24/22 Q1005 NOSIG
ZHHH,2003-06-10 00:00,ZHHH 100000Z 05005MPS CAVOK 25/22 Q1005 NOSIG
ZHHH,2003-06-10 01:00,ZHHH 100100Z 03006MPS 000V060 4000 BR NSC 26/22 Q1005 NOSIG
ZHHH,2003-06-10 02:00,ZHHH 100200Z 03006MPS 3500 BR NSC 27/22 Q1005 NOSIG
ZHHH,2003-06-10 03:00,ZHHH 100300Z 04006MPS 3500 HZ NSC 28/22 Q1005 NOSIG
ZHHH,2003-06-10 04:00,ZHHH 100400Z 02005MPS 350V060 3000 HZ NSC 29/23 Q1004 NOSIG
ZHHH,2003-06-10 05:00,ZHHH 100500Z 03005MPS 350V060 3000 HZ NSC 29/22 Q1004 NOSIG
ZHHH,2003-06-10 06:00,ZHHH 100600Z 03006MPS 000V060 0000 HZ NSC 28/23 Q1003 NOSIG
ZHHH,2003-06-10 07:00,ZHHH 100700Z 03006MPS 360V060 2500 DU NSC 28/22 Q1002 NOSIG
ZHHH,2003-06-10 08:00,ZHHH 100800Z 03007MPS 2000 DU NSC 28/22 Q1003 NOSIG
ZHHH,2003-06-10 09:00,ZHHH 100900Z 04006MPS 360V060 1800 DU NSC 28/22 Q1003 NOSIG
ZHHH,2003-06-10 10:00,ZHHH 101000Z 04006MPS 1600 DU NSC 27/22 Q1003 NOSIG
ZHHH,2003-06-10 11:00,ZHHH 101100Z 12005MPS 6000 BKN020 FEW033TCU OVC110 24/22 Q1004 NOSIG
ZHHH,2003-06-10 12:00,ZHHH 101200Z 12005MPS 2000 RA BKN020 FEW033TCU OVC070 22/22 Q1005 NOSIG
ZHHH,2003-06-10 13:00,ZHHH 101300Z 06001MPS 1600 +RA SCT020 SCT040TCU BKN070 22/22 Q1005 NOSIG
ZHHH,2003-06-10 14:00,ZHHH 101400Z 34002MPS 1800 -RA SCT010 FEW033TCU BKN070 22/22 Q1005 RERA NOSIG
ZHHH,2003-06-10 15:00,ZHHH 101500Z 01006MPS 350V050 2000 -RA SCT010 OVC070 22/22 Q1005 NOSIG
ZHHH,2003-06-10 16:00,ZHHH 101600Z 01006MPS 3000 -RA SCT010 OVC070 22/21 Q1005 NOSIG
ZHHH,2003-06-10 17:00,ZHHH 101700Z 02006MPS 3000 -RA SCT010 OVC070 22/21 Q1004 NOSIG
ZHHH,2003-06-10 18:00,ZHHH 101800Z 02006MPS 3000 -RA SCT010 OVC070 21/20 Q1004 NOSIG
ZHHH,2003-06-10 19:00,ZHHH 101900Z 02006MPS 2800 -RA SCT010 OVC070 20/19 Q1004 NOSIG
ZHHH,2003-06-10 20:00,ZHHH 102000Z 01006MPS 4000 -RA NSC 21/18 Q1004 NOSIG
ZHHH,2003-06-10 21:00,ZHHH 102100Z 02008MPS 5000 -RA NSC 19/17 Q1004 NOSIG
ZHHH,2003-06-10 22:00,ZHHH 102200Z 02009MPS 4000 -RA NSC 19/18 Q1005 NOSIG
ZHHH,2003-06-10 23:00,ZHHH 102300Z 03007MPS 2500 -RA FEW020 OVC060 18/17 Q1006 NOSIG
ZHHH,2003-06-11 00:00,ZHHH 110000Z 02005MPS 350V060 2500 -RA FEW020 OVC060 18/17 Q1006 NOSIG
ZHHH,2003-06-11 01:00,ZHHH 110100Z 02004MPS 7000 -RA FEW020 OVC060 19/18 Q1006 NOSIG
ZHHH,2003-06-11 02:00,ZHHH 110200Z 01005MPS 340V040 9999 SCT022 OVC060 19/17 Q1007 NOSIG
ZHHH,2003-06-11 03:00,ZHHH 110300Z 01005MPS 350V060 9999 SCT020 OVC070 20/18 Q1006 NOSIG
ZHHH,2003-06-11 04:00,ZHHH 110400Z 02005MPS 330V060 9999 SCT020 BKN060 22/18 Q1006 NOSIG
ZHHH,2003-06-11 05:00,ZHHH 110500Z 02006MPS 350V060 9999 SCT020 OVC120 23/18 Q1006 NOSIG
ZHHH,2003-06-11 06:00,ZHHH 110600Z 01006MPS 9999 SCT020 BKN060 24/18 Q1005 NOSIG
ZHHH,2003-06-11 07:00,ZHHH 110700Z 36005MPS 340V040 9999 SCT020 SCT060 25/18 Q1005 NOSIG
ZHHH,2003-06-11 08:00,ZHHH 110800Z 04006MPS 360V070 9999 SCT020 SCT230 25/18 Q1004 NOSIG
ZHHH,2003-06-11 09:00,ZHHH 110900Z 03005MPS 350V060 CAVOK 25/18 Q1004 NOSIG
ZHHH,2003-06-11 10:00,ZHHH 111000Z 02005MPS CAVOK 26/17 Q1004 NOSIG
ZHHH,2003-06-11 11:00,ZHHH 111100Z 02002MPS CAVOK 25/17 Q1005 NOSIG
ZHHH,2003-06-11 12:00,ZHHH 111200Z 01002MPS CAVOK 23/17 Q1005 NOSIG
ZHHH,2003-06-11 13:00,ZHHH 111300Z 36003MPS CAVOK 22/17 Q1005 NOSIG
ZHHH,2003-06-11 14:00,ZHHH 111400Z 35002MPS CAVOK 21/18 Q1006 NOSIG
ZHHH,2003-06-11 15:00,ZHHH 111500Z 01002MPS CAVOK 21/17 Q1007 NOSIG
ZHHH,2003-06-11 16:00,ZHHH 111600Z 10001MPS CAVOK 20/17 Q1006 NOSIG
ZHHH,2003-06-11 17:00,ZHHH 111700Z 14002MPS CAVOK 20/17 Q1006 NOSIG
ZHHH,2003-06-11 18:00,ZHHH 111800Z 00000MPS CAVOK 20/18 Q1006 NOSIG
ZHHH,2003-06-11 19:00,ZHHH 111900Z 30002MPS CAVOK 19/18 Q1006 NOSIG
ZHHH,2003-06-11 20:00,ZHHH 112000Z 00000MPS CAVOK 20/18 Q1006 NOSIG
ZHHH,2003-06-11 21:00,ZHHH 112100Z 00000MPS CAVOK 20/18 Q1005 NOSIG
ZHHH,2003-06-11 22:00,ZHHH 112200Z 00000MPS 5000 BR NSC 20/18 Q1006 NOSIG
ZHHH,2003-06-11 23:00,ZHHH 112300Z 11002MPS 2500 BR NSC 20/19 Q1006 NOSIG
ZHHH,2003-06-12 00:00,ZHHH 120000Z 12003MPS 2500 BR NSC 21/20 Q1006 NOSIG
ZHHH,2003-06-12 01:00,ZHHH 120100Z 14002MPS 8000 SKC 23/20 Q1007 NOSIG
ZHHH,2003-06-12 02:00,ZHHH 120200Z 23003MPS 200V260 4000 HZ SKC 25/20 Q1007 NOSIG
ZHHH,2003-06-12 03:00,ZHHH 120300Z 22003MPS 170V250 7000 NSC 26/19 Q1006 NOSIG
ZHHH,2003-06-12 04:00,ZHHH 120400Z 21004MPS 180V250 7000 NSC 26/19 Q1007 NOSIG
ZHHH,2003-06-12 05:00,ZHHH 120500Z 22004MPS 190V260 CAVOK 26/20 Q1007 NOSIG
ZHHH,2003-06-12 06:00,ZHHH 120600Z 22004MPS 190V250 CAVOK 28/20 Q1006 NOSIG
ZHHH,2003-06-12 07:00,ZHHH 120700Z 24004MPS 220V280 CAVOK 27/19 Q1006 NOSIG
ZHHH,2003-06-12 08:00,ZHHH 120800Z 22004MPS 170V250 CAVOK 27/19 Q1005 NOSIG
ZHHH,2003-06-12 09:00,ZHHH 120900Z 23002MPS CAVOK 27/19 Q1004 NOSIG
ZHHH,2003-06-12 11:00,ZHHH 121100Z 19002MPS CAVOK 25/21 Q1005 NOSIG
ZHHH,2003-06-12 12:00,ZHHH 121200Z 21002MPS CAVOK 25/20 Q1005 NOSIG
ZHHH,2003-06-12 13:00,ZHHH 121300Z 17002MPS CAVOK 25/20 Q1006 NOSIG
ZHHH,2003-06-12 14:00,ZHHH 121400Z 16002MPS CAVOK 25/20 Q1005 NOSIG
ZHHH,2003-06-12 15:00,ZHHH 121500Z 05002MPS CAVOK 24/21 Q1006 NOSIG
ZHHH,2003-06-12 16:00,ZHHH 121600Z 11001MPS CAVOK 24/21 Q1006 NOSIG
ZHHH,2003-06-12 17:00,ZHHH 121700Z 18001MPS CAVOK 23/21 Q1006 NOSIG
ZHHH,2003-06-12 18:00,ZHHH 121800Z 00000MPS 5000 BR NSC 23/21 Q1006 NOSIG
ZHHH,2003-06-12 19:00,ZHHH 121900Z AUTO 00000MPS 1800 // ////// 23/21 Q1005 NOSIG
ZHHH,2003-06-12 20:00,ZHHH 122000Z AUTO 00000MPS 1400 // ////// 23/21 Q1005 NOSIG
ZHHH,2003-06-12 21:00,ZHHH 122100Z AUTO 16003MPS 2100 // ////// 23/21 Q1004 NOSIG
ZHHH,2003-06-12 22:00,ZHHH 122200Z 27002MPS 2500 BR NSC 24/21 Q1005 NOSIG
ZHHH,2003-06-12 23:00,ZHHH 122300Z 20003MPS 2500 BR NSC 24/21 Q1006 NOSIG
ZHHH,2003-06-13 00:00,ZHHH 130000Z 21003MPS 180V240 4000 BR NSC 25/22 Q1006 NOSIG
ZHHH,2003-06-13 01:00,ZHHH 130100Z 23004MPS 6000 NSC 26/21 Q1006 NOSIG
ZHHH,2003-06-13 02:00,ZHHH 130200Z 22005MPS 6000 NSC 28/21 Q1006 NOSIG
ZHHH,2003-06-13 03:00,ZHHH 130300Z 24008MPS CAVOK 29/20 Q1007 NOSIG
ZHHH,2003-06-13 04:00,ZHHH 130400Z 23008MPS CAVOK 29/21 Q1006 NOSIG
ZHHH,2003-06-13 05:00,ZHHH 130500Z 25007MPS CAVOK 30/20 Q1006 NOSIG
ZHHH,2003-06-13 06:00,ZHHH 130600Z 25007MPS CAVOK 30/18 Q1006 NOSIG
ZHHH,2003-06-13 07:00,ZHHH 130700Z 24006MPS CAVOK 31/16 Q1005 NOSIG
ZHHH,2003-06-13 08:00,ZHHH 130800Z 25006MPS CAVOK 30/16 Q1005 NOSIG
ZHHH,2003-06-13 09:00,ZHHH 130900Z 24005MPS CAVOK 30/16 Q1005 NOSIG
ZHHH,2003-06-13 10:00,ZHHH 131000Z 24005MPS CAVOK 29/18 Q1005 NOSIG
ZHHH,2003-06-13 11:00,ZHHH 131100Z 22004MPS CAVOK 28/19 Q1005 NOSIG
ZHHH,2003-06-13 12:00,ZHHH 131200Z 22005MPS 9999 FEW033 26/21 Q1006 NOSIG
ZHHH,2003-06-13 13:00,ZHHH 131300Z 20004MPS 9999 SCT033 25/21 Q1007 NOSIG
ZHHH,2003-06-13 14:00,ZHHH 131400Z 23003MPS CAVOK 25/20 Q1008 NOSIG
ZHHH,2003-06-13 15:00,ZHHH 131500Z 24003MPS CAVOK 24/20 Q1008 NOSIG
ZHHH,2003-06-13 16:00,ZHHH 131600Z 25003MPS CAVOK 23/21 Q1008 NOSIG
ZHHH,2003-06-13 17:00,ZHHH 131700Z 26003MPS CAVOK 23/21 Q1008 NOSIG
ZHHH,2003-06-13 18:00,ZHHH 131800Z 26004MPS CAVOK 23/20 Q1007 NOSIG
ZHHH,2003-06-13 19:00,ZHHH 131900Z 25003MPS CAVOK 22/19 Q1007 NOSIG
ZHHH,2003-06-13 20:00,ZHHH 132000Z 23003MPS CAVOK 22/20 Q1007 NOSIG
ZHHH,2003-06-13 21:00,ZHHH 132100Z 22002MPS CAVOK 22/20 Q1007 NOSIG
ZHHH,2003-06-13 22:00,ZHHH 132200Z 19001MPS 4000 BR SKC 21/20 Q1007 NOSIG
ZHHH,2003-06-13 23:00,ZHHH 132300Z 23002MPS 4000 BR SKC 22/21 Q1007 NOSIG
ZHHH,2003-06-14 00:00,ZHHH 140000Z 24004MPS 3000 BR SKC 23/21 Q1007 NOSIG
ZHHH,2003-06-14 01:00,ZHHH 140100Z 25004MPS 220V280 6000 SKC 25/21 Q1008 NOSIG
ZHHH,2003-06-14 02:00,ZHHH 140200Z 24003MPS 200V280 6000 SKC 26/22 Q1007 NOSIG
ZHHH,2003-06-14 03:00,ZHHH 140300Z 25003MPS 210V290 6000 SKC 28/22 Q1007 NOSIG
ZHHH,2003-06-14 04:00,ZHHH 140400Z 25003MPS 210V290 CAVOK 28/22 Q1006 NOSIG
ZHHH,2003-06-14 05:00,ZHHH 140500Z 27003MPS 220V310 CAVOK 30/22 Q1006 NOSIG
ZHHH,2003-06-14 06:00,ZHHH 140600Z 26002MPS CAVOK 31/21 Q1005 NOSIG
ZHHH,2003-06-14 07:00,ZHHH 140700Z 27003MPS 220V320 CAVOK 33/20 Q1005 NOSIG
ZHHH,2003-06-14 08:00,ZHHH 140800Z 29003MPS 250V330 CAVOK 33/13 Q1005 NOSIG
ZHHH,2003-06-14 09:00,ZHHH 140900Z 28002MPS CAVOK 33/13 Q1004 NOSIG
ZHHH,2003-06-14 10:00,ZHHH 141000Z 26001MPS CAVOK 32/14 Q1004 NOSIG
ZHHH,2003-06-14 11:00,ZHHH 141100Z 21001MPS CAVOK 31/16 Q1005 NOSIG
ZHHH,2003-06-14 12:00,ZHHH 141200Z 22004MPS CAVOK 28/22 Q1006 NOSIG
ZHHH,2003-06-14 13:00,ZHHH 141300Z 23004MPS CAVOK 28/23 Q1006 NOSIG
ZHHH,2003-06-14 14:00,ZHHH 141400Z 22004MPS CAVOK 27/23 Q1007 NOSIG
ZHHH,2003-06-14 15:00,ZHHH 141500Z 24003MPS CAVOK 26/23 Q1007 NOSIG
ZHHH,2003-06-14 16:00,ZHHH 141600Z 25002MPS CAVOK 26/24 Q1007 NOSIG
ZHHH,2003-06-14 17:00,ZHHH 141700Z 24002MPS CAVOK 26/24 Q1006 NOSIG
ZHHH,2003-06-14 18:00,ZHHH 141800Z 23001MPS CAVOK 25/23 Q1006 NOSIG
ZHHH,2003-06-14 19:00,ZHHH 141900Z 00000MPS CAVOK 25/23 Q1006 NOSIG
ZHHH,2003-06-14 20:00,ZHHH 142000Z 00000MPS 3000 BR NSC 25/23 Q1006 NOSIG
ZHHH,2003-06-14 21:00,ZHHH 142100Z 00000MPS 1200 R04/1200N BR NSC 24/23 Q1007 NOSIG
ZHHH,2003-06-14 22:00,ZHHH 142200Z 00000MPS 1400 R04/1400U BR NSC 24/23 Q1007 NOSIG
ZHHH,2003-06-14 23:00,ZHHH 142300Z 15001MPS 1200 R04/1200D BR NSC 24/23 Q1007 NOSIG
ZHHH,2003-06-15 00:00,ZHHH 150000Z 15002MPS 1600 BR NSC 26/24 Q1008 NOSIG
ZHHH,2003-06-15 01:00,ZHHH 150100Z 17002MPS 5000 BR NSC 28/22 Q1008 NOSIG
ZHHH,2003-06-15 02:00,ZHHH 150200Z 23002MPS 5000 HZ NSC 29/23 Q1008 NOSIG
ZHHH,2003-06-15 03:00,ZHHH 150300Z 24002MPS 6000 NSC 30/23 Q1008 NOSIG
ZHHH,2003-06-15 04:00,ZHHH 150400Z 22003MPS 170V260 CAVOK 31/22 Q1008 NOSIG
ZHHH,2003-06-15 05:00,ZHHH 150500Z 23003MPS 190V260 CAVOK 32/22 Q1007 NOSIG
ZHHH,2003-06-15 06:00,ZHHH 150600Z 22003MPS 170V260 CAVOK 33/20 Q1007 NOSIG
ZHHH,2003-06-15 07:00,ZHHH 150700Z 24003MPS 180V290 CAVOK 33/21 Q1006 NOSIG
ZHHH,2003-06-15 08:00,ZHHH 150800Z 25003MPS CAVOK 32/20 Q1006 NOSIG
ZHHH,2003-06-15 09:00,ZHHH 150900Z 25002MPS CAVOK 32/20 Q1006 NOSIG
ZHHH,2003-06-15 10:00,ZHHH 151000Z 25002MPS CAVOK 31/20 Q1006 NOSIG
ZHHH,2003-06-15 11:00,ZHHH 151100Z 27002MPS CAVOK 30/21 Q1006 NOSIG
ZHHH,2003-06-15 12:00,ZHHH 151200Z 25001MPS CAVOK 30/21 Q1006 NOSIG
ZHHH,2003-06-15 13:00,ZHHH 151300Z 00000MPS CAVOK 29/20 Q1007 NOSIG
ZHHH,2003-06-15 14:00,ZHHH 151400Z 00000MPS CAVOK 29/23 Q1008 NOSIG
ZHHH,2003-06-15 15:00,ZHHH 151500Z 00000MPS CAVOK 28/22 Q1008 NOSIG
ZHHH,2003-06-15 16:00,ZHHH 151600Z 00000MPS CAVOK 27/24 Q1007 NOSIG
ZHHH,2003-06-15 17:00,ZHHH 151700Z 06003MPS CAVOK 26/23 Q1008 NOSIG
ZHHH,2003-06-15 18:00,ZHHH 151800Z 12001MPS CAVOK 26/22 Q1008 NOSIG
ZHHH,2003-06-15 19:00,ZHHH 151900Z 00000MPS 6000 SKC 26/23 Q1008 NOSIG
ZHHH,2003-06-15 20:00,ZHHH 152000Z 09001MPS 3000 BR NSC 25/23 Q1008 NOSIG
ZHHH,2003-06-15 21:00,ZHHH 152100Z 06002MPS 2500 BR NSC 25/23 Q1008 NOSIG
ZHHH,2003-06-15 22:00,ZHHH 152200Z 08002MPS 2500 BR NSC 25/22 Q1009 NOSIG
ZHHH,2003-06-15 23:00,ZHHH 152300Z 07003MPS 2000 BR NSC 25/23 Q1009 NOSIG
ZHHH,2003-06-16 00:00,ZHHH 160000Z 07003MPS 3000 BR NSC 26/23 Q1009 NOSIG
ZHHH,2003-06-16 01:00,ZHHH 160100Z 11003MPS 4000 BR NSC 27/23 Q1010 NOSIG
ZHHH,2003-06-16 02:00,ZHHH 160200Z 10003MPS 060V130 4000 HZ NSC 29/23 Q1009 NOSIG
ZHHH,2003-06-16 03:00,ZHHH 160300Z 12003MPS 090V150 4000 HZ NSC 29/23 Q1009 NOSIG
ZHHH,2003-06-16 04:00,ZHHH 160400Z 13002MPS 4000 HZ NSC 31/23 Q1009 NOSIG
ZHHH,2003-06-16 05:00,ZHHH 160500Z 16002MPS CAVOK 32/20 Q1009 NOSIG
ZHHH,2003-06-16 06:00,ZHHH 160600Z 14002MPS CAVOK 33/22 Q1008 NOSIG
ZHHH,2003-06-16 07:00,ZHHH 160700Z 11002MPS CAVOK 32/20 Q1008 NOSIG
ZHHH,2003-06-16 08:00,ZHHH 160800Z 00000MPS CAVOK 32/20 Q1008 NOSIG
ZHHH,2003-06-16 09:00,ZHHH 160900Z 09001MPS CAVOK 32/20 Q1007 NOSIG
ZHHH,2003-06-16 10:00,ZHHH 161000Z 10001MPS CAVOK 32/19 Q1008 NOSIG
ZHHH,2003-06-16 11:00,ZHHH 161100Z 10001MPS CAVOK 31/20 Q1008 NOSIG
ZHHH,2003-06-16 12:00,ZHHH 161200Z 11001MPS 9999 SCT020 OVC130 30/23 Q1008 NOSIG
ZHHH,2003-06-16 13:00,ZHHH 161300Z 12004MPS 9999 SCT020 OVC130 27/21 Q1009 NOSIG
ZHHH,2003-06-16 14:00,ZHHH 161400Z 10003MPS 9999 SCT020 OVC130 26/22 Q1010 NOSIG
ZHHH,2003-06-16 15:00,ZHHH 161500Z 12002MPS 9999 SCT020 BKN130 26/22 Q1010 NOSIG
ZHHH,2003-06-16 16:00,ZHHH 161600Z 12003MPS CAVOK 26/21 Q1010 NOSIG
ZHHH,2003-06-16 17:00,ZHHH 161700Z 10002MPS CAVOK 25/21 Q1009 NOSIG
ZHHH,2003-06-16 18:00,ZHHH 161800Z 08002MPS CAVOK 25/22 Q1009 NOSIG
ZHHH,2003-06-16 19:00,ZHHH 161900Z 09003MPS CAVOK 24/22 Q1009 NOSIG
ZHHH,2003-06-16 20:00,ZHHH 162000Z 11002MPS CAVOK 24/22 Q1009 NOSIG
ZHHH,2003-06-16 21:00,ZHHH 162100Z 08002MPS CAVOK 24/22 Q1009 NOSIG
ZHHH,2003-06-16 22:00,ZHHH 162200Z 08003MPS 5000 BR NSC 23/22 Q1010 NOSIG
ZHHH,2003-06-16 23:00,ZHHH 162300Z 09003MPS 4000 BR NSC 24/22 Q1010 NOSIG
ZHHH,2003-06-17 00:00,ZHHH 170000Z 10004MPS 4000 BR NSC 25/22 Q1010 NOSIG
ZHHH,2003-06-17 01:00,ZHHH 170100Z 12004MPS 4000 BR NSC 26/23 Q1010 NOSIG
ZHHH,2003-06-17 02:00,ZHHH 170200Z 13004MPS 4000 HZ NSC 28/22 Q1010 NOSIG
ZHHH,2003-06-17 03:00,ZHHH 170300Z 12002MPS 2800 HZ NSC 29/22 Q1009 NOSIG
ZHHH,2003-06-17 04:00,ZHHH 170400Z 15002MPS 3000 HZ NSC 30/21 Q1009 NOSIG
ZHHH,2003-06-17 05:00,ZHHH 170500Z 16002MPS 4000 HZ NSC 31/21 Q1008 NOSIG
ZHHH,2003-06-17 06:00,ZHHH 170600Z 14001MPS 4000 HZ NSC 32/20 Q1008 NOSIG
ZHHH,2003-06-17 07:00,ZHHH 170700Z 11002MPS 6000 SKC 33/20 Q1007 NOSIG
ZHHH,2003-06-17 08:00,ZHHH 170800Z 22001MPS 6000 SKC 33/20 Q1006 NOSIG
ZHHH,2003-06-17 09:00,ZHHH 170900Z 09002MPS 6000 SKC 32/21 Q1006 NOSIG
ZHHH,2003-06-17 10:00,ZHHH 171000Z 15001MPS 6000 SKC 32/21 Q1006 NOSIG
ZHHH,2003-06-17 11:00,ZHHH 171100Z 12002MPS 2500 HZ NSC 31/23 Q1006 NOSIG
ZHHH,2003-06-17 12:00,ZHHH 171200Z 12001MPS 2100 HZ NSC 30/24 Q1006 NOSIG
ZHHH,2003-06-17 13:00,ZHHH 171300Z 12001MPS 1800 HZ NSC 29/24 Q1006 NOSIG
ZHHH,2003-06-17 14:00,ZHHH 171400Z 15002MPS 2000 HZ NSC 29/23 Q1007 NOSIG
ZHHH,2003-06-17 15:00,ZHHH 171500Z 17002MPS 2000 HZ NSC 28/23 Q1007 NOSIG
ZHHH,2003-06-17 16:00,ZHHH 171600Z 00000MPS 1700 HZ NSC 28/22 Q1006 NOSIG
ZHHH,2003-06-17 17:00,ZHHH 171700Z 00000MPS 2100 HZ NSC 28/22 Q1006 NOSIG
ZHHH,2003-06-17 18:00,ZHHH 171800Z 10001MPS 2400 HZ NSC 28/23 Q1006 NOSIG
ZHHH,2003-06-17 19:00,ZHHH 171900Z 07002MPS 2000 BR NSC 26/23 Q1006 NOSIG
ZHHH,2003-06-17 20:00,ZHHH 172000Z 00000MPS 2000 BR NSC 26/23 Q1006 NOSIG
ZHHH,2003-06-17 21:00,ZHHH 172100Z 00000MPS 2000 BR NSC 26/24 Q1006 NOSIG
ZHHH,2003-06-17 22:00,ZHHH 172200Z 00000MPS 1600 BR NSC 25/23 Q1006 NOSIG
ZHHH,2003-06-17 23:00,ZHHH 172300Z 12002MPS 1300 R04/1300N BR NSC 25/24 Q1006 NOSIG
ZHHH,2003-06-18 00:00,ZHHH 180000Z 11002MPS 1400 R04/1100N BR NSC 26/24 Q1006 NOSIG
ZHHH,2003-06-18 01:00,ZHHH 180100Z 14002MPS 1400 R04/1200N BR NSC 27/24 Q1006 NOSIG
ZHHH,2003-06-18 02:00,ZHHH 180200Z 14002MPS 2000 BR NSC 29/24 Q1005 NOSIG
ZHHH,2003-06-18 03:00,ZHHH 180300Z 14002MPS 2000 HZ NSC 30/23 Q1005 NOSIG
ZHHH,2003-06-18 04:00,ZHHH 180400Z 32001MPS 3000 HZ NSC 32/25 Q1005 NOSIG
ZHHH,2003-06-18 05:00,ZHHH 180500Z 27002MPS 3000 HZ NSC 32/24 Q1004 NOSIG
ZHHH,2003-06-18 06:00,ZHHH 180600Z 26002MPS 2000 HZ NSC 32/25 Q1003 NOSIG
ZHHH,2003-06-18 07:00,ZHHH 180700Z 25002MPS 3000 HZ NSC 33/25 Q1003 NOSIG
ZHHH,2003-06-18 08:00,ZHHH 180800Z 23002MPS 3000 HZ NSC 33/25 Q1002 NOSIG
ZHHH,2003-06-18 09:00,ZHHH 180900Z 25003MPS 6000 SKC 33/23 Q1001 NOSIG
ZHHH,2003-06-18 10:00,ZHHH 181000Z 24003MPS 5000 HZ SKC 32/23 Q1001 NOSIG
ZHHH,2003-06-18 11:00,ZHHH 181100Z 24003MPS 6000 SKC 31/24 Q1001 NOSIG
ZHHH,2003-06-18 12:00,ZHHH 181200Z 22003MPS 3000 HZ SKC 30/25 Q1001 NOSIG
ZHHH,2003-06-18 13:00,ZHHH 181300Z 22004MPS 3000 HZ SKC 29/24 Q1001 NOSIG
ZHHH,2003-06-18 14:00,ZHHH 181400Z 22002MPS 3000 HZ SKC 29/24 Q1002 NOSIG
ZHHH,2003-06-18 15:00,ZHHH 181500Z 00000MPS 2500 HZ SKC 29/24 Q1002 NOSIG
ZHHH,2003-06-18 16:00,ZHHH 181600Z 00000MPS 2000 HZ SKC 28/23 Q1002 NOSIG
ZHHH,2003-06-18 17:00,ZHHH 181700Z 00000MPS 2000 HZ SKC 28/24 Q1002 NOSIG
ZHHH,2003-06-18 18:00,ZHHH 181800Z 00000MPS 2000 BR SKC 27/25 Q1002 NOSIG
ZHHH,2003-06-18 19:00,ZHHH 181900Z 00000MPS 2000 BR SKC 27/24 Q1002 NOSIG
ZHHH,2003-06-18 20:00,ZHHH 182000Z 00000MPS 1600 BR SKC 26/24 Q1001 NOSIG
ZHHH,2003-06-18 21:00,ZHHH 182100Z 00000MPS 1300 R04/1200N BR SKC 26/24 Q1001 NOSIG
ZHHH,2003-06-18 22:00,ZHHH 182200Z 13002MPS 0800 R04/0800N FG SKC 25/25 Q1002 NOSIG
ZHHH,2003-06-18 23:00,ZHHH 182300Z 11002MPS 0500 R04/0600N FG SKC 25/25 Q1002 NOSIG
ZHHH,2003-06-19 00:00,ZHHH 190000Z 14002MPS 0700 R04/0700N FG SKC 27/26 Q1002 NOSIG
ZHHH,2003-06-19 01:00,ZHHH 190100Z 14003MPS 1100 R04/0900U BR SKC 28/25 Q1002 NOSIG
ZHHH,2003-06-19 02:00,ZHHH 190200Z 15003MPS 1600 R04/1200N BR SKC 30/25 Q1002 NOSIG
ZHHH,2003-06-19 03:00,ZHHH 190300Z 14003MPS 2000 HZ NSC 33/23 Q1002 NOSIG
ZHHH,2003-06-19 04:00,ZHHH 190400Z 21004MPS 170V230 3000 HZ NSC 33/24 Q1002 NOSIG
ZHHH,2003-06-19 05:00,ZHHH 190500Z 19004MPS 150V210 4000 HZ SKC 33/23 Q1001 NOSIG
ZHHH,2003-06-19 06:00,ZHHH 190600Z 20004MPS 170V240 6000 SKC 34/23 Q1001 NOSIG
ZHHH,2003-06-19 07:00,ZHHH 190700Z 23004MPS 180V250 CAVOK 36/20 Q1000 NOSIG
ZHHH,2003-06-19 08:00,ZHHH 190800Z 24004MPS CAVOK 35/22 Q1000 NOSIG
ZHHH,2003-06-19 09:00,ZHHH 190900Z 22004MPS CAVOK 34/21 Q0999 NOSIG
ZHHH,2003-06-19 10:00,ZHHH 191000Z 24003MPS CAVOK 34/23 Q0999 NOSIG
ZHHH,2003-06-19 11:00,ZHHH 191100Z 22003MPS 180V250 CAVOK 33/23 Q1000 NOSIG
ZHHH,2003-06-19 12:00,ZHHH 191200Z 12002MPS CAVOK 32/24 Q1000 NOSIG
ZHHH,2003-06-19 13:00,ZHHH 191300Z 13002MPS CAVOK 30/24 Q1001 NOSIG
ZHHH,2003-06-19 14:00,ZHHH 191400Z 14003MPS CAVOK 30/24 Q1001 NOSIG
ZHHH,2003-06-19 15:00,ZHHH 191500Z 17003MPS 130V190 CAVOK 30/23 Q1002 NOSIG
ZHHH,2003-06-19 16:00,ZHHH 191600Z 23003MPS CAVOK 29/25 Q1001 NOSIG
ZHHH,2003-06-19 17:00,ZHHH 191700Z 24002MPS CAVOK 28/24 Q1001 NOSIG
ZHHH,2003-06-19 18:00,ZHHH 191800Z 11002MPS 2900 NSC 28/24 Q1001 NOSIG
ZHHH,2003-06-19 19:00,ZHHH 191900Z 12001MPS 4000 BR NSC 27/25 Q1001 NOSIG
ZHHH,2003-06-19 20:00,ZHHH 192000Z 09002MPS 4000 BR NSC 26/24 Q1001 NOSIG
ZHHH,2003-06-19 21:00,ZHHH 192100Z 13002MPS 3000 BR SKC 27/25 Q1002 NOSIG
ZHHH,2003-06-19 22:00,ZHHH 192200Z 13003MPS 1200 R04/1000N BR NSC 27/25 Q1002 NOSIG
ZHHH,2003-06-19 23:00,ZHHH 192300Z 13004MPS 1200 R04/1000N BR NSC 27/25 Q1003 NOSIG
ZHHH,2003-06-20 00:00,ZHHH 200000Z 12004MPS 1500 R04/1200U BR NSC 27/24 Q1003 NOSIG
ZHHH,2003-06-20 01:00,ZHHH 200100Z 12004MPS 2000 BR NSC 28/24 Q1003 NOSIG
ZHHH,2003-06-20 02:00,ZHHH 200200Z 13004MPS 2000 BR NSC 29/25 Q1003 NOSIG
ZHHH,2003-06-20 03:00,ZHHH 200300Z 12004MPS 1800 BR NSC 30/25 Q1003 NOSIG
ZHHH,2003-06-20 04:00,ZHHH 200400Z 13004MPS 1900 BR NSC 30/25 Q1003 NOSIG
ZHHH,2003-06-20 05:00,ZHHH 200500Z 14003MPS 1800 HZ NSC 31/25 Q1003 NOSIG
ZHHH,2003-06-20 06:00,ZHHH 200600Z 13003MPS 100V170 2100 HZ NSC 31/25 Q1002 NOSIG
ZHHH,2003-06-20 07:00,ZHHH 200700Z 12003MPS 1600 BR SCT014 BKN050 BKN100 30/26 Q1002 NOSIG
ZHHH,2003-06-20 08:00,ZHHH 200800Z 15006MPS 7000 FEW027TCU BKN100 29/23 Q1002 NOSIG
ZHHH,2003-06-20 09:00,ZHHH 200900Z 14005MPS 7000 -RA SCT027TCU BKN090 28/24 Q1001 NOSIG
ZHHH,2003-06-20 10:00,ZHHH 201000Z 18002MPS 2500 BR SCT030TCU BKN100 28/25 Q1001 NOSIG
ZHHH,2003-06-20 11:00,ZHHH 201100Z 11003MPS 3000 BR FEW030TCU OVC100 29/25 Q1001 NOSIG
ZHHH,2003-06-20 12:00,ZHHH 201200Z 13004MPS 2500 BR FEW030TCU OVC060 27/25 Q1002 NOSIG
ZHHH,2003-06-20 13:00,ZHHH 201300Z 14005MPS 3000 BR FEW023 OVC060 26/25 Q1003 NOSIG
ZHHH,2003-06-20 14:00,ZHHH 201400Z 13004MPS 2500 BR FEW023 OVC060 26/25 Q1004 NOSIG
ZHHH,2003-06-20 15:00,ZHHH 201500Z 13004MPS 2500 BR FEW023 OVC060 26/25 Q1003 NOSIG
ZHHH,2003-06-20 16:00,ZHHH 201600Z 11004MPS 3000 BR FEW023 OVC060 25/24 Q1003 NOSIG
ZHHH,2003-06-20 17:00,ZHHH 201700Z 13003MPS 3000 BR FEW023 OVC060 26/24 Q1003 NOSIG
ZHHH,2003-06-20 18:00,ZHHH 201800Z 14004MPS 3000 BR NSC 26/23 Q1003 NOSIG
ZHHH,2003-06-20 19:00,ZHHH 201900Z 11003MPS 4000 BR NSC 26/23 Q1002 NOSIG
ZHHH,2003-06-20 20:00,ZHHH 202000Z 10004MPS 3000 BR NSC 24/23 Q1002 NOSIG
ZHHH,2003-06-20 21:00,ZHHH 202100Z 11004MPS 2500 BR NSC 25/23 Q1003 NOSIG
ZHHH,2003-06-20 22:00,ZHHH 202200Z 12004MPS 1800 BR -RA SCT015 OVC090 25/23 Q1003 NOSIG
ZHHH,2003-06-20 23:00,ZHHH 202300Z 11005MPS 1600 BR -RA SCT015 BKN033 OVC050 23/23 Q1003 NOSIG
ZHHH,2003-06-21 00:00,ZHHH 210000Z 11005MPS 1600 BR -RA SCT009 BKN030 OVC050 23/23 Q1004 NOSIG
ZHHH,2003-06-21 01:00,ZHHH 210100Z 12004MPS 1800 BR BKN030 OVC050 24/23 Q1004 NOSIG
ZHHH,2003-06-21 02:00,ZHHH 210200Z 10005MPS 1600 BR -RA SCT015 BKN030 OVC050 24/23 Q1004 NOSIG
ZHHH,2003-06-21 03:00,ZHHH 210300Z 10004MPS 2500 BR SCT040 OVC070 25/24 Q1004 NOSIG
ZHHH,2003-06-21 04:00,ZHHH 210400Z 12006MPS 3000 BR NSC 27/24 Q1004 NOSIG
ZHHH,2003-06-21 05:00,ZHHH 210500Z 12006MPS 3000 BR NSC 28/25 Q1003 NOSIG
ZHHH,2003-06-21 06:00,ZHHH 210600Z 12006MPS 4000 BR NSC 29/25 Q1003 NOSIG
ZHHH,2003-06-21 07:00,ZHHH 210700Z 11005MPS 4000 BR NSC 29/26 Q1002 NOSIG
ZHHH,2003-06-21 08:00,ZHHH 210800Z 11005MPS 4000 BR NSC 30/25 Q1002 NOSIG
ZHHH,2003-06-21 09:00,ZHHH 210900Z 12005MPS 5000 BR NSC 30/26 Q1002 NOSIG
ZHHH,2003-06-21 10:00,ZHHH 211000Z 11005MPS 5000 BR NSC 30/26 Q1002 NOSIG
ZHHH,2003-06-21 11:00,ZHHH 211100Z 10003MPS 2500 BR NSC 29/26 Q1002 NOSIG
ZHHH,2003-06-21 12:00,ZHHH 211200Z 11003MPS 2500 BR SKC 29/26 Q1003 NOSIG
ZHHH,2003-06-21 13:00,ZHHH 211300Z 13004MPS 2500 BR -RA SCT030TCU OVC060 28/26 Q1003 NOSIG
ZHHH,2003-06-21 14:00,ZHHH 211400Z 11003MPS 2000 BR -RA BKN030 OVC050 27/26 Q1004 NOSIG
ZHHH,2003-06-21 15:00,ZHHH 211500Z 13005MPS 1600 -TSRA BR BKN025CB OVC040 27/26 Q1004 NOSIG
ZHHH,2003-06-21 16:00,ZHHH 211600Z 14005MPS 110V170 1600 -TSRA BR BKN025CB OVC040 26/25 Q1003 NOSIG
ZHHH,2003-06-21 17:00,ZHHH 211700Z 12004MPS 1600 BR OVC040 26/25 Q1003 RETS NOSIG
ZHHH,2003-06-21 18:00,ZHHH 211800Z 12005MPS 1200 R04/1200N BR NSC 26/26 Q1003 NOSIG
ZHHH,2003-06-21 19:00,ZHHH 211900Z 13004MPS 1200 R04/1200N BR NSC 26/26 Q1002 NOSIG
ZHHH,2003-06-21 20:00,ZHHH 212000Z 13005MPS 1200 R04/1400N BR -RA NSC 26/26 Q1002 NOSIG
ZHHH,2003-06-21 21:00,ZHHH 212100Z 13005MPS 1200 BR -RA NSC 26/25 Q1002 NOSIG
ZHHH,2003-06-21 22:00,ZHHH 212200Z 13005MPS 1200 R04/1400N BR -RA NSC 25/25 Q1002 NOSIG
ZHHH,2003-06-21 23:00,ZHHH 212300Z 12006MPS 1200 R04/1400N BR NSC 25/25 Q1002 NOSIG
ZHHH,2003-06-22 00:00,ZHHH 220000Z 13005MPS 1400 R04/1400N BR NSC 25/25 Q1003 NOSIG
ZHHH,2003-06-22 01:00,ZHHH 220100Z 15006MPS 4000 BR NSC 26/25 Q1003 NOSIG
ZHHH,2003-06-22 02:00,ZHHH 220200Z 15006MPS 4000 BR NSC 28/26 Q1002 NOSIG
ZHHH,2003-06-22 03:00,ZHHH 220300Z 15005MPS 9999 FEW020 31/27 Q1002 NOSIG
ZHHH,2003-06-22 04:00,ZHHH 220400Z 21008MPS 9999 FEW023 SCT230 32/26 Q1002 NOSIG
ZHHH,2003-06-22 05:00,ZHHH 220500Z 21010MPS 9999 FEW023 34/26 Q1001 NOSIG
ZHHH,2003-06-22 06:00,ZHHH 220600Z 22009MPS 9999 SCT030 33/26 Q1001 NOSIG
ZHHH,2003-06-22 07:00,ZHHH 220700Z 22010MPS 9999 SCT030 BKN250 33/25 Q1000 NOSIG
ZHHH,2003-06-22 08:00,ZHHH 220800Z 23008MPS 9999 FEW030 BKN230 33/26 Q1000 NOSIG
ZHHH,2003-06-22 09:00,ZHHH 220900Z 24005MPS CAVOK 32/26 Q1000 NOSIG
ZHHH,2003-06-22 10:00,ZHHH 221000Z 23005MPS 9999 SCT033 OVC100 32/26 Q0999 NOSIG
ZHHH,2003-06-22 11:00,ZHHH 221100Z 22005MPS 9999 SCT030 OVC100 32/26 Q0999 NOSIG
ZHHH,2003-06-22 12:00,ZHHH 221200Z 22005MPS 9999 SCT030 OVC100 31/26 Q1000 NOSIG
ZHHH,2003-06-22 13:00,ZHHH 221300Z 22008MPS 9999 SCT033 OVC100 31/26 Q1000 NOSIG
ZHHH,2003-06-22 14:00,ZHHH 221400Z 22007MPS 9999 SCT033 OVC100 31/26 Q1001 NOSIG
ZHHH,2003-06-22 15:00,ZHHH 221500Z 22008MPS 9999 SCT020 OVC100 31/25 Q1000 NOSIG
ZHHH,2003-06-22 16:00,ZHHH 221600Z 23008MPS 9999 -RA SCT020 FEW030TCU OVC070 30/25 Q1000 NOSIG
ZHHH,2003-06-22 17:00,ZHHH 221700Z 24006MPS 3000 -RA SCT010 FEW030CB BKN060 28/26 Q1000 RERA NOSIG
ZHHH,2003-06-22 18:00,ZHHH 221800Z 02004MPS 350V060 2000 TSRA SCT010 SCT030CB BKN060 25/25 Q1001 NOSIG
ZHHH,2003-06-22 19:00,ZHHH 221900Z 02001MPS 1500 TSRA SCT010 OVC050CB 25/25 Q1001 NOSIG
ZHHH,2003-06-22 20:00,ZHHH 222000Z 04003MPS 2000 TSRA FEW010 OVC050CB 24/24 Q1001 RETSRA NOSIG
ZHHH,2003-06-22 21:00,ZHHH 222100Z 06002MPS 2000 -TSRA FEW011 SCT060CB BKN060 24/24 Q1001 RERA NOSIG
ZHHH,2003-06-22 22:00,ZHHH 222200Z 03002MPS 3000 -RA SCT006 OVC050 24/24 Q1002 RETS NOSIG
ZHHH,2003-06-22 23:00,ZHHH 222300Z 00000MPS 3000 -RA SCT006 OVC050 24/24 Q1003 NOSIG
ZHHH,2003-06-23 00:00,ZHHH 230000Z 07002MPS 3000 -RA FEW007 OVC060 24/24 Q1003 NOSIG
ZHHH,2003-06-23 01:00,ZHHH 230100Z 00000MPS 3000 -RA SCT007 OVC060 24/24 Q1004 NOSIG
ZHHH,2003-06-23 02:00,ZHHH 230200Z 00000MPS 3000 RA SCT007 SCT009 OVC050 24/24 Q1004 NOSIG
ZHHH,2003-06-23 03:00,ZHHH 230300Z 00000MPS 3000 RA NSC 25/25 Q1004 NOSIG
ZHHH,2003-06-23 04:00,ZHHH 230400Z 26004MPS 5000 RA SCT004 SCT008 OVC050 25/25 Q1004 NOSIG
ZHHH,2003-06-23 05:00,ZHHH 230500Z 26004MPS 7000 SCT004 SCT006 OVC050 25/25 Q1004 RERA NOSIG
ZHHH,2003-06-23 06:00,ZHHH 230600Z 26004MPS 5000 -RA BR SCT004 SCT010 OVC050 25/25 Q1004 NOSIG
ZHHH,2003-06-23 07:00,ZHHH 230700Z 25004MPS 9999 SCT005 SCT010 BKN060 26/25 Q1003 NOSIG
ZHHH,2003-06-23 08:00,ZHHH 230800Z 23005MPS 9999 SCT005 SCT009 OVC060 26/24 Q1003 NOSIG
ZHHH,2003-06-23 09:00,ZHHH 230900Z 24004MPS 9999 SCT011 SCT150 27/25 Q1003 NOSIG
ZHHH,2003-06-23 10:00,ZHHH 231000Z 24004MPS 9999 SCT020 SCT160 26/25 Q1003 NOSIG
ZHHH,2003-06-23 11:00,ZHHH 231100Z 24004MPS 9999 SCT025 SCT170 26/24 Q1003 NOSIG
ZHHH,2003-06-23 12:00,ZHHH 231200Z 24002MPS 9999 SCT025 SCT170 26/24 Q1003 NOSIG
ZHHH,2003-06-23 13:00,ZHHH 231300Z 21003MPS 9999 FEW022 SCT170 25/24 Q1004 NOSIG
ZHHH,2003-06-23 14:00,ZHHH 231400Z 21003MPS 9999 FEW022 SCT170 25/24 Q1004 NOSIG
ZHHH,2003-06-23 15:00,ZHHH 231500Z 25002MPS CAVOK 24/24 Q1004 NOSIG
ZHHH,2003-06-23 16:00,ZHHH 231600Z 00000MPS CAVOK 24/24 Q1004 NOSIG
ZHHH,2003-06-23 17:00,ZHHH 231700Z 00000MPS CAVOK 24/24 Q1003 NOSIG
ZHHH,2003-06-23 18:00,ZHHH 231800Z 00000MPS CAVOK 24/24 Q1003 NOSIG
ZHHH,2003-06-23 19:00,ZHHH 231900Z 00000MPS 2500 BR NSC 24/24 Q1002 NOSIG
ZHHH,2003-06-23 20:00,ZHHH 232000Z 13002MPS 1800 BR NSC 24/24 Q1002 NOSIG
ZHHH,2003-06-23 21:00,ZHHH 232100Z 08002MPS 1300 R04/1200N BR NSC 24/24 Q1002 NOSIG
ZHHH,2003-06-23 22:00,ZHHH 232200Z 12002MPS 1400 R04/1300N BR NSC 24/24 Q1002 NOSIG
ZHHH,2003-06-23 23:00,ZHHH 232300Z 08002MPS 1400 R04/1400N BR NSC 24/24 Q1002 NOSIG
ZHHH,2003-06-24 00:00,ZHHH 240000Z 13003MPS 110V170 1800 BR SCT020 BKN030 26/26 Q1002 NOSIG
ZHHH,2003-06-24 01:00,ZHHH 240100Z 13003MPS 100V160 3000 BR NSC 27/25 Q1003 NOSIG
ZHHH,2003-06-24 02:00,ZHHH 240200Z 16003MPS 110V200 6000 NSC 28/25 Q1003 NOSIG
ZHHH,2003-06-24 03:00,ZHHH 240300Z 12003MPS 100V160 6000 NSC 28/25 Q1003 NOSIG
ZHHH,2003-06-24 04:00,ZHHH 240400Z 13003MPS 6000 SCT025 BKN140 29/25 Q1003 NOSIG
ZHHH,2003-06-24 05:00,ZHHH 240500Z 15004MPS 5000 BR SCT025 BKN140 29/26 Q1002 NOSIG
ZHHH,2003-06-24 06:00,ZHHH 240600Z 18004MPS 7000 SCT025 BKN140 29/26 Q1001 NOSIG
ZHHH,2003-06-24 07:00,ZHHH 240700Z 22006MPS 7000 SCT020TCU OVC120 27/25 Q1002 NOSIG
ZHHH,2003-06-24 08:00,ZHHH 240800Z 23005MPS 9999 FEW020TCU OVC100 26/24 Q1002 NOSIG
ZHHH,2003-06-24 09:00,ZHHH 240900Z 22004MPS CAVOK 26/23 Q1002 NOSIG
ZHHH,2003-06-24 10:00,ZHHH 241000Z 22006MPS 9999 FEW030TCU OVC100 25/22 Q1002 NOSIG
ZHHH,2003-06-24 11:00,ZHHH 241100Z 22003MPS 190V250 CAVOK 24/22 Q1001 NOSIG
ZHHH,2003-06-24 12:00,ZHHH 241200Z 29001MPS CAVOK 24/22 Q1002 NOSIG
ZHHH,2003-06-24 13:00,ZHHH 241300Z 04001MPS CAVOK 24/22 Q1002 NOSIG
ZHHH,2003-06-24 14:00,ZHHH 241400Z 00000MPS CAVOK 24/22 Q1003 NOSIG
ZHHH,2003-06-24 15:00,ZHHH 241500Z 00000MPS CAVOK 24/22 Q1002 NOSIG
ZHHH,2003-06-24 16:00,ZHHH 241600Z 04002MPS CAVOK 24/23 Q1002 NOSIG
ZHHH,2003-06-24 17:00,ZHHH 241700Z 09002MPS CAVOK 23/23 Q1001 NOSIG
ZHHH,2003-06-24 18:00,ZHHH 241800Z 11003MPS CAVOK 23/22 Q1000 NOSIG
ZHHH,2003-06-24 19:00,ZHHH 241900Z 13003MPS CAVOK 22/20 Q1000 NOSIG
ZHHH,2003-06-24 20:00,ZHHH 242000Z 10002MPS CAVOK 22/20 Q1000 NOSIG
ZHHH,2003-06-24 21:00,ZHHH 242100Z 09004MPS CAVOK 22/21 Q1000 NOSIG
ZHHH,2003-06-24 22:00,ZHHH 242200Z 10002MPS 4000 BR NSC 22/21 Q1000 NOSIG
ZHHH,2003-06-24 23:00,ZHHH 242300Z 11005MPS 5000 BR NSC 23/22 Q1000 NOSIG
ZHHH,2003-06-25 00:00,ZHHH 250000Z 11006MPS CAVOK 24/21 Q1000 NOSIG
ZHHH,2003-06-25 01:00,ZHHH 250100Z 11007MPS CAVOK 26/22 Q1000 NOSIG
ZHHH,2003-06-25 02:00,ZHHH 250200Z 13007MPS 9999 FEW020 SCT050 27/23 Q1000 NOSIG
ZHHH,2003-06-25 03:00,ZHHH 250300Z AUTO 14004KT 6SM 25/23 A2952 RMK SLP997 T02470228 57002 IEM_DS3505
ZHHH,2003-06-25 05:00,ZHHH 250500Z 13006MPS 4000 -RA FEW010 FEW030TCU BKN050 25/23 Q0999 NOSIG
ZHHH,2003-06-25 06:00,ZHHH 250600Z 15005MPS 1800 RA SCT006 FEW030TCU BKN050 24/23 Q0998 NOSIG
ZHHH,2003-06-25 07:00,ZHHH 250700Z 13005MPS 1800 RA SCT006 FEW030TCU BKN050 24/23 Q0998 NO
ZHHH,2003-06-25 09:00,ZHHH 250900Z 14004MPS 1500 RA SCT005 SCT007 FEW030TCU BKN050 23/23 Q0998 NOSIG
ZHHH,2003-06-25 10:00,ZHHH 251000Z 13004MPS 1100 R04/1100D RA SCT005 OVC050 23/23 Q0998 NOSIG
ZHHH,2003-06-25 11:00,ZHHH 251100Z 10003MPS 2000 RA SCT021 OVC050 23/23 Q0999 NOSIG
ZHHH,2003-06-25 12:00,ZHHH 251200Z 13004MPS 4000 -RA BR SCT006 OVC050 24/24 Q0998 NOSIG
ZHHH,2003-06-25 13:00,ZHHH 251300Z 11003MPS 2200 -RA BR SCT006 OVC050 24/24 Q0999 NOSIG
ZHHH,2003-06-25 14:00,ZHHH 251400Z 11003MPS 3000 -RA BR FEW006 OVC050 24/24 Q1000 NOSIG
ZHHH,2003-06-25 15:00,ZHHH 251500Z 11003MPS 3000 BR FEW006 OVC060 24/24 Q0999 NOSIG
ZHHH,2003-06-25 16:00,ZHHH 251600Z 12004MPS 3000 BR SCT006 OVC060 24/24 Q0999 NOSIG
ZHHH,2003-06-25 17:00,ZHHH 251700Z 12004MPS 4000 BR SCT020 OVC070 24/24 Q0999 NOSIG
ZHHH,2003-06-25 18:00,ZHHH 251800Z 12005MPS 4000 BR SCT020 OVC070 24/24 Q0998 NOSIG
ZHHH,2003-06-25 19:00,ZHHH 251900Z 11005MPS 4000 BR -RA BKN020 OVC070 24/24 Q0997 NOSIG
ZHHH,2003-06-25 20:00,ZHHH 252000Z 11005MPS 4000 BR SCT020 OVC130 24/24 Q0997 NOSIG
ZHHH,2003-06-25 21:00,ZHHH 252100Z 12004MPS 4000 BR -RA SCT020 OVC070 24/24 Q0997 NOSIG
ZHHH,2003-06-25 22:00,ZHHH 252200Z 12005MPS 4000 BR BKN020 OVC070 24/24 Q0997 NOSIG
ZHHH,2003-06-25 23:00,ZHHH 252300Z 12004MPS 1800 BR -RA BKN020 OVC070 24/24 Q0998 NOSIG
ZHHH,2003-06-26 00:00,ZHHH 260000Z 12004MPS 3000 BR SCT020 OVC070 25/25 Q0998 NOSIG
ZHHH,2003-06-26 01:00,ZHHH 260100Z 11003MPS 4000 BR -RA SCT020 BKN033 OVC100 25/25 Q0998 NOSIG
ZHHH,2003-06-26 02:00,ZHHH 260200Z 13003MPS 3000 BR SCT020 BKN033 OVC100 25/25 Q0998 NOSIG
ZHHH,2003-06-26 03:00,ZHHH 260300Z AUTO 11002KT 6SM 26/25 A2948 RMK SLP984 T02550246 52003 IEM_DS3505
ZHHH,2003-06-26 04:00,ZHHH 260400Z 15002MPS 1200 R04/1200U -RA BR SCT007 FEW030TCU BRN030 25/25 Q0998 RERA NOSIG
ZHHH,2003-06-26 05:00,ZHHH 260500Z 15002MPS 0900 R04/0900N -RA SCT006 FEW030TCU BKN030 25/25 Q0998
ZHHH,2003-06-26 06:00,ZHHH 260600Z 21003MPS 170V340 0900 R04/0900N -RA SCT004 SCT009 OVC030 25/25 Q0998 NOSIG
ZHHH,2003-06-26 07:00,ZHHH 260700Z 34004MPS 300V000 9999 -RA SCT007 OVC040 22/22 Q0998 NOSIG
ZHHH,2003-06-26 08:00,ZHHH 260800Z 33004MPS 290V360 6000 -RA SCT005 SCT008 OVC050 22/22 Q0998
ZHHH,2003-06-26 09:00,ZHHH 260900Z 33005MPS 9999 -RA SCT007 OVC040 22/22 Q0998 NOSIG
ZHHH,2003-06-26 10:00,ZHHH 261000Z 34004MPS 310V010 6000 -RA SCT005 SCT014 OVC040 22/22 Q0998
ZHHH,2003-06-26 11:00,ZHHH 261100Z 01004MPS 340V040 2700 SKC 21/21 Q0999 NOSIG
ZHHH,2003-06-26 12:00,ZHHH 261200Z 02004MPS 350V060 //// 21/21 Q0999
ZHHH,2003-06-26 13:00,ZHHH 261300Z 35002MPS 6000 -RA SCT004 SCT010 OVC030 21/21 Q1000 NOSIG
ZHHH,2003-06-26 14:00,ZHHH 261400Z VRB01MPS 7000 -RA SCT004 SCT010 OVC033 21/21 Q1001
ZHHH,2003-06-26 15:00,ZHHH 261500Z 33003MPS 2700 -RA SCT004 SCT010 OVC030 21/21 Q1001 NOSIG
ZHHH,2003-06-26 16:00,ZHHH 261600Z 33003MPS 2500 -RA SCT004 SCT010 OVC033 21/21 Q1001 NOSIG
ZHHH,2003-06-26 17:00,ZHHH 261700Z 35003MPS 320V020 2000 -RA SCT005 SCT010 OVC033 21/21 Q1001 NOSIG
ZHHH,2003-06-26 18:00,ZHHH 261800Z 34003MPS 310V010 2000 -RA SCT004 SCT010 OVC033 21/21 Q1001 NOSIG
ZHHH,2003-06-26 19:00,ZHHH 261900Z AUTO 34003MPS 1300 // ////// 20/20 Q1002 NOSIG
ZHHH,2003-06-26 20:00,ZHHH 262000Z AUTO 34002MPS 1000 // ////// 20/20 Q1002 NOSIG
ZHHH,2003-06-26 21:00,ZHHH 262100Z AUTO 34002MPS 1200 // ////// 20/20 Q1002 NOSIG
ZHHH,2003-06-26 22:00,ZHHH 262200Z 34003MPS 310V010 1600 R04/1200N BR SCT010 OVC033 21/21 Q1003 NOSIG
ZHHH,2003-06-26 23:00,ZHHH 262300Z 34003MPS 310V020 1200 R22/1200N BR SCT010 OVC040 21/21 Q1003 NOSIG
ZHHH,2003-06-27 00:00,ZHHH 270000Z 36002MPS 8000 BR SCT011 OVC050 21/21 Q1003 NOSIGV
ZHHH,2003-06-27 01:00,ZHHH 270100Z 33003MPS 290V010 1600 BR BKN030 OVC060 22/22 Q1004 NOSIG
ZHHH,2003-06-27 02:00,ZHHH 270200Z 33003MPS 290V010 1500 R22/1800N R04/1400N BR SCT010 OVC033 24/22 Q1004 NOSIG
ZHHH,2003-06-27 03:00,ZHHH 270300Z 36003MPS 320V060 1800 BR SCT010 OVC033 25/22 Q1004 NOSIG
ZHHH,2003-06-27 04:00,ZHHH 270400Z 01003MPS 310V080 2600 BR SCT010 OVC033 27/22 Q1003 NOSIG
ZHHH,2003-06-27 05:00,ZHHH 270500Z VRB02MPS 2100 BR SCT010 OVC033 28/21 Q1003 NOSIG
ZHHH,2003-06-27 06:00,ZHHH 270600Z AUTO 07002KT 9SM 28/20 A2961 RMK SLP030 T02770202 57008 IEM_DS3505
ZHHH,2003-06-27 07:00,ZHHH 270700Z 03002MPS 6000 FEW030 29/22 Q1002 NOSIG
ZHHH,2003-06-27 08:00,ZHHH 270800Z 10002MPS 6000 SKC 28/21 Q1002 NOSIG
ZHHH,2003-06-27 09:00,ZHHH 270900Z 16002MPS 8000 SKC 28/21 Q1002 NOSIG
ZHHH,2003-06-27 10:00,ZHHH 271000Z 18002MPS CAVOK 28/22 Q1002 NOSIG
ZHHH,2003-06-27 11:00,ZHHH 271100Z 20002MPS CAVOK 27/22 Q1003 NOSIG
ZHHH,2003-06-27 12:00,ZHHH 271200Z 17002MPS CAVOK 26/23 Q1003 NOSIG
ZHHH,2003-06-27 13:00,ZHHH 271300Z 19003MPS 5000 BR NSC 25/23 Q1003 NOSIG
ZHHH,2003-06-27 14:00,ZHHH 271400Z 18002MPS 2500 BR NSC 25/23 Q1004 NOSIG
ZHHH,2003-06-27 15:00,ZHHH 271500Z 18002MPS 1800 BR SKC 24/23 Q1004 NOSIG
ZHHH,2003-06-27 16:00,ZHHH 271600Z 20002MPS 1800 BR SKC 24/23 Q1004 NOSIG
ZHHH,2003-06-27 17:00,ZHHH 271700Z 17002MPS 1600 BR SKC 23/22 Q1004 NOSIG
ZHHH,2003-06-27 18:00,ZHHH 271800Z 18001MPS 1600 BR SKC 23/23 Q1004 NOSIG
ZHHH,2003-06-27 19:00,ZHHH 271900Z 00000MPS 1600 BR SKC 23/22 Q1004 NOSIG
ZHHH,2003-06-27 20:00,ZHHH 272000Z 00000MPS 1800 BR SKC 23/22 Q1004 NOSIG
ZHHH,2003-06-27 21:00,ZHHH 272100Z 00000MPS 1200 R04/1200N BR SKC 23/22 Q1004 NOSIG
ZHHH,2003-06-27 22:00,ZHHH 272200Z 10002MPS 0600 R04/0400D FG SKC 23/22 Q1004 NOSIG
ZHHH,2003-06-27 23:00,ZHHH 272300Z 13003MPS 0300 R04/0300N FG SKC 23/23 Q1004 NOSIG
ZHHH,2003-06-28 00:00,ZHHH 280000Z 13003MPS 0700 R04/0700N FG SCT003 23/23 Q1005 NOSIG
ZHHH,2003-06-28 01:00,ZHHH 280100Z 15002MPS 0900 R04/0900U FG FEW003 24/23 Q1005 NOSIG
ZHHH,2003-06-28 02:00,ZHHH 280200Z 14002MPS 1500 R04/1400U BR SCT010 OVC100 26/23 Q1005 NOSIG
ZHHH,2003-06-28 03:00,ZHHH 280300Z 13003MPS 080V160 1800 BR SCT010 BKN100 27/23 Q1005 NOSIG
ZHHH,2003-06-28 04:00,ZHHH 280400Z 14003MPS 110V170 2300 BR SCT023 BKN110 28/24 Q1005 NOSIG
ZHHH,2003-06-28 05:00,ZHHH 280500Z 12003MPS 080V150 2900 HZ SCT023 BKN110 28/23 Q1004 NOSIG
ZHHH,2003-06-28 06:00,ZHHH 280600Z 15003MPS 3000 HZ SCT023 BKN110 29/23 Q1004 NOSIG
ZHHH,2003-06-28 07:00,ZHHH 280700Z 15002MPS 3000 HZ FEW025 BKN110 29/23 Q1003 NOSIG
ZHHH,2003-06-28 08:00,ZHHH 280800Z 15002MPS 4000 HZ SCT026 OVC110 29/23 Q1003 NOSIG
ZHHH,2003-06-28 09:00,ZHHH 280900Z 20004MPS 9999 BKN033 OVC110 29/24 Q1003 NOSIG
ZHHH,2003-06-28 10:00,ZHHH 281000Z 17003MPS CAVOK 28/24 Q1002 NOSIG
ZHHH,2003-06-28 11:00,ZHHH 281100Z 17003MPS 150V210 9999 FEW033 OVC100 28/25 Q1003 NOSIG
ZHHH,2003-06-28 12:00,ZHHH 281200Z 16003MPS 9999 FEW033 OVC100 27/25 Q1003 NOSIG
ZHHH,2003-06-28 13:00,ZHHH 281300Z 17002MPS CAVOK 27/25 Q1004 NOSIG
ZHHH,2003-06-28 14:00,ZHHH 281400Z 13002MPS CAVOK 27/25 Q1004 NOSIG
ZHHH,2003-06-28 15:00,ZHHH 281500Z 11002MPS CAVOK 26/25 Q1004 NOSIG
ZHHH,2003-06-28 16:00,ZHHH 281600Z 10002MPS CAVOK 26/25 Q1003 NOSIG
ZHHH,2003-06-28 17:00,ZHHH 281700Z 16004MPS 9999 SCT020 OVC100 26/25 Q1003 NOSIG
ZHHH,2003-06-28 18:00,ZHHH 281800Z 17004MPS 9999 SCT020 OVC070 25/25 Q1003 NOSIG
ZHHH,2003-06-28 19:00,ZHHH 281900Z 16003MPS CAVOK 25/25 Q1003 NOSIG
ZHHH,2003-06-28 20:00,ZHHH 282000Z 15003MPS CAVOK 25/25 Q1003 NOSIG
ZHHH,2003-06-28 21:00,ZHHH 282100Z 15004MPS CAVOK 25/25 Q1003 NOSIG
ZHHH,2003-06-28 22:00,ZHHH 282200Z 14004MPS 6000 NSC 25/25 Q1003 NOSIG
ZHHH,2003-06-28 23:00,ZHHH 282300Z 15004MPS 2500 BR NSC 25/25 Q1003 NOSIG
ZHHH,2003-06-29 00:00,ZHHH 290000Z 13003MPS 2500 BR BKN036 OVC080 26/25 Q1004 NOSIG
ZHHH,2003-06-29 01:00,ZHHH 290100Z 15004MPS 2100 BR FEW020 SCT033 OVC060 26/25 Q1004 NOSIG
ZHHH,2003-06-29 02:00,ZHHH 290200Z 16004MPS 8000 SCT040 BKN100 28/26 Q1003 NOSIG
ZHHH,2003-06-29 03:00,ZHHH 290300Z 15005MPS 9999 SCT040 BKN110 28/26 Q1004 NOSIG
ZHHH,2003-06-29 04:00,ZHHH 290400Z 15003MPS 9999 SCT010 SCT016 BKN033 30/26 Q1003 NOSIG
ZHHH,2003-06-29 05:00,ZHHH 290500Z 22006MPS 180V240 9999 FEW010 SCT017 OVC033 31/26 Q1003 NOSIG
ZHHH,2003-06-29 06:00,ZHHH 290600Z 20004MPS 9999 SCT010 OVC040 30/26 Q1003 NOSIG
ZHHH,2003-06-29 07:00,ZHHH 290700Z 23004MPS 9999 SCT020 BKN033 31/26 Q1002 NOSIG
ZHHH,2003-06-29 08:00,ZHHH 290800Z 22004MPS 9999 SCT020 SCT033 OVC060 31/26 Q1002 NOSIG
ZHHH,2003-06-29 09:00,ZHHH 290900Z 25003MPS 210V300 9999 FEW020 FEW030TCU SCT030 BKN060 31/27 Q1001 NOSIG
ZHHH,2003-06-29 10:00,ZHHH 291000Z 22002MPS 9999 FEW020 FEW030TCU BKN060 31/26 Q1001 NOSIG
ZHHH,2003-06-29 11:00,ZHHH 291100Z 14003MPS 110V170 9999 FEW023 BKN060 29/26 Q1001 NOSIG
ZHHH,2003-06-29 12:00,ZHHH 291200Z 12002MPS 9999 FEW040CB SCT040 BKN060 28/26 Q1002 NOSIG
ZHHH,2003-06-29 13:00,ZHHH 291300Z 14003MPS 9999 SCT040 BKN060 28/26 Q1002 NOSIG
ZHHH,2003-06-29 14:00,ZHHH 291400Z 12003MPS 9999 SCT040 BKN060 28/26 Q1002 NOSIG
ZHHH,2003-06-29 15:00,ZHHH 291500Z 22005MPS 9999 -RA SCT033 BKN060 28/26 Q1003 NOSIG
ZHHH,2003-06-29 16:00,ZHHH 291600Z 17003MPS 9999 SCT033 BKN060 28/26 Q1003 NOSIG
ZHHH,2003-06-29 17:00,ZHHH 291700Z 13001MPS 9999 SCT012 SCT030 OVC050 28/26 Q1002 NOSIG
ZHHH,2003-06-29 18:00,ZHHH 291800Z 22005MPS 9999 SCT024 OVC050 28/26 Q1002 NOSIG
ZHHH,2003-06-29 19:00,ZHHH 291900Z 21004MPS CAVOK 28/25 Q1002 NOSIG
ZHHH,2003-06-29 20:00,ZHHH 292000Z 22003MPS CAVOK 27/25 Q1002 NOSIG
ZHHH,2003-06-29 21:00,ZHHH 292100Z 18003MPS CAVOK 27/25 Q1001 NOSIG
ZHHH,2003-06-29 22:00,ZHHH 292200Z 21004MPS CAVOK 27/25 Q1002 NOSIG
ZHHH,2003-06-29 23:00,ZHHH 292300Z 21003MPS CAVOK 27/25 Q1002 NOSIG
ZHHH,2003-06-30 00:00,ZHHH 300000Z 21005MPS 9999 BKN040 OVC100 28/25 Q1003 NOSIG
ZHHH,2003-06-30 01:00,ZHHH 300100Z 22007MPS CAVOK 29/25 Q1003 NOSIG
ZHHH,2003-06-30 02:00,ZHHH 300200Z 23008MPS CAVOK 30/24 Q1003 NOSIG
ZHHH,2003-06-30 03:00,ZHHH 300300Z 23010MPS CAVOK 31/25 Q1003 NOSIG
ZHHH,2003-06-30 04:00,ZHHH 300400Z 23010MPS CAVOK 31/24 Q1002 NOSIG
ZHHH,2003-06-30 05:00,ZHHH 300500Z 22010MPS 9999 SCT025 BKN150 32/24 Q1002 NOSIG
ZHHH,2003-06-30 06:00,ZHHH 300600Z 23008MPS CAVOK 32/25 Q1002 NOSIG
ZHHH,2003-06-30 07:00,ZHHH 300700Z 23005MPS 9999 BKN040 OVC100 31/26 Q1002 NOSIG
ZHHH,2003-06-30 08:00,ZHHH 300800Z 24006MPS 9999 BKN020 OVC070 31/25 Q1002 NOSIG
ZHHH,2003-06-30 09:00,ZHHH 300900Z 24004MPS 9999 BKN020 OVC080 30/26 Q1002 NOSIG
ZHHH,2003-06-30 10:00,ZHHH 301000Z 22004MPS 9999 SCT020 OVC066 30/26 Q1002 NOSIG
ZHHH,2003-06-30 11:00,ZHHH 301100Z 33003MPS CAVOK 30/27 Q1003 NOSIG
ZHHH,2003-06-30 12:00,ZHHH 301200Z 35002MPS 9999 BKN030 OVC050 28/26 Q1003 NOSIG
ZHHH,2003-06-30 13:00,ZHHH 301300Z 34003MPS 310V010 9999 FEW030 OVC050 26/25 Q1004 NOSIG
ZHHH,2003-06-30 14:00,ZHHH 301400Z 34003MPS 9999 FEW030 OVC050 26/24 Q1004 NOSIG
ZHHH,2003-06-30 15:00,ZHHH 301500Z 33002MPS CAVOK 25/24 Q1005 NOSIG
ZHHH,2003-06-30 16:00,ZHHH 301600Z 05003MPS CAVOK 25/24 Q1005 NOSIG
ZHHH,2003-06-30 17:00,ZHHH 301700Z 04002MPS CAVOK 24/23 Q1005 NOSIG
ZHHH,2003-06-30 18:00,ZHHH 301800Z 04003MPS 010V070 CAVOK 24/23 Q1005 NOSIG
ZHHH,2003-06-30 19:00,ZHHH 301900Z 05004MPS CAVOK 23/23 Q1005 NOSIG
ZHHH,2003-06-30 20:00,ZHHH 302000Z 06002MPS CAVOK 23/23 Q1005 NOSIG
ZHHH,2003-06-30 21:00,ZHHH 302100Z 05003MPS CAVOK 23/22 Q1005 NOSIG
ZHHH,2003-06-30 22:00,ZHHH 302200Z 06003MPS CAVOK 23/22 Q1006 NOSIG
ZHHH,2003-06-30 23:00,ZHHH 302300Z 05002MPS CAVOK 23/23 Q1006 NOSIG
ZHHH,2003-07-01 00:00,ZHHH 010000Z 08003MPS 050V110 9999 BKN040 OVC100 24/23 Q1006 NOSIG
ZHHH,2003-07-01 01:00,ZHHH 010100Z 06003MPS CAVOK 24/23 Q1007 NOSIG
ZHHH,2003-07-01 02:00,ZHHH 010200Z 08003MPS 040V120 CAVOK 25/23 Q1007 NOSIG
ZHHH,2003-07-01 03:00,ZHHH 010300Z 08003MPS 020V120 CAVOK 26/24 Q1007 NOSIG
ZHHH,2003-07-01 04:00,ZHHH 010400Z 08002MPS CAVOK 27/25 Q1006 NOSIG
ZHHH,2003-07-01 05:00,ZHHH 010500Z 11002MPS 9999 FEW020 BKN130 29/25 Q1006 NOSIG
ZHHH,2003-07-01 06:00,ZHHH 010600Z 09002MPS CAVOK 30/26 Q1005 NOSIG
ZHHH,2003-07-01 07:00,ZHHH 010700Z 15002MPS 9999 SCT020 BKN090 31/27 Q1005 NOSIG
ZHHH,2003-07-01 08:00,ZHHH 010800Z 24003MPS 160V280 9999 SCT030 BKN100 32/27 Q1004 NOSIG
ZHHH,2003-07-01 09:00,ZHHH 010900Z 25003MPS CAVOK 32/26 Q1004 NOSIG
ZHHH,2003-07-01 10:00,ZHHH 011000Z 32001MPS CAVOK 32/26 Q1004 NOSIG
ZHHH,2003-07-01 11:00,ZHHH 011100Z 06003MPS CAVOK 29/27 Q1005 NOSIG
ZHHH,2003-07-01 12:00,ZHHH 011200Z 06003MPS CAVOK 28/27 Q1005 NOSIG
ZHHH,2003-07-01 13:00,ZHHH 011300Z 08002MPS CAVOK 28/26 Q1005 NOSIG
ZHHH,2003-07-01 14:00,ZHHH 011400Z 09003MPS CAVOK 27/26 Q1006 NOSIG
ZHHH,2003-07-01 15:00,ZHHH 011500Z 12002MPS CAVOK 27/26 Q1006 NOSIG
ZHHH,2003-07-01 16:00,ZHHH 011600Z 11002MPS CAVOK 27/26 Q1006 NOSIG
ZHHH,2003-07-01 17:00,ZHHH 011700Z 12002MPS CAVOK 27/27 Q1005 NOSIG
ZHHH,2003-07-01 18:00,ZHHH 011800Z 15002MPS CAVOK 28/27 Q1005 NOSIG
ZHHH,2003-07-01 19:00,ZHHH 011900Z 18003MPS CAVOK 29/25 Q1004 NOSIG
ZHHH,2003-07-01 20:00,ZHHH 012000Z 20003MPS CAVOK 28/25 Q1004 NOSIG
ZHHH,2003-07-01 21:00,ZHHH 012100Z 21004MPS CAVOK 28/25 Q1004 NOSIG
ZHHH,2003-07-01 22:00,ZHHH 012200Z 20004MPS CAVOK 28/25 Q1005 NOSIG
ZHHH,2003-07-01 23:00,ZHHH 012300Z 21005MPS CAVOK 29/25 Q1005 NOSIG
ZHHH,2003-07-02 00:00,ZHHH 020000Z 22006MPS CAVOK 29/25 Q1005 NOSIG
ZHHH,2003-07-02 01:00,ZHHH 020100Z 23006MPS CAVOK 30/25 Q1006 NOSIG
ZHHH,2003-07-02 02:00,ZHHH 020200Z 24006MPS CAVOK 30/25 Q1006 NOSIG
ZHHH,2003-07-02 03:00,ZHHH 020300Z 24007MPS CAVOK 32/25 Q1006 NOSIG
ZHHH,2003-07-02 04:00,ZHHH 020400Z 24009MPS 9999 FEW025 BKN230 33/25 Q1006 NOSIG
ZHHH,2003-07-02 05:00,ZHHH 020500Z 24008MPS 9999 SCT025 BKN230 32/25 Q1006 NOSIG
ZHHH,2003-07-02 06:00,ZHHH 020600Z 22008MPS 9999 BKN020 BKN160 33/25 Q1005 NOSIG
ZHHH,2003-07-02 07:00,ZHHH 020700Z 25006MPS 9999 SCT025 BKN160 33/25 Q1005 NOSIG
ZHHH,2003-07-02 08:00,ZHHH 020800Z 24006MPS 9999 FEW025 FEW030TCU BKN150 32/25 Q1005 NOSIG
ZHHH,2003-07-02 09:00,ZHHH 020900Z AUTO 25004KT 11SM 33/24 A2967 RMK SLP051 T03320238 57001 IEM_DS3505
ZHHH,2003-07-02 10:00,ZHHH 021000Z 34003MPS 310V020 9999 FEW023 FEW030TCU BKN130 28/26 Q1005 NOSIG
ZHHH,2003-07-02 11:00,ZHHH 021100Z 35004MPS 9999 FEW030TCU BKN150 27/25 Q1005 NOSIG
ZHHH,2003-07-02 12:00,ZHHH 021200Z 34003MPS 310V020 CAVOK 26/24 Q1006 NOSIG
ZHHH,2003-07-02 13:00,ZHHH 021300Z 33002MPS CAVOK 26/24 Q1006 NOSIG
ZHHH,2003-07-02 14:00,ZHHH 021400Z 32002MPS CAVOK 26/24 Q1007 NOSIG
ZHHH,2003-07-02 15:00,ZHHH 021500Z 33002MPS CAVOK 26/24 Q1007 NOSIG
ZHHH,2003-07-02 16:00,ZHHH 021600Z 34002MPS CAVOK 25/24 Q1006 NOSIG
ZHHH,2003-07-02 17:00,ZHHH 021700Z 33002MPS CAVOK 25/24 Q1006 NOSIG
ZHHH,2003-07-02 18:00,ZHHH 021800Z 35001MPS CAVOK 25/24 Q1006 NOSIG
ZHHH,2003-07-02 19:00,ZHHH 021900Z 01002MPS CAVOK 24/24 Q1005 NOSIG
ZHHH,2003-07-02 20:00,ZHHH 022000Z 35001MPS CAVOK 25/24 Q1005 NOSIG
ZHHH,2003-07-02 21:00,ZHHH 022100Z 00000MPS CAVOK 25/24 Q1005 NOSIG
ZHHH,2003-07-02 22:00,ZHHH 022200Z 00000MPS CAVOK 25/24 Q1005 NOSIG
ZHHH,2003-07-02 23:00,ZHHH 022300Z 08003MPS 7000 NSC 25/25 Q1006 NOSIG
ZHHH,2003-07-03 00:00,ZHHH 030000Z 12002MPS 6000 NSC 28/27 Q1006 NOSIG
ZHHH,2003-07-03 01:00,ZHHH 030100Z 20003MPS 170V320 CAVOK 30/26 Q1006 NOSIG
ZHHH,2003-07-03 02:00,ZHHH 030200Z 23006MPS CAVOK 32/26 Q1006 NOSIG
ZHHH,2003-07-03 03:00,ZHHH 030300Z 22006MPS CAVOK 32/26 Q1005 NOSIG
ZHHH,2003-07-03 04:00,ZHHH 030400Z 23008MPS 9999 FEW030 33/26 Q1005 NOSIG
ZHHH,2003-07-03 05:00,ZHHH 030500Z 24008MPS 9999 SCT030 34/25 Q1004 NOSIG
ZHHH,2003-07-03 06:00,ZHHH 030600Z 24007MPS CAVOK 34/27 Q1004 NOSIG
ZHHH,2003-07-03 07:00,ZHHH 030700Z 24007MPS CAVOK 34/25 Q1003 NOSIG
ZHHH,2003-07-03 08:00,ZHHH 030800Z 24007MPS CAVOK 34/25 Q1003 NOSIG
ZHHH,2003-07-03 09:00,ZHHH 030900Z 24007MPS CAVOK 34/25 Q1003 NOSIG
ZHHH,2003-07-03 10:00,ZHHH 031000Z 25004MPS 9999 FEW030 SCT230 34/26 Q1003 NOSIG
ZHHH,2003-07-03 11:00,ZHHH 031100Z 24003MPS 9999 FEW030 SCT230 32/26 Q1003 NOSIG
ZHHH,2003-07-03 12:00,ZHHH 031200Z 23002MPS 9999 SCT040 32/26 Q1003 NOSIG
ZHHH,2003-07-03 13:00,ZHHH 031300Z 24002MPS 9999 SCT040 31/27 Q1003 NOSIG
ZHHH,2003-07-03 14:00,ZHHH 031400Z 22003MPS CAVOK 31/27 Q1004 NOSIG
ZHHH,2003-07-03 15:00,ZHHH 031500Z 21004MPS CAVOK 30/27 Q1003 NOSIG
ZHHH,2003-07-03 16:00,ZHHH 031600Z 21004MPS CAVOK 30/26 Q1003 NOSIG
ZHHH,2003-07-03 17:00,ZHHH 031700Z 22004MPS CAVOK 30/26 Q1003 NOSIG
ZHHH,2003-07-03 18:00,ZHHH 031800Z 26003MPS 230V290 CAVOK 30/26 Q1003 NOSIG
ZHHH,2003-07-03 19:00,ZHHH 031900Z 33004MPS 6000 NSC 27/27 Q1003 NOSIG
ZHHH,2003-07-03 20:00,ZHHH 032000Z 34003MPS 6000 NSC 26/25 Q1003 NOSIG
ZHHH,2003-07-03 21:00,ZHHH 032100Z 33003MPS 6000 NSC 25/24 Q1003 NOSIG
ZHHH,2003-07-03 22:00,ZHHH 032200Z 36001MPS CAVOK 25/24 Q1003 NOSIG
ZHHH,2003-07-03 23:00,ZHHH 032300Z 33002MPS CAVOK 26/24 Q1003 NOSIG
ZHHH,2003-07-04 00:00,ZHHH 040000Z 34001MPS CAVOK 26/24 Q1004 NOSIG
ZHHH,2003-07-04 01:00,ZHHH 040100Z 34003MPS 300V030 CAVOK 27/25 Q1004 NOSIG
ZHHH,2003-07-04 02:00,ZHHH 040200Z 36002MPS CAVOK 28/25 Q1004 NOSIG
ZHHH,2003-07-04 03:00,ZHHH 040300Z 31002MPS CAVOK 28/25 Q1004 NOSIG
ZHHH,2003-07-04 04:00,ZHHH 040400Z 27003MPS 210V340 9999 FEW020 BKN130 29/25 Q1004 NOSIG
ZHHH,2003-07-04 05:00,ZHHH 040500Z 32003MPS 290V360 9999 FEW020 OVC130 29/25 Q1004 NOSIG
ZHHH,2003-07-04 06:00,ZHHH 040600Z 32003MPS 280V000 9999 FEW002 OVC120 29/26 Q1003 NOSIG
ZHHH,2003-07-04 07:00,ZHHH 040700Z 33004MPS 300V360 9999 FEW023 OVC120 28/25 Q1003 NOSIG
ZHHH,2003-07-04 08:00,ZHHH 040800Z 32004MPS 290V350 9999 SCT040 OVC120 27/25 Q1003 NOSIG
ZHHH,2003-07-04 09:00,ZHHH 040900Z 33003MPS 300V360 9999 FEW025 SCT040 OVC100 27/25 Q1003 NOSIG
ZHHH,2003-07-04 10:00,ZHHH 041000Z 33003MPS 300V360 9999 FEW020 BKN050 OVC100 26/24 Q1003 NOSIG
ZHHH,2003-07-04 11:00,ZHHH 041100Z 31003MPS 280V340 9999 FEW017 FEW030TCU SCT050 OVC120 25/24 Q1003 NOSIG
ZHHH,2003-07-04 12:00,ZHHH 041200Z 30003MPS 280V350 2000 TSRA SCT014 SCT030CB OVC050 24/23 Q1003 NOSIG
ZHHH,2003-07-04 13:00,ZHHH 041300Z 31002MPS 2500 TSRA SCT004 SCT030CB OVC050 23/23 Q1004 NOSIG
ZHHH,2003-07-04 14:00,ZHHH 041400Z 00000MPS 7000 -TS FEW004 FEW030CB OVC050 23/23 Q1004 NOSIG
ZHHH,2003-07-04 15:00,ZHHH 041500Z 00000MPS 7000 FEW005 FEW030CB OVC060 24/24 Q1004 RETS NOSIG
ZHHH,2003-07-04 16:00,ZHHH 041600Z 00000MPS 9999 SCT004 OVC060 24/24 Q1004 NOSIG
ZHHH,2003-07-04 17:00,ZHHH 041700Z 26003MPS 9999 SCT005 OVC060 24/23 Q1003 NOSIG
ZHHH,2003-07-04 18:00,ZHHH 041800Z 24005MPS 9999 -RA SCT005 SCT030TCU OVC060 23/23 Q1003 NOSIG
ZHHH,2003-07-04 19:00,ZHHH 041900Z 26004MPS 240V310 7000 SCT006 OVC050 23/23 Q1003 NOSIG
ZHHH,2003-07-04 20:00,ZHHH 042000Z 27004MPS 240V310 3000 RA BR SCT023 FEW050CB BKN050 23/22 Q1003 NOSIG
ZHHH,2003-07-04 21:00,ZHHH 042100Z 22004MPS 4000 -RA BR FEW020 FEW053CB BKN053 22/22 Q1003 RETSRA NOSIG
ZHHH,2003-07-04 22:00,ZHHH 042200Z 21002MPS 3000 -TSRA FEW050CB BKN050 22/22 Q1004 NOSIG
ZHHH,2003-07-04 23:00,ZHHH 042300Z 22005MPS 6000 -TSRA FEW005 FEW050CB BKN050 23/22 Q1004 NOSIG
ZHHH,2003-07-05 00:00,ZHHH 050000Z 21004MPS 9999 FEW004 BKN050 OVC080 22/22 Q1005 RETS NOSIG
ZHHH,2003-07-05 01:00,ZHHH 050100Z 24002MPS 9999 -RA FEW004 SCT060 OVC100 22/22 Q1005 NOSIG
ZHHH,2003-07-05 02:00,ZHHH 050200Z 22004MPS 4000 -RA SCT004 FEW040CB SCT040 OVC100 23/23 Q1005 RETSRA NOSIG
ZHHH,2003-07-05 03:00,ZHHH 050300Z 23005MPS 5000 RA SCT004 OVC060 23/23 Q1006 NOSIG
ZHHH,2003-07-05 04:00,ZHHH 050400Z 21005MPS 5000 RA SCT004 FEW030TCU BKN060 22/22 Q1006 NOSIG
ZHHH,2003-07-05 05:00,ZHHH 050500Z 22003MPS 5000 -RA SCT004 FEW030TCU BKN060 23/23 Q1006 RERA NOSIG
ZHHH,2003-07-05 06:00,ZHHH 050600Z 22005MPS 6000 -RA SCT004 OVC060 23/22 Q1006 NOSIG
ZHHH,2003-07-05 07:00,ZHHH 050700Z 20004MPS 8000 -RA SCT006 OVC070 23/22 Q1005 RERA NOSIG
ZHHH,2003-07-05 08:00,ZHHH 050800Z 14003MPS 110V170 5000 -RA FEW006 OVC070 23/22 Q1004 NOSIG
ZHHH,2003-07-05 09:00,ZHHH 050900Z 20003MPS 6000 NSC 23/22 Q1004 NOSIG
ZHHH,2003-07-05 10:00,ZHHH 051000Z 00000MPS 6000 NSC 23/23 Q1004 NOSIG
ZHHH,2003-07-05 11:00,ZHHH 051100Z 04002MPS 6000 NSC 23/23 Q1004 NOSIG
ZHHH,2003-07-05 12:00,ZHHH 051200Z 00000MPS 5000 BR NSC 23/23 Q1005 NOSIG
ZHHH,2003-07-05 13:00,ZHHH 051300Z 11001MPS 3000 BR NSC 23/23 Q1006 NOSIG
ZHHH,2003-07-05 14:00,ZHHH 051400Z 02001MPS 4000 BR NSC 23/23 Q1006 NOSIG
ZHHH,2003-07-05 15:00,ZHHH 051500Z 07001MPS 4000 -RA BR NSC 23/23 Q1006 NOSIG
ZHHH,2003-07-05 16:00,ZHHH 051600Z 09002MPS 3000 BR NSC 23/23 Q1006 NOSIG
ZHHH,2003-07-05 17:00,ZHHH 051700Z 14004MPS 2500 BR NSC 23/23 Q1005 NOSIG
ZHHH,2003-07-05 18:00,ZHHH 051800Z 04002MPS 3000 BR NSC 23/23 Q1005 NOSIG
ZHHH,2003-07-05 19:00,ZHHH 051900Z 05001MPS 1800 -RA BR NSC 23/23 Q1005 NOSIG
ZHHH,2003-07-05 20:00,ZHHH 052000Z 19002MPS 1800 -RA BR OVC007 23/23 Q1005 NOSIG
ZHHH,2003-07-05 21:00,ZHHH 052100Z 07002MPS 1800 BR NSC 23/23 Q1004 NOSIG
ZHHH,2003-07-05 22:00,ZHHH 052200Z 17001MPS 1800 BR NSC 23/23 Q1004 NOSIG
ZHHH,2003-07-05 23:00,ZHHH 052300Z 00000MPS 2000 BR SCT020 OVC100 23/23 Q1005 NOSIG
ZHHH,2003-07-06 00:00,ZHHH 060000Z 07002MPS 4000 BR FEW020 BKN100 23/23 Q1005 NOSIG
ZHHH,2003-07-06 01:00,ZHHH 060100Z 14001MPS 9999 FEW020 BKN100 24/23 Q1005 NOSIG
ZHHH,2003-07-06 02:00,ZHHH 060200Z 21002MPS 9999 SCT020 OVC100 24/23 Q1006 NOSIG
ZHHH,2003-07-06 03:00,ZHHH 060300Z 18002MPS 9999 BKN020 OVC100 24/23 Q1006 NOSIG
ZHHH,2003-07-06 04:00,ZHHH 060400Z 00000MPS 9999 BKN020 OVC070 25/23 Q1006 NOSIG
ZHHH,2003-07-06 05:00,ZHHH 060500Z 35002MPS 9999 BKN020 OVC070 25/23 Q1006 NOSIG
ZHHH,2003-07-06 06:00,ZHHH 060600Z 34002MPS 9999 BKN030 OVC070 25/23 Q1006 NOSIG
ZHHH,2003-07-06 07:00,ZHHH 060700Z 01002MPS 9999 FEW020 BKN030 OVC070 26/23 Q1005 NOSIG
ZHHH,2003-07-06 08:00,ZHHH 060800Z 24002MPS 5000 BR SCT030 BKN120 27/24 Q1004 NOSIG
ZHHH,2003-07-06 09:00,ZHHH 060900Z 24004MPS 6000 SKC 26/24 Q1005 NOSIG
ZHHH,2003-07-06 10:00,ZHHH 061000Z 23004MPS 6000 SKC 26/24 Q1005 NOSIG
ZHHH,2003-07-06 11:00,ZHHH 061100Z 25002MPS 6000 BKN020 25/24 Q1005 NOSIG
ZHHH,2003-07-06 12:00,ZHHH 061200Z 27001MPS CAVOK 25/24 Q1005 NOSIG
ZHHH,2003-07-06 13:00,ZHHH 061300Z 23003MPS CAVOK 25/24 Q1005 NOSIG
ZHHH,2003-07-06 14:00,ZHHH 061400Z 22003MPS CAVOK 24/24 Q1006 NOSIG
ZHHH,2003-07-06 15:00,ZHHH 061500Z 23002MPS CAVOK 24/23 Q1006 NOSIG
ZHHH,2003-07-06 16:00,ZHHH 061600Z 21003MPS CAVOK 24/23 Q1006 NOSIG
ZHHH,2003-07-06 17:00,ZHHH 061700Z 26002MPS CAVOK 24/23 Q1006 NOSIG
ZHHH,2003-07-06 18:00,ZHHH 061800Z 26002MPS CAVOK 24/23 Q1006 NOSIG
ZHHH,2003-07-06 19:00,ZHHH 061900Z 32002MPS CAVOK 24/23 Q1006 NOSIG
ZHHH,2003-07-06 20:00,ZHHH 062000Z 30001MPS 3000 BR SKC 23/23 Q1006 NOSIG
ZHHH,2003-07-06 21:00,ZHHH 062100Z AUTO 00000KT 9SM 24/23 A2971 RMK 70001 SLP063 T02350226 52005 IEM_DS3505
ZHHH,2003-07-06 22:00,ZHHH 062200Z 15001MPS 1800 BR SKC 23/23 Q1006 NOSIG
ZHHH,2003-07-06 23:00,ZHHH 062300Z 00000MPS 1800 BR SKC 23/23 Q1007 NOSIG
ZHHH,2003-07-07 00:00,ZHHH 070000Z 20002MPS 2500 BR SCT025 25/24 Q1007 NOSIG
ZHHH,2003-07-07 01:00,ZHHH 070100Z 22003MPS 4000 BR SCT020 OVC060 25/24 Q1007 NOSIG
ZHHH,2003-07-07 02:00,ZHHH 070200Z 18003MPS 160V220 3000 BR FEW020 OVC070 26/24 Q1007 NOSIG
ZHHH,2003-07-07 03:00,ZHHH 070300Z 21002MPS 6000 BKN020 27/24 Q1007 NOSIG
ZHHH,2003-07-07 04:00,ZHHH 070400Z 33001MPS 4000 BR SCT020 29/25 Q1006 NOSIG
ZHHH,2003-07-07 05:00,ZHHH 070500Z 13002MPS 5000 BR SCT020 29/24 Q1006 NOSIG
ZHHH,2003-07-07 06:00,ZHHH 070600Z 12002MPS 8000 SCT020 30/25 Q1005 NOSIG
ZHHH,2003-07-07 07:00,ZHHH 070700Z 14002MPS 9999 FEW020 30/25 Q1005 NOSIG
ZHHH,2003-07-07 08:00,ZHHH 070800Z 25001MPS 9999 FEW020 30/25 Q1005 NOSIG
ZHHH,2003-07-07 09:00,ZHHH 070900Z 14002MPS 9999 SCT020 FEW033TCU 30/25 Q1004 NOSIG
ZHHH,2003-07-07 10:00,ZHHH 071000Z 13002MPS 9999 SCT033 BKN130 29/25 Q1004 NOSIG
ZHHH,2003-07-07 11:00,ZHHH 071100Z 13002MPS CAVOK 29/26 Q1004 NOSIG
ZHHH,2003-07-07 12:00,ZHHH 071200Z 11002MPS CAVOK 28/26 Q1004 NOSIG
ZHHH,2003-07-07 13:00,ZHHH 071300Z 12002MPS CAVOK 28/26 Q1005 NOSIG
ZHHH,2003-07-07 14:00,ZHHH 071400Z 12002MPS CAVOK 27/26 Q1005 NOSIG
ZHHH,2003-07-07 15:00,ZHHH 071500Z 17002MPS CAVOK 27/25 Q1006 NOSIG
ZHHH,2003-07-07 16:00,ZHHH 071600Z 12001MPS 9999 -TS SCT040CB BKN110 27/25 Q1005 NOSIG
ZHHH,2003-07-07 17:00,ZHHH 071700Z 08002MPS 9999 FEW040CB BKN100 27/25 Q1005 RETS NOSIG
ZHHH,2003-07-07 18:00,ZHHH 071800Z 00000MPS 4000 BR NSC 27/25 Q1004 NOSIG
ZHHH,2003-07-07 19:00,ZHHH 071900Z 07002MPS 2000 BR NSC 26/25 Q1004 NOSIG
ZHHH,2003-07-07 20:00,ZHHH 072000Z 11003MPS 2000 BR NSC 26/25 Q1003 NOSIG
ZHHH,2003-07-07 21:00,ZHHH 072100Z 12003MPS 1600 BR NSC 26/25 Q1003 NOSIG
ZHHH,2003-07-07 22:00,ZHHH 072200Z 09003MPS 1100 R04/1400N -RA BR SCT020 OVC070 26/25 Q1003 NOSIG
ZHHH,2003-07-07 23:00,ZHHH 072300Z 08003MPS 1500 -TSRA SCT010 SCT033CB BKN060 25/25 Q1003 NOSIG
ZHHH,2003-07-08 00:00,ZHHH 080000Z 07004MPS 3500 -TSRA SCT010 SCT033CB BKN060 25/24 Q1003 NOSIG
ZHHH,2003-07-08 01:00,ZHHH 080100Z 08005MPS 1800 TSRA SCT010 SCT033CB OVC050 24/24 Q1003 NOSIG
ZHHH,2003-07-08 02:00,ZHHH 080200Z 19007MPS 1200 R22/1200N TSRA SCT005 SCT030CB OVC050 25/25 Q1004 NOSIG
ZHHH,2003-07-08 03:00,ZHHH 080300Z 20003MPS 160V230 1800 RA SCT005 SCT010 FEW030CB OVC050 24/24 Q1004 NOSIG
ZHHH,2003-07-08 04:00,ZHHH 080400Z 15002MPS 1600 RA BR SCT004 SCT006 OVC050 24/24 Q1003 NOSIG
ZHHH,2003-07-08 05:00,ZHHH 080500Z 11005MPS 1600 RA BR SCT003 SCT006 OVC050 25/25 Q1003 NOSIG
ZHHH,2003-07-08 06:00,ZHHH 080600Z 14003MPS 1800 RA BR SCT003 SCT006 OVC050 25/25 Q1002 NOSIG
ZHHH,2003-07-08 07:00,ZHHH 080700Z 14006MPS 110V170 1600 RA BR SCT003 SCT006 FEW030TCU OVC050 25/25 Q1001 NOSIG
ZHHH,2003-07-08 08:00,ZHHH 080800Z 15006MPS 1600 -RA BR FEW003 SCT005 FEW028TCU OVC040 25/25 Q1001 NOSIG
ZHHH,2003-07-08 09:00,ZHHH 080900Z 18006MPS 1600 RA BR FEW003 SCT006 OVC040 25/25 Q1000 NOSIG
ZHHH,2003-07-08 10:00,ZHHH 081000Z 24006MPS 2500 RA BR SCT003 SCT005 OVC040 25/25 Q1001 NOSIG
ZHHH,2003-07-08 11:00,ZHHH 081100Z 23007MPS 5000 RA SCT003 SCT006 OVC050 25/25 Q1002 NOSIG
ZHHH,2003-07-08 12:00,ZHHH 081200Z 24005MPS 9999 SCT003 SCT005 OVC050 25/25 Q1003 NOSIG
ZHHH,2003-07-08 13:00,ZHHH 081300Z 27003MPS 250V310 9999 SCT004 SCT006 OVC040 25/25 Q1003 NOSIG
ZHHH,2003-07-08 14:00,ZHHH 081400Z 27003MPS 9999 -RA SCT004 OVC040 25/24 Q1004 NOSIG
ZHHH,2003-07-08 15:00,ZHHH 081500Z 30002MPS 9999 FEW010 SCT050 BKN100 24/24 Q1004 NOSIG
ZHHH,2003-07-08 16:00,ZHHH 081600Z 31002MPS 9999 SCT015 SCT060 OVC100 24/24 Q1004 NOSIG
ZHHH,2003-07-08 17:00,ZHHH 081700Z 00000MPS CAVOK 24/24 Q1004 NOSIG
ZHHH,2003-07-08 18:00,ZHHH 081800Z 00000MPS 9999 FEW015 SCT060 OVC100 24/24 Q1004 NOSIG
ZHHH,2003-07-08 19:00,ZHHH 081900Z AUTO 00000KT 7SM 24/24 A2965 RMK SLP044 T02400240 IEM_DS3505
ZHHH,2003-07-08 20:00,ZHHH 082000Z 36001MPS 9999 FEW010 SCT020 OVC100 24/24 Q1004 NOSIG
ZHHH,2003-07-08 21:00,ZHHH 082100Z 00000MPS 9999 SCT020 OVC100 24/24 Q1004 NOSIG
ZHHH,2003-07-08 22:00,ZHHH 082200Z 03002MPS 9999 -RA NSC 24/24 Q1004 NOSIG
ZHHH,2003-07-08 23:00,ZHHH 082300Z 03003MPS 6000 -RA SCT020 OVC100 24/24 Q1005 NOSIG
ZHHH,2003-07-09 00:00,ZHHH 090000Z 06003MPS 6000 -RA SCT020 OVC100 23/23 Q1005 NOSIG
ZHHH,2003-07-09 01:00,ZHHH 090100Z 04003MPS 360V060 4000 -RA BKN015 OVC050 23/23 Q1006 NOSIG
ZHHH,2003-07-09 02:00,ZHHH 090200Z 04003MPS 000V060 1800 RA SCT005 BKN020 OVC040 23/23 Q1006 NOSIG
ZHHH,2003-07-09 03:00,ZHHH 090300Z 06005MPS 020V080 9999 -RA SCT010 BKN030 OVC050 23/23 Q1006 NOSIG
ZHHH,2003-07-09 04:00,ZHHH 090400Z 04003MPS 360V060 4000 RA SCT006 BKN020 OVC033 23/23 Q1006 NOSIG
ZHHH,2003-07-09 05:00,ZHHH 090500Z 05004MPS 4000 RA SCT006 BKN020 OVC033 23/23 Q1006 NOSIG
ZHHH,2003-07-09 06:00,ZHHH 090600Z 06004MPS 4000 RA SCT006 BKN020 OVC033 23/23 Q1005 NOSIG
ZHHH,2003-07-09 07:00,ZHHH 090700Z 04004MPS 6000 -RA SCT006 BKN020 OVC050 23/23 Q1005 RERA NOSIG
ZHHH,2003-07-09 08:00,ZHHH 090800Z 04003MPS 6000 -RA SCT006 BKN020 OVC050 23/23 Q1005 NOSIG
ZHHH,2003-07-09 09:00,ZHHH 090900Z 05003MPS 9999 -RA SCT006 BKN020 OVC050 23/23 Q1004 NOSIG
ZHHH,2003-07-09 10:00,ZHHH 091000Z 03003MPS 000V060 2000 -RA SCT006 BKN020 OVC050 23/23 Q1005 RERA NOSIG
ZHHH,2003-07-09 11:00,ZHHH 091100Z 05004MPS 1600 RA SCT005 BKN011 OVC020 23/23 Q1005 NOSIG
ZHHH,2003-07-09 12:00,ZHHH 091200Z 04004MPS 9999 -RA FEW007 BKN011 OVC023 22/22 Q1005 NOSIG
ZHHH,2003-07-09 13:00,ZHHH 091300Z 04004MPS 6000 -RA FEW007 BKN011 OVC023 22/22 Q1005 NOSIG
ZHHH,2003-07-09 14:00,ZHHH 091400Z 03003MPS 350V060 6000 -RA FEW007 BKN011 OVC023 22/22 Q1005 NOSIG
ZHHH,2003-07-09 15:00,ZHHH 091500Z 06004MPS 5000 -RA SCT007 OVC020 22/22 Q1005 NOSIG
ZHHH,2003-07-09 16:00,ZHHH 091600Z 03005MPS 360V060 3000 -TSRA SCT007 SCT020CB OVC023 22/22 Q1004 NOSIG
ZHHH,2003-07-09 17:00,ZHHH 091700Z 02004MPS 3000 -RA SCT007 OVC023 21/21 Q1004 RETS NOSIG
ZHHH,2003-07-09 18:00,ZHHH 091800Z 03006MPS 5000 -RA SCT007 OVC023 21/21 Q1004 NOSIG
ZHHH,2003-07-09 19:00,ZHHH 091900Z 06005MPS 5000 -RA SCT007 OVC033 20/20 Q1003 NOSIG
ZHHH,2003-07-09 20:00,ZHHH 092000Z 04003MPS 5000 -RA SCT007 OVC033 21/20 Q1003 NOSIG
ZHHH,2003-07-09 21:00,ZHHH 092100Z 04003MPS 360V060 6000 -RA SCT007 OVC033 21/20 Q1003 NOSIG
ZHHH,2003-07-09 22:00,ZHHH 092200Z 32003MPS 270V030 9999 -RA SCT007 OVC033 21/21 Q1003 NOSIG
ZHHH,2003-07-09 23:00,ZHHH 092300Z 35003MPS 310V020 6000 RA SCT007 OVC033 20/20 Q1003 NOSIG
ZHHH,2003-07-10 00:00,ZHHH 100000Z 34002MPS 3000 RA SCT007 BKN020 OVC033 20/20 Q1004 NOSIG
ZHHH,2003-07-10 01:00,ZHHH 100100Z 34001MPS 2500 RA SCT004 SCT007 OVC033 20/20 Q1005 NOSIG
ZHHH,2003-07-10 02:00,ZHHH 100200Z 30001MPS 2500 RA SCT004 SCT007 OVC033 21/21 Q1005 NOSIG
ZHHH,2003-07-10 03:00,ZHHH 100300Z 34001MPS 3000 RA SCT004 SCT007 FEW033CB BKN033 21/21 Q1005 NOSIG
ZHHH,2003-07-10 04:00,ZHHH 100400Z 36002MPS 9999 -RA SCT003 BKN007 OVC033 21/21 Q1005 NOSIG
ZHHH,2003-07-10 05:00,ZHHH 100500Z 03002MPS 9999 -RA BKN014 OVC040 21/21 Q1005 NOSIG
ZHHH,2003-07-10 06:00,ZHHH 100600Z 34001MPS 9999 -RA SCT003 BKN013 OVC040 21/21 Q1005 NOSIG
ZHHH,2003-07-10 07:00,ZHHH 100700Z 00000MPS 9999 -RA FEW003 BKN006 OVC040 21/21 Q1005 NOSIG
ZHHH,2003-07-10 08:00,ZHHH 100800Z 30001MPS 9999 -RA FEW003 BKN006 OVC040 22/22 Q1005 NOSIG
ZHHH,2003-07-10 09:00,ZHHH 100900Z 00000MPS 9999 -RA FEW003 BKN007 OVC050 22/22 Q1004 NOSIG
ZHHH,2003-07-10 10:00,ZHHH 101000Z 00000MPS 9999 -RA SCT003 SCT007 OVC050 22/22 Q1004 NOSIG
ZHHH,2003-07-10 11:00,ZHHH 101100Z 00000MPS 9999 -RA SCT003 SCT007 OVC050 22/22 Q1004 NOSIG
ZHHH,2003-07-10 12:00,ZHHH 101200Z 00000MPS 9999 SCT003 SCT007 OVC050 22/22 Q1005 NOSIG
ZHHH,2003-07-10 13:00,ZHHH 101300Z 00000MPS 9999 SCT003 SCT007 OVC050 22/22 Q1006 NOSIG
ZHHH,2003-07-10 14:00,ZHHH 101400Z 00000MPS 9999 SCT007 OVC050 22/22 Q1006 NOSIG
ZHHH,2003-07-10 15:00,ZHHH 101500Z 00000MPS 9999 SCT007 OVC050 22/22 Q1006 NOSIG
ZHHH,2003-07-10 16:00,ZHHH 101600Z 00000MPS 9999 SCT007 OVC050 22/22 Q1006 NOSIG
ZHHH,2003-07-10 17:00,ZHHH 101700Z 00000MPS 9999 SCT020 OVC050 22/22 Q1005 NOSIG
ZHHH,2003-07-10 18:00,ZHHH 101800Z 00000MPS 9999 -RA SCT004 OVC050 22/22 Q1005 NOSIG
ZHHH,2003-07-10 19:00,ZHHH 101900Z 05001MPS 5000 -RA SCT020 OVC050 22/22 Q1005 NOSIG
ZHHH,2003-07-10 20:00,ZHHH 102000Z 00000MPS 4000 BR FEW020 OVC040 22/22 Q1004 NOSIG
ZHHH,2003-07-10 21:00,ZHHH 102100Z 00000MPS 3000 BR NSC 22/22 Q1005 NOSIG
ZHHH,2003-07-10 22:00,ZHHH 102200Z 00000MPS 3000 BR FEW033 OVC050 22/22 Q1005 NOSIG
ZHHH,2003-07-10 23:00,ZHHH 102300Z 00000MPS 2800 BR FEW020 OVC050 22/22 Q1005 NOSIG
ZHHH,2003-07-11 00:00,ZHHH 110000Z 06002MPS 3000 BR FEW006 OVC050 22/22 Q1006 NOSIG
ZHHH,2003-07-11 01:00,ZHHH 110100Z 08002MPS 2000 BR SCT006 OVC030 23/23 Q1006 NOSIG
ZHHH,2003-07-11 02:00,ZHHH 110200Z 08002MPS 2300 BR SCT006 OVC030 24/24 Q1006 NOSIG
ZHHH,2003-07-11 03:00,ZHHH 110300Z 12003MPS 3000 BR SCT006 OVC030 24/24 Q1006 NOSIG
ZHHH,2003-07-11 04:00,ZHHH 110400Z 12002MPS 2500 BR -RA FEW007 SCT014 OVC040 25/24 Q1006 NOSIG
ZHHH,2003-07-11 05:00,ZHHH 110500Z 10002MPS 2500 BR -RA SCT007 OVC040 25/24 Q1005 NOSIG
ZHHH,2003-07-11 06:00,ZHHH 110600Z 09002MPS 2500 BR -RA SCT008 OVC030 26/25 Q1005 NOSIG
ZHHH,2003-07-11 07:00,ZHHH 110700Z 11003MPS 2500 BR SCT010 OVC040 27/25 Q1005 NOSIG
ZHHH,2003-07-11 08:00,ZHHH 110800Z 11004MPS 3000 BR SCT012 BKN060 27/26 Q1004 NOSIG
ZHHH,2003-07-11 09:00,ZHHH 110900Z 12003MPS 3500 BR NSC 28/26 Q1004 NOSIG
ZHHH,2003-07-11 10:00,ZHHH 111000Z 10003MPS 3500 BR NSC 28/26 Q1004 NOSIG
ZHHH,2003-07-11 11:00,ZHHH 111100Z 09002MPS 3500 BR NSC 27/26 Q1004 NOSIG
ZHHH,2003-07-11 12:00,ZHHH 111200Z 05002MPS 2600 BR NSC 26/26 Q1005 NOSIG
ZHHH,2003-07-11 13:00,ZHHH 111300Z 08003MPS 2000 BR NSC 26/26 Q1005 NOSIG
ZHHH,2003-07-11 14:00,ZHHH 111400Z 11003MPS 2000 BR NSC 26/26 Q1005 NOSIG
ZHHH,2003-07-11 15:00,ZHHH 111500Z 10003MPS 2000 BR NSC 26/26 Q1005 NOSIG
ZHHH,2003-07-11 16:00,ZHHH 111600Z 11003MPS 2000 BR NSC 26/26 Q1005 NOSIG
ZHHH,2003-07-11 17:00,ZHHH 111700Z 12003MPS 2000 BR NSC 25/25 Q1004 NOSIG
ZHHH,2003-07-11 18:00,ZHHH 111800Z 11003MPS 2000 BR NSC 26/25 Q1003 NOSIG
ZHHH,2003-07-11 19:00,ZHHH 111900Z 11003MPS 1200 R04/1200N BR NSC 25/25 Q1003 NOSIG
ZHHH,2003-07-11 20:00,ZHHH 112000Z 11003MPS 1000 R04/1000N BR NSC 26/26 Q1003 NOSIG
ZHHH,2003-07-11 21:00,ZHHH 112100Z 13003MPS 1000 R04/1000N BR NSC 26/26 Q1003 NOSIG
ZHHH,2003-07-11 22:00,ZHHH 112200Z 13003MPS 1200 R04/1200N BR NSC 25/25 Q1004 NOSIG
ZHHH,2003-07-11 23:00,ZHHH 112300Z 15003MPS 1600 BR NSC 27/26 Q1004 NOSIG
ZHHH,2003-07-12 00:00,ZHHH 120000Z 16002MPS 3000 BR NSC 29/27 Q1004 NOSIG
ZHHH,2003-07-12 01:00,ZHHH 120100Z 21005MPS CAVOK 30/27 Q1005 NOSIG
ZHHH,2003-07-12 02:00,ZHHH 120200Z 21006MPS CAVOK 31/26 Q1005 NOSIG
ZHHH,2003-07-12 03:00,ZHHH 120300Z 22007MPS CAVOK 31/26 Q1005 NOSIG
ZHHH,2003-07-12 04:00,ZHHH 120400Z 23005MPS CAVOK 32/26 Q1005 NOSIG
ZHHH,2003-07-12 05:00,ZHHH 120500Z 23008MPS CAVOK 33/26 Q1004 NOSIG
ZHHH,2003-07-12 06:00,ZHHH 120600Z 23008MPS CAVOK 33/26 Q1004 NOSIG
ZHHH,2003-07-12 07:00,ZHHH 120700Z 22008MPS CAVOK 34/27 Q1003 NOSIG
ZHHH,2003-07-12 08:00,ZHHH 120800Z 21008MPS CAVOK 34/27 Q1003 NOSIG
ZHHH,2003-07-12 09:00,ZHHH 120900Z 21006MPS CAVOK 33/27 Q1003 NOSIG
ZHHH,2003-07-12 10:00,ZHHH 121000Z 21006MPS CAVOK 33/27 Q1003 NOSIG
ZHHH,2003-07-12 11:00,ZHHH 121100Z 24004MPS CAVOK 32/27 Q1003 NOSIG
ZHHH,2003-07-12 12:00,ZHHH 121200Z 20003MPS CAVOK 31/27 Q1003 NOSIG
ZHHH,2003-07-12 13:00,ZHHH 121300Z 20003MPS CAVOK 30/27 Q1004 NOSIG
ZHHH,2003-07-12 14:00,ZHHH 121400Z 17003MPS CAVOK 30/27 Q1004 NOSIG
ZHHH,2003-07-12 15:00,ZHHH 121500Z 20003MPS CAVOK 30/26 Q1004 NOSIG
ZHHH,2003-07-12 16:00,ZHHH 121600Z 20002MPS CAVOK 30/26 Q1004 NOSIG
ZHHH,2003-07-12 17:00,ZHHH 121700Z 18002MPS CAVOK 29/26 Q1003 NOSIG
ZHHH,2003-07-12 18:00,ZHHH 121800Z 18002MPS CAVOK 29/26 Q1003 NOSIG
ZHHH,2003-07-12 19:00,ZHHH 121900Z 16001MPS CAVOK 28/26 Q1003 NOSIG
ZHHH,2003-07-12 20:00,ZHHH 122000Z 07001MPS CAVOK 28/26 Q1003 NOSIG
ZHHH,2003-07-12 21:00,ZHHH 122100Z 11001MPS CAVOK 28/25 Q1003 NOSIG
ZHHH,2003-07-12 22:00,ZHHH 122200Z 15001MPS CAVOK 28/25 Q1004 NOSIG
ZHHH,2003-07-12 23:00,ZHHH 122300Z 20003MPS 160V240 CAVOK 29/26 Q1004 NOSIG
ZHHH,2003-07-13 00:00,ZHHH 130000Z 22005MPS CAVOK 30/26 Q1005 NOSIG
ZHHH,2003-07-13 01:00,ZHHH 130100Z 23008MPS CAVOK 31/26 Q1005 NOSIG
ZHHH,2003-07-13 02:00,ZHHH 130200Z 22008MPS CAVOK 32/26 Q1005 NOSIG
ZHHH,2003-07-13 03:00,ZHHH 130300Z 22009MPS CAVOK 33/26 Q1005 NOSIG
ZHHH,2003-07-13 04:00,ZHHH 130400Z 22008MPS CAVOK 33/27 Q1004 NOSIG
ZHHH,2003-07-13 05:00,ZHHH 130500Z 22009MPS CAVOK 34/26 Q1004 NOSIG
ZHHH,2003-07-13 06:00,ZHHH 130600Z 22010MPS 9999 FEW033 34/27 Q1003 NOSIG
ZHHH,2003-07-13 07:00,ZHHH 130700Z 21007MPS CAVOK 35/28 Q1003 NOSIG
ZHHH,2003-07-13 08:00,ZHHH 130800Z 22007MPS CAVOK 34/27 Q1003 NOSIG
ZHHH,2003-07-13 09:00,ZHHH 130900Z 22007MPS 9999 FEW033 34/27 Q1002 NOSIG
ZHHH,2003-07-13 10:00,ZHHH 131000Z 22006MPS CAVOK 34/27 Q1002 NOSIG
ZHHH,2003-07-13 11:00,ZHHH 131100Z 23005MPS CAVOK 33/27 Q1003 NOSIG
ZHHH,2003-07-13 12:00,ZHHH 131200Z 21003MPS CAVOK 32/27 Q1003 NOSIG
ZHHH,2003-07-13 13:00,ZHHH 131300Z 18003MPS CAVOK 31/27 Q1004 NOSIG
ZHHH,2003-07-13 14:00,ZHHH 131400Z 18002MPS CAVOK 31/27 Q1004 NOSIG
ZHHH,2003-07-13 15:00,ZHHH 131500Z 19003MPS CAVOK 31/26 Q1004 NOSIG
ZHHH,2003-07-13 16:00,ZHHH 131600Z 20004MPS CAVOK 30/26 Q1004 NOSIG
ZHHH,2003-07-13 17:00,ZHHH 131700Z 20003MPS CAVOK 29/26 Q1003 NOSIG
ZHHH,2003-07-13 18:00,ZHHH 131800Z 20003MPS CAVOK 29/26 Q1003 NOSIG
ZHHH,2003-07-13 19:00,ZHHH 131900Z 20004MPS CAVOK 29/26 Q1002 NOSIG
ZHHH,2003-07-13 20:00,ZHHH 132000Z 21005MPS CAVOK 29/25 Q1002 NOSIG
ZHHH,2003-07-13 21:00,ZHHH 132100Z 21004MPS CAVOK 29/25 Q1002 NOSIG
ZHHH,2003-07-13 22:00,ZHHH 132200Z 23003MPS CAVOK 29/25 Q1003 NOSIG
ZHHH,2003-07-13 23:00,ZHHH 132300Z 23005MPS CAVOK 30/26 Q1003 NOSIG
ZHHH,2003-07-14 00:00,ZHHH 140000Z AUTO 22004KT 14SM 32/24 A2962 RMK SLP034 T03160240 52008 IEM_DS3505
ZHHH,2003-07-14 01:00,ZHHH 140100Z 25005MPS CAVOK 32/26 Q1004 NOSIG
ZHHH,2003-07-14 02:00,ZHHH 140200Z 24006MPS CAVOK 32/26 Q1003 NOSIG
ZHHH,2003-07-14 03:00,ZHHH 140300Z 25006MPS CAVOK 33/26 Q1003 NOSIG
ZHHH,2003-07-14 04:00,ZHHH 140400Z 26006MPS 9999 BKN020 33/26 Q1003 NOSIG
ZHHH,2003-07-14 05:00,ZHHH 140500Z 25006MPS 9999 SCT020 34/26 Q1003 NOSIG
ZHHH,2003-07-14 06:00,ZHHH 140600Z 25006MPS 9999 SCT020 34/27 Q1002 NOSIG
ZHHH,2003-07-14 07:00,ZHHH 140700Z 25005MPS 9999 SCT020 34/27 Q1002 NOSIG
ZHHH,2003-07-14 08:00,ZHHH 140800Z 24005MPS 9999 SCT020 34/27 Q1002 NOSIG
ZHHH,2003-07-14 09:00,ZHHH 140900Z 24005MPS 9999 FEW030 34/27 Q1002 NOSIG
ZHHH,2003-07-14 10:00,ZHHH 141000Z 26003MPS 9999 FEW030 33/27 Q1002 NOSIG
ZHHH,2003-07-14 11:00,ZHHH 141100Z 23004MPS CAVOK 32/27 Q1002 NOSIG
ZHHH,2003-07-14 12:00,ZHHH 141200Z 05005MPS CAVOK 28/26 Q1003 NOSIG
ZHHH,2003-07-14 13:00,ZHHH 141300Z 05006MPS CAVOK 27/25 Q1004 NOSIG
ZHHH,2003-07-14 14:00,ZHHH 141400Z 06005MPS 9999 FEW023 26/24 Q1004 NOSIG
ZHHH,2003-07-14 15:00,ZHHH 141500Z 06005MPS CAVOK 26/24 Q1005 NOSIG
ZHHH,2003-07-14 16:00,ZHHH 141600Z 06004MPS CAVOK 26/24 Q1005 NOSIG
ZHHH,2003-07-14 17:00,ZHHH 141700Z 07003MPS CAVOK 25/24 Q1004 NOSIG
ZHHH,2003-07-14 18:00,ZHHH 141800Z 07003MPS CAVOK 25/24 Q1004 NOSIG
ZHHH,2003-07-14 19:00,ZHHH 141900Z 07003MPS CAVOK 25/23 Q1004 NOSIG
ZHHH,2003-07-14 20:00,ZHHH 142000Z 05003MPS CAVOK 24/23 Q1004 NOSIG
ZHHH,2003-07-14 21:00,ZHHH 142100Z 06003MPS CAVOK 24/23 Q1004 NOSIG
ZHHH,2003-07-14 22:00,ZHHH 142200Z 06003MPS CAVOK 24/23 Q1004 NOSIG
ZHHH,2003-07-14 23:00,ZHHH 142300Z 06003MPS CAVOK 25/23 Q1005 NOSIG
ZHHH,2003-07-15 00:00,ZHHH 150000Z 05003MPS CAVOK 26/24 Q1006 NOSIG
ZHHH,2003-07-15 01:00,ZHHH 150100Z 07003MPS 040V100 CAVOK 27/24 Q1005 NOSIG
ZHHH,2003-07-15 02:00,ZHHH 150200Z 09004MPS CAVOK 29/25 Q1005 NOSIG
ZHHH,2003-07-15 03:00,ZHHH 150300Z 09002MPS CAVOK 30/26 Q1005 NOSIG
ZHHH,2003-07-15 04:00,ZHHH 150400Z 15002MPS CAVOK 31/27 Q1004 NOSIG
ZHHH,2003-07-15 05:00,ZHHH 150500Z 14002MPS CAVOK 32/27 Q1004 NOSIG
ZHHH,2003-07-15 06:00,ZHHH 150600Z 00000MPS 5000 HZ FEW018 34/28 Q1004 NOSIG
ZHHH,2003-07-15 07:00,ZHHH 150700Z 27002MPS 4000 HZ FEW018 34/28 Q1003 NOSIG
ZHHH,2003-07-15 08:00,ZHHH 150800Z 23004MPS 200V280 8000 SKC 35/27 Q1003 NOSIG
ZHHH,2003-07-15 09:00,ZHHH 150900Z 33003MPS 300V010 CAVOK 34/28 Q1003 NOSIG
ZHHH,2003-07-15 10:00,ZHHH 151000Z 04005MPS 360V060 CAVOK 32/28 Q1003 NOSIG
ZHHH,2003-07-15 11:00,ZHHH 151100Z 05005MPS CAVOK 30/27 Q1003 NOSIG
ZHHH,2003-07-15 12:00,ZHHH 151200Z 05005MPS 6000 SKC 28/26 Q1004 NOSIG
ZHHH,2003-07-15 13:00,ZHHH 151300Z 06005MPS 6000 SKC 27/25 Q1004 NOSIG
ZHHH,2003-07-15 14:00,ZHHH 151400Z 06004MPS 7000 SKC 26/25 Q1005 NOSIG
ZHHH,2003-07-15 15:00,ZHHH 151500Z 06005MPS 7000 SKC 25/24 Q1005 NOSIG
ZHHH,2003-07-15 16:00,ZHHH 151600Z 07003MPS 7000 SKC 25/24 Q1005 NOSIG
ZHHH,2003-07-15 17:00,ZHHH 151700Z 07004MPS 7000 SKC 25/24 Q1005 NOSIG
ZHHH,2003-07-15 18:00,ZHHH 151800Z 05003MPS 7000 SKC 25/24 Q1004 NOSIG
ZHHH,2003-07-15 19:00,ZHHH 151900Z 07003MPS 7000 SKC 24/23 Q1004 NOSIG
ZHHH,2003-07-15 20:00,ZHHH 152000Z 08002MPS 4000 BR SKC 24/24 Q1004 NOSIG
ZHHH,2003-07-15 21:00,ZHHH 152100Z 08003MPS 3000 BR SKC 24/24 Q1004 NOSIG
ZHHH,2003-07-15 22:00,ZHHH 152200Z 08003MPS 2500 BR NSC 24/24 Q1005 NOSIG
ZHHH,2003-07-15 23:00,ZHHH 152300Z 08003MPS 2500 BR NSC 25/25 Q1005 NOSIG
ZHHH,2003-07-16 00:00,ZHHH 160000Z 11004MPS 2100 BR FEW006 SCT130 26/25 Q1005 NOSIG
ZHHH,2003-07-16 01:00,ZHHH 160100Z 13005MPS 2500 BR NSC 29/27 Q1005 NOSIG
ZHHH,2003-07-16 02:00,ZHHH 160200Z 13004MPS 2800 BR NSC 31/28 Q1005 NOSIG
ZHHH,2003-07-16 03:00,ZHHH 160300Z 16004MPS 130V220 2800 BR NSC 33/28 Q1005 NOSIG
ZHHH,2003-07-16 04:00,ZHHH 160400Z 24006MPS CAVOK 34/27 Q1004 NOSIG
ZHHH,2003-07-16 05:00,ZHHH 160500Z 23006MPS 200V260 CAVOK 35/28 Q1004 NOSIG
ZHHH,2003-07-16 06:00,ZHHH 160600Z 25005MPS CAVOK 35/27 Q1003 NOSIG
ZHHH,2003-07-16 07:00,ZHHH 160700Z 24006MPS CAVOK 35/26 Q1003 NOSIG
ZHHH,2003-07-16 08:00,ZHHH 160800Z 24005MPS CAVOK 36/26 Q1003 NOSIG
ZHHH,2003-07-16 09:00,ZHHH 160900Z 24005MPS 9999 FEW030TCU 35/26 Q1003 NOSIG
ZHHH,2003-07-16 10:00,ZHHH 161000Z 34004MPS 2500 HZ SKC 33/29 Q1003 NOSIG
ZHHH,2003-07-16 11:00,ZHHH 161100Z 34003MPS 320V020 2500 BR NSC 31/28 Q1004 NOSIG
ZHHH,2003-07-16 12:00,ZHHH 161200Z 35003MPS 2500 BR NSC 30/27 Q1004 NOSIG
ZHHH,2003-07-16 13:00,ZHHH 161300Z 35004MPS 2000 BR NSC 29/27 Q1004 NOSIG
ZHHH,2003-07-16 14:00,ZHHH 161400Z 36003MPS 320V030 2500 BR SKC 27/26 Q1005 NOSIG
ZHHH,2003-07-16 15:00,ZHHH 161500Z 01002MPS 3000 BR SKC 27/25 Q1005 NOSIG
ZHHH,2003-07-16 16:00,ZHHH 161600Z 05003MPS 010V070 4000 BR SKC 26/25 Q1005 NOSIG
ZHHH,2003-07-16 17:00,ZHHH 161700Z 05002MPS 3000 BR SKC 25/24 Q1004 NOSIG
ZHHH,2003-07-16 18:00,ZHHH 161800Z 03002MPS 3000 BR SKC 25/24 Q1004 NOSIG
ZHHH,2003-07-16 19:00,ZHHH 161900Z 01001MPS 2000 BR SKC 25/25 Q1003 NOSIG
ZHHH,2003-07-16 20:00,ZHHH 162000Z 33003MPS 2500 BR SKC 25/24 Q1003 NOSIG
ZHHH,2003-07-16 21:00,ZHHH 162100Z 34003MPS 310V010 2500 BR SKC 25/24 Q1003 NOSIG
ZHHH,2003-07-16 22:00,ZHHH 162200Z 03001MPS 3000 BR SKC 25/24 Q1003 NOSIG
ZHHH,2003-07-16 23:00,ZHHH 162300Z 05002MPS 3000 BR SCT004 OVC050 25/24 Q1003 NOSIG
ZHHH,2003-07-17 00:00,ZHHH 170000Z 32003MPS 280V340 2500 BR SCT007 OVC050 25/24 Q1004 NOSIG
ZHHH,2003-07-17 01:00,ZHHH 170100Z 35004MPS 310V010 6000 SCT009 OVC050 25/23 Q1004 NOSIG
ZHHH,2003-07-17 02:00,ZHHH 170200Z 35003MPS 310V020 6000 SCT015 OVC050 25/23 Q1005 NOSIG
ZHHH,2003-07-17 03:00,ZHHH 170300Z 32001MPS 6000 -RA SCT015 OVC060 25/24 Q1005 NOSIG
ZHHH,2003-07-17 04:00,ZHHH 170400Z 30003MPS 9999 -RA SCT010 OVC060 24/24 Q1005 NOSIG
ZHHH,2003-07-17 05:00,ZHHH 170500Z 31004MPS 280V350 9999 -RA SCT006 OVC060 24/24 Q1005 NOSIG
ZHHH,2003-07-17 06:00,ZHHH 170600Z 34004MPS 310V020 9999 FEW020 OVC060 24/24 Q1004 NOSIG
ZHHH,2003-07-17 07:00,ZHHH 170700Z 34002MPS 9999 FEW011 OVC060 24/23 Q1005 NOSIG
ZHHH,2003-07-17 08:00,ZHHH 170800Z 33002MPS 9999 FEW013 OVC060 25/23 Q1004 NOSIG
ZHHH,2003-07-17 09:00,ZHHH 170900Z 32003MPS 9999 SCT020 BKN100 26/24 Q1004 NOSIG
ZHHH,2003-07-17 10:00,ZHHH 171000Z 32002MPS 9999 SCT020 27/24 Q1004 NOSIG
ZHHH,2003-07-17 11:00,ZHHH 171100Z 28001MPS 9999 FEW020 SCT130 26/23 Q1004 NOSIG
ZHHH,2003-07-17 12:00,ZHHH 171200Z 30001MPS CAVOK 25/23 Q1004 NOSIG
ZHHH,2003-07-17 13:00,ZHHH 171300Z 00000MPS CAVOK 25/23 Q1004 NOSIG
ZHHH,2003-07-17 14:00,ZHHH 171400Z 00000MPS CAVOK 24/23 Q1005 NOSIG
ZHHH,2003-07-17 15:00,ZHHH 171500Z 00000MPS CAVOK 24/23 Q1004 NOSIG
ZHHH,2003-07-17 16:00,ZHHH 171600Z 00000MPS CAVOK 24/23 Q1004 NOSIG
ZHHH,2003-07-17 17:00,ZHHH 171700Z 00000MPS CAVOK 24/23 Q1004 NOSIG
ZHHH,2003-07-17 18:00,ZHHH 171800Z 00000MPS 6000 SKC 24/23 Q1004 NOSIG
ZHHH,2003-07-17 19:00,ZHHH 171900Z 05002MPS 3000 BR SKC 23/23 Q1003 NOSIG
ZHHH,2003-07-17 20:00,ZHHH 172000Z 08001MPS 2500 BR SKC 23/23 Q1003 NOSIG
ZHHH,2003-07-17 21:00,ZHHH 172100Z 06001MPS 2000 BR SKC 23/23 Q1003 NOSIG
ZHHH,2003-07-17 22:00,ZHHH 172200Z 04001MPS 1100 R04/1000D BR SKC 23/23 Q1004 NOSIG
ZHHH,2003-07-17 23:00,ZHHH 172300Z 08002MPS 1000 R04/P1500 BR SKC 23/23 Q1004 NOSIG
ZHHH,2003-07-18 00:00,ZHHH 180000Z 07004MPS 3000 BR SCT026 24/24 Q1004 NOSIG
ZHHH,2003-07-18 01:00,ZHHH 180100Z 14002MPS 3000 BR SCT018 26/24 Q1004 NOSIG
ZHHH,2003-07-18 02:00,ZHHH 180200Z 19002MPS 2100 BR FEW020 28/25 Q1003 NOSIG
ZHHH,2003-07-18 03:00,ZHHH 180300Z 16003MPS 120V220 1800 BR FEW020 SCT220 29/26 Q1003 NOSIG
ZHHH,2003-07-18 04:00,ZHHH 180400Z 20004MPS 160V240 3500 BR SKC 30/26 Q1003 NOSIG
ZHHH,2003-07-18 05:00,ZHHH 180500Z 22004MPS 180V250 7000 SKC 31/25 Q1002 NOSIG
ZHHH,2003-07-18 06:00,ZHHH 180600Z 24003MPS 190V300 CAVOK 33/25 Q1002 NOSIG
ZHHH,2003-07-18 07:00,ZHHH 180700Z 24003MPS 190V270 CAVOK 33/25 Q1001 NOSIG
ZHHH,2003-07-18 08:00,ZHHH 180800Z 22003MPS 180V260 CAVOK 33/26 Q1001 NOSIG
ZHHH,2003-07-18 09:00,ZHHH 180900Z 22003MPS 160V270 CAVOK 33/26 Q1000 NOSIG
ZHHH,2003-07-18 10:00,ZHHH 181000Z 19003MPS CAVOK 32/27 Q1000 NOSIG
ZHHH,2003-07-18 11:00,ZHHH 181100Z 20003MPS CAVOK 32/27 Q1000 NOSIG
ZHHH,2003-07-18 12:00,ZHHH 181200Z 21003MPS CAVOK 31/28 Q1000 NOSIG
ZHHH,2003-07-18 13:00,ZHHH 181300Z 18002MPS CAVOK 30/28 Q1001 NOSIG
ZHHH,2003-07-18 14:00,ZHHH 181400Z 14002MPS 4000 NSC 30/28 Q1001 NOSIG
ZHHH,2003-07-18 15:00,ZHHH 181500Z 14002MPS CAVOK 30/27 Q1001 NOSIG
ZHHH,2003-07-18 16:00,ZHHH 181600Z 13002MPS CAVOK 29/27 Q1001 NOSIG
ZHHH,2003-07-18 17:00,ZHHH 181700Z 13002MPS 4000 BR SKC 29/27 Q1001 NOSIG
ZHHH,2003-07-18 18:00,ZHHH 181800Z 11003MPS 3000 BR SKC 28/27 Q1001 NOSIG
ZHHH,2003-07-18 19:00,ZHHH 181900Z 11003MPS 1600 BR SKC 28/27 Q1001 NOSIG
ZHHH,2003-07-18 20:00,ZHHH 182000Z 12003MPS 1300 R04/1300N BR SKC 28/27 Q1000 NOSIG
ZHHH,2003-07-18 21:00,ZHHH 182100Z 13003MPS 1200 R04/1200N BR NSC 28/27 Q1000 NOSIG
ZHHH,2003-07-18 22:00,ZHHH 182200Z 14003MPS 1200 R04/1200N BR NSC 28/27 Q1001 NOSIG
ZHHH,2003-07-18 23:00,ZHHH 182300Z 14003MPS 1200 R04/1200N BR NSC 28/28 Q1001 NOSIG
ZHHH,2003-07-19 00:00,ZHHH 190000Z 13003MPS 1200 R04/1200N BR NSC 30/28 Q1001 NOSIG
ZHHH,2003-07-19 01:00,ZHHH 190100Z 14004MPS 1600 BR NSC 31/28 Q1001 NOSIG
ZHHH,2003-07-19 02:00,ZHHH 190200Z 14004MPS 2000 BR NSC 32/29 Q1001 NOSIG
ZHHH,2003-07-19 03:00,ZHHH 190300Z 14004MPS 2500 BR NSC 33/29 Q1001 NOSIG
ZHHH,2003-07-19 04:00,ZHHH 190400Z 22005MPS CAVOK 34/28 Q1001 NOSIG
ZHHH,2003-07-19 05:00,ZHHH 190500Z 23005MPS CAVOK 35/29 Q1001 NOSIG
ZHHH,2003-07-19 06:00,ZHHH 190600Z 22006MPS CAVOK 34/28 Q1001 NOSIG
ZHHH,2003-07-19 07:00,ZHHH 190700Z 25004MPS CAVOK 34/28 Q1001 NOSIG
ZHHH,2003-07-19 08:00,ZHHH 190800Z 24005MPS CAVOK 33/28 Q1001 NOSIG
ZHHH,2003-07-19 09:00,ZHHH 190900Z 23005MPS CAVOK 32/28 Q1001 NOSIG
ZHHH,2003-07-19 10:00,ZHHH 191000Z 22004MPS 6000 NSC 32/28 Q1001 NOSIG
ZHHH,2003-07-19 11:00,ZHHH 191100Z 23003MPS 6000 NSC 31/28 Q1001 NOSIG
ZHHH,2003-07-19 12:00,ZHHH 191200Z 22003MPS 180V250 6000 NSC 31/28 Q1001 NOSIG
ZHHH,2003-07-19 13:00,ZHHH 191300Z 16002MPS 6000 NSC 30/27 Q1001 NOSIG
ZHHH,2003-07-19 14:00,ZHHH 191400Z 16002MPS 4000 BR NSC 30/28 Q1002 NOSIG
ZHHH,2003-07-19 15:00,ZHHH 191500Z 10002MPS 4000 BR NSC 29/27 Q1003 NOSIG
ZHHH,2003-07-19 16:00,ZHHH 191600Z 12004MPS 4000 BR NSC 28/26 Q1002 NOSIG
ZHHH,2003-07-19 17:00,ZHHH 191700Z 12003MPS 4000 BR NSC 28/26 Q1002 NOSIG
ZHHH,2003-07-19 18:00,ZHHH 191800Z 11003MPS 4000 BR NSC 28/25 Q1002 NOSIG
ZHHH,2003-07-19 19:00,ZHHH 191900Z 09003MPS 4000 BR NSC 27/25 Q1003 NOSIG
ZHHH,2003-07-19 20:00,ZHHH 192000Z 08005MPS 4000 BR NSC 27/25 Q1002 NOSIG
ZHHH,2003-07-19 21:00,ZHHH 192100Z 07005MPS 040V100 CAVOK 26/24 Q1002 NOSIG
ZHHH,2003-07-19 22:00,ZHHH 192200Z 08004MPS CAVOK 25/24 Q1003 NOSIG
ZHHH,2003-07-19 23:00,ZHHH 192300Z 06004MPS CAVOK 25/23 Q1004 NOSIG
ZHHH,2003-07-20 00:00,ZHHH 200000Z 08004MPS 9999 SCT040 OVC100 25/24 Q1004 NOSIG
ZHHH,2003-07-20 01:00,ZHHH 200100Z 09005MPS CAVOK 26/24 Q1004 NOSIG
ZHHH,2003-07-20 02:00,ZHHH 200200Z 09006MPS CAVOK 27/25 Q1004 NOSIG
ZHHH,2003-07-20 03:00,ZHHH 200300Z 10005MPS CAVOK 28/25 Q1004 NOSIG
ZHHH,2003-07-20 04:00,ZHHH 200400Z 11005MPS CAVOK 30/26 Q1004 NOSIG
ZHHH,2003-07-20 05:00,ZHHH 200500Z 13005MPS 100V170 6000 NSC 31/27 Q1003 NOSIG
ZHHH,2003-07-20 06:00,ZHHH 200600Z 14002MPS 6000 NSC 31/27 Q1003 NOSIG
ZHHH,2003-07-20 07:00,ZHHH 200700Z 25002MPS 6000 NSC 32/27 Q1003 NOSIG
ZHHH,2003-07-20 08:00,ZHHH 200800Z 36002MPS 5000 BR NSC 31/28 Q1003 NOSIG
ZHHH,2003-07-20 09:00,ZHHH 200900Z 04003MPS 010V070 5000 BR NSC 30/28 Q1003 NOSIG
ZHHH,2003-07-20 10:00,ZHHH 201000Z 04003MPS CAVOK 29/27 Q1003 NOSIG
ZHHH,2003-07-20 11:00,ZHHH 201100Z 06004MPS CAVOK 28/27 Q1003 NOSIG
ZHHH,2003-07-20 12:00,ZHHH 201200Z 08003MPS CAVOK 28/27 Q1003 NOSIG
ZHHH,2003-07-20 13:00,ZHHH 201300Z 07002MPS CAVOK 28/26 Q1004 NOSIG
ZHHH,2003-07-20 14:00,ZHHH 201400Z 10003MPS CAVOK 27/26 Q1004 NOSIG
ZHHH,2003-07-20 15:00,ZHHH 201500Z 06002MPS CAVOK 27/26 Q1004 NOSIG
ZHHH,2003-07-20 16:00,ZHHH 201600Z 10002MPS CAVOK 27/26 Q1004 NOSIG
ZHHH,2003-07-20 17:00,ZHHH 201700Z 12002MPS CAVOK 27/26 Q1003 NOSIG
ZHHH,2003-07-20 18:00,ZHHH 201800Z 12002MPS 6000 NSC 27/27 Q1002 NOSIG
ZHHH,2003-07-20 19:00,ZHHH 201900Z 12003MPS 4000 BR NSC 27/27 Q1002 NOSIG
ZHHH,2003-07-20 20:00,ZHHH 202000Z 12002MPS 3000 BR NSC 28/28 Q1002 NOSIG
ZHHH,2003-07-20 21:00,ZHHH 202100Z 13003MPS 1500 BR NSC 28/27 Q1002 NOSIG
ZHHH,2003-07-20 22:00,ZHHH 202200Z 12003MPS 1800 BR NSC 28/27 Q1002 NOSIG
ZHHH,2003-07-20 23:00,ZHHH 202300Z 14004MPS 1500 R04/1000N BR NSC 28/27 Q1002 NOSIG
ZHHH,2003-07-21 00:00,ZHHH 210000Z 15003MPS 1800 BR FEW020 OVC080 29/27 Q1003 NOSIG
ZHHH,2003-07-21 01:00,ZHHH 210100Z 16004MPS 2500 BR NSC 30/27 Q1003 NOSIG
ZHHH,2003-07-21 02:00,ZHHH 210200Z 25003MPS 7000 NSC 32/27 Q1003 NOSIG
ZHHH,2003-07-21 03:00,ZHHH 210300Z 27004MPS 240V320 7000 SCT023 BKN120 32/28 Q1003 NOSIG
ZHHH,2003-07-21 04:00,ZHHH 210400Z 28004MPS 5000 BR SCT023 BKN110 30/27 Q1004 NOSIG
ZHHH,2003-07-21 05:00,ZHHH 210500Z 29004MPS 250V330 3000 BR SCT023 OVC110 29/27 Q1004 NOSIG
ZHHH,2003-07-21 06:00,ZHHH 210600Z 32004MPS 3000 BR NSC 29/27 Q1003 NOSIG
ZHHH,2003-07-21 07:00,ZHHH 210700Z 33004MPS 300V360 7000 NSC 29/26 Q1003 NOSIG
ZHHH,2003-07-21 08:00,ZHHH 210800Z 35002MPS 7000 NSC 29/26 Q1003 NOSIG
ZHHH,2003-07-21 09:00,ZHHH 210900Z 36002MPS CAVOK 28/26 Q1003 NOSIG
ZHHH,2003-07-21 10:00,ZHHH 211000Z 35002MPS CAVOK 28/26 Q1003 NOSIG
ZHHH,2003-07-21 11:00,ZHHH 211100Z 36001MPS CAVOK 28/26 Q1004 NOSIG
ZHHH,2003-07-21 12:00,ZHHH 211200Z 07001MPS 9999 SCT040 OVC120 27/26 Q1004 NOSIG
ZHHH,2003-07-21 13:00,ZHHH 211300Z 15001MPS 9999 SCT020 SCT040 OVC100 27/26 Q1005 NOSIG
ZHHH,2003-07-21 14:00,ZHHH 211400Z 20002MPS 7000 FEW020 SCT040 OVC100 27/26 Q1006 NOSIG
ZHHH,2003-07-21 15:00,ZHHH 211500Z 27002MPS 6000 FEW020 SCT040 OVC100 27/26 Q1006 NOSIG
ZHHH,2003-07-21 16:00,ZHHH 211600Z 30003MPS 6000 FEW020 SCT040 OVC100 27/25 Q1006 NOSIG
ZHHH,2003-07-21 17:00,ZHHH 211700Z 29003MPS 260V320 3000 -RA BR FEW010 FEW030TCU OVC040 25/25 Q1006 RERA NOSIG
ZHHH,2003-07-21 18:00,ZHHH 211800Z 31003MPS 3000 BR SCT020 OVC040 26/25 Q1006 NOSIG
ZHHH,2003-07-21 19:00,ZHHH 211900Z 29002MPS 3000 BR SCT020 OVC040 26/25 Q1006 NOSIG
ZHHH,2003-07-21 20:00,ZHHH 212000Z 29003MPS 250V340 3000 BR SCT020 OVC050 26/25 Q1006 NOSIG
ZHHH,2003-07-21 21:00,ZHHH 212100Z 31002MPS 2600 BR SCT020 OVC040 25/25 Q1007 NOSIG
ZHHH,2003-07-21 22:00,ZHHH 212200Z 32002MPS 2600 BR NSC 25/25 Q1007 NOSIG
ZHHH,2003-07-21 23:00,ZHHH 212300Z 31002MPS 5000 BR SCT012 BKN090 26/25 Q1007 NOSIG
ZHHH,2003-07-22 00:00,ZHHH 220000Z 33002MPS 9999 SCT012 BKN040 BKN090 26/25 Q1008 NOSIG
ZHHH,2003-07-22 01:00,ZHHH 220100Z 35003MPS 310V030 9999 SCT011 BKN030 BKN120 27/25 Q1008 NOSIG
ZHHH,2003-07-22 02:00,ZHHH 220200Z 33002MPS 9999 SCT020 BKN120 28/25 Q1008 NOSIG
ZHHH,2003-07-22 03:00,ZHHH 220300Z 30002MPS 9999 FEW025 BKN150 29/25 Q1008 NOSIG
ZHHH,2003-07-22 04:00,ZHHH 220400Z 30002MPS 9999 FEW025 BKN150 29/25 Q1008 NOSIG
ZHHH,2003-07-22 05:00,ZHHH 220500Z 28003MPS 250V360 9999 FEW025 BKN150 31/24 Q1008 NOSIG
ZHHH,2003-07-22 06:00,ZHHH 220600Z 31003MPS 260V040 CAVOK 31/25 Q1007 NOSIG
ZHHH,2003-07-22 07:00,ZHHH 220700Z 27002MPS CAVOK 31/25 Q1007 NOSIG
ZHHH,2003-07-22 08:00,ZHHH 220800Z 26002MPS CAVOK 31/25 Q1007 NOSIG
ZHHH,2003-07-22 09:00,ZHHH 220900Z 26002MPS CAVOK 30/25 Q1007 NOSIG
ZHHH,2003-07-22 11:00,ZHHH 221100Z 34001MPS CAVOK 30/25 Q1007 NOSIG
ZHHH,2003-07-22 12:00,ZHHH 221200Z 00000MPS CAVOK 29/26 Q1007 NOSIG
ZHHH,2003-07-22 13:00,ZHHH 221300Z 04002MPS CAVOK 29/25 Q1007 NOSIG
ZHHH,2003-07-22 14:00,ZHHH 221400Z 06001MPS CAVOK 28/26 Q1007 NOSIG
ZHHH,2003-07-22 15:00,ZHHH 221500Z 05002MPS CAVOK 28/25 Q1007 NOSIG
ZHHH,2003-07-22 16:00,ZHHH 221600Z 10001MPS CAVOK 27/25 Q1007 NOSIG
ZHHH,2003-07-22 17:00,ZHHH 221700Z 08001MPS CAVOK 27/25 Q1007 NOSIG
ZHHH,2003-07-22 18:00,ZHHH 221800Z 05002MPS CAVOK 26/25 Q1007 NOSIG
ZHHH,2003-07-22 19:00,ZHHH 221900Z 06002MPS 6000 SKC 26/25 Q1007 NOSIG
ZHHH,2003-07-22 20:00,ZHHH 222000Z 08002MPS 6000 SKC 26/25 Q1007 NOSIG
ZHHH,2003-07-22 21:00,ZHHH 222100Z 07002MPS 4000 BR SKC 26/25 Q1007 NOSIG
ZHHH,2003-07-22 22:00,ZHHH 222200Z 06002MPS 4000 BR SKC 25/25 Q1007 NOSIG
ZHHH,2003-07-22 23:00,ZHHH 222300Z 08002MPS 1200 R04/1000N BR BKN003 26/26 Q1007 NOSIG
ZHHH,2003-07-23 00:00,ZHHH 230000Z 10003MPS 1400 R04/1200N BR SCT003 27/27 Q1007 NOSIG
ZHHH,2003-07-23 01:00,ZHHH 230100Z 13004MPS 1800 BR SCT015 29/27 Q1007 NOSIG
ZHHH,2003-07-23 02:00,ZHHH 230200Z 15003MPS 110V170 2500 BR SKC 31/27 Q1007 NOSIG
ZHHH,2003-07-23 03:00,ZHHH 230300Z 15002MPS 3000 BR SKC 32/27 Q1007 NOSIG
ZHHH,2003-07-23 04:00,ZHHH 230400Z 14002MPS CAVOK 33/27 Q1006 NOSIG
ZHHH,2003-07-23 05:00,ZHHH 230500Z 15002MPS CAVOK 34/27 Q1006 NOSIG
ZHHH,2003-07-23 06:00,ZHHH 230600Z 16002MPS CAVOK 35/27 Q1005 NOSIG
ZHHH,2003-07-23 07:00,ZHHH 230700Z 31002MPS CAVOK 36/28 Q1005 NOSIG
ZHHH,2003-07-23 08:00,ZHHH 230800Z 00000MPS CAVOK 35/27 Q1004 NOSIG
ZHHH,2003-07-23 09:00,ZHHH 230900Z 13002MPS CAVOK 35/27 Q1004 NOSIG
ZHHH,2003-07-23 10:00,ZHHH 231000Z 11003MPS CAVOK 34/28 Q1004 NOSIG
ZHHH,2003-07-23 11:00,ZHHH 231100Z 11002MPS CAVOK 34/28 Q1004 NOSIG
ZHHH,2003-07-23 12:00,ZHHH 231200Z 06002MPS 5000 BR SKC 33/28 Q1004 NOSIG
ZHHH,2003-07-23 13:00,ZHHH 231300Z 08001MPS 3000 BR SKC 32/28 Q1005 NOSIG
ZHHH,2003-07-23 14:00,ZHHH 231400Z 00000MPS 3000 BR SKC 32/27 Q1005 NOSIG
ZHHH,2003-07-23 15:00,ZHHH 231500Z 00000MPS 1600 BR SKC 31/27 Q1005 NOSIG
ZHHH,2003-07-23 16:00,ZHHH 231600Z 00000MPS 1600 BR SKC 31/27 Q1005 NOSIG
ZHHH,2003-07-23 17:00,ZHHH 231700Z 00000MPS 1600 BR SKC 30/27 Q1004 NOSIG
ZHHH,2003-07-23 18:00,ZHHH 231800Z 05002MPS 1600 BR SKC 29/27 Q1004 NOSIG
ZHHH,2003-07-23 19:00,ZHHH 231900Z 08002MPS 2800 BR SKC 28/27 Q1004 NOSIG
ZHHH,2003-07-23 20:00,ZHHH 232000Z 08002MPS 2300 BR SKC 28/27 Q1004 NOSIG
ZHHH,2003-07-23 21:00,ZHHH 232100Z 08002MPS 2000 BR SKC 28/27 Q1004 NOSIG
ZHHH,2003-07-23 22:00,ZHHH 232200Z 07003MPS 2000 BR NSC 27/27 Q1005 NOSIG
ZHHH,2003-07-23 23:00,ZHHH 232300Z 08002MPS 2400 BR SKC 28/27 Q1005 NOSIG
ZHHH,2003-07-24 00:00,ZHHH 240000Z 08003MPS 4000 BR SKC 30/28 Q1006 NOSIG
ZHHH,2003-07-24 01:00,ZHHH 240100Z 10003MPS 070V130 6000 NSC 31/29 Q1006 NOSIG
ZHHH,2003-07-24 02:00,ZHHH 240200Z 11004MPS 080V140 CAVOK 33/29 Q1005 NOSIG
ZHHH,2003-07-24 03:00,ZHHH 240300Z 14004MPS CAVOK 34/29 Q1005 NOSIG
ZHHH,2003-07-24 04:00,ZHHH 240400Z 14004MPS 110V170 CAVOK 36/29 Q1005 NOSIG
ZHHH,2003-07-24 05:00,ZHHH 240500Z 15004MPS 9999 SCT023 SCT150 36/30 Q1005 NOSIG
ZHHH,2003-07-24 06:00,ZHHH 240600Z 21004MPS 170V230 9999 SCT023 SCT150 38/27 Q1004 NOSIG
ZHHH,2003-07-24 07:00,ZHHH 240700Z 23005MPS 9999 SCT023 SCT230 38/28 Q1004 NOSIG
ZHHH,2003-07-24 08:00,ZHHH 240800Z 23005MPS 200V260 9999 FEW030TCU SCT230 38/27 Q1004 NOSIG
ZHHH,2003-07-24 09:00,ZHHH 240900Z 22003MPS 180V250 9999 FEW023 FEW030TCU SCT230 38/25 Q1003 NOSIG
ZHHH,2003-07-24 10:00,ZHHH 241000Z 17001MPS 9999 FEW023 FEW030TCU SCT230 37/26 Q1003 NOSIG
ZHHH,2003-07-24 11:00,ZHHH 241100Z 11002MPS 9999 FEW030TCU SCT230 35/29 Q1004 NOSIG
ZHHH,2003-07-24 12:00,ZHHH 241200Z 12003MPS 9999 FEW030TCU SCT230 34/30 Q1004 NOSIG
ZHHH,2003-07-24 13:00,ZHHH 241300Z AUTO 12006KT 7SM 31/29 A2965 RMK SLP043 T03100290 IEM_DS3505
ZHHH,2003-07-24 14:00,ZHHH 241400Z 06003MPS 9999 FEW030TCU SCT230 31/28 Q1005 NOSIG
ZHHH,2003-07-24 15:00,ZHHH 241500Z 12003MPS CAVOK 31/29 Q1005 NOSIG
ZHHH,2003-07-24 16:00,ZHHH 241600Z 11003MPS CAVOK 31/29 Q1005 NOSIG
ZHHH,2003-07-24 17:00,ZHHH 241700Z 13002MPS CAVOK 31/29 Q1005 NOSIG
ZHHH,2003-07-24 18:00,ZHHH 241800Z 12002MPS CAVOK 31/28 Q1005 NOSIG
ZHHH,2003-07-24 19:00,ZHHH 241900Z 13003MPS CAVOK 31/28 Q1005 NOSIG
ZHHH,2003-07-24 20:00,ZHHH 242000Z 13002MPS CAVOK 30/28 Q1005 NOSIG
ZHHH,2003-07-24 21:00,ZHHH 242100Z 16002MPS CAVOK 31/25 Q1005 NOSIG
ZHHH,2003-07-24 22:00,ZHHH 242200Z 12002MPS CAVOK 30/27 Q1005 NOSIG
ZHHH,2003-07-24 23:00,ZHHH 242300Z 15001MPS CAVOK 31/25 Q1006 NOSIG
ZHHH,2003-07-25 00:00,ZHHH 250000Z 18002MPS 9999 FEW020 FEW030TCU BKN230 31/25 Q1006 NOSIG
ZHHH,2003-07-25 01:00,ZHHH 250100Z 18003MPS CAVOK 32/25 Q1007 NOSIG
ZHHH,2003-07-25 02:00,ZHHH 250200Z 19004MPS CAVOK 32/25 Q1008 NOSIG
ZHHH,2003-07-25 03:00,ZHHH 250300Z 18004MPS CAVOK 34/26 Q1008 NOSIG
ZHHH,2003-07-25 04:00,ZHHH 250400Z 19005MPS 160V220 CAVOK 36/25 Q1008 NOSIG
ZHHH,2003-07-25 05:00,ZHHH 250500Z 21005MPS 180V240 CAVOK 36/25 Q1008 NOSIG
ZHHH,2003-07-25 06:00,ZHHH 250600Z 23005MPS 200V260 CAVOK 36/25 Q1008 NOSIG
ZHHH,2003-07-25 07:00,ZHHH 250700Z AUTO 22010KT 6SM 37/24 A2974 RMK SLP072 T03700240 IEM_DS3505
ZHHH,2003-07-25 08:00,ZHHH 250800Z 20005MPS 170V230 CAVOK 35/25 Q1007 NOSIG
ZHHH,2003-07-25 09:00,ZHHH 250900Z 21004MPS 180V240 CAVOK 36/25 Q1007 NOSIG
ZHHH,2003-07-25 10:00,ZHHH 251000Z 26002MPS CAVOK 35/25 Q1007 NOSIG
ZHHH,2003-07-25 11:00,ZHHH 251100Z 14002MPS CAVOK 34/27 Q1007 NOSIG
ZHHH,2003-07-25 12:00,ZHHH 251200Z 15001MPS CAVOK 33/27 Q1007 NOSIG
ZHHH,2003-07-25 13:00,ZHHH 251300Z 00000MPS CAVOK 32/28 Q1008 NOSIG
ZHHH,2003-07-25 14:00,ZHHH 251400Z 12001MPS CAVOK 32/28 Q1008 NOSIG
ZHHH,2003-07-25 15:00,ZHHH 251500Z 00000MPS CAVOK 32/28 Q1008 NOSIG
ZHHH,2003-07-25 16:00,ZHHH 251600Z AUTO 13004KT 6SM 31/28 A2977 RMK SLP083 T03100280 IEM_DS3505
ZHHH,2003-07-25 17:00,ZHHH 251700Z 17001MPS CAVOK 31/28 Q1007 NOSIG
ZHHH,2003-07-25 18:00,ZHHH 251800Z 00000MPS CAVOK 31/28 Q1007 NOSIG
ZHHH,2003-07-25 19:00,ZHHH 251900Z 21002MPS CAVOK 31/28 Q1007 NOSIG
ZHHH,2003-07-25 20:00,ZHHH 252000Z 00000MPS CAVOK 30/28 Q1007 NOSIG
ZHHH,2003-07-25 21:00,ZHHH 252100Z 10002MPS CAVOK 30/28 Q1008 NOSIG
ZHHH,2003-07-25 22:00,ZHHH 252200Z 12002MPS CAVOK 30/28 Q1008 NOSIG
ZHHH,2003-07-25 23:00,ZHHH 252300Z 14002MPS CAVOK 30/28 Q1008 NOSIG
ZHHH,2003-07-26 00:00,ZHHH 260000Z 16003MPS CAVOK 31/28 Q1009 NOSIG
ZHHH,2003-07-26 01:00,ZHHH 260100Z 20005MPS CAVOK 33/26 Q1009 NOSIG
ZHHH,2003-07-26 02:00,ZHHH 260200Z 23007MPS CAVOK 33/26 Q1009 NOSIG
ZHHH,2003-07-26 03:00,ZHHH 260300Z 22007MPS CAVOK 34/26 Q1009 NOSIG
ZHHH,2003-07-26 04:00,ZHHH 260400Z 22007MPS CAVOK 34/26 Q1009 NOSIG
ZHHH,2003-07-26 05:00,ZHHH 260500Z 22007MPS CAVOK 34/26 Q1008 NOSIG
ZHHH,2003-07-26 06:00,ZHHH 260600Z 23007MPS CAVOK 36/26 Q1008 NOSIG
ZHHH,2003-07-26 07:00,ZHHH 260700Z 23008MPS CAVOK 36/25 Q1007 NOSIG
ZHHH,2003-07-26 08:00,ZHHH 260800Z 24007MPS CAVOK 35/26 Q1007 NOSIG
ZHHH,2003-07-26 09:00,ZHHH 260900Z 24005MPS CAVOK 35/26 Q1006 NOSIG
ZHHH,2003-07-26 10:00,ZHHH 261000Z 24005MPS CAVOK 35/26 Q1006 NOSIG
ZHHH,2003-07-26 11:00,ZHHH 261100Z 23005MPS CAVOK 33/26 Q1006 NOSIG
ZHHH,2003-07-26 12:00,ZHHH 261200Z 21003MPS CAVOK 32/27 Q1007 NOSIG
ZHHH,2003-07-26 13:00,ZHHH 261300Z 18003MPS CAVOK 32/27 Q1007 NOSIG
ZHHH,2003-07-26 14:00,ZHHH 261400Z 19002MPS CAVOK 32/26 Q1008 NOSIG
ZHHH,2003-07-26 15:00,ZHHH 261500Z 22003MPS CAVOK 32/27 Q1008 NOSIG
ZHHH,2003-07-26 16:00,ZHHH 261600Z 18002MPS CAVOK 31/27 Q1007 NOSIG
ZHHH,2003-07-26 17:00,ZHHH 261700Z 21002MPS CAVOK 30/27 Q1007 NOSIG
ZHHH,2003-07-26 18:00,ZHHH 261800Z 18003MPS CAVOK 30/27 Q1007 NOSIG
ZHHH,2003-07-26 21:00,ZHHH 262100Z 19003MPS CAVOK 30/27 Q1006 NOSIG
ZHHH,2003-07-26 22:00,ZHHH 262200Z 21004MPS CAVOK 30/26 Q1006 NOSIG
ZHHH,2003-07-26 23:00,ZHHH 262300Z 21005MPS CAVOK 30/26 Q1007 NOSIG
ZHHH,2003-07-27 00:00,ZHHH 270000Z 22005MPS CAVOK 32/26 Q1007 NOSIG
ZHHH,2003-07-27 01:00,ZHHH 270100Z 22007MPS CAVOK 33/26 Q1007 NOSIG
ZHHH,2003-07-27 02:00,ZHHH 270200Z 23007MPS CAVOK 34/27 Q1007 NOSIG
ZHHH,2003-07-27 03:00,ZHHH 270300Z AUTO 20004KT 14SM 35/25 A2973 RMK SLP071 T03510249 52001 IEM_DS3505
ZHHH,2003-07-27 04:00,ZHHH 270400Z 22007MPS CAVOK 35/27 Q1007 NOSIG
ZHHH,2003-07-27 05:00,ZHHH 270500Z 24007MPS CAVOK 36/26 Q1006 NOSIG
ZHHH,2003-07-27 06:00,ZHHH 270600Z 22007MPS CAVOK 36/27 Q1006 NOSIG
ZHHH,2003-07-27 07:00,ZHHH 270700Z 22007MPS CAVOK 37/26 Q1005 NOSIG
ZHHH,2003-07-27 08:00,ZHHH 270800Z 22007MPS CAVOK 36/27 Q1004 NOSIG
ZHHH,2003-07-27 09:00,ZHHH 270900Z 22006MPS CAVOK 36/26 Q1004 NOSIG
ZHHH,2003-07-27 10:00,ZHHH 271000Z 24006MPS CAVOK 35/26 Q1003 NOSIG
ZHHH,2003-07-27 11:00,ZHHH 271100Z 23005MPS CAVOK 34/26 Q1003 NOSIG
ZHHH,2003-07-27 12:00,ZHHH 271200Z 22004MPS CAVOK 33/26 Q1003 NOSIG
ZHHH,2003-07-27 13:00,ZHHH 271300Z 20003MPS CAVOK 32/27 Q1004 NOSIG
ZHHH,2003-07-27 14:00,ZHHH 271400Z 22004MPS CAVOK 32/27 Q1005 NOSIG
ZHHH,2003-07-27 15:00,ZHHH 271500Z 21003MPS CAVOK 32/27 Q1005 NOSIG
ZHHH,2003-07-27 16:00,ZHHH 271600Z 20003MPS CAVOK 31/27 Q1005 NOSIG
ZHHH,2003-07-27 17:00,ZHHH 271700Z 20003MPS CAVOK 31/27 Q1005 NOSIG
ZHHH,2003-07-27 18:00,ZHHH 271800Z 18003MPS CAVOK 31/27 Q1004 NOSIG
ZHHH,2003-07-27 19:00,ZHHH 271900Z 18003MPS CAVOK 31/27 Q1004 NOSIG
ZHHH,2003-07-27 20:00,ZHHH 272000Z 18003MPS CAVOK 30/27 Q1003 NOSIG
ZHHH,2003-07-27 21:00,ZHHH 272100Z 19003MPS CAVOK 30/27 Q1004 NOSIG
ZHHH,2003-07-27 22:00,ZHHH 272200Z 18002MPS CAVOK 30/27 Q1004 NOSIG
ZHHH,2003-07-27 23:00,ZHHH 272300Z 20003MPS 160V220 CAVOK 31/27 Q1005 NOSIG
ZHHH,2003-07-28 00:00,ZHHH 280000Z 21004MPS CAVOK 32/27 Q1005 NOSIG
ZHHH,2003-07-28 01:00,ZHHH 280100Z 22005MPS CAVOK 34/27 Q1005 NOSIG
ZHHH,2003-07-28 02:00,ZHHH 280200Z 22007MPS CAVOK 35/27 Q1005 NOSIG
ZHHH,2003-07-28 03:00,ZHHH 280300Z AUTO 27006KT 11SM 36/25 A2968 RMK SLP052 T03580247 52001 IEM_DS3505
ZHHH,2003-07-28 04:00,ZHHH 280400Z AUTO 24014KT 6SM 36/26 A2968 RMK SLP053 T03600260 IEM_DS3505
ZHHH,2003-07-28 05:00,ZHHH 280500Z AUTO 24017KT 6SM 36/26 A2965 RMK SLP042 T03600260 IEM_DS3505
ZHHH,2003-07-28 06:00,ZHHH 280600Z 24006MPS CAVOK 37/26 Q1004 NOSIG
ZHHH,2003-07-28 07:00,ZHHH 280700Z 22008MPS CAVOK 37/26 Q1004 NOSIG
ZHHH,2003-07-28 08:00,ZHHH 280800Z 22008MPS CAVOK 37/26 Q1003 NOSIG
ZHHH,2003-07-28 09:00,ZHHH 280900Z 23006MPS CAVOK 37/26 Q1003 NOSIG
ZHHH,2003-07-28 10:00,ZHHH 281000Z 23006MPS CAVOK 36/25 Q1003 NOSIG
ZHHH,2003-07-28 11:00,ZHHH 281100Z 24004MPS CAVOK 34/26 Q1003 NOSIG
ZHHH,2003-07-28 12:00,ZHHH 281200Z 23003MPS CAVOK 33/27 Q1003 NOSIG
ZHHH,2003-07-28 13:00,ZHHH 281300Z 21003MPS CAVOK 32/27 Q1004 NOSIG
ZHHH,2003-07-28 14:00,ZHHH 281400Z 21004MPS CAVOK 32/27 Q1004 NOSIG
ZHHH,2003-07-28 15:00,ZHHH 281500Z 18003MPS CAVOK 31/27 Q1005 NOSIG
ZHHH,2003-07-28 16:00,ZHHH 281600Z 16002MPS CAVOK 31/27 Q1004 NOSIG
ZHHH,2003-07-28 17:00,ZHHH 281700Z 00000MPS CAVOK 31/27 Q1004 NOSIG
ZHHH,2003-07-28 18:00,ZHHH 281800Z 00000MPS CAVOK 31/27 Q1004 NOSIG
ZHHH,2003-07-28 19:00,ZHHH 281900Z 18003MPS CAVOK 30/27 Q1004 NOSIG
ZHHH,2003-07-28 20:00,ZHHH 282000Z 18003MPS CAVOK 30/27 Q1004 NOSIG
ZHHH,2003-07-28 21:00,ZHHH 282100Z 17003MPS CAVOK 30/27 Q1004 NOSIG
ZHHH,2003-07-28 22:00,ZHHH 282200Z 16002MPS CAVOK 30/26 Q1004 NOSIG
ZHHH,2003-07-28 23:00,ZHHH 282300Z 00000MPS CAVOK 31/26 Q1004 NOSIG
ZHHH,2003-07-29 00:00,ZHHH 290000Z 22004MPS CAVOK 32/27 Q1005 NOSIG
ZHHH,2003-07-29 01:00,ZHHH 290100Z 23005MPS CAVOK 34/26 Q1005 NOSIG
ZHHH,2003-07-29 02:00,ZHHH 290200Z 26004MPS CAVOK 35/27 Q1005 NOSIG
ZHHH,2003-07-29 03:00,ZHHH 290300Z 25004MPS CAVOK 36/27 Q1005 NOSIG
ZHHH,2003-07-29 04:00,ZHHH 290400Z 23004MPS 200V260 CAVOK 37/27 Q1005 NOSIG
ZHHH,2003-07-29 05:00,ZHHH 290500Z 23004MPS 200V260 CAVOK 37/27 Q1004 NOSIG
ZHHH,2003-07-29 06:00,ZHHH 290600Z 25004MPS CAVOK 38/26 Q1004 NOSIG
ZHHH,2003-07-29 07:00,ZHHH 290700Z 24004MPS 200V260 CAVOK 38/24 Q1003 NOSIG
ZHHH,2003-07-29 08:00,ZHHH 290800Z 25004MPS CAVOK 38/25 Q1003 NOSIG
ZHHH,2003-07-29 09:00,ZHHH 290900Z 25004MPS 9999 FEW030TCU SCT250 38/26 Q1002 NOSIG
ZHHH,2003-07-29 10:00,ZHHH 291000Z 23003MPS 200V270 CAVOK 37/26 Q1002 NOSIG
ZHHH,2003-07-29 11:00,ZHHH 291100Z 24004MPS CAVOK 35/27 Q1002 NOSIG
ZHHH,2003-07-29 12:00,ZHHH 291200Z 20003MPS CAVOK 33/27 Q1003 NOSIG
ZHHH,2003-07-29 13:00,ZHHH 291300Z 21004MPS CAVOK 33/26 Q1003 NOSIG
ZHHH,2003-07-29 14:00,ZHHH 291400Z 19003MPS CAVOK 33/27 Q1004 NOSIG
ZHHH,2003-07-29 15:00,ZHHH 291500Z 19004MPS CAVOK 32/27 Q1003 NOSIG
ZHHH,2003-07-29 16:00,ZHHH 291600Z 20003MPS CAVOK 31/27 Q1003 NOSIG
ZHHH,2003-07-29 17:00,ZHHH 291700Z 25002MPS CAVOK 32/27 Q1002 NOSIG
ZHHH,2003-07-29 18:00,ZHHH 291800Z 15002MPS CAVOK 31/27 Q1002 NOSIG
ZHHH,2003-07-29 19:00,ZHHH 291900Z 09001MPS CAVOK 31/26 Q1002 NOSIG
ZHHH,2003-07-29 20:00,ZHHH 292000Z 13002MPS CAVOK 31/28 Q1002 NOSIG
ZHHH,2003-07-29 21:00,ZHHH 292100Z 09002MPS CAVOK 30/27 Q1002 NOSIG
ZHHH,2003-07-29 22:00,ZHHH 292200Z 10002MPS CAVOK 30/27 Q1002 NOSIG
ZHHH,2003-07-29 23:00,ZHHH 292300Z 11002MPS CAVOK 30/28 Q1003 NOSIG
ZHHH,2003-07-30 00:00,ZHHH 300000Z 10002MPS CAVOK 32/29 Q1003 NOSIG
ZHHH,2003-07-30 01:00,ZHHH 300100Z 14003MPS 6000 NSC 34/29 Q1003 NOSIG
ZHHH,2003-07-30 02:00,ZHHH 300200Z 20004MPS 170V230 CAVOK 35/27 Q1003 NOSIG
ZHHH,2003-07-30 03:00,ZHHH 300300Z 19004MPS 160V230 CAVOK 36/27 Q1003 NOSIG
ZHHH,2003-07-30 04:00,ZHHH 300400Z 20004MPS 160V240 CAVOK 36/27 Q1003 NOSIG
ZHHH,2003-07-30 05:00,ZHHH 300500Z 19005MPS CAVOK 37/27 Q1002 NOSIG
ZHHH,2003-07-30 06:00,ZHHH 300600Z 20006MPS 170V230 CAVOK 38/26 Q1001 NOSIG
ZHHH,2003-07-30 07:00,ZHHH 300700Z 20006MPS CAVOK 38/25 Q1001 NOSIG
ZHHH,2003-07-30 08:00,ZHHH 300800Z 21006MPS 180V240 CAVOK 39/25 Q1000 NOSIG
ZHHH,2003-07-30 09:00,ZHHH 300900Z 25004MPS CAVOK 38/25 Q1000 NOSIG
ZHHH,2003-07-30 10:00,ZHHH 301000Z 26003MPS CAVOK 37/25 Q1000 NOSIG
ZHHH,2003-07-30 11:00,ZHHH 301100Z 25003MPS CAVOK 36/27 Q1000 NOSIG
ZHHH,2003-07-30 12:00,ZHHH 301200Z 23003MPS CAVOK 35/26 Q1000 NOSIG
ZHHH,2003-07-30 13:00,ZHHH 301300Z 16003MPS 110V200 CAVOK 34/26 Q1001 NOSIG
ZHHH,2003-07-30 14:00,ZHHH 301400Z 00000MPS CAVOK 33/28 Q1001 NOSIG
ZHHH,2003-07-30 15:00,ZHHH 301500Z 15001MPS CAVOK 34/28 Q1001 NOSIG
ZHHH,2003-07-30 16:00,ZHHH 301600Z 09001MPS CAVOK 33/27 Q1001 NOSIG
ZHHH,2003-07-30 17:00,ZHHH 301700Z 00000MPS CAVOK 33/28 Q1001 NOSIG
ZHHH,2003-07-30 18:00,ZHHH 301800Z 15002MPS CAVOK 33/28 Q1000 NOSIG
ZHHH,2003-07-30 19:00,ZHHH 301900Z 16003MPS CAVOK 32/28 Q1000 NOSIG
ZHHH,2003-07-30 20:00,ZHHH 302000Z 15002MPS CAVOK 32/28 Q1000 NOSIG
ZHHH,2003-07-30 21:00,ZHHH 302100Z 12002MPS CAVOK 31/28 Q1000 NOSIG
ZHHH,2003-07-30 22:00,ZHHH 302200Z 13002MPS 6000 NSC 31/29 Q1001 NOSIG
ZHHH,2003-07-30 23:00,ZHHH 302300Z 16002MPS CAVOK 32/28 Q1001 NOSIG
ZHHH,2003-07-31 00:00,ZHHH 310000Z 19004MPS 160V220 CAVOK 33/28 Q1002 NOSIG
ZHHH,2003-07-31 01:00,ZHHH 310100Z 21006MPS CAVOK 35/26 Q1002 NOSIG
ZHHH,2003-07-31 02:00,ZHHH 310200Z 22007MPS CAVOK 36/26 Q1002 NOSIG
ZHHH,2003-07-31 03:00,ZHHH 310300Z 23006MPS CAVOK 37/26 Q1002 NOSIG
ZHHH,2003-07-31 04:00,ZHHH 310400Z 25006MPS CAVOK 37/26 Q1001 NOSIG
ZHHH,2003-07-31 05:00,ZHHH 310500Z 25005MPS CAVOK 38/27 Q1001 NOSIG
ZHHH,2003-07-31 06:00,ZHHH 310600Z 23006MPS CAVOK 38/26 Q1001 NOSIG
ZHHH,2003-07-31 07:00,ZHHH 310700Z 24007MPS CAVOK 39/25 Q1000 NOSIG
ZHHH,2003-07-31 08:00,ZHHH 310800Z 23006MPS CAVOK 39/26 Q1000 NOSIG
ZHHH,2003-07-31 09:00,ZHHH 310900Z 25004MPS CAVOK 38/26 Q0999 NOSIG
ZHHH,2003-07-31 10:00,ZHHH 311000Z 25003MPS CAVOK 37/26 Q0999 NOSIG
ZHHH,2003-07-31 11:00,ZHHH 311100Z 26002MPS CAVOK 36/26 Q1000 NOSIG
ZHHH,2003-07-31 12:00,ZHHH 311200Z 25001MPS CAVOK 34/27 Q1000 NOSIG
ZHHH,2003-07-31 13:00,ZHHH 311300Z 27001MPS CAVOK 34/26 Q1001 NOSIG
ZHHH,2003-07-31 14:00,ZHHH 311400Z 31001MPS CAVOK 34/26 Q1001 NOSIG
ZHHH,2003-07-31 15:00,ZHHH 311500Z 00000MPS CAVOK 34/27 Q1001 NOSIG
ZHHH,2003-07-31 16:00,ZHHH 311600Z 10001MPS CAVOK 33/27 Q1001 NOSIG
ZHHH,2003-07-31 17:00,ZHHH 311700Z 00000MPS CAVOK 33/27 Q1000 NOSIG
ZHHH,2003-07-31 18:00,ZHHH 311800Z 12002MPS CAVOK 32/28 Q1000 NOSIG
ZHHH,2003-07-31 19:00,ZHHH 311900Z 14003MPS CAVOK 32/29 Q1000 NOSIG
ZHHH,2003-07-31 20:00,ZHHH 312000Z 14002MPS CAVOK 32/29 Q1000 NOSIG
ZHHH,2003-07-31 21:00,ZHHH 312100Z 12002MPS CAVOK 31/29 Q1000 NOSIG
ZHHH,2003-07-31 22:00,ZHHH 312200Z 12002MPS CAVOK 31/29 Q1001 NOSIG
ZHHH,2003-07-31 23:00,ZHHH 312300Z 00000MPS CAVOK 32/29 Q1001 NOSIG
ZHHH,2003-08-01 00:00,ZHHH 010000Z 14002MPS CAVOK 33/29 Q1001 NOSIG
ZHHH,2003-08-01 01:00,ZHHH 010100Z 19005MPS CAVOK 36/28 Q1001 NOSIG
ZHHH,2003-08-01 02:00,ZHHH 010200Z 21006MPS 180V240 CAVOK 37/27 Q1001 NOSIG
ZHHH,2003-08-01 03:00,ZHHH 010300Z 23007MPS CAVOK 38/26 Q1001 NOSIG
ZHHH,2003-08-01 04:00,ZHHH 010400Z 25005MPS 210V270 CAVOK 38/26 Q1001 NOSIG
ZHHH,2003-08-01 05:00,ZHHH 010500Z 25005MPS CAVOK 39/26 Q1001 NOSIG
ZHHH,2003-08-01 06:00,ZHHH 010600Z 26005MPS CAVOK 39/27 Q1000 NOSIG
ZHHH,2003-08-01 07:00,ZHHH 010700Z 23005MPS 200V260 CAVOK 39/27 Q1000 NOSIG
ZHHH,2003-08-01 08:00,ZHHH 010800Z 22005MPS CAVOK 39/27 Q1000 NOSIG
ZHHH,2003-08-01 09:00,ZHHH 010900Z 24004MPS 200V270 CAVOK 39/26 Q1000 NOSIG
ZHHH,2003-08-01 10:00,ZHHH 011000Z 26002MPS CAVOK 38/25 Q1000 NOSIG
ZHHH,2003-08-01 11:00,ZHHH 011100Z 28002MPS CAVOK 37/26 Q1000 NOSIG
ZHHH,2003-08-01 12:00,ZHHH 011200Z 31002MPS CAVOK 35/28 Q1001 NOSIG
ZHHH,2003-08-01 13:00,ZHHH 011300Z 34002MPS CAVOK 34/29 Q1001 NOSIG
ZHHH,2003-08-01 14:00,ZHHH 011400Z 05001MPS CAVOK 34/28 Q1002 NOSIG
ZHHH,2003-08-01 15:00,ZHHH 011500Z 01002MPS CAVOK 33/28 Q1001 NOSIG
ZHHH,2003-08-01 16:00,ZHHH 011600Z 09001MPS CAVOK 33/28 Q1002 NOSIG
ZHHH,2003-08-01 17:00,ZHHH 011700Z 03002MPS CAVOK 32/28 Q1001 NOSIG
ZHHH,2003-08-01 18:00,ZHHH 011800Z 03003MPS CAVOK 32/28 Q1001 NOSIG
ZHHH,2003-08-01 19:00,ZHHH 011900Z 06002MPS CAVOK 31/27 Q1002 NOSIG
ZHHH,2003-08-01 20:00,ZHHH 012000Z 06002MPS CAVOK 31/28 Q1002 NOSIG
ZHHH,2003-08-01 21:00,ZHHH 012100Z 06003MPS CAVOK 30/28 Q1003 NOSIG
ZHHH,2003-08-01 22:00,ZHHH 012200Z 09003MPS 9999 SCT030 BKN120 30/28 Q1003 NOSIG
ZHHH,2003-08-01 23:00,ZHHH 012300Z 07003MPS 9999 SCT030 30/28 Q1003 NOSIG
ZHHH,2003-08-02 00:00,ZHHH 020000Z 05003MPS 020V080 9999 FEW025TCU SCT030 31/29 Q1003 NOSIG
ZHHH,2003-08-02 01:00,ZHHH 020100Z 08003MPS 050V110 CAVOK 33/29 Q1003 NOSIG
ZHHH,2003-08-02 02:00,ZHHH 020200Z 08002MPS CAVOK 34/29 Q1004 NOSIG
ZHHH,2003-08-02 03:00,ZHHH 020300Z 11002MPS CAVOK 35/29 Q1003 NOSIG
ZHHH,2003-08-02 04:00,ZHHH 020400Z 08002MPS CAVOK 36/28 Q1003 NOSIG
ZHHH,2003-08-02 05:00,ZHHH 020500Z 08002MPS CAVOK 38/28 Q1003 NOSIG
ZHHH,2003-08-02 06:00,ZHHH 020600Z 02002MPS CAVOK 38/27 Q1002 NOSIG
ZHHH,2003-08-02 07:00,ZHHH 020700Z 35003MPS 310V030 9999 FEW030 FEW040TCU 39/26 Q1002 NOSIG
ZHHH,2003-08-02 08:00,ZHHH 020800Z 33002MPS CAVOK 39/27 Q1002 NOSIG
ZHHH,2003-08-02 09:00,ZHHH 020900Z 34002MPS CAVOK 39/27 Q1002 NOSIG
ZHHH,2003-08-02 10:00,ZHHH 021000Z 33002MPS CAVOK 38/26 Q1002 NOSIG
ZHHH,2003-08-02 11:00,ZHHH 021100Z 04003MPS CAVOK 36/29 Q1003 NOSIG
ZHHH,2003-08-02 12:00,ZHHH 021200Z 04003MPS CAVOK 34/29 Q1003 NOSIG
ZHHH,2003-08-02 13:00,ZHHH 021300Z 07004MPS CAVOK 34/29 Q1004 NOSIG
ZHHH,2003-08-02 14:00,ZHHH 021400Z 06003MPS CAVOK 33/29 Q1004 NOSIG
ZHHH,2003-08-02 15:00,ZHHH 021500Z 07003MPS CAVOK 32/29 Q1004 NOSIG
ZHHH,2003-08-02 16:00,ZHHH 021600Z 07002MPS CAVOK 31/29 Q1004 NOSIG
ZHHH,2003-08-02 17:00,ZHHH 021700Z 06003MPS CAVOK 31/29 Q1005 NOSIG
ZHHH,2003-08-02 18:00,ZHHH 021800Z 04003MPS CAVOK 31/29 Q1004 NOSIG
ZHHH,2003-08-02 19:00,ZHHH 021900Z 05003MPS CAVOK 31/29 Q1004 NOSIG
ZHHH,2003-08-02 20:00,ZHHH 022000Z 05002MPS CAVOK 30/29 Q1004 NOSIG
ZHHH,2003-08-02 21:00,ZHHH 022100Z 04004MPS 4000 BR NSC 30/29 Q1004 NOSIG
ZHHH,2003-08-02 22:00,ZHHH 022200Z 07003MPS 1600 BR NSC 30/28 Q1004 NOSIG
ZHHH,2003-08-02 23:00,ZHHH 022300Z 06003MPS 1800 BR SKC 30/28 Q1005 NOSIG
ZHHH,2003-08-03 00:00,ZHHH 030000Z 06004MPS 2500 BR SKC 31/28 Q1005 NOSIG
ZHHH,2003-08-03 01:00,ZHHH 030100Z 03004MPS 360V070 5000 BR SKC 32/29 Q1006 NOSIG
ZHHH,2003-08-03 02:00,ZHHH 030200Z 05003MPS 6000 NSC 33/29 Q1005 NOSIG
ZHHH,2003-08-03 03:00,ZHHH 030300Z 07004MPS 030V110 6000 SKC 34/28 Q1005 NOSIG
ZHHH,2003-08-03 04:00,ZHHH 030400Z 06004MPS 010V110 CAVOK 36/28 Q1005 NOSIG
ZHHH,2003-08-03 05:00,ZHHH 030500Z 06003MPS 340V120 CAVOK 37/29 Q1005 NOSIG
ZHHH,2003-08-03 06:00,ZHHH 030600Z 03003MPS 360V060 CAVOK 37/29 Q1004 NOSIG
ZHHH,2003-08-03 07:00,ZHHH 030700Z 04004MPS 360V060 CAVOK 38/29 Q1003 NOSIG
ZHHH,2003-08-03 08:00,ZHHH 030800Z 04004MPS 360V070 9999 FEW026TCU 37/29 Q1003 NOSIG
ZHHH,2003-08-03 09:00,ZHHH 030900Z 05005MPS 9999 SCT028TCU SCT028 36/28 Q1003 NOSIG
ZHHH,2003-08-03 10:00,ZHHH 031000Z 07006MPS 6000 FEW023 FEW030TCU BKN130 33/29 Q1004 NOSIG
ZHHH,2003-08-03 11:00,ZHHH 031100Z 16005MPS 090V210 9999 SCT020 SCT030TCU 30/24 Q1006 NOSIG
ZHHH,2003-08-03 12:00,ZHHH 031200Z 08002MPS 9999 SCT020 FEW030TCU BKN050 31/26 Q1005 NOSIG
ZHHH,2003-08-03 13:00,ZHHH 031300Z 08003MPS 9999 SCT020 FEW030TCU BKN050 30/27 Q1005 NOSIG
ZHHH,2003-08-03 14:00,ZHHH 031400Z 00000MPS 9999 SCT023 FEW030TCU BKN050 30/27 Q1006 NOSIG
ZHHH,2003-08-03 15:00,ZHHH 031500Z 32001MPS 6000 SCT023 FEW030TCU BKN050 30/28 Q1007 NOSIG
ZHHH,2003-08-03 16:00,ZHHH 031600Z 28003MPS 250V310 6000 SCT023 BKN050 30/28 Q1007 NOSIG
ZHHH,2003-08-03 17:00,ZHHH 031700Z 26006MPS 7000 SCT023 BKN050 29/26 Q1007 NOSIG
ZHHH,2003-08-03 18:00,ZHHH 031800Z 33006MPS 4000 BR SCT023 BKN050 28/26 Q1006 NOSIG
ZHHH,2003-08-03 19:00,ZHHH 031900Z 03003MPS 360V060 5000 BR SCT023 OVC050 28/26 Q1005 NOSIG
ZHHH,2003-08-03 20:00,ZHHH 032000Z 04003MPS 5000 BR NSC 28/26 Q1005 NOSIG
ZHHH,2003-08-03 21:00,ZHHH 032100Z 02003MPS 4000 BR NSC 27/25 Q1005 NOSIG
ZHHH,2003-08-03 22:00,ZHHH 032200Z 03002MPS 2700 BR NSC 27/24 Q1005 NOSIG
ZHHH,2003-08-03 23:00,ZHHH 032300Z 06002MPS 2100 BR NSC 27/24 Q1006 NOSIG
ZHHH,2003-08-04 00:00,ZHHH 040000Z 02003MPS 340V070 2600 BR NSC 28/24 Q1006 NOSIG
ZHHH,2003-08-04 01:00,ZHHH 040100Z 06003MPS 030V110 3500 BR NSC 28/24 Q1006 NOSIG
ZHHH,2003-08-04 02:00,ZHHH 040200Z 07004MPS 030V100 4000 BR NSC 30/25 Q1006 NOSIG
ZHHH,2003-08-04 03:00,ZHHH 040300Z 02003MPS 330V080 5000 BR NSC 31/26 Q1006 NOSIG
ZHHH,2003-08-04 04:00,ZHHH 040400Z 02003MPS 320V080 6000 SKC 32/26 Q1006 NOSIG
ZHHH,2003-08-04 05:00,ZHHH 040500Z 05004MPS 320V100 6000 SKC 33/26 Q1005 NOSIG
ZHHH,2003-08-04 06:00,ZHHH 040600Z 02002MPS 6000 SKC 34/26 Q1005 NOSIG
ZHHH,2003-08-04 07:00,ZHHH 040700Z 06002MPS 6000 SKC 34/27 Q1004 NOSIG
ZHHH,2003-08-04 08:00,ZHHH 040800Z 31003MPS 250V350 6000 SKC 35/28 Q1003 NOSIG
ZHHH,2003-08-04 09:00,ZHHH 040900Z 29003MPS 250V330 6000 SKC 34/28 Q1003 NOSIG
ZHHH,2003-08-04 10:00,ZHHH 041000Z 30002MPS 5000 HZ SKC 34/28 Q1003 NOSIG
ZHHH,2003-08-04 11:00,ZHHH 041100Z 04002MPS 5000 HZ NSC 33/27 Q1003 NOSIG
ZHHH,2003-08-04 12:00,ZHHH 041200Z 04004MPS 4000 BR NSC 32/28 Q1004 NOSIG
ZHHH,2003-08-04 13:00,ZHHH 041300Z 04004MPS 3000 BR NSC 31/27 Q1004 NOSIG
ZHHH,2003-08-04 14:00,ZHHH 041400Z 04003MPS 3000 BR NSC 30/27 Q1004 NOSIG
ZHHH,2003-08-04 15:00,ZHHH 041500Z 04004MPS 3000 BR NSC 29/27 Q1004 NOSIG
ZHHH,2003-08-04 16:00,ZHHH 041600Z 06004MPS 3000 BR NSC 29/27 Q1004 NOSIG
ZHHH,2003-08-04 17:00,ZHHH 041700Z 05003MPS 3000 BR SKC 29/27 Q1003 NOSIG
ZHHH,2003-08-04 18:00,ZHHH 041800Z 05003MPS 3000 BR SKC 28/27 Q1004 NOSIG
ZHHH,2003-08-04 19:00,ZHHH 041900Z 05003MPS 2500 BR SKC 28/27 Q1003 NOSIG
ZHHH,2003-08-04 20:00,ZHHH 042000Z 04002MPS 2000 BR SKC 28/27 Q1004 NOSIG
ZHHH,2003-08-04 21:00,ZHHH 042100Z 04003MPS 2000 BR SKC 28/27 Q1004 NOSIG
ZHHH,2003-08-04 22:00,ZHHH 042200Z 05003MPS 1600 BR SKC 28/27 Q1004 NOSIG
ZHHH,2003-08-04 23:00,ZHHH 042300Z 08003MPS 1800 BR SKC 28/27 Q1004 NOSIG
ZHHH,2003-08-05 00:00,ZHHH 050000Z 06003MPS 020V100 2500 BR SKC 29/27 Q1004 NOSIG
ZHHH,2003-08-05 01:00,ZHHH 050100Z 05003MPS 4000 BR SKC 31/28 Q1004 NOSIG
ZHHH,2003-08-05 02:00,ZHHH 050200Z 07003MPS 280V240 6000 SKC 33/27 Q1004 NOSIG
ZHHH,2003-08-05 03:00,ZHHH 050300Z 06002MPS 6000 SCT030 34/27 Q1004 NOSIG
ZHHH,2003-08-05 04:00,ZHHH 050400Z 10003MPS 050V140 9999 FEW020 35/27 Q1003 NOSIG
ZHHH,2003-08-05 05:00,ZHHH 050500Z 12003MPS 080V180 9999 FEW020 35/28 Q1003 NOSIG
ZHHH,2003-08-05 06:00,ZHHH 050600Z 14003MPS 330V300 9999 FEW020 FEW030TCU 35/27 Q1002 NOSIG
ZHHH,2003-08-05 07:00,ZHHH 050700Z 20002MPS 9999 FEW026 36/27 Q1001 NOSIG
ZHHH,2003-08-05 08:00,ZHHH 050800Z 04002MPS 9999 FEW026 36/27 Q1000 NOSIG
ZHHH,2003-08-05 09:00,ZHHH 050900Z 09003MPS 060V120 9999 FEW030TCU 36/26 Q1000 NOSIG
ZHHH,2003-08-05 10:00,ZHHH 051000Z 07004MPS 9999 FEW030 SCT150 33/27 Q1000 NOSIG
ZHHH,2003-08-05 11:00,ZHHH 051100Z 07005MPS 040V100 9999 FEW030TCU SCT150 31/26 Q1001 NOSIG
ZHHH,2003-08-05 12:00,ZHHH 051200Z 07004MPS 9999 FEW030TCU SCT120 30/26 Q1001 NOSIG
ZHHH,2003-08-05 13:00,ZHHH 051300Z 07003MPS CAVOK 29/26 Q1001 NOSIG
ZHHH,2003-08-05 14:00,ZHHH 051400Z 10003MPS CAVOK 29/25 Q1002 NOSIG
ZHHH,2003-08-05 15:00,ZHHH 051500Z 07003MPS 6000 SKC 29/25 Q1002 NOSIG
ZHHH,2003-08-05 16:00,ZHHH 051600Z 08003MPS 6000 SKC 28/25 Q1002 NOSIG
ZHHH,2003-08-05 17:00,ZHHH 051700Z 07002MPS 6000 SKC 28/25 Q1002 NOSIG
ZHHH,2003-08-05 18:00,ZHHH 051800Z 07003MPS CAVOK 28/25 Q1001 NOSIG
ZHHH,2003-08-05 19:00,ZHHH 051900Z 05002MPS CAVOK 28/25 Q1001 NOSIG
ZHHH,2003-08-05 20:00,ZHHH 052000Z 06002MPS CAVOK 27/25 Q1001 NOSIG
ZHHH,2003-08-05 21:00,ZHHH 052100Z 06002MPS CAVOK 27/25 Q1001 NOSIG
ZHHH,2003-08-05 22:00,ZHHH 052200Z 09002MPS CAVOK 27/25 Q1002 NOSIG
ZHHH,2003-08-05 23:00,ZHHH 052300Z 09003MPS CAVOK 28/26 Q1002 NOSIG
ZHHH,2003-08-06 00:00,ZHHH 060000Z 12005MPS CAVOK 30/27 Q1002 NOSIG
ZHHH,2003-08-06 01:00,ZHHH 060100Z 13004MPS CAVOK 31/27 Q1003 NOSIG
ZHHH,2003-08-06 02:00,ZHHH 060200Z 13004MPS CAVOK 32/27 Q1003 NOSIG
ZHHH,2003-08-06 03:00,ZHHH 060300Z 14004MPS 100V170 9999 FEW030 34/27 Q1003 NOSIG
ZHHH,2003-08-06 04:00,ZHHH 060400Z 11003MPS 080V160 9999 SCT023 35/27 Q1002 NOSIG
ZHHH,2003-08-06 05:00,ZHHH 060500Z 16003MPS 110V200 9999 FEW023 FEW026TCU 35/27 Q1002 NOSIG
ZHHH,2003-08-06 06:00,ZHHH 060600Z 15003MPS 110V190 9999 SCT023 FEW026TCU 36/26 Q1001 NOSIG
ZHHH,2003-08-06 07:00,ZHHH 060700Z 14002MPS 9999 SCT023 FEW030TCU 36/25 Q1001 NOSIG
ZHHH,2003-08-06 08:00,ZHHH 060800Z 11003MPS 040V150 9999 FEW023 FEW033CB 37/25 Q1000 NOSIG
ZHHH,2003-08-06 09:00,ZHHH 060900Z 11004MPS 070V140 9999 FEW023 FEW033CB SCT230 36/24 Q1000 NOSIG
ZHHH,2003-08-06 10:00,ZHHH 061000Z 10003MPS 9999 FEW023 FEW030TCU 35/25 Q1000 NOSIG
ZHHH,2003-08-06 11:00,ZHHH 061100Z 10002MPS 9999 FEW030 FEW033TCU SCT230 34/26 Q1000 NOSIG
ZHHH,2003-08-06 12:00,ZHHH 061200Z 09003MPS 9999 FEW033TCU SCT130 33/26 Q1001 NOSIG
ZHHH,2003-08-06 13:00,ZHHH 061300Z 10003MPS CAVOK 32/27 Q1002 NOSIG
ZHHH,2003-08-06 14:00,ZHHH 061400Z 07003MPS CAVOK 31/27 Q1002 NOSIG
ZHHH,2003-08-06 15:00,ZHHH 061500Z 07003MPS CAVOK 30/27 Q1002 NOSIG
ZHHH,2003-08-06 16:00,ZHHH 061600Z 07003MPS CAVOK 30/27 Q1002 NOSIG
ZHHH,2003-08-06 17:00,ZHHH 061700Z 08002MPS CAVOK 30/27 Q1002 NOSIG
ZHHH,2003-08-06 18:00,ZHHH 061800Z 05003MPS CAVOK 29/27 Q1002 NOSIG
ZHHH,2003-08-06 19:00,ZHHH 061900Z 04002MPS CAVOK 29/27 Q1002 NOSIG
ZHHH,2003-08-06 20:00,ZHHH 062000Z AUTO 06004KT 6SM 29/27 A2959 RMK SLP022 T02900270 IEM_DS3505
ZHHH,2003-08-06 21:00,ZHHH 062100Z 08002MPS CAVOK 28/27 Q1002 NOSIG
ZHHH,2003-08-06 22:00,ZHHH 062200Z 08002MPS CAVOK 28/27 Q1002 NOSIG
ZHHH,2003-08-06 23:00,ZHHH 062300Z 14002MPS CAVOK 29/28 Q1002 NOSIG
ZHHH,2003-08-07 00:00,ZHHH 070000Z 08003MPS 040V100 CAVOK 31/27 Q1003 NOSIG
ZHHH,2003-08-07 01:00,ZHHH 070100Z 11002MPS CAVOK 32/27 Q1003 NOSIG
ZHHH,2003-08-07 02:00,ZHHH 070200Z 08003MPS 040V140 CAVOK 34/26 Q1003 NOSIG
ZHHH,2003-08-07 03:00,ZHHH 070300Z 13002MPS 9999 FEW018 35/27 Q1003 NOSIG
ZHHH,2003-08-07 04:00,ZHHH 070400Z 08003MPS 360V120 9999 SCT020 36/26 Q1002 NOSIG
ZHHH,2003-08-07 05:00,ZHHH 070500Z 35002MPS 9999 SCT020 36/27 Q1002 NOSIG
ZHHH,2003-08-07 06:00,ZHHH 070600Z 09001MPS 9999 SCT020 36/26 Q1001 NOSIG
ZHHH,2003-08-07 07:00,ZHHH 070700Z 26002MPS 9999 FEW020 38/26 Q1001 NOSIG
ZHHH,2003-08-07 08:00,ZHHH 070800Z 26002MPS 9999 SCT020 38/26 Q1000 NOSIG
ZHHH,2003-08-07 09:00,ZHHH 070900Z 31002MPS CAVOK 37/27 Q1000 NOSIG
ZHHH,2003-08-07 10:00,ZHHH 071000Z 32002MPS CAVOK 37/27 Q1000 NOSIG
ZHHH,2003-08-07 11:00,ZHHH 071100Z 03002MPS CAVOK 35/27 Q1000 NOSIG
ZHHH,2003-08-07 12:00,ZHHH 071200Z 36001MPS CAVOK 34/28 Q1001 NOSIG
ZHHH,2003-08-07 13:00,ZHHH 071300Z 05002MPS CAVOK 33/28 Q1001 NOSIG
ZHHH,2003-08-07 14:00,ZHHH 071400Z 05002MPS CAVOK 32/28 Q1002 NOSIG
ZHHH,2003-08-07 15:00,ZHHH 071500Z 06002MPS CAVOK 31/28 Q1002 NOSIG
ZHHH,2003-08-07 16:00,ZHHH 071600Z 06002MPS CAVOK 31/28 Q1002 NOSIG
ZHHH,2003-08-07 17:00,ZHHH 071700Z 06003MPS CAVOK 30/28 Q1002 NOSIG
ZHHH,2003-08-07 18:00,ZHHH 071800Z AUTO 07004KT 9SM 32/27 A2956 RMK SLP011 T03160271 57008 IEM_DS3505
ZHHH,2003-08-07 21:00,ZHHH 072100Z 07003MPS CAVOK 29/28 Q1000 NOSIG
ZHHH,2003-08-07 22:00,ZHHH 072200Z 07002MPS CAVOK 29/28 Q1001 NOSIG
ZHHH,2003-08-07 23:00,ZHHH 072300Z 09002MPS CAVOK 29/28 Q1001 NOSIG
ZHHH,2003-08-08 00:00,ZHHH 080000Z 11003MPS CAVOK 31/29 Q1001 NOSIG
ZHHH,2003-08-08 01:00,ZHHH 080100Z 10002MPS CAVOK 32/28 Q1001 NOSIG
ZHHH,2003-08-08 02:00,ZHHH 080200Z 14002MPS CAVOK 34/29 Q1001 NOSIG
ZHHH,2003-08-08 03:00,ZHHH 080300Z 14003MPS 100V170 CAVOK 35/29 Q1001 NOSIG
ZHHH,2003-08-08 04:00,ZHHH 080400Z 22003MPS 170V280 9999 FEW025 37/27 Q1000 NOSIG
ZHHH,2003-08-08 05:00,ZHHH 080500Z 21004MPS 170V250 9999 SCT025 SCT150 37/27 Q1000 NOSIG
ZHHH,2003-08-08 06:00,ZHHH 080600Z 25003MPS 220V290 9999 FEW025 SCT150 37/27 Q0999 NOSIG
ZHHH,2003-08-08 07:00,ZHHH 080700Z 24003MPS 200V290 9999 FEW025 SCT150 37/28 Q0999 NOSIG
ZHHH,2003-08-08 08:00,ZHHH 080800Z 27003MPS 240V300 CAVOK 38/28 Q0998 NOSIG
ZHHH,2003-08-08 09:00,ZHHH 080900Z 29003MPS 260V330 CAVOK 37/28 Q0998 NOSIG
ZHHH,2003-08-08 10:00,ZHHH 081000Z 30003MPS 260V330 CAVOK 36/29 Q0998 NOSIG
ZHHH,2003-08-08 11:00,ZHHH 081100Z 31002MPS CAVOK 34/29 Q0998 NOSIG
ZHHH,2003-08-08 12:00,ZHHH 081200Z 29002MPS CAVOK 34/30 Q0998 NOSIG
ZHHH,2003-08-08 13:00,ZHHH 081300Z 00000MPS CAVOK 34/29 Q0999 NOSIG
ZHHH,2003-08-08 14:00,ZHHH 081400Z 27001MPS CAVOK 33/29 Q0999 NOSIG
ZHHH,2003-08-08 15:00,ZHHH 081500Z 24002MPS CAVOK 33/30 Q0999 NOSIG
ZHHH,2003-08-08 16:00,ZHHH 081600Z 25002MPS CAVOK 33/29 Q0999 NOSIG
ZHHH,2003-08-08 17:00,ZHHH 081700Z 25002MPS CAVOK 32/29 Q0998 NOSIG
ZHHH,2003-08-08 18:00,ZHHH 081800Z 24002MPS CAVOK 31/30 Q0998 NOSIG
ZHHH,2003-08-08 19:00,ZHHH 081900Z 25001MPS 6000 NSC 31/30 Q0998 NOSIG
ZHHH,2003-08-08 20:00,ZHHH 082000Z 26001MPS 5000 BR SKC 31/29 Q0998 NOSIG
ZHHH,2003-08-08 21:00,ZHHH 082100Z 26001MPS 5000 BR SKC 31/29 Q0998 NOSIG
ZHHH,2003-08-08 22:00,ZHHH 082200Z 35002MPS 5000 BR NSC 30/29 Q0999 NOSIG
ZHHH,2003-08-08 23:00,ZHHH 082300Z 00000MPS 3500 BR NSC 31/29 Q0999 NOSIG
ZHHH,2003-08-09 00:00,ZHHH 090000Z 11001MPS 2500 BR NSC 31/29 Q0999 NOSIG
ZHHH,2003-08-09 01:00,ZHHH 090100Z 15002MPS 3500 BR NSC 33/29 Q0999 NOSIG
ZHHH,2003-08-09 02:00,ZHHH 090200Z 14002MPS 5000 BR SCT023 34/30 Q0999 NOSIG
ZHHH,2003-08-09 03:00,ZHHH 090300Z 25002MPS 9999 BKN026 36/28 Q1000 NOSIG
ZHHH,2003-08-09 04:00,ZHHH 090400Z 29002MPS 9999 FEW026 SCT050 BKN100 35/28 Q0999 NOSIG
ZHHH,2003-08-09 05:00,ZHHH 090500Z 30003MPS 260V340 9999 -TS SCT026 FEW040CB BKN100 35/28 Q0999 NOSIG
ZHHH,2003-08-09 06:00,ZHHH 090600Z 35006MPS 320V020 9999 -TS FEW020 SCT040CB OVC100 29/25 Q0999 NOSIG
ZHHH,2003-08-09 07:00,ZHHH 090700Z 35005MPS 310V010 9999 SCT020 OVC100 29/26 Q0999 RETS NOSIG
ZHHH,2003-08-09 08:00,ZHHH 090800Z 02004MPS 340V060 9999 FEW020 BKN100 30/26 Q0998 NOSIG
ZHHH,2003-08-09 09:00,ZHHH 090900Z 04003MPS 010V070 9999 FEW020 BKN100 31/27 Q0998 NOSIG
ZHHH,2003-08-09 10:00,ZHHH 091000Z 02003MPS 350V060 CAVOK 31/27 Q0999 NOSIG
ZHHH,2003-08-09 11:00,ZHHH 091100Z 08003MPS 4000 BR NSC 30/28 Q0999 NOSIG
ZHHH,2003-08-09 12:00,ZHHH 091200Z 14003MPS 4000 BR NSC 29/27 Q1000 NOSIG
ZHHH,2003-08-09 13:00,ZHHH 091300Z 12002MPS 4000 BR NSC 29/27 Q1001 NOSIG
ZHHH,2003-08-09 14:00,ZHHH 091400Z 00000MPS 4000 BR NSC 29/26 Q1001 NOSIG
ZHHH,2003-08-09 15:00,ZHHH 091500Z 00000MPS 4000 BR NSC 29/27 Q1001 NOSIG
ZHHH,2003-08-09 16:00,ZHHH 091600Z 02001MPS 4000 BR NSC 29/27 Q1001 NOSIG
ZHHH,2003-08-09 17:00,ZHHH 091700Z 35002MPS 3000 BR NSC 28/27 Q1001 NOSIG
ZHHH,2003-08-09 18:00,ZHHH 091800Z 00000MPS 3000 BR NSC 28/27 Q1001 NOSIG
ZHHH,2003-08-09 19:00,ZHHH 091900Z 35003MPS 3000 BR NSC 28/27 Q1000 NOSIG
ZHHH,2003-08-09 20:00,ZHHH 092000Z 01002MPS 3000 BR NSC 27/27 Q1001 NOSIG
ZHHH,2003-08-09 21:00,ZHHH 092100Z 00000MPS 3000 BR NSC 27/27 Q1000 NOSIG
ZHHH,2003-08-09 22:00,ZHHH 092200Z 02002MPS 3000 BR NSC 27/27 Q1001 NOSIG
ZHHH,2003-08-09 23:00,ZHHH 092300Z 01002MPS 3000 BR NSC 28/27 Q1001 NOSIG
ZHHH,2003-08-10 00:00,ZHHH 100000Z 04003MPS 010V070 2500 BR NSC 29/27 Q1002 NOSIG
ZHHH,2003-08-10 01:00,ZHHH 100100Z 08002MPS 4000 BR NSC 30/27 Q1002 NOSIG
ZHHH,2003-08-10 02:00,ZHHH 100200Z 02003MPS 350V060 5000 BR FEW023 SCT130 31/27 Q1002 NOSIG
ZHHH,2003-08-10 03:00,ZHHH 100300Z 02004MPS 340V040 7000 FEW023 33/27 Q1002 NOSIG
ZHHH,2003-08-10 04:00,ZHHH 100400Z 05004MPS 020V100 7000 FEW028TCU FEW028 33/27 Q1002 NOSIG
ZHHH,2003-08-10 05:00,ZHHH 100500Z 32003MPS 260V020 4000 HZ SCT028CB BKN130 32/28 Q1001 NOSIG
ZHHH,2003-08-10 06:00,ZHHH 100600Z 01005MPS 9999 FEW026 FEW028TCU BKN140 29/26 Q1002 NOSIG
ZHHH,2003-08-10 07:00,ZHHH 100700Z 02005MPS 340V050 9999 FEW020 SCT160 32/27 Q1001 NOSIG
ZHHH,2003-08-10 08:00,ZHHH 100800Z 01005MPS 330V030 9999 FEW022 32/27 Q1001 NOSIG
ZHHH,2003-08-10 09:00,ZHHH 100900Z 04004MPS 9999 FEW022 32/27 Q1001 NOSIG
ZHHH,2003-08-10 10:00,ZHHH 101000Z 02003MPS CAVOK 32/26 Q1002 NOSIG
ZHHH,2003-08-10 11:00,ZHHH 101100Z 03004MPS 360V060 CAVOK 31/26 Q1003 NOSIG
ZHHH,2003-08-10 12:00,ZHHH 101200Z 01003MPS CAVOK 30/26 Q1004 NOSIG
ZHHH,2003-08-10 13:00,ZHHH 101300Z 02003MPS 360V060 5000 BR FEW023 BKN130 29/26 Q1004 NOSIG
ZHHH,2003-08-10 14:00,ZHHH 101400Z 03003MPS 3500 BR FEW023 BKN130 28/26 Q1004 NOSIG
ZHHH,2003-08-10 15:00,ZHHH 101500Z 02003MPS 2000 BR NSC 28/26 Q1005 NOSIG
ZHHH,2003-08-10 16:00,ZHHH 101600Z 03003MPS 360V060 1800 BR NSC 28/26 Q1005 NOSIG
ZHHH,2003-08-10 17:00,ZHHH 101700Z 04002MPS 1600 BR NSC 27/26 Q1005 NOSIG
ZHHH,2003-08-10 18:00,ZHHH 101800Z 01002MPS 1600 BR NSC 27/26 Q1005 NOSIG
ZHHH,2003-08-10 19:00,ZHHH 101900Z 03005MPS 360V060 2000 BR SKC 27/25 Q1005 NOSIG
ZHHH,2003-08-10 20:00,ZHHH 102000Z 01005MPS 2100 BR NSC 27/24 Q1005 NOSIG
ZHHH,2003-08-10 21:00,ZHHH 102100Z 02006MPS 340V060 2500 BR NSC 26/23 Q1005 NOSIG
ZHHH,2003-08-10 22:00,ZHHH 102200Z 02006MPS 6000 NSC 26/22 Q1006 NOSIG
ZHHH,2003-08-10 23:00,ZHHH 102300Z 03005MPS 360V060 CAVOK 25/21 Q1007 NOSIG
ZHHH,2003-08-11 00:00,ZHHH 110000Z 04005MPS CAVOK 25/21 Q1007 NOSIG
ZHHH,2003-08-11 01:00,ZHHH 110100Z 04005MPS 5000 BR NSC 25/22 Q1008 NOSIG
ZHHH,2003-08-11 02:00,ZHHH 110200Z 03006MPS 6000 NSC 26/21 Q1008 NOSIG
ZHHH,2003-08-11 03:00,ZHHH 110300Z 04007MPS 010V070 CAVOK 27/21 Q1008 NOSIG
ZHHH,2003-08-11 04:00,ZHHH 110400Z 04007MPS CAVOK 27/20 Q1008 NOSIG
ZHHH,2003-08-11 05:00,ZHHH 110500Z 04005MPS CAVOK 27/21 Q1009 NOSIG
ZHHH,2003-08-11 06:00,ZHHH 110600Z 03006MPS CAVOK 27/20 Q1008 NOSIG
ZHHH,2003-08-11 07:00,ZHHH 110700Z 04008MPS CAVOK 27/21 Q1008 NOSIG
ZHHH,2003-08-11 08:00,ZHHH 110800Z 04007MPS 9999 SCT030 OVC100 25/21 Q1008 NOSIG
ZHHH,2003-08-11 09:00,ZHHH 110900Z 04006MPS 000V060 9999 SCT030 OVC100 24/21 Q1008 NOSIG
ZHHH,2003-08-11 10:00,ZHHH 111000Z 03005MPS 360V060 9999 SCT020 OVC100 24/21 Q1008 NOSIG
ZHHH,2003-08-11 11:00,ZHHH 111100Z 02005MPS 000V060 9999 SCT020 OVC070 24/21 Q1009 NOSIG
ZHHH,2003-08-11 12:00,ZHHH 111200Z 02004MPS 350V060 9999 SCT020 OVC070 24/21 Q1009 NOSIG
ZHHH,2003-08-11 13:00,ZHHH 111300Z 03004MPS 9999 SCT020 SCT033 OVC070 23/21 Q1010 NOSIG
ZHHH,2003-08-11 14:00,ZHHH 111400Z 01003MPS 9999 -RA SCT020 BKN033 OVC070 22/21 Q1010 RERA NOSIG
ZHHH,2003-08-11 15:00,ZHHH 111500Z 36003MPS 5000 -RA BR SCT020 BKN033 OVC070 23/22 Q1010 NOSIG
ZHHH,2003-08-11 16:00,ZHHH 111600Z 01003MPS 4000 -RA BR SCT010 OVC033 22/21 Q1010 NOSIG
ZHHH,2003-08-11 17:00,ZHHH 111700Z 36002MPS 4000 -RA BR SCT010 OVC033 22/22 Q1010 NOSIG
ZHHH,2003-08-11 18:00,ZHHH 111800Z 35002MPS 4000 -RA BR SCT010 OVC033 22/22 Q1010 NOSIG
ZHHH,2003-08-11 19:00,ZHHH 111900Z 36003MPS 330V030 4000 BR SCT010 OVC050 22/22 Q1009 NOSIG
ZHHH,2003-08-11 20:00,ZHHH 112000Z 36003MPS 4000 -RA BR SCT010 OVC050 22/22 Q1009 NOSIG
ZHHH,2003-08-11 21:00,ZHHH 112100Z 36002MPS 3000 BR SCT010 OVC050 22/22 Q1009 NOSIG
ZHHH,2003-08-11 22:00,ZHHH 112200Z 02003MPS 300V070 5000 BR SCT010 OVC050 22/22 Q1009 NOSIG
ZHHH,2003-08-11 23:00,ZHHH 112300Z 04003MPS 010V070 5000 BR -RA BKN020 OVC050 22/21 Q1010 NOSIG
ZHHH,2003-08-12 00:00,ZHHH 120000Z 04004MPS 5000 BR -RA BKN020 OVC050 22/21 Q1010 NOSIG
ZHHH,2003-08-12 01:00,ZHHH 120100Z 04003MPS 4000 BR SCT025 OVC060 22/21 Q1011 NOSIG
ZHHH,2003-08-12 02:00,ZHHH 120200Z 03003MPS 2500 -DZ BKN012 OVC030 22/21 Q1011 NOSIG
ZHHH,2003-08-12 03:00,ZHHH 120300Z 05004MPS 1400 R04/1400N -RA BKN012 OVC030 21/21 Q1011 NOSIG
ZHHH,2003-08-12 04:00,ZHHH 120400Z 03003MPS 2300 -DZ BKN006 OVC033 22/22 Q1011 NOSIG
ZHHH,2003-08-12 05:00,ZHHH 120500Z 03003MPS 2500 -DZ BKN005 OVC033 22/22 Q1011 NOSIG
ZHHH,2003-08-12 06:00,ZHHH 120600Z 02003MPS 350V050 7000 -DZ BKN007 OVC033 22/22 Q1010 NOSIG
ZHHH,2003-08-12 07:00,ZHHH 120700Z 03003MPS 7000 -DZ BKN005 OVC033 22/22 Q1010 NOSIG
ZHHH,2003-08-12 08:00,ZHHH 120800Z 02003MPS 7000 -DZ FEW005 BKN008 OVC033 22/22 Q1010 NOSIG
ZHHH,2003-08-12 09:00,ZHHH 120900Z 01003MPS 9999 BKN009 OVC033 22/22 Q1009 NOSIG
ZHHH,2003-08-12 10:00,ZHHH 121000Z 02002MPS 6000 BKN010 OVC033 22/22 Q1009 NOSIG
ZHHH,2003-08-12 11:00,ZHHH 121100Z 03002MPS 4000 -DZ BR SCT007 BKN010 OVC033 22/22 Q1009 NOSIG
ZHHH,2003-08-12 12:00,ZHHH 121200Z 02002MPS 3000 -DZ BR SCT006 OVC030 22/22 Q1010 NOSIG
ZHHH,2003-08-12 13:00,ZHHH 121300Z 00000MPS 3000 -DZ BR SCT005 OVC025 22/22 Q1010 NOSIG
ZHHH,2003-08-12 14:00,ZHHH 121400Z 02001MPS 3000 -DZ BR SCT005 OVC025 22/22 Q1011 NOSIG
ZHHH,2003-08-12 15:00,ZHHH 121500Z 33001MPS 3000 BR SCT007 OVC025 22/22 Q1011 NOSIG
ZHHH,2003-08-12 16:00,ZHHH 121600Z 35002MPS 4000 BR SCT007 OVC025 22/22 Q1010 NOSIG
ZHHH,2003-08-12 17:00,ZHHH 121700Z 34002MPS 4000 BR SCT010 OVC040 22/22 Q1010 NOSIG
ZHHH,2003-08-12 18:00,ZHHH 121800Z 35002MPS 5000 BR BKN010 OVC040 22/22 Q1009 NOSIG
ZHHH,2003-08-12 19:00,ZHHH 121900Z 35001MPS 4000 BR SCT008 OVC040 22/22 Q1009 NOSIG
ZHHH,2003-08-12 20:00,ZHHH 122000Z 00000MPS 3000 BR SCT008 OVC040 22/22 Q1009 NOSIG
ZHHH,2003-08-12 21:00,ZHHH 122100Z 00000MPS 3000 BR SCT011 OVC040 22/22 Q1009 NOSIG
ZHHH,2003-08-12 22:00,ZHHH 122200Z 01001MPS 2500 BR SCT010 OVC050 22/22 Q1009 NOSIG
ZHHH,2003-08-12 23:00,ZHHH 122300Z 35002MPS 4000 BR SCT008 OVC050 23/23 Q1009 NOSIG
ZHHH,2003-08-13 00:00,ZHHH 130000Z 36002MPS 9999 SCT010 OVC050 23/22 Q1009 NOSIG
ZHHH,2003-08-13 01:00,ZHHH 130100Z 03002MPS 5000 BR SCT010 OVC050 23/23 Q1009 NOSIG
ZHHH,2003-08-13 02:00,ZHHH 130200Z 05002MPS 9999 FEW006 SCT010 FEW033TCU OVC050 24/23 Q1010 NOSIG
ZHHH,2003-08-13 03:00,ZHHH 130300Z 04002MPS 9999 SCT015 SCT100 25/23 Q1010 NOSIG
ZHHH,2003-08-13 04:00,ZHHH 130400Z 04001MPS 9999 SCT022 FEW027TCU OVC050 25/23 Q1010 NOSIG
ZHHH,2003-08-13 05:00,ZHHH 130500Z 32002MPS 9999 SCT020 FEW028TCU OVC060 26/23 Q1009 NOSIG
ZHHH,2003-08-13 06:00,ZHHH 130600Z 32003MPS 280V360 9999 SCT012 FEW030TCU SCT033 OVC060 27/23 Q1009 NOSIG
ZHHH,2003-08-13 07:00,ZHHH 130700Z 34002MPS 9999 SCT010 SCT030 OVC100 26/23 Q1009 NOSIG
ZHHH,2003-08-13 08:00,ZHHH 130800Z 34002MPS 9999 SCT010 FEW030TCU BKN060 27/24 Q1008 NOSIG
ZHHH,2003-08-13 09:00,ZHHH 130900Z 36002MPS 9999 SCT010 SCT015 OVC100 27/24 Q1007 NOSIG
ZHHH,2003-08-13 10:00,ZHHH 131000Z 04002MPS 9999 SCT010 SCT015 OVC100 26/24 Q1007 NOSIG
ZHHH,2003-08-13 11:00,ZHHH 131100Z 04003MPS 9999 SCT010 FEW030TCU OVC050 26/23 Q1008 NOSIG
ZHHH,2003-08-13 12:00,ZHHH 131200Z 03003MPS 340V070 9999 SCT013 OVC050 25/23 Q1008 NOSIG
ZHHH,2003-08-13 13:00,ZHHH 131300Z 03003MPS 000V060 9999 SCT013 OVC050 24/23 Q1009 NOSIG
ZHHH,2003-08-13 14:00,ZHHH 131400Z 04003MPS 9999 SCT013 OVC050 24/22 Q1009 NOSIG
ZHHH,2003-08-13 15:00,ZHHH 131500Z 02003MPS 9999 SCT013 OVC050 24/22 Q1009 NOSIG
ZHHH,2003-08-13 16:00,ZHHH 131600Z 03002MPS 9999 SCT013 OVC050 23/22 Q1009 NOSIG
ZHHH,2003-08-13 17:00,ZHHH 131700Z AUTO 01002MPS //// // ////// 23/22 Q1009 NOSIG
ZHHH,2003-08-13 18:00,ZHHH 131800Z 35001MPS 6000 SCT010 OVC050 23/22 Q1008 NOSIG
ZHHH,2003-08-13 19:00,ZHHH 131900Z 34002MPS 3000 BR SCT010 OVC050 23/22 Q1008 NOSIG
ZHHH,2003-08-13 20:00,ZHHH 132000Z 34002MPS 3000 BR SCT010 OVC050 23/22 Q1008 NOSIG
ZHHH,2003-08-13 21:00,ZHHH 132100Z 02002MPS 3000 BR SCT010 OVC050 23/22 Q1008 NOSIG
ZHHH,2003-08-13 22:00,ZHHH 132200Z 02002MPS 3000 BR FEW013 OVC060 23/22 Q1008 NOSIG
ZHHH,2003-08-13 23:00,ZHHH 132300Z 02002MPS 9999 SCT015 OVC060 23/22 Q1008 NOSIG
ZHHH,2003-08-14 00:00,ZHHH 140000Z 06003MPS 9999 SCT010 OVC060 23/22 Q1008 NOSIG
ZHHH,2003-08-14 01:00,ZHHH 140100Z 05004MPS 020V080 9999 FEW011 OVC060 24/23 Q1008 NOSIG
ZHHH,2003-08-14 02:00,ZHHH 140200Z 07003MPS 030V110 9999 FEW020 BKN070 26/23 Q1008 NOSIG
ZHHH,2003-08-14 03:00,ZHHH 140300Z 05003MPS 360V110 9999 FEW020 BKN070 26/23 Q1008 NOSIG
ZHHH,2003-08-14 04:00,ZHHH 140400Z 04004MPS 350V070 9999 SCT020 28/24 Q1008 NOSIG
ZHHH,2003-08-14 05:00,ZHHH 140500Z 06002MPS 9999 SCT020 28/23 Q1007 NOSIG
ZHHH,2003-08-14 06:00,ZHHH 140600Z 04003MPS 350V090 9999 FEW020TCU SCT020 29/24 Q1007 NOSIG
ZHHH,2003-08-14 07:00,ZHHH 140700Z 02003MPS 320V070 9999 SCT020TCU SCT020 28/24 Q1006 NOSIG
ZHHH,2003-08-14 08:00,ZHHH 140800Z 01003MPS 340V040 9999 SCT020TCU SCT020 28/24 Q1006 NOSIG
ZHHH,2003-08-14 09:00,ZHHH 140900Z 03003MPS 350V070 9999 FEW020TCU BKN020 28/24 Q1006 NOSIG
ZHHH,2003-08-14 10:00,ZHHH 141000Z 04004MPS 9999 FEW023 SCT230 27/24 Q1006 NOSIG
ZHHH,2003-08-14 11:00,ZHHH 141100Z 05004MPS 9999 FEW023 SCT230 27/24 Q1006 NOSIG
ZHHH,2003-08-14 12:00,ZHHH 141200Z 04004MPS 9999 FEW025 SCT160 25/23 Q1006 NOSIG
ZHHH,2003-08-14 13:00,ZHHH 141300Z 04004MPS 9999 FEW025 SCT160 24/23 Q1007 NOSIG
ZHHH,2003-08-14 14:00,ZHHH 141400Z 04003MPS CAVOK 24/23 Q1007 NOSIG
ZHHH,2003-08-14 15:00,ZHHH 141500Z 04003MPS CAVOK 24/22 Q1007 NOSIG
ZHHH,2003-08-14 16:00,ZHHH 141600Z 03003MPS 360V060 CAVOK 24/23 Q1007 NOSIG
ZHHH,2003-08-14 17:00,ZHHH 141700Z 02002MPS CAVOK 24/22 Q1007 NOSIG
ZHHH,2003-08-14 18:00,ZHHH 141800Z 36001MPS 9999 BKN040 23/23 Q1007 NOSIG
ZHHH,2003-08-14 19:00,ZHHH 141900Z 04001MPS 5000 BR SCT033 OVC060 23/23 Q1006 NOSIG
ZHHH,2003-08-14 20:00,ZHHH 142000Z 06002MPS 5000 BR SCT033 OVC060 23/23 Q1006 NOSIG
ZHHH,2003-08-14 21:00,ZHHH 142100Z 03001MPS 5000 BR SCT033 OVC060 23/23 Q1006 NOSIG
ZHHH,2003-08-14 22:00,ZHHH 142200Z 02003MPS CAVOK 23/23 Q1006 NOSIG
ZHHH,2003-08-14 23:00,ZHHH 142300Z 07002MPS CAVOK 23/23 Q1007 NOSIG
ZHHH,2003-08-15 00:00,ZHHH 150000Z 06002MPS CAVOK 24/23 Q1007 NOSIG
ZHHH,2003-08-15 01:00,ZHHH 150100Z 05002MPS CAVOK 25/23 Q1007 NOSIG
ZHHH,2003-08-15 02:00,ZHHH 150200Z 36002MPS 9999 SCT020 OVC060 25/24 Q1008 NOSIG
ZHHH,2003-08-15 03:00,ZHHH 150300Z 36003MPS 9999 -RA SCT020 OVC060 25/24 Q1008 NOSIG
ZHHH,2003-08-15 04:00,ZHHH 150400Z 33004MPS 9999 SCT020 OVC060 26/24 Q1008 NOSIG
ZHHH,2003-08-15 05:00,ZHHH 150500Z 34004MPS 280V020 9999 SCT020 OVC060 26/24 Q1007 NOSIG
ZHHH,2003-08-15 06:00,ZHHH 150600Z 34005MPS 310V010 9999 FEW010 BKN020 OVC053 25/23 Q1007 NOSIG
ZHHH,2003-08-15 07:00,ZHHH 150700Z 34004MPS 9999 -RA FEW010 BKN020 OVC053 24/23 Q1007 NOSIG
ZHHH,2003-08-15 08:00,ZHHH 150800Z 34004MPS 6000 -RA FEW007 BKN025 OVC050 24/23 Q1007 NOSIG
ZHHH,2003-08-15 09:00,ZHHH 150900Z 35004MPS 3000 -RA BR FEW007 BKN020 OVC050 24/24 Q1007 NOSIG
ZHHH,2003-08-15 10:00,ZHHH 151000Z 36004MPS 9999 FEW007 BKN020 OVC050 24/24 Q1007 NOSIG
ZHHH,2003-08-15 11:00,ZHHH 151100Z 01004MPS 9999 -RA FEW007 BKN020 OVC050 24/23 Q1008 NOSIG
ZHHH,2003-08-15 12:00,ZHHH 151200Z 01003MPS 9999 FEW007 BKN020 OVC050 24/23 Q1008 NOSIG
ZHHH,2003-08-15 13:00,ZHHH 151300Z 03005MPS 360V060 9999 BKN020 OVC050 23/22 Q1009 NOSIG
ZHHH,2003-08-15 14:00,ZHHH 151400Z 03003MPS 360V060 CAVOK 23/22 Q1009 NOSIG
ZHHH,2003-08-15 15:00,ZHHH 151500Z 01003MPS 9999 SCT010 OVC066 23/22 Q1009 NOSIG
ZHHH,2003-08-15 16:00,ZHHH 151600Z 35002MPS 9999 SCT010 OVC066 22/22 Q1009 NOSIG
ZHHH,2003-08-15 17:00,ZHHH 151700Z 03004MPS 360V070 9999 SCT010 OVC060 22/21 Q1009 NOSIG
ZHHH,2003-08-15 18:00,ZHHH 151800Z 36002MPS 9999 SCT010 OVC060 22/21 Q1009 NOSIG
ZHHH,2003-08-15 19:00,ZHHH 151900Z 03005MPS 350V070 9999 SCT010 OVC060 22/21 Q1009 NOSIG
ZHHH,2003-08-15 20:00,ZHHH 152000Z 03006MPS 000V060 9999 FEW010 OVC060 21/20 Q1009 NOSIG
ZHHH,2003-08-15 21:00,ZHHH 152100Z 02004MPS 9999 -RA FEW010 OVC060 21/20 Q1010 NOSIG
ZHHH,2003-08-15 22:00,ZHHH 152200Z 03004MPS 360V060 9999 -RA SCT010 OVC040 20/20 Q1010 NOSIG
ZHHH,2003-08-15 23:00,ZHHH 152300Z 03004MPS 000V060 9999 FEW006 SCT010 OVC033 20/20 Q1011 NOSIG
ZHHH,2003-08-16 00:00,ZHHH 160000Z 02004MPS 350V050 9999 -RA FEW006 BKN012 OVC033 20/20 Q1011 NOSIG
ZHHH,2003-08-16 01:00,ZHHH 160100Z 02004MPS 350V050 9999 -RA FEW006 SCT020 OVC036 21/20 Q1011 NOSIG
ZHHH,2003-08-16 02:00,ZHHH 160200Z 02004MPS 350V050 9999 -RA FEW006 SCT010 OVC036 21/20 Q1012 NOSIG
ZHHH,2003-08-16 03:00,ZHHH 160300Z 02004MPS 9999 -RA FEW006 SCT016 OVC040 21/20 Q1011 NOSIG
ZHHH,2003-08-16 04:00,ZHHH 160400Z 03005MPS 9999 -RA FEW006 SCT016 OVC040 22/20 Q1011 NOSIG
ZHHH,2003-08-16 05:00,ZHHH 160500Z 02005MPS 360V060 9999 FEW006 SCT016 OVC040 22/20 Q1011 NOSIG
ZHHH,2003-08-16 06:00,ZHHH 160600Z 02005MPS 350V050 9999 -RA FEW006 SCT016 OVC040 22/20 Q1011 NOSIG
ZHHH,2003-08-16 07:00,ZHHH 160700Z 02005MPS 350V050 9999 -RA FEW006 SCT016 OVC040 22/20 Q1011 NOSIG
ZHHH,2003-08-16 08:00,ZHHH 160800Z 36003MPS 330V030 6000 -RA SCT006 FEW026TCU OVC040 21/21 Q1011 NOSIG
ZHHH,2003-08-16 09:00,ZHHH 160900Z 02004MPS 350V050 3000 -RA SCT005 OVC040 21/20 Q1011 NOSIG
ZHHH,2003-08-16 10:00,ZHHH 161000Z 03004MPS 000V060 5000 -RA FEW005 OVC030 20/20 Q1011 NOSIG
ZHHH,2003-08-16 11:00,ZHHH 161100Z 01003MPS 340V040 5000 -RA FEW006 OVC030 21/20 Q1011 NOSIG
ZHHH,2003-08-16 12:00,ZHHH 161200Z 36002MPS 5000 -RA SCT015 OVC030 21/21 Q1012 NOSIG
ZHHH,2003-08-16 13:00,ZHHH 161300Z 03003MPS 5000 -RA SCT023 OVC030 21/21 Q1012 NOSIG
ZHHH,2003-08-16 14:00,ZHHH 161400Z 01002MPS 6000 SCT018 OVC030 21/21 Q1013 NOSIG
ZHHH,2003-08-16 15:00,ZHHH 161500Z 02002MPS 6000 -RA SCT016 OVC033 21/21 Q1013 NOSIG
ZHHH,2003-08-16 16:00,ZHHH 161600Z 36002MPS 2100 -RA BR FEW016 OVC033 21/21 Q1013 NOSIG
ZHHH,2003-08-16 17:00,ZHHH 161700Z 35003MPS 2500 -DZ BR SCT005 OVC033 21/21 Q1012 NOSIG
ZHHH,2003-08-16 18:00,ZHHH 161800Z 02003MPS 2500 BR FEW005 OVC033 21/21 Q1012 NOSIG
ZHHH,2003-08-16 19:00,ZHHH 161900Z 03003MPS 000V060 3000 BR FEW005 OVC033 21/21 Q1011 NOSIG
ZHHH,2003-08-16 20:00,ZHHH 162000Z 03002MPS 4000 BR SCT020 OVC033 21/21 Q1011 NOSIG
ZHHH,2003-08-16 21:00,ZHHH 162100Z 02003MPS 4000 BR SCT020 OVC033 21/21 Q1011 NOSIG
ZHHH,2003-08-16 22:00,ZHHH 162200Z 34002MPS 3000 -RA BR SCT006 SCT015 OVC033 21/21 Q1012 NOSIG
ZHHH,2003-08-16 23:00,ZHHH 162300Z 34002MPS 2100 -RA BR SCT006 SCT015 OVC033 21/21 Q1012 NOSIG
ZHHH,2003-08-17 00:00,ZHHH 170000Z 34002MPS 2500 -RA BR SCT006 SCT015 OVC033 21/21 Q1012 NOSIG
ZHHH,2003-08-17 01:00,ZHHH 170100Z 02002MPS 3000 -RA BR SCT006 OVC033 21/21 Q1013 NOSIG
ZHHH,2003-08-17 02:00,ZHHH 170200Z 36003MPS 2500 -RA BR SCT006 SCT010 OVC033 21/21 Q1013 NOSIG
ZHHH,2003-08-17 03:00,ZHHH 170300Z 04003MPS 2500 -RA BR SCT006 SCT010 OVC033 22/22 Q1013 NOSIG
ZHHH,2003-08-17 04:00,ZHHH 170400Z 08005MPS 9999 -RA FEW010 OVC060 22/22 Q1012 NOSIG
ZHHH,2003-08-17 05:00,ZHHH 170500Z 05003MPS 010V070 9999 SCT022 OVC060 23/23 Q1012 NOSIG
ZHHH,2003-08-17 06:00,ZHHH 170600Z 06006MPS 9999 -RA FEW006 SCT022 OVC060 23/23 Q1012 NOSIG
ZHHH,2003-08-17 07:00,ZHHH 170700Z 07004MPS 9999 BKN018 OVC060 24/22 Q1012 NOSIG
ZHHH,2003-08-17 08:00,ZHHH 170800Z 02003MPS 9999 FEW018 BKN040 OVC070 24/22 Q1012 NOSIG
ZHHH,2003-08-17 09:00,ZHHH 170900Z 03003MPS 360V070 9999 BKN040 OVC060 24/23 Q1012 NOSIG
ZHHH,2003-08-17 10:00,ZHHH 171000Z 02002MPS 9999 BKN033 OVC060 24/23 Q1012 NOSIG
ZHHH,2003-08-17 11:00,ZHHH 171100Z 35001MPS 9999 SCT033 OVC060 24/23 Q1012 NOSIG
ZHHH,2003-08-17 12:00,ZHHH 171200Z 36002MPS 9999 SCT033 OVC060 24/23 Q1012 NOSIG
ZHHH,2003-08-17 13:00,ZHHH 171300Z 01002MPS 9999 SCT033 OVC060 24/23 Q1012 NOSIG
ZHHH,2003-08-17 14:00,ZHHH 171400Z 36002MPS 9999 SCT033 OVC060 23/23 Q1013 NOSIG
ZHHH,2003-08-17 15:00,ZHHH 171500Z 02003MPS 9999 SCT033 OVC060 23/22 Q1013 NOSIG
ZHHH,2003-08-17 16:00,ZHHH 171600Z 02003MPS 350V050 9999 SCT033 OVC060 23/22 Q1012 NOSIG
ZHHH,2003-08-17 17:00,ZHHH 171700Z 01002MPS 9999 SCT033 OVC060 23/22 Q1012 NOSIG
ZHHH,2003-08-17 18:00,ZHHH 171800Z 03002MPS 9999 SCT033 OVC060 23/22 Q1011 NOSIG
ZHHH,2003-08-17 19:00,ZHHH 171900Z 01002MPS 9999 SCT033 OVC060 23/22 Q1011 NOSIG
ZHHH,2003-08-17 20:00,ZHHH 172000Z 03002MPS CAVOK 23/22 Q1011 NOSIG
ZHHH,2003-08-17 21:00,ZHHH 172100Z 33003MPS CAVOK 23/22 Q1011 NOSIG
ZHHH,2003-08-17 22:00,ZHHH 172200Z 35001MPS 9999 -RA FEW016 OVC060 23/22 Q1011 NOSIG
ZHHH,2003-08-17 23:00,ZHHH 172300Z 01002MPS 3000 BR BKN030 OVC060 23/22 Q1011 NOSIG
ZHHH,2003-08-18 00:00,ZHHH 180000Z 02002MPS 4000 BR BKN030 OVC050 23/23 Q1011 NOSIG
ZHHH,2003-08-18 01:00,ZHHH 180100Z 04003MPS 360V070 4000 BR BKN033 OVC050 24/23 Q1012 NOSIG
ZHHH,2003-08-18 02:00,ZHHH 180200Z 04004MPS 5000 BR SCT040 OVC070 25/23 Q1011 NOSIG
ZHHH,2003-08-18 03:00,ZHHH 180300Z 05003MPS 9999 FEW020 OVC070 26/23 Q1011 NOSIG
ZHHH,2003-08-18 04:00,ZHHH 180400Z 06002MPS 9999 SCT020 BKN100 27/24 Q1011 NOSIG
ZHHH,2003-08-18 05:00,ZHHH 180500Z 08002MPS 9999 BKN020 BKN100 28/24 Q1011 NOSIG
ZHHH,2003-08-18 06:00,ZHHH 180600Z 13001MPS 9999 BKN020 BKN100 27/24 Q1010 NOSIG
ZHHH,2003-08-18 07:00,ZHHH 180700Z 25002MPS 9999 BKN020 OVC100 27/24 Q1010 NOSIG
ZHHH,2003-08-18 08:00,ZHHH 180800Z 18001MPS 9999 BKN020 OVC100 27/24 Q1009 NOSIG
ZHHH,2003-08-18 09:00,ZHHH 180900Z 12001MPS 9999 SCT033 BKN120 28/24 Q1009 NOSIG
ZHHH,2003-08-18 10:00,ZHHH 181000Z 00000MPS 9999 FEW030 BKN100 27/24 Q1009 NOSIG
ZHHH,2003-08-18 11:00,ZHHH 181100Z 00000MPS 9999 SCT030 BKN070 27/24 Q1009 NOSIG
ZHHH,2003-08-18 12:00,ZHHH 181200Z 00000MPS 9999 SCT033 BKN070 26/24 Q1009 NOSIG
ZHHH,2003-08-18 13:00,ZHHH 181300Z 00000MPS 9999 SCT020 OVC050 26/25 Q1009 NOSIG
ZHHH,2003-08-18 14:00,ZHHH 181400Z 16001MPS 3000 BR SCT020 OVC050 26/24 Q1009 NOSIG
ZHHH,2003-08-18 15:00,ZHHH 181500Z 21001MPS 2000 BR FEW020 OVC050 25/24 Q1009 NOSIG
ZHHH,2003-08-18 16:00,ZHHH 181600Z 26001MPS 1700 BR NSC 25/24 Q1009 NOSIG
ZHHH,2003-08-18 17:00,ZHHH 181700Z 22002MPS 1700 BR NSC 25/25 Q1009 NOSIG
ZHHH,2003-08-18 18:00,ZHHH 181800Z 28001MPS 2000 BR NSC 25/24 Q1008 NOSIG
ZHHH,2003-08-18 19:00,ZHHH 181900Z 07001MPS 2000 BR NSC 25/24 Q1008 NOSIG
ZHHH,2003-08-18 20:00,ZHHH 182000Z 08002MPS 2500 BR NSC 24/24 Q1008 NOSIG
ZHHH,2003-08-18 21:00,ZHHH 182100Z 08002MPS 2500 BR NSC 24/23 Q1008 NOSIG
ZHHH,2003-08-18 22:00,ZHHH 182200Z 08003MPS 9999 NSC 24/23 Q1008 NOSIG
ZHHH,2003-08-18 23:00,ZHHH 182300Z 07004MPS CAVOK 24/23 Q1008 NOSIG
ZHHH,2003-08-19 00:00,ZHHH 190000Z 07002MPS 9999 BKN020 OVC070 24/23 Q1009 NOSIG
ZHHH,2003-08-19 01:00,ZHHH 190100Z 08003MPS 9999 BKN040 OVC070 24/23 Q1009 NOSIG
ZHHH,2003-08-19 02:00,ZHHH 190200Z 06003MPS 9999 BKN040 OVC080 25/23 Q1009 NOSIG
ZHHH,2003-08-19 03:00,ZHHH 190300Z 06002MPS CAVOK 26/24 Q1009 NOSIG
ZHHH,2003-08-19 04:00,ZHHH 190400Z 01002MPS 9999 BKN019 OVC100 27/24 Q1008 NOSIG
ZHHH,2003-08-19 05:00,ZHHH 190500Z 02002MPS 9999 BKN020 OVC100 27/25 Q1008 NOSIG
ZHHH,2003-08-19 06:00,ZHHH 190600Z 33003MPS 290V000 9999 BKN021 OVC100 27/25 Q1008 NOSIG
ZHHH,2003-08-19 07:00,ZHHH 190700Z 36003MPS 9999 BKN022 OVC100 27/25 Q1007 NOSIG
ZHHH,2003-08-19 08:00,ZHHH 190800Z 36002MPS 9999 FEW022 SCT050 OVC100 27/25 Q1007 NOSIG
ZHHH,2003-08-19 09:00,ZHHH 190900Z 33002MPS 9999 SCT020 SCT040 OVC100 28/25 Q1007 NOSIG
ZHHH,2003-08-19 10:00,ZHHH 191000Z 34001MPS 9999 SCT020 BKN100 28/25 Q1006 NOSIG
ZHHH,2003-08-19 11:00,ZHHH 191100Z 35002MPS CAVOK 27/25 Q1006 NOSIG
ZHHH,2003-08-19 12:00,ZHHH 191200Z 36002MPS 9999 FEW030 SCT120 26/25 Q1006 NOSIG
ZHHH,2003-08-19 13:00,ZHHH 191300Z 06002MPS CAVOK 26/24 Q1007 NOSIG
ZHHH,2003-08-19 14:00,ZHHH 191400Z 04003MPS CAVOK 25/24 Q1007 NOSIG
ZHHH,2003-08-19 15:00,ZHHH 191500Z 04004MPS CAVOK 25/24 Q1007 NOSIG
ZHHH,2003-08-19 16:00,ZHHH 191600Z 04003MPS CAVOK 24/23 Q1007 NOSIG
ZHHH,2003-08-19 17:00,ZHHH 191700Z 04003MPS 000V070 CAVOK 24/23 Q1007 NOSIG
ZHHH,2003-08-19 18:00,ZHHH 191800Z 04003MPS CAVOK 23/23 Q1007 NOSIG
ZHHH,2003-08-19 19:00,ZHHH 191900Z 06003MPS CAVOK 23/23 Q1006 NOSIG
ZHHH,2003-08-19 20:00,ZHHH 192000Z 04002MPS CAVOK 23/22 Q1006 NOSIG
ZHHH,2003-08-19 21:00,ZHHH 192100Z 05002MPS CAVOK 22/22 Q1006 NOSIG
ZHHH,2003-08-19 22:00,ZHHH 192200Z 03002MPS 6000 NSC 22/22 Q1007 NOSIG
ZHHH,2003-08-19 23:00,ZHHH 192300Z 04004MPS 6000 NSC 22/22 Q1007 NOSIG
ZHHH,2003-08-20 00:00,ZHHH 200000Z 05004MPS 9999 FEW007 24/23 Q1007 NOSIG
ZHHH,2003-08-20 01:00,ZHHH 200100Z 07003MPS 020V120 9999 FEW007 26/24 Q1008 NOSIG
ZHHH,2003-08-20 02:00,ZHHH 200200Z 06003MPS 030V110 9999 SCT020 27/24 Q1007 NOSIG
ZHHH,2003-08-20 03:00,ZHHH 200300Z 03003MPS 330V070 9999 SCT020 29/25 Q1007 NOSIG
ZHHH,2003-08-20 04:00,ZHHH 200400Z 01003MPS 330V060 9999 BKN020 30/26 Q1006 NOSIG
ZHHH,2003-08-20 05:00,ZHHH 200500Z 01003MPS 330V060 9999 SCT022 31/26 Q1006 NOSIG
ZHHH,2003-08-20 06:00,ZHHH 200600Z 36004MPS 310V060 9999 SCT023 31/25 Q1005 NOSIG
ZHHH,2003-08-20 07:00,ZHHH 200700Z 34003MPS 300V020 9999 BKN023 33/26 Q1004 NOSIG
ZHHH,2003-08-20 08:00,ZHHH 200800Z 34004MPS 280V020 9999 SCT023 FEW026TCU 33/27 Q1004 NOSIG
ZHHH,2003-08-20 09:00,ZHHH 200900Z 01004MPS 9999 SCT023 FEW030CB 32/27 Q1004 NOSIG
ZHHH,2003-08-20 10:00,ZHHH 201000Z 03005MPS 000V060 9999 SCT023 FEW030CB 30/25 Q1004 NOSIG
ZHHH,2003-08-20 11:00,ZHHH 201100Z 03006MPS 9999 FEW023 FEW030CB 28/25 Q1005 NOSIG
ZHHH,2003-08-20 12:00,ZHHH 201200Z 02005MPS 9999 FEW030CB 27/24 Q1006 NOSIG
ZHHH,2003-08-20 13:00,ZHHH 201300Z 02005MPS 9999 FEW023 FEW030CB 26/24 Q1006 NOSIG
ZHHH,2003-08-20 14:00,ZHHH 201400Z 02005MPS 9999 FEW023 26/24 Q1006 NOSIG
ZHHH,2003-08-20 15:00,ZHHH 201500Z 03004MPS CAVOK 26/24 Q1006 NOSIG
ZHHH,2003-08-20 16:00,ZHHH 201600Z 02004MPS 5000 BR NSC 25/24 Q1006 NOSIG
ZHHH,2003-08-20 17:00,ZHHH 201700Z 03003MPS 000V060 5000 BR NSC 26/24 Q1006 NOSIG
ZHHH,2003-08-20 18:00,ZHHH 201800Z 01002MPS 5000 BR SKC 25/24 Q1005 NOSIG
ZHHH,2003-08-20 19:00,ZHHH 201900Z 34003MPS 310V010 3500 BR SKC 25/24 Q1005 NOSIG
ZHHH,2003-08-20 20:00,ZHHH 202000Z 31003MPS 2000 BR SKC 25/24 Q1005 NOSIG
ZHHH,2003-08-20 21:00,ZHHH 202100Z 35002MPS 2500 BR SKC 25/25 Q1005 NOSIG
ZHHH,2003-08-20 22:00,ZHHH 202200Z 33001MPS 1600 BR BKN020 25/25 Q1005 NOSIG
ZHHH,2003-08-20 23:00,ZHHH 202300Z 35002MPS 2000 BR FEW020 BKN033 25/25 Q1006 NOSIG
ZHHH,2003-08-21 00:00,ZHHH 210000Z 06002MPS 3000 BR FEW020 BKN033 26/25 Q1006 NOSIG
ZHHH,2003-08-21 01:00,ZHHH 210100Z 02003MPS 4000 BR FEW015 BKN050 27/26 Q1006 NOSIG
ZHHH,2003-08-21 02:00,ZHHH 210200Z 08004MPS 7000 BKN020 SCT050 28/26 Q1007 NOSIG
ZHHH,2003-08-21 03:00,ZHHH 210300Z 10004MPS 060V130 7000 BKN020 30/26 Q1007 NOSIG
ZHHH,2003-08-21 04:00,ZHHH 210400Z 12003MPS 080V180 9999 FEW020TCU SCT030 30/26 Q1006 NOSIG
ZHHH,2003-08-21 05:00,ZHHH 210500Z 16002MPS 9999 FEW020TCU SCT030 32/26 Q1006 NOSIG
ZHHH,2003-08-21 06:00,ZHHH 210600Z 13002MPS 5000 BR SCT020CB SCT020 30/27 Q1005 NOSIG
ZHHH,2003-08-21 07:00,ZHHH 210700Z 12001MPS 6000 SCT020CB FEW020 32/27 Q1005 NOSIG
ZHHH,2003-08-21 08:00,ZHHH 210800Z 11004MPS 6000 SCT020CB FEW020 31/26 Q1004 NOSIG
ZHHH,2003-08-21 09:00,ZHHH 210900Z 10004MPS 9999 FEW030TCU SCT030 32/26 Q1004 NOSIG
ZHHH,2003-08-21 10:00,ZHHH 211000Z 10003MPS 9999 FEW030CB SCT030 31/27 Q1005 NOSIG
ZHHH,2003-08-21 11:00,ZHHH 211100Z 09003MPS 9999 FEW028TCU SCT028 30/27 Q1005 NOSIG
ZHHH,2003-08-21 12:00,ZHHH 211200Z 05002MPS 9999 FEW028TCU SCT028 30/27 Q1006 NOSIG
ZHHH,2003-08-21 13:00,ZHHH 211300Z 03002MPS 9999 BKN030 30/27 Q1006 NOSIG
ZHHH,2003-08-21 14:00,ZHHH 211400Z 09002MPS 9999 BKN040 29/27 Q1007 NOSIG
ZHHH,2003-08-21 15:00,ZHHH 211500Z 10002MPS CAVOK 29/27 Q1007 NOSIG
ZHHH,2003-08-21 16:00,ZHHH 211600Z 10003MPS 040V130 4000 BR SCT022 BKN040 27/27 Q1007 NOSIG
ZHHH,2003-08-21 17:00,ZHHH 211700Z 06003MPS 4000 BR SCT022 BKN040 27/27 Q1007 NOSIG
ZHHH,2003-08-21 18:00,ZHHH 211800Z 06002MPS 2500 BR SCT022 BKN040 27/26 Q1007 NOSIG
ZHHH,2003-08-21 19:00,ZHHH 211900Z 08002MPS 3000 BR NSC 27/26 Q1007 NOSIG
ZHHH,2003-08-21 20:00,ZHHH 212000Z 11003MPS 3000 BR SKC 27/27 Q1007 NOSIG
ZHHH,2003-08-21 21:00,ZHHH 212100Z 11003MPS 3000 BR NSC 27/27 Q1007 NOSIG
ZHHH,2003-08-21 22:00,ZHHH 212200Z 10003MPS 5000 BR NSC 27/26 Q1008 NOSIG
ZHHH,2003-08-21 23:00,ZHHH 212300Z 11003MPS 5000 BR NSC 27/27 Q1008 NOSIG
ZHHH,2003-08-22 00:00,ZHHH 220000Z 12004MPS 5000 BR NSC 28/28 Q1009 NOSIG
ZHHH,2003-08-22 01:00,ZHHH 220100Z 14004MPS CAVOK 30/28 Q1009 NOSIG
ZHHH,2003-08-22 02:00,ZHHH 220200Z 15004MPS CAVOK 31/27 Q1009 NOSIG
ZHHH,2003-08-22 03:00,ZHHH 220300Z 15003MPS 9999 FEW033TCU SCT033 BKN120 31/26 Q1009 NOSIG
ZHHH,2003-08-22 04:00,ZHHH 220400Z 20004MPS 180V240 9999 FEW033TCU SCT033 BKN120 32/26 Q1009 NOSIG
ZHHH,2003-08-22 05:00,ZHHH 220500Z 23003MPS 210V270 9999 FEW033TCU BKN120 32/26 Q1009 NOSIG
ZHHH,2003-08-22 06:00,ZHHH 220600Z 23003MPS 190V250 9999 FEW033TCU BKN150 33/26 Q1009 NOSIG
ZHHH,2003-08-22 07:00,ZHHH 220700Z AUTO 26006KT 7SM 33/26 A2977 RMK SLP083 T03300260 IEM_DS3505
ZHHH,2003-08-22 08:00,ZHHH 220800Z AUTO 26002KT 7SM 33/26 A2977 RMK SLP083 T03300260 IEM_DS3505
ZHHH,2003-08-22 09:00,ZHHH 220900Z AUTO 22002KT 9SM 33/25 A2974 RMK SLP074 T03270248 57013 IEM_DS3505
ZHHH,2003-08-22 10:00,ZHHH 221000Z 09002MPS CAVOK 32/27 Q1007 NOSIG
ZHHH,2003-08-22 11:00,ZHHH 221100Z 08001MPS CAVOK 31/27 Q1007 NOSIG
ZHHH,2003-08-22 12:00,ZHHH 221200Z 08001MPS CAVOK 31/27 Q1008 NOSIG
ZHHH,2003-08-22 13:00,ZHHH 221300Z 11003MPS CAVOK 30/27 Q1008 NOSIG
ZHHH,2003-08-22 14:00,ZHHH 221400Z 11002MPS CAVOK 29/27 Q1009 NOSIG
ZHHH,2003-08-22 15:00,ZHHH 221500Z 09002MPS CAVOK 29/27 Q1009 NOSIG
ZHHH,2003-08-22 16:00,ZHHH 221600Z 09002MPS CAVOK 28/27 Q1009 NOSIG
ZHHH,2003-08-22 17:00,ZHHH 221700Z 10002MPS CAVOK 28/26 Q1009 NOSIG
ZHHH,2003-08-22 18:00,ZHHH 221800Z 12003MPS CAVOK 27/27 Q1009 NOSIG
ZHHH,2003-08-22 19:00,ZHHH 221900Z AUTO 12002MPS //// // ////// 27/26 Q1009 NOSIG
ZHHH,2003-08-22 20:00,ZHHH 222000Z 11002MPS CAVOK 27/26 Q1009 NOSIG
ZHHH,2003-08-22 21:00,ZHHH 222100Z 12002MPS CAVOK 27/26 Q1009 NOSIG
ZHHH,2003-08-22 22:00,ZHHH 222200Z 08002MPS CAVOK 26/26 Q1008 NOSIG
ZHHH,2003-08-22 23:00,ZHHH 222300Z 10002MPS 6000 SKC 27/26 Q1009 NOSIG
ZHHH,2003-08-23 00:00,ZHHH 230000Z 14003MPS 6000 SKC 29/27 Q1009 NOSIG
ZHHH,2003-08-23 01:00,ZHHH 230100Z 14003MPS 7000 SKC 31/28 Q1009 NOSIG
ZHHH,2003-08-23 02:00,ZHHH 230200Z 21004MPS 150V260 CAVOK 33/26 Q1009 NOSIG
ZHHH,2003-08-23 03:00,ZHHH 230300Z 24003MPS 210V300 CAVOK 34/26 Q1009 NOSIG
ZHHH,2003-08-23 04:00,ZHHH 230400Z 22003MPS 180V290 9999 SCT023 34/26 Q1008 NOSIG
ZHHH,2003-08-23 05:00,ZHHH 230500Z 23004MPS 200V270 9999 SCT023 FEW030TCU 35/26 Q1008 NOSIG
ZHHH,2003-08-23 06:00,ZHHH 230600Z 22004MPS 180V280 9999 SCT023 FEW030TCU 36/26 Q1007 NOSIG
ZHHH,2003-08-23 07:00,ZHHH 230700Z 26004MPS 9999 SCT023 FEW030TCU 36/26 Q1006 NOSIG
ZHHH,2003-08-23 08:00,ZHHH 230800Z 25003MPS 210V300 9999 FEW023 FEW030TCU 36/26 Q1006 NOSIG
ZHHH,2003-08-23 09:00,ZHHH 230900Z 25003MPS 210V280 9999 SCT023 FEW030TCU 36/26 Q1006 NOSIG
ZHHH,2003-08-23 10:00,ZHHH 231000Z 26003MPS CAVOK 35/26 Q1006 NOSIG
ZHHH,2003-08-23 11:00,ZHHH 231100Z 26002MPS CAVOK 33/26 Q1006 NOSIG
ZHHH,2003-08-23 12:00,ZHHH 231200Z 00000MPS CAVOK 33/26 Q1006 NOSIG
ZHHH,2003-08-23 13:00,ZHHH 231300Z 00000MPS CAVOK 32/26 Q1007 NOSIG
ZHHH,2003-08-23 14:00,ZHHH 231400Z 00000MPS CAVOK 32/27 Q1007 NOSIG
ZHHH,2003-08-23 15:00,ZHHH 231500Z 00000MPS CAVOK 31/27 Q1007 NOSIG
ZHHH,2003-08-23 16:00,ZHHH 231600Z 06002MPS CAVOK 30/27 Q1007 NOSIG
ZHHH,2003-08-23 17:00,ZHHH 231700Z 05002MPS CAVOK 30/27 Q1007 NOSIG
ZHHH,2003-08-23 18:00,ZHHH 231800Z 07002MPS CAVOK 29/27 Q1007 NOSIG
ZHHH,2003-08-23 19:00,ZHHH 231900Z 04002MPS CAVOK 28/27 Q1007 NOSIG
ZHHH,2003-08-23 20:00,ZHHH 232000Z 00000MPS CAVOK 28/27 Q1006 NOSIG
ZHHH,2003-08-23 21:00,ZHHH 232100Z 05002MPS 5000 BR SKC 28/27 Q1006 NOSIG
ZHHH,2003-08-23 22:00,ZHHH 232200Z 12002MPS 4000 BR NSC 28/27 Q1006 NOSIG
ZHHH,2003-08-23 23:00,ZHHH 232300Z 00000MPS 3000 BR NSC 28/27 Q1006 NOSIG
ZHHH,2003-08-24 00:00,ZHHH 240000Z 12002MPS 2500 BR NSC 29/28 Q1007 NOSIG
ZHHH,2003-08-24 01:00,ZHHH 240100Z 12003MPS 2500 BR NSC 30/28 Q1007 NOSIG
ZHHH,2003-08-24 02:00,ZHHH 240200Z 13002MPS 1800 BR NSC 33/29 Q1007 NOSIG
ZHHH,2003-08-24 03:00,ZHHH 240300Z 18002MPS 3000 HZ FEW030TCU 35/29 Q1007 NOSIG
ZHHH,2003-08-24 04:00,ZHHH 240400Z 24003MPS 170V300 9999 FEW025 SCT250 36/27 Q1006 NOSIG
ZHHH,2003-08-24 05:00,ZHHH 240500Z 25003MPS 200V310 9999 FEW025 SCT250 37/27 Q1006 NOSIG
ZHHH,2003-08-24 06:00,ZHHH 240600Z 25003MPS 210V300 9999 FEW025TCU FEW025 SCT250 36/27 Q1005 NOSIG
ZHHH,2003-08-24 07:00,ZHHH 240700Z 26004MPS 220V290 9999 FEW025 SCT250 37/27 Q1004 NOSIG
ZHHH,2003-08-24 08:00,ZHHH 240800Z 22004MPS 190V260 9999 FEW025 SCT250 36/26 Q1004 NOSIG
ZHHH,2003-08-24 09:00,ZHHH 240900Z 23003MPS CAVOK 35/26 Q1004 NOSIG
ZHHH,2003-08-24 10:00,ZHHH 241000Z 17002MPS CAVOK 34/26 Q1004 NOSIG
ZHHH,2003-08-24 11:00,ZHHH 241100Z 13002MPS CAVOK 33/29 Q1004 NOSIG
ZHHH,2003-08-24 12:00,ZHHH 241200Z 09001MPS 6000 NSC 32/28 Q1005 NOSIG
ZHHH,2003-08-24 13:00,ZHHH 241300Z 06004MPS 3000 BR NSC 31/29 Q1006 NOSIG
ZHHH,2003-08-24 14:00,ZHHH 241400Z 05004MPS 3500 BR SKC 29/27 Q1006 NOSIG
ZHHH,2003-08-24 15:00,ZHHH 241500Z 05004MPS 3500 BR SKC 28/27 Q1006 NOSIG
ZHHH,2003-08-24 16:00,ZHHH 241600Z 05003MPS 3500 BR SKC 28/27 Q1006 NOSIG
ZHHH,2003-08-24 17:00,ZHHH 241700Z 06003MPS 4000 BR NSC 28/26 Q1006 NOSIG
ZHHH,2003-08-24 18:00,ZHHH 241800Z 09003MPS CAVOK 28/26 Q1005 NOSIG
ZHHH,2003-08-24 19:00,ZHHH 241900Z 07003MPS CAVOK 27/26 Q1005 NOSIG
ZHHH,2003-08-24 20:00,ZHHH 242000Z 07003MPS CAVOK 27/26 Q1005 NOSIG
ZHHH,2003-08-24 21:00,ZHHH 242100Z 07003MPS 5000 BR SKC 27/26 Q1005 NOSIG
ZHHH,2003-08-24 22:00,ZHHH 242200Z 09003MPS 5000 BR NSC 27/26 Q1005 NOSIG
ZHHH,2003-08-24 23:00,ZHHH 242300Z 08003MPS 5000 BR NSC 27/26 Q1006 NOSIG
ZHHH,2003-08-25 00:00,ZHHH 250000Z 08003MPS 5000 BR FEW015 SCT160 29/27 Q1007 NOSIG
ZHHH,2003-08-25 01:00,ZHHH 250100Z 10003MPS 5000 BR FEW030TCU BKN030 30/27 Q1007 NOSIG
ZHHH,2003-08-25 02:00,ZHHH 250200Z 11003MPS 080V150 9999 SCT030 32/28 Q1008 NOSIG
ZHHH,2003-08-25 03:00,ZHHH 250300Z 12003MPS 080V150 5000 HZ FEW030 33/28 Q1008 NOSIG
ZHHH,2003-08-25 04:00,ZHHH 250400Z 18002MPS CAVOK 35/28 Q1007 NOSIG
ZHHH,2003-08-25 05:00,ZHHH 250500Z 30002MPS 9999 FEW030TCU FEW030 BKN230 36/26 Q1006 NOSIG
ZHHH,2003-08-25 06:00,ZHHH 250600Z 26003MPS 230V300 9999 FEW030TCU FEW030 BKN230 36/26 Q1006 NOSIG
ZHHH,2003-08-25 07:00,ZHHH 250700Z 17002MPS 9999 FEW030TCU FEW030 BKN230 36/27 Q1006 NOSIG
ZHHH,2003-08-25 08:00,ZHHH 250800Z 09002MPS 9999 SCT030TCU FEW030 BKN230 35/28 Q1005 NOSIG
ZHHH,2003-08-25 09:00,ZHHH 250900Z 07002MPS 9999 TS SCT020 FEW030CB 30/28 Q1005 RERA NOSIG
ZHHH,2003-08-25 10:00,ZHHH 251000Z 04003MPS 9999 SCT030CB SCT030 32/28 Q1005 NOSIG
ZHHH,2003-08-25 11:00,ZHHH 251100Z 27005G11MPS 190V350 9999 -SHRA SCT030CB SCT030 29/26 Q1005 RERA NOSIG
ZHHH,2003-08-25 12:00,ZHHH 251200Z 08002MPS 9999 FEW030TCU SCT030 29/26 Q1006 NOSIG
ZHHH,2003-08-25 13:00,ZHHH 251300Z 05002MPS 9999 SCT030TCU SCT030 29/26 Q1007 NOSIG
ZHHH,2003-08-25 14:00,ZHHH 251400Z 00000MPS 9999 TS SCT030CB FEW030 29/26 Q1007 NOSIG
ZHHH,2003-08-25 15:00,ZHHH 251500Z 36001MPS 9999 FEW030CB SCT030 29/23 Q1007 RETS NOSIG
ZHHH,2003-08-25 16:00,ZHHH 251600Z 09002MPS 9999 SCT030 29/25 Q1006 NOSIG
ZHHH,2003-08-25 17:00,ZHHH 251700Z 00000MPS CAVOK 28/26 Q1006 NOSIG
ZHHH,2003-08-25 18:00,ZHHH 251800Z 07002MPS CAVOK 27/26 Q1006 NOSIG
ZHHH,2003-08-25 19:00,ZHHH 251900Z 07001MPS 5000 BR SKC 28/27 Q1005 NOSIG
ZHHH,2003-08-25 20:00,ZHHH 252000Z 14001MPS 5000 BR SKC 29/26 Q1005 NOSIG
ZHHH,2003-08-25 21:00,ZHHH 252100Z 15001MPS 7000 SKC 29/25 Q1005 NOSIG
ZHHH,2003-08-25 22:00,ZHHH 252200Z 17002MPS CAVOK 28/25 Q1006 NOSIG
ZHHH,2003-08-25 23:00,ZHHH 252300Z 16002MPS CAVOK 29/25 Q1006 NOSIG
ZHHH,2003-08-26 00:00,ZHHH 260000Z 17002MPS CAVOK 31/26 Q1006 NOSIG
ZHHH,2003-08-26 01:00,ZHHH 260100Z 20005MPS CAVOK 32/25 Q1006 NOSIG
ZHHH,2003-08-26 02:00,ZHHH 260200Z 20007MPS CAVOK 33/25 Q1007 NOSIG
ZHHH,2003-08-26 03:00,ZHHH 260300Z 22008MPS 9999 FEW025 34/24 Q1007 NOSIG
ZHHH,2003-08-26 04:00,ZHHH 260400Z 23009MPS CAVOK 33/25 Q1006 NOSIG
ZHHH,2003-08-26 05:00,ZHHH 260500Z 23009MPS CAVOK 34/25 Q1006 NOSIG
ZHHH,2003-08-26 06:00,ZHHH 260600Z 21007MPS CAVOK 34/25 Q1006 NOSIG
ZHHH,2003-08-26 07:00,ZHHH 260700Z 23007MPS 9999 FEW023 SCT230 35/26 Q1005 NOSIG
ZHHH,2003-08-26 08:00,ZHHH 260800Z 23008MPS 9999 FEW030 SCT160 35/25 Q1005 NOSIG
ZHHH,2003-08-26 09:00,ZHHH 260900Z 23006MPS 9999 FEW030 SCT250 35/25 Q1005 NOSIG
ZHHH,2003-08-26 10:00,ZHHH 261000Z 23006MPS 9999 FEW030 SCT250 34/25 Q1005 NOSIG
ZHHH,2003-08-26 11:00,ZHHH 261100Z 20004MPS CAVOK 32/26 Q1005 NOSIG
ZHHH,2003-08-26 12:00,ZHHH 261200Z 21004MPS CAVOK 31/26 Q1005 NOSIG
ZHHH,2003-08-26 13:00,ZHHH 261300Z 20004MPS CAVOK 31/26 Q1005 NOSIG
ZHHH,2003-08-26 14:00,ZHHH 261400Z 21005MPS CAVOK 30/26 Q1006 NOSIG
ZHHH,2003-08-26 15:00,ZHHH 261500Z 19003MPS CAVOK 30/25 Q1006 NOSIG
ZHHH,2003-08-26 16:00,ZHHH 261600Z 18003MPS 9999 FEW030 30/25 Q1006 NOSIG
ZHHH,2003-08-26 17:00,ZHHH 261700Z 19002MPS CAVOK 30/25 Q1006 NOSIG
ZHHH,2003-08-26 18:00,ZHHH 261800Z 18002MPS CAVOK 30/25 Q1005 NOSIG
ZHHH,2003-08-26 19:00,ZHHH 261900Z 19003MPS CAVOK 29/25 Q1005 NOSIG
ZHHH,2003-08-26 20:00,ZHHH 262000Z 23003MPS CAVOK 29/25 Q1005 NOSIG
ZHHH,2003-08-26 21:00,ZHHH 262100Z 23008MPS CAVOK 29/25 Q1005 NOSIG
ZHHH,2003-08-26 22:00,ZHHH 262200Z 23006MPS CAVOK 29/25 Q1005 NOSIG
ZHHH,2003-08-26 23:00,ZHHH 262300Z 23006MPS CAVOK 29/25 Q1005 NOSIG
ZHHH,2003-08-27 00:00,ZHHH 270000Z 23007MPS CAVOK 30/25 Q1006 NOSIG
ZHHH,2003-08-27 01:00,ZHHH 270100Z 23009MPS CAVOK 32/25 Q1006 NOSIG
ZHHH,2003-08-27 02:00,ZHHH 270200Z 22009MPS CAVOK 32/25 Q1006 NOSIG
ZHHH,2003-08-27 03:00,ZHHH 270300Z 23006MPS CAVOK 33/26 Q1006 NOSIG
ZHHH,2003-08-27 04:00,ZHHH 270400Z 24007MPS CAVOK 34/26 Q1006 NOSIG
ZHHH,2003-08-27 05:00,ZHHH 270500Z 25006MPS 9999 FEW030 SCT200 35/26 Q1005 NOSIG
ZHHH,2003-08-27 06:00,ZHHH 270600Z 24006MPS 9999 SCT020 35/26 Q1005 NOSIG
ZHHH,2003-08-27 07:00,ZHHH 270700Z 26005MPS 230V290 9999 SCT020 36/27 Q1005 NOSIG
ZHHH,2003-08-27 08:00,ZHHH 270800Z 25004MPS 9999 FEW020 35/26 Q1004 NOSIG
ZHHH,2003-08-27 09:00,ZHHH 270900Z 25004MPS 9999 FEW020TCU FEW020 34/27 Q1004 NOSIG
ZHHH,2003-08-27 10:00,ZHHH 271000Z 24004MPS 9999 FEW020 BKN230 33/27 Q1004 NOSIG
ZHHH,2003-08-27 11:00,ZHHH 271100Z 25003MPS CAVOK 32/27 Q1004 NOSIG
ZHHH,2003-08-27 12:00,ZHHH 271200Z 26002MPS CAVOK 32/27 Q1005 NOSIG
ZHHH,2003-08-27 13:00,ZHHH 271300Z 11001MPS CAVOK 32/26 Q1005 NOSIG
ZHHH,2003-08-27 14:00,ZHHH 271400Z 16002MPS CAVOK 31/27 Q1005 NOSIG
ZHHH,2003-08-27 15:00,ZHHH 271500Z 06003MPS 5000 BR SKC 28/27 Q1005 NOSIG
ZHHH,2003-08-27 16:00,ZHHH 271600Z 07003MPS 4000 BR SKC 27/26 Q1006 NOSIG
ZHHH,2003-08-27 17:00,ZHHH 271700Z 08003MPS 4000 BR SKC 27/26 Q1005 NOSIG
ZHHH,2003-08-27 18:00,ZHHH 271800Z AUTO 07004KT 9SM 29/26 A2968 RMK SLP054 T02890257 57001 IEM_DS3505
ZHHH,2003-08-27 19:00,ZHHH 271900Z 08003MPS 4000 BR SKC 27/25 Q1005 NOSIG
ZHHH,2003-08-27 20:00,ZHHH 272000Z 08003MPS 5000 BR SKC 26/25 Q1005 NOSIG
ZHHH,2003-08-27 21:00,ZHHH 272100Z 13002MPS 5000 BR SKC 27/26 Q1005 NOSIG
ZHHH,2003-08-27 22:00,ZHHH 272200Z 12003MPS 5000 BR NSC 26/25 Q1006 NOSIG
ZHHH,2003-08-27 23:00,ZHHH 272300Z 11003MPS CAVOK 26/26 Q1006 NOSIG
ZHHH,2003-08-28 00:00,ZHHH 280000Z 11003MPS CAVOK 29/27 Q1006 NOSIG
ZHHH,2003-08-28 01:00,ZHHH 280100Z 14003MPS 6000 NSC 31/28 Q1006 NOSIG
ZHHH,2003-08-28 02:00,ZHHH 280200Z 21005MPS 180V240 CAVOK 34/26 Q1006 NOSIG
ZHHH,2003-08-28 03:00,ZHHH 280300Z 22006MPS 190V250 CAVOK 34/27 Q1006 NOSIG
ZHHH,2003-08-28 04:00,ZHHH 280400Z 24006MPS CAVOK 35/27 Q1006 NOSIG
ZHHH,2003-08-28 05:00,ZHHH 280500Z 24006MPS 200V270 9999 FEW030 36/26 Q1005 NOSIG
ZHHH,2003-08-28 06:00,ZHHH 280600Z 25005MPS 9999 SCT030 36/26 Q1005 NOSIG
ZHHH,2003-08-28 07:00,ZHHH 280700Z 23005MPS 210V270 9999 FEW030 36/26 Q1004 NOSIG
ZHHH,2003-08-28 08:00,ZHHH 280800Z 23006MPS 9999 FEW030 SCT250 36/25 Q1004 NOSIG
ZHHH,2003-08-28 09:00,ZHHH 280900Z 24005MPS 9999 FEW030 SCT250 35/26 Q1004 NOSIG
ZHHH,2003-08-28 10:00,ZHHH 281000Z 25003MPS CAVOK 34/27 Q1004 NOSIG
ZHHH,2003-08-28 11:00,ZHHH 281100Z 24003MPS CAVOK 33/26 Q1005 NOSIG
ZHHH,2003-08-28 12:00,ZHHH 281200Z 21002MPS CAVOK 33/26 Q1005 NOSIG
ZHHH,2003-08-28 13:00,ZHHH 281300Z 16001MPS CAVOK 32/26 Q1006 NOSIG
ZHHH,2003-08-28 14:00,ZHHH 281400Z 13002MPS CAVOK 31/28 Q1006 NOSIG
ZHHH,2003-08-28 15:00,ZHHH 281500Z 13003MPS CAVOK 30/27 Q1006 NOSIG
ZHHH,2003-08-28 16:00,ZHHH 281600Z 10002MPS CAVOK 30/28 Q1006 NOSIG
ZHHH,2003-08-28 17:00,ZHHH 281700Z 12002MPS CAVOK 30/27 Q1006 NOSIG
ZHHH,2003-08-28 18:00,ZHHH 281800Z 09002MPS CAVOK 29/27 Q1006 NOSIG
ZHHH,2003-08-28 19:00,ZHHH 281900Z 10002MPS CAVOK 29/27 Q1006 NOSIG
ZHHH,2003-08-28 20:00,ZHHH 282000Z 14003MPS 6000 SKC 29/28 Q1005 NOSIG
ZHHH,2003-08-28 21:00,ZHHH 282100Z 15002MPS 6000 SKC 29/28 Q1005 NOSIG
ZHHH,2003-08-28 22:00,ZHHH 282200Z 14002MPS 3500 BR NSC 30/27 Q1006 NOSIG
ZHHH,2003-08-28 23:00,ZHHH 282300Z 11001MPS 3000 BR NSC 29/28 Q1006 NOSIG
ZHHH,2003-08-29 00:00,ZHHH 290000Z 12001MPS 3000 BR NSC 30/28 Q1007 NOSIG
ZHHH,2003-08-29 01:00,ZHHH 290100Z 19004MPS CAVOK 33/27 Q1007 NOSIG
ZHHH,2003-08-29 02:00,ZHHH 290200Z 21005MPS CAVOK 33/26 Q1007 NOSIG
ZHHH,2003-08-29 03:00,ZHHH 290300Z 22006MPS CAVOK 34/26 Q1007 NOSIG
ZHHH,2003-08-29 04:00,ZHHH 290400Z 23006MPS 9999 FEW033 SCT130 34/27 Q1007 NOSIG
ZHHH,2003-08-29 05:00,ZHHH 290500Z 24006MPS 9999 FEW030 BKN230 35/25 Q1007 NOSIG
ZHHH,2003-08-29 06:00,ZHHH 290600Z 23005MPS 200V260 9999 SCT030 SCT230 36/26 Q1006 NOSIG
ZHHH,2003-08-29 07:00,ZHHH 290700Z 25004MPS 220V280 9999 SCT030 FEW033TCU 37/26 Q1006 NOSIG
ZHHH,2003-08-29 08:00,ZHHH 290800Z 26003MPS 240V300 9999 FEW030 FEW033TCU 35/27 Q1005 NOSIG
ZHHH,2003-08-29 09:00,ZHHH 290900Z 07005MPS 9999 FEW030 FEW033TCU SCT230 31/28 Q1005 NOSIG
ZHHH,2003-08-29 10:00,ZHHH 291000Z 05006MPS CAVOK 29/27 Q1005 NOSIG
ZHHH,2003-08-29 11:00,ZHHH 291100Z 05006MPS CAVOK 27/25 Q1006 NOSIG
ZHHH,2003-08-29 12:00,ZHHH 291200Z 06005MPS CAVOK 26/25 Q1007 NOSIG
ZHHH,2003-08-29 13:00,ZHHH 291300Z 05004MPS CAVOK 26/24 Q1007 NOSIG
ZHHH,2003-08-29 14:00,ZHHH 291400Z 06004MPS CAVOK 25/24 Q1008 NOSIG
ZHHH,2003-08-29 15:00,ZHHH 291500Z 05005MPS CAVOK 25/23 Q1008 NOSIG
ZHHH,2003-08-29 16:00,ZHHH 291600Z 05005MPS CAVOK 24/23 Q1008 NOSIG
ZHHH,2003-08-29 17:00,ZHHH 291700Z 05005MPS CAVOK 24/23 Q1007 NOSIG
ZHHH,2003-08-29 18:00,ZHHH 291800Z 05004MPS CAVOK 24/23 Q1007 NOSIG
ZHHH,2003-08-29 19:00,ZHHH 291900Z 08003MPS CAVOK 24/23 Q1006 NOSIG
ZHHH,2003-08-29 20:00,ZHHH 292000Z 04002MPS CAVOK 24/23 Q1006 NOSIG
ZHHH,2003-08-29 21:00,ZHHH 292100Z 05003MPS CAVOK 23/23 Q1007 NOSIG
ZHHH,2003-08-29 22:00,ZHHH 292200Z 03002MPS 9999 FEW033 23/23 Q1007 NOSIG
ZHHH,2003-08-29 23:00,ZHHH 292300Z 36003MPS 9999 FEW010 24/23 Q1008 NOSIG
ZHHH,2003-08-30 00:00,ZHHH 300000Z 04003MPS 9999 SCT020 BKN070 24/23 Q1008 NOSIG
ZHHH,2003-08-30 01:00,ZHHH 300100Z 03004MPS 360V060 9999 SCT033 OVC070 25/23 Q1009 NOSIG
ZHHH,2003-08-30 02:00,ZHHH 300200Z 04005MPS 000V070 9999 BKN033 OVC060 23/21 Q1010 NOSIG
ZHHH,2003-08-30 03:00,ZHHH 300300Z 04005MPS 9999 BKN033 OVC060 23/20 Q1010 NOSIG
ZHHH,2003-08-30 04:00,ZHHH 300400Z 04007MPS 9999 SCT033 OVC060 22/19 Q1011 NOSIG
ZHHH,2003-08-30 05:00,ZHHH 300500Z 04007MPS 9999 SCT028 OVC060 21/18 Q1011 NOSIG
ZHHH,2003-08-30 06:00,ZHHH 300600Z 02006MPS 9999 SCT028 OVC060 21/18 Q1011 NOSIG
ZHHH,2003-08-30 07:00,ZHHH 300700Z 04007MPS 9999 SCT028 OVC060 21/18 Q1010 NOSIG
ZHHH,2003-08-30 08:00,ZHHH 300800Z 03006MPS 000V060 9999 SCT020 OVC060 22/18 Q1010 NOSIG
ZHHH,2003-08-30 09:00,ZHHH 300900Z 03006MPS 9999 SCT020 OVC120 21/18 Q1010 NOSIG
ZHHH,2003-08-30 10:00,ZHHH 301000Z 03006MPS 360V060 9999 SCT020 OVC100 20/17 Q1010 NOSIG
ZHHH,2003-08-30 11:00,ZHHH 301100Z 03004MPS 360V060 9999 BKN025 OVC100 19/17 Q1011 NOSIG
ZHHH,2003-08-30 12:00,ZHHH 301200Z 03004MPS 9999 FEW010 BKN025 OVC100 19/17 Q1011 NOSIG
ZHHH,2003-08-30 13:00,ZHHH 301300Z 03004MPS 360V060 9999 SCT012 OVC100 19/17 Q1012 NOSIG
ZHHH,2003-08-30 14:00,ZHHH 301400Z 04004MPS 9999 SCT012 OVC100 18/16 Q1013 NOSIG
ZHHH,2003-08-30 15:00,ZHHH 301500Z 03004MPS 360V070 9999 SCT015 OVC070 18/16 Q1013 NOSIG
ZHHH,2003-08-30 16:00,ZHHH 301600Z 03004MPS 000V060 CAVOK 18/16 Q1012 NOSIG
ZHHH,2003-08-30 17:00,ZHHH 301700Z 02003MPS 9999 SCT020 BKN060 18/16 Q1013 NOSIG
ZHHH,2003-08-30 18:00,ZHHH 301800Z 02004MPS 350V050 9999 SCT020 BKN060 18/16 Q1012 NOSIG
ZHHH,2003-08-30 19:00,ZHHH 301900Z 35003MPS 310V030 9999 FEW020 BKN060 18/16 Q1012 NOSIG
ZHHH,2003-08-30 20:00,ZHHH 302000Z 04004MPS 9999 SCT015 OVC060 18/16 Q1012 NOSIG
ZHHH,2003-08-30 21:00,ZHHH 302100Z 05004MPS 9999 SCT015 OVC060 18/16 Q1012 NOSIG
ZHHH,2003-08-30 22:00,ZHHH 302200Z 04004MPS CAVOK 18/16 Q1012 NOSIG
ZHHH,2003-08-30 23:00,ZHHH 302300Z 04002MPS CAVOK 18/16 Q1012 NOSIG
ZHHH,2003-08-31 00:00,ZHHH 310000Z 04004MPS 360V060 CAVOK 19/16 Q1013 NOSIG
ZHHH,2003-08-31 01:00,ZHHH 310100Z AUTO 05008KT 7SM 19/16 A2991 RMK SLP132 T01900160 IEM_DS3505
ZHHH,2003-08-31 02:00,ZHHH 310200Z AUTO 04006KT 7SM 20/17 A2991 RMK SLP132 T02000170 IEM_DS3505
ZHHH,2003-08-31 03:00,ZHHH 310300Z 05003MPS 000V080 9999 SCT020 OVC050 20/17 Q1013 NOSIG
ZHHH,2003-08-31 04:00,ZHHH 310400Z 06002MPS 9999 SCT020 OVC050 20/17 Q1013 NOSIG
ZHHH,2003-08-31 05:00,ZHHH 310500Z 02002MPS 9999 SCT020 OVC050 21/18 Q1013 NOSIG
ZHHH,2003-08-31 06:00,ZHHH 310600Z 07002MPS 9999 SCT020 OVC050 22/19 Q1012 NOSIG
ZHHH,2003-08-31 07:00,ZHHH 310700Z 07002MPS 9999 SCT020 OVC050 23/19 Q1011 NOSIG
ZHHH,2003-08-31 08:00,ZHHH 310800Z 03002MPS 9999 BKN020 OVC050 23/19 Q1011 NOSIG
ZHHH,2003-08-31 09:00,ZHHH 310900Z 06003MPS 030V090 9999 BKN020 OVC050 23/19 Q1010 NOSIG
ZHHH,2003-08-31 10:00,ZHHH 311000Z 04003MPS 9999 SCT020 OVC050 23/19 Q1011 NOSIG
ZHHH,2003-08-31 11:00,ZHHH 311100Z 05003MPS 9999 FEW030 OVC050 22/19 Q1011 NOSIG
ZHHH,2003-08-31 12:00,ZHHH 311200Z 04004MPS 9999 SCT020 OVC050 21/19 Q1012 NOSIG
ZHHH,2003-08-31 13:00,ZHHH 311300Z 05005MPS 9999 BKN020 OVC050 20/18 Q1012 NOSIG
ZHHH,2003-08-31 14:00,ZHHH 311400Z 05004MPS 9999 BKN020 OVC050 20/18 Q1013 NOSIG
ZHHH,2003-08-31 15:00,ZHHH 311500Z 05004MPS 3000 SCT020 OVC050 20/18 Q1013 NOSIG
ZHHH,2003-08-31 16:00,ZHHH 311600Z 04003MPS 9999 SCT033 OVC050 20/18 Q1012 NOSIG
ZHHH,2003-08-31 17:00,ZHHH 311700Z 06002MPS CAVOK 20/18 Q1012 NOSIG
ZHHH,2003-08-31 18:00,ZHHH 311800Z AUTO 02004KT 7SM 21/18 A2987 RMK SLP119 T02080181 57009 IEM_DS3505
ZHHH,2003-08-31 21:00,ZHHH 312100Z 02001MPS CAVOK 20/19 Q1011 NOSIG
ZHHH,2003-08-31 22:00,ZHHH 312200Z 03001MPS CAVOK 20/19 Q1011 NOSIG
ZHHH,2003-08-31 23:00,ZHHH 312300Z 01002MPS 9999 SCT020 OVC050 20/19 Q1012 NOSIG
ZHHH,2003-09-01 00:00,ZHHH 010000Z 04002MPS 9999 SCT020 OVC050 20/19 Q1012 NOSIG
ZHHH,2003-09-01 01:00,ZHHH 010100Z 05003MPS 4000 BR FEW020 OVC050 21/20 Q1013 NOSIG
ZHHH,2003-09-01 02:00,ZHHH 010200Z 05004MPS 6000 SCT033 BKN110 22/20 Q1012 NOSIG
ZHHH,2003-09-01 03:00,ZHHH 010300Z 04002MPS 9999 FEW020 SCT130 23/21 Q1012 NOSIG
ZHHH,2003-09-01 04:00,ZHHH 010400Z 36003MPS 310V030 9999 BKN020 OVC100 25/21 Q1012 NOSIG
ZHHH,2003-09-01 05:00,ZHHH 010500Z 32003MPS 270V010 6000 SCT020 OVC090 25/22 Q1011 NOSIG
ZHHH,2003-09-01 06:00,ZHHH 010600Z 32004MPS 280V010 6000 SCT020 OVC080 24/21 Q1011 NOSIG
ZHHH,2003-09-01 07:00,ZHHH 010700Z 34006MPS 310V010 9999 FEW020 OVC080 24/21 Q1011 NOSIG
ZHHH,2003-09-01 08:00,ZHHH 010800Z 35005MPS 310V020 9999 SCT020 OVC080 23/20 Q1011 NOSIG
ZHHH,2003-09-01 09:00,ZHHH 010900Z 01004MPS 9999 BKN018 OVC070 23/20 Q1011 NOSIG
ZHHH,2003-09-01 10:00,ZHHH 011000Z 02005MPS 9999 SCT020 OVC060 22/19 Q1011 NOSIG
ZHHH,2003-09-01 11:00,ZHHH 011100Z 02004MPS 350V050 9999 SCT020 OVC060 22/19 Q1012 NOSIG
ZHHH,2003-09-01 12:00,ZHHH 011200Z 03004MPS 360V060 9999 SCT015 OVC060 21/18 Q1012 NOSIG
ZHHH,2003-09-01 13:00,ZHHH 011300Z 01005MPS 9999 SCT025 OVC060 21/18 Q1013 NOSIG
ZHHH,2003-09-01 14:00,ZHHH 011400Z 03004MPS 9999 SCT020 OVC060 21/18 Q1013 NOSIG
ZHHH,2003-09-01 15:00,ZHHH 011500Z 02003MPS 9999 SCT020 OVC060 21/19 Q1013 NOSIG
ZHHH,2003-09-01 16:00,ZHHH 011600Z 03004MPS 9999 SCT020 OVC060 20/18 Q1013 NOSIG
ZHHH,2003-09-01 17:00,ZHHH 011700Z 01003MPS 330V040 9999 SCT020 OVC050 20/19 Q1013 NOSIG
ZHHH,2003-09-01 18:00,ZHHH 011800Z 34003MPS 310V030 9999 SCT020 OVC050 20/19 Q1012 NOSIG
ZHHH,2003-09-01 19:00,ZHHH 011900Z 34002MPS 9999 SCT020 OVC050 20/18 Q1012 NOSIG
ZHHH,2003-09-01 20:00,ZHHH 012000Z 34003MPS 9999 OVC030 20/18 Q1012 NOSIG
ZHHH,2003-09-01 21:00,ZHHH 012100Z 35003MPS 320V030 9999 OVC033 20/18 Q1012 NOSIG
ZHHH,2003-09-01 22:00,ZHHH 012200Z 01001MPS 9999 FEW020 SCT033 OVC060 20/18 Q1013 NOSIG
ZHHH,2003-09-01 23:00,ZHHH 012300Z 36003MPS 330V030 9999 BKN033 OVC060 20/19 Q1013 NOSIG
ZHHH,2003-09-02 00:00,ZHHH 020000Z 36003MPS 330V040 CAVOK 21/19 Q1013 NOSIG
ZHHH,2003-09-02 01:00,ZHHH 020100Z 02006MPS 350V050 9999 FEW020 23/19 Q1013 NOSIG
ZHHH,2003-09-02 02:00,ZHHH 020200Z 03006MPS 360V060 9999 FEW025 24/20 Q1014 NOSIG
ZHHH,2003-09-02 03:00,ZHHH 020300Z 02005MPS 350V060 9999 SCT025 25/20 Q1013 NOSIG
ZHHH,2003-09-02 04:00,ZHHH 020400Z 02006MPS 340V050 9999 SCT025 26/21 Q1012 NOSIG
ZHHH,2003-09-02 05:00,ZHHH 020500Z 05006MPS 9999 SCT025 27/21 Q1012 NOSIG
ZHHH,2003-09-02 06:00,ZHHH 020600Z 05006MPS CAVOK 28/21 Q1012 NOSIG
ZHHH,2003-09-02 07:00,ZHHH 020700Z 03006MPS CAVOK 28/22 Q1011 NOSIG
ZHHH,2003-09-02 08:00,ZHHH 020800Z 03007MPS 000V060 CAVOK 27/21 Q1011 NOSIG
ZHHH,2003-09-02 09:00,ZHHH 020900Z 03006MPS 360V060 CAVOK 26/21 Q1011 NOSIG
ZHHH,2003-09-02 10:00,ZHHH 021000Z 02006MPS CAVOK 25/21 Q1012 NOSIG
ZHHH,2003-09-02 11:00,ZHHH 021100Z 02006MPS 000V060 CAVOK 23/20 Q1011 NOSIG
ZHHH,2003-09-02 12:00,ZHHH 021200Z 02005MPS 000V060 6000 SKC 23/20 Q1012 NOSIG
ZHHH,2003-09-02 13:00,ZHHH 021300Z 03004MPS 360V060 6000 SKC 23/20 Q1013 NOSIG
ZHHH,2003-09-02 14:00,ZHHH 021400Z 01004MPS 6000 SKC 23/20 Q1013 NOSIG
ZHHH,2003-09-02 15:00,ZHHH 021500Z 03004MPS 6000 NSC 23/20 Q1013 NOSIG
ZHHH,2003-09-02 16:00,ZHHH 021600Z 02004MPS 350V050 6000 NSC 22/21 Q1013 NOSIG
ZHHH,2003-09-02 17:00,ZHHH 021700Z 03004MPS 360V060 5000 BR NSC 23/21 Q1012 NOSIG
ZHHH,2003-09-02 18:00,ZHHH 021800Z 03003MPS 350V060 5000 BR FEW020 BKN070 23/21 Q1012 NOSIG
ZHHH,2003-09-02 19:00,ZHHH 021900Z 02004MPS 5000 BR SCT033 BKN070 22/21 Q1012 NOSIG
ZHHH,2003-09-02 20:00,ZHHH 022000Z 03004MPS 5000 BR SCT033 OVC070 22/21 Q1012 NOSIG
ZHHH,2003-09-02 21:00,ZHHH 022100Z 01002MPS 5000 BR NSC 22/21 Q1012 NOSIG
ZHHH,2003-09-02 22:00,ZHHH 022200Z 03003MPS 5000 BR NSC 22/21 Q1012 NOSIG
ZHHH,2003-09-02 23:00,ZHHH 022300Z 04005MPS 000V060 CAVOK 22/21 Q1012 NOSIG
ZHHH,2003-09-03 00:00,ZHHH 030000Z 04005MPS CAVOK 23/21 Q1013 NOSIG
ZHHH,2003-09-03 01:00,ZHHH 030100Z AUTO 04012KT 6SM 24/22 A2991 RMK SLP132 T02400220 IEM_DS3505
ZHHH,2003-09-03 02:00,ZHHH 030200Z AUTO 03010KT 6SM 25/22 A2991 RMK SLP132 T02500220 IEM_DS3505
ZHHH,2003-09-03 03:00,ZHHH 030300Z 04005MPS 360V080 CAVOK 27/22 Q1012 NOSIG
ZHHH,2003-09-03 04:00,ZHHH 030400Z 03004MPS 350V060 CAVOK 28/23 Q1012 NOSIG
ZHHH,2003-09-03 05:00,ZHHH 030500Z 03004MPS 350V080 CAVOK 30/24 Q1011 NOSIG
ZHHH,2003-09-03 06:00,ZHHH 030600Z 04004MPS 350V070 CAVOK 31/23 Q1011 NOSIG
ZHHH,2003-09-03 07:00,ZHHH 030700Z 02003MPS 320V100 CAVOK 31/24 Q1010 NOSIG
ZHHH,2003-09-03 08:00,ZHHH 030800Z 04004MPS 010V070 CAVOK 31/24 Q1010 NOSIG
ZHHH,2003-09-03 09:00,ZHHH 030900Z 04005MPS CAVOK 29/24 Q1010 NOSIG
ZHHH,2003-09-03 10:00,ZHHH 031000Z 04006MPS 010V070 CAVOK 28/24 Q1010 NOSIG
ZHHH,2003-09-03 11:00,ZHHH 031100Z 04005MPS CAVOK 26/23 Q1010 NOSIG
ZHHH,2003-09-03 12:00,ZHHH 031200Z 04005MPS CAVOK 25/23 Q1011 NOSIG
ZHHH,2003-09-03 13:00,ZHHH 031300Z 01004MPS 350V050 CAVOK 25/23 Q1012 NOSIG
ZHHH,2003-09-03 14:00,ZHHH 031400Z 02003MPS CAVOK 25/23 Q1012 NOSIG
ZHHH,2003-09-03 15:00,ZHHH 031500Z 02003MPS CAVOK 24/23 Q1012 NOSIG
ZHHH,2003-09-03 16:00,ZHHH 031600Z 01003MPS CAVOK 24/23 Q1012 NOSIG
ZHHH,2003-09-03 17:00,ZHHH 031700Z 31002MPS CAVOK 24/23 Q1012 NOSIG
ZHHH,2003-09-03 18:00,ZHHH 031800Z 32002MPS 4000 BR NSC 24/23 Q1011 NOSIG
ZHHH,2003-09-03 19:00,ZHHH 031900Z 32001MPS 5000 BR NSC 23/23 Q1011 NOSIG
ZHHH,2003-09-03 20:00,ZHHH 032000Z 01001MPS 3000 BR NSC 23/23 Q1011 NOSIG
ZHHH,2003-09-03 21:00,ZHHH 032100Z 02002MPS 2500 BR NSC 23/23 Q1011 NOSIG
ZHHH,2003-09-03 22:00,ZHHH 032200Z 03003MPS 360V070 1800 BR NSC 23/23 Q1011 NOSIG
ZHHH,2003-09-03 23:00,ZHHH 032300Z 07003MPS 2000 BR SCT025 BKN100 23/23 Q1011 NOSIG
ZHHH,2003-09-04 00:00,ZHHH 040000Z 00000MPS 6000 NSC 24/24 Q1012 NOSIG
ZHHH,2003-09-04 01:00,ZHHH 040100Z 05001MPS CAVOK 25/24 Q1012 NOSIG
ZHHH,2003-09-04 02:00,ZHHH 040200Z 04002MPS CAVOK 27/25 Q1013 NOSIG
ZHHH,2003-09-04 03:00,ZHHH 040300Z 04001MPS CAVOK 28/25 Q1013 NOSIG
ZHHH,2003-09-04 04:00,ZHHH 040400Z 27002MPS 9999 FEW023 SCT110 29/26 Q1012 NOSIG
ZHHH,2003-09-04 05:00,ZHHH 040500Z 27003MPS 220V360 CAVOK 31/26 Q1012 NOSIG
ZHHH,2003-09-04 06:00,ZHHH 040600Z 26004MPS 220V300 9999 SCT020 SCT120 32/27 Q1011 NOSIG
ZHHH,2003-09-04 07:00,ZHHH 040700Z 28003MPS 250V320 9999 FEW023 32/27 Q1011 NOSIG
ZHHH,2003-09-04 08:00,ZHHH 040800Z 28003MPS 240V320 9999 FEW023 32/27 Q1010 NOSIG
ZHHH,2003-09-04 09:00,ZHHH 040900Z 30004MPS 250V340 9999 FEW023 32/27 Q1010 NOSIG
ZHHH,2003-09-04 10:00,ZHHH 041000Z 30003MPS 260V320 CAVOK 31/26 Q1010 NOSIG
ZHHH,2003-09-04 11:00,ZHHH 041100Z 28001MPS CAVOK 29/26 Q1011 NOSIG
ZHHH,2003-09-04 12:00,ZHHH 041200Z 25002MPS CAVOK 29/26 Q1011 NOSIG
ZHHH,2003-09-04 13:00,ZHHH 041300Z 26001MPS CAVOK 29/26 Q1012 NOSIG
ZHHH,2003-09-04 14:00,ZHHH 041400Z 28002MPS CAVOK 28/27 Q1012 NOSIG
ZHHH,2003-09-04 15:00,ZHHH 041500Z 03002MPS CAVOK 27/26 Q1012 NOSIG
ZHHH,2003-09-04 16:00,ZHHH 041600Z 05002MPS CAVOK 26/25 Q1012 NOSIG
ZHHH,2003-09-04 17:00,ZHHH 041700Z 04002MPS CAVOK 26/25 Q1012 NOSIG
ZHHH,2003-09-04 18:00,ZHHH 041800Z 05003MPS 6000 SKC 25/24 Q1011 NOSIG
ZHHH,2003-09-04 19:00,ZHHH 041900Z 06002MPS 1800 BR SKC 24/24 Q1011 NOSIG
ZHHH,2003-09-04 20:00,ZHHH 042000Z 36001MPS 2000 BR FEW023 SCT050 25/24 Q1011 NOSIG
ZHHH,2003-09-04 21:00,ZHHH 042100Z 33002MPS 1800 BR FEW023 SCT050 24/24 Q1012 NOSIG
ZHHH,2003-09-04 22:00,ZHHH 042200Z 01001MPS 1000 R04/1000N BR FEW023 BKN050 24/24 Q1012 NOSIG
ZHHH,2003-09-04 23:00,ZHHH 042300Z 36002MPS 0700 R04/0900N FG FEW023 BKN060 24/24 Q1012 NOSIG
ZHHH,2003-09-05 00:00,ZHHH 050000Z 06002MPS 0900 R04/0900N FG SCT020 OVC050 24/24 Q1013 NOSIG
ZHHH,2003-09-05 01:00,ZHHH 050100Z 05002MPS 2300 BR SCT006 OVC050 25/25 Q1013 NOSIG
ZHHH,2003-09-05 02:00,ZHHH 050200Z 11001MPS 3000 BR FEW006 BKN026 27/25 Q1013 NOSIG
ZHHH,2003-09-05 03:00,ZHHH 050300Z 17002MPS 4000 BR NSC 29/26 Q1012 NOSIG
ZHHH,2003-09-05 04:00,ZHHH 050400Z 31002MPS 6000 FEW020 31/27 Q1012 NOSIG
ZHHH,2003-09-05 05:00,ZHHH 050500Z 24004MPS 220V310 9999 FEW020 32/26 Q1011 NOSIG
ZHHH,2003-09-05 06:00,ZHHH 050600Z 28003MPS 220V330 CAVOK 33/26 Q1010 NOSIG
ZHHH,2003-09-05 07:00,ZHHH 050700Z 25003MPS 220V290 CAVOK 33/27 Q1009 NOSIG
ZHHH,2003-09-05 08:00,ZHHH 050800Z 25003MPS 210V290 CAVOK 33/26 Q1009 NOSIG
ZHHH,2003-09-05 09:00,ZHHH 050900Z 33003MPS 300V360 CAVOK 33/27 Q1009 NOSIG
ZHHH,2003-09-05 10:00,ZHHH 051000Z 33003MPS 290V360 CAVOK 32/27 Q1009 NOSIG
ZHHH,2003-09-05 11:00,ZHHH 051100Z 32002MPS CAVOK 31/27 Q1009 NOSIG
ZHHH,2003-09-05 12:00,ZHHH 051200Z 34002MPS CAVOK 30/27 Q1010 NOSIG
ZHHH,2003-09-05 13:00,ZHHH 051300Z 04003MPS 6000 SKC 29/27 Q1011 NOSIG
ZHHH,2003-09-05 14:00,ZHHH 051400Z 07004MPS 4000 BR SKC 28/26 Q1011 NOSIG
ZHHH,2003-09-05 15:00,ZHHH 051500Z 05004MPS 4000 BR SKC 27/26 Q1011 NOSIG
ZHHH,2003-09-05 16:00,ZHHH 051600Z 06004MPS 3000 BR SKC 26/25 Q1011 NOSIG
ZHHH,2003-09-05 17:00,ZHHH 051700Z 05003MPS 3000 BR SKC 26/25 Q1011 NOSIG
ZHHH,2003-09-05 18:00,ZHHH 051800Z 04003MPS 3000 BR SKC 26/25 Q1010 NOSIG
ZHHH,2003-09-05 19:00,ZHHH 051900Z 00000MPS 3000 BR SKC 26/25 Q1010 NOSIG
ZHHH,2003-09-05 20:00,ZHHH 052000Z 00000MPS 3000 BR SKC 26/25 Q1011 NOSIG
ZHHH,2003-09-05 21:00,ZHHH 052100Z 00000MPS 1800 BR SKC 26/25 Q1010 NOSIG
ZHHH,2003-09-05 22:00,ZHHH 052200Z 03002MPS 1500 BR NSC 26/25 Q1010 NOSIG
ZHHH,2003-09-05 23:00,ZHHH 052300Z 04003MPS 3000 BR NSC 25/25 Q1010 NOSIG
ZHHH,2003-09-06 00:00,ZHHH 060000Z 09003MPS 3000 BR NSC 26/25 Q1010 NOSIG
ZHHH,2003-09-06 01:00,ZHHH 060100Z 11003MPS 5000 BR NSC 28/26 Q1010 NOSIG
ZHHH,2003-09-06 02:00,ZHHH 060200Z 03002MPS 6000 SCT030 30/26 Q1010 NOSIG
ZHHH,2003-09-06 03:00,ZHHH 060300Z 06002MPS 6000 SCT030 31/27 Q1010 NOSIG
ZHHH,2003-09-06 04:00,ZHHH 060400Z 08002MPS 6000 SCT028 SCT230 32/27 Q1009 NOSIG
ZHHH,2003-09-06 05:00,ZHHH 060500Z 02002MPS 9999 FEW028TCU FEW028 33/27 Q1009 NOSIG
ZHHH,2003-09-06 06:00,ZHHH 060600Z 12002MPS 9999 FEW028 35/27 Q1008 NOSIG
ZHHH,2003-09-06 07:00,ZHHH 060700Z 27003MPS 230V330 9999 FEW030TCU 35/26 Q1007 NOSIG
ZHHH,2003-09-06 08:00,ZHHH 060800Z 28003MPS 240V320 9999 FEW030TCU 34/27 Q1007 NOSIG
ZHHH,2003-09-06 09:00,ZHHH 060900Z 31003MPS 280V350 CAVOK 34/27 Q1007 NOSIG
ZHHH,2003-09-06 10:00,ZHHH 061000Z 05006MPS 9999 FEW030CB 30/26 Q1007 NOSIG
ZHHH,2003-09-06 11:00,ZHHH 061100Z 04006MPS 5000 BR FEW030CB 28/26 Q1008 NOSIG
ZHHH,2003-09-06 12:00,ZHHH 061200Z 05006MPS 4000 BR SCT020CB FEW020 26/24 Q1009 NOSIG
ZHHH,2003-09-06 13:00,ZHHH 061300Z 04007MPS 3000 BR SCT020CB SCT020 25/23 Q1009 NOSIG
ZHHH,2003-09-06 15:00,ZHHH 061500Z 05005MPS 4000 BR SCT030 23/21 Q1010 NOSIG
ZHHH,2003-09-06 16:00,ZHHH 061600Z 01003MPS 340V050 4000 BR SCT030 23/21 Q1010 NOSIG
ZHHH,2003-09-06 17:00,ZHHH 061700Z 36003MPS 330V030 4000 BR SCT030 24/21 Q1009 NOSIG
ZHHH,2003-09-06 18:00,ZHHH 061800Z 35003MPS 4000 BR SCT040 23/21 Q1009 NOSIG
ZHHH,2003-09-06 19:00,ZHHH 061900Z 02002MPS 6000 NSC 23/21 Q1009 NOSIG
ZHHH,2003-09-06 20:00,ZHHH 062000Z 04003MPS 6000 SCT040 BKN220 22/21 Q1008 NOSIG
ZHHH,2003-09-06 21:00,ZHHH 062100Z 02002MPS 5000 BR FEW020 SCT033 BKN120 22/21 Q1009 NOSIG
ZHHH,2003-09-06 22:00,ZHHH 062200Z 02002MPS 4000 BR SCT030 OVC120 22/21 Q1010 NOSIG
ZHHH,2003-09-06 23:00,ZHHH 062300Z 05004MPS 4000 BR FEW020 OVC110 22/21 Q1010 NOSIG
ZHHH,2003-09-07 00:00,ZHHH 070000Z 06004MPS 4000 -TSRA BR FEW020 FEW030CB OVC110 22/21 Q1010 NOSIG
ZHHH,2003-09-07 01:00,ZHHH 070100Z 05007MPS 9999 SCT012 OVC070 22/21 Q1011 NOSIG
ZHHH,2003-09-07 02:00,ZHHH 070200Z 04005MPS CAVOK 23/21 Q1011 NOSIG
ZHHH,2003-09-07 03:00,ZHHH 070300Z 02006MPS 9999 SCT040 OVC070 24/21 Q1012 NOSIG
ZHHH,2003-09-07 04:00,ZHHH 070400Z 34002MPS 9999 -TSRA SCT020 FEW033CB OVC050 24/21 Q1012 NOSIG
ZHHH,2003-09-07 05:00,ZHHH 070500Z 02005MPS 350V060 9999 SCT020 BKN100 24/21 Q1011 NOSIG
ZHHH,2003-09-07 06:00,ZHHH 070600Z 36004MPS 330V030 9999 BKN020 BKN100 25/22 Q1011 NOSIG
ZHHH,2003-09-07 07:00,ZHHH 070700Z 03006MPS 9999 BKN020 BKN100 26/22 Q1010 NOSIG
ZHHH,2003-09-07 08:00,ZHHH 070800Z 04007MPS 9999 SCT020 BKN100 25/21 Q1010 NOSIG
ZHHH,2003-09-07 09:00,ZHHH 070900Z 04006MPS 360V060 9999 SCT020 OVC100 24/21 Q1010 NOSIG
ZHHH,2003-09-07 10:00,ZHHH 071000Z 02004MPS 350V060 9999 SCT020 OVC100 24/21 Q1010 NOSIG
ZHHH,2003-09-07 11:00,ZHHH 071100Z 02003MPS 350V060 9999 SCT040 OVC100 23/21 Q1011 NOSIG
ZHHH,2003-09-07 12:00,ZHHH 071200Z 36002MPS CAVOK 23/21 Q1011 NOSIG
ZHHH,2003-09-07 13:00,ZHHH 071300Z 36002MPS CAVOK 23/21 Q1011 NOSIG
ZHHH,2003-09-07 14:00,ZHHH 071400Z 33002MPS 3000 FEW040 BKN100 22/21 Q1012 NOSIG
ZHHH,2003-09-07 15:00,ZHHH 071500Z 34002MPS CAVOK 22/21 Q1011 NOSIG
ZHHH,2003-09-07 16:00,ZHHH 071600Z 35003MPS CAVOK 22/21 Q1012 NOSIG
ZHHH,2003-09-07 18:00,ZHHH 071800Z AUTO 25002KT 9SM 22/20 A2987 RMK SLP118 T02230199 54000 IEM_DS3505
ZHHH,2003-09-07 19:00,ZHHH 071900Z 35002MPS 6000 NSC 21/20 Q1011 NOSIG
ZHHH,2003-09-07 20:00,ZHHH 072000Z 35001MPS 4000 BR NSC 21/20 Q1011 NOSIG
ZHHH,2003-09-07 21:00,ZHHH 072100Z 34001MPS 4000 BR NSC 21/20 Q1011 NOSIG
ZHHH,2003-09-07 22:00,ZHHH 072200Z 35001MPS 9999 SCT020 OVC100 21/21 Q1011 NOSIG
ZHHH,2003-09-07 23:00,ZHHH 072300Z 06002MPS 9999 SCT020 OVC100 22/21 Q1011 NOSIG
ZHHH,2003-09-08 00:00,ZHHH 080000Z 02002MPS 9999 SCT020 OVC070 22/21 Q1012 NOSIG
ZHHH,2003-09-08 01:00,ZHHH 080100Z 01002MPS 9999 -RA FEW020 OVC060 23/21 Q1012 NOSIG
ZHHH,2003-09-08 02:00,ZHHH 080200Z 34002MPS 9999 BKN020 OVC060 23/21 Q1013 NOSIG
ZHHH,2003-09-08 03:00,ZHHH 080300Z 32003MPS 280V020 9999 -RA BKN020 OVC060 23/21 Q1013 NOSIG
ZHHH,2003-09-08 04:00,ZHHH 080400Z 34004MPS 300V010 9999 BKN016 OVC060 24/22 Q1013 NOSIG
ZHHH,2003-09-08 05:00,ZHHH 080500Z 35003MPS 310V020 9999 SCT016 OVC070 24/22 Q1013 NOSIG
ZHHH,2003-09-08 06:00,ZHHH 080600Z 35003MPS 300V040 9999 SCT019 OVC070 24/22 Q1012 NOSIG
ZHHH,2003-09-08 07:00,ZHHH 080700Z 35003MPS 310V030 9999 -RA FEW006 SCT013 OVC070 24/22 Q1011 NOSIG
ZHHH,2003-09-08 08:00,ZHHH 080800Z 04003MPS 000V060 9999 -RA BKN020 OVC070 24/21 Q1011 NOSIG
ZHHH,2003-09-08 09:00,ZHHH 080900Z 04003MPS 9999 BKN020 OVC066 23/21 Q1011 NOSIG
ZHHH,2003-09-08 10:00,ZHHH 081000Z 01003MPS 9999 -RA SCT016 SCT026 OVC066 22/21 Q1012 NOSIG
ZHHH,2003-09-08 11:00,ZHHH 081100Z 36002MPS 9999 -RA SCT016 SCT026 OVC060 22/21 Q1012 NOSIG
ZHHH,2003-09-08 12:00,ZHHH 081200Z 34002MPS 4000 -RA SCT010 OVC040 21/21 Q1012 NOSIG
ZHHH,2003-09-08 13:00,ZHHH 081300Z 28002MPS 3000 -RA FEW004 OVC033 21/21 Q1014 NOSIG
ZHHH,2003-09-08 14:00,ZHHH 081400Z 34004MPS 310V010 3500 -RA SCT004 OVC033 21/21 Q1014 NOSIG
ZHHH,2003-09-08 15:00,ZHHH 081500Z 34003MPS 5000 -RA SCT004 OVC033 21/21 Q1014 NOSIG
ZHHH,2003-09-08 16:00,ZHHH 081600Z 34003MPS 5000 -RA SCT005 OVC033 21/21 Q1014 NOSIG
ZHHH,2003-09-08 17:00,ZHHH 081700Z 35002MPS 4000 -RA SCT004 OVC033 21/21 Q1013 NOSIG
ZHHH,2003-09-08 18:00,ZHHH 081800Z 34004MPS 4000 BR SCT006 OVC050 21/21 Q1012 NOSIG
ZHHH,2003-09-08 19:00,ZHHH 081900Z 36001MPS 3000 BR NSC 21/21 Q1012 NOSIG
ZHHH,2003-09-08 20:00,ZHHH 082000Z 34001MPS 2500 -RA BR NSC 21/21 Q1012 NOSIG
ZHHH,2003-09-08 21:00,ZHHH 082100Z 32001MPS 2700 -RA BR NSC 21/21 Q1012 NOSIG
ZHHH,2003-09-08 22:00,ZHHH 082200Z 00000MPS 5000 -RA BR SCT030 OVC070 21/21 Q1012 NOSIG
ZHHH,2003-09-08 23:00,ZHHH 082300Z 30001MPS 9999 -RA SCT006 SCT030 OVC070 21/21 Q1012 NOSIG
ZHHH,2003-09-09 00:00,ZHHH 090000Z 31003MPS 7000 -RA FEW006 SCT030 OVC060 21/21 Q1013 NOSIG
ZHHH,2003-09-09 01:00,ZHHH 090100Z 30002MPS 6000 -RA SCT006 SCT030 OVC060 21/21 Q1013 NOSIG
ZHHH,2003-09-09 02:00,ZHHH 090200Z 29002MPS 3000 -RA FEW006 SCT020 OVC060 22/22 Q1014 NOSIG
ZHHH,2003-09-09 03:00,ZHHH 090300Z 27003MPS 240V310 3000 BR FEW006 SCT020 OVC060 22/22 Q1014 NOSIG
ZHHH,2003-09-09 04:00,ZHHH 090400Z 26002MPS 5000 -RA BR FEW007 SCT020 OVC060 23/22 Q1013 NOSIG
ZHHH,2003-09-09 05:00,ZHHH 090500Z 25003MPS 220V280 5000 BR BKN020 OVC040 24/22 Q1013 NOSIG
ZHHH,2003-09-09 06:00,ZHHH 090600Z 25004MPS 9999 BKN020 OVC040 24/22 Q1013 NOSIG
ZHHH,2003-09-09 07:00,ZHHH 090700Z 25004MPS 9999 FEW020 BKN030 OVC050 24/22 Q1012 NOSIG
ZHHH,2003-09-09 08:00,ZHHH 090800Z 26003MPS 9999 SCT020 BKN030 OVC050 24/22 Q1012 NOSIG
ZHHH,2003-09-09 09:00,ZHHH 090900Z 25003MPS 9999 SCT020 BKN030 OVC050 24/22 Q1012 NOSIG
ZHHH,2003-09-09 10:00,ZHHH 091000Z 24003MPS 9999 SCT020 OVC050 23/22 Q1012 NOSIG
ZHHH,2003-09-09 11:00,ZHHH 091100Z 25003MPS 9999 SCT020 OVC100 23/21 Q1012 NOSIG
ZHHH,2003-09-09 12:00,ZHHH 091200Z 24003MPS 9999 SCT020 OVC100 22/21 Q1013 NOSIG
ZHHH,2003-09-09 13:00,ZHHH 091300Z 24004MPS 9999 -RA SCT020 OVC070 22/21 Q1014 NOSIG
ZHHH,2003-09-09 14:00,ZHHH 091400Z 25003MPS 7000 -RA SCT020 OVC070 22/21 Q1014 NOSIG
ZHHH,2003-09-09 15:00,ZHHH 091500Z 27003MPS 6000 -RA SCT020 OVC070 22/21 Q1014 NOSIG
ZHHH,2003-09-09 16:00,ZHHH 091600Z 27002MPS 6000 -RA SCT020 OVC070 21/21 Q1013 NOSIG
ZHHH,2003-09-09 17:00,ZHHH 091700Z 24002MPS 5000 -RA SCT020 OVC070 21/21 Q1013 NOSIG
ZHHH,2003-09-09 18:00,ZHHH 091800Z 25002MPS 5000 BR SCT020 OVC070 21/21 Q1013 NOSIG
ZHHH,2003-09-09 19:00,ZHHH 091900Z 23002MPS 5000 BR SCT020 OVC060 21/21 Q1013 NOSIG
ZHHH,2003-09-09 20:00,ZHHH 092000Z 25002MPS 5000 BR SCT020 OVC060 21/21 Q1012 NOSIG
ZHHH,2003-09-09 21:00,ZHHH 092100Z 25002MPS 5000 BR SCT020 OVC050 21/21 Q1013 NOSIG
ZHHH,2003-09-09 22:00,ZHHH 092200Z 22002MPS 3000 BR SCT020 OVC040 21/21 Q1013 NOSIG
ZHHH,2003-09-09 23:00,ZHHH 092300Z 23002MPS 3000 BR SCT020 OVC050 22/21 Q1013 NOSIG
ZHHH,2003-09-10 00:00,ZHHH 100000Z 24003MPS 3000 BR BKN020 OVC050 22/21 Q1014 NOSIG
ZHHH,2003-09-10 01:00,ZHHH 100100Z 24003MPS 3000 BR FEW015 OVC050 22/21 Q1014 NOSIG
ZHHH,2003-09-10 02:00,ZHHH 100200Z 24002MPS 4000 BR SCT015 BKN050 23/21 Q1014 NOSIG
ZHHH,2003-09-10 03:00,ZHHH 100300Z 30001MPS 4000 BR FEW022 SCT240 24/21 Q1014 NOSIG
ZHHH,2003-09-10 04:00,ZHHH 100400Z 31002MPS 7000 SCT020 25/22 Q1014 NOSIG
ZHHH,2003-09-10 05:00,ZHHH 100500Z 28002MPS 9999 FEW025 SCT150 26/20 Q1013 NOSIG
ZHHH,2003-09-10 06:00,ZHHH 100600Z 24003MPS 210V290 CAVOK 27/21 Q1012 NOSIG
ZHHH,2003-09-10 07:00,ZHHH 100700Z 25002MPS 9999 FEW025 27/21 Q1012 NOSIG
ZHHH,2003-09-10 08:00,ZHHH 100800Z 25003MPS CAVOK 28/20 Q1011 NOSIG
ZHHH,2003-09-10 09:00,ZHHH 100900Z 25002MPS CAVOK 28/20 Q1011 NOSIG
ZHHH,2003-09-10 10:00,ZHHH 101000Z 21002MPS CAVOK 26/21 Q1011 NOSIG
ZHHH,2003-09-10 11:00,ZHHH 101100Z 23003MPS CAVOK 25/21 Q1011 NOSIG
ZHHH,2003-09-10 12:00,ZHHH 101200Z 23004MPS CAVOK 24/21 Q1011 NOSIG
ZHHH,2003-09-10 13:00,ZHHH 101300Z 24003MPS 5000 BR SKC 24/21 Q1012 NOSIG
ZHHH,2003-09-10 14:00,ZHHH 101400Z 24003MPS 5000 BR SKC 23/21 Q1012 NOSIG
ZHHH,2003-09-10 15:00,ZHHH 101500Z 24002MPS 4000 BR SKC 23/21 Q1012 NOSIG
ZHHH,2003-09-10 16:00,ZHHH 101600Z 26001MPS 4000 BR SKC 23/21 Q1012 NOSIG
ZHHH,2003-09-10 17:00,ZHHH 101700Z 00000MPS 3000 BR SKC 22/21 Q1012 NOSIG
ZHHH,2003-09-10 18:00,ZHHH 101800Z 31001MPS 2500 BR SKC 22/20 Q1012 NOSIG
ZHHH,2003-09-10 19:00,ZHHH 101900Z 00000MPS 3000 BR SKC 22/20 Q1012 NOSIG
ZHHH,2003-09-10 20:00,ZHHH 102000Z 07001MPS 3000 BR SKC 21/20 Q1011 NOSIG
ZHHH,2003-09-10 21:00,ZHHH 102100Z 06001MPS 2500 BR SKC 21/20 Q1011 NOSIG
ZHHH,2003-09-10 22:00,ZHHH 102200Z 10002MPS 1600 BR SKC 20/20 Q1012 NOSIG
ZHHH,2003-09-10 23:00,ZHHH 102300Z 08002MPS 1600 BR SKC 20/20 Q1012 NOSIG
ZHHH,2003-09-11 00:00,ZHHH 110000Z 09003MPS 1400 R04/1200N BR SKC 20/20 Q1013 NOSIG
ZHHH,2003-09-11 01:00,ZHHH 110100Z 09002MPS 1600 R04/1400 BR SCT003 20/20 Q1013 NOSIG
ZHHH,2003-09-11 02:00,ZHHH 110200Z 11002MPS 2500 BR SCT003 24/21 Q1013 NOSIG
ZHHH,2003-09-11 03:00,ZHHH 110300Z 10002MPS CAVOK 26/22 Q1013 NOSIG
ZHHH,2003-09-11 04:00,ZHHH 110400Z 05002MPS 9999 SCT023 27/21 Q1012 NOSIG
ZHHH,2003-09-11 05:00,ZHHH 110500Z 11003MPS 020V230 9999 BKN023 28/19 Q1011 NOSIG
ZHHH,2003-09-11 06:00,ZHHH 110600Z 21003MPS 120V280 9999 BKN023 FEW030TCU 28/20 Q1010 NOSIG
ZHHH,2003-09-11 07:00,ZHHH 110700Z 36002MPS 9999 BKN023 28/20 Q1010 NOSIG
ZHHH,2003-09-11 08:00,ZHHH 110800Z 28003MPS 240V340 9999 BKN023 29/20 Q1009 NOSIG
ZHHH,2003-09-11 09:00,ZHHH 110900Z 26002MPS 9999 SCT023 29/19 Q1009 NOSIG
ZHHH,2003-09-11 10:00,ZHHH 111000Z 22001MPS CAVOK 28/19 Q1009 NOSIG
ZHHH,2003-09-11 11:00,ZHHH 111100Z 17002MPS CAVOK 26/20 Q1009 NOSIG
ZHHH,2003-09-11 12:00,ZHHH 111200Z 00000MPS CAVOK 26/19 Q1009 NOSIG
ZHHH,2003-09-11 13:00,ZHHH 111300Z 02001MPS CAVOK 25/20 Q1010 NOSIG
ZHHH,2003-09-11 14:00,ZHHH 111400Z 04003MPS CAVOK 25/17 Q1010 NOSIG
ZHHH,2003-09-11 15:00,ZHHH 111500Z 03003MPS CAVOK 23/18 Q1010 NOSIG
ZHHH,2003-09-11 16:00,ZHHH 111600Z 04003MPS CAVOK 23/17 Q1010 NOSIG
ZHHH,2003-09-11 17:00,ZHHH 111700Z 05003MPS CAVOK 22/17 Q1010 NOSIG
ZHHH,2003-09-11 18:00,ZHHH 111800Z 04003MPS CAVOK 22/17 Q1010 NOSIG
ZHHH,2003-09-11 19:00,ZHHH 111900Z 06002MPS CAVOK 21/17 Q1010 NOSIG
ZHHH,2003-09-11 20:00,ZHHH 112000Z 35002MPS CAVOK 20/18 Q1010 NOSIG
ZHHH,2003-09-11 21:00,ZHHH 112100Z 08001MPS CAVOK 20/17 Q1010 NOSIG
ZHHH,2003-09-11 22:00,ZHHH 112200Z 06002MPS CAVOK 20/17 Q1010 NOSIG
ZHHH,2003-09-12 00:00,ZHHH 120000Z 11002MPS CAVOK 22/18 Q1011 NOSIG
ZHHH,2003-09-12 01:00,ZHHH 120100Z 12002MPS CAVOK 23/20 Q1012 NOSIG
ZHHH,2003-09-12 02:00,ZHHH 120200Z 12002MPS CAVOK 25/19 Q1012 NOSIG
ZHHH,2003-09-12 03:00,ZHHH 120300Z 16001MPS CAVOK 27/20 Q1012 NOSIG
ZHHH,2003-09-12 04:00,ZHHH 120400Z 25003MPS 160V290 CAVOK 28/18 Q1011 NOSIG
ZHHH,2003-09-12 05:00,ZHHH 120500Z 26003MPS 210V340 CAVOK 28/18 Q1011 NOSIG
ZHHH,2003-09-12 06:00,ZHHH 120600Z 28003MPS 230V330 CAVOK 29/19 Q1010 NOSIG
ZHHH,2003-09-12 07:00,ZHHH 120700Z 29003MPS 200V010 CAVOK 30/19 Q1009 NOSIG
ZHHH,2003-09-12 08:00,ZHHH 120800Z 25003MPS 160V300 CAVOK 30/19 Q1009 NOSIG
ZHHH,2003-09-12 09:00,ZHHH 120900Z 24003MPS CAVOK 30/19 Q1009 NOSIG
ZHHH,2003-09-12 10:00,ZHHH 121000Z 26002MPS CAVOK 28/20 Q1009 NOSIG
ZHHH,2003-09-12 11:00,ZHHH 121100Z 24002MPS CAVOK 27/21 Q1009 NOSIG
ZHHH,2003-09-12 12:00,ZHHH 121200Z 24002MPS CAVOK 27/21 Q1010 NOSIG
ZHHH,2003-09-12 13:00,ZHHH 121300Z 25002MPS CAVOK 26/22 Q1010 NOSIG
ZHHH,2003-09-12 14:00,ZHHH 121400Z 24002MPS CAVOK 25/21 Q1010 NOSIG
ZHHH,2003-09-12 15:00,ZHHH 121500Z 00000MPS CAVOK 25/22 Q1010 NOSIG
ZHHH,2003-09-12 16:00,ZHHH 121600Z 24001MPS CAVOK 24/21 Q1010 NOSIG
ZHHH,2003-09-12 17:00,ZHHH 121700Z 00000MPS CAVOK 23/22 Q1010 NOSIG
ZHHH,2003-09-12 18:00,ZHHH 121800Z AUTO 00000KT 9SM 24/21 A2983 RMK SLP103 T02370206 57003 IEM_DS3505
ZHHH,2003-09-12 21:00,ZHHH 122100Z 00000MPS 1500 BR NSC 22/22 Q1010 NOSIG
ZHHH,2003-09-12 22:00,ZHHH 122200Z 00000MPS 1000 R04/1400N BR SKC 21/21 Q1010 NOSIG
ZHHH,2003-09-12 23:00,ZHHH 122300Z 10002MPS 0800 R04/0700N FG SKC 21/21 Q1010 NOSIG
ZHHH,2003-09-13 00:00,ZHHH 130000Z 12003MPS 0800 R04/0600N FG SKC 23/22 Q1011 NOSIG
ZHHH,2003-09-13 01:00,ZHHH 130100Z 12003MPS 1000 R04/1200U BR SKC 25/22 Q1011 NOSIG
ZHHH,2003-09-13 02:00,ZHHH 130200Z 16003MPS 120V180 1500 R04/1200N BR SKC 27/22 Q1011 NOSIG
ZHHH,2003-09-13 03:00,ZHHH 130300Z 15003MPS 100V180 2000 HZ SKC 29/22 Q1011 NOSIG
ZHHH,2003-09-13 04:00,ZHHH 130400Z 23004MPS 200V270 4000 HZ SKC 30/20 Q1011 NOSIG
ZHHH,2003-09-13 05:00,ZHHH 130500Z 25004MPS 7000 SKC 31/19 Q1010 NOSIG
ZHHH,2003-09-13 06:00,ZHHH 130600Z 23003MPS 180V290 CAVOK 31/20 Q1010 NOSIG
ZHHH,2003-09-13 07:00,ZHHH 130700Z 23003MPS 190V310 CAVOK 31/19 Q1009 NOSIG
ZHHH,2003-09-13 08:00,ZHHH 130800Z 25003MPS 210V280 CAVOK 31/20 Q1009 NOSIG
ZHHH,2003-09-13 09:00,ZHHH 130900Z 22003MPS 190V270 CAVOK 31/19 Q1009 NOSIG
ZHHH,2003-09-13 10:00,ZHHH 131000Z 20003MPS CAVOK 30/21 Q1009 NOSIG
ZHHH,2003-09-13 11:00,ZHHH 131100Z 24002MPS CAVOK 29/21 Q1009 NOSIG
ZHHH,2003-09-13 12:00,ZHHH 131200Z 24002MPS CAVOK 28/20 Q1010 NOSIG
ZHHH,2003-09-13 13:00,ZHHH 131300Z 00000MPS CAVOK 28/21 Q1010 NOSIG
ZHHH,2003-09-13 14:00,ZHHH 131400Z 00000MPS CAVOK 27/21 Q1010 NOSIG
ZHHH,2003-09-13 15:00,ZHHH 131500Z 09001MPS CAVOK 26/22 Q1011 NOSIG
ZHHH,2003-09-13 16:00,ZHHH 131600Z 09002MPS CAVOK 25/22 Q1011 NOSIG
ZHHH,2003-09-13 17:00,ZHHH 131700Z 10002MPS CAVOK 25/21 Q1011 NOSIG
ZHHH,2003-09-13 18:00,ZHHH 131800Z 10002MPS CAVOK 25/21 Q1010 NOSIG
ZHHH,2003-09-13 19:00,ZHHH 131900Z 08002MPS CAVOK 24/21 Q1010 NOSIG
ZHHH,2003-09-13 20:00,ZHHH 132000Z 09002MPS 5000 BR NSC 24/21 Q1010 NOSIG
ZHHH,2003-09-13 21:00,ZHHH 132100Z 08002MPS 3000 BR NSC 23/21 Q1010 NOSIG
ZHHH,2003-09-13 22:00,ZHHH 132200Z 09002MPS 1800 BR SKC 23/21 Q1011 NOSIG
ZHHH,2003-09-13 23:00,ZHHH 132300Z 09002MPS 2200 BR NSC 22/20 Q1011 NOSIG
ZHHH,2003-09-14 00:00,ZHHH 140000Z 09003MPS 2500 BR NSC 24/21 Q1012 NOSIG
ZHHH,2003-09-14 01:00,ZHHH 140100Z 10004MPS 5000 BR NSC 25/21 Q1012 NOSIG
ZHHH,2003-09-14 02:00,ZHHH 140200Z 11005MPS 6000 NSC 27/21 Q1013 NOSIG
ZHHH,2003-09-14 03:00,ZHHH 140300Z 12004MPS 6000 NSC 27/21 Q1013 NOSIG
ZHHH,2003-09-14 04:00,ZHHH 140400Z 13004MPS CAVOK 28/22 Q1012 NOSIG
ZHHH,2003-09-14 05:00,ZHHH 140500Z 13003MPS CAVOK 29/21 Q1012 NOSIG
ZHHH,2003-09-14 06:00,ZHHH 140600Z 11003MPS CAVOK 30/22 Q1011 NOSIG
ZHHH,2003-09-14 07:00,ZHHH 140700Z 10004MPS CAVOK 30/21 Q1011 NOSIG
ZHHH,2003-09-14 08:00,ZHHH 140800Z 10003MPS CAVOK 30/22 Q1011 NOSIG
ZHHH,2003-09-14 09:00,ZHHH 140900Z 09003MPS CAVOK 30/22 Q1011 NOSIG
ZHHH,2003-09-14 10:00,ZHHH 141000Z 06002MPS CAVOK 29/21 Q1010 NOSIG
ZHHH,2003-09-14 11:00,ZHHH 141100Z 04002MPS CAVOK 28/22 Q1010 NOSIG
ZHHH,2003-09-14 12:00,ZHHH 141200Z 03003MPS 7000 NSC 27/22 Q1011 NOSIG
ZHHH,2003-09-14 13:00,ZHHH 141300Z 07002MPS 6000 NSC 26/23 Q1012 NOSIG
ZHHH,2003-09-14 14:00,ZHHH 141400Z 06002MPS 6000 NSC 26/22 Q1012 NOSIG
ZHHH,2003-09-14 15:00,ZHHH 141500Z 07003MPS 5000 BR NSC 26/22 Q1012 NOSIG
ZHHH,2003-09-14 16:00,ZHHH 141600Z 08003MPS 5000 BR NSC 26/22 Q1012 NOSIG
ZHHH,2003-09-14 17:00,ZHHH 141700Z 06002MPS 4000 BR NSC 25/22 Q1011 NOSIG
ZHHH,2003-09-14 18:00,ZHHH 141800Z 06003MPS 8000 NSC 25/22 Q1011 NOSIG
ZHHH,2003-09-14 19:00,ZHHH 141900Z 05002MPS 7000 NSC 24/22 Q1011 NOSIG
ZHHH,2003-09-14 20:00,ZHHH 142000Z 05003MPS 7000 NSC 24/22 Q1011 NOSIG
ZHHH,2003-09-14 21:00,ZHHH 142100Z 06002MPS 7000 NSC 24/21 Q1011 NOSIG
ZHHH,2003-09-14 22:00,ZHHH 142200Z 08002MPS CAVOK 23/21 Q1011 NOSIG
ZHHH,2003-09-14 23:00,ZHHH 142300Z 09002MPS 5000 BR NSC 23/22 Q1012 NOSIG
ZHHH,2003-09-15 00:00,ZHHH 150000Z 09003MPS 5000 BR NSC 24/22 Q1012 NOSIG
ZHHH,2003-09-15 01:00,ZHHH 150100Z 08003MPS CAVOK 26/22 Q1012 NOSIG
ZHHH,2003-09-15 02:00,ZHHH 150200Z 10003MPS 9999 SCT020 BKN120 28/23 Q1012 NOSIG
ZHHH,2003-09-15 03:00,ZHHH 150300Z 12004MPS 110V170 CAVOK 30/21 Q1012 NOSIG
ZHHH,2003-09-15 04:00,ZHHH 150400Z 11005MPS CAVOK 31/20 Q1012 NOSIG
ZHHH,2003-09-15 05:00,ZHHH 150500Z 13004MPS 080V160 CAVOK 31/21 Q1011 NOSIG
ZHHH,2003-09-15 06:00,ZHHH 150600Z 12005MPS 3000 NSC 31/22 Q1010 NOSIG
ZHHH,2003-09-15 07:00,ZHHH 150700Z 12004MPS 090V170 CAVOK 31/23 Q1010 NOSIG
ZHHH,2003-09-15 08:00,ZHHH 150800Z 11005MPS 6000 NSC 31/23 Q1009 NOSIG
ZHHH,2003-09-15 09:00,ZHHH 150900Z 11004MPS 080V160 CAVOK 30/24 Q1009 NOSIG
ZHHH,2003-09-15 10:00,ZHHH 151000Z 11003MPS CAVOK 29/24 Q1009 NOSIG
ZHHH,2003-09-15 11:00,ZHHH 151100Z 09003MPS 7000 NSC 28/24 Q1009 NOSIG
ZHHH,2003-09-15 12:00,ZHHH 151200Z 11003MPS 7000 NSC 28/25 Q1010 NOSIG
ZHHH,2003-09-15 13:00,ZHHH 151300Z 11003MPS 7000 NSC 27/25 Q1010 NOSIG
ZHHH,2003-09-15 14:00,ZHHH 151400Z 12003MPS 6000 NSC 27/25 Q1010 NOSIG
ZHHH,2003-09-15 15:00,ZHHH 151500Z 11003MPS 6000 NSC 26/24 Q1011 NOSIG
ZHHH,2003-09-15 16:00,ZHHH 151600Z 12003MPS 6000 NSC 26/24 Q1011 NOSIG
ZHHH,2003-09-15 17:00,ZHHH 151700Z 12003MPS 5000 BR NSC 25/24 Q1010 NOSIG
ZHHH,2003-09-15 18:00,ZHHH 151800Z 12003MPS 4000 BR NSC 25/24 Q1010 NOSIG
ZHHH,2003-09-15 19:00,ZHHH 151900Z 10003MPS 3000 BR NSC 25/24 Q1010 NOSIG
ZHHH,2003-09-15 20:00,ZHHH 152000Z 11003MPS 3000 BR NSC 26/24 Q1010 NOSIG
ZHHH,2003-09-15 21:00,ZHHH 152100Z 12003MPS 3000 BR NSC 25/24 Q1010 NOSIG
ZHHH,2003-09-15 22:00,ZHHH 152200Z 12003MPS 6000 BKN043 25/24 Q1010 NOSIG
ZHHH,2003-09-15 23:00,ZHHH 152300Z 11003MPS 3500 BR NSC 25/24 Q1011 NOSIG
ZHHH,2003-09-16 00:00,ZHHH 160000Z 12002MPS 4000 BR NSC 26/24 Q1011 NOSIG
ZHHH,2003-09-16 01:00,ZHHH 160100Z 15004MPS 6000 FEW020 OVC070 26/24 Q1011 NOSIG
ZHHH,2003-09-16 02:00,ZHHH 160200Z 14004MPS 8000 SCT020 OVC070 27/24 Q1012 NOSIG
ZHHH,2003-09-16 03:00,ZHHH 160300Z 14004MPS 8000 SCT033 29/25 Q1012 NOSIG
ZHHH,2003-09-16 04:00,ZHHH 160400Z 14003MPS 100V220 8000 SCT020CB SCT020 29/25 Q1011 NOSIG
ZHHH,2003-09-16 05:00,ZHHH 160500Z 14004MPS 8000 SCT020CB SCT020 30/25 Q1010 NOSIG
ZHHH,2003-09-16 06:00,ZHHH 160600Z 14003MPS 110V230 9999 SCT020CB SCT020 31/23 Q1009 NOSIG
ZHHH,2003-09-16 07:00,ZHHH 160700Z 19008MPS 9999 -SHRA SCT020TCU SCT020 25/24 Q1009 NOSIG
ZHHH,2003-09-16 08:00,ZHHH 160800Z 15002MPS 9999 -RA SCT020 BKN033 26/25 Q1009 NOSIG
ZHHH,2003-09-16 09:00,ZHHH 160900Z 13003MPS 100V200 9999 SCT020 BKN050 27/25 Q1009 NOSIG
ZHHH,2003-09-16 10:00,ZHHH 161000Z 15002MPS 9999 SCT020 SCT050 27/26 Q1010 NOSIG
ZHHH,2003-09-16 11:00,ZHHH 161100Z 15002MPS 9999 -RA SCT020 OVC070 26/25 Q1010 NOSIG
ZHHH,2003-09-16 12:00,ZHHH 161200Z 15003MPS 9999 SCT020 SCT070 OVC100 25/24 Q1011 NOSIG
ZHHH,2003-09-16 13:00,ZHHH 161300Z 12003MPS 9999 SCT020 OVC100 25/24 Q1011 NOSIG
ZHHH,2003-09-16 14:00,ZHHH 161400Z 12003MPS 9999 SCT020 SCT100 25/24 Q1012 NOSIG
ZHHH,2003-09-16 15:00,ZHHH 161500Z 13003MPS 9999 SCT020 SCT100 25/24 Q1012 NOSIG
ZHHH,2003-09-16 16:00,ZHHH 161600Z 13002MPS 9999 SCT020 OVC070 25/25 Q1011 NOSIG
ZHHH,2003-09-16 17:00,ZHHH 161700Z 12002MPS 5000 BR NSC 25/25 Q1011 NOSIG
ZHHH,2003-09-16 18:00,ZHHH 161800Z 12002MPS 3000 BR NSC 25/25 Q1010 NOSIG
ZHHH,2003-09-16 19:00,ZHHH 161900Z 12002MPS 3000 BR NSC 25/25 Q1010 NOSIG
ZHHH,2003-09-16 20:00,ZHHH 162000Z 12003MPS 3000 BR NSC 25/25 Q1010 NOSIG
ZHHH,2003-09-16 21:00,ZHHH 162100Z 11003MPS 3000 BR NSC 25/25 Q1010 NOSIG
ZHHH,2003-09-16 22:00,ZHHH 162200Z 11003MPS 3000 BR NSC 25/25 Q1010 NOSIG
ZHHH,2003-09-16 23:00,ZHHH 162300Z 11003MPS 1600 BR NSC 25/25 Q1010 NOSIG
ZHHH,2003-09-17 00:00,ZHHH 170000Z 12004MPS 2000 BR NSC 25/25 Q1010 NOSIG
ZHHH,2003-09-17 01:00,ZHHH 170100Z 13005MPS 3000 BR SCT040 OVC060 26/25 Q1011 NOSIG
ZHHH,2003-09-17 02:00,ZHHH 170200Z 12004MPS 3000 BR NSC 27/26 Q1012 NOSIG
ZHHH,2003-09-17 03:00,ZHHH 170300Z 15004MPS 4000 BR NSC 28/25 Q1011 NOSIG
ZHHH,2003-09-17 04:00,ZHHH 170400Z 15005MPS 6000 NSC 29/26 Q1010 NOSIG
ZHHH,2003-09-17 05:00,ZHHH 170500Z 15004MPS 6000 NSC 29/26 Q1010 NOSIG
ZHHH,2003-09-17 06:00,ZHHH 170600Z 15004MPS CAVOK 29/26 Q1010 NOSIG
ZHHH,2003-09-17 07:00,ZHHH 170700Z 15003MPS 130V200 9999 -RA NSC 29/26 Q1009 NOSIG
ZHHH,2003-09-17 08:00,ZHHH 170800Z 15002MPS CAVOK 29/26 Q1009 NOSIG
ZHHH,2003-09-17 09:00,ZHHH 170900Z 19003MPS CAVOK 30/26 Q1009 NOSIG
ZHHH,2003-09-17 10:00,ZHHH 171000Z 16002MPS CAVOK 29/26 Q1009 NOSIG
ZHHH,2003-09-17 11:00,ZHHH 171100Z 11002MPS 4000 BR NSC 28/26 Q1009 NOSIG
ZHHH,2003-09-17 12:00,ZHHH 171200Z 15002MPS 2500 BR NSC 28/27 Q1010 NOSIG
ZHHH,2003-09-17 13:00,ZHHH 171300Z 12002MPS 2100 BR NSC 27/27 Q1010 NOSIG
ZHHH,2003-09-17 14:00,ZHHH 171400Z 10002MPS 1600 BR NSC 27/26 Q1010 NOSIG
ZHHH,2003-09-17 15:00,ZHHH 171500Z 14002MPS 2000 BR NSC 27/26 Q1010 NOSIG
ZHHH,2003-09-17 16:00,ZHHH 171600Z 13001MPS 3000 BR NSC 27/26 Q1010 NOSIG
ZHHH,2003-09-17 17:00,ZHHH 171700Z 00000MPS 2000 BR NSC 26/26 Q1010 NOSIG
ZHHH,2003-09-17 18:00,ZHHH 171800Z 12002MPS 1600 BR NSC 26/26 Q1009 NOSIG
ZHHH,2003-09-17 19:00,ZHHH 171900Z 00000MPS 1600 BR NSC 26/26 Q1009 NOSIG
ZHHH,2003-09-17 20:00,ZHHH 172000Z 00000MPS 1600 BR NSC 26/26 Q1009 NOSIG
ZHHH,2003-09-17 21:00,ZHHH 172100Z 09002MPS 1600 BR NSC 26/26 Q1009 NOSIG
ZHHH,2003-09-17 22:00,ZHHH 172200Z 10002MPS 1300 R04/1300N BR NSC 26/26 Q1010 NOSIG
ZHHH,2003-09-17 23:00,ZHHH 172300Z 09002MPS 1300 R04/1300N BR NSC 26/26 Q1010 NOSIG
ZHHH,2003-09-18 00:00,ZHHH 180000Z 12002MPS 1600 BR SCT030 BKN100 26/26 Q1010 NOSIG
ZHHH,2003-09-18 01:00,ZHHH 180100Z 13002MPS 2500 BR OVC040 28/27 Q1011 NOSIG
ZHHH,2003-09-18 02:00,ZHHH 180200Z 14002MPS 2500 BR OVC040 29/26 Q1011 NOSIG
ZHHH,2003-09-18 03:00,ZHHH 180300Z 15002MPS 4000 BR OVC040 29/26 Q1010 NOSIG
ZHHH,2003-09-18 04:00,ZHHH 180400Z 14002MPS 4000 BR FEW023 BKN050 30/26 Q1010 NOSIG
ZHHH,2003-09-18 05:00,ZHHH 180500Z 20002MPS 9999 SCT023 FEW030TCU SCT060 32/25 Q1009 NOSIG
ZHHH,2003-09-18 06:00,ZHHH 180600Z 18001MPS 9999 SCT023 FEW030TCU BKN100 31/25 Q1008 NOSIG
ZHHH,2003-09-18 07:00,ZHHH 180700Z 16002MPS 9999 FEW023 BKN120 31/26 Q1007 NOSIG
ZHHH,2003-09-18 08:00,ZHHH 180800Z 13003MPS 9999 SCT023 FEW030TCU 31/26 Q1007 NOSIG
ZHHH,2003-09-18 09:00,ZHHH 180900Z 15002MPS 9999 SCT023 FEW030TCU 31/25 Q1007 NOSIG
ZHHH,2003-09-18 10:00,ZHHH 181000Z 11003MPS CAVOK 30/26 Q1007 NOSIG
ZHHH,2003-09-18 11:00,ZHHH 181100Z 12002MPS CAVOK 29/26 Q1008 NOSIG
ZHHH,2003-09-18 12:00,ZHHH 181200Z 06005MPS CAVOK 28/26 Q1009 NOSIG
ZHHH,2003-09-18 13:00,ZHHH 181300Z 04006MPS CAVOK 26/24 Q1009 NOSIG
ZHHH,2003-09-18 14:00,ZHHH 181400Z 05007MPS CAVOK 25/23 Q1010 NOSIG
ZHHH,2003-09-18 15:00,ZHHH 181500Z 04007MPS CAVOK 24/22 Q1010 NOSIG
ZHHH,2003-09-18 16:00,ZHHH 181600Z 04006MPS CAVOK 24/22 Q1010 NOSIG
ZHHH,2003-09-18 17:00,ZHHH 181700Z 04006MPS CAVOK 23/22 Q1010 NOSIG
ZHHH,2003-09-18 18:00,ZHHH 181800Z 04006MPS CAVOK 23/22 Q1010 NOSIG
ZHHH,2003-09-18 19:00,ZHHH 181900Z 04005MPS CAVOK 23/21 Q1010 NOSIG
ZHHH,2003-09-18 20:00,ZHHH 182000Z 02005MPS CAVOK 23/21 Q1010 NOSIG
ZHHH,2003-09-18 21:00,ZHHH 182100Z 04005MPS CAVOK 23/21 Q1010 NOSIG
ZHHH,2003-09-18 22:00,ZHHH 182200Z 04005MPS CAVOK 23/21 Q1010 NOSIG
ZHHH,2003-09-18 23:00,ZHHH 182300Z 04005MPS CAVOK 23/21 Q1010 NOSIG
ZHHH,2003-09-19 00:00,ZHHH 190000Z 04005MPS 360V060 9999 SCT023 SCT040 23/22 Q1011 NOSIG
ZHHH,2003-09-19 01:00,ZHHH 190100Z 01004MPS 340V040 9999 SCT018 BKN100 24/22 Q1011 NOSIG
ZHHH,2003-09-19 02:00,ZHHH 190200Z 04005MPS 000V060 9999 SCT020 BKN100 26/22 Q1012 NOSIG
ZHHH,2003-09-19 03:00,ZHHH 190300Z 03006MPS 000V060 9999 FEW020 BKN100 26/22 Q1012 NOSIG
ZHHH,2003-09-19 04:00,ZHHH 190400Z 03006MPS 000V060 9999 SCT020 BKN100 27/23 Q1011 NOSIG
ZHHH,2003-09-19 05:00,ZHHH 190500Z 03005MPS 340V060 9999 SCT020 BKN100 27/23 Q1011 NOSIG
ZHHH,2003-09-19 06:00,ZHHH 190600Z 04006MPS 000V060 9999 SCT020 OVC100 27/23 Q1010 NOSIG
ZHHH,2003-09-19 07:00,ZHHH 190700Z 04008MPS 9999 SCT020 BKN100 27/23 Q1010 NOSIG
ZHHH,2003-09-19 08:00,ZHHH 190800Z 04009G14MPS 9999 SCT020 BKN100 25/21 Q1010 NOSIG
ZHHH,2003-09-19 09:00,ZHHH 190900Z 04008G13MPS 9999 SCT020 BKN100 24/20 Q1011 NOSIG
ZHHH,2003-09-19 10:00,ZHHH 191000Z 03008G14MPS 360V060 9999 OVC040 22/18 Q1012 NOSIG
ZHHH,2003-09-19 11:00,ZHHH 191100Z 03008G13MPS 9999 OVC040 22/18 Q1013 NOSIG
ZHHH,2003-09-19 12:00,ZHHH 191200Z 04008MPS 000V060 CAVOK 21/19 Q1014 NOSIG
ZHHH,2003-09-19 13:00,ZHHH 191300Z 04008MPS CAVOK 21/18 Q1015 NOSIG
ZHHH,2003-09-19 14:00,ZHHH 191400Z 05009MPS 000V070 CAVOK 21/18 Q1015 NOSIG
ZHHH,2003-09-19 15:00,ZHHH 191500Z 04008G13MPS CAVOK 21/18 Q1015 NOSIG
ZHHH,2003-09-19 16:00,ZHHH 191600Z AUTO 04008KT 6SM 20/17 A2997 RMK SLP152 T02000170 IEM_DS3505
ZHHH,2003-09-19 17:00,ZHHH 191700Z 02006MPS CAVOK 20/17 Q1016 NOSIG
ZHHH,2003-09-19 18:00,ZHHH 191800Z 02004MPS 350V060 CAVOK 20/17 Q1016 NOSIG
ZHHH,2003-09-19 19:00,ZHHH 191900Z 01005MPS CAVOK 19/17 Q1016 NOSIG
ZHHH,2003-09-19 20:00,ZHHH 192000Z 01005MPS 2000 -RA SCT020 OVC053 18/18 Q1016 NOSIG
ZHHH,2003-09-19 21:00,ZHHH 192100Z 02006MPS 2000 -RA SCT020 OVC053 18/17 Q1016 NOSIG
ZHHH,2003-09-19 22:00,ZHHH 192200Z 03005MPS 000V060 2000 -RA SCT020 OVC053 18/17 Q1016 NOSIG
ZHHH,2003-09-19 23:00,ZHHH 192300Z 04007MPS 2000 -RA SCT006 OVC050 18/17 Q1016 NOSIG
ZHHH,2003-09-20 00:00,ZHHH 200000Z 03006MPS 000V060 2000 -RA SCT006 OVC050 18/18 Q1017 NOSIG
ZHHH,2003-09-20 01:00,ZHHH 200100Z 03006MPS 2500 -RA BR SCT006 OVC033 18/18 Q1017 NOSIG
ZHHH,2003-09-20 02:00,ZHHH 200200Z 02005MPS 2500 -RA BR SCT006 OVC033 18/18 Q1018 NOSIG
ZHHH,2003-09-20 03:00,ZHHH 200300Z 03005MPS 360V060 2500 -RA BR SCT006 OVC033 19/18 Q1018 NOSIG
ZHHH,2003-09-20 04:00,ZHHH 200400Z 03006MPS 5000 -RA BR SCT012 OVC040 19/18 Q1018 NOSIG
ZHHH,2003-09-20 05:00,ZHHH 200500Z 03005MPS 360V060 5000 BR SCT012 OVC040 20/18 Q1018 NOSIG
ZHHH,2003-09-20 06:00,ZHHH 200600Z 01005MPS 340V040 5000 BR SCT015 OVC040 20/17 Q1017 NOSIG
ZHHH,2003-09-20 07:00,ZHHH 200700Z 01005MPS 340V040 9999 OVC040 20/17 Q1017 NOSIG
ZHHH,2003-09-20 08:00,ZHHH 200800Z 02004MPS CAVOK 19/17 Q1017 NOSIG
ZHHH,2003-09-20 09:00,ZHHH 200900Z 02004MPS 9999 SCT030 OVC060 19/17 Q1017 NOSIG
ZHHH,2003-09-20 10:00,ZHHH 201000Z 02003MPS 9999 FEW020 OVC060 19/17 Q1017 NOSIG
ZHHH,2003-09-20 11:00,ZHHH 201100Z 01003MPS 9999 SCT020 OVC050 19/17 Q1018 NOSIG
ZHHH,2003-09-20 12:00,ZHHH 201200Z 01002MPS 9999 SCT020 OVC050 19/17 Q1018 NOSIG
ZHHH,2003-09-20 13:00,ZHHH 201300Z 02002MPS 9999 SCT020 OVC050 19/17 Q1019 NOSIG
ZHHH,2003-09-20 14:00,ZHHH 201400Z 03002MPS 9999 SCT020 OVC050 19/17 Q1019 NOSIG
ZHHH,2003-09-20 15:00,ZHHH 201500Z 36001MPS 9999 SCT020 OVC050 19/17 Q1019 NOSIG
ZHHH,2003-09-20 16:00,ZHHH 201600Z 34001MPS 9999 SCT020 OVC050 19/17 Q1019 NOSIG
ZHHH,2003-09-20 17:00,ZHHH 201700Z 36002MPS 9999 SCT020 OVC050 19/17 Q1019 NOSIG
ZHHH,2003-09-20 18:00,ZHHH 201800Z 32001MPS 9999 SCT020 OVC050 18/17 Q1018 NOSIG
ZHHH,2003-09-20 19:00,ZHHH 201900Z 33003MPS 1000 SCT020 OVC060 18/17 Q1018 NOSIG
ZHHH,2003-09-20 20:00,ZHHH 202000Z 34002MPS CAVOK 18/17 Q1018 NOSIG
ZHHH,2003-09-20 21:00,ZHHH 202100Z 33002MPS CAVOK 18/17 Q1018 NOSIG
ZHHH,2003-09-20 22:00,ZHHH 202200Z 36001MPS CAVOK 18/17 Q1018 NOSIG
ZHHH,2003-09-20 23:00,ZHHH 202300Z 00000MPS 4000 BR NSC 18/17 Q1018 NOSIG
ZHHH,2003-09-21 00:00,ZHHH 210000Z 32001MPS 3000 BR NSC 19/18 Q1019 NOSIG
ZHHH,2003-09-21 01:00,ZHHH 210100Z 04002MPS CAVOK 21/17 Q1019 NOSIG
ZHHH,2003-09-21 02:00,ZHHH 210200Z 02002MPS CAVOK 21/17 Q1019 NOSIG
ZHHH,2003-09-21 03:00,ZHHH 210300Z 02001MPS CAVOK 23/17 Q1019 NOSIG
ZHHH,2003-09-21 04:00,ZHHH 210400Z 33001MPS CAVOK 23/16 Q1019 NOSIG
ZHHH,2003-09-21 05:00,ZHHH 210500Z 07001MPS CAVOK 24/16 Q1018 NOSIG
ZHHH,2003-09-21 06:00,ZHHH 210600Z 25002MPS CAVOK 24/17 Q1017 NOSIG
ZHHH,2003-09-21 07:00,ZHHH 210700Z 31002MPS CAVOK 24/13 Q1017 NOSIG
ZHHH,2003-09-21 08:00,ZHHH 210800Z 26002MPS CAVOK 23/14 Q1017 NOSIG
ZHHH,2003-09-21 09:00,ZHHH 210900Z 29002MPS CAVOK 23/15 Q1017 NOSIG
ZHHH,2003-09-21 10:00,ZHHH 211000Z 00000MPS CAVOK 23/16 Q1017 NOSIG
ZHHH,2003-09-21 11:00,ZHHH 211100Z 28002MPS CAVOK 22/16 Q1017 NOSIG
ZHHH,2003-09-21 12:00,ZHHH 211200Z 29002MPS CAVOK 21/17 Q1017 NOSIG
ZHHH,2003-09-21 13:00,ZHHH 211300Z 29002MPS CAVOK 21/16 Q1018 NOSIG
ZHHH,2003-09-21 14:00,ZHHH 211400Z 27001MPS CAVOK 20/17 Q1018 NOSIG
ZHHH,2003-09-21 15:00,ZHHH 211500Z 30002MPS CAVOK 19/17 Q1018 NOSIG
ZHHH,2003-09-21 16:00,ZHHH 211600Z 32002MPS CAVOK 19/17 Q1017 NOSIG
ZHHH,2003-09-21 17:00,ZHHH 211700Z 35002MPS 7000 SKC 18/17 Q1017 NOSIG
ZHHH,2003-09-21 18:00,ZHHH 211800Z 01001MPS 3000 BR SKC 18/17 Q1017 NOSIG
ZHHH,2003-09-21 19:00,ZHHH 211900Z 00000MPS 3000 BR SKC 18/16 Q1016 NOSIG
ZHHH,2003-09-21 20:00,ZHHH 212000Z 00000MPS 2500 BR SKC 17/16 Q1016 NOSIG
ZHHH,2003-09-21 21:00,ZHHH 212100Z 00000MPS 2500 BR SKC 17/15 Q1016 NOSIG
ZHHH,2003-09-21 22:00,ZHHH 212200Z 00000MPS 3000 BR SKC 16/15 Q1016 NOSIG
ZHHH,2003-09-21 23:00,ZHHH 212300Z 00000MPS 3000 BR NSC 17/16 Q1017 NOSIG
ZHHH,2003-09-22 00:00,ZHHH 220000Z 09002MPS 2500 BR NSC 18/17 Q1017 NOSIG
ZHHH,2003-09-22 01:00,ZHHH 220100Z 10002MPS 3000 BR NSC 20/18 Q1018 NOSIG
ZHHH,2003-09-22 02:00,ZHHH 220200Z 12002MPS CAVOK 22/18 Q1018 NOSIG
ZHHH,2003-09-22 03:00,ZHHH 220300Z 15002MPS CAVOK 25/16 Q1017 NOSIG
ZHHH,2003-09-22 04:00,ZHHH 220400Z 12002MPS CAVOK 26/15 Q1016 NOSIG
ZHHH,2003-09-22 05:00,ZHHH 220500Z 24002MPS CAVOK 27/15 Q1016 NOSIG
ZHHH,2003-09-22 06:00,ZHHH 220600Z 27003MPS 240V320 CAVOK 28/14 Q1015 NOSIG
ZHHH,2003-09-22 07:00,ZHHH 220700Z 24003MPS 200V280 CAVOK 28/14 Q1014 NOSIG
ZHHH,2003-09-22 08:00,ZHHH 220800Z 28002MPS CAVOK 27/14 Q1014 NOSIG
ZHHH,2003-09-22 09:00,ZHHH 220900Z 30002MPS CAVOK 27/15 Q1014 NOSIG
ZHHH,2003-09-22 10:00,ZHHH 221000Z 29001MPS CAVOK 26/15 Q1014 NOSIG
ZHHH,2003-09-22 11:00,ZHHH 221100Z 30001MPS CAVOK 24/14 Q1014 NOSIG
ZHHH,2003-09-22 12:00,ZHHH 221200Z 15001MPS CAVOK 24/15 Q1014 NOSIG
ZHHH,2003-09-22 13:00,ZHHH 221300Z 16001MPS CAVOK 24/15 Q1015 NOSIG
ZHHH,2003-09-22 14:00,ZHHH 221400Z 00000MPS CAVOK 23/16 Q1015 NOSIG
ZHHH,2003-09-22 15:00,ZHHH 221500Z 10001MPS 5000 BR SKC 22/18 Q1015 NOSIG
ZHHH,2003-09-22 16:00,ZHHH 221600Z 11002MPS 2000 BR SKC 20/19 Q1015 NOSIG
ZHHH,2003-09-22 17:00,ZHHH 221700Z 13002MPS 2000 BR SKC 21/19 Q1015 NOSIG
ZHHH,2003-09-22 18:00,ZHHH 221800Z 11001MPS 2000 BR SKC 21/18 Q1014 NOSIG
ZHHH,2003-09-22 19:00,ZHHH 221900Z 07001MPS 2000 BR SKC 20/18 Q1014 NOSIG
ZHHH,2003-09-22 20:00,ZHHH 222000Z 07002MPS 2000 BR SKC 19/17 Q1014 NOSIG
ZHHH,2003-09-22 21:00,ZHHH 222100Z 10002MPS 2000 BR SKC 19/17 Q1014 NOSIG
ZHHH,2003-09-22 22:00,ZHHH 222200Z 06002MPS 2000 BR SKC 18/16 Q1015 NOSIG
ZHHH,2003-09-22 23:00,ZHHH 222300Z 06002MPS 1100 R04/1400D BR SKC 18/17 Q1015 NOSIG
ZHHH,2003-09-23 00:00,ZHHH 230000Z 09002MPS 1400 R04/P1500 BR SKC 20/18 Q1015 NOSIG
ZHHH,2003-09-23 01:00,ZHHH 230100Z 14003MPS 4000 BR SKC 22/18 Q1015 NOSIG
ZHHH,2003-09-23 02:00,ZHHH 230200Z 15004MPS 5000 HZ SKC 24/15 Q1016 NOSIG
ZHHH,2003-09-23 03:00,ZHHH 230300Z 14003MPS 6000 SKC 26/15 Q1016 NOSIG
ZHHH,2003-09-23 04:00,ZHHH 230400Z 14003MPS 100V210 CAVOK 27/16 Q1015 NOSIG
ZHHH,2003-09-23 05:00,ZHHH 230500Z 18002MPS CAVOK 28/15 Q1014 NOSIG
ZHHH,2003-09-23 06:00,ZHHH 230600Z 15003MPS CAVOK 29/15 Q1013 NOSIG
ZHHH,2003-09-23 07:00,ZHHH 230700Z 15003MPS 060V220 CAVOK 29/15 Q1013 NOSIG
ZHHH,2003-09-23 08:00,ZHHH 230800Z 14002MPS CAVOK 29/14 Q1013 NOSIG
ZHHH,2003-09-23 09:00,ZHHH 230900Z 14003MPS CAVOK 28/14 Q1013 NOSIG
ZHHH,2003-09-23 10:00,ZHHH 231000Z 11002MPS CAVOK 27/16 Q1013 NOSIG
ZHHH,2003-09-23 11:00,ZHHH 231100Z 10002MPS CAVOK 25/17 Q1013 NOSIG
ZHHH,2003-09-23 12:00,ZHHH 231200Z 13001MPS CAVOK 25/17 Q1014 NOSIG
ZHHH,2003-09-23 13:00,ZHHH 231300Z 11001MPS 5000 HZ SKC 24/17 Q1015 NOSIG
ZHHH,2003-09-23 14:00,ZHHH 231400Z 08001MPS 4000 HZ SKC 23/16 Q1015 NOSIG
ZHHH,2003-09-23 15:00,ZHHH 231500Z 10002MPS 4000 HZ SKC 23/17 Q1015 NOSIG
ZHHH,2003-09-23 16:00,ZHHH 231600Z 09002MPS 4000 HZ SKC 22/17 Q1015 NOSIG
ZHHH,2003-09-23 17:00,ZHHH 231700Z 08002MPS 4000 BR SKC 21/17 Q1015 NOSIG
ZHHH,2003-09-23 18:00,ZHHH 231800Z 09003MPS 4000 BR SKC 21/17 Q1015 NOSIG
ZHHH,2003-09-23 19:00,ZHHH 231900Z 07002MPS 4000 BR SKC 20/17 Q1015 NOSIG
ZHHH,2003-09-23 20:00,ZHHH 232000Z 08003MPS 4000 BR SKC 19/17 Q1015 NOSIG
ZHHH,2003-09-23 21:00,ZHHH 232100Z 09002MPS 4000 BR SKC 19/17 Q1015 NOSIG
ZHHH,2003-09-23 22:00,ZHHH 232200Z 11002MPS 4000 BR SKC 19/17 Q1016 NOSIG
ZHHH,2003-09-23 23:00,ZHHH 232300Z 08003MPS 4000 BR SKC 18/17 Q1016 NOSIG
ZHHH,2003-09-24 00:00,ZHHH 240000Z 09002MPS 4000 BR SKC 20/18 Q1017 NOSIG
ZHHH,2003-09-24 01:00,ZHHH 240100Z 11004MPS 5000 BR SKC 22/19 Q1017 NOSIG
ZHHH,2003-09-24 02:00,ZHHH 240200Z 15004MPS CAVOK 24/18 Q1017 NOSIG
ZHHH,2003-09-24 03:00,ZHHH 240300Z 15004MPS 120V180 CAVOK 27/18 Q1017 NOSIG
ZHHH,2003-09-24 04:00,ZHHH 240400Z 16004MPS CAVOK 28/18 Q1017 NOSIG
ZHHH,2003-09-24 05:00,ZHHH 240500Z 14004MPS 100V190 CAVOK 30/17 Q1016 NOSIG
ZHHH,2003-09-24 06:00,ZHHH 240600Z 16003MPS 110V180 CAVOK 30/17 Q1015 NOSIG
ZHHH,2003-09-24 07:00,ZHHH 240700Z 15003MPS CAVOK 31/16 Q1014 NOSIG
ZHHH,2003-09-24 08:00,ZHHH 240800Z 16003MPS 140V200 CAVOK 30/16 Q1014 NOSIG
ZHHH,2003-09-24 09:00,ZHHH 240900Z 14003MPS CAVOK 30/17 Q1014 NOSIG
ZHHH,2003-09-24 10:00,ZHHH 241000Z 10002MPS CAVOK 28/17 Q1014 NOSIG
ZHHH,2003-09-24 11:00,ZHHH 241100Z 11002MPS CAVOK 27/17 Q1014 NOSIG
ZHHH,2003-09-24 12:00,ZHHH 241200Z 10001MPS CAVOK 26/17 Q1015 NOSIG
ZHHH,2003-09-24 13:00,ZHHH 241300Z 07002MPS CAVOK 25/17 Q1016 NOSIG
ZHHH,2003-09-24 14:00,ZHHH 241400Z 08002MPS CAVOK 24/18 Q1016 NOSIG
ZHHH,2003-09-24 15:00,ZHHH 241500Z 10002MPS 4000 BR SKC 23/19 Q1016 NOSIG
ZHHH,2003-09-24 16:00,ZHHH 241600Z 10003MPS 3000 BR SKC 22/18 Q1016 NOSIG
ZHHH,2003-09-24 18:00,ZHHH 241800Z AUTO 00000KT 9SM 21/16 A3000 RMK SLP161 T02060163 57002 IEM_DS3505
ZHHH,2003-09-24 21:00,ZHHH 242100Z 08003MPS 3000 BR SKC 20/18 Q1016 NOSIG
ZHHH,2003-09-24 22:00,ZHHH 242200Z 10002MPS 4000 BR SKC 19/18 Q1017 NOSIG
ZHHH,2003-09-24 23:00,ZHHH 242300Z 10003MPS 4000 BR SKC 19/18 Q1017 NOSIG
ZHHH,2003-09-25 00:00,ZHHH 250000Z 10004MPS 4000 BR SKC 21/19 Q1018 NOSIG
ZHHH,2003-09-25 01:00,ZHHH 250100Z 12004MPS CAVOK 24/20 Q1018 NOSIG
ZHHH,2003-09-25 02:00,ZHHH 250200Z 14003MPS CAVOK 27/18 Q1018 NOSIG
ZHHH,2003-09-25 03:00,ZHHH 250300Z 14003MPS CAVOK 29/18 Q1018 NOSIG
ZHHH,2003-09-25 04:00,ZHHH 250400Z 13004MPS 100V170 CAVOK 30/18 Q1017 NOSIG
ZHHH,2003-09-25 05:00,ZHHH 250500Z 15003MPS 110V180 CAVOK 30/18 Q1016 NOSIG
ZHHH,2003-09-25 06:00,ZHHH 250600Z 12004MPS CAVOK 31/15 Q1015 NOSIG
ZHHH,2003-09-25 07:00,ZHHH 250700Z 11004MPS CAVOK 32/14 Q1014 NOSIG
ZHHH,2003-09-25 08:00,ZHHH 250800Z 13005MPS CAVOK 32/13 Q1014 NOSIG
ZHHH,2003-09-25 09:00,ZHHH 250900Z 13003MPS CAVOK 31/16 Q1013 NOSIG
ZHHH,2003-09-25 10:00,ZHHH 251000Z 12002MPS CAVOK 29/16 Q1013 NOSIG
ZHHH,2003-09-25 11:00,ZHHH 251100Z 08002MPS CAVOK 27/16 Q1013 NOSIG
ZHHH,2003-09-25 12:00,ZHHH 251200Z 09002MPS CAVOK 26/17 Q1014 NOSIG
ZHHH,2003-09-25 13:00,ZHHH 251300Z 10002MPS CAVOK 25/18 Q1015 NOSIG
ZHHH,2003-09-25 14:00,ZHHH 251400Z 12003MPS CAVOK 24/18 Q1015 NOSIG
ZHHH,2003-09-25 15:00,ZHHH 251500Z 13002MPS CAVOK 24/18 Q1015 NOSIG
ZHHH,2003-09-25 16:00,ZHHH 251600Z 13002MPS CAVOK 23/18 Q1015 NOSIG
ZHHH,2003-09-25 17:00,ZHHH 251700Z 11003MPS CAVOK 22/18 Q1015 NOSIG
ZHHH,2003-09-25 18:00,ZHHH 251800Z 11003MPS CAVOK 22/19 Q1014 NOSIG
ZHHH,2003-09-25 19:00,ZHHH 251900Z 10003MPS 5000 BR SKC 21/18 Q1014 NOSIG
ZHHH,2003-09-25 20:00,ZHHH 252000Z 11003MPS 5000 BR SKC 21/17 Q1014 NOSIG
ZHHH,2003-09-25 21:00,ZHHH 252100Z 09003MPS 5000 BR SKC 20/17 Q1014 NOSIG
ZHHH,2003-09-25 22:00,ZHHH 252200Z 09003MPS 5000 BR SKC 19/17 Q1014 NOSIG
ZHHH,2003-09-25 23:00,ZHHH 252300Z 09003MPS 4000 BR SKC 20/18 Q1015 NOSIG
ZHHH,2003-09-26 00:00,ZHHH 260000Z 10004MPS 5000 BR SKC 21/19 Q1015 NOSIG
ZHHH,2003-09-26 01:00,ZHHH 260100Z 12004MPS 6000 SKC 24/19 Q1015 NOSIG
ZHHH,2003-09-26 02:00,ZHHH 260200Z 15004MPS 110V170 5000 DU SKC 26/19 Q1016 NOSIG
ZHHH,2003-09-26 03:00,ZHHH 260300Z 13004MPS 110V170 CAVOK 28/18 Q1015 NOSIG
ZHHH,2003-09-26 04:00,ZHHH 260400Z 15003MPS 100V200 CAVOK 30/18 Q1014 NOSIG
ZHHH,2003-09-26 05:00,ZHHH 260500Z 15002MPS CAVOK 31/18 Q1013 NOSIG
ZHHH,2003-09-26 06:00,ZHHH 260600Z 26002MPS CAVOK 31/16 Q1012 NOSIG
ZHHH,2003-09-26 07:00,ZHHH 260700Z 24003MPS 120V290 CAVOK 32/16 Q1011 NOSIG
ZHHH,2003-09-26 08:00,ZHHH 260800Z 26003MPS 230V290 CAVOK 32/17 Q1011 NOSIG
ZHHH,2003-09-26 09:00,ZHHH 260900Z 20001MPS CAVOK 31/17 Q1010 NOSIG
ZHHH,2003-09-26 10:00,ZHHH 261000Z 12002MPS CAVOK 29/18 Q1010 NOSIG
ZHHH,2003-09-26 11:00,ZHHH 261100Z 07001MPS CAVOK 27/17 Q1011 NOSIG
ZHHH,2003-09-26 12:00,ZHHH 261200Z 10002MPS CAVOK 26/17 Q1011 NOSIG
ZHHH,2003-09-26 13:00,ZHHH 261300Z 10001MPS CAVOK 26/16 Q1012 NOSIG
ZHHH,2003-09-26 14:00,ZHHH 261400Z 11002MPS CAVOK 25/17 Q1012 NOSIG
ZHHH,2003-09-26 15:00,ZHHH 261500Z 12002MPS CAVOK 25/18 Q1012 NOSIG
ZHHH,2003-09-26 16:00,ZHHH 261600Z 13002MPS CAVOK 24/18 Q1011 NOSIG
ZHHH,2003-09-26 17:00,ZHHH 261700Z 08001MPS CAVOK 23/19 Q1011 NOSIG
ZHHH,2003-09-26 18:00,ZHHH 261800Z 07003MPS CAVOK 22/18 Q1011 NOSIG
ZHHH,2003-09-26 19:00,ZHHH 261900Z 07001MPS 6000 SKC 21/18 Q1011 NOSIG
ZHHH,2003-09-26 20:00,ZHHH 262000Z 06002MPS 6000 SKC 20/19 Q1010 NOSIG
ZHHH,2003-09-26 21:00,ZHHH 262100Z 06003MPS 5000 BR SKC 20/18 Q1011 NOSIG
ZHHH,2003-09-26 22:00,ZHHH 262200Z 08003MPS 5000 BR SKC 20/18 Q1011 NOSIG
ZHHH,2003-09-26 23:00,ZHHH 262300Z 08003MPS 5000 BR NSC 20/17 Q1011 NOSIG
ZHHH,2003-09-27 00:00,ZHHH 270000Z 09002MPS 4000 BR SKC 21/18 Q1012 NOSIG
ZHHH,2003-09-27 01:00,ZHHH 270100Z 11004MPS CAVOK 24/18 Q1012 NOSIG
ZHHH,2003-09-27 02:00,ZHHH 270200Z 12004MPS CAVOK 26/19 Q1012 NOSIG
ZHHH,2003-09-27 03:00,ZHHH 270300Z 15003MPS 100V180 CAVOK 28/19 Q1012 NOSIG
ZHHH,2003-09-27 04:00,ZHHH 270400Z 16002MPS CAVOK 30/18 Q1011 NOSIG
ZHHH,2003-09-27 05:00,ZHHH 270500Z 16002MPS 9999 SCT020 31/17 Q1010 NOSIG
ZHHH,2003-09-27 06:00,ZHHH 270600Z 24003MPS 9999 SCT020 32/15 Q1009 NOSIG
ZHHH,2003-09-27 07:00,ZHHH 270700Z 31003MPS CAVOK 32/15 Q1008 NOSIG
ZHHH,2003-09-27 08:00,ZHHH 270800Z 31002MPS CAVOK 32/15 Q1008 NOSIG
ZHHH,2003-09-27 09:00,ZHHH 270900Z 35001MPS CAVOK 32/15 Q1008 NOSIG
ZHHH,2003-09-27 10:00,ZHHH 271000Z 00000MPS CAVOK 30/15 Q1008 NOSIG
ZHHH,2003-09-27 11:00,ZHHH 271100Z 00000MPS CAVOK 28/17 Q1009 NOSIG
ZHHH,2003-09-27 12:00,ZHHH 271200Z 06003MPS CAVOK 27/17 Q1009 NOSIG
ZHHH,2003-09-27 13:00,ZHHH 271300Z 06002MPS CAVOK 27/17 Q1010 NOSIG
ZHHH,2003-09-27 14:00,ZHHH 271400Z 00000MPS CAVOK 26/17 Q1010 NOSIG
ZHHH,2003-09-27 15:00,ZHHH 271500Z 10003MPS CAVOK 25/17 Q1010 NOSIG
ZHHH,2003-09-27 16:00,ZHHH 271600Z 06002MPS CAVOK 24/17 Q1010 NOSIG
ZHHH,2003-09-27 17:00,ZHHH 271700Z 08002MPS CAVOK 23/18 Q1010 NOSIG
ZHHH,2003-09-27 18:00,ZHHH 271800Z 07003MPS CAVOK 23/18 Q1010 NOSIG
ZHHH,2003-09-27 19:00,ZHHH 271900Z 04002MPS CAVOK 22/17 Q1010 NOSIG
ZHHH,2003-09-27 20:00,ZHHH 272000Z 03002MPS CAVOK 22/17 Q1010 NOSIG
ZHHH,2003-09-27 21:00,ZHHH 272100Z 06002MPS CAVOK 22/17 Q1010 NOSIG
ZHHH,2003-09-27 22:00,ZHHH 272200Z 11002MPS 5000 BR NSC 22/17 Q1011 NOSIG
ZHHH,2003-09-27 23:00,ZHHH 272300Z 06002MPS 5000 BR NSC 22/17 Q1011 NOSIG
ZHHH,2003-09-28 00:00,ZHHH 280000Z 05001MPS 5000 BR NSC 22/18 Q1012 NOSIG
ZHHH,2003-09-28 01:00,ZHHH 280100Z 04003MPS 350V060 6000 NSC 23/18 Q1013 NOSIG
ZHHH,2003-09-28 02:00,ZHHH 280200Z 04004MPS 6000 NSC 25/18 Q1013 NOSIG
ZHHH,2003-09-28 03:00,ZHHH 280300Z 04003MPS 000V080 5000 HZ NSC 26/19 Q1013 NOSIG
ZHHH,2003-09-28 04:00,ZHHH 280400Z 07002MPS CAVOK 28/20 Q1012 NOSIG
ZHHH,2003-09-28 05:00,ZHHH 280500Z 06003MPS 360V130 CAVOK 30/20 Q1011 NOSIG
ZHHH,2003-09-28 06:00,ZHHH 280600Z 07005MPS 030V090 CAVOK 31/19 Q1010 NOSIG
ZHHH,2003-09-28 07:00,ZHHH 280700Z 05005MPS 020V080 CAVOK 32/17 Q1010 NOSIG
ZHHH,2003-09-28 08:00,ZHHH 280800Z 03006MPS CAVOK 30/20 Q1010 NOSIG
ZHHH,2003-09-28 09:00,ZHHH 280900Z 04006MPS 4000 HZ SKC 28/21 Q1010 NOSIG
ZHHH,2003-09-28 10:00,ZHHH 281000Z 04006MPS 000V070 3000 HZ SKC 26/20 Q1011 NOSIG
ZHHH,2003-09-28 11:00,ZHHH 281100Z 04007MPS 2500 BR SKC 25/20 Q1011 NOSIG
ZHHH,2003-09-28 12:00,ZHHH 281200Z 04007MPS 2500 BR SKC 24/20 Q1012 NOSIG
ZHHH,2003-09-28 13:00,ZHHH 281300Z 04006MPS 2500 BR SKC 23/19 Q1013 NOSIG
ZHHH,2003-09-28 14:00,ZHHH 281400Z 04006MPS 2200 BR SKC 22/19 Q1014 NOSIG
ZHHH,2003-09-28 15:00,ZHHH 281500Z 04006MPS 3000 BR SKC 22/19 Q1014 NOSIG
ZHHH,2003-09-28 16:00,ZHHH 281600Z 04005MPS 1800 BR SKC 21/19 Q1014 NOSIG
ZHHH,2003-09-28 17:00,ZHHH 281700Z 04006MPS 1800 BR SKC 21/19 Q1014 NOSIG
ZHHH,2003-09-28 18:00,ZHHH 281800Z 04006MPS 2000 BR SKC 21/19 Q1015 NOSIG
ZHHH,2003-09-28 19:00,ZHHH 281900Z 04005MPS 2000 BR SKC 20/18 Q1015 NOSIG
ZHHH,2003-09-28 20:00,ZHHH 282000Z 05005MPS 2000 BR SKC 20/18 Q1015 NOSIG
ZHHH,2003-09-28 21:00,ZHHH 282100Z 04004MPS 2000 BR SKC 19/18 Q1015 NOSIG
ZHHH,2003-09-28 22:00,ZHHH 282200Z 04005MPS 2000 BR SKC 19/18 Q1015 NOSIG
ZHHH,2003-09-28 23:00,ZHHH 282300Z 05004MPS 1400 R04/1200 BR SKC 19/18 Q1016 NOSIG
ZHHH,2003-09-29 00:00,ZHHH 290000Z 03004MPS 1400 R04/1400 BR NSC 20/19 Q1016 NOSIG
ZHHH,2003-09-29 01:00,ZHHH 290100Z 02005MPS 1800 BR SKC 22/19 Q1017 NOSIG
ZHHH,2003-09-29 02:00,ZHHH 290200Z 05004MPS 010V070 2500 BR SCT020 23/20 Q1017 NOSIG
ZHHH,2003-09-29 03:00,ZHHH 290300Z 04004MPS 020V080 2500 BR FEW020 25/20 Q1016 NOSIG
ZHHH,2003-09-29 04:00,ZHHH 290400Z 06004MPS 020V100 3000 DU FEW013 26/20 Q1015 NOSIG
ZHHH,2003-09-29 05:00,ZHHH 290500Z 08002MPS 3500 DU NSC 28/19 Q1015 NOSIG
ZHHH,2003-09-29 06:00,ZHHH 290600Z 04002MPS 3000 DU SKC 28/19 Q1014 NOSIG
ZHHH,2003-09-29 07:00,ZHHH 290700Z 06002MPS 3000 DU NSC 29/20 Q1013 NOSIG
ZHHH,2003-09-29 08:00,ZHHH 290800Z 05002MPS 3500 DU NSC 29/20 Q1013 NOSIG
ZHHH,2003-09-29 09:00,ZHHH 290900Z 06002MPS 3500 DU SKC 28/19 Q1013 NOSIG
ZHHH,2003-09-29 10:00,ZHHH 291000Z 04003MPS 2500 DU SKC 27/20 Q1013 NOSIG
ZHHH,2003-09-29 11:00,ZHHH 291100Z 04003MPS 2500 DU SKC 25/20 Q1014 NOSIG
ZHHH,2003-09-29 12:00,ZHHH 291200Z 05002MPS 1800 BR NSC 24/20 Q1014 NOSIG
ZHHH,2003-09-29 13:00,ZHHH 291300Z 04004MPS 1800 BR NSC 23/20 Q1014 NOSIG
ZHHH,2003-09-29 14:00,ZHHH 291400Z 04004MPS 2000 BR SKC 23/20 Q1014 NOSIG
ZHHH,2003-09-29 15:00,ZHHH 291500Z 04004MPS 2500 BR SKC 22/19 Q1014 NOSIG
ZHHH,2003-09-29 16:00,ZHHH 291600Z 04003MPS 2500 BR SKC 22/19 Q1014 NOSIG
ZHHH,2003-09-29 17:00,ZHHH 291700Z 05003MPS 3000 BR SKC 21/19 Q1014 NOSIG
ZHHH,2003-09-29 18:00,ZHHH 291800Z 05002MPS 2500 BR SKC 21/18 Q1014 NOSIG
ZHHH,2003-09-29 19:00,ZHHH 291900Z 35001MPS 2000 BR SKC 20/18 Q1014 NOSIG
ZHHH,2003-09-29 20:00,ZHHH 292000Z 04001MPS 1800 BR SKC 20/18 Q1014 NOSIG
ZHHH,2003-09-29 21:00,ZHHH 292100Z 09002MPS 1400 R04/P1500 BR SKC 19/18 Q1014 NOSIG
ZHHH,2003-09-29 22:00,ZHHH 292200Z 11002MPS 1400 R04/P1500 BR SKC 20/18 Q1014 NOSIG
ZHHH,2003-09-29 23:00,ZHHH 292300Z 09002MPS 1300 R04/P1500 BR SKC 19/18 Q1015 NOSIG
ZHHH,2003-09-30 00:00,ZHHH 300000Z 07003MPS 1400 R04/P1500 BR SKC 20/19 Q1015 NOSIG
ZHHH,2003-09-30 01:00,ZHHH 300100Z 08004MPS 2000 BR SKC 23/19 Q1015 NOSIG
ZHHH,2003-09-30 02:00,ZHHH 300200Z 10002MPS 3000 DU SKC 24/19 Q1015 NOSIG
ZHHH,2003-09-30 03:00,ZHHH 300300Z 13003MPS 100V160 4000 DU SKC 25/19 Q1015 NOSIG
ZHHH,2003-09-30 04:00,ZHHH 300400Z 15003MPS 100V180 4000 DU SKC 27/19 Q1014 NOSIG
ZHHH,2003-09-30 05:00,ZHHH 300500Z 12003MPS 080V160 4000 HZ SKC 28/19 Q1013 NOSIG
ZHHH,2003-09-30 06:00,ZHHH 300600Z 14002MPS 4000 HZ SKC 29/19 Q1012 NOSIG
ZHHH,2003-09-30 07:00,ZHHH 300700Z 14001MPS 4000 HZ SKC 29/19 Q1011 NOSIG
ZHHH,2003-09-30 08:00,ZHHH 300800Z 12002MPS 4000 HZ SKC 29/19 Q1011 NOSIG
ZHHH,2003-09-30 09:00,ZHHH 300900Z 12002MPS 4000 HZ SKC 28/19 Q1011 NOSIG
ZHHH,2003-09-30 10:00,ZHHH 301000Z 11002MPS 3000 HZ NSC 27/20 Q1011 NOSIG
ZHHH,2003-09-30 11:00,ZHHH 301100Z 08002MPS 2000 HZ NSC 26/20 Q1011 NOSIG
ZHHH,2003-09-30 12:00,ZHHH 301200Z 09001MPS 1700 HZ NSC 26/19 Q1011 NOSIG
ZHHH,2003-09-30 13:00,ZHHH 301300Z 09001MPS 1700 HZ NSC 26/19 Q1012 NOSIG
ZHHH,2003-09-30 14:00,ZHHH 301400Z 06002MPS 1700 HZ NSC 25/19 Q1012 NOSIG
ZHHH,2003-09-30 15:00,ZHHH 301500Z 05002MPS 2000 BR NSC 23/20 Q1012 NOSIG
ZHHH,2003-09-30 16:00,ZHHH 301600Z 06002MPS 1700 BR NSC 23/20 Q1012 NOSIG
ZHHH,2003-09-30 17:00,ZHHH 301700Z 06003MPS 1800 BR NSC 23/20 Q1012 NOSIG
ZHHH,2003-09-30 18:00,ZHHH 301800Z 07002MPS 1700 BR NSC 22/20 Q1012 NOSIG
ZHHH,2003-09-30 19:00,ZHHH 301900Z 06004MPS 1700 BR NSC 22/20 Q1012 NOSIG
ZHHH,2003-09-30 20:00,ZHHH 302000Z 06003MPS 1700 BR NSC 21/20 Q1012 NOSIG
ZHHH,2003-09-30 21:00,ZHHH 302100Z 05004MPS 1600 BR NSC 21/19 Q1012 NOSIG
ZHHH,2003-09-30 22:00,ZHHH 302200Z 04005MPS 1600 BR NSC 20/18 Q1013 NOSIG
ZHHH,2003-09-30 23:00,ZHHH 302300Z 04005MPS 1300 R04/1400N BR NSC 20/18 Q1014 NOSIG
ZHHH,2003-10-01 00:00,ZHHH 010000Z 04005MPS 1300 BR NSC 20/18 Q1015 NOSIG
ZHHH,2003-10-01 01:00,ZHHH 010100Z 05005MPS 2200 BR NSC 21/18 Q1015 NOSIG
ZHHH,2003-10-01 02:00,ZHHH 010200Z 04005MPS 360V060 2500 BR NSC 21/18 Q1015 NOSIG
ZHHH,2003-10-01 03:00,ZHHH 010300Z 04005MPS 3000 BR NSC 22/18 Q1015 NOSIG
ZHHH,2003-10-01 04:00,ZHHH 010400Z 04006MPS 6000 NSC 20/17 Q1015 NOSIG
ZHHH,2003-10-01 05:00,ZHHH 010500Z 04006MPS 360V070 6000 NSC 20/17 Q1015 NOSIG
ZHHH,2003-10-01 06:00,ZHHH 010600Z 03007MPS 9999 SCT020 OVC100 20/16 Q1015 NOSIG
ZHHH,2003-10-01 07:00,ZHHH 010700Z 04007MPS CAVOK 19/16 Q1015 NOSIG
ZHHH,2003-10-01 08:00,ZHHH 010800Z 04007MPS CAVOK 18/15 Q1015 NOSIG
ZHHH,2003-10-01 09:00,ZHHH 010900Z 03007MPS CAVOK 18/15 Q1016 NOSIG
ZHHH,2003-10-01 10:00,ZHHH 011000Z 03006MPS 9999 FEW020 OVC100 18/15 Q1016 NOSIG
ZHHH,2003-10-01 11:00,ZHHH 011100Z 03006MPS 9999 FEW020 OVC090 18/15 Q1017 NOSIG
ZHHH,2003-10-01 12:00,ZHHH 011200Z 02005MPS CAVOK 18/15 Q1018 NOSIG
ZHHH,2003-10-01 13:00,ZHHH 011300Z 02006MPS 350V050 CAVOK 18/15 Q1018 NOSIG
ZHHH,2003-10-01 14:00,ZHHH 011400Z 02005MPS 350V060 CAVOK 18/15 Q1018 NOSIG
ZHHH,2003-10-01 15:00,ZHHH 011500Z 02005MPS 9999 SCT018 BKN050 17/15 Q1018 NOSIG
ZHHH,2003-10-01 16:00,ZHHH 011600Z 03005MPS 340V060 9999 SCT020 BKN060 17/14 Q1018 NOSIG
ZHHH,2003-10-01 17:00,ZHHH 011700Z 02006MPS 9999 FEW020 BKN060 17/14 Q1018 NOSIG
ZHHH,2003-10-01 18:00,ZHHH 011800Z 02005MPS 9999 FEW020 BKN060 17/14 Q1018 NOSIG
ZHHH,2003-10-01 19:00,ZHHH 011900Z 36003MPS 320V040 9999 FEW020 OVC060 16/14 Q1019 NOSIG
ZHHH,2003-10-01 20:00,ZHHH 012000Z 02005MPS 9999 FEW020 OVC060 16/14 Q1019 NOSIG
ZHHH,2003-10-01 21:00,ZHHH 012100Z 02005MPS 350V060 9999 SCT020 OVC050 16/14 Q1019 NOSIG
ZHHH,2003-10-01 22:00,ZHHH 012200Z 03005MPS 9999 SCT020 OVC050 16/14 Q1020 NOSIG
ZHHH,2003-10-01 23:00,ZHHH 012300Z 03004MPS 360V060 9999 SCT008 SCT011 OVC040 15/14 Q1020 NOSIG
ZHHH,2003-10-02 00:00,ZHHH 020000Z 02004MPS 9999 FEW007 SCT010 OVC040 15/14 Q1021 NOSIG
ZHHH,2003-10-02 01:00,ZHHH 020100Z 02004MPS 350V060 6000 -DZ FEW006 SCT010 OVC040 15/14 Q1021 NOSIG
ZHHH,2003-10-02 02:00,ZHHH 020200Z 02005MPS 6000 -DZ SCT006 SCT010 OVC040 15/14 Q1021 NOSIG
ZHHH,2003-10-02 03:00,ZHHH 020300Z 02004MPS 350V050 6000 -RA SCT006 SCT010 OVC040 15/14 Q1022 NOSIG
ZHHH,2003-10-02 04:00,ZHHH 020400Z 02004MPS 5000 -DZ BR SCT006 SCT010 OVC030 15/14 Q1021 NOSIG
ZHHH,2003-10-02 05:00,ZHHH 020500Z 01004MPS 330V040 3500 -DZ BR SCT005 SCT008 OVC030 15/14 Q1021 NOSIG
ZHHH,2003-10-02 06:00,ZHHH 020600Z 02004MPS 9999 -DZ SCT005 SCT008 OVC030 14/14 Q1021 NOSIG
ZHHH,2003-10-02 07:00,ZHHH 020700Z 02005MPS 6000 -DZ SCT005 SCT007 OVC025 14/13 Q1021 NOSIG
ZHHH,2003-10-02 08:00,ZHHH 020800Z 02005MPS 350V050 5000 -DZ SCT005 SCT007 OVC025 13/13 Q1022 NOSIG
ZHHH,2003-10-02 09:00,ZHHH 020900Z 02005MPS 5000 -DZ SCT005 SCT007 OVC025 13/13 Q1023 NOSIG
ZHHH,2003-10-02 10:00,ZHHH 021000Z 02006MPS 9999 -DZ SCT007 SCT010 OVC033 13/13 Q1023 NOSIG
ZHHH,2003-10-02 11:00,ZHHH 021100Z 03006MPS 360V060 9999 SCT007 SCT010 OVC033 14/12 Q1024 NOSIG
ZHHH,2003-10-02 12:00,ZHHH 021200Z 03007MPS 9999 SCT007 SCT010 OVC033 14/12 Q1025 NOSIG
ZHHH,2003-10-02 13:00,ZHHH 021300Z 03006MPS 350V060 9999 SCT010 OVC023 14/12 Q1025 NOSIG
ZHHH,2003-10-02 14:00,ZHHH 021400Z 03006MPS 360V060 9999 SCT010 OVC023 14/12 Q1026 NOSIG
ZHHH,2003-10-02 15:00,ZHHH 021500Z 02005MPS 360V060 9999 SCT010 OVC023 14/12 Q1026 NOSIG
ZHHH,2003-10-02 16:00,ZHHH 021600Z 03006MPS 360V060 9999 SCT010 OVC033 15/12 Q1026 NOSIG
ZHHH,2003-10-02 17:00,ZHHH 021700Z 03005MPS 9999 SCT010 OVC033 14/12 Q1026 NOSIG
ZHHH,2003-10-02 18:00,ZHHH 021800Z 03005MPS 9999 SCT010 OVC033 14/12 Q1025 NOSIG
ZHHH,2003-10-02 19:00,ZHHH 021900Z 03005MPS 360V060 9999 SCT010 OVC033 14/12 Q1025 NOSIG
ZHHH,2003-10-02 20:00,ZHHH 022000Z 02003MPS 9999 SCT010 OVC040 15/12 Q1025 NOSIG
ZHHH,2003-10-02 21:00,ZHHH 022100Z 02005MPS 9999 OVC040 14/12 Q1026 NOSIG
ZHHH,2003-10-02 23:00,ZHHH 022300Z 02005MPS 7000 -DZ FEW007 BKN020 OVC050 13/12 Q1027 NOSIG
ZHHH,2003-10-03 00:00,ZHHH 030000Z 02005MPS 3000 -DZ FEW005 SCT012 OVC030 13/12 Q1028 NOSIG
ZHHH,2003-10-03 01:00,ZHHH 030100Z 02004MPS 2500 -DZ SCT006 SCT011 OVC033 13/12 Q1028 NOSIG
ZHHH,2003-10-03 02:00,ZHHH 030200Z 03005MPS 000V060 7000 -DZ SCT006 SCT023 OVC033 13/12 Q1028 NOSIG
ZHHH,2003-10-03 03:00,ZHHH 030300Z 04006MPS 9999 SCT013 OVC050 13/13 Q1028 NOSIG
ZHHH,2003-10-03 04:00,ZHHH 030400Z 04005MPS 000V070 9999 -RA SCT013 OVC050 14/12 Q1028 NOSIG
ZHHH,2003-10-03 05:00,ZHHH 030500Z 02005MPS 350V050 9999 SCT013 OVC050 15/12 Q1027 NOSIG
ZHHH,2003-10-03 06:00,ZHHH 030600Z 02005MPS 9999 SCT013 OVC050 15/12 Q1027 NOSIG
ZHHH,2003-10-03 07:00,ZHHH 030700Z 04005MPS 9999 FEW005 SCT013 OVC050 14/12 Q1026 NOSIG
ZHHH,2003-10-03 08:00,ZHHH 030800Z 03005MPS 350V060 9999 FEW005 SCT013 OVC050 14/12 Q1026 NOSIG
ZHHH,2003-10-03 09:00,ZHHH 030900Z 02004MPS 9999 -DZ SCT020 OVC040 14/12 Q1026 NOSIG
ZHHH,2003-10-03 10:00,ZHHH 031000Z 03004MPS 000V060 9999 SCT026 OVC040 14/12 Q1026 NOSIG
ZHHH,2003-10-03 11:00,ZHHH 031100Z 02004MPS 9999 SCT030 OVC050 14/12 Q1026 NOSIG
ZHHH,2003-10-03 12:00,ZHHH 031200Z 03004MPS 350V050 9999 SCT026 OVC050 14/12 Q1027 NOSIG
ZHHH,2003-10-03 13:00,ZHHH 031300Z 02004MPS 360V060 9999 FEW026 OVC050 13/12 Q1027 NOSIG
ZHHH,2003-10-03 14:00,ZHHH 031400Z 03004MPS 9999 FEW022 OVC050 13/12 Q1028 NOSIG
ZHHH,2003-10-03 15:00,ZHHH 031500Z 03004MPS 350V060 9999 FEW020 OVC050 13/12 Q1027 NOSIG
ZHHH,2003-10-03 16:00,ZHHH 031600Z 02004MPS 000V060 9999 FEW018 OVC050 13/11 Q1027 NOSIG
ZHHH,2003-10-03 17:00,ZHHH 031700Z 02003MPS 9999 FEW018 OVC050 13/12 Q1027 NOSIG
ZHHH,2003-10-03 18:00,ZHHH 031800Z 02003MPS 9999 -RA FEW015 OVC050 12/12 Q1026 NOSIG
ZHHH,2003-10-03 19:00,ZHHH 031900Z 03003MPS 9999 -RA SCT015 OVC050 12/12 Q1026 NOSIG
ZHHH,2003-10-03 20:00,ZHHH 032000Z 02003MPS 6000 -RA SCT009 OVC050 12/12 Q1026 NOSIG
ZHHH,2003-10-03 21:00,ZHHH 032100Z 03003MPS 6000 -RA SCT009 OVC050 12/12 Q1026 NOSIG
ZHHH,2003-10-03 22:00,ZHHH 032200Z 04004MPS 5000 -RA SCT007 OVC050 12/12 Q1026 NOSIG
ZHHH,2003-10-03 23:00,ZHHH 032300Z 04004MPS 010V070 9999 SCT007 SCT015 OVC050 12/12 Q1026 NOSIG
ZHHH,2003-10-04 00:00,ZHHH 040000Z 03004MPS 000V060 2500 -DZ SCT007 SCT015 OVC050 12/12 Q1027 NOSIG
ZHHH,2003-10-04 01:00,ZHHH 040100Z 03004MPS 1600 -DZ SCT005 SCT010 OVC033 12/12 Q1027 NOSIG
ZHHH,2003-10-04 02:00,ZHHH 040200Z 04003MPS 1800 -DZ SCT005 SCT010 OVC033 12/12 Q1027 NOSIG
ZHHH,2003-10-04 03:00,ZHHH 040300Z 03003MPS 1800 -DZ SCT005 SCT010 OVC030 13/13 Q1027 NOSIG
ZHHH,2003-10-04 04:00,ZHHH 040400Z 02003MPS 1800 -DZ SCT006 OVC030 13/13 Q1026 NOSIG
ZHHH,2003-10-04 05:00,ZHHH 040500Z 03003MPS 2000 -DZ FEW005 SCT020 OVC030 13/13 Q1026 NOSIG
ZHHH,2003-10-04 06:00,ZHHH 040600Z 02003MPS 350V060 2100 BR FEW005 SCT020 OVC040 13/13 Q1025 NOSIG
ZHHH,2003-10-04 07:00,ZHHH 040700Z 02004MPS 6000 -DZ FEW005 SCT010 OVC040 14/14 Q1025 NOSIG
ZHHH,2003-10-04 08:00,ZHHH 040800Z 03003MPS 360V060 5000 BR FEW005 SCT010 OVC040 14/13 Q1025 NOSIG
ZHHH,2003-10-04 09:00,ZHHH 040900Z 03003MPS 1800 BR -RA FEW005 SCT010 OVC040 14/13 Q1025 NOSIG
ZHHH,2003-10-04 10:00,ZHHH 041000Z 04003MPS 000V060 1600 BR -RA FEW005 SCT010 OVC033 13/13 Q1025 NOSIG
ZHHH,2003-10-04 11:00,ZHHH 041100Z 01002MPS 1400 R04/1400N BR -DZ FEW005 SCT010 OVC033 13/13 Q1025 NOSIG
ZHHH,2003-10-04 12:00,ZHHH 041200Z 04003MPS 010V070 1400 R04/1400N BR -DZ FEW005 SCT010 OVC033 13/13 Q1025 NOSIG
ZHHH,2003-10-04 13:00,ZHHH 041300Z 03003MPS 1400 R04/P1500 BR -DZ FEW005 SCT010 OVC033 13/13 Q1026 NOSIG
ZHHH,2003-10-04 14:00,ZHHH 041400Z 02003MPS 1400 R04/P1500 BR -DZ FEW005 SCT010 OVC033 13/13 Q1026 NOSIG
ZHHH,2003-10-04 15:00,ZHHH 041500Z 01002MPS 1400 R04/P1500 BR -DZ FEW005 SCT010 OVC033 13/13 Q1025 NOSIG
ZHHH,2003-10-04 16:00,ZHHH 041600Z 36002MPS 1400 R04/P1500 BR -DZ SCT004 SCT008 OVC030 13/13 Q1025 NOSIG
ZHHH,2003-10-04 17:00,ZHHH 041700Z 02002MPS 1400 R04/1400N BR -DZ SCT004 SCT008 OVC030 13/13 Q1024 NOSIG
ZHHH,2003-10-04 18:00,ZHHH 041800Z 36001MPS 1200 R04/1300N BR -DZ SCT004 SCT008 OVC030 13/13 Q1024 NOSIG
ZHHH,2003-10-04 19:00,ZHHH 041900Z 34002MPS 1500 BR -DZ SCT004 SCT007 OVC030 13/13 Q1024 NOSIG
ZHHH,2003-10-04 20:00,ZHHH 042000Z 34002MPS 1500 R04/1500 BR SCT003 SCT005 OVC030 13/13 Q1023 NOSIG
ZHHH,2003-10-04 21:00,ZHHH 042100Z 34002MPS 1600 BR SCT003 SCT005 OVC030 13/13 Q1023 NOSIG
ZHHH,2003-10-04 23:00,ZHHH 042300Z 35002MPS 1800 BR FEW004 SCT007 OVC040 13/13 Q1024 NOSIG
ZHHH,2003-10-05 00:00,ZHHH 050000Z 35002MPS 1600 BR -DZ FEW004 SCT007 OVC040 13/13 Q1024 NOSIG
ZHHH,2003-10-05 01:00,ZHHH 050100Z 02002MPS 1800 -DZ BR FEW007 SCT009 OVC040 13/13 Q1024 NOSIG
ZHHH,2003-10-05 02:00,ZHHH 050200Z 03003MPS 1600 -DZ BR FEW007 SCT009 OVC040 13/13 Q1025 NOSIG
ZHHH,2003-10-05 03:00,ZHHH 050300Z 35002MPS 1600 -DZ BR FEW007 SCT009 OVC040 13/13 Q1025 NOSIG
ZHHH,2003-10-05 04:00,ZHHH 050400Z 02003MPS 3000 -DZ BR SCT007 SCT009 OVC040 13/13 Q1024 NOSIG
ZHHH,2003-10-05 05:00,ZHHH 050500Z 35002MPS 9999 SCT007 SCT009 OVC040 13/13 Q1024 NOSIG
ZHHH,2003-10-05 06:00,ZHHH 050600Z 36002MPS 9999 SCT007 SCT009 OVC040 13/13 Q1023 NOSIG
ZHHH,2003-10-05 07:00,ZHHH 050700Z 36002MPS 9999 SCT007 SCT009 OVC040 13/13 Q1022 NOSIG
ZHHH,2003-10-05 08:00,ZHHH 050800Z 35002MPS 9999 -DZ SCT007 SCT009 OVC040 13/13 Q1022 NOSIG
ZHHH,2003-10-05 09:00,ZHHH 050900Z 01002MPS 9999 -DZ SCT007 SCT009 OVC033 13/13 Q1022 NOSIG
ZHHH,2003-10-05 10:00,ZHHH 051000Z 34002MPS 9999 SCT009 OVC033 13/13 Q1023 NOSIG
ZHHH,2003-10-05 11:00,ZHHH 051100Z 33002MPS 5000 -RA BR SCT006 SCT009 OVC033 13/13 Q1023 NOSIG
ZHHH,2003-10-05 12:00,ZHHH 051200Z 33002MPS 2500 -RA BR SCT006 SCT009 OVC033 13/13 Q1023 NOSIG
ZHHH,2003-10-05 13:00,ZHHH 051300Z 33003MPS 2500 -RA BR SCT006 SCT009 OVC033 13/13 Q1024 NOSIG
ZHHH,2003-10-05 14:00,ZHHH 051400Z 33003MPS 300V360 2500 -RA BR SCT004 SCT008 OVC033 13/13 Q1024 NOSIG
ZHHH,2003-10-05 15:00,ZHHH 051500Z 33003MPS 3000 BR SCT004 OVC033 13/13 Q1024 NOSIG
ZHHH,2003-10-05 16:00,ZHHH 051600Z 33003MPS 300V360 2500 BR SCT004 OVC033 13/13 Q1023 NOSIG
ZHHH,2003-10-05 17:00,ZHHH 051700Z 34003MPS 310V010 3000 BR SCT005 OVC033 13/13 Q1023 NOSIG
ZHHH,2003-10-05 18:00,ZHHH 051800Z 33003MPS 2000 BR SCT005 OVC033 13/13 Q1023 NOSIG
ZHHH,2003-10-05 19:00,ZHHH 051900Z 34002MPS 3000 BR SCT005 OVC033 13/13 Q1022 NOSIG
ZHHH,2003-10-05 20:00,ZHHH 052000Z 34003MPS 2500 BR SCT005 OVC033 13/13 Q1022 NOSIG
ZHHH,2003-10-05 21:00,ZHHH 052100Z 35002MPS 2500 BR SCT010 OVC033 13/13 Q1022 NOSIG
ZHHH,2003-10-05 22:00,ZHHH 052200Z 00000MPS 2000 BR SCT010 OVC033 13/13 Q1022 NOSIG
ZHHH,2003-10-05 23:00,ZHHH 052300Z 32002MPS 2500 BR SCT010 OVC030 14/14 Q1022 NOSIG
ZHHH,2003-10-06 00:00,ZHHH 060000Z 34002MPS 2500 BR SCT010 OVC030 14/14 Q1023 NOSIG
ZHHH,2003-10-06 01:00,ZHHH 060100Z 33003MPS 300V360 3000 -RA BR SCT010 OVC030 14/14 Q1023 NOSIG
ZHHH,2003-10-06 02:00,ZHHH 060200Z 32002MPS 5000 BR SCT010 OVC030 15/15 Q1023 NOSIG
ZHHH,2003-10-06 03:00,ZHHH 060300Z 33003MPS 280V360 6000 SCT010 SCT015 OVC030 16/15 Q1023 NOSIG
ZHHH,2003-10-06 04:00,ZHHH 060400Z 31002MPS 9999 SCT021 OVC030 16/15 Q1022 NOSIG
ZHHH,2003-10-06 05:00,ZHHH 060500Z 34002MPS 9999 SCT026 OVC040 17/15 Q1021 NOSIG
ZHHH,2003-10-06 06:00,ZHHH 060600Z 04001MPS 9999 BKN020 OVC050 18/15 Q1020 NOSIG
ZHHH,2003-10-06 07:00,ZHHH 060700Z 32002MPS 9999 BKN032 OVC050 18/15 Q1020 NOSIG
ZHHH,2003-10-06 08:00,ZHHH 060800Z 04002MPS 9999 BKN027 OVC070 18/15 Q1019 NOSIG
ZHHH,2003-10-06 09:00,ZHHH 060900Z 34002MPS 9999 BKN027 OVC070 17/15 Q1020 NOSIG
ZHHH,2003-10-06 10:00,ZHHH 061000Z 04001MPS 9999 SCT020 OVC070 17/15 Q1020 NOSIG
ZHHH,2003-10-06 11:00,ZHHH 061100Z 07001MPS 9999 SCT020 OVC070 16/15 Q1020 NOSIG
ZHHH,2003-10-06 12:00,ZHHH 061200Z 03002MPS 9999 SCT020 OVC070 16/15 Q1021 NOSIG
ZHHH,2003-10-06 13:00,ZHHH 061300Z 03002MPS 9999 SCT020 OVC070 16/15 Q1021 NOSIG
ZHHH,2003-10-06 14:00,ZHHH 061400Z 05001MPS 9999 SCT020 OVC070 16/15 Q1021 NOSIG
ZHHH,2003-10-06 15:00,ZHHH 061500Z 04001MPS 6000 SCT020 OVC070 16/15 Q1021 NOSIG
ZHHH,2003-10-06 16:00,ZHHH 061600Z 00000MPS 6000 SCT020 OVC070 16/15 Q1021 NOSIG
ZHHH,2003-10-06 17:00,ZHHH 061700Z 36001MPS 6000 SCT020 OVC070 16/15 Q1020 NOSIG
ZHHH,2003-10-06 18:00,ZHHH 061800Z 31001MPS 6000 SCT020 OVC070 16/15 Q1020 NOSIG
ZHHH,2003-10-06 19:00,ZHHH 061900Z 00000MPS 5000 BR FEW016 OVC080 16/15 Q1020 NOSIG
ZHHH,2003-10-06 21:00,ZHHH 062100Z 00000MPS 3000 BR FEW018 OVC080 15/15 Q1019 NOSIG
ZHHH,2003-10-06 22:00,ZHHH 062200Z 00000MPS 3000 BR NSC 15/15 Q1019 NOSIG
ZHHH,2003-10-06 23:00,ZHHH 062300Z 00000MPS 2500 BR BKN020 OVC050 15/15 Q1019 NOSIG
ZHHH,2003-10-07 00:00,ZHHH 070000Z 00000MPS 2000 BR SCT006 OVC050 16/16 Q1019 NOSIG
ZHHH,2003-10-07 01:00,ZHHH 070100Z 00000MPS 1800 BR SCT006 OVC050 17/16 Q1019 NOSIG
ZHHH,2003-10-07 02:00,ZHHH 070200Z 24001MPS 3000 BR FEW009 OVC060 17/16 Q1019 NOSIG
ZHHH,2003-10-07 03:00,ZHHH 070300Z 29001MPS 4000 BR FEW012 OVC060 19/16 Q1019 NOSIG
ZHHH,2003-10-07 04:00,ZHHH 070400Z 25002MPS 9999 SCT008 BKN060 19/15 Q1018 NOSIG
ZHHH,2003-10-07 05:00,ZHHH 070500Z 27002MPS 9999 SCT010 BKN100 20/16 Q1017 NOSIG
ZHHH,2003-10-07 06:00,ZHHH 070600Z 26002MPS 9999 SCT020 BKN120 21/16 Q1017 NOSIG
ZHHH,2003-10-07 07:00,ZHHH 070700Z 17002MPS 9999 SCT020 OVC120 20/16 Q1016 NOSIG
ZHHH,2003-10-07 08:00,ZHHH 070800Z 18001MPS 5000 BR FEW012 SCT050 OVC100 20/15 Q1016 NOSIG
ZHHH,2003-10-07 09:00,ZHHH 070900Z 14002MPS 1800 BR NSC 20/16 Q1016 NOSIG
ZHHH,2003-10-07 10:00,ZHHH 071000Z 14002MPS 1600 BR NSC 19/16 Q1015 NOSIG
ZHHH,2003-10-07 11:00,ZHHH 071100Z 12001MPS 1200 R04/1200N BR BKN030 OVC060 18/16 Q1015 NOSIG
ZHHH,2003-10-07 12:00,ZHHH 071200Z 14001MPS 1200 R04/1200N BR NSC 18/16 Q1016 NOSIG
ZHHH,2003-10-07 13:00,ZHHH 071300Z 00000MPS 1600 BR NSC 18/16 Q1017 NOSIG
ZHHH,2003-10-07 14:00,ZHHH 071400Z 00000MPS 1600 BR NSC 18/16 Q1017 NOSIG
ZHHH,2003-10-07 15:00,ZHHH 071500Z 00000MPS 1600 BR OVC040 18/17 Q1017 NOSIG
ZHHH,2003-10-07 16:00,ZHHH 071600Z 13001MPS 1800 BR BKN040 18/17 Q1016 NOSIG
ZHHH,2003-10-07 17:00,ZHHH 071700Z 00000MPS 1600 BR BKN040 17/17 Q1016 NOSIG
ZHHH,2003-10-07 18:00,ZHHH 071800Z 00000MPS 1800 BR NSC 17/16 Q1016 NOSIG
ZHHH,2003-10-07 19:00,ZHHH 071900Z 00000MPS 1800 BR NSC 17/16 Q1015 NOSIG
ZHHH,2003-10-07 20:00,ZHHH 072000Z 14001MPS 1600 BR NSC 17/16 Q1015 NOSIG
ZHHH,2003-10-07 21:00,ZHHH 072100Z 00000MPS 1600 BR NSC 17/16 Q1015 NOSIG
ZHHH,2003-10-07 22:00,ZHHH 072200Z 08002MPS 1600 BR NSC 17/16 Q1015 NOSIG
ZHHH,2003-10-07 23:00,ZHHH 072300Z 09002MPS 1000 R04/1000N BR NSC 17/16 Q1016 NOSIG
ZHHH,2003-10-08 00:00,ZHHH 080000Z 12002MPS 1100 R04/1100N BR NSC 17/17 Q1016 NOSIG
ZHHH,2003-10-08 01:00,ZHHH 080100Z 13002MPS 1600 BR OVC033 18/18 Q1016 NOSIG
ZHHH,2003-10-08 02:00,ZHHH 080200Z 14002MPS 2000 BR BKN033 20/18 Q1017 NOSIG
ZHHH,2003-10-08 03:00,ZHHH 080300Z 22002MPS 2500 BR BKN040 21/17 Q1016 NOSIG
ZHHH,2003-10-08 04:00,ZHHH 080400Z 23003MPS 170V290 9999 SCT010 BKN040 23/16 Q1015 NOSIG
ZHHH,2003-10-08 05:00,ZHHH 080500Z 18003MPS 130V240 9999 SCT010 SCT020 OVC040 23/15 Q1014 NOSIG
ZHHH,2003-10-08 06:00,ZHHH 080600Z 14003MPS 110V180 9999 SCT010 SCT020 BKN040 23/16 Q1013 NOSIG
ZHHH,2003-10-08 07:00,ZHHH 080700Z 15002MPS 9999 BKN020 SCT040 24/16 Q1013 NOSIG
ZHHH,2003-10-08 08:00,ZHHH 080800Z 13003MPS 9999 SCT023 SCT050 23/16 Q1012 NOSIG
ZHHH,2003-10-08 09:00,ZHHH 080900Z 15003MPS 9999 FEW023 SCT050 23/17 Q1012 NOSIG
ZHHH,2003-10-08 10:00,ZHHH 081000Z 07002MPS 6000 SKC 22/17 Q1012 NOSIG
ZHHH,2003-10-08 11:00,ZHHH 081100Z 06002MPS 6000 SKC 21/17 Q1012 NOSIG
ZHHH,2003-10-08 12:00,ZHHH 081200Z 05002MPS 6000 BKN030 21/18 Q1013 NOSIG
ZHHH,2003-10-08 13:00,ZHHH 081300Z 06002MPS 4000 BR BKN030 OVC100 21/18 Q1014 NOSIG
ZHHH,2003-10-08 14:00,ZHHH 081400Z 09002MPS 3000 BR BKN030 OVC100 21/18 Q1014 NOSIG
ZHHH,2003-10-08 15:00,ZHHH 081500Z 00000MPS 2500 BR BKN030 OVC100 21/19 Q1014 NOSIG
ZHHH,2003-10-08 16:00,ZHHH 081600Z 08002MPS 2500 BR NSC 20/18 Q1013 NOSIG
ZHHH,2003-10-08 17:00,ZHHH 081700Z 10002MPS 2500 BR NSC 19/18 Q1013 NOSIG
ZHHH,2003-10-08 18:00,ZHHH 081800Z 07003MPS 2500 BR NSC 19/18 Q1013 NOSIG
ZHHH,2003-10-08 19:00,ZHHH 081900Z 08002MPS 1600 BR NSC 19/18 Q1014 NOSIG
ZHHH,2003-10-08 20:00,ZHHH 082000Z 08002MPS 1600 BR NSC 19/18 Q1014 NOSIG
ZHHH,2003-10-08 21:00,ZHHH 082100Z 09002MPS 1700 BR NSC 19/18 Q1014 NOSIG
ZHHH,2003-10-08 22:00,ZHHH 082200Z 09002MPS 1600 BR NSC 19/18 Q1014 NOSIG
ZHHH,2003-10-08 23:00,ZHHH 082300Z 08002MPS 2000 BR BKN026 BKN100 19/18 Q1015 NOSIG
ZHHH,2003-10-09 00:00,ZHHH 090000Z 09003MPS 2500 BR NSC 21/19 Q1015 NOSIG
ZHHH,2003-10-09 01:00,ZHHH 090100Z 12004MPS 4000 BR NSC 22/19 Q1015 NOSIG
ZHHH,2003-10-09 02:00,ZHHH 090200Z 13004MPS 4000 BR NSC 23/19 Q1015 NOSIG
ZHHH,2003-10-09 03:00,ZHHH 090300Z 16003MPS 120V190 5000 HZ FEW020 25/19 Q1015 NOSIG
ZHHH,2003-10-09 04:00,ZHHH 090400Z 15002MPS 5000 HZ SCT020 26/18 Q1014 NOSIG
ZHHH,2003-10-09 05:00,ZHHH 090500Z 17002MPS 6000 SCT020 28/17 Q1013 NOSIG
ZHHH,2003-10-09 06:00,ZHHH 090600Z 19002MPS 4000 HZ SCT020 FEW030TCU BKN100 27/17 Q1013 NOSIG
ZHHH,2003-10-09 07:00,ZHHH 090700Z 19002MPS 5000 HZ SCT020 28/18 Q1012 NOSIG
ZHHH,2003-10-09 08:00,ZHHH 090800Z 16002MPS 4000 HZ SCT020 27/17 Q1012 NOSIG
ZHHH,2003-10-09 09:00,ZHHH 090900Z 16002MPS CAVOK 26/17 Q1012 NOSIG
ZHHH,2003-10-09 10:00,ZHHH 091000Z 34001MPS 5000 HZ SKC 25/18 Q1012 NOSIG
ZHHH,2003-10-09 11:00,ZHHH 091100Z 05001MPS 5000 HZ SKC 24/18 Q1013 NOSIG
ZHHH,2003-10-09 12:00,ZHHH 091200Z 00000MPS 4000 HZ NSC 24/18 Q1013 NOSIG
ZHHH,2003-10-09 14:00,ZHHH 091400Z 02002MPS 3000 BR NSC 23/19 Q1014 NOSIG
ZHHH,2003-10-09 15:00,ZHHH 091500Z 05002MPS 3000 BR NSC 22/18 Q1013
ZHHH,2003-10-09 16:00,ZHHH 091600Z 06003MPS 4000 BR NSC 22/19 Q1013
ZHHH,2003-10-09 18:00,ZHHH 091800Z 06002MPS 4000 BR NSC 20/18 Q1013
ZHHH,2003-10-09 19:00,ZHHH 091900Z 05001MPS 4000 BR NSC 20/18 Q1013
ZHHH,2003-10-09 20:00,ZHHH 092000Z 08002MPS 4000 BR NSC 20/18 Q1012
ZHHH,2003-10-09 21:00,ZHHH 092100Z 09003MPS 4000 BR NSC 20/18 Q1012
ZHHH,2003-10-09 22:00,ZHHH 092200Z 09002MPS 4000 BR NSC 20/18 Q1012
ZHHH,2003-10-09 23:00,ZHHH 092300Z 08003MPS 2500 BR NSC 19/18 Q1012
ZHHH,2003-10-10 00:00,ZHHH 100000Z 09003MPS 2500 BR SKC 21/19 Q1012
ZHHH,2003-10-10 01:00,ZHHH 100100Z 11005MPS 3000 BR SKC 23/20 Q1012
ZHHH,2003-10-10 02:00,ZHHH 100200Z 13005MPS 4000 BR SKC 25/21 Q1012
ZHHH,2003-10-10 03:00,ZHHH 100300Z 13006MPS 6000 NSC 27/21 Q1011
ZHHH,2003-10-10 04:00,ZHHH 100400Z 14005MPS 4000 HZ NSC 27/22 Q1010
ZHHH,2003-10-10 05:00,ZHHH 100500Z 13005MPS 110V170 4000 HZ NSC 28/22 Q1009
ZHHH,2003-10-10 06:00,ZHHH 100600Z 14004MPS 3000 HZ NSC 28/22 Q1008
ZHHH,2003-10-10 07:00,ZHHH 100700Z 12002MPS 4000 HZ NSC 28/22 Q1007
ZHHH,2003-10-10 08:00,ZHHH 100800Z 00000MPS 3000 -RA BR FEW020 OVC110 27/23 Q1007
ZHHH,2003-10-10 09:00,ZHHH 100900Z 07002MPS 1600 -RA BR SCT020 OVC090 25/23 Q1007
ZHHH,2003-10-10 10:00,ZHHH 101000Z 10004MPS 1200 R04/P1500 -RA BR SCT022 OVC050 24/23 Q1007
ZHHH,2003-10-10 11:00,ZHHH 101100Z 10004MPS 1300 R04/P1500 -RA BR FEW020 OVC050 23/23 Q1007
ZHHH,2003-10-10 12:00,ZHHH 101200Z 12005MPS 1600 RA NSC 23/23 Q1008
ZHHH,2003-10-10 13:00,ZHHH 101300Z 12004MPS 1500 R04/1000N RA FEW005 OVC050 23/23 Q1008
ZHHH,2003-10-10 14:00,ZHHH 101400Z 13006MPS 1500 -RA FEW005 OVC050 23/23 Q1008 RERA
ZHHH,2003-10-10 15:00,ZHHH 101500Z 13006MPS 1600 BR NSC 23/23 Q1007
ZHHH,2003-10-10 16:00,ZHHH 101600Z 13006MPS 2000 BR NSC 23/23 Q1006
ZHHH,2003-10-10 17:00,ZHHH 101700Z 14005MPS 2500 BR NSC 23/23 Q1006
ZHHH,2003-10-10 18:00,ZHHH 101800Z 14004MPS 4000 BR NSC 24/22 Q1005
ZHHH,2003-10-10 19:00,ZHHH 101900Z 14005MPS 5000 BR NSC 23/23 Q1005
ZHHH,2003-10-10 20:00,ZHHH 102000Z 16003MPS 1800 BR NSC 23/23 Q1006
ZHHH,2003-10-10 21:00,ZHHH 102100Z 12003MPS 1600 BR -RA NSC 23/22 Q1005
ZHHH,2003-10-10 22:00,ZHHH 102200Z 13003MPS 1600 BR NSC 23/22 Q1005
ZHHH,2003-10-10 23:00,ZHHH 102300Z 12004MPS 1200 R04/1200N BR SCT012 SCT020 OVC050 22/22 Q1005
ZHHH,2003-10-11 00:00,ZHHH 110000Z 12004MPS 2000 BR -RA SCT020 OVC050 23/23 Q1006
ZHHH,2003-10-11 01:00,ZHHH 110100Z 10003MPS 1400 R04/P1500 BR -RA SCT015 OVC050 23/22 Q1006
ZHHH,2003-10-11 02:00,ZHHH 110200Z 13003MPS 1800 BR BKN025 OVC060 23/23 Q1007
ZHHH,2003-10-11 03:00,ZHHH 110300Z 13003MPS 1100 R04/1100N -RA BR BKN020 OVC050 23/23 Q1006
ZHHH,2003-10-11 04:00,ZHHH 110400Z 12003MPS 1100 R04/1200 BR BKN033 OVC050 23/23 Q1006
ZHHH,2003-10-11 05:00,ZHHH 110500Z 11002MPS 1100 R04/1300 -RA BR SCT020 OVC050 23/23 Q1005
ZHHH,2003-10-11 06:00,ZHHH 110600Z 10002MPS 1000 R04/1000 -RA BR SCT020 OVC050 23/23 Q1005
ZHHH,2003-10-11 07:00,ZHHH 110700Z 06005MPS 1000 R04/1000N -RA BR SCT020 OVC050 23/23 Q1005
ZHHH,2003-10-11 08:00,ZHHH 110800Z 05008MPS 2500 -RA BR FEW005 SCT020 OVC050 17/17 Q1006
ZHHH,2003-10-11 09:00,ZHHH 110900Z 05009MPS 9999 -RA FEW005 SCT020 OVC050 16/16 Q1007
ZHHH,2003-10-11 10:00,ZHHH 111000Z 04007MPS 000V060 5000 -RA FEW005 SCT020 OVC040 15/15 Q1008
ZHHH,2003-10-11 11:00,ZHHH 111100Z 02006MPS 350V060 4000 -RA SCT004 BKN020 OVC040 15/15 Q1008
ZHHH,2003-10-11 12:00,ZHHH 111200Z 03006MPS 4000 -RA SCT005 BKN020 OVC040 14/14 Q1009
ZHHH,2003-10-11 13:00,ZHHH 111300Z 02005MPS 350V050 4000 -RA SCT005 BKN020 OVC040 14/13 Q1010
ZHHH,2003-10-11 14:00,ZHHH 111400Z 04006MPS 9999 -RA SCT005 BKN020 OVC040 13/13 Q1010
ZHHH,2003-10-11 15:00,ZHHH 111500Z 03007MPS 000V060 9999 -RA SCT005 BKN020 OVC040 13/12 Q1010
ZHHH,2003-10-11 16:00,ZHHH 111600Z 03006MPS 350V060 6000 -RA SCT005 OVC030 12/12 Q1011
ZHHH,2003-10-11 17:00,ZHHH 111700Z 03006MPS 360V060 9999 -RA SCT005 OVC030 12/12 Q1011
ZHHH,2003-10-11 18:00,ZHHH 111800Z 03007MPS 000V060 9999 SCT010 OVC040 11/11 Q1012
ZHHH,2003-10-11 19:00,ZHHH 111900Z 02005MPS 9999 SCT010 OVC040 12/11 Q1012
ZHHH,2003-10-11 20:00,ZHHH 112000Z 02006MPS 350V060 9999 -RA SCT010 OVC040 11/10 Q1013
ZHHH,2003-10-11 21:00,ZHHH 112100Z 03007MPS 360V060 9999 SCT010 OVC040 11/09 Q1014
ZHHH,2003-10-11 22:00,ZHHH 112200Z 02005MPS 350V060 9999 BKN033 BKN120 11/09 Q1015
ZHHH,2003-10-11 23:00,ZHHH 112300Z 02006MPS CAVOK 11/09 Q1016
ZHHH,2003-10-12 00:00,ZHHH 120000Z 03006MPS 360V060 CAVOK 11/09 Q1017
ZHHH,2003-10-12 01:00,ZHHH 120100Z 02005MPS 9999 SCT020 OVC100 11/10 Q1018
ZHHH,2003-10-12 02:00,ZHHH 120200Z 03006MPS 360V070 9999 SCT020 SCT050 OVC100 12/10 Q1018
ZHHH,2003-10-12 03:00,ZHHH 120300Z 04006MPS 9999 SCT020 OVC050 12/10 Q1018
ZHHH,2003-10-12 04:00,ZHHH 120400Z 03006MPS 9999 BKN020 OVC040 12/09 Q1018
ZHHH,2003-10-12 05:00,ZHHH 120500Z 03006MPS 000V060 9999 BKN020 OVC040 11/09 Q1018
ZHHH,2003-10-12 06:00,ZHHH 120600Z 04006MPS 9999 BKN020 OVC040 11/09 Q1018
ZHHH,2003-10-12 07:00,ZHHH 120700Z 03005MPS 360V060 9999 BKN020 OVC040 11/09 Q1018
ZHHH,2003-10-12 08:00,ZHHH 120800Z 03007MPS 9999 BKN020 OVC040 11/09 Q1018
ZHHH,2003-10-12 09:00,ZHHH 120900Z 03007MPS 000V060 9999 -RA BKN020 OVC040 11/08 Q1019
ZHHH,2003-10-12 10:00,ZHHH 121000Z 03007MPS 9999 -RA BKN020 OVC040 10/08 Q1020
ZHHH,2003-10-12 11:00,ZHHH 121100Z 02007MPS 350V050 9999 -RA BKN020 OVC040 10/08 Q1020
ZHHH,2003-10-12 12:00,ZHHH 121200Z AUTO 02008KT 6SM 10/07 A3015 RMK SLP215 T01030074 52017 IEM_DS3505
ZHHH,2003-10-12 13:00,ZHHH 121300Z 02007MPS 350V050 9999 -RA BKN016 OVC040 09/08 Q1022
ZHHH,2003-10-12 14:00,ZHHH 121400Z 02007MPS 9999 -RA BKN016 OVC040 09/07 Q1022
ZHHH,2003-10-12 15:00,ZHHH 121500Z 02006MPS 9999 -RA BKN016 OVC040 09/08 Q1023
ZHHH,2003-10-12 16:00,ZHHH 121600Z 02006MPS 9999 -RA BKN016 OVC040 09/08 Q1023
ZHHH,2003-10-12 17:00,ZHHH 121700Z 01005MPS 9999 -RA BKN016 OVC040 09/08 Q1024
ZHHH,2003-10-12 18:00,ZHHH 121800Z 02006MPS 350V050 9999 -RA BKN016 OVC040 09/08 Q1024
ZHHH,2003-10-12 19:00,ZHHH 121900Z AUTO 01006MPS //// // ////// 09/08 Q1024
ZHHH,2003-10-12 20:00,ZHHH 122000Z 02006MPS 350V060 9999 BKN016 OVC040 09/07 Q1024
ZHHH,2003-10-12 21:00,ZHHH 122100Z AUTO 02006G11MPS 2900 // ////// 09/07 Q1025
ZHHH,2003-10-12 22:00,ZHHH 122200Z 03007MPS 9999 BKN020 OVC040 09/07 Q1025
ZHHH,2003-10-12 23:00,ZHHH 122300Z 03005MPS 9999 SCT020 OVC050 09/07 Q1026
ZHHH,2003-10-13 00:00,ZHHH 130000Z 02006MPS 9999 -RA SCT020 OVC050 09/07 Q1027
ZHHH,2003-10-13 01:00,ZHHH 130100Z 02006MPS 350V050 9999 SCT020 OVC050 10/07 Q1027
ZHHH,2003-10-13 02:00,ZHHH 130200Z 03005MPS 360V060 9999 SCT020 OVC060 10/08 Q1027
ZHHH,2003-10-13 03:00,ZHHH 130300Z 01005MPS 340V040 9999 SCT020 OVC060 10/07 Q1027
ZHHH,2003-10-13 04:00,ZHHH 130400Z 01004MPS 330V040 9999 -RA SCT020 OVC060 10/08 Q1027
ZHHH,2003-10-13 05:00,ZHHH 130500Z 01005MPS 330V040 9999 SCT023 SCT060 OVC110 12/08 Q1026
ZHHH,2003-10-13 06:00,ZHHH 130600Z 02005MPS 350V050 9999 SCT023 SCT060 OVC110 12/07 Q1026
ZHHH,2003-10-13 07:00,ZHHH 130700Z 03004MPS 350V060 CAVOK 13/08 Q1025
ZHHH,2003-10-13 08:00,ZHHH 130800Z 03004MPS 350V070 CAVOK 14/08 Q1025
ZHHH,2003-10-13 09:00,ZHHH 130900Z 04004MPS 000V070 CAVOK 14/08 Q1025
ZHHH,2003-10-13 10:00,ZHHH 131000Z 04004MPS CAVOK 13/07 Q1026
ZHHH,2003-10-13 11:00,ZHHH 131100Z 05003MPS CAVOK 13/08 Q1026
ZHHH,2003-10-13 12:00,ZHHH 131200Z 06001MPS CAVOK 12/08 Q1026 NOSIG
ZHHH,2003-10-13 13:00,ZHHH 131300Z 36001MPS CAVOK 13/08 Q1027 NOSIG
ZHHH,2003-10-13 14:00,ZHHH 131400Z 04001MPS CAVOK 13/08 Q1027 NOSIG
ZHHH,2003-10-13 15:00,ZHHH 131500Z 31002MPS CAVOK 12/09 Q1027 NOSIG
ZHHH,2003-10-13 16:00,ZHHH 131600Z 33002MPS CAVOK 12/09 Q1027 NOSIG
ZHHH,2003-10-13 17:00,ZHHH 131700Z 36003MPS CAVOK 12/08 Q1027 NOSIG
ZHHH,2003-10-13 18:00,ZHHH 131800Z 36002MPS CAVOK 12/08 Q1027 NOSIG
ZHHH,2003-10-13 19:00,ZHHH 131900Z 34003MPS 310V010 CAVOK 12/08 Q1027 NOSIG
ZHHH,2003-10-13 20:00,ZHHH 132000Z 33003MPS CAVOK 12/08 Q1027 NOSIG
ZHHH,2003-10-13 21:00,ZHHH 132100Z 29002MPS CAVOK 11/08 Q1027 NOSIG
ZHHH,2003-10-13 23:00,ZHHH 132300Z 00000MPS CAVOK 11/08 Q1027 NOSIG
ZHHH,2003-10-14 00:00,ZHHH 140000Z 35002MPS CAVOK 12/08 Q1028 NOSIG
ZHHH,2003-10-14 01:00,ZHHH 140100Z 34004MPS CAVOK 14/07 Q1029 NOSIG
ZHHH,2003-10-14 02:00,ZHHH 140200Z 35005MPS CAVOK 15/07 Q1029 NOSIG
ZHHH,2003-10-14 03:00,ZHHH 140300Z 34004MPS 290V010 2900 -RA BKN016 OVC040 17/07 Q1029 NOSIG
ZHHH,2003-10-14 04:00,ZHHH 140400Z VRB03MPS CAVOK 18/08 Q1028 NOSIG
ZHHH,2003-10-14 05:00,ZHHH 140500Z 02006MPS 350V060 2700 -RA BKN016 OVC040 19/09 Q1027 NOSIG
ZHHH,2003-10-14 06:00,ZHHH 140600Z 04005MPS 360V070 2600 -RA BKN016 OVC040 20/09 Q1026 NOSIG
ZHHH,2003-10-14 07:00,ZHHH 140700Z 03004MPS 350V060 CAVOK 20/10 Q1026 NOSIG
ZHHH,2003-10-14 08:00,ZHHH 140800Z 03006MPS CAVOK 20/10 Q1025 NOSIG
ZHHH,2003-10-14 09:00,ZHHH 140900Z 03004MPS 000V060 CAVOK 19/09 Q1026 NOSIG
ZHHH,2003-10-14 10:00,ZHHH 141000Z 03004MPS CAVOK 17/08 Q1027 NOSIG
ZHHH,2003-10-14 11:00,ZHHH 141100Z 03003MPS CAVOK 16/07 Q1027 NOSIG
ZHHH,2003-10-14 12:00,ZHHH 141200Z 02003MPS CAVOK 14/07 Q1028 NOSIG
ZHHH,2003-10-14 13:00,ZHHH 141300Z 02003MPS CAVOK 14/06 Q1028 NOSIG
ZHHH,2003-10-14 14:00,ZHHH 141400Z 02002MPS CAVOK 13/06 Q1028 NOSIG
ZHHH,2003-10-14 15:00,ZHHH 141500Z 01003MPS CAVOK 12/06 Q1028 NOSIG
ZHHH,2003-10-14 16:00,ZHHH 141600Z 36002MPS CAVOK 11/07 Q1028 NOSIG
ZHHH,2003-10-14 17:00,ZHHH 141700Z 02002MPS CAVOK 12/06 Q1028 NOSIG
ZHHH,2003-10-14 18:00,ZHHH 141800Z 03002MPS CAVOK 12/06 Q1027 NOSIG
ZHHH,2003-10-14 19:00,ZHHH 141900Z 01002MPS CAVOK 12/05 Q1027 NOSIG
ZHHH,2003-10-14 20:00,ZHHH 142000Z 03002MPS CAVOK 11/06 Q1027 NOSIG
ZHHH,2003-10-14 21:00,ZHHH 142100Z 05002MPS CAVOK 11/07 Q1027 NOSIG
ZHHH,2003-10-14 22:00,ZHHH 142200Z 04001MPS CAVOK 11/07 Q1027 NOSIG
ZHHH,2003-10-14 23:00,ZHHH 142300Z 00000MPS CAVOK 11/08 Q1027 NOSIG
ZHHH,2003-10-15 00:00,ZHHH 150000Z 31001MPS CAVOK 12/09 Q1028 NOSIG
ZHHH,2003-10-15 01:00,ZHHH 150100Z 00000MPS CAVOK 15/07 Q1028 NOSIG
ZHHH,2003-10-15 02:00,ZHHH 150200Z 08003MPS 030V120 CAVOK 17/06 Q1028 NOSIG
ZHHH,2003-10-15 03:00,ZHHH 150300Z 04004MPS 360V070 CAVOK 18/05 Q1028 NOSIG
ZHHH,2003-10-15 04:00,ZHHH 150400Z 01003MPS 320V080 CAVOK 19/05 Q1027 NOSIG
ZHHH,2003-10-15 05:00,ZHHH 150500Z 34003MPS 300V040 CAVOK 19/05 Q1025 NOSIG
ZHHH,2003-10-15 06:00,ZHHH 150600Z 28003MPS 250V350 CAVOK 19/07 Q1024 NOSIG
ZHHH,2003-10-15 07:00,ZHHH 150700Z 27003MPS CAVOK 18/07 Q1024 NOSIG
ZHHH,2003-10-15 08:00,ZHHH 150800Z 26003MPS CAVOK 19/08 Q1024 NOSIG
ZHHH,2003-10-15 09:00,ZHHH 150900Z 26003MPS CAVOK 18/08 Q1023 NOSIG
ZHHH,2003-10-15 10:00,ZHHH 151000Z 27002MPS CAVOK 17/10 Q1023 NOSIG
ZHHH,2003-10-15 11:00,ZHHH 151100Z 26002MPS CAVOK 16/09 Q1024 NOSIG
ZHHH,2003-10-15 12:00,ZHHH 151200Z 26002MPS CAVOK 16/09 Q1024 NOSIG
ZHHH,2003-10-15 13:00,ZHHH 151300Z 26002MPS CAVOK 15/09 Q1024 NOSIG
ZHHH,2003-10-15 14:00,ZHHH 151400Z 27002MPS CAVOK 14/08 Q1024 NOSIG
ZHHH,2003-10-15 15:00,ZHHH 151500Z 25001MPS CAVOK 14/07 Q1024 NOSIG
ZHHH,2003-10-15 16:00,ZHHH 151600Z 34001MPS CAVOK 14/09 Q1024 NOSIG
ZHHH,2003-10-15 17:00,ZHHH 151700Z 00000MPS CAVOK 14/09 Q1024 NOSIG
ZHHH,2003-10-15 18:00,ZHHH 151800Z 00000MPS CAVOK 14/10 Q1024 NOSIG
ZHHH,2003-10-15 19:00,ZHHH 151900Z 34001MPS CAVOK 14/09 Q1024 NOSIG
ZHHH,2003-10-15 20:00,ZHHH 152000Z 31001MPS 9999 FEW020 OVC100 14/09 Q1024 NOSIG
ZHHH,2003-10-15 21:00,ZHHH 152100Z 24001MPS CAVOK 14/10 Q1024 NOSIG
ZHHH,2003-10-15 22:00,ZHHH 152200Z 32001MPS CAVOK 14/10 Q1024 NOSIG
ZHHH,2003-10-15 23:00,ZHHH 152300Z 06001MPS 3000 BR SKC 12/10 Q1024 NOSIG
ZHHH,2003-10-16 00:00,ZHHH 160000Z 09001MPS 3000 BR SKC 14/10 Q1025 NOSIG
ZHHH,2003-10-16 01:00,ZHHH 160100Z 08002MPS 5000 HZ SKC 16/10 Q1025 NOSIG
ZHHH,2003-10-16 02:00,ZHHH 160200Z 05003MPS 010V080 5000 HZ SKC 18/11 Q1025 NOSIG
ZHHH,2003-10-16 03:00,ZHHH 160300Z 03004MPS 350V070 CAVOK 20/06 Q1025 NOSIG
ZHHH,2003-10-16 04:00,ZHHH 160400Z 09004MPS 060V120 CAVOK 21/05 Q1024 NOSIG
ZHHH,2003-10-16 05:00,ZHHH 160500Z 05003MPS CAVOK 22/04 Q1023 NOSIG
ZHHH,2003-10-16 06:00,ZHHH 160600Z 06002MPS CAVOK 23/06 Q1022 NOSIG
ZHHH,2003-10-16 07:00,ZHHH 160700Z 30001MPS CAVOK 23/07 Q1022 NOSIG
ZHHH,2003-10-16 08:00,ZHHH 160800Z 31002MPS CAVOK 22/06 Q1021 NOSIG
ZHHH,2003-10-16 09:00,ZHHH 160900Z 33002MPS CAVOK 22/07 Q1021 NOSIG
ZHHH,2003-10-16 10:00,ZHHH 161000Z 36001MPS CAVOK 20/09 Q1021 NOSIG
ZHHH,2003-10-16 11:00,ZHHH 161100Z 01002MPS CAVOK 19/07 Q1021 NOSIG
ZHHH,2003-10-16 12:00,ZHHH 161200Z 36002MPS CAVOK 17/09 Q1022 NOSIG
ZHHH,2003-10-16 13:00,ZHHH 161300Z 03003MPS CAVOK 16/09 Q1022 NOSIG
ZHHH,2003-10-16 14:00,ZHHH 161400Z 05002MPS CAVOK 16/06 Q1022 NOSIG
ZHHH,2003-10-16 15:00,ZHHH 161500Z 04002MPS CAVOK 15/06 Q1022 NOSIG
ZHHH,2003-10-16 16:00,ZHHH 161600Z 03003MPS CAVOK 15/07 Q1022 NOSIG
ZHHH,2003-10-16 17:00,ZHHH 161700Z 01002MPS CAVOK 13/07 Q1022 NOSIG
ZHHH,2003-10-16 18:00,ZHHH 161800Z 32004MPS CAVOK 12/09 Q1022 NOSIG
ZHHH,2003-10-16 19:00,ZHHH 161900Z 00000MPS CAVOK 12/11 Q1022 NOSIG
ZHHH,2003-10-16 20:00,ZHHH 162000Z 00000MPS CAVOK 12/10 Q1021 NOSIG
ZHHH,2003-10-16 21:00,ZHHH 162100Z 00000MPS CAVOK 11/10 Q1022 NOSIG
ZHHH,2003-10-16 22:00,ZHHH 162200Z 00000MPS 4000 BR SKC 11/09 Q1022 NOSIG
ZHHH,2003-10-16 23:00,ZHHH 162300Z 00000MPS 3000 BR NSC 11/10 Q1022 NOSIG
ZHHH,2003-10-17 00:00,ZHHH 170000Z 00000MPS 4000 BR NSC 12/10 Q1023 NOSIG
ZHHH,2003-10-17 01:00,ZHHH 170100Z 00000MPS 3500 BR NSC 15/11 Q1023 NOSIG
ZHHH,2003-10-17 02:00,ZHHH 170200Z 01002MPS 5000 HZ NSC 17/11 Q1023 NOSIG
ZHHH,2003-10-17 03:00,ZHHH 170300Z AUTO 36002KT 11SM 19/06 A3019 RMK SLP228 T01910055 57006 IEM_DS3505
ZHHH,2003-10-17 04:00,ZHHH 170400Z 32002MPS CAVOK 21/07 Q1022 NOSIG
ZHHH,2003-10-17 05:00,ZHHH 170500Z 28003MPS 210V330 CAVOK 21/08 Q1021 NOSIG
ZHHH,2003-10-17 06:00,ZHHH 170600Z 30001MPS CAVOK 22/08 Q1021 NOSIG
ZHHH,2003-10-17 07:00,ZHHH 170700Z 02003MPS 310V120 CAVOK 22/08 Q1020 NOSIG
ZHHH,2003-10-17 08:00,ZHHH 170800Z 04002MPS CAVOK 22/07 Q1020 NOSIG
ZHHH,2003-10-17 09:00,ZHHH 170900Z 05001MPS CAVOK 22/07 Q1020 NOSIG
ZHHH,2003-10-17 10:00,ZHHH 171000Z 17002MPS CAVOK 20/09 Q1020 NOSIG
ZHHH,2003-10-17 11:00,ZHHH 171100Z 00000MPS CAVOK 19/08 Q1021 NOSIG
ZHHH,2003-10-17 12:00,ZHHH 171200Z 00000MPS 6000 SKC 19/07 Q1021 NOSIG
ZHHH,2003-10-17 13:00,ZHHH 171300Z 07002MPS 5000 HZ NSC 17/11 Q1021 NOSIG
ZHHH,2003-10-17 14:00,ZHHH 171400Z 00000MPS 5000 HZ NSC 16/10 Q1022 NOSIG
ZHHH,2003-10-17 15:00,ZHHH 171500Z 03002MPS 6000 SKC 16/09 Q1022 NOSIG
ZHHH,2003-10-17 16:00,ZHHH 171600Z 03002MPS 7000 SKC 16/07 Q1022 NOSIG
ZHHH,2003-10-17 17:00,ZHHH 171700Z 04002MPS 7000 SKC 15/08 Q1023 NOSIG
ZHHH,2003-10-17 18:00,ZHHH 171800Z 08002MPS 6000 SKC 14/08 Q1023 NOSIG
ZHHH,2003-10-17 19:00,ZHHH 171900Z 07003MPS 6000 SKC 13/08 Q1022 NOSIG
ZHHH,2003-10-17 20:00,ZHHH 172000Z 08001MPS 5000 HZ SKC 12/09 Q1023 NOSIG
ZHHH,2003-10-17 21:00,ZHHH 172100Z 00000MPS 4000 BR SKC 12/09 Q1023 NOSIG
ZHHH,2003-10-17 22:00,ZHHH 172200Z 09002MPS 4000 BR SKC 12/09 Q1023 NOSIG
ZHHH,2003-10-17 23:00,ZHHH 172300Z 07002MPS 4000 BR NSC 12/09 Q1024 NOSIG
ZHHH,2003-10-18 00:00,ZHHH 180000Z 12001MPS 3000 BR NSC 13/10 Q1024 NOSIG
ZHHH,2003-10-18 01:00,ZHHH 180100Z 08002MPS 3500 BR NSC 15/11 Q1025 NOSIG
ZHHH,2003-10-18 02:00,ZHHH 180200Z 11003MPS 080V150 CAVOK 18/10 Q1025 NOSIG
ZHHH,2003-10-18 03:00,ZHHH 180300Z 08003MPS 030V110 CAVOK 20/09 Q1025 NOSIG
ZHHH,2003-10-18 04:00,ZHHH 180400Z 09004MPS 060V130 CAVOK 21/10 Q1024 NOSIG
ZHHH,2003-10-18 05:00,ZHHH 180500Z 08004MPS 030V120 CAVOK 22/08 Q1023 NOSIG
ZHHH,2003-10-18 06:00,ZHHH 180600Z 05004MPS 020V080 CAVOK 23/07 Q1022 NOSIG
ZHHH,2003-10-18 07:00,ZHHH 180700Z 04005MPS 360V070 CAVOK 23/08 Q1022 NOSIG
ZHHH,2003-10-18 08:00,ZHHH 180800Z 03005MPS CAVOK 22/07 Q1022 NOSIG
ZHHH,2003-10-18 09:00,ZHHH 180900Z 05004MPS CAVOK 21/08 Q1022 NOSIG
ZHHH,2003-10-18 10:00,ZHHH 181000Z 05003MPS CAVOK 19/09 Q1022 NOSIG
ZHHH,2003-10-18 11:00,ZHHH 181100Z 03004MPS CAVOK 18/09 Q1023 NOSIG
ZHHH,2003-10-18 12:00,ZHHH 181200Z 04003MPS CAVOK 17/10 Q1023 NOSIG
ZHHH,2003-10-18 13:00,ZHHH 181300Z 03003MPS CAVOK 17/09 Q1024 NOSIG
ZHHH,2003-10-18 14:00,ZHHH 181400Z 04003MPS 6000 NSC 16/10 Q1024 NOSIG
ZHHH,2003-10-18 15:00,ZHHH 181500Z 06003MPS 6000 SKC 16/10 Q1023 NOSIG
ZHHH,2003-10-18 16:00,ZHHH 181600Z 07003MPS 6000 SKC 15/10 Q1023 NOSIG
ZHHH,2003-10-18 17:00,ZHHH 181700Z 06004MPS 6000 NSC 15/09 Q1023 NOSIG
ZHHH,2003-10-18 18:00,ZHHH 181800Z 06004MPS 6000 NSC 14/09 Q1023 NOSIG
ZHHH,2003-10-18 19:00,ZHHH 181900Z 05003MPS 6000 NSC 14/09 Q1023 NOSIG
ZHHH,2003-10-18 20:00,ZHHH 182000Z 05004MPS 6000 NSC 14/09 Q1023 NOSIG
ZHHH,2003-10-18 21:00,ZHHH 182100Z 09002MPS 6000 NSC 13/09 Q1023 NOSIG
ZHHH,2003-10-18 22:00,ZHHH 182200Z 09002MPS 5000 HZ NSC 13/08 Q1023 NOSIG
ZHHH,2003-10-18 23:00,ZHHH 182300Z 09002MPS 5000 HZ NSC 13/08 Q1023 NOSIG
ZHHH,2003-10-19 00:00,ZHHH 190000Z 13002MPS 4000 HZ NSC 14/10 Q1024 NOSIG
ZHHH,2003-10-19 01:00,ZHHH 190100Z 10003MPS 070V130 3000 HZ NSC 16/09 Q1024 NOSIG
ZHHH,2003-10-19 02:00,ZHHH 190200Z 12003MPS 6000 NSC 18/06 Q1024 NOSIG
ZHHH,2003-10-19 03:00,ZHHH 190300Z 13002MPS 6000 NSC 20/07 Q1024 NOSIG
ZHHH,2003-10-19 04:00,ZHHH 190400Z 14002MPS CAVOK 21/07 Q1023 NOSIG
ZHHH,2003-10-19 05:00,ZHHH 190500Z 11003MPS 070V150 CAVOK 22/06 Q1022 NOSIG
ZHHH,2003-10-19 06:00,ZHHH 190600Z 14002MPS CAVOK 21/06 Q1021 NOSIG
ZHHH,2003-10-19 07:00,ZHHH 190700Z 12002MPS CAVOK 22/06 Q1020 NOSIG
ZHHH,2003-10-19 08:00,ZHHH 190800Z 05003MPS 010V070 CAVOK 22/06 Q1020 NOSIG
ZHHH,2003-10-19 09:00,ZHHH 190900Z 35002MPS CAVOK 21/07 Q1020 NOSIG
ZHHH,2003-10-19 10:00,ZHHH 191000Z 35002MPS 6000 NSC 20/08 Q1021 NOSIG
ZHHH,2003-10-19 11:00,ZHHH 191100Z 35003MPS 3000 HZ NSC 18/11 Q1021 NOSIG
ZHHH,2003-10-19 12:00,ZHHH 191200Z 34004MPS 3000 HZ NSC 18/11 Q1022 NOSIG
ZHHH,2003-10-19 13:00,ZHHH 191300Z 35003MPS 1800 HZ NSC 17/11 Q1023 NOSIG
ZHHH,2003-10-19 14:00,ZHHH 191400Z 34003MPS 300V040 1500 HZ NSC 17/12 Q1023 NOSIG
ZHHH,2003-10-19 15:00,ZHHH 191500Z 31002MPS 1200 R04/1200N BR NSC 16/13 Q1022 NOSIG
ZHHH,2003-10-19 16:00,ZHHH 191600Z 33003MPS 1000 R04/1000N BR NSC 16/13 Q1022 NOSIG
ZHHH,2003-10-19 17:00,ZHHH 191700Z 33002MPS 1000 R04/0900N BR NSC 16/13 Q1022 NOSIG
ZHHH,2003-10-19 18:00,ZHHH 191800Z 34001MPS 1000 R04/0900N BR NSC 15/13 Q1021 NOSIG
ZHHH,2003-10-19 19:00,ZHHH 191900Z 30003MPS 1400 R04/P1500 BR NSC 15/13 Q1021 NOSIG
ZHHH,2003-10-19 20:00,ZHHH 192000Z 33004MPS 300V360 1600 BR NSC 15/12 Q1020 NOSIG
ZHHH,2003-10-19 21:00,ZHHH 192100Z 34003MPS 310V020 1600 BR NSC 14/12 Q1020 NOSIG
ZHHH,2003-10-19 22:00,ZHHH 192200Z 33003MPS 290V350 1600 BR NSC 14/12 Q1021 NOSIG
ZHHH,2003-10-19 23:00,ZHHH 192300Z 31003MPS 1500 BR NSC 14/12 Q1021 NOSIG
ZHHH,2003-10-20 00:00,ZHHH 200000Z 31003MPS 1600 BR NSC 15/12 Q1022 NOSIG
ZHHH,2003-10-20 01:00,ZHHH 200100Z 33004MPS 290V000 2000 BR NSC 16/11 Q1022 NOSIG
ZHHH,2003-10-20 02:00,ZHHH 200200Z 32005MPS 290V350 4000 DU NSC 17/12 Q1022 NOSIG
ZHHH,2003-10-20 03:00,ZHHH 200300Z 33003MPS 280V020 5000 DU NSC 19/12 Q1021 NOSIG
ZHHH,2003-10-20 04:00,ZHHH 200400Z 28003MPS 250V340 CAVOK 20/12 Q1020 NOSIG
ZHHH,2003-10-20 05:00,ZHHH 200500Z 29004MPS 250V350 CAVOK 21/12 Q1019 NOSIG
ZHHH,2003-10-20 06:00,ZHHH 200600Z 30004MPS 250V000 CAVOK 22/12 Q1018 NOSIG
ZHHH,2003-10-20 07:00,ZHHH 200700Z 28002MPS CAVOK 22/12 Q1018 NOSIG
ZHHH,2003-10-20 08:00,ZHHH 200800Z 26003MPS 220V290 CAVOK 23/11 Q1017 NOSIG
ZHHH,2003-10-20 09:00,ZHHH 200900Z 26003MPS CAVOK 21/11 Q1017 NOSIG
ZHHH,2003-10-20 10:00,ZHHH 201000Z 25002MPS CAVOK 20/11 Q1017 NOSIG
ZHHH,2003-10-20 11:00,ZHHH 201100Z 26002MPS CAVOK 19/09 Q1017 NOSIG
ZHHH,2003-10-20 12:00,ZHHH 201200Z 26001MPS CAVOK 18/10 Q1018 NOSIG
ZHHH,2003-10-20 13:00,ZHHH 201300Z 00000MPS CAVOK 17/10 Q1018 NOSIG
ZHHH,2003-10-20 14:00,ZHHH 201400Z 26002MPS CAVOK 17/09 Q1018 NOSIG
ZHHH,2003-10-20 15:00,ZHHH 201500Z 00000MPS CAVOK 16/11 Q1018 NOSIG
ZHHH,2003-10-20 16:00,ZHHH 201600Z 24001MPS CAVOK 16/12 Q1018 NOSIG
ZHHH,2003-10-20 17:00,ZHHH 201700Z 26002MPS CAVOK 15/13 Q1018 NOSIG
ZHHH,2003-10-20 18:00,ZHHH 201800Z 29002MPS 4000 BR SKC 14/12 Q1018 NOSIG
ZHHH,2003-10-20 19:00,ZHHH 201900Z 00000MPS 3000 BR SKC 14/11 Q1018 NOSIG
ZHHH,2003-10-20 20:00,ZHHH 202000Z 00000MPS 3000 BR SKC 14/12 Q1018 NOSIG
ZHHH,2003-10-20 21:00,ZHHH 202100Z 00000MPS 2500 BR SKC 13/12 Q1018 NOSIG
ZHHH,2003-10-20 22:00,ZHHH 202200Z 00000MPS 2100 BR SKC 13/10 Q1019 NOSIG
ZHHH,2003-10-20 23:00,ZHHH 202300Z 00000MPS 2500 BR SKC 13/10 Q1019 NOSIG
ZHHH,2003-10-21 00:00,ZHHH 210000Z 00000MPS 2000 BR NSC 14/12 Q1020 NOSIG
ZHHH,2003-10-21 01:00,ZHHH 210100Z 15002MPS 2000 BR NSC 15/14 Q1020 NOSIG
ZHHH,2003-10-21 02:00,ZHHH 210200Z 14001MPS 4000 HZ NSC 19/11 Q1020 NOSIG
ZHHH,2003-10-21 03:00,ZHHH 210300Z 24002MPS 6000 NSC 20/10 Q1020 NOSIG
ZHHH,2003-10-21 04:00,ZHHH 210400Z 24003MPS 210V290 CAVOK 22/11 Q1020 NOSIG
ZHHH,2003-10-21 05:00,ZHHH 210500Z 23003MPS 170V260 CAVOK 23/10 Q1019 NOSIG
ZHHH,2003-10-21 06:00,ZHHH 210600Z 25003MPS 220V300 CAVOK 24/09 Q1018 NOSIG
ZHHH,2003-10-21 07:00,ZHHH 210700Z 30003MPS 260V360 CAVOK 25/09 Q1017 NOSIG
ZHHH,2003-10-21 08:00,ZHHH 210800Z 24002MPS CAVOK 25/08 Q1016 NOSIG
ZHHH,2003-10-21 09:00,ZHHH 210900Z 25002MPS CAVOK 24/09 Q1016 NOSIG
ZHHH,2003-10-21 10:00,ZHHH 211000Z 24002MPS CAVOK 22/09 Q1017 NOSIG
ZHHH,2003-10-21 11:00,ZHHH 211100Z 22002MPS CAVOK 21/10 Q1017 NOSIG
ZHHH,2003-10-21 12:00,ZHHH 211200Z 20001MPS CAVOK 21/10 Q1018 NOSIG
ZHHH,2003-10-21 13:00,ZHHH 211300Z 25002MPS CAVOK 20/11 Q1018 NOSIG
ZHHH,2003-10-21 14:00,ZHHH 211400Z 26001MPS CAVOK 19/13 Q1019 NOSIG
ZHHH,2003-10-21 15:00,ZHHH 211500Z 00000MPS CAVOK 18/11 Q1019 NOSIG
ZHHH,2003-10-21 16:00,ZHHH 211600Z 00000MPS CAVOK 17/13 Q1019 NOSIG
ZHHH,2003-10-21 17:00,ZHHH 211700Z 00000MPS CAVOK 17/13 Q1019 NOSIG
ZHHH,2003-10-21 18:00,ZHHH 211800Z 35002MPS CAVOK 17/12 Q1019 NOSIG
ZHHH,2003-10-21 19:00,ZHHH 211900Z 06002MPS CAVOK 17/11 Q1020 NOSIG
ZHHH,2003-10-21 20:00,ZHHH 212000Z 05002MPS CAVOK 17/11 Q1020 NOSIG
ZHHH,2003-10-21 21:00,ZHHH 212100Z 10001MPS CAVOK 15/12 Q1020 NOSIG
ZHHH,2003-10-21 22:00,ZHHH 212200Z 09002MPS CAVOK 15/12 Q1021 NOSIG
ZHHH,2003-10-21 23:00,ZHHH 212300Z 09002MPS 2500 BR NSC 14/12 Q1021 NOSIG
ZHHH,2003-10-22 00:00,ZHHH 220000Z 00000MPS 2000 BR NSC 15/13 Q1022 NOSIG
ZHHH,2003-10-22 01:00,ZHHH 220100Z 06003MPS 5000 BR NSC 17/13 Q1023 NOSIG
ZHHH,2003-10-22 02:00,ZHHH 220200Z 05005MPS 5000 HZ NSC 19/11 Q1023 NOSIG
ZHHH,2003-10-22 03:00,ZHHH 220300Z 05006MPS 5000 HZ NSC 19/09 Q1024 NOSIG
ZHHH,2003-10-22 04:00,ZHHH 220400Z 04005MPS 010V070 4000 HZ NSC 20/09 Q1023 NOSIG
ZHHH,2003-10-22 05:00,ZHHH 220500Z 04007MPS 010V070 CAVOK 21/08 Q1023 NOSIG
ZHHH,2003-10-22 06:00,ZHHH 220600Z 05006MPS CAVOK 22/08 Q1022 NOSIG
ZHHH,2003-10-22 07:00,ZHHH 220700Z 03006MPS CAVOK 22/07 Q1022 NOSIG
ZHHH,2003-10-22 08:00,ZHHH 220800Z 03005MPS CAVOK 21/07 Q1022 NOSIG
ZHHH,2003-10-22 09:00,ZHHH 220900Z 03005MPS 000V070 6000 NSC 20/07 Q1022 NOSIG
ZHHH,2003-10-22 10:00,ZHHH 221000Z 04004MPS 5000 HZ NSC 18/07 Q1022 NOSIG
ZHHH,2003-10-22 11:00,ZHHH 221100Z 05004MPS 6000 NSC 17/07 Q1023 NOSIG
ZHHH,2003-10-22 12:00,ZHHH 221200Z 03004MPS CAVOK 16/07 Q1024 NOSIG
ZHHH,2003-10-22 13:00,ZHHH 221300Z 02003MPS CAVOK 15/06 Q1024 NOSIG
ZHHH,2003-10-22 14:00,ZHHH 221400Z 03005MPS CAVOK 15/06 Q1024 NOSIG
ZHHH,2003-10-22 15:00,ZHHH 221500Z 04004MPS CAVOK 14/05 Q1024 NOSIG
ZHHH,2003-10-22 16:00,ZHHH 221600Z 03004MPS CAVOK 14/05 Q1024 NOSIG
ZHHH,2003-10-22 17:00,ZHHH 221700Z 04002MPS CAVOK 13/05 Q1024 NOSIG
ZHHH,2003-10-22 18:00,ZHHH 221800Z 04002MPS CAVOK 12/05 Q1025 NOSIG
ZHHH,2003-10-22 19:00,ZHHH 221900Z 05003MPS CAVOK 12/05 Q1025 NOSIG
ZHHH,2003-10-22 20:00,ZHHH 222000Z 08002MPS CAVOK 11/04 Q1025 NOSIG
ZHHH,2003-10-22 21:00,ZHHH 222100Z 15001MPS CAVOK 11/05 Q1025 NOSIG
ZHHH,2003-10-22 22:00,ZHHH 222200Z 05003MPS CAVOK 11/04 Q1025 NOSIG
ZHHH,2003-10-22 23:00,ZHHH 222300Z 06003MPS CAVOK 10/04 Q1026 NOSIG
ZHHH,2003-10-23 00:00,ZHHH 230000Z 05003MPS CAVOK 11/05 Q1026 NOSIG
ZHHH,2003-10-23 01:00,ZHHH 230100Z 06003MPS CAVOK 13/04 Q1026 NOSIG
ZHHH,2003-10-23 02:00,ZHHH 230200Z 09003MPS 060V120 CAVOK 16/03 Q1026 NOSIG
ZHHH,2003-10-23 03:00,ZHHH 230300Z 08002MPS CAVOK 17/05 Q1026 NOSIG
ZHHH,2003-10-23 04:00,ZHHH 230400Z 10002MPS CAVOK 18/06 Q1025 NOSIG
ZHHH,2003-10-23 05:00,ZHHH 230500Z 16002MPS CAVOK 20/06 Q1023 NOSIG
ZHHH,2003-10-23 06:00,ZHHH 230600Z 18001MPS CAVOK 21/06 Q1023 NOSIG
ZHHH,2003-10-23 07:00,ZHHH 230700Z 10001MPS CAVOK 20/06 Q1022 NOSIG
ZHHH,2003-10-23 08:00,ZHHH 230800Z 11003MPS CAVOK 24/02 Q1021 NOSIG
ZHHH,2003-10-23 09:00,ZHHH 230900Z 14001MPS CAVOK 19/03 Q1021 NOSIG
ZHHH,2003-10-23 10:00,ZHHH 231000Z 00000MPS CAVOK 19/03 Q1020 NOSIG
ZHHH,2003-10-23 11:00,ZHHH 231100Z 00000MPS CAVOK 18/06 Q1021 NOSIG
ZHHH,2003-10-23 12:00,ZHHH 231200Z 00000MPS CAVOK 16/06 Q1021 NOSIG
ZHHH,2003-10-23 13:00,ZHHH 231300Z 10002MPS CAVOK 16/06 Q1021 NOSIG
ZHHH,2003-10-23 14:00,ZHHH 231400Z 08001MPS CAVOK 16/07 Q1020 NOSIG
ZHHH,2003-10-23 15:00,ZHHH 231500Z 00000MPS CAVOK 16/08 Q1020 NOSIG
ZHHH,2003-10-23 16:00,ZHHH 231600Z 02002MPS CAVOK 15/09 Q1020 NOSIG
ZHHH,2003-10-23 17:00,ZHHH 231700Z 02003MPS CAVOK 15/08 Q1020 NOSIG
ZHHH,2003-10-23 18:00,ZHHH 231800Z 06002MPS CAVOK 15/07 Q1020 NOSIG
ZHHH,2003-10-23 19:00,ZHHH 231900Z 14002MPS CAVOK 14/08 Q1019 NOSIG
ZHHH,2003-10-23 20:00,ZHHH 232000Z 14002MPS CAVOK 14/09 Q1018 NOSIG
ZHHH,2003-10-23 21:00,ZHHH 232100Z 07001MPS 5000 BR NSC 15/11 Q1018 NOSIG
ZHHH,2003-10-23 22:00,ZHHH 232200Z 10002MPS 3000 BR NSC 13/10 Q1018 NOSIG
ZHHH,2003-10-23 23:00,ZHHH 232300Z 12002MPS 2500 BR SKC 13/11 Q1019 NOSIG
ZHHH,2003-10-24 00:00,ZHHH 240000Z 00000MPS 1600 BR SKC 14/12 Q1019 NOSIG
ZHHH,2003-10-24 01:00,ZHHH 240100Z 10002MPS 1800 BR NSC 16/13 Q1019 NOSIG
ZHHH,2003-10-24 02:00,ZHHH 240200Z 15002MPS 2000 HZ SKC 19/12 Q1019 NOSIG
ZHHH,2003-10-24 03:00,ZHHH 240300Z 23003MPS 200V270 2000 HZ SKC 21/11 Q1019 NOSIG
ZHHH,2003-10-24 04:00,ZHHH 240400Z 25003MPS 200V300 CAVOK 22/10 Q1018 NOSIG
ZHHH,2003-10-24 05:00,ZHHH 240500Z 25002MPS CAVOK 23/09 Q1017 NOSIG
ZHHH,2003-10-24 06:00,ZHHH 240600Z 28003MPS 240V340 CAVOK 24/08 Q1017 NOSIG
ZHHH,2003-10-24 07:00,ZHHH 240700Z 28003MPS 240V340 CAVOK 24/09 Q1016 NOSIG
ZHHH,2003-10-24 08:00,ZHHH 240800Z 33003MPS 290V010 CAVOK 24/10 Q1016 NOSIG
ZHHH,2003-10-24 09:00,ZHHH 240900Z 28001MPS CAVOK 23/10 Q1015 NOSIG
ZHHH,2003-10-24 10:00,ZHHH 241000Z 00000MPS 6000 SKC 22/10 Q1015 NOSIG
ZHHH,2003-10-24 11:00,ZHHH 241100Z 00000MPS 4000 DU SKC 20/10 Q1016 NOSIG
ZHHH,2003-10-24 12:00,ZHHH 241200Z 06001MPS 1600 DU SKC 19/10 Q1017 NOSIG
ZHHH,2003-10-24 13:00,ZHHH 241300Z 11001MPS 1600 DU SKC 20/10 Q1017 NOSIG
ZHHH,2003-10-24 14:00,ZHHH 241400Z 00000MPS 1700 DU SKC 17/11 Q1018 NOSIG
ZHHH,2003-10-24 15:00,ZHHH 241500Z 04002MPS 1600 DU SKC 17/11 Q1018 NOSIG
ZHHH,2003-10-24 16:00,ZHHH 241600Z 07002MPS 1600 DU SKC 17/11 Q1018 NOSIG
ZHHH,2003-10-24 17:00,ZHHH 241700Z 07002MPS 1800 BR SKC 16/11 Q1019 NOSIG
ZHHH,2003-10-24 18:00,ZHHH 241800Z 05002MPS 2000 BR SKC 16/11 Q1019 NOSIG
ZHHH,2003-10-24 19:00,ZHHH 241900Z 06002MPS 3000 BR SKC 15/11 Q1019 NOSIG
ZHHH,2003-10-24 20:00,ZHHH 242000Z 06002MPS 3000 BR SKC 15/12 Q1019 NOSIG
ZHHH,2003-10-24 21:00,ZHHH 242100Z 08001MPS 3000 BR SKC 14/11 Q1019 NOSIG
ZHHH,2003-10-24 22:00,ZHHH 242200Z 08002MPS 3000 BR SKC 14/11 Q1019 NOSIG
ZHHH,2003-10-24 23:00,ZHHH 242300Z 00000MPS 2500 BR SKC 14/11 Q1020 NOSIG
ZHHH,2003-10-25 00:00,ZHHH 250000Z 29001MPS 2000 BR NSC 15/12 Q1021 NOSIG
ZHHH,2003-10-25 01:00,ZHHH 250100Z 00000MPS 1800 BR NSC 17/14 Q1021 NOSIG
ZHHH,2003-10-25 02:00,ZHHH 250200Z 15002MPS 3000 HZ NSC 19/13 Q1021 NOSIG
ZHHH,2003-10-25 03:00,ZHHH 250300Z 06001MPS 2500 HZ NSC 20/14 Q1021 NOSIG
ZHHH,2003-10-25 04:00,ZHHH 250400Z 32001MPS 4000 HZ NSC 21/14 Q1020 NOSIG
ZHHH,2003-10-25 05:00,ZHHH 250500Z 05002MPS 4000 HZ NSC 23/14 Q1020 NOSIG
ZHHH,2003-10-25 06:00,ZHHH 250600Z 05002MPS 4000 HZ NSC 25/12 Q1018 NOSIG
ZHHH,2003-10-25 07:00,ZHHH 250700Z 17002MPS 4000 HZ NSC 25/13 Q1018 NOSIG
ZHHH,2003-10-25 08:00,ZHHH 250800Z 25003MPS 5000 HZ NSC 24/13 Q1018 NOSIG
ZHHH,2003-10-25 09:00,ZHHH 250900Z 26002MPS 5000 HZ NSC 23/13 Q1018 NOSIG
ZHHH,2003-10-25 10:00,ZHHH 251000Z 25001MPS 3000 HZ NSC 22/14 Q1018 NOSIG
ZHHH,2003-10-25 11:00,ZHHH 251100Z 30002MPS 3000 HZ NSC 21/14 Q1018 NOSIG
ZHHH,2003-10-25 12:00,ZHHH 251200Z 00000MPS 3000 HZ NSC 21/13 Q1019 NOSIG
ZHHH,2003-10-25 13:00,ZHHH 251300Z 00000MPS 3500 HZ SKC 20/14 Q1019 NOSIG
ZHHH,2003-10-25 14:00,ZHHH 251400Z 33001MPS 3000 BR SKC 19/15 Q1020 NOSIG
ZHHH,2003-10-25 15:00,ZHHH 251500Z 05002MPS 3000 BR SKC 18/12 Q1020 NOSIG
ZHHH,2003-10-25 16:00,ZHHH 251600Z 06002MPS 3000 HZ SKC 18/10 Q1019 NOSIG
ZHHH,2003-10-25 17:00,ZHHH 251700Z 27001MPS 3600 HZ SKC 17/11 Q1020 NOSIG
ZHHH,2003-10-25 18:00,ZHHH 251800Z 00000MPS CAVOK 16/12 Q1019 NOSIG
ZHHH,2003-10-25 19:00,ZHHH 251900Z 00000MPS CAVOK 16/10 Q1019 NOSIG
ZHHH,2003-10-25 20:00,ZHHH 252000Z 00000MPS CAVOK 16/10 Q1018 NOSIG
ZHHH,2003-10-25 21:00,ZHHH 252100Z 10001MPS CAVOK 16/11 Q1018 NOSIG
ZHHH,2003-10-25 22:00,ZHHH 252200Z 00000MPS CAVOK 15/11 Q1019 NOSIG
ZHHH,2003-10-25 23:00,ZHHH 252300Z 14001MPS 4000 BR NSC 14/12 Q1019 NOSIG
ZHHH,2003-10-26 00:00,ZHHH 260000Z 08002MPS 1600 BR NSC 14/12 Q1019 NOSIG
ZHHH,2003-10-26 01:00,ZHHH 260100Z 12002MPS 1200 R04/1200 BR NSC 16/14 Q1020 NOSIG
ZHHH,2003-10-26 02:00,ZHHH 260200Z 14002MPS 1400 R04/1400U BR NSC 20/16 Q1020 NOSIG
ZHHH,2003-10-26 03:00,ZHHH 260300Z 15001MPS 1500 HZ SKC 22/13 Q1019 NOSIG
ZHHH,2003-10-26 04:00,ZHHH 260400Z 19002MPS 1800 HZ NSC 24/12 Q1019 NOSIG
ZHHH,2003-10-26 05:00,ZHHH 260500Z 23003MPS 190V260 3000 HZ NSC 25/13 Q1018 NOSIG
ZHHH,2003-10-26 06:00,ZHHH 260600Z 22003MPS 170V260 6000 NSC 25/13 Q1017 NOSIG
ZHHH,2003-10-26 07:00,ZHHH 260700Z 19003MPS 160V220 7000 NSC 25/12 Q1016 NOSIG
ZHHH,2003-10-26 08:00,ZHHH 260800Z 20003MPS 7000 NSC 26/12 Q1016 NOSIG
ZHHH,2003-10-26 09:00,ZHHH 260900Z 20003MPS 5000 HZ NSC 24/13 Q1016 NOSIG
ZHHH,2003-10-26 10:00,ZHHH 261000Z 19001MPS 5000 HZ NSC 23/12 Q1015 NOSIG
ZHHH,2003-10-26 11:00,ZHHH 261100Z 17001MPS 3000 HZ SKC 22/10 Q1016 NOSIG
ZHHH,2003-10-26 12:00,ZHHH 261200Z AUTO 00000KT 9SM 19/13 A3000 RMK SLP164 T01870126 52006 IEM_DS3505
ZHHH,2003-10-26 13:00,ZHHH 261300Z AUTO 16002KT 1 1/4SM 21/10 A3003 RMK SLP172 T02100100 IEM_DS3505
ZHHH,2003-10-26 14:00,ZHHH 261400Z AUTO 17002KT 1 1/4SM 21/11 A3003 RMK SLP172 T02100110 IEM_DS3505
ZHHH,2003-10-26 15:00,ZHHH 261500Z AUTO 00000KT 9SM 18/13 A3003 RMK SLP171 T01800126 52007 IEM_DS3505
ZHHH,2003-10-26 16:00,ZHHH 261600Z 18001MPS 2000 HZ SKC 19/11 Q1017 NOSIG
ZHHH,2003-10-26 17:00,ZHHH 261700Z 16001MPS 2000 HZ SKC 19/12 Q1017 NOSIG
ZHHH,2003-10-26 18:00,ZHHH 261800Z 24002MPS 1600 HZ SKC 18/13 Q1017 NOSIG
ZHHH,2003-10-26 19:00,ZHHH 261900Z 13001MPS 2000 HZ SKC 17/13 Q1016 NOSIG
ZHHH,2003-10-26 20:00,ZHHH 262000Z 18001MPS 2000 BR SKC 17/13 Q1016 NOSIG
ZHHH,2003-10-26 21:00,ZHHH 262100Z 00000MPS 1500 BR SKC 17/14 Q1016 NOSIG
ZHHH,2003-10-26 22:00,ZHHH 262200Z 16002MPS 1500 BR SKC 17/14 Q1016 NOSIG
ZHHH,2003-10-26 23:00,ZHHH 262300Z 11001MPS 1100 R04/1000D BR SKC 16/14 Q1016 NOSIG
ZHHH,2003-10-27 00:00,ZHHH 270000Z 12001MPS 1100 R04/1000N BR SKC 17/15 Q1017 NOSIG
ZHHH,2003-10-27 01:00,ZHHH 270100Z 24003MPS 1500 R04/P1500 BR SKC 20/16 Q1018 NOSIG
ZHHH,2003-10-27 02:00,ZHHH 270200Z 25003MPS 210V280 1600 BR SKC 21/16 Q1018 NOSIG
ZHHH,2003-10-27 03:00,ZHHH 270300Z 25005MPS 1800 HZ SKC 24/15 Q1018 NOSIG
ZHHH,2003-10-27 04:00,ZHHH 270400Z 25006MPS 2500 HZ SKC 25/15 Q1018 NOSIG
ZHHH,2003-10-27 05:00,ZHHH 270500Z 26005MPS 6000 NSC 26/15 Q1017 NOSIG
ZHHH,2003-10-27 06:00,ZHHH 270600Z 27005MPS 250V310 CAVOK 27/15 Q1017 NOSIG
ZHHH,2003-10-27 07:00,ZHHH 270700Z 27005MPS CAVOK 27/16 Q1016 NOSIG
ZHHH,2003-10-27 08:00,ZHHH 270800Z 26003MPS 240V300 CAVOK 27/15 Q1016 NOSIG
ZHHH,2003-10-27 09:00,ZHHH 270900Z 25002MPS CAVOK 26/15 Q1016 NOSIG
ZHHH,2003-10-27 10:00,ZHHH 271000Z 25002MPS 2100 HZ NSC 24/16 Q1017 NOSIG
ZHHH,2003-10-27 11:00,ZHHH 271100Z 16001MPS 3000 HZ SKC 22/16 Q1018 NOSIG
ZHHH,2003-10-27 12:00,ZHHH 271200Z 00000MPS 2000 HZ SKC 22/16 Q1018 NOSIG
ZHHH,2003-10-27 13:00,ZHHH 271300Z 24002MPS 5000 HZ SKC 22/16 Q1019 NOSIG
ZHHH,2003-10-27 14:00,ZHHH 271400Z 25002MPS 7000 SKC 21/15 Q1020 NOSIG
ZHHH,2003-10-27 15:00,ZHHH 271500Z 24002MPS 5000 HZ SKC 20/16 Q1020 NOSIG
ZHHH,2003-10-27 16:00,ZHHH 271600Z 00000MPS 5000 HZ SKC 19/16 Q1020 NOSIG
ZHHH,2003-10-27 17:00,ZHHH 271700Z 00000MPS 5000 HZ SKC 18/15 Q1020 NOSIG
ZHHH,2003-10-27 18:00,ZHHH 271800Z 13003MPS 040V190 4000 HZ SKC 17/15 Q1021 NOSIG
ZHHH,2003-10-27 19:00,ZHHH 271900Z 00000MPS 1600 BR SKC 17/15 Q1021 NOSIG
ZHHH,2003-10-27 20:00,ZHHH 272000Z 00000MPS 1400 R04/1400N BR SKC 17/15 Q1021 NOSIG
ZHHH,2003-10-27 21:00,ZHHH 272100Z 04001MPS 1300 R04/1200N BR SKC 16/14 Q1021 NOSIG
ZHHH,2003-10-27 22:00,ZHHH 272200Z 09001MPS 1300 R04/1200N BR SKC 15/14 Q1022 NOSIG
ZHHH,2003-10-27 23:00,ZHHH 272300Z 00000MPS 1200 R04/1200N BR SKC 15/15 Q1022 NOSIG
ZHHH,2003-10-28 00:00,ZHHH 280000Z 10001MPS 1400 R04/1300N BR SKC 16/15 Q1023 NOSIG
ZHHH,2003-10-28 01:00,ZHHH 280100Z 11002MPS 1400 R04/1000N BR SKC 18/16 Q1024 NOSIG
ZHHH,2003-10-28 02:00,ZHHH 280200Z 13002MPS 1800 BR SKC 20/17 Q1024 NOSIG
ZHHH,2003-10-28 03:00,ZHHH 280300Z 10003MPS 070V150 2000 HZ SKC 23/18 Q1023 NOSIG
ZHHH,2003-10-28 04:00,ZHHH 280400Z 10002MPS 3500 HZ SKC 26/14 Q1023 NOSIG
ZHHH,2003-10-28 05:00,ZHHH 280500Z 14002MPS 6000 SKC 27/13 Q1022 NOSIG
ZHHH,2003-10-28 06:00,ZHHH 280600Z AUTO 07002KT 6SM 27/13 A3016 RMK SLP218 T02720129 57020 IEM_DS3505
ZHHH,2003-10-28 07:00,ZHHH 280700Z 16002MPS CAVOK 28/09 Q1021 NOSIG
ZHHH,2003-10-28 08:00,ZHHH 280800Z 15002MPS CAVOK 27/10 Q1021 NOSIG
ZHHH,2003-10-28 09:00,ZHHH 280900Z 14001MPS CAVOK 26/10 Q1021 NOSIG
ZHHH,2003-10-28 10:00,ZHHH 281000Z 00000MPS CAVOK 25/08 Q1021 NOSIG
ZHHH,2003-10-28 11:00,ZHHH 281100Z 00000MPS CAVOK 24/07 Q1021 NOSIG
ZHHH,2003-10-28 12:00,ZHHH 281200Z 00000MPS CAVOK 23/06 Q1022 NOSIG
ZHHH,2003-10-28 13:00,ZHHH 281300Z 00000MPS CAVOK 22/08 Q1022 NOSIG
ZHHH,2003-10-28 14:00,ZHHH 281400Z 02004MPS CAVOK 21/08 Q1022 NOSIG
ZHHH,2003-10-28 15:00,ZHHH 281500Z 04002MPS CAVOK 20/10 Q1022 NOSIG
ZHHH,2003-10-28 16:00,ZHHH 281600Z 08001MPS CAVOK 19/11 Q1022 NOSIG
ZHHH,2003-10-28 17:00,ZHHH 281700Z 06004MPS CAVOK 18/11 Q1022 NOSIG
ZHHH,2003-10-28 18:00,ZHHH 281800Z 07002MPS CAVOK 19/10 Q1022 NOSIG
ZHHH,2003-10-28 19:00,ZHHH 281900Z 09002MPS CAVOK 18/10 Q1022 NOSIG
ZHHH,2003-10-28 21:00,ZHHH 282100Z 08002MPS CAVOK 17/10 Q1022 NOSIG
ZHHH,2003-10-28 22:00,ZHHH 282200Z 20002MPS CAVOK 16/11 Q1023 NOSIG
ZHHH,2003-10-28 23:00,ZHHH 282300Z 11002MPS CAVOK 17/12 Q1023 NOSIG
ZHHH,2003-10-29 00:00,ZHHH 290000Z 12002MPS CAVOK 18/13 Q1023 NOSIG
ZHHH,2003-10-29 01:00,ZHHH 290100Z 08002MPS 4000 HZ NSC 19/13 Q1024 NOSIG
ZHHH,2003-10-29 02:00,ZHHH 290200Z 12002MPS 5000 HZ NSC 20/11 Q1024 NOSIG
ZHHH,2003-10-29 03:00,ZHHH 290300Z 09003MPS 5000 HZ NSC 21/11 Q1023 NOSIG
ZHHH,2003-10-29 04:00,ZHHH 290400Z 08002MPS 5000 HZ NSC 23/11 Q1022 NOSIG
ZHHH,2003-10-29 05:00,ZHHH 290500Z 14002MPS 5000 HZ NSC 23/13 Q1022 NOSIG
ZHHH,2003-10-29 06:00,ZHHH 290600Z 08001MPS 4000 HZ NSC 23/13 Q1020 NOSIG
ZHHH,2003-10-29 07:00,ZHHH 290700Z 12001MPS 4000 HZ NSC 23/13 Q1020 NOSIG
ZHHH,2003-10-29 08:00,ZHHH 290800Z 04002MPS 3000 HZ NSC 24/13 Q1020 NOSIG
ZHHH,2003-10-29 09:00,ZHHH 290900Z 35002MPS 3000 HZ NSC 23/14 Q1020 NOSIG
ZHHH,2003-10-29 10:00,ZHHH 291000Z 33002MPS 3000 HZ NSC 21/14 Q1020 NOSIG
ZHHH,2003-10-29 11:00,ZHHH 291100Z 36002MPS 3000 HZ NSC 21/11 Q1020 NOSIG
ZHHH,2003-10-29 12:00,ZHHH 291200Z 33003MPS 3000 HZ NSC 20/13 Q1021 NOSIG
ZHHH,2003-10-29 13:00,ZHHH 291300Z 31002MPS 3000 HZ NSC 20/14 Q1021 NOSIG
ZHHH,2003-10-29 14:00,ZHHH 291400Z 00000MPS 3000 HZ NSC 20/14 Q1021 NOSIG
ZHHH,2003-10-29 15:00,ZHHH 291500Z 01001MPS 3000 HZ NSC 19/15 Q1021 NOSIG
ZHHH,2003-10-29 16:00,ZHHH 291600Z 36003MPS 3000 HZ NSC 19/14 Q1020 NOSIG
ZHHH,2003-10-29 17:00,ZHHH 291700Z 00000MPS 2500 BR NSC 18/16 Q1020 NOSIG
ZHHH,2003-10-29 18:00,ZHHH 291800Z 10002MPS 2000 BR NSC 18/15 Q1020 NOSIG
ZHHH,2003-10-29 19:00,ZHHH 291900Z 03001MPS 2000 BR NSC 18/15 Q1019 NOSIG
ZHHH,2003-10-29 20:00,ZHHH 292000Z 04001MPS 1600 BR NSC 17/14 Q1018 NOSIG
ZHHH,2003-10-29 21:00,ZHHH 292100Z 18001MPS 1600 BR NSC 18/15 Q1019 NOSIG
ZHHH,2003-10-29 22:00,ZHHH 292200Z 25001MPS 1600 BR NSC 18/15 Q1019 NOSIG
ZHHH,2003-10-29 23:00,ZHHH 292300Z 28002MPS 1200 R04/1400N BR NSC 17/16 Q1019 NOSIG
ZHHH,2003-10-30 00:00,ZHHH 300000Z 28001MPS 1000 R04/1000N BR NSC 18/16 Q1019 NOSIG
ZHHH,2003-10-30 01:00,ZHHH 300100Z 31002MPS 1100 R04/1100U BR NSC 19/16 Q1019 NOSIG
ZHHH,2003-10-30 02:00,ZHHH 300200Z 34002MPS 1800 HZ NSC 21/16 Q1019 NOSIG
ZHHH,2003-10-30 03:00,ZHHH 300300Z 29003MPS 1800 HZ NSC 22/16 Q1019 NOSIG
ZHHH,2003-10-30 04:00,ZHHH 300400Z 28003MPS 240V330 2200 HZ NSC 23/15 Q1018 NOSIG
ZHHH,2003-10-30 05:00,ZHHH 300500Z 30003MPS 210V350 4000 HZ NSC 25/15 Q1017 NOSIG
ZHHH,2003-10-30 06:00,ZHHH 300600Z 32003MPS 280V020 4000 HZ NSC 26/13 Q1016 NOSIG
ZHHH,2003-10-30 07:00,ZHHH 300700Z 29003MPS 240V030 5000 HZ SKC 26/15 Q1016 NOSIG
ZHHH,2003-10-30 08:00,ZHHH 300800Z 30002MPS 6000 NSC 26/14 Q1015 NOSIG
ZHHH,2003-10-30 09:00,ZHHH 300900Z 31002MPS 7000 NSC 25/13 Q1015 NOSIG
ZHHH,2003-10-30 10:00,ZHHH 301000Z 30001MPS 8000 NSC 23/13 Q1016 NOSIG
ZHHH,2003-10-30 11:00,ZHHH 301100Z 30001MPS 8000 NSC 22/12 Q1016 NOSIG
ZHHH,2003-10-30 12:00,ZHHH 301200Z 00000MPS 8000 SKC 22/12 Q1016 NOSIG
ZHHH,2003-10-30 14:00,ZHHH 301400Z 31002MPS 7000 SKC 20/13 Q1017 NOSIG
ZHHH,2003-10-30 15:00,ZHHH 301500Z 33002MPS 6000 SKC 19/17 Q1017 NOSIG
ZHHH,2003-10-30 16:00,ZHHH 301600Z 33001MPS 5000 BR SKC 19/16 Q1016 NOSIG
ZHHH,2003-10-30 17:00,ZHHH 301700Z 08001MPS 5000 BR SKC 18/15 Q1016 NOSIG
ZHHH,2003-10-30 18:00,ZHHH 301800Z 07002MPS 5000 BR SKC 17/14 Q1016 NOSIG
ZHHH,2003-10-30 19:00,ZHHH 301900Z 06002MPS 1800 BR SKC 17/14 Q1015 NOSIG
ZHHH,2003-10-30 20:00,ZHHH 302000Z 00000MPS 1700 BR SKC 17/13 Q1015 NOSIG
ZHHH,2003-10-30 21:00,ZHHH 302100Z 06003MPS 1600 BR SKC 16/13 Q1015 NOSIG
ZHHH,2003-10-30 22:00,ZHHH 302200Z 13002MPS 1600 BR SKC 15/13 Q1015 NOSIG
ZHHH,2003-10-30 23:00,ZHHH 302300Z 06002MPS 1600 BR NSC 15/13 Q1016 NOSIG
ZHHH,2003-10-31 00:00,ZHHH 310000Z 07002MPS 1800 BR NSC 15/13 Q1016 NOSIG
ZHHH,2003-10-31 01:00,ZHHH 310100Z 11002MPS 1800 BR NSC 17/15 Q1017 NOSIG
ZHHH,2003-10-31 02:00,ZHHH 310200Z 00000MPS 1800 BR NSC 20/16 Q1017 NOSIG
ZHHH,2003-10-31 03:00,ZHHH 310300Z 26002MPS 2000 BR NSC 22/17 Q1016 NOSIG
ZHHH,2003-10-31 04:00,ZHHH 310400Z 28002MPS 3000 HZ NSC 24/14 Q1016 NOSIG
ZHHH,2003-10-31 05:00,ZHHH 310500Z 33002MPS 6000 NSC 25/14 Q1015 NOSIG
ZHHH,2003-10-31 06:00,ZHHH 310600Z 23003MPS 180V270 CAVOK 25/14 Q1014 NOSIG
ZHHH,2003-10-31 07:00,ZHHH 310700Z 27002MPS CAVOK 26/14 Q1013 NOSIG
ZHHH,2003-10-31 08:00,ZHHH 310800Z 26002MPS CAVOK 26/14 Q1013 NOSIG
ZHHH,2003-10-31 09:00,ZHHH 310900Z 24001MPS CAVOK 25/14 Q1013 NOSIG
ZHHH,2003-10-31 10:00,ZHHH 311000Z 24002MPS CAVOK 24/14 Q1013 NOSIG
ZHHH,2003-10-31 11:00,ZHHH 311100Z 00000MPS CAVOK 23/14 Q1014 NOSIG
ZHHH,2003-10-31 12:00,ZHHH 311200Z 00000MPS CAVOK 22/14 Q1014 NOSIG
ZHHH,2003-10-31 13:00,ZHHH 311300Z 00000MPS CAVOK 22/14 Q1014 NOSIG
ZHHH,2003-10-31 14:00,ZHHH 311400Z 13001MPS CAVOK 21/15 Q1014 NOSIG
ZHHH,2003-10-31 15:00,ZHHH 311500Z 00000MPS CAVOK 21/15 Q1014 NOSIG
ZHHH,2003-10-31 16:00,ZHHH 311600Z 00000MPS CAVOK 20/15 Q1014 NOSIG
ZHHH,2003-10-31 17:00,ZHHH 311700Z 00000MPS CAVOK 20/14 Q1014 NOSIG
ZHHH,2003-10-31 18:00,ZHHH 311800Z 00000MPS 7000 SKC 18/15 Q1014 NOSIG
ZHHH,2003-10-31 19:00,ZHHH 311900Z 00000MPS 5000 BR SKC 19/15 Q1014 NOSIG
ZHHH,2003-10-31 20:00,ZHHH 312000Z 00000MPS 4000 BR SKC 18/15 Q1013 NOSIG
ZHHH,2003-10-31 21:00,ZHHH 312100Z 00000MPS 1800 BR SKC 17/15 Q1013 NOSIG
ZHHH,2003-10-31 22:00,ZHHH 312200Z 07002MPS 1300 R04/P1500 BR SKC 17/15 Q1014 NOSIG
ZHHH,2003-10-31 23:00,ZHHH 312300Z 09001MPS 1000 R04/1000N BR SKC 16/15 Q1014 NOSIG
ZHHH,2003-11-01 00:00,ZHHH 010000Z 06002MPS 1000 R04/0900N BR SKC 16/15 Q1015 NOSIG
ZHHH,2003-11-01 01:00,ZHHH 010100Z 12002MPS 1300 R04/1000N BR SKC 19/17 Q1016 NOSIG
ZHHH,2003-11-01 02:00,ZHHH 010200Z 14003MPS 1800 HZ SKC 21/17 Q1016 NOSIG
ZHHH,2003-11-01 03:00,ZHHH 010300Z 15003MPS 2000 HZ SKC 24/16 Q1015 NOSIG
ZHHH,2003-11-01 04:00,ZHHH 010400Z 21005MPS CAVOK 26/16 Q1014 NOSIG
ZHHH,2003-11-01 05:00,ZHHH 010500Z 22005MPS 190V250 CAVOK 27/16 Q1013 NOSIG
ZHHH,2003-11-01 06:00,ZHHH 010600Z 23004MPS 200V260 CAVOK 28/15 Q1012 NOSIG
ZHHH,2003-11-01 07:00,ZHHH 010700Z 23005MPS CAVOK 28/15 Q1012 NOSIG
ZHHH,2003-11-01 08:00,ZHHH 010800Z 22004MPS CAVOK 27/16 Q1012 NOSIG
ZHHH,2003-11-01 09:00,ZHHH 010900Z 20004MPS CAVOK 26/16 Q1012 NOSIG
ZHHH,2003-11-01 10:00,ZHHH 011000Z 20003MPS CAVOK 24/15 Q1012 NOSIG
ZHHH,2003-11-01 11:00,ZHHH 011100Z 17002MPS CAVOK 24/14 Q1013 NOSIG
ZHHH,2003-11-01 12:00,ZHHH 011200Z AUTO 00000KT 11SM 21/14 A2992 RMK SLP137 T02130139 52013 IEM_DS3505
ZHHH,2003-11-01 13:00,ZHHH 011300Z 15002MPS CAVOK 22/14 Q1014 NOSIG
ZHHH,2003-11-01 14:00,ZHHH 011400Z 13002MPS CAVOK 21/15 Q1014 NOSIG
ZHHH,2003-11-01 15:00,ZHHH 011500Z 12002MPS CAVOK 20/16 Q1014 NOSIG
ZHHH,2003-11-01 16:00,ZHHH 011600Z 11002MPS CAVOK 20/15 Q1014 NOSIG
ZHHH,2003-11-01 17:00,ZHHH 011700Z 11003MPS CAVOK 19/15 Q1013 NOSIG
ZHHH,2003-11-01 18:00,ZHHH 011800Z AUTO 09002KT 9SM 20/14 A2992 RMK SLP135 T02010141 57004 IEM_DS3505
ZHHH,2003-11-01 19:00,ZHHH 011900Z 11004MPS 2000 BR SKC 17/15 Q1013 NOSIG
ZHHH,2003-11-01 20:00,ZHHH 012000Z 11003MPS 2000 BR SKC 17/15 Q1013 NOSIG
ZHHH,2003-11-01 21:00,ZHHH 012100Z 11002MPS 2000 BR SKC 17/15 Q1013 NOSIG
ZHHH,2003-11-01 22:00,ZHHH 012200Z 10003MPS 1600 BR SKC 17/15 Q1014 NOSIG
ZHHH,2003-11-01 23:00,ZHHH 012300Z 11003MPS 1600 R04/1200N BR NSC 16/15 Q1014 NOSIG
ZHHH,2003-11-02 00:00,ZHHH 020000Z 10003MPS 1800 R04/1400N BR NSC 17/15 Q1015 NOSIG
ZHHH,2003-11-02 01:00,ZHHH 020100Z 11003MPS 1600 BR NSC 20/16 Q1015 NOSIG
ZHHH,2003-11-02 02:00,ZHHH 020200Z 13004MPS 2500 HZ NSC 23/17 Q1015 NOSIG
ZHHH,2003-11-02 03:00,ZHHH 020300Z 14004MPS 110V170 2500 HZ NSC 24/16 Q1015 NOSIG
ZHHH,2003-11-02 04:00,ZHHH 020400Z 15003MPS 5000 HZ NSC 26/16 Q1015 NOSIG
ZHHH,2003-11-02 05:00,ZHHH 020500Z 14003MPS 100V180 6000 NSC 27/15 Q1014 NOSIG
ZHHH,2003-11-02 06:00,ZHHH 020600Z 24002MPS 7000 NSC 29/15 Q1014 NOSIG
ZHHH,2003-11-02 07:00,ZHHH 020700Z 34002MPS CAVOK 29/15 Q1014 NOSIG
ZHHH,2003-11-02 08:00,ZHHH 020800Z 35002MPS CAVOK 28/15 Q1014 NOSIG
ZHHH,2003-11-02 09:00,ZHHH 020900Z 31002MPS CAVOK 27/15 Q1014 NOSIG
ZHHH,2003-11-02 10:00,ZHHH 021000Z 34003MPS 6000 NSC 25/17 Q1015 NOSIG
ZHHH,2003-11-02 11:00,ZHHH 021100Z 36004MPS 6000 NSC 24/16 Q1016 NOSIG
ZHHH,2003-11-02 12:00,ZHHH 021200Z 03004MPS 5000 HZ NSC 22/12 Q1018 NOSIG
ZHHH,2003-11-02 13:00,ZHHH 021300Z 04006MPS 4000 HZ NSC 22/11 Q1018 NOSIG
ZHHH,2003-11-02 14:00,ZHHH 021400Z 04006MPS 4000 HZ NSC 21/10 Q1019 NOSIG
ZHHH,2003-11-02 15:00,ZHHH 021500Z 03005MPS 2000 HZ NSC 21/10 Q1020 NOSIG
ZHHH,2003-11-02 16:00,ZHHH 021600Z 03006MPS 2000 HZ NSC 20/09 Q1020 NOSIG
ZHHH,2003-11-02 17:00,ZHHH 021700Z 02005MPS 2000 HZ NSC 20/08 Q1020 NOSIG
ZHHH,2003-11-02 18:00,ZHHH 021800Z 03004MPS 350V060 1800 HZ NSC 20/07 Q1021 NOSIG
ZHHH,2003-11-02 19:00,ZHHH 021900Z 04005MPS 000V060 2000 HZ SKC 19/05 Q1021 NOSIG
ZHHH,2003-11-02 20:00,ZHHH 022000Z 03004MPS 3000 HZ SKC 18/06 Q1021 NOSIG
ZHHH,2003-11-02 21:00,ZHHH 022100Z 03005MPS 3000 HZ SKC 17/07 Q1021 NOSIG
ZHHH,2003-11-02 22:00,ZHHH 022200Z 03003MPS 360V060 3000 HZ SKC 16/07 Q1022 NOSIG
ZHHH,2003-11-02 23:00,ZHHH 022300Z 02004MPS 3000 HZ SKC 16/07 Q1022 NOSIG
ZHHH,2003-11-03 00:00,ZHHH 030000Z 03005MPS 3000 HZ SKC 16/07 Q1023 NOSIG
ZHHH,2003-11-03 01:00,ZHHH 030100Z 04006MPS 5000 HZ SKC 17/08 Q1023 NOSIG
ZHHH,2003-11-03 02:00,ZHHH 030200Z 04006MPS CAVOK 19/08 Q1023 NOSIG
ZHHH,2003-11-03 03:00,ZHHH 030300Z 04005MPS CAVOK 20/08 Q1023 NOSIG
ZHHH,2003-11-03 04:00,ZHHH 030400Z 04006MPS 010V070 CAVOK 22/08 Q1023 NOSIG
ZHHH,2003-11-03 05:00,ZHHH 030500Z 06005MPS 030V090 CAVOK 23/08 Q1022 NOSIG
ZHHH,2003-11-03 06:00,ZHHH 030600Z 05005MPS 010V080 CAVOK 24/07 Q1021 NOSIG
ZHHH,2003-11-03 07:00,ZHHH 030700Z 05006MPS CAVOK 23/05 Q1021 NOSIG
ZHHH,2003-11-03 08:00,ZHHH 030800Z 05006MPS CAVOK 23/05 Q1020 NOSIG
ZHHH,2003-11-03 09:00,ZHHH 030900Z 04005MPS CAVOK 21/05 Q1020 NOSIG
ZHHH,2003-11-03 10:00,ZHHH 031000Z 04003MPS CAVOK 19/06 Q1020 NOSIG
ZHHH,2003-11-03 11:00,ZHHH 031100Z 04004MPS CAVOK 18/06 Q1020 NOSIG
ZHHH,2003-11-03 12:00,ZHHH 031200Z 04004MPS CAVOK 17/07 Q1021 NOSIG
ZHHH,2003-11-03 13:00,ZHHH 031300Z 05004MPS 5000 DU SKC 16/07 Q1021 NOSIG
ZHHH,2003-11-03 14:00,ZHHH 031400Z 07002MPS 4000 DU SKC 15/07 Q1021 NOSIG
ZHHH,2003-11-03 15:00,ZHHH 031500Z 08003MPS 5000 DU SKC 15/07 Q1021 NOSIG
ZHHH,2003-11-03 16:00,ZHHH 031600Z 10003MPS 080V140 5000 DU SKC 15/07 Q1021 NOSIG
ZHHH,2003-11-03 18:00,ZHHH 031800Z 09002MPS 5000 DU SKC 14/07 Q1020 NOSIG
ZHHH,2003-11-03 21:00,ZHHH 032100Z AUTO 04002KT 9SM 16/08 A3007 RMK SLP188 T01570076 57010 IEM_DS3505
ZHHH,2003-11-03 22:00,ZHHH 032200Z 05003MPS 7000 SKC 13/09 Q1018 NOSIG
ZHHH,2003-11-03 23:00,ZHHH 032300Z 07004MPS CAVOK 12/08 Q1019 NOSIG
ZHHH,2003-11-04 00:00,ZHHH 040000Z 08003MPS CAVOK 13/09 Q1019 NOSIG
ZHHH,2003-11-04 01:00,ZHHH 040100Z 12004MPS CAVOK 16/12 Q1019 NOSIG
ZHHH,2003-11-04 02:00,ZHHH 040200Z 14005MPS CAVOK 18/12 Q1019 NOSIG
ZHHH,2003-11-04 03:00,ZHHH 040300Z 14004MPS 110V170 CAVOK 19/12 Q1018 NOSIG
ZHHH,2003-11-04 04:00,ZHHH 040400Z 15003MPS 110V170 6000 SKC 21/13 Q1017 NOSIG
ZHHH,2003-11-04 05:00,ZHHH 040500Z 13003MPS 090V170 5000 HZ SKC 22/13 Q1016 NOSIG
ZHHH,2003-11-04 06:00,ZHHH 040600Z 15003MPS 090V180 5000 HZ SKC 23/13 Q1014 NOSIG
ZHHH,2003-11-04 07:00,ZHHH 040700Z 16002MPS 5000 HZ SKC 23/13 Q1014 NOSIG
ZHHH,2003-11-04 08:00,ZHHH 040800Z 13002MPS 6000 SKC 23/13 Q1014 NOSIG
ZHHH,2003-11-04 09:00,ZHHH 040900Z 00000MPS 6000 SKC 22/14 Q1014 NOSIG
ZHHH,2003-11-04 10:00,ZHHH 041000Z 06002MPS 1400 HZ NSC 21/14 Q1014 NOSIG
ZHHH,2003-11-04 11:00,ZHHH 041100Z 01002MPS 2500 HZ NSC 21/15 Q1014 NOSIG
ZHHH,2003-11-04 12:00,ZHHH 041200Z 02001MPS 2500 HZ NSC 20/15 Q1015 NOSIG
ZHHH,2003-11-04 13:00,ZHHH 041300Z 32001MPS 2500 HZ NSC 20/15 Q1015 NOSIG
ZHHH,2003-11-04 14:00,ZHHH 041400Z 04002MPS 3000 HZ NSC 20/15 Q1015 NOSIG
ZHHH,2003-11-04 15:00,ZHHH 041500Z 06002MPS 2500 -RA HZ NSC 19/15 Q1015 NOSIG
ZHHH,2003-11-04 16:00,ZHHH 041600Z 10002MPS 2000 -RA HZ NSC 19/16 Q1014 NOSIG
ZHHH,2003-11-04 18:00,ZHHH 041800Z 00000MPS 2000 BR NSC 19/16 Q1014 NOSIG
ZHHH,2003-11-04 19:00,ZHHH 041900Z 04001MPS 2000 BR NSC 18/16 Q1014 NOSIG
ZHHH,2003-11-04 20:00,ZHHH 042000Z 00000MPS 1800 BR NSC 17/16 Q1014 NOSIG
ZHHH,2003-11-04 21:00,ZHHH 042100Z 06001MPS 1800 BR NSC 18/17 Q1014 NOSIG
ZHHH,2003-11-04 22:00,ZHHH 042200Z 10001MPS 1800 BR NSC 18/16 Q1014 NOSIG
ZHHH,2003-11-04 23:00,ZHHH 042300Z 01002MPS 1600 BR NSC 17/16 Q1014 NOSIG
ZHHH,2003-11-05 00:00,ZHHH 050000Z 05002MPS 1600 BR NSC 17/16 Q1015 NOSIG
ZHHH,2003-11-05 01:00,ZHHH 050100Z 34001MPS 1300 R04/1200U BR NSC 18/17 Q1016 NOSIG
ZHHH,2003-11-05 02:00,ZHHH 050200Z 01001MPS 1300 R04/1200U BR NSC 19/17 Q1016 NOSIG
ZHHH,2003-11-05 03:00,ZHHH 050300Z 14002MPS 1600 R04/1200U BR NSC 21/17 Q1015 NOSIG
ZHHH,2003-11-05 04:00,ZHHH 050400Z 15002MPS 1600 R04/1400U BR NSC 22/18 Q1015 NOSIG
ZHHH,2003-11-05 05:00,ZHHH 050500Z 24002MPS 1600 R04/1200N HZ NSC 23/18 Q1014 NOSIG
ZHHH,2003-11-05 06:00,ZHHH 050600Z 24002MPS 1400 R04/1200N HZ NSC 24/17 Q1013 NOSIG
ZHHH,2003-11-05 07:00,ZHHH 050700Z 20002MPS 1200 R04/1000N HZ NSC 24/18 Q1012 NOSIG
ZHHH,2003-11-05 08:00,ZHHH 050800Z 15002MPS 1400 R04/1200U HZ SKC 24/17 Q1012 NOSIG
ZHHH,2003-11-05 09:00,ZHHH 050900Z 00000MPS 1400 R04/1200U HZ SKC 23/17 Q1012 NOSIG
ZHHH,2003-11-05 10:00,ZHHH 051000Z 13001MPS 1400 R04/P1500 HZ SKC 22/17 Q1012 NOSIG
ZHHH,2003-11-05 11:00,ZHHH 051100Z 11002MPS 1400 R04/P1500 BR NSC 21/17 Q1013 NOSIG
ZHHH,2003-11-05 12:00,ZHHH 051200Z 11002MPS 1200 R04/P1500 BR NSC 20/17 Q1013 NOSIG
ZHHH,2003-11-05 13:00,ZHHH 051300Z 11002MPS 1200 R04/P1500 BR NSC 20/17 Q1013 NOSIG
ZHHH,2003-11-05 14:00,ZHHH 051400Z 09002MPS 1200 R04/P1500 BR NSC 20/17 Q1013 NOSIG
ZHHH,2003-11-05 15:00,ZHHH 051500Z 06002MPS 1200 R04/P1500 BR SKC 19/17 Q1013 NOSIG
ZHHH,2003-11-05 16:00,ZHHH 051600Z 08003MPS 1000 R04/P1500 BR SKC 18/17 Q1013 NOSIG
ZHHH,2003-11-05 17:00,ZHHH 051700Z 08003MPS 1000 R04/P1500 BR SKC 18/17 Q1013 NOSIG
ZHHH,2003-11-05 18:00,ZHHH 051800Z 08003MPS 1000 R04/P1500 BR SKC 19/17 Q1013 NOSIG
ZHHH,2003-11-05 19:00,ZHHH 051900Z 08003MPS 1000 R04/P1500 BR SKC 19/17 Q1013 NOSIG
ZHHH,2003-11-05 20:00,ZHHH 052000Z 08003MPS 1000 R04/P1500 BR SKC 19/16 Q1012 NOSIG
ZHHH,2003-11-05 21:00,ZHHH 052100Z 09004MPS 1200 R04/P1500 BR SKC 19/17 Q1012 NOSIG
ZHHH,2003-11-05 22:00,ZHHH 052200Z 10003MPS 1200 R04/P1500 BR NSC 19/16 Q1013 NOSIG
ZHHH,2003-11-05 23:00,ZHHH 052300Z 10003MPS 1500 BR NSC 18/16 Q1013 NOSIG
ZHHH,2003-11-06 00:00,ZHHH 060000Z 09004MPS 1600 BR NSC 19/17 Q1013 NOSIG
ZHHH,2003-11-06 01:00,ZHHH 060100Z 11005MPS 1600 BR NSC 20/17 Q1014 NOSIG
ZHHH,2003-11-06 02:00,ZHHH 060200Z 11006MPS 1600 BR NSC 21/17 Q1014 NOSIG
ZHHH,2003-11-06 03:00,ZHHH 060300Z 13005MPS 2000 HZ SKC 23/17 Q1013 NOSIG
ZHHH,2003-11-06 04:00,ZHHH 060400Z 14004MPS 2000 HZ SKC 25/18 Q1012 NOSIG
ZHHH,2003-11-06 05:00,ZHHH 060500Z 14004MPS 2200 HZ NSC 27/18 Q1011 NOSIG
ZHHH,2003-11-06 06:00,ZHHH 060600Z 15004MPS 2500 HZ NSC 27/18 Q1010 NOSIG
ZHHH,2003-11-06 07:00,ZHHH 060700Z 36003MPS 110V000 2500 HZ NSC 28/18 Q1010 NOSIG
ZHHH,2003-11-06 08:00,ZHHH 060800Z 11004MPS 3000 HZ NSC 28/19 Q1009 NOSIG
ZHHH,2003-11-06 09:00,ZHHH 060900Z 09003MPS 3000 HZ NSC 26/19 Q1009 NOSIG
ZHHH,2003-11-06 10:00,ZHHH 061000Z 08003MPS 2500 HZ NSC 25/18 Q1009 NOSIG
ZHHH,2003-11-06 11:00,ZHHH 061100Z 10004MPS 2500 HZ NSC 24/18 Q1010 NOSIG
ZHHH,2003-11-06 12:00,ZHHH 061200Z 07003MPS 2500 HZ NSC 24/18 Q1010 NOSIG
ZHHH,2003-11-06 13:00,ZHHH 061300Z 06005MPS 2000 HZ NSC 22/18 Q1011 NOSIG
ZHHH,2003-11-06 14:00,ZHHH 061400Z 06005MPS 2000 BR NSC 21/17 Q1011 NOSIG
ZHHH,2003-11-06 15:00,ZHHH 061500Z 06006MPS 2000 BR NSC 20/17 Q1011 NOSIG
ZHHH,2003-11-06 16:00,ZHHH 061600Z 06006MPS 2000 BR SKC 19/16 Q1011 NOSIG
ZHHH,2003-11-06 17:00,ZHHH 061700Z 04004MPS 2000 BR SKC 17/15 Q1012 NOSIG
ZHHH,2003-11-06 18:00,ZHHH 061800Z 07006MPS 1800 BR NSC 17/15 Q1011 NOSIG
ZHHH,2003-11-06 19:00,ZHHH 061900Z 06006MPS 1600 BR NSC 17/15 Q1011 NOSIG
ZHHH,2003-11-06 20:00,ZHHH 062000Z 07006MPS 1800 BR NSC 16/14 Q1010 NOSIG
ZHHH,2003-11-06 21:00,ZHHH 062100Z 05005MPS 2100 BR NSC 15/13 Q1011 NOSIG
ZHHH,2003-11-06 22:00,ZHHH 062200Z 05007MPS 2200 BR NSC 13/11 Q1012 NOSIG
ZHHH,2003-11-06 23:00,ZHHH 062300Z 05008MPS 5000 DU NSC 12/10 Q1013 NOSIG
ZHHH,2003-11-07 00:00,ZHHH 070000Z 04008MPS CAVOK 11/08 Q1014 NOSIG
ZHHH,2003-11-07 01:00,ZHHH 070100Z 03008MPS CAVOK 10/08 Q1016 NOSIG
ZHHH,2003-11-07 02:00,ZHHH 070200Z 03007MPS CAVOK 11/07 Q1017 NOSIG
ZHHH,2003-11-07 03:00,ZHHH 070300Z 03009MPS CAVOK 10/06 Q1017 NOSIG
ZHHH,2003-11-07 04:00,ZHHH 070400Z 04009MPS CAVOK 11/06 Q1017 NOSIG
ZHHH,2003-11-07 05:00,ZHHH 070500Z 04009MPS CAVOK 10/06 Q1016 NOSIG
ZHHH,2003-11-07 06:00,ZHHH 070600Z 04008MPS 010V070 CAVOK 11/06 Q1016 NOSIG
ZHHH,2003-11-07 07:00,ZHHH 070700Z 04009MPS CAVOK 09/06 Q1017 NOSIG
ZHHH,2003-11-07 08:00,ZHHH 070800Z 03008MPS 9999 BKN020 OVC100 09/05 Q1018 NOSIG
ZHHH,2003-11-07 09:00,ZHHH 070900Z 04009MPS 9999 BKN020 OVC100 07/04 Q1019 NOSIG
ZHHH,2003-11-07 10:00,ZHHH 071000Z 04009G14MPS 9999 BKN020 OVC100 06/03 Q1020 NOSIG
ZHHH,2003-11-07 11:00,ZHHH 071100Z 02008MPS 9999 BKN020 OVC100 06/03 Q1021 NOSIG
ZHHH,2003-11-07 12:00,ZHHH 071200Z 02008G13MPS 7000 -RA SCT010 OVC026 05/03 Q1022 NOSIG
ZHHH,2003-11-07 13:00,ZHHH 071300Z 36005MPS 330V040 6000 RA SCT008 SCT011 OVC026 04/04 Q1024 NOSIG
ZHHH,2003-11-07 14:00,ZHHH 071400Z 03006MPS 7000 -RA SCT008 SCT011 OVC026 04/04 Q1025 RERA NOSIG
ZHHH,2003-11-07 15:00,ZHHH 071500Z 02007G12MPS 9999 SCT008 OVC060 04/04 Q1025 NOSIG
ZHHH,2003-11-07 16:00,ZHHH 071600Z 02008MPS 9999 SCT008 OVC060 05/03 Q1026 NOSIG
ZHHH,2003-11-07 17:00,ZHHH 071700Z 03008G13MPS 360V060 9999 SCT011 OVC060 05/03 Q1026 NOSIG
ZHHH,2003-11-07 18:00,ZHHH 071800Z 02007MPS 9999 FEW012 OVC060 05/03 Q1026 NOSIG
ZHHH,2003-11-07 19:00,ZHHH 071900Z 02007MPS 9999 FEW012 OVC020 04/03 Q1026 NOSIG
ZHHH,2003-11-07 20:00,ZHHH 072000Z 02008MPS 350V050 9999 FEW012 OVC020 04/03 Q1026 NOSIG
ZHHH,2003-11-07 21:00,ZHHH 072100Z 02008MPS 9999 SCT012 OVC020 03/02 Q1026 NOSIG
ZHHH,2003-11-07 22:00,ZHHH 072200Z 02007MPS 9999 SCT012 OVC020 03/02 Q1026 NOSIG
ZHHH,2003-11-07 23:00,ZHHH 072300Z 01007MPS 9999 -RA SCT012 OVC033 03/02 Q1027 NOSIG
ZHHH,2003-11-08 00:00,ZHHH 080000Z 02006MPS 9999 -RA SCT010 OVC033 03/02 Q1027 NOSIG
ZHHH,2003-11-08 01:00,ZHHH 080100Z 02007MPS 9999 SCT010 OVC050 03/02 Q1028 NOSIG
ZHHH,2003-11-08 02:00,ZHHH 080200Z 03007MPS 350V050 9999 SCT010 OVC050 04/02 Q1028 NOSIG
ZHHH,2003-11-08 03:00,ZHHH 080300Z 03006MPS 360V060 9999 BKN015 OVC050 04/02 Q1028 NOSIG
ZHHH,2003-11-08 04:00,ZHHH 080400Z 02007MPS 9999 BKN015 OVC033 04/02 Q1027 NOSIG
ZHHH,2003-11-08 05:00,ZHHH 080500Z 03006MPS 000V060 9999 -RA BKN015 OVC033 04/02 Q1026 NOSIG
ZHHH,2003-11-08 06:00,ZHHH 080600Z 03006MPS 000V060 9999 SCT020 OVC033 04/01 Q1026 NOSIG
ZHHH,2003-11-08 07:00,ZHHH 080700Z 03005MPS 360V060 4000 RA BR SCT020 OVC033 03/02 Q1026 NOSIG
ZHHH,2003-11-08 08:00,ZHHH 080800Z 02005MPS 3000 RA BR BKN015 OVC033 03/02 Q1026 NOSIG
ZHHH,2003-11-08 09:00,ZHHH 080900Z 02006MPS 5000 -RA BR BKN012 OVC030 03/02 Q1027 RERA NOSIG
ZHHH,2003-11-08 10:00,ZHHH 081000Z 03007MPS 350V050 5000 -RA BR BKN012 OVC030 03/02 Q1027 NOSIG
ZHHH,2003-11-08 11:00,ZHHH 081100Z 04006MPS 5000 -RA BR BKN012 OVC025 03/02 Q1028 NOSIG
ZHHH,2003-11-08 12:00,ZHHH 081200Z 03006MPS 000V060 6000 SCT010 OVC025 03/02 Q1028 NOSIG
ZHHH,2003-11-08 13:00,ZHHH 081300Z 03004MPS 6000 SCT010 OVC025 03/02 Q1029 NOSIG
ZHHH,2003-11-08 14:00,ZHHH 081400Z 03004MPS 5000 -RA BR SCT010 OVC025 03/02 Q1029 NOSIG
ZHHH,2003-11-08 15:00,ZHHH 081500Z 03004MPS 9999 SCT010 OVC040 03/02 Q1029 NOSIG
ZHHH,2003-11-08 16:00,ZHHH 081600Z 03004MPS 350V050 9999 SCT010 OVC040 03/02 Q1029 NOSIG
ZHHH,2003-11-08 17:00,ZHHH 081700Z 02004MPS 9999 SCT015 OVC040 03/02 Q1029 NOSIG
ZHHH,2003-11-08 18:00,ZHHH 081800Z 36003MPS 9999 SCT015 OVC040 04/02 Q1028 NOSIG
ZHHH,2003-11-08 19:00,ZHHH 081900Z 02004MPS 9999 SCT020 OVC040 04/02 Q1028 NOSIG
ZHHH,2003-11-08 20:00,ZHHH 082000Z 04004MPS 5000 BR SCT020 OVC040 04/02 Q1027 NOSIG
ZHHH,2003-11-08 21:00,ZHHH 082100Z 04005MPS 5000 BR SCT020 OVC040 04/02 Q1027 NOSIG
ZHHH,2003-11-08 22:00,ZHHH 082200Z 04004MPS 4000 BR SCT020 OVC040 04/03 Q1026 NOSIG
ZHHH,2003-11-08 23:00,ZHHH 082300Z 03004MPS 4000 BR SCT020 OVC040 04/03 Q1027 NOSIG
ZHHH,2003-11-09 00:00,ZHHH 090000Z 03004MPS 360V060 3000 BR SCT020 OVC040 04/03 Q1027 NOSIG
ZHHH,2003-11-09 01:00,ZHHH 090100Z 01004MPS 2500 BR SCT020 OVC050 04/03 Q1028 NOSIG
ZHHH,2003-11-09 02:00,ZHHH 090200Z 01004MPS 1800 -RA BR SCT020 OVC050 05/03 Q1028 NOSIG
ZHHH,2003-11-09 03:00,ZHHH 090300Z 02004MPS 1600 R04/1200N -RA BR SCT010 OVC040 05/04 Q1028 NOSIG
ZHHH,2003-11-09 04:00,ZHHH 090400Z 02005MPS 350V060 3000 -RA BR SCT012 OVC040 04/04 Q1028 NOSIG
ZHHH,2003-11-09 05:00,ZHHH 090500Z 02005MPS 3000 -RA BR SCT006 OVC040 04/04 Q1027 NOSIG
ZHHH,2003-11-09 06:00,ZHHH 090600Z 03005MPS 3000 -RA BR SCT008 OVC040 04/04 Q1026 NOSIG
ZHHH,2003-11-09 07:00,ZHHH 090700Z 02004MPS 350V060 9999 -RA FEW006 BKN016 OVC040 04/04 Q1026 NOSIG
ZHHH,2003-11-09 08:00,ZHHH 090800Z 01004MPS 8000 -RA FEW006 BKN016 OVC040 04/04 Q1026 NOSIG
ZHHH,2003-11-09 09:00,ZHHH 090900Z 02006MPS 8000 -RA FEW006 BKN016 OVC040 04/03 Q1027 NOSIG
ZHHH,2003-11-09 10:00,ZHHH 091000Z 02005MPS 3000 -RA FEW006 BKN016 OVC040 03/03 Q1027 NOSIG
ZHHH,2003-11-09 11:00,ZHHH 091100Z 02006MPS 350V050 3000 -RA FEW006 BKN016 OVC040 03/02 Q1028 NOSIG
ZHHH,2003-11-09 12:00,ZHHH 091200Z 02005MPS 2100 -RA SCT006 SCT016 OVC040 03/02 Q1029 NOSIG
ZHHH,2003-11-09 13:00,ZHHH 091300Z 01004MPS 2100 -RA SCT006 SCT016 OVC040 03/03 Q1030 NOSIG
ZHHH,2003-11-09 14:00,ZHHH 091400Z 02005MPS 2100 BR SCT006 SCT016 OVC040 03/02 Q1030 NOSIG
ZHHH,2003-11-09 15:00,ZHHH 091500Z 01005MPS 3000 BR SCT006 SCT016 OVC040 03/02 Q1030 NOSIG
ZHHH,2003-11-09 16:00,ZHHH 091600Z 03005MPS 360V060 5000 BR SCT006 SCT016 OVC040 03/02 Q1030 NOSIG
ZHHH,2003-11-09 17:00,ZHHH 091700Z 03004MPS 000V060 9999 SCT006 SCT016 OVC040 03/02 Q1030 NOSIG
ZHHH,2003-11-09 18:00,ZHHH 091800Z 01004MPS 9999 SCT016 OVC040 03/01 Q1031 NOSIG
ZHHH,2003-11-09 19:00,ZHHH 091900Z 35003MPS 320V020 9999 SCT016 OVC050 03/02 Q1031 NOSIG
ZHHH,2003-11-09 20:00,ZHHH 092000Z 35003MPS 9999 FEW016 OVC050 03/02 Q1030 NOSIG
ZHHH,2003-11-09 21:00,ZHHH 092100Z 36003MPS 310V040 9999 FEW016 OVC050 03/02 Q1030 NOSIG
ZHHH,2003-11-09 22:00,ZHHH 092200Z 02004MPS 9999 FEW013 OVC050 03/02 Q1031 NOSIG
ZHHH,2003-11-09 23:00,ZHHH 092300Z 02004MPS 9999 SCT011 OVC050 03/02 Q1031 NOSIG
ZHHH,2003-11-10 00:00,ZHHH 100000Z 01003MPS 340V040 9999 SCT020 OVC050 03/02 Q1032 NOSIG
ZHHH,2003-11-10 01:00,ZHHH 100100Z 33003MPS 280V010 6000 SCT013 BKN020 04/02 Q1032 NOSIG
ZHHH,2003-11-10 02:00,ZHHH 100200Z 34004MPS 320V020 6000 SCT020 BKN120 05/02 Q1032 NOSIG
ZHHH,2003-11-10 03:00,ZHHH 100300Z 35004MPS 330V030 6000 SCT020 BKN100 05/03 Q1032 NOSIG
ZHHH,2003-11-10 04:00,ZHHH 100400Z 36003MPS 310V030 7000 SCT033 BKN100 06/02 Q1031 NOSIG
ZHHH,2003-11-10 05:00,ZHHH 100500Z 33003MPS 210V360 9999 SCT033 BKN100 06/02 Q1031 NOSIG
ZHHH,2003-11-10 06:00,ZHHH 100600Z 35003MPS 290V030 9999 FEW014 SCT033 OVC100 07/02 Q1030 NOSIG
ZHHH,2003-11-10 07:00,ZHHH 100700Z 33002MPS 9999 SCT014 OVC110 08/02 Q1030 NOSIG
ZHHH,2003-11-10 08:00,ZHHH 100800Z 30002MPS 7000 SCT033 OVC100 08/03 Q1030 NOSIG
ZHHH,2003-11-10 09:00,ZHHH 100900Z 07003MPS 9999 BKN033 OVC100 08/03 Q1030 NOSIG
ZHHH,2003-11-10 10:00,ZHHH 101000Z 05004MPS 9999 BKN033 OVC100 07/03 Q1031 NOSIG
ZHHH,2003-11-10 11:00,ZHHH 101100Z 05004MPS 9999 SCT033 OVC100 06/02 Q1031 NOSIG
ZHHH,2003-11-10 12:00,ZHHH 101200Z 05003MPS CAVOK 05/02 Q1032 NOSIG
ZHHH,2003-11-10 13:00,ZHHH 101300Z 03003MPS CAVOK 05/02 Q1033 NOSIG
ZHHH,2003-11-10 14:00,ZHHH 101400Z 05003MPS CAVOK 05/02 Q1033 NOSIG
ZHHH,2003-11-10 15:00,ZHHH 101500Z 03002MPS 6000 SKC 04/02 Q1033 NOSIG
ZHHH,2003-11-10 16:00,ZHHH 101600Z 03001MPS 6000 SKC 04/02 Q1033 NOSIG
ZHHH,2003-11-10 17:00,ZHHH 101700Z 36002MPS 4000 BR SKC 03/02 Q1033 NOSIG
ZHHH,2003-11-10 18:00,ZHHH 101800Z 36002MPS 4000 BR SKC 03/02 Q1033 NOSIG
ZHHH,2003-11-10 19:00,ZHHH 101900Z 35003MPS 3000 BR SKC 03/02 Q1033 NOSIG
ZHHH,2003-11-10 20:00,ZHHH 102000Z 36003MPS 3000 BR SKC 03/02 Q1033 NOSIG
ZHHH,2003-11-10 21:00,ZHHH 102100Z 34002MPS 3000 BR SKC 02/01 Q1033 NOSIG
ZHHH,2003-11-10 22:00,ZHHH 102200Z 36002MPS 3500 BR SKC 02/01 Q1033 NOSIG
ZHHH,2003-11-10 23:00,ZHHH 102300Z 01003MPS 2500 BR SKC 02/02 Q1034 NOSIG
ZHHH,2003-11-11 00:00,ZHHH 110000Z 02003MPS 3000 BR SKC 03/03 Q1034 NOSIG
ZHHH,2003-11-11 01:00,ZHHH 110100Z 01003MPS 4000 BR SKC 05/04 Q1035 NOSIG
ZHHH,2003-11-11 02:00,ZHHH 110200Z 04004MPS 350V060 CAVOK 07/04 Q1036 NOSIG
ZHHH,2003-11-11 03:00,ZHHH 110300Z 04005MPS 360V070 CAVOK 09/02 Q1035 NOSIG
ZHHH,2003-11-11 04:00,ZHHH 110400Z 03004MPS 360V060 CAVOK 09/01 Q1035 NOSIG
ZHHH,2003-11-11 05:00,ZHHH 110500Z 03005MPS CAVOK 11/02 Q1034 NOSIG
ZHHH,2003-11-11 06:00,ZHHH 110600Z 03005MPS 000V070 CAVOK 11/02 Q1033 NOSIG
ZHHH,2003-11-11 07:00,ZHHH 110700Z 03004MPS 350V070 CAVOK 11/02 Q1033 NOSIG
ZHHH,2003-11-11 08:00,ZHHH 110800Z 04003MPS 000V060 CAVOK 10/02 Q1033 NOSIG
ZHHH,2003-11-11 09:00,ZHHH 110900Z 01002MPS 4000 HZ NSC 10/02 Q1033 NOSIG
ZHHH,2003-11-11 10:00,ZHHH 111000Z 04003MPS 4000 HZ NSC 09/02 Q1033 NOSIG
ZHHH,2003-11-11 11:00,ZHHH 111100Z 03003MPS 4000 HZ NSC 09/03 Q1034 NOSIG
ZHHH,2003-11-11 12:00,ZHHH 111200Z 04003MPS 4000 HZ NSC 08/03 Q1034 NOSIG
ZHHH,2003-11-11 13:00,ZHHH 111300Z 04002MPS 4000 HZ NSC 08/03 Q1034 NOSIG
ZHHH,2003-11-11 14:00,ZHHH 111400Z 05002MPS 3000 BR NSC 07/03 Q1034 NOSIG
ZHHH,2003-11-11 15:00,ZHHH 111500Z 05001MPS 3000 BR NSC 07/04 Q1034 NOSIG
ZHHH,2003-11-11 16:00,ZHHH 111600Z 05001MPS 3000 BR NSC 07/04 Q1034 NOSIG
ZHHH,2003-11-11 17:00,ZHHH 111700Z 03002MPS 3000 BR NSC 06/03 Q1034 NOSIG
ZHHH,2003-11-11 18:00,ZHHH 111800Z 01001MPS 3000 BR NSC 05/03 Q1034 NOSIG
ZHHH,2003-11-11 19:00,ZHHH 111900Z 29002MPS 3000 BR NSC 05/03 Q1033 NOSIG
ZHHH,2003-11-11 20:00,ZHHH 112000Z 30002MPS 2500 BR SKC 05/03 Q1033 NOSIG
ZHHH,2003-11-11 21:00,ZHHH 112100Z 29002MPS 1000 R04/1000D BR SKC 04/04 Q1033 NOSIG
ZHHH,2003-11-11 22:00,ZHHH 112200Z 00000MPS 1000 R04/1000N BR SKC 04/04 Q1033 NOSIG
ZHHH,2003-11-11 23:00,ZHHH 112300Z 00000MPS 1200 R04/1200U BR SKC 04/04 Q1033 NOSIG
ZHHH,2003-11-12 00:00,ZHHH 120000Z 00000MPS 1200 R04/1200N BR SKC 05/05 Q1033 NOSIG
ZHHH,2003-11-12 01:00,ZHHH 120100Z 00000MPS 1600 R04/1400U BR SKC 08/05 Q1034 NOSIG
ZHHH,2003-11-12 02:00,ZHHH 120200Z 20003MPS 2000 R04/P1500 HZ SKC 10/05 Q1034 NOSIG
ZHHH,2003-11-12 03:00,ZHHH 120300Z 24003MPS 210V270 3000 HZ SKC 11/04 Q1033 NOSIG
ZHHH,2003-11-12 04:00,ZHHH 120400Z 24003MPS 200V280 5000 HZ SKC 12/03 Q1032 NOSIG
ZHHH,2003-11-12 05:00,ZHHH 120500Z 33003MPS 260V040 CAVOK 13/02 Q1031 NOSIG
ZHHH,2003-11-12 06:00,ZHHH 120600Z AUTO 22002KT 12SM 14/01 A3042 RMK SLP303 T01420013 57034 IEM_DS3505
ZHHH,2003-11-12 07:00,ZHHH 120700Z 31001MPS CAVOK 14/03 Q1029 NOSIG
ZHHH,2003-11-12 08:00,ZHHH 120800Z 01001MPS CAVOK 14/01 Q1028 NOSIG
ZHHH,2003-11-12 09:00,ZHHH 120900Z 15002MPS CAVOK 13/03 Q1028 NOSIG
ZHHH,2003-11-12 10:00,ZHHH 121000Z 12002MPS CAVOK 11/04 Q1028 NOSIG
ZHHH,2003-11-12 11:00,ZHHH 121100Z 14002MPS CAVOK 10/05 Q1028 NOSIG
ZHHH,2003-11-12 12:00,ZHHH 121200Z 14002MPS CAVOK 10/05 Q1028 NOSIG
ZHHH,2003-11-12 13:00,ZHHH 121300Z 20002MPS CAVOK 09/05 Q1029 NOSIG
ZHHH,2003-11-12 14:00,ZHHH 121400Z 00000MPS CAVOK 09/05 Q1029 NOSIG
ZHHH,2003-11-12 15:00,ZHHH 121500Z 00000MPS CAVOK 09/05 Q1029 NOSIG
ZHHH,2003-11-12 16:00,ZHHH 121600Z 08001MPS CAVOK 08/05 Q1029 NOSIG
ZHHH,2003-11-12 17:00,ZHHH 121700Z 06002MPS 6000 SKC 07/05 Q1029 NOSIG
ZHHH,2003-11-12 18:00,ZHHH 121800Z 09002MPS 5000 BR SKC 06/05 Q1029 NOSIG
ZHHH,2003-11-12 19:00,ZHHH 121900Z 09002MPS 2000 BR SKC 06/05 Q1028 NOSIG
ZHHH,2003-11-12 20:00,ZHHH 122000Z 11002MPS 1600 BR SKC 06/05 Q1028 NOSIG
ZHHH,2003-11-12 21:00,ZHHH 122100Z 08002MPS 1600 BR SKC 05/04 Q1027 NOSIG
ZHHH,2003-11-12 22:00,ZHHH 122200Z 07003MPS 1600 BR SKC 05/04 Q1027 NOSIG
ZHHH,2003-11-12 23:00,ZHHH 122300Z 08003MPS 1500 R04/1400N BR SKC 04/03 Q1027 NOSIG
ZHHH,2003-11-13 00:00,ZHHH 130000Z 08003MPS 1500 R04/1400 BR NSC 05/04 Q1027 NOSIG
ZHHH,2003-11-13 01:00,ZHHH 130100Z 10004MPS 2000 BR NSC 06/05 Q1027 NOSIG
ZHHH,2003-11-13 02:00,ZHHH 130200Z 12004MPS 2500 BR NSC 09/06 Q1027 NOSIG
ZHHH,2003-11-13 03:00,ZHHH 130300Z 14004MPS 110V170 3000 HZ NSC 12/06 Q1027 NOSIG
ZHHH,2003-11-13 04:00,ZHHH 130400Z 14004MPS 5000 HZ NSC 13/04 Q1026 NOSIG
ZHHH,2003-11-13 05:00,ZHHH 130500Z 15004MPS 110V170 5000 HZ NSC 15/04 Q1025 NOSIG
ZHHH,2003-11-13 06:00,ZHHH 130600Z 15004MPS CAVOK 15/04 Q1023 NOSIG
ZHHH,2003-11-13 07:00,ZHHH 130700Z 16003MPS 120V190 CAVOK 15/03 Q1023 NOSIG
ZHHH,2003-11-13 08:00,ZHHH 130800Z 11004MPS CAVOK 15/05 Q1022 NOSIG
ZHHH,2003-11-13 09:00,ZHHH 130900Z 13003MPS 6000 SKC 14/05 Q1022 NOSIG
ZHHH,2003-11-13 10:00,ZHHH 131000Z 06002MPS 6000 NSC 12/05 Q1022 NOSIG
ZHHH,2003-11-13 11:00,ZHHH 131100Z 08002MPS 6000 SKC 11/05 Q1022 NOSIG
ZHHH,2003-11-13 12:00,ZHHH 131200Z 12002MPS 7000 SKC 11/05 Q1022 NOSIG
ZHHH,2003-11-13 13:00,ZHHH 131300Z AUTO 12002KT 11/05 A3021 RMK SLP234 T01100050 IEM_DS3505
ZHHH,2003-11-13 14:00,ZHHH 131400Z 10002MPS 6000 NSC 10/05 Q1023 NOSIG
ZHHH,2003-11-13 15:00,ZHHH 131500Z 11002MPS 5000 BR NSC 09/05 Q1022 NOSIG
ZHHH,2003-11-13 16:00,ZHHH 131600Z 08003MPS 5000 BR NSC 09/05 Q1022 NOSIG
ZHHH,2003-11-13 17:00,ZHHH 131700Z 10002MPS 5000 BR NSC 09/06 Q1022 NOSIG
ZHHH,2003-11-13 18:00,ZHHH 131800Z 14002MPS 5000 BR NSC 08/06 Q1022 NOSIG
ZHHH,2003-11-13 19:00,ZHHH 131900Z 12002MPS 4000 BR NSC 08/06 Q1021 NOSIG
ZHHH,2003-11-13 20:00,ZHHH 132000Z 10001MPS 4000 BR NSC 08/06 Q1021 NOSIG
ZHHH,2003-11-13 21:00,ZHHH 132100Z 09002MPS 4000 BR NSC 08/06 Q1020 NOSIG
ZHHH,2003-11-13 22:00,ZHHH 132200Z 11002MPS 3000 BR NSC 08/06 Q1020 NOSIG
ZHHH,2003-11-13 23:00,ZHHH 132300Z 09002MPS 3000 BR SKC 08/06 Q1021 NOSIG
ZHHH,2003-11-14 00:00,ZHHH 140000Z 09003MPS 2500 BR SKC 08/07 Q1021 NOSIG
ZHHH,2003-11-14 01:00,ZHHH 140100Z 09002MPS 2000 BR SKC 10/08 Q1022 NOSIG
ZHHH,2003-11-14 02:00,ZHHH 140200Z 15002MPS 2500 BR NSC 12/08 Q1022 NOSIG
ZHHH,2003-11-14 03:00,ZHHH 140300Z 14002MPS 2000 HZ NSC 13/09 Q1022 NOSIG
ZHHH,2003-11-14 04:00,ZHHH 140400Z 20001MPS 2000 HZ NSC 15/09 Q1021 NOSIG
ZHHH,2003-11-14 05:00,ZHHH 140500Z 27002MPS 2000 HZ NSC 16/08 Q1020 NOSIG
ZHHH,2003-11-14 06:00,ZHHH 140600Z 35001MPS 3000 HZ NSC 17/07 Q1020 NOSIG
ZHHH,2003-11-14 07:00,ZHHH 140700Z 00000MPS 5000 HZ NSC 17/06 Q1019 NOSIG
ZHHH,2003-11-14 08:00,ZHHH 140800Z 00000MPS 5000 HZ SKC 17/06 Q1019 NOSIG
ZHHH,2003-11-14 09:00,ZHHH 140900Z 12001MPS 4000 HZ NSC 16/07 Q1019 NOSIG
ZHHH,2003-11-14 10:00,ZHHH 141000Z 00000MPS 2500 HZ SKC 15/06 Q1019 NOSIG
ZHHH,2003-11-14 11:00,ZHHH 141100Z 00000MPS 2000 HZ SKC 14/07 Q1020 NOSIG
ZHHH,2003-11-14 12:00,ZHHH 141200Z 00000MPS 2000 HZ SKC 13/06 Q1020 NOSIG
ZHHH,2003-11-14 13:00,ZHHH 141300Z 00000MPS 2000 HZ SKC 13/06 Q1021 NOSIG
ZHHH,2003-11-14 14:00,ZHHH 141400Z 05001MPS 2200 HZ SKC 12/06 Q1021 NOSIG
ZHHH,2003-11-14 15:00,ZHHH 141500Z 02003MPS 2200 HZ SKC 11/07 Q1022 NOSIG
ZHHH,2003-11-14 16:00,ZHHH 141600Z 00000MPS 2000 BR SKC 12/07 Q1022 NOSIG
ZHHH,2003-11-14 17:00,ZHHH 141700Z 03002MPS 2000 BR SKC 10/07 Q1022 NOSIG
ZHHH,2003-11-14 18:00,ZHHH 141800Z 00000MPS 1800 BR SKC 10/07 Q1022 NOSIG
ZHHH,2003-11-14 19:00,ZHHH 141900Z 34001MPS 1800 BR SKC 09/07 Q1022 NOSIG
ZHHH,2003-11-14 20:00,ZHHH 142000Z 00000MPS 1800 BR SKC 09/08 Q1022 NOSIG
ZHHH,2003-11-14 21:00,ZHHH 142100Z 35001MPS 1100 R04/1000N BR SKC 08/07 Q1022 NOSIG
ZHHH,2003-11-14 22:00,ZHHH 142200Z 00000MPS 1100 R04/1400U BR SKC 08/07 Q1023 NOSIG
ZHHH,2003-11-14 23:00,ZHHH 142300Z 05001MPS 1100 R04/1400U BR SKC 09/07 Q1023 NOSIG
ZHHH,2003-11-15 00:00,ZHHH 150000Z 35002MPS 1600 R04/1200U BR SKC 08/07 Q1024 NOSIG
ZHHH,2003-11-15 01:00,ZHHH 150100Z 36002MPS 1800 BR SKC 10/09 Q1024 NOSIG
ZHHH,2003-11-15 02:00,ZHHH 150200Z 01002MPS 3000 BR SKC 14/10 Q1025 NOSIG
ZHHH,2003-11-15 03:00,ZHHH 150300Z 02002MPS 3000 HZ SKC 17/10 Q1025 NOSIG
ZHHH,2003-11-15 04:00,ZHHH 150400Z 05005MPS 6000 SKC 18/09 Q1024 NOSIG
ZHHH,2003-11-15 05:00,ZHHH 150500Z 05005MPS 010V070 CAVOK 18/09 Q1023 NOSIG
ZHHH,2003-11-15 06:00,ZHHH 150600Z 04004MPS CAVOK 19/08 Q1022 NOSIG
ZHHH,2003-11-15 07:00,ZHHH 150700Z 05003MPS 020V090 6000 SKC 19/08 Q1021 NOSIG
ZHHH,2003-11-15 08:00,ZHHH 150800Z 05002MPS 5000 HZ SKC 19/08 Q1021 NOSIG
ZHHH,2003-11-15 09:00,ZHHH 150900Z 04002MPS 3500 HZ SKC 18/09 Q1021 NOSIG
ZHHH,2003-11-15 10:00,ZHHH 151000Z 05003MPS 3000 HZ SKC 16/09 Q1021 NOSIG
ZHHH,2003-11-15 11:00,ZHHH 151100Z 05003MPS 2000 HZ SKC 15/10 Q1022 NOSIG
ZHHH,2003-11-15 12:00,ZHHH 151200Z 04004MPS 1500 BR NSC 13/10 Q1022 NOSIG
ZHHH,2003-11-15 13:00,ZHHH 151300Z 04005MPS 1500 BR NSC 13/10 Q1023 NOSIG
ZHHH,2003-11-15 14:00,ZHHH 151400Z 03004MPS 1500 BR NSC 12/10 Q1023 NOSIG
ZHHH,2003-11-15 15:00,ZHHH 151500Z 04003MPS 1400 R04/P1500 BR NSC 12/10 Q1023 NOSIG
ZHHH,2003-11-15 16:00,ZHHH 151600Z 04002MPS 1400 R04/P1500 BR NSC 11/10 Q1023 NOSIG
ZHHH,2003-11-15 17:00,ZHHH 151700Z 34002MPS 1200 R04/1200N BR NSC 10/09 Q1023 NOSIG
ZHHH,2003-11-15 18:00,ZHHH 151800Z 32002MPS 0800 R04/0800N FG SKC 10/09 Q1023 NOSIG
ZHHH,2003-11-15 19:00,ZHHH 151900Z 00000MPS 0800 R04/0800N FG SKC 09/09 Q1023 NOSIG
ZHHH,2003-11-15 20:00,ZHHH 152000Z 32001MPS 0600 R04/0800N FG SKC 09/09 Q1023 NOSIG
ZHHH,2003-11-15 21:00,ZHHH 152100Z 29001MPS 0600 R04/0800N FG SKC 09/08 Q1024 NOSIG
ZHHH,2003-11-15 22:00,ZHHH 152200Z 29002MPS 0500 R04/0400D FG SKC 09/09 Q1024 NOSIG
ZHHH,2003-11-15 23:00,ZHHH 152300Z 30002MPS 0200 R04/0050D FG SKC 09/08 Q1024 NOSIG
ZHHH,2003-11-16 00:00,ZHHH 160000Z 00000MPS 0400 R04/0150U FG SKC 09/09 Q1025 NOSIG
ZHHH,2003-11-16 01:00,ZHHH 160100Z 07001MPS 0500 R04/0500U FG SKC 10/10 Q1025 NOSIG
ZHHH,2003-11-16 02:00,ZHHH 160200Z 06003MPS 0800 R04/0700N FG SKC 12/11 Q1026 NOSIG
ZHHH,2003-11-16 03:00,ZHHH 160300Z 06003MPS 010V110 1200 R04/1000N BR SKC 14/11 Q1026 NOSIG
ZHHH,2003-11-16 04:00,ZHHH 160400Z 04002MPS 1200 R04/1200N BR SKC 15/11 Q1025 NOSIG
ZHHH,2003-11-16 05:00,ZHHH 160500Z 05003MPS 360V090 1400 R04/1400N BR SKC 16/11 Q1024 NOSIG
ZHHH,2003-11-16 06:00,ZHHH 160600Z 06003MPS 020V100 1600 HZ SKC 17/10 Q1023 NOSIG
ZHHH,2003-11-16 07:00,ZHHH 160700Z 04003MPS 010V070 2100 HZ SKC 17/11 Q1022 NOSIG
ZHHH,2003-11-16 08:00,ZHHH 160800Z 04005MPS 2100 HZ SKC 16/11 Q1022 NOSIG
ZHHH,2003-11-16 09:00,ZHHH 160900Z 05004MPS 2100 HZ SKC 15/11 Q1023 NOSIG
ZHHH,2003-11-16 10:00,ZHHH 161000Z 04004MPS 3000 HZ NSC 14/09 Q1023 NOSIG
ZHHH,2003-11-16 11:00,ZHHH 161100Z 03004MPS 360V060 3000 HZ NSC 14/08 Q1023 NOSIG
ZHHH,2003-11-16 12:00,ZHHH 161200Z 03004MPS 3000 HZ NSC 13/07 Q1023 NOSIG
ZHHH,2003-11-16 13:00,ZHHH 161300Z 03004MPS 360V080 2000 HZ NSC 13/06 Q1024 NOSIG
ZHHH,2003-11-16 14:00,ZHHH 161400Z 02004MPS 3000 HZ NSC 12/06 Q1024 NOSIG
ZHHH,2003-11-16 15:00,ZHHH 161500Z 01003MPS 4000 HZ NSC 12/06 Q1025 NOSIG
ZHHH,2003-11-16 16:00,ZHHH 161600Z 04004MPS 4000 HZ NSC 12/06 Q1025 NOSIG
ZHHH,2003-11-16 17:00,ZHHH 161700Z 02003MPS 4000 HZ NSC 11/06 Q1025 NOSIG
ZHHH,2003-11-16 18:00,ZHHH 161800Z 02003MPS 350V050 4000 HZ NSC 11/07 Q1024 NOSIG
ZHHH,2003-11-16 19:00,ZHHH 161900Z 03002MPS 4000 HZ NSC 11/07 Q1024 NOSIG
ZHHH,2003-11-16 20:00,ZHHH 162000Z 03003MPS 3000 HZ NSC 10/06 Q1024 NOSIG
ZHHH,2003-11-16 21:00,ZHHH 162100Z 02002MPS 2000 BR NSC 10/06 Q1024 NOSIG
ZHHH,2003-11-16 22:00,ZHHH 162200Z 06001MPS 2000 BR NSC 09/06 Q1024 NOSIG
ZHHH,2003-11-16 23:00,ZHHH 162300Z 04002MPS 7000 NSC 09/06 Q1025 NOSIG
ZHHH,2003-11-17 00:00,ZHHH 170000Z 06002MPS 7000 SKC 09/06 Q1025 NOSIG
ZHHH,2003-11-17 01:00,ZHHH 170100Z 05003MPS 7000 SKC 10/07 Q1025 NOSIG
ZHHH,2003-11-17 02:00,ZHHH 170200Z 07003MPS 040V100 CAVOK 12/08 Q1025 NOSIG
ZHHH,2003-11-17 03:00,ZHHH 170300Z 06003MPS 020V080 CAVOK 13/07 Q1024 NOSIG
ZHHH,2003-11-17 04:00,ZHHH 170400Z 06002MPS CAVOK 14/08 Q1023 NOSIG
ZHHH,2003-11-17 05:00,ZHHH 170500Z 07002MPS CAVOK 16/07 Q1022 NOSIG
ZHHH,2003-11-17 06:00,ZHHH 170600Z 02002MPS CAVOK 16/08 Q1021 NOSIG
ZHHH,2003-11-17 07:00,ZHHH 170700Z 04003MPS 010V070 CAVOK 16/07 Q1021 NOSIG
ZHHH,2003-11-17 08:00,ZHHH 170800Z 04003MPS CAVOK 16/08 Q1020 NOSIG
ZHHH,2003-11-17 09:00,ZHHH 170900Z 06002MPS CAVOK 16/09 Q1020 NOSIG
ZHHH,2003-11-17 10:00,ZHHH 171000Z 07003MPS CAVOK 14/09 Q1020 NOSIG
ZHHH,2003-11-17 11:00,ZHHH 171100Z 04004MPS CAVOK 13/09 Q1020 NOSIG
ZHHH,2003-11-17 12:00,ZHHH 171200Z 04004MPS CAVOK 12/09 Q1021 NOSIG
ZHHH,2003-11-17 13:00,ZHHH 171300Z 04004MPS CAVOK 11/08 Q1021 NOSIG
ZHHH,2003-11-17 14:00,ZHHH 171400Z 05004MPS CAVOK 10/08 Q1021 NOSIG
ZHHH,2003-11-17 15:00,ZHHH 171500Z 03003MPS CAVOK 10/08 Q1021 NOSIG
ZHHH,2003-11-17 16:00,ZHHH 171600Z 04003MPS CAVOK 11/08 Q1021 NOSIG
ZHHH,2003-11-17 17:00,ZHHH 171700Z 04001MPS CAVOK 10/08 Q1021 NOSIG
ZHHH,2003-11-17 18:00,ZHHH 171800Z 35001MPS CAVOK 10/08 Q1021 NOSIG
ZHHH,2003-11-17 19:00,ZHHH 171900Z 01001MPS CAVOK 10/09 Q1020 NOSIG
ZHHH,2003-11-17 20:00,ZHHH 172000Z 06001MPS 4000 BR NSC 10/09 Q1019 NOSIG
ZHHH,2003-11-17 21:00,ZHHH 172100Z 34001MPS 3000 BR NSC 11/09 Q1019 NOSIG
ZHHH,2003-11-17 22:00,ZHHH 172200Z 34001MPS 3000 BR NSC 10/09 Q1019 NOSIG
ZHHH,2003-11-17 23:00,ZHHH 172300Z 08001MPS 2500 BR NSC 10/09 Q1019 NOSIG
ZHHH,2003-11-18 00:00,ZHHH 180000Z 12002MPS 1800 -RA BR SCT040 OVC080 11/09 Q1020 NOSIG
ZHHH,2003-11-18 01:00,ZHHH 180100Z 05002MPS 1100 R04/0900D -RA BR SCT020 OVC040 10/09 Q1020 NOSIG
ZHHH,2003-11-18 02:00,ZHHH 180200Z 08003MPS 1200 R04/1100N BR FEW020 OVC040 10/10 Q1020 NOSIG
ZHHH,2003-11-18 03:00,ZHHH 180300Z 05002MPS 1200 R04/1000N -RA BR FEW006 OVC040 10/10 Q1020 NOSIG
ZHHH,2003-11-18 04:00,ZHHH 180400Z 03002MPS 1000 R04/0800N -DZ BR SCT006 OVC040 11/11 Q1019 NOSIG
ZHHH,2003-11-18 05:00,ZHHH 180500Z 06003MPS 020V090 1000 R04/0900N -RA BR SCT006 OVC040 11/10 Q1018 NOSIG
ZHHH,2003-11-18 06:00,ZHHH 180600Z 05003MPS 1000 R04/1000U -RA BR SCT006 OVC040 11/11 Q1017 NOSIG
ZHHH,2003-11-18 07:00,ZHHH 180700Z 06002MPS 1000 R04/0900N BR SCT006 OVC040 11/11 Q1017 NOSIG
ZHHH,2003-11-18 08:00,ZHHH 180800Z 05003MPS 1200 R04/1000U BR SCT006 OVC040 11/11 Q1016 NOSIG
ZHHH,2003-11-18 09:00,ZHHH 180900Z 05002MPS 1300 R04/1400U BR SCT006 OVC040 11/11 Q1017 NOSIG
ZHHH,2003-11-18 10:00,ZHHH 181000Z 04003MPS 1400 R04/P1500 BR SCT006 OVC040 11/11 Q1017 NOSIG
ZHHH,2003-11-18 11:00,ZHHH 181100Z 05004MPS 1800 BR SCT006 OVC040 11/11 Q1017 NOSIG
ZHHH,2003-11-18 12:00,ZHHH 181200Z 06003MPS 1800 BR SCT010 OVC040 11/10 Q1017 NOSIG
ZHHH,2003-11-18 13:00,ZHHH 181300Z 05003MPS 1800 -RA BR SCT020 OVC040 11/10 Q1017 NOSIG
ZHHH,2003-11-18 14:00,ZHHH 181400Z 02003MPS 350V050 1600 R04/1400N -RA BR FEW020 OVC040 10/10 Q1018 NOSIG
ZHHH,2003-11-18 15:00,ZHHH 181500Z 04003MPS 1600 R04/1400N -RA BR FEW006 OVC040 10/10 Q1017 NOSIG
ZHHH,2003-11-18 16:00,ZHHH 181600Z 05003MPS 1600 -RA BR FEW006 OVC040 10/10 Q1017 NOSIG
ZHHH,2003-11-18 17:00,ZHHH 181700Z 02002MPS 1800 BR SCT006 OVC040 10/10 Q1017 NOSIG
ZHHH,2003-11-18 18:00,ZHHH 181800Z 36002MPS 1500 R04/1200N -RA BR SCT006 OVC040 10/10 Q1017 NOSIG
ZHHH,2003-11-18 19:00,ZHHH 181900Z 00000MPS 1500 R04/1400U -RA BR SCT006 OVC040 10/10 Q1016 NOSIG
ZHHH,2003-11-18 20:00,ZHHH 182000Z 32001MPS 1500 R04/1400D -RA BR SCT006 OVC040 10/10 Q1016 NOSIG
ZHHH,2003-11-18 21:00,ZHHH 182100Z 34003MPS 1500 R04/1400D -RA BR SCT006 OVC040 10/10 Q1016 NOSIG
ZHHH,2003-11-18 22:00,ZHHH 182200Z 34002MPS 1500 -RA BR SCT005 OVC040 10/10 Q1016 NOSIG
ZHHH,2003-11-18 23:00,ZHHH 182300Z 00000MPS 1500 -RA BR SCT005 OVC040 10/10 Q1016 NOSIG
ZHHH,2003-11-19 00:00,ZHHH 190000Z 33002MPS 1200 R04/1000N -RA BR SCT006 OVC040 10/10 Q1017 NOSIG
ZHHH,2003-11-19 01:00,ZHHH 190100Z 00000MPS 1400 R04/1400N -RA BR SCT005 SCT010 OVC033 11/11 Q1018 NOSIG
ZHHH,2003-11-19 02:00,ZHHH 190200Z 31001MPS 2000 BR SCT010 OVC040 11/11 Q1018 NOSIG
ZHHH,2003-11-19 03:00,ZHHH 190300Z 31002MPS 2300 BR SCT010 SCT015 OVC040 11/11 Q1018 NOSIG
ZHHH,2003-11-19 04:00,ZHHH 190400Z 34001MPS 3000 BR SCT010 OVC040 12/12 Q1017 NOSIG
ZHHH,2003-11-19 05:00,ZHHH 190500Z 30001MPS 3000 BR SCT010 OVC040 12/12 Q1016 NOSIG
ZHHH,2003-11-19 06:00,ZHHH 190600Z 34003MPS 3000 BR SCT015 OVC040 12/12 Q1015 NOSIG
ZHHH,2003-11-19 07:00,ZHHH 190700Z 02002MPS 2500 BR SCT015 OVC040 12/12 Q1015 NOSIG
ZHHH,2003-11-19 08:00,ZHHH 190800Z 03003MPS 2500 BR SCT015 OVC040 12/11 Q1015 NOSIG
ZHHH,2003-11-19 09:00,ZHHH 190900Z 04003MPS 3000 BR SCT015 OVC040 11/10 Q1016 NOSIG
ZHHH,2003-11-19 10:00,ZHHH 191000Z 03004MPS 2500 BR SCT015 OVC040 11/10 Q1016 NOSIG
ZHHH,2003-11-19 11:00,ZHHH 191100Z 03004MPS 360V080 3000 BR SCT015 OVC050 10/09 Q1016 NOSIG
ZHHH,2003-11-19 12:00,ZHHH 191200Z 03005MPS 2500 -RA BR SCT005 OVC033 10/09 Q1016 NOSIG
ZHHH,2003-11-19 13:00,ZHHH 191300Z 03003MPS 360V060 1300 R04/1300N RA BR SCT005 OVC033 09/09 Q1017 NOSIG
ZHHH,2003-11-19 14:00,ZHHH 191400Z 32003MPS 270V360 0700 R04/0700N +RA SCT004 SCT006 OVC033 09/09 Q1018 NOSIG
ZHHH,2003-11-19 15:00,ZHHH 191500Z 02003MPS 350V050 1000 R04/1200N RA SCT004 SCT006 OVC033 09/09 Q1018 RERA NOSIG
ZHHH,2003-11-19 16:00,ZHHH 191600Z 34002MPS 1600 -RA BR SCT005 OVC033 09/09 Q1018 NOSIG
ZHHH,2003-11-19 17:00,ZHHH 191700Z 35003MPS 1700 -RA BR SCT005 OVC033 09/09 Q1018 NOSIG
ZHHH,2003-11-19 18:00,ZHHH 191800Z 34002MPS 3000 -RA BR SCT005 OVC033 08/08 Q1018 NOSIG
ZHHH,2003-11-19 19:00,ZHHH 191900Z 01003MPS 340V040 3000 -RA BR SCT005 OVC033 09/09 Q1019 NOSIG
ZHHH,2003-11-19 20:00,ZHHH 192000Z 32002MPS 3000 BR SCT010 OVC033 09/09 Q1018 NOSIG
ZHHH,2003-11-19 21:00,ZHHH 192100Z 34002MPS 3000 BR SCT010 OVC033 09/09 Q1018 NOSIG
ZHHH,2003-11-19 22:00,ZHHH 192200Z 28001MPS 3000 BR SCT010 OVC033 09/09 Q1019 NOSIG
ZHHH,2003-11-19 23:00,ZHHH 192300Z 36002MPS 4000 BR SCT010 OVC033 09/09 Q1019 NOSIG
ZHHH,2003-11-20 00:00,ZHHH 200000Z 34003MPS 300V360 3000 BR SCT010 OVC033 10/09 Q1020 NOSIG
ZHHH,2003-11-20 01:00,ZHHH 200100Z 34002MPS 3000 BR SCT010 OVC033 10/10 Q1020 NOSIG
ZHHH,2003-11-20 02:00,ZHHH 200200Z 33002MPS 3000 BR SCT015 OVC050 11/10 Q1021 NOSIG
ZHHH,2003-11-20 03:00,ZHHH 200300Z 02003MPS 310V060 4000 BR FEW020 OVC050 11/10 Q1021 NOSIG
ZHHH,2003-11-20 04:00,ZHHH 200400Z 36004MPS 330V030 4000 BR SCT020 OVC040 12/09 Q1020 NOSIG
ZHHH,2003-11-20 05:00,ZHHH 200500Z 34002MPS 4000 BR SCT020 OVC040 12/10 Q1020 NOSIG
ZHHH,2003-11-20 06:00,ZHHH 200600Z 35002MPS 4000 BR SCT020 OVC040 12/10 Q1019 NOSIG
ZHHH,2003-11-20 07:00,ZHHH 200700Z 01003MPS 340V050 3000 BR FEW020 OVC050 12/09 Q1020 NOSIG
ZHHH,2003-11-20 08:00,ZHHH 200800Z 35003MPS 310V030 3000 BR NSC 13/09 Q1020 NOSIG
ZHHH,2003-11-20 09:00,ZHHH 200900Z 35002MPS 2500 BR NSC 12/10 Q1020 NOSIG
ZHHH,2003-11-20 10:00,ZHHH 201000Z 36002MPS 2500 BR NSC 12/09 Q1021 NOSIG
ZHHH,2003-11-20 11:00,ZHHH 201100Z 31001MPS 1800 BR NSC 11/09 Q1021 NOSIG
ZHHH,2003-11-20 12:00,ZHHH 201200Z 34002MPS 1800 BR NSC 10/09 Q1022 NOSIG
ZHHH,2003-11-20 13:00,ZHHH 201300Z 00000MPS 1600 BR NSC 10/10 Q1023 NOSIG
ZHHH,2003-11-20 14:00,ZHHH 201400Z 34003MPS 1600 BR NSC 11/10 Q1024 NOSIG
ZHHH,2003-11-20 15:00,ZHHH 201500Z 35002MPS 1800 BR NSC 11/09 Q1025 NOSIG
ZHHH,2003-11-20 16:00,ZHHH 201600Z 29002MPS 1600 BR NSC 11/09 Q1026 NOSIG
ZHHH,2003-11-20 17:00,ZHHH 201700Z 33002MPS 2000 BR NSC 10/09 Q1026 NOSIG
ZHHH,2003-11-20 18:00,ZHHH 201800Z 03004MPS 2000 BR NSC 11/08 Q1026 NOSIG
ZHHH,2003-11-20 19:00,ZHHH 201900Z 03004MPS 2000 BR NSC 11/06 Q1026 NOSIG
ZHHH,2003-11-20 20:00,ZHHH 202000Z 02004MPS 000V060 3000 HZ NSC 10/05 Q1025 NOSIG
ZHHH,2003-11-20 21:00,ZHHH 202100Z 02003MPS 350V050 5000 HZ NSC 09/04 Q1026 NOSIG
ZHHH,2003-11-20 22:00,ZHHH 202200Z 04004MPS 5000 HZ SKC 10/03 Q1027 NOSIG
ZHHH,2003-11-20 23:00,ZHHH 202300Z 05003MPS CAVOK 09/02 Q1028 NOSIG
ZHHH,2003-11-21 00:00,ZHHH 210000Z 04005MPS CAVOK 10/02 Q1029 NOSIG
ZHHH,2003-11-21 01:00,ZHHH 210100Z 04005MPS 000V060 CAVOK 11/02 Q1029 NOSIG
ZHHH,2003-11-21 02:00,ZHHH 210200Z 04008MPS CAVOK 12/01 Q1030 NOSIG
ZHHH,2003-11-21 03:00,ZHHH 210300Z 04008MPS CAVOK 11/01 Q1030 NOSIG
ZHHH,2003-11-21 04:00,ZHHH 210400Z 04006MPS 360V070 CAVOK 12/02 Q1030 NOSIG
ZHHH,2003-11-21 05:00,ZHHH 210500Z 04006MPS CAVOK 12/01 Q1030 NOSIG
ZHHH,2003-11-21 06:00,ZHHH 210600Z 03005MPS 360V060 CAVOK 13/00 Q1030 NOSIG
ZHHH,2003-11-21 07:00,ZHHH 210700Z 03005MPS 360V060 CAVOK 12/01 Q1029 NOSIG
ZHHH,2003-11-21 08:00,ZHHH 210800Z 03004MPS CAVOK 12/02 Q1030 NOSIG
ZHHH,2003-11-21 09:00,ZHHH 210900Z 03004MPS CAVOK 11/02 Q1030 NOSIG
ZHHH,2003-11-21 10:00,ZHHH 211000Z 01004MPS CAVOK 10/01 Q1031 NOSIG
ZHHH,2003-11-21 11:00,ZHHH 211100Z 04003MPS CAVOK 09/02 Q1031 NOSIG
ZHHH,2003-11-21 12:00,ZHHH 211200Z 01003MPS 340V040 CAVOK 08/02 Q1032 NOSIG
ZHHH,2003-11-21 13:00,ZHHH 211300Z 03003MPS CAVOK 07/01 Q1032 NOSIG
ZHHH,2003-11-21 14:00,ZHHH 211400Z 02004MPS CAVOK 06/01 Q1032 NOSIG
ZHHH,2003-11-21 15:00,ZHHH 211500Z 05002MPS CAVOK 06/01 Q1033 NOSIG
ZHHH,2003-11-21 16:00,ZHHH 211600Z 04002MPS CAVOK 06/01 Q1032 NOSIG
ZHHH,2003-11-21 17:00,ZHHH 211700Z 05003MPS CAVOK 05/01 Q1032 NOSIG
ZHHH,2003-11-21 18:00,ZHHH 211800Z 07003MPS CAVOK 04/01 Q1031 NOSIG
ZHHH,2003-11-21 19:00,ZHHH 211900Z 05004MPS CAVOK 05/M00 Q1031 NOSIG
ZHHH,2003-11-21 20:00,ZHHH 212000Z 04003MPS CAVOK 04/M00 Q1031 NOSIG
ZHHH,2003-11-21 21:00,ZHHH 212100Z AUTO 00000KT 9SM 05/00 A3043 RMK SLP308 T00500002 57007 IEM_DS3505
ZHHH,2003-11-21 22:00,ZHHH 212200Z 00000MPS CAVOK 04/M00 Q1030 NOSIG
ZHHH,2003-11-21 23:00,ZHHH 212300Z 06002MPS CAVOK 03/M00 Q1030 NOSIG
ZHHH,2003-11-22 00:00,ZHHH 220000Z 08002MPS CAVOK 04/00 Q1031 NOSIG
ZHHH,2003-11-22 01:00,ZHHH 220100Z 09002MPS CAVOK 05/01 Q1031 NOSIG
ZHHH,2003-11-22 02:00,ZHHH 220200Z 09003MPS CAVOK 07/01 Q1031 NOSIG
ZHHH,2003-11-22 03:00,ZHHH 220300Z 12003MPS 100V170 CAVOK 09/03 Q1031 NOSIG
ZHHH,2003-11-22 04:00,ZHHH 220400Z 14004MPS 100V180 CAVOK 10/03 Q1030 NOSIG
ZHHH,2003-11-22 05:00,ZHHH 220500Z 15003MPS CAVOK 11/04 Q1029 NOSIG
ZHHH,2003-11-22 06:00,ZHHH 220600Z 15003MPS 100V180 CAVOK 13/05 Q1027 NOSIG
ZHHH,2003-11-22 07:00,ZHHH 220700Z 14003MPS 100V170 CAVOK 13/04 Q1027 NOSIG
ZHHH,2003-11-22 08:00,ZHHH 220800Z 15003MPS CAVOK 13/04 Q1026 NOSIG
ZHHH,2003-11-22 09:00,ZHHH 220900Z 11003MPS CAVOK 12/05 Q1026 NOSIG
ZHHH,2003-11-22 10:00,ZHHH 221000Z 10002MPS CAVOK 10/05 Q1026 NOSIG
ZHHH,2003-11-22 11:00,ZHHH 221100Z 09002MPS CAVOK 09/05 Q1026 NOSIG
ZHHH,2003-11-22 12:00,ZHHH 221200Z 08002MPS CAVOK 09/05 Q1026 NOSIG
ZHHH,2003-11-22 13:00,ZHHH 221300Z 08003MPS CAVOK 08/05 Q1027 NOSIG
ZHHH,2003-11-22 14:00,ZHHH 221400Z 10003MPS CAVOK 08/05 Q1027 NOSIG
ZHHH,2003-11-22 15:00,ZHHH 221500Z 10003MPS CAVOK 08/05 Q1028 NOSIG
ZHHH,2003-11-22 16:00,ZHHH 221600Z 07002MPS CAVOK 07/05 Q1028 NOSIG
ZHHH,2003-11-22 17:00,ZHHH 221700Z 08003MPS CAVOK 07/05 Q1028 NOSIG
ZHHH,2003-11-22 18:00,ZHHH 221800Z 12003MPS CAVOK 06/05 Q1027 NOSIG
ZHHH,2003-11-22 19:00,ZHHH 221900Z 10004MPS CAVOK 06/05 Q1026 NOSIG
ZHHH,2003-11-22 20:00,ZHHH 222000Z 10004MPS CAVOK 06/04 Q1026 NOSIG
ZHHH,2003-11-22 21:00,ZHHH 222100Z 08003MPS CAVOK 06/04 Q1027 NOSIG
ZHHH,2003-11-22 22:00,ZHHH 222200Z 09003MPS CAVOK 06/04 Q1026 NOSIG
ZHHH,2003-11-22 23:00,ZHHH 222300Z 10003MPS 4000 BR NSC 05/04 Q1026 NOSIG
ZHHH,2003-11-23 00:00,ZHHH 230000Z 10003MPS 5000 BR NSC 06/04 Q1027 NOSIG
ZHHH,2003-11-23 01:00,ZHHH 230100Z 11005MPS 7000 SKC 08/05 Q1027 NOSIG
ZHHH,2003-11-23 02:00,ZHHH 230200Z 12004MPS CAVOK 10/06 Q1027 NOSIG
ZHHH,2003-11-23 03:00,ZHHH 230300Z 13004MPS CAVOK 12/06 Q1027 NOSIG
ZHHH,2003-11-23 04:00,ZHHH 230400Z 14003MPS 110V170 CAVOK 13/06 Q1026 NOSIG
ZHHH,2003-11-23 05:00,ZHHH 230500Z 16002MPS CAVOK 15/07 Q1025 NOSIG
ZHHH,2003-11-23 06:00,ZHHH 230600Z 13002MPS CAVOK 15/07 Q1024 NOSIG
ZHHH,2003-11-23 07:00,ZHHH 230700Z 17002MPS CAVOK 15/06 Q1023 NOSIG
ZHHH,2003-11-23 08:00,ZHHH 230800Z 14003MPS CAVOK 16/06 Q1023 NOSIG
ZHHH,2003-11-23 09:00,ZHHH 230900Z 11002MPS CAVOK 15/07 Q1022 NOSIG
ZHHH,2003-11-23 10:00,ZHHH 231000Z 04002MPS 4000 HZ SKC 13/08 Q1023 NOSIG
ZHHH,2003-11-23 11:00,ZHHH 231100Z 06002MPS 4000 HZ SKC 12/09 Q1023 NOSIG
ZHHH,2003-11-23 12:00,ZHHH 231200Z 05002MPS 3500 BR SKC 12/08 Q1024 NOSIG
ZHHH,2003-11-23 13:00,ZHHH 231300Z 08002MPS 4000 BR SKC 12/08 Q1024 NOSIG
ZHHH,2003-11-23 14:00,ZHHH 231400Z 03003MPS 3000 BR NSC 11/08 Q1024 NOSIG
ZHHH,2003-11-23 15:00,ZHHH 231500Z 05002MPS 3000 BR NSC 11/08 Q1025 NOSIG
ZHHH,2003-11-23 16:00,ZHHH 231600Z 03002MPS 3000 BR NSC 11/08 Q1025 NOSIG
ZHHH,2003-11-23 17:00,ZHHH 231700Z 04002MPS 3000 BR NSC 10/08 Q1025 NOSIG
ZHHH,2003-11-23 18:00,ZHHH 231800Z 01002MPS 3000 BR NSC 11/08 Q1024 NOSIG
ZHHH,2003-11-23 19:00,ZHHH 231900Z 05001MPS 4000 BR NSC 11/08 Q1024 NOSIG
ZHHH,2003-11-23 20:00,ZHHH 232000Z 10002MPS 3000 BR NSC 10/08 Q1024 NOSIG
ZHHH,2003-11-23 21:00,ZHHH 232100Z 15001MPS 3000 BR NSC 10/08 Q1024 NOSIG
ZHHH,2003-11-23 22:00,ZHHH 232200Z 32002MPS 3000 BR NSC 10/09 Q1025 NOSIG
ZHHH,2003-11-23 23:00,ZHHH 232300Z 34002MPS 3000 BR NSC 10/09 Q1025 NOSIG
ZHHH,2003-11-24 00:00,ZHHH 240000Z 35003MPS 2000 BR NSC 10/09 Q1026 NOSIG
ZHHH,2003-11-24 01:00,ZHHH 240100Z 34002MPS 2000 BR NSC 11/09 Q1027 NOSIG
ZHHH,2003-11-24 02:00,ZHHH 240200Z 03002MPS 3000 BR NSC 12/10 Q1027 NOSIG
ZHHH,2003-11-24 03:00,ZHHH 240300Z 05002MPS 4000 HZ NSC 14/09 Q1027 NOSIG
ZHHH,2003-11-24 04:00,ZHHH 240400Z 34002MPS 3000 BR NSC 14/10 Q1026 NOSIG
ZHHH,2003-11-24 05:00,ZHHH 240500Z 33003MPS 290V020 4000 HZ SKC 16/10 Q1026 NOSIG
ZHHH,2003-11-24 06:00,ZHHH 240600Z 29002MPS 5000 HZ SKC 17/10 Q1025 NOSIG
ZHHH,2003-11-24 07:00,ZHHH 240700Z 32003MPS 280V010 5000 HZ SKC 18/09 Q1025 NOSIG
ZHHH,2003-11-24 08:00,ZHHH 240800Z 32002MPS 6000 SKC 17/09 Q1025 NOSIG
ZHHH,2003-11-24 09:00,ZHHH 240900Z 35002MPS 5000 HZ SKC 16/10 Q1025 NOSIG
ZHHH,2003-11-24 10:00,ZHHH 241000Z 04003MPS CAVOK 14/10 Q1026 NOSIG
ZHHH,2003-11-24 11:00,ZHHH 241100Z 05004MPS CAVOK 13/09 Q1027 NOSIG
ZHHH,2003-11-24 12:00,ZHHH 241200Z 02002MPS CAVOK 12/08 Q1028 NOSIG
ZHHH,2003-11-24 13:00,ZHHH 241300Z 03003MPS CAVOK 12/08 Q1029 NOSIG
ZHHH,2003-11-24 14:00,ZHHH 241400Z 04004MPS CAVOK 12/08 Q1029 NOSIG
ZHHH,2003-11-24 15:00,ZHHH 241500Z 04004MPS CAVOK 11/08 Q1029 NOSIG
ZHHH,2003-11-24 16:00,ZHHH 241600Z AUTO 06006KT 6SM 11/08 A3039 RMK SLP295 T01100080 IEM_DS3505
ZHHH,2003-11-24 17:00,ZHHH 241700Z 08002MPS CAVOK 10/08 Q1029 NOSIG
ZHHH,2003-11-24 18:00,ZHHH 241800Z 36002MPS CAVOK 09/07 Q1030 NOSIG
ZHHH,2003-11-24 19:00,ZHHH 241900Z 03004MPS CAVOK 10/08 Q1030 NOSIG
ZHHH,2003-11-24 20:00,ZHHH 242000Z 03004MPS CAVOK 09/07 Q1029 NOSIG
ZHHH,2003-11-24 21:00,ZHHH 242100Z 03004MPS 6000 SKC 09/07 Q1029 NOSIG
ZHHH,2003-11-24 22:00,ZHHH 242200Z 03004MPS 5000 BR SKC 09/07 Q1029 NOSIG
ZHHH,2003-11-24 23:00,ZHHH 242300Z AUTO 04006KT 1 1/4SM 08/07 A3039 RMK SLP295 T00800070 IEM_DS3505
ZHHH,2003-11-25 00:00,ZHHH 250000Z 04003MPS 1100 R04/0900D BR SKC 09/07 Q1030 NOSIG
ZHHH,2003-11-25 01:00,ZHHH 250100Z 07003MPS 1300 R04/1000N BR SKC 10/08 Q1030 NOSIG
ZHHH,2003-11-25 02:00,ZHHH 250200Z 05005MPS 1600 R04/1200U BR SKC 12/08 Q1031 NOSIG
ZHHH,2003-11-25 03:00,ZHHH 250300Z 06004MPS 2000 BR NSC 13/09 Q1031 NOSIG
ZHHH,2003-11-25 04:00,ZHHH 250400Z 07003MPS 000V100 3000 HZ SKC 15/08 Q1030 NOSIG
ZHHH,2003-11-25 05:00,ZHHH 250500Z 04003MPS 350V080 3000 HZ SKC 16/09 Q1029 NOSIG
ZHHH,2003-11-25 06:00,ZHHH 250600Z 08005MPS 040V110 3500 HZ SKC 17/08 Q1027 NOSIG
ZHHH,2003-11-25 07:00,ZHHH 250700Z 05004MPS 4000 HZ SKC 17/09 Q1027 NOSIG
ZHHH,2003-11-25 08:00,ZHHH 250800Z 04004MPS 360V070 4000 HZ SKC 16/10 Q1026 NOSIG
ZHHH,2003-11-25 09:00,ZHHH 250900Z 04004MPS 3000 HZ SKC 15/10 Q1026 NOSIG
ZHHH,2003-11-25 10:00,ZHHH 251000Z 03004MPS 3000 BR SKC 13/10 Q1027 NOSIG
ZHHH,2003-11-25 11:00,ZHHH 251100Z 03004MPS 3000 BR SKC 13/10 Q1027 NOSIG
ZHHH,2003-11-25 12:00,ZHHH 251200Z 04003MPS 2600 BR NSC 12/09 Q1027 NOSIG
ZHHH,2003-11-25 13:00,ZHHH 251300Z 05004MPS 3000 BR NSC 11/09 Q1027 NOSIG
ZHHH,2003-11-25 14:00,ZHHH 251400Z 05003MPS 3000 BR NSC 11/08 Q1028 NOSIG
ZHHH,2003-11-25 15:00,ZHHH 251500Z 05002MPS 3000 BR NSC 11/08 Q1028 NOSIG
ZHHH,2003-11-25 16:00,ZHHH 251600Z 03003MPS 3000 BR NSC 11/08 Q1028 NOSIG
ZHHH,2003-11-25 17:00,ZHHH 251700Z 02003MPS 3000 BR NSC 11/08 Q1029 NOSIG
ZHHH,2003-11-25 18:00,ZHHH 251800Z 35002MPS 4000 BR NSC 11/09 Q1029 NOSIG
ZHHH,2003-11-25 19:00,ZHHH 251900Z 02003MPS 4000 BR NSC 10/09 Q1029 NOSIG
ZHHH,2003-11-25 20:00,ZHHH 252000Z 04004MPS 4000 BR NSC 10/08 Q1028 NOSIG
ZHHH,2003-11-25 21:00,ZHHH 252100Z 03006MPS 3000 BR NSC 10/08 Q1028 NOSIG
ZHHH,2003-11-25 22:00,ZHHH 252200Z 03005MPS 2000 BR NSC 10/08 Q1028 NOSIG
ZHHH,2003-11-25 23:00,ZHHH 252300Z 01005MPS 2000 BR NSC 09/08 Q1029 NOSIG
ZHHH,2003-11-26 00:00,ZHHH 260000Z 02005MPS 1600 -RA BR NSC 10/08 Q1030 NOSIG
ZHHH,2003-11-26 01:00,ZHHH 260100Z 36004MPS 1600 R04/1200N -RA BR SCT010 OVC050 10/08 Q1031 NOSIG
ZHHH,2003-11-26 02:00,ZHHH 260200Z 36004MPS 1000 R04/0900N -RA BR SCT010 OVC050 09/08 Q1031 NOSIG
ZHHH,2003-11-26 03:00,ZHHH 260300Z 35004MPS 1000 R04/0900N -RA BR SCT010 OVC050 09/09 Q1031 NOSIG
ZHHH,2003-11-26 04:00,ZHHH 260400Z 35005MPS 1200 R04/1200U -RA BR FEW005 SCT008 OVC050 09/09 Q1030 NOSIG
ZHHH,2003-11-26 05:00,ZHHH 260500Z 36004MPS 1200 R04/1200N -RA BR FEW004 SCT007 OVC050 09/08 Q1029 NOSIG
ZHHH,2003-11-26 06:00,ZHHH 260600Z 01004MPS 1400 R04/1400U -RA BR FEW003 SCT005 OVC050 09/09 Q1029 NOSIG
ZHHH,2003-11-26 07:00,ZHHH 260700Z 02005MPS 1800 -RA BR FEW006 SCT009 OVC050 09/08 Q1029 NOSIG
ZHHH,2003-11-26 08:00,ZHHH 260800Z 02004MPS 2400 BR SCT010 OVC040 09/08 Q1029 NOSIG
ZHHH,2003-11-26 09:00,ZHHH 260900Z 02005MPS 2400 BR SCT010 OVC040 09/07 Q1029 NOSIG
ZHHH,2003-11-26 10:00,ZHHH 261000Z 01004MPS 3000 -RA BR SCT010 OVC050 09/07 Q1030 NOSIG
ZHHH,2003-11-26 11:00,ZHHH 261100Z 02004MPS 3000 BR SCT010 OVC040 09/07 Q1030 NOSIG
ZHHH,2003-11-26 12:00,ZHHH 261200Z 03005MPS 4000 BR SCT010 OVC040 09/07 Q1030 NOSIG
ZHHH,2003-11-26 13:00,ZHHH 261300Z 03004MPS 360V060 4000 BR OVC040 09/07 Q1030 NOSIG
ZHHH,2003-11-26 14:00,ZHHH 261400Z 03004MPS 360V060 6000 NSC 09/07 Q1030 NOSIG
ZHHH,2003-11-26 15:00,ZHHH 261500Z 03004MPS 6000 NSC 08/07 Q1030 NOSIG
ZHHH,2003-11-26 16:00,ZHHH 261600Z 03004MPS 360V060 6000 NSC 08/07 Q1030 NOSIG
ZHHH,2003-11-26 17:00,ZHHH 261700Z 04004MPS 6000 NSC 08/07 Q1030 NOSIG
ZHHH,2003-11-26 18:00,ZHHH 261800Z 02004MPS 360V060 6000 NSC 08/07 Q1030 NOSIG
ZHHH,2003-11-26 19:00,ZHHH 261900Z 03003MPS 7000 NSC 08/06 Q1030 NOSIG
ZHHH,2003-11-26 20:00,ZHHH 262000Z 02004MPS 7000 NSC 07/06 Q1030 NOSIG
ZHHH,2003-11-26 21:00,ZHHH 262100Z 03004MPS 7000 SKC 07/05 Q1029 NOSIG
ZHHH,2003-11-26 22:00,ZHHH 262200Z 03005MPS 3000 BR SKC 06/05 Q1029 NOSIG
ZHHH,2003-11-26 23:00,ZHHH 262300Z 03005MPS 2000 BR SKC 06/05 Q1030 NOSIG
ZHHH,2003-11-27 00:00,ZHHH 270000Z 04005MPS 1700 BR SKC 06/05 Q1030 NOSIG
ZHHH,2003-11-27 01:00,ZHHH 270100Z 04005MPS 2000 BR SKC 08/05 Q1030 NOSIG
ZHHH,2003-11-27 02:00,ZHHH 270200Z 04004MPS 2500 BR NSC 09/05 Q1031 NOSIG
ZHHH,2003-11-27 03:00,ZHHH 270300Z 04005MPS 3000 BR NSC 10/06 Q1031 NOSIG
ZHHH,2003-11-27 04:00,ZHHH 270400Z 06005MPS 3000 HZ NSC 10/05 Q1030 NOSIG
ZHHH,2003-11-27 05:00,ZHHH 270500Z 04005MPS 4000 HZ NSC 11/06 Q1029 NOSIG
ZHHH,2003-11-27 06:00,ZHHH 270600Z 05004MPS 4000 HZ NSC 10/05 Q1028 NOSIG
ZHHH,2003-11-27 07:00,ZHHH 270700Z 04004MPS 4000 HZ NSC 10/05 Q1027 NOSIG
ZHHH,2003-11-27 08:00,ZHHH 270800Z 04004MPS 350V070 4000 HZ NSC 10/05 Q1027 NOSIG
ZHHH,2003-11-27 09:00,ZHHH 270900Z 03003MPS 2500 HZ NSC 10/06 Q1027 NOSIG
ZHHH,2003-11-27 10:00,ZHHH 271000Z 03003MPS 2500 BR NSC 09/06 Q1028 NOSIG
ZHHH,2003-11-27 11:00,ZHHH 271100Z 03004MPS 2500 BR NSC 09/06 Q1028 NOSIG
ZHHH,2003-11-27 12:00,ZHHH 271200Z 04005MPS 2500 BR NSC 08/06 Q1028 NOSIG
ZHHH,2003-11-27 13:00,ZHHH 271300Z 04005MPS 2500 BR NSC 08/05 Q1028 NOSIG
ZHHH,2003-11-27 14:00,ZHHH 271400Z 04004MPS 2000 BR SCT040 OVC100 07/05 Q1029 NOSIG
ZHHH,2003-11-27 15:00,ZHHH 271500Z 04004MPS 2000 BR SCT040 OVC100 07/05 Q1029 NOSIG
ZHHH,2003-11-27 16:00,ZHHH 271600Z 03004MPS 360V060 2000 BR SCT040 OVC100 07/05 Q1029 NOSIG
ZHHH,2003-11-27 17:00,ZHHH 271700Z 02004MPS 2000 BR SCT040 OVC060 07/05 Q1029 NOSIG
ZHHH,2003-11-27 18:00,ZHHH 271800Z 03004MPS 2000 BR SCT040 OVC060 07/05 Q1029 NOSIG
ZHHH,2003-11-27 19:00,ZHHH 271900Z 01004MPS 2000 BR SCT040 OVC060 07/05 Q1029 NOSIG
ZHHH,2003-11-27 20:00,ZHHH 272000Z 01003MPS 2000 BR SCT040 OVC060 07/05 Q1029 NOSIG
ZHHH,2003-11-27 21:00,ZHHH 272100Z 34002MPS 4000 BR NSC 06/05 Q1029 NOSIG
ZHHH,2003-11-27 22:00,ZHHH 272200Z 34002MPS 4000 BR NSC 06/05 Q1029 NOSIG
ZHHH,2003-11-27 23:00,ZHHH 272300Z 03002MPS 2500 BR NSC 06/05 Q1029 NOSIG
ZHHH,2003-11-28 00:00,ZHHH 280000Z 04003MPS 1600 BR NSC 07/05 Q1029 NOSIG
ZHHH,2003-11-28 01:00,ZHHH 280100Z 04003MPS 1800 BR NSC 07/05 Q1030 NOSIG
ZHHH,2003-11-28 02:00,ZHHH 280200Z 01003MPS 2100 BR NSC 07/05 Q1031 NOSIG
ZHHH,2003-11-28 03:00,ZHHH 280300Z 32003MPS 280V350 1800 BR SCT013 OVC050 08/05 Q1031 NOSIG
ZHHH,2003-11-28 04:00,ZHHH 280400Z 33004MPS 290V360 3000 BR SCT013 OVC050 08/05 Q1030 NOSIG
ZHHH,2003-11-28 05:00,ZHHH 280500Z 34004MPS 300V020 3000 BR NSC 08/05 Q1029 NOSIG
ZHHH,2003-11-28 06:00,ZHHH 280600Z 34004MPS 320V020 3000 BR NSC 08/05 Q1028 NOSIG
ZHHH,2003-11-28 07:00,ZHHH 280700Z 33004MPS 290V360 3000 BR NSC 08/05 Q1028 NOSIG
ZHHH,2003-11-28 08:00,ZHHH 280800Z 33005MPS 4000 BR NSC 08/05 Q1028 NOSIG
ZHHH,2003-11-28 09:00,ZHHH 280900Z 33003MPS 290V350 4000 BR NSC 08/05 Q1028 NOSIG
ZHHH,2003-11-28 10:00,ZHHH 281000Z 34002MPS 3000 BR NSC 07/05 Q1028 NOSIG
ZHHH,2003-11-28 11:00,ZHHH 281100Z 31001MPS 3000 BR NSC 07/05 Q1029 NOSIG
ZHHH,2003-11-28 12:00,ZHHH 281200Z AUTO 25002KT 7SM 08/04 A3041 RMK SLP302 T00770042 52016 IEM_DS3505
ZHHH,2003-11-28 13:00,ZHHH 281300Z 32002MPS 2500 BR SKC 06/05 Q1030 NOSIG
ZHHH,2003-11-28 14:00,ZHHH 281400Z 30002MPS 2100 BR SKC 07/05 Q1030 NOSIG
ZHHH,2003-11-28 15:00,ZHHH 281500Z 29002MPS 2000 BR NSC 06/05 Q1030 NOSIG
ZHHH,2003-11-28 16:00,ZHHH 281600Z 31002MPS 3000 BR NSC 06/05 Q1030 NOSIG
ZHHH,2003-11-28 17:00,ZHHH 281700Z 31002MPS 2400 BR SKC 06/05 Q1030 NOSIG
ZHHH,2003-11-28 18:00,ZHHH 281800Z 32002MPS 3000 BR SKC 05/05 Q1029 NOSIG
ZHHH,2003-11-28 19:00,ZHHH 281900Z 30002MPS 2000 BR SKC 05/04 Q1029 NOSIG
ZHHH,2003-11-28 20:00,ZHHH 282000Z 30002MPS 2000 BR SKC 05/04 Q1029 NOSIG
ZHHH,2003-11-28 21:00,ZHHH 282100Z 00000MPS 2000 BR SKC 04/04 Q1029 NOSIG
ZHHH,2003-11-28 22:00,ZHHH 282200Z 00000MPS 1600 BR SKC 04/04 Q1029 NOSIG
ZHHH,2003-11-28 23:00,ZHHH 282300Z 00000MPS 0400 R04/0300D FG SKC 04/03 Q1029 NOSIG
ZHHH,2003-11-29 00:00,ZHHH 290000Z 24001MPS 0300 R04/0100D FG SKC 04/03 Q1029 NOSIG
ZHHH,2003-11-29 01:00,ZHHH 290100Z 29002MPS 0600 R04/0300D FG SKC 05/05 Q1029 NOSIG
ZHHH,2003-11-29 02:00,ZHHH 290200Z 33002MPS 2600 BR SKC 07/07 Q1030 NOSIG
ZHHH,2003-11-29 03:00,ZHHH 290300Z 36002MPS 3000 BR SKC 08/05 Q1029 NOSIG
ZHHH,2003-11-29 04:00,ZHHH 290400Z 33003MPS 280V020 4000 HZ SKC 10/05 Q1029 NOSIG
ZHHH,2003-11-29 05:00,ZHHH 290500Z 29003MPS 240V340 6000 SKC 11/04 Q1027 NOSIG
ZHHH,2003-11-29 06:00,ZHHH 290600Z 29003MPS 250V340 CAVOK 12/03 Q1026 NOSIG
ZHHH,2003-11-29 07:00,ZHHH 290700Z 31002MPS CAVOK 12/03 Q1026 NOSIG
ZHHH,2003-11-29 08:00,ZHHH 290800Z 31002MPS CAVOK 12/03 Q1026 NOSIG
ZHHH,2003-11-29 09:00,ZHHH 290900Z 00000MPS 5000 HZ SKC 11/03 Q1025 NOSIG
ZHHH,2003-11-29 10:00,ZHHH 291000Z 00000MPS 5000 HZ SKC 10/04 Q1026 NOSIG
ZHHH,2003-11-29 11:00,ZHHH 291100Z 00000MPS 5000 HZ SKC 09/03 Q1026 NOSIG
ZHHH,2003-11-29 12:00,ZHHH 291200Z 00000MPS 5000 HZ SKC 09/03 Q1026 NOSIG
ZHHH,2003-11-29 13:00,ZHHH 291300Z 00000MPS 5000 HZ SKC 08/03 Q1026 NOSIG
ZHHH,2003-11-29 14:00,ZHHH 291400Z 00000MPS 5000 BR SKC 07/03 Q1026 NOSIG
ZHHH,2003-11-29 15:00,ZHHH 291500Z 00000MPS 5000 BR SKC 07/04 Q1026 NOSIG
ZHHH,2003-11-29 16:00,ZHHH 291600Z 09002MPS 3000 BR SKC 06/04 Q1026 NOSIG
ZHHH,2003-11-29 17:00,ZHHH 291700Z 07002MPS 3000 BR SKC 06/04 Q1025 NOSIG
ZHHH,2003-11-29 18:00,ZHHH 291800Z 08002MPS 2000 BR SKC 06/04 Q1025 NOSIG
ZHHH,2003-11-29 19:00,ZHHH 291900Z 00000MPS 1600 BR SKC 05/04 Q1025 NOSIG
ZHHH,2003-11-29 20:00,ZHHH 292000Z 08003MPS 1600 BR SKC 05/04 Q1024 NOSIG
ZHHH,2003-11-29 21:00,ZHHH 292100Z 09003MPS 1000 R04/1400D BR SKC 04/04 Q1024 NOSIG
ZHHH,2003-11-29 22:00,ZHHH 292200Z 10002MPS 0700 R04/1000D FG SKC 04/04 Q1024 NOSIG
ZHHH,2003-11-29 23:00,ZHHH 292300Z 11002MPS 0500 R04/0900D FG SKC 04/04 Q1025 NOSIG
ZHHH,2003-11-30 00:00,ZHHH 300000Z 10002MPS 0500 R04/0600D FG SKC 04/04 Q1025 NOSIG
ZHHH,2003-11-30 01:00,ZHHH 300100Z 10003MPS 1000 R04/0900N BR SKC 06/05 Q1025 NOSIG
ZHHH,2003-11-30 02:00,ZHHH 300200Z 12005MPS 2000 BR SKC 08/06 Q1026 NOSIG
ZHHH,2003-11-30 03:00,ZHHH 300300Z 14004MPS 2500 BR SKC 09/06 Q1025 NOSIG
ZHHH,2003-11-30 04:00,ZHHH 300400Z 14004MPS 3000 BR SKC 11/05 Q1025 NOSIG
ZHHH,2003-11-30 05:00,ZHHH 300500Z 14004MPS 110V170 3000 HZ SKC 12/05 Q1023 NOSIG
ZHHH,2003-11-30 06:00,ZHHH 300600Z 15003MPS 120V180 4000 HZ SKC 13/05 Q1023 NOSIG
ZHHH,2003-11-30 07:00,ZHHH 300700Z 13004MPS 6000 SKC 13/04 Q1022 NOSIG
ZHHH,2003-11-30 08:00,ZHHH 300800Z 16003MPS 6000 SKC 13/04 Q1021 NOSIG
ZHHH,2003-11-30 09:00,ZHHH 300900Z 12003MPS 5000 HZ SKC 12/05 Q1022 NOSIG
ZHHH,2003-11-30 10:00,ZHHH 301000Z 11002MPS 4000 HZ SKC 10/07 Q1022 NOSIG
ZHHH,2003-11-30 11:00,ZHHH 301100Z 12004MPS 4000 HZ SKC 09/06 Q1022 NOSIG
ZHHH,2003-11-30 12:00,ZHHH 301200Z 12003MPS 4000 HZ SKC 09/05 Q1021 NOSIG
ZHHH,2003-11-30 13:00,ZHHH 301300Z 12003MPS 4000 HZ SKC 08/05 Q1021 NOSIG
ZHHH,2003-11-30 14:00,ZHHH 301400Z 11003MPS 5000 HZ SKC 08/04 Q1022 NOSIG
ZHHH,2003-11-30 15:00,ZHHH 301500Z 10003MPS 5000 HZ SKC 07/05 Q1022 NOSIG
ZHHH,2003-11-30 16:00,ZHHH 301600Z 12003MPS 5000 BR SKC 06/04 Q1022 NOSIG
ZHHH,2003-11-30 17:00,ZHHH 301700Z 10003MPS 5000 BR SKC 06/03 Q1022 NOSIG
ZHHH,2003-11-30 18:00,ZHHH 301800Z 05002MPS 3000 BR SKC 05/03 Q1022 NOSIG
ZHHH,2003-11-30 19:00,ZHHH 301900Z 08003MPS 4000 BR SKC 05/03 Q1022 NOSIG
ZHHH,2003-11-30 20:00,ZHHH 302000Z 09003MPS 4000 BR SKC 05/03 Q1023 NOSIG
ZHHH,2003-11-30 21:00,ZHHH 302100Z 07003MPS 2500 BR SKC 04/03 Q1023 NOSIG
ZHHH,2003-11-30 22:00,ZHHH 302200Z 06003MPS 1600 BR SKC 04/03 Q1024 NOSIG
ZHHH,2003-11-30 23:00,ZHHH 302300Z 00000MPS 1700 BR SKC 03/02 Q1025 NOSIG
ZHHH,2003-12-01 00:00,ZHHH 010000Z 00000MPS 1600 BR SKC 04/03 Q1026 NOSIG
ZHHH,2003-12-01 01:00,ZHHH 010100Z 07002MPS 2000 BR SKC 05/04 Q1026 NOSIG
ZHHH,2003-12-01 02:00,ZHHH 010200Z 10003MPS 3000 BR SKC 08/05 Q1026 NOSIG
ZHHH,2003-12-01 03:00,ZHHH 010300Z 16003MPS 5000 BR SKC 10/06 Q1026 NOSIG
ZHHH,2003-12-01 04:00,ZHHH 010400Z 19002MPS 5000 HZ SKC 12/04 Q1026 NOSIG
ZHHH,2003-12-01 05:00,ZHHH 010500Z 02002MPS 5000 HZ SKC 13/04 Q1025 NOSIG
ZHHH,2003-12-01 06:00,ZHHH 010600Z 29002MPS 6000 SKC 14/03 Q1024 NOSIG
ZHHH,2003-12-01 07:00,ZHHH 010700Z 26003MPS 220V310 6000 SKC 14/04 Q1024 NOSIG
ZHHH,2003-12-01 08:00,ZHHH 010800Z 29002MPS 6000 SKC 14/05 Q1024 NOSIG
ZHHH,2003-12-01 09:00,ZHHH 010900Z 25002MPS 6000 NSC 13/05 Q1024 NOSIG
ZHHH,2003-12-01 10:00,ZHHH 011000Z 28002MPS 6000 NSC 11/07 Q1024 NOSIG
ZHHH,2003-12-01 11:00,ZHHH 011100Z 33002MPS 6000 NSC 11/06 Q1025 NOSIG
ZHHH,2003-12-01 12:00,ZHHH 011200Z 04003MPS 6000 NSC 11/05 Q1026 NOSIG
ZHHH,2003-12-01 13:00,ZHHH 011300Z 04002MPS 5000 HZ NSC 11/05 Q1026 NOSIG
ZHHH,2003-12-01 14:00,ZHHH 011400Z 03003MPS 5000 HZ NSC 10/06 Q1026 NOSIG
ZHHH,2003-12-01 15:00,ZHHH 011500Z 03002MPS 3000 HZ NSC 10/06 Q1026 NOSIG
ZHHH,2003-12-01 16:00,ZHHH 011600Z 03003MPS 2500 BR NSC 10/07 Q1026 NOSIG
ZHHH,2003-12-01 17:00,ZHHH 011700Z 03004MPS 2500 BR NSC 09/06 Q1026 NOSIG
ZHHH,2003-12-01 18:00,ZHHH 011800Z 03005MPS 2500 BR NSC 09/06 Q1026 NOSIG
ZHHH,2003-12-01 19:00,ZHHH 011900Z 03003MPS 360V060 2500 BR NSC 09/06 Q1026 NOSIG
ZHHH,2003-12-01 20:00,ZHHH 012000Z 04005MPS 2500 BR NSC 09/06 Q1026 NOSIG
ZHHH,2003-12-01 21:00,ZHHH 012100Z 04005MPS 2000 BR NSC 08/05 Q1026 NOSIG
ZHHH,2003-12-01 22:00,ZHHH 012200Z 04005MPS 1400 BR NSC 07/05 Q1026 NOSIG
ZHHH,2003-12-01 23:00,ZHHH 012300Z 06004MPS 1400 R04/1400N BR NSC 07/05 Q1026 NOSIG
ZHHH,2003-12-02 00:00,ZHHH 020000Z 05002MPS 1400 R04/1200N BR NSC 07/05 Q1027 NOSIG
ZHHH,2003-12-02 01:00,ZHHH 020100Z 05003MPS 1200 R04/1200N BR NSC 07/05 Q1027 NOSIG
ZHHH,2003-12-02 02:00,ZHHH 020200Z 06002MPS 1200 R04/1200N BR NSC 07/05 Q1028 NOSIG
ZHHH,2003-12-02 03:00,ZHHH 020300Z 05003MPS 1400 R22/1400U BR NSC 08/06 Q1027 NOSIG
ZHHH,2003-12-02 04:00,ZHHH 020400Z 02003MPS 360V060 1400 R04/1400N BR NSC 08/05 Q1027 NOSIG
ZHHH,2003-12-02 05:00,ZHHH 020500Z 05003MPS 1400 R04/1400N BR NSC 09/06 Q1025 NOSIG
ZHHH,2003-12-02 06:00,ZHHH 020600Z 02003MPS 340V070 2000 HZ NSC 10/06 Q1025 NOSIG
ZHHH,2003-12-02 07:00,ZHHH 020700Z 01003MPS 330V040 2000 HZ NSC 10/06 Q1025 NOSIG
ZHHH,2003-12-02 08:00,ZHHH 020800Z 04002MPS 1800 HZ NSC 10/06 Q1025 NOSIG
ZHHH,2003-12-02 09:00,ZHHH 020900Z 06003MPS 1800 HZ NSC 09/06 Q1025 NOSIG
ZHHH,2003-12-02 10:00,ZHHH 021000Z 05003MPS 1400 R04/1400N BR NSC 09/06 Q1025 NOSIG
ZHHH,2003-12-02 11:00,ZHHH 021100Z 05004MPS 1400 R04/0400N BR NSC 08/05 Q1026 NOSIG
ZHHH,2003-12-02 12:00,ZHHH 021200Z 05003MPS 1400 R04/1400N BR NSC 07/05 Q1026 NOSIG
ZHHH,2003-12-02 13:00,ZHHH 021300Z 05003MPS 1400 R04/1400N BR NSC 07/05 Q1026 NOSIG
ZHHH,2003-12-02 14:00,ZHHH 021400Z 04003MPS 1200 R04/1200D BR NSC 07/05 Q1027 NOSIG
ZHHH,2003-12-02 15:00,ZHHH 021500Z 03002MPS 1200 R04/1200N BR NSC 07/05 Q1026 NOSIG
ZHHH,2003-12-02 16:00,ZHHH 021600Z 35001MPS 1200 R04/1200N BR NSC 07/05 Q1027 NOSIG
ZHHH,2003-12-02 17:00,ZHHH 021700Z 00000MPS 1400 R04/1400U BR NSC 07/05 Q1026 NOSIG
ZHHH,2003-12-02 18:00,ZHHH 021800Z 35001MPS 1400 R04/1400N BR NSC 06/05 Q1026 NOSIG
ZHHH,2003-12-02 19:00,ZHHH 021900Z 00000MPS 1800 BR NSC 06/05 Q1025 NOSIG
ZHHH,2003-12-02 20:00,ZHHH 022000Z 04002MPS 2000 BR NSC 05/04 Q1025 NOSIG
ZHHH,2003-12-02 21:00,ZHHH 022100Z 07002MPS 2000 BR NSC 05/04 Q1025 NOSIG
ZHHH,2003-12-02 22:00,ZHHH 022200Z 08002MPS 1500 BR NSC 04/03 Q1025 NOSIG
ZHHH,2003-12-02 23:00,ZHHH 022300Z 07001MPS 1000 R04/1200V1400N BR NSC 04/03 Q1025 NOSIG
ZHHH,2003-12-03 00:00,ZHHH 030000Z 05003MPS 0700 R04/0600N FG SKC 04/03 Q1026 NOSIG
ZHHH,2003-12-03 01:00,ZHHH 030100Z 06004MPS 0300 R04/0600V0700N FG SKC 04/04 Q1026 NOSIG
ZHHH,2003-12-03 02:00,ZHHH 030200Z 08004MPS 0300 R04/0200V0350N FG SKC 04/04 Q1026 NOSIG
ZHHH,2003-12-03 03:00,ZHHH 030300Z 11003MPS 0300 R04/0200V0300N FG VV005 04/04 Q1025 NOSIG
ZHHH,2003-12-03 04:00,ZHHH 030400Z 11004MPS 0500 R04/0700U FG VV008 05/05 Q1024 NOSIG
ZHHH,2003-12-03 05:00,ZHHH 030500Z 08003MPS 040V110 0900 R04/1000N FG SCT006 07/06 Q1023 NOSIG
ZHHH,2003-12-03 06:00,ZHHH 030600Z 11002MPS 1400 R04/1400N BR SKC 08/06 Q1022 NOSIG
ZHHH,2003-12-03 07:00,ZHHH 030700Z 09002MPS 1400 R04/1200V1400D BR SKC 09/07 Q1022 NOSIG
ZHHH,2003-12-03 08:00,ZHHH 030800Z 04002MPS 1400 R04/1200V1400N BR SKC 10/07 Q1022 NOSIG
ZHHH,2003-12-03 09:00,ZHHH 030900Z 08004MPS 1400 R04/1400N BR SKC 09/07 Q1021 NOSIG
ZHHH,2003-12-03 10:00,ZHHH 031000Z 06002MPS 1400 R04/P1500 BR NSC 09/07 Q1021 NOSIG
ZHHH,2003-12-03 11:00,ZHHH 031100Z 07004MPS 1600 BR NSC 09/07 Q1021 NOSIG
ZHHH,2003-12-03 12:00,ZHHH 031200Z 07002MPS 1600 BR NSC 09/07 Q1022 NOSIG
ZHHH,2003-12-03 13:00,ZHHH 031300Z 07003MPS 1300 R04/P1500 BR NSC 08/07 Q1022 NOSIG
ZHHH,2003-12-03 14:00,ZHHH 031400Z 06004MPS 1000 R04/P1500 BR NSC 08/06 Q1022 NOSIG
ZHHH,2003-12-03 15:00,ZHHH 031500Z 05004MPS 1000 R04/P1500 BR NSC 08/07 Q1022 NOSIG
ZHHH,2003-12-03 16:00,ZHHH 031600Z 05005MPS 1000 R04/P1500 BR NSC 08/06 Q1022 NOSIG
ZHHH,2003-12-03 17:00,ZHHH 031700Z 04004MPS 1000 R04/P1500 BR NSC 07/06 Q1022 NOSIG
ZHHH,2003-12-03 18:00,ZHHH 031800Z 07004MPS 1000 R04/P1500 BR NSC 07/06 Q1021 NOSIG
ZHHH,2003-12-03 19:00,ZHHH 031900Z 08004MPS 1000 R04/P1500 BR NSC 07/06 Q1020 NOSIG
ZHHH,2003-12-03 20:00,ZHHH 032000Z 05002MPS 1000 R04/P1500 BR NSC 07/06 Q1020 NOSIG
ZHHH,2003-12-03 21:00,ZHHH 032100Z 06003MPS 1000 R04/P1500 BR NSC 07/06 Q1020 NOSIG
ZHHH,2003-12-03 22:00,ZHHH 032200Z 05003MPS 1000 R04/P1500 BR NSC 07/06 Q1020 NOSIG
ZHHH,2003-12-03 23:00,ZHHH 032300Z 05004MPS 0700 R04/1400D FG NSC 07/06 Q1020 NOSIG
ZHHH,2003-12-04 00:00,ZHHH 040000Z 04004MPS 0700 R04/1200N FG NSC 07/06 Q1021 NOSIG
ZHHH,2003-12-04 01:00,ZHHH 040100Z 02003MPS 1600 BR NSC 07/06 Q1022 NOSIG
ZHHH,2003-12-04 02:00,ZHHH 040200Z 05003MPS 1600 BR NSC 07/06 Q1022 NOSIG
ZHHH,2003-12-04 03:00,ZHHH 040300Z 04003MPS 2000 BR NSC 08/06 Q1022 NOSIG
ZHHH,2003-12-04 04:00,ZHHH 040400Z 02002MPS 1600 R04/1200V1400N -RA BR SCT007 OVC050 07/06 Q1022 NOSIG
ZHHH,2003-12-04 05:00,ZHHH 040500Z 07003MPS 1300 R04/1000V1200N -RA BR SCT007 OVC050 07/06 Q1020 NOSIG
ZHHH,2003-12-04 06:00,ZHHH 040600Z 05002MPS 1200 R04/1200D BR SCT007 OVC050 07/06 Q1020 NOSIG
ZHHH,2003-12-04 07:00,ZHHH 040700Z 07002MPS 1100 R04/1000V1200U BR -RA SCT006 OVC050 07/06 Q1020 NOSIG
ZHHH,2003-12-04 08:00,ZHHH 040800Z 35002MPS 0900 R04/1200N FG -RA SCT006 OVC040 07/06 Q1020 NOSIG
ZHHH,2003-12-04 09:00,ZHHH 040900Z 36002MPS 0900 R04/1000N FG SCT006 OVC040 07/07 Q1021 NOSIG
ZHHH,2003-12-04 10:00,ZHHH 041000Z 34003MPS 2000 BR SCT006 OVC040 07/06 Q1021 NOSIG
ZHHH,2003-12-04 11:00,ZHHH 041100Z 35002MPS 2000 BR SCT006 OVC040 07/06 Q1022 NOSIG
ZHHH,2003-12-04 12:00,ZHHH 041200Z 33003MPS 1800 BR OVC040 07/06 Q1023 NOSIG
ZHHH,2003-12-04 13:00,ZHHH 041300Z 35003MPS 1600 BR OVC040 06/06 Q1023 NOSIG
ZHHH,2003-12-04 14:00,ZHHH 041400Z 35003MPS 1800 BR OVC040 06/06 Q1024 NOSIG
ZHHH,2003-12-04 15:00,ZHHH 041500Z 34003MPS 310V010 1800 BR OVC040 06/06 Q1025 NOSIG
ZHHH,2003-12-04 16:00,ZHHH 041600Z 36003MPS 330V030 2000 BR OVC040 06/06 Q1024 NOSIG
ZHHH,2003-12-04 17:00,ZHHH 041700Z 04004MPS 2500 BR OVC040 06/05 Q1024 NOSIG
ZHHH,2003-12-04 18:00,ZHHH 041800Z 03003MPS 360V060 3000 BR OVC040 06/05 Q1024 NOSIG
ZHHH,2003-12-04 19:00,ZHHH 041900Z 01002MPS 4000 BR OVC040 06/05 Q1025 NOSIG
ZHHH,2003-12-04 20:00,ZHHH 042000Z 34003MPS 4000 BR NSC 05/05 Q1025 NOSIG
ZHHH,2003-12-04 21:00,ZHHH 042100Z 03004MPS 2500 BR NSC 06/05 Q1025 NOSIG
ZHHH,2003-12-04 22:00,ZHHH 042200Z 05004MPS 5000 BR NSC 05/04 Q1024 NOSIG
ZHHH,2003-12-04 23:00,ZHHH 042300Z 04005MPS 3000 BR NSC 05/04 Q1024 NOSIG
ZHHH,2003-12-05 00:00,ZHHH 050000Z 04003MPS 2500 BR NSC 06/04 Q1026 NOSIG
ZHHH,2003-12-05 01:00,ZHHH 050100Z 02003MPS 340V050 2500 BR -RA FEW015 BKN030 OVC050 06/04 Q1026 NOSIG
ZHHH,2003-12-05 02:00,ZHHH 050200Z 04004MPS 360V060 2500 BR -RA FEW015 OVC050 06/05 Q1026 NOSIG
ZHHH,2003-12-05 03:00,ZHHH 050300Z 03004MPS 2500 BR -RA FEW010 OVC050 06/05 Q1027 NOSIG
ZHHH,2003-12-05 04:00,ZHHH 050400Z 01003MPS 2100 BR SCT010 OVC040 06/05 Q1026 NOSIG
ZHHH,2003-12-05 05:00,ZHHH 050500Z 34004MPS 320V020 1300 R04/1200V1400U -RA BR SCT010 OVC040 05/05 Q1025 NOSIG
ZHHH,2003-12-05 06:00,ZHHH 050600Z 35003MPS 320V020 1200 R04/1000V1200N -RA BR SCT009 OVC040 05/05 Q1025 NOSIG
ZHHH,2003-12-05 07:00,ZHHH 050700Z 34003MPS 310V010 1400 R04/1200V1400N -RA BR SCT009 OVC040 05/05 Q1025 NOSIG
ZHHH,2003-12-05 08:00,ZHHH 050800Z 35003MPS 330V030 1400 R04/P1500 -RA BR SCT007 OVC040 05/05 Q1025 NOSIG
ZHHH,2003-12-05 09:00,ZHHH 050900Z 35003MPS 310V020 1400 R04/P1500 -RA BR SCT007 OVC040 05/05 Q1025 NOSIG
ZHHH,2003-12-05 10:00,ZHHH 051000Z 34004MPS 1600 -RA BR SCT007 OVC040 05/05 Q1026 NOSIG
ZHHH,2003-12-05 11:00,ZHHH 051100Z 34003MPS 1600 -RA BR SCT007 OVC040 05/05 Q1027 NOSIG
ZHHH,2003-12-05 12:00,ZHHH 051200Z 34003MPS 1800 BR FEW010 OVC040 05/05 Q1027 NOSIG
ZHHH,2003-12-05 13:00,ZHHH 051300Z 34002MPS 2000 BR FEW010 OVC050 05/04 Q1027 NOSIG
ZHHH,2003-12-05 14:00,ZHHH 051400Z 33004MPS 2000 BR FEW010 OVC050 05/04 Q1028 NOSIG
ZHHH,2003-12-05 15:00,ZHHH 051500Z 32003MPS 2000 BR FEW010 OVC050 05/04 Q1028 NOSIG
ZHHH,2003-12-05 16:00,ZHHH 051600Z 32003MPS 290V350 2500 BR NSC 05/04 Q1028 NOSIG
ZHHH,2003-12-05 17:00,ZHHH 051700Z 34002MPS 2500 BR NSC 04/04 Q1028 NOSIG
ZHHH,2003-12-05 18:00,ZHHH 051800Z 32002MPS 1700 BR SKC 03/03 Q1028 NOSIG
ZHHH,2003-12-05 19:00,ZHHH 051900Z 00000MPS 1700 BR SKC 03/03 Q1028 NOSIG
ZHHH,2003-12-05 20:00,ZHHH 052000Z 26002MPS 0050 R04/0200N FG VV001 03/03 Q1028 NOSIG
ZHHH,2003-12-05 21:00,ZHHH 052100Z 32003MPS 280V350 0500 R04/1000V1200N FG SKC 04/04 Q1028 NOSIG
ZHHH,2003-12-05 22:00,ZHHH 052200Z 34003MPS 0500 R04/1000V1200N FG VV001 04/04 Q1029 NOSIG
ZHHH,2003-12-05 23:00,ZHHH 052300Z 32001MPS 0100 R04/0150V0200N FG VV001 02/02 Q1029 NOSIG
ZHHH,2003-12-06 00:00,ZHHH 060000Z 35002MPS 0200 R04/0150N FG VV002 03/03 Q1030 NOSIG
ZHHH,2003-12-06 01:00,ZHHH 060100Z 35003MPS 310V020 0200 R04/0150V0200N FG SKC 03/03 Q1031 NOSIG
ZHHH,2003-12-06 02:00,ZHHH 060200Z 30001MPS 0300 R04/0300U FG SKC 03/03 Q1032 NOSIG
ZHHH,2003-12-06 03:00,ZHHH 060300Z 00000MPS 0600 R04/0500U FG SKC 04/04 Q1032 NOSIG
ZHHH,2003-12-06 04:00,ZHHH 060400Z 00000MPS 1000 R04/0800U BR SCT005 05/05 Q1031 NOSIG
ZHHH,2003-12-06 05:00,ZHHH 060500Z 25002MPS 2500 BR SKC 06/06 Q1030 NOSIG
ZHHH,2003-12-06 06:00,ZHHH 060600Z 36002MPS 4000 BR SKC 09/07 Q1029 NOSIG
ZHHH,2003-12-06 07:00,ZHHH 060700Z 32003MPS 290V350 4000 BR NSC 10/07 Q1029 NOSIG
ZHHH,2003-12-06 08:00,ZHHH 060800Z 33003MPS 290V010 4000 BR NSC 10/06 Q1029 NOSIG
ZHHH,2003-12-06 09:00,ZHHH 060900Z 02004MPS 5000 HZ NSC 09/03 Q1030 NOSIG
ZHHH,2003-12-06 10:00,ZHHH 061000Z 03005MPS 4000 HZ NSC 08/03 Q1031 NOSIG
ZHHH,2003-12-06 11:00,ZHHH 061100Z 03003MPS 350V060 6000 NSC 08/04 Q1032 NOSIG
ZHHH,2003-12-06 12:00,ZHHH 061200Z 04006MPS 5000 BR NSC 07/04 Q1033 NOSIG
ZHHH,2003-12-06 13:00,ZHHH 061300Z 04007MPS 3000 BR NSC 06/03 Q1034 NOSIG
ZHHH,2003-12-06 14:00,ZHHH 061400Z 04009MPS 2500 BR NSC 05/02 Q1034 NOSIG
ZHHH,2003-12-06 15:00,ZHHH 061500Z 04007MPS 2400 BR NSC 04/02 Q1034 NOSIG
ZHHH,2003-12-06 16:00,ZHHH 061600Z 05008MPS 2400 BR NSC 04/00 Q1035 NOSIG
ZHHH,2003-12-06 17:00,ZHHH 061700Z 05007MPS 3000 BR NSC 04/00 Q1034 NOSIG
ZHHH,2003-12-06 18:00,ZHHH 061800Z 05006MPS 3000 BR NSC 04/00 Q1034 NOSIG
ZHHH,2003-12-06 19:00,ZHHH 061900Z 05006MPS 5000 HZ NSC 04/M01 Q1034 NOSIG
ZHHH,2003-12-06 20:00,ZHHH 062000Z 04004MPS 5000 HZ NSC 04/M01 Q1034 NOSIG
ZHHH,2003-12-06 21:00,ZHHH 062100Z 04004MPS 5000 HZ NSC 03/M02 Q1034 NOSIG
ZHHH,2003-12-06 22:00,ZHHH 062200Z 04005MPS 5000 HZ NSC 02/M02 Q1034 NOSIG
ZHHH,2003-12-06 23:00,ZHHH 062300Z 03002MPS CAVOK 02/M02 Q1035 NOSIG
ZHHH,2003-12-07 00:00,ZHHH 070000Z 05004MPS CAVOK 02/M03 Q1035 NOSIG
ZHHH,2003-12-07 01:00,ZHHH 070100Z 04005MPS CAVOK 02/M03 Q1036 NOSIG
ZHHH,2003-12-07 02:00,ZHHH 070200Z 05004MPS 9999 SCT020 OVC060 03/M02 Q1036 NOSIG
ZHHH,2003-12-07 03:00,ZHHH 070300Z 05004MPS 010V070 9999 SCT020 OVC060 04/M02 Q1036 NOSIG
ZHHH,2003-12-07 04:00,ZHHH 070400Z 02003MPS 350V060 9999 FEW016 BKN060 05/M01 Q1035 NOSIG
ZHHH,2003-12-07 05:00,ZHHH 070500Z 05004MPS 360V070 CAVOK 05/M01 Q1034 NOSIG
ZHHH,2003-12-07 06:00,ZHHH 070600Z 03003MPS 360V060 CAVOK 06/M01 Q1033 NOSIG
ZHHH,2003-12-07 07:00,ZHHH 070700Z 03003MPS CAVOK 06/M00 Q1033 NOSIG
ZHHH,2003-12-07 08:00,ZHHH 070800Z 04003MPS CAVOK 06/M00 Q1033 NOSIG
ZHHH,2003-12-07 09:00,ZHHH 070900Z 04003MPS CAVOK 05/M00 Q1033 NOSIG
ZHHH,2003-12-07 10:00,ZHHH 071000Z 04002MPS CAVOK 05/M00 Q1033 NOSIG
ZHHH,2003-12-07 11:00,ZHHH 071100Z 04002MPS CAVOK 04/00 Q1033 NOSIG
ZHHH,2003-12-07 12:00,ZHHH 071200Z 06002MPS CAVOK 04/00 Q1033 NOSIG
ZHHH,2003-12-07 13:00,ZHHH 071300Z 04003MPS CAVOK 04/00 Q1033 NOSIG
ZHHH,2003-12-07 14:00,ZHHH 071400Z 04004MPS CAVOK 04/00 Q1033 NOSIG
ZHHH,2003-12-07 15:00,ZHHH 071500Z 03002MPS CAVOK 03/00 Q1034 NOSIG
ZHHH,2003-12-07 16:00,ZHHH 071600Z 02003MPS CAVOK 03/00 Q1033 NOSIG
ZHHH,2003-12-07 17:00,ZHHH 071700Z 00000MPS CAVOK 03/01 Q1033 NOSIG
ZHHH,2003-12-07 18:00,ZHHH 071800Z 00000MPS CAVOK 03/01 Q1033 NOSIG
ZHHH,2003-12-07 19:00,ZHHH 071900Z 00000MPS CAVOK 03/01 Q1033 NOSIG
ZHHH,2003-12-07 20:00,ZHHH 072000Z 03001MPS CAVOK 03/01 Q1033 NOSIG
ZHHH,2003-12-07 21:00,ZHHH 072100Z 07002MPS CAVOK 03/01 Q1031 NOSIG
ZHHH,2003-12-07 22:00,ZHHH 072200Z 05002MPS CAVOK 03/01 Q1031 NOSIG
ZHHH,2003-12-07 23:00,ZHHH 072300Z 03002MPS 9999 FEW020 OVC060 03/01 Q1031 NOSIG
ZHHH,2003-12-08 00:00,ZHHH 080000Z 10002MPS 7000 NSC 03/01 Q1032 NOSIG
ZHHH,2003-12-08 01:00,ZHHH 080100Z 22002MPS 7000 NSC 04/01 Q1033 NOSIG
ZHHH,2003-12-08 02:00,ZHHH 080200Z 28002MPS 7000 NSC 04/01 Q1034 NOSIG
ZHHH,2003-12-08 03:00,ZHHH 080300Z 32003MPS 300V360 CAVOK 05/02 Q1034 NOSIG
ZHHH,2003-12-08 04:00,ZHHH 080400Z 34002MPS CAVOK 05/02 Q1032 NOSIG
ZHHH,2003-12-08 05:00,ZHHH 080500Z 32003MPS 290V360 5000 BR NSC 06/03 Q1032 NOSIG
ZHHH,2003-12-08 06:00,ZHHH 080600Z 30003MPS 260V340 5000 BR NSC 06/01 Q1031 NOSIG
ZHHH,2003-12-08 07:00,ZHHH 080700Z 31002MPS 3000 BR NSC 06/01 Q1030 NOSIG
ZHHH,2003-12-08 08:00,ZHHH 080800Z 34001MPS 3000 BR NSC 06/02 Q1031 NOSIG
ZHHH,2003-12-08 09:00,ZHHH 080900Z 36001MPS 3000 BR NSC 06/02 Q1030 NOSIG
ZHHH,2003-12-08 10:00,ZHHH 081000Z 30002MPS 5000 -RA BR NSC 05/02 Q1031 NOSIG
ZHHH,2003-12-08 11:00,ZHHH 081100Z 34002MPS 5000 -RA BR NSC 05/03 Q1032 NOSIG
ZHHH,2003-12-08 12:00,ZHHH 081200Z 30002MPS 3000 -RA BR SCT020 OVC050 04/03 Q1032 NOSIG
ZHHH,2003-12-08 13:00,ZHHH 081300Z 01003MPS 330V040 3000 R04/P1500 -RA BR SCT020 OVC050 04/04 Q1033 NOSIG
ZHHH,2003-12-08 14:00,ZHHH 081400Z 03004MPS 360V060 3000 -RA BR SCT020 OVC050 04/03 Q1033 NOSIG
ZHHH,2003-12-08 15:00,ZHHH 081500Z 03003MPS 3000 -RA BR SCT020 OVC050 03/03 Q1034 NOSIG
ZHHH,2003-12-08 16:00,ZHHH 081600Z 01003MPS 3000 -RA BR SCT010 OVC050 03/03 Q1034 NOSIG
ZHHH,2003-12-08 17:00,ZHHH 081700Z 02003MPS 3000 -RA BR SCT010 OVC050 03/03 Q1034 NOSIG
ZHHH,2003-12-08 18:00,ZHHH 081800Z 35003MPS 3000 BR SCT010 OVC050 03/03 Q1034 NOSIG
ZHHH,2003-12-08 19:00,ZHHH 081900Z 35002MPS 4000 BR SCT010 OVC050 03/03 Q1034 NOSIG
ZHHH,2003-12-08 20:00,ZHHH 082000Z 03004MPS 2500 BR SCT010 OVC050 03/03 Q1034 NOSIG
ZHHH,2003-12-08 21:00,ZHHH 082100Z 03004MPS 360V060 2400 BR SCT008 OVC050 03/02 Q1034 NOSIG
ZHHH,2003-12-08 22:00,ZHHH 082200Z 05004MPS 4000 BR OVC004 SCT007 03/02 Q1034 NOSIG
ZHHH,2003-12-08 23:00,ZHHH 082300Z 05004MPS 4000 BR OVC040 03/02 Q1035 NOSIG
ZHHH,2003-12-09 00:00,ZHHH 090000Z 03003MPS 360V060 6000 NSC 03/02 Q1035 NOSIG
ZHHH,2003-12-09 01:00,ZHHH 090100Z 04003MPS 7000 SCT020 BKN040 03/02 Q1035 NOSIG
ZHHH,2003-12-09 02:00,ZHHH 090200Z 04003MPS 010V080 7000 SCT020 BKN040 04/02 Q1036 NOSIG
ZHHH,2003-12-09 03:00,ZHHH 090300Z 04003MPS 360V070 7000 BKN025 BKN060 04/02 Q1036 NOSIG
ZHHH,2003-12-09 04:00,ZHHH 090400Z 04003MPS 360V080 9999 SCT020 BKN060 06/03 Q1035 NOSIG
ZHHH,2003-12-09 05:00,ZHHH 090500Z 06002MPS 9999 BKN020 OVC060 06/03 Q1035 NOSIG
ZHHH,2003-12-09 06:00,ZHHH 090600Z 00000MPS 9999 BKN020 OVC060 06/02 Q1035 NOSIG
ZHHH,2003-12-09 07:00,ZHHH 090700Z 03001MPS 9999 SCT020 OVC060 06/02 Q1034 NOSIG
ZHHH,2003-12-09 08:00,ZHHH 090800Z 06003MPS 9999 SCT020 OVC060 06/03 Q1033 NOSIG
ZHHH,2003-12-09 09:00,ZHHH 090900Z 06003MPS 9999 SCT020 OVC050 06/03 Q1033 NOSIG
ZHHH,2003-12-09 10:00,ZHHH 091000Z 09002MPS 9999 SCT020 OVC050 06/03 Q1033 NOSIG
ZHHH,2003-12-09 11:00,ZHHH 091100Z 00000MPS 6000 SCT020 OVC050 06/03 Q1034 NOSIG
ZHHH,2003-12-09 12:00,ZHHH 091200Z 06002MPS 6000 SCT020 OVC050 06/03 Q1034 NOSIG
ZHHH,2003-12-09 13:00,ZHHH 091300Z 04003MPS 6000 OVC040 05/03 Q1034 NOSIG
ZHHH,2003-12-09 14:00,ZHHH 091400Z 05003MPS 6000 OVC040 05/03 Q1035 NOSIG
ZHHH,2003-12-09 15:00,ZHHH 091500Z 06004MPS 8000 NSC 05/03 Q1035 NOSIG
ZHHH,2003-12-09 16:00,ZHHH 091600Z 04002MPS 8000 NSC 04/03 Q1035 NOSIG
ZHHH,2003-12-09 17:00,ZHHH 091700Z 06002MPS 8000 NSC 04/03 Q1034 NOSIG
ZHHH,2003-12-09 18:00,ZHHH 091800Z 06002MPS CAVOK 04/03 Q1033 NOSIG
ZHHH,2003-12-09 19:00,ZHHH 091900Z 05002MPS CAVOK 04/03 Q1032 NOSIG
ZHHH,2003-12-09 20:00,ZHHH 092000Z 04002MPS 9999 -RA NSC 04/03 Q1032 NOSIG
ZHHH,2003-12-09 21:00,ZHHH 092100Z 06003MPS 9999 -RA NSC 04/03 Q1031 NOSIG
ZHHH,2003-12-09 22:00,ZHHH 092200Z 04003MPS 6000 -RA NSC 03/03 Q1031 NOSIG
ZHHH,2003-12-09 23:00,ZHHH 092300Z 00000MPS 4000 -RA SCT015 OVC050 03/03 Q1032 NOSIG
ZHHH,2003-12-10 00:00,ZHHH 100000Z 35002MPS 3500 -RA SCT015 OVC050 03/02 Q1032 NOSIG
ZHHH,2003-12-10 01:00,ZHHH 100100Z 33002MPS 3500 -RASN SCT015 OVC050 02/02 Q1033 NOSIG
ZHHH,2003-12-10 02:00,ZHHH 100200Z 30002MPS 3500 -RA SCT015 OVC050 03/02 Q1034 NOSIG
ZHHH,2003-12-10 03:00,ZHHH 100300Z 31003MPS 280V340 3500 BR SCT015 OVC050 03/03 Q1033 NOSIG
ZHHH,2003-12-10 04:00,ZHHH 100400Z 33003MPS 300V020 4000 BR SCT008 OVC050 03/03 Q1032 NOSIG
ZHHH,2003-12-10 05:00,ZHHH 100500Z 32003MPS 290V010 4000 BR SCT008 OVC050 04/03 Q1031 NOSIG
ZHHH,2003-12-10 06:00,ZHHH 100600Z 32002MPS 5000 BR SCT008 OVC050 04/03 Q1030 NOSIG
ZHHH,2003-12-10 07:00,ZHHH 100700Z 31002MPS 6000 SCT015 OVC050 04/03 Q1030 NOSIG
ZHHH,2003-12-10 08:00,ZHHH 100800Z 34002MPS 6000 NSC 04/03 Q1030 NOSIG
ZHHH,2003-12-10 09:00,ZHHH 100900Z 34002MPS 6000 SCT016 OVC050 04/03 Q1030 NOSIG
ZHHH,2003-12-10 10:00,ZHHH 101000Z 30002MPS 6000 SCT014 OVC040 04/03 Q1030 NOSIG
ZHHH,2003-12-10 11:00,ZHHH 101100Z 33002MPS 6000 SCT013 OVC040 05/03 Q1031 NOSIG
ZHHH,2003-12-10 12:00,ZHHH 101200Z 00000MPS 6000 SCT013 OVC040 05/03 Q1031 NOSIG
ZHHH,2003-12-10 13:00,ZHHH 101300Z 27001MPS 5000 BR SCT013 OVC040 05/03 Q1032 NOSIG
ZHHH,2003-12-10 14:00,ZHHH 101400Z 31002MPS 5000 BR SCT012 OVC040 05/04 Q1032 NOSIG
ZHHH,2003-12-10 15:00,ZHHH 101500Z 30002MPS 5000 BR SCT012 OVC040 05/04 Q1032 NOSIG
ZHHH,2003-12-10 16:00,ZHHH 101600Z 28002MPS 2000 BR NSC 04/03 Q1031 NOSIG
ZHHH,2003-12-10 17:00,ZHHH 101700Z 30002MPS 1600 R04/P1500 BR NSC 03/03 Q1031 NOSIG
ZHHH,2003-12-10 18:00,ZHHH 101800Z 33001MPS 1200 R04/0500V1200D BR NSC 03/02 Q1031 NOSIG
ZHHH,2003-12-10 19:00,ZHHH 101900Z 00000MPS 0600 R04/0600V1200N FG SKC 02/02 Q1031 NOSIG
ZHHH,2003-12-10 20:00,ZHHH 102000Z 10001MPS 0200 R04/0150N FG SKC 02/01 Q1032 NOSIG
ZHHH,2003-12-10 21:00,ZHHH 102100Z 00000MPS 0200 R04/0250N FG SKC 03/02 Q1031 NOSIG
ZHHH,2003-12-10 22:00,ZHHH 102200Z 00000MPS 0200 R04/0250N FG SKC 02/02 Q1032 NOSIG
ZHHH,2003-12-10 23:00,ZHHH 102300Z 00000MPS 0100 R04/0200N FG SKC 02/01 Q1032 NOSIG
ZHHH,2003-12-11 00:00,ZHHH 110000Z 30001MPS 0100 R04/0125D FG SKC 01/01 Q1033 NOSIG
ZHHH,2003-12-11 01:00,ZHHH 110100Z 29001MPS 0100 R04/0125N FG SKC 01/01 Q1033 NOSIG
ZHHH,2003-12-11 02:00,ZHHH 110200Z 31002MPS 0200 R04/0150N FG SKC 02/02 Q1034 NOSIG
ZHHH,2003-12-11 03:00,ZHHH 110300Z 26001MPS 0200 R04/0150N FG SKC 02/02 Q1034 NOSIG
ZHHH,2003-12-11 04:00,ZHHH 110400Z 29001MPS 0200 R04/0200N FG VV005 03/03 Q1033 NOSIG
ZHHH,2003-12-11 05:00,ZHHH 110500Z 33001MPS 0400 R04/0600U FG VV010 03/03 Q1032 NOSIG
ZHHH,2003-12-11 06:00,ZHHH 110600Z 02002MPS 0500 R04/0800N FG VV010 03/03 Q1031 NOSIG
ZHHH,2003-12-11 07:00,ZHHH 110700Z 03002MPS 1800 BR BKN020 04/04 Q1031 NOSIG
ZHHH,2003-12-11 08:00,ZHHH 110800Z 00000MPS 1800 BR SCT020 05/05 Q1031 NOSIG
ZHHH,2003-12-11 09:00,ZHHH 110900Z 24003MPS 1600 BR SKC 04/04 Q1031 NOSIG
ZHHH,2003-12-11 10:00,ZHHH 111000Z 25002MPS 1400 R04/P1500 BR SKC 03/03 Q1032 NOSIG
ZHHH,2003-12-11 11:00,ZHHH 111100Z 25002MPS 1400 R04/1400N BR SKC 03/03 Q1032 NOSIG
ZHHH,2003-12-11 12:00,ZHHH 111200Z 26001MPS 1000 R04/1400N BR SKC 03/03 Q1033 NOSIG
ZHHH,2003-12-11 13:00,ZHHH 111300Z 34001MPS 1000 R04/1400N BR SKC 03/03 Q1034 NOSIG
ZHHH,2003-12-11 14:00,ZHHH 111400Z 03002MPS 0900 R04/0900V1200U FG VV003 03/03 Q1034 NOSIG
ZHHH,2003-12-11 15:00,ZHHH 111500Z 04003MPS 1200 R04/1200V1400N BR SKC 02/02 Q1034 NOSIG
ZHHH,2003-12-11 16:00,ZHHH 111600Z 05003MPS 020V080 1200 R04/1200D BR SKC 02/02 Q1034 NOSIG
ZHHH,2003-12-11 17:00,ZHHH 111700Z 06002MPS 1200 R04/P1500 BR SKC 02/01 Q1033 NOSIG
ZHHH,2003-12-11 18:00,ZHHH 111800Z 07001MPS 1400 R04/P1500 BR SKC 02/01 Q1033 NOSIG
ZHHH,2003-12-11 19:00,ZHHH 111900Z 00000MPS 1400 R04/P1500 BR SKC 01/01 Q1033 NOSIG
ZHHH,2003-12-11 20:00,ZHHH 112000Z 30002MPS 1000 R04/1000D BR SKC 00/00 Q1033 NOSIG
ZHHH,2003-12-11 21:00,ZHHH 112100Z 27001MPS 0050 R04/M0050 FG VV003 M01/M01 Q1033 NOSIG
ZHHH,2003-12-11 22:00,ZHHH 112200Z 26001MPS 0050 R04/M0050 FG VV003 M01/M01 Q1034 NOSIG
ZHHH,2003-12-11 23:00,ZHHH 112300Z 31001MPS 0400 R04/0800U FG VV010 00/00 Q1034 NOSIG
ZHHH,2003-12-12 00:00,ZHHH 120000Z 00000MPS 0700 R04/1000V1200N FG BKN020 01/01 Q1035 NOSIG
ZHHH,2003-12-12 01:00,ZHHH 120100Z 05002MPS 0800 R04/1300D FG OVC010 02/02 Q1035 NOSIG
ZHHH,2003-12-12 02:00,ZHHH 120200Z 11002MPS 1400 R04/P1500 BR SCT010 OVC060 02/02 Q1036 NOSIG
ZHHH,2003-12-12 03:00,ZHHH 120300Z 09001MPS 1500 BR SCT010 OVC060 02/02 Q1035 NOSIG
ZHHH,2003-12-12 04:00,ZHHH 120400Z 06002MPS 1600 BR SCT010 BKN060 03/02 Q1034 NOSIG
ZHHH,2003-12-12 05:00,ZHHH 120500Z 06002MPS 1400 R04/1400N BR SCT010 BKN060 04/02 Q1033 NOSIG
ZHHH,2003-12-12 06:00,ZHHH 120600Z 07001MPS 1400 R04/1400N BR SCT030 04/02 Q1032 NOSIG
ZHHH,2003-12-12 07:00,ZHHH 120700Z 08001MPS 1400 R04/P1500 BR SKC 05/02 Q1032 NOSIG
ZHHH,2003-12-12 08:00,ZHHH 120800Z 00000MPS 1600 BR SKC 06/03 Q1032 NOSIG
ZHHH,2003-12-12 09:00,ZHHH 120900Z 00000MPS 1600 BR SKC 05/02 Q1032 NOSIG
ZHHH,2003-12-12 10:00,ZHHH 121000Z 31001MPS 1500 BR SKC 04/02 Q1032 NOSIG
ZHHH,2003-12-12 11:00,ZHHH 121100Z 12001MPS 1400 R04/P1500 BR SKC 04/03 Q1032 NOSIG
ZHHH,2003-12-12 12:00,ZHHH 121200Z 04001MPS 1200 R04/P1500 BR NSC 03/02 Q1032 NOSIG
ZHHH,2003-12-12 13:00,ZHHH 121300Z 07001MPS 1000 R04/1200N BR NSC 03/02 Q1032 NOSIG
ZHHH,2003-12-12 14:00,ZHHH 121400Z 00000MPS 1000 R04/1400U BR NSC 03/02 Q1032 NOSIG
ZHHH,2003-12-12 15:00,ZHHH 121500Z 06001MPS 1000 R04/P1500 BR NSC 03/02 Q1032 NOSIG
ZHHH,2003-12-12 16:00,ZHHH 121600Z 00000MPS 0800 R04/1400N FG NSC 03/02 Q1032 NOSIG
ZHHH,2003-12-12 17:00,ZHHH 121700Z 00000MPS 0800 R04/1400N FG NSC 03/02 Q1032 NOSIG
ZHHH,2003-12-12 18:00,ZHHH 121800Z 00000MPS 0800 R04/P1500 FG NSC 03/02 Q1032 NOSIG
ZHHH,2003-12-12 19:00,ZHHH 121900Z 00000MPS 0800 R04/1200V1400U FG NSC 03/02 Q1031 NOSIG
ZHHH,2003-12-12 20:00,ZHHH 122000Z 11001MPS 1000 R04/1200N BR NSC 03/03 Q1031 NOSIG
ZHHH,2003-12-12 21:00,ZHHH 122100Z 08002MPS 1000 R04/P1500 BR NSC 03/02 Q1031 NOSIG
ZHHH,2003-12-12 22:00,ZHHH 122200Z 02001MPS 1000 R04/1200N BR NSC 02/02 Q1031 NOSIG
ZHHH,2003-12-12 23:00,ZHHH 122300Z AUTO 04004KT 1SM 03/02 A3047 RMK SLP322 T00300020 IEM_DS3505
ZHHH,2003-12-13 00:00,ZHHH 130000Z 07002MPS 0600 R04/0900N FG NSC 03/02 Q1032 NOSIG
ZHHH,2003-12-13 01:00,ZHHH 130100Z 10002MPS 0600 R04/0800V0900N FG SKC 03/03 Q1032 NOSIG
ZHHH,2003-12-13 02:00,ZHHH 130200Z 10003MPS 1300 R04/1200N BR SKC 04/04 Q1032 NOSIG
ZHHH,2003-12-13 03:00,ZHHH 130300Z 13002MPS 1800 BR SKC 06/04 Q1033 NOSIG
ZHHH,2003-12-13 04:00,ZHHH 130400Z 14002MPS 1800 BR SKC 08/05 Q1032 NOSIG
ZHHH,2003-12-13 05:00,ZHHH 130500Z 18001MPS 2000 BR SKC 09/05 Q1031 NOSIG
ZHHH,2003-12-13 06:00,ZHHH 130600Z 18001MPS 2000 HZ FEW018 09/04 Q1030 NOSIG
ZHHH,2003-12-13 07:00,ZHHH 130700Z 10002MPS 3000 HZ SKC 09/04 Q1029 NOSIG
ZHHH,2003-12-13 08:00,ZHHH 130800Z 16002MPS 5000 HZ SKC 10/01 Q1029 NOSIG
ZHHH,2003-12-13 09:00,ZHHH 130900Z 12001MPS 4000 HZ SKC 09/02 Q1029 NOSIG
ZHHH,2003-12-13 10:00,ZHHH 131000Z 07001MPS 4000 HZ SKC 07/03 Q1029 NOSIG
ZHHH,2003-12-13 11:00,ZHHH 131100Z 07001MPS 4000 HZ SKC 07/04 Q1030 NOSIG
ZHHH,2003-12-13 12:00,ZHHH 131200Z 06001MPS 4000 HZ SKC 07/01 Q1030 NOSIG
ZHHH,2003-12-13 13:00,ZHHH 131300Z 04001MPS 3000 HZ SKC 05/01 Q1030 NOSIG
ZHHH,2003-12-13 14:00,ZHHH 131400Z 04002MPS 3000 HZ SKC 06/01 Q1031 NOSIG
ZHHH,2003-12-13 15:00,ZHHH 131500Z 07002MPS 3000 HZ SKC 05/01 Q1031 NOSIG
ZHHH,2003-12-13 16:00,ZHHH 131600Z 00000MPS 3000 HZ SKC 05/02 Q1031 NOSIG
ZHHH,2003-12-13 17:00,ZHHH 131700Z 10002MPS 2500 BR SKC 04/02 Q1031 NOSIG
ZHHH,2003-12-13 18:00,ZHHH 131800Z 07002MPS 2500 BR SKC 04/02 Q1031 NOSIG
ZHHH,2003-12-13 19:00,ZHHH 131900Z 05003MPS 2500 BR SKC 03/01 Q1031 NOSIG
ZHHH,2003-12-13 20:00,ZHHH 132000Z 05003MPS 2500 BR SKC 03/01 Q1030 NOSIG
ZHHH,2003-12-13 21:00,ZHHH 132100Z 06002MPS 2500 BR SKC 02/01 Q1030 NOSIG
ZHHH,2003-12-13 22:00,ZHHH 132200Z 06002MPS 2500 BR SKC 02/01 Q1031 NOSIG
ZHHH,2003-12-13 23:00,ZHHH 132300Z 06002MPS 1800 BR SKC 02/01 Q1031 NOSIG
ZHHH,2003-12-14 00:00,ZHHH 140000Z 00000MPS 1800 BR SKC 02/01 Q1032 NOSIG
ZHHH,2003-12-14 01:00,ZHHH 140100Z 00000MPS 1800 R04/1000V1200U BR SKC 03/02 Q1032 NOSIG
ZHHH,2003-12-14 02:00,ZHHH 140200Z 08001MPS 1800 BR SKC 04/03 Q1033 NOSIG
ZHHH,2003-12-14 03:00,ZHHH 140300Z 10002MPS 1800 BR SKC 07/04 Q1032 NOSIG
ZHHH,2003-12-14 04:00,ZHHH 140400Z 14001MPS 2500 HZ SKC 08/03 Q1031 NOSIG
ZHHH,2003-12-14 05:00,ZHHH 140500Z 23002MPS 2500 HZ SKC 10/02 Q1030 NOSIG
ZHHH,2003-12-14 06:00,ZHHH 140600Z 23001MPS 4000 HZ SKC 10/02 Q1029 NOSIG
ZHHH,2003-12-14 07:00,ZHHH 140700Z 31001MPS 6000 SKC 10/02 Q1029 NOSIG
ZHHH,2003-12-14 08:00,ZHHH 140800Z 29002MPS 6000 NSC 10/02 Q1028 NOSIG
ZHHH,2003-12-14 09:00,ZHHH 140900Z 30002MPS 4000 HZ NSC 09/03 Q1028 NOSIG
ZHHH,2003-12-14 10:00,ZHHH 141000Z 34002MPS 2000 BR NSC 07/04 Q1028 NOSIG
ZHHH,2003-12-14 11:00,ZHHH 141100Z 02003MPS 3000 BR NSC 06/04 Q1029 NOSIG
ZHHH,2003-12-14 12:00,ZHHH 141200Z 02003MPS 2000 BR NSC 05/04 Q1029 NOSIG
ZHHH,2003-12-14 13:00,ZHHH 141300Z 01002MPS 2000 BR SKC 05/04 Q1029 NOSIG
ZHHH,2003-12-14 14:00,ZHHH 141400Z 36002MPS 2000 BR SKC 05/03 Q1029 NOSIG
ZHHH,2003-12-14 15:00,ZHHH 141500Z 02002MPS 2000 BR SKC 04/02 Q1030 NOSIG
ZHHH,2003-12-14 16:00,ZHHH 141600Z 30001MPS 2000 BR SKC 03/01 Q1030 NOSIG
ZHHH,2003-12-14 17:00,ZHHH 141700Z 00000MPS 1600 R04/1200V1400N BR SKC 03/02 Q1029 NOSIG
ZHHH,2003-12-14 18:00,ZHHH 141800Z 34002MPS 1600 R04/0900D BR SKC 02/01 Q1029 NOSIG
ZHHH,2003-12-14 19:00,ZHHH 141900Z 03001MPS 2000 R04/1200V1400U BR SKC 01/01 Q1029 NOSIG
ZHHH,2003-12-14 20:00,ZHHH 142000Z 33002MPS 0200 R04/0150N FG SKC M01/M02 Q1029 NOSIG
ZHHH,2003-12-14 21:00,ZHHH 142100Z 30001MPS 0200 R04/0175N FG SKC M02/M02 Q1029 NOSIG
ZHHH,2003-12-14 22:00,ZHHH 142200Z 01002MPS 0200 R04/0150V0200N FG SKC M02/M02 Q1029 NOSIG
ZHHH,2003-12-14 23:00,ZHHH 142300Z 36001MPS 0100 R04/0200N FG SKC M02/M02 Q1030 NOSIG
ZHHH,2003-12-15 00:00,ZHHH 150000Z 32001MPS 0100 R04/0125D FG SKC M01/M01 Q1031 NOSIG
ZHHH,2003-12-15 01:00,ZHHH 150100Z 36002MPS 0050 R04/0150N FZFG SKC M01/M01 Q1031 NOSIG
ZHHH,2003-12-15 02:00,ZHHH 150200Z 01002MPS 0200 R04/0200V0300N FG SKC 00/00 Q1031 NOSIG
ZHHH,2003-12-15 03:00,ZHHH 150300Z 01002MPS 0400 R04/0400U FG SKC 01/01 Q1031 NOSIG
ZHHH,2003-12-15 04:00,ZHHH 150400Z 33002MPS 0800 R04/0900V1000N FG NSC 02/02 Q1031 NOSIG
ZHHH,2003-12-15 05:00,ZHHH 150500Z 34002MPS 1600 BR SCT005 BKN100 04/04 Q1030 NOSIG
ZHHH,2003-12-15 06:00,ZHHH 150600Z 06001MPS 2500 BR SCT010 06/05 Q1029 NOSIG
ZHHH,2003-12-15 07:00,ZHHH 150700Z 02001MPS 3000 BR SKC 08/05 Q1028 NOSIG
ZHHH,2003-12-15 08:00,ZHHH 150800Z 08002MPS 6000 SKC 08/04 Q1027 NOSIG
ZHHH,2003-12-15 09:00,ZHHH 150900Z 04002MPS 5000 BR SKC 08/04 Q1028 NOSIG
ZHHH,2003-12-15 10:00,ZHHH 151000Z 04003MPS 6000 SKC 05/03 Q1028 NOSIG
ZHHH,2003-12-15 11:00,ZHHH 151100Z 05004MPS 4500 BR SKC 04/02 Q1029 NOSIG
ZHHH,2003-12-15 12:00,ZHHH 151200Z 05004MPS 4500 BR SKC 02/01 Q1029 NOSIG
ZHHH,2003-12-15 13:00,ZHHH 151300Z 05004MPS 4500 BR SKC 01/00 Q1029 NOSIG
ZHHH,2003-12-15 14:00,ZHHH 151400Z 06004MPS 1600 BR SKC 01/00 Q1030 NOSIG
ZHHH,2003-12-15 15:00,ZHHH 151500Z 06002MPS 1600 BR SKC 00/M00 Q1030 NOSIG
ZHHH,2003-12-15 16:00,ZHHH 151600Z 06002MPS 1600 BR SKC M00/M01 Q1029 NOSIG
ZHHH,2003-12-15 18:00,ZHHH 151800Z 04002MPS 0500 R04/0250N FZFG SKC M01/M01 Q1029 NOSIG
ZHHH,2003-12-15 19:00,ZHHH 151900Z 02002MPS 0300 R04/0700D FZFG VV010 M00/M01 Q1029 NOSIG
ZHHH,2003-12-15 20:00,ZHHH 152000Z 02001MPS 0200 R04/0300N FZFG VV006 M00/M00 Q1028 NOSIG
ZHHH,2003-12-15 21:00,ZHHH 152100Z 34002MPS 0300 R04/0375U FZFG VV010 M01/M01 Q1028 NOSIG
ZHHH,2003-12-15 22:00,ZHHH 152200Z 01001MPS 0400 R04/0450D FZFG VV010 M01/M01 Q1028 NOSIG
ZHHH,2003-12-15 23:00,ZHHH 152300Z 04001MPS 0300 R04/0300D FZFG VV006 M01/M01 Q1029 NOSIG
ZHHH,2003-12-16 00:00,ZHHH 160000Z 00000MPS 0200 R04/0200N FZFG VV006 M00/M00 Q1029 NOSIG
ZHHH,2003-12-16 01:00,ZHHH 160100Z 00000MPS 0200 R04/0200N FG VV005 00/00 Q1030 NOSIG
ZHHH,2003-12-16 02:00,ZHHH 160200Z 00000MPS 0150 R04/0150V0200N FG VV002 01/01 Q1030 NOSIG
ZHHH,2003-12-16 03:00,ZHHH 160300Z 24002MPS 0300 R04/0400U FG VV003 02/02 Q1029 NOSIG
ZHHH,2003-12-16 04:00,ZHHH 160400Z 24002MPS 1000 R04/1000V1200U BR OVC005 02/02 Q1028 NOSIG
ZHHH,2003-12-16 05:00,ZHHH 160500Z 25002MPS 1600 R04/1400N BR OVC005 03/03 Q1027 NOSIG
ZHHH,2003-12-16 06:00,ZHHH 160600Z 25002MPS 2000 BR OVC006 04/03 Q1026 NOSIG
ZHHH,2003-12-16 07:00,ZHHH 160700Z 26002MPS 2000 BR OVC006 04/03 Q1025 NOSIG
ZHHH,2003-12-16 08:00,ZHHH 160800Z 24002MPS 2000 BR SCT006 OVC050 05/03 Q1025 NOSIG
ZHHH,2003-12-16 09:00,ZHHH 160900Z 28001MPS 2500 BR SCT006 OVC050 04/03 Q1025 NOSIG
ZHHH,2003-12-16 10:00,ZHHH 161000Z 31002MPS 2500 BR SCT006 OVC050 04/03 Q1026 NOSIG
ZHHH,2003-12-16 11:00,ZHHH 161100Z 31001MPS 2200 BR SCT006 OVC050 04/03 Q1026 NOSIG
ZHHH,2003-12-16 12:00,ZHHH 161200Z 33001MPS 2200 BR FEW006 OVC060 04/03 Q1026 NOSIG
ZHHH,2003-12-16 13:00,ZHHH 161300Z 05002MPS 2200 BR FEW006 OVC060 04/03 Q1027 NOSIG
ZHHH,2003-12-16 14:00,ZHHH 161400Z 04003MPS 2000 BR FEW006 OVC060 04/03 Q1027 NOSIG
ZHHH,2003-12-16 15:00,ZHHH 161500Z 07002MPS 2000 BR SKC 03/02 Q1027 NOSIG
ZHHH,2003-12-16 16:00,ZHHH 161600Z 07001MPS 1600 BR SKC 03/02 Q1027 NOSIG
ZHHH,2003-12-16 17:00,ZHHH 161700Z 04002MPS 1600 BR SCT005 03/03 Q1027 NOSIG
ZHHH,2003-12-16 18:00,ZHHH 161800Z 05001MPS 1500 BR BKN006 03/02 Q1027 NOSIG
ZHHH,2003-12-16 19:00,ZHHH 161900Z 08002MPS 1500 BR BKN005 03/02 Q1027 NOSIG
ZHHH,2003-12-16 20:00,ZHHH 162000Z 10003MPS 080V140 1500 BR OVC005 03/02 Q1027 NOSIG
ZHHH,2003-12-16 21:00,ZHHH 162100Z 07002MPS 1500 BR OVC005 03/02 Q1027 NOSIG
ZHHH,2003-12-16 22:00,ZHHH 162200Z 10002MPS 1500 BR OVC005 02/02 Q1027 NOSIG
ZHHH,2003-12-16 23:00,ZHHH 162300Z 12002MPS 1500 BR OVC005 02/02 Q1028 NOSIG
ZHHH,2003-12-17 00:00,ZHHH 170000Z 00000MPS 1500 BR OVC006 02/02 Q1028 NOSIG
ZHHH,2003-12-17 01:00,ZHHH 170100Z 02002MPS 1600 BR SCT006 OVC040 03/02 Q1029 NOSIG
ZHHH,2003-12-17 02:00,ZHHH 170200Z 04003MPS 1600 BR SCT006 BKN040 03/02 Q1029 NOSIG
ZHHH,2003-12-17 03:00,ZHHH 170300Z 05002MPS 1800 BR FEW014 SCT040 04/02 Q1029 NOSIG
ZHHH,2003-12-17 04:00,ZHHH 170400Z 13003MPS 090V170 2000 BR SCT020 05/03 Q1028 NOSIG
ZHHH,2003-12-17 05:00,ZHHH 170500Z 09003MPS 2000 BR SKC 06/03 Q1026 NOSIG
ZHHH,2003-12-17 06:00,ZHHH 170600Z 10003MPS 3000 BR SKC 07/03 Q1025 NOSIG
ZHHH,2003-12-17 07:00,ZHHH 170700Z 12003MPS 2000 BR NSC 07/04 Q1025 NOSIG
ZHHH,2003-12-17 08:00,ZHHH 170800Z 16002MPS 3000 BR NSC 07/03 Q1025 NOSIG
ZHHH,2003-12-17 09:00,ZHHH 170900Z 15002MPS 3000 BR NSC 07/03 Q1025 NOSIG
ZHHH,2003-12-17 10:00,ZHHH 171000Z 00000MPS 3000 BR NSC 07/04 Q1025 NOSIG
ZHHH,2003-12-17 11:00,ZHHH 171100Z 00000MPS 2500 BR SCT033 OVC100 07/04 Q1025 NOSIG
ZHHH,2003-12-17 12:00,ZHHH 171200Z 35001MPS 2500 BR SCT033 OVC100 06/04 Q1025 NOSIG
ZHHH,2003-12-17 13:00,ZHHH 171300Z 36003MPS 2500 BR SCT033 OVC100 07/05 Q1026 NOSIG
ZHHH,2003-12-17 14:00,ZHHH 171400Z 02003MPS 2500 BR SCT033 OVC100 07/05 Q1027 NOSIG
ZHHH,2003-12-17 15:00,ZHHH 171500Z 04002MPS 2500 BR FEW033 OVC100 07/03 Q1027 NOSIG
ZHHH,2003-12-17 16:00,ZHHH 171600Z 06002MPS 3000 BR FEW033 OVC100 07/01 Q1027 NOSIG
ZHHH,2003-12-17 17:00,ZHHH 171700Z 03002MPS 4000 BR NSC 06/02 Q1027 NOSIG
ZHHH,2003-12-17 18:00,ZHHH 171800Z 36001MPS 4000 BR NSC 06/02 Q1028 NOSIG
ZHHH,2003-12-17 19:00,ZHHH 171900Z 00000MPS 3000 BR NSC 06/03 Q1028 NOSIG
ZHHH,2003-12-17 20:00,ZHHH 172000Z 00000MPS 3000 BR NSC 06/03 Q1028 NOSIG
ZHHH,2003-12-17 21:00,ZHHH 172100Z 35003MPS 320V020 3000 BR NSC 06/02 Q1029 NOSIG
ZHHH,2003-12-17 22:00,ZHHH 172200Z 36005MPS 3000 HZ NSC 06/M01 Q1030 NOSIG
ZHHH,2003-12-17 23:00,ZHHH 172300Z 34003MPS 3000 HZ NSC 06/00 Q1030 NOSIG
ZHHH,2003-12-18 00:00,ZHHH 180000Z 30003MPS 5000 HZ NSC 05/01 Q1031 NOSIG
ZHHH,2003-12-18 01:00,ZHHH 180100Z 32003MPS 300V360 5000 HZ NSC 06/01 Q1032 NOSIG
ZHHH,2003-12-18 02:00,ZHHH 180200Z 31004MPS 280V340 6000 NSC 06/02 Q1033 NOSIG
ZHHH,2003-12-18 03:00,ZHHH 180300Z 34004MPS 320V020 4000 BR NSC 06/03 Q1033 NOSIG
ZHHH,2003-12-18 04:00,ZHHH 180400Z 33003MPS 6000 NSC 07/03 Q1032 NOSIG
ZHHH,2003-12-18 05:00,ZHHH 180500Z 31003MPS 280V350 6000 NSC 08/03 Q1032 NOSIG
ZHHH,2003-12-18 06:00,ZHHH 180600Z 29003MPS 260V330 6000 NSC 08/02 Q1031 NOSIG
ZHHH,2003-12-18 07:00,ZHHH 180700Z 28003MPS 250V310 7000 NSC 09/M00 Q1031 NOSIG
ZHHH,2003-12-18 08:00,ZHHH 180800Z AUTO 28006KT 08/02 A3047 RMK SLP322 T00800020 IEM_DS3505
ZHHH,2003-12-18 09:00,ZHHH 180900Z AUTO 25002KT 7SM 09/01 A3047 RMK SLP329 T00870010 52009 IEM_DS3505
ZHHH,2003-12-18 10:00,ZHHH 181000Z AUTO 29004KT 4SM 08/03 A3050 RMK SLP333 T00800030 IEM_DS3505
ZHHH,2003-12-18 11:00,ZHHH 181100Z AUTO 31004KT 4SM 06/03 A3053 RMK SLP343 T00600030 IEM_DS3505
ZHHH,2003-12-18 12:00,ZHHH 181200Z AUTO 02002KT 7SM 06/02 A3056 RMK SLP359 T00550018 52029 IEM_DS3505
ZHHH,2003-12-18 13:00,ZHHH 181300Z AUTO 04010KT 6SM 06/M03 A3059 RMK SLP363 T00601030 IEM_DS3505
ZHHH,2003-12-18 14:00,ZHHH 181400Z 03006MPS CAVOK 06/M06 Q1038 NOSIG
ZHHH,2003-12-18 15:00,ZHHH 181500Z 01005MPS CAVOK 06/M09 Q1038 NOSIG
ZHHH,2003-12-18 16:00,ZHHH 181600Z 02007MPS CAVOK 05/M10 Q1039 NOSIG
ZHHH,2003-12-18 17:00,ZHHH 181700Z 02005MPS CAVOK 04/M09 Q1039 NOSIG
ZHHH,2003-12-18 18:00,ZHHH 181800Z 03004MPS 360V070 CAVOK 03/M06 Q00 NOSIG
ZHHH,2003-12-18 19:00,ZHHH 181900Z 01003MPS CAVOK 02/M07 Q1041 NOSIG
ZHHH,2003-12-18 21:00,ZHHH 182100Z AUTO 04002KT 9SM 02/M08 A3073 RMK SLP413 T00241076 52007 IEM_DS3505
ZHHH,2003-12-18 22:00,ZHHH 182200Z 02003MPS CAVOK 00/M06 Q1041 NOSIG
ZHHH,2003-12-18 23:00,ZHHH 182300Z 01002MPS CAVOK M00/M07 Q1041 NOSIG
ZHHH,2003-12-19 00:00,ZHHH 190000Z 03002MPS CAVOK 00/M06 Q1042 NOSIG
ZHHH,2003-12-19 01:00,ZHHH 190100Z 02002MPS CAVOK 02/M07 Q1042 NOSIG
ZHHH,2003-12-19 02:00,ZHHH 190200Z 03003MPS 360V080 CAVOK 03/M09 Q1042 NOSIG
ZHHH,2003-12-19 03:00,ZHHH 190300Z 10002MPS CAVOK 04/M12 Q1042 NOSIG
ZHHH,2003-12-19 05:00,ZHHH 190500Z 01002MPS CAVOK 06/M12 Q1039 NOSIG
ZHHH,2003-12-19 06:00,ZHHH 190600Z 33003MPS 260V040 CAVOK 06/M12 Q1038 NOSIG
ZHHH,2003-12-19 07:00,ZHHH 190700Z 36003MPS 270V080 CAVOK 06/M10 Q1037 NOSIG
ZHHH,2003-12-19 08:00,ZHHH 190800Z 33004MPS 300V360 CAVOK 06/M11 Q1037 NOSIG
ZHHH,2003-12-19 09:00,ZHHH 190900Z 32002MPS CAVOK 06/M10 Q1037 NOSIG
ZHHH,2003-12-19 10:00,ZHHH 191000Z 24001MPS CAVOK 04/M08 Q1037 NOSIG
ZHHH,2003-12-19 11:00,ZHHH 191100Z 24002MPS CAVOK 04/M09 Q1037 NOSIG
ZHHH,2003-12-19 12:00,ZHHH 191200Z 25001MPS CAVOK 03/M09 Q1037 NOSIG
ZHHH,2003-12-19 13:00,ZHHH 191300Z 24002MPS CAVOK 03/M08 Q1038 NOSIG
ZHHH,2003-12-19 14:00,ZHHH 191400Z 26002MPS CAVOK 02/M06 Q1038 NOSIG
ZHHH,2003-12-19 15:00,ZHHH 191500Z 00000MPS CAVOK 02/M06 Q1038 NOSIG
ZHHH,2003-12-19 16:00,ZHHH 191600Z 31001MPS CAVOK 01/M04 Q1038 NOSIG
ZHHH,2003-12-19 17:00,ZHHH 191700Z 36001MPS CAVOK 01/M03 Q1038 NOSIG
ZHHH,2003-12-19 18:00,ZHHH 191800Z 00000MPS CAVOK 01/M06 Q1038 NOSIG
ZHHH,2003-12-19 19:00,ZHHH 191900Z 00000MPS CAVOK M00/M06 Q1037 NOSIG
ZHHH,2003-12-19 20:00,ZHHH 192000Z 00000MPS CAVOK M00/M05 Q1038 NOSIG
ZHHH,2003-12-19 21:00,ZHHH 192100Z 07001MPS CAVOK M00/M05 Q1037 NOSIG
ZHHH,2003-12-19 22:00,ZHHH 192200Z 07002MPS CAVOK M01/M06 Q1037 NOSIG
ZHHH,2003-12-19 23:00,ZHHH 192300Z 09001MPS CAVOK M01/M05 Q1038 NOSIG
ZHHH,2003-12-20 00:00,ZHHH 200000Z 08002MPS CAVOK M01/M04 Q1038 NOSIG
ZHHH,2003-12-20 01:00,ZHHH 200100Z 09002MPS CAVOK M00/M04 Q1038 NOSIG
ZHHH,2003-12-20 02:00,ZHHH 200200Z 14002MPS CAVOK 02/M04 Q1039 NOSIG
ZHHH,2003-12-20 03:00,ZHHH 200300Z 11002MPS CAVOK 04/M04 Q1038 NOSIG
ZHHH,2003-12-20 04:00,ZHHH 200400Z 36002MPS CAVOK 07/M07 Q1037 NOSIG
ZHHH,2003-12-20 05:00,ZHHH 200500Z 05002MPS CAVOK 08/M07 Q1036 NOSIG
ZHHH,2003-12-20 06:00,ZHHH 200600Z 11002MPS CAVOK 08/M08 Q1035 NOSIG
ZHHH,2003-12-20 07:00,ZHHH 200700Z 22001MPS CAVOK 09/M07 Q1034 NOSIG
ZHHH,2003-12-20 08:00,ZHHH 200800Z 00000MPS CAVOK 09/M06 Q1034 NOSIG
ZHHH,2003-12-20 09:00,ZHHH 200900Z 15002MPS CAVOK 07/M06 Q1034 NOSIG
ZHHH,2003-12-20 10:00,ZHHH 201000Z 19002MPS CAVOK 07/M07 Q1034 NOSIG
ZHHH,2003-12-20 11:00,ZHHH 201100Z 00000MPS CAVOK 07/M08 Q1034 NOSIG
ZHHH,2003-12-20 12:00,ZHHH 201200Z 00000MPS CAVOK 07/M06 Q1034 NOSIG
ZHHH,2003-12-20 13:00,ZHHH 201300Z 00000MPS CAVOK 06/M05 Q1034 NOSIG
ZHHH,2003-12-20 14:00,ZHHH 201400Z 00000MPS CAVOK 06/M07 Q1035 NOSIG
ZHHH,2003-12-20 15:00,ZHHH 201500Z 00000MPS CAVOK 06/M06 Q1035 NOSIG
ZHHH,2003-12-20 16:00,ZHHH 201600Z 04002MPS CAVOK 05/M04 Q1035 NOSIG
ZHHH,2003-12-20 17:00,ZHHH 201700Z 04002MPS CAVOK 04/M03 Q1034 NOSIG
ZHHH,2003-12-20 18:00,ZHHH 201800Z 07001MPS CAVOK 04/M04 Q1034 NOSIG
ZHHH,2003-12-20 19:00,ZHHH 201900Z 06002MPS CAVOK 03/M02 Q1033 NOSIG
ZHHH,2003-12-20 20:00,ZHHH 202000Z 06002MPS CAVOK 03/M03 Q1033 NOSIG
ZHHH,2003-12-20 21:00,ZHHH 202100Z 07002MPS CAVOK 02/M03 Q1033 NOSIG
ZHHH,2003-12-20 22:00,ZHHH 202200Z 08002MPS CAVOK 02/M04 Q1033 NOSIG
ZHHH,2003-12-20 23:00,ZHHH 202300Z 09002MPS CAVOK 01/M03 Q1033 NOSIG
ZHHH,2003-12-21 00:00,ZHHH 210000Z 09002MPS CAVOK 01/M03 Q1033 NOSIG
ZHHH,2003-12-21 01:00,ZHHH 210100Z 11001MPS CAVOK 02/M02 Q1034 NOSIG
ZHHH,2003-12-21 02:00,ZHHH 210200Z 10002MPS CAVOK 05/00 Q1034 NOSIG
ZHHH,2003-12-21 03:00,ZHHH 210300Z 16003MPS CAVOK 07/M02 Q1034 NOSIG
ZHHH,2003-12-21 04:00,ZHHH 210400Z 16002MPS CAVOK 08/M03 Q1033 NOSIG
ZHHH,2003-12-21 05:00,ZHHH 210500Z 16002MPS CAVOK 09/M04 Q1031 NOSIG
ZHHH,2003-12-21 06:00,ZHHH 210600Z 16002MPS CAVOK 09/M02 Q1030 NOSIG
ZHHH,2003-12-21 07:00,ZHHH 210700Z 26002MPS CAVOK 09/M03 Q1030 NOSIG
ZHHH,2003-12-21 08:00,ZHHH 210800Z 00000MPS CAVOK 08/M03 Q1030 NOSIG
ZHHH,2003-12-21 09:00,ZHHH 210900Z 00000MPS CAVOK 08/M02 Q1029 NOSIG
ZHHH,2003-12-21 10:00,ZHHH 211000Z 00000MPS CAVOK 08/M01 Q1029 NOSIG
ZHHH,2003-12-21 11:00,ZHHH 211100Z 32002MPS CAVOK 07/01 Q1029 NOSIG
ZHHH,2003-12-21 12:00,ZHHH 211200Z 33002MPS 5000 HZ NSC 07/02 Q1029 NOSIG
ZHHH,2003-12-21 13:00,ZHHH 211300Z 32001MPS 3000 BR NSC 06/02 Q1029 NOSIG
ZHHH,2003-12-21 14:00,ZHHH 211400Z 29001MPS 3000 BR NSC 06/02 Q1030 NOSIG
ZHHH,2003-12-21 15:00,ZHHH 211500Z 30002MPS 3000 BR NSC 06/03 Q1029 NOSIG
ZHHH,2003-12-21 16:00,ZHHH 211600Z 30002MPS 2000 BR NSC 06/03 Q1029 NOSIG
ZHHH,2003-12-21 17:00,ZHHH 211700Z 31001MPS 2000 BR NSC 06/03 Q1029 NOSIG
ZHHH,2003-12-21 18:00,ZHHH 211800Z 00000MPS 2000 BR NSC 06/02 Q1029 NOSIG
ZHHH,2003-12-21 19:00,ZHHH 211900Z 00000MPS 2000 BR NSC 05/01 Q1028 NOSIG
ZHHH,2003-12-21 20:00,ZHHH 212000Z 00000MPS 3000 HZ NSC 05/01 Q1028 NOSIG
ZHHH,2003-12-21 21:00,ZHHH 212100Z 24002MPS 3000 BR NSC 05/02 Q1027 NOSIG
ZHHH,2003-12-21 22:00,ZHHH 212200Z 29001MPS 3000 BR NSC 05/02 Q1027 NOSIG
ZHHH,2003-12-21 23:00,ZHHH 212300Z 00000MPS 3000 BR NSC 05/02 Q1028 NOSIG
ZHHH,2003-12-22 00:00,ZHHH 220000Z 19001MPS 1800 BR NSC 05/01 Q1028 NOSIG
ZHHH,2003-12-22 01:00,ZHHH 220100Z 21002MPS 1800 BR NSC 06/01 Q1028 NOSIG
ZHHH,2003-12-22 02:00,ZHHH 220200Z 22001MPS 2500 HZ NSC 07/M01 Q1028 NOSIG
ZHHH,2003-12-22 03:00,ZHHH 220300Z 25002MPS 2500 HZ NSC 08/M00 Q1028 NOSIG
ZHHH,2003-12-22 04:00,ZHHH 220400Z 26002MPS 5000 HZ NSC 10/M02 Q1027 NOSIG
ZHHH,2003-12-22 05:00,ZHHH 220500Z 20002MPS 5000 HZ NSC 10/M04 Q1026 NOSIG
ZHHH,2003-12-22 06:00,ZHHH 220600Z 23003MPS 190V270 5000 HZ NSC 11/M04 Q1024 NOSIG
ZHHH,2003-12-22 07:00,ZHHH 220700Z 25002MPS 5000 HZ NSC 10/M03 Q1024 NOSIG
ZHHH,2003-12-22 08:00,ZHHH 220800Z 23002MPS 4000 HZ NSC 11/M02 Q1024 NOSIG
ZHHH,2003-12-22 09:00,ZHHH 220900Z 19002MPS 4000 HZ NSC 10/M02 Q1024 NOSIG
ZHHH,2003-12-22 10:00,ZHHH 221000Z 17002MPS 4000 HZ NSC 10/M01 Q1024 NOSIG
ZHHH,2003-12-22 11:00,ZHHH 221100Z 20002MPS 4000 HZ NSC 09/M00 Q1024 NOSIG
ZHHH,2003-12-22 12:00,ZHHH 221200Z 20001MPS 5000 HZ NSC 09/M00 Q1024 NOSIG
ZHHH,2003-12-22 13:00,ZHHH 221300Z 00000MPS 5000 HZ NSC 09/M00 Q1024 NOSIG
ZHHH,2003-12-22 14:00,ZHHH 221400Z 00000MPS 5000 HZ NSC 09/M00 Q1024 NOSIG
ZHHH,2003-12-22 15:00,ZHHH 221500Z 15002MPS 3500 HZ NSC 08/01 Q1024 NOSIG
ZHHH,2003-12-22 16:00,ZHHH 221600Z 00000MPS 3500 HZ NSC 08/01 Q1024 NOSIG
ZHHH,2003-12-22 17:00,ZHHH 221700Z 00000MPS 3500 HZ NSC 08/01 Q1024 NOSIG
ZHHH,2003-12-22 18:00,ZHHH 221800Z 00000MPS 5000 HZ SKC 07/M00 Q1023 NOSIG
ZHHH,2003-12-22 19:00,ZHHH 221900Z 00000MPS 5000 HZ SKC 07/M01 Q1023 NOSIG
ZHHH,2003-12-22 20:00,ZHHH 222000Z 00000MPS 5000 HZ SKC 07/M02 Q1022 NOSIG
ZHHH,2003-12-22 21:00,ZHHH 222100Z 00000MPS 5000 HZ SKC 05/M02 Q1022 NOSIG
ZHHH,2003-12-22 22:00,ZHHH 222200Z 00000MPS 4000 BR SKC 05/01 Q1023 NOSIG
ZHHH,2003-12-22 23:00,ZHHH 222300Z 00000MPS 2000 HZ SKC 04/00 Q1023 NOSIG
ZHHH,2003-12-23 00:00,ZHHH 230000Z 05002MPS 1800 R04/1400N BR SKC 04/00 Q1023 NOSIG
ZHHH,2003-12-23 01:00,ZHHH 230100Z 08002MPS 1800 BR SKC 05/02 Q1024 NOSIG
ZHHH,2003-12-23 02:00,ZHHH 230200Z 10003MPS 2000 BR SKC 08/03 Q1024 NOSIG
ZHHH,2003-12-23 03:00,ZHHH 230300Z 12002MPS 2200 HZ SKC 10/02 Q1024 NOSIG
ZHHH,2003-12-23 04:00,ZHHH 230400Z 16002MPS 2500 HZ SKC 13/02 Q1022 NOSIG
ZHHH,2003-12-23 05:00,ZHHH 230500Z 14002MPS 2500 HZ SKC 13/00 Q1021 NOSIG
ZHHH,2003-12-23 06:00,ZHHH 230600Z 15002MPS 2500 HZ SKC 14/02 Q1020 NOSIG
ZHHH,2003-12-23 07:00,ZHHH 230700Z 19003MPS 120V230 3000 HZ SKC 15/01 Q1020 NOSIG
ZHHH,2003-12-23 08:00,ZHHH 230800Z 23002MPS 3000 HZ SKC 15/01 Q1020 NOSIG
ZHHH,2003-12-23 09:00,ZHHH 230900Z 19001MPS 3000 HZ SKC 14/02 Q1020 NOSIG
ZHHH,2003-12-23 11:00,ZHHH 231100Z 09001MPS 3500 HZ SKC 11/02 Q1020 NOSIG
ZHHH,2003-12-23 12:00,ZHHH 231200Z 07002MPS 3500 HZ SKC 10/02 Q1021 NOSIG
ZHHH,2003-12-23 13:00,ZHHH 231300Z 07002MPS 3500 HZ NSC 10/03 Q1021 NOSIG
ZHHH,2003-12-23 14:00,ZHHH 231400Z 10001MPS 3500 HZ NSC 09/02 Q1021 NOSIG
ZHHH,2003-12-23 15:00,ZHHH 231500Z 10002MPS 3000 HZ NSC 09/02 Q1021 NOSIG
ZHHH,2003-12-23 16:00,ZHHH 231600Z 13002MPS 3000 HZ NSC 09/02 Q1021 NOSIG
ZHHH,2003-12-23 17:00,ZHHH 231700Z 12002MPS 3000 HZ SKC 08/02 Q1021 NOSIG
ZHHH,2003-12-23 18:00,ZHHH 231800Z 05002MPS 3000 HZ SKC 06/02 Q1021 NOSIG
ZHHH,2003-12-23 19:00,ZHHH 231900Z 03002MPS 2500 HZ SKC 06/02 Q1021 NOSIG
ZHHH,2003-12-23 20:00,ZHHH 232000Z AUTO 06002KT 1 1/4SM 05/02 A3015 RMK SLP215 T00500020 IEM_DS3505
ZHHH,2003-12-23 21:00,ZHHH 232100Z 09002MPS 2000 BR SKC 05/02 Q1020 NOSIG
ZHHH,2003-12-23 22:00,ZHHH 232200Z 09002MPS 2000 BR SKC 06/02 Q1020 NOSIG
ZHHH,2003-12-23 23:00,ZHHH 232300Z 08002MPS 1800 BR SKC 04/02 Q1021 NOSIG
ZHHH,2003-12-24 00:00,ZHHH 240000Z 09001MPS 1500 R04/1300D BR SKC 05/02 Q1021 NOSIG
ZHHH,2003-12-24 01:00,ZHHH 240100Z 06002MPS 1700 R04/1200N BR SKC 06/03 Q1021 NOSIG
ZHHH,2003-12-24 02:00,ZHHH 240200Z 16001MPS 2500 R04/1200V1400U BR SKC 09/04 Q1022 NOSIG
ZHHH,2003-12-24 03:00,ZHHH 240300Z 10001MPS 2500 HZ SKC 10/04 Q1021 NOSIG
ZHHH,2003-12-24 04:00,ZHHH 240400Z 34001MPS 3000 HZ SKC 13/04 Q1021 NOSIG
ZHHH,2003-12-24 05:00,ZHHH 240500Z 33002MPS 4000 HZ SKC 13/03 Q1019 NOSIG
ZHHH,2003-12-24 06:00,ZHHH 240600Z 34002MPS 4000 HZ SKC 15/04 Q1019 NOSIG
ZHHH,2003-12-24 07:00,ZHHH 240700Z 30002MPS 4000 HZ SKC 15/05 Q1019 NOSIG
ZHHH,2003-12-24 08:00,ZHHH 240800Z 30002MPS 4000 HZ SKC 15/04 Q1019 NOSIG
ZHHH,2003-12-24 09:00,ZHHH 240900Z 26002MPS 4000 HZ SKC 13/05 Q1019 NOSIG
ZHHH,2003-12-24 10:00,ZHHH 241000Z 28002MPS 1700 HZ SKC 12/06 Q1019 NOSIG
ZHHH,2003-12-24 11:00,ZHHH 241100Z 32001MPS 1700 HZ SKC 12/05 Q1020 NOSIG
ZHHH,2003-12-24 12:00,ZHHH 241200Z 35002MPS 1600 HZ SKC 12/05 Q1021 NOSIG
ZHHH,2003-12-24 14:00,ZHHH 241400Z 04003MPS 1600 HZ SKC 12/00 Q1022 NOSIG
ZHHH,2003-12-24 15:00,ZHHH 241500Z AUTO 07002KT 9SM 11/02 A3019 RMK SLP228 T01090016 52012 IEM_DS3505
ZHHH,2003-12-24 16:00,ZHHH 241600Z 03002MPS 3000 HZ NSC 11/M01 Q1023 NOSIG
ZHHH,2003-12-24 18:00,ZHHH 241800Z AUTO 04006KT 9SM 12/M05 A3023 RMK SLP242 T01151046 52014 IEM_DS3505
ZHHH,2003-12-24 19:00,ZHHH 241900Z 04006MPS CAVOK 10/M05 Q1024 NOSIG
ZHHH,2003-12-24 20:00,ZHHH 242000Z 03005MPS CAVOK 10/M04 Q1025 NOSIG
ZHHH,2003-12-24 21:00,ZHHH 242100Z 04005MPS CAVOK 09/M04 Q1026 NOSIG
ZHHH,2003-12-24 22:00,ZHHH 242200Z 04004MPS CAVOK 09/M05 Q1026 NOSIG
ZHHH,2003-12-24 23:00,ZHHH 242300Z 03003MPS 360V060 CAVOK 09/M04 Q1027 NOSIG
ZHHH,2003-12-25 00:00,ZHHH 250000Z 03005MPS 360V060 CAVOK 08/M05 Q1027 NOSIG
ZHHH,2003-12-25 01:00,ZHHH 250100Z 03005MPS 360V060 9999 FEW020 OVC070 08/M05 Q1029 NOSIG
ZHHH,2003-12-25 02:00,ZHHH 250200Z 02006MPS 9999 FEW020 OVC080 08/M05 Q1030 NOSIG
ZHHH,2003-12-25 03:00,ZHHH 250300Z 02007MPS 6000 NSC 07/M06 Q1030 NOSIG
ZHHH,2003-12-25 04:00,ZHHH 250400Z 02007MPS 6000 NSC 07/M05 Q1029 NOSIG
ZHHH,2003-12-25 05:00,ZHHH 250500Z 02006MPS 340V040 6000 NSC 07/M05 Q1029 NOSIG
ZHHH,2003-12-25 06:00,ZHHH 250600Z AUTO 04004KT 7SM 07/M06 A3035 RMK SLP283 T00741060 57017 IEM_DS3505
ZHHH,2003-12-25 07:00,ZHHH 250700Z 02007MPS CAVOK 07/M06 Q1028 NOSIG
ZHHH,2003-12-25 08:00,ZHHH 250800Z 02007MPS CAVOK 08/M06 Q1029 NOSIG
ZHHH,2003-12-25 09:00,ZHHH 250900Z 02004MPS CAVOK 07/M05 Q1029 NOSIG
ZHHH,2003-12-25 10:00,ZHHH 251000Z 03005MPS CAVOK 06/M05 Q1029 NOSIG
ZHHH,2003-12-25 11:00,ZHHH 251100Z 01003MPS CAVOK 06/M04 Q1030 NOSIG
ZHHH,2003-12-25 12:00,ZHHH 251200Z 01003MPS CAVOK 06/M05 Q1030 NOSIG
ZHHH,2003-12-25 13:00,ZHHH 251300Z 01003MPS CAVOK 04/M06 Q1030 NOSIG
ZHHH,2003-12-25 14:00,ZHHH 251400Z 04003MPS CAVOK 04/M06 Q1031 NOSIG
ZHHH,2003-12-25 15:00,ZHHH 251500Z 03002MPS CAVOK 04/M06 Q1031 NOSIG
ZHHH,2003-12-25 16:00,ZHHH 251600Z 04002MPS CAVOK 04/M06 Q1031 NOSIG
ZHHH,2003-12-25 17:00,ZHHH 251700Z 03002MPS CAVOK 03/M07 Q1032 NOSIG
ZHHH,2003-12-25 18:00,ZHHH 251800Z 06001MPS CAVOK 03/M07 Q1032 NOSIG
ZHHH,2003-12-25 20:00,ZHHH 252000Z 36002MPS CAVOK 01/M06 Q1032 NOSIG
ZHHH,2003-12-25 21:00,ZHHH 252100Z AUTO 27002KT 9SM 02/M04 A3049 RMK SLP330 T00221035 52004 IEM_DS3505
ZHHH,2003-12-25 22:00,ZHHH 252200Z 04003MPS CAVOK 02/M08 Q1033 NOSIG
ZHHH,2003-12-25 23:00,ZHHH 252300Z 35002MPS CAVOK 00/M07 Q1033 NOSIG
ZHHH,2003-12-26 00:00,ZHHH 260000Z 04003MPS CAVOK 01/M09 Q1034 NOSIG
ZHHH,2003-12-26 01:00,ZHHH 260100Z 03003MPS 360V060 CAVOK 02/M08 Q1034 NOSIG
ZHHH,2003-12-26 02:00,ZHHH 260200Z 03004MPS 360V060 CAVOK 05/M09 Q1035 NOSIG
ZHHH,2003-12-26 03:00,ZHHH 260300Z 34002MPS CAVOK 05/M08 Q1035 NOSIG
ZHHH,2003-12-26 04:00,ZHHH 260400Z 04005MPS 360V080 CAVOK 07/M13 Q1034 NOSIG
ZHHH,2003-12-26 05:00,ZHHH 260500Z 05004MPS 360V080 CAVOK 08/M13 Q1033 NOSIG
ZHHH,2003-12-26 06:00,ZHHH 260600Z 02003MPS 310V080 CAVOK 08/M13 Q1032 NOSIG
ZHHH,2003-12-26 07:00,ZHHH 260700Z 03002MPS CAVOK 09/M13 Q1032 NOSIG
ZHHH,2003-12-26 08:00,ZHHH 260800Z 03002MPS CAVOK 09/M11 Q1033 NOSIG
ZHHH,2003-12-26 09:00,ZHHH 260900Z 26001MPS CAVOK 08/M12 Q1033 NOSIG
ZHHH,2003-12-26 10:00,ZHHH 261000Z 00000MPS CAVOK 06/M10 Q1033 NOSIG
ZHHH,2003-12-26 11:00,ZHHH 261100Z 00000MPS CAVOK 06/M10 Q1034 NOSIG
ZHHH,2003-12-26 12:00,ZHHH 261200Z 02002MPS CAVOK 05/M10 Q1034 NOSIG
ZHHH,2003-12-26 13:00,ZHHH 261300Z 07002MPS CAVOK 04/M08 Q1034 NOSIG
ZHHH,2003-12-26 15:00,ZHHH 261500Z 00000MPS CAVOK 03/M08 Q1034 NOSIG
ZHHH,2003-12-26 16:00,ZHHH 261600Z 02001MPS CAVOK 01/M07 Q1034 NOSIG
ZHHH,2003-12-26 17:00,ZHHH 261700Z 03002MPS CAVOK 00/M05 Q1034 NOSIG
ZHHH,2003-12-26 18:00,ZHHH 261800Z 07002MPS CAVOK 01/M08 Q1034 NOSIG
ZHHH,2003-12-26 19:00,ZHHH 261900Z 10002MPS CAVOK 01/M07 Q1034 NOSIG
ZHHH,2003-12-26 21:00,ZHHH 262100Z 09001MPS CAVOK M01/M06 Q1033 NOSIG
ZHHH,2003-12-26 22:00,ZHHH 262200Z 09002MPS CAVOK M00/M07 Q1033 NOSIG
ZHHH,2003-12-26 23:00,ZHHH 262300Z 08002MPS CAVOK M00/M06 Q1034 NOSIG
ZHHH,2003-12-27 00:00,ZHHH 270000Z 10003MPS CAVOK M01/M05 Q1034 NOSIG
ZHHH,2003-12-27 01:00,ZHHH 270100Z 10003MPS CAVOK 00/M03 Q1034 NOSIG
ZHHH,2003-12-27 02:00,ZHHH 270200Z 12003MPS CAVOK 03/M01 Q1034 NOSIG
ZHHH,2003-12-27 03:00,ZHHH 270300Z 14003MPS 110V170 CAVOK 06/M04 Q1034 NOSIG
ZHHH,2003-12-27 04:00,ZHHH 270400Z 15005MPS 120V180 CAVOK 07/M07 Q1033 NOSIG
ZHHH,2003-12-27 05:00,ZHHH 270500Z 14004MPS 110V170 CAVOK 08/M06 Q1032 NOSIG
ZHHH,2003-12-27 06:00,ZHHH 270600Z 13004MPS CAVOK 09/M07 Q1031 NOSIG
ZHHH,2003-12-27 07:00,ZHHH 270700Z 14004MPS 110V170 CAVOK 09/M06 Q1030 NOSIG
ZHHH,2003-12-27 09:00,ZHHH 270900Z 11004MPS CAVOK 08/M06 Q1029 NOSIG
ZHHH,2003-12-27 10:00,ZHHH 271000Z 09002MPS CAVOK 06/M05 Q1030 NOSIG
ZHHH,2003-12-27 11:00,ZHHH 271100Z 11003MPS CAVOK 05/M04 Q1029 NOSIG
ZHHH,2003-12-27 12:00,ZHHH 271200Z 10002MPS CAVOK 05/M04 Q1030 NOSIG
ZHHH,2003-12-27 15:00,ZHHH 271500Z 05002MPS CAVOK 03/M04 Q1029 NOSIG
ZHHH,2003-12-27 16:00,ZHHH 271600Z 07003MPS CAVOK 02/M03 Q1029 NOSIG
ZHHH,2003-12-27 17:00,ZHHH 271700Z 09002MPS CAVOK 02/M03 Q1029
ZHHH,2003-12-27 18:00,ZHHH 271800Z 06002MPS CAVOK 02/M02 Q1029
ZHHH,2003-12-27 19:00,ZHHH 271900Z 11003MPS 9999 SKC 02/M02 Q1029
ZHHH,2003-12-27 20:00,ZHHH 272000Z 11003MPS CAVOK 02/M01 Q1028
ZHHH,2003-12-27 21:00,ZHHH 272100Z 10004MPS CAVOK 02/M02 Q1028
ZHHH,2003-12-27 22:00,ZHHH 272200Z 11004MPS CAVOK 03/M02 Q1028
ZHHH,2003-12-27 23:00,ZHHH 272300Z 10003MPS CAVOK 03/M01 Q1028
ZHHH,2003-12-28 00:00,ZHHH 280000Z 10002MPS CAVOK 03/M02 Q1029
ZHHH,2003-12-28 01:00,ZHHH 280100Z 11003MPS 5000 HZ NSC 04/M01 Q1029 NOSIG
ZHHH,2003-12-28 02:00,ZHHH 280200Z 12003MPS 4000 HZ NSC 05/M01 Q1029
ZHHH,2003-12-28 03:00,ZHHH 280300Z 14003MPS 3500 HZ NSC 06/M01 Q1029 NOSIG
ZHHH,2003-12-28 04:00,ZHHH 280400Z 12002MPS 3000 HZ NSC 06/M02 Q1028 NOSIG
ZHHH,2003-12-28 05:00,ZHHH 280500Z 14002MPS 2500 HZ NSC 07/M02 Q1027 NOSIG
ZHHH,2003-12-28 06:00,ZHHH 280600Z 09002MPS 2500 HZ SCT020 OVC070 07/M02 Q1027 NOSIG
ZHHH,2003-12-28 07:00,ZHHH 280700Z 08001MPS 2500 HZ FEW020 OVC070 07/M01 Q1027 NOSIG
ZHHH,2003-12-28 08:00,ZHHH 280800Z 05001MPS 2500 HZ FEW020 OVC070 07/M01 Q1027 NOSIG
ZHHH,2003-12-28 09:00,ZHHH 280900Z 07001MPS 2500 HZ NSC 07/00 Q1027 NOSIG
ZHHH,2003-12-28 10:00,ZHHH 281000Z 02001MPS 2000 HZ NSC 07/00 Q1028 NOSIG
ZHHH,2003-12-28 11:00,ZHHH 281100Z 02001MPS 2000 HZ NSC 07/00 Q1028 NOSIG
ZHHH,2003-12-28 12:00,ZHHH 281200Z 33001MPS 2000 HZ NSC 06/01 Q1028 NOSIG
ZHHH,2003-12-28 13:00,ZHHH 281300Z 33001MPS 2000 HZ NSC 06/01 Q1028 NOSIG
ZHHH,2003-12-28 14:00,ZHHH 281400Z 34001MPS 2500 HZ NSC 06/02 Q1029 NOSIG
ZHHH,2003-12-28 15:00,ZHHH 281500Z 34002MPS 2500 BR NSC 06/02 Q1029 NOSIG
ZHHH,2003-12-28 16:00,ZHHH 281600Z 01002MPS 1800 BR NSC 06/01 Q1029 NOSIG
ZHHH,2003-12-28 17:00,ZHHH 281700Z 36001MPS 1800 BR NSC 06/01 Q1028 NOSIG
ZHHH,2003-12-28 18:00,ZHHH 281800Z 05001MPS 2500 HZ NSC 06/01 Q1028 NOSIG
ZHHH,2003-12-28 19:00,ZHHH 281900Z 36001MPS 2500 BR NSC 06/02 Q1028 NOSIG
ZHHH,2003-12-28 20:00,ZHHH 282000Z 00000MPS 2500 BR NSC 05/02 Q1028 NOSIG
ZHHH,2003-12-28 21:00,ZHHH 282100Z 00000MPS 2500 HZ NSC 06/01 Q1029 NOSIG
ZHHH,2003-12-28 22:00,ZHHH 282200Z 00000MPS 2500 BR NSC 05/02 Q1029 NOSIG
ZHHH,2003-12-28 23:00,ZHHH 282300Z 00000MPS 2500 BR SCT020 OVC100 05/03 Q1029 NOSIG
ZHHH,2003-12-29 00:00,ZHHH 290000Z 36001MPS 1800 BR SCT020 OVC070 05/02 Q1030 NOSIG
ZHHH,2003-12-29 01:00,ZHHH 290100Z 34002MPS 1800 BR SCT020 OVC070 06/02 Q1031 NOSIG
ZHHH,2003-12-29 02:00,ZHHH 290200Z 36001MPS 2500 HZ NSC 07/02 Q1031 NOSIG
ZHHH,2003-12-29 03:00,ZHHH 290300Z 03004MPS 4000 HZ NSC 09/M02 Q1031 NOSIG
ZHHH,2003-12-29 04:00,ZHHH 290400Z 04004MPS 6000 NSC 09/M03 Q1030 NOSIG
ZHHH,2003-12-29 05:00,ZHHH 290500Z 04004MPS 6000 NSC 09/M05 Q1029 NOSIG
ZHHH,2003-12-29 06:00,ZHHH 290600Z 05003MPS 6000 NSC 09/M04 Q1028 NOSIG
ZHHH,2003-12-29 07:00,ZHHH 290700Z 02002MPS 6000 NSC 08/M03 Q1028 NOSIG
ZHHH,2003-12-29 08:00,ZHHH 290800Z 05001MPS 5000 HZ NSC 08/M02 Q1028 NOSIG
ZHHH,2003-12-29 09:00,ZHHH 290900Z 00000MPS 4000 HZ NSC 08/M01 Q1029 NOSIG
ZHHH,2003-12-29 10:00,ZHHH 291000Z 03001MPS 6000 NSC 08/M02 Q1029 NOSIG
ZHHH,2003-12-29 11:00,ZHHH 291100Z 01002MPS 6000 NSC 07/M02 Q1030 NOSIG
ZHHH,2003-12-29 12:00,ZHHH 291200Z 03003MPS 360V060 6000 NSC 07/M02 Q1030 NOSIG
ZHHH,2003-12-29 13:00,ZHHH 291300Z 01003MPS 6000 NSC 07/M02 Q1030 NOSIG
ZHHH,2003-12-29 14:00,ZHHH 291400Z 03003MPS 360V060 6000 NSC 06/M02 Q1030 NOSIG
ZHHH,2003-12-29 15:00,ZHHH 291500Z 04004MPS 6000 NSC 06/M02 Q1029 NOSIG
ZHHH,2003-12-29 16:00,ZHHH 291600Z 02004MPS 6000 NSC 06/M02 Q1029 NOSIG
ZHHH,2003-12-29 17:00,ZHHH 291700Z 01003MPS 340V040 4000 HZ NSC 06/M01 Q1029 NOSIG
ZHHH,2003-12-29 18:00,ZHHH 291800Z 34002MPS 4000 HZ NSC 06/M00 Q1028 NOSIG
ZHHH,2003-12-29 19:00,ZHHH 291900Z 36002MPS 4000 HZ NSC 06/00 Q1028 NOSIG
ZHHH,2003-12-29 20:00,ZHHH 292000Z 04002MPS 4000 HZ NSC 06/M01 Q1027 NOSIG
ZHHH,2003-12-29 21:00,ZHHH 292100Z 03005MPS 4000 HZ NSC 06/M01 Q1027 NOSIG
ZHHH,2003-12-29 22:00,ZHHH 292200Z 02003MPS 4000 HZ NSC 06/00 Q1027 NOSIG
ZHHH,2003-12-29 23:00,ZHHH 292300Z 02003MPS 350V050 3000 HZ NSC 05/00 Q1028 NOSIG
ZHHH,2003-12-30 00:00,ZHHH 300000Z 33003MPS 1600 BR -RA FEW007 OVC070 04/02 Q1028 NOSIG
ZHHH,2003-12-30 01:00,ZHHH 300100Z 33004MPS 1200 R04/1200N BR -RA FEW007 OVC060 03/02 Q1029 NOSIG
ZHHH,2003-12-30 02:00,ZHHH 300200Z 35003MPS 310V010 1200 R04/1200V1400U BR -RA FEW007 OVC060 04/03 Q1030 NOSIG
ZHHH,2003-12-30 03:00,ZHHH 300300Z 33003MPS 300V360 1600 R04/1400D BR -RA FEW007 OVC060 03/02 Q1030 NOSIG
ZHHH,2003-12-30 05:00,ZHHH 300500Z 33003MPS 290V350 1300 R04/1200N BR -RA SCT007 OVC040 03/02 Q1028 NOSIG
ZHHH,2003-12-30 06:00,ZHHH 300600Z 31002MPS 1300 R04/P1500 BR -RA SCT007 OVC040 03/02 Q1027 NOSIG
ZHHH,2003-12-30 07:00,ZHHH 300700Z 28002MPS 1800 BR -RA SCT007 OVC033 03/02 Q1027 NOSIG
ZHHH,2003-12-30 08:00,ZHHH 300800Z 29002MPS 1800 BR SCT010 OVC033 03/02 Q1027 NOSIG
ZHHH,2003-12-30 09:00,ZHHH 300900Z 28003MPS 1800 BR -RA SCT010 OVC033 03/03 Q1028 NOSIG
ZHHH,2003-12-30 10:00,ZHHH 301000Z 31003MPS 1800 BR SCT010 OVC033 03/03 Q1028 NOSIG
ZHHH,2003-12-30 11:00,ZHHH 301100Z 32003MPS 290V350 2000 BR SCT010 OVC033 03/02 Q1029 NOSIG
ZHHH,2003-12-30 12:00,ZHHH 301200Z 30003MPS 260V340 1800 BR SCT007 OVC040 03/02 Q1029 NOSIG
ZHHH,2003-12-30 13:00,ZHHH 301300Z 28002MPS 1800 BR SCT007 OVC040 03/02 Q1029 NOSIG
ZHHH,2003-12-30 14:00,ZHHH 301400Z 24004MPS 1800 BR NSC 02/01 Q1029 NOSIG
ZHHH,2003-12-30 15:00,ZHHH 301500Z 26002MPS 2000 BR FEW010 SCT060 02/01 Q1029 NOSIG
ZHHH,2003-12-30 16:00,ZHHH 301600Z 25001MPS 2000 BR FEW010 SCT060 03/02 Q1029 NOSIG
ZHHH,2003-12-30 17:00,ZHHH 301700Z 24003MPS 2000 BR SCT010 SCT060 03/02 Q1029 NOSIG
ZHHH,2003-12-30 18:00,ZHHH 301800Z 23004MPS 2000 BR BKN010 OVC033 03/02 Q1029 NOSIG
ZHHH,2003-12-30 19:00,ZHHH 301900Z 25003MPS 2000 BR BKN010 OVC033 03/01 Q1029 NOSIG
ZHHH,2003-12-30 20:00,ZHHH 302000Z 24003MPS 2000 BR BKN010 OVC033 03/02 Q1028 NOSIG
ZHHH,2003-12-30 21:00,ZHHH 302100Z 22003MPS 2000 BR SCT010 OVC050 03/01 Q1028 NOSIG
ZHHH,2003-12-30 22:00,ZHHH 302200Z 22003MPS 2000 BR SCT010 OVC050 03/01 Q1028 NOSIG
ZHHH,2003-12-30 23:00,ZHHH 302300Z 25002MPS 3000 BR SCT010 OVC050 03/02 Q1029 NOSIG
