station,valid,metar
ZHHH,2000-01-01 00:00,ZHHH 010000Z AUTO 00000KT 5SM 04/02 RMK SLP227 T00410021 52011 IEM_DS3505
ZHHH,2000-01-01 03:00,ZHHH 010300Z AUTO 32004KT 6SM 06/02 RMK SLP234 T00600023 52007 IEM_DS3505
ZHHH,2000-01-01 06:00,ZHHH 010600Z AUTO 34002KT 5SM 09/03 RMK SLP207 T00910027 57027 IEM_DS3505
ZHHH,2000-01-01 09:00,ZHHH 010900Z AUTO 32002KT 6SM 09/03 RMK SLP212 T00890033 52005 IEM_DS3505
ZHHH,2000-01-01 12:00,ZHHH 011200Z AUTO 02002KT 6SM 07/04 RMK SLP243 T00690036 IEM_DS3505
ZHHH,2000-01-01 15:00,ZHHH 011500Z AUTO 00000KT 6SM 04/02 RMK SLP261 T00450025 52018 IEM_DS3505
ZHHH,2000-01-01 18:00,ZHHH 011800Z AUTO 29002KT 6SM 04/02 RMK SLP257 T00390024 57004 IEM_DS3505
ZHHH,2000-01-01 21:00,ZHHH 012100Z AUTO 27002KT 6SM 03/02 RMK SLP255 T00330023 57002 IEM_DS3505
ZHHH,2000-01-02 00:00,ZHHH 020000Z AUTO 32002KT 4SM 01/01 RMK SLP265 T00130008 52009 IEM_DS3505
ZHHH,2000-01-02 03:00,ZHHH 020300Z AUTO 32002KT 6SM 06/02 RMK SLP269 T00550025 52005 IEM_DS3505
ZHHH,2000-01-02 06:00,ZHHH 020600Z AUTO 27002KT 6SM 12/04 RMK SLP226 T01180040 57043 IEM_DS3505
ZHHH,2000-01-02 09:00,ZHHH 020900Z AUTO 00000KT 7SM 12/03 RMK SLP209 T01200034 57017 IEM_DS3505
ZHHH,2000-01-02 12:00,ZHHH 021200Z AUTO 00000KT 6SM 08/ RMK IEM_DS3505
ZHHH,2000-01-02 15:00,ZHHH 021500Z AUTO 00000KT 6SM 06/04 RMK SLP200 T00630042 54000 IEM_DS3505
ZHHH,2000-01-02 18:00,ZHHH 021800Z AUTO 00000KT 6SM 06/04 RMK SLP193 T00550036 57007 IEM_DS3505
ZHHH,2000-01-02 21:00,ZHHH 022100Z AUTO 14004KT 6SM 06/03 RMK SLP174 T00640030 57019 IEM_DS3505
ZHHH,2000-01-03 00:00,ZHHH 030000Z AUTO 00000KT 6SM 05/03 RMK SLP192 T00480030 52018 IEM_DS3505
ZHHH,2000-01-03 03:00,ZHHH 030300Z AUTO 00000KT 4SM 10/05 RMK SLP191 T00950053 57001 IEM_DS3505
ZHHH,2000-01-03 06:00,ZHHH 030600Z AUTO 09002KT 6SM 13/05 RMK SLP162 T01330046 57029 IEM_DS3505
ZHHH,2000-01-03 09:00,ZHHH 030900Z AUTO 00000KT 6SM 12/07 RMK SLP148 T01230067 57014 IEM_DS3505
ZHHH,2000-01-03 12:00,ZHHH 031200Z AUTO 07002KT 6SM 10/07 RMK SLP151 T01040066 52003 IEM_DS3505
ZHHH,2000-01-03 15:00,ZHHH 031500Z AUTO 04002KT 6SM 09/06 RMK SLP157 T00920062 52006 IEM_DS3505
ZHHH,2000-01-03 18:00,ZHHH 031800Z AUTO 04002KT 7SM 09/06 RMK SLP157 T00860055 54000 IEM_DS3505
ZHHH,2000-01-03 21:00,ZHHH 032100Z AUTO 04002KT 7SM 08/05 RMK SLP149 T00750052 57008 IEM_DS3505
ZHHH,2000-01-04 00:00,ZHHH 040000Z AUTO 04004KT 8SM 07/04 RMK SLP154 T00700045 52005 IEM_DS3505
ZHHH,2000-01-04 03:00,ZHHH 040300Z AUTO 04002KT 9SM 08/04 RMK SLP165 T00790042 52011 IEM_DS3505
ZHHH,2000-01-04 06:00,ZHHH 040600Z AUTO 00000KT 7SM 10/06 RMK SLP134 T01040061 57031 IEM_DS3505
ZHHH,2000-01-04 12:00,ZHHH 041200Z AUTO 02002KT 6SM 08/06 RMK 60003 SLP147 T00840055 52014 IEM_DS3505
ZHHH,2000-01-04 15:00,ZHHH 041500Z AUTO 29002KT 6SM 06/04 RMK SLP164 T00630039 52017 IEM_DS3505
ZHHH,2000-01-04 18:00,ZHHH 041800Z AUTO 36002KT 6SM 06/03 RMK SLP163 T00550033 57001 IEM_DS3505
ZHHH,2000-01-04 21:00,ZHHH 042100Z AUTO 32004KT 6SM 05/03 RMK 70003 SLP164 T00500028 52001 IEM_DS3505
ZHHH,2000-01-05 00:00,ZHHH 050000Z AUTO 04002KT 6SM 05/03 RMK SLP173 T00460029 52009 IEM_DS3505
ZHHH,2000-01-05 03:00,ZHHH 050300Z AUTO 02002KT 6SM 05/03 RMK SLP185 T00540027 52012 IEM_DS3505
ZHHH,2000-01-05 06:00,ZHHH 050600Z AUTO 32002KT 7SM 05/02 RMK SLP168 T00510021 57017 IEM_DS3505
ZHHH,2000-01-05 09:00,ZHHH 050900Z AUTO 02002KT 6SM 05/02 RMK SLP171 T00470022 52003 IEM_DS3505
ZHHH,2000-01-05 12:00,ZHHH 051200Z AUTO 34004KT 6SM 04/02 RMK 60008 SLP210 T00400025 52039 IEM_DS3505
ZHHH,2000-01-05 15:00,ZHHH 051500Z AUTO 04002KT 6SM 03/02 RMK SLP233 T00340019 52023 IEM_DS3505
ZHHH,2000-01-05 21:00,ZHHH 052100Z AUTO 36004KT 6SM 04/02 RMK 70032 SLP232 T00410015 57007 IEM_DS3505
ZHHH,2000-01-06 03:00,ZHHH 060300Z AUTO 02006KT 7SM 06/00 RMK SLP273 T00600000 52012 IEM_DS3505
ZHHH,2000-01-06 06:00,ZHHH 060600Z AUTO 04008KT 7SM 07/M02 RMK 60003 SLP252 T00711022 57020 IEM_DS3505
ZHHH,2000-01-06 09:00,ZHHH 060900Z AUTO 02002KT 6SM 07/M00 RMK SLP249 T00661002 57003 IEM_DS3505
ZHHH,2000-01-06 12:00,ZHHH 061200Z AUTO 00000KT 6SM 06/01 RMK 60002 SLP263 T00580009 52014 IEM_DS3505
ZHHH,2000-01-06 15:00,ZHHH 061500Z AUTO 00000KT 7SM 04/M01 RMK SLP271 T00451010 52008 IEM_DS3505
ZHHH,2000-01-06 21:00,ZHHH 062100Z AUTO 04002KT 9SM 02/M01 RMK 70002 SLP255 T00211013 57006 IEM_DS3505
ZHHH,2000-01-07 00:00,ZHHH 070000Z AUTO 07004KT 7SM 02/M01 RMK SLP259 T00211010 52004 IEM_DS3505
ZHHH,2000-01-07 03:00,ZHHH 070300Z AUTO 07004KT 7SM 04/M00 RMK SLP265 T00351003 52006 IEM_DS3505
ZHHH,2000-01-07 06:00,ZHHH 070600Z AUTO 09004KT 7SM 04/00 RMK 60003 SLP227 T00400003 57038 IEM_DS3505
ZHHH,2000-01-07 09:00,ZHHH 070900Z AUTO 04004KT 7SM 04/01 RMK SLP230 T00380006 52003 IEM_DS3505
ZHHH,2000-01-07 12:00,ZHHH 071200Z AUTO 04004KT 6SM 03/01 RMK 60000 SLP234 T00340007 52004 IEM_DS3505
ZHHH,2000-01-07 15:00,ZHHH 071500Z AUTO 36002KT 6SM 03/02 RMK SLP236 T00300022 52002 IEM_DS3505
ZHHH,2000-01-07 18:00,ZHHH 071800Z AUTO 00000KT 6SM 03/02 RMK 60008 SLP231 T00270017 57005 IEM_DS3505
ZHHH,2000-01-07 21:00,ZHHH 072100Z AUTO 02002KT 6SM 03/02 RMK 70010 SLP206 T00290019 57024 IEM_DS3505
ZHHH,2000-01-08 00:00,ZHHH 080000Z AUTO 00000KT 6SM 03/01 RMK 60001 SLP218 T00290013 52011 IEM_DS3505
ZHHH,2000-01-08 03:00,ZHHH 080300Z AUTO 00000KT 6SM 03/02 RMK SLP220 T00270022 52002 IEM_DS3505
ZHHH,2000-01-08 06:00,ZHHH 080600Z AUTO 04004KT 5SM 03/02 RMK 60012 SLP187 T00280020 57032 IEM_DS3505
ZHHH,2000-01-08 09:00,ZHHH 080900Z AUTO 32002KT 6SM 03/02 RMK SLP189 T00320024 52002 IEM_DS3505
ZHHH,2000-01-08 12:00,ZHHH 081200Z AUTO 00000KT 6SM 03/03 RMK 60000 SLP205 T00310026 52015 IEM_DS3505
ZHHH,2000-01-08 15:00,ZHHH 081500Z AUTO 32002KT 6SM 03/02 RMK SLP214 T00290016 52009 IEM_DS3505
ZHHH,2000-01-08 18:00,ZHHH 081800Z AUTO 00000KT 7SM 03/01 RMK 60003 SLP215 T00290013 52001 IEM_DS3505
ZHHH,2000-01-08 21:00,ZHHH 082100Z AUTO 27002KT 8SM 03/02 RMK 70013 SLP217 T00270017 52002 IEM_DS3505
ZHHH,2000-01-09 00:00,ZHHH 090000Z AUTO 00000KT 7SM 03/01 RMK SLP238 T00280012 IEM_DS3505
ZHHH,2000-01-09 03:00,ZHHH 090300Z AUTO 00000KT 8SM 05/02 RMK SLP243 T00470019 52013 IEM_DS3505
ZHHH,2000-01-09 09:00,ZHHH 090900Z AUTO 00000KT 9SM 07/03 RMK SLP212 T00670028 57006 IEM_DS3505
ZHHH,2000-01-09 12:00,ZHHH 091200Z AUTO 36002KT 1SM 06/04 RMK SLP223 T00630037 52011 IEM_DS3505
ZHHH,2000-01-09 15:00,ZHHH 091500Z AUTO 00000KT 6SM 06/05 RMK SLP226 T00560047 52003 IEM_DS3505
ZHHH,2000-01-09 18:00,ZHHH 091800Z AUTO 00000KT 6SM 06/05 RMK 60008 SLP230 T00550046 52004 IEM_DS3505
ZHHH,2000-01-09 21:00,ZHHH 092100Z AUTO 04002KT 6SM 05/05 RMK 70007 SLP218 T00540047 57012 IEM_DS3505
ZHHH,2000-01-10 00:00,ZHHH 100000Z AUTO 09004KT 6SM 06/05 RMK 60003 SLP212 T00550046 57006 IEM_DS3505
ZHHH,2000-01-10 03:00,ZHHH 100300Z AUTO 04002KT 6SM 06/04 RMK SLP225 T00590043 52013 IEM_DS3505
ZHHH,2000-01-10 06:00,ZHHH 100600Z AUTO 00000KT 6SM 05/05 RMK 60016 SLP197 T00540049 57028 IEM_DS3505
ZHHH,2000-01-10 09:00,ZHHH 100900Z AUTO 02004KT 6SM 05/04 RMK SLP199 T00540045 52002 IEM_DS3505
ZHHH,2000-01-10 12:00,ZHHH 101200Z AUTO 04002KT 6SM 05/05 RMK 60016 SLP198 T00530048 57001 IEM_DS3505
ZHHH,2000-01-10 15:00,ZHHH 101500Z AUTO 36002KT 6SM 05/05 RMK SLP198 T00540049 54000 IEM_DS3505
ZHHH,2000-01-10 18:00,ZHHH 101800Z AUTO 34004KT 6SM 05/05 RMK 60043 SLP182 T00530048 57016 IEM_DS3505
ZHHH,2000-01-10 21:00,ZHHH 102100Z AUTO 32004KT 6SM 05/04 RMK 70094 SLP172 T00500045 57010 IEM_DS3505
ZHHH,2000-01-11 00:00,ZHHH 110000Z AUTO 29002KT 6SM 05/05 RMK 60071 SLP188 T00520047 52016 IEM_DS3505
ZHHH,2000-01-11 03:00,ZHHH 110300Z AUTO 29004KT 6SM 06/05 RMK SLP201 T00580051 52013 IEM_DS3505
ZHHH,2000-01-11 06:00,ZHHH 110600Z AUTO 32004KT 6SM 05/04 RMK 60016 SLP191 T00490039 57010 IEM_DS3505
ZHHH,2000-01-11 09:00,ZHHH 110900Z AUTO 36004KT 6SM 04/03 RMK SLP202 T00410031 52011 IEM_DS3505
ZHHH,2000-01-11 12:00,ZHHH 111200Z AUTO 34006KT 6SM 03/02 RMK 60001 SLP232 T00300017 52030 IEM_DS3505
ZHHH,2000-01-11 15:00,ZHHH 111500Z AUTO 32008KT 7SM 02/01 RMK SLP247 T00230007 52014 IEM_DS3505
ZHHH,2000-01-11 18:00,ZHHH 111800Z AUTO 34006KT 7SM 02/00 RMK SLP250 T00180001 52003 IEM_DS3505
ZHHH,2000-01-11 21:00,ZHHH 112100Z AUTO 32004KT 7SM 01/M00 RMK 70067 SLP248 T00121005 57002 IEM_DS3505
ZHHH,2000-01-12 00:00,ZHHH 120000Z AUTO 34004KT 7SM 01/M01 RMK SLP263 T00111006 52015 IEM_DS3505
ZHHH,2000-01-12 03:00,ZHHH 120300Z AUTO 00000KT 7SM 02/00 RMK SLP271 T00230001 52008 IEM_DS3505
ZHHH,2000-01-12 06:00,ZHHH 120600Z AUTO 36002KT 9SM 05/00 RMK SLP245 T00460004 57026 IEM_DS3505
ZHHH,2000-01-12 09:00,ZHHH 120900Z AUTO 00000KT 9SM 06/02 RMK SLP238 T00590019 57007 IEM_DS3505
ZHHH,2000-01-12 12:00,ZHHH 121200Z AUTO 00000KT 9SM 05/03 RMK T00510026 52013 IEM_DS3505
ZHHH,2000-01-12 15:00,ZHHH 121500Z AUTO 02002KT 7SM 03/01 RMK SLP258 T00330012 52007 IEM_DS3505
ZHHH,2000-01-12 18:00,ZHHH 121800Z AUTO 00000KT 7SM 02/00 RMK SLP244 T00180001 57014 IEM_DS3505
ZHHH,2000-01-12 21:00,ZHHH 122100Z AUTO 02002KT 7SM RMK SLP237 57007 IEM_DS3505
ZHHH,2000-01-13 00:00,ZHHH 130000Z AUTO 04006KT 7SM 00/M02 RMK SLP237 T00001018 54000 IEM_DS3505
ZHHH,2000-01-13 03:00,ZHHH 130300Z AUTO 09004KT 7SM 02/M01 RMK SLP251 T00181007 52014 IEM_DS3505
ZHHH,2000-01-13 06:00,ZHHH 130600Z AUTO 04006KT 9SM 04/00 RMK SLP223 T00390004 57028 IEM_DS3505
ZHHH,2000-01-13 09:00,ZHHH 130900Z AUTO 02004KT 9SM 04/00 RMK SLP227 T00360004 52004 IEM_DS3505
ZHHH,2000-01-13 12:00,ZHHH 131200Z AUTO 02006KT 7SM 02/00 RMK SLP237 T00220000 52010 IEM_DS3505
ZHHH,2000-01-13 15:00,ZHHH 131500Z AUTO 36004KT 7SM 01/M01 RMK SLP246 T00131007 52009 IEM_DS3505
ZHHH,2000-01-13 18:00,ZHHH 131800Z AUTO 36002KT 7SM 01/M01 RMK SLP249 T00081012 52003 IEM_DS3505
ZHHH,2000-01-13 21:00,ZHHH 132100Z AUTO 04002KT 7SM 01/M01 RMK SLP241 T00081012 57008 IEM_DS3505
ZHHH,2000-01-14 00:00,ZHHH 140000Z AUTO 04002KT 8SM 01/M01 RMK SLP245 T00131010 52004 IEM_DS3505
ZHHH,2000-01-14 03:00,ZHHH 140300Z AUTO 04002KT 9SM 02/M01 RMK SLP250 T00171012 52005 IEM_DS3505
ZHHH,2000-01-14 06:00,ZHHH 140600Z AUTO 02004KT 9SM 03/M00 RMK SLP221 T00321001 57029 IEM_DS3505
ZHHH,2000-01-14 09:00,ZHHH 140900Z AUTO 02002KT 8SM 03/M00 RMK SLP218 T00321001 57003 IEM_DS3505
ZHHH,2000-01-14 12:00,ZHHH 141200Z AUTO 34002KT 6SM 02/01 RMK 60012 SLP220 T00190008 52002 IEM_DS3505
ZHHH,2000-01-14 15:00,ZHHH 141500Z AUTO 02002KT 6SM 02/02 RMK SLP225 T00190018 52008 IEM_DS3505
ZHHH,2000-01-14 18:00,ZHHH 141800Z AUTO 02004KT 6SM 02/01 RMK 60008 SLP227 T00180007 52002 IEM_DS3505
ZHHH,2000-01-14 21:00,ZHHH 142100Z AUTO 02004KT 6SM 02/00 RMK 70017 SLP219 T00160005 57008 IEM_DS3505
ZHHH,2000-01-15 00:00,ZHHH 150000Z AUTO 36002KT 02/00 RMK 60003 SLP238 T00160005 52019 IEM_DS3505
ZHHH,2000-01-15 03:00,ZHHH 150300Z AUTO 34002KT 6SM 02/01 RMK SLP251 T00170009 52013 IEM_DS3505
ZHHH,2000-01-15 06:00,ZHHH 150600Z AUTO 32004KT 6SM 02/00 RMK 60002 SLP235 T00180004 57016 IEM_DS3505
ZHHH,2000-01-15 09:00,ZHHH 150900Z AUTO 36004KT 7SM 02/M00 RMK SLP243 T00151005 52008 IEM_DS3505
ZHHH,2000-01-15 12:00,ZHHH 151200Z AUTO 36004KT 6SM 01/M01 RMK SLP258 T00131010 52015 IEM_DS3505
ZHHH,2000-01-15 15:00,ZHHH 151500Z AUTO 32004KT 6SM 01/M01 RMK SLP281 T00101007 52023 IEM_DS3505
ZHHH,2000-01-15 18:00,ZHHH 151800Z AUTO 32004KT 7SM 01/M01 RMK SLP281 T00071007 54000 IEM_DS3505
ZHHH,2000-01-15 21:00,ZHHH 152100Z AUTO 34002KT 7SM 01/M00 RMK 70002 SLP276 T00071004 57005 IEM_DS3505
ZHHH,2000-01-16 00:00,ZHHH 160000Z AUTO 04002KT 6SM 01/M01 RMK 70002 SLP293 T00101007 52017 IEM_DS3505
ZHHH,2000-01-16 03:00,ZHHH 160300Z AUTO 36004KT 7SM 02/M01 RMK SLP302 T00191006 52009 IEM_DS3505
ZHHH,2000-01-16 06:00,ZHHH 160600Z AUTO 02004KT 9SM 02/M00 RMK SLP281 T00211001 57021 IEM_DS3505
ZHHH,2000-01-16 09:00,ZHHH 160900Z AUTO 04004KT 7SM 02/00 RMK SLP280 T00190003 57001 IEM_DS3505
ZHHH,2000-01-16 12:00,ZHHH 161200Z AUTO 04004KT 6SM 02/00 RMK 60000 SLP294 T00150004 52014 IEM_DS3505
ZHHH,2000-01-16 15:00,ZHHH 161500Z AUTO 36002KT 6SM 01/M00 RMK SLP312 T00131004 52018 IEM_DS3505
ZHHH,2000-01-16 18:00,ZHHH 161800Z AUTO 32004KT 6SM 01/00 RMK 60004 SLP309 T00100002 57003 IEM_DS3505
ZHHH,2000-01-16 21:00,ZHHH 162100Z AUTO 34002KT 6SM 01/00 RMK 70006 SLP305 T00080000 57004 IEM_DS3505
ZHHH,2000-01-17 00:00,ZHHH 170000Z AUTO 02004KT 7SM 01/M01 RMK 60000 SLP312 T00071007 52007 IEM_DS3505
ZHHH,2000-01-17 03:00,ZHHH 170300Z AUTO 36002KT 7SM 01/M01 RMK SLP319 T00131010 52007 IEM_DS3505
ZHHH,2000-01-17 06:00,ZHHH 170600Z AUTO 29002KT 9SM 02/M00 RMK 60003 SLP298 T00211001 57021 IEM_DS3505
ZHHH,2000-01-17 09:00,ZHHH 170900Z AUTO 36002KT 7SM 03/M00 RMK SLP291 T00271003 57007 IEM_DS3505
ZHHH,2000-01-17 12:00,ZHHH 171200Z AUTO 00000KT 8SM 03/00 RMK 60003 SLP303 T00260004 52012 IEM_DS3505
ZHHH,2000-01-17 15:00,ZHHH 171500Z AUTO 00000KT 7SM 01/M00 RMK SLP311 T00101001 52008 IEM_DS3505
ZHHH,2000-01-17 18:00,ZHHH 171800Z AUTO 00000KT 7SM 00/M01 RMK SLP308 T00031009 57003 IEM_DS3505
ZHHH,2000-01-17 21:00,ZHHH 172100Z AUTO 00000KT 6SM M00/M02 RMK SLP299 T10031015 57009 IEM_DS3505
ZHHH,2000-01-18 00:00,ZHHH 180000Z AUTO 00000KT 5SM M00/M01 RMK 70003 SLP308 T10031006 52009 IEM_DS3505
ZHHH,2000-01-18 03:00,ZHHH 180300Z AUTO 00000KT 5SM 03/02 RMK SLP321 T00310015 52013 IEM_DS3505
ZHHH,2000-01-18 06:00,ZHHH 180600Z AUTO 27002KT 8SM 07/02 RMK SLP292 T00680018 57029 IEM_DS3505
ZHHH,2000-01-18 09:00,ZHHH 180900Z AUTO 00000KT 9SM 08/02 RMK SLP291 T00750018 57001 IEM_DS3505
ZHHH,2000-01-18 12:00,ZHHH 181200Z AUTO 00000KT 11SM 04/02 RMK SLP308 T00380025 52017 IEM_DS3505
ZHHH,2000-01-18 15:00,ZHHH 181500Z AUTO 00000KT 11SM 02/01 RMK SLP322 T00200012 52014 IEM_DS3505
ZHHH,2000-01-18 18:00,ZHHH 181800Z AUTO 00000KT 9SM 01/00 RMK SLP321 T00080002 57001 IEM_DS3505
ZHHH,2000-01-18 21:00,ZHHH 182100Z AUTO 02006KT 9SM 02/M07 RMK SLP325 T00181069 52004 IEM_DS3505
ZHHH,2000-01-19 00:00,ZHHH 190000Z AUTO 36002KT 11SM 00/M04 RMK SLP345 T00041040 52020 IEM_DS3505
ZHHH,2000-01-19 03:00,ZHHH 190300Z AUTO 04002KT 11SM 03/M07 RMK SLP362 T00261066 52017 IEM_DS3505
ZHHH,2000-01-19 06:00,ZHHH 190600Z AUTO 04002KT 11SM 06/M08 RMK SLP330 T00551083 57032 IEM_DS3505
ZHHH,2000-01-19 09:00,ZHHH 190900Z AUTO 00000KT 11SM 06/M08 RMK SLP314 T00571079 57016 IEM_DS3505
ZHHH,2000-01-19 12:00,ZHHH 191200Z AUTO 00000KT 9SM 02/M03 RMK SLP316 T00211030 52002 IEM_DS3505
ZHHH,2000-01-19 15:00,ZHHH 191500Z AUTO 00000KT 9SM 02/M04 RMK SLP319 T00171035 52003 IEM_DS3505
ZHHH,2000-01-19 18:00,ZHHH 191800Z AUTO 00000KT 11SM 01/M04 RMK SLP332 T00101037 52013 IEM_DS3505
ZHHH,2000-01-19 21:00,ZHHH 192100Z AUTO 00000KT 12SM 00/M02 RMK SLP320 T00021016 57012 IEM_DS3505
ZHHH,2000-01-20 00:00,ZHHH 200000Z AUTO 00000KT 6SM 01/M02 RMK SLP340 T00071017 52020 IEM_DS3505
ZHHH,2000-01-20 03:00,ZHHH 200300Z AUTO 04006KT 9SM 05/M03 RMK SLP349 T00531034 52009 IEM_DS3505
ZHHH,2000-01-20 06:00,ZHHH 200600Z AUTO 07004KT 11SM 08/M02 RMK SLP322 T00781023 57027 IEM_DS3505
ZHHH,2000-01-20 09:00,ZHHH 200900Z AUTO 04002KT 11SM 08/M02 RMK SLP318 T00791021 57004 IEM_DS3505
ZHHH,2000-01-20 12:00,ZHHH 201200Z AUTO 04002KT 9SM 06/01 RMK SLP328 T00580006 52010 IEM_DS3505
ZHHH,2000-01-20 15:00,ZHHH 201500Z AUTO 04004KT 9SM 04/M01 RMK SLP333 T00421007 52005 IEM_DS3505
ZHHH,2000-01-20 18:00,ZHHH 201800Z AUTO 04002KT 7SM 03/M01 RMK SLP334 T00331006 52001 IEM_DS3505
ZHHH,2000-01-20 21:00,ZHHH 202100Z AUTO 07002KT 7SM 03/M00 RMK SLP323 T00291001 57011 IEM_DS3505
ZHHH,2000-01-21 00:00,ZHHH 210000Z AUTO 00000KT 9SM 03/M01 RMK SLP332 T00271013 52009 IEM_DS3505
ZHHH,2000-01-21 03:00,ZHHH 210300Z AUTO 32002KT 6SM 03/00 RMK SLP338 T00270000 52006 IEM_DS3505
ZHHH,2000-01-21 06:00,ZHHH 210600Z AUTO 04004KT 6SM 03/01 RMK 60000 SLP304 T00270008 57034 IEM_DS3505
ZHHH,2000-01-21 09:00,ZHHH 210900Z AUTO 09004KT 6SM 03/00 RMK SLP299 T00270005 57005 IEM_DS3505
ZHHH,2000-01-21 12:00,ZHHH 211200Z AUTO 07002KT 5SM 03/01 RMK 60004 SLP304 T00260010 52005 IEM_DS3505
ZHHH,2000-01-21 15:00,ZHHH 211500Z AUTO 02002KT 5SM 01/01 RMK SLP305 T00130008 52001 IEM_DS3505
ZHHH,2000-01-21 18:00,ZHHH 211800Z AUTO 36002KT 5SM 01/00 RMK 60016 SLP296 T00080002 57009 IEM_DS3505
ZHHH,2000-01-21 21:00,ZHHH 212100Z AUTO 36002KT 5SM 00/00 RMK 70039 SLP287 T00050002 57009 IEM_DS3505
ZHHH,2000-01-22 00:00,ZHHH 220000Z AUTO 00000KT 4SM 01/00 RMK 60024 SLP292 T00060000 52005 IEM_DS3505
ZHHH,2000-01-22 03:00,ZHHH 220300Z AUTO 00000KT 4SM 01/00 RMK SLP294 T00060000 52002 IEM_DS3505
ZHHH,2000-01-22 06:00,ZHHH 220600Z AUTO 00000KT 5SM 01/00 RMK 60004 SLP271 T00120001 57023 IEM_DS3505
ZHHH,2000-01-22 09:00,ZHHH 220900Z AUTO 00000KT 5SM 02/00 RMK SLP267 T00160005 57004 IEM_DS3505
ZHHH,2000-01-22 12:00,ZHHH 221200Z AUTO 00000KT 6SM 02/01 RMK 60003 SLP277 T00180007 52010 IEM_DS3505
ZHHH,2000-01-22 15:00,ZHHH 221500Z AUTO 00000KT 6SM 02/01 RMK SLP282 T00160008 52005 IEM_DS3505
ZHHH,2000-01-22 18:00,ZHHH 221800Z AUTO 00000KT 5SM 02/01 RMK 60004 SLP272 T00150010 57010 IEM_DS3505
ZHHH,2000-01-22 21:00,ZHHH 222100Z AUTO 00000KT 5SM 01/01 RMK 70050 SLP260 T00130008 57012 IEM_DS3505
ZHHH,2000-01-23 00:00,ZHHH 230000Z AUTO 00000KT 5SM 02/01 RMK 60055 SLP277 T00150010 52017 IEM_DS3505
ZHHH,2000-01-23 03:00,ZHHH 230300Z AUTO 04004KT 6SM 02/00 RMK SLP283 T00190005 52006 IEM_DS3505
ZHHH,2000-01-23 06:00,ZHHH 230600Z AUTO 02004KT 6SM 02/00 RMK 60004 SLP262 T00250000 57021 IEM_DS3505
ZHHH,2000-01-23 09:00,ZHHH 230900Z AUTO 04004KT 6SM 02/01 RMK SLP269 T00230007 52007 IEM_DS3505
ZHHH,2000-01-23 12:00,ZHHH 231200Z AUTO 02002KT 6SM 02/01 RMK 60008 SLP291 T00170006 52022 IEM_DS3505
ZHHH,2000-01-23 15:00,ZHHH 231500Z AUTO 04002KT 5SM 02/M01 RMK SLP306 T00151008 52015 IEM_DS3505
ZHHH,2000-01-23 18:00,ZHHH 231800Z AUTO 04006KT 6SM 01/M00 RMK 60002 SLP306 T00111003 54000 IEM_DS3505
ZHHH,2000-01-23 21:00,ZHHH 232100Z AUTO 02004KT 6SM 01/M00 RMK 70037 SLP305 T00111003 57001 IEM_DS3505
ZHHH,2000-01-24 00:00,ZHHH 240000Z AUTO 01004KT 6SM 00/M01 RMK 60012 SLP331 T00051007 52026 IEM_DS3505
ZHHH,2000-01-24 03:00,ZHHH 240300Z AUTO 36004KT 3/8SM M00/M01 RMK SLP356 T10031006 52025 IEM_DS3505
ZHHH,2000-01-24 06:00,ZHHH 240600Z AUTO 02004KT 1/2SM M00/M01 RMK 60035 SLP350 T10031006 57006 IEM_DS3505
ZHHH,2000-01-24 09:00,ZHHH 240900Z AUTO 36002KT 7SM M01/M02 RMK SLP372 T10111025 52022 IEM_DS3505
ZHHH,2000-01-24 12:00,ZHHH 241200Z AUTO 7SM RMK 60004 SLP401 52029 IEM_DS3505
ZHHH,2000-01-24 15:00,ZHHH 241500Z AUTO 04002KT 7SM M02/M04 RMK SLP412 T10151045 52010 IEM_DS3505
ZHHH,2000-01-24 18:00,ZHHH 241800Z AUTO 04004KT 8SM M02/M06 RMK 60003 SLP418 T10231063 52006 IEM_DS3505
ZHHH,2000-01-24 21:00,ZHHH 242100Z AUTO 02006KT 9SM M04/M07 RMK 70048 SLP417 T10351071 57001 IEM_DS3505
ZHHH,2000-01-25 00:00,ZHHH 250000Z AUTO 04006KT 11SM M04/M07 RMK 70039 SLP426 T10401073 52009 IEM_DS3505
ZHHH,2000-01-25 03:00,ZHHH 250300Z AUTO 02004KT 9SM M03/M06 RMK SLP444 T10261059 52018 IEM_DS3505
ZHHH,2000-01-25 06:00,ZHHH 250600Z AUTO 02002KT 11SM M01/M06 RMK SLP417 T10061065 57027 IEM_DS3505
ZHHH,2000-01-25 09:00,ZHHH 250900Z AUTO 02006KT 9SM M00/M07 RMK SLP413 T10051068 57004 IEM_DS3505
ZHHH,2000-01-25 12:00,ZHHH 251200Z AUTO 04002KT 7SM M01/M06 RMK SLP423 T10131062 52010 IEM_DS3505
ZHHH,2000-01-25 15:00,ZHHH 251500Z AUTO 36002KT 6SM M02/M07 RMK SLP430 T10191071 52007 IEM_DS3505
ZHHH,2000-01-25 18:00,ZHHH 251800Z AUTO 02002KT 9SM M03/M08 RMK SLP427 T10261076 57003 IEM_DS3505
ZHHH,2000-01-25 21:00,ZHHH 252100Z AUTO 36002KT 9SM M04/M09 RMK SLP427 T10361090 54000 IEM_DS3505
ZHHH,2000-01-26 00:00,ZHHH 260000Z AUTO 02002KT 11SM M04/M12 RMK SLP438 T10421121 52011 IEM_DS3505
ZHHH,2000-01-26 03:00,ZHHH 260300Z AUTO 02002KT 11SM M02/M08 RMK SLP444 T10161080 52006 IEM_DS3505
ZHHH,2000-01-26 06:00,ZHHH 260600Z AUTO 04004KT 11SM 01/M07 RMK SLP418 T00091073 57026 IEM_DS3505
ZHHH,2000-01-26 09:00,ZHHH 260900Z AUTO 04002KT 11SM 01/M06 RMK SLP413 T00131064 57005 IEM_DS3505
ZHHH,2000-01-26 12:00,ZHHH 261200Z AUTO 04004KT 9SM M01/M06 RMK SLP422 T10071062 52009 IEM_DS3505
ZHHH,2000-01-26 15:00,ZHHH 261500Z AUTO 04002KT 9SM M02/M07 RMK SLP427 T10251069 52005 IEM_DS3505
ZHHH,2000-01-26 18:00,ZHHH 261800Z AUTO 00000KT 9SM M04/M10 RMK SLP422 T10351095 57005 IEM_DS3505
ZHHH,2000-01-26 21:00,ZHHH 262100Z AUTO 00000KT 11SM M04/M10 RMK SLP421 T10411098 57001 IEM_DS3505
ZHHH,2000-01-27 00:00,ZHHH 270000Z AUTO 02004KT 12SM M04/M11 RMK SLP427 T10441107 52006 IEM_DS3505
ZHHH,2000-01-27 03:00,ZHHH 270300Z AUTO 02004KT 12SM M01/M07 RMK SLP428 T10081072 52001 IEM_DS3505
ZHHH,2000-01-27 06:00,ZHHH 270600Z AUTO 04002KT 12SM 01/M09 RMK SLP397 T00141086 57031 IEM_DS3505
ZHHH,2000-01-27 09:00,ZHHH 270900Z AUTO 07002KT 12SM 02/M08 RMK SLP378 T00201076 57018 IEM_DS3505
ZHHH,2000-01-27 12:00,ZHHH 271200Z AUTO 00000KT 11SM M01/M05 RMK SLP381 T10091049 52002 IEM_DS3505
ZHHH,2000-01-27 15:00,ZHHH 271500Z AUTO 02002KT 11SM M01/M07 RMK SLP379 T10111072 57001 IEM_DS3505
ZHHH,2000-01-27 18:00,ZHHH 271800Z AUTO 04002KT 9SM M02/M07 RMK SLP373 T10211069 57006 IEM_DS3505
ZHHH,2000-01-27 21:00,ZHHH 272100Z AUTO 04002KT 9SM M02/M06 RMK SLP356 T10211060 57017 IEM_DS3505
ZHHH,2000-01-28 00:00,ZHHH 280000Z AUTO 04002KT 11SM M02/M06 RMK SLP359 T10211059 52003 IEM_DS3505
ZHHH,2000-01-28 03:00,ZHHH 280300Z AUTO 04002KT 11SM M01/M05 RMK SLP366 T10071046 52007 IEM_DS3505
ZHHH,2000-01-28 06:00,ZHHH 280600Z AUTO 04004KT 6SM 00/M03 RMK SLP337 T00051029 57029 IEM_DS3505
ZHHH,2000-01-28 09:00,ZHHH 280900Z AUTO 04002KT 6SM 01/M02 RMK SLP331 T00111022 57006 IEM_DS3505
ZHHH,2000-01-28 12:00,ZHHH 281200Z AUTO 00000KT 5SM 00/M03 RMK 60003 SLP341 T00051030 52010 IEM_DS3505
ZHHH,2000-01-28 15:00,ZHHH 281500Z AUTO 00000KT 6SM 00/M01 RMK SLP348 T00041014 52007 IEM_DS3505
ZHHH,2000-01-28 18:00,ZHHH 281800Z AUTO 00000KT 6SM 00/M02 RMK 60003 SLP348 T00041020 54000 IEM_DS3505
ZHHH,2000-01-28 21:00,ZHHH 282100Z AUTO 02002KT 6SM 00/M02 RMK 70003 SLP348 T00021022 54000 IEM_DS3505
ZHHH,2000-01-29 00:00,ZHHH 290000Z AUTO 00000KT 7SM M00/M01 RMK 70003 SLP369 T10021014 52021 IEM_DS3505
ZHHH,2000-01-29 03:00,ZHHH 290300Z AUTO 29004KT 9SM 02/M03 RMK SLP389 T00241030 52020 IEM_DS3505
ZHHH,2000-01-29 06:00,ZHHH 290600Z AUTO 32002KT 11SM 06/M03 RMK SLP370 T00591033 57019 IEM_DS3505
ZHHH,2000-01-29 09:00,ZHHH 290900Z AUTO 32002KT 9SM 06/M02 RMK SLP372 T00581024 52002 IEM_DS3505
ZHHH,2000-01-29 12:00,ZHHH 291200Z AUTO 00000KT 9SM 04/M02 A3068 RMK SLP401 T00371020 52029 IEM_DS3505
ZHHH,2000-01-29 13:00,ZHHH 291300Z AUTO 04006KT 3SM 03/M05 A3071 RMK T00301050 IEM_DS3505
ZHHH,2000-01-29 15:00,ZHHH 291500Z AUTO 34002KT 9SM 02/M03 RMK SLP418 T00201028 52017 IEM_DS3505
ZHHH,2000-01-29 18:00,ZHHH 291800Z AUTO 00000KT 9SM 00/M03 RMK SLP427 T00051033 52009 IEM_DS3505
ZHHH,2000-01-29 21:00,ZHHH 292100Z AUTO 36004KT 11SM 00/M04 RMK SLP435 T00011043 52008 IEM_DS3505
ZHHH,2000-01-30 00:00,ZHHH 300000Z AUTO 36006KT 12SM 00/M07 RMK SLP448 T00001074 52013 IEM_DS3505
ZHHH,2000-01-30 03:00,ZHHH 300300Z AUTO 02004KT 16SM 02/M09 RMK SLP454 T00201091 52006 IEM_DS3505
ZHHH,2000-01-30 06:00,ZHHH 300600Z AUTO 36008KT 14SM 04/M11 RMK SLP431 T00441106 57023 IEM_DS3505
ZHHH,2000-01-30 09:00,ZHHH 300900Z AUTO 04004KT 12SM 04/M10 RMK SLP431 T00381095 54000 IEM_DS3505
ZHHH,2000-01-30 12:00,ZHHH 301200Z AUTO 02006KT 9SM 02/M09 RMK SLP442 T00171091 52011 IEM_DS3505
ZHHH,2000-01-30 15:00,ZHHH 301500Z AUTO 02006KT 9SM 01/M10 RMK SLP451 T00091100 52009 IEM_DS3505
ZHHH,2000-01-30 18:00,ZHHH 301800Z AUTO 04006KT 9SM 00/M10 RMK SLP436 T00051101 57015 IEM_DS3505
ZHHH,2000-01-30 21:00,ZHHH 302100Z AUTO 02006KT 9SM 00/M10 RMK SLP441 T00011097 52005 IEM_DS3505
ZHHH,2000-01-31 00:00,ZHHH 310000Z AUTO 04002KT 9SM M00/M07 RMK SLP443 T10031074 52002 IEM_DS3505
ZHHH,2000-01-31 03:00,ZHHH 310300Z AUTO 36006KT 11SM 01/M12 RMK SLP448 T00131121 52005 IEM_DS3505
ZHHH,2000-01-31 06:00,ZHHH 310600Z AUTO 02004KT 12SM 02/M09 RMK SLP420 T00151089 57028 IEM_DS3505
ZHHH,2000-01-31 09:00,ZHHH 310900Z AUTO 04002KT 12SM 01/M06 RMK SLP411 T00081059 57009 IEM_DS3505
ZHHH,2000-01-31 12:00,ZHHH 311200Z AUTO 04002KT 9SM M00/M05 RMK SLP417 T10021048 52005 IEM_DS3505
ZHHH,2000-01-31 15:00,ZHHH 311500Z AUTO 36002KT 9SM M02/M05 RMK SLP421 T10181052 52004 IEM_DS3505
ZHHH,2000-01-31 18:00,ZHHH 311800Z AUTO 00000KT 9SM M02/M06 RMK SLP409 T10211065 57012 IEM_DS3505
ZHHH,2000-01-31 21:00,ZHHH 312100Z AUTO 00000KT 9SM M03/M07 RMK SLP403 T10291067 57006 IEM_DS3505
ZHHH,2000-02-01 00:00,ZHHH 010000Z AUTO 02002KT 7SM M03/M06 RMK SLP398 T10321058 57005 IEM_DS3505
ZHHH,2000-02-01 03:00,ZHHH 010300Z AUTO 04002KT 9SM M01/M05 RMK SLP406 T10101046 52008 IEM_DS3505
ZHHH,2000-02-01 06:00,ZHHH 010600Z AUTO 04002KT 9SM 00/M06 RMK SLP366 T00051058 57039 IEM_DS3505
ZHHH,2000-02-01 09:00,ZHHH 010900Z AUTO 04002KT 9SM 01/M05 RMK SLP346 T00081047 57020 IEM_DS3505
ZHHH,2000-02-01 12:00,ZHHH 011200Z AUTO 02002KT 9SM M00/M04 RMK SLP347 T10051037 52001 IEM_DS3505
ZHHH,2000-02-01 15:00,ZHHH 011500Z AUTO 00000KT 9SM M02/M03 RMK SLP345 T10151034 57002 IEM_DS3505
ZHHH,2000-02-01 18:00,ZHHH 011800Z AUTO 00000KT 8SM M02/M04 RMK SLP340 T10241037 57005 IEM_DS3505
ZHHH,2000-02-01 21:00,ZHHH 012100Z AUTO 00000KT 8SM M02/M04 RMK SLP327 T10201043 57013 IEM_DS3505
ZHHH,2000-02-02 00:00,ZHHH 020000Z AUTO 04002KT 5SM M01/M06 RMK 60003 SLP334 T10141055 52007 IEM_DS3505
ZHHH,2000-02-02 03:00,ZHHH 020300Z AUTO 04002KT 5SM M00/M02 RMK SLP347 T10021020 52013 IEM_DS3505
ZHHH,2000-02-02 06:00,ZHHH 020600Z AUTO 00000KT 5SM 01/M02 RMK 60003 SLP321 T00081019 57026 IEM_DS3505
ZHHH,2000-02-02 09:00,ZHHH 020900Z AUTO 04002KT 6SM 01/M01 RMK SLP310 T00091011 57011 IEM_DS3505
ZHHH,2000-02-02 12:00,ZHHH 021200Z AUTO 00000KT 7SM 01/M01 RMK SLP317 T00071010 52007 IEM_DS3505
ZHHH,2000-02-02 15:00,ZHHH 021500Z AUTO 04002KT 7SM 00/M02 RMK SLP328 T00051016 52011 IEM_DS3505
ZHHH,2000-02-02 18:00,ZHHH 021800Z AUTO 00000KT 9SM 00/M02 RMK SLP324 T00051019 57004 IEM_DS3505
ZHHH,2000-02-02 21:00,ZHHH 022100Z AUTO 00000KT 9SM 00/M02 RMK 70003 SLP314 T00021019 57010 IEM_DS3505
ZHHH,2000-02-03 00:00,ZHHH 030000Z AUTO 00000KT 8SM M00/M02 RMK 70003 SLP326 T10011019 52012 IEM_DS3505
ZHHH,2000-02-03 03:00,ZHHH 030300Z AUTO 00000KT 9SM 02/M02 RMK SLP330 T00191022 52004 IEM_DS3505
ZHHH,2000-02-03 06:00,ZHHH 030600Z AUTO 04002KT 9SM 03/M03 RMK SLP302 T00321034 57028 IEM_DS3505
ZHHH,2000-02-03 09:00,ZHHH 030900Z AUTO 00000KT 7SM 03/M02 RMK SLP295 T00341017 57007 IEM_DS3505
ZHHH,2000-02-03 12:00,ZHHH 031200Z AUTO 00000KT 9SM 03/M01 RMK SLP305 T00311008 52010 IEM_DS3505
ZHHH,2000-02-03 15:00,ZHHH 031500Z AUTO 00000KT 6SM 03/00 RMK SLP312 T00270000 52007 IEM_DS3505
ZHHH,2000-02-03 18:00,ZHHH 031800Z AUTO 02002KT 6SM 01/01 RMK 60001 SLP305 T00140006 57007 IEM_DS3505
ZHHH,2000-02-03 21:00,ZHHH 032100Z AUTO 36002KT 5SM 01/00 RMK 70004 SLP293 T00080002 57012 IEM_DS3505
ZHHH,2000-02-04 00:00,ZHHH 040000Z AUTO 00000KT 4SM 01/01 RMK 60004 SLP296 T00120007 52003 IEM_DS3505
ZHHH,2000-02-04 03:00,ZHHH 040300Z AUTO 00000KT 4SM 01/01 RMK SLP303 T00130008 52007 IEM_DS3505
ZHHH,2000-02-04 06:00,ZHHH 040600Z AUTO 36002KT 4SM 01/00 RMK 60008 SLP274 T00090003 57029 IEM_DS3505
ZHHH,2000-02-04 09:00,ZHHH 040900Z AUTO 34002KT 4SM 01/01 RMK SLP278 T00130008 52004 IEM_DS3505
ZHHH,2000-02-04 12:00,ZHHH 041200Z AUTO 34002KT 6SM 01/00 RMK 60008 SLP293 T00110003 52015 IEM_DS3505
ZHHH,2000-02-04 15:00,ZHHH 041500Z AUTO 34002KT 6SM 01/00 RMK SLP292 T00110003 57001 IEM_DS3505
ZHHH,2000-02-04 18:00,ZHHH 041800Z AUTO 32002KT 6SM 01/00 RMK SLP288 T00110003 57004 IEM_DS3505
ZHHH,2000-02-04 21:00,ZHHH 042100Z AUTO 32002KT 6SM 01/M00 RMK 70017 SLP282 T00091002 57006 IEM_DS3505
ZHHH,2000-02-05 00:00,ZHHH 050000Z AUTO 32002KT 4SM 00/M00 RMK 70016 SLP292 T00051001 52010 IEM_DS3505
ZHHH,2000-02-05 03:00,ZHHH 050300Z AUTO 00000KT 6SM 03/M00 RMK SLP302 T00301003 52010 IEM_DS3505
ZHHH,2000-02-05 06:00,ZHHH 050600Z AUTO 27002KT 9SM 05/M01 RMK SLP278 T00511009 57024 IEM_DS3505
ZHHH,2000-02-05 09:00,ZHHH 050900Z AUTO 00000KT 9SM 04/01 RMK SLP271 T00410010 57007 IEM_DS3505
ZHHH,2000-02-05 12:00,ZHHH 051200Z AUTO 00000KT 7SM 02/00 RMK SLP278 T00220003 52007 IEM_DS3505
ZHHH,2000-02-05 15:00,ZHHH 051500Z AUTO 00000KT 9SM 01/00 RMK SLP284 T00130005 52006 IEM_DS3505
ZHHH,2000-02-05 18:00,ZHHH 051800Z AUTO 00000KT 9SM 00/M00 RMK SLP282 T00051001 57002 IEM_DS3505
ZHHH,2000-02-05 21:00,ZHHH 052100Z AUTO 00000KT 9SM 01/00 RMK SLP267 T00090001 57015 IEM_DS3505
ZHHH,2000-02-06 00:00,ZHHH 060000Z AUTO 00000KT 7SM 01/M00 RMK SLP270 T00061002 52003 IEM_DS3505
ZHHH,2000-02-06 03:00,ZHHH 060300Z AUTO 00000KT 9SM 06/02 RMK SLP275 T00580015 52005 IEM_DS3505
ZHHH,2000-02-06 06:00,ZHHH 060600Z AUTO 32002KT 9SM 09/02 RMK SLP237 T00870019 57037 IEM_DS3505
ZHHH,2000-02-06 09:00,ZHHH 060900Z AUTO 36002KT 7SM 09/02 RMK SLP225 T00890025 57012 IEM_DS3505
ZHHH,2000-02-06 12:00,ZHHH 061200Z AUTO 00000KT 7SM 05/04 RMK SLP228 T00470035 52002 IEM_DS3505
ZHHH,2000-02-06 15:00,ZHHH 061500Z AUTO 00000KT 7SM 03/02 RMK SLP243 T00270022 52016 IEM_DS3505
ZHHH,2000-02-06 18:00,ZHHH 061800Z AUTO 00000KT 9SM 04/03 RMK SLP249 T00350030 52006 IEM_DS3505
ZHHH,2000-02-06 21:00,ZHHH 062100Z AUTO 00000KT 02/ RMK SLP256 52007 IEM_DS3505
ZHHH,2000-02-07 00:00,ZHHH 070000Z AUTO 00000KT 1/2SM 00/M00 RMK SLP286 T00051001 52029 IEM_DS3505
ZHHH,2000-02-07 03:00,ZHHH 070300Z AUTO 36002KT 7SM 06/02 RMK SLP304 T00560018 52018 IEM_DS3505
ZHHH,2000-02-07 06:00,ZHHH 070600Z AUTO 04004KT 11SM 10/M10 RMK SLP279 T01021097 57024 IEM_DS3505
ZHHH,2000-02-07 09:00,ZHHH 070900Z AUTO 04002KT 11SM 09/M07 RMK SLP277 T00931068 57002 IEM_DS3505
ZHHH,2000-02-07 12:00,ZHHH 071200Z AUTO 04002KT 11SM 05/M05 RMK SLP281 T00511048 52003 IEM_DS3505
ZHHH,2000-02-07 15:00,ZHHH 071500Z AUTO 00000KT 11SM 03/M04 RMK SLP280 T00271036 57001 IEM_DS3505
ZHHH,2000-02-07 18:00,ZHHH 071800Z AUTO 00000KT 9SM 01/M01 RMK SLP268 T00071013 57011 IEM_DS3505
ZHHH,2000-02-07 21:00,ZHHH 072100Z AUTO 00000KT 9SM 00/M02 RMK SLP267 T00001015 57002 IEM_DS3505
ZHHH,2000-02-08 00:00,ZHHH 080000Z AUTO 04002KT 11SM 00/M03 RMK SLP278 T00021029 52011 IEM_DS3505
ZHHH,2000-02-08 03:00,ZHHH 080300Z AUTO 04002KT 11SM 06/M03 RMK SLP287 T00621028 52009 IEM_DS3505
ZHHH,2000-02-08 06:00,ZHHH 080600Z AUTO 02004KT 16SM 09/M07 RMK SLP261 T00931073 57025 IEM_DS3505
ZHHH,2000-02-08 09:00,ZHHH 080900Z AUTO 09002KT 12SM 10/M07 RMK SLP256 T00971069 57005 IEM_DS3505
ZHHH,2000-02-08 12:00,ZHHH 081200Z AUTO 00000KT 11SM RMK SLP260 52003 IEM_DS3505
ZHHH,2000-02-08 15:00,ZHHH 081500Z AUTO 07002KT 11SM 06/M03 RMK SLP262 T00581026 52003 IEM_DS3505
ZHHH,2000-02-08 18:00,ZHHH 081800Z AUTO 07004KT 11SM 05/M03 RMK SLP258 T00491032 57004 IEM_DS3505
ZHHH,2000-02-08 21:00,ZHHH 082100Z AUTO 07002KT 11SM 04/M02 RMK SLP246 T00421017 57012 IEM_DS3505
ZHHH,2000-02-09 00:00,ZHHH 090000Z AUTO 04004KT 11SM 04/00 RMK SLP252 T00370002 52006 IEM_DS3505
ZHHH,2000-02-09 03:00,ZHHH 090300Z AUTO 04002KT 11SM 05/00 RMK SLP248 T00490004 57004 IEM_DS3505
ZHHH,2000-02-09 06:00,ZHHH 090600Z AUTO 07002KT 12SM 08/00 RMK SLP216 T00780001 57032 IEM_DS3505
ZHHH,2000-02-09 09:00,ZHHH 090900Z AUTO 07004KT 12SM 08/M01 RMK SLP205 T00851012 57011 IEM_DS3505
ZHHH,2000-02-09 12:00,ZHHH 091200Z AUTO 00000KT 9SM 07/02 RMK SLP210 T00710022 52005 IEM_DS3505
ZHHH,2000-02-09 15:00,ZHHH 091500Z AUTO 00000KT 7SM 06/02 RMK SLP220 T00610024 52010 IEM_DS3505
ZHHH,2000-02-09 18:00,ZHHH 091800Z AUTO 00000KT 9SM 06/02 RMK SLP216 T00600017 57004 IEM_DS3505
ZHHH,2000-02-09 21:00,ZHHH 092100Z AUTO 00000KT 9SM 06/03 RMK SLP201 T00550031 57015 IEM_DS3505
ZHHH,2000-02-10 00:00,ZHHH 100000Z AUTO 00000KT 9SM 05/03 RMK SLP214 T00500030 52013 IEM_DS3505
ZHHH,2000-02-10 03:00,ZHHH 100300Z AUTO 00000KT 12SM 10/02 RMK SLP218 T01040021 52004 IEM_DS3505
ZHHH,2000-02-10 06:00,ZHHH 100600Z AUTO 22002KT 11SM 12/02 RMK SLP184 T01240019 57034 IEM_DS3505
ZHHH,2000-02-10 09:00,ZHHH 100900Z AUTO 16002KT 11SM 12/02 RMK SLP178 T01220016 57006 IEM_DS3505
ZHHH,2000-02-10 12:00,ZHHH 101200Z AUTO 00000KT 11SM 08/04 RMK SLP192 T00760044 52014 IEM_DS3505
ZHHH,2000-02-10 15:00,ZHHH 101500Z AUTO 00000KT 9SM 06/04 RMK SLP207 T00620038 52015 IEM_DS3505
ZHHH,2000-02-10 18:00,ZHHH 101800Z AUTO 00000KT 9SM 08/04 RMK SLP205 T00790037 57002 IEM_DS3505
ZHHH,2000-02-10 21:00,ZHHH 102100Z AUTO 00000KT 7SM 05/04 RMK SLP205 T00520040 54000 IEM_DS3505
ZHHH,2000-02-11 00:00,ZHHH 110000Z AUTO 16002KT 9SM 05/03 RMK SLP213 T00490034 52008 IEM_DS3505
ZHHH,2000-02-11 03:00,ZHHH 110300Z AUTO 00000KT 9SM 08/04 RMK SLP229 T00770045 52016 IEM_DS3505
ZHHH,2000-02-11 06:00,ZHHH 110600Z AUTO 11002KT 9SM 12/03 RMK SLP202 T01200028 57027 IEM_DS3505
ZHHH,2000-02-11 09:00,ZHHH 110900Z AUTO 00000KT 9SM 13/04 RMK SLP186 T01320042 57016 IEM_DS3505
ZHHH,2000-02-11 12:00,ZHHH 111200Z AUTO 00000KT 7SM 11/05 RMK SLP195 T01120051 52009 IEM_DS3505
ZHHH,2000-02-11 15:00,ZHHH 111500Z AUTO 00000KT 7SM 10/06 RMK SLP203 T01030055 52008 IEM_DS3505
ZHHH,2000-02-11 18:00,ZHHH 111800Z AUTO 00000KT 9SM 08/05 RMK SLP189 T00830054 57014 IEM_DS3505
ZHHH,2000-02-11 21:00,ZHHH 112100Z AUTO 00000KT 11SM 06/05 RMK SLP180 T00650051 57009 IEM_DS3505
ZHHH,2000-02-12 00:00,ZHHH 120000Z AUTO 00000KT 9SM 07/05 RMK SLP187 T00720054 52007 IEM_DS3505
ZHHH,2000-02-12 03:00,ZHHH 120300Z AUTO 11002KT 11SM 13/06 RMK SLP188 T01260058 52001 IEM_DS3505
ZHHH,2000-02-12 06:00,ZHHH 120600Z AUTO 16004KT 11SM 15/07 RMK SLP165 T01510070 57022 IEM_DS3505
ZHHH,2000-02-12 09:00,ZHHH 120900Z AUTO 00000KT 9SM 13/09 RMK SLP158 T01330087 57008 IEM_DS3505
ZHHH,2000-02-12 12:00,ZHHH 121200Z AUTO 00000KT 9SM 11/09 RMK SLP163 T01070091 52005 IEM_DS3505
ZHHH,2000-02-12 15:00,ZHHH 121500Z AUTO 00000KT 7SM 11/09 RMK SLP170 T01070087 52008 IEM_DS3505
ZHHH,2000-02-12 18:00,ZHHH 121800Z AUTO 00000KT 9SM 10/09 RMK SLP162 T01040086 57008 IEM_DS3505
ZHHH,2000-02-12 21:00,ZHHH 122100Z AUTO 00000KT 9SM 10/08 RMK SLP148 T01010085 57014 IEM_DS3505
ZHHH,2000-02-13 00:00,ZHHH 130000Z AUTO 00000KT 6SM 10/09 RMK 60003 SLP159 T01040088 52010 IEM_DS3505
ZHHH,2000-02-13 03:00,ZHHH 130300Z AUTO 00000KT 6SM 11/09 RMK SLP169 T01070093 52010 IEM_DS3505
ZHHH,2000-02-13 06:00,ZHHH 130600Z AUTO 36002KT 7SM 11/09 RMK 60004 SLP159 T01070089 57010 IEM_DS3505
ZHHH,2000-02-13 09:00,ZHHH 130900Z AUTO 04004KT 7SM 10/08 RMK SLP167 T01020077 52008 IEM_DS3505
ZHHH,2000-02-13 12:00,ZHHH 131200Z AUTO 00000KT 7SM 09/07 RMK 60001 SLP196 T00930072 52029 IEM_DS3505
ZHHH,2000-02-13 15:00,ZHHH 131500Z AUTO 32002KT 7SM 09/05 RMK SLP220 T00930048 52024 IEM_DS3505
ZHHH,2000-02-13 18:00,ZHHH 131800Z AUTO 34002KT 6SM 08/05 RMK 60003 SLP228 T00850051 52008 IEM_DS3505
ZHHH,2000-02-13 21:00,ZHHH 132100Z AUTO 00000KT 7SM 08/05 RMK 70005 SLP233 T00810047 52005 IEM_DS3505
ZHHH,2000-02-14 00:00,ZHHH 140000Z AUTO 02004KT 7SM 08/03 RMK 70005 SLP256 T00780028 52023 IEM_DS3505
ZHHH,2000-02-14 03:00,ZHHH 140300Z AUTO 02004KT 7SM 09/M01 RMK SLP273 T00871006 52017 IEM_DS3505
ZHHH,2000-02-14 04:00,ZHHH 140400Z AUTO 04006KT 9SM 11/01 RMK SLP249 T01060008 57024 IEM_DS3505
ZHHH,2000-02-14 06:00,ZHHH 140600Z AUTO 04006KT 9SM 11/01 RMK SLP249 T01060008 57024 IEM_DS3505
ZHHH,2000-02-14 12:00,ZHHH 141200Z AUTO 00000KT 9SM 09/03 RMK SLP264 T00940033 52021 IEM_DS3505
ZHHH,2000-02-14 15:00,ZHHH 141500Z AUTO 00000KT 9SM 08/01 RMK SLP277 T00820006 52013 IEM_DS3505
ZHHH,2000-02-14 18:00,ZHHH 141800Z AUTO 00000KT 9SM 06/01 RMK SLP277 T00550011 54000 IEM_DS3505
ZHHH,2000-02-14 21:00,ZHHH 142100Z AUTO 00000KT 9SM 05/00 RMK SLP267 T00530000 57010 IEM_DS3505
ZHHH,2000-02-15 00:00,ZHHH 150000Z AUTO 04002KT 11SM 04/01 RMK SLP278 T00390010 52011 IEM_DS3505
ZHHH,2000-02-15 03:00,ZHHH 150300Z AUTO 04002KT 5SM 08/04 RMK SLP292 T00810044 52014 IEM_DS3505
ZHHH,2000-02-15 06:00,ZHHH 150600Z AUTO 09002KT 11SM 12/04 RMK SLP267 T01210035 57025 IEM_DS3505
ZHHH,2000-02-15 09:00,ZHHH 150900Z AUTO 00000KT 9SM 12/02 RMK SLP248 T01190015 57019 IEM_DS3505
ZHHH,2000-02-15 12:00,ZHHH 151200Z AUTO 00000KT 8SM 10/01 RMK SLP257 T01040006 52009 IEM_DS3505
ZHHH,2000-02-15 15:00,ZHHH 151500Z AUTO 00000KT 8SM 08/03 RMK SLP257 T00850033 54000 IEM_DS3505
ZHHH,2000-02-15 18:00,ZHHH 151800Z AUTO 00000KT 9SM 08/03 RMK SLP243 T00840032 57014 IEM_DS3505
ZHHH,2000-02-15 21:00,ZHHH 152100Z AUTO 00000KT 9SM 07/04 RMK SLP233 T00710041 57010 IEM_DS3505
ZHHH,2000-02-16 00:00,ZHHH 160000Z AUTO 00000KT 9SM 07/03 RMK SLP240 T00720026 52007 IEM_DS3505
ZHHH,2000-02-16 03:00,ZHHH 160300Z AUTO 14002KT 11SM 09/02 RMK SLP253 T00910015 52013 IEM_DS3505
ZHHH,2000-02-16 06:00,ZHHH 160600Z AUTO 18004KT 6SM 09/05 RMK 60003 SLP238 T00900047 57015 IEM_DS3505
ZHHH,2000-02-16 09:00,ZHHH 160900Z AUTO 14004KT 9SM 09/04 RMK SLP236 T00860042 57002 IEM_DS3505
ZHHH,2000-02-16 12:00,ZHHH 161200Z AUTO 9SM 07/04 RMK 60003 T00720042 IEM_DS3505
ZHHH,2000-02-16 15:00,ZHHH 161500Z AUTO 14002KT 11SM 06/04 RMK SLP251 T00630039 52015 IEM_DS3505
ZHHH,2000-02-16 18:00,ZHHH 161800Z AUTO 00000KT 9SM 06/04 RMK SLP257 T00630042 52006 IEM_DS3505
ZHHH,2000-02-16 21:00,ZHHH 162100Z AUTO 00000KT 7SM 05/04 RMK 70003 SLP242 T00530041 57015 IEM_DS3505
ZHHH,2000-02-17 00:00,ZHHH 170000Z AUTO 00000KT 11SM 05/04 RMK 70003 SLP250 T00510037 52008 IEM_DS3505
ZHHH,2000-02-17 03:00,ZHHH 170300Z AUTO 14002KT 11SM 08/04 RMK SLP256 T00830039 52006 IEM_DS3505
ZHHH,2000-02-17 06:00,ZHHH 170600Z AUTO 02004KT 12SM 10/04 RMK SLP210 T00970035 57046 IEM_DS3505
ZHHH,2000-02-17 09:00,ZHHH 170900Z AUTO 09002KT 9SM 09/04 RMK SLP200 T00940044 57010 IEM_DS3505
ZHHH,2000-02-17 12:00,ZHHH 171200Z AUTO 09002KT 7SM 08/06 RMK 60008 SLP199 T00790059 57001 IEM_DS3505
ZHHH,2000-02-17 15:00,ZHHH 171500Z AUTO 07004KT 6SM 08/07 RMK SLP197 T00780067 57002 IEM_DS3505
ZHHH,2000-02-17 18:00,ZHHH 171800Z AUTO 09002KT 6SM 08/07 RMK 60016 SLP184 T00810072 57013 IEM_DS3505
ZHHH,2000-02-17 21:00,ZHHH 172100Z AUTO 07004KT 6SM 07/07 RMK 70038 SLP160 T00740067 57024 IEM_DS3505
ZHHH,2000-02-18 00:00,ZHHH 180000Z AUTO 04002KT 6SM 08/07 RMK 60039 SLP156 T00770068 57004 IEM_DS3505
ZHHH,2000-02-18 03:00,ZHHH 180300Z AUTO 00000KT 6SM 08/07 RMK SLP163 T00770073 52007 IEM_DS3505
ZHHH,2000-02-18 06:00,ZHHH 180600Z AUTO 04002KT 6SM 08/08 RMK 60008 SLP138 T00800076 57025 IEM_DS3505
ZHHH,2000-02-18 09:00,ZHHH 180900Z AUTO 36002KT 5SM 08/08 RMK SLP130 T00790075 57008 IEM_DS3505
ZHHH,2000-02-18 12:00,ZHHH 181200Z AUTO 32004KT 6SM 06/05 RMK 60004 SLP155 T00630052 52025 IEM_DS3505
ZHHH,2000-02-18 15:00,ZHHH 181500Z AUTO 32004KT 6SM 06/04 RMK SLP173 T00570043 52018 IEM_DS3505
ZHHH,2000-02-18 18:00,ZHHH 181800Z AUTO 34006KT 6SM 05/03 RMK 60003 SLP175 T00500033 52002 IEM_DS3505
ZHHH,2000-02-18 21:00,ZHHH 182100Z AUTO 32004KT 6SM 05/03 RMK 70034 SLP166 T00490034 57009 IEM_DS3505
ZHHH,2000-02-19 00:00,ZHHH 190000Z AUTO 34006KT 6SM 04/03 RMK 60008 SLP181 T00430031 52015 IEM_DS3505
ZHHH,2000-02-19 03:00,ZHHH 190300Z AUTO 32006KT 7SM 04/02 RMK SLP199 T00350022 52018 IEM_DS3505
ZHHH,2000-02-19 06:00,ZHHH 190600Z AUTO 34006KT 9SM 05/02 RMK 60002 SLP185 T00510021 57014 IEM_DS3505
ZHHH,2000-02-19 09:00,ZHHH 190900Z AUTO 04002KT 7SM 06/03 RMK SLP184 T00570028 57001 IEM_DS3505
ZHHH,2000-02-19 12:00,ZHHH 191200Z AUTO 32002KT 8SM 05/03 RMK SLP206 T00520027 52022 IEM_DS3505
ZHHH,2000-02-19 15:00,ZHHH 191500Z AUTO 32004KT 8SM 05/03 RMK SLP222 T00520033 52016 IEM_DS3505
ZHHH,2000-02-19 18:00,ZHHH 191800Z AUTO 04004KT 11SM 05/03 RMK SLP217 T00480026 57005 IEM_DS3505
ZHHH,2000-02-19 21:00,ZHHH 192100Z AUTO 36002KT 11SM 05/03 RMK 70009 SLP216 T00470027 57001 IEM_DS3505
ZHHH,2000-02-20 00:00,ZHHH 200000Z AUTO 02002KT 9SM 05/04 RMK 70002 SLP231 T00510037 52015 IEM_DS3505
ZHHH,2000-02-20 03:00,ZHHH 200300Z AUTO 34002KT 9SM 06/03 RMK SLP243 T00630034 52012 IEM_DS3505
ZHHH,2000-02-20 06:00,ZHHH 200600Z AUTO 04004KT 9SM 08/04 RMK SLP223 T00800035 57020 IEM_DS3505
ZHHH,2000-02-20 09:00,ZHHH 200900Z AUTO 07004KT 9SM 08/04 RMK SLP218 T00840040 57005 IEM_DS3505
ZHHH,2000-02-20 12:00,ZHHH 201200Z AUTO 00000KT 8SM 09/ RMK SLP230 52012 IEM_DS3505
ZHHH,2000-02-20 15:00,ZHHH 201500Z AUTO 02004KT 8SM 05/03 RMK SLP245 T00530028 52015 IEM_DS3505
ZHHH,2000-02-20 18:00,ZHHH 201800Z AUTO 8SM 05/04 RMK T00540035 57004 IEM_DS3505
ZHHH,2000-02-20 21:00,ZHHH 202100Z AUTO 00000KT 7SM 05/04 RMK SLP235 T00540035 57006 IEM_DS3505
ZHHH,2000-02-21 00:00,ZHHH 210000Z AUTO 04002KT 6SM 05/04 RMK 60003 SLP239 T00520035 52004 IEM_DS3505
ZHHH,2000-02-21 03:00,ZHHH 210300Z AUTO 02004KT 6SM 07/04 RMK SLP240 T00660043 52001 IEM_DS3505
ZHHH,2000-02-21 06:00,ZHHH 210600Z AUTO 04002KT 6SM 08/04 RMK 60003 SLP211 T00770045 57029 IEM_DS3505
ZHHH,2000-02-21 09:00,ZHHH 210900Z AUTO 04002KT 6SM 07/04 RMK SLP196 T00680042 57015 IEM_DS3505
ZHHH,2000-02-21 12:00,ZHHH 211200Z AUTO 07002KT 6SM 06/04 RMK 60003 SLP214 T00550038 52018 IEM_DS3505
ZHHH,2000-02-21 15:00,ZHHH 211500Z AUTO 00000KT 6SM 05/04 RMK SLP231 T00510039 52017 IEM_DS3505
ZHHH,2000-02-21 18:00,ZHHH 211800Z AUTO 00000KT 6SM 05/04 RMK 60003 SLP231 T00520038 54000 IEM_DS3505
ZHHH,2000-02-21 21:00,ZHHH 212100Z AUTO 00000KT 6SM 05/04 RMK 70006 SLP221 T00510041 57010 IEM_DS3505
ZHHH,2000-02-22 03:00,ZHHH 220300Z AUTO 32002KT 6SM 06/04 RMK SLP236 T00620036 52006 IEM_DS3505
ZHHH,2000-02-22 06:00,ZHHH 220600Z AUTO 36002KT 7SM 08/04 RMK SLP217 T00790039 57019 IEM_DS3505
ZHHH,2000-02-22 09:00,ZHHH 220900Z AUTO 00000KT 6SM 08/04 RMK SLP204 T00850041 57013 IEM_DS3505
ZHHH,2000-02-22 12:00,ZHHH 221200Z AUTO 00000KT 7SM 07/05 RMK SLP213 T00730050 52009 IEM_DS3505
ZHHH,2000-02-22 15:00,ZHHH 221500Z AUTO 36002KT 7SM 07/04 RMK SLP231 T00670039 52018 IEM_DS3505
ZHHH,2000-02-22 18:00,ZHHH 221800Z AUTO 00000KT 7SM 06/03 RMK SLP231 T00580029 54000 IEM_DS3505
ZHHH,2000-02-22 21:00,ZHHH 222100Z AUTO 36004KT 7SM 06/03 RMK SLP229 T00550028 57002 IEM_DS3505
ZHHH,2000-02-23 00:00,ZHHH 230000Z AUTO 36006KT 8SM 05/03 RMK SLP244 T00510026 52015 IEM_DS3505
ZHHH,2000-02-23 03:00,ZHHH 230300Z AUTO 04004KT 9SM 07/03 RMK SLP252 T00710027 52008 IEM_DS3505
ZHHH,2000-02-23 06:00,ZHHH 230600Z AUTO 04004KT 7SM 08/03 RMK SLP241 T00790032 57011 IEM_DS3505
ZHHH,2000-02-23 09:00,ZHHH 230900Z AUTO 02004KT 7SM 08/03 RMK SLP233 T00840032 57008 IEM_DS3505
ZHHH,2000-02-23 12:00,ZHHH 231200Z AUTO 00000KT 9SM 08/04 RMK SLP238 T00800041 52005 IEM_DS3505
ZHHH,2000-02-23 15:00,ZHHH 231500Z AUTO 02002KT 9SM 07/04 RMK SLP274 T00740039 52026 IEM_DS3505
ZHHH,2000-02-23 18:00,ZHHH 231800Z AUTO 00000KT 6SM 07/04 RMK 60003 SLP276 T00680040 52002 IEM_DS3505
ZHHH,2000-02-23 21:00,ZHHH 232100Z AUTO 00000KT 7SM 06/04 RMK 70003 SLP271 T00650041 57005 IEM_DS3505
ZHHH,2000-02-24 00:00,ZHHH 240000Z AUTO 00000KT 7SM 06/04 RMK 70003 SLP281 T00650036 52010 IEM_DS3505
ZHHH,2000-02-24 03:00,ZHHH 240300Z AUTO 02004KT 9SM 08/03 RMK SLP293 T00770029 52012 IEM_DS3505
ZHHH,2000-02-24 06:00,ZHHH 240600Z AUTO 36002KT 9SM 08/03 RMK 60003 SLP272 T00830031 57021 IEM_DS3505
ZHHH,2000-02-24 09:00,ZHHH 240900Z AUTO 00000KT 9SM 09/05 RMK SLP259 T00890048 57013 IEM_DS3505
ZHHH,2000-02-24 12:00,ZHHH 241200Z AUTO 04002KT 9SM 08/02 RMK SLP273 T00820024 52014 IEM_DS3505
ZHHH,2000-02-24 15:00,ZHHH 241500Z AUTO 04002KT 9SM 08/03 RMK SLP298 T00750029 52025 IEM_DS3505
ZHHH,2000-02-24 18:00,ZHHH 241800Z AUTO 00000KT 9SM 06/04 RMK 60003 SLP295 T00630037 57003 IEM_DS3505
ZHHH,2000-02-24 21:00,ZHHH 242100Z AUTO 02002KT 9SM 06/04 RMK 70003 SLP293 T00590040 57002 IEM_DS3505
ZHHH,2000-02-25 00:00,ZHHH 250000Z AUTO 34002KT 7SM 05/04 RMK 60003 SLP301 T00530036 52008 IEM_DS3505
ZHHH,2000-02-25 03:00,ZHHH 250300Z AUTO 29004KT 12SM 08/02 RMK SLP306 T00820021 52005 IEM_DS3505
ZHHH,2000-02-25 06:00,ZHHH 250600Z AUTO 29004KT 12SM 11/02 RMK SLP275 T01070022 57031 IEM_DS3505
ZHHH,2000-02-25 09:00,ZHHH 250900Z AUTO 27006KT 11SM 10/02 RMK SLP267 T01030019 57008 IEM_DS3505
ZHHH,2000-02-25 12:00,ZHHH 251200Z AUTO 00000KT 11SM 08/05 RMK SLP288 T00780048 52021 IEM_DS3505
ZHHH,2000-02-25 15:00,ZHHH 251500Z AUTO 00000KT 11SM 06/04 RMK SLP297 T00590040 52009 IEM_DS3505
ZHHH,2000-02-25 18:00,ZHHH 251800Z AUTO 00000KT 9SM 05/04 RMK SLP293 T00470035 57004 IEM_DS3505
ZHHH,2000-02-25 21:00,ZHHH 252100Z AUTO 00000KT 9SM 04/02 RMK 70003 SLP292 T00410015 57001 IEM_DS3505
ZHHH,2000-02-26 00:00,ZHHH 260000Z AUTO 00000KT 16SM 04/02 RMK SLP307 T00430023 52015 IEM_DS3505
ZHHH,2000-02-26 03:00,ZHHH 260300Z AUTO 27006KT 17SM 11/M01 RMK SLP314 T01101009 52007 IEM_DS3505
ZHHH,2000-02-26 06:00,ZHHH 260600Z AUTO 27002KT 17SM 14/M06 RMK SLP278 T01361056 57036 IEM_DS3505
ZHHH,2000-02-26 09:00,ZHHH 260900Z AUTO 22002KT 16SM 13/M04 RMK SLP261 T01341041 57017 IEM_DS3505
ZHHH,2000-02-26 12:00,ZHHH 261200Z AUTO 00000KT 12SM 10/02 RMK SLP265 T01020018 52004 IEM_DS3505
ZHHH,2000-02-26 15:00,ZHHH 261500Z AUTO 00000KT 11SM 09/02 RMK SLP267 T00880017 52002 IEM_DS3505
ZHHH,2000-02-26 18:00,ZHHH 261800Z AUTO 00000KT 9SM 07/03 RMK SLP264 T00720029 57003 IEM_DS3505
ZHHH,2000-02-26 21:00,ZHHH 262100Z AUTO 00000KT 9SM 06/03 RMK SLP260 T00640030 57004 IEM_DS3505
ZHHH,2000-02-27 00:00,ZHHH 270000Z AUTO 00000KT 7SM 07/04 RMK SLP268 T00690038 52008 IEM_DS3505
ZHHH,2000-02-27 03:00,ZHHH 270300Z AUTO 14002KT 9SM 10/02 RMK SLP273 T00970020 52005 IEM_DS3505
ZHHH,2000-02-27 06:00,ZHHH 270600Z AUTO 20002KT 12SM 12/01 RMK SLP254 T01160013 57019 IEM_DS3505
ZHHH,2000-02-27 09:00,ZHHH 270900Z AUTO 22002KT 9SM 11/03 RMK SLP236 T01120032 57018 IEM_DS3505
ZHHH,2000-02-27 12:00,ZHHH 271200Z AUTO 00000KT 9SM 10/06 RMK SLP252 T00970058 52016 IEM_DS3505
ZHHH,2000-02-27 15:00,ZHHH 271500Z AUTO 25004KT 9SM 09/04 RMK SLP264 T00900044 52012 IEM_DS3505
ZHHH,2000-02-27 18:00,ZHHH 271800Z AUTO 00000KT 9SM 08/05 RMK SLP263 T00800048 57001 IEM_DS3505
ZHHH,2000-02-27 21:00,ZHHH 272100Z AUTO 00000KT 9SM 07/05 RMK SLP264 T00730050 52001 IEM_DS3505
ZHHH,2000-02-28 00:00,ZHHH 280000Z AUTO 25002KT 11SM 07/05 RMK SLP286 T00730048 52022 IEM_DS3505
ZHHH,2000-02-28 03:00,ZHHH 280300Z AUTO 02002KT 12SM 11/03 RMK SLP298 T01140031 52012 IEM_DS3505
ZHHH,2000-02-28 06:00,ZHHH 280600Z AUTO 02004KT 16SM 14/02 RMK SLP280 T01390025 57018 IEM_DS3505
ZHHH,2000-02-28 09:00,ZHHH 280900Z AUTO 22002KT 12SM 15/03 RMK SLP273 T01530034 57007 IEM_DS3505
ZHHH,2000-02-28 12:00,ZHHH 281200Z AUTO 09002KT 12SM 13/04 RMK SLP294 T01260039 52021 IEM_DS3505
ZHHH,2000-02-28 15:00,ZHHH 281500Z AUTO 14002KT 9SM 11/04 RMK SLP310 T01060040 52016 IEM_DS3505
ZHHH,2000-02-28 18:00,ZHHH 281800Z AUTO 00000KT 11SM 09/05 RMK SLP314 T00920049 52004 IEM_DS3505
ZHHH,2000-02-28 21:00,ZHHH 282100Z AUTO 07004KT 11SM 08/04 RMK SLP315 T00770045 52001 IEM_DS3505
ZHHH,2000-02-29 00:00,ZHHH 290000Z AUTO 07002KT 12SM 07/04 RMK SLP321 T00700037 52006 IEM_DS3505
ZHHH,2000-02-29 03:00,ZHHH 290300Z AUTO 14002KT 12SM 12/02 RMK SLP319 T01200016 57002 IEM_DS3505
ZHHH,2000-02-29 06:00,ZHHH 290600Z AUTO 04004KT 11SM 14/00 RMK SLP282 T01410002 57037 IEM_DS3505
ZHHH,2000-02-29 09:00,ZHHH 290900Z AUTO 00000KT 11SM 15/M01 RMK SLP275 T01461010 57007 IEM_DS3505
ZHHH,2000-02-29 12:00,ZHHH 291200Z AUTO 00000KT 9SM 11/04 RMK SLP275 T01060043 54000 IEM_DS3505
ZHHH,2000-02-29 15:00,ZHHH 291500Z AUTO 00000KT 8SM 10/02 RMK SLP285 T00990017 52010 IEM_DS3505
ZHHH,2000-02-29 18:00,ZHHH 291800Z AUTO 00000KT 7SM 08/01 RMK SLP276 T00850007 57009 IEM_DS3505
ZHHH,2000-02-29 21:00,ZHHH 292100Z AUTO 00000KT 7SM 07/01 RMK SLP270 T00730010 57006 IEM_DS3505
ZHHH,2000-03-01 00:00,ZHHH 010000Z AUTO 00000KT 14SM 07/01 RMK SLP279 T00700012 52009 IEM_DS3505
ZHHH,2000-03-01 03:00,ZHHH 010300Z AUTO 16004KT 16SM 13/M03 RMK SLP278 T01311034 57001 IEM_DS3505
ZHHH,2000-03-01 06:00,ZHHH 010600Z AUTO 14004KT 16SM 15/M02 RMK SLP255 T01541019 57023 IEM_DS3505
ZHHH,2000-03-01 09:00,ZHHH 010900Z AUTO 00000KT 16SM 16/M00 RMK SLP236 T01551005 57019 IEM_DS3505
ZHHH,2000-03-01 12:00,ZHHH 011200Z AUTO 00000KT 12SM 12/04 RMK SLP240 T01150044 52004 IEM_DS3505
ZHHH,2000-03-01 15:00,ZHHH 011500Z AUTO 00000KT 11SM 09/06 RMK SLP245 T00860062 52005 IEM_DS3505
ZHHH,2000-03-01 18:00,ZHHH 011800Z AUTO 00000KT 9SM 08/06 RMK SLP244 T00770059 57001 IEM_DS3505
ZHHH,2000-03-01 21:00,ZHHH 012100Z AUTO 00000KT 9SM 08/04 RMK SLP232 T00820040 57012 IEM_DS3505
ZHHH,2000-03-02 00:00,ZHHH 020000Z AUTO 14002KT 9SM 08/05 RMK SLP240 T00810054 52008 IEM_DS3505
ZHHH,2000-03-02 03:00,ZHHH 020300Z AUTO 09002KT 11SM 13/03 RMK SLP247 T01290029 52007 IEM_DS3505
ZHHH,2000-03-02 06:00,ZHHH 020600Z AUTO 07002KT 11SM 16/03 RMK SLP218 T01620030 57029 IEM_DS3505
ZHHH,2000-03-02 09:00,ZHHH 020900Z AUTO 00000KT 9SM 14/04 RMK SLP205 T01450043 57013 IEM_DS3505
ZHHH,2000-03-02 12:00,ZHHH 021200Z AUTO 25002KT 6SM 12/07 RMK 60004 SLP214 T01150073 52009 IEM_DS3505
ZHHH,2000-03-02 15:00,ZHHH 021500Z AUTO 32002KT 7SM 11/08 RMK SLP220 T01080077 52006 IEM_DS3505
ZHHH,2000-03-02 18:00,ZHHH 021800Z AUTO 29004KT 9SM 10/07 RMK 60002 SLP212 T00990069 57007 IEM_DS3505
ZHHH,2000-03-02 21:00,ZHHH 022100Z AUTO 00000KT 7SM 10/05 RMK 70006 SLP203 T01000054 57010 IEM_DS3505
ZHHH,2000-03-03 00:00,ZHHH 030000Z AUTO 00000KT 8SM 10/08 RMK 70006 SLP213 T00950076 52010 IEM_DS3505
ZHHH,2000-03-03 03:00,ZHHH 030300Z AUTO 27002KT 9SM 12/08 RMK SLP215 T01230076 52002 IEM_DS3505
ZHHH,2000-03-03 06:00,ZHHH 030600Z AUTO 25002KT 9SM 13/08 RMK SLP192 T01270076 57023 IEM_DS3505
ZHHH,2000-03-03 09:00,ZHHH 030900Z AUTO 27002KT 9SM 11/08 RMK SLP178 T01090085 57014 IEM_DS3505
ZHHH,2000-03-03 12:00,ZHHH 031200Z AUTO 00000KT 6SM 11/09 RMK 60001 SLP180 T01120086 52002 IEM_DS3505
ZHHH,2000-03-03 15:00,ZHHH 031500Z AUTO 00000KT 6SM 11/09 RMK SLP192 T01070093 52012 IEM_DS3505
ZHHH,2000-03-03 18:00,ZHHH 031800Z AUTO 09002KT 6SM 10/09 RMK 60008 SLP186 T01040092 57006 IEM_DS3505
ZHHH,2000-03-03 21:00,ZHHH 032100Z AUTO 00000KT 7SM 10/09 RMK 70007 SLP173 T01000094 57013 IEM_DS3505
ZHHH,2000-03-04 00:00,ZHHH 040000Z AUTO 29002KT 7SM 10/09 RMK 60003 SLP197 T01020092 52024 IEM_DS3505
ZHHH,2000-03-04 03:00,ZHHH 040300Z AUTO 32002KT 9SM 12/10 RMK SLP202 T01190095 52005 IEM_DS3505
ZHHH,2000-03-04 06:00,ZHHH 040600Z AUTO 04004KT 11SM 16/08 RMK SLP177 T01560078 57024 IEM_DS3505
ZHHH,2000-03-04 09:00,ZHHH 040900Z AUTO 09002KT 9SM 15/08 RMK SLP172 T01520083 57005 IEM_DS3505
ZHHH,2000-03-04 12:00,ZHHH 041200Z AUTO 00000KT 8SM 14/10 RMK SLP183 T01400095 52011 IEM_DS3505
ZHHH,2000-03-04 15:00,ZHHH 041500Z AUTO 00000KT 7SM 13/10 RMK SLP195 T01310104 52012 IEM_DS3505
ZHHH,2000-03-04 18:00,ZHHH 041800Z AUTO 00000KT 7SM 12/11 RMK 60002 SLP193 T01230108 57002 IEM_DS3505
ZHHH,2000-03-04 21:00,ZHHH 042100Z AUTO 00000KT 7SM 12/10 RMK 70002 SLP179 T01170103 57014 IEM_DS3505
ZHHH,2000-03-05 00:00,ZHHH 050000Z AUTO 02004KT 12SM 10/06 RMK 60003 SLP190 T01050064 52011 IEM_DS3505
ZHHH,2000-03-05 03:00,ZHHH 050300Z AUTO 07004KT 12SM 14/08 RMK SLP197 T01400077 52008 IEM_DS3505
ZHHH,2000-03-05 06:00,ZHHH 050600Z AUTO 04002KT 16SM 17/08 RMK SLP168 T01700075 57029 IEM_DS3505
ZHHH,2000-03-05 09:00,ZHHH 050900Z AUTO 04002KT 16SM 17/07 RMK SLP155 T01730074 57013 IEM_DS3505
ZHHH,2000-03-05 12:00,ZHHH 051200Z AUTO 00000KT 9SM 14/11 RMK SLP168 T01400114 52013 IEM_DS3505
ZHHH,2000-03-05 15:00,ZHHH 051500Z AUTO 00000KT 9SM 13/10 RMK SLP184 T01340099 52016 IEM_DS3505
ZHHH,2000-03-05 18:00,ZHHH 051800Z AUTO 00000KT 9SM 12/11 RMK SLP180 T01230108 57004 IEM_DS3505
ZHHH,2000-03-05 21:00,ZHHH 052100Z AUTO 04002KT 9SM 12/10 RMK 70003 SLP181 T01230095 52001 IEM_DS3505
ZHHH,2000-03-06 00:00,ZHHH 060000Z AUTO 04002KT 7SM 12/10 RMK SLP195 T01200098 52014 IEM_DS3505
ZHHH,2000-03-06 03:00,ZHHH 060300Z AUTO 04006KT 9SM 17/05 RMK SLP204 T01680051 52009 IEM_DS3505
ZHHH,2000-03-06 06:00,ZHHH 060600Z AUTO 04004KT 16SM 19/M03 RMK SLP186 T01881027 57018 IEM_DS3505
ZHHH,2000-03-06 09:00,ZHHH 060900Z AUTO 02004KT 16SM 18/M01 RMK SLP179 T01831012 57007 IEM_DS3505
ZHHH,2000-03-06 12:00,ZHHH 061200Z AUTO 02004KT 11SM 16/00 RMK SLP196 T01560004 52017 IEM_DS3505
ZHHH,2000-03-06 15:00,ZHHH 061500Z AUTO 02002KT 9SM 13/01 RMK SLP211 T01340009 52015 IEM_DS3505
ZHHH,2000-03-06 18:00,ZHHH 061800Z AUTO 04002KT 9SM 12/01 RMK SLP213 T01240010 52002 IEM_DS3505
ZHHH,2000-03-06 21:00,ZHHH 062100Z AUTO 00000KT 9SM 12/04 RMK SLP211 T01150041 57002 IEM_DS3505
ZHHH,2000-03-07 00:00,ZHHH 070000Z AUTO 36002KT 7SM 11/03 RMK SLP226 T01110030 52015 IEM_DS3505
ZHHH,2000-03-07 03:00,ZHHH 070300Z AUTO 04004KT 9SM 13/03 RMK SLP231 T01330026 52005 IEM_DS3505
ZHHH,2000-03-07 06:00,ZHHH 070600Z AUTO 04004KT 9SM 14/01 RMK SLP219 T01410010 57012 IEM_DS3505
ZHHH,2000-03-07 09:00,ZHHH 070900Z AUTO 04004KT 7SM 13/04 RMK SLP222 T01290040 52002 IEM_DS3505
ZHHH,2000-03-07 12:00,ZHHH 071200Z AUTO 00000KT 12SM 11/05 RMK SLP230 T01140050 52008 IEM_DS3505
ZHHH,2000-03-07 15:00,ZHHH 071500Z AUTO 00000KT 12SM 10/05 RMK SLP239 T00970053 52009 IEM_DS3505
ZHHH,2000-03-07 18:00,ZHHH 071800Z AUTO 00000KT 9SM 08/06 RMK SLP252 T00770057 52013 IEM_DS3505
ZHHH,2000-03-07 21:00,ZHHH 072100Z AUTO 07002KT 9SM 07/04 RMK SLP235 T00710038 57017 IEM_DS3505
ZHHH,2000-03-08 00:00,ZHHH 080000Z AUTO 02002KT 9SM 08/05 RMK SLP259 T00800051 52024 IEM_DS3505
ZHHH,2000-03-08 03:00,ZHHH 080300Z AUTO 07006KT 11SM 12/05 RMK SLP254 T01220047 57005 IEM_DS3505
ZHHH,2000-03-08 06:00,ZHHH 080600Z AUTO 04004KT 11SM 16/01 RMK SLP229 T01570006 57025 IEM_DS3505
ZHHH,2000-03-08 09:00,ZHHH 080900Z AUTO 18002KT 11SM 16/M03 RMK SLP212 T01591033 57017 IEM_DS3505
ZHHH,2000-03-08 12:00,ZHHH 081200Z AUTO 00000KT 9SM 14/04 RMK SLP220 T01410037 52008 IEM_DS3505
ZHHH,2000-03-08 15:00,ZHHH 081500Z AUTO 18004KT 8SM 14/M00 RMK SLP242 T01421002 52022 IEM_DS3505
ZHHH,2000-03-08 18:00,ZHHH 081800Z AUTO 14002KT 12SM 12/04 RMK SLP239 T01180042 57002 IEM_DS3505
ZHHH,2000-03-08 21:00,ZHHH 082100Z AUTO 00000KT 12SM 11/05 RMK 70003 SLP230 T01120048 57009 IEM_DS3505
ZHHH,2000-03-09 00:00,ZHHH 090000Z AUTO 00000KT 11SM 11/05 RMK 70003 SLP249 T01120053 52018 IEM_DS3505
ZHHH,2000-03-09 03:00,ZHHH 090300Z AUTO 04004KT 11SM 14/04 RMK SLP249 T01360044 52001 IEM_DS3505
ZHHH,2000-03-09 06:00,ZHHH 090600Z AUTO 34002KT 14SM 15/02 RMK SLP237 T01490022 57013 IEM_DS3505
ZHHH,2000-03-09 09:00,ZHHH 090900Z AUTO 11004KT 11SM 15/03 RMK SLP229 T01510034 57008 IEM_DS3505
ZHHH,2000-03-09 12:00,ZHHH 091200Z AUTO 00000KT 11SM 12/06 RMK SLP236 T01250061 52007 IEM_DS3505
ZHHH,2000-03-09 15:00,ZHHH 091500Z AUTO 18002KT 9SM 11/06 RMK SLP237 T01090057 52001 IEM_DS3505
ZHHH,2000-03-09 18:00,ZHHH 091800Z AUTO 09002KT 9SM 11/05 RMK SLP229 T01090047 57008 IEM_DS3505
ZHHH,2000-03-09 21:00,ZHHH 092100Z AUTO 09002KT 9SM 11/05 RMK 70003 SLP214 T01060053 57014 IEM_DS3505
ZHHH,2000-03-10 00:00,ZHHH 100000Z AUTO 04002KT 9SM 09/05 RMK 60012 SLP230 T00860052 52015 IEM_DS3505
ZHHH,2000-03-10 03:00,ZHHH 100300Z AUTO 00000KT 9SM 08/06 RMK SLP230 T00830061 54000 IEM_DS3505
ZHHH,2000-03-10 06:00,ZHHH 100600Z AUTO 36004KT 9SM 10/07 RMK 60012 SLP204 T00950067 57026 IEM_DS3505
ZHHH,2000-03-10 09:00,ZHHH 100900Z AUTO 00000KT 9SM 10/06 RMK SLP195 T00970060 57009 IEM_DS3505
ZHHH,2000-03-10 12:00,ZHHH 101200Z AUTO 00000KT 7SM 10/06 RMK 60000 SLP198 T00950065 52003 IEM_DS3505
ZHHH,2000-03-10 15:00,ZHHH 101500Z AUTO 00000KT 7SM 08/07 RMK SLP213 T00830072 52015 IEM_DS3505
ZHHH,2000-03-10 18:00,ZHHH 101800Z AUTO 00000KT 6SM 08/06 RMK 60004 SLP202 T00760056 57011 IEM_DS3505
ZHHH,2000-03-10 21:00,ZHHH 102100Z AUTO 00000KT 6SM 07/06 RMK 70026 SLP184 T00740056 57018 IEM_DS3505
ZHHH,2000-03-11 00:00,ZHHH 110000Z AUTO 36002KT 11SM 07/05 RMK 60000 SLP199 T00700049 52015 IEM_DS3505
ZHHH,2000-03-11 03:00,ZHHH 110300Z AUTO 34004KT 11SM 09/04 RMK SLP203 T00870044 52004 IEM_DS3505
ZHHH,2000-03-11 06:00,ZHHH 110600Z AUTO 36004KT 12SM 11/04 RMK SLP180 T01140043 57023 IEM_DS3505
ZHHH,2000-03-11 09:00,ZHHH 110900Z AUTO 09004KT 12SM 11/04 RMK SLP171 T01140043 57009 IEM_DS3505
ZHHH,2000-03-11 12:00,ZHHH 111200Z AUTO 04002KT 12SM 09/04 RMK SLP184 T00920042 52013 IEM_DS3505
ZHHH,2000-03-11 15:00,ZHHH 111500Z AUTO 04002KT 12SM 08/03 RMK SLP193 T00790034 52009 IEM_DS3505
ZHHH,2000-03-11 18:00,ZHHH 111800Z AUTO 04002KT 9SM 07/04 RMK SLP192 T00700037 57001 IEM_DS3505
ZHHH,2000-03-11 21:00,ZHHH 112100Z AUTO 04002KT 9SM 06/04 RMK SLP183 T00620038 57009 IEM_DS3505
ZHHH,2000-03-12 00:00,ZHHH 120000Z AUTO 07002KT 9SM 06/04 RMK SLP184 T00640043 52001 IEM_DS3505
ZHHH,2000-03-12 03:00,ZHHH 120300Z AUTO 16002KT 9SM 11/06 RMK SLP185 T01140056 52001 IEM_DS3505
ZHHH,2000-03-12 06:00,ZHHH 120600Z AUTO 11006KT 12SM 12/04 RMK SLP168 T01240045 57017 IEM_DS3505
ZHHH,2000-03-12 09:00,ZHHH 120900Z AUTO 09002KT 12SM 13/05 RMK SLP160 T01320048 57008 IEM_DS3505
ZHHH,2000-03-12 12:00,ZHHH 121200Z AUTO 16002KT 9SM 10/06 RMK SLP177 T01030055 52017 IEM_DS3505
ZHHH,2000-03-12 15:00,ZHHH 121500Z AUTO 00000KT 9SM 10/07 RMK SLP187 T01000066 52010 IEM_DS3505
ZHHH,2000-03-12 18:00,ZHHH 121800Z AUTO 09002KT 9SM 09/07 RMK SLP180 T00870070 57007 IEM_DS3505
ZHHH,2000-03-12 21:00,ZHHH 122100Z AUTO 00000KT 9SM 08/06 RMK SLP179 T00790061 57001 IEM_DS3505
ZHHH,2000-03-13 00:00,ZHHH 130000Z AUTO 09002KT 11SM 08/06 RMK SLP193 T00810063 52014 IEM_DS3505
ZHHH,2000-03-13 03:00,ZHHH 130300Z AUTO 07004KT 12SM 13/07 RMK SLP194 T01290066 52001 IEM_DS3505
ZHHH,2000-03-13 06:00,ZHHH 130600Z AUTO 07002KT 12SM 14/06 RMK SLP179 T01450064 57015 IEM_DS3505
ZHHH,2000-03-13 09:00,ZHHH 130900Z AUTO 07004KT 11SM 15/07 RMK SLP174 T01460068 57005 IEM_DS3505
ZHHH,2000-03-13 12:00,ZHHH 131200Z AUTO 00000KT 11SM 12/08 RMK SLP182 T01240081 52008 IEM_DS3505
ZHHH,2000-03-13 15:00,ZHHH 131500Z AUTO 00000KT 9SM 12/08 RMK SLP202 T01170085 52020 IEM_DS3505
ZHHH,2000-03-13 18:00,ZHHH 131800Z AUTO 00000KT 9SM 10/08 RMK SLP200 T01040083 57001 IEM_DS3505
ZHHH,2000-03-13 21:00,ZHHH 132100Z AUTO 07002KT 9SM 10/07 RMK SLP198 T00990074 57003 IEM_DS3505
ZHHH,2000-03-14 00:00,ZHHH 140000Z AUTO 04002KT 11SM 10/07 RMK SLP212 T01000073 52014 IEM_DS3505
ZHHH,2000-03-14 03:00,ZHHH 140300Z AUTO 04004KT 12SM 15/08 RMK SLP210 T01480075 57001 IEM_DS3505
ZHHH,2000-03-14 06:00,ZHHH 140600Z AUTO 09002KT 9SM 17/08 RMK SLP176 T01710078 57034 IEM_DS3505
ZHHH,2000-03-14 09:00,ZHHH 140900Z AUTO 00000KT 9SM 16/08 RMK SLP162 T01650080 57014 IEM_DS3505
ZHHH,2000-03-14 12:00,ZHHH 141200Z AUTO 00000KT 9SM 15/10 RMK 60003 SLP158 T01530095 57004 IEM_DS3505
ZHHH,2000-03-14 15:00,ZHHH 141500Z AUTO 00000KT 9SM 14/11 RMK SLP165 T01420112 52007 IEM_DS3505
ZHHH,2000-03-14 18:00,ZHHH 141800Z AUTO 00000KT 7SM 13/10 RMK 60000 SLP159 T01320105 57006 IEM_DS3505
ZHHH,2000-03-14 21:00,ZHHH 142100Z AUTO 34002KT 7SM 13/10 RMK 70000 SLP143 T01270104 57016 IEM_DS3505
ZHHH,2000-03-15 00:00,ZHHH 150000Z AUTO 32004KT 6SM 12/11 RMK 60003 SLP145 T01220109 52002 IEM_DS3505
ZHHH,2000-03-15 03:00,ZHHH 150300Z AUTO 32006KT 6SM 12/11 RMK SLP160 T01180106 52015 IEM_DS3505
ZHHH,2000-03-15 06:00,ZHHH 150600Z AUTO 32006KT 6SM 12/11 RMK 60016 SLP150 T01210106 57010 IEM_DS3505
ZHHH,2000-03-15 09:00,ZHHH 150900Z AUTO 32006KT 7SM 12/09 RMK SLP150 T01220094 54000 IEM_DS3505
ZHHH,2000-03-15 12:00,ZHHH 151200Z AUTO 27002KT 7SM 11/10 RMK 60000 SLP173 T01130097 52023 IEM_DS3505
ZHHH,2000-03-15 15:00,ZHHH 151500Z AUTO 27002KT 9SM 10/09 RMK SLP194 T01020094 52020 IEM_DS3505
ZHHH,2000-03-15 18:00,ZHHH 151800Z AUTO 00000KT 7SM 09/09 RMK SLP190 T00940088 57004 IEM_DS3505
ZHHH,2000-03-15 21:00,ZHHH 152100Z AUTO 00000KT 6SM 08/08 RMK 70019 SLP187 T00820080 57003 IEM_DS3505
ZHHH,2000-03-16 00:00,ZHHH 160000Z AUTO 00000KT 3/8SM 07/07 RMK 70017 SLP210 T00710069 52023 IEM_DS3505
ZHHH,2000-03-16 03:00,ZHHH 160300Z AUTO 00000KT 6SM 12/10 RMK SLP215 T01150099 52005 IEM_DS3505
ZHHH,2000-03-16 06:00,ZHHH 160600Z AUTO 22004KT 9SM 16/10 RMK SLP191 T01630098 57023 IEM_DS3505
ZHHH,2000-03-16 09:00,ZHHH 160900Z AUTO 18002KT 11SM 17/08 RMK SLP176 T01740085 57015 IEM_DS3505
ZHHH,2000-03-16 12:00,ZHHH 161200Z AUTO 00000KT 7SM 13/10 RMK SLP181 T01340103 52004 IEM_DS3505
ZHHH,2000-03-16 15:00,ZHHH 161500Z AUTO 00000KT 7SM 12/10 RMK SLP186 T01170095 52005 IEM_DS3505
ZHHH,2000-03-16 18:00,ZHHH 161800Z AUTO 00000KT 7SM 10/09 RMK SLP174 T00970093 57011 IEM_DS3505
ZHHH,2000-03-16 21:00,ZHHH 162100Z AUTO 00000KT 7SM 09/08 RMK SLP164 T00870081 57010 IEM_DS3505
ZHHH,2000-03-17 00:00,ZHHH 170000Z AUTO 00000KT 6SM 11/07 RMK SLP179 T01100070 52015 IEM_DS3505
ZHHH,2000-03-17 03:00,ZHHH 170300Z AUTO 14006KT 11SM 17/08 RMK SLP174 T01720080 57005 IEM_DS3505
ZHHH,2000-03-17 06:00,ZHHH 170600Z AUTO 11004KT 11SM 18/06 RMK SLP149 T01750058 57025 IEM_DS3505
ZHHH,2000-03-17 09:00,ZHHH 170900Z AUTO 14002KT 11SM 18/05 RMK SLP131 T01780049 57018 IEM_DS3505
ZHHH,2000-03-17 12:00,ZHHH 171200Z AUTO 00000KT 11SM 16/09 RMK SLP140 T01560090 52009 IEM_DS3505
ZHHH,2000-03-17 15:00,ZHHH 171500Z AUTO 00000KT 11SM 14/10 RMK SLP140 T01450095 54000 IEM_DS3505
ZHHH,2000-03-17 21:00,ZHHH 172100Z AUTO 00000KT 9SM 13/09 RMK SLP139 T01260090 52003 IEM_DS3505
ZHHH,2000-03-18 00:00,ZHHH 180000Z AUTO 00000KT 11SM 13/10 RMK SLP148 T01290098 52009 IEM_DS3505
ZHHH,2000-03-18 03:00,ZHHH 180300Z AUTO 27002KT 12SM 18/09 RMK SLP155 T01790091 52007 IEM_DS3505
ZHHH,2000-03-18 06:00,ZHHH 180600Z AUTO 27002KT 11SM 20/08 RMK SLP138 T01990082 57017 IEM_DS3505
ZHHH,2000-03-18 09:00,ZHHH 180900Z AUTO 04002KT 12SM 20/08 RMK SLP128 T02020084 57010 IEM_DS3505
ZHHH,2000-03-18 12:00,ZHHH 181200Z AUTO 00000KT 11SM 17/13 RMK SLP140 T01670128 52012 IEM_DS3505
ZHHH,2000-03-18 15:00,ZHHH 181500Z AUTO 25002KT 11SM 15/12 RMK SLP167 T01470117 52027 IEM_DS3505
ZHHH,2000-03-18 18:00,ZHHH 181800Z AUTO 00000KT 9SM 13/11 RMK SLP173 T01340113 52006 IEM_DS3505
ZHHH,2000-03-18 21:00,ZHHH 182100Z AUTO 00000KT 7SM 13/12 RMK SLP183 T01260115 52010 IEM_DS3505
ZHHH,2000-03-19 00:00,ZHHH 190000Z AUTO 02002KT 1/4SM 11/11 RMK SLP202 T01110109 52019 IEM_DS3505
ZHHH,2000-03-19 03:00,ZHHH 190300Z AUTO 04004KT 9SM 16/11 RMK SLP213 T01560109 52011 IEM_DS3505
ZHHH,2000-03-19 06:00,ZHHH 190600Z AUTO 07004KT 11SM 20/07 RMK SLP190 T02010072 57023 IEM_DS3505
ZHHH,2000-03-19 09:00,ZHHH 190900Z AUTO 09004KT 11SM 21/08 RMK SLP167 T02060077 57023 IEM_DS3505
ZHHH,2000-03-19 12:00,ZHHH 191200Z AUTO 04004KT 11SM 17/08 RMK SLP171 T01690076 52004 IEM_DS3505
ZHHH,2000-03-19 15:00,ZHHH 191500Z AUTO 07006KT 9SM 14/06 RMK SLP179 T01440055 52008 IEM_DS3505
ZHHH,2000-03-19 18:00,ZHHH 191800Z AUTO 07002KT 11SM 13/07 RMK SLP177 T01290069 57002 IEM_DS3505
ZHHH,2000-03-19 21:00,ZHHH 192100Z AUTO 07004KT 9SM 13/06 RMK SLP161 T01310059 57016 IEM_DS3505
ZHHH,2000-03-20 00:00,ZHHH 200000Z AUTO 09004KT 7SM 13/05 RMK SLP165 T01310054 52004 IEM_DS3505
ZHHH,2000-03-20 03:00,ZHHH 200300Z AUTO 14004KT 9SM 15/07 RMK SLP170 T01490067 52005 IEM_DS3505
ZHHH,2000-03-20 06:00,ZHHH 200600Z AUTO 14006KT 9SM 16/09 RMK 60003 SLP144 T01620090 57026 IEM_DS3505
ZHHH,2000-03-20 09:00,ZHHH 200900Z AUTO 14004KT 9SM 16/11 RMK SLP127 T01590107 57017 IEM_DS3505
ZHHH,2000-03-20 12:00,ZHHH 201200Z AUTO 00000KT 7SM 15/11 RMK SLP133 T01530108 52006 IEM_DS3505
ZHHH,2000-03-20 15:00,ZHHH 201500Z AUTO 00000KT 7SM 15/11 RMK SLP150 T01470113 52017 IEM_DS3505
ZHHH,2000-03-20 18:00,ZHHH 201800Z AUTO 00000KT 7SM 14/11 RMK SLP150 T01380112 54000 IEM_DS3505
ZHHH,2000-03-20 21:00,ZHHH 202100Z AUTO 00000KT 7SM 14/11 RMK 70003 SLP147 T01360110 57003 IEM_DS3505
ZHHH,2000-03-21 00:00,ZHHH 210000Z AUTO 04004KT 7SM 14/11 RMK 70003 SLP159 T01350110 52012 IEM_DS3505
ZHHH,2000-03-21 03:00,ZHHH 210300Z AUTO 09004KT 9SM 16/12 RMK SLP162 T01580120 52003 IEM_DS3505
ZHHH,2000-03-21 06:00,ZHHH 210600Z AUTO 00000KT 6SM 15/14 RMK 60008 SLP143 T01510135 57019 IEM_DS3505
ZHHH,2000-03-21 09:00,ZHHH 210900Z AUTO 02002KT 6SM 14/11 RMK SLP149 T01390109 52006 IEM_DS3505
ZHHH,2000-03-21 12:00,ZHHH 211200Z AUTO 02006KT 6SM 13/09 RMK 60008 SLP169 T01280090 52020 IEM_DS3505
ZHHH,2000-03-21 15:00,ZHHH 211500Z AUTO 04004KT 7SM 13/09 RMK SLP191 T01270089 52022 IEM_DS3505
ZHHH,2000-03-21 18:00,ZHHH 211800Z AUTO 02004KT 7SM 13/08 RMK 60003 SLP195 T01290085 52004 IEM_DS3505
ZHHH,2000-03-21 21:00,ZHHH 212100Z AUTO 04002KT 7SM 12/08 RMK 70016 SLP191 T01240079 57004 IEM_DS3505
ZHHH,2000-03-22 00:00,ZHHH 220000Z AUTO 02002KT 9SM 12/08 RMK 70016 SLP201 T01250085 52010 IEM_DS3505
ZHHH,2000-03-22 03:00,ZHHH 220300Z AUTO 04004KT 11SM 13/08 RMK SLP202 T01290085 52001 IEM_DS3505
ZHHH,2000-03-22 06:00,ZHHH 220600Z AUTO 32004KT 7SM 14/10 RMK SLP187 T01380097 57015 IEM_DS3505
ZHHH,2000-03-22 09:00,ZHHH 220900Z AUTO 32006KT 6SM 12/10 RMK SLP184 T01180102 57003 IEM_DS3505
ZHHH,2000-03-22 12:00,ZHHH 221200Z AUTO 32004KT 6SM 11/10 RMK 60028 SLP220 T01070101 52035 IEM_DS3505
ZHHH,2000-03-22 15:00,ZHHH 221500Z AUTO 32002KT 6SM 09/08 RMK SLP247 T00930078 52027 IEM_DS3505
ZHHH,2000-03-22 18:00,ZHHH 221800Z AUTO 34004KT 7SM 10/08 RMK 60008 SLP250 T01020079 52003 IEM_DS3505
ZHHH,2000-03-22 21:00,ZHHH 222100Z AUTO 34002KT 7SM 10/08 RMK 70035 SLP249 T01010076 57001 IEM_DS3505
ZHHH,2000-03-23 00:00,ZHHH 230000Z AUTO 34002KT 8SM 10/07 RMK 70035 SLP268 T01050073 52019 IEM_DS3505
ZHHH,2000-03-23 03:00,ZHHH 230300Z AUTO 02006KT 11SM 13/06 RMK SLP282 T01310056 52014 IEM_DS3505
ZHHH,2000-03-23 06:00,ZHHH 230600Z AUTO 34006KT 12SM 16/M03 RMK SLP265 T01631026 57017 IEM_DS3505
ZHHH,2000-03-23 09:00,ZHHH 230900Z AUTO 02002KT 11SM 16/M01 RMK SLP255 T01651010 57010 IEM_DS3505
ZHHH,2000-03-23 12:00,ZHHH 231200Z AUTO 00000KT 11SM 14/03 RMK SLP257 T01360030 52002 IEM_DS3505
ZHHH,2000-03-23 15:00,ZHHH 231500Z AUTO 00000KT 9SM 11/07 RMK SLP273 T01110071 52016 IEM_DS3505
ZHHH,2000-03-23 18:00,ZHHH 231800Z AUTO 00000KT 11SM 11/07 RMK SLP276 T01070066 52003 IEM_DS3505
ZHHH,2000-03-23 21:00,ZHHH 232100Z AUTO 00000KT 9SM 09/05 RMK SLP260 T00930050 57016 IEM_DS3505
ZHHH,2000-03-24 00:00,ZHHH 240000Z AUTO 00000KT 14SM 10/07 RMK SLP275 T01010069 52015 IEM_DS3505
ZHHH,2000-03-24 03:00,ZHHH 240300Z AUTO 16002KT 16SM 17/03 RMK SLP277 T01660027 52002 IEM_DS3505
ZHHH,2000-03-24 06:00,ZHHH 240600Z AUTO 16004KT 11SM 19/05 RMK SLP245 T01920052 57031 IEM_DS3505
ZHHH,2000-03-24 09:00,ZHHH 240900Z AUTO 27002KT 11SM 19/02 RMK SLP222 T01920022 57023 IEM_DS3505
ZHHH,2000-03-24 12:00,ZHHH 241200Z AUTO 00000KT 9SM 17/05 RMK SLP225 T01690052 52003 IEM_DS3505
ZHHH,2000-03-24 15:00,ZHHH 241500Z AUTO 32002KT 9SM 16/07 RMK SLP244 T01550074 52019 IEM_DS3505
ZHHH,2000-03-24 18:00,ZHHH 241800Z AUTO 00000KT 9SM 15/10 RMK SLP241 T01460095 57003 IEM_DS3505
ZHHH,2000-03-24 21:00,ZHHH 242100Z AUTO 00000KT 9SM 14/09 RMK SLP232 T01440091 57009 IEM_DS3505
ZHHH,2000-03-25 00:00,ZHHH 250000Z AUTO 02002KT 9SM 14/08 RMK SLP251 T01420084 52019 IEM_DS3505
ZHHH,2000-03-25 03:00,ZHHH 250300Z AUTO 09002KT 11SM 18/06 RMK SLP258 T01760062 52007 IEM_DS3505
ZHHH,2000-03-25 06:00,ZHHH 250600Z AUTO 16002KT 12SM 19/07 RMK SLP237 T01920072 57021 IEM_DS3505
ZHHH,2000-03-25 09:00,ZHHH 250900Z AUTO 27002KT 11SM 18/05 RMK SLP225 T01850048 57012 IEM_DS3505
ZHHH,2000-03-25 12:00,ZHHH 251200Z AUTO 00000KT 9SM 16/09 RMK SLP242 T01560090 52017 IEM_DS3505
ZHHH,2000-03-25 15:00,ZHHH 251500Z AUTO 27002KT 9SM 14/08 RMK SLP254 T01380077 52012 IEM_DS3505
ZHHH,2000-03-25 18:00,ZHHH 251800Z AUTO 00000KT 9SM 12/09 RMK SLP252 T01190091 57002 IEM_DS3505
ZHHH,2000-03-25 21:00,ZHHH 252100Z AUTO 00000KT 11SM 11/10 RMK SLP246 T01110095 57006 IEM_DS3505
ZHHH,2000-03-26 00:00,ZHHH 260000Z AUTO 18002KT 12SM 12/09 RMK SLP256 T01200088 52009 IEM_DS3505
ZHHH,2000-03-26 03:00,ZHHH 260300Z AUTO 18002KT 16SM 18/09 RMK SLP249 T01800092 57006 IEM_DS3505
ZHHH,2000-03-26 06:00,ZHHH 260600Z AUTO 18004KT 11SM 22/08 RMK SLP213 T02250078 57036 IEM_DS3505
ZHHH,2000-03-26 09:00,ZHHH 260900Z AUTO 18004KT 11SM 22/07 RMK SLP177 T02220069 57036 IEM_DS3505
ZHHH,2000-03-26 12:00,ZHHH 261200Z AUTO 00000KT 9SM 18/10 RMK SLP173 T01780105 57004 IEM_DS3505
ZHHH,2000-03-26 15:00,ZHHH 261500Z AUTO 18002KT 7SM 16/08 RMK SLP170 T01550077 57003 IEM_DS3505
ZHHH,2000-03-26 18:00,ZHHH 261800Z AUTO 16004KT 9SM 14/08 RMK SLP151 T01430076 57019 IEM_DS3505
ZHHH,2000-03-26 21:00,ZHHH 262100Z AUTO 18004KT 9SM 14/05 RMK SLP129 T01410054 51022 IEM_DS3505
ZHHH,2000-03-27 03:00,ZHHH 270300Z AUTO 27006KT 11SM 22/06 RMK SLP148 T02170055 57001 IEM_DS3505
ZHHH,2000-03-27 06:00,ZHHH 270600Z AUTO 22004KT 16SM 24/09 RMK SLP098 T02450091 57050 IEM_DS3505
ZHHH,2000-03-27 09:00,ZHHH 270900Z AUTO 22008KT 17SM 24/11 RMK SLP079 T02380108 57018 IEM_DS3505
ZHHH,2000-03-27 12:00,ZHHH 271200Z AUTO 25004KT 12SM 21/11 RMK SLP095 T02130110 52015 IEM_DS3505
ZHHH,2000-03-27 15:00,ZHHH 271500Z AUTO 27004KT 11SM 20/10 RMK SLP105 T02010104 52011 IEM_DS3505
ZHHH,2000-03-27 18:00,ZHHH 271800Z AUTO 02002KT 9SM 18/03 RMK SLP144 T01790033 52039 IEM_DS3505
ZHHH,2000-03-27 21:00,ZHHH 272100Z AUTO 02002KT 9SM 16/02 RMK SLP175 T01590019 52030 IEM_DS3505
ZHHH,2000-03-28 00:00,ZHHH 280000Z AUTO 02004KT 9SM 16/01 RMK SLP209 T01560011 52034 IEM_DS3505
ZHHH,2000-03-28 03:00,ZHHH 280300Z AUTO 02008KT 11SM 18/M08 RMK SLP225 T01821078 52016 IEM_DS3505
ZHHH,2000-03-28 06:00,ZHHH 280600Z AUTO 27002KT 12SM 20/M02 RMK SLP205 T02011025 57020 IEM_DS3505
ZHHH,2000-03-28 09:00,ZHHH 280900Z AUTO 32004KT 12SM 21/M04 RMK SLP188 T02081035 57017 IEM_DS3505
ZHHH,2000-03-28 12:00,ZHHH 281200Z AUTO 09002KT 9SM 18/02 RMK SLP208 T01790023 52020 IEM_DS3505
ZHHH,2000-03-28 15:00,ZHHH 281500Z AUTO 00000KT 7SM 16/05 RMK SLP222 T01550046 52014 IEM_DS3505
ZHHH,2000-03-28 18:00,ZHHH 281800Z AUTO 04002KT 7SM 13/06 RMK SLP221 T01340065 57001 IEM_DS3505
ZHHH,2000-03-28 21:00,ZHHH 282100Z AUTO 09004KT 7SM 13/02 RMK SLP218 T01340024 57003 IEM_DS3505
ZHHH,2000-03-29 00:00,ZHHH 290000Z AUTO 07002KT 11SM 14/05 RMK SLP232 T01390046 52014 IEM_DS3505
ZHHH,2000-03-29 03:00,ZHHH 290300Z AUTO 14006KT 12SM 20/01 RMK SLP230 T01990014 57002 IEM_DS3505
ZHHH,2000-03-29 06:00,ZHHH 290600Z AUTO 11006KT 11SM 23/01 RMK SLP193 T02330012 57037 IEM_DS3505
ZHHH,2000-03-29 09:00,ZHHH 290900Z AUTO 14004KT 12SM 23/02 RMK SLP163 T02310023 57030 IEM_DS3505
ZHHH,2000-03-29 12:00,ZHHH 291200Z AUTO 11002KT 9SM 20/04 RMK SLP152 T01970044 57011 IEM_DS3505
ZHHH,2000-03-29 15:00,ZHHH 291500Z AUTO 09004KT 9SM 18/04 RMK SLP150 T01830039 57002 IEM_DS3505
ZHHH,2000-03-29 18:00,ZHHH 291800Z AUTO 14002KT 9SM 17/05 RMK SLP123 T01730048 57026 IEM_DS3505
ZHHH,2000-03-29 21:00,ZHHH 292100Z AUTO 00000KT 8SM 17/05 RMK SLP123 T01700051 57001 IEM_DS3505
ZHHH,2000-03-30 00:00,ZHHH 300000Z AUTO 14004KT 9SM 17/08 RMK 60003 SLP117 T01660075 52004 IEM_DS3505
ZHHH,2000-03-30 03:00,ZHHH 300300Z AUTO 14004KT 7SM 18/10 RMK SLP105 T01800095 57012 IEM_DS3505
ZHHH,2000-03-30 06:00,ZHHH 300600Z AUTO 11004KT 9SM 22/11 RMK 60000 SLP076 T02220107 57028 IEM_DS3505
ZHHH,2000-03-30 09:00,ZHHH 300900Z AUTO 27004KT 11SM 26/14 RMK SLP059 T02600144 57017 IEM_DS3505
ZHHH,2000-03-30 12:00,ZHHH 301200Z AUTO 22002KT 9SM 23/12 RMK SLP064 T02280117 52005 IEM_DS3505
ZHHH,2000-03-30 15:00,ZHHH 301500Z AUTO 18002KT 9SM 21/12 RMK SLP079 T02060115 52015 IEM_DS3505
ZHHH,2000-03-30 18:00,ZHHH 301800Z AUTO 9SM 19/10 RMK SLP070 T01930105 57009 IEM_DS3505
ZHHH,2000-03-30 21:00,ZHHH 302100Z AUTO 00000KT 11SM 18/10 RMK SLP071 T01780099 52001 IEM_DS3505
ZHHH,2000-03-31 00:00,ZHHH 310000Z AUTO 11002KT 11SM 19/ RMK 70000 SLP089 52018 IEM_DS3505
ZHHH,2000-03-31 03:00,ZHHH 310300Z AUTO 18002KT 12SM 23/12 RMK SLP100 T02290122 52011 IEM_DS3505
ZHHH,2000-03-31 06:00,ZHHH 310600Z AUTO 14002KT 12SM 25/13 RMK SLP088 T02480134 57012 IEM_DS3505
ZHHH,2000-03-31 09:00,ZHHH 310900Z AUTO 27004KT 11SM 23/16 RMK SLP082 T02300156 57006 IEM_DS3505
ZHHH,2000-03-31 12:00,ZHHH 311200Z AUTO 00000KT 9SM 22/16 RMK SLP093 T02190165 52011 IEM_DS3505
ZHHH,2000-03-31 15:00,ZHHH 311500Z AUTO 00000KT 9SM 21/17 RMK SLP105 T02090166 52012 IEM_DS3505
ZHHH,2000-03-31 18:00,ZHHH 311800Z AUTO 09004KT 7SM 20/15 RMK SLP107 T01980151 52002 IEM_DS3505
ZHHH,2000-03-31 21:00,ZHHH 312100Z AUTO 07006KT 7SM 19/16 RMK SLP107 T01870157 54000 IEM_DS3505
ZHHH,2000-04-01 00:00,ZHHH 010000Z AUTO 04004KT 9SM 17/15 RMK SLP117 T01740152 52009 IEM_DS3505
ZHHH,2000-04-01 03:00,ZHHH 010300Z AUTO 04004KT 9SM 20/13 RMK SLP113 T02020134 57003 IEM_DS3505
ZHHH,2000-04-01 06:00,ZHHH 010600Z AUTO 07004KT 9SM 23/15 RMK SLP089 T02290147 57024 IEM_DS3505
ZHHH,2000-04-01 09:00,ZHHH 010900Z AUTO 07004KT 9SM 22/14 RMK SLP085 T02210137 57004 IEM_DS3505
ZHHH,2000-04-01 12:00,ZHHH 011200Z AUTO 04004KT 9SM 19/15 RMK 60003 SLP113 T01940152 52027 IEM_DS3505
ZHHH,2000-04-01 15:00,ZHHH 011500Z AUTO 04004KT 9SM 17/09 RMK SLP139 T01720094 52026 IEM_DS3505
ZHHH,2000-04-01 18:00,ZHHH 011800Z AUTO 34006KT 9SM 15/07 RMK 60003 SLP149 T01500066 52010 IEM_DS3505
ZHHH,2000-04-01 21:00,ZHHH 012100Z AUTO 36004KT 9SM 14/04 RMK 70003 SLP150 T01390043 52001 IEM_DS3505
ZHHH,2000-04-02 00:00,ZHHH 020000Z AUTO 04004KT 16SM 13/03 RMK 70003 SLP163 T01300028 52013 IEM_DS3505
ZHHH,2000-04-02 03:00,ZHHH 020300Z AUTO 02004KT 16SM 17/05 RMK SLP175 T01700051 52012 IEM_DS3505
ZHHH,2000-04-02 06:00,ZHHH 020600Z AUTO 36004KT 11SM 17/04 RMK SLP166 T01660045 57009 IEM_DS3505
ZHHH,2000-04-02 09:00,ZHHH 020900Z AUTO 04004KT 11SM 19/04 RMK SLP154 T01880035 57012 IEM_DS3505
ZHHH,2000-04-02 12:00,ZHHH 021200Z AUTO 07002KT 9SM 17/06 RMK SLP167 T01690063 52013 IEM_DS3505
ZHHH,2000-04-02 15:00,ZHHH 021500Z AUTO 34002KT 9SM 15/07 RMK SLP179 T01490067 52012 IEM_DS3505
ZHHH,2000-04-02 18:00,ZHHH 021800Z AUTO 04004KT 9SM 14/07 RMK SLP172 T01360073 57007 IEM_DS3505
ZHHH,2000-04-02 21:00,ZHHH 022100Z AUTO 32002KT 8SM 12/08 RMK SLP174 T01200084 52002 IEM_DS3505
ZHHH,2000-04-03 00:00,ZHHH 030000Z AUTO 02002KT 7SM 12/09 RMK SLP185 T01190087 52011 IEM_DS3505
ZHHH,2000-04-03 03:00,ZHHH 030300Z AUTO 36002KT 11SM 16/09 RMK SLP186 T01610094 52001 IEM_DS3505
ZHHH,2000-04-03 06:00,ZHHH 030600Z AUTO 32002KT 12SM 19/10 RMK SLP158 T01860098 57028 IEM_DS3505
ZHHH,2000-04-03 09:00,ZHHH 030900Z AUTO 00000KT 11SM 18/11 RMK SLP144 T01850108 57014 IEM_DS3505
ZHHH,2000-04-03 12:00,ZHHH 031200Z AUTO 29002KT 9SM 17/12 RMK SLP148 T01710116 52004 IEM_DS3505
ZHHH,2000-04-03 15:00,ZHHH 031500Z AUTO 00000KT 7SM 17/12 RMK SLP152 T01660123 52004 IEM_DS3505
ZHHH,2000-04-03 18:00,ZHHH 031800Z AUTO 27002KT 7SM 16/12 RMK 60003 SLP144 T01550122 57008 IEM_DS3505
ZHHH,2000-04-03 21:00,ZHHH 032100Z AUTO 32004KT 7SM 13/12 RMK 70003 SLP137 T01340115 57007 IEM_DS3505
ZHHH,2000-04-04 00:00,ZHHH 040000Z AUTO 00000KT 16SM RMK 70003 52014 IEM_DS3505
ZHHH,2000-04-04 03:00,ZHHH 040300Z AUTO 36004KT 14SM 20/11 RMK SLP158 T02000113 52007 IEM_DS3505
ZHHH,2000-04-04 06:00,ZHHH 040600Z AUTO 32004KT 16SM 23/12 RMK SLP135 T02280121 57023 IEM_DS3505
ZHHH,2000-04-04 09:00,ZHHH 040900Z AUTO 00000KT 12SM 23/11 RMK SLP121 T02280112 57014 IEM_DS3505
ZHHH,2000-04-04 12:00,ZHHH 041200Z AUTO 00000KT 16SM 21/13 RMK SLP130 T02080133 52009 IEM_DS3505
ZHHH,2000-04-04 15:00,ZHHH 041500Z AUTO 00000KT 12SM 19/13 RMK SLP152 T01920134 52022 IEM_DS3505
ZHHH,2000-04-04 18:00,ZHHH 041800Z AUTO 29002KT 9SM 18/14 RMK SLP160 T01790137 52008 IEM_DS3505
ZHHH,2000-04-04 21:00,ZHHH 042100Z AUTO 04004KT 9SM 17/12 RMK SLP171 T01720121 52011 IEM_DS3505
ZHHH,2000-04-05 00:00,ZHHH 050000Z AUTO 07008KT 11SM 16/10 RMK SLP203 T01570104 52032 IEM_DS3505
ZHHH,2000-04-05 03:00,ZHHH 050300Z AUTO 04006KT 11SM 15/07 RMK SLP213 T01510074 52010 IEM_DS3505
ZHHH,2000-04-05 06:00,ZHHH 050600Z AUTO 02008KT 11SM 20/06 RMK 60003 SLP205 T02000062 57008 IEM_DS3505
ZHHH,2000-04-05 09:00,ZHHH 050900Z AUTO 02006KT 11SM 20/02 RMK SLP187 T02030025 57018 IEM_DS3505
ZHHH,2000-04-05 12:00,ZHHH 051200Z AUTO 02002KT 11SM 16/04 RMK SLP194 T01650041 52007 IEM_DS3505
ZHHH,2000-04-05 15:00,ZHHH 051500Z AUTO 07002KT 11SM 15/05 RMK SLP209 T01460047 52015 IEM_DS3505
ZHHH,2000-04-05 18:00,ZHHH 051800Z AUTO 11002KT 12SM 15/05 RMK SLP201 T01460053 57008 IEM_DS3505
ZHHH,2000-04-05 21:00,ZHHH 052100Z AUTO 00000KT 9SM 14/06 RMK 70003 SLP196 T01360058 57005 IEM_DS3505
ZHHH,2000-04-06 00:00,ZHHH 060000Z AUTO 07002KT 11SM 15/06 RMK 70003 SLP202 T01460058 52006 IEM_DS3505
ZHHH,2000-04-06 03:00,ZHHH 060300Z AUTO 14004KT 12SM 18/05 RMK SLP200 T01800054 57002 IEM_DS3505
ZHHH,2000-04-06 06:00,ZHHH 060600Z AUTO 25002KT 14SM 19/08 RMK SLP176 T01940082 57024 IEM_DS3505
ZHHH,2000-04-06 09:00,ZHHH 060900Z AUTO 22002KT 9SM 18/11 RMK SLP170 T01850110 57006 IEM_DS3505
ZHHH,2000-04-06 12:00,ZHHH 061200Z AUTO 18004KT 11SM 17/11 RMK 60003 SLP172 T01730114 52002 IEM_DS3505
ZHHH,2000-04-06 15:00,ZHHH 061500Z AUTO 34004KT 9SM 15/12 RMK SLP189 T01500119 52017 IEM_DS3505
ZHHH,2000-04-06 18:00,ZHHH 061800Z AUTO 00000KT 11SM 14/12 RMK SLP191 T01420122 52002 IEM_DS3505
ZHHH,2000-04-06 21:00,ZHHH 062100Z AUTO 00000KT 11SM 14/13 RMK 70003 SLP186 T01350126 57005 IEM_DS3505
ZHHH,2000-04-07 00:00,ZHHH 070000Z AUTO 16002KT 12SM 15/13 RMK 70003 SLP202 T01520134 52016 IEM_DS3505
ZHHH,2000-04-07 03:00,ZHHH 070300Z AUTO 32002KT 14SM 20/13 RMK SLP204 T02010133 52002 IEM_DS3505
ZHHH,2000-04-07 06:00,ZHHH 070600Z AUTO 18002KT 12SM 22/12 RMK SLP185 T02240115 57019 IEM_DS3505
ZHHH,2000-04-07 09:00,ZHHH 070900Z AUTO 27002KT 11SM 22/12 RMK SLP169 T02220117 57016 IEM_DS3505
ZHHH,2000-04-07 12:00,ZHHH 071200Z AUTO 00000KT 9SM 20/12 RMK SLP171 T02050124 52002 IEM_DS3505
ZHHH,2000-04-07 15:00,ZHHH 071500Z AUTO 00000KT 7SM 19/15 RMK SLP191 T01890146 52020 IEM_DS3505
ZHHH,2000-04-07 18:00,ZHHH 071800Z AUTO 00000KT 9SM 18/15 RMK 60001 SLP189 T01800149 57002 IEM_DS3505
ZHHH,2000-04-07 21:00,ZHHH 072100Z AUTO 00000KT 9SM 17/14 RMK 70001 SLP177 T01710145 57012 IEM_DS3505
ZHHH,2000-04-08 00:00,ZHHH 080000Z AUTO 09002KT 9SM 18/15 RMK 70001 SLP179 T01840146 52002 IEM_DS3505
ZHHH,2000-04-08 03:00,ZHHH 080300Z AUTO 04004KT 11SM 23/12 RMK SLP172 T02320122 57007 IEM_DS3505
ZHHH,2000-04-08 06:00,ZHHH 080600Z AUTO 14004KT 16SM 24/12 RMK SLP140 T02430123 57031 IEM_DS3505
ZHHH,2000-04-08 09:00,ZHHH 080900Z AUTO 09004KT 12SM 24/13 RMK SLP116 T02350130 57024 IEM_DS3505
ZHHH,2000-04-08 12:00,ZHHH 081200Z AUTO 00000KT 11SM 22/14 RMK 60003 SLP125 T02200136 52008 IEM_DS3505
ZHHH,2000-04-08 15:00,ZHHH 081500Z AUTO 00000KT 11SM 21/15 RMK SLP138 T02080153 52014 IEM_DS3505
ZHHH,2000-04-08 18:00,ZHHH 081800Z AUTO 00000KT 11SM 20/15 RMK SLP129 T01990146 57009 IEM_DS3505
ZHHH,2000-04-08 21:00,ZHHH 082100Z AUTO 00000KT 11SM 18/15 RMK 70003 SLP125 T01850149 57004 IEM_DS3505
ZHHH,2000-04-09 00:00,ZHHH 090000Z AUTO 27002KT 7SM 19/15 RMK 70003 SLP140 T01870146 52014 IEM_DS3505
ZHHH,2000-04-09 03:00,ZHHH 090300Z AUTO 25002KT 9SM 23/15 RMK SLP144 T02260149 52005 IEM_DS3505
ZHHH,2000-04-09 06:00,ZHHH 090600Z AUTO 20004KT 11SM 25/15 RMK SLP129 T02530147 57015 IEM_DS3505
ZHHH,2000-04-09 09:00,ZHHH 090900Z AUTO 18002KT 11SM 26/14 RMK SLP122 T02550145 57007 IEM_DS3505
ZHHH,2000-04-09 12:00,ZHHH 091200Z AUTO 00000KT 9SM 24/14 RMK SLP154 T02410140 52032 IEM_DS3505
ZHHH,2000-04-09 15:00,ZHHH 091500Z AUTO 04002KT 9SM 22/11 RMK SLP187 T02210107 52033 IEM_DS3505
ZHHH,2000-04-09 18:00,ZHHH 091800Z AUTO 04012KT 9SM 18/01 RMK SLP223 T01830009 52035 IEM_DS3505
ZHHH,2000-04-09 21:00,ZHHH 092100Z AUTO 02008KT 9SM 14/M02 RMK SLP247 T01401021 52024 IEM_DS3505
ZHHH,2000-04-10 00:00,ZHHH 100000Z AUTO 04010KT 11SM 13/M02 RMK SLP272 T01271021 52025 IEM_DS3505
ZHHH,2000-04-10 03:00,ZHHH 100300Z AUTO 02010KT 11SM 16/M07 RMK SLP277 T01591074 52005 IEM_DS3505
ZHHH,2000-04-10 06:00,ZHHH 100600Z AUTO 04004KT 11SM 18/M05 RMK SLP248 T01781051 57029 IEM_DS3505
ZHHH,2000-04-10 09:00,ZHHH 100900Z AUTO 04002KT 11SM 19/M02 RMK SLP226 T01881019 57022 IEM_DS3505
ZHHH,2000-04-10 12:00,ZHHH 101200Z AUTO 04004KT 11SM 17/01 RMK SLP219 T01720011 57007 IEM_DS3505
ZHHH,2000-04-10 15:00,ZHHH 101500Z AUTO 04002KT 9SM 16/01 RMK SLP219 T01570012 54000 IEM_DS3505
ZHHH,2000-04-10 18:00,ZHHH 101800Z AUTO 07002KT 9SM 15/02 RMK SLP214 T01470022 57005 IEM_DS3505
ZHHH,2000-04-10 21:00,ZHHH 102100Z AUTO 02002KT 9SM 14/05 RMK SLP197 T01350049 57017 IEM_DS3505
ZHHH,2000-04-11 00:00,ZHHH 110000Z AUTO 11004KT 11SM 14/06 RMK SLP200 T01430064 52003 IEM_DS3505
ZHHH,2000-04-11 03:00,ZHHH 110300Z AUTO 16004KT 11SM 18/05 RMK SLP200 T01770050 54000 IEM_DS3505
ZHHH,2000-04-11 06:00,ZHHH 110600Z AUTO 27002KT 11SM 20/03 RMK 60003 SLP169 T01960029 57031 IEM_DS3505
ZHHH,2000-04-11 09:00,ZHHH 110900Z AUTO 27002KT 11SM 18/04 RMK SLP149 T01820041 57020 IEM_DS3505
ZHHH,2000-04-11 12:00,ZHHH 111200Z AUTO 27002KT 9SM 15/08 RMK SLP152 T01510082 52003 IEM_DS3505
ZHHH,2000-04-11 15:00,ZHHH 111500Z AUTO 27004KT 11SM 14/09 RMK SLP155 T01360086 52003 IEM_DS3505
ZHHH,2000-04-11 18:00,ZHHH 111800Z AUTO 25004KT 11SM 12/09 RMK SLP143 T01210087 57012 IEM_DS3505
ZHHH,2000-04-11 21:00,ZHHH 112100Z AUTO 27002KT 11SM 12/09 RMK 70003 SLP136 T01170091 57007 IEM_DS3505
ZHHH,2000-04-12 00:00,ZHHH 120000Z AUTO 16002KT 14SM 13/10 RMK 70003 SLP141 T01260097 52005 IEM_DS3505
ZHHH,2000-04-12 03:00,ZHHH 120300Z AUTO 22002KT 16SM 17/11 RMK SLP138 T01740107 57003 IEM_DS3505
ZHHH,2000-04-12 06:00,ZHHH 120600Z AUTO 20004KT 14SM 22/12 RMK SLP107 T02210123 57031 IEM_DS3505
ZHHH,2000-04-12 09:00,ZHHH 120900Z AUTO 16004KT 12SM 23/13 RMK SLP087 T02330128 57020 IEM_DS3505
ZHHH,2000-04-12 12:00,ZHHH 121200Z AUTO 00000KT 12SM 20/13 RMK SLP090 T02000134 52003 IEM_DS3505
ZHHH,2000-04-12 15:00,ZHHH 121500Z AUTO 00000KT 11SM 18/14 RMK SLP095 T01850138 52005 IEM_DS3505
ZHHH,2000-04-12 18:00,ZHHH 121800Z AUTO 00000KT 11SM 16/14 RMK SLP092 T01650142 57002 IEM_DS3505
ZHHH,2000-04-12 21:00,ZHHH 122100Z AUTO 09002KT 11SM 16/14 RMK SLP083 T01630135 57009 IEM_DS3505
ZHHH,2000-04-13 00:00,ZHHH 130000Z AUTO 14002KT 14SM 18/14 RMK SLP088 T01830136 52004 IEM_DS3505
ZHHH,2000-04-13 03:00,ZHHH 130300Z AUTO 16006KT 16SM 24/14 RMK SLP081 T02410142 57006 IEM_DS3505
ZHHH,2000-04-13 06:00,ZHHH 130600Z AUTO 11004KT 16SM 26/15 RMK SLP055 T02600148 57026 IEM_DS3505
ZHHH,2000-04-13 09:00,ZHHH 130900Z AUTO 09002KT 12SM 26/16 RMK SLP043 T02600158 57012 IEM_DS3505
ZHHH,2000-04-13 12:00,ZHHH 131200Z AUTO 09002KT 6SM 23/16 RMK 60003 SLP047 T02300161 52004 IEM_DS3505
ZHHH,2000-04-13 15:00,ZHHH 131500Z AUTO 04002KT 6SM 19/18 RMK SLP066 T01930185 52019 IEM_DS3505
ZHHH,2000-04-13 18:00,ZHHH 131800Z AUTO 36004KT 6SM 18/17 RMK 60051 SLP062 T01850172 57004 IEM_DS3505
ZHHH,2000-04-13 21:00,ZHHH 132100Z AUTO 34006KT 6SM 13/09 RMK 70059 SLP077 T01270089 52015 IEM_DS3505
ZHHH,2000-04-14 00:00,ZHHH 140000Z AUTO 34008KT 6SM 12/06 RMK 60016 SLP112 T01250064 52034 IEM_DS3505
ZHHH,2000-04-14 03:00,ZHHH 140300Z AUTO 07006KT 6SM 11/06 RMK SLP148 T01090057 52036 IEM_DS3505
ZHHH,2000-04-14 06:00,ZHHH 140600Z AUTO 04008KT 11SM 12/06 RMK 60004 SLP155 T01200056 52007 IEM_DS3505
ZHHH,2000-04-14 09:00,ZHHH 140900Z AUTO 02004KT 9SM 13/05 RMK SLP169 T01260050 52014 IEM_DS3505
ZHHH,2000-04-14 15:00,ZHHH 141500Z AUTO 02002KT 9SM 11/06 RMK SLP217 T01080061 52013 IEM_DS3505
ZHHH,2000-04-14 18:00,ZHHH 141800Z AUTO 36002KT 9SM 10/06 RMK SLP224 T00980063 52007 IEM_DS3505
ZHHH,2000-04-14 21:00,ZHHH 142100Z AUTO 00000KT 9SM 08/07 RMK 70010 SLP226 T00830066 52002 IEM_DS3505
ZHHH,2000-04-15 00:00,ZHHH 150000Z AUTO 32002KT 11SM 10/07 RMK 70005 SLP236 T00960066 52010 IEM_DS3505
ZHHH,2000-04-15 03:00,ZHHH 150300Z AUTO 02002KT 11SM 15/06 RMK SLP239 T01480058 52003 IEM_DS3505
ZHHH,2000-04-15 06:00,ZHHH 150600Z AUTO 25004KT 12SM 18/06 RMK SLP209 T01780060 57029 IEM_DS3505
ZHHH,2000-04-15 09:00,ZHHH 150900Z AUTO 22004KT 12SM 18/06 RMK SLP192 T01840063 57017 IEM_DS3505
ZHHH,2000-04-15 12:00,ZHHH 151200Z AUTO 25002KT 9SM 16/09 RMK SLP193 T01610087 52001 IEM_DS3505
ZHHH,2000-04-15 15:00,ZHHH 151500Z AUTO 00000KT 9SM 14/10 RMK SLP204 T01390100 52011 IEM_DS3505
ZHHH,2000-04-15 18:00,ZHHH 151800Z AUTO 00000KT 9SM 13/10 RMK SLP195 T01260097 57009 IEM_DS3505
ZHHH,2000-04-15 21:00,ZHHH 152100Z AUTO 00000KT 9SM 12/09 RMK SLP191 T01160092 57004 IEM_DS3505
ZHHH,2000-04-16 00:00,ZHHH 160000Z AUTO 20002KT 12SM 14/10 RMK SLP198 T01390096 52007 IEM_DS3505
ZHHH,2000-04-16 03:00,ZHHH 160300Z AUTO 20004KT 12SM 20/10 RMK SLP200 T01970096 52002 IEM_DS3505
ZHHH,2000-04-16 04:00,ZHHH 160400Z AUTO 22006KT 6SM 21/09 A3006 RMK T02100090 IEM_DS3505
ZHHH,2000-04-16 06:00,ZHHH 160600Z AUTO 18004KT 11SM 23/04 RMK SLP169 T02290042 57031 IEM_DS3505
ZHHH,2000-04-16 09:00,ZHHH 160900Z AUTO 18002KT 11SM 23/05 RMK SLP147 T02310049 57022 IEM_DS3505
ZHHH,2000-04-16 12:00,ZHHH 161200Z AUTO 14002KT 11SM 20/08 RMK SLP141 T02010080 57006 IEM_DS3505
ZHHH,2000-04-16 15:00,ZHHH 161500Z AUTO 11004KT 9SM 18/08 RMK SLP140 T01800078 57001 IEM_DS3505
ZHHH,2000-04-16 18:00,ZHHH 161800Z AUTO 11002KT 9SM 17/09 RMK SLP133 T01670088 57007 IEM_DS3505
ZHHH,2000-04-16 21:00,ZHHH 162100Z AUTO 11004KT 9SM 15/09 RMK SLP128 T01540092 57005 IEM_DS3505
ZHHH,2000-04-17 00:00,ZHHH 170000Z AUTO 11004KT 11SM 17/08 RMK SLP136 T01710083 52008 IEM_DS3505
ZHHH,2000-04-17 03:00,ZHHH 170300Z AUTO 11004KT 12SM 23/09 RMK SLP131 T02300086 57004 IEM_DS3505
ZHHH,2000-04-17 06:00,ZHHH 170600Z AUTO 14006KT 16SM 26/12 RMK SLP099 T02630115 57032 IEM_DS3505
ZHHH,2000-04-17 09:00,ZHHH 170900Z AUTO 11004KT 14SM 27/12 RMK SLP078 T02720119 57021 IEM_DS3505
ZHHH,2000-04-17 12:00,ZHHH 171200Z AUTO 11006KT 9SM 24/13 RMK SLP077 T02400126 57001 IEM_DS3505
ZHHH,2000-04-17 15:00,ZHHH 171500Z AUTO 09002KT 6SM 22/13 RMK SLP096 T02250134 52019 IEM_DS3505
ZHHH,2000-04-17 18:00,ZHHH 171800Z AUTO 11002KT 7SM 22/13 RMK 60003 SLP084 T02170128 57012 IEM_DS3505
ZHHH,2000-04-17 21:00,ZHHH 172100Z AUTO 11002KT 7SM 21/13 RMK 70003 SLP079 T02060127 57005 IEM_DS3505
ZHHH,2000-04-18 00:00,ZHHH 180000Z AUTO 00000KT 11SM 22/13 RMK 70003 SLP095 T02240133 52016 IEM_DS3505
ZHHH,2000-04-18 03:00,ZHHH 180300Z AUTO 27006KT 11SM 25/13 RMK SLP099 T02500133 52004 IEM_DS3505
ZHHH,2000-04-18 06:00,ZHHH 180600Z AUTO 25004KT 11SM 24/16 RMK SLP094 T02420157 57005 IEM_DS3505
ZHHH,2000-04-18 09:00,ZHHH 180900Z AUTO 25004KT 9SM 20/18 RMK SLP091 T02030176 57003 IEM_DS3505
ZHHH,2000-04-18 12:00,ZHHH 181200Z AUTO 22002KT 8SM 20/17 RMK 60003 SLP102 T01970174 52011 IEM_DS3505
ZHHH,2000-04-18 15:00,ZHHH 181500Z AUTO 00000KT 9SM 19/18 RMK SLP118 T01930175 52016 IEM_DS3505
ZHHH,2000-04-18 18:00,ZHHH 181800Z AUTO 00000KT 11SM 18/17 RMK SLP112 T01810173 57006 IEM_DS3505
ZHHH,2000-04-18 21:00,ZHHH 182100Z AUTO 14002KT 7SM 18/17 RMK 70003 SLP110 T01750168 57003 IEM_DS3505
ZHHH,2000-04-19 00:00,ZHHH 190000Z AUTO 02002KT 1/2SM 17/17 RMK 70003 SLP124 T01710166 52014 IEM_DS3505
ZHHH,2000-04-19 03:00,ZHHH 190300Z AUTO 09002KT 11SM 22/18 RMK SLP120 T02230182 57003 IEM_DS3505
ZHHH,2000-04-19 06:00,ZHHH 190600Z AUTO 11002KT 9SM 24/18 RMK SLP099 T02420179 57021 IEM_DS3505
ZHHH,2000-04-19 09:00,ZHHH 190900Z AUTO 00000KT 8SM 22/20 RMK SLP092 T02220196 57007 IEM_DS3505
ZHHH,2000-04-19 15:00,ZHHH 191500Z AUTO 00000KT 8SM 20/19 RMK SLP097 T02010192 52008 IEM_DS3505
ZHHH,2000-04-19 18:00,ZHHH 191800Z AUTO 04004KT 6SM 20/19 RMK 60002 SLP099 T01960186 52002 IEM_DS3505
ZHHH,2000-04-19 21:00,ZHHH 192100Z AUTO 00000KT 6SM 20/18 RMK 70008 SLP094 T01970183 57005 IEM_DS3505
ZHHH,2000-04-20 00:00,ZHHH 200000Z AUTO 02006KT 7SM 20/13 RMK 60000 SLP107 T01980134 52013 IEM_DS3505
ZHHH,2000-04-20 03:00,ZHHH 200300Z AUTO 34006KT 9SM 21/11 RMK SLP125 T02060110 52018 IEM_DS3505
ZHHH,2000-04-20 06:00,ZHHH 200600Z AUTO 36006KT 6SM 17/10 RMK 60003 SLP132 T01700100 52006 IEM_DS3505
ZHHH,2000-04-20 09:00,ZHHH 200900Z AUTO 09002KT 9SM 18/12 RMK SLP115 T01820123 57017 IEM_DS3505
ZHHH,2000-04-20 12:00,ZHHH 201200Z AUTO 27002KT 8SM 17/13 RMK 60000 SLP127 T01700127 52012 IEM_DS3505
ZHHH,2000-04-20 15:00,ZHHH 201500Z AUTO 27002KT 9SM 15/13 RMK SLP148 T01540129 52021 IEM_DS3505
ZHHH,2000-04-20 18:00,ZHHH 201800Z AUTO 27002KT 9SM 14/13 RMK SLP149 T01450131 52001 IEM_DS3505
ZHHH,2000-04-20 21:00,ZHHH 202100Z AUTO 00000KT 9SM 14/13 RMK 70001 SLP145 T01370126 57004 IEM_DS3505
ZHHH,2000-04-21 03:00,ZHHH 210300Z AUTO 18002KT 14SM 20/14 RMK SLP162 T02000142 52004 IEM_DS3505
ZHHH,2000-04-21 06:00,ZHHH 210600Z AUTO 27004KT 11SM 22/13 RMK SLP151 T02240126 57011 IEM_DS3505
ZHHH,2000-04-21 09:00,ZHHH 210900Z AUTO 14004KT 9SM 21/12 RMK SLP124 T02080125 57027 IEM_DS3505
ZHHH,2000-04-21 12:00,ZHHH 211200Z AUTO 00000KT 9SM 20/14 RMK SLP121 T01990139 57003 IEM_DS3505
ZHHH,2000-04-21 15:00,ZHHH 211500Z AUTO 00000KT 9SM 19/14 RMK SLP142 T01870140 52021 IEM_DS3505
ZHHH,2000-04-21 18:00,ZHHH 211800Z AUTO 00000KT 8SM 18/13 RMK SLP135 T01830134 57007 IEM_DS3505
ZHHH,2000-04-21 21:00,ZHHH 212100Z AUTO 00000KT 8SM 18/14 RMK SLP120 T01750144 57015 IEM_DS3505
ZHHH,2000-04-22 00:00,ZHHH 220000Z AUTO 20002KT 7SM 18/15 RMK SLP135 T01800146 52015 IEM_DS3505
ZHHH,2000-04-22 03:00,ZHHH 220300Z AUTO 27004KT 9SM 21/13 RMK SLP146 T02110133 52011 IEM_DS3505
ZHHH,2000-04-22 06:00,ZHHH 220600Z AUTO 25004KT 11SM 24/13 RMK SLP125 T02440129 57020 IEM_DS3505
ZHHH,2000-04-22 09:00,ZHHH 220900Z AUTO 27004KT 11SM 25/13 RMK SLP110 T02530128 57015 IEM_DS3505
ZHHH,2000-04-22 15:00,ZHHH 221500Z AUTO 25002KT 9SM 19/16 RMK SLP132 T01940157 52013 IEM_DS3505
ZHHH,2000-04-22 18:00,ZHHH 221800Z AUTO 00000KT 9SM 18/15 RMK SLP135 T01840152 52004 IEM_DS3505
ZHHH,2000-04-22 21:00,ZHHH 222100Z AUTO 00000KT 9SM 18/15 RMK SLP133 T01750151 57002 IEM_DS3505
ZHHH,2000-04-23 00:00,ZHHH 230000Z AUTO 09002KT 9SM 20/15 RMK SLP130 T01990154 57003 IEM_DS3505
ZHHH,2000-04-23 03:00,ZHHH 230300Z AUTO 14002KT 9SM 21/15 RMK SLP137 T02140148 52006 IEM_DS3505
ZHHH,2000-04-23 06:00,ZHHH 230600Z AUTO 14004KT 9SM 23/14 RMK SLP108 T02310145 57028 IEM_DS3505
ZHHH,2000-04-23 09:00,ZHHH 230900Z AUTO 14004KT 11SM 23/13 RMK SLP092 T02330134 57016 IEM_DS3505
ZHHH,2000-04-23 12:00,ZHHH 231200Z AUTO 18002KT 9SM 21/15 RMK SLP092 T02080147 54000 IEM_DS3505
ZHHH,2000-04-23 15:00,ZHHH 231500Z AUTO 00000KT 11SM 19/15 RMK SLP101 T01910154 52009 IEM_DS3505
ZHHH,2000-04-23 18:00,ZHHH 231800Z AUTO 00000KT 11SM 18/16 RMK SLP091 T01840161 57010 IEM_DS3505
ZHHH,2000-04-23 21:00,ZHHH 232100Z AUTO 00000KT 9SM 17/16 RMK SLP080 T01720160 57011 IEM_DS3505
ZHHH,2000-04-24 00:00,ZHHH 240000Z AUTO 14002KT 7SM 18/17 RMK SLP084 T01850167 52004 IEM_DS3505
ZHHH,2000-04-24 03:00,ZHHH 240300Z AUTO 22002KT 11SM 22/16 RMK SLP083 T02180162 57001 IEM_DS3505
ZHHH,2000-04-24 06:00,ZHHH 240600Z AUTO 18004KT 12SM 23/17 RMK SLP063 T02310166 57020 IEM_DS3505
ZHHH,2000-04-24 09:00,ZHHH 240900Z AUTO 22002KT 9SM 24/17 RMK SLP040 T02390168 57023 IEM_DS3505
ZHHH,2000-04-24 15:00,ZHHH 241500Z AUTO 27002KT 7SM 20/18 RMK SLP058 T02040178 52012 IEM_DS3505
ZHHH,2000-04-24 18:00,ZHHH 241800Z AUTO 00000KT 6SM 20/19 RMK 60012 SLP049 T01970186 57009 IEM_DS3505
ZHHH,2000-04-24 21:00,ZHHH 242100Z AUTO 34002KT 6SM 19/18 RMK 70011 SLP052 T01910180 52003 IEM_DS3505
ZHHH,2000-04-25 00:00,ZHHH 250000Z AUTO 36002KT 12SM 20/18 RMK 60003 SLP059 T02040175 52007 IEM_DS3505
ZHHH,2000-04-25 03:00,ZHHH 250300Z AUTO 36002KT 12SM 23/18 RMK SLP061 T02270181 52002 IEM_DS3505
ZHHH,2000-04-25 06:00,ZHHH 250600Z AUTO 29006KT 9SM 23/18 RMK 60003 SLP055 T02310184 57006 IEM_DS3505
ZHHH,2000-04-25 09:00,ZHHH 250900Z AUTO 32002KT 9SM 22/17 RMK SLP053 T02230170 57002 IEM_DS3505
ZHHH,2000-04-25 12:00,ZHHH 251200Z AUTO 34004KT 9SM 21/15 RMK SLP072 T02110149 52019 IEM_DS3505
ZHHH,2000-04-25 15:00,ZHHH 251500Z AUTO 00000KT 9SM 20/16 RMK SLP084 T02050160 52012 IEM_DS3505
ZHHH,2000-04-25 18:00,ZHHH 251800Z AUTO 32002KT 7SM 20/15 RMK SLP092 T01970150 52008 IEM_DS3505
ZHHH,2000-04-25 21:00,ZHHH 252100Z AUTO 27002KT 9SM 19/12 RMK 70003 SLP091 T01890119 57001 IEM_DS3505
ZHHH,2000-04-26 00:00,ZHHH 260000Z AUTO 34004KT 11SM 18/12 RMK 70003 SLP121 T01830120 52029 IEM_DS3505
ZHHH,2000-04-26 03:00,ZHHH 260300Z AUTO 02004KT 9SM 20/05 RMK SLP132 T02020052 52011 IEM_DS3505
ZHHH,2000-04-26 06:00,ZHHH 260600Z AUTO 34004KT 11SM 23/03 RMK SLP130 T02270033 57001 IEM_DS3505
ZHHH,2000-04-26 09:00,ZHHH 260900Z AUTO 02002KT 9SM 24/04 RMK SLP117 T02370038 57013 IEM_DS3505
ZHHH,2000-04-26 12:00,ZHHH 261200Z AUTO 00000KT 9SM 20/13 RMK SLP130 T01950130 52012 IEM_DS3505
ZHHH,2000-04-26 18:00,ZHHH 261800Z AUTO 00000KT 9SM 17/13 RMK SLP145 T01710132 57004 IEM_DS3505
ZHHH,2000-04-26 21:00,ZHHH 262100Z AUTO 00000KT 9SM 16/11 RMK SLP144 T01590111 57001 IEM_DS3505
ZHHH,2000-04-27 00:00,ZHHH 270000Z AUTO 04002KT 9SM 17/12 RMK SLP158 T01690122 52014 IEM_DS3505
ZHHH,2000-04-27 03:00,ZHHH 270300Z AUTO 14002KT 9SM 23/12 RMK SLP159 T02300121 52001 IEM_DS3505
ZHHH,2000-04-27 06:00,ZHHH 270600Z AUTO 14004KT 11SM 26/04 RMK SLP131 T02580038 57027 IEM_DS3505
ZHHH,2000-04-27 09:00,ZHHH 270900Z AUTO 07002KT 11SM 26/04 RMK SLP119 T02570039 57012 IEM_DS3505
ZHHH,2000-04-27 12:00,ZHHH 271200Z AUTO 00000KT 9SM 23/09 RMK SLP118 T02330091 57001 IEM_DS3505
ZHHH,2000-04-27 15:00,ZHHH 271500Z AUTO 14002KT 9SM 22/10 RMK SLP122 T02200104 52004 IEM_DS3505
ZHHH,2000-04-27 18:00,ZHHH 271800Z AUTO 00000KT 9SM 20/14 RMK SLP116 T02040137 57006 IEM_DS3505
ZHHH,2000-04-27 21:00,ZHHH 272100Z AUTO 18002KT 9SM 19/15 RMK SLP113 T01940150 57003 IEM_DS3505
ZHHH,2000-04-28 00:00,ZHHH 280000Z AUTO 16004KT 9SM 20/15 RMK SLP125 T02010154 52012 IEM_DS3505
ZHHH,2000-04-28 03:00,ZHHH 280300Z AUTO 09002KT 11SM 23/14 RMK SLP122 T02300142 57003 IEM_DS3505
ZHHH,2000-04-28 06:00,ZHHH 280600Z AUTO 16002KT 11SM 25/14 RMK SLP101 T02510138 57021 IEM_DS3505
ZHHH,2000-04-28 09:00,ZHHH 280900Z AUTO 04002KT 11SM 25/12 RMK SLP085 T02460125 57016 IEM_DS3505
ZHHH,2000-04-28 12:00,ZHHH 281200Z AUTO 11004KT 11SM 22/15 RMK SLP097 T02240147 52012 IEM_DS3505
ZHHH,2000-04-28 15:00,ZHHH 281500Z AUTO 09004KT 9SM 20/14 RMK SLP114 T01960143 52017 IEM_DS3505
ZHHH,2000-04-28 18:00,ZHHH 281800Z AUTO 18002KT 9SM 18/15 RMK SLP109 T01850149 57005 IEM_DS3505
ZHHH,2000-04-28 21:00,ZHHH 282100Z AUTO 09002KT 9SM 18/15 RMK SLP120 T01780151 52011 IEM_DS3505
ZHHH,2000-04-29 00:00,ZHHH 290000Z AUTO 00000KT 11SM 19/16 RMK SLP126 T01890157 52006 IEM_DS3505
ZHHH,2000-04-29 03:00,ZHHH 290300Z AUTO 34002KT 11SM 22/16 RMK SLP139 T02150164 52009 IEM_DS3505
ZHHH,2000-04-29 06:00,ZHHH 290600Z AUTO 34004KT 7SM 22/16 RMK 60003 SLP128 T02170161 57011 IEM_DS3505
ZHHH,2000-04-29 09:00,ZHHH 290900Z AUTO 00000KT 7SM 21/16 RMK SLP121 T02140165 57007 IEM_DS3505
ZHHH,2000-04-29 12:00,ZHHH 291200Z AUTO 34002KT 6SM 20/18 RMK 60003 SLP141 T01990178 52020 IEM_DS3505
ZHHH,2000-04-29 15:00,ZHHH 291500Z AUTO 00000KT 7SM 19/17 RMK SLP155 T01910173 52014 IEM_DS3505
ZHHH,2000-04-29 18:00,ZHHH 291800Z AUTO 27002KT 6SM 19/17 RMK 60000 SLP146 T01910173 57009 IEM_DS3505
ZHHH,2000-04-29 21:00,ZHHH 292100Z AUTO 32002KT 6SM 18/15 RMK 70000 SLP142 T01840148 57004 IEM_DS3505
ZHHH,2000-04-30 00:00,ZHHH 300000Z AUTO 34002KT 9SM 19/16 RMK 60003 SLP152 T01870158 52010 IEM_DS3505
ZHHH,2000-04-30 03:00,ZHHH 300300Z AUTO 00000KT 9SM 22/17 RMK SLP157 T02250168 52005 IEM_DS3505
ZHHH,2000-04-30 06:00,ZHHH 300600Z AUTO 00000KT 11SM 25/08 RMK SLP142 T02510076 57014 IEM_DS3505
ZHHH,2000-04-30 09:00,ZHHH 300900Z AUTO 27002KT 9SM 26/06 RMK SLP120 T02590062 57022 IEM_DS3505
ZHHH,2000-04-30 12:00,ZHHH 301200Z AUTO 00000KT 9SM 22/18 RMK SLP120 T02230183 54000 IEM_DS3505
ZHHH,2000-04-30 15:00,ZHHH 301500Z AUTO 00000KT 9SM 20/17 RMK SLP128 T02040166 52008 IEM_DS3505
ZHHH,2000-04-30 18:00,ZHHH 301800Z AUTO 00000KT 11SM 19/16 RMK SLP116 T01910159 57012 IEM_DS3505
ZHHH,2000-04-30 21:00,ZHHH 302100Z AUTO 00000KT 11SM 18/16 RMK SLP109 T01850162 57007 IEM_DS3505
ZHHH,2000-05-01 00:00,ZHHH 010000Z AUTO 00000KT 7SM 19/17 RMK SLP124 T01920166 52015 IEM_DS3505
ZHHH,2000-05-01 03:00,ZHHH 010300Z AUTO 00000KT 7SM 20/17 RMK SLP134 T02040168 52009 IEM_DS3505
ZHHH,2000-05-01 06:00,ZHHH 010600Z AUTO 25002KT 9SM 22/16 RMK 60003 SLP122 T02160162 57011 IEM_DS3505
ZHHH,2000-05-01 09:00,ZHHH 010900Z AUTO 27002KT 11SM 22/15 RMK SLP108 T02150148 57014 IEM_DS3505
ZHHH,2000-05-01 12:00,ZHHH 011200Z AUTO 25002KT 9SM 20/16 RMK SLP114 T02050157 52005 IEM_DS3505
ZHHH,2000-05-01 15:00,ZHHH 011500Z AUTO 00000KT 9SM 20/16 RMK SLP127 T01970162 52013 IEM_DS3505
ZHHH,2000-05-01 18:00,ZHHH 011800Z AUTO 00000KT 7SM 19/17 RMK SLP132 T01890168 52005 IEM_DS3505
ZHHH,2000-05-01 21:00,ZHHH 012100Z AUTO 00000KT 7SM 18/17 RMK SLP138 T01820169 52006 IEM_DS3505
ZHHH,2000-05-02 00:00,ZHHH 020000Z AUTO 00000KT 9SM 19/17 RMK 70003 SLP151 T01940166 52013 IEM_DS3505
ZHHH,2000-05-02 03:00,ZHHH 020300Z AUTO 09002KT 11SM 24/15 RMK SLP157 T02420153 52007 IEM_DS3505
ZHHH,2000-05-02 06:00,ZHHH 020600Z AUTO 22004KT 12SM 29/14 RMK SLP142 T02880139 57015 IEM_DS3505
ZHHH,2000-05-02 09:00,ZHHH 020900Z AUTO 16004KT 12SM 29/09 RMK SLP134 T02900089 57008 IEM_DS3505
ZHHH,2000-05-02 12:00,ZHHH 021200Z AUTO 00000KT 11SM 25/14 RMK SLP140 T02480142 52006 IEM_DS3505
ZHHH,2000-05-02 15:00,ZHHH 021500Z AUTO 00000KT 11SM 21/17 RMK SLP150 T02110169 52010 IEM_DS3505
ZHHH,2000-05-02 18:00,ZHHH 021800Z AUTO 00000KT 11SM 21/16 RMK SLP140 T02060163 57010 IEM_DS3505
ZHHH,2000-05-02 21:00,ZHHH 022100Z AUTO 00000KT 11SM 19/16 RMK SLP134 T01920157 57006 IEM_DS3505
ZHHH,2000-05-03 00:00,ZHHH 030000Z AUTO 16002KT 11SM 21/16 RMK SLP144 T02120163 52010 IEM_DS3505
ZHHH,2000-05-03 03:00,ZHHH 030300Z AUTO 22004KT 12SM 27/17 RMK SLP143 T02680169 57001 IEM_DS3505
ZHHH,2000-05-03 06:00,ZHHH 030600Z AUTO 16006KT 12SM 30/11 RMK SLP120 T02990114 57023 IEM_DS3505
ZHHH,2000-05-03 09:00,ZHHH 030900Z AUTO 16002KT 12SM 30/12 RMK SLP105 T03010124 57015 IEM_DS3505
ZHHH,2000-05-03 12:00,ZHHH 031200Z AUTO 00000KT 12SM 25/17 RMK SLP110 T02530172 52005 IEM_DS3505
ZHHH,2000-05-03 15:00,ZHHH 031500Z AUTO 00000KT 12SM 23/17 RMK SLP123 T02290169 52013 IEM_DS3505
ZHHH,2000-05-03 18:00,ZHHH 031800Z AUTO 00000KT 11SM 22/17 RMK SLP119 T02190170 57004 IEM_DS3505
ZHHH,2000-05-03 21:00,ZHHH 032100Z AUTO 00000KT 11SM 20/18 RMK SLP116 T01990181 57003 IEM_DS3505
ZHHH,2000-05-04 00:00,ZHHH 040000Z AUTO 14002KT 12SM 24/17 RMK SLP122 T02360174 52006 IEM_DS3505
ZHHH,2000-05-04 03:00,ZHHH 040300Z AUTO 11002KT 12SM 29/15 RMK SLP128 T02860153 52006 IEM_DS3505
ZHHH,2000-05-04 06:00,ZHHH 040600Z AUTO 20004KT 16SM 32/15 RMK SLP114 T03180147 57014 IEM_DS3505
ZHHH,2000-05-04 09:00,ZHHH 040900Z AUTO 22002KT 12SM 32/15 RMK SLP098 T03160148 57016 IEM_DS3505
ZHHH,2000-05-04 12:00,ZHHH 041200Z AUTO 00000KT 9SM 28/19 RMK SLP099 T02790186 52001 IEM_DS3505
ZHHH,2000-05-04 15:00,ZHHH 041500Z AUTO 00000KT 9SM 26/19 RMK SLP102 T02560189 52003 IEM_DS3505
ZHHH,2000-05-04 18:00,ZHHH 041800Z AUTO 00000KT 9SM 24/20 RMK SLP100 T02440195 57002 IEM_DS3505
ZHHH,2000-05-04 21:00,ZHHH 042100Z AUTO 00000KT 9SM 23/20 RMK SLP097 T02330198 57003 IEM_DS3505
ZHHH,2000-05-05 00:00,ZHHH 050000Z AUTO 14002KT 12SM 25/18 RMK SLP109 T02530182 52012 IEM_DS3505
ZHHH,2000-05-05 03:00,ZHHH 050300Z AUTO 20004KT 14SM 31/17 RMK SLP119 T03070167 52010 IEM_DS3505
ZHHH,2000-05-05 06:00,ZHHH 050600Z AUTO 22004KT 14SM 34/14 RMK SLP107 T03350138 57012 IEM_DS3505
ZHHH,2000-05-05 09:00,ZHHH 050900Z AUTO 16004KT 12SM 33/12 RMK SLP097 T03310123 57010 IEM_DS3505
ZHHH,2000-05-05 12:00,ZHHH 051200Z AUTO 00000KT 11SM 29/16 RMK SLP111 T02920165 52014 IEM_DS3505
ZHHH,2000-05-05 15:00,ZHHH 051500Z AUTO 04006KT 11SM 25/17 RMK SLP134 T02460169 52023 IEM_DS3505
ZHHH,2000-05-05 18:00,ZHHH 051800Z AUTO 04002KT 11SM 22/15 RMK SLP140 T02170148 52006 IEM_DS3505
ZHHH,2000-05-05 21:00,ZHHH 052100Z AUTO 02006KT 11SM 20/12 RMK SLP163 T01950118 52023 IEM_DS3505
ZHHH,2000-05-06 00:00,ZHHH 060000Z AUTO 36006KT 12SM 19/11 RMK SLP189 T01860109 52026 IEM_DS3505
ZHHH,2000-05-06 03:00,ZHHH 060300Z AUTO 04006KT 14SM 22/12 RMK SLP195 T02220117 52006 IEM_DS3505
ZHHH,2000-05-06 06:00,ZHHH 060600Z AUTO 04006KT 12SM 24/11 RMK SLP179 T02400112 57016 IEM_DS3505
ZHHH,2000-05-06 09:00,ZHHH 060900Z AUTO 04006KT 14SM 26/11 RMK SLP156 T02550108 57023 IEM_DS3505
ZHHH,2000-05-06 12:00,ZHHH 061200Z AUTO 36002KT 11SM 23/11 RMK SLP160 T02260107 52003 IEM_DS3505
ZHHH,2000-05-06 15:00,ZHHH 061500Z AUTO 04002KT 9SM 20/10 RMK SLP173 T02020102 52013 IEM_DS3505
ZHHH,2000-05-06 18:00,ZHHH 061800Z AUTO 02002KT 9SM 19/11 RMK SLP166 T01890108 57006 IEM_DS3505
ZHHH,2000-05-06 21:00,ZHHH 062100Z AUTO 07002KT 9SM 18/12 RMK SLP160 T01770123 57006 IEM_DS3505
ZHHH,2000-05-07 00:00,ZHHH 070000Z AUTO 04004KT 12SM 20/13 RMK SLP169 T01990133 52008 IEM_DS3505
ZHHH,2000-05-07 03:00,ZHHH 070300Z AUTO 07002KT 12SM 24/15 RMK SLP165 T02440151 57003 IEM_DS3505
ZHHH,2000-05-07 06:00,ZHHH 070600Z AUTO 00000KT 11SM 27/16 RMK SLP140 T02680160 57025 IEM_DS3505
ZHHH,2000-05-07 09:00,ZHHH 070900Z AUTO 14002KT 11SM 27/15 RMK SLP123 T02730152 57017 IEM_DS3505
ZHHH,2000-05-07 12:00,ZHHH 071200Z AUTO 00000KT 9SM 25/17 RMK SLP120 T02500168 57003 IEM_DS3505
ZHHH,2000-05-07 15:00,ZHHH 071500Z AUTO 00000KT 9SM 24/16 RMK SLP123 T02420164 52003 IEM_DS3505
ZHHH,2000-05-07 18:00,ZHHH 071800Z AUTO 00000KT 9SM 23/18 RMK SLP116 T02270178 57007 IEM_DS3505
ZHHH,2000-05-07 21:00,ZHHH 072100Z AUTO 00000KT 9SM 22/17 RMK SLP112 T02200168 57004 IEM_DS3505
ZHHH,2000-05-08 00:00,ZHHH 080000Z AUTO 09004KT 8SM 22/17 RMK SLP118 T02240169 52006 IEM_DS3505
ZHHH,2000-05-08 03:00,ZHHH 080300Z AUTO 14004KT 9SM 25/16 RMK SLP115 T02460156 57003 IEM_DS3505
ZHHH,2000-05-08 06:00,ZHHH 080600Z AUTO 14002KT 9SM 25/15 RMK SLP096 T02540146 57019 IEM_DS3505
ZHHH,2000-05-08 09:00,ZHHH 080900Z AUTO 00000KT 9SM 25/18 RMK SLP085 T02510177 57011 IEM_DS3505
ZHHH,2000-05-08 12:00,ZHHH 081200Z AUTO 34002KT 6SM 22/20 RMK 60004 SLP087 T02190197 52002 IEM_DS3505
ZHHH,2000-05-08 15:00,ZHHH 081500Z AUTO 00000KT 7SM 22/20 RMK SLP090 T02170202 52003 IEM_DS3505
ZHHH,2000-05-08 18:00,ZHHH 081800Z AUTO 27002KT 6SM 21/20 RMK 60001 SLP077 T02100204 57013 IEM_DS3505
ZHHH,2000-05-08 21:00,ZHHH 082100Z AUTO 32002KT 6SM 18/18 RMK 70013 SLP070 T01840176 57007 IEM_DS3505
ZHHH,2000-05-09 00:00,ZHHH 090000Z AUTO 36004KT 6SM 18/17 RMK 60028 SLP080 T01790174 52010 IEM_DS3505
ZHHH,2000-05-09 03:00,ZHHH 090300Z AUTO 34004KT 6SM 19/18 RMK SLP088 T01920176 52008 IEM_DS3505
ZHHH,2000-05-09 06:00,ZHHH 090600Z AUTO 34004KT 8SM 22/17 RMK 60039 SLP081 T02170168 57007 IEM_DS3505
ZHHH,2000-05-09 09:00,ZHHH 090900Z AUTO 34002KT 9SM 23/16 RMK SLP076 T02280165 57005 IEM_DS3505
ZHHH,2000-05-09 12:00,ZHHH 091200Z AUTO 00000KT 7SM 21/17 RMK SLP091 T02140174 52015 IEM_DS3505
ZHHH,2000-05-09 15:00,ZHHH 091500Z AUTO 00000KT 7SM 20/18 RMK SLP102 T02000181 52011 IEM_DS3505
ZHHH,2000-05-09 18:00,ZHHH 091800Z AUTO 00000KT 7SM 19/18 RMK SLP101 T01920176 57001 IEM_DS3505
ZHHH,2000-05-09 21:00,ZHHH 092100Z AUTO 00000KT 7SM 18/18 RMK 70061 SLP096 T01850175 57005 IEM_DS3505
ZHHH,2000-05-10 00:00,ZHHH 100000Z AUTO 18002KT 9SM 20/18 RMK 70040 SLP108 T02010183 52012 IEM_DS3505
ZHHH,2000-05-10 03:00,ZHHH 100300Z AUTO 25004KT 11SM 25/18 RMK SLP112 T02490181 52004 IEM_DS3505
ZHHH,2000-05-10 06:00,ZHHH 100600Z AUTO 16004KT 12SM 28/16 RMK SLP093 T02810163 57019 IEM_DS3505
ZHHH,2000-05-10 09:00,ZHHH 100900Z AUTO 20004KT 12SM 28/17 RMK SLP077 T02770167 57016 IEM_DS3505
ZHHH,2000-05-10 12:00,ZHHH 101200Z AUTO 00000KT 11SM 26/18 RMK SLP082 T02560179 52005 IEM_DS3505
ZHHH,2000-05-10 15:00,ZHHH 101500Z AUTO 14002KT 9SM 24/19 RMK SLP092 T02360188 52010 IEM_DS3505
ZHHH,2000-05-10 18:00,ZHHH 101800Z AUTO 00000KT 9SM 23/18 RMK SLP083 T02270184 57009 IEM_DS3505
ZHHH,2000-05-10 21:00,ZHHH 102100Z AUTO 14002KT 9SM 22/19 RMK SLP083 T02190186 54000 IEM_DS3505
ZHHH,2000-05-11 00:00,ZHHH 110000Z AUTO 11006KT 12SM 24/17 RMK SLP080 T02390174 57003 IEM_DS3505
ZHHH,2000-05-11 03:00,ZHHH 110300Z AUTO 11004KT 14SM 28/17 RMK SLP078 T02750169 57002 IEM_DS3505
ZHHH,2000-05-11 06:00,ZHHH 110600Z AUTO 27004KT 9SM 27/17 RMK 60003 SLP088 T02690167 52010 IEM_DS3505
ZHHH,2000-05-11 09:00,ZHHH 110900Z AUTO 11004KT 11SM 23/17 RMK SLP073 T02310166 57015 IEM_DS3505
ZHHH,2000-05-11 12:00,ZHHH 111200Z AUTO 18002KT 9SM 22/18 RMK SLP065 T02250175 57008 IEM_DS3505
ZHHH,2000-05-11 15:00,ZHHH 111500Z AUTO 00000KT 7SM 21/19 RMK SLP069 T02130186 52004 IEM_DS3505
ZHHH,2000-05-11 18:00,ZHHH 111800Z AUTO 00000KT 6SM 20/18 RMK SLP062 T02040180 57007 IEM_DS3505
ZHHH,2000-05-11 21:00,ZHHH 112100Z AUTO 04002KT 6SM 19/17 RMK 70003 SLP064 T01940173 52002 IEM_DS3505
ZHHH,2000-05-12 00:00,ZHHH 120000Z AUTO 00000KT 6SM 22/17 RMK 70003 SLP075 T02190174 52011 IEM_DS3505
ZHHH,2000-05-12 03:00,ZHHH 120300Z AUTO 00000KT 7SM 26/18 RMK SLP071 T02630180 57004 IEM_DS3505
ZHHH,2000-05-12 06:00,ZHHH 120600Z AUTO 18004KT 11SM 30/16 RMK SLP051 T02960159 57020 IEM_DS3505
ZHHH,2000-05-12 09:00,ZHHH 120900Z AUTO 22002KT 11SM 30/16 RMK SLP038 T03000160 57013 IEM_DS3505
ZHHH,2000-05-12 12:00,ZHHH 121200Z AUTO 00000KT 9SM 27/20 RMK 60003 SLP045 T02710196 52007 IEM_DS3505
ZHHH,2000-05-12 15:00,ZHHH 121500Z AUTO 00000KT 9SM 25/19 RMK SLP056 T02500190 52011 IEM_DS3505
ZHHH,2000-05-12 18:00,ZHHH 121800Z AUTO 09002KT 11SM 24/18 RMK SLP056 T02380180 54000 IEM_DS3505
ZHHH,2000-05-12 21:00,ZHHH 122100Z AUTO 04002KT 9SM 22/14 RMK 70003 SLP064 T02220139 52008 IEM_DS3505
ZHHH,2000-05-13 00:00,ZHHH 130000Z AUTO 07006KT 12SM 22/12 RMK 70003 SLP079 T02150124 52015 IEM_DS3505
ZHHH,2000-05-13 03:00,ZHHH 130300Z AUTO 07004KT 14SM 26/14 RMK SLP076 T02630135 57003 IEM_DS3505
ZHHH,2000-05-13 06:00,ZHHH 130600Z AUTO 09002KT 12SM 31/15 RMK SLP057 T03100153 57019 IEM_DS3505
ZHHH,2000-05-13 09:00,ZHHH 130900Z AUTO 16002KT 11SM 32/18 RMK SLP044 T03150176 57013 IEM_DS3505
ZHHH,2000-05-13 12:00,ZHHH 131200Z AUTO 00000KT 11SM 28/19 RMK SLP044 T02830188 54000 IEM_DS3505
ZHHH,2000-05-13 15:00,ZHHH 131500Z AUTO 11004KT 11SM 27/19 RMK SLP057 T02670187 52013 IEM_DS3505
ZHHH,2000-05-13 18:00,ZHHH 131800Z AUTO 11004KT 11SM 25/18 RMK SLP049 T02500177 57008 IEM_DS3505
ZHHH,2000-05-13 21:00,ZHHH 132100Z AUTO 14002KT 9SM 24/17 RMK SLP049 T02350173 54000 IEM_DS3505
ZHHH,2000-05-14 00:00,ZHHH 140000Z AUTO 11002KT 11SM 25/19 RMK SLP058 T02480192 52009 IEM_DS3505
ZHHH,2000-05-14 03:00,ZHHH 140300Z AUTO 18004KT 11SM 32/20 RMK SLP057 T03240198 54000 IEM_DS3505
ZHHH,2000-05-14 06:00,ZHHH 140600Z AUTO 27008KT 16SM 36/18 RMK SLP037 T03570175 57020 IEM_DS3505
ZHHH,2000-05-14 09:00,ZHHH 140900Z AUTO 22006KT 16SM 35/18 RMK SLP025 T03530178 57012 IEM_DS3505
ZHHH,2000-05-14 12:00,ZHHH 141200Z AUTO 27002KT 11SM 31/19 RMK SLP041 T03120189 52015 IEM_DS3505
ZHHH,2000-05-14 15:00,ZHHH 141500Z AUTO 00000KT 11SM 28/20 RMK SLP067 T02760205 52027 IEM_DS3505
ZHHH,2000-05-14 18:00,ZHHH 141800Z AUTO 02004KT 9SM 26/19 RMK SLP060 T02640188 57007 IEM_DS3505
ZHHH,2000-05-14 21:00,ZHHH 142100Z AUTO 00000KT 9SM 25/20 RMK SLP064 T02520199 52004 IEM_DS3505
ZHHH,2000-05-15 00:00,ZHHH 150000Z AUTO 36004KT 8SM 24/20 RMK 60003 SLP081 T02440204 52016 IEM_DS3505
ZHHH,2000-05-15 03:00,ZHHH 150300Z AUTO 07004KT 11SM 29/18 RMK SLP078 T02930180 57003 IEM_DS3505
ZHHH,2000-05-15 06:00,ZHHH 150600Z AUTO 04004KT 12SM 31/18 RMK SLP062 T03120181 57016 IEM_DS3505
ZHHH,2000-05-15 09:00,ZHHH 150900Z AUTO 04002KT 9SM 32/18 RMK SLP057 T03180183 57005 IEM_DS3505
ZHHH,2000-05-15 12:00,ZHHH 151200Z AUTO 32006KT 11SM 28/19 RMK SLP077 T02800189 52020 IEM_DS3505
ZHHH,2000-05-15 15:00,ZHHH 151500Z AUTO 02006KT 9SM 24/19 RMK SLP106 T02380190 52029 IEM_DS3505
ZHHH,2000-05-15 18:00,ZHHH 151800Z AUTO 36006KT 7SM 23/16 RMK SLP101 T02310161 57005 IEM_DS3505
ZHHH,2000-05-15 21:00,ZHHH 152100Z AUTO 02006KT 7SM 22/14 RMK 70003 SLP107 T02250142 52006 IEM_DS3505
ZHHH,2000-05-16 00:00,ZHHH 160000Z AUTO 36004KT 6SM 20/17 RMK 60004 SLP136 T01990168 52029 IEM_DS3505
ZHHH,2000-05-16 03:00,ZHHH 160300Z AUTO 04004KT 9SM 20/16 RMK SLP142 T02050160 52006 IEM_DS3505
ZHHH,2000-05-16 06:00,ZHHH 160600Z AUTO 07002KT 8SM 23/16 RMK 60008 SLP127 T02280161 57015 IEM_DS3505
ZHHH,2000-05-16 09:00,ZHHH 160900Z AUTO 36002KT 11SM 24/16 RMK SLP115 T02420164 57012 IEM_DS3505
ZHHH,2000-05-16 12:00,ZHHH 161200Z AUTO 02002KT 9SM 23/17 RMK SLP116 T02270169 52001 IEM_DS3505
ZHHH,2000-05-16 15:00,ZHHH 161500Z AUTO 02002KT 9SM 21/17 RMK SLP124 T02070166 52008 IEM_DS3505
ZHHH,2000-05-16 18:00,ZHHH 161800Z AUTO 02002KT 9SM 19/16 RMK SLP121 T01930163 57003 IEM_DS3505
ZHHH,2000-05-16 21:00,ZHHH 162100Z AUTO 07002KT 9SM 18/16 RMK 70011 SLP119 T01810159 57002 IEM_DS3505
ZHHH,2000-05-17 00:00,ZHHH 170000Z AUTO 09002KT 11SM 20/16 RMK 70006 SLP121 T02010165 52002 IEM_DS3505
ZHHH,2000-05-17 03:00,ZHHH 170300Z AUTO 14004KT 12SM 25/18 RMK SLP122 T02490180 52001 IEM_DS3505
ZHHH,2000-05-17 06:00,ZHHH 170600Z AUTO 04002KT 11SM 27/15 RMK SLP100 T02690149 57022 IEM_DS3505
ZHHH,2000-05-17 09:00,ZHHH 170900Z AUTO 16002KT 9SM 28/16 RMK SLP082 T02800158 57018 IEM_DS3505
ZHHH,2000-05-17 12:00,ZHHH 171200Z AUTO 00000KT 11SM 26/17 RMK SLP089 T02610168 52007 IEM_DS3505
ZHHH,2000-05-17 15:00,ZHHH 171500Z AUTO 00000KT 9SM 25/17 RMK SLP100 T02460167 52011 IEM_DS3505
ZHHH,2000-05-17 18:00,ZHHH 171800Z AUTO 27002KT 7SM 23/17 RMK SLP090 T02330167 57010 IEM_DS3505
ZHHH,2000-05-17 21:00,ZHHH 172100Z AUTO 27002KT 7SM 22/18 RMK SLP090 T02250175 54000 IEM_DS3505
ZHHH,2000-05-18 00:00,ZHHH 180000Z AUTO 27002KT 6SM 22/19 RMK SLP103 T02240188 52013 IEM_DS3505
ZHHH,2000-05-18 03:00,ZHHH 180300Z AUTO 27006KT 7SM 25/16 RMK SLP102 T02490165 57001 IEM_DS3505
ZHHH,2000-05-18 06:00,ZHHH 180600Z AUTO 18006KT 11SM 26/16 RMK SLP091 T02620158 57011 IEM_DS3505
ZHHH,2000-05-18 09:00,ZHHH 180900Z AUTO 27008KT 11SM 26/17 RMK SLP080 T02560172 57011 IEM_DS3505
ZHHH,2000-05-18 12:00,ZHHH 181200Z AUTO 25006KT 11SM 22/16 RMK SLP093 T02250165 52013 IEM_DS3505
ZHHH,2000-05-18 15:00,ZHHH 181500Z AUTO 22004KT 11SM 21/17 RMK SLP107 T02090168 52014 IEM_DS3505
ZHHH,2000-05-18 18:00,ZHHH 181800Z AUTO 20004KT 11SM 20/16 RMK SLP100 T02010165 57007 IEM_DS3505
ZHHH,2000-05-18 21:00,ZHHH 182100Z AUTO 25002KT 11SM 20/16 RMK SLP095 T01970155 57005 IEM_DS3505
ZHHH,2000-05-19 00:00,ZHHH 190000Z AUTO 22002KT 12SM 21/16 RMK SLP104 T02110163 52009 IEM_DS3505
ZHHH,2000-05-19 03:00,ZHHH 190300Z AUTO 27004KT 14SM 25/17 RMK SLP101 T02540166 57003 IEM_DS3505
ZHHH,2000-05-19 06:00,ZHHH 190600Z AUTO 25002KT 14SM 28/18 RMK SLP084 T02820183 57017 IEM_DS3505
ZHHH,2000-05-19 09:00,ZHHH 190900Z AUTO 27002KT 12SM 29/19 RMK SLP070 T02890189 57014 IEM_DS3505
ZHHH,2000-05-19 12:00,ZHHH 191200Z AUTO 18002KT 11SM 26/21 RMK SLP080 T02620206 52010 IEM_DS3505
ZHHH,2000-05-19 15:00,ZHHH 191500Z AUTO 27002KT 11SM 24/20 RMK SLP093 T02420201 52013 IEM_DS3505
ZHHH,2000-05-19 18:00,ZHHH 191800Z AUTO 14002KT 9SM 23/20 RMK SLP090 T02280195 57003 IEM_DS3505
ZHHH,2000-05-19 21:00,ZHHH 192100Z AUTO 00000KT 9SM 22/20 RMK SLP094 T02160196 52004 IEM_DS3505
ZHHH,2000-05-20 00:00,ZHHH 200000Z AUTO 14002KT 11SM 25/20 RMK SLP102 T02500198 52008 IEM_DS3505
ZHHH,2000-05-20 03:00,ZHHH 200300Z AUTO 22002KT 11SM 30/17 RMK SLP105 T02980171 52003 IEM_DS3505
ZHHH,2000-05-20 06:00,ZHHH 200600Z AUTO 18002KT 17SM 33/14 RMK SLP092 T03260141 57013 IEM_DS3505
ZHHH,2000-05-20 09:00,ZHHH 200900Z AUTO 20002KT 17SM 34/11 RMK SLP073 T03350107 57019 IEM_DS3505
ZHHH,2000-05-20 12:00,ZHHH 201200Z AUTO 00000KT 11SM 28/17 RMK SLP075 T02850168 52002 IEM_DS3505
ZHHH,2000-05-20 15:00,ZHHH 201500Z AUTO 00000KT 11SM 26/19 RMK SLP093 T02580192 52018 IEM_DS3505
ZHHH,2000-05-20 18:00,ZHHH 201800Z AUTO 16002KT 12SM 24/19 RMK SLP086 T02430188 57007 IEM_DS3505
ZHHH,2000-05-20 21:00,ZHHH 202100Z AUTO 16002KT 11SM 23/18 RMK SLP084 T02270181 57002 IEM_DS3505
ZHHH,2000-05-21 00:00,ZHHH 210000Z AUTO 14004KT 14SM 25/16 RMK SLP097 T02530161 52013 IEM_DS3505
ZHHH,2000-05-21 03:00,ZHHH 210300Z AUTO 18004KT 14SM 30/15 RMK SLP098 T03040153 52001 IEM_DS3505
ZHHH,2000-05-21 06:00,ZHHH 210600Z AUTO 16002KT 11SM 34/12 RMK SLP080 T03380117 57018 IEM_DS3505
ZHHH,2000-05-21 09:00,ZHHH 210900Z AUTO 14004KT 11SM 34/09 RMK SLP063 T03390092 57017 IEM_DS3505
ZHHH,2000-05-21 12:00,ZHHH 211200Z AUTO 11002KT 11SM 30/12 RMK SLP069 T03050116 52006 IEM_DS3505
ZHHH,2000-05-21 15:00,ZHHH 211500Z AUTO 00000KT 9SM 28/15 RMK SLP079 T02790150 52010 IEM_DS3505
ZHHH,2000-05-21 18:00,ZHHH 211800Z AUTO 11002KT 9SM 26/17 RMK SLP081 T02560168 52003 IEM_DS3505
ZHHH,2000-05-21 21:00,ZHHH 212100Z AUTO 14002KT 9SM 24/20 RMK SLP082 T02400195 54000 IEM_DS3505
ZHHH,2000-05-22 00:00,ZHHH 220000Z AUTO 14004KT 14SM 28/18 RMK SLP091 T02770175 52009 IEM_DS3505
ZHHH,2000-05-22 03:00,ZHHH 220300Z AUTO 22006KT 14SM 32/14 RMK SLP096 T03210144 52005 IEM_DS3505
ZHHH,2000-05-22 06:00,ZHHH 220600Z AUTO 20006KT 16SM 35/11 RMK SLP083 T03480113 57012 IEM_DS3505
ZHHH,2000-05-22 09:00,ZHHH 220900Z AUTO 27004KT 16SM 34/13 RMK SLP071 T03390131 57013 IEM_DS3505
ZHHH,2000-05-22 12:00,ZHHH 221200Z AUTO 00000KT 12SM 32/14 RMK SLP076 T03150140 52006 IEM_DS3505
ZHHH,2000-05-22 15:00,ZHHH 221500Z AUTO 00000KT 9SM 28/19 RMK SLP079 T02820188 52003 IEM_DS3505
ZHHH,2000-05-22 18:00,ZHHH 221800Z AUTO 00000KT 9SM 28/18 RMK SLP096 T02750185 52017 IEM_DS3505
ZHHH,2000-05-22 21:00,ZHHH 222100Z AUTO 16002KT 9SM 26/19 RMK SLP076 T02600191 57001 IEM_DS3505
ZHHH,2000-05-23 00:00,ZHHH 230000Z AUTO 09002KT 9SM 28/19 RMK SLP086 T02770186 52009 IEM_DS3505
ZHHH,2000-05-23 03:00,ZHHH 230300Z AUTO 14002KT 11SM 31/18 RMK SLP087 T03100177 52001 IEM_DS3505
ZHHH,2000-05-23 06:00,ZHHH 230600Z AUTO 22004KT 11SM 33/16 RMK SLP075 T03270158 57011 IEM_DS3505
ZHHH,2000-05-23 09:00,ZHHH 230900Z AUTO 11004KT 9SM 32/18 RMK SLP065 T03210178 57011 IEM_DS3505
ZHHH,2000-05-23 12:00,ZHHH 231200Z AUTO 00000KT 9SM 30/19 RMK 60003 SLP064 T03040188 57001 IEM_DS3505
ZHHH,2000-05-23 15:00,ZHHH 231500Z AUTO 16006KT 9SM 28/20 RMK SLP079 T02770200 52015 IEM_DS3505
ZHHH,2000-05-23 18:00,ZHHH 231800Z AUTO 00000KT 7SM 27/19 RMK 60003 SLP067 T02730192 57011 IEM_DS3505
ZHHH,2000-05-23 21:00,ZHHH 232100Z AUTO 00000KT 7SM 26/21 RMK 70003 SLP072 T02590206 52004 IEM_DS3505
ZHHH,2000-05-24 00:00,ZHHH 240000Z AUTO 18002KT 7SM 26/21 RMK 60003 SLP076 T02630207 52004 IEM_DS3505
ZHHH,2000-05-24 03:00,ZHHH 240300Z AUTO 11004KT 7SM 26/18 RMK SLP079 T02640181 52003 IEM_DS3505
ZHHH,2000-05-24 06:00,ZHHH 240600Z AUTO 14006KT 7SM 26/20 RMK 60001 SLP068 T02550195 57011 IEM_DS3505
ZHHH,2000-05-24 09:00,ZHHH 240900Z AUTO 11004KT 7SM 23/21 RMK SLP051 T02290211 57017 IEM_DS3505
ZHHH,2000-05-24 12:00,ZHHH 241200Z AUTO 14004KT 5SM 22/22 RMK 60063 SLP052 T02210215 52001 IEM_DS3505
ZHHH,2000-05-24 15:00,ZHHH 241500Z AUTO 09004KT 6SM 22/21 RMK SLP045 T02230212 57007 IEM_DS3505
ZHHH,2000-05-24 18:00,ZHHH 241800Z AUTO 11004KT 4SM 22/21 RMK 60142 SLP020 T02200214 57025 IEM_DS3505
ZHHH,2000-05-24 21:00,ZHHH 242100Z AUTO 11004KT 4SM 22/21 RMK 70352 SLP006 T02150207 57014 IEM_DS3505
ZHHH,2000-05-25 00:00,ZHHH 250000Z AUTO 22002KT 4SM 22/21 RMK 60169 SLP007 T02160210 52001 IEM_DS3505
ZHHH,2000-05-25 03:00,ZHHH 250300Z AUTO 14004KT 5SM 22/22 RMK SLP002 T02240220 57005 IEM_DS3505
ZHHH,2000-05-25 06:00,ZHHH 250600Z AUTO 09002KT 5SM 23/22 RMK 60075 SLP988 T02290223 57014 IEM_DS3505
ZHHH,2000-05-25 09:00,ZHHH 250900Z AUTO 04002KT 4SM 23/22 RMK SLP979 T02290223 57009 IEM_DS3505
ZHHH,2000-05-25 12:00,ZHHH 251200Z AUTO 00000KT 9SM 22/21 RMK 60067 SLP985 T02200214 52006 IEM_DS3505
ZHHH,2000-05-25 15:00,ZHHH 251500Z AUTO 27004KT 9SM 22/21 RMK SLP007 T02190208 52022 IEM_DS3505
ZHHH,2000-05-25 18:00,ZHHH 251800Z AUTO 27004KT 7SM 21/20 RMK 60004 SLP013 T02120200 52006 IEM_DS3505
ZHHH,2000-05-25 21:00,ZHHH 252100Z AUTO 27004KT 11SM 22/20 RMK 70169 SLP019 T02150201 52006 IEM_DS3505
ZHHH,2000-05-26 00:00,ZHHH 260000Z AUTO 34004KT 11SM 22/20 RMK 70146 SLP033 T02250205 52014 IEM_DS3505
ZHHH,2000-05-26 03:00,ZHHH 260300Z AUTO 32006KT 12SM 25/20 RMK SLP042 T02510201 52009 IEM_DS3505
ZHHH,2000-05-26 06:00,ZHHH 260600Z AUTO 04004KT 12SM 28/20 RMK SLP031 T02750204 57011 IEM_DS3505
ZHHH,2000-05-26 09:00,ZHHH 260900Z AUTO 04002KT 12SM 28/20 RMK SLP027 T02780201 57004 IEM_DS3505
ZHHH,2000-05-26 12:00,ZHHH 261200Z AUTO 00000KT 11SM 26/22 RMK SLP040 T02600215 52013 IEM_DS3505
ZHHH,2000-05-26 15:00,ZHHH 261500Z AUTO 18002KT 9SM 25/22 RMK SLP054 T02480218 52014 IEM_DS3505
ZHHH,2000-05-26 18:00,ZHHH 261800Z AUTO 00000KT 9SM 24/22 RMK SLP055 T02430221 52001 IEM_DS3505
ZHHH,2000-05-26 21:00,ZHHH 262100Z AUTO 00000KT 9SM 24/22 RMK SLP064 T02390220 52009 IEM_DS3505
ZHHH,2000-05-27 00:00,ZHHH 270000Z AUTO 04002KT 9SM 24/22 RMK SLP080 T02430222 52016 IEM_DS3505
ZHHH,2000-05-27 03:00,ZHHH 270300Z AUTO 02006KT 11SM 28/19 RMK SLP084 T02780191 52004 IEM_DS3505
ZHHH,2000-05-27 06:00,ZHHH 270600Z AUTO 34006KT 12SM 29/15 RMK SLP078 T02910150 57006 IEM_DS3505
ZHHH,2000-05-27 09:00,ZHHH 270900Z AUTO 04002KT 12SM 29/16 RMK SLP074 T02860157 57004 IEM_DS3505
ZHHH,2000-05-27 12:00,ZHHH 271200Z AUTO 00000KT 11SM 27/18 RMK SLP081 T02710184 52007 IEM_DS3505
ZHHH,2000-05-27 15:00,ZHHH 271500Z AUTO 00000KT 11SM 26/20 RMK SLP101 T02620196 52020 IEM_DS3505
ZHHH,2000-05-27 18:00,ZHHH 271800Z AUTO 09002KT 9SM 24/19 RMK SLP097 T02430190 57004 IEM_DS3505
ZHHH,2000-05-27 21:00,ZHHH 272100Z AUTO 02002KT 11SM 23/18 RMK SLP103 T02340184 52006 IEM_DS3505
ZHHH,2000-05-28 00:00,ZHHH 280000Z AUTO 02004KT 7SM 23/18 RMK SLP111 T02290176 52008 IEM_DS3505
ZHHH,2000-05-28 03:00,ZHHH 280300Z AUTO 36004KT 9SM 25/17 RMK SLP113 T02460171 52002 IEM_DS3505
ZHHH,2000-05-28 06:00,ZHHH 280600Z AUTO 04004KT 11SM 25/17 RMK SLP103 T02460171 57010 IEM_DS3505
ZHHH,2000-05-28 09:00,ZHHH 280900Z AUTO 04006KT 9SM 23/16 RMK SLP098 T02330165 57005 IEM_DS3505
ZHHH,2000-05-28 12:00,ZHHH 281200Z AUTO 02006KT 9SM 22/16 RMK 60003 SLP110 T02240158 52012 IEM_DS3505
ZHHH,2000-05-28 15:00,ZHHH 281500Z AUTO 36004KT 7SM 20/18 RMK SLP122 T01980180 52012 IEM_DS3505
ZHHH,2000-05-28 18:00,ZHHH 281800Z AUTO 32004KT 7SM 19/17 RMK 60002 SLP112 T01900169 57010 IEM_DS3505
ZHHH,2000-05-28 21:00,ZHHH 282100Z AUTO 32002KT 7SM 18/16 RMK 70002 SLP108 T01830156 57004 IEM_DS3505
ZHHH,2000-05-29 00:00,ZHHH 290000Z AUTO 04002KT 7SM 19/16 RMK 60003 SLP115 T01870159 52007 IEM_DS3505
ZHHH,2000-05-29 03:00,ZHHH 290300Z AUTO 02004KT 6SM 17/16 RMK SLP113 T01730158 57003 IEM_DS3505
ZHHH,2000-05-29 06:00,ZHHH 290600Z AUTO 02004KT 6SM 18/16 RMK 60008 SLP096 T01750163 57017 IEM_DS3505
ZHHH,2000-05-29 09:00,ZHHH 290900Z AUTO 04002KT 4SM 18/17 RMK SLP084 T01750167 57012 IEM_DS3505
ZHHH,2000-05-29 12:00,ZHHH 291200Z AUTO 00000KT 6SM 18/17 RMK 60016 SLP090 T01780170 52006 IEM_DS3505
ZHHH,2000-05-29 15:00,ZHHH 291500Z AUTO 27002KT 6SM 18/17 RMK SLP092 T01760166 52002 IEM_DS3505
ZHHH,2000-05-29 18:00,ZHHH 291800Z AUTO 27002KT 6SM 18/16 RMK 60001 SLP077 T01780163 57015 IEM_DS3505
ZHHH,2000-05-29 21:00,ZHHH 292100Z AUTO 29002KT 6SM 18/16 RMK 70028 SLP067 T01780160 57010 IEM_DS3505
ZHHH,2000-05-30 00:00,ZHHH 300000Z AUTO 25002KT 6SM 18/17 RMK 60003 SLP079 T01850169 52012 IEM_DS3505
ZHHH,2000-05-30 03:00,ZHHH 300300Z AUTO 27004KT 9SM 19/17 RMK SLP077 T01890173 57002 IEM_DS3505
ZHHH,2000-05-30 06:00,ZHHH 300600Z AUTO 22004KT 9SM 20/17 RMK 60031 SLP061 T02050174 57015 IEM_DS3505
ZHHH,2000-05-30 09:00,ZHHH 300900Z AUTO 22004KT 7SM 20/18 RMK SLP053 T01990183 57008 IEM_DS3505
ZHHH,2000-05-30 12:00,ZHHH 301200Z AUTO 00000KT 7SM 19/18 RMK 60003 SLP054 T01940181 52001 IEM_DS3505
ZHHH,2000-05-30 15:00,ZHHH 301500Z AUTO 00000KT 7SM 19/18 RMK SLP062 T01930180 52008 IEM_DS3505
ZHHH,2000-05-30 18:00,ZHHH 301800Z AUTO 00000KT 7SM 19/18 RMK 60003 SLP051 T01930179 57011 IEM_DS3505
ZHHH,2000-05-30 21:00,ZHHH 302100Z AUTO 27002KT 7SM 19/17 RMK 70038 SLP051 T01900174 54000 IEM_DS3505
ZHHH,2000-05-31 00:00,ZHHH 310000Z AUTO 14002KT 11SM 19/17 RMK 70035 SLP063 T01930174 52012 IEM_DS3505
ZHHH,2000-05-31 03:00,ZHHH 310300Z AUTO 22002KT 12SM 22/18 RMK SLP073 T02240183 52010 IEM_DS3505
ZHHH,2000-05-31 06:00,ZHHH 310600Z AUTO 00000KT 12SM 26/19 RMK SLP062 T02570194 57011 IEM_DS3505
ZHHH,2000-05-31 09:00,ZHHH 310900Z AUTO 11004KT 12SM 27/20 RMK SLP042 T02730202 57020 IEM_DS3505
ZHHH,2000-05-31 12:00,ZHHH 311200Z AUTO 14004KT 11SM 25/21 RMK SLP039 T02530213 57003 IEM_DS3505
ZHHH,2000-05-31 15:00,ZHHH 311500Z AUTO 11002KT 11SM 24/21 RMK SLP052 T02430208 52013 IEM_DS3505
ZHHH,2000-05-31 18:00,ZHHH 311800Z AUTO 09002KT 9SM 23/21 RMK SLP042 T02330206 57010 IEM_DS3505
ZHHH,2000-05-31 21:00,ZHHH 312100Z AUTO 00000KT 8SM 23/21 RMK SLP046 T02300212 52004 IEM_DS3505
ZHHH,2000-06-01 00:00,ZHHH 010000Z AUTO 09004KT 9SM 26/22 RMK SLP058 T02560222 52012 IEM_DS3505
ZHHH,2000-06-01 03:00,ZHHH 010300Z AUTO 14004KT 11SM 30/23 RMK SLP060 T03030233 52002 IEM_DS3505
ZHHH,2000-06-01 06:00,ZHHH 010600Z AUTO 09002KT 11SM 31/25 RMK SLP046 T03140249 57014 IEM_DS3505
ZHHH,2000-06-01 12:00,ZHHH 011200Z AUTO 32002KT 7SM 28/26 RMK 60008 SLP041 T02750257 52011 IEM_DS3505
ZHHH,2000-06-01 15:00,ZHHH 011500Z AUTO 07006KT 8SM 25/23 RMK SLP054 T02470231 52013 IEM_DS3505
ZHHH,2000-06-01 18:00,ZHHH 011800Z AUTO 00000KT 9SM 24/23 RMK 60003 SLP039 T02450230 57015 IEM_DS3505
ZHHH,2000-06-01 21:00,ZHHH 012100Z AUTO 11002KT 9SM 25/24 RMK 70012 SLP037 T02510238 57002 IEM_DS3505
ZHHH,2000-06-02 00:00,ZHHH 020000Z AUTO 00000KT 9SM 28/23 RMK 70012 SLP047 T02800231 52010 IEM_DS3505
ZHHH,2000-06-02 03:00,ZHHH 020300Z AUTO 20002KT 12SM 31/24 RMK SLP053 T03130239 52006 IEM_DS3505
ZHHH,2000-06-02 09:00,ZHHH 020900Z AUTO 14004KT 12SM 34/23 RMK SLP022 T03380228 57016 IEM_DS3505
ZHHH,2000-06-02 12:00,ZHHH 021200Z AUTO 00000KT 12SM 31/24 RMK SLP022 T03120244 54000 IEM_DS3505
ZHHH,2000-06-02 15:00,ZHHH 021500Z AUTO 14002KT 12SM 30/22 RMK SLP031 T02980225 52009 IEM_DS3505
ZHHH,2000-06-02 18:00,ZHHH 021800Z AUTO 00000KT 12SM 29/23 RMK SLP016 T02870228 57015 IEM_DS3505
ZHHH,2000-06-02 21:00,ZHHH 022100Z AUTO 00000KT 12SM 28/22 RMK SLP022 T02850225 52006 IEM_DS3505
ZHHH,2000-06-03 00:00,ZHHH 030000Z AUTO 29004KT 16SM 30/23 RMK SLP036 T03010234 52014 IEM_DS3505
ZHHH,2000-06-03 03:00,ZHHH 030300Z AUTO 27006KT 16SM 33/24 RMK SLP037 T03290240 52001 IEM_DS3505
ZHHH,2000-06-03 06:00,ZHHH 030600Z AUTO 29006KT 11SM 29/24 RMK SLP036 T02910244 57001 IEM_DS3505
ZHHH,2000-06-03 09:00,ZHHH 030900Z AUTO 32004KT 9SM 24/22 RMK SLP050 T02390223 52013 IEM_DS3505
ZHHH,2000-06-03 12:00,ZHHH 031200Z AUTO 04004KT 7SM 23/21 RMK 60028 SLP063 T02290208 52013 IEM_DS3505
ZHHH,2000-06-03 15:00,ZHHH 031500Z AUTO 32002KT 7SM 23/20 RMK SLP079 T02260201 52016 IEM_DS3505
ZHHH,2000-06-03 18:00,ZHHH 031800Z AUTO 29004KT 8SM 22/20 RMK SLP072 T02230201 57007 IEM_DS3505
ZHHH,2000-06-03 21:00,ZHHH 032100Z AUTO 32002KT 7SM 22/20 RMK 70026 SLP075 T02200198 52003 IEM_DS3505
ZHHH,2000-06-04 00:00,ZHHH 040000Z AUTO 27002KT 7SM 22/20 RMK 60003 SLP084 T02190199 52009 IEM_DS3505
ZHHH,2000-06-04 03:00,ZHHH 040300Z AUTO 32004KT 8SM 24/20 RMK SLP094 T02350198 52010 IEM_DS3505
ZHHH,2000-06-04 06:00,ZHHH 040600Z AUTO 32006KT 12SM 26/20 RMK SLP088 T02570199 57006 IEM_DS3505
ZHHH,2000-06-04 09:00,ZHHH 040900Z AUTO 04004KT 12SM 26/20 RMK SLP076 T02650200 57012 IEM_DS3505
ZHHH,2000-06-04 12:00,ZHHH 041200Z AUTO 00000KT 12SM 25/21 RMK SLP076 T02520208 54000 IEM_DS3505
ZHHH,2000-06-04 15:00,ZHHH 041500Z AUTO 00000KT 9SM 24/20 RMK SLP086 T02390201 52010 IEM_DS3505
ZHHH,2000-06-04 18:00,ZHHH 041800Z AUTO 00000KT 11SM 23/20 RMK SLP080 T02270201 57006 IEM_DS3505
ZHHH,2000-06-04 21:00,ZHHH 042100Z AUTO 04002KT 12SM 22/19 RMK 70003 SLP078 T02180193 57002 IEM_DS3505
ZHHH,2000-06-05 00:00,ZHHH 050000Z AUTO 09004KT 11SM 23/20 RMK SLP089 T02310200 52011 IEM_DS3505
ZHHH,2000-06-05 03:00,ZHHH 050300Z AUTO 22002KT 11SM 26/20 RMK SLP090 T02630204 52001 IEM_DS3505
ZHHH,2000-06-05 06:00,ZHHH 050600Z AUTO 00000KT 9SM 27/20 RMK SLP079 T02720201 57011 IEM_DS3505
ZHHH,2000-06-05 09:00,ZHHH 050900Z AUTO 00000KT 9SM 26/21 RMK SLP064 T02620214 57015 IEM_DS3505
ZHHH,2000-06-05 12:00,ZHHH 051200Z AUTO 14002KT 6SM 24/22 RMK 60000 SLP073 T02420220 52009 IEM_DS3505
ZHHH,2000-06-05 15:00,ZHHH 051500Z AUTO 00000KT 7SM 24/21 RMK SLP080 T02370214 52007 IEM_DS3505
ZHHH,2000-06-05 18:00,ZHHH 051800Z AUTO 27002KT 7SM 23/22 RMK 60020 SLP072 T02340221 57008 IEM_DS3505
ZHHH,2000-06-05 21:00,ZHHH 052100Z AUTO 00000KT 7SM 23/22 RMK 70021 SLP065 T02280224 57007 IEM_DS3505
ZHHH,2000-06-06 00:00,ZHHH 060000Z AUTO 04004KT 9SM 25/22 RMK 70021 SLP072 T02490224 52007 IEM_DS3505
ZHHH,2000-06-06 03:00,ZHHH 060300Z AUTO 07004KT 11SM 28/21 RMK SLP073 T02790214 52001 IEM_DS3505
ZHHH,2000-06-06 06:00,ZHHH 060600Z AUTO 09004KT 11SM 30/21 RMK SLP063 T02990208 57010 IEM_DS3505
ZHHH,2000-06-06 09:00,ZHHH 060900Z AUTO 11004KT 11SM 30/20 RMK SLP050 T03040204 57013 IEM_DS3505
ZHHH,2000-06-06 12:00,ZHHH 061200Z AUTO 00000KT 9SM 29/22 RMK SLP056 T02860215 52006 IEM_DS3505
ZHHH,2000-06-06 15:00,ZHHH 061500Z AUTO 00000KT 9SM 27/23 RMK SLP063 T02700229 52007 IEM_DS3505
ZHHH,2000-06-06 18:00,ZHHH 061800Z AUTO 00000KT 7SM 26/23 RMK SLP055 T02560233 57008 IEM_DS3505
ZHHH,2000-06-06 21:00,ZHHH 062100Z AUTO 00000KT 7SM 25/21 RMK SLP046 T02520213 57009 IEM_DS3505
ZHHH,2000-06-07 00:00,ZHHH 070000Z AUTO 18002KT 9SM 26/23 RMK SLP045 T02570226 57001 IEM_DS3505
ZHHH,2000-06-07 03:00,ZHHH 070300Z AUTO 27002KT 12SM 29/21 RMK SLP048 T02860212 52003 IEM_DS3505
ZHHH,2000-06-07 06:00,ZHHH 070600Z AUTO 25002KT 11SM 28/23 RMK 60003 SLP040 T02770232 57008 IEM_DS3505
ZHHH,2000-06-07 09:00,ZHHH 070900Z AUTO 20002KT 11SM 29/23 RMK SLP029 T02940234 57011 IEM_DS3505
ZHHH,2000-06-07 12:00,ZHHH 071200Z AUTO 00000KT 9SM 28/24 RMK SLP031 T02750236 52002 IEM_DS3505
ZHHH,2000-06-07 15:00,ZHHH 071500Z AUTO 00000KT 11SM 26/24 RMK SLP045 T02590237 52014 IEM_DS3505
ZHHH,2000-06-07 18:00,ZHHH 071800Z AUTO 00000KT 7SM 26/24 RMK SLP032 T02570240 57013 IEM_DS3505
ZHHH,2000-06-07 21:00,ZHHH 072100Z AUTO 00000KT 7SM 26/24 RMK 70003 SLP034 T02550242 52002 IEM_DS3505
ZHHH,2000-06-08 00:00,ZHHH 080000Z AUTO 27004KT 6SM 26/24 RMK 60000 SLP042 T02560243 52008 IEM_DS3505
ZHHH,2000-06-08 03:00,ZHHH 080300Z AUTO 07002KT 7SM 24/20 RMK SLP051 T02420204 52009 IEM_DS3505
ZHHH,2000-06-08 06:00,ZHHH 080600Z AUTO 34002KT 7SM 24/21 RMK 60003 SLP059 T02450207 52008 IEM_DS3505
ZHHH,2000-06-08 09:00,ZHHH 080900Z AUTO 18002KT 6SM 24/22 RMK SLP049 T02390217 57010 IEM_DS3505
ZHHH,2000-06-08 12:00,ZHHH 081200Z AUTO 27002KT 6SM 24/21 RMK 60004 SLP055 T02390210 52006 IEM_DS3505
ZHHH,2000-06-08 15:00,ZHHH 081500Z AUTO 00000KT 7SM 23/22 RMK SLP060 T02290215 52005 IEM_DS3505
ZHHH,2000-06-08 18:00,ZHHH 081800Z AUTO 00000KT 7SM 22/21 RMK 60002 SLP047 T02240210 57013 IEM_DS3505
ZHHH,2000-06-08 21:00,ZHHH 082100Z AUTO 00000KT 7SM 22/21 RMK 70007 SLP055 T02180212 52008 IEM_DS3505
ZHHH,2000-06-09 00:00,ZHHH 090000Z AUTO 00000KT 9SM 23/21 RMK 70007 SLP060 T02320211 52005 IEM_DS3505
ZHHH,2000-06-09 03:00,ZHHH 090300Z AUTO 20004KT 7SM 27/22 RMK SLP060 T02720216 54000 IEM_DS3505
ZHHH,2000-06-09 06:00,ZHHH 090600Z AUTO 14004KT 9SM 28/20 RMK SLP054 T02850197 57006 IEM_DS3505
ZHHH,2000-06-09 09:00,ZHHH 090900Z AUTO 14004KT 9SM 28/19 RMK SLP048 T02830188 57006 IEM_DS3505
ZHHH,2000-06-09 12:00,ZHHH 091200Z AUTO 00000KT 9SM 27/19 RMK SLP060 T02730192 52012 IEM_DS3505
ZHHH,2000-06-09 15:00,ZHHH 091500Z AUTO 00000KT 7SM 26/22 RMK SLP065 T02570220 52005 IEM_DS3505
ZHHH,2000-06-09 18:00,ZHHH 091800Z AUTO 00000KT 9SM 25/22 RMK SLP069 T02510217 52004 IEM_DS3505
ZHHH,2000-06-09 21:00,ZHHH 092100Z AUTO 04004KT 7SM 20/ RMK SLP069 54000 IEM_DS3505
ZHHH,2000-06-10 00:00,ZHHH 100000Z AUTO 02006KT 7SM 24/21 RMK 60003 SLP082 T02410211 52013 IEM_DS3505
ZHHH,2000-06-10 03:00,ZHHH 100300Z AUTO 04004KT 8SM 22/17 RMK SLP096 T02250170 52014 IEM_DS3505
ZHHH,2000-06-10 06:00,ZHHH 100600Z AUTO 11006KT 7SM 23/16 RMK 60003 SLP092 T02300160 57004 IEM_DS3505
ZHHH,2000-06-10 09:00,ZHHH 100900Z AUTO 11006KT 9SM 24/16 RMK SLP091 T02350163 57001 IEM_DS3505
ZHHH,2000-06-10 12:00,ZHHH 101200Z AUTO 11002KT 9SM 22/16 RMK 60003 SLP096 T02160158 52005 IEM_DS3505
ZHHH,2000-06-10 15:00,ZHHH 101500Z AUTO 00000KT 9SM 21/15 RMK SLP103 T02070153 52007 IEM_DS3505
ZHHH,2000-06-10 18:00,ZHHH 101800Z AUTO 00000KT 9SM 20/16 RMK SLP093 T01970162 57010 IEM_DS3505
ZHHH,2000-06-10 21:00,ZHHH 102100Z AUTO 00000KT 9SM 19/17 RMK 70003 SLP088 T01910171 57005 IEM_DS3505
ZHHH,2000-06-11 00:00,ZHHH 110000Z AUTO 14002KT 12SM 22/17 RMK 70003 SLP099 T02190172 52011 IEM_DS3505
ZHHH,2000-06-11 03:00,ZHHH 110300Z AUTO 14002KT 16SM 26/16 RMK SLP099 T02570162 54000 IEM_DS3505
ZHHH,2000-06-11 06:00,ZHHH 110600Z AUTO 00000KT 9SM 27/18 RMK SLP086 T02660182 57013 IEM_DS3505
ZHHH,2000-06-11 09:00,ZHHH 110900Z AUTO 27002KT 9SM 27/19 RMK SLP075 T02740186 57011 IEM_DS3505
ZHHH,2000-06-11 12:00,ZHHH 111200Z AUTO 27002KT 9SM 26/18 RMK SLP085 T02550185 52010 IEM_DS3505
ZHHH,2000-06-11 15:00,ZHHH 111500Z AUTO 00000KT 9SM 24/19 RMK SLP095 T02450191 52010 IEM_DS3505
ZHHH,2000-06-11 18:00,ZHHH 111800Z AUTO 27004KT 9SM 24/19 RMK SLP082 T02390187 57013 IEM_DS3505
ZHHH,2000-06-11 21:00,ZHHH 112100Z AUTO 00000KT 9SM 23/20 RMK SLP088 T02330204 52006 IEM_DS3505
ZHHH,2000-06-12 00:00,ZHHH 120000Z AUTO 04004KT 3SM 19/18 RMK 70003 SLP112 T01920184 52010 IEM_DS3505
ZHHH,2000-06-12 03:00,ZHHH 120300Z AUTO 04002KT 12SM 27/19 RMK SLP103 T02720187 52001 IEM_DS3505
ZHHH,2000-06-12 06:00,ZHHH 120600Z AUTO 07004KT 16SM 29/12 RMK SLP092 T02930124 57011 IEM_DS3505
ZHHH,2000-06-12 09:00,ZHHH 120900Z AUTO 36004KT 16SM 30/15 RMK SLP079 T02990152 57013 IEM_DS3505
ZHHH,2000-06-12 12:00,ZHHH 121200Z AUTO 02002KT 12SM 27/18 RMK SLP086 T02730176 52007 IEM_DS3505
ZHHH,2000-06-12 15:00,ZHHH 121500Z AUTO 00000KT 12SM 25/18 RMK SLP098 T02510178 52012 IEM_DS3505
ZHHH,2000-06-12 18:00,ZHHH 121800Z AUTO 00000KT 11SM 23/20 RMK SLP102 T02300196 52004 IEM_DS3505
ZHHH,2000-06-12 21:00,ZHHH 122100Z AUTO 00000KT 9SM 23/19 RMK SLP101 T02260190 57001 IEM_DS3505
ZHHH,2000-06-13 00:00,ZHHH 130000Z AUTO 07002KT 9SM 24/19 RMK SLP111 T02390191 52010 IEM_DS3505
ZHHH,2000-06-13 03:00,ZHHH 130300Z AUTO 14002KT 11SM 28/19 RMK SLP109 T02770186 57002 IEM_DS3505
ZHHH,2000-06-13 06:00,ZHHH 130600Z AUTO 00000KT 12SM 30/14 RMK SLP098 T02950144 57011 IEM_DS3505
ZHHH,2000-06-13 09:00,ZHHH 130900Z AUTO 22002KT 12SM 30/12 RMK SLP080 T02990119 57018 IEM_DS3505
ZHHH,2000-06-13 12:00,ZHHH 131200Z AUTO 11002KT 11SM 28/14 RMK SLP085 T02760142 52005 IEM_DS3505
ZHHH,2000-06-13 15:00,ZHHH 131500Z AUTO 00000KT 11SM 25/16 RMK SLP094 T02500163 52009 IEM_DS3505
ZHHH,2000-06-13 18:00,ZHHH 131800Z AUTO 00000KT 11SM 24/17 RMK SLP090 T02360168 57004 IEM_DS3505
ZHHH,2000-06-13 21:00,ZHHH 132100Z AUTO 16002KT 11SM 22/15 RMK SLP087 T02250150 57003 IEM_DS3505
ZHHH,2000-06-14 00:00,ZHHH 140000Z AUTO 11002KT 11SM 26/16 RMK SLP085 T02570158 57002 IEM_DS3505
ZHHH,2000-06-14 03:00,ZHHH 140300Z AUTO 14002KT 11SM 30/15 RMK SLP083 T02980147 57002 IEM_DS3505
ZHHH,2000-06-14 06:00,ZHHH 140600Z AUTO 14004KT 14SM 31/15 RMK SLP067 T03080148 57016 IEM_DS3505
ZHHH,2000-06-14 09:00,ZHHH 140900Z AUTO 25002KT 12SM 31/12 RMK SLP054 T03120122 57013 IEM_DS3505
ZHHH,2000-06-14 12:00,ZHHH 141200Z AUTO 00000KT 11SM 28/13 RMK SLP056 T02850126 52002 IEM_DS3505
ZHHH,2000-06-14 15:00,ZHHH 141500Z AUTO 00000KT 9SM 27/18 RMK SLP062 T02670176 52006 IEM_DS3505
ZHHH,2000-06-14 18:00,ZHHH 141800Z AUTO 00000KT 9SM 26/19 RMK SLP053 T02580187 57009 IEM_DS3505
ZHHH,2000-06-14 21:00,ZHHH 142100Z AUTO 00000KT 9SM 25/20 RMK SLP049 T02500198 57004 IEM_DS3505
ZHHH,2000-06-15 00:00,ZHHH 150000Z AUTO 09002KT 9SM 26/21 RMK SLP054 T02600209 52005 IEM_DS3505
ZHHH,2000-06-15 03:00,ZHHH 150300Z AUTO 16004KT 9SM 28/18 RMK SLP055 T02800179 52001 IEM_DS3505
ZHHH,2000-06-15 06:00,ZHHH 150600Z AUTO 22002KT 11SM 30/17 RMK SLP042 T02980173 57013 IEM_DS3505
ZHHH,2000-06-15 09:00,ZHHH 150900Z AUTO 14004KT 11SM 30/16 RMK SLP034 T03020163 57008 IEM_DS3505
ZHHH,2000-06-15 12:00,ZHHH 151200Z AUTO 11004KT 11SM 28/19 RMK SLP038 T02770188 52004 IEM_DS3505
ZHHH,2000-06-15 15:00,ZHHH 151500Z AUTO 09002KT 11SM 26/19 RMK SLP054 T02610192 52016 IEM_DS3505
ZHHH,2000-06-15 18:00,ZHHH 151800Z AUTO 00000KT 11SM 25/20 RMK SLP054 T02480197 54000 IEM_DS3505
ZHHH,2000-06-15 21:00,ZHHH 152100Z AUTO 09002KT 11SM 24/21 RMK SLP054 T02390206 54000 IEM_DS3505
ZHHH,2000-06-16 00:00,ZHHH 160000Z AUTO 09002KT 9SM 26/21 RMK SLP070 T02550212 52016 IEM_DS3505
ZHHH,2000-06-16 03:00,ZHHH 160300Z AUTO 04004KT 9SM 29/20 RMK SLP071 T02930200 52001 IEM_DS3505
ZHHH,2000-06-16 06:00,ZHHH 160600Z AUTO 04004KT 11SM 31/18 RMK SLP065 T03110178 57006 IEM_DS3505
ZHHH,2000-06-16 09:00,ZHHH 160900Z AUTO 09002KT 11SM 32/18 RMK SLP050 T03150180 57015 IEM_DS3505
ZHHH,2000-06-16 12:00,ZHHH 161200Z AUTO 00000KT 11SM 29/18 RMK SLP065 T02940183 52015 IEM_DS3505
ZHHH,2000-06-16 15:00,ZHHH 161500Z AUTO 00000KT 11SM 26/21 RMK SLP082 T02620214 52017 IEM_DS3505
ZHHH,2000-06-16 18:00,ZHHH 161800Z AUTO 00000KT 9SM 26/22 RMK SLP082 T02560225 54000 IEM_DS3505
ZHHH,2000-06-16 21:00,ZHHH 162100Z AUTO 04002KT 9SM 25/22 RMK SLP083 T02480220 52001 IEM_DS3505
ZHHH,2000-06-17 00:00,ZHHH 170000Z AUTO 04004KT 12SM 26/21 RMK SLP099 T02650213 52016 IEM_DS3505
ZHHH,2000-06-17 03:00,ZHHH 170300Z AUTO 02004KT 12SM 30/21 RMK SLP100 T03030211 52001 IEM_DS3505
ZHHH,2000-06-17 06:00,ZHHH 170600Z AUTO 07004KT 11SM 33/20 RMK SLP095 T03260202 57005 IEM_DS3505
ZHHH,2000-06-17 09:00,ZHHH 170900Z AUTO 07004KT 11SM 33/18 RMK SLP081 T03290176 57014 IEM_DS3505
ZHHH,2000-06-17 12:00,ZHHH 171200Z AUTO 04004KT 11SM 31/20 RMK SLP088 T03080200 52007 IEM_DS3505
ZHHH,2000-06-17 15:00,ZHHH 171500Z AUTO 04002KT 11SM 28/20 RMK SLP101 T02770205 52013 IEM_DS3505
ZHHH,2000-06-17 18:00,ZHHH 171800Z AUTO 07002KT 11SM 26/20 RMK SLP100 T02570204 57001 IEM_DS3505
ZHHH,2000-06-17 21:00,ZHHH 172100Z AUTO 00000KT 11SM 25/20 RMK SLP101 T02470200 52001 IEM_DS3505
ZHHH,2000-06-18 00:00,ZHHH 180000Z AUTO 09002KT 12SM 26/20 RMK SLP116 T02600197 52015 IEM_DS3505
ZHHH,2000-06-18 03:00,ZHHH 180300Z AUTO 09004KT 12SM 29/19 RMK SLP112 T02930191 57004 IEM_DS3505
ZHHH,2000-06-18 06:00,ZHHH 180600Z AUTO 04002KT 12SM 31/19 RMK SLP096 T03110191 57016 IEM_DS3505
ZHHH,2000-06-18 09:00,ZHHH 180900Z AUTO 04004KT 12SM 32/17 RMK SLP075 T03180166 57021 IEM_DS3505
ZHHH,2000-06-18 12:00,ZHHH 181200Z AUTO 09002KT 12SM 30/20 RMK SLP078 T03000197 52003 IEM_DS3505
ZHHH,2000-06-18 15:00,ZHHH 181500Z AUTO 00000KT 12SM 28/21 RMK SLP084 T02820214 52006 IEM_DS3505
ZHHH,2000-06-18 18:00,ZHHH 181800Z AUTO 00000KT 11SM 27/22 RMK SLP077 T02680216 57007 IEM_DS3505
ZHHH,2000-06-18 21:00,ZHHH 182100Z AUTO 00000KT 11SM 26/22 RMK SLP075 T02550224 IEM_DS3505
ZHHH,2000-06-19 03:00,ZHHH 190300Z AUTO 04006KT 12SM 31/21 RMK SLP074 T03080210 57007 IEM_DS3505
ZHHH,2000-06-19 06:00,ZHHH 190600Z AUTO 04006KT 12SM 33/20 RMK SLP057 T03260199 57017 IEM_DS3505
ZHHH,2000-06-19 09:00,ZHHH 190900Z AUTO 02004KT 12SM 33/20 RMK SLP038 T03260201 57019 IEM_DS3505
ZHHH,2000-06-19 12:00,ZHHH 191200Z AUTO 00000KT 9SM 31/21 RMK SLP041 T03090208 52003 IEM_DS3505
ZHHH,2000-06-19 15:00,ZHHH 191500Z AUTO 00000KT 9SM 29/23 RMK SLP054 T02890231 52013 IEM_DS3505
ZHHH,2000-06-19 18:00,ZHHH 191800Z AUTO 09002KT 9SM 27/24 RMK SLP047 T02720239 57007 IEM_DS3505
ZHHH,2000-06-19 21:00,ZHHH 192100Z AUTO 00000KT 9SM 26/23 RMK SLP045 T02640232 57002 IEM_DS3505
ZHHH,2000-06-20 00:00,ZHHH 200000Z AUTO 16004KT 11SM 28/23 RMK SLP051 T02770232 52006 IEM_DS3505
ZHHH,2000-06-20 03:00,ZHHH 200300Z AUTO 16004KT 12SM 31/24 RMK SLP052 T03110245 52001 IEM_DS3505
ZHHH,2000-06-20 06:00,ZHHH 200600Z AUTO 34004KT 12SM 31/22 RMK SLP045 T03140218 57007 IEM_DS3505
ZHHH,2000-06-20 09:00,ZHHH 200900Z AUTO 25004KT 12SM 32/22 RMK SLP027 T03230218 57018 IEM_DS3505
ZHHH,2000-06-20 12:00,ZHHH 201200Z AUTO 00000KT 9SM 31/22 RMK SLP034 T03070223 52007 IEM_DS3505
ZHHH,2000-06-20 15:00,ZHHH 201500Z AUTO 00000KT 9SM 30/23 RMK SLP049 T02990234 52015 IEM_DS3505
ZHHH,2000-06-20 18:00,ZHHH 201800Z AUTO 22004KT 9SM 28/23 RMK SLP042 T02800234 57007 IEM_DS3505
ZHHH,2000-06-20 21:00,ZHHH 202100Z AUTO 27002KT 9SM 27/24 RMK SLP031 T02670237 57011 IEM_DS3505
ZHHH,2000-06-21 00:00,ZHHH 210000Z AUTO 00000KT 6SM 26/24 RMK 60003 SLP042 T02650235 52011 IEM_DS3505
ZHHH,2000-06-21 03:00,ZHHH 210300Z AUTO 34002KT 7SM 27/23 RMK SLP040 T02710227 57002 IEM_DS3505
ZHHH,2000-06-21 06:00,ZHHH 210600Z AUTO 25004KT 6SM 24/23 RMK 60016 SLP044 T02450232 52003 IEM_DS3505
ZHHH,2000-06-21 09:00,ZHHH 210900Z AUTO 22004KT 12SM 29/23 RMK SLP024 T02880227 57020 IEM_DS3505
ZHHH,2000-06-21 12:00,ZHHH 211200Z AUTO 18002KT 7SM 25/23 RMK 60063 SLP035 T02520232 52011 IEM_DS3505
ZHHH,2000-06-21 15:00,ZHHH 211500Z AUTO 14002KT 7SM 25/23 RMK SLP042 T02480233 52007 IEM_DS3505
ZHHH,2000-06-21 18:00,ZHHH 211800Z AUTO 22002KT 12SM 25/23 RMK SLP021 T02470234 57021 IEM_DS3505
ZHHH,2000-06-21 21:00,ZHHH 212100Z AUTO 18002KT 12SM 25/23 RMK 70078 SLP031 T02480233 52010 IEM_DS3505
ZHHH,2000-06-22 00:00,ZHHH 220000Z AUTO 00000KT 8SM 26/24 RMK 70078 SLP036 T02620235 52005 IEM_DS3505
ZHHH,2000-06-22 03:00,ZHHH 220300Z AUTO 18002KT 11SM 29/24 RMK SLP035 T02910243 57001 IEM_DS3505
ZHHH,2000-06-22 06:00,ZHHH 220600Z AUTO 00000KT 6SM 30/24 RMK 60003 SLP011 T03040245 57023 IEM_DS3505
ZHHH,2000-06-22 09:00,ZHHH 220900Z AUTO 25002KT 6SM 25/23 RMK SLP011 T02530230 57001 IEM_DS3505
ZHHH,2000-06-22 12:00,ZHHH 221200Z AUTO 11002KT 8SM 27/24 RMK 60272 SLP018 T02730239 52007 IEM_DS3505
ZHHH,2000-06-22 15:00,ZHHH 221500Z AUTO 11002KT 7SM 26/24 RMK SLP025 T02650238 52007 IEM_DS3505
ZHHH,2000-06-22 18:00,ZHHH 221800Z AUTO 14002KT 5SM 26/24 RMK SLP018 T02580242 57006 IEM_DS3505
ZHHH,2000-06-22 21:00,ZHHH 222100Z AUTO 14002KT 5SM 25/23 RMK 70273 SLP014 T02510231 57005 IEM_DS3505
ZHHH,2000-06-23 00:00,ZHHH 230000Z AUTO 04002KT 7SM 26/24 RMK 70273 SLP021 T02640235 52007 IEM_DS3505
ZHHH,2000-06-23 03:00,ZHHH 230300Z AUTO 14004KT 7SM 28/24 RMK SLP024 T02760237 52003 IEM_DS3505
ZHHH,2000-06-23 06:00,ZHHH 230600Z AUTO 11002KT 6SM 27/25 RMK 60031 SLP014 T02680254 57010 IEM_DS3505
ZHHH,2000-06-23 09:00,ZHHH 230900Z AUTO 16002KT 7SM 29/25 RMK SLP000 T02890250 57014 IEM_DS3505
ZHHH,2000-06-23 12:00,ZHHH 231200Z AUTO 09002KT 6SM 26/25 RMK 60091 SLP018 T02560250 52018 IEM_DS3505
ZHHH,2000-06-23 15:00,ZHHH 231500Z AUTO 09002KT 6SM 26/25 RMK SLP027 T02650251 52009 IEM_DS3505
ZHHH,2000-06-23 18:00,ZHHH 231800Z AUTO 09002KT 6SM 26/25 RMK 60000 SLP010 T02600246 57017 IEM_DS3505
ZHHH,2000-06-23 21:00,ZHHH 232100Z AUTO 00000KT 7SM 26/24 RMK 70124 SLP008 T02570244 57002 IEM_DS3505
ZHHH,2000-06-24 00:00,ZHHH 240000Z AUTO 14004KT 6SM 26/24 RMK 60008 SLP016 T02560243 52008 IEM_DS3505
ZHHH,2000-06-24 03:00,ZHHH 240300Z AUTO 07004KT 6SM 27/25 RMK SLP018 T02670251 52002 IEM_DS3505
ZHHH,2000-06-24 06:00,ZHHH 240600Z AUTO 11002KT 6SM 28/26 RMK 60004 SLP009 T02810256 57009 IEM_DS3505
ZHHH,2000-06-24 09:00,ZHHH 240900Z AUTO 07004KT 6SM 28/26 RMK SLP997 T02760256 57012 IEM_DS3505
ZHHH,2000-06-24 12:00,ZHHH 241200Z AUTO 16002KT 6SM 26/24 RMK 60091 SLP019 T02600238 52022 IEM_DS3505
ZHHH,2000-06-24 15:00,ZHHH 241500Z AUTO 14004KT 7SM 26/25 RMK SLP022 T02620246 52003 IEM_DS3505
ZHHH,2000-06-24 18:00,ZHHH 241800Z AUTO 11002KT 7SM 26/25 RMK 60004 SLP013 T02630246 57009 IEM_DS3505
ZHHH,2000-06-24 21:00,ZHHH 242100Z AUTO 11002KT 7SM 26/25 RMK 70106 SLP010 T02650247 57003 IEM_DS3505
ZHHH,2000-06-25 00:00,ZHHH 250000Z AUTO 14002KT 7SM 28/24 RMK 60001 SLP018 T02750245 52008 IEM_DS3505
ZHHH,2000-06-25 03:00,ZHHH 250300Z AUTO 20002KT 12SM 30/25 RMK SLP024 T03030251 52007 IEM_DS3505
ZHHH,2000-06-25 06:00,ZHHH 250600Z AUTO 18006KT 14SM 33/24 RMK 60003 SLP020 T03260236 57004 IEM_DS3505
ZHHH,2000-06-25 09:00,ZHHH 250900Z AUTO 18004KT 14SM 32/25 RMK SLP012 T03230246 57008 IEM_DS3505
ZHHH,2000-06-25 12:00,ZHHH 251200Z AUTO 11002KT 11SM 30/25 RMK SLP014 T03040251 52002 IEM_DS3505
ZHHH,2000-06-25 15:00,ZHHH 251500Z AUTO 16002KT 9SM 30/25 RMK SLP021 T02960250 52007 IEM_DS3505
ZHHH,2000-06-25 18:00,ZHHH 251800Z AUTO 00000KT 9SM 28/24 RMK SLP015 T02830240 57006 IEM_DS3505
ZHHH,2000-06-25 21:00,ZHHH 252100Z AUTO 00000KT 9SM 28/24 RMK 70003 SLP018 T02820238 52003 IEM_DS3505
ZHHH,2000-06-26 00:00,ZHHH 260000Z AUTO 27002KT 11SM 30/24 RMK 60003 SLP031 T02990238 52013 IEM_DS3505
ZHHH,2000-06-26 03:00,ZHHH 260300Z AUTO 20006KT 12SM 32/23 RMK SLP035 T03220233 52004 IEM_DS3505
ZHHH,2000-06-26 06:00,ZHHH 260600Z AUTO 18006KT 12SM 34/24 RMK SLP026 T03370238 57009 IEM_DS3505
ZHHH,2000-06-26 09:00,ZHHH 260900Z AUTO 20006KT 12SM 35/24 RMK SLP016 T03470245 57010 IEM_DS3505
ZHHH,2000-06-26 12:00,ZHHH 261200Z AUTO 22002KT 9SM 32/24 RMK SLP021 T03180242 52005 IEM_DS3505
ZHHH,2000-06-26 15:00,ZHHH 261500Z AUTO 00000KT 9SM 30/25 RMK SLP036 T03050246 52015 IEM_DS3505
ZHHH,2000-06-26 18:00,ZHHH 261800Z AUTO 00000KT 9SM 29/24 RMK SLP030 T02940241 57006 IEM_DS3505
ZHHH,2000-06-26 21:00,ZHHH 262100Z AUTO 00000KT 11SM 29/24 RMK 70003 SLP035 T02890237 52005 IEM_DS3505
ZHHH,2000-06-27 00:00,ZHHH 270000Z AUTO 22004KT 12SM 30/24 RMK SLP045 T02980241 52010 IEM_DS3505
ZHHH,2000-06-27 03:00,ZHHH 270300Z AUTO 27006KT 16SM 33/24 RMK SLP045 T03270244 54000 IEM_DS3505
ZHHH,2000-06-27 06:00,ZHHH 270600Z AUTO 25006KT 16SM 35/24 RMK SLP037 T03460240 57008 IEM_DS3505
ZHHH,2000-06-27 09:00,ZHHH 270900Z AUTO 25008KT 16SM 35/23 RMK SLP032 T03460232 57005 IEM_DS3505
ZHHH,2000-06-27 12:00,ZHHH 271200Z AUTO 00000KT 12SM 32/25 RMK SLP039 T03210246 52007 IEM_DS3505
ZHHH,2000-06-27 15:00,ZHHH 271500Z AUTO 18002KT 12SM 31/26 RMK SLP047 T03070255 52008 IEM_DS3505
ZHHH,2000-06-27 18:00,ZHHH 271800Z AUTO 04002KT 11SM 30/25 RMK SLP039 T02960248 57008 IEM_DS3505
ZHHH,2000-06-27 21:00,ZHHH 272100Z AUTO 18002KT 11SM 29/24 RMK SLP033 T02880236 57006 IEM_DS3505
ZHHH,2000-06-28 00:00,ZHHH 280000Z AUTO 20006KT 12SM 31/24 RMK SLP035 T03100236 52002 IEM_DS3505
ZHHH,2000-06-28 03:00,ZHHH 280300Z AUTO 16004KT 14SM 34/25 RMK SLP035 T03380249 54000 IEM_DS3505
ZHHH,2000-06-28 06:00,ZHHH 280600Z AUTO 22006KT 17SM 35/24 RMK SLP017 T03540242 57018 IEM_DS3505
ZHHH,2000-06-28 09:00,ZHHH 280900Z AUTO 22006KT 16SM 36/25 RMK SLP003 T03560246 57014 IEM_DS3505
ZHHH,2000-06-28 12:00,ZHHH 281200Z AUTO 22004KT 12SM 33/25 RMK SLP005 T03300250 52002 IEM_DS3505
ZHHH,2000-06-28 15:00,ZHHH 281500Z AUTO 22002KT 9SM 31/26 RMK SLP011 T03120255 52006 IEM_DS3505
ZHHH,2000-06-28 18:00,ZHHH 281800Z AUTO 34006KT 9SM 27/25 RMK SLP018 T02730247 52007 IEM_DS3505
ZHHH,2000-06-28 21:00,ZHHH 282100Z AUTO 34004KT 9SM 26/24 RMK SLP013 T02640241 57005 IEM_DS3505
ZHHH,2000-06-29 00:00,ZHHH 290000Z AUTO 34004KT 6SM 25/23 RMK 60003 SLP032 T02500233 52019 IEM_DS3505
ZHHH,2000-06-29 03:00,ZHHH 290300Z AUTO 27004KT 5SM 24/23 RMK SLP048 T02370231 52015 IEM_DS3505
ZHHH,2000-06-29 06:00,ZHHH 290600Z AUTO 25002KT 8SM 26/24 RMK 60055 SLP038 T02610236 57010 IEM_DS3505
ZHHH,2000-06-29 09:00,ZHHH 290900Z AUTO 22004KT 11SM 28/23 RMK SLP030 T02790234 57008 IEM_DS3505
ZHHH,2000-06-29 12:00,ZHHH 291200Z AUTO 27002KT 11SM 27/24 RMK SLP033 T02680236 52003 IEM_DS3505
ZHHH,2000-06-29 15:00,ZHHH 291500Z AUTO 00000KT 11SM 26/24 RMK SLP047 T02610236 52014 IEM_DS3505
ZHHH,2000-06-29 18:00,ZHHH 291800Z AUTO 25002KT 11SM 26/24 RMK SLP041 T02550236 57006 IEM_DS3505
ZHHH,2000-06-29 21:00,ZHHH 292100Z AUTO 00000KT 11SM 25/24 RMK 70054 SLP048 T02490239 52007 IEM_DS3505
ZHHH,2000-06-30 00:00,ZHHH 300000Z AUTO 14004KT 12SM 27/24 RMK 70054 SLP057 T02710238 52009 IEM_DS3505
ZHHH,2000-06-30 03:00,ZHHH 300300Z AUTO 16004KT 16SM 30/24 RMK SLP064 T03010244 52007 IEM_DS3505
ZHHH,2000-06-30 06:00,ZHHH 300600Z AUTO 22004KT 12SM 32/23 RMK SLP049 T03250234 57014 IEM_DS3505
ZHHH,2000-06-30 09:00,ZHHH 300900Z AUTO 22002KT 12SM 34/22 RMK SLP038 T03410224 57011 IEM_DS3505
ZHHH,2000-06-30 12:00,ZHHH 301200Z AUTO 22002KT 11SM 32/24 RMK SLP052 T03160244 52014 IEM_DS3505
ZHHH,2000-06-30 15:00,ZHHH 301500Z AUTO 00000KT 11SM 30/26 RMK SLP060 T03000255 52008 IEM_DS3505
ZHHH,2000-06-30 18:00,ZHHH 301800Z AUTO 00000KT 9SM 29/25 RMK SLP058 T02910252 57002 IEM_DS3505
ZHHH,2000-06-30 21:00,ZHHH 302100Z AUTO 00000KT 9SM 29/26 RMK SLP056 T02900255 57002 IEM_DS3505
ZHHH,2000-07-01 00:00,ZHHH 010000Z AUTO 00000KT 9SM 30/26 RMK SLP061 T02980262 52005 IEM_DS3505
ZHHH,2000-07-01 03:00,ZHHH 010300Z AUTO 16002KT 11SM 31/26 RMK SLP066 T03060257 52005 IEM_DS3505
ZHHH,2000-07-01 06:00,ZHHH 010600Z AUTO 32002KT 7SM 30/27 RMK 60003 SLP067 T03020268 52001 IEM_DS3505
ZHHH,2000-07-01 09:00,ZHHH 010900Z AUTO 04002KT 9SM 28/23 RMK SLP054 T02820228 57014 IEM_DS3505
ZHHH,2000-07-01 12:00,ZHHH 011200Z AUTO 00000KT 7SM 28/25 RMK 60003 SLP054 T02830253 52001 IEM_DS3505
ZHHH,2000-07-01 15:00,ZHHH 011500Z AUTO 00000KT 7SM 28/26 RMK SLP058 T02750261 52004 IEM_DS3505
ZHHH,2000-07-01 18:00,ZHHH 011800Z AUTO 00000KT 9SM 28/27 RMK SLP048 T02750267 57010 IEM_DS3505
ZHHH,2000-07-01 21:00,ZHHH 012100Z AUTO 00000KT 9SM 28/26 RMK 70003 SLP046 T02770262 57003 IEM_DS3505
ZHHH,2000-07-02 00:00,ZHHH 020000Z AUTO 04002KT 7SM 28/24 RMK 70003 SLP058 T02750242 52012 IEM_DS3505
ZHHH,2000-07-02 03:00,ZHHH 020300Z AUTO 04004KT 9SM 28/24 RMK SLP074 T02770241 52016 IEM_DS3505
ZHHH,2000-07-02 06:00,ZHHH 020600Z AUTO 27006KT 5SM 26/23 RMK 60016 SLP077 T02550232 52003 IEM_DS3505
ZHHH,2000-07-02 09:00,ZHHH 020900Z AUTO 04004KT 7SM 26/24 RMK SLP051 T02640243 57026 IEM_DS3505
ZHHH,2000-07-02 12:00,ZHHH 021200Z AUTO 07002KT 6SM 26/25 RMK 60039 SLP058 T02630246 52007 IEM_DS3505
ZHHH,2000-07-02 15:00,ZHHH 021500Z AUTO 09002KT 7SM 27/25 RMK SLP058 T02660248 54000 IEM_DS3505
ZHHH,2000-07-02 18:00,ZHHH 021800Z AUTO 09002KT 8SM 27/24 RMK 60000 SLP048 T02700241 57010 IEM_DS3505
ZHHH,2000-07-02 21:00,ZHHH 022100Z AUTO 11004KT 9SM 27/24 RMK 70053 SLP042 T02690237 57006 IEM_DS3505
ZHHH,2000-07-03 00:00,ZHHH 030000Z AUTO 00000KT 8SM 28/24 RMK 70053 SLP049 T02750239 52007 IEM_DS3505
ZHHH,2000-07-03 03:00,ZHHH 030300Z AUTO 09004KT 7SM 28/25 RMK SLP055 T02770252 52006 IEM_DS3505
ZHHH,2000-07-03 06:00,ZHHH 030600Z AUTO 09002KT 8SM 30/25 RMK 60001 SLP044 T03040248 57010 IEM_DS3505
ZHHH,2000-07-03 09:00,ZHHH 030900Z AUTO 07004KT 7SM 31/26 RMK SLP027 T03080262 57017 IEM_DS3505
ZHHH,2000-07-03 12:00,ZHHH 031200Z AUTO 09002KT 7SM 30/26 RMK SLP041 T03010261 52014 IEM_DS3505
ZHHH,2000-07-03 15:00,ZHHH 031500Z AUTO 11002KT 7SM 28/24 RMK SLP040 T02790236 57002 IEM_DS3505
ZHHH,2000-07-03 18:00,ZHHH 031800Z AUTO 00000KT 9SM 26/24 RMK SLP034 T02650244 57005 IEM_DS3505
ZHHH,2000-07-03 21:00,ZHHH 032100Z AUTO 00000KT 9SM 26/25 RMK 70001 SLP030 T02630247 57004 IEM_DS3505
ZHHH,2000-07-04 00:00,ZHHH 040000Z AUTO 00000KT 9SM 28/26 RMK 70001 SLP038 T02830256 52008 IEM_DS3505
ZHHH,2000-07-04 03:00,ZHHH 040300Z AUTO 22002KT 11SM 31/25 RMK SLP038 T03120246 54000 IEM_DS3505
ZHHH,2000-07-04 06:00,ZHHH 040600Z AUTO 02002KT 9SM 33/23 RMK SLP027 T03320229 57011 IEM_DS3505
ZHHH,2000-07-04 09:00,ZHHH 040900Z AUTO 04002KT 9SM 33/25 RMK SLP013 T03290249 57014 IEM_DS3505
ZHHH,2000-07-04 12:00,ZHHH 041200Z AUTO 00000KT 9SM 31/25 RMK SLP023 T03120253 52010 IEM_DS3505
ZHHH,2000-07-04 15:00,ZHHH 041500Z AUTO 00000KT 9SM 30/26 RMK SLP033 T03000264 52010 IEM_DS3505
ZHHH,2000-07-04 18:00,ZHHH 041800Z AUTO 00000KT 8SM 29/27 RMK SLP028 T02880269 57005 IEM_DS3505
ZHHH,2000-07-05 00:00,ZHHH 050000Z AUTO 07004KT 11SM 30/25 RMK SLP040 T03030254 52008 IEM_DS3505
ZHHH,2000-07-05 03:00,ZHHH 050300Z AUTO 09002KT 12SM 33/26 RMK SLP041 T03310255 52001 IEM_DS3505
ZHHH,2000-07-05 06:00,ZHHH 050600Z AUTO 32002KT 12SM 34/24 RMK SLP031 T03450242 57010 IEM_DS3505
ZHHH,2000-07-05 09:00,ZHHH 050900Z AUTO 04002KT 11SM 34/24 RMK SLP021 T03450244 57010 IEM_DS3505
ZHHH,2000-07-05 12:00,ZHHH 051200Z AUTO 04004KT 9SM 30/24 RMK SLP032 T03030244 52011 IEM_DS3505
ZHHH,2000-07-05 15:00,ZHHH 051500Z AUTO 09002KT 9SM 28/23 RMK SLP042 T02820234 52010 IEM_DS3505
ZHHH,2000-07-05 18:00,ZHHH 051800Z AUTO 04002KT 9SM 28/24 RMK SLP038 T02750245 57004 IEM_DS3505
ZHHH,2000-07-05 21:00,ZHHH 052100Z AUTO 07002KT 9SM 27/24 RMK SLP040 T02710245 52002 IEM_DS3505
ZHHH,2000-07-06 00:00,ZHHH 060000Z AUTO 09002KT 12SM 30/25 RMK SLP048 T02980246 52008 IEM_DS3505
ZHHH,2000-07-06 03:00,ZHHH 060300Z AUTO 16002KT 14SM 33/24 RMK SLP050 T03290240 52002 IEM_DS3505
ZHHH,2000-07-06 06:00,ZHHH 060600Z AUTO 34004KT 12SM 32/26 RMK SLP030 T03230255 57020 IEM_DS3505
ZHHH,2000-07-06 09:00,ZHHH 060900Z AUTO 04006KT 12SM 33/25 RMK SLP022 T03270250 57008 IEM_DS3505
ZHHH,2000-07-06 12:00,ZHHH 061200Z AUTO 11002KT 9SM 29/24 RMK 60003 SLP030 T02870235 52008 IEM_DS3505
ZHHH,2000-07-06 15:00,ZHHH 061500Z AUTO 04002KT 9SM 27/24 RMK SLP035 T02740240 52005 IEM_DS3505
ZHHH,2000-07-06 18:00,ZHHH 061800Z AUTO 02004KT 12SM 27/24 RMK SLP037 T02690245 52002 IEM_DS3505
ZHHH,2000-07-06 21:00,ZHHH 062100Z AUTO 04002KT 12SM 27/25 RMK 70003 SLP033 T02670249 57004 IEM_DS3505
ZHHH,2000-07-07 00:00,ZHHH 070000Z AUTO 02002KT 11SM 28/25 RMK 70003 SLP040 T02760249 52006 IEM_DS3505
ZHHH,2000-07-07 03:00,ZHHH 070300Z AUTO 09002KT 11SM 30/25 RMK SLP038 T03040249 57001 IEM_DS3505
ZHHH,2000-07-07 06:00,ZHHH 070600Z AUTO 02004KT 14SM 32/25 RMK SLP019 T03230246 57019 IEM_DS3505
ZHHH,2000-07-07 09:00,ZHHH 070900Z AUTO 09004KT 12SM 33/25 RMK SLP001 T03330248 57018 IEM_DS3505
ZHHH,2000-07-07 12:00,ZHHH 071200Z AUTO 07004KT 6SM 31/26 RMK 60003 SLP016 T03130256 52015 IEM_DS3505
ZHHH,2000-07-07 15:00,ZHHH 071500Z AUTO 04006KT 9SM 29/25 RMK SLP028 T02860246 52012 IEM_DS3505
ZHHH,2000-07-07 18:00,ZHHH 071800Z AUTO 02002KT 6SM 28/25 RMK 60004 SLP025 T02800253 57003 IEM_DS3505
ZHHH,2000-07-07 21:00,ZHHH 072100Z AUTO 00000KT 6SM 27/24 RMK 70004 SLP021 T02700243 57004 IEM_DS3505
ZHHH,2000-07-08 00:00,ZHHH 080000Z AUTO 04002KT 11SM 28/23 RMK 70004 SLP031 T02800234 52010 IEM_DS3505
ZHHH,2000-07-08 03:00,ZHHH 080300Z AUTO 36002KT 11SM 32/23 RMK SLP030 T03150230 57001 IEM_DS3505
ZHHH,2000-07-08 06:00,ZHHH 080600Z AUTO 02004KT 11SM 33/22 RMK SLP016 T03330222 57014 IEM_DS3505
ZHHH,2000-07-08 09:00,ZHHH 080900Z AUTO 02002KT 11SM 34/22 RMK SLP002 T03390215 57014 IEM_DS3505
ZHHH,2000-07-08 12:00,ZHHH 081200Z AUTO 34002KT 9SM 32/24 RMK SLP007 T03230236 52005 IEM_DS3505
ZHHH,2000-07-08 15:00,ZHHH 081500Z AUTO 02004KT 9SM 30/23 RMK SLP020 T02980232 52013 IEM_DS3505
ZHHH,2000-07-08 18:00,ZHHH 081800Z AUTO 36002KT 9SM 28/23 RMK SLP015 T02770231 57005 IEM_DS3505
ZHHH,2000-07-08 21:00,ZHHH 082100Z AUTO 04004KT 9SM 26/23 RMK SLP018 T02650233 52003 IEM_DS3505
ZHHH,2000-07-09 00:00,ZHHH 090000Z AUTO 04002KT 11SM 28/22 RMK SLP030 T02790222 52012 IEM_DS3505
ZHHH,2000-07-09 03:00,ZHHH 090300Z AUTO 32002KT 12SM 31/22 RMK SLP030 T03110217 54000 IEM_DS3505
ZHHH,2000-07-09 06:00,ZHHH 090600Z AUTO 04006KT 16SM 33/23 RMK SLP020 T03300228 57010 IEM_DS3505
ZHHH,2000-07-09 09:00,ZHHH 090900Z AUTO 36004KT 16SM 34/20 RMK SLP010 T03410198 57010 IEM_DS3505
ZHHH,2000-07-09 12:00,ZHHH 091200Z AUTO 02004KT 11SM 31/23 RMK SLP018 T03140228 52008 IEM_DS3505
ZHHH,2000-07-09 15:00,ZHHH 091500Z AUTO 02004KT 11SM 29/23 RMK SLP033 T02860228 52015 IEM_DS3505
ZHHH,2000-07-09 18:00,ZHHH 091800Z AUTO 04002KT 11SM 27/23 RMK SLP029 T02720230 57004 IEM_DS3505
ZHHH,2000-07-09 21:00,ZHHH 092100Z AUTO 07004KT 11SM 26/22 RMK SLP035 T02610221 52006 IEM_DS3505
ZHHH,2000-07-10 00:00,ZHHH 100000Z AUTO 02004KT 12SM 28/22 RMK SLP046 T02750217 52011 IEM_DS3505
ZHHH,2000-07-10 03:00,ZHHH 100300Z AUTO 36004KT 12SM 30/22 RMK SLP052 T03040219 52006 IEM_DS3505
ZHHH,2000-07-10 06:00,ZHHH 100600Z AUTO 14004KT 12SM 32/22 RMK SLP041 T03220215 57011 IEM_DS3505
ZHHH,2000-07-10 09:00,ZHHH 100900Z AUTO 04004KT 12SM 33/22 RMK SLP031 T03280219 57010 IEM_DS3505
ZHHH,2000-07-10 12:00,ZHHH 101200Z AUTO 00000KT 12SM 31/22 RMK SLP042 T03120222 52011 IEM_DS3505
ZHHH,2000-07-10 15:00,ZHHH 101500Z AUTO 00000KT 9SM 29/24 RMK SLP061 T02910237 52019 IEM_DS3505
ZHHH,2000-07-10 18:00,ZHHH 101800Z AUTO 07002KT 11SM 28/24 RMK SLP060 T02790237 57001 IEM_DS3505
ZHHH,2000-07-10 21:00,ZHHH 102100Z AUTO 07002KT 11SM 27/23 RMK SLP061 T02670234 52001 IEM_DS3505
ZHHH,2000-07-11 00:00,ZHHH 110000Z AUTO 14002KT 14SM 29/24 RMK SLP074 T02900235 52013 IEM_DS3505
ZHHH,2000-07-11 03:00,ZHHH 110300Z AUTO 18002KT 16SM 32/22 RMK SLP078 T03180222 52004 IEM_DS3505
ZHHH,2000-07-11 06:00,ZHHH 110600Z AUTO 16004KT 14SM 35/22 RMK SLP066 T03470215 57012 IEM_DS3505
ZHHH,2000-07-11 09:00,ZHHH 110900Z AUTO 14004KT 12SM 35/23 RMK SLP053 T03470227 57013 IEM_DS3505
ZHHH,2000-07-11 12:00,ZHHH 111200Z AUTO 18002KT 12SM 33/24 RMK SLP063 T03320237 52010 IEM_DS3505
ZHHH,2000-07-11 15:00,ZHHH 111500Z AUTO 00000KT 12SM 32/26 RMK SLP069 T03160256 52006 IEM_DS3505
ZHHH,2000-07-11 18:00,ZHHH 111800Z AUTO 00000KT 9SM 31/23 RMK SLP063 T03120232 57006 IEM_DS3505
ZHHH,2000-07-11 21:00,ZHHH 112100Z AUTO 14002KT 9SM 30/25 RMK SLP057 T02950254 57006 IEM_DS3505
ZHHH,2000-07-12 00:00,ZHHH 120000Z AUTO 16004KT 9SM 30/25 RMK 60003 SLP066 T02980249 52009 IEM_DS3505
ZHHH,2000-07-12 03:00,ZHHH 120300Z AUTO 22006KT 12SM 33/26 RMK SLP069 T03290258 52003 IEM_DS3505
ZHHH,2000-07-12 06:00,ZHHH 120600Z AUTO 25006KT 16SM 35/24 RMK SLP053 T03500240 57016 IEM_DS3505
ZHHH,2000-07-12 09:00,ZHHH 120900Z AUTO 18004KT 11SM 35/23 RMK SLP038 T03460232 57015 IEM_DS3505
ZHHH,2000-07-12 12:00,ZHHH 121200Z AUTO 00000KT 12SM 33/25 RMK SLP044 T03290249 52006 IEM_DS3505
ZHHH,2000-07-12 15:00,ZHHH 121500Z AUTO 14002KT 11SM 32/26 RMK SLP043 T03170256 57001 IEM_DS3505
ZHHH,2000-07-12 18:00,ZHHH 121800Z AUTO 14002KT 9SM 30/27 RMK SLP033 T02990266 57010 IEM_DS3505
ZHHH,2000-07-12 21:00,ZHHH 122100Z AUTO 18002KT 9SM 30/24 RMK 70003 SLP022 T02970243 57011 IEM_DS3505
ZHHH,2000-07-13 00:00,ZHHH 130000Z AUTO 22004KT 9SM 31/23 RMK SLP029 T03070232 52007 IEM_DS3505
ZHHH,2000-07-13 03:00,ZHHH 130300Z AUTO 22008KT 12SM 34/23 RMK SLP032 T03440231 52003 IEM_DS3505
ZHHH,2000-07-13 06:00,ZHHH 130600Z AUTO 22008KT 14SM 36/24 RMK SLP022 T03580243 57010 IEM_DS3505
ZHHH,2000-07-13 09:00,ZHHH 130900Z AUTO 25006KT 14SM 35/24 RMK SLP012 T03490237 57010 IEM_DS3505
ZHHH,2000-07-13 12:00,ZHHH 131200Z AUTO 25004KT 11SM 33/24 RMK SLP011 T03260241 57001 IEM_DS3505
ZHHH,2000-07-13 15:00,ZHHH 131500Z AUTO 27002KT 9SM 32/23 RMK SLP017 T03190233 52006 IEM_DS3505
ZHHH,2000-07-13 18:00,ZHHH 131800Z AUTO 20002KT 9SM 30/23 RMK SLP006 T03040234 57011 IEM_DS3505
ZHHH,2000-07-13 21:00,ZHHH 132100Z AUTO 16002KT 9SM 30/23 RMK SLP009 T02950233 52003 IEM_DS3505
ZHHH,2000-07-14 00:00,ZHHH 140000Z AUTO 22002KT 12SM 32/23 RMK SLP018 T03150234 52009 IEM_DS3505
ZHHH,2000-07-14 03:00,ZHHH 140300Z AUTO 22002KT 14SM 35/24 RMK SLP021 T03510237 52003 IEM_DS3505
ZHHH,2000-07-14 06:00,ZHHH 140600Z AUTO 22006KT 12SM 36/23 RMK SLP012 T03640232 57009 IEM_DS3505
ZHHH,2000-07-14 09:00,ZHHH 140900Z AUTO 25004KT 12SM 36/24 RMK SLP998 T03600239 57014 IEM_DS3505
ZHHH,2000-07-14 12:00,ZHHH 141200Z AUTO 20002KT 12SM 33/25 RMK SLP006 T03320251 52008 IEM_DS3505
ZHHH,2000-07-14 15:00,ZHHH 141500Z AUTO 04002KT 11SM 32/26 RMK SLP013 T03180260 52007 IEM_DS3505
ZHHH,2000-07-14 18:00,ZHHH 141800Z AUTO 18002KT 12SM 30/26 RMK SLP003 T03050256 57010 IEM_DS3505
ZHHH,2000-07-14 21:00,ZHHH 142100Z AUTO 11002KT 12SM 30/24 RMK SLP003 T03000239 54000 IEM_DS3505
ZHHH,2000-07-15 00:00,ZHHH 150000Z AUTO 11002KT 11SM 32/24 RMK SLP020 T03170240 52017 IEM_DS3505
ZHHH,2000-07-15 03:00,ZHHH 150300Z AUTO 25004KT 11SM 36/23 RMK SLP029 T03560228 52009 IEM_DS3505
ZHHH,2000-07-15 06:00,ZHHH 150600Z AUTO 20006KT 12SM 37/21 RMK SLP018 T03690211 57011 IEM_DS3505
ZHHH,2000-07-15 09:00,ZHHH 150900Z AUTO 27004KT 12SM 37/22 RMK SLP001 T03720225 57017 IEM_DS3505
ZHHH,2000-07-15 12:00,ZHHH 151200Z AUTO 00000KT 11SM 35/24 RMK SLP014 T03480236 52013 IEM_DS3505
ZHHH,2000-07-15 18:00,ZHHH 151800Z AUTO 11002KT 11SM 32/25 RMK SLP019 T03180254 57009 IEM_DS3505
ZHHH,2000-07-16 00:00,ZHHH 160000Z AUTO 14004KT 16SM 33/24 RMK SLP029 T03300238 52010 IEM_DS3505
ZHHH,2000-07-16 03:00,ZHHH 160300Z AUTO 14004KT 16SM 36/23 RMK SLP032 T03600234 52003 IEM_DS3505
ZHHH,2000-07-16 06:00,ZHHH 160600Z AUTO 22004KT 11SM 38/24 RMK SLP021 T03840235 57011 IEM_DS3505
ZHHH,2000-07-16 09:00,ZHHH 160900Z AUTO 22002KT 11SM 39/23 RMK SLP007 T03890234 57014 IEM_DS3505
ZHHH,2000-07-16 12:00,ZHHH 161200Z AUTO 09002KT 11SM 36/25 RMK SLP005 T03550251 57002 IEM_DS3505
ZHHH,2000-07-16 15:00,ZHHH 161500Z AUTO 14002KT 11SM 34/24 RMK SLP020 T03400241 52015 IEM_DS3505
ZHHH,2000-07-16 18:00,ZHHH 161800Z AUTO 11004KT 12SM 33/23 RMK SLP007 T03270234 57013 IEM_DS3505
ZHHH,2000-07-16 21:00,ZHHH 162100Z AUTO 09004KT 12SM 32/22 RMK SLP003 T03160223 57004 IEM_DS3505
ZHHH,2000-07-17 00:00,ZHHH 170000Z AUTO 14004KT 12SM 33/24 RMK SLP014 T03260236 52011 IEM_DS3505
ZHHH,2000-07-17 03:00,ZHHH 170300Z AUTO 09002KT 14SM 36/24 RMK SLP012 T03590244 57002 IEM_DS3505
ZHHH,2000-07-17 06:00,ZHHH 170600Z AUTO 27004KT 12SM 37/25 RMK SLP994 T03720249 57018 IEM_DS3505
ZHHH,2000-07-17 09:00,ZHHH 170900Z AUTO 07002KT 12SM 37/25 RMK SLP975 T03700251 57019 IEM_DS3505
ZHHH,2000-07-17 12:00,ZHHH 171200Z AUTO 00000KT 9SM 34/26 RMK 60003 SLP979 T03440256 52004 IEM_DS3505
ZHHH,2000-07-17 15:00,ZHHH 171500Z AUTO 00000KT 11SM 32/24 RMK SLP992 T03180243 52013 IEM_DS3505
ZHHH,2000-07-17 18:00,ZHHH 171800Z AUTO 04002KT 9SM 31/26 RMK SLP985 T03070258 57007 IEM_DS3505
ZHHH,2000-07-17 21:00,ZHHH 172100Z AUTO 00000KT 9SM 30/26 RMK 70003 SLP985 T03050255 54000 IEM_DS3505
ZHHH,2000-07-18 00:00,ZHHH 180000Z AUTO 09002KT 12SM 31/25 RMK 70003 SLP994 T03140254 52009 IEM_DS3505
ZHHH,2000-07-18 03:00,ZHHH 180300Z AUTO 11004KT 12SM 33/25 RMK SLP999 T03270247 52005 IEM_DS3505
ZHHH,2000-07-18 06:00,ZHHH 180600Z AUTO 11004KT 12SM 34/24 RMK SLP980 T03440238 57019 IEM_DS3505
ZHHH,2000-07-18 09:00,ZHHH 180900Z AUTO 36004KT 6SM 30/24 RMK SLP971 T02960244 57009 IEM_DS3505
ZHHH,2000-07-18 12:00,ZHHH 181200Z AUTO 00000KT 9SM 29/26 RMK 60008 SLP976 T02910258 52005 IEM_DS3505
ZHHH,2000-07-18 15:00,ZHHH 181500Z AUTO 18002KT 9SM 31/24 RMK SLP989 T03070243 52013 IEM_DS3505
ZHHH,2000-07-18 18:00,ZHHH 181800Z AUTO 09004KT 9SM 30/24 RMK SLP983 T02960236 57006 IEM_DS3505
ZHHH,2000-07-18 21:00,ZHHH 182100Z AUTO 04004KT 9SM 29/24 RMK 70008 SLP975 T02860240 57008 IEM_DS3505
ZHHH,2000-07-19 00:00,ZHHH 190000Z AUTO 04002KT 9SM 28/25 RMK 70008 SLP985 T02820247 52010 IEM_DS3505
ZHHH,2000-07-19 03:00,ZHHH 190300Z AUTO 11004KT 11SM 32/24 RMK SLP986 T03160241 52001 IEM_DS3505
ZHHH,2000-07-19 06:00,ZHHH 190600Z AUTO 16004KT 12SM 33/24 RMK SLP978 T03260235 57008 IEM_DS3505
ZHHH,2000-07-19 09:00,ZHHH 190900Z AUTO 22002KT 11SM 28/24 RMK SLP979 T02750245 52001 IEM_DS3505
ZHHH,2000-07-19 12:00,ZHHH 191200Z AUTO 07002KT 6SM 27/25 RMK 60016 SLP993 T02660252 52014 IEM_DS3505
ZHHH,2000-07-19 15:00,ZHHH 191500Z AUTO 22002KT 7SM 27/25 RMK SLP011 T02700253 52018 IEM_DS3505
ZHHH,2000-07-19 18:00,ZHHH 191800Z AUTO 11002KT 6SM 26/25 RMK 60002 SLP010 T02620246 57001 IEM_DS3505
ZHHH,2000-07-19 21:00,ZHHH 192100Z AUTO 14002KT 6SM 26/25 RMK 70016 SLP015 T02650247 52004 IEM_DS3505
ZHHH,2000-07-20 00:00,ZHHH 200000Z AUTO 16002KT 7SM 27/25 RMK 60002 SLP027 T02700252 52012 IEM_DS3505
ZHHH,2000-07-20 03:00,ZHHH 200300Z AUTO 20004KT 9SM 29/25 RMK SLP039 T02910253 52012 IEM_DS3505
ZHHH,2000-07-20 06:00,ZHHH 200600Z AUTO 16006KT 9SM 33/25 RMK 60024 SLP036 T03270247 57002 IEM_DS3505
ZHHH,2000-07-20 12:00,ZHHH 201200Z AUTO 00000KT 12SM 31/25 RMK 60008 SLP043 T03090252 52012 IEM_DS3505
ZHHH,2000-07-20 15:00,ZHHH 201500Z AUTO 09002KT 12SM 29/25 RMK SLP059 T02920253 52016 IEM_DS3505
ZHHH,2000-07-20 18:00,ZHHH 201800Z AUTO 00000KT 9SM 29/25 RMK SLP048 T02860248 57011 IEM_DS3505
ZHHH,2000-07-20 21:00,ZHHH 202100Z AUTO 00000KT 9SM 28/25 RMK 70029 SLP052 T02820247 52004 IEM_DS3505
ZHHH,2000-07-21 00:00,ZHHH 210000Z AUTO 14004KT 14SM 30/24 RMK 70028 SLP065 T03040245 52013 IEM_DS3505
ZHHH,2000-07-21 03:00,ZHHH 210300Z AUTO 16006KT 16SM 32/24 RMK SLP069 T03250240 52004 IEM_DS3505
ZHHH,2000-07-21 06:00,ZHHH 210600Z AUTO 20006KT 16SM 34/24 RMK SLP058 T03410239 57011 IEM_DS3505
ZHHH,2000-07-21 09:00,ZHHH 210900Z AUTO 20004KT 16SM 35/23 RMK SLP036 T03490232 57022 IEM_DS3505
ZHHH,2000-07-21 12:00,ZHHH 211200Z AUTO 25002KT 11SM 32/25 RMK SLP040 T03230250 52004 IEM_DS3505
ZHHH,2000-07-21 15:00,ZHHH 211500Z AUTO 25002KT 9SM 31/25 RMK SLP051 T03110251 52011 IEM_DS3505
ZHHH,2000-07-21 18:00,ZHHH 211800Z AUTO 25002KT 9SM 30/24 RMK SLP040 T03000240 57011 IEM_DS3505
ZHHH,2000-07-21 21:00,ZHHH 212100Z AUTO 16002KT 11SM 29/24 RMK SLP033 T02860242 57007 IEM_DS3505
ZHHH,2000-07-22 00:00,ZHHH 220000Z AUTO 25004KT 14SM 30/24 RMK SLP035 T03040242 52002 IEM_DS3505
ZHHH,2000-07-22 03:00,ZHHH 220300Z AUTO 16004KT 14SM 33/25 RMK SLP034 T03270250 57001 IEM_DS3505
ZHHH,2000-07-22 06:00,ZHHH 220600Z AUTO 20006KT 16SM 34/25 RMK SLP023 T03440248 57011 IEM_DS3505
ZHHH,2000-07-22 09:00,ZHHH 220900Z AUTO 20004KT 16SM 35/24 RMK SLP006 T03490239 57017 IEM_DS3505
ZHHH,2000-07-22 12:00,ZHHH 221200Z AUTO 25004KT 12SM 32/25 RMK SLP010 T03240251 52004 IEM_DS3505
ZHHH,2000-07-22 15:00,ZHHH 221500Z AUTO 20004KT 11SM 31/24 RMK SLP018 T03120241 52008 IEM_DS3505
ZHHH,2000-07-22 18:00,ZHHH 221800Z AUTO 22002KT 11SM 30/24 RMK SLP006 T03000237 57012 IEM_DS3505
ZHHH,2000-07-22 21:00,ZHHH 222100Z AUTO 20004KT 11SM 29/24 RMK SLP996 T02900236 57010 IEM_DS3505
ZHHH,2000-07-23 00:00,ZHHH 230000Z AUTO 18002KT 11SM 30/24 RMK SLP000 T03020235 52004 IEM_DS3505
ZHHH,2000-07-23 03:00,ZHHH 230300Z AUTO 18004KT 12SM 33/24 RMK SLP000 T03260241 54000 IEM_DS3505
ZHHH,2000-07-23 06:00,ZHHH 230600Z AUTO 16006KT 12SM 35/25 RMK SLP993 T03470251 57007 IEM_DS3505
ZHHH,2000-07-23 09:00,ZHHH 230900Z AUTO 22004KT 12SM 34/25 RMK SLP983 T03390250 57010 IEM_DS3505
ZHHH,2000-07-23 12:00,ZHHH 231200Z AUTO 27002KT 11SM 32/26 RMK SLP985 T03230255 52002 IEM_DS3505
ZHHH,2000-07-23 15:00,ZHHH 231500Z AUTO 00000KT 9SM 31/25 RMK SLP995 T03140250 52010 IEM_DS3505
ZHHH,2000-07-23 18:00,ZHHH 231800Z AUTO 00000KT 11SM 30/26 RMK SLP986 T03020255 57009 IEM_DS3505
ZHHH,2000-07-23 21:00,ZHHH 232100Z AUTO 16002KT 11SM 30/25 RMK SLP989 T02960248 52003 IEM_DS3505
ZHHH,2000-07-24 00:00,ZHHH 240000Z AUTO 16002KT 11SM 32/24 RMK SLP998 T03170239 52009 IEM_DS3505
ZHHH,2000-07-24 03:00,ZHHH 240300Z AUTO 22004KT 11SM 34/24 RMK SLP004 T03450244 52006 IEM_DS3505
ZHHH,2000-07-24 06:00,ZHHH 240600Z AUTO 22004KT 16SM 35/25 RMK SLP999 T03530252 57005 IEM_DS3505
ZHHH,2000-07-24 09:00,ZHHH 240900Z AUTO 27004KT 16SM 36/26 RMK SLP983 T03560255 57016 IEM_DS3505
ZHHH,2000-07-24 12:00,ZHHH 241200Z AUTO 27002KT 12SM 33/26 RMK SLP994 T03270259 52011 IEM_DS3505
ZHHH,2000-07-24 15:00,ZHHH 241500Z AUTO 00000KT 9SM 32/25 RMK SLP999 T03230253 52005 IEM_DS3505
ZHHH,2000-07-24 18:00,ZHHH 241800Z AUTO 16002KT 9SM 32/25 RMK SLP998 T03160253 57001 IEM_DS3505
ZHHH,2000-07-24 21:00,ZHHH 242100Z AUTO 14002KT 9SM 31/26 RMK SLP998 T03110255 54000 IEM_DS3505
ZHHH,2000-07-25 00:00,ZHHH 250000Z AUTO 22004KT 11SM 32/26 RMK SLP009 T03200262 52011 IEM_DS3505
ZHHH,2000-07-25 03:00,ZHHH 250300Z AUTO 25004KT 12SM 35/25 RMK SLP005 T03480249 57004 IEM_DS3505
ZHHH,2000-07-25 06:00,ZHHH 250600Z AUTO 25004KT 11SM 37/25 RMK SLP987 T03670246 57018 IEM_DS3505
ZHHH,2000-07-25 09:00,ZHHH 250900Z AUTO 29004KT 11SM 37/24 RMK SLP978 T03670241 57009 IEM_DS3505
ZHHH,2000-07-25 12:00,ZHHH 251200Z AUTO 27004KT 12SM 34/25 RMK SLP985 T03400249 52007 IEM_DS3505
ZHHH,2000-07-25 15:00,ZHHH 251500Z AUTO 18002KT 12SM 32/27 RMK SLP000 T03240268 52015 IEM_DS3505
ZHHH,2000-07-25 18:00,ZHHH 251800Z AUTO 14002KT 9SM 31/27 RMK SLP990 T03130269 57010 IEM_DS3505
ZHHH,2000-07-25 21:00,ZHHH 252100Z AUTO 16004KT 9SM 30/26 RMK SLP990 T03050262 54000 IEM_DS3505
ZHHH,2000-07-26 00:00,ZHHH 260000Z AUTO 11004KT 12SM 32/25 RMK SLP002 T03190250 52012 IEM_DS3505
ZHHH,2000-07-26 03:00,ZHHH 260300Z AUTO 20004KT 14SM 35/26 RMK SLP001 T03500256 57001 IEM_DS3505
ZHHH,2000-07-26 06:00,ZHHH 260600Z AUTO 16004KT 14SM 37/26 RMK SLP980 T03660264 57021 IEM_DS3505
ZHHH,2000-07-26 09:00,ZHHH 260900Z AUTO 27006KT 12SM 34/26 RMK SLP970 T03400260 57010 IEM_DS3505
ZHHH,2000-07-26 12:00,ZHHH 261200Z AUTO 14002KT 6SM 31/27 RMK 60012 SLP983 T03070270 52013 IEM_DS3505
ZHHH,2000-07-26 15:00,ZHHH 261500Z AUTO 07002KT 7SM 29/26 RMK SLP997 T02940264 52014 IEM_DS3505
ZHHH,2000-07-26 18:00,ZHHH 261800Z AUTO 02004KT 9SM 30/26 RMK 60003 SLP980 T02980265 57017 IEM_DS3505
ZHHH,2000-07-26 21:00,ZHHH 262100Z AUTO 00000KT 9SM 30/26 RMK 70011 SLP977 T02980262 57003 IEM_DS3505
ZHHH,2000-07-27 00:00,ZHHH 270000Z AUTO 14004KT 16SM 32/26 RMK 70011 SLP982 T03150261 52005 IEM_DS3505
ZHHH,2000-07-27 03:00,ZHHH 270300Z AUTO 20004KT 16SM 35/26 RMK SLP985 T03490264 52003 IEM_DS3505
ZHHH,2000-07-27 06:00,ZHHH 270600Z AUTO 16004KT 16SM 37/27 RMK SLP970 T03730266 57015 IEM_DS3505
ZHHH,2000-07-27 09:00,ZHHH 270900Z AUTO 27002KT 12SM 36/26 RMK SLP959 T03560263 57011 IEM_DS3505
ZHHH,2000-07-27 12:00,ZHHH 271200Z AUTO 00000KT 12SM 34/28 RMK SLP963 T03440278 52004 IEM_DS3505
ZHHH,2000-07-27 15:00,ZHHH 271500Z AUTO 18002KT 11SM 34/27 RMK SLP980 T03360269 52017 IEM_DS3505
ZHHH,2000-07-27 18:00,ZHHH 271800Z AUTO 00000KT 9SM 32/28 RMK SLP977 T03230280 57003 IEM_DS3505
ZHHH,2000-07-27 21:00,ZHHH 272100Z AUTO 00000KT 9SM 31/28 RMK SLP971 T03140276 57006 IEM_DS3505
ZHHH,2000-07-28 00:00,ZHHH 280000Z AUTO 14002KT 7SM 32/29 RMK SLP990 T03210286 52019 IEM_DS3505
ZHHH,2000-07-28 03:00,ZHHH 280300Z AUTO 27004KT 9SM 34/27 RMK SLP003 T03450272 52013 IEM_DS3505
ZHHH,2000-07-28 06:00,ZHHH 280600Z AUTO 27006KT 11SM 35/28 RMK SLP987 T03530282 57016 IEM_DS3505
ZHHH,2000-07-28 09:00,ZHHH 280900Z AUTO 34006KT 9SM 29/27 RMK SLP980 T02870266 57007 IEM_DS3505
ZHHH,2000-07-28 12:00,ZHHH 281200Z AUTO 36002KT 9SM 29/26 RMK 60051 SLP993 T02900262 52013 IEM_DS3505
ZHHH,2000-07-28 15:00,ZHHH 281500Z AUTO 34002KT 11SM 29/26 RMK SLP009 T02900262 52016 IEM_DS3505
ZHHH,2000-07-28 18:00,ZHHH 281800Z AUTO 29002KT 9SM 28/26 RMK SLP997 T02790259 57012 IEM_DS3505
ZHHH,2000-07-28 21:00,ZHHH 282100Z AUTO 00000KT 9SM 28/26 RMK 70053 SLP997 T02750261 54000 IEM_DS3505
ZHHH,2000-07-29 00:00,ZHHH 290000Z AUTO 36004KT 11SM 30/26 RMK 70053 SLP009 T02950256 52012 IEM_DS3505
ZHHH,2000-07-29 03:00,ZHHH 290300Z AUTO 34004KT 11SM 31/26 RMK SLP016 T03110257 52007 IEM_DS3505
ZHHH,2000-07-29 06:00,ZHHH 290600Z AUTO 36006KT 11SM 33/25 RMK 60003 SLP997 T03300250 57019 IEM_DS3505
ZHHH,2000-07-29 09:00,ZHHH 290900Z AUTO 32004KT 11SM 31/22 RMK SLP005 T03070223 52008 IEM_DS3505
ZHHH,2000-07-29 12:00,ZHHH 291200Z AUTO 32002KT 9SM 29/23 RMK SLP020 T02860228 52015 IEM_DS3505
ZHHH,2000-07-29 15:00,ZHHH 291500Z AUTO 34002KT 9SM 27/23 RMK SLP025 T02740231 52005 IEM_DS3505
ZHHH,2000-07-29 18:00,ZHHH 291800Z AUTO 27002KT 9SM 27/23 RMK SLP022 T02660230 57003 IEM_DS3505
ZHHH,2000-07-29 21:00,ZHHH 292100Z AUTO 27002KT 9SM 26/23 RMK 70003 SLP020 T02560230 57002 IEM_DS3505
ZHHH,2000-07-30 00:00,ZHHH 300000Z AUTO 27004KT 11SM 26/23 RMK 70003 SLP032 T02650232 52011 IEM_DS3505
ZHHH,2000-07-30 03:00,ZHHH 300300Z AUTO 29004KT 12SM 30/20 RMK SLP033 T03000198 52002 IEM_DS3505
ZHHH,2000-07-30 06:00,ZHHH 300600Z AUTO 25004KT 12SM 32/21 RMK SLP018 T03230210 57015 IEM_DS3505
ZHHH,2000-07-30 09:00,ZHHH 300900Z AUTO 25004KT 12SM 32/21 RMK SLP013 T03200206 57005 IEM_DS3505
ZHHH,2000-07-30 12:00,ZHHH 301200Z AUTO 27004KT 12SM 30/22 RMK SLP018 T03050220 52005 IEM_DS3505
ZHHH,2000-07-30 15:00,ZHHH 301500Z AUTO 25004KT 11SM 28/23 RMK SLP032 T02800232 52014 IEM_DS3505
ZHHH,2000-07-30 18:00,ZHHH 301800Z AUTO 27002KT 12SM 26/24 RMK SLP032 T02650238 54000 IEM_DS3505
ZHHH,2000-07-30 21:00,ZHHH 302100Z AUTO 27002KT 12SM 26/24 RMK SLP032 T02570241 54000 IEM_DS3505
ZHHH,2000-07-31 00:00,ZHHH 310000Z AUTO 27002KT 16SM 27/24 RMK SLP040 T02740241 52008 IEM_DS3505
ZHHH,2000-07-31 03:00,ZHHH 310300Z AUTO 22002KT 16SM 31/22 RMK SLP040 T03140223 54000 IEM_DS3505
ZHHH,2000-07-31 06:00,ZHHH 310600Z AUTO 29004KT 16SM 34/20 RMK SLP025 T03430195 57015 IEM_DS3505
ZHHH,2000-07-31 09:00,ZHHH 310900Z AUTO 32002KT 16SM 35/19 RMK SLP015 T03470189 57010 IEM_DS3505
ZHHH,2000-07-31 12:00,ZHHH 311200Z AUTO 00000KT 11SM 32/22 RMK SLP020 T03170219 52005 IEM_DS3505
ZHHH,2000-07-31 15:00,ZHHH 311500Z AUTO 00000KT 9SM 30/24 RMK SLP039 T02970237 52019 IEM_DS3505
ZHHH,2000-07-31 18:00,ZHHH 311800Z AUTO 00000KT 9SM 29/24 RMK SLP039 T02910238 54000 IEM_DS3505
ZHHH,2000-07-31 21:00,ZHHH 312100Z AUTO 00000KT 9SM 28/25 RMK SLP039 T02790251 54000 IEM_DS3505
ZHHH,2000-08-01 00:00,ZHHH 010000Z AUTO 00000KT 7SM 29/24 RMK SLP050 T02930239 52011 IEM_DS3505
ZHHH,2000-08-01 03:00,ZHHH 010300Z AUTO 09002KT 11SM 34/19 RMK SLP050 T03350187 54000 IEM_DS3505
ZHHH,2000-08-01 06:00,ZHHH 010600Z AUTO 27004KT 12SM 36/18 RMK SLP039 T03620182 57011 IEM_DS3505
ZHHH,2000-08-01 09:00,ZHHH 010900Z AUTO 27002KT 12SM 35/18 RMK SLP027 T03540183 57012 IEM_DS3505
ZHHH,2000-08-01 12:00,ZHHH 011200Z AUTO 00000KT 9SM 33/21 RMK SLP030 T03290206 52003 IEM_DS3505
ZHHH,2000-08-01 15:00,ZHHH 011500Z AUTO 14002KT 9SM 32/17 RMK SLP043 T03190171 52013 IEM_DS3505
ZHHH,2000-08-01 18:00,ZHHH 011800Z AUTO 00000KT 11SM 30/21 RMK SLP044 T03010212 52001 IEM_DS3505
ZHHH,2000-08-01 21:00,ZHHH 012100Z AUTO 00000KT 11SM 28/23 RMK SLP041 T02770232 57003 IEM_DS3505
ZHHH,2000-08-02 00:00,ZHHH 020000Z AUTO 04002KT 11SM 31/19 RMK SLP044 T03090191 52003 IEM_DS3505
ZHHH,2000-08-02 03:00,ZHHH 020300Z AUTO 07004KT 12SM 33/20 RMK SLP044 T03340195 54000 IEM_DS3505
ZHHH,2000-08-02 06:00,ZHHH 020600Z AUTO 07004KT 11SM 34/22 RMK SLP025 T03390222 57019 IEM_DS3505
ZHHH,2000-08-02 09:00,ZHHH 020900Z AUTO 07004KT 11SM 34/22 RMK SLP017 T03360225 57008 IEM_DS3505
ZHHH,2000-08-02 12:00,ZHHH 021200Z AUTO 04002KT 9SM 32/24 RMK SLP026 T03180237 52009 IEM_DS3505
ZHHH,2000-08-02 15:00,ZHHH 021500Z AUTO 02002KT 9SM 29/23 RMK SLP036 T02930233 52010 IEM_DS3505
ZHHH,2000-08-02 18:00,ZHHH 021800Z AUTO 32004KT 6SM 28/24 RMK 60003 SLP034 T02780236 57002 IEM_DS3505
ZHHH,2000-08-02 21:00,ZHHH 022100Z AUTO 32004KT 2 1/2SM 25/24 RMK 70052 SLP034 T02460237 54000 IEM_DS3505
ZHHH,2000-08-03 00:00,ZHHH 030000Z AUTO 04004KT 7SM 24/22 RMK 60063 SLP042 T02450223 52007 IEM_DS3505
ZHHH,2000-08-03 03:00,ZHHH 030300Z AUTO 04004KT 6SM 24/23 RMK SLP051 T02390227 52009 IEM_DS3505
ZHHH,2000-08-03 06:00,ZHHH 030600Z AUTO 04004KT 6SM 24/23 RMK 60091 SLP046 T02380229 57005 IEM_DS3505
ZHHH,2000-08-03 09:00,ZHHH 030900Z AUTO 02004KT 6SM 24/23 RMK SLP042 T02360229 57004 IEM_DS3505
ZHHH,2000-08-03 12:00,ZHHH 031200Z AUTO 07002KT 5SM 24/24 RMK 60028 SLP048 T02410237 52006 IEM_DS3505
ZHHH,2000-08-03 15:00,ZHHH 031500Z AUTO 04002KT 5SM 24/24 RMK SLP052 T02450239 52004 IEM_DS3505
ZHHH,2000-08-03 18:00,ZHHH 031800Z AUTO 04002KT 6SM 24/23 RMK 60028 SLP051 T02390233 57001 IEM_DS3505
ZHHH,2000-08-03 21:00,ZHHH 032100Z AUTO 07002KT 6SM 24/23 RMK 70163 SLP048 T02430233 57003 IEM_DS3505
ZHHH,2000-08-04 00:00,ZHHH 040000Z AUTO 00000KT 7SM 26/24 RMK 60008 SLP059 T02550239 52011 IEM_DS3505
ZHHH,2000-08-04 03:00,ZHHH 040300Z AUTO 07004KT 9SM 29/23 RMK SLP063 T02900232 52004 IEM_DS3505
ZHHH,2000-08-04 06:00,ZHHH 040600Z AUTO 04004KT 9SM 27/23 RMK 60003 SLP056 T02740229 57007 IEM_DS3505
ZHHH,2000-08-04 09:00,ZHHH 040900Z AUTO 02004KT 9SM 29/25 RMK SLP053 T02880248 57003 IEM_DS3505
ZHHH,2000-08-04 12:00,ZHHH 041200Z AUTO 04002KT 9SM 28/25 RMK SLP058 T02780254 52005 IEM_DS3505
ZHHH,2000-08-04 15:00,ZHHH 041500Z AUTO 04002KT 9SM 27/26 RMK SLP066 T02700255 52008 IEM_DS3505
ZHHH,2000-08-04 18:00,ZHHH 041800Z AUTO 04002KT 8SM 27/25 RMK SLP064 T02670254 57002 IEM_DS3505
ZHHH,2000-08-04 21:00,ZHHH 042100Z AUTO 09002KT 8SM 26/25 RMK 70003 SLP064 T02640253 54000 IEM_DS3505
ZHHH,2000-08-05 00:00,ZHHH 050000Z AUTO 09002KT 5SM 27/25 RMK 70003 SLP072 T02710254 52008 IEM_DS3505
ZHHH,2000-08-05 03:00,ZHHH 050300Z AUTO 14002KT 6SM 31/24 RMK SLP074 T03070239 52002 IEM_DS3505
ZHHH,2000-08-05 06:00,ZHHH 050600Z AUTO 02004KT 9SM 33/24 RMK SLP058 T03290240 57015 IEM_DS3505
ZHHH,2000-08-05 09:00,ZHHH 050900Z AUTO 02004KT 9SM 33/23 RMK SLP050 T03290230 57008 IEM_DS3505
ZHHH,2000-08-05 12:00,ZHHH 051200Z AUTO 07004KT 8SM 30/26 RMK SLP061 T03000258 52010 IEM_DS3505
ZHHH,2000-08-05 15:00,ZHHH 051500Z AUTO 32002KT 9SM 28/26 RMK SLP072 T02850258 52012 IEM_DS3505
ZHHH,2000-08-05 18:00,ZHHH 051800Z AUTO 00000KT 9SM 28/26 RMK SLP071 T02770255 57001 IEM_DS3505
ZHHH,2000-08-05 21:00,ZHHH 052100Z AUTO 07002KT 9SM 27/25 RMK SLP067 T02700253 57004 IEM_DS3505
ZHHH,2000-08-06 00:00,ZHHH 060000Z AUTO 04004KT 12SM 28/25 RMK SLP078 T02810254 52010 IEM_DS3505
ZHHH,2000-08-06 03:00,ZHHH 060300Z AUTO 34002KT 11SM 31/26 RMK SLP080 T03110255 52003 IEM_DS3505
ZHHH,2000-08-06 06:00,ZHHH 060600Z AUTO 04004KT 9SM 33/26 RMK SLP067 T03280265 57013 IEM_DS3505
ZHHH,2000-08-06 09:00,ZHHH 060900Z AUTO 04004KT 9SM 32/26 RMK SLP058 T03160258 57009 IEM_DS3505
ZHHH,2000-08-06 12:00,ZHHH 061200Z AUTO 11004KT 4SM 26/25 RMK 60161 SLP084 T02550251 52025 IEM_DS3505
ZHHH,2000-08-06 15:00,ZHHH 061500Z AUTO 07002KT 7SM 26/25 RMK SLP083 T02630253 57001 IEM_DS3505
ZHHH,2000-08-06 18:00,ZHHH 061800Z AUTO 00000KT 8SM 27/26 RMK 60008 SLP076 T02680258 57006 IEM_DS3505
ZHHH,2000-08-06 21:00,ZHHH 062100Z AUTO 00000KT 8SM 27/26 RMK 70169 SLP075 T02660256 57002 IEM_DS3505
ZHHH,2000-08-07 00:00,ZHHH 070000Z AUTO 07004KT 7SM 27/26 RMK 70169 SLP085 T02700255 52010 IEM_DS3505
ZHHH,2000-08-07 03:00,ZHHH 070300Z AUTO 04002KT 7SM 28/26 RMK SLP083 T02830264 57002 IEM_DS3505
ZHHH,2000-08-07 06:00,ZHHH 070600Z AUTO 04002KT 9SM 33/27 RMK SLP067 T03270272 57015 IEM_DS3505
ZHHH,2000-08-07 09:00,ZHHH 070900Z AUTO 02004KT 9SM 33/26 RMK SLP058 T03290258 57009 IEM_DS3505
ZHHH,2000-08-07 12:00,ZHHH 071200Z AUTO 00000KT 7SM 30/25 RMK SLP068 T03030251 52009 IEM_DS3505
ZHHH,2000-08-07 15:00,ZHHH 071500Z AUTO 00000KT 7SM 28/25 RMK SLP079 T02800247 52011 IEM_DS3505
ZHHH,2000-08-07 18:00,ZHHH 071800Z AUTO 00000KT 12SM 28/25 RMK SLP073 T02750251 57005 IEM_DS3505
ZHHH,2000-08-07 21:00,ZHHH 072100Z AUTO 00000KT 12SM 27/25 RMK SLP071 T02690253 57002 IEM_DS3505
ZHHH,2000-08-08 00:00,ZHHH 080000Z AUTO 25002KT 16SM 29/25 RMK SLP084 T02880248 52012 IEM_DS3505
ZHHH,2000-08-08 03:00,ZHHH 080300Z AUTO 16002KT 16SM 32/25 RMK SLP085 T03170247 52002 IEM_DS3505
ZHHH,2000-08-08 06:00,ZHHH 080600Z AUTO 27002KT 16SM 33/26 RMK SLP064 T03310261 57021 IEM_DS3505
ZHHH,2000-08-08 09:00,ZHHH 080900Z AUTO 27002KT 16SM 34/26 RMK SLP049 T03430260 57015 IEM_DS3505
ZHHH,2000-08-08 12:00,ZHHH 081200Z AUTO 18004KT 12SM 32/26 RMK SLP064 T03220264 52015 IEM_DS3505
ZHHH,2000-08-08 15:00,ZHHH 081500Z AUTO 14002KT 11SM 28/25 RMK SLP069 T02850251 52005 IEM_DS3505
ZHHH,2000-08-08 18:00,ZHHH 081800Z AUTO 14002KT 9SM 28/25 RMK SLP063 T02750247 57006 IEM_DS3505
ZHHH,2000-08-08 21:00,ZHHH 082100Z AUTO 16002KT 9SM 28/25 RMK SLP057 T02770250 57006 IEM_DS3505
ZHHH,2000-08-09 00:00,ZHHH 090000Z AUTO 11002KT 11SM 29/25 RMK SLP070 T02930246 52013 IEM_DS3505
ZHHH,2000-08-09 03:00,ZHHH 090300Z AUTO 18004KT 11SM 32/26 RMK SLP064 T03240256 57006 IEM_DS3505
ZHHH,2000-08-09 06:00,ZHHH 090600Z AUTO 25004KT 12SM 34/26 RMK SLP045 T03430263 57019 IEM_DS3505
ZHHH,2000-08-09 09:00,ZHHH 090900Z AUTO 22004KT 12SM 34/26 RMK SLP030 T03450261 57015 IEM_DS3505
ZHHH,2000-08-09 12:00,ZHHH 091200Z AUTO 29004KT 11SM 31/27 RMK SLP046 T03110270 52016 IEM_DS3505
ZHHH,2000-08-09 15:00,ZHHH 091500Z AUTO 00000KT 9SM 30/26 RMK SLP047 T03050256 52001 IEM_DS3505
ZHHH,2000-08-09 18:00,ZHHH 091800Z AUTO 00000KT 7SM 29/26 RMK SLP036 T02940258 57011 IEM_DS3505
ZHHH,2000-08-09 21:00,ZHHH 092100Z AUTO 16002KT 7SM 29/26 RMK SLP035 T02900258 57001 IEM_DS3505
ZHHH,2000-08-10 03:00,ZHHH 100300Z AUTO 04002KT 12SM 34/27 RMK SLP041 T03380270 54000 IEM_DS3505
ZHHH,2000-08-10 06:00,ZHHH 100600Z AUTO 22002KT 11SM 35/26 RMK SLP020 T03490255 57021 IEM_DS3505
ZHHH,2000-08-10 09:00,ZHHH 100900Z AUTO 34002KT 11SM 34/28 RMK SLP007 T03390275 57013 IEM_DS3505
ZHHH,2000-08-10 15:00,ZHHH 101500Z AUTO 00000KT 11SM 30/26 RMK SLP018 T02980265 52006 IEM_DS3505
ZHHH,2000-08-10 18:00,ZHHH 101800Z AUTO 00000KT 9SM 29/27 RMK SLP008 T02920270 57010 IEM_DS3505
ZHHH,2000-08-10 21:00,ZHHH 102100Z AUTO 04002KT 9SM 28/26 RMK 70003 SLP009 T02820261 52001 IEM_DS3505
ZHHH,2000-08-11 00:00,ZHHH 110000Z AUTO 04004KT 12SM 29/26 RMK 70003 SLP015 T02870258 52006 IEM_DS3505
ZHHH,2000-08-11 09:00,ZHHH 110900Z AUTO 34004KT 12SM 33/27 RMK SLP996 T03260267 57011 IEM_DS3505
ZHHH,2000-08-11 12:00,ZHHH 111200Z AUTO 36002KT 11SM 31/23 RMK SLP009 T03100229 52013 IEM_DS3505
ZHHH,2000-08-11 15:00,ZHHH 111500Z AUTO 36002KT 11SM RMK IEM_DS3505
ZHHH,2000-08-11 18:00,ZHHH 111800Z AUTO 34002KT 9SM 28/26 RMK SLP016 T02810264 57009 IEM_DS3505
ZHHH,2000-08-11 21:00,ZHHH 112100Z AUTO 32002KT 9SM 28/26 RMK SLP018 T02790262 52002 IEM_DS3505
ZHHH,2000-08-12 00:00,ZHHH 120000Z AUTO 34002KT 9SM 29/26 RMK SLP027 T02870263 52009 IEM_DS3505
ZHHH,2000-08-12 03:00,ZHHH 120300Z AUTO 34006KT 11SM 31/26 RMK SLP029 T03110263 52002 IEM_DS3505
ZHHH,2000-08-12 06:00,ZHHH 120600Z AUTO 32004KT 12SM 33/25 RMK SLP019 T03290249 57010 IEM_DS3505
ZHHH,2000-08-12 09:00,ZHHH 120900Z AUTO 34004KT 11SM 33/26 RMK SLP007 T03270256 57012 IEM_DS3505
ZHHH,2000-08-12 12:00,ZHHH 121200Z AUTO 27002KT 11SM 32/26 RMK SLP024 T03170259 52017 IEM_DS3505
ZHHH,2000-08-12 15:00,ZHHH 121500Z AUTO 29002KT 11SM 30/26 RMK SLP027 T03000264 52003 IEM_DS3505
ZHHH,2000-08-12 18:00,ZHHH 121800Z AUTO 02002KT 9SM 29/26 RMK SLP027 T02900265 54000 IEM_DS3505
ZHHH,2000-08-12 21:00,ZHHH 122100Z AUTO 27004KT 9SM 28/26 RMK SLP030 T02790262 52003 IEM_DS3505
ZHHH,2000-08-13 00:00,ZHHH 130000Z AUTO 27002KT 12SM 28/26 RMK SLP041 T02850263 52011 IEM_DS3505
ZHHH,2000-08-13 03:00,ZHHH 130300Z AUTO 34002KT 12SM 32/27 RMK SLP037 T03170266 57004 IEM_DS3505
ZHHH,2000-08-13 06:00,ZHHH 130600Z AUTO 27004KT 12SM 33/27 RMK SLP023 T03340270 57014 IEM_DS3505
ZHHH,2000-08-13 09:00,ZHHH 130900Z AUTO 29006KT 12SM 34/27 RMK SLP010 T03400269 57013 IEM_DS3505
ZHHH,2000-08-13 12:00,ZHHH 131200Z AUTO 25002KT 7SM 30/26 RMK 60003 SLP025 T02960257 52015 IEM_DS3505
ZHHH,2000-08-13 15:00,ZHHH 131500Z AUTO 27002KT 9SM 30/27 RMK SLP039 T02960268 52014 IEM_DS3505
ZHHH,2000-08-13 18:00,ZHHH 131800Z AUTO 00000KT 11SM 29/27 RMK SLP036 T02920271 57003 IEM_DS3505
ZHHH,2000-08-13 21:00,ZHHH 132100Z AUTO 04002KT 11SM 28/26 RMK 70003 SLP031 T02850260 57005 IEM_DS3505
ZHHH,2000-08-14 00:00,ZHHH 140000Z AUTO 32002KT 11SM 30/26 RMK 70003 SLP037 T02980261 52006 IEM_DS3505
ZHHH,2000-08-14 03:00,ZHHH 140300Z AUTO 32002KT 12SM 32/26 RMK SLP036 T03160261 57001 IEM_DS3505
ZHHH,2000-08-14 06:00,ZHHH 140600Z AUTO 34004KT 12SM 33/26 RMK SLP024 T03310258 57012 IEM_DS3505
ZHHH,2000-08-14 09:00,ZHHH 140900Z AUTO 34002KT 11SM 34/25 RMK SLP006 T03350253 57018 IEM_DS3505
ZHHH,2000-08-14 12:00,ZHHH 141200Z AUTO 29004KT 11SM 32/26 RMK SLP018 T03220257 52012 IEM_DS3505
ZHHH,2000-08-14 15:00,ZHHH 141500Z AUTO 34002KT 9SM 31/26 RMK SLP031 T03100256 52013 IEM_DS3505
ZHHH,2000-08-14 21:00,ZHHH 142100Z AUTO 29002KT 9SM 29/27 RMK SLP024 T02890270 52004 IEM_DS3505
ZHHH,2000-08-15 00:00,ZHHH 150000Z AUTO 00000KT 11SM 30/27 RMK SLP032 T03030270 52008 IEM_DS3505
ZHHH,2000-08-15 03:00,ZHHH 150300Z AUTO 00000KT 11SM 32/26 RMK SLP037 T03210263 52005 IEM_DS3505
ZHHH,2000-08-15 06:00,ZHHH 150600Z AUTO 27002KT 12SM 33/26 RMK SLP019 T03310261 57018 IEM_DS3505
ZHHH,2000-08-15 09:00,ZHHH 150900Z AUTO 29004KT 11SM 32/27 RMK SLP011 T03200271 57008 IEM_DS3505
ZHHH,2000-08-15 12:00,ZHHH 151200Z AUTO 36002KT 11SM 29/26 RMK 60003 SLP016 T02860255 52005 IEM_DS3505
ZHHH,2000-08-15 15:00,ZHHH 151500Z AUTO 27002KT 9SM 27/25 RMK SLP023 T02710253 52007 IEM_DS3505
ZHHH,2000-08-15 18:00,ZHHH 151800Z AUTO 27004KT 9SM 27/24 RMK SLP024 T02670238 52001 IEM_DS3505
ZHHH,2000-08-15 21:00,ZHHH 152100Z AUTO 00000KT 9SM 26/24 RMK 70003 SLP017 T02650244 57007 IEM_DS3505
ZHHH,2000-08-16 00:00,ZHHH 160000Z AUTO 00000KT 7SM 27/25 RMK 70003 SLP031 T02680247 52013 IEM_DS3505
ZHHH,2000-08-16 03:00,ZHHH 160300Z AUTO 27004KT 9SM 29/25 RMK SLP041 T02880254 52010 IEM_DS3505
ZHHH,2000-08-16 06:00,ZHHH 160600Z AUTO 36002KT 11SM 32/25 RMK SLP012 T03220254 57028 IEM_DS3505
ZHHH,2000-08-16 09:00,ZHHH 160900Z AUTO 27002KT 12SM 34/24 RMK SLP009 T03370241 57003 IEM_DS3505
ZHHH,2000-08-16 12:00,ZHHH 161200Z AUTO 11002KT 9SM 31/26 RMK SLP023 T03120262 52014 IEM_DS3505
ZHHH,2000-08-16 15:00,ZHHH 161500Z AUTO 09002KT 9SM 29/25 RMK SLP035 T02900254 52012 IEM_DS3505
ZHHH,2000-08-16 18:00,ZHHH 161800Z AUTO 00000KT 9SM 28/26 RMK SLP038 T02810256 52003 IEM_DS3505
ZHHH,2000-08-16 21:00,ZHHH 162100Z AUTO 00000KT 7SM 28/26 RMK SLP041 T02780256 52003 IEM_DS3505
ZHHH,2000-08-17 00:00,ZHHH 170000Z AUTO 16002KT 7SM 28/26 RMK SLP054 T02800260 52013 IEM_DS3505
ZHHH,2000-08-17 03:00,ZHHH 170300Z AUTO 00000KT 5SM 28/25 RMK SLP059 T02790254 52004 IEM_DS3505
ZHHH,2000-08-17 06:00,ZHHH 170600Z AUTO 32002KT 6SM 31/27 RMK 60059 SLP046 T03140269 57012 IEM_DS3505
ZHHH,2000-08-17 09:00,ZHHH 170900Z AUTO 27002KT 7SM 31/26 RMK SLP033 T03110263 57013 IEM_DS3505
ZHHH,2000-08-17 12:00,ZHHH 171200Z AUTO 02002KT 8SM 29/25 RMK SLP052 T02860251 52018 IEM_DS3505
ZHHH,2000-08-17 15:00,ZHHH 171500Z AUTO 09002KT 8SM 28/25 RMK SLP062 T02770250 52010 IEM_DS3505
ZHHH,2000-08-17 18:00,ZHHH 171800Z AUTO 00000KT 11SM 27/24 RMK SLP053 T02740243 57008 IEM_DS3505
ZHHH,2000-08-17 21:00,ZHHH 172100Z AUTO 00000KT 9SM 27/25 RMK 70060 SLP053 T02680248 54000 IEM_DS3505
ZHHH,2000-08-18 00:00,ZHHH 180000Z AUTO 00000KT 7SM 28/26 RMK 70060 SLP073 T02810260 52019 IEM_DS3505
ZHHH,2000-08-18 03:00,ZHHH 180300Z AUTO 27002KT 11SM 31/26 RMK SLP068 T03120264 57004 IEM_DS3505
ZHHH,2000-08-18 09:00,ZHHH 180900Z AUTO 27004KT 9SM 31/26 RMK SLP046 T03080262 57011 IEM_DS3505
ZHHH,2000-08-18 12:00,ZHHH 181200Z AUTO 04004KT 7SM 30/26 RMK SLP055 T02970265 52009 IEM_DS3505
ZHHH,2000-08-18 15:00,ZHHH 181500Z AUTO 04004KT 7SM 28/25 RMK SLP058 T02780253 52003 IEM_DS3505
ZHHH,2000-08-18 18:00,ZHHH 181800Z AUTO 09002KT 8SM 28/26 RMK SLP044 T02750257 57014 IEM_DS3505
ZHHH,2000-08-18 21:00,ZHHH 182100Z AUTO 20002KT 5SM 26/25 RMK 70039 SLP043 T02550248 57002 IEM_DS3505
ZHHH,2000-08-19 00:00,ZHHH 190000Z AUTO 27002KT 6SM 26/25 RMK 60067 SLP050 T02570250 52007 IEM_DS3505
ZHHH,2000-08-19 03:00,ZHHH 190300Z AUTO 02002KT 6SM 27/26 RMK SLP052 T02690255 52002 IEM_DS3505
ZHHH,2000-08-19 06:00,ZHHH 190600Z AUTO 29002KT 5SM 26/25 RMK 60075 SLP045 T02600249 57007 IEM_DS3505
ZHHH,2000-08-19 09:00,ZHHH 190900Z AUTO 32004KT 6SM 26/24 RMK SLP044 T02610242 57001 IEM_DS3505
ZHHH,2000-08-19 12:00,ZHHH 191200Z AUTO 34004KT 6SM 26/24 RMK 60000 SLP052 T02560242 52008 IEM_DS3505
ZHHH,2000-08-19 15:00,ZHHH 191500Z AUTO 29002KT 7SM 25/24 RMK SLP058 T02500240 52006 IEM_DS3505
ZHHH,2000-08-19 18:00,ZHHH 191800Z AUTO 32002KT 7SM 25/24 RMK SLP060 T02510237 52002 IEM_DS3505
ZHHH,2000-08-19 21:00,ZHHH 192100Z AUTO 32002KT 7SM 25/24 RMK 70102 SLP066 T02460239 52006 IEM_DS3505
ZHHH,2000-08-20 00:00,ZHHH 200000Z AUTO 34004KT 7SM 26/24 RMK 70075 SLP077 T02550242 52011 IEM_DS3505
ZHHH,2000-08-20 03:00,ZHHH 200300Z AUTO 36004KT 9SM 29/24 RMK SLP079 T02860239 52002 IEM_DS3505
ZHHH,2000-08-20 06:00,ZHHH 200600Z AUTO 02004KT 12SM 31/22 RMK SLP069 T03090223 57017 IEM_DS3505
ZHHH,2000-08-20 09:00,ZHHH 200900Z AUTO 04002KT 12SM 32/22 RMK SLP055 T03160223 57014 IEM_DS3505
ZHHH,2000-08-20 12:00,ZHHH 201200Z AUTO 04004KT 11SM 29/23 RMK SLP066 T02870226 52011 IEM_DS3505
ZHHH,2000-08-20 15:00,ZHHH 201500Z AUTO 00000KT 11SM 26/22 RMK SLP083 T02650224 52017 IEM_DS3505
ZHHH,2000-08-20 18:00,ZHHH 201800Z AUTO 04002KT 17SM 25/22 RMK SLP080 T02530217 57003 IEM_DS3505
ZHHH,2000-08-20 21:00,ZHHH 202100Z AUTO 04002KT 11SM 25/22 RMK SLP082 T02460218 52002 IEM_DS3505
ZHHH,2000-08-21 00:00,ZHHH 210000Z AUTO 04002KT 11SM 25/21 RMK SLP092 T02510214 52010 IEM_DS3505
ZHHH,2000-08-21 03:00,ZHHH 210300Z AUTO 04002KT 12SM 30/23 RMK SLP095 T02980230 52003 IEM_DS3505
ZHHH,2000-08-21 06:00,ZHHH 210600Z AUTO 09002KT 12SM 31/22 RMK SLP085 T03130225 57010 IEM_DS3505
ZHHH,2000-08-21 09:00,ZHHH 210900Z AUTO 07004KT 12SM 31/22 RMK SLP076 T03130218 57009 IEM_DS3505
ZHHH,2000-08-21 12:00,ZHHH 211200Z AUTO 00000KT 11SM 29/22 RMK SLP080 T02920219 52004 IEM_DS3505
ZHHH,2000-08-21 15:00,ZHHH 211500Z AUTO 00000KT 9SM 28/25 RMK SLP094 T02770247 52014 IEM_DS3505
ZHHH,2000-08-21 18:00,ZHHH 211800Z AUTO 07002KT 9SM 26/23 RMK SLP092 T02640226 57002 IEM_DS3505
ZHHH,2000-08-21 21:00,ZHHH 212100Z AUTO 07002KT 9SM 25/22 RMK SLP089 T02480223 57003 IEM_DS3505
ZHHH,2000-08-22 00:00,ZHHH 220000Z AUTO 09002KT 11SM 26/22 RMK SLP100 T02570223 52011 IEM_DS3505
ZHHH,2000-08-22 03:00,ZHHH 220300Z AUTO 09004KT 12SM 31/21 RMK SLP101 T03120208 52001 IEM_DS3505
ZHHH,2000-08-22 06:00,ZHHH 220600Z AUTO 02004KT 9SM 32/20 RMK SLP087 T03210202 57014 IEM_DS3505
ZHHH,2000-08-22 09:00,ZHHH 220900Z AUTO 02002KT 11SM 33/18 RMK SLP076 T03270185 57011 IEM_DS3505
ZHHH,2000-08-22 12:00,ZHHH 221200Z AUTO 02002KT 11SM 30/22 RMK SLP084 T03000219 52008 IEM_DS3505
ZHHH,2000-08-22 15:00,ZHHH 221500Z AUTO 00000KT 11SM 27/20 RMK SLP093 T02680201 52009 IEM_DS3505
ZHHH,2000-08-22 18:00,ZHHH 221800Z AUTO 04002KT 11SM 26/20 RMK SLP077 T02550198 57016 IEM_DS3505
ZHHH,2000-08-22 21:00,ZHHH 222100Z AUTO 00000KT 11SM 24/22 RMK SLP074 T02410216 57003 IEM_DS3505
ZHHH,2000-08-23 00:00,ZHHH 230000Z AUTO 00000KT 14SM 26/22 RMK SLP086 T02570222 52012 IEM_DS3505
ZHHH,2000-08-23 03:00,ZHHH 230300Z AUTO 36006KT 16SM 30/24 RMK SLP079 T03050243 57007 IEM_DS3505
ZHHH,2000-08-23 06:00,ZHHH 230600Z AUTO 32004KT 14SM 32/25 RMK SLP059 T03250248 57019 IEM_DS3505
ZHHH,2000-08-23 09:00,ZHHH 230900Z AUTO 04006KT 12SM 32/25 RMK SLP044 T03180251 57016 IEM_DS3505
ZHHH,2000-08-23 12:00,ZHHH 231200Z AUTO 36006KT 7SM 29/25 RMK SLP049 T02930246 52005 IEM_DS3505
ZHHH,2000-08-23 15:00,ZHHH 231500Z AUTO 34002KT 7SM 27/25 RMK SLP042 T02740246 57006 IEM_DS3505
ZHHH,2000-08-23 18:00,ZHHH 231800Z AUTO 07002KT 9SM 27/24 RMK SLP028 T02710244 57014 IEM_DS3505
ZHHH,2000-08-23 21:00,ZHHH 232100Z AUTO 02002KT 9SM 26/24 RMK SLP024 T02640244 57004 IEM_DS3505
ZHHH,2000-08-24 00:00,ZHHH 240000Z AUTO 04004KT 17SM 28/25 RMK SLP030 T02830248 52006 IEM_DS3505
ZHHH,2000-08-24 03:00,ZHHH 240300Z AUTO 02004KT 16SM 32/25 RMK SLP026 T03170254 57004 IEM_DS3505
ZHHH,2000-08-24 06:00,ZHHH 240600Z AUTO 36002KT 11SM 32/24 RMK 60003 SLP001 T03180243 57025 IEM_DS3505
ZHHH,2000-08-24 09:00,ZHHH 240900Z AUTO 34008KT 9SM 30/25 RMK SLP992 T03030250 57009 IEM_DS3505
ZHHH,2000-08-24 12:00,ZHHH 241200Z AUTO 36004KT 9SM 28/24 RMK 60008 SLP009 T02790240 52017 IEM_DS3505
ZHHH,2000-08-24 15:00,ZHHH 241500Z AUTO 36004KT 9SM 27/25 RMK SLP017 T02730246 52008 IEM_DS3505
ZHHH,2000-08-24 18:00,ZHHH 241800Z AUTO 34004KT 7SM 26/24 RMK SLP013 T02640243 57004 IEM_DS3505
ZHHH,2000-08-24 21:00,ZHHH 242100Z AUTO 34006KT 7SM 26/24 RMK 70007 SLP020 T02640241 52007 IEM_DS3505
ZHHH,2000-08-25 00:00,ZHHH 250000Z AUTO 32006KT 9SM 26/23 RMK 70007 SLP039 T02600232 52018 IEM_DS3505
ZHHH,2000-08-25 03:00,ZHHH 250300Z AUTO 36006KT 11SM 28/23 RMK SLP047 T02780233 52008 IEM_DS3505
ZHHH,2000-08-25 06:00,ZHHH 250600Z AUTO 04008KT 12SM 29/23 RMK SLP040 T02910233 57007 IEM_DS3505
ZHHH,2000-08-25 09:00,ZHHH 250900Z AUTO 36006KT 11SM 28/23 RMK SLP038 T02830229 57002 IEM_DS3505
ZHHH,2000-08-25 12:00,ZHHH 251200Z AUTO 36002KT 11SM 27/23 RMK SLP047 T02730229 52009 IEM_DS3505
ZHHH,2000-08-25 15:00,ZHHH 251500Z AUTO 36002KT 11SM 26/23 RMK SLP056 T02640227 52009 IEM_DS3505
ZHHH,2000-08-25 18:00,ZHHH 251800Z AUTO 32002KT 9SM 25/23 RMK SLP054 T02470231 57002 IEM_DS3505
ZHHH,2000-08-25 21:00,ZHHH 252100Z AUTO 04002KT 9SM 25/23 RMK SLP051 T02530231 57003 IEM_DS3505
ZHHH,2000-08-26 00:00,ZHHH 260000Z AUTO 36002KT 11SM 26/22 RMK SLP062 T02610224 52011 IEM_DS3505
ZHHH,2000-08-26 03:00,ZHHH 260300Z AUTO 36004KT 11SM 30/22 RMK SLP066 T03000215 52004 IEM_DS3505
ZHHH,2000-08-26 06:00,ZHHH 260600Z AUTO 36004KT 12SM 32/20 RMK SLP053 T03170204 57013 IEM_DS3505
ZHHH,2000-08-26 09:00,ZHHH 260900Z AUTO 04004KT 12SM 32/20 RMK SLP040 T03180198 57012 IEM_DS3505
ZHHH,2000-08-26 12:00,ZHHH 261200Z AUTO 00000KT 11SM 29/22 RMK SLP058 T02920225 52017 IEM_DS3505
ZHHH,2000-08-26 15:00,ZHHH 261500Z AUTO 00000KT 11SM 28/22 RMK SLP065 T02750221 52007 IEM_DS3505
ZHHH,2000-08-26 18:00,ZHHH 261800Z AUTO 00000KT 9SM 26/22 RMK SLP062 T02570220 57003 IEM_DS3505
ZHHH,2000-08-26 21:00,ZHHH 262100Z AUTO 36002KT 9SM 25/22 RMK SLP061 T02490218 57001 IEM_DS3505
ZHHH,2000-08-27 00:00,ZHHH 270000Z AUTO 02002KT 14SM 27/22 RMK SLP071 T02670221 52010 IEM_DS3505
ZHHH,2000-08-27 03:00,ZHHH 270300Z AUTO 04004KT 14SM 29/21 RMK SLP074 T02900213 52003 IEM_DS3505
ZHHH,2000-08-27 06:00,ZHHH 270600Z AUTO 34002KT 9SM 29/21 RMK SLP067 T02920210 57007 IEM_DS3505
ZHHH,2000-08-27 09:00,ZHHH 270900Z AUTO 04004KT 9SM 28/23 RMK SLP059 T02800232 57008 IEM_DS3505
ZHHH,2000-08-27 12:00,ZHHH 271200Z AUTO 36004KT 9SM 27/23 RMK 60003 SLP062 T02740232 52003 IEM_DS3505
ZHHH,2000-08-27 15:00,ZHHH 271500Z AUTO 04002KT 9SM 26/23 RMK SLP075 T02640231 52013 IEM_DS3505
ZHHH,2000-08-27 18:00,ZHHH 271800Z AUTO 04004KT 7SM 26/23 RMK 60003 SLP077 T02580229 52002 IEM_DS3505
ZHHH,2000-08-27 21:00,ZHHH 272100Z AUTO 02002KT 9SM 25/23 RMK 70003 SLP069 T02530231 57008 IEM_DS3505
ZHHH,2000-08-28 00:00,ZHHH 280000Z AUTO 36002KT 9SM 26/23 RMK 70003 SLP077 T02590234 52008 IEM_DS3505
ZHHH,2000-08-28 03:00,ZHHH 280300Z AUTO 02006KT 11SM 30/23 RMK SLP082 T02990234 52005 IEM_DS3505
ZHHH,2000-08-28 06:00,ZHHH 280600Z AUTO 02006KT 14SM 32/22 RMK SLP069 T03160218 57013 IEM_DS3505
ZHHH,2000-08-28 09:00,ZHHH 280900Z AUTO 04004KT 12SM 32/22 RMK SLP059 T03210217 57010 IEM_DS3505
ZHHH,2000-08-28 12:00,ZHHH 281200Z AUTO 02006KT 11SM 28/21 RMK SLP065 T02810213 52006 IEM_DS3505
ZHHH,2000-08-28 15:00,ZHHH 281500Z AUTO 04002KT 11SM 26/20 RMK SLP077 T02550205 52012 IEM_DS3505
ZHHH,2000-08-28 18:00,ZHHH 281800Z AUTO 04004KT 11SM 25/20 RMK SLP072 T02460205 57005 IEM_DS3505
ZHHH,2000-08-28 21:00,ZHHH 282100Z AUTO 02002KT 11SM 24/21 RMK SLP070 T02420209 57002 IEM_DS3505
ZHHH,2000-08-29 00:00,ZHHH 290000Z AUTO 02002KT 14SM 25/21 RMK SLP073 T02540212 52003 IEM_DS3505
ZHHH,2000-08-29 03:00,ZHHH 290300Z AUTO 02006KT 14SM 27/21 RMK SLP074 T02700209 52001 IEM_DS3505
ZHHH,2000-08-29 06:00,ZHHH 290600Z AUTO 02006KT 11SM 27/22 RMK SLP064 T02660216 57010 IEM_DS3505
ZHHH,2000-08-29 09:00,ZHHH 290900Z AUTO 02004KT 11SM 26/22 RMK SLP051 T02550216 57013 IEM_DS3505
ZHHH,2000-08-29 12:00,ZHHH 291200Z AUTO 32004KT 9SM 24/22 RMK 60003 SLP049 T02440223 57002 IEM_DS3505
ZHHH,2000-08-29 15:00,ZHHH 291500Z AUTO 36004KT 7SM 24/22 RMK SLP056 T02430225 52007 IEM_DS3505
ZHHH,2000-08-29 18:00,ZHHH 291800Z AUTO 34004KT 7SM 24/23 RMK 60003 SLP045 T02380226 57011 IEM_DS3505
ZHHH,2000-08-29 21:00,ZHHH 292100Z AUTO 34002KT 7SM 24/23 RMK 70003 SLP032 T02370227 57013 IEM_DS3505
ZHHH,2000-08-30 00:00,ZHHH 300000Z AUTO 34002KT 9SM 25/23 RMK 70003 SLP037 T02480233 52005 IEM_DS3505
ZHHH,2000-08-30 03:00,ZHHH 300300Z AUTO 32004KT 9SM 26/24 RMK SLP039 T02610242 52002 IEM_DS3505
ZHHH,2000-08-30 06:00,ZHHH 300600Z AUTO 34006KT 12SM 27/23 RMK SLP019 T02730234 57020 IEM_DS3505
ZHHH,2000-08-30 09:00,ZHHH 300900Z AUTO 32004KT 12SM 29/24 RMK SLP007 T02860237 57012 IEM_DS3505
ZHHH,2000-08-30 12:00,ZHHH 301200Z AUTO 34002KT 9SM 27/23 RMK SLP012 T02740234 52005 IEM_DS3505
ZHHH,2000-08-30 15:00,ZHHH 301500Z AUTO 00000KT 9SM 26/23 RMK SLP017 T02580233 52005 IEM_DS3505
ZHHH,2000-08-30 18:00,ZHHH 301800Z AUTO 32004KT 11SM 25/22 RMK SLP015 T02460222 57002 IEM_DS3505
ZHHH,2000-08-30 21:00,ZHHH 302100Z AUTO 34002KT 11SM 24/22 RMK SLP013 T02400221 57002 IEM_DS3505
ZHHH,2000-08-31 00:00,ZHHH 310000Z AUTO 32004KT 16SM 25/22 RMK SLP029 T02500225 52016 IEM_DS3505
ZHHH,2000-08-31 03:00,ZHHH 310300Z AUTO 36004KT 16SM 28/22 RMK SLP036 T02810219 52007 IEM_DS3505
ZHHH,2000-08-31 06:00,ZHHH 310600Z AUTO 32004KT 14SM 30/22 RMK SLP030 T02980222 57006 IEM_DS3505
ZHHH,2000-08-31 09:00,ZHHH 310900Z AUTO 34004KT 14SM 30/22 RMK SLP025 T03040223 57005 IEM_DS3505
ZHHH,2000-08-31 12:00,ZHHH 311200Z AUTO 32002KT 12SM 29/23 RMK SLP031 T02860231 52006 IEM_DS3505
ZHHH,2000-08-31 15:00,ZHHH 311500Z AUTO 04002KT 12SM 27/22 RMK SLP046 T02690224 52015 IEM_DS3505
ZHHH,2000-08-31 18:00,ZHHH 311800Z AUTO 00000KT 9SM 26/23 RMK SLP042 T02570229 57004 IEM_DS3505
ZHHH,2000-08-31 21:00,ZHHH 312100Z AUTO 00000KT 9SM 25/22 RMK SLP045 T02490224 52003 IEM_DS3505
ZHHH,2000-09-01 00:00,ZHHH 010000Z AUTO 00000KT 11SM 26/22 RMK SLP054 T02600223 52009 IEM_DS3505
ZHHH,2000-09-01 03:00,ZHHH 010300Z AUTO 04002KT 12SM 30/23 RMK SLP059 T03030231 52005 IEM_DS3505
ZHHH,2000-09-01 06:00,ZHHH 010600Z AUTO 04004KT 16SM 32/22 RMK SLP039 T03220222 57019 IEM_DS3505
ZHHH,2000-09-01 09:00,ZHHH 010900Z AUTO 09004KT 11SM 32/22 RMK SLP026 T03250222 57013 IEM_DS3505
ZHHH,2000-09-01 12:00,ZHHH 011200Z AUTO 00000KT 12SM 31/23 RMK SLP030 T03110232 52004 IEM_DS3505
ZHHH,2000-09-01 15:00,ZHHH 011500Z AUTO 09002KT 9SM 29/24 RMK SLP032 T02920241 52002 IEM_DS3505
ZHHH,2000-09-01 18:00,ZHHH 011800Z AUTO 00000KT 9SM 29/25 RMK SLP033 T02860246 52001 IEM_DS3505
ZHHH,2000-09-01 21:00,ZHHH 012100Z AUTO 02004KT 9SM 27/24 RMK SLP032 T02740243 57001 IEM_DS3505
ZHHH,2000-09-02 00:00,ZHHH 020000Z AUTO 04004KT 11SM 28/24 RMK SLP037 T02770241 52005 IEM_DS3505
ZHHH,2000-09-02 03:00,ZHHH 020300Z AUTO 09004KT 11SM 32/24 RMK SLP033 T03240245 57004 IEM_DS3505
ZHHH,2000-09-02 06:00,ZHHH 020600Z AUTO 11004KT 11SM 33/24 RMK 60003 SLP019 T03300243 57014 IEM_DS3505
ZHHH,2000-09-02 09:00,ZHHH 020900Z AUTO 04006KT 7SM 29/24 RMK SLP024 T02910243 52005 IEM_DS3505
ZHHH,2000-09-02 12:00,ZHHH 021200Z AUTO 04002KT 7SM 28/26 RMK 60004 SLP028 T02820260 52003 IEM_DS3505
ZHHH,2000-09-02 15:00,ZHHH 021500Z AUTO 09004KT 9SM 29/24 RMK SLP047 T02910243 52020 IEM_DS3505
ZHHH,2000-09-02 18:00,ZHHH 021800Z AUTO 00000KT 12SM 27/25 RMK SLP054 T02710247 52007 IEM_DS3505
ZHHH,2000-09-02 21:00,ZHHH 022100Z AUTO 00000KT 9SM 27/25 RMK 70005 SLP064 T02670247 52009 IEM_DS3505
ZHHH,2000-09-03 00:00,ZHHH 030000Z AUTO 00000KT 14SM 28/26 RMK 70005 SLP081 T02810259 52017 IEM_DS3505
ZHHH,2000-09-03 03:00,ZHHH 030300Z AUTO 14002KT 16SM 33/25 RMK SLP083 T03270253 52003 IEM_DS3505
ZHHH,2000-09-03 06:00,ZHHH 030600Z AUTO 00000KT 11SM 35/23 RMK SLP073 T03510230 57010 IEM_DS3505
ZHHH,2000-09-03 09:00,ZHHH 030900Z AUTO 04002KT 11SM 35/24 RMK SLP061 T03510236 57012 IEM_DS3505
ZHHH,2000-09-03 12:00,ZHHH 031200Z AUTO 34002KT 9SM 32/25 RMK SLP071 T03230253 52010 IEM_DS3505
ZHHH,2000-09-03 15:00,ZHHH 031500Z AUTO 36002KT 9SM 30/26 RMK SLP078 T03030258 52007 IEM_DS3505
ZHHH,2000-09-03 18:00,ZHHH 031800Z AUTO 00000KT 9SM 29/26 RMK SLP076 T02880263 57002 IEM_DS3505
ZHHH,2000-09-03 21:00,ZHHH 032100Z AUTO 00000KT 9SM 28/26 RMK SLP073 T02770264 57003 IEM_DS3505
ZHHH,2000-09-04 00:00,ZHHH 040000Z AUTO 04004KT 12SM 29/26 RMK SLP078 T02910265 52005 IEM_DS3505
ZHHH,2000-09-04 03:00,ZHHH 040300Z AUTO 18002KT 12SM 34/27 RMK SLP076 T03390269 57002 IEM_DS3505
ZHHH,2000-09-04 06:00,ZHHH 040600Z AUTO 09002KT 6SM 31/25 RMK 60003 SLP059 T03130247 57017 IEM_DS3505
ZHHH,2000-09-04 09:00,ZHHH 040900Z AUTO 27004KT 9SM 33/26 RMK SLP043 T03330263 57016 IEM_DS3505
ZHHH,2000-09-04 12:00,ZHHH 041200Z AUTO 07002KT 6SM 29/22 RMK 60003 SLP053 T02880222 52010 IEM_DS3505
ZHHH,2000-09-04 15:00,ZHHH 041500Z AUTO 04002KT 9SM 28/25 RMK SLP057 T02830248 52004 IEM_DS3505
ZHHH,2000-09-04 18:00,ZHHH 041800Z AUTO 00000KT 9SM 27/25 RMK 60003 SLP058 T02740247 52001 IEM_DS3505
ZHHH,2000-09-04 21:00,ZHHH 042100Z AUTO 00000KT 9SM 27/26 RMK 70003 SLP056 T02690255 57002 IEM_DS3505
ZHHH,2000-09-05 00:00,ZHHH 050000Z AUTO 00000KT 7SM 27/26 RMK 70003 SLP065 T02730259 52008 IEM_DS3505
ZHHH,2000-09-05 03:00,ZHHH 050300Z AUTO 02004KT 9SM 30/26 RMK SLP068 T03020256 52004 IEM_DS3505
ZHHH,2000-09-05 06:00,ZHHH 050600Z AUTO 07008KT 9SM 28/24 RMK 60003 SLP057 T02820239 57012 IEM_DS3505
ZHHH,2000-09-05 09:00,ZHHH 050900Z AUTO 02008KT 11SM 24/19 RMK SLP080 T02430190 52023 IEM_DS3505
ZHHH,2000-09-05 12:00,ZHHH 051200Z AUTO 34006KT 9SM 23/18 RMK SLP089 T02310182 52009 IEM_DS3505
ZHHH,2000-09-05 15:00,ZHHH 051500Z AUTO 04006KT 9SM 23/18 RMK SLP102 T02280184 52013 IEM_DS3505
ZHHH,2000-09-05 18:00,ZHHH 051800Z AUTO 36006KT 6SM 21/19 RMK 60000 SLP103 T02060190 52001 IEM_DS3505
ZHHH,2000-09-05 21:00,ZHHH 052100Z AUTO 32004KT 6SM 19/19 RMK 70028 SLP107 T01940186 52004 IEM_DS3505
ZHHH,2000-09-06 00:00,ZHHH 060000Z AUTO 02004KT 7SM 19/18 RMK 60043 SLP118 T01910180 52011 IEM_DS3505
ZHHH,2000-09-06 03:00,ZHHH 060300Z AUTO 02006KT 9SM 20/18 RMK SLP123 T01980182 52005 IEM_DS3505
ZHHH,2000-09-06 06:00,ZHHH 060600Z AUTO 07006KT 12SM 20/17 RMK 60004 SLP120 T02040168 57003 IEM_DS3505
ZHHH,2000-09-06 12:00,ZHHH 061200Z AUTO 04006KT 6SM 20/17 RMK 60002 SLP145 T01960166 52019 IEM_DS3505
ZHHH,2000-09-06 15:00,ZHHH 061500Z AUTO 02002KT 6SM 20/17 RMK SLP156 T01990168 52011 IEM_DS3505
ZHHH,2000-09-06 18:00,ZHHH 061800Z AUTO 34004KT 6SM 20/15 RMK 60002 SLP153 T02050153 57003 IEM_DS3505
ZHHH,2000-09-06 21:00,ZHHH 062100Z AUTO 00000KT 6SM 20/16 RMK 70026 SLP153 T02030158 54000 IEM_DS3505
ZHHH,2000-09-07 00:00,ZHHH 070000Z AUTO 04006KT 6SM 20/15 RMK 60003 SLP170 T01960148 52017 IEM_DS3505
ZHHH,2000-09-07 03:00,ZHHH 070300Z AUTO 04008KT 7SM 18/13 RMK SLP178 T01800134 52008 IEM_DS3505
ZHHH,2000-09-07 06:00,ZHHH 070600Z AUTO 02006KT 9SM 19/14 RMK 60003 SLP171 T01890144 57007 IEM_DS3505
ZHHH,2000-09-07 09:00,ZHHH 070900Z AUTO 02004KT 12SM 21/16 RMK SLP168 T02060156 57003 IEM_DS3505
ZHHH,2000-09-07 12:00,ZHHH 071200Z AUTO 00000KT 9SM 19/15 RMK SLP173 T01930147 52005 IEM_DS3505
ZHHH,2000-09-07 15:00,ZHHH 071500Z AUTO 04002KT 12SM 19/15 RMK SLP179 T01930151 52006 IEM_DS3505
ZHHH,2000-09-07 18:00,ZHHH 071800Z AUTO 00000KT 7SM 19/16 RMK 60003 SLP169 T01870158 57010 IEM_DS3505
ZHHH,2000-09-07 21:00,ZHHH 072100Z AUTO 02002KT 6SM 19/16 RMK 70003 SLP160 T01860156 57009 IEM_DS3505
ZHHH,2000-09-08 00:00,ZHHH 080000Z AUTO 02002KT 11SM 20/14 RMK 60003 SLP178 T01960141 52009 IEM_DS3505
ZHHH,2000-09-08 03:00,ZHHH 080300Z AUTO 04002KT 11SM 22/14 RMK SLP180 T02210143 52002 IEM_DS3505
ZHHH,2000-09-08 06:00,ZHHH 080600Z AUTO 34002KT 12SM 24/14 RMK SLP159 T02440143 57020 IEM_DS3505
ZHHH,2000-09-08 09:00,ZHHH 080900Z AUTO 00000KT 12SM 25/14 RMK SLP153 T02490142 57006 IEM_DS3505
ZHHH,2000-09-08 12:00,ZHHH 081200Z AUTO 00000KT 11SM 24/15 RMK SLP158 T02370152 52005 IEM_DS3505
ZHHH,2000-09-08 18:00,ZHHH 081800Z AUTO 00000KT 9SM 21/15 RMK SLP155 T02070151 57006 IEM_DS3505
ZHHH,2000-09-08 21:00,ZHHH 082100Z AUTO 02002KT 9SM 20/15 RMK SLP154 T01970153 57001 IEM_DS3505
ZHHH,2000-09-09 00:00,ZHHH 090000Z AUTO 07004KT 9SM 20/16 RMK SLP159 T01990157 52005 IEM_DS3505
ZHHH,2000-09-09 03:00,ZHHH 090300Z AUTO 07002KT 14SM 24/16 RMK SLP164 T02420162 52005 IEM_DS3505
ZHHH,2000-09-09 06:00,ZHHH 090600Z AUTO 34002KT 11SM 26/15 RMK SLP146 T02590146 57018 IEM_DS3505
ZHHH,2000-09-09 09:00,ZHHH 090900Z AUTO 34002KT 11SM 26/15 RMK SLP142 T02560150 57004 IEM_DS3505
ZHHH,2000-09-09 12:00,ZHHH 091200Z AUTO 02002KT 9SM 23/17 RMK SLP150 T02320167 52008 IEM_DS3505
ZHHH,2000-09-09 15:00,ZHHH 091500Z AUTO 04002KT 9SM 22/14 RMK SLP153 T02240141 52003 IEM_DS3505
ZHHH,2000-09-09 18:00,ZHHH 091800Z AUTO 04002KT 11SM 22/16 RMK SLP145 T02150157 57008 IEM_DS3505
ZHHH,2000-09-09 21:00,ZHHH 092100Z AUTO 04004KT 6SM 21/15 RMK SLP142 T02070152 57003 IEM_DS3505
ZHHH,2000-09-10 00:00,ZHHH 100000Z AUTO 02002KT 6SM 20/16 RMK 60003 SLP149 T02010165 52007 IEM_DS3505
ZHHH,2000-09-10 03:00,ZHHH 100300Z AUTO 04002KT 7SM 21/18 RMK SLP155 T02140175 52006 IEM_DS3505
ZHHH,2000-09-10 06:00,ZHHH 100600Z AUTO 04004KT 8SM 24/17 RMK 60003 SLP137 T02360170 57018 IEM_DS3505
ZHHH,2000-09-10 09:00,ZHHH 100900Z AUTO 32004KT 7SM 22/17 RMK SLP130 T02220174 57007 IEM_DS3505
ZHHH,2000-09-10 12:00,ZHHH 101200Z AUTO 36002KT 9SM 21/17 RMK SLP138 T02060167 52007 IEM_DS3505
ZHHH,2000-09-10 15:00,ZHHH 101500Z AUTO 36002KT 9SM 20/16 RMK SLP142 T02000165 52004 IEM_DS3505
ZHHH,2000-09-10 18:00,ZHHH 101800Z AUTO 32004KT 7SM 19/17 RMK SLP134 T01900170 57007 IEM_DS3505
ZHHH,2000-09-10 21:00,ZHHH 102100Z AUTO 00000KT 7SM 19/17 RMK 70003 SLP124 T01910166 57010 IEM_DS3505
ZHHH,2000-09-11 00:00,ZHHH 110000Z AUTO 34004KT 9SM 19/16 RMK 70003 SLP135 T01890164 52010 IEM_DS3505
ZHHH,2000-09-11 03:00,ZHHH 110300Z AUTO 36002KT 9SM 22/17 RMK SLP139 T02170166 52005 IEM_DS3505
ZHHH,2000-09-11 06:00,ZHHH 110600Z AUTO 02004KT 8SM 24/17 RMK SLP121 T02410170 57018 IEM_DS3505
ZHHH,2000-09-11 09:00,ZHHH 110900Z AUTO 36004KT 11SM 25/16 RMK SLP114 T02500161 57007 IEM_DS3505
ZHHH,2000-09-11 12:00,ZHHH 111200Z AUTO 34002KT 9SM 23/18 RMK SLP123 T02340178 52009 IEM_DS3505
ZHHH,2000-09-11 15:00,ZHHH 111500Z AUTO 34002KT 9SM 22/18 RMK SLP133 T02230182 52010 IEM_DS3505
ZHHH,2000-09-11 18:00,ZHHH 111800Z AUTO 32002KT 9SM 21/18 RMK 60003 SLP131 T02110181 57002 IEM_DS3505
ZHHH,2000-09-11 21:00,ZHHH 112100Z AUTO 34004KT 9SM 20/18 RMK 70003 SLP133 T02030176 52002 IEM_DS3505
ZHHH,2000-09-12 00:00,ZHHH 120000Z AUTO 32004KT 7SM 20/17 RMK 70003 SLP145 T02010168 52012 IEM_DS3505
ZHHH,2000-09-12 06:00,ZHHH 120600Z AUTO 04006KT 11SM 28/14 RMK SLP131 T02760137 57017 IEM_DS3505
ZHHH,2000-09-12 09:00,ZHHH 120900Z AUTO 02004KT 11SM 28/14 RMK SLP123 T02790144 57008 IEM_DS3505
ZHHH,2000-09-12 12:00,ZHHH 121200Z AUTO 36002KT 11SM 24/16 RMK SLP131 T02440163 52008 IEM_DS3505
ZHHH,2000-09-12 15:00,ZHHH 121500Z AUTO 34004KT 11SM 22/17 RMK SLP141 T02180166 52010 IEM_DS3505
ZHHH,2000-09-12 18:00,ZHHH 121800Z AUTO 34002KT 9SM 20/17 RMK SLP139 T02020168 57002 IEM_DS3505
ZHHH,2000-09-12 21:00,ZHHH 122100Z AUTO 29002KT 8SM 19/16 RMK SLP139 T01920162 54000 IEM_DS3505
ZHHH,2000-09-13 00:00,ZHHH 130000Z AUTO 02004KT 12SM 21/16 RMK SLP153 T02070155 52014 IEM_DS3505
ZHHH,2000-09-13 03:00,ZHHH 130300Z AUTO 02004KT 12SM 27/12 RMK SLP151 T02670120 57002 IEM_DS3505
ZHHH,2000-09-13 06:00,ZHHH 130600Z AUTO 04010KT 16SM 28/12 RMK SLP136 T02830116 57015 IEM_DS3505
ZHHH,2000-09-13 09:00,ZHHH 130900Z AUTO 07006KT 16SM 28/13 RMK SLP124 T02850130 57012 IEM_DS3505
ZHHH,2000-09-13 12:00,ZHHH 131200Z AUTO 02002KT 11SM 24/15 RMK SLP132 T02430152 52008 IEM_DS3505
ZHHH,2000-09-13 15:00,ZHHH 131500Z AUTO 34002KT 9SM 22/15 RMK SLP139 T02250152 52007 IEM_DS3505
ZHHH,2000-09-13 18:00,ZHHH 131800Z AUTO 34004KT 9SM 20/15 RMK SLP135 T02020151 57004 IEM_DS3505
ZHHH,2000-09-13 21:00,ZHHH 132100Z AUTO 27002KT 9SM 19/15 RMK SLP133 T01920151 57002 IEM_DS3505
ZHHH,2000-09-14 00:00,ZHHH 140000Z AUTO 32002KT 12SM 20/16 RMK SLP139 T02010156 52006 IEM_DS3505
ZHHH,2000-09-14 03:00,ZHHH 140300Z AUTO 34006KT 16SM 27/15 RMK SLP139 T02690153 54000 IEM_DS3505
ZHHH,2000-09-14 06:00,ZHHH 140600Z AUTO 07006KT 16SM 30/13 RMK SLP114 T02960128 57025 IEM_DS3505
ZHHH,2000-09-14 09:00,ZHHH 140900Z AUTO 04004KT 12SM 29/12 RMK SLP103 T02920122 57011 IEM_DS3505
ZHHH,2000-09-14 15:00,ZHHH 141500Z AUTO 32004KT 12SM 23/17 RMK SLP110 T02310168 52001 IEM_DS3505
ZHHH,2000-09-14 18:00,ZHHH 141800Z AUTO 34002KT 11SM 21/16 RMK SLP103 T02110158 57007 IEM_DS3505
ZHHH,2000-09-14 21:00,ZHHH 142100Z AUTO 29002KT 11SM 20/16 RMK SLP101 T01950160 57002 IEM_DS3505
ZHHH,2000-09-15 00:00,ZHHH 150000Z AUTO 32002KT 12SM 20/16 RMK SLP114 T02030158 52013 IEM_DS3505
ZHHH,2000-09-15 03:00,ZHHH 150300Z AUTO 34004KT 16SM 27/16 RMK SLP119 T02670162 52005 IEM_DS3505
ZHHH,2000-09-15 06:00,ZHHH 150600Z AUTO 02006KT 16SM 29/13 RMK SLP104 T02890134 57015 IEM_DS3505
ZHHH,2000-09-15 09:00,ZHHH 150900Z AUTO 34004KT 14SM 29/14 RMK SLP094 T02900138 57010 IEM_DS3505
ZHHH,2000-09-15 12:00,ZHHH 151200Z AUTO 00000KT 12SM 26/17 RMK SLP102 T02550167 52008 IEM_DS3505
ZHHH,2000-09-15 15:00,ZHHH 151500Z AUTO 00000KT 12SM 23/17 RMK SLP107 T02320174 52005 IEM_DS3505
ZHHH,2000-09-15 18:00,ZHHH 151800Z AUTO 27002KT 9SM 22/17 RMK SLP106 T02250168 57001 IEM_DS3505
ZHHH,2000-09-15 21:00,ZHHH 152100Z AUTO 00000KT 9SM 20/17 RMK SLP106 T02050171 54000 IEM_DS3505
ZHHH,2000-09-16 00:00,ZHHH 160000Z AUTO 00000KT 11SM 23/15 RMK SLP120 T02260149 52014 IEM_DS3505
ZHHH,2000-09-16 03:00,ZHHH 160300Z AUTO 22004KT 12SM 28/17 RMK SLP123 T02800167 52003 IEM_DS3505
ZHHH,2000-09-16 06:00,ZHHH 160600Z AUTO 22004KT 12SM 31/17 RMK SLP103 T03060168 57020 IEM_DS3505
ZHHH,2000-09-16 09:00,ZHHH 160900Z AUTO 22004KT 12SM 29/17 RMK SLP097 T02940170 57006 IEM_DS3505
ZHHH,2000-09-16 12:00,ZHHH 161200Z AUTO 20002KT 9SM 26/18 RMK SLP100 T02570184 52003 IEM_DS3505
ZHHH,2000-09-16 15:00,ZHHH 161500Z AUTO 20002KT 11SM 24/18 RMK SLP111 T02350178 52011 IEM_DS3505
ZHHH,2000-09-16 18:00,ZHHH 161800Z AUTO 00000KT 12SM 22/18 RMK SLP109 T02230177 57002 IEM_DS3505
ZHHH,2000-09-16 21:00,ZHHH 162100Z AUTO 16004KT 12SM 22/18 RMK SLP108 T02150175 57001 IEM_DS3505
ZHHH,2000-09-17 00:00,ZHHH 170000Z AUTO 16002KT 12SM 23/18 RMK SLP120 T02280177 52012 IEM_DS3505
ZHHH,2000-09-17 03:00,ZHHH 170300Z AUTO 22002KT 16SM 29/17 RMK SLP122 T02910169 52002 IEM_DS3505
ZHHH,2000-09-17 06:00,ZHHH 170600Z AUTO 27002KT 16SM 31/18 RMK SLP102 T03110176 57020 IEM_DS3505
ZHHH,2000-09-17 09:00,ZHHH 170900Z AUTO 22002KT 12SM 31/19 RMK SLP091 T03130188 57011 IEM_DS3505
ZHHH,2000-09-17 12:00,ZHHH 171200Z AUTO 00000KT 11SM 27/20 RMK SLP096 T02700195 52005 IEM_DS3505
ZHHH,2000-09-17 15:00,ZHHH 171500Z AUTO 00000KT 11SM 25/20 RMK SLP107 T02510196 52011 IEM_DS3505
ZHHH,2000-09-17 18:00,ZHHH 171800Z AUTO 00000KT 11SM 23/20 RMK SLP111 T02310195 52004 IEM_DS3505
ZHHH,2000-09-17 21:00,ZHHH 172100Z AUTO 00000KT 6SM 22/20 RMK SLP111 T02200198 54000 IEM_DS3505
ZHHH,2000-09-18 00:00,ZHHH 180000Z AUTO 16002KT 12SM 24/20 RMK SLP123 T02380198 52012 IEM_DS3505
ZHHH,2000-09-18 03:00,ZHHH 180300Z AUTO 18002KT 16SM 30/20 RMK SLP127 T03020196 52004 IEM_DS3505
ZHHH,2000-09-18 06:00,ZHHH 180600Z AUTO 18002KT 16SM 33/17 RMK SLP110 T03280171 57017 IEM_DS3505
ZHHH,2000-09-18 09:00,ZHHH 180900Z AUTO 27002KT 16SM 32/16 RMK SLP102 T03240164 57008 IEM_DS3505
ZHHH,2000-09-18 12:00,ZHHH 181200Z AUTO 00000KT 11SM 27/20 RMK SLP116 T02720204 52014 IEM_DS3505
ZHHH,2000-09-18 15:00,ZHHH 181500Z AUTO 00000KT 9SM 27/19 RMK SLP126 T02660194 52010 IEM_DS3505
ZHHH,2000-09-18 18:00,ZHHH 181800Z AUTO 00000KT 11SM 25/19 RMK SLP126 T02530193 54000 IEM_DS3505
ZHHH,2000-09-18 21:00,ZHHH 182100Z AUTO 00000KT 11SM 24/19 RMK SLP125 T02390191 57001 IEM_DS3505
ZHHH,2000-09-19 00:00,ZHHH 190000Z AUTO 09002KT 11SM 23/19 RMK SLP140 T02330191 52015 IEM_DS3505
ZHHH,2000-09-19 03:00,ZHHH 190300Z AUTO 09002KT 11SM 29/18 RMK SLP143 T02900181 52003 IEM_DS3505
ZHHH,2000-09-19 06:00,ZHHH 190600Z AUTO 32002KT 14SM 32/15 RMK SLP126 T03190154 57017 IEM_DS3505
ZHHH,2000-09-19 09:00,ZHHH 190900Z AUTO 00000KT 12SM 31/16 RMK SLP119 T03060165 57007 IEM_DS3505
ZHHH,2000-09-19 12:00,ZHHH 191200Z AUTO 09002KT 11SM 28/19 RMK SLP131 T02810190 52012 IEM_DS3505
ZHHH,2000-09-19 15:00,ZHHH 191500Z AUTO 00000KT 9SM 27/18 RMK SLP139 T02660176 52008 IEM_DS3505
ZHHH,2000-09-19 18:00,ZHHH 191800Z AUTO 00000KT 7SM 26/18 RMK SLP138 T02550181 57001 IEM_DS3505
ZHHH,2000-09-19 21:00,ZHHH 192100Z AUTO 00000KT 7SM 24/19 RMK SLP138 T02400190 54000 IEM_DS3505
ZHHH,2000-09-20 00:00,ZHHH 200000Z AUTO 14002KT 9SM 25/19 RMK SLP149 T02470186 52011 IEM_DS3505
ZHHH,2000-09-20 03:00,ZHHH 200300Z AUTO 16004KT 9SM 26/20 RMK SLP159 T02590196 52010 IEM_DS3505
ZHHH,2000-09-20 06:00,ZHHH 200600Z AUTO 11004KT 7SM 27/20 RMK SLP145 T02670200 57014 IEM_DS3505
ZHHH,2000-09-20 12:00,ZHHH 201200Z AUTO 11002KT 11SM 26/19 RMK SLP153 T02590187 52020 IEM_DS3505
ZHHH,2000-09-20 15:00,ZHHH 201500Z AUTO 00000KT 9SM 25/20 RMK SLP158 T02490195 52005 IEM_DS3505
ZHHH,2000-09-20 18:00,ZHHH 201800Z AUTO 00000KT 8SM 24/21 RMK SLP156 T02380206 57002 IEM_DS3505
ZHHH,2000-09-20 21:00,ZHHH 202100Z AUTO 00000KT 7SM 23/21 RMK SLP157 T02340208 52001 IEM_DS3505
ZHHH,2000-09-21 00:00,ZHHH 210000Z AUTO 14002KT 7SM 24/20 RMK SLP170 T02420204 52013 IEM_DS3505
ZHHH,2000-09-21 03:00,ZHHH 210300Z AUTO 14004KT 9SM 28/19 RMK SLP173 T02750194 52003 IEM_DS3505
ZHHH,2000-09-21 06:00,ZHHH 210600Z AUTO 14004KT 11SM 30/19 RMK SLP156 T02950189 57017 IEM_DS3505
ZHHH,2000-09-21 09:00,ZHHH 210900Z AUTO 11004KT 9SM 29/19 RMK SLP149 T02880192 57007 IEM_DS3505
ZHHH,2000-09-21 12:00,ZHHH 211200Z AUTO 00000KT 11SM 26/20 RMK SLP158 T02650201 52009 IEM_DS3505
ZHHH,2000-09-21 15:00,ZHHH 211500Z AUTO 00000KT 11SM 25/21 RMK SLP166 T02530208 52008 IEM_DS3505
ZHHH,2000-09-21 18:00,ZHHH 211800Z AUTO 00000KT 9SM 24/21 RMK SLP163 T02400208 57003 IEM_DS3505
ZHHH,2000-09-21 21:00,ZHHH 212100Z AUTO 07002KT 8SM 23/21 RMK SLP159 T02310207 57004 IEM_DS3505
ZHHH,2000-09-22 00:00,ZHHH 220000Z AUTO 11004KT 7SM 24/20 RMK SLP171 T02350204 52012 IEM_DS3505
ZHHH,2000-09-22 03:00,ZHHH 220300Z AUTO 18004KT 9SM 28/21 RMK SLP168 T02850214 57003 IEM_DS3505
ZHHH,2000-09-22 06:00,ZHHH 220600Z AUTO 14002KT 9SM 30/21 RMK SLP143 T03030211 57025 IEM_DS3505
ZHHH,2000-09-22 09:00,ZHHH 220900Z AUTO 16002KT 9SM 31/21 RMK SLP128 T03060211 57015 IEM_DS3505
ZHHH,2000-09-22 12:00,ZHHH 221200Z AUTO 00000KT 9SM 28/23 RMK SLP133 T02810227 52005 IEM_DS3505
ZHHH,2000-09-22 15:00,ZHHH 221500Z AUTO 00000KT 9SM 27/21 RMK SLP138 T02730212 52005 IEM_DS3505
ZHHH,2000-09-22 18:00,ZHHH 221800Z AUTO 11002KT 9SM 26/22 RMK SLP133 T02580219 57005 IEM_DS3505
ZHHH,2000-09-22 21:00,ZHHH 222100Z AUTO 00000KT 9SM 25/22 RMK SLP127 T02480215 57006 IEM_DS3505
ZHHH,2000-09-23 00:00,ZHHH 230000Z AUTO 16004KT 11SM 26/22 RMK SLP134 T02580216 52007 IEM_DS3505
ZHHH,2000-09-23 03:00,ZHHH 230300Z AUTO 11002KT 12SM 30/22 RMK SLP135 T03020223 52001 IEM_DS3505
ZHHH,2000-09-23 06:00,ZHHH 230600Z AUTO 20004KT 12SM 33/22 RMK SLP110 T03260215 57025 IEM_DS3505
ZHHH,2000-09-23 09:00,ZHHH 230900Z AUTO 14002KT 11SM 32/24 RMK SLP092 T03250245 57018 IEM_DS3505
ZHHH,2000-09-23 12:00,ZHHH 231200Z AUTO 14004KT 9SM 30/22 RMK SLP095 T03040222 52003 IEM_DS3505
ZHHH,2000-09-23 15:00,ZHHH 231500Z AUTO 00000KT 9SM 28/22 RMK SLP099 T02820223 52004 IEM_DS3505
ZHHH,2000-09-23 18:00,ZHHH 231800Z AUTO 14002KT 9SM 28/23 RMK SLP097 T02790231 57001 IEM_DS3505
ZHHH,2000-09-23 21:00,ZHHH 232100Z AUTO 14002KT 10SM 27/23 RMK SLP087 T02690227 57011 IEM_DS3505
ZHHH,2000-09-24 03:00,ZHHH 240300Z AUTO 14004KT 11SM 32/24 RMK SLP090 T03180237 57004 IEM_DS3505
ZHHH,2000-09-24 06:00,ZHHH 240600Z AUTO 22004KT 12SM 35/24 RMK SLP066 T03460235 57024 IEM_DS3505
ZHHH,2000-09-24 09:00,ZHHH 240900Z AUTO 14004KT 12SM 34/22 RMK SLP055 T03420219 57011 IEM_DS3505
ZHHH,2000-09-24 12:00,ZHHH 241200Z AUTO 16004KT 6SM 29/21 RMK SLP067 T02870211 52011 IEM_DS3505
ZHHH,2000-09-24 15:00,ZHHH 241500Z AUTO 11002KT 8SM 27/22 RMK SLP068 T02710224 52002 IEM_DS3505
ZHHH,2000-09-24 18:00,ZHHH 241800Z AUTO 34006KT 7SM 26/22 RMK SLP071 T02640223 52003 IEM_DS3505
ZHHH,2000-09-24 21:00,ZHHH 242100Z AUTO 34008KT 6SM 23/22 RMK 70012 SLP076 T02330224 52004 IEM_DS3505
ZHHH,2000-09-25 00:00,ZHHH 250000Z AUTO 07006KT 7SM 22/21 RMK 60059 SLP090 T02210213 52014 IEM_DS3505
ZHHH,2000-09-25 03:00,ZHHH 250300Z AUTO 32002KT 6SM 22/21 RMK SLP111 T02190213 52021 IEM_DS3505
ZHHH,2000-09-25 06:00,ZHHH 250600Z AUTO 04002KT 8SM 23/22 RMK 60201 SLP098 T02270218 57013 IEM_DS3505
ZHHH,2000-09-25 09:00,ZHHH 250900Z AUTO 36002KT 8SM 22/22 RMK SLP097 T02250219 57001 IEM_DS3505
ZHHH,2000-09-25 12:00,ZHHH 251200Z AUTO 36002KT 6SM 22/22 RMK 60130 SLP108 T02250217 52011 IEM_DS3505
ZHHH,2000-09-25 15:00,ZHHH 251500Z AUTO 04004KT 5SM 21/20 RMK SLP116 T02100201 52008 IEM_DS3505
ZHHH,2000-09-25 18:00,ZHHH 251800Z AUTO 02004KT 6SM 20/20 RMK 60067 SLP114 T02050197 57002 IEM_DS3505
ZHHH,2000-09-25 21:00,ZHHH 252100Z AUTO 07002KT 9SM 21/20 RMK 70438 SLP113 T02070199 57001 IEM_DS3505
ZHHH,2000-09-26 00:00,ZHHH 260000Z AUTO 36002KT 6SM 21/20 RMK 60000 SLP125 T02080200 52012 IEM_DS3505
ZHHH,2000-09-26 03:00,ZHHH 260300Z AUTO 00000KT 6SM 22/21 RMK SLP127 T02190214 52002 IEM_DS3505
ZHHH,2000-09-26 06:00,ZHHH 260600Z AUTO 14002KT 6SM 23/22 RMK 60047 SLP112 T02310224 57015 IEM_DS3505
ZHHH,2000-09-26 09:00,ZHHH 260900Z AUTO 27004KT 6SM 22/22 RMK SLP108 T02240218 57004 IEM_DS3505
ZHHH,2000-09-26 12:00,ZHHH 261200Z AUTO 29004KT 6SM 21/21 RMK 60016 SLP117 T02140208 52009 IEM_DS3505
ZHHH,2000-09-26 15:00,ZHHH 261500Z AUTO 27004KT 6SM 21/20 RMK SLP127 T02070202 52010 IEM_DS3505
ZHHH,2000-09-26 18:00,ZHHH 261800Z AUTO 29004KT 7SM 20/20 RMK 60001 SLP127 T02020196 54000 IEM_DS3505
ZHHH,2000-09-26 21:00,ZHHH 262100Z AUTO 27002KT 7SM 20/19 RMK SLP122 T01990194 57005 IEM_DS3505
ZHHH,2000-09-27 00:00,ZHHH 270000Z AUTO 29004KT 7SM 20/19 RMK 70064 SLP138 T02010192 52016 IEM_DS3505
ZHHH,2000-09-27 03:00,ZHHH 270300Z AUTO 27004KT 7SM 21/19 RMK SLP137 T02130194 57001 IEM_DS3505
ZHHH,2000-09-27 06:00,ZHHH 270600Z AUTO 32002KT 9SM 22/19 RMK SLP129 T02210190 57008 IEM_DS3505
ZHHH,2000-09-27 09:00,ZHHH 270900Z AUTO 34002KT 9SM 22/19 RMK SLP127 T02190192 57002 IEM_DS3505
ZHHH,2000-09-27 12:00,ZHHH 271200Z AUTO 02004KT 8SM 21/19 RMK SLP137 T02070194 52009 IEM_DS3505
ZHHH,2000-09-27 15:00,ZHHH 271500Z AUTO 02004KT 7SM 20/17 RMK SLP146 T01990173 52009 IEM_DS3505
ZHHH,2000-09-27 18:00,ZHHH 271800Z AUTO 02004KT 7SM 19/17 RMK SLP144 T01890168 57002 IEM_DS3505
ZHHH,2000-09-27 21:00,ZHHH 272100Z AUTO 02006KT 6SM 18/16 RMK 70001 SLP144 T01820165 54000 IEM_DS3505
ZHHH,2000-09-28 00:00,ZHHH 280000Z AUTO 04006KT 7SM 18/16 RMK 60000 SLP156 T01830165 52012 IEM_DS3505
ZHHH,2000-09-28 03:00,ZHHH 280300Z AUTO 02004KT 9SM 20/17 RMK SLP161 T01950170 52005 IEM_DS3505
ZHHH,2000-09-28 06:00,ZHHH 280600Z AUTO 04002KT 9SM 20/17 RMK SLP149 T01970169 57012 IEM_DS3505
ZHHH,2000-09-28 09:00,ZHHH 280900Z AUTO 36002KT 6SM 19/17 RMK SLP143 T01870172 57006 IEM_DS3505
ZHHH,2000-09-28 12:00,ZHHH 281200Z AUTO 02002KT 6SM 18/17 RMK 60067 SLP155 T01780171 52012 IEM_DS3505
ZHHH,2000-09-28 15:00,ZHHH 281500Z AUTO 02002KT 6SM 18/17 RMK SLP163 T01790171 52008 IEM_DS3505
ZHHH,2000-09-28 18:00,ZHHH 281800Z AUTO 36002KT 6SM 18/17 RMK 60008 SLP161 T01790171 57002 IEM_DS3505
ZHHH,2000-09-28 21:00,ZHHH 282100Z AUTO 34002KT 6SM 18/17 RMK 70077 SLP155 T01790174 57006 IEM_DS3505
ZHHH,2000-09-29 00:00,ZHHH 290000Z AUTO 32002KT 6SM 18/17 RMK 70077 SLP168 T01830172 52013 IEM_DS3505
ZHHH,2000-09-29 03:00,ZHHH 290300Z AUTO 34002KT 6SM 21/17 RMK SLP172 T02060174 52004 IEM_DS3505
ZHHH,2000-09-29 06:00,ZHHH 290600Z AUTO 29004KT 9SM 22/18 RMK SLP154 T02210178 57018 IEM_DS3505
ZHHH,2000-09-29 09:00,ZHHH 290900Z AUTO 29004KT 9SM 23/19 RMK SLP148 T02290187 57006 IEM_DS3505
ZHHH,2000-09-29 12:00,ZHHH 291200Z AUTO 00000KT 6SM 22/19 RMK 60003 SLP153 T02200190 52005 IEM_DS3505
ZHHH,2000-09-29 15:00,ZHHH 291500Z AUTO 00000KT 6SM 21/19 RMK SLP165 T02110194 52012 IEM_DS3505
ZHHH,2000-09-29 18:00,ZHHH 291800Z AUTO 32004KT 6SM 19/19 RMK 60012 SLP165 T01940188 54000 IEM_DS3505
ZHHH,2000-09-29 21:00,ZHHH 292100Z AUTO 34004KT 6SM 19/18 RMK 70074 SLP161 T01890184 57004 IEM_DS3505
ZHHH,2000-09-30 00:00,ZHHH 300000Z AUTO 32002KT 6SM 19/19 RMK 60091 SLP170 T01920186 52009 IEM_DS3505
ZHHH,2000-09-30 03:00,ZHHH 300300Z AUTO 29002KT 5SM 20/19 RMK SLP180 T01950189 52010 IEM_DS3505
ZHHH,2000-09-30 06:00,ZHHH 300600Z AUTO 29002KT 6SM 20/19 RMK 60031 SLP168 T02020193 57012 IEM_DS3505
ZHHH,2000-09-30 09:00,ZHHH 300900Z AUTO 29002KT 6SM 20/20 RMK SLP164 T02020196 57004 IEM_DS3505
ZHHH,2000-09-30 12:00,ZHHH 301200Z AUTO 29002KT 6SM 20/19 RMK 60008 SLP168 T01990191 52004 IEM_DS3505
ZHHH,2000-09-30 15:00,ZHHH 301500Z AUTO 00000KT 6SM 20/19 RMK SLP174 T01970191 52006 IEM_DS3505
ZHHH,2000-09-30 18:00,ZHHH 301800Z AUTO 00000KT 6SM 19/19 RMK SLP170 T01910186 57004 IEM_DS3505
ZHHH,2000-09-30 21:00,ZHHH 302100Z AUTO 00000KT 7SM 19/19 RMK 70069 SLP161 T01910186 57009 IEM_DS3505
ZHHH,2000-10-01 00:00,ZHHH 010000Z AUTO 00000KT 7SM 20/18 RMK 70039 SLP161 T02010185 54000 IEM_DS3505
ZHHH,2000-10-01 03:00,ZHHH 010300Z AUTO 00000KT 9SM 22/19 RMK SLP158 T02190194 57003 IEM_DS3505
ZHHH,2000-10-01 06:00,ZHHH 010600Z AUTO 29002KT 9SM 22/20 RMK SLP134 T02210196 57023 IEM_DS3505
ZHHH,2000-10-01 09:00,ZHHH 010900Z AUTO 36002KT 8SM 22/20 RMK SLP120 T02250205 57014 IEM_DS3505
ZHHH,2000-10-01 12:00,ZHHH 011200Z AUTO 34002KT 6SM 21/20 RMK SLP135 T02070199 52014 IEM_DS3505
ZHHH,2000-10-01 15:00,ZHHH 011500Z AUTO 36002KT 6SM 20/20 RMK SLP136 T02030195 52002 IEM_DS3505
ZHHH,2000-10-01 18:00,ZHHH 011800Z AUTO 32004KT 7SM 20/19 RMK 60000 SLP130 T02000194 57006 IEM_DS3505
ZHHH,2000-10-01 21:00,ZHHH 012100Z AUTO 32004KT 6SM 20/19 RMK 70007 SLP123 T01960190 57007 IEM_DS3505
ZHHH,2000-10-02 00:00,ZHHH 020000Z AUTO 04002KT 5SM 19/18 RMK 60157 SLP138 T01900185 52014 IEM_DS3505
ZHHH,2000-10-02 03:00,ZHHH 020300Z AUTO 34002KT 6SM 20/19 RMK SLP149 T01960190 52011 IEM_DS3505
ZHHH,2000-10-02 06:00,ZHHH 020600Z AUTO 34002KT 7SM 20/19 RMK 60047 SLP141 T02020194 57008 IEM_DS3505
ZHHH,2000-10-02 09:00,ZHHH 020900Z AUTO 04004KT 11SM 22/18 RMK SLP137 T02150176 57004 IEM_DS3505
ZHHH,2000-10-02 12:00,ZHHH 021200Z AUTO 00000KT 9SM 20/18 RMK 60000 SLP151 T01990178 52014 IEM_DS3505
ZHHH,2000-10-02 15:00,ZHHH 021500Z AUTO 00000KT 9SM 19/18 RMK SLP155 T01930180 52004 IEM_DS3505
ZHHH,2000-10-02 18:00,ZHHH 021800Z AUTO 00000KT 9SM 19/17 RMK SLP155 T01870172 54000 IEM_DS3505
ZHHH,2000-10-02 21:00,ZHHH 022100Z AUTO 36002KT 9SM 19/18 RMK 70199 SLP154 T01860175 57001 IEM_DS3505
ZHHH,2000-10-03 00:00,ZHHH 030000Z AUTO 02004KT 11SM 19/18 RMK 70048 SLP162 T01900177 52008 IEM_DS3505
ZHHH,2000-10-03 03:00,ZHHH 030300Z AUTO 04002KT 12SM 24/19 RMK SLP165 T02390191 52004 IEM_DS3505
ZHHH,2000-10-03 06:00,ZHHH 030600Z AUTO 36004KT 12SM 25/18 RMK SLP148 T02510184 57017 IEM_DS3505
ZHHH,2000-10-03 09:00,ZHHH 030900Z AUTO 36002KT 12SM 26/19 RMK SLP141 T02620189 57007 IEM_DS3505
ZHHH,2000-10-03 12:00,ZHHH 031200Z AUTO 00000KT 9SM 23/19 RMK SLP147 T02310192 52006 IEM_DS3505
ZHHH,2000-10-03 15:00,ZHHH 031500Z AUTO 00000KT 7SM 22/19 RMK SLP152 T02150193 52005 IEM_DS3505
ZHHH,2000-10-03 18:00,ZHHH 031800Z AUTO 00000KT 9SM 20/20 RMK SLP151 T02030195 57001 IEM_DS3505
ZHHH,2000-10-03 21:00,ZHHH 032100Z AUTO 00000KT 9SM 20/19 RMK SLP148 T02010190 57003 IEM_DS3505
ZHHH,2000-10-04 00:00,ZHHH 040000Z AUTO 00000KT 7SM 21/19 RMK SLP161 T02140194 52013 IEM_DS3505
ZHHH,2000-10-04 03:00,ZHHH 040300Z AUTO 32002KT 9SM 25/20 RMK SLP163 T02480199 52002 IEM_DS3505
ZHHH,2000-10-04 06:00,ZHHH 040600Z AUTO 07002KT 11SM 26/19 RMK SLP143 T02620189 57020 IEM_DS3505
ZHHH,2000-10-04 09:00,ZHHH 040900Z AUTO 00000KT 11SM 26/19 RMK SLP137 T02610190 57006 IEM_DS3505
ZHHH,2000-10-04 12:00,ZHHH 041200Z AUTO 00000KT 11SM 22/21 RMK SLP153 T02210206 52016 IEM_DS3505
ZHHH,2000-10-04 15:00,ZHHH 041500Z AUTO 00000KT 11SM 21/20 RMK SLP156 T02060198 52003 IEM_DS3505
ZHHH,2000-10-04 18:00,ZHHH 041800Z AUTO 00000KT 9SM 21/20 RMK SLP158 T02120204 52002 IEM_DS3505
ZHHH,2000-10-04 21:00,ZHHH 042100Z AUTO 00000KT 6SM 20/20 RMK SLP157 T02000197 57001 IEM_DS3505
ZHHH,2000-10-05 00:00,ZHHH 050000Z AUTO 00000KT 12SM 22/20 RMK SLP168 T02170195 52011 IEM_DS3505
ZHHH,2000-10-05 03:00,ZHHH 050300Z AUTO 04002KT 16SM 26/19 RMK SLP170 T02570190 52002 IEM_DS3505
ZHHH,2000-10-05 06:00,ZHHH 050600Z AUTO 34004KT 11SM 27/18 RMK SLP152 T02720176 57018 IEM_DS3505
ZHHH,2000-10-05 09:00,ZHHH 050900Z AUTO 00000KT 11SM 27/18 RMK SLP148 T02710180 57004 IEM_DS3505
ZHHH,2000-10-05 12:00,ZHHH 051200Z AUTO 00000KT 11SM 24/20 RMK SLP158 T02390201 52010 IEM_DS3505
ZHHH,2000-10-05 15:00,ZHHH 051500Z AUTO 00000KT 9SM 22/20 RMK SLP161 T02230197 52003 IEM_DS3505
ZHHH,2000-10-05 18:00,ZHHH 051800Z AUTO 00000KT 9SM 21/20 RMK SLP157 T02130196 57004 IEM_DS3505
ZHHH,2000-10-05 21:00,ZHHH 052100Z AUTO 00000KT 9SM 20/19 RMK SLP158 T02050192 52001 IEM_DS3505
ZHHH,2000-10-06 00:00,ZHHH 060000Z AUTO 00000KT 9SM 21/20 RMK SLP167 T02090195 52009 IEM_DS3505
ZHHH,2000-10-06 03:00,ZHHH 060300Z AUTO 09002KT 9SM 26/21 RMK SLP165 T02650213 57002 IEM_DS3505
ZHHH,2000-10-06 06:00,ZHHH 060600Z AUTO 36002KT 12SM 27/20 RMK SLP145 T02740198 57020 IEM_DS3505
ZHHH,2000-10-06 09:00,ZHHH 060900Z AUTO 14002KT 12SM 27/20 RMK SLP140 T02710200 57005 IEM_DS3505
ZHHH,2000-10-06 12:00,ZHHH 061200Z AUTO 00000KT 11SM 25/19 RMK SLP143 T02480194 52003 IEM_DS3505
ZHHH,2000-10-06 15:00,ZHHH 061500Z AUTO 00000KT 11SM 23/20 RMK SLP148 T02310203 52005 IEM_DS3505
ZHHH,2000-10-06 18:00,ZHHH 061800Z AUTO 00000KT 9SM 23/20 RMK SLP148 T02260203 54000 IEM_DS3505
ZHHH,2000-10-06 21:00,ZHHH 062100Z AUTO 00000KT 9SM 21/20 RMK SLP149 T02130202 52001 IEM_DS3505
ZHHH,2000-10-07 00:00,ZHHH 070000Z AUTO 00000KT 7SM 22/20 RMK SLP159 T02200203 52010 IEM_DS3505
ZHHH,2000-10-07 03:00,ZHHH 070300Z AUTO 14002KT 11SM 26/21 RMK SLP154 T02650209 57005 IEM_DS3505
ZHHH,2000-10-07 06:00,ZHHH 070600Z AUTO 22002KT 12SM 29/20 RMK SLP130 T02880199 57024 IEM_DS3505
ZHHH,2000-10-07 09:00,ZHHH 070900Z AUTO 00000KT 11SM 29/20 RMK SLP121 T02860203 57009 IEM_DS3505
ZHHH,2000-10-07 12:00,ZHHH 071200Z AUTO 00000KT 9SM 25/22 RMK SLP130 T02540220 52009 IEM_DS3505
ZHHH,2000-10-07 15:00,ZHHH 071500Z AUTO 00000KT 9SM 24/21 RMK SLP130 T02440209 54000 IEM_DS3505
ZHHH,2000-10-07 21:00,ZHHH 072100Z AUTO 00000KT 11SM 22/21 RMK SLP125 T02210206 57001 IEM_DS3505
ZHHH,2000-10-08 00:00,ZHHH 080000Z AUTO 16002KT 7SM 23/21 RMK SLP128 T02290214 52003 IEM_DS3505
ZHHH,2000-10-08 03:00,ZHHH 080300Z AUTO 16002KT 9SM 27/21 RMK SLP128 T02710206 54000 IEM_DS3505
ZHHH,2000-10-08 06:00,ZHHH 080600Z AUTO 00000KT 11SM 30/22 RMK SLP103 T03010217 57025 IEM_DS3505
ZHHH,2000-10-08 09:00,ZHHH 080900Z AUTO 07002KT 9SM 28/20 RMK SLP097 T02760202 57006 IEM_DS3505
ZHHH,2000-10-08 12:00,ZHHH 081200Z AUTO 00000KT 9SM 25/20 RMK SLP104 T02530196 52007 IEM_DS3505
ZHHH,2000-10-08 15:00,ZHHH 081500Z AUTO 07004KT 11SM 24/21 RMK SLP115 T02350208 52011 IEM_DS3505
ZHHH,2000-10-08 18:00,ZHHH 081800Z AUTO 07004KT 6SM 22/20 RMK SLP120 T02150198 52005 IEM_DS3505
ZHHH,2000-10-08 21:00,ZHHH 082100Z AUTO 07004KT 6SM 20/19 RMK SLP124 T02050191 52004 IEM_DS3505
ZHHH,2000-10-09 00:00,ZHHH 090000Z AUTO 07004KT 9SM 21/20 RMK SLP134 T02130196 52010 IEM_DS3505
ZHHH,2000-10-09 03:00,ZHHH 090300Z AUTO 11006KT 9SM 27/20 RMK SLP126 T02720202 57008 IEM_DS3505
ZHHH,2000-10-09 06:00,ZHHH 090600Z AUTO 11004KT 11SM 30/16 RMK SLP098 T03020164 57028 IEM_DS3505
ZHHH,2000-10-09 09:00,ZHHH 090900Z AUTO 09004KT 11SM 30/18 RMK SLP090 T03020180 57008 IEM_DS3505
ZHHH,2000-10-09 12:00,ZHHH 091200Z AUTO 09002KT 7SM 26/20 RMK SLP102 T02620203 52012 IEM_DS3505
ZHHH,2000-10-09 15:00,ZHHH 091500Z AUTO 00000KT 7SM 25/19 RMK SLP108 T02510187 52006 IEM_DS3505
ZHHH,2000-10-09 18:00,ZHHH 091800Z AUTO 11004KT 12SM 23/21 RMK SLP106 T02290212 57002 IEM_DS3505
ZHHH,2000-10-09 21:00,ZHHH 092100Z AUTO 07002KT 12SM 22/20 RMK SLP102 T02210204 57004 IEM_DS3505
ZHHH,2000-10-10 00:00,ZHHH 100000Z AUTO 09002KT 11SM 23/21 RMK SLP112 T02300206 52010 IEM_DS3505
ZHHH,2000-10-10 03:00,ZHHH 100300Z AUTO 16004KT 16SM 29/19 RMK SLP110 T02920191 57002 IEM_DS3505
ZHHH,2000-10-10 06:00,ZHHH 100600Z AUTO 18004KT 16SM 32/19 RMK SLP088 T03190194 57022 IEM_DS3505
ZHHH,2000-10-10 09:00,ZHHH 100900Z AUTO 11004KT 16SM 32/20 RMK SLP084 T03180196 57004 IEM_DS3505
ZHHH,2000-10-10 12:00,ZHHH 101200Z AUTO 09002KT 11SM 28/22 RMK SLP100 T02830218 52016 IEM_DS3505
ZHHH,2000-10-10 15:00,ZHHH 101500Z AUTO 07004KT 9SM 24/21 RMK SLP116 T02380209 52016 IEM_DS3505
ZHHH,2000-10-10 18:00,ZHHH 101800Z AUTO 02004KT 7SM 21/18 RMK SLP120 T02060185 52004 IEM_DS3505
ZHHH,2000-10-10 21:00,ZHHH 102100Z AUTO 02004KT 6SM 19/17 RMK SLP129 T01900169 52009 IEM_DS3505
ZHHH,2000-10-11 00:00,ZHHH 110000Z AUTO 04006KT 9SM 17/15 RMK SLP156 T01740146 52027 IEM_DS3505
ZHHH,2000-10-11 03:00,ZHHH 110300Z AUTO 04006KT 9SM 21/15 RMK SLP168 T02090150 52012 IEM_DS3505
ZHHH,2000-10-11 06:00,ZHHH 110600Z AUTO 36006KT 11SM 21/15 RMK SLP164 T02100151 57005 IEM_DS3505
ZHHH,2000-10-11 09:00,ZHHH 110900Z AUTO 04008KT 9SM 18/14 RMK SLP182 T01830138 52018 IEM_DS3505
ZHHH,2000-10-11 12:00,ZHHH 111200Z AUTO 02006KT 9SM 18/13 RMK SLP207 T01810131 52025 IEM_DS3505
ZHHH,2000-10-11 15:00,ZHHH 111500Z AUTO 04010KT 9SM 18/13 RMK SLP221 T01750134 52014 IEM_DS3505
ZHHH,2000-10-11 18:00,ZHHH 111800Z AUTO 02008KT 7SM 17/12 RMK SLP225 T01720125 52004 IEM_DS3505
ZHHH,2000-10-11 21:00,ZHHH 112100Z AUTO 04010KT 7SM 16/11 RMK SLP229 T01610111 52004 IEM_DS3505
ZHHH,2000-10-12 00:00,ZHHH 120000Z AUTO 02008KT 16SM 14/12 RMK 60003 SLP250 T01420118 52021 IEM_DS3505
ZHHH,2000-10-12 03:00,ZHHH 120300Z AUTO 02008KT 16SM 13/10 RMK SLP261 T01310104 52011 IEM_DS3505
ZHHH,2000-10-12 06:00,ZHHH 120600Z AUTO 02008KT 6SM 13/11 RMK 60002 SLP248 T01270110 57013 IEM_DS3505
ZHHH,2000-10-12 09:00,ZHHH 120900Z AUTO 04006KT 6SM 12/10 RMK SLP254 T01160102 52005 IEM_DS3505
ZHHH,2000-10-12 12:00,ZHHH 121200Z AUTO 02006KT 6SM 11/09 RMK 60008 SLP264 T01130093 52010 IEM_DS3505
ZHHH,2000-10-12 15:00,ZHHH 121500Z AUTO 02004KT 6SM 11/10 RMK SLP268 T01110099 52004 IEM_DS3505
ZHHH,2000-10-12 18:00,ZHHH 121800Z AUTO 04008KT 6SM 11/10 RMK 60012 SLP262 T01060096 57006 IEM_DS3505
ZHHH,2000-10-12 21:00,ZHHH 122100Z AUTO 04008KT 6SM 11/10 RMK 70032 SLP254 T01100096 57008 IEM_DS3505
ZHHH,2000-10-13 00:00,ZHHH 130000Z AUTO 02004KT 8SM 11/09 RMK 60016 SLP263 T01110091 52009 IEM_DS3505
ZHHH,2000-10-13 03:00,ZHHH 130300Z AUTO 02004KT 7SM 11/09 RMK SLP266 T01130091 52003 IEM_DS3505
ZHHH,2000-10-13 06:00,ZHHH 130600Z AUTO 02006KT 16SM 12/08 RMK 60000 SLP245 T01250078 57021 IEM_DS3505
ZHHH,2000-10-13 09:00,ZHHH 130900Z AUTO 04004KT 14SM 12/07 RMK SLP247 T01210066 52002 IEM_DS3505
ZHHH,2000-10-13 12:00,ZHHH 131200Z AUTO 02004KT 6SM 12/05 RMK SLP256 T01150051 52009 IEM_DS3505
ZHHH,2000-10-13 15:00,ZHHH 131500Z AUTO 02004KT 6SM 10/06 RMK SLP258 T01040065 52002 IEM_DS3505
ZHHH,2000-10-13 18:00,ZHHH 131800Z AUTO 36004KT 6SM 10/07 RMK 60003 SLP252 T01050071 57006 IEM_DS3505
ZHHH,2000-10-13 21:00,ZHHH 132100Z AUTO 02002KT 7SM 10/07 RMK 70006 SLP249 T00990074 57003 IEM_DS3505
ZHHH,2000-10-14 00:00,ZHHH 140000Z AUTO 04002KT 8SM 10/07 RMK 70001 SLP253 T01020068 52004 IEM_DS3505
ZHHH,2000-10-14 03:00,ZHHH 140300Z AUTO 36002KT 9SM 12/07 RMK SLP263 T01200074 52010 IEM_DS3505
ZHHH,2000-10-14 06:00,ZHHH 140600Z AUTO 00000KT 9SM 13/08 RMK SLP247 T01260084 57016 IEM_DS3505
ZHHH,2000-10-14 09:00,ZHHH 140900Z AUTO 34004KT 9SM 13/09 RMK SLP244 T01330087 57003 IEM_DS3505
ZHHH,2000-10-14 12:00,ZHHH 141200Z AUTO 00000KT 9SM 13/09 RMK SLP254 T01300092 52010 IEM_DS3505
ZHHH,2000-10-14 15:00,ZHHH 141500Z AUTO 32002KT 9SM 13/10 RMK SLP262 T01290098 52008 IEM_DS3505
ZHHH,2000-10-14 18:00,ZHHH 141800Z AUTO 00000KT 9SM 12/10 RMK SLP260 T01250095 57002 IEM_DS3505
ZHHH,2000-10-14 21:00,ZHHH 142100Z AUTO 00000KT 9SM 12/10 RMK SLP253 T01230104 57007 IEM_DS3505
ZHHH,2000-10-15 00:00,ZHHH 150000Z AUTO 00000KT 9SM 13/11 RMK SLP273 T01340107 52020 IEM_DS3505
ZHHH,2000-10-15 03:00,ZHHH 150300Z AUTO 04004KT 9SM 16/11 RMK SLP275 T01610108 52003 IEM_DS3505
ZHHH,2000-10-15 06:00,ZHHH 150600Z AUTO 04002KT 11SM 18/11 RMK SLP259 T01770110 57016 IEM_DS3505
ZHHH,2000-10-15 09:00,ZHHH 150900Z AUTO 02002KT 11SM 18/12 RMK SLP260 T01820116 52001 IEM_DS3505
ZHHH,2000-10-15 12:00,ZHHH 151200Z AUTO 00000KT 7SM 17/13 RMK 60003 SLP266 T01730130 52006 IEM_DS3505
ZHHH,2000-10-15 15:00,ZHHH 151500Z AUTO 02004KT 9SM 16/11 RMK SLP274 T01610113 52008 IEM_DS3505
ZHHH,2000-10-15 18:00,ZHHH 151800Z AUTO 04002KT 9SM 16/11 RMK SLP269 T01550106 57005 IEM_DS3505
ZHHH,2000-10-15 21:00,ZHHH 152100Z AUTO 04002KT 9SM 14/12 RMK 70007 SLP268 T01440120 57001 IEM_DS3505
ZHHH,2000-10-16 00:00,ZHHH 160000Z AUTO 04002KT 7SM 14/12 RMK 60016 SLP275 T01390122 52007 IEM_DS3505
ZHHH,2000-10-16 03:00,ZHHH 160300Z AUTO 04002KT 7SM 14/12 RMK SLP269 T01450125 57006 IEM_DS3505
ZHHH,2000-10-16 06:00,ZHHH 160600Z AUTO 32004KT 7SM 16/13 RMK 60004 SLP244 T01550126 57025 IEM_DS3505
ZHHH,2000-10-16 09:00,ZHHH 160900Z AUTO 36004KT 7SM 15/14 RMK SLP238 T01490135 57006 IEM_DS3505
ZHHH,2000-10-16 12:00,ZHHH 161200Z AUTO 36002KT 6SM 14/14 RMK 60016 SLP238 T01420135 54000 IEM_DS3505
ZHHH,2000-10-16 15:00,ZHHH 161500Z AUTO 36002KT 6SM 14/14 RMK SLP230 T01400136 57008 IEM_DS3505
ZHHH,2000-10-16 18:00,ZHHH 161800Z AUTO 00000KT 6SM 14/13 RMK 60016 SLP222 T01410134 57008 IEM_DS3505
ZHHH,2000-10-16 21:00,ZHHH 162100Z AUTO 00000KT 7SM 14/13 RMK 70047 SLP212 T01390132 57010 IEM_DS3505
ZHHH,2000-10-17 00:00,ZHHH 170000Z AUTO 34002KT 6SM 14/13 RMK 60001 SLP216 T01420133 52004 IEM_DS3505
ZHHH,2000-10-17 03:00,ZHHH 170300Z AUTO 34002KT 9SM 16/13 RMK SLP217 T01570128 52001 IEM_DS3505
ZHHH,2000-10-17 06:00,ZHHH 170600Z AUTO 29002KT 11SM 18/12 RMK SLP198 T01850116 57019 IEM_DS3505
ZHHH,2000-10-17 09:00,ZHHH 170900Z AUTO 34002KT 11SM 19/12 RMK SLP196 T01860117 57002 IEM_DS3505
ZHHH,2000-10-17 12:00,ZHHH 171200Z AUTO 00000KT 9SM 16/14 RMK SLP205 T01580137 52009 IEM_DS3505
ZHHH,2000-10-17 15:00,ZHHH 171500Z AUTO 00000KT 9SM 15/14 RMK SLP212 T01470140 52007 IEM_DS3505
ZHHH,2000-10-17 18:00,ZHHH 171800Z AUTO 00000KT 9SM 14/14 RMK SLP212 T01450140 54000 IEM_DS3505
ZHHH,2000-10-17 21:00,ZHHH 172100Z AUTO 34002KT 9SM 14/13 RMK 70003 SLP208 T01380129 57004 IEM_DS3505
ZHHH,2000-10-18 00:00,ZHHH 180000Z AUTO 02002KT 7SM 14/13 RMK SLP219 T01430128 52011 IEM_DS3505
ZHHH,2000-10-18 03:00,ZHHH 180300Z AUTO 04002KT 9SM 18/13 RMK SLP215 T01750134 57004 IEM_DS3505
ZHHH,2000-10-18 06:00,ZHHH 180600Z AUTO 02002KT 11SM 20/13 RMK SLP184 T01950134 57031 IEM_DS3505
ZHHH,2000-10-18 09:00,ZHHH 180900Z AUTO 04002KT 9SM 19/14 RMK SLP173 T01930137 57011 IEM_DS3505
ZHHH,2000-10-18 12:00,ZHHH 181200Z AUTO 04002KT 9SM 18/14 RMK SLP183 T01840142 52010 IEM_DS3505
ZHHH,2000-10-18 15:00,ZHHH 181500Z AUTO 00000KT 7SM 17/15 RMK SLP184 T01740148 52001 IEM_DS3505
ZHHH,2000-10-18 18:00,ZHHH 181800Z AUTO 04002KT 7SM 17/15 RMK SLP183 T01700149 57001 IEM_DS3505
ZHHH,2000-10-18 21:00,ZHHH 182100Z AUTO 04002KT 9SM 17/16 RMK SLP173 T01660158 57010 IEM_DS3505
ZHHH,2000-10-19 00:00,ZHHH 190000Z AUTO 00000KT 4SM 17/16 RMK 60008 SLP172 T01660156 57001 IEM_DS3505
ZHHH,2000-10-19 03:00,ZHHH 190300Z AUTO 00000KT 4SM 17/16 RMK SLP177 T01690161 52005 IEM_DS3505
ZHHH,2000-10-19 04:00,ZHHH 190400Z AUTO 1SM 16/16 A3003 RMK T01600160 IEM_DS3505
ZHHH,2000-10-19 06:00,ZHHH 190600Z AUTO 04002KT 5SM 17/16 RMK 60051 SLP153 T01660159 57024 IEM_DS3505
ZHHH,2000-10-19 09:00,ZHHH 190900Z AUTO 04002KT 5SM 16/16 RMK SLP154 T01640161 52001 IEM_DS3505
ZHHH,2000-10-19 12:00,ZHHH 191200Z AUTO 00000KT 6SM 16/16 RMK 60012 SLP172 T01630158 52018 IEM_DS3505
ZHHH,2000-10-19 15:00,ZHHH 191500Z AUTO 00000KT 7SM 16/15 RMK SLP181 T01610154 52009 IEM_DS3505
ZHHH,2000-10-19 18:00,ZHHH 191800Z AUTO 36002KT 7SM 16/16 RMK 60000 SLP174 T01610156 57007 IEM_DS3505
ZHHH,2000-10-19 21:00,ZHHH 192100Z AUTO 36002KT 7SM 16/15 RMK 70072 SLP172 T01600151 57002 IEM_DS3505
ZHHH,2000-10-20 00:00,ZHHH 200000Z AUTO 36002KT 6SM 15/14 RMK 70063 SLP188 T01510144 52016 IEM_DS3505
ZHHH,2000-10-20 03:00,ZHHH 200300Z AUTO 36002KT 9SM 17/14 RMK SLP192 T01720137 52004 IEM_DS3505
ZHHH,2000-10-20 06:00,ZHHH 200600Z AUTO 04002KT 9SM 20/15 RMK SLP175 T01950147 57017 IEM_DS3505
ZHHH,2000-10-20 09:00,ZHHH 200900Z AUTO 00000KT 9SM 20/16 RMK SLP175 T02000158 54000 IEM_DS3505
ZHHH,2000-10-20 12:00,ZHHH 201200Z AUTO 00000KT 9SM 19/17 RMK SLP185 T01910170 52010 IEM_DS3505
ZHHH,2000-10-20 15:00,ZHHH 201500Z AUTO 00000KT 6SM 19/18 RMK SLP193 T01900179 52008 IEM_DS3505
ZHHH,2000-10-20 18:00,ZHHH 201800Z AUTO 00000KT 6SM 18/17 RMK 60000 SLP187 T01840174 57006 IEM_DS3505
ZHHH,2000-10-20 21:00,ZHHH 202100Z AUTO 04002KT 6SM 18/17 RMK 70006 SLP182 T01750170 57005 IEM_DS3505
ZHHH,2000-10-21 00:00,ZHHH 210000Z AUTO 02002KT 6SM 17/17 RMK 60012 SLP189 T01710166 52007 IEM_DS3505
ZHHH,2000-10-21 03:00,ZHHH 210300Z AUTO 02002KT 8SM 18/17 RMK SLP188 T01810169 57001 IEM_DS3505
ZHHH,2000-10-21 06:00,ZHHH 210600Z AUTO 02002KT 7SM 19/17 RMK 60001 SLP162 T01910173 57026 IEM_DS3505
ZHHH,2000-10-21 09:00,ZHHH 210900Z AUTO 04004KT 8SM 19/18 RMK SLP159 T01910175 57003 IEM_DS3505
ZHHH,2000-10-21 12:00,ZHHH 211200Z AUTO 00000KT 6SM 18/17 RMK 60000 SLP169 T01810169 52010 IEM_DS3505
ZHHH,2000-10-21 15:00,ZHHH 211500Z AUTO 04002KT 6SM 17/17 RMK SLP160 T01740166 57009 IEM_DS3505
ZHHH,2000-10-21 18:00,ZHHH 211800Z AUTO 04002KT 7SM 17/16 RMK 60003 SLP149 T01700163 57011 IEM_DS3505
ZHHH,2000-10-21 21:00,ZHHH 212100Z AUTO 36002KT 6SM 17/16 RMK 70009 SLP140 T01690164 57009 IEM_DS3505
ZHHH,2000-10-22 00:00,ZHHH 220000Z AUTO 36002KT 6SM 17/17 RMK 60008 SLP147 T01720169 52007 IEM_DS3505
ZHHH,2000-10-22 03:00,ZHHH 220300Z AUTO 36002KT 7SM 19/17 RMK SLP143 T01870174 57004 IEM_DS3505
ZHHH,2000-10-22 06:00,ZHHH 220600Z AUTO 32002KT 8SM 19/18 RMK 60002 SLP126 T01920176 57017 IEM_DS3505
ZHHH,2000-10-22 09:00,ZHHH 220900Z AUTO 00000KT 9SM 20/18 RMK SLP122 T01990178 57004 IEM_DS3505
ZHHH,2000-10-22 12:00,ZHHH 221200Z AUTO 00000KT 9SM 19/18 RMK 60003 SLP136 T01940181 52014 IEM_DS3505
ZHHH,2000-10-22 15:00,ZHHH 221500Z AUTO 00000KT 6SM 19/18 RMK SLP142 T01920182 52006 IEM_DS3505
ZHHH,2000-10-22 18:00,ZHHH 221800Z AUTO 00000KT 6SM 19/18 RMK 60003 SLP135 T01880183 57007 IEM_DS3505
ZHHH,2000-10-22 21:00,ZHHH 222100Z AUTO 00000KT 7SM 19/18 RMK 70010 SLP130 T01870179 57005 IEM_DS3505
ZHHH,2000-10-23 00:00,ZHHH 230000Z AUTO 00000KT 7SM 18/17 RMK 60003 SLP142 T01840173 52012 IEM_DS3505
ZHHH,2000-10-23 03:00,ZHHH 230300Z AUTO 04004KT 9SM 19/18 RMK SLP147 T01920184 52005 IEM_DS3505
ZHHH,2000-10-23 06:00,ZHHH 230600Z AUTO 04002KT 9SM 20/18 RMK 60008 SLP125 T02010185 57022 IEM_DS3505
ZHHH,2000-10-23 09:00,ZHHH 230900Z AUTO 04004KT 9SM 20/18 RMK SLP126 T01960178 52001 IEM_DS3505
ZHHH,2000-10-23 12:00,ZHHH 231200Z AUTO 04002KT 9SM 19/18 RMK SLP136 T01890178 52010 IEM_DS3505
ZHHH,2000-10-23 15:00,ZHHH 231500Z AUTO 00000KT 8SM 19/18 RMK SLP144 T01870176 52008 IEM_DS3505
ZHHH,2000-10-23 18:00,ZHHH 231800Z AUTO 00000KT 6SM 18/18 RMK 60002 SLP145 T01820179 52001 IEM_DS3505
ZHHH,2000-10-23 21:00,ZHHH 232100Z AUTO 00000KT 9SM 18/18 RMK 70010 SLP149 T01820179 52004 IEM_DS3505
ZHHH,2000-10-24 00:00,ZHHH 240000Z AUTO 00000KT 7SM 18/18 RMK 60000 SLP166 T01840177 52017 IEM_DS3505
ZHHH,2000-10-24 03:00,ZHHH 240300Z AUTO 04004KT 7SM 19/18 RMK SLP175 T01880182 52009 IEM_DS3505
ZHHH,2000-10-24 06:00,ZHHH 240600Z AUTO 02004KT 9SM 20/18 RMK 60004 SLP163 T01970176 57012 IEM_DS3505
ZHHH,2000-10-24 09:00,ZHHH 240900Z AUTO 36004KT 7SM 19/17 RMK SLP169 T01910170 52006 IEM_DS3505
ZHHH,2000-10-24 12:00,ZHHH 241200Z AUTO 02006KT 6SM 17/16 RMK 60000 SLP193 T01660158 52024 IEM_DS3505
ZHHH,2000-10-24 15:00,ZHHH 241500Z AUTO 04004KT 6SM 16/15 RMK SLP212 T01580149 52019 IEM_DS3505
ZHHH,2000-10-24 18:00,ZHHH 241800Z AUTO 02006KT 6SM 16/14 RMK 60004 SLP212 T01630138 54000 IEM_DS3505
ZHHH,2000-10-24 21:00,ZHHH 242100Z AUTO 02004KT 7SM 16/14 RMK 70009 SLP212 T01610136 54000 IEM_DS3505
ZHHH,2000-10-25 00:00,ZHHH 250000Z AUTO 36004KT 6SM 15/12 RMK 60003 SLP225 T01500123 52013 IEM_DS3505
ZHHH,2000-10-25 03:00,ZHHH 250300Z AUTO 04004KT 6SM 15/13 RMK SLP232 T01530128 52007 IEM_DS3505
ZHHH,2000-10-25 06:00,ZHHH 250600Z AUTO 02004KT 6SM 14/13 RMK 60003 SLP219 T01400133 57013 IEM_DS3505
ZHHH,2000-10-25 09:00,ZHHH 250900Z AUTO 34004KT 6SM 14/13 RMK SLP228 T01350130 52009 IEM_DS3505
ZHHH,2000-10-25 12:00,ZHHH 251200Z AUTO 04006KT 5SM 11/10 RMK 60039 SLP245 T01110097 52016 IEM_DS3505
ZHHH,2000-10-25 15:00,ZHHH 251500Z AUTO 36004KT 6SM 12/08 RMK SLP255 T01150078 52010 IEM_DS3505
ZHHH,2000-10-25 18:00,ZHHH 251800Z AUTO 34002KT 6SM 10/09 RMK 60012 SLP249 T01040094 57006 IEM_DS3505
ZHHH,2000-10-25 21:00,ZHHH 252100Z AUTO 32002KT 6SM 11/10 RMK 70058 SLP246 T01060100 57003 IEM_DS3505
ZHHH,2000-10-26 00:00,ZHHH 260000Z AUTO 04004KT 6SM 10/09 RMK 60039 SLP259 T00990089 52013 IEM_DS3505
ZHHH,2000-10-26 03:00,ZHHH 260300Z AUTO 04004KT 7SM 10/10 RMK SLP265 T01040096 52006 IEM_DS3505
ZHHH,2000-10-26 06:00,ZHHH 260600Z AUTO 36002KT 6SM 11/11 RMK 60024 SLP250 T01110107 57015 IEM_DS3505
ZHHH,2000-10-26 09:00,ZHHH 260900Z AUTO 00000KT 6SM 12/12 RMK SLP249 T01190115 57001 IEM_DS3505
ZHHH,2000-10-26 12:00,ZHHH 261200Z AUTO 02002KT 6SM 12/11 RMK 60020 SLP256 T01200114 52007 IEM_DS3505
ZHHH,2000-10-26 15:00,ZHHH 261500Z AUTO 36002KT 6SM 12/12 RMK SLP262 T01230119 52006 IEM_DS3505
ZHHH,2000-10-26 18:00,ZHHH 261800Z AUTO 04004KT 5SM 12/11 RMK 60003 SLP261 T01220114 57001 IEM_DS3505
ZHHH,2000-10-26 21:00,ZHHH 262100Z AUTO 00000KT 5SM 12/11 RMK 70079 SLP253 T01220114 57008 IEM_DS3505
ZHHH,2000-10-27 00:00,ZHHH 270000Z AUTO 02002KT 9SM 12/12 RMK 60008 SLP265 T01210115 52012 IEM_DS3505
ZHHH,2000-10-27 03:00,ZHHH 270300Z AUTO 07002KT 9SM 13/12 RMK SLP262 T01290118 57003 IEM_DS3505
ZHHH,2000-10-27 06:00,ZHHH 270600Z AUTO 02002KT 9SM 14/12 RMK 60000 SLP239 T01400125 57023 IEM_DS3505
ZHHH,2000-10-27 09:00,ZHHH 270900Z AUTO 02002KT 9SM 14/13 RMK SLP234 T01420127 57005 IEM_DS3505
ZHHH,2000-10-27 12:00,ZHHH 271200Z AUTO 36002KT 7SM 14/13 RMK SLP243 T01370130 52009 IEM_DS3505
ZHHH,2000-10-27 15:00,ZHHH 271500Z AUTO 00000KT 6SM 13/13 RMK SLP244 T01310127 52001 IEM_DS3505
ZHHH,2000-10-27 18:00,ZHHH 271800Z AUTO 36004KT 6SM 13/13 RMK SLP238 T01340129 57005 IEM_DS3505
ZHHH,2000-10-27 21:00,ZHHH 272100Z AUTO 36002KT 6SM 13/12 RMK 70008 SLP232 T01290125 57006 IEM_DS3505
ZHHH,2000-10-28 00:00,ZHHH 280000Z AUTO 34004KT 6SM 13/13 RMK 60003 SLP245 T01330129 52012 IEM_DS3505
ZHHH,2000-10-28 03:00,ZHHH 280300Z AUTO 34002KT 7SM 13/13 RMK SLP246 T01330127 52001 IEM_DS3505
ZHHH,2000-10-28 12:00,ZHHH 281200Z AUTO 36002KT 7SM 12/11 RMK 60016 SLP254 T01230113 52015 IEM_DS3505
ZHHH,2000-10-28 15:00,ZHHH 281500Z AUTO 00000KT 7SM 12/11 RMK SLP264 T01220114 52010 IEM_DS3505
ZHHH,2000-10-28 18:00,ZHHH 281800Z AUTO 32002KT 6SM 12/11 RMK 60002 SLP264 T01170113 54000 IEM_DS3505
ZHHH,2000-10-28 21:00,ZHHH 282100Z AUTO 00000KT 6SM 12/11 RMK 70031 SLP256 T01170109 57008 IEM_DS3505
ZHHH,2000-10-29 00:00,ZHHH 290000Z AUTO 32002KT 7SM 12/11 RMK 60000 SLP266 T01210109 52010 IEM_DS3505
ZHHH,2000-10-29 03:00,ZHHH 290300Z AUTO 36004KT 9SM 14/10 RMK SLP274 T01450105 52008 IEM_DS3505
ZHHH,2000-10-29 06:00,ZHHH 290600Z AUTO 32008KT 16SM 17/04 RMK SLP246 T01730035 57027 IEM_DS3505
ZHHH,2000-10-29 09:00,ZHHH 290900Z AUTO 34004KT 16SM 16/04 RMK SLP241 T01600036 57005 IEM_DS3505
ZHHH,2000-10-29 12:00,ZHHH 291200Z AUTO 00000KT 12SM 13/06 RMK SLP248 T01280058 52006 IEM_DS3505
ZHHH,2000-10-29 15:00,ZHHH 291500Z AUTO 00000KT 12SM 12/06 RMK SLP251 T01170056 52003 IEM_DS3505
ZHHH,2000-10-29 18:00,ZHHH 291800Z AUTO 00000KT 9SM 10/07 RMK SLP234 T01000066 57016 IEM_DS3505
ZHHH,2000-10-29 21:00,ZHHH 292100Z AUTO 36002KT 9SM 10/06 RMK SLP216 T00960056 57019 IEM_DS3505
ZHHH,2000-10-30 00:00,ZHHH 300000Z AUTO 00000KT 11SM 09/07 RMK SLP221 T00940066 52005 IEM_DS3505
ZHHH,2000-10-30 03:00,ZHHH 300300Z AUTO 27004KT 12SM 15/05 RMK SLP216 T01480050 57004 IEM_DS3505
ZHHH,2000-10-30 06:00,ZHHH 300600Z AUTO 25002KT 12SM 18/06 RMK SLP187 T01750058 57029 IEM_DS3505
ZHHH,2000-10-30 09:00,ZHHH 300900Z AUTO 34002KT 12SM 16/06 RMK SLP183 T01630065 57004 IEM_DS3505
ZHHH,2000-10-30 12:00,ZHHH 301200Z AUTO 00000KT 12SM 13/09 RMK SLP203 T01270087 52019 IEM_DS3505
ZHHH,2000-10-30 15:00,ZHHH 301500Z AUTO 00000KT 12SM 11/10 RMK SLP212 T01060096 52009 IEM_DS3505
ZHHH,2000-10-30 18:00,ZHHH 301800Z AUTO 00000KT 12SM 10/08 RMK SLP213 T01050082 52002 IEM_DS3505
ZHHH,2000-10-30 21:00,ZHHH 302100Z AUTO 00000KT 12SM 10/09 RMK SLP216 T00980088 52003 IEM_DS3505
ZHHH,2000-10-31 00:00,ZHHH 310000Z AUTO 34002KT 14SM 10/08 RMK SLP239 T01010078 52022 IEM_DS3505
ZHHH,2000-10-31 03:00,ZHHH 310300Z AUTO 34002KT 16SM 16/08 RMK SLP245 T01570084 52006 IEM_DS3505
ZHHH,2000-10-31 06:00,ZHHH 310600Z AUTO 36006KT 14SM 20/06 RMK SLP223 T01950060 57021 IEM_DS3505
ZHHH,2000-10-31 09:00,ZHHH 310900Z AUTO 36004KT 14SM 18/07 RMK SLP222 T01840071 57001 IEM_DS3505
ZHHH,2000-10-31 12:00,ZHHH 311200Z AUTO 04004KT 12SM 15/06 RMK SLP239 T01490059 52016 IEM_DS3505
ZHHH,2000-10-31 15:00,ZHHH 311500Z AUTO 04004KT 11SM 13/06 RMK SLP248 T01340057 52010 IEM_DS3505
ZHHH,2000-10-31 18:00,ZHHH 311800Z AUTO 02002KT 12SM 11/06 RMK SLP248 T01120063 54000 IEM_DS3505
ZHHH,2000-10-31 21:00,ZHHH 312100Z AUTO 00000KT 12SM 09/08 RMK SLP248 T00930076 54000 IEM_DS3505
ZHHH,2000-11-01 00:00,ZHHH 010000Z AUTO 02002KT 11SM 10/06 RMK SLP265 T01020056 52016 IEM_DS3505
ZHHH,2000-11-01 03:00,ZHHH 010300Z AUTO 02004KT 11SM 15/02 RMK SLP268 T01510015 52003 IEM_DS3505
ZHHH,2000-11-01 06:00,ZHHH 010600Z AUTO 34004KT 16SM 17/01 RMK SLP240 T01670009 57027 IEM_DS3505
ZHHH,2000-11-01 09:00,ZHHH 010900Z AUTO 34002KT 12SM 16/03 RMK SLP236 T01610034 57005 IEM_DS3505
ZHHH,2000-11-01 12:00,ZHHH 011200Z AUTO 00000KT 11SM 12/07 RMK SLP238 T01240072 52002 IEM_DS3505
ZHHH,2000-11-01 15:00,ZHHH 011500Z AUTO 00000KT 11SM 10/07 RMK SLP242 T01040068 52004 IEM_DS3505
ZHHH,2000-11-01 18:00,ZHHH 011800Z AUTO 00000KT 11SM 09/08 RMK SLP240 T00860075 57002 IEM_DS3505
ZHHH,2000-11-01 21:00,ZHHH 012100Z AUTO 32002KT 9SM 09/06 RMK SLP236 T00890058 57004 IEM_DS3505
ZHHH,2000-11-02 00:00,ZHHH 020000Z AUTO 00000KT 11SM 10/07 RMK SLP245 T01000068 52009 IEM_DS3505
ZHHH,2000-11-02 03:00,ZHHH 020300Z AUTO 18002KT 12SM 15/06 RMK SLP248 T01520060 52003 IEM_DS3505
ZHHH,2000-11-02 06:00,ZHHH 020600Z AUTO 14004KT 14SM 18/04 RMK SLP223 T01830039 57024 IEM_DS3505
ZHHH,2000-11-02 09:00,ZHHH 020900Z AUTO 00000KT 14SM 18/05 RMK SLP215 T01750050 57008 IEM_DS3505
ZHHH,2000-11-02 12:00,ZHHH 021200Z AUTO 00000KT 11SM 14/07 RMK SLP222 T01350074 52006 IEM_DS3505
ZHHH,2000-11-02 15:00,ZHHH 021500Z AUTO 00000KT 11SM 10/09 RMK SLP226 T01030087 52004 IEM_DS3505
ZHHH,2000-11-02 18:00,ZHHH 021800Z AUTO 00000KT 7SM 10/08 RMK SLP223 T01000084 57002 IEM_DS3505
ZHHH,2000-11-02 21:00,ZHHH 022100Z AUTO 00000KT 7SM 10/08 RMK SLP221 T00970085 57002 IEM_DS3505
ZHHH,2000-11-03 00:00,ZHHH 030000Z AUTO 00000KT 9SM 11/08 RMK SLP229 T01090078 52007 IEM_DS3505
ZHHH,2000-11-03 03:00,ZHHH 030300Z AUTO 14002KT 12SM 19/07 RMK SLP231 T01880066 52003 IEM_DS3505
ZHHH,2000-11-03 06:00,ZHHH 030600Z AUTO 18002KT 12SM 21/06 RMK SLP208 T02140056 57023 IEM_DS3505
ZHHH,2000-11-03 09:00,ZHHH 030900Z AUTO 00000KT 12SM 20/06 RMK SLP203 T01980062 57005 IEM_DS3505
ZHHH,2000-11-03 12:00,ZHHH 031200Z AUTO 00000KT 11SM 14/11 RMK SLP215 T01350108 52011 IEM_DS3505
ZHHH,2000-11-03 15:00,ZHHH 031500Z AUTO 00000KT 11SM 11/11 RMK SLP224 T01140110 52010 IEM_DS3505
ZHHH,2000-11-03 18:00,ZHHH 031800Z AUTO 09002KT 9SM 12/10 RMK SLP233 T01170101 52009 IEM_DS3505
ZHHH,2000-11-03 21:00,ZHHH 032100Z AUTO 00000KT 9SM 10/09 RMK SLP232 T01050091 57001 IEM_DS3505
ZHHH,2000-11-04 00:00,ZHHH 040000Z AUTO 09002KT 11SM 11/09 RMK SLP245 T01100092 52012 IEM_DS3505
ZHHH,2000-11-04 03:00,ZHHH 040300Z AUTO 09002KT 12SM 17/10 RMK SLP241 T01740096 57003 IEM_DS3505
ZHHH,2000-11-04 06:00,ZHHH 040600Z AUTO 34002KT 11SM 21/09 RMK SLP212 T02110093 57029 IEM_DS3505
ZHHH,2000-11-04 12:00,ZHHH 041200Z AUTO 00000KT 7SM 15/13 RMK SLP207 T01520130 52005 IEM_DS3505
ZHHH,2000-11-04 15:00,ZHHH 041500Z AUTO 00000KT 7SM 14/13 RMK SLP207 T01350128 54000 IEM_DS3505
ZHHH,2000-11-04 18:00,ZHHH 041800Z AUTO 00000KT 7SM 12/12 RMK SLP189 T01220116 57018 IEM_DS3505
ZHHH,2000-11-04 21:00,ZHHH 042100Z AUTO 00000KT 7SM 12/12 RMK SLP179 T01230119 57010 IEM_DS3505
ZHHH,2000-11-05 00:00,ZHHH 050000Z AUTO 00000KT 4SM 12/12 RMK SLP176 T01230119 57003 IEM_DS3505
ZHHH,2000-11-05 03:00,ZHHH 050300Z AUTO 00000KT 5SM 18/14 RMK SLP171 T01800138 57005 IEM_DS3505
ZHHH,2000-11-05 06:00,ZHHH 050600Z AUTO 14002KT 9SM 23/11 RMK SLP134 T02280112 57037 IEM_DS3505
ZHHH,2000-11-05 09:00,ZHHH 050900Z AUTO 00000KT 8SM 22/13 RMK SLP123 T02150128 57011 IEM_DS3505
ZHHH,2000-11-05 12:00,ZHHH 051200Z AUTO 00000KT 7SM 16/13 RMK SLP133 T01610129 52010 IEM_DS3505
ZHHH,2000-11-05 15:00,ZHHH 051500Z AUTO 00000KT 7SM 15/12 RMK SLP136 T01480124 52003 IEM_DS3505
ZHHH,2000-11-05 18:00,ZHHH 051800Z AUTO 00000KT 7SM 13/12 RMK SLP137 T01320125 52001 IEM_DS3505
ZHHH,2000-11-05 21:00,ZHHH 052100Z AUTO 00000KT 6SM 12/12 RMK SLP133 T01240118 57004 IEM_DS3505
ZHHH,2000-11-06 00:00,ZHHH 060000Z AUTO 00000KT 7SM 14/11 RMK SLP139 T01380114 52006 IEM_DS3505
ZHHH,2000-11-06 03:00,ZHHH 060300Z AUTO 14004KT 9SM 21/10 RMK SLP143 T02140102 52004 IEM_DS3505
ZHHH,2000-11-06 06:00,ZHHH 060600Z AUTO 18002KT 11SM 25/12 RMK SLP124 T02470115 57019 IEM_DS3505
ZHHH,2000-11-06 09:00,ZHHH 060900Z AUTO 00000KT 11SM 22/12 RMK SLP128 T02240122 52004 IEM_DS3505
ZHHH,2000-11-06 12:00,ZHHH 061200Z AUTO 00000KT 9SM 16/14 RMK SLP144 T01640143 52016 IEM_DS3505
ZHHH,2000-11-06 15:00,ZHHH 061500Z AUTO 36002KT 9SM 16/13 RMK SLP165 T01580127 52021 IEM_DS3505
ZHHH,2000-11-06 18:00,ZHHH 061800Z AUTO 00000KT 7SM 15/13 RMK SLP177 T01510129 52012 IEM_DS3505
ZHHH,2000-11-06 21:00,ZHHH 062100Z AUTO 36002KT 6SM 14/13 RMK SLP184 T01370128 52007 IEM_DS3505
ZHHH,2000-11-07 00:00,ZHHH 070000Z AUTO 36002KT 5SM 14/13 RMK SLP205 T01400129 52021 IEM_DS3505
ZHHH,2000-11-07 03:00,ZHHH 070300Z AUTO 02006KT 6SM 17/13 RMK SLP215 T01710128 52010 IEM_DS3505
ZHHH,2000-11-07 06:00,ZHHH 070600Z AUTO 02006KT 7SM 19/12 RMK SLP193 T01870120 57022 IEM_DS3505
ZHHH,2000-11-07 09:00,ZHHH 070900Z AUTO 34006KT 8SM 17/13 RMK SLP198 T01730126 52005 IEM_DS3505
ZHHH,2000-11-07 12:00,ZHHH 071200Z AUTO 02008KT 7SM 16/12 RMK SLP211 T01630115 52013 IEM_DS3505
ZHHH,2000-11-07 15:00,ZHHH 071500Z AUTO 02006KT 7SM 14/08 RMK SLP228 T01390078 52017 IEM_DS3505
ZHHH,2000-11-07 18:00,ZHHH 071800Z AUTO 36006KT 7SM 12/06 RMK 60000 SLP233 T01180063 52005 IEM_DS3505
ZHHH,2000-11-07 21:00,ZHHH 072100Z AUTO 36008KT 7SM 10/04 RMK 70000 SLP235 T00980038 52002 IEM_DS3505
ZHHH,2000-11-08 06:00,ZHHH 080600Z AUTO 32008KT 9SM 09/05 RMK SLP233 T00870051 57023 IEM_DS3505
ZHHH,2000-11-08 09:00,ZHHH 080900Z AUTO 34006KT 7SM 08/06 RMK SLP232 T00790057 57001 IEM_DS3505
ZHHH,2000-11-08 12:00,ZHHH 081200Z AUTO 32004KT 7SM 08/06 RMK SLP245 T00770055 52013 IEM_DS3505
ZHHH,2000-11-08 15:00,ZHHH 081500Z AUTO 34002KT 7SM 08/06 RMK SLP240 T00750057 57005 IEM_DS3505
ZHHH,2000-11-08 18:00,ZHHH 081800Z AUTO 32004KT 7SM 07/05 RMK SLP229 T00680052 57011 IEM_DS3505
ZHHH,2000-11-08 21:00,ZHHH 082100Z AUTO 34004KT 7SM 07/05 RMK SLP215 T00670049 57014 IEM_DS3505
ZHHH,2000-11-09 00:00,ZHHH 090000Z AUTO 00000KT 8SM 08/06 RMK SLP219 T00750055 52004 IEM_DS3505
ZHHH,2000-11-09 03:00,ZHHH 090300Z AUTO 00000KT 8SM 10/07 RMK SLP221 T00970067 52002 IEM_DS3505
ZHHH,2000-11-09 09:00,ZHHH 090900Z AUTO 02002KT 7SM 12/08 RMK SLP204 T01190080 52003 IEM_DS3505
ZHHH,2000-11-09 12:00,ZHHH 091200Z AUTO 34004KT 9SM 10/08 RMK SLP232 T01010076 52028 IEM_DS3505
ZHHH,2000-11-09 15:00,ZHHH 091500Z AUTO 02008KT 8SM 08/05 RMK SLP255 T00830049 52023 IEM_DS3505
ZHHH,2000-11-09 18:00,ZHHH 091800Z AUTO 02010KT 9SM 07/03 RMK SLP276 T00700034 52021 IEM_DS3505
ZHHH,2000-11-09 21:00,ZHHH 092100Z AUTO 04006KT 9SM 07/02 RMK SLP296 T00680024 52020 IEM_DS3505
ZHHH,2000-11-10 00:00,ZHHH 100000Z AUTO 04006KT 12SM 06/01 RMK SLP328 T00610010 52032 IEM_DS3505
ZHHH,2000-11-10 03:00,ZHHH 100300Z AUTO 02006KT 12SM 07/01 RMK SLP340 T00710010 52012 IEM_DS3505
ZHHH,2000-11-10 06:00,ZHHH 100600Z AUTO 02008KT 11SM 07/01 RMK SLP326 T00660013 57014 IEM_DS3505
ZHHH,2000-11-10 09:00,ZHHH 100900Z AUTO 36006KT 9SM 06/01 RMK SLP325 T00590013 57002 IEM_DS3505
ZHHH,2000-11-10 12:00,ZHHH 101200Z AUTO 02008KT 9SM 06/01 RMK SLP335 T00580009 52010 IEM_DS3505
ZHHH,2000-11-10 15:00,ZHHH 101500Z AUTO 04004KT 7SM 06/01 RMK SLP343 T00570008 52008 IEM_DS3505
ZHHH,2000-11-10 18:00,ZHHH 101800Z AUTO 02006KT 8SM 05/M02 RMK SLP337 T00521018 57006 IEM_DS3505
ZHHH,2000-11-10 21:00,ZHHH 102100Z AUTO 04006KT 7SM 04/M00 RMK 70001 SLP337 T00351003 54000 IEM_DS3505
ZHHH,2000-11-11 00:00,ZHHH 110000Z AUTO 02008KT 6SM 03/M01 RMK 60001 SLP337 T00281008 54000 IEM_DS3505
ZHHH,2000-11-11 03:00,ZHHH 110300Z AUTO 07004KT 7SM 04/M01 RMK SLP336 T00351013 57001 IEM_DS3505
ZHHH,2000-11-11 06:00,ZHHH 110600Z AUTO 34004KT 6SM 03/01 RMK 60000 SLP314 T00270011 57022 IEM_DS3505
ZHHH,2000-11-11 09:00,ZHHH 110900Z AUTO 36002KT 6SM 02/01 RMK SLP305 T00210010 57009 IEM_DS3505
ZHHH,2000-11-11 12:00,ZHHH 111200Z AUTO 32004KT 7SM 03/01 RMK 60004 SLP319 T00270014 52014 IEM_DS3505
ZHHH,2000-11-11 15:00,ZHHH 111500Z AUTO 29002KT 7SM 03/01 RMK SLP335 T00260010 52016 IEM_DS3505
ZHHH,2000-11-11 18:00,ZHHH 111800Z AUTO 32002KT 7SM 02/01 RMK SLP328 T00240013 57007 IEM_DS3505
ZHHH,2000-11-11 21:00,ZHHH 112100Z AUTO 29002KT 7SM 02/01 RMK 70004 SLP319 T00240011 57009 IEM_DS3505
ZHHH,2000-11-12 00:00,ZHHH 120000Z AUTO 27002KT 7SM 03/02 RMK 70004 SLP332 T00290016 52013 IEM_DS3505
ZHHH,2000-11-12 03:00,ZHHH 120300Z AUTO 00000KT 9SM 05/02 RMK SLP327 T00480020 57005 IEM_DS3505
ZHHH,2000-11-12 06:00,ZHHH 120600Z AUTO 04002KT 11SM 08/03 RMK SLP299 T00820032 57028 IEM_DS3505
ZHHH,2000-11-12 09:00,ZHHH 120900Z AUTO 02002KT 11SM 08/03 RMK SLP288 T00800027 57011 IEM_DS3505
ZHHH,2000-11-12 12:00,ZHHH 121200Z AUTO 02002KT 9SM 07/04 RMK SLP290 T00690036 52002 IEM_DS3505
ZHHH,2000-11-12 15:00,ZHHH 121500Z AUTO 00000KT 6SM 07/04 RMK SLP290 T00690036 52001 IEM_DS3505
ZHHH,2000-11-12 18:00,ZHHH 121800Z AUTO 00000KT 7SM 05/04 RMK SLP277 T00520042 57013 IEM_DS3505
ZHHH,2000-11-12 21:00,ZHHH 122100Z AUTO 00000KT 6SM 05/04 RMK SLP260 T00480041 57017 IEM_DS3505
ZHHH,2000-11-13 00:00,ZHHH 130000Z AUTO 04002KT 5SM 05/04 RMK SLP265 T00510044 52005 IEM_DS3505
ZHHH,2000-11-13 03:00,ZHHH 130300Z AUTO 04004KT 6SM 09/06 RMK SLP263 T00860060 57002 IEM_DS3505
ZHHH,2000-11-13 06:00,ZHHH 130600Z AUTO 14002KT 9SM 10/04 RMK 60003 SLP240 T00960039 57023 IEM_DS3505
ZHHH,2000-11-13 09:00,ZHHH 130900Z AUTO 11002KT 9SM 09/04 RMK SLP236 T00930035 57004 IEM_DS3505
ZHHH,2000-11-13 12:00,ZHHH 131200Z AUTO 00000KT 9SM 08/05 RMK 60003 SLP240 T00850051 52004 IEM_DS3505
ZHHH,2000-11-13 18:00,ZHHH 131800Z AUTO 00000KT 9SM 08/06 RMK 60003 SLP241 T00790057 57008 IEM_DS3505
ZHHH,2000-11-13 21:00,ZHHH 132100Z AUTO 00000KT 9SM 07/06 RMK 70003 SLP240 T00710058 57001 IEM_DS3505
ZHHH,2000-11-14 00:00,ZHHH 140000Z AUTO 00000KT 9SM 08/06 RMK 70003 SLP247 T00790057 52007 IEM_DS3505
ZHHH,2000-11-14 03:00,ZHHH 140300Z AUTO 09004KT 9SM 10/06 RMK SLP251 T01030060 52004 IEM_DS3505
ZHHH,2000-11-14 06:00,ZHHH 140600Z AUTO 02002KT 12SM 12/05 RMK 60003 SLP230 T01150054 57021 IEM_DS3505
ZHHH,2000-11-14 09:00,ZHHH 140900Z AUTO 34002KT 12SM 12/06 RMK SLP239 T01150062 52009 IEM_DS3505
ZHHH,2000-11-14 12:00,ZHHH 141200Z AUTO 04004KT 7SM 10/06 RMK 60003 SLP252 T01040061 52013 IEM_DS3505
ZHHH,2000-11-14 15:00,ZHHH 141500Z AUTO 34002KT 7SM 10/07 RMK SLP266 T00960068 52014 IEM_DS3505
ZHHH,2000-11-14 18:00,ZHHH 141800Z AUTO 34004KT 7SM 08/07 RMK 60003 SLP265 T00810066 57001 IEM_DS3505
ZHHH,2000-11-14 21:00,ZHHH 142100Z AUTO 34004KT 6SM 08/07 RMK 70003 SLP266 T00800069 52001 IEM_DS3505
ZHHH,2000-11-15 00:00,ZHHH 150000Z AUTO 34002KT 7SM 08/06 RMK 60003 SLP284 T00780065 52018 IEM_DS3505
ZHHH,2000-11-15 03:00,ZHHH 150300Z AUTO 34004KT 7SM 09/06 RMK SLP289 T00870065 52005 IEM_DS3505
ZHHH,2000-11-15 06:00,ZHHH 150600Z AUTO 34004KT 7SM 09/07 RMK 60003 SLP270 T00880066 57019 IEM_DS3505
ZHHH,2000-11-15 09:00,ZHHH 150900Z AUTO 34002KT 7SM 08/06 RMK SLP272 T00820064 52002 IEM_DS3505
ZHHH,2000-11-15 12:00,ZHHH 151200Z AUTO 34004KT 6SM 07/07 RMK 60008 SLP290 T00740067 52018 IEM_DS3505
ZHHH,2000-11-15 15:00,ZHHH 151500Z AUTO 32002KT 6SM 07/06 RMK SLP300 T00720065 52010 IEM_DS3505
ZHHH,2000-11-15 18:00,ZHHH 151800Z AUTO 34004KT 6SM 06/05 RMK 60012 SLP299 T00650051 57001 IEM_DS3505
ZHHH,2000-11-15 21:00,ZHHH 152100Z AUTO 36004KT 6SM 06/04 RMK 70020 SLP303 T00590037 52004 IEM_DS3505
ZHHH,2000-11-16 00:00,ZHHH 160000Z AUTO 02004KT 8SM 05/03 RMK 60000 SLP318 T00540029 52015 IEM_DS3505
ZHHH,2000-11-16 03:00,ZHHH 160300Z AUTO 36006KT 9SM 06/03 RMK SLP330 T00620033 52012 IEM_DS3505
ZHHH,2000-11-16 06:00,ZHHH 160600Z AUTO 34006KT 9SM 06/03 RMK SLP317 T00640033 57013 IEM_DS3505
ZHHH,2000-11-16 09:00,ZHHH 160900Z AUTO 34002KT 9SM 06/03 RMK SLP316 T00620030 57002 IEM_DS3505
ZHHH,2000-11-16 12:00,ZHHH 161200Z AUTO 02002KT 8SM 06/02 RMK SLP332 T00560024 52016 IEM_DS3505
ZHHH,2000-11-16 15:00,ZHHH 161500Z AUTO 02004KT 8SM 05/02 RMK SLP330 T00530017 57002 IEM_DS3505
ZHHH,2000-11-16 18:00,ZHHH 161800Z AUTO 00000KT 11SM 04/02 RMK SLP327 T00450022 57003 IEM_DS3505
ZHHH,2000-11-16 21:00,ZHHH 162100Z AUTO 00000KT 9SM 04/02 RMK SLP324 T00380025 57003 IEM_DS3505
ZHHH,2000-11-17 00:00,ZHHH 170000Z AUTO 00000KT 9SM 03/02 RMK SLP329 T00310023 52005 IEM_DS3505
ZHHH,2000-11-17 03:00,ZHHH 170300Z AUTO 02002KT 11SM 08/03 RMK SLP323 T00750032 57005 IEM_DS3505
ZHHH,2000-11-17 06:00,ZHHH 170600Z AUTO 04004KT 11SM 10/04 RMK SLP292 T00990039 57031 IEM_DS3505
ZHHH,2000-11-17 09:00,ZHHH 170900Z AUTO 00000KT 11SM 10/05 RMK SLP281 T01020046 57011 IEM_DS3505
ZHHH,2000-11-17 12:00,ZHHH 171200Z AUTO 00000KT 9SM 08/04 RMK SLP289 T00750045 52007 IEM_DS3505
ZHHH,2000-11-17 15:00,ZHHH 171500Z AUTO 00000KT 9SM 06/05 RMK SLP289 T00550050 52001 IEM_DS3505
ZHHH,2000-11-17 18:00,ZHHH 171800Z AUTO 00000KT 9SM 06/05 RMK SLP291 T00550046 52002 IEM_DS3505
ZHHH,2000-11-17 21:00,ZHHH 172100Z AUTO 00000KT 9SM 05/04 RMK SLP278 T00490042 57013 IEM_DS3505
ZHHH,2000-11-18 00:00,ZHHH 180000Z AUTO 04002KT 9SM 06/05 RMK SLP278 T00580049 54000 IEM_DS3505
ZHHH,2000-11-18 03:00,ZHHH 180300Z AUTO 04002KT 11SM 10/04 RMK SLP272 T01000043 57006 IEM_DS3505
ZHHH,2000-11-18 06:00,ZHHH 180600Z AUTO 07002KT 9SM 12/05 RMK SLP239 T01200050 57033 IEM_DS3505
ZHHH,2000-11-18 09:00,ZHHH 180900Z AUTO 07002KT 9SM 11/06 RMK SLP237 T01110062 57002 IEM_DS3505
ZHHH,2000-11-18 12:00,ZHHH 181200Z AUTO 00000KT 7SM 10/06 RMK 60003 SLP242 T00990060 52005 IEM_DS3505
ZHHH,2000-11-18 15:00,ZHHH 181500Z AUTO 04004KT 6SM 09/06 RMK SLP254 T00900064 52012 IEM_DS3505
ZHHH,2000-11-18 18:00,ZHHH 181800Z AUTO 00000KT 6SM 08/06 RMK 60000 SLP249 T00840064 57005 IEM_DS3505
ZHHH,2000-11-18 21:00,ZHHH 182100Z AUTO 34002KT 6SM 07/06 RMK 70008 SLP241 T00710064 57008 IEM_DS3505
ZHHH,2000-11-19 00:00,ZHHH 190000Z AUTO 34002KT 6SM 07/07 RMK 60035 SLP259 T00710067 52018 IEM_DS3505
ZHHH,2000-11-19 03:00,ZHHH 190300Z AUTO 34006KT 6SM 08/07 RMK SLP275 T00750066 52016 IEM_DS3505
ZHHH,2000-11-19 06:00,ZHHH 190600Z AUTO 34006KT 7SM 07/05 RMK 60024 SLP265 T00740051 57010 IEM_DS3505
ZHHH,2000-11-19 09:00,ZHHH 190900Z AUTO 32004KT 9SM 08/04 RMK SLP285 T00760041 52020 IEM_DS3505
ZHHH,2000-11-19 12:00,ZHHH 191200Z AUTO 00000KT 7SM 07/05 RMK 60003 SLP306 T00710048 52021 IEM_DS3505
ZHHH,2000-11-19 15:00,ZHHH 191500Z AUTO 00000KT 9SM 06/04 RMK SLP313 T00560037 52007 IEM_DS3505
ZHHH,2000-11-19 18:00,ZHHH 191800Z AUTO 00000KT 8SM 06/04 RMK SLP317 T00560039 52004 IEM_DS3505
ZHHH,2000-11-19 21:00,ZHHH 192100Z AUTO 00000KT 8SM 06/04 RMK 70052 SLP321 T00550043 52004 IEM_DS3505
ZHHH,2000-11-20 00:00,ZHHH 200000Z AUTO 32002KT 16SM 05/04 RMK 70025 SLP331 T00530043 52009 IEM_DS3505
ZHHH,2000-11-20 03:00,ZHHH 200300Z AUTO 02006KT 16SM 11/M04 RMK SLP329 T01071042 57001 IEM_DS3505
ZHHH,2000-11-20 06:00,ZHHH 200600Z AUTO 34004KT 16SM 12/M05 RMK SLP298 T01191054 57031 IEM_DS3505
ZHHH,2000-11-20 09:00,ZHHH 200900Z AUTO 02002KT 12SM 11/M02 RMK SLP288 T01101016 57010 IEM_DS3505
ZHHH,2000-11-20 12:00,ZHHH 201200Z AUTO 00000KT 9SM 09/M01 RMK SLP289 T00881008 52001 IEM_DS3505
ZHHH,2000-11-20 15:00,ZHHH 201500Z AUTO 00000KT 9SM 06/03 RMK SLP293 T00620030 52004 IEM_DS3505
ZHHH,2000-11-20 21:00,ZHHH 202100Z AUTO 00000KT 9SM 04/04 RMK SLP284 T00420035 57001 IEM_DS3505
ZHHH,2000-11-21 00:00,ZHHH 210000Z AUTO 00000KT 11SM 05/03 RMK SLP290 T00490034 52006 IEM_DS3505
ZHHH,2000-11-21 03:00,ZHHH 210300Z AUTO 14004KT 12SM 10/03 RMK SLP292 T01050028 52002 IEM_DS3505
ZHHH,2000-11-21 06:00,ZHHH 210600Z AUTO 14006KT 14SM 13/00 RMK SLP264 T01330000 57028 IEM_DS3505
ZHHH,2000-11-21 09:00,ZHHH 210900Z AUTO 14004KT 12SM 12/M02 RMK SLP258 T01211016 57006 IEM_DS3505
ZHHH,2000-11-21 12:00,ZHHH 211200Z AUTO 00000KT 12SM 09/01 RMK SLP269 T00870013 52011 IEM_DS3505
ZHHH,2000-11-21 15:00,ZHHH 211500Z AUTO 11002KT 12SM 08/M00 RMK SLP273 T00791001 52004 IEM_DS3505
ZHHH,2000-11-21 18:00,ZHHH 211800Z AUTO 11002KT 11SM 07/M00 RMK SLP264 T00711002 57009 IEM_DS3505
ZHHH,2000-11-21 21:00,ZHHH 212100Z AUTO 00000KT 9SM 06/00 RMK SLP255 T00550003 57009 IEM_DS3505
ZHHH,2000-11-22 00:00,ZHHH 220000Z AUTO 00000KT 12SM 05/01 RMK SLP264 T00510007 52009 IEM_DS3505
ZHHH,2000-11-22 03:00,ZHHH 220300Z AUTO 16002KT 16SM 12/00 RMK SLP267 T01180003 52003 IEM_DS3505
ZHHH,2000-11-22 06:00,ZHHH 220600Z AUTO 14002KT 14SM 15/03 RMK SLP240 T01470034 57027 IEM_DS3505
ZHHH,2000-11-22 09:00,ZHHH 220900Z AUTO 00000KT 12SM 14/02 RMK SLP233 T01370023 57007 IEM_DS3505
ZHHH,2000-11-22 12:00,ZHHH 221200Z AUTO 00000KT 11SM 09/06 RMK SLP246 T00930055 52013 IEM_DS3505
ZHHH,2000-11-22 15:00,ZHHH 221500Z AUTO 00000KT 11SM 07/05 RMK SLP248 T00670049 52002 IEM_DS3505
ZHHH,2000-11-22 18:00,ZHHH 221800Z AUTO 00000KT 9SM 06/04 RMK SLP251 T00600044 52003 IEM_DS3505
ZHHH,2000-11-22 21:00,ZHHH 222100Z AUTO 14002KT 6SM 05/04 RMK SLP249 T00520040 57002 IEM_DS3505
ZHHH,2000-11-23 00:00,ZHHH 230000Z AUTO 00000KT 7SM 06/04 RMK SLP249 T00550043 54000 IEM_DS3505
ZHHH,2000-11-23 03:00,ZHHH 230300Z AUTO 11002KT 9SM 13/05 RMK SLP246 T01320047 57003 IEM_DS3505
ZHHH,2000-11-23 06:00,ZHHH 230600Z AUTO 14002KT 12SM 17/05 RMK SLP218 T01670049 57028 IEM_DS3505
ZHHH,2000-11-23 09:00,ZHHH 230900Z AUTO 00000KT 9SM 14/07 RMK SLP211 T01450072 57007 IEM_DS3505
ZHHH,2000-11-23 12:00,ZHHH 231200Z AUTO 00000KT 9SM 11/08 RMK SLP218 T01070082 52007 IEM_DS3505
ZHHH,2000-11-23 15:00,ZHHH 231500Z AUTO 00000KT 9SM 09/07 RMK SLP217 T00880073 57001 IEM_DS3505
ZHHH,2000-11-23 18:00,ZHHH 231800Z AUTO 00000KT 9SM 08/07 RMK SLP211 T00830072 57006 IEM_DS3505
ZHHH,2000-11-23 21:00,ZHHH 232100Z AUTO 00000KT 9SM 09/06 RMK SLP204 T00900062 57007 IEM_DS3505
ZHHH,2000-11-24 00:00,ZHHH 240000Z AUTO 00000KT 6SM 10/07 RMK SLP214 T00950072 52010 IEM_DS3505
ZHHH,2000-11-24 03:00,ZHHH 240300Z AUTO 00000KT 7SM 13/08 RMK SLP212 T01330080 57002 IEM_DS3505
ZHHH,2000-11-24 06:00,ZHHH 240600Z AUTO 09002KT 11SM 16/08 RMK SLP184 T01590084 57027 IEM_DS3505
ZHHH,2000-11-24 09:00,ZHHH 240900Z AUTO 00000KT 9SM 15/10 RMK SLP180 T01540101 57004 IEM_DS3505
ZHHH,2000-11-24 12:00,ZHHH 241200Z AUTO 00000KT 9SM 12/10 RMK SLP185 T01200103 52004 IEM_DS3505
ZHHH,2000-11-24 15:00,ZHHH 241500Z AUTO 00000KT 7SM 13/10 RMK SLP192 T01290102 52008 IEM_DS3505
ZHHH,2000-11-24 18:00,ZHHH 241800Z AUTO 00000KT 9SM 12/10 RMK SLP187 T01210097 57005 IEM_DS3505
ZHHH,2000-11-24 21:00,ZHHH 242100Z AUTO 00000KT 9SM 12/09 RMK SLP183 T01150091 57004 IEM_DS3505
ZHHH,2000-11-25 00:00,ZHHH 250000Z AUTO 00000KT 8SM 11/09 RMK SLP193 T01090093 52009 IEM_DS3505
ZHHH,2000-11-25 03:00,ZHHH 250300Z AUTO 07002KT 9SM 15/09 RMK SLP195 T01460091 52003 IEM_DS3505
ZHHH,2000-11-25 06:00,ZHHH 250600Z AUTO 09002KT 16SM 18/11 RMK SLP166 T01830109 57029 IEM_DS3505
ZHHH,2000-11-25 09:00,ZHHH 250900Z AUTO 00000KT 9SM 18/12 RMK SLP167 T01770123 52001 IEM_DS3505
ZHHH,2000-11-25 12:00,ZHHH 251200Z AUTO 00000KT 6SM 16/12 RMK 60003 SLP181 T01610123 52014 IEM_DS3505
ZHHH,2000-11-25 15:00,ZHHH 251500Z AUTO 04004KT 6SM 14/12 RMK SLP205 T01410117 52024 IEM_DS3505
ZHHH,2000-11-25 18:00,ZHHH 251800Z AUTO 36002KT 7SM 12/09 RMK 60000 SLP216 T01250089 52011 IEM_DS3505
ZHHH,2000-11-25 21:00,ZHHH 252100Z AUTO 02004KT 7SM 11/08 RMK 70001 SLP227 T01140083 52011 IEM_DS3505
ZHHH,2000-11-26 00:00,ZHHH 260000Z AUTO 04004KT 6SM 11/07 RMK 70001 SLP255 T01070071 52027 IEM_DS3505
ZHHH,2000-11-26 03:00,ZHHH 260300Z AUTO 02004KT 6SM 11/06 RMK SLP263 T01110064 52008 IEM_DS3505
ZHHH,2000-11-26 06:00,ZHHH 260600Z AUTO 04004KT 7SM 11/06 RMK SLP247 T01080061 57016 IEM_DS3505
ZHHH,2000-11-26 09:00,ZHHH 260900Z AUTO 04006KT 7SM 09/06 RMK SLP258 T00940061 52011 IEM_DS3505
ZHHH,2000-11-26 12:00,ZHHH 261200Z AUTO 04004KT 6SM 09/06 RMK 60003 SLP267 T00860057 52009 IEM_DS3505
ZHHH,2000-11-26 15:00,ZHHH 261500Z AUTO 00000KT 7SM 08/06 RMK SLP276 T00850063 52009 IEM_DS3505
ZHHH,2000-11-26 18:00,ZHHH 261800Z AUTO 34002KT 6SM 08/07 RMK 60002 SLP276 T00820073 54000 IEM_DS3505
ZHHH,2000-11-26 21:00,ZHHH 262100Z AUTO 02004KT 4SM 08/08 RMK 70007 SLP268 T00840075 57008 IEM_DS3505
ZHHH,2000-11-27 00:00,ZHHH 270000Z AUTO 02002KT 5SM 08/08 RMK 60012 SLP275 T00850081 52007 IEM_DS3505
ZHHH,2000-11-27 03:00,ZHHH 270300Z AUTO 36002KT 4SM 09/08 RMK SLP281 T00910083 52006 IEM_DS3505
ZHHH,2000-11-27 06:00,ZHHH 270600Z AUTO 32002KT 4SM 09/09 RMK 60002 SLP261 T00940088 57020 IEM_DS3505
ZHHH,2000-11-27 09:00,ZHHH 270900Z AUTO 36002KT 4SM 09/09 RMK SLP261 T00930089 54000 IEM_DS3505
ZHHH,2000-11-27 12:00,ZHHH 271200Z AUTO 00000KT 4SM 09/09 RMK 60003 SLP266 T00930087 52005 IEM_DS3505
ZHHH,2000-11-27 15:00,ZHHH 271500Z AUTO 00000KT 5SM 09/09 RMK SLP272 T00940086 52006 IEM_DS3505
ZHHH,2000-11-27 18:00,ZHHH 271800Z AUTO 00000KT 7SM 09/09 RMK 60000 SLP267 T00920086 57005 IEM_DS3505
ZHHH,2000-11-27 21:00,ZHHH 272100Z AUTO 00000KT 7SM 09/08 RMK 70011 SLP256 T00880084 57011 IEM_DS3505
ZHHH,2000-11-28 00:00,ZHHH 280000Z AUTO 00000KT 8SM 09/08 RMK 70006 SLP261 T00910083 52005 IEM_DS3505
ZHHH,2000-11-28 03:00,ZHHH 280300Z AUTO 04002KT 9SM 10/09 RMK SLP262 T01030087 52001 IEM_DS3505
ZHHH,2000-11-28 06:00,ZHHH 280600Z AUTO 04002KT 6SM 11/09 RMK 60003 SLP237 T01060092 57025 IEM_DS3505
ZHHH,2000-11-28 09:00,ZHHH 280900Z AUTO 00000KT 6SM 11/09 RMK SLP234 T01070093 57003 IEM_DS3505
ZHHH,2000-11-28 12:00,ZHHH 281200Z AUTO 00000KT 6SM 10/09 RMK 60004 SLP237 T01020092 52003 IEM_DS3505
ZHHH,2000-11-28 15:00,ZHHH 281500Z AUTO 02002KT 6SM 10/09 RMK SLP248 T01000090 52011 IEM_DS3505
ZHHH,2000-11-28 18:00,ZHHH 281800Z AUTO 00000KT 6SM 10/09 RMK 60004 SLP237 T00980090 57011 IEM_DS3505
ZHHH,2000-11-28 21:00,ZHHH 282100Z AUTO 02002KT 6SM 10/08 RMK 70009 SLP226 T00970085 57011 IEM_DS3505
ZHHH,2000-11-29 00:00,ZHHH 290000Z AUTO 04002KT 6SM 10/09 RMK 60004 SLP235 T00950089 52009 IEM_DS3505
ZHHH,2000-11-29 03:00,ZHHH 290300Z AUTO 36002KT 6SM 09/08 A3024 RMK SLP238 T00930085 52003 IEM_DS3505
ZHHH,2000-11-29 04:00,ZHHH 290400Z AUTO 34006KT 1SM 09/09 A3021 RMK T00900090 IEM_DS3505
ZHHH,2000-11-29 05:00,ZHHH 290500Z AUTO 1SM 09/09 A3018 RMK T00900090 IEM_DS3505
ZHHH,2000-11-29 06:00,ZHHH 290600Z AUTO 34002KT 5SM 09/08 A3018 RMK 60020 SLP218 T00930083 57020 IEM_DS3505
ZHHH,2000-11-29 07:00,ZHHH 290700Z AUTO 1SM 09/08 A3015 RMK T00900080 IEM_DS3505
ZHHH,2000-11-29 08:00,ZHHH 290800Z AUTO 1SM 09/08 A3015 RMK T00900080 IEM_DS3505
ZHHH,2000-11-29 09:00,ZHHH 290900Z AUTO 34002KT 6SM 10/08 A3018 RMK SLP218 T00970085 54000 IEM_DS3505
ZHHH,2000-11-29 10:00,ZHHH 291000Z AUTO 1SM 09/08 A3015 RMK T00900080 IEM_DS3505
ZHHH,2000-11-29 11:00,ZHHH 291100Z AUTO 1 1/4SM 09/08 A3018 RMK T00900080 IEM_DS3505
ZHHH,2000-11-29 12:00,ZHHH 291200Z AUTO 00000KT 6SM 09/08 A3015 RMK 60002 SLP214 T00930085 57004 IEM_DS3505
ZHHH,2000-11-29 13:00,ZHHH 291300Z AUTO 1SM 08/08 A3018 RMK T00800080 IEM_DS3505
ZHHH,2000-11-29 14:00,ZHHH 291400Z AUTO 1SM 08/08 A3018 RMK T00800080 IEM_DS3505
ZHHH,2000-11-29 15:00,ZHHH 291500Z AUTO 34002KT 6SM 09/08 A3021 RMK SLP224 T00880084 52010 IEM_DS3505
ZHHH,2000-11-29 16:00,ZHHH 291600Z AUTO 04006KT 1SM 08/08 A3018 RMK T00800080 IEM_DS3505
ZHHH,2000-11-29 17:00,ZHHH 291700Z AUTO 1SM 08/07 A3015 RMK T00800070 IEM_DS3505
ZHHH,2000-11-29 18:00,ZHHH 291800Z AUTO 32004KT 5SM 08/08 RMK 60051 SLP229 T00850077 52005 IEM_DS3505
ZHHH,2000-11-29 21:00,ZHHH 292100Z AUTO 32002KT 5SM 08/07 RMK 70096 SLP218 T00830074 57011 IEM_DS3505
ZHHH,2000-11-30 00:00,ZHHH 300000Z AUTO 32002KT 6SM 08/08 RMK 60031 SLP227 T00850079 52009 IEM_DS3505
ZHHH,2000-11-30 03:00,ZHHH 300300Z AUTO 32002KT 8SM 09/07 RMK SLP243 T00890067 52016 IEM_DS3505
ZHHH,2000-11-30 06:00,ZHHH 300600Z AUTO 02002KT 6SM 09/07 RMK SLP228 T00920068 57015 IEM_DS3505
ZHHH,2000-11-30 09:00,ZHHH 300900Z AUTO 34002KT 6SM 09/06 RMK SLP238 T00870065 52010 IEM_DS3505
ZHHH,2000-11-30 12:00,ZHHH 301200Z AUTO 36002KT 8SM 08/06 RMK SLP250 T00840060 52012 IEM_DS3505
ZHHH,2000-11-30 15:00,ZHHH 301500Z AUTO 34002KT 8SM 08/06 RMK SLP256 T00820060 52006 IEM_DS3505
ZHHH,2000-11-30 18:00,ZHHH 301800Z AUTO 34004KT 7SM 08/06 RMK SLP259 T00770059 52003 IEM_DS3505
ZHHH,2000-11-30 21:00,ZHHH 302100Z AUTO 00000KT 7SM 08/06 RMK 70011 SLP251 T00770057 57008 IEM_DS3505
ZHHH,2000-12-01 00:00,ZHHH 010000Z AUTO 00000KT 7SM 08/06 RMK SLP256 T00790064 52005 IEM_DS3505
ZHHH,2000-12-01 03:00,ZHHH 010300Z AUTO 02004KT 9SM 09/07 RMK SLP257 T00930069 52001 IEM_DS3505
ZHHH,2000-12-01 06:00,ZHHH 010600Z AUTO 02002KT 7SM 10/07 RMK 60000 SLP239 T01010069 57018 IEM_DS3505
ZHHH,2000-12-01 09:00,ZHHH 010900Z AUTO 00000KT 8SM 10/08 RMK SLP235 T00990076 57004 IEM_DS3505
ZHHH,2000-12-01 12:00,ZHHH 011200Z AUTO 36002KT 6SM 09/08 RMK 60004 SLP244 T00900082 52009 IEM_DS3505
ZHHH,2000-12-01 15:00,ZHHH 011500Z AUTO 34004KT 6SM 09/08 RMK SLP258 T00870079 52014 IEM_DS3505
ZHHH,2000-12-01 18:00,ZHHH 011800Z AUTO 34002KT 7SM 09/07 A3030 RMK 60000 SLP259 T00870074 52001 IEM_DS3505
ZHHH,2000-12-01 19:00,ZHHH 011900Z AUTO 35008KT 1 1/2SM 08/08 A3030 RMK T00800080 IEM_DS3505
ZHHH,2000-12-01 20:00,ZHHH 012000Z AUTO 36006KT 1 1/4SM 08/08 A3030 RMK T00800080 IEM_DS3505
ZHHH,2000-12-01 21:00,ZHHH 012100Z AUTO 34004KT 9SM 08/07 RMK 70006 SLP258 T00850072 57001 IEM_DS3505
ZHHH,2000-12-01 22:00,ZHHH 012200Z AUTO 34006KT 1 1/4SM 08/08 A3030 RMK T00800080 IEM_DS3505
ZHHH,2000-12-01 23:00,ZHHH 012300Z AUTO 35006KT 1 1/4SM 08/08 A3030 RMK T00800080 IEM_DS3505
ZHHH,2000-12-02 00:00,ZHHH 020000Z AUTO 36002KT 7SM 09/07 A3033 RMK 70006 SLP273 T00860073 52015 IEM_DS3505
ZHHH,2000-12-02 01:00,ZHHH 020100Z AUTO 34006KT 1 1/4SM 09/08 A3036 RMK T00900080 IEM_DS3505
ZHHH,2000-12-02 02:00,ZHHH 020200Z AUTO 33008KT 3SM 09/08 A3039 RMK T00900080 IEM_DS3505
ZHHH,2000-12-02 03:00,ZHHH 020300Z AUTO 34004KT 9SM 10/07 A3039 RMK SLP286 T00950074 52013 IEM_DS3505
ZHHH,2000-12-02 04:00,ZHHH 020400Z AUTO 34008KT 4SM 10/08 A3036 RMK T01000080 IEM_DS3505
ZHHH,2000-12-02 06:00,ZHHH 020600Z AUTO 29002KT 9SM 12/06 A3030 RMK SLP266 T01210064 57020 IEM_DS3505
ZHHH,2000-12-02 07:00,ZHHH 020700Z AUTO 34008KT 7SM 12/06 A3030 RMK T01200060 IEM_DS3505
ZHHH,2000-12-02 08:00,ZHHH 020800Z AUTO 35006KT 6SM 13/06 A3030 RMK T01300060 IEM_DS3505
ZHHH,2000-12-02 09:00,ZHHH 020900Z AUTO 32002KT 9SM 12/07 A3030 RMK SLP263 T01210069 57003 IEM_DS3505
ZHHH,2000-12-02 10:00,ZHHH 021000Z AUTO 01002KT 7SM 11/07 A3033 RMK T01100070 IEM_DS3505
ZHHH,2000-12-02 11:00,ZHHH 021100Z AUTO 05006KT 6SM 10/07 A3036 RMK T01000070 IEM_DS3505
ZHHH,2000-12-02 12:00,ZHHH 021200Z AUTO 00000KT 9SM 10/07 A3036 RMK SLP284 T00980073 52021 IEM_DS3505
ZHHH,2000-12-02 13:00,ZHHH 021300Z AUTO 36002KT 6SM 08/06 A3039 RMK T00800060 IEM_DS3505
ZHHH,2000-12-02 14:00,ZHHH 021400Z AUTO 01002KT 6SM 08/07 A3042 RMK T00800070 IEM_DS3505
ZHHH,2000-12-02 15:00,ZHHH 021500Z AUTO 34002KT 9SM 09/05 A3042 RMK SLP298 T00920049 52014 IEM_DS3505
ZHHH,2000-12-02 16:00,ZHHH 021600Z AUTO 01002KT 6SM 07/05 A3042 RMK T00700050 IEM_DS3505
ZHHH,2000-12-02 17:00,ZHHH 021700Z AUTO 6SM 07/04 A3042 RMK T00700040 IEM_DS3505
ZHHH,2000-12-02 18:00,ZHHH 021800Z AUTO 00000KT 9SM 07/05 A3042 RMK SLP298 T00720047 54000 IEM_DS3505
ZHHH,2000-12-02 19:00,ZHHH 021900Z AUTO 02002KT 6SM 07/03 A3039 RMK T00700030 IEM_DS3505
ZHHH,2000-12-02 20:00,ZHHH 022000Z AUTO 02004KT 6SM 06/03 A3039 RMK T00600030 IEM_DS3505
ZHHH,2000-12-02 21:00,ZHHH 022100Z AUTO 00000KT 9SM 06/04 A3039 RMK SLP290 T00610037 57008 IEM_DS3505
ZHHH,2000-12-02 22:00,ZHHH 022200Z AUTO 3SM 05/04 A3039 RMK T00500040 IEM_DS3505
ZHHH,2000-12-02 23:00,ZHHH 022300Z AUTO 35004KT 1 1/2SM 05/04 A3042 RMK T00500040 IEM_DS3505
ZHHH,2000-12-03 00:00,ZHHH 030000Z AUTO 32002KT 9SM 06/03 A3042 RMK SLP296 T00580026 52006 IEM_DS3505
ZHHH,2000-12-03 01:00,ZHHH 030100Z AUTO 1SM 06/04 A3042 RMK T00600040 IEM_DS3505
ZHHH,2000-12-03 02:00,ZHHH 030200Z AUTO 03008KT 1SM 07/04 A3045 RMK T00700040 IEM_DS3505
ZHHH,2000-12-03 03:00,ZHHH 030300Z AUTO 36004KT 9SM 08/04 A3042 RMK SLP302 T00850038 52006 IEM_DS3505
ZHHH,2000-12-03 04:00,ZHHH 030400Z AUTO 36006KT 1 1/2SM 10/04 A3039 RMK T01000040 IEM_DS3505
ZHHH,2000-12-03 05:00,ZHHH 030500Z AUTO 01006KT 2SM 10/04 A3036 RMK T01000040 IEM_DS3505
ZHHH,2000-12-03 06:00,ZHHH 030600Z AUTO 32002KT 9SM 11/04 A3033 RMK SLP274 T01060038 57028 IEM_DS3505
ZHHH,2000-12-03 07:00,ZHHH 030700Z AUTO 2SM 11/04 A3033 RMK T01100040 IEM_DS3505
ZHHH,2000-12-03 08:00,ZHHH 030800Z AUTO 1 1/2SM 10/04 A3030 RMK T01000040 IEM_DS3505
ZHHH,2000-12-03 09:00,ZHHH 030900Z AUTO 00000KT 9SM 10/05 A3030 RMK SLP265 T01030050 57009 IEM_DS3505
ZHHH,2000-12-03 10:00,ZHHH 031000Z AUTO 23002KT 1 1/2SM 09/05 A3030 RMK T00900050 IEM_DS3505
ZHHH,2000-12-03 11:00,ZHHH 031100Z AUTO 1 1/2SM 08/05 A3030 RMK T00800050 IEM_DS3505
ZHHH,2000-12-03 12:00,ZHHH 031200Z AUTO 00000KT 11SM 08/06 A3030 RMK SLP268 T00760056 52003 IEM_DS3505
ZHHH,2000-12-03 13:00,ZHHH 031300Z AUTO 19002KT 1 1/2SM 08/05 A3030 RMK T00800050 IEM_DS3505
ZHHH,2000-12-03 14:00,ZHHH 031400Z AUTO 21004KT 1 1/2SM 08/05 A3030 RMK T00800050 IEM_DS3505
ZHHH,2000-12-03 15:00,ZHHH 031500Z AUTO 00000KT 7SM 06/05 A3030 RMK SLP261 T00650046 57007 IEM_DS3505
ZHHH,2000-12-03 16:00,ZHHH 031600Z AUTO 1 1/4SM 07/05 A3030 RMK T00700050 IEM_DS3505
ZHHH,2000-12-03 17:00,ZHHH 031700Z AUTO 15002KT 1SM 07/05 A3027 RMK T00700050 IEM_DS3505
ZHHH,2000-12-03 18:00,ZHHH 031800Z AUTO 00000KT 9SM 07/05 A3027 RMK SLP298 T00720047 54000 IEM_DS3505
ZHHH,2000-12-03 19:00,ZHHH 031900Z AUTO 15004KT 1SM 06/05 A3024 RMK T00600050 IEM_DS3505
ZHHH,2000-12-03 20:00,ZHHH 032000Z AUTO 13004KT 1/4SM 05/04 A3024 RMK T00500040 IEM_DS3505
ZHHH,2000-12-03 21:00,ZHHH 032100Z AUTO 00000KT 6SM 05/04 A3021 RMK SLP237 T00520043 57016 IEM_DS3505
ZHHH,2000-12-03 22:00,ZHHH 032200Z AUTO 12004KT 1/8SM 02/02 A3021 RMK T00200020 IEM_DS3505
ZHHH,2000-12-03 23:00,ZHHH 032300Z AUTO 12004KT 1/8SM 02/02 A3024 RMK T00200020 IEM_DS3505
ZHHH,2000-12-04 00:00,ZHHH 040000Z AUTO 36002KT 05/04 A3024 RMK SLP239 T00510041 52002 IEM_DS3505
ZHHH,2000-12-04 01:00,ZHHH 040100Z AUTO 13008KT 1/8SM 04/04 A3024 RMK T00400040 IEM_DS3505
ZHHH,2000-12-04 02:00,ZHHH 040200Z AUTO 13008KT 1/8SM 05/05 A3027 RMK T00500050 IEM_DS3505
ZHHH,2000-12-04 03:00,ZHHH 040300Z AUTO 02002KT 09/05 A3024 RMK SLP241 T00890053 52002 IEM_DS3505
ZHHH,2000-12-04 04:00,ZHHH 040400Z AUTO 11006KT 1/2SM 07/07 A3021 RMK T00700070 IEM_DS3505
ZHHH,2000-12-04 05:00,ZHHH 040500Z AUTO 11006KT 1SM 10/07 A3018 RMK T01000070 IEM_DS3505
ZHHH,2000-12-04 06:00,ZHHH 040600Z AUTO 02004KT 9SM 13/04 A3015 RMK SLP215 T01330043 57026 IEM_DS3505
ZHHH,2000-12-04 07:00,ZHHH 040700Z AUTO 13006KT 1SM 12/06 A3015 RMK T01200060 IEM_DS3505
ZHHH,2000-12-04 08:00,ZHHH 040800Z AUTO 12004KT 1 1/2SM 12/04 A3015 RMK T01200040 IEM_DS3505
ZHHH,2000-12-04 09:00,ZHHH 040900Z AUTO 02002KT 9SM 13/05 A3015 RMK SLP210 T01280050 57005 IEM_DS3505
ZHHH,2000-12-04 10:00,ZHHH 041000Z AUTO 11006KT 1 1/2SM 10/06 A3015 RMK T01000060 IEM_DS3505
ZHHH,2000-12-04 11:00,ZHHH 041100Z AUTO 11006KT 1 1/2SM 10/06 A3018 RMK T01000060 IEM_DS3505
ZHHH,2000-12-04 12:00,ZHHH 041200Z AUTO 00000KT 7SM 08/06 A3018 RMK SLP221 T00850063 52011 IEM_DS3505
ZHHH,2000-12-04 13:00,ZHHH 041300Z AUTO 12006KT 1 1/2SM 09/06 A3018 RMK T00900060 IEM_DS3505
ZHHH,2000-12-04 14:00,ZHHH 041400Z AUTO 12004KT 1 1/2SM 08/05 A3018 RMK T00800050 IEM_DS3505
ZHHH,2000-12-04 15:00,ZHHH 041500Z AUTO 00000KT 7SM 07/06 A3018 RMK SLP229 T00690058 52008 IEM_DS3505
ZHHH,2000-12-04 16:00,ZHHH 041600Z AUTO 17002KT 1 1/2SM 08/04 A3021 RMK T00800040 IEM_DS3505
ZHHH,2000-12-04 17:00,ZHHH 041700Z AUTO 1 1/2SM 07/04 A3021 RMK T00700040 IEM_DS3505
ZHHH,2000-12-04 18:00,ZHHH 041800Z AUTO 00000KT 11SM 06/05 A3021 RMK SLP233 T00620046 52004 IEM_DS3505
ZHHH,2000-12-04 19:00,ZHHH 041900Z AUTO 06006KT 1 1/2SM 06/04 A3021 RMK T00600040 IEM_DS3505
ZHHH,2000-12-04 20:00,ZHHH 042000Z AUTO 07004KT 1 1/2SM 05/04 A3024 RMK T00500040 IEM_DS3505
ZHHH,2000-12-04 21:00,ZHHH 042100Z AUTO 02002KT 9SM 06/04 A3021 RMK SLP235 T00570045 52002 IEM_DS3505
ZHHH,2000-12-04 22:00,ZHHH 042200Z AUTO 07006KT 1 1/2SM 05/03 A3021 RMK T00500030 IEM_DS3505
ZHHH,2000-12-04 23:00,ZHHH 042300Z AUTO 16002KT 1 1/2SM 05/03 A3024 RMK T00500030 IEM_DS3505
ZHHH,2000-12-05 00:00,ZHHH 050000Z AUTO 00000KT 8SM 06/05 A3027 RMK SLP249 T00550046 52014 IEM_DS3505
ZHHH,2000-12-05 01:00,ZHHH 050100Z AUTO 1 1/2SM 07/05 A3030 RMK T00700050 IEM_DS3505
ZHHH,2000-12-05 02:00,ZHHH 050200Z AUTO 2 1/2SM 08/06 A3030 RMK T00800060 IEM_DS3505
ZHHH,2000-12-05 03:00,ZHHH 050300Z AUTO 00000KT 8SM 12/07 A3030 RMK SLP255 T01210066 52006 IEM_DS3505
ZHHH,2000-12-05 04:00,ZHHH 050400Z AUTO 12/05 A3027 RMK T01200050 IEM_DS3505
ZHHH,2000-12-05 05:00,ZHHH 050500Z AUTO 14/05 A3024 RMK T01400050 IEM_DS3505
ZHHH,2000-12-05 06:00,ZHHH 050600Z AUTO 02002KT 12SM 14/05 A3021 RMK SLP228 T01420047 57027 IEM_DS3505
ZHHH,2000-12-05 07:00,ZHHH 050700Z AUTO 6SM 14/05 A3018 RMK T01400050 IEM_DS3505
ZHHH,2000-12-05 08:00,ZHHH 050800Z AUTO 12006KT 6SM 14/05 A3018 RMK T01400050 IEM_DS3505
ZHHH,2000-12-05 09:00,ZHHH 050900Z AUTO 00000KT 11SM 13/06 A3018 RMK SLP219 T01310064 57009 IEM_DS3505
ZHHH,2000-12-05 10:00,ZHHH 051000Z AUTO 10004KT 6SM 12/06 A3018 RMK T01200060 IEM_DS3505
ZHHH,2000-12-05 11:00,ZHHH 051100Z AUTO 09002KT 6SM 11/05 A3018 RMK T01100050 IEM_DS3505
ZHHH,2000-12-05 12:00,ZHHH 051200Z AUTO 00000KT 12SM 08/07 A3018 RMK SLP226 T00850068 52007 IEM_DS3505
ZHHH,2000-12-05 13:00,ZHHH 051300Z AUTO 00000KT 6SM 11/04 A3021 RMK T01100040 IEM_DS3505
ZHHH,2000-12-05 14:00,ZHHH 051400Z AUTO 07004KT 6SM 09/05 A3021 RMK T00900050 IEM_DS3505
ZHHH,2000-12-05 15:00,ZHHH 051500Z AUTO 00000KT 7SM 07/06 A3021 RMK SLP232 T00710062 52006 IEM_DS3505
ZHHH,2000-12-05 16:00,ZHHH 051600Z AUTO 09006KT 6SM 07/05 A3021 RMK T00700050 IEM_DS3505
ZHHH,2000-12-05 17:00,ZHHH 051700Z AUTO 08006KT 6SM 07/05 A3021 RMK T00700050 IEM_DS3505
ZHHH,2000-12-05 18:00,ZHHH 051800Z AUTO 00000KT 7SM 06/06 A3021 RMK SLP231 T00640060 57001 IEM_DS3505
ZHHH,2000-12-05 19:00,ZHHH 051900Z AUTO 07008KT 6SM 07/05 A3021 RMK T00700050 IEM_DS3505
ZHHH,2000-12-05 20:00,ZHHH 052000Z AUTO 07008KT 4SM 07/05 A3021 RMK T00700050 IEM_DS3505
ZHHH,2000-12-05 21:00,ZHHH 052100Z AUTO 02002KT 7SM 08/06 A3018 RMK SLP225 T00800065 57006 IEM_DS3505
ZHHH,2000-12-05 22:00,ZHHH 052200Z AUTO 08008KT 1 1/4SM 07/06 A3015 RMK T00700060 IEM_DS3505
ZHHH,2000-12-05 23:00,ZHHH 052300Z AUTO 11006KT 1 1/4SM 07/06 A3018 RMK T00700060 IEM_DS3505
ZHHH,2000-12-06 00:00,ZHHH 060000Z AUTO 00000KT 7SM 08/06 A3021 RMK SLP230 T00840064 52005 IEM_DS3505
ZHHH,2000-12-06 01:00,ZHHH 060100Z AUTO 1 1/4SM 07/06 A3024 RMK T00700060 IEM_DS3505
ZHHH,2000-12-06 02:00,ZHHH 060200Z AUTO 09006KT 1 1/2SM 08/07 A3024 RMK T00800070 IEM_DS3505
ZHHH,2000-12-06 03:00,ZHHH 060300Z AUTO 02002KT 9SM 12/07 A3024 RMK SLP241 T01200070 52011 IEM_DS3505
ZHHH,2000-12-06 04:00,ZHHH 060400Z AUTO 10006KT 4SM 12/07 A3021 RMK T01200070 IEM_DS3505
ZHHH,2000-12-06 05:00,ZHHH 060500Z AUTO 4SM 12/07 A3018 RMK T01200070 IEM_DS3505
ZHHH,2000-12-06 06:00,ZHHH 060600Z AUTO 02002KT 9SM 13/06 A3015 RMK SLP215 T01340060 57026 IEM_DS3505
ZHHH,2000-12-06 07:00,ZHHH 060700Z AUTO 09006KT 2 1/2SM 13/08 A3015 RMK T01300080 IEM_DS3505
ZHHH,2000-12-06 08:00,ZHHH 060800Z AUTO 13002KT 2 1/2SM 13/08 A3015 RMK T01300080 IEM_DS3505
ZHHH,2000-12-06 09:00,ZHHH 060900Z AUTO 00000KT 9SM 13/07 A3015 RMK SLP213 T01290073 57002 IEM_DS3505
ZHHH,2000-12-06 10:00,ZHHH 061000Z AUTO 07002KT 1 1/2SM 12/08 A3018 RMK T01200080 IEM_DS3505
ZHHH,2000-12-06 11:00,ZHHH 061100Z AUTO 10004KT 1 1/4SM 12/08 A3018 RMK T01200080 IEM_DS3505
ZHHH,2000-12-06 12:00,ZHHH 061200Z AUTO 00000KT 8SM 12/09 A3018 RMK 60003 SLP224 T01190087 52011 IEM_DS3505
ZHHH,2000-12-06 13:00,ZHHH 061300Z AUTO 00000KT 1 1/4SM 11/08 A3021 RMK T01100080 IEM_DS3505
ZHHH,2000-12-06 14:00,ZHHH 061400Z AUTO 34002KT 1 1/4SM 10/09 A3021 RMK T01000090 IEM_DS3505
ZHHH,2000-12-06 15:00,ZHHH 061500Z AUTO 00000KT 8SM 11/09 A3021 RMK SLP231 T01110087 52007 IEM_DS3505
ZHHH,2000-12-06 16:00,ZHHH 061600Z AUTO 01002KT 1SM 10/08 A3021 RMK T01000080 IEM_DS3505
ZHHH,2000-12-06 17:00,ZHHH 061700Z AUTO 02004KT 1 1/2SM 10/08 A3024 RMK T01000080 IEM_DS3505
ZHHH,2000-12-06 18:00,ZHHH 061800Z AUTO 00000KT 6SM 10/08 A3024 RMK SLP239 T01030082 52008 IEM_DS3505
ZHHH,2000-12-06 19:00,ZHHH 061900Z AUTO 00000KT 1 1/2SM 10/08 A3024 RMK T01000080 IEM_DS3505
ZHHH,2000-12-06 20:00,ZHHH 062000Z AUTO 36002KT 1 1/2SM 09/08 A3021 RMK T00900080 IEM_DS3505
ZHHH,2000-12-06 21:00,ZHHH 062100Z AUTO 00000KT 6SM 10/09 A3021 RMK 70003 SLP237 T01000086 57002 IEM_DS3505
ZHHH,2000-12-06 22:00,ZHHH 062200Z AUTO 1 1/2SM 09/07 A3021 RMK T00900070 IEM_DS3505
ZHHH,2000-12-06 23:00,ZHHH 062300Z AUTO 00000KT 1 1/2SM 08/07 A3024 RMK T00800070 IEM_DS3505
ZHHH,2000-12-07 00:00,ZHHH 070000Z AUTO 02002KT 6SM 10/08 A3027 RMK 70003 SLP253 T00960081 52016 IEM_DS3505
ZHHH,2000-12-07 01:00,ZHHH 070100Z AUTO 1SM 10/09 A3030 RMK T01000090 IEM_DS3505
ZHHH,2000-12-07 02:00,ZHHH 070200Z AUTO 1 1/2SM 12/08 A3030 RMK T01200080 IEM_DS3505
ZHHH,2000-12-07 03:00,ZHHH 070300Z AUTO 36002KT 9SM 12/08 A3030 RMK SLP256 T01170084 52003 IEM_DS3505
ZHHH,2000-12-07 04:00,ZHHH 070400Z AUTO 15/07 A3024 RMK T01500070 IEM_DS3505
ZHHH,2000-12-07 05:00,ZHHH 070500Z AUTO 6SM 16/06 A3024 RMK T01600060 IEM_DS3505
ZHHH,2000-12-07 06:00,ZHHH 070600Z AUTO 00000KT 9SM 17/08 A3021 RMK SLP232 T01700082 57023 IEM_DS3505
ZHHH,2000-12-07 07:00,ZHHH 070700Z AUTO 6SM 17/06 A3018 RMK T01700060 IEM_DS3505
ZHHH,2000-12-07 08:00,ZHHH 070800Z AUTO 6SM 16/06 A3018 RMK T01600060 IEM_DS3505
ZHHH,2000-12-07 09:00,ZHHH 070900Z AUTO 00000KT 9SM 15/08 A3021 RMK SLP228 T01530084 57005 IEM_DS3505
ZHHH,2000-12-07 10:00,ZHHH 071000Z AUTO 6SM 13/07 A3021 RMK T01300070 IEM_DS3505
ZHHH,2000-12-07 11:00,ZHHH 071100Z AUTO 00000KT 6SM 13/07 A3021 RMK T01300070 IEM_DS3505
ZHHH,2000-12-07 12:00,ZHHH 071200Z AUTO 00000KT 9SM 10/09 A3024 RMK SLP236 T01030091 52008 IEM_DS3505
ZHHH,2000-12-07 13:00,ZHHH 071300Z AUTO 07006KT 12/06 A3024 RMK T01200060 IEM_DS3505
ZHHH,2000-12-07 14:00,ZHHH 071400Z AUTO 07008KT 11/05 A3024 RMK T01100050 IEM_DS3505
ZHHH,2000-12-07 15:00,ZHHH 071500Z AUTO 00000KT 9SM 10/08 A3024 RMK SLP239 T00980075 52003 IEM_DS3505
ZHHH,2000-12-07 16:00,ZHHH 071600Z AUTO 10002KT 4SM 10/05 A3024 RMK T01000050 IEM_DS3505
ZHHH,2000-12-07 17:00,ZHHH 071700Z AUTO 1/8SM 09/06 A3024 RMK T00900060 IEM_DS3505
ZHHH,2000-12-07 18:00,ZHHH 071800Z AUTO 00000KT 9SM 09/06 A3024 RMK SLP236 T00890063 57003 IEM_DS3505
ZHHH,2000-12-07 19:00,ZHHH 071900Z AUTO 05004KT 3SM 08/05 A3021 RMK T00800050 IEM_DS3505
ZHHH,2000-12-07 20:00,ZHHH 072000Z AUTO 07002KT 2 1/2SM 07/05 A3021 RMK T00700050 IEM_DS3505
ZHHH,2000-12-07 21:00,ZHHH 072100Z AUTO 02002KT 9SM 08/06 A3018 RMK SLP222 T00830061 57014 IEM_DS3505
ZHHH,2000-12-07 22:00,ZHHH 072200Z AUTO 09002KT 1 1/4SM 07/06 A3018 RMK T00700060 IEM_DS3505
ZHHH,2000-12-07 23:00,ZHHH 072300Z AUTO 09006KT 1SM 06/06 A3018 RMK T00600060 IEM_DS3505
ZHHH,2000-12-08 00:00,ZHHH 080000Z AUTO 02002KT 5SM 08/06 A3018 RMK SLP218 T00750064 57004 IEM_DS3505
ZHHH,2000-12-08 01:00,ZHHH 080100Z AUTO 1/4SM 06/06 A3018 RMK T00600060 IEM_DS3505
ZHHH,2000-12-08 02:00,ZHHH 080200Z AUTO 1/2SM 07/07 A3018 RMK T00700070 IEM_DS3505
ZHHH,2000-12-08 03:00,ZHHH 080300Z AUTO 02002KT 6SM 11/09 A3018 RMK SLP213 T01130087 57005 IEM_DS3505
ZHHH,2000-12-08 04:00,ZHHH 080400Z AUTO 1 1/4SM 11/09 A3012 RMK T01100090 IEM_DS3505
ZHHH,2000-12-08 05:00,ZHHH 080500Z AUTO 1 1/4SM 13/09 A3009 RMK T01300090 IEM_DS3505
ZHHH,2000-12-08 06:00,ZHHH 080600Z AUTO 00000KT 6SM 16/10 A3006 RMK SLP175 T01560103 57037 IEM_DS3505
ZHHH,2000-12-08 07:00,ZHHH 080700Z AUTO 11006KT 1 1/2SM 15/10 A3003 RMK T01500100 IEM_DS3505
ZHHH,2000-12-08 08:00,ZHHH 080800Z AUTO 11006KT 1 1/2SM 15/10 A3000 RMK T01500100 IEM_DS3505
ZHHH,2000-12-08 09:00,ZHHH 080900Z AUTO 00000KT 8SM 16/09 A3000 RMK SLP165 T01580092 57010 IEM_DS3505
ZHHH,2000-12-08 10:00,ZHHH 081000Z AUTO 12004KT 1 1/2SM 14/11 A3000 RMK T01400110 IEM_DS3505
ZHHH,2000-12-08 11:00,ZHHH 081100Z AUTO 1 1/4SM 14/11 A3000 RMK T01400110 IEM_DS3505
ZHHH,2000-12-08 12:00,ZHHH 081200Z AUTO 00000KT 11SM 14/09 A3003 RMK SLP170 T01430088 52004 IEM_DS3505
ZHHH,2000-12-08 13:00,ZHHH 081300Z AUTO 13002KT 1SM 14/11 A3003 RMK T01400110 IEM_DS3505
ZHHH,2000-12-08 14:00,ZHHH 081400Z AUTO 12002KT 1SM 13/11 A3003 RMK T01300110 IEM_DS3505
ZHHH,2000-12-08 15:00,ZHHH 081500Z AUTO 00000KT 7SM 13/10 A3003 RMK SLP165 T01320099 57004 IEM_DS3505
ZHHH,2000-12-08 16:00,ZHHH 081600Z AUTO 13002KT 1SM 13/11 A3000 RMK T01300110 IEM_DS3505
ZHHH,2000-12-08 17:00,ZHHH 081700Z AUTO 1 1/4SM 13/11 A3000 RMK T01300110 IEM_DS3505
ZHHH,2000-12-08 18:00,ZHHH 081800Z AUTO 00000KT 7SM 13/11 A3000 RMK 60000 SLP163 T01290110 57002 IEM_DS3505
ZHHH,2000-12-08 19:00,ZHHH 081900Z AUTO 00000KT 1SM 12/11 A3000 RMK T01200110 IEM_DS3505
ZHHH,2000-12-08 20:00,ZHHH 082000Z AUTO 1SM 12/11 A3000 RMK T01200110 IEM_DS3505
ZHHH,2000-12-08 21:00,ZHHH 082100Z AUTO 00000KT 7SM 12/11 A3000 RMK 70000 SLP158 T01240113 57005 IEM_DS3505
ZHHH,2000-12-08 22:00,ZHHH 082200Z AUTO 11002KT 1SM 12/11 A3000 RMK T01200110 IEM_DS3505
ZHHH,2000-12-08 23:00,ZHHH 082300Z AUTO 10004KT 1SM 11/11 A3000 RMK T01100110 IEM_DS3505
ZHHH,2000-12-09 00:00,ZHHH 090000Z AUTO 00000KT 6SM 12/11 A3000 RMK 70000 SLP160 T01180112 52002 IEM_DS3505
ZHHH,2000-12-09 02:00,ZHHH 090200Z AUTO 1SM 13/12 A3003 RMK T01300120 IEM_DS3505
ZHHH,2000-12-09 03:00,ZHHH 090300Z AUTO 02002KT 7SM 15/11 A3003 RMK SLP165 T01510112 52005 IEM_DS3505
ZHHH,2000-12-09 04:00,ZHHH 090400Z AUTO 1SM 15/12 A3000 RMK T01500120 IEM_DS3505
ZHHH,2000-12-09 05:00,ZHHH 090500Z AUTO 00000KT 1SM 15/12 A3000 RMK T01500120 IEM_DS3505
ZHHH,2000-12-09 06:00,ZHHH 090600Z AUTO 00000KT 4SM 14/12 A2997 RMK 60000 SLP149 T01430123 57016 IEM_DS3505
ZHHH,2000-12-09 07:00,ZHHH 090700Z AUTO 09002KT 1SM 14/12 A2997 RMK T01400120 IEM_DS3505
ZHHH,2000-12-09 08:00,ZHHH 090800Z AUTO 00000KT 1SM 14/12 A2997 RMK T01400120 IEM_DS3505
ZHHH,2000-12-09 09:00,ZHHH 090900Z AUTO 02002KT 4SM 13/12 A2997 RMK SLP154 T01320121 52005 IEM_DS3505
ZHHH,2000-12-09 10:00,ZHHH 091000Z AUTO 1SM 12/11 A3000 RMK T01200110 IEM_DS3505
ZHHH,2000-12-09 11:00,ZHHH 091100Z AUTO 36002KT 1SM 12/12 A3003 RMK T01200120 IEM_DS3505
ZHHH,2000-12-09 12:00,ZHHH 091200Z AUTO 36002KT 5SM 12/12 A3003 RMK 60016 SLP171 T01230117 52017 IEM_DS3505
ZHHH,2000-12-09 13:00,ZHHH 091300Z AUTO 03006KT 1SM 11/10 A3006 RMK T01100100 IEM_DS3505
ZHHH,2000-12-09 14:00,ZHHH 091400Z AUTO 1SM 10/10 A3009 RMK T01000100 IEM_DS3505
ZHHH,2000-12-09 15:00,ZHHH 091500Z AUTO 34006KT 5SM 11/10 A3012 RMK SLP201 T01080096 52030 IEM_DS3505
ZHHH,2000-12-09 16:00,ZHHH 091600Z AUTO 03012G21KT 1 1/2SM 10/08 A3015 RMK T01000080 IEM_DS3505
ZHHH,2000-12-09 17:00,ZHHH 091700Z AUTO 02010KT 1 1/2SM 09/08 A3018 RMK T00900080 IEM_DS3505
ZHHH,2000-12-09 18:00,ZHHH 091800Z AUTO 04004KT 5SM 09/09 A3021 RMK 60028 SLP232 T00920086 52030 IEM_DS3505
ZHHH,2000-12-09 19:00,ZHHH 091900Z AUTO 02012G21KT 2 1/2SM 09/07 A3024 RMK T00900070 IEM_DS3505
ZHHH,2000-12-09 20:00,ZHHH 092000Z AUTO 03014KT 2 1/2SM 08/06 A3024 RMK T00800060 IEM_DS3505
ZHHH,2000-12-09 21:00,ZHHH 092100Z AUTO 04008KT 6SM 09/05 A3027 RMK 70041 SLP246 T00870053 52014 IEM_DS3505
ZHHH,2000-12-09 22:00,ZHHH 092200Z AUTO 02010G19KT 2 1/2SM 07/06 A3030 RMK T00700060 IEM_DS3505
ZHHH,2000-12-09 23:00,ZHHH 092300Z AUTO 02010KT 1 1/2SM 07/05 A3033 RMK T00700050 IEM_DS3505
ZHHH,2000-12-10 00:00,ZHHH 100000Z AUTO 02004KT 6SM 07/04 A3036 RMK 60001 SLP281 T00730045 52035 IEM_DS3505
ZHHH,2000-12-10 01:00,ZHHH 100100Z AUTO 03010KT 1SM 07/05 A3036 RMK T00700050 IEM_DS3505
ZHHH,2000-12-10 02:00,ZHHH 100200Z AUTO 01010KT 1SM 07/04 A3042 RMK T00700040 IEM_DS3505
ZHHH,2000-12-10 03:00,ZHHH 100300Z AUTO 02004KT 6SM 07/05 A3039 RMK SLP291 T00710046 52010 IEM_DS3505
ZHHH,2000-12-10 04:00,ZHHH 100400Z AUTO 02012KT 1SM 06/04 A3039 RMK T00600040 IEM_DS3505
ZHHH,2000-12-10 05:00,ZHHH 100500Z AUTO 02012KT 1SM 07/04 A3036 RMK T00700040 IEM_DS3505
ZHHH,2000-12-10 06:00,ZHHH 100600Z AUTO 04006KT 4SM 07/03 A3036 RMK 60002 SLP283 T00700034 57008 IEM_DS3505
ZHHH,2000-12-10 07:00,ZHHH 100700Z AUTO 03012KT 1SM 07/04 A3036 RMK T00700040 IEM_DS3505
ZHHH,2000-12-10 08:00,ZHHH 100800Z AUTO 03014KT 1SM 07/04 A3036 RMK T00700040 IEM_DS3505
ZHHH,2000-12-10 09:00,ZHHH 100900Z AUTO 02008KT 5SM 07/04 A3039 RMK SLP285 T00700037 52002 IEM_DS3505
ZHHH,2000-12-10 10:00,ZHHH 101000Z AUTO 03010KT 1 1/2SM 07/05 A3039 RMK T00700050 IEM_DS3505
ZHHH,2000-12-10 11:00,ZHHH 101100Z AUTO 03012KT 1 1/2SM 07/05 A3042 RMK T00700050 IEM_DS3505
ZHHH,2000-12-10 12:00,ZHHH 101200Z AUTO 04004KT 6SM 07/04 A3042 RMK 60003 SLP299 T00710043 52014 IEM_DS3505
ZHHH,2000-12-10 13:00,ZHHH 101300Z AUTO 03006KT 1 1/2SM 07/04 A3042 RMK T00700040 IEM_DS3505
ZHHH,2000-12-10 15:00,ZHHH 101500Z AUTO 04004KT 6SM 08/02 A3042 RMK SLP304 T00750024 52005 IEM_DS3505
ZHHH,2000-12-10 16:00,ZHHH 101600Z AUTO 05006KT 4SM 07/02 A3045 RMK T00700020 IEM_DS3505
ZHHH,2000-12-10 17:00,ZHHH 101700Z AUTO 4SM 07/03 A3045 RMK T00700030 IEM_DS3505
ZHHH,2000-12-10 18:00,ZHHH 101800Z AUTO 04004KT 6SM 08/03 A3045 RMK 60003 SLP309 T00750027 52005 IEM_DS3505
ZHHH,2000-12-10 19:00,ZHHH 101900Z AUTO 04006KT 4SM 07/04 A3045 RMK T00700040 IEM_DS3505
ZHHH,2000-12-10 20:00,ZHHH 102000Z AUTO 04008KT 3SM 06/04 A3045 RMK T00600040 IEM_DS3505
ZHHH,2000-12-10 21:00,ZHHH 102100Z AUTO 04004KT 6SM 07/03 A3042 RMK 70003 SLP306 T00680032 57003 IEM_DS3505
ZHHH,2000-12-10 22:00,ZHHH 102200Z AUTO 05008KT 3SM 06/03 A3045 RMK T00600030 IEM_DS3505
ZHHH,2000-12-10 23:00,ZHHH 102300Z AUTO 06010KT 7SM 06/03 A3045 RMK T00600030 IEM_DS3505
ZHHH,2000-12-11 00:00,ZHHH 110000Z AUTO 04002KT 8SM 07/03 A3047 RMK 60000 SLP313 T00670033 52007 IEM_DS3505
ZHHH,2000-12-11 01:00,ZHHH 110100Z AUTO 05006KT 6SM 06/03 A3047 RMK T00600030 IEM_DS3505
ZHHH,2000-12-11 02:00,ZHHH 110200Z AUTO 05006KT 6SM 06/03 A3047 RMK T00600030 IEM_DS3505
ZHHH,2000-12-11 03:00,ZHHH 110300Z AUTO 36002KT 9SM 07/03 A3047 RMK SLP319 T00720026 52006 IEM_DS3505
ZHHH,2000-12-11 04:00,ZHHH 110400Z AUTO 03006KT 6SM 07/03 A3047 RMK T00700030 IEM_DS3505
ZHHH,2000-12-11 05:00,ZHHH 110500Z AUTO 02006KT 6SM 07/02 A3045 RMK T00700020 IEM_DS3505
ZHHH,2000-12-11 06:00,ZHHH 110600Z AUTO 02004KT 9SM 07/01 A3045 RMK SLP310 T00720011 57009 IEM_DS3505
ZHHH,2000-12-11 07:00,ZHHH 110700Z AUTO 04012KT 6SM 06/01 A3045 RMK T00600010 IEM_DS3505
ZHHH,2000-12-11 08:00,ZHHH 110800Z AUTO 03012KT 5SM 06/01 A3047 RMK T00600010 IEM_DS3505
ZHHH,2000-12-11 09:00,ZHHH 110900Z AUTO 36006G25KT 7SM 05/M00 A3050 RMK SLP328 T00531003 52017 IEM_DS3505
ZHHH,2000-12-11 10:00,ZHHH 111000Z AUTO 04014KT 7SM 04/00 A3053 RMK T00400000 IEM_DS3505
ZHHH,2000-12-11 11:00,ZHHH 111100Z AUTO 05016G25KT 7SM 03/M01 A3053 RMK T00301010 IEM_DS3505
ZHHH,2000-12-11 12:00,ZHHH 111200Z AUTO 04004KT 5SM 03/M00 A3056 RMK 60002 SLP352 T00321004 52024 IEM_DS3505
ZHHH,2000-12-11 13:00,ZHHH 111300Z AUTO 06014KT 7SM 03/M01 A3056 RMK T00301010 IEM_DS3505
ZHHH,2000-12-11 14:00,ZHHH 111400Z AUTO 07012KT 7SM 03/M01 A3056 RMK T00301010 IEM_DS3505
ZHHH,2000-12-11 15:00,ZHHH 111500Z AUTO 07006KT 6SM 03/M01 A3059 RMK SLP356 T00341014 52004 IEM_DS3505
ZHHH,2000-12-11 16:00,ZHHH 111600Z AUTO 05008KT 7SM 02/01 A3059 RMK T00200010 IEM_DS3505
ZHHH,2000-12-11 17:00,ZHHH 111700Z AUTO 02006KT 4SM 01/01 A3059 RMK T00100010 IEM_DS3505
ZHHH,2000-12-11 18:00,ZHHH 111800Z AUTO 36004KT 4SM 01/01 A3059 RMK T00100010 IEM_DS3505
ZHHH,2000-12-11 19:00,ZHHH 111900Z AUTO 02008KT 1 1/2SM 01/01 A3056 RMK T00100010 IEM_DS3505
ZHHH,2000-12-11 20:00,ZHHH 112000Z AUTO 03006KT 1 1/2SM 01/01 A3053 RMK T00100010 IEM_DS3505
ZHHH,2000-12-11 21:00,ZHHH 112100Z AUTO 02002KT 4SM 01/01 A3053 RMK 70015 SLP340 T00130008 57016 IEM_DS3505
ZHHH,2000-12-11 22:00,ZHHH 112200Z AUTO 02006KT 1 1/2SM 01/01 A3053 RMK T00100010 IEM_DS3505
ZHHH,2000-12-11 23:00,ZHHH 112300Z AUTO 1 1/2SM 01/00 A3053 RMK T00100000 IEM_DS3505
ZHHH,2000-12-12 00:00,ZHHH 120000Z AUTO 36002KT 4SM 01/00 A3056 RMK 60016 SLP347 T00090003 52007 IEM_DS3505
ZHHH,2000-12-12 01:00,ZHHH 120100Z AUTO 36006KT 3/8SM 00/00 A3056 RMK T00000000 IEM_DS3505
ZHHH,2000-12-12 02:00,ZHHH 120200Z AUTO 36006KT 3/8SM 00/00 A3056 RMK T00000000 IEM_DS3505
ZHHH,2000-12-12 03:00,ZHHH 120300Z AUTO 02002KT 4SM 01/01 A3053 RMK SLP344 T00140006 57003 IEM_DS3505
ZHHH,2000-12-12 04:00,ZHHH 120400Z AUTO 35006KT 1 1/2SM 01/01 A3053 RMK T00100010 IEM_DS3505
ZHHH,2000-12-12 05:00,ZHHH 120500Z AUTO 2SM 02/01 A3047 RMK T00200010 IEM_DS3505
ZHHH,2000-12-12 06:00,ZHHH 120600Z AUTO 36002KT 7SM 02/01 A3045 RMK 60012 SLP318 T00250006 57026 IEM_DS3505
ZHHH,2000-12-12 07:00,ZHHH 120700Z AUTO 7SM 03/01 A3047 RMK T00300010 IEM_DS3505
ZHHH,2000-12-12 08:00,ZHHH 120800Z AUTO 7SM 03/01 A3045 RMK T00300010 IEM_DS3505
ZHHH,2000-12-12 09:00,ZHHH 120900Z AUTO 34002KT 7SM 03/01 A3045 RMK SLP311 T00330012 57007 IEM_DS3505
ZHHH,2000-12-12 10:00,ZHHH 121000Z AUTO 00000KT 7SM 03/02 A3045 RMK T00300020 IEM_DS3505
ZHHH,2000-12-12 11:00,ZHHH 121100Z AUTO 24002KT 6SM 02/01 A3045 RMK T00200010 IEM_DS3505
ZHHH,2000-12-12 12:00,ZHHH 121200Z AUTO 34002KT 7SM 03/01 A3045 RMK 60000 SLP311 T00320011 54000 IEM_DS3505
ZHHH,2000-12-12 13:00,ZHHH 121300Z AUTO 25004KT 7SM 02/02 A3047 RMK T00200020 IEM_DS3505
ZHHH,2000-12-12 14:00,ZHHH 121400Z AUTO 24004KT 4SM 03/02 A3045 RMK T00300020 IEM_DS3505
ZHHH,2000-12-12 15:00,ZHHH 121500Z AUTO 32002KT 7SM 03/01 A3045 RMK SLP313 T00290013 52002 IEM_DS3505
ZHHH,2000-12-12 16:00,ZHHH 121600Z AUTO 29002KT 4SM 03/02 A3045 RMK T00300020 IEM_DS3505
ZHHH,2000-12-12 17:00,ZHHH 121700Z AUTO 4SM 03/02 A3042 RMK T00300020 IEM_DS3505
ZHHH,2000-12-12 18:00,ZHHH 121800Z AUTO 32002KT 5SM 03/01 A3042 RMK SLP303 T00300014 57010 IEM_DS3505
ZHHH,2000-12-12 19:00,ZHHH 121900Z AUTO 27006KT 2 1/2SM 02/01 A3039 RMK T00200010 IEM_DS3505
ZHHH,2000-12-12 20:00,ZHHH 122000Z AUTO 29006KT 2SM 02/01 A3039 RMK T00200010 IEM_DS3505
ZHHH,2000-12-12 21:00,ZHHH 122100Z AUTO 00000KT 5SM 02/00 A3036 RMK 70024 SLP287 T00160005 57016 IEM_DS3505
ZHHH,2000-12-12 22:00,ZHHH 122200Z AUTO 29004KT 1 1/2SM 01/00 A3036 RMK T00100000 IEM_DS3505
ZHHH,2000-12-12 23:00,ZHHH 122300Z AUTO 1 1/2SM 00/00 A3039 RMK T00000000 IEM_DS3505
ZHHH,2000-12-13 00:00,ZHHH 130000Z AUTO 00000KT 7SM 01/00 A3036 RMK 70014 SLP288 T00130002 52001 IEM_DS3505
ZHHH,2000-12-13 01:00,ZHHH 130100Z AUTO 2SM 02/01 A3039 RMK T00200010 IEM_DS3505
ZHHH,2000-12-13 02:00,ZHHH 130200Z AUTO 4SM 03/01 A3039 RMK T00300010 IEM_DS3505
ZHHH,2000-12-13 03:00,ZHHH 130300Z AUTO 27002KT 6SM 04/00 A3036 RMK SLP282 T00380000 57006 IEM_DS3505
ZHHH,2000-12-13 04:00,ZHHH 130400Z AUTO 19008KT 3SM 04/01 A3033 RMK T00400010 IEM_DS3505
ZHHH,2000-12-13 05:00,ZHHH 130500Z AUTO 4SM 05/02 A3030 RMK T00500020 IEM_DS3505
ZHHH,2000-12-13 06:00,ZHHH 130600Z AUTO 18004KT 11SM 06/01 A3027 RMK SLP256 T00650006 57025 IEM_DS3505
ZHHH,2000-12-13 07:00,ZHHH 130700Z AUTO 7SM 07/01 A3027 RMK T00700010 IEM_DS3505
ZHHH,2000-12-13 08:00,ZHHH 130800Z AUTO 6SM 07/01 A3027 RMK T00700010 IEM_DS3505
ZHHH,2000-12-13 09:00,ZHHH 130900Z AUTO 18002KT 11SM 06/01 A3027 RMK SLP254 T00640011 57003 IEM_DS3505
ZHHH,2000-12-13 10:00,ZHHH 131000Z AUTO 6SM 05/00 A3027 RMK T00500000 IEM_DS3505
ZHHH,2000-12-13 11:00,ZHHH 131100Z AUTO 11002KT 6SM 05/02 A3027 RMK T00500020 IEM_DS3505
ZHHH,2000-12-13 12:00,ZHHH 131200Z AUTO 00000KT 9SM 05/02 A3030 RMK SLP257 T00470016 52003 IEM_DS3505
ZHHH,2000-12-13 13:00,ZHHH 131300Z AUTO 14004KT 6SM 04/02 A3030 RMK T00400020 IEM_DS3505
ZHHH,2000-12-13 14:00,ZHHH 131400Z AUTO 16002KT 6SM 04/01 A3030 RMK T00400010 IEM_DS3505
ZHHH,2000-12-13 15:00,ZHHH 131500Z AUTO 00000KT 9SM 03/02 A3030 RMK SLP266 T00270017 52009 IEM_DS3505
ZHHH,2000-12-13 16:00,ZHHH 131600Z AUTO 14004KT 3SM 03/02 A3033 RMK T00300020 IEM_DS3505
ZHHH,2000-12-13 17:00,ZHHH 131700Z AUTO 14004KT 3SM 03/02 A3030 RMK T00300020 IEM_DS3505
ZHHH,2000-12-13 18:00,ZHHH 131800Z AUTO 00000KT 9SM 03/02 A3033 RMK SLP270 T00260015 52004 IEM_DS3505
ZHHH,2000-12-13 19:00,ZHHH 131900Z AUTO 2 1/2SM 02/01 A3033 RMK T00200010 IEM_DS3505
ZHHH,2000-12-13 20:00,ZHHH 132000Z AUTO 06004KT 1 1/2SM 01/01 A3033 RMK T00100010 IEM_DS3505
ZHHH,2000-12-13 21:00,ZHHH 132100Z AUTO 00000KT 5SM 01/01 A3033 RMK SLP276 T00130010 52006 IEM_DS3505
ZHHH,2000-12-13 22:00,ZHHH 132200Z AUTO 13002KT 1SM 01/01 A3033 RMK T00100010 IEM_DS3505
ZHHH,2000-12-13 23:00,ZHHH 132300Z AUTO 14002KT 1/8SM 00/00 A3036 RMK T00000000 IEM_DS3505
ZHHH,2000-12-14 00:00,ZHHH 140000Z AUTO 00000KT 1/2SM 01/00 A3036 RMK SLP282 T00070004 52006 IEM_DS3505
ZHHH,2000-12-14 01:00,ZHHH 140100Z AUTO 0SM 00/00 A3036 RMK T00000000 IEM_DS3505
ZHHH,2000-12-14 02:00,ZHHH 140200Z AUTO 1/8SM 02/02 A3036 RMK T00200020 IEM_DS3505
ZHHH,2000-12-14 03:00,ZHHH 140300Z AUTO 25002KT 9SM 05/02 A3036 RMK SLP279 T00510018 57003 IEM_DS3505
ZHHH,2000-12-14 04:00,ZHHH 140400Z AUTO 23008KT 4SM 06/04 A3033 RMK T00600040 IEM_DS3505
ZHHH,2000-12-14 05:00,ZHHH 140500Z AUTO 22006KT 7SM 07/03 A3030 RMK T00700030 IEM_DS3505
ZHHH,2000-12-14 06:00,ZHHH 140600Z AUTO 25002KT 9SM 08/04 A3027 RMK SLP249 T00820035 57029 IEM_DS3505
ZHHH,2000-12-14 07:00,ZHHH 140700Z AUTO 6SM 08/03 A3027 RMK T00800030 IEM_DS3505
ZHHH,2000-12-14 08:00,ZHHH 140800Z AUTO 6SM 09/02 A3027 RMK T00900020 IEM_DS3505
ZHHH,2000-12-14 09:00,ZHHH 140900Z AUTO 00000KT 9SM 08/02 A3027 RMK SLP249 T00780025 54000 IEM_DS3505
ZHHH,2000-12-14 10:00,ZHHH 141000Z AUTO 00000KT 2 1/2SM 07/03 A3027 RMK T00700030 IEM_DS3505
ZHHH,2000-12-14 11:00,ZHHH 141100Z AUTO 12004KT 1 1/4SM 06/04 A3027 RMK T00600040 IEM_DS3505
ZHHH,2000-12-14 12:00,ZHHH 141200Z AUTO 00000KT 7SM 06/03 A3024 RMK SLP243 T00570033 57007 IEM_DS3505
ZHHH,2000-12-14 13:00,ZHHH 141300Z AUTO 12006KT 1 1/4SM 04/03 A3024 RMK T00400030 IEM_DS3505
ZHHH,2000-12-14 14:00,ZHHH 141400Z AUTO 11006KT 1 1/2SM 04/03 A3027 RMK T00400030 IEM_DS3505
ZHHH,2000-12-14 15:00,ZHHH 141500Z AUTO 00000KT 7SM 04/03 A3024 RMK SLP243 T00400033 52001 IEM_DS3505
ZHHH,2000-12-14 16:00,ZHHH 141600Z AUTO 11004KT 1SM 03/03 A3027 RMK T00300030 IEM_DS3505
ZHHH,2000-12-14 17:00,ZHHH 141700Z AUTO 1SM 03/02 A3024 RMK T00300020 IEM_DS3505
ZHHH,2000-12-14 18:00,ZHHH 141800Z AUTO 00000KT 4SM 03/03 A3024 RMK SLP244 T00330028 52001 IEM_DS3505
ZHHH,2000-12-14 19:00,ZHHH 141900Z AUTO 07004KT 1SM 02/02 A3024 RMK T00200020 IEM_DS3505
ZHHH,2000-12-14 20:00,ZHHH 142000Z AUTO 00000KT 3/8SM 02/02 A3024 RMK T00200020 IEM_DS3505
ZHHH,2000-12-14 21:00,ZHHH 142100Z AUTO 00000KT 1/2SM 01/00 A3024 RMK SLP240 T00090003 57004 IEM_DS3505
ZHHH,2000-12-14 22:00,ZHHH 142200Z AUTO 1/8SM 01/01 A3024 RMK T00100010 IEM_DS3505
ZHHH,2000-12-14 23:00,ZHHH 142300Z AUTO 1/8SM 00/00 A3024 RMK T00000000 IEM_DS3505
ZHHH,2000-12-15 00:00,ZHHH 150000Z AUTO 00000KT 3/8SM 01/00 A3024 RMK SLP248 T00080005 52007 IEM_DS3505
ZHHH,2000-12-15 01:00,ZHHH 150100Z AUTO 1/8SM 01/01 A3027 RMK T00100010 IEM_DS3505
ZHHH,2000-12-15 02:00,ZHHH 150200Z AUTO 1/8SM 02/02 A3027 RMK T00200020 IEM_DS3505
ZHHH,2000-12-15 03:00,ZHHH 150300Z AUTO 18002KT 5SM 04/04 A3027 RMK SLP250 T00420037 52002 IEM_DS3505
ZHHH,2000-12-15 04:00,ZHHH 150400Z AUTO 1/2SM 04/04 A3024 RMK T00400040 IEM_DS3505
ZHHH,2000-12-15 05:00,ZHHH 150500Z AUTO 1SM 05/05 A3024 RMK T00500050 IEM_DS3505
ZHHH,2000-12-15 06:00,ZHHH 150600Z AUTO 00000KT 6SM 06/04 A3024 RMK 60003 SLP237 T00630042 57012 IEM_DS3505
ZHHH,2000-12-15 07:00,ZHHH 150700Z AUTO 33006KT 2 1/2SM 06/05 A3024 RMK T00600050 IEM_DS3505
ZHHH,2000-12-15 08:00,ZHHH 150800Z AUTO 2 1/2SM 07/04 A3024 RMK T00700040 IEM_DS3505
ZHHH,2000-12-15 09:00,ZHHH 150900Z AUTO 25002KT 7SM 06/04 A3027 RMK SLP251 T00630039 52013 IEM_DS3505
ZHHH,2000-12-15 10:00,ZHHH 151000Z AUTO 1 1/2SM 06/04 A3027 RMK T00600040 IEM_DS3505
ZHHH,2000-12-15 11:00,ZHHH 151100Z AUTO 00000KT 1 1/2SM 06/04 A3027 RMK T00600040 IEM_DS3505
ZHHH,2000-12-15 12:00,ZHHH 151200Z AUTO 00000KT 6SM 06/04 A3030 RMK SLP262 T00620038 52011 IEM_DS3505
ZHHH,2000-12-15 13:00,ZHHH 151300Z AUTO 1 1/4SM 06/05 A3030 RMK T00600050 IEM_DS3505
ZHHH,2000-12-15 14:00,ZHHH 151400Z AUTO 05004KT 1 1/4SM 06/05 A3030 RMK T00600050 IEM_DS3505
ZHHH,2000-12-15 15:00,ZHHH 151500Z AUTO 00000KT 6SM 06/04 A3030 RMK SLP263 T00620043 52002 IEM_DS3505
ZHHH,2000-12-15 16:00,ZHHH 151600Z AUTO 1 1/4SM 06/05 A3033 RMK T00600050 IEM_DS3505
ZHHH,2000-12-15 17:00,ZHHH 151700Z AUTO 1 1/4SM 06/05 A3033 RMK T00600050 IEM_DS3505
ZHHH,2000-12-15 18:00,ZHHH 151800Z AUTO 00000KT 6SM 06/05 A3036 RMK SLP272 T00610047 52009 IEM_DS3505
ZHHH,2000-12-15 19:00,ZHHH 151900Z AUTO 1 1/4SM 06/05 A3036 RMK T00600050 IEM_DS3505
ZHHH,2000-12-15 20:00,ZHHH 152000Z AUTO 33006KT 1 1/4SM 06/04 A3033 RMK T00600040 IEM_DS3505
ZHHH,2000-12-15 21:00,ZHHH 152100Z AUTO 25002KT 7SM 06/04 A3033 RMK 70003 SLP269 T00590045 57003 IEM_DS3505
ZHHH,2000-12-15 22:00,ZHHH 152200Z AUTO 1SM 06/05 A3033 RMK T00600050 IEM_DS3505
ZHHH,2000-12-15 23:00,ZHHH 152300Z AUTO 1SM 06/05 A3033 RMK T00600050 IEM_DS3505
ZHHH,2000-12-16 00:00,ZHHH 160000Z AUTO 00000KT 4SM 06/05 A3039 RMK 60003 SLP287 T00620050 52018 IEM_DS3505
ZHHH,2000-12-16 01:00,ZHHH 160100Z AUTO 07006KT 1SM 07/05 A3039 RMK T00700050 IEM_DS3505
ZHHH,2000-12-16 02:00,ZHHH 160200Z AUTO 04006KT 1SM 07/06 A3039 RMK T00700060 IEM_DS3505
ZHHH,2000-12-16 03:00,ZHHH 160300Z AUTO 25002KT 6SM 08/06 A3039 RMK SLP291 T00760056 52004 IEM_DS3505
ZHHH,2000-12-16 04:00,ZHHH 160400Z AUTO 36006KT 1SM 08/06 A3036 RMK T00800060 IEM_DS3505
ZHHH,2000-12-16 05:00,ZHHH 160500Z AUTO 02006KT 1SM 08/05 A3030 RMK T00800050 IEM_DS3505
ZHHH,2000-12-16 06:00,ZHHH 160600Z AUTO 27004KT 5SM 08/06 A3030 RMK 60000 SLP261 T00790059 57030 IEM_DS3505
ZHHH,2000-12-16 07:00,ZHHH 160700Z AUTO 1SM 08/06 A3030 RMK T00800060 IEM_DS3505
ZHHH,2000-12-16 08:00,ZHHH 160800Z AUTO 1SM 08/07 A3030 RMK T00800070 IEM_DS3505
ZHHH,2000-12-16 09:00,ZHHH 160900Z AUTO 00000KT 5SM 08/06 A3033 RMK SLP271 T00770064 52010 IEM_DS3505
ZHHH,2000-12-16 10:00,ZHHH 161000Z AUTO 35004KT 1SM 07/06 A3033 RMK T00700060 IEM_DS3505
ZHHH,2000-12-16 11:00,ZHHH 161100Z AUTO 1SM 07/06 A3033 RMK T00700060 IEM_DS3505
ZHHH,2000-12-16 12:00,ZHHH 161200Z AUTO 00000KT 6SM 07/06 A3036 RMK 60004 SLP279 T00710062 52008 IEM_DS3505
ZHHH,2000-12-16 13:00,ZHHH 161300Z AUTO 1SM 07/07 A3036 RMK T00700070 IEM_DS3505
ZHHH,2000-12-16 14:00,ZHHH 161400Z AUTO 00000KT 1SM 07/06 A3036 RMK T00700060 IEM_DS3505
ZHHH,2000-12-16 15:00,ZHHH 161500Z AUTO 00000KT 9SM 07/06 A3036 RMK SLP280 T00690060 52001 IEM_DS3505
ZHHH,2000-12-16 16:00,ZHHH 161600Z AUTO 36002KT 1SM 06/06 A3036 RMK T00600060 IEM_DS3505
ZHHH,2000-12-16 17:00,ZHHH 161700Z AUTO 1SM 06/05 A3036 RMK T00600050 IEM_DS3505
ZHHH,2000-12-16 18:00,ZHHH 161800Z AUTO 00000KT 5SM 06/06 A3033 RMK SLP274 T00640055 57006 IEM_DS3505
ZHHH,2000-12-16 19:00,ZHHH 161900Z AUTO 1/2SM 06/05 A3033 RMK T00600050 IEM_DS3505
ZHHH,2000-12-16 20:00,ZHHH 162000Z AUTO 1/2SM 05/05 A3033 RMK T00500050 IEM_DS3505
ZHHH,2000-12-16 21:00,ZHHH 162100Z AUTO 27002KT 4SM 06/05 A3030 RMK 70006 SLP266 T00590047 57008 IEM_DS3505
ZHHH,2000-12-16 22:00,ZHHH 162200Z AUTO 1SM 05/05 A3030 RMK T00500050 IEM_DS3505
ZHHH,2000-12-16 23:00,ZHHH 162300Z AUTO 1SM 05/05 A3033 RMK T00500050 IEM_DS3505
ZHHH,2000-12-17 00:00,ZHHH 170000Z AUTO 00000KT 5SM 06/05 A3033 RMK 70006 SLP270 T00560047 52004 IEM_DS3505
ZHHH,2000-12-17 01:00,ZHHH 170100Z AUTO 1/2SM 05/05 A3033 RMK T00500050 IEM_DS3505
ZHHH,2000-12-17 02:00,ZHHH 170200Z AUTO 14006KT 1/2SM 06/05 A3033 RMK T00600050 IEM_DS3505
ZHHH,2000-12-17 03:00,ZHHH 170300Z AUTO 27002KT 6SM 08/05 A3027 RMK SLP255 T00760053 57015 IEM_DS3505
ZHHH,2000-12-17 04:00,ZHHH 170400Z AUTO 1SM 08/05 A3024 RMK T00800050 IEM_DS3505
ZHHH,2000-12-17 05:00,ZHHH 170500Z AUTO 1SM 08/06 A3021 RMK T00800060 IEM_DS3505
ZHHH,2000-12-17 06:00,ZHHH 170600Z AUTO 25002KT 6SM 09/06 A3021 RMK SLP231 T00930055 57024 IEM_DS3505
ZHHH,2000-12-17 07:00,ZHHH 170700Z AUTO 1SM 09/06 A3018 RMK T00900060 IEM_DS3505
ZHHH,2000-12-17 08:00,ZHHH 170800Z AUTO 1SM 09/06 A3021 RMK T00900060 IEM_DS3505
ZHHH,2000-12-17 09:00,ZHHH 170900Z AUTO 00000KT 6SM 09/06 A3018 RMK SLP222 T00910063 57009 IEM_DS3505
ZHHH,2000-12-17 10:00,ZHHH 171000Z AUTO 12008KT 1SM 08/07 A3018 RMK T00800070 IEM_DS3505
ZHHH,2000-12-17 11:00,ZHHH 171100Z AUTO 12006KT 1SM 08/06 RMK T00800060 IEM_DS3505
ZHHH,2000-12-17 12:00,ZHHH 171200Z AUTO 00000KT 6SM 08/06 A3015 RMK SLP213 T00780065 57009 IEM_DS3505
ZHHH,2000-12-17 13:00,ZHHH 171300Z AUTO 1SM 07/07 A3015 RMK T00700070 IEM_DS3505
ZHHH,2000-12-17 14:00,ZHHH 171400Z AUTO 3/8SM 07/07 A3015 RMK T00700070 IEM_DS3505
ZHHH,2000-12-17 15:00,ZHHH 171500Z AUTO 00000KT 6SM 07/06 A3015 RMK SLP209 T00710064 57004 IEM_DS3505
ZHHH,2000-12-17 16:00,ZHHH 171600Z AUTO 00000KT 1/8SM 06/06 A3015 RMK T00600060 IEM_DS3505
ZHHH,2000-12-17 17:00,ZHHH 171700Z AUTO 35002KT 1/8SM 05/05 A3015 RMK T00500050 IEM_DS3505
ZHHH,2000-12-17 18:00,ZHHH 171800Z AUTO 00000KT 3/8SM 06/06 A3015 RMK SLP211 T00590057 52002 IEM_DS3505
ZHHH,2000-12-17 19:00,ZHHH 171900Z AUTO 00000KT 1/8SM 04/04 A3015 RMK T00400040 IEM_DS3505
ZHHH,2000-12-17 20:00,ZHHH 172000Z AUTO 1/8SM 05/05 A3012 RMK T00500050 IEM_DS3505
ZHHH,2000-12-17 21:00,ZHHH 172100Z AUTO 00000KT 3/8SM 06/06 A3012 RMK SLP203 T00580056 57008 IEM_DS3505
ZHHH,2000-12-17 22:00,ZHHH 172200Z AUTO 1/8SM 05/05 A3012 RMK T00500050 IEM_DS3505
ZHHH,2000-12-17 23:00,ZHHH 172300Z AUTO 00000KT 1/8SM 05/05 A3015 RMK T00500050 IEM_DS3505
ZHHH,2000-12-18 00:00,ZHHH 180000Z AUTO 00000KT 3/8SM 06/05 A3015 RMK SLP213 T00550053 52010 IEM_DS3505
ZHHH,2000-12-18 01:00,ZHHH 180100Z AUTO 00000KT 1/8SM 05/05 A3018 RMK T00500050 IEM_DS3505
ZHHH,2000-12-18 02:00,ZHHH 180200Z AUTO 1/8SM 05/05 A3021 RMK T00500050 IEM_DS3505
ZHHH,2000-12-18 03:00,ZHHH 180300Z AUTO 27002KT 1/2SM 06/06 A3018 RMK SLP221 T00610061 52008 IEM_DS3505
ZHHH,2000-12-18 04:00,ZHHH 180400Z AUTO 1/2SM 07/07 A3015 RMK T00700070 IEM_DS3505
ZHHH,2000-12-18 05:00,ZHHH 180500Z AUTO 1/2SM 08/08 A3012 RMK T00800080 IEM_DS3505
ZHHH,2000-12-18 06:00,ZHHH 180600Z AUTO 27002KT 5SM 09/08 A3009 RMK SLP195 T00870079 57026 IEM_DS3505
ZHHH,2000-12-18 07:00,ZHHH 180700Z AUTO 1 1/4SM 09/09 A3012 RMK T00900090 IEM_DS3505
ZHHH,2000-12-18 08:00,ZHHH 180800Z AUTO 36006KT 1 1/2SM 10/09 A3009 RMK T01000090 IEM_DS3505
ZHHH,2000-12-18 09:00,ZHHH 180900Z AUTO 36004KT 7SM 10/08 A3012 RMK SLP195 T00980079 54000 IEM_DS3505
ZHHH,2000-12-18 10:00,ZHHH 181000Z AUTO 05006KT 1 1/2SM 09/08 A3009 RMK T00900080 IEM_DS3505
ZHHH,2000-12-18 11:00,ZHHH 181100Z AUTO 06006KT 1 1/2SM 09/08 A3012 RMK T00900080 IEM_DS3505
ZHHH,2000-12-18 12:00,ZHHH 181200Z AUTO 00000KT 6SM 09/08 A3012 RMK SLP201 T00900080 52006 IEM_DS3505
ZHHH,2000-12-18 13:00,ZHHH 181300Z AUTO 03006KT 1SM 08/07 A3015 RMK T00800070 IEM_DS3505
ZHHH,2000-12-18 14:00,ZHHH 181400Z AUTO 36006KT 1SM 07/07 A3018 RMK T00700070 IEM_DS3505
ZHHH,2000-12-18 15:00,ZHHH 181500Z AUTO 00000KT 6SM 08/07 A3018 RMK SLP220 T00820069 52019 IEM_DS3505
ZHHH,2000-12-18 16:00,ZHHH 181600Z AUTO 1 1/4SM 08/07 A3021 RMK T00800070 IEM_DS3505
ZHHH,2000-12-18 18:00,ZHHH 181800Z AUTO 36002KT 6SM 08/06 A3018 RMK 60000 SLP225 T00840064 52005 IEM_DS3505
ZHHH,2000-12-18 19:00,ZHHH 181900Z AUTO 05010KT 1 1/2SM 09/07 A3021 RMK T00900070 IEM_DS3505
ZHHH,2000-12-18 20:00,ZHHH 182000Z AUTO 05008KT 1 1/2SM 09/07 A3021 RMK T00900070 IEM_DS3505
ZHHH,2000-12-18 21:00,ZHHH 182100Z AUTO 02002KT 6SM 09/07 A3021 RMK 70000 SLP226 T00920068 52001 IEM_DS3505
ZHHH,2000-12-18 22:00,ZHHH 182200Z AUTO 05008KT 1 1/2SM 09/07 A3018 RMK T00900070 IEM_DS3505
ZHHH,2000-12-18 23:00,ZHHH 182300Z AUTO 03010KT 1 1/2SM 08/07 A3021 RMK T00800070 IEM_DS3505
ZHHH,2000-12-19 00:00,ZHHH 190000Z AUTO 02004KT 7SM 09/06 A3021 RMK 60003 SLP232 T00870065 52006 IEM_DS3505
ZHHH,2000-12-19 01:00,ZHHH 190100Z AUTO 05010KT 1 1/4SM 08/06 A3024 RMK T00800060 IEM_DS3505
ZHHH,2000-12-19 02:00,ZHHH 190200Z AUTO 02006KT 1 1/4SM 08/07 A3027 RMK T00800070 IEM_DS3505
ZHHH,2000-12-19 03:00,ZHHH 190300Z AUTO 02004KT 9SM 09/06 A3024 RMK SLP241 T00910063 52009 IEM_DS3505
ZHHH,2000-12-19 04:00,ZHHH 190400Z AUTO 03010KT 1 1/2SM 09/07 A3024 RMK T00900070 IEM_DS3505
ZHHH,2000-12-19 05:00,ZHHH 190500Z AUTO 02012KT 1 1/2SM 09/07 A3021 RMK T00900070 IEM_DS3505
ZHHH,2000-12-19 06:00,ZHHH 190600Z AUTO 36004KT 6SM 09/06 A3021 RMK 60003 SLP230 T00880062 57011 IEM_DS3505
ZHHH,2000-12-19 07:00,ZHHH 190700Z AUTO 03010KT 1 1/4SM 07/06 A3021 RMK T00700060 IEM_DS3505
ZHHH,2000-12-19 08:00,ZHHH 190800Z AUTO 03014KT 1 1/4SM 06/06 A3021 RMK T00600060 IEM_DS3505
ZHHH,2000-12-19 09:00,ZHHH 190900Z AUTO 02004KT 6SM 06/05 RMK SLP243 T00650054 52013 IEM_DS3505
ZHHH,2000-12-19 10:00,ZHHH 191000Z AUTO 02014KT 1 1/4SM 05/04 A3024 RMK T00500040 IEM_DS3505
ZHHH,2000-12-19 11:00,ZHHH 191100Z AUTO 03014KT 1SM 05/04 A3027 RMK T00500040 IEM_DS3505
ZHHH,2000-12-19 12:00,ZHHH 191200Z AUTO 36004KT 6SM 05/04 A3030 RMK 60024 SLP262 T00520040 52019 IEM_DS3505
ZHHH,2000-12-19 13:00,ZHHH 191300Z AUTO 01010KT 1 1/2SM 05/04 A3033 RMK T00500040 IEM_DS3505
ZHHH,2000-12-19 14:00,ZHHH 191400Z AUTO 02012KT 1 1/4SM 04/04 A3033 RMK T00400040 IEM_DS3505
ZHHH,2000-12-19 15:00,ZHHH 191500Z AUTO 34006KT 6SM 05/04 A3036 RMK SLP281 T00460039 52019 IEM_DS3505
ZHHH,2000-12-19 16:00,ZHHH 191600Z AUTO 01012KT 1 1/2SM 04/03 A3039 RMK T00400030 IEM_DS3505
ZHHH,2000-12-19 17:00,ZHHH 191700Z AUTO 36012KT 1 1/2SM 03/02 A3042 RMK T00300020 IEM_DS3505
ZHHH,2000-12-19 18:00,ZHHH 191800Z AUTO 34006KT 6SM 02/01 A3042 RMK 60031 SLP302 T00240013 52020 IEM_DS3505
ZHHH,2000-12-19 19:00,ZHHH 191900Z AUTO 35014KT 2SM 02/02 A3042 RMK T00200020 IEM_DS3505
ZHHH,2000-12-19 20:00,ZHHH 192000Z AUTO 35010KT 2 1/2SM 02/02 A3042 RMK T00200020 IEM_DS3505
ZHHH,2000-12-19 21:00,ZHHH 192100Z AUTO 34004KT 6SM 03/02 A3042 RMK 70060 SLP300 T00260015 57002 IEM_DS3505
ZHHH,2000-12-19 22:00,ZHHH 192200Z AUTO 35008KT 3SM 02/02 A3042 RMK T00200020 IEM_DS3505
ZHHH,2000-12-19 23:00,ZHHH 192300Z AUTO 01006KT 4SM 02/01 A3042 RMK T00200010 IEM_DS3505
ZHHH,2000-12-20 00:00,ZHHH 200000Z AUTO 32002KT 11SM 02/01 A3047 RMK 60004 SLP323 T00250014 52023 IEM_DS3505
ZHHH,2000-12-20 01:00,ZHHH 200100Z AUTO 34008KT 4SM 02/01 A3047 RMK T00200010 IEM_DS3505
ZHHH,2000-12-20 02:00,ZHHH 200200Z AUTO 36006KT 5SM 03/02 A3050 RMK T00300020 IEM_DS3505
ZHHH,2000-12-20 03:00,ZHHH 200300Z AUTO 34002KT 11SM 05/02 A3047 RMK SLP320 T00500022 57003 IEM_DS3505
ZHHH,2000-12-20 04:00,ZHHH 200400Z AUTO 01006KT 6SM 06/03 A3045 RMK T00600030 IEM_DS3505
ZHHH,2000-12-20 05:00,ZHHH 200500Z AUTO 6SM 06/03 A3042 RMK T00600030 IEM_DS3505
ZHHH,2000-12-20 06:00,ZHHH 200600Z AUTO 32002KT 11SM 07/03 A3042 RMK SLP300 T00690028 57020 IEM_DS3505
ZHHH,2000-12-20 07:00,ZHHH 200700Z AUTO 31008KT 6SM 07/04 A3039 RMK T00700040 IEM_DS3505
ZHHH,2000-12-20 08:00,ZHHH 200800Z AUTO 32006KT 6SM 08/04 A3039 RMK T00800040 IEM_DS3505
ZHHH,2000-12-20 09:00,ZHHH 200900Z AUTO 00000KT 11SM 07/03 A3042 RMK SLP298 T00740034 57002 IEM_DS3505
ZHHH,2000-12-20 10:00,ZHHH 201000Z AUTO 34002KT 6SM 06/04 A3042 RMK T00600040 IEM_DS3505
ZHHH,2000-12-20 11:00,ZHHH 201100Z AUTO 00000KT 6SM 06/04 A3042 RMK T00600040 IEM_DS3505
ZHHH,2000-12-20 12:00,ZHHH 201200Z AUTO 00000KT 9SM 05/04 A3042 RMK SLP299 T00510041 52001 IEM_DS3505
ZHHH,2000-12-20 13:00,ZHHH 201300Z AUTO 4SM 04/03 A3042 RMK T00400030 IEM_DS3505
ZHHH,2000-12-20 14:00,ZHHH 201400Z AUTO 00000KT 3SM 04/03 A3042 RMK T00400030 IEM_DS3505
ZHHH,2000-12-20 15:00,ZHHH 201500Z AUTO 00000KT 9SM 04/04 A3042 RMK SLP302 T00410036 52003 IEM_DS3505
ZHHH,2000-12-20 16:00,ZHHH 201600Z AUTO 25004KT 2SM 04/03 A3042 RMK T00400030 IEM_DS3505
ZHHH,2000-12-20 17:00,ZHHH 201700Z AUTO 24004KT 1SM 03/03 A3042 RMK T00300030 IEM_DS3505
ZHHH,2000-12-20 18:00,ZHHH 201800Z AUTO 00000KT 03/03 A3042 RMK SLP302 T00330030 54000 IEM_DS3505
ZHHH,2000-12-20 19:00,ZHHH 201900Z AUTO 1/8SM 02/02 A3039 RMK T00200020 IEM_DS3505
ZHHH,2000-12-20 20:00,ZHHH 202000Z AUTO 1/8SM 02/02 A3039 RMK T00200020 IEM_DS3505
ZHHH,2000-12-20 21:00,ZHHH 202100Z AUTO 00000KT 3/8SM 03/02 A3036 RMK SLP283 T00260023 57019 IEM_DS3505
ZHHH,2000-12-20 22:00,ZHHH 202200Z AUTO 1/8SM 01/01 A3036 RMK T00100010 IEM_DS3505
ZHHH,2000-12-20 23:00,ZHHH 202300Z AUTO 1/8SM 01/01 A3039 RMK T00100010 IEM_DS3505
ZHHH,2000-12-21 00:00,ZHHH 210000Z AUTO 32002KT 1/2SM 02/02 A3039 RMK SLP297 T00210018 52014 IEM_DS3505
ZHHH,2000-12-21 01:00,ZHHH 210100Z AUTO 1/8SM 02/02 A3042 RMK T00200020 IEM_DS3505
ZHHH,2000-12-21 02:00,ZHHH 210200Z AUTO 18006KT 1/8SM 03/03 A3042 RMK T00300030 IEM_DS3505
ZHHH,2000-12-21 03:00,ZHHH 210300Z AUTO 29004KT 1SM 03/03 A3039 RMK SLP294 T00330030 57003 IEM_DS3505
ZHHH,2000-12-21 04:00,ZHHH 210400Z AUTO 20006KT 1SM 05/05 A3036 RMK T00500050 IEM_DS3505
ZHHH,2000-12-21 05:00,ZHHH 210500Z AUTO 20008KT 1SM 05/05 A3030 RMK T00500050 IEM_DS3505
ZHHH,2000-12-21 06:00,ZHHH 210600Z AUTO 27002KT 7SM 09/05 A3027 RMK SLP256 T00880047 57037 IEM_DS3505
ZHHH,2000-12-21 07:00,ZHHH 210700Z AUTO 4SM 09/05 A3024 RMK T00900050 IEM_DS3505
ZHHH,2000-12-21 08:00,ZHHH 210800Z AUTO 6SM 09/04 A3024 RMK T00900040 IEM_DS3505
ZHHH,2000-12-21 09:00,ZHHH 210900Z AUTO 00000KT 9SM 10/04 A3024 RMK SLP237 T00970040 57019 IEM_DS3505
ZHHH,2000-12-21 10:00,ZHHH 211000Z AUTO 20002KT 6SM 08/04 A3024 RMK T00800040 IEM_DS3505
ZHHH,2000-12-21 11:00,ZHHH 211100Z AUTO 6SM 08/04 A3024 RMK T00800040 IEM_DS3505
ZHHH,2000-12-21 12:00,ZHHH 211200Z AUTO 00000KT 7SM 06/04 A3024 RMK SLP237 T00600039 54000 IEM_DS3505
ZHHH,2000-12-21 13:00,ZHHH 211300Z AUTO 20004KT 6SM 06/04 A3024 RMK T00600040 IEM_DS3505
ZHHH,2000-12-21 14:00,ZHHH 211400Z AUTO 17004KT 6SM 06/03 A3024 RMK T00600030 IEM_DS3505
ZHHH,2000-12-21 15:00,ZHHH 211500Z AUTO 00000KT 7SM 05/03 A3021 RMK SLP234 T00480026 57003 IEM_DS3505
ZHHH,2000-12-21 16:00,ZHHH 211600Z AUTO 15004KT 6SM 05/04 A3021 RMK T00500040 IEM_DS3505
ZHHH,2000-12-21 17:00,ZHHH 211700Z AUTO 2SM 04/04 A3018 RMK T00400040 IEM_DS3505
ZHHH,2000-12-21 18:00,ZHHH 211800Z AUTO 00000KT 9SM 04/02 A3018 RMK SLP220 T00350025 57014 IEM_DS3505
ZHHH,2000-12-21 19:00,ZHHH 211900Z AUTO 12006KT 1/8SM 03/03 A3015 RMK T00300030 IEM_DS3505
ZHHH,2000-12-21 20:00,ZHHH 212000Z AUTO 12004KT 1/8SM 01/01 A3015 RMK T00100010 IEM_DS3505
ZHHH,2000-12-21 21:00,ZHHH 212100Z AUTO 00000KT 1/4SM 03/02 A3015 RMK SLP210 T00290024 57010 IEM_DS3505
ZHHH,2000-12-21 22:00,ZHHH 212200Z AUTO 1/8SM 01/01 A3015 RMK T00100010 IEM_DS3505
ZHHH,2000-12-21 23:00,ZHHH 212300Z AUTO 12006KT 1/8SM 02/02 A3015 RMK T00200020 IEM_DS3505
ZHHH,2000-12-22 00:00,ZHHH 220000Z AUTO 27002KT 1/8SM 03/03 A3018 RMK SLP218 T00320029 52008 IEM_DS3505
ZHHH,2000-12-22 01:00,ZHHH 220100Z AUTO 1/8SM 03/03 A3021 RMK T00300030 IEM_DS3505
ZHHH,2000-12-22 02:00,ZHHH 220200Z AUTO 1/8SM 03/03 A3021 RMK T00300030 IEM_DS3505
ZHHH,2000-12-22 03:00,ZHHH 220300Z AUTO 00000KT 3/8SM 04/04 A3024 RMK SLP238 T00440042 52020 IEM_DS3505
ZHHH,2000-12-22 04:00,ZHHH 220400Z AUTO 1SM 05/05 A3021 RMK T00500050 IEM_DS3505
ZHHH,2000-12-22 05:00,ZHHH 220500Z AUTO 1 1/2SM 08/07 A3018 RMK T00800070 IEM_DS3505
ZHHH,2000-12-22 06:00,ZHHH 220600Z AUTO 27002KT 11SM 11/05 A3015 RMK SLP213 T01140048 57025 IEM_DS3505
ZHHH,2000-12-22 08:00,ZHHH 220800Z AUTO 24006KT 2 1/2SM 11/07 A3015 RMK T01100070 IEM_DS3505
ZHHH,2000-12-22 09:00,ZHHH 220900Z AUTO 00000KT 11SM 12/07 A3015 RMK SLP210 T01190073 57003 IEM_DS3505
ZHHH,2000-12-22 10:00,ZHHH 221000Z AUTO 13004KT 2 1/2SM 10/07 A3015 RMK T01000070 IEM_DS3505
ZHHH,2000-12-22 11:00,ZHHH 221100Z AUTO 1 1/2SM 09/07 A3018 RMK T00900070 IEM_DS3505
ZHHH,2000-12-22 12:00,ZHHH 221200Z AUTO 00000KT 6SM 07/06 A3018 RMK SLP227 T00710064 52017 IEM_DS3505
ZHHH,2000-12-22 13:00,ZHHH 221300Z AUTO 1 1/2SM 08/06 A3021 RMK T00800060 IEM_DS3505
ZHHH,2000-12-22 14:00,ZHHH 221400Z AUTO 22006KT 1 1/4SM 08/06 A3021 RMK T00800060 IEM_DS3505
ZHHH,2000-12-22 15:00,ZHHH 221500Z AUTO 00000KT 6SM 06/05 A3021 RMK SLP234 T00560051 52007 IEM_DS3505
ZHHH,2000-12-22 16:00,ZHHH 221600Z AUTO 1SM 07/05 A3021 RMK T00700050 IEM_DS3505
ZHHH,2000-12-22 17:00,ZHHH 221700Z AUTO 14004KT 1SM 06/05 A3021 RMK T00600050 IEM_DS3505
ZHHH,2000-12-22 18:00,ZHHH 221800Z AUTO 00000KT 7SM 06/05 A3021 RMK SLP234 T00580051 54000 IEM_DS3505
ZHHH,2000-12-22 19:00,ZHHH 221900Z AUTO 14006KT 1SM 05/05 A3018 RMK T00500050 IEM_DS3505
ZHHH,2000-12-22 20:00,ZHHH 222000Z AUTO 12006KT 1SM 05/05 A3018 RMK T00500050 IEM_DS3505
ZHHH,2000-12-22 21:00,ZHHH 222100Z AUTO 00000KT 6SM 04/04 A3018 RMK SLP223 T00440042 57011 IEM_DS3505
ZHHH,2000-12-22 22:00,ZHHH 222200Z AUTO 05006KT 1/2SM 04/04 A3018 RMK T00400040 IEM_DS3505
ZHHH,2000-12-22 23:00,ZHHH 222300Z AUTO 08006KT 1SM 03/03 A3021 RMK T00300030 IEM_DS3505
ZHHH,2000-12-23 00:00,ZHHH 230000Z AUTO 00000KT 1/4SM 03/03 A3024 RMK SLP248 T00330028 52025 IEM_DS3505
ZHHH,2000-12-23 01:00,ZHHH 230100Z AUTO 1SM 03/03 A3027 RMK T00300030 IEM_DS3505
ZHHH,2000-12-23 02:00,ZHHH 230200Z AUTO 1SM 06/05 A3027 RMK T00600050 IEM_DS3505
ZHHH,2000-12-23 03:00,ZHHH 230300Z AUTO 32002KT 7SM 09/06 A3027 RMK SLP256 T00880062 52008 IEM_DS3505
ZHHH,2000-12-23 04:00,ZHHH 230400Z AUTO 2SM 11/07 A3024 RMK T01100070 IEM_DS3505
ZHHH,2000-12-23 05:00,ZHHH 230500Z AUTO 2 1/2SM 12/06 A3024 RMK T01200060 IEM_DS3505
ZHHH,2000-12-23 06:00,ZHHH 230600Z AUTO 32002KT 11SM 14/06 A3018 RMK SLP225 T01360060 57031 IEM_DS3505
ZHHH,2000-12-23 07:00,ZHHH 230700Z AUTO 13/07 A3018 RMK T01300070 IEM_DS3505
ZHHH,2000-12-23 08:00,ZHHH 230800Z AUTO 6SM 13/06 A3018 RMK T01300060 IEM_DS3505
ZHHH,2000-12-23 09:00,ZHHH 230900Z AUTO 00000KT 9SM 12/07 A3018 RMK SLP219 T01250071 57006 IEM_DS3505
ZHHH,2000-12-23 10:00,ZHHH 231000Z AUTO 3SM 11/07 A3018 RMK T01100070 IEM_DS3505
ZHHH,2000-12-23 11:00,ZHHH 231100Z AUTO 12004KT 2 1/2SM 10/07 A3018 RMK T01000070 IEM_DS3505
ZHHH,2000-12-23 12:00,ZHHH 231200Z AUTO 00000KT 6SM 08/07 A3021 RMK SLP230 T00770068 52011 IEM_DS3505
ZHHH,2000-12-23 13:00,ZHHH 231300Z AUTO 13006KT 1 1/2SM 09/07 A3021 RMK T00900070 IEM_DS3505
ZHHH,2000-12-23 14:00,ZHHH 231400Z AUTO 13004KT 1 1/4SM 08/07 A3021 RMK T00800070 IEM_DS3505
ZHHH,2000-12-23 15:00,ZHHH 231500Z AUTO 00000KT 9SM 07/06 A3018 RMK SLP224 T00690060 57006 IEM_DS3505
ZHHH,2000-12-23 16:00,ZHHH 231600Z AUTO 08006KT 1SM 07/06 A3018 RMK T00700060 IEM_DS3505
ZHHH,2000-12-23 17:00,ZHHH 231700Z AUTO 11006KT 1SM 06/05 A3018 RMK T00600050 IEM_DS3505
ZHHH,2000-12-23 18:00,ZHHH 231800Z AUTO 00000KT 6SM 06/05 A3015 RMK SLP217 T00580053 57007 IEM_DS3505
ZHHH,2000-12-23 19:00,ZHHH 231900Z AUTO 1SM 05/05 A3018 RMK T00500050 IEM_DS3505
ZHHH,2000-12-23 20:00,ZHHH 232000Z AUTO 11004KT 1SM 06/05 A3018 RMK T00600050 IEM_DS3505
ZHHH,2000-12-23 21:00,ZHHH 232100Z AUTO 00000KT 5SM 04/04 A3015 RMK SLP216 T00430041 57001 IEM_DS3505
ZHHH,2000-12-23 22:00,ZHHH 232200Z AUTO 1SM 04/04 A3018 RMK T00400040 IEM_DS3505
ZHHH,2000-12-23 23:00,ZHHH 232300Z AUTO 00000KT 3/8SM 03/02 A3021 RMK T00300020 IEM_DS3505
ZHHH,2000-12-24 00:00,ZHHH 240000Z AUTO 00000KT 6SM 03/03 A3021 RMK SLP233 T00330028 52017 IEM_DS3505
ZHHH,2000-12-24 01:00,ZHHH 240100Z AUTO 14004KT 1/4SM 05/05 A3021 RMK T00500050 IEM_DS3505
ZHHH,2000-12-24 02:00,ZHHH 240200Z AUTO 3/8SM 07/07 A3027 RMK T00700070 IEM_DS3505
ZHHH,2000-12-24 03:00,ZHHH 240300Z AUTO 32002KT 11/07 A3027 RMK SLP246 T01060068 52013 IEM_DS3505
ZHHH,2000-12-24 04:00,ZHHH 240400Z AUTO 1SM 10/08 A3024 RMK T01000080 IEM_DS3505
ZHHH,2000-12-24 05:00,ZHHH 240500Z AUTO 1 1/4SM 13/08 A3021 RMK T01300080 IEM_DS3505
ZHHH,2000-12-24 06:00,ZHHH 240600Z AUTO 00000KT 9SM 15/07 A3021 RMK SLP227 T01500073 57019 IEM_DS3505
ZHHH,2000-12-24 07:00,ZHHH 240700Z AUTO 3SM 14/08 A3018 RMK T01400080 IEM_DS3505
ZHHH,2000-12-24 08:00,ZHHH 240800Z AUTO 3SM 14/07 A3018 RMK T01400070 IEM_DS3505
ZHHH,2000-12-24 09:00,ZHHH 240900Z AUTO 00000KT 11SM 14/07 A3021 RMK SLP229 T01370074 52002 IEM_DS3505
ZHHH,2000-12-24 10:00,ZHHH 241000Z AUTO 1 1/4SM 11/09 A3021 RMK T01100090 IEM_DS3505
ZHHH,2000-12-24 11:00,ZHHH 241100Z AUTO 01004KT 1 1/4SM 10/09 A3024 RMK T01000090 IEM_DS3505
ZHHH,2000-12-24 12:00,ZHHH 241200Z AUTO 00000KT 6SM 09/08 A3024 RMK SLP242 T00940079 52013 IEM_DS3505
ZHHH,2000-12-24 13:00,ZHHH 241300Z AUTO 36002KT 1SM 09/08 A3024 RMK T00900080 IEM_DS3505
ZHHH,2000-12-24 14:00,ZHHH 241400Z AUTO 00000KT 1SM 09/08 A3027 RMK T00900080 IEM_DS3505
ZHHH,2000-12-24 15:00,ZHHH 241500Z AUTO 00000KT 5SM 07/07 A3027 RMK SLP248 T00730069 52006 IEM_DS3505
ZHHH,2000-12-24 16:00,ZHHH 241600Z AUTO 05004KT 1SM 08/06 A3027 RMK T00800060 IEM_DS3505
ZHHH,2000-12-24 17:00,ZHHH 241700Z AUTO 09006KT 2SM 07/04 A3027 RMK T00700040 IEM_DS3505
ZHHH,2000-12-24 18:00,ZHHH 241800Z AUTO 00000KT 9SM 07/05 A3027 RMK SLP249 T00670051 52001 IEM_DS3505
ZHHH,2000-12-24 19:00,ZHHH 241900Z AUTO 09008KT 6SM 07/02 A3027 RMK T00700020 IEM_DS3505
ZHHH,2000-12-24 20:00,ZHHH 242000Z AUTO 12006KT 6SM 06/02 A3027 RMK T00600020 IEM_DS3505
ZHHH,2000-12-24 21:00,ZHHH 242100Z AUTO 32002KT 9SM 06/05 A3027 RMK SLP248 T00580053 57001 IEM_DS3505
ZHHH,2000-12-24 22:00,ZHHH 242200Z AUTO 00000KT 6SM 06/01 A3027 RMK T00600010 IEM_DS3505
ZHHH,2000-12-24 23:00,ZHHH 242300Z AUTO 10006KT 3SM 06/02 A3027 RMK T00600020 IEM_DS3505
ZHHH,2000-12-25 00:00,ZHHH 250000Z AUTO 32002KT 11SM 06/03 A3030 RMK SLP257 T00590027 52009 IEM_DS3505
ZHHH,2000-12-25 01:00,ZHHH 250100Z AUTO 08006KT 3SM 06/03 A3033 RMK T00600030 IEM_DS3505
ZHHH,2000-12-25 02:00,ZHHH 250200Z AUTO 09008KT 6SM 09/03 A3033 RMK T00900030 IEM_DS3505
ZHHH,2000-12-25 03:00,ZHHH 250300Z AUTO 34002KT 12SM 12/06 A3033 RMK SLP271 T01180058 52014 IEM_DS3505
ZHHH,2000-12-25 05:00,ZHHH 250500Z AUTO 13008KT 5SM 13/05 A3027 RMK T01300050 IEM_DS3505
ZHHH,2000-12-25 06:00,ZHHH 250600Z AUTO 07004KT 11SM 15/04 A3024 RMK SLP246 T01530037 57025 IEM_DS3505
ZHHH,2000-12-25 07:00,ZHHH 250700Z AUTO 6SM 14/04 A3024 RMK T01400040 IEM_DS3505
ZHHH,2000-12-25 08:00,ZHHH 250800Z AUTO 6SM 14/05 A3024 RMK T01400050 IEM_DS3505
ZHHH,2000-12-25 09:00,ZHHH 250900Z AUTO 00000KT 9SM 14/07 A3027 RMK SLP247 T01440068 52001 IEM_DS3505
ZHHH,2000-12-25 10:00,ZHHH 251000Z AUTO 10006KT 6SM 13/06 A3027 RMK T01300060 IEM_DS3505
ZHHH,2000-12-25 11:00,ZHHH 251100Z AUTO 11006KT 6SM 11/06 A3027 RMK T01100060 IEM_DS3505
ZHHH,2000-12-25 12:00,ZHHH 251200Z AUTO 00000KT 11SM 10/06 A3027 RMK SLP250 T01000063 52003 IEM_DS3505
ZHHH,2000-12-25 13:00,ZHHH 251300Z AUTO 10006KT 6SM 10/06 A3027 RMK T01000060 IEM_DS3505
ZHHH,2000-12-25 14:00,ZHHH 251400Z AUTO 08004KT 6SM 10/05 A3027 RMK T01000050 IEM_DS3505
ZHHH,2000-12-25 15:00,ZHHH 251500Z AUTO 07002KT 11SM 09/03 A3027 RMK SLP252 T00920034 52002 IEM_DS3505
ZHHH,2000-12-25 16:00,ZHHH 251600Z AUTO 6SM 08/04 A3030 RMK T00800040 IEM_DS3505
ZHHH,2000-12-25 17:00,ZHHH 251700Z AUTO 06006KT 6SM 08/04 A3027 RMK T00800040 IEM_DS3505
ZHHH,2000-12-25 18:00,ZHHH 251800Z AUTO 00000KT 7SM 07/05 A3030 RMK SLP256 T00660050 52004 IEM_DS3505
ZHHH,2000-12-25 19:00,ZHHH 251900Z AUTO 6SM 08/03 A3030 RMK T00800030 IEM_DS3505
ZHHH,2000-12-25 20:00,ZHHH 252000Z AUTO 11002KT 6SM 07/03 A3030 RMK T00700030 IEM_DS3505
ZHHH,2000-12-25 21:00,ZHHH 252100Z AUTO 00000KT 6SM 07/05 A3030 RMK SLP257 T00670049 52001 IEM_DS3505
ZHHH,2000-12-25 22:00,ZHHH 252200Z AUTO 4SM 06/04 A3030 RMK T00600040 IEM_DS3505
ZHHH,2000-12-25 23:00,ZHHH 252300Z AUTO 08008KT 4SM 06/03 A3030 RMK T00600030 IEM_DS3505
ZHHH,2000-12-26 00:00,ZHHH 260000Z AUTO 07002KT 9SM 07/04 A3030 RMK SLP264 T00690036 52007 IEM_DS3505
ZHHH,2000-12-26 01:00,ZHHH 260100Z AUTO 06008KT 3SM 06/04 A3033 RMK T00600040 IEM_DS3505
ZHHH,2000-12-26 02:00,ZHHH 260200Z AUTO 08010KT 4SM 08/04 A3033 RMK T00800040 IEM_DS3505
ZHHH,2000-12-26 03:00,ZHHH 260300Z AUTO 04002KT 9SM 10/04 A3033 RMK SLP274 T00970042 52010 IEM_DS3505
ZHHH,2000-12-26 04:00,ZHHH 260400Z AUTO 09006KT 6SM 10/03 A3030 RMK T01000030 IEM_DS3505
ZHHH,2000-12-26 05:00,ZHHH 260500Z AUTO 08006KT 6SM 12/02 A3027 RMK T01200020 IEM_DS3505
ZHHH,2000-12-26 06:00,ZHHH 260600Z AUTO 04004KT 9SM 12/05 A3024 RMK SLP244 T01230049 57030 IEM_DS3505
ZHHH,2000-12-26 08:00,ZHHH 260800Z AUTO 12/04 A3024 RMK T01200040 IEM_DS3505
ZHHH,2000-12-26 09:00,ZHHH 260900Z AUTO 04004KT 9SM 12/05 A3024 RMK SLP242 T01190054 57002 IEM_DS3505
ZHHH,2000-12-26 10:00,ZHHH 261000Z AUTO 07004KT 1 1/2SM 11/04 A3024 RMK T01100040 IEM_DS3505
ZHHH,2000-12-26 11:00,ZHHH 261100Z AUTO 03004KT 1 1/2SM 10/05 A3027 RMK T01000050 IEM_DS3505
ZHHH,2000-12-26 12:00,ZHHH 261200Z AUTO 00000KT 9SM 09/06 A3027 RMK SLP248 T00910056 52006 IEM_DS3505
ZHHH,2000-12-26 13:00,ZHHH 261300Z AUTO 04006KT 1 1/4SM 07/05 A3027 RMK T00700050 IEM_DS3505
ZHHH,2000-12-26 14:00,ZHHH 261400Z AUTO 04006KT 1 1/4SM 06/04 A3030 RMK T00600040 IEM_DS3505
ZHHH,2000-12-26 15:00,ZHHH 261500Z AUTO 00000KT 9SM 07/04 RMK SLP256 T00700044 52008 IEM_DS3505
ZHHH,2000-12-26 16:00,ZHHH 261600Z AUTO 36004KT 1 1/4SM 05/03 A3030 RMK T00500030 IEM_DS3505
ZHHH,2000-12-26 17:00,ZHHH 261700Z AUTO 01002KT 1SM 05/03 A3030 RMK T00500030 IEM_DS3505
ZHHH,2000-12-26 18:00,ZHHH 261800Z AUTO 00000KT 11SM 06/04 A3030 RMK SLP260 T00560037 52004 IEM_DS3505
ZHHH,2000-12-26 19:00,ZHHH 261900Z AUTO 01002KT 1SM 05/04 A3030 RMK T00500040 IEM_DS3505
ZHHH,2000-12-26 21:00,ZHHH 262100Z AUTO 00000KT 9SM 05/04 RMK SLP260 T00530041 54000 IEM_DS3505
ZHHH,2000-12-27 00:00,ZHHH 270000Z AUTO 04002KT 7SM 06/04 RMK SLP270 T00590042 52010 IEM_DS3505
ZHHH,2000-12-27 02:00,ZHHH 270200Z AUTO 1 1/2SM 07/04 A3036 RMK T00700040 IEM_DS3505
ZHHH,2000-12-27 03:00,ZHHH 270300Z AUTO 04004KT 7SM 08/04 A3036 RMK SLP283 T00800043 52013 IEM_DS3505
ZHHH,2000-12-27 04:00,ZHHH 270400Z AUTO 02008KT 2 1/2SM 09/05 A3033 RMK T00900050 IEM_DS3505
ZHHH,2000-12-27 05:00,ZHHH 270500Z AUTO 35006KT 2 1/2SM 11/05 A3030 RMK T01100050 IEM_DS3505
ZHHH,2000-12-27 06:00,ZHHH 270600Z AUTO 36002KT 7SM 11/06 A3027 RMK SLP256 T01060056 57027 IEM_DS3505
ZHHH,2000-12-27 09:00,ZHHH 270900Z AUTO 36004KT 7SM 10/06 A3030 RMK SLP261 T00990055 52005 IEM_DS3505
ZHHH,2000-12-27 10:00,ZHHH 271000Z AUTO 04010KT 2 1/2SM 08/04 A3033 RMK T00800040 IEM_DS3505
ZHHH,2000-12-27 11:00,ZHHH 271100Z AUTO 03008KT 2SM 07/04 A3036 RMK T00700040 IEM_DS3505
ZHHH,2000-12-27 12:00,ZHHH 271200Z AUTO 36002KT 7SM 08/04 A3039 RMK SLP285 T00760041 52024 IEM_DS3505
ZHHH,2000-12-27 13:00,ZHHH 271300Z AUTO 02010KT 2SM 06/04 A3039 RMK T00600040 IEM_DS3505
ZHHH,2000-12-27 14:00,ZHHH 271400Z AUTO 02008KT 1 1/2SM 06/04 A3039 RMK T00600040 IEM_DS3505
ZHHH,2000-12-27 15:00,ZHHH 271500Z AUTO 36002KT 7SM 07/04 A3039 RMK SLP293 T00690041 52008 IEM_DS3505
ZHHH,2000-12-27 16:00,ZHHH 271600Z AUTO 03008KT 2SM 06/04 A3039 RMK T00600040 IEM_DS3505
ZHHH,2000-12-27 18:00,ZHHH 271800Z AUTO 04004KT 9SM 07/04 A3039 RMK SLP292 T00660035 57001 IEM_DS3505
ZHHH,2000-12-27 19:00,ZHHH 271900Z AUTO 04008KT 3SM 06/04 A3039 RMK T00600040 IEM_DS3505
ZHHH,2000-12-27 20:00,ZHHH 272000Z AUTO 01006KT 3SM 06/04 A3039 RMK T00600040 IEM_DS3505
ZHHH,2000-12-27 21:00,ZHHH 272100Z AUTO 36002KT 9SM 06/04 A3039 RMK SLP291 T00590040 57001 IEM_DS3505
ZHHH,2000-12-27 22:00,ZHHH 272200Z AUTO 02006KT 2 1/2SM 06/03 A3039 RMK T00600030 IEM_DS3505
ZHHH,2000-12-27 23:00,ZHHH 272300Z AUTO 2 1/2SM 05/03 A3042 RMK T00500030 IEM_DS3505
ZHHH,2000-12-28 00:00,ZHHH 280000Z AUTO 02004KT 7SM 06/04 A3042 RMK SLP300 T00550036 52009 IEM_DS3505
ZHHH,2000-12-28 01:00,ZHHH 280100Z AUTO 02006KT 1SM 05/03 A3045 RMK T00500030 IEM_DS3505
ZHHH,2000-12-28 02:00,ZHHH 280200Z AUTO 02008KT 1SM 05/03 A3045 RMK T00500030 IEM_DS3505
ZHHH,2000-12-28 03:00,ZHHH 280300Z AUTO 04004KT 7SM 06/03 RMK SLP305 T00620033 52005 IEM_DS3505
ZHHH,2000-12-28 04:00,ZHHH 280400Z AUTO 03006KT 1 1/4SM 06/03 A3042 RMK T00600030 IEM_DS3505
ZHHH,2000-12-28 05:00,ZHHH 280500Z AUTO 03006KT 1 1/4SM 06/03 A3039 RMK T00600030 IEM_DS3505
ZHHH,2000-12-28 06:00,ZHHH 280600Z AUTO 04002KT 7SM 07/03 A3036 RMK SLP285 T00740034 57020 IEM_DS3505
ZHHH,2000-12-28 07:00,ZHHH 280700Z AUTO 03006KT 1 1/4SM 07/04 A3036 RMK T00700040 IEM_DS3505
ZHHH,2000-12-28 08:00,ZHHH 280800Z AUTO 05006KT 1 1/2SM 07/04 A3036 RMK T00700040 IEM_DS3505
ZHHH,2000-12-28 09:00,ZHHH 280900Z AUTO 04002KT 6SM 07/04 A3036 RMK SLP278 T00720037 57007 IEM_DS3505
ZHHH,2000-12-28 10:00,ZHHH 281000Z AUTO 04004KT 1 1/2SM 06/04 A3036 RMK T00600040 IEM_DS3505
ZHHH,2000-12-28 12:00,ZHHH 281200Z AUTO 02002KT 6SM 06/04 A3036 RMK SLP282 T00650036 52004 IEM_DS3505
ZHHH,2000-12-28 13:00,ZHHH 281300Z AUTO 07008KT 1 1/2SM 05/04 A3036 RMK T00500040 IEM_DS3505
ZHHH,2000-12-28 14:00,ZHHH 281400Z AUTO 2SM 05/04 A3036 RMK T00500040 IEM_DS3505
ZHHH,2000-12-28 15:00,ZHHH 281500Z AUTO 04002KT 6SM 06/04 A3036 RMK SLP281 T00600044 57001 IEM_DS3505
ZHHH,2000-12-28 16:00,ZHHH 281600Z AUTO 06006KT 2SM 05/03 A3033 RMK T00500030 IEM_DS3505
ZHHH,2000-12-28 18:00,ZHHH 281800Z AUTO 02002KT 7SM 06/04 A3033 RMK SLP272 T00550036 57009 IEM_DS3505
ZHHH,2000-12-28 19:00,ZHHH 281900Z AUTO 1 1/2SM 05/04 A3033 RMK T00500040 IEM_DS3505
ZHHH,2000-12-28 20:00,ZHHH 282000Z AUTO 1 1/2SM 05/04 A3033 RMK T00500040 IEM_DS3505
ZHHH,2000-12-28 21:00,ZHHH 282100Z AUTO 00000KT 7SM 06/04 A3030 RMK SLP262 T00550043 57010 IEM_DS3505
ZHHH,2000-12-28 22:00,ZHHH 282200Z AUTO 08004KT 1 1/2SM 05/04 A3030 RMK T00500040 IEM_DS3505
ZHHH,2000-12-28 23:00,ZHHH 282300Z AUTO 1 1/2SM 05/04 A3030 RMK T00500040 IEM_DS3505
ZHHH,2000-12-29 00:00,ZHHH 290000Z AUTO 04002KT 7SM 06/04 A3027 RMK SLP256 T00580041 57006 IEM_DS3505
ZHHH,2000-12-29 01:00,ZHHH 290100Z AUTO 12006KT 1SM 06/05 A3030 RMK T00600050 IEM_DS3505
ZHHH,2000-12-29 02:00,ZHHH 290200Z AUTO 11004KT 1SM 06/05 A3030 RMK T00600050 IEM_DS3505
ZHHH,2000-12-29 03:00,ZHHH 290300Z AUTO 04002KT 7SM 08/05 A3030 RMK SLP257 T00780048 52001 IEM_DS3505
ZHHH,2000-12-29 04:00,ZHHH 290400Z AUTO 00000KT 1SM 07/05 A3027 RMK T00700050 IEM_DS3505
ZHHH,2000-12-29 05:00,ZHHH 290500Z AUTO 1SM 07/05 A3024 RMK T00700050 IEM_DS3505
ZHHH,2000-12-29 06:00,ZHHH 290600Z AUTO 04002KT 9SM 09/05 A3021 RMK SLP237 T00860050 57020 IEM_DS3505
ZHHH,2000-12-29 07:00,ZHHH 290700Z AUTO 1SM 08/06 A3021 RMK T00800060 IEM_DS3505
ZHHH,2000-12-29 08:00,ZHHH 290800Z AUTO 03004KT 1SM 08/06 A3021 RMK T00800060 IEM_DS3505
ZHHH,2000-12-29 09:00,ZHHH 290900Z AUTO 04002KT 7SM 09/05 A3021 RMK SLP230 T00860052 57007 IEM_DS3505
ZHHH,2000-12-29 10:00,ZHHH 291000Z AUTO 07006KT 1SM 08/06 A3021 RMK T00800060 IEM_DS3505
ZHHH,2000-12-29 11:00,ZHHH 291100Z AUTO 08006KT 1 1/4SM 07/06 A3021 RMK T00700060 IEM_DS3505
ZHHH,2000-12-29 12:00,ZHHH 291200Z AUTO 00000KT 6SM 08/06 A3024 RMK SLP237 T00800058 52007 IEM_DS3505
ZHHH,2000-12-29 13:00,ZHHH 291300Z AUTO 26002KT 1SM 07/06 A3024 RMK T00700060 IEM_DS3505
ZHHH,2000-12-29 14:00,ZHHH 291400Z AUTO 00000KT 1SM 07/06 A3024 RMK T00700060 IEM_DS3505
ZHHH,2000-12-29 15:00,ZHHH 291500Z AUTO 00000KT 6SM 08/06 A3024 RMK SLP245 T00760060 52008 IEM_DS3505
ZHHH,2000-12-29 16:00,ZHHH 291600Z AUTO 1SM 07/06 A3024 RMK T00700060 IEM_DS3505
ZHHH,2000-12-29 17:00,ZHHH 291700Z AUTO 1SM 07/06 A3024 RMK T00700060 IEM_DS3505
ZHHH,2000-12-29 18:00,ZHHH 291800Z AUTO 36002KT 6SM 07/06 A3024 RMK SLP239 T00720056 57006 IEM_DS3505
ZHHH,2000-12-29 19:00,ZHHH 291900Z AUTO 1 1/4SM 06/06 A3024 RMK T00600060 IEM_DS3505
ZHHH,2000-12-29 20:00,ZHHH 292000Z AUTO 1 1/4SM 06/06 A3021 RMK T00600060 IEM_DS3505
ZHHH,2000-12-29 21:00,ZHHH 292100Z AUTO 00000KT 6SM 07/06 A3021 RMK SLP234 T00670058 57005 IEM_DS3505
ZHHH,2000-12-29 22:00,ZHHH 292200Z AUTO 1 1/4SM 06/06 A3021 RMK T00600060 IEM_DS3505
ZHHH,2000-12-29 23:00,ZHHH 292300Z AUTO 33002KT 1 1/4SM 06/06 A3021 RMK T00600060 IEM_DS3505
ZHHH,2000-12-30 00:00,ZHHH 300000Z AUTO 00000KT 6SM 07/06 A3024 RMK SLP241 T00690058 52007 IEM_DS3505
ZHHH,2000-12-30 01:00,ZHHH 300100Z AUTO 1SM 06/06 A3024 RMK T00600060 IEM_DS3505
ZHHH,2000-12-30 02:00,ZHHH 300200Z AUTO 32006KT 1SM 06/05 A3027 RMK T00600050 IEM_DS3505
ZHHH,2000-12-30 03:00,ZHHH 300300Z AUTO 02002KT 7SM 08/06 A3027 RMK SLP250 T00840055 52009 IEM_DS3505
ZHHH,2000-12-30 04:00,ZHHH 300400Z AUTO 31006KT 1 1/2SM 08/06 A3024 RMK T00800060 IEM_DS3505
ZHHH,2000-12-30 05:00,ZHHH 300500Z AUTO 31006KT 2SM 10/06 A3021 RMK T01000060 IEM_DS3505
ZHHH,2000-12-30 06:00,ZHHH 300600Z AUTO 34004KT 9SM 11/05 A3018 RMK SLP226 T01060053 57024 IEM_DS3505
ZHHH,2000-12-30 07:00,ZHHH 300700Z AUTO 31006KT 1 1/2SM 10/06 A3018 RMK T01000060 IEM_DS3505
ZHHH,2000-12-30 08:00,ZHHH 300800Z AUTO 32006KT 2SM 10/06 A3018 RMK T01000060 IEM_DS3505
ZHHH,2000-12-30 09:00,ZHHH 300900Z AUTO 32002KT 9SM 11/06 A3021 RMK SLP228 T01060058 52002 IEM_DS3505
ZHHH,2000-12-30 10:00,ZHHH 301000Z AUTO 32006KT 1 1/2SM 08/06 A3021 RMK T00800060 IEM_DS3505
ZHHH,2000-12-30 11:00,ZHHH 301100Z AUTO 31004KT 1 1/2SM 07/06 A3024 RMK T00700060 IEM_DS3505
ZHHH,2000-12-30 12:00,ZHHH 301200Z AUTO 32002KT 9SM 08/06 A3027 RMK SLP245 T00840055 52017 IEM_DS3505
ZHHH,2000-12-30 13:00,ZHHH 301300Z AUTO 34004KT 1 1/2SM 07/05 A3027 RMK T00700050 IEM_DS3505
ZHHH,2000-12-30 14:00,ZHHH 301400Z AUTO 35004KT 1 1/2SM 06/05 A3027 RMK T00600050 IEM_DS3505
ZHHH,2000-12-30 15:00,ZHHH 301500Z AUTO 32002KT 9SM 07/06 A3030 RMK SLP258 T00710058 52013 IEM_DS3505
ZHHH,2000-12-30 16:00,ZHHH 301600Z AUTO 34004KT 1 1/4SM 05/04 A3030 RMK T00500040 IEM_DS3505
ZHHH,2000-12-30 17:00,ZHHH 301700Z AUTO 02002KT 1SM 05/05 A3027 RMK T00500050 IEM_DS3505
ZHHH,2000-12-30 18:00,ZHHH 301800Z AUTO 34002KT 7SM 06/05 A3027 RMK SLP253 T00630052 57005 IEM_DS3505
ZHHH,2000-12-30 19:00,ZHHH 301900Z AUTO 02002KT 1SM 05/04 A3027 RMK T00500040 IEM_DS3505
ZHHH,2000-12-30 20:00,ZHHH 302000Z AUTO 04002KT 1SM 04/04 A3027 RMK T00400040 IEM_DS3505
ZHHH,2000-12-30 21:00,ZHHH 302100Z AUTO 00000KT 6SM 05/04 A3027 RMK SLP251 T00480043 57002 IEM_DS3505
ZHHH,2000-12-30 22:00,ZHHH 302200Z AUTO 1/2SM 02/02 A3027 RMK T00200020 IEM_DS3505
ZHHH,2000-12-30 23:00,ZHHH 302300Z AUTO 1/8SM 00/00 A3030 RMK T00000000 IEM_DS3505
