station,valid,metar
ZHHH,2006-01-01 00:00,ZHHH 010000Z AUTO 04002KT 9SM 04/02 A3039 RMK SLP293 T00400019 52013 IEM_DS3505
ZHHH,2006-01-01 01:00,ZHHH 010100Z AUTO 1 1/4SM 04/03 A3039 RMK T00400030 IEM_DS3505
ZHHH,2006-01-01 02:00,ZHHH 010200Z AUTO 1 1/4SM 04/03 A3039 RMK T00400030 IEM_DS3505
ZHHH,2006-01-01 03:00,ZHHH 010300Z AUTO 36002KT 7SM 05/03 A3039 RMK SLP293 T00480028 54000 IEM_DS3505
ZHHH,2006-01-01 04:00,ZHHH 010400Z AUTO 1 1/4SM 05/04 A3036 RMK T00500040 IEM_DS3505
ZHHH,2006-01-01 05:00,ZHHH 010500Z AUTO 1 1/2SM 05/03 A3033 RMK T00500030 IEM_DS3505
ZHHH,2006-01-01 06:00,ZHHH 010600Z AUTO 27004KT 9SM 06/02 A3033 RMK 60000 SLP270 T00590025 57022 IEM_DS3505
ZHHH,2006-01-01 07:00,ZHHH 010700Z AUTO 35006KT 1 1/2SM 05/03 A3033 RMK T00500030 IEM_DS3505
ZHHH,2006-01-01 08:00,ZHHH 010800Z AUTO 1 1/2SM 06/03 A3030 RMK T00600030 IEM_DS3505
ZHHH,2006-01-01 09:00,ZHHH 010900Z AUTO 11002KT 9SM 06/02 A3030 RMK SLP265 T00600023 57005 IEM_DS3505
ZHHH,2006-01-01 10:00,ZHHH 011000Z AUTO 31004KT 1 1/2SM 05/04 A3033 RMK T00500040 IEM_DS3505
ZHHH,2006-01-01 11:00,ZHHH 011100Z AUTO 27004KT 3SM 05/04 A3033 RMK T00500040 IEM_DS3505
ZHHH,2006-01-01 12:00,ZHHH 011200Z AUTO 27002KT 9SM 06/03 A3033 RMK SLP270 T00590031 52005 IEM_DS3505
ZHHH,2006-01-01 13:00,ZHHH 011300Z AUTO 32004KT 3SM 05/04 A3036 RMK T00500040 IEM_DS3505
ZHHH,2006-01-01 14:00,ZHHH 011400Z AUTO 32004KT 4SM 05/04 A3036 RMK T00500040 IEM_DS3505
ZHHH,2006-01-01 15:00,ZHHH 011500Z AUTO 32002KT 9SM 06/03 A3033 RMK SLP276 T00570030 52006 IEM_DS3505
ZHHH,2006-01-01 16:00,ZHHH 011600Z AUTO 32004KT 4SM 04/03 A3033 RMK T00400030 IEM_DS3505
ZHHH,2006-01-01 17:00,ZHHH 011700Z AUTO 34004KT 4SM 03/02 A3036 RMK T00300020 IEM_DS3505
ZHHH,2006-01-01 19:00,ZHHH 011900Z AUTO 32004KT 1SM 03/02 A3036 RMK T00300020 IEM_DS3505
ZHHH,2006-01-01 20:00,ZHHH 012000Z AUTO 34002KT 1SM 03/02 A3036 RMK T00300020 IEM_DS3505
ZHHH,2006-01-01 21:00,ZHHH 012100Z AUTO 34002KT 9SM 04/02 A3036 RMK 70000 SLP280 T00390024 54000 IEM_DS3505
ZHHH,2006-01-01 22:00,ZHHH 012200Z AUTO 15002KT 1SM 03/02 A3033 RMK T00300020 IEM_DS3505
ZHHH,2006-01-01 23:00,ZHHH 012300Z AUTO 1SM 03/02 A3030 RMK T00300020 IEM_DS3505
ZHHH,2006-01-02 00:00,ZHHH 020000Z AUTO 29002KT 4SM 03/02 A3033 RMK 70000 SLP269 T00340024 57011 IEM_DS3505
ZHHH,2006-01-02 01:00,ZHHH 020100Z AUTO 1/2SM 04/04 A3030 RMK T00400040 IEM_DS3505
ZHHH,2006-01-02 02:00,ZHHH 020200Z AUTO 10004KT 1SM 05/04 A3033 RMK T00500040 IEM_DS3505
ZHHH,2006-01-02 03:00,ZHHH 020300Z AUTO 07002KT 5SM 08/03 A3030 RMK SLP260 T00750028 57008 IEM_DS3505
ZHHH,2006-01-02 04:00,ZHHH 020400Z AUTO 08006KT 1SM 07/03 A3027 RMK T00700030 IEM_DS3505
ZHHH,2006-01-02 05:00,ZHHH 020500Z AUTO 11008KT 1SM 06/04 A3024 RMK T00600040 IEM_DS3505
ZHHH,2006-01-02 06:00,ZHHH 020600Z AUTO 07004KT 7SM 07/04 A3018 RMK SLP219 T00710039 57041 IEM_DS3505
ZHHH,2006-01-02 07:00,ZHHH 020700Z AUTO 13006KT 1SM 07/05 A3015 RMK T00700050 IEM_DS3505
ZHHH,2006-01-02 08:00,ZHHH 020800Z AUTO 1SM 07/05 A3018 RMK T00700050 IEM_DS3505
ZHHH,2006-01-02 09:00,ZHHH 020900Z AUTO 02002KT 6SM 08/04 A3018 RMK SLP221 T00750039 52002 IEM_DS3505
ZHHH,2006-01-02 10:00,ZHHH 021000Z AUTO 08004KT 1SM 07/05 A3018 RMK T00700050 IEM_DS3505
ZHHH,2006-01-02 11:00,ZHHH 021100Z AUTO 08006KT 1SM 07/05 A3018 RMK T00700050 IEM_DS3505
ZHHH,2006-01-02 12:00,ZHHH 021200Z AUTO 11002KT 9SM 08/04 A3018 RMK SLP221 T00750043 54000 IEM_DS3505
ZHHH,2006-01-02 13:00,ZHHH 021300Z AUTO 09006KT 1 1/4SM 07/05 A3018 RMK T00700050 IEM_DS3505
ZHHH,2006-01-02 14:00,ZHHH 021400Z AUTO 08006KT 1 1/2SM 07/05 A3018 RMK T00700050 IEM_DS3505
ZHHH,2006-01-02 16:00,ZHHH 021600Z AUTO 06006KT 2SM 07/05 A3018 RMK T00700050 IEM_DS3505
ZHHH,2006-01-02 17:00,ZHHH 021700Z AUTO 02004KT 2SM 07/05 A3018 RMK T00700050 IEM_DS3505
ZHHH,2006-01-02 18:00,ZHHH 021800Z AUTO 09002KT 9SM 07/05 A3018 RMK SLP217 T00740049 57010 IEM_DS3505
ZHHH,2006-01-02 19:00,ZHHH 021900Z AUTO 09004KT 1SM 07/05 A3015 RMK T00700050 IEM_DS3505
ZHHH,2006-01-02 20:00,ZHHH 022000Z AUTO 06004KT 1SM 07/05 A3015 RMK T00700050 IEM_DS3505
ZHHH,2006-01-02 21:00,ZHHH 022100Z AUTO 07002KT 9SM 08/05 A3012 RMK SLP200 T00750046 57017 IEM_DS3505
ZHHH,2006-01-02 22:00,ZHHH 022200Z AUTO 05006KT 1SM 07/05 A3012 RMK T00700050 IEM_DS3505
ZHHH,2006-01-02 23:00,ZHHH 022300Z AUTO 05004KT 1SM 07/05 A3012 RMK T00700050 IEM_DS3505
ZHHH,2006-01-03 00:00,ZHHH 030000Z AUTO 07004KT 7SM 07/05 A3012 RMK SLP198 T00720047 57002 IEM_DS3505
ZHHH,2006-01-03 01:00,ZHHH 030100Z AUTO 07006KT 1SM 07/05 A3012 RMK T00700050 IEM_DS3505
ZHHH,2006-01-03 02:00,ZHHH 030200Z AUTO 06006KT 1SM 07/05 A3012 RMK T00700050 IEM_DS3505
ZHHH,2006-01-03 03:00,ZHHH 030300Z AUTO 02002KT 6SM 08/05 A3012 RMK SLP199 T00750053 54000 IEM_DS3505
ZHHH,2006-01-03 04:00,ZHHH 030400Z AUTO 04006KT 1/2SM 07/06 A3009 RMK T00700060 IEM_DS3505
ZHHH,2006-01-03 06:00,ZHHH 030600Z AUTO 32002KT 6SM 07/06 A3003 RMK 60002 SLP170 T00700058 57028 IEM_DS3505
ZHHH,2006-01-03 07:00,ZHHH 030700Z AUTO 05006KT 3/8SM 06/06 A3003 RMK T00600060 IEM_DS3505
ZHHH,2006-01-03 08:00,ZHHH 030800Z AUTO 05008KT 1/2SM 06/06 A3000 RMK T00600060 IEM_DS3505
ZHHH,2006-01-03 09:00,ZHHH 030900Z AUTO 09004KT 6SM 06/06 A3000 RMK SLP164 T00640058 57006 IEM_DS3505
ZHHH,2006-01-03 10:00,ZHHH 031000Z AUTO 04004KT 1/2SM 06/06 A3000 RMK T00600060 IEM_DS3505
ZHHH,2006-01-03 11:00,ZHHH 031100Z AUTO 03006KT 1/2SM 05/05 A3003 RMK T00500050 IEM_DS3505
ZHHH,2006-01-03 12:00,ZHHH 031200Z AUTO 04002KT 5SM 06/05 A3003 RMK 60008 SLP171 T00580052 52007 IEM_DS3505
ZHHH,2006-01-03 13:00,ZHHH 031300Z AUTO 02006KT 1/2SM 05/05 A3006 RMK T00500050 IEM_DS3505
ZHHH,2006-01-03 14:00,ZHHH 031400Z AUTO 03006KT 1SM 05/05 A3006 RMK T00500050 IEM_DS3505
ZHHH,2006-01-03 15:00,ZHHH 031500Z AUTO 04002KT 6SM 06/06 A3006 RMK SLP184 T00590055 52013 IEM_DS3505
ZHHH,2006-01-03 16:00,ZHHH 031600Z AUTO 03010KT 1 1/2SM 05/05 A3009 RMK T00500050 IEM_DS3505
ZHHH,2006-01-03 17:00,ZHHH 031700Z AUTO 02006KT 1 1/2SM 05/05 A3009 RMK T00500050 IEM_DS3505
ZHHH,2006-01-03 18:00,ZHHH 031800Z AUTO 34004KT 6SM 05/04 A3009 RMK 60012 SLP193 T00530043 52009 IEM_DS3505
ZHHH,2006-01-03 19:00,ZHHH 031900Z AUTO 02008KT 1 1/2SM 05/04 A3009 RMK T00500040 IEM_DS3505
ZHHH,2006-01-03 20:00,ZHHH 032000Z AUTO 03010KT 1 1/2SM 05/04 A3012 RMK T00500040 IEM_DS3505
ZHHH,2006-01-03 21:00,ZHHH 032100Z AUTO 36004KT 6SM 05/04 A3012 RMK 70024 SLP198 T00500038 52005 IEM_DS3505
ZHHH,2006-01-03 22:00,ZHHH 032200Z AUTO 02012KT 2 1/2SM 04/04 A3012 RMK T00400040 IEM_DS3505
ZHHH,2006-01-03 23:00,ZHHH 032300Z AUTO 03010KT 2SM 04/04 A3012 RMK T00400040 IEM_DS3505
ZHHH,2006-01-04 00:00,ZHHH 040000Z AUTO 36004KT 6SM 04/03 A3015 RMK 60012 70029 SLP214 T00430031 52016 IEM_DS3505
ZHHH,2006-01-04 01:00,ZHHH 040100Z AUTO 02012KT 1 1/2SM 04/03 A3018 RMK T00400030 IEM_DS3505
ZHHH,2006-01-04 02:00,ZHHH 040200Z AUTO 01012KT 1 1/2SM 04/03 A3021 RMK T00400030 IEM_DS3505
ZHHH,2006-01-04 03:00,ZHHH 040300Z AUTO 02004KT 6SM 04/03 A3024 RMK SLP239 T00410026 52025 IEM_DS3505
ZHHH,2006-01-04 04:00,ZHHH 040400Z AUTO 01012KT 2SM 03/02 A3024 RMK T00300020 IEM_DS3505
ZHHH,2006-01-04 05:00,ZHHH 040500Z AUTO 01012KT 2 1/2SM 03/02 A3024 RMK T00300020 IEM_DS3505
ZHHH,2006-01-04 06:00,ZHHH 040600Z AUTO 02006KT 6SM 03/01 A3024 RMK 60016 SLP242 T00270012 52002 IEM_DS3505
ZHHH,2006-01-04 07:00,ZHHH 040700Z AUTO 02014KT 3SM 02/02 A3024 RMK T00200020 IEM_DS3505
ZHHH,2006-01-04 08:00,ZHHH 040800Z AUTO 02014KT 3SM 02/01 A3027 RMK T00200010 IEM_DS3505
ZHHH,2006-01-04 09:00,ZHHH 040900Z AUTO 04004G23KT 6SM 02/01 A3033 RMK SLP273 T00250007 52031 IEM_DS3505
ZHHH,2006-01-04 10:00,ZHHH 041000Z AUTO 02012G21KT 3SM 02/01 A3036 RMK T00200010 IEM_DS3505
ZHHH,2006-01-04 11:00,ZHHH 041100Z AUTO 02014G23KT 4SM 02/00 A3042 RMK T00200000 IEM_DS3505
ZHHH,2006-01-04 12:00,ZHHH 041200Z AUTO 04006G23KT 6SM 02/M00 A3045 RMK 60004 SLP311 T00241004 52038 IEM_DS3505
ZHHH,2006-01-04 13:00,ZHHH 041300Z AUTO 03014KT 4SM 02/00 A3047 RMK T00200000 IEM_DS3505
ZHHH,2006-01-04 14:00,ZHHH 041400Z AUTO 03017G27KT 4SM 02/00 A3050 RMK T00200000 IEM_DS3505
ZHHH,2006-01-04 15:00,ZHHH 041500Z AUTO 02008KT 7SM 02/M01 A3050 RMK SLP339 T00221009 52028 IEM_DS3505
ZHHH,2006-01-04 16:00,ZHHH 041600Z AUTO 02014G23KT 6SM 01/M01 A3053 RMK T00101010 IEM_DS3505
ZHHH,2006-01-04 17:00,ZHHH 041700Z AUTO 02014KT 6SM 01/M01 A3056 RMK T00101010 IEM_DS3505
ZHHH,2006-01-04 18:00,ZHHH 041800Z AUTO 02008KT 12SM 01/M02 A3056 RMK 60000 SLP351 T00121017 52012 IEM_DS3505
ZHHH,2006-01-04 19:00,ZHHH 041900Z AUTO 02012KT 7SM 00/M01 A3056 RMK T00001010 IEM_DS3505
ZHHH,2006-01-04 20:00,ZHHH 042000Z AUTO 02012KT 7SM 00/M02 A3056 RMK T00001020 IEM_DS3505
ZHHH,2006-01-04 21:00,ZHHH 042100Z AUTO 04008KT 12SM 00/M03 A3056 RMK 70026 SLP351 T00021027 54000 IEM_DS3505
ZHHH,2006-01-04 22:00,ZHHH 042200Z AUTO 02012G21KT 6SM M01/M03 A3056 RMK T10101030 IEM_DS3505
ZHHH,2006-01-04 23:00,ZHHH 042300Z AUTO 02012KT 6SM M01/M03 A3059 RMK T10101030 IEM_DS3505
ZHHH,2006-01-05 00:00,ZHHH 050000Z AUTO 04008KT 9SM M01/M04 A3059 RMK 70021 SLP364 T10061043 52013 IEM_DS3505
ZHHH,2006-01-05 01:00,ZHHH 050100Z AUTO 03012KT 6SM M01/M05 A3062 RMK T10101050 IEM_DS3505
ZHHH,2006-01-05 02:00,ZHHH 050200Z AUTO 03012KT 6SM 00/M05 A3065 RMK T00001050 IEM_DS3505
ZHHH,2006-01-05 03:00,ZHHH 050300Z AUTO 02008KT 9SM 01/M06 A3062 RMK SLP369 T00071060 52005 IEM_DS3505
ZHHH,2006-01-05 04:00,ZHHH 050400Z AUTO 01008KT 6SM 01/M04 A3059 RMK T00101040 IEM_DS3505
ZHHH,2006-01-05 05:00,ZHHH 050500Z AUTO 02010KT 6SM 02/M05 A3056 RMK T00201050 IEM_DS3505
ZHHH,2006-01-05 06:00,ZHHH 050600Z AUTO 02006G21KT 11SM 02/M05 A3053 RMK SLP344 T00231049 57025 IEM_DS3505
ZHHH,2006-01-05 07:00,ZHHH 050700Z AUTO 04014KT 4SM 01/M05 A3053 RMK T00101050 IEM_DS3505
ZHHH,2006-01-05 08:00,ZHHH 050800Z AUTO 02012KT 4SM 01/M04 A3053 RMK T00101040 IEM_DS3505
ZHHH,2006-01-05 09:00,ZHHH 050900Z AUTO 02004KT 9SM 01/M05 A3056 RMK SLP350 T00121051 52006 IEM_DS3505
ZHHH,2006-01-05 10:00,ZHHH 051000Z AUTO 02012KT 4SM 00/M05 A3056 RMK T00001050 IEM_DS3505
ZHHH,2006-01-05 11:00,ZHHH 051100Z AUTO 02008KT 6SM M01/M05 A3059 RMK T10101050 IEM_DS3505
ZHHH,2006-01-05 12:00,ZHHH 051200Z AUTO 36006KT 9SM M00/M06 A3059 RMK SLP371 T10031057 52021 IEM_DS3505
ZHHH,2006-01-05 13:00,ZHHH 051300Z AUTO 03010KT 6SM M01/M05 A3062 RMK T10101050 IEM_DS3505
ZHHH,2006-01-05 14:00,ZHHH 051400Z AUTO 01008KT 6SM M01/M05 A3065 RMK T10101050 IEM_DS3505
ZHHH,2006-01-05 15:00,ZHHH 051500Z AUTO 02004KT 9SM M01/M06 A3065 RMK SLP381 T10061062 52010 IEM_DS3505
ZHHH,2006-01-05 16:00,ZHHH 051600Z AUTO 01004KT 6SM M01/M06 A3065 RMK T10101060 IEM_DS3505
ZHHH,2006-01-05 17:00,ZHHH 051700Z AUTO 35008KT 6SM M01/M04 A3065 RMK T10101040 IEM_DS3505
ZHHH,2006-01-05 18:00,ZHHH 051800Z AUTO 02004KT 9SM M01/M06 A3065 RMK SLP382 T10081060 52001 IEM_DS3505
ZHHH,2006-01-05 19:00,ZHHH 051900Z AUTO 02004KT 6SM M01/M05 A3065 RMK T10101050 IEM_DS3505
ZHHH,2006-01-05 20:00,ZHHH 052000Z AUTO 6SM M02/M08 A3065 RMK T10201080 IEM_DS3505
ZHHH,2006-01-05 21:00,ZHHH 052100Z AUTO 04002KT 9SM M01/M08 A3065 RMK SLP379 T10101076 57003 IEM_DS3505
ZHHH,2006-01-05 22:00,ZHHH 052200Z AUTO 36004KT 6SM M02/M07 A3065 RMK T10201070 IEM_DS3505
ZHHH,2006-01-05 23:00,ZHHH 052300Z AUTO 00000KT 6SM M03/M06 A3068 RMK T10301060 IEM_DS3505
ZHHH,2006-01-06 00:00,ZHHH 060000Z AUTO 04002KT 9SM M02/M08 A3068 RMK SLP395 T10171082 52015 IEM_DS3505
ZHHH,2006-01-06 01:00,ZHHH 060100Z AUTO 6SM M02/M05 A3068 RMK T10201050 IEM_DS3505
ZHHH,2006-01-06 02:00,ZHHH 060200Z AUTO 26004KT 6SM M01/M08 A3071 RMK T10101080 IEM_DS3505
ZHHH,2006-01-06 03:00,ZHHH 060300Z AUTO 27002KT 11SM 01/M08 A3071 RMK SLP397 T00091078 52003 IEM_DS3505
ZHHH,2006-01-06 04:00,ZHHH 060400Z AUTO 35006KT 6SM 02/M07 A3065 RMK T00201070 IEM_DS3505
ZHHH,2006-01-06 05:00,ZHHH 060500Z AUTO 01006KT 6SM 03/M08 A3062 RMK T00301080 IEM_DS3505
ZHHH,2006-01-06 06:00,ZHHH 060600Z AUTO 34004KT 11SM 03/M09 A3059 RMK SLP363 T00341092 57034 IEM_DS3505
ZHHH,2006-01-06 07:00,ZHHH 060700Z AUTO 01004KT 7SM 03/M08 A3056 RMK T00301080 IEM_DS3505
ZHHH,2006-01-06 08:00,ZHHH 060800Z AUTO 35006KT 6SM 03/M09 A3056 RMK T00301090 IEM_DS3505
ZHHH,2006-01-06 09:00,ZHHH 060900Z AUTO 02002KT 11SM 03/M10 A3056 RMK SLP355 T00291097 57008 IEM_DS3505
ZHHH,2006-01-06 10:00,ZHHH 061000Z AUTO 02002KT 6SM 01/M08 A3056 RMK T00101080 IEM_DS3505
ZHHH,2006-01-06 11:00,ZHHH 061100Z AUTO 11006KT 6SM 01/M07 A3059 RMK T00101070 IEM_DS3505
ZHHH,2006-01-06 12:00,ZHHH 061200Z AUTO 09002KT 11SM 01/M08 A3059 RMK SLP365 T00071083 52010 IEM_DS3505
ZHHH,2006-01-06 13:00,ZHHH 061300Z AUTO 09006KT 6SM 00/M08 A3059 RMK T00001080 IEM_DS3505
ZHHH,2006-01-06 14:00,ZHHH 061400Z AUTO 10006KT 6SM M01/M08 A3059 RMK T10101080 IEM_DS3505
ZHHH,2006-01-06 15:00,ZHHH 061500Z AUTO 09002KT 12SM M00/M09 A3059 RMK SLP365 T10051094 54000 IEM_DS3505
ZHHH,2006-01-06 16:00,ZHHH 061600Z AUTO 12004KT 6SM M02/M08 A3059 RMK T10201080 IEM_DS3505
ZHHH,2006-01-06 17:00,ZHHH 061700Z AUTO 13004KT 6SM M02/M08 A3059 RMK T10201080 IEM_DS3505
ZHHH,2006-01-06 18:00,ZHHH 061800Z AUTO 13004KT 11SM M02/M08 A3059 RMK SLP360 T10181075 57005 IEM_DS3505
ZHHH,2006-01-06 19:00,ZHHH 061900Z AUTO 05004KT 6SM M03/M07 A3059 RMK T10301070 IEM_DS3505
ZHHH,2006-01-06 20:00,ZHHH 062000Z AUTO 06004KT 6SM M03/M07 A3056 RMK T10301070 IEM_DS3505
ZHHH,2006-01-06 21:00,ZHHH 062100Z AUTO 29002KT 11SM M03/M06 A3056 RMK SLP352 T10321058 57008 IEM_DS3505
ZHHH,2006-01-06 22:00,ZHHH 062200Z AUTO 07002KT 6SM M03/M08 A3056 RMK T10301080 IEM_DS3505
ZHHH,2006-01-06 23:00,ZHHH 062300Z AUTO 00000KT 6SM M03/M07 A3056 RMK T10301070 IEM_DS3505
ZHHH,2006-01-07 00:00,ZHHH 070000Z AUTO 07002KT 11SM M02/M05 A3056 RMK SLP350 T10241054 57002 IEM_DS3505
ZHHH,2006-01-07 01:00,ZHHH 070100Z AUTO 10004KT 6SM M02/M05 A3056 RMK T10201050 IEM_DS3505
ZHHH,2006-01-07 02:00,ZHHH 070200Z AUTO 10004KT 6SM M01/M05 A3059 RMK T10101050 IEM_DS3505
ZHHH,2006-01-07 03:00,ZHHH 070300Z AUTO 36002KT 11SM 03/M08 A3056 RMK SLP354 T00271078 52004 IEM_DS3505
ZHHH,2006-01-07 04:00,ZHHH 070400Z AUTO 10004KT 6SM 03/M09 A3053 RMK T00301090 IEM_DS3505
ZHHH,2006-01-07 05:00,ZHHH 070500Z AUTO 6SM 04/M07 A3050 RMK T00401070 IEM_DS3505
ZHHH,2006-01-07 06:00,ZHHH 070600Z AUTO 07002KT 9SM 05/M08 A3047 RMK SLP316 T00471084 57038 IEM_DS3505
ZHHH,2006-01-07 07:00,ZHHH 070700Z AUTO 33004KT 6SM 04/M08 A3045 RMK T00401080 IEM_DS3505
ZHHH,2006-01-07 08:00,ZHHH 070800Z AUTO 6SM 04/M08 A3045 RMK T00401080 IEM_DS3505
ZHHH,2006-01-07 09:00,ZHHH 070900Z AUTO 04004KT 9SM 04/M10 A3045 RMK SLP307 T00401097 57009 IEM_DS3505
ZHHH,2006-01-07 10:00,ZHHH 071000Z AUTO 33002KT 6SM 02/M07 A3045 RMK T00201070 IEM_DS3505
ZHHH,2006-01-07 11:00,ZHHH 071100Z AUTO 00000KT 6SM 01/M07 A3047 RMK T00101070 IEM_DS3505
ZHHH,2006-01-07 12:00,ZHHH 071200Z AUTO 09002KT 9SM M00/M05 A3047 RMK SLP320 T10031053 52013 IEM_DS3505
ZHHH,2006-01-07 13:00,ZHHH 071300Z AUTO 09002KT 6SM 01/M07 A3047 RMK T00101070 IEM_DS3505
ZHHH,2006-01-07 14:00,ZHHH 071400Z AUTO 6SM 01/M07 A3045 RMK T00101070 IEM_DS3505
ZHHH,2006-01-07 15:00,ZHHH 071500Z AUTO 00000KT 9SM M02/M04 A3045 RMK SLP315 T10181040 57005 IEM_DS3505
ZHHH,2006-01-07 16:00,ZHHH 071600Z AUTO 00000KT 6SM M01/M06 A3045 RMK T10101060 IEM_DS3505
ZHHH,2006-01-07 17:00,ZHHH 071700Z AUTO 06004KT 6SM M01/M05 A3045 RMK T10101050 IEM_DS3505
ZHHH,2006-01-07 18:00,ZHHH 071800Z AUTO 04002KT 9SM M02/M04 A3045 RMK SLP315 T10161041 54000 IEM_DS3505
ZHHH,2006-01-07 19:00,ZHHH 071900Z AUTO 00000KT 6SM M02/M05 A3045 RMK T10201050 IEM_DS3505
ZHHH,2006-01-07 20:00,ZHHH 072000Z AUTO 08004KT 7SM M02/M05 A3045 RMK T10201050 IEM_DS3505
ZHHH,2006-01-07 21:00,ZHHH 072100Z AUTO 09004KT 11SM M01/M05 A3045 RMK SLP309 T10141046 57006 IEM_DS3505
ZHHH,2006-01-07 22:00,ZHHH 072200Z AUTO 08008KT 7SM M02/M06 A3045 RMK T10201060 IEM_DS3505
ZHHH,2006-01-07 23:00,ZHHH 072300Z AUTO 12004KT 4SM M02/M06 A3045 RMK T10201060 IEM_DS3505
ZHHH,2006-01-08 00:00,ZHHH 080000Z AUTO 04002KT 11SM M02/M04 A3047 RMK SLP319 T10221044 52010 IEM_DS3505
ZHHH,2006-01-08 01:00,ZHHH 080100Z AUTO 09004KT 4SM M02/M05 A3047 RMK T10201050 IEM_DS3505
ZHHH,2006-01-08 02:00,ZHHH 080200Z AUTO 14004KT 4SM 01/M02 A3045 RMK T00101020 IEM_DS3505
ZHHH,2006-01-08 03:00,ZHHH 080300Z AUTO 16002KT 9SM 04/M05 A3045 RMK SLP313 T00421050 57006 IEM_DS3505
ZHHH,2006-01-08 04:00,ZHHH 080400Z AUTO 32004KT 6SM 04/M05 A3045 RMK T00401050 IEM_DS3505
ZHHH,2006-01-08 05:00,ZHHH 080500Z AUTO 34004KT 6SM 05/M07 A3039 RMK T00501070 IEM_DS3505
ZHHH,2006-01-08 06:00,ZHHH 080600Z AUTO 29004KT 9SM 07/M08 A3036 RMK SLP279 T00671084 57034 IEM_DS3505
ZHHH,2006-01-08 07:00,ZHHH 080700Z AUTO 33004KT 6SM 06/M08 A3033 RMK T00601080 IEM_DS3505
ZHHH,2006-01-08 08:00,ZHHH 080800Z AUTO 6SM 06/M07 A3033 RMK T00601070 IEM_DS3505
ZHHH,2006-01-08 09:00,ZHHH 080900Z AUTO 27002KT 9SM 06/M07 A3033 RMK SLP271 T00571072 57008 IEM_DS3505
ZHHH,2006-01-08 10:00,ZHHH 081000Z AUTO 00000KT 6SM 04/M07 A3033 RMK T00401070 IEM_DS3505
ZHHH,2006-01-08 11:00,ZHHH 081100Z AUTO 25002KT 6SM 03/M07 A3036 RMK T00301070 IEM_DS3505
ZHHH,2006-01-08 12:00,ZHHH 081200Z AUTO 25002KT 9SM 02/M05 A3036 RMK SLP287 T00181047 52016 IEM_DS3505
ZHHH,2006-01-08 13:00,ZHHH 081300Z AUTO 22004KT 6SM 03/M06 A3039 RMK T00301060 IEM_DS3505
ZHHH,2006-01-08 14:00,ZHHH 081400Z AUTO 23004KT 03/M05 A3039 RMK T00301050 IEM_DS3505
ZHHH,2006-01-08 15:00,ZHHH 081500Z AUTO 00000KT 9SM 01/M05 A3039 RMK SLP289 T00081046 52002 IEM_DS3505
ZHHH,2006-01-08 16:00,ZHHH 081600Z AUTO 22002KT 01/M05 A3036 RMK T00101050 IEM_DS3505
ZHHH,2006-01-08 17:00,ZHHH 081700Z AUTO 00000KT 01/M05 A3036 RMK T00101050 IEM_DS3505
ZHHH,2006-01-08 18:00,ZHHH 081800Z AUTO 25002KT 9SM 00/M04 A3039 RMK SLP288 T00051040 57001 IEM_DS3505
ZHHH,2006-01-08 19:00,ZHHH 081900Z AUTO 00000KT 3SM 00/M03 A3036 RMK T00001030 IEM_DS3505
ZHHH,2006-01-08 20:00,ZHHH 082000Z AUTO 24002KT 3SM 00/M03 A3036 RMK T00001030 IEM_DS3505
ZHHH,2006-01-08 21:00,ZHHH 082100Z AUTO 22002KT 9SM M01/M04 A3036 RMK SLP277 T10061035 57011 IEM_DS3505
ZHHH,2006-01-08 22:00,ZHHH 082200Z AUTO 00000KT 2SM M01/M03 A3036 RMK T10101030 IEM_DS3505
ZHHH,2006-01-08 23:00,ZHHH 082300Z AUTO 18004KT 2SM 00/M03 A3036 RMK T00001030 IEM_DS3505
ZHHH,2006-01-09 00:00,ZHHH 090000Z AUTO 25002KT 9SM M00/M03 A3039 RMK SLP290 T10031030 52013 IEM_DS3505
ZHHH,2006-01-09 01:00,ZHHH 090100Z AUTO 20004KT 1 1/4SM 01/M02 A3039 RMK T00101020 IEM_DS3505
ZHHH,2006-01-09 02:00,ZHHH 090200Z AUTO 24004KT 2 1/2SM 03/00 A3042 RMK T00300000 IEM_DS3505
ZHHH,2006-01-09 03:00,ZHHH 090300Z AUTO 29002KT 9SM 06/M04 A3039 RMK SLP295 T00551036 52005 IEM_DS3505
ZHHH,2006-01-09 04:00,ZHHH 090400Z AUTO 6SM 06/M03 A3036 RMK T00601030 IEM_DS3505
ZHHH,2006-01-09 05:00,ZHHH 090500Z AUTO 13004KT 6SM 07/M03 A3033 RMK T00701030 IEM_DS3505
ZHHH,2006-01-09 06:00,ZHHH 090600Z AUTO 14002KT 11SM 09/M07 A3027 RMK SLP254 T00891073 57040 IEM_DS3505
ZHHH,2006-01-09 07:00,ZHHH 090700Z AUTO 16004KT 09/M04 A3027 RMK T00901040 IEM_DS3505
ZHHH,2006-01-09 08:00,ZHHH 090800Z AUTO 16004KT 09/M03 A3027 RMK T00901030 IEM_DS3505
ZHHH,2006-01-09 09:00,ZHHH 090900Z AUTO 11002KT 11SM 08/M06 A3027 RMK SLP251 T00831063 57004 IEM_DS3505
ZHHH,2006-01-09 10:00,ZHHH 091000Z AUTO 14002KT 2SM 07/M03 A3027 RMK T00701030 IEM_DS3505
ZHHH,2006-01-09 11:00,ZHHH 091100Z AUTO 12006KT 3SM 05/00 A3027 RMK T00500000 IEM_DS3505
ZHHH,2006-01-09 12:00,ZHHH 091200Z AUTO 09002KT 11SM 03/M02 A3027 RMK SLP251 T00291015 54000 IEM_DS3505
ZHHH,2006-01-09 13:00,ZHHH 091300Z AUTO 11004KT 3SM 04/M01 A3027 RMK T00401010 IEM_DS3505
ZHHH,2006-01-09 14:00,ZHHH 091400Z AUTO 3SM 04/M01 A3027 RMK T00401010 IEM_DS3505
ZHHH,2006-01-09 15:00,ZHHH 091500Z AUTO 00000KT 9SM 01/M01 A3027 RMK SLP254 T00081008 52003 IEM_DS3505
ZHHH,2006-01-09 16:00,ZHHH 091600Z AUTO 06004KT 3SM 03/M01 A3027 RMK T00301010 IEM_DS3505
ZHHH,2006-01-09 17:00,ZHHH 091700Z AUTO 00000KT 3SM 03/M01 A3024 RMK T00301010 IEM_DS3505
ZHHH,2006-01-09 18:00,ZHHH 091800Z AUTO 10002KT 9SM M00/M02 A3024 RMK SLP240 T10031016 57013 IEM_DS3505
ZHHH,2006-01-09 19:00,ZHHH 091900Z AUTO 10004KT 2SM 02/M01 A3024 RMK T00201010 IEM_DS3505
ZHHH,2006-01-09 20:00,ZHHH 092000Z AUTO 14006KT 1 1/4SM 02/M01 A3021 RMK T00201010 IEM_DS3505
ZHHH,2006-01-09 21:00,ZHHH 092100Z AUTO 00000KT 9SM 00/M02 A3021 RMK SLP231 T00001017 57009 IEM_DS3505
ZHHH,2006-01-09 22:00,ZHHH 092200Z AUTO 08002KT 1SM 00/M01 A3021 RMK T00001010 IEM_DS3505
ZHHH,2006-01-09 23:00,ZHHH 092300Z AUTO 08004KT 1SM 00/M01 A3024 RMK T00001010 IEM_DS3505
ZHHH,2006-01-10 00:00,ZHHH 100000Z AUTO 07002KT 4SM 00/M01 A3024 RMK SLP242 T00031010 52010 IEM_DS3505
ZHHH,2006-01-10 01:00,ZHHH 100100Z AUTO 11006KT 1 1/4SM 01/M01 A3024 RMK T00101010 IEM_DS3505
ZHHH,2006-01-10 02:00,ZHHH 100200Z AUTO 12006KT 1SM 04/01 A3024 RMK T00400010 IEM_DS3505
ZHHH,2006-01-10 03:00,ZHHH 100300Z AUTO 11004KT 6SM 08/M01 A3024 RMK SLP238 T00801010 57003 IEM_DS3505
ZHHH,2006-01-10 04:00,ZHHH 100400Z AUTO 12008KT 1 1/2SM 09/01 A3021 RMK T00900010 IEM_DS3505
ZHHH,2006-01-10 05:00,ZHHH 100500Z AUTO 11006KT 2 1/2SM 10/00 A3018 RMK T01000000 IEM_DS3505
ZHHH,2006-01-10 06:00,ZHHH 100600Z AUTO 11004KT 11SM 12/00 A3015 RMK SLP209 T01230001 57029 IEM_DS3505
ZHHH,2006-01-10 07:00,ZHHH 100700Z AUTO 12008KT 3SM 12/00 A3012 RMK T01200000 IEM_DS3505
ZHHH,2006-01-10 08:00,ZHHH 100800Z AUTO 13008KT 12/00 A3009 RMK T01200000 IEM_DS3505
ZHHH,2006-01-10 09:00,ZHHH 100900Z AUTO 11002KT 11SM 12/M02 A3009 RMK SLP194 T01181020 57015 IEM_DS3505
ZHHH,2006-01-10 10:00,ZHHH 101000Z AUTO 10006KT 2 1/2SM 09/01 A3009 RMK T00900010 IEM_DS3505
ZHHH,2006-01-10 11:00,ZHHH 101100Z AUTO 10008KT 2 1/2SM 08/01 A3012 RMK T00800010 IEM_DS3505
ZHHH,2006-01-10 12:00,ZHHH 101200Z AUTO 11002KT 11SM 06/M00 A3012 RMK SLP200 T00571004 52005 IEM_DS3505
ZHHH,2006-01-10 13:00,ZHHH 101300Z AUTO 10010KT 2 1/2SM 07/00 A3012 RMK T00700000 IEM_DS3505
ZHHH,2006-01-10 14:00,ZHHH 101400Z AUTO 09008KT 2 1/2SM 06/00 A3012 RMK T00600000 IEM_DS3505
ZHHH,2006-01-10 15:00,ZHHH 101500Z AUTO 07002KT 9SM 03/M00 A3012 RMK SLP204 T00341001 52005 IEM_DS3505
ZHHH,2006-01-10 16:00,ZHHH 101600Z AUTO 09008KT 2SM 06/M01 A3015 RMK T00601010 IEM_DS3505
ZHHH,2006-01-10 17:00,ZHHH 101700Z AUTO 10010KT 2SM 05/00 A3015 RMK T00500000 IEM_DS3505
ZHHH,2006-01-10 20:00,ZHHH 102000Z AUTO 09010KT 2SM 04/00 A3012 RMK T00400000 IEM_DS3505
ZHHH,2006-01-10 22:00,ZHHH 102200Z AUTO 10004KT 1 1/2SM 02/00 A3012 RMK T00200000 IEM_DS3505
ZHHH,2006-01-10 23:00,ZHHH 102300Z AUTO 11004KT 1 1/4SM 02/00 A3012 RMK T00200000 IEM_DS3505
ZHHH,2006-01-11 00:00,ZHHH 110000Z AUTO 07002KT 11SM 04/M01 A3015 RMK SLP216 T00411013 52016 IEM_DS3505
ZHHH,2006-01-11 01:00,ZHHH 110100Z AUTO 11004KT 1SM 03/00 A3018 RMK T00300000 IEM_DS3505
ZHHH,2006-01-11 02:00,ZHHH 110200Z AUTO 10004KT 1 1/2SM 05/01 A3021 RMK T00500010 IEM_DS3505
ZHHH,2006-01-11 03:00,ZHHH 110300Z AUTO 07004KT 9SM 08/M00 A3018 RMK SLP223 T00821003 52007 IEM_DS3505
ZHHH,2006-01-11 04:00,ZHHH 110400Z AUTO 08006KT 1 1/2SM 09/02 A3015 RMK T00900020 IEM_DS3505
ZHHH,2006-01-11 05:00,ZHHH 110500Z AUTO 11006KT 2 1/2SM 11/03 A3012 RMK T01100030 IEM_DS3505
ZHHH,2006-01-11 06:00,ZHHH 110600Z AUTO 07002KT 9SM 12/00 A3006 RMK SLP185 T01160001 57038 IEM_DS3505
ZHHH,2006-01-11 07:00,ZHHH 110700Z AUTO 12006KT 3SM 12/01 A3006 RMK T01200010 IEM_DS3505
ZHHH,2006-01-11 08:00,ZHHH 110800Z AUTO 12006KT 3SM 12/02 A3006 RMK T01200020 IEM_DS3505
ZHHH,2006-01-11 09:00,ZHHH 110900Z AUTO 04002KT 9SM 12/01 A3006 RMK SLP183 T01190012 57002 IEM_DS3505
ZHHH,2006-01-11 10:00,ZHHH 111000Z AUTO 06006KT 1 1/2SM 11/03 A3006 RMK T01100030 IEM_DS3505
ZHHH,2006-01-11 11:00,ZHHH 111100Z AUTO 05006KT 1 1/2SM 10/03 A3006 RMK T01000030 IEM_DS3505
ZHHH,2006-01-11 12:00,ZHHH 111200Z AUTO 08006KT 9SM 10/03 A3009 RMK SLP190 T01000031 52007 IEM_DS3505
ZHHH,2006-01-11 13:00,ZHHH 111300Z AUTO 04004KT 1SM 09/04 A3009 RMK T00900040 IEM_DS3505
ZHHH,2006-01-11 14:00,ZHHH 111400Z AUTO 04004KT 1SM 08/04 A3009 RMK T00800040 IEM_DS3505
ZHHH,2006-01-11 15:00,ZHHH 111500Z AUTO 04004KT 9SM 09/03 A3012 RMK SLP199 T00890031 52009 IEM_DS3505
ZHHH,2006-01-11 16:00,ZHHH 111600Z AUTO 05004KT 1SM 07/03 A3012 RMK T00700030 IEM_DS3505
ZHHH,2006-01-11 17:00,ZHHH 111700Z AUTO 1SM 07/03 A3012 RMK T00700030 IEM_DS3505
ZHHH,2006-01-11 18:00,ZHHH 111800Z AUTO 04002KT 9SM 07/03 A3012 RMK SLP197 T00660027 57002 IEM_DS3505
ZHHH,2006-01-11 19:00,ZHHH 111900Z AUTO 35004KT 1SM 05/03 A3009 RMK T00500030 IEM_DS3505
ZHHH,2006-01-11 20:00,ZHHH 112000Z AUTO 02004KT 1SM 05/04 A3009 RMK T00500040 IEM_DS3505
ZHHH,2006-01-11 21:00,ZHHH 112100Z AUTO 36002KT 9SM 06/04 A3009 RMK SLP193 T00630035 57004 IEM_DS3505
ZHHH,2006-01-11 22:00,ZHHH 112200Z AUTO 1SM 06/03 A3009 RMK T00600030 IEM_DS3505
ZHHH,2006-01-11 23:00,ZHHH 112300Z AUTO 01004KT 1SM 05/04 A3009 RMK T00500040 IEM_DS3505
ZHHH,2006-01-12 00:00,ZHHH 120000Z AUTO 34002KT 3SM 06/03 A3012 RMK SLP202 T00610031 52009 IEM_DS3505
ZHHH,2006-01-12 01:00,ZHHH 120100Z AUTO 00000KT 1SM 06/04 A3015 RMK T00600040 IEM_DS3505
ZHHH,2006-01-12 02:00,ZHHH 120200Z AUTO 31002KT 1SM 06/04 A3015 RMK T00600040 IEM_DS3505
ZHHH,2006-01-12 03:00,ZHHH 120300Z AUTO 36002KT 2 1/2SM 07/03 A3015 RMK SLP211 T00700034 52009 IEM_DS3505
ZHHH,2006-01-12 04:00,ZHHH 120400Z AUTO 01006KT 1/2SM 07/04 A3012 RMK T00700040 IEM_DS3505
ZHHH,2006-01-12 05:00,ZHHH 120500Z AUTO 32006KT 1/2SM 07/05 A3009 RMK T00700050 IEM_DS3505
ZHHH,2006-01-12 06:00,ZHHH 120600Z AUTO 29002KT 6SM 08/04 A3009 RMK SLP189 T00820035 57022 IEM_DS3505
ZHHH,2006-01-12 07:00,ZHHH 120700Z AUTO 1SM 08/05 A3006 RMK T00800050 IEM_DS3505
ZHHH,2006-01-12 08:00,ZHHH 120800Z AUTO 34006KT 1SM 09/05 A3006 RMK T00900050 IEM_DS3505
ZHHH,2006-01-12 09:00,ZHHH 120900Z AUTO 34004KT 6SM 08/04 A3006 RMK SLP186 T00840037 57003 IEM_DS3505
ZHHH,2006-01-12 10:00,ZHHH 121000Z AUTO 34004KT 1/2SM 07/05 A3009 RMK T00700050 IEM_DS3505
ZHHH,2006-01-12 11:00,ZHHH 121100Z AUTO 1/2SM 07/04 A3009 RMK T00700040 IEM_DS3505
ZHHH,2006-01-12 12:00,ZHHH 121200Z AUTO 27002KT 7SM 07/03 A3012 RMK SLP205 T00740033 52019 IEM_DS3505
ZHHH,2006-01-12 13:00,ZHHH 121300Z AUTO 34004KT 1SM 06/04 A3015 RMK T00600040 IEM_DS3505
ZHHH,2006-01-12 14:00,ZHHH 121400Z AUTO 36004KT 1SM 06/04 A3012 RMK T00600040 IEM_DS3505
ZHHH,2006-01-12 15:00,ZHHH 121500Z AUTO 34002KT 9SM 06/02 A3015 RMK SLP207 T00620025 52002 IEM_DS3505
ZHHH,2006-01-12 16:00,ZHHH 121600Z AUTO 03006KT 1SM 05/03 A3015 RMK T00500030 IEM_DS3505
ZHHH,2006-01-12 17:00,ZHHH 121700Z AUTO 1SM 05/03 A3015 RMK T00500030 IEM_DS3505
ZHHH,2006-01-12 18:00,ZHHH 121800Z AUTO 29002KT 7SM 06/03 A3015 RMK SLP210 T00550028 52003 IEM_DS3505
ZHHH,2006-01-12 19:00,ZHHH 121900Z AUTO 35004KT 1SM 05/03 A3015 RMK T00500030 IEM_DS3505
ZHHH,2006-01-12 20:00,ZHHH 122000Z AUTO 01002KT 1SM 05/03 A3015 RMK T00500030 IEM_DS3505
ZHHH,2006-01-12 21:00,ZHHH 122100Z AUTO 02002KT 7SM 05/02 A3015 RMK SLP207 T00520024 57003 IEM_DS3505
ZHHH,2006-01-12 22:00,ZHHH 122200Z AUTO 04004KT 1SM 05/02 A3015 RMK T00500020 IEM_DS3505
ZHHH,2006-01-12 23:00,ZHHH 122300Z AUTO 36004KT 1SM 05/02 A3018 RMK T00500020 IEM_DS3505
ZHHH,2006-01-13 00:00,ZHHH 130000Z AUTO 09002KT 7SM 05/02 A3018 RMK SLP224 T00530025 52017 IEM_DS3505
ZHHH,2006-01-13 01:00,ZHHH 130100Z AUTO 04006KT 1SM 06/02 A3018 RMK T00600020 IEM_DS3505
ZHHH,2006-01-13 02:00,ZHHH 130200Z AUTO 04010KT 1SM 06/01 A3021 RMK T00600010 IEM_DS3505
ZHHH,2006-01-13 03:00,ZHHH 130300Z AUTO 04004KT 6SM 06/00 A3018 RMK SLP227 T00640003 52003 IEM_DS3505
ZHHH,2006-01-13 04:00,ZHHH 130400Z AUTO 1SM 07/01 A3018 RMK T00700010 IEM_DS3505
ZHHH,2006-01-13 05:00,ZHHH 130500Z AUTO 24004KT 1/2SM 06/03 A3015 RMK T00600030 IEM_DS3505
ZHHH,2006-01-13 06:00,ZHHH 130600Z AUTO 27004KT 6SM 06/02 A3012 RMK 60000 SLP203 T00640023 57024 IEM_DS3505
ZHHH,2006-01-13 07:00,ZHHH 130700Z AUTO 1/2SM 06/04 A3012 RMK T00600040 IEM_DS3505
ZHHH,2006-01-13 08:00,ZHHH 130800Z AUTO 32004KT 1/2SM 06/04 A3012 RMK T00600040 IEM_DS3505
ZHHH,2006-01-13 09:00,ZHHH 130900Z AUTO 32002KT 5SM 06/03 A3015 RMK SLP211 T00620027 52008 IEM_DS3505
ZHHH,2006-01-13 10:00,ZHHH 131000Z AUTO 1SM 05/03 A3015 RMK T00500030 IEM_DS3505
ZHHH,2006-01-13 11:00,ZHHH 131100Z AUTO 06006KT 1SM 05/03 A3018 RMK T00500030 IEM_DS3505
ZHHH,2006-01-13 12:00,ZHHH 131200Z AUTO 04004KT 6SM 05/02 A3018 RMK 60000 SLP218 T00540024 52007 IEM_DS3505
ZHHH,2006-01-13 13:00,ZHHH 131300Z AUTO 04008KT 1SM 04/03 A3018 RMK T00400030 IEM_DS3505
ZHHH,2006-01-13 14:00,ZHHH 131400Z AUTO 05008KT 1SM 04/03 A3018 RMK T00400030 IEM_DS3505
ZHHH,2006-01-13 15:00,ZHHH 131500Z AUTO 07002KT 7SM 05/02 A3018 RMK SLP223 T00470021 52005 IEM_DS3505
ZHHH,2006-01-13 16:00,ZHHH 131600Z AUTO 05004KT 1SM 04/03 A3018 RMK T00400030 IEM_DS3505
ZHHH,2006-01-13 17:00,ZHHH 131700Z AUTO 34002KT 1SM 04/03 A3018 RMK T00400030 IEM_DS3505
ZHHH,2006-01-13 18:00,ZHHH 131800Z AUTO 27002KT 6SM 05/03 A3018 RMK 60001 SLP223 T00460026 54000 IEM_DS3505
ZHHH,2006-01-13 19:00,ZHHH 131900Z AUTO 26004KT 1SM 04/03 A3018 RMK T00400030 IEM_DS3505
ZHHH,2006-01-13 20:00,ZHHH 132000Z AUTO 33004KT 1/2SM 04/03 A3015 RMK T00400030 IEM_DS3505
ZHHH,2006-01-13 21:00,ZHHH 132100Z AUTO 36002KT 6SM 04/02 A3015 RMK 70002 SLP208 T00430020 57015 IEM_DS3505
ZHHH,2006-01-13 22:00,ZHHH 132200Z AUTO 03006KT 1SM 04/02 A3015 RMK T00400020 IEM_DS3505
ZHHH,2006-01-13 23:00,ZHHH 132300Z AUTO 09002KT 1SM 04/02 A3018 RMK T00400020 IEM_DS3505
ZHHH,2006-01-14 00:00,ZHHH 140000Z AUTO 04002KT 7SM 04/01 A3018 RMK 70002 SLP218 T00450010 52010 IEM_DS3505
ZHHH,2006-01-14 01:00,ZHHH 140100Z AUTO 05006KT 1/2SM 04/02 A3018 RMK T00400020 IEM_DS3505
ZHHH,2006-01-14 02:00,ZHHH 140200Z AUTO 05006KT 1/2SM 04/02 A3018 RMK T00400020 IEM_DS3505
ZHHH,2006-01-14 03:00,ZHHH 140300Z AUTO 09002KT 6SM 05/01 A3018 RMK SLP224 T00500011 52006 IEM_DS3505
ZHHH,2006-01-14 04:00,ZHHH 140400Z AUTO 1/2SM 04/02 A3015 RMK T00400020 IEM_DS3505
ZHHH,2006-01-14 05:00,ZHHH 140500Z AUTO 35004KT 1/2SM 04/02 A3015 RMK T00400020 IEM_DS3505
ZHHH,2006-01-14 06:00,ZHHH 140600Z AUTO 32002KT 7SM 05/02 A3012 RMK 60002 SLP203 T00490021 57021 IEM_DS3505
ZHHH,2006-01-14 07:00,ZHHH 140700Z AUTO 32006KT 3/8SM 04/03 A3012 RMK T00400030 IEM_DS3505
ZHHH,2006-01-14 08:00,ZHHH 140800Z AUTO 34004KT 1/2SM 04/03 A3015 RMK T00400030 IEM_DS3505
ZHHH,2006-01-14 09:00,ZHHH 140900Z AUTO 02002KT 6SM 04/02 A3015 RMK SLP215 T00440023 52012 IEM_DS3505
ZHHH,2006-01-14 10:00,ZHHH 141000Z AUTO 1/2SM 04/03 A3018 RMK T00400030 IEM_DS3505
ZHHH,2006-01-14 11:00,ZHHH 141100Z AUTO 00000KT 1/2SM 04/03 A3018 RMK T00400030 IEM_DS3505
ZHHH,2006-01-14 12:00,ZHHH 141200Z AUTO 00000KT 6SM 05/02 A3021 RMK 60000 SLP229 T00470022 52014 IEM_DS3505
ZHHH,2006-01-14 13:00,ZHHH 141300Z AUTO 30004KT 1/2SM 04/04 A3021 RMK T00400040 IEM_DS3505
ZHHH,2006-01-14 14:00,ZHHH 141400Z AUTO 27002KT 1/2SM 04/04 A3021 RMK T00400040 IEM_DS3505
ZHHH,2006-01-14 15:00,ZHHH 141500Z AUTO 27002KT 6SM 05/03 A3024 RMK SLP239 T00480027 52010 IEM_DS3505
ZHHH,2006-01-14 16:00,ZHHH 141600Z AUTO 1/2SM 04/03 A3024 RMK T00400030 IEM_DS3505
ZHHH,2006-01-14 17:00,ZHHH 141700Z AUTO 29004KT 3/8SM 03/03 A3024 RMK T00300030 IEM_DS3505
ZHHH,2006-01-14 18:00,ZHHH 141800Z AUTO 25004KT 4SM 04/02 A3024 RMK SLP243 T00370019 52004 IEM_DS3505
ZHHH,2006-01-14 19:00,ZHHH 141900Z AUTO 26004KT 3/8SM 02/02 A3024 RMK T00200020 IEM_DS3505
ZHHH,2006-01-14 20:00,ZHHH 142000Z AUTO 26004KT 1/4SM 01/01 A3024 RMK T00100010 IEM_DS3505
ZHHH,2006-01-14 21:00,ZHHH 142100Z AUTO 36002KT 6SM 02/01 A3021 RMK 70002 SLP234 T00230013 57010 IEM_DS3505
ZHHH,2006-01-14 22:00,ZHHH 142200Z AUTO 36004KT 1/8SM 01/01 A3021 RMK T00100010 IEM_DS3505
ZHHH,2006-01-14 23:00,ZHHH 142300Z AUTO 13004KT 00/00 A3021 RMK T00000000 IEM_DS3505
ZHHH,2006-01-15 00:00,ZHHH 150000Z AUTO 00000KT 1/2SM 02/02 A3021 RMK 70002 SLP240 T00220015 52006 IEM_DS3505
ZHHH,2006-01-15 01:00,ZHHH 150100Z AUTO 20006KT 01/01 A3027 RMK T00100010 IEM_DS3505
ZHHH,2006-01-15 02:00,ZHHH 150200Z AUTO 1/8SM 02/02 A3027 RMK T00200020 IEM_DS3505
ZHHH,2006-01-15 04:00,ZHHH 150400Z AUTO 3/8SM 04/04 A3024 RMK T00400040 IEM_DS3505
ZHHH,2006-01-15 05:00,ZHHH 150500Z AUTO 04004KT 3/8SM 06/06 A3018 RMK T00600060 IEM_DS3505
ZHHH,2006-01-15 06:00,ZHHH 150600Z AUTO 02004KT 4SM 07/04 A3015 RMK SLP207 T00690039 57035 IEM_DS3505
ZHHH,2006-01-15 07:00,ZHHH 150700Z AUTO 11004KT 1/2SM 06/05 A3012 RMK T00600050 IEM_DS3505
ZHHH,2006-01-15 08:00,ZHHH 150800Z AUTO 14004KT 1/2SM 07/05 A3012 RMK T00700050 IEM_DS3505
ZHHH,2006-01-15 09:00,ZHHH 150900Z AUTO 04002KT 6SM 07/04 A3012 RMK SLP204 T00700036 57003 IEM_DS3505
ZHHH,2006-01-15 10:00,ZHHH 151000Z AUTO 14004KT 1SM 06/05 A3012 RMK T00600050 IEM_DS3505
ZHHH,2006-01-15 11:00,ZHHH 151100Z AUTO 1SM 06/05 A3012 RMK T00600050 IEM_DS3505
ZHHH,2006-01-15 12:00,ZHHH 151200Z AUTO 20002KT 6SM 06/05 A3012 RMK 60000 SLP203 T00650047 57001 IEM_DS3505
ZHHH,2006-01-15 13:00,ZHHH 151300Z AUTO 26002KT 1SM 06/05 A3012 RMK T00600050 IEM_DS3505
ZHHH,2006-01-15 14:00,ZHHH 151400Z AUTO 1SM 06/05 A3009 RMK T00600050 IEM_DS3505
ZHHH,2006-01-15 15:00,ZHHH 151500Z AUTO 25002KT 6SM 06/05 A3012 RMK SLP200 T00610049 57003 IEM_DS3505
ZHHH,2006-01-15 16:00,ZHHH 151600Z AUTO 28004KT 3/8SM 06/05 A3015 RMK T00600050 IEM_DS3505
ZHHH,2006-01-15 17:00,ZHHH 151700Z AUTO 00000KT 3/8SM 05/05 A3012 RMK T00500050 IEM_DS3505
ZHHH,2006-01-15 18:00,ZHHH 151800Z AUTO 18002KT 1SM 06/04 A3012 RMK 60000 SLP205 T00560042 52005 IEM_DS3505
ZHHH,2006-01-15 19:00,ZHHH 151900Z AUTO 26002KT 3/8SM 05/05 A3012 RMK T00500050 IEM_DS3505
ZHHH,2006-01-15 20:00,ZHHH 152000Z AUTO 20002KT 3/8SM 05/05 A3012 RMK T00500050 IEM_DS3505
ZHHH,2006-01-15 21:00,ZHHH 152100Z AUTO 22002KT 3/8SM 05/04 A3012 RMK 70000 SLP203 T00520042 57002 IEM_DS3505
ZHHH,2006-01-15 22:00,ZHHH 152200Z AUTO 00000KT 3/8SM 05/05 A3009 RMK T00500050 IEM_DS3505
ZHHH,2006-01-15 23:00,ZHHH 152300Z AUTO 11004KT 3/8SM 05/05 A3009 RMK T00500050 IEM_DS3505
ZHHH,2006-01-16 00:00,ZHHH 160000Z AUTO 16002KT 1/2SM 05/04 A3012 RMK 70000 SLP200 T00530044 57003 IEM_DS3505
ZHHH,2006-01-16 01:00,ZHHH 160100Z AUTO 3/8SM 05/05 A3015 RMK T00500050 IEM_DS3505
ZHHH,2006-01-16 02:00,ZHHH 160200Z AUTO 3/8SM 05/05 A3015 RMK T00500050 IEM_DS3505
ZHHH,2006-01-16 03:00,ZHHH 160300Z AUTO 07002KT 1 1/4SM 06/05 A3012 RMK SLP203 T00610047 52003 IEM_DS3505
ZHHH,2006-01-16 04:00,ZHHH 160400Z AUTO 10006KT 3/8SM 06/06 A3009 RMK T00600060 IEM_DS3505
ZHHH,2006-01-16 05:00,ZHHH 160500Z AUTO 09004KT 1/2SM 06/06 A3012 RMK T00600060 IEM_DS3505
ZHHH,2006-01-16 06:00,ZHHH 160600Z AUTO 34002KT 4SM 06/05 A3012 RMK SLP195 T00640050 57008 IEM_DS3505
ZHHH,2006-01-16 07:00,ZHHH 160700Z AUTO 1/2SM 07/06 A3009 RMK T00700060 IEM_DS3505
ZHHH,2006-01-16 08:00,ZHHH 160800Z AUTO 08006KT 1/2SM 07/06 A3009 RMK T00700060 IEM_DS3505
ZHHH,2006-01-16 09:00,ZHHH 160900Z AUTO 07002KT 5SM 07/06 A3006 RMK SLP184 T00730056 57011 IEM_DS3505
ZHHH,2006-01-16 10:00,ZHHH 161000Z AUTO 08006KT 1SM 07/06 A3009 RMK T00700060 IEM_DS3505
ZHHH,2006-01-16 11:00,ZHHH 161100Z AUTO 07006KT 1SM 07/06 A3009 RMK T00700060 IEM_DS3505
ZHHH,2006-01-16 12:00,ZHHH 161200Z AUTO 09002KT 7SM 07/06 A3009 RMK SLP188 T00730056 52004 IEM_DS3505
ZHHH,2006-01-16 13:00,ZHHH 161300Z AUTO 07006KT 1SM 07/06 A3009 RMK T00700060 IEM_DS3505
ZHHH,2006-01-16 14:00,ZHHH 161400Z AUTO 04004KT 1SM 07/06 A3006 RMK T00700060 IEM_DS3505
ZHHH,2006-01-16 15:00,ZHHH 161500Z AUTO 34002KT 7SM 07/06 A3009 RMK SLP187 T00740057 57001 IEM_DS3505
ZHHH,2006-01-16 16:00,ZHHH 161600Z AUTO 1SM 07/06 A3009 RMK T00700060 IEM_DS3505
ZHHH,2006-01-16 17:00,ZHHH 161700Z AUTO 01004KT 1SM 07/06 A3012 RMK T00700060 IEM_DS3505
ZHHH,2006-01-16 19:00,ZHHH 161900Z AUTO 04008KT 1SM 07/07 A3009 RMK T00700070 IEM_DS3505
ZHHH,2006-01-16 20:00,ZHHH 162000Z AUTO 05010KT 1SM 07/06 A3009 RMK T00700060 IEM_DS3505
ZHHH,2006-01-16 21:00,ZHHH 162100Z AUTO 02004KT 6SM 07/06 A3009 RMK 70002 SLP184 T00710062 57008 IEM_DS3505
ZHHH,2006-01-16 22:00,ZHHH 162200Z AUTO 01006KT 1SM 07/06 A3009 RMK T00700060 IEM_DS3505
ZHHH,2006-01-16 23:00,ZHHH 162300Z AUTO 01004KT 1SM 06/06 A3009 RMK T00600060 IEM_DS3505
ZHHH,2006-01-17 00:00,ZHHH 170000Z AUTO 02004KT 1 1/4SM 07/06 A3012 RMK 60012 70011 SLP198 T00680062 52014 IEM_DS3505
ZHHH,2006-01-17 01:00,ZHHH 170100Z AUTO 03008KT 7SM 06/06 A3012 RMK T00600060 IEM_DS3505
ZHHH,2006-01-17 02:00,ZHHH 170200Z AUTO 03010KT 7SM 06/05 A3015 RMK T00600050 IEM_DS3505
ZHHH,2006-01-17 03:00,ZHHH 170300Z AUTO 02006KT 7SM 06/05 A3015 RMK SLP208 T00610051 52010 IEM_DS3505
ZHHH,2006-01-17 04:00,ZHHH 170400Z AUTO 02010KT 4SM 06/05 A3012 RMK T00600050 IEM_DS3505
ZHHH,2006-01-17 05:00,ZHHH 170500Z AUTO 01006KT 4SM 06/05 A3012 RMK T00600050 IEM_DS3505
ZHHH,2006-01-17 06:00,ZHHH 170600Z AUTO 04004KT 6SM 06/05 A3009 RMK 60028 SLP195 T00610051 57013 IEM_DS3505
ZHHH,2006-01-17 07:00,ZHHH 170700Z AUTO 03010KT 4SM 06/05 A3009 RMK T00600050 IEM_DS3505
ZHHH,2006-01-17 08:00,ZHHH 170800Z AUTO 03010KT 7SM 06/05 A3012 RMK T00600050 IEM_DS3505
ZHHH,2006-01-17 09:00,ZHHH 170900Z AUTO 02004KT 6SM 06/05 A3012 RMK SLP204 T00600046 52009 IEM_DS3505
ZHHH,2006-01-17 10:00,ZHHH 171000Z AUTO 02008KT 7SM 05/05 A3015 RMK T00500050 IEM_DS3505
ZHHH,2006-01-17 11:00,ZHHH 171100Z AUTO 02008KT 7SM 05/05 A3015 RMK T00500050 IEM_DS3505
ZHHH,2006-01-17 12:00,ZHHH 171200Z AUTO 34004KT 6SM 06/04 A3018 RMK 60004 SLP222 T00580044 52018 IEM_DS3505
ZHHH,2006-01-17 13:00,ZHHH 171300Z AUTO 01008KT 7SM 05/05 A3018 RMK T00500050 IEM_DS3505
ZHHH,2006-01-17 14:00,ZHHH 171400Z AUTO 02008KT 7SM 05/05 A3018 RMK T00500050 IEM_DS3505
ZHHH,2006-01-17 15:00,ZHHH 171500Z AUTO 34004KT 6SM 06/04 A3015 RMK SLP223 T00570043 52001 IEM_DS3505
ZHHH,2006-01-17 16:00,ZHHH 171600Z AUTO 35006KT 7SM 05/05 A3018 RMK T00500050 IEM_DS3505
ZHHH,2006-01-17 17:00,ZHHH 171700Z AUTO 33004KT 7SM 05/05 A3018 RMK T00500050 IEM_DS3505
ZHHH,2006-01-17 18:00,ZHHH 171800Z AUTO 29002KT 6SM 05/05 A3018 RMK 60008 SLP221 T00530046 57002 IEM_DS3505
ZHHH,2006-01-17 19:00,ZHHH 171900Z AUTO 03008KT 7SM 06/05 A3015 RMK T00600050 IEM_DS3505
ZHHH,2006-01-17 20:00,ZHHH 172000Z AUTO 03010KT 7SM 06/05 A3015 RMK T00600050 IEM_DS3505
ZHHH,2006-01-17 21:00,ZHHH 172100Z AUTO 04004KT 6SM 06/05 A3015 RMK 70048 SLP211 T00600046 57010 IEM_DS3505
ZHHH,2006-01-17 22:00,ZHHH 172200Z AUTO 04010KT 7SM 06/05 A3015 RMK T00600050 IEM_DS3505
ZHHH,2006-01-17 23:00,ZHHH 172300Z AUTO 03012KT 7SM 05/04 A3015 RMK T00500040 IEM_DS3505
ZHHH,2006-01-18 00:00,ZHHH 180000Z AUTO 04004KT 6SM 06/04 A3018 RMK 60000 70039 SLP221 T00570039 52010 IEM_DS3505
ZHHH,2006-01-18 01:00,ZHHH 180100Z AUTO 03010KT 4SM 05/04 A3018 RMK T00500040 IEM_DS3505
ZHHH,2006-01-18 02:00,ZHHH 180200Z AUTO 03010KT 3SM 05/04 A3021 RMK T00500040 IEM_DS3505
ZHHH,2006-01-18 03:00,ZHHH 180300Z AUTO 07004KT 6SM 05/04 A3021 RMK SLP229 T00510041 52008 IEM_DS3505
ZHHH,2006-01-18 04:00,ZHHH 180400Z AUTO 04012KT 5SM 05/04 A3018 RMK T00500040 IEM_DS3505
ZHHH,2006-01-18 05:00,ZHHH 180500Z AUTO 02008KT 5SM 05/04 A3018 RMK T00500040 IEM_DS3505
ZHHH,2006-01-18 06:00,ZHHH 180600Z AUTO 04004KT 5SM 05/04 A3015 RMK 60024 SLP209 T00510039 57020 IEM_DS3505
ZHHH,2006-01-18 07:00,ZHHH 180700Z AUTO 03012KT 7SM 05/04 A3012 RMK T00500040 IEM_DS3505
ZHHH,2006-01-18 08:00,ZHHH 180800Z AUTO 03012KT 7SM 05/04 A3012 RMK T00500040 IEM_DS3505
ZHHH,2006-01-18 09:00,ZHHH 180900Z AUTO 02004KT 6SM 05/04 A3015 RMK SLP209 T00490039 54000 IEM_DS3505
ZHHH,2006-01-18 10:00,ZHHH 181000Z AUTO 03010KT 7SM 04/04 A3015 RMK T00400040 IEM_DS3505
ZHHH,2006-01-18 11:00,ZHHH 181100Z AUTO 03012KT 7SM 04/04 A3015 RMK T00400040 IEM_DS3505
ZHHH,2006-01-18 12:00,ZHHH 181200Z AUTO 36002KT 9SM 04/03 A3018 RMK 60039 SLP225 T00430034 52016 IEM_DS3505
ZHHH,2006-01-18 13:00,ZHHH 181300Z AUTO 03014KT 7SM 04/03 A3018 RMK T00400030 IEM_DS3505
ZHHH,2006-01-18 14:00,ZHHH 181400Z AUTO 04014KT 7SM 04/03 A3018 RMK T00400030 IEM_DS3505
ZHHH,2006-01-18 15:00,ZHHH 181500Z AUTO 02004KT 7SM 04/03 A3015 RMK SLP218 T00420027 57007 IEM_DS3505
ZHHH,2006-01-18 16:00,ZHHH 181600Z AUTO 03012KT 7SM 03/03 A3015 RMK T00300030 IEM_DS3505
ZHHH,2006-01-18 17:00,ZHHH 181700Z AUTO 02010KT 7SM 03/02 A3015 RMK T00300020 IEM_DS3505
ZHHH,2006-01-18 19:00,ZHHH 181900Z AUTO 02010KT 7SM 02/02 A3015 RMK T00200020 IEM_DS3505
ZHHH,2006-01-18 20:00,ZHHH 182000Z AUTO 02010KT 7SM 02/02 A3015 RMK T00200020 IEM_DS3505
ZHHH,2006-01-18 21:00,ZHHH 182100Z AUTO 04004KT 5SM 02/02 A3015 RMK 70079 SLP213 T00250015 57005 IEM_DS3505
ZHHH,2006-01-18 22:00,ZHHH 182200Z AUTO 01008KT 7SM 02/02 A3015 RMK T00200020 IEM_DS3505
ZHHH,2006-01-18 23:00,ZHHH 182300Z AUTO 02010KT 7SM 02/01 A3018 RMK T00200010 IEM_DS3505
ZHHH,2006-01-19 00:00,ZHHH 190000Z AUTO 36004KT 6SM 02/01 A3018 RMK 60012 70081 SLP222 T00210012 52008 IEM_DS3505
ZHHH,2006-01-19 01:00,ZHHH 190100Z AUTO 02010KT 7SM 02/01 A3018 RMK T00200010 IEM_DS3505
ZHHH,2006-01-19 02:00,ZHHH 190200Z AUTO 02012KT 7SM 02/01 A3021 RMK T00200010 IEM_DS3505
ZHHH,2006-01-19 03:00,ZHHH 190300Z AUTO 02002KT 6SM 03/01 A3021 RMK SLP234 T00270008 52012 IEM_DS3505
ZHHH,2006-01-19 04:00,ZHHH 190400Z AUTO 02010KT 7SM 02/01 A3021 RMK T00200010 IEM_DS3505
ZHHH,2006-01-19 05:00,ZHHH 190500Z AUTO 02010KT 7SM 02/01 A3018 RMK T00200010 IEM_DS3505
ZHHH,2006-01-19 06:00,ZHHH 190600Z AUTO 02004KT 9SM 02/00 A3018 RMK 60000 SLP216 T00240001 57018 IEM_DS3505
ZHHH,2006-01-19 07:00,ZHHH 190700Z AUTO 02010KT 3SM 02/01 A3018 RMK T00200010 IEM_DS3505
ZHHH,2006-01-19 08:00,ZHHH 190800Z AUTO 02012KT 3SM 02/00 A3018 RMK T00200000 IEM_DS3505
ZHHH,2006-01-19 09:00,ZHHH 190900Z AUTO 04004KT 11SM 02/M00 A3021 RMK SLP232 T00221002 52016 IEM_DS3505
ZHHH,2006-01-19 10:00,ZHHH 191000Z AUTO 03012KT 4SM 02/00 A3024 RMK T00200000 IEM_DS3505
ZHHH,2006-01-19 11:00,ZHHH 191100Z AUTO 03014KT 7SM 02/00 A3024 RMK T00200000 IEM_DS3505
ZHHH,2006-01-19 12:00,ZHHH 191200Z AUTO 04004KT 11SM 02/M01 A3027 RMK 60000 SLP254 T00201006 52022 IEM_DS3505
ZHHH,2006-01-19 14:00,ZHHH 191400Z AUTO 01012KT 7SM 01/00 A3027 RMK T00100000 IEM_DS3505
ZHHH,2006-01-19 15:00,ZHHH 191500Z AUTO 34004KT 11SM 02/M01 A3030 RMK SLP265 T00151009 52011 IEM_DS3505
ZHHH,2006-01-19 16:00,ZHHH 191600Z AUTO 01010KT 7SM 01/00 A3033 RMK T00100000 IEM_DS3505
ZHHH,2006-01-19 17:00,ZHHH 191700Z AUTO 36008KT 7SM 01/00 A3033 RMK T00100000 IEM_DS3505
ZHHH,2006-01-19 18:00,ZHHH 191800Z AUTO 36004KT 9SM 01/M01 A3033 RMK SLP267 T00121010 52002 IEM_DS3505
ZHHH,2006-01-19 19:00,ZHHH 191900Z AUTO 02010KT 7SM 01/M01 A3033 RMK T00101010 IEM_DS3505
ZHHH,2006-01-19 20:00,ZHHH 192000Z AUTO 02012KT 7SM 00/M01 A3030 RMK T00001010 IEM_DS3505
ZHHH,2006-01-19 21:00,ZHHH 192100Z AUTO 34006KT 9SM 01/M02 A3030 RMK 70003 SLP264 T00061018 57003 IEM_DS3505
ZHHH,2006-01-19 22:00,ZHHH 192200Z AUTO 02010KT 3SM 00/M01 A3030 RMK T00001010 IEM_DS3505
ZHHH,2006-01-19 23:00,ZHHH 192300Z AUTO 36008KT 3SM 00/M01 A3033 RMK T00001010 IEM_DS3505
ZHHH,2006-01-20 00:00,ZHHH 200000Z AUTO 34004KT 9SM 01/M02 A3036 RMK 70001 SLP283 T00081016 52019 IEM_DS3505
ZHHH,2006-01-20 01:00,ZHHH 200100Z AUTO 36006KT 2SM 01/M01 A3036 RMK T00101010 IEM_DS3505
ZHHH,2006-01-20 02:00,ZHHH 200200Z AUTO 02010KT 1 1/2SM 01/M01 A3039 RMK T00101010 IEM_DS3505
ZHHH,2006-01-20 03:00,ZHHH 200300Z AUTO 34002KT 9SM 01/M02 A3039 RMK SLP288 T00141015 52005 IEM_DS3505
ZHHH,2006-01-20 04:00,ZHHH 200400Z AUTO 01008KT 2 1/2SM 01/M01 A3036 RMK T00101010 IEM_DS3505
ZHHH,2006-01-20 05:00,ZHHH 200500Z AUTO 01008KT 2SM 01/M01 A3033 RMK T00101010 IEM_DS3505
ZHHH,2006-01-20 07:00,ZHHH 200700Z AUTO 36008KT 1 1/2SM 01/M01 A3030 RMK T00101010 IEM_DS3505
ZHHH,2006-01-20 08:00,ZHHH 200800Z AUTO 01006KT 1 1/2SM 01/M01 A3030 RMK T00101010 IEM_DS3505
ZHHH,2006-01-20 09:00,ZHHH 200900Z AUTO 34004KT 6SM 01/M01 A3030 RMK SLP266 T00091009 52007 IEM_DS3505
ZHHH,2006-01-20 10:00,ZHHH 201000Z AUTO 01008KT 1 1/4SM 00/M01 A3033 RMK T00001010 IEM_DS3505
ZHHH,2006-01-20 11:00,ZHHH 201100Z AUTO 35008KT 1 1/4SM 00/M01 A3036 RMK T00001010 IEM_DS3505
ZHHH,2006-01-20 12:00,ZHHH 201200Z AUTO 36002KT 6SM 01/M01 A3036 RMK 60002 SLP280 T00061008 52014 IEM_DS3505
ZHHH,2006-01-20 13:00,ZHHH 201300Z AUTO 02006KT 1 1/4SM 00/M01 A3036 RMK T00001010 IEM_DS3505
ZHHH,2006-01-20 14:00,ZHHH 201400Z AUTO 35006KT 1 1/4SM 00/M01 A3036 RMK SLP285 T00001010 IEM_DS3505
ZHHH,2006-01-20 15:00,ZHHH 201500Z AUTO 32004KT 7SM 01/M01 A3039 RMK SLP294 T00071011 52014 IEM_DS3505
ZHHH,2006-01-20 16:00,ZHHH 201600Z AUTO 01004KT 1 1/4SM 00/M01 A3036 RMK T00001010 IEM_DS3505
ZHHH,2006-01-20 17:00,ZHHH 201700Z AUTO 01006KT 2SM 00/M01 A3039 RMK T00001010 IEM_DS3505
ZHHH,2006-01-20 18:00,ZHHH 201800Z AUTO 34002KT 9SM 01/M02 A3036 RMK 60002 SLP287 T00061016 57007 IEM_DS3505
ZHHH,2006-01-20 19:00,ZHHH 201900Z AUTO 34006KT 2 1/2SM M01/M02 A3039 RMK SLP295 T10101020 IEM_DS3505
ZHHH,2006-01-20 20:00,ZHHH 202000Z AUTO 34006KT 2 1/2SM M01/M02 A3039 RMK SLP295 T10101020 IEM_DS3505
ZHHH,2006-01-20 21:00,ZHHH 202100Z AUTO 32004KT 9SM M01/M02 A3039 RMK 70005 SLP287 T10061022 54000 IEM_DS3505
ZHHH,2006-01-20 22:00,ZHHH 202200Z AUTO 36004KT 2 1/2SM M01/M02 A3036 RMK SLP285 T10101020 IEM_DS3505
ZHHH,2006-01-20 23:00,ZHHH 202300Z AUTO 35004KT 2SM M02/M02 A3036 RMK SLP285 T10201020 IEM_DS3505
ZHHH,2006-01-21 00:00,ZHHH 210000Z AUTO 36002KT 9SM M01/M03 A3039 RMK 70005 SLP291 T10071026 52004 IEM_DS3505
ZHHH,2006-01-21 01:00,ZHHH 210100Z AUTO 00000KT 1 1/2SM 00/M02 A3039 RMK T00001020 IEM_DS3505
ZHHH,2006-01-21 02:00,ZHHH 210200Z AUTO 31006KT 3SM 01/M01 A3042 RMK T00101010 IEM_DS3505
ZHHH,2006-01-21 03:00,ZHHH 210300Z AUTO 36002KT 9SM 03/M01 A3039 RMK SLP295 T00261012 52004 IEM_DS3505
ZHHH,2006-01-21 04:00,ZHHH 210400Z AUTO 30006KT 4SM 03/00 A3039 RMK T00300000 IEM_DS3505
ZHHH,2006-01-21 05:00,ZHHH 210500Z AUTO 31006KT 6SM 04/00 A3033 RMK T00400000 IEM_DS3505
ZHHH,2006-01-21 06:00,ZHHH 210600Z AUTO 27004KT 11SM 05/M01 A3030 RMK SLP265 T00521006 57030 IEM_DS3505
ZHHH,2006-01-21 07:00,ZHHH 210700Z AUTO 31008KT 7SM 06/00 A3030 RMK T00600000 IEM_DS3505
ZHHH,2006-01-21 08:00,ZHHH 210800Z AUTO 31008KT 4SM 06/01 A3030 RMK T00600010 IEM_DS3505
ZHHH,2006-01-21 09:00,ZHHH 210900Z AUTO 36002KT 11SM 05/M01 A3030 RMK SLP262 T00521006 57003 IEM_DS3505
ZHHH,2006-01-21 10:00,ZHHH 211000Z AUTO 36004KT 4SM 04/00 A3030 RMK T00400000 IEM_DS3505
ZHHH,2006-01-21 11:00,ZHHH 211100Z AUTO 36002KT 3SM 03/01 A3030 RMK T00300010 IEM_DS3505
ZHHH,2006-01-21 12:00,ZHHH 211200Z AUTO 34002KT 11SM 03/M00 A3033 RMK SLP270 T00301005 52008 IEM_DS3505
ZHHH,2006-01-21 13:00,ZHHH 211300Z AUTO 02006KT 3SM 02/00 A3033 RMK T00200000 IEM_DS3505
ZHHH,2006-01-21 14:00,ZHHH 211400Z AUTO 05008KT 3SM 01/M01 A3033 RMK T00101010 IEM_DS3505
ZHHH,2006-01-21 15:00,ZHHH 211500Z AUTO 04002KT 11SM 01/M02 A3033 RMK SLP266 T00141017 57004 IEM_DS3505
ZHHH,2006-01-21 16:00,ZHHH 211600Z AUTO 04006KT 4SM 01/M01 A3033 RMK T00101010 IEM_DS3505
ZHHH,2006-01-21 17:00,ZHHH 211700Z AUTO 04008KT 4SM 00/M02 A3033 RMK T00001020 IEM_DS3505
ZHHH,2006-01-21 18:00,ZHHH 211800Z AUTO 04004KT 9SM 01/M03 A3033 RMK SLP271 T00101026 52005 IEM_DS3505
ZHHH,2006-01-21 19:00,ZHHH 211900Z AUTO 02006KT 4SM 00/M02 A3033 RMK T00001020 IEM_DS3505
ZHHH,2006-01-21 20:00,ZHHH 212000Z AUTO 02002KT 5SM 00/M02 A3036 RMK T00001020 IEM_DS3505
ZHHH,2006-01-21 21:00,ZHHH 212100Z AUTO 04004KT 9SM 01/M03 A3033 RMK SLP273 T00111028 52002 IEM_DS3505
ZHHH,2006-01-21 22:00,ZHHH 212200Z AUTO 05010KT 5SM 00/M02 A3033 RMK T00001020 IEM_DS3505
ZHHH,2006-01-21 23:00,ZHHH 212300Z AUTO 36004KT 5SM 00/M02 A3036 RMK T00001020 IEM_DS3505
ZHHH,2006-01-22 00:00,ZHHH 220000Z AUTO 34002KT 9SM 01/M03 A3039 RMK SLP289 T00091027 52016 IEM_DS3505
ZHHH,2006-01-22 01:00,ZHHH 220100Z AUTO 02008KT 2 1/2SM 01/M02 A3042 RMK T00101020 IEM_DS3505
ZHHH,2006-01-22 02:00,ZHHH 220200Z AUTO 04010KT 2 1/2SM 01/M02 A3042 RMK T00101020 IEM_DS3505
ZHHH,2006-01-22 03:00,ZHHH 220300Z AUTO 02006KT 7SM 02/M03 A3042 RMK SLP301 T00221027 52012 IEM_DS3505
ZHHH,2006-01-22 04:00,ZHHH 220400Z AUTO 03008KT 2 1/2SM 02/M02 A3039 RMK T00201020 IEM_DS3505
ZHHH,2006-01-22 05:00,ZHHH 220500Z AUTO 04006KT 2 1/2SM 04/M01 A3036 RMK T00401010 IEM_DS3505
ZHHH,2006-01-22 06:00,ZHHH 220600Z AUTO 07004KT 9SM 04/M02 A3036 RMK SLP280 T00401020 57021 IEM_DS3505
ZHHH,2006-01-22 07:00,ZHHH 220700Z AUTO 08006KT 3SM 05/M01 A3036 RMK SLP284 T00501010 IEM_DS3505
ZHHH,2006-01-22 08:00,ZHHH 220800Z AUTO 15004KT 3SM 05/M01 A3036 RMK SLP284 T00501010 IEM_DS3505
ZHHH,2006-01-22 09:00,ZHHH 220900Z AUTO 09002KT 9SM 05/M02 A3036 RMK SLP289 T00471022 52009 IEM_DS3505
ZHHH,2006-01-22 10:00,ZHHH 221000Z AUTO 24004KT 3SM 04/M01 A3039 RMK SLP294 T00401010 IEM_DS3505
ZHHH,2006-01-22 11:00,ZHHH 221100Z AUTO 24002KT 3SM 04/00 A3039 RMK T00400000 IEM_DS3505
ZHHH,2006-01-22 12:00,ZHHH 221200Z AUTO 29002KT 9SM 04/M01 A3045 RMK SLP308 T00401008 52019 IEM_DS3505
ZHHH,2006-01-22 13:00,ZHHH 221300Z AUTO 01004KT 2 1/2SM 04/M01 A3045 RMK SLP315 T00401010 IEM_DS3505
ZHHH,2006-01-22 14:00,ZHHH 221400Z AUTO 03004KT 2SM 03/M01 A3047 RMK SLP321 T00301010 IEM_DS3505
ZHHH,2006-01-22 15:00,ZHHH 221500Z AUTO 36002KT 9SM 03/M00 A3047 RMK SLP317 T00321004 52009 IEM_DS3505
ZHHH,2006-01-22 16:00,ZHHH 221600Z AUTO 03006KT 2SM 02/M01 A3047 RMK SLP322 T00201010 IEM_DS3505
ZHHH,2006-01-22 17:00,ZHHH 221700Z AUTO 02004KT 2SM 01/M02 A3047 RMK SLP322 T00101020 IEM_DS3505
ZHHH,2006-01-22 18:00,ZHHH 221800Z AUTO 02002KT 11SM 01/M02 A3045 RMK SLP317 T00091015 54000 IEM_DS3505
ZHHH,2006-01-22 19:00,ZHHH 221900Z AUTO 01004KT 2SM 00/M02 A3047 RMK SLP322 T00001020 IEM_DS3505
ZHHH,2006-01-22 20:00,ZHHH 222000Z AUTO 01004KT 2SM 00/M02 A3045 RMK SLP316 T00001020 IEM_DS3505
ZHHH,2006-01-22 21:00,ZHHH 222100Z AUTO 02002KT 7SM 00/M02 A3045 RMK SLP314 T00031021 57003 IEM_DS3505
ZHHH,2006-01-22 22:00,ZHHH 222200Z AUTO 00000KT 1 1/4SM 00/M02 A3047 RMK SLP322 T00001020 IEM_DS3505
ZHHH,2006-01-22 23:00,ZHHH 222300Z AUTO 06002KT 1 1/4SM M01/M02 A3047 RMK SLP322 T10101020 IEM_DS3505
ZHHH,2006-01-23 00:00,ZHHH 230000Z AUTO 00000KT 4SM M00/M02 A3047 RMK SLP323 T10051019 52009 IEM_DS3505
ZHHH,2006-01-23 01:00,ZHHH 230100Z AUTO 1SM 00/M01 A3047 RMK SLP322 T00001010 IEM_DS3505
ZHHH,2006-01-23 02:00,ZHHH 230200Z AUTO 1SM 02/00 A3053 RMK SLP343 T00200000 IEM_DS3505
ZHHH,2006-01-23 03:00,ZHHH 230300Z AUTO 02004KT 7SM 04/M01 A3053 RMK SLP339 T00401012 52016 IEM_DS3505
ZHHH,2006-01-23 04:00,ZHHH 230400Z AUTO 08004KT 2SM 06/M01 A3050 RMK SLP332 T00601010 IEM_DS3505
ZHHH,2006-01-23 05:00,ZHHH 230500Z AUTO 13004KT 2SM 06/00 A3047 RMK SLP321 T00600000 IEM_DS3505
ZHHH,2006-01-23 06:00,ZHHH 230600Z AUTO 02004KT 7SM 07/M02 A3045 RMK SLP309 T00731019 57030 IEM_DS3505
ZHHH,2006-01-23 07:00,ZHHH 230700Z AUTO 13006KT 3SM 07/M01 A3042 RMK SLP304 T00701010 IEM_DS3505
ZHHH,2006-01-23 08:00,ZHHH 230800Z AUTO 12004KT 07/M01 A3042 RMK SLP304 T00701010 IEM_DS3505
ZHHH,2006-01-23 09:00,ZHHH 230900Z AUTO 02004KT 7SM 07/M02 A3042 RMK SLP301 T00691023 57008 IEM_DS3505
ZHHH,2006-01-23 10:00,ZHHH 231000Z AUTO 2SM 06/M01 A3042 RMK SLP304 T00601010 IEM_DS3505
ZHHH,2006-01-23 11:00,ZHHH 231100Z AUTO 00000KT 3SM 05/00 A3042 RMK SLP304 T00500000 IEM_DS3505
ZHHH,2006-01-23 12:00,ZHHH 231200Z AUTO 25002KT 7SM 02/00 A3045 RMK SLP309 T00240003 52008 IEM_DS3505
ZHHH,2006-01-23 13:00,ZHHH 231300Z AUTO 28002KT 4SM 03/01 A3045 RMK SLP315 T00300010 IEM_DS3505
ZHHH,2006-01-23 14:00,ZHHH 231400Z AUTO 03002KT 3SM 03/00 A3047 RMK SLP321 T00300000 IEM_DS3505
ZHHH,2006-01-23 15:00,ZHHH 231500Z AUTO 04004KT 7SM 02/M00 A3047 RMK SLP326 T00241002 52017 IEM_DS3505
ZHHH,2006-01-23 16:00,ZHHH 231600Z AUTO 00000KT 3SM 02/M01 A3047 RMK SLP322 T00201010 IEM_DS3505
ZHHH,2006-01-23 17:00,ZHHH 231700Z AUTO 02006KT 3SM 01/M01 A3047 RMK SLP322 T00101010 IEM_DS3505
ZHHH,2006-01-23 18:00,ZHHH 231800Z AUTO 36002KT 7SM 01/M00 A3047 RMK SLP318 T00131002 57008 IEM_DS3505
ZHHH,2006-01-23 19:00,ZHHH 231900Z AUTO 36004KT 1SM 00/M01 A3045 RMK SLP316 T00001010 IEM_DS3505
ZHHH,2006-01-23 20:00,ZHHH 232000Z AUTO 35004KT 1SM 00/M01 A3045 RMK SLP316 T00001010 IEM_DS3505
ZHHH,2006-01-23 21:00,ZHHH 232100Z AUTO 32002KT 7SM 00/M01 A3045 RMK SLP314 T00041007 57004 IEM_DS3505
ZHHH,2006-01-23 22:00,ZHHH 232200Z AUTO 36002KT 1/2SM M01/M01 A3045 RMK SLP316 T10101010 IEM_DS3505
ZHHH,2006-01-23 23:00,ZHHH 232300Z AUTO 1/2SM 00/00 A3045 RMK SLP316 T00000000 IEM_DS3505
ZHHH,2006-01-24 00:00,ZHHH 240000Z AUTO 09002KT 6SM 01/M00 A3045 RMK SLP316 T00101003 52002 IEM_DS3505
ZHHH,2006-01-24 01:00,ZHHH 240100Z AUTO 11004KT 1/2SM 01/00 A3047 RMK SLP322 T00100000 IEM_DS3505
ZHHH,2006-01-24 02:00,ZHHH 240200Z AUTO 1/2SM 01/01 A3047 RMK SLP322 T00100010 IEM_DS3505
ZHHH,2006-01-24 03:00,ZHHH 240300Z AUTO 04002KT 6SM 03/01 A3047 RMK SLP322 T00260007 52006 IEM_DS3505
ZHHH,2006-01-24 04:00,ZHHH 240400Z AUTO 33004KT 1SM 03/01 A3045 RMK SLP315 T00300010 IEM_DS3505
ZHHH,2006-01-24 05:00,ZHHH 240500Z AUTO 34004KT 1SM 03/01 A3042 RMK SLP304 T00300010 IEM_DS3505
ZHHH,2006-01-24 06:00,ZHHH 240600Z AUTO 04002KT 7SM 04/01 A3042 RMK SLP297 T00410008 57025 IEM_DS3505
ZHHH,2006-01-24 07:00,ZHHH 240700Z AUTO 1SM 04/01 A3039 RMK SLP294 T00400010 IEM_DS3505
ZHHH,2006-01-24 08:00,ZHHH 240800Z AUTO 1SM 04/01 A3039 RMK SLP294 T00400010 IEM_DS3505
ZHHH,2006-01-24 09:00,ZHHH 240900Z AUTO 04002KT 7SM 04/01 A3039 RMK SLP293 T00450010 57004 IEM_DS3505
ZHHH,2006-01-24 10:00,ZHHH 241000Z AUTO 11002KT 1SM 04/02 A3039 RMK SLP294 T00400020 IEM_DS3505
ZHHH,2006-01-24 11:00,ZHHH 241100Z AUTO 15004KT 1SM 04/02 A3039 RMK SLP294 T00400020 IEM_DS3505
ZHHH,2006-01-24 12:00,ZHHH 241200Z AUTO 11002KT 7SM 04/01 A3042 RMK SLP300 T00420011 52007 IEM_DS3505
ZHHH,2006-01-24 13:00,ZHHH 241300Z AUTO 1SM 03/01 A3042 RMK SLP304 T00300010 IEM_DS3505
ZHHH,2006-01-24 14:00,ZHHH 241400Z AUTO 00000KT 1SM 03/02 A3045 RMK SLP315 T00300020 IEM_DS3505
ZHHH,2006-01-24 15:00,ZHHH 241500Z AUTO 36002KT 7SM 04/02 A3045 RMK SLP313 T00380017 52013 IEM_DS3505
ZHHH,2006-01-24 16:00,ZHHH 241600Z AUTO 02004KT 1SM 02/01 A3045 RMK SLP316 T00200010 IEM_DS3505
ZHHH,2006-01-24 17:00,ZHHH 241700Z AUTO 03002KT 1SM 02/01 A3045 RMK SLP316 T00200010 IEM_DS3505
ZHHH,2006-01-24 18:00,ZHHH 241800Z AUTO 02002KT 7SM 02/01 A3045 RMK SLP309 T00220012 57004 IEM_DS3505
ZHHH,2006-01-24 19:00,ZHHH 241900Z AUTO 02006KT 1SM 02/01 A3045 RMK SLP316 T00200010 IEM_DS3505
ZHHH,2006-01-24 20:00,ZHHH 242000Z AUTO 36002KT 1SM 02/02 A3042 RMK SLP305 T00200020 IEM_DS3505
ZHHH,2006-01-24 21:00,ZHHH 242100Z AUTO 07002KT 7SM 02/01 A3045 RMK SLP310 T00230011 52001 IEM_DS3505
ZHHH,2006-01-24 22:00,ZHHH 242200Z AUTO 00000KT 1SM 02/01 A3045 RMK SLP316 T00200010 IEM_DS3505
ZHHH,2006-01-24 23:00,ZHHH 242300Z AUTO 00000KT 1SM 02/01 A3045 RMK SLP316 T00200010 IEM_DS3505
ZHHH,2006-01-25 00:00,ZHHH 250000Z AUTO 32002KT 5SM 03/02 A3047 RMK SLP323 T00290016 52013 IEM_DS3505
ZHHH,2006-01-25 01:00,ZHHH 250100Z AUTO 35004KT 3/8SM 02/02 A3050 RMK SLP333 T00200020 IEM_DS3505
ZHHH,2006-01-25 02:00,ZHHH 250200Z AUTO 1SM 04/03 A3050 RMK SLP332 T00400030 IEM_DS3505
ZHHH,2006-01-25 03:00,ZHHH 250300Z AUTO 02002KT 6SM 06/02 A3050 RMK SLP338 T00560023 52015 IEM_DS3505
ZHHH,2006-01-25 04:00,ZHHH 250400Z AUTO 32004KT 1 1/2SM 05/02 A3050 RMK SLP332 T00500020 IEM_DS3505
ZHHH,2006-01-25 05:00,ZHHH 250500Z AUTO 30006KT 1 1/2SM 06/01 A3047 RMK SLP321 T00600010 IEM_DS3505
ZHHH,2006-01-25 06:00,ZHHH 250600Z AUTO 32004KT 7SM 06/02 A3045 RMK SLP314 T00640015 57024 IEM_DS3505
ZHHH,2006-01-25 07:00,ZHHH 250700Z AUTO 31006KT 1SM 06/03 A3045 RMK SLP315 T00600030 IEM_DS3505
ZHHH,2006-01-25 08:00,ZHHH 250800Z AUTO 31004KT 1SM 06/03 A3045 RMK SLP315 T00600030 IEM_DS3505
ZHHH,2006-01-25 09:00,ZHHH 250900Z AUTO 34002KT 7SM 06/02 A3047 RMK SLP317 T00590024 52003 IEM_DS3505
ZHHH,2006-01-25 10:00,ZHHH 251000Z AUTO 32002KT 1 1/4SM 06/03 A3047 RMK SLP321 T00600030 IEM_DS3505
ZHHH,2006-01-25 11:00,ZHHH 251100Z AUTO 2SM 05/01 A3047 RMK SLP321 T00500010 IEM_DS3505
ZHHH,2006-01-25 12:00,ZHHH 251200Z AUTO 29002KT 7SM 05/02 A3050 RMK SLP330 T00520022 52013 IEM_DS3505
ZHHH,2006-01-25 13:00,ZHHH 251300Z AUTO 03004KT 1 1/2SM 04/02 A3050 RMK SLP332 T00400020 IEM_DS3505
ZHHH,2006-01-25 14:00,ZHHH 251400Z AUTO 02004KT 2 1/2SM 03/01 A3053 RMK SLP343 T00300010 IEM_DS3505
ZHHH,2006-01-25 15:00,ZHHH 251500Z AUTO 35002KT 7SM 03/01 A3053 RMK SLP341 T00270009 52011 IEM_DS3505
ZHHH,2006-01-25 16:00,ZHHH 251600Z AUTO 01002KT 2SM 01/00 A3053 RMK SLP343 T00100000 IEM_DS3505
ZHHH,2006-01-25 17:00,ZHHH 251700Z AUTO 31002KT 1SM 01/00 A3050 RMK SLP333 T00100000 IEM_DS3505
ZHHH,2006-01-25 18:00,ZHHH 251800Z AUTO 27002KT 7SM 02/00 A3050 RMK SLP331 T00160003 57010 IEM_DS3505
ZHHH,2006-01-25 19:00,ZHHH 251900Z AUTO 33004KT 1SM 00/00 A3050 RMK SLP333 T00000000 IEM_DS3505
ZHHH,2006-01-25 20:00,ZHHH 252000Z AUTO 33004KT 1SM 00/M01 A3047 RMK SLP322 T00001010 IEM_DS3505
ZHHH,2006-01-25 21:00,ZHHH 252100Z AUTO 27002KT 7SM 01/M01 A3047 RMK SLP323 T00071006 57008 IEM_DS3505
ZHHH,2006-01-25 22:00,ZHHH 252200Z AUTO 02002KT 1SM M01/M01 A3047 RMK SLP322 T10101010 IEM_DS3505
ZHHH,2006-01-25 23:00,ZHHH 252300Z AUTO 27002KT 1SM M01/M01 A3047 RMK SLP322 T10101010 IEM_DS3505
ZHHH,2006-01-26 00:00,ZHHH 260000Z AUTO 32002KT 5SM 00/M01 A3047 RMK SLP327 T00021007 52004 IEM_DS3505
ZHHH,2006-01-26 01:00,ZHHH 260100Z AUTO 00000KT 1/2SM 00/00 A3050 RMK SLP333 T00000000 IEM_DS3505
ZHHH,2006-01-26 02:00,ZHHH 260200Z AUTO 00000KT 1SM 02/02 A3050 RMK SLP333 T00200020 IEM_DS3505
ZHHH,2006-01-26 03:00,ZHHH 260300Z AUTO 25002KT 7SM 05/01 A3050 RMK SLP332 T00460011 52005 IEM_DS3505
ZHHH,2006-01-26 04:00,ZHHH 260400Z AUTO 1 1/4SM 05/02 A3047 RMK SLP321 T00500020 IEM_DS3505
ZHHH,2006-01-26 05:00,ZHHH 260500Z AUTO 26004KT 07/01 A3042 RMK SLP304 T00700010 IEM_DS3505
ZHHH,2006-01-26 06:00,ZHHH 260600Z AUTO 27002KT 11SM 09/M00 A3039 RMK SLP294 T00861004 57038 IEM_DS3505
ZHHH,2006-01-26 07:00,ZHHH 260700Z AUTO 24006KT 08/01 A3039 RMK SLP294 T00800010 IEM_DS3505
ZHHH,2006-01-26 08:00,ZHHH 260800Z AUTO 26006KT 09/01 A3036 RMK SLP284 T00900010 IEM_DS3505
ZHHH,2006-01-26 09:00,ZHHH 260900Z AUTO 27002KT 11SM 08/01 A3036 RMK SLP283 T00820009 57011 IEM_DS3505
ZHHH,2006-01-26 10:00,ZHHH 261000Z AUTO 27002KT 2SM 07/01 A3036 RMK SLP284 T00700010 IEM_DS3505
ZHHH,2006-01-26 11:00,ZHHH 261100Z AUTO 00000KT 2SM 05/02 A3036 RMK SLP284 T00500020 IEM_DS3505
ZHHH,2006-01-26 12:00,ZHHH 261200Z AUTO 00000KT 9SM 04/01 A3036 RMK SLP284 T00380013 52001 IEM_DS3505
ZHHH,2006-01-26 13:00,ZHHH 261300Z AUTO 00000KT 3SM 05/02 A3036 RMK SLP284 T00500020 IEM_DS3505
ZHHH,2006-01-26 14:00,ZHHH 261400Z AUTO 2 1/2SM 04/01 A3036 RMK SLP284 T00400010 IEM_DS3505
ZHHH,2006-01-26 15:00,ZHHH 261500Z AUTO 12004KT 9SM 02/01 A3036 RMK SLP282 T00200010 57002 IEM_DS3505
ZHHH,2006-01-26 16:00,ZHHH 261600Z AUTO 12004KT 1 1/2SM 04/02 A3036 RMK SLP284 T00400020 IEM_DS3505
ZHHH,2006-01-26 17:00,ZHHH 261700Z AUTO 1 1/4SM 04/02 A3033 RMK SLP274 T00400020 IEM_DS3505
ZHHH,2006-01-26 18:00,ZHHH 261800Z AUTO 00000KT 5SM 01/00 A3033 RMK SLP271 T00100004 57011 IEM_DS3505
ZHHH,2006-01-26 19:00,ZHHH 261900Z AUTO 00000KT 1SM 03/02 A3030 RMK SLP264 T00300020 IEM_DS3505
ZHHH,2006-01-26 20:00,ZHHH 262000Z AUTO 10004KT 1/2SM 02/01 A3030 RMK SLP264 T00200010 IEM_DS3505
ZHHH,2006-01-26 21:00,ZHHH 262100Z AUTO 07002KT 1 1/4SM 00/00 A3027 RMK SLP254 T00050001 57017 IEM_DS3505
ZHHH,2006-01-26 22:00,ZHHH 262200Z AUTO 10004KT 1/8SM 00/00 A3027 RMK T00000000 IEM_DS3505
ZHHH,2006-01-26 23:00,ZHHH 262300Z AUTO 10006KT 00/00 A3030 RMK T00000000 IEM_DS3505
ZHHH,2006-01-27 00:00,ZHHH 270000Z AUTO 04002KT 6SM M00/M00 A3030 RMK SLP262 T10011005 52006 IEM_DS3505
ZHHH,2006-01-27 01:00,ZHHH 270100Z AUTO 12006KT 1/8SM 00/00 A3030 RMK SLP265 T00000000 IEM_DS3505
ZHHH,2006-01-27 02:00,ZHHH 270200Z AUTO 13008KT 1/8SM 01/01 A3030 RMK SLP265 T00100010 IEM_DS3505
ZHHH,2006-01-27 03:00,ZHHH 270300Z AUTO 07002KT 7SM 06/04 A3030 RMK SLP261 T00620040 54000 IEM_DS3505
ZHHH,2006-01-27 04:00,ZHHH 270400Z AUTO 11006KT 1SM 04/04 A3027 RMK SLP254 T00400040 IEM_DS3505
ZHHH,2006-01-27 05:00,ZHHH 270500Z AUTO 12008KT 1SM 08/06 A3021 RMK SLP233 T00800060 IEM_DS3505
ZHHH,2006-01-27 06:00,ZHHH 270600Z AUTO 14004KT 7SM 12/M04 A3018 RMK SLP218 T01161045 57042 IEM_DS3505
ZHHH,2006-01-27 07:00,ZHHH 270700Z AUTO 13006KT 2SM 11/01 A3015 RMK SLP212 T01100010 IEM_DS3505
ZHHH,2006-01-27 08:00,ZHHH 270800Z AUTO 10004KT 2SM 11/01 A3015 RMK SLP212 T01100010 IEM_DS3505
ZHHH,2006-01-27 09:00,ZHHH 270900Z AUTO 09002KT 7SM 12/M03 A3012 RMK SLP202 T01151030 57016 IEM_DS3505
ZHHH,2006-01-27 10:00,ZHHH 271000Z AUTO 06006KT 2SM 09/03 A3012 RMK SLP202 T00900030 IEM_DS3505
ZHHH,2006-01-27 11:00,ZHHH 271100Z AUTO 08006KT 1 1/2SM 08/03 A3012 RMK SLP203 T00800030 IEM_DS3505
ZHHH,2006-01-27 12:00,ZHHH 271200Z AUTO 07002KT 9SM 06/02 A3012 RMK SLP204 T00580023 52001 IEM_DS3505
ZHHH,2006-01-27 13:00,ZHHH 271300Z AUTO 08006KT 1 1/4SM 06/02 A3015 RMK SLP213 T00600020 IEM_DS3505
ZHHH,2006-01-27 14:00,ZHHH 271400Z AUTO 08006KT 1 1/4SM 06/02 A3015 RMK SLP213 T00600020 IEM_DS3505
ZHHH,2006-01-27 15:00,ZHHH 271500Z AUTO 04002KT 7SM 05/02 A3018 RMK SLP217 T00480023 52014 IEM_DS3505
ZHHH,2006-01-27 16:00,ZHHH 271600Z AUTO 05006KT 1 1/4SM 05/02 A3018 RMK SLP223 T00500020 IEM_DS3505
ZHHH,2006-01-27 17:00,ZHHH 271700Z AUTO 08004KT 1 1/4SM 04/01 A3015 RMK SLP213 T00400010 IEM_DS3505
ZHHH,2006-01-27 18:00,ZHHH 271800Z AUTO 09002KT 9SM 04/02 A3015 RMK SLP207 T00450020 57010 IEM_DS3505
ZHHH,2006-01-27 19:00,ZHHH 271900Z AUTO 11006KT 1 1/2SM 04/02 A3012 RMK SLP203 T00400020 IEM_DS3505
ZHHH,2006-01-27 20:00,ZHHH 272000Z AUTO 1 1/2SM 03/01 A3009 RMK SLP193 T00300010 IEM_DS3505
ZHHH,2006-01-27 21:00,ZHHH 272100Z AUTO 02002KT 6SM 03/02 A3009 RMK SLP190 T00280022 57017 IEM_DS3505
ZHHH,2006-01-27 22:00,ZHHH 272200Z AUTO 06006KT 1 1/4SM 03/01 A3009 RMK SLP193 T00300010 IEM_DS3505
ZHHH,2006-01-27 23:00,ZHHH 272300Z AUTO 07006KT 1 1/4SM 03/01 A3009 RMK SLP193 T00300010 IEM_DS3505
ZHHH,2006-01-28 00:00,ZHHH 280000Z AUTO 04002KT 5SM 03/02 A3009 RMK SLP193 T00290020 52003 IEM_DS3505
ZHHH,2006-01-28 01:00,ZHHH 280100Z AUTO 07006KT 1SM 04/02 A3009 RMK SLP193 T00400020 IEM_DS3505
ZHHH,2006-01-28 02:00,ZHHH 280200Z AUTO 11008KT 1 1/4SM 06/04 A3012 RMK SLP203 T00600040 IEM_DS3505
ZHHH,2006-01-28 03:00,ZHHH 280300Z AUTO 14002KT 6SM 09/04 A3012 RMK SLP196 T00900040 52003 IEM_DS3505
ZHHH,2006-01-28 04:00,ZHHH 280400Z AUTO 13006KT 1SM 09/05 A3009 RMK SLP192 T00900050 IEM_DS3505
ZHHH,2006-01-28 05:00,ZHHH 280500Z AUTO 12004KT 1SM 11/06 A3003 RMK SLP172 T01100060 IEM_DS3505
ZHHH,2006-01-28 06:00,ZHHH 280600Z AUTO 20002KT 7SM 14/04 A3003 RMK SLP167 T01390042 57029 IEM_DS3505
ZHHH,2006-01-28 07:00,ZHHH 280700Z AUTO 1 1/2SM 14/05 A3000 RMK SLP162 T01400050 IEM_DS3505
ZHHH,2006-01-28 08:00,ZHHH 280800Z AUTO 22004KT 2 1/2SM 14/05 A3000 RMK SLP162 T01400050 IEM_DS3505
ZHHH,2006-01-28 09:00,ZHHH 280900Z AUTO 11002KT 9SM 13/04 A3000 RMK SLP159 T01320044 57008 IEM_DS3505
ZHHH,2006-01-28 10:00,ZHHH 281000Z AUTO 12006KT 1 1/4SM 11/05 A3000 RMK SLP162 T01100050 IEM_DS3505
ZHHH,2006-01-28 11:00,ZHHH 281100Z AUTO 11006KT 1 1/2SM 10/06 A3000 RMK SLP162 T01000060 IEM_DS3505
ZHHH,2006-01-28 12:00,ZHHH 281200Z AUTO 09002KT 9SM 07/04 A3000 RMK SLP163 T00720045 52004 IEM_DS3505
ZHHH,2006-01-28 13:00,ZHHH 281300Z AUTO 12006KT 2 1/2SM 09/06 A3000 RMK SLP162 T00900060 IEM_DS3505
ZHHH,2006-01-28 14:00,ZHHH 281400Z AUTO 12006KT 2 1/2SM 08/06 A3000 RMK SLP162 T00800060 IEM_DS3505
ZHHH,2006-01-28 15:00,ZHHH 281500Z AUTO 11002KT 9SM 08/04 A3000 RMK SLP162 T00780044 57001 IEM_DS3505
ZHHH,2006-01-28 16:00,ZHHH 281600Z AUTO 11006KT 2SM 07/05 A3000 RMK SLP163 T00700050 IEM_DS3505
ZHHH,2006-01-28 17:00,ZHHH 281700Z AUTO 12006KT 1 1/2SM 07/05 A3000 RMK SLP163 T00700050 IEM_DS3505
ZHHH,2006-01-28 18:00,ZHHH 281800Z AUTO 11002KT 7SM 08/04 A3000 RMK SLP164 T00790041 52002 IEM_DS3505
ZHHH,2006-01-28 19:00,ZHHH 281900Z AUTO 11010KT 1SM 06/05 A3000 RMK SLP163 T00600050 IEM_DS3505
ZHHH,2006-01-28 20:00,ZHHH 282000Z AUTO 11010KT 1SM 07/05 A3000 RMK SLP163 T00700050 IEM_DS3505
ZHHH,2006-01-28 21:00,ZHHH 282100Z AUTO 09002KT 9SM 04/03 A3003 RMK SLP166 T00420032 52002 IEM_DS3505
ZHHH,2006-01-28 22:00,ZHHH 282200Z AUTO 11010KT 1SM 06/04 A3003 RMK SLP173 T00600040 IEM_DS3505
ZHHH,2006-01-28 23:00,ZHHH 282300Z AUTO 11010KT 1SM 06/04 A3003 RMK SLP173 T00600040 IEM_DS3505
ZHHH,2006-01-29 00:00,ZHHH 290000Z AUTO 11004KT 7SM 06/04 A3003 RMK SLP170 T00630043 52004 IEM_DS3505
ZHHH,2006-01-29 01:00,ZHHH 290100Z AUTO 12008KT 1 1/4SM 08/05 A3003 RMK SLP172 T00800050 IEM_DS3505
ZHHH,2006-01-29 02:00,ZHHH 290200Z AUTO 12010KT 1 1/4SM 10/06 A3006 RMK SLP182 T01000060 IEM_DS3505
ZHHH,2006-01-29 04:00,ZHHH 290400Z AUTO 12012KT 2SM 14/08 A3003 RMK SLP172 T01400080 IEM_DS3505
ZHHH,2006-01-29 05:00,ZHHH 290500Z AUTO 11006KT 2SM 15/08 A3000 RMK SLP162 T01500080 IEM_DS3505
ZHHH,2006-01-29 06:00,ZHHH 290600Z AUTO 07004KT 11SM 18/07 A2997 RMK SLP153 T01810066 57019 IEM_DS3505
ZHHH,2006-01-29 07:00,ZHHH 290700Z AUTO 08008KT 3SM 17/09 A3000 RMK SLP162 T01700090 IEM_DS3505
ZHHH,2006-01-29 08:00,ZHHH 290800Z AUTO 10010KT 3SM 17/09 A2997 RMK SLP152 T01700090 IEM_DS3505
ZHHH,2006-01-29 09:00,ZHHH 290900Z AUTO 09002KT 11SM 17/08 A2997 RMK SLP151 T01730076 57003 IEM_DS3505
ZHHH,2006-01-29 10:00,ZHHH 291000Z AUTO 05012KT 1 1/4SM 12/08 A3000 RMK SLP162 T01200080 IEM_DS3505
ZHHH,2006-01-29 11:00,ZHHH 291100Z AUTO 05016KT 2 1/2SM 09/06 A3003 RMK SLP172 T00900060 IEM_DS3505
ZHHH,2006-01-29 12:00,ZHHH 291200Z AUTO 07006KT 9SM 09/05 A3003 RMK SLP176 T00940052 52025 IEM_DS3505
ZHHH,2006-01-29 13:00,ZHHH 291300Z AUTO 04010KT 3SM 06/04 A3009 RMK SLP193 T00600040 IEM_DS3505
ZHHH,2006-01-29 14:00,ZHHH 291400Z AUTO 04016KT 3SM 05/04 A3009 RMK SLP193 T00500040 IEM_DS3505
ZHHH,2006-01-29 15:00,ZHHH 291500Z AUTO 02004KT 7SM 06/04 A3012 RMK SLP201 T00610041 52025 IEM_DS3505
ZHHH,2006-01-29 16:00,ZHHH 291600Z AUTO 02012KT 4SM 05/04 A3012 RMK SLP203 T00500040 IEM_DS3505
ZHHH,2006-01-29 17:00,ZHHH 291700Z AUTO 02008KT 3SM 05/04 A3015 RMK SLP213 T00500040 IEM_DS3505
ZHHH,2006-01-29 18:00,ZHHH 291800Z AUTO 07006KT 9SM 06/03 A3018 RMK SLP222 T00560034 52021 IEM_DS3505
ZHHH,2006-01-29 19:00,ZHHH 291900Z AUTO 02010KT 2 1/2SM 04/03 A3018 RMK SLP223 T00400030 IEM_DS3505
ZHHH,2006-01-29 20:00,ZHHH 292000Z AUTO 02010KT 2 1/2SM 04/03 A3021 RMK SLP233 T00400030 IEM_DS3505
ZHHH,2006-01-29 21:00,ZHHH 292100Z AUTO 04006KT 9SM 05/02 A3021 RMK SLP232 T00490024 52010 IEM_DS3505
ZHHH,2006-01-29 22:00,ZHHH 292200Z AUTO 02010KT 2SM 04/03 A3024 RMK SLP243 T00400030 IEM_DS3505
ZHHH,2006-01-29 23:00,ZHHH 292300Z AUTO 03010KT 1SM 04/03 A3024 RMK SLP243 T00400030 IEM_DS3505
ZHHH,2006-01-30 00:00,ZHHH 300000Z AUTO 02006KT 6SM 05/02 A3027 RMK SLP256 T00460023 52024 IEM_DS3505
ZHHH,2006-01-30 01:00,ZHHH 300100Z AUTO 03008KT 1/2SM 05/03 A3030 RMK SLP264 T00500030 IEM_DS3505
ZHHH,2006-01-30 02:00,ZHHH 300200Z AUTO 03006KT 1/2SM 05/03 A3033 RMK SLP274 T00500030 IEM_DS3505
ZHHH,2006-01-30 03:00,ZHHH 300300Z AUTO 34004KT 7SM 06/03 A3033 RMK SLP276 T00590029 52020 IEM_DS3505
ZHHH,2006-01-30 04:00,ZHHH 300400Z AUTO 30004KT 1/2SM 06/04 A3033 RMK SLP274 T00600040 IEM_DS3505
ZHHH,2006-01-30 05:00,ZHHH 300500Z AUTO 02008KT 1/2SM 06/04 A3033 RMK SLP274 T00600040 IEM_DS3505
ZHHH,2006-01-30 06:00,ZHHH 300600Z AUTO 34004KT 2 1/2SM 06/03 A3030 RMK SLP263 T00650031 57013 IEM_DS3505
ZHHH,2006-01-30 07:00,ZHHH 300700Z AUTO 04012KT 1/2SM 05/03 A3030 RMK SLP264 T00500030 IEM_DS3505
ZHHH,2006-01-30 08:00,ZHHH 300800Z AUTO 03012KT 1SM 05/03 A3030 RMK SLP264 T00500030 IEM_DS3505
ZHHH,2006-01-30 09:00,ZHHH 300900Z AUTO 04006KT 2 1/2SM 05/02 A3033 RMK SLP272 T00490021 52008 IEM_DS3505
ZHHH,2006-01-30 10:00,ZHHH 301000Z AUTO 03012KT 1 1/2SM 03/02 A3036 RMK SLP284 T00300020 IEM_DS3505
ZHHH,2006-01-30 11:00,ZHHH 301100Z AUTO 03008KT 4SM 03/02 A3036 RMK SLP284 T00300020 IEM_DS3505
ZHHH,2006-01-30 12:00,ZHHH 301200Z AUTO 32002KT 9SM 04/02 A3038 RMK 60000 SLP293 T00420017 52021 IEM_DS3505
ZHHH,2006-01-30 13:00,ZHHH 301300Z AUTO 36006KT 3SM 03/02 A3039 RMK SLP294 T00300020 IEM_DS3505
ZHHH,2006-01-30 14:00,ZHHH 301400Z AUTO 02004KT 4SM 03/01 A3042 RMK SLP304 T00300010 IEM_DS3505
ZHHH,2006-01-30 15:00,ZHHH 301500Z AUTO 32004KT 11SM 03/01 A3042 RMK SLP298 T00290010 52005 IEM_DS3505
ZHHH,2006-01-30 16:00,ZHHH 301600Z AUTO 03006KT 4SM 02/01 A3039 RMK T00200010 IEM_DS3505
ZHHH,2006-01-30 17:00,ZHHH 301700Z AUTO 32006KT 4SM 02/01 A3039 RMK T00200010 IEM_DS3505
ZHHH,2006-01-30 18:00,ZHHH 301800Z AUTO 32004KT 7SM 02/00 A3039 RMK 60000 SLP296 T00230004 57002 IEM_DS3505
ZHHH,2006-01-30 19:00,ZHHH 301900Z AUTO 35008KT 4SM 02/01 A3039 RMK T00200010 IEM_DS3505
ZHHH,2006-01-30 20:00,ZHHH 302000Z AUTO 35008KT 4SM 02/01 A3039 RMK T00200010 IEM_DS3505
ZHHH,2006-01-30 21:00,ZHHH 302100Z AUTO 32004KT 7SM 02/00 A3042 RMK 70000 SLP297 T00230000 52001 IEM_DS3505
ZHHH,2006-01-30 22:00,ZHHH 302200Z AUTO 01006KT 4SM 02/01 A3039 RMK T00200010 IEM_DS3505
ZHHH,2006-01-30 23:00,ZHHH 302300Z AUTO 05008KT 4SM 02/00 A3039 RMK T00200000 IEM_DS3505
ZHHH,2006-01-31 00:00,ZHHH 310000Z AUTO 07004KT 7SM 02/00 A3042 RMK 70000 SLP303 T00240003 52006 IEM_DS3505
ZHHH,2006-01-31 01:00,ZHHH 310100Z AUTO 04006KT 2 1/2SM 02/01 A3042 RMK SLP305 T00200010 IEM_DS3505
ZHHH,2006-01-31 02:00,ZHHH 310200Z AUTO 01006KT 2 1/2SM 02/01 A3042 RMK SLP305 T00200010 IEM_DS3505
ZHHH,2006-01-31 03:00,ZHHH 310300Z AUTO 27004KT 7SM 03/00 A3042 RMK SLP313 T00300004 52010 IEM_DS3505
ZHHH,2006-01-31 04:00,ZHHH 310400Z AUTO 29006KT 2 1/2SM 03/01 A3042 RMK SLP304 T00300010 IEM_DS3505
ZHHH,2006-01-31 05:00,ZHHH 310500Z AUTO 32008KT 1 1/2SM 04/02 A3042 RMK SLP304 T00400020 IEM_DS3505
ZHHH,2006-01-31 06:00,ZHHH 310600Z AUTO 27004KT 7SM 04/01 A3039 RMK SLP294 T00410008 57019 IEM_DS3505
ZHHH,2006-01-31 07:00,ZHHH 310700Z AUTO 36006KT 4SM 04/01 A3036 RMK T00400010 IEM_DS3505
ZHHH,2006-01-31 08:00,ZHHH 310800Z AUTO 35004KT 4SM 04/01 A3036 RMK T00400010 IEM_DS3505
ZHHH,2006-01-31 09:00,ZHHH 310900Z AUTO 32002KT 7SM 04/00 A3036 RMK SLP287 T00430004 57007 IEM_DS3505
ZHHH,2006-01-31 10:00,ZHHH 311000Z AUTO 26004KT 3SM 04/02 A3036 RMK SLP284 T00400020 IEM_DS3505
ZHHH,2006-01-31 11:00,ZHHH 311100Z AUTO 26002KT 3SM 04/02 A3039 RMK SLP294 T00400020 IEM_DS3505
ZHHH,2006-01-31 12:00,ZHHH 311200Z AUTO 06004KT 7SM 03/01 A3039 RMK SLP296 T00300006 52009 IEM_DS3505
ZHHH,2006-01-31 13:00,ZHHH 311300Z AUTO 06004KT 2 1/2SM 03/01 A3042 RMK SLP304 T00300010 IEM_DS3505
ZHHH,2006-01-31 14:00,ZHHH 311400Z AUTO 2 1/2SM 02/01 A3042 RMK SLP305 T00200010 IEM_DS3505
ZHHH,2006-01-31 15:00,ZHHH 311500Z AUTO 36002KT 7SM 03/01 A3042 RMK SLP305 T00270009 52009 IEM_DS3505
ZHHH,2006-01-31 16:00,ZHHH 311600Z AUTO 35004KT 1 1/2SM 01/00 A3042 RMK SLP305 T00100000 IEM_DS3505
ZHHH,2006-01-31 17:00,ZHHH 311700Z AUTO 13004KT 1 1/4SM 01/01 A3039 RMK SLP295 T00100010 IEM_DS3505
ZHHH,2006-01-31 18:00,ZHHH 311800Z AUTO 25002KT 9SM 02/01 A3036 RMK SLP292 T00210009 57013 IEM_DS3505
ZHHH,2006-01-31 19:00,ZHHH 311900Z AUTO 32002KT 1SM 00/00 A3039 RMK SLP295 T00000000 IEM_DS3505
ZHHH,2006-01-31 20:00,ZHHH 312000Z AUTO 32004KT 1SM 00/00 A3042 RMK SLP305 T00000000 IEM_DS3505
ZHHH,2006-01-31 21:00,ZHHH 312100Z AUTO 29002KT 7SM 01/M00 A3042 RMK SLP305 T00091001 52013 IEM_DS3505
ZHHH,2006-01-31 22:00,ZHHH 312200Z AUTO 06002KT 1SM 00/00 A3042 RMK SLP305 T00000000 IEM_DS3505
ZHHH,2006-01-31 23:00,ZHHH 312300Z AUTO 10002KT 1SM 00/00 A3042 RMK SLP305 T00000000 IEM_DS3505
ZHHH,2006-02-01 00:00,ZHHH 010000Z AUTO 09002KT 6SM 01/00 A3045 RMK SLP306 T00120005 52001 IEM_DS3505
ZHHH,2006-02-01 01:00,ZHHH 010100Z AUTO 12006KT 1/8SM 00/00 A3045 RMK T00000000 IEM_DS3505
ZHHH,2006-02-01 02:00,ZHHH 010200Z AUTO 14004KT 1/4SM 02/02 A3045 RMK T00200020 IEM_DS3505
ZHHH,2006-02-01 03:00,ZHHH 010300Z AUTO 16002KT 7SM 06/02 A3042 RMK SLP301 T00560019 57005 IEM_DS3505
ZHHH,2006-02-01 04:00,ZHHH 010400Z AUTO 12006KT 1 1/4SM 06/04 A3039 RMK T00600040 IEM_DS3505
ZHHH,2006-02-01 05:00,ZHHH 010500Z AUTO 12006KT 1 1/2SM 07/03 A3036 RMK T00700030 IEM_DS3505
ZHHH,2006-02-01 06:00,ZHHH 010600Z AUTO 09006KT 7SM 09/02 A3030 RMK SLP262 T00910022 57038 IEM_DS3505
ZHHH,2006-02-01 07:00,ZHHH 010700Z AUTO 11012KT 3SM 08/04 A3027 RMK T00800040 IEM_DS3505
ZHHH,2006-02-01 08:00,ZHHH 010800Z AUTO 11012KT 4SM 08/04 A3024 RMK T00800040 IEM_DS3505
ZHHH,2006-02-01 09:00,ZHHH 010900Z AUTO 09004KT 9SM 08/03 A3024 RMK SLP238 T00820029 57024 IEM_DS3505
ZHHH,2006-02-01 10:00,ZHHH 011000Z AUTO 12008KT 3SM 07/04 A3024 RMK T00700040 IEM_DS3505
ZHHH,2006-02-01 11:00,ZHHH 011100Z AUTO 11008KT 3SM 06/04 A3024 RMK T00600040 IEM_DS3505
ZHHH,2006-02-01 12:00,ZHHH 011200Z AUTO 07006KT 7SM 07/04 A3024 RMK SLP239 T00670035 54000 IEM_DS3505
ZHHH,2006-02-01 13:00,ZHHH 011300Z AUTO 03006KT 4SM 06/04 A3027 RMK T00600040 IEM_DS3505
ZHHH,2006-02-01 14:00,ZHHH 011400Z AUTO 07010KT 4SM 06/04 A3030 RMK T00600040 IEM_DS3505
ZHHH,2006-02-01 15:00,ZHHH 011500Z AUTO 09004KT 7SM 06/04 A3030 RMK SLP257 T00650040 52019 IEM_DS3505
ZHHH,2006-02-01 16:00,ZHHH 011600Z AUTO 04010KT 2SM 06/04 A3027 RMK T00600040 IEM_DS3505
ZHHH,2006-02-01 17:00,ZHHH 011700Z AUTO 05008KT 1 1/2SM 05/04 A3027 RMK T00500040 IEM_DS3505
ZHHH,2006-02-01 18:00,ZHHH 011800Z AUTO 07004KT 7SM 06/03 RMK SLP250 T00580031 57007 IEM_DS3505
ZHHH,2006-02-01 19:00,ZHHH 011900Z AUTO 05010KT 4SM 05/04 A3027 RMK T00500040 IEM_DS3505
ZHHH,2006-02-01 20:00,ZHHH 012000Z AUTO 04006KT 4SM 05/04 A3024 RMK T00500040 IEM_DS3505
ZHHH,2006-02-01 21:00,ZHHH 012100Z AUTO 04006KT 7SM 05/03 A3024 RMK SLP241 T00540032 57009 IEM_DS3505
ZHHH,2006-02-01 22:00,ZHHH 012200Z AUTO 03006KT 4SM 05/04 A3024 RMK T00500040 IEM_DS3505
ZHHH,2006-02-01 23:00,ZHHH 012300Z AUTO 03006KT 3SM 05/04 A3027 RMK T00500040 IEM_DS3505
ZHHH,2006-02-02 00:00,ZHHH 020000Z AUTO 34002KT 6SM 05/04 A3030 RMK 60008 70008 SLP261 T00490039 52020 IEM_DS3505
ZHHH,2006-02-02 01:00,ZHHH 020100Z AUTO 02006KT 1SM 04/04 A3033 RMK T00400040 IEM_DS3505
ZHHH,2006-02-02 02:00,ZHHH 020200Z AUTO 03008KT 1SM 04/04 A3033 RMK T00400040 IEM_DS3505
ZHHH,2006-02-02 03:00,ZHHH 020300Z AUTO 09002KT 6SM 05/04 A3036 RMK SLP275 T00490037 52014 IEM_DS3505
ZHHH,2006-02-02 04:00,ZHHH 020400Z AUTO 03010KT 1 1/4SM 04/04 A3033 RMK T00400040 IEM_DS3505
ZHHH,2006-02-02 05:00,ZHHH 020500Z AUTO 04010KT 2SM 04/04 A3033 RMK T00400040 IEM_DS3505
ZHHH,2006-02-02 06:00,ZHHH 020600Z AUTO 04006KT 6SM 04/04 A3033 RMK 60012 SLP275 T00450035 54000 IEM_DS3505
ZHHH,2006-02-02 07:00,ZHHH 020700Z AUTO 03010KT 3SM 04/04 A3036 RMK T00400040 IEM_DS3505
ZHHH,2006-02-02 08:00,ZHHH 020800Z AUTO 02010KT 2 1/2SM 04/04 A3036 RMK T00400040 IEM_DS3505
ZHHH,2006-02-02 09:00,ZHHH 020900Z AUTO 04006KT 6SM 04/03 A3036 RMK SLP288 T00440032 52012 IEM_DS3505
ZHHH,2006-02-02 10:00,ZHHH 021000Z AUTO 01008KT 2 1/2SM 04/03 A3039 RMK T00400030 IEM_DS3505
ZHHH,2006-02-02 11:00,ZHHH 021100Z AUTO 02010KT 4SM 04/03 A3042 RMK T00400030 IEM_DS3505
ZHHH,2006-02-02 12:00,ZHHH 021200Z AUTO 02002KT 6SM 04/03 A3042 RMK 60012 SLP308 T00400027 52020 IEM_DS3505
ZHHH,2006-02-02 13:00,ZHHH 021300Z AUTO 02010KT 4SM 04/03 A3045 RMK T00400030 IEM_DS3505
ZHHH,2006-02-02 14:00,ZHHH 021400Z AUTO 02010KT 4SM 03/03 A3047 RMK T00300030 IEM_DS3505
ZHHH,2006-02-02 15:00,ZHHH 021500Z AUTO 04006KT 7SM 04/02 A3050 RMK SLP330 T00400019 52022 IEM_DS3505
ZHHH,2006-02-02 16:00,ZHHH 021600Z AUTO 03010KT 4SM 03/02 A3050 RMK T00300020 IEM_DS3505
ZHHH,2006-02-02 17:00,ZHHH 021700Z AUTO 02008KT 4SM 03/02 A3050 RMK T00300020 IEM_DS3505
ZHHH,2006-02-02 18:00,ZHHH 021800Z AUTO 02006KT 7SM 04/01 A3053 RMK 60001 SLP342 T00400014 52012 IEM_DS3505
ZHHH,2006-02-02 19:00,ZHHH 021900Z AUTO 03012KT 3SM 04/02 A3053 RMK T00400020 IEM_DS3505
ZHHH,2006-02-02 20:00,ZHHH 022000Z AUTO 02008KT 3SM 04/02 A3056 RMK T00400020 IEM_DS3505
ZHHH,2006-02-02 21:00,ZHHH 022100Z AUTO 02004KT 7SM 04/02 A3056 RMK 70030 SLP349 T00410016 52007 IEM_DS3505
ZHHH,2006-02-02 22:00,ZHHH 022200Z AUTO 03012KT 3SM 04/02 A3059 RMK T00400020 IEM_DS3505
ZHHH,2006-02-02 23:00,ZHHH 022300Z AUTO 03014KT 3SM 04/02 A3062 RMK T00400020 IEM_DS3505
ZHHH,2006-02-03 00:00,ZHHH 030000Z AUTO 04004KT 7SM 04/02 A3062 RMK 60000 70022 SLP373 T00400019 52024 IEM_DS3505
ZHHH,2006-02-03 01:00,ZHHH 030100Z AUTO 04012KT 1 1/4SM 03/02 A3065 RMK T00300020 IEM_DS3505
ZHHH,2006-02-03 02:00,ZHHH 030200Z AUTO 04016KT 1 1/4SM 02/00 A3065 RMK T00200000 IEM_DS3505
ZHHH,2006-02-03 03:00,ZHHH 030300Z AUTO 04006KT 6SM 03/M00 A3068 RMK SLP393 T00281003 52020 IEM_DS3505
ZHHH,2006-02-03 04:00,ZHHH 030400Z AUTO 04010KT 2SM 02/00 A3068 RMK T00200000 IEM_DS3505
ZHHH,2006-02-03 05:00,ZHHH 030500Z AUTO 03012KT 4SM 02/00 A3068 RMK T00200000 IEM_DS3505
ZHHH,2006-02-03 06:00,ZHHH 030600Z AUTO 04006KT 6SM 03/M01 A3065 RMK 60002 SLP384 T00271011 57009 IEM_DS3505
ZHHH,2006-02-03 07:00,ZHHH 030700Z AUTO 04014KT 3SM 02/M01 A3065 RMK T00201010 IEM_DS3505
ZHHH,2006-02-03 08:00,ZHHH 030800Z AUTO 04012KT 1 1/4SM 01/M01 A3068 RMK T00101010 IEM_DS3505
ZHHH,2006-02-03 09:00,ZHHH 030900Z AUTO 02008KT 4SM 01/M01 A3068 RMK SLP393 T00091009 52009 IEM_DS3505
ZHHH,2006-02-03 10:00,ZHHH 031000Z AUTO 04012KT 2SM 00/M01 A3071 RMK T00001010 IEM_DS3505
ZHHH,2006-02-03 11:00,ZHHH 031100Z AUTO 04014KT 3SM 00/M01 A3071 RMK T00001010 IEM_DS3505
ZHHH,2006-02-03 12:00,ZHHH 031200Z AUTO 02004KT 6SM 00/M01 A3074 RMK 60004 SLP410 T00021014 52017 IEM_DS3505
ZHHH,2006-02-03 13:00,ZHHH 031300Z AUTO 04010KT 7SM 00/M02 A3074 RMK T00001020 IEM_DS3505
ZHHH,2006-02-03 14:00,ZHHH 031400Z AUTO 04008KT 7SM 00/M02 A3077 RMK T00001020 IEM_DS3505
ZHHH,2006-02-03 15:00,ZHHH 031500Z AUTO 02004KT 6SM 01/M03 A3077 RMK SLP419 T00061028 52009 IEM_DS3505
ZHHH,2006-02-03 16:00,ZHHH 031600Z AUTO 03006KT 7SM 00/M02 A3077 RMK T00001020 IEM_DS3505
ZHHH,2006-02-03 17:00,ZHHH 031700Z AUTO 03006KT 7SM 00/M02 A3074 RMK T00001020 IEM_DS3505
ZHHH,2006-02-03 18:00,ZHHH 031800Z AUTO 07004KT 7SM 01/M03 A3074 RMK 60000 SLP411 T00071030 57008 IEM_DS3505
ZHHH,2006-02-03 19:00,ZHHH 031900Z AUTO 04008KT 7SM 00/M03 A3074 RMK T00001030 IEM_DS3505
ZHHH,2006-02-03 20:00,ZHHH 032000Z AUTO 04008KT 7SM 00/M03 A3071 RMK T00001030 IEM_DS3505
ZHHH,2006-02-03 21:00,ZHHH 032100Z AUTO 02004KT 9SM 00/M03 A3071 RMK 70006 SLP399 T00051034 57012 IEM_DS3505
ZHHH,2006-02-03 22:00,ZHHH 032200Z AUTO 04006KT 7SM 00/M03 A3071 RMK T00001030 IEM_DS3505
ZHHH,2006-02-03 23:00,ZHHH 032300Z AUTO 05006KT 7SM 00/M03 A3071 RMK T00001030 IEM_DS3505
ZHHH,2006-02-04 00:00,ZHHH 040000Z AUTO 04004KT 9SM 01/M03 A3071 RMK 70006 SLP401 T00061031 52002 IEM_DS3505
ZHHH,2006-02-04 01:00,ZHHH 040100Z AUTO 05006KT 6SM 00/M03 A3071 RMK T00001030 IEM_DS3505
ZHHH,2006-02-04 02:00,ZHHH 040200Z AUTO 05008KT 6SM 01/M02 A3071 RMK T00101020 IEM_DS3505
ZHHH,2006-02-04 03:00,ZHHH 040300Z AUTO 04002KT 9SM 03/M02 A3068 RMK SLP395 T00281021 57006 IEM_DS3505
ZHHH,2006-02-04 04:00,ZHHH 040400Z AUTO 10004KT 6SM 03/M02 A3065 RMK T00301020 IEM_DS3505
ZHHH,2006-02-04 05:00,ZHHH 040500Z AUTO 05006KT 6SM 04/M02 A3059 RMK T00401020 IEM_DS3505
ZHHH,2006-02-04 06:00,ZHHH 040600Z AUTO 04006KT 11SM 06/M04 A3056 RMK SLP355 T00551036 57040 IEM_DS3505
ZHHH,2006-02-04 07:00,ZHHH 040700Z AUTO 08004KT 6SM 06/M01 A3053 RMK T00601010 IEM_DS3505
ZHHH,2006-02-04 08:00,ZHHH 040800Z AUTO 06006KT 6SM 05/M02 A3053 RMK T00501020 IEM_DS3505
ZHHH,2006-02-04 09:00,ZHHH 040900Z AUTO 07004KT 11SM 05/M03 A3050 RMK SLP335 T00541029 57020 IEM_DS3505
ZHHH,2006-02-04 10:00,ZHHH 041000Z AUTO 09004KT 6SM 05/M01 A3050 RMK T00501010 IEM_DS3505
ZHHH,2006-02-04 11:00,ZHHH 041100Z AUTO 6SM 05/M02 A3050 RMK T00501020 IEM_DS3505
ZHHH,2006-02-04 13:00,ZHHH 041300Z AUTO 03006KT 6SM 04/00 A3053 RMK T00400000 IEM_DS3505
ZHHH,2006-02-04 14:00,ZHHH 041400Z AUTO 05012KT 6SM 03/00 A3050 RMK T00300000 IEM_DS3505
ZHHH,2006-02-04 15:00,ZHHH 041500Z AUTO 04004KT 9SM 04/M00 A3050 RMK SLP334 T00431003 57004 IEM_DS3505
ZHHH,2006-02-04 16:00,ZHHH 041600Z AUTO 05006KT 7SM 03/00 A3050 RMK T00300000 IEM_DS3505
ZHHH,2006-02-04 17:00,ZHHH 041700Z AUTO 04006KT 7SM 02/00 A3047 RMK T00200000 IEM_DS3505
ZHHH,2006-02-04 18:00,ZHHH 041800Z AUTO 02004KT 7SM 03/00 A3045 RMK 60000 SLP315 T00270003 57019 IEM_DS3505
ZHHH,2006-02-04 19:00,ZHHH 041900Z AUTO 03008KT 3SM 01/00 A3045 RMK T00100000 IEM_DS3505
ZHHH,2006-02-04 20:00,ZHHH 042000Z AUTO 04008KT 2SM 01/00 A3042 RMK T00100000 IEM_DS3505
ZHHH,2006-02-04 21:00,ZHHH 042100Z AUTO 04004KT 7SM 01/00 A3039 RMK 70004 SLP298 T00120002 57017 IEM_DS3505
ZHHH,2006-02-04 22:00,ZHHH 042200Z AUTO 02004KT 2SM 01/00 A3042 RMK T00100000 IEM_DS3505
ZHHH,2006-02-04 23:00,ZHHH 042300Z AUTO 05004KT 1SM 00/00 A3039 RMK T00000000 IEM_DS3505
ZHHH,2006-02-05 00:00,ZHHH 050000Z AUTO 04004KT 5SM 01/00 A3042 RMK 60024 70022 SLP300 T00070000 52002 IEM_DS3505
ZHHH,2006-02-05 01:00,ZHHH 050100Z AUTO 36004KT 3/8SM 00/00 A3042 RMK T00000000 IEM_DS3505
ZHHH,2006-02-05 02:00,ZHHH 050200Z AUTO 00000KT 1/2SM 00/00 A3042 RMK T00000000 IEM_DS3505
ZHHH,2006-02-05 03:00,ZHHH 050300Z AUTO 02002KT 6SM 01/00 A3042 RMK SLP301 T00080001 52001 IEM_DS3505
ZHHH,2006-02-05 04:00,ZHHH 050400Z AUTO 1/2SM 00/00 A3039 RMK T00000000 IEM_DS3505
ZHHH,2006-02-05 05:00,ZHHH 050500Z AUTO 34004KT 1/2SM 00/00 A3036 RMK T00000000 IEM_DS3505
ZHHH,2006-02-05 06:00,ZHHH 050600Z AUTO 27002KT 4SM 00/M00 A3033 RMK 60016 SLP272 T00041003 57029 IEM_DS3505
ZHHH,2006-02-05 07:00,ZHHH 050700Z AUTO 30004KT 1SM 00/00 A3030 RMK T00000000 IEM_DS3505
ZHHH,2006-02-05 08:00,ZHHH 050800Z AUTO 30006KT 1SM 00/00 A3030 RMK T00000000 IEM_DS3505
ZHHH,2006-02-05 09:00,ZHHH 050900Z AUTO 32002KT 6SM 01/M00 A3030 RMK SLP265 T00091004 57007 IEM_DS3505
ZHHH,2006-02-05 10:00,ZHHH 051000Z AUTO 28004KT 1 1/4SM 00/00 A3033 RMK T00000000 IEM_DS3505
ZHHH,2006-02-05 11:00,ZHHH 051100Z AUTO 28004KT 1 1/4SM 00/00 A3033 RMK T00000000 IEM_DS3505
ZHHH,2006-02-05 12:00,ZHHH 051200Z AUTO 27004KT 9SM 01/M00 A3033 RMK 60000 SLP277 T00111005 52012 IEM_DS3505
ZHHH,2006-02-05 13:00,ZHHH 051300Z AUTO 25002KT 1 1/4SM 00/00 A3036 RMK T00000000 IEM_DS3505
ZHHH,2006-02-05 14:00,ZHHH 051400Z AUTO 26002KT 1 1/2SM 00/00 A3036 RMK T00000000 IEM_DS3505
ZHHH,2006-02-05 15:00,ZHHH 051500Z AUTO 25004KT 9SM 01/M00 A3033 RMK SLP278 T00111004 52001 IEM_DS3505
ZHHH,2006-02-05 16:00,ZHHH 051600Z AUTO 23004KT 1 1/2SM 00/00 A3033 RMK T00000000 IEM_DS3505
ZHHH,2006-02-05 17:00,ZHHH 051700Z AUTO 1 1/2SM 01/00 A3033 RMK T00100000 IEM_DS3505
ZHHH,2006-02-05 18:00,ZHHH 051800Z AUTO 14002KT 9SM 01/M00 A3030 RMK SLP264 T00131002 57014 IEM_DS3505
ZHHH,2006-02-05 19:00,ZHHH 051900Z AUTO 2SM 01/00 A3030 RMK T00100000 IEM_DS3505
ZHHH,2006-02-05 20:00,ZHHH 052000Z AUTO 22004KT 2SM 01/00 A3030 RMK T00100000 IEM_DS3505
ZHHH,2006-02-05 21:00,ZHHH 052100Z AUTO 29002KT 9SM 02/00 A3027 RMK 70035 SLP258 T00160001 57006 IEM_DS3505
ZHHH,2006-02-05 22:00,ZHHH 052200Z AUTO 22002KT 2SM 01/00 A3027 RMK T00100000 IEM_DS3505
ZHHH,2006-02-05 23:00,ZHHH 052300Z AUTO 24004KT 1 1/4SM 01/01 A3030 RMK T00100010 IEM_DS3505
ZHHH,2006-02-06 00:00,ZHHH 060000Z AUTO 22002KT 9SM 02/M00 A3033 RMK 70017 SLP269 T00191005 52011 IEM_DS3505
ZHHH,2006-02-06 01:00,ZHHH 060100Z AUTO 25004KT 2 1/2SM 01/00 A3036 RMK T00100000 IEM_DS3505
ZHHH,2006-02-06 02:00,ZHHH 060200Z AUTO 26004KT 2 1/2SM 02/00 A3036 RMK T00200000 IEM_DS3505
ZHHH,2006-02-06 03:00,ZHHH 060300Z AUTO 27002KT 9SM 03/00 A3039 RMK SLP290 T00330000 52021 IEM_DS3505
ZHHH,2006-02-06 04:00,ZHHH 060400Z AUTO 29004KT 4SM 02/00 A3036 RMK T00200000 IEM_DS3505
ZHHH,2006-02-06 05:00,ZHHH 060500Z AUTO 25004KT 4SM 03/01 A3036 RMK T00300010 IEM_DS3505
ZHHH,2006-02-06 06:00,ZHHH 060600Z AUTO 27004KT 9SM 04/00 A3033 RMK SLP271 T00410004 57019 IEM_DS3505
ZHHH,2006-02-06 07:00,ZHHH 060700Z AUTO 22008KT 4SM 04/02 A3030 RMK T00400020 IEM_DS3505
ZHHH,2006-02-06 08:00,ZHHH 060800Z AUTO 26004KT 2 1/2SM 04/02 A3030 RMK T00400020 IEM_DS3505
ZHHH,2006-02-06 09:00,ZHHH 060900Z AUTO 27002KT 9SM 05/01 A3030 RMK SLP268 T00460009 57003 IEM_DS3505
ZHHH,2006-02-06 10:00,ZHHH 061000Z AUTO 19004KT 2SM 04/02 A3033 RMK T00400020 IEM_DS3505
ZHHH,2006-02-06 11:00,ZHHH 061100Z AUTO 20004KT 2SM 04/02 A3036 RMK T00400020 IEM_DS3505
ZHHH,2006-02-06 12:00,ZHHH 061200Z AUTO 25002KT 7SM 05/02 A3036 RMK SLP286 T00460015 52018 IEM_DS3505
ZHHH,2006-02-06 13:00,ZHHH 061300Z AUTO 00000KT 2SM 04/02 A3039 RMK T00400020 IEM_DS3505
ZHHH,2006-02-06 14:00,ZHHH 061400Z AUTO 2SM 04/02 A3039 RMK T00400020 IEM_DS3505
ZHHH,2006-02-06 15:00,ZHHH 061500Z AUTO 00000KT 9SM 04/02 A3039 RMK SLP295 T00430017 52009 IEM_DS3505
ZHHH,2006-02-06 16:00,ZHHH 061600Z AUTO 18002KT 2SM 03/02 A3039 RMK T00300020 IEM_DS3505
ZHHH,2006-02-06 17:00,ZHHH 061700Z AUTO 09004KT 2SM 03/02 A3039 RMK T00300020 IEM_DS3505
ZHHH,2006-02-06 18:00,ZHHH 061800Z AUTO 07002KT 7SM 04/01 A3039 RMK SLP295 T00380013 54000 IEM_DS3505
ZHHH,2006-02-06 19:00,ZHHH 061900Z AUTO 1 1/2SM 03/01 A3039 RMK T00300010 IEM_DS3505
ZHHH,2006-02-06 20:00,ZHHH 062000Z AUTO 10004KT 1 1/2SM 02/01 A3036 RMK T00200010 IEM_DS3505
ZHHH,2006-02-06 21:00,ZHHH 062100Z AUTO 22002KT 9SM 03/01 A3039 RMK SLP293 T00290010 57002 IEM_DS3505
ZHHH,2006-02-06 22:00,ZHHH 062200Z AUTO 2SM 02/01 A3042 RMK T00200010 IEM_DS3505
ZHHH,2006-02-06 23:00,ZHHH 062300Z AUTO 08004KT 1 1/2SM 02/01 A3042 RMK T00200010 IEM_DS3505
ZHHH,2006-02-07 00:00,ZHHH 070000Z AUTO 07004KT 9SM 02/00 A3045 RMK SLP312 T00220004 52019 IEM_DS3505
ZHHH,2006-02-07 01:00,ZHHH 070100Z AUTO 10008KT 1 1/2SM 01/01 A3045 RMK T00100010 IEM_DS3505
ZHHH,2006-02-07 02:00,ZHHH 070200Z AUTO 10006KT 2SM 02/01 A3047 RMK T00200010 IEM_DS3505
ZHHH,2006-02-07 03:00,ZHHH 070300Z AUTO 09002KT 9SM 05/01 A3047 RMK SLP321 T00480013 52009 IEM_DS3505
ZHHH,2006-02-07 04:00,ZHHH 070400Z AUTO 08006KT 2 1/2SM 04/02 A3047 RMK T00400020 IEM_DS3505
ZHHH,2006-02-07 05:00,ZHHH 070500Z AUTO 08008KT 3SM 07/04 A3045 RMK T00700040 IEM_DS3505
ZHHH,2006-02-07 06:00,ZHHH 070600Z AUTO 02004KT 11SM 08/02 A3042 RMK SLP302 T00790017 57018 IEM_DS3505
ZHHH,2006-02-07 07:00,ZHHH 070700Z AUTO 12004KT 3SM 09/02 A3042 RMK T00900020 IEM_DS3505
ZHHH,2006-02-07 08:00,ZHHH 070800Z AUTO 08008KT 4SM 09/02 A3039 RMK T00900020 IEM_DS3505
ZHHH,2006-02-07 09:00,ZHHH 070900Z AUTO 09002KT 9SM 08/02 A3042 RMK SLP296 T00830023 57007 IEM_DS3505
ZHHH,2006-02-07 10:00,ZHHH 071000Z AUTO 08008KT 3SM 08/02 A3042 RMK T00800020 IEM_DS3505
ZHHH,2006-02-07 11:00,ZHHH 071100Z AUTO 07006KT 3SM 08/03 A3045 RMK T00800030 IEM_DS3505
ZHHH,2006-02-07 12:00,ZHHH 071200Z AUTO 07002KT 11SM 08/03 A3045 RMK SLP313 T00790026 52017 IEM_DS3505
ZHHH,2006-02-07 13:00,ZHHH 071300Z AUTO 07004KT 4SM 07/02 A3047 RMK T00700020 IEM_DS3505
ZHHH,2006-02-07 14:00,ZHHH 071400Z AUTO 04004KT 3SM 07/03 A3047 RMK T00700030 IEM_DS3505
ZHHH,2006-02-07 15:00,ZHHH 071500Z AUTO 04002KT 11SM 07/02 A3050 RMK SLP327 T00690024 52014 IEM_DS3505
ZHHH,2006-02-07 16:00,ZHHH 071600Z AUTO 04006KT 3SM 06/02 A3050 RMK T00600020 IEM_DS3505
ZHHH,2006-02-07 17:00,ZHHH 071700Z AUTO 04006KT 4SM 06/02 A3050 RMK T00600020 IEM_DS3505
ZHHH,2006-02-07 18:00,ZHHH 071800Z AUTO 09004KT 9SM 06/00 A3050 RMK SLP331 T00630004 52005 IEM_DS3505
ZHHH,2006-02-07 19:00,ZHHH 071900Z AUTO 07008KT 4SM 05/01 A3050 RMK T00500010 IEM_DS3505
ZHHH,2006-02-07 20:00,ZHHH 072000Z AUTO 04006KT 4SM 05/01 A3050 RMK T00500010 IEM_DS3505
ZHHH,2006-02-07 21:00,ZHHH 072100Z AUTO 04004KT 9SM 06/M01 A3050 RMK SLP333 T00561007 52002 IEM_DS3505
ZHHH,2006-02-07 22:00,ZHHH 072200Z AUTO 04008KT 4SM 04/M01 A3053 RMK T00401010 IEM_DS3505
ZHHH,2006-02-07 23:00,ZHHH 072300Z AUTO 05008KT 6SM 03/M01 A3053 RMK T00301010 IEM_DS3505
ZHHH,2006-02-08 00:00,ZHHH 080000Z AUTO 04004KT 9SM 04/M00 A3056 RMK SLP355 T00431003 52022 IEM_DS3505
ZHHH,2006-02-08 01:00,ZHHH 080100Z AUTO 04012KT 6SM 03/M02 A3059 RMK T00301020 IEM_DS3505
ZHHH,2006-02-08 02:00,ZHHH 080200Z AUTO 04012KT 6SM 03/M02 A3059 RMK T00301020 IEM_DS3505
ZHHH,2006-02-08 03:00,ZHHH 080300Z AUTO 07006KT 9SM 04/M04 A3062 RMK SLP377 T00411036 52022 IEM_DS3505
ZHHH,2006-02-08 04:00,ZHHH 080400Z AUTO 03010KT 6SM 03/M02 A3065 RMK T00301020 IEM_DS3505
ZHHH,2006-02-08 05:00,ZHHH 080500Z AUTO 03008KT 7SM 04/M03 A3065 RMK T00401030 IEM_DS3505
ZHHH,2006-02-08 06:00,ZHHH 080600Z AUTO 04004KT 9SM 05/M04 A3062 RMK 60000 SLP372 T00481042 57005 IEM_DS3505
ZHHH,2006-02-08 07:00,ZHHH 080700Z AUTO 06008KT 6SM 05/M03 A3062 RMK T00501030 IEM_DS3505
ZHHH,2006-02-08 08:00,ZHHH 080800Z AUTO 04006KT 6SM 05/M03 A3065 RMK T00501030 IEM_DS3505
ZHHH,2006-02-08 09:00,ZHHH 080900Z AUTO 27002KT 9SM 05/M04 A3068 RMK SLP388 T00501035 52016 IEM_DS3505
ZHHH,2006-02-08 10:00,ZHHH 081000Z AUTO 04008KT 6SM 04/M04 A3068 RMK T00401040 IEM_DS3505
ZHHH,2006-02-08 11:00,ZHHH 081100Z AUTO 02008KT 6SM 03/M04 A3071 RMK T00301040 IEM_DS3505
ZHHH,2006-02-08 12:00,ZHHH 081200Z AUTO 04004KT 9SM 04/M04 A3071 RMK SLP409 T00361044 52021 IEM_DS3505
ZHHH,2006-02-08 13:00,ZHHH 081300Z AUTO 03010KT 7SM 02/M04 A3074 RMK T00201040 IEM_DS3505
ZHHH,2006-02-08 14:00,ZHHH 081400Z AUTO 04012KT 7SM 00/M01 A3077 RMK T00001010 IEM_DS3505
ZHHH,2006-02-08 15:00,ZHHH 081500Z AUTO 04004KT 7SM 01/M01 A3077 RMK SLP426 T00111011 52017 IEM_DS3505
ZHHH,2006-02-08 16:00,ZHHH 081600Z AUTO 02006KT 3SM 00/M01 A3077 RMK T00001010 IEM_DS3505
ZHHH,2006-02-08 17:00,ZHHH 081700Z AUTO 03006KT 3SM 00/M01 A3077 RMK T00001010 IEM_DS3505
ZHHH,2006-02-08 18:00,ZHHH 081800Z AUTO 36004KT 9SM 00/M01 A3077 RMK 60000 SLP420 T00051011 57006 IEM_DS3505
ZHHH,2006-02-08 19:00,ZHHH 081900Z AUTO 03006KT 4SM 00/M01 A3074 RMK T00001010 IEM_DS3505
ZHHH,2006-02-08 20:00,ZHHH 082000Z AUTO 04006KT 4SM 00/M01 A3071 RMK T00001010 IEM_DS3505
ZHHH,2006-02-08 21:00,ZHHH 082100Z AUTO 04004KT 11SM 00/M02 A3071 RMK 70000 SLP400 T00031018 57020 IEM_DS3505
ZHHH,2006-02-08 22:00,ZHHH 082200Z AUTO 03004KT 4SM M01/M01 A3068 RMK T10101010 IEM_DS3505
ZHHH,2006-02-08 23:00,ZHHH 082300Z AUTO 02004KT 5SM 00/M01 A3071 RMK T00001010 IEM_DS3505
ZHHH,2006-02-09 00:00,ZHHH 090000Z AUTO 02002KT 9SM 00/M02 A3071 RMK 60000 70000 SLP399 T00031015 57001 IEM_DS3505
ZHHH,2006-02-09 01:00,ZHHH 090100Z AUTO 03006KT 5SM 00/M02 A3071 RMK T00001020 IEM_DS3505
ZHHH,2006-02-09 02:00,ZHHH 090200Z AUTO 04004KT 5SM 00/M02 A3071 RMK T00001020 IEM_DS3505
ZHHH,2006-02-09 03:00,ZHHH 090300Z AUTO 09004KT 9SM 01/M02 A3068 RMK SLP395 T00071015 57004 IEM_DS3505
ZHHH,2006-02-09 04:00,ZHHH 090400Z AUTO 05004KT 3SM 00/M02 A3068 RMK T00001020 IEM_DS3505
ZHHH,2006-02-09 05:00,ZHHH 090500Z AUTO 3SM 00/M01 A3062 RMK T00001010 IEM_DS3505
ZHHH,2006-02-09 06:00,ZHHH 090600Z AUTO 00000KT 9SM 01/M01 A3059 RMK 60000 SLP359 T00121010 57036 IEM_DS3505
ZHHH,2006-02-09 07:00,ZHHH 090700Z AUTO 3SM 01/M01 A3056 RMK T00101010 IEM_DS3505
ZHHH,2006-02-09 08:00,ZHHH 090800Z AUTO 2SM 01/00 A3053 RMK T00100000 IEM_DS3505
ZHHH,2006-02-09 10:00,ZHHH 091000Z AUTO 21006KT 1 1/2SM 01/00 A3050 RMK T00100000 IEM_DS3505
ZHHH,2006-02-09 11:00,ZHHH 091100Z AUTO 22006KT 1 1/2SM 01/00 A3050 RMK T00100000 IEM_DS3505
ZHHH,2006-02-09 12:00,ZHHH 091200Z AUTO 20002KT 7SM 02/M01 A3050 RMK SLP335 T00161011 57003 IEM_DS3505
ZHHH,2006-02-09 13:00,ZHHH 091300Z AUTO 25004KT 1 1/2SM 01/00 A3050 RMK T00100000 IEM_DS3505
ZHHH,2006-02-09 14:00,ZHHH 091400Z AUTO 22008KT 1 1/2SM 01/00 A3050 RMK T00100000 IEM_DS3505
ZHHH,2006-02-09 15:00,ZHHH 091500Z AUTO 25004KT 7SM 02/M01 A3050 RMK SLP331 T00151009 57004 IEM_DS3505
ZHHH,2006-02-09 16:00,ZHHH 091600Z AUTO 23008KT 1 1/2SM 01/00 A3050 RMK T00100000 IEM_DS3505
ZHHH,2006-02-09 17:00,ZHHH 091700Z AUTO 24008KT 2SM 01/00 A3047 RMK T00100000 IEM_DS3505
ZHHH,2006-02-09 18:00,ZHHH 091800Z AUTO 22002KT 7SM 02/M01 A3045 RMK SLP317 T00171010 57014 IEM_DS3505
ZHHH,2006-02-09 19:00,ZHHH 091900Z AUTO 23008KT 2SM 01/00 A3042 RMK T00100000 IEM_DS3505
ZHHH,2006-02-09 20:00,ZHHH 092000Z AUTO 24006KT 2SM 01/00 A3042 RMK T00100000 IEM_DS3505
ZHHH,2006-02-09 21:00,ZHHH 092100Z AUTO 25002KT 7SM 02/M01 A3039 RMK 70000 SLP297 T00151012 57020 IEM_DS3505
ZHHH,2006-02-09 22:00,ZHHH 092200Z AUTO 21010KT 2SM 01/00 A3039 RMK T00100000 IEM_DS3505
ZHHH,2006-02-09 23:00,ZHHH 092300Z AUTO 22008KT 2SM 01/M01 A3039 RMK T00101010 IEM_DS3505
ZHHH,2006-02-10 00:00,ZHHH 100000Z AUTO 18004KT 9SM 02/M01 A3039 RMK 70000 SLP293 T00161010 57004 IEM_DS3505
ZHHH,2006-02-10 01:00,ZHHH 100100Z AUTO 25006KT 2SM 02/00 A3039 RMK T00200000 IEM_DS3505
ZHHH,2006-02-10 02:00,ZHHH 100200Z AUTO 23006KT 2SM 02/00 A3039 RMK T00200000 IEM_DS3505
ZHHH,2006-02-10 03:00,ZHHH 100300Z AUTO 27004KT 9SM 03/M00 A3039 RMK SLP286 T00331003 57007 IEM_DS3505
ZHHH,2006-02-10 04:00,ZHHH 100400Z AUTO 22006KT 3SM 04/01 A3036 RMK T00400010 IEM_DS3505
ZHHH,2006-02-10 05:00,ZHHH 100500Z AUTO 15004KT 3SM 05/01 A3030 RMK T00500010 IEM_DS3505
ZHHH,2006-02-10 06:00,ZHHH 100600Z AUTO 27004KT 11SM 08/02 A3027 RMK SLP248 T00790015 57037 IEM_DS3505
ZHHH,2006-02-10 07:00,ZHHH 100700Z AUTO 21006KT 4SM 07/02 A3024 RMK T00700020 IEM_DS3505
ZHHH,2006-02-10 08:00,ZHHH 100800Z AUTO 19006KT 4SM 08/03 A3021 RMK T00800030 IEM_DS3505
ZHHH,2006-02-10 09:00,ZHHH 100900Z AUTO 22002KT 11SM 08/02 A3018 RMK SLP223 T00790024 57025 IEM_DS3505
ZHHH,2006-02-10 10:00,ZHHH 101000Z AUTO 20006KT 6SM 06/03 A3018 RMK T00600030 IEM_DS3505
ZHHH,2006-02-10 11:00,ZHHH 101100Z AUTO 18002KT 6SM 06/03 A3018 RMK T00600030 IEM_DS3505
ZHHH,2006-02-10 12:00,ZHHH 101200Z AUTO 16002KT 9SM 05/03 A3018 RMK SLP223 T00510028 57001 IEM_DS3505
ZHHH,2006-02-10 13:00,ZHHH 101300Z AUTO 14006KT 6SM 05/03 A3021 RMK T00500030 IEM_DS3505
ZHHH,2006-02-10 14:00,ZHHH 101400Z AUTO 14006KT 6SM 04/03 A3021 RMK T00400030 IEM_DS3505
ZHHH,2006-02-10 15:00,ZHHH 101500Z AUTO 16002KT 7SM 04/02 A3021 RMK SLP234 T00410025 52011 IEM_DS3505
ZHHH,2006-02-10 16:00,ZHHH 101600Z AUTO 14004KT 3SM 03/03 A3021 RMK T00300030 IEM_DS3505
ZHHH,2006-02-10 17:00,ZHHH 101700Z AUTO 12006KT 3SM 03/02 A3021 RMK T00300020 IEM_DS3505
ZHHH,2006-02-10 18:00,ZHHH 101800Z AUTO 09002KT 9SM 04/02 A3021 RMK SLP229 T00360021 57004 IEM_DS3505
ZHHH,2006-02-10 19:00,ZHHH 101900Z AUTO 12008KT 1 1/4SM 02/02 A3018 RMK T00200020 IEM_DS3505
ZHHH,2006-02-10 20:00,ZHHH 102000Z AUTO 12008KT 1SM 02/02 A3018 RMK T00200020 IEM_DS3505
ZHHH,2006-02-10 21:00,ZHHH 102100Z AUTO 11004KT 9SM 03/02 A3018 RMK SLP218 T00330018 57011 IEM_DS3505
ZHHH,2006-02-10 22:00,ZHHH 102200Z AUTO 12006KT 1SM 02/02 A3018 RMK T00200020 IEM_DS3505
ZHHH,2006-02-10 23:00,ZHHH 102300Z AUTO 13010KT 1/4SM 02/02 A3018 RMK T00200020 IEM_DS3505
ZHHH,2006-02-11 00:00,ZHHH 110000Z AUTO 14002KT 6SM 03/02 A3021 RMK SLP229 T00290020 52011 IEM_DS3505
ZHHH,2006-02-11 01:00,ZHHH 110100Z AUTO 11006KT 1/4SM 03/03 A3024 RMK T00300030 IEM_DS3505
ZHHH,2006-02-11 02:00,ZHHH 110200Z AUTO 11008KT 3/8SM 03/03 A3024 RMK T00300030 IEM_DS3505
ZHHH,2006-02-11 03:00,ZHHH 110300Z AUTO 04004KT 7SM 06/04 A3024 RMK SLP244 T00650035 52015 IEM_DS3505
ZHHH,2006-02-11 04:00,ZHHH 110400Z AUTO 11008KT 1SM 05/05 A3024 RMK T00500050 IEM_DS3505
ZHHH,2006-02-11 05:00,ZHHH 110500Z AUTO 13008KT 1SM 06/05 A3021 RMK T00600050 IEM_DS3505
ZHHH,2006-02-11 06:00,ZHHH 110600Z AUTO 14004KT 9SM 10/04 A3018 RMK SLP222 T01010038 57022 IEM_DS3505
ZHHH,2006-02-11 07:00,ZHHH 110700Z AUTO 09006KT 1 1/4SM 09/06 A3018 RMK T00900060 IEM_DS3505
ZHHH,2006-02-11 08:00,ZHHH 110800Z AUTO 09004KT 1 1/2SM 10/06 A3018 RMK T01000060 IEM_DS3505
ZHHH,2006-02-11 09:00,ZHHH 110900Z AUTO 11002KT 11SM 11/05 A3018 RMK SLP217 T01120047 57005 IEM_DS3505
ZHHH,2006-02-11 10:00,ZHHH 111000Z AUTO 10006KT 1 1/2SM 09/06 A3018 RMK T00900060 IEM_DS3505
ZHHH,2006-02-11 11:00,ZHHH 111100Z AUTO 07006KT 2 1/2SM 07/06 A3018 RMK T00700060 IEM_DS3505
ZHHH,2006-02-11 12:00,ZHHH 111200Z AUTO 07002KT 9SM 07/05 A3021 RMK SLP229 T00720050 52012 IEM_DS3505
ZHHH,2006-02-11 13:00,ZHHH 111300Z AUTO 08006KT 3SM 06/05 A3024 RMK T00600050 IEM_DS3505
ZHHH,2006-02-11 14:00,ZHHH 111400Z AUTO 06006KT 3SM 06/05 A3024 RMK T00600050 IEM_DS3505
ZHHH,2006-02-11 15:00,ZHHH 111500Z AUTO 07002KT 9SM 06/04 A3027 RMK SLP246 T00610041 52017 IEM_DS3505
ZHHH,2006-02-11 16:00,ZHHH 111600Z AUTO 05006KT 3SM 05/04 A3027 RMK T00500040 IEM_DS3505
ZHHH,2006-02-11 17:00,ZHHH 111700Z AUTO 09004KT 3SM 04/04 A3027 RMK T00400040 IEM_DS3505
ZHHH,2006-02-11 18:00,ZHHH 111800Z AUTO 02002KT 7SM 05/04 A3027 RMK SLP252 T00490036 52006 IEM_DS3505
ZHHH,2006-02-11 19:00,ZHHH 111900Z AUTO 00000KT 2SM 04/03 A3027 RMK T00400030 IEM_DS3505
ZHHH,2006-02-11 20:00,ZHHH 112000Z AUTO 00000KT 1SM 03/03 A3024 RMK T00300030 IEM_DS3505
ZHHH,2006-02-11 21:00,ZHHH 112100Z AUTO 07002KT 5SM 04/03 A3024 RMK SLP243 T00410032 57009 IEM_DS3505
ZHHH,2006-02-11 22:00,ZHHH 112200Z AUTO 04006KT 1SM 03/02 A3027 RMK T00300020 IEM_DS3505
ZHHH,2006-02-11 23:00,ZHHH 112300Z AUTO 05006KT 1SM 03/03 A3027 RMK T00300030 IEM_DS3505
ZHHH,2006-02-12 00:00,ZHHH 120000Z AUTO 04002KT 5SM 04/03 A3030 RMK SLP258 T00400033 52015 IEM_DS3505
ZHHH,2006-02-12 01:00,ZHHH 120100Z AUTO 08008KT 1 1/4SM 06/05 A3030 RMK T00600050 IEM_DS3505
ZHHH,2006-02-12 02:00,ZHHH 120200Z AUTO 10008KT 1 1/2SM 09/07 A3030 RMK T00900070 IEM_DS3505
ZHHH,2006-02-12 03:00,ZHHH 120300Z AUTO 09004KT 11SM 13/05 A3030 RMK SLP259 T01260046 52001 IEM_DS3505
ZHHH,2006-02-12 04:00,ZHHH 120400Z AUTO 11008KT 4SM 13/07 A3027 RMK T01300070 IEM_DS3505
ZHHH,2006-02-12 05:00,ZHHH 120500Z AUTO 10008KT 4SM 14/06 A3024 RMK T01400060 IEM_DS3505
ZHHH,2006-02-12 06:00,ZHHH 120600Z AUTO 07004KT 9SM 16/05 A3021 RMK SLP224 T01640048 57035 IEM_DS3505
ZHHH,2006-02-12 07:00,ZHHH 120700Z AUTO 13010KT 6SM 16/06 A3015 RMK T01600060 IEM_DS3505
ZHHH,2006-02-12 08:00,ZHHH 120800Z AUTO 12008KT 6SM 17/06 A3015 RMK T01700060 IEM_DS3505
ZHHH,2006-02-12 09:00,ZHHH 120900Z AUTO 11002KT 11SM 17/03 A3015 RMK SLP208 T01690029 57016 IEM_DS3505
ZHHH,2006-02-12 10:00,ZHHH 121000Z AUTO 13006KT 6SM 15/05 A3015 RMK T01500050 IEM_DS3505
ZHHH,2006-02-12 11:00,ZHHH 121100Z AUTO 13004KT 6SM 13/06 A3015 RMK T01300060 IEM_DS3505
ZHHH,2006-02-12 12:00,ZHHH 121200Z AUTO 13008KT 9SM 12/06 A3015 RMK SLP207 T01190058 57001 IEM_DS3505
ZHHH,2006-02-12 13:00,ZHHH 121300Z AUTO 14004KT 6SM 12/06 A3015 RMK T01200060 IEM_DS3505
ZHHH,2006-02-12 14:00,ZHHH 121400Z AUTO 14006KT 6SM 12/06 A3015 RMK T01200060 IEM_DS3505
ZHHH,2006-02-12 15:00,ZHHH 121500Z AUTO 16002KT 9SM 12/06 A3012 RMK SLP205 T01210062 57002 IEM_DS3505
ZHHH,2006-02-12 16:00,ZHHH 121600Z AUTO 21006KT 6SM 12/06 A3012 RMK T01200060 IEM_DS3505
ZHHH,2006-02-12 17:00,ZHHH 121700Z AUTO 19004KT 7SM 12/07 A3009 RMK T01200070 IEM_DS3505
ZHHH,2006-02-12 18:00,ZHHH 121800Z AUTO 18002KT 9SM 11/07 A3009 RMK SLP192 T01130072 57012 IEM_DS3505
ZHHH,2006-02-12 19:00,ZHHH 121900Z AUTO 21004KT 4SM 11/08 A3009 RMK T01100080 IEM_DS3505
ZHHH,2006-02-12 20:00,ZHHH 122000Z AUTO 21002KT 4SM 11/08 A3006 RMK T01100080 IEM_DS3505
ZHHH,2006-02-12 21:00,ZHHH 122100Z AUTO 18002KT 9SM 11/08 A3006 RMK SLP177 T01060080 57015 IEM_DS3505
ZHHH,2006-02-12 22:00,ZHHH 122200Z AUTO 20006KT 1 1/4SM 10/09 A3006 RMK T01000090 IEM_DS3505
ZHHH,2006-02-12 23:00,ZHHH 122300Z AUTO 22006KT 1SM 09/09 A3006 RMK T00900090 IEM_DS3505
ZHHH,2006-02-13 00:00,ZHHH 130000Z AUTO 11002KT 3SM 09/08 A3006 RMK 60008 70009 SLP181 T00940082 52003 IEM_DS3505
ZHHH,2006-02-13 01:00,ZHHH 130100Z AUTO 1SM 09/09 A3006 RMK T00900090 IEM_DS3505
ZHHH,2006-02-13 02:00,ZHHH 130200Z AUTO 15004KT 1/2SM 09/09 A3006 RMK T00900090 IEM_DS3505
ZHHH,2006-02-13 03:00,ZHHH 130300Z AUTO 14002KT 5SM 11/09 A3006 RMK SLP177 T01080094 57004 IEM_DS3505
ZHHH,2006-02-13 04:00,ZHHH 130400Z AUTO 14004KT 1SM 11/11 A3003 RMK T01100110 IEM_DS3505
ZHHH,2006-02-13 05:00,ZHHH 130500Z AUTO 15006KT 1SM 12/11 A2997 RMK T01200110 IEM_DS3505
ZHHH,2006-02-13 06:00,ZHHH 130600Z AUTO 09004KT 7SM 13/10 A2994 RMK 60012 SLP141 T01310101 57035 IEM_DS3505
ZHHH,2006-02-13 07:00,ZHHH 130700Z AUTO 18006KT 1SM 13/11 A2991 RMK T01300110 IEM_DS3505
ZHHH,2006-02-13 08:00,ZHHH 130800Z AUTO 18004KT 1SM 14/12 A2991 RMK T01400120 IEM_DS3505
ZHHH,2006-02-13 10:00,ZHHH 131000Z AUTO 13004KT 1SM 13/12 A2988 RMK T01300120 IEM_DS3505
ZHHH,2006-02-13 11:00,ZHHH 131100Z AUTO 11004KT 1 1/4SM 13/12 A2991 RMK T01300120 IEM_DS3505
ZHHH,2006-02-13 12:00,ZHHH 131200Z AUTO 11004KT 9SM 13/11 A2991 RMK SLP135 T01260112 52013 IEM_DS3505
ZHHH,2006-02-13 13:00,ZHHH 131300Z AUTO 12004KT 1 1/4SM 13/12 A2994 RMK T01300120 IEM_DS3505
ZHHH,2006-02-13 14:00,ZHHH 131400Z AUTO 11004KT 1 1/4SM 12/12 A2994 RMK T01200120 IEM_DS3505
ZHHH,2006-02-13 15:00,ZHHH 131500Z AUTO 09004KT 7SM 12/11 A2994 RMK SLP144 T01190110 52009 IEM_DS3505
ZHHH,2006-02-13 16:00,ZHHH 131600Z AUTO 05004KT 1 1/4SM 12/11 A2994 RMK T01200110 IEM_DS3505
ZHHH,2006-02-13 17:00,ZHHH 131700Z AUTO 10008KT 1 1/4SM 12/12 A2994 RMK T01200120 IEM_DS3505
ZHHH,2006-02-13 18:00,ZHHH 131800Z AUTO 07002KT 6SM 12/11 A2994 RMK 60000 SLP144 T01210110 54000 IEM_DS3505
ZHHH,2006-02-13 19:00,ZHHH 131900Z AUTO 10006KT 1SM 12/11 A2994 RMK T01200110 IEM_DS3505
ZHHH,2006-02-13 20:00,ZHHH 132000Z AUTO 05004KT 1SM 12/11 A2994 RMK T01200110 IEM_DS3505
ZHHH,2006-02-13 21:00,ZHHH 132100Z AUTO 02002KT 7SM 12/11 A2994 RMK 70019 SLP145 T01190110 52001 IEM_DS3505
ZHHH,2006-02-13 22:00,ZHHH 132200Z AUTO 07004KT 1 1/4SM 12/12 A2994 RMK T01200120 IEM_DS3505
ZHHH,2006-02-13 23:00,ZHHH 132300Z AUTO 11004KT 1SM 12/12 A2997 RMK T01200120 IEM_DS3505
ZHHH,2006-02-14 00:00,ZHHH 140000Z AUTO 07002KT 6SM 12/11 A2994 RMK 60002 70013 SLP146 T01180110 52001 IEM_DS3505
ZHHH,2006-02-14 01:00,ZHHH 140100Z AUTO 11010KT 1SM 12/12 A2997 RMK T01200120 IEM_DS3505
ZHHH,2006-02-14 02:00,ZHHH 140200Z AUTO 14006KT 1/2SM 12/12 A2997 RMK T01200120 IEM_DS3505
ZHHH,2006-02-14 03:00,ZHHH 140300Z AUTO 03004KT 6SM 14/13 A2997 RMK SLP147 T01410127 52001 IEM_DS3505
ZHHH,2006-02-14 04:00,ZHHH 140400Z AUTO 03006KT 1SM 13/13 A2994 RMK T01300130 IEM_DS3505
ZHHH,2006-02-14 05:00,ZHHH 140500Z AUTO 02006KT 1SM 13/13 A2994 RMK T01300130 IEM_DS3505
ZHHH,2006-02-14 06:00,ZHHH 140600Z AUTO 02004KT 6SM 14/12 A2991 RMK 60000 SLP126 T01370123 57021 IEM_DS3505
ZHHH,2006-02-14 07:00,ZHHH 140700Z AUTO 04012KT 1 1/4SM 13/12 A2988 RMK T01300120 IEM_DS3505
ZHHH,2006-02-14 08:00,ZHHH 140800Z AUTO 07012KT 2 1/2SM 13/11 A2988 RMK T01300110 IEM_DS3505
ZHHH,2006-02-14 09:00,ZHHH 140900Z AUTO 04006KT 6SM 13/09 A2988 RMK SLP112 T01310094 57014 IEM_DS3505
ZHHH,2006-02-14 10:00,ZHHH 141000Z AUTO 07012KT 3SM 13/09 A2985 RMK T01300090 IEM_DS3505
ZHHH,2006-02-14 11:00,ZHHH 141100Z AUTO 07012KT 3SM 12/10 A2985 RMK T01200100 IEM_DS3505
ZHHH,2006-02-14 12:00,ZHHH 141200Z AUTO 32006G19KT 6SM 12/10 A2991 RMK 60000 SLP127 T01210095 52015 IEM_DS3505
ZHHH,2006-02-14 13:00,ZHHH 141300Z AUTO 36010KT 2SM 11/10 A2991 RMK T01100100 IEM_DS3505
ZHHH,2006-02-14 14:00,ZHHH 141400Z AUTO 01006KT 2SM 10/10 A2991 RMK T01000100 IEM_DS3505
ZHHH,2006-02-14 15:00,ZHHH 141500Z AUTO 04006KT 6SM 10/09 A2991 RMK SLP125 T01050091 57002 IEM_DS3505
ZHHH,2006-02-14 16:00,ZHHH 141600Z AUTO 36008KT 3SM 10/09 A2991 RMK T01000090 IEM_DS3505
ZHHH,2006-02-14 17:00,ZHHH 141700Z AUTO 01006KT 2SM 10/09 A2991 RMK T01000090 IEM_DS3505
ZHHH,2006-02-14 18:00,ZHHH 141800Z AUTO 32004KT 6SM 10/09 A2994 RMK 60043 SLP132 T00980090 52007 IEM_DS3505
ZHHH,2006-02-14 19:00,ZHHH 141900Z AUTO 35006KT 2SM 10/10 A2994 RMK T01000100 IEM_DS3505
ZHHH,2006-02-14 20:00,ZHHH 142000Z AUTO 35008KT 2SM 10/09 A2991 RMK T01000090 IEM_DS3505
ZHHH,2006-02-14 21:00,ZHHH 142100Z AUTO 27004KT 6SM 10/09 A2991 RMK 70061 SLP136 T01010093 52004 IEM_DS3505
ZHHH,2006-02-14 22:00,ZHHH 142200Z AUTO 35006KT 3SM 10/09 A2994 RMK T01000090 IEM_DS3505
ZHHH,2006-02-14 23:00,ZHHH 142300Z AUTO 02010KT 2SM 09/09 A2994 RMK T00900090 IEM_DS3505
ZHHH,2006-02-15 00:00,ZHHH 150000Z AUTO 36004KT 7SM 10/07 A2997 RMK 60020 70063 SLP151 T00970073 52014 IEM_DS3505
ZHHH,2006-02-15 01:00,ZHHH 150100Z AUTO 02010KT 2SM 08/07 A3000 RMK T00800070 IEM_DS3505
ZHHH,2006-02-15 02:00,ZHHH 150200Z AUTO 02010KT 1 1/2SM 08/07 A3000 RMK T00800070 IEM_DS3505
ZHHH,2006-02-15 03:00,ZHHH 150300Z AUTO 04004KT 7SM 09/07 A3000 RMK SLP166 T00920070 52015 IEM_DS3505
ZHHH,2006-02-15 04:00,ZHHH 150400Z AUTO 35008KT 1 1/2SM 08/08 A3000 RMK T00800080 IEM_DS3505
ZHHH,2006-02-15 05:00,ZHHH 150500Z AUTO 34006KT 1 1/2SM 09/08 A3000 RMK T00900080 IEM_DS3505
ZHHH,2006-02-15 06:00,ZHHH 150600Z AUTO 34006KT 7SM 09/08 A3000 RMK 60002 SLP157 T00900079 57009 IEM_DS3505
ZHHH,2006-02-15 07:00,ZHHH 150700Z AUTO 03010KT 2 1/2SM 09/08 A2997 RMK T00900080 IEM_DS3505
ZHHH,2006-02-15 08:00,ZHHH 150800Z AUTO 03010KT 2SM 09/08 A3000 RMK T00900080 IEM_DS3505
ZHHH,2006-02-15 09:00,ZHHH 150900Z AUTO 36004KT 6SM 09/07 A3003 RMK SLP168 T00920072 52011 IEM_DS3505
ZHHH,2006-02-15 10:00,ZHHH 151000Z AUTO 01010KT 2SM 09/07 A3006 RMK T00900070 IEM_DS3505
ZHHH,2006-02-15 11:00,ZHHH 151100Z AUTO 02008KT 1 1/4SM 09/07 A3006 RMK T00900070 IEM_DS3505
ZHHH,2006-02-15 12:00,ZHHH 151200Z AUTO 02004KT 7SM 08/07 A3009 RMK 60004 SLP194 T00850068 52026 IEM_DS3505
ZHHH,2006-02-15 13:00,ZHHH 151300Z AUTO 02010KT 2 1/2SM 08/07 A3012 RMK T00800070 IEM_DS3505
ZHHH,2006-02-15 14:00,ZHHH 151400Z AUTO 02012KT 2 1/2SM 08/07 A3015 RMK T00800070 IEM_DS3505
ZHHH,2006-02-15 15:00,ZHHH 151500Z AUTO 04006KT 9SM 08/06 A3018 RMK SLP221 T00810062 52027 IEM_DS3505
ZHHH,2006-02-15 16:00,ZHHH 151600Z AUTO 01010KT 2 1/2SM 07/07 A3021 RMK T00700070 IEM_DS3505
ZHHH,2006-02-15 17:00,ZHHH 151700Z AUTO 01010KT 2SM 07/07 A3021 RMK T00700070 IEM_DS3505
ZHHH,2006-02-15 18:00,ZHHH 151800Z AUTO 02006KT 6SM 08/06 A3024 RMK 60012 SLP237 T00800060 52016 IEM_DS3505
ZHHH,2006-02-15 19:00,ZHHH 151900Z AUTO 02012KT 4SM 07/06 A3021 RMK T00700060 IEM_DS3505
ZHHH,2006-02-15 20:00,ZHHH 152000Z AUTO 03012KT 5SM 07/06 A3021 RMK T00700060 IEM_DS3505
ZHHH,2006-02-15 21:00,ZHHH 152100Z AUTO 34006KT 6SM 08/05 A3027 RMK 70023 SLP254 T00770050 52017 IEM_DS3505
ZHHH,2006-02-15 22:00,ZHHH 152200Z AUTO 03010KT 5SM 07/05 A3030 RMK T00700050 IEM_DS3505
ZHHH,2006-02-15 23:00,ZHHH 152300Z AUTO 02010KT 3SM 07/06 A3033 RMK T00700060 IEM_DS3505
ZHHH,2006-02-16 00:00,ZHHH 160000Z AUTO 04004KT 6SM 07/06 A3036 RMK 60012 70026 SLP279 T00710059 52025 IEM_DS3505
ZHHH,2006-02-16 01:00,ZHHH 160100Z AUTO 02006KT 1 1/2SM 07/06 A3039 RMK T00700060 IEM_DS3505
ZHHH,2006-02-16 02:00,ZHHH 160200Z AUTO 01010KT 1 1/2SM 07/06 A3042 RMK T00700060 IEM_DS3505
ZHHH,2006-02-16 03:00,ZHHH 160300Z AUTO 02006KT 7SM 08/05 A3042 RMK SLP305 T00770047 52026 IEM_DS3505
ZHHH,2006-02-16 04:00,ZHHH 160400Z AUTO 02014KT 2 1/2SM 07/05 A3042 RMK T00700050 IEM_DS3505
ZHHH,2006-02-16 05:00,ZHHH 160500Z AUTO 02016KT 4SM 08/04 A3042 RMK T00800040 IEM_DS3505
ZHHH,2006-02-16 06:00,ZHHH 160600Z AUTO 07006KT 12SM 08/02 A3039 RMK 60016 SLP297 T00850023 57008 IEM_DS3505
ZHHH,2006-02-16 07:00,ZHHH 160700Z AUTO 05010KT 6SM 08/03 A3039 RMK T00800030 IEM_DS3505
ZHHH,2006-02-16 08:00,ZHHH 160800Z AUTO 07010KT 6SM 09/03 A3039 RMK T00900030 IEM_DS3505
ZHHH,2006-02-16 09:00,ZHHH 160900Z AUTO 07004KT 9SM 09/01 A3039 RMK SLP290 T00920014 57007 IEM_DS3505
ZHHH,2006-02-16 10:00,ZHHH 161000Z AUTO 08008KT 6SM 09/03 A3039 RMK T00900030 IEM_DS3505
ZHHH,2006-02-16 11:00,ZHHH 161100Z AUTO 04006KT 6SM 08/03 A3042 RMK T00800030 IEM_DS3505
ZHHH,2006-02-16 12:00,ZHHH 161200Z AUTO 09002KT 9SM 08/02 A3047 RMK SLP321 T00840015 52031 IEM_DS3505
ZHHH,2006-02-16 13:00,ZHHH 161300Z AUTO 04010KT 4SM 08/02 A3050 RMK T00800020 IEM_DS3505
ZHHH,2006-02-16 14:00,ZHHH 161400Z AUTO 04010KT 4SM 07/02 A3053 RMK T00700020 IEM_DS3505
ZHHH,2006-02-16 15:00,ZHHH 161500Z AUTO 04004KT 7SM 07/01 A3053 RMK SLP339 T00730009 52018 IEM_DS3505
ZHHH,2006-02-16 16:00,ZHHH 161600Z AUTO 04004KT 6SM 07/02 A3050 RMK T00700020 IEM_DS3505
ZHHH,2006-02-16 17:00,ZHHH 161700Z AUTO 03008KT 6SM 06/01 A3050 RMK T00600010 IEM_DS3505
ZHHH,2006-02-16 18:00,ZHHH 161800Z AUTO 02004KT 11SM 07/00 A3053 RMK 60000 SLP343 T00670004 52004 IEM_DS3505
ZHHH,2006-02-16 19:00,ZHHH 161900Z AUTO 02008KT 6SM 06/01 A3053 RMK SLP342 T00600010 IEM_DS3505
ZHHH,2006-02-16 20:00,ZHHH 162000Z AUTO 02010KT 6SM 06/M01 A3053 RMK SLP342 T00601010 IEM_DS3505
ZHHH,2006-02-16 21:00,ZHHH 162100Z AUTO 04004KT 11SM 06/M02 A3053 RMK 70021 SLP344 T00601021 52001 IEM_DS3505
ZHHH,2006-02-16 22:00,ZHHH 162200Z AUTO 05010KT 6SM 05/M03 A3056 RMK SLP352 T00501030 IEM_DS3505
ZHHH,2006-02-16 23:00,ZHHH 162300Z AUTO 09012KT 6SM 04/M01 A3059 RMK SLP362 T00401010 IEM_DS3505
ZHHH,2006-02-17 00:00,ZHHH 170000Z AUTO 09002KT 12SM 03/M00 A3062 RMK 60000 70015 SLP369 T00341001 52024 IEM_DS3505
ZHHH,2006-02-17 01:00,ZHHH 170100Z AUTO 04006KT 6SM 04/M02 A3062 RMK SLP373 T00401020 IEM_DS3505
ZHHH,2006-02-17 02:00,ZHHH 170200Z AUTO 05006KT 6SM 05/M02 A3062 RMK SLP372 T00501020 IEM_DS3505
ZHHH,2006-02-17 03:00,ZHHH 170300Z AUTO 11006KT 11SM 06/M02 A3059 RMK SLP368 T00601021 57001 IEM_DS3505
ZHHH,2006-02-17 04:00,ZHHH 170400Z AUTO 08008KT 6SM 07/M02 A3059 RMK SLP362 T00701020 IEM_DS3505
ZHHH,2006-02-17 05:00,ZHHH 170500Z AUTO 06006KT 6SM 07/M02 A3056 RMK SLP352 T00701020 IEM_DS3505
ZHHH,2006-02-17 06:00,ZHHH 170600Z AUTO 09004KT 9SM 07/M02 A3053 RMK SLP338 T00741018 57029 IEM_DS3505
ZHHH,2006-02-17 07:00,ZHHH 170700Z AUTO 10006KT 6SM 07/M01 A3050 RMK SLP332 T00701010 IEM_DS3505
ZHHH,2006-02-17 08:00,ZHHH 170800Z AUTO 16006KT 6SM 07/00 A3050 RMK SLP332 T00700000 IEM_DS3505
ZHHH,2006-02-17 09:00,ZHHH 170900Z AUTO 16004KT 9SM 06/01 A3047 RMK SLP321 T00630008 57018 IEM_DS3505
ZHHH,2006-02-17 10:00,ZHHH 171000Z AUTO 22006KT 6SM 06/01 A3047 RMK SLP321 T00600010 IEM_DS3505
ZHHH,2006-02-17 11:00,ZHHH 171100Z AUTO 21004KT 6SM 05/02 A3047 RMK SLP321 T00500020 IEM_DS3505
ZHHH,2006-02-17 12:00,ZHHH 171200Z AUTO 04002KT 7SM 05/00 A3047 RMK 60000 SLP326 T00520002 52005 IEM_DS3505
ZHHH,2006-02-17 13:00,ZHHH 171300Z AUTO 04010KT 4SM 02/01 A3050 RMK SLP333 T00200010 IEM_DS3505
ZHHH,2006-02-17 14:00,ZHHH 171400Z AUTO 03006KT 1SM 01/00 A3053 RMK SLP343 T00100000 IEM_DS3505
ZHHH,2006-02-17 15:00,ZHHH 171500Z AUTO 02004KT 6SM 01/00 A3053 RMK SLP340 T00110004 52014 IEM_DS3505
ZHHH,2006-02-17 16:00,ZHHH 171600Z AUTO 01004KT 2 1/2SM 01/01 A3050 RMK SLP333 T00100010 IEM_DS3505
ZHHH,2006-02-17 17:00,ZHHH 171700Z AUTO 01004KT 4SM 01/01 A3050 RMK SLP333 T00100010 IEM_DS3505
ZHHH,2006-02-17 18:00,ZHHH 171800Z AUTO 04002KT 6SM 02/01 A3050 RMK 60028 SLP329 T00170008 57011 IEM_DS3505
ZHHH,2006-02-17 19:00,ZHHH 171900Z AUTO 04004KT 3SM 01/01 A3047 RMK SLP322 T00100010 IEM_DS3505
ZHHH,2006-02-17 20:00,ZHHH 172000Z AUTO 08004KT 3SM 01/01 A3045 RMK SLP316 T00100010 IEM_DS3505
ZHHH,2006-02-17 21:00,ZHHH 172100Z AUTO 11002KT 6SM 02/01 A3045 RMK 70030 SLP310 T00200008 57019 IEM_DS3505
ZHHH,2006-02-17 22:00,ZHHH 172200Z AUTO 12004KT 3SM 02/01 A3045 RMK SLP316 T00200010 IEM_DS3505
ZHHH,2006-02-17 23:00,ZHHH 172300Z AUTO 10004KT 3SM 02/02 A3042 RMK SLP305 T00200020 IEM_DS3505
ZHHH,2006-02-18 00:00,ZHHH 180000Z AUTO 14002KT 7SM 03/01 A3045 RMK 60002 70030 SLP314 T00280013 52004 IEM_DS3505
ZHHH,2006-02-18 01:00,ZHHH 180100Z AUTO 3SM 02/02 A3047 RMK SLP322 T00200020 IEM_DS3505
ZHHH,2006-02-18 02:00,ZHHH 180200Z AUTO 2 1/2SM 03/02 A3045 RMK SLP315 T00300020 IEM_DS3505
ZHHH,2006-02-18 03:00,ZHHH 180300Z AUTO 27004KT 7SM 03/01 A3045 RMK SLP316 T00330010 52002 IEM_DS3505
ZHHH,2006-02-18 04:00,ZHHH 180400Z AUTO 00000KT 3SM 03/02 A3042 RMK SLP304 T00300020 IEM_DS3505
ZHHH,2006-02-18 05:00,ZHHH 180500Z AUTO 2SM 03/02 A3042 RMK SLP304 T00300020 IEM_DS3505
ZHHH,2006-02-18 06:00,ZHHH 180600Z AUTO 34002KT 7SM 04/01 A3036 RMK SLP282 T00400014 57034 IEM_DS3505
ZHHH,2006-02-18 07:00,ZHHH 180700Z AUTO 28004KT 1 1/2SM 04/02 A3036 RMK SLP284 T00400020 IEM_DS3505
ZHHH,2006-02-18 08:00,ZHHH 180800Z AUTO 28006KT 1 1/2SM 04/02 A3033 RMK SLP274 T00400020 IEM_DS3505
ZHHH,2006-02-18 09:00,ZHHH 180900Z AUTO 09002KT 7SM 04/01 A3033 RMK SLP268 T00420011 57014 IEM_DS3505
ZHHH,2006-02-18 10:00,ZHHH 181000Z AUTO 2SM 04/02 A3033 RMK SLP274 T00400020 IEM_DS3505
ZHHH,2006-02-18 11:00,ZHHH 181100Z AUTO 00000KT 3SM 04/02 A3033 RMK SLP274 T00400020 IEM_DS3505
ZHHH,2006-02-18 12:00,ZHHH 181200Z AUTO 27004KT 7SM 04/01 A3036 RMK SLP282 T00440013 52014 IEM_DS3505
ZHHH,2006-02-18 13:00,ZHHH 181300Z AUTO 28006KT 4SM 04/02 A3036 RMK SLP284 T00400020 IEM_DS3505
ZHHH,2006-02-18 14:00,ZHHH 181400Z AUTO 25004KT 7SM 03/02 A3036 RMK SLP284 T00300020 IEM_DS3505
ZHHH,2006-02-18 15:00,ZHHH 181500Z AUTO 25002KT 7SM 04/01 A3036 RMK SLP278 T00390013 57004 IEM_DS3505
ZHHH,2006-02-18 16:00,ZHHH 181600Z AUTO 28004KT 7SM 03/02 A3036 RMK SLP284 T00300020 IEM_DS3505
ZHHH,2006-02-18 17:00,ZHHH 181700Z AUTO 28004KT 7SM 04/02 A3036 RMK SLP284 T00400020 IEM_DS3505
ZHHH,2006-02-18 18:00,ZHHH 181800Z AUTO 25002KT 7SM 04/01 A3036 RMK SLP283 T00390008 52005 IEM_DS3505
ZHHH,2006-02-18 19:00,ZHHH 181900Z AUTO 4SM 03/01 A3033 RMK SLP274 T00300010 IEM_DS3505
ZHHH,2006-02-18 20:00,ZHHH 182000Z AUTO 28004KT 4SM 04/01 A3033 RMK SLP274 T00400010 IEM_DS3505
ZHHH,2006-02-18 21:00,ZHHH 182100Z AUTO 27002KT 7SM 04/00 A3033 RMK 70000 SLP266 T00380005 57017 IEM_DS3505
ZHHH,2006-02-18 22:00,ZHHH 182200Z AUTO 4SM 03/01 A3033 RMK SLP274 T00300010 IEM_DS3505
ZHHH,2006-02-18 23:00,ZHHH 182300Z AUTO 30002KT 4SM 03/01 A3033 RMK SLP274 T00300010 IEM_DS3505
ZHHH,2006-02-19 00:00,ZHHH 190000Z AUTO 25002KT 9SM 04/00 A3033 RMK SLP273 T00430003 52007 IEM_DS3505
ZHHH,2006-02-19 01:00,ZHHH 190100Z AUTO 25006KT 3SM 05/02 A3036 RMK SLP284 T00500020 IEM_DS3505
ZHHH,2006-02-19 02:00,ZHHH 190200Z AUTO 23006KT 4SM 05/01 A3036 RMK SLP284 T00500010 IEM_DS3505
ZHHH,2006-02-19 03:00,ZHHH 190300Z AUTO 14002KT 11SM 05/M00 A3036 RMK SLP270 T00501004 57003 IEM_DS3505
ZHHH,2006-02-19 04:00,ZHHH 190400Z AUTO 31010KT 2SM 04/02 A3036 RMK SLP284 T00400020 IEM_DS3505
ZHHH,2006-02-19 05:00,ZHHH 190500Z AUTO 00000KT 4SM 04/02 A3033 RMK SLP274 T00400020 IEM_DS3505
ZHHH,2006-02-19 06:00,ZHHH 190600Z AUTO 02002KT 11SM 06/01 A3030 RMK SLP264 T00590011 57005 IEM_DS3505
ZHHH,2006-02-19 07:00,ZHHH 190700Z AUTO 5SM 06/02 A3030 RMK SLP264 T00600020 IEM_DS3505
ZHHH,2006-02-19 08:00,ZHHH 190800Z AUTO 24004KT 6SM 07/02 A3030 RMK SLP264 T00700020 IEM_DS3505
ZHHH,2006-02-19 09:00,ZHHH 190900Z AUTO 22002KT 11SM 07/01 A3030 RMK SLP263 T00710012 57001 IEM_DS3505
ZHHH,2006-02-19 10:00,ZHHH 191000Z AUTO 20004KT 6SM 06/02 A3030 RMK SLP264 T00600020 IEM_DS3505
ZHHH,2006-02-19 11:00,ZHHH 191100Z AUTO 00000KT 5SM 05/02 A3030 RMK SLP264 T00500020 IEM_DS3505
ZHHH,2006-02-19 12:00,ZHHH 191200Z AUTO 11002KT 12SM 05/02 A3030 RMK SLP264 T00500020 54000 IEM_DS3505
ZHHH,2006-02-19 13:00,ZHHH 191300Z AUTO 12004KT 4SM 04/03 A3030 RMK SLP264 T00400030 IEM_DS3505
ZHHH,2006-02-19 14:00,ZHHH 191400Z AUTO 11004KT 2 1/2SM 04/03 A3030 RMK SLP264 T00400030 IEM_DS3505
ZHHH,2006-02-19 15:00,ZHHH 191500Z AUTO 07002KT 11SM 03/02 A3030 RMK SLP260 T00340019 57004 IEM_DS3505
ZHHH,2006-02-19 16:00,ZHHH 191600Z AUTO 12004KT 1 1/2SM 04/03 A3030 RMK SLP264 T00400030 IEM_DS3505
ZHHH,2006-02-19 17:00,ZHHH 191700Z AUTO 14002KT 1 1/4SM 03/02 A3030 RMK SLP264 T00300020 IEM_DS3505
ZHHH,2006-02-19 18:00,ZHHH 191800Z AUTO 11002KT 7SM 03/02 A3030 RMK SLP262 T00280021 52002 IEM_DS3505
ZHHH,2006-02-19 19:00,ZHHH 191900Z AUTO 14004KT 1SM 03/03 A3030 RMK SLP264 T00300030 IEM_DS3505
ZHHH,2006-02-19 20:00,ZHHH 192000Z AUTO 11004KT 1SM 02/02 A3027 RMK SLP254 T00200020 IEM_DS3505
ZHHH,2006-02-19 21:00,ZHHH 192100Z AUTO 09002KT 4SM 02/02 A3027 RMK SLP243 T00240017 57018 IEM_DS3505
ZHHH,2006-02-19 22:00,ZHHH 192200Z AUTO 11008KT 1SM 02/02 A3024 RMK SLP243 T00200020 IEM_DS3505
ZHHH,2006-02-19 23:00,ZHHH 192300Z AUTO 11006KT 1/8SM 01/01 A3027 RMK SLP254 T00100010 IEM_DS3505
ZHHH,2006-02-20 00:00,ZHHH 200000Z AUTO 16002KT 6SM 03/02 A3024 RMK SLP245 T00310019 52001 IEM_DS3505
ZHHH,2006-02-20 01:00,ZHHH 200100Z AUTO 15004KT 3/8SM 03/03 A3027 RMK SLP254 T00300030 IEM_DS3505
ZHHH,2006-02-20 02:00,ZHHH 200200Z AUTO 18004KT 1SM 06/06 A3027 RMK SLP254 T00600060 IEM_DS3505
ZHHH,2006-02-20 03:00,ZHHH 200300Z AUTO 16002KT 11SM 08/04 A3024 RMK SLP246 T00810041 52002 IEM_DS3505
ZHHH,2006-02-20 04:00,ZHHH 200400Z AUTO 20006KT 3SM 09/05 A3021 RMK SLP233 T00900050 IEM_DS3505
ZHHH,2006-02-20 05:00,ZHHH 200500Z AUTO 24004KT 2 1/2SM 10/05 A3018 RMK SLP222 T01000050 IEM_DS3505
ZHHH,2006-02-20 06:00,ZHHH 200600Z AUTO 18002KT 9SM 12/04 A3012 RMK SLP195 T01160036 57051 IEM_DS3505
ZHHH,2006-02-20 07:00,ZHHH 200700Z AUTO 6SM 11/04 A3009 RMK SLP192 T01100040 IEM_DS3505
ZHHH,2006-02-20 08:00,ZHHH 200800Z AUTO 20006KT 6SM 12/04 A3009 RMK SLP192 T01200040 IEM_DS3505
ZHHH,2006-02-20 09:00,ZHHH 200900Z AUTO 20002KT 9SM 12/04 A3009 RMK SLP189 T01240036 57006 IEM_DS3505
ZHHH,2006-02-20 10:00,ZHHH 201000Z AUTO 18008KT 6SM 11/05 A3009 RMK SLP192 T01100050 IEM_DS3505
ZHHH,2006-02-20 11:00,ZHHH 201100Z AUTO 18006KT 6SM 09/05 A3009 RMK SLP192 T00900050 IEM_DS3505
ZHHH,2006-02-20 12:00,ZHHH 201200Z AUTO 09002KT 11SM 08/05 A3009 RMK SLP187 T00810049 57002 IEM_DS3505
ZHHH,2006-02-20 13:00,ZHHH 201300Z AUTO 15004KT 2 1/2SM 08/06 A3009 RMK SLP193 T00800060 IEM_DS3505
ZHHH,2006-02-20 14:00,ZHHH 201400Z AUTO 13006KT 2SM 08/06 A3012 RMK SLP203 T00800060 IEM_DS3505
ZHHH,2006-02-20 15:00,ZHHH 201500Z AUTO 11002KT 9SM 08/05 A3009 RMK SLP193 T00770047 52006 IEM_DS3505
ZHHH,2006-02-20 16:00,ZHHH 201600Z AUTO 12008KT 1 1/2SM 07/06 A3009 RMK SLP193 T00700060 IEM_DS3505
ZHHH,2006-02-20 17:00,ZHHH 201700Z AUTO 14008KT 1 1/2SM 07/05 A3006 RMK SLP183 T00700050 IEM_DS3505
ZHHH,2006-02-20 18:00,ZHHH 201800Z AUTO 11004KT 12SM 07/05 A3006 RMK SLP179 T00710048 57014 IEM_DS3505
ZHHH,2006-02-20 19:00,ZHHH 201900Z AUTO 14008KT 1 1/2SM 06/05 A3006 RMK SLP183 T00600050 IEM_DS3505
ZHHH,2006-02-20 20:00,ZHHH 202000Z AUTO 11006KT 2SM 05/05 A3006 RMK SLP183 T00500050 IEM_DS3505
ZHHH,2006-02-20 21:00,ZHHH 202100Z AUTO 12006KT 9SM 06/04 A3003 RMK SLP175 T00630043 57004 IEM_DS3505
ZHHH,2006-02-20 22:00,ZHHH 202200Z AUTO 12004KT 1 1/4SM 05/04 A3006 RMK SLP183 T00500040 IEM_DS3505
ZHHH,2006-02-20 23:00,ZHHH 202300Z AUTO 12008KT 1 1/4SM 05/05 A3003 RMK SLP173 T00500050 IEM_DS3505
ZHHH,2006-02-21 00:00,ZHHH 210000Z AUTO 09002KT 9SM 07/04 A3006 RMK SLP181 T00700043 52006 IEM_DS3505
ZHHH,2006-02-21 01:00,ZHHH 210100Z AUTO 12008KT 1 1/4SM 07/05 A3006 RMK SLP183 T00700050 IEM_DS3505
ZHHH,2006-02-21 02:00,ZHHH 210200Z AUTO 12008KT 1 1/4SM 07/06 A3009 RMK SLP193 T00700060 IEM_DS3505
ZHHH,2006-02-21 03:00,ZHHH 210300Z AUTO 02002KT 7SM 08/05 A3012 RMK SLP200 T00800051 52019 IEM_DS3505
ZHHH,2006-02-21 04:00,ZHHH 210400Z AUTO 12006KT 1SM 07/06 A3012 RMK SLP203 T00700060 IEM_DS3505
ZHHH,2006-02-21 05:00,ZHHH 210500Z AUTO 10006KT 1/2SM 07/06 A3009 RMK SLP193 T00700060 IEM_DS3505
ZHHH,2006-02-21 06:00,ZHHH 210600Z AUTO 09002KT 6SM 08/07 A3006 RMK 60008 SLP185 T00760069 57015 IEM_DS3505
ZHHH,2006-02-21 07:00,ZHHH 210700Z AUTO 14004KT 1SM 07/07 A3009 RMK SLP193 T00700070 IEM_DS3505
ZHHH,2006-02-21 08:00,ZHHH 210800Z AUTO 14004KT 1SM 07/07 A3009 RMK SLP193 T00700070 IEM_DS3505
ZHHH,2006-02-21 09:00,ZHHH 210900Z AUTO 20002KT 6SM 08/07 A3009 RMK SLP194 T00820073 52009 IEM_DS3505
ZHHH,2006-02-21 10:00,ZHHH 211000Z AUTO 00000KT 1SM 07/07 A3012 RMK SLP203 T00700070 IEM_DS3505
ZHHH,2006-02-21 11:00,ZHHH 211100Z AUTO 00000KT 1SM 07/07 A3015 RMK SLP213 T00700070 IEM_DS3505
ZHHH,2006-02-21 12:00,ZHHH 211200Z AUTO 27004KT 7SM 08/07 A3021 RMK 60002 SLP228 T00820073 52034 IEM_DS3505
ZHHH,2006-02-21 13:00,ZHHH 211300Z AUTO 33006KT 1SM 07/07 A3024 RMK SLP243 T00700070 IEM_DS3505
ZHHH,2006-02-21 14:00,ZHHH 211400Z AUTO 32006KT 1SM 07/07 A3024 RMK SLP243 T00700070 IEM_DS3505
ZHHH,2006-02-21 15:00,ZHHH 211500Z AUTO 27002KT 7SM 08/07 A3027 RMK SLP250 T00800071 52022 IEM_DS3505
ZHHH,2006-02-21 16:00,ZHHH 211600Z AUTO 33004KT 1SM 07/07 A3027 RMK SLP254 T00700070 IEM_DS3505
ZHHH,2006-02-21 17:00,ZHHH 211700Z AUTO 34006KT 1SM 07/07 A3030 RMK SLP264 T00700070 IEM_DS3505
ZHHH,2006-02-21 18:00,ZHHH 211800Z AUTO 34004KT 9SM 08/06 A3030 RMK SLP261 T00820065 52011 IEM_DS3505
ZHHH,2006-02-21 19:00,ZHHH 211900Z AUTO 35004KT 1 1/4SM 08/07 A3030 RMK SLP264 T00800070 IEM_DS3505
ZHHH,2006-02-21 20:00,ZHHH 212000Z AUTO 02008KT 1 1/4SM 08/07 A3030 RMK SLP264 T00800070 IEM_DS3505
ZHHH,2006-02-21 21:00,ZHHH 212100Z AUTO 03010KT 9SM 08/06 A3033 RMK 70008 SLP273 T00810061 52012 IEM_DS3505
ZHHH,2006-02-21 22:00,ZHHH 212200Z AUTO 04006KT 2SM 07/05 A3036 RMK SLP284 T00700050 IEM_DS3505
ZHHH,2006-02-21 23:00,ZHHH 212300Z AUTO 01004KT 2SM 07/05 A3033 RMK SLP274 T00700050 IEM_DS3505
ZHHH,2006-02-22 00:00,ZHHH 220000Z AUTO 02002KT 9SM 08/04 A3036 RMK 70008 SLP283 T00780040 52010 IEM_DS3505
ZHHH,2006-02-22 01:00,ZHHH 220100Z AUTO 01010KT 1 1/2SM 08/04 A3039 RMK SLP294 T00800040 IEM_DS3505
ZHHH,2006-02-22 02:00,ZHHH 220200Z AUTO 01008KT 1 1/2SM 09/04 A3042 RMK SLP304 T00900040 IEM_DS3505
ZHHH,2006-02-22 03:00,ZHHH 220300Z AUTO 36002KT 9SM 10/04 A3042 RMK SLP302 T01040043 52019 IEM_DS3505
ZHHH,2006-02-22 04:00,ZHHH 220400Z AUTO 02010KT 1 1/2SM 10/05 A3042 RMK SLP304 T01000050 IEM_DS3505
ZHHH,2006-02-22 05:00,ZHHH 220500Z AUTO 01010KT 1 1/2SM 09/05 A3039 RMK SLP294 T00900050 IEM_DS3505
ZHHH,2006-02-22 06:00,ZHHH 220600Z AUTO 02006KT 11SM 10/04 A3036 RMK SLP284 T01030042 57018 IEM_DS3505
ZHHH,2006-02-22 07:00,ZHHH 220700Z AUTO 02010KT 1 1/2SM 12/04 A3036 RMK SLP283 T01200040 IEM_DS3505
ZHHH,2006-02-22 08:00,ZHHH 220800Z AUTO 05008KT 1 1/2SM 12/04 A3036 RMK SLP283 T01200040 IEM_DS3505
ZHHH,2006-02-22 09:00,ZHHH 220900Z AUTO 04004KT 9SM 12/04 A3036 RMK SLP279 T01190042 57005 IEM_DS3505
ZHHH,2006-02-22 10:00,ZHHH 221000Z AUTO 05006KT 1 1/2SM 11/05 A3036 RMK SLP284 T01100050 IEM_DS3505
ZHHH,2006-02-22 11:00,ZHHH 221100Z AUTO 05006KT 1 1/4SM 10/05 A3036 RMK SLP284 T01000050 IEM_DS3505
ZHHH,2006-02-22 12:00,ZHHH 221200Z AUTO 07002KT 11SM 10/04 A3036 RMK SLP285 T01030042 52006 IEM_DS3505
ZHHH,2006-02-22 13:00,ZHHH 221300Z AUTO 04006KT 1 1/2SM 09/05 A3039 RMK SLP294 T00900050 IEM_DS3505
ZHHH,2006-02-22 14:00,ZHHH 221400Z AUTO 04006KT 1SM 09/05 A3039 RMK SLP294 T00900050 IEM_DS3505
ZHHH,2006-02-22 15:00,ZHHH 221500Z AUTO 07004KT 9SM 09/05 A3039 RMK SLP294 T00900048 52009 IEM_DS3505
ZHHH,2006-02-22 16:00,ZHHH 221600Z AUTO 08006KT 1SM 08/05 A3039 RMK SLP294 T00800050 IEM_DS3505
ZHHH,2006-02-22 17:00,ZHHH 221700Z AUTO 06008KT 1 1/4SM 07/05 A3039 RMK SLP294 T00700050 IEM_DS3505
ZHHH,2006-02-22 18:00,ZHHH 221800Z AUTO 09004KT 9SM 08/04 A3036 RMK SLP279 T00800044 57015 IEM_DS3505
ZHHH,2006-02-22 19:00,ZHHH 221900Z AUTO 09006KT 1 1/4SM 07/04 A3033 RMK SLP274 T00700040 IEM_DS3505
ZHHH,2006-02-22 20:00,ZHHH 222000Z AUTO 10006KT 1 1/4SM 07/04 A3033 RMK SLP274 T00700040 IEM_DS3505
ZHHH,2006-02-22 21:00,ZHHH 222100Z AUTO 07002KT 9SM 08/04 A3033 RMK SLP271 T00760042 57008 IEM_DS3505
ZHHH,2006-02-22 22:00,ZHHH 222200Z AUTO 07006KT 1 1/4SM 06/04 A3033 RMK SLP274 T00600040 IEM_DS3505
ZHHH,2006-02-22 23:00,ZHHH 222300Z AUTO 08006KT 1 1/4SM 06/04 A3033 RMK SLP274 T00600040 IEM_DS3505
ZHHH,2006-02-23 00:00,ZHHH 230000Z AUTO 04002KT 9SM 07/04 A3033 RMK SLP271 T00680043 54000 IEM_DS3505
ZHHH,2006-02-23 01:00,ZHHH 230100Z AUTO 05006KT 1 1/4SM 07/05 A3036 RMK SLP284 T00700050 IEM_DS3505
ZHHH,2006-02-23 02:00,ZHHH 230200Z AUTO 05004KT 1 1/4SM 08/05 A3036 RMK SLP284 T00800050 IEM_DS3505
ZHHH,2006-02-23 03:00,ZHHH 230300Z AUTO 00000KT 9SM 09/05 A3036 RMK SLP287 T00870051 52016 IEM_DS3505
ZHHH,2006-02-23 04:00,ZHHH 230400Z AUTO 12004KT 1 1/2SM 08/05 A3033 RMK SLP274 T00800050 IEM_DS3505
ZHHH,2006-02-23 05:00,ZHHH 230500Z AUTO 1 1/2SM 09/05 A3033 RMK SLP274 T00900050 IEM_DS3505
ZHHH,2006-02-23 06:00,ZHHH 230600Z AUTO 25002KT 9SM 10/02 A3030 RMK SLP258 T01010025 57029 IEM_DS3505
ZHHH,2006-02-23 07:00,ZHHH 230700Z AUTO 2SM 10/03 A3027 RMK SLP254 T01000030 IEM_DS3505
ZHHH,2006-02-23 08:00,ZHHH 230800Z AUTO 2SM 10/03 A3027 RMK SLP254 T01000030 IEM_DS3505
ZHHH,2006-02-23 09:00,ZHHH 230900Z AUTO 07002KT 9SM 10/00 A3027 RMK SLP253 T00970003 57005 IEM_DS3505
ZHHH,2006-02-23 10:00,ZHHH 231000Z AUTO 20004KT 2SM 09/04 A3027 RMK SLP254 T00900040 IEM_DS3505
ZHHH,2006-02-23 11:00,ZHHH 231100Z AUTO 20006KT 2SM 08/04 A3030 RMK SLP264 T00800040 IEM_DS3505
ZHHH,2006-02-23 12:00,ZHHH 231200Z AUTO 22004KT 9SM 07/03 A3030 RMK SLP264 T00740033 52011 IEM_DS3505
ZHHH,2006-02-23 13:00,ZHHH 231300Z AUTO 20004KT 2SM 07/04 A3030 RMK SLP264 T00700040 IEM_DS3505
ZHHH,2006-02-23 14:00,ZHHH 231400Z AUTO 20004KT 2SM 06/05 A3033 RMK SLP274 T00600050 IEM_DS3505
ZHHH,2006-02-23 15:00,ZHHH 231500Z AUTO 16002KT 9SM 07/03 A3036 RMK SLP279 T00670033 52015 IEM_DS3505
ZHHH,2006-02-23 16:00,ZHHH 231600Z AUTO 28002KT 2SM 05/04 A3036 RMK SLP284 T00500040 IEM_DS3505
ZHHH,2006-02-23 17:00,ZHHH 231700Z AUTO 30002KT 2SM 04/04 A3036 RMK SLP284 T00400040 IEM_DS3505
ZHHH,2006-02-23 18:00,ZHHH 231800Z AUTO 00000KT 11SM 04/03 A3033 RMK SLP272 T00410029 57007 IEM_DS3505
ZHHH,2006-02-23 19:00,ZHHH 231900Z AUTO 34004KT 2SM 04/04 A3033 RMK SLP274 T00400040 IEM_DS3505
ZHHH,2006-02-23 20:00,ZHHH 232000Z AUTO 03004KT 2SM 04/04 A3030 RMK SLP264 T00400040 IEM_DS3505
ZHHH,2006-02-23 21:00,ZHHH 232100Z AUTO 04002KT 11SM 04/03 A3030 RMK SLP260 T00450032 57012 IEM_DS3505
ZHHH,2006-02-23 22:00,ZHHH 232200Z AUTO 07004KT 1 1/2SM 04/03 A3030 RMK SLP264 T00400030 IEM_DS3505
ZHHH,2006-02-23 23:00,ZHHH 232300Z AUTO 16004KT 1 1/2SM 03/03 A3030 RMK SLP264 T00300030 IEM_DS3505
ZHHH,2006-02-24 00:00,ZHHH 240000Z AUTO 04002KT 11SM 05/04 A3030 RMK SLP263 T00530038 52003 IEM_DS3505
ZHHH,2006-02-24 01:00,ZHHH 240100Z AUTO 1SM 05/04 A3033 RMK SLP274 T00500040 IEM_DS3505
ZHHH,2006-02-24 02:00,ZHHH 240200Z AUTO 08006KT 1 1/4SM 06/05 A3033 RMK SLP274 T00600050 IEM_DS3505
ZHHH,2006-02-24 03:00,ZHHH 240300Z AUTO 04002KT 11SM 10/04 A3033 RMK SLP271 T00970041 52008 IEM_DS3505
ZHHH,2006-02-24 04:00,ZHHH 240400Z AUTO 30004KT 2SM 09/04 A3033 RMK SLP274 T00900040 IEM_DS3505
ZHHH,2006-02-24 05:00,ZHHH 240500Z AUTO 08004KT 2 1/2SM 09/04 A3027 RMK SLP254 T00900040 IEM_DS3505
ZHHH,2006-02-24 06:00,ZHHH 240600Z AUTO 07004KT 9SM 10/03 A3021 RMK SLP234 T01010027 57037 IEM_DS3505
ZHHH,2006-02-24 07:00,ZHHH 240700Z AUTO 5SM 10/03 A3021 RMK SLP232 T01000030 IEM_DS3505
ZHHH,2006-02-24 08:00,ZHHH 240800Z AUTO 30004KT 4SM 10/04 A3021 RMK SLP232 T01000040 IEM_DS3505
ZHHH,2006-02-24 09:00,ZHHH 240900Z AUTO 29002KT 9SM 10/03 A3021 RMK SLP235 T00990027 52001 IEM_DS3505
ZHHH,2006-02-24 10:00,ZHHH 241000Z AUTO 00000KT 4SM 09/04 A3021 RMK SLP233 T00900040 IEM_DS3505
ZHHH,2006-02-24 11:00,ZHHH 241100Z AUTO 19004KT 3SM 08/06 A3021 RMK SLP233 T00800060 IEM_DS3505
ZHHH,2006-02-24 12:00,ZHHH 241200Z AUTO 32002KT 7SM 08/06 A3021 RMK 60002 SLP233 T00840059 57002 IEM_DS3505
ZHHH,2006-02-24 13:00,ZHHH 241300Z AUTO 3SM 08/06 A3021 RMK SLP233 T00800060 IEM_DS3505
ZHHH,2006-02-24 14:00,ZHHH 241400Z AUTO 25002KT 2 1/2SM 08/06 A3021 RMK SLP233 T00800060 IEM_DS3505
ZHHH,2006-02-24 15:00,ZHHH 241500Z AUTO 29004KT 7SM 08/07 A3021 RMK SLP228 T00780066 57005 IEM_DS3505
ZHHH,2006-02-24 16:00,ZHHH 241600Z AUTO 28006KT 1 1/2SM 07/07 A3018 RMK SLP223 T00700070 IEM_DS3505
ZHHH,2006-02-24 17:00,ZHHH 241700Z AUTO 27004KT 1 1/2SM 07/07 A3018 RMK SLP223 T00700070 IEM_DS3505
ZHHH,2006-02-24 18:00,ZHHH 241800Z AUTO 27004KT 7SM 07/06 A3015 RMK 60000 SLP213 T00720058 57015 IEM_DS3505
ZHHH,2006-02-24 19:00,ZHHH 241900Z AUTO 31006KT 1 1/4SM 07/06 A3015 RMK SLP213 T00700060 IEM_DS3505
ZHHH,2006-02-24 20:00,ZHHH 242000Z AUTO 1 1/4SM 06/06 A3009 RMK SLP193 T00600060 IEM_DS3505
ZHHH,2006-02-24 21:00,ZHHH 242100Z AUTO 25002KT 9SM 07/05 A3012 RMK 70004 SLP200 T00690054 57013 IEM_DS3505
ZHHH,2006-02-24 22:00,ZHHH 242200Z AUTO 29002KT 1 1/4SM 06/06 A3015 RMK SLP213 T00600060 IEM_DS3505
ZHHH,2006-02-24 23:00,ZHHH 242300Z AUTO 16002KT 1SM 06/06 A3012 RMK SLP203 T00600060 IEM_DS3505
ZHHH,2006-02-25 00:00,ZHHH 250000Z AUTO 20002KT 7SM 07/05 A3012 RMK 60001 70004 SLP205 T00720050 52005 IEM_DS3505
ZHHH,2006-02-25 01:00,ZHHH 250100Z AUTO 18006KT 1SM 07/07 A3012 RMK SLP203 T00700070 IEM_DS3505
ZHHH,2006-02-25 02:00,ZHHH 250200Z AUTO 19004KT 1 1/4SM 08/07 A3015 RMK SLP213 T00800070 IEM_DS3505
ZHHH,2006-02-25 03:00,ZHHH 250300Z AUTO 27004KT 7SM 09/05 A3015 RMK SLP214 T00890049 52009 IEM_DS3505
ZHHH,2006-02-25 04:00,ZHHH 250400Z AUTO 31004KT 2SM 09/07 A3015 RMK SLP213 T00900070 IEM_DS3505
ZHHH,2006-02-25 05:00,ZHHH 250500Z AUTO 2 1/2SM 11/07 A3012 RMK SLP202 T01100070 IEM_DS3505
ZHHH,2006-02-25 06:00,ZHHH 250600Z AUTO 32002KT 7SM 11/06 A3009 RMK SLP194 T01130056 57020 IEM_DS3505
ZHHH,2006-02-25 07:00,ZHHH 250700Z AUTO 2 1/2SM 11/07 A3006 RMK SLP182 T01100070 IEM_DS3505
ZHHH,2006-02-25 08:00,ZHHH 250800Z AUTO 3SM 11/07 A3006 RMK SLP182 T01100070 IEM_DS3505
ZHHH,2006-02-25 09:00,ZHHH 250900Z AUTO 29002KT 7SM 12/06 A3006 RMK SLP184 T01200065 57010 IEM_DS3505
ZHHH,2006-02-25 10:00,ZHHH 251000Z AUTO 05004KT 2 1/2SM 11/07 A3009 RMK SLP192 T01100070 IEM_DS3505
ZHHH,2006-02-25 11:00,ZHHH 251100Z AUTO 16004KT 3SM 11/08 A3006 RMK SLP182 T01100080 IEM_DS3505
ZHHH,2006-02-25 12:00,ZHHH 251200Z AUTO 00000KT 9SM 11/07 A3012 RMK SLP199 T01080066 52015 IEM_DS3505
ZHHH,2006-02-25 13:00,ZHHH 251300Z AUTO 00000KT 3SM 10/08 A3012 RMK SLP202 T01000080 IEM_DS3505
ZHHH,2006-02-25 14:00,ZHHH 251400Z AUTO 04002KT 3SM 10/08 A3018 RMK SLP222 T01000080 IEM_DS3505
ZHHH,2006-02-25 15:00,ZHHH 251500Z AUTO 02002KT 7SM 10/07 A3021 RMK SLP229 T01040073 52030 IEM_DS3505
ZHHH,2006-02-25 16:00,ZHHH 251600Z AUTO 02004KT 3SM 10/08 A3021 RMK SLP232 T01000080 IEM_DS3505
ZHHH,2006-02-25 17:00,ZHHH 251700Z AUTO 04006KT 3SM 10/08 A3021 RMK SLP232 T01000080 IEM_DS3505
ZHHH,2006-02-25 18:00,ZHHH 251800Z AUTO 04004KT 7SM 10/06 A3021 RMK SLP227 T01020064 57002 IEM_DS3505
ZHHH,2006-02-25 19:00,ZHHH 251900Z AUTO 03008KT 3SM 09/07 A3021 RMK SLP233 T00900070 IEM_DS3505
ZHHH,2006-02-25 20:00,ZHHH 252000Z AUTO 02006KT 2 1/2SM 08/06 A3021 RMK SLP233 T00800060 IEM_DS3505
ZHHH,2006-02-25 21:00,ZHHH 252100Z AUTO 04004KT 7SM 08/06 A3021 RMK SLP228 T00830056 52001 IEM_DS3505
ZHHH,2006-02-25 22:00,ZHHH 252200Z AUTO 02008KT 1SM 07/05 A3024 RMK SLP243 T00700050 IEM_DS3505
ZHHH,2006-02-25 23:00,ZHHH 252300Z AUTO 02010KT 1SM 07/05 A3024 RMK SLP243 T00700050 IEM_DS3505
ZHHH,2006-02-26 00:00,ZHHH 260000Z AUTO 04008KT 5SM 07/04 A3027 RMK SLP251 T00700040 52023 IEM_DS3505
ZHHH,2006-02-26 01:00,ZHHH 260100Z AUTO 03014KT 1SM 07/04 A3027 RMK SLP254 T00700040 IEM_DS3505
ZHHH,2006-02-26 02:00,ZHHH 260200Z AUTO 04014KT 1SM 07/04 A3030 RMK SLP264 T00700040 IEM_DS3505
ZHHH,2006-02-26 03:00,ZHHH 260300Z AUTO 04004KT 6SM 08/04 A3033 RMK SLP274 T00760038 52023 IEM_DS3505
ZHHH,2006-02-26 04:00,ZHHH 260400Z AUTO 04012KT 1SM 07/05 A3033 RMK SLP274 T00700050 IEM_DS3505
ZHHH,2006-02-26 05:00,ZHHH 260500Z AUTO 04010KT 1SM 08/05 A3030 RMK SLP264 T00800050 IEM_DS3505
ZHHH,2006-02-26 06:00,ZHHH 260600Z AUTO 04002KT 7SM 08/04 A3027 RMK SLP255 T00850045 57019 IEM_DS3505
ZHHH,2006-02-26 07:00,ZHHH 260700Z AUTO 04014KT 1 1/4SM 07/05 A3027 RMK SLP254 T00700050 IEM_DS3505
ZHHH,2006-02-26 08:00,ZHHH 260800Z AUTO 04010KT 1 1/4SM 07/04 A3027 RMK SLP254 T00700040 IEM_DS3505
ZHHH,2006-02-26 09:00,ZHHH 260900Z AUTO 04006KT 7SM 07/04 A3027 RMK SLP253 T00690035 57002 IEM_DS3505
ZHHH,2006-02-26 10:00,ZHHH 261000Z AUTO 04016KT 1 1/2SM 05/03 A3027 RMK SLP254 T00500030 IEM_DS3505
ZHHH,2006-02-26 11:00,ZHHH 261100Z AUTO 04016KT 2SM 05/03 A3030 RMK SLP264 T00500030 IEM_DS3505
ZHHH,2006-02-26 12:00,ZHHH 261200Z AUTO 02008KT 7SM 06/02 A3030 RMK SLP266 T00610016 52013 IEM_DS3505
ZHHH,2006-02-26 13:00,ZHHH 261300Z AUTO 04016KT 3SM 05/01 A3033 RMK SLP274 T00500010 IEM_DS3505
ZHHH,2006-02-26 14:00,ZHHH 261400Z AUTO 04014KT 7SM 05/01 A3036 RMK SLP284 T00500010 IEM_DS3505
ZHHH,2006-02-26 15:00,ZHHH 261500Z AUTO 07004KT 7SM 06/00 A3036 RMK SLP283 T00570003 52017 IEM_DS3505
ZHHH,2006-02-26 16:00,ZHHH 261600Z AUTO 05012KT 6SM 05/01 A3036 RMK SLP284 T00500010 IEM_DS3505
ZHHH,2006-02-26 17:00,ZHHH 261700Z AUTO 04008KT 6SM 05/01 A3036 RMK SLP284 T00500010 IEM_DS3505
ZHHH,2006-02-26 18:00,ZHHH 261800Z AUTO 04006KT 7SM 06/M00 A3036 RMK SLP278 T00551001 57005 IEM_DS3505
ZHHH,2006-02-26 19:00,ZHHH 261900Z AUTO 03010KT 4SM 05/01 A3036 RMK SLP284 T00500010 IEM_DS3505
ZHHH,2006-02-26 20:00,ZHHH 262000Z AUTO 02010KT 4SM 03/01 A3036 RMK SLP284 T00300010 IEM_DS3505
ZHHH,2006-02-26 21:00,ZHHH 262100Z AUTO 04004KT 6SM 02/00 A3036 RMK 70009 SLP284 T00150003 52005 IEM_DS3505
ZHHH,2006-02-26 22:00,ZHHH 262200Z AUTO 04014KT 1SM 01/01 A3036 RMK SLP285 T00100010 IEM_DS3505
ZHHH,2006-02-26 23:00,ZHHH 262300Z AUTO 04012KT 2SM 01/01 A3036 RMK SLP285 T00100010 IEM_DS3505
ZHHH,2006-02-27 00:00,ZHHH 270000Z AUTO 04004KT 9SM 02/01 A3039 RMK 60024 70022 SLP291 T00180006 52007 IEM_DS3505
ZHHH,2006-02-27 01:00,ZHHH 270100Z AUTO 04014KT 4SM 01/00 A3039 RMK SLP295 T00100000 IEM_DS3505
ZHHH,2006-02-27 02:00,ZHHH 270200Z AUTO 03012KT 7SM 02/01 A3039 RMK SLP295 T00200010 IEM_DS3505
ZHHH,2006-02-27 03:00,ZHHH 270300Z AUTO 02006KT 9SM 02/00 A3039 RMK SLP290 T00230000 57001 IEM_DS3505
ZHHH,2006-02-27 04:00,ZHHH 270400Z AUTO 02012KT 3SM 02/00 A3039 RMK SLP295 T00200000 IEM_DS3505
ZHHH,2006-02-27 05:00,ZHHH 270500Z AUTO 01010KT 1SM 01/01 A3039 RMK SLP295 T00100010 IEM_DS3505
ZHHH,2006-02-27 06:00,ZHHH 270600Z AUTO 36006KT 6SM 01/00 A3036 RMK 60004 SLP287 T00140002 57003 IEM_DS3505
ZHHH,2006-02-27 07:00,ZHHH 270700Z AUTO 02010KT 1/2SM 00/00 A3036 RMK SLP285 T00000000 IEM_DS3505
ZHHH,2006-02-27 08:00,ZHHH 270800Z AUTO 02008KT 1SM 00/00 A3036 RMK SLP285 T00000000 IEM_DS3505
ZHHH,2006-02-27 09:00,ZHHH 270900Z AUTO 02006KT 6SM 01/00 A3036 RMK SLP288 T00080001 52001 IEM_DS3505
ZHHH,2006-02-27 10:00,ZHHH 271000Z AUTO 02010KT 1SM 00/00 A3039 RMK SLP295 T00000000 IEM_DS3505
ZHHH,2006-02-27 11:00,ZHHH 271100Z AUTO 02014KT 1SM 00/00 A3042 RMK SLP305 T00000000 IEM_DS3505
ZHHH,2006-02-27 12:00,ZHHH 271200Z AUTO 02004KT 6SM 00/M00 A3045 RMK 60047 SLP311 T00041003 52023 IEM_DS3505
ZHHH,2006-02-27 13:00,ZHHH 271300Z AUTO 04010KT 1SM 00/00 A3045 RMK SLP316 T00000000 IEM_DS3505
ZHHH,2006-02-27 14:00,ZHHH 271400Z AUTO 02008KT 1SM 00/00 A3047 RMK SLP322 T00000000 IEM_DS3505
ZHHH,2006-02-27 15:00,ZHHH 271500Z AUTO 01008KT 6SM 00/M01 A3047 RMK SLP322 T00001006 52011 IEM_DS3505
ZHHH,2006-02-27 16:00,ZHHH 271600Z AUTO 01008KT 1 1/4SM M01/M01 A3047 RMK SLP322 T10101010 IEM_DS3505
ZHHH,2006-02-27 17:00,ZHHH 271700Z AUTO 01008KT 1 1/2SM M01/M01 A3047 RMK SLP322 T10101010 IEM_DS3505
ZHHH,2006-02-27 18:00,ZHHH 271800Z AUTO 01008KT 6SM M01/M01 A3045 RMK 60024 SLP320 T10061014 57002 IEM_DS3505
ZHHH,2006-02-27 19:00,ZHHH 271900Z AUTO 01008KT 1 1/2SM M02/M02 A3045 RMK SLP316 T10201020 IEM_DS3505
ZHHH,2006-02-27 20:00,ZHHH 272000Z AUTO 01008KT 1 1/2SM M01/M01 A3045 RMK SLP316 T10101010 IEM_DS3505
ZHHH,2006-02-27 21:00,ZHHH 272100Z AUTO 01010KT 6SM M01/M02 A3045 RMK 70089 SLP313 T10071020 57007 IEM_DS3505
ZHHH,2006-02-27 22:00,ZHHH 272200Z AUTO 01006KT 2SM M02/M02 A3047 RMK SLP322 T10201020 IEM_DS3505
ZHHH,2006-02-27 23:00,ZHHH 272300Z AUTO 36006KT 1 1/4SM M01/M01 A3047 RMK SLP322 T10101010 IEM_DS3505
ZHHH,2006-02-28 00:00,ZHHH 280000Z AUTO 36006KT 6SM M01/M02 A3047 RMK 60004 70080 SLP321 T10071015 52008 IEM_DS3505
ZHHH,2006-02-28 01:00,ZHHH 280100Z AUTO 36006KT 1/2SM M01/M01 A3050 RMK SLP333 T10101010 IEM_DS3505
ZHHH,2006-02-28 02:00,ZHHH 280200Z AUTO 36006KT 1SM M01/M01 A3050 RMK SLP333 T10101010 IEM_DS3505
ZHHH,2006-02-28 03:00,ZHHH 280300Z AUTO 32004KT 6SM M00/M01 A3050 RMK SLP336 T10011014 52015 IEM_DS3505
ZHHH,2006-02-28 04:00,ZHHH 280400Z AUTO 36008KT 1 1/4SM 00/00 A3050 RMK SLP333 T00000000 IEM_DS3505
ZHHH,2006-02-28 05:00,ZHHH 280500Z AUTO 01008KT 2 1/2SM 00/00 A3047 RMK SLP322 T00000000 IEM_DS3505
ZHHH,2006-02-28 06:00,ZHHH 280600Z AUTO 29002KT 7SM 01/M01 A3045 RMK 60008 SLP318 T00121009 57018 IEM_DS3505
ZHHH,2006-02-28 07:00,ZHHH 280700Z AUTO 34006KT 4SM 02/02 A3045 RMK SLP316 T00200020 IEM_DS3505
ZHHH,2006-02-28 08:00,ZHHH 280800Z AUTO 03008KT 6SM 02/00 A3045 RMK SLP316 T00200000 IEM_DS3505
ZHHH,2006-02-28 09:00,ZHHH 280900Z AUTO 27002KT 11SM 02/M01 A3045 RMK SLP313 T00241014 57005 IEM_DS3505
ZHHH,2006-02-28 10:00,ZHHH 281000Z AUTO 05006KT 6SM 02/M01 A3045 RMK SLP316 T00201010 IEM_DS3505
ZHHH,2006-02-28 11:00,ZHHH 281100Z AUTO 06004KT 6SM 01/M01 A3045 RMK SLP316 T00101010 IEM_DS3505
ZHHH,2006-02-28 12:00,ZHHH 281200Z AUTO 34002KT 11SM 02/M01 A3047 RMK 60000 SLP325 T00161010 52012 IEM_DS3505
ZHHH,2006-02-28 13:00,ZHHH 281300Z AUTO 00000KT 4SM 01/M01 A3047 RMK SLP322 T00101010 IEM_DS3505
ZHHH,2006-02-28 14:00,ZHHH 281400Z AUTO 00000KT 4SM 01/M01 A3050 RMK SLP333 T00101010 IEM_DS3505
ZHHH,2006-02-28 15:00,ZHHH 281500Z AUTO 27002KT 9SM 01/M01 A3050 RMK SLP337 T00131006 52012 IEM_DS3505
ZHHH,2006-02-28 16:00,ZHHH 281600Z AUTO 27004KT 3SM 01/00 A3050 RMK SLP333 T00100000 IEM_DS3505
ZHHH,2006-02-28 17:00,ZHHH 281700Z AUTO 3SM 00/M01 A3047 RMK SLP322 T00001010 IEM_DS3505
ZHHH,2006-02-28 18:00,ZHHH 281800Z AUTO 27002KT 11SM 01/M01 A3047 RMK SLP323 T00071014 57014 IEM_DS3505
ZHHH,2006-02-28 19:00,ZHHH 281900Z AUTO 23004KT 4SM 00/M01 A3045 RMK SLP316 T00001010 IEM_DS3505
ZHHH,2006-02-28 20:00,ZHHH 282000Z AUTO 26002KT 2 1/2SM M01/M01 A3045 RMK SLP316 T10101010 IEM_DS3505
ZHHH,2006-02-28 21:00,ZHHH 282100Z AUTO 25002KT 9SM M01/M02 A3045 RMK 70013 SLP314 T10071018 57009 IEM_DS3505
ZHHH,2006-02-28 22:00,ZHHH 282200Z AUTO 24002KT 1 1/4SM M01/M01 A3045 RMK SLP316 T10101010 IEM_DS3505
ZHHH,2006-02-28 23:00,ZHHH 282300Z AUTO 33002KT 1/2SM M02/M02 A3045 RMK SLP316 T10201020 IEM_DS3505
ZHHH,2006-03-01 00:00,ZHHH 010000Z AUTO 36002KT 7SM 00/M01 A3047 RMK 70009 SLP315 T00011007 52001 IEM_DS3505
ZHHH,2006-03-01 01:00,ZHHH 010100Z AUTO 01004KT 1SM 01/01 A3045 RMK SLP316 T00100010 IEM_DS3505
ZHHH,2006-03-01 02:00,ZHHH 010200Z AUTO 23004KT 1SM 02/01 A3045 RMK SLP316 T00200010 IEM_DS3505
ZHHH,2006-03-01 03:00,ZHHH 010300Z AUTO 25006KT 9SM 04/00 A3047 RMK SLP321 T00380003 52006 IEM_DS3505
ZHHH,2006-03-01 04:00,ZHHH 010400Z AUTO 24006KT 1 1/4SM 05/02 A3045 RMK SLP315 T00500020 IEM_DS3505
ZHHH,2006-03-01 05:00,ZHHH 010500Z AUTO 22008KT 2SM 06/03 A3045 RMK SLP315 T00600030 IEM_DS3505
ZHHH,2006-03-01 06:00,ZHHH 010600Z AUTO 29002KT 11SM 08/01 A3039 RMK SLP293 T00760008 57028 IEM_DS3505
ZHHH,2006-03-01 07:00,ZHHH 010700Z AUTO 24006KT 4SM 08/01 A3036 RMK SLP284 T00800010 IEM_DS3505
ZHHH,2006-03-01 08:00,ZHHH 010800Z AUTO 21006KT 6SM 09/00 A3036 RMK SLP284 T00900000 IEM_DS3505
ZHHH,2006-03-01 09:00,ZHHH 010900Z AUTO 20002KT 9SM 09/M00 A3033 RMK SLP276 T00871001 57017 IEM_DS3505
ZHHH,2006-03-01 10:00,ZHHH 011000Z AUTO 21006KT 6SM 07/M01 A3033 RMK SLP274 T00701010 IEM_DS3505
ZHHH,2006-03-01 11:00,ZHHH 011100Z AUTO 20006KT 6SM 06/02 A3033 RMK SLP274 T00600020 IEM_DS3505
ZHHH,2006-03-01 12:00,ZHHH 011200Z AUTO 20004KT 11SM 05/01 A3033 RMK SLP274 T00470010 57002 IEM_DS3505
ZHHH,2006-03-01 13:00,ZHHH 011300Z AUTO 20004KT 4SM 05/01 A3033 RMK SLP274 T00500010 IEM_DS3505
ZHHH,2006-03-01 14:00,ZHHH 011400Z AUTO 21006KT 3SM 05/02 A3036 RMK SLP284 T00500020 IEM_DS3505
ZHHH,2006-03-01 15:00,ZHHH 011500Z AUTO 25002KT 9SM 04/01 A3036 RMK SLP278 T00350011 52004 IEM_DS3505
ZHHH,2006-03-01 16:00,ZHHH 011600Z AUTO 19004KT 3SM 04/02 A3033 RMK SLP274 T00400020 IEM_DS3505
ZHHH,2006-03-01 17:00,ZHHH 011700Z AUTO 18004KT 3SM 03/01 A3033 RMK SLP274 T00300010 IEM_DS3505
ZHHH,2006-03-01 18:00,ZHHH 011800Z AUTO 20002KT 11SM 03/M01 A3033 RMK SLP269 T00311011 57008 IEM_DS3505
ZHHH,2006-03-01 19:00,ZHHH 011900Z AUTO 16002KT 3SM 03/01 A3033 RMK SLP274 T00300010 IEM_DS3505
ZHHH,2006-03-01 20:00,ZHHH 012000Z AUTO 17002KT 3SM 03/00 A3030 RMK SLP264 T00300000 IEM_DS3505
ZHHH,2006-03-01 21:00,ZHHH 012100Z AUTO 20002KT 9SM 01/00 A3030 RMK SLP260 T00110001 57009 IEM_DS3505
ZHHH,2006-03-01 22:00,ZHHH 012200Z AUTO 12004KT 3SM 02/00 A3030 RMK SLP264 T00200000 IEM_DS3505
ZHHH,2006-03-01 23:00,ZHHH 012300Z AUTO 10004KT 1 1/4SM 02/00 A3030 RMK SLP264 T00200000 IEM_DS3505
ZHHH,2006-03-02 00:00,ZHHH 020000Z AUTO 14002KT 9SM 03/01 A3030 RMK SLP268 T00320014 52007 IEM_DS3505
ZHHH,2006-03-02 01:00,ZHHH 020100Z AUTO 13006KT 1SM 04/03 A3033 RMK SLP274 T00400030 IEM_DS3505
ZHHH,2006-03-02 02:00,ZHHH 020200Z AUTO 17004KT 1SM 07/04 A3033 RMK SLP274 T00700040 IEM_DS3505
ZHHH,2006-03-02 03:00,ZHHH 020300Z AUTO 16004KT 11SM 09/02 A3033 RMK SLP267 T00940016 54000 IEM_DS3505
ZHHH,2006-03-02 04:00,ZHHH 020400Z AUTO 18006KT 2 1/2SM 10/01 A3030 RMK SLP264 T01000010 IEM_DS3505
ZHHH,2006-03-02 05:00,ZHHH 020500Z AUTO 21006KT 4SM 12/02 A3024 RMK SLP242 T01200020 IEM_DS3505
ZHHH,2006-03-02 06:00,ZHHH 020600Z AUTO 18004KT 14SM 13/M00 A3021 RMK SLP231 T01301003 57036 IEM_DS3505
ZHHH,2006-03-02 07:00,ZHHH 020700Z AUTO 22008KT 6SM 13/02 A3018 RMK SLP222 T01300020 IEM_DS3505
ZHHH,2006-03-02 08:00,ZHHH 020800Z AUTO 18006KT 6SM 13/02 A3015 RMK SLP212 T01300020 IEM_DS3505
ZHHH,2006-03-02 09:00,ZHHH 020900Z AUTO 18002KT 12SM 14/M02 A3015 RMK SLP207 T01371015 57024 IEM_DS3505
ZHHH,2006-03-02 10:00,ZHHH 021000Z AUTO 19006KT 6SM 12/01 A3012 RMK SLP202 T01200010 IEM_DS3505
ZHHH,2006-03-02 11:00,ZHHH 021100Z AUTO 14004KT 6SM 11/02 A3015 RMK SLP212 T01100020 IEM_DS3505
ZHHH,2006-03-02 12:00,ZHHH 021200Z AUTO 07002KT 9SM 07/04 A3015 RMK SLP210 T00660041 52003 IEM_DS3505
ZHHH,2006-03-02 13:00,ZHHH 021300Z AUTO 12006KT 6SM 09/02 A3015 RMK SLP213 T00900020 IEM_DS3505
ZHHH,2006-03-02 14:00,ZHHH 021400Z AUTO 12006KT 6SM 08/03 A3018 RMK SLP223 T00800030 IEM_DS3505
ZHHH,2006-03-02 15:00,ZHHH 021500Z AUTO 11002KT 9SM 07/02 A3015 RMK SLP216 T00660019 52006 IEM_DS3505
ZHHH,2006-03-02 16:00,ZHHH 021600Z AUTO 14004KT 4SM 08/02 A3015 RMK SLP213 T00800020 IEM_DS3505
ZHHH,2006-03-02 17:00,ZHHH 021700Z AUTO 12006KT 4SM 07/03 A3018 RMK SLP223 T00700030 IEM_DS3505
ZHHH,2006-03-02 18:00,ZHHH 021800Z AUTO 09002KT 9SM 04/02 A3018 RMK SLP216 T00400024 54000 IEM_DS3505
ZHHH,2006-03-02 19:00,ZHHH 021900Z AUTO 12008KT 2 1/2SM 06/03 A3015 RMK SLP213 T00600030 IEM_DS3505
ZHHH,2006-03-02 20:00,ZHHH 022000Z AUTO 11008KT 2SM 05/02 A3015 RMK SLP213 T00500020 IEM_DS3505
ZHHH,2006-03-02 21:00,ZHHH 022100Z AUTO 09002KT 9SM 05/01 A3012 RMK SLP205 T00500006 57011 IEM_DS3505
ZHHH,2006-03-02 22:00,ZHHH 022200Z AUTO 11008KT 1 1/2SM 04/02 A3015 RMK SLP213 T00400020 IEM_DS3505
ZHHH,2006-03-02 23:00,ZHHH 022300Z AUTO 12008KT 1 1/2SM 04/02 A3015 RMK SLP213 T00400020 IEM_DS3505
ZHHH,2006-03-03 00:00,ZHHH 030000Z AUTO 11002KT 11SM 07/01 A3018 RMK SLP220 T00670012 52015 IEM_DS3505
ZHHH,2006-03-03 01:00,ZHHH 030100Z AUTO 12006KT 2 1/2SM 08/03 A3021 RMK SLP233 T00800030 IEM_DS3505
ZHHH,2006-03-03 02:00,ZHHH 030200Z AUTO 12008KT 3SM 10/04 A3021 RMK SLP232 T01000040 IEM_DS3505
ZHHH,2006-03-03 03:00,ZHHH 030300Z AUTO 14004KT 11SM 14/00 A3018 RMK SLP224 T01370004 52004 IEM_DS3505
ZHHH,2006-03-03 04:00,ZHHH 030400Z AUTO 12008KT 3SM 14/04 A3018 RMK SLP222 T01400040 IEM_DS3505
ZHHH,2006-03-03 05:00,ZHHH 030500Z AUTO 19006KT 6SM 16/03 A3015 RMK SLP212 T01600030 IEM_DS3505
ZHHH,2006-03-03 06:00,ZHHH 030600Z AUTO 20004KT 11SM 17/01 A3012 RMK SLP200 T01680009 57024 IEM_DS3505
ZHHH,2006-03-03 07:00,ZHHH 030700Z AUTO 20006KT 6SM 18/02 A3009 RMK SLP192 T01800020 IEM_DS3505
ZHHH,2006-03-03 08:00,ZHHH 030800Z AUTO 21006KT 6SM 17/03 A3009 RMK SLP192 T01700030 IEM_DS3505
ZHHH,2006-03-03 09:00,ZHHH 030900Z AUTO 11002KT 11SM 17/M01 A3009 RMK SLP186 T01711006 57014 IEM_DS3505
ZHHH,2006-03-03 10:00,ZHHH 031000Z AUTO 6SM 15/04 A3009 RMK SLP192 T01500040 IEM_DS3505
ZHHH,2006-03-03 11:00,ZHHH 031100Z AUTO 11004KT 6SM 14/05 A3009 RMK SLP192 T01400050 IEM_DS3505
ZHHH,2006-03-03 12:00,ZHHH 031200Z AUTO 09002KT 9SM 11/06 A3009 RMK SLP191 T01130056 52005 IEM_DS3505
ZHHH,2006-03-03 13:00,ZHHH 031300Z AUTO 11008KT 6SM 13/04 A3009 RMK SLP192 T01300040 IEM_DS3505
ZHHH,2006-03-03 14:00,ZHHH 031400Z AUTO 11008KT 4SM 12/05 A3012 RMK SLP202 T01200050 IEM_DS3505
ZHHH,2006-03-03 15:00,ZHHH 031500Z AUTO 07002KT 11SM 11/04 A3012 RMK SLP202 T01140042 52012 IEM_DS3505
ZHHH,2006-03-03 16:00,ZHHH 031600Z AUTO 11008KT 5SM 11/05 A3012 RMK SLP202 T01100050 IEM_DS3505
ZHHH,2006-03-03 17:00,ZHHH 031700Z AUTO 11006KT 5SM 10/05 A3012 RMK SLP202 T01000050 IEM_DS3505
ZHHH,2006-03-03 18:00,ZHHH 031800Z AUTO 11004KT 11SM 11/02 A3009 RMK SLP190 T01090025 57012 IEM_DS3505
ZHHH,2006-03-03 19:00,ZHHH 031900Z AUTO 11006KT 4SM 09/04 A3006 RMK SLP182 T00900040 IEM_DS3505
ZHHH,2006-03-03 20:00,ZHHH 032000Z AUTO 15004KT 3SM 09/04 A3006 RMK SLP182 T00900040 IEM_DS3505
ZHHH,2006-03-03 21:00,ZHHH 032100Z AUTO 16002KT 9SM 10/03 A3006 RMK SLP177 T00960031 57013 IEM_DS3505
ZHHH,2006-03-03 22:00,ZHHH 032200Z AUTO 11004KT 2 1/2SM 09/03 A3006 RMK SLP182 T00900030 IEM_DS3505
ZHHH,2006-03-03 23:00,ZHHH 032300Z AUTO 12008KT 3SM 08/03 A3006 RMK SLP183 T00800030 IEM_DS3505
ZHHH,2006-03-04 00:00,ZHHH 040000Z AUTO 11002KT 11SM 10/03 A3006 RMK SLP187 T01020030 52009 IEM_DS3505
ZHHH,2006-03-04 01:00,ZHHH 040100Z AUTO 16008KT 2 1/2SM 10/05 A3009 RMK SLP192 T01000050 IEM_DS3505
ZHHH,2006-03-04 02:00,ZHHH 040200Z AUTO 11004KT 2 1/2SM 12/05 A3009 RMK SLP192 T01200050 IEM_DS3505
ZHHH,2006-03-04 03:00,ZHHH 040300Z AUTO 22004KT 11SM 16/04 A3012 RMK SLP196 T01580042 52010 IEM_DS3505
ZHHH,2006-03-04 04:00,ZHHH 040400Z AUTO 03004KT 3SM 15/05 A3009 RMK SLP192 T01500050 IEM_DS3505
ZHHH,2006-03-04 05:00,ZHHH 040500Z AUTO 15004KT 4SM 17/06 A3006 RMK SLP182 T01700060 IEM_DS3505
ZHHH,2006-03-04 06:00,ZHHH 040600Z AUTO 09004KT 9SM 19/04 A3003 RMK SLP169 T01870045 57027 IEM_DS3505
ZHHH,2006-03-04 07:00,ZHHH 040700Z AUTO 14004KT 6SM 19/06 A3000 RMK SLP161 T01900060 IEM_DS3505
ZHHH,2006-03-04 08:00,ZHHH 040800Z AUTO 12006KT 6SM 18/05 A3000 RMK SLP161 T01800050 IEM_DS3505
ZHHH,2006-03-04 09:00,ZHHH 040900Z AUTO 09002KT 9SM 19/04 A3000 RMK SLP159 T01930043 57010 IEM_DS3505
ZHHH,2006-03-04 10:00,ZHHH 041000Z AUTO 12004KT 3SM 17/08 A3000 RMK SLP162 T01700080 IEM_DS3505
ZHHH,2006-03-04 11:00,ZHHH 041100Z AUTO 11006KT 3SM 16/07 A3000 RMK SLP162 T01600070 IEM_DS3505
ZHHH,2006-03-04 12:00,ZHHH 041200Z AUTO 09002KT 9SM 13/06 A3003 RMK SLP168 T01340058 52009 IEM_DS3505
ZHHH,2006-03-04 13:00,ZHHH 041300Z AUTO 13006KT 3SM 15/06 A3003 RMK SLP172 T01500060 IEM_DS3505
ZHHH,2006-03-04 14:00,ZHHH 041400Z AUTO 11004KT 6SM 14/06 A3003 RMK SLP172 T01400060 IEM_DS3505
ZHHH,2006-03-04 15:00,ZHHH 041500Z AUTO 00000KT 9SM 10/06 A3006 RMK SLP180 T01050065 52012 IEM_DS3505
ZHHH,2006-03-04 16:00,ZHHH 041600Z AUTO 02002KT 6SM 12/06 A3006 RMK SLP182 T01200060 IEM_DS3505
ZHHH,2006-03-04 17:00,ZHHH 041700Z AUTO 00000KT 6SM 11/06 A3006 RMK SLP182 T01100060 IEM_DS3505
ZHHH,2006-03-04 18:00,ZHHH 041800Z AUTO 00000KT 9SM 09/07 A3006 RMK SLP176 T00880069 57004 IEM_DS3505
ZHHH,2006-03-04 19:00,ZHHH 041900Z AUTO 11002KT 4SM 11/06 A3003 RMK SLP172 T01100060 IEM_DS3505
ZHHH,2006-03-04 20:00,ZHHH 042000Z AUTO 11006KT 2 1/2SM 10/07 A3000 RMK SLP162 T01000070 IEM_DS3505
ZHHH,2006-03-04 21:00,ZHHH 042100Z AUTO 09002KT 9SM 08/07 A3000 RMK SLP161 T00820067 57015 IEM_DS3505
ZHHH,2006-03-04 22:00,ZHHH 042200Z AUTO 11006KT 1 1/4SM 10/07 A3003 RMK SLP172 T01000070 IEM_DS3505
ZHHH,2006-03-04 23:00,ZHHH 042300Z AUTO 09004KT 1SM 10/08 A3003 RMK SLP172 T01000080 IEM_DS3505
ZHHH,2006-03-05 00:00,ZHHH 050000Z AUTO 07002KT 7SM 10/08 A3006 RMK SLP183 T01010077 52021 IEM_DS3505
ZHHH,2006-03-05 01:00,ZHHH 050100Z AUTO 12006KT 1 1/4SM 12/09 A3009 RMK SLP192 T01200090 IEM_DS3505
ZHHH,2006-03-05 02:00,ZHHH 050200Z AUTO 10004KT 1 1/2SM 14/09 A3009 RMK SLP192 T01400090 IEM_DS3505
ZHHH,2006-03-05 03:00,ZHHH 050300Z AUTO 16002KT 7SM 18/06 A3009 RMK SLP189 T01830065 52007 IEM_DS3505
ZHHH,2006-03-05 04:00,ZHHH 050400Z AUTO 12006KT 2 1/2SM 18/08 A3006 RMK SLP182 T01800080 IEM_DS3505
ZHHH,2006-03-05 05:00,ZHHH 050500Z AUTO 12004KT 2 1/2SM 19/08 A3003 RMK SLP171 T01900080 IEM_DS3505
ZHHH,2006-03-05 06:00,ZHHH 050600Z AUTO 20004KT 9SM 21/06 A3000 RMK SLP163 T02130060 57026 IEM_DS3505
ZHHH,2006-03-05 07:00,ZHHH 050700Z AUTO 4SM 21/08 A3000 RMK SLP161 T02100080 IEM_DS3505
ZHHH,2006-03-05 08:00,ZHHH 050800Z AUTO 21004KT 4SM 21/08 A2997 RMK SLP151 T02100080 IEM_DS3505
ZHHH,2006-03-05 09:00,ZHHH 050900Z AUTO 20002KT 11SM 22/07 A3000 RMK SLP156 T02150066 57007 IEM_DS3505
ZHHH,2006-03-05 10:00,ZHHH 051000Z AUTO 10006KT 4SM 19/11 A3000 RMK SLP161 T01900110 IEM_DS3505
ZHHH,2006-03-05 11:00,ZHHH 051100Z AUTO 10006KT 4SM 17/11 A3000 RMK SLP162 T01700110 IEM_DS3505
ZHHH,2006-03-05 12:00,ZHHH 051200Z AUTO 10006KT 9SM 14/10 A3000 RMK SLP162 T01410097 52006 IEM_DS3505
ZHHH,2006-03-05 13:00,ZHHH 051300Z AUTO 10006KT 4SM 16/10 A3003 RMK SLP172 T01600100 IEM_DS3505
ZHHH,2006-03-05 14:00,ZHHH 051400Z AUTO 08004KT 4SM 16/09 A3006 RMK SLP182 T01600090 IEM_DS3505
ZHHH,2006-03-05 15:00,ZHHH 051500Z AUTO 00000KT 9SM 13/10 A3006 RMK SLP178 T01260098 52016 IEM_DS3505
ZHHH,2006-03-05 16:00,ZHHH 051600Z AUTO 10004KT 2 1/2SM 15/10 A3006 RMK SLP182 T01500100 IEM_DS3505
ZHHH,2006-03-05 17:00,ZHHH 051700Z AUTO 2 1/2SM 15/10 A3006 RMK SLP182 T01500100 IEM_DS3505
ZHHH,2006-03-05 18:00,ZHHH 051800Z AUTO 05004KT 9SM 12/10 A3003 RMK SLP174 T01170096 57004 IEM_DS3505
ZHHH,2006-03-05 19:00,ZHHH 051900Z AUTO 03004KT 1 1/4SM 12/10 A3003 RMK SLP172 T01200100 IEM_DS3505
ZHHH,2006-03-05 20:00,ZHHH 052000Z AUTO 06006KT 1 1/4SM 12/09 A3003 RMK SLP172 T01200090 IEM_DS3505
ZHHH,2006-03-05 21:00,ZHHH 052100Z AUTO 08004KT 9SM 11/10 A3006 RMK SLP177 T01120095 52003 IEM_DS3505
ZHHH,2006-03-05 22:00,ZHHH 052200Z AUTO 16002KT 1 1/4SM 11/09 A3006 RMK SLP182 T01100090 IEM_DS3505
ZHHH,2006-03-05 23:00,ZHHH 052300Z AUTO 13004KT 1SM 10/09 A3009 RMK SLP192 T01000090 IEM_DS3505
ZHHH,2006-03-06 00:00,ZHHH 060000Z AUTO 09002KT 9SM 12/09 A3009 RMK SLP192 T01240092 52015 IEM_DS3505
ZHHH,2006-03-06 01:00,ZHHH 060100Z AUTO 12004KT 1SM 13/10 A3012 RMK SLP202 T01300100 IEM_DS3505
ZHHH,2006-03-06 02:00,ZHHH 060200Z AUTO 09004KT 2SM 16/11 A3012 RMK SLP202 T01600110 IEM_DS3505
ZHHH,2006-03-06 03:00,ZHHH 060300Z AUTO 09002KT 9SM 20/10 A3012 RMK SLP201 T01960095 52009 IEM_DS3505
ZHHH,2006-03-06 04:00,ZHHH 060400Z AUTO 3SM 20/10 A3012 RMK SLP201 T02000100 IEM_DS3505
ZHHH,2006-03-06 05:00,ZHHH 060500Z AUTO 07004KT 4SM 22/11 A3009 RMK SLP191 T02200110 IEM_DS3505
ZHHH,2006-03-06 06:00,ZHHH 060600Z AUTO 04004KT 9SM 23/08 A3006 RMK SLP174 T02300075 57027 IEM_DS3505
ZHHH,2006-03-06 07:00,ZHHH 060700Z AUTO 6SM 23/09 A3003 RMK SLP171 T02300090 IEM_DS3505
ZHHH,2006-03-06 08:00,ZHHH 060800Z AUTO 13006KT 6SM 22/10 A3000 RMK SLP161 T02200100 IEM_DS3505
ZHHH,2006-03-06 09:00,ZHHH 060900Z AUTO 09002KT 9SM 23/07 A3000 RMK SLP160 T02280066 57014 IEM_DS3505
ZHHH,2006-03-06 10:00,ZHHH 061000Z AUTO 14004KT 6SM 21/10 A3000 RMK SLP161 T02100100 IEM_DS3505
ZHHH,2006-03-06 11:00,ZHHH 061100Z AUTO 14004KT 6SM 20/10 A3003 RMK SLP171 T02000100 IEM_DS3505
ZHHH,2006-03-06 12:00,ZHHH 061200Z AUTO 04008KT 9SM 15/11 A3003 RMK SLP171 T01500114 52011 IEM_DS3505
ZHHH,2006-03-06 13:00,ZHHH 061300Z AUTO 05010KT 1 1/2SM 16/12 A3006 RMK SLP182 T01600120 IEM_DS3505
ZHHH,2006-03-06 14:00,ZHHH 061400Z AUTO 06012KT 1 1/4SM 15/12 A3006 RMK SLP182 T01500120 IEM_DS3505
ZHHH,2006-03-06 15:00,ZHHH 061500Z AUTO 07006KT 9SM 15/11 A3006 RMK SLP184 T01500108 52013 IEM_DS3505
ZHHH,2006-03-06 16:00,ZHHH 061600Z AUTO 06008KT 1 1/4SM 13/10 A3006 RMK SLP182 T01300100 IEM_DS3505
ZHHH,2006-03-06 17:00,ZHHH 061700Z AUTO 07006KT 1 1/4SM 12/10 A3006 RMK SLP182 T01200100 IEM_DS3505
ZHHH,2006-03-06 18:00,ZHHH 061800Z AUTO 07006KT 9SM 13/09 A3006 RMK SLP176 T01300094 57008 IEM_DS3505
ZHHH,2006-03-06 19:00,ZHHH 061900Z AUTO 06010KT 1SM 11/09 A3003 RMK SLP172 T01100090 IEM_DS3505
ZHHH,2006-03-06 20:00,ZHHH 062000Z AUTO 13004KT 1 1/4SM 11/09 A3003 RMK SLP172 T01100090 IEM_DS3505
ZHHH,2006-03-06 21:00,ZHHH 062100Z AUTO 09002KT 9SM 12/09 A3003 RMK SLP168 T01230090 57008 IEM_DS3505
ZHHH,2006-03-06 22:00,ZHHH 062200Z AUTO 1 1/4SM 11/09 A3003 RMK SLP172 T01100090 IEM_DS3505
ZHHH,2006-03-06 23:00,ZHHH 062300Z AUTO 07008KT 1SM 10/08 A3003 RMK SLP172 T01000080 IEM_DS3505
ZHHH,2006-03-07 00:00,ZHHH 070000Z AUTO 11002KT 7SM 12/09 A3003 RMK SLP176 T01250086 52008 IEM_DS3505
ZHHH,2006-03-07 01:00,ZHHH 070100Z AUTO 07004KT 1SM 13/09 A3006 RMK SLP182 T01300090 IEM_DS3505
ZHHH,2006-03-07 02:00,ZHHH 070200Z AUTO 1SM 14/10 A3006 RMK SLP182 T01400100 IEM_DS3505
ZHHH,2006-03-07 03:00,ZHHH 070300Z AUTO 09002KT 7SM 17/10 A3006 RMK SLP175 T01730102 57001 IEM_DS3505
ZHHH,2006-03-07 04:00,ZHHH 070400Z AUTO 12006KT 1 1/4SM 20/12 A3003 RMK SLP171 T02000120 IEM_DS3505
ZHHH,2006-03-07 05:00,ZHHH 070500Z AUTO 14006KT 1 1/4SM 21/12 A3000 RMK SLP161 T02100120 IEM_DS3505
ZHHH,2006-03-07 06:00,ZHHH 070600Z AUTO 14002KT 9SM 23/09 A2997 RMK SLP146 T02270088 57029 IEM_DS3505
ZHHH,2006-03-07 07:00,ZHHH 070700Z AUTO 11004KT 1 1/4SM 22/12 A2994 RMK SLP141 T02200120 IEM_DS3505
ZHHH,2006-03-07 08:00,ZHHH 070800Z AUTO 12006KT 3SM 23/12 A2994 RMK SLP141 T02300120 IEM_DS3505
ZHHH,2006-03-07 09:00,ZHHH 070900Z AUTO 14004KT 9SM 21/10 A2994 RMK SLP143 T02100105 57003 IEM_DS3505
ZHHH,2006-03-07 10:00,ZHHH 071000Z AUTO 15006KT 3SM 20/13 A2997 RMK SLP151 T02000130 IEM_DS3505
ZHHH,2006-03-07 11:00,ZHHH 071100Z AUTO 14006KT 2SM 19/13 A2997 RMK SLP151 T01900130 IEM_DS3505
ZHHH,2006-03-07 12:00,ZHHH 071200Z AUTO 14002KT 7SM 19/12 A3000 RMK 60000 SLP161 T01920115 52018 IEM_DS3505
ZHHH,2006-03-07 13:00,ZHHH 071300Z AUTO 11006KT 1SM 18/13 A3003 RMK SLP171 T01800130 IEM_DS3505
ZHHH,2006-03-07 14:00,ZHHH 071400Z AUTO 11006KT 1SM 17/14 A3003 RMK SLP172 T01700140 IEM_DS3505
ZHHH,2006-03-07 15:00,ZHHH 071500Z AUTO 10006KT 9SM 15/12 A3003 RMK SLP172 T01520120 52011 IEM_DS3505
ZHHH,2006-03-07 16:00,ZHHH 071600Z AUTO 10008KT 1SM 15/13 A3003 RMK SLP172 T01500130 IEM_DS3505
ZHHH,2006-03-07 17:00,ZHHH 071700Z AUTO 10008KT 1SM 15/13 A3003 RMK SLP172 T01500130 IEM_DS3505
ZHHH,2006-03-07 18:00,ZHHH 071800Z AUTO 10008KT 9SM 14/12 A3003 RMK 60000 SLP169 T01410118 57003 IEM_DS3505
ZHHH,2006-03-07 19:00,ZHHH 071900Z AUTO 09006KT 1SM 14/12 A3003 RMK SLP172 T01400120 IEM_DS3505
ZHHH,2006-03-07 20:00,ZHHH 072000Z AUTO 11006KT 1SM 14/12 A3000 RMK SLP162 T01400120 IEM_DS3505
ZHHH,2006-03-07 21:00,ZHHH 072100Z AUTO 27002KT 9SM 14/11 A3003 RMK 70000 SLP166 T01370114 57003 IEM_DS3505
ZHHH,2006-03-07 22:00,ZHHH 072200Z AUTO 12004KT 1SM 13/12 A3003 RMK SLP172 T01300120 IEM_DS3505
ZHHH,2006-03-07 23:00,ZHHH 072300Z AUTO 12004KT 1SM 13/11 A3003 RMK SLP172 T01300110 IEM_DS3505
ZHHH,2006-03-08 00:00,ZHHH 080000Z AUTO 09002KT 5SM 14/11 A3003 RMK 70000 SLP175 T01420114 52009 IEM_DS3505
ZHHH,2006-03-08 01:00,ZHHH 080100Z AUTO 10006KT 1SM 14/12 A3006 RMK SLP182 T01400120 IEM_DS3505
ZHHH,2006-03-08 02:00,ZHHH 080200Z AUTO 11004KT 1 1/4SM 17/14 A3009 RMK SLP192 T01700140 IEM_DS3505
ZHHH,2006-03-08 03:00,ZHHH 080300Z AUTO 14002KT 6SM 19/13 A3006 RMK SLP181 T01930130 52006 IEM_DS3505
ZHHH,2006-03-08 04:00,ZHHH 080400Z AUTO 1 1/4SM 20/14 A3006 RMK SLP181 T02000140 IEM_DS3505
ZHHH,2006-03-08 05:00,ZHHH 080500Z AUTO 06004KT 2SM 21/15 A3003 RMK SLP171 T02100150 IEM_DS3505
ZHHH,2006-03-08 06:00,ZHHH 080600Z AUTO 04004KT 7SM 21/12 A3000 RMK SLP162 T02140123 57019 IEM_DS3505
ZHHH,2006-03-08 07:00,ZHHH 080700Z AUTO 04006KT 4SM 21/15 A3000 RMK SLP161 T02100150 IEM_DS3505
ZHHH,2006-03-08 08:00,ZHHH 080800Z AUTO 35008KT 3SM 20/14 A3000 RMK SLP161 T02000140 IEM_DS3505
ZHHH,2006-03-08 09:00,ZHHH 080900Z AUTO 34004KT 9SM 20/12 A3003 RMK SLP166 T02050125 52004 IEM_DS3505
ZHHH,2006-03-08 10:00,ZHHH 081000Z AUTO 04008KT 1SM 17/13 A3003 RMK SLP172 T01700130 IEM_DS3505
ZHHH,2006-03-08 11:00,ZHHH 081100Z AUTO 05012KT 1SM 15/13 A3006 RMK SLP182 T01500130 IEM_DS3505
ZHHH,2006-03-08 12:00,ZHHH 081200Z AUTO 02004KT 7SM 16/12 A3009 RMK SLP188 T01600118 52022 IEM_DS3505
ZHHH,2006-03-08 13:00,ZHHH 081300Z AUTO 04010KT 1SM 13/11 A3012 RMK SLP202 T01300110 IEM_DS3505
ZHHH,2006-03-08 14:00,ZHHH 081400Z AUTO 04010KT 1SM 12/11 A3012 RMK SLP202 T01200110 IEM_DS3505
ZHHH,2006-03-08 15:00,ZHHH 081500Z AUTO 07004KT 9SM 12/10 A3015 RMK SLP210 T01250102 52022 IEM_DS3505
ZHHH,2006-03-08 16:00,ZHHH 081600Z AUTO 03008KT 1 1/4SM 12/10 A3015 RMK SLP212 T01200100 IEM_DS3505
ZHHH,2006-03-08 17:00,ZHHH 081700Z AUTO 01004KT 1SM 12/10 A3015 RMK SLP212 T01200100 IEM_DS3505
ZHHH,2006-03-08 18:00,ZHHH 081800Z AUTO 34002KT 7SM 12/10 A3015 RMK SLP210 T01230105 54000 IEM_DS3505
ZHHH,2006-03-08 19:00,ZHHH 081900Z AUTO 33006KT 1SM 11/10 A3015 RMK SLP212 T01100100 IEM_DS3505
ZHHH,2006-03-08 20:00,ZHHH 082000Z AUTO 34008KT 1SM 11/10 A3015 RMK SLP212 T01100100 IEM_DS3505
ZHHH,2006-03-08 21:00,ZHHH 082100Z AUTO 29002KT 7SM 12/10 A3015 RMK SLP216 T01180097 52006 IEM_DS3505
ZHHH,2006-03-08 22:00,ZHHH 082200Z AUTO 05004KT 1SM 11/10 A3018 RMK SLP222 T01100100 IEM_DS3505
ZHHH,2006-03-08 23:00,ZHHH 082300Z AUTO 03006KT 1SM 11/10 A3018 RMK SLP222 T01100100 IEM_DS3505
ZHHH,2006-03-09 00:00,ZHHH 090000Z AUTO 02004KT 5SM 12/09 A3018 RMK SLP224 T01160090 52008 IEM_DS3505
ZHHH,2006-03-09 01:00,ZHHH 090100Z AUTO 04006KT 1SM 11/09 A3021 RMK SLP232 T01100090 IEM_DS3505
ZHHH,2006-03-09 02:00,ZHHH 090200Z AUTO 05006KT 1SM 11/09 A3021 RMK SLP232 T01100090 IEM_DS3505
ZHHH,2006-03-09 03:00,ZHHH 090300Z AUTO 07002KT 6SM 12/09 A3021 RMK SLP230 T01220090 52005 IEM_DS3505
ZHHH,2006-03-09 04:00,ZHHH 090400Z AUTO 30006KT 1SM 13/10 A3021 RMK SLP232 T01300100 IEM_DS3505
ZHHH,2006-03-09 05:00,ZHHH 090500Z AUTO 29004KT 1SM 13/10 A3018 RMK SLP222 T01300100 IEM_DS3505
ZHHH,2006-03-09 06:00,ZHHH 090600Z AUTO 18002KT 7SM 15/09 A3012 RMK SLP205 T01470093 57024 IEM_DS3505
ZHHH,2006-03-09 07:00,ZHHH 090700Z AUTO 30004KT 1 1/4SM 14/10 A3012 RMK SLP202 T01400100 IEM_DS3505
ZHHH,2006-03-09 08:00,ZHHH 090800Z AUTO 12004KT 1 1/2SM 15/10 A3009 RMK SLP192 T01500100 IEM_DS3505
ZHHH,2006-03-09 09:00,ZHHH 090900Z AUTO 11002KT 7SM 16/10 A3006 RMK SLP178 T01580097 57027 IEM_DS3505
ZHHH,2006-03-09 10:00,ZHHH 091000Z AUTO 13004KT 1SM 14/11 A3006 RMK SLP182 T01400110 IEM_DS3505
ZHHH,2006-03-09 11:00,ZHHH 091100Z AUTO 11004KT 1SM 14/11 A3006 RMK SLP182 T01400110 IEM_DS3505
ZHHH,2006-03-09 12:00,ZHHH 091200Z AUTO 16002KT 9SM 13/10 A3006 RMK SLP180 T01340100 52002 IEM_DS3505
ZHHH,2006-03-09 13:00,ZHHH 091300Z AUTO 11004KT 1SM 12/11 A3009 RMK SLP192 T01200110 IEM_DS3505
ZHHH,2006-03-09 14:00,ZHHH 091400Z AUTO 11006KT 1SM 12/11 A3009 RMK SLP192 T01200110 IEM_DS3505
ZHHH,2006-03-09 15:00,ZHHH 091500Z AUTO 07002KT 9SM 12/10 A3006 RMK SLP181 T01200102 52001 IEM_DS3505
ZHHH,2006-03-09 16:00,ZHHH 091600Z AUTO 10004KT 1/2SM 11/11 A3006 RMK SLP182 T01100110 IEM_DS3505
ZHHH,2006-03-09 17:00,ZHHH 091700Z AUTO 1/2SM 11/10 A3006 RMK SLP182 T01100100 IEM_DS3505
ZHHH,2006-03-09 18:00,ZHHH 091800Z AUTO 10004KT 6SM 11/10 A3003 RMK SLP171 T01070098 57010 IEM_DS3505
ZHHH,2006-03-09 19:00,ZHHH 091900Z AUTO 09006KT 3/8SM 10/10 A3003 RMK SLP172 T01000100 IEM_DS3505
ZHHH,2006-03-09 20:00,ZHHH 092000Z AUTO 06004KT 3/8SM 10/10 A3003 RMK SLP172 T01000100 IEM_DS3505
ZHHH,2006-03-09 21:00,ZHHH 092100Z AUTO 11002KT 6SM 11/10 A3003 RMK SLP168 T01060098 57003 IEM_DS3505
ZHHH,2006-03-09 22:00,ZHHH 092200Z AUTO 08002KT 1/8SM 09/09 A3003 RMK SLP172 T00900090 IEM_DS3505
ZHHH,2006-03-09 23:00,ZHHH 092300Z AUTO 13006KT 1/8SM 09/09 A3003 RMK T00900090 IEM_DS3505
ZHHH,2006-03-10 00:00,ZHHH 100000Z AUTO 09002KT 3/8SM 11/ A3000 RMK SLP169 52001 IEM_DS3505
ZHHH,2006-03-10 01:00,ZHHH 100100Z AUTO 12006KT 1/8SM 10/10 A3006 RMK SLP182 T01000100 IEM_DS3505
ZHHH,2006-03-10 02:00,ZHHH 100200Z AUTO 13006KT 1/4SM 11/11 A3006 RMK SLP182 T01100110 IEM_DS3505
ZHHH,2006-03-10 03:00,ZHHH 100300Z AUTO 36002KT 5SM 14/12 A3006 RMK SLP181 T01380117 52012 IEM_DS3505
ZHHH,2006-03-10 04:00,ZHHH 100400Z AUTO 06006KT 1/4SM 12/12 A3003 RMK SLP172 T01200120 IEM_DS3505
ZHHH,2006-03-10 05:00,ZHHH 100500Z AUTO 03004KT 1SM 12/12 A3006 RMK SLP182 T01200120 IEM_DS3505
ZHHH,2006-03-10 06:00,ZHHH 100600Z AUTO 02006KT 6SM 13/12 A3000 RMK 60000 SLP157 T01340115 57024 IEM_DS3505
ZHHH,2006-03-10 07:00,ZHHH 100700Z AUTO 17004KT 1SM 13/12 A2997 RMK SLP152 T01300120 IEM_DS3505
ZHHH,2006-03-10 08:00,ZHHH 100800Z AUTO 1SM 13/13 A2997 RMK SLP152 T01300130 IEM_DS3505
ZHHH,2006-03-10 09:00,ZHHH 100900Z AUTO 36002KT 6SM 14/12 A2997 RMK SLP152 T01370118 57005 IEM_DS3505
ZHHH,2006-03-10 10:00,ZHHH 101000Z AUTO 1SM 13/13 A2997 RMK SLP152 T01300130 IEM_DS3505
ZHHH,2006-03-10 11:00,ZHHH 101100Z AUTO 35002KT 1SM 13/13 A2997 RMK SLP152 T01300130 IEM_DS3505
ZHHH,2006-03-10 12:00,ZHHH 101200Z AUTO 02002KT 6SM 14/12 A2997 RMK 60000 SLP155 T01370123 52003 IEM_DS3505
ZHHH,2006-03-10 13:00,ZHHH 101300Z AUTO 36004KT 1SM 13/13 A3000 RMK SLP162 T01300130 IEM_DS3505
ZHHH,2006-03-10 14:00,ZHHH 101400Z AUTO 00000KT 1SM 13/13 A3000 RMK SLP162 T01300130 IEM_DS3505
ZHHH,2006-03-10 15:00,ZHHH 101500Z AUTO 20002KT 6SM 14/12 A3003 RMK SLP166 T01350124 52011 IEM_DS3505
ZHHH,2006-03-10 16:00,ZHHH 101600Z AUTO 1/2SM 13/13 A2997 RMK SLP152 T01300130 IEM_DS3505
ZHHH,2006-03-10 17:00,ZHHH 101700Z AUTO 01004KT 1/2SM 13/13 A2997 RMK SLP152 T01300130 IEM_DS3505
ZHHH,2006-03-10 18:00,ZHHH 101800Z AUTO 07002KT 6SM 13/12 A2997 RMK 60004 SLP142 T01310123 57024 IEM_DS3505
ZHHH,2006-03-10 19:00,ZHHH 101900Z AUTO 1/8SM 12/12 A2994 RMK SLP142 T01200120 IEM_DS3505
ZHHH,2006-03-10 20:00,ZHHH 102000Z AUTO 34004KT 1/8SM 12/12 A2994 RMK SLP142 T01200120 IEM_DS3505
ZHHH,2006-03-10 21:00,ZHHH 102100Z AUTO 11002KT 6SM 13/12 A2994 RMK 70006 SLP139 T01280122 57003 IEM_DS3505
ZHHH,2006-03-10 22:00,ZHHH 102200Z AUTO 1/4SM 12/12 A2991 RMK SLP132 T01200120 IEM_DS3505
ZHHH,2006-03-10 23:00,ZHHH 102300Z AUTO 23004KT 1/4SM 12/12 A2997 RMK SLP152 T01200120 IEM_DS3505
ZHHH,2006-03-11 00:00,ZHHH 110000Z AUTO 04004KT 4SM 13/12 A2994 RMK 60004 70011 SLP139 T01300124 54000 IEM_DS3505
ZHHH,2006-03-11 01:00,ZHHH 110100Z AUTO 36006KT 3/8SM 12/12 A3000 RMK SLP162 T01200120 IEM_DS3505
ZHHH,2006-03-11 02:00,ZHHH 110200Z AUTO 04004KT 1/2SM 13/13 A2997 RMK SLP152 T01300130 IEM_DS3505
ZHHH,2006-03-11 03:00,ZHHH 110300Z AUTO 04002KT 6SM 14/12 A2997 RMK SLP149 T01370123 52010 IEM_DS3505
ZHHH,2006-03-11 04:00,ZHHH 110400Z AUTO 01006KT 1SM 13/13 A2997 RMK SLP152 T01300130 IEM_DS3505
ZHHH,2006-03-11 05:00,ZHHH 110500Z AUTO 04008KT 1SM 13/13 A2994 RMK SLP142 T01300130 IEM_DS3505
ZHHH,2006-03-11 06:00,ZHHH 110600Z AUTO 36004KT 6SM 14/12 A2994 RMK 60002 SLP136 T01390123 57013 IEM_DS3505
ZHHH,2006-03-11 07:00,ZHHH 110700Z AUTO 03017KT 1SM 13/13 A2991 RMK SLP132 T01300130 IEM_DS3505
ZHHH,2006-03-11 08:00,ZHHH 110800Z AUTO 04016G27KT 1 1/4SM 12/10 A2994 RMK SLP142 T01200100 IEM_DS3505
ZHHH,2006-03-11 09:00,ZHHH 110900Z AUTO 02006KT 6SM 12/11 A3003 RMK SLP158 T01210107 52022 IEM_DS3505
ZHHH,2006-03-11 10:00,ZHHH 111000Z AUTO 04023G35KT 2SM 11/09 A3006 RMK SLP182 T01100090 IEM_DS3505
ZHHH,2006-03-11 11:00,ZHHH 111100Z AUTO 04019G31KT 3SM 10/09 A3009 RMK SLP192 T01000090 IEM_DS3505
ZHHH,2006-03-11 12:00,ZHHH 111200Z AUTO 04008KT 9SM 10/08 A3012 RMK 60051 SLP203 T01040076 52044 IEM_DS3505
ZHHH,2006-03-11 13:00,ZHHH 111300Z AUTO 04014KT 7SM 10/07 A3015 RMK SLP212 T01000070 IEM_DS3505
ZHHH,2006-03-11 14:00,ZHHH 111400Z AUTO 04019G31KT 7SM 09/04 A3018 RMK SLP223 T00900040 IEM_DS3505
ZHHH,2006-03-11 15:00,ZHHH 111500Z AUTO 04006G25KT 11SM 10/04 A3021 RMK SLP234 T00960038 52031 IEM_DS3505
ZHHH,2006-03-11 16:00,ZHHH 111600Z AUTO 03010KT 7SM 09/06 A3021 RMK SLP233 T00900060 IEM_DS3505
ZHHH,2006-03-11 17:00,ZHHH 111700Z AUTO 03010KT 7SM 08/06 A3024 RMK SLP243 T00800060 IEM_DS3505
ZHHH,2006-03-11 18:00,ZHHH 111800Z AUTO 02006KT 6SM 09/05 A3024 RMK 60020 SLP240 T00900050 52006 IEM_DS3505
ZHHH,2006-03-11 19:00,ZHHH 111900Z AUTO 04014KT 7SM 09/04 A3021 RMK SLP233 T00900040 IEM_DS3505
ZHHH,2006-03-11 20:00,ZHHH 112000Z AUTO 02014KT 7SM 08/04 A3021 RMK SLP233 T00800040 IEM_DS3505
ZHHH,2006-03-11 21:00,ZHHH 112100Z AUTO 04006KT 6SM 08/03 A3027 RMK 70076 SLP245 T00850027 52005 IEM_DS3505
ZHHH,2006-03-11 22:00,ZHHH 112200Z AUTO 01014KT 7SM 07/02 A3033 RMK SLP274 T00700020 IEM_DS3505
ZHHH,2006-03-11 23:00,ZHHH 112300Z AUTO 02014KT 6SM 07/01 A3036 RMK SLP284 T00700010 IEM_DS3505
ZHHH,2006-03-12 00:00,ZHHH 120000Z AUTO 02008KT 12SM 07/M00 A3039 RMK 60000 70071 SLP297 T00691001 52052 IEM_DS3505
ZHHH,2006-03-12 01:00,ZHHH 120100Z AUTO 03014KT 6SM 06/01 A3045 RMK SLP315 T00600010 IEM_DS3505
ZHHH,2006-03-12 02:00,ZHHH 120200Z AUTO 03014G23KT 6SM 06/00 A3047 RMK SLP321 T00600000 IEM_DS3505
ZHHH,2006-03-12 03:00,ZHHH 120300Z AUTO 04008KT 12SM 07/M01 A3047 RMK SLP320 T00701014 52023 IEM_DS3505
ZHHH,2006-03-12 04:00,ZHHH 120400Z AUTO 03017KT 6SM 07/M02 A3047 RMK SLP321 T00701020 IEM_DS3505
ZHHH,2006-03-12 05:00,ZHHH 120500Z AUTO 04017KT 6SM 07/M03 A3047 RMK SLP321 T00701030 IEM_DS3505
ZHHH,2006-03-12 06:00,ZHHH 120600Z AUTO 04010KT 12SM 07/M06 A3047 RMK SLP318 T00681055 57002 IEM_DS3505
ZHHH,2006-03-12 07:00,ZHHH 120700Z AUTO 04017G27KT 6SM 06/M06 A3047 RMK SLP321 T00601060 IEM_DS3505
ZHHH,2006-03-12 08:00,ZHHH 120800Z AUTO 04016KT 6SM 05/M07 A3047 RMK SLP321 T00501070 IEM_DS3505
ZHHH,2006-03-12 09:00,ZHHH 120900Z AUTO 04006KT 11SM 05/M08 A3050 RMK SLP332 T00531079 52014 IEM_DS3505
ZHHH,2006-03-12 10:00,ZHHH 121000Z AUTO 02012KT 7SM 03/M05 A3053 RMK SLP343 T00301050 IEM_DS3505
ZHHH,2006-03-12 11:00,ZHHH 121100Z AUTO 02004KT 6SM 03/M05 A3050 RMK SLP333 T00301050 IEM_DS3505
ZHHH,2006-03-12 12:00,ZHHH 121200Z AUTO 32004KT 9SM 04/M06 A3050 RMK SLP344 T00361056 52011 IEM_DS3505
ZHHH,2006-03-12 13:00,ZHHH 121300Z AUTO 36004KT 6SM 03/M04 A3056 RMK SLP353 T00301040 IEM_DS3505
ZHHH,2006-03-12 14:00,ZHHH 121400Z AUTO 04008KT 6SM 03/M07 A3056 RMK SLP353 T00301070 IEM_DS3505
ZHHH,2006-03-12 15:00,ZHHH 121500Z AUTO 07004KT 7SM 04/M10 A3056 RMK SLP357 T00361104 52013 IEM_DS3505
ZHHH,2006-03-12 16:00,ZHHH 121600Z AUTO 01004KT 6SM 03/M08 A3056 RMK SLP353 T00301080 IEM_DS3505
ZHHH,2006-03-12 17:00,ZHHH 121700Z AUTO 36006KT 6SM 03/M06 A3056 RMK SLP353 T00301060 IEM_DS3505
ZHHH,2006-03-12 18:00,ZHHH 121800Z AUTO 36004KT 12SM 04/M08 A3056 RMK SLP351 T00361078 57006 IEM_DS3505
ZHHH,2006-03-12 19:00,ZHHH 121900Z AUTO 34008KT 6SM 03/M04 A3056 RMK SLP353 T00301040 IEM_DS3505
ZHHH,2006-03-12 20:00,ZHHH 122000Z AUTO 34006KT 6SM 03/M03 A3053 RMK SLP343 T00301030 IEM_DS3505
ZHHH,2006-03-12 21:00,ZHHH 122100Z AUTO 32002KT 9SM 03/M04 A3053 RMK 70000 SLP342 T00311037 57009 IEM_DS3505
ZHHH,2006-03-12 22:00,ZHHH 122200Z AUTO 34006KT 6SM 02/M03 A3053 RMK SLP343 T00201030 IEM_DS3505
ZHHH,2006-03-12 23:00,ZHHH 122300Z AUTO 34006KT 4SM 02/M02 A3050 RMK SLP333 T00201020 IEM_DS3505
ZHHH,2006-03-13 00:00,ZHHH 130000Z AUTO 27004KT 11SM 03/M03 A3053 RMK 60000 70000 SLP348 T00301027 52006 IEM_DS3505
ZHHH,2006-03-13 01:00,ZHHH 130100Z AUTO 26006KT 6SM 04/M01 A3056 RMK SLP352 T00401010 IEM_DS3505
ZHHH,2006-03-13 02:00,ZHHH 130200Z AUTO 29008KT 6SM 04/M01 A3056 RMK SLP352 T00401010 IEM_DS3505
ZHHH,2006-03-13 03:00,ZHHH 130300Z AUTO 25004KT 12SM 07/M06 A3053 RMK SLP344 T00671056 57004 IEM_DS3505
ZHHH,2006-03-13 04:00,ZHHH 130400Z AUTO 32008KT 6SM 07/M01 A3050 RMK SLP332 T00701010 IEM_DS3505
ZHHH,2006-03-13 05:00,ZHHH 130500Z AUTO 31006KT 6SM 08/M02 A3047 RMK SLP321 T00801020 IEM_DS3505
ZHHH,2006-03-13 06:00,ZHHH 130600Z AUTO 27006KT 11SM 09/M03 A3045 RMK SLP307 T00891033 57036 IEM_DS3505
ZHHH,2006-03-13 07:00,ZHHH 130700Z AUTO 32006KT 6SM 09/M02 A3042 RMK SLP304 T00901020 IEM_DS3505
ZHHH,2006-03-13 08:00,ZHHH 130800Z AUTO 29006KT 6SM 09/M02 A3039 RMK SLP294 T00901020 IEM_DS3505
ZHHH,2006-03-13 09:00,ZHHH 130900Z AUTO 27004KT 11SM 10/M06 A3036 RMK SLP284 T00981057 57023 IEM_DS3505
ZHHH,2006-03-13 10:00,ZHHH 131000Z AUTO 24006KT 6SM 08/M03 A3036 RMK SLP284 T00801030 IEM_DS3505
ZHHH,2006-03-13 11:00,ZHHH 131100Z AUTO 24006KT 6SM 07/M01 A3036 RMK SLP284 T00701010 IEM_DS3505
ZHHH,2006-03-13 12:00,ZHHH 131200Z AUTO 25004KT 9SM 07/M01 A3039 RMK SLP292 T00701012 52007 IEM_DS3505
ZHHH,2006-03-13 13:00,ZHHH 131300Z AUTO 23008KT 6SM 06/01 A3039 RMK SLP294 T00600010 IEM_DS3505
ZHHH,2006-03-13 14:00,ZHHH 131400Z AUTO 23006KT 6SM 06/01 A3042 RMK SLP304 T00600010 IEM_DS3505
ZHHH,2006-03-13 15:00,ZHHH 131500Z AUTO 27002KT 9SM 06/00 A3042 RMK SLP302 T00570005 52011 IEM_DS3505
ZHHH,2006-03-13 16:00,ZHHH 131600Z AUTO 23006KT 6SM 05/02 A3042 RMK SLP304 T00500020 IEM_DS3505
ZHHH,2006-03-13 17:00,ZHHH 131700Z AUTO 25002KT 6SM 05/02 A3042 RMK SLP304 T00500020 IEM_DS3505
ZHHH,2006-03-13 18:00,ZHHH 131800Z AUTO 25002KT 9SM 04/01 A3039 RMK SLP295 T00430006 57007 IEM_DS3505
ZHHH,2006-03-13 19:00,ZHHH 131900Z AUTO 00000KT 6SM 04/02 A3039 RMK SLP294 T00400020 IEM_DS3505
ZHHH,2006-03-13 20:00,ZHHH 132000Z AUTO 21004KT 6SM 04/01 A3039 RMK SLP294 T00400010 IEM_DS3505
ZHHH,2006-03-13 21:00,ZHHH 132100Z AUTO 22002KT 9SM 04/01 A3039 RMK 70000 SLP291 T00400010 57004 IEM_DS3505
ZHHH,2006-03-13 22:00,ZHHH 132200Z AUTO 21004KT 6SM 04/02 A3039 RMK SLP294 T00400020 IEM_DS3505
ZHHH,2006-03-13 23:00,ZHHH 132300Z AUTO 18004KT 6SM 04/02 A3039 RMK SLP294 T00400020 IEM_DS3505
ZHHH,2006-03-14 00:00,ZHHH 140000Z AUTO 20004KT 11SM 05/02 A3039 RMK SLP296 T00510019 52005 IEM_DS3505
ZHHH,2006-03-14 01:00,ZHHH 140100Z AUTO 22006KT 6SM 06/03 A3042 RMK SLP304 T00600030 IEM_DS3505
ZHHH,2006-03-14 02:00,ZHHH 140200Z AUTO 23004KT 6SM 08/03 A3039 RMK SLP294 T00800030 IEM_DS3505
ZHHH,2006-03-14 03:00,ZHHH 140300Z AUTO 20004KT 12SM 10/00 A3039 RMK SLP290 T00990000 57006 IEM_DS3505
ZHHH,2006-03-14 04:00,ZHHH 140400Z AUTO 22006KT 6SM 10/02 A3036 RMK SLP284 T01000020 IEM_DS3505
ZHHH,2006-03-14 05:00,ZHHH 140500Z AUTO 6SM 12/02 A3033 RMK SLP273 T01200020 IEM_DS3505
ZHHH,2006-03-14 06:00,ZHHH 140600Z AUTO 11004KT 12SM 12/M00 A3030 RMK SLP256 T01251001 57034 IEM_DS3505
ZHHH,2006-03-14 07:00,ZHHH 140700Z AUTO 22006KT 6SM 13/00 A3024 RMK SLP242 T01300000 IEM_DS3505
ZHHH,2006-03-14 08:00,ZHHH 140800Z AUTO 6SM 13/00 A3021 RMK SLP232 T01300000 IEM_DS3505
ZHHH,2006-03-14 09:00,ZHHH 140900Z AUTO 18002KT 11SM 12/M01 A3021 RMK SLP228 T01221013 57028 IEM_DS3505
ZHHH,2006-03-14 10:00,ZHHH 141000Z AUTO 23004KT 6SM 11/00 A3018 RMK SLP222 T01100000 IEM_DS3505
ZHHH,2006-03-14 12:00,ZHHH 141200Z AUTO 22004KT 9SM 11/00 A3021 RMK SLP227 T01090003 57001 IEM_DS3505
ZHHH,2006-03-14 13:00,ZHHH 141300Z AUTO 23004KT 6SM 10/03 A3021 RMK SLP232 T01000030 IEM_DS3505
ZHHH,2006-03-14 14:00,ZHHH 141400Z AUTO 23006KT 6SM 10/04 A3021 RMK SLP232 T01000040 IEM_DS3505
ZHHH,2006-03-14 15:00,ZHHH 141500Z AUTO 27002KT 9SM 10/02 A3021 RMK SLP228 T01010017 52001 IEM_DS3505
ZHHH,2006-03-14 16:00,ZHHH 141600Z AUTO 25004KT 6SM 10/04 A3018 RMK SLP222 T01000040 IEM_DS3505
ZHHH,2006-03-14 17:00,ZHHH 141700Z AUTO 24004KT 6SM 09/04 A3018 RMK SLP223 T00900040 IEM_DS3505
ZHHH,2006-03-14 18:00,ZHHH 141800Z AUTO 25002KT 9SM 10/00 A3015 RMK SLP209 T00950004 57019 IEM_DS3505
ZHHH,2006-03-14 19:00,ZHHH 141900Z AUTO 24002KT 6SM 09/03 A3012 RMK SLP202 T00900030 IEM_DS3505
ZHHH,2006-03-14 20:00,ZHHH 142000Z AUTO 23004KT 6SM 09/02 A3009 RMK SLP192 T00900020 IEM_DS3505
ZHHH,2006-03-14 21:00,ZHHH 142100Z AUTO 22002KT 9SM 09/01 A3009 RMK SLP191 T00930012 57018 IEM_DS3505
ZHHH,2006-03-14 22:00,ZHHH 142200Z AUTO 24004KT 6SM 09/03 A3009 RMK SLP192 T00900030 IEM_DS3505
ZHHH,2006-03-14 23:00,ZHHH 142300Z AUTO 24002KT 6SM 09/03 A3009 RMK SLP192 T00900030 IEM_DS3505
ZHHH,2006-03-15 00:00,ZHHH 150000Z AUTO 25002KT 9SM 09/03 A3009 RMK SLP195 T00920032 52004 IEM_DS3505
ZHHH,2006-03-15 01:00,ZHHH 150100Z AUTO 24006KT 6SM 09/04 A3012 RMK SLP202 T00900040 IEM_DS3505
ZHHH,2006-03-15 02:00,ZHHH 150200Z AUTO 24008KT 6SM 09/05 A3012 RMK SLP202 T00900050 IEM_DS3505
ZHHH,2006-03-15 03:00,ZHHH 150300Z AUTO 27004KT 9SM 10/04 A3012 RMK SLP200 T00980040 52005 IEM_DS3505
ZHHH,2006-03-15 04:00,ZHHH 150400Z AUTO 22008KT 6SM 10/05 A3009 RMK SLP192 T01000050 IEM_DS3505
ZHHH,2006-03-15 05:00,ZHHH 150500Z AUTO 22010KT 6SM 10/05 A3006 RMK SLP182 T01000050 IEM_DS3505
ZHHH,2006-03-15 06:00,ZHHH 150600Z AUTO 22004KT 12SM 11/04 A3003 RMK SLP169 T01060039 57031 IEM_DS3505
ZHHH,2006-03-15 07:00,ZHHH 150700Z AUTO 23008KT 6SM 10/05 A3000 RMK SLP162 T01000050 IEM_DS3505
ZHHH,2006-03-15 08:00,ZHHH 150800Z AUTO 22008KT 6SM 11/06 A2997 RMK SLP152 T01100060 IEM_DS3505
ZHHH,2006-03-15 09:00,ZHHH 150900Z AUTO 22004KT 9SM 10/05 A2997 RMK SLP149 T01040052 57020 IEM_DS3505
ZHHH,2006-03-15 10:00,ZHHH 151000Z AUTO 24008KT 6SM 10/07 A2997 RMK SLP152 T01000070 IEM_DS3505
ZHHH,2006-03-15 11:00,ZHHH 151100Z AUTO 22006KT 6SM 09/07 A3000 RMK SLP162 T00900070 IEM_DS3505
ZHHH,2006-03-15 12:00,ZHHH 151200Z AUTO 25002KT 9SM 09/06 A3000 RMK SLP169 T00890062 52020 IEM_DS3505
ZHHH,2006-03-15 13:00,ZHHH 151300Z AUTO 21006KT 6SM 08/07 A3003 RMK SLP172 T00800070 IEM_DS3505
ZHHH,2006-03-15 14:00,ZHHH 151400Z AUTO 21006KT 6SM 08/06 A3006 RMK SLP183 T00800060 IEM_DS3505
ZHHH,2006-03-15 15:00,ZHHH 151500Z AUTO 27002KT 9SM 08/06 A3006 RMK SLP182 T00770058 52013 IEM_DS3505
ZHHH,2006-03-15 16:00,ZHHH 151600Z AUTO 22004KT 3SM 07/06 A3006 RMK SLP183 T00700060 IEM_DS3505
ZHHH,2006-03-15 17:00,ZHHH 151700Z AUTO 16002KT 3SM 07/06 A3006 RMK SLP183 T00700060 IEM_DS3505
ZHHH,2006-03-15 18:00,ZHHH 151800Z AUTO 25002KT 12SM 07/05 A3003 RMK SLP173 T00730054 57009 IEM_DS3505
ZHHH,2006-03-15 19:00,ZHHH 151900Z AUTO 00000KT 1SM 06/06 A3003 RMK SLP173 T00600060 IEM_DS3505
ZHHH,2006-03-15 20:00,ZHHH 152000Z AUTO 13002KT 1SM 06/05 A3003 RMK SLP173 T00600050 IEM_DS3505
ZHHH,2006-03-15 21:00,ZHHH 152100Z AUTO 09002KT 9SM 06/05 A3003 RMK SLP167 T00550048 57006 IEM_DS3505
ZHHH,2006-03-15 22:00,ZHHH 152200Z AUTO 10004KT 1SM 05/05 A3003 RMK SLP173 T00500050 IEM_DS3505
ZHHH,2006-03-15 23:00,ZHHH 152300Z AUTO 12006KT 1/2SM 05/05 A3003 RMK SLP173 T00500050 IEM_DS3505
ZHHH,2006-03-16 00:00,ZHHH 160000Z AUTO 11002KT 08/06 A3006 RMK SLP179 T00770058 52012 IEM_DS3505
ZHHH,2006-03-16 01:00,ZHHH 160100Z AUTO 14006KT 1SM 09/08 A3006 RMK SLP182 T00900080 IEM_DS3505
ZHHH,2006-03-16 02:00,ZHHH 160200Z AUTO 20006KT 1 1/4SM 12/08 A3006 RMK SLP182 T01200080 IEM_DS3505
ZHHH,2006-03-16 03:00,ZHHH 160300Z AUTO 18004KT 9SM 14/06 A3003 RMK SLP176 T01410062 57003 IEM_DS3505
ZHHH,2006-03-16 04:00,ZHHH 160400Z AUTO 2SM 15/09 A3003 RMK SLP172 T01500090 IEM_DS3505
ZHHH,2006-03-16 05:00,ZHHH 160500Z AUTO 23004KT 2SM 16/09 A2997 RMK SLP152 T01600090 IEM_DS3505
ZHHH,2006-03-16 06:00,ZHHH 160600Z AUTO 18004KT 11SM 18/07 A2994 RMK SLP138 T01780070 57037 IEM_DS3505
ZHHH,2006-03-16 07:00,ZHHH 160700Z AUTO 20006KT 2SM 18/08 A2991 RMK SLP131 T01800080 IEM_DS3505
ZHHH,2006-03-16 08:00,ZHHH 160800Z AUTO 19006KT 2 1/2SM 18/08 A2988 RMK SLP121 T01800080 IEM_DS3505
ZHHH,2006-03-16 09:00,ZHHH 160900Z AUTO 14002KT 11SM 18/05 A2985 RMK SLP110 T01830052 57028 IEM_DS3505
ZHHH,2006-03-16 10:00,ZHHH 161000Z AUTO 13004KT 2 1/2SM 17/08 A2983 RMK SLP104 T01700080 IEM_DS3505
ZHHH,2006-03-16 11:00,ZHHH 161100Z AUTO 13004KT 2 1/2SM 15/07 A2983 RMK SLP105 T01500070 IEM_DS3505
ZHHH,2006-03-16 12:00,ZHHH 161200Z AUTO 09002KT 9SM 13/05 A2985 RMK SLP104 T01300049 57006 IEM_DS3505
ZHHH,2006-03-16 13:00,ZHHH 161300Z AUTO 11006KT 2 1/2SM 14/07 A2985 RMK SLP111 T01400070 IEM_DS3505
ZHHH,2006-03-16 14:00,ZHHH 161400Z AUTO 11006KT 2 1/2SM 12/06 A2985 RMK SLP111 T01200060 IEM_DS3505
ZHHH,2006-03-16 15:00,ZHHH 161500Z AUTO 11004KT 11SM 14/03 A2985 RMK SLP110 T01380033 52006 IEM_DS3505
ZHHH,2006-03-16 16:00,ZHHH 161600Z AUTO 10010KT 2 1/2SM 11/07 A2985 RMK SLP111 T01100070 IEM_DS3505
ZHHH,2006-03-16 17:00,ZHHH 161700Z AUTO 11010KT 2 1/2SM 11/08 A2983 RMK SLP105 T01100080 IEM_DS3505
ZHHH,2006-03-16 18:00,ZHHH 161800Z AUTO 09002KT 11SM 13/03 A2980 RMK SLP093 T01260030 57017 IEM_DS3505
ZHHH,2006-03-16 19:00,ZHHH 161900Z AUTO 12008KT 4SM 11/07 A2980 RMK SLP094 T01100070 IEM_DS3505
ZHHH,2006-03-16 20:00,ZHHH 162000Z AUTO 11006KT 4SM 12/06 A2980 RMK SLP094 T01200060 IEM_DS3505
ZHHH,2006-03-16 21:00,ZHHH 162100Z AUTO 11002KT 9SM 13/04 A2977 RMK SLP089 T01270039 57004 IEM_DS3505
ZHHH,2006-03-16 22:00,ZHHH 162200Z AUTO 13006KT 4SM 12/07 A2980 RMK SLP094 T01200070 IEM_DS3505
ZHHH,2006-03-16 23:00,ZHHH 162300Z AUTO 10006KT 6SM 11/07 A2980 RMK SLP094 T01100070 IEM_DS3505
ZHHH,2006-03-17 00:00,ZHHH 170000Z AUTO 11002KT 9SM 13/05 A2980 RMK SLP098 T01270054 52009 IEM_DS3505
ZHHH,2006-03-17 01:00,ZHHH 170100Z AUTO 14006KT 6SM 12/09 A2983 RMK SLP105 T01200090 IEM_DS3505
ZHHH,2006-03-17 02:00,ZHHH 170200Z AUTO 19004KT 3SM 13/09 A2983 RMK SLP105 T01300090 IEM_DS3505
ZHHH,2006-03-17 03:00,ZHHH 170300Z AUTO 18004KT 7SM 11/10 A2983 RMK SLP104 T01140097 52006 IEM_DS3505
ZHHH,2006-03-17 04:00,ZHHH 170400Z AUTO 1 1/4SM 11/10 A2983 RMK SLP105 T01100100 IEM_DS3505
ZHHH,2006-03-17 05:00,ZHHH 170500Z AUTO 12004KT 1SM 10/10 A2980 RMK SLP094 T01000100 IEM_DS3505
ZHHH,2006-03-17 06:00,ZHHH 170600Z AUTO 07002KT 4SM 12/11 A2977 RMK 60002 SLP083 T01170106 57021 IEM_DS3505
ZHHH,2006-03-17 07:00,ZHHH 170700Z AUTO 12004KT 1 1/2SM 11/11 A2977 RMK SLP084 T01100110 IEM_DS3505
ZHHH,2006-03-17 08:00,ZHHH 170800Z AUTO 1 1/2SM 11/10 A2977 RMK SLP084 T01100100 IEM_DS3505
ZHHH,2006-03-17 09:00,ZHHH 170900Z AUTO 11002KT 7SM 12/10 A2977 RMK SLP080 T01220101 57003 IEM_DS3505
ZHHH,2006-03-17 10:00,ZHHH 171000Z AUTO 14004KT 2SM 11/10 A2977 RMK SLP084 T01100100 IEM_DS3505
ZHHH,2006-03-17 11:00,ZHHH 171100Z AUTO 12002KT 2SM 11/10 A2980 RMK SLP094 T01100100 IEM_DS3505
ZHHH,2006-03-17 12:00,ZHHH 171200Z AUTO 12002KT 11SM 11/10 A2983 RMK SLP099 T01100098 52019 IEM_DS3505
ZHHH,2006-03-17 13:00,ZHHH 171300Z AUTO 01004KT 1 1/2SM 10/10 A2988 RMK SLP122 T01000100 IEM_DS3505
ZHHH,2006-03-17 14:00,ZHHH 171400Z AUTO 00000KT 1 1/2SM 09/09 A2988 RMK SLP122 T00900090 IEM_DS3505
ZHHH,2006-03-17 15:00,ZHHH 171500Z AUTO 31002KT 11SM 10/09 A2991 RMK SLP127 T00970091 52028 IEM_DS3505
ZHHH,2006-03-17 16:00,ZHHH 171600Z AUTO 21002KT 1/4SM 09/09 A2991 RMK SLP132 T00900090 IEM_DS3505
ZHHH,2006-03-17 17:00,ZHHH 171700Z AUTO 00000KT 1/4SM 08/08 A2994 RMK SLP142 T00800080 IEM_DS3505
ZHHH,2006-03-17 18:00,ZHHH 171800Z AUTO 09002KT 1/4SM 09/09 A2994 RMK SLP145 T00940091 52017 IEM_DS3505
ZHHH,2006-03-17 19:00,ZHHH 171900Z AUTO 25002KT 1/8SM 09/09 A2994 RMK SLP142 T00900090 IEM_DS3505
ZHHH,2006-03-17 20:00,ZHHH 172000Z AUTO 28004KT 1/8SM 10/10 A2994 RMK SLP142 T01000100 IEM_DS3505
ZHHH,2006-03-17 21:00,ZHHH 172100Z AUTO 25006KT 1/8SM 09/09 A2997 RMK 70002 SLP153 T00920089 52008 IEM_DS3505
ZHHH,2006-03-17 22:00,ZHHH 172200Z AUTO 26006KT 1/8SM 09/09 A3000 RMK SLP162 T00900090 IEM_DS3505
ZHHH,2006-03-17 23:00,ZHHH 172300Z AUTO 34004KT 1/8SM 09/09 A3000 RMK SLP162 T00900090 IEM_DS3505
ZHHH,2006-03-18 00:00,ZHHH 180000Z AUTO 27002KT 1/4SM 10/10 A3003 RMK 70002 SLP177 T00970096 52024 IEM_DS3505
ZHHH,2006-03-18 01:00,ZHHH 180100Z AUTO 34004KT 1/4SM 10/10 A3006 RMK SLP182 T01000100 IEM_DS3505
ZHHH,2006-03-18 02:00,ZHHH 180200Z AUTO 30004KT 1SM 11/11 A3009 RMK SLP192 T01100110 IEM_DS3505
ZHHH,2006-03-18 03:00,ZHHH 180300Z AUTO 34004KT 7SM 14/11 A3009 RMK SLP193 T01380106 52016 IEM_DS3505
ZHHH,2006-03-18 04:00,ZHHH 180400Z AUTO 34004KT 1 1/2SM 14/11 A3009 RMK SLP192 T01400110 IEM_DS3505
ZHHH,2006-03-18 05:00,ZHHH 180500Z AUTO 32004KT 1 1/2SM 15/10 A3009 RMK SLP192 T01500100 IEM_DS3505
ZHHH,2006-03-18 06:00,ZHHH 180600Z AUTO 04002KT 9SM 18/06 A3006 RMK SLP185 T01800062 57007 IEM_DS3505
ZHHH,2006-03-18 07:00,ZHHH 180700Z AUTO 04010KT 4SM 19/02 A3006 RMK SLP181 T01900020 IEM_DS3505
ZHHH,2006-03-18 08:00,ZHHH 180800Z AUTO 05010KT 4SM 19/03 A3006 RMK SLP181 T01900030 IEM_DS3505
ZHHH,2006-03-18 09:00,ZHHH 180900Z AUTO 04004KT 9SM 19/02 A3006 RMK SLP183 T01890019 57002 IEM_DS3505
ZHHH,2006-03-18 10:00,ZHHH 181000Z AUTO 04006KT 3SM 17/04 A3009 RMK SLP192 T01700040 IEM_DS3505
ZHHH,2006-03-18 11:00,ZHHH 181100Z AUTO 04006KT 3SM 15/03 A3009 RMK SLP192 T01500030 IEM_DS3505
ZHHH,2006-03-18 12:00,ZHHH 181200Z AUTO 09002KT 11SM 15/02 A3012 RMK SLP203 T01480020 52019 IEM_DS3505
ZHHH,2006-03-18 13:00,ZHHH 181300Z AUTO 03006KT 4SM 12/05 A3015 RMK SLP212 T01200050 IEM_DS3505
ZHHH,2006-03-18 14:00,ZHHH 181400Z AUTO 05008KT 6SM 12/04 A3018 RMK SLP222 T01200040 IEM_DS3505
ZHHH,2006-03-18 15:00,ZHHH 181500Z AUTO 07002KT 11SM 12/03 A3018 RMK SLP218 T01240026 52016 IEM_DS3505
ZHHH,2006-03-18 16:00,ZHHH 181600Z AUTO 06006KT 6SM 11/03 A3018 RMK SLP222 T01100030 IEM_DS3505
ZHHH,2006-03-18 17:00,ZHHH 181700Z AUTO 01004KT 6SM 10/04 A3018 RMK SLP222 T01000040 IEM_DS3505
ZHHH,2006-03-18 18:00,ZHHH 181800Z AUTO 02002KT 11SM 09/04 A3018 RMK SLP215 T00930035 57003 IEM_DS3505
ZHHH,2006-03-18 19:00,ZHHH 181900Z AUTO 12004KT 6SM 10/03 A3015 RMK SLP212 T01000030 IEM_DS3505
ZHHH,2006-03-18 20:00,ZHHH 182000Z AUTO 13002KT 6SM 09/03 A3015 RMK SLP213 T00900030 IEM_DS3505
ZHHH,2006-03-18 21:00,ZHHH 182100Z AUTO 09002KT 11SM 09/03 A3015 RMK SLP209 T00880026 57006 IEM_DS3505
ZHHH,2006-03-18 22:00,ZHHH 182200Z AUTO 14002KT 3SM 08/03 A3015 RMK SLP213 T00800030 IEM_DS3505
ZHHH,2006-03-18 23:00,ZHHH 182300Z AUTO 13004KT 3SM 08/05 A3015 RMK SLP213 T00800050 IEM_DS3505
ZHHH,2006-03-19 00:00,ZHHH 190000Z AUTO 07004KT 9SM 11/03 A3018 RMK SLP217 T01080026 52007 IEM_DS3505
ZHHH,2006-03-19 01:00,ZHHH 190100Z AUTO 08008KT 2SM 11/05 A3018 RMK SLP222 T01100050 IEM_DS3505
ZHHH,2006-03-19 02:00,ZHHH 190200Z AUTO 10010KT 2 1/2SM 13/04 A3018 RMK SLP222 T01300040 IEM_DS3505
ZHHH,2006-03-19 03:00,ZHHH 190300Z AUTO 09006KT 9SM 16/04 A3015 RMK SLP213 T01580045 57003 IEM_DS3505
ZHHH,2006-03-19 04:00,ZHHH 190400Z AUTO 11008KT 2 1/2SM 16/08 A3015 RMK SLP212 T01600080 IEM_DS3505
ZHHH,2006-03-19 05:00,ZHHH 190500Z AUTO 12008KT 1 1/2SM 17/08 A3012 RMK SLP202 T01700080 IEM_DS3505
ZHHH,2006-03-19 06:00,ZHHH 190600Z AUTO 16006KT 9SM 18/01 A3009 RMK SLP186 T01830013 57027 IEM_DS3505
ZHHH,2006-03-19 07:00,ZHHH 190700Z AUTO 16008KT 2 1/2SM 18/04 A3006 RMK SLP182 T01800040 IEM_DS3505
ZHHH,2006-03-19 08:00,ZHHH 190800Z AUTO 15006KT 2 1/2SM 17/03 A3006 RMK SLP182 T01700030 IEM_DS3505
ZHHH,2006-03-19 09:00,ZHHH 190900Z AUTO 11004KT 9SM 16/02 A3003 RMK SLP174 T01650018 57012 IEM_DS3505
ZHHH,2006-03-19 10:00,ZHHH 191000Z AUTO 16004KT 2 1/2SM 16/04 A3003 RMK SLP172 T01600040 IEM_DS3505
ZHHH,2006-03-19 11:00,ZHHH 191100Z AUTO 19004KT 2 1/2SM 15/05 A3003 RMK SLP172 T01500050 IEM_DS3505
ZHHH,2006-03-19 12:00,ZHHH 191200Z AUTO 20002KT 7SM 15/06 A3006 RMK SLP179 T01500055 52005 IEM_DS3505
ZHHH,2006-03-19 13:00,ZHHH 191300Z AUTO 16006KT 2 1/2SM 14/06 A3006 RMK SLP182 T01400060 IEM_DS3505
ZHHH,2006-03-19 14:00,ZHHH 191400Z AUTO 20004KT 2 1/2SM 14/08 A3006 RMK SLP182 T01400080 IEM_DS3505
ZHHH,2006-03-19 15:00,ZHHH 191500Z AUTO 18002KT 9SM 12/09 A3006 RMK SLP182 T01230088 52003 IEM_DS3505
ZHHH,2006-03-19 16:00,ZHHH 191600Z AUTO 19004KT 2 1/2SM 12/09 A3006 RMK SLP182 T01200090 IEM_DS3505
ZHHH,2006-03-19 17:00,ZHHH 191700Z AUTO 17004KT 2SM 12/09 A3003 RMK SLP172 T01200090 IEM_DS3505
ZHHH,2006-03-19 18:00,ZHHH 191800Z AUTO 18004KT 9SM 11/09 A3000 RMK SLP162 T01130087 57020 IEM_DS3505
ZHHH,2006-03-19 19:00,ZHHH 191900Z AUTO 15002KT 2SM 11/09 A3000 RMK SLP162 T01100090 IEM_DS3505
ZHHH,2006-03-19 20:00,ZHHH 192000Z AUTO 16004KT 1 1/4SM 11/09 A2997 RMK SLP152 T01100090 IEM_DS3505
ZHHH,2006-03-19 21:00,ZHHH 192100Z AUTO 18004KT 9SM 10/09 A2994 RMK SLP141 T01040087 57021 IEM_DS3505
ZHHH,2006-03-19 22:00,ZHHH 192200Z AUTO 00000KT 1 1/4SM 10/09 A2994 RMK SLP142 T01000090 IEM_DS3505
ZHHH,2006-03-19 23:00,ZHHH 192300Z AUTO 00000KT 1SM 09/09 A2997 RMK SLP152 T00900090 IEM_DS3505
ZHHH,2006-03-20 00:00,ZHHH 200000Z AUTO 02002KT 9SM 12/09 A3000 RMK SLP159 T01180092 52018 IEM_DS3505
ZHHH,2006-03-20 01:00,ZHHH 200100Z AUTO 00000KT 1SM 12/10 A3000 RMK SLP162 T01200100 IEM_DS3505
ZHHH,2006-03-20 02:00,ZHHH 200200Z AUTO 27004KT 1SM 14/10 A3000 RMK SLP162 T01400100 IEM_DS3505
ZHHH,2006-03-20 03:00,ZHHH 200300Z AUTO 20002KT 9SM 16/09 A2997 RMK SLP155 T01650090 57004 IEM_DS3505
ZHHH,2006-03-20 04:00,ZHHH 200400Z AUTO 18006KT 4SM 17/09 A2997 RMK SLP152 T01700090 IEM_DS3505
ZHHH,2006-03-20 05:00,ZHHH 200500Z AUTO 4SM 19/10 A2991 RMK SLP131 T01900100 IEM_DS3505
ZHHH,2006-03-20 06:00,ZHHH 200600Z AUTO 18002KT 9SM 19/09 A2988 RMK SLP124 T01910093 57031 IEM_DS3505
ZHHH,2006-03-20 07:00,ZHHH 200700Z AUTO 22008KT 4SM 20/11 A2988 RMK SLP121 T02000110 IEM_DS3505
ZHHH,2006-03-20 08:00,ZHHH 200800Z AUTO 22006KT 4SM 20/11 A2985 RMK SLP110 T02000110 IEM_DS3505
ZHHH,2006-03-20 09:00,ZHHH 200900Z AUTO 25002KT 7SM 18/10 A2985 RMK SLP110 T01820096 57014 IEM_DS3505
ZHHH,2006-03-20 10:00,ZHHH 201000Z AUTO 7SM 17/12 A2985 RMK SLP110 T01700120 IEM_DS3505
ZHHH,2006-03-20 11:00,ZHHH 201100Z AUTO 24004KT 4SM 17/13 A2988 RMK SLP121 T01700130 IEM_DS3505
ZHHH,2006-03-20 12:00,ZHHH 201200Z AUTO 22002KT 9SM 15/12 A2988 RMK 60003 SLP130 T01530124 52020 IEM_DS3505
ZHHH,2006-03-20 13:00,ZHHH 201300Z AUTO 17004KT 2SM 14/13 A2991 RMK SLP132 T01400130 IEM_DS3505
ZHHH,2006-03-20 14:00,ZHHH 201400Z AUTO 29004KT 1 1/4SM 14/14 A2991 RMK SLP132 T01400140 IEM_DS3505
ZHHH,2006-03-20 15:00,ZHHH 201500Z AUTO 22002KT 9SM 14/12 A2991 RMK SLP135 T01380118 52005 IEM_DS3505
ZHHH,2006-03-20 16:00,ZHHH 201600Z AUTO 26004KT 1SM 13/13 A2991 RMK SLP132 T01300130 IEM_DS3505
ZHHH,2006-03-20 17:00,ZHHH 201700Z AUTO 1SM 13/12 A2991 RMK SLP132 T01300120 IEM_DS3505
ZHHH,2006-03-20 18:00,ZHHH 201800Z AUTO 27002KT 7SM 13/11 A2991 RMK 60001 SLP134 T01260113 57001 IEM_DS3505
ZHHH,2006-03-20 19:00,ZHHH 201900Z AUTO 32004KT 3/8SM 12/12 A2991 RMK SLP132 T01200120 IEM_DS3505
ZHHH,2006-03-20 20:00,ZHHH 202000Z AUTO 35002KT 1/4SM 11/11 A2988 RMK SLP122 T01100110 IEM_DS3505
ZHHH,2006-03-20 21:00,ZHHH 202100Z AUTO 20002KT 7SM 12/11 A2988 RMK 70004 SLP119 T01200112 57015 IEM_DS3505
ZHHH,2006-03-20 22:00,ZHHH 202200Z AUTO 36002KT 1/8SM 11/11 A2988 RMK SLP122 T01100110 IEM_DS3505
ZHHH,2006-03-20 23:00,ZHHH 202300Z AUTO 1/8SM 11/11 A2988 RMK SLP122 T01100110 IEM_DS3505
ZHHH,2006-03-21 00:00,ZHHH 210000Z AUTO 07002KT 1/4SM 12/12 A2991 RMK 70004 SLP129 T01210116 52010 IEM_DS3505
ZHHH,2006-03-21 01:00,ZHHH 210100Z AUTO 12004KT 1/2SM 12/12 A2994 RMK SLP142 T01200120 IEM_DS3505
ZHHH,2006-03-21 02:00,ZHHH 210200Z AUTO 10004KT 1/2SM 13/13 A2994 RMK SLP142 T01300130 IEM_DS3505
ZHHH,2006-03-21 03:00,ZHHH 210300Z AUTO 11004KT 5SM 14/13 A2992 RMK SLP135 T01400126 52006 IEM_DS3505
ZHHH,2006-03-21 04:00,ZHHH 210400Z AUTO 36004KT 1SM 14/14 A2991 RMK SLP132 T01400140 IEM_DS3505
ZHHH,2006-03-21 05:00,ZHHH 210500Z AUTO 1SM 15/14 A2988 RMK SLP122 T01500140 IEM_DS3505
ZHHH,2006-03-21 06:00,ZHHH 210600Z AUTO 04002KT 6SM 15/13 A2985 RMK 60000 SLP108 T01490131 57027 IEM_DS3505
ZHHH,2006-03-21 07:00,ZHHH 210700Z AUTO 19004KT 1 1/2SM 16/14 A2983 RMK SLP104 T01600140 IEM_DS3505
ZHHH,2006-03-21 08:00,ZHHH 210800Z AUTO 14004KT 2SM 16/13 A2980 RMK SLP093 T01600130 IEM_DS3505
ZHHH,2006-03-21 09:00,ZHHH 210900Z AUTO 16002KT 9SM 16/12 A2983 RMK SLP096 T01610123 57012 IEM_DS3505
ZHHH,2006-03-21 10:00,ZHHH 211000Z AUTO 28002KT 1SM 16/14 A2983 RMK SLP104 T01600140 IEM_DS3505
ZHHH,2006-03-21 11:00,ZHHH 211100Z AUTO 36004KT 1SM 15/14 A2985 RMK SLP111 T01500140 IEM_DS3505
ZHHH,2006-03-21 12:00,ZHHH 211200Z AUTO 00000KT 7SM 15/13 A2985 RMK SLP111 T01530126 52015 IEM_DS3505
ZHHH,2006-03-21 13:00,ZHHH 211300Z AUTO 18004KT 1SM 15/14 A2985 RMK SLP111 T01500140 IEM_DS3505
ZHHH,2006-03-21 14:00,ZHHH 211400Z AUTO 22004KT 1SM 15/14 A2988 RMK SLP122 T01500140 IEM_DS3505
ZHHH,2006-03-21 15:00,ZHHH 211500Z AUTO 25002KT 7SM 15/13 A2991 RMK SLP125 T01500127 52014 IEM_DS3505
ZHHH,2006-03-21 16:00,ZHHH 211600Z AUTO 33004KT 1SM 15/14 A2991 RMK SLP132 T01500140 IEM_DS3505
ZHHH,2006-03-21 17:00,ZHHH 211700Z AUTO 32004KT 1SM 14/13 A2991 RMK SLP132 T01400130 IEM_DS3505
ZHHH,2006-03-21 18:00,ZHHH 211800Z AUTO 27004KT 7SM 14/12 A2991 RMK SLP130 T01440123 52005 IEM_DS3505
ZHHH,2006-03-21 19:00,ZHHH 211900Z AUTO 31004KT 1SM 13/13 A2991 RMK SLP132 T01300130 IEM_DS3505
ZHHH,2006-03-21 20:00,ZHHH 212000Z AUTO 30006KT 1SM 13/12 A2988 RMK SLP122 T01300120 IEM_DS3505
ZHHH,2006-03-21 21:00,ZHHH 212100Z AUTO 27002KT 6SM 13/11 A2988 RMK 70000 SLP124 T01340113 57006 IEM_DS3505
ZHHH,2006-03-21 22:00,ZHHH 212200Z AUTO 01006KT 1SM 12/11 A2991 RMK SLP132 T01200110 IEM_DS3505
ZHHH,2006-03-21 23:00,ZHHH 212300Z AUTO 36002KT 1SM 11/11 A2994 RMK SLP142 T01100110 IEM_DS3505
ZHHH,2006-03-22 00:00,ZHHH 220000Z AUTO 07004KT 7SM 13/11 A2994 RMK 70000 SLP136 T01330110 52012 IEM_DS3505
ZHHH,2006-03-22 01:00,ZHHH 220100Z AUTO 03010KT 1 1/4SM 14/12 A2997 RMK SLP152 T01400120 IEM_DS3505
ZHHH,2006-03-22 02:00,ZHHH 220200Z AUTO 03012KT 1 1/2SM 16/12 A2994 RMK SLP142 T01600120 IEM_DS3505
ZHHH,2006-03-22 03:00,ZHHH 220300Z AUTO 02006KT 7SM 16/08 A2994 RMK SLP147 T01630085 52011 IEM_DS3505
ZHHH,2006-03-22 04:00,ZHHH 220400Z AUTO 02010KT 2SM 17/09 A2997 RMK SLP152 T01700090 IEM_DS3505
ZHHH,2006-03-22 05:00,ZHHH 220500Z AUTO 02010KT 2 1/2SM 17/06 A2997 RMK SLP152 T01700060 IEM_DS3505
ZHHH,2006-03-22 06:00,ZHHH 220600Z AUTO 32006KT 9SM 17/06 A2994 RMK 60000 SLP140 T01660064 57007 IEM_DS3505
ZHHH,2006-03-22 07:00,ZHHH 220700Z AUTO 35010KT 2 1/2SM 14/10 A2994 RMK SLP142 T01400100 IEM_DS3505
ZHHH,2006-03-22 08:00,ZHHH 220800Z AUTO 35008KT 2 1/2SM 13/11 A2997 RMK SLP152 T01300110 IEM_DS3505
ZHHH,2006-03-22 09:00,ZHHH 220900Z AUTO 04002KT 9SM 13/09 A2994 RMK SLP142 T01340093 52002 IEM_DS3505
ZHHH,2006-03-22 10:00,ZHHH 221000Z AUTO 2 1/2SM 13/10 A2997 RMK SLP152 T01300100 IEM_DS3505
ZHHH,2006-03-22 11:00,ZHHH 221100Z AUTO 34004KT 3SM 13/11 A2997 RMK SLP152 T01300110 IEM_DS3505
ZHHH,2006-03-22 12:00,ZHHH 221200Z AUTO 36002KT 9SM 13/09 A2997 RMK 60004 SLP152 T01330086 52010 IEM_DS3505
ZHHH,2006-03-22 13:00,ZHHH 221300Z AUTO 01006KT 3SM 13/08 A3003 RMK SLP172 T01300080 IEM_DS3505
ZHHH,2006-03-22 14:00,ZHHH 221400Z AUTO 01004KT 4SM 13/07 A3003 RMK SLP172 T01300070 IEM_DS3505
ZHHH,2006-03-22 15:00,ZHHH 221500Z AUTO 36002KT 9SM 14/06 A3006 RMK SLP180 T01350059 52028 IEM_DS3505
ZHHH,2006-03-22 16:00,ZHHH 221600Z AUTO 03004KT 4SM 13/06 A3006 RMK SLP182 T01300060 IEM_DS3505
ZHHH,2006-03-22 17:00,ZHHH 221700Z AUTO 03004KT 4SM 13/05 A3003 RMK SLP172 T01300050 IEM_DS3505
ZHHH,2006-03-22 18:00,ZHHH 221800Z AUTO 29002KT 12SM 12/04 A3003 RMK SLP170 T01180038 57010 IEM_DS3505
ZHHH,2006-03-22 19:00,ZHHH 221900Z AUTO 03004KT 4SM 11/03 A3000 RMK SLP162 T01100030 IEM_DS3505
ZHHH,2006-03-22 20:00,ZHHH 222000Z AUTO 02004KT 4SM 10/02 A3000 RMK SLP162 T01000020 IEM_DS3505
ZHHH,2006-03-22 21:00,ZHHH 222100Z AUTO 09002KT 9SM 11/03 A3000 RMK 70005 SLP163 T01090032 57007 IEM_DS3505
ZHHH,2006-03-22 22:00,ZHHH 222200Z AUTO 36004KT 4SM 10/02 A3000 RMK SLP162 T01000020 IEM_DS3505
ZHHH,2006-03-22 23:00,ZHHH 222300Z AUTO 04008KT 4SM 10/02 A3000 RMK SLP162 T01000020 IEM_DS3505
ZHHH,2006-03-23 00:00,ZHHH 230000Z AUTO 02004KT 9SM 11/01 A3003 RMK 70005 SLP168 T01140011 52005 IEM_DS3505
ZHHH,2006-03-23 01:00,ZHHH 230100Z AUTO 02006KT 4SM 13/02 A3003 RMK SLP172 T01300020 IEM_DS3505
ZHHH,2006-03-23 02:00,ZHHH 230200Z AUTO 03006KT 4SM 15/02 A3006 RMK SLP182 T01500020 IEM_DS3505
ZHHH,2006-03-23 03:00,ZHHH 230300Z AUTO 02004KT 11SM 15/01 A3006 RMK SLP185 T01520006 52017 IEM_DS3505
ZHHH,2006-03-23 04:00,ZHHH 230400Z AUTO 08004KT 6SM 16/00 A3006 RMK SLP182 T01600000 IEM_DS3505
ZHHH,2006-03-23 05:00,ZHHH 230500Z AUTO 6SM 17/01 A3003 RMK SLP172 T01700010 IEM_DS3505
ZHHH,2006-03-23 06:00,ZHHH 230600Z AUTO 09002KT 9SM 17/01 A3000 RMK SLP158 T01730009 57027 IEM_DS3505
ZHHH,2006-03-23 07:00,ZHHH 230700Z AUTO 31006KT 6SM 17/02 A2997 RMK SLP152 T01700020 IEM_DS3505
ZHHH,2006-03-23 08:00,ZHHH 230800Z AUTO 26004KT 6SM 18/03 A2997 RMK SLP151 T01800030 IEM_DS3505
ZHHH,2006-03-23 09:00,ZHHH 230900Z AUTO 22002KT 9SM 17/03 A2997 RMK SLP150 T01720031 57008 IEM_DS3505
ZHHH,2006-03-23 10:00,ZHHH 231000Z AUTO 22004KT 4SM 16/04 A2997 RMK SLP152 T01600040 IEM_DS3505
ZHHH,2006-03-23 11:00,ZHHH 231100Z AUTO 21006KT 4SM 15/06 A3000 RMK SLP162 T01500060 IEM_DS3505
ZHHH,2006-03-23 12:00,ZHHH 231200Z AUTO 25002KT 9SM 14/08 A3000 RMK SLP166 T01390077 52016 IEM_DS3505
ZHHH,2006-03-23 13:00,ZHHH 231300Z AUTO 22006KT 3SM 13/09 A3003 RMK SLP172 T01300090 IEM_DS3505
ZHHH,2006-03-23 14:00,ZHHH 231400Z AUTO 21006KT 2SM 12/09 A3006 RMK SLP182 T01200090 IEM_DS3505
ZHHH,2006-03-23 15:00,ZHHH 231500Z AUTO 25002KT 9SM 12/08 A3006 RMK SLP181 T01180079 52015 IEM_DS3505
ZHHH,2006-03-23 16:00,ZHHH 231600Z AUTO 21004KT 2SM 11/08 A3006 RMK SLP182 T01100080 IEM_DS3505
ZHHH,2006-03-23 17:00,ZHHH 231700Z AUTO 29002KT 1 1/2SM 10/08 A3006 RMK SLP182 T01000080 IEM_DS3505
ZHHH,2006-03-23 18:00,ZHHH 231800Z AUTO 20002KT 9SM 09/08 A3003 RMK SLP164 T00910077 57017 IEM_DS3505
ZHHH,2006-03-23 19:00,ZHHH 231900Z AUTO 11002KT 1 1/2SM 09/08 A2997 RMK SLP152 T00900080 IEM_DS3505
ZHHH,2006-03-23 20:00,ZHHH 232000Z AUTO 04002KT 1 1/4SM 09/08 A3000 RMK SLP162 T00900080 IEM_DS3505
ZHHH,2006-03-23 21:00,ZHHH 232100Z AUTO 34002KT 9SM 10/08 A3000 RMK SLP165 T00970081 52001 IEM_DS3505
ZHHH,2006-03-23 22:00,ZHHH 232200Z AUTO 04004KT 1SM 09/08 A3003 RMK SLP172 T00900080 IEM_DS3505
ZHHH,2006-03-23 23:00,ZHHH 232300Z AUTO 31002KT 1SM 08/07 A3006 RMK SLP183 T00800070 IEM_DS3505
ZHHH,2006-03-24 00:00,ZHHH 240000Z AUTO 11002KT 9SM 11/08 A3009 RMK SLP191 T01120081 52026 IEM_DS3505
ZHHH,2006-03-24 01:00,ZHHH 240100Z AUTO 17004KT 1 1/4SM 12/10 A3009 RMK SLP192 T01200100 IEM_DS3505
ZHHH,2006-03-24 02:00,ZHHH 240200Z AUTO 3SM 15/09 A3009 RMK SLP192 T01500090 IEM_DS3505
ZHHH,2006-03-24 03:00,ZHHH 240300Z AUTO 20004KT 9SM 16/08 A3009 RMK SLP188 T01600075 57003 IEM_DS3505
ZHHH,2006-03-24 04:00,ZHHH 240400Z AUTO 23004KT 2 1/2SM 17/08 A3006 RMK SLP182 T01700080 IEM_DS3505
ZHHH,2006-03-24 05:00,ZHHH 240500Z AUTO 26006KT 3SM 19/07 A3003 RMK SLP171 T01900070 IEM_DS3505
ZHHH,2006-03-24 06:00,ZHHH 240600Z AUTO 18002KT 9SM 19/05 A3000 RMK SLP160 T01880049 57028 IEM_DS3505
ZHHH,2006-03-24 07:00,ZHHH 240700Z AUTO 3SM 19/08 A2997 RMK SLP151 T01900080 IEM_DS3505
ZHHH,2006-03-24 08:00,ZHHH 240800Z AUTO 4SM 20/07 A2997 RMK SLP151 T02000070 IEM_DS3505
ZHHH,2006-03-24 09:00,ZHHH 240900Z AUTO 21004KT 9SM 20/04 A2994 RMK SLP146 T01960037 57014 IEM_DS3505
ZHHH,2006-03-24 10:00,ZHHH 241000Z AUTO 20006KT 4SM 18/08 A2997 RMK SLP151 T01800080 IEM_DS3505
ZHHH,2006-03-24 11:00,ZHHH 241100Z AUTO 22004KT 4SM 17/08 A2997 RMK SLP152 T01700080 IEM_DS3505
ZHHH,2006-03-24 12:00,ZHHH 241200Z AUTO 25002KT 7SM 16/08 A2997 RMK SLP151 T01590077 52005 IEM_DS3505
ZHHH,2006-03-24 13:00,ZHHH 241300Z AUTO 16004KT 4SM 16/07 A3000 RMK SLP162 T01600070 IEM_DS3505
ZHHH,2006-03-24 14:00,ZHHH 241400Z AUTO 00000KT 4SM 15/08 A3000 RMK SLP162 T01500080 IEM_DS3505
ZHHH,2006-03-24 15:00,ZHHH 241500Z AUTO 00000KT 7SM 12/10 A3003 RMK SLP174 T01190095 52023 IEM_DS3505
ZHHH,2006-03-24 16:00,ZHHH 241600Z AUTO 4SM 13/09 A3006 RMK SLP182 T01300090 IEM_DS3505
ZHHH,2006-03-24 17:00,ZHHH 241700Z AUTO 4SM 13/09 A3003 RMK SLP172 T01300090 IEM_DS3505
ZHHH,2006-03-24 18:00,ZHHH 241800Z AUTO 02002KT 9SM 12/09 A3003 RMK SLP166 T01150089 57008 IEM_DS3505
ZHHH,2006-03-24 19:00,ZHHH 241900Z AUTO 08004KT 3SM 12/09 A3003 RMK SLP172 T01200090 IEM_DS3505
ZHHH,2006-03-24 20:00,ZHHH 242000Z AUTO 11006KT 3SM 12/09 A3000 RMK SLP162 T01200090 IEM_DS3505
ZHHH,2006-03-24 21:00,ZHHH 242100Z AUTO 07002KT 9SM 11/09 A3000 RMK SLP155 T01070090 57011 IEM_DS3505
ZHHH,2006-03-24 22:00,ZHHH 242200Z AUTO 09008KT 2SM 10/09 A2997 RMK SLP152 T01000090 IEM_DS3505
ZHHH,2006-03-24 23:00,ZHHH 242300Z AUTO 09006KT 1 1/4SM 11/09 A3000 RMK SLP162 T01100090 IEM_DS3505
ZHHH,2006-03-25 00:00,ZHHH 250000Z AUTO 09002KT 7SM 12/09 A3000 RMK SLP165 T01240092 52010 IEM_DS3505
ZHHH,2006-03-25 01:00,ZHHH 250100Z AUTO 12006KT 1 1/4SM 12/10 A3003 RMK SLP172 T01200100 IEM_DS3505
ZHHH,2006-03-25 02:00,ZHHH 250200Z AUTO 10004KT 1SM 13/11 A3003 RMK SLP172 T01300110 IEM_DS3505
ZHHH,2006-03-25 03:00,ZHHH 250300Z AUTO 32002KT 9SM 16/10 A3003 RMK SLP176 T01650101 52011 IEM_DS3505
ZHHH,2006-03-25 04:00,ZHHH 250400Z AUTO 28004KT 1 1/2SM 17/10 A3003 RMK SLP172 T01700100 IEM_DS3505
ZHHH,2006-03-25 05:00,ZHHH 250500Z AUTO 1 1/2SM 18/10 A3000 RMK SLP161 T01800100 IEM_DS3505
ZHHH,2006-03-25 06:00,ZHHH 250600Z AUTO 14002KT 9SM 18/08 A3000 RMK SLP152 T01850082 57024 IEM_DS3505
ZHHH,2006-03-25 07:00,ZHHH 250700Z AUTO 1 1/2SM 18/09 A2997 RMK SLP151 T01800090 IEM_DS3505
ZHHH,2006-03-25 08:00,ZHHH 250800Z AUTO 14004KT 2SM 18/09 A2994 RMK SLP141 T01800090 IEM_DS3505
ZHHH,2006-03-25 09:00,ZHHH 250900Z AUTO 25002KT 9SM 18/08 A2994 RMK SLP144 T01830083 57008 IEM_DS3505
ZHHH,2006-03-25 10:00,ZHHH 251000Z AUTO 36002KT 3SM 18/10 A2997 RMK SLP151 T01800100 IEM_DS3505
ZHHH,2006-03-25 11:00,ZHHH 251100Z AUTO 00000KT 3SM 16/10 A3000 RMK SLP162 T01600100 IEM_DS3505
ZHHH,2006-03-25 12:00,ZHHH 251200Z AUTO 09002KT 9SM 14/09 A3003 RMK SLP166 T01390089 52022 IEM_DS3505
ZHHH,2006-03-25 13:00,ZHHH 251300Z AUTO 11006KT 3SM 14/11 A3003 RMK SLP172 T01400110 IEM_DS3505
ZHHH,2006-03-25 14:00,ZHHH 251400Z AUTO 13006KT 3SM 14/11 A3003 RMK SLP172 T01400110 IEM_DS3505
ZHHH,2006-03-25 15:00,ZHHH 251500Z AUTO 13006KT 9SM 12/08 A3006 RMK SLP177 T01250082 52011 IEM_DS3505
ZHHH,2006-03-25 16:00,ZHHH 251600Z AUTO 14004KT 3SM 13/10 A3006 RMK SLP182 T01300100 IEM_DS3505
ZHHH,2006-03-25 17:00,ZHHH 251700Z AUTO 15004KT 3SM 13/09 A3003 RMK SLP172 T01300090 IEM_DS3505
ZHHH,2006-03-25 18:00,ZHHH 251800Z AUTO 22002KT 9SM 12/09 A3003 RMK SLP175 T01250093 57002 IEM_DS3505
ZHHH,2006-03-25 19:00,ZHHH 251900Z AUTO 03002KT 1 1/2SM 11/09 A3003 RMK SLP172 T01100090 IEM_DS3505
ZHHH,2006-03-25 20:00,ZHHH 252000Z AUTO 09004KT 1 1/2SM 11/09 A3003 RMK SLP172 T01100090 IEM_DS3505
ZHHH,2006-03-25 21:00,ZHHH 252100Z AUTO 11002KT 11SM 11/10 A3000 RMK SLP161 T01070095 57014 IEM_DS3505
ZHHH,2006-03-25 22:00,ZHHH 252200Z AUTO 11004KT 1SM 10/10 A3003 RMK SLP172 T01000100 IEM_DS3505
ZHHH,2006-03-25 23:00,ZHHH 252300Z AUTO 13002KT 1/2SM 10/10 A3006 RMK SLP182 T01000100 IEM_DS3505
ZHHH,2006-03-26 00:00,ZHHH 260000Z AUTO 11002KT 3/8SM 11/11 A3006 RMK SLP183 T01130108 52022 IEM_DS3505
ZHHH,2006-03-26 01:00,ZHHH 260100Z AUTO 1/2SM 12/11 A3009 RMK SLP192 T01200110 IEM_DS3505
ZHHH,2006-03-26 02:00,ZHHH 260200Z AUTO 1/2SM 13/12 A3009 RMK SLP192 T01300120 IEM_DS3505
ZHHH,2006-03-26 03:00,ZHHH 260300Z AUTO 36002KT 5SM 16/12 A3009 RMK SLP190 T01580118 52007 IEM_DS3505
ZHHH,2006-03-26 04:00,ZHHH 260400Z AUTO 08004KT 1SM 16/13 A3006 RMK SLP182 T01600130 IEM_DS3505
ZHHH,2006-03-26 05:00,ZHHH 260500Z AUTO 04004KT 6SM 19/10 A3003 RMK SLP171 T01900100 IEM_DS3505
ZHHH,2006-03-26 06:00,ZHHH 260600Z AUTO 07002KT 9SM 21/08 A3000 RMK SLP154 T02060079 57036 IEM_DS3505
ZHHH,2006-03-26 07:00,ZHHH 260700Z AUTO 11006KT 6SM 21/09 A2994 RMK SLP141 T02100090 IEM_DS3505
ZHHH,2006-03-26 08:00,ZHHH 260800Z AUTO 15008KT 6SM 20/09 A2994 RMK SLP141 T02000090 IEM_DS3505
ZHHH,2006-03-26 09:00,ZHHH 260900Z AUTO 07004KT 9SM 21/03 A2994 RMK SLP133 T02060033 57021 IEM_DS3505
ZHHH,2006-03-26 10:00,ZHHH 261000Z AUTO 11006KT 6SM 19/10 A2991 RMK SLP131 T01900100 IEM_DS3505
ZHHH,2006-03-26 11:00,ZHHH 261100Z AUTO 16004KT 6SM 17/11 A2991 RMK SLP131 T01700110 IEM_DS3505
ZHHH,2006-03-26 12:00,ZHHH 261200Z AUTO 14004KT 9SM 15/09 A2994 RMK SLP143 T01540086 52010 IEM_DS3505
ZHHH,2006-03-26 13:00,ZHHH 261300Z AUTO 09002KT 6SM 16/10 A2997 RMK SLP152 T01600100 IEM_DS3505
ZHHH,2006-03-26 14:00,ZHHH 261400Z AUTO 6SM 15/10 A2997 RMK SLP152 T01500100 IEM_DS3505
ZHHH,2006-03-26 15:00,ZHHH 261500Z AUTO 20002KT 9SM 12/10 A3000 RMK SLP158 T01230105 52015 IEM_DS3505
ZHHH,2006-03-26 16:00,ZHHH 261600Z AUTO 19004KT 6SM 14/09 A3000 RMK SLP162 T01400090 IEM_DS3505
ZHHH,2006-03-26 17:00,ZHHH 261700Z AUTO 00000KT 6SM 13/09 A2997 RMK SLP152 T01300090 IEM_DS3505
ZHHH,2006-03-26 18:00,ZHHH 261800Z AUTO 32004KT 9SM 12/10 A2994 RMK SLP137 T01170096 57021 IEM_DS3505
ZHHH,2006-03-26 19:00,ZHHH 261900Z AUTO 05004KT 4SM 12/10 A2991 RMK SLP132 T01200100 IEM_DS3505
ZHHH,2006-03-26 20:00,ZHHH 262000Z AUTO 00000KT 4SM 12/09 A2994 RMK SLP142 T01200090 IEM_DS3505
ZHHH,2006-03-26 21:00,ZHHH 262100Z AUTO 00000KT 9SM 12/10 A2991 RMK SLP132 T01240103 57005 IEM_DS3505
ZHHH,2006-03-26 22:00,ZHHH 262200Z AUTO 16002KT 4SM 12/09 A2991 RMK SLP132 T01200090 IEM_DS3505
ZHHH,2006-03-26 23:00,ZHHH 262300Z AUTO 00000KT 2 1/2SM 12/10 A2994 RMK SLP142 T01200100 IEM_DS3505
ZHHH,2006-03-27 00:00,ZHHH 270000Z AUTO 06004KT 9SM 14/10 A2997 RMK SLP148 T01420096 52016 IEM_DS3505
ZHHH,2006-03-27 01:00,ZHHH 270100Z AUTO 00000KT 2 1/2SM 15/10 A2997 RMK SLP152 T01500100 IEM_DS3505
ZHHH,2006-03-27 02:00,ZHHH 270200Z AUTO 4SM 17/10 A3000 RMK SLP162 T01700100 IEM_DS3505
ZHHH,2006-03-27 03:00,ZHHH 270300Z AUTO 25002KT 9SM 20/09 A2997 RMK SLP148 T01990086 54000 IEM_DS3505
ZHHH,2006-03-27 04:00,ZHHH 270400Z AUTO 28004KT 4SM 20/10 A2997 RMK SLP151 T02000100 IEM_DS3505
ZHHH,2006-03-27 05:00,ZHHH 270500Z AUTO 4SM 22/11 A2994 RMK SLP141 T02200110 IEM_DS3505
ZHHH,2006-03-27 06:00,ZHHH 270600Z AUTO 22004KT 11SM 23/07 A2988 RMK SLP124 T02340067 57024 IEM_DS3505
ZHHH,2006-03-27 07:00,ZHHH 270700Z AUTO 24008KT 6SM 24/07 A2985 RMK SLP110 T02400070 IEM_DS3505
ZHHH,2006-03-27 08:00,ZHHH 270800Z AUTO 24008KT 6SM 24/08 A2985 RMK SLP110 T02400080 IEM_DS3505
ZHHH,2006-03-27 09:00,ZHHH 270900Z AUTO 25004KT 9SM 23/06 A2983 RMK SLP103 T02300059 57021 IEM_DS3505
ZHHH,2006-03-27 10:00,ZHHH 271000Z AUTO 23008KT 6SM 21/10 A2983 RMK SLP104 T02100100 IEM_DS3505
ZHHH,2006-03-27 11:00,ZHHH 271100Z AUTO 23006KT 6SM 19/10 A2985 RMK SLP110 T01900100 IEM_DS3505
ZHHH,2006-03-27 12:00,ZHHH 271200Z AUTO 07002KT 9SM 19/09 A2988 RMK SLP126 T01860088 52023 IEM_DS3505
ZHHH,2006-03-27 13:00,ZHHH 271300Z AUTO 23006KT 6SM 18/11 A2991 RMK SLP131 T01800110 IEM_DS3505
ZHHH,2006-03-27 14:00,ZHHH 271400Z AUTO 23006KT 6SM 17/11 A2994 RMK SLP141 T01700110 IEM_DS3505
ZHHH,2006-03-27 15:00,ZHHH 271500Z AUTO 27002KT 9SM 17/10 A2997 RMK SLP149 T01690105 52023 IEM_DS3505
ZHHH,2006-03-27 16:00,ZHHH 271600Z AUTO 6SM 16/12 A2997 RMK SLP152 T01600120 IEM_DS3505
ZHHH,2006-03-27 17:00,ZHHH 271700Z AUTO 00000KT 4SM 15/12 A2997 RMK SLP152 T01500120 IEM_DS3505
ZHHH,2006-03-27 18:00,ZHHH 271800Z AUTO 34002KT 9SM 16/12 A3003 RMK SLP167 T01550115 52018 IEM_DS3505
ZHHH,2006-03-27 19:00,ZHHH 271900Z AUTO 04019KT 4SM 13/04 A3003 RMK SLP172 T01300040 IEM_DS3505
ZHHH,2006-03-27 20:00,ZHHH 272000Z AUTO 05019G29KT 4SM 12/00 A3006 RMK SLP182 T01200000 IEM_DS3505
ZHHH,2006-03-27 21:00,ZHHH 272100Z AUTO 04008G25KT 9SM 12/M02 A3009 RMK SLP192 T01181024 52025 IEM_DS3505
ZHHH,2006-03-27 22:00,ZHHH 272200Z AUTO 04016G25KT 6SM 11/M04 A3015 RMK SLP212 T01101040 IEM_DS3505
ZHHH,2006-03-27 23:00,ZHHH 272300Z AUTO 04014KT 6SM 10/M04 A3018 RMK SLP222 T01001040 IEM_DS3505
ZHHH,2006-03-28 00:00,ZHHH 280000Z AUTO 04006KT 11SM 11/M05 A3021 RMK SLP234 T01121053 52042 IEM_DS3505
ZHHH,2006-03-28 01:00,ZHHH 280100Z AUTO 04010KT 6SM 12/M04 A3024 RMK SLP242 T01201040 IEM_DS3505
ZHHH,2006-03-28 02:00,ZHHH 280200Z AUTO 06017KT 6SM 13/M04 A3027 RMK SLP253 T01301040 IEM_DS3505
ZHHH,2006-03-28 03:00,ZHHH 280300Z AUTO 07006KT 9SM 14/M05 A3027 RMK SLP246 T01401047 52012 IEM_DS3505
ZHHH,2006-03-28 04:00,ZHHH 280400Z AUTO 04012KT 6SM 15/M05 A3027 RMK SLP253 T01501050 IEM_DS3505
ZHHH,2006-03-28 05:00,ZHHH 280500Z AUTO 04008KT 6SM 16/M04 A3021 RMK SLP232 T01601040 IEM_DS3505
ZHHH,2006-03-28 06:00,ZHHH 280600Z AUTO 36004KT 9SM 17/M04 A3018 RMK SLP223 T01681039 57023 IEM_DS3505
ZHHH,2006-03-28 07:00,ZHHH 280700Z AUTO 6SM 17/M04 A3015 RMK SLP212 T01701040 IEM_DS3505
ZHHH,2006-03-28 08:00,ZHHH 280800Z AUTO 04006KT 6SM 17/M03 A3012 RMK SLP202 T01701030 IEM_DS3505
ZHHH,2006-03-28 09:00,ZHHH 280900Z AUTO 04002KT 11SM 18/M03 A3012 RMK SLP197 T01751033 57026 IEM_DS3505
ZHHH,2006-03-28 10:00,ZHHH 281000Z AUTO 08006KT 6SM 16/M02 A3009 RMK SLP192 T01601020 IEM_DS3505
ZHHH,2006-03-28 11:00,ZHHH 281100Z AUTO 05004KT 6SM 14/M01 A3012 RMK SLP202 T01401010 IEM_DS3505
ZHHH,2006-03-28 12:00,ZHHH 281200Z AUTO 04002KT 11SM 15/M02 A3012 RMK SLP203 T01461019 52006 IEM_DS3505
ZHHH,2006-03-28 13:00,ZHHH 281300Z AUTO 07006KT 6SM 13/00 A3012 RMK SLP202 T01300000 IEM_DS3505
ZHHH,2006-03-28 14:00,ZHHH 281400Z AUTO 07006KT 6SM 12/01 A3015 RMK SLP212 T01200010 IEM_DS3505
ZHHH,2006-03-28 15:00,ZHHH 281500Z AUTO 07004KT 9SM 13/M01 A3015 RMK SLP211 T01291014 52010 IEM_DS3505
ZHHH,2006-03-28 16:00,ZHHH 281600Z AUTO 06004KT 6SM 10/02 A3015 RMK SLP212 T01000020 IEM_DS3505
ZHHH,2006-03-28 17:00,ZHHH 281700Z AUTO 08006KT 6SM 10/01 A3012 RMK SLP202 T01000010 IEM_DS3505
ZHHH,2006-03-28 18:00,ZHHH 281800Z AUTO 04002KT 9SM 11/M00 A3012 RMK SLP198 T01101005 57013 IEM_DS3505
ZHHH,2006-03-28 19:00,ZHHH 281900Z AUTO 10008KT 6SM 09/01 A3009 RMK SLP192 T00900010 IEM_DS3505
ZHHH,2006-03-28 20:00,ZHHH 282000Z AUTO 08008KT 6SM 08/02 A3009 RMK SLP193 T00800020 IEM_DS3505
ZHHH,2006-03-28 21:00,ZHHH 282100Z AUTO 11002KT 9SM 09/03 A3006 RMK SLP184 T00940034 57014 IEM_DS3505
ZHHH,2006-03-28 22:00,ZHHH 282200Z AUTO 12008KT 6SM 07/05 A3006 RMK SLP183 T00700050 IEM_DS3505
ZHHH,2006-03-28 23:00,ZHHH 282300Z AUTO 14006KT 6SM 09/06 A3009 RMK SLP192 T00900060 IEM_DS3505
ZHHH,2006-03-29 00:00,ZHHH 290000Z AUTO 18002KT 9SM 12/04 A3009 RMK SLP193 T01200035 52009 IEM_DS3505
ZHHH,2006-03-29 01:00,ZHHH 290100Z AUTO 14008KT 3SM 12/04 A3012 RMK SLP202 T01200040 IEM_DS3505
ZHHH,2006-03-29 02:00,ZHHH 290200Z AUTO 12006KT 3SM 14/05 A3012 RMK SLP202 T01400050 IEM_DS3505
ZHHH,2006-03-29 03:00,ZHHH 290300Z AUTO 25004KT 9SM 15/03 A3012 RMK SLP193 T01520034 54000 IEM_DS3505
ZHHH,2006-03-29 04:00,ZHHH 290400Z AUTO 11006KT 4SM 16/04 A3006 RMK SLP182 T01600040 IEM_DS3505
ZHHH,2006-03-29 05:00,ZHHH 290500Z AUTO 18004KT 4SM 18/04 A3003 RMK SLP171 T01800040 IEM_DS3505
ZHHH,2006-03-29 06:00,ZHHH 290600Z AUTO 16004KT 9SM 18/03 A3000 RMK SLP165 T01850032 57028 IEM_DS3505
ZHHH,2006-03-29 07:00,ZHHH 290700Z AUTO 23006KT 5SM 19/03 A2997 RMK SLP151 T01900030 IEM_DS3505
ZHHH,2006-03-29 08:00,ZHHH 290800Z AUTO 17004KT 6SM 20/05 A2997 RMK SLP151 T02000050 IEM_DS3505
ZHHH,2006-03-29 09:00,ZHHH 290900Z AUTO 18002KT 9SM 20/05 A2994 RMK SLP138 T02050053 57027 IEM_DS3505
ZHHH,2006-03-29 10:00,ZHHH 291000Z AUTO 18004KT 6SM 19/07 A2994 RMK SLP141 T01900070 IEM_DS3505
ZHHH,2006-03-29 11:00,ZHHH 291100Z AUTO 14004KT 6SM 18/08 A2994 RMK SLP141 T01800080 IEM_DS3505
ZHHH,2006-03-29 12:00,ZHHH 291200Z AUTO 25002KT 9SM 17/10 A2997 RMK SLP148 T01710095 52010 IEM_DS3505
ZHHH,2006-03-29 13:00,ZHHH 291300Z AUTO 18004KT 4SM 16/11 A2997 RMK SLP152 T01600110 IEM_DS3505
ZHHH,2006-03-29 14:00,ZHHH 291400Z AUTO 13004KT 4SM 15/11 A3000 RMK SLP162 T01500110 IEM_DS3505
ZHHH,2006-03-29 15:00,ZHHH 291500Z AUTO 12002KT 9SM 15/10 A3003 RMK SLP167 T01460096 52019 IEM_DS3505
ZHHH,2006-03-29 16:00,ZHHH 291600Z AUTO 00000KT 4SM 14/11 A3003 RMK SLP172 T01400110 IEM_DS3505
ZHHH,2006-03-29 17:00,ZHHH 291700Z AUTO 00000KT 3SM 14/10 A3000 RMK SLP162 T01400100 IEM_DS3505
ZHHH,2006-03-29 18:00,ZHHH 291800Z AUTO 00000KT 11SM 12/10 A3000 RMK SLP158 T01200096 57009 IEM_DS3505
ZHHH,2006-03-29 19:00,ZHHH 291900Z AUTO 09002KT 3SM 13/10 A3000 RMK SLP162 T01300100 IEM_DS3505
ZHHH,2006-03-29 20:00,ZHHH 292000Z AUTO 10004KT 3SM 13/10 A2997 RMK SLP152 T01300100 IEM_DS3505
ZHHH,2006-03-29 21:00,ZHHH 292100Z AUTO 11002KT 9SM 12/10 A2997 RMK SLP155 T01210097 57003 IEM_DS3505
ZHHH,2006-03-29 22:00,ZHHH 292200Z AUTO 11004KT 2SM 12/10 A3000 RMK SLP162 T01200100 IEM_DS3505
ZHHH,2006-03-29 23:00,ZHHH 292300Z AUTO 11006KT 1 1/4SM 12/10 A3003 RMK SLP172 T01200100 IEM_DS3505
ZHHH,2006-03-30 00:00,ZHHH 300000Z AUTO 09002KT 9SM 16/09 A3003 RMK SLP173 T01560091 52018 IEM_DS3505
ZHHH,2006-03-30 01:00,ZHHH 300100Z AUTO 12008KT 1 1/2SM 16/11 A3006 RMK SLP182 T01600110 IEM_DS3505
ZHHH,2006-03-30 02:00,ZHHH 300200Z AUTO 14004KT 1 1/2SM 19/11 A3006 RMK SLP181 T01900110 IEM_DS3505
ZHHH,2006-03-30 03:00,ZHHH 300300Z AUTO 16004KT 11SM 22/09 A3006 RMK SLP175 T02220094 52002 IEM_DS3505
ZHHH,2006-03-30 04:00,ZHHH 300400Z AUTO 13006KT 2SM 22/11 A3003 RMK SLP171 T02200110 IEM_DS3505
ZHHH,2006-03-30 05:00,ZHHH 300500Z AUTO 20006KT 2 1/2SM 24/10 A3000 RMK SLP161 T02400100 IEM_DS3505
ZHHH,2006-03-30 06:00,ZHHH 300600Z AUTO 27004KT 9SM 26/10 A2997 RMK SLP147 T02560098 57028 IEM_DS3505
ZHHH,2006-03-30 07:00,ZHHH 300700Z AUTO 19004KT 4SM 26/12 A2994 RMK SLP141 T02600120 IEM_DS3505
ZHHH,2006-03-30 08:00,ZHHH 300800Z AUTO 24004KT 4SM 25/12 A2991 RMK SLP131 T02500120 IEM_DS3505
ZHHH,2006-03-30 09:00,ZHHH 300900Z AUTO 09002KT 11SM 25/06 A2991 RMK SLP127 T02530065 57020 IEM_DS3505
ZHHH,2006-03-30 10:00,ZHHH 301000Z AUTO 00000KT 6SM 24/11 A2991 RMK SLP131 T02400110 IEM_DS3505
ZHHH,2006-03-30 11:00,ZHHH 301100Z AUTO 10004KT 6SM 22/12 A2991 RMK SLP131 T02200120 IEM_DS3505
ZHHH,2006-03-30 12:00,ZHHH 301200Z AUTO 09002KT 9SM 20/13 A2991 RMK SLP134 T01950130 52007 IEM_DS3505
ZHHH,2006-03-30 13:00,ZHHH 301300Z AUTO 15004KT 4SM 21/14 A2994 RMK SLP141 T02100140 IEM_DS3505
ZHHH,2006-03-30 14:00,ZHHH 301400Z AUTO 4SM 20/12 A2994 RMK SLP141 T02000120 IEM_DS3505
ZHHH,2006-03-30 15:00,ZHHH 301500Z AUTO 00000KT 9SM 17/13 A2994 RMK SLP138 T01740127 52004 IEM_DS3505
ZHHH,2006-03-30 16:00,ZHHH 301600Z AUTO 20004KT 4SM 20/11 A2994 RMK SLP141 T02000110 IEM_DS3505
ZHHH,2006-03-30 17:00,ZHHH 301700Z AUTO 08002KT 4SM 19/13 A2991 RMK SLP131 T01900130 IEM_DS3505
ZHHH,2006-03-30 18:00,ZHHH 301800Z AUTO 11002KT 9SM 19/11 A2988 RMK SLP121 T01880114 57016 IEM_DS3505
ZHHH,2006-03-30 19:00,ZHHH 301900Z AUTO 12006KT 4SM 18/13 A2985 RMK SLP110 T01800130 IEM_DS3505
ZHHH,2006-03-30 20:00,ZHHH 302000Z AUTO 12006KT 3SM 17/13 A2985 RMK SLP110 T01700130 IEM_DS3505
ZHHH,2006-03-30 21:00,ZHHH 302100Z AUTO 11002KT 9SM 17/12 A2985 RMK SLP106 T01710120 57015 IEM_DS3505
ZHHH,2006-03-30 22:00,ZHHH 302200Z AUTO 13006KT 2SM 17/13 A2985 RMK SLP110 T01700130 IEM_DS3505
ZHHH,2006-03-30 23:00,ZHHH 302300Z AUTO 12008KT 1 1/4SM 16/14 A2985 RMK SLP111 T01600140 IEM_DS3505
ZHHH,2006-03-31 00:00,ZHHH 310000Z AUTO 11002KT 9SM 19/11 A2985 RMK SLP112 T01910114 52005 IEM_DS3505
ZHHH,2006-03-31 01:00,ZHHH 310100Z AUTO 12006KT 2 1/2SM 17/14 A2985 RMK SLP110 T01700140 IEM_DS3505
ZHHH,2006-03-31 02:00,ZHHH 310200Z AUTO 12008KT 2 1/2SM 18/13 A2985 RMK SLP110 T01800130 IEM_DS3505
ZHHH,2006-03-31 03:00,ZHHH 310300Z AUTO 11002KT 9SM 21/11 A2985 RMK SLP106 T02140114 57006 IEM_DS3505
ZHHH,2006-03-31 05:00,ZHHH 310500Z AUTO 12006KT 2 1/2SM 22/14 A2980 RMK SLP093 T02200140 IEM_DS3505
ZHHH,2006-03-31 06:00,ZHHH 310600Z AUTO 16004KT 9SM 24/12 A2977 RMK SLP075 T02350125 57030 IEM_DS3505
ZHHH,2006-03-31 07:00,ZHHH 310700Z AUTO 12004KT 2 1/2SM 23/15 A2974 RMK SLP073 T02300150 IEM_DS3505
ZHHH,2006-03-31 08:00,ZHHH 310800Z AUTO 13006KT 2 1/2SM 22/15 A2971 RMK SLP063 T02200150 IEM_DS3505
ZHHH,2006-03-31 09:00,ZHHH 310900Z AUTO 18002KT 9SM 21/16 A2971 RMK SLP062 T02070163 57013 IEM_DS3505
ZHHH,2006-03-31 10:00,ZHHH 311000Z AUTO 18006KT 2 1/2SM 19/17 A2971 RMK SLP063 T01900170 IEM_DS3505
ZHHH,2006-03-31 11:00,ZHHH 311100Z AUTO 15010KT 1 1/4SM 19/17 A2971 RMK SLP063 T01900170 IEM_DS3505
ZHHH,2006-03-31 12:00,ZHHH 311200Z AUTO 11002KT 6SM 19/17 A2974 RMK 60000 SLP067 T01930173 52005 IEM_DS3505
ZHHH,2006-03-31 13:00,ZHHH 311300Z AUTO 13006KT 1SM 18/18 A2974 RMK SLP073 T01800180 IEM_DS3505
ZHHH,2006-03-31 14:00,ZHHH 311400Z AUTO 13006KT 1SM 18/18 A2974 RMK SLP073 T01800180 IEM_DS3505
ZHHH,2006-03-31 15:00,ZHHH 311500Z AUTO 11002KT 7SM 19/17 A2971 RMK SLP066 T01940166 57001 IEM_DS3505
ZHHH,2006-03-31 16:00,ZHHH 311600Z AUTO 14008KT 1 1/4SM 18/17 A2971 RMK SLP063 T01800170 IEM_DS3505
ZHHH,2006-03-31 17:00,ZHHH 311700Z AUTO 13008KT 2SM 18/18 A2971 RMK SLP063 T01800180 IEM_DS3505
ZHHH,2006-03-31 18:00,ZHHH 311800Z AUTO 14004KT 7SM 19/17 A2971 RMK SLP055 T01910167 57011 IEM_DS3505
ZHHH,2006-03-31 19:00,ZHHH 311900Z AUTO 12004KT 1 1/4SM 18/17 A2971 RMK SLP063 T01800170 IEM_DS3505
ZHHH,2006-03-31 20:00,ZHHH 312000Z AUTO 09004KT 1SM 18/17 A2971 RMK SLP063 T01800170 IEM_DS3505
ZHHH,2006-03-31 21:00,ZHHH 312100Z AUTO 13006KT 9SM 19/17 A2968 RMK 70000 SLP051 T01860166 57004 IEM_DS3505
ZHHH,2006-03-31 22:00,ZHHH 312200Z AUTO 16006KT 1SM 18/17 A2968 RMK SLP053 T01800170 IEM_DS3505
ZHHH,2006-03-31 23:00,ZHHH 312300Z AUTO 1SM 18/18 A2971 RMK SLP063 T01800180 IEM_DS3505
ZHHH,2006-04-01 00:00,ZHHH 010000Z AUTO 25002KT 9SM 20/18 A2974 RMK 70000 SLP069 T02040180 52018 IEM_DS3505
ZHHH,2006-04-01 01:00,ZHHH 010100Z AUTO 34004KT 1 1/4SM 20/19 A2977 RMK T02000190 IEM_DS3505
ZHHH,2006-04-01 02:00,ZHHH 010200Z AUTO 27006KT 1 1/4SM 21/19 A2977 RMK T02100190 IEM_DS3505
ZHHH,2006-04-01 03:00,ZHHH 010300Z AUTO 27006KT 11SM 24/18 A2977 RMK SLP080 T02420182 52011 IEM_DS3505
ZHHH,2006-04-01 04:00,ZHHH 010400Z AUTO 30008KT 2SM 23/19 A2977 RMK T02300190 IEM_DS3505
ZHHH,2006-04-01 05:00,ZHHH 010500Z AUTO 30006KT 2SM 24/19 A2974 RMK T02400190 IEM_DS3505
ZHHH,2006-04-01 06:00,ZHHH 010600Z AUTO 32004KT 9SM 26/16 A2974 RMK SLP067 T02610161 57013 IEM_DS3505
ZHHH,2006-04-01 07:00,ZHHH 010700Z AUTO 34006KT 1 1/2SM 26/19 A2971 RMK T02600190 IEM_DS3505
ZHHH,2006-04-01 08:00,ZHHH 010800Z AUTO 32004KT 2 1/2SM 26/18 A2971 RMK T02600180 IEM_DS3505
ZHHH,2006-04-01 09:00,ZHHH 010900Z AUTO 34002KT 9SM 26/16 A2971 RMK SLP066 T02550164 57001 IEM_DS3505
ZHHH,2006-04-01 10:00,ZHHH 011000Z AUTO 2SM 25/19 A2974 RMK T02500190 IEM_DS3505
ZHHH,2006-04-01 11:00,ZHHH 011100Z AUTO 24002KT 2SM 23/18 A2977 RMK T02300180 IEM_DS3505
ZHHH,2006-04-01 12:00,ZHHH 011200Z AUTO 32002KT 9SM 22/17 A2980 RMK SLP091 T02220167 52025 IEM_DS3505
ZHHH,2006-04-01 13:00,ZHHH 011300Z AUTO 03010KT 3SM 22/08 A2983 RMK T02200080 IEM_DS3505
ZHHH,2006-04-01 14:00,ZHHH 011400Z AUTO 06010KT 3SM 21/08 A2985 RMK T02100080 IEM_DS3505
ZHHH,2006-04-01 15:00,ZHHH 011500Z AUTO 07002KT 11SM 21/08 A2985 RMK SLP116 T02130079 52025 IEM_DS3505
ZHHH,2006-04-01 16:00,ZHHH 011600Z AUTO 06008KT 6SM 20/07 A2988 RMK T02000070 IEM_DS3505
ZHHH,2006-04-01 17:00,ZHHH 011700Z AUTO 09008KT 6SM 19/07 A2988 RMK T01900070 IEM_DS3505
ZHHH,2006-04-01 18:00,ZHHH 011800Z AUTO 09002KT 11SM 19/06 A2991 RMK SLP125 T01900055 52009 IEM_DS3505
ZHHH,2006-04-01 19:00,ZHHH 011900Z AUTO 00000KT 6SM 18/08 A2988 RMK T01800080 IEM_DS3505
ZHHH,2006-04-01 20:00,ZHHH 012000Z AUTO 05002KT 6SM 18/06 A2991 RMK T01800060 IEM_DS3505
ZHHH,2006-04-01 21:00,ZHHH 012100Z AUTO 09002KT 9SM 18/05 A2991 RMK SLP126 T01840049 52001 IEM_DS3505
ZHHH,2006-04-01 22:00,ZHHH 012200Z AUTO 02004KT 6SM 17/06 A2994 RMK T01700060 IEM_DS3505
ZHHH,2006-04-01 23:00,ZHHH 012300Z AUTO 06006KT 6SM 16/06 A2994 RMK T01600060 IEM_DS3505
ZHHH,2006-04-02 00:00,ZHHH 020000Z AUTO 09004KT 9SM 19/03 A2994 RMK SLP142 T01900032 52015 IEM_DS3505
ZHHH,2006-04-02 01:00,ZHHH 020100Z AUTO 08008KT 6SM 20/07 A2994 RMK T02000070 IEM_DS3505
ZHHH,2006-04-02 02:00,ZHHH 020200Z AUTO 10010KT 6SM 23/06 A2994 RMK T02300060 IEM_DS3505
ZHHH,2006-04-02 03:00,ZHHH 020300Z AUTO 11004KT 11SM 26/01 A2994 RMK SLP137 T02550009 57004 IEM_DS3505
ZHHH,2006-04-02 04:00,ZHHH 020400Z AUTO 12008KT 6SM 25/05 A2991 RMK T02500050 IEM_DS3505
ZHHH,2006-04-02 05:00,ZHHH 020500Z AUTO 12010KT 6SM 26/09 A2988 RMK T02600090 IEM_DS3505
ZHHH,2006-04-02 06:00,ZHHH 020600Z AUTO 09004KT 11SM 28/04 A2985 RMK SLP103 T02810044 57034 IEM_DS3505
ZHHH,2006-04-02 07:00,ZHHH 020700Z AUTO 12006KT 4SM 27/12 A2983 RMK T02700120 IEM_DS3505
ZHHH,2006-04-02 08:00,ZHHH 020800Z AUTO 12008KT 2 1/2SM 27/13 A2980 RMK T02700130 IEM_DS3505
ZHHH,2006-04-02 09:00,ZHHH 020900Z AUTO 09004KT 11SM 28/09 A2977 RMK SLP079 T02770091 57024 IEM_DS3505
ZHHH,2006-04-02 10:00,ZHHH 021000Z AUTO 11008KT 3SM 25/16 A2977 RMK T02500160 IEM_DS3505
ZHHH,2006-04-02 11:00,ZHHH 021100Z AUTO 11008KT 4SM 23/15 A2977 RMK T02300150 IEM_DS3505
ZHHH,2006-04-02 12:00,ZHHH 021200Z AUTO 09004KT 9SM 24/11 A2977 RMK SLP077 T02380112 57002 IEM_DS3505
ZHHH,2006-04-02 13:00,ZHHH 021300Z AUTO 12008KT 4SM 22/14 A2977 RMK T02200140 IEM_DS3505
ZHHH,2006-04-02 14:00,ZHHH 021400Z AUTO 11008KT 4SM 21/14 A2977 RMK T02100140 IEM_DS3505
ZHHH,2006-04-02 15:00,ZHHH 021500Z AUTO 11004KT 9SM 23/11 A2977 RMK SLP081 T02330114 52004 IEM_DS3505
ZHHH,2006-04-02 16:00,ZHHH 021600Z AUTO 12006KT 4SM 20/14 A2977 RMK T02000140 IEM_DS3505
ZHHH,2006-04-02 17:00,ZHHH 021700Z AUTO 12008KT 4SM 20/14 A2977 RMK T02000140 IEM_DS3505
ZHHH,2006-04-02 18:00,ZHHH 021800Z AUTO 11004KT 11SM 22/14 A2977 RMK SLP074 T02220136 57007 IEM_DS3505
ZHHH,2006-04-02 19:00,ZHHH 021900Z AUTO 12008KT 4SM 19/15 A2974 RMK T01900150 IEM_DS3505
ZHHH,2006-04-02 20:00,ZHHH 022000Z AUTO 12010KT 4SM 19/15 A2971 RMK T01900150 IEM_DS3505
ZHHH,2006-04-02 21:00,ZHHH 022100Z AUTO 09004KT 11SM 22/14 A2971 RMK SLP057 T02180144 57017 IEM_DS3505
ZHHH,2006-04-02 22:00,ZHHH 022200Z AUTO 12010KT 3SM 19/16 A2971 RMK T01900160 IEM_DS3505
ZHHH,2006-04-02 23:00,ZHHH 022300Z AUTO 13008KT 2SM 19/17 A2971 RMK T01900170 IEM_DS3505
ZHHH,2006-04-03 00:00,ZHHH 030000Z AUTO 11006KT 11SM 23/16 A2971 RMK SLP060 T02330164 52003 IEM_DS3505
ZHHH,2006-04-03 01:00,ZHHH 030100Z AUTO 13010KT 2 1/2SM 23/19 A2971 RMK T02300190 IEM_DS3505
ZHHH,2006-04-03 02:00,ZHHH 030200Z AUTO 14010KT 3SM 25/20 A2971 RMK T02500200 IEM_DS3505
ZHHH,2006-04-03 03:00,ZHHH 030300Z AUTO 20004KT 9SM 29/19 A2968 RMK SLP051 T02880186 57009 IEM_DS3505
ZHHH,2006-04-03 04:00,ZHHH 030400Z AUTO 20012KT 6SM 30/21 A2965 RMK T03000210 IEM_DS3505
ZHHH,2006-04-03 06:00,ZHHH 030600Z AUTO 20006KT 11SM 32/18 A2959 RMK SLP015 T03240175 57036 IEM_DS3505
ZHHH,2006-04-03 07:00,ZHHH 030700Z AUTO 21014KT 7SM 32/20 A2956 RMK T03200200 IEM_DS3505
ZHHH,2006-04-03 08:00,ZHHH 030800Z AUTO 21012KT 6SM 31/21 A2953 RMK T03100210 IEM_DS3505
ZHHH,2006-04-03 09:00,ZHHH 030900Z AUTO 20004KT 9SM 31/18 A2953 RMK SLP001 T03080178 57014 IEM_DS3505
ZHHH,2006-04-03 10:00,ZHHH 031000Z AUTO 18006KT 7SM 29/21 A2953 RMK T02900210 IEM_DS3505
ZHHH,2006-04-03 11:00,ZHHH 031100Z AUTO 19004KT 7SM 28/21 A2953 RMK T02800210 IEM_DS3505
ZHHH,2006-04-03 12:00,ZHHH 031200Z AUTO 18002KT 9SM 28/19 A2953 RMK SLP000 T02830190 57001 IEM_DS3505
ZHHH,2006-04-03 13:00,ZHHH 031300Z AUTO 18006KT 7SM 28/21 A2953 RMK T02800210 IEM_DS3505
ZHHH,2006-04-03 14:00,ZHHH 031400Z AUTO 17006KT 7SM 28/21 A2956 RMK T02800210 IEM_DS3505
ZHHH,2006-04-03 15:00,ZHHH 031500Z AUTO 11004KT 9SM 27/19 A2956 RMK SLP004 T02670188 52005 IEM_DS3505
ZHHH,2006-04-03 16:00,ZHHH 031600Z AUTO 10004KT 3SM 25/21 A2953 RMK T02500210 IEM_DS3505
ZHHH,2006-04-03 17:00,ZHHH 031700Z AUTO 19008KT 3SM 26/20 A2950 RMK T02600200 IEM_DS3505
ZHHH,2006-04-03 18:00,ZHHH 031800Z AUTO 20002KT 9SM 26/18 A2953 RMK SLP998 T02570184 57006 IEM_DS3505
ZHHH,2006-04-03 19:00,ZHHH 031900Z AUTO 35004KT 6SM 24/21 A2956 RMK T02400210 IEM_DS3505
ZHHH,2006-04-03 20:00,ZHHH 032000Z AUTO 05004KT 6SM 23/21 A2953 RMK T02300210 IEM_DS3505
ZHHH,2006-04-03 21:00,ZHHH 032100Z AUTO 00000KT 9SM 23/19 A2953 RMK SLP001 T02330190 52002 IEM_DS3505
ZHHH,2006-04-03 22:00,ZHHH 032200Z AUTO 09008KT 6SM 22/21 A2956 RMK T02200210 IEM_DS3505
ZHHH,2006-04-03 23:00,ZHHH 032300Z AUTO 09010KT 6SM 21/20 A2956 RMK T02100200 IEM_DS3505
ZHHH,2006-04-04 00:00,ZHHH 040000Z AUTO 07004KT 9SM 23/20 A2959 RMK SLP015 T02310199 52014 IEM_DS3505
ZHHH,2006-04-04 01:00,ZHHH 040100Z AUTO 09004KT 6SM 22/21 A2959 RMK T02200210 IEM_DS3505
ZHHH,2006-04-04 02:00,ZHHH 040200Z AUTO 35008G17KT 3SM 22/21 A2962 RMK T02200210 IEM_DS3505
ZHHH,2006-04-04 03:00,ZHHH 040300Z AUTO 27004KT 9SM 22/18 A2962 RMK SLP033 T02180178 52018 IEM_DS3505
ZHHH,2006-04-04 04:00,ZHHH 040400Z AUTO 05014KT 3SM 20/17 A2962 RMK T02000170 IEM_DS3505
ZHHH,2006-04-04 05:00,ZHHH 040500Z AUTO 01008KT 3SM 19/17 A2962 RMK T01900170 IEM_DS3505
ZHHH,2006-04-04 06:00,ZHHH 040600Z AUTO 36004KT 9SM 21/16 A2959 RMK SLP023 T02080156 57010 IEM_DS3505
ZHHH,2006-04-04 07:00,ZHHH 040700Z AUTO 34014KT 1SM 17/16 A2962 RMK T01700160 IEM_DS3505
ZHHH,2006-04-04 08:00,ZHHH 040800Z AUTO 35014KT 1SM 17/17 A2962 RMK T01700170 IEM_DS3505
ZHHH,2006-04-04 09:00,ZHHH 040900Z AUTO 36006G21KT 7SM 18/15 A2965 RMK SLP040 T01750151 52017 IEM_DS3505
ZHHH,2006-04-04 10:00,ZHHH 041000Z AUTO 35016KT 4SM 16/15 A2971 RMK T01600150 IEM_DS3505
ZHHH,2006-04-04 11:00,ZHHH 041100Z AUTO 35012G21KT 4SM 16/15 A2974 RMK T01600150 IEM_DS3505
ZHHH,2006-04-04 12:00,ZHHH 041200Z AUTO 34008G25KT 7SM 16/13 A2977 RMK 60008 SLP078 T01590134 52038 IEM_DS3505
ZHHH,2006-04-04 13:00,ZHHH 041300Z AUTO 35014G25KT 6SM 15/14 A2983 RMK T01500140 IEM_DS3505
ZHHH,2006-04-04 14:00,ZHHH 041400Z AUTO 35014G25KT 4SM 14/13 A2985 RMK T01400130 IEM_DS3505
ZHHH,2006-04-04 15:00,ZHHH 041500Z AUTO 34006KT 9SM 15/12 A2988 RMK SLP124 T01480119 52045 IEM_DS3505
ZHHH,2006-04-04 16:00,ZHHH 041600Z AUTO 35012KT 3SM 14/12 A2988 RMK T01400120 IEM_DS3505
ZHHH,2006-04-04 17:00,ZHHH 041700Z AUTO 35010KT 4SM 14/12 A2991 RMK T01400120 IEM_DS3505
ZHHH,2006-04-04 18:00,ZHHH 041800Z AUTO 32006KT 9SM 14/11 A2991 RMK 60000 SLP134 T01400113 52010 IEM_DS3505
ZHHH,2006-04-04 19:00,ZHHH 041900Z AUTO 34010KT 4SM 13/12 A2991 RMK T01300120 IEM_DS3505
ZHHH,2006-04-04 20:00,ZHHH 042000Z AUTO 34010KT 4SM 12/11 A2991 RMK T01200110 IEM_DS3505
ZHHH,2006-04-04 21:00,ZHHH 042100Z AUTO 32006KT 9SM 13/11 A2994 RMK 70009 SLP135 T01300111 52001 IEM_DS3505
ZHHH,2006-04-04 22:00,ZHHH 042200Z AUTO 36010KT 2SM 12/12 A2994 RMK T01200120 IEM_DS3505
ZHHH,2006-04-04 23:00,ZHHH 042300Z AUTO 36008KT 1 1/4SM 13/12 A3000 RMK T01300120 IEM_DS3505
ZHHH,2006-04-05 00:00,ZHHH 050000Z AUTO 36002KT 9SM 14/12 A3000 RMK 70009 SLP162 T01430122 52027 IEM_DS3505
ZHHH,2006-04-05 01:00,ZHHH 050100Z AUTO 03008KT 2SM 16/14 A3003 RMK T01600140 IEM_DS3505
ZHHH,2006-04-05 02:00,ZHHH 050200Z AUTO 06012KT 2 1/2SM 17/13 A3003 RMK T01700130 IEM_DS3505
ZHHH,2006-04-05 03:00,ZHHH 050300Z AUTO 07004KT 9SM 18/13 A3003 RMK SLP167 T01770126 52005 IEM_DS3505
ZHHH,2006-04-05 04:00,ZHHH 050400Z AUTO 07012KT 6SM 19/13 A3000 RMK T01900130 IEM_DS3505
ZHHH,2006-04-05 05:00,ZHHH 050500Z AUTO 07010KT 6SM 19/14 A2997 RMK T01900140 IEM_DS3505
ZHHH,2006-04-05 06:00,ZHHH 050600Z AUTO 07004KT 7SM 19/12 A2994 RMK 60000 SLP142 T01890122 57025 IEM_DS3505
ZHHH,2006-04-05 07:00,ZHHH 050700Z AUTO 36006KT 7SM 19/13 A2994 RMK T01900130 IEM_DS3505
ZHHH,2006-04-05 08:00,ZHHH 050800Z AUTO 35004KT 4SM 18/14 A2994 RMK T01800140 IEM_DS3505
ZHHH,2006-04-05 09:00,ZHHH 050900Z AUTO 32004KT 7SM 19/13 A2994 RMK SLP140 T01880128 57002 IEM_DS3505
ZHHH,2006-04-05 10:00,ZHHH 051000Z AUTO 35004KT 3SM 18/14 A2994 RMK T01800140 IEM_DS3505
ZHHH,2006-04-05 11:00,ZHHH 051100Z AUTO 02004KT 2 1/2SM 17/14 A2997 RMK T01700140 IEM_DS3505
ZHHH,2006-04-05 12:00,ZHHH 051200Z AUTO 02004KT 9SM 17/13 A2997 RMK 60000 SLP148 T01720127 52008 IEM_DS3505
ZHHH,2006-04-05 13:00,ZHHH 051300Z AUTO 36006KT 2 1/2SM 16/14 A3000 RMK T01600140 IEM_DS3505
ZHHH,2006-04-05 14:00,ZHHH 051400Z AUTO 36006KT 2SM 16/13 A3000 RMK T01600130 IEM_DS3505
ZHHH,2006-04-05 15:00,ZHHH 051500Z AUTO 02002KT 9SM 16/13 A3003 RMK SLP162 T01570130 52014 IEM_DS3505
ZHHH,2006-04-05 16:00,ZHHH 051600Z AUTO 02004KT 1 1/2SM 14/14 A3000 RMK T01400140 IEM_DS3505
ZHHH,2006-04-05 17:00,ZHHH 051700Z AUTO 01004KT 1 1/4SM 14/14 A2997 RMK T01400140 IEM_DS3505
ZHHH,2006-04-05 18:00,ZHHH 051800Z AUTO 34004KT 9SM 15/13 A3000 RMK 60000 SLP156 T01510128 57006 IEM_DS3505
ZHHH,2006-04-05 19:00,ZHHH 051900Z AUTO 33004KT 1 1/4SM 14/14 A3000 RMK T01400140 IEM_DS3505
ZHHH,2006-04-05 20:00,ZHHH 052000Z AUTO 33004KT 1 1/4SM 14/14 A2997 RMK T01400140 IEM_DS3505
ZHHH,2006-04-05 21:00,ZHHH 052100Z AUTO 34002KT 9SM 15/13 A2997 RMK 70000 SLP154 T01480130 57002 IEM_DS3505
ZHHH,2006-04-05 22:00,ZHHH 052200Z AUTO 33004KT 1SM 14/14 A3000 RMK T01400140 IEM_DS3505
ZHHH,2006-04-05 23:00,ZHHH 052300Z AUTO 1SM 14/14 A3000 RMK T01400140 IEM_DS3505
ZHHH,2006-04-06 00:00,ZHHH 060000Z AUTO 34004KT 9SM 16/13 A3003 RMK 70000 SLP170 T01580129 52016 IEM_DS3505
ZHHH,2006-04-06 01:00,ZHHH 060100Z AUTO 31006KT 1 1/4SM 17/14 A3003 RMK T01700140 IEM_DS3505
ZHHH,2006-04-06 02:00,ZHHH 060200Z AUTO 32008KT 1 1/2SM 19/15 A3003 RMK T01900150 IEM_DS3505
ZHHH,2006-04-06 03:00,ZHHH 060300Z AUTO 27006KT 9SM 19/13 A3003 RMK SLP175 T01910126 52005 IEM_DS3505
ZHHH,2006-04-06 04:00,ZHHH 060400Z AUTO 30006KT 3SM 20/13 A3003 RMK T02000130 IEM_DS3505
ZHHH,2006-04-06 05:00,ZHHH 060500Z AUTO 31008KT 4SM 22/13 A3000 RMK T02200130 IEM_DS3505
ZHHH,2006-04-06 06:00,ZHHH 060600Z AUTO 22004KT 11SM 23/11 A3000 RMK SLP157 T02300114 57018 IEM_DS3505
ZHHH,2006-04-06 07:00,ZHHH 060700Z AUTO 30008KT 7SM 23/13 A2997 RMK T02300130 IEM_DS3505
ZHHH,2006-04-06 08:00,ZHHH 060800Z AUTO 28006KT 7SM 23/13 A2997 RMK T02300130 IEM_DS3505
ZHHH,2006-04-06 09:00,ZHHH 060900Z AUTO 25004KT 11SM 23/11 A2994 RMK SLP142 T02290107 57015 IEM_DS3505
ZHHH,2006-04-06 10:00,ZHHH 061000Z AUTO 23006KT 6SM 22/13 A2994 RMK T02200130 IEM_DS3505
ZHHH,2006-04-06 11:00,ZHHH 061100Z AUTO 21008KT 6SM 20/15 A2997 RMK T02000150 IEM_DS3505
ZHHH,2006-04-06 12:00,ZHHH 061200Z AUTO 22002KT 9SM 19/14 A2997 RMK SLP153 T01930137 52011 IEM_DS3505
ZHHH,2006-04-06 13:00,ZHHH 061300Z AUTO 22006KT 6SM 18/15 A3000 RMK T01800150 IEM_DS3505
ZHHH,2006-04-06 14:00,ZHHH 061400Z AUTO 22004KT 6SM 18/15 A3000 RMK T01800150 IEM_DS3505
ZHHH,2006-04-06 15:00,ZHHH 061500Z AUTO 25002KT 9SM 18/13 A3000 RMK SLP166 T01770130 52013 IEM_DS3505
ZHHH,2006-04-06 16:00,ZHHH 061600Z AUTO 19002KT 6SM 17/15 A3000 RMK T01700150 IEM_DS3505
ZHHH,2006-04-06 17:00,ZHHH 061700Z AUTO 18004KT 6SM 17/14 A3000 RMK T01700140 IEM_DS3505
ZHHH,2006-04-06 18:00,ZHHH 061800Z AUTO 18002KT 9SM 17/13 A2997 RMK SLP155 T01700133 57011 IEM_DS3505
ZHHH,2006-04-06 19:00,ZHHH 061900Z AUTO 15004KT 4SM 16/14 A2997 RMK T01600140 IEM_DS3505
ZHHH,2006-04-06 20:00,ZHHH 062000Z AUTO 18006KT 2 1/2SM 16/14 A2997 RMK T01600140 IEM_DS3505
ZHHH,2006-04-06 21:00,ZHHH 062100Z AUTO 07002KT 9SM 16/14 A3000 RMK SLP158 T01630143 52003 IEM_DS3505
ZHHH,2006-04-06 22:00,ZHHH 062200Z AUTO 18006KT 1SM 16/15 A3000 RMK T01600150 IEM_DS3505
ZHHH,2006-04-06 23:00,ZHHH 062300Z AUTO 16006KT 1 1/4SM 16/15 A3000 RMK T01600150 IEM_DS3505
ZHHH,2006-04-07 00:00,ZHHH 070000Z AUTO 11002KT 9SM 18/14 A3000 RMK SLP159 T01820141 52001 IEM_DS3505
ZHHH,2006-04-07 03:00,ZHHH 070300Z AUTO 22004KT 14SM 24/12 A3000 RMK SLP156 T02350125 57003 IEM_DS3505
ZHHH,2006-04-07 04:00,ZHHH 070400Z AUTO 21006KT 6SM 25/14 A2997 RMK T02500140 IEM_DS3505
ZHHH,2006-04-07 05:00,ZHHH 070500Z AUTO 18008KT 6SM 26/15 A2994 RMK T02600150 IEM_DS3505
ZHHH,2006-04-07 06:00,ZHHH 070600Z AUTO 22002KT 12SM 27/12 A2991 RMK SLP127 T02660123 57028 IEM_DS3505
ZHHH,2006-04-07 07:00,ZHHH 070700Z AUTO 20010KT 6SM 27/14 A2988 RMK T02700140 IEM_DS3505
ZHHH,2006-04-07 08:00,ZHHH 070800Z AUTO 20008KT 6SM 27/14 A2985 RMK T02700140 IEM_DS3505
ZHHH,2006-04-07 09:00,ZHHH 070900Z AUTO 22004KT 11SM 28/10 A2985 RMK SLP106 T02770104 57021 IEM_DS3505
ZHHH,2006-04-07 10:00,ZHHH 071000Z AUTO 20004KT 6SM 26/13 A2985 RMK T02600130 IEM_DS3505
ZHHH,2006-04-07 11:00,ZHHH 071100Z AUTO 13004KT 6SM 24/14 A2985 RMK T02400140 IEM_DS3505
ZHHH,2006-04-07 12:00,ZHHH 071200Z AUTO 09002KT 11SM 22/15 A2985 RMK SLP110 T02220151 52004 IEM_DS3505
ZHHH,2006-04-07 13:00,ZHHH 071300Z AUTO 10008KT 6SM 22/16 A2988 RMK T02200160 IEM_DS3505
ZHHH,2006-04-07 14:00,ZHHH 071400Z AUTO 11008KT 6SM 21/17 A2988 RMK T02100170 IEM_DS3505
ZHHH,2006-04-07 15:00,ZHHH 071500Z AUTO 11002KT 11SM 19/16 A2988 RMK SLP118 T01920161 52008 IEM_DS3505
ZHHH,2006-04-07 16:00,ZHHH 071600Z AUTO 10004KT 3SM 19/17 A2988 RMK T01900170 IEM_DS3505
ZHHH,2006-04-07 17:00,ZHHH 071700Z AUTO 13006KT 3SM 19/17 A2988 RMK T01900170 IEM_DS3505
ZHHH,2006-04-07 18:00,ZHHH 071800Z AUTO 11004KT 9SM 20/16 A2985 RMK SLP112 T01970158 57006 IEM_DS3505
ZHHH,2006-04-07 19:00,ZHHH 071900Z AUTO 13006KT 1 1/4SM 18/17 A2985 RMK T01800170 IEM_DS3505
ZHHH,2006-04-07 20:00,ZHHH 072000Z AUTO 11006KT 1 1/4SM 17/16 A2983 RMK T01700160 IEM_DS3505
ZHHH,2006-04-07 21:00,ZHHH 072100Z AUTO 11004KT 9SM 19/14 A2983 RMK SLP097 T01930143 57015 IEM_DS3505
ZHHH,2006-04-07 22:00,ZHHH 072200Z AUTO 12008KT 1SM 17/16 A2983 RMK T01700160 IEM_DS3505
ZHHH,2006-04-07 23:00,ZHHH 072300Z AUTO 11008KT 1SM 17/15 A2983 RMK T01700150 IEM_DS3505
ZHHH,2006-04-08 00:00,ZHHH 080000Z AUTO 09002KT 9SM 20/13 A2983 RMK SLP105 T01980133 52008 IEM_DS3505
ZHHH,2006-04-08 01:00,ZHHH 080100Z AUTO 12008KT 1 1/2SM 19/16 A2983 RMK T01900160 IEM_DS3505
ZHHH,2006-04-08 02:00,ZHHH 080200Z AUTO 13008KT 1 1/2SM 21/17 A2983 RMK T02100170 IEM_DS3505
ZHHH,2006-04-08 03:00,ZHHH 080300Z AUTO 11004KT 9SM 22/14 A2983 RMK SLP094 T02240135 57011 IEM_DS3505
ZHHH,2006-04-08 04:00,ZHHH 080400Z AUTO 15016KT 2SM 24/16 A2980 RMK T02400160 IEM_DS3505
ZHHH,2006-04-08 05:00,ZHHH 080500Z AUTO 14012KT 6SM 22/16 A2977 RMK T02200160 IEM_DS3505
ZHHH,2006-04-08 06:00,ZHHH 080600Z AUTO 14004KT 9SM 24/15 A2974 RMK SLP064 T02440151 57030 IEM_DS3505
ZHHH,2006-04-08 07:00,ZHHH 080700Z AUTO 17006KT 2 1/2SM 21/18 A2974 RMK T02100180 IEM_DS3505
ZHHH,2006-04-08 08:00,ZHHH 080800Z AUTO 34008KT 1SM 20/19 A2971 RMK T02000190 IEM_DS3505
ZHHH,2006-04-08 09:00,ZHHH 080900Z AUTO 32004KT 7SM 18/18 A2971 RMK SLP060 T01820180 57004 IEM_DS3505
ZHHH,2006-04-08 10:00,ZHHH 081000Z AUTO 08008KT 1SM 18/18 A2971 RMK T01800180 IEM_DS3505
ZHHH,2006-04-08 11:00,ZHHH 081100Z AUTO 08008KT 1 1/4SM 18/18 A2971 RMK T01800180 IEM_DS3505
ZHHH,2006-04-08 12:00,ZHHH 081200Z AUTO 09002KT 7SM 19/19 A2971 RMK 60130 SLP057 T01890189 57003 IEM_DS3505
ZHHH,2006-04-08 13:00,ZHHH 081300Z AUTO 02004KT 1SM 18/18 A2974 RMK T01800180 IEM_DS3505
ZHHH,2006-04-08 14:00,ZHHH 081400Z AUTO 06008KT 1 1/4SM 18/18 A2974 RMK T01800180 IEM_DS3505
ZHHH,2006-04-08 15:00,ZHHH 081500Z AUTO 09002KT 7SM 19/19 A2971 RMK SLP066 T01880188 52009 IEM_DS3505
ZHHH,2006-04-08 16:00,ZHHH 081600Z AUTO 06004KT 1 1/2SM 18/18 A2974 RMK T01800180 IEM_DS3505
ZHHH,2006-04-08 17:00,ZHHH 081700Z AUTO 01004KT 1 1/2SM 18/18 A2974 RMK T01800180 IEM_DS3505
ZHHH,2006-04-08 18:00,ZHHH 081800Z AUTO 32002KT 6SM 18/18 A2971 RMK 60008 SLP063 T01830183 57003 IEM_DS3505
ZHHH,2006-04-08 19:00,ZHHH 081900Z AUTO 04004KT 1 1/4SM 18/18 A2971 RMK T01800180 IEM_DS3505
ZHHH,2006-04-08 20:00,ZHHH 082000Z AUTO 10004KT 1 1/4SM 18/18 A2968 RMK T01800180 IEM_DS3505
ZHHH,2006-04-08 21:00,ZHHH 082100Z AUTO 34002KT 6SM 18/18 A2968 RMK 70138 SLP048 T01820182 57015 IEM_DS3505
ZHHH,2006-04-08 22:00,ZHHH 082200Z AUTO 36004KT 1SM 17/17 A2968 RMK T01700170 IEM_DS3505
ZHHH,2006-04-08 23:00,ZHHH 082300Z AUTO 02004KT 1SM 18/18 A2968 RMK T01800180 IEM_DS3505
ZHHH,2006-04-09 00:00,ZHHH 090000Z AUTO 04002KT 5SM 18/18 A2968 RMK 60003 70141 SLP053 T01780178 52005 IEM_DS3505
ZHHH,2006-04-09 01:00,ZHHH 090100Z AUTO 36004KT 1SM 17/17 A2971 RMK T01700170 IEM_DS3505
ZHHH,2006-04-09 03:00,ZHHH 090300Z AUTO 32002KT 6SM 18/18 A2968 RMK SLP056 T01760176 52002 IEM_DS3505
ZHHH,2006-04-09 04:00,ZHHH 090400Z AUTO 33008KT 1 1/4SM 17/17 A2971 RMK T01700170 IEM_DS3505
ZHHH,2006-04-09 05:00,ZHHH 090500Z AUTO 1 1/4SM 18/18 A2968 RMK T01800180 IEM_DS3505
ZHHH,2006-04-09 06:00,ZHHH 090600Z AUTO 29004KT 7SM 19/17 A2968 RMK 60039 SLP053 T01870169 57002 IEM_DS3505
ZHHH,2006-04-09 07:00,ZHHH 090700Z AUTO 36004KT 7SM 18/17 A2968 RMK T01800170 IEM_DS3505
ZHHH,2006-04-09 08:00,ZHHH 090800Z AUTO 7SM 18/17 A2968 RMK T01800170 IEM_DS3505
ZHHH,2006-04-09 09:00,ZHHH 090900Z AUTO 27002KT 9SM 20/16 A2968 RMK SLP049 T02030163 57004 IEM_DS3505
ZHHH,2006-04-09 10:00,ZHHH 091000Z AUTO 5SM 19/17 A2968 RMK T01900170 IEM_DS3505
ZHHH,2006-04-09 11:00,ZHHH 091100Z AUTO 28002KT 3SM 18/17 A2971 RMK T01800170 IEM_DS3505
ZHHH,2006-04-09 12:00,ZHHH 091200Z AUTO 00000KT 7SM 18/16 A2971 RMK SLP061 T01780165 52011 IEM_DS3505
ZHHH,2006-04-09 13:00,ZHHH 091300Z AUTO 00000KT 2 1/2SM 17/17 A2971 RMK T01700170 IEM_DS3505
ZHHH,2006-04-09 14:00,ZHHH 091400Z AUTO 22002KT 1 1/2SM 17/17 A2974 RMK T01700170 IEM_DS3505
ZHHH,2006-04-09 15:00,ZHHH 091500Z AUTO 11002KT 9SM 17/16 A2974 RMK SLP066 T01720161 52005 IEM_DS3505
ZHHH,2006-04-09 16:00,ZHHH 091600Z AUTO 01004KT 1SM 16/16 A2971 RMK T01600160 IEM_DS3505
ZHHH,2006-04-09 17:00,ZHHH 091700Z AUTO 05004KT 1/2SM 16/16 A2968 RMK T01600160 IEM_DS3505
ZHHH,2006-04-09 18:00,ZHHH 091800Z AUTO 09002KT 7SM 17/16 A2968 RMK SLP053 T01710161 57013 IEM_DS3505
ZHHH,2006-04-09 19:00,ZHHH 091900Z AUTO 12004KT 1/2SM 16/16 A2968 RMK T01600160 IEM_DS3505
ZHHH,2006-04-09 20:00,ZHHH 092000Z AUTO 08004KT 1/4SM 16/16 A2965 RMK T01600160 IEM_DS3505
ZHHH,2006-04-09 21:00,ZHHH 092100Z AUTO 02002KT 1SM 16/16 A2965 RMK 70041 SLP042 T01650162 57010 IEM_DS3505
ZHHH,2006-04-09 22:00,ZHHH 092200Z AUTO 1/8SM 15/15 A2968 RMK T01500150 IEM_DS3505
ZHHH,2006-04-09 23:00,ZHHH 092300Z AUTO 1/8SM 15/15 A2971 RMK T01500150 IEM_DS3505
ZHHH,2006-04-10 00:00,ZHHH 100000Z AUTO 07002KT 1/4SM 17/17 A2971 RMK 70039 SLP065 T01660166 52022 IEM_DS3505
ZHHH,2006-04-10 01:00,ZHHH 100100Z AUTO 1/4SM 16/16 A2974 RMK T01600160 IEM_DS3505
ZHHH,2006-04-10 02:00,ZHHH 100200Z AUTO 00000KT 1SM 18/18 A2974 RMK T01800180 IEM_DS3505
ZHHH,2006-04-10 03:00,ZHHH 100300Z AUTO 27002KT 6SM 21/18 A2974 RMK SLP070 T02110175 52006 IEM_DS3505
ZHHH,2006-04-10 04:00,ZHHH 100400Z AUTO 2 1/2SM 21/18 A2974 RMK T02100180 IEM_DS3505
ZHHH,2006-04-10 05:00,ZHHH 100500Z AUTO 18004KT 3SM 23/18 A2971 RMK T02300180 IEM_DS3505
ZHHH,2006-04-10 06:00,ZHHH 100600Z AUTO 18004KT 7SM 25/14 A2968 RMK SLP051 T02470145 57019 IEM_DS3505
ZHHH,2006-04-10 07:00,ZHHH 100700Z AUTO 4SM 25/16 A2965 RMK T02500160 IEM_DS3505
ZHHH,2006-04-10 08:00,ZHHH 100800Z AUTO 4SM 25/17 A2965 RMK T02500170 IEM_DS3505
ZHHH,2006-04-10 09:00,ZHHH 100900Z AUTO 20002KT 9SM 25/15 A2965 RMK SLP038 T02500151 57013 IEM_DS3505
ZHHH,2006-04-10 10:00,ZHHH 101000Z AUTO 16004KT 2 1/2SM 24/18 A2962 RMK T02400180 IEM_DS3505
ZHHH,2006-04-10 11:00,ZHHH 101100Z AUTO 12004KT 1 1/2SM 22/18 A2965 RMK T02200180 IEM_DS3505
ZHHH,2006-04-10 12:00,ZHHH 101200Z AUTO 11002KT 9SM 22/16 A2968 RMK SLP046 T02170160 52008 IEM_DS3505
ZHHH,2006-04-10 13:00,ZHHH 101300Z AUTO 12006KT 1 1/2SM 21/19 A2968 RMK T02100190 IEM_DS3505
ZHHH,2006-04-10 14:00,ZHHH 101400Z AUTO 12006KT 1SM 20/19 A2971 RMK T02000190 IEM_DS3505
ZHHH,2006-04-10 15:00,ZHHH 101500Z AUTO 09002KT 7SM 19/17 A2971 RMK SLP060 T01880169 52014 IEM_DS3505
ZHHH,2006-04-10 17:00,ZHHH 101700Z AUTO 11008KT 1SM 19/18 A2971 RMK T01900180 IEM_DS3505
ZHHH,2006-04-10 18:00,ZHHH 101800Z AUTO 11002KT 9SM 18/17 A2971 RMK SLP054 T01850167 57006 IEM_DS3505
ZHHH,2006-04-10 19:00,ZHHH 101900Z AUTO 11006KT 1SM 18/17 A2971 RMK T01800170 IEM_DS3505
ZHHH,2006-04-10 20:00,ZHHH 102000Z AUTO 10008KT 1SM 17/17 A2968 RMK T01700170 IEM_DS3505
ZHHH,2006-04-10 21:00,ZHHH 102100Z AUTO 09002KT 9SM 18/16 A2971 RMK SLP056 T01780161 52002 IEM_DS3505
ZHHH,2006-04-10 22:00,ZHHH 102200Z AUTO 09010KT 1SM 16/16 A2971 RMK T01600160 IEM_DS3505
ZHHH,2006-04-10 23:00,ZHHH 102300Z AUTO 10010KT 1 1/4SM 17/16 A2971 RMK T01700160 IEM_DS3505
ZHHH,2006-04-11 00:00,ZHHH 110000Z AUTO 07006KT 9SM 21/17 A2974 RMK SLP066 T02060166 52010 IEM_DS3505
ZHHH,2006-04-11 01:00,ZHHH 110100Z AUTO 11012KT 1 1/4SM 20/18 A2974 RMK T02000180 IEM_DS3505
ZHHH,2006-04-11 02:00,ZHHH 110200Z AUTO 11012KT 3SM 23/19 A2974 RMK T02300190 IEM_DS3505
ZHHH,2006-04-11 03:00,ZHHH 110300Z AUTO 07006KT 11SM 26/17 A2971 RMK SLP058 T02630174 57008 IEM_DS3505
ZHHH,2006-04-11 04:00,ZHHH 110400Z AUTO 11012KT 6SM 26/20 A2968 RMK T02600200 IEM_DS3505
ZHHH,2006-04-11 05:00,ZHHH 110500Z AUTO 12012KT 6SM 27/20 A2968 RMK T02700200 IEM_DS3505
ZHHH,2006-04-11 06:00,ZHHH 110600Z AUTO 09006KT 11SM 28/18 A2962 RMK SLP025 T02850180 57033 IEM_DS3505
ZHHH,2006-04-11 07:00,ZHHH 110700Z AUTO 12016KT 6SM 28/20 A2959 RMK T02800200 IEM_DS3505
ZHHH,2006-04-11 08:00,ZHHH 110800Z AUTO 11014KT 6SM 27/20 A2956 RMK T02700200 IEM_DS3505
ZHHH,2006-04-11 09:00,ZHHH 110900Z AUTO 09006KT 9SM 28/19 A2953 RMK SLP995 T02770187 57030 IEM_DS3505
ZHHH,2006-04-11 10:00,ZHHH 111000Z AUTO 11012KT 7SM 26/21 A2956 RMK T02600210 IEM_DS3505
ZHHH,2006-04-11 11:00,ZHHH 111100Z AUTO 10012KT 7SM 25/22 A2953 RMK T02500220 IEM_DS3505
ZHHH,2006-04-11 12:00,ZHHH 111200Z AUTO 07004KT 11SM 25/20 A2956 RMK 60000 SLP005 T02530203 52010 IEM_DS3505
ZHHH,2006-04-11 13:00,ZHHH 111300Z AUTO 05006KT 4SM 23/22 A2959 RMK T02300220 IEM_DS3505
ZHHH,2006-04-11 14:00,ZHHH 111400Z AUTO 01010KT 2 1/2SM 21/21 A2962 RMK T02100210 IEM_DS3505
ZHHH,2006-04-11 15:00,ZHHH 111500Z AUTO 07006KT 9SM 22/20 A2959 RMK SLP021 T02150201 52016 IEM_DS3505
ZHHH,2006-04-11 16:00,ZHHH 111600Z AUTO 08012KT 5SM 20/20 A2962 RMK T02000200 IEM_DS3505
ZHHH,2006-04-11 17:00,ZHHH 111700Z AUTO 36004KT 2 1/2SM 21/20 A2965 RMK T02100200 IEM_DS3505
ZHHH,2006-04-11 18:00,ZHHH 111800Z AUTO 34006KT 6SM 21/20 A2962 RMK 60075 SLP035 T02080198 52014 IEM_DS3505
ZHHH,2006-04-11 19:00,ZHHH 111900Z AUTO 01014G25KT 2 1/2SM 14/13 A2968 RMK T01400130 IEM_DS3505
ZHHH,2006-04-11 20:00,ZHHH 112000Z AUTO 35021G33KT 2 1/2SM 12/11 A2974 RMK T01200110 IEM_DS3505
ZHHH,2006-04-11 21:00,ZHHH 112100Z AUTO 34010G27KT 6SM 12/10 A2974 RMK 70085 SLP073 T01200096 52038 IEM_DS3505
ZHHH,2006-04-11 22:00,ZHHH 112200Z AUTO 02017G33KT 7SM 11/09 A2980 RMK T01100090 IEM_DS3505
ZHHH,2006-04-11 23:00,ZHHH 112300Z AUTO 02014KT 2 1/2SM 10/09 A2983 RMK T01000090 IEM_DS3505
ZHHH,2006-04-12 00:00,ZHHH 120000Z AUTO 32008KT 7SM 09/07 A2991 RMK 60016 70089 SLP124 T00910072 52050 IEM_DS3505
ZHHH,2006-04-12 01:00,ZHHH 120100Z AUTO 36014KT 3SM 08/07 A2994 RMK T00800070 IEM_DS3505
ZHHH,2006-04-12 02:00,ZHHH 120200Z AUTO 02010KT 2SM 07/07 A3000 RMK T00700070 IEM_DS3505
ZHHH,2006-04-12 03:00,ZHHH 120300Z AUTO 04004G25KT 7SM 08/06 A3003 RMK SLP163 T00770065 52039 IEM_DS3505
ZHHH,2006-04-12 04:00,ZHHH 120400Z AUTO 02017G29KT 7SM 07/06 A3000 RMK T00700060 IEM_DS3505
ZHHH,2006-04-12 05:00,ZHHH 120500Z AUTO 02016G29KT 1 1/4SM 06/06 A3003 RMK T00600060 IEM_DS3505
ZHHH,2006-04-12 06:00,ZHHH 120600Z AUTO 36006G25KT 6SM 06/05 A3006 RMK 60055 SLP173 T00650047 52010 IEM_DS3505
ZHHH,2006-04-12 07:00,ZHHH 120700Z AUTO 02014KT 1 1/4SM 06/05 A3006 RMK T00600050 IEM_DS3505
ZHHH,2006-04-12 08:00,ZHHH 120800Z AUTO 02014G25KT 1 1/4SM 06/05 A3009 RMK T00600050 IEM_DS3505
ZHHH,2006-04-12 09:00,ZHHH 120900Z AUTO 36006KT 6SM 06/04 A3009 RMK SLP193 T00610043 52019 IEM_DS3505
ZHHH,2006-04-12 10:00,ZHHH 121000Z AUTO 02014G25KT 2 1/2SM 05/04 A3012 RMK T00500040 IEM_DS3505
ZHHH,2006-04-12 11:00,ZHHH 121100Z AUTO 02016G25KT 4SM 05/04 A3015 RMK T00500040 IEM_DS3505
ZHHH,2006-04-12 12:00,ZHHH 121200Z AUTO 02012KT 11SM 06/03 A3018 RMK 60020 SLP221 T00590029 52028 IEM_DS3505
ZHHH,2006-04-12 13:00,ZHHH 121300Z AUTO 02014KT 3SM 05/04 A3021 RMK T00500040 IEM_DS3505
ZHHH,2006-04-12 14:00,ZHHH 121400Z AUTO 01010KT 3SM 05/04 A3027 RMK T00500040 IEM_DS3505
ZHHH,2006-04-12 15:00,ZHHH 121500Z AUTO 34006KT 7SM 05/04 A3030 RMK SLP263 T00530038 52042 IEM_DS3505
ZHHH,2006-04-12 16:00,ZHHH 121600Z AUTO 01008KT 4SM 05/04 A3030 RMK T00500040 IEM_DS3505
ZHHH,2006-04-12 17:00,ZHHH 121700Z AUTO 03014G25KT 5SM 04/03 A3030 RMK T00400030 IEM_DS3505
ZHHH,2006-04-12 18:00,ZHHH 121800Z AUTO 02008KT 9SM 05/02 A3030 RMK 60008 SLP255 T00510021 57008 IEM_DS3505
ZHHH,2006-04-12 19:00,ZHHH 121900Z AUTO 03010KT 7SM 04/03 A3027 RMK T00400030 IEM_DS3505
ZHHH,2006-04-12 20:00,ZHHH 122000Z AUTO 02006KT 7SM 04/03 A3030 RMK T00400030 IEM_DS3505
ZHHH,2006-04-12 21:00,ZHHH 122100Z AUTO 02004KT 9SM 05/03 A3027 RMK 70083 SLP253 T00500030 57002 IEM_DS3505
ZHHH,2006-04-12 22:00,ZHHH 122200Z AUTO 36008KT 7SM 04/03 A3030 RMK T00400030 IEM_DS3505
ZHHH,2006-04-12 23:00,ZHHH 122300Z AUTO 34008KT 4SM 04/03 A3030 RMK T00400030 IEM_DS3505
ZHHH,2006-04-13 00:00,ZHHH 130000Z AUTO 07002KT 7SM 05/03 A3027 RMK 60004 70083 SLP249 T00480028 57004 IEM_DS3505
ZHHH,2006-04-13 01:00,ZHHH 130100Z AUTO 01008KT 7SM 06/04 A3030 RMK T00600040 IEM_DS3505
ZHHH,2006-04-13 02:00,ZHHH 130200Z AUTO 02008KT 7SM 07/04 A3030 RMK T00700040 IEM_DS3505
ZHHH,2006-04-13 03:00,ZHHH 130300Z AUTO 04008KT 9SM 08/03 A3030 RMK SLP264 T00850029 52015 IEM_DS3505
ZHHH,2006-04-13 04:00,ZHHH 130400Z AUTO 02008KT 7SM 09/05 A3030 RMK T00900050 IEM_DS3505
ZHHH,2006-04-13 05:00,ZHHH 130500Z AUTO 04008KT 7SM 09/04 A3027 RMK T00900040 IEM_DS3505
ZHHH,2006-04-13 06:00,ZHHH 130600Z AUTO 04004KT 6SM 09/04 A3024 RMK 60000 SLP243 T00890037 57021 IEM_DS3505
ZHHH,2006-04-13 07:00,ZHHH 130700Z AUTO 04006KT 7SM 09/04 A3024 RMK T00900040 IEM_DS3505
ZHHH,2006-04-13 08:00,ZHHH 130800Z AUTO 03008KT 7SM 08/05 A3024 RMK T00800050 IEM_DS3505
ZHHH,2006-04-13 09:00,ZHHH 130900Z AUTO 04006KT 7SM 09/04 A3024 RMK SLP237 T00870035 57006 IEM_DS3505
ZHHH,2006-04-13 10:00,ZHHH 131000Z AUTO 04008KT 6SM 08/05 A3024 RMK T00800050 IEM_DS3505
ZHHH,2006-04-13 11:00,ZHHH 131100Z AUTO 04008KT 6SM 08/05 A3024 RMK T00800050 IEM_DS3505
ZHHH,2006-04-13 12:00,ZHHH 131200Z AUTO 02006KT 9SM 08/04 A3024 RMK 60000 SLP246 T00820038 52009 IEM_DS3505
ZHHH,2006-04-13 13:00,ZHHH 131300Z AUTO 05008KT 6SM 07/05 A3027 RMK T00700050 IEM_DS3505
ZHHH,2006-04-13 14:00,ZHHH 131400Z AUTO 08006KT 6SM 07/05 A3027 RMK T00700050 IEM_DS3505
ZHHH,2006-04-13 15:00,ZHHH 131500Z AUTO 04004KT 9SM 08/04 A3027 RMK SLP257 T00770045 52011 IEM_DS3505
ZHHH,2006-04-13 16:00,ZHHH 131600Z AUTO 03004KT 6SM 07/05 A3030 RMK T00700050 IEM_DS3505
ZHHH,2006-04-13 17:00,ZHHH 131700Z AUTO 03004KT 6SM 07/05 A3027 RMK T00700050 IEM_DS3505
ZHHH,2006-04-13 18:00,ZHHH 131800Z AUTO 04004KT 11SM 07/04 A3024 RMK SLP246 T00740044 57011 IEM_DS3505
ZHHH,2006-04-13 19:00,ZHHH 131900Z AUTO 03002KT 6SM 07/05 A3024 RMK T00700050 IEM_DS3505
ZHHH,2006-04-13 20:00,ZHHH 132000Z AUTO 6SM 07/05 A3024 RMK T00700050 IEM_DS3505
ZHHH,2006-04-13 21:00,ZHHH 132100Z AUTO 36002KT 9SM 07/05 A3024 RMK 70005 SLP237 T00730049 57009 IEM_DS3505
ZHHH,2006-04-13 22:00,ZHHH 132200Z AUTO 03004KT 6SM 07/06 A3021 RMK T00700060 IEM_DS3505
ZHHH,2006-04-13 23:00,ZHHH 132300Z AUTO 06006KT 4SM 07/06 A3024 RMK T00700060 IEM_DS3505
ZHHH,2006-04-14 00:00,ZHHH 140000Z AUTO 04004KT 7SM 08/05 A3024 RMK 70000 SLP247 T00780049 52010 IEM_DS3505
ZHHH,2006-04-14 01:00,ZHHH 140100Z AUTO 2 1/2SM 07/06 A3027 RMK T00700060 IEM_DS3505
ZHHH,2006-04-14 02:00,ZHHH 140200Z AUTO 06004KT 3SM 07/06 A3030 RMK T00700060 IEM_DS3505
ZHHH,2006-04-14 03:00,ZHHH 140300Z AUTO 02002KT 9SM 08/06 A3027 RMK SLP256 T00850056 52009 IEM_DS3505
ZHHH,2006-04-14 04:00,ZHHH 140400Z AUTO 2 1/2SM 08/07 A3030 RMK T00800070 IEM_DS3505
ZHHH,2006-04-14 05:00,ZHHH 140500Z AUTO 1SM 08/07 A3027 RMK T00800070 IEM_DS3505
ZHHH,2006-04-14 06:00,ZHHH 140600Z AUTO 09004KT 7SM 09/07 A3024 RMK 60000 SLP239 T00880068 57017 IEM_DS3505
ZHHH,2006-04-14 07:00,ZHHH 140700Z AUTO 08004KT 3SM 09/08 A3021 RMK T00900080 IEM_DS3505
ZHHH,2006-04-14 08:00,ZHHH 140800Z AUTO 4SM 09/07 A3018 RMK T00900070 IEM_DS3505
ZHHH,2006-04-14 09:00,ZHHH 140900Z AUTO 18002KT 9SM 09/06 A3021 RMK SLP228 T00910065 57011 IEM_DS3505
ZHHH,2006-04-14 10:00,ZHHH 141000Z AUTO 2 1/2SM 09/07 A3021 RMK T00900070 IEM_DS3505
ZHHH,2006-04-14 11:00,ZHHH 141100Z AUTO 2SM 09/07 A3021 RMK T00900070 IEM_DS3505
ZHHH,2006-04-14 12:00,ZHHH 141200Z AUTO 27002KT 7SM 09/07 A3021 RMK SLP236 T00940068 52008 IEM_DS3505
ZHHH,2006-04-14 13:00,ZHHH 141300Z AUTO 2 1/2SM 09/08 A3024 RMK T00900080 IEM_DS3505
ZHHH,2006-04-14 14:00,ZHHH 141400Z AUTO 2 1/2SM 09/08 A3024 RMK T00900080 IEM_DS3505
ZHHH,2006-04-14 15:00,ZHHH 141500Z AUTO 25004KT 7SM 09/07 A3027 RMK SLP250 T00940068 52014 IEM_DS3505
ZHHH,2006-04-14 16:00,ZHHH 141600Z AUTO 23002KT 2SM 09/08 A3024 RMK T00900080 IEM_DS3505
ZHHH,2006-04-14 17:00,ZHHH 141700Z AUTO 28002KT 1 1/4SM 08/08 A3024 RMK T00800080 IEM_DS3505
ZHHH,2006-04-14 18:00,ZHHH 141800Z AUTO 29002KT 9SM 08/07 A3024 RMK SLP242 T00850068 57008 IEM_DS3505
ZHHH,2006-04-14 19:00,ZHHH 141900Z AUTO 00000KT 1SM 07/07 A3024 RMK T00700070 IEM_DS3505
ZHHH,2006-04-14 20:00,ZHHH 142000Z AUTO 25004KT 1SM 07/07 A3021 RMK T00700070 IEM_DS3505
ZHHH,2006-04-14 21:00,ZHHH 142100Z AUTO 25002KT 9SM 08/07 A3021 RMK 70000 SLP235 T00820067 57007 IEM_DS3505
ZHHH,2006-04-14 22:00,ZHHH 142200Z AUTO 30002KT 1SM 07/07 A3021 RMK T00700070 IEM_DS3505
ZHHH,2006-04-14 23:00,ZHHH 142300Z AUTO 00000KT 1SM 08/08 A3021 RMK T00800080 IEM_DS3505
ZHHH,2006-04-15 00:00,ZHHH 150000Z AUTO 27002KT 9SM 10/07 A3024 RMK 70000 SLP243 T00960069 52008 IEM_DS3505
ZHHH,2006-04-15 01:00,ZHHH 150100Z AUTO 29004KT 1 1/4SM 10/08 A3027 RMK T01000080 IEM_DS3505
ZHHH,2006-04-15 02:00,ZHHH 150200Z AUTO 28004KT 2SM 12/08 A3027 RMK T01200080 IEM_DS3505
ZHHH,2006-04-15 03:00,ZHHH 150300Z AUTO 18002KT 9SM 14/06 A3024 RMK SLP239 T01430062 57004 IEM_DS3505
ZHHH,2006-04-15 04:00,ZHHH 150400Z AUTO 27004KT 4SM 14/08 A3021 RMK T01400080 IEM_DS3505
ZHHH,2006-04-15 05:00,ZHHH 150500Z AUTO 27004KT 6SM 16/09 A3018 RMK T01600090 IEM_DS3505
ZHHH,2006-04-15 06:00,ZHHH 150600Z AUTO 29006KT 9SM 17/08 A3018 RMK SLP217 T01710075 57022 IEM_DS3505
ZHHH,2006-04-15 07:00,ZHHH 150700Z AUTO 6SM 16/10 A3015 RMK T01600100 IEM_DS3505
ZHHH,2006-04-15 08:00,ZHHH 150800Z AUTO 26004KT 6SM 16/10 A3012 RMK T01600100 IEM_DS3505
ZHHH,2006-04-15 09:00,ZHHH 150900Z AUTO 32002KT 9SM 17/08 A3012 RMK SLP199 T01680082 57017 IEM_DS3505
ZHHH,2006-04-15 10:00,ZHHH 151000Z AUTO 6SM 16/10 A3012 RMK T01600100 IEM_DS3505
ZHHH,2006-04-15 11:00,ZHHH 151100Z AUTO 6SM 15/10 A3012 RMK T01500100 IEM_DS3505
ZHHH,2006-04-15 12:00,ZHHH 151200Z AUTO 14002KT 9SM 15/10 A3015 RMK SLP207 T01510099 52007 IEM_DS3505
ZHHH,2006-04-15 13:00,ZHHH 151300Z AUTO 6SM 15/10 A3015 RMK T01500100 IEM_DS3505
ZHHH,2006-04-15 14:00,ZHHH 151400Z AUTO 4SM 15/11 A3018 RMK T01500110 IEM_DS3505
ZHHH,2006-04-15 15:00,ZHHH 151500Z AUTO 22002KT 9SM 14/11 A3018 RMK SLP217 T01430109 52011 IEM_DS3505
ZHHH,2006-04-15 16:00,ZHHH 151600Z AUTO 21004KT 2SM 14/12 A3018 RMK T01400120 IEM_DS3505
ZHHH,2006-04-15 17:00,ZHHH 151700Z AUTO 20004KT 2SM 13/12 A3015 RMK T01300120 IEM_DS3505
ZHHH,2006-04-15 18:00,ZHHH 151800Z AUTO 18002KT 11SM 12/10 A3015 RMK SLP206 T01240103 57011 IEM_DS3505
ZHHH,2006-04-15 19:00,ZHHH 151900Z AUTO 1 1/2SM 12/11 A3012 RMK T01200110 IEM_DS3505
ZHHH,2006-04-15 20:00,ZHHH 152000Z AUTO 00000KT 1 1/2SM 12/11 A3012 RMK T01200110 IEM_DS3505
ZHHH,2006-04-15 21:00,ZHHH 152100Z AUTO 00000KT 11SM 11/10 A3012 RMK SLP205 T01070101 57001 IEM_DS3505
ZHHH,2006-04-15 22:00,ZHHH 152200Z AUTO 10002KT 1SM 11/11 A3015 RMK T01100110 IEM_DS3505
ZHHH,2006-04-15 23:00,ZHHH 152300Z AUTO 12004KT 1SM 12/11 A3015 RMK T01200110 IEM_DS3505
ZHHH,2006-04-16 00:00,ZHHH 160000Z AUTO 16002KT 9SM 14/11 A3015 RMK SLP216 T01380111 52011 IEM_DS3505
ZHHH,2006-04-16 01:00,ZHHH 160100Z AUTO 13004KT 1SM 15/12 A3018 RMK T01500120 IEM_DS3505
ZHHH,2006-04-16 02:00,ZHHH 160200Z AUTO 12004KT 1 1/4SM 16/13 A3018 RMK T01600130 IEM_DS3505
ZHHH,2006-04-16 03:00,ZHHH 160300Z AUTO 14004KT 9SM 18/10 A3015 RMK SLP213 T01840100 57003 IEM_DS3505
ZHHH,2006-04-16 04:00,ZHHH 160400Z AUTO 13004KT 2SM 19/10 A3012 RMK T01900100 IEM_DS3505
ZHHH,2006-04-16 05:00,ZHHH 160500Z AUTO 17006KT 2SM 20/12 A3012 RMK T02000120 IEM_DS3505
ZHHH,2006-04-16 06:00,ZHHH 160600Z AUTO 18006KT 9SM 22/06 A3009 RMK SLP185 T02190058 57028 IEM_DS3505
ZHHH,2006-04-16 07:00,ZHHH 160700Z AUTO 20006KT 4SM 21/10 A3006 RMK T02100100 IEM_DS3505
ZHHH,2006-04-16 08:00,ZHHH 160800Z AUTO 16006KT 4SM 22/09 A3003 RMK T02200090 IEM_DS3505
ZHHH,2006-04-16 09:00,ZHHH 160900Z AUTO 11002KT 7SM 22/05 A3000 RMK SLP161 T02230048 57024 IEM_DS3505
ZHHH,2006-04-16 10:00,ZHHH 161000Z AUTO 13004KT 4SM 20/12 A3000 RMK T02000120 IEM_DS3505
ZHHH,2006-04-16 11:00,ZHHH 161100Z AUTO 12006KT 4SM 19/11 A3000 RMK T01900110 IEM_DS3505
ZHHH,2006-04-16 12:00,ZHHH 161200Z AUTO 09002KT 9SM 17/09 A3000 RMK SLP159 T01700094 57002 IEM_DS3505
ZHHH,2006-04-16 13:00,ZHHH 161300Z AUTO 12004KT 3SM 17/11 A3000 RMK T01700110 IEM_DS3505
ZHHH,2006-04-16 14:00,ZHHH 161400Z AUTO 14004KT 2 1/2SM 17/11 A3000 RMK T01700110 IEM_DS3505
ZHHH,2006-04-16 15:00,ZHHH 161500Z AUTO 18002KT 9SM 17/10 A3000 RMK SLP160 T01670103 52001 IEM_DS3505
ZHHH,2006-04-16 16:00,ZHHH 161600Z AUTO 3SM 16/12 A3000 RMK T01600120 IEM_DS3505
ZHHH,2006-04-16 17:00,ZHHH 161700Z AUTO 32002KT 2 1/2SM 15/12 A3000 RMK T01500120 IEM_DS3505
ZHHH,2006-04-16 18:00,ZHHH 161800Z AUTO 13002KT 9SM 15/13 A2997 RMK SLP148 T01470126 57012 IEM_DS3505
ZHHH,2006-04-16 19:00,ZHHH 161900Z AUTO 13004KT 2 1/2SM 14/12 A2994 RMK T01400120 IEM_DS3505
ZHHH,2006-04-16 20:00,ZHHH 162000Z AUTO 13004KT 2SM 14/13 A2994 RMK T01400130 IEM_DS3505
ZHHH,2006-04-16 21:00,ZHHH 162100Z AUTO 14002KT 7SM 14/12 A2997 RMK SLP147 T01420122 57001 IEM_DS3505
ZHHH,2006-04-16 22:00,ZHHH 162200Z AUTO 13006KT 1 1/4SM 14/13 A2997 RMK T01400130 IEM_DS3505
ZHHH,2006-04-16 23:00,ZHHH 162300Z AUTO 13006KT 1SM 13/13 A2997 RMK T01300130 IEM_DS3505
ZHHH,2006-04-17 00:00,ZHHH 170000Z AUTO 14002KT 9SM 17/12 A3000 RMK SLP157 T01690120 52010 IEM_DS3505
ZHHH,2006-04-17 01:00,ZHHH 170100Z AUTO 16008KT 2SM 18/13 A2997 RMK T01800130 IEM_DS3505
ZHHH,2006-04-17 02:00,ZHHH 170200Z AUTO 16006KT 4SM 20/12 A2997 RMK T02000120 IEM_DS3505
ZHHH,2006-04-17 03:00,ZHHH 170300Z AUTO 18004KT 11SM 22/11 A2997 RMK SLP150 T02220110 57007 IEM_DS3505
ZHHH,2006-04-17 04:00,ZHHH 170400Z AUTO 21008KT 6SM 24/11 A2994 RMK T02400110 IEM_DS3505
ZHHH,2006-04-17 05:00,ZHHH 170500Z AUTO 17008KT 6SM 25/11 A2991 RMK T02500110 IEM_DS3505
ZHHH,2006-04-17 06:00,ZHHH 170600Z AUTO 22006KT 11SM 25/07 A2988 RMK SLP122 T02470069 57028 IEM_DS3505
ZHHH,2006-04-17 08:00,ZHHH 170800Z AUTO 24006KT 6SM 25/11 A2985 RMK T02500110 IEM_DS3505
ZHHH,2006-04-17 09:00,ZHHH 170900Z AUTO 20004KT 9SM 25/07 A2983 RMK SLP099 T02500067 57022 IEM_DS3505
ZHHH,2006-04-17 10:00,ZHHH 171000Z AUTO 10004KT 6SM 23/13 A2983 RMK T02300130 IEM_DS3505
ZHHH,2006-04-17 11:00,ZHHH 171100Z AUTO 10004KT 6SM 22/12 A2985 RMK T02200120 IEM_DS3505
ZHHH,2006-04-17 12:00,ZHHH 171200Z AUTO 09002KT 9SM 20/13 RMK SLP110 T01990129 52010 IEM_DS3505
ZHHH,2006-04-17 14:00,ZHHH 171400Z AUTO 4SM 20/14 A2988 RMK T02000140 IEM_DS3505
ZHHH,2006-04-17 15:00,ZHHH 171500Z AUTO 10004KT 9SM 19/14 A2988 RMK SLP122 T01930135 52013 IEM_DS3505
ZHHH,2006-04-17 16:00,ZHHH 171600Z AUTO 11006KT 5SM 19/16 A2991 RMK T01900160 IEM_DS3505
ZHHH,2006-04-17 17:00,ZHHH 171700Z AUTO 13004KT 4SM 18/16 A2988 RMK T01800160 IEM_DS3505
ZHHH,2006-04-17 18:00,ZHHH 171800Z AUTO 09002KT 9SM 18/15 A2988 RMK SLP114 T01750150 57008 IEM_DS3505
ZHHH,2006-04-17 19:00,ZHHH 171900Z AUTO 13006KT 2 1/2SM 18/16 A2985 RMK T01800160 IEM_DS3505
ZHHH,2006-04-17 20:00,ZHHH 172000Z AUTO 10004KT 2SM 17/15 A2985 RMK T01700150 IEM_DS3505
ZHHH,2006-04-17 21:00,ZHHH 172100Z AUTO 18002KT 9SM 18/15 A2988 RMK SLP119 T01750148 52005 IEM_DS3505
ZHHH,2006-04-17 22:00,ZHHH 172200Z AUTO 12004KT 1SM 16/15 A2988 RMK T01600150 IEM_DS3505
ZHHH,2006-04-17 23:00,ZHHH 172300Z AUTO 08004KT 1SM 16/15 A2991 RMK T01600150 IEM_DS3505
ZHHH,2006-04-18 00:00,ZHHH 180000Z AUTO 12004KT 9SM 20/15 A2991 RMK SLP134 T01970151 52014 IEM_DS3505
ZHHH,2006-04-18 01:00,ZHHH 180100Z AUTO 1SM 19/17 A2994 RMK T01900170 IEM_DS3505
ZHHH,2006-04-18 02:00,ZHHH 180200Z AUTO 11004KT 1 1/2SM 21/17 A2994 RMK T02100170 IEM_DS3505
ZHHH,2006-04-18 03:00,ZHHH 180300Z AUTO 22002KT 9SM 23/14 A2994 RMK SLP140 T02330140 52007 IEM_DS3505
ZHHH,2006-04-18 04:00,ZHHH 180400Z AUTO 24006KT 1 1/2SM 24/16 A2994 RMK T02400160 IEM_DS3505
ZHHH,2006-04-18 06:00,ZHHH 180600Z AUTO 22002KT 9SM 25/14 A2991 RMK SLP130 T02540145 57010 IEM_DS3505
ZHHH,2006-04-18 08:00,ZHHH 180800Z AUTO 24006KT 3SM 26/16 A2988 RMK T02600160 IEM_DS3505
ZHHH,2006-04-18 09:00,ZHHH 180900Z AUTO 27002KT 9SM 26/14 A2988 RMK SLP118 T02570142 57012 IEM_DS3505
ZHHH,2006-04-18 10:00,ZHHH 181000Z AUTO 22004KT 4SM 24/16 A2988 RMK T02400160 IEM_DS3505
ZHHH,2006-04-18 11:00,ZHHH 181100Z AUTO 19002KT 4SM 23/18 A2988 RMK T02300180 IEM_DS3505
ZHHH,2006-04-18 12:00,ZHHH 181200Z AUTO 20002KT 9SM 22/16 A2991 RMK SLP127 T02190157 52009 IEM_DS3505
ZHHH,2006-04-18 13:00,ZHHH 181300Z AUTO 17004KT 2 1/2SM 21/18 A2994 RMK T02100180 IEM_DS3505
ZHHH,2006-04-18 14:00,ZHHH 181400Z AUTO 21004KT 2SM 21/17 A2994 RMK T02100170 IEM_DS3505
ZHHH,2006-04-18 15:00,ZHHH 181500Z AUTO 22002KT 9SM 20/16 A2994 RMK SLP138 T01950160 52011 IEM_DS3505
ZHHH,2006-04-18 16:00,ZHHH 181600Z AUTO 19006KT 1 1/2SM 20/17 A2994 RMK T02000170 IEM_DS3505
ZHHH,2006-04-18 17:00,ZHHH 181700Z AUTO 18004KT 1 1/2SM 19/17 A2994 RMK T01900170 IEM_DS3505
ZHHH,2006-04-18 18:00,ZHHH 181800Z AUTO 19006KT 9SM 18/16 A2994 RMK SLP137 T01830161 57001 IEM_DS3505
ZHHH,2006-04-18 20:00,ZHHH 182000Z AUTO 18004KT 1 1/4SM 18/17 A2994 RMK T01800170 IEM_DS3505
ZHHH,2006-04-18 21:00,ZHHH 182100Z AUTO 16002KT 7SM 18/16 A2994 RMK SLP138 T01790164 52001 IEM_DS3505
ZHHH,2006-04-18 22:00,ZHHH 182200Z AUTO 14004KT 1SM 18/17 A2994 RMK T01800170 IEM_DS3505
ZHHH,2006-04-19 00:00,ZHHH 190000Z AUTO 11002KT 20/16 A2997 RMK SLP152 T02020158 52014 IEM_DS3505
ZHHH,2006-04-19 01:00,ZHHH 190100Z AUTO 00000KT 1SM 21/18 A3000 RMK T02100180 IEM_DS3505
ZHHH,2006-04-19 02:00,ZHHH 190200Z AUTO 04008KT 1SM 22/19 A3003 RMK T02200190 IEM_DS3505
ZHHH,2006-04-19 03:00,ZHHH 190300Z AUTO 04006KT 9SM 24/17 A3003 RMK SLP168 T02400170 52016 IEM_DS3505
ZHHH,2006-04-19 04:00,ZHHH 190400Z AUTO 06008KT 3SM 26/17 A3000 RMK T02600170 IEM_DS3505
ZHHH,2006-04-19 05:00,ZHHH 190500Z AUTO 06010KT 4SM 26/17 A3000 RMK T02600170 IEM_DS3505
ZHHH,2006-04-19 06:00,ZHHH 190600Z AUTO 04006KT 7SM 27/15 A3000 RMK SLP153 T02730150 57015 IEM_DS3505
ZHHH,2006-04-19 07:00,ZHHH 190700Z AUTO 04014KT 4SM 28/09 A2997 RMK T02800090 IEM_DS3505
ZHHH,2006-04-19 08:00,ZHHH 190800Z AUTO 03012KT 6SM 26/10 A2997 RMK T02600100 IEM_DS3505
ZHHH,2006-04-19 09:00,ZHHH 190900Z AUTO 02004KT 11SM 26/06 A3000 RMK SLP152 T02600061 57001 IEM_DS3505
ZHHH,2006-04-19 10:00,ZHHH 191000Z AUTO 03008KT 6SM 23/11 A3000 RMK T02300110 IEM_DS3505
ZHHH,2006-04-19 11:00,ZHHH 191100Z AUTO 04010KT 6SM 22/11 A3000 RMK T02200110 IEM_DS3505
ZHHH,2006-04-19 12:00,ZHHH 191200Z AUTO 04004KT 11SM 22/09 A3003 RMK SLP172 T02170089 52019 IEM_DS3505
ZHHH,2006-04-19 13:00,ZHHH 191300Z AUTO 05012KT 6SM 20/12 A3006 RMK T02000120 IEM_DS3505
ZHHH,2006-04-19 14:00,ZHHH 191400Z AUTO 04012KT 6SM 19/12 A3006 RMK T01900120 IEM_DS3505
ZHHH,2006-04-19 15:00,ZHHH 191500Z AUTO 04006KT 9SM 19/11 A3009 RMK SLP185 T01900108 52013 IEM_DS3505
ZHHH,2006-04-19 16:00,ZHHH 191600Z AUTO 04008KT 6SM 17/10 A3009 RMK T01700100 IEM_DS3505
ZHHH,2006-04-19 17:00,ZHHH 191700Z AUTO 05006KT 6SM 16/10 A3009 RMK T01600100 IEM_DS3505
ZHHH,2006-04-19 18:00,ZHHH 191800Z AUTO 07004KT 11SM 17/08 A3009 RMK SLP185 T01680082 52001 IEM_DS3505
ZHHH,2006-04-19 19:00,ZHHH 191900Z AUTO 07010KT 6SM 14/08 A3009 RMK T01400080 IEM_DS3505
ZHHH,2006-04-19 20:00,ZHHH 192000Z AUTO 07008KT 6SM 14/08 A3006 RMK T01400080 IEM_DS3505
ZHHH,2006-04-19 21:00,ZHHH 192100Z AUTO 07004KT 9SM 16/07 A3006 RMK SLP185 T01550070 57001 IEM_DS3505
ZHHH,2006-04-19 22:00,ZHHH 192200Z AUTO 05006KT 6SM 14/07 A3009 RMK T01400070 IEM_DS3505
ZHHH,2006-04-19 23:00,ZHHH 192300Z AUTO 08008KT 6SM 14/05 A3009 RMK T01400050 IEM_DS3505
ZHHH,2006-04-20 00:00,ZHHH 200000Z AUTO 07004KT 12SM 16/07 A3012 RMK SLP194 T01650066 52009 IEM_DS3505
ZHHH,2006-04-20 01:00,ZHHH 200100Z AUTO 08008KT 6SM 18/06 A3009 RMK T01800060 IEM_DS3505
ZHHH,2006-04-20 02:00,ZHHH 200200Z AUTO 12012KT 6SM 18/06 A3009 RMK T01800060 IEM_DS3505
ZHHH,2006-04-20 03:00,ZHHH 200300Z AUTO 09008KT 14SM 21/04 A3009 RMK SLP184 T02080040 57010 IEM_DS3505
ZHHH,2006-04-20 04:00,ZHHH 200400Z AUTO 11012KT 6SM 22/06 A3006 RMK T02200060 IEM_DS3505
ZHHH,2006-04-20 05:00,ZHHH 200500Z AUTO 13012KT 6SM 23/08 A3003 RMK T02300080 IEM_DS3505
ZHHH,2006-04-20 06:00,ZHHH 200600Z AUTO 09006KT 11SM 24/04 A3000 RMK SLP158 T02390038 57026 IEM_DS3505
ZHHH,2006-04-20 07:00,ZHHH 200700Z AUTO 10008KT 7SM 22/09 A2997 RMK T02200090 IEM_DS3505
ZHHH,2006-04-20 08:00,ZHHH 200800Z AUTO 10008KT 7SM 22/10 A2994 RMK T02200100 IEM_DS3505
ZHHH,2006-04-20 09:00,ZHHH 200900Z AUTO 09004KT 11SM 23/03 A2994 RMK SLP131 T02340034 57027 IEM_DS3505
ZHHH,2006-04-20 10:00,ZHHH 201000Z AUTO 07006KT 6SM 21/11 A2991 RMK T02100110 IEM_DS3505
ZHHH,2006-04-20 11:00,ZHHH 201100Z AUTO 06006KT 6SM 21/11 A2991 RMK T02100110 IEM_DS3505
ZHHH,2006-04-20 12:00,ZHHH 201200Z AUTO 04002KT 9SM 21/09 A2988 RMK SLP121 T02090092 57010 IEM_DS3505
ZHHH,2006-04-20 13:00,ZHHH 201300Z AUTO 09010KT 6SM 20/10 A2988 RMK T02000100 IEM_DS3505
ZHHH,2006-04-20 14:00,ZHHH 201400Z AUTO 10010KT 6SM 20/10 A2988 RMK T02000100 IEM_DS3505
ZHHH,2006-04-20 15:00,ZHHH 201500Z AUTO 09004KT 9SM 21/04 A2985 RMK SLP111 T02130044 57009 IEM_DS3505
ZHHH,2006-04-20 16:00,ZHHH 201600Z AUTO 10010KT 6SM 19/10 A2985 RMK T01900100 IEM_DS3505
ZHHH,2006-04-20 17:00,ZHHH 201700Z AUTO 06004KT 6SM 18/10 A2985 RMK T01800100 IEM_DS3505
ZHHH,2006-04-20 18:00,ZHHH 201800Z AUTO 04002KT 11SM 20/06 A2983 RMK SLP096 T02010065 57015 IEM_DS3505
ZHHH,2006-04-20 19:00,ZHHH 201900Z AUTO 09008KT 6SM 17/14 A2980 RMK T01700140 IEM_DS3505
ZHHH,2006-04-20 20:00,ZHHH 202000Z AUTO 09008KT 6SM 17/12 A2977 RMK T01700120 IEM_DS3505
ZHHH,2006-04-20 21:00,ZHHH 202100Z AUTO 11006KT 9SM 19/09 A2974 RMK 70000 SLP072 T01900092 57024 IEM_DS3505
ZHHH,2006-04-20 22:00,ZHHH 202200Z AUTO 12010KT 7SM 17/13 A2974 RMK T01700130 IEM_DS3505
ZHHH,2006-04-20 23:00,ZHHH 202300Z AUTO 09010KT 7SM 16/12 A2974 RMK T01600120 IEM_DS3505
ZHHH,2006-04-21 00:00,ZHHH 210000Z AUTO 09002KT 9SM 18/10 A2974 RMK 60000 70000 SLP069 T01830102 57003 IEM_DS3505
ZHHH,2006-04-21 01:00,ZHHH 210100Z AUTO 10008KT 3SM 16/13 A2974 RMK T01600130 IEM_DS3505
ZHHH,2006-04-21 02:00,ZHHH 210200Z AUTO 11008KT 2 1/2SM 16/14 A2971 RMK T01600140 IEM_DS3505
ZHHH,2006-04-21 03:00,ZHHH 210300Z AUTO 29004KT 6SM 17/13 A2974 RMK SLP068 T01720131 57001 IEM_DS3505
ZHHH,2006-04-21 04:00,ZHHH 210400Z AUTO 35004KT 1 1/4SM 16/15 A2974 RMK T01600150 IEM_DS3505
ZHHH,2006-04-21 05:00,ZHHH 210500Z AUTO 36010KT 1 1/2SM 14/14 A2971 RMK T01400140 IEM_DS3505
ZHHH,2006-04-21 06:00,ZHHH 210600Z AUTO 02004KT 9SM 15/14 A2968 RMK 60012 SLP054 T01480137 57015 IEM_DS3505
ZHHH,2006-04-21 07:00,ZHHH 210700Z AUTO 1 1/4SM 15/15 A2968 RMK T01500150 IEM_DS3505
ZHHH,2006-04-21 08:00,ZHHH 210800Z AUTO 33008KT 1SM 15/15 A2968 RMK T01500150 IEM_DS3505
ZHHH,2006-04-21 09:00,ZHHH 210900Z AUTO 34004KT 7SM 15/14 A2968 RMK SLP048 T01490139 57006 IEM_DS3505
ZHHH,2006-04-21 11:00,ZHHH 211100Z AUTO 35006KT 3SM 15/14 A2968 RMK T01500140 IEM_DS3505
ZHHH,2006-04-21 12:00,ZHHH 211200Z AUTO 02002KT 6SM 15/14 A2971 RMK 60035 SLP056 T01520139 52008 IEM_DS3505
ZHHH,2006-04-21 13:00,ZHHH 211300Z AUTO 31006KT 3SM 15/14 A2974 RMK T01500140 IEM_DS3505
ZHHH,2006-04-21 14:00,ZHHH 211400Z AUTO 29006KT 3SM 14/14 A2974 RMK T01400140 IEM_DS3505
ZHHH,2006-04-21 15:00,ZHHH 211500Z AUTO 30004KT 7SM 15/13 A2974 RMK SLP071 T01480133 52015 IEM_DS3505
ZHHH,2006-04-21 16:00,ZHHH 211600Z AUTO 3SM 14/13 A2974 RMK T01400130 IEM_DS3505
ZHHH,2006-04-21 17:00,ZHHH 211700Z AUTO 2SM 14/13 A2974 RMK T01400130 IEM_DS3505
ZHHH,2006-04-21 18:00,ZHHH 211800Z AUTO 18002KT 9SM 14/13 A2971 RMK 60008 SLP063 T01440133 57008 IEM_DS3505
ZHHH,2006-04-21 19:00,ZHHH 211900Z AUTO 25002KT 1 1/4SM 13/13 A2971 RMK T01300130 IEM_DS3505
ZHHH,2006-04-21 20:00,ZHHH 212000Z AUTO 00000KT 1 1/4SM 13/13 A2971 RMK T01300130 IEM_DS3505
ZHHH,2006-04-21 21:00,ZHHH 212100Z AUTO 29002KT 9SM 14/14 A2974 RMK 70056 SLP071 T01410135 52008 IEM_DS3505
ZHHH,2006-04-21 22:00,ZHHH 212200Z AUTO 29004KT 1 1/4SM 13/13 A2977 RMK T01300130 IEM_DS3505
ZHHH,2006-04-21 23:00,ZHHH 212300Z AUTO 28006KT 1SM 13/13 A2977 RMK T01300130 IEM_DS3505
ZHHH,2006-04-22 00:00,ZHHH 220000Z AUTO 29004KT 1/2SM 14/13 A2980 RMK 70056 SLP094 T01350130 52023 IEM_DS3505
ZHHH,2006-04-22 01:00,ZHHH 220100Z AUTO 32006KT 1SM 14/14 A2983 RMK T01400140 IEM_DS3505
ZHHH,2006-04-22 02:00,ZHHH 220200Z AUTO 33004KT 1SM 16/15 A2983 RMK T01600150 IEM_DS3505
ZHHH,2006-04-22 03:00,ZHHH 220300Z AUTO 34004KT 9SM 18/14 RMK SLP105 T01760143 52011 IEM_DS3505
ZHHH,2006-04-22 04:00,ZHHH 220400Z AUTO 29006KT 2 1/2SM 21/16 A2983 RMK T02100160 IEM_DS3505
ZHHH,2006-04-22 05:00,ZHHH 220500Z AUTO 32004KT 7SM 21/16 A2980 RMK T02100160 IEM_DS3505
ZHHH,2006-04-22 06:00,ZHHH 220600Z AUTO 02004KT 11SM 22/15 A2980 RMK SLP085 T02240148 57020 IEM_DS3505
ZHHH,2006-04-22 07:00,ZHHH 220700Z AUTO 05008KT 7SM 22/16 A2977 RMK T02200160 IEM_DS3505
ZHHH,2006-04-22 08:00,ZHHH 220800Z AUTO 04006KT 7SM 22/16 A2977 RMK T02200160 IEM_DS3505
ZHHH,2006-04-22 09:00,ZHHH 220900Z AUTO 02004KT 11SM 22/14 A2980 RMK SLP085 T02190145 54000 IEM_DS3505
ZHHH,2006-04-22 10:00,ZHHH 221000Z AUTO 04006KT 4SM 20/16 A2980 RMK T02000160 IEM_DS3505
ZHHH,2006-04-22 11:00,ZHHH 221100Z AUTO 04010KT 2SM 18/15 A2980 RMK T01800150 IEM_DS3505
ZHHH,2006-04-22 12:00,ZHHH 221200Z AUTO 04004KT 9SM 18/15 A2983 RMK SLP100 T01830148 52015 IEM_DS3505
ZHHH,2006-04-22 13:00,ZHHH 221300Z AUTO 08006KT 2SM 16/15 A2985 RMK T01600150 IEM_DS3505
ZHHH,2006-04-22 14:00,ZHHH 221400Z AUTO 07006KT 2SM 16/14 A2985 RMK T01600140 IEM_DS3505
ZHHH,2006-04-22 15:00,ZHHH 221500Z AUTO 07002KT 9SM 16/14 A2985 RMK SLP113 T01650142 52013 IEM_DS3505
ZHHH,2006-04-22 16:00,ZHHH 221600Z AUTO 08004KT 1SM 14/14 A2988 RMK T01400140 IEM_DS3505
ZHHH,2006-04-22 17:00,ZHHH 221700Z AUTO 06004KT 1SM 14/14 A2985 RMK T01400140 IEM_DS3505
ZHHH,2006-04-22 18:00,ZHHH 221800Z AUTO 09002KT 11SM 15/13 A2985 RMK SLP107 T01520132 57006 IEM_DS3505
ZHHH,2006-04-22 19:00,ZHHH 221900Z AUTO 04002KT 1SM 14/13 A2985 RMK T01400130 IEM_DS3505
ZHHH,2006-04-22 20:00,ZHHH 222000Z AUTO 05002KT 1SM 13/13 A2983 RMK T01300130 IEM_DS3505
ZHHH,2006-04-22 21:00,ZHHH 222100Z AUTO 04002KT 7SM 14/13 A2985 RMK SLP105 T01440133 57002 IEM_DS3505
ZHHH,2006-04-22 22:00,ZHHH 222200Z AUTO 10004KT 1/2SM 13/13 A2985 RMK T01300130 IEM_DS3505
ZHHH,2006-04-22 23:00,ZHHH 222300Z AUTO 10006KT 1/8SM 14/14 A2988 RMK T01400140 IEM_DS3505
ZHHH,2006-04-23 00:00,ZHHH 230000Z AUTO 04002KT 7SM 17/14 RMK SLP123 T01690145 52018 IEM_DS3505
ZHHH,2006-04-23 01:00,ZHHH 230100Z AUTO 09004KT 1/8SM 15/15 A2991 RMK T01500150 IEM_DS3505
ZHHH,2006-04-23 02:00,ZHHH 230200Z AUTO 02006KT 3/8SM 16/16 A2997 RMK T01600160 IEM_DS3505
ZHHH,2006-04-23 03:00,ZHHH 230300Z AUTO 07004KT 7SM 20/16 A2997 RMK SLP148 T01960161 52025 IEM_DS3505
ZHHH,2006-04-23 04:00,ZHHH 230400Z AUTO 03006KT 1 1/4SM 20/17 A2994 RMK T02000170 IEM_DS3505
ZHHH,2006-04-23 05:00,ZHHH 230500Z AUTO 31004KT 2 1/2SM 22/16 A2994 RMK T02200160 IEM_DS3505
ZHHH,2006-04-23 06:00,ZHHH 230600Z AUTO 29002KT 9SM 22/16 A2994 RMK SLP138 T02180161 57010 IEM_DS3505
ZHHH,2006-04-23 07:00,ZHHH 230700Z AUTO 02008KT 3SM 22/17 A2991 RMK T02200170 IEM_DS3505
ZHHH,2006-04-23 08:00,ZHHH 230800Z AUTO 03008KT 3SM 21/15 A2991 RMK T02100150 IEM_DS3505
ZHHH,2006-04-23 09:00,ZHHH 230900Z AUTO 02004KT 9SM 21/13 A2988 RMK SLP122 T02120134 57016 IEM_DS3505
ZHHH,2006-04-23 10:00,ZHHH 231000Z AUTO 04008KT 5SM 20/12 A2991 RMK T02000120 IEM_DS3505
ZHHH,2006-04-23 11:00,ZHHH 231100Z AUTO 04006KT 4SM 19/12 A2991 RMK T01900120 IEM_DS3505
ZHHH,2006-04-23 12:00,ZHHH 231200Z AUTO 04004KT 7SM 19/11 A2991 RMK SLP133 T01940109 52011 IEM_DS3505
ZHHH,2006-04-23 13:00,ZHHH 231300Z AUTO 01004KT 4SM 18/12 A2994 RMK T01800120 IEM_DS3505
ZHHH,2006-04-23 14:00,ZHHH 231400Z AUTO 03004KT 3SM 18/12 A2994 RMK T01800120 IEM_DS3505
ZHHH,2006-04-23 15:00,ZHHH 231500Z AUTO 04002KT 7SM 18/11 A2994 RMK SLP145 T01810107 52012 IEM_DS3505
ZHHH,2006-04-23 16:00,ZHHH 231600Z AUTO 02006KT 3SM 16/12 A2994 RMK T01600120 IEM_DS3505
ZHHH,2006-04-23 17:00,ZHHH 231700Z AUTO 00000KT 3SM 16/12 A2994 RMK T01600120 IEM_DS3505
ZHHH,2006-04-23 18:00,ZHHH 231800Z AUTO 32002KT 11SM 17/13 A2994 RMK SLP139 T01730126 57006 IEM_DS3505
ZHHH,2006-04-23 19:00,ZHHH 231900Z AUTO 03004KT 5SM 16/14 A2991 RMK T01600140 IEM_DS3505
ZHHH,2006-04-23 20:00,ZHHH 232000Z AUTO 00000KT 3SM 15/14 A2991 RMK T01500140 IEM_DS3505
ZHHH,2006-04-23 21:00,ZHHH 232100Z AUTO 02002KT 9SM 16/13 A2994 RMK SLP135 T01620127 57004 IEM_DS3505
ZHHH,2006-04-23 22:00,ZHHH 232200Z AUTO 00000KT 4SM 15/13 A2994 RMK T01500130 IEM_DS3505
ZHHH,2006-04-23 23:00,ZHHH 232300Z AUTO 09004KT 4SM 15/13 A2997 RMK T01500130 IEM_DS3505
ZHHH,2006-04-24 00:00,ZHHH 240000Z AUTO 04002KT 11SM 18/13 A2997 RMK SLP148 T01780129 52013 IEM_DS3505
ZHHH,2006-04-24 01:00,ZHHH 240100Z AUTO 10006KT 4SM 19/15 A2997 RMK T01900150 IEM_DS3505
ZHHH,2006-04-24 02:00,ZHHH 240200Z AUTO 12006KT 3SM 21/16 A2997 RMK T02100160 IEM_DS3505
ZHHH,2006-04-24 03:00,ZHHH 240300Z AUTO 11002KT 11SM 24/13 A2997 RMK SLP144 T02370133 57003 IEM_DS3505
ZHHH,2006-04-24 04:00,ZHHH 240400Z AUTO 12006KT 2 1/2SM 24/17 A2994 RMK T02400170 IEM_DS3505
ZHHH,2006-04-24 05:00,ZHHH 240500Z AUTO 13006KT 2 1/2SM 25/16 A2991 RMK T02500160 IEM_DS3505
ZHHH,2006-04-24 06:00,ZHHH 240600Z AUTO 07004KT 9SM 26/09 A2988 RMK SLP116 T02650094 57028 IEM_DS3505
ZHHH,2006-04-24 07:00,ZHHH 240700Z AUTO 12006KT 3SM 26/16 A2985 RMK T02600160 IEM_DS3505
ZHHH,2006-04-24 08:00,ZHHH 240800Z AUTO 15006KT 3SM 26/16 A2983 RMK T02600160 IEM_DS3505
ZHHH,2006-04-24 09:00,ZHHH 240900Z AUTO 11004KT 9SM 26/11 A2983 RMK SLP096 T02620108 57020 IEM_DS3505
ZHHH,2006-04-24 10:00,ZHHH 241000Z AUTO 12004KT 3SM 25/17 A2980 RMK T02500170 IEM_DS3505
ZHHH,2006-04-24 12:00,ZHHH 241200Z AUTO 09002KT 9SM 22/16 A2983 RMK SLP094 T02200158 57002 IEM_DS3505
ZHHH,2006-04-24 13:00,ZHHH 241300Z AUTO 11006KT 2SM 22/17 A2983 RMK T02200170 IEM_DS3505
ZHHH,2006-04-24 14:00,ZHHH 241400Z AUTO 11006KT 2 1/2SM 21/16 A2983 RMK T02100160 IEM_DS3505
ZHHH,2006-04-24 15:00,ZHHH 241500Z AUTO 10006KT 9SM 20/16 A2983 RMK SLP097 T01950158 52003 IEM_DS3505
ZHHH,2006-04-24 16:00,ZHHH 241600Z AUTO 10010KT 3SM 20/16 A2983 RMK T02000160 IEM_DS3505
ZHHH,2006-04-24 17:00,ZHHH 241700Z AUTO 10008KT 3SM 20/16 A2980 RMK T02000160 IEM_DS3505
ZHHH,2006-04-24 18:00,ZHHH 241800Z AUTO 11002KT 7SM 21/14 A2980 RMK SLP087 T02080140 57010 IEM_DS3505
ZHHH,2006-04-24 19:00,ZHHH 241900Z AUTO 12006KT 3SM 19/17 A2977 RMK T01900170 IEM_DS3505
ZHHH,2006-04-24 20:00,ZHHH 242000Z AUTO 13006KT 3SM 19/16 A2977 RMK T01900160 IEM_DS3505
ZHHH,2006-04-24 21:00,ZHHH 242100Z AUTO 11002KT 6SM 19/17 A2974 RMK 70023 SLP069 T01890167 57018 IEM_DS3505
ZHHH,2006-04-24 22:00,ZHHH 242200Z AUTO 11010KT 2SM 18/16 A2974 RMK T01800160 IEM_DS3505
ZHHH,2006-04-24 23:00,ZHHH 242300Z AUTO 12010KT 2 1/2SM 18/16 A2974 RMK T01800160 IEM_DS3505
ZHHH,2006-04-25 00:00,ZHHH 250000Z AUTO 09004KT 9SM 20/16 A2974 RMK 60024 70023 SLP066 T01970165 57003 IEM_DS3505
ZHHH,2006-04-25 01:00,ZHHH 250100Z AUTO 12008KT 2 1/2SM 19/18 A2971 RMK T01900180 IEM_DS3505
ZHHH,2006-04-25 02:00,ZHHH 250200Z AUTO 12010KT 2 1/2SM 19/17 A2971 RMK T01900170 IEM_DS3505
ZHHH,2006-04-25 03:00,ZHHH 250300Z AUTO 02002KT 6SM 19/17 A2968 RMK SLP057 T01920173 57009 IEM_DS3505
ZHHH,2006-04-25 04:00,ZHHH 250400Z AUTO 15008KT 1SM 19/19 A2971 RMK T01900190 IEM_DS3505
ZHHH,2006-04-25 05:00,ZHHH 250500Z AUTO 17004KT 1 1/4SM 20/19 A2968 RMK T02000190 IEM_DS3505
ZHHH,2006-04-25 06:00,ZHHH 250600Z AUTO 27002KT 7SM 20/18 A2965 RMK 60016 SLP045 T02050181 57012 IEM_DS3505
ZHHH,2006-04-25 07:00,ZHHH 250700Z AUTO 35006KT 1SM 19/19 A2965 RMK T01900190 IEM_DS3505
ZHHH,2006-04-25 08:00,ZHHH 250800Z AUTO 35006KT 1/2SM 19/19 A2965 RMK T01900190 IEM_DS3505
ZHHH,2006-04-25 09:00,ZHHH 250900Z AUTO 34002KT 6SM 19/18 A2965 RMK SLP044 T01930183 57001 IEM_DS3505
ZHHH,2006-04-25 10:00,ZHHH 251000Z AUTO 03004KT 1 1/4SM 18/18 A2968 RMK T01800180 IEM_DS3505
ZHHH,2006-04-25 11:00,ZHHH 251100Z AUTO 02004KT 2SM 18/18 A2971 RMK T01800180 IEM_DS3505
ZHHH,2006-04-25 12:00,ZHHH 251200Z AUTO 34006KT 7SM 19/18 A2974 RMK 60043 SLP067 T01880180 52023 IEM_DS3505
ZHHH,2006-04-25 13:00,ZHHH 251300Z AUTO 4SM 18/17 A2974 RMK T01800170 IEM_DS3505
ZHHH,2006-04-25 14:00,ZHHH 251400Z AUTO 35006KT 4SM 17/17 A2977 RMK T01700170 IEM_DS3505
ZHHH,2006-04-25 15:00,ZHHH 251500Z AUTO 27002KT 7SM 18/16 A2980 RMK SLP090 T01770160 52022 IEM_DS3505
ZHHH,2006-04-25 17:00,ZHHH 251700Z AUTO 35004KT 4SM 16/16 A2983 RMK T01600160 IEM_DS3505
ZHHH,2006-04-25 18:00,ZHHH 251800Z AUTO 32002KT 9SM 17/15 A2983 RMK 60000 SLP097 T01700152 52007 IEM_DS3505
ZHHH,2006-04-25 19:00,ZHHH 251900Z AUTO 4SM 16/15 A2983 RMK T01600150 IEM_DS3505
ZHHH,2006-04-25 20:00,ZHHH 252000Z AUTO 00000KT 3SM 15/15 A2983 RMK T01500150 IEM_DS3505
ZHHH,2006-04-25 21:00,ZHHH 252100Z AUTO 29002KT 7SM 16/15 A2983 RMK 70059 SLP101 T01610150 52004 IEM_DS3505
ZHHH,2006-04-25 22:00,ZHHH 252200Z AUTO 00000KT 2SM 15/15 A2983 RMK T01500150 IEM_DS3505
ZHHH,2006-04-25 23:00,ZHHH 252300Z AUTO 1SM 15/15 A2985 RMK T01500150 IEM_DS3505
ZHHH,2006-04-26 00:00,ZHHH 260000Z AUTO 32004KT 11SM 18/15 A2988 RMK 70059 SLP122 T01760149 52021 IEM_DS3505
ZHHH,2006-04-26 01:00,ZHHH 260100Z AUTO 01004KT 2 1/2SM 18/16 A2988 RMK T01800160 IEM_DS3505
ZHHH,2006-04-26 02:00,ZHHH 260200Z AUTO 29004KT 3SM 20/17 A2991 RMK T02000170 IEM_DS3505
ZHHH,2006-04-26 03:00,ZHHH 260300Z AUTO 34004KT 11SM 21/14 A2991 RMK SLP129 T02110145 52007 IEM_DS3505
ZHHH,2006-04-26 04:00,ZHHH 260400Z AUTO 7SM 22/17 A2988 RMK T02200170 IEM_DS3505
ZHHH,2006-04-26 05:00,ZHHH 260500Z AUTO 30004KT 6SM 23/18 A2988 RMK T02300180 IEM_DS3505
ZHHH,2006-04-26 06:00,ZHHH 260600Z AUTO 36004KT 11SM 25/15 A2985 RMK SLP110 T02470153 57018 IEM_DS3505
ZHHH,2006-04-26 07:00,ZHHH 260700Z AUTO 34004KT 6SM 25/18 A2983 RMK T02500180 IEM_DS3505
ZHHH,2006-04-26 08:00,ZHHH 260800Z AUTO 6SM 24/17 A2980 RMK T02400170 IEM_DS3505
ZHHH,2006-04-26 09:00,ZHHH 260900Z AUTO 32002KT 9SM 26/15 A2980 RMK SLP091 T02550149 57019 IEM_DS3505
ZHHH,2006-04-26 10:00,ZHHH 261000Z AUTO 6SM 24/17 A2980 RMK T02400170 IEM_DS3505
ZHHH,2006-04-26 11:00,ZHHH 261100Z AUTO 04004KT 6SM 23/17 A2983 RMK T02300170 IEM_DS3505
ZHHH,2006-04-26 12:00,ZHHH 261200Z AUTO 04002KT 12SM 22/17 A2983 RMK SLP102 T02190171 52011 IEM_DS3505
ZHHH,2006-04-26 13:00,ZHHH 261300Z AUTO 05002KT 6SM 22/16 A2985 RMK T02200160 IEM_DS3505
ZHHH,2006-04-26 14:00,ZHHH 261400Z AUTO 6SM 21/17 A2988 RMK T02100170 IEM_DS3505
ZHHH,2006-04-26 15:00,ZHHH 261500Z AUTO 13002KT 9SM 19/17 A2988 RMK SLP119 T01910172 52017 IEM_DS3505
ZHHH,2006-04-26 16:00,ZHHH 261600Z AUTO 6SM 20/18 A2991 RMK T02000180 IEM_DS3505
ZHHH,2006-04-26 17:00,ZHHH 261700Z AUTO 01002KT 6SM 19/18 A2991 RMK T01900180 IEM_DS3505
ZHHH,2006-04-26 18:00,ZHHH 261800Z AUTO 09002KT 9SM 18/17 A2991 RMK SLP127 T01820174 52008 IEM_DS3505
ZHHH,2006-04-26 19:00,ZHHH 261900Z AUTO 12004KT 3SM 20/17 A2988 RMK T02000170 IEM_DS3505
ZHHH,2006-04-26 20:00,ZHHH 262000Z AUTO 13006KT 2SM 19/18 A2988 RMK T01900180 IEM_DS3505
ZHHH,2006-04-26 21:00,ZHHH 262100Z AUTO 07002KT 9SM 18/17 A2991 RMK SLP125 T01790173 57002 IEM_DS3505
ZHHH,2006-04-26 22:00,ZHHH 262200Z AUTO 08006KT 1SM 17/17 A2991 RMK T01700170 IEM_DS3505
ZHHH,2006-04-26 23:00,ZHHH 262300Z AUTO 05006KT 1SM 18/18 A2991 RMK T01800180 IEM_DS3505
ZHHH,2006-04-27 00:00,ZHHH 270000Z AUTO 04004KT 7SM 20/18 A2994 RMK SLP134 T01970180 52009 IEM_DS3505
ZHHH,2006-04-27 01:00,ZHHH 270100Z AUTO 06004KT 3SM 20/18 A2994 RMK T02000180 IEM_DS3505
ZHHH,2006-04-27 02:00,ZHHH 270200Z AUTO 3SM 21/19 A2994 RMK T02100190 IEM_DS3505
ZHHH,2006-04-27 03:00,ZHHH 270300Z AUTO 04004KT 9SM 22/18 A2997 RMK SLP146 T02190177 52011 IEM_DS3505
ZHHH,2006-04-27 04:00,ZHHH 270400Z AUTO 32004KT 4SM 23/19 A2994 RMK T02300190 IEM_DS3505
ZHHH,2006-04-27 05:00,ZHHH 270500Z AUTO 02006KT 6SM 24/18 A2991 RMK T02400180 IEM_DS3505
ZHHH,2006-04-27 06:00,ZHHH 270600Z AUTO 29002KT 9SM 23/17 A2991 RMK SLP127 T02340169 57018 IEM_DS3505
ZHHH,2006-04-27 07:00,ZHHH 270700Z AUTO 03008KT 2 1/2SM 23/19 A2991 RMK T02300190 IEM_DS3505
ZHHH,2006-04-27 08:00,ZHHH 270800Z AUTO 03008KT 2SM 22/19 A2988 RMK T02200190 IEM_DS3505
ZHHH,2006-04-27 09:00,ZHHH 270900Z AUTO 04004KT 7SM 22/17 A2988 RMK SLP120 T02250174 57007 IEM_DS3505
ZHHH,2006-04-27 10:00,ZHHH 271000Z AUTO 1 1/4SM 22/19 A2988 RMK T02200190 IEM_DS3505
ZHHH,2006-04-27 11:00,ZHHH 271100Z AUTO 36002KT 1 1/4SM 21/19 A2991 RMK T02100190 IEM_DS3505
ZHHH,2006-04-27 12:00,ZHHH 271200Z AUTO 29002KT 9SM 21/18 A2994 RMK SLP135 T02110179 52014 IEM_DS3505
ZHHH,2006-04-27 13:00,ZHHH 271300Z AUTO 28002KT 1SM 20/19 A2994 RMK T02000190 IEM_DS3505
ZHHH,2006-04-27 14:00,ZHHH 271400Z AUTO 34004KT 1SM 19/18 A2997 RMK T01900180 IEM_DS3505
ZHHH,2006-04-27 15:00,ZHHH 271500Z AUTO 32002KT 9SM 20/18 A2997 RMK SLP148 T01950176 52013 IEM_DS3505
ZHHH,2006-04-27 16:00,ZHHH 271600Z AUTO 02004KT 1SM 18/18 A2994 RMK T01800180 IEM_DS3505
ZHHH,2006-04-27 17:00,ZHHH 271700Z AUTO 04006KT 1 1/4SM 18/17 A2994 RMK T01800170 IEM_DS3505
ZHHH,2006-04-27 18:00,ZHHH 271800Z AUTO 04002KT 9SM 18/17 A2994 RMK SLP137 T01830171 57010 IEM_DS3505
ZHHH,2006-04-27 19:00,ZHHH 271900Z AUTO 07004KT 1 1/4SM 18/17 A2994 RMK T01800170 IEM_DS3505
ZHHH,2006-04-27 20:00,ZHHH 272000Z AUTO 1 1/4SM 17/16 A2994 RMK T01700160 IEM_DS3505
ZHHH,2006-04-27 21:00,ZHHH 272100Z AUTO 27002KT 9SM 18/17 A2994 RMK SLP140 T01780172 52002 IEM_DS3505
ZHHH,2006-04-27 22:00,ZHHH 272200Z AUTO 30004KT 1/8SM 16/16 A2994 RMK T01600160 IEM_DS3505
ZHHH,2006-04-27 23:00,ZHHH 272300Z AUTO 1/8SM 17/17 A2997 RMK T01700170 IEM_DS3505
ZHHH,2006-04-28 00:00,ZHHH 280000Z AUTO 02002KT 5SM 18/17 A2997 RMK SLP147 T01780173 52007 IEM_DS3505
ZHHH,2006-04-28 01:00,ZHHH 280100Z AUTO 14004KT 1/2SM 18/18 A2997 RMK T01800180 IEM_DS3505
ZHHH,2006-04-28 02:00,ZHHH 280200Z AUTO 21006KT 1/2SM 19/19 A2997 RMK T01900190 IEM_DS3505
ZHHH,2006-04-28 03:00,ZHHH 280300Z AUTO 20006KT 6SM 21/18 A2997 RMK SLP146 T02090177 57001 IEM_DS3505
ZHHH,2006-04-28 04:00,ZHHH 280400Z AUTO 22008KT 1 1/4SM 22/19 A2991 RMK T02200190 IEM_DS3505
ZHHH,2006-04-28 05:00,ZHHH 280500Z AUTO 22008KT 1 1/2SM 24/19 A2988 RMK T02400190 IEM_DS3505
ZHHH,2006-04-28 06:00,ZHHH 280600Z AUTO 27004KT 9SM 25/17 A2985 RMK SLP111 T02500167 57034 IEM_DS3505
ZHHH,2006-04-28 07:00,ZHHH 280700Z AUTO 24010KT 2 1/2SM 25/18 A2983 RMK T02500180 IEM_DS3505
ZHHH,2006-04-28 08:00,ZHHH 280800Z AUTO 23012KT 2 1/2SM 25/18 A2980 RMK T02500180 IEM_DS3505
ZHHH,2006-04-28 09:00,ZHHH 280900Z AUTO 25004KT 9SM 25/16 A2980 RMK SLP087 T02480162 57024 IEM_DS3505
ZHHH,2006-04-28 10:00,ZHHH 281000Z AUTO 24010KT 3SM 24/18 A2980 RMK T02400180 IEM_DS3505
ZHHH,2006-04-28 11:00,ZHHH 281100Z AUTO 24006KT 3SM 22/18 A2980 RMK T02200180 IEM_DS3505
ZHHH,2006-04-28 12:00,ZHHH 281200Z AUTO 25002KT 9SM 22/18 A2980 RMK SLP094 T02190177 52007 IEM_DS3505
ZHHH,2006-04-28 13:00,ZHHH 281300Z AUTO 24006KT 3SM 21/18 A2983 RMK T02100180 IEM_DS3505
ZHHH,2006-04-28 14:00,ZHHH 281400Z AUTO 23006KT 3SM 20/17 A2985 RMK T02000170 IEM_DS3505
ZHHH,2006-04-28 15:00,ZHHH 281500Z AUTO 22002KT 11SM 20/15 A2983 RMK SLP104 T02010151 52010 IEM_DS3505
ZHHH,2006-04-28 16:00,ZHHH 281600Z AUTO 21006KT 3SM 19/16 A2983 RMK T01900160 IEM_DS3505
ZHHH,2006-04-28 17:00,ZHHH 281700Z AUTO 21006KT 3SM 19/17 A2983 RMK T01900170 IEM_DS3505
ZHHH,2006-04-28 18:00,ZHHH 281800Z AUTO 22004KT 9SM 19/15 A2980 RMK SLP095 T01890154 57009 IEM_DS3505
ZHHH,2006-04-28 19:00,ZHHH 281900Z AUTO 21008KT 3SM 18/16 A2980 RMK T01800160 IEM_DS3505
ZHHH,2006-04-28 21:00,ZHHH 282100Z AUTO 20002KT 9SM 18/15 A2977 RMK SLP081 T01810148 57014 IEM_DS3505
ZHHH,2006-04-28 22:00,ZHHH 282200Z AUTO 20006KT 4SM 17/16 A2977 RMK T01700160 IEM_DS3505
ZHHH,2006-04-28 23:00,ZHHH 282300Z AUTO 18004KT 4SM 18/16 A2980 RMK T01800160 IEM_DS3505
ZHHH,2006-04-29 00:00,ZHHH 290000Z AUTO 25004KT 11SM 21/15 A2980 RMK SLP089 T02100146 52008 IEM_DS3505
ZHHH,2006-04-29 01:00,ZHHH 290100Z AUTO 23012KT 6SM 22/17 A2980 RMK T02200170 IEM_DS3505
ZHHH,2006-04-29 02:00,ZHHH 290200Z AUTO 24014KT 6SM 24/18 A2980 RMK T02400180 IEM_DS3505
ZHHH,2006-04-29 03:00,ZHHH 290300Z AUTO 25008KT 11SM 26/16 A2977 RMK SLP084 T02550155 57005 IEM_DS3505
ZHHH,2006-04-29 04:00,ZHHH 290400Z AUTO 23014KT 6SM 26/18 A2977 RMK T02600180 IEM_DS3505
ZHHH,2006-04-29 05:00,ZHHH 290500Z AUTO 22014KT 6SM 28/18 A2974 RMK T02800180 IEM_DS3505
ZHHH,2006-04-29 06:00,ZHHH 290600Z AUTO 22006KT 11SM 28/16 A2971 RMK SLP061 T02840160 57023 IEM_DS3505
ZHHH,2006-04-29 07:00,ZHHH 290700Z AUTO 23016KT 6SM 29/18 A2968 RMK T02900180 IEM_DS3505
ZHHH,2006-04-29 08:00,ZHHH 290800Z AUTO 21014KT 6SM 28/18 A2965 RMK T02800180 IEM_DS3505
ZHHH,2006-04-29 09:00,ZHHH 290900Z AUTO 22004KT 11SM 29/15 A2965 RMK SLP039 T02890147 57022 IEM_DS3505
ZHHH,2006-04-29 10:00,ZHHH 291000Z AUTO 22012KT 6SM 27/17 A2962 RMK T02700170 IEM_DS3505
ZHHH,2006-04-29 11:00,ZHHH 291100Z AUTO 20008KT 6SM 25/17 A2965 RMK T02500170 IEM_DS3505
ZHHH,2006-04-29 12:00,ZHHH 291200Z AUTO 22004KT 12SM 26/15 A2965 RMK SLP042 T02550146 52003 IEM_DS3505
ZHHH,2006-04-29 13:00,ZHHH 291300Z AUTO 23008KT 6SM 24/17 A2968 RMK T02400170 IEM_DS3505
ZHHH,2006-04-29 14:00,ZHHH 291400Z AUTO 17006KT 6SM 23/17 A2971 RMK T02300170 IEM_DS3505
ZHHH,2006-04-29 15:00,ZHHH 291500Z AUTO 09002KT 12SM 23/16 A2968 RMK SLP053 T02270155 52011 IEM_DS3505
ZHHH,2006-04-29 16:00,ZHHH 291600Z AUTO 14006KT 6SM 22/18 A2968 RMK T02200180 IEM_DS3505
ZHHH,2006-04-29 17:00,ZHHH 291700Z AUTO 17006KT 6SM 23/16 A2968 RMK T02300160 IEM_DS3505
ZHHH,2006-04-29 18:00,ZHHH 291800Z AUTO 11002KT 11SM 22/14 A2965 RMK SLP039 T02160145 57014 IEM_DS3505
ZHHH,2006-04-29 19:00,ZHHH 291900Z AUTO 11006KT 6SM 20/16 A2965 RMK T02000160 IEM_DS3505
ZHHH,2006-04-29 20:00,ZHHH 292000Z AUTO 13006KT 6SM 21/16 A2965 RMK T02100160 IEM_DS3505
ZHHH,2006-04-29 21:00,ZHHH 292100Z AUTO 16002KT 9SM 21/13 A2965 RMK SLP038 T02080130 57001 IEM_DS3505
ZHHH,2006-04-29 22:00,ZHHH 292200Z AUTO 11006KT 6SM 20/15 A2965 RMK T02000150 IEM_DS3505
ZHHH,2006-04-29 23:00,ZHHH 292300Z AUTO 12006KT 6SM 21/16 A2968 RMK T02100160 IEM_DS3505
ZHHH,2006-04-30 00:00,ZHHH 300000Z AUTO 11002KT 9SM 24/13 A2968 RMK SLP051 T02370133 52013 IEM_DS3505
ZHHH,2006-04-30 01:00,ZHHH 300100Z AUTO 17006KT 6SM 25/17 A2971 RMK T02500170 IEM_DS3505
ZHHH,2006-04-30 02:00,ZHHH 300200Z AUTO 20008KT 6SM 27/17 A2968 RMK T02700170 IEM_DS3505
ZHHH,2006-04-30 03:00,ZHHH 300300Z AUTO 20006KT 11SM 28/14 A2968 RMK SLP050 T02810144 57001 IEM_DS3505
ZHHH,2006-04-30 04:00,ZHHH 300400Z AUTO 21016KT 6SM 29/17 A2965 RMK T02900170 IEM_DS3505
ZHHH,2006-04-30 05:00,ZHHH 300500Z AUTO 22016KT 6SM 30/17 A2965 RMK T03000170 IEM_DS3505
ZHHH,2006-04-30 06:00,ZHHH 300600Z AUTO 22006KT 9SM 31/13 A2962 RMK T03090132 57022 IEM_DS3505
ZHHH,2006-04-30 07:00,ZHHH 300700Z AUTO 22016KT 6SM 30/16 A2962 RMK T03000160 IEM_DS3505
ZHHH,2006-04-30 08:00,ZHHH 300800Z AUTO 21014KT 6SM 30/17 A2959 RMK T03000170 IEM_DS3505
ZHHH,2006-04-30 09:00,ZHHH 300900Z AUTO 20006KT 9SM 30/13 A2959 RMK SLP017 T03040128 57011 IEM_DS3505
ZHHH,2006-04-30 10:00,ZHHH 301000Z AUTO 21008KT 6SM 28/17 A2959 RMK T02800170 IEM_DS3505
ZHHH,2006-04-30 11:00,ZHHH 301100Z AUTO 21008KT 6SM 27/17 A2959 RMK T02700170 IEM_DS3505
ZHHH,2006-04-30 12:00,ZHHH 301200Z AUTO 25002KT 9SM 27/15 A2962 RMK SLP028 T02680149 52011 IEM_DS3505
ZHHH,2006-04-30 13:00,ZHHH 301300Z AUTO 18008KT 6SM 25/17 A2962 RMK T02500170 IEM_DS3505
ZHHH,2006-04-30 14:00,ZHHH 301400Z AUTO 16006KT 7SM 25/17 A2962 RMK T02500170 IEM_DS3505
ZHHH,2006-04-30 15:00,ZHHH 301500Z AUTO 18004KT 9SM 26/14 A2962 RMK SLP032 T02550140 52004 IEM_DS3505
ZHHH,2006-04-30 16:00,ZHHH 301600Z AUTO 22008KT 7SM 25/16 A2962 RMK T02500160 IEM_DS3505
ZHHH,2006-04-30 17:00,ZHHH 301700Z AUTO 21010KT 6SM 24/16 A2962 RMK T02400160 IEM_DS3505
ZHHH,2006-04-30 18:00,ZHHH 301800Z AUTO 20002KT 12SM 24/14 A2959 RMK SLP023 T02390143 57009 IEM_DS3505
ZHHH,2006-04-30 19:00,ZHHH 301900Z AUTO 22010KT 6SM 23/16 A2959 RMK T02300160 IEM_DS3505
ZHHH,2006-04-30 20:00,ZHHH 302000Z AUTO 20010KT 6SM 23/16 A2959 RMK T02300160 IEM_DS3505
ZHHH,2006-04-30 21:00,ZHHH 302100Z AUTO 22004KT 12SM 23/15 A2962 RMK SLP023 T02300151 54000 IEM_DS3505
ZHHH,2006-04-30 22:00,ZHHH 302200Z AUTO 21010KT 6SM 22/17 A2962 RMK T02200170 IEM_DS3505
ZHHH,2006-04-30 23:00,ZHHH 302300Z AUTO 21010KT 6SM 22/18 A2962 RMK T02200180 IEM_DS3505
ZHHH,2006-05-01 00:00,ZHHH 010000Z AUTO 20004KT 11SM 24/16 A2965 RMK SLP038 T02350165 52015 IEM_DS3505
ZHHH,2006-05-01 01:00,ZHHH 010100Z AUTO 20010KT 6SM 24/19 A2965 RMK T02400190 IEM_DS3505
ZHHH,2006-05-01 02:00,ZHHH 010200Z AUTO 21012KT 6SM 25/19 A2968 RMK T02500190 IEM_DS3505
ZHHH,2006-05-01 03:00,ZHHH 010300Z AUTO 22006KT 12SM 26/18 A2968 RMK SLP051 T02590175 52013 IEM_DS3505
ZHHH,2006-05-01 04:00,ZHHH 010400Z AUTO 22008KT 7SM 25/20 A2968 RMK T02500200 IEM_DS3505
ZHHH,2006-05-01 05:00,ZHHH 010500Z AUTO 22008KT 7SM 26/20 A2965 RMK T02600200 IEM_DS3505
ZHHH,2006-05-01 06:00,ZHHH 010600Z AUTO 22004KT 11SM 28/19 A2965 RMK SLP039 T02820186 57012 IEM_DS3505
ZHHH,2006-05-01 07:00,ZHHH 010700Z AUTO 19010KT 6SM 29/21 A2965 RMK T02900210 IEM_DS3505
ZHHH,2006-05-01 08:00,ZHHH 010800Z AUTO 21008KT 6SM 28/21 A2962 RMK T02800210 IEM_DS3505
ZHHH,2006-05-01 09:00,ZHHH 010900Z AUTO 20002KT 11SM 30/19 A2965 RMK SLP036 T02960187 57003 IEM_DS3505
ZHHH,2006-05-01 10:00,ZHHH 011000Z AUTO 24004KT 6SM 28/21 A2965 RMK T02800210 IEM_DS3505
ZHHH,2006-05-01 11:00,ZHHH 011100Z AUTO 30002KT 6SM 27/21 A2968 RMK T02700210 IEM_DS3505
ZHHH,2006-05-01 12:00,ZHHH 011200Z AUTO 27002KT 9SM 26/20 A2971 RMK SLP061 T02620201 52025 IEM_DS3505
ZHHH,2006-05-01 13:00,ZHHH 011300Z AUTO 36002KT 6SM 25/22 A2974 RMK T02500220 IEM_DS3505
ZHHH,2006-05-01 14:00,ZHHH 011400Z AUTO 01004KT 6SM 24/21 A2974 RMK T02400210 IEM_DS3505
ZHHH,2006-05-01 15:00,ZHHH 011500Z AUTO 32002KT 9SM 24/20 A2974 RMK SLP074 T02410204 52013 IEM_DS3505
ZHHH,2006-05-01 16:00,ZHHH 011600Z AUTO 05006KT 6SM 22/20 A2977 RMK T02200200 IEM_DS3505
ZHHH,2006-05-01 17:00,ZHHH 011700Z AUTO 06010KT 6SM 22/20 A2977 RMK T02200200 IEM_DS3505
ZHHH,2006-05-01 18:00,ZHHH 011800Z AUTO 07002KT 7SM 22/19 A2980 RMK SLP085 T02230191 52011 IEM_DS3505
ZHHH,2006-05-01 19:00,ZHHH 011900Z AUTO 05010KT 3SM 20/18 A2980 RMK T02000180 IEM_DS3505
ZHHH,2006-05-01 20:00,ZHHH 012000Z AUTO 05012KT 4SM 20/17 A2980 RMK T02000170 IEM_DS3505
ZHHH,2006-05-01 21:00,ZHHH 012100Z AUTO 07004KT 7SM 21/17 A2983 RMK SLP095 T02080168 52010 IEM_DS3505
ZHHH,2006-05-01 22:00,ZHHH 012200Z AUTO 06006KT 1 1/4SM 19/17 A2983 RMK T01900170 IEM_DS3505
ZHHH,2006-05-01 23:00,ZHHH 012300Z AUTO 07006KT 1 1/2SM 20/18 A2985 RMK T02000180 IEM_DS3505
ZHHH,2006-05-02 00:00,ZHHH 020000Z AUTO 04004KT 9SM 22/16 A2988 RMK SLP116 T02200165 52021 IEM_DS3505
ZHHH,2006-05-02 01:00,ZHHH 020100Z AUTO 04008KT 2SM 22/18 A2988 RMK T02200180 IEM_DS3505
ZHHH,2006-05-02 02:00,ZHHH 020200Z AUTO 03010KT 2 1/2SM 24/19 A2991 RMK T02400190 IEM_DS3505
ZHHH,2006-05-02 03:00,ZHHH 020300Z AUTO 02004KT 11SM 25/17 A2991 RMK SLP128 T02520174 52012 IEM_DS3505
ZHHH,2006-05-02 04:00,ZHHH 020400Z AUTO 05006KT 2 1/2SM 26/20 A2988 RMK T02600200 IEM_DS3505
ZHHH,2006-05-02 05:00,ZHHH 020500Z AUTO 2 1/2SM 27/20 A2988 RMK T02700200 IEM_DS3505
ZHHH,2006-05-02 06:00,ZHHH 020600Z AUTO 09004KT 11SM 28/18 A2985 RMK SLP108 T02800184 57020 IEM_DS3505
ZHHH,2006-05-02 07:00,ZHHH 020700Z AUTO 08004KT 2 1/2SM 28/21 A2983 RMK T02800210 IEM_DS3505
ZHHH,2006-05-02 08:00,ZHHH 020800Z AUTO 11006KT 2 1/2SM 28/21 A2980 RMK T02800210 IEM_DS3505
ZHHH,2006-05-02 09:00,ZHHH 020900Z AUTO 04004KT 9SM 28/19 A2980 RMK SLP088 T02820192 57020 IEM_DS3505
ZHHH,2006-05-02 10:00,ZHHH 021000Z AUTO 04006KT 2 1/2SM 27/21 A2980 RMK T02700210 IEM_DS3505
ZHHH,2006-05-02 11:00,ZHHH 021100Z AUTO 04006KT 2 1/2SM 26/22 A2980 RMK T02600220 IEM_DS3505
ZHHH,2006-05-02 12:00,ZHHH 021200Z AUTO 04002KT 9SM 26/20 A2983 RMK SLP101 T02620203 52013 IEM_DS3505
ZHHH,2006-05-02 13:00,ZHHH 021300Z AUTO 06010KT 2 1/2SM 23/20 A2985 RMK T02300200 IEM_DS3505
ZHHH,2006-05-02 14:00,ZHHH 021400Z AUTO 08008KT 2SM 22/20 A2988 RMK T02200200 IEM_DS3505
ZHHH,2006-05-02 15:00,ZHHH 021500Z AUTO 07006KT 9SM 23/19 A2988 RMK SLP119 T02270187 52018 IEM_DS3505
ZHHH,2006-05-02 16:00,ZHHH 021600Z AUTO 07008KT 2SM 21/19 A2988 RMK T02100190 IEM_DS3505
ZHHH,2006-05-02 17:00,ZHHH 021700Z AUTO 2SM 20/19 A2988 RMK T02000190 IEM_DS3505
ZHHH,2006-05-02 18:00,ZHHH 021800Z AUTO 07002KT 9SM 21/19 A2988 RMK SLP118 T02130187 57001 IEM_DS3505
ZHHH,2006-05-02 19:00,ZHHH 021900Z AUTO 05004KT 1 1/2SM 20/19 A2988 RMK T02000190 IEM_DS3505
ZHHH,2006-05-02 20:00,ZHHH 022000Z AUTO 1 1/4SM 19/19 A2988 RMK T01900190 IEM_DS3505
ZHHH,2006-05-02 21:00,ZHHH 022100Z AUTO 07002KT 9SM 21/19 A2988 RMK SLP120 T02080191 52002 IEM_DS3505
ZHHH,2006-05-02 22:00,ZHHH 022200Z AUTO 09006KT 1 1/4SM 19/18 A2988 RMK T01900180 IEM_DS3505
ZHHH,2006-05-02 23:00,ZHHH 022300Z AUTO 09010KT 1 1/4SM 20/19 A2988 RMK T02000190 IEM_DS3505
ZHHH,2006-05-03 00:00,ZHHH 030000Z AUTO 11004KT 9SM 24/18 A2991 RMK SLP125 T02380180 52005 IEM_DS3505
ZHHH,2006-05-03 01:00,ZHHH 030100Z AUTO 12010KT 3SM 23/21 A2991 RMK T02300210 IEM_DS3505
ZHHH,2006-05-03 02:00,ZHHH 030200Z AUTO 12010KT 3SM 25/21 A2988 RMK T02500210 IEM_DS3505
ZHHH,2006-05-03 03:00,ZHHH 030300Z AUTO 14002KT 9SM 28/19 A2988 RMK SLP119 T02800192 57006 IEM_DS3505
ZHHH,2006-05-03 04:00,ZHHH 030400Z AUTO 12008KT 3SM 28/22 A2985 RMK T02800220 IEM_DS3505
ZHHH,2006-05-03 05:00,ZHHH 030500Z AUTO 12006KT 3SM 29/22 A2985 RMK T02900220 IEM_DS3505
ZHHH,2006-05-03 06:00,ZHHH 030600Z AUTO 14004KT 11SM 30/20 A2983 RMK SLP101 T03050198 57018 IEM_DS3505
ZHHH,2006-05-03 07:00,ZHHH 030700Z AUTO 13008KT 3SM 30/23 A2980 RMK T03000230 IEM_DS3505
ZHHH,2006-05-03 08:00,ZHHH 030800Z AUTO 12008KT 7SM 31/22 A2980 RMK T03100220 IEM_DS3505
ZHHH,2006-05-03 09:00,ZHHH 030900Z AUTO 16002KT 11SM 31/20 A2977 RMK SLP082 T03110198 57019 IEM_DS3505
ZHHH,2006-05-03 10:00,ZHHH 031000Z AUTO 13006KT 6SM 30/22 A2977 RMK T03000220 IEM_DS3505
ZHHH,2006-05-03 11:00,ZHHH 031100Z AUTO 10008KT 6SM 28/23 A2977 RMK T02800230 IEM_DS3505
ZHHH,2006-05-03 12:00,ZHHH 031200Z AUTO 11002KT 9SM 29/20 A2980 RMK SLP086 T02860201 52004 IEM_DS3505
ZHHH,2006-05-03 13:00,ZHHH 031300Z AUTO 11008KT 6SM 26/23 A2980 RMK T02600230 IEM_DS3505
ZHHH,2006-05-03 14:00,ZHHH 031400Z AUTO 12006KT 6SM 26/23 A2980 RMK T02600230 IEM_DS3505
ZHHH,2006-05-03 15:00,ZHHH 031500Z AUTO 14004KT 9SM 28/21 A2980 RMK SLP091 T02750208 52005 IEM_DS3505
ZHHH,2006-05-03 16:00,ZHHH 031600Z AUTO 13006KT 6SM 25/23 A2980 RMK T02500230 IEM_DS3505
ZHHH,2006-05-03 17:00,ZHHH 031700Z AUTO 12006KT 4SM 24/23 A2980 RMK T02400230 IEM_DS3505
ZHHH,2006-05-03 18:00,ZHHH 031800Z AUTO 09004KT 11SM 26/21 A2980 RMK SLP086 T02610211 57005 IEM_DS3505
ZHHH,2006-05-03 19:00,ZHHH 031900Z AUTO 12006KT 2 1/2SM 24/23 A2980 RMK T02400230 IEM_DS3505
ZHHH,2006-05-03 20:00,ZHHH 032000Z AUTO 11006KT 2SM 23/22 A2980 RMK T02300220 IEM_DS3505
ZHHH,2006-05-03 21:00,ZHHH 032100Z AUTO 11002KT 9SM 25/21 A2980 RMK SLP087 T02520213 52001 IEM_DS3505
ZHHH,2006-05-03 22:00,ZHHH 032200Z AUTO 12006KT 1 1/2SM 23/22 A2980 RMK T02300220 IEM_DS3505
ZHHH,2006-05-03 23:00,ZHHH 032300Z AUTO 13006KT 1 1/2SM 24/23 A2980 RMK T02400230 IEM_DS3505
ZHHH,2006-05-04 00:00,ZHHH 040000Z AUTO 16004KT 11SM 27/22 A2983 RMK SLP094 T02700215 52007 IEM_DS3505
ZHHH,2006-05-04 01:00,ZHHH 040100Z AUTO 17008KT 4SM 29/23 A2983 RMK T02900230 IEM_DS3505
ZHHH,2006-05-04 02:00,ZHHH 040200Z AUTO 15010KT 6SM 30/24 A2980 RMK T03000240 IEM_DS3505
ZHHH,2006-05-04 03:00,ZHHH 040300Z AUTO 14006KT 12SM 32/20 A2980 RMK SLP086 T03170203 57008 IEM_DS3505
ZHHH,2006-05-04 04:00,ZHHH 040400Z AUTO 18010KT 7SM 31/23 A2977 RMK T03100230 IEM_DS3505
ZHHH,2006-05-04 05:00,ZHHH 040500Z AUTO 19010KT 7SM 31/22 A2974 RMK T03100220 IEM_DS3505
ZHHH,2006-05-04 06:00,ZHHH 040600Z AUTO 18006KT 11SM 32/20 A2974 RMK SLP067 T03240196 57018 IEM_DS3505
ZHHH,2006-05-04 07:00,ZHHH 040700Z AUTO 21008KT 7SM 32/23 A2971 RMK T03200230 IEM_DS3505
ZHHH,2006-05-04 08:00,ZHHH 040800Z AUTO 21012KT 7SM 33/23 A2968 RMK T03300230 IEM_DS3505
ZHHH,2006-05-04 09:00,ZHHH 040900Z AUTO 14004KT 9SM 32/20 A2968 RMK SLP043 T03190202 57024 IEM_DS3505
ZHHH,2006-05-04 10:00,ZHHH 041000Z AUTO 15010KT 6SM 30/24 A2965 RMK T03000240 IEM_DS3505
ZHHH,2006-05-04 11:00,ZHHH 041100Z AUTO 14008KT 6SM 29/24 A2965 RMK T02900240 IEM_DS3505
ZHHH,2006-05-04 12:00,ZHHH 041200Z AUTO 09002KT 9SM 30/21 A2968 RMK SLP048 T02980212 52004 IEM_DS3505
ZHHH,2006-05-04 13:00,ZHHH 041300Z AUTO 11008KT 6SM 27/24 A2968 RMK T02700240 IEM_DS3505
ZHHH,2006-05-04 14:00,ZHHH 041400Z AUTO 13010KT 6SM 27/23 A2968 RMK T02700230 IEM_DS3505
ZHHH,2006-05-04 15:00,ZHHH 041500Z AUTO 14006KT 9SM 28/21 A2968 RMK SLP051 T02820207 52004 IEM_DS3505
ZHHH,2006-05-04 16:00,ZHHH 041600Z AUTO 14010KT 6SM 27/23 A2968 RMK T02700230 IEM_DS3505
ZHHH,2006-05-04 17:00,ZHHH 041700Z AUTO 14008KT 6SM 26/23 A2968 RMK T02600230 IEM_DS3505
ZHHH,2006-05-04 18:00,ZHHH 041800Z AUTO 11004KT 9SM 27/20 A2965 RMK SLP042 T02710202 57009 IEM_DS3505
ZHHH,2006-05-04 19:00,ZHHH 041900Z AUTO 33016G25KT 7SM 23/21 A2968 RMK T02300210 IEM_DS3505
ZHHH,2006-05-04 20:00,ZHHH 042000Z AUTO 02008KT 7SM 21/21 A2968 RMK T02100210 IEM_DS3505
ZHHH,2006-05-04 21:00,ZHHH 042100Z AUTO 07004KT 7SM 22/21 A2968 RMK 70088 SLP051 T02190212 52008 IEM_DS3505
ZHHH,2006-05-04 22:00,ZHHH 042200Z AUTO 05004KT 2SM 21/21 A2968 RMK T02100210 IEM_DS3505
ZHHH,2006-05-04 23:00,ZHHH 042300Z AUTO 12004KT 1 1/2SM 22/22 A2971 RMK T02200220 IEM_DS3505
ZHHH,2006-05-05 00:00,ZHHH 050000Z AUTO 16002KT 7SM 23/22 A2971 RMK 60094 70095 SLP060 T02320218 52009 IEM_DS3505
ZHHH,2006-05-05 01:00,ZHHH 050100Z AUTO 1 1/4SM 23/23 A2971 RMK T02300230 IEM_DS3505
ZHHH,2006-05-05 02:00,ZHHH 050200Z AUTO 18004KT 1 1/4SM 23/23 A2971 RMK T02300230 IEM_DS3505
ZHHH,2006-05-05 03:00,ZHHH 050300Z AUTO 20002KT 6SM 23/22 A2971 RMK SLP061 T02320218 52001 IEM_DS3505
ZHHH,2006-05-05 04:00,ZHHH 050400Z AUTO 24006KT 1 1/2SM 22/22 A2971 RMK T02200220 IEM_DS3505
ZHHH,2006-05-05 05:00,ZHHH 050500Z AUTO 21006KT 1 1/2SM 22/22 A2971 RMK T02200220 IEM_DS3505
ZHHH,2006-05-05 06:00,ZHHH 050600Z AUTO 16002KT 9SM 22/22 A2968 RMK 60071 SLP052 T02250215 57009 IEM_DS3505
ZHHH,2006-05-05 07:00,ZHHH 050700Z AUTO 7SM 22/22 A2968 RMK T02200220 IEM_DS3505
ZHHH,2006-05-05 08:00,ZHHH 050800Z AUTO 7SM 22/22 A2965 RMK T02200220 IEM_DS3505
ZHHH,2006-05-05 09:00,ZHHH 050900Z AUTO 27002KT 9SM 23/22 A2968 RMK SLP046 T02330219 57006 IEM_DS3505
ZHHH,2006-05-05 10:00,ZHHH 051000Z AUTO 7SM 23/22 A2968 RMK T02300220 IEM_DS3505
ZHHH,2006-05-05 11:00,ZHHH 051100Z AUTO 7SM 22/22 A2968 RMK T02200220 IEM_DS3505
ZHHH,2006-05-05 12:00,ZHHH 051200Z AUTO 27002KT 6SM 23/22 A2971 RMK 60004 SLP059 T02340218 52013 IEM_DS3505
ZHHH,2006-05-05 13:00,ZHHH 051300Z AUTO 36004KT 3SM 22/22 A2974 RMK T02200220 IEM_DS3505
ZHHH,2006-05-05 14:00,ZHHH 051400Z AUTO 02006KT 7SM 22/22 A2977 RMK T02200220 IEM_DS3505
ZHHH,2006-05-05 15:00,ZHHH 051500Z AUTO 36002KT 6SM 22/20 A2977 RMK SLP078 T02250202 52019 IEM_DS3505
ZHHH,2006-05-05 16:00,ZHHH 051600Z AUTO 01006KT 7SM 21/20 A2977 RMK T02100200 IEM_DS3505
ZHHH,2006-05-05 17:00,ZHHH 051700Z AUTO 02006KT 7SM 21/20 A2977 RMK T02100200 IEM_DS3505
ZHHH,2006-05-05 18:00,ZHHH 051800Z AUTO 32002KT 9SM 22/19 A2977 RMK 60008 SLP083 T02190191 52005 IEM_DS3505
ZHHH,2006-05-05 19:00,ZHHH 051900Z AUTO 36008KT 7SM 20/20 A2977 RMK T02000200 IEM_DS3505
ZHHH,2006-05-05 20:00,ZHHH 052000Z AUTO 36008KT 4SM 19/19 A2980 RMK T01900190 IEM_DS3505
ZHHH,2006-05-05 21:00,ZHHH 052100Z AUTO 32002KT 9SM 20/18 A2980 RMK 70091 SLP085 T01950178 52002 IEM_DS3505
ZHHH,2006-05-05 22:00,ZHHH 052200Z AUTO 36008KT 1 1/4SM 19/18 A2980 RMK T01900180 IEM_DS3505
ZHHH,2006-05-05 23:00,ZHHH 052300Z AUTO 36006KT 1 1/4SM 19/18 A2983 RMK T01900180 IEM_DS3505
ZHHH,2006-05-06 00:00,ZHHH 060000Z AUTO 36004KT 9SM 19/17 A2985 RMK 70083 SLP111 T01930171 52026 IEM_DS3505
ZHHH,2006-05-06 01:00,ZHHH 060100Z AUTO 02008KT 2SM 20/18 A2988 RMK T02000180 IEM_DS3505
ZHHH,2006-05-06 02:00,ZHHH 060200Z AUTO 36006KT 2 1/2SM 21/18 A2988 RMK T02100180 IEM_DS3505
ZHHH,2006-05-06 03:00,ZHHH 060300Z AUTO 02004KT 9SM 22/17 A2988 RMK SLP122 T02170171 52011 IEM_DS3505
ZHHH,2006-05-06 04:00,ZHHH 060400Z AUTO 01006KT 3SM 23/19 A2988 RMK T02300190 IEM_DS3505
ZHHH,2006-05-06 05:00,ZHHH 060500Z AUTO 35006KT 4SM 24/19 A2988 RMK T02400190 IEM_DS3505
ZHHH,2006-05-06 06:00,ZHHH 060600Z AUTO 29004KT 9SM 24/18 A2985 RMK SLP111 T02410176 57011 IEM_DS3505
ZHHH,2006-05-06 07:00,ZHHH 060700Z AUTO 33006KT 7SM 25/19 A2985 RMK T02500190 IEM_DS3505
ZHHH,2006-05-06 08:00,ZHHH 060800Z AUTO 7SM 26/20 A2983 RMK T02600200 IEM_DS3505
ZHHH,2006-05-06 09:00,ZHHH 060900Z AUTO 34002KT 9SM 25/18 A2983 RMK SLP097 T02490176 57014 IEM_DS3505
ZHHH,2006-05-06 10:00,ZHHH 061000Z AUTO 34004KT 6SM 25/20 A2983 RMK T02500200 IEM_DS3505
ZHHH,2006-05-06 11:00,ZHHH 061100Z AUTO 34004KT 6SM 23/20 A2983 RMK T02300200 IEM_DS3505
ZHHH,2006-05-06 12:00,ZHHH 061200Z AUTO 36002KT 11SM 23/18 A2983 RMK SLP104 T02270180 52007 IEM_DS3505
ZHHH,2006-05-06 13:00,ZHHH 061300Z AUTO 00000KT 6SM 22/19 A2985 RMK T02200190 IEM_DS3505
ZHHH,2006-05-06 14:00,ZHHH 061400Z AUTO 03004KT 4SM 21/19 A2985 RMK T02100190 IEM_DS3505
ZHHH,2006-05-06 15:00,ZHHH 061500Z AUTO 07002KT 9SM 21/18 A2985 RMK SLP113 T02140184 52009 IEM_DS3505
ZHHH,2006-05-06 16:00,ZHHH 061600Z AUTO 10004KT 4SM 20/19 A2985 RMK T02000190 IEM_DS3505
ZHHH,2006-05-06 17:00,ZHHH 061700Z AUTO 09004KT 3SM 19/19 A2985 RMK T01900190 IEM_DS3505
ZHHH,2006-05-06 18:00,ZHHH 061800Z AUTO 02002KT 7SM 20/19 A2985 RMK SLP105 T02010191 57008 IEM_DS3505
ZHHH,2006-05-06 19:00,ZHHH 061900Z AUTO 10004KT 3SM 19/18 A2985 RMK T01900180 IEM_DS3505
ZHHH,2006-05-06 20:00,ZHHH 062000Z AUTO 08006KT 2 1/2SM 18/18 A2983 RMK T01800180 IEM_DS3505
ZHHH,2006-05-06 21:00,ZHHH 062100Z AUTO 09004KT 9SM 20/18 A2983 RMK SLP104 T01960179 57001 IEM_DS3505
ZHHH,2006-05-06 22:00,ZHHH 062200Z AUTO 10006KT 1 1/2SM 18/18 A2985 RMK T01800180 IEM_DS3505
ZHHH,2006-05-06 23:00,ZHHH 062300Z AUTO 11008KT 1 1/2SM 18/18 A2985 RMK T01800180 IEM_DS3505
ZHHH,2006-05-07 00:00,ZHHH 070000Z AUTO 07004KT 9SM 22/18 A2985 RMK SLP113 T02210181 52009 IEM_DS3505
ZHHH,2006-05-07 01:00,ZHHH 070100Z AUTO 10006KT 3SM 22/20 A2988 RMK T02200200 IEM_DS3505
ZHHH,2006-05-07 02:00,ZHHH 070200Z AUTO 12006KT 3SM 23/20 A2988 RMK T02300200 IEM_DS3505
ZHHH,2006-05-07 03:00,ZHHH 070300Z AUTO 11004KT 9SM 26/18 A2988 RMK SLP116 T02650178 52003 IEM_DS3505
ZHHH,2006-05-07 04:00,ZHHH 070400Z AUTO 13006KT 1 1/2SM 26/21 A2985 RMK T02600210 IEM_DS3505
ZHHH,2006-05-07 05:00,ZHHH 070500Z AUTO 11008KT 2SM 26/21 A2983 RMK T02600210 IEM_DS3505
ZHHH,2006-05-07 06:00,ZHHH 070600Z AUTO 14004KT 11SM 28/19 A2980 RMK SLP089 T02840191 57027 IEM_DS3505
ZHHH,2006-05-07 07:00,ZHHH 070700Z AUTO 12008KT 2 1/2SM 27/21 A2977 RMK T02700210 IEM_DS3505
ZHHH,2006-05-07 08:00,ZHHH 070800Z AUTO 10008KT 2 1/2SM 27/21 A2977 RMK T02700210 IEM_DS3505
ZHHH,2006-05-07 09:00,ZHHH 070900Z AUTO 22002KT 7SM 27/19 A2977 RMK SLP081 T02680189 57008 IEM_DS3505
ZHHH,2006-05-07 10:00,ZHHH 071000Z AUTO 11004KT 1 1/2SM 25/21 A2980 RMK T02500210 IEM_DS3505
ZHHH,2006-05-07 11:00,ZHHH 071100Z AUTO 11006KT 1SM 24/22 A2980 RMK T02400220 IEM_DS3505
ZHHH,2006-05-07 12:00,ZHHH 071200Z AUTO 09002KT 7SM 24/21 A2980 RMK 60004 SLP092 T02380207 52011 IEM_DS3505
ZHHH,2006-05-07 13:00,ZHHH 071300Z AUTO 09008KT 3SM 22/14 A2983 RMK T02200140 IEM_DS3505
ZHHH,2006-05-07 14:00,ZHHH 071400Z AUTO 13006KT 7SM 23/15 A2983 RMK T02300150 IEM_DS3505
ZHHH,2006-05-07 15:00,ZHHH 071500Z AUTO 04002KT 7SM 22/17 A2983 RMK SLP093 T02240169 52001 IEM_DS3505
ZHHH,2006-05-07 16:00,ZHHH 071600Z AUTO 03002KT 7SM 22/18 A2980 RMK T02200180 IEM_DS3505
ZHHH,2006-05-07 17:00,ZHHH 071700Z AUTO 36004KT 7SM 21/18 A2980 RMK T02100180 IEM_DS3505
ZHHH,2006-05-07 18:00,ZHHH 071800Z AUTO 02002KT 11SM 21/16 A2980 RMK 60004 SLP085 T02100162 57008 IEM_DS3505
ZHHH,2006-05-07 19:00,ZHHH 071900Z AUTO 03004KT 7SM 20/19 A2977 RMK T02000190 IEM_DS3505
ZHHH,2006-05-07 20:00,ZHHH 072000Z AUTO 04004KT 7SM 19/19 A2977 RMK T01900190 IEM_DS3505
ZHHH,2006-05-07 21:00,ZHHH 072100Z AUTO 04004KT 7SM 20/19 A2977 RMK 70019 SLP081 T02030193 57004 IEM_DS3505
ZHHH,2006-05-07 22:00,ZHHH 072200Z AUTO 08008KT 1SM 20/20 A2977 RMK T02000200 IEM_DS3505
ZHHH,2006-05-07 23:00,ZHHH 072300Z AUTO 08010KT 1 1/4SM 21/21 A2977 RMK T02100210 IEM_DS3505
ZHHH,2006-05-08 00:00,ZHHH 080000Z AUTO 09004KT 7SM 22/21 A2980 RMK 60012 70019 SLP087 T02200206 52006 IEM_DS3505
ZHHH,2006-05-08 01:00,ZHHH 080100Z AUTO 10008KT 1 1/2SM 21/21 A2980 RMK T02100210 IEM_DS3505
ZHHH,2006-05-08 03:00,ZHHH 080300Z AUTO 11004KT 6SM 23/20 A2980 RMK SLP083 T02300200 57004 IEM_DS3505
ZHHH,2006-05-08 04:00,ZHHH 080400Z AUTO 12006KT 1 1/2SM 23/22 A2977 RMK T02300220 IEM_DS3505
ZHHH,2006-05-08 05:00,ZHHH 080500Z AUTO 09010KT 1SM 21/21 A2974 RMK T02100210 IEM_DS3505
ZHHH,2006-05-08 06:00,ZHHH 080600Z AUTO 09002KT 6SM 23/22 A2974 RMK 60035 SLP068 T02260216 57015 IEM_DS3505
ZHHH,2006-05-08 07:00,ZHHH 080700Z AUTO 13004KT 1SM 22/22 A2974 RMK T02200220 IEM_DS3505
ZHHH,2006-05-08 08:00,ZHHH 080800Z AUTO 12004KT 1SM 22/22 A2974 RMK T02200220 IEM_DS3505
ZHHH,2006-05-08 09:00,ZHHH 080900Z AUTO 11004KT 6SM 23/22 A2974 RMK SLP065 T02330216 57003 IEM_DS3505
ZHHH,2006-05-08 10:00,ZHHH 081000Z AUTO 12006KT 1 1/4SM 22/22 A2974 RMK T02200220 IEM_DS3505
ZHHH,2006-05-08 11:00,ZHHH 081100Z AUTO 10006KT 1SM 22/22 A2974 RMK T02200220 IEM_DS3505
ZHHH,2006-05-08 12:00,ZHHH 081200Z AUTO 07002KT 7SM 23/22 A2974 RMK 60002 SLP071 T02330217 52006 IEM_DS3505
ZHHH,2006-05-08 13:00,ZHHH 081300Z AUTO 12006KT 1SM 22/22 A2977 RMK T02200220 IEM_DS3505
ZHHH,2006-05-08 14:00,ZHHH 081400Z AUTO 12004KT 1SM 22/22 A2977 RMK T02200220 IEM_DS3505
ZHHH,2006-05-08 15:00,ZHHH 081500Z AUTO 27002KT 6SM 23/22 A2977 RMK SLP086 T02290219 52015 IEM_DS3505
ZHHH,2006-05-08 16:00,ZHHH 081600Z AUTO 10006KT 1SM 21/21 A2974 RMK T02100210 IEM_DS3505
ZHHH,2006-05-08 17:00,ZHHH 081700Z AUTO 09008KT 1SM 21/21 A2971 RMK T02100210 IEM_DS3505
ZHHH,2006-05-08 18:00,ZHHH 081800Z AUTO 36002KT 6SM 22/22 A2971 RMK 60106 SLP064 T02210216 57022 IEM_DS3505
ZHHH,2006-05-08 19:00,ZHHH 081900Z AUTO 07006KT 1 1/4SM 21/21 A2971 RMK T02100210 IEM_DS3505
ZHHH,2006-05-08 20:00,ZHHH 082000Z AUTO 04006KT 1 1/4SM 21/21 A2971 RMK T02100210 IEM_DS3505
ZHHH,2006-05-08 21:00,ZHHH 082100Z AUTO 36002KT 6SM 22/21 A2971 RMK 70214 SLP063 T02190214 57001 IEM_DS3505
ZHHH,2006-05-08 22:00,ZHHH 082200Z AUTO 07004KT 1SM 21/21 A2971 RMK T02100210 IEM_DS3505
ZHHH,2006-05-09 00:00,ZHHH 090000Z AUTO 07002KT 6SM 22/22 A2974 RMK 60094 70235 SLP065 T02210216 52002 IEM_DS3505
ZHHH,2006-05-09 01:00,ZHHH 090100Z AUTO 10006KT 2 1/2SM 22/22 A2971 RMK T02200220 IEM_DS3505
ZHHH,2006-05-09 02:00,ZHHH 090200Z AUTO 3SM 22/22 A2974 RMK T02200220 IEM_DS3505
ZHHH,2006-05-09 03:00,ZHHH 090300Z AUTO 25002KT 6SM 23/22 A2977 RMK SLP078 T02290221 52013 IEM_DS3505
ZHHH,2006-05-09 04:00,ZHHH 090400Z AUTO 1 1/4SM 22/22 A2974 RMK T02200220 IEM_DS3505
ZHHH,2006-05-09 05:00,ZHHH 090500Z AUTO 1 1/4SM 22/22 A2971 RMK T02200220 IEM_DS3505
ZHHH,2006-05-09 06:00,ZHHH 090600Z AUTO 27004KT 6SM 23/22 A2971 RMK 60016 SLP064 T02310217 57014 IEM_DS3505
ZHHH,2006-05-09 07:00,ZHHH 090700Z AUTO 02002KT 2 1/2SM 22/22 A2971 RMK T02200220 IEM_DS3505
ZHHH,2006-05-09 08:00,ZHHH 090800Z AUTO 02004KT 1SM 21/21 A2971 RMK T02100210 IEM_DS3505
ZHHH,2006-05-09 09:00,ZHHH 090900Z AUTO 36002KT 6SM 22/21 A2974 RMK SLP065 T02210214 52001 IEM_DS3505
ZHHH,2006-05-09 10:00,ZHHH 091000Z AUTO 03010KT 2 1/2SM 21/21 A2974 RMK T02100210 IEM_DS3505
ZHHH,2006-05-09 11:00,ZHHH 091100Z AUTO 04010KT 7SM 20/20 A2977 RMK T02000200 IEM_DS3505
ZHHH,2006-05-09 12:00,ZHHH 091200Z AUTO 34002KT 9SM 21/19 A2980 RMK 60024 SLP092 T02060187 52027 IEM_DS3505
ZHHH,2006-05-09 13:00,ZHHH 091300Z AUTO 02006KT 7SM 19/19 A2985 RMK T01900190 IEM_DS3505
ZHHH,2006-05-09 14:00,ZHHH 091400Z AUTO 02008KT 7SM 19/19 A2985 RMK T01900190 IEM_DS3505
ZHHH,2006-05-09 15:00,ZHHH 091500Z AUTO 36004KT 11SM 20/18 A2988 RMK SLP119 T02010177 52027 IEM_DS3505
ZHHH,2006-05-09 16:00,ZHHH 091600Z AUTO 02008KT 6SM 19/18 A2991 RMK T01900180 IEM_DS3505
ZHHH,2006-05-09 17:00,ZHHH 091700Z AUTO 01008KT 6SM 19/18 A2991 RMK T01900180 IEM_DS3505
ZHHH,2006-05-09 18:00,ZHHH 091800Z AUTO 36002KT 9SM 19/17 A2991 RMK SLP129 T01940172 52010 IEM_DS3505
ZHHH,2006-05-09 19:00,ZHHH 091900Z AUTO 01008KT 6SM 19/17 A2991 RMK T01900170 IEM_DS3505
ZHHH,2006-05-09 20:00,ZHHH 092000Z AUTO 03008KT 4SM 19/17 A2991 RMK T01900170 IEM_DS3505
ZHHH,2006-05-09 21:00,ZHHH 092100Z AUTO 09002KT 9SM 19/16 A2994 RMK 70061 SLP140 T01910161 52010 IEM_DS3505
ZHHH,2006-05-09 22:00,ZHHH 092200Z AUTO 02008KT 2SM 18/17 A2994 RMK T01800170 IEM_DS3505
ZHHH,2006-05-09 23:00,ZHHH 092300Z AUTO 03008KT 2SM 19/17 A2997 RMK T01900170 IEM_DS3505
ZHHH,2006-05-10 00:00,ZHHH 100000Z AUTO 36002KT 7SM 20/16 A3000 RMK 70040 SLP159 T02010163 52019 IEM_DS3505
ZHHH,2006-05-10 01:00,ZHHH 100100Z AUTO 02010KT 1 1/4SM 21/18 A3000 RMK T02100180 IEM_DS3505
ZHHH,2006-05-10 02:00,ZHHH 100200Z AUTO 02010KT 1 1/2SM 22/19 A3003 RMK T02200190 IEM_DS3505
ZHHH,2006-05-10 03:00,ZHHH 100300Z AUTO 07004KT 9SM 22/18 A3003 RMK T02200180 52010 IEM_DS3505
ZHHH,2006-05-10 04:00,ZHHH 100400Z AUTO 04012KT 1 1/2SM 23/18 A3000 RMK T02300180 IEM_DS3505
ZHHH,2006-05-10 05:00,ZHHH 100500Z AUTO 03012KT 1 1/2SM 24/19 A3000 RMK T02400190 IEM_DS3505
ZHHH,2006-05-10 06:00,ZHHH 100600Z AUTO 36004KT 9SM 24/17 A3000 RMK SLP155 T02420172 57013 IEM_DS3505
ZHHH,2006-05-10 07:00,ZHHH 100700Z AUTO 01010KT 2 1/2SM 24/19 A2997 RMK T02400190 IEM_DS3505
ZHHH,2006-05-10 08:00,ZHHH 100800Z AUTO 02012KT 2SM 24/19 A2997 RMK T02400190 IEM_DS3505
ZHHH,2006-05-10 09:00,ZHHH 100900Z AUTO 04006KT 9SM 24/17 A2997 RMK SLP146 T02350168 57009 IEM_DS3505
ZHHH,2006-05-10 10:00,ZHHH 101000Z AUTO 03012KT 1 1/2SM 22/18 A2997 RMK T02200180 IEM_DS3505
ZHHH,2006-05-10 11:00,ZHHH 101100Z AUTO 03010KT 1 1/4SM 21/18 A2997 RMK T02100180 IEM_DS3505
ZHHH,2006-05-10 12:00,ZHHH 101200Z AUTO 04004KT 7SM 21/17 A3000 RMK SLP162 T02110171 52015 IEM_DS3505
ZHHH,2006-05-10 13:00,ZHHH 101300Z AUTO 04008KT 1 1/4SM 20/18 A3003 RMK T02000180 IEM_DS3505
ZHHH,2006-05-10 14:00,ZHHH 101400Z AUTO 04012KT 1 1/4SM 20/18 A3003 RMK T02000180 IEM_DS3505
ZHHH,2006-05-10 15:00,ZHHH 101500Z AUTO 09002KT 7SM 21/17 A3006 RMK SLP180 T02090167 52019 IEM_DS3505
ZHHH,2006-05-10 16:00,ZHHH 101600Z AUTO 07014KT 1 1/4SM 20/18 A3006 RMK T02000180 IEM_DS3505
ZHHH,2006-05-10 17:00,ZHHH 101700Z AUTO 07008KT 1 1/2SM 20/18 A3006 RMK T02000180 IEM_DS3505
ZHHH,2006-05-10 18:00,ZHHH 101800Z AUTO 07004KT 9SM 21/16 A3006 RMK SLP180 T02060164 54000 IEM_DS3505
ZHHH,2006-05-10 19:00,ZHHH 101900Z AUTO 04002KT 1 1/4SM 20/18 A3006 RMK T02000180 IEM_DS3505
ZHHH,2006-05-10 20:00,ZHHH 102000Z AUTO 09006KT 1 1/4SM 19/17 A3006 RMK T01900170 IEM_DS3505
ZHHH,2006-05-10 21:00,ZHHH 102100Z AUTO 04002KT 7SM 20/17 A3006 RMK 70000 SLP177 T01990171 57004 IEM_DS3505
ZHHH,2006-05-10 22:00,ZHHH 102200Z AUTO 08008KT 1SM 18/18 A3006 RMK T01800180 IEM_DS3505
ZHHH,2006-05-10 23:00,ZHHH 102300Z AUTO 06006KT 1SM 18/18 A3009 RMK T01800180 IEM_DS3505
ZHHH,2006-05-11 00:00,ZHHH 110000Z AUTO 07002KT 7SM 20/16 A3009 RMK 60000 70000 SLP187 T02010163 52010 IEM_DS3505
ZHHH,2006-05-11 01:00,ZHHH 110100Z AUTO 08006KT 1SM 19/18 A3009 RMK T01900180 IEM_DS3505
ZHHH,2006-05-11 02:00,ZHHH 110200Z AUTO 09006KT 1 1/4SM 19/18 A3006 RMK T01900180 IEM_DS3505
ZHHH,2006-05-11 03:00,ZHHH 110300Z AUTO 09004KT 9SM 22/14 A3006 RMK SLP179 T02160145 57008 IEM_DS3505
ZHHH,2006-05-11 04:00,ZHHH 110400Z AUTO 09012KT 6SM 21/16 A3003 RMK T02100160 IEM_DS3505
ZHHH,2006-05-11 05:00,ZHHH 110500Z AUTO 12010KT 6SM 23/16 A3003 RMK T02300160 IEM_DS3505
ZHHH,2006-05-11 06:00,ZHHH 110600Z AUTO 07004KT 9SM 23/15 A3000 RMK 60000 SLP157 T02330148 57021 IEM_DS3505
ZHHH,2006-05-11 07:00,ZHHH 110700Z AUTO 10010KT 6SM 23/17 A2997 RMK T02300170 IEM_DS3505
ZHHH,2006-05-11 08:00,ZHHH 110800Z AUTO 11010KT 4SM 23/17 A2994 RMK T02300170 IEM_DS3505
ZHHH,2006-05-11 09:00,ZHHH 110900Z AUTO 11004KT 9SM 23/16 A2994 RMK SLP136 T02320155 57021 IEM_DS3505
ZHHH,2006-05-11 10:00,ZHHH 111000Z AUTO 10008KT 5SM 22/17 A2994 RMK T02200170 IEM_DS3505
ZHHH,2006-05-11 11:00,ZHHH 111100Z AUTO 12006KT 5SM 22/18 A2994 RMK T02200180 IEM_DS3505
ZHHH,2006-05-11 12:00,ZHHH 111200Z AUTO 09004KT 9SM 22/16 A2994 RMK SLP140 T02220158 52004 IEM_DS3505
ZHHH,2006-05-11 13:00,ZHHH 111300Z AUTO 06010KT 4SM 21/17 A2997 RMK T02100170 IEM_DS3505
ZHHH,2006-05-11 14:00,ZHHH 111400Z AUTO 06008KT 3SM 20/16 A3000 RMK T02000160 IEM_DS3505
ZHHH,2006-05-11 15:00,ZHHH 111500Z AUTO 07004KT 6SM 20/17 A3000 RMK SLP163 T01970171 52022 IEM_DS3505
ZHHH,2006-05-11 16:00,ZHHH 111600Z AUTO 01006KT 2 1/2SM 17/16 A3003 RMK T01700160 IEM_DS3505
ZHHH,2006-05-11 17:00,ZHHH 111700Z AUTO 03014KT 2 1/2SM 16/15 A3003 RMK T01600150 IEM_DS3505
ZHHH,2006-05-11 18:00,ZHHH 111800Z AUTO 07008G23KT 9SM 15/13 A3003 RMK 60020 SLP171 T01460133 52008 IEM_DS3505
ZHHH,2006-05-11 19:00,ZHHH 111900Z AUTO 04016KT 5SM 13/12 A3003 RMK T01300120 IEM_DS3505
ZHHH,2006-05-11 20:00,ZHHH 112000Z AUTO 04016KT 7SM 12/11 A3003 RMK T01200110 IEM_DS3505
ZHHH,2006-05-11 21:00,ZHHH 112100Z AUTO 04008KT 9SM 13/11 A3006 RMK 70026 SLP179 T01270106 52008 IEM_DS3505
ZHHH,2006-05-11 22:00,ZHHH 112200Z AUTO 03014KT 2 1/2SM 11/11 A3009 RMK T01100110 IEM_DS3505
ZHHH,2006-05-11 23:00,ZHHH 112300Z AUTO 02012KT 4SM 11/11 A3009 RMK T01100110 IEM_DS3505
ZHHH,2006-05-12 00:00,ZHHH 120000Z AUTO 04004KT 9SM 12/10 A3015 RMK 60020 70042 SLP207 T01170104 52028 IEM_DS3505
ZHHH,2006-05-12 01:00,ZHHH 120100Z AUTO 02014G23KT 3SM 10/10 A3015 RMK T01000100 IEM_DS3505
ZHHH,2006-05-12 02:00,ZHHH 120200Z AUTO 35010KT 3SM 11/10 A3021 RMK T01100100 IEM_DS3505
ZHHH,2006-05-12 03:00,ZHHH 120300Z AUTO 36006KT 9SM 11/10 A3021 RMK SLP226 T01090098 52019 IEM_DS3505
ZHHH,2006-05-12 04:00,ZHHH 120400Z AUTO 01012KT 5SM 10/10 A3021 RMK T01000100 IEM_DS3505
ZHHH,2006-05-12 05:00,ZHHH 120500Z AUTO 36010KT 4SM 11/10 A3021 RMK T01100100 IEM_DS3505
ZHHH,2006-05-12 06:00,ZHHH 120600Z AUTO 34006KT 6SM 11/10 A3018 RMK 60087 SLP225 T01140101 57002 IEM_DS3505
ZHHH,2006-05-12 07:00,ZHHH 120700Z AUTO 35012KT 5SM 11/11 A3018 RMK T01100110 IEM_DS3505
ZHHH,2006-05-12 08:00,ZHHH 120800Z AUTO 36010KT 7SM 11/11 A3018 RMK T01100110 IEM_DS3505
ZHHH,2006-05-12 09:00,ZHHH 120900Z AUTO 34004KT 7SM 12/10 A3018 RMK SLP223 T01220096 57002 IEM_DS3505
ZHHH,2006-05-12 10:00,ZHHH 121000Z AUTO 02008KT 7SM 12/10 A3018 RMK T01200100 IEM_DS3505
ZHHH,2006-05-12 11:00,ZHHH 121100Z AUTO 36006KT 7SM 12/10 A3021 RMK T01200100 IEM_DS3505
ZHHH,2006-05-12 12:00,ZHHH 121200Z AUTO 32004KT 9SM 13/10 A3024 RMK 60004 SLP236 T01290097 52013 IEM_DS3505
ZHHH,2006-05-12 13:00,ZHHH 121300Z AUTO 36004KT 7SM 13/11 A3024 RMK T01300110 IEM_DS3505
ZHHH,2006-05-12 14:00,ZHHH 121400Z AUTO 36004KT 7SM 13/11 A3024 RMK T01300110 IEM_DS3505
ZHHH,2006-05-12 15:00,ZHHH 121500Z AUTO 34004KT 9SM 13/10 A3027 RMK SLP252 T01310101 52016 IEM_DS3505
ZHHH,2006-05-12 16:00,ZHHH 121600Z AUTO 36004KT 6SM 13/11 A3027 RMK T01300110 IEM_DS3505
ZHHH,2006-05-12 17:00,ZHHH 121700Z AUTO 36006KT 6SM 13/11 A3027 RMK T01300110 IEM_DS3505
ZHHH,2006-05-12 18:00,ZHHH 121800Z AUTO 36002KT 9SM 13/10 A3024 RMK SLP243 T01320104 57009 IEM_DS3505
ZHHH,2006-05-12 19:00,ZHHH 121900Z AUTO 36006KT 6SM 12/11 A3024 RMK T01200110 IEM_DS3505
ZHHH,2006-05-12 20:00,ZHHH 122000Z AUTO 35004KT 6SM 12/11 A3024 RMK T01200110 IEM_DS3505
ZHHH,2006-05-12 21:00,ZHHH 122100Z AUTO 34004KT 9SM 13/10 A3027 RMK 70109 SLP247 T01290104 52004 IEM_DS3505
ZHHH,2006-05-12 22:00,ZHHH 122200Z AUTO 36004KT 6SM 12/11 A3027 RMK T01200110 IEM_DS3505
ZHHH,2006-05-12 23:00,ZHHH 122300Z AUTO 34004KT 4SM 13/11 A3030 RMK T01300110 IEM_DS3505
ZHHH,2006-05-13 00:00,ZHHH 130000Z AUTO 32004KT 9SM 14/10 A3030 RMK 70092 SLP264 T01370101 52017 IEM_DS3505
ZHHH,2006-05-13 01:00,ZHHH 130100Z AUTO 4SM 13/11 A3030 RMK T01300110 IEM_DS3505
ZHHH,2006-05-13 02:00,ZHHH 130200Z AUTO 00000KT 6SM 15/11 A3030 RMK T01500110 IEM_DS3505
ZHHH,2006-05-13 03:00,ZHHH 130300Z AUTO 22002KT 11SM 17/10 A3030 RMK SLP262 T01680104 57001 IEM_DS3505
ZHHH,2006-05-13 04:00,ZHHH 130400Z AUTO 26004KT 6SM 17/12 A3030 RMK T01700120 IEM_DS3505
ZHHH,2006-05-13 05:00,ZHHH 130500Z AUTO 26006KT 6SM 18/14 A3027 RMK T01800140 IEM_DS3505
ZHHH,2006-05-13 06:00,ZHHH 130600Z AUTO 27006KT 11SM 20/12 RMK SLP243 T01950123 57019 IEM_DS3505
ZHHH,2006-05-13 07:00,ZHHH 130700Z AUTO 33004KT 6SM 21/14 A3024 RMK T02100140 IEM_DS3505
ZHHH,2006-05-13 08:00,ZHHH 130800Z AUTO 25004KT 6SM 22/15 A3021 RMK T02200150 IEM_DS3505
ZHHH,2006-05-13 09:00,ZHHH 130900Z AUTO 29002KT 11SM 22/12 A3018 RMK SLP227 T02230117 57016 IEM_DS3505
ZHHH,2006-05-13 10:00,ZHHH 131000Z AUTO 22004KT 6SM 20/15 A3018 RMK T02000150 IEM_DS3505
ZHHH,2006-05-13 11:00,ZHHH 131100Z AUTO 23004KT 6SM 20/16 A3021 RMK T02000160 IEM_DS3505
ZHHH,2006-05-13 12:00,ZHHH 131200Z AUTO 25002KT 11SM 19/14 A3021 RMK SLP231 T01920136 52004 IEM_DS3505
ZHHH,2006-05-13 13:00,ZHHH 131300Z AUTO 24002KT 6SM 18/16 A3024 RMK T01800160 IEM_DS3505
ZHHH,2006-05-13 14:00,ZHHH 131400Z AUTO 26002KT 6SM 18/16 A3024 RMK T01800160 IEM_DS3505
ZHHH,2006-05-13 15:00,ZHHH 131500Z AUTO 25002KT 11SM 18/15 A3024 RMK SLP243 T01750150 52012 IEM_DS3505
ZHHH,2006-05-13 16:00,ZHHH 131600Z AUTO 24002KT 3SM 17/16 A3024 RMK T01700160 IEM_DS3505
ZHHH,2006-05-13 17:00,ZHHH 131700Z AUTO 23004KT 2SM 17/16 A3024 RMK T01700160 IEM_DS3505
ZHHH,2006-05-13 18:00,ZHHH 131800Z AUTO 25002KT 9SM 17/14 A3021 RMK SLP233 T01690142 57010 IEM_DS3505
ZHHH,2006-05-13 19:00,ZHHH 131900Z AUTO 24002KT 1 1/2SM 16/15 A3021 RMK T01600150 IEM_DS3505
ZHHH,2006-05-13 20:00,ZHHH 132000Z AUTO 1 1/2SM 16/15 A3018 RMK T01600150 IEM_DS3505
ZHHH,2006-05-13 22:00,ZHHH 132200Z AUTO 24002KT 1 1/2SM 16/15 A3021 RMK T01600150 IEM_DS3505
ZHHH,2006-05-13 23:00,ZHHH 132300Z AUTO 1 1/2SM 17/16 A3021 RMK T01700160 IEM_DS3505
ZHHH,2006-05-14 00:00,ZHHH 140000Z AUTO 25002KT 9SM 18/16 A3021 RMK SLP229 T01850156 52005 IEM_DS3505
ZHHH,2006-05-14 01:00,ZHHH 140100Z AUTO 00000KT 1 1/2SM 19/17 A3021 RMK T01900170 IEM_DS3505
ZHHH,2006-05-14 02:00,ZHHH 140200Z AUTO 3SM 22/18 A3018 RMK T02200180 IEM_DS3505
ZHHH,2006-05-14 03:00,ZHHH 140300Z AUTO 20002KT 9SM 23/15 A3018 RMK SLP222 T02280151 57007 IEM_DS3505
ZHHH,2006-05-14 04:00,ZHHH 140400Z AUTO 26004KT 6SM 24/16 A3015 RMK T02400160 IEM_DS3505
ZHHH,2006-05-14 05:00,ZHHH 140500Z AUTO 28004KT 6SM 26/09 A3012 RMK T02600090 IEM_DS3505
ZHHH,2006-05-14 06:00,ZHHH 140600Z AUTO 34004KT 11SM 27/08 A3009 RMK SLP192 T02660081 57030 IEM_DS3505
ZHHH,2006-05-14 07:00,ZHHH 140700Z AUTO 28006KT 6SM 26/12 A3009 RMK T02600120 IEM_DS3505
ZHHH,2006-05-14 08:00,ZHHH 140800Z AUTO 29004KT 6SM 26/11 A3006 RMK T02600110 IEM_DS3505
ZHHH,2006-05-14 09:00,ZHHH 140900Z AUTO 27004KT 11SM 26/09 A3003 RMK SLP171 T02620087 57021 IEM_DS3505
ZHHH,2006-05-14 10:00,ZHHH 141000Z AUTO 19004KT 6SM 26/11 A3003 RMK T02600110 IEM_DS3505
ZHHH,2006-05-14 11:00,ZHHH 141100Z AUTO 16004KT 6SM 24/14 A3003 RMK T02400140 IEM_DS3505
ZHHH,2006-05-14 12:00,ZHHH 141200Z AUTO 09002KT 9SM 22/14 A3006 RMK SLP175 T02170136 52004 IEM_DS3505
ZHHH,2006-05-14 13:00,ZHHH 141300Z AUTO 18004KT 3SM 22/13 A3006 RMK T02200130 IEM_DS3505
ZHHH,2006-05-14 14:00,ZHHH 141400Z AUTO 18004KT 3SM 22/13 A3006 RMK T02200130 IEM_DS3505
ZHHH,2006-05-14 15:00,ZHHH 141500Z AUTO 04002KT 9SM 19/15 A3006 RMK SLP181 T01930148 52006 IEM_DS3505
ZHHH,2006-05-14 16:00,ZHHH 141600Z AUTO 19004KT 3SM 20/15 A3006 RMK T02000150 IEM_DS3505
ZHHH,2006-05-14 17:00,ZHHH 141700Z AUTO 25004KT 2 1/2SM 19/16 A3003 RMK T01900160 IEM_DS3505
ZHHH,2006-05-14 18:00,ZHHH 141800Z AUTO 29002KT 11SM 18/14 A3003 RMK SLP166 T01750144 57014 IEM_DS3505
ZHHH,2006-05-14 19:00,ZHHH 141900Z AUTO 16002KT 2 1/2SM 18/16 A3000 RMK T01800160 IEM_DS3505
ZHHH,2006-05-14 20:00,ZHHH 142000Z AUTO 00000KT 2SM 17/16 A3000 RMK T01700160 IEM_DS3505
ZHHH,2006-05-14 21:00,ZHHH 142100Z AUTO 25002KT 11SM 16/15 A3000 RMK SLP164 T01590148 57003 IEM_DS3505
ZHHH,2006-05-14 22:00,ZHHH 142200Z AUTO 06002KT 1 1/2SM 17/16 A3003 RMK T01700160 IEM_DS3505
ZHHH,2006-05-14 23:00,ZHHH 142300Z AUTO 11004KT 1SM 18/17 A3003 RMK T01800170 IEM_DS3505
ZHHH,2006-05-15 00:00,ZHHH 150000Z AUTO 02002KT 9SM 22/16 A3003 RMK SLP170 T02150156 52007 IEM_DS3505
ZHHH,2006-05-15 01:00,ZHHH 150100Z AUTO 4SM 22/17 A3003 RMK T02200170 IEM_DS3505
ZHHH,2006-05-15 02:00,ZHHH 150200Z AUTO 23004KT 5SM 24/16 A3003 RMK T02400160 IEM_DS3505
ZHHH,2006-05-15 03:00,ZHHH 150300Z AUTO 27004KT 9SM 25/14 A3003 RMK SLP168 T02540139 57002 IEM_DS3505
ZHHH,2006-05-15 04:00,ZHHH 150400Z AUTO 22006KT 6SM 26/15 A3000 RMK T02600150 IEM_DS3505
ZHHH,2006-05-15 05:00,ZHHH 150500Z AUTO 24006KT 6SM 27/14 A3000 RMK T02700140 IEM_DS3505
ZHHH,2006-05-15 06:00,ZHHH 150600Z AUTO 25004KT 11SM 28/09 A2997 RMK SLP147 T02850093 57021 IEM_DS3505
ZHHH,2006-05-15 07:00,ZHHH 150700Z AUTO 20004KT 6SM 28/14 A2994 RMK T02800140 IEM_DS3505
ZHHH,2006-05-15 09:00,ZHHH 150900Z AUTO 22004KT 11SM 28/09 A2991 RMK SLP132 T02770091 57015 IEM_DS3505
ZHHH,2006-05-15 10:00,ZHHH 151000Z AUTO 22006KT 6SM 27/13 A2991 RMK T02700130 IEM_DS3505
ZHHH,2006-05-15 11:00,ZHHH 151100Z AUTO 20004KT 6SM 25/14 A2994 RMK T02500140 IEM_DS3505
ZHHH,2006-05-15 12:00,ZHHH 151200Z AUTO 20002KT 11SM 23/12 A2994 RMK SLP141 T02300117 52009 IEM_DS3505
ZHHH,2006-05-15 13:00,ZHHH 151300Z AUTO 18004KT 6SM 24/13 A2997 RMK T02400130 IEM_DS3505
ZHHH,2006-05-15 14:00,ZHHH 151400Z AUTO 6SM 23/14 A2997 RMK T02300140 IEM_DS3505
ZHHH,2006-05-15 15:00,ZHHH 151500Z AUTO 00000KT 9SM 22/15 A2997 RMK SLP152 T02180149 52011 IEM_DS3505
ZHHH,2006-05-15 18:00,ZHHH 151800Z AUTO 16002KT 9SM 22/15 RMK SLP141 T02160147 57011 IEM_DS3505
ZHHH,2006-05-15 21:00,ZHHH 152100Z AUTO 07002KT 9SM 21/15 RMK SLP139 T02060149 57002 IEM_DS3505
ZHHH,2006-05-16 00:00,ZHHH 160000Z AUTO 07002KT 9SM 23/17 A2997 RMK SLP150 T02260169 52011 IEM_DS3505
ZHHH,2006-05-16 01:00,ZHHH 160100Z AUTO 12008KT 1 1/2SM 23/18 A2997 RMK T02300180 IEM_DS3505
ZHHH,2006-05-16 02:00,ZHHH 160200Z AUTO 13008KT 2SM 24/18 A3000 RMK T02400180 IEM_DS3505
ZHHH,2006-05-16 03:00,ZHHH 160300Z AUTO 18004KT 9SM 26/12 A2997 RMK SLP149 T02640117 57001 IEM_DS3505
ZHHH,2006-05-16 04:00,ZHHH 160400Z AUTO 11008KT 3SM 26/15 A2997 RMK T02600150 IEM_DS3505
ZHHH,2006-05-16 05:00,ZHHH 160500Z AUTO 12008KT 6SM 27/16 A2994 RMK T02700160 IEM_DS3505
ZHHH,2006-05-16 06:00,ZHHH 160600Z AUTO 22004KT 9SM 28/14 A2994 RMK SLP135 T02810140 57014 IEM_DS3505
ZHHH,2006-05-16 07:00,ZHHH 160700Z AUTO 20006KT 6SM 27/10 A2991 RMK T02700100 IEM_DS3505
ZHHH,2006-05-16 08:00,ZHHH 160800Z AUTO 20004KT 6SM 26/15 A2991 RMK T02600150 IEM_DS3505
ZHHH,2006-05-16 09:00,ZHHH 160900Z AUTO 11004KT 9SM 26/14 A2991 RMK SLP127 T02650143 57008 IEM_DS3505
ZHHH,2006-05-16 10:00,ZHHH 161000Z AUTO 16010KT 6SM 26/15 A2991 RMK T02600150 IEM_DS3505
ZHHH,2006-05-16 11:00,ZHHH 161100Z AUTO 17004KT 6SM 25/13 A2991 RMK T02500130 IEM_DS3505
ZHHH,2006-05-16 12:00,ZHHH 161200Z AUTO 16004KT 9SM 24/14 A2994 RMK SLP137 T02370144 52010 IEM_DS3505
ZHHH,2006-05-16 13:00,ZHHH 161300Z AUTO 14004KT 6SM 22/15 A2994 RMK T02200150 IEM_DS3505
ZHHH,2006-05-16 14:00,ZHHH 161400Z AUTO 13004KT 6SM 21/19 A2997 RMK T02100190 IEM_DS3505
ZHHH,2006-05-16 15:00,ZHHH 161500Z AUTO 09002KT 9SM 21/17 A2997 RMK SLP145 T02140174 52008 IEM_DS3505
ZHHH,2006-05-16 16:00,ZHHH 161600Z AUTO 12006KT 3SM 20/18 A2997 RMK T02000180 IEM_DS3505
ZHHH,2006-05-16 17:00,ZHHH 161700Z AUTO 10004KT 1 1/4SM 19/18 A2994 RMK T01900180 IEM_DS3505
ZHHH,2006-05-16 18:00,ZHHH 161800Z AUTO 11002KT 9SM 19/17 A2994 RMK SLP135 T01900168 57010 IEM_DS3505
ZHHH,2006-05-16 19:00,ZHHH 161900Z AUTO 12006KT 1SM 18/18 A2991 RMK T01800180 IEM_DS3505
ZHHH,2006-05-16 20:00,ZHHH 162000Z AUTO 10006KT 1SM 18/17 A2991 RMK T01800170 IEM_DS3505
ZHHH,2006-05-16 21:00,ZHHH 162100Z AUTO 34002KT 9SM 18/16 A2991 RMK SLP133 T01790157 57002 IEM_DS3505
ZHHH,2006-05-16 22:00,ZHHH 162200Z AUTO 11006KT 1SM 17/17 A2991 RMK T01700170 IEM_DS3505
ZHHH,2006-05-16 23:00,ZHHH 162300Z AUTO 11006KT 1SM 18/17 A2994 RMK T01800170 IEM_DS3505
ZHHH,2006-05-17 00:00,ZHHH 170000Z AUTO 07004KT 9SM 22/16 A2994 RMK SLP142 T02190157 52009 IEM_DS3505
ZHHH,2006-05-17 01:00,ZHHH 170100Z AUTO 12008KT 1SM 22/18 A2994 RMK T02200180 IEM_DS3505
ZHHH,2006-05-17 02:00,ZHHH 170200Z AUTO 12008KT 1 1/2SM 24/18 A2997 RMK T02400180 IEM_DS3505
ZHHH,2006-05-17 03:00,ZHHH 170300Z AUTO 07004KT 11SM 27/13 A2997 RMK SLP142 T02660126 54000 IEM_DS3505
ZHHH,2006-05-17 04:00,ZHHH 170400Z AUTO 11008KT 3SM 26/12 A2994 RMK T02600120 IEM_DS3505
ZHHH,2006-05-17 05:00,ZHHH 170500Z AUTO 12008KT 6SM 27/14 A2991 RMK T02700140 IEM_DS3505
ZHHH,2006-05-17 06:00,ZHHH 170600Z AUTO 09006KT 12SM 29/09 A2991 RMK SLP123 T02910093 57019 IEM_DS3505
ZHHH,2006-05-17 07:00,ZHHH 170700Z AUTO 10008KT 6SM 28/12 A2988 RMK T02800120 IEM_DS3505
ZHHH,2006-05-17 08:00,ZHHH 170800Z AUTO 11010KT 6SM 28/13 A2985 RMK T02800130 IEM_DS3505
ZHHH,2006-05-17 09:00,ZHHH 170900Z AUTO 09004KT 12SM 29/07 A2985 RMK SLP108 T02900070 57015 IEM_DS3505
ZHHH,2006-05-17 10:00,ZHHH 171000Z AUTO 11010KT 6SM 26/14 A2985 RMK T02600140 IEM_DS3505
ZHHH,2006-05-17 11:00,ZHHH 171100Z AUTO 11006KT 6SM 25/18 A2985 RMK T02500180 IEM_DS3505
ZHHH,2006-05-17 12:00,ZHHH 171200Z AUTO 09004KT 14SM 25/17 A2988 RMK SLP114 T02500170 52006 IEM_DS3505
ZHHH,2006-05-17 13:00,ZHHH 171300Z AUTO 13006KT 4SM 22/19 A2988 RMK T02200190 IEM_DS3505
ZHHH,2006-05-17 14:00,ZHHH 171400Z AUTO 12006KT 2 1/2SM 21/19 A2988 RMK T02100190 IEM_DS3505
ZHHH,2006-05-17 15:00,ZHHH 171500Z AUTO 11004KT 11SM 23/16 A2988 RMK SLP120 T02290160 52006 IEM_DS3505
ZHHH,2006-05-17 16:00,ZHHH 171600Z AUTO 10006KT 1 1/2SM 20/18 A2988 RMK T02000180 IEM_DS3505
ZHHH,2006-05-17 18:00,ZHHH 171800Z AUTO 07002KT 9SM 21/17 A2985 RMK SLP105 T02080166 57015 IEM_DS3505
ZHHH,2006-05-17 19:00,ZHHH 171900Z AUTO 08004KT 1 1/4SM 19/18 A2983 RMK T01900180 IEM_DS3505
ZHHH,2006-05-17 20:00,ZHHH 172000Z AUTO 02004KT 1 1/4SM 18/17 A2983 RMK T01800170 IEM_DS3505
ZHHH,2006-05-17 21:00,ZHHH 172100Z AUTO 07002KT 9SM 20/17 A2983 RMK SLP098 T01960168 57007 IEM_DS3505
ZHHH,2006-05-17 22:00,ZHHH 172200Z AUTO 03004KT 1 1/2SM 18/17 A2983 RMK T01800170 IEM_DS3505
ZHHH,2006-05-17 23:00,ZHHH 172300Z AUTO 06006KT 2SM 18/17 A2985 RMK T01800170 IEM_DS3505
ZHHH,2006-05-18 00:00,ZHHH 180000Z AUTO 07002KT 9SM 20/18 A2985 RMK SLP106 T02050177 52008 IEM_DS3505
ZHHH,2006-05-18 01:00,ZHHH 180100Z AUTO 13004KT 1 1/2SM 21/19 A2985 RMK T02100190 IEM_DS3505
ZHHH,2006-05-18 02:00,ZHHH 180200Z AUTO 12004KT 4SM 23/19 A2985 RMK T02300190 IEM_DS3505
ZHHH,2006-05-18 03:00,ZHHH 180300Z AUTO 09002KT 11SM 26/15 A2985 RMK SLP105 T02650146 57001 IEM_DS3505
ZHHH,2006-05-18 04:00,ZHHH 180400Z AUTO 12008KT 4SM 26/17 A2983 RMK T02600170 IEM_DS3505
ZHHH,2006-05-18 05:00,ZHHH 180500Z AUTO 12006KT 6SM 27/17 A2980 RMK T02700170 IEM_DS3505
ZHHH,2006-05-18 06:00,ZHHH 180600Z AUTO 14006KT 11SM 28/13 A2980 RMK SLP088 T02780134 57017 IEM_DS3505
ZHHH,2006-05-18 07:00,ZHHH 180700Z AUTO 14006KT 6SM 28/17 A2977 RMK T02800170 IEM_DS3505
ZHHH,2006-05-18 08:00,ZHHH 180800Z AUTO 13008KT 6SM 27/17 A2977 RMK T02700170 IEM_DS3505
ZHHH,2006-05-18 09:00,ZHHH 180900Z AUTO 14004KT 11SM 28/13 A2977 RMK SLP077 T02820133 57011 IEM_DS3505
ZHHH,2006-05-18 10:00,ZHHH 181000Z AUTO 14010KT 6SM 26/17 A2977 RMK T02600170 IEM_DS3505
ZHHH,2006-05-18 11:00,ZHHH 181100Z AUTO 14010KT 6SM 25/17 A2977 RMK T02500170 IEM_DS3505
ZHHH,2006-05-18 12:00,ZHHH 181200Z AUTO 09004KT 9SM 25/15 A2980 RMK SLP089 T02460152 52012 IEM_DS3505
ZHHH,2006-05-18 13:00,ZHHH 181300Z AUTO 15008KT 6SM 23/16 A2980 RMK T02300160 IEM_DS3505
ZHHH,2006-05-18 14:00,ZHHH 181400Z AUTO 14008KT 6SM 22/16 A2983 RMK T02200160 IEM_DS3505
ZHHH,2006-05-18 15:00,ZHHH 181500Z AUTO 14004KT 9SM 22/14 A2980 RMK SLP094 T02200144 52005 IEM_DS3505
ZHHH,2006-05-18 16:00,ZHHH 181600Z AUTO 16008KT 6SM 21/15 A2980 RMK T02100150 IEM_DS3505
ZHHH,2006-05-18 17:00,ZHHH 181700Z AUTO 16008KT 6SM 21/14 A2980 RMK T02100140 IEM_DS3505
ZHHH,2006-05-18 18:00,ZHHH 181800Z AUTO 11002KT 14SM 20/14 A2980 RMK SLP087 T02020141 57007 IEM_DS3505
ZHHH,2006-05-18 19:00,ZHHH 181900Z AUTO 15006KT 6SM 19/15 A2980 RMK T01900150 IEM_DS3505
ZHHH,2006-05-18 20:00,ZHHH 182000Z AUTO 12004KT 6SM 19/15 A2980 RMK T01900150 IEM_DS3505
ZHHH,2006-05-18 21:00,ZHHH 182100Z AUTO 11004KT 12SM 19/14 A2980 RMK SLP089 T01930135 52002 IEM_DS3505
ZHHH,2006-05-18 22:00,ZHHH 182200Z AUTO 14010KT 6SM 19/15 A2980 RMK T01900150 IEM_DS3505
ZHHH,2006-05-18 23:00,ZHHH 182300Z AUTO 14008KT 6SM 20/15 A2983 RMK T02000150 IEM_DS3505
ZHHH,2006-05-19 00:00,ZHHH 190000Z AUTO 16002KT 12SM 22/14 A2983 RMK SLP100 T02190145 52011 IEM_DS3505
ZHHH,2006-05-19 01:00,ZHHH 190100Z AUTO 16008KT 6SM 23/15 A2983 RMK T02300150 IEM_DS3505
ZHHH,2006-05-19 02:00,ZHHH 190200Z AUTO 13010KT 6SM 24/15 A2983 RMK T02400150 IEM_DS3505
ZHHH,2006-05-19 03:00,ZHHH 190300Z AUTO 16004KT 12SM 27/14 A2983 RMK SLP098 T02690136 57002 IEM_DS3505
ZHHH,2006-05-19 04:00,ZHHH 190400Z AUTO 19008KT 6SM 27/17 A2980 RMK T02700170 IEM_DS3505
ZHHH,2006-05-19 05:00,ZHHH 190500Z AUTO 19010KT 6SM 29/18 A2977 RMK T02900180 IEM_DS3505
ZHHH,2006-05-19 06:00,ZHHH 190600Z AUTO 22006KT 12SM 30/14 A2974 RMK SLP075 T03000145 57023 IEM_DS3505
ZHHH,2006-05-19 07:00,ZHHH 190700Z AUTO 21010KT 6SM 30/18 A2974 RMK T03000180 IEM_DS3505
ZHHH,2006-05-19 08:00,ZHHH 190800Z AUTO 19010KT 6SM 30/17 A2971 RMK T03000170 IEM_DS3505
ZHHH,2006-05-19 09:00,ZHHH 190900Z AUTO 20006KT 11SM 31/13 A2971 RMK SLP059 T03120126 57016 IEM_DS3505
ZHHH,2006-05-19 10:00,ZHHH 191000Z AUTO 18006KT 6SM 29/17 A2971 RMK T02900170 IEM_DS3505
ZHHH,2006-05-19 11:00,ZHHH 191100Z AUTO 16006KT 6SM 28/18 A2971 RMK T02800180 IEM_DS3505
ZHHH,2006-05-19 12:00,ZHHH 191200Z AUTO 09002KT 11SM 28/13 A2971 RMK SLP060 T02790134 52001 IEM_DS3505
ZHHH,2006-05-19 13:00,ZHHH 191300Z AUTO 12008KT 6SM 25/20 A2974 RMK T02500200 IEM_DS3505
ZHHH,2006-05-19 14:00,ZHHH 191400Z AUTO 14008KT 6SM 24/21 A2974 RMK T02400210 IEM_DS3505
ZHHH,2006-05-19 15:00,ZHHH 191500Z AUTO 09002KT 11SM 25/17 A2977 RMK SLP075 T02540171 52015 IEM_DS3505
ZHHH,2006-05-19 16:00,ZHHH 191600Z AUTO 11006KT 4SM 22/19 A2977 RMK T02200190 IEM_DS3505
ZHHH,2006-05-19 17:00,ZHHH 191700Z AUTO 12006KT 4SM 22/19 A2977 RMK T02200190 IEM_DS3505
ZHHH,2006-05-19 18:00,ZHHH 191800Z AUTO 11004KT 11SM 23/18 A2974 RMK SLP072 T02340176 57003 IEM_DS3505
ZHHH,2006-05-19 19:00,ZHHH 191900Z AUTO 12008KT 4SM 21/19 A2974 RMK T02100190 IEM_DS3505
ZHHH,2006-05-19 20:00,ZHHH 192000Z AUTO 13006KT 3SM 20/19 A2974 RMK T02000190 IEM_DS3505
ZHHH,2006-05-19 21:00,ZHHH 192100Z AUTO 11004KT 11SM 22/17 A2977 RMK SLP077 T02220173 52005 IEM_DS3505
ZHHH,2006-05-19 22:00,ZHHH 192200Z AUTO 12008KT 3SM 20/18 A2977 RMK T02000180 IEM_DS3505
ZHHH,2006-05-19 23:00,ZHHH 192300Z AUTO 11008KT 4SM 21/19 A2980 RMK T02100190 IEM_DS3505
ZHHH,2006-05-20 00:00,ZHHH 200000Z AUTO 09004KT 11SM 26/16 A2980 RMK SLP086 T02550164 52009 IEM_DS3505
ZHHH,2006-05-20 01:00,ZHHH 200100Z AUTO 12010KT 4SM 25/20 A2980 RMK T02500200 IEM_DS3505
ZHHH,2006-05-20 02:00,ZHHH 200200Z AUTO 13010KT 6SM 27/19 A2980 RMK T02700190 IEM_DS3505
ZHHH,2006-05-20 03:00,ZHHH 200300Z AUTO 16004KT 11SM 30/15 A2977 RMK SLP083 T02990148 57003 IEM_DS3505
ZHHH,2006-05-20 04:00,ZHHH 200400Z AUTO 20010KT 6SM 32/16 A2977 RMK T03200160 IEM_DS3505
ZHHH,2006-05-20 05:00,ZHHH 200500Z AUTO 21012KT 6SM 32/17 A2974 RMK T03200170 IEM_DS3505
ZHHH,2006-05-20 06:00,ZHHH 200600Z AUTO 14004KT 11SM 33/14 A2971 RMK SLP062 T03270139 57021 IEM_DS3505
ZHHH,2006-05-20 07:00,ZHHH 200700Z AUTO 19010KT 6SM 33/18 A2971 RMK T03300180 IEM_DS3505
ZHHH,2006-05-20 08:00,ZHHH 200800Z AUTO 19008KT 6SM 33/18 A2968 RMK T03300180 IEM_DS3505
ZHHH,2006-05-20 09:00,ZHHH 200900Z AUTO 11004KT 11SM 34/12 A2968 RMK SLP044 T03350119 57018 IEM_DS3505
ZHHH,2006-05-20 10:00,ZHHH 201000Z AUTO 17006KT 6SM 32/17 A2968 RMK T03200170 IEM_DS3505
ZHHH,2006-05-20 11:00,ZHHH 201100Z AUTO 13008KT 6SM 29/20 A2968 RMK T02900200 IEM_DS3505
ZHHH,2006-05-20 12:00,ZHHH 201200Z AUTO 11004KT 9SM 30/14 A2971 RMK SLP060 T03000145 52016 IEM_DS3505
ZHHH,2006-05-20 13:00,ZHHH 201300Z AUTO 12006KT 6SM 27/22 A2974 RMK T02700220 IEM_DS3505
ZHHH,2006-05-20 14:00,ZHHH 201400Z AUTO 12008KT 4SM 26/22 A2974 RMK T02600220 IEM_DS3505
ZHHH,2006-05-20 15:00,ZHHH 201500Z AUTO 11004KT 9SM 28/18 A2974 RMK SLP072 T02780185 52012 IEM_DS3505
ZHHH,2006-05-20 16:00,ZHHH 201600Z AUTO 13006KT 3SM 25/22 A2974 RMK T02500220 IEM_DS3505
ZHHH,2006-05-20 17:00,ZHHH 201700Z AUTO 13006KT 3SM 25/21 A2974 RMK T02500210 IEM_DS3505
ZHHH,2006-05-20 18:00,ZHHH 201800Z AUTO 11004KT 9SM 25/18 A2974 RMK SLP065 T02540183 57007 IEM_DS3505
ZHHH,2006-05-20 19:00,ZHHH 201900Z AUTO 13006KT 3SM 23/21 A2974 RMK T02300210 IEM_DS3505
ZHHH,2006-05-20 20:00,ZHHH 202000Z AUTO 12006KT 3SM 23/21 A2974 RMK T02300210 IEM_DS3505
ZHHH,2006-05-20 21:00,ZHHH 202100Z AUTO 11002KT 9SM 25/18 A2974 RMK SLP070 T02470182 52005 IEM_DS3505
ZHHH,2006-05-20 22:00,ZHHH 202200Z AUTO 12008KT 2 1/2SM 22/21 A2977 RMK T02200210 IEM_DS3505
ZHHH,2006-05-20 23:00,ZHHH 202300Z AUTO 12006KT 2 1/2SM 24/22 A2977 RMK T02400220 IEM_DS3505
ZHHH,2006-05-21 00:00,ZHHH 210000Z AUTO 11004KT 12SM 27/18 A2977 RMK SLP084 T02700183 52014 IEM_DS3505
ZHHH,2006-05-21 01:00,ZHHH 210100Z AUTO 17008KT 6SM 28/21 A2980 RMK T02800210 IEM_DS3505
ZHHH,2006-05-21 02:00,ZHHH 210200Z AUTO 19010KT 6SM 29/21 A2980 RMK T02900210 IEM_DS3505
ZHHH,2006-05-21 03:00,ZHHH 210300Z AUTO 20006KT 9SM 30/18 A2980 RMK SLP084 T03050183 54000 IEM_DS3505
ZHHH,2006-05-21 04:00,ZHHH 210400Z AUTO 21010KT 7SM 30/21 A2977 RMK T03000210 IEM_DS3505
ZHHH,2006-05-21 05:00,ZHHH 210500Z AUTO 23008KT 7SM 31/21 A2974 RMK T03100210 IEM_DS3505
ZHHH,2006-05-21 06:00,ZHHH 210600Z AUTO 18006KT 9SM 32/17 A2974 RMK SLP064 T03220173 57020 IEM_DS3505
ZHHH,2006-05-21 07:00,ZHHH 210700Z AUTO 23008KT 7SM 31/21 A2971 RMK T03100210 IEM_DS3505
ZHHH,2006-05-21 08:00,ZHHH 210800Z AUTO 27004KT 7SM 31/22 A2971 RMK T03100220 IEM_DS3505
ZHHH,2006-05-21 09:00,ZHHH 210900Z AUTO 29006G23KT 9SM 28/19 A2974 RMK SLP066 T02760194 52002 IEM_DS3505
ZHHH,2006-05-21 10:00,ZHHH 211000Z AUTO 34014KT 1 1/4SM 25/20 A2974 RMK T02500200 IEM_DS3505
ZHHH,2006-05-21 11:00,ZHHH 211100Z AUTO 34016KT 2 1/2SM 22/19 A2980 RMK T02200190 IEM_DS3505
ZHHH,2006-05-21 12:00,ZHHH 211200Z AUTO 36004KT 7SM 22/17 A2980 RMK SLP093 T02200169 52027 IEM_DS3505
ZHHH,2006-05-21 13:00,ZHHH 211300Z AUTO 32012G21KT 3SM 22/18 A2985 RMK T02200180 IEM_DS3505
ZHHH,2006-05-21 14:00,ZHHH 211400Z AUTO 33012KT 3SM 19/18 A2988 RMK T01900180 IEM_DS3505
ZHHH,2006-05-21 15:00,ZHHH 211500Z AUTO 36004KT 9SM 20/17 A2988 RMK SLP122 T01960166 52029 IEM_DS3505
ZHHH,2006-05-21 16:00,ZHHH 211600Z AUTO 34008KT 3SM 18/18 A2988 RMK T01800180 IEM_DS3505
ZHHH,2006-05-21 17:00,ZHHH 211700Z AUTO 02006KT 2 1/2SM 18/18 A2988 RMK T01800180 IEM_DS3505
ZHHH,2006-05-21 18:00,ZHHH 211800Z AUTO 32004KT 11SM 19/17 A2988 RMK 60020 SLP120 T01860171 57002 IEM_DS3505
ZHHH,2006-05-21 19:00,ZHHH 211900Z AUTO 34004KT 4SM 18/18 A2988 RMK T01800180 IEM_DS3505
ZHHH,2006-05-21 20:00,ZHHH 212000Z AUTO 4SM 18/18 A2988 RMK T01800180 IEM_DS3505
ZHHH,2006-05-21 21:00,ZHHH 212100Z AUTO 29004KT 9SM 19/17 A2988 RMK 70020 SLP119 T01860169 57001 IEM_DS3505
ZHHH,2006-05-21 22:00,ZHHH 212200Z AUTO 29004KT 4SM 18/18 A2988 RMK T01800180 IEM_DS3505
ZHHH,2006-05-21 23:00,ZHHH 212300Z AUTO 29004KT 3SM 19/18 A2988 RMK T01900180 IEM_DS3505
ZHHH,2006-05-22 00:00,ZHHH 220000Z AUTO 27004KT 9SM 20/17 A2988 RMK 70020 SLP124 T01980168 52005 IEM_DS3505
ZHHH,2006-05-22 01:00,ZHHH 220100Z AUTO 31004KT 2 1/2SM 21/19 A2991 RMK T02100190 IEM_DS3505
ZHHH,2006-05-22 02:00,ZHHH 220200Z AUTO 30006KT 4SM 23/19 A2991 RMK T02300190 IEM_DS3505
ZHHH,2006-05-22 03:00,ZHHH 220300Z AUTO 29004KT 11SM 24/17 A2991 RMK SLP127 T02370167 52003 IEM_DS3505
ZHHH,2006-05-22 04:00,ZHHH 220400Z AUTO 28004KT 6SM 25/19 A2988 RMK T02500190 IEM_DS3505
ZHHH,2006-05-22 05:00,ZHHH 220500Z AUTO 31004KT 6SM 26/19 A2985 RMK T02600190 IEM_DS3505
ZHHH,2006-05-22 06:00,ZHHH 220600Z AUTO 34004KT 9SM 27/15 A2985 RMK SLP108 T02740151 57019 IEM_DS3505
ZHHH,2006-05-22 07:00,ZHHH 220700Z AUTO 30006KT 6SM 28/18 A2983 RMK T02800180 IEM_DS3505
ZHHH,2006-05-22 08:00,ZHHH 220800Z AUTO 6SM 28/19 A2983 RMK T02800190 IEM_DS3505
ZHHH,2006-05-22 09:00,ZHHH 220900Z AUTO 27004KT 9SM 28/14 A2983 RMK SLP096 T02760139 57012 IEM_DS3505
ZHHH,2006-05-22 10:00,ZHHH 221000Z AUTO 6SM 27/16 A2983 RMK T02700160 IEM_DS3505
ZHHH,2006-05-22 11:00,ZHHH 221100Z AUTO 6SM 26/16 A2983 RMK T02600160 IEM_DS3505
ZHHH,2006-05-22 12:00,ZHHH 221200Z AUTO 36002KT 9SM 26/16 A2983 RMK SLP104 T02560162 52008 IEM_DS3505
ZHHH,2006-05-22 13:00,ZHHH 221300Z AUTO 00000KT 6SM 25/17 A2985 RMK T02500170 IEM_DS3505
ZHHH,2006-05-22 14:00,ZHHH 221400Z AUTO 00000KT 6SM 25/18 A2988 RMK T02500180 IEM_DS3505
ZHHH,2006-05-22 15:00,ZHHH 221500Z AUTO 00000KT 9SM 23/19 A2988 RMK SLP119 T02300194 52015 IEM_DS3505
ZHHH,2006-05-22 16:00,ZHHH 221600Z AUTO 23002KT 6SM 24/19 A2988 RMK T02400190 IEM_DS3505
ZHHH,2006-05-22 17:00,ZHHH 221700Z AUTO 00000KT 6SM 23/21 A2985 RMK T02300210 IEM_DS3505
ZHHH,2006-05-22 18:00,ZHHH 221800Z AUTO 36002KT 9SM 22/17 A2985 RMK SLP110 T02200172 57009 IEM_DS3505
ZHHH,2006-05-22 19:00,ZHHH 221900Z AUTO 02006KT 6SM 22/21 A2985 RMK T02200210 IEM_DS3505
ZHHH,2006-05-22 20:00,ZHHH 222000Z AUTO 6SM 21/20 A2985 RMK T02100200 IEM_DS3505
ZHHH,2006-05-22 21:00,ZHHH 222100Z AUTO 27002KT 9SM 22/19 A2988 RMK SLP116 T02150189 52006 IEM_DS3505
ZHHH,2006-05-22 22:00,ZHHH 222200Z AUTO 10002KT 6SM 21/19 A2988 RMK T02100190 IEM_DS3505
ZHHH,2006-05-22 23:00,ZHHH 222300Z AUTO 11004KT 6SM 22/20 A2988 RMK T02200200 IEM_DS3505
ZHHH,2006-05-23 00:00,ZHHH 230000Z AUTO 09002KT 9SM 26/19 A2991 RMK SLP128 T02550187 52012 IEM_DS3505
ZHHH,2006-05-23 01:00,ZHHH 230100Z AUTO 12004KT 4SM 25/21 A2991 RMK T02500210 IEM_DS3505
ZHHH,2006-05-23 02:00,ZHHH 230200Z AUTO 12006KT 3SM 27/21 A2991 RMK T02700210 IEM_DS3505
ZHHH,2006-05-23 03:00,ZHHH 230300Z AUTO 14004KT 9SM 29/16 A2988 RMK SLP124 T02880157 57004 IEM_DS3505
ZHHH,2006-05-23 04:00,ZHHH 230400Z AUTO 12006KT 2SM 29/20 A2988 RMK T02900200 IEM_DS3505
ZHHH,2006-05-23 05:00,ZHHH 230500Z AUTO 12006KT 6SM 30/20 A2985 RMK T03000200 IEM_DS3505
ZHHH,2006-05-23 06:00,ZHHH 230600Z AUTO 14006KT 11SM 31/13 A2983 RMK SLP099 T03130131 57025 IEM_DS3505
ZHHH,2006-05-23 07:00,ZHHH 230700Z AUTO 12008KT 6SM 31/16 A2980 RMK T03100160 IEM_DS3505
ZHHH,2006-05-23 08:00,ZHHH 230800Z AUTO 12008KT 6SM 31/13 A2980 RMK T03100130 IEM_DS3505
ZHHH,2006-05-23 09:00,ZHHH 230900Z AUTO 16004KT 11SM 32/10 A2977 RMK SLP081 T03170099 57018 IEM_DS3505
ZHHH,2006-05-23 10:00,ZHHH 231000Z AUTO 11006KT 6SM 30/14 A2977 RMK T03000140 IEM_DS3505
ZHHH,2006-05-23 11:00,ZHHH 231100Z AUTO 11006KT 6SM 29/15 A2977 RMK T02900150 IEM_DS3505
ZHHH,2006-05-23 12:00,ZHHH 231200Z AUTO 09002KT 12SM 28/13 A2980 RMK SLP087 T02780134 52006 IEM_DS3505
ZHHH,2006-05-23 13:00,ZHHH 231300Z AUTO 12006KT 6SM 27/17 A2980 RMK T02700170 IEM_DS3505
ZHHH,2006-05-23 14:00,ZHHH 231400Z AUTO 11008KT 6SM 26/18 A2983 RMK T02600180 IEM_DS3505
ZHHH,2006-05-23 15:00,ZHHH 231500Z AUTO 09002KT 11SM 26/15 A2983 RMK SLP099 T02600151 52012 IEM_DS3505
ZHHH,2006-05-23 16:00,ZHHH 231600Z AUTO 12006KT 6SM 24/19 A2983 RMK T02400190 IEM_DS3505
ZHHH,2006-05-23 17:00,ZHHH 231700Z AUTO 11008KT 6SM 23/18 A2980 RMK T02300180 IEM_DS3505
ZHHH,2006-05-23 18:00,ZHHH 231800Z AUTO 16002KT 9SM 26/15 A2977 RMK SLP084 T02560150 57015 IEM_DS3505
ZHHH,2006-05-23 19:00,ZHHH 231900Z AUTO 12008KT 4SM 23/18 A2977 RMK T02300180 IEM_DS3505
ZHHH,2006-05-23 20:00,ZHHH 232000Z AUTO 11008KT 3SM 23/18 A2977 RMK T02300180 IEM_DS3505
ZHHH,2006-05-23 21:00,ZHHH 232100Z AUTO 11004KT 9SM 24/16 A2977 RMK SLP078 T02440156 57006 IEM_DS3505
ZHHH,2006-05-23 22:00,ZHHH 232200Z AUTO 11010KT 4SM 22/17 A2980 RMK T02200170 IEM_DS3505
ZHHH,2006-05-23 23:00,ZHHH 232300Z AUTO 12012KT 4SM 23/18 A2980 RMK T02300180 IEM_DS3505
ZHHH,2006-05-24 00:00,ZHHH 240000Z AUTO 14004KT 9SM 27/16 A2980 RMK SLP091 T02730163 52013 IEM_DS3505
ZHHH,2006-05-24 01:00,ZHHH 240100Z AUTO 13012KT 4SM 27/18 A2980 RMK T02700180 IEM_DS3505
ZHHH,2006-05-24 02:00,ZHHH 240200Z AUTO 12012KT 4SM 29/19 A2980 RMK T02900190 IEM_DS3505
ZHHH,2006-05-24 03:00,ZHHH 240300Z AUTO 14004KT 9SM 30/14 A2980 RMK SLP086 T03000141 57005 IEM_DS3505
ZHHH,2006-05-24 04:00,ZHHH 240400Z AUTO 12010KT 3SM 29/19 A2977 RMK T02900190 IEM_DS3505
ZHHH,2006-05-24 05:00,ZHHH 240500Z AUTO 12010KT 3SM 30/20 A2974 RMK T03000200 IEM_DS3505
ZHHH,2006-05-24 06:00,ZHHH 240600Z AUTO 14004KT 11SM 32/16 A2974 RMK SLP068 T03200155 57018 IEM_DS3505
ZHHH,2006-05-24 07:00,ZHHH 240700Z AUTO 16006KT 6SM 31/19 A2971 RMK T03100190 IEM_DS3505
ZHHH,2006-05-24 08:00,ZHHH 240800Z AUTO 12006KT 6SM 31/20 A2968 RMK T03100200 IEM_DS3505
ZHHH,2006-05-24 09:00,ZHHH 240900Z AUTO 11004KT 9SM 32/14 A2968 RMK SLP044 T03160138 57024 IEM_DS3505
ZHHH,2006-05-24 10:00,ZHHH 241000Z AUTO 10006KT 6SM 29/21 A2965 RMK T02900210 IEM_DS3505
ZHHH,2006-05-24 11:00,ZHHH 241100Z AUTO 11008KT 4SM 29/23 A2965 RMK T02900230 IEM_DS3505
ZHHH,2006-05-24 12:00,ZHHH 241200Z AUTO 07004KT 11SM 30/19 A2968 RMK SLP040 T02970188 57003 IEM_DS3505
ZHHH,2006-05-24 13:00,ZHHH 241300Z AUTO 08014KT 2SM 25/23 A2968 RMK T02500230 IEM_DS3505
ZHHH,2006-05-24 14:00,ZHHH 241400Z AUTO 07010KT 1 1/2SM 24/22 A2971 RMK T02400220 IEM_DS3505
ZHHH,2006-05-24 15:00,ZHHH 241500Z AUTO 09004KT 9SM 24/22 A2971 RMK SLP056 T02430222 52015 IEM_DS3505
ZHHH,2006-05-24 16:00,ZHHH 241600Z AUTO 11010KT 1 1/2SM 23/23 A2968 RMK T02300230 IEM_DS3505
ZHHH,2006-05-24 17:00,ZHHH 241700Z AUTO 12010KT 1 1/2SM 23/23 A2968 RMK T02300230 IEM_DS3505
ZHHH,2006-05-24 18:00,ZHHH 241800Z AUTO 09004KT 6SM 24/22 A2965 RMK 60071 SLP038 T02390225 57018 IEM_DS3505
ZHHH,2006-05-24 19:00,ZHHH 241900Z AUTO 10006KT 1 1/4SM 23/23 A2962 RMK T02300230 IEM_DS3505
ZHHH,2006-05-24 20:00,ZHHH 242000Z AUTO 14006KT 1 1/4SM 23/23 A2962 RMK T02300230 IEM_DS3505
ZHHH,2006-05-24 21:00,ZHHH 242100Z AUTO 27006KT 6SM 23/22 A2962 RMK 70087 SLP034 T02300218 57004 IEM_DS3505
ZHHH,2006-05-24 22:00,ZHHH 242200Z AUTO 34008KT 1SM 20/20 A2965 RMK T02000200 IEM_DS3505
ZHHH,2006-05-24 23:00,ZHHH 242300Z AUTO 35008KT 1 1/4SM 20/20 A2965 RMK T02000200 IEM_DS3505
ZHHH,2006-05-25 00:00,ZHHH 250000Z AUTO 34004KT 11SM 22/19 A2968 RMK 60028 70097 SLP051 T02150194 52017 IEM_DS3505
ZHHH,2006-05-25 01:00,ZHHH 250100Z AUTO 36008KT 3SM 21/21 A2971 RMK T02100210 IEM_DS3505
ZHHH,2006-05-25 02:00,ZHHH 250200Z AUTO 5SM 22/21 A2971 RMK T02200210 IEM_DS3505
ZHHH,2006-05-25 03:00,ZHHH 250300Z AUTO 34006KT 11SM 25/19 A2971 RMK SLP065 T02460194 52014 IEM_DS3505
ZHHH,2006-05-25 04:00,ZHHH 250400Z AUTO 35004KT 4SM 23/21 A2971 RMK T02300210 IEM_DS3505
ZHHH,2006-05-25 05:00,ZHHH 250500Z AUTO 31006KT 2 1/2SM 25/22 A2971 RMK T02500220 IEM_DS3505
ZHHH,2006-05-25 06:00,ZHHH 250600Z AUTO 29006KT 9SM 26/19 A2971 RMK SLP055 T02630192 57010 IEM_DS3505
ZHHH,2006-05-25 07:00,ZHHH 250700Z AUTO 35008KT 3SM 25/21 A2971 RMK T02500210 IEM_DS3505
ZHHH,2006-05-25 08:00,ZHHH 250800Z AUTO 35006KT 3SM 25/21 A2968 RMK T02500210 IEM_DS3505
ZHHH,2006-05-25 09:00,ZHHH 250900Z AUTO 34002KT 9SM 26/19 A2971 RMK SLP054 T02550189 57001 IEM_DS3505
ZHHH,2006-05-25 10:00,ZHHH 251000Z AUTO 01008KT 4SM 23/19 A2971 RMK T02300190 IEM_DS3505
ZHHH,2006-05-25 11:00,ZHHH 251100Z AUTO 01008KT 4SM 23/19 A2974 RMK T02300190 IEM_DS3505
ZHHH,2006-05-25 12:00,ZHHH 251200Z AUTO 36004KT 11SM 23/18 A2977 RMK SLP076 T02270176 52022 IEM_DS3505
ZHHH,2006-05-25 13:00,ZHHH 251300Z AUTO 03006KT 2 1/2SM 21/19 A2977 RMK T02100190 IEM_DS3505
ZHHH,2006-05-25 14:00,ZHHH 251400Z AUTO 04002KT 3SM 21/19 A2980 RMK T02100190 IEM_DS3505
ZHHH,2006-05-25 15:00,ZHHH 251500Z AUTO 04002KT 9SM 22/18 A2980 RMK SLP088 T02150177 52012 IEM_DS3505
ZHHH,2006-05-25 16:00,ZHHH 251600Z AUTO 04004KT 2SM 20/19 A2980 RMK T02000190 IEM_DS3505
ZHHH,2006-05-25 17:00,ZHHH 251700Z AUTO 01004KT 2SM 20/19 A2980 RMK T02000190 IEM_DS3505
ZHHH,2006-05-25 18:00,ZHHH 251800Z AUTO 07002KT 9SM 20/18 A2980 RMK SLP091 T02050177 52003 IEM_DS3505
ZHHH,2006-05-25 19:00,ZHHH 251900Z AUTO 35004KT 1 1/2SM 19/19 A2980 RMK T01900190 IEM_DS3505
ZHHH,2006-05-25 20:00,ZHHH 252000Z AUTO 02004KT 1 1/2SM 19/18 A2980 RMK T01900180 IEM_DS3505
ZHHH,2006-05-25 21:00,ZHHH 252100Z AUTO 36002KT 9SM 20/18 A2980 RMK 70010 SLP087 T01990180 57004 IEM_DS3505
ZHHH,2006-05-25 22:00,ZHHH 252200Z AUTO 05004KT 1SM 19/18 A2980 RMK T01900180 IEM_DS3505
ZHHH,2006-05-25 23:00,ZHHH 252300Z AUTO 01004KT 1 1/4SM 20/18 A2983 RMK T02000180 IEM_DS3505
ZHHH,2006-05-26 00:00,ZHHH 260000Z AUTO 02004KT 9SM 22/17 A2983 RMK SLP105 T02150167 52018 IEM_DS3505
ZHHH,2006-05-26 01:00,ZHHH 260100Z AUTO 34006KT 2 1/2SM 22/19 A2985 RMK T02200190 IEM_DS3505
ZHHH,2006-05-26 03:00,ZHHH 260300Z AUTO 27004KT 9SM 24/17 RMK SLP111 T02390172 52006 IEM_DS3505
ZHHH,2006-05-26 04:00,ZHHH 260400Z AUTO 32006KT 7SM 26/19 A2985 RMK T02600190 IEM_DS3505
ZHHH,2006-05-26 05:00,ZHHH 260500Z AUTO 32008KT 7SM 26/19 A2983 RMK T02600190 IEM_DS3505
ZHHH,2006-05-26 06:00,ZHHH 260600Z AUTO 27004KT 9SM 26/16 A2980 RMK SLP093 T02620162 57018 IEM_DS3505
ZHHH,2006-05-26 07:00,ZHHH 260700Z AUTO 31010KT 6SM 27/20 A2980 RMK T02700200 IEM_DS3505
ZHHH,2006-05-26 08:00,ZHHH 260800Z AUTO 30008KT 6SM 27/20 A2980 RMK T02700200 IEM_DS3505
ZHHH,2006-05-26 09:00,ZHHH 260900Z AUTO 27006KT 7SM 27/17 A2977 RMK SLP082 T02680170 57011 IEM_DS3505
ZHHH,2006-05-26 10:00,ZHHH 261000Z AUTO 32006KT 7SM 26/20 A2980 RMK T02600200 IEM_DS3505
ZHHH,2006-05-26 11:00,ZHHH 261100Z AUTO 34004KT 6SM 25/20 A2980 RMK T02500200 IEM_DS3505
ZHHH,2006-05-26 12:00,ZHHH 261200Z AUTO 29002KT 9SM 25/18 A2983 RMK 60000 SLP098 T02540178 52016 IEM_DS3505
ZHHH,2006-05-26 13:00,ZHHH 261300Z AUTO 6SM 24/21 A2983 RMK T02400210 IEM_DS3505
ZHHH,2006-05-26 14:00,ZHHH 261400Z AUTO 18004KT 3SM 24/21 A2985 RMK T02400210 IEM_DS3505
ZHHH,2006-05-26 15:00,ZHHH 261500Z AUTO 18002KT 11SM 24/19 A2985 RMK SLP110 T02390190 52012 IEM_DS3505
ZHHH,2006-05-26 16:00,ZHHH 261600Z AUTO 25002KT 2SM 23/21 A2988 RMK T02300210 IEM_DS3505
ZHHH,2006-05-26 17:00,ZHHH 261700Z AUTO 23006KT 1 1/2SM 23/21 A2985 RMK T02300210 IEM_DS3505
ZHHH,2006-05-26 18:00,ZHHH 261800Z AUTO 27002KT 9SM 23/20 A2985 RMK SLP107 T02260198 57003 IEM_DS3505
ZHHH,2006-05-26 19:00,ZHHH 261900Z AUTO 25004KT 1 1/4SM 22/21 A2983 RMK T02200210 IEM_DS3505
ZHHH,2006-05-26 20:00,ZHHH 262000Z AUTO 25004KT 1 1/4SM 21/21 A2983 RMK T02100210 IEM_DS3505
ZHHH,2006-05-26 21:00,ZHHH 262100Z AUTO 27004KT 7SM 22/19 A2983 RMK 70000 SLP101 T02150191 57006 IEM_DS3505
ZHHH,2006-05-26 22:00,ZHHH 262200Z AUTO 28004KT 1SM 21/20 A2983 RMK T02100200 IEM_DS3505
ZHHH,2006-05-26 23:00,ZHHH 262300Z AUTO 28006KT 1SM 22/21 A2985 RMK T02200210 IEM_DS3505
ZHHH,2006-05-27 00:00,ZHHH 270000Z AUTO 27004KT 9SM 24/20 A2985 RMK 70000 SLP113 T02360195 52012 IEM_DS3505
ZHHH,2006-05-27 01:00,ZHHH 270100Z AUTO 31004KT 3SM 25/19 A2985 RMK T02500190 IEM_DS3505
ZHHH,2006-05-27 02:00,ZHHH 270200Z AUTO 31004KT 4SM 27/18 A2988 RMK T02700180 IEM_DS3505
ZHHH,2006-05-27 03:00,ZHHH 270300Z AUTO 32004KT 9SM 29/10 A2985 RMK SLP115 T02890101 52002 IEM_DS3505
ZHHH,2006-05-27 04:00,ZHHH 270400Z AUTO 32006KT 6SM 30/12 A2985 RMK T03000120 IEM_DS3505
ZHHH,2006-05-27 05:00,ZHHH 270500Z AUTO 29008KT 6SM 30/12 A2985 RMK T03000120 IEM_DS3505
ZHHH,2006-05-27 06:00,ZHHH 270600Z AUTO 29008KT 9SM 31/06 A2983 RMK SLP098 T03080060 57017 IEM_DS3505
ZHHH,2006-05-27 07:00,ZHHH 270700Z AUTO 31012KT 6SM 30/10 A2980 RMK T03000100 IEM_DS3505
ZHHH,2006-05-27 08:00,ZHHH 270800Z AUTO 30008KT 6SM 30/12 A2980 RMK T03000120 IEM_DS3505
ZHHH,2006-05-27 09:00,ZHHH 270900Z AUTO 29002KT 9SM 30/08 A2980 RMK SLP084 T02990083 57014 IEM_DS3505
ZHHH,2006-05-27 10:00,ZHHH 271000Z AUTO 30004KT 6SM 28/16 A2980 RMK T02800160 IEM_DS3505
ZHHH,2006-05-27 11:00,ZHHH 271100Z AUTO 30002KT 6SM 27/16 A2980 RMK T02700160 IEM_DS3505
ZHHH,2006-05-27 12:00,ZHHH 271200Z AUTO 27002KT 12SM 26/11 A2980 RMK SLP092 T02640110 52008 IEM_DS3505
ZHHH,2006-05-27 13:00,ZHHH 271300Z AUTO 4SM 26/16 A2983 RMK T02600160 IEM_DS3505
ZHHH,2006-05-27 14:00,ZHHH 271400Z AUTO 4SM 26/17 A2985 RMK T02600170 IEM_DS3505
ZHHH,2006-05-27 15:00,ZHHH 271500Z AUTO 27002KT 11SM 25/17 A2985 RMK SLP107 T02510168 52015 IEM_DS3505
ZHHH,2006-05-27 16:00,ZHHH 271600Z AUTO 24004KT 3SM 24/19 A2985 RMK T02400190 IEM_DS3505
ZHHH,2006-05-27 17:00,ZHHH 271700Z AUTO 22004KT 2 1/2SM 23/20 A2985 RMK T02300200 IEM_DS3505
ZHHH,2006-05-27 18:00,ZHHH 271800Z AUTO 29002KT 9SM 24/19 A2985 RMK SLP103 T02360189 57004 IEM_DS3505
ZHHH,2006-05-27 19:00,ZHHH 271900Z AUTO 08006KT 2SM 21/17 A2983 RMK T02100170 IEM_DS3505
ZHHH,2006-05-27 20:00,ZHHH 272000Z AUTO 08006KT 2 1/2SM 21/15 A2985 RMK T02100150 IEM_DS3505
ZHHH,2006-05-27 21:00,ZHHH 272100Z AUTO 07004KT 9SM 22/15 A2985 RMK SLP106 T02230154 52003 IEM_DS3505
ZHHH,2006-05-27 22:00,ZHHH 272200Z AUTO 04004KT 6SM 20/16 A2985 RMK T02000160 IEM_DS3505
ZHHH,2006-05-27 23:00,ZHHH 272300Z AUTO 11004KT 6SM 21/15 A2985 RMK T02100150 IEM_DS3505
ZHHH,2006-05-28 00:00,ZHHH 280000Z AUTO 07004KT 9SM 24/13 A2985 RMK SLP112 T02360129 52006 IEM_DS3505
ZHHH,2006-05-28 01:00,ZHHH 280100Z AUTO 11006KT 6SM 24/16 A2985 RMK T02400160 IEM_DS3505
ZHHH,2006-05-28 02:00,ZHHH 280200Z AUTO 12006KT 6SM 25/18 A2985 RMK T02500180 IEM_DS3505
ZHHH,2006-05-28 03:00,ZHHH 280300Z AUTO 22004KT 9SM 28/17 A2983 RMK SLP105 T02750168 57007 IEM_DS3505
ZHHH,2006-05-28 04:00,ZHHH 280400Z AUTO 27004KT 4SM 28/18 A2983 RMK T02800180 IEM_DS3505
ZHHH,2006-05-28 05:00,ZHHH 280500Z AUTO 28004KT 4SM 30/18 A2980 RMK T03000180 IEM_DS3505
ZHHH,2006-05-28 06:00,ZHHH 280600Z AUTO 25002KT 9SM 30/19 A2977 RMK SLP083 T03020186 57022 IEM_DS3505
ZHHH,2006-05-28 07:00,ZHHH 280700Z AUTO 2 1/2SM 30/21 A2977 RMK T03000210 IEM_DS3505
ZHHH,2006-05-28 08:00,ZHHH 280800Z AUTO 2 1/2SM 29/19 A2974 RMK T02900190 IEM_DS3505
ZHHH,2006-05-28 09:00,ZHHH 280900Z AUTO 22006KT 9SM 29/19 A2974 RMK SLP068 T02890190 57015 IEM_DS3505
ZHHH,2006-05-28 10:00,ZHHH 281000Z AUTO 24008KT 3SM 28/22 A2974 RMK T02800220 IEM_DS3505
ZHHH,2006-05-28 12:00,ZHHH 281200Z AUTO 22004KT 9SM 26/19 A2974 RMK SLP071 T02620186 52003 IEM_DS3505
ZHHH,2006-05-28 13:00,ZHHH 281300Z AUTO 23008KT 6SM 25/21 A2977 RMK T02500210 IEM_DS3505
ZHHH,2006-05-28 14:00,ZHHH 281400Z AUTO 21006KT 6SM 24/21 A2977 RMK T02400210 IEM_DS3505
ZHHH,2006-05-28 15:00,ZHHH 281500Z AUTO 22002KT 9SM 24/18 A2977 RMK SLP083 T02380185 52012 IEM_DS3505
ZHHH,2006-05-28 16:00,ZHHH 281600Z AUTO 22004KT 6SM 23/20 A2977 RMK T02300200 IEM_DS3505
ZHHH,2006-05-28 17:00,ZHHH 281700Z AUTO 24004KT 6SM 22/20 A2977 RMK T02200200 IEM_DS3505
ZHHH,2006-05-28 18:00,ZHHH 281800Z AUTO 22002KT 11SM 22/18 A2974 RMK SLP073 T02230185 57010 IEM_DS3505
ZHHH,2006-05-28 19:00,ZHHH 281900Z AUTO 26002KT 6SM 21/20 A2974 RMK T02100200 IEM_DS3505
ZHHH,2006-05-28 20:00,ZHHH 282000Z AUTO 24006KT 6SM 21/20 A2974 RMK T02100200 IEM_DS3505
ZHHH,2006-05-28 21:00,ZHHH 282100Z AUTO 23006KT 11SM 21/19 A2974 RMK SLP068 T02130187 57005 IEM_DS3505
ZHHH,2006-05-28 22:00,ZHHH 282200Z AUTO 00000KT 6SM 21/20 A2974 RMK T02100200 IEM_DS3505
ZHHH,2006-05-28 23:00,ZHHH 282300Z AUTO 15004KT 6SM 22/20 A2977 RMK T02200200 IEM_DS3505
ZHHH,2006-05-29 00:00,ZHHH 290000Z AUTO 20002KT 17SM 24/19 A2977 RMK SLP077 T02420186 52009 IEM_DS3505
ZHHH,2006-05-29 01:00,ZHHH 290100Z AUTO 21008KT 6SM 25/20 A2977 RMK T02500200 IEM_DS3505
ZHHH,2006-05-29 02:00,ZHHH 290200Z AUTO 22008KT 6SM 26/21 A2977 RMK T02600210 IEM_DS3505
ZHHH,2006-05-29 03:00,ZHHH 290300Z AUTO 20004KT 16SM 28/17 A2977 RMK SLP077 T02820174 54000 IEM_DS3505
ZHHH,2006-05-29 04:00,ZHHH 290400Z AUTO 22008KT 6SM 29/19 A2974 RMK T02900190 IEM_DS3505
ZHHH,2006-05-29 05:00,ZHHH 290500Z AUTO 23008KT 6SM 30/18 A2974 RMK T03000180 IEM_DS3505
ZHHH,2006-05-29 06:00,ZHHH 290600Z AUTO 20004KT 11SM 31/15 A2971 RMK SLP066 T03060151 57011 IEM_DS3505
ZHHH,2006-05-29 07:00,ZHHH 290700Z AUTO 23010KT 6SM 30/16 A2971 RMK T03000160 IEM_DS3505
ZHHH,2006-05-29 08:00,ZHHH 290800Z AUTO 24008KT 6SM 31/14 A2971 RMK T03100140 IEM_DS3505
ZHHH,2006-05-29 09:00,ZHHH 290900Z AUTO 27004KT 9SM 30/14 A2971 RMK SLP056 T03030136 57010 IEM_DS3505
ZHHH,2006-05-29 10:00,ZHHH 291000Z AUTO 22004KT 6SM 29/17 A2971 RMK T02900170 IEM_DS3505
ZHHH,2006-05-29 11:00,ZHHH 291100Z AUTO 22004KT 6SM 28/17 A2971 RMK T02800170 IEM_DS3505
ZHHH,2006-05-29 12:00,ZHHH 291200Z AUTO 22002KT 11SM 28/14 A2971 RMK SLP061 T02760135 52005 IEM_DS3505
ZHHH,2006-05-29 13:00,ZHHH 291300Z AUTO 18004KT 6SM 26/17 A2971 RMK T02600170 IEM_DS3505
ZHHH,2006-05-29 14:00,ZHHH 291400Z AUTO 19004KT 6SM 26/18 A2974 RMK T02600180 IEM_DS3505
ZHHH,2006-05-29 15:00,ZHHH 291500Z AUTO 25002KT 9SM 26/18 A2974 RMK SLP071 T02570184 52010 IEM_DS3505
ZHHH,2006-05-29 16:00,ZHHH 291600Z AUTO 19004KT 6SM 25/20 A2974 RMK T02500200 IEM_DS3505
ZHHH,2006-05-29 17:00,ZHHH 291700Z AUTO 21004KT 6SM 25/19 A2974 RMK T02500190 IEM_DS3505
ZHHH,2006-05-29 18:00,ZHHH 291800Z AUTO 11002KT 9SM 24/17 A2974 RMK SLP068 T02440174 57003 IEM_DS3505
ZHHH,2006-05-29 19:00,ZHHH 291900Z AUTO 07004KT 6SM 23/20 A2974 RMK T02300200 IEM_DS3505
ZHHH,2006-05-29 20:00,ZHHH 292000Z AUTO 09004KT 6SM 23/20 A2974 RMK T02300200 IEM_DS3505
ZHHH,2006-05-29 21:00,ZHHH 292100Z AUTO 11002KT 9SM 23/17 A2974 RMK SLP068 T02340167 54000 IEM_DS3505
ZHHH,2006-05-29 22:00,ZHHH 292200Z AUTO 11006KT 3SM 22/21 A2974 RMK T02200210 IEM_DS3505
ZHHH,2006-05-29 23:00,ZHHH 292300Z AUTO 13004KT 1SM 23/21 A2974 RMK T02300210 IEM_DS3505
ZHHH,2006-05-30 00:00,ZHHH 300000Z AUTO 14004KT 11SM 26/19 A2974 RMK SLP076 T02580194 52008 IEM_DS3505
ZHHH,2006-05-30 01:00,ZHHH 300100Z AUTO 13006KT 1 1/2SM 26/21 A2977 RMK T02600210 IEM_DS3505
ZHHH,2006-05-30 02:00,ZHHH 300200Z AUTO 12008KT 2SM 27/21 A2977 RMK T02700210 IEM_DS3505
ZHHH,2006-05-30 03:00,ZHHH 300300Z AUTO 09002KT 11SM 28/16 A2977 RMK SLP086 T02850161 52010 IEM_DS3505
ZHHH,2006-05-30 04:00,ZHHH 300400Z AUTO 20008KT 6SM 29/18 A2977 RMK T02900180 IEM_DS3505
ZHHH,2006-05-30 05:00,ZHHH 300500Z AUTO 21010KT 6SM 30/18 A2977 RMK T03000180 IEM_DS3505
ZHHH,2006-05-30 06:00,ZHHH 300600Z AUTO 22006KT 11SM 30/14 A2977 RMK SLP076 T03000145 57010 IEM_DS3505
ZHHH,2006-05-30 07:00,ZHHH 300700Z AUTO 22008KT 6SM 30/19 A2974 RMK T03000190 IEM_DS3505
ZHHH,2006-05-30 08:00,ZHHH 300800Z AUTO 23008KT 6SM 30/18 A2974 RMK T03000180 IEM_DS3505
ZHHH,2006-05-30 09:00,ZHHH 300900Z AUTO 25004KT 9SM 31/14 A2974 RMK SLP066 T03070135 57010 IEM_DS3505
ZHHH,2006-05-30 10:00,ZHHH 301000Z AUTO 20008KT 6SM 29/16 A2974 RMK T02900160 IEM_DS3505
ZHHH,2006-05-30 11:00,ZHHH 301100Z AUTO 20008KT 6SM 27/17 A2974 RMK T02700170 IEM_DS3505
ZHHH,2006-05-30 12:00,ZHHH 301200Z AUTO 22002KT 11SM 27/18 A2974 RMK SLP074 T02730180 52008 IEM_DS3505
ZHHH,2006-05-30 13:00,ZHHH 301300Z AUTO 23004KT 6SM 26/20 A2977 RMK T02600200 IEM_DS3505
ZHHH,2006-05-30 14:00,ZHHH 301400Z AUTO 00000KT 6SM 26/21 A2980 RMK T02600210 IEM_DS3505
ZHHH,2006-05-30 15:00,ZHHH 301500Z AUTO 22002KT 9SM 25/19 A2977 RMK SLP082 T02540188 52008 IEM_DS3505
ZHHH,2006-05-30 16:00,ZHHH 301600Z AUTO 23002KT 6SM 24/21 A2980 RMK T02400210 IEM_DS3505
ZHHH,2006-05-30 17:00,ZHHH 301700Z AUTO 30004KT 6SM 24/21 A2980 RMK T02400210 IEM_DS3505
ZHHH,2006-05-30 18:00,ZHHH 301800Z AUTO 29002KT 9SM 24/19 A2980 RMK SLP087 T02360189 52005 IEM_DS3505
ZHHH,2006-05-30 19:00,ZHHH 301900Z AUTO 24006KT 4SM 23/20 A2980 RMK T02300200 IEM_DS3505
ZHHH,2006-05-30 20:00,ZHHH 302000Z AUTO 24004KT 3SM 22/20 A2980 RMK T02200200 IEM_DS3505
ZHHH,2006-05-30 21:00,ZHHH 302100Z AUTO 27002KT 9SM 22/18 A2980 RMK SLP087 T02220184 54000 IEM_DS3505
ZHHH,2006-05-30 22:00,ZHHH 302200Z AUTO 30006KT 4SM 21/20 A2980 RMK T02100200 IEM_DS3505
ZHHH,2006-05-30 23:00,ZHHH 302300Z AUTO 4SM 22/20 A2983 RMK T02200200 IEM_DS3505
ZHHH,2006-05-31 00:00,ZHHH 310000Z AUTO 04004KT 7SM 24/19 A2983 RMK SLP095 T02410190 52008 IEM_DS3505
ZHHH,2006-05-31 01:00,ZHHH 310100Z AUTO 08006KT 4SM 25/21 A2983 RMK T02500210 IEM_DS3505
ZHHH,2006-05-31 02:00,ZHHH 310200Z AUTO 10006KT 4SM 26/21 A2980 RMK T02600210 IEM_DS3505
ZHHH,2006-05-31 03:00,ZHHH 310300Z AUTO 09004KT 7SM 27/19 A2980 RMK SLP089 T02700191 57006 IEM_DS3505
ZHHH,2006-05-31 04:00,ZHHH 310400Z AUTO 10008KT 4SM 28/20 A2980 RMK T02800200 IEM_DS3505
ZHHH,2006-05-31 05:00,ZHHH 310500Z AUTO 12008KT 7SM 28/19 A2977 RMK T02800190 IEM_DS3505
ZHHH,2006-05-31 06:00,ZHHH 310600Z AUTO 14004KT 9SM 29/16 A2977 RMK SLP080 T02880164 57009 IEM_DS3505
ZHHH,2006-05-31 07:00,ZHHH 310700Z AUTO 14006KT 7SM 28/19 A2977 RMK T02800190 IEM_DS3505
ZHHH,2006-05-31 08:00,ZHHH 310800Z AUTO 15008KT 7SM 28/20 A2977 RMK T02800200 IEM_DS3505
ZHHH,2006-05-31 09:00,ZHHH 310900Z AUTO 14004KT 7SM 28/17 A2977 RMK SLP077 T02780173 57003 IEM_DS3505
ZHHH,2006-05-31 10:00,ZHHH 311000Z AUTO 17008KT 6SM 26/20 A2977 RMK T02600200 IEM_DS3505
ZHHH,2006-05-31 11:00,ZHHH 311100Z AUTO 18006KT 6SM 26/20 A2977 RMK T02600200 IEM_DS3505
ZHHH,2006-05-31 12:00,ZHHH 311200Z AUTO 14002KT 11SM 25/16 A2980 RMK SLP090 T02540163 52013 IEM_DS3505
ZHHH,2006-05-31 13:00,ZHHH 311300Z AUTO 16006KT 6SM 24/19 A2980 RMK T02400190 IEM_DS3505
ZHHH,2006-05-31 14:00,ZHHH 311400Z AUTO 14006KT 6SM 24/19 A2983 RMK T02400190 IEM_DS3505
ZHHH,2006-05-31 15:00,ZHHH 311500Z AUTO 20002KT 9SM 24/18 A2980 RMK SLP095 T02360176 52005 IEM_DS3505
ZHHH,2006-05-31 16:00,ZHHH 311600Z AUTO 13004KT 6SM 23/19 A2980 RMK T02300190 IEM_DS3505
ZHHH,2006-05-31 17:00,ZHHH 311700Z AUTO 17004KT 6SM 22/19 A2980 RMK T02200190 IEM_DS3505
ZHHH,2006-05-31 18:00,ZHHH 311800Z AUTO 14002KT 12SM 22/18 A2980 RMK SLP085 T02230177 57010 IEM_DS3505
ZHHH,2006-05-31 19:00,ZHHH 311900Z AUTO 13002KT 6SM 22/19 A2977 RMK T02200190 IEM_DS3505
ZHHH,2006-05-31 20:00,ZHHH 312000Z AUTO 09004KT 6SM 21/19 A2980 RMK T02100190 IEM_DS3505
ZHHH,2006-05-31 21:00,ZHHH 312100Z AUTO 04002KT 11SM 22/18 A2980 RMK SLP088 T02170185 52003 IEM_DS3505
ZHHH,2006-05-31 22:00,ZHHH 312200Z AUTO 08004KT 4SM 20/19 A2980 RMK T02000190 IEM_DS3505
ZHHH,2006-05-31 23:00,ZHHH 312300Z AUTO 10006KT 4SM 22/20 A2980 RMK T02200200 IEM_DS3505
ZHHH,2006-06-01 00:00,ZHHH 010000Z AUTO 07002KT 11SM 24/18 A2983 RMK SLP095 T02400184 52007 IEM_DS3505
ZHHH,2006-06-01 01:00,ZHHH 010100Z AUTO 4SM 24/20 A2983 RMK T02400200 IEM_DS3505
ZHHH,2006-06-01 02:00,ZHHH 010200Z AUTO 6SM 26/21 A2983 RMK T02600210 IEM_DS3505
ZHHH,2006-06-01 03:00,ZHHH 010300Z AUTO 09004KT 11SM 28/18 A2980 RMK SLP089 T02810185 57006 IEM_DS3505
ZHHH,2006-06-01 04:00,ZHHH 010400Z AUTO 28004KT 6SM 28/20 A2980 RMK T02800200 IEM_DS3505
ZHHH,2006-06-01 05:00,ZHHH 010500Z AUTO 25004KT 6SM 29/21 A2977 RMK T02900210 IEM_DS3505
ZHHH,2006-06-01 06:00,ZHHH 010600Z AUTO 09006KT 9SM 30/18 A2977 RMK SLP076 T02980179 57013 IEM_DS3505
ZHHH,2006-06-01 07:00,ZHHH 010700Z AUTO 26004KT 7SM 30/21 A2974 RMK T03000210 IEM_DS3505
ZHHH,2006-06-01 08:00,ZHHH 010800Z AUTO 27004KT 7SM 30/21 A2974 RMK T03000210 IEM_DS3505
ZHHH,2006-06-01 09:00,ZHHH 010900Z AUTO 04004KT 9SM 31/17 A2974 RMK SLP066 T03060166 57010 IEM_DS3505
ZHHH,2006-06-01 10:00,ZHHH 011000Z AUTO 6SM 29/21 A2974 RMK T02900210 IEM_DS3505
ZHHH,2006-06-01 11:00,ZHHH 011100Z AUTO 23004KT 6SM 28/20 A2974 RMK T02800200 IEM_DS3505
ZHHH,2006-06-01 12:00,ZHHH 011200Z AUTO 22002KT 9SM 28/19 A2977 RMK SLP075 T02800192 52009 IEM_DS3505
ZHHH,2006-06-01 13:00,ZHHH 011300Z AUTO 6SM 27/21 A2977 RMK T02700210 IEM_DS3505
ZHHH,2006-06-01 14:00,ZHHH 011400Z AUTO 21004KT 4SM 27/22 A2980 RMK T02700220 IEM_DS3505
ZHHH,2006-06-01 15:00,ZHHH 011500Z AUTO 27002KT 9SM 26/20 A2980 RMK SLP090 T02630202 52015 IEM_DS3505
ZHHH,2006-06-01 16:00,ZHHH 011600Z AUTO 07008KT 3SM 25/22 A2980 RMK T02500220 IEM_DS3505
ZHHH,2006-06-01 17:00,ZHHH 011700Z AUTO 17006KT 3SM 24/22 A2980 RMK T02400220 IEM_DS3505
ZHHH,2006-06-01 18:00,ZHHH 011800Z AUTO 14002KT 11SM 25/20 A2980 RMK SLP090 T02480203 54000 IEM_DS3505
ZHHH,2006-06-01 19:00,ZHHH 011900Z AUTO 12006KT 4SM 24/21 A2980 RMK T02400210 IEM_DS3505
ZHHH,2006-06-01 20:00,ZHHH 012000Z AUTO 14008KT 4SM 23/20 A2980 RMK T02300200 IEM_DS3505
ZHHH,2006-06-01 21:00,ZHHH 012100Z AUTO 11004KT 9SM 24/18 A2983 RMK SLP095 T02400180 52005 IEM_DS3505
ZHHH,2006-06-01 22:00,ZHHH 012200Z AUTO 11006KT 4SM 22/20 A2983 RMK T02200200 IEM_DS3505
ZHHH,2006-06-01 23:00,ZHHH 012300Z AUTO 13008KT 4SM 23/20 A2985 RMK T02300200 IEM_DS3505
ZHHH,2006-06-02 00:00,ZHHH 020000Z AUTO 11004KT 9SM 25/18 A2985 RMK SLP110 T02510178 52015 IEM_DS3505
ZHHH,2006-06-02 01:00,ZHHH 020100Z AUTO 11010KT 6SM 25/20 A2985 RMK T02500200 IEM_DS3505
ZHHH,2006-06-02 02:00,ZHHH 020200Z AUTO 12012KT 6SM 26/21 A2985 RMK T02600210 IEM_DS3505
ZHHH,2006-06-02 03:00,ZHHH 020300Z AUTO 14004KT 9SM 28/17 A2985 RMK SLP105 T02850174 57005 IEM_DS3505
ZHHH,2006-06-02 04:00,ZHHH 020400Z AUTO 12010KT 6SM 28/20 A2983 RMK T02800200 IEM_DS3505
ZHHH,2006-06-02 05:00,ZHHH 020500Z AUTO 13008KT 6SM 29/21 A2983 RMK T02900210 IEM_DS3505
ZHHH,2006-06-02 06:00,ZHHH 020600Z AUTO 14004KT 11SM 30/18 A2980 RMK SLP092 T02980183 57013 IEM_DS3505
ZHHH,2006-06-02 07:00,ZHHH 020700Z AUTO 14008KT 6SM 31/21 A2980 RMK T03100210 IEM_DS3505
ZHHH,2006-06-02 08:00,ZHHH 020800Z AUTO 13008KT 6SM 30/19 A2977 RMK T03000190 IEM_DS3505
ZHHH,2006-06-02 09:00,ZHHH 020900Z AUTO 14004KT 9SM 30/17 A2977 RMK SLP078 T03000171 57014 IEM_DS3505
ZHHH,2006-06-02 10:00,ZHHH 021000Z AUTO 15008KT 6SM 29/18 A2977 RMK T02900180 IEM_DS3505
ZHHH,2006-06-02 11:00,ZHHH 021100Z AUTO 16006KT 6SM 28/19 A2977 RMK T02800190 IEM_DS3505
ZHHH,2006-06-02 12:00,ZHHH 021200Z AUTO 09002KT 11SM 28/15 A2977 RMK SLP077 T02800146 57001 IEM_DS3505
ZHHH,2006-06-02 13:00,ZHHH 021300Z AUTO 14006KT 6SM 26/19 A2977 RMK T02600190 IEM_DS3505
ZHHH,2006-06-02 14:00,ZHHH 021400Z AUTO 14006KT 6SM 26/18 A2980 RMK T02600180 IEM_DS3505
ZHHH,2006-06-02 15:00,ZHHH 021500Z AUTO 11004KT 7SM 27/16 A2980 RMK SLP090 T02670157 52013 IEM_DS3505
ZHHH,2006-06-02 16:00,ZHHH 021600Z AUTO 14008KT 6SM 25/20 A2980 RMK T02500200 IEM_DS3505
ZHHH,2006-06-02 17:00,ZHHH 021700Z AUTO 14008KT 6SM 25/20 A2977 RMK T02500200 IEM_DS3505
ZHHH,2006-06-02 18:00,ZHHH 021800Z AUTO 11006KT 9SM 26/17 A2977 RMK SLP074 T02610166 57016 IEM_DS3505
ZHHH,2006-06-02 20:00,ZHHH 022000Z AUTO 13006KT 7SM 24/19 A2974 RMK T02400190 IEM_DS3505
ZHHH,2006-06-02 21:00,ZHHH 022100Z AUTO 11004KT 7SM 25/16 A2977 RMK 70000 SLP073 T02460155 57001 IEM_DS3505
ZHHH,2006-06-02 22:00,ZHHH 022200Z AUTO 10008KT 6SM 23/19 A2977 RMK T02300190 IEM_DS3505
ZHHH,2006-06-02 23:00,ZHHH 022300Z AUTO 11008KT 6SM 23/19 A2977 RMK T02300190 IEM_DS3505
ZHHH,2006-06-03 00:00,ZHHH 030000Z AUTO 11004KT 9SM 24/18 A2980 RMK 60002 70002 SLP087 T02360176 52014 IEM_DS3505
ZHHH,2006-06-03 01:00,ZHHH 030100Z AUTO 11006KT 4SM 23/20 A2980 RMK T02300200 IEM_DS3505
ZHHH,2006-06-03 02:00,ZHHH 030200Z AUTO 14006KT 3SM 23/20 A2980 RMK T02300200 IEM_DS3505
ZHHH,2006-06-03 03:00,ZHHH 030300Z AUTO 07002KT 9SM 23/16 A2983 RMK SLP096 T02310162 52009 IEM_DS3505
ZHHH,2006-06-03 04:00,ZHHH 030400Z AUTO 16010KT 7SM 21/19 A2983 RMK T02100190 IEM_DS3505
ZHHH,2006-06-03 05:00,ZHHH 030500Z AUTO 15010KT 7SM 22/18 A2980 RMK T02200180 IEM_DS3505
ZHHH,2006-06-03 06:00,ZHHH 030600Z AUTO 11006KT 9SM 23/16 A2980 RMK 60004 SLP088 T02270165 57008 IEM_DS3505
ZHHH,2006-06-03 07:00,ZHHH 030700Z AUTO 14010KT 7SM 22/18 A2977 RMK T02200180 IEM_DS3505
ZHHH,2006-06-03 08:00,ZHHH 030800Z AUTO 14008KT 7SM 20/18 A2980 RMK T02000180 IEM_DS3505
ZHHH,2006-06-03 09:00,ZHHH 030900Z AUTO 09004KT 7SM 20/17 A2977 RMK SLP080 T02050171 57008 IEM_DS3505
ZHHH,2006-06-03 10:00,ZHHH 031000Z AUTO 11006KT 7SM 20/19 A2977 RMK T02000190 IEM_DS3505
ZHHH,2006-06-03 11:00,ZHHH 031100Z AUTO 10008KT 7SM 20/18 A2977 RMK T02000180 IEM_DS3505
ZHHH,2006-06-03 12:00,ZHHH 031200Z AUTO 11004KT 12SM 20/17 A2977 RMK 60004 SLP080 T02000168 54000 IEM_DS3505
ZHHH,2006-06-03 13:00,ZHHH 031300Z AUTO 09006KT 7SM 19/18 A2980 RMK T01900180 IEM_DS3505
ZHHH,2006-06-03 14:00,ZHHH 031400Z AUTO 13004KT 7SM 19/19 A2977 RMK T01900190 IEM_DS3505
ZHHH,2006-06-03 15:00,ZHHH 031500Z AUTO 09004KT 11SM 20/17 A2977 RMK SLP077 T02010171 57003 IEM_DS3505
ZHHH,2006-06-03 16:00,ZHHH 031600Z AUTO 13004KT 4SM 20/19 A2977 RMK T02000190 IEM_DS3505
ZHHH,2006-06-03 17:00,ZHHH 031700Z AUTO 10004KT 4SM 19/18 A2974 RMK T01900180 IEM_DS3505
ZHHH,2006-06-03 18:00,ZHHH 031800Z AUTO 04002KT 6SM 20/18 A2974 RMK 60004 SLP069 T01970175 57008 IEM_DS3505
ZHHH,2006-06-03 19:00,ZHHH 031900Z AUTO 02004KT 6SM 19/19 A2971 RMK T01900190 IEM_DS3505
ZHHH,2006-06-03 20:00,ZHHH 032000Z AUTO 36004KT 4SM 19/19 A2971 RMK T01900190 IEM_DS3505
ZHHH,2006-06-03 21:00,ZHHH 032100Z AUTO 02002KT 7SM 20/18 A2971 RMK 70015 SLP066 T02000180 57003 IEM_DS3505
ZHHH,2006-06-03 22:00,ZHHH 032200Z AUTO 00000KT 4SM 20/19 A2971 RMK T02000190 IEM_DS3505
ZHHH,2006-06-03 23:00,ZHHH 032300Z AUTO 33004KT 4SM 20/20 A2974 RMK T02000200 IEM_DS3505
ZHHH,2006-06-04 00:00,ZHHH 040000Z AUTO 32002KT 9SM 21/18 A2971 RMK 60000 70013 SLP067 T02140180 52001 IEM_DS3505
ZHHH,2006-06-04 01:00,ZHHH 040100Z AUTO 34004KT 3SM 22/20 A2971 RMK T02200200 IEM_DS3505
ZHHH,2006-06-04 02:00,ZHHH 040200Z AUTO 35006KT 3SM 24/21 A2971 RMK T02400210 IEM_DS3505
ZHHH,2006-06-04 03:00,ZHHH 040300Z AUTO 02002KT 9SM 24/19 A2971 RMK SLP061 T02410190 57006 IEM_DS3505
ZHHH,2006-06-04 04:00,ZHHH 040400Z AUTO 08004KT 3SM 24/20 A2971 RMK T02400200 IEM_DS3505
ZHHH,2006-06-04 05:00,ZHHH 040500Z AUTO 11004KT 3SM 25/21 A2968 RMK T02500210 IEM_DS3505
ZHHH,2006-06-04 06:00,ZHHH 040600Z AUTO 14004KT 9SM 24/19 A2968 RMK SLP049 T02380193 57012 IEM_DS3505
ZHHH,2006-06-04 07:00,ZHHH 040700Z AUTO 14006KT 4SM 24/21 A2968 RMK T02400210 IEM_DS3505
ZHHH,2006-06-04 08:00,ZHHH 040800Z AUTO 12006KT 4SM 23/21 A2965 RMK T02300210 IEM_DS3505
ZHHH,2006-06-04 09:00,ZHHH 040900Z AUTO 18002KT 9SM 24/19 A2965 RMK SLP041 T02370186 57008 IEM_DS3505
ZHHH,2006-06-04 10:00,ZHHH 041000Z AUTO 16006KT 1 1/4SM 23/21 A2965 RMK T02300210 IEM_DS3505
ZHHH,2006-06-04 11:00,ZHHH 041100Z AUTO 16006KT 1 1/4SM 23/21 A2965 RMK T02300210 IEM_DS3505
ZHHH,2006-06-04 12:00,ZHHH 041200Z AUTO 20004KT 9SM 23/19 A2968 RMK SLP046 T02300194 52005 IEM_DS3505
ZHHH,2006-06-04 13:00,ZHHH 041300Z AUTO 20004KT 2SM 22/20 A2968 RMK T02200200 IEM_DS3505
ZHHH,2006-06-04 14:00,ZHHH 041400Z AUTO 2SM 22/21 A2968 RMK T02200210 IEM_DS3505
ZHHH,2006-06-04 15:00,ZHHH 041500Z AUTO 18002KT 9SM 23/20 A2968 RMK SLP053 T02270195 52007 IEM_DS3505
ZHHH,2006-06-04 16:00,ZHHH 041600Z AUTO 21004KT 1 1/4SM 22/21 A2968 RMK T02200210 IEM_DS3505
ZHHH,2006-06-04 17:00,ZHHH 041700Z AUTO 1SM 22/21 A2968 RMK T02200210 IEM_DS3505
ZHHH,2006-06-04 18:00,ZHHH 041800Z AUTO 00000KT 11SM 22/19 RMK SLP047 T02220192 57006 IEM_DS3505
ZHHH,2006-06-04 19:00,ZHHH 041900Z AUTO 00000KT 1 1/4SM 22/20 A2965 RMK T02200200 IEM_DS3505
ZHHH,2006-06-04 20:00,ZHHH 042000Z AUTO 00000KT 1 1/4SM 22/21 A2965 RMK T02200210 IEM_DS3505
ZHHH,2006-06-04 21:00,ZHHH 042100Z AUTO 09002KT 9SM 22/19 A2965 RMK SLP045 T02200194 57002 IEM_DS3505
ZHHH,2006-06-04 22:00,ZHHH 042200Z AUTO 09004KT 1SM 21/21 A2968 RMK T02100210 IEM_DS3505
ZHHH,2006-06-04 23:00,ZHHH 042300Z AUTO 09004KT 1SM 22/21 A2968 RMK T02200210 IEM_DS3505
ZHHH,2006-06-05 00:00,ZHHH 050000Z AUTO 07002KT 7SM 23/19 A2968 RMK SLP053 T02310193 52008 IEM_DS3505
ZHHH,2006-06-05 01:00,ZHHH 050100Z AUTO 05004KT 1 1/4SM 23/21 A2971 RMK T02300210 IEM_DS3505
ZHHH,2006-06-05 02:00,ZHHH 050200Z AUTO 10004KT 1 1/4SM 22/21 A2968 RMK T02200210 IEM_DS3505
ZHHH,2006-06-05 03:00,ZHHH 050300Z AUTO 07002KT 9SM 23/18 A2968 RMK SLP051 T02320185 57002 IEM_DS3505
ZHHH,2006-06-05 04:00,ZHHH 050400Z AUTO 21004KT 2SM 25/21 A2968 RMK T02500210 IEM_DS3505
ZHHH,2006-06-05 05:00,ZHHH 050500Z AUTO 3SM 26/20 A2965 RMK T02600200 IEM_DS3505
ZHHH,2006-06-05 06:00,ZHHH 050600Z AUTO 29002KT 9SM 24/19 A2965 RMK 60000 SLP042 T02420191 57009 IEM_DS3505
ZHHH,2006-06-05 07:00,ZHHH 050700Z AUTO 26004KT 6SM 24/20 A2965 RMK T02400200 IEM_DS3505
ZHHH,2006-06-05 08:00,ZHHH 050800Z AUTO 22002KT 6SM 24/20 A2962 RMK T02400200 IEM_DS3505
ZHHH,2006-06-05 09:00,ZHHH 050900Z AUTO 21004KT 7SM 25/18 A2962 RMK SLP031 T02470184 57011 IEM_DS3505
ZHHH,2006-06-05 10:00,ZHHH 051000Z AUTO 17002KT 4SM 24/20 A2962 RMK T02400200 IEM_DS3505
ZHHH,2006-06-05 11:00,ZHHH 051100Z AUTO 12002KT 3SM 24/21 A2965 RMK T02400210 IEM_DS3505
ZHHH,2006-06-05 12:00,ZHHH 051200Z AUTO 00000KT 9SM 24/18 A2965 RMK 60000 SLP040 T02360185 52009 IEM_DS3505
ZHHH,2006-06-05 13:00,ZHHH 051300Z AUTO 00000KT 3SM 23/21 A2968 RMK T02300210 IEM_DS3505
ZHHH,2006-06-05 14:00,ZHHH 051400Z AUTO 11004KT 2 1/2SM 23/21 A2968 RMK T02300210 IEM_DS3505
ZHHH,2006-06-05 15:00,ZHHH 051500Z AUTO 02002KT 9SM 23/19 A2968 RMK SLP052 T02290191 52012 IEM_DS3505
ZHHH,2006-06-05 16:00,ZHHH 051600Z AUTO 10004KT 1 1/2SM 23/21 A2968 RMK T02300210 IEM_DS3505
ZHHH,2006-06-05 17:00,ZHHH 051700Z AUTO 06006KT 1 1/2SM 22/21 A2965 RMK T02200210 IEM_DS3505
ZHHH,2006-06-05 18:00,ZHHH 051800Z AUTO 09002KT 9SM 23/19 A2965 RMK SLP042 T02290193 57010 IEM_DS3505
ZHHH,2006-06-05 19:00,ZHHH 051900Z AUTO 07008KT 2SM 21/20 A2965 RMK T02100200 IEM_DS3505
ZHHH,2006-06-05 20:00,ZHHH 052000Z AUTO 07006KT 1 1/2SM 21/20 A2965 RMK T02100200 IEM_DS3505
ZHHH,2006-06-05 21:00,ZHHH 052100Z AUTO 09002KT 9SM 22/20 A2965 RMK 70000 SLP041 T02230202 57001 IEM_DS3505
ZHHH,2006-06-05 22:00,ZHHH 052200Z AUTO 07006KT 1 1/4SM 20/20 A2968 RMK T02000200 IEM_DS3505
ZHHH,2006-06-05 23:00,ZHHH 052300Z AUTO 08006KT 1 1/4SM 21/20 A2968 RMK T02100200 IEM_DS3505
ZHHH,2006-06-06 00:00,ZHHH 060000Z AUTO 02004KT 9SM 24/20 A2968 RMK 70000 SLP053 T02360205 52012 IEM_DS3505
ZHHH,2006-06-06 01:00,ZHHH 060100Z AUTO 02004KT 5SM 25/21 A2971 RMK T02500210 IEM_DS3505
ZHHH,2006-06-06 02:00,ZHHH 060200Z AUTO 06004KT 7SM 27/21 A2971 RMK T02700210 IEM_DS3505
ZHHH,2006-06-06 03:00,ZHHH 060300Z AUTO 02002KT 9SM 26/19 A2971 RMK SLP055 T02620191 52002 IEM_DS3505
ZHHH,2006-06-06 04:00,ZHHH 060400Z AUTO 7SM 26/21 A2968 RMK T02600210 IEM_DS3505
ZHHH,2006-06-06 05:00,ZHHH 060500Z AUTO 4SM 28/22 A2965 RMK T02800220 IEM_DS3505
ZHHH,2006-06-06 06:00,ZHHH 060600Z AUTO 07002KT 9SM 27/18 A2965 RMK SLP041 T02740184 57014 IEM_DS3505
ZHHH,2006-06-06 07:00,ZHHH 060700Z AUTO 30004KT 4SM 28/22 A2965 RMK T02800220 IEM_DS3505
ZHHH,2006-06-06 08:00,ZHHH 060800Z AUTO 27004KT 7SM 27/21 A2965 RMK T02700210 IEM_DS3505
ZHHH,2006-06-06 09:00,ZHHH 060900Z AUTO 29002KT 7SM 27/19 A2962 RMK SLP032 T02690190 57009 IEM_DS3505
ZHHH,2006-06-06 10:00,ZHHH 061000Z AUTO 6SM 27/21 A2962 RMK T02700210 IEM_DS3505
ZHHH,2006-06-06 11:00,ZHHH 061100Z AUTO 24002KT 6SM 26/21 A2965 RMK T02600210 IEM_DS3505
ZHHH,2006-06-06 12:00,ZHHH 061200Z AUTO 25002KT 9SM 26/20 A2965 RMK SLP039 T02560197 52007 IEM_DS3505
ZHHH,2006-06-06 13:00,ZHHH 061300Z AUTO 23004KT 6SM 25/22 A2965 RMK T02500220 IEM_DS3505
ZHHH,2006-06-06 14:00,ZHHH 061400Z AUTO 24004KT 6SM 25/22 A2965 RMK T02500220 IEM_DS3505
ZHHH,2006-06-06 15:00,ZHHH 061500Z AUTO 27002KT 9SM 25/20 A2965 RMK SLP041 T02500198 52002 IEM_DS3505
ZHHH,2006-06-06 16:00,ZHHH 061600Z AUTO 25004KT 4SM 24/22 A2965 RMK T02400220 IEM_DS3505
ZHHH,2006-06-06 17:00,ZHHH 061700Z AUTO 3SM 24/22 A2965 RMK T02400220 IEM_DS3505
ZHHH,2006-06-06 18:00,ZHHH 061800Z AUTO 25002KT 9SM 24/20 A2962 RMK SLP029 T02410204 57012 IEM_DS3505
ZHHH,2006-06-06 19:00,ZHHH 061900Z AUTO 1 1/4SM 23/22 A2962 RMK T02300220 IEM_DS3505
ZHHH,2006-06-06 20:00,ZHHH 062000Z AUTO 24002KT 1 1/4SM 23/22 A2962 RMK T02300220 IEM_DS3505
ZHHH,2006-06-06 21:00,ZHHH 062100Z AUTO 23004KT 9SM 24/20 A2962 RMK SLP029 T02360203 54000 IEM_DS3505
ZHHH,2006-06-06 22:00,ZHHH 062200Z AUTO 24004KT 1SM 23/22 A2962 RMK T02300220 IEM_DS3505
ZHHH,2006-06-06 23:00,ZHHH 062300Z AUTO 27004KT 1SM 24/22 A2962 RMK T02400220 IEM_DS3505
ZHHH,2006-06-07 00:00,ZHHH 070000Z AUTO 27004KT 6SM 25/20 A2962 RMK SLP035 T02510204 52006 IEM_DS3505
ZHHH,2006-06-07 01:00,ZHHH 070100Z AUTO 29004KT 1SM 26/23 A2962 RMK T02600230 IEM_DS3505
ZHHH,2006-06-07 02:00,ZHHH 070200Z AUTO 29004KT 1 1/2SM 28/23 A2962 RMK T02800230 IEM_DS3505
ZHHH,2006-06-07 03:00,ZHHH 070300Z AUTO 29004KT 7SM 29/19 A2962 RMK SLP031 T02870191 57004 IEM_DS3505
ZHHH,2006-06-07 04:00,ZHHH 070400Z AUTO 29004KT 3SM 29/22 A2962 RMK T02900220 IEM_DS3505
ZHHH,2006-06-07 05:00,ZHHH 070500Z AUTO 29006KT 3SM 30/22 A2959 RMK T03000220 IEM_DS3505
ZHHH,2006-06-07 06:00,ZHHH 070600Z AUTO 25004KT 9SM 30/19 A2956 RMK SLP013 T03050189 57018 IEM_DS3505
ZHHH,2006-06-07 07:00,ZHHH 070700Z AUTO 28006KT 3SM 31/22 A2956 RMK T03100220 IEM_DS3505
ZHHH,2006-06-07 08:00,ZHHH 070800Z AUTO 26004KT 4SM 31/21 A2953 RMK T03100210 IEM_DS3505
ZHHH,2006-06-07 09:00,ZHHH 070900Z AUTO 25002KT 9SM 31/19 A2953 RMK SLP000 T03120192 57012 IEM_DS3505
ZHHH,2006-06-07 10:00,ZHHH 071000Z AUTO 28006KT 6SM 31/21 A2953 RMK T03100210 IEM_DS3505
ZHHH,2006-06-07 11:00,ZHHH 071100Z AUTO 24004KT 6SM 29/22 A2956 RMK T02900220 IEM_DS3505
ZHHH,2006-06-07 12:00,ZHHH 071200Z AUTO 27002KT 9SM 28/21 A2956 RMK SLP014 T02810212 52013 IEM_DS3505
ZHHH,2006-06-07 13:00,ZHHH 071300Z AUTO 22006KT 3SM 27/24 A2959 RMK T02700240 IEM_DS3505
ZHHH,2006-06-07 14:00,ZHHH 071400Z AUTO 23006KT 2SM 26/24 A2959 RMK T02600240 IEM_DS3505
ZHHH,2006-06-07 15:00,ZHHH 071500Z AUTO 27002KT 9SM 26/22 A2962 RMK SLP027 T02630219 52013 IEM_DS3505
ZHHH,2006-06-07 16:00,ZHHH 071600Z AUTO 25006KT 1 1/2SM 26/23 A2959 RMK T02600230 IEM_DS3505
ZHHH,2006-06-07 17:00,ZHHH 071700Z AUTO 24006KT 2SM 25/23 A2959 RMK T02500230 IEM_DS3505
ZHHH,2006-06-07 18:00,ZHHH 071800Z AUTO 25002KT 7SM 25/22 A2959 RMK SLP015 T02540215 57011 IEM_DS3505
ZHHH,2006-06-07 19:00,ZHHH 071900Z AUTO 24004KT 1 1/4SM 24/23 A2956 RMK T02400230 IEM_DS3505
ZHHH,2006-06-07 20:00,ZHHH 072000Z AUTO 24004KT 1 1/4SM 24/23 A2956 RMK T02400230 IEM_DS3505
ZHHH,2006-06-07 21:00,ZHHH 072100Z AUTO 22002KT 7SM 24/21 A2956 RMK SLP012 T02440213 57003 IEM_DS3505
ZHHH,2006-06-07 22:00,ZHHH 072200Z AUTO 25004KT 1SM 24/23 A2956 RMK T02400230 IEM_DS3505
ZHHH,2006-06-07 23:00,ZHHH 072300Z AUTO 25004KT 1SM 24/23 A2959 RMK T02400230 IEM_DS3505
ZHHH,2006-06-08 00:00,ZHHH 080000Z AUTO 25002KT 7SM 26/22 A2959 RMK SLP022 T02560217 52009 IEM_DS3505
ZHHH,2006-06-08 01:00,ZHHH 080100Z AUTO 24006KT 1 1/2SM 26/24 A2959 RMK T02600240 IEM_DS3505
ZHHH,2006-06-08 02:00,ZHHH 080200Z AUTO 28006KT 1 1/2SM 26/24 A2959 RMK T02600240 IEM_DS3505
ZHHH,2006-06-08 03:00,ZHHH 080300Z AUTO 29004KT 7SM 28/22 A2959 RMK SLP018 T02800215 57004 IEM_DS3505
ZHHH,2006-06-08 04:00,ZHHH 080400Z AUTO 29004KT 1 1/2SM 27/24 A2956 RMK T02700240 IEM_DS3505
ZHHH,2006-06-08 05:00,ZHHH 080500Z AUTO 31006KT 1 1/2SM 27/24 A2956 RMK T02700240 IEM_DS3505
ZHHH,2006-06-08 06:00,ZHHH 080600Z AUTO 29002KT 7SM 28/21 A2956 RMK SLP001 T02850210 57017 IEM_DS3505
ZHHH,2006-06-08 07:00,ZHHH 080700Z AUTO 31006KT 1 1/4SM 28/24 A2953 RMK T02800240 IEM_DS3505
ZHHH,2006-06-08 08:00,ZHHH 080800Z AUTO 27006KT 1 1/2SM 28/25 A2950 RMK T02800250 IEM_DS3505
ZHHH,2006-06-08 09:00,ZHHH 080900Z AUTO 27002KT 9SM 30/21 A2950 RMK SLP987 T02980206 57013 IEM_DS3505
ZHHH,2006-06-08 10:00,ZHHH 081000Z AUTO 24004KT 1 1/4SM 29/25 A2950 RMK T02900250 IEM_DS3505
ZHHH,2006-06-08 11:00,ZHHH 081100Z AUTO 22006KT 1SM 28/24 A2950 RMK T02800240 IEM_DS3505
ZHHH,2006-06-08 12:00,ZHHH 081200Z AUTO 25002KT 7SM 27/22 A2950 RMK SLP995 T02730220 52007 IEM_DS3505
ZHHH,2006-06-08 13:00,ZHHH 081300Z AUTO 20004KT 1SM 26/23 A2953 RMK T02600230 IEM_DS3505
ZHHH,2006-06-08 14:00,ZHHH 081400Z AUTO 21004KT 1SM 25/23 A2953 RMK T02500230 IEM_DS3505
ZHHH,2006-06-08 15:00,ZHHH 081500Z AUTO 25002KT 7SM 26/22 RMK SLP004 T02560219 52009 IEM_DS3505
ZHHH,2006-06-08 16:00,ZHHH 081600Z AUTO 25004KT 1SM 25/23 A2953 RMK T02500230 IEM_DS3505
ZHHH,2006-06-08 17:00,ZHHH 081700Z AUTO 06004KT 1SM 24/23 A2956 RMK T02400230 IEM_DS3505
ZHHH,2006-06-08 18:00,ZHHH 081800Z AUTO 08002KT 9SM 24/22 A2953 RMK SLP000 T02360219 57004 IEM_DS3505
ZHHH,2006-06-08 19:00,ZHHH 081900Z AUTO 18002KT 1SM 23/22 A2953 RMK T02300220 IEM_DS3505
ZHHH,2006-06-08 20:00,ZHHH 082000Z AUTO 21004KT 1SM 23/23 A2950 RMK T02300230 IEM_DS3505
ZHHH,2006-06-08 21:00,ZHHH 082100Z AUTO 22002KT 9SM 24/22 A2950 RMK SLP994 T02360219 57006 IEM_DS3505
ZHHH,2006-06-08 22:00,ZHHH 082200Z AUTO 22006KT 1SM 23/22 A2950 RMK T02300220 IEM_DS3505
ZHHH,2006-06-08 23:00,ZHHH 082300Z AUTO 22004KT 1SM 24/23 A2950 RMK T02400230 IEM_DS3505
ZHHH,2006-06-09 00:00,ZHHH 090000Z AUTO 20004KT 9SM 26/23 A2953 RMK SLP996 T02570230 52002 IEM_DS3505
ZHHH,2006-06-09 01:00,ZHHH 090100Z AUTO 22006KT 1SM 27/24 A2953 RMK T02700240 IEM_DS3505
ZHHH,2006-06-09 02:00,ZHHH 090200Z AUTO 23008KT 1SM 28/24 A2950 RMK T02800240 IEM_DS3505
ZHHH,2006-06-09 03:00,ZHHH 090300Z AUTO 18004KT 9SM 29/23 A2950 RMK SLP988 T02930228 57007 IEM_DS3505
ZHHH,2006-06-09 04:00,ZHHH 090400Z AUTO 23010KT 2 1/2SM 30/24 A2947 RMK T03000240 IEM_DS3505
ZHHH,2006-06-09 05:00,ZHHH 090500Z AUTO 25006KT 2 1/2SM 31/24 A2947 RMK T03100240 IEM_DS3505
ZHHH,2006-06-09 06:00,ZHHH 090600Z AUTO 25004KT 7SM 31/22 A2944 RMK SLP970 T03140216 57018 IEM_DS3505
ZHHH,2006-06-09 07:00,ZHHH 090700Z AUTO 24008KT 3SM 31/23 A2944 RMK T03100230 IEM_DS3505
ZHHH,2006-06-09 08:00,ZHHH 090800Z AUTO 24008KT 4SM 32/23 A2944 RMK T03200230 IEM_DS3505
ZHHH,2006-06-09 09:00,ZHHH 090900Z AUTO 22004KT 7SM 31/22 A2941 RMK SLP962 T03110221 57008 IEM_DS3505
ZHHH,2006-06-09 10:00,ZHHH 091000Z AUTO 23006KT 3SM 30/25 A2941 RMK T03000250 IEM_DS3505
ZHHH,2006-06-09 11:00,ZHHH 091100Z AUTO 23008KT 3SM 29/24 A2944 RMK T02900240 IEM_DS3505
ZHHH,2006-06-09 12:00,ZHHH 091200Z AUTO 25002KT 9SM 28/22 A2944 RMK SLP974 T02790222 52012 IEM_DS3505
ZHHH,2006-06-09 13:00,ZHHH 091300Z AUTO 22004KT 2SM 26/24 A2947 RMK T02600240 IEM_DS3505
ZHHH,2006-06-09 14:00,ZHHH 091400Z AUTO 21006KT 2SM 26/24 A2947 RMK T02600240 IEM_DS3505
ZHHH,2006-06-09 15:00,ZHHH 091500Z AUTO 27002KT 9SM 26/22 A2947 RMK SLP983 T02640216 52009 IEM_DS3505
ZHHH,2006-06-09 17:00,ZHHH 091700Z AUTO 24004KT 1 1/2SM 25/24 A2944 RMK T02500240 IEM_DS3505
ZHHH,2006-06-09 18:00,ZHHH 091800Z AUTO 27002KT 9SM 26/22 A2944 RMK SLP966 T02590220 57017 IEM_DS3505
ZHHH,2006-06-09 19:00,ZHHH 091900Z AUTO 25004KT 1 1/2SM 25/23 A2944 RMK T02500230 IEM_DS3505
ZHHH,2006-06-09 20:00,ZHHH 092000Z AUTO 25006KT 1 1/2SM 25/23 A2944 RMK T02500230 IEM_DS3505
ZHHH,2006-06-09 21:00,ZHHH 092100Z AUTO 25004KT 9SM 26/22 A2944 RMK SLP965 T02550216 57001 IEM_DS3505
ZHHH,2006-06-09 22:00,ZHHH 092200Z AUTO 27004KT 1 1/2SM 24/23 A2947 RMK T02400230 IEM_DS3505
ZHHH,2006-06-09 23:00,ZHHH 092300Z AUTO 00000KT 1 1/2SM 24/23 A2950 RMK T02400230 IEM_DS3505
ZHHH,2006-06-10 00:00,ZHHH 100000Z AUTO 27006KT 9SM 27/21 A2950 RMK SLP992 T02670208 52027 IEM_DS3505
ZHHH,2006-06-10 01:00,ZHHH 100100Z AUTO 28004KT 2SM 27/24 A2953 RMK T02700240 IEM_DS3505
ZHHH,2006-06-10 02:00,ZHHH 100200Z AUTO 36006KT 2SM 28/24 A2953 RMK T02800240 IEM_DS3505
ZHHH,2006-06-10 03:00,ZHHH 100300Z AUTO 04006KT 9SM 29/21 A2956 RMK SLP006 T02940211 52014 IEM_DS3505
ZHHH,2006-06-10 04:00,ZHHH 100400Z AUTO 04010KT 6SM 30/15 A2956 RMK T03000150 IEM_DS3505
ZHHH,2006-06-10 05:00,ZHHH 100500Z AUTO 04010KT 6SM 31/15 A2956 RMK T03100150 IEM_DS3505
ZHHH,2006-06-10 06:00,ZHHH 100600Z AUTO 22004KT 9SM 32/11 A2953 RMK SLP002 T03210108 57004 IEM_DS3505
ZHHH,2006-06-10 07:00,ZHHH 100700Z AUTO 6SM 32/15 A2953 RMK T03200150 IEM_DS3505
ZHHH,2006-06-10 08:00,ZHHH 100800Z AUTO 01006KT 6SM 33/12 A2953 RMK T03300120 IEM_DS3505
ZHHH,2006-06-10 09:00,ZHHH 100900Z AUTO 36004KT 9SM 33/08 A2953 RMK SLP995 T03260081 57007 IEM_DS3505
ZHHH,2006-06-10 10:00,ZHHH 101000Z AUTO 06010KT 6SM 30/15 A2953 RMK T03000150 IEM_DS3505
ZHHH,2006-06-10 11:00,ZHHH 101100Z AUTO 08008KT 6SM 29/15 A2956 RMK T02900150 IEM_DS3505
ZHHH,2006-06-10 12:00,ZHHH 101200Z AUTO 11002KT 11SM 28/12 A2959 RMK SLP017 T02830122 52021 IEM_DS3505
ZHHH,2006-06-10 13:00,ZHHH 101300Z AUTO 11006KT 6SM 26/16 A2962 RMK T02600160 IEM_DS3505
ZHHH,2006-06-10 14:00,ZHHH 101400Z AUTO 15006KT 6SM 26/18 A2962 RMK T02600180 IEM_DS3505
ZHHH,2006-06-10 15:00,ZHHH 101500Z AUTO 11004KT 11SM 27/11 A2965 RMK SLP041 T02680109 52024 IEM_DS3505
ZHHH,2006-06-10 16:00,ZHHH 101600Z AUTO 13006KT 6SM 26/15 A2965 RMK T02600150 IEM_DS3505
ZHHH,2006-06-10 17:00,ZHHH 101700Z AUTO 13006KT 6SM 25/17 A2965 RMK T02500170 IEM_DS3505
ZHHH,2006-06-10 18:00,ZHHH 101800Z AUTO 18002KT 11SM 23/14 A2965 RMK SLP043 T02310139 52002 IEM_DS3505
ZHHH,2006-06-10 19:00,ZHHH 101900Z AUTO 11006KT 6SM 24/16 A2965 RMK T02400160 IEM_DS3505
ZHHH,2006-06-10 20:00,ZHHH 102000Z AUTO 11006KT 6SM 22/17 A2965 RMK T02200170 IEM_DS3505
ZHHH,2006-06-10 21:00,ZHHH 102100Z AUTO 09002KT 9SM 23/15 A2968 RMK SLP045 T02330146 52002 IEM_DS3505
ZHHH,2006-06-10 22:00,ZHHH 102200Z AUTO 10010KT 6SM 20/19 A2968 RMK T02000190 IEM_DS3505
ZHHH,2006-06-10 23:00,ZHHH 102300Z AUTO 10010KT 6SM 22/18 A2968 RMK T02200180 IEM_DS3505
ZHHH,2006-06-11 00:00,ZHHH 110000Z AUTO 09002KT 9SM 28/15 A2971 RMK SLP055 T02760153 52010 IEM_DS3505
ZHHH,2006-06-11 01:00,ZHHH 110100Z AUTO 11010KT 4SM 27/19 A2971 RMK T02700190 IEM_DS3505
ZHHH,2006-06-11 02:00,ZHHH 110200Z AUTO 11008KT 7SM 28/18 A2971 RMK T02800180 IEM_DS3505
ZHHH,2006-06-11 03:00,ZHHH 110300Z AUTO 14006KT 9SM 32/08 A2971 RMK SLP052 T03220078 57002 IEM_DS3505
ZHHH,2006-06-11 04:00,ZHHH 110400Z AUTO 12010KT 6SM 32/15 A2968 RMK T03200150 IEM_DS3505
ZHHH,2006-06-11 05:00,ZHHH 110500Z AUTO 12012KT 6SM 33/14 A2968 RMK T03300140 IEM_DS3505
ZHHH,2006-06-11 06:00,ZHHH 110600Z AUTO 14006KT 11SM 35/08 A2965 RMK SLP036 T03460076 57016 IEM_DS3505
ZHHH,2006-06-11 07:00,ZHHH 110700Z AUTO 12010KT 6SM 34/15 A2962 RMK T03400150 IEM_DS3505
ZHHH,2006-06-11 08:00,ZHHH 110800Z AUTO 12010KT 6SM 34/15 A2962 RMK T03400150 IEM_DS3505
ZHHH,2006-06-11 09:00,ZHHH 110900Z AUTO 11004KT 11SM 34/10 A2959 RMK SLP022 T03410100 57014 IEM_DS3505
ZHHH,2006-06-11 10:00,ZHHH 111000Z AUTO 14008KT 6SM 32/16 A2962 RMK T03200160 IEM_DS3505
ZHHH,2006-06-11 11:00,ZHHH 111100Z AUTO 14006KT 6SM 31/18 A2962 RMK T03100180 IEM_DS3505
ZHHH,2006-06-11 12:00,ZHHH 111200Z AUTO 11004KT 9SM 32/10 A2962 RMK SLP030 T03160103 52008 IEM_DS3505
ZHHH,2006-06-11 13:00,ZHHH 111300Z AUTO 14008KT 6SM 29/17 A2965 RMK T02900170 IEM_DS3505
ZHHH,2006-06-11 14:00,ZHHH 111400Z AUTO 13008KT 6SM 29/17 A2965 RMK T02900170 IEM_DS3505
ZHHH,2006-06-11 15:00,ZHHH 111500Z AUTO 11004KT 9SM 29/15 A2968 RMK SLP046 T02940152 52016 IEM_DS3505
ZHHH,2006-06-11 16:00,ZHHH 111600Z AUTO 14006KT 6SM 27/20 A2968 RMK T02700200 IEM_DS3505
ZHHH,2006-06-11 17:00,ZHHH 111700Z AUTO 13006KT 6SM 27/20 A2968 RMK T02700200 IEM_DS3505
ZHHH,2006-06-11 18:00,ZHHH 111800Z AUTO 11002KT 11SM 27/19 A2965 RMK SLP039 T02740187 57007 IEM_DS3505
ZHHH,2006-06-11 19:00,ZHHH 111900Z AUTO 11006KT 6SM 25/20 A2968 RMK T02500200 IEM_DS3505
ZHHH,2006-06-11 20:00,ZHHH 112000Z AUTO 11006KT 6SM 24/21 A2965 RMK T02400210 IEM_DS3505
ZHHH,2006-06-11 21:00,ZHHH 112100Z AUTO 11004KT 11SM 26/19 A2968 RMK SLP042 T02640190 52003 IEM_DS3505
ZHHH,2006-06-11 22:00,ZHHH 112200Z AUTO 12006KT 6SM 24/20 A2968 RMK T02400200 IEM_DS3505
ZHHH,2006-06-11 23:00,ZHHH 112300Z AUTO 13006KT 6SM 25/22 A2968 RMK T02500220 IEM_DS3505
ZHHH,2006-06-12 00:00,ZHHH 120000Z AUTO 14004KT 11SM 28/19 A2968 RMK SLP052 T02850192 52010 IEM_DS3505
ZHHH,2006-06-12 01:00,ZHHH 120100Z AUTO 12008KT 4SM 29/22 A2971 RMK T02900220 IEM_DS3505
ZHHH,2006-06-12 02:00,ZHHH 120200Z AUTO 12008KT 4SM 31/23 A2968 RMK T03100230 IEM_DS3505
ZHHH,2006-06-12 03:00,ZHHH 120300Z AUTO 18004KT 11SM 32/20 A2968 RMK SLP051 T03210200 57001 IEM_DS3505
ZHHH,2006-06-12 04:00,ZHHH 120400Z AUTO 4SM 33/23 A2968 RMK T03300230 IEM_DS3505
ZHHH,2006-06-12 05:00,ZHHH 120500Z AUTO 21006KT 6SM 35/19 A2965 RMK T03500190 IEM_DS3505
ZHHH,2006-06-12 06:00,ZHHH 120600Z AUTO 11004KT 11SM 34/18 A2965 RMK SLP033 T03430179 57018 IEM_DS3505
ZHHH,2006-06-12 07:00,ZHHH 120700Z AUTO 19006KT 6SM 36/20 A2962 RMK T03600200 IEM_DS3505
ZHHH,2006-06-12 08:00,ZHHH 120800Z AUTO 22006KT 6SM 35/21 A2962 RMK T03500210 IEM_DS3505
ZHHH,2006-06-12 09:00,ZHHH 120900Z AUTO 27002KT 9SM 35/19 A2962 RMK SLP026 T03510187 57007 IEM_DS3505
ZHHH,2006-06-12 10:00,ZHHH 121000Z AUTO 22004KT 6SM 34/22 A2962 RMK T03400220 IEM_DS3505
ZHHH,2006-06-12 11:00,ZHHH 121100Z AUTO 18004KT 6SM 32/22 A2962 RMK T03200220 IEM_DS3505
ZHHH,2006-06-12 12:00,ZHHH 121200Z AUTO 14002KT 9SM 32/20 A2962 RMK SLP031 T03230196 52005 IEM_DS3505
ZHHH,2006-06-12 13:00,ZHHH 121300Z AUTO 14004KT 6SM 30/24 A2965 RMK T03000240 IEM_DS3505
ZHHH,2006-06-12 14:00,ZHHH 121400Z AUTO 4SM 30/24 A2965 RMK T03000240 IEM_DS3505
ZHHH,2006-06-12 15:00,ZHHH 121500Z AUTO 09002KT 9SM 31/22 A2965 RMK SLP040 T03060217 52009 IEM_DS3505
ZHHH,2006-06-12 16:00,ZHHH 121600Z AUTO 13006KT 4SM 30/24 A2965 RMK T03000240 IEM_DS3505
ZHHH,2006-06-12 17:00,ZHHH 121700Z AUTO 11004KT 3SM 28/24 A2965 RMK T02800240 IEM_DS3505
ZHHH,2006-06-12 18:00,ZHHH 121800Z AUTO 14002KT 9SM 29/23 A2965 RMK SLP032 T02900230 57008 IEM_DS3505
ZHHH,2006-06-12 19:00,ZHHH 121900Z AUTO 23004KT 2SM 27/25 A2965 RMK T02700250 IEM_DS3505
ZHHH,2006-06-12 20:00,ZHHH 122000Z AUTO 27004KT 2SM 27/25 A2965 RMK T02700250 IEM_DS3505
ZHHH,2006-06-12 21:00,ZHHH 122100Z AUTO 27008KT 9SM 27/18 A2965 RMK 70000 SLP045 T02670178 52013 IEM_DS3505
ZHHH,2006-06-12 22:00,ZHHH 122200Z AUTO 27008KT 6SM 26/19 A2968 RMK T02600190 IEM_DS3505
ZHHH,2006-06-12 23:00,ZHHH 122300Z AUTO 22004KT 7SM 23/21 A2968 RMK T02300210 IEM_DS3505
ZHHH,2006-06-13 00:00,ZHHH 130000Z AUTO 04002KT 12SM 25/20 A2968 RMK 60000 70000 SLP050 T02460199 52004 IEM_DS3505
ZHHH,2006-06-13 01:00,ZHHH 130100Z AUTO 6SM 25/23 A2968 RMK T02500230 IEM_DS3505
ZHHH,2006-06-13 02:00,ZHHH 130200Z AUTO 02004KT 6SM 25/23 A2968 RMK T02500230 IEM_DS3505
ZHHH,2006-06-13 03:00,ZHHH 130300Z AUTO 11002KT 14SM 28/19 A2968 RMK SLP052 T02840188 52003 IEM_DS3505
ZHHH,2006-06-13 04:00,ZHHH 130400Z AUTO 7SM 27/21 A2968 RMK T02700210 IEM_DS3505
ZHHH,2006-06-13 05:00,ZHHH 130500Z AUTO 7SM 27/21 A2965 RMK T02700210 IEM_DS3505
ZHHH,2006-06-13 06:00,ZHHH 130600Z AUTO 29002KT 9SM 28/18 A2965 RMK SLP034 T02830184 57018 IEM_DS3505
ZHHH,2006-06-13 07:00,ZHHH 130700Z AUTO 02004KT 5SM 27/22 A2962 RMK T02700220 IEM_DS3505
ZHHH,2006-06-13 08:00,ZHHH 130800Z AUTO 01004KT 4SM 26/22 A2962 RMK T02600220 IEM_DS3505
ZHHH,2006-06-13 09:00,ZHHH 130900Z AUTO 27004KT 7SM 25/22 A2962 RMK SLP027 T02510222 57008 IEM_DS3505
ZHHH,2006-06-13 10:00,ZHHH 131000Z AUTO 36006KT 1 1/2SM 24/23 A2962 RMK T02400230 IEM_DS3505
ZHHH,2006-06-13 11:00,ZHHH 131100Z AUTO 01004KT 1 1/2SM 23/23 A2962 RMK T02300230 IEM_DS3505
ZHHH,2006-06-13 12:00,ZHHH 131200Z AUTO 34002KT 11SM 23/22 A2962 RMK 60020 SLP031 T02340220 52004 IEM_DS3505
ZHHH,2006-06-13 13:00,ZHHH 131300Z AUTO 09008KT 1 1/4SM 23/23 A2962 RMK T02300230 IEM_DS3505
ZHHH,2006-06-13 14:00,ZHHH 131400Z AUTO 07008KT 1 1/4SM 23/23 A2965 RMK T02300230 IEM_DS3505
ZHHH,2006-06-13 15:00,ZHHH 131500Z AUTO 07002KT 9SM 24/22 A2965 RMK SLP034 T02350225 52003 IEM_DS3505
ZHHH,2006-06-13 16:00,ZHHH 131600Z AUTO 04008KT 1 1/4SM 23/23 A2962 RMK T02300230 IEM_DS3505
ZHHH,2006-06-13 17:00,ZHHH 131700Z AUTO 03010KT 1 1/4SM 22/22 A2962 RMK T02200220 IEM_DS3505
ZHHH,2006-06-13 18:00,ZHHH 131800Z AUTO 04008KT 7SM 22/22 A2962 RMK 60043 SLP024 T02240216 57010 IEM_DS3505
ZHHH,2006-06-13 19:00,ZHHH 131900Z AUTO 04014KT 3SM 21/21 A2962 RMK T02100210 IEM_DS3505
ZHHH,2006-06-13 20:00,ZHHH 132000Z AUTO 05012KT 2 1/2SM 21/21 A2962 RMK T02100210 IEM_DS3505
ZHHH,2006-06-13 21:00,ZHHH 132100Z AUTO 04004KT 7SM 21/20 A2962 RMK 70080 SLP033 T02120202 52009 IEM_DS3505
ZHHH,2006-06-13 22:00,ZHHH 132200Z AUTO 36006KT 1 1/4SM 21/21 A2965 RMK T02100210 IEM_DS3505
ZHHH,2006-06-13 23:00,ZHHH 132300Z AUTO 01006KT 1SM 22/22 A2965 RMK T02200220 IEM_DS3505
ZHHH,2006-06-14 00:00,ZHHH 140000Z AUTO 36002KT 6SM 23/21 A2968 RMK 60020 70083 SLP049 T02270212 52016 IEM_DS3505
ZHHH,2006-06-14 01:00,ZHHH 140100Z AUTO 34006KT 1 1/4SM 22/22 A2968 RMK T02200220 IEM_DS3505
ZHHH,2006-06-14 02:00,ZHHH 140200Z AUTO 34006KT 1 1/4SM 23/22 A2968 RMK T02300220 IEM_DS3505
ZHHH,2006-06-14 03:00,ZHHH 140300Z AUTO 34008KT 7SM 24/20 A2971 RMK SLP059 T02420203 52010 IEM_DS3505
ZHHH,2006-06-14 04:00,ZHHH 140400Z AUTO 34008KT 3SM 25/22 A2971 RMK T02500220 IEM_DS3505
ZHHH,2006-06-14 05:00,ZHHH 140500Z AUTO 34010KT 3SM 26/23 A2968 RMK T02600230 IEM_DS3505
ZHHH,2006-06-14 06:00,ZHHH 140600Z AUTO 32004KT 12SM 27/20 A2968 RMK 60000 SLP051 T02670203 57008 IEM_DS3505
ZHHH,2006-06-14 07:00,ZHHH 140700Z AUTO 30004KT 4SM 27/22 A2968 RMK T02700220 IEM_DS3505
ZHHH,2006-06-14 08:00,ZHHH 140800Z AUTO 03004KT 7SM 27/22 A2965 RMK T02700220 IEM_DS3505
ZHHH,2006-06-14 09:00,ZHHH 140900Z AUTO 27004KT 11SM 28/19 A2965 RMK SLP039 T02780193 57012 IEM_DS3505
ZHHH,2006-06-14 10:00,ZHHH 141000Z AUTO 00000KT 6SM 26/22 A2965 RMK T02600220 IEM_DS3505
ZHHH,2006-06-14 11:00,ZHHH 141100Z AUTO 00000KT 6SM 26/22 A2965 RMK T02600220 IEM_DS3505
ZHHH,2006-06-14 12:00,ZHHH 141200Z AUTO 25002KT 11SM 26/20 A2965 RMK SLP044 T02600203 52005 IEM_DS3505
ZHHH,2006-06-14 13:00,ZHHH 141300Z AUTO 27002KT 4SM 25/23 A2968 RMK T02500230 IEM_DS3505
ZHHH,2006-06-14 14:00,ZHHH 141400Z AUTO 24002KT 4SM 25/23 A2971 RMK T02500230 IEM_DS3505
ZHHH,2006-06-14 15:00,ZHHH 141500Z AUTO 27002KT 9SM 25/21 A2968 RMK SLP053 T02510208 52009 IEM_DS3505
ZHHH,2006-06-14 16:00,ZHHH 141600Z AUTO 26004KT 2 1/2SM 24/23 A2968 RMK T02400230 IEM_DS3505
ZHHH,2006-06-14 17:00,ZHHH 141700Z AUTO 26004KT 2SM 24/22 A2968 RMK T02400220 IEM_DS3505
ZHHH,2006-06-14 18:00,ZHHH 141800Z AUTO 25002KT 9SM 24/21 A2968 RMK SLP047 T02370208 57006 IEM_DS3505
ZHHH,2006-06-14 19:00,ZHHH 141900Z AUTO 1 1/4SM 23/22 A2965 RMK T02300220 IEM_DS3505
ZHHH,2006-06-14 20:00,ZHHH 142000Z AUTO 2SM 23/22 A2965 RMK T02300220 IEM_DS3505
ZHHH,2006-06-14 21:00,ZHHH 142100Z AUTO 27002KT 9SM 23/21 A2965 RMK 70003 SLP046 T02340209 57001 IEM_DS3505
ZHHH,2006-06-14 22:00,ZHHH 142200Z AUTO 28004KT 1 1/4SM 23/22 A2968 RMK T02300220 IEM_DS3505
ZHHH,2006-06-14 23:00,ZHHH 142300Z AUTO 28004KT 1 1/2SM 24/23 A2968 RMK T02400230 IEM_DS3505
ZHHH,2006-06-15 00:00,ZHHH 150000Z AUTO 27002KT 9SM 26/21 A2968 RMK 70000 SLP055 T02550210 52009 IEM_DS3505
ZHHH,2006-06-15 01:00,ZHHH 150100Z AUTO 2SM 26/23 A2968 RMK T02600230 IEM_DS3505
ZHHH,2006-06-15 02:00,ZHHH 150200Z AUTO 22004KT 2 1/2SM 27/23 A2968 RMK T02700230 IEM_DS3505
ZHHH,2006-06-15 03:00,ZHHH 150300Z AUTO 27004KT 12SM 28/21 A2968 RMK SLP049 T02830206 57006 IEM_DS3505
ZHHH,2006-06-15 04:00,ZHHH 150400Z AUTO 24008KT 3SM 29/23 A2968 RMK T02900230 IEM_DS3505
ZHHH,2006-06-15 05:00,ZHHH 150500Z AUTO 24006KT 3SM 30/23 A2965 RMK T03000230 IEM_DS3505
ZHHH,2006-06-15 06:00,ZHHH 150600Z AUTO 22004KT 9SM 30/20 A2962 RMK SLP032 T03050201 57017 IEM_DS3505
ZHHH,2006-06-15 07:00,ZHHH 150700Z AUTO 22004KT 5SM 30/22 A2962 RMK T03000220 IEM_DS3505
ZHHH,2006-06-15 08:00,ZHHH 150800Z AUTO 22006KT 6SM 31/23 A2959 RMK T03100230 IEM_DS3505
ZHHH,2006-06-15 09:00,ZHHH 150900Z AUTO 20004KT 7SM 31/20 A2959 RMK SLP020 T03070197 57012 IEM_DS3505
ZHHH,2006-06-15 10:00,ZHHH 151000Z AUTO 23004KT 6SM 29/22 A2959 RMK T02900220 IEM_DS3505
ZHHH,2006-06-15 11:00,ZHHH 151100Z AUTO 23004KT 6SM 28/23 A2959 RMK T02800230 IEM_DS3505
ZHHH,2006-06-15 12:00,ZHHH 151200Z AUTO 22004KT 9SM 28/20 A2959 RMK SLP023 T02820200 52003 IEM_DS3505
ZHHH,2006-06-15 13:00,ZHHH 151300Z AUTO 22004KT 6SM 27/23 A2962 RMK T02700230 IEM_DS3505
ZHHH,2006-06-15 14:00,ZHHH 151400Z AUTO 19004KT 6SM 27/23 A2962 RMK T02700230 IEM_DS3505
ZHHH,2006-06-15 15:00,ZHHH 151500Z AUTO 27002KT 9SM 27/20 A2962 RMK SLP029 T02740205 52006 IEM_DS3505
ZHHH,2006-06-15 16:00,ZHHH 151600Z AUTO 6SM 27/23 A2962 RMK T02700230 IEM_DS3505
ZHHH,2006-06-15 17:00,ZHHH 151700Z AUTO 00000KT 3SM 26/24 A2962 RMK T02600240 IEM_DS3505
ZHHH,2006-06-15 18:00,ZHHH 151800Z AUTO 00000KT 9SM 27/21 A2959 RMK SLP025 T02690214 57003 IEM_DS3505
ZHHH,2006-06-15 19:00,ZHHH 151900Z AUTO 00000KT 2SM 26/24 A2959 RMK T02600240 IEM_DS3505
ZHHH,2006-06-15 20:00,ZHHH 152000Z AUTO 15002KT 1 1/2SM 25/24 A2959 RMK T02500240 IEM_DS3505
ZHHH,2006-06-15 21:00,ZHHH 152100Z AUTO 22002KT 9SM 26/22 A2962 RMK SLP026 T02640216 52001 IEM_DS3505
ZHHH,2006-06-15 22:00,ZHHH 152200Z AUTO 12006KT 1SM 25/24 A2962 RMK T02500240 IEM_DS3505
ZHHH,2006-06-15 23:00,ZHHH 152300Z AUTO 13004KT 1SM 26/25 A2962 RMK T02600250 IEM_DS3505
ZHHH,2006-06-16 00:00,ZHHH 160000Z AUTO 11004KT 9SM 28/22 A2962 RMK SLP034 T02750220 52007 IEM_DS3505
ZHHH,2006-06-16 01:00,ZHHH 160100Z AUTO 18008KT 1SM 28/25 A2962 RMK T02800250 IEM_DS3505
ZHHH,2006-06-16 02:00,ZHHH 160200Z AUTO 20010KT 2 1/2SM 29/24 A2962 RMK T02900240 IEM_DS3505
ZHHH,2006-06-16 03:00,ZHHH 160300Z AUTO 20004KT 9SM 30/22 A2962 RMK SLP028 T02980220 57005 IEM_DS3505
ZHHH,2006-06-16 04:00,ZHHH 160400Z AUTO 19008KT 2 1/2SM 32/25 A2962 RMK T03200250 IEM_DS3505
ZHHH,2006-06-16 05:00,ZHHH 160500Z AUTO 20008KT 4SM 32/24 A2959 RMK T03200240 IEM_DS3505
ZHHH,2006-06-16 06:00,ZHHH 160600Z AUTO 22002KT 9SM 32/22 A2959 RMK SLP020 T03170218 57008 IEM_DS3505
ZHHH,2006-06-16 07:00,ZHHH 160700Z AUTO 21008KT 4SM 31/25 A2959 RMK T03100250 IEM_DS3505
ZHHH,2006-06-16 08:00,ZHHH 160800Z AUTO 23006KT 4SM 31/24 A2959 RMK T03100240 IEM_DS3505
ZHHH,2006-06-16 09:00,ZHHH 160900Z AUTO 22004KT 11SM 31/22 A2959 RMK SLP016 T03140219 57004 IEM_DS3505
ZHHH,2006-06-16 10:00,ZHHH 161000Z AUTO 21006KT 4SM 30/25 A2959 RMK T03000250 IEM_DS3505
ZHHH,2006-06-16 11:00,ZHHH 161100Z AUTO 24008KT 4SM 30/25 A2959 RMK T03000250 IEM_DS3505
ZHHH,2006-06-16 12:00,ZHHH 161200Z AUTO 18004KT 9SM 29/23 A2959 RMK SLP024 T02910233 52008 IEM_DS3505
ZHHH,2006-06-16 13:00,ZHHH 161300Z AUTO 22006KT 2 1/2SM 28/25 A2962 RMK T02800250 IEM_DS3505
ZHHH,2006-06-16 14:00,ZHHH 161400Z AUTO 22010KT 2 1/2SM 27/25 A2965 RMK T02700250 IEM_DS3505
ZHHH,2006-06-16 15:00,ZHHH 161500Z AUTO 25002KT 9SM 27/22 A2965 RMK SLP039 T02670221 52014 IEM_DS3505
ZHHH,2006-06-16 16:00,ZHHH 161600Z AUTO 23004KT 2 1/2SM 26/24 A2965 RMK T02600240 IEM_DS3505
ZHHH,2006-06-16 17:00,ZHHH 161700Z AUTO 23004KT 2 1/2SM 25/24 A2962 RMK T02500240 IEM_DS3505
ZHHH,2006-06-16 18:00,ZHHH 161800Z AUTO 25002KT 9SM 25/22 A2962 RMK SLP033 T02530222 57005 IEM_DS3505
ZHHH,2006-06-16 19:00,ZHHH 161900Z AUTO 23006KT 1 1/2SM 25/23 A2965 RMK T02500230 IEM_DS3505
ZHHH,2006-06-16 20:00,ZHHH 162000Z AUTO 1 1/2SM 24/22 A2962 RMK T02400220 IEM_DS3505
ZHHH,2006-06-16 21:00,ZHHH 162100Z AUTO 20002KT 11SM 24/21 A2965 RMK SLP036 T02420207 52002 IEM_DS3505
ZHHH,2006-06-16 22:00,ZHHH 162200Z AUTO 25004KT 4SM 24/22 A2965 RMK T02400220 IEM_DS3505
ZHHH,2006-06-16 23:00,ZHHH 162300Z AUTO 27004KT 6SM 25/23 A2965 RMK T02500230 IEM_DS3505
ZHHH,2006-06-17 00:00,ZHHH 170000Z AUTO 25002KT 11SM 27/21 A2968 RMK SLP050 T02660214 52014 IEM_DS3505
ZHHH,2006-06-17 01:00,ZHHH 170100Z AUTO 26004KT 6SM 27/24 A2968 RMK T02700240 IEM_DS3505
ZHHH,2006-06-17 02:00,ZHHH 170200Z AUTO 24004KT 7SM 28/25 A2968 RMK T02800250 IEM_DS3505
ZHHH,2006-06-17 03:00,ZHHH 170300Z AUTO 20004KT 11SM 31/22 A2971 RMK SLP055 T03060217 52005 IEM_DS3505
ZHHH,2006-06-17 04:00,ZHHH 170400Z AUTO 7SM 30/25 A2971 RMK T03000250 IEM_DS3505
ZHHH,2006-06-17 05:00,ZHHH 170500Z AUTO 7SM 32/25 A2968 RMK T03200250 IEM_DS3505
ZHHH,2006-06-17 06:00,ZHHH 170600Z AUTO 20004KT 11SM 33/20 A2968 RMK SLP046 T03290204 57008 IEM_DS3505
ZHHH,2006-06-17 07:00,ZHHH 170700Z AUTO 7SM 33/24 A2968 RMK T03300240 IEM_DS3505
ZHHH,2006-06-17 08:00,ZHHH 170800Z AUTO 23004KT 6SM 33/24 A2968 RMK T03300240 IEM_DS3505
ZHHH,2006-06-17 09:00,ZHHH 170900Z AUTO 20004KT 11SM 33/20 A2965 RMK SLP042 T03320197 57004 IEM_DS3505
ZHHH,2006-06-17 10:00,ZHHH 171000Z AUTO 6SM 32/22 A2965 RMK T03200220 IEM_DS3505
ZHHH,2006-06-17 11:00,ZHHH 171100Z AUTO 25004KT 6SM 31/23 A2968 RMK T03100230 IEM_DS3505
ZHHH,2006-06-17 12:00,ZHHH 171200Z AUTO 25002KT 9SM 30/21 A2968 RMK SLP055 T03030211 52012 IEM_DS3505
ZHHH,2006-06-17 13:00,ZHHH 171300Z AUTO 23004KT 6SM 30/24 A2971 RMK T03000240 IEM_DS3505
ZHHH,2006-06-17 14:00,ZHHH 171400Z AUTO 23004KT 6SM 29/25 A2974 RMK T02900250 IEM_DS3505
ZHHH,2006-06-17 15:00,ZHHH 171500Z AUTO 25002KT 11SM 28/23 A2974 RMK SLP065 T02850234 52011 IEM_DS3505
ZHHH,2006-06-17 16:00,ZHHH 171600Z AUTO 3SM 27/25 A2974 RMK T02700250 IEM_DS3505
ZHHH,2006-06-17 17:00,ZHHH 171700Z AUTO 36002KT 2 1/2SM 27/26 A2974 RMK T02700260 IEM_DS3505
ZHHH,2006-06-17 18:00,ZHHH 171800Z AUTO 00000KT 9SM 27/24 A2974 RMK SLP068 T02680241 52003 IEM_DS3505
ZHHH,2006-06-17 21:00,ZHHH 172100Z AUTO 02002KT 9SM 27/24 RMK SLP073 T02670240 52005 IEM_DS3505
ZHHH,2006-06-17 23:00,ZHHH 172300Z AUTO 10004KT 1SM 26/25 A2977 RMK T02600250 IEM_DS3505
ZHHH,2006-06-18 00:00,ZHHH 180000Z AUTO 09004KT 7SM 30/24 A2977 RMK SLP082 T02950244 52009 IEM_DS3505
ZHHH,2006-06-18 01:00,ZHHH 180100Z AUTO 13006KT 1 1/2SM 30/26 A2977 RMK T03000260 IEM_DS3505
ZHHH,2006-06-18 02:00,ZHHH 180200Z AUTO 13004KT 3SM 31/26 A2980 RMK T03100260 IEM_DS3505
ZHHH,2006-06-18 03:00,ZHHH 180300Z AUTO 11002KT 9SM 33/23 A2980 RMK SLP086 T03320229 52004 IEM_DS3505
ZHHH,2006-06-18 04:00,ZHHH 180400Z AUTO 11004KT 2SM 33/26 A2977 RMK T03300260 IEM_DS3505
ZHHH,2006-06-18 05:00,ZHHH 180500Z AUTO 2 1/2SM 34/26 A2977 RMK T03400260 IEM_DS3505
ZHHH,2006-06-18 06:00,ZHHH 180600Z AUTO 22004KT 9SM 35/22 A2977 RMK SLP072 T03510224 57014 IEM_DS3505
ZHHH,2006-06-18 07:00,ZHHH 180700Z AUTO 26004KT 3SM 35/26 A2974 RMK T03500260 IEM_DS3505
ZHHH,2006-06-18 08:00,ZHHH 180800Z AUTO 29004KT 4SM 35/25 A2974 RMK T03500250 IEM_DS3505
ZHHH,2006-06-18 09:00,ZHHH 180900Z AUTO 25004KT 9SM 36/21 A2971 RMK SLP061 T03590210 57011 IEM_DS3505
ZHHH,2006-06-18 10:00,ZHHH 181000Z AUTO 00000KT 6SM 34/24 A2971 RMK T03400240 IEM_DS3505
ZHHH,2006-06-18 11:00,ZHHH 181100Z AUTO 25002KT 6SM 33/24 A2974 RMK T03300240 IEM_DS3505
ZHHH,2006-06-18 12:00,ZHHH 181200Z AUTO 32002KT 9SM 32/22 A2974 RMK SLP067 T03240225 52006 IEM_DS3505
ZHHH,2006-06-18 13:00,ZHHH 181300Z AUTO 00000KT 6SM 31/27 A2974 RMK T03100270 IEM_DS3505
ZHHH,2006-06-18 14:00,ZHHH 181400Z AUTO 06004KT 6SM 31/26 A2974 RMK T03100260 IEM_DS3505
ZHHH,2006-06-18 15:00,ZHHH 181500Z AUTO 11004KT 9SM 31/24 A2974 RMK SLP071 T03060243 52004 IEM_DS3505
ZHHH,2006-06-18 16:00,ZHHH 181600Z AUTO 10004KT 6SM 29/26 A2974 RMK T02900260 IEM_DS3505
ZHHH,2006-06-18 17:00,ZHHH 181700Z AUTO 10006KT 4SM 29/26 A2974 RMK T02900260 IEM_DS3505
ZHHH,2006-06-18 18:00,ZHHH 181800Z AUTO 11006KT 11SM 30/23 A2974 RMK SLP067 T02990231 57004 IEM_DS3505
ZHHH,2006-06-18 19:00,ZHHH 181900Z AUTO 11006KT 2SM 28/26 A2974 RMK T02800260 IEM_DS3505
ZHHH,2006-06-18 20:00,ZHHH 182000Z AUTO 15004KT 1 1/4SM 28/26 A2974 RMK T02800260 IEM_DS3505
ZHHH,2006-06-18 21:00,ZHHH 182100Z AUTO 27004KT 9SM 28/24 A2977 RMK SLP076 T02800242 52009 IEM_DS3505
ZHHH,2006-06-18 22:00,ZHHH 182200Z AUTO 24006KT 3SM 27/25 A2977 RMK T02700250 IEM_DS3505
ZHHH,2006-06-18 23:00,ZHHH 182300Z AUTO 25004KT 6SM 27/25 A2980 RMK T02700250 IEM_DS3505
ZHHH,2006-06-19 00:00,ZHHH 190000Z AUTO 25002KT 16SM 29/23 A2980 RMK SLP091 T02930230 52015 IEM_DS3505
ZHHH,2006-06-19 01:00,ZHHH 190100Z AUTO 6SM 30/26 A2980 RMK T03000260 IEM_DS3505
ZHHH,2006-06-19 02:00,ZHHH 190200Z AUTO 20004KT 6SM 31/26 A2980 RMK T03100260 IEM_DS3505
ZHHH,2006-06-19 03:00,ZHHH 190300Z AUTO 18002KT 16SM 33/24 A2980 RMK SLP089 T03260235 57002 IEM_DS3505
ZHHH,2006-06-19 04:00,ZHHH 190400Z AUTO 21006KT 7SM 33/27 A2977 RMK T03300270 IEM_DS3505
ZHHH,2006-06-19 05:00,ZHHH 190500Z AUTO 20008KT 7SM 34/26 A2977 RMK T03400260 IEM_DS3505
ZHHH,2006-06-19 06:00,ZHHH 190600Z AUTO 11008KT 12SM 35/21 A2974 RMK SLP071 T03510214 57018 IEM_DS3505
ZHHH,2006-06-19 07:00,ZHHH 190700Z AUTO 20008KT 7SM 35/26 A2974 RMK T03500260 IEM_DS3505
ZHHH,2006-06-19 08:00,ZHHH 190800Z AUTO 20008KT 7SM 36/24 A2971 RMK T03600240 IEM_DS3505
ZHHH,2006-06-19 09:00,ZHHH 190900Z AUTO 25004KT 12SM 36/22 A2971 RMK SLP058 T03600222 57013 IEM_DS3505
ZHHH,2006-06-19 10:00,ZHHH 191000Z AUTO 24006KT 7SM 35/25 A2971 RMK T03500250 IEM_DS3505
ZHHH,2006-06-19 11:00,ZHHH 191100Z AUTO 24006KT 6SM 34/25 A2971 RMK T03400250 IEM_DS3505
ZHHH,2006-06-19 12:00,ZHHH 191200Z AUTO 22002KT 12SM 33/24 A2971 RMK SLP062 T03290238 52004 IEM_DS3505
ZHHH,2006-06-19 13:00,ZHHH 191300Z AUTO 24004KT 6SM 31/27 A2974 RMK T03100270 IEM_DS3505
ZHHH,2006-06-19 14:00,ZHHH 191400Z AUTO 00000KT 6SM 31/27 A2974 RMK T03100270 IEM_DS3505
ZHHH,2006-06-19 15:00,ZHHH 191500Z AUTO 22002KT 11SM 31/24 A2977 RMK SLP075 T03140245 52013 IEM_DS3505
ZHHH,2006-06-19 16:00,ZHHH 191600Z AUTO 13004KT 6SM 31/27 A2977 RMK T03100270 IEM_DS3505
ZHHH,2006-06-19 17:00,ZHHH 191700Z AUTO 6SM 30/27 A2977 RMK T03000270 IEM_DS3505
ZHHH,2006-06-19 18:00,ZHHH 191800Z AUTO 22002KT 9SM 31/25 A2974 RMK SLP071 T03080247 57004 IEM_DS3505
ZHHH,2006-06-19 19:00,ZHHH 191900Z AUTO 13004KT 6SM 29/27 A2974 RMK T02900270 IEM_DS3505
ZHHH,2006-06-19 20:00,ZHHH 192000Z AUTO 11004KT 3SM 29/27 A2974 RMK T02900270 IEM_DS3505
ZHHH,2006-06-19 21:00,ZHHH 192100Z AUTO 14002KT 9SM 30/25 A2974 RMK SLP070 T02990252 57001 IEM_DS3505
ZHHH,2006-06-19 22:00,ZHHH 192200Z AUTO 11004KT 1SM 28/28 A2974 RMK T02800280 IEM_DS3505
ZHHH,2006-06-19 23:00,ZHHH 192300Z AUTO 12006KT 1SM 29/28 A2977 RMK T02900280 IEM_DS3505
ZHHH,2006-06-20 00:00,ZHHH 200000Z AUTO 14004KT 11SM 32/24 A2977 RMK SLP077 T03170243 52007 IEM_DS3505
ZHHH,2006-06-20 01:00,ZHHH 200100Z AUTO 12010KT 2SM 31/28 A2977 RMK T03100280 IEM_DS3505
ZHHH,2006-06-20 02:00,ZHHH 200200Z AUTO 19010KT 7SM 33/27 A2977 RMK T03300270 IEM_DS3505
ZHHH,2006-06-20 03:00,ZHHH 200300Z AUTO 20004KT 11SM 35/24 A2977 RMK SLP075 T03460236 57002 IEM_DS3505
ZHHH,2006-06-20 04:00,ZHHH 200400Z AUTO 19010KT 7SM 36/27 A2974 RMK T03600270 IEM_DS3505
ZHHH,2006-06-20 05:00,ZHHH 200500Z AUTO 21010KT 7SM 36/27 A2974 RMK T03600270 IEM_DS3505
ZHHH,2006-06-20 06:00,ZHHH 200600Z AUTO 20006KT 11SM 36/22 A2971 RMK SLP060 T03650223 57015 IEM_DS3505
ZHHH,2006-06-20 07:00,ZHHH 200700Z AUTO 21008KT 7SM 37/26 A2971 RMK T03700260 IEM_DS3505
ZHHH,2006-06-20 08:00,ZHHH 200800Z AUTO 20008KT 7SM 37/25 A2968 RMK T03700250 IEM_DS3505
ZHHH,2006-06-20 09:00,ZHHH 200900Z AUTO 22002KT 11SM 37/22 A2968 RMK SLP044 T03720221 57016 IEM_DS3505
ZHHH,2006-06-20 10:00,ZHHH 201000Z AUTO 24006KT 6SM 36/25 A2968 RMK T03600250 IEM_DS3505
ZHHH,2006-06-20 11:00,ZHHH 201100Z AUTO 24004KT 6SM 34/26 A2968 RMK T03400260 IEM_DS3505
ZHHH,2006-06-20 12:00,ZHHH 201200Z AUTO 22002KT 12SM 35/23 RMK SLP054 T03470231 52010 IEM_DS3505
ZHHH,2006-06-20 13:00,ZHHH 201300Z AUTO 23002KT 6SM 32/28 A2971 RMK T03200280 IEM_DS3505
ZHHH,2006-06-20 14:00,ZHHH 201400Z AUTO 00000KT 6SM 33/27 A2974 RMK T03300270 IEM_DS3505
ZHHH,2006-06-20 15:00,ZHHH 201500Z AUTO 20002KT 11SM 33/25 A2974 RMK SLP071 T03310251 52017 IEM_DS3505
ZHHH,2006-06-20 16:00,ZHHH 201600Z AUTO 6SM 32/27 A2974 RMK T03200270 IEM_DS3505
ZHHH,2006-06-20 17:00,ZHHH 201700Z AUTO 21004KT 7SM 31/27 A2974 RMK T03100270 IEM_DS3505
ZHHH,2006-06-20 18:00,ZHHH 201800Z AUTO 20002KT 9SM 31/25 A2971 RMK SLP060 T03140253 57011 IEM_DS3505
ZHHH,2006-06-20 19:00,ZHHH 201900Z AUTO 18004KT 6SM 30/27 A2971 RMK T03000270 IEM_DS3505
ZHHH,2006-06-20 20:00,ZHHH 202000Z AUTO 20004KT 6SM 30/27 A2974 RMK T03000270 IEM_DS3505
ZHHH,2006-06-20 21:00,ZHHH 202100Z AUTO 11002KT 9SM 31/24 A2974 RMK SLP064 T03060245 52004 IEM_DS3505
ZHHH,2006-06-20 22:00,ZHHH 202200Z AUTO 11004KT 6SM 29/26 A2971 RMK T02900260 IEM_DS3505
ZHHH,2006-06-20 23:00,ZHHH 202300Z AUTO 11008KT 6SM 29/27 A2974 RMK T02900270 IEM_DS3505
ZHHH,2006-06-21 00:00,ZHHH 210000Z AUTO 14002KT 9SM 32/24 A2974 RMK SLP071 T03250240 52007 IEM_DS3505
ZHHH,2006-06-21 01:00,ZHHH 210100Z AUTO 12008KT 6SM 32/28 A2977 RMK T03200280 IEM_DS3505
ZHHH,2006-06-21 02:00,ZHHH 210200Z AUTO 20008KT 7SM 34/26 A2977 RMK T03400260 IEM_DS3505
ZHHH,2006-06-21 03:00,ZHHH 210300Z AUTO 18004KT 11SM 35/24 A2974 RMK SLP067 T03520235 57004 IEM_DS3505
ZHHH,2006-06-21 04:00,ZHHH 210400Z AUTO 20008KT 7SM 35/27 A2974 RMK T03500270 IEM_DS3505
ZHHH,2006-06-21 05:00,ZHHH 210500Z AUTO 22008KT 7SM 34/26 A2971 RMK T03400260 IEM_DS3505
ZHHH,2006-06-21 06:00,ZHHH 210600Z AUTO 20004KT 9SM 35/23 A2968 RMK SLP048 T03530233 57019 IEM_DS3505
ZHHH,2006-06-21 07:00,ZHHH 210700Z AUTO 20010KT 7SM 36/27 A2965 RMK T03600270 IEM_DS3505
ZHHH,2006-06-21 08:00,ZHHH 210800Z AUTO 23010KT 6SM 36/27 A2965 RMK T03600270 IEM_DS3505
ZHHH,2006-06-21 09:00,ZHHH 210900Z AUTO 25004KT 9SM 35/24 A2962 RMK SLP029 T03540244 57019 IEM_DS3505
ZHHH,2006-06-21 10:00,ZHHH 211000Z AUTO 6SM 34/27 A2962 RMK T03400270 IEM_DS3505
ZHHH,2006-06-21 11:00,ZHHH 211100Z AUTO 34002KT 6SM 33/27 A2965 RMK T03300270 IEM_DS3505
ZHHH,2006-06-21 12:00,ZHHH 211200Z AUTO 27002KT 9SM 34/24 A2965 RMK SLP040 T03380241 52011 IEM_DS3505
ZHHH,2006-06-21 13:00,ZHHH 211300Z AUTO 02002KT 6SM 32/28 A2968 RMK T03200280 IEM_DS3505
ZHHH,2006-06-21 14:00,ZHHH 211400Z AUTO 02004KT 6SM 31/28 A2968 RMK T03100280 IEM_DS3505
ZHHH,2006-06-21 15:00,ZHHH 211500Z AUTO 02002KT 9SM 32/25 A2968 RMK SLP051 T03230254 52011 IEM_DS3505
ZHHH,2006-06-21 16:00,ZHHH 211600Z AUTO 05008KT 6SM 29/28 A2968 RMK T02900280 IEM_DS3505
ZHHH,2006-06-21 17:00,ZHHH 211700Z AUTO 07008KT 4SM 29/27 A2965 RMK T02900270 IEM_DS3505
ZHHH,2006-06-21 18:00,ZHHH 211800Z AUTO 07004KT 12SM 30/26 A2965 RMK SLP040 T02970261 57011 IEM_DS3505
ZHHH,2006-06-21 19:00,ZHHH 211900Z AUTO 07006KT 4SM 27/26 A2965 RMK T02700260 IEM_DS3505
ZHHH,2006-06-21 20:00,ZHHH 212000Z AUTO 07008KT 2 1/2SM 27/26 A2965 RMK T02700260 IEM_DS3505
ZHHH,2006-06-21 21:00,ZHHH 212100Z AUTO 04004KT 7SM 28/26 A2965 RMK SLP038 T02830255 57002 IEM_DS3505
ZHHH,2006-06-21 22:00,ZHHH 212200Z AUTO 08006KT 1 1/2SM 26/25 A2965 RMK T02600250 IEM_DS3505
ZHHH,2006-06-21 23:00,ZHHH 212300Z AUTO 08008KT 1SM 27/26 A2968 RMK T02700260 IEM_DS3505
ZHHH,2006-06-22 00:00,ZHHH 220000Z AUTO 07004KT 11SM 30/26 A2968 RMK SLP048 T03050256 52010 IEM_DS3505
ZHHH,2006-06-22 01:00,ZHHH 220100Z AUTO 10006KT 1 1/2SM 30/27 A2968 RMK T03000270 IEM_DS3505
ZHHH,2006-06-22 02:00,ZHHH 220200Z AUTO 2SM 32/28 A2968 RMK T03200280 IEM_DS3505
ZHHH,2006-06-22 03:00,ZHHH 220300Z AUTO 27008KT 12SM 34/24 A2968 RMK SLP048 T03440240 54000 IEM_DS3505
ZHHH,2006-06-22 04:00,ZHHH 220400Z AUTO 29006KT 2SM 33/29 A2968 RMK T03300290 IEM_DS3505
ZHHH,2006-06-22 05:00,ZHHH 220500Z AUTO 31008KT 2 1/2SM 34/29 A2965 RMK T03400290 IEM_DS3505
ZHHH,2006-06-22 06:00,ZHHH 220600Z AUTO 27008KT 9SM 34/25 A2962 RMK SLP032 T03440252 57016 IEM_DS3505
ZHHH,2006-06-22 07:00,ZHHH 220700Z AUTO 32010KT 2 1/2SM 34/28 A2962 RMK T03400280 IEM_DS3505
ZHHH,2006-06-22 08:00,ZHHH 220800Z AUTO 33010KT 2 1/2SM 32/27 A2962 RMK T03200270 IEM_DS3505
ZHHH,2006-06-22 09:00,ZHHH 220900Z AUTO 32006KT 7SM 33/25 A2962 RMK SLP025 T03260249 57007 IEM_DS3505
ZHHH,2006-06-22 10:00,ZHHH 221000Z AUTO 35008KT 2 1/2SM 30/26 A2962 RMK T03000260 IEM_DS3505
ZHHH,2006-06-22 11:00,ZHHH 221100Z AUTO 36008KT 2 1/2SM 29/25 A2965 RMK T02900250 IEM_DS3505
ZHHH,2006-06-22 12:00,ZHHH 221200Z AUTO 36004KT 9SM 29/23 A2965 RMK SLP042 T02890233 52017 IEM_DS3505
ZHHH,2006-06-22 13:00,ZHHH 221300Z AUTO 05008KT 2SM 27/24 A2968 RMK T02700240 IEM_DS3505
ZHHH,2006-06-22 14:00,ZHHH 221400Z AUTO 04008KT 2 1/2SM 26/24 A2971 RMK T02600240 IEM_DS3505
ZHHH,2006-06-22 15:00,ZHHH 221500Z AUTO 02008KT 9SM 27/22 A2974 RMK SLP063 T02660220 52021 IEM_DS3505
ZHHH,2006-06-22 16:00,ZHHH 221600Z AUTO 06010KT 2 1/2SM 25/23 A2971 RMK T02500230 IEM_DS3505
ZHHH,2006-06-22 17:00,ZHHH 221700Z AUTO 05008KT 2 1/2SM 25/23 A2971 RMK T02500230 IEM_DS3505
ZHHH,2006-06-22 18:00,ZHHH 221800Z AUTO 04004KT 9SM 26/22 A2971 RMK SLP056 T02550220 57007 IEM_DS3505
ZHHH,2006-06-22 19:00,ZHHH 221900Z AUTO 01004KT 1 1/2SM 24/23 A2971 RMK T02400230 IEM_DS3505
ZHHH,2006-06-22 20:00,ZHHH 222000Z AUTO 04004KT 1 1/2SM 24/23 A2971 RMK T02400230 IEM_DS3505
ZHHH,2006-06-22 21:00,ZHHH 222100Z AUTO 02004KT 9SM 26/22 A2971 RMK SLP056 T02550224 54000 IEM_DS3505
ZHHH,2006-06-22 22:00,ZHHH 222200Z AUTO 03004KT 1 1/2SM 25/23 A2971 RMK T02500230 IEM_DS3505
ZHHH,2006-06-22 23:00,ZHHH 222300Z AUTO 01004KT 1 1/2SM 24/23 A2974 RMK T02400230 IEM_DS3505
ZHHH,2006-06-23 00:00,ZHHH 230000Z AUTO 02004KT 9SM 26/22 A2974 RMK SLP072 T02580221 52015 IEM_DS3505
ZHHH,2006-06-23 01:00,ZHHH 230100Z AUTO 35004KT 2 1/2SM 25/23 A2977 RMK T02500230 IEM_DS3505
ZHHH,2006-06-23 02:00,ZHHH 230200Z AUTO 05006KT 4SM 25/23 A2974 RMK T02500230 IEM_DS3505
ZHHH,2006-06-23 03:00,ZHHH 230300Z AUTO 04002KT 9SM 27/22 A2977 RMK SLP076 T02660218 52004 IEM_DS3505
ZHHH,2006-06-23 04:00,ZHHH 230400Z AUTO 6SM 27/24 A2977 RMK T02700240 IEM_DS3505
ZHHH,2006-06-23 05:00,ZHHH 230500Z AUTO 32004KT 7SM 29/25 A2974 RMK T02900250 IEM_DS3505
ZHHH,2006-06-23 06:00,ZHHH 230600Z AUTO 29004KT 11SM 30/22 A2971 RMK SLP060 T02970222 57016 IEM_DS3505
ZHHH,2006-06-23 07:00,ZHHH 230700Z AUTO 30006KT 7SM 30/25 A2971 RMK T03000250 IEM_DS3505
ZHHH,2006-06-23 08:00,ZHHH 230800Z AUTO 30006KT 7SM 30/25 A2971 RMK T03000250 IEM_DS3505
ZHHH,2006-06-23 09:00,ZHHH 230900Z AUTO 29004KT 9SM 30/22 A2968 RMK SLP050 T02980223 57010 IEM_DS3505
ZHHH,2006-06-23 10:00,ZHHH 231000Z AUTO 35006KT 6SM 28/24 A2968 RMK T02800240 IEM_DS3505
ZHHH,2006-06-23 11:00,ZHHH 231100Z AUTO 35006KT 6SM 28/24 A2971 RMK T02800240 IEM_DS3505
ZHHH,2006-06-23 12:00,ZHHH 231200Z AUTO 29002KT 11SM 28/22 A2971 RMK SLP059 T02800225 52009 IEM_DS3505
ZHHH,2006-06-23 13:00,ZHHH 231300Z AUTO 02006KT 6SM 26/23 A2974 RMK T02600230 IEM_DS3505
ZHHH,2006-06-23 14:00,ZHHH 231400Z AUTO 03004KT 6SM 26/23 A2974 RMK T02600230 IEM_DS3505
ZHHH,2006-06-23 15:00,ZHHH 231500Z AUTO 02004KT 11SM 26/22 A2977 RMK SLP075 T02630215 52016 IEM_DS3505
ZHHH,2006-06-23 16:00,ZHHH 231600Z AUTO 04004KT 6SM 25/23 A2977 RMK T02500230 IEM_DS3505
ZHHH,2006-06-23 17:00,ZHHH 231700Z AUTO 02004KT 6SM 25/23 A2974 RMK T02500230 IEM_DS3505
ZHHH,2006-06-23 18:00,ZHHH 231800Z AUTO 04004KT 9SM 26/21 A2974 RMK SLP071 T02620214 57004 IEM_DS3505
ZHHH,2006-06-23 19:00,ZHHH 231900Z AUTO 01004KT 7SM 25/24 A2974 RMK T02500240 IEM_DS3505
ZHHH,2006-06-23 20:00,ZHHH 232000Z AUTO 03004KT 7SM 25/23 A2974 RMK T02500230 IEM_DS3505
ZHHH,2006-06-23 21:00,ZHHH 232100Z AUTO 02002KT 9SM 26/22 A2974 RMK SLP065 T02560221 57006 IEM_DS3505
ZHHH,2006-06-23 22:00,ZHHH 232200Z AUTO 06004KT 7SM 24/23 A2974 RMK T02400230 IEM_DS3505
ZHHH,2006-06-23 23:00,ZHHH 232300Z AUTO 01002KT 7SM 25/23 A2974 RMK T02500230 IEM_DS3505
ZHHH,2006-06-24 00:00,ZHHH 240000Z AUTO 34002KT 9SM 26/22 A2977 RMK 60000 70000 SLP079 T02590220 52014 IEM_DS3505
ZHHH,2006-06-24 01:00,ZHHH 240100Z AUTO 2 1/2SM 24/24 A2977 RMK T02400240 IEM_DS3505
ZHHH,2006-06-24 02:00,ZHHH 240200Z AUTO 2 1/2SM 24/24 A2977 RMK T02400240 IEM_DS3505
ZHHH,2006-06-24 03:00,ZHHH 240300Z AUTO 29002KT 6SM 24/23 A2980 RMK SLP087 T02390229 52008 IEM_DS3505
ZHHH,2006-06-24 04:00,ZHHH 240400Z AUTO 07006KT 1 1/2SM 23/23 A2977 RMK T02300230 IEM_DS3505
ZHHH,2006-06-24 05:00,ZHHH 240500Z AUTO 4SM 25/24 A2974 RMK T02500240 IEM_DS3505
ZHHH,2006-06-24 06:00,ZHHH 240600Z AUTO 07002KT 9SM 27/22 A2974 RMK 60110 SLP073 T02740217 57014 IEM_DS3505
ZHHH,2006-06-24 07:00,ZHHH 240700Z AUTO 22004KT 7SM 27/24 A2974 RMK T02700240 IEM_DS3505
ZHHH,2006-06-24 08:00,ZHHH 240800Z AUTO 25004KT 6SM 29/25 A2971 RMK T02900250 IEM_DS3505
ZHHH,2006-06-24 09:00,ZHHH 240900Z AUTO 14002KT 9SM 28/21 A2968 RMK SLP048 T02840209 57025 IEM_DS3505
ZHHH,2006-06-24 10:00,ZHHH 241000Z AUTO 19004KT 6SM 28/24 A2968 RMK T02800240 IEM_DS3505
ZHHH,2006-06-24 11:00,ZHHH 241100Z AUTO 17004KT 6SM 27/23 A2971 RMK T02700230 IEM_DS3505
ZHHH,2006-06-24 12:00,ZHHH 241200Z AUTO 09002KT 9SM 27/23 A2971 RMK SLP060 T02700230 52012 IEM_DS3505
ZHHH,2006-06-24 13:00,ZHHH 241300Z AUTO 17002KT 6SM 26/22 A2971 RMK T02600220 IEM_DS3505
ZHHH,2006-06-24 14:00,ZHHH 241400Z AUTO 23004KT 6SM 26/24 A2974 RMK T02600240 IEM_DS3505
ZHHH,2006-06-24 15:00,ZHHH 241500Z AUTO 22002KT 9SM 26/24 A2974 RMK SLP070 T02580238 52010 IEM_DS3505
ZHHH,2006-06-24 16:00,ZHHH 241600Z AUTO 22006KT 6SM 25/25 A2974 RMK T02500250 IEM_DS3505
ZHHH,2006-06-24 17:00,ZHHH 241700Z AUTO 4SM 25/25 A2974 RMK T02500250 IEM_DS3505
ZHHH,2006-06-24 18:00,ZHHH 241800Z AUTO 27002KT 7SM 25/24 A2971 RMK SLP064 T02520238 57006 IEM_DS3505
ZHHH,2006-06-24 19:00,ZHHH 241900Z AUTO 00000KT 3SM 24/24 A2974 RMK T02400240 IEM_DS3505
ZHHH,2006-06-24 20:00,ZHHH 242000Z AUTO 06004KT 2SM 24/24 A2974 RMK T02400240 IEM_DS3505
ZHHH,2006-06-24 21:00,ZHHH 242100Z AUTO 32002KT 6SM 26/24 A2974 RMK 70111 SLP065 T02560240 52001 IEM_DS3505
ZHHH,2006-06-24 22:00,ZHHH 242200Z AUTO 08006KT 1/2SM 24/24 A2974 RMK T02400240 IEM_DS3505
ZHHH,2006-06-24 23:00,ZHHH 242300Z AUTO 12006KT 1/4SM 24/24 A2974 RMK T02400240 IEM_DS3505
ZHHH,2006-06-25 00:00,ZHHH 250000Z AUTO 18004KT 7SM 27/24 A2971 RMK 70111 SLP067 T02710238 52002 IEM_DS3505
ZHHH,2006-06-25 01:00,ZHHH 250100Z AUTO 18006KT 1 1/2SM 27/26 A2974 RMK T02700260 IEM_DS3505
ZHHH,2006-06-25 02:00,ZHHH 250200Z AUTO 19006KT 2 1/2SM 29/26 A2971 RMK T02900260 IEM_DS3505
ZHHH,2006-06-25 03:00,ZHHH 250300Z AUTO 20004KT 7SM 30/23 A2971 RMK SLP064 T03030232 57003 IEM_DS3505
ZHHH,2006-06-25 04:00,ZHHH 250400Z AUTO 21004KT 5SM 31/26 A2971 RMK T03100260 IEM_DS3505
ZHHH,2006-06-25 05:00,ZHHH 250500Z AUTO 19004KT 5SM 32/26 A2971 RMK T03200260 IEM_DS3505
ZHHH,2006-06-25 06:00,ZHHH 250600Z AUTO 20004KT 9SM 32/23 A2971 RMK SLP057 T03220234 57007 IEM_DS3505
ZHHH,2006-06-25 07:00,ZHHH 250700Z AUTO 24008KT 5SM 33/26 A2968 RMK T03300260 IEM_DS3505
ZHHH,2006-06-25 08:00,ZHHH 250800Z AUTO 24008KT 7SM 32/25 A2968 RMK T03200250 IEM_DS3505
ZHHH,2006-06-25 09:00,ZHHH 250900Z AUTO 25006KT 9SM 32/23 A2965 RMK SLP043 T03190234 57013 IEM_DS3505
ZHHH,2006-06-25 10:00,ZHHH 251000Z AUTO 22010KT 7SM 31/26 A2965 RMK T03100260 IEM_DS3505
ZHHH,2006-06-25 11:00,ZHHH 251100Z AUTO 23008KT 5SM 30/26 A2965 RMK T03000260 IEM_DS3505
ZHHH,2006-06-25 12:00,ZHHH 251200Z AUTO 25004KT 9SM 29/24 A2968 RMK SLP045 T02890238 52001 IEM_DS3505
ZHHH,2006-06-25 13:00,ZHHH 251300Z AUTO 21008KT 3SM 27/26 A2968 RMK T02700260 IEM_DS3505
ZHHH,2006-06-25 14:00,ZHHH 251400Z AUTO 20006KT 3SM 27/25 A2968 RMK T02700250 IEM_DS3505
ZHHH,2006-06-25 15:00,ZHHH 251500Z AUTO 14002KT 9SM 28/24 A2971 RMK SLP055 T02770241 52011 IEM_DS3505
ZHHH,2006-06-25 16:00,ZHHH 251600Z AUTO 19004KT 3SM 27/26 A2971 RMK T02700260 IEM_DS3505
ZHHH,2006-06-25 17:00,ZHHH 251700Z AUTO 3SM 26/25 A2971 RMK T02600250 IEM_DS3505
ZHHH,2006-06-25 18:00,ZHHH 251800Z AUTO 22004KT 11SM 27/24 A2971 RMK SLP058 T02710242 52003 IEM_DS3505
ZHHH,2006-06-25 19:00,ZHHH 251900Z AUTO 21006KT 1 1/2SM 26/25 A2971 RMK T02600250 IEM_DS3505
ZHHH,2006-06-25 20:00,ZHHH 252000Z AUTO 22008KT 1 1/2SM 26/25 A2971 RMK T02600250 IEM_DS3505
ZHHH,2006-06-25 21:00,ZHHH 252100Z AUTO 29002KT 11SM 26/22 A2971 RMK SLP060 T02630222 52002 IEM_DS3505
ZHHH,2006-06-25 22:00,ZHHH 252200Z AUTO 20004KT 6SM 26/24 A2971 RMK T02600240 IEM_DS3505
ZHHH,2006-06-25 23:00,ZHHH 252300Z AUTO 6SM 27/24 A2971 RMK T02700240 IEM_DS3505
ZHHH,2006-06-26 00:00,ZHHH 260000Z AUTO 14004KT 12SM 28/23 A2971 RMK SLP064 T02840226 52003 IEM_DS3505
ZHHH,2006-06-26 01:00,ZHHH 260100Z AUTO 18010KT 6SM 29/25 A2971 RMK T02900250 IEM_DS3505
ZHHH,2006-06-26 02:00,ZHHH 260200Z AUTO 19010KT 6SM 31/26 A2971 RMK T03100260 IEM_DS3505
ZHHH,2006-06-26 03:00,ZHHH 260300Z AUTO 20006KT 16SM 32/23 A2971 RMK SLP060 T03160226 57003 IEM_DS3505
ZHHH,2006-06-26 04:00,ZHHH 260400Z AUTO 21010KT 7SM 32/25 A2971 RMK T03200250 IEM_DS3505
ZHHH,2006-06-26 05:00,ZHHH 260500Z AUTO 23010KT 7SM 33/26 A2968 RMK T03300260 IEM_DS3505
ZHHH,2006-06-26 06:00,ZHHH 260600Z AUTO 18004KT 14SM 33/23 A2965 RMK SLP043 T03330233 57017 IEM_DS3505
ZHHH,2006-06-26 07:00,ZHHH 260700Z AUTO 22008KT 7SM 33/26 A2965 RMK T03300260 IEM_DS3505
ZHHH,2006-06-26 08:00,ZHHH 260800Z AUTO 22008KT 7SM 33/26 A2962 RMK T03300260 IEM_DS3505
ZHHH,2006-06-26 09:00,ZHHH 260900Z AUTO 25004KT 12SM 34/24 A2962 RMK SLP027 T03380235 57016 IEM_DS3505
ZHHH,2006-06-26 10:00,ZHHH 261000Z AUTO 23006KT 7SM 33/26 A2962 RMK T03300260 IEM_DS3505
ZHHH,2006-06-26 11:00,ZHHH 261100Z AUTO 23006KT 7SM 31/26 A2965 RMK T03100260 IEM_DS3505
ZHHH,2006-06-26 12:00,ZHHH 261200Z AUTO 25004KT 9SM 32/24 A2965 RMK SLP043 T03160237 52016 IEM_DS3505
ZHHH,2006-06-26 13:00,ZHHH 261300Z AUTO 22002KT 6SM 30/27 A2968 RMK T03000270 IEM_DS3505
ZHHH,2006-06-26 14:00,ZHHH 261400Z AUTO 16004KT 6SM 29/26 A2968 RMK T02900260 IEM_DS3505
ZHHH,2006-06-26 15:00,ZHHH 261500Z AUTO 14002KT 9SM 29/23 A2968 RMK SLP052 T02940234 52009 IEM_DS3505
ZHHH,2006-06-26 16:00,ZHHH 261600Z AUTO 16004KT 6SM 29/25 A2968 RMK T02900250 IEM_DS3505
ZHHH,2006-06-26 17:00,ZHHH 261700Z AUTO 16004KT 6SM 29/25 A2968 RMK T02900250 IEM_DS3505
ZHHH,2006-06-26 18:00,ZHHH 261800Z AUTO 11002KT 9SM 29/24 A2965 RMK SLP044 T02880239 57008 IEM_DS3505
ZHHH,2006-06-26 19:00,ZHHH 261900Z AUTO 15004KT 6SM 28/26 A2965 RMK T02800260 IEM_DS3505
ZHHH,2006-06-26 20:00,ZHHH 262000Z AUTO 11004KT 6SM 28/26 A2965 RMK T02800260 IEM_DS3505
ZHHH,2006-06-26 21:00,ZHHH 262100Z AUTO 16004KT 9SM 28/25 A2965 RMK SLP039 T02820250 57005 IEM_DS3505
ZHHH,2006-06-26 22:00,ZHHH 262200Z AUTO 18006KT 6SM 28/26 A2965 RMK T02800260 IEM_DS3505
ZHHH,2006-06-26 23:00,ZHHH 262300Z AUTO 17006KT 6SM 28/26 A2965 RMK T02800260 IEM_DS3505
ZHHH,2006-06-27 00:00,ZHHH 270000Z AUTO 20006KT 9SM 30/24 A2968 RMK SLP048 T02950237 52009 IEM_DS3505
ZHHH,2006-06-27 01:00,ZHHH 270100Z AUTO 22008KT 7SM 29/26 A2968 RMK T02900260 IEM_DS3505
ZHHH,2006-06-27 02:00,ZHHH 270200Z AUTO 22010KT 7SM 31/26 A2968 RMK T03100260 IEM_DS3505
ZHHH,2006-06-27 03:00,ZHHH 270300Z AUTO 22006KT 11SM 32/24 A2968 RMK SLP051 T03200235 52003 IEM_DS3505
ZHHH,2006-06-27 04:00,ZHHH 270400Z AUTO 22010KT 7SM 33/27 A2968 RMK T03300270 IEM_DS3505
ZHHH,2006-06-27 05:00,ZHHH 270500Z AUTO 21010KT 7SM 33/27 A2965 RMK T03300270 IEM_DS3505
ZHHH,2006-06-27 06:00,ZHHH 270600Z AUTO 25006KT 12SM 34/23 A2962 RMK SLP032 T03450229 57019 IEM_DS3505
ZHHH,2006-06-27 07:00,ZHHH 270700Z AUTO 22012KT 7SM 34/26 A2962 RMK T03400260 IEM_DS3505
ZHHH,2006-06-27 08:00,ZHHH 270800Z AUTO 23010KT 7SM 34/26 A2959 RMK T03400260 IEM_DS3505
ZHHH,2006-06-27 09:00,ZHHH 270900Z AUTO 25002KT 12SM 34/24 A2956 RMK SLP011 T03410238 57021 IEM_DS3505
ZHHH,2006-06-27 10:00,ZHHH 271000Z AUTO 21004KT 6SM 32/27 A2956 RMK T03200270 IEM_DS3505
ZHHH,2006-06-27 11:00,ZHHH 271100Z AUTO 22010KT 7SM 32/27 A2959 RMK T03200270 IEM_DS3505
ZHHH,2006-06-27 12:00,ZHHH 271200Z AUTO 29002KT 11SM 32/24 A2962 RMK SLP027 T03160245 52016 IEM_DS3505
ZHHH,2006-06-27 13:00,ZHHH 271300Z AUTO 16004KT 6SM 30/27 A2965 RMK T03000270 IEM_DS3505
ZHHH,2006-06-27 14:00,ZHHH 271400Z AUTO 13004KT 6SM 29/27 A2968 RMK T02900270 IEM_DS3505
ZHHH,2006-06-27 15:00,ZHHH 271500Z AUTO 11004KT 12SM 31/24 A2968 RMK SLP043 T03110242 52016 IEM_DS3505
ZHHH,2006-06-27 16:00,ZHHH 271600Z AUTO 12008KT 6SM 28/27 A2968 RMK T02800270 IEM_DS3505
ZHHH,2006-06-27 17:00,ZHHH 271700Z AUTO 12008KT 6SM 28/27 A2968 RMK T02800270 IEM_DS3505
ZHHH,2006-06-27 18:00,ZHHH 271800Z AUTO 09004KT 9SM 29/25 A2965 RMK SLP040 T02910251 57003 IEM_DS3505
ZHHH,2006-06-27 19:00,ZHHH 271900Z AUTO 13008KT 6SM 27/26 A2965 RMK T02700260 IEM_DS3505
ZHHH,2006-06-27 20:00,ZHHH 272000Z AUTO 13008KT 6SM 27/26 A2962 RMK T02700260 IEM_DS3505
ZHHH,2006-06-27 21:00,ZHHH 272100Z AUTO 14004KT 9SM 28/25 A2962 RMK SLP026 T02840250 57014 IEM_DS3505
ZHHH,2006-06-27 22:00,ZHHH 272200Z AUTO 14006KT 3SM 28/27 A2962 RMK T02800270 IEM_DS3505
ZHHH,2006-06-27 23:00,ZHHH 272300Z AUTO 18006KT 6SM 29/26 A2962 RMK T02900260 IEM_DS3505
ZHHH,2006-06-28 00:00,ZHHH 280000Z AUTO 18006KT 11SM 31/23 A2965 RMK SLP041 T03070228 52015 IEM_DS3505
ZHHH,2006-06-28 01:00,ZHHH 280100Z AUTO 18010KT 6SM 32/26 A2968 RMK T03200260 IEM_DS3505
ZHHH,2006-06-28 02:00,ZHHH 280200Z AUTO 19010KT 7SM 31/26 A2968 RMK T03100260 IEM_DS3505
ZHHH,2006-06-28 03:00,ZHHH 280300Z AUTO 22004KT 11SM 33/23 A2968 RMK SLP049 T03260233 52008 IEM_DS3505
ZHHH,2006-06-28 04:00,ZHHH 280400Z AUTO 20012KT 7SM 33/27 A2965 RMK T03300270 IEM_DS3505
ZHHH,2006-06-28 05:00,ZHHH 280500Z AUTO 19012KT 7SM 33/26 A2965 RMK T03300260 IEM_DS3505
ZHHH,2006-06-28 06:00,ZHHH 280600Z AUTO 22006KT 12SM 34/24 A2962 RMK SLP032 T03420239 57017 IEM_DS3505
ZHHH,2006-06-28 07:00,ZHHH 280700Z AUTO 19012KT 7SM 34/27 A2962 RMK T03400270 IEM_DS3505
ZHHH,2006-06-28 08:00,ZHHH 280800Z AUTO 19010KT 7SM 33/27 A2959 RMK T03300270 IEM_DS3505
ZHHH,2006-06-28 09:00,ZHHH 280900Z AUTO 16004KT 11SM 34/24 A2956 RMK SLP011 T03430240 57021 IEM_DS3505
ZHHH,2006-06-28 10:00,ZHHH 281000Z AUTO 18010KT 6SM 33/26 A2956 RMK T03300260 IEM_DS3505
ZHHH,2006-06-28 11:00,ZHHH 281100Z AUTO 17008KT 6SM 32/27 A2959 RMK T03200270 IEM_DS3505
ZHHH,2006-06-28 12:00,ZHHH 281200Z AUTO 11002KT 11SM 32/24 A2959 RMK SLP019 T03190237 52008 IEM_DS3505
ZHHH,2006-06-28 13:00,ZHHH 281300Z AUTO 14010KT 6SM 30/27 A2959 RMK T03000270 IEM_DS3505
ZHHH,2006-06-28 14:00,ZHHH 281400Z AUTO 14008KT 6SM 30/26 A2962 RMK T03000260 IEM_DS3505
ZHHH,2006-06-28 15:00,ZHHH 281500Z AUTO 11004KT 11SM 30/24 A2962 RMK SLP024 T03020241 52005 IEM_DS3505
ZHHH,2006-06-28 16:00,ZHHH 281600Z AUTO 14008KT 6SM 29/26 A2959 RMK T02900260 IEM_DS3505
ZHHH,2006-06-28 17:00,ZHHH 281700Z AUTO 14008KT 6SM 28/26 A2956 RMK T02800260 IEM_DS3505
ZHHH,2006-06-28 18:00,ZHHH 281800Z AUTO 09002KT 11SM 29/24 A2956 RMK SLP010 T02930237 57014 IEM_DS3505
ZHHH,2006-06-28 19:00,ZHHH 281900Z AUTO 14006KT 6SM 28/26 A2956 RMK T02800260 IEM_DS3505
ZHHH,2006-06-28 20:00,ZHHH 282000Z AUTO 14006KT 6SM 28/26 A2956 RMK T02800260 IEM_DS3505
ZHHH,2006-06-28 21:00,ZHHH 282100Z AUTO 14004KT 11SM 29/24 A2956 RMK SLP013 T02890236 52003 IEM_DS3505
ZHHH,2006-06-28 22:00,ZHHH 282200Z AUTO 17008KT 6SM 28/26 A2959 RMK T02800260 IEM_DS3505
ZHHH,2006-06-28 23:00,ZHHH 282300Z AUTO 17008KT 6SM 29/26 A2959 RMK T02900260 IEM_DS3505
ZHHH,2006-06-29 00:00,ZHHH 290000Z AUTO 18004KT 11SM 30/24 A2962 RMK 60000 70000 SLP028 T03010235 52015 IEM_DS3505
ZHHH,2006-06-29 01:00,ZHHH 290100Z AUTO 21012KT 6SM 31/26 A2962 RMK T03100260 IEM_DS3505
ZHHH,2006-06-29 02:00,ZHHH 290200Z AUTO 22016KT 6SM 32/25 A2962 RMK T03200250 IEM_DS3505
ZHHH,2006-06-29 03:00,ZHHH 290300Z AUTO 22006KT 16SM 34/22 A2959 RMK SLP023 T03430224 57005 IEM_DS3505
ZHHH,2006-06-29 04:00,ZHHH 290400Z AUTO 22017KT 6SM 35/25 A2959 RMK T03500250 IEM_DS3505
ZHHH,2006-06-29 05:00,ZHHH 290500Z AUTO 23017KT 7SM 35/25 A2959 RMK T03500250 IEM_DS3505
ZHHH,2006-06-29 06:00,ZHHH 290600Z AUTO 25008KT 12SM 36/22 A2959 RMK SLP018 T03600222 57005 IEM_DS3505
ZHHH,2006-06-29 07:00,ZHHH 290700Z AUTO 23014KT 7SM 36/26 A2956 RMK T03600260 IEM_DS3505
ZHHH,2006-06-29 08:00,ZHHH 290800Z AUTO 22014KT 7SM 36/26 A2956 RMK T03600260 IEM_DS3505
ZHHH,2006-06-29 09:00,ZHHH 290900Z AUTO 25004KT 12SM 36/23 A2956 RMK SLP010 T03550231 57008 IEM_DS3505
ZHHH,2006-06-29 10:00,ZHHH 291000Z AUTO 23008KT 7SM 34/27 A2959 RMK T03400270 IEM_DS3505
ZHHH,2006-06-29 11:00,ZHHH 291100Z AUTO 22006KT 6SM 33/26 A2959 RMK T03300260 IEM_DS3505
ZHHH,2006-06-29 12:00,ZHHH 291200Z AUTO 22002KT 9SM 33/24 A2959 RMK SLP020 T03320238 52010 IEM_DS3505
ZHHH,2006-06-29 13:00,ZHHH 291300Z AUTO 13006KT 6SM 31/27 A2962 RMK T03100270 IEM_DS3505
ZHHH,2006-06-29 14:00,ZHHH 291400Z AUTO 14008KT 6SM 30/27 A2965 RMK T03000270 IEM_DS3505
ZHHH,2006-06-29 15:00,ZHHH 291500Z AUTO 14002KT 9SM 31/25 A2965 RMK SLP038 T03090253 52017 IEM_DS3505
ZHHH,2006-06-29 16:00,ZHHH 291600Z AUTO 12004KT 6SM 29/28 A2965 RMK T02900280 IEM_DS3505
ZHHH,2006-06-29 17:00,ZHHH 291700Z AUTO 14004KT 6SM 29/28 A2965 RMK T02900280 IEM_DS3505
ZHHH,2006-06-29 18:00,ZHHH 291800Z AUTO 18002KT 12SM 30/24 A2965 RMK SLP037 T03020241 54000 IEM_DS3505
ZHHH,2006-06-29 19:00,ZHHH 291900Z AUTO 17006KT 6SM 30/26 A2962 RMK T03000260 IEM_DS3505
ZHHH,2006-06-29 20:00,ZHHH 292000Z AUTO 17006KT 6SM 29/26 A2965 RMK T02900260 IEM_DS3505
ZHHH,2006-06-29 21:00,ZHHH 292100Z AUTO 11002KT 11SM 30/24 A2965 RMK 70000 SLP037 T02950239 54000 IEM_DS3505
ZHHH,2006-06-29 22:00,ZHHH 292200Z AUTO 18008KT 6SM 29/26 A2965 RMK T02900260 IEM_DS3505
ZHHH,2006-06-29 23:00,ZHHH 292300Z AUTO 18010KT 6SM 31/26 A2968 RMK T03100260 IEM_DS3505
ZHHH,2006-06-30 00:00,ZHHH 300000Z AUTO 20004KT 12SM 32/24 A2968 RMK SLP048 T03200238 52011 IEM_DS3505
ZHHH,2006-06-30 01:00,ZHHH 300100Z AUTO 21014KT 6SM 33/25 A2968 RMK T03300250 IEM_DS3505
ZHHH,2006-06-30 02:00,ZHHH 300200Z AUTO 22019KT 6SM 34/25 A2968 RMK T03400250 IEM_DS3505
ZHHH,2006-06-30 03:00,ZHHH 300300Z AUTO 20006KT 12SM 34/21 A2968 RMK SLP050 T03450212 52002 IEM_DS3505
ZHHH,2006-06-30 04:00,ZHHH 300400Z AUTO 22016KT 7SM 35/25 A2968 RMK T03500250 IEM_DS3505
ZHHH,2006-06-30 05:00,ZHHH 300500Z AUTO 23017KT 7SM 36/25 A2968 RMK T03600250 IEM_DS3505
ZHHH,2006-06-30 06:00,ZHHH 300600Z AUTO 25008KT 12SM 36/22 A2965 RMK SLP039 T03610215 57011 IEM_DS3505
ZHHH,2006-06-30 07:00,ZHHH 300700Z AUTO 22016KT 7SM 36/25 A2965 RMK T03600250 IEM_DS3505
ZHHH,2006-06-30 08:00,ZHHH 300800Z AUTO 23012KT 7SM 35/25 A2962 RMK T03500250 IEM_DS3505
ZHHH,2006-06-30 09:00,ZHHH 300900Z AUTO 27006KT 11SM 35/22 A2962 RMK SLP026 T03510217 57013 IEM_DS3505
ZHHH,2006-06-30 10:00,ZHHH 301000Z AUTO 23008KT 7SM 34/25 A2962 RMK T03400250 IEM_DS3505
ZHHH,2006-06-30 11:00,ZHHH 301100Z AUTO 23008KT 7SM 33/26 A2965 RMK T03300260 IEM_DS3505
ZHHH,2006-06-30 12:00,ZHHH 301200Z AUTO 20004KT 9SM 33/23 A2965 RMK SLP039 T03310231 52013 IEM_DS3505
ZHHH,2006-06-30 13:00,ZHHH 301300Z AUTO 19004KT 7SM 32/27 A2965 RMK T03200270 IEM_DS3505
ZHHH,2006-06-30 14:00,ZHHH 301400Z AUTO 20006KT 6SM 31/26 A2968 RMK T03100260 IEM_DS3505
ZHHH,2006-06-30 15:00,ZHHH 301500Z AUTO 18004KT 9SM 32/23 A2968 RMK SLP045 T03200233 52006 IEM_DS3505
ZHHH,2006-06-30 16:00,ZHHH 301600Z AUTO 19006KT 6SM 31/26 A2965 RMK T03100260 IEM_DS3505
ZHHH,2006-06-30 17:00,ZHHH 301700Z AUTO 20006KT 7SM 30/26 A2965 RMK T03000260 IEM_DS3505
ZHHH,2006-06-30 18:00,ZHHH 301800Z AUTO 25002KT 9SM 31/24 A2965 RMK SLP040 T03110237 57005 IEM_DS3505
ZHHH,2006-06-30 19:00,ZHHH 301900Z AUTO 34004KT 4SM 27/27 A2965 RMK T02700270 IEM_DS3505
ZHHH,2006-06-30 20:00,ZHHH 302000Z AUTO 3SM 27/27 A2965 RMK T02700270 IEM_DS3505
ZHHH,2006-06-30 21:00,ZHHH 302100Z AUTO 04004KT 6SM 28/26 A2965 RMK 70003 SLP040 T02810261 54000 IEM_DS3505
ZHHH,2006-06-30 22:00,ZHHH 302200Z AUTO 14006KT 3SM 27/27 A2965 RMK T02700270 IEM_DS3505
ZHHH,2006-06-30 23:00,ZHHH 302300Z AUTO 21010KT 7SM 28/27 A2968 RMK T02800270 IEM_DS3505
ZHHH,2006-07-01 00:00,ZHHH 010000Z AUTO 25004KT 9SM 30/24 A2968 RMK 60004 70004 SLP052 T03020236 52012 IEM_DS3505
ZHHH,2006-07-01 01:00,ZHHH 010100Z AUTO 22014KT 7SM 30/26 A2968 RMK T03000260 IEM_DS3505
ZHHH,2006-07-01 02:00,ZHHH 010200Z AUTO 22016KT 6SM 31/26 A2968 RMK T03100260 IEM_DS3505
ZHHH,2006-07-01 03:00,ZHHH 010300Z AUTO 22008KT 11SM 33/23 A2968 RMK SLP047 T03330233 57005 IEM_DS3505
ZHHH,2006-07-01 04:00,ZHHH 010400Z AUTO 23016KT 6SM 34/27 A2968 RMK T03400270 IEM_DS3505
ZHHH,2006-07-01 05:00,ZHHH 010500Z AUTO 22016KT 6SM 33/27 A2965 RMK T03300270 IEM_DS3505
ZHHH,2006-07-01 06:00,ZHHH 010600Z AUTO 22008KT 11SM 35/24 A2965 RMK 60000 SLP037 T03460236 57010 IEM_DS3505
ZHHH,2006-07-01 07:00,ZHHH 010700Z AUTO 22014KT 6SM 34/27 A2965 RMK T03400270 IEM_DS3505
ZHHH,2006-07-01 08:00,ZHHH 010800Z AUTO 23012KT 6SM 35/27 A2962 RMK T03500270 IEM_DS3505
ZHHH,2006-07-01 09:00,ZHHH 010900Z AUTO 22006KT 11SM 34/24 A2962 RMK SLP029 T03400240 57008 IEM_DS3505
ZHHH,2006-07-01 10:00,ZHHH 011000Z AUTO 23010KT 6SM 33/27 A2962 RMK T03300270 IEM_DS3505
ZHHH,2006-07-01 11:00,ZHHH 011100Z AUTO 22006KT 6SM 32/27 A2962 RMK T03200270 IEM_DS3505
ZHHH,2006-07-01 12:00,ZHHH 011200Z AUTO 27004KT 9SM 33/24 A2965 RMK SLP036 T03260244 52007 IEM_DS3505
ZHHH,2006-07-01 13:00,ZHHH 011300Z AUTO 21010KT 6SM 32/26 A2965 RMK T03200260 IEM_DS3505
ZHHH,2006-07-01 14:00,ZHHH 011400Z AUTO 20008KT 6SM 31/27 A2968 RMK T03100270 IEM_DS3505
ZHHH,2006-07-01 15:00,ZHHH 011500Z AUTO 20004KT 9SM 32/24 A2965 RMK SLP041 T03160237 52005 IEM_DS3505
ZHHH,2006-07-01 16:00,ZHHH 011600Z AUTO 20010KT 6SM 31/26 A2965 RMK T03100260 IEM_DS3505
ZHHH,2006-07-01 17:00,ZHHH 011700Z AUTO 20008KT 6SM 30/26 A2965 RMK T03000260 IEM_DS3505
ZHHH,2006-07-01 18:00,ZHHH 011800Z AUTO 21010KT 6SM 30/26 A2965 RMK T03000260 IEM_DS3505
ZHHH,2006-07-01 19:00,ZHHH 011900Z AUTO 21010KT 6SM 30/26 A2962 RMK T03000260 IEM_DS3505
ZHHH,2006-07-01 20:00,ZHHH 012000Z AUTO 20012KT 6SM 29/26 A2962 RMK T02900260 IEM_DS3505
ZHHH,2006-07-01 21:00,ZHHH 012100Z AUTO 20004KT 11SM 30/23 A2962 RMK 70001 SLP029 T03020231 57005 IEM_DS3505
ZHHH,2006-07-01 22:00,ZHHH 012200Z AUTO 20008KT 6SM 29/26 A2965 RMK T02900260 IEM_DS3505
ZHHH,2006-07-01 23:00,ZHHH 012300Z AUTO 20008KT 6SM 30/26 A2965 RMK T03000260 IEM_DS3505
ZHHH,2006-07-02 00:00,ZHHH 020000Z AUTO 18004KT 12SM 32/23 A2965 RMK 70000 SLP042 T03210234 52013 IEM_DS3505
ZHHH,2006-07-02 01:00,ZHHH 020100Z AUTO 22017KT 6SM 33/26 A2965 RMK T03300260 IEM_DS3505
ZHHH,2006-07-02 02:00,ZHHH 020200Z AUTO 22017KT 6SM 34/26 A2965 RMK T03400260 IEM_DS3505
ZHHH,2006-07-02 03:00,ZHHH 020300Z AUTO 25004KT 11SM 35/24 A2965 RMK SLP035 T03480235 57007 IEM_DS3505
ZHHH,2006-07-02 04:00,ZHHH 020400Z AUTO 22019KT 6SM 36/26 A2965 RMK T03600260 IEM_DS3505
ZHHH,2006-07-02 05:00,ZHHH 020500Z AUTO 22017KT 6SM 35/25 A2962 RMK T03500250 IEM_DS3505
ZHHH,2006-07-02 06:00,ZHHH 020600Z AUTO 22006KT 12SM 36/23 A2962 RMK SLP027 T03630232 57008 IEM_DS3505
ZHHH,2006-07-02 07:00,ZHHH 020700Z AUTO 22019KT 6SM 37/26 A2962 RMK T03700260 IEM_DS3505
ZHHH,2006-07-02 08:00,ZHHH 020800Z AUTO 22019KT 7SM 37/26 A2959 RMK T03700260 IEM_DS3505
ZHHH,2006-07-02 09:00,ZHHH 020900Z AUTO 20006KT 12SM 37/23 A2959 RMK SLP017 T03670232 57010 IEM_DS3505
ZHHH,2006-07-02 10:00,ZHHH 021000Z AUTO 22016KT 6SM 35/26 A2959 RMK T03500260 IEM_DS3505
ZHHH,2006-07-02 11:00,ZHHH 021100Z AUTO 21016KT 6SM 34/26 A2959 RMK T03400260 IEM_DS3505
ZHHH,2006-07-02 12:00,ZHHH 021200Z AUTO 20006KT 11SM 34/24 A2959 RMK SLP019 T03360236 52002 IEM_DS3505
ZHHH,2006-07-02 13:00,ZHHH 021300Z AUTO 20014KT 6SM 32/26 A2959 RMK T03200260 IEM_DS3505
ZHHH,2006-07-02 14:00,ZHHH 021400Z AUTO 20010KT 6SM 32/26 A2959 RMK T03200260 IEM_DS3505
ZHHH,2006-07-02 15:00,ZHHH 021500Z AUTO 18004KT 9SM 33/23 A2959 RMK SLP023 T03260230 52004 IEM_DS3505
ZHHH,2006-07-02 16:00,ZHHH 021600Z AUTO 19010KT 6SM 31/25 A2959 RMK T03100250 IEM_DS3505
ZHHH,2006-07-02 17:00,ZHHH 021700Z AUTO 20010KT 6SM 30/25 A2959 RMK T03000250 IEM_DS3505
ZHHH,2006-07-02 18:00,ZHHH 021800Z AUTO 18002KT 12SM 31/23 A2956 RMK SLP013 T03110232 57010 IEM_DS3505
ZHHH,2006-07-02 19:00,ZHHH 021900Z AUTO 19008KT 6SM 30/25 A2956 RMK T03000250 IEM_DS3505
ZHHH,2006-07-02 20:00,ZHHH 022000Z AUTO 19008KT 6SM 29/25 A2956 RMK T02900250 IEM_DS3505
ZHHH,2006-07-02 21:00,ZHHH 022100Z AUTO 20004KT 12SM 30/23 A2956 RMK SLP008 T03040226 57005 IEM_DS3505
ZHHH,2006-07-02 22:00,ZHHH 022200Z AUTO 20012KT 6SM 30/25 A2956 RMK T03000250 IEM_DS3505
ZHHH,2006-07-02 23:00,ZHHH 022300Z AUTO 20014KT 6SM 31/25 A2956 RMK T03100250 IEM_DS3505
ZHHH,2006-07-03 00:00,ZHHH 030000Z AUTO 25004KT 16SM 32/23 A2956 RMK SLP012 T03230230 52004 IEM_DS3505
ZHHH,2006-07-03 01:00,ZHHH 030100Z AUTO 22021KT 6SM 33/26 A2956 RMK T03300260 IEM_DS3505
ZHHH,2006-07-03 02:00,ZHHH 030200Z AUTO 22021KT 6SM 34/26 A2956 RMK T03400260 IEM_DS3505
ZHHH,2006-07-03 03:00,ZHHH 030300Z AUTO 25008KT 12SM 36/22 A2956 RMK SLP009 T03550225 57003 IEM_DS3505
ZHHH,2006-07-03 04:00,ZHHH 030400Z AUTO 23019KT 6SM 36/25 A2956 RMK T03600250 IEM_DS3505
ZHHH,2006-07-03 05:00,ZHHH 030500Z AUTO 23021KT 6SM 37/25 A2953 RMK T03700250 IEM_DS3505
ZHHH,2006-07-03 06:00,ZHHH 030600Z AUTO 25012G31KT 12SM 37/21 A2953 RMK SLP996 T03710212 57013 IEM_DS3505
ZHHH,2006-07-03 07:00,ZHHH 030700Z AUTO 23017KT 6SM 36/26 A2953 RMK T03600260 IEM_DS3505
ZHHH,2006-07-03 08:00,ZHHH 030800Z AUTO 24019G29KT 6SM 36/25 A2950 RMK T03600250 IEM_DS3505
ZHHH,2006-07-03 09:00,ZHHH 030900Z AUTO 25006KT 12SM 36/23 A2950 RMK SLP989 T03650226 57007 IEM_DS3505
ZHHH,2006-07-03 10:00,ZHHH 031000Z AUTO 23014KT 6SM 35/26 A2950 RMK T03500260 IEM_DS3505
ZHHH,2006-07-03 11:00,ZHHH 031100Z AUTO 23012KT 6SM 34/27 A2953 RMK T03400270 IEM_DS3505
ZHHH,2006-07-03 12:00,ZHHH 031200Z AUTO 22006KT 11SM 34/24 A2953 RMK SLP997 T03380241 52008 IEM_DS3505
ZHHH,2006-07-03 13:00,ZHHH 031300Z AUTO 22012KT 6SM 33/26 A2953 RMK T03300260 IEM_DS3505
ZHHH,2006-07-03 14:00,ZHHH 031400Z AUTO 22012KT 6SM 32/26 A2956 RMK T03200260 IEM_DS3505
ZHHH,2006-07-03 15:00,ZHHH 031500Z AUTO 20006KT 11SM 33/23 A2953 RMK SLP000 T03270228 52003 IEM_DS3505
ZHHH,2006-07-03 16:00,ZHHH 031600Z AUTO 22012KT 6SM 32/25 A2953 RMK T03200250 IEM_DS3505
ZHHH,2006-07-03 17:00,ZHHH 031700Z AUTO 20012KT 6SM 31/25 A2953 RMK T03100250 IEM_DS3505
ZHHH,2006-07-03 18:00,ZHHH 031800Z AUTO 27002KT 9SM 31/23 A2950 RMK SLP991 T03120228 57009 IEM_DS3505
ZHHH,2006-07-03 19:00,ZHHH 031900Z AUTO 22010KT 6SM 31/25 A2950 RMK T03100250 IEM_DS3505
ZHHH,2006-07-03 20:00,ZHHH 032000Z AUTO 22010KT 6SM 31/25 A2950 RMK T03100250 IEM_DS3505
ZHHH,2006-07-03 21:00,ZHHH 032100Z AUTO 25004KT 9SM 31/23 A2950 RMK SLP991 T03090228 54000 IEM_DS3505
ZHHH,2006-07-03 22:00,ZHHH 032200Z AUTO 22010KT 6SM 30/25 A2953 RMK T03000250 IEM_DS3505
ZHHH,2006-07-03 23:00,ZHHH 032300Z AUTO 23010KT 6SM 31/26 A2953 RMK T03100260 IEM_DS3505
ZHHH,2006-07-04 00:00,ZHHH 040000Z AUTO 25004KT 12SM 31/23 A2953 RMK SLP003 T03130234 52012 IEM_DS3505
ZHHH,2006-07-04 01:00,ZHHH 040100Z AUTO 22014KT 6SM 33/26 A2956 RMK T03300260 IEM_DS3505
ZHHH,2006-07-04 02:00,ZHHH 040200Z AUTO 23017KT 6SM 34/26 A2953 RMK T03400260 IEM_DS3505
ZHHH,2006-07-04 03:00,ZHHH 040300Z AUTO 25006KT 12SM 35/23 A2956 RMK SLP003 T03520229 54000 IEM_DS3505
ZHHH,2006-07-04 04:00,ZHHH 040400Z AUTO 24017KT 6SM 36/27 A2953 RMK T03600270 IEM_DS3505
ZHHH,2006-07-04 05:00,ZHHH 040500Z AUTO 24014KT 7SM 35/26 A2953 RMK T03500260 IEM_DS3505
ZHHH,2006-07-04 06:00,ZHHH 040600Z AUTO 22006KT 12SM 36/24 A2953 RMK SLP992 T03600239 57011 IEM_DS3505
ZHHH,2006-07-04 07:00,ZHHH 040700Z AUTO 23017KT 6SM 36/25 A2950 RMK T03600250 IEM_DS3505
ZHHH,2006-07-04 08:00,ZHHH 040800Z AUTO 24017KT 6SM 36/25 A2950 RMK T03600250 IEM_DS3505
ZHHH,2006-07-04 09:00,ZHHH 040900Z AUTO 22004KT 12SM 36/23 A2950 RMK SLP990 T03610226 57002 IEM_DS3505
ZHHH,2006-07-04 10:00,ZHHH 041000Z AUTO 24010KT 6SM 35/26 A2950 RMK T03500260 IEM_DS3505
ZHHH,2006-07-04 11:00,ZHHH 041100Z AUTO 24010KT 6SM 34/26 A2950 RMK T03400260 IEM_DS3505
ZHHH,2006-07-04 12:00,ZHHH 041200Z AUTO 27002KT 11SM 34/24 A2953 RMK SLP999 T03360239 52009 IEM_DS3505
ZHHH,2006-07-04 13:00,ZHHH 041300Z AUTO 36008KT 7SM 27/25 A2959 RMK T02700250 IEM_DS3505
ZHHH,2006-07-04 14:00,ZHHH 041400Z AUTO 34006KT 6SM 27/25 A2959 RMK T02700250 IEM_DS3505
ZHHH,2006-07-04 15:00,ZHHH 041500Z AUTO 34002KT 12SM 28/23 A2959 RMK SLP015 T02780232 52016 IEM_DS3505
ZHHH,2006-07-04 16:00,ZHHH 041600Z AUTO 31006KT 6SM 26/25 A2959 RMK T02600250 IEM_DS3505
ZHHH,2006-07-04 17:00,ZHHH 041700Z AUTO 6SM 26/25 A2956 RMK T02600250 IEM_DS3505
ZHHH,2006-07-04 18:00,ZHHH 041800Z AUTO 04002KT 11SM 27/24 A2956 RMK SLP006 T02680235 57009 IEM_DS3505
ZHHH,2006-07-04 19:00,ZHHH 041900Z AUTO 34004KT 6SM 26/25 A2956 RMK T02600250 IEM_DS3505
ZHHH,2006-07-04 20:00,ZHHH 042000Z AUTO 35004KT 6SM 25/25 A2956 RMK T02500250 IEM_DS3505
ZHHH,2006-07-04 21:00,ZHHH 042100Z AUTO 34002KT 9SM 26/24 A2956 RMK SLP006 T02620237 54000 IEM_DS3505
ZHHH,2006-07-04 22:00,ZHHH 042200Z AUTO 01004KT 6SM 25/25 A2956 RMK T02500250 IEM_DS3505
ZHHH,2006-07-04 23:00,ZHHH 042300Z AUTO 36006KT 4SM 26/25 A2959 RMK T02600250 IEM_DS3505
ZHHH,2006-07-05 00:00,ZHHH 050000Z AUTO 32002KT 9SM 27/24 A2959 RMK SLP019 T02730238 52013 IEM_DS3505
ZHHH,2006-07-05 01:00,ZHHH 050100Z AUTO 35004KT 7SM 27/25 A2959 RMK T02700250 IEM_DS3505
ZHHH,2006-07-05 02:00,ZHHH 050200Z AUTO 01004KT 7SM 28/26 A2959 RMK T02800260 IEM_DS3505
ZHHH,2006-07-05 03:00,ZHHH 050300Z AUTO 25002KT 11SM 30/24 A2959 RMK SLP017 T03040236 57002 IEM_DS3505
ZHHH,2006-07-05 04:00,ZHHH 050400Z AUTO 36006KT 7SM 27/26 A2959 RMK T02700260 IEM_DS3505
ZHHH,2006-07-05 05:00,ZHHH 050500Z AUTO 03004KT 7SM 27/26 A2956 RMK T02700260 IEM_DS3505
ZHHH,2006-07-05 06:00,ZHHH 050600Z AUTO 27002KT 12SM 33/25 A2953 RMK SLP000 T03280246 57017 IEM_DS3505
ZHHH,2006-07-05 07:00,ZHHH 050700Z AUTO 33004KT 6SM 32/27 A2950 RMK T03200270 IEM_DS3505
ZHHH,2006-07-05 08:00,ZHHH 050800Z AUTO 33006KT 6SM 30/27 A2950 RMK T03000270 IEM_DS3505
ZHHH,2006-07-05 09:00,ZHHH 050900Z AUTO 25004KT 11SM 33/25 A2950 RMK SLP984 T03290246 57016 IEM_DS3505
ZHHH,2006-07-05 10:00,ZHHH 051000Z AUTO 6SM 31/28 A2950 RMK T03100280 IEM_DS3505
ZHHH,2006-07-05 11:00,ZHHH 051100Z AUTO 33006KT 6SM 30/27 A2950 RMK T03000270 IEM_DS3505
ZHHH,2006-07-05 12:00,ZHHH 051200Z AUTO 29002KT 9SM 30/25 A2950 RMK SLP991 T03050251 52007 IEM_DS3505
ZHHH,2006-07-05 13:00,ZHHH 051300Z AUTO 05006KT 4SM 29/27 A2953 RMK T02900270 IEM_DS3505
ZHHH,2006-07-05 14:00,ZHHH 051400Z AUTO 13004KT 4SM 28/27 A2950 RMK T02800270 IEM_DS3505
ZHHH,2006-07-05 15:00,ZHHH 051500Z AUTO 09002KT 9SM 30/25 A2950 RMK SLP988 T02950253 57003 IEM_DS3505
ZHHH,2006-07-05 16:00,ZHHH 051600Z AUTO 01002KT 4SM 28/28 A2950 RMK T02800280 IEM_DS3505
ZHHH,2006-07-05 17:00,ZHHH 051700Z AUTO 03004KT 2 1/2SM 27/27 A2950 RMK T02700270 IEM_DS3505
ZHHH,2006-07-05 18:00,ZHHH 051800Z AUTO 27002KT 7SM 28/26 A2947 RMK 60003 SLP981 T02830259 57007 IEM_DS3505
ZHHH,2006-07-05 19:00,ZHHH 051900Z AUTO 06004KT 2SM 27/27 A2947 RMK T02700270 IEM_DS3505
ZHHH,2006-07-05 20:00,ZHHH 052000Z AUTO 04004KT 2SM 26/26 A2947 RMK T02600260 IEM_DS3505
ZHHH,2006-07-05 21:00,ZHHH 052100Z AUTO 02002KT 9SM 28/26 A2947 RMK 70009 SLP979 T02770261 57002 IEM_DS3505
ZHHH,2006-07-05 22:00,ZHHH 052200Z AUTO 11004KT 1 1/4SM 26/26 A2947 RMK T02600260 IEM_DS3505
ZHHH,2006-07-05 23:00,ZHHH 052300Z AUTO 13004KT 2 1/2SM 27/27 A2950 RMK T02700270 IEM_DS3505
ZHHH,2006-07-06 00:00,ZHHH 060000Z AUTO 20004KT 11SM 29/25 A2950 RMK 60008 70009 SLP992 T02890249 52013 IEM_DS3505
ZHHH,2006-07-06 01:00,ZHHH 060100Z AUTO 21006KT 3SM 30/28 A2953 RMK T03000280 IEM_DS3505
ZHHH,2006-07-06 02:00,ZHHH 060200Z AUTO 24004KT 3SM 31/27 A2950 RMK T03100270 IEM_DS3505
ZHHH,2006-07-06 03:00,ZHHH 060300Z AUTO 22002KT 9SM 31/26 A2950 RMK SLP990 T03140260 57002 IEM_DS3505
ZHHH,2006-07-06 04:00,ZHHH 060400Z AUTO 22004KT 2 1/2SM 32/28 A2950 RMK T03200280 IEM_DS3505
ZHHH,2006-07-06 05:00,ZHHH 060500Z AUTO 20004KT 2 1/2SM 32/29 A2950 RMK T03200290 IEM_DS3505
ZHHH,2006-07-06 06:00,ZHHH 060600Z AUTO 27004KT 9SM 34/26 A2947 RMK SLP976 T03450256 57014 IEM_DS3505
ZHHH,2006-07-06 07:00,ZHHH 060700Z AUTO 19004KT 2SM 33/29 A2947 RMK T03300290 IEM_DS3505
ZHHH,2006-07-06 08:00,ZHHH 060800Z AUTO 2SM 33/29 A2947 RMK T03300290 IEM_DS3505
ZHHH,2006-07-06 09:00,ZHHH 060900Z AUTO 22002KT 11SM 34/26 A2944 RMK SLP970 T03450256 57006 IEM_DS3505
ZHHH,2006-07-06 10:00,ZHHH 061000Z AUTO 12006KT 1 1/2SM 32/29 A2947 RMK T03200290 IEM_DS3505
ZHHH,2006-07-06 11:00,ZHHH 061100Z AUTO 11006KT 1 1/2SM 31/29 A2950 RMK T03100290 IEM_DS3505
ZHHH,2006-07-06 12:00,ZHHH 061200Z AUTO 14002KT 7SM 32/26 A2950 RMK 60000 SLP985 T03230264 52015 IEM_DS3505
ZHHH,2006-07-06 13:00,ZHHH 061300Z AUTO 13006KT 2 1/2SM 30/29 A2950 RMK T03000290 IEM_DS3505
ZHHH,2006-07-06 14:00,ZHHH 061400Z AUTO 13006KT 2 1/2SM 30/28 A2953 RMK T03000280 IEM_DS3505
ZHHH,2006-07-06 15:00,ZHHH 061500Z AUTO 11004KT 9SM 30/26 A2953 RMK SLP998 T03030260 52013 IEM_DS3505
ZHHH,2006-07-06 16:00,ZHHH 061600Z AUTO 15004KT 2 1/2SM 29/28 A2953 RMK T02900280 IEM_DS3505
ZHHH,2006-07-06 17:00,ZHHH 061700Z AUTO 13002KT 2 1/2SM 29/28 A2950 RMK T02900280 IEM_DS3505
ZHHH,2006-07-06 18:00,ZHHH 061800Z AUTO 11002KT 9SM 30/25 A2950 RMK SLP985 T02990248 57013 IEM_DS3505
ZHHH,2006-07-06 19:00,ZHHH 061900Z AUTO 10006KT 2SM 28/27 A2950 RMK T02800270 IEM_DS3505
ZHHH,2006-07-06 20:00,ZHHH 062000Z AUTO 10006KT 2 1/2SM 28/28 A2950 RMK T02800280 IEM_DS3505
ZHHH,2006-07-06 21:00,ZHHH 062100Z AUTO 02002KT 9SM 30/26 A2950 RMK 70000 SLP986 T02960260 52001 IEM_DS3505
ZHHH,2006-07-06 22:00,ZHHH 062200Z AUTO 09008KT 1 1/2SM 28/27 A2950 RMK T02800270 IEM_DS3505
ZHHH,2006-07-06 23:00,ZHHH 062300Z AUTO 09006KT 1 1/4SM 28/28 A2953 RMK T02800280 IEM_DS3505
ZHHH,2006-07-07 00:00,ZHHH 070000Z AUTO 18002KT 9SM 29/24 A2953 RMK 60000 70000 SLP996 T02860242 52010 IEM_DS3505
ZHHH,2006-07-07 01:00,ZHHH 070100Z AUTO 12006KT 1 1/4SM 29/28 A2953 RMK T02900280 IEM_DS3505
ZHHH,2006-07-07 02:00,ZHHH 070200Z AUTO 22006KT 1 1/4SM 29/28 A2953 RMK T02900280 IEM_DS3505
ZHHH,2006-07-07 03:00,ZHHH 070300Z AUTO 20004KT 9SM 26/24 A2956 RMK SLP006 T02590239 52010 IEM_DS3505
ZHHH,2006-07-07 04:00,ZHHH 070400Z AUTO 24010KT 1 1/2SM 25/25 A2956 RMK T02500250 IEM_DS3505
ZHHH,2006-07-07 05:00,ZHHH 070500Z AUTO 26010KT 1 1/2SM 25/25 A2956 RMK T02500250 IEM_DS3505
ZHHH,2006-07-07 06:00,ZHHH 070600Z AUTO 22002KT 7SM 26/24 A2953 RMK 60067 SLP998 T02590238 57008 IEM_DS3505
ZHHH,2006-07-07 07:00,ZHHH 070700Z AUTO 21004KT 7SM 26/26 A2953 RMK T02600260 IEM_DS3505
ZHHH,2006-07-07 08:00,ZHHH 070800Z AUTO 7SM 27/27 A2953 RMK T02700270 IEM_DS3505
ZHHH,2006-07-07 09:00,ZHHH 070900Z AUTO 02002KT 11SM 28/24 A2950 RMK SLP991 T02850236 57007 IEM_DS3505
ZHHH,2006-07-07 10:00,ZHHH 071000Z AUTO 34004KT 6SM 28/26 A2950 RMK T02800260 IEM_DS3505
ZHHH,2006-07-07 11:00,ZHHH 071100Z AUTO 01006KT 7SM 27/26 A2950 RMK T02700260 IEM_DS3505
ZHHH,2006-07-07 12:00,ZHHH 071200Z AUTO 07002KT 9SM 27/25 A2950 RMK 60000 SLP989 T02720247 57002 IEM_DS3505
ZHHH,2006-07-07 13:00,ZHHH 071300Z AUTO 10004KT 3SM 26/26 A2953 RMK T02600260 IEM_DS3505
ZHHH,2006-07-07 14:00,ZHHH 071400Z AUTO 10006KT 2SM 26/26 A2956 RMK T02600260 IEM_DS3505
ZHHH,2006-07-07 15:00,ZHHH 071500Z AUTO 07002KT 9SM 27/24 A2956 RMK SLP006 T02700245 52016 IEM_DS3505
ZHHH,2006-07-07 16:00,ZHHH 071600Z AUTO 06006KT 1SM 26/26 A2953 RMK T02600260 IEM_DS3505
ZHHH,2006-07-07 17:00,ZHHH 071700Z AUTO 07006KT 1SM 25/25 A2953 RMK T02500250 IEM_DS3505
ZHHH,2006-07-07 18:00,ZHHH 071800Z AUTO 07002KT 9SM 27/24 A2953 RMK SLP995 T02710236 57011 IEM_DS3505
ZHHH,2006-07-07 19:00,ZHHH 071900Z AUTO 04004KT 1SM 25/25 A2950 RMK T02500250 IEM_DS3505
ZHHH,2006-07-07 20:00,ZHHH 072000Z AUTO 03004KT 1 1/4SM 25/25 A2953 RMK T02500250 IEM_DS3505
ZHHH,2006-07-07 21:00,ZHHH 072100Z AUTO 07002KT 9SM 26/24 A2953 RMK 70069 SLP994 T02630243 54000 IEM_DS3505
ZHHH,2006-07-07 22:00,ZHHH 072200Z AUTO 05004KT 1 1/4SM 25/25 A2953 RMK T02500250 IEM_DS3505
ZHHH,2006-07-07 23:00,ZHHH 072300Z AUTO 05006KT 1 1/4SM 26/26 A2953 RMK T02600260 IEM_DS3505
ZHHH,2006-07-08 00:00,ZHHH 080000Z AUTO 07004KT 9SM 27/24 A2953 RMK 70069 SLP000 T02700241 52005 IEM_DS3505
ZHHH,2006-07-08 01:00,ZHHH 080100Z AUTO 11006KT 6SM 28/26 A2953 RMK T02800260 IEM_DS3505
ZHHH,2006-07-08 02:00,ZHHH 080200Z AUTO 12008KT 7SM 29/26 A2953 RMK T02900260 IEM_DS3505
ZHHH,2006-07-08 03:00,ZHHH 080300Z AUTO 09002KT 9SM 30/24 A2953 RMK SLP002 T02950237 52003 IEM_DS3505
ZHHH,2006-07-08 04:00,ZHHH 080400Z AUTO 10004KT 7SM 30/26 A2953 RMK T03000260 IEM_DS3505
ZHHH,2006-07-08 05:00,ZHHH 080500Z AUTO 11006KT 7SM 31/26 A2950 RMK T03100260 IEM_DS3505
ZHHH,2006-07-08 06:00,ZHHH 080600Z AUTO 09002KT 9SM 32/24 A2950 RMK SLP986 T03150236 57016 IEM_DS3505
ZHHH,2006-07-08 07:00,ZHHH 080700Z AUTO 6SM 32/27 A2947 RMK T03200270 IEM_DS3505
ZHHH,2006-07-08 08:00,ZHHH 080800Z AUTO 12004KT 7SM 32/27 A2947 RMK T03200270 IEM_DS3505
ZHHH,2006-07-08 09:00,ZHHH 080900Z AUTO 07008KT 6SM 30/25 A2944 RMK SLP971 T02980251 57015 IEM_DS3505
ZHHH,2006-07-08 10:00,ZHHH 081000Z AUTO 11004KT 7SM 31/27 A2944 RMK T03100270 IEM_DS3505
ZHHH,2006-07-08 11:00,ZHHH 081100Z AUTO 36006KT 7SM 29/27 A2947 RMK T02900270 IEM_DS3505
ZHHH,2006-07-08 12:00,ZHHH 081200Z AUTO 14004G12KT 5SM 26/24 A2950 RMK 60201 SLP987 T02560244 52015 IEM_DS3505
ZHHH,2006-07-08 13:00,ZHHH 081300Z AUTO 34004KT 7SM 27/26 A2950 RMK T02700260 IEM_DS3505
ZHHH,2006-07-08 14:00,ZHHH 081400Z AUTO 36004KT 4SM 26/26 A2953 RMK T02600260 IEM_DS3505
ZHHH,2006-07-08 15:00,ZHHH 081500Z AUTO 04004KT 9SM 27/25 A2953 RMK SLP995 T02680254 52009 IEM_DS3505
ZHHH,2006-07-08 16:00,ZHHH 081600Z AUTO 04004KT 6SM 26/26 A2953 RMK T02600260 IEM_DS3505
ZHHH,2006-07-08 17:00,ZHHH 081700Z AUTO 6SM 26/26 A2950 RMK T02600260 IEM_DS3505
ZHHH,2006-07-08 18:00,ZHHH 081800Z AUTO 14002KT 6SM 27/25 RMK 60118 SLP989 T02660248 57006 IEM_DS3505
ZHHH,2006-07-08 19:00,ZHHH 081900Z AUTO 08006KT 7SM 26/26 A2950 RMK T02600260 IEM_DS3505
ZHHH,2006-07-08 20:00,ZHHH 082000Z AUTO 08004KT 4SM 26/26 A2950 RMK T02600260 IEM_DS3505
ZHHH,2006-07-08 21:00,ZHHH 082100Z AUTO 11002KT 6SM 26/25 A2950 RMK 70456 SLP987 T02580251 57002 IEM_DS3505
ZHHH,2006-07-08 22:00,ZHHH 082200Z AUTO 00000KT 2 1/2SM 26/26 A2950 RMK T02600260 IEM_DS3505
ZHHH,2006-07-08 23:00,ZHHH 082300Z AUTO 05004KT 2SM 26/26 A2950 RMK T02600260 IEM_DS3505
ZHHH,2006-07-09 00:00,ZHHH 090000Z AUTO 34002KT 6SM 27/25 A2950 RMK 60142 70458 SLP992 T02660254 52004 IEM_DS3505
ZHHH,2006-07-09 01:00,ZHHH 090100Z AUTO 08006KT 1 1/4SM 26/26 A2950 RMK T02600260 IEM_DS3505
ZHHH,2006-07-09 02:00,ZHHH 090200Z AUTO 09008KT 1SM 25/25 A2953 RMK T02500250 IEM_DS3505
ZHHH,2006-07-09 03:00,ZHHH 090300Z AUTO 04002KT 7SM 28/26 A2953 RMK SLP993 T02780258 52002 IEM_DS3505
ZHHH,2006-07-09 04:00,ZHHH 090400Z AUTO 04008KT 2SM 27/27 A2950 RMK T02700270 IEM_DS3505
ZHHH,2006-07-09 05:00,ZHHH 090500Z AUTO 01004KT 1SM 26/26 A2950 RMK T02600260 IEM_DS3505
ZHHH,2006-07-09 06:00,ZHHH 090600Z AUTO 02006KT 6SM 27/26 A2950 RMK 60059 SLP982 T02680258 57011 IEM_DS3505
ZHHH,2006-07-09 07:00,ZHHH 090700Z AUTO 34004KT 1SM 26/26 A2947 RMK T02600260 IEM_DS3505
ZHHH,2006-07-09 08:00,ZHHH 090800Z AUTO 36004KT 1SM 26/26 A2947 RMK T02600260 IEM_DS3505
ZHHH,2006-07-09 09:00,ZHHH 090900Z AUTO 36006KT 7SM 27/26 A2947 RMK SLP979 T02740256 57003 IEM_DS3505
ZHHH,2006-07-09 10:00,ZHHH 091000Z AUTO 08012KT 2SM 26/26 A2947 RMK T02600260 IEM_DS3505
ZHHH,2006-07-09 11:00,ZHHH 091100Z AUTO 08008KT 2SM 26/26 A2950 RMK T02600260 IEM_DS3505
ZHHH,2006-07-09 12:00,ZHHH 091200Z AUTO 07004KT 6SM 26/25 A2950 RMK 60008 SLP984 T02630253 52004 IEM_DS3505
ZHHH,2006-07-09 13:00,ZHHH 091300Z AUTO 04004KT 1 1/2SM 25/25 A2950 RMK T02500250 IEM_DS3505
ZHHH,2006-07-09 14:00,ZHHH 091400Z AUTO 00000KT 1 1/2SM 26/26 A2953 RMK T02600260 IEM_DS3505
ZHHH,2006-07-09 15:00,ZHHH 091500Z AUTO 07002KT 7SM 26/25 A2953 RMK SLP999 T02640252 52015 IEM_DS3505
ZHHH,2006-07-09 16:00,ZHHH 091600Z AUTO 1 1/2SM 26/26 A2953 RMK T02600260 IEM_DS3505
ZHHH,2006-07-09 17:00,ZHHH 091700Z AUTO 02002KT 1 1/2SM 26/26 A2953 RMK T02600260 IEM_DS3505
ZHHH,2006-07-09 18:00,ZHHH 091800Z AUTO 34002KT 7SM 26/26 A2953 RMK 60004 SLP996 T02640255 57003 IEM_DS3505
ZHHH,2006-07-09 19:00,ZHHH 091900Z AUTO 01002KT 1 1/4SM 26/26 A2950 RMK T02600260 IEM_DS3505
ZHHH,2006-07-09 20:00,ZHHH 092000Z AUTO 36004KT 1SM 26/26 A2950 RMK T02600260 IEM_DS3505
ZHHH,2006-07-09 21:00,ZHHH 092100Z AUTO 36002KT 6SM 26/25 A2950 RMK 70072 SLP993 T02620253 57003 IEM_DS3505
ZHHH,2006-07-09 22:00,ZHHH 092200Z AUTO 1SM 26/26 A2953 RMK T02600260 IEM_DS3505
ZHHH,2006-07-09 23:00,ZHHH 092300Z AUTO 02004KT 1SM 26/26 A2953 RMK T02600260 IEM_DS3505
ZHHH,2006-07-10 00:00,ZHHH 100000Z AUTO 04002KT 6SM 27/25 A2956 RMK 60000 70070 SLP004 T02690253 52011 IEM_DS3505
ZHHH,2006-07-10 01:00,ZHHH 100100Z AUTO 02006KT 1 1/4SM 27/27 A2956 RMK T02700270 IEM_DS3505
ZHHH,2006-07-10 02:00,ZHHH 100200Z AUTO 02006KT 3SM 27/26 A2956 RMK T02700260 IEM_DS3505
ZHHH,2006-07-10 03:00,ZHHH 100300Z AUTO 04006KT 9SM 29/25 A2956 RMK SLP005 T02940249 52002 IEM_DS3505
ZHHH,2006-07-10 04:00,ZHHH 100400Z AUTO 07008KT 7SM 29/27 A2953 RMK T02900270 IEM_DS3505
ZHHH,2006-07-10 05:00,ZHHH 100500Z AUTO 10006KT 7SM 31/27 A2953 RMK T03100270 IEM_DS3505
ZHHH,2006-07-10 06:00,ZHHH 100600Z AUTO 22002KT 7SM 32/28 A2953 RMK SLP995 T03200280 57010 IEM_DS3505
ZHHH,2006-07-10 07:00,ZHHH 100700Z AUTO 15004KT 7SM 32/28 A2950 RMK T03200280 IEM_DS3505
ZHHH,2006-07-10 08:00,ZHHH 100800Z AUTO 13008KT 7SM 31/27 A2950 RMK T03100270 IEM_DS3505
ZHHH,2006-07-10 09:00,ZHHH 100900Z AUTO 04002KT 7SM 32/24 A2950 RMK SLP984 T03200243 57011 IEM_DS3505
ZHHH,2006-07-10 10:00,ZHHH 101000Z AUTO 05006KT 7SM 29/27 A2950 RMK T02900270 IEM_DS3505
ZHHH,2006-07-10 11:00,ZHHH 101100Z AUTO 11004KT 7SM 29/27 A2950 RMK T02900270 IEM_DS3505
ZHHH,2006-07-10 12:00,ZHHH 101200Z AUTO 14002KT 7SM 30/26 A2953 RMK 60000 SLP999 T02950259 52015 IEM_DS3505
ZHHH,2006-07-10 13:00,ZHHH 101300Z AUTO 12004KT 4SM 28/27 A2956 RMK T02800270 IEM_DS3505
ZHHH,2006-07-10 14:00,ZHHH 101400Z AUTO 12004KT 2 1/2SM 28/28 A2956 RMK T02800280 IEM_DS3505
ZHHH,2006-07-10 15:00,ZHHH 101500Z AUTO 16002KT 7SM 28/26 A2956 RMK SLP011 T02850261 52012 IEM_DS3505
ZHHH,2006-07-10 16:00,ZHHH 101600Z AUTO 2SM 28/28 A2959 RMK T02800280 IEM_DS3505
ZHHH,2006-07-10 17:00,ZHHH 101700Z AUTO 12004KT 1 1/2SM 27/27 A2959 RMK T02700270 IEM_DS3505
ZHHH,2006-07-10 18:00,ZHHH 101800Z AUTO 22002KT 7SM 28/26 A2956 RMK SLP010 T02810261 57001 IEM_DS3505
ZHHH,2006-07-10 19:00,ZHHH 101900Z AUTO 04004KT 1SM 27/27 A2956 RMK T02700270 IEM_DS3505
ZHHH,2006-07-10 20:00,ZHHH 102000Z AUTO 09004KT 1SM 27/27 A2956 RMK T02700270 IEM_DS3505
ZHHH,2006-07-10 21:00,ZHHH 102100Z AUTO 09002KT 7SM 28/26 A2956 RMK 70000 SLP009 T02790263 57001 IEM_DS3505
ZHHH,2006-07-10 22:00,ZHHH 102200Z AUTO 10004KT 1SM 27/27 A2956 RMK T02700270 IEM_DS3505
ZHHH,2006-07-10 23:00,ZHHH 102300Z AUTO 10004KT 1SM 27/27 A2959 RMK T02700270 IEM_DS3505
ZHHH,2006-07-11 00:00,ZHHH 110000Z AUTO 32002KT 6SM 29/26 A2959 RMK 70000 SLP018 T02890265 52009 IEM_DS3505
ZHHH,2006-07-11 01:00,ZHHH 110100Z AUTO 11004KT 1 1/2SM 29/28 A2959 RMK T02900280 IEM_DS3505
ZHHH,2006-07-11 02:00,ZHHH 110200Z AUTO 13004KT 1 1/2SM 30/28 A2959 RMK T03000280 IEM_DS3505
ZHHH,2006-07-11 03:00,ZHHH 110300Z AUTO 14002KT 9SM 31/26 A2962 RMK SLP024 T03090264 52006 IEM_DS3505
ZHHH,2006-07-11 04:00,ZHHH 110400Z AUTO 31004KT 2 1/2SM 32/29 A2959 RMK T03200290 IEM_DS3505
ZHHH,2006-07-11 05:00,ZHHH 110500Z AUTO 2 1/2SM 32/28 A2959 RMK T03200280 IEM_DS3505
ZHHH,2006-07-11 06:00,ZHHH 110600Z AUTO 22004KT 6SM 31/26 A2956 RMK 60003 SLP013 T03080256 57011 IEM_DS3505
ZHHH,2006-07-11 07:00,ZHHH 110700Z AUTO 22012KT 2 1/2SM 33/29 A2956 RMK T03300290 IEM_DS3505
ZHHH,2006-07-11 08:00,ZHHH 110800Z AUTO 21006KT 3SM 31/28 A2953 RMK T03100280 IEM_DS3505
ZHHH,2006-07-11 09:00,ZHHH 110900Z AUTO 07002KT 6SM 29/27 A2953 RMK SLP999 T02900270 57014 IEM_DS3505
ZHHH,2006-07-11 10:00,ZHHH 111000Z AUTO 18004KT 4SM 31/28 A2953 RMK T03100280 IEM_DS3505
ZHHH,2006-07-11 11:00,ZHHH 111100Z AUTO 16004KT 3SM 31/28 A2953 RMK T03100280 IEM_DS3505
ZHHH,2006-07-11 12:00,ZHHH 111200Z AUTO 09002KT 9SM 28/27 A2956 RMK 60181 SLP005 T02850267 52006 IEM_DS3505
ZHHH,2006-07-11 13:00,ZHHH 111300Z AUTO 10004KT 2SM 30/28 A2956 RMK T03000280 IEM_DS3505
ZHHH,2006-07-11 14:00,ZHHH 111400Z AUTO 08006KT 1 1/2SM 29/28 A2956 RMK T02900280 IEM_DS3505
ZHHH,2006-07-11 15:00,ZHHH 111500Z AUTO 11002KT 6SM 28/27 A2959 RMK SLP017 T02830269 52012 IEM_DS3505
ZHHH,2006-07-11 16:00,ZHHH 111600Z AUTO 14004KT 1 1/4SM 29/28 A2959 RMK T02900280 IEM_DS3505
ZHHH,2006-07-11 17:00,ZHHH 111700Z AUTO 12004KT 1SM 29/28 A2959 RMK T02900280 IEM_DS3505
ZHHH,2006-07-11 18:00,ZHHH 111800Z AUTO 25002KT 6SM 28/27 A2956 RMK SLP013 T02790267 57004 IEM_DS3505
ZHHH,2006-07-11 19:00,ZHHH 111900Z AUTO 1SM 28/28 A2956 RMK T02800280 IEM_DS3505
ZHHH,2006-07-11 20:00,ZHHH 112000Z AUTO 09002KT 1SM 28/28 A2956 RMK T02800280 IEM_DS3505
ZHHH,2006-07-11 21:00,ZHHH 112100Z AUTO 09002KT 6SM 27/26 A2956 RMK 70185 SLP011 T02740265 57002 IEM_DS3505
ZHHH,2006-07-11 22:00,ZHHH 112200Z AUTO 10004KT 1/2SM 28/28 A2959 RMK T02800280 IEM_DS3505
ZHHH,2006-07-11 23:00,ZHHH 112300Z AUTO 10004KT 1/2SM 28/28 A2959 RMK T02800280 IEM_DS3505
ZHHH,2006-07-12 00:00,ZHHH 120000Z AUTO 03012KT 7SM 29/29 A2959 RMK 70185 SLP022 T02900290 52011 IEM_DS3505
ZHHH,2006-07-12 01:00,ZHHH 120100Z AUTO 13006KT 1 1/4SM 31/29 A2959 RMK T03100290 IEM_DS3505
ZHHH,2006-07-12 02:00,ZHHH 120200Z AUTO 13006KT 2 1/2SM 32/29 A2959 RMK T03200290 IEM_DS3505
ZHHH,2006-07-12 03:00,ZHHH 120300Z AUTO 11004KT 11SM 34/26 A2959 RMK SLP015 T03380263 57006 IEM_DS3505
ZHHH,2006-07-12 04:00,ZHHH 120400Z AUTO 11004KT 3SM 35/29 A2956 RMK T03500290 IEM_DS3505
ZHHH,2006-07-12 05:00,ZHHH 120500Z AUTO 23004KT 3SM 34/29 A2956 RMK T03400290 IEM_DS3505
ZHHH,2006-07-12 06:00,ZHHH 120600Z AUTO 22002KT 12SM 36/25 A2953 RMK SLP997 T03580247 57018 IEM_DS3505
ZHHH,2006-07-12 07:00,ZHHH 120700Z AUTO 05008KT 4SM 34/30 A2950 RMK T03400300 IEM_DS3505
ZHHH,2006-07-12 08:00,ZHHH 120800Z AUTO 07006KT 4SM 35/29 A2950 RMK T03500290 IEM_DS3505
ZHHH,2006-07-12 09:00,ZHHH 120900Z AUTO 04002KT 11SM 35/26 A2947 RMK SLP979 T03500261 57018 IEM_DS3505
ZHHH,2006-07-12 10:00,ZHHH 121000Z AUTO 08006KT 6SM 34/29 A2950 RMK T03400290 IEM_DS3505
ZHHH,2006-07-12 11:00,ZHHH 121100Z AUTO 11004KT 6SM 34/28 A2950 RMK T03400280 IEM_DS3505
ZHHH,2006-07-12 12:00,ZHHH 121200Z AUTO 27004KT 7SM 34/27 A2950 RMK 60000 SLP993 T03350270 52014 IEM_DS3505
ZHHH,2006-07-12 14:00,ZHHH 121400Z AUTO 22008KT 7SM 29/27 A2953 RMK T02900270 IEM_DS3505
ZHHH,2006-07-12 15:00,ZHHH 121500Z AUTO 20002KT 11SM 29/28 A2953 RMK SLP995 T02910275 52002 IEM_DS3505
ZHHH,2006-07-12 16:00,ZHHH 121600Z AUTO 12004KT 6SM 30/28 A2953 RMK T03000280 IEM_DS3505
ZHHH,2006-07-12 17:00,ZHHH 121700Z AUTO 36004KT 4SM 29/28 A2953 RMK T02900280 IEM_DS3505
ZHHH,2006-07-12 18:00,ZHHH 121800Z AUTO 07002KT 11SM 30/28 A2953 RMK 60079 SLP994 T02950275 57001 IEM_DS3505
ZHHH,2006-07-12 19:00,ZHHH 121900Z AUTO 06004KT 2 1/2SM 29/28 A2953 RMK T02900280 IEM_DS3505
ZHHH,2006-07-12 20:00,ZHHH 122000Z AUTO 07004KT 2 1/2SM 28/28 A2953 RMK T02800280 IEM_DS3505
ZHHH,2006-07-12 21:00,ZHHH 122100Z AUTO 04002KT 9SM 29/28 A2953 RMK 70078 SLP995 T02910275 52001 IEM_DS3505
ZHHH,2006-07-12 22:00,ZHHH 122200Z AUTO 06004KT 1 1/4SM 28/28 A2953 RMK T02800280 IEM_DS3505
ZHHH,2006-07-12 23:00,ZHHH 122300Z AUTO 10004KT 1 1/2SM 29/28 A2953 RMK T02900280 IEM_DS3505
ZHHH,2006-07-13 00:00,ZHHH 130000Z AUTO 02002KT 9SM 31/28 A2956 RMK 70078 SLP003 T03140282 52008 IEM_DS3505
ZHHH,2006-07-13 01:00,ZHHH 130100Z AUTO 11004KT 2 1/2SM 32/29 A2956 RMK T03200290 IEM_DS3505
ZHHH,2006-07-13 02:00,ZHHH 130200Z AUTO 11006KT 4SM 34/30 A2956 RMK T03400300 IEM_DS3505
ZHHH,2006-07-13 03:00,ZHHH 130300Z AUTO 02004KT 9SM 34/27 A2953 RMK SLP000 T03450272 57003 IEM_DS3505
ZHHH,2006-07-13 04:00,ZHHH 130400Z AUTO 10006KT 4SM 35/29 A2953 RMK T03500290 IEM_DS3505
ZHHH,2006-07-13 05:00,ZHHH 130500Z AUTO 4SM 36/30 A2953 RMK T03600300 IEM_DS3505
ZHHH,2006-07-13 06:00,ZHHH 130600Z AUTO 04004KT 9SM 37/25 A2950 RMK SLP986 T03680247 57014 IEM_DS3505
ZHHH,2006-07-13 07:00,ZHHH 130700Z AUTO 27004KT 7SM 37/29 A2947 RMK T03700290 IEM_DS3505
ZHHH,2006-07-13 08:00,ZHHH 130800Z AUTO 7SM 37/29 A2947 RMK T03700290 IEM_DS3505
ZHHH,2006-07-13 09:00,ZHHH 130900Z AUTO 04004KT 11SM 37/26 A2944 RMK SLP967 T03700258 57019 IEM_DS3505
ZHHH,2006-07-13 10:00,ZHHH 131000Z AUTO 6SM 36/29 A2944 RMK T03600290 IEM_DS3505
ZHHH,2006-07-13 11:00,ZHHH 131100Z AUTO 36002KT 6SM 35/31 A2944 RMK T03500310 IEM_DS3505
ZHHH,2006-07-13 12:00,ZHHH 131200Z AUTO 27002KT 9SM 34/28 A2944 RMK SLP973 T03450280 52006 IEM_DS3505
ZHHH,2006-07-13 13:00,ZHHH 131300Z AUTO 02004KT 4SM 34/30 A2947 RMK T03400300 IEM_DS3505
ZHHH,2006-07-13 14:00,ZHHH 131400Z AUTO 01004KT 4SM 33/30 A2947 RMK T03300300 IEM_DS3505
ZHHH,2006-07-13 15:00,ZHHH 131500Z AUTO 32002KT 9SM 33/28 A2947 RMK SLP982 T03320282 52009 IEM_DS3505
ZHHH,2006-07-13 16:00,ZHHH 131600Z AUTO 05008KT 4SM 31/30 A2947 RMK T03100300 IEM_DS3505
ZHHH,2006-07-13 17:00,ZHHH 131700Z AUTO 07010KT 4SM 31/29 A2947 RMK T03100290 IEM_DS3505
ZHHH,2006-07-13 18:00,ZHHH 131800Z AUTO 07004KT 9SM 32/28 A2947 RMK SLP979 T03150278 57003 IEM_DS3505
ZHHH,2006-07-13 19:00,ZHHH 131900Z AUTO 07008KT 4SM 30/29 A2947 RMK T03000290 IEM_DS3505
ZHHH,2006-07-13 20:00,ZHHH 132000Z AUTO 06008KT 4SM 29/28 A2944 RMK T02900280 IEM_DS3505
ZHHH,2006-07-13 21:00,ZHHH 132100Z AUTO 36002KT 9SM 30/26 A2947 RMK SLP977 T03030265 57002 IEM_DS3505
ZHHH,2006-07-13 22:00,ZHHH 132200Z AUTO 04008KT 2 1/2SM 29/28 A2947 RMK T02900280 IEM_DS3505
ZHHH,2006-07-13 23:00,ZHHH 132300Z AUTO 05006KT 4SM 30/28 A2947 RMK T03000280 IEM_DS3505
ZHHH,2006-07-14 00:00,ZHHH 140000Z AUTO 02002KT 14SM 32/26 A2947 RMK SLP975 T03150258 57002 IEM_DS3505
ZHHH,2006-07-14 01:00,ZHHH 140100Z AUTO 06008KT 6SM 32/28 A2947 RMK T03200280 IEM_DS3505
ZHHH,2006-07-14 02:00,ZHHH 140200Z AUTO 04008KT 6SM 33/28 A2944 RMK T03300280 IEM_DS3505
ZHHH,2006-07-14 03:00,ZHHH 140300Z AUTO 04006KT 16SM 34/25 A2944 RMK SLP966 T03390248 57009 IEM_DS3505
ZHHH,2006-07-14 04:00,ZHHH 140400Z AUTO 04008KT 7SM 35/28 A2941 RMK T03500280 IEM_DS3505
ZHHH,2006-07-14 05:00,ZHHH 140500Z AUTO 04008G17KT 7SM 35/28 A2941 RMK T03500280 IEM_DS3505
ZHHH,2006-07-14 06:00,ZHHH 140600Z AUTO 04008KT 12SM 36/24 A2941 RMK SLP954 T03590238 57012 IEM_DS3505
ZHHH,2006-07-14 07:00,ZHHH 140700Z AUTO 06016KT 7SM 36/26 A2938 RMK T03600260 IEM_DS3505
ZHHH,2006-07-14 08:00,ZHHH 140800Z AUTO 05016KT 7SM 36/26 A2935 RMK T03600260 IEM_DS3505
ZHHH,2006-07-14 09:00,ZHHH 140900Z AUTO 07006KT 11SM 35/23 A2935 RMK SLP936 T03530226 57018 IEM_DS3505
ZHHH,2006-07-14 10:00,ZHHH 141000Z AUTO 04012KT 7SM 34/27 A2935 RMK T03400270 IEM_DS3505
ZHHH,2006-07-14 11:00,ZHHH 141100Z AUTO 02010KT 6SM 32/27 A2938 RMK T03200270 IEM_DS3505
ZHHH,2006-07-14 12:00,ZHHH 141200Z AUTO 04006KT 11SM 32/24 A2938 RMK SLP945 T03190245 52009 IEM_DS3505
ZHHH,2006-07-14 13:00,ZHHH 141300Z AUTO 02010KT 6SM 31/27 A2938 RMK T03100270 IEM_DS3505
ZHHH,2006-07-14 14:00,ZHHH 141400Z AUTO 02010KT 6SM 31/27 A2938 RMK T03100270 IEM_DS3505
ZHHH,2006-07-14 15:00,ZHHH 141500Z AUTO 04004KT 11SM 31/25 A2938 RMK SLP951 T03090248 52006 IEM_DS3505
ZHHH,2006-07-14 16:00,ZHHH 141600Z AUTO 01008KT 6SM 30/27 A2938 RMK T03000270 IEM_DS3505
ZHHH,2006-07-14 17:00,ZHHH 141700Z AUTO 02010KT 6SM 30/27 A2938 RMK T03000270 IEM_DS3505
ZHHH,2006-07-14 18:00,ZHHH 141800Z AUTO 02006G23KT 9SM 30/25 A2935 RMK SLP939 T03030247 57012 IEM_DS3505
ZHHH,2006-07-14 19:00,ZHHH 141900Z AUTO 02010KT 6SM 29/26 A2935 RMK T02900260 IEM_DS3505
ZHHH,2006-07-14 20:00,ZHHH 142000Z AUTO 01008KT 6SM 29/26 A2935 RMK T02900260 IEM_DS3505
ZHHH,2006-07-14 21:00,ZHHH 142100Z AUTO 02006KT 11SM 30/24 A2935 RMK SLP937 T02960242 57002 IEM_DS3505
ZHHH,2006-07-14 22:00,ZHHH 142200Z AUTO 02008KT 7SM 29/26 A2935 RMK T02900260 IEM_DS3505
ZHHH,2006-07-14 23:00,ZHHH 142300Z AUTO 02008KT 7SM 29/26 A2938 RMK T02900260 IEM_DS3505
ZHHH,2006-07-15 00:00,ZHHH 150000Z AUTO 04006KT 9SM 29/24 A2938 RMK SLP948 T02940243 52011 IEM_DS3505
ZHHH,2006-07-15 01:00,ZHHH 150100Z AUTO 03012KT 6SM 30/26 A2938 RMK T03000260 IEM_DS3505
ZHHH,2006-07-15 02:00,ZHHH 150200Z AUTO 02012G21KT 6SM 30/27 A2938 RMK T03000270 IEM_DS3505
ZHHH,2006-07-15 03:00,ZHHH 150300Z AUTO 36006KT 9SM 30/24 A2938 RMK SLP950 T03020244 52002 IEM_DS3505
ZHHH,2006-07-15 04:00,ZHHH 150400Z AUTO 02012G21KT 7SM 31/27 A2938 RMK T03100270 IEM_DS3505
ZHHH,2006-07-15 05:00,ZHHH 150500Z AUTO 02012KT 7SM 30/27 A2938 RMK T03000270 IEM_DS3505
ZHHH,2006-07-15 06:00,ZHHH 150600Z AUTO 04008KT 9SM 31/25 A2935 RMK SLP939 T03080247 57011 IEM_DS3505
ZHHH,2006-07-15 07:00,ZHHH 150700Z AUTO 01014KT 7SM 31/27 A2935 RMK T03100270 IEM_DS3505
ZHHH,2006-07-15 08:00,ZHHH 150800Z AUTO 02012KT 7SM 31/27 A2932 RMK T03100270 IEM_DS3505
ZHHH,2006-07-15 09:00,ZHHH 150900Z AUTO 34004G19KT 9SM 31/25 A2932 RMK SLP930 T03090250 57009 IEM_DS3505
ZHHH,2006-07-15 10:00,ZHHH 151000Z AUTO 02014KT 7SM 30/27 A2932 RMK T03000270 IEM_DS3505
ZHHH,2006-07-15 11:00,ZHHH 151100Z AUTO 01010KT 6SM 29/27 A2935 RMK T02900270 IEM_DS3505
ZHHH,2006-07-15 12:00,ZHHH 151200Z AUTO 36004KT 11SM 30/25 A2935 RMK SLP941 T02950248 52011 IEM_DS3505
ZHHH,2006-07-15 13:00,ZHHH 151300Z AUTO 03010KT 6SM 28/27 A2938 RMK T02800270 IEM_DS3505
ZHHH,2006-07-15 14:00,ZHHH 151400Z AUTO 01006KT 6SM 28/27 A2938 RMK T02800270 IEM_DS3505
ZHHH,2006-07-15 15:00,ZHHH 151500Z AUTO 04006KT 11SM 29/25 A2938 RMK SLP951 T02880252 52010 IEM_DS3505
ZHHH,2006-07-15 16:00,ZHHH 151600Z AUTO 10008KT 4SM 27/26 A2938 RMK T02700260 IEM_DS3505
ZHHH,2006-07-15 17:00,ZHHH 151700Z AUTO 05006KT 4SM 26/26 A2938 RMK T02600260 IEM_DS3505
ZHHH,2006-07-15 18:00,ZHHH 151800Z AUTO 07002KT 7SM 27/26 A2938 RMK 60002 SLP946 T02710255 57005 IEM_DS3505
ZHHH,2006-07-15 19:00,ZHHH 151900Z AUTO 7SM 27/27 A2938 RMK T02700270 IEM_DS3505
ZHHH,2006-07-15 20:00,ZHHH 152000Z AUTO 10006KT 4SM 27/27 A2938 RMK T02700270 IEM_DS3505
ZHHH,2006-07-15 21:00,ZHHH 152100Z AUTO 04004KT 9SM 27/26 A2938 RMK 70003 SLP949 T02730255 52003 IEM_DS3505
ZHHH,2006-07-15 22:00,ZHHH 152200Z AUTO 08006KT 3SM 26/26 A2941 RMK T02600260 IEM_DS3505
ZHHH,2006-07-15 23:00,ZHHH 152300Z AUTO 08008KT 7SM 26/26 A2941 RMK T02600260 IEM_DS3505
ZHHH,2006-07-16 00:00,ZHHH 160000Z AUTO 07004KT 7SM 28/24 A2941 RMK 60000 70003 SLP961 T02760240 52012 IEM_DS3505
ZHHH,2006-07-16 01:00,ZHHH 160100Z AUTO 08010KT 3SM 27/26 A2944 RMK T02700260 IEM_DS3505
ZHHH,2006-07-16 02:00,ZHHH 160200Z AUTO 08010KT 7SM 27/27 A2944 RMK T02700270 IEM_DS3505
ZHHH,2006-07-16 03:00,ZHHH 160300Z AUTO 09006KT 7SM 29/24 A2944 RMK SLP967 T02870236 52006 IEM_DS3505
ZHHH,2006-07-16 04:00,ZHHH 160400Z AUTO 11010KT 7SM 29/26 A2944 RMK T02900260 IEM_DS3505
ZHHH,2006-07-16 05:00,ZHHH 160500Z AUTO 10008KT 7SM 30/27 A2944 RMK T03000270 IEM_DS3505
ZHHH,2006-07-16 06:00,ZHHH 160600Z AUTO 09004KT 7SM 28/24 A2941 RMK 60000 SLP959 T02840242 57008 IEM_DS3505
ZHHH,2006-07-16 07:00,ZHHH 160700Z AUTO 10008KT 7SM 28/26 A2941 RMK T02800260 IEM_DS3505
ZHHH,2006-07-16 08:00,ZHHH 160800Z AUTO 11012KT 7SM 29/26 A2941 RMK T02900260 IEM_DS3505
ZHHH,2006-07-16 09:00,ZHHH 160900Z AUTO 09004KT 9SM 29/24 A2941 RMK SLP956 T02870236 57003 IEM_DS3505
ZHHH,2006-07-16 10:00,ZHHH 161000Z AUTO 10014KT 7SM 27/26 A2941 RMK T02700260 IEM_DS3505
ZHHH,2006-07-16 11:00,ZHHH 161100Z AUTO 10012KT 7SM 27/26 A2944 RMK T02700260 IEM_DS3505
ZHHH,2006-07-16 12:00,ZHHH 161200Z AUTO 09004KT 9SM 28/24 A2944 RMK 60000 SLP967 T02770239 52011 IEM_DS3505
ZHHH,2006-07-16 13:00,ZHHH 161300Z AUTO 10010KT 7SM 27/26 A2947 RMK T02700260 IEM_DS3505
ZHHH,2006-07-16 14:00,ZHHH 161400Z AUTO 10010KT 7SM 26/25 A2947 RMK T02600250 IEM_DS3505
ZHHH,2006-07-16 15:00,ZHHH 161500Z AUTO 07004KT 9SM 27/24 A2947 RMK SLP976 T02730244 52009 IEM_DS3505
ZHHH,2006-07-16 16:00,ZHHH 161600Z AUTO 09006KT 7SM 26/26 A2947 RMK T02600260 IEM_DS3505
ZHHH,2006-07-16 17:00,ZHHH 161700Z AUTO 09008KT 7SM 26/26 A2947 RMK T02600260 IEM_DS3505
ZHHH,2006-07-16 18:00,ZHHH 161800Z AUTO 09002KT 11SM 27/24 A2947 RMK SLP977 T02730244 52001 IEM_DS3505
ZHHH,2006-07-16 19:00,ZHHH 161900Z AUTO 10006KT 7SM 26/26 A2947 RMK T02600260 IEM_DS3505
ZHHH,2006-07-16 20:00,ZHHH 162000Z AUTO 09006KT 7SM 26/26 A2947 RMK T02600260 IEM_DS3505
ZHHH,2006-07-16 21:00,ZHHH 162100Z AUTO 11004KT 7SM 26/25 A2947 RMK 70015 SLP982 T02570247 52005 IEM_DS3505
ZHHH,2006-07-16 22:00,ZHHH 162200Z AUTO 16008KT 2 1/2SM 25/25 A2950 RMK T02500250 IEM_DS3505
ZHHH,2006-07-16 23:00,ZHHH 162300Z AUTO 16006KT 1 1/4SM 25/25 A2953 RMK T02500250 IEM_DS3505
ZHHH,2006-07-17 00:00,ZHHH 170000Z AUTO 11004KT 7SM 26/25 A2953 RMK 60028 70029 SLP001 T02620252 52018 IEM_DS3505
ZHHH,2006-07-17 01:00,ZHHH 170100Z AUTO 13006KT 1SM 26/26 A2956 RMK T02600260 IEM_DS3505
ZHHH,2006-07-17 02:00,ZHHH 170200Z AUTO 11006KT 1 1/4SM 26/26 A2956 RMK T02600260 IEM_DS3505
ZHHH,2006-07-17 03:00,ZHHH 170300Z AUTO 07004KT 9SM 28/25 A2956 RMK SLP009 T02790251 52009 IEM_DS3505
ZHHH,2006-07-17 04:00,ZHHH 170400Z AUTO 13006KT 7SM 27/27 A2956 RMK T02700270 IEM_DS3505
ZHHH,2006-07-17 05:00,ZHHH 170500Z AUTO 11008KT 7SM 28/27 A2956 RMK T02800270 IEM_DS3505
ZHHH,2006-07-17 06:00,ZHHH 170600Z AUTO 20004KT 12SM 30/24 A2956 RMK 60002 SLP007 T03040245 57002 IEM_DS3505
ZHHH,2006-07-17 07:00,ZHHH 170700Z AUTO 6SM 30/27 A2956 RMK T03000270 IEM_DS3505
ZHHH,2006-07-17 08:00,ZHHH 170800Z AUTO 20006KT 6SM 32/27 A2956 RMK T03200270 IEM_DS3505
ZHHH,2006-07-17 09:00,ZHHH 170900Z AUTO 16002KT 12SM 32/24 A2956 RMK SLP005 T03190240 57002 IEM_DS3505
ZHHH,2006-07-17 10:00,ZHHH 171000Z AUTO 7SM 31/27 A2956 RMK T03100270 IEM_DS3505
ZHHH,2006-07-17 11:00,ZHHH 171100Z AUTO 12006KT 7SM 29/27 A2959 RMK T02900270 IEM_DS3505
ZHHH,2006-07-17 12:00,ZHHH 171200Z AUTO 14002KT 9SM 29/24 A2959 RMK 60000 SLP027 T02860240 52021 IEM_DS3505
ZHHH,2006-07-17 13:00,ZHHH 171300Z AUTO 19006KT 7SM 27/26 A2962 RMK T02700260 IEM_DS3505
ZHHH,2006-07-17 14:00,ZHHH 171400Z AUTO 17006KT 6SM 27/26 A2962 RMK T02700260 IEM_DS3505
ZHHH,2006-07-17 15:00,ZHHH 171500Z AUTO 20002KT 9SM 28/24 A2965 RMK SLP036 T02780242 52009 IEM_DS3505
ZHHH,2006-07-17 16:00,ZHHH 171600Z AUTO 6SM 27/26 A2965 RMK T02700260 IEM_DS3505
ZHHH,2006-07-17 17:00,ZHHH 171700Z AUTO 11004KT 6SM 27/26 A2962 RMK T02700260 IEM_DS3505
ZHHH,2006-07-17 18:00,ZHHH 171800Z AUTO 11002KT 9SM 28/25 A2962 RMK SLP031 T02810247 57004 IEM_DS3505
ZHHH,2006-07-17 19:00,ZHHH 171900Z AUTO 13004KT 6SM 27/27 A2962 RMK T02700270 IEM_DS3505
ZHHH,2006-07-17 20:00,ZHHH 172000Z AUTO 13004KT 6SM 27/27 A2962 RMK T02700270 IEM_DS3505
ZHHH,2006-07-17 21:00,ZHHH 172100Z AUTO 09002KT 9SM 28/26 A2962 RMK 70017 SLP033 T02810257 52002 IEM_DS3505
ZHHH,2006-07-17 22:00,ZHHH 172200Z AUTO 14006KT 3SM 27/27 A2965 RMK T02700270 IEM_DS3505
ZHHH,2006-07-17 23:00,ZHHH 172300Z AUTO 14004KT 3SM 28/27 A2965 RMK T02800270 IEM_DS3505
ZHHH,2006-07-18 00:00,ZHHH 180000Z AUTO 18004KT 16SM 31/24 A2968 RMK 70002 SLP045 T03100239 52012 IEM_DS3505
ZHHH,2006-07-18 01:00,ZHHH 180100Z AUTO 22012KT 7SM 32/27 A2968 RMK T03200270 IEM_DS3505
ZHHH,2006-07-18 02:00,ZHHH 180200Z AUTO 22012KT 7SM 32/27 A2968 RMK T03200270 IEM_DS3505
ZHHH,2006-07-18 03:00,ZHHH 180300Z AUTO 22006KT 16SM 33/24 A2968 RMK SLP050 T03260241 52005 IEM_DS3505
ZHHH,2006-07-18 04:00,ZHHH 180400Z AUTO 22016KT 7SM 33/27 A2968 RMK T03300270 IEM_DS3505
ZHHH,2006-07-18 05:00,ZHHH 180500Z AUTO 22016KT 7SM 34/28 A2965 RMK T03400280 IEM_DS3505
ZHHH,2006-07-18 06:00,ZHHH 180600Z AUTO 27006KT 16SM 34/24 A2965 RMK SLP037 T03450238 57013 IEM_DS3505
ZHHH,2006-07-18 07:00,ZHHH 180700Z AUTO 23014KT 7SM 34/27 A2965 RMK T03400270 IEM_DS3505
ZHHH,2006-07-18 08:00,ZHHH 180800Z AUTO 24012KT 7SM 34/27 A2962 RMK T03400270 IEM_DS3505
ZHHH,2006-07-18 09:00,ZHHH 180900Z AUTO 22006KT 14SM 34/24 A2962 RMK SLP029 T03420245 57008 IEM_DS3505
ZHHH,2006-07-18 10:00,ZHHH 181000Z AUTO 23010KT 7SM 33/27 A2962 RMK T03300270 IEM_DS3505
ZHHH,2006-07-18 11:00,ZHHH 181100Z AUTO 23006KT 6SM 32/27 A2965 RMK T03200270 IEM_DS3505
ZHHH,2006-07-18 12:00,ZHHH 181200Z AUTO 18002KT 14SM 32/25 A2965 RMK SLP039 T03200253 52010 IEM_DS3505
ZHHH,2006-07-18 13:00,ZHHH 181300Z AUTO 20002KT 6SM 30/28 A2965 RMK T03000280 IEM_DS3505
ZHHH,2006-07-18 14:00,ZHHH 181400Z AUTO 18004KT 6SM 30/28 A2968 RMK T03000280 IEM_DS3505
ZHHH,2006-07-18 15:00,ZHHH 181500Z AUTO 20004KT 12SM 31/26 A2965 RMK SLP044 T03100256 52005 IEM_DS3505
ZHHH,2006-07-18 16:00,ZHHH 181600Z AUTO 21010KT 3SM 30/27 A2965 RMK T03000270 IEM_DS3505
ZHHH,2006-07-18 17:00,ZHHH 181700Z AUTO 22010KT 3SM 30/27 A2965 RMK T03000270 IEM_DS3505
ZHHH,2006-07-18 18:00,ZHHH 181800Z AUTO 29002KT 11SM 30/25 A2962 RMK SLP032 T03020250 57012 IEM_DS3505
ZHHH,2006-07-18 19:00,ZHHH 181900Z AUTO 22010KT 4SM 30/27 A2962 RMK T03000270 IEM_DS3505
ZHHH,2006-07-18 20:00,ZHHH 182000Z AUTO 22012KT 4SM 29/27 A2962 RMK T02900270 IEM_DS3505
ZHHH,2006-07-18 21:00,ZHHH 182100Z AUTO 20004KT 11SM 29/25 A2962 RMK SLP033 T02920250 52001 IEM_DS3505
ZHHH,2006-07-18 22:00,ZHHH 182200Z AUTO 21010KT 6SM 29/27 A2962 RMK T02900270 IEM_DS3505
ZHHH,2006-07-19 00:00,ZHHH 190000Z AUTO 20004KT 11SM 31/24 A2965 RMK SLP038 T03110242 52005 IEM_DS3505
ZHHH,2006-07-19 01:00,ZHHH 190100Z AUTO 22012KT 6SM 32/27 A2965 RMK T03200270 IEM_DS3505
ZHHH,2006-07-19 02:00,ZHHH 190200Z AUTO 24014KT 6SM 33/27 A2965 RMK T03300270 IEM_DS3505
ZHHH,2006-07-19 03:00,ZHHH 190300Z AUTO 25008KT 12SM 34/24 A2965 RMK SLP040 T03380238 52002 IEM_DS3505
ZHHH,2006-07-19 04:00,ZHHH 190400Z AUTO 23014KT 7SM 34/28 A2965 RMK T03400280 IEM_DS3505
ZHHH,2006-07-19 05:00,ZHHH 190500Z AUTO 22012KT 7SM 34/28 A2962 RMK T03400280 IEM_DS3505
ZHHH,2006-07-19 06:00,ZHHH 190600Z AUTO 27006KT 14SM 35/25 A2962 RMK SLP029 T03460251 57011 IEM_DS3505
ZHHH,2006-07-19 07:00,ZHHH 190700Z AUTO 23014KT 7SM 34/28 A2962 RMK T03400280 IEM_DS3505
ZHHH,2006-07-19 08:00,ZHHH 190800Z AUTO 22010KT 7SM 34/29 A2962 RMK T03400290 IEM_DS3505
ZHHH,2006-07-19 09:00,ZHHH 190900Z AUTO 25004KT 12SM 35/25 A2959 RMK SLP020 T03480250 57009 IEM_DS3505
ZHHH,2006-07-19 10:00,ZHHH 191000Z AUTO 22010KT 6SM 33/28 A2959 RMK T03300280 IEM_DS3505
ZHHH,2006-07-19 11:00,ZHHH 191100Z AUTO 22008KT 6SM 32/28 A2962 RMK T03200280 IEM_DS3505
ZHHH,2006-07-19 12:00,ZHHH 191200Z AUTO 27004KT 12SM 33/25 A2962 RMK SLP026 T03260249 52006 IEM_DS3505
ZHHH,2006-07-19 13:00,ZHHH 191300Z AUTO 25004KT 6SM 32/28 A2962 RMK T03200280 IEM_DS3505
ZHHH,2006-07-19 14:00,ZHHH 191400Z AUTO 6SM 31/28 A2965 RMK T03100280 IEM_DS3505
ZHHH,2006-07-19 15:00,ZHHH 191500Z AUTO 22002KT 12SM 32/25 A2962 RMK SLP034 T03180254 52008 IEM_DS3505
ZHHH,2006-07-19 16:00,ZHHH 191600Z AUTO 16004KT 6SM 31/28 A2962 RMK T03100280 IEM_DS3505
ZHHH,2006-07-19 17:00,ZHHH 191700Z AUTO 18006KT 6SM 31/27 A2962 RMK T03100270 IEM_DS3505
ZHHH,2006-07-19 18:00,ZHHH 191800Z AUTO 14002KT 12SM 31/25 A2959 RMK SLP019 T03070253 57015 IEM_DS3505
ZHHH,2006-07-19 19:00,ZHHH 191900Z AUTO 19006KT 6SM 30/27 A2959 RMK T03000270 IEM_DS3505
ZHHH,2006-07-19 20:00,ZHHH 192000Z AUTO 18006KT 6SM 30/27 A2959 RMK T03000270 IEM_DS3505
ZHHH,2006-07-19 21:00,ZHHH 192100Z AUTO 18002KT 12SM 30/25 A2959 RMK SLP021 T03010247 52002 IEM_DS3505
ZHHH,2006-07-19 22:00,ZHHH 192200Z AUTO 19008KT 6SM 29/27 A2959 RMK T02900270 IEM_DS3505
ZHHH,2006-07-19 23:00,ZHHH 192300Z AUTO 20008KT 6SM 31/27 A2962 RMK T03100270 IEM_DS3505
ZHHH,2006-07-20 00:00,ZHHH 200000Z AUTO 18006KT 16SM 32/24 A2962 RMK SLP028 T03190245 52007 IEM_DS3505
ZHHH,2006-07-20 01:00,ZHHH 200100Z AUTO 22012KT 6SM 32/27 A2962 RMK T03200270 IEM_DS3505
ZHHH,2006-07-20 02:00,ZHHH 200200Z AUTO 22012KT 6SM 33/28 A2962 RMK T03300280 IEM_DS3505
ZHHH,2006-07-20 03:00,ZHHH 200300Z AUTO 27004KT 16SM 34/25 A2959 RMK SLP024 T03410252 57004 IEM_DS3505
ZHHH,2006-07-20 04:00,ZHHH 200400Z AUTO 23008KT 7SM 34/28 A2959 RMK T03400280 IEM_DS3505
ZHHH,2006-07-20 05:00,ZHHH 200500Z AUTO 22008KT 7SM 35/28 A2959 RMK T03500280 IEM_DS3505
ZHHH,2006-07-20 06:00,ZHHH 200600Z AUTO 22008KT 12SM 35/25 A2956 RMK SLP012 T03540253 57012 IEM_DS3505
ZHHH,2006-07-20 07:00,ZHHH 200700Z AUTO 23010KT 7SM 35/28 A2956 RMK T03500280 IEM_DS3505
ZHHH,2006-07-20 08:00,ZHHH 200800Z AUTO 23010KT 7SM 35/28 A2956 RMK T03500280 IEM_DS3505
ZHHH,2006-07-20 09:00,ZHHH 200900Z AUTO 22006KT 12SM 35/25 A2956 RMK SLP005 T03530252 57007 IEM_DS3505
ZHHH,2006-07-20 10:00,ZHHH 201000Z AUTO 24008KT 7SM 34/28 A2953 RMK T03400280 IEM_DS3505
ZHHH,2006-07-20 11:00,ZHHH 201100Z AUTO 23006KT 6SM 33/28 A2956 RMK T03300280 IEM_DS3505
ZHHH,2006-07-20 12:00,ZHHH 201200Z AUTO 25002KT 11SM 33/25 A2956 RMK SLP008 T03300253 52003 IEM_DS3505
ZHHH,2006-07-20 13:00,ZHHH 201300Z AUTO 24002KT 6SM 32/28 A2959 RMK T03200280 IEM_DS3505
ZHHH,2006-07-20 14:00,ZHHH 201400Z AUTO 00000KT 4SM 31/29 A2959 RMK T03100290 IEM_DS3505
ZHHH,2006-07-20 15:00,ZHHH 201500Z AUTO 11004KT 9SM 32/25 A2959 RMK SLP014 T03240252 52006 IEM_DS3505
ZHHH,2006-07-20 16:00,ZHHH 201600Z AUTO 15004KT 4SM 31/28 A2956 RMK T03100280 IEM_DS3505
ZHHH,2006-07-20 17:00,ZHHH 201700Z AUTO 21008KT 4SM 31/28 A2956 RMK T03100280 IEM_DS3505
ZHHH,2006-07-20 18:00,ZHHH 201800Z AUTO 14004KT 9SM 32/26 A2956 RMK SLP006 T03170260 57008 IEM_DS3505
ZHHH,2006-07-20 19:00,ZHHH 201900Z AUTO 18004KT 4SM 31/28 A2956 RMK T03100280 IEM_DS3505
ZHHH,2006-07-20 20:00,ZHHH 202000Z AUTO 17006KT 4SM 31/28 A2953 RMK T03100280 IEM_DS3505
ZHHH,2006-07-20 21:00,ZHHH 202100Z AUTO 11002KT 9SM 31/25 A2953 RMK SLP002 T03060254 57004 IEM_DS3505
ZHHH,2006-07-20 22:00,ZHHH 202200Z AUTO 18006KT 6SM 30/27 A2956 RMK T03000270 IEM_DS3505
ZHHH,2006-07-20 23:00,ZHHH 202300Z AUTO 18006KT 6SM 31/27 A2956 RMK T03100270 IEM_DS3505
ZHHH,2006-07-21 00:00,ZHHH 210000Z AUTO 18004KT 16SM 33/24 A2956 RMK SLP010 T03300245 52008 IEM_DS3505
ZHHH,2006-07-21 01:00,ZHHH 210100Z AUTO 22010KT 6SM 34/27 A2959 RMK T03400270 IEM_DS3505
ZHHH,2006-07-21 02:00,ZHHH 210200Z AUTO 23010KT 6SM 35/28 A2959 RMK T03500280 IEM_DS3505
ZHHH,2006-07-21 03:00,ZHHH 210300Z AUTO 22004KT 16SM 35/25 A2959 RMK SLP016 T03510247 52006 IEM_DS3505
ZHHH,2006-07-21 04:00,ZHHH 210400Z AUTO 23010KT 7SM 36/28 A2956 RMK T03600280 IEM_DS3505
ZHHH,2006-07-21 05:00,ZHHH 210500Z AUTO 23010KT 7SM 36/28 A2956 RMK T03600280 IEM_DS3505
ZHHH,2006-07-21 06:00,ZHHH 210600Z AUTO 18004KT 12SM 36/25 A2953 RMK SLP997 T03590251 57019 IEM_DS3505
ZHHH,2006-07-21 07:00,ZHHH 210700Z AUTO 22014KT 7SM 36/28 A2950 RMK T03600280 IEM_DS3505
ZHHH,2006-07-21 08:00,ZHHH 210800Z AUTO 23010KT 7SM 36/29 A2950 RMK T03600290 IEM_DS3505
ZHHH,2006-07-21 09:00,ZHHH 210900Z AUTO 20004KT 11SM 36/25 A2950 RMK SLP989 T03580253 57008 IEM_DS3505
ZHHH,2006-07-21 10:00,ZHHH 211000Z AUTO 23010KT 6SM 34/29 A2950 RMK T03400290 IEM_DS3505
ZHHH,2006-07-21 11:00,ZHHH 211100Z AUTO 25006KT 6SM 34/29 A2953 RMK T03400290 IEM_DS3505
ZHHH,2006-07-21 12:00,ZHHH 211200Z AUTO 25004KT 9SM 34/26 A2953 RMK SLP001 T03380255 52012 IEM_DS3505
ZHHH,2006-07-21 13:00,ZHHH 211300Z AUTO 6SM 32/29 A2956 RMK T03200290 IEM_DS3505
ZHHH,2006-07-21 14:00,ZHHH 211400Z AUTO 00000KT 6SM 32/29 A2959 RMK T03200290 IEM_DS3505
ZHHH,2006-07-21 15:00,ZHHH 211500Z AUTO 11002KT 9SM 33/26 A2959 RMK SLP018 T03310256 52017 IEM_DS3505
ZHHH,2006-07-21 16:00,ZHHH 211600Z AUTO 13004KT 6SM 32/29 A2956 RMK T03200290 IEM_DS3505
ZHHH,2006-07-21 17:00,ZHHH 211700Z AUTO 13004KT 6SM 32/29 A2956 RMK T03200290 IEM_DS3505
ZHHH,2006-07-21 18:00,ZHHH 211800Z AUTO 11002KT 9SM 33/26 A2956 RMK SLP009 T03260262 57009 IEM_DS3505
ZHHH,2006-07-21 19:00,ZHHH 211900Z AUTO 12004KT 4SM 31/29 A2956 RMK T03100290 IEM_DS3505
ZHHH,2006-07-21 20:00,ZHHH 212000Z AUTO 14004KT 3SM 31/29 A2956 RMK T03100290 IEM_DS3505
ZHHH,2006-07-21 21:00,ZHHH 212100Z AUTO 20004KT 9SM 32/25 A2956 RMK SLP010 T03220250 52001 IEM_DS3505
ZHHH,2006-07-21 22:00,ZHHH 212200Z AUTO 01004KT 2 1/2SM 30/29 A2959 RMK T03000290 IEM_DS3505
ZHHH,2006-07-21 23:00,ZHHH 212300Z AUTO 05006KT 3SM 29/28 A2959 RMK T02900280 IEM_DS3505
ZHHH,2006-07-22 00:00,ZHHH 220000Z AUTO 25002KT 9SM 31/27 A2959 RMK SLP021 T03110268 52011 IEM_DS3505
ZHHH,2006-07-22 01:00,ZHHH 220100Z AUTO 01006KT 2SM 30/28 A2962 RMK T03000280 IEM_DS3505
ZHHH,2006-07-22 02:00,ZHHH 220200Z AUTO 03006KT 3SM 29/28 A2962 RMK T02900280 IEM_DS3505
ZHHH,2006-07-22 03:00,ZHHH 220300Z AUTO 07004KT 9SM 31/27 A2962 RMK SLP028 T03070266 52007 IEM_DS3505
ZHHH,2006-07-22 04:00,ZHHH 220400Z AUTO 08006KT 4SM 30/28 A2962 RMK T03000280 IEM_DS3505
ZHHH,2006-07-22 05:00,ZHHH 220500Z AUTO 07006KT 4SM 31/29 A2962 RMK T03100290 IEM_DS3505
ZHHH,2006-07-22 06:00,ZHHH 220600Z AUTO 07004KT 9SM 32/27 A2959 RMK SLP019 T03180266 57009 IEM_DS3505
ZHHH,2006-07-22 07:00,ZHHH 220700Z AUTO 08008KT 5SM 31/28 A2959 RMK T03100280 IEM_DS3505
ZHHH,2006-07-22 08:00,ZHHH 220800Z AUTO 03006KT 4SM 31/28 A2959 RMK T03100280 IEM_DS3505
ZHHH,2006-07-22 09:00,ZHHH 220900Z AUTO 04004KT 9SM 32/27 A2959 RMK SLP015 T03190267 57004 IEM_DS3505
ZHHH,2006-07-22 10:00,ZHHH 221000Z AUTO 03008KT 5SM 30/28 A2959 RMK T03000280 IEM_DS3505
ZHHH,2006-07-22 11:00,ZHHH 221100Z AUTO 04008KT 4SM 28/27 A2962 RMK T02800270 IEM_DS3505
ZHHH,2006-07-22 12:00,ZHHH 221200Z AUTO 02004KT 9SM 29/26 A2965 RMK SLP035 T02910255 52020 IEM_DS3505
ZHHH,2006-07-22 13:00,ZHHH 221300Z AUTO 04006KT 4SM 27/26 A2965 RMK T02700260 IEM_DS3505
ZHHH,2006-07-22 14:00,ZHHH 221400Z AUTO 04008KT 4SM 27/26 A2968 RMK T02700260 IEM_DS3505
ZHHH,2006-07-22 15:00,ZHHH 221500Z AUTO 02004KT 11SM 28/24 A2968 RMK SLP046 T02790239 52011 IEM_DS3505
ZHHH,2006-07-22 16:00,ZHHH 221600Z AUTO 04004KT 4SM 27/26 A2968 RMK T02700260 IEM_DS3505
ZHHH,2006-07-22 17:00,ZHHH 221700Z AUTO 36004KT 4SM 27/26 A2965 RMK T02700260 IEM_DS3505
ZHHH,2006-07-22 18:00,ZHHH 221800Z AUTO 27004KT 11SM 28/25 A2965 RMK SLP042 T02760247 57004 IEM_DS3505
ZHHH,2006-07-22 19:00,ZHHH 221900Z AUTO 4SM 27/26 A2965 RMK T02700260 IEM_DS3505
ZHHH,2006-07-22 20:00,ZHHH 222000Z AUTO 35004KT 4SM 26/26 A2965 RMK T02600260 IEM_DS3505
ZHHH,2006-07-22 21:00,ZHHH 222100Z AUTO 32004KT 9SM 27/25 A2965 RMK SLP038 T02690246 57004 IEM_DS3505
ZHHH,2006-07-22 22:00,ZHHH 222200Z AUTO 36006KT 1SM 25/25 A2965 RMK T02500250 IEM_DS3505
ZHHH,2006-07-22 23:00,ZHHH 222300Z AUTO 35004KT 1SM 26/25 A2968 RMK T02600250 IEM_DS3505
ZHHH,2006-07-23 00:00,ZHHH 230000Z AUTO 36004KT 7SM 27/24 A2968 RMK SLP051 T02720237 52012 IEM_DS3505
ZHHH,2006-07-23 01:00,ZHHH 230100Z AUTO 35004KT 1 1/4SM 28/25 A2971 RMK T02800250 IEM_DS3505
ZHHH,2006-07-23 02:00,ZHHH 230200Z AUTO 32004KT 1SM 28/26 A2971 RMK T02800260 IEM_DS3505
ZHHH,2006-07-23 03:00,ZHHH 230300Z AUTO 32002KT 9SM 29/24 A2971 RMK SLP057 T02870238 52006 IEM_DS3505
ZHHH,2006-07-23 04:00,ZHHH 230400Z AUTO 32006KT 1 1/2SM 29/26 A2971 RMK T02900260 IEM_DS3505
ZHHH,2006-07-23 05:00,ZHHH 230500Z AUTO 33006KT 1 1/2SM 28/26 A2971 RMK T02800260 IEM_DS3505
ZHHH,2006-07-23 06:00,ZHHH 230600Z AUTO 32004KT 9SM 29/23 A2968 RMK SLP053 T02870232 57004 IEM_DS3505
ZHHH,2006-07-23 07:00,ZHHH 230700Z AUTO 33010KT 2SM 26/24 A2968 RMK T02600240 IEM_DS3505
ZHHH,2006-07-23 08:00,ZHHH 230800Z AUTO 34012KT 2SM 25/23 A2971 RMK T02500230 IEM_DS3505
ZHHH,2006-07-23 09:00,ZHHH 230900Z AUTO 34004KT 9SM 26/21 A2968 RMK SLP053 T02570214 54000 IEM_DS3505
ZHHH,2006-07-23 10:00,ZHHH 231000Z AUTO 35006KT 1 1/2SM 25/23 A2968 RMK T02500230 IEM_DS3505
ZHHH,2006-07-23 11:00,ZHHH 231100Z AUTO 01004KT 1 1/2SM 25/22 A2968 RMK T02500220 IEM_DS3505
ZHHH,2006-07-23 12:00,ZHHH 231200Z AUTO 29004KT 9SM 25/21 A2971 RMK SLP063 T02500209 52010 IEM_DS3505
ZHHH,2006-07-23 13:00,ZHHH 231300Z AUTO 34010KT 1 1/2SM 24/22 A2974 RMK T02400220 IEM_DS3505
ZHHH,2006-07-23 14:00,ZHHH 231400Z AUTO 35006KT 2SM 24/22 A2974 RMK T02400220 IEM_DS3505
ZHHH,2006-07-23 15:00,ZHHH 231500Z AUTO 32004KT 9SM 24/20 RMK SLP069 T02440203 52006 IEM_DS3505
ZHHH,2006-07-23 18:00,ZHHH 231800Z AUTO 27004KT 9SM 23/20 RMK SLP062 T02340198 57007 IEM_DS3505
ZHHH,2006-07-23 20:00,ZHHH 232000Z AUTO 35004KT 1 1/4SM 22/21 A2971 RMK T02200210 IEM_DS3505
ZHHH,2006-07-23 21:00,ZHHH 232100Z AUTO 27002KT 9SM 22/20 A2971 RMK SLP057 T02250200 57005 IEM_DS3505
ZHHH,2006-07-23 22:00,ZHHH 232200Z AUTO 03004KT 1 1/4SM 21/21 A2971 RMK T02100210 IEM_DS3505
ZHHH,2006-07-23 23:00,ZHHH 232300Z AUTO 1 1/4SM 22/22 A2971 RMK T02200220 IEM_DS3505
ZHHH,2006-07-24 00:00,ZHHH 240000Z AUTO 29004KT 9SM 24/20 A2971 RMK SLP062 T02380203 52005 IEM_DS3505
ZHHH,2006-07-24 01:00,ZHHH 240100Z AUTO 32006KT 1 1/2SM 25/23 A2971 RMK T02500230 IEM_DS3505
ZHHH,2006-07-24 02:00,ZHHH 240200Z AUTO 33004KT 2 1/2SM 26/23 A2971 RMK T02600230 IEM_DS3505
ZHHH,2006-07-24 03:00,ZHHH 240300Z AUTO 36002KT 12SM 28/20 A2971 RMK SLP058 T02810204 57004 IEM_DS3505
ZHHH,2006-07-24 04:00,ZHHH 240400Z AUTO 29008KT 3SM 29/24 A2968 RMK T02900240 IEM_DS3505
ZHHH,2006-07-24 05:00,ZHHH 240500Z AUTO 29004KT 4SM 30/24 A2968 RMK T03000240 IEM_DS3505
ZHHH,2006-07-24 06:00,ZHHH 240600Z AUTO 04004KT 12SM 30/21 A2968 RMK SLP052 T03050210 57006 IEM_DS3505
ZHHH,2006-07-24 07:00,ZHHH 240700Z AUTO 32006KT 4SM 30/24 A2968 RMK T03000240 IEM_DS3505
ZHHH,2006-07-24 08:00,ZHHH 240800Z AUTO 30006KT 7SM 31/23 A2965 RMK T03100230 IEM_DS3505
ZHHH,2006-07-24 09:00,ZHHH 240900Z AUTO 29004KT 11SM 30/21 A2965 RMK SLP040 T03030208 57012 IEM_DS3505
ZHHH,2006-07-24 10:00,ZHHH 241000Z AUTO 33006KT 6SM 29/25 A2965 RMK T02900250 IEM_DS3505
ZHHH,2006-07-24 11:00,ZHHH 241100Z AUTO 34006KT 6SM 27/24 A2965 RMK T02700240 IEM_DS3505
ZHHH,2006-07-24 12:00,ZHHH 241200Z AUTO 27004KT 9SM 28/22 A2965 RMK SLP041 T02750222 52001 IEM_DS3505
ZHHH,2006-07-24 13:00,ZHHH 241300Z AUTO 01004KT 4SM 26/24 A2968 RMK T02600240 IEM_DS3505
ZHHH,2006-07-24 14:00,ZHHH 241400Z AUTO 35006KT 3SM 26/24 A2971 RMK T02600240 IEM_DS3505
ZHHH,2006-07-24 15:00,ZHHH 241500Z AUTO 34006KT 9SM 26/22 A2971 RMK SLP059 T02650215 52018 IEM_DS3505
ZHHH,2006-07-24 16:00,ZHHH 241600Z AUTO 36004KT 3SM 25/23 A2971 RMK T02500230 IEM_DS3505
ZHHH,2006-07-24 17:00,ZHHH 241700Z AUTO 35004KT 3SM 25/23 A2968 RMK T02500230 IEM_DS3505
ZHHH,2006-07-24 18:00,ZHHH 241800Z AUTO 34004KT 7SM 26/22 A2968 RMK SLP050 T02580217 57009 IEM_DS3505
ZHHH,2006-07-24 19:00,ZHHH 241900Z AUTO 3SM 25/24 A2968 RMK T02500240 IEM_DS3505
ZHHH,2006-07-24 20:00,ZHHH 242000Z AUTO 03004KT 3SM 25/23 A2968 RMK T02500230 IEM_DS3505
ZHHH,2006-07-24 21:00,ZHHH 242100Z AUTO 02004KT 7SM 26/22 A2968 RMK 70000 SLP048 T02580215 57002 IEM_DS3505
ZHHH,2006-07-24 22:00,ZHHH 242200Z AUTO 05004KT 2 1/2SM 24/23 A2968 RMK T02400230 IEM_DS3505
ZHHH,2006-07-24 23:00,ZHHH 242300Z AUTO 00000KT 2 1/2SM 25/24 A2968 RMK T02500240 IEM_DS3505
ZHHH,2006-07-25 00:00,ZHHH 250000Z AUTO 02002KT 7SM 26/22 A2971 RMK 60000 70000 SLP058 T02620225 52010 IEM_DS3505
ZHHH,2006-07-25 01:00,ZHHH 250100Z AUTO 36004KT 1 1/2SM 25/24 A2971 RMK T02500240 IEM_DS3505
ZHHH,2006-07-25 02:00,ZHHH 250200Z AUTO 2 1/2SM 25/24 A2971 RMK T02500240 IEM_DS3505
ZHHH,2006-07-25 03:00,ZHHH 250300Z AUTO 34004KT 9SM 27/22 A2971 RMK SLP063 T02690223 52005 IEM_DS3505
ZHHH,2006-07-25 04:00,ZHHH 250400Z AUTO 02004KT 3SM 26/25 A2971 RMK T02600250 IEM_DS3505
ZHHH,2006-07-25 05:00,ZHHH 250500Z AUTO 36006KT 4SM 28/25 A2971 RMK T02800250 IEM_DS3505
ZHHH,2006-07-25 06:00,ZHHH 250600Z AUTO 04004KT 11SM 28/23 A2971 RMK 60000 SLP056 T02830232 57007 IEM_DS3505
ZHHH,2006-07-25 07:00,ZHHH 250700Z AUTO 09006KT 4SM 29/26 A2968 RMK T02900260 IEM_DS3505
ZHHH,2006-07-25 08:00,ZHHH 250800Z AUTO 07008KT 4SM 29/25 A2965 RMK T02900250 IEM_DS3505
ZHHH,2006-07-25 09:00,ZHHH 250900Z AUTO 07004KT 9SM 28/24 A2965 RMK SLP036 T02840235 57020 IEM_DS3505
ZHHH,2006-07-25 10:00,ZHHH 251000Z AUTO 10006KT 4SM 29/26 A2965 RMK T02900260 IEM_DS3505
ZHHH,2006-07-25 11:00,ZHHH 251100Z AUTO 02008KT 4SM 30/25 A2965 RMK T03000250 IEM_DS3505
ZHHH,2006-07-25 12:00,ZHHH 251200Z AUTO 04008KT 9SM 29/22 A2968 RMK 60000 SLP049 T02890219 52013 IEM_DS3505
ZHHH,2006-07-25 13:00,ZHHH 251300Z AUTO 03010KT 3SM 27/24 A2971 RMK T02700240 IEM_DS3505
ZHHH,2006-07-25 14:00,ZHHH 251400Z AUTO 04010KT 2 1/2SM 27/24 A2971 RMK T02700240 IEM_DS3505
ZHHH,2006-07-25 15:00,ZHHH 251500Z AUTO 04006KT 9SM 27/22 A2971 RMK SLP060 T02700224 52011 IEM_DS3505
ZHHH,2006-07-25 16:00,ZHHH 251600Z AUTO 04008KT 2 1/2SM 26/24 A2971 RMK T02600240 IEM_DS3505
ZHHH,2006-07-25 17:00,ZHHH 251700Z AUTO 04012KT 2 1/2SM 26/24 A2968 RMK T02600240 IEM_DS3505
ZHHH,2006-07-25 18:00,ZHHH 251800Z AUTO 02004KT 9SM 26/23 A2968 RMK SLP053 T02610226 57007 IEM_DS3505
ZHHH,2006-07-25 19:00,ZHHH 251900Z AUTO 03008KT 1 1/2SM 25/24 A2968 RMK T02500240 IEM_DS3505
ZHHH,2006-07-25 20:00,ZHHH 252000Z AUTO 03008KT 2SM 25/24 A2968 RMK T02500240 IEM_DS3505
ZHHH,2006-07-25 21:00,ZHHH 252100Z AUTO 36004KT 9SM 26/23 A2968 RMK 70000 SLP051 T02560227 57002 IEM_DS3505
ZHHH,2006-07-25 22:00,ZHHH 252200Z AUTO 02008KT 2SM 25/24 A2968 RMK T02500240 IEM_DS3505
ZHHH,2006-07-25 23:00,ZHHH 252300Z AUTO 02008KT 3SM 25/24 A2971 RMK T02500240 IEM_DS3505
ZHHH,2006-07-26 00:00,ZHHH 260000Z AUTO 02006KT 7SM 26/23 A2971 RMK 60002 70002 SLP059 T02600231 52008 IEM_DS3505
ZHHH,2006-07-26 01:00,ZHHH 260100Z AUTO 03012KT 3SM 27/25 A2971 RMK T02700250 IEM_DS3505
ZHHH,2006-07-26 02:00,ZHHH 260200Z AUTO 03014KT 3SM 28/25 A2971 RMK T02800250 IEM_DS3505
ZHHH,2006-07-26 03:00,ZHHH 260300Z AUTO 02006KT 9SM 29/23 A2971 RMK SLP055 T02930230 57004 IEM_DS3505
ZHHH,2006-07-26 04:00,ZHHH 260400Z AUTO 03014KT 7SM 30/25 A2968 RMK T03000250 IEM_DS3505
ZHHH,2006-07-26 05:00,ZHHH 260500Z AUTO 02016KT 7SM 29/25 A2968 RMK T02900250 IEM_DS3505
ZHHH,2006-07-26 06:00,ZHHH 260600Z AUTO 02008G25KT 12SM 30/23 A2965 RMK SLP041 T03030227 57014 IEM_DS3505
ZHHH,2006-07-26 07:00,ZHHH 260700Z AUTO 02016KT 7SM 30/25 A2965 RMK T03000250 IEM_DS3505
ZHHH,2006-07-26 08:00,ZHHH 260800Z AUTO 03014KT 7SM 29/25 A2962 RMK T02900250 IEM_DS3505
ZHHH,2006-07-26 09:00,ZHHH 260900Z AUTO 04006KT 12SM 30/23 A2962 RMK SLP024 T02960233 57017 IEM_DS3505
ZHHH,2006-07-26 10:00,ZHHH 261000Z AUTO 02016G25KT 7SM 28/25 A2959 RMK T02800250 IEM_DS3505
ZHHH,2006-07-26 11:00,ZHHH 261100Z AUTO 02012KT 7SM 27/25 A2962 RMK T02700250 IEM_DS3505
ZHHH,2006-07-26 12:00,ZHHH 261200Z AUTO 04006KT 11SM 28/23 A2962 RMK SLP030 T02770231 52006 IEM_DS3505
ZHHH,2006-07-26 13:00,ZHHH 261300Z AUTO 02010KT 7SM 27/25 A2962 RMK T02700250 IEM_DS3505
ZHHH,2006-07-26 14:00,ZHHH 261400Z AUTO 03010KT 6SM 27/25 A2962 RMK T02700250 IEM_DS3505
ZHHH,2006-07-26 15:00,ZHHH 261500Z AUTO 04006KT 9SM 27/23 A2965 RMK SLP035 T02740230 52006 IEM_DS3505
ZHHH,2006-07-26 16:00,ZHHH 261600Z AUTO 05010KT 6SM 27/25 A2965 RMK T02700250 IEM_DS3505
ZHHH,2006-07-26 17:00,ZHHH 261700Z AUTO 11006KT 7SM 26/25 A2962 RMK T02600250 IEM_DS3505
ZHHH,2006-07-26 18:00,ZHHH 261800Z AUTO 04004KT 12SM 26/24 A2962 RMK 60004 SLP028 T02590239 57007 IEM_DS3505
ZHHH,2006-07-26 19:00,ZHHH 261900Z AUTO 02004KT 3SM 25/25 A2962 RMK T02500250 IEM_DS3505
ZHHH,2006-07-26 20:00,ZHHH 262000Z AUTO 03006KT 4SM 25/25 A2959 RMK T02500250 IEM_DS3505
ZHHH,2006-07-26 21:00,ZHHH 262100Z AUTO 04006KT 12SM 26/24 A2959 RMK 70008 SLP021 T02590239 57008 IEM_DS3505
ZHHH,2006-07-26 22:00,ZHHH 262200Z AUTO 04006KT 3SM 25/25 A2959 RMK T02500250 IEM_DS3505
ZHHH,2006-07-26 23:00,ZHHH 262300Z AUTO 05006KT 4SM 25/25 A2962 RMK T02500250 IEM_DS3505
ZHHH,2006-07-27 00:00,ZHHH 270000Z AUTO 04004KT 11SM 26/24 A2962 RMK 70006 SLP028 T02630242 52007 IEM_DS3505
ZHHH,2006-07-27 01:00,ZHHH 270100Z AUTO 04006KT 7SM 26/26 A2962 RMK T02600260 IEM_DS3505
ZHHH,2006-07-27 02:00,ZHHH 270200Z AUTO 04010KT 7SM 27/26 A2962 RMK T02700260 IEM_DS3505
ZHHH,2006-07-27 03:00,ZHHH 270300Z AUTO 07006KT 12SM 28/24 A2962 RMK SLP029 T02840240 52001 IEM_DS3505
ZHHH,2006-07-27 05:00,ZHHH 270500Z AUTO 10010KT 4SM 26/25 A2962 RMK T02600250 IEM_DS3505
ZHHH,2006-07-27 06:00,ZHHH 270600Z AUTO 09004KT 7SM 28/23 A2962 RMK 60000 SLP023 T02790228 57006 IEM_DS3505
ZHHH,2006-07-27 07:00,ZHHH 270700Z AUTO 10008KT 5SM 26/25 A2959 RMK T02600250 IEM_DS3505
ZHHH,2006-07-27 08:00,ZHHH 270800Z AUTO 09006KT 5SM 26/25 A2959 RMK T02600250 IEM_DS3505
ZHHH,2006-07-27 09:00,ZHHH 270900Z AUTO 07004KT 7SM 27/23 A2959 RMK SLP018 T02720234 57005 IEM_DS3505
ZHHH,2006-07-27 10:00,ZHHH 271000Z AUTO 04006KT 5SM 26/25 A2959 RMK T02600250 IEM_DS3505
ZHHH,2006-07-27 11:00,ZHHH 271100Z AUTO 05008KT 2 1/2SM 25/25 A2959 RMK T02500250 IEM_DS3505
ZHHH,2006-07-27 12:00,ZHHH 271200Z AUTO 11004KT 6SM 26/24 A2959 RMK 60008 SLP023 T02590245 52005 IEM_DS3505
ZHHH,2006-07-27 13:00,ZHHH 271300Z AUTO 05006KT 2 1/2SM 25/25 A2962 RMK T02500250 IEM_DS3505
ZHHH,2006-07-27 14:00,ZHHH 271400Z AUTO 03004KT 2 1/2SM 25/25 A2962 RMK T02500250 IEM_DS3505
ZHHH,2006-07-27 15:00,ZHHH 271500Z AUTO 07006KT 6SM 26/24 A2962 RMK SLP025 T02560240 52002 IEM_DS3505
ZHHH,2006-07-27 16:00,ZHHH 271600Z AUTO 06010KT 3SM 25/25 A2959 RMK T02500250 IEM_DS3505
ZHHH,2006-07-27 17:00,ZHHH 271700Z AUTO 07010KT 3SM 25/25 A2959 RMK T02500250 IEM_DS3505
ZHHH,2006-07-27 18:00,ZHHH 271800Z AUTO 09002KT 11SM 26/24 A2959 RMK 60002 SLP016 T02560242 57009 IEM_DS3505
ZHHH,2006-07-27 19:00,ZHHH 271900Z AUTO 08008KT 3SM 25/25 A2959 RMK T02500250 IEM_DS3505
ZHHH,2006-07-27 20:00,ZHHH 272000Z AUTO 09008KT 3SM 25/25 A2959 RMK T02500250 IEM_DS3505
ZHHH,2006-07-27 21:00,ZHHH 272100Z AUTO 11002KT 9SM 26/25 A2959 RMK 70013 SLP016 T02640246 54000 IEM_DS3505
ZHHH,2006-07-27 22:00,ZHHH 272200Z AUTO 10008KT 3SM 25/25 A2959 RMK T02500250 IEM_DS3505
ZHHH,2006-07-27 23:00,ZHHH 272300Z AUTO 11006KT 2 1/2SM 26/26 A2959 RMK T02600260 IEM_DS3505
ZHHH,2006-07-28 00:00,ZHHH 280000Z AUTO 14004KT 9SM 28/24 A2962 RMK 70013 SLP028 T02770239 52012 IEM_DS3505
ZHHH,2006-07-28 01:00,ZHHH 280100Z AUTO 12008KT 4SM 28/27 A2962 RMK T02800270 IEM_DS3505
ZHHH,2006-07-28 02:00,ZHHH 280200Z AUTO 13008KT 4SM 29/26 A2962 RMK T02900260 IEM_DS3505
ZHHH,2006-07-28 03:00,ZHHH 280300Z AUTO 16004KT 14SM 30/23 A2965 RMK SLP034 T03030227 52006 IEM_DS3505
ZHHH,2006-07-28 04:00,ZHHH 280400Z AUTO 18006KT 7SM 31/25 A2965 RMK T03100250 IEM_DS3505
ZHHH,2006-07-28 05:00,ZHHH 280500Z AUTO 18004KT 7SM 31/26 A2965 RMK T03100260 IEM_DS3505
ZHHH,2006-07-28 06:00,ZHHH 280600Z AUTO 09004KT 14SM 32/22 A2962 RMK SLP031 T03250220 57002 IEM_DS3505
ZHHH,2006-07-28 07:00,ZHHH 280700Z AUTO 19004KT 7SM 33/26 A2962 RMK T03300260 IEM_DS3505
ZHHH,2006-07-28 08:00,ZHHH 280800Z AUTO 15004KT 7SM 32/26 A2962 RMK T03200260 IEM_DS3505
ZHHH,2006-07-28 09:00,ZHHH 280900Z AUTO 14004KT 11SM 34/21 A2959 RMK SLP021 T03430214 57010 IEM_DS3505
ZHHH,2006-07-28 10:00,ZHHH 281000Z AUTO 12008KT 7SM 32/27 A2962 RMK T03200270 IEM_DS3505
ZHHH,2006-07-28 11:00,ZHHH 281100Z AUTO 12008KT 7SM 31/26 A2962 RMK T03100260 IEM_DS3505
ZHHH,2006-07-28 12:00,ZHHH 281200Z AUTO 09002KT 11SM 31/24 A2965 RMK SLP036 T03140238 52015 IEM_DS3505
ZHHH,2006-07-28 13:00,ZHHH 281300Z AUTO 12008KT 6SM 29/26 A2965 RMK T02900260 IEM_DS3505
ZHHH,2006-07-28 14:00,ZHHH 281400Z AUTO 12008KT 6SM 29/26 A2968 RMK T02900260 IEM_DS3505
ZHHH,2006-07-28 15:00,ZHHH 281500Z AUTO 11006KT 11SM 30/23 A2968 RMK SLP050 T03050234 52014 IEM_DS3505
ZHHH,2006-07-28 16:00,ZHHH 281600Z AUTO 14008KT 6SM 29/26 A2968 RMK T02900260 IEM_DS3505
ZHHH,2006-07-28 17:00,ZHHH 281700Z AUTO 12008KT 6SM 28/26 A2968 RMK T02800260 IEM_DS3505
ZHHH,2006-07-28 18:00,ZHHH 281800Z AUTO 11004KT 9SM 30/23 A2968 RMK SLP046 T02960233 57004 IEM_DS3505
ZHHH,2006-07-28 19:00,ZHHH 281900Z AUTO 11006KT 6SM 27/26 A2968 RMK T02700260 IEM_DS3505
ZHHH,2006-07-28 20:00,ZHHH 282000Z AUTO 12006KT 6SM 27/26 A2968 RMK T02700260 IEM_DS3505
ZHHH,2006-07-28 21:00,ZHHH 282100Z AUTO 11002KT 9SM 28/23 A2971 RMK SLP054 T02820231 52008 IEM_DS3505
ZHHH,2006-07-28 22:00,ZHHH 282200Z AUTO 12006KT 6SM 26/26 A2971 RMK T02600260 IEM_DS3505
ZHHH,2006-07-28 23:00,ZHHH 282300Z AUTO 14006KT 6SM 28/26 A2974 RMK T02800260 IEM_DS3505
ZHHH,2006-07-29 00:00,ZHHH 290000Z AUTO 11002KT 16SM 30/22 A2977 RMK SLP075 T03020224 52021 IEM_DS3505
ZHHH,2006-07-29 01:00,ZHHH 290100Z AUTO 17010KT 6SM 32/25 A2977 RMK T03200250 IEM_DS3505
ZHHH,2006-07-29 02:00,ZHHH 290200Z AUTO 17008KT 7SM 31/25 A2980 RMK T03100250 IEM_DS3505
ZHHH,2006-07-29 03:00,ZHHH 290300Z AUTO 11004KT 16SM 33/22 A2980 RMK SLP084 T03320217 52009 IEM_DS3505
ZHHH,2006-07-29 04:00,ZHHH 290400Z AUTO 20006KT 7SM 33/25 A2980 RMK T03300250 IEM_DS3505
ZHHH,2006-07-29 05:00,ZHHH 290500Z AUTO 18008KT 7SM 34/26 A2977 RMK T03400260 IEM_DS3505
ZHHH,2006-07-29 06:00,ZHHH 290600Z AUTO 14002KT 16SM 35/21 A2977 RMK SLP079 T03530212 57005 IEM_DS3505
ZHHH,2006-07-29 07:00,ZHHH 290700Z AUTO 13010KT 7SM 34/25 A2977 RMK T03400250 IEM_DS3505
ZHHH,2006-07-29 08:00,ZHHH 290800Z AUTO 13008KT 7SM 34/26 A2974 RMK T03400260 IEM_DS3505
ZHHH,2006-07-29 09:00,ZHHH 290900Z AUTO 14004KT 16SM 34/22 A2974 RMK SLP067 T03430217 57012 IEM_DS3505
ZHHH,2006-07-29 10:00,ZHHH 291000Z AUTO 15004KT 7SM 33/26 A2974 RMK T03300260 IEM_DS3505
ZHHH,2006-07-29 11:00,ZHHH 291100Z AUTO 13006KT 7SM 32/26 A2974 RMK T03200260 IEM_DS3505
ZHHH,2006-07-29 12:00,ZHHH 291200Z AUTO 09004KT 12SM 32/23 A2977 RMK SLP075 T03240231 52008 IEM_DS3505
ZHHH,2006-07-29 13:00,ZHHH 291300Z AUTO 11006KT 6SM 30/27 A2980 RMK T03000270 IEM_DS3505
ZHHH,2006-07-29 14:00,ZHHH 291400Z AUTO 11006KT 6SM 29/27 A2980 RMK T02900270 IEM_DS3505
ZHHH,2006-07-29 15:00,ZHHH 291500Z AUTO 04002KT 12SM 31/23 A2980 RMK SLP090 T03100234 52015 IEM_DS3505
ZHHH,2006-07-29 16:00,ZHHH 291600Z AUTO 14004KT 6SM 29/27 A2980 RMK T02900270 IEM_DS3505
ZHHH,2006-07-29 17:00,ZHHH 291700Z AUTO 11004KT 6SM 28/27 A2980 RMK T02800270 IEM_DS3505
ZHHH,2006-07-29 18:00,ZHHH 291800Z AUTO 14002KT 11SM 30/23 A2980 RMK SLP091 T02980230 52001 IEM_DS3505
ZHHH,2006-07-29 19:00,ZHHH 291900Z AUTO 13004KT 6SM 28/26 A2980 RMK T02800260 IEM_DS3505
ZHHH,2006-07-29 20:00,ZHHH 292000Z AUTO 12004KT 6SM 28/26 A2980 RMK T02800260 IEM_DS3505
ZHHH,2006-07-29 21:00,ZHHH 292100Z AUTO 07002KT 11SM 29/23 A2980 RMK SLP094 T02920229 52003 IEM_DS3505
ZHHH,2006-07-29 22:00,ZHHH 292200Z AUTO 12002KT 6SM 28/26 A2983 RMK T02800260 IEM_DS3505
ZHHH,2006-07-29 23:00,ZHHH 292300Z AUTO 14004KT 6SM 28/26 A2983 RMK T02800260 IEM_DS3505
ZHHH,2006-07-30 00:00,ZHHH 300000Z AUTO 16002KT 12SM 29/23 A2985 RMK SLP105 T02920232 52011 IEM_DS3505
ZHHH,2006-07-30 01:00,ZHHH 300100Z AUTO 17006KT 6SM 30/27 A2985 RMK T03000270 IEM_DS3505
ZHHH,2006-07-30 02:00,ZHHH 300200Z AUTO 20008KT 6SM 33/25 A2985 RMK T03300250 IEM_DS3505
ZHHH,2006-07-30 03:00,ZHHH 300300Z AUTO 18004KT 14SM 34/22 A2983 RMK SLP102 T03410219 57003 IEM_DS3505
ZHHH,2006-07-30 04:00,ZHHH 300400Z AUTO 21012KT 6SM 35/25 A2983 RMK T03500250 IEM_DS3505
ZHHH,2006-07-30 05:00,ZHHH 300500Z AUTO 19012KT 6SM 35/24 A2980 RMK T03500240 IEM_DS3505
ZHHH,2006-07-30 06:00,ZHHH 300600Z AUTO 22004KT 14SM 36/21 A2980 RMK SLP090 T03550214 57012 IEM_DS3505
ZHHH,2006-07-30 08:00,ZHHH 300800Z AUTO 20012KT 6SM 35/24 A2980 RMK T03500240 IEM_DS3505
ZHHH,2006-07-30 09:00,ZHHH 300900Z AUTO 25004KT 12SM 35/22 A2977 RMK SLP078 T03460220 57012 IEM_DS3505
ZHHH,2006-07-30 10:00,ZHHH 301000Z AUTO 24006KT 6SM 35/26 A2977 RMK T03500260 IEM_DS3505
ZHHH,2006-07-30 11:00,ZHHH 301100Z AUTO 24004KT 6SM 33/26 A2977 RMK T03300260 IEM_DS3505
ZHHH,2006-07-30 12:00,ZHHH 301200Z AUTO 22004KT 11SM 33/23 A2977 RMK SLP081 T03280229 52003 IEM_DS3505
ZHHH,2006-07-30 13:00,ZHHH 301300Z AUTO 00000KT 6SM 31/27 A2980 RMK T03100270 IEM_DS3505
ZHHH,2006-07-30 14:00,ZHHH 301400Z AUTO 6SM 31/27 A2980 RMK T03100270 IEM_DS3505
ZHHH,2006-07-30 15:00,ZHHH 301500Z AUTO 18002KT 11SM 31/24 A2980 RMK SLP090 T03140238 52009 IEM_DS3505
ZHHH,2006-07-30 16:00,ZHHH 301600Z AUTO 11004KT 6SM 30/27 A2980 RMK T03000270 IEM_DS3505
ZHHH,2006-07-30 17:00,ZHHH 301700Z AUTO 12006KT 6SM 29/27 A2980 RMK T02900270 IEM_DS3505
ZHHH,2006-07-30 18:00,ZHHH 301800Z AUTO 14002KT 11SM 30/25 A2980 RMK SLP085 T03020246 57005 IEM_DS3505
ZHHH,2006-07-30 19:00,ZHHH 301900Z AUTO 17002KT 6SM 29/27 A2980 RMK T02900270 IEM_DS3505
ZHHH,2006-07-30 20:00,ZHHH 302000Z AUTO 16004KT 6SM 29/27 A2980 RMK T02900270 IEM_DS3505
ZHHH,2006-07-30 21:00,ZHHH 302100Z AUTO 11002KT 11SM 29/25 A2977 RMK SLP082 T02880246 57003 IEM_DS3505
ZHHH,2006-07-30 22:00,ZHHH 302200Z AUTO 16004KT 6SM 28/26 A2980 RMK T02800260 IEM_DS3505
ZHHH,2006-07-30 23:00,ZHHH 302300Z AUTO 17004KT 6SM 29/26 A2980 RMK T02900260 IEM_DS3505
ZHHH,2006-07-31 00:00,ZHHH 310000Z AUTO 14004KT 16SM 32/23 A2980 RMK SLP088 T03160229 52006 IEM_DS3505
ZHHH,2006-07-31 01:00,ZHHH 310100Z AUTO 19010KT 6SM 33/25 A2980 RMK T03300250 IEM_DS3505
ZHHH,2006-07-31 02:00,ZHHH 310200Z AUTO 21014KT 6SM 34/24 A2980 RMK T03400240 IEM_DS3505
ZHHH,2006-07-31 03:00,ZHHH 310300Z AUTO 25008KT 16SM 34/21 A2977 RMK SLP081 T03450208 57007 IEM_DS3505
ZHHH,2006-07-31 04:00,ZHHH 310400Z AUTO 23016KT 6SM 35/25 A2977 RMK T03500250 IEM_DS3505
ZHHH,2006-07-31 05:00,ZHHH 310500Z AUTO 22014KT 6SM 35/25 A2974 RMK T03500250 IEM_DS3505
ZHHH,2006-07-31 06:00,ZHHH 310600Z AUTO 22008KT 14SM 36/22 A2974 RMK SLP064 T03590217 57017 IEM_DS3505
ZHHH,2006-07-31 07:00,ZHHH 310700Z AUTO 23016KT 7SM 36/26 A2971 RMK T03600260 IEM_DS3505
ZHHH,2006-07-31 08:00,ZHHH 310800Z AUTO 22014KT 7SM 34/26 A2968 RMK T03400260 IEM_DS3505
ZHHH,2006-07-31 09:00,ZHHH 310900Z AUTO 22006KT 14SM 36/22 A2968 RMK SLP047 T03560218 57017 IEM_DS3505
ZHHH,2006-07-31 10:00,ZHHH 311000Z AUTO 22010KT 6SM 34/25 A2968 RMK T03400250 IEM_DS3505
ZHHH,2006-07-31 11:00,ZHHH 311100Z AUTO 22010KT 6SM 33/26 A2968 RMK T03300260 IEM_DS3505
ZHHH,2006-07-31 12:00,ZHHH 311200Z AUTO 18004KT 12SM 33/23 A2968 RMK SLP051 T03260233 52004 IEM_DS3505
ZHHH,2006-07-31 13:00,ZHHH 311300Z AUTO 18004KT 6SM 31/26 A2971 RMK T03100260 IEM_DS3505
ZHHH,2006-07-31 14:00,ZHHH 311400Z AUTO 21002KT 6SM 31/26 A2971 RMK T03100260 IEM_DS3505
ZHHH,2006-07-31 15:00,ZHHH 311500Z AUTO 20002KT 12SM 32/23 A2971 RMK SLP062 T03170233 52011 IEM_DS3505
ZHHH,2006-07-31 16:00,ZHHH 311600Z AUTO 00000KT 6SM 30/27 A2971 RMK T03000270 IEM_DS3505
ZHHH,2006-07-31 17:00,ZHHH 311700Z AUTO 33012G21KT 7SM 27/24 A2974 RMK T02700240 IEM_DS3505
ZHHH,2006-07-31 18:00,ZHHH 311800Z AUTO 34006KT 9SM 27/23 A2974 RMK 60000 SLP067 T02670228 52005 IEM_DS3505
ZHHH,2006-07-31 19:00,ZHHH 311900Z AUTO 34012KT 7SM 25/24 A2974 RMK T02500240 IEM_DS3505
ZHHH,2006-07-31 20:00,ZHHH 312000Z AUTO 06010KT 6SM 25/24 A2968 RMK T02500240 IEM_DS3505
ZHHH,2006-07-31 21:00,ZHHH 312100Z AUTO 04004KT 7SM 27/22 A2971 RMK 70000 SLP052 T02660220 57015 IEM_DS3505
ZHHH,2006-07-31 22:00,ZHHH 312200Z AUTO 35004KT 7SM 25/24 A2971 RMK T02500240 IEM_DS3505
ZHHH,2006-07-31 23:00,ZHHH 312300Z AUTO 31004G14KT 3SM 25/24 A2974 RMK T02500240 IEM_DS3505
ZHHH,2006-08-01 00:00,ZHHH 010000Z AUTO 09002KT 9SM 24/22 A2971 RMK 60012 70011 SLP063 T02390218 52010 IEM_DS3505
ZHHH,2006-08-01 01:00,ZHHH 010100Z AUTO 10006KT 7SM 24/24 A2971 RMK T02400240 IEM_DS3505
ZHHH,2006-08-01 02:00,ZHHH 010200Z AUTO 6SM 27/25 A2971 RMK T02700250 IEM_DS3505
ZHHH,2006-08-01 03:00,ZHHH 010300Z AUTO 32002KT 12SM 28/23 A2974 RMK SLP064 T02800232 52002 IEM_DS3505
ZHHH,2006-08-01 04:00,ZHHH 010400Z AUTO 32010G21KT 7SM 24/24 A2977 RMK T02400240 IEM_DS3505
ZHHH,2006-08-01 05:00,ZHHH 010500Z AUTO 32010KT 7SM 24/24 A2974 RMK T02400240 IEM_DS3505
ZHHH,2006-08-01 06:00,ZHHH 010600Z AUTO 04004KT 6SM 25/22 A2971 RMK 60016 SLP055 T02500225 57010 IEM_DS3505
ZHHH,2006-08-01 07:00,ZHHH 010700Z AUTO 16004KT 7SM 25/25 A2968 RMK T02500250 IEM_DS3505
ZHHH,2006-08-01 08:00,ZHHH 010800Z AUTO 04004KT 7SM 25/24 A2968 RMK T02500240 IEM_DS3505
ZHHH,2006-08-01 09:00,ZHHH 010900Z AUTO 02002KT 11SM 27/23 A2968 RMK SLP046 T02690229 57009 IEM_DS3505
ZHHH,2006-08-01 10:00,ZHHH 011000Z AUTO 7SM 26/25 A2965 RMK T02600250 IEM_DS3505
ZHHH,2006-08-01 11:00,ZHHH 011100Z AUTO 7SM 25/24 A2968 RMK T02500240 IEM_DS3505
ZHHH,2006-08-01 12:00,ZHHH 011200Z AUTO 09002KT 9SM 26/23 A2971 RMK 60000 SLP057 T02550228 52011 IEM_DS3505
ZHHH,2006-08-01 13:00,ZHHH 011300Z AUTO 10004KT 3SM 25/25 A2971 RMK T02500250 IEM_DS3505
ZHHH,2006-08-01 14:00,ZHHH 011400Z AUTO 15002KT 3SM 25/25 A2971 RMK T02500250 IEM_DS3505
ZHHH,2006-08-01 15:00,ZHHH 011500Z AUTO 03004KT 11SM 25/24 A2971 RMK SLP062 T02540236 52005 IEM_DS3505
ZHHH,2006-08-01 16:00,ZHHH 011600Z AUTO 07004KT 3SM 24/24 A2974 RMK T02400240 IEM_DS3505
ZHHH,2006-08-01 17:00,ZHHH 011700Z AUTO 3SM 24/24 A2971 RMK T02400240 IEM_DS3505
ZHHH,2006-08-01 18:00,ZHHH 011800Z AUTO 14002KT 7SM 25/24 A2971 RMK 60012 SLP060 T02510239 57002 IEM_DS3505
ZHHH,2006-08-01 19:00,ZHHH 011900Z AUTO 07004KT 2SM 24/24 A2971 RMK T02400240 IEM_DS3505
ZHHH,2006-08-01 20:00,ZHHH 012000Z AUTO 10004KT 2SM 23/23 A2971 RMK T02300230 IEM_DS3505
ZHHH,2006-08-01 21:00,ZHHH 012100Z AUTO 11004KT 7SM 25/23 A2971 RMK 70038 SLP059 T02500232 57001 IEM_DS3505
ZHHH,2006-08-01 22:00,ZHHH 012200Z AUTO 2 1/2SM 24/24 A2974 RMK T02400240 IEM_DS3505
ZHHH,2006-08-01 23:00,ZHHH 012300Z AUTO 04002KT 4SM 24/24 A2974 RMK T02400240 IEM_DS3505
ZHHH,2006-08-02 00:00,ZHHH 020000Z AUTO 04002KT 9SM 27/24 A2977 RMK 70028 SLP078 T02660241 52019 IEM_DS3505
ZHHH,2006-08-02 01:00,ZHHH 020100Z AUTO 4SM 27/26 A2977 RMK T02700260 IEM_DS3505
ZHHH,2006-08-02 02:00,ZHHH 020200Z AUTO 04006KT 3SM 28/27 A2974 RMK T02800270 IEM_DS3505
ZHHH,2006-08-02 03:00,ZHHH 020300Z AUTO 09002KT 7SM 30/25 A2974 RMK SLP072 T02960249 57006 IEM_DS3505
ZHHH,2006-08-02 04:00,ZHHH 020400Z AUTO 11006KT 3SM 29/26 A2974 RMK T02900260 IEM_DS3505
ZHHH,2006-08-02 05:00,ZHHH 020500Z AUTO 3SM 30/26 A2974 RMK T03000260 IEM_DS3505
ZHHH,2006-08-02 06:00,ZHHH 020600Z AUTO 36002KT 11SM 31/25 A2974 RMK SLP066 T03100246 57006 IEM_DS3505
ZHHH,2006-08-02 07:00,ZHHH 020700Z AUTO 36004KT 4SM 30/27 A2971 RMK T03000270 IEM_DS3505
ZHHH,2006-08-02 08:00,ZHHH 020800Z AUTO 02006KT 4SM 31/27 A2968 RMK T03100270 IEM_DS3505
ZHHH,2006-08-02 09:00,ZHHH 020900Z AUTO 36002KT 11SM 32/25 A2968 RMK SLP045 T03190248 57021 IEM_DS3505
ZHHH,2006-08-02 10:00,ZHHH 021000Z AUTO 02004KT 4SM 31/27 A2968 RMK T03100270 IEM_DS3505
ZHHH,2006-08-02 11:00,ZHHH 021100Z AUTO 01004KT 4SM 30/26 A2968 RMK T03000260 IEM_DS3505
ZHHH,2006-08-02 12:00,ZHHH 021200Z AUTO 29004KT 9SM 30/26 A2971 RMK SLP059 T02950255 52014 IEM_DS3505
ZHHH,2006-08-02 13:00,ZHHH 021300Z AUTO 02004KT 4SM 28/26 A2974 RMK T02800260 IEM_DS3505
ZHHH,2006-08-02 14:00,ZHHH 021400Z AUTO 03004KT 4SM 28/26 A2977 RMK T02800260 IEM_DS3505
ZHHH,2006-08-02 15:00,ZHHH 021500Z AUTO 02002KT 9SM 28/25 A2977 RMK SLP083 T02830247 52024 IEM_DS3505
ZHHH,2006-08-02 16:00,ZHHH 021600Z AUTO 04004KT 4SM 27/26 A2977 RMK T02700260 IEM_DS3505
ZHHH,2006-08-02 17:00,ZHHH 021700Z AUTO 04004KT 4SM 27/26 A2977 RMK T02700260 IEM_DS3505
ZHHH,2006-08-02 18:00,ZHHH 021800Z AUTO 04002KT 9SM 28/25 A2974 RMK SLP067 T02790249 57015 IEM_DS3505
ZHHH,2006-08-02 19:00,ZHHH 021900Z AUTO 04006KT 3SM 27/26 A2974 RMK T02700260 IEM_DS3505
ZHHH,2006-08-02 20:00,ZHHH 022000Z AUTO 25008KT 3SM 27/27 A2977 RMK T02700270 IEM_DS3505
ZHHH,2006-08-02 21:00,ZHHH 022100Z AUTO 20004KT 9SM 24/21 A2977 RMK 70000 SLP085 T02420213 52017 IEM_DS3505
ZHHH,2006-08-02 22:00,ZHHH 022200Z AUTO 33006KT 5SM 22/22 A2983 RMK T02200220 IEM_DS3505
ZHHH,2006-08-02 23:00,ZHHH 022300Z AUTO 34008KT 4SM 22/22 A2980 RMK T02200220 IEM_DS3505
ZHHH,2006-08-03 00:00,ZHHH 030000Z AUTO 34004KT 9SM 23/21 A2983 RMK 60067 70065 SLP103 T02300213 52018 IEM_DS3505
ZHHH,2006-08-03 01:00,ZHHH 030100Z AUTO 01006KT 5SM 23/23 A2985 RMK T02300230 IEM_DS3505
ZHHH,2006-08-03 02:00,ZHHH 030200Z AUTO 04008KT 7SM 24/23 A2985 RMK T02400230 IEM_DS3505
ZHHH,2006-08-03 03:00,ZHHH 030300Z AUTO 02004KT 11SM 27/21 A2985 RMK SLP110 T02670210 52007 IEM_DS3505
ZHHH,2006-08-03 04:00,ZHHH 030400Z AUTO 14008KT 7SM 27/24 A2983 RMK T02700240 IEM_DS3505
ZHHH,2006-08-03 06:00,ZHHH 030600Z AUTO 18002KT 11SM 31/24 A2980 RMK SLP089 T03060235 57021 IEM_DS3505
ZHHH,2006-08-03 07:00,ZHHH 030700Z AUTO 06008KT 6SM 30/26 A2980 RMK T03000260 IEM_DS3505
ZHHH,2006-08-03 09:00,ZHHH 030900Z AUTO 07004KT 11SM 31/23 A2980 RMK SLP084 T03060228 57005 IEM_DS3505
ZHHH,2006-08-03 10:00,ZHHH 031000Z AUTO 03006KT 6SM 30/25 A2977 RMK T03000250 IEM_DS3505
ZHHH,2006-08-03 11:00,ZHHH 031100Z AUTO 03004KT 6SM 29/25 A2980 RMK T02900250 IEM_DS3505
ZHHH,2006-08-03 12:00,ZHHH 031200Z AUTO 02002KT 9SM 28/22 A2980 RMK SLP090 T02850225 52006 IEM_DS3505
ZHHH,2006-08-03 13:00,ZHHH 031300Z AUTO 04006KT 6SM 27/25 A2983 RMK T02700250 IEM_DS3505
ZHHH,2006-08-03 14:00,ZHHH 031400Z AUTO 04004KT 6SM 26/25 A2983 RMK T02600250 IEM_DS3505
ZHHH,2006-08-03 15:00,ZHHH 031500Z AUTO 04002KT 9SM 27/23 A2980 RMK SLP093 T02730231 52003 IEM_DS3505
ZHHH,2006-08-03 16:00,ZHHH 031600Z AUTO 04004KT 6SM 25/25 A2980 RMK T02500250 IEM_DS3505
ZHHH,2006-08-03 17:00,ZHHH 031700Z AUTO 6SM 25/25 A2980 RMK T02500250 IEM_DS3505
ZHHH,2006-08-03 18:00,ZHHH 031800Z AUTO 07004KT 11SM 26/23 A2980 RMK SLP088 T02640233 57005 IEM_DS3505
ZHHH,2006-08-03 19:00,ZHHH 031900Z AUTO 04004KT 4SM 25/24 A2977 RMK T02500240 IEM_DS3505
ZHHH,2006-08-03 20:00,ZHHH 032000Z AUTO 06004KT 3SM 25/24 A2977 RMK T02500240 IEM_DS3505
ZHHH,2006-08-03 21:00,ZHHH 032100Z AUTO 02004KT 9SM 26/24 A2980 RMK 70065 SLP085 T02590236 57003 IEM_DS3505
ZHHH,2006-08-03 22:00,ZHHH 032200Z AUTO 36004KT 3SM 24/24 A2980 RMK T02400240 IEM_DS3505
ZHHH,2006-08-03 23:00,ZHHH 032300Z AUTO 6SM 25/25 A2983 RMK T02500250 IEM_DS3505
ZHHH,2006-08-04 00:00,ZHHH 040000Z AUTO 04002KT 12SM 28/23 A2983 RMK SLP101 T02780234 52016 IEM_DS3505
ZHHH,2006-08-04 01:00,ZHHH 040100Z AUTO 02004KT 6SM 29/26 A2983 RMK T02900260 IEM_DS3505
ZHHH,2006-08-04 02:00,ZHHH 040200Z AUTO 05008KT 6SM 30/26 A2983 RMK T03000260 IEM_DS3505
ZHHH,2006-08-04 03:00,ZHHH 040300Z AUTO 04004KT 16SM 31/23 A2983 RMK SLP103 T03130234 52002 IEM_DS3505
ZHHH,2006-08-04 04:00,ZHHH 040400Z AUTO 06006KT 7SM 32/27 A2983 RMK T03200270 IEM_DS3505
ZHHH,2006-08-04 05:00,ZHHH 040500Z AUTO 06006KT 7SM 33/27 A2980 RMK T03300270 IEM_DS3505
ZHHH,2006-08-04 06:00,ZHHH 040600Z AUTO 02006KT 11SM 34/24 A2980 RMK SLP083 T03350238 57019 IEM_DS3505
ZHHH,2006-08-04 07:00,ZHHH 040700Z AUTO 04006KT 7SM 33/27 A2977 RMK T03300270 IEM_DS3505
ZHHH,2006-08-04 08:00,ZHHH 040800Z AUTO 02006KT 7SM 34/27 A2977 RMK T03400270 IEM_DS3505
ZHHH,2006-08-04 09:00,ZHHH 040900Z AUTO 04004KT 11SM 33/24 A2974 RMK SLP066 T03310243 57017 IEM_DS3505
ZHHH,2006-08-04 10:00,ZHHH 041000Z AUTO 10023G37KT 1/8SM A2980 RMK IEM_DS3505
ZHHH,2006-08-04 11:00,ZHHH 041100Z AUTO 01002KT 7SM 24/24 A2980 RMK T02400240 IEM_DS3505
ZHHH,2006-08-04 12:00,ZHHH 041200Z AUTO 07002G14KT 6SM 26/23 A2983 RMK 60003 SLP094 T02630230 52027 IEM_DS3505
ZHHH,2006-08-04 13:00,ZHHH 041300Z AUTO 6SM 25/25 A2983 RMK T02500250 IEM_DS3505
ZHHH,2006-08-04 14:00,ZHHH 041400Z AUTO 30004KT 6SM 26/25 A2985 RMK T02600250 IEM_DS3505
ZHHH,2006-08-04 15:00,ZHHH 041500Z AUTO 34002KT 11SM 26/23 A2983 RMK SLP100 T02610232 52006 IEM_DS3505
ZHHH,2006-08-04 16:00,ZHHH 041600Z AUTO 03004KT 6SM 25/25 A2980 RMK T02500250 IEM_DS3505
ZHHH,2006-08-04 17:00,ZHHH 041700Z AUTO 01004KT 6SM 25/25 A2980 RMK T02500250 IEM_DS3505
ZHHH,2006-08-04 18:00,ZHHH 041800Z AUTO 02002KT 9SM 26/24 A2977 RMK 60000 SLP081 T02590238 57018 IEM_DS3505
ZHHH,2006-08-04 19:00,ZHHH 041900Z AUTO 01004KT 6SM 25/25 A2977 RMK T02500250 IEM_DS3505
ZHHH,2006-08-04 20:00,ZHHH 042000Z AUTO 36004KT 6SM 25/24 A2977 RMK T02500240 IEM_DS3505
ZHHH,2006-08-04 21:00,ZHHH 042100Z AUTO 36002KT 9SM 26/23 A2977 RMK 70003 SLP081 T02570228 57001 IEM_DS3505
ZHHH,2006-08-04 22:00,ZHHH 042200Z AUTO 04004KT 3SM 25/25 A2977 RMK T02500250 IEM_DS3505
ZHHH,2006-08-04 23:00,ZHHH 042300Z AUTO 09006KT 1 1/4SM 26/26 A2980 RMK T02600260 IEM_DS3505
ZHHH,2006-08-05 00:00,ZHHH 050000Z AUTO 09004KT 9SM 28/25 A2980 RMK 70003 SLP093 T02850247 52012 IEM_DS3505
ZHHH,2006-08-05 01:00,ZHHH 050100Z AUTO 08006KT 3SM 28/27 A2983 RMK T02800270 IEM_DS3505
ZHHH,2006-08-05 02:00,ZHHH 050200Z AUTO 11006KT 4SM 31/28 A2983 RMK T03100280 IEM_DS3505
ZHHH,2006-08-05 03:00,ZHHH 050300Z AUTO 09004KT 9SM 32/24 A2980 RMK SLP093 T03210242 54000 IEM_DS3505
ZHHH,2006-08-05 04:00,ZHHH 050400Z AUTO 12006KT 4SM 32/28 A2980 RMK T03200280 IEM_DS3505
ZHHH,2006-08-05 05:00,ZHHH 050500Z AUTO 4SM 33/26 A2977 RMK T03300260 IEM_DS3505
ZHHH,2006-08-05 06:00,ZHHH 050600Z AUTO 07004KT 9SM 33/24 A2974 RMK SLP069 T03310237 57023 IEM_DS3505
ZHHH,2006-08-05 07:00,ZHHH 050700Z AUTO 14008KT 7SM 26/25 A2974 RMK T02600250 IEM_DS3505
ZHHH,2006-08-05 08:00,ZHHH 050800Z AUTO 7SM 28/25 A2974 RMK T02800250 IEM_DS3505
ZHHH,2006-08-05 09:00,ZHHH 050900Z AUTO 14006G29KT 6SM 25/23 A2977 RMK SLP084 T02500232 52014 IEM_DS3505
ZHHH,2006-08-05 10:00,ZHHH 051000Z AUTO 18004KT 4SM 24/24 A2977 RMK T02400240 IEM_DS3505
ZHHH,2006-08-05 11:00,ZHHH 051100Z AUTO 07008KT 4SM 25/25 A2977 RMK T02500250 IEM_DS3505
ZHHH,2006-08-05 12:00,ZHHH 051200Z AUTO 10004KT 7SM 26/24 A2980 RMK 60146 SLP088 T02580240 52004 IEM_DS3505
ZHHH,2006-08-05 13:00,ZHHH 051300Z AUTO 18004KT 2 1/2SM 25/25 A2977 RMK T02500250 IEM_DS3505
ZHHH,2006-08-05 14:00,ZHHH 051400Z AUTO 09004KT 2SM 25/25 A2977 RMK T02500250 IEM_DS3505
ZHHH,2006-08-05 15:00,ZHHH 051500Z AUTO 09002KT 7SM 26/24 A2977 RMK SLP080 T02580242 57008 IEM_DS3505
ZHHH,2006-08-05 16:00,ZHHH 051600Z AUTO 08006KT 2SM 24/24 A2977 RMK T02400240 IEM_DS3505
ZHHH,2006-08-05 17:00,ZHHH 051700Z AUTO 07006KT 2 1/2SM 25/25 A2977 RMK T02500250 IEM_DS3505
ZHHH,2006-08-05 18:00,ZHHH 051800Z AUTO 34002KT 7SM 26/24 A2974 RMK 60004 SLP070 T02550243 57009 IEM_DS3505
ZHHH,2006-08-05 19:00,ZHHH 051900Z AUTO 05004KT 2SM 24/24 A2974 RMK T02400240 IEM_DS3505
ZHHH,2006-08-05 20:00,ZHHH 052000Z AUTO 03004KT 2SM 24/24 A2974 RMK T02400240 IEM_DS3505
ZHHH,2006-08-05 21:00,ZHHH 052100Z AUTO 04002KT 7SM 26/24 A2974 RMK 70149 SLP067 T02550239 57004 IEM_DS3505
ZHHH,2006-08-05 22:00,ZHHH 052200Z AUTO 10004KT 2SM 24/24 A2974 RMK T02400240 IEM_DS3505
ZHHH,2006-08-05 23:00,ZHHH 052300Z AUTO 11004KT 3SM 25/25 A2974 RMK T02500250 IEM_DS3505
ZHHH,2006-08-06 00:00,ZHHH 060000Z AUTO 10004KT 7SM 26/24 A2977 RMK 70149 SLP077 T02620244 52010 IEM_DS3505
ZHHH,2006-08-06 01:00,ZHHH 060100Z AUTO 12004KT 6SM 26/25 A2977 RMK T02600250 IEM_DS3505
ZHHH,2006-08-06 02:00,ZHHH 060200Z AUTO 7SM 27/26 A2977 RMK T02700260 IEM_DS3505
ZHHH,2006-08-06 03:00,ZHHH 060300Z AUTO 27004KT 9SM 30/24 A2977 RMK SLP079 T02960245 52002 IEM_DS3505
ZHHH,2006-08-06 04:00,ZHHH 060400Z AUTO 21004KT 2SM 30/27 A2977 RMK T03000270 IEM_DS3505
ZHHH,2006-08-06 05:00,ZHHH 060500Z AUTO 2 1/2SM 31/27 A2974 RMK T03100270 IEM_DS3505
ZHHH,2006-08-06 06:00,ZHHH 060600Z AUTO 27004KT 9SM 32/24 A2971 RMK SLP059 T03190237 57020 IEM_DS3505
ZHHH,2006-08-06 07:00,ZHHH 060700Z AUTO 28004KT 4SM 31/27 A2968 RMK T03100270 IEM_DS3505
ZHHH,2006-08-06 08:00,ZHHH 060800Z AUTO 6SM 32/26 A2965 RMK T03200260 IEM_DS3505
ZHHH,2006-08-06 09:00,ZHHH 060900Z AUTO 27004KT 9SM 32/24 A2968 RMK SLP043 T03190240 57015 IEM_DS3505
ZHHH,2006-08-06 10:00,ZHHH 061000Z AUTO 00000KT 6SM 31/26 A2968 RMK T03100260 IEM_DS3505
ZHHH,2006-08-06 11:00,ZHHH 061100Z AUTO 00000KT 6SM 30/26 A2968 RMK T03000260 IEM_DS3505
ZHHH,2006-08-06 12:00,ZHHH 061200Z AUTO 22002KT 9SM 30/25 A2968 RMK SLP051 T03010247 52007 IEM_DS3505
ZHHH,2006-08-06 13:00,ZHHH 061300Z AUTO 17004KT 6SM 29/27 A2971 RMK T02900270 IEM_DS3505
ZHHH,2006-08-06 14:00,ZHHH 061400Z AUTO 21004KT 6SM 29/27 A2971 RMK T02900270 IEM_DS3505
ZHHH,2006-08-06 15:00,ZHHH 061500Z AUTO 11004KT 9SM 29/24 A2971 RMK SLP059 T02860237 52009 IEM_DS3505
ZHHH,2006-08-06 16:00,ZHHH 061600Z AUTO 18006KT 6SM 28/26 A2971 RMK T02800260 IEM_DS3505
ZHHH,2006-08-06 17:00,ZHHH 061700Z AUTO 17004KT 6SM 27/26 A2968 RMK T02700260 IEM_DS3505
ZHHH,2006-08-06 18:00,ZHHH 061800Z AUTO 11002KT 9SM 28/24 A2968 RMK 60000 SLP047 T02750239 57012 IEM_DS3505
ZHHH,2006-08-06 19:00,ZHHH 061900Z AUTO 15004KT 6SM 26/26 A2965 RMK T02600260 IEM_DS3505
ZHHH,2006-08-06 20:00,ZHHH 062000Z AUTO 09004KT 3SM 26/26 A2965 RMK T02600260 IEM_DS3505
ZHHH,2006-08-06 21:00,ZHHH 062100Z AUTO 14002KT 9SM 27/25 A2965 RMK 70000 SLP044 T02710249 57003 IEM_DS3505
ZHHH,2006-08-06 22:00,ZHHH 062200Z AUTO 11006KT 3SM 25/25 A2968 RMK T02500250 IEM_DS3505
ZHHH,2006-08-06 23:00,ZHHH 062300Z AUTO 12006KT 5SM 26/26 A2968 RMK T02600260 IEM_DS3505
ZHHH,2006-08-07 00:00,ZHHH 070000Z AUTO 09002KT 7SM 28/25 A2971 RMK 60000 70000 SLP057 T02770251 52013 IEM_DS3505
ZHHH,2006-08-07 01:00,ZHHH 070100Z AUTO 12008KT 6SM 27/26 A2971 RMK T02700260 IEM_DS3505
ZHHH,2006-08-07 02:00,ZHHH 070200Z AUTO 12008KT 6SM 27/25 A2971 RMK T02700250 IEM_DS3505
ZHHH,2006-08-07 03:00,ZHHH 070300Z AUTO 09004KT 9SM 30/24 A2971 RMK SLP060 T02990243 52003 IEM_DS3505
ZHHH,2006-08-07 04:00,ZHHH 070400Z AUTO 13006KT 6SM 31/26 A2968 RMK T03100260 IEM_DS3505
ZHHH,2006-08-07 05:00,ZHHH 070500Z AUTO 12006KT 7SM 31/28 A2968 RMK T03100280 IEM_DS3505
ZHHH,2006-08-07 06:00,ZHHH 070600Z AUTO 11004KT 9SM 32/24 A2965 RMK 60000 SLP036 T03240236 57024 IEM_DS3505
ZHHH,2006-08-07 07:00,ZHHH 070700Z AUTO 7SM 32/27 A2962 RMK T03200270 IEM_DS3505
ZHHH,2006-08-07 08:00,ZHHH 070800Z AUTO 7SM 33/27 A2962 RMK T03300270 IEM_DS3505
ZHHH,2006-08-07 09:00,ZHHH 070900Z AUTO 27002KT 9SM 32/24 A2962 RMK SLP029 T03190240 57007 IEM_DS3505
ZHHH,2006-08-07 10:00,ZHHH 071000Z AUTO 25006KT 4SM 31/28 A2962 RMK T03100280 IEM_DS3505
ZHHH,2006-08-07 11:00,ZHHH 071100Z AUTO 22002KT 3SM 30/28 A2962 RMK T03000280 IEM_DS3505
ZHHH,2006-08-07 12:00,ZHHH 071200Z AUTO 34002KT 9SM 30/25 A2965 RMK SLP038 T02970252 52009 IEM_DS3505
ZHHH,2006-08-07 13:00,ZHHH 071300Z AUTO 05004KT 2 1/2SM 28/27 A2968 RMK T02800270 IEM_DS3505
ZHHH,2006-08-07 14:00,ZHHH 071400Z AUTO 08004KT 2SM 28/27 A2968 RMK T02800270 IEM_DS3505
ZHHH,2006-08-07 15:00,ZHHH 071500Z AUTO 02002KT 9SM 29/25 A2968 RMK SLP050 T02920250 52012 IEM_DS3505
ZHHH,2006-08-07 16:00,ZHHH 071600Z AUTO 10014KT 4SM 26/24 A2971 RMK T02600240 IEM_DS3505
ZHHH,2006-08-07 17:00,ZHHH 071700Z AUTO 18008KT 3SM 24/24 A2971 RMK T02400240 IEM_DS3505
ZHHH,2006-08-07 18:00,ZHHH 071800Z AUTO 04004KT 6SM 25/23 A2968 RMK 60016 SLP047 T02510233 57003 IEM_DS3505
ZHHH,2006-08-07 19:00,ZHHH 071900Z AUTO 07006KT 2 1/2SM 24/24 A2965 RMK T02400240 IEM_DS3505
ZHHH,2006-08-07 20:00,ZHHH 072000Z AUTO 04004KT 7SM 24/24 A2968 RMK T02400240 IEM_DS3505
ZHHH,2006-08-07 21:00,ZHHH 072100Z AUTO 07002KT 7SM 25/24 A2968 RMK 70017 SLP047 T02530237 54000 IEM_DS3505
ZHHH,2006-08-07 22:00,ZHHH 072200Z AUTO 10006KT 6SM 24/24 A2968 RMK T02400240 IEM_DS3505
ZHHH,2006-08-07 23:00,ZHHH 072300Z AUTO 10004KT 6SM 25/25 A2968 RMK T02500250 IEM_DS3505
ZHHH,2006-08-08 00:00,ZHHH 080000Z AUTO 04004KT 9SM 27/24 A2971 RMK 70017 SLP058 T02670236 52010 IEM_DS3505
ZHHH,2006-08-08 01:00,ZHHH 080100Z AUTO 12004KT 7SM 27/25 A2971 RMK T02700250 IEM_DS3505
ZHHH,2006-08-08 02:00,ZHHH 080200Z AUTO 14004KT 6SM 28/26 A2971 RMK T02800260 IEM_DS3505
ZHHH,2006-08-08 03:00,ZHHH 080300Z AUTO 22002KT 9SM 31/24 A2971 RMK SLP056 T03070244 57001 IEM_DS3505
ZHHH,2006-08-08 04:00,ZHHH 080400Z AUTO 4SM 30/27 A2971 RMK T03000270 IEM_DS3505
ZHHH,2006-08-08 05:00,ZHHH 080500Z AUTO 4SM 31/28 A2968 RMK T03100280 IEM_DS3505
ZHHH,2006-08-08 06:00,ZHHH 080600Z AUTO 14004KT 11SM 32/26 A2965 RMK SLP040 T03240257 57016 IEM_DS3505
ZHHH,2006-08-08 07:00,ZHHH 080700Z AUTO 04004KT 5SM 32/28 A2965 RMK T03200280 IEM_DS3505
ZHHH,2006-08-08 08:00,ZHHH 080800Z AUTO 00000KT 7SM 32/26 A2962 RMK T03200260 IEM_DS3505
ZHHH,2006-08-08 09:00,ZHHH 080900Z AUTO 02002KT 11SM 32/25 A2962 RMK SLP029 T03210252 57011 IEM_DS3505
ZHHH,2006-08-08 10:00,ZHHH 081000Z AUTO 7SM 31/28 A2962 RMK T03100280 IEM_DS3505
ZHHH,2006-08-08 11:00,ZHHH 081100Z AUTO 19002KT 7SM 30/27 A2965 RMK T03000270 IEM_DS3505
ZHHH,2006-08-08 12:00,ZHHH 081200Z AUTO 29002KT 9SM 27/25 A2968 RMK 60002 SLP051 T02730249 52021 IEM_DS3505
ZHHH,2006-08-08 13:00,ZHHH 081300Z AUTO 31004KT 6SM 28/27 A2968 RMK T02800270 IEM_DS3505
ZHHH,2006-08-08 14:00,ZHHH 081400Z AUTO 00000KT 6SM 28/26 A2971 RMK T02800260 IEM_DS3505
ZHHH,2006-08-08 15:00,ZHHH 081500Z AUTO 02002KT 9SM 28/25 A2971 RMK SLP055 T02750249 52005 IEM_DS3505
ZHHH,2006-08-08 16:00,ZHHH 081600Z AUTO 30004KT 6SM 28/27 A2968 RMK T02800270 IEM_DS3505
ZHHH,2006-08-08 17:00,ZHHH 081700Z AUTO 01002KT 6SM 27/27 A2968 RMK T02700270 IEM_DS3505
ZHHH,2006-08-08 18:00,ZHHH 081800Z AUTO 29002KT 9SM 27/25 A2968 RMK 60000 SLP048 T02720248 57007 IEM_DS3505
ZHHH,2006-08-08 19:00,ZHHH 081900Z AUTO 01004KT 6SM 27/26 A2968 RMK T02700260 IEM_DS3505
ZHHH,2006-08-08 20:00,ZHHH 082000Z AUTO 05004KT 6SM 26/26 A2968 RMK T02600260 IEM_DS3505
ZHHH,2006-08-08 21:00,ZHHH 082100Z AUTO 36002KT 9SM 27/25 A2968 RMK 70002 SLP046 T02710246 57002 IEM_DS3505
ZHHH,2006-08-08 22:00,ZHHH 082200Z AUTO 09008KT 4SM 26/26 A2968 RMK T02600260 IEM_DS3505
ZHHH,2006-08-08 23:00,ZHHH 082300Z AUTO 07006KT 4SM 26/26 A2968 RMK T02600260 IEM_DS3505
ZHHH,2006-08-09 00:00,ZHHH 090000Z AUTO 04004KT 9SM 29/26 A2971 RMK 70002 SLP057 T02900258 52010 IEM_DS3505
ZHHH,2006-08-09 01:00,ZHHH 090100Z AUTO 11006KT 4SM 29/27 A2971 RMK T02900270 IEM_DS3505
ZHHH,2006-08-09 02:00,ZHHH 090200Z AUTO 11004KT 4SM 31/28 A2971 RMK T03100280 IEM_DS3505
ZHHH,2006-08-09 03:00,ZHHH 090300Z AUTO 27002KT 9SM 31/26 A2971 RMK SLP057 T03090255 52001 IEM_DS3505
ZHHH,2006-08-09 04:00,ZHHH 090400Z AUTO 29004KT 4SM 32/26 A2968 RMK T03200260 IEM_DS3505
ZHHH,2006-08-09 05:00,ZHHH 090500Z AUTO 26004KT 4SM 33/27 A2968 RMK T03300270 IEM_DS3505
ZHHH,2006-08-09 06:00,ZHHH 090600Z AUTO 09002KT 7SM 33/24 A2965 RMK 60000 SLP045 T03280240 57012 IEM_DS3505
ZHHH,2006-08-09 07:00,ZHHH 090700Z AUTO 29004KT 5SM 34/27 A2965 RMK T03400270 IEM_DS3505
ZHHH,2006-08-09 08:00,ZHHH 090800Z AUTO 7SM 34/27 A2962 RMK T03400270 IEM_DS3505
ZHHH,2006-08-09 09:00,ZHHH 090900Z AUTO 34002KT 12SM 34/25 A2962 RMK SLP029 T03380249 57016 IEM_DS3505
ZHHH,2006-08-09 10:00,ZHHH 091000Z AUTO 34008KT 7SM 32/28 A2962 RMK T03200280 IEM_DS3505
ZHHH,2006-08-09 11:00,ZHHH 091100Z AUTO 03006KT 6SM 30/27 A2962 RMK T03000270 IEM_DS3505
ZHHH,2006-08-09 12:00,ZHHH 091200Z AUTO 04002KT 9SM 30/25 A2965 RMK 60016 SLP034 T03010247 52005 IEM_DS3505
ZHHH,2006-08-09 13:00,ZHHH 091300Z AUTO 04004KT 6SM 29/27 A2965 RMK T02900270 IEM_DS3505
ZHHH,2006-08-09 14:00,ZHHH 091400Z AUTO 04004KT 6SM 29/27 A2968 RMK T02900270 IEM_DS3505
ZHHH,2006-08-09 15:00,ZHHH 091500Z AUTO 34002KT 9SM 29/25 A2968 RMK SLP048 T02900254 52014 IEM_DS3505
ZHHH,2006-08-09 16:00,ZHHH 091600Z AUTO 04004KT 6SM 28/27 A2968 RMK T02800270 IEM_DS3505
ZHHH,2006-08-09 17:00,ZHHH 091700Z AUTO 03004KT 6SM 28/27 A2968 RMK T02800270 IEM_DS3505
ZHHH,2006-08-09 18:00,ZHHH 091800Z AUTO 02002KT 9SM 28/26 A2968 RMK SLP045 T02830257 57003 IEM_DS3505
ZHHH,2006-08-09 19:00,ZHHH 091900Z AUTO 05004KT 6SM 27/27 A2965 RMK T02700270 IEM_DS3505
ZHHH,2006-08-09 20:00,ZHHH 092000Z AUTO 06004KT 4SM 27/27 A2965 RMK T02700270 IEM_DS3505
ZHHH,2006-08-09 21:00,ZHHH 092100Z AUTO 02002KT 9SM 28/26 A2965 RMK 70017 SLP042 T02790255 57003 IEM_DS3505
ZHHH,2006-08-09 22:00,ZHHH 092200Z AUTO 04004KT 1 1/2SM 27/27 A2968 RMK T02700270 IEM_DS3505
ZHHH,2006-08-09 23:00,ZHHH 092300Z AUTO 09004KT 1 1/2SM 27/27 A2968 RMK T02700270 IEM_DS3505
ZHHH,2006-08-10 00:00,ZHHH 100000Z AUTO 04004KT 9SM 30/25 A2968 RMK 70017 SLP049 T02980253 52007 IEM_DS3505
ZHHH,2006-08-10 01:00,ZHHH 100100Z AUTO 10006KT 3SM 30/27 A2968 RMK T03000270 IEM_DS3505
ZHHH,2006-08-10 02:00,ZHHH 100200Z AUTO 13004KT 5SM 32/28 A2968 RMK T03200280 IEM_DS3505
ZHHH,2006-08-10 03:00,ZHHH 100300Z AUTO 04004KT 7SM 33/26 A2968 RMK SLP053 T03290262 52004 IEM_DS3505
ZHHH,2006-08-10 04:00,ZHHH 100400Z AUTO 4SM 33/28 A2968 RMK T03300280 IEM_DS3505
ZHHH,2006-08-10 05:00,ZHHH 100500Z AUTO 4SM 33/28 A2968 RMK T03300280 IEM_DS3505
ZHHH,2006-08-10 06:00,ZHHH 100600Z AUTO 02004KT 7SM 34/25 A2965 RMK SLP040 T03430248 57013 IEM_DS3505
ZHHH,2006-08-10 07:00,ZHHH 100700Z AUTO 34004KT 4SM 35/28 A2962 RMK T03500280 IEM_DS3505
ZHHH,2006-08-10 08:00,ZHHH 100800Z AUTO 34006KT 4SM 35/28 A2962 RMK T03500280 IEM_DS3505
ZHHH,2006-08-10 09:00,ZHHH 100900Z AUTO 34002KT 9SM 35/25 A2962 RMK SLP026 T03470246 57014 IEM_DS3505
ZHHH,2006-08-10 10:00,ZHHH 101000Z AUTO 36004KT 6SM 34/28 A2962 RMK T03400280 IEM_DS3505
ZHHH,2006-08-10 11:00,ZHHH 101100Z AUTO 01006KT 7SM 32/28 A2962 RMK T03200280 IEM_DS3505
ZHHH,2006-08-10 12:00,ZHHH 101200Z AUTO 34002KT 9SM 32/26 A2962 RMK SLP026 T03230264 54000 IEM_DS3505
ZHHH,2006-08-10 13:00,ZHHH 101300Z AUTO 03006KT 6SM 30/28 A2965 RMK T03000280 IEM_DS3505
ZHHH,2006-08-10 14:00,ZHHH 101400Z AUTO 04006KT 6SM 29/27 A2965 RMK T02900270 IEM_DS3505
ZHHH,2006-08-10 15:00,ZHHH 101500Z AUTO 07002KT 11SM 30/25 A2965 RMK SLP035 T03020253 52009 IEM_DS3505
ZHHH,2006-08-10 16:00,ZHHH 101600Z AUTO 06008KT 6SM 28/27 A2965 RMK T02800270 IEM_DS3505
ZHHH,2006-08-10 17:00,ZHHH 101700Z AUTO 05008KT 3SM 28/27 A2962 RMK T02800270 IEM_DS3505
ZHHH,2006-08-10 18:00,ZHHH 101800Z AUTO 07004KT 9SM 29/25 A2962 RMK SLP028 T02880250 57007 IEM_DS3505
ZHHH,2006-08-10 19:00,ZHHH 101900Z AUTO 06004KT 3SM 27/26 A2962 RMK T02700260 IEM_DS3505
ZHHH,2006-08-10 20:00,ZHHH 102000Z AUTO 01004KT 3SM 27/26 A2962 RMK T02700260 IEM_DS3505
ZHHH,2006-08-10 21:00,ZHHH 102100Z AUTO 02002KT 9SM 28/25 A2962 RMK SLP026 T02780248 57002 IEM_DS3505
ZHHH,2006-08-10 22:00,ZHHH 102200Z AUTO 36004KT 1 1/4SM 26/26 A2962 RMK T02600260 IEM_DS3505
ZHHH,2006-08-10 23:00,ZHHH 102300Z AUTO 01004KT 2 1/2SM 27/26 A2962 RMK T02700260 IEM_DS3505
ZHHH,2006-08-11 00:00,ZHHH 110000Z AUTO 34004KT 11SM 29/25 A2965 RMK SLP035 T02930246 52009 IEM_DS3505
ZHHH,2006-08-11 01:00,ZHHH 110100Z AUTO 33004KT 4SM 31/28 A2962 RMK T03100280 IEM_DS3505
ZHHH,2006-08-11 02:00,ZHHH 110200Z AUTO 4SM 32/28 A2962 RMK T03200280 IEM_DS3505
ZHHH,2006-08-11 03:00,ZHHH 110300Z AUTO 27006KT 11SM 33/25 A2962 RMK SLP025 T03290249 57010 IEM_DS3505
ZHHH,2006-08-11 04:00,ZHHH 110400Z AUTO 33006KT 7SM 34/29 A2959 RMK T03400290 IEM_DS3505
ZHHH,2006-08-11 05:00,ZHHH 110500Z AUTO 32004KT 7SM 34/28 A2959 RMK T03400280 IEM_DS3505
ZHHH,2006-08-11 06:00,ZHHH 110600Z AUTO 29004KT 9SM 35/26 A2959 RMK SLP016 T03490263 57009 IEM_DS3505
ZHHH,2006-08-11 07:00,ZHHH 110700Z AUTO 01006KT 7SM 34/28 A2956 RMK T03400280 IEM_DS3505
ZHHH,2006-08-11 08:00,ZHHH 110800Z AUTO 02010KT 7SM 34/28 A2956 RMK T03400280 IEM_DS3505
ZHHH,2006-08-11 09:00,ZHHH 110900Z AUTO 36004KT 7SM 35/25 A2953 RMK SLP000 T03460251 57016 IEM_DS3505
ZHHH,2006-08-11 10:00,ZHHH 111000Z AUTO 01010KT 6SM 33/27 A2953 RMK T03300270 IEM_DS3505
ZHHH,2006-08-11 11:00,ZHHH 111100Z AUTO 02008KT 6SM 32/28 A2953 RMK T03200280 IEM_DS3505
ZHHH,2006-08-11 12:00,ZHHH 111200Z AUTO 09004KT 6SM 30/26 A2959 RMK 60000 SLP015 T03010265 52015 IEM_DS3505
ZHHH,2006-08-11 13:00,ZHHH 111300Z AUTO 13006KT 7SM 29/27 A2959 RMK T02900270 IEM_DS3505
ZHHH,2006-08-11 14:00,ZHHH 111400Z AUTO 10006KT 4SM 28/27 A2959 RMK T02800270 IEM_DS3505
ZHHH,2006-08-11 15:00,ZHHH 111500Z AUTO 09002KT 7SM 29/25 A2959 RMK SLP019 T02880246 52004 IEM_DS3505
ZHHH,2006-08-11 16:00,ZHHH 111600Z AUTO 02004KT 7SM 27/26 A2959 RMK T02700260 IEM_DS3505
ZHHH,2006-08-11 17:00,ZHHH 111700Z AUTO 02004KT 7SM 27/27 A2959 RMK T02700270 IEM_DS3505
ZHHH,2006-08-11 18:00,ZHHH 111800Z AUTO 04004KT 6SM 28/25 A2959 RMK 60016 SLP014 T02780248 57005 IEM_DS3505
ZHHH,2006-08-11 19:00,ZHHH 111900Z AUTO 09008KT 7SM 26/26 A2959 RMK T02600260 IEM_DS3505
ZHHH,2006-08-11 20:00,ZHHH 112000Z AUTO 09008KT 7SM 27/26 A2959 RMK T02700260 IEM_DS3505
ZHHH,2006-08-11 21:00,ZHHH 112100Z AUTO 07004KT 9SM 28/24 A2959 RMK 70016 SLP017 T02770245 52003 IEM_DS3505
ZHHH,2006-08-11 22:00,ZHHH 112200Z AUTO 10008KT 7SM 26/26 A2962 RMK T02600260 IEM_DS3505
ZHHH,2006-08-11 23:00,ZHHH 112300Z AUTO 10008KT 7SM 26/25 A2962 RMK T02600250 IEM_DS3505
ZHHH,2006-08-12 00:00,ZHHH 120000Z AUTO 07004KT 7SM 26/25 A2965 RMK 60028 70042 SLP032 T02600250 52014 IEM_DS3505
ZHHH,2006-08-12 01:00,ZHHH 120100Z AUTO 08008KT 1 1/4SM 25/25 A2965 RMK T02500250 IEM_DS3505
ZHHH,2006-08-12 02:00,ZHHH 120200Z AUTO 09008KT 1 1/4SM 25/25 A2965 RMK T02500250 IEM_DS3505
ZHHH,2006-08-12 03:00,ZHHH 120300Z AUTO 20002KT 7SM 28/25 A2965 RMK SLP036 T02750248 52004 IEM_DS3505
ZHHH,2006-08-12 04:00,ZHHH 120400Z AUTO 15010KT 2SM 26/26 A2965 RMK T02600260 IEM_DS3505
ZHHH,2006-08-12 05:00,ZHHH 120500Z AUTO 17008KT 7SM 28/26 A2962 RMK T02800260 IEM_DS3505
ZHHH,2006-08-12 06:00,ZHHH 120600Z AUTO 14004KT 9SM 28/24 A2962 RMK 60008 SLP030 T02830243 57006 IEM_DS3505
ZHHH,2006-08-12 07:00,ZHHH 120700Z AUTO 18010KT 7SM 29/26 A2962 RMK T02900260 IEM_DS3505
ZHHH,2006-08-12 08:00,ZHHH 120800Z AUTO 17008KT 7SM 27/26 A2962 RMK T02700260 IEM_DS3505
ZHHH,2006-08-12 09:00,ZHHH 120900Z AUTO 20004KT 7SM 28/25 A2962 RMK SLP027 T02760250 57003 IEM_DS3505
ZHHH,2006-08-12 10:00,ZHHH 121000Z AUTO 19010KT 4SM 27/26 A2962 RMK T02700260 IEM_DS3505
ZHHH,2006-08-12 11:00,ZHHH 121100Z AUTO 20008KT 3SM 27/26 A2962 RMK T02700260 IEM_DS3505
ZHHH,2006-08-12 12:00,ZHHH 121200Z AUTO 09002KT 9SM 28/25 A2962 RMK 60000 SLP033 T02820250 52006 IEM_DS3505
ZHHH,2006-08-12 13:00,ZHHH 121300Z AUTO 15004KT 3SM 27/26 A2965 RMK T02700260 IEM_DS3505
ZHHH,2006-08-12 14:00,ZHHH 121400Z AUTO 18006KT 3SM 27/26 A2968 RMK T02700260 IEM_DS3505
ZHHH,2006-08-12 15:00,ZHHH 121500Z AUTO 16002KT 9SM 28/25 A2968 RMK SLP044 T02790247 52011 IEM_DS3505
ZHHH,2006-08-12 16:00,ZHHH 121600Z AUTO 18004KT 2SM 27/26 A2965 RMK T02700260 IEM_DS3505
ZHHH,2006-08-12 17:00,ZHHH 121700Z AUTO 19004KT 2SM 27/26 A2965 RMK T02700260 IEM_DS3505
ZHHH,2006-08-12 18:00,ZHHH 121800Z AUTO 18002KT 9SM 28/25 A2968 RMK SLP046 T02780252 52002 IEM_DS3505
ZHHH,2006-08-12 19:00,ZHHH 121900Z AUTO 18004KT 1 1/4SM 27/27 A2968 RMK T02700270 IEM_DS3505
ZHHH,2006-08-12 20:00,ZHHH 122000Z AUTO 17004KT 1 1/4SM 27/27 A2965 RMK T02700270 IEM_DS3505
ZHHH,2006-08-12 21:00,ZHHH 122100Z AUTO 11002KT 7SM 27/25 A2965 RMK 70036 SLP044 T02720254 57002 IEM_DS3505
ZHHH,2006-08-12 22:00,ZHHH 122200Z AUTO 16004KT 1SM 27/27 A2965 RMK T02700270 IEM_DS3505
ZHHH,2006-08-12 23:00,ZHHH 122300Z AUTO 14004KT 1SM 27/27 A2968 RMK T02700270 IEM_DS3505
ZHHH,2006-08-13 00:00,ZHHH 130000Z AUTO 11002KT 9SM 29/25 A2968 RMK 70010 SLP051 T02910247 52007 IEM_DS3505
ZHHH,2006-08-13 01:00,ZHHH 130100Z AUTO 14004KT 1 1/2SM 30/27 A2968 RMK T03000270 IEM_DS3505
ZHHH,2006-08-13 02:00,ZHHH 130200Z AUTO 18004KT 2SM 31/27 A2968 RMK T03100270 IEM_DS3505
ZHHH,2006-08-13 03:00,ZHHH 130300Z AUTO 27004KT 11SM 33/24 A2968 RMK SLP049 T03290235 57001 IEM_DS3505
ZHHH,2006-08-13 04:00,ZHHH 130400Z AUTO 3SM 33/26 A2968 RMK T03300260 IEM_DS3505
ZHHH,2006-08-13 05:00,ZHHH 130500Z AUTO 23004KT 3SM 34/28 A2965 RMK T03400280 IEM_DS3505
ZHHH,2006-08-13 06:00,ZHHH 130600Z AUTO 14002KT 11SM 35/26 A2962 RMK SLP030 T03470255 57019 IEM_DS3505
ZHHH,2006-08-13 07:00,ZHHH 130700Z AUTO 23006KT 3SM 35/28 A2962 RMK T03500280 IEM_DS3505
ZHHH,2006-08-13 08:00,ZHHH 130800Z AUTO 23006KT 3SM 34/29 A2962 RMK T03400290 IEM_DS3505
ZHHH,2006-08-13 09:00,ZHHH 130900Z AUTO 25004KT 11SM 35/26 A2959 RMK SLP019 T03510256 57011 IEM_DS3505
ZHHH,2006-08-13 10:00,ZHHH 131000Z AUTO 22004KT 3SM 33/29 A2959 RMK T03300290 IEM_DS3505
ZHHH,2006-08-13 11:00,ZHHH 131100Z AUTO 2 1/2SM 33/29 A2959 RMK T03300290 IEM_DS3505
ZHHH,2006-08-13 12:00,ZHHH 131200Z AUTO 11002KT 9SM 33/26 A2959 RMK SLP022 T03310259 52003 IEM_DS3505
ZHHH,2006-08-13 13:00,ZHHH 131300Z AUTO 19004KT 2 1/2SM 32/28 A2962 RMK T03200280 IEM_DS3505
ZHHH,2006-08-13 14:00,ZHHH 131400Z AUTO 14004KT 2SM 31/29 A2962 RMK T03100290 IEM_DS3505
ZHHH,2006-08-13 15:00,ZHHH 131500Z AUTO 09002KT 9SM 32/27 A2962 RMK SLP028 T03180266 52006 IEM_DS3505
ZHHH,2006-08-13 16:00,ZHHH 131600Z AUTO 10004KT 2SM 30/28 A2962 RMK T03000280 IEM_DS3505
ZHHH,2006-08-13 17:00,ZHHH 131700Z AUTO 10002KT 1 1/4SM 30/28 A2962 RMK T03000280 IEM_DS3505
ZHHH,2006-08-13 18:00,ZHHH 131800Z AUTO 14002KT 9SM 30/26 A2962 RMK SLP024 T03020264 57004 IEM_DS3505
ZHHH,2006-08-13 19:00,ZHHH 131900Z AUTO 06006KT 1SM 29/28 A2962 RMK T02900280 IEM_DS3505
ZHHH,2006-08-13 20:00,ZHHH 132000Z AUTO 09006KT 1SM 29/28 A2962 RMK T02900280 IEM_DS3505
ZHHH,2006-08-13 21:00,ZHHH 132100Z AUTO 09002KT 7SM 30/27 A2962 RMK SLP028 T02950273 52004 IEM_DS3505
ZHHH,2006-08-13 22:00,ZHHH 132200Z AUTO 10006KT 1SM 28/28 A2962 RMK T02800280 IEM_DS3505
ZHHH,2006-08-13 23:00,ZHHH 132300Z AUTO 10006KT 1SM 28/28 A2965 RMK T02800280 IEM_DS3505
ZHHH,2006-08-14 00:00,ZHHH 140000Z AUTO 11002KT 9SM 32/27 A2965 RMK SLP033 T03180268 52005 IEM_DS3505
ZHHH,2006-08-14 01:00,ZHHH 140100Z AUTO 14008KT 1 1/4SM 32/29 A2962 RMK T03200290 IEM_DS3505
ZHHH,2006-08-14 02:00,ZHHH 140200Z AUTO 14006KT 1 1/2SM 33/29 A2962 RMK T03300290 IEM_DS3505
ZHHH,2006-08-14 03:00,ZHHH 140300Z AUTO 14006KT 9SM 35/26 A2962 RMK SLP027 T03480259 57006 IEM_DS3505
ZHHH,2006-08-14 04:00,ZHHH 140400Z AUTO 19008KT 3SM 36/28 A2959 RMK T03600280 IEM_DS3505
ZHHH,2006-08-14 05:00,ZHHH 140500Z AUTO 21008KT 7SM 36/27 A2959 RMK T03600270 IEM_DS3505
ZHHH,2006-08-14 06:00,ZHHH 140600Z AUTO 18004KT 9SM 37/25 A2956 RMK SLP008 T03680247 57019 IEM_DS3505
ZHHH,2006-08-14 07:00,ZHHH 140700Z AUTO 22006KT 6SM 37/29 A2956 RMK T03700290 IEM_DS3505
ZHHH,2006-08-14 08:00,ZHHH 140800Z AUTO 23006KT 7SM 37/28 A2953 RMK T03700280 IEM_DS3505
ZHHH,2006-08-14 09:00,ZHHH 140900Z AUTO 25004KT 9SM 37/24 A2953 RMK SLP995 T03720243 57013 IEM_DS3505
ZHHH,2006-08-14 10:00,ZHHH 141000Z AUTO 26004KT 6SM 35/28 A2953 RMK T03500280 IEM_DS3505
ZHHH,2006-08-14 11:00,ZHHH 141100Z AUTO 31002KT 4SM 34/29 A2953 RMK T03400290 IEM_DS3505
ZHHH,2006-08-14 12:00,ZHHH 141200Z AUTO 25002KT 9SM 34/25 A2956 RMK SLP007 T03430246 52012 IEM_DS3505
ZHHH,2006-08-14 13:00,ZHHH 141300Z AUTO 01002KT 6SM 33/29 A2959 RMK T03300290 IEM_DS3505
ZHHH,2006-08-14 14:00,ZHHH 141400Z AUTO 6SM 32/29 A2959 RMK T03200290 IEM_DS3505
ZHHH,2006-08-14 15:00,ZHHH 141500Z AUTO 06002KT 9SM 32/26 A2959 RMK SLP017 T03250261 52010 IEM_DS3505
ZHHH,2006-08-14 16:00,ZHHH 141600Z AUTO 08004KT 6SM 31/29 A2959 RMK T03100290 IEM_DS3505
ZHHH,2006-08-14 17:00,ZHHH 141700Z AUTO 08006KT 6SM 30/29 A2959 RMK T03000290 IEM_DS3505
ZHHH,2006-08-14 18:00,ZHHH 141800Z AUTO 07002KT 9SM 32/27 A2956 RMK SLP009 T03180268 57008 IEM_DS3505
ZHHH,2006-08-14 19:00,ZHHH 141900Z AUTO 10002KT 2SM 30/29 A2956 RMK T03000290 IEM_DS3505
ZHHH,2006-08-14 20:00,ZHHH 142000Z AUTO 1 1/4SM 30/29 A2956 RMK T03000290 IEM_DS3505
ZHHH,2006-08-14 21:00,ZHHH 142100Z AUTO 07002KT 9SM 31/27 A2956 RMK SLP010 T03120267 52001 IEM_DS3505
ZHHH,2006-08-14 22:00,ZHHH 142200Z AUTO 07006KT 1SM 29/28 A2956 RMK T02900280 IEM_DS3505
ZHHH,2006-08-14 23:00,ZHHH 142300Z AUTO 10006KT 1SM 29/29 A2959 RMK T02900290 IEM_DS3505
ZHHH,2006-08-15 00:00,ZHHH 150000Z AUTO 18002KT 9SM 32/28 A2959 RMK SLP021 T03240276 52011 IEM_DS3505
ZHHH,2006-08-15 01:00,ZHHH 150100Z AUTO 11006KT 1 1/4SM 32/30 A2959 RMK T03200300 IEM_DS3505
ZHHH,2006-08-15 02:00,ZHHH 150200Z AUTO 12004KT 1 1/4SM 33/30 A2962 RMK T03300300 IEM_DS3505
ZHHH,2006-08-15 03:00,ZHHH 150300Z AUTO 20004KT 9SM 35/26 A2962 RMK SLP022 T03540262 52001 IEM_DS3505
ZHHH,2006-08-15 04:00,ZHHH 150400Z AUTO 1 1/2SM 35/30 A2959 RMK T03500300 IEM_DS3505
ZHHH,2006-08-15 05:00,ZHHH 150500Z AUTO 4SM 35/29 A2959 RMK T03500290 IEM_DS3505
ZHHH,2006-08-15 06:00,ZHHH 150600Z AUTO 22002KT 9SM 37/26 A2956 RMK SLP008 T03660255 57014 IEM_DS3505
ZHHH,2006-08-15 07:00,ZHHH 150700Z AUTO 32004KT 4SM 36/29 A2953 RMK T03600290 IEM_DS3505
ZHHH,2006-08-15 08:00,ZHHH 150800Z AUTO 18006KT 2 1/2SM 34/30 A2953 RMK T03400300 IEM_DS3505
ZHHH,2006-08-15 09:00,ZHHH 150900Z AUTO 02002KT 7SM 36/27 A2953 RMK SLP002 T03580268 57006 IEM_DS3505
ZHHH,2006-08-15 10:00,ZHHH 151000Z AUTO 33006KT 4SM 30/27 A2956 RMK T03000270 IEM_DS3505
ZHHH,2006-08-15 11:00,ZHHH 151100Z AUTO 36004KT 7SM 29/26 A2956 RMK T02900260 IEM_DS3505
ZHHH,2006-08-15 12:00,ZHHH 151200Z AUTO 27004KT 11SM 30/26 A2962 RMK 60016 SLP023 T02970259 52021 IEM_DS3505
ZHHH,2006-08-15 13:00,ZHHH 151300Z AUTO 33006KT 7SM 29/26 A2962 RMK T02900260 IEM_DS3505
ZHHH,2006-08-15 14:00,ZHHH 151400Z AUTO 04014KT 2 1/2SM 26/26 A2959 RMK T02600260 IEM_DS3505
ZHHH,2006-08-15 15:00,ZHHH 151500Z AUTO 36002KT 11SM 28/24 A2959 RMK SLP022 T02820244 57001 IEM_DS3505
ZHHH,2006-08-15 16:00,ZHHH 151600Z AUTO 07004KT 7SM 27/26 A2962 RMK T02700260 IEM_DS3505
ZHHH,2006-08-15 17:00,ZHHH 151700Z AUTO 08006KT 6SM 27/26 A2962 RMK T02700260 IEM_DS3505
ZHHH,2006-08-15 18:00,ZHHH 151800Z AUTO 04002KT 9SM 28/25 A2962 RMK SLP024 T02850249 52002 IEM_DS3505
ZHHH,2006-08-15 19:00,ZHHH 151900Z AUTO 06008KT 6SM 25/25 A2959 RMK T02500250 IEM_DS3505
ZHHH,2006-08-15 20:00,ZHHH 152000Z AUTO 6SM 25/25 A2959 RMK T02500250 IEM_DS3505
ZHHH,2006-08-15 21:00,ZHHH 152100Z AUTO 34002KT 9SM 28/24 A2962 RMK 70015 SLP025 T02770241 52001 IEM_DS3505
ZHHH,2006-08-15 22:00,ZHHH 152200Z AUTO 06004KT 6SM 26/25 A2962 RMK T02600250 IEM_DS3505
ZHHH,2006-08-15 23:00,ZHHH 152300Z AUTO 36004KT 6SM 26/26 A2965 RMK T02600260 IEM_DS3505
ZHHH,2006-08-16 00:00,ZHHH 160000Z AUTO 29004KT 9SM 28/24 A2965 RMK 70015 SLP044 T02840242 52019 IEM_DS3505
ZHHH,2006-08-16 01:00,ZHHH 160100Z AUTO 01004KT 6SM 29/27 A2968 RMK T02900270 IEM_DS3505
ZHHH,2006-08-16 02:00,ZHHH 160200Z AUTO 04004KT 3SM 31/27 A2968 RMK T03100270 IEM_DS3505
ZHHH,2006-08-16 03:00,ZHHH 160300Z AUTO 34002KT 11SM 33/25 A2968 RMK SLP047 T03260254 52003 IEM_DS3505
ZHHH,2006-08-16 04:00,ZHHH 160400Z AUTO 33004KT 4SM 33/29 A2965 RMK T03300290 IEM_DS3505
ZHHH,2006-08-16 05:00,ZHHH 160500Z AUTO 33004KT 4SM 33/29 A2965 RMK T03300290 IEM_DS3505
ZHHH,2006-08-16 06:00,ZHHH 160600Z AUTO 29004KT 11SM 35/26 A2962 RMK SLP025 T03490260 57022 IEM_DS3505
ZHHH,2006-08-16 07:00,ZHHH 160700Z AUTO 32006KT 5SM 34/29 A2959 RMK T03400290 IEM_DS3505
ZHHH,2006-08-16 08:00,ZHHH 160800Z AUTO 36004KT 5SM 34/28 A2959 RMK T03400280 IEM_DS3505
ZHHH,2006-08-16 09:00,ZHHH 160900Z AUTO 04004KT 9SM 34/25 A2962 RMK SLP023 T03370251 57002 IEM_DS3505
ZHHH,2006-08-16 10:00,ZHHH 161000Z AUTO 04004KT 3SM 32/29 A2962 RMK T03200290 IEM_DS3505
ZHHH,2006-08-16 11:00,ZHHH 161100Z AUTO 03004KT 2 1/2SM 31/29 A2962 RMK T03100290 IEM_DS3505
ZHHH,2006-08-16 12:00,ZHHH 161200Z AUTO 16002KT 7SM 32/26 A2965 RMK SLP034 T03180264 52011 IEM_DS3505
ZHHH,2006-08-16 13:00,ZHHH 161300Z AUTO 04004KT 2 1/2SM 30/29 A2968 RMK T03000290 IEM_DS3505
ZHHH,2006-08-16 14:00,ZHHH 161400Z AUTO 05008KT 2SM 29/28 A2968 RMK T02900280 IEM_DS3505
ZHHH,2006-08-16 15:00,ZHHH 161500Z AUTO 07004KT 7SM 30/26 A2968 RMK SLP046 T03000262 52012 IEM_DS3505
ZHHH,2006-08-16 16:00,ZHHH 161600Z AUTO 07006KT 2SM 29/28 A2968 RMK T02900280 IEM_DS3505
ZHHH,2006-08-16 17:00,ZHHH 161700Z AUTO 2SM 28/28 A2968 RMK T02800280 IEM_DS3505
ZHHH,2006-08-16 18:00,ZHHH 161800Z AUTO 07006KT 6SM 29/26 A2968 RMK 60003 SLP042 T02920260 57004 IEM_DS3505
ZHHH,2006-08-16 19:00,ZHHH 161900Z AUTO 05004KT 1 1/4SM 28/27 A2968 RMK T02800270 IEM_DS3505
ZHHH,2006-08-16 20:00,ZHHH 162000Z AUTO 02002KT 1SM 28/27 A2968 RMK T02800270 IEM_DS3505
ZHHH,2006-08-16 21:00,ZHHH 162100Z AUTO 07002KT 7SM 29/26 A2968 RMK 70003 SLP048 T02860262 52006 IEM_DS3505
ZHHH,2006-08-16 22:00,ZHHH 162200Z AUTO 03002KT 1SM 27/27 A2968 RMK T02700270 IEM_DS3505
ZHHH,2006-08-16 23:00,ZHHH 162300Z AUTO 02004KT 1SM 28/27 A2971 RMK T02800270 IEM_DS3505
ZHHH,2006-08-17 00:00,ZHHH 170000Z AUTO 04002KT 7SM 29/26 A2971 RMK 70003 SLP062 T02910259 52014 IEM_DS3505
ZHHH,2006-08-17 01:00,ZHHH 170100Z AUTO 02004KT 1 1/2SM 30/28 A2974 RMK T03000280 IEM_DS3505
ZHHH,2006-08-17 02:00,ZHHH 170200Z AUTO 04006KT 2SM 31/28 A2974 RMK T03100280 IEM_DS3505
ZHHH,2006-08-17 03:00,ZHHH 170300Z AUTO 04006KT 9SM 32/26 A2971 RMK SLP064 T03170256 52002 IEM_DS3505
ZHHH,2006-08-17 04:00,ZHHH 170400Z AUTO 06008KT 2 1/2SM 32/28 A2971 RMK T03200280 IEM_DS3505
ZHHH,2006-08-17 05:00,ZHHH 170500Z AUTO 04008KT 3SM 32/27 A2971 RMK T03200270 IEM_DS3505
ZHHH,2006-08-17 06:00,ZHHH 170600Z AUTO 02004KT 9SM 33/25 A2968 RMK SLP049 T03340251 57015 IEM_DS3505
ZHHH,2006-08-17 07:00,ZHHH 170700Z AUTO 02008KT 3SM 34/28 A2965 RMK T03400280 IEM_DS3505
ZHHH,2006-08-17 08:00,ZHHH 170800Z AUTO 04008KT 3SM 34/28 A2965 RMK T03400280 IEM_DS3505
ZHHH,2006-08-17 09:00,ZHHH 170900Z AUTO 02006KT 11SM 34/25 A2965 RMK SLP036 T03370249 57013 IEM_DS3505
ZHHH,2006-08-17 10:00,ZHHH 171000Z AUTO 04008KT 3SM 32/26 A2965 RMK T03200260 IEM_DS3505
ZHHH,2006-08-17 11:00,ZHHH 171100Z AUTO 03006KT 3SM 31/27 A2968 RMK T03100270 IEM_DS3505
ZHHH,2006-08-17 12:00,ZHHH 171200Z AUTO 04006KT 9SM 31/24 A2971 RMK SLP056 T03140240 52020 IEM_DS3505
ZHHH,2006-08-17 13:00,ZHHH 171300Z AUTO 05006KT 2 1/2SM 29/26 A2974 RMK T02900260 IEM_DS3505
ZHHH,2006-08-17 14:00,ZHHH 171400Z AUTO 03006KT 2 1/2SM 28/25 A2974 RMK T02800250 IEM_DS3505
ZHHH,2006-08-17 15:00,ZHHH 171500Z AUTO 02004KT 9SM 29/23 A2974 RMK SLP068 T02920232 52012 IEM_DS3505
ZHHH,2006-08-17 16:00,ZHHH 171600Z AUTO 04006KT 2 1/2SM 27/24 A2974 RMK T02700240 IEM_DS3505
ZHHH,2006-08-17 17:00,ZHHH 171700Z AUTO 05006KT 2 1/2SM 27/24 A2974 RMK T02700240 IEM_DS3505
ZHHH,2006-08-17 18:00,ZHHH 171800Z AUTO 07004KT 9SM 28/22 A2971 RMK SLP062 T02790219 57006 IEM_DS3505
ZHHH,2006-08-17 19:00,ZHHH 171900Z AUTO 05008KT 2 1/2SM 26/23 A2971 RMK T02600230 IEM_DS3505
ZHHH,2006-08-17 20:00,ZHHH 172000Z AUTO 05008KT 4SM 25/23 A2974 RMK T02500230 IEM_DS3505
ZHHH,2006-08-17 21:00,ZHHH 172100Z AUTO 04004KT 9SM 27/21 A2974 RMK SLP068 T02720213 52006 IEM_DS3505
ZHHH,2006-08-17 22:00,ZHHH 172200Z AUTO 05008KT 4SM 25/23 A2977 RMK T02500230 IEM_DS3505
ZHHH,2006-08-17 23:00,ZHHH 172300Z AUTO 05008KT 4SM 25/24 A2977 RMK T02500240 IEM_DS3505
ZHHH,2006-08-18 00:00,ZHHH 180000Z AUTO 04006KT 12SM 28/22 A2977 RMK SLP080 T02780216 52012 IEM_DS3505
ZHHH,2006-08-18 01:00,ZHHH 180100Z AUTO 05010KT 6SM 29/25 A2980 RMK T02900250 IEM_DS3505
ZHHH,2006-08-18 02:00,ZHHH 180200Z AUTO 05006KT 6SM 30/25 A2980 RMK T03000250 IEM_DS3505
ZHHH,2006-08-18 03:00,ZHHH 180300Z AUTO 34004KT 14SM 31/22 A2977 RMK SLP082 T03130215 52002 IEM_DS3505
ZHHH,2006-08-18 04:00,ZHHH 180400Z AUTO 04010KT 7SM 32/24 A2977 RMK T03200240 IEM_DS3505
ZHHH,2006-08-18 05:00,ZHHH 180500Z AUTO 03010KT 6SM 33/23 A2977 RMK T03300230 IEM_DS3505
ZHHH,2006-08-18 06:00,ZHHH 180600Z AUTO 04004KT 14SM 33/20 A2974 RMK SLP072 T03340195 57010 IEM_DS3505
ZHHH,2006-08-18 07:00,ZHHH 180700Z AUTO 02008KT 6SM 34/23 A2974 RMK T03400230 IEM_DS3505
ZHHH,2006-08-18 08:00,ZHHH 180800Z AUTO 03008KT 6SM 33/21 A2971 RMK T03300210 IEM_DS3505
ZHHH,2006-08-18 09:00,ZHHH 180900Z AUTO 36004KT 14SM 34/18 A2971 RMK SLP053 T03380175 57019 IEM_DS3505
ZHHH,2006-08-18 10:00,ZHHH 181000Z AUTO 03008KT 6SM 32/22 A2971 RMK T03200220 IEM_DS3505
ZHHH,2006-08-18 11:00,ZHHH 181100Z AUTO 03008KT 6SM 30/22 A2971 RMK T03000220 IEM_DS3505
ZHHH,2006-08-18 12:00,ZHHH 181200Z AUTO 04004KT 11SM 30/19 A2974 RMK SLP070 T02970194 52016 IEM_DS3505
ZHHH,2006-08-18 13:00,ZHHH 181300Z AUTO 04010KT 4SM 27/22 A2977 RMK T02700220 IEM_DS3505
ZHHH,2006-08-18 14:00,ZHHH 181400Z AUTO 03008KT 4SM 26/21 A2977 RMK T02600210 IEM_DS3505
ZHHH,2006-08-18 15:00,ZHHH 181500Z AUTO 04004KT 11SM 27/17 A2980 RMK SLP085 T02680173 52015 IEM_DS3505
ZHHH,2006-08-18 16:00,ZHHH 181600Z AUTO 04004KT 4SM 24/20 A2980 RMK T02400200 IEM_DS3505
ZHHH,2006-08-18 17:00,ZHHH 181700Z AUTO 04006KT 4SM 24/20 A2980 RMK T02400200 IEM_DS3505
ZHHH,2006-08-18 18:00,ZHHH 181800Z AUTO 36002KT 9SM 25/18 A2980 RMK SLP086 T02470177 52001 IEM_DS3505
ZHHH,2006-08-18 19:00,ZHHH 181900Z AUTO 02004KT 4SM 23/19 A2980 RMK T02300190 IEM_DS3505
ZHHH,2006-08-18 20:00,ZHHH 182000Z AUTO 36004KT 4SM 22/20 A2980 RMK T02200200 IEM_DS3505
ZHHH,2006-08-18 21:00,ZHHH 182100Z AUTO 02002KT 11SM 24/19 A2977 RMK SLP084 T02350186 57002 IEM_DS3505
ZHHH,2006-08-18 22:00,ZHHH 182200Z AUTO 02004KT 6SM 21/19 A2980 RMK T02100190 IEM_DS3505
ZHHH,2006-08-18 23:00,ZHHH 182300Z AUTO 01004KT 6SM 22/20 A2980 RMK T02200200 IEM_DS3505
ZHHH,2006-08-19 00:00,ZHHH 190000Z AUTO 34004KT 12SM 24/18 A2983 RMK SLP098 T02410181 52014 IEM_DS3505
ZHHH,2006-08-19 01:00,ZHHH 190100Z AUTO 02004KT 6SM 27/21 A2983 RMK T02700210 IEM_DS3505
ZHHH,2006-08-19 02:00,ZHHH 190200Z AUTO 05006KT 6SM 29/21 A2983 RMK T02900210 IEM_DS3505
ZHHH,2006-08-19 03:00,ZHHH 190300Z AUTO 04004KT 12SM 30/17 A2980 RMK SLP094 T02980173 57004 IEM_DS3505
ZHHH,2006-08-19 04:00,ZHHH 190400Z AUTO 02006KT 7SM 31/21 A2980 RMK T03100210 IEM_DS3505
ZHHH,2006-08-19 05:00,ZHHH 190500Z AUTO 04008KT 6SM 31/20 A2977 RMK T03100200 IEM_DS3505
ZHHH,2006-08-19 06:00,ZHHH 190600Z AUTO 29002KT 12SM 32/16 A2974 RMK SLP072 T03190162 57022 IEM_DS3505
ZHHH,2006-08-19 07:00,ZHHH 190700Z AUTO 36006KT 7SM 32/20 A2974 RMK T03200200 IEM_DS3505
ZHHH,2006-08-19 08:00,ZHHH 190800Z AUTO 36006KT 7SM 32/21 A2971 RMK T03200210 IEM_DS3505
ZHHH,2006-08-19 09:00,ZHHH 190900Z AUTO 29004KT 12SM 32/18 A2971 RMK SLP058 T03220177 57014 IEM_DS3505
ZHHH,2006-08-19 10:00,ZHHH 191000Z AUTO 01002KT 6SM 31/21 A2971 RMK T03100210 IEM_DS3505
ZHHH,2006-08-19 11:00,ZHHH 191100Z AUTO 04006KT 6SM 29/22 A2971 RMK T02900220 IEM_DS3505
ZHHH,2006-08-19 12:00,ZHHH 191200Z AUTO 36004KT 11SM 30/20 A2974 RMK SLP065 T02950198 52007 IEM_DS3505
ZHHH,2006-08-19 13:00,ZHHH 191300Z AUTO 03006KT 6SM 27/22 A2974 RMK T02700220 IEM_DS3505
ZHHH,2006-08-19 14:00,ZHHH 191400Z AUTO 04006KT 6SM 26/22 A2977 RMK T02600220 IEM_DS3505
ZHHH,2006-08-19 15:00,ZHHH 191500Z AUTO 04004KT 11SM 27/20 A2977 RMK SLP077 T02710197 52012 IEM_DS3505
ZHHH,2006-08-19 16:00,ZHHH 191600Z AUTO 01004KT 3SM 24/22 A2977 RMK T02400220 IEM_DS3505
ZHHH,2006-08-19 17:00,ZHHH 191700Z AUTO 36004KT 2 1/2SM 24/22 A2974 RMK T02400220 IEM_DS3505
ZHHH,2006-08-19 18:00,ZHHH 191800Z AUTO 36002KT 11SM 25/20 A2974 RMK SLP071 T02540202 57006 IEM_DS3505
ZHHH,2006-08-19 19:00,ZHHH 191900Z AUTO 01004KT 2SM 23/21 A2974 RMK T02300210 IEM_DS3505
ZHHH,2006-08-19 20:00,ZHHH 192000Z AUTO 01002KT 2SM 23/21 A2974 RMK T02300210 IEM_DS3505
ZHHH,2006-08-19 21:00,ZHHH 192100Z AUTO 34002KT 9SM 24/21 A2974 RMK SLP066 T02420213 57005 IEM_DS3505
ZHHH,2006-08-19 22:00,ZHHH 192200Z AUTO 36002KT 1 1/4SM 22/21 A2974 RMK T02200210 IEM_DS3505
ZHHH,2006-08-19 23:00,ZHHH 192300Z AUTO 36004KT 1SM 22/21 A2974 RMK T02200210 IEM_DS3505
ZHHH,2006-08-20 00:00,ZHHH 200000Z AUTO 29002KT 12SM 25/21 A2974 RMK SLP073 T02540211 52007 IEM_DS3505
ZHHH,2006-08-20 01:00,ZHHH 200100Z AUTO 02004KT 4SM 27/21 A2977 RMK T02700210 IEM_DS3505
ZHHH,2006-08-20 02:00,ZHHH 200200Z AUTO 04006KT 6SM 29/18 A2977 RMK T02900180 IEM_DS3505
ZHHH,2006-08-20 03:00,ZHHH 200300Z AUTO 32006KT 14SM 30/16 A2977 RMK SLP076 T02970165 52003 IEM_DS3505
ZHHH,2006-08-20 04:00,ZHHH 200400Z AUTO 6SM 30/19 A2974 RMK T03000190 IEM_DS3505
ZHHH,2006-08-20 05:00,ZHHH 200500Z AUTO 6SM 31/17 A2971 RMK T03100170 IEM_DS3505
ZHHH,2006-08-20 06:00,ZHHH 200600Z AUTO 34004KT 12SM 31/14 A2971 RMK SLP059 T03110143 57017 IEM_DS3505
ZHHH,2006-08-20 07:00,ZHHH 200700Z AUTO 36004KT 6SM 31/19 A2971 RMK T03100190 IEM_DS3505
ZHHH,2006-08-20 08:00,ZHHH 200800Z AUTO 27004KT 6SM 32/19 A2971 RMK T03200190 IEM_DS3505
ZHHH,2006-08-20 09:00,ZHHH 200900Z AUTO 34004KT 11SM 32/14 A2971 RMK SLP054 T03230135 57005 IEM_DS3505
ZHHH,2006-08-20 10:00,ZHHH 201000Z AUTO 02004KT 6SM 30/19 A2971 RMK T03000190 IEM_DS3505
ZHHH,2006-08-20 11:00,ZHHH 201100Z AUTO 03006KT 6SM 29/20 A2971 RMK T02900200 IEM_DS3505
ZHHH,2006-08-20 12:00,ZHHH 201200Z AUTO 07004KT 9SM 29/18 A2974 RMK SLP069 T02870176 52015 IEM_DS3505
ZHHH,2006-08-20 13:00,ZHHH 201300Z AUTO 36004KT 6SM 26/21 A2977 RMK T02600210 IEM_DS3505
ZHHH,2006-08-20 14:00,ZHHH 201400Z AUTO 03006KT 5SM 25/21 A2977 RMK T02500210 IEM_DS3505
ZHHH,2006-08-20 15:00,ZHHH 201500Z AUTO 04002KT 9SM 26/19 A2980 RMK SLP086 T02630192 52017 IEM_DS3505
ZHHH,2006-08-20 16:00,ZHHH 201600Z AUTO 01004KT 4SM 24/21 A2980 RMK T02400210 IEM_DS3505
ZHHH,2006-08-20 17:00,ZHHH 201700Z AUTO 03004KT 4SM 24/21 A2980 RMK T02400210 IEM_DS3505
ZHHH,2006-08-20 18:00,ZHHH 201800Z AUTO 02004KT 11SM 25/19 A2980 RMK SLP084 T02500191 57002 IEM_DS3505
ZHHH,2006-08-20 19:00,ZHHH 201900Z AUTO 05006KT 3SM 23/21 A2977 RMK T02300210 IEM_DS3505
ZHHH,2006-08-20 20:00,ZHHH 202000Z AUTO 05008KT 3SM 23/21 A2977 RMK T02300210 IEM_DS3505
ZHHH,2006-08-20 21:00,ZHHH 202100Z AUTO 32002KT 11SM 25/20 A2977 RMK SLP079 T02470195 57005 IEM_DS3505
ZHHH,2006-08-20 22:00,ZHHH 202200Z AUTO 05006KT 3SM 23/21 A2977 RMK T02300210 IEM_DS3505
ZHHH,2006-08-20 23:00,ZHHH 202300Z AUTO 35004KT 4SM 23/21 A2980 RMK T02300210 IEM_DS3505
ZHHH,2006-08-21 00:00,ZHHH 210000Z AUTO 34002KT 9SM 26/20 A2980 RMK SLP093 T02620205 52014 IEM_DS3505
ZHHH,2006-08-21 01:00,ZHHH 210100Z AUTO 36004KT 4SM 26/22 A2980 RMK T02600220 IEM_DS3505
ZHHH,2006-08-21 02:00,ZHHH 210200Z AUTO 03008KT 4SM 28/23 A2983 RMK T02800230 IEM_DS3505
ZHHH,2006-08-21 03:00,ZHHH 210300Z AUTO 02004KT 9SM 29/20 A2983 RMK SLP094 T02930202 52001 IEM_DS3505
ZHHH,2006-08-21 04:00,ZHHH 210400Z AUTO 01006KT 2 1/2SM 28/23 A2980 RMK T02800230 IEM_DS3505
ZHHH,2006-08-21 05:00,ZHHH 210500Z AUTO 01004KT 2 1/2SM 30/23 A2980 RMK T03000230 IEM_DS3505
ZHHH,2006-08-21 06:00,ZHHH 210600Z AUTO 32004KT 9SM 31/20 A2977 RMK SLP081 T03120195 57013 IEM_DS3505
ZHHH,2006-08-21 07:00,ZHHH 210700Z AUTO 01004KT 3SM 32/22 A2977 RMK T03200220 IEM_DS3505
ZHHH,2006-08-21 08:00,ZHHH 210800Z AUTO 33004KT 4SM 32/21 A2974 RMK T03200210 IEM_DS3505
ZHHH,2006-08-21 09:00,ZHHH 210900Z AUTO 34004KT 7SM 32/20 A2974 RMK SLP069 T03190195 57012 IEM_DS3505
ZHHH,2006-08-21 10:00,ZHHH 211000Z AUTO 34004KT 3SM 31/23 A2974 RMK T03100230 IEM_DS3505
ZHHH,2006-08-21 11:00,ZHHH 211100Z AUTO 01004KT 2 1/2SM 30/23 A2977 RMK T03000230 IEM_DS3505
ZHHH,2006-08-21 12:00,ZHHH 211200Z AUTO 29002KT 7SM 29/22 A2977 RMK SLP078 T02940216 52009 IEM_DS3505
ZHHH,2006-08-21 13:00,ZHHH 211300Z AUTO 36004KT 2SM 28/24 A2980 RMK T02800240 IEM_DS3505
ZHHH,2006-08-21 14:00,ZHHH 211400Z AUTO 03008KT 2SM 27/24 A2980 RMK T02700240 IEM_DS3505
ZHHH,2006-08-21 15:00,ZHHH 211500Z AUTO 04006KT 7SM 27/22 A2980 RMK SLP090 T02740219 52012 IEM_DS3505
ZHHH,2006-08-21 16:00,ZHHH 211600Z AUTO 03010KT 1 1/2SM 25/23 A2980 RMK T02500230 IEM_DS3505
ZHHH,2006-08-21 17:00,ZHHH 211700Z AUTO 02006KT 1 1/2SM 25/23 A2980 RMK T02500230 IEM_DS3505
ZHHH,2006-08-21 18:00,ZHHH 211800Z AUTO 04008KT 7SM 25/22 A2980 RMK SLP088 T02540215 57002 IEM_DS3505
ZHHH,2006-08-21 19:00,ZHHH 211900Z AUTO 04010KT 1 1/4SM 24/22 A2980 RMK T02400220 IEM_DS3505
ZHHH,2006-08-21 20:00,ZHHH 212000Z AUTO 04008KT 1 1/4SM 23/22 A2980 RMK T02300220 IEM_DS3505
ZHHH,2006-08-21 21:00,ZHHH 212100Z AUTO 02002KT 7SM 24/21 A2980 RMK SLP090 T02400211 52002 IEM_DS3505
ZHHH,2006-08-21 22:00,ZHHH 212200Z AUTO 01006KT 1SM 23/22 A2980 RMK T02300220 IEM_DS3505
ZHHH,2006-08-21 23:00,ZHHH 212300Z AUTO 01004KT 1SM 23/22 A2983 RMK T02300220 IEM_DS3505
ZHHH,2006-08-22 00:00,ZHHH 220000Z AUTO 04002KT 9SM 25/21 A2983 RMK SLP103 T02480211 52013 IEM_DS3505
ZHHH,2006-08-22 01:00,ZHHH 220100Z AUTO 02006KT 1 1/2SM 25/23 A2985 RMK T02500230 IEM_DS3505
ZHHH,2006-08-22 02:00,ZHHH 220200Z AUTO 03006KT 2SM 27/23 A2985 RMK T02700230 IEM_DS3505
ZHHH,2006-08-22 03:00,ZHHH 220300Z AUTO 04004KT 9SM 28/21 A2983 RMK SLP101 T02810214 57002 IEM_DS3505
ZHHH,2006-08-22 04:00,ZHHH 220400Z AUTO 02006KT 4SM 30/24 A2983 RMK T03000240 IEM_DS3505
ZHHH,2006-08-22 05:00,ZHHH 220500Z AUTO 34004KT 4SM 30/24 A2980 RMK T03000240 IEM_DS3505
ZHHH,2006-08-22 06:00,ZHHH 220600Z AUTO 36004KT 11SM 31/22 A2980 RMK SLP086 T03130215 57015 IEM_DS3505
ZHHH,2006-08-22 07:00,ZHHH 220700Z AUTO 31006KT 4SM 32/25 A2977 RMK T03200250 IEM_DS3505
ZHHH,2006-08-22 08:00,ZHHH 220800Z AUTO 31006KT 4SM 31/25 A2977 RMK T03100250 IEM_DS3505
ZHHH,2006-08-22 09:00,ZHHH 220900Z AUTO 34006KT 11SM 32/21 A2974 RMK SLP072 T03150214 57014 IEM_DS3505
ZHHH,2006-08-22 10:00,ZHHH 221000Z AUTO 03006KT 4SM 30/24 A2974 RMK T03000240 IEM_DS3505
ZHHH,2006-08-22 11:00,ZHHH 221100Z AUTO 03006KT 3SM 28/24 A2977 RMK T02800240 IEM_DS3505
ZHHH,2006-08-22 12:00,ZHHH 221200Z AUTO 04004KT 9SM 29/22 A2980 RMK SLP084 T02860221 52012 IEM_DS3505
ZHHH,2006-08-22 13:00,ZHHH 221300Z AUTO 03006KT 3SM 27/24 A2980 RMK T02700240 IEM_DS3505
ZHHH,2006-08-22 14:00,ZHHH 221400Z AUTO 02006KT 3SM 26/24 A2983 RMK T02600240 IEM_DS3505
ZHHH,2006-08-22 15:00,ZHHH 221500Z AUTO 34004KT 9SM 27/22 A2983 RMK SLP095 T02690223 52011 IEM_DS3505
ZHHH,2006-08-22 16:00,ZHHH 221600Z AUTO 36004KT 3SM 25/24 A2983 RMK T02500240 IEM_DS3505
ZHHH,2006-08-22 17:00,ZHHH 221700Z AUTO 01004KT 3SM 25/24 A2980 RMK T02500240 IEM_DS3505
ZHHH,2006-08-22 18:00,ZHHH 221800Z AUTO 32002KT 9SM 26/23 A2980 RMK SLP090 T02600227 57005 IEM_DS3505
ZHHH,2006-08-22 19:00,ZHHH 221900Z AUTO 01004KT 3SM 25/24 A2980 RMK T02500240 IEM_DS3505
ZHHH,2006-08-22 20:00,ZHHH 222000Z AUTO 2 1/2SM 25/24 A2977 RMK T02500240 IEM_DS3505
ZHHH,2006-08-22 21:00,ZHHH 222100Z AUTO 27002KT 7SM 25/23 A2977 RMK SLP084 T02520233 57006 IEM_DS3505
ZHHH,2006-08-22 22:00,ZHHH 222200Z AUTO 36004KT 1 1/2SM 24/24 A2980 RMK T02400240 IEM_DS3505
ZHHH,2006-08-22 23:00,ZHHH 222300Z AUTO 1 1/4SM 24/24 A2980 RMK T02400240 IEM_DS3505
ZHHH,2006-08-23 00:00,ZHHH 230000Z AUTO 32002KT 7SM 26/23 A2983 RMK SLP096 T02610234 52012 IEM_DS3505
ZHHH,2006-08-23 01:00,ZHHH 230100Z AUTO 02004KT 1 1/2SM 28/25 A2983 RMK T02800250 IEM_DS3505
ZHHH,2006-08-23 02:00,ZHHH 230200Z AUTO 04006KT 2SM 29/26 A2983 RMK T02900260 IEM_DS3505
ZHHH,2006-08-23 03:00,ZHHH 230300Z AUTO 02002KT 9SM 30/23 A2983 RMK SLP099 T03050232 52003 IEM_DS3505
ZHHH,2006-08-23 04:00,ZHHH 230400Z AUTO 4SM 31/25 A2980 RMK T03100250 IEM_DS3505
ZHHH,2006-08-23 05:00,ZHHH 230500Z AUTO 30006KT 4SM 32/24 A2980 RMK T03200240 IEM_DS3505
ZHHH,2006-08-23 06:00,ZHHH 230600Z AUTO 32004KT 11SM 33/22 A2977 RMK SLP078 T03320220 57020 IEM_DS3505
ZHHH,2006-08-23 07:00,ZHHH 230700Z AUTO 30006KT 7SM 33/26 A2974 RMK T03300260 IEM_DS3505
ZHHH,2006-08-23 08:00,ZHHH 230800Z AUTO 31006KT 7SM 34/26 A2974 RMK T03400260 IEM_DS3505
ZHHH,2006-08-23 09:00,ZHHH 230900Z AUTO 32006KT 11SM 33/23 A2971 RMK SLP062 T03320229 57016 IEM_DS3505
ZHHH,2006-08-23 10:00,ZHHH 231000Z AUTO 35006KT 7SM 32/26 A2971 RMK T03200260 IEM_DS3505
ZHHH,2006-08-23 11:00,ZHHH 231100Z AUTO 03006KT 6SM 31/26 A2974 RMK T03100260 IEM_DS3505
ZHHH,2006-08-23 12:00,ZHHH 231200Z AUTO 04004KT 9SM 30/23 A2977 RMK SLP078 T03050234 52015 IEM_DS3505
ZHHH,2006-08-23 13:00,ZHHH 231300Z AUTO 03006KT 6SM 29/26 A2980 RMK T02900260 IEM_DS3505
ZHHH,2006-08-23 14:00,ZHHH 231400Z AUTO 03006KT 6SM 28/26 A2980 RMK T02800260 IEM_DS3505
ZHHH,2006-08-23 15:00,ZHHH 231500Z AUTO 04002KT 9SM 29/24 A2980 RMK SLP088 T02880235 52010 IEM_DS3505
ZHHH,2006-08-23 16:00,ZHHH 231600Z AUTO 04004KT 6SM 27/25 A2980 RMK T02700250 IEM_DS3505
ZHHH,2006-08-23 17:00,ZHHH 231700Z AUTO 36002KT 4SM 27/25 A2980 RMK T02700250 IEM_DS3505
ZHHH,2006-08-23 18:00,ZHHH 231800Z AUTO 09002KT 9SM 28/24 A2980 RMK SLP085 T02830239 57002 IEM_DS3505
ZHHH,2006-08-23 19:00,ZHHH 231900Z AUTO 00000KT 4SM 27/25 A2977 RMK T02700250 IEM_DS3505
ZHHH,2006-08-23 20:00,ZHHH 232000Z AUTO 10004KT 4SM 27/25 A2977 RMK T02700250 IEM_DS3505
ZHHH,2006-08-23 21:00,ZHHH 232100Z AUTO 09004KT 7SM 25/23 A2980 RMK 70008 SLP083 T02510233 57003 IEM_DS3505
ZHHH,2006-08-23 22:00,ZHHH 232200Z AUTO 11006KT 4SM 24/24 A2977 RMK T02400240 IEM_DS3505
ZHHH,2006-08-23 23:00,ZHHH 232300Z AUTO 01006KT 3SM 24/24 A2980 RMK T02400240 IEM_DS3505
ZHHH,2006-08-24 00:00,ZHHH 240000Z AUTO 04006KT 11SM 25/24 A2983 RMK 60039 70040 SLP096 T02540236 52013 IEM_DS3505
ZHHH,2006-08-24 01:00,ZHHH 240100Z AUTO 05006KT 7SM 25/25 A2983 RMK T02500250 IEM_DS3505
ZHHH,2006-08-24 02:00,ZHHH 240200Z AUTO 10006KT 7SM 27/26 A2983 RMK T02700260 IEM_DS3505
ZHHH,2006-08-24 03:00,ZHHH 240300Z AUTO 07002KT 11SM 29/23 A2983 RMK SLP098 T02870234 52002 IEM_DS3505
ZHHH,2006-08-24 04:00,ZHHH 240400Z AUTO 02006KT 7SM 29/26 A2983 RMK T02900260 IEM_DS3505
ZHHH,2006-08-24 05:00,ZHHH 240500Z AUTO 02004KT 7SM 29/27 A2980 RMK T02900270 IEM_DS3505
ZHHH,2006-08-24 06:00,ZHHH 240600Z AUTO 07004KT 11SM 31/24 A2980 RMK 60000 SLP083 T03110242 57014 IEM_DS3505
ZHHH,2006-08-24 07:00,ZHHH 240700Z AUTO 03006KT 7SM 31/27 A2977 RMK T03100270 IEM_DS3505
ZHHH,2006-08-24 08:00,ZHHH 240800Z AUTO 02006KT 7SM 32/26 A2974 RMK T03200260 IEM_DS3505
ZHHH,2006-08-24 09:00,ZHHH 240900Z AUTO 34004KT 11SM 32/24 A2977 RMK SLP075 T03150241 57009 IEM_DS3505
ZHHH,2006-08-24 10:00,ZHHH 241000Z AUTO 01004KT 6SM 31/27 A2977 RMK T03100270 IEM_DS3505
ZHHH,2006-08-24 11:00,ZHHH 241100Z AUTO 04004KT 7SM 30/27 A2977 RMK T03000270 IEM_DS3505
ZHHH,2006-08-24 12:00,ZHHH 241200Z AUTO 07004G25KT 9SM 30/25 A2980 RMK SLP087 T02970254 52012 IEM_DS3505
ZHHH,2006-08-24 13:00,ZHHH 241300Z AUTO 07012KT 7SM 26/24 A2980 RMK T02600240 IEM_DS3505
ZHHH,2006-08-24 14:00,ZHHH 241400Z AUTO 12006KT 7SM 26/25 A2980 RMK T02600250 IEM_DS3505
ZHHH,2006-08-24 15:00,ZHHH 241500Z AUTO 14004KT 9SM 28/24 A2980 RMK SLP085 T02790235 57002 IEM_DS3505
ZHHH,2006-08-24 16:00,ZHHH 241600Z AUTO 03004KT 4SM 26/25 A2980 RMK T02600250 IEM_DS3505
ZHHH,2006-08-24 17:00,ZHHH 241700Z AUTO 04006KT 4SM 25/25 A2980 RMK T02500250 IEM_DS3505
ZHHH,2006-08-24 18:00,ZHHH 241800Z AUTO 04004KT 9SM 26/24 A2980 RMK SLP087 T02650240 52002 IEM_DS3505
ZHHH,2006-08-24 19:00,ZHHH 241900Z AUTO 06008KT 4SM 25/24 A2980 RMK T02500240 IEM_DS3505
ZHHH,2006-08-24 20:00,ZHHH 242000Z AUTO 05004KT 4SM 25/24 A2977 RMK T02500240 IEM_DS3505
ZHHH,2006-08-24 21:00,ZHHH 242100Z AUTO 07002KT 9SM 26/23 A2977 RMK 70032 SLP083 T02600231 57004 IEM_DS3505
ZHHH,2006-08-24 22:00,ZHHH 242200Z AUTO 03004KT 6SM 25/24 A2977 RMK T02500240 IEM_DS3505
ZHHH,2006-08-24 23:00,ZHHH 242300Z AUTO 06006KT 6SM 25/24 A2980 RMK T02500240 IEM_DS3505
ZHHH,2006-08-25 00:00,ZHHH 250000Z AUTO 09002KT 9SM 27/23 A2980 RMK 70000 SLP088 T02720230 52005 IEM_DS3505
ZHHH,2006-08-25 01:00,ZHHH 250100Z AUTO 07006KT 6SM 27/25 A2980 RMK T02700250 IEM_DS3505
ZHHH,2006-08-25 02:00,ZHHH 250200Z AUTO 08006KT 6SM 29/25 A2980 RMK T02900250 IEM_DS3505
ZHHH,2006-08-25 03:00,ZHHH 250300Z AUTO 09002KT 11SM 31/24 A2980 RMK SLP088 T03110240 54000 IEM_DS3505
ZHHH,2006-08-25 04:00,ZHHH 250400Z AUTO 11006KT 7SM 32/26 A2977 RMK T03200260 IEM_DS3505
ZHHH,2006-08-25 05:00,ZHHH 250500Z AUTO 12004KT 7SM 32/27 A2977 RMK T03200270 IEM_DS3505
ZHHH,2006-08-25 06:00,ZHHH 250600Z AUTO 11002KT 11SM 33/24 A2974 RMK SLP065 T03280240 57022 IEM_DS3505
ZHHH,2006-08-25 07:00,ZHHH 250700Z AUTO 7SM 33/27 A2971 RMK T03300270 IEM_DS3505
ZHHH,2006-08-25 08:00,ZHHH 250800Z AUTO 28004KT 7SM 33/27 A2968 RMK T03300270 IEM_DS3505
ZHHH,2006-08-25 09:00,ZHHH 250900Z AUTO 04004KT 11SM 33/24 A2968 RMK SLP044 T03330239 57021 IEM_DS3505
ZHHH,2006-08-25 10:00,ZHHH 251000Z AUTO 10006KT 7SM 32/27 A2968 RMK T03200270 IEM_DS3505
ZHHH,2006-08-25 11:00,ZHHH 251100Z AUTO 11006KT 7SM 31/27 A2968 RMK T03100270 IEM_DS3505
ZHHH,2006-08-25 12:00,ZHHH 251200Z AUTO 07002KT 9SM 31/25 A2971 RMK 60000 SLP052 T03140248 52008 IEM_DS3505
ZHHH,2006-08-25 13:00,ZHHH 251300Z AUTO 07010KT 4SM 28/26 A2974 RMK T02800260 IEM_DS3505
ZHHH,2006-08-25 14:00,ZHHH 251400Z AUTO 07008KT 4SM 28/26 A2974 RMK T02800260 IEM_DS3505
ZHHH,2006-08-25 15:00,ZHHH 251500Z AUTO 07002KT 9SM 29/25 A2974 RMK SLP066 T02900252 52014 IEM_DS3505
ZHHH,2006-08-25 16:00,ZHHH 251600Z AUTO 09008KT 4SM 27/26 A2971 RMK T02700260 IEM_DS3505
ZHHH,2006-08-25 17:00,ZHHH 251700Z AUTO 10008KT 4SM 27/26 A2971 RMK T02700260 IEM_DS3505
ZHHH,2006-08-25 18:00,ZHHH 251800Z AUTO 09002KT 9SM 28/25 A2968 RMK SLP047 T02840250 57019 IEM_DS3505
ZHHH,2006-08-25 19:00,ZHHH 251900Z AUTO 12006KT 3SM 26/26 A2968 RMK T02600260 IEM_DS3505
ZHHH,2006-08-25 20:00,ZHHH 252000Z AUTO 12004KT 3SM 26/26 A2968 RMK T02600260 IEM_DS3505
ZHHH,2006-08-25 21:00,ZHHH 252100Z AUTO 20002KT 9SM 28/25 A2968 RMK 70000 SLP045 T02790253 57002 IEM_DS3505
ZHHH,2006-08-25 22:00,ZHHH 252200Z AUTO 12004KT 1 1/4SM 26/26 A2968 RMK T02600260 IEM_DS3505
ZHHH,2006-08-25 23:00,ZHHH 252300Z AUTO 13004KT 1SM 27/27 A2971 RMK T02700270 IEM_DS3505
ZHHH,2006-08-26 00:00,ZHHH 260000Z AUTO 20002KT 7SM 28/25 A2971 RMK 60000 70000 SLP059 T02760250 52014 IEM_DS3505
ZHHH,2006-08-26 01:00,ZHHH 260100Z AUTO 21006KT 1 1/2SM 27/27 A2971 RMK T02700270 IEM_DS3505
ZHHH,2006-08-26 02:00,ZHHH 260200Z AUTO 19006KT 3SM 25/25 A2974 RMK T02500250 IEM_DS3505
ZHHH,2006-08-26 03:00,ZHHH 260300Z AUTO 22004KT 7SM 28/26 A2971 RMK SLP063 T02800256 52003 IEM_DS3505
ZHHH,2006-08-26 04:00,ZHHH 260400Z AUTO 20006KT 4SM 29/27 A2971 RMK T02900270 IEM_DS3505
ZHHH,2006-08-26 05:00,ZHHH 260500Z AUTO 22008KT 4SM 31/28 A2968 RMK T03100280 IEM_DS3505
ZHHH,2006-08-26 06:00,ZHHH 260600Z AUTO 18006KT 9SM 32/25 A2968 RMK 60020 SLP046 T03200251 57016 IEM_DS3505
ZHHH,2006-08-26 07:00,ZHHH 260700Z AUTO 19008KT 7SM 32/28 A2965 RMK T03200280 IEM_DS3505
ZHHH,2006-08-26 08:00,ZHHH 260800Z AUTO 20008KT 7SM 32/27 A2965 RMK T03200270 IEM_DS3505
ZHHH,2006-08-26 09:00,ZHHH 260900Z AUTO 20002KT 9SM 33/24 A2965 RMK SLP036 T03320241 57010 IEM_DS3505
ZHHH,2006-08-26 10:00,ZHHH 261000Z AUTO 20004KT 7SM 32/27 A2965 RMK T03200270 IEM_DS3505
ZHHH,2006-08-26 11:00,ZHHH 261100Z AUTO 16004KT 6SM 31/27 A2965 RMK T03100270 IEM_DS3505
ZHHH,2006-08-26 12:00,ZHHH 261200Z AUTO 14002KT 11SM 30/25 A2968 RMK SLP050 T03040248 52014 IEM_DS3505
ZHHH,2006-08-26 13:00,ZHHH 261300Z AUTO 14004KT 4SM 29/27 A2971 RMK T02900270 IEM_DS3505
ZHHH,2006-08-26 14:00,ZHHH 261400Z AUTO 14004KT 3SM 29/27 A2971 RMK T02900270 IEM_DS3505
ZHHH,2006-08-26 15:00,ZHHH 261500Z AUTO 16002KT 11SM 29/26 A2971 RMK SLP057 T02920260 52006 IEM_DS3505
ZHHH,2006-08-26 16:00,ZHHH 261600Z AUTO 11004KT 2 1/2SM 28/27 A2971 RMK T02800270 IEM_DS3505
ZHHH,2006-08-26 17:00,ZHHH 261700Z AUTO 10004KT 2 1/2SM 27/27 A2971 RMK T02700270 IEM_DS3505
ZHHH,2006-08-26 18:00,ZHHH 261800Z AUTO 08006KT 9SM 29/26 A2971 RMK SLP053 T02860262 57003 IEM_DS3505
ZHHH,2006-08-26 19:00,ZHHH 261900Z AUTO 10008KT 1SM 27/27 A2971 RMK T02700270 IEM_DS3505
ZHHH,2006-08-26 20:00,ZHHH 262000Z AUTO 09004KT 1SM 27/27 A2971 RMK T02700270 IEM_DS3505
ZHHH,2006-08-26 21:00,ZHHH 262100Z AUTO 14002KT 9SM 28/26 A2971 RMK 70020 SLP056 T02830259 52003 IEM_DS3505
ZHHH,2006-08-26 22:00,ZHHH 262200Z AUTO 11004KT 1SM 27/27 A2971 RMK T02700270 IEM_DS3505
ZHHH,2006-08-26 23:00,ZHHH 262300Z AUTO 09004KT 1SM 27/27 A2974 RMK T02700270 IEM_DS3505
ZHHH,2006-08-27 00:00,ZHHH 270000Z AUTO 09002KT 9SM 30/25 A2974 RMK 70020 SLP066 T03030251 52010 IEM_DS3505
ZHHH,2006-08-27 01:00,ZHHH 270100Z AUTO 12004KT 1 1/2SM 30/28 A2974 RMK T03000280 IEM_DS3505
ZHHH,2006-08-27 02:00,ZHHH 270200Z AUTO 16006KT 2 1/2SM 32/28 A2974 RMK T03200280 IEM_DS3505
ZHHH,2006-08-27 03:00,ZHHH 270300Z AUTO 25002KT 9SM 33/23 A2974 RMK SLP070 T03330233 52004 IEM_DS3505
ZHHH,2006-08-27 04:00,ZHHH 270400Z AUTO 20004KT 7SM 33/28 A2974 RMK T03300280 IEM_DS3505
ZHHH,2006-08-27 05:00,ZHHH 270500Z AUTO 26006KT 7SM 34/27 A2971 RMK T03400270 IEM_DS3505
ZHHH,2006-08-27 06:00,ZHHH 270600Z AUTO 22002KT 11SM 35/23 A2971 RMK SLP053 T03470234 57017 IEM_DS3505
ZHHH,2006-08-27 07:00,ZHHH 270700Z AUTO 10008KT 7SM 32/28 A2968 RMK T03200280 IEM_DS3505
ZHHH,2006-08-27 08:00,ZHHH 270800Z AUTO 11008KT 6SM 32/28 A2968 RMK T03200280 IEM_DS3505
ZHHH,2006-08-27 09:00,ZHHH 270900Z AUTO 07004KT 9SM 33/26 A2968 RMK SLP043 T03320255 57010 IEM_DS3505
ZHHH,2006-08-27 10:00,ZHHH 271000Z AUTO 11006KT 6SM 32/28 A2968 RMK T03200280 IEM_DS3505
ZHHH,2006-08-27 11:00,ZHHH 271100Z AUTO 10006KT 6SM 31/28 A2968 RMK T03100280 IEM_DS3505
ZHHH,2006-08-27 12:00,ZHHH 271200Z AUTO 14002KT 9SM 33/24 A2971 RMK SLP054 T03280237 52011 IEM_DS3505
ZHHH,2006-08-27 13:00,ZHHH 271300Z AUTO 11006KT 2SM 30/28 A2971 RMK T03000280 IEM_DS3505
ZHHH,2006-08-27 14:00,ZHHH 271400Z AUTO 11006KT 1 1/2SM 30/28 A2974 RMK T03000280 IEM_DS3505
ZHHH,2006-08-27 15:00,ZHHH 271500Z AUTO 11004KT 9SM 32/25 A2974 RMK SLP063 T03180249 52009 IEM_DS3505
ZHHH,2006-08-27 16:00,ZHHH 271600Z AUTO 10006KT 1SM 29/28 A2974 RMK T02900280 IEM_DS3505
ZHHH,2006-08-27 17:00,ZHHH 271700Z AUTO 11006KT 1SM 28/28 A2971 RMK T02800280 IEM_DS3505
ZHHH,2006-08-27 18:00,ZHHH 271800Z AUTO 14002KT 9SM 30/26 A2971 RMK SLP058 T03010263 57005 IEM_DS3505
ZHHH,2006-08-27 19:00,ZHHH 271900Z AUTO 12002KT 1SM 28/28 A2971 RMK T02800280 IEM_DS3505
ZHHH,2006-08-27 20:00,ZHHH 272000Z AUTO 10004KT 1 1/4SM 28/28 A2971 RMK T02800280 IEM_DS3505
ZHHH,2006-08-27 21:00,ZHHH 272100Z AUTO 16002KT 9SM 29/26 A2971 RMK SLP060 T02920260 52002 IEM_DS3505
ZHHH,2006-08-27 22:00,ZHHH 272200Z AUTO 10006KT 1SM 27/27 A2971 RMK T02700270 IEM_DS3505
ZHHH,2006-08-27 23:00,ZHHH 272300Z AUTO 12006KT 1SM 28/28 A2974 RMK T02800280 IEM_DS3505
ZHHH,2006-08-28 00:00,ZHHH 280000Z AUTO 11006KT 9SM 31/24 A2974 RMK SLP071 T03090245 52011 IEM_DS3505
ZHHH,2006-08-28 01:00,ZHHH 280100Z AUTO 15008KT 2SM 31/29 A2974 RMK T03100290 IEM_DS3505
ZHHH,2006-08-28 02:00,ZHHH 280200Z AUTO 20010KT 6SM 33/27 A2977 RMK T03300270 IEM_DS3505
ZHHH,2006-08-28 03:00,ZHHH 280300Z AUTO 18006KT 11SM 34/23 A2977 RMK SLP075 T03450232 52004 IEM_DS3505
ZHHH,2006-08-28 04:00,ZHHH 280400Z AUTO 20012KT 7SM 35/27 A2974 RMK T03500270 IEM_DS3505
ZHHH,2006-08-28 05:00,ZHHH 280500Z AUTO 20012KT 7SM 35/27 A2971 RMK T03500270 IEM_DS3505
ZHHH,2006-08-28 06:00,ZHHH 280600Z AUTO 22004KT 9SM 36/23 A2971 RMK SLP055 T03580231 57020 IEM_DS3505
ZHHH,2006-08-28 07:00,ZHHH 280700Z AUTO 21012KT 7SM 36/26 A2968 RMK T03600260 IEM_DS3505
ZHHH,2006-08-28 08:00,ZHHH 280800Z AUTO 22014KT 7SM 35/26 A2968 RMK T03500260 IEM_DS3505
ZHHH,2006-08-28 09:00,ZHHH 280900Z AUTO 25004KT 9SM 35/22 A2968 RMK SLP046 T03540224 57009 IEM_DS3505
ZHHH,2006-08-28 10:00,ZHHH 281000Z AUTO 21006KT 6SM 33/27 A2968 RMK T03300270 IEM_DS3505
ZHHH,2006-08-28 11:00,ZHHH 281100Z AUTO 18006KT 6SM 32/27 A2971 RMK T03200270 IEM_DS3505
ZHHH,2006-08-28 12:00,ZHHH 281200Z AUTO 11002KT 9SM 33/24 A2971 RMK SLP057 T03300239 52011 IEM_DS3505
ZHHH,2006-08-28 13:00,ZHHH 281300Z AUTO 16006KT 6SM 32/26 A2974 RMK T03200260 IEM_DS3505
ZHHH,2006-08-28 14:00,ZHHH 281400Z AUTO 15006KT 6SM 31/27 A2974 RMK T03100270 IEM_DS3505
ZHHH,2006-08-28 15:00,ZHHH 281500Z AUTO 14002KT 9SM 31/26 A2974 RMK SLP066 T03140255 52009 IEM_DS3505
ZHHH,2006-08-28 16:00,ZHHH 281600Z AUTO 17004KT 6SM 30/27 A2974 RMK T03000270 IEM_DS3505
ZHHH,2006-08-28 17:00,ZHHH 281700Z AUTO 18004KT 6SM 30/27 A2974 RMK T03000270 IEM_DS3505
ZHHH,2006-08-28 18:00,ZHHH 281800Z AUTO 18002KT 9SM 30/25 A2971 RMK SLP061 T03050246 57005 IEM_DS3505
ZHHH,2006-08-28 19:00,ZHHH 281900Z AUTO 22002KT 6SM 29/27 A2971 RMK T02900270 IEM_DS3505
ZHHH,2006-08-28 20:00,ZHHH 282000Z AUTO 16002KT 6SM 29/27 A2971 RMK T02900270 IEM_DS3505
ZHHH,2006-08-28 21:00,ZHHH 282100Z AUTO 11004KT 9SM 30/25 A2971 RMK SLP059 T02970246 57002 IEM_DS3505
ZHHH,2006-08-28 22:00,ZHHH 282200Z AUTO 16006KT 4SM 29/27 A2971 RMK T02900270 IEM_DS3505
ZHHH,2006-08-28 23:00,ZHHH 282300Z AUTO 14006KT 2 1/2SM 29/27 A2974 RMK T02900270 IEM_DS3505
ZHHH,2006-08-29 00:00,ZHHH 290000Z AUTO 16002KT 11SM 31/25 A2974 RMK SLP072 T03100249 52013 IEM_DS3505
ZHHH,2006-08-29 01:00,ZHHH 290100Z AUTO 21010KT 3SM 33/27 A2977 RMK T03300270 IEM_DS3505
ZHHH,2006-08-29 02:00,ZHHH 290200Z AUTO 22012KT 4SM 33/26 A2977 RMK T03300260 IEM_DS3505
ZHHH,2006-08-29 03:00,ZHHH 290300Z AUTO 22006KT 9SM 35/23 A2977 RMK SLP079 T03520232 52007 IEM_DS3505
ZHHH,2006-08-29 04:00,ZHHH 290400Z AUTO 22012KT 6SM 35/27 A2977 RMK T03500270 IEM_DS3505
ZHHH,2006-08-29 05:00,ZHHH 290500Z AUTO 24012KT 6SM 37/27 A2974 RMK T03700270 IEM_DS3505
ZHHH,2006-08-29 06:00,ZHHH 290600Z AUTO 27008KT 12SM 37/22 A2974 RMK SLP067 T03680225 57012 IEM_DS3505
ZHHH,2006-08-29 07:00,ZHHH 290700Z AUTO 23012KT 6SM 36/27 A2974 RMK T03600270 IEM_DS3505
ZHHH,2006-08-29 08:00,ZHHH 290800Z AUTO 23008KT 6SM 36/27 A2971 RMK T03600270 IEM_DS3505
ZHHH,2006-08-29 09:00,ZHHH 290900Z AUTO 25004KT 11SM 36/24 A2974 RMK SLP062 T03610244 57005 IEM_DS3505
ZHHH,2006-08-29 10:00,ZHHH 291000Z AUTO 22008KT 6SM 34/28 A2974 RMK T03400280 IEM_DS3505
ZHHH,2006-08-29 11:00,ZHHH 291100Z AUTO 24004KT 3SM 33/27 A2974 RMK T03300270 IEM_DS3505
ZHHH,2006-08-29 12:00,ZHHH 291200Z AUTO 22002KT 9SM 34/24 A2974 RMK SLP072 T03360236 52010 IEM_DS3505
ZHHH,2006-08-29 13:00,ZHHH 291300Z AUTO 14002KT 6SM 33/27 A2977 RMK T03300270 IEM_DS3505
ZHHH,2006-08-29 14:00,ZHHH 291400Z AUTO 13004KT 4SM 32/27 A2977 RMK T03200270 IEM_DS3505
ZHHH,2006-08-29 15:00,ZHHH 291500Z AUTO 16002KT 9SM 32/24 A2977 RMK SLP078 T03230241 52006 IEM_DS3505
ZHHH,2006-08-29 16:00,ZHHH 291600Z AUTO 10004KT 4SM 31/27 A2977 RMK T03100270 IEM_DS3505
ZHHH,2006-08-29 17:00,ZHHH 291700Z AUTO 06008KT 4SM 28/27 A2977 RMK T02800270 IEM_DS3505
ZHHH,2006-08-29 18:00,ZHHH 291800Z AUTO 09002KT 9SM 31/26 A2977 RMK SLP074 T03100258 57004 IEM_DS3505
ZHHH,2006-08-29 19:00,ZHHH 291900Z AUTO 06010KT 2 1/2SM 26/26 A2977 RMK T02600260 IEM_DS3505
ZHHH,2006-08-29 20:00,ZHHH 292000Z AUTO 08010KT 1 1/2SM 26/25 A2977 RMK T02600250 IEM_DS3505
ZHHH,2006-08-29 21:00,ZHHH 292100Z AUTO 04002KT 9SM 28/25 A2977 RMK SLP073 T02780248 57001 IEM_DS3505
ZHHH,2006-08-29 22:00,ZHHH 292200Z AUTO 11006KT 1 1/2SM 25/25 A2977 RMK T02500250 IEM_DS3505
ZHHH,2006-08-29 23:00,ZHHH 292300Z AUTO 09008KT 1 1/4SM 25/25 A2977 RMK T02500250 IEM_DS3505
ZHHH,2006-08-30 00:00,ZHHH 300000Z AUTO 04004KT 9SM 28/24 A2977 RMK SLP082 T02810245 52009 IEM_DS3505
ZHHH,2006-08-30 01:00,ZHHH 300100Z AUTO 10008KT 2 1/2SM 29/27 A2980 RMK T02900270 IEM_DS3505
ZHHH,2006-08-30 02:00,ZHHH 300200Z AUTO 12006KT 2 1/2SM 31/28 A2980 RMK T03100280 IEM_DS3505
ZHHH,2006-08-30 03:00,ZHHH 300300Z AUTO 20004KT 12SM 35/24 A2977 RMK SLP077 T03460239 57005 IEM_DS3505
ZHHH,2006-08-30 04:00,ZHHH 300400Z AUTO 20006KT 4SM 34/28 A2974 RMK T03400280 IEM_DS3505
ZHHH,2006-08-30 05:00,ZHHH 300500Z AUTO 23010KT 7SM 36/27 A2974 RMK T03600270 IEM_DS3505
ZHHH,2006-08-30 06:00,ZHHH 300600Z AUTO 27006KT 12SM 36/24 A2971 RMK SLP055 T03620238 57022 IEM_DS3505
ZHHH,2006-08-30 07:00,ZHHH 300700Z AUTO 23010KT 7SM 36/27 A2968 RMK T03600270 IEM_DS3505
ZHHH,2006-08-30 08:00,ZHHH 300800Z AUTO 22010KT 7SM 36/27 A2968 RMK T03600270 IEM_DS3505
ZHHH,2006-08-30 09:00,ZHHH 300900Z AUTO 22006KT 12SM 36/23 A2968 RMK SLP045 T03620227 57010 IEM_DS3505
ZHHH,2006-08-30 10:00,ZHHH 301000Z AUTO 24006KT 6SM 35/27 A2968 RMK T03500270 IEM_DS3505
ZHHH,2006-08-30 11:00,ZHHH 301100Z AUTO 23004KT 6SM 33/27 A2968 RMK T03300270 IEM_DS3505
ZHHH,2006-08-30 12:00,ZHHH 301200Z AUTO 22004KT 11SM 34/24 A2971 RMK SLP052 T03360236 52007 IEM_DS3505
ZHHH,2006-08-30 13:00,ZHHH 301300Z AUTO 23004KT 6SM 32/27 A2971 RMK T03200270 IEM_DS3505
ZHHH,2006-08-30 14:00,ZHHH 301400Z AUTO 20004KT 6SM 32/27 A2971 RMK T03200270 IEM_DS3505
ZHHH,2006-08-30 15:00,ZHHH 301500Z AUTO 25002KT 9SM 32/24 A2968 RMK SLP051 T03220243 57001 IEM_DS3505
ZHHH,2006-08-30 16:00,ZHHH 301600Z AUTO 12004KT 6SM 30/27 A2968 RMK T03000270 IEM_DS3505
ZHHH,2006-08-30 17:00,ZHHH 301700Z AUTO 15004KT 6SM 30/27 A2968 RMK T03000270 IEM_DS3505
ZHHH,2006-08-30 18:00,ZHHH 301800Z AUTO 09002KT 9SM 31/25 A2965 RMK SLP041 T03090248 57010 IEM_DS3505
ZHHH,2006-08-30 19:00,ZHHH 301900Z AUTO 11004KT 2 1/2SM 30/27 A2965 RMK T03000270 IEM_DS3505
ZHHH,2006-08-30 20:00,ZHHH 302000Z AUTO 09006KT 2 1/2SM 28/27 A2965 RMK T02800270 IEM_DS3505
ZHHH,2006-08-30 21:00,ZHHH 302100Z AUTO 11002KT 9SM 30/24 A2965 RMK SLP036 T03000239 57005 IEM_DS3505
ZHHH,2006-08-30 22:00,ZHHH 302200Z AUTO 09008KT 1 1/2SM 27/26 A2968 RMK T02700260 IEM_DS3505
ZHHH,2006-08-30 23:00,ZHHH 302300Z AUTO 09006KT 1 1/2SM 27/27 A2968 RMK T02700270 IEM_DS3505
ZHHH,2006-08-31 00:00,ZHHH 310000Z AUTO 18004KT 12SM 32/23 A2968 RMK SLP048 T03180228 52012 IEM_DS3505
ZHHH,2006-08-31 01:00,ZHHH 310100Z AUTO 13004KT 2 1/2SM 31/28 A2968 RMK T03100280 IEM_DS3505
ZHHH,2006-08-31 02:00,ZHHH 310200Z AUTO 21008KT 6SM 33/26 A2968 RMK T03300260 IEM_DS3505
ZHHH,2006-08-31 03:00,ZHHH 310300Z AUTO 27004KT 16SM 35/23 A2968 RMK SLP046 T03480228 57002 IEM_DS3505
ZHHH,2006-08-31 04:00,ZHHH 310400Z AUTO 22012KT 7SM 35/26 A2965 RMK T03500260 IEM_DS3505
ZHHH,2006-08-31 05:00,ZHHH 310500Z AUTO 20010KT 7SM 36/25 A2965 RMK T03600250 IEM_DS3505
ZHHH,2006-08-31 06:00,ZHHH 310600Z AUTO 20006KT 12SM 36/22 A2962 RMK SLP028 T03620220 57018 IEM_DS3505
ZHHH,2006-08-31 07:00,ZHHH 310700Z AUTO 22010KT 7SM 36/25 A2959 RMK T03600250 IEM_DS3505
ZHHH,2006-08-31 08:00,ZHHH 310800Z AUTO 23010KT 7SM 36/26 A2959 RMK T03600260 IEM_DS3505
ZHHH,2006-08-31 09:00,ZHHH 310900Z AUTO 25004KT 12SM 36/22 A2959 RMK SLP014 T03560225 57014 IEM_DS3505
ZHHH,2006-08-31 10:00,ZHHH 311000Z AUTO 26006KT 6SM 34/27 A2959 RMK T03400270 IEM_DS3505
ZHHH,2006-08-31 11:00,ZHHH 311100Z AUTO 25002KT 6SM 33/27 A2959 RMK T03300270 IEM_DS3505
ZHHH,2006-08-31 12:00,ZHHH 311200Z AUTO 20002KT 11SM 33/23 A2962 RMK SLP029 T03310234 52015 IEM_DS3505
ZHHH,2006-08-31 13:00,ZHHH 311300Z AUTO 27004KT 6SM 32/27 A2965 RMK T03200270 IEM_DS3505
ZHHH,2006-08-31 14:00,ZHHH 311400Z AUTO 32004KT 6SM 31/28 A2965 RMK T03100280 IEM_DS3505
ZHHH,2006-08-31 15:00,ZHHH 311500Z AUTO 04002KT 9SM 32/24 A2965 RMK SLP037 T03180241 52008 IEM_DS3505
ZHHH,2006-08-31 16:00,ZHHH 311600Z AUTO 04008KT 4SM 27/26 A2965 RMK T02700260 IEM_DS3505
ZHHH,2006-08-31 17:00,ZHHH 311700Z AUTO 04008KT 2 1/2SM 26/26 A2965 RMK T02600260 IEM_DS3505
ZHHH,2006-08-31 18:00,ZHHH 311800Z AUTO 07004KT 9SM 28/25 A2965 RMK SLP033 T02780246 57004 IEM_DS3505
ZHHH,2006-08-31 19:00,ZHHH 311900Z AUTO 04006KT 2 1/2SM 25/25 A2965 RMK T02500250 IEM_DS3505
ZHHH,2006-08-31 20:00,ZHHH 312000Z AUTO 05008KT 2 1/2SM 25/24 A2965 RMK T02500240 IEM_DS3505
ZHHH,2006-08-31 21:00,ZHHH 312100Z AUTO 02004KT 9SM 26/24 A2965 RMK SLP033 T02630238 54000 IEM_DS3505
ZHHH,2006-08-31 22:00,ZHHH 312200Z AUTO 04006KT 2 1/2SM 24/24 A2965 RMK T02400240 IEM_DS3505
ZHHH,2006-08-31 23:00,ZHHH 312300Z AUTO 05008KT 2 1/2SM 25/24 A2968 RMK T02500240 IEM_DS3505
ZHHH,2006-09-01 00:00,ZHHH 010000Z AUTO 02004KT 11SM 27/24 A2968 RMK SLP048 T02720237 52015 IEM_DS3505
ZHHH,2006-09-01 01:00,ZHHH 010100Z AUTO 08006KT 5SM 29/26 A2968 RMK T02900260 IEM_DS3505
ZHHH,2006-09-01 02:00,ZHHH 010200Z AUTO 08006KT 6SM 30/27 A2968 RMK T03000270 IEM_DS3505
ZHHH,2006-09-01 03:00,ZHHH 010300Z AUTO 04004KT 14SM 32/24 A2968 RMK SLP049 T03250243 52001 IEM_DS3505
ZHHH,2006-09-01 04:00,ZHHH 010400Z AUTO 6SM 32/27 A2968 RMK T03200270 IEM_DS3505
ZHHH,2006-09-01 05:00,ZHHH 010500Z AUTO 7SM 34/28 A2965 RMK T03400280 IEM_DS3505
ZHHH,2006-09-01 06:00,ZHHH 010600Z AUTO 11002KT 14SM 34/24 A2965 RMK SLP031 T03440243 57018 IEM_DS3505
ZHHH,2006-09-01 07:00,ZHHH 010700Z AUTO 35004KT 7SM 35/27 A2962 RMK T03500270 IEM_DS3505
ZHHH,2006-09-01 08:00,ZHHH 010800Z AUTO 35004KT 7SM 36/27 A2962 RMK T03600270 IEM_DS3505
ZHHH,2006-09-01 09:00,ZHHH 010900Z AUTO 34004KT 11SM 34/24 A2962 RMK SLP026 T03450238 57005 IEM_DS3505
ZHHH,2006-09-01 10:00,ZHHH 011000Z AUTO 02008KT 6SM 33/28 A2962 RMK T03300280 IEM_DS3505
ZHHH,2006-09-01 11:00,ZHHH 011100Z AUTO 03008KT 4SM 31/27 A2965 RMK T03100270 IEM_DS3505
ZHHH,2006-09-01 12:00,ZHHH 011200Z AUTO 04004KT 9SM 31/25 A2968 RMK SLP046 T03090248 52020 IEM_DS3505
ZHHH,2006-09-01 13:00,ZHHH 011300Z AUTO 04010KT 4SM 28/25 A2971 RMK T02800250 IEM_DS3505
ZHHH,2006-09-01 14:00,ZHHH 011400Z AUTO 04008KT 3SM 27/25 A2971 RMK T02700250 IEM_DS3505
ZHHH,2006-09-01 15:00,ZHHH 011500Z AUTO 04006KT 9SM 28/23 A2974 RMK SLP062 T02750233 52016 IEM_DS3505
ZHHH,2006-09-01 16:00,ZHHH 011600Z AUTO 03006KT 2 1/2SM 26/25 A2971 RMK T02600250 IEM_DS3505
ZHHH,2006-09-01 17:00,ZHHH 011700Z AUTO 02006KT 2 1/2SM 26/24 A2971 RMK T02600240 IEM_DS3505
ZHHH,2006-09-01 18:00,ZHHH 011800Z AUTO 04004KT 9SM 27/23 A2971 RMK SLP054 T02690227 57008 IEM_DS3505
ZHHH,2006-09-01 19:00,ZHHH 011900Z AUTO 02004KT 1 1/2SM 26/24 A2971 RMK T02600240 IEM_DS3505
ZHHH,2006-09-01 20:00,ZHHH 012000Z AUTO 03004KT 1 1/2SM 26/24 A2971 RMK T02600240 IEM_DS3505
ZHHH,2006-09-01 21:00,ZHHH 012100Z AUTO 04004KT 9SM 27/23 A2971 RMK SLP059 T02670228 52005 IEM_DS3505
ZHHH,2006-09-01 22:00,ZHHH 012200Z AUTO 03004KT 1 1/2SM 26/24 A2971 RMK T02600240 IEM_DS3505
ZHHH,2006-09-01 23:00,ZHHH 012300Z AUTO 04006KT 1 1/2SM 26/24 A2974 RMK T02600240 IEM_DS3505
ZHHH,2006-09-02 00:00,ZHHH 020000Z AUTO 04004KT 9SM 28/23 A2974 RMK SLP073 T02750229 52013 IEM_DS3505
ZHHH,2006-09-02 01:00,ZHHH 020100Z AUTO 06008KT 1 1/2SM 28/25 A2977 RMK T02800250 IEM_DS3505
ZHHH,2006-09-02 02:00,ZHHH 020200Z AUTO 03006KT 2SM 29/26 A2977 RMK T02900260 IEM_DS3505
ZHHH,2006-09-02 03:00,ZHHH 020300Z AUTO 04004KT 9SM 31/24 A2977 RMK SLP077 T03080240 52004 IEM_DS3505
ZHHH,2006-09-02 04:00,ZHHH 020400Z AUTO 05006KT 2 1/2SM 31/26 A2977 RMK T03100260 IEM_DS3505
ZHHH,2006-09-02 05:00,ZHHH 020500Z AUTO 06004KT 2 1/2SM 32/27 A2974 RMK T03200270 IEM_DS3505
ZHHH,2006-09-02 06:00,ZHHH 020600Z AUTO 36006KT 9SM 33/25 A2971 RMK SLP059 T03340246 57017 IEM_DS3505
ZHHH,2006-09-02 07:00,ZHHH 020700Z AUTO 02006KT 3SM 33/27 A2968 RMK T03300270 IEM_DS3505
ZHHH,2006-09-02 08:00,ZHHH 020800Z AUTO 04008KT 3SM 33/27 A2968 RMK T03300270 IEM_DS3505
ZHHH,2006-09-02 09:00,ZHHH 020900Z AUTO 04004KT 9SM 33/24 A2968 RMK SLP046 T03300242 57013 IEM_DS3505
ZHHH,2006-09-02 10:00,ZHHH 021000Z AUTO 04012KT 3SM 30/26 A2968 RMK T03000260 IEM_DS3505
ZHHH,2006-09-02 11:00,ZHHH 021100Z AUTO 05010KT 2SM 29/26 A2971 RMK T02900260 IEM_DS3505
ZHHH,2006-09-02 12:00,ZHHH 021200Z AUTO 04004KT 9SM 30/24 A2974 RMK SLP068 T02950237 52021 IEM_DS3505
ZHHH,2006-09-02 13:00,ZHHH 021300Z AUTO 04008KT 1 1/2SM 27/25 A2974 RMK T02700250 IEM_DS3505
ZHHH,2006-09-02 14:00,ZHHH 021400Z AUTO 04008KT 1 1/2SM 27/25 A2977 RMK T02700250 IEM_DS3505
ZHHH,2006-09-02 15:00,ZHHH 021500Z AUTO 04004KT 9SM 28/23 A2974 RMK SLP073 T02760228 52005 IEM_DS3505
ZHHH,2006-09-02 16:00,ZHHH 021600Z AUTO 03004KT 1 1/2SM 26/25 A2977 RMK T02600250 IEM_DS3505
ZHHH,2006-09-02 17:00,ZHHH 021700Z AUTO 1 1/4SM 26/25 A2974 RMK T02600250 IEM_DS3505
ZHHH,2006-09-02 18:00,ZHHH 021800Z AUTO 04004KT 9SM 27/23 A2974 RMK SLP069 T02710234 57003 IEM_DS3505
ZHHH,2006-09-02 19:00,ZHHH 021900Z AUTO 01004KT 1SM 26/25 A2974 RMK T02600250 IEM_DS3505
ZHHH,2006-09-02 20:00,ZHHH 022000Z AUTO 04004KT 1SM 26/25 A2974 RMK T02600250 IEM_DS3505
ZHHH,2006-09-02 21:00,ZHHH 022100Z AUTO 04004KT 9SM 27/23 A2974 RMK SLP066 T02690234 57003 IEM_DS3505
ZHHH,2006-09-02 22:00,ZHHH 022200Z AUTO 07006KT 1SM 26/25 A2974 RMK T02600250 IEM_DS3505
ZHHH,2006-09-02 23:00,ZHHH 022300Z AUTO 06004KT 1SM 26/25 A2974 RMK T02600250 IEM_DS3505
ZHHH,2006-09-03 00:00,ZHHH 030000Z AUTO 04002KT 7SM 28/23 A2977 RMK SLP077 T02770233 52010 IEM_DS3505
ZHHH,2006-09-03 01:00,ZHHH 030100Z AUTO 06006KT 1 1/4SM 27/25 A2977 RMK T02700250 IEM_DS3505
ZHHH,2006-09-03 02:00,ZHHH 030200Z AUTO 07006KT 1 1/4SM 28/25 A2977 RMK T02800250 IEM_DS3505
ZHHH,2006-09-03 03:00,ZHHH 030300Z AUTO 04004KT 9SM 31/24 A2977 RMK SLP075 T03090243 57002 IEM_DS3505
ZHHH,2006-09-03 04:00,ZHHH 030400Z AUTO 27004KT 2 1/2SM 31/27 A2974 RMK T03100270 IEM_DS3505
ZHHH,2006-09-03 05:00,ZHHH 030500Z AUTO 27004KT 2 1/2SM 33/27 A2971 RMK T03300270 IEM_DS3505
ZHHH,2006-09-03 06:00,ZHHH 030600Z AUTO 27002KT 7SM 33/24 A2968 RMK SLP051 T03340243 57023 IEM_DS3505
ZHHH,2006-09-03 07:00,ZHHH 030700Z AUTO 27004KT 2 1/2SM 34/27 A2968 RMK T03400270 IEM_DS3505
ZHHH,2006-09-03 08:00,ZHHH 030800Z AUTO 31006KT 3SM 34/27 A2965 RMK T03400270 IEM_DS3505
ZHHH,2006-09-03 09:00,ZHHH 030900Z AUTO 29004KT 7SM 34/24 A2965 RMK SLP037 T03380244 57014 IEM_DS3505
ZHHH,2006-09-03 10:00,ZHHH 031000Z AUTO 01004KT 2SM 33/27 A2965 RMK T03300270 IEM_DS3505
ZHHH,2006-09-03 11:00,ZHHH 031100Z AUTO 03004KT 2SM 32/27 A2968 RMK T03200270 IEM_DS3505
ZHHH,2006-09-03 12:00,ZHHH 031200Z AUTO 04004KT 7SM 32/25 A2971 RMK SLP052 T03160252 52015 IEM_DS3505
ZHHH,2006-09-03 13:00,ZHHH 031300Z AUTO 05008KT 2SM 29/27 A2971 RMK T02900270 IEM_DS3505
ZHHH,2006-09-03 14:00,ZHHH 031400Z AUTO 06008KT 2SM 28/27 A2971 RMK T02800270 IEM_DS3505
ZHHH,2006-09-03 15:00,ZHHH 031500Z AUTO 04002KT 9SM 30/25 A2974 RMK SLP063 T02980247 52011 IEM_DS3505
ZHHH,2006-09-03 16:00,ZHHH 031600Z AUTO 04006KT 2SM 27/26 A2971 RMK T02700260 IEM_DS3505
ZHHH,2006-09-03 17:00,ZHHH 031700Z AUTO 04006KT 2SM 27/26 A2971 RMK T02700260 IEM_DS3505
ZHHH,2006-09-03 18:00,ZHHH 031800Z AUTO 04004KT 9SM 28/24 A2971 RMK SLP053 T02850243 57010 IEM_DS3505
ZHHH,2006-09-03 19:00,ZHHH 031900Z AUTO 07006KT 2SM 27/26 A2968 RMK T02700260 IEM_DS3505
ZHHH,2006-09-03 20:00,ZHHH 032000Z AUTO 01004KT 2SM 26/26 A2968 RMK T02600260 IEM_DS3505
ZHHH,2006-09-03 21:00,ZHHH 032100Z AUTO 04004KT 9SM 28/25 A2971 RMK SLP053 T02780246 54000 IEM_DS3505
ZHHH,2006-09-03 22:00,ZHHH 032200Z AUTO 06004KT 1 1/2SM 26/26 A2971 RMK T02600260 IEM_DS3505
ZHHH,2006-09-03 23:00,ZHHH 032300Z AUTO 1 1/4SM 26/26 A2974 RMK T02600260 IEM_DS3505
ZHHH,2006-09-04 00:00,ZHHH 040000Z AUTO 07002KT 9SM 29/24 A2974 RMK SLP066 T02890245 52013 IEM_DS3505
ZHHH,2006-09-04 01:00,ZHHH 040100Z AUTO 12004KT 1 1/2SM 29/27 A2974 RMK T02900270 IEM_DS3505
ZHHH,2006-09-04 02:00,ZHHH 040200Z AUTO 14004KT 1 1/2SM 30/27 A2974 RMK T03000270 IEM_DS3505
ZHHH,2006-09-04 03:00,ZHHH 040300Z AUTO 11004KT 7SM 34/25 A2971 RMK SLP059 T03360248 57007 IEM_DS3505
ZHHH,2006-09-04 04:00,ZHHH 040400Z AUTO 05004KT 1 1/2SM 34/27 A2968 RMK T03400270 IEM_DS3505
ZHHH,2006-09-04 05:00,ZHHH 040500Z AUTO 1 1/2SM 33/27 A2968 RMK T03300270 IEM_DS3505
ZHHH,2006-09-04 06:00,ZHHH 040600Z AUTO 27006KT 9SM 29/24 A2965 RMK 60000 SLP040 T02930237 57019 IEM_DS3505
ZHHH,2006-09-04 07:00,ZHHH 040700Z AUTO 12014KT 3SM 26/25 A2965 RMK T02600250 IEM_DS3505
ZHHH,2006-09-04 08:00,ZHHH 040800Z AUTO 04014KT 7SM 28/25 A2965 RMK T02800250 IEM_DS3505
ZHHH,2006-09-04 09:00,ZHHH 040900Z AUTO 36004KT 9SM 28/22 A2968 RMK SLP049 T02760221 52008 IEM_DS3505
ZHHH,2006-09-04 10:00,ZHHH 041000Z AUTO 04014G23KT 6SM 22/20 A2971 RMK T02200200 IEM_DS3505
ZHHH,2006-09-04 11:00,ZHHH 041100Z AUTO 03014KT 6SM 20/18 A2974 RMK T02000180 IEM_DS3505
ZHHH,2006-09-04 12:00,ZHHH 041200Z AUTO 04008G23KT 9SM 21/16 A2980 RMK 60000 SLP086 T02100162 52037 IEM_DS3505
ZHHH,2006-09-04 13:00,ZHHH 041300Z AUTO 02014KT 7SM 20/17 A2983 RMK T02000170 IEM_DS3505
ZHHH,2006-09-04 14:00,ZHHH 041400Z AUTO 02008KT 7SM 20/17 A2985 RMK T02000170 IEM_DS3505
ZHHH,2006-09-04 15:00,ZHHH 041500Z AUTO 04004KT 9SM 20/16 A2985 RMK SLP110 T02050157 52024 IEM_DS3505
ZHHH,2006-09-04 16:00,ZHHH 041600Z AUTO 02008KT 7SM 19/17 A2985 RMK T01900170 IEM_DS3505
ZHHH,2006-09-04 17:00,ZHHH 041700Z AUTO 35006KT 7SM 19/17 A2985 RMK T01900170 IEM_DS3505
ZHHH,2006-09-04 18:00,ZHHH 041800Z AUTO 34004KT 9SM 20/15 A2983 RMK SLP105 T02000152 57005 IEM_DS3505
ZHHH,2006-09-04 19:00,ZHHH 041900Z AUTO 36010KT 7SM 19/16 A2985 RMK T01900160 IEM_DS3505
ZHHH,2006-09-04 20:00,ZHHH 042000Z AUTO 02012KT 6SM 19/16 A2985 RMK T01900160 IEM_DS3505
ZHHH,2006-09-04 21:00,ZHHH 042100Z AUTO 02010KT 9SM 19/15 A2985 RMK 70000 SLP113 T01910146 52008 IEM_DS3505
ZHHH,2006-09-04 22:00,ZHHH 042200Z AUTO 02010KT 7SM 18/16 A2988 RMK T01800160 IEM_DS3505
ZHHH,2006-09-04 23:00,ZHHH 042300Z AUTO 01012KT 7SM 18/16 A2991 RMK T01800160 IEM_DS3505
ZHHH,2006-09-05 00:00,ZHHH 050000Z AUTO 34006KT 9SM 18/14 A2994 RMK 70000 SLP138 T01850144 52024 IEM_DS3505
ZHHH,2006-09-05 01:00,ZHHH 050100Z AUTO 01010KT 7SM 17/16 A2994 RMK T01700160 IEM_DS3505
ZHHH,2006-09-05 02:00,ZHHH 050200Z AUTO 01010G19KT 7SM 20/16 A2994 RMK T02000160 IEM_DS3505
ZHHH,2006-09-05 03:00,ZHHH 050300Z AUTO 32004G19KT 11SM 21/15 A2994 RMK SLP141 T02080154 52003 IEM_DS3505
ZHHH,2006-09-05 04:00,ZHHH 050400Z AUTO 01010KT 7SM 21/16 A2994 RMK T02100160 IEM_DS3505
ZHHH,2006-09-05 05:00,ZHHH 050500Z AUTO 02012KT 7SM 21/16 A2994 RMK T02100160 IEM_DS3505
ZHHH,2006-09-05 06:00,ZHHH 050600Z AUTO 34006KT 11SM 21/14 A2991 RMK 60002 SLP131 T02110143 57009 IEM_DS3505
ZHHH,2006-09-05 07:00,ZHHH 050700Z AUTO 01010KT 7SM 20/17 A2991 RMK T02000170 IEM_DS3505
ZHHH,2006-09-05 08:00,ZHHH 050800Z AUTO 36008KT 7SM 19/16 A2991 RMK T01900160 IEM_DS3505
ZHHH,2006-09-05 09:00,ZHHH 050900Z AUTO 34006KT 11SM 20/15 A2991 RMK SLP126 T01980146 57006 IEM_DS3505
ZHHH,2006-09-05 10:00,ZHHH 051000Z AUTO 02006KT 7SM 18/16 A2991 RMK T01800160 IEM_DS3505
ZHHH,2006-09-05 11:00,ZHHH 051100Z AUTO 02006KT 7SM 18/16 A2991 RMK T01800160 IEM_DS3505
ZHHH,2006-09-05 12:00,ZHHH 051200Z AUTO 04004KT 12SM 19/15 A2991 RMK 60000 SLP131 T01910146 52005 IEM_DS3505
ZHHH,2006-09-05 13:00,ZHHH 051300Z AUTO 04004KT 6SM 18/16 A2994 RMK T01800160 IEM_DS3505
ZHHH,2006-09-05 14:00,ZHHH 051400Z AUTO 03004KT 6SM 17/16 A2994 RMK T01700160 IEM_DS3505
ZHHH,2006-09-05 15:00,ZHHH 051500Z AUTO 04004KT 12SM 18/14 A2991 RMK SLP133 T01840141 52002 IEM_DS3505
ZHHH,2006-09-05 16:00,ZHHH 051600Z AUTO 01004KT 6SM 17/16 A2991 RMK T01700160 IEM_DS3505
ZHHH,2006-09-05 17:00,ZHHH 051700Z AUTO 36004KT 6SM 17/15 A2991 RMK T01700150 IEM_DS3505
ZHHH,2006-09-05 18:00,ZHHH 051800Z AUTO 27004KT 11SM 18/14 A2991 RMK SLP125 T01800141 57008 IEM_DS3505
ZHHH,2006-09-05 19:00,ZHHH 051900Z AUTO 01004KT 4SM 17/16 A2988 RMK T01700160 IEM_DS3505
ZHHH,2006-09-05 20:00,ZHHH 052000Z AUTO 34004KT 3SM 16/15 A2988 RMK T01600150 IEM_DS3505
ZHHH,2006-09-05 21:00,ZHHH 052100Z AUTO 29002KT 9SM 17/15 A2988 RMK 70002 SLP118 T01710146 57007 IEM_DS3505
ZHHH,2006-09-05 22:00,ZHHH 052200Z AUTO 36004KT 2 1/2SM 15/15 A2988 RMK T01500150 IEM_DS3505
ZHHH,2006-09-05 23:00,ZHHH 052300Z AUTO 3SM 16/15 A2991 RMK T01600150 IEM_DS3505
ZHHH,2006-09-06 00:00,ZHHH 060000Z AUTO 04002KT 12SM 19/14 A2991 RMK 70002 SLP131 T01930143 52013 IEM_DS3505
ZHHH,2006-09-06 01:00,ZHHH 060100Z AUTO 6SM 20/16 A2991 RMK T02000160 IEM_DS3505
ZHHH,2006-09-06 02:00,ZHHH 060200Z AUTO 6SM 22/15 A2991 RMK T02200150 IEM_DS3505
ZHHH,2006-09-06 03:00,ZHHH 060300Z AUTO 16002KT 11SM 23/12 A2988 RMK SLP121 T02290116 57009 IEM_DS3505
ZHHH,2006-09-06 04:00,ZHHH 060400Z AUTO 7SM 23/16 A2988 RMK T02300160 IEM_DS3505
ZHHH,2006-09-06 05:00,ZHHH 060500Z AUTO 6SM 24/16 A2985 RMK T02400160 IEM_DS3505
ZHHH,2006-09-06 06:00,ZHHH 060600Z AUTO 36002KT 11SM 26/13 A2983 RMK SLP102 T02550130 57019 IEM_DS3505
ZHHH,2006-09-06 07:00,ZHHH 060700Z AUTO 17006KT 6SM 25/17 A2983 RMK T02500170 IEM_DS3505
ZHHH,2006-09-06 08:00,ZHHH 060800Z AUTO 13006KT 6SM 25/17 A2980 RMK T02500170 IEM_DS3505
ZHHH,2006-09-06 09:00,ZHHH 060900Z AUTO 07002KT 11SM 27/13 A2980 RMK SLP085 T02680132 57017 IEM_DS3505
ZHHH,2006-09-06 10:00,ZHHH 061000Z AUTO 13004KT 6SM 25/16 A2980 RMK T02500160 IEM_DS3505
ZHHH,2006-09-06 11:00,ZHHH 061100Z AUTO 14004KT 6SM 24/16 A2980 RMK T02400160 IEM_DS3505
ZHHH,2006-09-06 12:00,ZHHH 061200Z AUTO 04002KT 11SM 24/15 A2980 RMK SLP087 T02370147 52002 IEM_DS3505
ZHHH,2006-09-06 13:00,ZHHH 061300Z AUTO 13006KT 6SM 22/18 A2980 RMK T02200180 IEM_DS3505
ZHHH,2006-09-06 14:00,ZHHH 061400Z AUTO 14006KT 6SM 22/18 A2983 RMK T02200180 IEM_DS3505
ZHHH,2006-09-06 15:00,ZHHH 061500Z AUTO 14002KT 9SM 23/18 A2985 RMK SLP103 T02260175 52016 IEM_DS3505
ZHHH,2006-09-06 16:00,ZHHH 061600Z AUTO 14006KT 3SM 21/19 A2983 RMK T02100190 IEM_DS3505
ZHHH,2006-09-06 17:00,ZHHH 061700Z AUTO 13006KT 3SM 20/19 A2983 RMK T02000190 IEM_DS3505
ZHHH,2006-09-06 18:00,ZHHH 061800Z AUTO 07002KT 9SM 22/18 A2983 RMK SLP097 T02210183 57006 IEM_DS3505
ZHHH,2006-09-06 19:00,ZHHH 061900Z AUTO 12004KT 2SM 20/19 A2980 RMK T02000190 IEM_DS3505
ZHHH,2006-09-06 20:00,ZHHH 062000Z AUTO 2SM 20/19 A2980 RMK T02000190 IEM_DS3505
ZHHH,2006-09-06 21:00,ZHHH 062100Z AUTO 11004KT 9SM 22/18 A2983 RMK SLP094 T02180182 57003 IEM_DS3505
ZHHH,2006-09-06 22:00,ZHHH 062200Z AUTO 12004KT 2SM 20/20 A2980 RMK T02000200 IEM_DS3505
ZHHH,2006-09-06 23:00,ZHHH 062300Z AUTO 11006KT 2SM 20/20 A2983 RMK T02000200 IEM_DS3505
ZHHH,2006-09-07 00:00,ZHHH 070000Z AUTO 16002KT 9SM 23/18 A2983 RMK SLP100 T02270178 52006 IEM_DS3505
ZHHH,2006-09-07 01:00,ZHHH 070100Z AUTO 12006KT 2SM 22/20 A2983 RMK T02200200 IEM_DS3505
ZHHH,2006-09-07 02:00,ZHHH 070200Z AUTO 13006KT 2SM 23/21 A2983 RMK T02300210 IEM_DS3505
ZHHH,2006-09-07 03:00,ZHHH 070300Z AUTO 09004KT 11SM 26/18 A2983 RMK SLP101 T02580177 52001 IEM_DS3505
ZHHH,2006-09-07 04:00,ZHHH 070400Z AUTO 12006KT 2 1/2SM 25/21 A2983 RMK T02500210 IEM_DS3505
ZHHH,2006-09-07 05:00,ZHHH 070500Z AUTO 15006KT 3SM 26/20 A2980 RMK T02600200 IEM_DS3505
ZHHH,2006-09-07 06:00,ZHHH 070600Z AUTO 14004KT 11SM 28/16 A2977 RMK SLP079 T02810161 57022 IEM_DS3505
ZHHH,2006-09-07 07:00,ZHHH 070700Z AUTO 09004KT 4SM 27/21 A2977 RMK T02700210 IEM_DS3505
ZHHH,2006-09-07 08:00,ZHHH 070800Z AUTO 09006KT 3SM 27/20 A2974 RMK T02700200 IEM_DS3505
ZHHH,2006-09-07 09:00,ZHHH 070900Z AUTO 07004KT 9SM 27/18 A2974 RMK SLP072 T02710181 57007 IEM_DS3505
ZHHH,2006-09-07 10:00,ZHHH 071000Z AUTO 06006KT 4SM 26/19 A2977 RMK T02600190 IEM_DS3505
ZHHH,2006-09-07 11:00,ZHHH 071100Z AUTO 04006KT 4SM 25/19 A2977 RMK T02500190 IEM_DS3505
ZHHH,2006-09-07 12:00,ZHHH 071200Z AUTO 04004KT 9SM 26/16 A2977 RMK SLP080 T02570165 52008 IEM_DS3505
ZHHH,2006-09-07 13:00,ZHHH 071300Z AUTO 05008KT 4SM 24/20 A2980 RMK T02400200 IEM_DS3505
ZHHH,2006-09-07 14:00,ZHHH 071400Z AUTO 04010KT 4SM 22/20 A2983 RMK T02200200 IEM_DS3505
ZHHH,2006-09-07 15:00,ZHHH 071500Z AUTO 02008KT 9SM 23/18 A2983 RMK SLP100 T02330180 52020 IEM_DS3505
ZHHH,2006-09-07 16:00,ZHHH 071600Z AUTO 04010KT 4SM 21/18 A2983 RMK T02100180 IEM_DS3505
ZHHH,2006-09-07 17:00,ZHHH 071700Z AUTO 02006KT 4SM 21/18 A2983 RMK T02100180 IEM_DS3505
ZHHH,2006-09-07 18:00,ZHHH 071800Z AUTO 04004KT 9SM 22/17 A2983 RMK SLP097 T02170167 57003 IEM_DS3505
ZHHH,2006-09-07 19:00,ZHHH 071900Z AUTO 36006KT 4SM 20/17 A2983 RMK T02000170 IEM_DS3505
ZHHH,2006-09-07 20:00,ZHHH 072000Z AUTO 35006KT 4SM 19/17 A2983 RMK T01900170 IEM_DS3505
ZHHH,2006-09-07 21:00,ZHHH 072100Z AUTO 34004KT 9SM 20/17 A2985 RMK SLP102 T01990169 52005 IEM_DS3505
ZHHH,2006-09-07 22:00,ZHHH 072200Z AUTO 01006KT 2 1/2SM 19/18 A2985 RMK T01900180 IEM_DS3505
ZHHH,2006-09-07 23:00,ZHHH 072300Z AUTO 04004KT 4SM 19/18 A2988 RMK T01900180 IEM_DS3505
ZHHH,2006-09-08 00:00,ZHHH 080000Z AUTO 04004KT 9SM 20/17 A2988 RMK SLP122 T02000174 52020 IEM_DS3505
ZHHH,2006-09-08 01:00,ZHHH 080100Z AUTO 03006KT 4SM 19/18 A2991 RMK T01900180 IEM_DS3505
ZHHH,2006-09-08 02:00,ZHHH 080200Z AUTO 02004KT 2 1/2SM 18/18 A2994 RMK T01800180 IEM_DS3505
ZHHH,2006-09-08 03:00,ZHHH 080300Z AUTO 36006KT 6SM 19/17 A2997 RMK SLP144 T01870174 52022 IEM_DS3505
ZHHH,2006-09-08 04:00,ZHHH 080400Z AUTO 36008KT 5SM 19/19 A2994 RMK T01900190 IEM_DS3505
ZHHH,2006-09-08 05:00,ZHHH 080500Z AUTO 03008KT 7SM 19/18 A2994 RMK T01900180 IEM_DS3505
ZHHH,2006-09-08 06:00,ZHHH 080600Z AUTO 04006KT 11SM 20/17 A2994 RMK 60008 SLP142 T01950171 57003 IEM_DS3505
ZHHH,2006-09-08 07:00,ZHHH 080700Z AUTO 02006KT 2SM 18/18 A2997 RMK T01800180 IEM_DS3505
ZHHH,2006-09-08 08:00,ZHHH 080800Z AUTO 01006KT 7SM 18/18 A2997 RMK T01800180 IEM_DS3505
ZHHH,2006-09-08 09:00,ZHHH 080900Z AUTO 32004KT 11SM 20/18 A2997 RMK SLP150 T01960179 52008 IEM_DS3505
ZHHH,2006-09-08 10:00,ZHHH 081000Z AUTO 35006KT 7SM 19/19 A3000 RMK T01900190 IEM_DS3505
ZHHH,2006-09-08 11:00,ZHHH 081100Z AUTO 36006KT 3SM 19/19 A3000 RMK T01900190 IEM_DS3505
ZHHH,2006-09-08 12:00,ZHHH 081200Z AUTO 04004KT 7SM 19/17 A3003 RMK 60024 SLP170 T01920170 52020 IEM_DS3505
ZHHH,2006-09-08 13:00,ZHHH 081300Z AUTO 02004KT 2 1/2SM 18/18 A3006 RMK T01800180 IEM_DS3505
ZHHH,2006-09-08 14:00,ZHHH 081400Z AUTO 36004KT 2 1/2SM 19/18 A3009 RMK T01900180 IEM_DS3505
ZHHH,2006-09-08 15:00,ZHHH 081500Z AUTO 32002KT 6SM 19/16 A3009 RMK SLP194 T01910165 52024 IEM_DS3505
ZHHH,2006-09-08 16:00,ZHHH 081600Z AUTO 04004KT 1 1/2SM 18/18 A3009 RMK T01800180 IEM_DS3505
ZHHH,2006-09-08 17:00,ZHHH 081700Z AUTO 02006KT 1 1/4SM 18/18 A3012 RMK T01800180 IEM_DS3505
ZHHH,2006-09-08 18:00,ZHHH 081800Z AUTO 02002KT 7SM 19/17 A3012 RMK 60003 SLP194 T01930173 54000 IEM_DS3505
ZHHH,2006-09-08 19:00,ZHHH 081900Z AUTO 02006KT 1 1/4SM 18/18 A3009 RMK T01800180 IEM_DS3505
ZHHH,2006-09-08 20:00,ZHHH 082000Z AUTO 02006KT 1 1/4SM 18/18 A3012 RMK T01800180 IEM_DS3505
ZHHH,2006-09-08 21:00,ZHHH 082100Z AUTO 04004KT 9SM 19/16 A3012 RMK 70034 SLP198 T01890163 52004 IEM_DS3505
ZHHH,2006-09-08 22:00,ZHHH 082200Z AUTO 01004KT 1 1/2SM 17/17 A3015 RMK T01700170 IEM_DS3505
ZHHH,2006-09-08 23:00,ZHHH 082300Z AUTO 02006KT 3SM 18/16 A3015 RMK T01800160 IEM_DS3505
ZHHH,2006-09-09 00:00,ZHHH 090000Z AUTO 04004KT 11SM 20/13 A3018 RMK 70034 SLP216 T01950128 52018 IEM_DS3505
ZHHH,2006-09-09 01:00,ZHHH 090100Z AUTO 03010KT 6SM 21/13 A3018 RMK T02100130 IEM_DS3505
ZHHH,2006-09-09 02:00,ZHHH 090200Z AUTO 02010KT 6SM 22/12 A3018 RMK T02200120 IEM_DS3505
ZHHH,2006-09-09 03:00,ZHHH 090300Z AUTO 36004KT 12SM 24/07 A3018 RMK SLP225 T02380074 52009 IEM_DS3505
ZHHH,2006-09-09 04:00,ZHHH 090400Z AUTO 03012KT 6SM 25/11 A3018 RMK T02500110 IEM_DS3505
ZHHH,2006-09-09 05:00,ZHHH 090500Z AUTO 04014KT 6SM 26/09 A3018 RMK T02600090 IEM_DS3505
ZHHH,2006-09-09 06:00,ZHHH 090600Z AUTO 11004KT 12SM 26/06 A3015 RMK SLP209 T02570063 57016 IEM_DS3505
ZHHH,2006-09-09 07:00,ZHHH 090700Z AUTO 03010KT 6SM 26/10 A3012 RMK T02600100 IEM_DS3505
ZHHH,2006-09-09 08:00,ZHHH 090800Z AUTO 03010KT 6SM 25/08 A3012 RMK T02500080 IEM_DS3505
ZHHH,2006-09-09 09:00,ZHHH 090900Z AUTO 04006KT 12SM 25/06 A3012 RMK SLP201 T02520059 57008 IEM_DS3505
ZHHH,2006-09-09 10:00,ZHHH 091000Z AUTO 04010KT 6SM 23/11 A3015 RMK T02300110 IEM_DS3505
ZHHH,2006-09-09 11:00,ZHHH 091100Z AUTO 04008KT 6SM 21/11 A3015 RMK T02100110 IEM_DS3505
ZHHH,2006-09-09 12:00,ZHHH 091200Z AUTO 02004KT 11SM 22/08 A3018 RMK SLP215 T02160085 52014 IEM_DS3505
ZHHH,2006-09-09 13:00,ZHHH 091300Z AUTO 02004KT 6SM 21/11 A3018 RMK T02100110 IEM_DS3505
ZHHH,2006-09-09 14:00,ZHHH 091400Z AUTO 04006KT 6SM 20/12 A3021 RMK T02000120 IEM_DS3505
ZHHH,2006-09-09 15:00,ZHHH 091500Z AUTO 32002KT 11SM 20/10 A3021 RMK SLP231 T02000101 52016 IEM_DS3505
ZHHH,2006-09-09 16:00,ZHHH 091600Z AUTO 04006KT 6SM 19/12 A3021 RMK T01900120 IEM_DS3505
ZHHH,2006-09-09 17:00,ZHHH 091700Z AUTO 04006KT 6SM 19/12 A3021 RMK T01900120 IEM_DS3505
ZHHH,2006-09-09 18:00,ZHHH 091800Z AUTO 25002KT 11SM 19/12 A3021 RMK SLP226 T01880116 57005 IEM_DS3505
ZHHH,2006-09-09 19:00,ZHHH 091900Z AUTO 04006KT 6SM 18/13 A3018 RMK T01800130 IEM_DS3505
ZHHH,2006-09-09 20:00,ZHHH 092000Z AUTO 07004KT 6SM 17/14 A3018 RMK T01700140 IEM_DS3505
ZHHH,2006-09-09 21:00,ZHHH 092100Z AUTO 04004KT 11SM 18/11 A3018 RMK SLP221 T01850108 57005 IEM_DS3505
ZHHH,2006-09-09 22:00,ZHHH 092200Z AUTO 05004KT 6SM 17/13 A3018 RMK T01700130 IEM_DS3505
ZHHH,2006-09-09 23:00,ZHHH 092300Z AUTO 02004KT 6SM 17/13 A3021 RMK T01700130 IEM_DS3505
ZHHH,2006-09-10 00:00,ZHHH 100000Z AUTO 07002KT 11SM 19/12 A3021 RMK SLP230 T01930116 52009 IEM_DS3505
ZHHH,2006-09-10 01:00,ZHHH 100100Z AUTO 02006KT 6SM 21/13 A3021 RMK T02100130 IEM_DS3505
ZHHH,2006-09-10 02:00,ZHHH 100200Z AUTO 04006KT 6SM 24/11 A3021 RMK T02400110 IEM_DS3505
ZHHH,2006-09-10 03:00,ZHHH 100300Z AUTO 09002KT 11SM 23/10 A3018 RMK SLP224 T02320103 57006 IEM_DS3505
ZHHH,2006-09-10 04:00,ZHHH 100400Z AUTO 03004KT 6SM 24/11 A3015 RMK T02400110 IEM_DS3505
ZHHH,2006-09-10 05:00,ZHHH 100500Z AUTO 03006KT 6SM 24/11 A3015 RMK T02400110 IEM_DS3505
ZHHH,2006-09-10 06:00,ZHHH 100600Z AUTO 02002KT 9SM 24/08 A3012 RMK SLP202 T02440080 57022 IEM_DS3505
ZHHH,2006-09-10 07:00,ZHHH 100700Z AUTO 02006KT 6SM 25/09 A3012 RMK T02500090 IEM_DS3505
ZHHH,2006-09-10 08:00,ZHHH 100800Z AUTO 03004KT 6SM 24/09 A3009 RMK T02400090 IEM_DS3505
ZHHH,2006-09-10 09:00,ZHHH 100900Z AUTO 22002KT 9SM 24/08 A3006 RMK SLP187 T02410081 57015 IEM_DS3505
ZHHH,2006-09-10 10:00,ZHHH 101000Z AUTO 29004KT 6SM 23/16 A3009 RMK T02300160 IEM_DS3505
ZHHH,2006-09-10 11:00,ZHHH 101100Z AUTO 01004KT 6SM 22/15 A3009 RMK T02200150 IEM_DS3505
ZHHH,2006-09-10 12:00,ZHHH 101200Z AUTO 18002KT 7SM 21/13 A3009 RMK 60000 SLP191 T02100132 52004 IEM_DS3505
ZHHH,2006-09-10 13:00,ZHHH 101300Z AUTO 6SM 21/15 A3012 RMK T02100150 IEM_DS3505
ZHHH,2006-09-10 14:00,ZHHH 101400Z AUTO 6SM 21/14 A3009 RMK T02100140 IEM_DS3505
ZHHH,2006-09-10 15:00,ZHHH 101500Z AUTO 07002KT 7SM 20/15 A3009 RMK SLP193 T02050146 52002 IEM_DS3505
ZHHH,2006-09-10 16:00,ZHHH 101600Z AUTO 05002KT 6SM 20/14 A3009 RMK T02000140 IEM_DS3505
ZHHH,2006-09-10 17:00,ZHHH 101700Z AUTO 05004KT 6SM 19/14 A3006 RMK T01900140 IEM_DS3505
ZHHH,2006-09-10 18:00,ZHHH 101800Z AUTO 04002KT 7SM 20/13 A3006 RMK SLP180 T02020132 57012 IEM_DS3505
ZHHH,2006-09-10 19:00,ZHHH 101900Z AUTO 06004KT 6SM 19/14 A3006 RMK T01900140 IEM_DS3505
ZHHH,2006-09-10 20:00,ZHHH 102000Z AUTO 07006KT 6SM 18/15 A3006 RMK T01800150 IEM_DS3505
ZHHH,2006-09-10 21:00,ZHHH 102100Z AUTO 07004KT 9SM 19/14 A3006 RMK 70000 SLP176 T01930139 57005 IEM_DS3505
ZHHH,2006-09-10 22:00,ZHHH 102200Z AUTO 10006KT 6SM 18/16 A3006 RMK T01800160 IEM_DS3505
ZHHH,2006-09-10 23:00,ZHHH 102300Z AUTO 10002KT 3SM 18/16 A3009 RMK T01800160 IEM_DS3505
ZHHH,2006-09-11 00:00,ZHHH 110000Z AUTO 07002KT 7SM 20/15 A3009 RMK 60000 70000 SLP193 T02050153 52017 IEM_DS3505
ZHHH,2006-09-11 01:00,ZHHH 110100Z AUTO 11004KT 3SM 20/17 A3012 RMK T02000170 IEM_DS3505
ZHHH,2006-09-11 02:00,ZHHH 110200Z AUTO 11004KT 4SM 21/15 A3012 RMK T02100150 IEM_DS3505
ZHHH,2006-09-11 03:00,ZHHH 110300Z AUTO 07002KT 9SM 23/15 A3012 RMK SLP195 T02300151 52002 IEM_DS3505
ZHHH,2006-09-11 04:00,ZHHH 110400Z AUTO 13006KT 4SM 23/16 A3009 RMK T02300160 IEM_DS3505
ZHHH,2006-09-11 05:00,ZHHH 110500Z AUTO 13006KT 4SM 23/15 A3009 RMK T02300150 IEM_DS3505
ZHHH,2006-09-11 06:00,ZHHH 110600Z AUTO 18004KT 11SM 24/12 A3009 RMK 60000 SLP186 T02410121 57008 IEM_DS3505
ZHHH,2006-09-11 07:00,ZHHH 110700Z AUTO 13008KT 6SM 24/15 A3006 RMK T02400150 IEM_DS3505
ZHHH,2006-09-11 08:00,ZHHH 110800Z AUTO 12008KT 6SM 23/14 A3006 RMK T02300140 IEM_DS3505
ZHHH,2006-09-11 09:00,ZHHH 110900Z AUTO 14004KT 11SM 23/10 A3006 RMK SLP181 T02330104 57006 IEM_DS3505
ZHHH,2006-09-11 10:00,ZHHH 111000Z AUTO 14010KT 6SM 21/15 A3006 RMK T02100150 IEM_DS3505
ZHHH,2006-09-11 11:00,ZHHH 111100Z AUTO 15006KT 6SM 19/14 A3009 RMK T01900140 IEM_DS3505
ZHHH,2006-09-11 12:00,ZHHH 111200Z AUTO 11004KT 9SM 20/13 A3009 RMK SLP192 T02010126 52011 IEM_DS3505
ZHHH,2006-09-11 13:00,ZHHH 111300Z AUTO 14004KT 6SM 18/15 A3012 RMK T01800150 IEM_DS3505
ZHHH,2006-09-11 14:00,ZHHH 111400Z AUTO 15004KT 6SM 18/15 A3012 RMK T01800150 IEM_DS3505
ZHHH,2006-09-11 15:00,ZHHH 111500Z AUTO 14002KT 9SM 18/14 A3012 RMK SLP197 T01850144 52005 IEM_DS3505
ZHHH,2006-09-11 16:00,ZHHH 111600Z AUTO 09006KT 6SM 17/15 A3012 RMK T01700150 IEM_DS3505
ZHHH,2006-09-11 17:00,ZHHH 111700Z AUTO 07004KT 6SM 16/15 A3012 RMK T01600150 IEM_DS3505
ZHHH,2006-09-11 18:00,ZHHH 111800Z AUTO 02002KT 9SM 18/14 A3012 RMK SLP196 T01770142 57001 IEM_DS3505
ZHHH,2006-09-11 19:00,ZHHH 111900Z AUTO 03004KT 3SM 16/15 A3012 RMK T01600150 IEM_DS3505
ZHHH,2006-09-11 20:00,ZHHH 112000Z AUTO 07004KT 3SM 16/15 A3012 RMK T01600150 IEM_DS3505
ZHHH,2006-09-11 21:00,ZHHH 112100Z AUTO 02002KT 9SM 17/15 A3012 RMK 70000 SLP198 T01680148 52002 IEM_DS3505
ZHHH,2006-09-11 22:00,ZHHH 112200Z AUTO 01004KT 2 1/2SM 15/14 A3012 RMK T01500140 IEM_DS3505
ZHHH,2006-09-11 23:00,ZHHH 112300Z AUTO 05004KT 2 1/2SM 15/15 A3012 RMK T01500150 IEM_DS3505
ZHHH,2006-09-12 00:00,ZHHH 120000Z AUTO 04004KT 9SM 18/14 A3012 RMK 70000 SLP202 T01750142 52004 IEM_DS3505
ZHHH,2006-09-12 01:00,ZHHH 120100Z AUTO 36004KT 6SM 21/16 A3015 RMK T02100160 IEM_DS3505
ZHHH,2006-09-12 02:00,ZHHH 120200Z AUTO 08006KT 6SM 22/16 A3015 RMK T02200160 IEM_DS3505
ZHHH,2006-09-12 03:00,ZHHH 120300Z AUTO 04004KT 11SM 24/13 A3012 RMK SLP203 T02370127 52001 IEM_DS3505
ZHHH,2006-09-12 04:00,ZHHH 120400Z AUTO 09006KT 6SM 25/15 A3012 RMK T02500150 IEM_DS3505
ZHHH,2006-09-12 05:00,ZHHH 120500Z AUTO 7SM 26/16 A3009 RMK T02600160 IEM_DS3505
ZHHH,2006-09-12 06:00,ZHHH 120600Z AUTO 14002KT 12SM 27/13 A3006 RMK SLP183 T02660130 57019 IEM_DS3505
ZHHH,2006-09-12 07:00,ZHHH 120700Z AUTO 14006KT 7SM 26/16 A3006 RMK T02600160 IEM_DS3505
ZHHH,2006-09-12 08:00,ZHHH 120800Z AUTO 08008KT 7SM 26/16 A3006 RMK T02600160 IEM_DS3505
ZHHH,2006-09-12 09:00,ZHHH 120900Z AUTO 07004KT 12SM 27/13 A3006 RMK SLP177 T02700126 57006 IEM_DS3505
ZHHH,2006-09-12 10:00,ZHHH 121000Z AUTO 05008KT 6SM 25/17 A3006 RMK T02500170 IEM_DS3505
ZHHH,2006-09-12 11:00,ZHHH 121100Z AUTO 04006KT 6SM 23/17 A3009 RMK T02300170 IEM_DS3505
ZHHH,2006-09-12 12:00,ZHHH 121200Z AUTO 04006KT 11SM 24/15 A3012 RMK SLP192 T02450152 52014 IEM_DS3505
ZHHH,2006-09-12 13:00,ZHHH 121300Z AUTO 04008KT 6SM 22/17 A3012 RMK T02200170 IEM_DS3505
ZHHH,2006-09-12 14:00,ZHHH 121400Z AUTO 05008KT 6SM 21/17 A3015 RMK T02100170 IEM_DS3505
ZHHH,2006-09-12 15:00,ZHHH 121500Z AUTO 11002KT 11SM 23/16 A3015 RMK SLP203 T02270163 52012 IEM_DS3505
ZHHH,2006-09-12 16:00,ZHHH 121600Z AUTO 07006KT 6SM 19/16 A3015 RMK T01900160 IEM_DS3505
ZHHH,2006-09-12 17:00,ZHHH 121700Z AUTO 06006KT 6SM 19/16 A3012 RMK T01900160 IEM_DS3505
ZHHH,2006-09-12 18:00,ZHHH 121800Z AUTO 36002KT 9SM 21/15 A3012 RMK SLP196 T02070146 57007 IEM_DS3505
ZHHH,2006-09-12 19:00,ZHHH 121900Z AUTO 05006KT 6SM 18/15 A3009 RMK T01800150 IEM_DS3505
ZHHH,2006-09-12 20:00,ZHHH 122000Z AUTO 05006KT 6SM 19/16 A3009 RMK T01900160 IEM_DS3505
ZHHH,2006-09-12 21:00,ZHHH 122100Z AUTO 27002KT 9SM 20/15 A3009 RMK SLP192 T01980146 57004 IEM_DS3505
ZHHH,2006-09-12 22:00,ZHHH 122200Z AUTO 36004KT 6SM 18/16 A3012 RMK T01800160 IEM_DS3505
ZHHH,2006-09-12 23:00,ZHHH 122300Z AUTO 6SM 19/17 A3012 RMK T01900170 IEM_DS3505
ZHHH,2006-09-13 00:00,ZHHH 130000Z AUTO 36002KT 9SM 21/16 A3015 RMK SLP206 T02080156 52014 IEM_DS3505
ZHHH,2006-09-13 01:00,ZHHH 130100Z AUTO 04010KT 6SM 22/17 A3015 RMK T02200170 IEM_DS3505
ZHHH,2006-09-13 02:00,ZHHH 130200Z AUTO 04008KT 6SM 25/17 A3015 RMK T02500170 IEM_DS3505
ZHHH,2006-09-13 03:00,ZHHH 130300Z AUTO 02004KT 11SM 25/15 A3015 RMK SLP205 T02490150 57001 IEM_DS3505
ZHHH,2006-09-13 04:00,ZHHH 130400Z AUTO 07008KT 6SM 26/18 A3009 RMK T02600180 IEM_DS3505
ZHHH,2006-09-13 05:00,ZHHH 130500Z AUTO 05006KT 7SM 26/18 A3009 RMK T02600180 IEM_DS3505
ZHHH,2006-09-13 06:00,ZHHH 130600Z AUTO 04004KT 12SM 27/14 A3006 RMK SLP179 T02740144 57026 IEM_DS3505
ZHHH,2006-09-13 07:00,ZHHH 130700Z AUTO 06004KT 7SM 27/18 A3003 RMK T02700180 IEM_DS3505
ZHHH,2006-09-13 08:00,ZHHH 130800Z AUTO 03004KT 7SM 27/18 A3003 RMK T02700180 IEM_DS3505
ZHHH,2006-09-13 09:00,ZHHH 130900Z AUTO 36004KT 11SM 27/15 A3003 RMK SLP169 T02680149 57010 IEM_DS3505
ZHHH,2006-09-13 10:00,ZHHH 131000Z AUTO 02006KT 4SM 26/18 A3003 RMK T02600180 IEM_DS3505
ZHHH,2006-09-13 11:00,ZHHH 131100Z AUTO 02006KT 4SM 25/18 A3006 RMK T02500180 IEM_DS3505
ZHHH,2006-09-13 12:00,ZHHH 131200Z AUTO 34002KT 9SM 25/15 A3006 RMK SLP179 T02510154 52010 IEM_DS3505
ZHHH,2006-09-13 13:00,ZHHH 131300Z AUTO 03006KT 4SM 23/17 A3009 RMK T02300170 IEM_DS3505
ZHHH,2006-09-13 14:00,ZHHH 131400Z AUTO 03006KT 4SM 23/17 A3009 RMK T02300170 IEM_DS3505
ZHHH,2006-09-13 15:00,ZHHH 131500Z AUTO 02002KT 9SM 23/16 A3006 RMK SLP180 T02290155 52001 IEM_DS3505
ZHHH,2006-09-13 16:00,ZHHH 131600Z AUTO 04006KT 4SM 22/17 A3006 RMK T02200170 IEM_DS3505
ZHHH,2006-09-13 17:00,ZHHH 131700Z AUTO 05006KT 4SM 22/18 A3006 RMK T02200180 IEM_DS3505
ZHHH,2006-09-13 18:00,ZHHH 131800Z AUTO 04004KT 9SM 23/16 A3003 RMK SLP171 T02260162 57009 IEM_DS3505
ZHHH,2006-09-13 19:00,ZHHH 131900Z AUTO 05008KT 3SM 21/18 A3003 RMK T02100180 IEM_DS3505
ZHHH,2006-09-13 20:00,ZHHH 132000Z AUTO 05006KT 3SM 21/18 A3003 RMK T02100180 IEM_DS3505
ZHHH,2006-09-13 21:00,ZHHH 132100Z AUTO 07004KT 9SM 22/17 A3003 RMK SLP167 T02210166 57004 IEM_DS3505
ZHHH,2006-09-13 22:00,ZHHH 132200Z AUTO 00000KT 3SM 21/18 A3003 RMK T02100180 IEM_DS3505
ZHHH,2006-09-13 23:00,ZHHH 132300Z AUTO 3SM 21/18 A3003 RMK T02100180 IEM_DS3505
ZHHH,2006-09-14 00:00,ZHHH 140000Z AUTO 04004KT 9SM 22/17 A3006 RMK SLP176 T02230168 52009 IEM_DS3505
ZHHH,2006-09-14 01:00,ZHHH 140100Z AUTO 1 1/2SM 22/19 A3006 RMK T02200190 IEM_DS3505
ZHHH,2006-09-14 02:00,ZHHH 140200Z AUTO 33004KT 2 1/2SM 24/19 A3006 RMK T02400190 IEM_DS3505
ZHHH,2006-09-14 03:00,ZHHH 140300Z AUTO 04002KT 9SM 25/16 A3003 RMK SLP173 T02480162 57003 IEM_DS3505
ZHHH,2006-09-14 04:00,ZHHH 140400Z AUTO 30006KT 3SM 25/19 A3003 RMK T02500190 IEM_DS3505
ZHHH,2006-09-14 05:00,ZHHH 140500Z AUTO 31006KT 3SM 25/19 A3000 RMK T02500190 IEM_DS3505
ZHHH,2006-09-14 06:00,ZHHH 140600Z AUTO 02002KT 9SM 26/16 A3000 RMK SLP155 T02640161 57018 IEM_DS3505
ZHHH,2006-09-14 07:00,ZHHH 140700Z AUTO 29004KT 3SM 25/19 A2997 RMK T02500190 IEM_DS3505
ZHHH,2006-09-14 08:00,ZHHH 140800Z AUTO 28004KT 2 1/2SM 25/20 A2997 RMK T02500200 IEM_DS3505
ZHHH,2006-09-14 09:00,ZHHH 140900Z AUTO 34002KT 9SM 25/17 A2997 RMK SLP146 T02540168 57009 IEM_DS3505
ZHHH,2006-09-14 10:00,ZHHH 141000Z AUTO 01006KT 2 1/2SM 24/20 A2997 RMK T02400200 IEM_DS3505
ZHHH,2006-09-14 11:00,ZHHH 141100Z AUTO 04010KT 2 1/2SM 22/20 A2997 RMK T02200200 IEM_DS3505
ZHHH,2006-09-14 12:00,ZHHH 141200Z AUTO 04004KT 7SM 23/18 A3000 RMK SLP154 T02290184 52008 IEM_DS3505
ZHHH,2006-09-14 13:00,ZHHH 141300Z AUTO 05012KT 3SM 22/20 A3000 RMK T02200200 IEM_DS3505
ZHHH,2006-09-14 14:00,ZHHH 141400Z AUTO 04008KT 3SM 21/20 A3000 RMK T02100200 IEM_DS3505
ZHHH,2006-09-14 15:00,ZHHH 141500Z AUTO 34002KT 9SM 22/18 A3000 RMK SLP158 T02220184 52004 IEM_DS3505
ZHHH,2006-09-14 16:00,ZHHH 141600Z AUTO 03006KT 3SM 21/20 A3000 RMK T02100200 IEM_DS3505
ZHHH,2006-09-14 17:00,ZHHH 141700Z AUTO 01004KT 2 1/2SM 21/20 A3000 RMK T02100200 IEM_DS3505
ZHHH,2006-09-14 18:00,ZHHH 141800Z AUTO 02002KT 9SM 22/18 A2997 RMK SLP152 T02180184 57006 IEM_DS3505
ZHHH,2006-09-14 19:00,ZHHH 141900Z AUTO 35004KT 2 1/2SM 20/20 A2997 RMK T02000200 IEM_DS3505
ZHHH,2006-09-14 20:00,ZHHH 142000Z AUTO 35004KT 2 1/2SM 20/20 A2997 RMK T02000200 IEM_DS3505
ZHHH,2006-09-14 21:00,ZHHH 142100Z AUTO 34002KT 7SM 21/19 A2997 RMK 70000 SLP150 T02110187 57002 IEM_DS3505
ZHHH,2006-09-14 22:00,ZHHH 142200Z AUTO 03004KT 3SM 19/19 A2997 RMK T01900190 IEM_DS3505
ZHHH,2006-09-14 23:00,ZHHH 142300Z AUTO 36004KT 3SM 19/19 A3000 RMK T01900190 IEM_DS3505
ZHHH,2006-09-15 00:00,ZHHH 150000Z AUTO 32004KT 9SM 21/18 A3000 RMK 60000 70000 SLP160 T02080178 52010 IEM_DS3505
ZHHH,2006-09-15 01:00,ZHHH 150100Z AUTO 36004KT 7SM 21/18 A3000 RMK T02100180 IEM_DS3505
ZHHH,2006-09-15 02:00,ZHHH 150200Z AUTO 01006KT 6SM 22/20 A3003 RMK T02200200 IEM_DS3505
ZHHH,2006-09-15 03:00,ZHHH 150300Z AUTO 36004KT 11SM 23/18 A3003 RMK SLP164 T02320177 52004 IEM_DS3505
ZHHH,2006-09-15 04:00,ZHHH 150400Z AUTO 02010KT 7SM 24/19 A3000 RMK T02400190 IEM_DS3505
ZHHH,2006-09-15 05:00,ZHHH 150500Z AUTO 04012KT 7SM 26/18 A2997 RMK T02600180 IEM_DS3505
ZHHH,2006-09-15 06:00,ZHHH 150600Z AUTO 04004KT 12SM 27/16 A2997 RMK SLP145 T02700160 57019 IEM_DS3505
ZHHH,2006-09-15 07:00,ZHHH 150700Z AUTO 05010KT 7SM 28/17 A2994 RMK T02800170 IEM_DS3505
ZHHH,2006-09-15 08:00,ZHHH 150800Z AUTO 04010KT 7SM 28/17 A2991 RMK T02800170 IEM_DS3505
ZHHH,2006-09-15 09:00,ZHHH 150900Z AUTO 02006KT 12SM 27/14 A2994 RMK SLP132 T02730136 57013 IEM_DS3505
ZHHH,2006-09-15 10:00,ZHHH 151000Z AUTO 04008KT 6SM 25/16 A2994 RMK T02500160 IEM_DS3505
ZHHH,2006-09-15 11:00,ZHHH 151100Z AUTO 04008KT 6SM 23/16 A2994 RMK T02300160 IEM_DS3505
ZHHH,2006-09-15 12:00,ZHHH 151200Z AUTO 04004KT 9SM 23/15 A2997 RMK SLP147 T02310147 52015 IEM_DS3505
ZHHH,2006-09-15 13:00,ZHHH 151300Z AUTO 03006KT 6SM 21/17 A3000 RMK T02100170 IEM_DS3505
ZHHH,2006-09-15 14:00,ZHHH 151400Z AUTO 02004KT 6SM 21/16 A3000 RMK T02100160 IEM_DS3505
ZHHH,2006-09-15 15:00,ZHHH 151500Z AUTO 02004KT 9SM 21/15 A3000 RMK SLP157 T02100146 52010 IEM_DS3505
ZHHH,2006-09-15 16:00,ZHHH 151600Z AUTO 04004KT 6SM 19/16 A3000 RMK T01900160 IEM_DS3505
ZHHH,2006-09-15 17:00,ZHHH 151700Z AUTO 03006KT 6SM 19/16 A2997 RMK T01900160 IEM_DS3505
ZHHH,2006-09-15 18:00,ZHHH 151800Z AUTO 02002KT 9SM 19/15 A2997 RMK SLP152 T01940149 57005 IEM_DS3505
ZHHH,2006-09-15 19:00,ZHHH 151900Z AUTO 36004KT 6SM 18/16 A2997 RMK T01800160 IEM_DS3505
ZHHH,2006-09-15 20:00,ZHHH 152000Z AUTO 01004KT 6SM 17/16 A2997 RMK T01700160 IEM_DS3505
ZHHH,2006-09-15 21:00,ZHHH 152100Z AUTO 34002KT 9SM 18/16 A2997 RMK 70000 SLP148 T01800156 57004 IEM_DS3505
ZHHH,2006-09-15 22:00,ZHHH 152200Z AUTO 01002KT 6SM 17/15 A2997 RMK T01700150 IEM_DS3505
ZHHH,2006-09-15 23:00,ZHHH 152300Z AUTO 6SM 18/16 A3000 RMK T01800160 IEM_DS3505
ZHHH,2006-09-16 00:00,ZHHH 160000Z AUTO 02004KT 11SM 21/15 A3000 RMK SLP160 T02090148 52012 IEM_DS3505
ZHHH,2006-09-16 01:00,ZHHH 160100Z AUTO 6SM 23/17 A3000 RMK T02300170 IEM_DS3505
ZHHH,2006-09-16 02:00,ZHHH 160200Z AUTO 03010KT 6SM 25/16 A3000 RMK T02500160 IEM_DS3505
ZHHH,2006-09-16 03:00,ZHHH 160300Z AUTO 04006KT 11SM 27/13 A3000 RMK SLP160 T02660134 54000 IEM_DS3505
ZHHH,2006-09-16 04:00,ZHHH 160400Z AUTO 04012KT 7SM 27/17 A3000 RMK T02700170 IEM_DS3505
ZHHH,2006-09-16 05:00,ZHHH 160500Z AUTO 04012KT 7SM 29/16 A2997 RMK T02900160 IEM_DS3505
ZHHH,2006-09-16 06:00,ZHHH 160600Z AUTO 04004KT 12SM 29/14 A2994 RMK SLP139 T02930139 57021 IEM_DS3505
ZHHH,2006-09-16 07:00,ZHHH 160700Z AUTO 03008KT 7SM 29/16 A2994 RMK T02900160 IEM_DS3505
ZHHH,2006-09-16 08:00,ZHHH 160800Z AUTO 01008KT 7SM 29/16 A2991 RMK T02900160 IEM_DS3505
ZHHH,2006-09-16 09:00,ZHHH 160900Z AUTO 36004KT 12SM 29/12 A2991 RMK SLP132 T02920117 57007 IEM_DS3505
ZHHH,2006-09-16 10:00,ZHHH 161000Z AUTO 01006KT 7SM 27/15 A2994 RMK T02700150 IEM_DS3505
ZHHH,2006-09-16 11:00,ZHHH 161100Z AUTO 02006KT 7SM 25/16 A2994 RMK T02500160 IEM_DS3505
ZHHH,2006-09-16 12:00,ZHHH 161200Z AUTO 36002KT 12SM 25/14 A2997 RMK SLP141 T02540136 52009 IEM_DS3505
ZHHH,2006-09-16 13:00,ZHHH 161300Z AUTO 04006KT 7SM 23/17 A2997 RMK T02300170 IEM_DS3505
ZHHH,2006-09-16 14:00,ZHHH 161400Z AUTO 02004KT 4SM 22/17 A2997 RMK T02200170 IEM_DS3505
ZHHH,2006-09-16 15:00,ZHHH 161500Z AUTO 34002KT 11SM 23/16 A2997 RMK SLP147 T02260157 52006 IEM_DS3505
ZHHH,2006-09-16 16:00,ZHHH 161600Z AUTO 02006KT 4SM 21/17 A2997 RMK T02100170 IEM_DS3505
ZHHH,2006-09-16 17:00,ZHHH 161700Z AUTO 02004KT 4SM 20/17 A2997 RMK T02000170 IEM_DS3505
ZHHH,2006-09-16 18:00,ZHHH 161800Z AUTO 04002KT 11SM 21/16 A2994 RMK SLP140 T02080158 57007 IEM_DS3505
ZHHH,2006-09-16 19:00,ZHHH 161900Z AUTO 07006KT 4SM 19/17 A2994 RMK T01900170 IEM_DS3505
ZHHH,2006-09-16 20:00,ZHHH 162000Z AUTO 06006KT 4SM 19/17 A2994 RMK T01900170 IEM_DS3505
ZHHH,2006-09-16 21:00,ZHHH 162100Z AUTO 02002KT 11SM 19/17 A2994 RMK SLP140 T01920166 54000 IEM_DS3505
ZHHH,2006-09-16 22:00,ZHHH 162200Z AUTO 10004KT 2 1/2SM 19/17 A2994 RMK T01900170 IEM_DS3505
ZHHH,2006-09-16 23:00,ZHHH 162300Z AUTO 2 1/2SM 20/17 A2997 RMK T02000170 IEM_DS3505
ZHHH,2006-09-17 00:00,ZHHH 170000Z AUTO 09002KT 11SM 22/16 A2997 RMK SLP151 T02250161 52011 IEM_DS3505
ZHHH,2006-09-17 01:00,ZHHH 170100Z AUTO 3SM 23/18 A3000 RMK T02300180 IEM_DS3505
ZHHH,2006-09-17 02:00,ZHHH 170200Z AUTO 30004KT 4SM 25/18 A3000 RMK T02500180 IEM_DS3505
ZHHH,2006-09-17 03:00,ZHHH 170300Z AUTO 04004KT 11SM 27/16 A3000 RMK SLP154 T02700157 52003 IEM_DS3505
ZHHH,2006-09-17 04:00,ZHHH 170400Z AUTO 4SM 28/18 A2997 RMK T02800180 IEM_DS3505
ZHHH,2006-09-17 05:00,ZHHH 170500Z AUTO 7SM 28/17 A2994 RMK T02800170 IEM_DS3505
ZHHH,2006-09-17 06:00,ZHHH 170600Z AUTO 32002KT 11SM 29/14 A2991 RMK SLP132 T02930143 57022 IEM_DS3505
ZHHH,2006-09-17 07:00,ZHHH 170700Z AUTO 04006KT 7SM 30/16 A2988 RMK T03000160 IEM_DS3505
ZHHH,2006-09-17 08:00,ZHHH 170800Z AUTO 36006KT 7SM 30/17 A2988 RMK T03000170 IEM_DS3505
ZHHH,2006-09-17 09:00,ZHHH 170900Z AUTO 32002KT 11SM 30/14 A2988 RMK SLP117 T02960142 57015 IEM_DS3505
ZHHH,2006-09-17 10:00,ZHHH 171000Z AUTO 6SM 28/19 A2988 RMK T02800190 IEM_DS3505
ZHHH,2006-09-17 11:00,ZHHH 171100Z AUTO 30002KT 4SM 26/19 A2988 RMK T02600190 IEM_DS3505
ZHHH,2006-09-17 12:00,ZHHH 171200Z AUTO 27002KT 11SM 24/18 A2991 RMK SLP128 T02400177 52011 IEM_DS3505
ZHHH,2006-09-17 13:00,ZHHH 171300Z AUTO 05006KT 4SM 24/17 A2994 RMK T02400170 IEM_DS3505
ZHHH,2006-09-17 14:00,ZHHH 171400Z AUTO 06008KT 4SM 24/17 A2994 RMK T02400170 IEM_DS3505
ZHHH,2006-09-17 15:00,ZHHH 171500Z AUTO 04002KT 11SM 23/16 A2994 RMK SLP138 T02320158 52010 IEM_DS3505
ZHHH,2006-09-17 16:00,ZHHH 171600Z AUTO 05006KT 3SM 23/17 A2994 RMK T02300170 IEM_DS3505
ZHHH,2006-09-17 17:00,ZHHH 171700Z AUTO 3SM 22/18 A2994 RMK T02200180 IEM_DS3505
ZHHH,2006-09-17 18:00,ZHHH 171800Z AUTO 36002KT 11SM 22/17 A2994 RMK SLP139 T02170167 52001 IEM_DS3505
ZHHH,2006-09-17 19:00,ZHHH 171900Z AUTO 36002KT 1 1/4SM 21/19 A2994 RMK T02100190 IEM_DS3505
ZHHH,2006-09-17 20:00,ZHHH 172000Z AUTO 02004KT 1 1/4SM 21/18 A2994 RMK T02100180 IEM_DS3505
ZHHH,2006-09-17 21:00,ZHHH 172100Z AUTO 36002KT 9SM 22/17 A2994 RMK SLP141 T02160174 52002 IEM_DS3505
ZHHH,2006-09-17 22:00,ZHHH 172200Z AUTO 06002KT 1 1/4SM 20/18 A2997 RMK T02000180 IEM_DS3505
ZHHH,2006-09-17 23:00,ZHHH 172300Z AUTO 08002KT 1 1/2SM 20/18 A2997 RMK T02000180 IEM_DS3505
ZHHH,2006-09-18 00:00,ZHHH 180000Z AUTO 09002KT 9SM 23/18 A3000 RMK SLP156 T02300177 52015 IEM_DS3505
ZHHH,2006-09-18 01:00,ZHHH 180100Z AUTO 10004KT 1 1/2SM 23/19 A3000 RMK T02300190 IEM_DS3505
ZHHH,2006-09-18 02:00,ZHHH 180200Z AUTO 10004KT 1 1/2SM 25/20 A3000 RMK T02500200 IEM_DS3505
ZHHH,2006-09-18 03:00,ZHHH 180300Z AUTO 07002KT 9SM 27/17 A3000 RMK SLP158 T02730169 52002 IEM_DS3505
ZHHH,2006-09-18 04:00,ZHHH 180400Z AUTO 2SM 28/20 A2997 RMK T02800200 IEM_DS3505
ZHHH,2006-09-18 05:00,ZHHH 180500Z AUTO 2 1/2SM 30/13 A2997 RMK T03000130 IEM_DS3505
ZHHH,2006-09-18 06:00,ZHHH 180600Z AUTO 34002KT 9SM 30/12 A2994 RMK SLP137 T03000120 57021 IEM_DS3505
ZHHH,2006-09-18 07:00,ZHHH 180700Z AUTO 35004KT 4SM 30/11 A2991 RMK T03000110 IEM_DS3505
ZHHH,2006-09-18 08:00,ZHHH 180800Z AUTO 03006KT 4SM 30/14 A2991 RMK T03000140 IEM_DS3505
ZHHH,2006-09-18 09:00,ZHHH 180900Z AUTO 34002KT 9SM 30/07 A2991 RMK SLP128 T03010073 57009 IEM_DS3505
ZHHH,2006-09-18 10:00,ZHHH 181000Z AUTO 34002KT 3SM 28/14 A2991 RMK T02800140 IEM_DS3505
ZHHH,2006-09-18 11:00,ZHHH 181100Z AUTO 03004KT 3SM 26/14 A2994 RMK T02600140 IEM_DS3505
ZHHH,2006-09-18 12:00,ZHHH 181200Z AUTO 32002KT 9SM 23/14 A2994 RMK SLP138 T02330143 52010 IEM_DS3505
ZHHH,2006-09-18 13:00,ZHHH 181300Z AUTO 04004KT 2 1/2SM 24/16 A2997 RMK T02400160 IEM_DS3505
ZHHH,2006-09-18 14:00,ZHHH 181400Z AUTO 07006KT 2 1/2SM 24/16 A2994 RMK T02400160 IEM_DS3505
ZHHH,2006-09-18 15:00,ZHHH 181500Z AUTO 04002KT 11SM 22/15 A2994 RMK SLP140 T02170148 52002 IEM_DS3505
ZHHH,2006-09-18 16:00,ZHHH 181600Z AUTO 2 1/2SM 23/16 A2994 RMK T02300160 IEM_DS3505
ZHHH,2006-09-18 17:00,ZHHH 181700Z AUTO 09006KT 2 1/2SM 22/16 A2994 RMK T02200160 IEM_DS3505
ZHHH,2006-09-18 18:00,ZHHH 181800Z AUTO 07002KT 9SM 23/14 A2994 RMK SLP137 T02280144 57003 IEM_DS3505
ZHHH,2006-09-18 19:00,ZHHH 181900Z AUTO 08004KT 2SM 21/16 A2994 RMK T02100160 IEM_DS3505
ZHHH,2006-09-18 20:00,ZHHH 182000Z AUTO 05004KT 2SM 20/17 A2994 RMK T02000170 IEM_DS3505
ZHHH,2006-09-18 21:00,ZHHH 182100Z AUTO 02002KT 9SM 21/16 A2994 RMK SLP136 T02120164 57001 IEM_DS3505
ZHHH,2006-09-18 22:00,ZHHH 182200Z AUTO 09006KT 2SM 20/18 A2994 RMK T02000180 IEM_DS3505
ZHHH,2006-09-18 23:00,ZHHH 182300Z AUTO 09006KT 2SM 20/17 A2997 RMK T02000170 IEM_DS3505
ZHHH,2006-09-19 00:00,ZHHH 190000Z AUTO 07002KT 7SM 23/18 A2997 RMK SLP153 T02280181 52017 IEM_DS3505
ZHHH,2006-09-19 01:00,ZHHH 190100Z AUTO 12006KT 2SM 23/18 A3000 RMK T02300180 IEM_DS3505
ZHHH,2006-09-19 02:00,ZHHH 190200Z AUTO 12006KT 2 1/2SM 24/18 A3000 RMK T02400180 IEM_DS3505
ZHHH,2006-09-19 03:00,ZHHH 190300Z AUTO 11004KT 7SM 26/16 A2997 RMK SLP151 T02620156 57002 IEM_DS3505
ZHHH,2006-09-19 04:00,ZHHH 190400Z AUTO 14004KT 2SM 26/18 A2997 RMK T02600180 IEM_DS3505
ZHHH,2006-09-19 05:00,ZHHH 190500Z AUTO 2SM 26/18 A2994 RMK T02600180 IEM_DS3505
ZHHH,2006-09-19 06:00,ZHHH 190600Z AUTO 29002KT 9SM 27/16 A2994 RMK SLP136 T02710158 57017 IEM_DS3505
ZHHH,2006-09-19 07:00,ZHHH 190700Z AUTO 2SM 27/18 A2991 RMK T02700180 IEM_DS3505
ZHHH,2006-09-19 08:00,ZHHH 190800Z AUTO 20004KT 2 1/2SM 27/17 A2991 RMK T02700170 IEM_DS3505
ZHHH,2006-09-19 09:00,ZHHH 190900Z AUTO 14002KT 9SM 28/14 A2991 RMK SLP126 T02790138 57009 IEM_DS3505
ZHHH,2006-09-19 10:00,ZHHH 191000Z AUTO 11004KT 2 1/2SM 26/19 A2991 RMK T02600190 IEM_DS3505
ZHHH,2006-09-19 11:00,ZHHH 191100Z AUTO 10006KT 2SM 25/18 A2991 RMK T02500180 IEM_DS3505
ZHHH,2006-09-19 12:00,ZHHH 191200Z AUTO 07002KT 9SM 23/16 A2994 RMK SLP137 T02340165 52011 IEM_DS3505
ZHHH,2006-09-19 13:00,ZHHH 191300Z AUTO 08006KT 1 1/2SM 23/19 A2997 RMK T02300190 IEM_DS3505
ZHHH,2006-09-19 14:00,ZHHH 191400Z AUTO 10004KT 1 1/4SM 22/19 A2997 RMK T02200190 IEM_DS3505
ZHHH,2006-09-19 15:00,ZHHH 191500Z AUTO 10006KT 7SM 22/17 A2997 RMK SLP142 T02170171 52005 IEM_DS3505
ZHHH,2006-09-19 16:00,ZHHH 191600Z AUTO 08004KT 1SM 21/18 A2994 RMK T02100180 IEM_DS3505
ZHHH,2006-09-19 17:00,ZHHH 191700Z AUTO 07006KT 1SM 20/18 A2994 RMK T02000180 IEM_DS3505
ZHHH,2006-09-19 18:00,ZHHH 191800Z AUTO 07002KT 7SM 21/19 A2994 RMK SLP133 T02140191 57009 IEM_DS3505
ZHHH,2006-09-19 19:00,ZHHH 191900Z AUTO 07006KT 1SM 20/18 A2991 RMK T02000180 IEM_DS3505
ZHHH,2006-09-19 20:00,ZHHH 192000Z AUTO 07006KT 1SM 19/17 A2991 RMK T01900170 IEM_DS3505
ZHHH,2006-09-19 21:00,ZHHH 192100Z AUTO 07002KT 6SM 21/19 A2991 RMK SLP127 T02080189 57006 IEM_DS3505
ZHHH,2006-09-19 22:00,ZHHH 192200Z AUTO 11004KT 1SM 18/17 A2994 RMK T01800170 IEM_DS3505
ZHHH,2006-09-19 23:00,ZHHH 192300Z AUTO 10006KT 1SM 19/17 A2994 RMK T01900170 IEM_DS3505
ZHHH,2006-09-20 00:00,ZHHH 200000Z AUTO 04002KT 5SM 21/18 A2997 RMK SLP143 T02140180 52016 IEM_DS3505
ZHHH,2006-09-20 01:00,ZHHH 200100Z AUTO 10006KT 1SM 22/18 A2997 RMK T02200180 IEM_DS3505
ZHHH,2006-09-20 02:00,ZHHH 200200Z AUTO 11006KT 2SM 24/19 A2997 RMK T02400190 IEM_DS3505
ZHHH,2006-09-20 03:00,ZHHH 200300Z AUTO 14002KT 6SM 28/16 A2997 RMK SLP142 T02780158 57001 IEM_DS3505
ZHHH,2006-09-20 04:00,ZHHH 200400Z AUTO 11006KT 3SM 28/18 A2994 RMK T02800180 IEM_DS3505
ZHHH,2006-09-20 05:00,ZHHH 200500Z AUTO 2 1/2SM 29/17 A2991 RMK T02900170 IEM_DS3505
ZHHH,2006-09-20 06:00,ZHHH 200600Z AUTO 32002KT 7SM 29/13 A2988 RMK SLP122 T02920126 57020 IEM_DS3505
ZHHH,2006-09-20 07:00,ZHHH 200700Z AUTO 2 1/2SM 29/15 A2988 RMK T02900150 IEM_DS3505
ZHHH,2006-09-20 08:00,ZHHH 200800Z AUTO 2 1/2SM 29/14 A2988 RMK T02900140 IEM_DS3505
ZHHH,2006-09-20 09:00,ZHHH 200900Z AUTO 02004KT 9SM 29/11 A2988 RMK SLP115 T02910112 57007 IEM_DS3505
ZHHH,2006-09-20 10:00,ZHHH 201000Z AUTO 00000KT 2 1/2SM 28/14 A2988 RMK T02800140 IEM_DS3505
ZHHH,2006-09-20 11:00,ZHHH 201100Z AUTO 00000KT 2 1/2SM 26/14 A2988 RMK T02600140 IEM_DS3505
ZHHH,2006-09-20 12:00,ZHHH 201200Z AUTO 09002KT 9SM 23/16 A2991 RMK SLP126 T02290157 52011 IEM_DS3505
ZHHH,2006-09-20 13:00,ZHHH 201300Z AUTO 06002KT 2SM 25/15 A2994 RMK T02500150 IEM_DS3505
ZHHH,2006-09-20 14:00,ZHHH 201400Z AUTO 05006KT 1 1/4SM 23/15 A2994 RMK T02300150 IEM_DS3505
ZHHH,2006-09-20 15:00,ZHHH 201500Z AUTO 02002KT 9SM 21/17 A2994 RMK SLP134 T02120172 52008 IEM_DS3505
ZHHH,2006-09-20 16:00,ZHHH 201600Z AUTO 07004KT 1 1/2SM 22/16 A2994 RMK T02200160 IEM_DS3505
ZHHH,2006-09-20 17:00,ZHHH 201700Z AUTO 05006KT 1 1/2SM 21/16 A2994 RMK T02100160 IEM_DS3505
ZHHH,2006-09-20 18:00,ZHHH 201800Z AUTO 04002KT 9SM 22/16 A2991 RMK SLP132 T02220156 57002 IEM_DS3505
ZHHH,2006-09-20 19:00,ZHHH 201900Z AUTO 05004KT 3SM 20/16 A2991 RMK T02000160 IEM_DS3505
ZHHH,2006-09-20 20:00,ZHHH 202000Z AUTO 07006KT 3SM 20/16 A2991 RMK T02000160 IEM_DS3505
ZHHH,2006-09-20 21:00,ZHHH 202100Z AUTO 07002KT 9SM 21/15 A2994 RMK SLP133 T02110154 52001 IEM_DS3505
ZHHH,2006-09-20 22:00,ZHHH 202200Z AUTO 07006KT 3SM 19/16 A2994 RMK T01900160 IEM_DS3505
ZHHH,2006-09-20 23:00,ZHHH 202300Z AUTO 3SM 19/16 A2994 RMK T01900160 IEM_DS3505
ZHHH,2006-09-21 00:00,ZHHH 210000Z AUTO 09004KT 9SM 22/17 A2997 RMK SLP149 T02250168 52016 IEM_DS3505
ZHHH,2006-09-21 01:00,ZHHH 210100Z AUTO 09006KT 3SM 23/17 A3000 RMK T02300170 IEM_DS3505
ZHHH,2006-09-21 02:00,ZHHH 210200Z AUTO 10006KT 3SM 25/17 A3000 RMK T02500170 IEM_DS3505
ZHHH,2006-09-21 03:00,ZHHH 210300Z AUTO 20004KT 11SM 28/13 A3000 RMK SLP152 T02820133 52003 IEM_DS3505
ZHHH,2006-09-21 04:00,ZHHH 210400Z AUTO 14006KT 3SM 28/18 A2997 RMK T02800180 IEM_DS3505
ZHHH,2006-09-21 05:00,ZHHH 210500Z AUTO 4SM 29/17 A2994 RMK T02900170 IEM_DS3505
ZHHH,2006-09-21 06:00,ZHHH 210600Z AUTO 07004KT 11SM 30/13 A2994 RMK SLP135 T03030127 57017 IEM_DS3505
ZHHH,2006-09-21 07:00,ZHHH 210700Z AUTO 4SM 30/16 A2991 RMK T03000160 IEM_DS3505
ZHHH,2006-09-21 08:00,ZHHH 210800Z AUTO 13006KT 4SM 30/15 A2991 RMK T03000150 IEM_DS3505
ZHHH,2006-09-21 09:00,ZHHH 210900Z AUTO 04004KT 11SM 30/11 A2991 RMK SLP127 T02990114 57008 IEM_DS3505
ZHHH,2006-09-21 10:00,ZHHH 211000Z AUTO 4SM 28/16 A2991 RMK T02800160 IEM_DS3505
ZHHH,2006-09-21 11:00,ZHHH 211100Z AUTO 06002KT 3SM 27/15 A2994 RMK T02700150 IEM_DS3505
ZHHH,2006-09-21 12:00,ZHHH 211200Z AUTO 02004KT 9SM 24/15 A2994 RMK SLP139 T02370150 52012 IEM_DS3505
ZHHH,2006-09-21 13:00,ZHHH 211300Z AUTO 04008KT 2 1/2SM 24/16 A2997 RMK T02400160 IEM_DS3505
ZHHH,2006-09-21 14:00,ZHHH 211400Z AUTO 06008KT 2 1/2SM 24/16 A3000 RMK T02400160 IEM_DS3505
ZHHH,2006-09-21 15:00,ZHHH 211500Z AUTO 04004KT 9SM 24/16 A3000 RMK SLP156 T02420157 52017 IEM_DS3505
ZHHH,2006-09-21 16:00,ZHHH 211600Z AUTO 05010KT 3SM 22/17 A3000 RMK T02200170 IEM_DS3505
ZHHH,2006-09-21 17:00,ZHHH 211700Z AUTO 06008KT 3SM 22/18 A3000 RMK T02200180 IEM_DS3505
ZHHH,2006-09-21 18:00,ZHHH 211800Z AUTO 07002KT 9SM 22/16 A3000 RMK SLP156 T02250165 54000 IEM_DS3505
ZHHH,2006-09-21 19:00,ZHHH 211900Z AUTO 06006KT 3SM 21/18 A3000 RMK T02100180 IEM_DS3505
ZHHH,2006-09-21 20:00,ZHHH 212000Z AUTO 06006KT 3SM 20/17 A3000 RMK T02000170 IEM_DS3505
ZHHH,2006-09-21 21:00,ZHHH 212100Z AUTO 02002KT 9SM 22/17 A3000 RMK SLP161 T02170167 52005 IEM_DS3505
ZHHH,2006-09-21 22:00,ZHHH 212200Z AUTO 36002KT 2SM 20/17 A3003 RMK T02000170 IEM_DS3505
ZHHH,2006-09-21 23:00,ZHHH 212300Z AUTO 06004KT 1 1/2SM 20/18 A3003 RMK T02000180 IEM_DS3505
ZHHH,2006-09-22 00:00,ZHHH 220000Z AUTO 07002KT 9SM 23/17 A3006 RMK SLP176 T02280168 52015 IEM_DS3505
ZHHH,2006-09-22 01:00,ZHHH 220100Z AUTO 07008KT 2 1/2SM 24/19 A3006 RMK T02400190 IEM_DS3505
ZHHH,2006-09-22 02:00,ZHHH 220200Z AUTO 08008KT 3SM 26/18 A3009 RMK T02600180 IEM_DS3505
ZHHH,2006-09-22 03:00,ZHHH 220300Z AUTO 09002KT 11SM 27/16 A3006 RMK SLP183 T02740157 52007 IEM_DS3505
ZHHH,2006-09-22 04:00,ZHHH 220400Z AUTO 29006KT 5SM 28/18 A3006 RMK T02800180 IEM_DS3505
ZHHH,2006-09-22 05:00,ZHHH 220500Z AUTO 27004KT 5SM 29/18 A3003 RMK T02900180 IEM_DS3505
ZHHH,2006-09-22 06:00,ZHHH 220600Z AUTO 09004KT 11SM 30/14 A3000 RMK SLP156 T02950145 57027 IEM_DS3505
ZHHH,2006-09-22 07:00,ZHHH 220700Z AUTO 27006KT 5SM 30/18 A2997 RMK T03000180 IEM_DS3505
ZHHH,2006-09-22 08:00,ZHHH 220800Z AUTO 5SM 30/17 A2997 RMK T03000170 IEM_DS3505
ZHHH,2006-09-22 09:00,ZHHH 220900Z AUTO 02004KT 11SM 29/14 A2997 RMK SLP147 T02940144 57009 IEM_DS3505
ZHHH,2006-09-22 10:00,ZHHH 221000Z AUTO 31004KT 4SM 28/20 A2997 RMK T02800200 IEM_DS3505
ZHHH,2006-09-22 11:00,ZHHH 221100Z AUTO 03006KT 3SM 26/17 A2997 RMK T02600170 IEM_DS3505
ZHHH,2006-09-22 12:00,ZHHH 221200Z AUTO 02002KT 11SM 26/16 A3000 RMK SLP161 T02610155 52014 IEM_DS3505
ZHHH,2006-09-22 13:00,ZHHH 221300Z AUTO 04008KT 3SM 24/17 A3003 RMK T02400170 IEM_DS3505
ZHHH,2006-09-22 14:00,ZHHH 221400Z AUTO 05008KT 3SM 23/16 A3003 RMK T02300160 IEM_DS3505
ZHHH,2006-09-22 15:00,ZHHH 221500Z AUTO 04004KT 11SM 24/15 A3003 RMK SLP165 T02400147 52004 IEM_DS3505
ZHHH,2006-09-22 16:00,ZHHH 221600Z AUTO 06010KT 4SM 22/17 A3003 RMK T02200170 IEM_DS3505
ZHHH,2006-09-22 17:00,ZHHH 221700Z AUTO 06010KT 4SM 22/17 A3003 RMK T02200170 IEM_DS3505
ZHHH,2006-09-22 18:00,ZHHH 221800Z AUTO 07004KT 11SM 23/16 A3003 RMK SLP164 T02260155 57001 IEM_DS3505
ZHHH,2006-09-22 19:00,ZHHH 221900Z AUTO 09006KT 4SM 21/17 A3003 RMK T02100170 IEM_DS3505
ZHHH,2006-09-22 20:00,ZHHH 222000Z AUTO 08006KT 4SM 21/17 A3000 RMK T02100170 IEM_DS3505
ZHHH,2006-09-22 21:00,ZHHH 222100Z AUTO 07002KT 9SM 22/15 A3003 RMK SLP165 T02190153 52001 IEM_DS3505
ZHHH,2006-09-22 22:00,ZHHH 222200Z AUTO 06004KT 2 1/2SM 20/17 A3003 RMK T02000170 IEM_DS3505
ZHHH,2006-09-22 23:00,ZHHH 222300Z AUTO 06006KT 2SM 20/17 A3006 RMK T02000170 IEM_DS3505
ZHHH,2006-09-23 00:00,ZHHH 230000Z AUTO 07004KT 9SM 23/16 A3006 RMK SLP178 T02260164 52013 IEM_DS3505
ZHHH,2006-09-23 01:00,ZHHH 230100Z AUTO 05008KT 2 1/2SM 23/18 A3006 RMK T02300180 IEM_DS3505
ZHHH,2006-09-23 02:00,ZHHH 230200Z AUTO 08006KT 2 1/2SM 24/18 A3009 RMK T02400180 IEM_DS3505
ZHHH,2006-09-23 03:00,ZHHH 230300Z AUTO 04004KT 9SM 26/15 A3009 RMK SLP184 T02580152 52006 IEM_DS3505
ZHHH,2006-09-23 04:00,ZHHH 230400Z AUTO 09006KT 4SM 28/17 A3006 RMK T02800170 IEM_DS3505
ZHHH,2006-09-23 05:00,ZHHH 230500Z AUTO 09006KT 6SM 28/17 A3003 RMK T02800170 IEM_DS3505
ZHHH,2006-09-23 06:00,ZHHH 230600Z AUTO 02004KT 9SM 29/14 A3000 RMK SLP156 T02890143 57028 IEM_DS3505
ZHHH,2006-09-23 07:00,ZHHH 230700Z AUTO 6SM 29/18 A2997 RMK T02900180 IEM_DS3505
ZHHH,2006-09-23 08:00,ZHHH 230800Z AUTO 09004KT 4SM 29/18 A2997 RMK T02900180 IEM_DS3505
ZHHH,2006-09-23 09:00,ZHHH 230900Z AUTO 09004KT 9SM 29/15 A2994 RMK SLP139 T02880146 57017 IEM_DS3505
ZHHH,2006-09-23 10:00,ZHHH 231000Z AUTO 04006KT 4SM 27/19 A2994 RMK T02700190 IEM_DS3505
ZHHH,2006-09-23 11:00,ZHHH 231100Z AUTO 05006KT 3SM 26/19 A2994 RMK T02600190 IEM_DS3505
ZHHH,2006-09-23 12:00,ZHHH 231200Z AUTO 07002KT 9SM 26/17 A2997 RMK SLP147 T02580172 52008 IEM_DS3505
ZHHH,2006-09-23 13:00,ZHHH 231300Z AUTO 04008KT 2 1/2SM 24/21 A3000 RMK T02400210 IEM_DS3505
ZHHH,2006-09-23 14:00,ZHHH 231400Z AUTO 05008KT 2SM 23/20 A3000 RMK T02300200 IEM_DS3505
ZHHH,2006-09-23 15:00,ZHHH 231500Z AUTO 07002KT 9SM 24/19 A3000 RMK SLP158 T02410190 52011 IEM_DS3505
ZHHH,2006-09-23 16:00,ZHHH 231600Z AUTO 07006KT 2SM 22/20 A3000 RMK T02200200 IEM_DS3505
ZHHH,2006-09-23 17:00,ZHHH 231700Z AUTO 08006KT 2SM 22/20 A3000 RMK T02200200 IEM_DS3505
ZHHH,2006-09-23 18:00,ZHHH 231800Z AUTO 07004KT 9SM 23/19 A3000 RMK SLP155 T02290187 57003 IEM_DS3505
ZHHH,2006-09-23 19:00,ZHHH 231900Z AUTO 09008KT 2SM 21/20 A3000 RMK T02100200 IEM_DS3505
ZHHH,2006-09-23 20:00,ZHHH 232000Z AUTO 11004KT 2 1/2SM 21/20 A3000 RMK T02100200 IEM_DS3505
ZHHH,2006-09-23 21:00,ZHHH 232100Z AUTO 09002KT 9SM 22/19 A3000 RMK SLP153 T02200192 57002 IEM_DS3505
ZHHH,2006-09-23 22:00,ZHHH 232200Z AUTO 08002KT 2SM 20/19 A3000 RMK T02000190 IEM_DS3505
ZHHH,2006-09-23 23:00,ZHHH 232300Z AUTO 10004KT 1 1/2SM 20/19 A3003 RMK T02000190 IEM_DS3505
ZHHH,2006-09-24 00:00,ZHHH 240000Z AUTO 07002KT 9SM 24/18 A3003 RMK SLP168 T02370179 52015 IEM_DS3505
ZHHH,2006-09-24 01:00,ZHHH 240100Z AUTO 10008KT 3SM 24/19 A3003 RMK T02400190 IEM_DS3505
ZHHH,2006-09-24 02:00,ZHHH 240200Z AUTO 11008KT 4SM 26/19 A3006 RMK T02600190 IEM_DS3505
ZHHH,2006-09-24 03:00,ZHHH 240300Z AUTO 09004KT 12SM 29/15 A3003 RMK SLP168 T02870153 54000 IEM_DS3505
ZHHH,2006-09-24 04:00,ZHHH 240400Z AUTO 14008KT 6SM 29/17 A3000 RMK T02900170 IEM_DS3505
ZHHH,2006-09-24 05:00,ZHHH 240500Z AUTO 14008KT 6SM 29/18 A2997 RMK T02900180 IEM_DS3505
ZHHH,2006-09-24 06:00,ZHHH 240600Z AUTO 07004KT 12SM 31/14 A2997 RMK SLP146 T03090137 57022 IEM_DS3505
ZHHH,2006-09-24 07:00,ZHHH 240700Z AUTO 11006KT 6SM 30/18 A2994 RMK T03000180 IEM_DS3505
ZHHH,2006-09-24 08:00,ZHHH 240800Z AUTO 12006KT 6SM 30/18 A2994 RMK T03000180 IEM_DS3505
ZHHH,2006-09-24 09:00,ZHHH 240900Z AUTO 07004KT 12SM 30/15 A2994 RMK SLP134 T03040149 57012 IEM_DS3505
ZHHH,2006-09-24 10:00,ZHHH 241000Z AUTO 11004KT 6SM 29/17 A2994 RMK T02900170 IEM_DS3505
ZHHH,2006-09-24 11:00,ZHHH 241100Z AUTO 04002KT 6SM 28/17 A2994 RMK T02800170 IEM_DS3505
ZHHH,2006-09-24 12:00,ZHHH 241200Z AUTO 07002KT 9SM 26/17 A2997 RMK SLP144 T02560167 52010 IEM_DS3505
ZHHH,2006-09-24 13:00,ZHHH 241300Z AUTO 06006KT 6SM 26/17 A2997 RMK T02600170 IEM_DS3505
ZHHH,2006-09-24 14:00,ZHHH 241400Z AUTO 09004KT 6SM 26/17 A2997 RMK T02600170 IEM_DS3505
ZHHH,2006-09-24 15:00,ZHHH 241500Z AUTO 09002KT 9SM 23/18 A3000 RMK SLP153 T02300179 52009 IEM_DS3505
ZHHH,2006-09-24 16:00,ZHHH 241600Z AUTO 08006KT 3SM 23/19 A2997 RMK T02300190 IEM_DS3505
ZHHH,2006-09-24 17:00,ZHHH 241700Z AUTO 10006KT 3SM 23/19 A2997 RMK T02300190 IEM_DS3505
ZHHH,2006-09-24 18:00,ZHHH 241800Z AUTO 09002KT 11SM 23/18 A2997 RMK SLP146 T02260184 57007 IEM_DS3505
ZHHH,2006-09-24 19:00,ZHHH 241900Z AUTO 02004KT 3SM 22/19 A2997 RMK T02200190 IEM_DS3505
ZHHH,2006-09-24 20:00,ZHHH 242000Z AUTO 07006KT 3SM 21/19 A2994 RMK T02100190 IEM_DS3505
ZHHH,2006-09-24 21:00,ZHHH 242100Z AUTO 09002KT 11SM 22/16 A2997 RMK SLP143 T02180163 57003 IEM_DS3505
ZHHH,2006-09-24 22:00,ZHHH 242200Z AUTO 09004KT 3SM 21/19 A2997 RMK T02100190 IEM_DS3505
ZHHH,2006-09-24 23:00,ZHHH 242300Z AUTO 06004KT 3SM 20/19 A2997 RMK T02000190 IEM_DS3505
ZHHH,2006-09-25 00:00,ZHHH 250000Z AUTO 09002KT 9SM 25/17 A3000 RMK SLP157 T02500170 52014 IEM_DS3505
ZHHH,2006-09-25 01:00,ZHHH 250100Z AUTO 10006KT 5SM 23/19 A3000 RMK T02300190 IEM_DS3505
ZHHH,2006-09-25 02:00,ZHHH 250200Z AUTO 11006KT 4SM 26/18 A3000 RMK T02600180 IEM_DS3505
ZHHH,2006-09-25 03:00,ZHHH 250300Z AUTO 11004KT 9SM 30/16 A3000 RMK SLP153 T02960157 57004 IEM_DS3505
ZHHH,2006-09-25 04:00,ZHHH 250400Z AUTO 11006KT 4SM 28/18 A2997 RMK T02800180 IEM_DS3505
ZHHH,2006-09-25 05:00,ZHHH 250500Z AUTO 12006KT 4SM 30/19 A2994 RMK T03000190 IEM_DS3505
ZHHH,2006-09-25 06:00,ZHHH 250600Z AUTO 09006KT 9SM 32/13 A2988 RMK SLP119 T03180126 57034 IEM_DS3505
ZHHH,2006-09-25 07:00,ZHHH 250700Z AUTO 10006KT 6SM 31/14 A2985 RMK T03100140 IEM_DS3505
ZHHH,2006-09-25 08:00,ZHHH 250800Z AUTO 13006KT 6SM 31/14 A2985 RMK T03100140 IEM_DS3505
ZHHH,2006-09-25 09:00,ZHHH 250900Z AUTO 04002KT 9SM 31/11 A2985 RMK SLP104 T03130106 57015 IEM_DS3505
ZHHH,2006-09-25 10:00,ZHHH 251000Z AUTO 09006KT 6SM 29/16 A2985 RMK T02900160 IEM_DS3505
ZHHH,2006-09-25 11:00,ZHHH 251100Z AUTO 07004KT 6SM 28/16 A2985 RMK T02800160 IEM_DS3505
ZHHH,2006-09-25 12:00,ZHHH 251200Z AUTO 09002KT 9SM 25/16 A2988 RMK SLP114 T02520158 52010 IEM_DS3505
ZHHH,2006-09-25 13:00,ZHHH 251300Z AUTO 08006KT 6SM 26/16 A2988 RMK T02600160 IEM_DS3505
ZHHH,2006-09-25 14:00,ZHHH 251400Z AUTO 11006KT 6SM 26/16 A2988 RMK T02600160 IEM_DS3505
ZHHH,2006-09-25 15:00,ZHHH 251500Z AUTO 09002KT 9SM 23/17 A2988 RMK SLP117 T02300172 52003 IEM_DS3505
ZHHH,2006-09-25 16:00,ZHHH 251600Z AUTO 09008KT 6SM 23/18 A2988 RMK T02300180 IEM_DS3505
ZHHH,2006-09-25 17:00,ZHHH 251700Z AUTO 07008KT 6SM 23/17 A2988 RMK T02300170 IEM_DS3505
ZHHH,2006-09-25 18:00,ZHHH 251800Z AUTO 02002KT 9SM 23/19 A2988 RMK SLP116 T02300188 57001 IEM_DS3505
ZHHH,2006-09-25 19:00,ZHHH 251900Z AUTO 07006KT 4SM 22/18 A2988 RMK T02200180 IEM_DS3505
ZHHH,2006-09-25 20:00,ZHHH 252000Z AUTO 06006KT 4SM 22/18 A2988 RMK T02200180 IEM_DS3505
ZHHH,2006-09-25 21:00,ZHHH 252100Z AUTO 09002KT 9SM 22/18 A2988 RMK SLP115 T02200180 57001 IEM_DS3505
ZHHH,2006-09-25 22:00,ZHHH 252200Z AUTO 04004KT 3SM 21/17 A2988 RMK T02100170 IEM_DS3505
ZHHH,2006-09-25 23:00,ZHHH 252300Z AUTO 06006KT 3SM 21/18 A2991 RMK T02100180 IEM_DS3505
ZHHH,2006-09-26 00:00,ZHHH 260000Z AUTO 09002KT 9SM 24/18 A2991 RMK SLP133 T02420179 52018 IEM_DS3505
ZHHH,2006-09-26 01:00,ZHHH 260100Z AUTO 10008KT 3SM 25/20 A2994 RMK T02500200 IEM_DS3505
ZHHH,2006-09-26 02:00,ZHHH 260200Z AUTO 08008KT 3SM 27/19 A2994 RMK T02700190 IEM_DS3505
ZHHH,2006-09-26 03:00,ZHHH 260300Z AUTO 04006KT 11SM 29/15 A2991 RMK SLP130 T02920150 57003 IEM_DS3505
ZHHH,2006-09-26 04:00,ZHHH 260400Z AUTO 4SM 30/19 A2988 RMK T03000190 IEM_DS3505
ZHHH,2006-09-26 05:00,ZHHH 260500Z AUTO 2 1/2SM 31/20 A2985 RMK T03100200 IEM_DS3505
ZHHH,2006-09-26 06:00,ZHHH 260600Z AUTO 07002KT 11SM 32/16 A2985 RMK SLP104 T03160156 57026 IEM_DS3505
ZHHH,2006-09-26 07:00,ZHHH 260700Z AUTO 03006KT 1SM 31/20 A2983 RMK T03100200 IEM_DS3505
ZHHH,2006-09-26 08:00,ZHHH 260800Z AUTO 03008KT 1SM 30/21 A2983 RMK T03000210 IEM_DS3505
ZHHH,2006-09-26 09:00,ZHHH 260900Z AUTO 02002KT 7SM 30/18 A2983 RMK SLP097 T02990180 57007 IEM_DS3505
ZHHH,2006-09-26 10:00,ZHHH 261000Z AUTO 04008KT 1SM 27/19 A2983 RMK T02700190 IEM_DS3505
ZHHH,2006-09-26 11:00,ZHHH 261100Z AUTO 02004KT 1SM 25/20 A2985 RMK T02500200 IEM_DS3505
ZHHH,2006-09-26 12:00,ZHHH 261200Z AUTO 02004KT 6SM 26/18 A2988 RMK SLP114 T02580177 52017 IEM_DS3505
ZHHH,2006-09-26 13:00,ZHHH 261300Z AUTO 02006KT 1SM 24/19 A2988 RMK T02400190 IEM_DS3505
ZHHH,2006-09-26 14:00,ZHHH 261400Z AUTO 04010KT 1SM 23/19 A2988 RMK T02300190 IEM_DS3505
ZHHH,2006-09-26 15:00,ZHHH 261500Z AUTO 02002KT 7SM 24/17 A2988 RMK SLP120 T02370172 52006 IEM_DS3505
ZHHH,2006-09-26 16:00,ZHHH 261600Z AUTO 02006KT 1SM 23/19 A2988 RMK T02300190 IEM_DS3505
ZHHH,2006-09-26 17:00,ZHHH 261700Z AUTO 1SM 22/19 A2991 RMK T02200190 IEM_DS3505
ZHHH,2006-09-26 18:00,ZHHH 261800Z AUTO 04004KT 7SM 23/17 A2991 RMK SLP122 T02290169 52002 IEM_DS3505
ZHHH,2006-09-26 19:00,ZHHH 261900Z AUTO 07008KT 1SM 21/18 A2988 RMK T02100180 IEM_DS3505
ZHHH,2006-09-26 20:00,ZHHH 262000Z AUTO 04006KT 1SM 21/18 A2988 RMK T02100180 IEM_DS3505
ZHHH,2006-09-26 21:00,ZHHH 262100Z AUTO 07004KT 7SM 22/18 A2991 RMK SLP123 T02190175 52001 IEM_DS3505
ZHHH,2006-09-26 22:00,ZHHH 262200Z AUTO 07006KT 1SM 20/18 A2991 RMK T02000180 IEM_DS3505
ZHHH,2006-09-26 23:00,ZHHH 262300Z AUTO 05006KT 1SM 20/18 A2991 RMK T02000180 IEM_DS3505
ZHHH,2006-09-27 00:00,ZHHH 270000Z AUTO 07004KT 7SM 23/17 A2994 RMK SLP140 T02270174 52017 IEM_DS3505
ZHHH,2006-09-27 01:00,ZHHH 270100Z AUTO 04006KT 1SM 24/19 A2994 RMK T02400190 IEM_DS3505
ZHHH,2006-09-27 02:00,ZHHH 270200Z AUTO 08006KT 2SM 26/18 A2994 RMK T02600180 IEM_DS3505
ZHHH,2006-09-27 03:00,ZHHH 270300Z AUTO 07004KT 9SM 28/16 A2994 RMK SLP135 T02770160 57005 IEM_DS3505
ZHHH,2006-09-27 04:00,ZHHH 270400Z AUTO 13008KT 3SM 28/17 A2991 RMK T02800170 IEM_DS3505
ZHHH,2006-09-27 05:00,ZHHH 270500Z AUTO 10004KT 3SM 30/17 A2988 RMK T03000170 IEM_DS3505
ZHHH,2006-09-27 06:00,ZHHH 270600Z AUTO 11004KT 9SM 31/13 A2985 RMK SLP111 T03110129 57024 IEM_DS3505
ZHHH,2006-09-27 07:00,ZHHH 270700Z AUTO 10006KT 4SM 31/17 A2985 RMK T03100170 IEM_DS3505
ZHHH,2006-09-27 08:00,ZHHH 270800Z AUTO 13004KT 6SM 30/17 A2985 RMK T03000170 IEM_DS3505
ZHHH,2006-09-27 09:00,ZHHH 270900Z AUTO 04004KT 11SM 30/13 A2985 RMK SLP108 T03030131 57003 IEM_DS3505
ZHHH,2006-09-27 10:00,ZHHH 271000Z AUTO 14004KT 6SM 29/18 A2985 RMK T02900180 IEM_DS3505
ZHHH,2006-09-27 11:00,ZHHH 271100Z AUTO 4SM 28/18 A2988 RMK T02800180 IEM_DS3505
ZHHH,2006-09-27 12:00,ZHHH 271200Z AUTO 02002KT 9SM 26/16 A2991 RMK SLP123 T02610161 52015 IEM_DS3505
ZHHH,2006-09-27 13:00,ZHHH 271300Z AUTO 05008KT 4SM 25/18 A2991 RMK T02500180 IEM_DS3505
ZHHH,2006-09-27 14:00,ZHHH 271400Z AUTO 05010KT 4SM 25/18 A2994 RMK T02500180 IEM_DS3505
ZHHH,2006-09-27 15:00,ZHHH 271500Z AUTO 04004KT 9SM 25/16 A2994 RMK SLP134 T02520161 52011 IEM_DS3505
ZHHH,2006-09-27 16:00,ZHHH 271600Z AUTO 05010KT 3SM 23/18 A2994 RMK T02300180 IEM_DS3505
ZHHH,2006-09-27 17:00,ZHHH 271700Z AUTO 05012KT 3SM 23/18 A2994 RMK T02300180 IEM_DS3505
ZHHH,2006-09-27 18:00,ZHHH 271800Z AUTO 02004KT 9SM 24/16 A2994 RMK SLP134 T02400163 54000 IEM_DS3505
ZHHH,2006-09-27 19:00,ZHHH 271900Z AUTO 04010KT 4SM 22/18 A2994 RMK T02200180 IEM_DS3505
ZHHH,2006-09-27 20:00,ZHHH 272000Z AUTO 05008KT 4SM 22/18 A2991 RMK T02200180 IEM_DS3505
ZHHH,2006-09-27 21:00,ZHHH 272100Z AUTO 04004KT 9SM 23/16 A2991 RMK SLP133 T02290165 57001 IEM_DS3505
ZHHH,2006-09-27 22:00,ZHHH 272200Z AUTO 04006KT 2 1/2SM 21/19 A2994 RMK T02100190 IEM_DS3505
ZHHH,2006-09-27 23:00,ZHHH 272300Z AUTO 02004KT 1 1/4SM 21/19 A2997 RMK T02100190 IEM_DS3505
ZHHH,2006-09-28 00:00,ZHHH 280000Z AUTO 02004KT 9SM 23/17 A2997 RMK SLP151 T02290171 52018 IEM_DS3505
ZHHH,2006-09-28 01:00,ZHHH 280100Z AUTO 05010KT 2SM 24/19 A3000 RMK T02400190 IEM_DS3505
ZHHH,2006-09-28 02:00,ZHHH 280200Z AUTO 03008KT 2 1/2SM 26/19 A3000 RMK T02600190 IEM_DS3505
ZHHH,2006-09-28 03:00,ZHHH 280300Z AUTO 02006KT 11SM 27/17 A3000 RMK SLP157 T02670172 52006 IEM_DS3505
ZHHH,2006-09-28 04:00,ZHHH 280400Z AUTO 06010KT 4SM 27/19 A2997 RMK T02700190 IEM_DS3505
ZHHH,2006-09-28 05:00,ZHHH 280500Z AUTO 02008KT 3SM 28/20 A2994 RMK T02800200 IEM_DS3505
ZHHH,2006-09-28 06:00,ZHHH 280600Z AUTO 02004KT 9SM 28/18 A2994 RMK SLP133 T02800181 57024 IEM_DS3505
ZHHH,2006-09-28 07:00,ZHHH 280700Z AUTO 03010KT 1 1/2SM 24/20 A2991 RMK T02400200 IEM_DS3505
ZHHH,2006-09-28 08:00,ZHHH 280800Z AUTO 03010KT 1 1/2SM 24/20 A2991 RMK T02400200 IEM_DS3505
ZHHH,2006-09-28 09:00,ZHHH 280900Z AUTO 04006KT 9SM 24/18 A2994 RMK SLP135 T02430180 52002 IEM_DS3505
ZHHH,2006-09-28 10:00,ZHHH 281000Z AUTO 02008KT 1 1/4SM 23/20 A2994 RMK T02300200 IEM_DS3505
ZHHH,2006-09-28 11:00,ZHHH 281100Z AUTO 02008KT 1 1/4SM 22/20 A2994 RMK T02200200 IEM_DS3505
ZHHH,2006-09-28 12:00,ZHHH 281200Z AUTO 04004KT 7SM 23/18 A2997 RMK SLP144 T02290180 52009 IEM_DS3505
ZHHH,2006-09-28 13:00,ZHHH 281300Z AUTO 02006KT 1 1/4SM 22/19 A2997 RMK T02200190 IEM_DS3505
ZHHH,2006-09-28 14:00,ZHHH 281400Z AUTO 01008KT 1 1/4SM 22/19 A3000 RMK T02200190 IEM_DS3505
ZHHH,2006-09-28 15:00,ZHHH 281500Z AUTO 34004KT 9SM 22/19 A3000 RMK SLP154 T02240186 52010 IEM_DS3505
ZHHH,2006-09-28 16:00,ZHHH 281600Z AUTO 02004KT 1SM 21/20 A3000 RMK T02100200 IEM_DS3505
ZHHH,2006-09-28 17:00,ZHHH 281700Z AUTO 36004KT 1SM 20/20 A3000 RMK T02000200 IEM_DS3505
ZHHH,2006-09-28 18:00,ZHHH 281800Z AUTO 36002KT 6SM 21/20 A3000 RMK 60012 SLP154 T02090196 54000 IEM_DS3505
ZHHH,2006-09-28 19:00,ZHHH 281900Z AUTO 01006KT 1SM 20/20 A3000 RMK T02000200 IEM_DS3505
ZHHH,2006-09-28 20:00,ZHHH 282000Z AUTO 04006KT 1SM 20/20 A2997 RMK T02000200 IEM_DS3505
ZHHH,2006-09-28 21:00,ZHHH 282100Z AUTO 04004KT 6SM 21/19 A3000 RMK 70045 SLP156 T02060194 52002 IEM_DS3505
ZHHH,2006-09-28 22:00,ZHHH 282200Z AUTO 04006KT 1SM 20/20 A3000 RMK T02000200 IEM_DS3505
ZHHH,2006-09-28 23:00,ZHHH 282300Z AUTO 04008KT 1/2SM 19/19 A3003 RMK T01900190 IEM_DS3505
ZHHH,2006-09-29 00:00,ZHHH 290000Z AUTO 07006KT 6SM 21/19 A3003 RMK 60039 70051 SLP172 T02060189 52016 IEM_DS3505
ZHHH,2006-09-29 01:00,ZHHH 290100Z AUTO 06010KT 1SM 18/18 A3006 RMK T01800180 IEM_DS3505
ZHHH,2006-09-29 02:00,ZHHH 290200Z AUTO 04008KT 1SM 18/18 A3009 RMK T01800180 IEM_DS3505
ZHHH,2006-09-29 03:00,ZHHH 290300Z AUTO 07002KT 5SM 19/18 A3009 RMK SLP185 T01940177 52012 IEM_DS3505
ZHHH,2006-09-29 04:00,ZHHH 290400Z AUTO 06012KT 1SM 18/18 A3006 RMK T01800180 IEM_DS3505
ZHHH,2006-09-29 05:00,ZHHH 290500Z AUTO 05008KT 1SM 18/18 A3006 RMK T01800180 IEM_DS3505
ZHHH,2006-09-29 06:00,ZHHH 290600Z AUTO 04006KT 6SM 19/18 A3003 RMK 60008 SLP173 T01920177 57012 IEM_DS3505
ZHHH,2006-09-29 07:00,ZHHH 290700Z AUTO 03006KT 1 1/2SM 18/18 A3003 RMK T01800180 IEM_DS3505
ZHHH,2006-09-29 08:00,ZHHH 290800Z AUTO 04008KT 1 1/4SM 18/18 A3003 RMK T01800180 IEM_DS3505
ZHHH,2006-09-29 09:00,ZHHH 290900Z AUTO 04004KT 6SM 18/17 A3003 RMK SLP166 T01820170 57007 IEM_DS3505
ZHHH,2006-09-29 10:00,ZHHH 291000Z AUTO 05006KT 1SM 17/17 A3003 RMK T01700170 IEM_DS3505
ZHHH,2006-09-29 11:00,ZHHH 291100Z AUTO 04004KT 1 1/4SM 17/17 A3003 RMK T01700170 IEM_DS3505
ZHHH,2006-09-29 12:00,ZHHH 291200Z AUTO 02006KT 5SM 18/17 A3006 RMK 60039 SLP178 T01800169 52012 IEM_DS3505
ZHHH,2006-09-29 13:00,ZHHH 291300Z AUTO 04008KT 3SM 17/17 A3006 RMK T01700170 IEM_DS3505
ZHHH,2006-09-29 14:00,ZHHH 291400Z AUTO 03004KT 4SM 17/17 A3006 RMK T01700170 IEM_DS3505
ZHHH,2006-09-29 15:00,ZHHH 291500Z AUTO 02002KT 6SM 18/17 A3006 RMK SLP179 T01810168 52001 IEM_DS3505
ZHHH,2006-09-29 16:00,ZHHH 291600Z AUTO 02004KT 4SM 17/17 A3006 RMK T01700170 IEM_DS3505
ZHHH,2006-09-29 17:00,ZHHH 291700Z AUTO 02004KT 2 1/2SM 17/17 A3006 RMK T01700170 IEM_DS3505
ZHHH,2006-09-29 18:00,ZHHH 291800Z AUTO 29002KT 6SM 18/17 A3003 RMK 60031 SLP172 T01820172 57007 IEM_DS3505
ZHHH,2006-09-29 19:00,ZHHH 291900Z AUTO 03004KT 1 1/2SM 17/17 A3003 RMK T01700170 IEM_DS3505
ZHHH,2006-09-29 20:00,ZHHH 292000Z AUTO 1 1/2SM 17/17 A3003 RMK T01700170 IEM_DS3505
ZHHH,2006-09-29 21:00,ZHHH 292100Z AUTO 34004KT 6SM 18/17 A3003 RMK 70095 SLP169 T01810171 57003 IEM_DS3505
ZHHH,2006-09-29 22:00,ZHHH 292200Z AUTO 02002KT 1 1/4SM 17/17 A3003 RMK T01700170 IEM_DS3505
ZHHH,2006-09-29 23:00,ZHHH 292300Z AUTO 1SM 17/17 A3003 RMK T01700170 IEM_DS3505
ZHHH,2006-09-30 00:00,ZHHH 300000Z AUTO 34002KT 6SM 18/18 A3006 RMK 60020 70098 SLP176 T01830175 52007 IEM_DS3505
ZHHH,2006-09-30 01:00,ZHHH 300100Z AUTO 36004KT 1 1/4SM 18/18 A3006 RMK T01800180 IEM_DS3505
ZHHH,2006-09-30 02:00,ZHHH 300200Z AUTO 33004KT 1SM 18/18 A3009 RMK T01800180 IEM_DS3505
ZHHH,2006-09-30 03:00,ZHHH 300300Z AUTO 32002KT 6SM 19/18 A3009 RMK SLP185 T01880180 52009 IEM_DS3505
ZHHH,2006-09-30 04:00,ZHHH 300400Z AUTO 01006KT 2SM 18/18 A3006 RMK T01800180 IEM_DS3505
ZHHH,2006-09-30 05:00,ZHHH 300500Z AUTO 02008KT 4SM 18/18 A3006 RMK T01800180 IEM_DS3505
ZHHH,2006-09-30 06:00,ZHHH 300600Z AUTO 36004KT 6SM 18/17 A3003 RMK 60008 SLP173 T01820170 57012 IEM_DS3505
ZHHH,2006-09-30 07:00,ZHHH 300700Z AUTO 04008KT 7SM 18/17 A3003 RMK T01800170 IEM_DS3505
ZHHH,2006-09-30 08:00,ZHHH 300800Z AUTO 03008KT 7SM 18/16 A3003 RMK T01800160 IEM_DS3505
ZHHH,2006-09-30 09:00,ZHHH 300900Z AUTO 04002KT 9SM 18/16 A3003 RMK SLP172 T01820158 57001 IEM_DS3505
ZHHH,2006-09-30 10:00,ZHHH 301000Z AUTO 02008KT 7SM 17/16 A3003 RMK T01700160 IEM_DS3505
ZHHH,2006-09-30 11:00,ZHHH 301100Z AUTO 02006KT 7SM 17/16 A3006 RMK T01700160 IEM_DS3505
ZHHH,2006-09-30 12:00,ZHHH 301200Z AUTO 34004KT 11SM 18/15 A3009 RMK 60001 SLP186 T01790148 52014 IEM_DS3505
ZHHH,2006-09-30 13:00,ZHHH 301300Z AUTO 35006KT 7SM 17/16 A3009 RMK T01700160 IEM_DS3505
ZHHH,2006-09-30 14:00,ZHHH 301400Z AUTO 34006KT 7SM 17/15 A3009 RMK T01700150 IEM_DS3505
ZHHH,2006-09-30 15:00,ZHHH 301500Z AUTO 32002KT 11SM 17/14 A3009 RMK SLP189 T01740145 52003 IEM_DS3505
ZHHH,2006-09-30 16:00,ZHHH 301600Z AUTO 35004KT 7SM 17/16 A3009 RMK T01700160 IEM_DS3505
ZHHH,2006-09-30 17:00,ZHHH 301700Z AUTO 35004KT 7SM 17/16 A3009 RMK T01700160 IEM_DS3505
ZHHH,2006-09-30 18:00,ZHHH 301800Z AUTO 34002KT 9SM 18/15 A3006 RMK SLP180 T01760147 57009 IEM_DS3505
ZHHH,2006-09-30 19:00,ZHHH 301900Z AUTO 35004KT 7SM 17/16 A3006 RMK T01700160 IEM_DS3505
ZHHH,2006-09-30 20:00,ZHHH 302000Z AUTO 36004KT 7SM 17/16 A3006 RMK T01700160 IEM_DS3505
ZHHH,2006-09-30 21:00,ZHHH 302100Z AUTO 34004KT 11SM 17/15 A3006 RMK 70016 SLP179 T01730148 57001 IEM_DS3505
ZHHH,2006-09-30 22:00,ZHHH 302200Z AUTO 36004KT 7SM 16/15 A3006 RMK T01600150 IEM_DS3505
ZHHH,2006-09-30 23:00,ZHHH 302300Z AUTO 4SM 16/15 A3009 RMK T01600150 IEM_DS3505
ZHHH,2006-10-01 00:00,ZHHH 010000Z AUTO 29004KT 11SM 18/15 A3012 RMK 70008 SLP197 T01810152 52018 IEM_DS3505
ZHHH,2006-10-01 01:00,ZHHH 010100Z AUTO 6SM 20/17 A3012 RMK T02000170 IEM_DS3505
ZHHH,2006-10-01 02:00,ZHHH 010200Z AUTO 36004KT 6SM 22/16 A3012 RMK T02200160 IEM_DS3505
ZHHH,2006-10-01 03:00,ZHHH 010300Z AUTO 02002KT 12SM 23/15 A3009 RMK SLP190 T02290150 57007 IEM_DS3505
ZHHH,2006-10-01 04:00,ZHHH 010400Z AUTO 6SM 24/16 A3006 RMK T02400160 IEM_DS3505
ZHHH,2006-10-01 05:00,ZHHH 010500Z AUTO 03006KT 6SM 25/15 A3006 RMK T02500150 IEM_DS3505
ZHHH,2006-10-01 06:00,ZHHH 010600Z AUTO 07006KT 12SM 26/13 A3003 RMK SLP167 T02590131 57022 IEM_DS3505
ZHHH,2006-10-01 07:00,ZHHH 010700Z AUTO 04006KT 6SM 25/15 A3000 RMK T02500150 IEM_DS3505
ZHHH,2006-10-01 08:00,ZHHH 010800Z AUTO 02006KT 6SM 26/13 A3000 RMK T02600130 IEM_DS3505
ZHHH,2006-10-01 09:00,ZHHH 010900Z AUTO 04004KT 12SM 26/11 A3000 RMK SLP161 T02560114 57006 IEM_DS3505
ZHHH,2006-10-01 10:00,ZHHH 011000Z AUTO 32004KT 6SM 24/14 A3003 RMK T02400140 IEM_DS3505
ZHHH,2006-10-01 11:00,ZHHH 011100Z AUTO 01002KT 6SM 23/16 A3003 RMK T02300160 IEM_DS3505
ZHHH,2006-10-01 12:00,ZHHH 011200Z AUTO 18002KT 9SM 22/18 A3006 RMK SLP176 T02160176 52014 IEM_DS3505
ZHHH,2006-10-01 13:00,ZHHH 011300Z AUTO 19006KT 6SM 22/17 A3006 RMK T02200170 IEM_DS3505
ZHHH,2006-10-01 14:00,ZHHH 011400Z AUTO 3SM 21/19 A3006 RMK T02100190 IEM_DS3505
ZHHH,2006-10-01 15:00,ZHHH 011500Z AUTO 25002KT 9SM 20/18 A3006 RMK SLP183 T02030179 52007 IEM_DS3505
ZHHH,2006-10-01 16:00,ZHHH 011600Z AUTO 1 1/4SM 20/19 A3006 RMK T02000190 IEM_DS3505
ZHHH,2006-10-01 17:00,ZHHH 011700Z AUTO 03004KT 2SM 20/18 A3006 RMK T02000180 IEM_DS3505
ZHHH,2006-10-01 18:00,ZHHH 011800Z AUTO 32002KT 7SM 20/18 A3003 RMK SLP170 T01990180 57012 IEM_DS3505
ZHHH,2006-10-01 19:00,ZHHH 011900Z AUTO 09004KT 3SM 19/17 A3003 RMK T01900170 IEM_DS3505
ZHHH,2006-10-01 20:00,ZHHH 012000Z AUTO 02004KT 3SM 19/17 A3003 RMK T01900170 IEM_DS3505
ZHHH,2006-10-01 21:00,ZHHH 012100Z AUTO 07002KT 9SM 19/16 A3003 RMK SLP165 T01930162 57005 IEM_DS3505
ZHHH,2006-10-01 22:00,ZHHH 012200Z AUTO 14004KT 3SM 17/17 A3003 RMK T01700170 IEM_DS3505
ZHHH,2006-10-01 23:00,ZHHH 012300Z AUTO 06004KT 1 1/4SM 17/17 A3003 RMK T01700170 IEM_DS3505
ZHHH,2006-10-02 00:00,ZHHH 020000Z AUTO 09002KT 9SM 20/18 A3006 RMK SLP178 T02000176 52012 IEM_DS3505
ZHHH,2006-10-02 01:00,ZHHH 020100Z AUTO 10004KT 1 1/4SM 21/19 A3006 RMK T02100190 IEM_DS3505
ZHHH,2006-10-02 02:00,ZHHH 020200Z AUTO 13004KT 2SM 23/19 A3006 RMK T02300190 IEM_DS3505
ZHHH,2006-10-02 03:00,ZHHH 020300Z AUTO 36002KT 7SM 24/17 A3003 RMK SLP173 T02450167 57004 IEM_DS3505
ZHHH,2006-10-02 04:00,ZHHH 020400Z AUTO 25004KT 7SM 25/18 A3003 RMK T02500180 IEM_DS3505
ZHHH,2006-10-02 05:00,ZHHH 020500Z AUTO 7SM 26/17 A3000 RMK T02600170 IEM_DS3505
ZHHH,2006-10-02 06:00,ZHHH 020600Z AUTO 27002KT 9SM 27/14 A2997 RMK SLP147 T02710142 57026 IEM_DS3505
ZHHH,2006-10-02 07:00,ZHHH 020700Z AUTO 28004KT 7SM 27/17 A2997 RMK T02700170 IEM_DS3505
ZHHH,2006-10-02 08:00,ZHHH 020800Z AUTO 24004KT 7SM 27/17 A2994 RMK T02700170 IEM_DS3505
ZHHH,2006-10-02 09:00,ZHHH 020900Z AUTO 34002KT 9SM 27/10 A2997 RMK SLP143 T02700102 57004 IEM_DS3505
ZHHH,2006-10-02 10:00,ZHHH 021000Z AUTO 23002KT 3SM 25/17 A2994 RMK T02500170 IEM_DS3505
ZHHH,2006-10-02 11:00,ZHHH 021100Z AUTO 3SM 24/17 A2997 RMK T02400170 IEM_DS3505
ZHHH,2006-10-02 12:00,ZHHH 021200Z AUTO 00000KT 9SM 20/16 A2997 RMK SLP151 T02000162 52007 IEM_DS3505
ZHHH,2006-10-02 13:00,ZHHH 021300Z AUTO 3SM 23/17 A3000 RMK T02300170 IEM_DS3505
ZHHH,2006-10-02 14:00,ZHHH 021400Z AUTO 2 1/2SM 22/16 A3000 RMK T02200160 IEM_DS3505
ZHHH,2006-10-02 15:00,ZHHH 021500Z AUTO 00000KT 9SM 19/17 A3000 RMK SLP155 T01870172 52005 IEM_DS3505
ZHHH,2006-10-02 16:00,ZHHH 021600Z AUTO 08004KT 2 1/2SM 21/17 A3000 RMK T02100170 IEM_DS3505
ZHHH,2006-10-02 17:00,ZHHH 021700Z AUTO 09002KT 2SM 21/17 A2997 RMK T02100170 IEM_DS3505
ZHHH,2006-10-02 18:00,ZHHH 021800Z AUTO 11004KT 7SM 18/17 A2997 RMK SLP149 T01840172 57006 IEM_DS3505
ZHHH,2006-10-02 19:00,ZHHH 021900Z AUTO 36002KT 1SM 18/17 A2997 RMK T01800170 IEM_DS3505
ZHHH,2006-10-02 20:00,ZHHH 022000Z AUTO 06002KT 1SM 18/17 A2997 RMK T01800170 IEM_DS3505
ZHHH,2006-10-02 21:00,ZHHH 022100Z AUTO 04002KT 7SM 19/18 A2997 RMK SLP148 T01890177 57001 IEM_DS3505
ZHHH,2006-10-02 22:00,ZHHH 022200Z AUTO 08006KT 1 1/4SM 18/16 A2997 RMK T01800160 IEM_DS3505
ZHHH,2006-10-02 23:00,ZHHH 022300Z AUTO 11004KT 1 1/4SM 18/17 A3000 RMK T01800170 IEM_DS3505
ZHHH,2006-10-03 00:00,ZHHH 030000Z AUTO 36002KT 6SM 20/18 A3003 RMK SLP167 T02040183 52018 IEM_DS3505
ZHHH,2006-10-03 01:00,ZHHH 030100Z AUTO 10004KT 1 1/4SM 20/19 A3003 RMK T02000190 IEM_DS3505
ZHHH,2006-10-03 02:00,ZHHH 030200Z AUTO 11006KT 1 1/2SM 22/20 A3003 RMK T02200200 IEM_DS3505
ZHHH,2006-10-03 03:00,ZHHH 030300Z AUTO 14002KT 7SM 25/17 A3003 RMK SLP167 T02540173 52001 IEM_DS3505
ZHHH,2006-10-03 04:00,ZHHH 030400Z AUTO 25006KT 4SM 26/18 A3000 RMK T02600180 IEM_DS3505
ZHHH,2006-10-03 05:00,ZHHH 030500Z AUTO 4SM 26/18 A2997 RMK T02600180 IEM_DS3505
ZHHH,2006-10-03 06:00,ZHHH 030600Z AUTO 29004KT 9SM 27/15 A2994 RMK SLP144 T02690146 57023 IEM_DS3505
ZHHH,2006-10-03 07:00,ZHHH 030700Z AUTO 4SM 27/17 A2994 RMK T02700170 IEM_DS3505
ZHHH,2006-10-03 08:00,ZHHH 030800Z AUTO 26004KT 5SM 27/17 A2991 RMK T02700170 IEM_DS3505
ZHHH,2006-10-03 09:00,ZHHH 030900Z AUTO 27002KT 9SM 26/14 A2994 RMK SLP135 T02620137 57009 IEM_DS3505
ZHHH,2006-10-03 10:00,ZHHH 031000Z AUTO 33002KT 4SM 25/18 A2991 RMK T02500180 IEM_DS3505
ZHHH,2006-10-03 11:00,ZHHH 031100Z AUTO 29002KT 4SM 23/19 A2994 RMK T02300190 IEM_DS3505
ZHHH,2006-10-03 12:00,ZHHH 031200Z AUTO 27002KT 11SM 21/17 A2997 RMK SLP144 T02100168 52008 IEM_DS3505
ZHHH,2006-10-03 13:00,ZHHH 031300Z AUTO 03004KT 1 1/2SM 22/17 A2997 RMK T02200170 IEM_DS3505
ZHHH,2006-10-03 14:00,ZHHH 031400Z AUTO 06004KT 1 1/2SM 22/17 A2997 RMK T02200170 IEM_DS3505
ZHHH,2006-10-03 15:00,ZHHH 031500Z AUTO 32002KT 9SM 19/17 A2997 RMK SLP143 T01940170 54000 IEM_DS3505
ZHHH,2006-10-03 16:00,ZHHH 031600Z AUTO 01004KT 2SM 20/17 A2994 RMK T02000170 IEM_DS3505
ZHHH,2006-10-03 17:00,ZHHH 031700Z AUTO 01002KT 2SM 19/17 A2994 RMK T01900170 IEM_DS3505
ZHHH,2006-10-03 18:00,ZHHH 031800Z AUTO 04002KT 9SM 19/16 A2994 RMK SLP137 T01920164 57006 IEM_DS3505
ZHHH,2006-10-03 19:00,ZHHH 031900Z AUTO 01002KT 2SM 18/17 A2994 RMK T01800170 IEM_DS3505
ZHHH,2006-10-03 20:00,ZHHH 032000Z AUTO 01002KT 2SM 17/16 A2994 RMK T01700160 IEM_DS3505
ZHHH,2006-10-03 21:00,ZHHH 032100Z AUTO 34002KT 7SM 18/16 A2994 RMK SLP138 T01760165 52001 IEM_DS3505
ZHHH,2006-10-03 22:00,ZHHH 032200Z AUTO 02002KT 1 1/4SM 17/16 A2994 RMK T01700160 IEM_DS3505
ZHHH,2006-10-03 23:00,ZHHH 032300Z AUTO 35002KT 1 1/4SM 17/16 A2997 RMK T01700160 IEM_DS3505
ZHHH,2006-10-04 00:00,ZHHH 040000Z AUTO 04002KT 7SM 20/17 A2997 RMK SLP153 T01980166 52014 IEM_DS3505
ZHHH,2006-10-04 01:00,ZHHH 040100Z AUTO 2 1/2SM 21/17 A3000 RMK T02100170 IEM_DS3505
ZHHH,2006-10-04 02:00,ZHHH 040200Z AUTO 08004KT 4SM 23/18 A3000 RMK T02300180 IEM_DS3505
ZHHH,2006-10-04 03:00,ZHHH 040300Z AUTO 07002KT 12SM 25/16 A3000 RMK SLP158 T02500159 52006 IEM_DS3505
ZHHH,2006-10-04 04:00,ZHHH 040400Z AUTO 29004KT 6SM 26/18 A2997 RMK T02600180 IEM_DS3505
ZHHH,2006-10-04 05:00,ZHHH 040500Z AUTO 29006KT 6SM 27/18 A2994 RMK T02700180 IEM_DS3505
ZHHH,2006-10-04 06:00,ZHHH 040600Z AUTO 04004KT 11SM 28/14 A2991 RMK SLP129 T02760143 57029 IEM_DS3505
ZHHH,2006-10-04 07:00,ZHHH 040700Z AUTO 29004KT 7SM 28/17 A2988 RMK T02800170 IEM_DS3505
ZHHH,2006-10-04 08:00,ZHHH 040800Z AUTO 28004KT 6SM 28/18 A2988 RMK T02800180 IEM_DS3505
ZHHH,2006-10-04 09:00,ZHHH 040900Z AUTO 07002KT 9SM 27/13 A2988 RMK SLP123 T02700130 57006 IEM_DS3505
ZHHH,2006-10-04 10:00,ZHHH 041000Z AUTO 28004KT 6SM 26/19 A2991 RMK T02600190 IEM_DS3505
ZHHH,2006-10-04 11:00,ZHHH 041100Z AUTO 25002KT 4SM 24/19 A2991 RMK T02400190 IEM_DS3505
ZHHH,2006-10-04 12:00,ZHHH 041200Z AUTO 32002KT 9SM 22/17 A2994 RMK SLP133 T02160168 52010 IEM_DS3505
ZHHH,2006-10-04 13:00,ZHHH 041300Z AUTO 02004KT 3SM 23/18 A2994 RMK T02300180 IEM_DS3505
ZHHH,2006-10-04 14:00,ZHHH 041400Z AUTO 05004KT 2 1/2SM 23/18 A2994 RMK T02300180 IEM_DS3505
ZHHH,2006-10-04 15:00,ZHHH 041500Z AUTO 34002KT 9SM 22/17 A2994 RMK SLP140 T02200172 52007 IEM_DS3505
ZHHH,2006-10-04 16:00,ZHHH 041600Z AUTO 05006KT 2 1/2SM 21/18 A2994 RMK T02100180 IEM_DS3505
ZHHH,2006-10-04 17:00,ZHHH 041700Z AUTO 04006KT 2SM 21/18 A2994 RMK T02100180 IEM_DS3505
ZHHH,2006-10-04 18:00,ZHHH 041800Z AUTO 04002KT 11SM 21/16 A2994 RMK SLP138 T02130161 57002 IEM_DS3505
ZHHH,2006-10-04 19:00,ZHHH 041900Z AUTO 06006KT 2SM 20/17 A2994 RMK T02000170 IEM_DS3505
ZHHH,2006-10-04 20:00,ZHHH 042000Z AUTO 06006KT 2 1/2SM 20/17 A2994 RMK T02000170 IEM_DS3505
ZHHH,2006-10-04 21:00,ZHHH 042100Z AUTO 07002KT 11SM 20/16 A2994 RMK SLP140 T02000162 52002 IEM_DS3505
ZHHH,2006-10-04 22:00,ZHHH 042200Z AUTO 09006KT 1 1/4SM 19/17 A2994 RMK T01900170 IEM_DS3505
ZHHH,2006-10-04 23:00,ZHHH 042300Z AUTO 11004KT 1 1/4SM 19/17 A2997 RMK T01900170 IEM_DS3505
ZHHH,2006-10-05 00:00,ZHHH 050000Z AUTO 09004KT 9SM 22/16 A2997 RMK SLP152 T02150165 52012 IEM_DS3505
ZHHH,2006-10-05 01:00,ZHHH 050100Z AUTO 11006KT 2SM 22/18 A3000 RMK T02200180 IEM_DS3505
ZHHH,2006-10-05 02:00,ZHHH 050200Z AUTO 14006KT 2SM 24/19 A3000 RMK T02400190 IEM_DS3505
ZHHH,2006-10-05 03:00,ZHHH 050300Z AUTO 09002KT 9SM 27/14 A2997 RMK SLP151 T02690143 57001 IEM_DS3505
ZHHH,2006-10-05 04:00,ZHHH 050400Z AUTO 11006KT 2 1/2SM 27/18 A2997 RMK T02700180 IEM_DS3505
ZHHH,2006-10-05 05:00,ZHHH 050500Z AUTO 12006KT 6SM 27/15 A2994 RMK T02700150 IEM_DS3505
ZHHH,2006-10-05 06:00,ZHHH 050600Z AUTO 07002KT 11SM 28/10 A2991 RMK SLP129 T02780096 57022 IEM_DS3505
ZHHH,2006-10-05 07:00,ZHHH 050700Z AUTO 6SM 27/16 A2991 RMK T02700160 IEM_DS3505
ZHHH,2006-10-05 08:00,ZHHH 050800Z AUTO 00000KT 6SM 27/14 A2991 RMK T02700140 IEM_DS3505
ZHHH,2006-10-05 09:00,ZHHH 050900Z AUTO 07002KT 11SM 27/12 A2991 RMK SLP124 T02700119 57005 IEM_DS3505
ZHHH,2006-10-05 10:00,ZHHH 051000Z AUTO 00000KT 6SM 26/14 A2991 RMK T02600140 IEM_DS3505
ZHHH,2006-10-05 11:00,ZHHH 051100Z AUTO 04002KT 6SM 25/15 A2991 RMK T02500150 IEM_DS3505
ZHHH,2006-10-05 12:00,ZHHH 051200Z AUTO 00000KT 9SM 23/14 A2994 RMK SLP134 T02290142 52010 IEM_DS3505
ZHHH,2006-10-05 13:00,ZHHH 051300Z AUTO 6SM 23/17 A2994 RMK T02300170 IEM_DS3505
ZHHH,2006-10-05 14:00,ZHHH 051400Z AUTO 36004KT 6SM 23/17 A2994 RMK T02300170 IEM_DS3505
ZHHH,2006-10-05 15:00,ZHHH 051500Z AUTO 02006KT 9SM 22/16 A2994 RMK SLP141 T02190162 52007 IEM_DS3505
ZHHH,2006-10-05 16:00,ZHHH 051600Z AUTO 03004KT 4SM 23/17 A2994 RMK T02300170 IEM_DS3505
ZHHH,2006-10-05 17:00,ZHHH 051700Z AUTO 00000KT 3SM 22/17 A2994 RMK T02200170 IEM_DS3505
ZHHH,2006-10-05 18:00,ZHHH 051800Z AUTO 05002KT 11SM 22/18 A2994 RMK SLP134 T02170177 57007 IEM_DS3505
ZHHH,2006-10-05 19:00,ZHHH 051900Z AUTO 00000KT 3SM 22/18 A2991 RMK T02200180 IEM_DS3505
ZHHH,2006-10-05 20:00,ZHHH 052000Z AUTO 09002KT 2 1/2SM 21/19 A2991 RMK T02100190 IEM_DS3505
ZHHH,2006-10-05 21:00,ZHHH 052100Z AUTO 04002KT 11SM 21/18 A2994 RMK SLP131 T02110175 57003 IEM_DS3505
ZHHH,2006-10-05 22:00,ZHHH 052200Z AUTO 04004KT 2SM 20/18 A2994 RMK T02000180 IEM_DS3505
ZHHH,2006-10-05 23:00,ZHHH 052300Z AUTO 08006KT 1 1/2SM 20/18 A2994 RMK T02000180 IEM_DS3505
ZHHH,2006-10-06 00:00,ZHHH 060000Z AUTO 02004KT 9SM 22/18 A2997 RMK SLP146 T02220176 52015 IEM_DS3505
ZHHH,2006-10-06 01:00,ZHHH 060100Z AUTO 09006KT 2SM 23/18 A2997 RMK T02300180 IEM_DS3505
ZHHH,2006-10-06 02:00,ZHHH 060200Z AUTO 12004KT 2SM 25/18 A3000 RMK T02500180 IEM_DS3505
ZHHH,2006-10-06 03:00,ZHHH 060300Z AUTO 11002KT 9SM 28/13 A2997 RMK SLP149 T02750127 52003 IEM_DS3505
ZHHH,2006-10-06 04:00,ZHHH 060400Z AUTO 28004KT 3SM 29/16 A2997 RMK T02900160 IEM_DS3505
ZHHH,2006-10-06 05:00,ZHHH 060500Z AUTO 29004KT 3SM 28/15 A2994 RMK T02800150 IEM_DS3505
ZHHH,2006-10-06 06:00,ZHHH 060600Z AUTO 29002KT 11SM 29/11 A2991 RMK SLP129 T02900111 57020 IEM_DS3505
ZHHH,2006-10-06 07:00,ZHHH 060700Z AUTO 31004KT 4SM 28/15 A2991 RMK T02800150 IEM_DS3505
ZHHH,2006-10-06 08:00,ZHHH 060800Z AUTO 28004KT 3SM 26/18 A2991 RMK T02600180 IEM_DS3505
ZHHH,2006-10-06 09:00,ZHHH 060900Z AUTO 27004KT 9SM 26/17 A2991 RMK SLP127 T02550172 57002 IEM_DS3505
ZHHH,2006-10-06 10:00,ZHHH 061000Z AUTO 30006KT 1SM 24/20 A2991 RMK T02400200 IEM_DS3505
ZHHH,2006-10-06 11:00,ZHHH 061100Z AUTO 30008KT 1 1/4SM 24/21 A2994 RMK T02400210 IEM_DS3505
ZHHH,2006-10-06 12:00,ZHHH 061200Z AUTO 29006KT 6SM 24/19 A2994 RMK 60000 SLP139 T02350186 52012 IEM_DS3505
ZHHH,2006-10-06 13:00,ZHHH 061300Z AUTO 30006KT 1 1/4SM 23/21 A2994 RMK T02300210 IEM_DS3505
ZHHH,2006-10-06 14:00,ZHHH 061400Z AUTO 27006KT 1 1/4SM 22/21 A2997 RMK T02200210 IEM_DS3505
ZHHH,2006-10-06 15:00,ZHHH 061500Z AUTO 27004KT 9SM 22/16 A2997 RMK SLP149 T02150162 52010 IEM_DS3505
ZHHH,2006-10-06 16:00,ZHHH 061600Z AUTO 27006KT 1 1/4SM 21/18 A2997 RMK T02100180 IEM_DS3505
ZHHH,2006-10-06 17:00,ZHHH 061700Z AUTO 29006KT 4SM 21/18 A2994 RMK T02100180 IEM_DS3505
ZHHH,2006-10-06 18:00,ZHHH 061800Z AUTO 27006KT 9SM 21/16 A2991 RMK SLP134 T02120157 57015 IEM_DS3505
ZHHH,2006-10-06 19:00,ZHHH 061900Z AUTO 26004KT 4SM 20/18 A2991 RMK T02000180 IEM_DS3505
ZHHH,2006-10-06 20:00,ZHHH 062000Z AUTO 27004KT 4SM 20/18 A2991 RMK T02000180 IEM_DS3505
ZHHH,2006-10-06 21:00,ZHHH 062100Z AUTO 27004KT 9SM 21/16 A2991 RMK 70000 SLP134 T02060156 54000 IEM_DS3505
ZHHH,2006-10-06 22:00,ZHHH 062200Z AUTO 26008KT 4SM 20/17 A2994 RMK T02000170 IEM_DS3505
ZHHH,2006-10-06 23:00,ZHHH 062300Z AUTO 27010KT 2 1/2SM 19/18 A2997 RMK T01900180 IEM_DS3505
ZHHH,2006-10-07 00:00,ZHHH 070000Z AUTO 29006KT 6SM 19/16 A2997 RMK 60004 70004 SLP150 T01860162 52016 IEM_DS3505
ZHHH,2006-10-07 01:00,ZHHH 070100Z AUTO 29006KT 1 1/4SM 18/18 A3000 RMK T01800180 IEM_DS3505
ZHHH,2006-10-07 02:00,ZHHH 070200Z AUTO 30006KT 1 1/4SM 18/18 A3000 RMK T01800180 IEM_DS3505
ZHHH,2006-10-07 03:00,ZHHH 070300Z AUTO 02002KT 7SM 20/17 A3000 RMK SLP158 T01950169 52007 IEM_DS3505
ZHHH,2006-10-07 04:00,ZHHH 070400Z AUTO 26006KT 1 1/2SM 20/18 A2997 RMK T02000180 IEM_DS3505
ZHHH,2006-10-07 05:00,ZHHH 070500Z AUTO 26006KT 1SM 19/18 A3000 RMK T01900180 IEM_DS3505
ZHHH,2006-10-07 06:00,ZHHH 070600Z AUTO 27004KT 7SM 20/16 A2994 RMK 60003 SLP143 T02050163 57014 IEM_DS3505
ZHHH,2006-10-07 07:00,ZHHH 070700Z AUTO 33004KT 2SM 19/18 A2994 RMK T01900180 IEM_DS3505
ZHHH,2006-10-07 08:00,ZHHH 070800Z AUTO 2SM 19/18 A2994 RMK T01900180 IEM_DS3505
ZHHH,2006-10-07 09:00,ZHHH 070900Z AUTO 07002KT 7SM 20/17 A2994 RMK SLP140 T01980168 57004 IEM_DS3505
ZHHH,2006-10-07 10:00,ZHHH 071000Z AUTO 1SM 19/17 A2994 RMK T01900170 IEM_DS3505
ZHHH,2006-10-07 11:00,ZHHH 071100Z AUTO 1SM 19/18 A2997 RMK T01900180 IEM_DS3505
ZHHH,2006-10-07 12:00,ZHHH 071200Z AUTO 27002KT 7SM 20/17 A2997 RMK 60000 SLP153 T01980172 52013 IEM_DS3505
ZHHH,2006-10-07 13:00,ZHHH 071300Z AUTO 1SM 19/19 A2997 RMK T01900190 IEM_DS3505
ZHHH,2006-10-07 14:00,ZHHH 071400Z AUTO 33004KT 1SM 19/19 A2997 RMK T01900190 IEM_DS3505
ZHHH,2006-10-07 15:00,ZHHH 071500Z AUTO 27002KT 7SM 20/17 A3000 RMK SLP156 T01950169 52003 IEM_DS3505
ZHHH,2006-10-07 16:00,ZHHH 071600Z AUTO 35002KT 1SM 19/19 A3000 RMK T01900190 IEM_DS3505
ZHHH,2006-10-07 17:00,ZHHH 071700Z AUTO 34004KT 1SM 19/19 A3000 RMK T01900190 IEM_DS3505
ZHHH,2006-10-07 18:00,ZHHH 071800Z AUTO 32002KT 9SM 19/17 A2997 RMK SLP153 T01940172 57003 IEM_DS3505
ZHHH,2006-10-07 19:00,ZHHH 071900Z AUTO 34004KT 1SM 18/18 A3000 RMK T01800180 IEM_DS3505
ZHHH,2006-10-07 20:00,ZHHH 072000Z AUTO 33004KT 1SM 18/18 A3000 RMK T01800180 IEM_DS3505
ZHHH,2006-10-07 21:00,ZHHH 072100Z AUTO 34002KT 9SM 19/17 A3000 RMK 70007 SLP159 T01920166 52006 IEM_DS3505
ZHHH,2006-10-07 22:00,ZHHH 072200Z AUTO 33006KT 1SM 19/18 A3000 RMK T01900180 IEM_DS3505
ZHHH,2006-10-07 23:00,ZHHH 072300Z AUTO 1 1/4SM 19/18 A3003 RMK T01900180 IEM_DS3505
ZHHH,2006-10-08 00:00,ZHHH 080000Z AUTO 34002KT 7SM 20/17 A3003 RMK 70003 SLP171 T01950171 52012 IEM_DS3505
ZHHH,2006-10-08 01:00,ZHHH 080100Z AUTO 35004KT 1 1/4SM 20/18 A3006 RMK T02000180 IEM_DS3505
ZHHH,2006-10-08 02:00,ZHHH 080200Z AUTO 30004KT 1 1/4SM 20/18 A3006 RMK T02000180 IEM_DS3505
ZHHH,2006-10-08 03:00,ZHHH 080300Z AUTO 29004KT 7SM 22/17 A3006 RMK SLP177 T02170169 52006 IEM_DS3505
ZHHH,2006-10-08 04:00,ZHHH 080400Z AUTO 33004KT 2SM 23/19 A3003 RMK T02300190 IEM_DS3505
ZHHH,2006-10-08 05:00,ZHHH 080500Z AUTO 28004KT 2 1/2SM 24/18 A3000 RMK T02400180 IEM_DS3505
ZHHH,2006-10-08 06:00,ZHHH 080600Z AUTO 27002KT 9SM 24/16 A2997 RMK SLP154 T02360164 57022 IEM_DS3505
ZHHH,2006-10-08 07:00,ZHHH 080700Z AUTO 26004KT 2 1/2SM 23/19 A2997 RMK T02300190 IEM_DS3505
ZHHH,2006-10-08 08:00,ZHHH 080800Z AUTO 26004KT 2 1/2SM 23/19 A2997 RMK T02300190 IEM_DS3505
ZHHH,2006-10-08 09:00,ZHHH 080900Z AUTO 25002KT 9SM 23/16 A2997 RMK SLP154 T02320165 54000 IEM_DS3505
ZHHH,2006-10-08 10:00,ZHHH 081000Z AUTO 21006KT 2SM 22/19 A3000 RMK T02200190 IEM_DS3505
ZHHH,2006-10-08 11:00,ZHHH 081100Z AUTO 22004KT 2 1/2SM 22/19 A3000 RMK T02200190 IEM_DS3505
ZHHH,2006-10-08 12:00,ZHHH 081200Z AUTO 25002KT 7SM 21/17 A3000 RMK SLP164 T02130167 52009 IEM_DS3505
ZHHH,2006-10-08 13:00,ZHHH 081300Z AUTO 21004KT 1 1/2SM 21/19 A3003 RMK T02100190 IEM_DS3505
ZHHH,2006-10-08 14:00,ZHHH 081400Z AUTO 1 1/4SM 20/19 A3003 RMK T02000190 IEM_DS3505
ZHHH,2006-10-08 15:00,ZHHH 081500Z AUTO 27002KT 7SM 20/17 A3003 RMK SLP171 T02020170 52007 IEM_DS3505
ZHHH,2006-10-08 16:00,ZHHH 081600Z AUTO 00000KT 1SM 19/18 A3003 RMK T01900180 IEM_DS3505
ZHHH,2006-10-08 17:00,ZHHH 081700Z AUTO 00000KT 1SM 18/18 A3003 RMK T01800180 IEM_DS3505
ZHHH,2006-10-08 18:00,ZHHH 081800Z AUTO 27002KT 6SM 19/17 A3003 RMK SLP165 T01910172 57006 IEM_DS3505
ZHHH,2006-10-08 19:00,ZHHH 081900Z AUTO 1/2SM 18/18 A3000 RMK T01800180 IEM_DS3505
ZHHH,2006-10-08 20:00,ZHHH 082000Z AUTO 00000KT 1/4SM 18/18 A3000 RMK T01800180 IEM_DS3505
ZHHH,2006-10-08 21:00,ZHHH 082100Z AUTO 22004KT 3SM 18/17 A3000 RMK SLP164 T01820172 57001 IEM_DS3505
ZHHH,2006-10-08 22:00,ZHHH 082200Z AUTO 1/8SM 17/17 A3000 RMK T01700170 IEM_DS3505
ZHHH,2006-10-08 23:00,ZHHH 082300Z AUTO 00000KT 1/8SM 17/17 A3003 RMK T01700170 IEM_DS3505
ZHHH,2006-10-09 00:00,ZHHH 090000Z AUTO 22002KT 6SM 19/17 A3003 RMK SLP173 T01910174 52009 IEM_DS3505
ZHHH,2006-10-09 01:00,ZHHH 090100Z AUTO 1/8SM 18/18 A3006 RMK T01800180 IEM_DS3505
ZHHH,2006-10-09 02:00,ZHHH 090200Z AUTO 1/2SM 21/21 A3006 RMK T02100210 IEM_DS3505
ZHHH,2006-10-09 03:00,ZHHH 090300Z AUTO 20002KT 9SM 25/18 A3006 RMK SLP174 T02480180 52002 IEM_DS3505
ZHHH,2006-10-09 04:00,ZHHH 090400Z AUTO 29004KT 1 1/4SM 25/21 A3003 RMK T02500210 IEM_DS3505
ZHHH,2006-10-09 05:00,ZHHH 090500Z AUTO 29004KT 2 1/2SM 27/19 A3000 RMK T02700190 IEM_DS3505
ZHHH,2006-10-09 06:00,ZHHH 090600Z AUTO 29002KT 9SM 28/16 A2997 RMK SLP147 T02750158 57027 IEM_DS3505
ZHHH,2006-10-09 07:00,ZHHH 090700Z AUTO 28004KT 4SM 27/18 A2997 RMK T02700180 IEM_DS3505
ZHHH,2006-10-09 08:00,ZHHH 090800Z AUTO 4SM 27/17 A2997 RMK T02700170 IEM_DS3505
ZHHH,2006-10-09 09:00,ZHHH 090900Z AUTO 27002KT 9SM 27/15 A2997 RMK SLP145 T02680149 57002 IEM_DS3505
ZHHH,2006-10-09 10:00,ZHHH 091000Z AUTO 00000KT 3SM 25/18 A2997 RMK T02500180 IEM_DS3505
ZHHH,2006-10-09 11:00,ZHHH 091100Z AUTO 24002KT 2 1/2SM 24/18 A2997 RMK T02400180 IEM_DS3505
ZHHH,2006-10-09 12:00,ZHHH 091200Z AUTO 23002KT 7SM 22/18 A3000 RMK SLP158 T02180180 52012 IEM_DS3505
ZHHH,2006-10-09 13:00,ZHHH 091300Z AUTO 27002KT 2 1/2SM 23/19 A3003 RMK T02300190 IEM_DS3505
ZHHH,2006-10-09 14:00,ZHHH 091400Z AUTO 00000KT 2 1/2SM 23/19 A3003 RMK T02300190 IEM_DS3505
ZHHH,2006-10-09 15:00,ZHHH 091500Z AUTO 00000KT 7SM 21/19 A3003 RMK SLP166 T02120186 52009 IEM_DS3505
ZHHH,2006-10-09 16:00,ZHHH 091600Z AUTO 29002KT 2SM 22/20 A3003 RMK T02200200 IEM_DS3505
ZHHH,2006-10-09 17:00,ZHHH 091700Z AUTO 00000KT 1 1/2SM 21/19 A3003 RMK T02100190 IEM_DS3505
ZHHH,2006-10-09 18:00,ZHHH 091800Z AUTO 09002KT 7SM 21/18 A3000 RMK SLP162 T02080176 57004 IEM_DS3505
ZHHH,2006-10-09 19:00,ZHHH 091900Z AUTO 00000KT 1 1/4SM 21/19 A3000 RMK T02100190 IEM_DS3505
ZHHH,2006-10-09 20:00,ZHHH 092000Z AUTO 00000KT 1SM 21/19 A3000 RMK T02100190 IEM_DS3505
ZHHH,2006-10-09 21:00,ZHHH 092100Z AUTO 00000KT 7SM 20/18 A3000 RMK SLP161 T02050175 57001 IEM_DS3505
ZHHH,2006-10-09 22:00,ZHHH 092200Z AUTO 07002KT 1SM 20/19 A3003 RMK T02000190 IEM_DS3505
ZHHH,2006-10-09 23:00,ZHHH 092300Z AUTO 00000KT 1SM 20/18 A3003 RMK T02000180 IEM_DS3505
ZHHH,2006-10-10 00:00,ZHHH 100000Z AUTO 25002KT 7SM 22/18 A3006 RMK SLP176 T02190175 52015 IEM_DS3505
ZHHH,2006-10-10 01:00,ZHHH 100100Z AUTO 00000KT 1SM 22/20 A3006 RMK T02200200 IEM_DS3505
ZHHH,2006-10-10 02:00,ZHHH 100200Z AUTO 1SM 24/20 A3006 RMK T02400200 IEM_DS3505
ZHHH,2006-10-10 03:00,ZHHH 100300Z AUTO 25002KT 9SM 26/17 A3006 RMK SLP178 T02580172 52002 IEM_DS3505
ZHHH,2006-10-10 04:00,ZHHH 100400Z AUTO 2SM 25/19 A3006 RMK T02500190 IEM_DS3505
ZHHH,2006-10-10 05:00,ZHHH 100500Z AUTO 2SM 25/19 A3003 RMK T02500190 IEM_DS3505
ZHHH,2006-10-10 06:00,ZHHH 100600Z AUTO 20002KT 9SM 26/16 A3000 RMK SLP160 T02630165 57018 IEM_DS3505
ZHHH,2006-10-10 07:00,ZHHH 100700Z AUTO 2SM 26/20 A3000 RMK T02600200 IEM_DS3505
ZHHH,2006-10-10 08:00,ZHHH 100800Z AUTO 23004KT 2SM 26/20 A2997 RMK T02600200 IEM_DS3505
ZHHH,2006-10-10 09:00,ZHHH 100900Z AUTO 00000KT 9SM 26/18 A3000 RMK SLP154 T02600182 57006 IEM_DS3505
ZHHH,2006-10-10 10:00,ZHHH 101000Z AUTO 24002KT 1SM 24/20 A3000 RMK T02400200 IEM_DS3505
ZHHH,2006-10-10 11:00,ZHHH 101100Z AUTO 1SM 24/20 A3000 RMK T02400200 IEM_DS3505
ZHHH,2006-10-10 12:00,ZHHH 101200Z AUTO 22002KT 7SM 23/18 A3003 RMK SLP168 T02280181 52014 IEM_DS3505
ZHHH,2006-10-10 13:00,ZHHH 101300Z AUTO 14002KT 1SM 23/20 A3003 RMK T02300200 IEM_DS3505
ZHHH,2006-10-10 14:00,ZHHH 101400Z AUTO 16004KT 1SM 23/20 A3003 RMK T02300200 IEM_DS3505
ZHHH,2006-10-10 15:00,ZHHH 101500Z AUTO 27002KT 7SM 22/19 A3003 RMK SLP173 T02150189 52005 IEM_DS3505
ZHHH,2006-10-10 16:00,ZHHH 101600Z AUTO 34004KT 1SM 21/20 A3003 RMK T02100200 IEM_DS3505
ZHHH,2006-10-10 17:00,ZHHH 101700Z AUTO 04002KT 1SM 21/20 A3003 RMK T02100200 IEM_DS3505
ZHHH,2006-10-10 18:00,ZHHH 101800Z AUTO 27002KT 6SM 20/19 A3003 RMK SLP172 T02030188 57001 IEM_DS3505
ZHHH,2006-10-10 19:00,ZHHH 101900Z AUTO 08002KT 1SM 20/19 A3003 RMK T02000190 IEM_DS3505
ZHHH,2006-10-10 20:00,ZHHH 102000Z AUTO 05004KT 1SM 20/19 A3003 RMK T02000190 IEM_DS3505
ZHHH,2006-10-10 21:00,ZHHH 102100Z AUTO 04002KT 4SM 21/19 A3003 RMK SLP172 T02060194 54000 IEM_DS3505
ZHHH,2006-10-10 22:00,ZHHH 102200Z AUTO 10004KT 1SM 19/19 A3006 RMK T01900190 IEM_DS3505
ZHHH,2006-10-10 23:00,ZHHH 102300Z AUTO 07004KT 1/2SM 19/19 A3006 RMK T01900190 IEM_DS3505
ZHHH,2006-10-11 00:00,ZHHH 110000Z AUTO 07002KT 6SM 21/19 A3009 RMK SLP190 T02110194 52017 IEM_DS3505
ZHHH,2006-10-11 01:00,ZHHH 110100Z AUTO 10004KT 1SM 22/20 A3012 RMK T02200200 IEM_DS3505
ZHHH,2006-10-11 02:00,ZHHH 110200Z AUTO 1SM 24/21 A3012 RMK T02400210 IEM_DS3505
ZHHH,2006-10-11 03:00,ZHHH 110300Z AUTO 09002KT 9SM 26/18 A3009 RMK SLP193 T02640185 52004 IEM_DS3505
ZHHH,2006-10-11 04:00,ZHHH 110400Z AUTO 27004KT 1 1/4SM 26/21 A3009 RMK T02600210 IEM_DS3505
ZHHH,2006-10-11 05:00,ZHHH 110500Z AUTO 28004KT 2 1/2SM 27/18 A3009 RMK T02700180 IEM_DS3505
ZHHH,2006-10-11 06:00,ZHHH 110600Z AUTO 07002KT 7SM 28/18 A3003 RMK SLP172 T02830178 57021 IEM_DS3505
ZHHH,2006-10-11 07:00,ZHHH 110700Z AUTO 28004KT 3SM 29/17 A3003 RMK T02900170 IEM_DS3505
ZHHH,2006-10-11 08:00,ZHHH 110800Z AUTO 28004KT 4SM 29/17 A3003 RMK T02900170 IEM_DS3505
ZHHH,2006-10-11 09:00,ZHHH 110900Z AUTO 07002KT 11SM 28/14 A3003 RMK SLP169 T02790145 57003 IEM_DS3505
ZHHH,2006-10-11 10:00,ZHHH 111000Z AUTO 32002KT 3SM 25/17 A3006 RMK T02500170 IEM_DS3505
ZHHH,2006-10-11 11:00,ZHHH 111100Z AUTO 3SM 25/18 A3006 RMK T02500180 IEM_DS3505
ZHHH,2006-10-11 12:00,ZHHH 111200Z AUTO 24002KT 9SM 21/17 A3009 RMK SLP185 T02120174 52015 IEM_DS3505
ZHHH,2006-10-11 13:00,ZHHH 111300Z AUTO 00000KT 2 1/2SM 23/18 A3009 RMK T02300180 IEM_DS3505
ZHHH,2006-10-11 14:00,ZHHH 111400Z AUTO 03004KT 2SM 23/18 A3009 RMK T02300180 IEM_DS3505
ZHHH,2006-10-11 15:00,ZHHH 111500Z AUTO 02002KT 9SM 20/17 A3009 RMK SLP190 T02020170 52006 IEM_DS3505
ZHHH,2006-10-11 16:00,ZHHH 111600Z AUTO 07004KT 2SM 22/16 A3009 RMK T02200160 IEM_DS3505
ZHHH,2006-10-11 17:00,ZHHH 111700Z AUTO 07004KT 2SM 21/16 A3009 RMK T02100160 IEM_DS3505
ZHHH,2006-10-11 18:00,ZHHH 111800Z AUTO 09002KT 9SM 20/18 A3009 RMK SLP189 T01980183 57001 IEM_DS3505
ZHHH,2006-10-11 19:00,ZHHH 111900Z AUTO 05002KT 4SM 20/17 A3009 RMK T02000170 IEM_DS3505
ZHHH,2006-10-11 20:00,ZHHH 112000Z AUTO 06004KT 4SM 20/17 A3009 RMK T02000170 IEM_DS3505
ZHHH,2006-10-11 21:00,ZHHH 112100Z AUTO 09002KT 9SM 20/17 A3009 RMK SLP188 T02040174 57001 IEM_DS3505
ZHHH,2006-10-11 22:00,ZHHH 112200Z AUTO 08004KT 2SM 19/17 A3009 RMK T01900170 IEM_DS3505
ZHHH,2006-10-11 23:00,ZHHH 112300Z AUTO 04004KT 2SM 19/17 A3012 RMK T01900170 IEM_DS3505
ZHHH,2006-10-12 00:00,ZHHH 120000Z AUTO 07004KT 9SM 22/16 A3012 RMK SLP201 T02170162 52012 IEM_DS3505
ZHHH,2006-10-12 01:00,ZHHH 120100Z AUTO 07008KT 1 1/4SM 23/19 A3015 RMK T02300190 IEM_DS3505
ZHHH,2006-10-12 02:00,ZHHH 120200Z AUTO 11004KT 1 1/4SM 25/19 A3015 RMK T02500190 IEM_DS3505
ZHHH,2006-10-12 03:00,ZHHH 120300Z AUTO 09004KT 9SM 26/17 A3015 RMK SLP203 T02590170 52003 IEM_DS3505
ZHHH,2006-10-12 04:00,ZHHH 120400Z AUTO 08004KT 2SM 27/19 A3012 RMK T02700190 IEM_DS3505
ZHHH,2006-10-12 05:00,ZHHH 120500Z AUTO 29004KT 1 1/2SM 28/19 A3009 RMK T02800190 IEM_DS3505
ZHHH,2006-10-12 06:00,ZHHH 120600Z AUTO 04002KT 7SM 27/17 A3006 RMK SLP181 T02720171 57022 IEM_DS3505
ZHHH,2006-10-12 07:00,ZHHH 120700Z AUTO 2 1/2SM 28/20 A3006 RMK T02800200 IEM_DS3505
ZHHH,2006-10-12 08:00,ZHHH 120800Z AUTO 2SM 28/20 A3003 RMK T02800200 IEM_DS3505
ZHHH,2006-10-12 09:00,ZHHH 120900Z AUTO 23004KT 7SM 27/20 A3006 RMK SLP174 T02700196 57007 IEM_DS3505
ZHHH,2006-10-12 10:00,ZHHH 121000Z AUTO 26004KT 1 1/4SM 26/21 A3006 RMK T02600210 IEM_DS3505
ZHHH,2006-10-12 11:00,ZHHH 121100Z AUTO 27002KT 1 1/4SM 26/21 A3006 RMK T02600210 IEM_DS3505
ZHHH,2006-10-12 12:00,ZHHH 121200Z AUTO 27004KT 6SM 25/19 A3009 RMK 60000 SLP185 T02520193 52011 IEM_DS3505
ZHHH,2006-10-12 15:00,ZHHH 121500Z AUTO 00000KT 6SM 22/18 RMK SLP195 T02170185 52010 IEM_DS3505
ZHHH,2006-10-12 16:00,ZHHH 121600Z AUTO 04004KT 1 1/4SM 22/20 A3009 RMK T02200200 IEM_DS3505
ZHHH,2006-10-12 17:00,ZHHH 121700Z AUTO 19004KT 1 1/4SM 21/19 A3009 RMK T02100190 IEM_DS3505
ZHHH,2006-10-12 18:00,ZHHH 121800Z AUTO 18006KT 6SM 22/18 A3009 RMK 60012 SLP187 T02170179 57008 IEM_DS3505
ZHHH,2006-10-12 19:00,ZHHH 121900Z AUTO 1 1/4SM 21/20 A3009 RMK T02100200 IEM_DS3505
ZHHH,2006-10-12 20:00,ZHHH 122000Z AUTO 08006KT 3SM 21/20 A3009 RMK T02100200 IEM_DS3505
ZHHH,2006-10-12 21:00,ZHHH 122100Z AUTO 09002KT 9SM 21/19 A3009 RMK 70013 SLP186 T02140190 57001 IEM_DS3505
ZHHH,2006-10-12 22:00,ZHHH 122200Z AUTO 2 1/2SM 21/20 A3009 RMK T02100200 IEM_DS3505
ZHHH,2006-10-12 23:00,ZHHH 122300Z AUTO 00000KT 1SM 20/20 A3009 RMK T02000200 IEM_DS3505
ZHHH,2006-10-13 00:00,ZHHH 130000Z AUTO 29002KT 7SM 22/19 A3012 RMK 60000 70013 SLP200 T02200188 52014 IEM_DS3505
ZHHH,2006-10-13 01:00,ZHHH 130100Z AUTO 1 1/4SM 23/21 A3012 RMK T02300210 IEM_DS3505
ZHHH,2006-10-13 02:00,ZHHH 130200Z AUTO 1 1/4SM 24/21 A3012 RMK T02400210 IEM_DS3505
ZHHH,2006-10-13 03:00,ZHHH 130300Z AUTO 09002KT 7SM 26/19 A3012 RMK SLP197 T02590191 57003 IEM_DS3505
ZHHH,2006-10-13 04:00,ZHHH 130400Z AUTO 1 1/2SM 26/21 A3009 RMK T02600210 IEM_DS3505
ZHHH,2006-10-13 05:00,ZHHH 130500Z AUTO 29004KT 1 1/2SM 27/20 A3006 RMK T02700200 IEM_DS3505
ZHHH,2006-10-13 06:00,ZHHH 130600Z AUTO 02002KT 9SM 28/18 A3003 RMK SLP169 T02800184 57028 IEM_DS3505
ZHHH,2006-10-13 07:00,ZHHH 130700Z AUTO 21004KT 1 1/2SM 28/20 A3000 RMK T02800200 IEM_DS3505
ZHHH,2006-10-13 08:00,ZHHH 130800Z AUTO 15004KT 1 1/2SM 28/20 A3000 RMK T02800200 IEM_DS3505
ZHHH,2006-10-13 09:00,ZHHH 130900Z AUTO 04002KT 9SM 27/19 A3000 RMK SLP161 T02730189 57008 IEM_DS3505
ZHHH,2006-10-13 10:00,ZHHH 131000Z AUTO 14004KT 1SM 26/21 A3000 RMK T02600210 IEM_DS3505
ZHHH,2006-10-13 11:00,ZHHH 131100Z AUTO 11004KT 1SM 25/21 A3003 RMK T02500210 IEM_DS3505
ZHHH,2006-10-13 12:00,ZHHH 131200Z AUTO 11002KT 9SM 23/19 A3003 RMK SLP168 T02320187 52007 IEM_DS3505
ZHHH,2006-10-13 13:00,ZHHH 131300Z AUTO 12004KT 1SM 24/21 A3003 RMK T02400210 IEM_DS3505
ZHHH,2006-10-13 14:00,ZHHH 131400Z AUTO 12006KT 1SM 23/20 A3006 RMK T02300200 IEM_DS3505
ZHHH,2006-10-13 15:00,ZHHH 131500Z AUTO 07002KT 7SM 22/19 A3003 RMK SLP173 T02160192 52005 IEM_DS3505
ZHHH,2006-10-13 16:00,ZHHH 131600Z AUTO 14004KT 1SM 23/21 A3003 RMK T02300210 IEM_DS3505
ZHHH,2006-10-13 17:00,ZHHH 131700Z AUTO 14002KT 1SM 22/20 A3003 RMK T02200200 IEM_DS3505
ZHHH,2006-10-13 18:00,ZHHH 131800Z AUTO 09002KT 7SM 22/19 A3000 RMK SLP160 T02150187 57013 IEM_DS3505
ZHHH,2006-10-13 19:00,ZHHH 131900Z AUTO 07004KT 1SM 21/20 A3000 RMK T02100200 IEM_DS3505
ZHHH,2006-10-13 20:00,ZHHH 132000Z AUTO 10004KT 1SM 20/20 A3000 RMK T02000200 IEM_DS3505
ZHHH,2006-10-13 21:00,ZHHH 132100Z AUTO 07004KT 7SM 21/19 A3000 RMK SLP159 T02060189 57001 IEM_DS3505
ZHHH,2006-10-13 22:00,ZHHH 132200Z AUTO 10004KT 1SM 20/20 A3003 RMK T02000200 IEM_DS3505
ZHHH,2006-10-13 23:00,ZHHH 132300Z AUTO 08004KT 1/2SM 20/20 A3003 RMK T02000200 IEM_DS3505
ZHHH,2006-10-14 00:00,ZHHH 140000Z AUTO 14002KT 5SM 22/19 A3003 RMK SLP171 T02200194 52012 IEM_DS3505
ZHHH,2006-10-14 01:00,ZHHH 140100Z AUTO 11006KT 1SM 22/21 A3003 RMK T02200210 IEM_DS3505
ZHHH,2006-10-14 02:00,ZHHH 140200Z AUTO 11004KT 1SM 24/22 A3003 RMK T02400220 IEM_DS3505
ZHHH,2006-10-14 03:00,ZHHH 140300Z AUTO 04002KT 7SM 26/19 A3003 RMK SLP167 T02650194 57004 IEM_DS3505
ZHHH,2006-10-14 04:00,ZHHH 140400Z AUTO 29004KT 1 1/2SM 27/21 A3000 RMK T02700210 IEM_DS3505
ZHHH,2006-10-14 05:00,ZHHH 140500Z AUTO 27004KT 1 1/2SM 28/22 A2997 RMK T02800220 IEM_DS3505
ZHHH,2006-10-14 06:00,ZHHH 140600Z AUTO 11002KT 7SM 28/17 A2994 RMK SLP141 T02840170 57026 IEM_DS3505
ZHHH,2006-10-14 07:00,ZHHH 140700Z AUTO 30004KT 1 1/2SM 29/20 A2994 RMK T02900200 IEM_DS3505
ZHHH,2006-10-14 08:00,ZHHH 140800Z AUTO 2 1/2SM 28/20 A2994 RMK T02800200 IEM_DS3505
ZHHH,2006-10-14 09:00,ZHHH 140900Z AUTO 02002KT 9SM 28/16 A2994 RMK SLP134 T02820165 57007 IEM_DS3505
ZHHH,2006-10-14 10:00,ZHHH 141000Z AUTO 00000KT 1 1/2SM 26/21 A2994 RMK T02600210 IEM_DS3505
ZHHH,2006-10-14 11:00,ZHHH 141100Z AUTO 07002KT 1 1/2SM 25/20 A2994 RMK T02500200 IEM_DS3505
ZHHH,2006-10-14 12:00,ZHHH 141200Z AUTO 05004KT 9SM 22/20 A2997 RMK SLP145 T02230197 52011 IEM_DS3505
ZHHH,2006-10-14 13:00,ZHHH 141300Z AUTO 08002KT 1 1/2SM 24/20 A2997 RMK T02400200 IEM_DS3505
ZHHH,2006-10-14 14:00,ZHHH 141400Z AUTO 00000KT 1 1/2SM 23/20 A2997 RMK T02300200 IEM_DS3505
ZHHH,2006-10-14 15:00,ZHHH 141500Z AUTO 04002KT 7SM 21/20 A3000 RMK SLP154 T02110196 52009 IEM_DS3505
ZHHH,2006-10-14 16:00,ZHHH 141600Z AUTO 07004KT 2SM 22/20 A3000 RMK T02200200 IEM_DS3505
ZHHH,2006-10-14 17:00,ZHHH 141700Z AUTO 10006KT 2SM 21/19 A2997 RMK T02100190 IEM_DS3505
ZHHH,2006-10-14 18:00,ZHHH 141800Z AUTO 06004KT 6SM 21/19 A2997 RMK SLP149 T02090192 57005 IEM_DS3505
ZHHH,2006-10-14 19:00,ZHHH 141900Z AUTO 08004KT 1SM 21/19 A2997 RMK T02100190 IEM_DS3505
ZHHH,2006-10-14 20:00,ZHHH 142000Z AUTO 06004KT 1SM 20/19 A2997 RMK T02000190 IEM_DS3505
ZHHH,2006-10-14 21:00,ZHHH 142100Z AUTO 07002KT 6SM 21/20 A2997 RMK SLP150 T02060196 52001 IEM_DS3505
ZHHH,2006-10-14 22:00,ZHHH 142200Z AUTO 07006KT 1SM 19/19 A2997 RMK T01900190 IEM_DS3505
ZHHH,2006-10-14 23:00,ZHHH 142300Z AUTO 08004KT 1SM 19/18 A3000 RMK T01900180 IEM_DS3505
ZHHH,2006-10-15 00:00,ZHHH 150000Z AUTO 09002KT 5SM 22/19 A3003 RMK SLP166 T02220190 52016 IEM_DS3505
ZHHH,2006-10-15 01:00,ZHHH 150100Z AUTO 12004KT 1SM 22/21 A3003 RMK T02200210 IEM_DS3505
ZHHH,2006-10-15 02:00,ZHHH 150200Z AUTO 13004KT 1SM 24/21 A3003 RMK T02400210 IEM_DS3505
ZHHH,2006-10-15 03:00,ZHHH 150300Z AUTO 22004KT 9SM 28/17 A3003 RMK SLP169 T02790168 52003 IEM_DS3505
ZHHH,2006-10-15 04:00,ZHHH 150400Z AUTO 1 1/2SM 28/20 A3000 RMK T02800200 IEM_DS3505
ZHHH,2006-10-15 05:00,ZHHH 150500Z AUTO 28004KT 1 1/2SM 29/21 A2997 RMK T02900210 IEM_DS3505
ZHHH,2006-10-15 06:00,ZHHH 150600Z AUTO 04002KT 9SM 30/17 A2997 RMK SLP143 T02980166 57026 IEM_DS3505
ZHHH,2006-10-15 07:00,ZHHH 150700Z AUTO 11006KT 1 1/2SM 29/20 A2994 RMK T02900200 IEM_DS3505
ZHHH,2006-10-15 08:00,ZHHH 150800Z AUTO 10006KT 2 1/2SM 29/18 A2991 RMK T02900180 IEM_DS3505
ZHHH,2006-10-15 09:00,ZHHH 150900Z AUTO 07002KT 9SM 28/18 A2991 RMK SLP132 T02830178 57011 IEM_DS3505
ZHHH,2006-10-15 10:00,ZHHH 151000Z AUTO 10004KT 1 1/2SM 27/20 A2994 RMK T02700200 IEM_DS3505
ZHHH,2006-10-15 11:00,ZHHH 151100Z AUTO 10004KT 1 1/4SM 26/19 A2994 RMK T02600190 IEM_DS3505
ZHHH,2006-10-15 12:00,ZHHH 151200Z AUTO 10004KT 9SM 22/19 A2997 RMK SLP146 T02200190 52014 IEM_DS3505
ZHHH,2006-10-15 13:00,ZHHH 151300Z AUTO 00000KT 1 1/4SM 25/19 A2997 RMK T02500190 IEM_DS3505
ZHHH,2006-10-15 14:00,ZHHH 151400Z AUTO 09004KT 1 1/4SM 24/17 A3000 RMK T02400170 IEM_DS3505
ZHHH,2006-10-15 15:00,ZHHH 151500Z AUTO 09002KT 9SM 20/18 A3000 RMK SLP151 T02020183 52005 IEM_DS3505
ZHHH,2006-10-15 16:00,ZHHH 151600Z AUTO 09006KT 1 1/4SM 21/18 A2997 RMK T02100180 IEM_DS3505
ZHHH,2006-10-15 17:00,ZHHH 151700Z AUTO 10006KT 2SM 21/17 A2997 RMK T02100170 IEM_DS3505
ZHHH,2006-10-15 18:00,ZHHH 151800Z AUTO 07002KT 9SM 22/17 A2997 RMK SLP147 T02190173 57004 IEM_DS3505
ZHHH,2006-10-15 19:00,ZHHH 151900Z AUTO 12004KT 2SM 20/18 A2997 RMK T02000180 IEM_DS3505
ZHHH,2006-10-15 20:00,ZHHH 152000Z AUTO 10006KT 1 1/4SM 19/18 A2997 RMK T01900180 IEM_DS3505
ZHHH,2006-10-15 21:00,ZHHH 152100Z AUTO 09002KT 9SM 22/17 A2997 RMK SLP146 T02240171 57001 IEM_DS3505
ZHHH,2006-10-15 22:00,ZHHH 152200Z AUTO 10008KT 1 1/4SM 19/18 A2997 RMK T01900180 IEM_DS3505
ZHHH,2006-10-15 23:00,ZHHH 152300Z AUTO 10008KT 1 1/4SM 19/18 A3000 RMK T01900180 IEM_DS3505
ZHHH,2006-10-16 00:00,ZHHH 160000Z AUTO 09002KT 9SM 23/18 A3000 RMK SLP157 T02300177 52011 IEM_DS3505
ZHHH,2006-10-16 01:00,ZHHH 160100Z AUTO 12008KT 1 1/2SM 23/20 A3000 RMK T02300200 IEM_DS3505
ZHHH,2006-10-16 02:00,ZHHH 160200Z AUTO 13010KT 2SM 25/20 A3000 RMK T02500200 IEM_DS3505
ZHHH,2006-10-16 03:00,ZHHH 160300Z AUTO 11004KT 11SM 28/17 A3000 RMK SLP157 T02800169 54000 IEM_DS3505
ZHHH,2006-10-16 04:00,ZHHH 160400Z AUTO 12006KT 2 1/2SM 28/20 A2997 RMK T02800200 IEM_DS3505
ZHHH,2006-10-16 05:00,ZHHH 160500Z AUTO 15006KT 3SM 29/19 A2994 RMK T02900190 IEM_DS3505
ZHHH,2006-10-16 06:00,ZHHH 160600Z AUTO 25002KT 12SM 30/15 A2991 RMK SLP132 T03020151 57025 IEM_DS3505
ZHHH,2006-10-16 07:00,ZHHH 160700Z AUTO 10006KT 6SM 30/18 A2991 RMK T03000180 IEM_DS3505
ZHHH,2006-10-16 08:00,ZHHH 160800Z AUTO 11004KT 6SM 30/16 A2991 RMK T03000160 IEM_DS3505
ZHHH,2006-10-16 09:00,ZHHH 160900Z AUTO 04002KT 9SM 29/16 A2991 RMK SLP127 T02900162 57005 IEM_DS3505
ZHHH,2006-10-16 10:00,ZHHH 161000Z AUTO 10004KT 3SM 27/19 A2991 RMK T02700190 IEM_DS3505
ZHHH,2006-10-16 11:00,ZHHH 161100Z AUTO 09006KT 3SM 27/19 A2991 RMK T02700190 IEM_DS3505
ZHHH,2006-10-16 12:00,ZHHH 161200Z AUTO 07002KT 9SM 26/17 A2994 RMK SLP136 T02630168 52009 IEM_DS3505
ZHHH,2006-10-16 13:00,ZHHH 161300Z AUTO 25004KT 2 1/2SM 26/21 A2997 RMK T02600210 IEM_DS3505
ZHHH,2006-10-16 14:00,ZHHH 161400Z AUTO 23006KT 1 1/2SM 22/21 A3000 RMK T02200210 IEM_DS3505
ZHHH,2006-10-16 15:00,ZHHH 161500Z AUTO 02004KT 6SM 22/19 A2997 RMK SLP147 T02160190 52011 IEM_DS3505
ZHHH,2006-10-16 16:00,ZHHH 161600Z AUTO 02008KT 1 1/4SM 20/20 A2997 RMK T02000200 IEM_DS3505
ZHHH,2006-10-16 17:00,ZHHH 161700Z AUTO 36006KT 1 1/4SM 20/20 A2997 RMK T02000200 IEM_DS3505
ZHHH,2006-10-16 18:00,ZHHH 161800Z AUTO 36004KT 7SM 22/19 A2997 RMK 60024 SLP146 T02160192 57001 IEM_DS3505
ZHHH,2006-10-16 19:00,ZHHH 161900Z AUTO 02006KT 1SM 20/20 A2997 RMK T02000200 IEM_DS3505
ZHHH,2006-10-16 20:00,ZHHH 162000Z AUTO 03006KT 4SM 20/20 A2997 RMK T02000200 IEM_DS3505
ZHHH,2006-10-16 21:00,ZHHH 162100Z AUTO 04008KT 6SM 21/19 A2997 RMK 70027 SLP145 T02110194 57001 IEM_DS3505
ZHHH,2006-10-16 22:00,ZHHH 162200Z AUTO 02008KT 7SM 18/18 A2997 RMK T01800180 IEM_DS3505
ZHHH,2006-10-16 23:00,ZHHH 162300Z AUTO 02006KT 4SM 19/19 A3000 RMK T01900190 IEM_DS3505
ZHHH,2006-10-17 00:00,ZHHH 170000Z AUTO 36002KT 9SM 20/18 A3003 RMK 60024 70048 SLP165 T01980179 52020 IEM_DS3505
ZHHH,2006-10-17 01:00,ZHHH 170100Z AUTO 04006KT 4SM 20/19 A3003 RMK T02000190 IEM_DS3505
ZHHH,2006-10-17 02:00,ZHHH 170200Z AUTO 05008KT 4SM 20/18 A3006 RMK T02000180 IEM_DS3505
ZHHH,2006-10-17 03:00,ZHHH 170300Z AUTO 04002KT 11SM 21/18 A3006 RMK SLP177 T02110175 52011 IEM_DS3505
ZHHH,2006-10-17 04:00,ZHHH 170400Z AUTO 10004KT 4SM 20/19 A3003 RMK T02000190 IEM_DS3505
ZHHH,2006-10-17 05:00,ZHHH 170500Z AUTO 07008KT 4SM 20/19 A3003 RMK T02000190 IEM_DS3505
ZHHH,2006-10-17 06:00,ZHHH 170600Z AUTO 09002KT 7SM 22/18 A3000 RMK 60002 SLP163 T02160178 57013 IEM_DS3505
ZHHH,2006-10-17 07:00,ZHHH 170700Z AUTO 09004KT 3SM 21/20 A3000 RMK T02100200 IEM_DS3505
ZHHH,2006-10-17 08:00,ZHHH 170800Z AUTO 10004KT 3SM 21/20 A3000 RMK T02100200 IEM_DS3505
ZHHH,2006-10-17 09:00,ZHHH 170900Z AUTO 07002KT 7SM 22/18 A3000 RMK SLP160 T02190181 57003 IEM_DS3505
ZHHH,2006-10-17 10:00,ZHHH 171000Z AUTO 3SM 21/20 A3003 RMK T02100200 IEM_DS3505
ZHHH,2006-10-17 11:00,ZHHH 171100Z AUTO 00000KT 3SM 21/20 A3003 RMK T02100200 IEM_DS3505
ZHHH,2006-10-17 12:00,ZHHH 171200Z AUTO 23002KT 9SM 22/19 A3006 RMK 60000 SLP179 T02160190 52018 IEM_DS3505
ZHHH,2006-10-17 13:00,ZHHH 171300Z AUTO 30002KT 3SM 21/20 A3009 RMK T02100200 IEM_DS3505
ZHHH,2006-10-17 14:00,ZHHH 171400Z AUTO 00000KT 3SM 21/20 A3009 RMK T02100200 IEM_DS3505
ZHHH,2006-10-17 15:00,ZHHH 171500Z AUTO 03004KT 9SM 21/19 A3009 RMK SLP185 T02120191 52006 IEM_DS3505
ZHHH,2006-10-17 16:00,ZHHH 171600Z AUTO 04006KT 1 1/4SM 20/18 A3006 RMK T02000180 IEM_DS3505
ZHHH,2006-10-17 17:00,ZHHH 171700Z AUTO 03006KT 1 1/4SM 19/18 A3006 RMK T01900180 IEM_DS3505
ZHHH,2006-10-17 18:00,ZHHH 171800Z AUTO 04004KT 9SM 20/17 A3006 RMK SLP175 T01970167 57010 IEM_DS3505
ZHHH,2006-10-17 19:00,ZHHH 171900Z AUTO 03008KT 1 1/2SM 18/17 A3003 RMK T01800170 IEM_DS3505
ZHHH,2006-10-17 20:00,ZHHH 172000Z AUTO 02004KT 1 1/2SM 18/17 A3003 RMK T01800170 IEM_DS3505
ZHHH,2006-10-17 21:00,ZHHH 172100Z AUTO 02004KT 9SM 19/16 A3003 RMK 70023 SLP174 T01860160 57001 IEM_DS3505
ZHHH,2006-10-17 22:00,ZHHH 172200Z AUTO 04002KT 1SM 17/16 A3006 RMK T01700160 IEM_DS3505
ZHHH,2006-10-17 23:00,ZHHH 172300Z AUTO 04004KT 1 1/4SM 17/16 A3006 RMK T01700160 IEM_DS3505
ZHHH,2006-10-18 00:00,ZHHH 180000Z AUTO 36002KT 9SM 19/15 A3009 RMK 70002 SLP190 T01880153 52016 IEM_DS3505
ZHHH,2006-10-18 01:00,ZHHH 180100Z AUTO 02006KT 1 1/2SM 20/17 A3009 RMK T02000170 IEM_DS3505
ZHHH,2006-10-18 02:00,ZHHH 180200Z AUTO 03006KT 2SM 21/18 A3009 RMK T02100180 IEM_DS3505
ZHHH,2006-10-18 03:00,ZHHH 180300Z AUTO 04002KT 9SM 22/16 A3009 RMK SLP188 T02150165 57002 IEM_DS3505
ZHHH,2006-10-18 04:00,ZHHH 180400Z AUTO 11004KT 2 1/2SM 23/19 A3006 RMK T02300190 IEM_DS3505
ZHHH,2006-10-18 05:00,ZHHH 180500Z AUTO 10004KT 2SM 22/18 A3003 RMK T02200180 IEM_DS3505
ZHHH,2006-10-18 06:00,ZHHH 180600Z AUTO 14002KT 9SM 23/16 A3003 RMK SLP166 T02310164 57022 IEM_DS3505
ZHHH,2006-10-18 07:00,ZHHH 180700Z AUTO 16004KT 2SM 23/19 A3000 RMK T02300190 IEM_DS3505
ZHHH,2006-10-18 08:00,ZHHH 180800Z AUTO 17004KT 2SM 23/19 A3000 RMK T02300190 IEM_DS3505
ZHHH,2006-10-18 09:00,ZHHH 180900Z AUTO 07002KT 7SM 23/17 A3000 RMK SLP157 T02280173 57009 IEM_DS3505
ZHHH,2006-10-18 10:00,ZHHH 181000Z AUTO 1 1/4SM 22/19 A3000 RMK T02200190 IEM_DS3505
ZHHH,2006-10-18 11:00,ZHHH 181100Z AUTO 10006KT 1 1/4SM 22/19 A3003 RMK T02200190 IEM_DS3505
ZHHH,2006-10-18 12:00,ZHHH 181200Z AUTO 11002KT 7SM 22/18 A3003 RMK SLP172 T02230179 52015 IEM_DS3505
ZHHH,2006-10-18 13:00,ZHHH 181300Z AUTO 11004KT 1SM 21/19 A3006 RMK T02100190 IEM_DS3505
ZHHH,2006-10-18 14:00,ZHHH 181400Z AUTO 06004KT 1SM 21/20 A3006 RMK T02100200 IEM_DS3505
ZHHH,2006-10-18 15:00,ZHHH 181500Z AUTO 09002KT 7SM 22/19 A3003 RMK SLP171 T02180188 54000 IEM_DS3505
ZHHH,2006-10-18 16:00,ZHHH 181600Z AUTO 07004KT 1SM 21/20 A3003 RMK T02100200 IEM_DS3505
ZHHH,2006-10-18 17:00,ZHHH 181700Z AUTO 05004KT 1SM 20/19 A3003 RMK T02000190 IEM_DS3505
ZHHH,2006-10-18 18:00,ZHHH 181800Z AUTO 02002KT 9SM 21/19 A3003 RMK SLP163 T02140188 57008 IEM_DS3505
ZHHH,2006-10-18 19:00,ZHHH 181900Z AUTO 05004KT 1SM 20/19 A3000 RMK T02000190 IEM_DS3505
ZHHH,2006-10-18 20:00,ZHHH 182000Z AUTO 1SM 20/19 A3000 RMK T02000190 IEM_DS3505
ZHHH,2006-10-18 21:00,ZHHH 182100Z AUTO 04002KT 6SM 21/19 A3000 RMK 70001 SLP162 T02080186 57001 IEM_DS3505
ZHHH,2006-10-18 22:00,ZHHH 182200Z AUTO 1SM 19/19 A3003 RMK T01900190 IEM_DS3505
ZHHH,2006-10-18 23:00,ZHHH 182300Z AUTO 02004KT 1/2SM 19/19 A3003 RMK T01900190 IEM_DS3505
ZHHH,2006-10-19 00:00,ZHHH 190000Z AUTO 34002KT 7SM 20/19 A3006 RMK 60008 70007 SLP180 T02040191 52017 IEM_DS3505
ZHHH,2006-10-19 01:00,ZHHH 190100Z AUTO 05006KT 1SM 20/20 A3006 RMK T02000200 IEM_DS3505
ZHHH,2006-10-19 02:00,ZHHH 190200Z AUTO 03004KT 1SM 20/20 A3009 RMK T02000200 IEM_DS3505
ZHHH,2006-10-19 03:00,ZHHH 190300Z AUTO 02004KT 6SM 21/19 A3009 RMK SLP185 T02140190 52005 IEM_DS3505
ZHHH,2006-10-19 04:00,ZHHH 190400Z AUTO 05004KT 1SM 21/20 A3006 RMK T02100200 IEM_DS3505
ZHHH,2006-10-19 05:00,ZHHH 190500Z AUTO 01004KT 1SM 22/20 A3003 RMK T02200200 IEM_DS3505
ZHHH,2006-10-19 06:00,ZHHH 190600Z AUTO 02004KT 7SM 23/19 A3003 RMK 60000 SLP169 T02330190 57015 IEM_DS3505
ZHHH,2006-10-19 07:00,ZHHH 190700Z AUTO 04006KT 1SM 21/20 A3003 RMK T02100200 IEM_DS3505
ZHHH,2006-10-19 08:00,ZHHH 190800Z AUTO 1SM 21/20 A3003 RMK T02100200 IEM_DS3505
ZHHH,2006-10-19 09:00,ZHHH 190900Z AUTO 32002KT 7SM 22/19 A3003 RMK SLP175 T02210187 52005 IEM_DS3505
ZHHH,2006-10-19 10:00,ZHHH 191000Z AUTO 36002KT 1SM 21/20 A3006 RMK T02100200 IEM_DS3505
ZHHH,2006-10-19 11:00,ZHHH 191100Z AUTO 00000KT 1SM 20/20 A3006 RMK T02000200 IEM_DS3505
ZHHH,2006-10-19 12:00,ZHHH 191200Z AUTO 00000KT 9SM 21/19 A3009 RMK SLP188 T02100189 52013 IEM_DS3505
ZHHH,2006-10-19 13:00,ZHHH 191300Z AUTO 00000KT 1SM 20/20 A3009 RMK T02000200 IEM_DS3505
ZHHH,2006-10-19 14:00,ZHHH 191400Z AUTO 04002KT 1/2SM 20/20 A3012 RMK T02000200 IEM_DS3505
ZHHH,2006-10-19 15:00,ZHHH 191500Z AUTO 34002KT 7SM 21/19 A3012 RMK SLP199 T02090190 52011 IEM_DS3505
ZHHH,2006-10-19 16:00,ZHHH 191600Z AUTO 01002KT 3/8SM 20/20 A3012 RMK T02000200 IEM_DS3505
ZHHH,2006-10-19 18:00,ZHHH 191800Z AUTO 32002KT 6SM 20/19 A3012 RMK SLP197 T02050192 57002 IEM_DS3505
ZHHH,2006-10-19 19:00,ZHHH 191900Z AUTO 03004KT 1/2SM 19/19 A3009 RMK T01900190 IEM_DS3505
ZHHH,2006-10-19 20:00,ZHHH 192000Z AUTO 1/2SM 19/19 A3009 RMK T01900190 IEM_DS3505
ZHHH,2006-10-19 21:00,ZHHH 192100Z AUTO 07002KT 5SM 20/19 A3012 RMK 70006 SLP197 T02010191 54000 IEM_DS3505
ZHHH,2006-10-19 22:00,ZHHH 192200Z AUTO 36002KT 1SM 19/19 A3012 RMK T01900190 IEM_DS3505
ZHHH,2006-10-19 23:00,ZHHH 192300Z AUTO 34004KT 1/2SM 19/19 A3015 RMK T01900190 IEM_DS3505
ZHHH,2006-10-20 00:00,ZHHH 200000Z AUTO 34002KT 6SM 20/19 A3018 RMK 70000 SLP218 T02050188 52021 IEM_DS3505
ZHHH,2006-10-20 01:00,ZHHH 200100Z AUTO 01006KT 1SM 20/20 A3018 RMK T02000200 IEM_DS3505
ZHHH,2006-10-20 02:00,ZHHH 200200Z AUTO 04008KT 1SM 21/20 A3018 RMK T02100200 IEM_DS3505
ZHHH,2006-10-20 03:00,ZHHH 200300Z AUTO 04004KT 7SM 23/18 A3018 RMK SLP220 T02310180 52002 IEM_DS3505
ZHHH,2006-10-20 04:00,ZHHH 200400Z AUTO 08008KT 2 1/2SM 25/20 A3015 RMK T02500200 IEM_DS3505
ZHHH,2006-10-20 05:00,ZHHH 200500Z AUTO 06006KT 4SM 26/21 A3012 RMK T02600210 IEM_DS3505
ZHHH,2006-10-20 06:00,ZHHH 200600Z AUTO 09004KT 9SM 26/18 A3012 RMK SLP195 T02620183 57024 IEM_DS3505
ZHHH,2006-10-20 07:00,ZHHH 200700Z AUTO 14004KT 4SM 26/20 A3009 RMK T02600200 IEM_DS3505
ZHHH,2006-10-20 08:00,ZHHH 200800Z AUTO 16004KT 2SM 25/20 A3009 RMK T02500200 IEM_DS3505
ZHHH,2006-10-20 09:00,ZHHH 200900Z AUTO 09002KT 9SM 26/18 A3012 RMK SLP193 T02580180 57002 IEM_DS3505
ZHHH,2006-10-20 10:00,ZHHH 201000Z AUTO 00000KT 1 1/2SM 23/21 A3012 RMK T02300210 IEM_DS3505
ZHHH,2006-10-20 11:00,ZHHH 201100Z AUTO 2SM 23/21 A3012 RMK T02300210 IEM_DS3505
ZHHH,2006-10-20 12:00,ZHHH 201200Z AUTO 04006KT 9SM 22/20 A3012 RMK SLP200 T02250197 52006 IEM_DS3505
ZHHH,2006-10-20 13:00,ZHHH 201300Z AUTO 06006KT 5SM 23/19 A3012 RMK T02300190 IEM_DS3505
ZHHH,2006-10-20 14:00,ZHHH 201400Z AUTO 6SM 22/19 A3015 RMK T02200190 IEM_DS3505
ZHHH,2006-10-20 15:00,ZHHH 201500Z AUTO 07002KT 9SM 22/17 A3015 RMK SLP205 T02240171 52006 IEM_DS3505
ZHHH,2006-10-20 16:00,ZHHH 201600Z AUTO 6SM 21/18 A3015 RMK T02100180 IEM_DS3505
ZHHH,2006-10-20 17:00,ZHHH 201700Z AUTO 06006KT 6SM 20/19 A3012 RMK T02000190 IEM_DS3505
ZHHH,2006-10-20 18:00,ZHHH 201800Z AUTO 07002KT 11SM 21/18 A3012 RMK SLP197 T02130175 57008 IEM_DS3505
ZHHH,2006-10-20 19:00,ZHHH 201900Z AUTO 11006KT 6SM 20/19 A3009 RMK T02000190 IEM_DS3505
ZHHH,2006-10-20 20:00,ZHHH 202000Z AUTO 09006KT 4SM 20/20 A3009 RMK T02000200 IEM_DS3505
ZHHH,2006-10-20 21:00,ZHHH 202100Z AUTO 07002KT 11SM 22/18 A3009 RMK SLP187 T02170183 57010 IEM_DS3505
ZHHH,2006-10-20 22:00,ZHHH 202200Z AUTO 08006KT 3SM 20/19 A3009 RMK T02000190 IEM_DS3505
ZHHH,2006-10-20 23:00,ZHHH 202300Z AUTO 09006KT 1 1/2SM 20/19 A3009 RMK T02000190 IEM_DS3505
ZHHH,2006-10-21 00:00,ZHHH 210000Z AUTO 09002KT 9SM 22/18 A3012 RMK SLP195 T02230177 52008 IEM_DS3505
ZHHH,2006-10-21 01:00,ZHHH 210100Z AUTO 10006KT 3SM 21/19 A3012 RMK T02100190 IEM_DS3505
ZHHH,2006-10-21 02:00,ZHHH 210200Z AUTO 12006KT 4SM 22/20 A3012 RMK T02200200 IEM_DS3505
ZHHH,2006-10-21 03:00,ZHHH 210300Z AUTO 09004KT 9SM 24/18 A3009 RMK SLP192 T02370177 57003 IEM_DS3505
ZHHH,2006-10-21 04:00,ZHHH 210400Z AUTO 10004KT 3SM 23/20 A3009 RMK T02300200 IEM_DS3505
ZHHH,2006-10-21 05:00,ZHHH 210500Z AUTO 07004KT 4SM 23/20 A3006 RMK T02300200 IEM_DS3505
ZHHH,2006-10-21 06:00,ZHHH 210600Z AUTO 07002KT 7SM 22/19 A3003 RMK 60002 SLP168 T02240192 57024 IEM_DS3505
ZHHH,2006-10-21 07:00,ZHHH 210700Z AUTO 03006KT 1 1/2SM 21/20 A3003 RMK T02100200 IEM_DS3505
ZHHH,2006-10-21 08:00,ZHHH 210800Z AUTO 04006KT 1 1/2SM 20/20 A3003 RMK T02000200 IEM_DS3505
ZHHH,2006-10-21 09:00,ZHHH 210900Z AUTO 07004KT 4SM 20/19 A3003 RMK SLP171 T02020190 52002 IEM_DS3505
ZHHH,2006-10-21 10:00,ZHHH 211000Z AUTO 04004KT 1SM 19/19 A3003 RMK T01900190 IEM_DS3505
ZHHH,2006-10-21 11:00,ZHHH 211100Z AUTO 09006KT 1SM 19/19 A3006 RMK T01900190 IEM_DS3505
ZHHH,2006-10-21 12:00,ZHHH 211200Z AUTO 09002KT 4SM 20/19 A3006 RMK 60051 SLP181 T02000192 52010 IEM_DS3505
ZHHH,2006-10-21 13:00,ZHHH 211300Z AUTO 07004KT 1/2SM 19/19 A3006 RMK T01900190 IEM_DS3505
ZHHH,2006-10-21 14:00,ZHHH 211400Z AUTO 02004KT 1SM 19/19 A3006 RMK T01900190 IEM_DS3505
ZHHH,2006-10-21 15:00,ZHHH 211500Z AUTO 34002KT 5SM 20/19 A3006 RMK SLP180 T02010193 54000 IEM_DS3505
ZHHH,2006-10-21 16:00,ZHHH 211600Z AUTO 36002KT 1SM 19/19 A3006 RMK T01900190 IEM_DS3505
ZHHH,2006-10-21 17:00,ZHHH 211700Z AUTO 1SM 19/19 A3003 RMK T01900190 IEM_DS3505
ZHHH,2006-10-21 18:00,ZHHH 211800Z AUTO 02002KT 5SM 20/19 A3003 RMK 60051 SLP170 T02010193 57011 IEM_DS3505
ZHHH,2006-10-21 19:00,ZHHH 211900Z AUTO 1SM 19/19 A3003 RMK T01900190 IEM_DS3505
ZHHH,2006-10-21 20:00,ZHHH 212000Z AUTO 36004KT 1SM 19/19 A3003 RMK T01900190 IEM_DS3505
ZHHH,2006-10-21 21:00,ZHHH 212100Z AUTO 27002KT 4SM 20/19 A3003 RMK 70106 SLP172 T02010191 52002 IEM_DS3505
ZHHH,2006-10-21 22:00,ZHHH 212200Z AUTO 32004KT 1SM 19/19 A3006 RMK T01900190 IEM_DS3505
ZHHH,2006-10-21 23:00,ZHHH 212300Z AUTO 33004KT 1SM 19/19 A3006 RMK T01900190 IEM_DS3505
ZHHH,2006-10-22 00:00,ZHHH 220000Z AUTO 32004KT 7SM 20/19 A3009 RMK 60000 70106 SLP191 T02030190 52019 IEM_DS3505
ZHHH,2006-10-22 01:00,ZHHH 220100Z AUTO 1 1/4SM 20/20 A3012 RMK T02000200 IEM_DS3505
ZHHH,2006-10-22 02:00,ZHHH 220200Z AUTO 01004KT 2SM 21/21 A3012 RMK T02100210 IEM_DS3505
ZHHH,2006-10-22 03:00,ZHHH 220300Z AUTO 32004KT 9SM 23/19 A3012 RMK SLP197 T02310186 52006 IEM_DS3505
ZHHH,2006-10-22 04:00,ZHHH 220400Z AUTO 34006KT 3SM 23/21 A3009 RMK T02300210 IEM_DS3505
ZHHH,2006-10-22 05:00,ZHHH 220500Z AUTO 32004KT 4SM 24/21 A3006 RMK T02400210 IEM_DS3505
ZHHH,2006-10-22 06:00,ZHHH 220600Z AUTO 32002KT 11SM 25/19 A3006 RMK SLP177 T02510188 57019 IEM_DS3505
ZHHH,2006-10-22 07:00,ZHHH 220700Z AUTO 30006KT 3SM 25/21 A3006 RMK T02500210 IEM_DS3505
ZHHH,2006-10-22 08:00,ZHHH 220800Z AUTO 30004KT 3SM 25/21 A3006 RMK T02500210 IEM_DS3505
ZHHH,2006-10-22 09:00,ZHHH 220900Z AUTO 04002KT 9SM 24/18 A3006 RMK SLP178 T02450184 52001 IEM_DS3505
ZHHH,2006-10-22 10:00,ZHHH 221000Z AUTO 04006KT 2SM 23/19 A3009 RMK T02300190 IEM_DS3505
ZHHH,2006-10-22 11:00,ZHHH 221100Z AUTO 04006KT 2SM 22/19 A3009 RMK T02200190 IEM_DS3505
ZHHH,2006-10-22 12:00,ZHHH 221200Z AUTO 34002KT 9SM 22/17 A3012 RMK SLP198 T02230172 52019 IEM_DS3505
ZHHH,2006-10-22 13:00,ZHHH 221300Z AUTO 02006KT 2SM 21/19 A3015 RMK T02100190 IEM_DS3505
ZHHH,2006-10-22 14:00,ZHHH 221400Z AUTO 02006KT 2SM 21/19 A3015 RMK T02100190 IEM_DS3505
ZHHH,2006-10-22 15:00,ZHHH 221500Z AUTO 02004KT 9SM 21/17 A3015 RMK SLP213 T02140174 52015 IEM_DS3505
ZHHH,2006-10-22 16:00,ZHHH 221600Z AUTO 03010KT 2SM 20/15 A3018 RMK T02000150 IEM_DS3505
ZHHH,2006-10-22 17:00,ZHHH 221700Z AUTO 03010KT 2SM 19/12 A3018 RMK T01900120 IEM_DS3505
ZHHH,2006-10-22 18:00,ZHHH 221800Z AUTO 07004KT 11SM 19/10 A3018 RMK SLP218 T01890097 52005 IEM_DS3505
ZHHH,2006-10-22 19:00,ZHHH 221900Z AUTO 03008KT 6SM 16/10 A3018 RMK T01600100 IEM_DS3505
ZHHH,2006-10-22 20:00,ZHHH 222000Z AUTO 04008KT 6SM 16/09 A3018 RMK T01600090 IEM_DS3505
ZHHH,2006-10-22 21:00,ZHHH 222100Z AUTO 04006KT 12SM 17/07 A3018 RMK SLP223 T01660070 52005 IEM_DS3505
ZHHH,2006-10-22 22:00,ZHHH 222200Z AUTO 04008KT 6SM 15/08 A3021 RMK T01500080 IEM_DS3505
ZHHH,2006-10-22 23:00,ZHHH 222300Z AUTO 04008KT 6SM 14/08 A3024 RMK T01400080 IEM_DS3505
ZHHH,2006-10-23 00:00,ZHHH 230000Z AUTO 02006KT 12SM 16/07 A3024 RMK SLP241 T01600070 52018 IEM_DS3505
ZHHH,2006-10-23 01:00,ZHHH 230100Z AUTO 04010KT 6SM 17/09 A3027 RMK T01700090 IEM_DS3505
ZHHH,2006-10-23 02:00,ZHHH 230200Z AUTO 04010KT 6SM 19/10 A3027 RMK T01900100 IEM_DS3505
ZHHH,2006-10-23 03:00,ZHHH 230300Z AUTO 07006KT 14SM 21/07 A3027 RMK SLP248 T02080074 52007 IEM_DS3505
ZHHH,2006-10-23 04:00,ZHHH 230400Z AUTO 05014KT 6SM 22/09 A3024 RMK T02200090 IEM_DS3505
ZHHH,2006-10-23 05:00,ZHHH 230500Z AUTO 05012KT 6SM 22/08 A3021 RMK T02200080 IEM_DS3505
ZHHH,2006-10-23 06:00,ZHHH 230600Z AUTO 11004KT 11SM 23/06 A3018 RMK SLP224 T02320061 57024 IEM_DS3505
ZHHH,2006-10-23 07:00,ZHHH 230700Z AUTO 04008KT 6SM 23/08 A3018 RMK T02300080 IEM_DS3505
ZHHH,2006-10-23 08:00,ZHHH 230800Z AUTO 03006KT 6SM 23/09 A3018 RMK T02300090 IEM_DS3505
ZHHH,2006-10-23 09:00,ZHHH 230900Z AUTO 36002KT 9SM 22/06 A3018 RMK SLP219 T02200063 57005 IEM_DS3505
ZHHH,2006-10-23 10:00,ZHHH 231000Z AUTO 04008KT 6SM 19/10 A3018 RMK T01900100 IEM_DS3505
ZHHH,2006-10-23 11:00,ZHHH 231100Z AUTO 04008KT 6SM 18/10 A3021 RMK T01800100 IEM_DS3505
ZHHH,2006-10-23 12:00,ZHHH 231200Z AUTO 04004KT 11SM 19/08 A3021 RMK SLP232 T01880082 52013 IEM_DS3505
ZHHH,2006-10-23 13:00,ZHHH 231300Z AUTO 04008KT 6SM 17/10 A3021 RMK T01700100 IEM_DS3505
ZHHH,2006-10-23 14:00,ZHHH 231400Z AUTO 03006KT 6SM 17/10 A3024 RMK T01700100 IEM_DS3505
ZHHH,2006-10-23 15:00,ZHHH 231500Z AUTO 02004KT 9SM 17/09 A3024 RMK SLP238 T01730087 52006 IEM_DS3505
ZHHH,2006-10-23 16:00,ZHHH 231600Z AUTO 03004KT 6SM 16/11 A3024 RMK T01600110 IEM_DS3505
ZHHH,2006-10-23 17:00,ZHHH 231700Z AUTO 02004KT 6SM 16/11 A3021 RMK T01600110 IEM_DS3505
ZHHH,2006-10-23 18:00,ZHHH 231800Z AUTO 04004KT 9SM 17/09 A3021 RMK SLP233 T01690091 57005 IEM_DS3505
ZHHH,2006-10-23 19:00,ZHHH 231900Z AUTO 05004KT 6SM 16/11 A3021 RMK T01600110 IEM_DS3505
ZHHH,2006-10-23 20:00,ZHHH 232000Z AUTO 04006KT 6SM 15/11 A3021 RMK T01500110 IEM_DS3505
ZHHH,2006-10-23 21:00,ZHHH 232100Z AUTO 02002KT 9SM 17/10 A3021 RMK SLP229 T01660098 57004 IEM_DS3505
ZHHH,2006-10-23 22:00,ZHHH 232200Z AUTO 05006KT 6SM 15/12 A3021 RMK T01500120 IEM_DS3505
ZHHH,2006-10-23 23:00,ZHHH 232300Z AUTO 05006KT 4SM 15/12 A3024 RMK T01500120 IEM_DS3505
ZHHH,2006-10-24 00:00,ZHHH 240000Z AUTO 04004KT 11SM 17/10 A3024 RMK 60000 70000 SLP245 T01670101 52016 IEM_DS3505
ZHHH,2006-10-24 01:00,ZHHH 240100Z AUTO 05006KT 4SM 16/12 A3027 RMK T01600120 IEM_DS3505
ZHHH,2006-10-24 02:00,ZHHH 240200Z AUTO 04006KT 4SM 17/12 A3027 RMK T01700120 IEM_DS3505
ZHHH,2006-10-24 03:00,ZHHH 240300Z AUTO 04004KT 9SM 18/11 A3027 RMK SLP245 T01830109 54000 IEM_DS3505
ZHHH,2006-10-24 04:00,ZHHH 240400Z AUTO 03006KT 4SM 18/13 A3027 RMK T01800130 IEM_DS3505
ZHHH,2006-10-24 05:00,ZHHH 240500Z AUTO 02008KT 4SM 18/13 A3024 RMK T01800130 IEM_DS3505
ZHHH,2006-10-24 06:00,ZHHH 240600Z AUTO 02004KT 9SM 19/11 A3024 RMK SLP235 T01910107 57010 IEM_DS3505
ZHHH,2006-10-24 07:00,ZHHH 240700Z AUTO 36008KT 5SM 18/14 A3024 RMK T01800140 IEM_DS3505
ZHHH,2006-10-24 08:00,ZHHH 240800Z AUTO 35008KT 3SM 18/14 A3024 RMK T01800140 IEM_DS3505
ZHHH,2006-10-24 09:00,ZHHH 240900Z AUTO 34006KT 11SM 17/11 A3024 RMK SLP242 T01740112 52007 IEM_DS3505
ZHHH,2006-10-24 10:00,ZHHH 241000Z AUTO 36008KT 3SM 16/13 A3024 RMK T01600130 IEM_DS3505
ZHHH,2006-10-24 11:00,ZHHH 241100Z AUTO 01006KT 3SM 16/13 A3027 RMK T01600130 IEM_DS3505
ZHHH,2006-10-24 12:00,ZHHH 241200Z AUTO 34006KT 9SM 16/12 A3027 RMK SLP251 T01570119 52009 IEM_DS3505
ZHHH,2006-10-24 13:00,ZHHH 241300Z AUTO 35004KT 3SM 14/14 A3030 RMK T01400140 IEM_DS3505
ZHHH,2006-10-24 14:00,ZHHH 241400Z AUTO 01004KT 3SM 14/14 A3030 RMK T01400140 IEM_DS3505
ZHHH,2006-10-24 15:00,ZHHH 241500Z AUTO 34004KT 6SM 14/13 A3030 RMK SLP260 T01450130 52009 IEM_DS3505
ZHHH,2006-10-24 16:00,ZHHH 241600Z AUTO 36004KT 1SM 14/14 A3030 RMK T01400140 IEM_DS3505
ZHHH,2006-10-24 17:00,ZHHH 241700Z AUTO 36004KT 1SM 14/14 A3027 RMK T01400140 IEM_DS3505
ZHHH,2006-10-24 18:00,ZHHH 241800Z AUTO 34004KT 7SM 15/13 A3027 RMK 60016 SLP253 T01460133 57007 IEM_DS3505
ZHHH,2006-10-24 19:00,ZHHH 241900Z AUTO 35004KT 1SM 14/14 A3027 RMK T01400140 IEM_DS3505
ZHHH,2006-10-24 20:00,ZHHH 242000Z AUTO 35004KT 1 1/4SM 14/14 A3027 RMK T01400140 IEM_DS3505
ZHHH,2006-10-24 21:00,ZHHH 242100Z AUTO 29004KT 6SM 14/13 A3027 RMK 70019 SLP251 T01430132 57002 IEM_DS3505
ZHHH,2006-10-24 22:00,ZHHH 242200Z AUTO 01004KT 1SM 13/13 A3027 RMK T01300130 IEM_DS3505
ZHHH,2006-10-24 23:00,ZHHH 242300Z AUTO 35004KT 1SM 13/13 A3030 RMK T01300130 IEM_DS3505
ZHHH,2006-10-25 00:00,ZHHH 250000Z AUTO 29002KT 6SM 14/13 A3030 RMK 60028 70044 SLP264 T01420131 52013 IEM_DS3505
ZHHH,2006-10-25 01:00,ZHHH 250100Z AUTO 35004KT 1 1/4SM 14/14 A3033 RMK T01400140 IEM_DS3505
ZHHH,2006-10-25 02:00,ZHHH 250200Z AUTO 34006KT 1SM 14/14 A3036 RMK T01400140 IEM_DS3505
ZHHH,2006-10-25 03:00,ZHHH 250300Z AUTO 34004KT 6SM 15/13 A3033 RMK SLP271 T01500130 52007 IEM_DS3505
ZHHH,2006-10-25 04:00,ZHHH 250400Z AUTO 36004KT 1 1/4SM 15/14 A3033 RMK T01500140 IEM_DS3505
ZHHH,2006-10-25 05:00,ZHHH 250500Z AUTO 36004KT 1 1/4SM 15/14 A3030 RMK T01500140 IEM_DS3505
ZHHH,2006-10-25 06:00,ZHHH 250600Z AUTO 34004KT 7SM 16/12 A3027 RMK 60000 SLP255 T01550123 57016 IEM_DS3505
ZHHH,2006-10-25 07:00,ZHHH 250700Z AUTO 00000KT 1SM 15/14 A3027 RMK T01500140 IEM_DS3505
ZHHH,2006-10-25 08:00,ZHHH 250800Z AUTO 36004KT 1SM 15/14 A3027 RMK T01500140 IEM_DS3505
ZHHH,2006-10-25 09:00,ZHHH 250900Z AUTO 02004KT 7SM 16/12 A3027 RMK SLP249 T01590125 57006 IEM_DS3505
ZHHH,2006-10-25 10:00,ZHHH 251000Z AUTO 1 1/2SM 15/14 A3030 RMK T01500140 IEM_DS3505
ZHHH,2006-10-25 11:00,ZHHH 251100Z AUTO 1 1/2SM 16/14 A3030 RMK T01600140 IEM_DS3505
ZHHH,2006-10-25 12:00,ZHHH 251200Z AUTO 36002KT 7SM 16/13 A3033 RMK SLP265 T01610128 52016 IEM_DS3505
ZHHH,2006-10-25 13:00,ZHHH 251300Z AUTO 1 1/2SM 16/14 A3033 RMK T01600140 IEM_DS3505
ZHHH,2006-10-25 14:00,ZHHH 251400Z AUTO 02004KT 1 1/2SM 15/12 A3033 RMK T01500120 IEM_DS3505
ZHHH,2006-10-25 15:00,ZHHH 251500Z AUTO 02002KT 7SM 16/11 A3033 RMK SLP266 T01610111 52001 IEM_DS3505
ZHHH,2006-10-25 16:00,ZHHH 251600Z AUTO 1SM 15/13 A3030 RMK T01500130 IEM_DS3505
ZHHH,2006-10-25 17:00,ZHHH 251700Z AUTO 35004KT 1SM 15/13 A3030 RMK T01500130 IEM_DS3505
ZHHH,2006-10-25 18:00,ZHHH 251800Z AUTO 27002KT 9SM 16/12 A3030 RMK SLP264 T01570125 57002 IEM_DS3505
ZHHH,2006-10-25 19:00,ZHHH 251900Z AUTO 35004KT 1SM 15/13 A3030 RMK T01500130 IEM_DS3505
ZHHH,2006-10-25 20:00,ZHHH 252000Z AUTO 36004KT 1SM 15/12 A3030 RMK T01500120 IEM_DS3505
ZHHH,2006-10-25 21:00,ZHHH 252100Z AUTO 34002KT 9SM 15/12 A3030 RMK 70026 SLP261 T01520116 57003 IEM_DS3505
ZHHH,2006-10-25 22:00,ZHHH 252200Z AUTO 02006KT 1 1/4SM 14/11 A3033 RMK T01400110 IEM_DS3505
ZHHH,2006-10-25 23:00,ZHHH 252300Z AUTO 02006KT 1 1/4SM 13/11 A3033 RMK T01300110 IEM_DS3505
ZHHH,2006-10-26 00:00,ZHHH 260000Z AUTO 36004KT 9SM 15/10 A3036 RMK 70000 SLP279 T01500102 52018 IEM_DS3505
ZHHH,2006-10-26 01:00,ZHHH 260100Z AUTO 36006KT 1 1/4SM 15/11 A3036 RMK T01500110 IEM_DS3505
ZHHH,2006-10-26 02:00,ZHHH 260200Z AUTO 35006KT 1 1/2SM 16/12 A3036 RMK T01600120 IEM_DS3505
ZHHH,2006-10-26 03:00,ZHHH 260300Z AUTO 34004KT 9SM 18/10 A3036 RMK SLP280 T01760105 52001 IEM_DS3505
ZHHH,2006-10-26 04:00,ZHHH 260400Z AUTO 03008KT 2 1/2SM 19/12 A3033 RMK T01900120 IEM_DS3505
ZHHH,2006-10-26 05:00,ZHHH 260500Z AUTO 03008KT 2 1/2SM 20/12 A3033 RMK T02000120 IEM_DS3505
ZHHH,2006-10-26 06:00,ZHHH 260600Z AUTO 36002KT 9SM 20/10 A3030 RMK SLP259 T02040102 57021 IEM_DS3505
ZHHH,2006-10-26 07:00,ZHHH 260700Z AUTO 02006KT 3SM 20/12 A3030 RMK T02000120 IEM_DS3505
ZHHH,2006-10-26 08:00,ZHHH 260800Z AUTO 02006KT 3SM 20/12 A3030 RMK T02000120 IEM_DS3505
ZHHH,2006-10-26 09:00,ZHHH 260900Z AUTO 34002KT 9SM 20/10 A3030 RMK SLP259 T01980102 54000 IEM_DS3505
ZHHH,2006-10-26 10:00,ZHHH 261000Z AUTO 01004KT 3SM 18/13 A3030 RMK T01800130 IEM_DS3505
ZHHH,2006-10-26 11:00,ZHHH 261100Z AUTO 03004KT 3SM 17/13 A3030 RMK T01700130 IEM_DS3505
ZHHH,2006-10-26 12:00,ZHHH 261200Z AUTO 04002KT 9SM 18/11 A3033 RMK SLP267 T01780111 52008 IEM_DS3505
ZHHH,2006-10-26 13:00,ZHHH 261300Z AUTO 04006KT 2SM 16/13 A3033 RMK T01600130 IEM_DS3505
ZHHH,2006-10-26 14:00,ZHHH 261400Z AUTO 05006KT 1 1/4SM 15/12 A3033 RMK T01500120 IEM_DS3505
ZHHH,2006-10-26 15:00,ZHHH 261500Z AUTO 07002KT 9SM 16/12 RMK SLP269 T01570115 52002 IEM_DS3505
ZHHH,2006-10-26 16:00,ZHHH 261600Z AUTO 07008KT 1SM 14/12 A3033 RMK T01400120 IEM_DS3505
ZHHH,2006-10-26 18:00,ZHHH 261800Z AUTO 07002KT 7SM 15/13 A3030 RMK SLP258 T01510128 57011 IEM_DS3505
ZHHH,2006-10-26 19:00,ZHHH 261900Z AUTO 08004KT 1SM 15/13 A3030 RMK T01500130 IEM_DS3505
ZHHH,2006-10-26 20:00,ZHHH 262000Z AUTO 08006KT 1SM 15/13 A3027 RMK T01500130 IEM_DS3505
ZHHH,2006-10-26 21:00,ZHHH 262100Z AUTO 04002KT 5SM 16/14 A3027 RMK SLP249 T01570139 57009 IEM_DS3505
ZHHH,2006-10-26 22:00,ZHHH 262200Z AUTO 08004KT 1SM 15/14 A3027 RMK T01500140 IEM_DS3505
ZHHH,2006-10-26 23:00,ZHHH 262300Z AUTO 10006KT 1SM 14/14 A3027 RMK T01400140 IEM_DS3505
ZHHH,2006-10-27 00:00,ZHHH 270000Z AUTO 07002KT 5SM 15/14 A3030 RMK SLP257 T01540141 52008 IEM_DS3505
ZHHH,2006-10-27 01:00,ZHHH 270100Z AUTO 11006KT 1SM 16/15 A3030 RMK T01600150 IEM_DS3505
ZHHH,2006-10-27 02:00,ZHHH 270200Z AUTO 15004KT 1SM 17/15 A3030 RMK T01700150 IEM_DS3505
ZHHH,2006-10-27 03:00,ZHHH 270300Z AUTO 07004KT 7SM 19/13 A3030 RMK SLP257 T01930128 54000 IEM_DS3505
ZHHH,2006-10-27 04:00,ZHHH 270400Z AUTO 1 1/4SM 20/15 A3027 RMK T02000150 IEM_DS3505
ZHHH,2006-10-27 05:00,ZHHH 270500Z AUTO 2SM 20/14 A3024 RMK T02000140 IEM_DS3505
ZHHH,2006-10-27 06:00,ZHHH 270600Z AUTO 16004KT 9SM 22/11 A3021 RMK SLP226 T02150107 57031 IEM_DS3505
ZHHH,2006-10-27 07:00,ZHHH 270700Z AUTO 3SM 20/13 A3018 RMK T02000130 IEM_DS3505
ZHHH,2006-10-27 08:00,ZHHH 270800Z AUTO 14006KT 1 1/2SM 20/14 A3015 RMK T02000140 IEM_DS3505
ZHHH,2006-10-27 09:00,ZHHH 270900Z AUTO 04002KT 9SM 20/12 A3018 RMK SLP214 T02020124 57012 IEM_DS3505
ZHHH,2006-10-27 10:00,ZHHH 271000Z AUTO 10004KT 1 1/4SM 18/15 A3018 RMK T01800150 IEM_DS3505
ZHHH,2006-10-27 11:00,ZHHH 271100Z AUTO 11004KT 1 1/4SM 18/14 A3018 RMK T01800140 IEM_DS3505
ZHHH,2006-10-27 12:00,ZHHH 271200Z AUTO 07002KT 11SM 16/13 A3018 RMK SLP221 T01620133 52007 IEM_DS3505
ZHHH,2006-10-27 13:00,ZHHH 271300Z AUTO 03002KT 1 1/4SM 16/14 A3018 RMK T01600140 IEM_DS3505
ZHHH,2006-10-27 14:00,ZHHH 271400Z AUTO 00000KT 1SM 16/14 A3018 RMK T01600140 IEM_DS3505
ZHHH,2006-10-27 15:00,ZHHH 271500Z AUTO 00000KT 9SM 15/14 A3021 RMK SLP226 T01480137 52005 IEM_DS3505
ZHHH,2006-10-27 16:00,ZHHH 271600Z AUTO 1SM 15/13 A3021 RMK T01500130 IEM_DS3505
ZHHH,2006-10-27 17:00,ZHHH 271700Z AUTO 00000KT 1 1/4SM 15/13 A3018 RMK T01500130 IEM_DS3505
ZHHH,2006-10-27 18:00,ZHHH 271800Z AUTO 06002KT 5SM 14/13 A3018 RMK SLP221 T01410133 57005 IEM_DS3505
ZHHH,2006-10-27 19:00,ZHHH 271900Z AUTO 08004KT 1SM 14/13 A3018 RMK T01400130 IEM_DS3505
ZHHH,2006-10-27 20:00,ZHHH 272000Z AUTO 11004KT 1SM 14/13 A3015 RMK T01400130 IEM_DS3505
ZHHH,2006-10-27 21:00,ZHHH 272100Z AUTO 00000KT 2 1/2SM 14/14 A3018 RMK SLP217 T01410135 57004 IEM_DS3505
ZHHH,2006-10-27 22:00,ZHHH 272200Z AUTO 10002KT 1SM 13/13 A3018 RMK T01300130 IEM_DS3505
ZHHH,2006-10-27 23:00,ZHHH 272300Z AUTO 09002KT 1SM 14/13 A3021 RMK T01400130 IEM_DS3505
ZHHH,2006-10-28 00:00,ZHHH 280000Z AUTO 09002KT 5SM 16/15 A3021 RMK SLP230 T01550150 52013 IEM_DS3505
ZHHH,2006-10-28 01:00,ZHHH 280100Z AUTO 1SM 16/15 A3021 RMK T01600150 IEM_DS3505
ZHHH,2006-10-28 02:00,ZHHH 280200Z AUTO 1SM 19/16 A3021 RMK T01900160 IEM_DS3505
ZHHH,2006-10-28 03:00,ZHHH 280300Z AUTO 27004KT 7SM 21/13 A3021 RMK SLP225 T02060131 57005 IEM_DS3505
ZHHH,2006-10-28 04:00,ZHHH 280400Z AUTO 32006KT 1 1/4SM 21/15 A3018 RMK T02100150 IEM_DS3505
ZHHH,2006-10-28 05:00,ZHHH 280500Z AUTO 32004KT 1 1/2SM 22/15 A3015 RMK T02200150 IEM_DS3505
ZHHH,2006-10-28 06:00,ZHHH 280600Z AUTO 27002KT 9SM 23/12 A3012 RMK SLP203 T02320122 57022 IEM_DS3505
ZHHH,2006-10-28 07:00,ZHHH 280700Z AUTO 27004KT 2SM 23/15 A3012 RMK T02300150 IEM_DS3505
ZHHH,2006-10-28 08:00,ZHHH 280800Z AUTO 27004KT 2 1/2SM 23/14 A3012 RMK T02300140 IEM_DS3505
ZHHH,2006-10-28 09:00,ZHHH 280900Z AUTO 22002KT 9SM 22/12 A3012 RMK SLP196 T02230123 57007 IEM_DS3505
ZHHH,2006-10-28 10:00,ZHHH 281000Z AUTO 00000KT 2 1/2SM 20/14 A3012 RMK T02000140 IEM_DS3505
ZHHH,2006-10-28 11:00,ZHHH 281100Z AUTO 24002KT 2 1/2SM 19/15 A3012 RMK T01900150 IEM_DS3505
ZHHH,2006-10-28 12:00,ZHHH 281200Z AUTO 00000KT 9SM 17/15 A3015 RMK SLP210 T01710147 52014 IEM_DS3505
ZHHH,2006-10-28 13:00,ZHHH 281300Z AUTO 24002KT 1SM 18/15 A3015 RMK T01800150 IEM_DS3505
ZHHH,2006-10-28 14:00,ZHHH 281400Z AUTO 24002KT 1SM 18/16 A3015 RMK T01800160 IEM_DS3505
ZHHH,2006-10-28 15:00,ZHHH 281500Z AUTO 32002KT 7SM 16/15 A3015 RMK SLP213 T01590146 52003 IEM_DS3505
ZHHH,2006-10-28 16:00,ZHHH 281600Z AUTO 32002KT 1SM 16/15 A3015 RMK T01600150 IEM_DS3505
ZHHH,2006-10-28 17:00,ZHHH 281700Z AUTO 02004KT 1SM 16/15 A3015 RMK T01600150 IEM_DS3505
ZHHH,2006-10-28 18:00,ZHHH 281800Z AUTO 32002KT 6SM 16/14 A3015 RMK SLP211 T01560145 57002 IEM_DS3505
ZHHH,2006-10-28 19:00,ZHHH 281900Z AUTO 06002KT 1/2SM 15/14 A3015 RMK T01500140 IEM_DS3505
ZHHH,2006-10-28 20:00,ZHHH 282000Z AUTO 06006KT 1SM 15/13 A3015 RMK T01500130 IEM_DS3505
ZHHH,2006-10-28 21:00,ZHHH 282100Z AUTO 07002KT 4SM 16/14 A3015 RMK SLP213 T01570135 52002 IEM_DS3505
ZHHH,2006-10-28 22:00,ZHHH 282200Z AUTO 07004KT 1SM 14/13 A3018 RMK T01400130 IEM_DS3505
ZHHH,2006-10-28 23:00,ZHHH 282300Z AUTO 07004KT 1SM 13/13 A3018 RMK T01300130 IEM_DS3505
ZHHH,2006-10-29 00:00,ZHHH 290000Z AUTO 07004KT 5SM 16/13 A3021 RMK SLP226 T01630132 52013 IEM_DS3505
ZHHH,2006-10-29 01:00,ZHHH 290100Z AUTO 1SM 17/15 A3021 RMK T01700150 IEM_DS3505
ZHHH,2006-10-29 02:00,ZHHH 290200Z AUTO 08004KT 1SM 20/15 A3021 RMK T02000150 IEM_DS3505
ZHHH,2006-10-29 03:00,ZHHH 290300Z AUTO 02004KT 9SM 21/13 A3021 RMK SLP229 T02090129 52003 IEM_DS3505
ZHHH,2006-10-29 04:00,ZHHH 290400Z AUTO 08006KT 4SM 24/12 A3018 RMK T02400120 IEM_DS3505
ZHHH,2006-10-29 05:00,ZHHH 290500Z AUTO 06006KT 6SM 24/07 A3015 RMK T02400070 IEM_DS3505
ZHHH,2006-10-29 06:00,ZHHH 290600Z AUTO 09004KT 9SM 25/06 A3012 RMK SLP200 T02470060 57029 IEM_DS3505
ZHHH,2006-10-29 07:00,ZHHH 290700Z AUTO 08004KT 6SM 25/09 A3012 RMK T02500090 IEM_DS3505
ZHHH,2006-10-29 08:00,ZHHH 290800Z AUTO 08006KT 6SM 25/09 A3009 RMK T02500090 IEM_DS3505
ZHHH,2006-10-29 09:00,ZHHH 290900Z AUTO 09002KT 9SM 23/06 A3009 RMK SLP190 T02310060 57010 IEM_DS3505
ZHHH,2006-10-29 10:00,ZHHH 291000Z AUTO 6SM 21/11 A3009 RMK T02100110 IEM_DS3505
ZHHH,2006-10-29 11:00,ZHHH 291100Z AUTO 33002KT 6SM 19/11 A3012 RMK T01900110 IEM_DS3505
ZHHH,2006-10-29 12:00,ZHHH 291200Z AUTO 04004KT 9SM 16/12 A3012 RMK SLP202 T01630119 52012 IEM_DS3505
ZHHH,2006-10-29 13:00,ZHHH 291300Z AUTO 06006KT 6SM 19/08 A3015 RMK T01900080 IEM_DS3505
ZHHH,2006-10-29 14:00,ZHHH 291400Z AUTO 04006KT 6SM 18/08 A3015 RMK T01800080 IEM_DS3505
ZHHH,2006-10-29 15:00,ZHHH 291500Z AUTO 09002KT 9SM 17/08 A3015 RMK SLP206 T01730084 52004 IEM_DS3505
ZHHH,2006-10-29 16:00,ZHHH 291600Z AUTO 07006KT 6SM 17/09 A3012 RMK T01700090 IEM_DS3505
ZHHH,2006-10-29 18:00,ZHHH 291800Z AUTO 04002KT 9SM 15/09 A3015 RMK SLP204 T01520087 57002 IEM_DS3505
ZHHH,2006-10-29 19:00,ZHHH 291900Z AUTO 04002KT 6SM 15/10 A3012 RMK T01500100 IEM_DS3505
ZHHH,2006-10-29 20:00,ZHHH 292000Z AUTO 34002KT 6SM 14/10 A3012 RMK T01400100 IEM_DS3505
ZHHH,2006-10-29 21:00,ZHHH 292100Z AUTO 34002KT 9SM 15/12 A3012 RMK SLP201 T01500118 57003 IEM_DS3505
ZHHH,2006-10-29 22:00,ZHHH 292200Z AUTO 36002KT 2SM 14/11 A3015 RMK T01400110 IEM_DS3505
ZHHH,2006-10-29 23:00,ZHHH 292300Z AUTO 06004KT 2SM 14/10 A3015 RMK T01400100 IEM_DS3505
ZHHH,2006-10-30 00:00,ZHHH 300000Z AUTO 36002KT 9SM 16/10 A3018 RMK SLP218 T01610104 52017 IEM_DS3505
ZHHH,2006-10-30 01:00,ZHHH 300100Z AUTO 1 1/2SM 16/12 A3018 RMK T01600120 IEM_DS3505
ZHHH,2006-10-30 02:00,ZHHH 300200Z AUTO 2SM 19/14 A3018 RMK T01900140 IEM_DS3505
ZHHH,2006-10-30 03:00,ZHHH 300300Z AUTO 02002KT 9SM 22/11 A3018 RMK SLP221 T02170111 52003 IEM_DS3505
ZHHH,2006-10-30 04:00,ZHHH 300400Z AUTO 26004KT 2 1/2SM 22/14 A3018 RMK T02200140 IEM_DS3505
ZHHH,2006-10-30 05:00,ZHHH 300500Z AUTO 28004KT 2SM 23/14 A3012 RMK T02300140 IEM_DS3505
ZHHH,2006-10-30 06:00,ZHHH 300600Z AUTO 16002KT 9SM 24/11 A3009 RMK SLP193 T02410111 57028 IEM_DS3505
ZHHH,2006-10-30 07:00,ZHHH 300700Z AUTO 30004KT 2SM 24/12 A3009 RMK T02400120 IEM_DS3505
ZHHH,2006-10-30 08:00,ZHHH 300800Z AUTO 30004KT 2 1/2SM 24/12 A3009 RMK T02400120 IEM_DS3505
ZHHH,2006-10-30 09:00,ZHHH 300900Z AUTO 34002KT 9SM 23/09 A3009 RMK SLP193 T02290090 54000 IEM_DS3505
ZHHH,2006-10-30 10:00,ZHHH 301000Z AUTO 25002KT 2 1/2SM 21/12 A3012 RMK T02100120 IEM_DS3505
ZHHH,2006-10-30 11:00,ZHHH 301100Z AUTO 26002KT 2 1/2SM 20/13 A3012 RMK T02000130 IEM_DS3505
ZHHH,2006-10-30 12:00,ZHHH 301200Z AUTO 36004KT 9SM 17/14 A3015 RMK SLP208 T01660137 52015 IEM_DS3505
ZHHH,2006-10-30 13:00,ZHHH 301300Z AUTO 04004KT 2SM 18/13 A3018 RMK T01800130 IEM_DS3505
ZHHH,2006-10-30 14:00,ZHHH 301400Z AUTO 05006KT 2SM 18/13 A3018 RMK T01800130 IEM_DS3505
ZHHH,2006-10-30 15:00,ZHHH 301500Z AUTO 34002KT 11SM 17/12 A3018 RMK SLP217 T01660120 52009 IEM_DS3505
ZHHH,2006-10-30 16:00,ZHHH 301600Z AUTO 34004KT 2SM 16/13 A3015 RMK T01600130 IEM_DS3505
ZHHH,2006-10-30 17:00,ZHHH 301700Z AUTO 33004KT 2SM 15/13 A3018 RMK T01500130 IEM_DS3505
ZHHH,2006-10-30 18:00,ZHHH 301800Z AUTO 25002KT 9SM 16/12 A3018 RMK SLP217 T01560122 54000 IEM_DS3505
ZHHH,2006-10-30 19:00,ZHHH 301900Z AUTO 33006KT 1 1/2SM 15/13 A3015 RMK T01500130 IEM_DS3505
ZHHH,2006-10-30 20:00,ZHHH 302000Z AUTO 34004KT 1 1/4SM 14/13 A3015 RMK T01400130 IEM_DS3505
ZHHH,2006-10-30 21:00,ZHHH 302100Z AUTO 32002KT 9SM 14/12 A3015 RMK SLP212 T01450118 57005 IEM_DS3505
ZHHH,2006-10-30 22:00,ZHHH 302200Z AUTO 01004KT 1SM 13/12 A3015 RMK T01300120 IEM_DS3505
ZHHH,2006-10-30 23:00,ZHHH 302300Z AUTO 01004KT 1SM 13/12 A3018 RMK T01300120 IEM_DS3505
ZHHH,2006-10-31 00:00,ZHHH 310000Z AUTO 32004KT 9SM 16/12 A3021 RMK SLP227 T01570115 52015 IEM_DS3505
ZHHH,2006-10-31 01:00,ZHHH 310100Z AUTO 33004KT 1SM 17/14 A3021 RMK T01700140 IEM_DS3505
ZHHH,2006-10-31 02:00,ZHHH 310200Z AUTO 33004KT 1 1/4SM 19/14 A3021 RMK T01900140 IEM_DS3505
ZHHH,2006-10-31 03:00,ZHHH 310300Z AUTO 34006KT 9SM 22/12 A3018 RMK SLP220 T02150118 57007 IEM_DS3505
ZHHH,2006-10-31 04:00,ZHHH 310400Z AUTO 30006KT 2SM 24/13 A3015 RMK T02400130 IEM_DS3505
ZHHH,2006-10-31 05:00,ZHHH 310500Z AUTO 29006KT 2 1/2SM 25/13 A3012 RMK T02500130 IEM_DS3505
ZHHH,2006-10-31 06:00,ZHHH 310600Z AUTO 32002KT 9SM 25/09 A3012 RMK SLP198 T02500093 57022 IEM_DS3505
ZHHH,2006-10-31 07:00,ZHHH 310700Z AUTO 28006KT 2 1/2SM 24/13 A3012 RMK T02400130 IEM_DS3505
ZHHH,2006-10-31 08:00,ZHHH 310800Z AUTO 29004KT 2 1/2SM 24/13 A3012 RMK T02400130 IEM_DS3505
ZHHH,2006-10-31 09:00,ZHHH 310900Z AUTO 27002KT 9SM 23/10 A3012 RMK SLP202 T02340101 52004 IEM_DS3505
ZHHH,2006-10-31 10:00,ZHHH 311000Z AUTO 26004KT 2 1/2SM 22/15 A3015 RMK T02200150 IEM_DS3505
ZHHH,2006-10-31 11:00,ZHHH 311100Z AUTO 30004KT 2 1/2SM 21/15 A3018 RMK T02100150 IEM_DS3505
ZHHH,2006-10-31 12:00,ZHHH 311200Z AUTO 02002KT 12SM 20/12 A3018 RMK SLP219 T02050125 52017 IEM_DS3505
ZHHH,2006-10-31 13:00,ZHHH 311300Z AUTO 33002KT 2 1/2SM 19/14 A3018 RMK T01900140 IEM_DS3505
ZHHH,2006-10-31 14:00,ZHHH 311400Z AUTO 33002KT 2 1/2SM 18/14 A3021 RMK T01800140 IEM_DS3505
ZHHH,2006-10-31 15:00,ZHHH 311500Z AUTO 00000KT 11SM 17/14 A3018 RMK SLP225 T01730140 52006 IEM_DS3505
ZHHH,2006-10-31 16:00,ZHHH 311600Z AUTO 33004KT 2 1/2SM 17/15 A3018 RMK T01700150 IEM_DS3505
ZHHH,2006-10-31 17:00,ZHHH 311700Z AUTO 33004KT 2 1/2SM 17/14 A3018 RMK T01700140 IEM_DS3505
ZHHH,2006-10-31 18:00,ZHHH 311800Z AUTO 32002KT 11SM 17/12 A3018 RMK SLP218 T01720123 57007 IEM_DS3505
ZHHH,2006-10-31 19:00,ZHHH 311900Z AUTO 34004KT 3SM 16/13 A3018 RMK T01600130 IEM_DS3505
ZHHH,2006-10-31 20:00,ZHHH 312000Z AUTO 33004KT 3SM 15/12 A3018 RMK T01500120 IEM_DS3505
ZHHH,2006-10-31 21:00,ZHHH 312100Z AUTO 32002KT 11SM 15/11 A3018 RMK SLP218 T01520110 54000 IEM_DS3505
ZHHH,2006-10-31 22:00,ZHHH 312200Z AUTO 36004KT 4SM 14/11 A3018 RMK T01400110 IEM_DS3505
ZHHH,2006-10-31 23:00,ZHHH 312300Z AUTO 36004KT 3SM 14/11 A3021 RMK T01400110 IEM_DS3505
ZHHH,2006-11-01 00:00,ZHHH 010000Z AUTO 04002KT 9SM 16/12 A3021 RMK SLP232 T01640116 52014 IEM_DS3505
ZHHH,2006-11-01 01:00,ZHHH 010100Z AUTO 33006KT 4SM 17/13 A3021 RMK T01700130 IEM_DS3505
ZHHH,2006-11-01 02:00,ZHHH 010200Z AUTO 34006KT 6SM 20/13 A3021 RMK T02000130 IEM_DS3505
ZHHH,2006-11-01 03:00,ZHHH 010300Z AUTO 34004KT 11SM 22/10 A3021 RMK SLP230 T02210103 57002 IEM_DS3505
ZHHH,2006-11-01 04:00,ZHHH 010400Z AUTO 29006KT 6SM 23/11 A3018 RMK T02300110 IEM_DS3505
ZHHH,2006-11-01 05:00,ZHHH 010500Z AUTO 29006KT 6SM 24/11 A3015 RMK T02400110 IEM_DS3505
ZHHH,2006-11-01 06:00,ZHHH 010600Z AUTO 29004KT 12SM 25/06 A3012 RMK SLP203 T02510058 57027 IEM_DS3505
ZHHH,2006-11-01 07:00,ZHHH 010700Z AUTO 31006KT 6SM 26/09 A3012 RMK T02600090 IEM_DS3505
ZHHH,2006-11-01 08:00,ZHHH 010800Z AUTO 32006KT 6SM 25/08 A3012 RMK T02500080 IEM_DS3505
ZHHH,2006-11-01 09:00,ZHHH 010900Z AUTO 27002KT 11SM 24/06 A3009 RMK SLP193 T02360064 57010 IEM_DS3505
ZHHH,2006-11-01 10:00,ZHHH 011000Z AUTO 35004KT 6SM 22/11 A3009 RMK T02200110 IEM_DS3505
ZHHH,2006-11-01 11:00,ZHHH 011100Z AUTO 01004KT 6SM 21/10 A3012 RMK T02100100 IEM_DS3505
ZHHH,2006-11-01 12:00,ZHHH 011200Z AUTO 29002KT 9SM 16/11 A3012 RMK SLP204 T01640111 52011 IEM_DS3505
ZHHH,2006-11-01 13:00,ZHHH 011300Z AUTO 04006KT 6SM 20/09 A3015 RMK T02000090 IEM_DS3505
ZHHH,2006-11-01 14:00,ZHHH 011400Z AUTO 05006KT 6SM 19/09 A3015 RMK T01900090 IEM_DS3505
ZHHH,2006-11-01 15:00,ZHHH 011500Z AUTO 36002KT 9SM 16/11 A3015 RMK SLP210 T01650106 52006 IEM_DS3505
ZHHH,2006-11-01 16:00,ZHHH 011600Z AUTO 6SM 17/10 A3015 RMK T01700100 IEM_DS3505
ZHHH,2006-11-01 17:00,ZHHH 011700Z AUTO 06004KT 6SM 17/10 A3015 RMK T01700100 IEM_DS3505
ZHHH,2006-11-01 18:00,ZHHH 011800Z AUTO 09002KT 11SM 16/11 A3012 RMK SLP203 T01650108 57007 IEM_DS3505
ZHHH,2006-11-01 19:00,ZHHH 011900Z AUTO 10004KT 6SM 15/10 A3012 RMK T01500100 IEM_DS3505
ZHHH,2006-11-01 20:00,ZHHH 012000Z AUTO 6SM 15/11 A3012 RMK T01500110 IEM_DS3505
ZHHH,2006-11-01 21:00,ZHHH 012100Z AUTO 27002KT 9SM 14/12 A3012 RMK SLP200 T01370116 57003 IEM_DS3505
ZHHH,2006-11-01 22:00,ZHHH 012200Z AUTO 34004KT 3SM 13/11 A3012 RMK T01300110 IEM_DS3505
ZHHH,2006-11-01 23:00,ZHHH 012300Z AUTO 1 1/2SM 13/11 A3015 RMK T01300110 IEM_DS3505
ZHHH,2006-11-02 00:00,ZHHH 020000Z AUTO 02002KT 7SM 16/12 A3015 RMK SLP215 T01560120 52015 IEM_DS3505
ZHHH,2006-11-02 01:00,ZHHH 020100Z AUTO 06004KT 1 1/2SM 16/12 A3018 RMK T01600120 IEM_DS3505
ZHHH,2006-11-02 02:00,ZHHH 020200Z AUTO 02004KT 2SM 19/12 A3018 RMK T01900120 IEM_DS3505
ZHHH,2006-11-02 03:00,ZHHH 020300Z AUTO 04002KT 9SM 22/10 A3015 RMK SLP211 T02150103 57004 IEM_DS3505
ZHHH,2006-11-02 04:00,ZHHH 020400Z AUTO 4SM 23/11 A3012 RMK T02300110 IEM_DS3505
ZHHH,2006-11-02 05:00,ZHHH 020500Z AUTO 28004KT 6SM 24/10 A3009 RMK T02400100 IEM_DS3505
ZHHH,2006-11-02 06:00,ZHHH 020600Z AUTO 34002KT 11SM 26/06 A3006 RMK SLP180 T02550057 57031 IEM_DS3505
ZHHH,2006-11-02 07:00,ZHHH 020700Z AUTO 6SM 25/10 A3006 RMK T02500100 IEM_DS3505
ZHHH,2006-11-02 08:00,ZHHH 020800Z AUTO 6SM 24/10 A3003 RMK T02400100 IEM_DS3505
ZHHH,2006-11-02 09:00,ZHHH 020900Z AUTO 27002KT 11SM 23/06 A3003 RMK SLP173 T02310064 57007 IEM_DS3505
ZHHH,2006-11-02 10:00,ZHHH 021000Z AUTO 3SM 21/09 A3006 RMK T02100090 IEM_DS3505
ZHHH,2006-11-02 11:00,ZHHH 021100Z AUTO 3SM 21/07 A3006 RMK T02100070 IEM_DS3505
ZHHH,2006-11-02 12:00,ZHHH 021200Z AUTO 14002KT 9SM 16/10 A3009 RMK SLP185 T01600103 52012 IEM_DS3505
ZHHH,2006-11-02 13:00,ZHHH 021300Z AUTO 3SM 20/07 A3009 RMK T02000070 IEM_DS3505
ZHHH,2006-11-02 14:00,ZHHH 021400Z AUTO 21004KT 2 1/2SM 20/07 A3009 RMK T02000070 IEM_DS3505
ZHHH,2006-11-02 15:00,ZHHH 021500Z AUTO 22002KT 9SM 15/11 A3009 RMK SLP188 T01530107 52003 IEM_DS3505
ZHHH,2006-11-02 16:00,ZHHH 021600Z AUTO 2SM 17/12 A3009 RMK T01700120 IEM_DS3505
ZHHH,2006-11-02 17:00,ZHHH 021700Z AUTO 2SM 16/12 A3006 RMK T01600120 IEM_DS3505
ZHHH,2006-11-02 18:00,ZHHH 021800Z AUTO 18002KT 9SM 15/11 A3006 RMK SLP180 T01460110 57008 IEM_DS3505
ZHHH,2006-11-02 19:00,ZHHH 021900Z AUTO 09004KT 2SM 15/11 A3006 RMK T01500110 IEM_DS3505
ZHHH,2006-11-02 20:00,ZHHH 022000Z AUTO 10002KT 2SM 15/11 A3006 RMK T01500110 IEM_DS3505
ZHHH,2006-11-02 21:00,ZHHH 022100Z AUTO 11002KT 7SM 13/12 A3006 RMK SLP175 T01340120 57005 IEM_DS3505
ZHHH,2006-11-02 22:00,ZHHH 022200Z AUTO 1 1/4SM 14/13 A3006 RMK T01400130 IEM_DS3505
ZHHH,2006-11-02 23:00,ZHHH 022300Z AUTO 12004KT 1SM 14/13 A3006 RMK T01400130 IEM_DS3505
ZHHH,2006-11-03 00:00,ZHHH 030000Z AUTO 18002KT 7SM 16/13 A3009 RMK SLP185 T01600126 52010 IEM_DS3505
ZHHH,2006-11-03 01:00,ZHHH 030100Z AUTO 14004KT 1SM 17/15 A3009 RMK T01700150 IEM_DS3505
ZHHH,2006-11-03 02:00,ZHHH 030200Z AUTO 1 1/4SM 21/14 A3009 RMK T02100140 IEM_DS3505
ZHHH,2006-11-03 03:00,ZHHH 030300Z AUTO 27004KT 9SM 23/09 A3009 RMK SLP188 T02270091 52003 IEM_DS3505
ZHHH,2006-11-03 04:00,ZHHH 030400Z AUTO 22008KT 3SM 24/12 A3006 RMK T02400120 IEM_DS3505
ZHHH,2006-11-03 05:00,ZHHH 030500Z AUTO 24008KT 6SM 25/12 A3003 RMK T02500120 IEM_DS3505
ZHHH,2006-11-03 06:00,ZHHH 030600Z AUTO 25004KT 11SM 26/08 A3000 RMK SLP162 T02590080 57026 IEM_DS3505
ZHHH,2006-11-03 07:00,ZHHH 030700Z AUTO 22008KT 6SM 25/12 A3000 RMK T02500120 IEM_DS3505
ZHHH,2006-11-03 08:00,ZHHH 030800Z AUTO 22006KT 6SM 25/12 A2997 RMK T02500120 IEM_DS3505
ZHHH,2006-11-03 09:00,ZHHH 030900Z AUTO 20002KT 9SM 24/08 A2997 RMK SLP152 T02410081 57010 IEM_DS3505
ZHHH,2006-11-03 10:00,ZHHH 031000Z AUTO 18006KT 6SM 22/13 A2997 RMK T02200130 IEM_DS3505
ZHHH,2006-11-03 11:00,ZHHH 031100Z AUTO 18006KT 6SM 20/13 A3000 RMK T02000130 IEM_DS3505
ZHHH,2006-11-03 12:00,ZHHH 031200Z AUTO 09002KT 12SM 19/11 A3000 RMK SLP161 T01860112 52009 IEM_DS3505
ZHHH,2006-11-03 13:00,ZHHH 031300Z AUTO 17004KT 4SM 19/11 A3000 RMK T01900110 IEM_DS3505
ZHHH,2006-11-03 14:00,ZHHH 031400Z AUTO 19002KT 6SM 19/11 A3003 RMK T01900110 IEM_DS3505
ZHHH,2006-11-03 15:00,ZHHH 031500Z AUTO 11002KT 11SM 16/12 A3000 RMK SLP164 T01590115 52003 IEM_DS3505
ZHHH,2006-11-03 16:00,ZHHH 031600Z AUTO 12004KT 3SM 17/13 A3000 RMK T01700130 IEM_DS3505
ZHHH,2006-11-03 17:00,ZHHH 031700Z AUTO 11004KT 2 1/2SM 17/13 A3000 RMK T01700130 IEM_DS3505
ZHHH,2006-11-03 18:00,ZHHH 031800Z AUTO 14002KT 11SM 15/12 A3000 RMK SLP160 T01500121 57004 IEM_DS3505
ZHHH,2006-11-03 19:00,ZHHH 031900Z AUTO 13004KT 1 1/4SM 16/14 A3000 RMK T01600140 IEM_DS3505
ZHHH,2006-11-03 20:00,ZHHH 032000Z AUTO 13006KT 2 1/2SM 16/14 A2997 RMK T01600140 IEM_DS3505
ZHHH,2006-11-03 21:00,ZHHH 032100Z AUTO 14002KT 9SM 15/12 A3000 RMK SLP156 T01540118 57004 IEM_DS3505
ZHHH,2006-11-03 22:00,ZHHH 032200Z AUTO 13006KT 1SM 15/14 A3000 RMK T01500140 IEM_DS3505
ZHHH,2006-11-03 23:00,ZHHH 032300Z AUTO 12006KT 1SM 14/13 A3000 RMK T01400130 IEM_DS3505
ZHHH,2006-11-04 00:00,ZHHH 040000Z AUTO 11002KT 9SM 17/13 A3000 RMK SLP162 T01710126 52006 IEM_DS3505
ZHHH,2006-11-04 01:00,ZHHH 040100Z AUTO 12004KT 1 1/2SM 18/15 A3003 RMK T01800150 IEM_DS3505
ZHHH,2006-11-04 02:00,ZHHH 040200Z AUTO 19006KT 1 1/4SM 21/15 A3003 RMK T02100150 IEM_DS3505
ZHHH,2006-11-04 03:00,ZHHH 040300Z AUTO 14004KT 9SM 24/10 A3000 RMK SLP162 T02380101 54000 IEM_DS3505
ZHHH,2006-11-04 04:00,ZHHH 040400Z AUTO 22006KT 3SM 25/13 A2997 RMK T02500130 IEM_DS3505
ZHHH,2006-11-04 05:00,ZHHH 040500Z AUTO 22008KT 4SM 26/14 A2994 RMK T02600140 IEM_DS3505
ZHHH,2006-11-04 06:00,ZHHH 040600Z AUTO 22006KT 9SM 28/09 A2994 RMK SLP136 T02830086 57025 IEM_DS3505
ZHHH,2006-11-04 07:00,ZHHH 040700Z AUTO 23006KT 6SM 28/13 A2994 RMK T02800130 IEM_DS3505
ZHHH,2006-11-04 08:00,ZHHH 040800Z AUTO 23006KT 6SM 27/13 A2994 RMK T02700130 IEM_DS3505
ZHHH,2006-11-04 09:00,ZHHH 040900Z AUTO 25002KT 9SM 26/11 A2994 RMK SLP134 T02590109 57002 IEM_DS3505
ZHHH,2006-11-04 10:00,ZHHH 041000Z AUTO 20004KT 6SM 24/14 A2994 RMK T02400140 IEM_DS3505
ZHHH,2006-11-04 11:00,ZHHH 041100Z AUTO 16004KT 6SM 24/13 A2997 RMK T02400130 IEM_DS3505
ZHHH,2006-11-04 12:00,ZHHH 041200Z AUTO 16004KT 9SM 19/14 A2997 RMK SLP151 T01860135 52016 IEM_DS3505
ZHHH,2006-11-04 13:00,ZHHH 041300Z AUTO 14004KT 6SM 22/13 A2997 RMK T02200130 IEM_DS3505
ZHHH,2006-11-04 14:00,ZHHH 041400Z AUTO 14004KT 6SM 21/14 A3000 RMK T02100140 IEM_DS3505
ZHHH,2006-11-04 15:00,ZHHH 041500Z AUTO 00000KT 9SM 17/12 A3000 RMK SLP159 T01730120 52008 IEM_DS3505
ZHHH,2006-11-04 16:00,ZHHH 041600Z AUTO 00000KT 6SM 18/14 A3000 RMK T01800140 IEM_DS3505
ZHHH,2006-11-04 17:00,ZHHH 041700Z AUTO 08004KT 6SM 18/13 A3000 RMK T01800130 IEM_DS3505
ZHHH,2006-11-04 18:00,ZHHH 041800Z AUTO 04002KT 9SM 18/13 A3003 RMK SLP161 T01760127 52003 IEM_DS3505
ZHHH,2006-11-04 19:00,ZHHH 041900Z AUTO 06008KT 6SM 17/13 A3000 RMK T01700130 IEM_DS3505
ZHHH,2006-11-04 20:00,ZHHH 042000Z AUTO 07006KT 4SM 17/14 A3000 RMK T01700140 IEM_DS3505
ZHHH,2006-11-04 21:00,ZHHH 042100Z AUTO 04002KT 9SM 19/12 A3000 RMK SLP161 T01870125 54000 IEM_DS3505
ZHHH,2006-11-04 22:00,ZHHH 042200Z AUTO 12002KT 4SM 18/14 A3003 RMK T01800140 IEM_DS3505
ZHHH,2006-11-04 23:00,ZHHH 042300Z AUTO 19004KT 2SM 17/14 A3006 RMK T01700140 IEM_DS3505
ZHHH,2006-11-05 00:00,ZHHH 050000Z AUTO 27002KT 7SM 20/13 A3009 RMK SLP191 T01960131 52029 IEM_DS3505
ZHHH,2006-11-05 01:00,ZHHH 050100Z AUTO 31004KT 1SM 18/16 A3012 RMK T01800160 IEM_DS3505
ZHHH,2006-11-05 02:00,ZHHH 050200Z AUTO 35004KT 1SM 18/16 A3012 RMK T01800160 IEM_DS3505
ZHHH,2006-11-05 03:00,ZHHH 050300Z AUTO 07004KT 7SM 20/13 A3012 RMK SLP194 T02050127 52003 IEM_DS3505
ZHHH,2006-11-05 04:00,ZHHH 050400Z AUTO 2SM 21/10 A3012 RMK T02100100 IEM_DS3505
ZHHH,2006-11-05 05:00,ZHHH 050500Z AUTO 3SM 21/09 A3009 RMK T02100090 IEM_DS3505
ZHHH,2006-11-05 06:00,ZHHH 050600Z AUTO 34002KT 7SM 22/13 A3009 RMK SLP187 T02170133 57007 IEM_DS3505
ZHHH,2006-11-05 07:00,ZHHH 050700Z AUTO 04008KT 5SM 22/05 A3006 RMK T02200050 IEM_DS3505
ZHHH,2006-11-05 08:00,ZHHH 050800Z AUTO 02006KT 5SM 21/06 A3006 RMK T02100060 IEM_DS3505
ZHHH,2006-11-05 09:00,ZHHH 050900Z AUTO 25002KT 9SM 21/04 A3006 RMK SLP187 T02090036 54000 IEM_DS3505
ZHHH,2006-11-05 10:00,ZHHH 051000Z AUTO 03006KT 3SM 19/07 A3009 RMK T01900070 IEM_DS3505
ZHHH,2006-11-05 11:00,ZHHH 051100Z AUTO 03006KT 3SM 18/08 A3009 RMK T01800080 IEM_DS3505
ZHHH,2006-11-05 12:00,ZHHH 051200Z AUTO 06006KT 9SM 18/06 A3012 RMK SLP201 T01800065 52014 IEM_DS3505
ZHHH,2006-11-05 13:00,ZHHH 051300Z AUTO 06004KT 3SM 17/08 A3015 RMK T01700080 IEM_DS3505
ZHHH,2006-11-05 14:00,ZHHH 051400Z AUTO 04004KT 4SM 16/07 A3015 RMK T01600070 IEM_DS3505
ZHHH,2006-11-05 15:00,ZHHH 051500Z AUTO 09002KT 11SM 15/10 A3015 RMK SLP211 T01530101 52010 IEM_DS3505
ZHHH,2006-11-05 16:00,ZHHH 051600Z AUTO 06004KT 4SM 16/06 A3015 RMK T01600060 IEM_DS3505
ZHHH,2006-11-05 17:00,ZHHH 051700Z AUTO 05004KT 4SM 16/05 A3015 RMK T01600050 IEM_DS3505
ZHHH,2006-11-05 18:00,ZHHH 051800Z AUTO 36002KT 11SM 14/07 A3018 RMK SLP217 T01410074 52006 IEM_DS3505
ZHHH,2006-11-05 19:00,ZHHH 051900Z AUTO 34002KT 5SM 12/08 A3018 RMK T01200080 IEM_DS3505
ZHHH,2006-11-05 20:00,ZHHH 052000Z AUTO 04002KT 5SM 13/07 A3018 RMK T01300070 IEM_DS3505
ZHHH,2006-11-05 21:00,ZHHH 052100Z AUTO 23002KT 11SM 13/10 A3018 RMK SLP217 T01310101 54000 IEM_DS3505
ZHHH,2006-11-05 22:00,ZHHH 052200Z AUTO 00000KT 3SM 12/10 A3018 RMK T01200100 IEM_DS3505
ZHHH,2006-11-05 23:00,ZHHH 052300Z AUTO 35004KT 3SM 12/10 A3018 RMK T01200100 IEM_DS3505
ZHHH,2006-11-06 00:00,ZHHH 060000Z AUTO 32002KT 11SM 15/10 A3021 RMK SLP233 T01500100 52016 IEM_DS3505
ZHHH,2006-11-06 01:00,ZHHH 060100Z AUTO 3SM 16/11 A3024 RMK T01600110 IEM_DS3505
ZHHH,2006-11-06 02:00,ZHHH 060200Z AUTO 4SM 18/08 A3024 RMK T01800080 IEM_DS3505
ZHHH,2006-11-06 03:00,ZHHH 060300Z AUTO 25004KT 12SM 21/05 A3024 RMK SLP235 T02120047 52002 IEM_DS3505
ZHHH,2006-11-06 04:00,ZHHH 060400Z AUTO 27004KT 6SM 21/10 A3021 RMK T02100100 IEM_DS3505
ZHHH,2006-11-06 05:00,ZHHH 060500Z AUTO 6SM 22/08 A3021 RMK T02200080 IEM_DS3505
ZHHH,2006-11-06 06:00,ZHHH 060600Z AUTO 07004KT 11SM 23/03 A3018 RMK SLP219 T02300030 57016 IEM_DS3505
ZHHH,2006-11-06 07:00,ZHHH 060700Z AUTO 26004KT 6SM 22/08 A3018 RMK T02200080 IEM_DS3505
ZHHH,2006-11-06 08:00,ZHHH 060800Z AUTO 00000KT 6SM 22/09 A3018 RMK T02200090 IEM_DS3505
ZHHH,2006-11-06 09:00,ZHHH 060900Z AUTO 25002KT 9SM 21/06 A3018 RMK SLP215 T02140061 57004 IEM_DS3505
ZHHH,2006-11-06 10:00,ZHHH 061000Z AUTO 4SM 19/09 A3018 RMK T01900090 IEM_DS3505
ZHHH,2006-11-06 11:00,ZHHH 061100Z AUTO 14004KT 4SM 19/08 A3018 RMK T01900080 IEM_DS3505
ZHHH,2006-11-06 12:00,ZHHH 061200Z AUTO 11002KT 9SM 17/08 A3021 RMK SLP228 T01660083 52013 IEM_DS3505
ZHHH,2006-11-06 13:00,ZHHH 061300Z AUTO 14004KT 3SM 18/09 A3021 RMK T01800090 IEM_DS3505
ZHHH,2006-11-06 14:00,ZHHH 061400Z AUTO 12004KT 3SM 17/09 A3021 RMK T01700090 IEM_DS3505
ZHHH,2006-11-06 15:00,ZHHH 061500Z AUTO 11002KT 9SM 14/10 A3024 RMK SLP234 T01400098 52006 IEM_DS3505
ZHHH,2006-11-06 16:00,ZHHH 061600Z AUTO 07006KT 4SM 14/07 A3021 RMK T01400070 IEM_DS3505
ZHHH,2006-11-06 17:00,ZHHH 061700Z AUTO 07006KT 4SM 13/07 A3021 RMK T01300070 IEM_DS3505
ZHHH,2006-11-06 18:00,ZHHH 061800Z AUTO 07004KT 12SM 15/06 A3021 RMK SLP232 T01470063 57002 IEM_DS3505
ZHHH,2006-11-06 19:00,ZHHH 061900Z AUTO 09004KT 6SM 12/07 A3021 RMK T01200070 IEM_DS3505
ZHHH,2006-11-06 20:00,ZHHH 062000Z AUTO 11006KT 6SM 12/06 A3021 RMK T01200060 IEM_DS3505
ZHHH,2006-11-06 21:00,ZHHH 062100Z AUTO 07002KT 12SM 13/07 A3021 RMK SLP228 T01290069 57004 IEM_DS3505
ZHHH,2006-11-06 22:00,ZHHH 062200Z AUTO 10008KT 6SM 11/05 A3021 RMK T01100050 IEM_DS3505
ZHHH,2006-11-06 23:00,ZHHH 062300Z AUTO 11008KT 6SM 11/06 A3021 RMK T01100060 IEM_DS3505
ZHHH,2006-11-07 00:00,ZHHH 070000Z AUTO 07002KT 9SM 15/09 A3024 RMK SLP235 T01470091 52007 IEM_DS3505
ZHHH,2006-11-07 01:00,ZHHH 070100Z AUTO 12008KT 3SM 15/10 A3024 RMK T01500100 IEM_DS3505
ZHHH,2006-11-07 02:00,ZHHH 070200Z AUTO 13008KT 4SM 18/08 A3024 RMK T01800080 IEM_DS3505
ZHHH,2006-11-07 03:00,ZHHH 070300Z AUTO 14004KT 11SM 21/04 A3024 RMK SLP238 T02080035 52003 IEM_DS3505
ZHHH,2006-11-07 04:00,ZHHH 070400Z AUTO 15006KT 5SM 21/08 A3021 RMK T02100080 IEM_DS3505
ZHHH,2006-11-07 05:00,ZHHH 070500Z AUTO 14006KT 5SM 22/08 A3018 RMK T02200080 IEM_DS3505
ZHHH,2006-11-07 06:00,ZHHH 070600Z AUTO 25002KT 11SM 25/02 A3012 RMK SLP202 T02460021 57036 IEM_DS3505
ZHHH,2006-11-07 07:00,ZHHH 070700Z AUTO 20008KT 6SM 24/02 A3012 RMK T02400020 IEM_DS3505
ZHHH,2006-11-07 08:00,ZHHH 070800Z AUTO 18006KT 6SM 23/04 A3009 RMK T02300040 IEM_DS3505
ZHHH,2006-11-07 09:00,ZHHH 070900Z AUTO 11002KT 9SM 23/02 A3009 RMK SLP190 T02270017 57012 IEM_DS3505
ZHHH,2006-11-07 10:00,ZHHH 071000Z AUTO 14006KT 4SM 20/05 A3009 RMK T02000050 IEM_DS3505
ZHHH,2006-11-07 11:00,ZHHH 071100Z AUTO 14006KT 4SM 19/06 A3009 RMK T01900060 IEM_DS3505
ZHHH,2006-11-07 12:00,ZHHH 071200Z AUTO 12006KT 9SM 17/05 A3009 RMK SLP190 T01680054 54000 IEM_DS3505
ZHHH,2006-11-07 13:00,ZHHH 071300Z AUTO 13008KT 4SM 17/10 A3009 RMK T01700100 IEM_DS3505
ZHHH,2006-11-07 14:00,ZHHH 071400Z AUTO 14006KT 4SM 17/08 A3009 RMK T01700080 IEM_DS3505
ZHHH,2006-11-07 15:00,ZHHH 071500Z AUTO 16002KT 9SM 16/09 A3009 RMK SLP191 T01650087 52001 IEM_DS3505
ZHHH,2006-11-07 16:00,ZHHH 071600Z AUTO 14008KT 3SM 16/10 A3009 RMK T01600100 IEM_DS3505
ZHHH,2006-11-07 17:00,ZHHH 071700Z AUTO 12006KT 3SM 15/10 A3006 RMK T01500100 IEM_DS3505
ZHHH,2006-11-07 18:00,ZHHH 071800Z AUTO 07002KT 9SM 16/07 A3006 RMK SLP183 T01580073 57008 IEM_DS3505
ZHHH,2006-11-07 19:00,ZHHH 071900Z AUTO 12006KT 3SM 14/11 A3006 RMK T01400110 IEM_DS3505
ZHHH,2006-11-07 20:00,ZHHH 072000Z AUTO 13006KT 3SM 14/11 A3003 RMK T01400110 IEM_DS3505
ZHHH,2006-11-07 21:00,ZHHH 072100Z AUTO 16004KT 9SM 15/06 A3003 RMK SLP173 T01510056 57010 IEM_DS3505
ZHHH,2006-11-07 22:00,ZHHH 072200Z AUTO 12006KT 2 1/2SM 13/10 A3003 RMK T01300100 IEM_DS3505
ZHHH,2006-11-07 23:00,ZHHH 072300Z AUTO 11006KT 2 1/2SM 13/10 A3006 RMK T01300100 IEM_DS3505
ZHHH,2006-11-08 00:00,ZHHH 080000Z AUTO 14002KT 11SM 17/06 A3006 RMK SLP182 T01720064 52009 IEM_DS3505
ZHHH,2006-11-08 01:00,ZHHH 080100Z AUTO 14004KT 2 1/2SM 18/12 A3009 RMK T01800120 IEM_DS3505
ZHHH,2006-11-08 02:00,ZHHH 080200Z AUTO 20010KT 4SM 22/10 A3009 RMK T02200100 IEM_DS3505
ZHHH,2006-11-08 03:00,ZHHH 080300Z AUTO 20004KT 14SM 24/05 A3006 RMK SLP183 T02380052 52001 IEM_DS3505
ZHHH,2006-11-08 04:00,ZHHH 080400Z AUTO 22014KT 6SM 25/10 A3006 RMK T02500100 IEM_DS3505
ZHHH,2006-11-08 05:00,ZHHH 080500Z AUTO 22012KT 6SM 26/10 A3003 RMK T02600100 IEM_DS3505
ZHHH,2006-11-08 06:00,ZHHH 080600Z AUTO 25008KT 11SM 26/04 A3000 RMK SLP156 T02640036 57027 IEM_DS3505
ZHHH,2006-11-08 07:00,ZHHH 080700Z AUTO 21012KT 6SM 26/09 A2997 RMK T02600090 IEM_DS3505
ZHHH,2006-11-08 08:00,ZHHH 080800Z AUTO 22010KT 6SM 26/10 A2997 RMK T02600100 IEM_DS3505
ZHHH,2006-11-08 09:00,ZHHH 080900Z AUTO 22002KT 9SM 24/06 A2997 RMK SLP151 T02450058 57005 IEM_DS3505
ZHHH,2006-11-08 10:00,ZHHH 081000Z AUTO 15004KT 6SM 22/10 A2997 RMK T02200100 IEM_DS3505
ZHHH,2006-11-08 11:00,ZHHH 081100Z AUTO 10002KT 4SM 21/09 A3000 RMK T02100090 IEM_DS3505
ZHHH,2006-11-08 12:00,ZHHH 081200Z AUTO 01004KT 9SM 18/10 A3003 RMK SLP168 T01770096 52017 IEM_DS3505
ZHHH,2006-11-08 13:00,ZHHH 081300Z AUTO 05006KT 4SM 19/09 A3006 RMK T01900090 IEM_DS3505
ZHHH,2006-11-08 14:00,ZHHH 081400Z AUTO 08006KT 4SM 19/09 A3006 RMK T01900090 IEM_DS3505
ZHHH,2006-11-08 15:00,ZHHH 081500Z AUTO 09002KT 9SM 16/10 A3006 RMK SLP181 T01650104 52013 IEM_DS3505
ZHHH,2006-11-08 16:00,ZHHH 081600Z AUTO 12006KT 4SM 18/11 A3006 RMK T01800110 IEM_DS3505
ZHHH,2006-11-08 17:00,ZHHH 081700Z AUTO 10004KT 4SM 16/12 A3006 RMK T01600120 IEM_DS3505
ZHHH,2006-11-08 18:00,ZHHH 081800Z AUTO 11002KT 9SM 15/12 A3006 RMK SLP183 T01530117 52002 IEM_DS3505
ZHHH,2006-11-08 19:00,ZHHH 081900Z AUTO 11006KT 4SM 15/12 A3006 RMK T01500120 IEM_DS3505
ZHHH,2006-11-08 20:00,ZHHH 082000Z AUTO 11008KT 3SM 15/11 A3006 RMK T01500110 IEM_DS3505
ZHHH,2006-11-08 21:00,ZHHH 082100Z AUTO 07002KT 9SM 14/12 A3006 RMK SLP181 T01440117 57002 IEM_DS3505
ZHHH,2006-11-08 22:00,ZHHH 082200Z AUTO 08008KT 3SM 14/09 A3009 RMK T01400090 IEM_DS3505
ZHHH,2006-11-08 23:00,ZHHH 082300Z AUTO 11010KT 3SM 14/09 A3009 RMK T01400090 IEM_DS3505
ZHHH,2006-11-09 00:00,ZHHH 090000Z AUTO 07002KT 9SM 17/11 A3012 RMK SLP199 T01670112 52018 IEM_DS3505
ZHHH,2006-11-09 01:00,ZHHH 090100Z AUTO 11006KT 3SM 17/11 A3012 RMK T01700110 IEM_DS3505
ZHHH,2006-11-09 02:00,ZHHH 090200Z AUTO 11006KT 4SM 20/11 A3015 RMK T02000110 IEM_DS3505
ZHHH,2006-11-09 03:00,ZHHH 090300Z AUTO 09002KT 9SM 24/08 A3012 RMK SLP198 T02450085 57001 IEM_DS3505
ZHHH,2006-11-09 04:00,ZHHH 090400Z AUTO 09006KT 4SM 23/13 A3009 RMK T02300130 IEM_DS3505
ZHHH,2006-11-09 05:00,ZHHH 090500Z AUTO 06004KT 4SM 25/13 A3006 RMK T02500130 IEM_DS3505
ZHHH,2006-11-09 06:00,ZHHH 090600Z AUTO 22004KT 11SM 27/09 A3003 RMK SLP173 T02670087 57025 IEM_DS3505
ZHHH,2006-11-09 07:00,ZHHH 090700Z AUTO 4SM 26/13 A3003 RMK T02600130 IEM_DS3505
ZHHH,2006-11-09 08:00,ZHHH 090800Z AUTO 3SM 26/12 A3003 RMK T02600120 IEM_DS3505
ZHHH,2006-11-09 09:00,ZHHH 090900Z AUTO 14004KT 9SM 24/11 A3003 RMK SLP167 T02440110 57006 IEM_DS3505
ZHHH,2006-11-09 10:00,ZHHH 091000Z AUTO 10004KT 3SM 23/13 A3003 RMK T02300130 IEM_DS3505
ZHHH,2006-11-09 11:00,ZHHH 091100Z AUTO 08004KT 3SM 22/14 A3006 RMK T02200140 IEM_DS3505
ZHHH,2006-11-09 12:00,ZHHH 091200Z AUTO 07002KT 7SM 20/13 A3006 RMK SLP177 T01970132 52010 IEM_DS3505
ZHHH,2006-11-09 13:00,ZHHH 091300Z AUTO 09004KT 3SM 21/12 A3006 RMK T02100120 IEM_DS3505
ZHHH,2006-11-09 14:00,ZHHH 091400Z AUTO 07006KT 3SM 20/13 A3006 RMK T02000130 IEM_DS3505
ZHHH,2006-11-09 15:00,ZHHH 091500Z AUTO 04002KT 7SM 20/13 A3009 RMK SLP183 T01970129 52007 IEM_DS3505
ZHHH,2006-11-09 16:00,ZHHH 091600Z AUTO 05006KT 4SM 19/12 A3009 RMK T01900120 IEM_DS3505
ZHHH,2006-11-09 17:00,ZHHH 091700Z AUTO 07006KT 4SM 19/11 A3006 RMK T01900110 IEM_DS3505
ZHHH,2006-11-09 18:00,ZHHH 091800Z AUTO 04002KT 7SM 20/12 A3006 RMK SLP183 T01950115 54000 IEM_DS3505
ZHHH,2006-11-09 19:00,ZHHH 091900Z AUTO 06004KT 6SM 19/11 A3006 RMK T01900110 IEM_DS3505
ZHHH,2006-11-09 20:00,ZHHH 092000Z AUTO 10004KT 6SM 19/11 A3003 RMK T01900110 IEM_DS3505
ZHHH,2006-11-09 21:00,ZHHH 092100Z AUTO 04002KT 9SM 19/10 A3006 RMK SLP174 T01910104 57009 IEM_DS3505
ZHHH,2006-11-09 22:00,ZHHH 092200Z AUTO 03004KT 6SM 18/11 A3006 RMK T01800110 IEM_DS3505
ZHHH,2006-11-09 23:00,ZHHH 092300Z AUTO 00000KT 4SM 17/12 A3009 RMK T01700120 IEM_DS3505
ZHHH,2006-11-10 00:00,ZHHH 100000Z AUTO 07002KT 9SM 19/12 A3012 RMK SLP196 T01870118 52021 IEM_DS3505
ZHHH,2006-11-10 01:00,ZHHH 100100Z AUTO 2 1/2SM 19/14 A3012 RMK T01900140 IEM_DS3505
ZHHH,2006-11-10 02:00,ZHHH 100200Z AUTO 19004KT 2 1/2SM 20/16 A3012 RMK T02000160 IEM_DS3505
ZHHH,2006-11-10 03:00,ZHHH 100300Z AUTO 36002KT 9SM 23/10 A3012 RMK SLP196 T02300104 54000 IEM_DS3505
ZHHH,2006-11-10 04:00,ZHHH 100400Z AUTO 29004KT 4SM 23/15 A3009 RMK T02300150 IEM_DS3505
ZHHH,2006-11-10 05:00,ZHHH 100500Z AUTO 32006KT 3SM 24/13 A3009 RMK T02400130 IEM_DS3505
ZHHH,2006-11-10 06:00,ZHHH 100600Z AUTO 32002KT 9SM 24/10 A3006 RMK SLP184 T02420101 57012 IEM_DS3505
ZHHH,2006-11-10 07:00,ZHHH 100700Z AUTO 30004KT 5SM 24/13 A3009 RMK T02400130 IEM_DS3505
ZHHH,2006-11-10 08:00,ZHHH 100800Z AUTO 32006KT 6SM 23/13 A3009 RMK T02300130 IEM_DS3505
ZHHH,2006-11-10 09:00,ZHHH 100900Z AUTO 29002KT 9SM 22/11 A3009 RMK SLP190 T02250106 52006 IEM_DS3505
ZHHH,2006-11-10 10:00,ZHHH 101000Z AUTO 01004KT 6SM 21/13 A3012 RMK T02100130 IEM_DS3505
ZHHH,2006-11-10 11:00,ZHHH 101100Z AUTO 35004KT 6SM 20/13 A3015 RMK T02000130 IEM_DS3505
ZHHH,2006-11-10 12:00,ZHHH 101200Z AUTO 34002KT 9SM 19/11 A3015 RMK SLP213 T01910114 52023 IEM_DS3505
ZHHH,2006-11-10 13:00,ZHHH 101300Z AUTO 02006KT 6SM 19/09 A3018 RMK T01900090 IEM_DS3505
ZHHH,2006-11-10 14:00,ZHHH 101400Z AUTO 05002KT 6SM 19/08 A3018 RMK T01900080 IEM_DS3505
ZHHH,2006-11-10 15:00,ZHHH 101500Z AUTO 32002KT 9SM 16/09 A3021 RMK SLP226 T01630090 52013 IEM_DS3505
ZHHH,2006-11-10 16:00,ZHHH 101600Z AUTO 01002KT 6SM 15/12 A3021 RMK T01500120 IEM_DS3505
ZHHH,2006-11-10 17:00,ZHHH 101700Z AUTO 34004KT 6SM 16/11 A3021 RMK T01600110 IEM_DS3505
ZHHH,2006-11-10 18:00,ZHHH 101800Z AUTO 27002KT 9SM 16/11 A3021 RMK SLP234 T01600112 52008 IEM_DS3505
ZHHH,2006-11-10 19:00,ZHHH 101900Z AUTO 03008KT 3SM 15/10 A3024 RMK T01500100 IEM_DS3505
ZHHH,2006-11-10 20:00,ZHHH 102000Z AUTO 04010KT 3SM 15/09 A3024 RMK T01500090 IEM_DS3505
ZHHH,2006-11-10 21:00,ZHHH 102100Z AUTO 36004KT 9SM 15/08 A3027 RMK SLP250 T01480076 52016 IEM_DS3505
ZHHH,2006-11-10 22:00,ZHHH 102200Z AUTO 04006KT 1 1/4SM 13/08 A3030 RMK T01300080 IEM_DS3505
ZHHH,2006-11-10 23:00,ZHHH 102300Z AUTO 03008KT 1 1/4SM 12/08 A3033 RMK T01200080 IEM_DS3505
ZHHH,2006-11-11 00:00,ZHHH 110000Z AUTO 02006KT 9SM 14/06 A3033 RMK SLP273 T01360062 52023 IEM_DS3505
ZHHH,2006-11-11 01:00,ZHHH 110100Z AUTO 04008KT 2 1/2SM 14/07 A3036 RMK T01400070 IEM_DS3505
ZHHH,2006-11-11 02:00,ZHHH 110200Z AUTO 04008KT 4SM 16/06 A3036 RMK T01600060 IEM_DS3505
ZHHH,2006-11-11 03:00,ZHHH 110300Z AUTO 04006KT 11SM 18/02 A3036 RMK SLP279 T01850019 52006 IEM_DS3505
ZHHH,2006-11-11 04:00,ZHHH 110400Z AUTO 06012KT 6SM 20/02 A3036 RMK T02000020 IEM_DS3505
ZHHH,2006-11-11 05:00,ZHHH 110500Z AUTO 05010KT 6SM 20/00 A3033 RMK T02000000 IEM_DS3505
ZHHH,2006-11-11 06:00,ZHHH 110600Z AUTO 07006KT 11SM 21/M02 A3030 RMK SLP255 T02081017 57024 IEM_DS3505
ZHHH,2006-11-11 07:00,ZHHH 110700Z AUTO 03008KT 6SM 21/M01 A3027 RMK T02101010 IEM_DS3505
ZHHH,2006-11-11 08:00,ZHHH 110800Z AUTO 05008KT 6SM 20/M01 A3027 RMK T02001010 IEM_DS3505
ZHHH,2006-11-11 09:00,ZHHH 110900Z AUTO 02002KT 9SM 20/M03 A3027 RMK SLP249 T01951028 57006 IEM_DS3505
ZHHH,2006-11-11 10:00,ZHHH 111000Z AUTO 04004KT 6SM 17/02 A3027 RMK T01700020 IEM_DS3505
ZHHH,2006-11-11 11:00,ZHHH 111100Z AUTO 04006KT 6SM 16/02 A3027 RMK T01600020 IEM_DS3505
ZHHH,2006-11-11 12:00,ZHHH 111200Z AUTO 07002KT 11SM 16/01 A3027 RMK SLP249 T01560010 54000 IEM_DS3505
ZHHH,2006-11-11 13:00,ZHHH 111300Z AUTO 03006KT 6SM 14/03 A3027 RMK T01400030 IEM_DS3505
ZHHH,2006-11-11 14:00,ZHHH 111400Z AUTO 04006KT 6SM 13/02 A3027 RMK T01300020 IEM_DS3505
ZHHH,2006-11-11 15:00,ZHHH 111500Z AUTO 07002KT 11SM 14/03 A3027 RMK SLP246 T01360031 57003 IEM_DS3505
ZHHH,2006-11-11 16:00,ZHHH 111600Z AUTO 13006KT 6SM 12/02 A3024 RMK T01200020 IEM_DS3505
ZHHH,2006-11-11 17:00,ZHHH 111700Z AUTO 10010KT 6SM 11/03 A3024 RMK T01100030 IEM_DS3505
ZHHH,2006-11-11 18:00,ZHHH 111800Z AUTO 09004KT 9SM 13/01 A3024 RMK SLP236 T01260007 57010 IEM_DS3505
ZHHH,2006-11-11 19:00,ZHHH 111900Z AUTO 09008KT 6SM 10/04 A3021 RMK T01000040 IEM_DS3505
ZHHH,2006-11-11 20:00,ZHHH 112000Z AUTO 10006KT 6SM 10/06 A3021 RMK T01000060 IEM_DS3505
ZHHH,2006-11-11 21:00,ZHHH 112100Z AUTO 16002KT 9SM 12/06 A3021 RMK SLP226 T01240065 57010 IEM_DS3505
ZHHH,2006-11-11 22:00,ZHHH 112200Z AUTO 10006KT 4SM 09/07 A3021 RMK T00900070 IEM_DS3505
ZHHH,2006-11-11 23:00,ZHHH 112300Z AUTO 10008KT 4SM 08/07 A3021 RMK T00800070 IEM_DS3505
ZHHH,2006-11-12 00:00,ZHHH 120000Z AUTO 22002KT 11SM 14/03 A3021 RMK SLP233 T01380033 52007 IEM_DS3505
ZHHH,2006-11-12 01:00,ZHHH 120100Z AUTO 12008KT 4SM 13/09 A3021 RMK T01300090 IEM_DS3505
ZHHH,2006-11-12 02:00,ZHHH 120200Z AUTO 12008KT 3SM 15/06 A3021 RMK T01500060 IEM_DS3505
ZHHH,2006-11-12 03:00,ZHHH 120300Z AUTO 16004KT 12SM 18/02 A3018 RMK SLP220 T01800015 57013 IEM_DS3505
ZHHH,2006-11-12 04:00,ZHHH 120400Z AUTO 11008KT 6SM 18/05 A3015 RMK T01800050 IEM_DS3505
ZHHH,2006-11-12 05:00,ZHHH 120500Z AUTO 12008KT 6SM 19/04 A3009 RMK T01900040 IEM_DS3505
ZHHH,2006-11-12 06:00,ZHHH 120600Z AUTO 18004KT 11SM 20/M01 A3006 RMK SLP183 T02041008 57037 IEM_DS3505
ZHHH,2006-11-12 07:00,ZHHH 120700Z AUTO 10006KT 6SM 20/06 A3006 RMK T02000060 IEM_DS3505
ZHHH,2006-11-12 08:00,ZHHH 120800Z AUTO 12008KT 6SM 20/05 A3003 RMK T02000050 IEM_DS3505
ZHHH,2006-11-12 09:00,ZHHH 120900Z AUTO 11004KT 11SM 20/M01 A3003 RMK SLP166 T02001012 57017 IEM_DS3505
ZHHH,2006-11-12 10:00,ZHHH 121000Z AUTO 10006KT 6SM 17/06 A3003 RMK T01700060 IEM_DS3505
ZHHH,2006-11-12 11:00,ZHHH 121100Z AUTO 11006KT 4SM 16/07 A3003 RMK T01600070 IEM_DS3505
ZHHH,2006-11-12 12:00,ZHHH 121200Z AUTO 09002KT 9SM 18/03 A3003 RMK SLP165 T01820033 57001 IEM_DS3505
ZHHH,2006-11-12 13:00,ZHHH 121300Z AUTO 10004KT 4SM 15/08 A3003 RMK T01500080 IEM_DS3505
ZHHH,2006-11-12 14:00,ZHHH 121400Z AUTO 11006KT 4SM 15/08 A3003 RMK T01500080 IEM_DS3505
ZHHH,2006-11-12 15:00,ZHHH 121500Z AUTO 09002KT 9SM 17/05 A3000 RMK SLP160 T01690049 57005 IEM_DS3505
ZHHH,2006-11-12 16:00,ZHHH 121600Z AUTO 11004KT 4SM 14/09 A3000 RMK T01400090 IEM_DS3505
ZHHH,2006-11-12 17:00,ZHHH 121700Z AUTO 11006KT 4SM 13/08 A2997 RMK T01300080 IEM_DS3505
ZHHH,2006-11-12 18:00,ZHHH 121800Z AUTO 11002KT 9SM 15/05 A2997 RMK SLP150 T01520054 57010 IEM_DS3505
ZHHH,2006-11-12 19:00,ZHHH 121900Z AUTO 12006KT 3SM 13/08 A2997 RMK T01300080 IEM_DS3505
ZHHH,2006-11-12 20:00,ZHHH 122000Z AUTO 10004KT 3SM 12/08 A2994 RMK T01200080 IEM_DS3505
ZHHH,2006-11-12 21:00,ZHHH 122100Z AUTO 09002KT 9SM 15/07 A2994 RMK SLP140 T01510067 57010 IEM_DS3505
ZHHH,2006-11-12 22:00,ZHHH 122200Z AUTO 12006KT 2 1/2SM 13/09 A2994 RMK T01300090 IEM_DS3505
ZHHH,2006-11-12 23:00,ZHHH 122300Z AUTO 14006KT 2 1/2SM 14/09 A2997 RMK T01400090 IEM_DS3505
ZHHH,2006-11-13 00:00,ZHHH 130000Z AUTO 09002KT 9SM 16/07 A2997 RMK SLP155 T01590074 52015 IEM_DS3505
ZHHH,2006-11-13 01:00,ZHHH 130100Z AUTO 07006KT 2 1/2SM 14/09 A3000 RMK T01400090 IEM_DS3505
ZHHH,2006-11-13 02:00,ZHHH 130200Z AUTO 11004KT 2 1/2SM 14/09 A3003 RMK T01400090 IEM_DS3505
ZHHH,2006-11-13 03:00,ZHHH 130300Z AUTO 04002KT 9SM 17/09 A3003 RMK SLP168 T01690091 52013 IEM_DS3505
ZHHH,2006-11-13 04:00,ZHHH 130400Z AUTO 13006KT 2SM 16/10 A3000 RMK T01600100 IEM_DS3505
ZHHH,2006-11-13 05:00,ZHHH 130500Z AUTO 12004KT 2SM 17/10 A2997 RMK T01700100 IEM_DS3505
ZHHH,2006-11-13 06:00,ZHHH 130600Z AUTO 22002KT 9SM 20/06 A2997 RMK SLP152 T02020065 57016 IEM_DS3505
ZHHH,2006-11-13 07:00,ZHHH 130700Z AUTO 00000KT 2 1/2SM 20/09 A2997 RMK T02000090 IEM_DS3505
ZHHH,2006-11-13 08:00,ZHHH 130800Z AUTO 31002KT 2 1/2SM 20/10 A3000 RMK T02000100 IEM_DS3505
ZHHH,2006-11-13 09:00,ZHHH 130900Z AUTO 04002KT 9SM 19/09 A3000 RMK SLP160 T01890086 52008 IEM_DS3505
ZHHH,2006-11-13 10:00,ZHHH 131000Z AUTO 35002KT 1 1/2SM 17/10 A3003 RMK T01700100 IEM_DS3505
ZHHH,2006-11-13 11:00,ZHHH 131100Z AUTO 05012KT 1SM 16/08 A3009 RMK T01600080 IEM_DS3505
ZHHH,2006-11-13 12:00,ZHHH 131200Z AUTO 04006KT 9SM 16/05 A3012 RMK SLP196 T01610051 52036 IEM_DS3505
ZHHH,2006-11-13 13:00,ZHHH 131300Z AUTO 04010KT 1 1/2SM 14/06 A3015 RMK T01400060 IEM_DS3505
ZHHH,2006-11-13 14:00,ZHHH 131400Z AUTO 02006KT 1 1/2SM 13/06 A3018 RMK T01300060 IEM_DS3505
ZHHH,2006-11-13 15:00,ZHHH 131500Z AUTO 04006KT 11SM 14/04 A3018 RMK SLP219 T01420045 52023 IEM_DS3505
ZHHH,2006-11-13 16:00,ZHHH 131600Z AUTO 02006KT 2SM 13/05 A3021 RMK T01300050 IEM_DS3505
ZHHH,2006-11-13 17:00,ZHHH 131700Z AUTO 02008KT 2SM 13/05 A3021 RMK T01300050 IEM_DS3505
ZHHH,2006-11-13 18:00,ZHHH 131800Z AUTO 34006KT 9SM 13/03 A3024 RMK SLP242 T01330034 52023 IEM_DS3505
ZHHH,2006-11-13 19:00,ZHHH 131900Z AUTO 03008KT 2 1/2SM 12/06 A3027 RMK T01200060 IEM_DS3505
ZHHH,2006-11-13 20:00,ZHHH 132000Z AUTO 02006KT 4SM 12/06 A3027 RMK T01200060 IEM_DS3505
ZHHH,2006-11-13 21:00,ZHHH 132100Z AUTO 02002KT 9SM 12/05 A3027 RMK SLP255 T01220049 52013 IEM_DS3505
ZHHH,2006-11-13 22:00,ZHHH 132200Z AUTO 02006KT 6SM 11/06 A3030 RMK T01100060 IEM_DS3505
ZHHH,2006-11-13 23:00,ZHHH 132300Z AUTO 01006KT 6SM 10/06 A3033 RMK T01000060 IEM_DS3505
ZHHH,2006-11-14 00:00,ZHHH 140000Z AUTO 36004KT 9SM 11/06 A3036 RMK SLP284 T01120055 52028 IEM_DS3505
ZHHH,2006-11-14 01:00,ZHHH 140100Z AUTO 02008KT 4SM 12/06 A3039 RMK T01200060 IEM_DS3505
ZHHH,2006-11-14 02:00,ZHHH 140200Z AUTO 01010KT 4SM 13/06 A3042 RMK T01300060 IEM_DS3505
ZHHH,2006-11-14 03:00,ZHHH 140300Z AUTO 34004KT 9SM 15/05 A3039 RMK SLP294 T01470050 52010 IEM_DS3505
ZHHH,2006-11-14 04:00,ZHHH 140400Z AUTO 02008KT 6SM 15/06 A3039 RMK T01500060 IEM_DS3505
ZHHH,2006-11-14 05:00,ZHHH 140500Z AUTO 03010KT 6SM 16/06 A3033 RMK T01600060 IEM_DS3505
ZHHH,2006-11-14 06:00,ZHHH 140600Z AUTO 02004KT 9SM 17/04 A3033 RMK SLP265 T01670037 57028 IEM_DS3505
ZHHH,2006-11-14 07:00,ZHHH 140700Z AUTO 02008KT 6SM 16/05 A3033 RMK T01600050 IEM_DS3505
ZHHH,2006-11-14 08:00,ZHHH 140800Z AUTO 03008KT 6SM 16/03 A3033 RMK T01600030 IEM_DS3505
ZHHH,2006-11-14 09:00,ZHHH 140900Z AUTO 27002KT 9SM 15/00 A3033 RMK SLP264 T01530003 57002 IEM_DS3505
ZHHH,2006-11-14 10:00,ZHHH 141000Z AUTO 02006KT 6SM 14/03 A3030 RMK T01400030 IEM_DS3505
ZHHH,2006-11-14 11:00,ZHHH 141100Z AUTO 00000KT 6SM 13/03 A3033 RMK T01300030 IEM_DS3505
ZHHH,2006-11-14 12:00,ZHHH 141200Z AUTO 32002KT 9SM 14/04 A3033 RMK SLP268 T01360045 52004 IEM_DS3505
ZHHH,2006-11-14 13:00,ZHHH 141300Z AUTO 01004KT 6SM 12/04 A3033 RMK T01200040 IEM_DS3505
ZHHH,2006-11-14 14:00,ZHHH 141400Z AUTO 05004KT 6SM 12/04 A3033 RMK T01200040 IEM_DS3505
ZHHH,2006-11-14 15:00,ZHHH 141500Z AUTO 04002KT 9SM 13/01 A3033 RMK SLP268 T01290013 54000 IEM_DS3505
ZHHH,2006-11-14 16:00,ZHHH 141600Z AUTO 05004KT 6SM 12/04 A3030 RMK T01200040 IEM_DS3505
ZHHH,2006-11-14 17:00,ZHHH 141700Z AUTO 6SM 11/04 A3030 RMK T01100040 IEM_DS3505
ZHHH,2006-11-14 18:00,ZHHH 141800Z AUTO 07004KT 11SM 12/02 A3027 RMK SLP253 T01240020 57014 IEM_DS3505
ZHHH,2006-11-14 19:00,ZHHH 141900Z AUTO 6SM 10/04 A3027 RMK T01000040 IEM_DS3505
ZHHH,2006-11-14 20:00,ZHHH 142000Z AUTO 13004KT 6SM 11/04 A3027 RMK T01100040 IEM_DS3505
ZHHH,2006-11-14 21:00,ZHHH 142100Z AUTO 09002KT 11SM 12/03 A3027 RMK SLP246 T01150028 57008 IEM_DS3505
ZHHH,2006-11-14 22:00,ZHHH 142200Z AUTO 09004KT 6SM 09/05 A3024 RMK T00900050 IEM_DS3505
ZHHH,2006-11-14 23:00,ZHHH 142300Z AUTO 10006KT 6SM 09/05 A3027 RMK T00900050 IEM_DS3505
ZHHH,2006-11-15 00:00,ZHHH 150000Z AUTO 10006KT 11SM 12/06 A3027 RMK SLP251 T01180057 52005 IEM_DS3505
ZHHH,2006-11-15 01:00,ZHHH 150100Z AUTO 09006KT 4SM 11/07 A3027 RMK T01100070 IEM_DS3505
ZHHH,2006-11-15 02:00,ZHHH 150200Z AUTO 10006KT 2SM 13/08 A3027 RMK T01300080 IEM_DS3505
ZHHH,2006-11-15 03:00,ZHHH 150300Z AUTO 11004KT 9SM 15/05 A3024 RMK SLP239 T01540050 57011 IEM_DS3505
ZHHH,2006-11-15 04:00,ZHHH 150400Z AUTO 13004KT 2SM 15/08 A3021 RMK T01500080 IEM_DS3505
ZHHH,2006-11-15 05:00,ZHHH 150500Z AUTO 16006KT 2 1/2SM 15/06 A3018 RMK T01500060 IEM_DS3505
ZHHH,2006-11-15 06:00,ZHHH 150600Z AUTO 18002KT 9SM 16/04 A3015 RMK SLP206 T01570038 57033 IEM_DS3505
ZHHH,2006-11-15 07:00,ZHHH 150700Z AUTO 10004KT 2 1/2SM 15/07 A3012 RMK T01500070 IEM_DS3505
ZHHH,2006-11-15 08:00,ZHHH 150800Z AUTO 2 1/2SM 15/07 A3012 RMK T01500070 IEM_DS3505
ZHHH,2006-11-15 09:00,ZHHH 150900Z AUTO 34004KT 7SM 15/08 A3012 RMK SLP202 T01490075 57004 IEM_DS3505
ZHHH,2006-11-15 10:00,ZHHH 151000Z AUTO 04004KT 1 1/4SM 12/10 A3015 RMK T01200100 IEM_DS3505
ZHHH,2006-11-15 11:00,ZHHH 151100Z AUTO 06004KT 1 1/2SM 11/10 A3015 RMK T01100100 IEM_DS3505
ZHHH,2006-11-15 12:00,ZHHH 151200Z AUTO 32002KT 6SM 12/10 A3018 RMK 60016 SLP219 T01170096 52016 IEM_DS3505
ZHHH,2006-11-15 13:00,ZHHH 151300Z AUTO 36004KT 1SM 11/11 A3018 RMK T01100110 IEM_DS3505
ZHHH,2006-11-15 14:00,ZHHH 151400Z AUTO 04004KT 1SM 11/10 A3018 RMK T01100100 IEM_DS3505
ZHHH,2006-11-15 15:00,ZHHH 151500Z AUTO 04002KT 6SM 12/10 A3018 RMK SLP224 T01150099 52006 IEM_DS3505
ZHHH,2006-11-15 16:00,ZHHH 151600Z AUTO 06006KT 1SM 10/10 A3018 RMK T01000100 IEM_DS3505
ZHHH,2006-11-15 17:00,ZHHH 151700Z AUTO 05006KT 1SM 11/10 A3018 RMK T01100100 IEM_DS3505
ZHHH,2006-11-15 18:00,ZHHH 151800Z AUTO 07002KT 6SM 11/10 A3015 RMK 60012 SLP213 T01140097 57011 IEM_DS3505
ZHHH,2006-11-15 19:00,ZHHH 151900Z AUTO 1SM 11/11 A3015 RMK T01100110 IEM_DS3505
ZHHH,2006-11-15 20:00,ZHHH 152000Z AUTO 1SM 10/10 A3015 RMK T01000100 IEM_DS3505
ZHHH,2006-11-15 21:00,ZHHH 152100Z AUTO 07002KT 6SM 11/10 A3015 RMK 70035 SLP210 T01120099 57003 IEM_DS3505
ZHHH,2006-11-15 22:00,ZHHH 152200Z AUTO 02002KT 1SM 11/11 A3015 RMK T01100110 IEM_DS3505
ZHHH,2006-11-15 23:00,ZHHH 152300Z AUTO 34004KT 1SM 11/11 A3018 RMK T01100110 IEM_DS3505
ZHHH,2006-11-16 00:00,ZHHH 160000Z AUTO 04002KT 7SM 11/10 A3015 RMK 60008 70035 SLP214 T01130100 52003 IEM_DS3505
ZHHH,2006-11-16 01:00,ZHHH 160100Z AUTO 1SM 11/11 A3018 RMK T01100110 IEM_DS3505
ZHHH,2006-11-16 02:00,ZHHH 160200Z AUTO 34006KT 1SM 11/11 A3021 RMK T01100110 IEM_DS3505
ZHHH,2006-11-16 03:00,ZHHH 160300Z AUTO 29004KT 7SM 11/10 A3018 RMK SLP223 T01130100 52009 IEM_DS3505
ZHHH,2006-11-16 04:00,ZHHH 160400Z AUTO 34004KT 1SM 11/11 A3018 RMK T01100110 IEM_DS3505
ZHHH,2006-11-16 05:00,ZHHH 160500Z AUTO 1 1/4SM 11/11 A3015 RMK T01100110 IEM_DS3505
ZHHH,2006-11-16 06:00,ZHHH 160600Z AUTO 27004KT 7SM 12/10 A3012 RMK 60000 SLP204 T01200096 57019 IEM_DS3505
ZHHH,2006-11-16 07:00,ZHHH 160700Z AUTO 1 1/2SM 13/11 A3012 RMK T01300110 IEM_DS3505
ZHHH,2006-11-16 08:00,ZHHH 160800Z AUTO 1 1/2SM 13/11 A3012 RMK T01300110 IEM_DS3505
ZHHH,2006-11-16 09:00,ZHHH 160900Z AUTO 09002KT 7SM 12/09 A3012 RMK SLP202 T01250093 57002 IEM_DS3505
ZHHH,2006-11-16 10:00,ZHHH 161000Z AUTO 1 1/4SM 12/11 A3015 RMK T01200110 IEM_DS3505
ZHHH,2006-11-16 11:00,ZHHH 161100Z AUTO 00000KT 1SM 11/10 A3015 RMK T01100100 IEM_DS3505
ZHHH,2006-11-16 12:00,ZHHH 161200Z AUTO 27002KT 7SM 12/10 A3018 RMK SLP223 T01170099 52021 IEM_DS3505
ZHHH,2006-11-16 13:00,ZHHH 161300Z AUTO 03002KT 1SM 11/10 A3018 RMK T01100100 IEM_DS3505
ZHHH,2006-11-16 14:00,ZHHH 161400Z AUTO 00000KT 1SM 11/10 A3021 RMK T01100100 IEM_DS3505
ZHHH,2006-11-16 15:00,ZHHH 161500Z AUTO 02002KT 6SM 11/10 A3018 RMK SLP223 T01130099 54000 IEM_DS3505
ZHHH,2006-11-16 16:00,ZHHH 161600Z AUTO 03002KT 1SM 10/10 A3018 RMK T01000100 IEM_DS3505
ZHHH,2006-11-16 17:00,ZHHH 161700Z AUTO 02004KT 1SM 10/10 A3018 RMK T01000100 IEM_DS3505
ZHHH,2006-11-16 18:00,ZHHH 161800Z AUTO 04002KT 4SM 11/10 A3018 RMK SLP219 T01120103 57004 IEM_DS3505
ZHHH,2006-11-16 19:00,ZHHH 161900Z AUTO 03002KT 1SM 10/10 A3018 RMK T01000100 IEM_DS3505
ZHHH,2006-11-16 20:00,ZHHH 162000Z AUTO 03002KT 1SM 10/10 A3018 RMK T01000100 IEM_DS3505
ZHHH,2006-11-16 21:00,ZHHH 162100Z AUTO 04004KT 6SM 11/09 A3015 RMK 70000 SLP210 T01100094 57009 IEM_DS3505
ZHHH,2006-11-16 22:00,ZHHH 162200Z AUTO 08008KT 1SM 10/09 A3015 RMK T01000090 IEM_DS3505
ZHHH,2006-11-16 23:00,ZHHH 162300Z AUTO 08006KT 1 1/4SM 10/09 A3018 RMK T01000090 IEM_DS3505
ZHHH,2006-11-17 00:00,ZHHH 170000Z AUTO 07002KT 7SM 11/08 A3018 RMK 70000 SLP221 T01120084 52011 IEM_DS3505
ZHHH,2006-11-17 01:00,ZHHH 170100Z AUTO 05004KT 1SM 10/09 A3018 RMK T01000090 IEM_DS3505
ZHHH,2006-11-17 02:00,ZHHH 170200Z AUTO 07004KT 1 1/4SM 10/09 A3018 RMK T01000090 IEM_DS3505
ZHHH,2006-11-17 03:00,ZHHH 170300Z AUTO 04004KT 6SM 11/10 A3018 RMK SLP224 T01110095 52003 IEM_DS3505
ZHHH,2006-11-17 04:00,ZHHH 170400Z AUTO 07006KT 1 1/4SM 10/10 A3015 RMK T01000100 IEM_DS3505
ZHHH,2006-11-17 05:00,ZHHH 170500Z AUTO 34004KT 1SM 10/10 A3015 RMK T01000100 IEM_DS3505
ZHHH,2006-11-17 06:00,ZHHH 170600Z AUTO 04002KT 6SM 11/10 A3012 RMK 60059 SLP201 T01070098 57023 IEM_DS3505
ZHHH,2006-11-17 07:00,ZHHH 170700Z AUTO 34004KT 1SM 11/11 A3012 RMK T01100110 IEM_DS3505
ZHHH,2006-11-17 08:00,ZHHH 170800Z AUTO 35004KT 1/2SM 11/11 A3012 RMK T01100110 IEM_DS3505
ZHHH,2006-11-17 09:00,ZHHH 170900Z AUTO 02002KT 6SM 11/10 A3012 RMK SLP197 T01130104 57004 IEM_DS3505
ZHHH,2006-11-17 10:00,ZHHH 171000Z AUTO 36004KT 1SM 11/11 A3012 RMK T01100110 IEM_DS3505
ZHHH,2006-11-17 11:00,ZHHH 171100Z AUTO 34004KT 1SM 11/11 A3015 RMK T01100110 IEM_DS3505
ZHHH,2006-11-17 12:00,ZHHH 171200Z AUTO 32002KT 6SM 12/11 A3015 RMK 60020 SLP210 T01160107 52013 IEM_DS3505
ZHHH,2006-11-17 13:00,ZHHH 171300Z AUTO 31006KT 1/2SM 11/11 A3018 RMK T01100110 IEM_DS3505
ZHHH,2006-11-17 14:00,ZHHH 171400Z AUTO 34006KT 1/2SM 11/11 A3015 RMK T01100110 IEM_DS3505
ZHHH,2006-11-17 15:00,ZHHH 171500Z AUTO 32002KT 5SM 11/10 A3015 RMK SLP214 T01130104 52004 IEM_DS3505
ZHHH,2006-11-17 16:00,ZHHH 171600Z AUTO 33004KT 1/2SM 11/11 A3015 RMK T01100110 IEM_DS3505
ZHHH,2006-11-17 17:00,ZHHH 171700Z AUTO 33004KT 1/2SM 11/11 A3015 RMK T01100110 IEM_DS3505
ZHHH,2006-11-17 18:00,ZHHH 171800Z AUTO 32002KT 4SM 11/10 A3012 RMK 60002 SLP203 T01110103 57011 IEM_DS3505
ZHHH,2006-11-17 19:00,ZHHH 171900Z AUTO 34004KT 1SM 11/11 A3012 RMK T01100110 IEM_DS3505
ZHHH,2006-11-17 20:00,ZHHH 172000Z AUTO 33006KT 1/2SM 11/11 A3012 RMK T01100110 IEM_DS3505
ZHHH,2006-11-17 21:00,ZHHH 172100Z AUTO 32004KT 4SM 11/10 A3009 RMK 70081 SLP197 T01120103 57006 IEM_DS3505
ZHHH,2006-11-17 22:00,ZHHH 172200Z AUTO 35008KT 1SM 11/11 A3012 RMK T01100110 IEM_DS3505
ZHHH,2006-11-17 23:00,ZHHH 172300Z AUTO 35004KT 1/2SM 11/11 A3012 RMK T01100110 IEM_DS3505
ZHHH,2006-11-18 00:00,ZHHH 180000Z AUTO 32004KT 6SM 11/10 A3015 RMK 60000 70081 SLP209 T01130102 52012 IEM_DS3505
ZHHH,2006-11-18 01:00,ZHHH 180100Z AUTO 33004KT 1/2SM 11/11 A3015 RMK T01100110 IEM_DS3505
ZHHH,2006-11-18 02:00,ZHHH 180200Z AUTO 34006KT 1SM 11/11 A3015 RMK T01100110 IEM_DS3505
ZHHH,2006-11-18 03:00,ZHHH 180300Z AUTO 27002KT 6SM 12/10 A3015 RMK SLP215 T01210102 52006 IEM_DS3505
ZHHH,2006-11-18 04:00,ZHHH 180400Z AUTO 33006KT 1SM 12/11 A3012 RMK T01200110 IEM_DS3505
ZHHH,2006-11-18 05:00,ZHHH 180500Z AUTO 33006KT 1SM 12/11 A3012 RMK T01200110 IEM_DS3505
ZHHH,2006-11-18 06:00,ZHHH 180600Z AUTO 32002KT 7SM 12/10 A3009 RMK SLP191 T01230100 57024 IEM_DS3505
ZHHH,2006-11-18 07:00,ZHHH 180700Z AUTO 34008KT 1SM 12/11 A3009 RMK T01200110 IEM_DS3505
ZHHH,2006-11-18 08:00,ZHHH 180800Z AUTO 35006KT 1SM 12/11 A3009 RMK T01200110 IEM_DS3505
ZHHH,2006-11-18 09:00,ZHHH 180900Z AUTO 29002KT 7SM 13/10 A3009 RMK SLP195 T01260100 52004 IEM_DS3505
ZHHH,2006-11-18 10:00,ZHHH 181000Z AUTO 33006KT 1SM 12/11 A3012 RMK T01200110 IEM_DS3505
ZHHH,2006-11-18 11:00,ZHHH 181100Z AUTO 31008KT 1SM 11/11 A3012 RMK T01100110 IEM_DS3505
ZHHH,2006-11-18 12:00,ZHHH 181200Z AUTO 27004KT 6SM 12/10 A3012 RMK SLP203 T01170101 52008 IEM_DS3505
ZHHH,2006-11-18 13:00,ZHHH 181300Z AUTO 33006KT 1SM 11/11 A3012 RMK T01100110 IEM_DS3505
ZHHH,2006-11-18 14:00,ZHHH 181400Z AUTO 32006KT 1SM 11/11 A3012 RMK T01100110 IEM_DS3505
ZHHH,2006-11-18 15:00,ZHHH 181500Z AUTO 29004KT 6SM 12/10 A3015 RMK SLP209 T01160100 52006 IEM_DS3505
ZHHH,2006-11-18 16:00,ZHHH 181600Z AUTO 32006KT 1SM 11/11 A3015 RMK T01100110 IEM_DS3505
ZHHH,2006-11-18 17:00,ZHHH 181700Z AUTO 30006KT 1SM 11/11 A3015 RMK T01100110 IEM_DS3505
ZHHH,2006-11-18 18:00,ZHHH 181800Z AUTO 27006KT 6SM 11/10 A3015 RMK SLP211 T01130099 52002 IEM_DS3505
ZHHH,2006-11-18 19:00,ZHHH 181900Z AUTO 32008KT 1 1/4SM 11/11 A3012 RMK T01100110 IEM_DS3505
ZHHH,2006-11-18 20:00,ZHHH 182000Z AUTO 32008KT 1 1/4SM 11/11 A3012 RMK T01100110 IEM_DS3505
ZHHH,2006-11-18 21:00,ZHHH 182100Z AUTO 29004KT 6SM 11/10 A3012 RMK 70000 SLP206 T01130097 57005 IEM_DS3505
ZHHH,2006-11-18 22:00,ZHHH 182200Z AUTO 33006KT 1 1/4SM 11/11 A3015 RMK T01100110 IEM_DS3505
ZHHH,2006-11-18 23:00,ZHHH 182300Z AUTO 33006KT 2SM 11/11 A3015 RMK T01100110 IEM_DS3505
ZHHH,2006-11-19 00:00,ZHHH 190000Z AUTO 29002KT 7SM 12/10 A3018 RMK SLP221 T01180099 52015 IEM_DS3505
ZHHH,2006-11-19 01:00,ZHHH 190100Z AUTO 34006KT 4SM 12/11 A3018 RMK T01200110 IEM_DS3505
ZHHH,2006-11-19 02:00,ZHHH 190200Z AUTO 31006KT 4SM 13/12 A3021 RMK T01300120 IEM_DS3505
ZHHH,2006-11-19 03:00,ZHHH 190300Z AUTO 27004KT 9SM 14/10 A3021 RMK SLP233 T01360104 52012 IEM_DS3505
ZHHH,2006-11-19 04:00,ZHHH 190400Z AUTO 7SM 14/11 A3021 RMK T01400110 IEM_DS3505
ZHHH,2006-11-19 05:00,ZHHH 190500Z AUTO 06008KT 7SM 15/11 A3018 RMK T01500110 IEM_DS3505
ZHHH,2006-11-19 06:00,ZHHH 190600Z AUTO 27002KT 11SM 15/10 A3018 RMK SLP215 T01470103 57017 IEM_DS3505
ZHHH,2006-11-19 07:00,ZHHH 190700Z AUTO 05006KT 7SM 14/11 A3015 RMK T01400110 IEM_DS3505
ZHHH,2006-11-19 08:00,ZHHH 190800Z AUTO 02004KT 7SM 14/11 A3018 RMK T01400110 IEM_DS3505
ZHHH,2006-11-19 09:00,ZHHH 190900Z AUTO 32004KT 11SM 14/11 A3018 RMK SLP216 T01420106 54000 IEM_DS3505
ZHHH,2006-11-19 10:00,ZHHH 191000Z AUTO 01004KT 7SM 13/11 A3018 RMK T01300110 IEM_DS3505
ZHHH,2006-11-19 11:00,ZHHH 191100Z AUTO 03006KT 6SM 13/11 A3018 RMK T01300110 IEM_DS3505
ZHHH,2006-11-19 12:00,ZHHH 191200Z AUTO 32002KT 9SM 13/10 A3021 RMK SLP231 T01340104 52015 IEM_DS3505
ZHHH,2006-11-19 13:00,ZHHH 191300Z AUTO 36002KT 6SM 12/11 A3021 RMK T01200110 IEM_DS3505
ZHHH,2006-11-19 14:00,ZHHH 191400Z AUTO 00000KT 6SM 12/11 A3021 RMK T01200110 IEM_DS3505
ZHHH,2006-11-19 15:00,ZHHH 191500Z AUTO 04002KT 9SM 13/10 A3018 RMK SLP221 T01290101 57009 IEM_DS3505
ZHHH,2006-11-19 16:00,ZHHH 191600Z AUTO 36002KT 6SM 12/11 A3018 RMK T01200110 IEM_DS3505
ZHHH,2006-11-19 17:00,ZHHH 191700Z AUTO 00000KT 7SM 12/11 A3018 RMK T01200110 IEM_DS3505
ZHHH,2006-11-19 18:00,ZHHH 191800Z AUTO 00000KT 9SM 12/11 A3018 RMK SLP217 T01230107 57004 IEM_DS3505
ZHHH,2006-11-19 19:00,ZHHH 191900Z AUTO 04004KT 7SM 12/11 A3015 RMK T01200110 IEM_DS3505
ZHHH,2006-11-19 20:00,ZHHH 192000Z AUTO 04002KT 7SM 11/11 A3015 RMK T01100110 IEM_DS3505
ZHHH,2006-11-19 21:00,ZHHH 192100Z AUTO 02002KT 11SM 12/10 A3012 RMK SLP204 T01210098 57013 IEM_DS3505
ZHHH,2006-11-19 22:00,ZHHH 192200Z AUTO 07006KT 7SM 11/11 A3012 RMK T01100110 IEM_DS3505
ZHHH,2006-11-19 23:00,ZHHH 192300Z AUTO 09006KT 4SM 11/11 A3015 RMK T01100110 IEM_DS3505
ZHHH,2006-11-20 00:00,ZHHH 200000Z AUTO 09004KT 9SM 12/11 A3015 RMK SLP211 T01240108 52007 IEM_DS3505
ZHHH,2006-11-20 01:00,ZHHH 200100Z AUTO 10004KT 2 1/2SM 12/12 A3015 RMK T01200120 IEM_DS3505
ZHHH,2006-11-20 02:00,ZHHH 200200Z AUTO 12006KT 2 1/2SM 13/12 A3015 RMK T01300120 IEM_DS3505
ZHHH,2006-11-20 03:00,ZHHH 200300Z AUTO 14004KT 9SM 16/10 A3015 RMK SLP208 T01560102 57003 IEM_DS3505
ZHHH,2006-11-20 04:00,ZHHH 200400Z AUTO 13006KT 2SM 15/12 A3012 RMK T01500120 IEM_DS3505
ZHHH,2006-11-20 05:00,ZHHH 200500Z AUTO 13004KT 2 1/2SM 15/12 A3009 RMK T01500120 IEM_DS3505
ZHHH,2006-11-20 06:00,ZHHH 200600Z AUTO 09002KT 9SM 15/10 A3009 RMK SLP185 T01530101 57023 IEM_DS3505
ZHHH,2006-11-20 07:00,ZHHH 200700Z AUTO 13004KT 3SM 15/12 A3006 RMK T01500120 IEM_DS3505
ZHHH,2006-11-20 08:00,ZHHH 200800Z AUTO 12006KT 3SM 15/12 A3006 RMK T01500120 IEM_DS3505
ZHHH,2006-11-20 09:00,ZHHH 200900Z AUTO 11002KT 9SM 15/10 A3006 RMK SLP183 T01470105 57002 IEM_DS3505
ZHHH,2006-11-20 10:00,ZHHH 201000Z AUTO 2 1/2SM 14/12 A3009 RMK T01400120 IEM_DS3505
ZHHH,2006-11-20 11:00,ZHHH 201100Z AUTO 2SM 14/12 A3009 RMK T01400120 IEM_DS3505
ZHHH,2006-11-20 12:00,ZHHH 201200Z AUTO 27002KT 7SM 14/11 A3012 RMK SLP197 T01370110 52014 IEM_DS3505
ZHHH,2006-11-20 13:00,ZHHH 201300Z AUTO 35002KT 2SM 13/12 A3012 RMK T01300120 IEM_DS3505
ZHHH,2006-11-20 14:00,ZHHH 201400Z AUTO 00000KT 2SM 13/12 A3012 RMK T01300120 IEM_DS3505
ZHHH,2006-11-20 15:00,ZHHH 201500Z AUTO 27002KT 7SM 14/11 A3012 RMK SLP197 T01360111 54000 IEM_DS3505
ZHHH,2006-11-20 16:00,ZHHH 201600Z AUTO 1 1/2SM 13/12 A3009 RMK T01300120 IEM_DS3505
ZHHH,2006-11-20 17:00,ZHHH 201700Z AUTO 11002KT 1 1/2SM 13/12 A3006 RMK T01300120 IEM_DS3505
ZHHH,2006-11-20 18:00,ZHHH 201800Z AUTO 00000KT 7SM 12/10 A3006 RMK SLP180 T01160105 57017 IEM_DS3505
ZHHH,2006-11-20 19:00,ZHHH 201900Z AUTO 30002KT 1/8SM 11/11 A3006 RMK T01100110 IEM_DS3505
ZHHH,2006-11-20 20:00,ZHHH 202000Z AUTO 30002KT 1/8SM 10/10 A3006 RMK T01000100 IEM_DS3505
ZHHH,2006-11-20 21:00,ZHHH 202100Z AUTO 32002KT 3/8SM 11/10 A3006 RMK SLP177 T01080102 57003 IEM_DS3505
ZHHH,2006-11-20 22:00,ZHHH 202200Z AUTO 04004KT 1/4SM 09/09 A3006 RMK T00900090 IEM_DS3505
ZHHH,2006-11-20 23:00,ZHHH 202300Z AUTO 20004KT 1/8SM 09/09 A3009 RMK T00900090 IEM_DS3505
ZHHH,2006-11-21 00:00,ZHHH 210000Z AUTO 36002KT 1/4SM 11/11 A3009 RMK SLP191 T01120107 52014 IEM_DS3505
ZHHH,2006-11-21 01:00,ZHHH 210100Z AUTO 1/4SM 10/10 A3012 RMK T01000100 IEM_DS3505
ZHHH,2006-11-21 02:00,ZHHH 210200Z AUTO 00000KT 1SM 11/11 A3012 RMK T01100110 IEM_DS3505
ZHHH,2006-11-21 03:00,ZHHH 210300Z AUTO 34004KT 7SM 13/12 A3009 RMK SLP188 T01320124 57003 IEM_DS3505
ZHHH,2006-11-21 04:00,ZHHH 210400Z AUTO 36004KT 2SM 16/13 A3006 RMK T01600130 IEM_DS3505
ZHHH,2006-11-21 05:00,ZHHH 210500Z AUTO 03004KT 4SM 17/12 A3003 RMK T01700120 IEM_DS3505
ZHHH,2006-11-21 06:00,ZHHH 210600Z AUTO 02004KT 9SM 17/11 A3000 RMK SLP158 T01720106 57030 IEM_DS3505
ZHHH,2006-11-21 07:00,ZHHH 210700Z AUTO 27004KT 7SM 17/12 A3000 RMK T01700120 IEM_DS3505
ZHHH,2006-11-21 08:00,ZHHH 210800Z AUTO 00000KT 7SM 16/12 A3000 RMK T01600120 IEM_DS3505
ZHHH,2006-11-21 09:00,ZHHH 210900Z AUTO 04002KT 9SM 16/10 A3000 RMK SLP157 T01600103 57001 IEM_DS3505
ZHHH,2006-11-21 10:00,ZHHH 211000Z AUTO 01002KT 4SM 14/12 A3000 RMK T01400120 IEM_DS3505
ZHHH,2006-11-21 11:00,ZHHH 211100Z AUTO 36004KT 4SM 14/12 A3003 RMK T01400120 IEM_DS3505
ZHHH,2006-11-21 12:00,ZHHH 211200Z AUTO 36004KT 9SM 14/11 A3003 RMK SLP169 T01420106 52012 IEM_DS3505
ZHHH,2006-11-21 13:00,ZHHH 211300Z AUTO 02004KT 4SM 14/12 A3003 RMK T01400120 IEM_DS3505
ZHHH,2006-11-21 14:00,ZHHH 211400Z AUTO 04004KT 4SM 14/11 A3003 RMK T01400110 IEM_DS3505
ZHHH,2006-11-21 15:00,ZHHH 211500Z AUTO 02004KT 9SM 14/11 A3003 RMK SLP170 T01390107 52001 IEM_DS3505
ZHHH,2006-11-21 16:00,ZHHH 211600Z AUTO 02004KT 4SM 14/11 A3003 RMK T01400110 IEM_DS3505
ZHHH,2006-11-21 17:00,ZHHH 211700Z AUTO 04006KT 4SM 13/11 A3000 RMK T01300110 IEM_DS3505
ZHHH,2006-11-21 18:00,ZHHH 211800Z AUTO 02002KT 9SM 14/10 A3000 RMK SLP161 T01380102 57009 IEM_DS3505
ZHHH,2006-11-21 19:00,ZHHH 211900Z AUTO 05006KT 4SM 13/11 A3000 RMK T01300110 IEM_DS3505
ZHHH,2006-11-21 20:00,ZHHH 212000Z AUTO 03006KT 4SM 13/11 A2997 RMK T01300110 IEM_DS3505
ZHHH,2006-11-21 21:00,ZHHH 212100Z AUTO 02002KT 9SM 14/10 A2997 RMK SLP153 T01360100 57008 IEM_DS3505
ZHHH,2006-11-21 22:00,ZHHH 212200Z AUTO 04008KT 4SM 13/11 A3000 RMK T01300110 IEM_DS3505
ZHHH,2006-11-21 23:00,ZHHH 212300Z AUTO 04006KT 2 1/2SM 13/11 A3000 RMK T01300110 IEM_DS3505
ZHHH,2006-11-22 00:00,ZHHH 220000Z AUTO 02002KT 9SM 14/10 A3003 RMK SLP169 T01370097 52016 IEM_DS3505
ZHHH,2006-11-22 01:00,ZHHH 220100Z AUTO 04008KT 2SM 14/11 A3003 RMK T01400110 IEM_DS3505
ZHHH,2006-11-22 02:00,ZHHH 220200Z AUTO 04010KT 2SM 14/11 A3003 RMK T01400110 IEM_DS3505
ZHHH,2006-11-22 03:00,ZHHH 220300Z AUTO 36004KT 9SM 14/10 A3006 RMK SLP176 T01450101 52007 IEM_DS3505
ZHHH,2006-11-22 04:00,ZHHH 220400Z AUTO 01006KT 1 1/4SM 14/11 A3003 RMK T01400110 IEM_DS3505
ZHHH,2006-11-22 05:00,ZHHH 220500Z AUTO 02006KT 1 1/4SM 13/12 A3003 RMK T01300120 IEM_DS3505
ZHHH,2006-11-22 06:00,ZHHH 220600Z AUTO 27002KT 7SM 14/11 A3000 RMK 60004 SLP160 T01380113 57016 IEM_DS3505
ZHHH,2006-11-22 07:00,ZHHH 220700Z AUTO 01006KT 1SM 13/12 A3000 RMK T01300120 IEM_DS3505
ZHHH,2006-11-22 08:00,ZHHH 220800Z AUTO 01006KT 1 1/4SM 13/12 A3000 RMK T01300120 IEM_DS3505
ZHHH,2006-11-22 09:00,ZHHH 220900Z AUTO 27002KT 7SM 13/12 A3000 RMK SLP166 T01290116 52006 IEM_DS3505
ZHHH,2006-11-22 10:00,ZHHH 221000Z AUTO 33006KT 1 1/4SM 12/12 A3003 RMK T01200120 IEM_DS3505
ZHHH,2006-11-22 11:00,ZHHH 221100Z AUTO 33008KT 1 1/4SM 11/11 A3006 RMK T01100110 IEM_DS3505
ZHHH,2006-11-22 12:00,ZHHH 221200Z AUTO 27004KT 6SM 12/11 A3006 RMK 60016 SLP182 T01190108 52016 IEM_DS3505
ZHHH,2006-11-22 13:00,ZHHH 221300Z AUTO 34010KT 2 1/2SM 11/10 A3006 RMK T01100100 IEM_DS3505
ZHHH,2006-11-22 14:00,ZHHH 221400Z AUTO 33008KT 2SM 10/10 A3009 RMK T01000100 IEM_DS3505
ZHHH,2006-11-22 15:00,ZHHH 221500Z AUTO 27004KT 6SM 11/10 A3009 RMK SLP190 T01100099 52008 IEM_DS3505
ZHHH,2006-11-22 16:00,ZHHH 221600Z AUTO 32008KT 2 1/2SM 10/10 A3009 RMK T01000100 IEM_DS3505
ZHHH,2006-11-22 17:00,ZHHH 221700Z AUTO 31008KT 2SM 10/10 A3009 RMK T01000100 IEM_DS3505
ZHHH,2006-11-22 18:00,ZHHH 221800Z AUTO 27004KT 6SM 11/10 A3009 RMK 60003 SLP191 T01060098 52001 IEM_DS3505
ZHHH,2006-11-22 19:00,ZHHH 221900Z AUTO 33008KT 2SM 10/10 A3009 RMK T01000100 IEM_DS3505
ZHHH,2006-11-22 20:00,ZHHH 222000Z AUTO 33008KT 2SM 10/10 A3009 RMK T01000100 IEM_DS3505
ZHHH,2006-11-22 21:00,ZHHH 222100Z AUTO 29004KT 6SM 10/10 A3009 RMK 70024 SLP191 T01040096 57001 IEM_DS3505
ZHHH,2006-11-22 22:00,ZHHH 222200Z AUTO 01004KT 2 1/2SM 11/11 A3009 RMK T01100110 IEM_DS3505
ZHHH,2006-11-22 23:00,ZHHH 222300Z AUTO 02006KT 7SM 11/11 A3012 RMK T01100110 IEM_DS3505
ZHHH,2006-11-23 00:00,ZHHH 230000Z AUTO 34004KT 9SM 11/10 A3015 RMK 60000 70024 SLP216 T01130096 52025 IEM_DS3505
ZHHH,2006-11-23 01:00,ZHHH 230100Z AUTO 01008KT 4SM 10/09 A3018 RMK T01000090 IEM_DS3505
ZHHH,2006-11-23 02:00,ZHHH 230200Z AUTO 02008KT 7SM 10/09 A3021 RMK T01000090 IEM_DS3505
ZHHH,2006-11-23 03:00,ZHHH 230300Z AUTO 02006KT 9SM 10/08 A3021 RMK SLP235 T01010082 52019 IEM_DS3505
ZHHH,2006-11-23 04:00,ZHHH 230400Z AUTO 02008KT 7SM 09/08 A3021 RMK T00900080 IEM_DS3505
ZHHH,2006-11-23 05:00,ZHHH 230500Z AUTO 03008KT 7SM 09/07 A3021 RMK T00900070 IEM_DS3505
ZHHH,2006-11-23 06:00,ZHHH 230600Z AUTO 02006KT 9SM 09/07 A3021 RMK 60002 SLP228 T00920072 57007 IEM_DS3505
ZHHH,2006-11-23 07:00,ZHHH 230700Z AUTO 02008KT 7SM 08/07 A3021 RMK T00800070 IEM_DS3505
ZHHH,2006-11-23 08:00,ZHHH 230800Z AUTO 01008KT 4SM 08/07 A3024 RMK T00800070 IEM_DS3505
ZHHH,2006-11-23 09:00,ZHHH 230900Z AUTO 04004KT 9SM 08/06 A3024 RMK SLP242 T00850061 52014 IEM_DS3505
ZHHH,2006-11-23 10:00,ZHHH 231000Z AUTO 03010KT 7SM 07/06 A3024 RMK T00700060 IEM_DS3505
ZHHH,2006-11-23 11:00,ZHHH 231100Z AUTO 03012KT 7SM 07/06 A3027 RMK T00700060 IEM_DS3505
ZHHH,2006-11-23 12:00,ZHHH 231200Z AUTO 04006KT 9SM 08/06 A3027 RMK SLP257 T00800056 52015 IEM_DS3505
ZHHH,2006-11-23 13:00,ZHHH 231300Z AUTO 03008KT 7SM 07/06 A3030 RMK T00700060 IEM_DS3505
ZHHH,2006-11-23 14:00,ZHHH 231400Z AUTO 03008KT 4SM 07/06 A3030 RMK T00700060 IEM_DS3505
ZHHH,2006-11-23 15:00,ZHHH 231500Z AUTO 02006KT 9SM 07/06 A3030 RMK SLP265 T00740065 52008 IEM_DS3505
ZHHH,2006-11-23 16:00,ZHHH 231600Z AUTO 04010KT 7SM 07/06 A3030 RMK T00700060 IEM_DS3505
ZHHH,2006-11-23 17:00,ZHHH 231700Z AUTO 04008KT 7SM 07/06 A3030 RMK T00700060 IEM_DS3505
ZHHH,2006-11-23 18:00,ZHHH 231800Z AUTO 02004KT 7SM 08/06 A3030 RMK 60000 SLP260 T00750060 57005 IEM_DS3505
ZHHH,2006-11-23 19:00,ZHHH 231900Z AUTO 04008KT 7SM 07/06 A3030 RMK T00700060 IEM_DS3505
ZHHH,2006-11-23 20:00,ZHHH 232000Z AUTO 03008KT 7SM 07/06 A3027 RMK T00700060 IEM_DS3505
ZHHH,2006-11-23 21:00,ZHHH 232100Z AUTO 02004KT 7SM 08/05 A3027 RMK 70002 SLP254 T00750051 57006 IEM_DS3505
ZHHH,2006-11-23 22:00,ZHHH 232200Z AUTO 04006KT 7SM 07/06 A3027 RMK T00700060 IEM_DS3505
ZHHH,2006-11-23 23:00,ZHHH 232300Z AUTO 04010KT 7SM 07/06 A3027 RMK T00700060 IEM_DS3505
ZHHH,2006-11-24 00:00,ZHHH 240000Z AUTO 02008KT 7SM 08/05 A3030 RMK 70002 SLP259 T00770052 52005 IEM_DS3505
ZHHH,2006-11-24 01:00,ZHHH 240100Z AUTO 04010KT 6SM 07/06 A3030 RMK T00700060 IEM_DS3505
ZHHH,2006-11-24 02:00,ZHHH 240200Z AUTO 04010KT 6SM 08/06 A3030 RMK T00800060 IEM_DS3505
ZHHH,2006-11-24 03:00,ZHHH 240300Z AUTO 04006KT 7SM 09/05 A3030 RMK SLP255 T00870054 57004 IEM_DS3505
ZHHH,2006-11-24 04:00,ZHHH 240400Z AUTO 04008KT 7SM 08/06 A3027 RMK T00800060 IEM_DS3505
ZHHH,2006-11-24 05:00,ZHHH 240500Z AUTO 03008KT 3SM 08/07 A3024 RMK T00800070 IEM_DS3505
ZHHH,2006-11-24 06:00,ZHHH 240600Z AUTO 04006KT 6SM 08/06 A3021 RMK 60008 SLP227 T00820065 57028 IEM_DS3505
ZHHH,2006-11-24 07:00,ZHHH 240700Z AUTO 04008KT 1 1/2SM 08/07 A3018 RMK T00800070 IEM_DS3505
ZHHH,2006-11-24 08:00,ZHHH 240800Z AUTO 05010KT 1 1/2SM 08/07 A3018 RMK T00800070 IEM_DS3505
ZHHH,2006-11-24 09:00,ZHHH 240900Z AUTO 02004KT 6SM 08/07 A3018 RMK SLP220 T00830068 57007 IEM_DS3505
ZHHH,2006-11-24 10:00,ZHHH 241000Z AUTO 04010KT 3SM 07/07 A3018 RMK T00700070 IEM_DS3505
ZHHH,2006-11-24 11:00,ZHHH 241100Z AUTO 03008KT 4SM 07/07 A3018 RMK T00700070 IEM_DS3505
ZHHH,2006-11-24 12:00,ZHHH 241200Z AUTO 04004KT 6SM 08/07 A3018 RMK 60000 SLP227 T00810066 52007 IEM_DS3505
ZHHH,2006-11-24 13:00,ZHHH 241300Z AUTO 03008KT 3SM 08/07 A3021 RMK T00800070 IEM_DS3505
ZHHH,2006-11-24 14:00,ZHHH 241400Z AUTO 04006KT 4SM 07/07 A3018 RMK T00700070 IEM_DS3505
ZHHH,2006-11-24 15:00,ZHHH 241500Z AUTO 04006KT 7SM 08/07 A3018 RMK SLP222 T00780067 57005 IEM_DS3505
ZHHH,2006-11-24 16:00,ZHHH 241600Z AUTO 04008KT 4SM 07/07 A3018 RMK T00700070 IEM_DS3505
ZHHH,2006-11-24 17:00,ZHHH 241700Z AUTO 04006KT 4SM 07/07 A3015 RMK T00700070 IEM_DS3505
ZHHH,2006-11-24 18:00,ZHHH 241800Z AUTO 04004KT 9SM 08/06 A3015 RMK 60000 SLP209 T00760065 57013 IEM_DS3505
ZHHH,2006-11-24 19:00,ZHHH 241900Z AUTO 03004KT 4SM 07/07 A3012 RMK T00700070 IEM_DS3505
ZHHH,2006-11-24 20:00,ZHHH 242000Z AUTO 34006KT 2SM 07/07 A3009 RMK T00700070 IEM_DS3505
ZHHH,2006-11-24 21:00,ZHHH 242100Z AUTO 34004KT 6SM 08/07 A3009 RMK 70009 SLP187 T00750068 57022 IEM_DS3505
ZHHH,2006-11-24 22:00,ZHHH 242200Z AUTO 36004KT 1 1/4SM 07/07 A3009 RMK T00700070 IEM_DS3505
ZHHH,2006-11-24 23:00,ZHHH 242300Z AUTO 31004KT 1 1/2SM 07/07 A3012 RMK T00700070 IEM_DS3505
ZHHH,2006-11-25 00:00,ZHHH 250000Z AUTO 36002KT 6SM 08/07 A3012 RMK 60000 70010 SLP197 T00760070 52010 IEM_DS3505
ZHHH,2006-11-25 01:00,ZHHH 250100Z AUTO 1SM 07/07 A3012 RMK T00700070 IEM_DS3505
ZHHH,2006-11-25 02:00,ZHHH 250200Z AUTO 35004KT 1SM 07/07 A3012 RMK T00700070 IEM_DS3505
ZHHH,2006-11-25 03:00,ZHHH 250300Z AUTO 32002KT 6SM 08/07 A3012 RMK SLP200 T00750068 52003 IEM_DS3505
ZHHH,2006-11-25 04:00,ZHHH 250400Z AUTO 34006KT 1SM 07/07 A3009 RMK T00700070 IEM_DS3505
ZHHH,2006-11-25 05:00,ZHHH 250500Z AUTO 32006KT 1SM 07/07 A3009 RMK T00700070 IEM_DS3505
ZHHH,2006-11-25 06:00,ZHHH 250600Z AUTO 29002KT 6SM 07/06 A3006 RMK 60024 SLP177 T00730062 57023 IEM_DS3505
ZHHH,2006-11-25 07:00,ZHHH 250700Z AUTO 36008KT 1 1/2SM 07/07 A3003 RMK T00700070 IEM_DS3505
ZHHH,2006-11-25 08:00,ZHHH 250800Z AUTO 35006KT 1 1/2SM 07/07 A3003 RMK T00700070 IEM_DS3505
ZHHH,2006-11-25 09:00,ZHHH 250900Z AUTO 29004KT 6SM 07/06 A3006 RMK SLP180 T00740060 52003 IEM_DS3505
ZHHH,2006-11-25 10:00,ZHHH 251000Z AUTO 01004KT 1 1/2SM 07/07 A3006 RMK T00700070 IEM_DS3505
ZHHH,2006-11-25 11:00,ZHHH 251100Z AUTO 01004KT 1 1/2SM 06/06 A3009 RMK T00600060 IEM_DS3505
ZHHH,2006-11-25 12:00,ZHHH 251200Z AUTO 32004KT 6SM 07/06 A3009 RMK 60003 SLP194 T00700056 52014 IEM_DS3505
ZHHH,2006-11-25 13:00,ZHHH 251300Z AUTO 02004KT 3SM 06/06 A3009 RMK T00600060 IEM_DS3505
ZHHH,2006-11-25 14:00,ZHHH 251400Z AUTO 3SM 06/06 A3012 RMK T00600060 IEM_DS3505
ZHHH,2006-11-25 15:00,ZHHH 251500Z AUTO 32002KT 6SM 07/06 A3012 RMK SLP201 T00680059 52007 IEM_DS3505
ZHHH,2006-11-25 16:00,ZHHH 251600Z AUTO 33006KT 2SM 06/06 A3012 RMK T00600060 IEM_DS3505
ZHHH,2006-11-25 17:00,ZHHH 251700Z AUTO 34006KT 4SM 06/06 A3009 RMK T00600060 IEM_DS3505
ZHHH,2006-11-25 18:00,ZHHH 251800Z AUTO 32004KT 7SM 07/05 A3009 RMK 60002 SLP190 T00680054 57011 IEM_DS3505
ZHHH,2006-11-25 19:00,ZHHH 251900Z AUTO 01006KT 4SM 06/06 A3006 RMK T00600060 IEM_DS3505
ZHHH,2006-11-25 20:00,ZHHH 252000Z AUTO 02004KT 4SM 06/06 A3003 RMK T00600060 IEM_DS3505
ZHHH,2006-11-25 21:00,ZHHH 252100Z AUTO 36002KT 7SM 07/05 A3006 RMK 70029 SLP176 T00690054 57014 IEM_DS3505
ZHHH,2006-11-25 22:00,ZHHH 252200Z AUTO 2SM 06/06 A3003 RMK T00600060 IEM_DS3505
ZHHH,2006-11-25 23:00,ZHHH 252300Z AUTO 00000KT 4SM 06/06 A3006 RMK T00600060 IEM_DS3505
ZHHH,2006-11-26 00:00,ZHHH 260000Z AUTO 01002KT 6SM 07/06 A3006 RMK 60000 70028 SLP177 T00690062 52001 IEM_DS3505
ZHHH,2006-11-26 01:00,ZHHH 260100Z AUTO 00000KT 1SM 07/07 A3009 RMK T00700070 IEM_DS3505
ZHHH,2006-11-26 02:00,ZHHH 260200Z AUTO 29004KT 1SM 07/07 A3009 RMK T00700070 IEM_DS3505
ZHHH,2006-11-26 03:00,ZHHH 260300Z AUTO 27002KT 5SM 08/06 A3006 RMK SLP188 T00750064 52011 IEM_DS3505
ZHHH,2006-11-26 04:00,ZHHH 260400Z AUTO 00000KT 1 1/4SM 07/07 A3006 RMK T00700070 IEM_DS3505
ZHHH,2006-11-26 05:00,ZHHH 260500Z AUTO 34006KT 3SM 07/07 A3003 RMK T00700070 IEM_DS3505
ZHHH,2006-11-26 06:00,ZHHH 260600Z AUTO 29002KT 6SM 08/06 A3000 RMK 60004 SLP163 T00820065 57025 IEM_DS3505
ZHHH,2006-11-26 07:00,ZHHH 260700Z AUTO 34006KT 4SM 08/08 A3000 RMK T00800080 IEM_DS3505
ZHHH,2006-11-26 08:00,ZHHH 260800Z AUTO 34006KT 5SM 08/07 A3000 RMK T00800070 IEM_DS3505
ZHHH,2006-11-26 09:00,ZHHH 260900Z AUTO 36002KT 7SM 08/07 A3003 RMK SLP169 T00830066 52006 IEM_DS3505
ZHHH,2006-11-26 10:00,ZHHH 261000Z AUTO 36004KT 2SM 07/07 A3003 RMK T00700070 IEM_DS3505
ZHHH,2006-11-26 11:00,ZHHH 261100Z AUTO 00000KT 4SM 07/07 A3006 RMK T00700070 IEM_DS3505
ZHHH,2006-11-26 12:00,ZHHH 261200Z AUTO 02002KT 6SM 08/07 A3009 RMK 60000 SLP192 T00790070 52023 IEM_DS3505
ZHHH,2006-11-26 13:00,ZHHH 261300Z AUTO 32004KT 3SM 07/07 A3012 RMK T00700070 IEM_DS3505
ZHHH,2006-11-26 14:00,ZHHH 261400Z AUTO 36006KT 3SM 07/07 A3009 RMK T00700070 IEM_DS3505
ZHHH,2006-11-26 15:00,ZHHH 261500Z AUTO 32004KT 6SM 08/07 A3012 RMK SLP201 T00810072 52009 IEM_DS3505
ZHHH,2006-11-26 16:00,ZHHH 261600Z AUTO 34006KT 5SM 08/08 A3012 RMK T00800080 IEM_DS3505
ZHHH,2006-11-26 17:00,ZHHH 261700Z AUTO 35006KT 5SM 08/08 A3012 RMK T00800080 IEM_DS3505
ZHHH,2006-11-26 18:00,ZHHH 261800Z AUTO 34004KT 9SM 08/07 A3012 RMK 60001 SLP206 T00830068 52005 IEM_DS3505
ZHHH,2006-11-26 19:00,ZHHH 261900Z AUTO 5SM 08/08 A3012 RMK T00800080 IEM_DS3505
ZHHH,2006-11-26 20:00,ZHHH 262000Z AUTO 33004KT 5SM 08/08 A3012 RMK T00800080 IEM_DS3505
ZHHH,2006-11-26 21:00,ZHHH 262100Z AUTO 29002KT 9SM 08/07 A3015 RMK 70006 SLP207 T00830068 52001 IEM_DS3505
ZHHH,2006-11-26 22:00,ZHHH 262200Z AUTO 36004KT 5SM 08/07 A3015 RMK T00800070 IEM_DS3505
ZHHH,2006-11-26 23:00,ZHHH 262300Z AUTO 01004KT 7SM 08/07 A3015 RMK T00800070 IEM_DS3505
ZHHH,2006-11-27 00:00,ZHHH 270000Z AUTO 34002KT 9SM 08/06 A3018 RMK 70006 SLP223 T00820063 52016 IEM_DS3505
ZHHH,2006-11-27 01:00,ZHHH 270100Z AUTO 36004KT 7SM 08/07 A3021 RMK T00800070 IEM_DS3505
ZHHH,2006-11-27 02:00,ZHHH 270200Z AUTO 02008KT 4SM 08/07 A3021 RMK T00800070 IEM_DS3505
ZHHH,2006-11-27 03:00,ZHHH 270300Z AUTO 36002KT 11SM 09/06 A3024 RMK SLP238 T00890060 52015 IEM_DS3505
ZHHH,2006-11-27 04:00,ZHHH 270400Z AUTO 01006KT 4SM 08/07 A3021 RMK T00800070 IEM_DS3505
ZHHH,2006-11-27 05:00,ZHHH 270500Z AUTO 02010KT 4SM 08/07 A3018 RMK T00800070 IEM_DS3505
ZHHH,2006-11-27 06:00,ZHHH 270600Z AUTO 02004KT 9SM 09/06 A3018 RMK SLP218 T00890062 57020 IEM_DS3505
ZHHH,2006-11-27 07:00,ZHHH 270700Z AUTO 04010KT 5SM 09/07 A3015 RMK T00900070 IEM_DS3505
ZHHH,2006-11-27 08:00,ZHHH 270800Z AUTO 04008KT 5SM 08/07 A3018 RMK T00800070 IEM_DS3505
ZHHH,2006-11-27 09:00,ZHHH 270900Z AUTO 02004KT 9SM 09/06 A3021 RMK SLP227 T00880057 52009 IEM_DS3505
ZHHH,2006-11-27 10:00,ZHHH 271000Z AUTO 01004KT 4SM 08/07 A3021 RMK T00800070 IEM_DS3505
ZHHH,2006-11-27 11:00,ZHHH 271100Z AUTO 35004KT 3SM 08/07 A3024 RMK T00800070 IEM_DS3505
ZHHH,2006-11-27 12:00,ZHHH 271200Z AUTO 34004KT 7SM 08/06 A3027 RMK SLP248 T00830058 52021 IEM_DS3505
ZHHH,2006-11-27 13:00,ZHHH 271300Z AUTO 03006KT 3SM 07/07 A3027 RMK T00700070 IEM_DS3505
ZHHH,2006-11-27 14:00,ZHHH 271400Z AUTO 02006KT 3SM 07/06 A3030 RMK T00700060 IEM_DS3505
ZHHH,2006-11-27 15:00,ZHHH 271500Z AUTO 02004KT 7SM 08/05 A3027 RMK SLP253 T00770053 52005 IEM_DS3505
ZHHH,2006-11-27 16:00,ZHHH 271600Z AUTO 01006KT 3SM 07/06 A3027 RMK T00700060 IEM_DS3505
ZHHH,2006-11-27 17:00,ZHHH 271700Z AUTO 02006KT 3SM 06/05 A3027 RMK T00600050 IEM_DS3505
ZHHH,2006-11-27 18:00,ZHHH 271800Z AUTO 34002KT 7SM 07/05 A3027 RMK SLP255 T00670050 52002 IEM_DS3505
ZHHH,2006-11-27 19:00,ZHHH 271900Z AUTO 04004KT 6SM 06/05 A3027 RMK T00600050 IEM_DS3505
ZHHH,2006-11-27 20:00,ZHHH 272000Z AUTO 03004KT 6SM 05/04 A3027 RMK T00500040 IEM_DS3505
ZHHH,2006-11-27 21:00,ZHHH 272100Z AUTO 04002KT 7SM 07/04 A3024 RMK SLP247 T00660039 57008 IEM_DS3505
ZHHH,2006-11-27 22:00,ZHHH 272200Z AUTO 06004KT 6SM 04/04 A3027 RMK T00400040 IEM_DS3505
ZHHH,2006-11-27 23:00,ZHHH 272300Z AUTO 1 1/2SM 04/03 A3024 RMK T00400030 IEM_DS3505
ZHHH,2006-11-28 00:00,ZHHH 280000Z AUTO 34002KT 9SM 06/04 A3027 RMK SLP254 T00560036 52007 IEM_DS3505
ZHHH,2006-11-28 01:00,ZHHH 280100Z AUTO 34004KT 2 1/2SM 06/05 A3030 RMK T00600050 IEM_DS3505
ZHHH,2006-11-28 02:00,ZHHH 280200Z AUTO 08006KT 4SM 08/05 A3027 RMK T00800050 IEM_DS3505
ZHHH,2006-11-28 03:00,ZHHH 280300Z AUTO 07002KT 11SM 10/04 A3027 RMK SLP252 T01030036 57002 IEM_DS3505
ZHHH,2006-11-28 04:00,ZHHH 280400Z AUTO 30006KT 6SM 11/04 A3027 RMK T01100040 IEM_DS3505
ZHHH,2006-11-28 05:00,ZHHH 280500Z AUTO 27006KT 6SM 12/06 A3024 RMK T01200060 IEM_DS3505
ZHHH,2006-11-28 06:00,ZHHH 280600Z AUTO 32004KT 11SM 12/02 A3021 RMK SLP233 T01230025 57019 IEM_DS3505
ZHHH,2006-11-28 07:00,ZHHH 280700Z AUTO 32004KT 6SM 12/05 A3021 RMK T01200050 IEM_DS3505
ZHHH,2006-11-28 08:00,ZHHH 280800Z AUTO 11006KT 6SM 12/04 A3018 RMK T01200040 IEM_DS3505
ZHHH,2006-11-28 09:00,ZHHH 280900Z AUTO 09004KT 9SM 11/06 A3021 RMK SLP224 T01090057 57009 IEM_DS3505
ZHHH,2006-11-28 10:00,ZHHH 281000Z AUTO 12004KT 6SM 09/07 A3021 RMK T00900070 IEM_DS3505
ZHHH,2006-11-28 11:00,ZHHH 281100Z AUTO 14006KT 6SM 09/07 A3024 RMK T00900070 IEM_DS3505
ZHHH,2006-11-28 12:00,ZHHH 281200Z AUTO 07002KT 9SM 10/06 A3024 RMK SLP244 T00970061 52020 IEM_DS3505
ZHHH,2006-11-28 13:00,ZHHH 281300Z AUTO 11006KT 6SM 08/07 A3024 RMK T00800070 IEM_DS3505
ZHHH,2006-11-28 14:00,ZHHH 281400Z AUTO 07004KT 6SM 08/07 A3027 RMK T00800070 IEM_DS3505
ZHHH,2006-11-28 15:00,ZHHH 281500Z AUTO 34002KT 9SM 10/06 A3030 RMK SLP257 T00950064 52013 IEM_DS3505
ZHHH,2006-11-28 16:00,ZHHH 281600Z AUTO 03004KT 4SM 08/07 A3030 RMK T00800070 IEM_DS3505
ZHHH,2006-11-28 17:00,ZHHH 281700Z AUTO 08006KT 4SM 08/07 A3027 RMK T00800070 IEM_DS3505
ZHHH,2006-11-28 18:00,ZHHH 281800Z AUTO 04004KT 9SM 09/06 A3027 RMK SLP253 T00920058 57004 IEM_DS3505
ZHHH,2006-11-28 19:00,ZHHH 281900Z AUTO 03006KT 4SM 08/06 A3027 RMK T00800060 IEM_DS3505
ZHHH,2006-11-28 20:00,ZHHH 282000Z AUTO 03006KT 4SM 08/05 A3024 RMK T00800050 IEM_DS3505
ZHHH,2006-11-28 21:00,ZHHH 282100Z AUTO 04002KT 7SM 09/05 A3024 RMK 70000 SLP244 T00860046 57009 IEM_DS3505
ZHHH,2006-11-28 22:00,ZHHH 282200Z AUTO 00000KT 4SM 08/06 A3024 RMK T00800060 IEM_DS3505
ZHHH,2006-11-28 23:00,ZHHH 282300Z AUTO 00000KT 2 1/2SM 08/06 A3027 RMK T00800060 IEM_DS3505
ZHHH,2006-11-29 00:00,ZHHH 290000Z AUTO 27002KT 6SM 08/06 A3027 RMK 60000 70001 SLP254 T00840060 52010 IEM_DS3505
ZHHH,2006-11-29 01:00,ZHHH 290100Z AUTO 28004KT 2SM 08/07 A3030 RMK T00800070 IEM_DS3505
ZHHH,2006-11-29 02:00,ZHHH 290200Z AUTO 30004KT 2SM 09/07 A3033 RMK T00900070 IEM_DS3505
ZHHH,2006-11-29 03:00,ZHHH 290300Z AUTO 27002KT 6SM 09/06 A3033 RMK SLP268 T00890063 52014 IEM_DS3505
ZHHH,2006-11-29 04:00,ZHHH 290400Z AUTO 33006KT 3SM 10/07 A3030 RMK T01000070 IEM_DS3505
ZHHH,2006-11-29 05:00,ZHHH 290500Z AUTO 34008KT 3SM 11/07 A3027 RMK T01100070 IEM_DS3505
ZHHH,2006-11-29 06:00,ZHHH 290600Z AUTO 36002KT 6SM 10/03 A3024 RMK 60003 SLP240 T01050033 57028 IEM_DS3505
ZHHH,2006-11-29 07:00,ZHHH 290700Z AUTO 6SM 10/04 A3024 RMK T01000040 IEM_DS3505
ZHHH,2006-11-29 08:00,ZHHH 290800Z AUTO 4SM 10/05 A3024 RMK T01000050 IEM_DS3505
ZHHH,2006-11-29 09:00,ZHHH 290900Z AUTO 36002KT 7SM 10/03 A3024 RMK SLP247 T01020028 52007 IEM_DS3505
ZHHH,2006-11-29 10:00,ZHHH 291000Z AUTO 00000KT 4SM 10/05 A3027 RMK T01000050 IEM_DS3505
ZHHH,2006-11-29 11:00,ZHHH 291100Z AUTO 00000KT 4SM 09/06 A3027 RMK T00900060 IEM_DS3505
ZHHH,2006-11-29 12:00,ZHHH 291200Z AUTO 27002KT 9SM 09/04 A3027 RMK 60000 SLP256 T00920040 52009 IEM_DS3505
ZHHH,2006-11-29 13:00,ZHHH 291300Z AUTO 05006KT 4SM 08/05 A3030 RMK T00800050 IEM_DS3505
ZHHH,2006-11-29 14:00,ZHHH 291400Z AUTO 06006KT 4SM 08/05 A3033 RMK T00800050 IEM_DS3505
ZHHH,2006-11-29 15:00,ZHHH 291500Z AUTO 09002KT 9SM 09/06 A3036 RMK SLP280 T00880057 52024 IEM_DS3505
ZHHH,2006-11-29 16:00,ZHHH 291600Z AUTO 00000KT 3SM 07/05 A3036 RMK T00700050 IEM_DS3505
ZHHH,2006-11-29 17:00,ZHHH 291700Z AUTO 00000KT 3SM 07/05 A3033 RMK T00700050 IEM_DS3505
ZHHH,2006-11-29 18:00,ZHHH 291800Z AUTO 04002KT 9SM 08/04 A3030 RMK SLP265 T00790045 57015 IEM_DS3505
ZHHH,2006-11-29 19:00,ZHHH 291900Z AUTO 07004KT 2SM 06/05 A3030 RMK T00600050 IEM_DS3505
ZHHH,2006-11-29 20:00,ZHHH 292000Z AUTO 05004KT 2SM 06/05 A3027 RMK T00600050 IEM_DS3505
ZHHH,2006-11-29 21:00,ZHHH 292100Z AUTO 09002KT 9SM 07/05 A3027 RMK 70004 SLP255 T00680046 57010 IEM_DS3505
ZHHH,2006-11-29 22:00,ZHHH 292200Z AUTO 05004KT 1 1/4SM 05/04 A3030 RMK T00500040 IEM_DS3505
ZHHH,2006-11-29 23:00,ZHHH 292300Z AUTO 00000KT 1SM 05/05 A3033 RMK T00500050 IEM_DS3505
ZHHH,2006-11-30 00:00,ZHHH 300000Z AUTO 02002KT 7SM 07/05 A3033 RMK 70003 SLP272 T00730054 52017 IEM_DS3505
ZHHH,2006-11-30 01:00,ZHHH 300100Z AUTO 02004KT 1SM 07/06 A3036 RMK T00700060 IEM_DS3505
ZHHH,2006-11-30 02:00,ZHHH 300200Z AUTO 1SM 08/07 A3039 RMK T00800070 IEM_DS3505
ZHHH,2006-11-30 03:00,ZHHH 300300Z AUTO 07002KT 7SM 09/06 A3036 RMK SLP280 T00860062 52008 IEM_DS3505
ZHHH,2006-11-30 04:00,ZHHH 300400Z AUTO 1 1/4SM 09/07 A3033 RMK T00900070 IEM_DS3505
ZHHH,2006-11-30 05:00,ZHHH 300500Z AUTO 3SM 11/06 A3027 RMK T01100060 IEM_DS3505
ZHHH,2006-11-30 06:00,ZHHH 300600Z AUTO 04002KT 9SM 12/04 A3021 RMK SLP237 T01220039 57043 IEM_DS3505
ZHHH,2006-11-30 07:00,ZHHH 300700Z AUTO 11004KT 7SM 12/05 A3021 RMK T01200050 IEM_DS3505
ZHHH,2006-11-30 08:00,ZHHH 300800Z AUTO 15006KT 4SM 11/05 A3024 RMK T01100050 IEM_DS3505
ZHHH,2006-11-30 09:00,ZHHH 300900Z AUTO 15006KT 9SM 11/04 A3027 RMK SLP247 T01130036 52010 IEM_DS3505
ZHHH,2006-11-30 10:00,ZHHH 301000Z AUTO 13004KT 3SM 10/06 A3027 RMK T01000060 IEM_DS3505
ZHHH,2006-11-30 11:00,ZHHH 301100Z AUTO 16004KT 1 1/2SM 10/06 A3030 RMK T01000060 IEM_DS3505
ZHHH,2006-11-30 12:00,ZHHH 301200Z AUTO 00000KT 7SM 10/06 A3030 RMK SLP264 T00980058 52017 IEM_DS3505
ZHHH,2006-11-30 13:00,ZHHH 301300Z AUTO 12004KT 1 1/2SM 09/07 A3033 RMK T00900070 IEM_DS3505
ZHHH,2006-11-30 14:00,ZHHH 301400Z AUTO 28002KT 1 1/2SM 08/07 A3033 RMK T00800070 IEM_DS3505
ZHHH,2006-11-30 15:00,ZHHH 301500Z AUTO 20002KT 7SM 09/06 A3030 RMK SLP264 T00940065 54000 IEM_DS3505
ZHHH,2006-11-30 16:00,ZHHH 301600Z AUTO 00000KT 1SM 08/07 A3033 RMK T00800070 IEM_DS3505
ZHHH,2006-11-30 17:00,ZHHH 301700Z AUTO 01002KT 1SM 08/07 A3030 RMK T00800070 IEM_DS3505
ZHHH,2006-11-30 18:00,ZHHH 301800Z AUTO 27002KT 7SM 09/06 A3030 RMK SLP266 T00890060 52002 IEM_DS3505
ZHHH,2006-11-30 19:00,ZHHH 301900Z AUTO 34002KT 1SM 07/06 A3030 RMK T00700060 IEM_DS3505
ZHHH,2006-11-30 20:00,ZHHH 302000Z AUTO 00000KT 1SM 06/06 A3030 RMK T00600060 IEM_DS3505
ZHHH,2006-11-30 21:00,ZHHH 302100Z AUTO 14002KT 7SM 06/05 A3027 RMK SLP252 T00600048 57014 IEM_DS3505
ZHHH,2006-11-30 22:00,ZHHH 302200Z AUTO 18002KT 1SM 06/06 A3027 RMK T00600060 IEM_DS3505
ZHHH,2006-11-30 23:00,ZHHH 302300Z AUTO 16002KT 1SM 06/06 A3027 RMK T00600060 IEM_DS3505
ZHHH,2006-12-01 00:00,ZHHH 010000Z AUTO 00000KT 5SM 07/06 A3030 RMK SLP261 T00690062 52009 IEM_DS3505
ZHHH,2006-12-01 01:00,ZHHH 010100Z AUTO 1/4SM 07/06 A3033 RMK T00700060 IEM_DS3505
ZHHH,2006-12-01 02:00,ZHHH 010200Z AUTO 1SM 09/08 A3033 RMK T00900080 IEM_DS3505
ZHHH,2006-12-01 03:00,ZHHH 010300Z AUTO 36004KT 11SM 12/05 A3030 RMK SLP263 T01240053 52002 IEM_DS3505
ZHHH,2006-12-01 04:00,ZHHH 010400Z AUTO 2 1/2SM 13/07 A3027 RMK T01300070 IEM_DS3505
ZHHH,2006-12-01 05:00,ZHHH 010500Z AUTO 6SM 14/06 A3024 RMK T01400060 IEM_DS3505
ZHHH,2006-12-01 06:00,ZHHH 010600Z AUTO 22002KT 11SM 15/04 A3021 RMK SLP231 T01460040 57032 IEM_DS3505
ZHHH,2006-12-01 07:00,ZHHH 010700Z AUTO 22006KT 6SM 15/05 A3018 RMK T01500050 IEM_DS3505
ZHHH,2006-12-01 08:00,ZHHH 010800Z AUTO 24004KT 6SM 14/03 A3018 RMK T01400030 IEM_DS3505
ZHHH,2006-12-01 09:00,ZHHH 010900Z AUTO 25002KT 11SM 13/03 A3021 RMK SLP227 T01330031 57004 IEM_DS3505
ZHHH,2006-12-01 10:00,ZHHH 011000Z AUTO 21002KT 3SM 12/06 A3021 RMK T01200060 IEM_DS3505
ZHHH,2006-12-01 11:00,ZHHH 011100Z AUTO 3SM 11/06 A3024 RMK T01100060 IEM_DS3505
ZHHH,2006-12-01 12:00,ZHHH 011200Z AUTO 23002KT 9SM 08/06 A3027 RMK SLP246 T00790060 52019 IEM_DS3505
ZHHH,2006-12-01 13:00,ZHHH 011300Z AUTO 00000KT 3SM 10/06 A3027 RMK T01000060 IEM_DS3505
ZHHH,2006-12-01 14:00,ZHHH 011400Z AUTO 00000KT 3SM 09/06 A3030 RMK T00900060 IEM_DS3505
ZHHH,2006-12-01 15:00,ZHHH 011500Z AUTO 06006KT 7SM 06/05 A3030 RMK SLP261 T00630053 52015 IEM_DS3505
ZHHH,2006-12-01 16:00,ZHHH 011600Z AUTO 05004KT 3SM 08/05 A3030 RMK T00800050 IEM_DS3505
ZHHH,2006-12-01 17:00,ZHHH 011700Z AUTO 04004KT 3SM 07/05 A3033 RMK T00700050 IEM_DS3505
ZHHH,2006-12-01 18:00,ZHHH 011800Z AUTO 00000KT 9SM 06/04 A3033 RMK SLP269 T00590045 52008 IEM_DS3505
ZHHH,2006-12-01 19:00,ZHHH 011900Z AUTO 07004KT 3SM 07/05 A3033 RMK T00700050 IEM_DS3505
ZHHH,2006-12-01 20:00,ZHHH 012000Z AUTO 05006KT 3SM 06/04 A3033 RMK T00600040 IEM_DS3505
ZHHH,2006-12-01 21:00,ZHHH 012100Z AUTO 05004KT 9SM 06/04 A3033 RMK SLP276 T00600037 52007 IEM_DS3505
ZHHH,2006-12-01 22:00,ZHHH 012200Z AUTO 04006KT 3SM 06/03 A3036 RMK T00600030 IEM_DS3505
ZHHH,2006-12-01 23:00,ZHHH 012300Z AUTO 03004KT 4SM 06/01 A3036 RMK T00600010 IEM_DS3505
ZHHH,2006-12-02 00:00,ZHHH 020000Z AUTO 36002KT 9SM 07/01 A3039 RMK SLP292 T00690012 52016 IEM_DS3505
ZHHH,2006-12-02 01:00,ZHHH 020100Z AUTO 03008KT 4SM 07/02 A3042 RMK T00700020 IEM_DS3505
ZHHH,2006-12-02 02:00,ZHHH 020200Z AUTO 04012KT 4SM 09/04 A3045 RMK T00900040 IEM_DS3505
ZHHH,2006-12-02 03:00,ZHHH 020300Z AUTO 04006KT 9SM 11/02 A3045 RMK SLP308 T01110022 52016 IEM_DS3505
ZHHH,2006-12-02 04:00,ZHHH 020400Z AUTO 04010KT 4SM 12/03 A3042 RMK T01200030 IEM_DS3505
ZHHH,2006-12-02 05:00,ZHHH 020500Z AUTO 05012KT 4SM 13/01 A3039 RMK T01300010 IEM_DS3505
ZHHH,2006-12-02 06:00,ZHHH 020600Z AUTO 02004KT 9SM 14/M01 A3036 RMK SLP279 T01451012 57029 IEM_DS3505
ZHHH,2006-12-02 07:00,ZHHH 020700Z AUTO 05012KT 4SM 14/M02 A3036 RMK T01401020 IEM_DS3505
ZHHH,2006-12-02 08:00,ZHHH 020800Z AUTO 03010KT 6SM 13/M01 A3033 RMK T01301010 IEM_DS3505
ZHHH,2006-12-02 09:00,ZHHH 020900Z AUTO 02004KT 9SM 12/M02 A3036 RMK SLP280 T01191023 52001 IEM_DS3505
ZHHH,2006-12-02 10:00,ZHHH 021000Z AUTO 03006KT 6SM 09/M01 A3036 RMK T00901010 IEM_DS3505
ZHHH,2006-12-02 11:00,ZHHH 021100Z AUTO 03008G17KT 3SM 09/M01 A3039 RMK T00901010 IEM_DS3505
ZHHH,2006-12-02 12:00,ZHHH 021200Z AUTO 02006KT 7SM 09/M03 A3039 RMK SLP293 T00891027 52013 IEM_DS3505
ZHHH,2006-12-02 13:00,ZHHH 021300Z AUTO 04010KT 3SM 07/M01 A3039 RMK T00701010 IEM_DS3505
ZHHH,2006-12-02 14:00,ZHHH 021400Z AUTO 04006KT 3SM 07/00 A3042 RMK T00700000 IEM_DS3505
ZHHH,2006-12-02 15:00,ZHHH 021500Z AUTO 07004KT 7SM 08/M02 A3045 RMK SLP308 T00781017 52015 IEM_DS3505
ZHHH,2006-12-02 16:00,ZHHH 021600Z AUTO 05008KT 2 1/2SM 07/00 A3045 RMK T00700000 IEM_DS3505
ZHHH,2006-12-02 17:00,ZHHH 021700Z AUTO 05010KT 2 1/2SM 07/00 A3045 RMK T00700000 IEM_DS3505
ZHHH,2006-12-02 18:00,ZHHH 021800Z AUTO 07002KT 7SM 07/M01 A3045 RMK SLP307 T00731006 57001 IEM_DS3505
ZHHH,2006-12-02 19:00,ZHHH 021900Z AUTO 04006KT 6SM 06/00 A3042 RMK T00600000 IEM_DS3505
ZHHH,2006-12-02 20:00,ZHHH 022000Z AUTO 04006KT 6SM 05/00 A3042 RMK T00500000 IEM_DS3505
ZHHH,2006-12-02 21:00,ZHHH 022100Z AUTO 07004KT 7SM 07/M01 A3042 RMK SLP301 T00681014 57006 IEM_DS3505
ZHHH,2006-12-02 22:00,ZHHH 022200Z AUTO 05006KT 6SM 05/00 A3042 RMK T00500000 IEM_DS3505
ZHHH,2006-12-02 23:00,ZHHH 022300Z AUTO 06004KT 6SM 05/00 A3045 RMK T00500000 IEM_DS3505
ZHHH,2006-12-03 00:00,ZHHH 030000Z AUTO 07006KT 9SM 06/M02 A3047 RMK SLP317 T00651016 52016 IEM_DS3505
ZHHH,2006-12-03 01:00,ZHHH 030100Z AUTO 05008KT 4SM 06/M01 A3047 RMK T00601010 IEM_DS3505
ZHHH,2006-12-03 02:00,ZHHH 030200Z AUTO 05008KT 6SM 08/M02 A3050 RMK T00801020 IEM_DS3505
ZHHH,2006-12-03 03:00,ZHHH 030300Z AUTO 09006KT 9SM 10/M03 A3050 RMK SLP328 T00951028 52011 IEM_DS3505
ZHHH,2006-12-03 04:00,ZHHH 030400Z AUTO 6SM 10/M03 A3047 RMK T01001030 IEM_DS3505
ZHHH,2006-12-03 05:00,ZHHH 030500Z AUTO 02004KT 6SM 10/M02 A3045 RMK T01001020 IEM_DS3505
ZHHH,2006-12-03 06:00,ZHHH 030600Z AUTO 09002KT 9SM 10/M02 A3045 RMK SLP306 T01011025 57022 IEM_DS3505
ZHHH,2006-12-03 07:00,ZHHH 030700Z AUTO 02006KT 6SM 10/M06 A3042 RMK T01001060 IEM_DS3505
ZHHH,2006-12-03 08:00,ZHHH 030800Z AUTO 03004KT 6SM 10/M04 A3042 RMK T01001040 IEM_DS3505
ZHHH,2006-12-03 09:00,ZHHH 030900Z AUTO 02004KT 9SM 10/M04 A3042 RMK SLP305 T00971039 57001 IEM_DS3505
ZHHH,2006-12-03 10:00,ZHHH 031000Z AUTO 36004KT 6SM 09/M02 A3045 RMK T00901020 IEM_DS3505
ZHHH,2006-12-03 11:00,ZHHH 031100Z AUTO 03006KT 6SM 08/M03 A3047 RMK T00801030 IEM_DS3505
ZHHH,2006-12-03 12:00,ZHHH 031200Z AUTO 36002KT 11SM 08/M04 A3047 RMK SLP326 T00831039 52021 IEM_DS3505
ZHHH,2006-12-03 13:00,ZHHH 031300Z AUTO 03006KT 6SM 07/M02 A3050 RMK T00701020 IEM_DS3505
ZHHH,2006-12-03 14:00,ZHHH 031400Z AUTO 02004KT 6SM 07/M02 A3050 RMK T00701020 IEM_DS3505
ZHHH,2006-12-03 15:00,ZHHH 031500Z AUTO 07002KT 11SM 07/M03 A3050 RMK SLP333 T00741026 52007 IEM_DS3505
ZHHH,2006-12-03 16:00,ZHHH 031600Z AUTO 02002KT 6SM 06/M01 A3050 RMK T00601010 IEM_DS3505
ZHHH,2006-12-03 17:00,ZHHH 031700Z AUTO 08004KT 6SM 05/M01 A3050 RMK T00501010 IEM_DS3505
ZHHH,2006-12-03 18:00,ZHHH 031800Z AUTO 04002KT 9SM 06/M03 A3050 RMK SLP328 T00621027 57005 IEM_DS3505
ZHHH,2006-12-03 19:00,ZHHH 031900Z AUTO 02004KT 6SM 04/M01 A3050 RMK T00401010 IEM_DS3505
ZHHH,2006-12-03 20:00,ZHHH 032000Z AUTO 03002KT 6SM 04/M01 A3050 RMK T00401010 IEM_DS3505
ZHHH,2006-12-03 21:00,ZHHH 032100Z AUTO 36002KT 9SM 06/M02 A3050 RMK SLP326 T00551016 57002 IEM_DS3505
ZHHH,2006-12-03 22:00,ZHHH 032200Z AUTO 06006KT 6SM 04/M01 A3047 RMK T00401010 IEM_DS3505
ZHHH,2006-12-03 23:00,ZHHH 032300Z AUTO 05006KT 6SM 04/M01 A3050 RMK T00401010 IEM_DS3505
ZHHH,2006-12-04 00:00,ZHHH 040000Z AUTO 09002KT 9SM 05/00 A3047 RMK SLP322 T00540000 57004 IEM_DS3505
ZHHH,2006-12-04 01:00,ZHHH 040100Z AUTO 11008KT 3SM 05/00 A3047 RMK T00500000 IEM_DS3505
ZHHH,2006-12-04 02:00,ZHHH 040200Z AUTO 10006KT 4SM 05/00 A3047 RMK T00500000 IEM_DS3505
ZHHH,2006-12-04 03:00,ZHHH 040300Z AUTO 07004KT 9SM 08/01 A3047 RMK SLP320 T00800009 57002 IEM_DS3505
ZHHH,2006-12-04 04:00,ZHHH 040400Z AUTO 3SM 08/02 A3045 RMK T00800020 IEM_DS3505
ZHHH,2006-12-04 05:00,ZHHH 040500Z AUTO 3SM 08/01 A3045 RMK T00800010 IEM_DS3505
ZHHH,2006-12-04 06:00,ZHHH 040600Z AUTO 16002KT 9SM 09/M00 A3042 RMK SLP295 T00881002 57025 IEM_DS3505
ZHHH,2006-12-04 07:00,ZHHH 040700Z AUTO 11004KT 2 1/2SM 08/02 A3036 RMK T00800020 IEM_DS3505
ZHHH,2006-12-04 08:00,ZHHH 040800Z AUTO 11004KT 3SM 09/01 A3039 RMK T00900010 IEM_DS3505
ZHHH,2006-12-04 09:00,ZHHH 040900Z AUTO 07002KT 9SM 09/M01 A3039 RMK SLP287 T00881008 57008 IEM_DS3505
ZHHH,2006-12-04 10:00,ZHHH 041000Z AUTO 11004KT 2 1/2SM 07/01 A3039 RMK T00700010 IEM_DS3505
ZHHH,2006-12-04 11:00,ZHHH 041100Z AUTO 07004KT 2SM 07/01 A3039 RMK T00700010 IEM_DS3505
ZHHH,2006-12-04 12:00,ZHHH 041200Z AUTO 36002KT 9SM 08/01 A3039 RMK SLP294 T00790009 52007 IEM_DS3505
ZHHH,2006-12-04 13:00,ZHHH 041300Z AUTO 10004KT 1 1/2SM 07/01 A3039 RMK T00700010 IEM_DS3505
ZHHH,2006-12-04 14:00,ZHHH 041400Z AUTO 10004KT 1 1/2SM 07/01 A3042 RMK T00700010 IEM_DS3505
ZHHH,2006-12-04 15:00,ZHHH 041500Z AUTO 04002KT 9SM 07/02 A3042 RMK SLP296 T00730024 52002 IEM_DS3505
ZHHH,2006-12-04 16:00,ZHHH 041600Z AUTO 06004KT 1 1/2SM 06/03 A3042 RMK T00600030 IEM_DS3505
ZHHH,2006-12-04 17:00,ZHHH 041700Z AUTO 04004KT 1 1/2SM 06/02 A3042 RMK T00600020 IEM_DS3505
ZHHH,2006-12-04 18:00,ZHHH 041800Z AUTO 07002KT 11SM 07/03 A3042 RMK SLP298 T00690028 52002 IEM_DS3505
ZHHH,2006-12-04 19:00,ZHHH 041900Z AUTO 06006KT 2 1/2SM 04/01 A3039 RMK T00400010 IEM_DS3505
ZHHH,2006-12-04 20:00,ZHHH 042000Z AUTO 07006KT 2 1/2SM 03/01 A3039 RMK T00300010 IEM_DS3505
ZHHH,2006-12-04 21:00,ZHHH 042100Z AUTO 07004KT 9SM 05/02 A3039 RMK SLP295 T00480020 57003 IEM_DS3505
ZHHH,2006-12-04 22:00,ZHHH 042200Z AUTO 07008KT 2 1/2SM 02/01 A3042 RMK T00200010 IEM_DS3505
ZHHH,2006-12-04 23:00,ZHHH 042300Z AUTO 00000KT 2SM 03/01 A3042 RMK T00300010 IEM_DS3505
ZHHH,2006-12-05 00:00,ZHHH 050000Z AUTO 07004KT 9SM 05/01 A3042 RMK SLP307 T00470007 52012 IEM_DS3505
ZHHH,2006-12-05 01:00,ZHHH 050100Z AUTO 07004KT 1 1/4SM 05/03 A3045 RMK T00500030 IEM_DS3505
ZHHH,2006-12-05 02:00,ZHHH 050200Z AUTO 08004KT 1 1/2SM 08/03 A3045 RMK T00800030 IEM_DS3505
ZHHH,2006-12-05 03:00,ZHHH 050300Z AUTO 02002KT 9SM 09/M00 A3045 RMK SLP310 T00921001 52003 IEM_DS3505
ZHHH,2006-12-05 04:00,ZHHH 050400Z AUTO 30004KT 2 1/2SM 09/02 A3042 RMK T00900020 IEM_DS3505
ZHHH,2006-12-05 05:00,ZHHH 050500Z AUTO 2 1/2SM 10/02 A3039 RMK T01000020 IEM_DS3505
ZHHH,2006-12-05 06:00,ZHHH 050600Z AUTO 29002KT 9SM 10/M00 A3039 RMK SLP287 T01001005 57023 IEM_DS3505
ZHHH,2006-12-05 07:00,ZHHH 050700Z AUTO 28004KT 2 1/2SM 10/03 A3039 RMK T01000030 IEM_DS3505
ZHHH,2006-12-05 08:00,ZHHH 050800Z AUTO 31002KT 2 1/2SM 09/04 A3039 RMK T00900040 IEM_DS3505
ZHHH,2006-12-05 09:00,ZHHH 050900Z AUTO 29002KT 9SM 09/04 A3039 RMK SLP287 T00860036 54000 IEM_DS3505
ZHHH,2006-12-05 10:00,ZHHH 051000Z AUTO 21004KT 1 1/2SM 08/05 A3039 RMK T00800050 IEM_DS3505
ZHHH,2006-12-05 11:00,ZHHH 051100Z AUTO 17006KT 1 1/2SM 08/04 A3036 RMK T00800040 IEM_DS3505
ZHHH,2006-12-05 12:00,ZHHH 051200Z AUTO 14002KT 9SM 08/02 A3036 RMK 60001 SLP285 T00850021 57002 IEM_DS3505
ZHHH,2006-12-05 13:00,ZHHH 051300Z AUTO 16004KT 2SM 08/04 A3036 RMK T00800040 IEM_DS3505
ZHHH,2006-12-05 14:00,ZHHH 051400Z AUTO 16004KT 2 1/2SM 08/04 A3039 RMK T00800040 IEM_DS3505
ZHHH,2006-12-05 15:00,ZHHH 051500Z AUTO 09004KT 9SM 08/03 A3036 RMK SLP283 T00840033 57002 IEM_DS3505
ZHHH,2006-12-05 16:00,ZHHH 051600Z AUTO 07006KT 2 1/2SM 07/05 A3036 RMK T00700050 IEM_DS3505
ZHHH,2006-12-05 17:00,ZHHH 051700Z AUTO 09004KT 2 1/2SM 07/05 A3036 RMK T00700050 IEM_DS3505
ZHHH,2006-12-05 18:00,ZHHH 051800Z AUTO 04002KT 9SM 08/04 A3033 RMK SLP272 T00810039 57011 IEM_DS3505
ZHHH,2006-12-05 19:00,ZHHH 051900Z AUTO 3SM 08/04 A3030 RMK T00800040 IEM_DS3505
ZHHH,2006-12-05 20:00,ZHHH 052000Z AUTO 3SM 07/04 A3030 RMK T00700040 IEM_DS3505
ZHHH,2006-12-05 21:00,ZHHH 052100Z AUTO 11002KT 9SM 08/04 A3027 RMK 70001 SLP248 T00770045 57024 IEM_DS3505
ZHHH,2006-12-05 22:00,ZHHH 052200Z AUTO 09002KT 3SM 07/05 A3027 RMK T00700050 IEM_DS3505
ZHHH,2006-12-05 23:00,ZHHH 052300Z AUTO 06004KT 1 1/4SM 07/05 A3027 RMK T00700050 IEM_DS3505
ZHHH,2006-12-06 00:00,ZHHH 060000Z AUTO 07002KT 7SM 08/05 A3027 RMK 70001 SLP242 T00810050 57006 IEM_DS3505
ZHHH,2006-12-06 01:00,ZHHH 060100Z AUTO 09006KT 1SM 08/06 A3024 RMK T00800060 IEM_DS3505
ZHHH,2006-12-06 02:00,ZHHH 060200Z AUTO 10006KT 1 1/4SM 08/05 A3024 RMK T00800050 IEM_DS3505
ZHHH,2006-12-06 03:00,ZHHH 060300Z AUTO 07002KT 6SM 09/06 A3024 RMK SLP238 T00930057 57004 IEM_DS3505
ZHHH,2006-12-06 04:00,ZHHH 060400Z AUTO 12004KT 2 1/2SM 09/05 A3021 RMK T00900050 IEM_DS3505
ZHHH,2006-12-06 05:00,ZHHH 060500Z AUTO 09004KT 2 1/2SM 10/06 A3018 RMK T01000060 IEM_DS3505
ZHHH,2006-12-06 06:00,ZHHH 060600Z AUTO 04002KT 7SM 10/05 A3015 RMK 60000 SLP210 T00990051 57028 IEM_DS3505
ZHHH,2006-12-06 07:00,ZHHH 060700Z AUTO 1 1/4SM 09/06 A3015 RMK T00900060 IEM_DS3505
ZHHH,2006-12-06 08:00,ZHHH 060800Z AUTO 01004KT 1 1/4SM 08/07 A3015 RMK T00800070 IEM_DS3505
ZHHH,2006-12-06 09:00,ZHHH 060900Z AUTO 34004KT 7SM 08/06 A3015 RMK SLP210 T00830061 54000 IEM_DS3505
ZHHH,2006-12-06 10:00,ZHHH 061000Z AUTO 36004KT 1SM 08/07 A3015 RMK T00800070 IEM_DS3505
ZHHH,2006-12-06 11:00,ZHHH 061100Z AUTO 35006KT 1SM 07/07 A3018 RMK T00700070 IEM_DS3505
ZHHH,2006-12-06 13:00,ZHHH 061300Z AUTO 01004KT 1/2SM 07/07 A3021 RMK T00700070 IEM_DS3505
ZHHH,2006-12-06 14:00,ZHHH 061400Z AUTO 02004KT 1/2SM 07/07 A3021 RMK T00700070 IEM_DS3505
ZHHH,2006-12-06 15:00,ZHHH 061500Z AUTO 34002KT 6SM 08/07 A3021 RMK SLP235 T00760067 52015 IEM_DS3505
ZHHH,2006-12-06 16:00,ZHHH 061600Z AUTO 35004KT 3/8SM 07/07 A3024 RMK T00700070 IEM_DS3505
ZHHH,2006-12-06 17:00,ZHHH 061700Z AUTO 34004KT 3/8SM 07/07 A3024 RMK T00700070 IEM_DS3505
ZHHH,2006-12-06 18:00,ZHHH 061800Z AUTO 29002KT 6SM 07/06 A3024 RMK 60012 SLP239 T00690062 52004 IEM_DS3505
ZHHH,2006-12-06 19:00,ZHHH 061900Z AUTO 03004KT 1SM 06/06 A3024 RMK T00600060 IEM_DS3505
ZHHH,2006-12-06 20:00,ZHHH 062000Z AUTO 03004KT 1SM 06/06 A3024 RMK T00600060 IEM_DS3505
ZHHH,2006-12-06 21:00,ZHHH 062100Z AUTO 36002KT 6SM 06/06 A3027 RMK 70032 SLP246 T00640057 52007 IEM_DS3505
ZHHH,2006-12-06 22:00,ZHHH 062200Z AUTO 02008KT 1 1/2SM 05/05 A3027 RMK T00500050 IEM_DS3505
ZHHH,2006-12-06 23:00,ZHHH 062300Z AUTO 02008KT 1SM 05/05 A3030 RMK T00500050 IEM_DS3505
ZHHH,2006-12-07 00:00,ZHHH 070000Z AUTO 04006KT 5SM 06/04 A3030 RMK 60016 70034 SLP264 T00600045 52018 IEM_DS3505
ZHHH,2006-12-07 01:00,ZHHH 070100Z AUTO 03008KT 1SM 05/04 A3033 RMK T00500040 IEM_DS3505
ZHHH,2006-12-07 02:00,ZHHH 070200Z AUTO 03010KT 1SM 05/04 A3036 RMK T00500040 IEM_DS3505
ZHHH,2006-12-07 03:00,ZHHH 070300Z AUTO 02006KT 6SM 06/03 A3036 RMK SLP281 T00560031 52017 IEM_DS3505
ZHHH,2006-12-07 04:00,ZHHH 070400Z AUTO 03010KT 1SM 04/04 A3036 RMK T00400040 IEM_DS3505
ZHHH,2006-12-07 05:00,ZHHH 070500Z AUTO 03010KT 1SM 04/03 A3033 RMK T00400030 IEM_DS3505
ZHHH,2006-12-07 06:00,ZHHH 070600Z AUTO 04008KT 7SM 04/02 A3033 RMK 60000 SLP269 T00450024 57012 IEM_DS3505
ZHHH,2006-12-07 07:00,ZHHH 070700Z AUTO 03010KT 1SM 04/03 A3033 RMK T00400030 IEM_DS3505
ZHHH,2006-12-07 08:00,ZHHH 070800Z AUTO 02010KT 1SM 03/02 A3033 RMK T00300020 IEM_DS3505
ZHHH,2006-12-07 10:00,ZHHH 071000Z AUTO 02012KT 1SM 03/02 A3036 RMK T00300020 IEM_DS3505
ZHHH,2006-12-07 11:00,ZHHH 071100Z AUTO 02010KT 1SM 03/03 A3036 RMK T00300030 IEM_DS3505
ZHHH,2006-12-07 12:00,ZHHH 071200Z AUTO 36002KT 6SM 04/02 A3036 RMK 60000 SLP287 T00380022 52012 IEM_DS3505
ZHHH,2006-12-07 13:00,ZHHH 071300Z AUTO 02008KT 1SM 03/03 A3039 RMK T00300030 IEM_DS3505
ZHHH,2006-12-07 14:00,ZHHH 071400Z AUTO 01006KT 1SM 03/03 A3039 RMK T00300030 IEM_DS3505
ZHHH,2006-12-07 15:00,ZHHH 071500Z AUTO 34004KT 6SM 04/03 A3039 RMK SLP296 T00370027 52009 IEM_DS3505
ZHHH,2006-12-07 16:00,ZHHH 071600Z AUTO 36008KT 1 1/4SM 03/03 A3042 RMK T00300030 IEM_DS3505
ZHHH,2006-12-07 17:00,ZHHH 071700Z AUTO 01006KT 1 1/4SM 02/02 A3042 RMK T00200020 IEM_DS3505
ZHHH,2006-12-07 18:00,ZHHH 071800Z AUTO 32004KT 6SM 03/02 A3042 RMK 60012 SLP300 T00300020 52004 IEM_DS3505
ZHHH,2006-12-07 19:00,ZHHH 071900Z AUTO 02008KT 3SM 02/02 A3042 RMK T00200020 IEM_DS3505
ZHHH,2006-12-07 20:00,ZHHH 072000Z AUTO 34006KT 2 1/2SM 02/02 A3042 RMK T00200020 IEM_DS3505
ZHHH,2006-12-07 21:00,ZHHH 072100Z AUTO 04004KT 6SM 03/02 A3039 RMK 70017 SLP291 T00300021 57009 IEM_DS3505
ZHHH,2006-12-07 22:00,ZHHH 072200Z AUTO 02008KT 4SM 03/02 A3039 RMK T00300020 IEM_DS3505
ZHHH,2006-12-07 23:00,ZHHH 072300Z AUTO 02006KT 4SM 03/02 A3042 RMK T00300020 IEM_DS3505
ZHHH,2006-12-08 00:00,ZHHH 080000Z AUTO 34002KT 6SM 03/02 A3045 RMK 60002 70014 SLP311 T00330018 52020 IEM_DS3505
ZHHH,2006-12-08 01:00,ZHHH 080100Z AUTO 01004KT 3SM 03/02 A3045 RMK T00300020 IEM_DS3505
ZHHH,2006-12-08 02:00,ZHHH 080200Z AUTO 01008KT 2 1/2SM 02/02 A3047 RMK T00200020 IEM_DS3505
ZHHH,2006-12-08 03:00,ZHHH 080300Z AUTO 32004KT 6SM 03/02 A3047 RMK SLP323 T00280019 52012 IEM_DS3505
ZHHH,2006-12-08 04:00,ZHHH 080400Z AUTO 36006KT 1 1/2SM 02/02 A3045 RMK T00200020 IEM_DS3505
ZHHH,2006-12-08 05:00,ZHHH 080500Z AUTO 35008KT 1 1/2SM 02/02 A3045 RMK T00200020 IEM_DS3505
ZHHH,2006-12-08 06:00,ZHHH 080600Z AUTO 34004KT 6SM 02/01 A3045 RMK 60020 SLP310 T00230011 57013 IEM_DS3505
ZHHH,2006-12-08 07:00,ZHHH 080700Z AUTO 02010KT 2 1/2SM 02/02 A3045 RMK T00200020 IEM_DS3505
ZHHH,2006-12-08 08:00,ZHHH 080800Z AUTO 01008KT 3SM 02/01 A3045 RMK T00200010 IEM_DS3505
ZHHH,2006-12-08 09:00,ZHHH 080900Z AUTO 04002KT 6SM 02/01 A3045 RMK SLP315 T00230011 52005 IEM_DS3505
ZHHH,2006-12-08 10:00,ZHHH 081000Z AUTO 01008KT 4SM 02/01 A3047 RMK T00200010 IEM_DS3505
ZHHH,2006-12-08 11:00,ZHHH 081100Z AUTO 35006KT 2 1/2SM 02/01 A3050 RMK T00200010 IEM_DS3505
ZHHH,2006-12-08 12:00,ZHHH 081200Z AUTO 36002KT 9SM 02/01 A3053 RMK 60012 SLP338 T00220006 52023 IEM_DS3505
ZHHH,2006-12-08 13:00,ZHHH 081300Z AUTO 34008KT 2SM 01/01 A3053 RMK T00100010 IEM_DS3505
ZHHH,2006-12-08 14:00,ZHHH 081400Z AUTO 36006KT 2 1/2SM 01/01 A3056 RMK T00100010 IEM_DS3505
ZHHH,2006-12-08 15:00,ZHHH 081500Z AUTO 32002KT 9SM 02/M00 A3056 RMK SLP355 T00181003 52017 IEM_DS3505
ZHHH,2006-12-08 16:00,ZHHH 081600Z AUTO 34006KT 2 1/2SM 01/00 A3059 RMK T00100000 IEM_DS3505
ZHHH,2006-12-08 17:00,ZHHH 081700Z AUTO 35004KT 2 1/2SM 01/00 A3056 RMK T00100000 IEM_DS3505
ZHHH,2006-12-08 18:00,ZHHH 081800Z AUTO 34002KT 9SM 01/M00 A3056 RMK SLP354 T00101005 57001 IEM_DS3505
ZHHH,2006-12-08 19:00,ZHHH 081900Z AUTO 36002KT 2SM 00/00 A3056 RMK T00000000 IEM_DS3505
ZHHH,2006-12-08 20:00,ZHHH 082000Z AUTO 04004KT 1 1/4SM 00/00 A3053 RMK T00000000 IEM_DS3505
ZHHH,2006-12-08 21:00,ZHHH 082100Z AUTO 02002KT 9SM 00/M01 A3056 RMK 70034 SLP351 T00041010 57003 IEM_DS3505
ZHHH,2006-12-08 22:00,ZHHH 082200Z AUTO 03004KT 1 1/4SM 00/M01 A3056 RMK T00001010 IEM_DS3505
ZHHH,2006-12-08 23:00,ZHHH 082300Z AUTO 2SM M01/M01 A3056 RMK T10101010 IEM_DS3505
ZHHH,2006-12-09 00:00,ZHHH 090000Z AUTO 04002KT 9SM 00/M01 A3059 RMK 70034 SLP363 T00051009 52012 IEM_DS3505
ZHHH,2006-12-09 01:00,ZHHH 090100Z AUTO 03006KT 4SM 01/00 A3062 RMK T00100000 IEM_DS3505
ZHHH,2006-12-09 02:00,ZHHH 090200Z AUTO 03008KT 5SM 02/01 A3062 RMK T00200010 IEM_DS3505
ZHHH,2006-12-09 03:00,ZHHH 090300Z AUTO 04004KT 9SM 03/M01 A3062 RMK SLP371 T00301010 52008 IEM_DS3505
ZHHH,2006-12-09 04:00,ZHHH 090400Z AUTO 02008KT 6SM 05/01 A3059 RMK T00500010 IEM_DS3505
ZHHH,2006-12-09 05:00,ZHHH 090500Z AUTO 02008KT 6SM 05/01 A3056 RMK T00500010 IEM_DS3505
ZHHH,2006-12-09 06:00,ZHHH 090600Z AUTO 02004KT 9SM 05/00 A3053 RMK SLP344 T00530001 57027 IEM_DS3505
ZHHH,2006-12-09 07:00,ZHHH 090700Z AUTO 04006KT 4SM 05/01 A3053 RMK T00500010 IEM_DS3505
ZHHH,2006-12-09 08:00,ZHHH 090800Z AUTO 04010KT 5SM 05/01 A3050 RMK T00500010 IEM_DS3505
ZHHH,2006-12-09 09:00,ZHHH 090900Z AUTO 02004KT 9SM 05/M00 A3053 RMK SLP338 T00511003 57006 IEM_DS3505
ZHHH,2006-12-09 10:00,ZHHH 091000Z AUTO 04010KT 4SM 04/01 A3053 RMK T00400010 IEM_DS3505
ZHHH,2006-12-09 11:00,ZHHH 091100Z AUTO 01004KT 4SM 04/01 A3053 RMK T00400010 IEM_DS3505
ZHHH,2006-12-09 12:00,ZHHH 091200Z AUTO 02004KT 9SM 04/M00 A3053 RMK SLP349 T00411003 52011 IEM_DS3505
ZHHH,2006-12-09 13:00,ZHHH 091300Z AUTO 02006KT 4SM 03/01 A3056 RMK T00300010 IEM_DS3505
ZHHH,2006-12-09 14:00,ZHHH 091400Z AUTO 01004KT 4SM 03/01 A3056 RMK T00300010 IEM_DS3505
ZHHH,2006-12-09 15:00,ZHHH 091500Z AUTO 07004KT 9SM 04/M00 A3056 RMK SLP353 T00361002 52004 IEM_DS3505
ZHHH,2006-12-09 16:00,ZHHH 091600Z AUTO 04002KT 4SM 02/00 A3056 RMK T00200000 IEM_DS3505
ZHHH,2006-12-09 17:00,ZHHH 091700Z AUTO 04004KT 4SM 02/00 A3056 RMK T00200000 IEM_DS3505
ZHHH,2006-12-09 18:00,ZHHH 091800Z AUTO 02002KT 11SM 02/M01 A3053 RMK SLP342 T00231008 57011 IEM_DS3505
ZHHH,2006-12-09 19:00,ZHHH 091900Z AUTO 03004KT 6SM 01/00 A3050 RMK T00100000 IEM_DS3505
ZHHH,2006-12-09 20:00,ZHHH 092000Z AUTO 08002KT 6SM 01/00 A3050 RMK T00100000 IEM_DS3505
ZHHH,2006-12-09 21:00,ZHHH 092100Z AUTO 02004KT 11SM 02/M01 A3047 RMK SLP328 T00171009 57014 IEM_DS3505
ZHHH,2006-12-09 22:00,ZHHH 092200Z AUTO 01002KT 6SM 01/00 A3047 RMK T00100000 IEM_DS3505
ZHHH,2006-12-09 23:00,ZHHH 092300Z AUTO 35002KT 3SM 00/00 A3050 RMK T00000000 IEM_DS3505
ZHHH,2006-12-10 00:00,ZHHH 100000Z AUTO 02004KT 11SM 02/M01 A3050 RMK SLP335 T00181011 52007 IEM_DS3505
ZHHH,2006-12-10 01:00,ZHHH 100100Z AUTO 31004KT 1SM 02/02 A3053 RMK T00200020 IEM_DS3505
ZHHH,2006-12-10 02:00,ZHHH 100200Z AUTO 2SM 04/01 A3050 RMK T00400010 IEM_DS3505
ZHHH,2006-12-10 03:00,ZHHH 100300Z AUTO 20002KT 11SM 05/M01 A3047 RMK SLP327 T00461006 57008 IEM_DS3505
ZHHH,2006-12-10 04:00,ZHHH 100400Z AUTO 14006KT 4SM 05/01 A3045 RMK T00500010 IEM_DS3505
ZHHH,2006-12-10 05:00,ZHHH 100500Z AUTO 3SM 05/01 A3039 RMK T00500010 IEM_DS3505
ZHHH,2006-12-10 06:00,ZHHH 100600Z AUTO 18002KT 7SM 06/M00 A3036 RMK SLP282 T00581003 57045 IEM_DS3505
ZHHH,2006-12-10 07:00,ZHHH 100700Z AUTO 2 1/2SM 05/02 A3036 RMK T00500020 IEM_DS3505
ZHHH,2006-12-10 08:00,ZHHH 100800Z AUTO 20004KT 1 1/2SM 05/02 A3033 RMK T00500020 IEM_DS3505
ZHHH,2006-12-10 09:00,ZHHH 100900Z AUTO 20002KT 9SM 06/01 A3033 RMK SLP276 T00550009 57006 IEM_DS3505
ZHHH,2006-12-10 10:00,ZHHH 101000Z AUTO 00000KT 1 1/4SM 05/02 A3033 RMK T00500020 IEM_DS3505
ZHHH,2006-12-10 11:00,ZHHH 101100Z AUTO 00000KT 1SM 05/02 A3033 RMK T00500020 IEM_DS3505
ZHHH,2006-12-10 12:00,ZHHH 101200Z AUTO 27002KT 9SM 05/01 A3033 RMK SLP277 T00540013 52001 IEM_DS3505
ZHHH,2006-12-10 13:00,ZHHH 101300Z AUTO 00000KT 1SM 05/02 A3036 RMK T00500020 IEM_DS3505
ZHHH,2006-12-10 14:00,ZHHH 101400Z AUTO 00000KT 1SM 05/02 A3036 RMK T00500020 IEM_DS3505
ZHHH,2006-12-10 15:00,ZHHH 101500Z AUTO 20002KT 7SM 05/02 A3036 RMK SLP285 T00530018 52008 IEM_DS3505
ZHHH,2006-12-10 16:00,ZHHH 101600Z AUTO 00000KT 1SM 05/03 A3036 RMK T00500030 IEM_DS3505
ZHHH,2006-12-10 17:00,ZHHH 101700Z AUTO 1SM 05/03 A3033 RMK T00500030 IEM_DS3505
ZHHH,2006-12-10 18:00,ZHHH 101800Z AUTO 29002KT 9SM 05/02 A3033 RMK 60000 SLP276 T00500025 57008 IEM_DS3505
ZHHH,2006-12-10 19:00,ZHHH 101900Z AUTO 30004KT 1SM 05/03 A3033 RMK T00500030 IEM_DS3505
ZHHH,2006-12-10 20:00,ZHHH 102000Z AUTO 25002KT 1SM 04/03 A3033 RMK T00400030 IEM_DS3505
ZHHH,2006-12-10 21:00,ZHHH 102100Z AUTO 16002KT 9SM 05/02 A3030 RMK 70000 SLP264 T00490023 57012 IEM_DS3505
ZHHH,2006-12-10 22:00,ZHHH 102200Z AUTO 00000KT 1SM 04/03 A3030 RMK T00400030 IEM_DS3505
ZHHH,2006-12-10 23:00,ZHHH 102300Z AUTO 00000KT 1SM 04/03 A3033 RMK T00400030 IEM_DS3505
ZHHH,2006-12-11 00:00,ZHHH 110000Z AUTO 25002KT 9SM 05/03 A3033 RMK 70000 SLP275 T00530028 52011 IEM_DS3505
ZHHH,2006-12-11 01:00,ZHHH 110100Z AUTO 1SM 05/04 A3033 RMK T00500040 IEM_DS3505
ZHHH,2006-12-11 02:00,ZHHH 110200Z AUTO 26004KT 1 1/4SM 06/03 A3036 RMK T00600030 IEM_DS3505
ZHHH,2006-12-11 03:00,ZHHH 110300Z AUTO 22002KT 9SM 07/M01 A3033 RMK SLP276 T00731009 52001 IEM_DS3505
ZHHH,2006-12-11 04:00,ZHHH 110400Z AUTO 4SM 08/M01 A3030 RMK T00801010 IEM_DS3505
ZHHH,2006-12-11 05:00,ZHHH 110500Z AUTO 26004KT 6SM 10/M01 A3027 RMK T01001010 IEM_DS3505
ZHHH,2006-12-11 06:00,ZHHH 110600Z AUTO 29004KT 9SM 10/M05 A3024 RMK SLP244 T01051047 57032 IEM_DS3505
ZHHH,2006-12-11 07:00,ZHHH 110700Z AUTO 19004KT 6SM 11/00 A3024 RMK T01100000 IEM_DS3505
ZHHH,2006-12-11 08:00,ZHHH 110800Z AUTO 20006KT 6SM 10/00 A3024 RMK T01000000 IEM_DS3505
ZHHH,2006-12-11 09:00,ZHHH 110900Z AUTO 14002KT 9SM 10/M02 A3024 RMK SLP242 T00971020 57002 IEM_DS3505
ZHHH,2006-12-11 10:00,ZHHH 111000Z AUTO 16004KT 6SM 08/01 A3024 RMK T00800010 IEM_DS3505
ZHHH,2006-12-11 11:00,ZHHH 111100Z AUTO 15004KT 6SM 08/00 A3027 RMK T00800000 IEM_DS3505
ZHHH,2006-12-11 12:00,ZHHH 111200Z AUTO 19002KT 9SM 06/02 A3027 RMK SLP250 T00560017 52008 IEM_DS3505
ZHHH,2006-12-11 13:00,ZHHH 111300Z AUTO 00000KT 3SM 05/02 A3027 RMK T00500020 IEM_DS3505
ZHHH,2006-12-11 14:00,ZHHH 111400Z AUTO 2SM 06/03 A3027 RMK T00600030 IEM_DS3505
ZHHH,2006-12-11 15:00,ZHHH 111500Z AUTO 00000KT 9SM 04/02 A3027 RMK SLP257 T00360021 52007 IEM_DS3505
ZHHH,2006-12-11 16:00,ZHHH 111600Z AUTO 23002KT 1 1/4SM 04/02 A3030 RMK T00400020 IEM_DS3505
ZHHH,2006-12-11 17:00,ZHHH 111700Z AUTO 00000KT 1 1/4SM 04/02 A3027 RMK T00400020 IEM_DS3505
ZHHH,2006-12-11 18:00,ZHHH 111800Z AUTO 09002KT 9SM 02/01 A3027 RMK SLP253 T00240014 57004 IEM_DS3505
ZHHH,2006-12-11 19:00,ZHHH 111900Z AUTO 10004KT 1 1/4SM 03/02 A3027 RMK T00300020 IEM_DS3505
ZHHH,2006-12-11 20:00,ZHHH 112000Z AUTO 10004KT 1 1/4SM 03/02 A3024 RMK T00300020 IEM_DS3505
ZHHH,2006-12-11 21:00,ZHHH 112100Z AUTO 07002KT 9SM 03/02 A3024 RMK SLP242 T00290023 57011 IEM_DS3505
ZHHH,2006-12-11 22:00,ZHHH 112200Z AUTO 07004KT 1SM 03/02 A3024 RMK T00300020 IEM_DS3505
ZHHH,2006-12-11 23:00,ZHHH 112300Z AUTO 06006KT 1SM 02/02 A3024 RMK T00200020 IEM_DS3505
ZHHH,2006-12-12 00:00,ZHHH 120000Z AUTO 36002KT 6SM 05/03 A3027 RMK SLP248 T00460033 52006 IEM_DS3505
ZHHH,2006-12-12 01:00,ZHHH 120100Z AUTO 1SM 04/03 A3030 RMK T00400030 IEM_DS3505
ZHHH,2006-12-12 02:00,ZHHH 120200Z AUTO 08006KT 1SM 05/04 A3027 RMK T00500040 IEM_DS3505
ZHHH,2006-12-12 03:00,ZHHH 120300Z AUTO 02002KT 6SM 07/04 A3027 RMK SLP252 T00710042 52004 IEM_DS3505
ZHHH,2006-12-12 04:00,ZHHH 120400Z AUTO 1 1/4SM 07/04 A3024 RMK T00700040 IEM_DS3505
ZHHH,2006-12-12 05:00,ZHHH 120500Z AUTO 1 1/2SM 07/04 A3024 RMK T00700040 IEM_DS3505
ZHHH,2006-12-12 06:00,ZHHH 120600Z AUTO 04004KT 7SM 08/04 A3021 RMK SLP229 T00790041 57023 IEM_DS3505
ZHHH,2006-12-12 07:00,ZHHH 120700Z AUTO 35004KT 1 1/4SM 07/05 A3021 RMK T00700050 IEM_DS3505
ZHHH,2006-12-12 08:00,ZHHH 120800Z AUTO 35004KT 1 1/4SM 07/05 A3021 RMK T00700050 IEM_DS3505
ZHHH,2006-12-12 09:00,ZHHH 120900Z AUTO 34002KT 7SM 08/04 A3024 RMK SLP241 T00760040 52012 IEM_DS3505
ZHHH,2006-12-12 10:00,ZHHH 121000Z AUTO 24002KT 1SM 07/05 A3027 RMK T00700050 IEM_DS3505
ZHHH,2006-12-12 11:00,ZHHH 121100Z AUTO 1SM 07/05 A3030 RMK T00700050 IEM_DS3505
ZHHH,2006-12-12 12:00,ZHHH 121200Z AUTO 29002KT 7SM 07/02 A3033 RMK 60000 SLP267 T00740025 52026 IEM_DS3505
ZHHH,2006-12-12 13:00,ZHHH 121300Z AUTO 28004KT 1 1/4SM 07/05 A3033 RMK T00700050 IEM_DS3505
ZHHH,2006-12-12 14:00,ZHHH 121400Z AUTO 28004KT 1 1/4SM 06/05 A3036 RMK T00600050 IEM_DS3505
ZHHH,2006-12-12 15:00,ZHHH 121500Z AUTO 27002KT 7SM 07/04 A3039 RMK SLP288 T00700038 52021 IEM_DS3505
ZHHH,2006-12-12 16:00,ZHHH 121600Z AUTO 28004KT 1 1/4SM 06/05 A3036 RMK T00600050 IEM_DS3505
ZHHH,2006-12-12 17:00,ZHHH 121700Z AUTO 29004KT 1 1/4SM 06/05 A3036 RMK T00600050 IEM_DS3505
ZHHH,2006-12-12 18:00,ZHHH 121800Z AUTO 27002KT 7SM 07/04 A3036 RMK SLP282 T00690042 57006 IEM_DS3505
ZHHH,2006-12-12 19:00,ZHHH 121900Z AUTO 32004KT 1 1/4SM 05/04 A3036 RMK T00500040 IEM_DS3505
ZHHH,2006-12-12 20:00,ZHHH 122000Z AUTO 30002KT 1SM 05/05 A3036 RMK T00500050 IEM_DS3505
ZHHH,2006-12-12 21:00,ZHHH 122100Z AUTO 29002KT 7SM 06/04 A3036 RMK 70000 SLP283 T00550040 52001 IEM_DS3505
ZHHH,2006-12-12 22:00,ZHHH 122200Z AUTO 33002KT 1SM 04/04 A3036 RMK T00400040 IEM_DS3505
ZHHH,2006-12-12 23:00,ZHHH 122300Z AUTO 36002KT 1SM 05/04 A3039 RMK T00500040 IEM_DS3505
ZHHH,2006-12-13 00:00,ZHHH 130000Z AUTO 02002KT 6SM 06/04 A3042 RMK 70000 SLP295 T00570043 52012 IEM_DS3505
ZHHH,2006-12-13 01:00,ZHHH 130100Z AUTO 1 1/2SM 07/05 A3042 RMK T00700050 IEM_DS3505
ZHHH,2006-12-13 02:00,ZHHH 130200Z AUTO 04010KT 3SM 09/02 A3042 RMK T00900020 IEM_DS3505
ZHHH,2006-12-13 03:00,ZHHH 130300Z AUTO 04004KT 9SM 10/M01 A3042 RMK SLP299 T01041013 52004 IEM_DS3505
ZHHH,2006-12-13 04:00,ZHHH 130400Z AUTO 02010KT 6SM 12/M01 A3039 RMK T01201010 IEM_DS3505
ZHHH,2006-12-13 05:00,ZHHH 130500Z AUTO 01008KT 6SM 13/M02 A3036 RMK T01301020 IEM_DS3505
ZHHH,2006-12-13 06:00,ZHHH 130600Z AUTO 29004KT 9SM 13/M02 A3033 RMK SLP272 T01321019 57027 IEM_DS3505
ZHHH,2006-12-13 07:00,ZHHH 130700Z AUTO 04004KT 6SM 13/M03 A3033 RMK T01301030 IEM_DS3505
ZHHH,2006-12-13 08:00,ZHHH 130800Z AUTO 6SM 13/M03 A3033 RMK T01301030 IEM_DS3505
ZHHH,2006-12-13 09:00,ZHHH 130900Z AUTO 01002KT 9SM 11/M01 A3033 RMK SLP266 T01121006 57006 IEM_DS3505
ZHHH,2006-12-13 10:00,ZHHH 131000Z AUTO 00000KT 6SM 11/M01 A3033 RMK T01101010 IEM_DS3505
ZHHH,2006-12-13 11:00,ZHHH 131100Z AUTO 07004KT 6SM 11/M01 A3033 RMK T01101010 IEM_DS3505
ZHHH,2006-12-13 12:00,ZHHH 131200Z AUTO 02004KT 9SM 09/03 A3033 RMK SLP271 T00940027 52005 IEM_DS3505
ZHHH,2006-12-13 13:00,ZHHH 131300Z AUTO 6SM 09/01 A3033 RMK T00900010 IEM_DS3505
ZHHH,2006-12-13 14:00,ZHHH 131400Z AUTO 05004KT 6SM 09/01 A3033 RMK T00900010 IEM_DS3505
ZHHH,2006-12-13 15:00,ZHHH 131500Z AUTO 11002KT 9SM 09/00 A3033 RMK SLP272 T00880000 52001 IEM_DS3505
ZHHH,2006-12-13 16:00,ZHHH 131600Z AUTO 14002KT 6SM 08/02 A3033 RMK T00800020 IEM_DS3505
ZHHH,2006-12-13 17:00,ZHHH 131700Z AUTO 6SM 07/02 A3033 RMK T00700020 IEM_DS3505
ZHHH,2006-12-13 18:00,ZHHH 131800Z AUTO 24002KT 9SM 05/02 A3030 RMK SLP264 T00540024 57008 IEM_DS3505
ZHHH,2006-12-13 19:00,ZHHH 131900Z AUTO 00000KT 4SM 06/03 A3030 RMK T00600030 IEM_DS3505
ZHHH,2006-12-13 20:00,ZHHH 132000Z AUTO 25002KT 4SM 05/03 A3027 RMK T00500030 IEM_DS3505
ZHHH,2006-12-13 21:00,ZHHH 132100Z AUTO 00000KT 9SM 03/02 A3027 RMK SLP255 T00340019 57009 IEM_DS3505
ZHHH,2006-12-13 22:00,ZHHH 132200Z AUTO 17002KT 3SM 05/03 A3027 RMK T00500030 IEM_DS3505
ZHHH,2006-12-13 23:00,ZHHH 132300Z AUTO 16002KT 3SM 05/03 A3030 RMK T00500030 IEM_DS3505
ZHHH,2006-12-14 00:00,ZHHH 140000Z AUTO 16002KT 9SM 05/03 A3030 RMK SLP264 T00500030 52009 IEM_DS3505
ZHHH,2006-12-14 01:00,ZHHH 140100Z AUTO 17004KT 1 1/4SM 08/04 A3030 RMK T00800040 IEM_DS3505
ZHHH,2006-12-14 02:00,ZHHH 140200Z AUTO 19006KT 1 1/2SM 10/04 A3033 RMK T01000040 IEM_DS3505
ZHHH,2006-12-14 03:00,ZHHH 140300Z AUTO 22002KT 9SM 12/03 A3030 RMK SLP264 T01190034 54000 IEM_DS3505
ZHHH,2006-12-14 04:00,ZHHH 140400Z AUTO 24006KT 2 1/2SM 13/03 A3027 RMK T01300030 IEM_DS3505
ZHHH,2006-12-14 05:00,ZHHH 140500Z AUTO 26006KT 4SM 14/03 A3024 RMK T01400030 IEM_DS3505
ZHHH,2006-12-14 06:00,ZHHH 140600Z AUTO 27004KT 9SM 15/00 A3021 RMK SLP230 T01490000 57034 IEM_DS3505
ZHHH,2006-12-14 07:00,ZHHH 140700Z AUTO 25004KT 6SM 14/03 A3018 RMK T01400030 IEM_DS3505
ZHHH,2006-12-14 08:00,ZHHH 140800Z AUTO 21006KT 6SM 14/03 A3018 RMK T01400030 IEM_DS3505
ZHHH,2006-12-14 09:00,ZHHH 140900Z AUTO 11002KT 9SM 13/02 A3018 RMK SLP219 T01280021 57011 IEM_DS3505
ZHHH,2006-12-14 10:00,ZHHH 141000Z AUTO 15002KT 6SM 11/03 A3018 RMK T01100030 IEM_DS3505
ZHHH,2006-12-14 11:00,ZHHH 141100Z AUTO 18002KT 4SM 11/03 A3021 RMK T01100030 IEM_DS3505
ZHHH,2006-12-14 12:00,ZHHH 141200Z AUTO 00000KT 9SM 07/04 A3024 RMK SLP235 T00670035 52016 IEM_DS3505
ZHHH,2006-12-14 13:00,ZHHH 141300Z AUTO 18002KT 3SM 09/04 A3024 RMK T00900040 IEM_DS3505
ZHHH,2006-12-14 14:00,ZHHH 141400Z AUTO 15004KT 3SM 08/04 A3024 RMK T00800040 IEM_DS3505
ZHHH,2006-12-14 15:00,ZHHH 141500Z AUTO 16002KT 9SM 05/04 A3024 RMK SLP244 T00480035 52009 IEM_DS3505
ZHHH,2006-12-14 16:00,ZHHH 141600Z AUTO 00000KT 2 1/2SM 06/04 A3024 RMK T00600040 IEM_DS3505
ZHHH,2006-12-14 17:00,ZHHH 141700Z AUTO 00000KT 2SM 07/04 A3024 RMK T00700040 IEM_DS3505
ZHHH,2006-12-14 18:00,ZHHH 141800Z AUTO 09004KT 9SM 04/03 A3024 RMK SLP247 T00440032 52003 IEM_DS3505
ZHHH,2006-12-14 19:00,ZHHH 141900Z AUTO 07004KT 2SM 05/03 A3024 RMK T00500030 IEM_DS3505
ZHHH,2006-12-14 20:00,ZHHH 142000Z AUTO 10004KT 2SM 05/03 A3024 RMK T00500030 IEM_DS3505
ZHHH,2006-12-14 21:00,ZHHH 142100Z AUTO 00000KT 9SM 05/04 A3027 RMK SLP251 T00460037 52004 IEM_DS3505
ZHHH,2006-12-14 22:00,ZHHH 142200Z AUTO 09002KT 1 1/4SM 04/03 A3027 RMK T00400030 IEM_DS3505
ZHHH,2006-12-14 23:00,ZHHH 142300Z AUTO 11004KT 1 1/4SM 04/03 A3030 RMK T00400030 IEM_DS3505
ZHHH,2006-12-15 00:00,ZHHH 150000Z AUTO 10004KT 7SM 04/04 A3033 RMK SLP268 T00420036 52017 IEM_DS3505
ZHHH,2006-12-15 01:00,ZHHH 150100Z AUTO 04002KT 1SM 06/04 A3036 RMK T00600040 IEM_DS3505
ZHHH,2006-12-15 02:00,ZHHH 150200Z AUTO 1 1/4SM 08/05 A3036 RMK T00800050 IEM_DS3505
ZHHH,2006-12-15 03:00,ZHHH 150300Z AUTO 04004KT 9SM 11/05 A3039 RMK SLP287 T01080049 52019 IEM_DS3505
ZHHH,2006-12-15 04:00,ZHHH 150400Z AUTO 34006KT 2 1/2SM 13/05 A3036 RMK T01300050 IEM_DS3505
ZHHH,2006-12-15 05:00,ZHHH 150500Z AUTO 32006KT 4SM 15/06 A3030 RMK T01500060 IEM_DS3505
ZHHH,2006-12-15 06:00,ZHHH 150600Z AUTO 32006KT 11SM 15/03 A3030 RMK SLP261 T01510033 57026 IEM_DS3505
ZHHH,2006-12-15 07:00,ZHHH 150700Z AUTO 04010KT 4SM 15/02 A3030 RMK T01500020 IEM_DS3505
ZHHH,2006-12-15 08:00,ZHHH 150800Z AUTO 03010KT 5SM 15/00 A3027 RMK T01500000 IEM_DS3505
ZHHH,2006-12-15 09:00,ZHHH 150900Z AUTO 04002KT 11SM 14/M03 A3030 RMK SLP260 T01421027 57001 IEM_DS3505
ZHHH,2006-12-15 10:00,ZHHH 151000Z AUTO 07010KT 3SM 12/00 A3036 RMK T01200000 IEM_DS3505
ZHHH,2006-12-15 11:00,ZHHH 151100Z AUTO 05008KT 3SM 11/00 A3039 RMK T01100000 IEM_DS3505
ZHHH,2006-12-15 12:00,ZHHH 151200Z AUTO 04004KT 11SM 11/M04 A3042 RMK SLP305 T01091036 52045 IEM_DS3505
ZHHH,2006-12-15 13:00,ZHHH 151300Z AUTO 04008KT 3SM 10/M02 A3047 RMK T01001020 IEM_DS3505
ZHHH,2006-12-15 14:00,ZHHH 151400Z AUTO 03004KT 4SM 09/M02 A3050 RMK T00901020 IEM_DS3505
ZHHH,2006-12-15 15:00,ZHHH 151500Z AUTO 32002KT 11SM 08/M03 A3050 RMK SLP332 T00851030 52027 IEM_DS3505
ZHHH,2006-12-15 16:00,ZHHH 151600Z AUTO 32002KT 4SM 07/M01 A3050 RMK T00701010 IEM_DS3505
ZHHH,2006-12-15 17:00,ZHHH 151700Z AUTO 07004KT 4SM 08/M02 A3050 RMK T00801020 IEM_DS3505
ZHHH,2006-12-15 18:00,ZHHH 151800Z AUTO 27002KT 9SM 07/00 A3050 RMK SLP330 T00730005 57002 IEM_DS3505
ZHHH,2006-12-15 19:00,ZHHH 151900Z AUTO 21004KT 4SM 07/03 A3047 RMK T00700030 IEM_DS3505
ZHHH,2006-12-15 20:00,ZHHH 152000Z AUTO 00000KT 4SM 07/03 A3047 RMK T00700030 IEM_DS3505
ZHHH,2006-12-15 21:00,ZHHH 152100Z AUTO 27002KT 9SM 07/01 A3047 RMK SLP319 T00690010 57011 IEM_DS3505
ZHHH,2006-12-15 22:00,ZHHH 152200Z AUTO 29004KT 3SM 05/03 A3047 RMK T00500030 IEM_DS3505
ZHHH,2006-12-15 23:00,ZHHH 152300Z AUTO 00000KT 4SM 04/02 A3050 RMK T00400020 IEM_DS3505
ZHHH,2006-12-16 00:00,ZHHH 160000Z AUTO 29004KT 11SM 06/M01 A3050 RMK SLP337 T00641006 52018 IEM_DS3505
ZHHH,2006-12-16 01:00,ZHHH 160100Z AUTO 36004KT 4SM 07/02 A3053 RMK T00700020 IEM_DS3505
ZHHH,2006-12-16 02:00,ZHHH 160200Z AUTO 36006KT 6SM 10/00 A3056 RMK T01000000 IEM_DS3505
ZHHH,2006-12-16 03:00,ZHHH 160300Z AUTO 04004KT 12SM 12/M04 A3053 RMK SLP343 T01181044 52006 IEM_DS3505
ZHHH,2006-12-16 04:00,ZHHH 160400Z AUTO 08008KT 6SM 13/M03 A3050 RMK T01301030 IEM_DS3505
ZHHH,2006-12-16 05:00,ZHHH 160500Z AUTO 34006KT 6SM 13/M06 A3047 RMK T01301060 IEM_DS3505
ZHHH,2006-12-16 06:00,ZHHH 160600Z AUTO 34006KT 12SM 14/M10 A3047 RMK SLP319 T01411099 57024 IEM_DS3505
ZHHH,2006-12-16 07:00,ZHHH 160700Z AUTO 36010KT 6SM 13/M08 A3045 RMK T01301080 IEM_DS3505
ZHHH,2006-12-16 08:00,ZHHH 160800Z AUTO 36010KT 6SM 13/M09 A3045 RMK T01301090 IEM_DS3505
ZHHH,2006-12-16 09:00,ZHHH 160900Z AUTO 34002KT 9SM 12/M08 A3045 RMK SLP315 T01181076 57004 IEM_DS3505
ZHHH,2006-12-16 10:00,ZHHH 161000Z AUTO 09004KT 6SM 10/M05 A3047 RMK T01001050 IEM_DS3505
ZHHH,2006-12-16 11:00,ZHHH 161100Z AUTO 06006KT 6SM 09/M04 A3050 RMK T00901040 IEM_DS3505
ZHHH,2006-12-16 12:00,ZHHH 161200Z AUTO 07004KT 9SM 09/M05 A3050 RMK SLP331 T00871052 52016 IEM_DS3505
ZHHH,2006-12-16 13:00,ZHHH 161300Z AUTO 08010KT 6SM 05/M03 A3050 RMK T00501030 IEM_DS3505
ZHHH,2006-12-16 14:00,ZHHH 161400Z AUTO 08010KT 6SM 05/M04 A3053 RMK T00501040 IEM_DS3505
ZHHH,2006-12-16 15:00,ZHHH 161500Z AUTO 11002KT 11SM 06/M07 A3053 RMK SLP342 T00611071 52011 IEM_DS3505
ZHHH,2006-12-16 16:00,ZHHH 161600Z AUTO 09006KT 6SM 04/M05 A3053 RMK T00401050 IEM_DS3505
ZHHH,2006-12-16 17:00,ZHHH 161700Z AUTO 08004KT 6SM 03/M05 A3053 RMK T00301050 IEM_DS3505
ZHHH,2006-12-16 18:00,ZHHH 161800Z AUTO 36002KT 11SM 03/M06 A3056 RMK SLP349 T00291057 52007 IEM_DS3505
ZHHH,2006-12-16 19:00,ZHHH 161900Z AUTO 35004KT 6SM 02/M03 A3056 RMK T00201030 IEM_DS3505
ZHHH,2006-12-16 20:00,ZHHH 162000Z AUTO 04004KT 6SM 03/M06 A3056 RMK T00301060 IEM_DS3505
ZHHH,2006-12-16 21:00,ZHHH 162100Z AUTO 36002KT 11SM 02/M06 A3056 RMK SLP352 T00171057 52002 IEM_DS3505
ZHHH,2006-12-16 22:00,ZHHH 162200Z AUTO 36002KT 6SM 01/M03 A3056 RMK T00101030 IEM_DS3505
ZHHH,2006-12-16 23:00,ZHHH 162300Z AUTO 06006KT 6SM 01/M06 A3056 RMK T00101060 IEM_DS3505
ZHHH,2006-12-17 00:00,ZHHH 170000Z AUTO 07002KT 12SM 02/M05 A3059 RMK SLP360 T00251049 52008 IEM_DS3505
ZHHH,2006-12-17 01:00,ZHHH 170100Z AUTO 06004KT 6SM 03/M04 A3062 RMK T00301040 IEM_DS3505
ZHHH,2006-12-17 02:00,ZHHH 170200Z AUTO 07006KT 6SM 06/M04 A3062 RMK T00601040 IEM_DS3505
ZHHH,2006-12-17 03:00,ZHHH 170300Z AUTO 36004KT 14SM 08/M06 A3059 RMK SLP368 T00771064 52008 IEM_DS3505
ZHHH,2006-12-17 04:00,ZHHH 170400Z AUTO 11006KT 6SM 09/M07 A3056 RMK T00901070 IEM_DS3505
ZHHH,2006-12-17 05:00,ZHHH 170500Z AUTO 09008KT 6SM 10/M09 A3053 RMK T01001090 IEM_DS3505
ZHHH,2006-12-17 06:00,ZHHH 170600Z AUTO 11004KT 12SM 10/M12 A3050 RMK SLP335 T01041122 57033 IEM_DS3505
ZHHH,2006-12-17 07:00,ZHHH 170700Z AUTO 10008KT 6SM 10/M08 A3050 RMK T01001080 IEM_DS3505
ZHHH,2006-12-17 08:00,ZHHH 170800Z AUTO 11006KT 6SM 09/M08 A3050 RMK T00901080 IEM_DS3505
ZHHH,2006-12-17 09:00,ZHHH 170900Z AUTO 09002KT 12SM 09/M08 A3047 RMK SLP322 T00881078 57013 IEM_DS3505
ZHHH,2006-12-17 10:00,ZHHH 171000Z AUTO 11004KT 6SM 08/M06 A3050 RMK T00801060 IEM_DS3505
ZHHH,2006-12-17 11:00,ZHHH 171100Z AUTO 10004KT 6SM 07/M06 A3047 RMK T00701060 IEM_DS3505
ZHHH,2006-12-17 12:00,ZHHH 171200Z AUTO 09002KT 9SM 06/M06 A3047 RMK SLP324 T00631060 52002 IEM_DS3505
ZHHH,2006-12-17 13:00,ZHHH 171300Z AUTO 06008KT 4SM 04/M04 A3047 RMK T00401040 IEM_DS3505
ZHHH,2006-12-17 14:00,ZHHH 171400Z AUTO 06006KT 4SM 04/M04 A3050 RMK T00401040 IEM_DS3505
ZHHH,2006-12-17 15:00,ZHHH 171500Z AUTO 07004KT 9SM 05/M04 A3050 RMK SLP335 T00531043 52011 IEM_DS3505
ZHHH,2006-12-17 16:00,ZHHH 171600Z AUTO 08006KT 4SM 03/M03 A3050 RMK T00301030 IEM_DS3505
ZHHH,2006-12-17 17:00,ZHHH 171700Z AUTO 10006KT 4SM 03/M03 A3050 RMK T00301030 IEM_DS3505
ZHHH,2006-12-17 18:00,ZHHH 171800Z AUTO 11002KT 11SM 04/M02 A3050 RMK SLP332 T00351022 57002 IEM_DS3505
ZHHH,2006-12-17 19:00,ZHHH 171900Z AUTO 10006KT 4SM 02/M02 A3050 RMK T00201020 IEM_DS3505
ZHHH,2006-12-17 20:00,ZHHH 172000Z AUTO 10006KT 4SM 02/M02 A3047 RMK T00201020 IEM_DS3505
ZHHH,2006-12-17 21:00,ZHHH 172100Z AUTO 07002KT 11SM 04/M06 A3050 RMK SLP327 T00381057 57006 IEM_DS3505
ZHHH,2006-12-17 22:00,ZHHH 172200Z AUTO 09006KT 4SM 02/M01 A3050 RMK T00201010 IEM_DS3505
ZHHH,2006-12-17 23:00,ZHHH 172300Z AUTO 11008KT 4SM 02/M02 A3047 RMK T00201020 IEM_DS3505
ZHHH,2006-12-18 00:00,ZHHH 180000Z AUTO 11004KT 11SM 05/M04 A3050 RMK SLP325 T00481045 57002 IEM_DS3505
ZHHH,2006-12-18 01:00,ZHHH 180100Z AUTO 10006KT 3SM 03/M01 A3050 RMK T00301010 IEM_DS3505
ZHHH,2006-12-18 02:00,ZHHH 180200Z AUTO 11006KT 3SM 04/00 A3053 RMK T00400000 IEM_DS3505
ZHHH,2006-12-18 03:00,ZHHH 180300Z AUTO 14004KT 11SM 08/M07 A3047 RMK SLP325 T00851072 52001 IEM_DS3505
ZHHH,2006-12-18 04:00,ZHHH 180400Z AUTO 10006KT 4SM 09/M02 A3047 RMK T00901020 IEM_DS3505
ZHHH,2006-12-18 05:00,ZHHH 180500Z AUTO 24004KT 4SM 11/M03 A3045 RMK T01101030 IEM_DS3505
ZHHH,2006-12-18 06:00,ZHHH 180600Z AUTO 36002KT 9SM 11/M04 A3042 RMK SLP303 T01091040 57022 IEM_DS3505
ZHHH,2006-12-18 07:00,ZHHH 180700Z AUTO 6SM 11/M02 A3042 RMK T01101020 IEM_DS3505
ZHHH,2006-12-18 08:00,ZHHH 180800Z AUTO 6SM 11/M01 A3042 RMK T01101010 IEM_DS3505
ZHHH,2006-12-18 09:00,ZHHH 180900Z AUTO 18002KT 11SM 10/M03 A3042 RMK SLP303 T01031027 54000 IEM_DS3505
ZHHH,2006-12-18 10:00,ZHHH 181000Z AUTO 6SM 09/M01 A3045 RMK T00901010 IEM_DS3505
ZHHH,2006-12-18 11:00,ZHHH 181100Z AUTO 11004KT 6SM 08/00 A3045 RMK T00800000 IEM_DS3505
ZHHH,2006-12-18 12:00,ZHHH 181200Z AUTO 09002KT 9SM 07/00 A3045 RMK SLP316 T00700002 52012 IEM_DS3505
ZHHH,2006-12-18 13:00,ZHHH 181300Z AUTO 08004KT 6SM 07/00 A3047 RMK T00700000 IEM_DS3505
ZHHH,2006-12-18 14:00,ZHHH 181400Z AUTO 14004KT 6SM 07/00 A3047 RMK T00700000 IEM_DS3505
ZHHH,2006-12-18 15:00,ZHHH 181500Z AUTO 16002KT 9SM 06/01 A3047 RMK SLP320 T00630010 52005 IEM_DS3505
ZHHH,2006-12-18 16:00,ZHHH 181600Z AUTO 6SM 06/01 A3047 RMK T00600010 IEM_DS3505
ZHHH,2006-12-18 17:00,ZHHH 181700Z AUTO 04004KT 6SM 06/00 A3047 RMK T00600000 IEM_DS3505
ZHHH,2006-12-18 18:00,ZHHH 181800Z AUTO 14002KT 9SM 05/02 A3047 RMK SLP324 T00520020 52004 IEM_DS3505
ZHHH,2006-12-18 19:00,ZHHH 181900Z AUTO 3SM 05/00 A3047 RMK T00500000 IEM_DS3505
ZHHH,2006-12-18 20:00,ZHHH 182000Z AUTO 1 1/2SM 05/01 A3047 RMK T00500010 IEM_DS3505
ZHHH,2006-12-18 21:00,ZHHH 182100Z AUTO 00000KT 9SM 03/02 A3045 RMK SLP315 T00330018 57009 IEM_DS3505
ZHHH,2006-12-18 22:00,ZHHH 182200Z AUTO 04004KT 1 1/4SM 03/01 A3047 RMK T00300010 IEM_DS3505
ZHHH,2006-12-18 23:00,ZHHH 182300Z AUTO 07004KT 1 1/4SM 03/01 A3047 RMK T00300010 IEM_DS3505
ZHHH,2006-12-19 00:00,ZHHH 190000Z AUTO 04002KT 9SM 04/02 A3050 RMK SLP330 T00360015 52014 IEM_DS3505
ZHHH,2006-12-19 01:00,ZHHH 190100Z AUTO 07004KT 2SM 05/01 A3053 RMK T00500010 IEM_DS3505
ZHHH,2006-12-19 02:00,ZHHH 190200Z AUTO 12004KT 2 1/2SM 08/01 A3053 RMK T00800010 IEM_DS3505
ZHHH,2006-12-19 03:00,ZHHH 190300Z AUTO 02002KT 9SM 11/00 A3053 RMK SLP343 T01110005 52014 IEM_DS3505
ZHHH,2006-12-19 04:00,ZHHH 190400Z AUTO 30004KT 3SM 12/00 A3050 RMK T01200000 IEM_DS3505
ZHHH,2006-12-19 05:00,ZHHH 190500Z AUTO 28004KT 4SM 13/00 A3047 RMK T01300000 IEM_DS3505
ZHHH,2006-12-19 06:00,ZHHH 190600Z AUTO 07002KT 11SM 14/M03 A3047 RMK SLP320 T01381030 57023 IEM_DS3505
ZHHH,2006-12-19 07:00,ZHHH 190700Z AUTO 4SM 14/M02 A3047 RMK T01401020 IEM_DS3505
ZHHH,2006-12-19 08:00,ZHHH 190800Z AUTO 27004KT 6SM 14/M04 A3047 RMK T01401040 IEM_DS3505
ZHHH,2006-12-19 09:00,ZHHH 190900Z AUTO 09002KT 11SM 12/M01 A3047 RMK SLP319 T01211014 57001 IEM_DS3505
ZHHH,2006-12-19 10:00,ZHHH 191000Z AUTO 35002KT 3SM 10/02 A3047 RMK T01000020 IEM_DS3505
ZHHH,2006-12-19 11:00,ZHHH 191100Z AUTO 35004KT 3SM 09/00 A3047 RMK T00900000 IEM_DS3505
ZHHH,2006-12-19 12:00,ZHHH 191200Z AUTO 00000KT 7SM 06/02 A3047 RMK SLP324 T00580021 52004 IEM_DS3505
ZHHH,2006-12-19 13:00,ZHHH 191300Z AUTO 00000KT 3SM 08/00 A3047 RMK T00800000 IEM_DS3505
ZHHH,2006-12-19 14:00,ZHHH 191400Z AUTO 00000KT 3SM 06/01 A3050 RMK T00600010 IEM_DS3505
ZHHH,2006-12-19 15:00,ZHHH 191500Z AUTO 00000KT 9SM 04/02 A3050 RMK SLP334 T00450025 52011 IEM_DS3505
ZHHH,2006-12-19 17:00,ZHHH 191700Z AUTO 36004KT 2 1/2SM 06/03 A3053 RMK T00600030 IEM_DS3505
ZHHH,2006-12-19 18:00,ZHHH 191800Z AUTO 00000KT 9SM 04/02 A3053 RMK SLP338 T00430018 52004 IEM_DS3505
ZHHH,2006-12-19 19:00,ZHHH 191900Z AUTO 08004KT 2 1/2SM 05/M01 A3050 RMK T00501010 IEM_DS3505
ZHHH,2006-12-19 20:00,ZHHH 192000Z AUTO 11004KT 2SM 04/M01 A3047 RMK T00401010 IEM_DS3505
ZHHH,2006-12-19 21:00,ZHHH 192100Z AUTO 09002KT 9SM 03/01 A3047 RMK SLP318 T00290011 57020 IEM_DS3505
ZHHH,2006-12-19 22:00,ZHHH 192200Z AUTO 09006KT 1 1/2SM 03/00 A3045 RMK T00300000 IEM_DS3505
ZHHH,2006-12-19 23:00,ZHHH 192300Z AUTO 08004KT 1 1/2SM 02/00 A3047 RMK T00200000 IEM_DS3505
ZHHH,2006-12-20 00:00,ZHHH 200000Z AUTO 07002KT 9SM 04/02 A3050 RMK SLP327 T00400022 52008 IEM_DS3505
ZHHH,2006-12-20 01:00,ZHHH 200100Z AUTO 06006KT 1 1/2SM 04/00 A3050 RMK T00400000 IEM_DS3505
ZHHH,2006-12-20 02:00,ZHHH 200200Z AUTO 09004KT 2 1/2SM 08/02 A3053 RMK T00800020 IEM_DS3505
ZHHH,2006-12-20 03:00,ZHHH 200300Z AUTO 07002KT 9SM 11/02 A3050 RMK SLP335 T01080024 52009 IEM_DS3505
ZHHH,2006-12-20 04:00,ZHHH 200400Z AUTO 2SM 13/02 A3047 RMK T01300020 IEM_DS3505
ZHHH,2006-12-20 05:00,ZHHH 200500Z AUTO 26004KT 2 1/2SM 14/03 A3045 RMK T01400030 IEM_DS3505
ZHHH,2006-12-20 06:00,ZHHH 200600Z AUTO 11002KT 9SM 15/M04 A3042 RMK SLP303 T01521042 57032 IEM_DS3505
ZHHH,2006-12-20 07:00,ZHHH 200700Z AUTO 28004KT 4SM 15/01 A3042 RMK T01500010 IEM_DS3505
ZHHH,2006-12-20 08:00,ZHHH 200800Z AUTO 4SM 15/00 A3042 RMK T01500000 IEM_DS3505
ZHHH,2006-12-20 09:00,ZHHH 200900Z AUTO 25002KT 9SM 13/M02 A3042 RMK SLP298 T01291018 57005 IEM_DS3505
ZHHH,2006-12-20 10:00,ZHHH 201000Z AUTO 25004KT 6SM 11/00 A3042 RMK T01100000 IEM_DS3505
ZHHH,2006-12-20 11:00,ZHHH 201100Z AUTO 26002KT 6SM 11/00 A3045 RMK T01100000 IEM_DS3505
ZHHH,2006-12-20 12:00,ZHHH 201200Z AUTO 35002KT 7SM 06/03 A3045 RMK SLP313 T00650028 52014 IEM_DS3505
ZHHH,2006-12-20 13:00,ZHHH 201300Z AUTO 04002KT 3SM 09/01 A3045 RMK T00900010 IEM_DS3505
ZHHH,2006-12-20 14:00,ZHHH 201400Z AUTO 05004KT 4SM 09/M01 A3047 RMK T00901010 IEM_DS3505
ZHHH,2006-12-20 15:00,ZHHH 201500Z AUTO 04002KT 9SM 07/00 A3045 RMK SLP314 T00660001 52002 IEM_DS3505
ZHHH,2006-12-20 16:00,ZHHH 201600Z AUTO 01004KT 4SM 07/M01 A3045 RMK T00701010 IEM_DS3505
ZHHH,2006-12-20 17:00,ZHHH 201700Z AUTO 06004KT 6SM 07/M01 A3045 RMK T00701010 IEM_DS3505
ZHHH,2006-12-20 18:00,ZHHH 201800Z AUTO 07002KT 9SM 04/00 A3045 RMK SLP314 T00370004 54000 IEM_DS3505
ZHHH,2006-12-20 19:00,ZHHH 201900Z AUTO 05004KT 6SM 05/00 A3045 RMK T00500000 IEM_DS3505
ZHHH,2006-12-20 20:00,ZHHH 202000Z AUTO 07004KT 6SM 05/00 A3042 RMK T00500000 IEM_DS3505
ZHHH,2006-12-20 21:00,ZHHH 202100Z AUTO 07002KT 9SM 05/01 A3042 RMK SLP304 T00460006 57010 IEM_DS3505
ZHHH,2006-12-20 22:00,ZHHH 202200Z AUTO 6SM 05/00 A3042 RMK T00500000 IEM_DS3505
ZHHH,2006-12-20 23:00,ZHHH 202300Z AUTO 00000KT 4SM 04/01 A3042 RMK T00400010 IEM_DS3505
ZHHH,2006-12-21 00:00,ZHHH 210000Z AUTO 36002KT 9SM 04/02 A3045 RMK SLP309 T00350023 52004 IEM_DS3505
ZHHH,2006-12-21 01:00,ZHHH 210100Z AUTO 11004KT 2SM 05/01 A3045 RMK T00500010 IEM_DS3505
ZHHH,2006-12-21 02:00,ZHHH 210200Z AUTO 10004KT 2SM 08/03 A3047 RMK T00800030 IEM_DS3505
ZHHH,2006-12-21 03:00,ZHHH 210300Z AUTO 11002KT 9SM 12/03 A3045 RMK SLP310 T01230030 52002 IEM_DS3505
ZHHH,2006-12-21 04:00,ZHHH 210400Z AUTO 15004KT 3SM 12/03 A3042 RMK T01200030 IEM_DS3505
ZHHH,2006-12-21 05:00,ZHHH 210500Z AUTO 3SM 14/03 A3039 RMK T01400030 IEM_DS3505
ZHHH,2006-12-21 06:00,ZHHH 210600Z AUTO 25002KT 11SM 16/M02 A3036 RMK SLP283 T01601016 57027 IEM_DS3505
ZHHH,2006-12-21 07:00,ZHHH 210700Z AUTO 22004KT 3SM 16/02 A3036 RMK T01600020 IEM_DS3505
ZHHH,2006-12-21 08:00,ZHHH 210800Z AUTO 31002KT 3SM 15/01 A3033 RMK T01500010 IEM_DS3505
ZHHH,2006-12-21 09:00,ZHHH 210900Z AUTO 00000KT 11SM 13/00 A3036 RMK SLP276 T01290000 57007 IEM_DS3505
ZHHH,2006-12-21 10:00,ZHHH 211000Z AUTO 11002KT 1 1/4SM 12/01 A3036 RMK T01200010 IEM_DS3505
ZHHH,2006-12-21 11:00,ZHHH 211100Z AUTO 11004KT 1 1/4SM 11/03 A3033 RMK T01100030 IEM_DS3505
ZHHH,2006-12-21 12:00,ZHHH 211200Z AUTO 10004KT 11SM 06/03 A3033 RMK SLP273 T00640027 57004 IEM_DS3505
ZHHH,2006-12-21 13:00,ZHHH 211300Z AUTO 12006KT 1 1/2SM 10/01 A3033 RMK T01000010 IEM_DS3505
ZHHH,2006-12-21 14:00,ZHHH 211400Z AUTO 13004KT 1 1/4SM 09/02 A3033 RMK T00900020 IEM_DS3505
ZHHH,2006-12-21 15:00,ZHHH 211500Z AUTO 00000KT 11SM 05/03 A3036 RMK SLP277 T00480027 52005 IEM_DS3505
ZHHH,2006-12-21 16:00,ZHHH 211600Z AUTO 07004KT 1 1/2SM 07/01 A3036 RMK T00700010 IEM_DS3505
ZHHH,2006-12-21 17:00,ZHHH 211700Z AUTO 06004KT 1 1/4SM 07/02 A3036 RMK T00700020 IEM_DS3505
ZHHH,2006-12-21 18:00,ZHHH 211800Z AUTO 32002KT 9SM 04/03 A3036 RMK SLP279 T00430028 52002 IEM_DS3505
ZHHH,2006-12-21 19:00,ZHHH 211900Z AUTO 09006KT 1 1/4SM 06/01 A3036 RMK T00600010 IEM_DS3505
ZHHH,2006-12-21 20:00,ZHHH 212000Z AUTO 08006KT 1 1/4SM 05/01 A3033 RMK T00500010 IEM_DS3505
ZHHH,2006-12-21 21:00,ZHHH 212100Z AUTO 04002KT 9SM 04/02 A3033 RMK SLP274 T00350020 57005 IEM_DS3505
ZHHH,2006-12-21 22:00,ZHHH 212200Z AUTO 09002KT 1 1/4SM 04/01 A3033 RMK T00400010 IEM_DS3505
ZHHH,2006-12-21 23:00,ZHHH 212300Z AUTO 11004KT 1 1/4SM 04/01 A3036 RMK T00400010 IEM_DS3505
ZHHH,2006-12-22 00:00,ZHHH 220000Z AUTO 07002KT 9SM 04/03 A3036 RMK SLP285 T00390027 52010 IEM_DS3505
ZHHH,2006-12-22 01:00,ZHHH 220100Z AUTO 10006KT 1 1/2SM 05/02 A3039 RMK T00500020 IEM_DS3505
ZHHH,2006-12-22 02:00,ZHHH 220200Z AUTO 11008KT 1 1/2SM 08/03 A3039 RMK T00800030 IEM_DS3505
ZHHH,2006-12-22 03:00,ZHHH 220300Z AUTO 07002KT 7SM 12/02 A3039 RMK SLP288 T01230025 52004 IEM_DS3505
ZHHH,2006-12-22 04:00,ZHHH 220400Z AUTO 12006KT 2SM 12/03 A3036 RMK T01200030 IEM_DS3505
ZHHH,2006-12-22 05:00,ZHHH 220500Z AUTO 11006KT 2SM 14/04 A3033 RMK T01400040 IEM_DS3505
ZHHH,2006-12-22 07:00,ZHHH 220700Z AUTO 13006KT 1 1/2SM 16/02 A3030 RMK T01600020 IEM_DS3505
ZHHH,2006-12-22 08:00,ZHHH 220800Z AUTO 10004KT 1 1/2SM 16/02 A3030 RMK T01600020 IEM_DS3505
ZHHH,2006-12-22 09:00,ZHHH 220900Z AUTO 11004KT 7SM 13/00 A3027 RMK SLP252 T01280002 57009 IEM_DS3505
ZHHH,2006-12-22 10:00,ZHHH 221000Z AUTO 10006KT 2 1/2SM 13/01 A3027 RMK T01300010 IEM_DS3505
ZHHH,2006-12-22 11:00,ZHHH 221100Z AUTO 08004KT 2 1/2SM 11/02 A3030 RMK T01100020 IEM_DS3505
ZHHH,2006-12-22 12:00,ZHHH 221200Z AUTO 11004KT 7SM 07/02 A3030 RMK SLP259 T00670024 52007 IEM_DS3505
ZHHH,2006-12-22 13:00,ZHHH 221300Z AUTO 10004KT 2 1/2SM 10/01 A3030 RMK T01000010 IEM_DS3505
ZHHH,2006-12-22 14:00,ZHHH 221400Z AUTO 09008KT 2 1/2SM 09/01 A3030 RMK T00900010 IEM_DS3505
ZHHH,2006-12-22 15:00,ZHHH 221500Z AUTO 07002KT 7SM 05/03 A3030 RMK SLP259 T00480027 54000 IEM_DS3505
ZHHH,2006-12-22 16:00,ZHHH 221600Z AUTO 10008KT 2SM 08/01 A3027 RMK T00800010 IEM_DS3505
ZHHH,2006-12-22 17:00,ZHHH 221700Z AUTO 09008KT 2SM 07/01 A3027 RMK T00700010 IEM_DS3505
ZHHH,2006-12-22 18:00,ZHHH 221800Z AUTO 07002KT 7SM 04/02 A3027 RMK SLP250 T00440023 57009 IEM_DS3505
ZHHH,2006-12-22 19:00,ZHHH 221900Z AUTO 10008KT 2SM 05/01 A3027 RMK T00500010 IEM_DS3505
ZHHH,2006-12-22 20:00,ZHHH 222000Z AUTO 09010KT 2SM 05/00 A3027 RMK T00500000 IEM_DS3505
ZHHH,2006-12-22 21:00,ZHHH 222100Z AUTO 07002KT 7SM 05/02 A3027 RMK SLP247 T00470019 57003 IEM_DS3505
ZHHH,2006-12-22 22:00,ZHHH 222200Z AUTO 02004KT 1 1/2SM 04/00 A3027 RMK T00400000 IEM_DS3505
ZHHH,2006-12-22 23:00,ZHHH 222300Z AUTO 07006KT 1 1/2SM 04/00 A3027 RMK T00400000 IEM_DS3505
ZHHH,2006-12-23 00:00,ZHHH 230000Z AUTO 07004KT 9SM 05/01 A3027 RMK SLP255 T00490010 52008 IEM_DS3505
ZHHH,2006-12-23 01:00,ZHHH 230100Z AUTO 11006KT 2 1/2SM 06/00 A3030 RMK T00600000 IEM_DS3505
ZHHH,2006-12-23 02:00,ZHHH 230200Z AUTO 10008KT 3SM 08/01 A3033 RMK T00800010 IEM_DS3505
ZHHH,2006-12-23 03:00,ZHHH 230300Z AUTO 04002KT 9SM 10/03 A3030 RMK SLP262 T00950026 52007 IEM_DS3505
ZHHH,2006-12-23 04:00,ZHHH 230400Z AUTO 08008KT 6SM 11/00 A3027 RMK T01100000 IEM_DS3505
ZHHH,2006-12-23 05:00,ZHHH 230500Z AUTO 09006KT 6SM 14/01 A3024 RMK T01400010 IEM_DS3505
ZHHH,2006-12-23 06:00,ZHHH 230600Z AUTO 07002KT 9SM 16/02 A3021 RMK SLP227 T01580022 57035 IEM_DS3505
ZHHH,2006-12-23 07:00,ZHHH 230700Z AUTO 11006KT 6SM 16/03 A3018 RMK T01600030 IEM_DS3505
ZHHH,2006-12-23 08:00,ZHHH 230800Z AUTO 10006KT 6SM 15/04 A3021 RMK T01500040 IEM_DS3505
ZHHH,2006-12-23 09:00,ZHHH 230900Z AUTO 07002KT 9SM 14/03 A3021 RMK SLP224 T01410030 57003 IEM_DS3505
ZHHH,2006-12-23 10:00,ZHHH 231000Z AUTO 06006KT 4SM 12/03 A3021 RMK T01200030 IEM_DS3505
ZHHH,2006-12-23 11:00,ZHHH 231100Z AUTO 07006KT 4SM 12/03 A3021 RMK T01200030 IEM_DS3505
ZHHH,2006-12-23 12:00,ZHHH 231200Z AUTO 09002KT 9SM 07/03 A3021 RMK SLP231 T00740033 52007 IEM_DS3505
ZHHH,2006-12-23 13:00,ZHHH 231300Z AUTO 07006KT 4SM 10/02 A3021 RMK T01000020 IEM_DS3505
ZHHH,2006-12-23 14:00,ZHHH 231400Z AUTO 10006KT 4SM 09/02 A3024 RMK T00900020 IEM_DS3505
ZHHH,2006-12-23 15:00,ZHHH 231500Z AUTO 05004KT 9SM 06/04 A3021 RMK SLP233 T00550035 52002 IEM_DS3505
ZHHH,2006-12-23 16:00,ZHHH 231600Z AUTO 04006KT 4SM 09/01 A3021 RMK T00900010 IEM_DS3505
ZHHH,2006-12-23 17:00,ZHHH 231700Z AUTO 06006KT 4SM 09/00 A3021 RMK T00900000 IEM_DS3505
ZHHH,2006-12-23 18:00,ZHHH 231800Z AUTO 00000KT 9SM 04/02 A3021 RMK SLP231 T00410023 57002 IEM_DS3505
ZHHH,2006-12-23 19:00,ZHHH 231900Z AUTO 06002KT 3SM 06/02 A3021 RMK T00600020 IEM_DS3505
ZHHH,2006-12-23 20:00,ZHHH 232000Z AUTO 35004KT 3SM 04/02 A3021 RMK T00400020 IEM_DS3505
ZHHH,2006-12-23 21:00,ZHHH 232100Z AUTO 07002KT 9SM 06/02 A3018 RMK SLP225 T00570022 57006 IEM_DS3505
ZHHH,2006-12-23 22:00,ZHHH 232200Z AUTO 00000KT 2 1/2SM 05/02 A3021 RMK T00500020 IEM_DS3505
ZHHH,2006-12-23 23:00,ZHHH 232300Z AUTO 07002KT 1 1/4SM 05/03 A3021 RMK T00500030 IEM_DS3505
ZHHH,2006-12-24 00:00,ZHHH 240000Z AUTO 04002KT 9SM 05/02 A3021 RMK SLP233 T00470021 52008 IEM_DS3505
ZHHH,2006-12-24 01:00,ZHHH 240100Z AUTO 05004KT 1SM 05/03 A3024 RMK T00500030 IEM_DS3505
ZHHH,2006-12-24 02:00,ZHHH 240200Z AUTO 34004KT 1SM 08/05 A3024 RMK T00800050 IEM_DS3505
ZHHH,2006-12-24 03:00,ZHHH 240300Z AUTO 04002KT 9SM 10/04 A3024 RMK SLP237 T01000035 52004 IEM_DS3505
ZHHH,2006-12-24 04:00,ZHHH 240400Z AUTO 28004KT 1SM 11/06 A3021 RMK T01100060 IEM_DS3505
ZHHH,2006-12-24 05:00,ZHHH 240500Z AUTO 28004KT 1SM 12/06 A3018 RMK T01200060 IEM_DS3505
ZHHH,2006-12-24 06:00,ZHHH 240600Z AUTO 34002KT 7SM 14/02 A3015 RMK SLP209 T01410024 57028 IEM_DS3505
ZHHH,2006-12-24 07:00,ZHHH 240700Z AUTO 29004KT 1 1/2SM 14/02 A3015 RMK T01400020 IEM_DS3505
ZHHH,2006-12-24 08:00,ZHHH 240800Z AUTO 2SM 14/02 A3015 RMK T01400020 IEM_DS3505
ZHHH,2006-12-24 09:00,ZHHH 240900Z AUTO 30002KT 7SM 12/03 A3015 RMK SLP209 T01250026 54000 IEM_DS3505
ZHHH,2006-12-24 10:00,ZHHH 241000Z AUTO 00000KT 1 1/2SM 10/04 A3015 RMK T01000040 IEM_DS3505
ZHHH,2006-12-24 11:00,ZHHH 241100Z AUTO 06004KT 1SM 10/04 A3018 RMK T01000040 IEM_DS3505
ZHHH,2006-12-24 12:00,ZHHH 241200Z AUTO 06004KT 7SM 06/04 A3018 RMK SLP218 T00650042 52009 IEM_DS3505
ZHHH,2006-12-24 13:00,ZHHH 241300Z AUTO 07006KT 1SM 08/03 A3018 RMK T00800030 IEM_DS3505
ZHHH,2006-12-24 14:00,ZHHH 241400Z AUTO 07008KT 1SM 07/03 A3018 RMK T00700030 IEM_DS3505
ZHHH,2006-12-24 15:00,ZHHH 241500Z AUTO 07004KT 7SM 08/01 A3018 RMK SLP223 T00810010 52005 IEM_DS3505
ZHHH,2006-12-24 16:00,ZHHH 241600Z AUTO 07008KT 1SM 06/02 A3018 RMK T00600020 IEM_DS3505
ZHHH,2006-12-24 17:00,ZHHH 241700Z AUTO 04004KT 1SM 06/01 A3018 RMK T00600010 IEM_DS3505
ZHHH,2006-12-24 18:00,ZHHH 241800Z AUTO 07002KT 7SM 06/01 A3018 RMK SLP220 T00570009 57003 IEM_DS3505
ZHHH,2006-12-24 19:00,ZHHH 241900Z AUTO 13002KT 1/2SM 05/02 A3018 RMK T00500020 IEM_DS3505
ZHHH,2006-12-24 20:00,ZHHH 242000Z AUTO 10004KT 1/2SM 04/02 A3018 RMK T00400020 IEM_DS3505
ZHHH,2006-12-24 21:00,ZHHH 242100Z AUTO 09002KT 6SM 06/01 A3015 RMK SLP215 T00550011 57005 IEM_DS3505
ZHHH,2006-12-24 22:00,ZHHH 242200Z AUTO 10004KT 3/8SM 03/02 A3018 RMK T00300020 IEM_DS3505
ZHHH,2006-12-24 23:00,ZHHH 242300Z AUTO 08006KT 3/8SM 03/02 A3018 RMK T00300020 IEM_DS3505
ZHHH,2006-12-25 00:00,ZHHH 250000Z AUTO 07002KT 6SM 05/01 A3021 RMK SLP226 T00470012 52011 IEM_DS3505
ZHHH,2006-12-25 01:00,ZHHH 250100Z AUTO 07004KT 1/2SM 03/02 A3021 RMK T00300020 IEM_DS3505
ZHHH,2006-12-25 02:00,ZHHH 250200Z AUTO 10008KT 1SM 06/04 A3021 RMK T00600040 IEM_DS3505
ZHHH,2006-12-25 03:00,ZHHH 250300Z AUTO 04002KT 6SM 10/04 A3021 RMK SLP225 T01030040 57001 IEM_DS3505
ZHHH,2006-12-25 04:00,ZHHH 250400Z AUTO 10006KT 1SM 11/05 A3015 RMK T01100050 IEM_DS3505
ZHHH,2006-12-25 05:00,ZHHH 250500Z AUTO 11004KT 1SM 13/06 A3012 RMK T01300060 IEM_DS3505
ZHHH,2006-12-25 06:00,ZHHH 250600Z AUTO 11004KT 7SM 16/M00 A3009 RMK SLP191 T01581004 57034 IEM_DS3505
ZHHH,2006-12-25 07:00,ZHHH 250700Z AUTO 11006KT 1 1/2SM 15/03 A3009 RMK T01500030 IEM_DS3505
ZHHH,2006-12-25 08:00,ZHHH 250800Z AUTO 10006KT 1 1/2SM 15/05 A3009 RMK T01500050 IEM_DS3505
ZHHH,2006-12-25 09:00,ZHHH 250900Z AUTO 09002KT 7SM 14/02 A3009 RMK SLP185 T01370023 57006 IEM_DS3505
ZHHH,2006-12-25 10:00,ZHHH 251000Z AUTO 09006KT 1 1/4SM 11/04 A3009 RMK T01100040 IEM_DS3505
ZHHH,2006-12-25 11:00,ZHHH 251100Z AUTO 10004KT 1 1/4SM 11/03 A3012 RMK T01100030 IEM_DS3505
ZHHH,2006-12-25 12:00,ZHHH 251200Z AUTO 00000KT 6SM 07/04 A3015 RMK SLP205 T00720040 52020 IEM_DS3505
ZHHH,2006-12-25 13:00,ZHHH 251300Z AUTO 10006KT 1 1/4SM 09/03 A3012 RMK T00900030 IEM_DS3505
ZHHH,2006-12-25 14:00,ZHHH 251400Z AUTO 10010KT 1 1/4SM 08/03 A3012 RMK T00800030 IEM_DS3505
ZHHH,2006-12-25 15:00,ZHHH 251500Z AUTO 09002KT 7SM 07/03 A3012 RMK SLP198 T00660027 57007 IEM_DS3505
ZHHH,2006-12-25 16:00,ZHHH 251600Z AUTO 10010KT 1 1/4SM 07/03 A3009 RMK T00700030 IEM_DS3505
ZHHH,2006-12-25 17:00,ZHHH 251700Z AUTO 07004KT 1 1/4SM 07/02 A3012 RMK T00700020 IEM_DS3505
ZHHH,2006-12-25 18:00,ZHHH 251800Z AUTO 09002KT 9SM 06/03 A3012 RMK SLP204 T00600032 52006 IEM_DS3505
ZHHH,2006-12-25 19:00,ZHHH 251900Z AUTO 07008KT 1 1/4SM 05/02 A3012 RMK T00500020 IEM_DS3505
ZHHH,2006-12-25 20:00,ZHHH 252000Z AUTO 11008KT 1SM 06/03 A3012 RMK T00600030 IEM_DS3505
ZHHH,2006-12-25 21:00,ZHHH 252100Z AUTO 04002KT 9SM 05/03 A3012 RMK SLP197 T00520029 57007 IEM_DS3505
ZHHH,2006-12-25 22:00,ZHHH 252200Z AUTO 08004KT 1SM 05/02 A3012 RMK T00500020 IEM_DS3505
ZHHH,2006-12-25 23:00,ZHHH 252300Z AUTO 11006KT 1SM 04/02 A3012 RMK T00400020 IEM_DS3505
ZHHH,2006-12-26 00:00,ZHHH 260000Z AUTO 07002KT 7SM 06/03 A3012 RMK SLP204 T00550030 52007 IEM_DS3505
ZHHH,2006-12-26 01:00,ZHHH 260100Z AUTO 09008KT 1 1/4SM 05/02 A3015 RMK T00500020 IEM_DS3505
ZHHH,2006-12-26 02:00,ZHHH 260200Z AUTO 10006KT 1 1/4SM 08/03 A3018 RMK T00800030 IEM_DS3505
ZHHH,2006-12-26 03:00,ZHHH 260300Z AUTO 34002KT 7SM 11/04 A3018 RMK SLP219 T01120037 52015 IEM_DS3505
ZHHH,2006-12-26 04:00,ZHHH 260400Z AUTO 2SM 12/03 A3015 RMK T01200030 IEM_DS3505
ZHHH,2006-12-26 05:00,ZHHH 260500Z AUTO 11004KT 1 1/2SM 13/04 A3012 RMK T01300040 IEM_DS3505
ZHHH,2006-12-26 06:00,ZHHH 260600Z AUTO 27004KT 7SM 15/04 A3009 RMK SLP192 T01490043 57027 IEM_DS3505
ZHHH,2006-12-26 07:00,ZHHH 260700Z AUTO 2SM 15/04 A3009 RMK T01500040 IEM_DS3505
ZHHH,2006-12-26 08:00,ZHHH 260800Z AUTO 28002KT 2SM 14/04 A3009 RMK T01400040 IEM_DS3505
ZHHH,2006-12-26 09:00,ZHHH 260900Z AUTO 34002KT 7SM 13/04 A3012 RMK SLP196 T01280043 52004 IEM_DS3505
ZHHH,2006-12-26 10:00,ZHHH 261000Z AUTO 32002KT 1 1/4SM 11/05 A3012 RMK T01100050 IEM_DS3505
ZHHH,2006-12-26 11:00,ZHHH 261100Z AUTO 34004KT 1 1/4SM 11/05 A3015 RMK T01100050 IEM_DS3505
ZHHH,2006-12-26 12:00,ZHHH 261200Z AUTO 27002KT 7SM 09/04 A3018 RMK SLP217 T00880038 52021 IEM_DS3505
ZHHH,2006-12-26 13:00,ZHHH 261300Z AUTO 02006KT 1 1/4SM 09/04 A3018 RMK T00900040 IEM_DS3505
ZHHH,2006-12-26 14:00,ZHHH 261400Z AUTO 36004KT 1 1/4SM 08/04 A3021 RMK T00800040 IEM_DS3505
ZHHH,2006-12-26 15:00,ZHHH 261500Z AUTO 32002KT 7SM 08/04 A3021 RMK SLP228 T00770037 52011 IEM_DS3505
ZHHH,2006-12-26 16:00,ZHHH 261600Z AUTO 02004KT 1 1/4SM 07/03 A3021 RMK T00700030 IEM_DS3505
ZHHH,2006-12-26 17:00,ZHHH 261700Z AUTO 04006KT 1 1/4SM 06/03 A3018 RMK T00600030 IEM_DS3505
ZHHH,2006-12-26 18:00,ZHHH 261800Z AUTO 02004KT 7SM 07/02 A3021 RMK SLP227 T00700019 57001 IEM_DS3505
ZHHH,2006-12-26 19:00,ZHHH 261900Z AUTO 04010KT 1SM 04/03 A3021 RMK T00400030 IEM_DS3505
ZHHH,2006-12-26 20:00,ZHHH 262000Z AUTO 04010KT 1SM 04/03 A3021 RMK T00400030 IEM_DS3505
ZHHH,2006-12-26 21:00,ZHHH 262100Z AUTO 04006KT 7SM 05/03 A3021 RMK SLP234 T00460026 52007 IEM_DS3505
ZHHH,2006-12-26 22:00,ZHHH 262200Z AUTO 04010KT 1SM 04/03 A3024 RMK T00400030 IEM_DS3505
ZHHH,2006-12-26 23:00,ZHHH 262300Z AUTO 04012KT 1SM 04/03 A3027 RMK T00400030 IEM_DS3505
ZHHH,2006-12-27 00:00,ZHHH 270000Z AUTO 04008KT 6SM 04/02 A3027 RMK SLP254 T00450020 52020 IEM_DS3505
ZHHH,2006-12-27 01:00,ZHHH 270100Z AUTO 04012KT 1SM 04/03 A3033 RMK T00400030 IEM_DS3505
ZHHH,2006-12-27 02:00,ZHHH 270200Z AUTO 03012KT 1SM 05/03 A3033 RMK T00500030 IEM_DS3505
ZHHH,2006-12-27 03:00,ZHHH 270300Z AUTO 04004KT 7SM 05/02 A3033 RMK SLP275 T00520019 52021 IEM_DS3505
ZHHH,2006-12-27 04:00,ZHHH 270400Z AUTO 03010KT 1SM 05/02 A3030 RMK T00500020 IEM_DS3505
ZHHH,2006-12-27 05:00,ZHHH 270500Z AUTO 03012KT 1 1/4SM 06/02 A3030 RMK T00600020 IEM_DS3505
ZHHH,2006-12-27 06:00,ZHHH 270600Z AUTO 04006KT 7SM 06/01 A3030 RMK SLP256 T00600011 57019 IEM_DS3505
ZHHH,2006-12-27 07:00,ZHHH 270700Z AUTO 03010KT 1SM 05/02 A3030 RMK T00500020 IEM_DS3505
ZHHH,2006-12-27 08:00,ZHHH 270800Z AUTO 03012KT 1SM 05/02 A3030 RMK T00500020 IEM_DS3505
ZHHH,2006-12-27 09:00,ZHHH 270900Z AUTO 02006KT 7SM 06/01 A3033 RMK SLP268 T00570011 52012 IEM_DS3505
ZHHH,2006-12-27 10:00,ZHHH 271000Z AUTO 03008KT 1SM 05/02 A3033 RMK T00500020 IEM_DS3505
ZHHH,2006-12-27 11:00,ZHHH 271100Z AUTO 03010KT 1SM 05/03 A3033 RMK T00500030 IEM_DS3505
ZHHH,2006-12-27 12:00,ZHHH 271200Z AUTO 02004KT 7SM 06/02 A3036 RMK SLP287 T00550018 52018 IEM_DS3505
ZHHH,2006-12-27 13:00,ZHHH 271300Z AUTO 02008KT 1SM 05/03 A3039 RMK T00500030 IEM_DS3505
ZHHH,2006-12-27 14:00,ZHHH 271400Z AUTO 01008KT 1 1/4SM 05/03 A3042 RMK T00500030 IEM_DS3505
ZHHH,2006-12-27 15:00,ZHHH 271500Z AUTO 02004KT 9SM 06/02 A3042 RMK SLP305 T00560021 52018 IEM_DS3505
ZHHH,2006-12-27 16:00,ZHHH 271600Z AUTO 01008KT 1 1/4SM 04/03 A3042 RMK T00400030 IEM_DS3505
ZHHH,2006-12-27 17:00,ZHHH 271700Z AUTO 01008KT 1SM 04/03 A3045 RMK T00400030 IEM_DS3505
ZHHH,2006-12-27 18:00,ZHHH 271800Z AUTO 02006KT 9SM 05/02 A3045 RMK SLP312 T00480018 52007 IEM_DS3505
ZHHH,2006-12-27 19:00,ZHHH 271900Z AUTO 03008KT 1SM 04/02 A3045 RMK T00400020 IEM_DS3505
ZHHH,2006-12-27 20:00,ZHHH 272000Z AUTO 02008KT 1SM 04/02 A3047 RMK T00400020 IEM_DS3505
ZHHH,2006-12-27 21:00,ZHHH 272100Z AUTO 04004KT 9SM 04/01 A3047 RMK SLP322 T00420014 52010 IEM_DS3505
ZHHH,2006-12-27 22:00,ZHHH 272200Z AUTO 02006KT 1SM 04/02 A3047 RMK T00400020 IEM_DS3505
ZHHH,2006-12-27 23:00,ZHHH 272300Z AUTO 36004KT 1SM 03/01 A3050 RMK T00300010 IEM_DS3505
ZHHH,2006-12-28 00:00,ZHHH 280000Z AUTO 34004KT 7SM 04/00 A3053 RMK SLP339 T00410004 52017 IEM_DS3505
ZHHH,2006-12-28 01:00,ZHHH 280100Z AUTO 01004KT 1 1/4SM 03/01 A3056 RMK T00300010 IEM_DS3505
ZHHH,2006-12-28 02:00,ZHHH 280200Z AUTO 03010KT 1 1/2SM 05/01 A3056 RMK T00500010 IEM_DS3505
ZHHH,2006-12-28 03:00,ZHHH 280300Z AUTO 02004KT 7SM 06/M00 A3056 RMK SLP351 T00581001 52012 IEM_DS3505
ZHHH,2006-12-28 04:00,ZHHH 280400Z AUTO 02008KT 2SM 07/01 A3053 RMK T00700010 IEM_DS3505
ZHHH,2006-12-28 05:00,ZHHH 280500Z AUTO 03006KT 2 1/2SM 08/01 A3050 RMK T00800010 IEM_DS3505
ZHHH,2006-12-28 06:00,ZHHH 280600Z AUTO 07002KT 11SM 08/M00 A3050 RMK SLP329 T00811001 57022 IEM_DS3505
ZHHH,2006-12-28 07:00,ZHHH 280700Z AUTO 2 1/2SM 08/01 A3050 RMK T00800010 IEM_DS3505
ZHHH,2006-12-28 08:00,ZHHH 280800Z AUTO 07006KT 2 1/2SM 08/01 A3050 RMK T00800010 IEM_DS3505
ZHHH,2006-12-28 09:00,ZHHH 280900Z AUTO 09002KT 11SM 08/00 A3050 RMK SLP327 T00750000 57002 IEM_DS3505
ZHHH,2006-12-28 10:00,ZHHH 281000Z AUTO 09004KT 2SM 07/01 A3050 RMK T00700010 IEM_DS3505
ZHHH,2006-12-28 11:00,ZHHH 281100Z AUTO 04006KT 1 1/2SM 05/00 A3053 RMK T00500000 IEM_DS3505
ZHHH,2006-12-28 12:00,ZHHH 281200Z AUTO 02002KT 9SM 05/00 A3053 RMK SLP341 T00530005 52014 IEM_DS3505
ZHHH,2006-12-28 13:00,ZHHH 281300Z AUTO 05008KT 1 1/2SM 03/00 A3053 RMK T00300000 IEM_DS3505
ZHHH,2006-12-28 14:00,ZHHH 281400Z AUTO 06008KT 1 1/2SM 03/00 A3053 RMK T00300000 IEM_DS3505
ZHHH,2006-12-28 15:00,ZHHH 281500Z AUTO 02002KT 9SM 03/M01 A3053 RMK SLP347 T00341008 52006 IEM_DS3505
ZHHH,2006-12-28 16:00,ZHHH 281600Z AUTO 1 1/2SM 02/M01 A3053 RMK T00201010 IEM_DS3505
ZHHH,2006-12-28 17:00,ZHHH 281700Z AUTO 00000KT 1 1/2SM 02/M01 A3053 RMK T00201010 IEM_DS3505
ZHHH,2006-12-28 18:00,ZHHH 281800Z AUTO 04002KT 9SM 03/M01 A3053 RMK SLP341 T00311013 57006 IEM_DS3505
ZHHH,2006-12-28 19:00,ZHHH 281900Z AUTO 06006KT 1 1/2SM 02/M01 A3053 RMK T00201010 IEM_DS3505
ZHHH,2006-12-28 20:00,ZHHH 282000Z AUTO 05004KT 1 1/2SM 02/00 A3053 RMK T00200000 IEM_DS3505
ZHHH,2006-12-28 21:00,ZHHH 282100Z AUTO 07002KT 9SM 03/M01 A3053 RMK SLP338 T00271009 57003 IEM_DS3505
ZHHH,2006-12-28 22:00,ZHHH 282200Z AUTO 08006KT 1 1/2SM 02/00 A3053 RMK T00200000 IEM_DS3505
ZHHH,2006-12-28 23:00,ZHHH 282300Z AUTO 08006KT 1 1/2SM 02/00 A3053 RMK T00200000 IEM_DS3505
ZHHH,2006-12-29 00:00,ZHHH 290000Z AUTO 09002KT 9SM 02/M00 A3053 RMK SLP343 T00241002 52005 IEM_DS3505
ZHHH,2006-12-29 01:00,ZHHH 290100Z AUTO 10008KT 1 1/2SM 03/00 A3056 RMK T00300000 IEM_DS3505
ZHHH,2006-12-29 02:00,ZHHH 290200Z AUTO 11008KT 1 1/2SM 04/01 A3056 RMK T00400010 IEM_DS3505
ZHHH,2006-12-29 03:00,ZHHH 290300Z AUTO 09004KT 9SM 07/M03 A3053 RMK SLP341 T00681032 57002 IEM_DS3505
ZHHH,2006-12-29 04:00,ZHHH 290400Z AUTO 12006KT 1 1/2SM 06/01 A3050 RMK T00600010 IEM_DS3505
ZHHH,2006-12-29 05:00,ZHHH 290500Z AUTO 14006KT 1 1/2SM 07/00 A3045 RMK T00700000 IEM_DS3505
ZHHH,2006-12-29 06:00,ZHHH 290600Z AUTO 09002KT 9SM 08/M04 A3042 RMK SLP299 T00851037 57041 IEM_DS3505
ZHHH,2006-12-29 07:00,ZHHH 290700Z AUTO 13006KT 2SM 08/00 A3039 RMK T00800000 IEM_DS3505
ZHHH,2006-12-29 08:00,ZHHH 290800Z AUTO 11006KT 2SM 08/M01 A3039 RMK T00801010 IEM_DS3505
ZHHH,2006-12-29 09:00,ZHHH 290900Z AUTO 09004KT 9SM 08/M07 A3039 RMK SLP287 T00801069 57013 IEM_DS3505
ZHHH,2006-12-29 10:00,ZHHH 291000Z AUTO 09006KT 2SM 06/M02 A3039 RMK T00601020 IEM_DS3505
ZHHH,2006-12-29 11:00,ZHHH 291100Z AUTO 09006KT 2SM 06/M03 A3039 RMK T00601030 IEM_DS3505
ZHHH,2006-12-29 12:00,ZHHH 291200Z AUTO 04002KT 9SM 06/M03 A3039 RMK SLP290 T00601031 52003 IEM_DS3505
ZHHH,2006-12-29 13:00,ZHHH 291300Z AUTO 10006KT 2 1/2SM 05/M03 A3039 RMK T00501030 IEM_DS3505
ZHHH,2006-12-29 14:00,ZHHH 291400Z AUTO 10006KT 2 1/2SM 05/M02 A3039 RMK T00501020 IEM_DS3505
ZHHH,2006-12-29 15:00,ZHHH 291500Z AUTO 08004KT 9SM 06/M05 A3039 RMK SLP291 T00631051 52002 IEM_DS3505
ZHHH,2006-12-29 16:00,ZHHH 291600Z AUTO 09004KT 3SM 05/M01 A3039 RMK T00501010 IEM_DS3505
ZHHH,2006-12-29 18:00,ZHHH 291800Z AUTO 02002KT 9SM 06/M01 A3039 RMK SLP285 T00571010 57006 IEM_DS3505
ZHHH,2006-12-29 19:00,ZHHH 291900Z AUTO 09006KT 3SM 05/M01 A3039 RMK T00501010 IEM_DS3505
ZHHH,2006-12-29 20:00,ZHHH 292000Z AUTO 04004KT 4SM 05/M02 A3039 RMK T00501020 IEM_DS3505
ZHHH,2006-12-29 21:00,ZHHH 292100Z AUTO 07004KT 9SM 06/M01 A3036 RMK SLP283 T00551014 57002 IEM_DS3505
ZHHH,2006-12-29 22:00,ZHHH 292200Z AUTO 09008KT 3SM 04/M01 A3036 RMK T00401010 IEM_DS3505
ZHHH,2006-12-29 23:00,ZHHH 292300Z AUTO 03004KT 2 1/2SM 04/00 A3039 RMK T00400000 IEM_DS3505
ZHHH,2006-12-30 00:00,ZHHH 300000Z AUTO 04002KT 9SM 05/00 A3039 RMK 60002 70002 SLP293 T00480004 52009 IEM_DS3505
ZHHH,2006-12-30 01:00,ZHHH 300100Z AUTO 2 1/2SM 04/00 A3042 RMK T00400000 IEM_DS3505
ZHHH,2006-12-30 02:00,ZHHH 300200Z AUTO 36002KT 2 1/2SM 04/01 A3042 RMK T00400010 IEM_DS3505
ZHHH,2006-12-30 03:00,ZHHH 300300Z AUTO 04002KT 9SM 05/M01 A3042 RMK SLP299 T00481006 52006 IEM_DS3505
ZHHH,2006-12-30 04:00,ZHHH 300400Z AUTO 03004KT 1 1/2SM 04/02 A3039 RMK T00400020 IEM_DS3505
ZHHH,2006-12-30 05:00,ZHHH 300500Z AUTO 06006KT 2SM 04/02 A3036 RMK T00400020 IEM_DS3505
ZHHH,2006-12-30 06:00,ZHHH 300600Z AUTO 04002KT 9SM 05/01 A3036 RMK 60002 SLP278 T00480011 57020 IEM_DS3505
ZHHH,2006-12-30 07:00,ZHHH 300700Z AUTO 02004KT 1 1/2SM 05/03 A3036 RMK T00500030 IEM_DS3505
ZHHH,2006-12-30 08:00,ZHHH 300800Z AUTO 36004KT 1 1/4SM 05/03 A3036 RMK T00500030 IEM_DS3505
ZHHH,2006-12-30 09:00,ZHHH 300900Z AUTO 02004KT 9SM 05/02 A3039 RMK SLP291 T00510018 52012 IEM_DS3505
ZHHH,2006-12-30 10:00,ZHHH 301000Z AUTO 05004KT 1 1/2SM 04/03 A3042 RMK T00400030 IEM_DS3505
ZHHH,2006-12-30 11:00,ZHHH 301100Z AUTO 05006KT 2SM 04/02 A3042 RMK T00400020 IEM_DS3505
ZHHH,2006-12-30 12:00,ZHHH 301200Z AUTO 07002KT 9SM 05/02 A3042 RMK SLP304 T00480020 52013 IEM_DS3505
ZHHH,2006-12-30 13:00,ZHHH 301300Z AUTO 04006KT 2SM 04/02 A3045 RMK T00400020 IEM_DS3505
ZHHH,2006-12-30 14:00,ZHHH 301400Z AUTO 04004KT 2SM 04/02 A3045 RMK T00400020 IEM_DS3505
ZHHH,2006-12-30 15:00,ZHHH 301500Z AUTO 04004KT 9SM 04/02 A3045 RMK SLP307 T00430015 52003 IEM_DS3505
ZHHH,2006-12-30 18:00,ZHHH 301800Z AUTO 36002KT 9SM 04/01 RMK SLP303 T00390014 57004 IEM_DS3505
ZHHH,2006-12-30 21:00,ZHHH 302100Z AUTO 35004KT 1SM 03/02 A3042 RMK T00300020 IEM_DS3505
ZHHH,2006-12-30 22:00,ZHHH 302200Z AUTO 04002KT 1SM 03/02 A3042 RMK T00300020 IEM_DS3505
ZHHH,2006-12-30 23:00,ZHHH 302300Z AUTO 09012KT 2SM 03/02 A3033 RMK T00300020 IEM_DS3505
