station,valid,metar
ZHHH,2001-01-01 00:00,ZHHH 010000Z AUTO 29004KT 1 1/4SM 05/05 A3015 RMK SLP213 T00520050 52009 IEM_DS3505
ZHHH,2001-01-01 01:00,ZHHH 010100Z AUTO 1SM 05/05 A3015 RMK T00500050 IEM_DS3505
ZHHH,2001-01-01 02:00,ZHHH 010200Z AUTO 1 1/2SM 06/05 A3018 RMK T00600050 IEM_DS3505
ZHHH,2001-01-01 03:00,ZHHH 010300Z AUTO 18002KT 5SM 06/05 A3015 RMK SLP218 T00650047 52005 IEM_DS3505
ZHHH,2001-01-01 04:00,ZHHH 010400Z AUTO 1 1/2SM 06/05 A3015 RMK T00600050 IEM_DS3505
ZHHH,2001-01-01 05:00,ZHHH 010500Z AUTO 1 1/2SM 07/05 A3012 RMK T00700050 IEM_DS3505
ZHHH,2001-01-01 06:00,ZHHH 010600Z AUTO 14002KT 7SM 08/06 A3006 RMK SLP187 T00750055 57031 IEM_DS3505
ZHHH,2001-01-01 07:00,ZHHH 010700Z AUTO 1 1/2SM 07/05 A3003 RMK T00700050 IEM_DS3505
ZHHH,2001-01-01 08:00,ZHHH 010800Z AUTO 00000KT 1 1/2SM 07/05 A3006 RMK T00700050 IEM_DS3505
ZHHH,2001-01-01 09:00,ZHHH 010900Z AUTO 32002KT 6SM 08/06 A3009 RMK SLP192 T00770058 52005 IEM_DS3505
ZHHH,2001-01-01 10:00,ZHHH 011000Z AUTO 1 1/2SM 07/06 A3009 RMK T00700060 IEM_DS3505
ZHHH,2001-01-01 11:00,ZHHH 011100Z AUTO 34004KT 1 1/2SM 07/06 A3009 RMK T00700060 IEM_DS3505
ZHHH,2001-01-01 12:00,ZHHH 011200Z AUTO 11002KT 6SM 08/06 A3009 RMK SLP199 T00750060 52007 IEM_DS3505
ZHHH,2001-01-01 13:00,ZHHH 011300Z AUTO 29002KT 1 1/2SM 07/05 A3012 RMK T00700050 IEM_DS3505
ZHHH,2001-01-01 14:00,ZHHH 011400Z AUTO 1 1/4SM 07/06 A3012 RMK T00700060 IEM_DS3505
ZHHH,2001-01-01 15:00,ZHHH 011500Z AUTO 00000KT 2 1/2SM 07/06 A3012 RMK SLP204 T00740058 52005 IEM_DS3505
ZHHH,2001-01-01 16:00,ZHHH 011600Z AUTO 16002KT 1 1/4SM 07/06 A3012 RMK T00700060 IEM_DS3505
ZHHH,2001-01-01 17:00,ZHHH 011700Z AUTO 35008KT 1SM 07/06 A3015 RMK T00700060 IEM_DS3505
ZHHH,2001-01-01 18:00,ZHHH 011800Z AUTO 36002KT 6SM 07/06 A3015 RMK 60003 SLP212 T00720063 52008 IEM_DS3505
ZHHH,2001-01-01 19:00,ZHHH 011900Z AUTO 01002KT 1SM 06/06 A3012 RMK T00600060 IEM_DS3505
ZHHH,2001-01-01 20:00,ZHHH 012000Z AUTO 19002KT 1SM 06/05 A3012 RMK T00600050 IEM_DS3505
ZHHH,2001-01-01 21:00,ZHHH 012100Z AUTO 25002KT 6SM 07/06 A3015 RMK 70003 SLP211 T00670059 57001 IEM_DS3505
ZHHH,2001-01-01 22:00,ZHHH 012200Z AUTO 35002KT 1SM 06/05 A3015 RMK T00600050 IEM_DS3505
ZHHH,2001-01-01 23:00,ZHHH 012300Z AUTO 00000KT 1SM 06/05 A3015 RMK T00600050 IEM_DS3505
ZHHH,2001-01-02 00:00,ZHHH 020000Z AUTO 00000KT 4SM 07/06 A3015 RMK 70003 SLP218 T00660058 52007 IEM_DS3505
ZHHH,2001-01-02 01:00,ZHHH 020100Z AUTO 00000KT 1/2SM 06/06 A3018 RMK T00600060 IEM_DS3505
ZHHH,2001-01-02 02:00,ZHHH 020200Z AUTO 1SM 07/06 A3018 RMK T00700060 IEM_DS3505
ZHHH,2001-01-02 03:00,ZHHH 020300Z AUTO 00000KT 6SM 08/06 A3021 RMK SLP228 T00780064 52010 IEM_DS3505
ZHHH,2001-01-02 04:00,ZHHH 020400Z AUTO 1 1/4SM 09/05 A3018 RMK T00900050 IEM_DS3505
ZHHH,2001-01-02 05:00,ZHHH 020500Z AUTO 1 1/4SM 09/06 A3015 RMK T00900060 IEM_DS3505
ZHHH,2001-01-02 06:00,ZHHH 020600Z AUTO 07002KT 7SM 09/05 A3012 RMK 60003 SLP208 T00900048 57020 IEM_DS3505
ZHHH,2001-01-02 07:00,ZHHH 020700Z AUTO 1 1/4SM 09/05 A3015 RMK T00900050 IEM_DS3505
ZHHH,2001-01-02 08:00,ZHHH 020800Z AUTO 00000KT 1 1/4SM 09/05 A3015 RMK T00900050 IEM_DS3505
ZHHH,2001-01-02 09:00,ZHHH 020900Z AUTO 00000KT 6SM 09/06 A3015 RMK SLP218 T00890059 52010 IEM_DS3505
ZHHH,2001-01-02 10:00,ZHHH 021000Z AUTO 1 1/4SM 08/06 A3018 RMK T00800060 IEM_DS3505
ZHHH,2001-01-02 11:00,ZHHH 021100Z AUTO 30002KT 1 1/4SM 08/07 A3018 RMK T00800070 IEM_DS3505
ZHHH,2001-01-02 12:00,ZHHH 021200Z AUTO 34002KT 6SM 08/06 A3021 RMK 60000 SLP238 T00830063 52020 IEM_DS3505
ZHHH,2001-01-02 13:00,ZHHH 021300Z AUTO 1SM 08/06 A3024 RMK T00800060 IEM_DS3505
ZHHH,2001-01-02 14:00,ZHHH 021400Z AUTO 21006KT 1 1/4SM 08/05 A3021 RMK T00800050 IEM_DS3505
ZHHH,2001-01-02 15:00,ZHHH 021500Z AUTO 22002KT 6SM 08/06 A3021 RMK SLP237 T00800055 57001 IEM_DS3505
ZHHH,2001-01-02 16:00,ZHHH 021600Z AUTO 34004KT 1 1/4SM 07/05 A3024 RMK T00700050 IEM_DS3505
ZHHH,2001-01-02 17:00,ZHHH 021700Z AUTO 31006KT 1 1/2SM 07/05 A3024 RMK T00700050 IEM_DS3505
ZHHH,2001-01-02 18:00,ZHHH 021800Z AUTO 00000KT 4SM 07/05 A3024 RMK SLP248 T00740050 52011 IEM_DS3505
ZHHH,2001-01-02 19:00,ZHHH 021900Z AUTO 1 1/2SM 07/05 A3024 RMK T00700050 IEM_DS3505
ZHHH,2001-01-02 20:00,ZHHH 022000Z AUTO 29002KT 1 1/2SM 06/05 A3024 RMK T00600050 IEM_DS3505
ZHHH,2001-01-02 21:00,ZHHH 022100Z AUTO 00000KT 4SM 07/05 A3021 RMK 70000 SLP239 T00700053 57009 IEM_DS3505
ZHHH,2001-01-02 22:00,ZHHH 022200Z AUTO 25004KT 1 1/4SM 06/05 A3024 RMK T00600050 IEM_DS3505
ZHHH,2001-01-02 23:00,ZHHH 022300Z AUTO 1 1/4SM 06/05 A3024 RMK T00600050 IEM_DS3505
ZHHH,2001-01-03 00:00,ZHHH 030000Z AUTO 32002KT 7SM 07/05 A3027 RMK 70000 SLP250 T00680051 52011 IEM_DS3505
ZHHH,2001-01-03 01:00,ZHHH 030100Z AUTO 1SM 07/06 A3027 RMK T00700060 IEM_DS3505
ZHHH,2001-01-03 02:00,ZHHH 030200Z AUTO 00000KT 1SM 08/06 A3030 RMK T00800060 IEM_DS3505
ZHHH,2001-01-03 03:00,ZHHH 030300Z AUTO 14002KT 7SM 10/06 A3027 RMK SLP258 T01020056 52008 IEM_DS3505
ZHHH,2001-01-03 04:00,ZHHH 030400Z AUTO 2SM 11/06 A3027 RMK T01100060 IEM_DS3505
ZHHH,2001-01-03 05:00,ZHHH 030500Z AUTO 1 1/2SM 12/04 A3024 RMK T01200040 IEM_DS3505
ZHHH,2001-01-03 06:00,ZHHH 030600Z AUTO 20002KT 9SM 12/05 A3021 RMK SLP235 T01180046 57023 IEM_DS3505
ZHHH,2001-01-03 07:00,ZHHH 030700Z AUTO 13/03 A3021 RMK T01300030 IEM_DS3505
ZHHH,2001-01-03 08:00,ZHHH 030800Z AUTO 13/03 A3021 RMK T01300030 IEM_DS3505
ZHHH,2001-01-03 09:00,ZHHH 030900Z AUTO 00000KT 9SM 12/03 A3021 RMK SLP232 T01240033 57003 IEM_DS3505
ZHHH,2001-01-03 10:00,ZHHH 031000Z AUTO 30002KT 2SM 11/04 A3021 RMK T01100040 IEM_DS3505
ZHHH,2001-01-03 11:00,ZHHH 031100Z AUTO 2SM 10/04 A3021 RMK T01000040 IEM_DS3505
ZHHH,2001-01-03 12:00,ZHHH 031200Z AUTO 00000KT 9SM 09/06 A3024 RMK SLP242 T00930057 52010 IEM_DS3505
ZHHH,2001-01-03 13:00,ZHHH 031300Z AUTO 03006KT 2SM 10/05 A3024 RMK T01000050 IEM_DS3505
ZHHH,2001-01-03 14:00,ZHHH 031400Z AUTO 04006KT 2SM 08/05 A3027 RMK T00800050 IEM_DS3505
ZHHH,2001-01-03 15:00,ZHHH 031500Z AUTO 00000KT 8SM 09/05 A3027 RMK SLP253 T00890053 52011 IEM_DS3505
ZHHH,2001-01-03 16:00,ZHHH 031600Z AUTO 06006KT 2 1/2SM 08/05 A3024 RMK T00800050 IEM_DS3505
ZHHH,2001-01-03 17:00,ZHHH 031700Z AUTO 05006KT 2SM 07/05 A3024 RMK T00700050 IEM_DS3505
ZHHH,2001-01-03 18:00,ZHHH 031800Z AUTO 00000KT 7SM 08/05 A3024 RMK SLP246 T00760052 57007 IEM_DS3505
ZHHH,2001-01-03 19:00,ZHHH 031900Z AUTO 05006KT 1 1/2SM 06/05 A3024 RMK T00600050 IEM_DS3505
ZHHH,2001-01-03 20:00,ZHHH 032000Z AUTO 1 1/2SM 06/05 A3024 RMK T00600050 IEM_DS3505
ZHHH,2001-01-03 21:00,ZHHH 032100Z AUTO 09002KT 9SM 07/05 A3024 RMK SLP244 T00690052 57002 IEM_DS3505
ZHHH,2001-01-03 22:00,ZHHH 032200Z AUTO 07008KT 1 1/2SM 06/04 A3024 RMK T00600040 IEM_DS3505
ZHHH,2001-01-03 23:00,ZHHH 032300Z AUTO 07006KT 1 1/2SM 05/04 A3024 RMK T00500040 IEM_DS3505
ZHHH,2001-01-04 00:00,ZHHH 040000Z AUTO 07002KT 6SM 06/05 A3027 RMK SLP253 T00620046 52009 IEM_DS3505
ZHHH,2001-01-04 01:00,ZHHH 040100Z AUTO 06006KT 1SM 06/04 A3030 RMK T00600040 IEM_DS3505
ZHHH,2001-01-04 02:00,ZHHH 040200Z AUTO 06008KT 1 1/4SM 07/04 A3030 RMK T00700040 IEM_DS3505
ZHHH,2001-01-04 03:00,ZHHH 040300Z AUTO 07002KT 6SM 09/05 A3030 RMK SLP268 T00880051 52015 IEM_DS3505
ZHHH,2001-01-04 04:00,ZHHH 040400Z AUTO 03006KT 1 1/4SM 09/05 A3030 RMK T00900050 IEM_DS3505
ZHHH,2001-01-04 05:00,ZHHH 040500Z AUTO 05010KT 1 1/4SM 10/06 A3027 RMK T01000060 IEM_DS3505
ZHHH,2001-01-04 06:00,ZHHH 040600Z AUTO 36004KT 8SM 12/06 A3024 RMK SLP239 T01150056 57029 IEM_DS3505
ZHHH,2001-01-04 07:00,ZHHH 040700Z AUTO 04008KT 1 1/2SM 11/06 A3021 RMK T01100060 IEM_DS3505
ZHHH,2001-01-04 08:00,ZHHH 040800Z AUTO 05010KT 1 1/2SM 10/06 A3021 RMK T01000060 IEM_DS3505
ZHHH,2001-01-04 09:00,ZHHH 040900Z AUTO 04004KT 8SM 10/06 A3024 RMK SLP238 T01000062 57001 IEM_DS3505
ZHHH,2001-01-04 10:00,ZHHH 041000Z AUTO 05010KT 2SM 08/05 A3024 RMK T00800050 IEM_DS3505
ZHHH,2001-01-04 11:00,ZHHH 041100Z AUTO 05010KT 2 1/2SM 08/05 A3024 RMK T00800050 IEM_DS3505
ZHHH,2001-01-04 12:00,ZHHH 041200Z AUTO 04004KT 7SM 08/05 A3027 RMK SLP250 T00830054 52012 IEM_DS3505
ZHHH,2001-01-04 13:00,ZHHH 041300Z AUTO 05010KT 3SM 07/05 A3027 RMK T00700050 IEM_DS3505
ZHHH,2001-01-04 14:00,ZHHH 041400Z AUTO 03006KT 2 1/2SM 06/04 A3027 RMK T00600040 IEM_DS3505
ZHHH,2001-01-04 15:00,ZHHH 041500Z AUTO 02004KT 7SM 07/05 A3027 RMK SLP259 T00680047 52009 IEM_DS3505
ZHHH,2001-01-04 16:00,ZHHH 041600Z AUTO 3SM 06/04 A3027 RMK T00600040 IEM_DS3505
ZHHH,2001-01-04 17:00,ZHHH 041700Z AUTO 06008KT 3SM 06/04 A3027 RMK T00600040 IEM_DS3505
ZHHH,2001-01-04 18:00,ZHHH 041800Z AUTO 02002KT 8SM 07/05 A3027 RMK SLP256 T00670046 57003 IEM_DS3505
ZHHH,2001-01-04 19:00,ZHHH 041900Z AUTO 2SM 06/04 A3027 RMK T00600040 IEM_DS3505
ZHHH,2001-01-04 20:00,ZHHH 042000Z AUTO 2SM 06/04 A3027 RMK T00600040 IEM_DS3505
ZHHH,2001-01-04 21:00,ZHHH 042100Z AUTO 04002KT 9SM 07/04 A3027 RMK SLP253 T00660042 57003 IEM_DS3505
ZHHH,2001-01-04 22:00,ZHHH 042200Z AUTO 05010KT 2SM 06/04 A3027 RMK T00600040 IEM_DS3505
ZHHH,2001-01-04 23:00,ZHHH 042300Z AUTO 05006KT 2SM 06/04 A3030 RMK T00600040 IEM_DS3505
ZHHH,2001-01-05 00:00,ZHHH 050000Z AUTO 02004KT 7SM 06/04 A3030 RMK SLP265 T00620041 52012 IEM_DS3505
ZHHH,2001-01-05 01:00,ZHHH 050100Z AUTO 05008KT 1 1/2SM 06/03 A3033 RMK T00600030 IEM_DS3505
ZHHH,2001-01-05 02:00,ZHHH 050200Z AUTO 05012KT 1 1/2SM 07/04 A3033 RMK T00700040 IEM_DS3505
ZHHH,2001-01-05 03:00,ZHHH 050300Z AUTO 07006KT 7SM 08/04 A3033 RMK SLP275 T00760040 52010 IEM_DS3505
ZHHH,2001-01-05 04:00,ZHHH 050400Z AUTO 1 1/2SM 08/04 A3030 RMK T00800040 IEM_DS3505
ZHHH,2001-01-05 05:00,ZHHH 050500Z AUTO 04012KT 2SM 08/04 A3027 RMK T00800040 IEM_DS3505
ZHHH,2001-01-05 06:00,ZHHH 050600Z AUTO 02004KT 8SM 09/05 A3024 RMK SLP245 T00880046 57030 IEM_DS3505
ZHHH,2001-01-05 07:00,ZHHH 050700Z AUTO 04010KT 2SM 08/05 A3024 RMK T00800050 IEM_DS3505
ZHHH,2001-01-05 08:00,ZHHH 050800Z AUTO 04008KT 2SM 08/05 A3024 RMK T00800050 IEM_DS3505
ZHHH,2001-01-05 09:00,ZHHH 050900Z AUTO 04004KT 7SM 09/05 A3021 RMK SLP236 T00860049 57009 IEM_DS3505
ZHHH,2001-01-05 10:00,ZHHH 051000Z AUTO 04008KT 1 1/2SM 07/05 A3021 RMK T00700050 IEM_DS3505
ZHHH,2001-01-05 11:00,ZHHH 051100Z AUTO 04010KT 1 1/4SM 06/05 A3021 RMK T00600050 IEM_DS3505
ZHHH,2001-01-05 12:00,ZHHH 051200Z AUTO 04004KT 6SM 07/06 A3024 RMK 60004 SLP242 T00680058 52006 IEM_DS3505
ZHHH,2001-01-05 13:00,ZHHH 051300Z AUTO 04008KT 1 1/4SM 06/05 A3024 RMK T00600050 IEM_DS3505
ZHHH,2001-01-05 14:00,ZHHH 051400Z AUTO 04008KT 1 1/4SM 06/05 A3021 RMK T00600050 IEM_DS3505
ZHHH,2001-01-05 15:00,ZHHH 051500Z AUTO 04002KT 6SM 06/06 A3018 RMK SLP231 T00640060 57011 IEM_DS3505
ZHHH,2001-01-05 16:00,ZHHH 051600Z AUTO 1 1/4SM 06/06 A3021 RMK T00600060 IEM_DS3505
ZHHH,2001-01-05 17:00,ZHHH 051700Z AUTO 04006KT 1 1/4SM 06/06 A3015 RMK T00600060 IEM_DS3505
ZHHH,2001-01-05 18:00,ZHHH 051800Z AUTO 36002KT 6SM 07/06 A3015 RMK 60028 SLP212 T00660064 57019 IEM_DS3505
ZHHH,2001-01-05 19:00,ZHHH 051900Z AUTO 05008KT 1SM 06/06 A3012 RMK T00600060 IEM_DS3505
ZHHH,2001-01-05 20:00,ZHHH 052000Z AUTO 07006KT 1SM 06/06 A3009 RMK T00600060 IEM_DS3505
ZHHH,2001-01-05 21:00,ZHHH 052100Z AUTO 34004KT 6SM 07/07 A3009 RMK 70071 SLP195 T00660066 57017 IEM_DS3505
ZHHH,2001-01-05 22:00,ZHHH 052200Z AUTO 04006KT 1 1/4SM 06/06 A3009 RMK T00600060 IEM_DS3505
ZHHH,2001-01-05 23:00,ZHHH 052300Z AUTO 1 1/4SM 06/06 A3009 RMK T00600060 IEM_DS3505
ZHHH,2001-01-06 00:00,ZHHH 060000Z AUTO 34004KT 2 1/2SM 06/06 A3009 RMK 60071 SLP197 T00570056 52002 IEM_DS3505
ZHHH,2001-01-06 01:00,ZHHH 060100Z AUTO 1SM 05/05 A3012 RMK T00500050 IEM_DS3505
ZHHH,2001-01-06 02:00,ZHHH 060200Z AUTO 35004KT 1SM 06/06 A3012 RMK T00600060 IEM_DS3505
ZHHH,2001-01-06 03:00,ZHHH 060300Z AUTO 32002KT 4SM 06/05 A3012 RMK SLP201 T00560054 52004 IEM_DS3505
ZHHH,2001-01-06 04:00,ZHHH 060400Z AUTO 34006KT 1SM 05/05 A3009 RMK T00500050 IEM_DS3505
ZHHH,2001-01-06 05:00,ZHHH 060500Z AUTO 32006KT 1SM 05/05 A3006 RMK T00500050 IEM_DS3505
ZHHH,2001-01-06 06:00,ZHHH 060600Z AUTO 29004KT 4SM 05/05 A3006 RMK 60039 SLP179 T00540052 57022 IEM_DS3505
ZHHH,2001-01-06 07:00,ZHHH 060700Z AUTO 34010KT 3SM 05/05 A3006 RMK T00500050 IEM_DS3505
ZHHH,2001-01-06 08:00,ZHHH 060800Z AUTO 34008KT 3SM 05/05 A3003 RMK T00500050 IEM_DS3505
ZHHH,2001-01-06 09:00,ZHHH 060900Z AUTO 32004KT 6SM 05/05 A3006 RMK SLP184 T00520047 52005 IEM_DS3505
ZHHH,2001-01-06 10:00,ZHHH 061000Z AUTO 33008KT 1 1/4SM 05/05 A3006 RMK T00500050 IEM_DS3505
ZHHH,2001-01-06 11:00,ZHHH 061100Z AUTO 33008KT 1 1/4SM 04/04 A3009 RMK T00400040 IEM_DS3505
ZHHH,2001-01-06 12:00,ZHHH 061200Z AUTO 29004KT 6SM 05/04 A3012 RMK 60004 SLP207 T00470040 52023 IEM_DS3505
ZHHH,2001-01-06 13:00,ZHHH 061300Z AUTO 33008KT 1 1/4SM 04/04 A3015 RMK T00400040 IEM_DS3505
ZHHH,2001-01-06 14:00,ZHHH 061400Z AUTO 33010KT 1 1/4SM 04/04 A3015 RMK T00400040 IEM_DS3505
ZHHH,2001-01-06 15:00,ZHHH 061500Z AUTO 32002KT 6SM 04/03 A3018 RMK SLP224 T00380031 52017 IEM_DS3505
ZHHH,2001-01-06 16:00,ZHHH 061600Z AUTO 33008KT 1 1/4SM 03/02 A3018 RMK T00300020 IEM_DS3505
ZHHH,2001-01-06 17:00,ZHHH 061700Z AUTO 34008KT 1 1/4SM 03/02 A3018 RMK T00300020 IEM_DS3505
ZHHH,2001-01-06 18:00,ZHHH 061800Z AUTO 32002KT 7SM 03/02 A3021 RMK SLP232 T00340022 52008 IEM_DS3505
ZHHH,2001-01-06 19:00,ZHHH 061900Z AUTO 1 1/2SM 03/02 A3018 RMK T00300020 IEM_DS3505
ZHHH,2001-01-06 20:00,ZHHH 062000Z AUTO 1 1/2SM 03/02 A3018 RMK T00300020 IEM_DS3505
ZHHH,2001-01-06 21:00,ZHHH 062100Z AUTO 36004KT 7SM 03/02 A3018 RMK 70072 SLP224 T00300016 57008 IEM_DS3505
ZHHH,2001-01-06 22:00,ZHHH 062200Z AUTO 06010KT 1 1/4SM 02/01 A3018 RMK T00200010 IEM_DS3505
ZHHH,2001-01-06 23:00,ZHHH 062300Z AUTO 05010KT 1 1/2SM 01/00 A3021 RMK T00100000 IEM_DS3505
ZHHH,2001-01-07 00:00,ZHHH 070000Z AUTO 04004KT 7SM 02/00 A3021 RMK 70043 SLP234 T00210005 52009 IEM_DS3505
ZHHH,2001-01-07 01:00,ZHHH 070100Z AUTO 07010KT 7SM 02/00 A3021 RMK T00200000 IEM_DS3505
ZHHH,2001-01-07 02:00,ZHHH 070200Z AUTO 07008KT 7SM 02/00 A3024 RMK T00200000 IEM_DS3505
ZHHH,2001-01-07 03:00,ZHHH 070300Z AUTO 02004KT 11SM 03/M00 A3024 RMK SLP246 T00281002 52012 IEM_DS3505
ZHHH,2001-01-07 04:00,ZHHH 070400Z AUTO 7SM 04/00 A3024 RMK T00400000 IEM_DS3505
ZHHH,2001-01-07 05:00,ZHHH 070500Z AUTO 01006KT 7SM 05/01 A3021 RMK T00500010 IEM_DS3505
ZHHH,2001-01-07 06:00,ZHHH 070600Z AUTO 09006KT 11SM 05/02 A3015 RMK SLP209 T00520015 57036 IEM_DS3505
ZHHH,2001-01-07 07:00,ZHHH 070700Z AUTO 09016KT 6SM 05/02 A3009 RMK T00500020 IEM_DS3505
ZHHH,2001-01-07 08:00,ZHHH 070800Z AUTO 07008KT 7SM 06/02 A3012 RMK T00600020 IEM_DS3505
ZHHH,2001-01-07 09:00,ZHHH 070900Z AUTO 07004KT 9SM 06/02 A3012 RMK SLP201 T00570021 57008 IEM_DS3505
ZHHH,2001-01-07 10:00,ZHHH 071000Z AUTO 10006KT 7SM 06/03 A3012 RMK T00600030 IEM_DS3505
ZHHH,2001-01-07 11:00,ZHHH 071100Z AUTO 11006KT 7SM 05/03 A3012 RMK T00500030 IEM_DS3505
ZHHH,2001-01-07 12:00,ZHHH 071200Z AUTO 07004KT 9SM 06/03 A3015 RMK SLP206 T00570030 52005 IEM_DS3505
ZHHH,2001-01-07 13:00,ZHHH 071300Z AUTO 07012KT 7SM 05/02 A3009 RMK T00500020 IEM_DS3505
ZHHH,2001-01-07 14:00,ZHHH 071400Z AUTO 02006KT 7SM 04/02 A3015 RMK T00400020 IEM_DS3505
ZHHH,2001-01-07 15:00,ZHHH 071500Z AUTO 36004KT 7SM 04/03 A3015 RMK SLP202 T00450026 57004 IEM_DS3505
ZHHH,2001-01-07 16:00,ZHHH 071600Z AUTO 04008KT 4SM 03/02 A3012 RMK T00300020 IEM_DS3505
ZHHH,2001-01-07 17:00,ZHHH 071700Z AUTO 02008KT 4SM 03/03 A3012 RMK T00300030 IEM_DS3505
ZHHH,2001-01-07 18:00,ZHHH 071800Z AUTO 04006KT 6SM 04/03 A3012 RMK 60008 SLP203 T00370028 52001 IEM_DS3505
ZHHH,2001-01-07 19:00,ZHHH 071900Z AUTO 04010KT 7SM 03/02 A3012 RMK T00300020 IEM_DS3505
ZHHH,2001-01-07 20:00,ZHHH 072000Z AUTO 05012KT 7SM 03/02 A3012 RMK T00300020 IEM_DS3505
ZHHH,2001-01-07 21:00,ZHHH 072100Z AUTO 07004KT 6SM 04/03 A3009 RMK 70007 SLP195 T00380027 57008 IEM_DS3505
ZHHH,2001-01-07 22:00,ZHHH 072200Z AUTO 04010KT 3SM 03/02 A3009 RMK T00300020 IEM_DS3505
ZHHH,2001-01-07 23:00,ZHHH 072300Z AUTO 05014KT 2 1/2SM 03/02 A3006 RMK T00300020 IEM_DS3505
ZHHH,2001-01-08 00:00,ZHHH 080000Z AUTO 04004KT 5SM 03/03 A3009 RMK 60016 SLP193 T00320026 57002 IEM_DS3505
ZHHH,2001-01-08 01:00,ZHHH 080100Z AUTO 03010KT 5SM 03/02 A3009 RMK T00300020 IEM_DS3505
ZHHH,2001-01-08 02:00,ZHHH 080200Z AUTO 03008KT 3SM 03/02 A3009 RMK T00300020 IEM_DS3505
ZHHH,2001-01-08 03:00,ZHHH 080300Z AUTO 36002KT 5SM 03/03 A3012 RMK SLP198 T00310027 52005 IEM_DS3505
ZHHH,2001-01-08 04:00,ZHHH 080400Z AUTO 36006KT 3SM 03/03 A3009 RMK T00300030 IEM_DS3505
ZHHH,2001-01-08 05:00,ZHHH 080500Z AUTO 36008KT 3SM 03/03 A3006 RMK T00300030 IEM_DS3505
ZHHH,2001-01-08 06:00,ZHHH 080600Z AUTO 32004KT 6SM 03/03 A3006 RMK 60055 SLP187 T00310027 57011 IEM_DS3505
ZHHH,2001-01-08 07:00,ZHHH 080700Z AUTO 35014KT 4SM 02/02 A3006 RMK T00200020 IEM_DS3505
ZHHH,2001-01-08 08:00,ZHHH 080800Z AUTO 35012KT 3SM 01/01 A3009 RMK T00100010 IEM_DS3505
ZHHH,2001-01-08 09:00,ZHHH 080900Z AUTO 34004KT 6SM 01/01 A3012 RMK SLP212 T00140010 52024 IEM_DS3505
ZHHH,2001-01-08 10:00,ZHHH 081000Z AUTO 2 1/2SM 01/01 A3018 RMK T00100010 IEM_DS3505
ZHHH,2001-01-08 11:00,ZHHH 081100Z AUTO 2 1/2SM 01/01 A3021 RMK T00100010 IEM_DS3505
ZHHH,2001-01-08 12:00,ZHHH 081200Z AUTO 34006KT 5SM 02/01 A3027 RMK 60024 SLP257 T00160013 52045 IEM_DS3505
ZHHH,2001-01-08 13:00,ZHHH 081300Z AUTO 35010KT 4SM 02/01 A3030 RMK T00200010 IEM_DS3505
ZHHH,2001-01-08 14:00,ZHHH 081400Z AUTO 35008KT 4SM 02/02 A3033 RMK T00200020 IEM_DS3505
ZHHH,2001-01-08 15:00,ZHHH 081500Z AUTO 34006KT 4SM 03/02 A3036 RMK SLP283 T00260015 52026 IEM_DS3505
ZHHH,2001-01-08 16:00,ZHHH 081600Z AUTO 35010KT 3SM 02/01 A3036 RMK T00200010 IEM_DS3505
ZHHH,2001-01-08 17:00,ZHHH 081700Z AUTO 36008KT 3SM 02/01 A3036 RMK T00200010 IEM_DS3505
ZHHH,2001-01-08 18:00,ZHHH 081800Z AUTO 34006KT 7SM 02/01 A3036 RMK 60002 SLP291 T00250010 52008 IEM_DS3505
ZHHH,2001-01-08 19:00,ZHHH 081900Z AUTO 36008KT 4SM 02/01 A3036 RMK T00200010 IEM_DS3505
ZHHH,2001-01-08 20:00,ZHHH 082000Z AUTO 02006G19KT 4SM 02/01 A3036 RMK T00200010 IEM_DS3505
ZHHH,2001-01-08 21:00,ZHHH 082100Z AUTO 36002KT 7SM 02/01 A3036 RMK 70093 SLP289 T00210009 57002 IEM_DS3505
ZHHH,2001-01-08 22:00,ZHHH 082200Z AUTO 04006KT 4SM 01/00 A3039 RMK T00100000 IEM_DS3505
ZHHH,2001-01-08 23:00,ZHHH 082300Z AUTO 05010KT 6SM 01/00 A3039 RMK T00100000 IEM_DS3505
ZHHH,2001-01-09 00:00,ZHHH 090000Z AUTO 00000KT 9SM 01/00 A3042 RMK 70079 SLP308 T00140002 52019 IEM_DS3505
ZHHH,2001-01-09 01:00,ZHHH 090100Z AUTO 06008KT 4SM 02/00 A3045 RMK T00200000 IEM_DS3505
ZHHH,2001-01-09 02:00,ZHHH 090200Z AUTO 04010KT 4SM 03/00 A3047 RMK T00300000 IEM_DS3505
ZHHH,2001-01-09 03:00,ZHHH 090300Z AUTO 36002KT 11SM 03/01 A3047 RMK SLP325 T00300010 52017 IEM_DS3505
ZHHH,2001-01-09 04:00,ZHHH 090400Z AUTO 04008KT 7SM 04/M01 A3045 RMK T00401010 IEM_DS3505
ZHHH,2001-01-09 05:00,ZHHH 090500Z AUTO 02006KT 7SM 04/M01 A3042 RMK T00401010 IEM_DS3505
ZHHH,2001-01-09 06:00,ZHHH 090600Z AUTO 29002KT 9SM 05/M00 A3039 RMK SLP291 T00461003 57034 IEM_DS3505
ZHHH,2001-01-09 07:00,ZHHH 090700Z AUTO 35006KT 7SM 05/00 A3036 RMK T00500000 IEM_DS3505
ZHHH,2001-01-09 08:00,ZHHH 090800Z AUTO 7SM 05/M01 A3033 RMK T00501010 IEM_DS3505
ZHHH,2001-01-09 09:00,ZHHH 090900Z AUTO 04002KT 11SM 05/M00 A3033 RMK SLP274 T00471002 57017 IEM_DS3505
ZHHH,2001-01-09 10:00,ZHHH 091000Z AUTO 08006KT 6SM 04/00 A3033 RMK T00400000 IEM_DS3505
ZHHH,2001-01-09 11:00,ZHHH 091100Z AUTO 09004KT 6SM 03/00 A3033 RMK T00300000 IEM_DS3505
ZHHH,2001-01-09 12:00,ZHHH 091200Z AUTO 00000KT 9SM 03/00 A3033 RMK SLP272 T00310004 57002 IEM_DS3505
ZHHH,2001-01-09 13:00,ZHHH 091300Z AUTO 6SM 02/00 A3033 RMK T00200000 IEM_DS3505
ZHHH,2001-01-09 14:00,ZHHH 091400Z AUTO 6SM 01/M01 A3030 RMK T00101010 IEM_DS3505
ZHHH,2001-01-09 15:00,ZHHH 091500Z AUTO 09002KT 11SM 02/M00 A3033 RMK SLP271 T00161003 57001 IEM_DS3505
ZHHH,2001-01-09 16:00,ZHHH 091600Z AUTO 6SM 01/M01 A3030 RMK T00101010 IEM_DS3505
ZHHH,2001-01-09 17:00,ZHHH 091700Z AUTO 15004KT 4SM 01/M01 A3030 RMK T00101010 IEM_DS3505
ZHHH,2001-01-09 18:00,ZHHH 091800Z AUTO 00000KT 5SM 01/00 A3027 RMK SLP258 T00090002 57013 IEM_DS3505
ZHHH,2001-01-09 19:00,ZHHH 091900Z AUTO 07002KT 3SM 00/M01 A3027 RMK T00001010 IEM_DS3505
ZHHH,2001-01-09 20:00,ZHHH 092000Z AUTO 07002KT 3SM 00/M01 A3024 RMK T00001010 IEM_DS3505
ZHHH,2001-01-09 21:00,ZHHH 092100Z AUTO 00000KT 3SM 00/M00 A3024 RMK SLP243 T00011002 57015 IEM_DS3505
ZHHH,2001-01-09 22:00,ZHHH 092200Z AUTO 13004KT 2 1/2SM M01/M01 A3021 RMK T10101010 IEM_DS3505
ZHHH,2001-01-09 23:00,ZHHH 092300Z AUTO 11004KT 1 1/2SM M01/M01 A3021 RMK T10101010 IEM_DS3505
ZHHH,2001-01-10 00:00,ZHHH 100000Z AUTO 18002KT 7SM 00/M00 A3021 RMK SLP233 T00041001 57010 IEM_DS3505
ZHHH,2001-01-10 01:00,ZHHH 100100Z AUTO 1/8SM M01/M01 A3021 RMK T10101010 IEM_DS3505
ZHHH,2001-01-10 02:00,ZHHH 100200Z AUTO 08004KT 1/8SM M01/M01 A3021 RMK T10101010 IEM_DS3505
ZHHH,2001-01-10 03:00,ZHHH 100300Z AUTO 11002KT 04/01 A3021 RMK SLP230 T00450007 57003 IEM_DS3505
ZHHH,2001-01-10 04:00,ZHHH 100400Z AUTO 13006KT 1SM 02/02 A3018 RMK T00200020 IEM_DS3505
ZHHH,2001-01-10 05:00,ZHHH 100500Z AUTO 14006KT 1SM 04/03 A3015 RMK T00400030 IEM_DS3505
ZHHH,2001-01-10 06:00,ZHHH 100600Z AUTO 00000KT 12SM 07/01 A3009 RMK SLP196 T00740008 57033 IEM_DS3505
ZHHH,2001-01-10 07:00,ZHHH 100700Z AUTO 1 1/2SM 07/03 A3009 RMK T00700030 IEM_DS3505
ZHHH,2001-01-10 08:00,ZHHH 100800Z AUTO 1 1/2SM 07/03 A3006 RMK T00700030 IEM_DS3505
ZHHH,2001-01-10 09:00,ZHHH 100900Z AUTO 14002KT 11SM 08/01 A3006 RMK SLP182 T00750013 57014 IEM_DS3505
ZHHH,2001-01-10 10:00,ZHHH 101000Z AUTO 14004KT 2SM 06/01 A3006 RMK T00600010 IEM_DS3505
ZHHH,2001-01-10 11:00,ZHHH 101100Z AUTO 14004KT 2SM 05/02 A3006 RMK T00500020 IEM_DS3505
ZHHH,2001-01-10 12:00,ZHHH 101200Z AUTO 00000KT 11SM 05/02 A3009 RMK SLP194 T00510018 52011 IEM_DS3505
ZHHH,2001-01-10 13:00,ZHHH 101300Z AUTO 1 1/2SM 04/02 A3009 RMK T00400020 IEM_DS3505
ZHHH,2001-01-10 14:00,ZHHH 101400Z AUTO 1 1/2SM 04/02 A3012 RMK T00400020 IEM_DS3505
ZHHH,2001-01-10 15:00,ZHHH 101500Z AUTO 00000KT 11SM 03/02 A3012 RMK SLP205 T00270017 52012 IEM_DS3505
ZHHH,2001-01-10 16:00,ZHHH 101600Z AUTO 00000KT 1 1/4SM 03/02 A3012 RMK T00300020 IEM_DS3505
ZHHH,2001-01-10 17:00,ZHHH 101700Z AUTO 1 1/4SM 03/02 A3012 RMK T00300020 IEM_DS3505
ZHHH,2001-01-10 18:00,ZHHH 101800Z AUTO 00000KT 9SM 02/02 A3012 RMK SLP203 T00240015 57002 IEM_DS3505
ZHHH,2001-01-10 19:00,ZHHH 101900Z AUTO 14002KT 1SM 02/02 A3012 RMK T00200020 IEM_DS3505
ZHHH,2001-01-10 20:00,ZHHH 102000Z AUTO 07002KT 1SM 02/01 A3012 RMK T00200010 IEM_DS3505
ZHHH,2001-01-10 21:00,ZHHH 102100Z AUTO 00000KT 6SM 02/02 A3009 RMK SLP198 T00230022 57005 IEM_DS3505
ZHHH,2001-01-10 22:00,ZHHH 102200Z AUTO 15004KT 1SM 01/01 A3009 RMK T00100010 IEM_DS3505
ZHHH,2001-01-10 23:00,ZHHH 102300Z AUTO 14004KT 3/8SM 02/01 A3009 RMK T00200010 IEM_DS3505
ZHHH,2001-01-11 00:00,ZHHH 110000Z AUTO 16002KT 3SM 02/02 A3009 RMK SLP198 T00160016 54000 IEM_DS3505
ZHHH,2001-01-11 01:00,ZHHH 110100Z AUTO 1/2SM 02/02 A3012 RMK T00200020 IEM_DS3505
ZHHH,2001-01-11 02:00,ZHHH 110200Z AUTO 1SM 03/03 A3015 RMK T00300030 IEM_DS3505
ZHHH,2001-01-11 03:00,ZHHH 110300Z AUTO 14004KT 8SM 07/02 A3012 RMK SLP204 T00720019 52006 IEM_DS3505
ZHHH,2001-01-11 04:00,ZHHH 110400Z AUTO 11006KT 4SM 07/04 A3009 RMK T00700040 IEM_DS3505
ZHHH,2001-01-11 05:00,ZHHH 110500Z AUTO 11006KT 09/03 A3009 RMK T00900030 IEM_DS3505
ZHHH,2001-01-11 06:00,ZHHH 110600Z AUTO 04004KT 11SM 09/04 A3006 RMK SLP178 T00940038 57026 IEM_DS3505
ZHHH,2001-01-11 07:00,ZHHH 110700Z AUTO 6SM 09/04 A3003 RMK T00900040 IEM_DS3505
ZHHH,2001-01-11 08:00,ZHHH 110800Z AUTO 10006KT 6SM 09/03 A3003 RMK T00900030 IEM_DS3505
ZHHH,2001-01-11 09:00,ZHHH 110900Z AUTO 09002KT 12SM 10/04 A3003 RMK SLP175 T00990035 57003 IEM_DS3505
ZHHH,2001-01-11 10:00,ZHHH 111000Z AUTO 09006KT 6SM 08/04 A3006 RMK T00800040 IEM_DS3505
ZHHH,2001-01-11 11:00,ZHHH 111100Z AUTO 10006KT 6SM 07/03 A3003 RMK T00700030 IEM_DS3505
ZHHH,2001-01-11 12:00,ZHHH 111200Z AUTO 14002KT 9SM 07/04 A3003 RMK SLP175 T00690035 54000 IEM_DS3505
ZHHH,2001-01-11 13:00,ZHHH 111300Z AUTO 03006KT 6SM 06/03 A3009 RMK T00600030 IEM_DS3505
ZHHH,2001-01-11 14:00,ZHHH 111400Z AUTO 02006KT 6SM 05/03 A3009 RMK T00500030 IEM_DS3505
ZHHH,2001-01-11 15:00,ZHHH 111500Z AUTO 02004KT 9SM 06/03 A3012 RMK SLP206 T00560034 52031 IEM_DS3505
ZHHH,2001-01-11 16:00,ZHHH 111600Z AUTO 04010KT 6SM 05/02 A3012 RMK T00500020 IEM_DS3505
ZHHH,2001-01-11 17:00,ZHHH 111700Z AUTO 07008KT 6SM 04/02 A3012 RMK T00400020 IEM_DS3505
ZHHH,2001-01-11 18:00,ZHHH 111800Z AUTO 09004KT 11SM 04/03 A3009 RMK SLP198 T00440029 57008 IEM_DS3505
ZHHH,2001-01-11 19:00,ZHHH 111900Z AUTO 07004KT 4SM 03/02 A3012 RMK T00300020 IEM_DS3505
ZHHH,2001-01-11 20:00,ZHHH 112000Z AUTO 04006KT 4SM 02/02 A3012 RMK T00200020 IEM_DS3505
ZHHH,2001-01-11 21:00,ZHHH 112100Z AUTO 04006KT 11SM 03/02 A3012 RMK SLP203 T00290023 52005 IEM_DS3505
ZHHH,2001-01-11 22:00,ZHHH 112200Z AUTO 04008KT 4SM 02/01 A3015 RMK T00200010 IEM_DS3505
ZHHH,2001-01-11 23:00,ZHHH 112300Z AUTO 04010KT 4SM 01/01 A3018 RMK T00100010 IEM_DS3505
ZHHH,2001-01-12 00:00,ZHHH 120000Z AUTO 04004KT 9SM 02/01 A3021 RMK SLP236 T00200010 52033 IEM_DS3505
ZHHH,2001-01-12 01:00,ZHHH 120100Z AUTO 05010KT 2 1/2SM 01/00 A3024 RMK T00100000 IEM_DS3505
ZHHH,2001-01-12 02:00,ZHHH 120200Z AUTO 06012KT 2 1/2SM 02/00 A3024 RMK T00200000 IEM_DS3505
ZHHH,2001-01-12 03:00,ZHHH 120300Z AUTO 02006KT 9SM 03/01 A3024 RMK SLP246 T00260007 52009 IEM_DS3505
ZHHH,2001-01-12 04:00,ZHHH 120400Z AUTO 04008KT 3SM 03/01 A3024 RMK T00300010 IEM_DS3505
ZHHH,2001-01-12 05:00,ZHHH 120500Z AUTO 04008KT 4SM 03/01 A3021 RMK T00300010 IEM_DS3505
ZHHH,2001-01-12 06:00,ZHHH 120600Z AUTO 32002KT 9SM 03/01 A3021 RMK SLP237 T00310010 57009 IEM_DS3505
ZHHH,2001-01-12 07:00,ZHHH 120700Z AUTO 4SM 03/01 A3021 RMK T00300010 IEM_DS3505
ZHHH,2001-01-12 08:00,ZHHH 120800Z AUTO 34008KT 2 1/2SM 03/01 A3024 RMK T00300010 IEM_DS3505
ZHHH,2001-01-12 09:00,ZHHH 120900Z AUTO 34004KT 11SM 03/01 A3024 RMK SLP244 T00340007 52007 IEM_DS3505
ZHHH,2001-01-12 10:00,ZHHH 121000Z AUTO 33008KT 2 1/2SM 03/01 A3027 RMK T00300010 IEM_DS3505
ZHHH,2001-01-12 11:00,ZHHH 121100Z AUTO 2 1/2SM 03/01 A3030 RMK T00300010 IEM_DS3505
ZHHH,2001-01-12 12:00,ZHHH 121200Z AUTO 00000KT 11SM 03/01 A3030 RMK SLP264 T00320014 52020 IEM_DS3505
ZHHH,2001-01-12 13:00,ZHHH 121300Z AUTO 3SM 02/01 A3030 RMK T00200010 IEM_DS3505
ZHHH,2001-01-12 14:00,ZHHH 121400Z AUTO 28004KT 3SM 01/00 A3030 RMK T00100000 IEM_DS3505
ZHHH,2001-01-12 15:00,ZHHH 121500Z AUTO 00000KT 11SM 02/01 A3030 RMK SLP268 T00210012 52004 IEM_DS3505
ZHHH,2001-01-12 16:00,ZHHH 121600Z AUTO 2SM 01/01 A3027 RMK T00100010 IEM_DS3505
ZHHH,2001-01-12 17:00,ZHHH 121700Z AUTO 22008KT 1SM 01/01 A3024 RMK T00100010 IEM_DS3505
ZHHH,2001-01-12 18:00,ZHHH 121800Z AUTO 27004KT 9SM 02/01 A3024 RMK SLP243 T00160012 57025 IEM_DS3505
ZHHH,2001-01-12 19:00,ZHHH 121900Z AUTO 28008KT 1SM 01/01 A3024 RMK T00100010 IEM_DS3505
ZHHH,2001-01-12 20:00,ZHHH 122000Z AUTO 29010KT 3/8SM 01/01 A3024 RMK T00100010 IEM_DS3505
ZHHH,2001-01-12 21:00,ZHHH 122100Z AUTO 29006KT 9SM 02/02 A3024 RMK SLP249 T00180018 52006 IEM_DS3505
ZHHH,2001-01-12 22:00,ZHHH 122200Z AUTO 29006KT 1 1/4SM 02/02 A3027 RMK T00200020 IEM_DS3505
ZHHH,2001-01-12 23:00,ZHHH 122300Z AUTO 00000KT 1 1/4SM 02/02 A3027 RMK T00200020 IEM_DS3505
ZHHH,2001-01-13 00:00,ZHHH 130000Z AUTO 14002KT 7SM 02/02 RMK SLP268 T00210017 52019 IEM_DS3505
ZHHH,2001-01-13 01:00,ZHHH 130100Z AUTO 16004KT 1SM 02/02 A3033 RMK T00200020 IEM_DS3505
ZHHH,2001-01-13 03:00,ZHHH 130300Z AUTO 14002KT 9SM 04/02 A3033 RMK SLP278 T00390023 52010 IEM_DS3505
ZHHH,2001-01-13 04:00,ZHHH 130400Z AUTO 15008KT 1 1/4SM 05/03 A3033 RMK T00500030 IEM_DS3505
ZHHH,2001-01-13 05:00,ZHHH 130500Z AUTO 1 1/2SM 06/03 A3030 RMK T00600030 IEM_DS3505
ZHHH,2001-01-13 06:00,ZHHH 130600Z AUTO 18002KT 9SM 07/03 A3027 RMK SLP259 T00710028 57019 IEM_DS3505
ZHHH,2001-01-13 07:00,ZHHH 130700Z AUTO 00000KT 1 1/2SM 08/03 A3027 RMK T00800030 IEM_DS3505
ZHHH,2001-01-13 08:00,ZHHH 130800Z AUTO 01008KT 1 1/2SM 07/04 A3030 RMK T00700040 IEM_DS3505
ZHHH,2001-01-13 09:00,ZHHH 130900Z AUTO 04004KT 8SM 07/04 A3030 RMK SLP265 T00720042 52006 IEM_DS3505
ZHHH,2001-01-13 10:00,ZHHH 131000Z AUTO 04010KT 1 1/2SM 06/02 A3033 RMK T00600020 IEM_DS3505
ZHHH,2001-01-13 11:00,ZHHH 131100Z AUTO 06016KT 6SM 05/M04 A3036 RMK T00501040 IEM_DS3505
ZHHH,2001-01-13 12:00,ZHHH 131200Z AUTO 04006KT 12SM 05/M04 A3039 RMK SLP298 T00501042 52033 IEM_DS3505
ZHHH,2001-01-13 14:00,ZHHH 131400Z AUTO 06017KT 6SM 03/M06 A3042 RMK T00301060 IEM_DS3505
ZHHH,2001-01-13 15:00,ZHHH 131500Z AUTO 07004KT 12SM 03/M04 A3042 RMK SLP311 T00301043 52013 IEM_DS3505
ZHHH,2001-01-13 16:00,ZHHH 131600Z AUTO 6SM 02/M06 A3045 RMK T00201060 IEM_DS3505
ZHHH,2001-01-13 17:00,ZHHH 131700Z AUTO 6SM 01/M04 A3045 RMK T00101040 IEM_DS3505
ZHHH,2001-01-13 18:00,ZHHH 131800Z AUTO 36004KT 9SM 02/M04 A3045 RMK SLP313 T00151035 52002 IEM_DS3505
ZHHH,2001-01-13 19:00,ZHHH 131900Z AUTO 02006KT 6SM 00/M04 A3045 RMK T00001040 IEM_DS3505
ZHHH,2001-01-13 20:00,ZHHH 132000Z AUTO 04010KT 6SM 01/M04 A3045 RMK T00101040 IEM_DS3505
ZHHH,2001-01-13 21:00,ZHHH 132100Z AUTO 36002KT 9SM 00/M02 A3047 RMK SLP322 T00051018 52009 IEM_DS3505
ZHHH,2001-01-13 22:00,ZHHH 132200Z AUTO 2 1/2SM M01/M03 A3047 RMK T10101030 IEM_DS3505
ZHHH,2001-01-13 23:00,ZHHH 132300Z AUTO 01006KT 1 1/4SM M01/M02 A3050 RMK T10101020 IEM_DS3505
ZHHH,2001-01-14 00:00,ZHHH 140000Z AUTO 36002KT 9SM M00/M02 A3053 RMK SLP344 T10031022 52022 IEM_DS3505
ZHHH,2001-01-14 01:00,ZHHH 140100Z AUTO 04012KT 1SM 00/M03 A3053 RMK T00001030 IEM_DS3505
ZHHH,2001-01-14 02:00,ZHHH 140200Z AUTO 05014KT 1 1/4SM 00/M04 A3056 RMK T00001040 IEM_DS3505
ZHHH,2001-01-14 03:00,ZHHH 140300Z AUTO 04006KT 9SM 02/M03 A3056 RMK SLP351 T00161032 52007 IEM_DS3505
ZHHH,2001-01-14 04:00,ZHHH 140400Z AUTO 03012KT 3SM 03/M04 A3053 RMK T00301040 IEM_DS3505
ZHHH,2001-01-14 05:00,ZHHH 140500Z AUTO 03008KT 04/M05 A3050 RMK T00401050 IEM_DS3505
ZHHH,2001-01-14 06:00,ZHHH 140600Z AUTO 04004KT 9SM 05/M05 A3047 RMK SLP329 T00471046 57022 IEM_DS3505
ZHHH,2001-01-14 07:00,ZHHH 140700Z AUTO 04010KT 6SM 05/M06 A3047 RMK T00501060 IEM_DS3505
ZHHH,2001-01-14 08:00,ZHHH 140800Z AUTO 03014KT 6SM 05/M09 A3047 RMK T00501090 IEM_DS3505
ZHHH,2001-01-14 09:00,ZHHH 140900Z AUTO 04004KT 9SM 04/M08 A3047 RMK SLP327 T00451078 57002 IEM_DS3505
ZHHH,2001-01-14 10:00,ZHHH 141000Z AUTO 04008KT 6SM 03/M06 A3050 RMK T00301060 IEM_DS3505
ZHHH,2001-01-14 11:00,ZHHH 141100Z AUTO 04008KT 6SM 02/M05 A3050 RMK T00201050 IEM_DS3505
ZHHH,2001-01-14 12:00,ZHHH 141200Z AUTO 04002KT 9SM 02/M04 A3053 RMK SLP342 T00221041 52015 IEM_DS3505
ZHHH,2001-01-14 13:00,ZHHH 141300Z AUTO 03006KT 01/M05 A3053 RMK T00101050 IEM_DS3505
ZHHH,2001-01-14 14:00,ZHHH 141400Z AUTO 03006KT 00/M06 A3056 RMK T00001060 IEM_DS3505
ZHHH,2001-01-14 15:00,ZHHH 141500Z AUTO 02002KT 9SM 01/M06 A3056 RMK SLP352 T00061057 52010 IEM_DS3505
ZHHH,2001-01-14 16:00,ZHHH 141600Z AUTO 04008KT 4SM M01/M06 A3056 RMK T10101060 IEM_DS3505
ZHHH,2001-01-14 17:00,ZHHH 141700Z AUTO 03008KT 4SM M01/M06 A3056 RMK T10101060 IEM_DS3505
ZHHH,2001-01-14 18:00,ZHHH 141800Z AUTO 09002KT 11SM M01/M05 A3053 RMK SLP350 T10061051 57002 IEM_DS3505
ZHHH,2001-01-14 19:00,ZHHH 141900Z AUTO 05008KT 4SM M02/M05 A3053 RMK T10201050 IEM_DS3505
ZHHH,2001-01-14 20:00,ZHHH 142000Z AUTO 07006KT 4SM M02/M04 A3053 RMK T10201040 IEM_DS3505
ZHHH,2001-01-14 21:00,ZHHH 142100Z AUTO 07002KT 11SM M01/M04 A3053 RMK SLP343 T10131044 57007 IEM_DS3505
ZHHH,2001-01-14 22:00,ZHHH 142200Z AUTO 04004KT 2 1/2SM M02/M04 A3053 RMK T10201040 IEM_DS3505
ZHHH,2001-01-14 23:00,ZHHH 142300Z AUTO 05006KT 2SM M03/M04 A3053 RMK T10301040 IEM_DS3505
ZHHH,2001-01-15 00:00,ZHHH 150000Z AUTO 07004KT 9SM M02/M04 A3056 RMK SLP356 T10171043 52013 IEM_DS3505
ZHHH,2001-01-15 01:00,ZHHH 150100Z AUTO 08006KT 2 1/2SM M01/M04 A3056 RMK T10101040 IEM_DS3505
ZHHH,2001-01-15 02:00,ZHHH 150200Z AUTO 11008KT 3SM 00/M03 A3056 RMK T00001030 IEM_DS3505
ZHHH,2001-01-15 03:00,ZHHH 150300Z AUTO 14004KT 11SM 03/M02 A3056 RMK SLP354 T00291025 57002 IEM_DS3505
ZHHH,2001-01-15 04:00,ZHHH 150400Z AUTO 12008KT 2 1/2SM 03/M01 A3053 RMK T00301010 IEM_DS3505
ZHHH,2001-01-15 05:00,ZHHH 150500Z AUTO 14006KT 2 1/2SM 04/M02 A3050 RMK T00401020 IEM_DS3505
ZHHH,2001-01-15 06:00,ZHHH 150600Z AUTO 00000KT 11SM 06/M03 A3047 RMK SLP326 T00611031 57028 IEM_DS3505
ZHHH,2001-01-15 07:00,ZHHH 150700Z AUTO 14006KT 3SM 05/M03 A3045 RMK T00501030 IEM_DS3505
ZHHH,2001-01-15 08:00,ZHHH 150800Z AUTO 13008KT 3SM 06/M02 A3045 RMK T00601020 IEM_DS3505
ZHHH,2001-01-15 09:00,ZHHH 150900Z AUTO 14002KT 11SM 06/M03 A3045 RMK SLP316 T00651029 57010 IEM_DS3505
ZHHH,2001-01-15 10:00,ZHHH 151000Z AUTO 10006KT 3SM 04/M02 A3047 RMK T00401020 IEM_DS3505
ZHHH,2001-01-15 11:00,ZHHH 151100Z AUTO 08004KT 3SM 03/M02 A3047 RMK T00301020 IEM_DS3505
ZHHH,2001-01-15 12:00,ZHHH 151200Z AUTO 00000KT 9SM 04/M02 A3050 RMK SLP329 T00381016 52013 IEM_DS3505
ZHHH,2001-01-15 13:00,ZHHH 151300Z AUTO 09006KT 3SM 03/M02 A3050 RMK T00301020 IEM_DS3505
ZHHH,2001-01-15 14:00,ZHHH 151400Z AUTO 11006KT 3SM 02/M02 A3050 RMK T00201020 IEM_DS3505
ZHHH,2001-01-15 15:00,ZHHH 151500Z AUTO 07002KT 9SM 02/M01 A3050 RMK SLP336 T00201013 52007 IEM_DS3505
ZHHH,2001-01-15 16:00,ZHHH 151600Z AUTO 10006KT 3SM 01/M02 A3050 RMK T00101020 IEM_DS3505
ZHHH,2001-01-15 17:00,ZHHH 151700Z AUTO 10006KT 3SM 01/M02 A3050 RMK T00101020 IEM_DS3505
ZHHH,2001-01-15 18:00,ZHHH 151800Z AUTO 09002KT 9SM 01/M02 A3050 RMK SLP329 T00081019 57007 IEM_DS3505
ZHHH,2001-01-15 19:00,ZHHH 151900Z AUTO 08006KT 4SM 00/M02 A3047 RMK T00001020 IEM_DS3505
ZHHH,2001-01-15 20:00,ZHHH 152000Z AUTO 09008KT 3SM 00/M03 A3047 RMK T00001030 IEM_DS3505
ZHHH,2001-01-15 21:00,ZHHH 152100Z AUTO 11008KT 3SM 00/M03 A3045 RMK T00001030 IEM_DS3505
ZHHH,2001-01-15 22:00,ZHHH 152200Z AUTO 11008KT 2 1/2SM 00/M03 A3045 RMK T00001030 IEM_DS3505
ZHHH,2001-01-15 23:00,ZHHH 152300Z AUTO 10008KT 2SM M01/M02 A3047 RMK T10101020 IEM_DS3505
ZHHH,2001-01-16 00:00,ZHHH 160000Z AUTO 09002KT 11SM 00/M03 A3045 RMK SLP321 T00041028 52002 IEM_DS3505
ZHHH,2001-01-16 01:00,ZHHH 160100Z AUTO 10010KT 2 1/2SM 01/M02 A3047 RMK T00101020 IEM_DS3505
ZHHH,2001-01-16 02:00,ZHHH 160200Z AUTO 11010KT 3SM 02/M02 A3045 RMK T00201020 IEM_DS3505
ZHHH,2001-01-16 03:00,ZHHH 160300Z AUTO 14006KT 11SM 06/M03 A3045 RMK SLP313 T00561029 57008 IEM_DS3505
ZHHH,2001-01-16 04:00,ZHHH 160400Z AUTO 12008KT 6SM 06/M02 A3042 RMK T00601020 IEM_DS3505
ZHHH,2001-01-16 05:00,ZHHH 160500Z AUTO 11006KT 6SM 07/M02 A3039 RMK T00701020 IEM_DS3505
ZHHH,2001-01-16 06:00,ZHHH 160600Z AUTO 09004KT 11SM 09/M01 A3036 RMK SLP282 T00861009 57031 IEM_DS3505
ZHHH,2001-01-16 07:00,ZHHH 160700Z AUTO 14006KT 6SM 08/M01 A3033 RMK T00801010 IEM_DS3505
ZHHH,2001-01-16 08:00,ZHHH 160800Z AUTO 12006G17KT 6SM 09/00 A3033 RMK T00900000 IEM_DS3505
ZHHH,2001-01-16 09:00,ZHHH 160900Z AUTO 14002KT 11SM 10/M02 A3033 RMK SLP270 T00991025 57011 IEM_DS3505
ZHHH,2001-01-16 10:00,ZHHH 161000Z AUTO 10004KT 3SM 07/01 A3033 RMK T00700010 IEM_DS3505
ZHHH,2001-01-16 11:00,ZHHH 161100Z AUTO 06004KT 2 1/2SM 06/01 A3033 RMK T00600010 IEM_DS3505
ZHHH,2001-01-16 12:00,ZHHH 161200Z AUTO 09002KT 9SM 07/02 A3033 RMK SLP277 T00680020 52006 IEM_DS3505
ZHHH,2001-01-16 13:00,ZHHH 161300Z AUTO 08004KT 2 1/2SM 06/01 A3036 RMK T00600010 IEM_DS3505
ZHHH,2001-01-16 14:00,ZHHH 161400Z AUTO 09004KT 2 1/2SM 06/01 A3036 RMK T00600010 IEM_DS3505
ZHHH,2001-01-16 15:00,ZHHH 161500Z AUTO 00000KT 9SM 06/02 A3036 RMK SLP282 T00620024 52006 IEM_DS3505
ZHHH,2001-01-16 16:00,ZHHH 161600Z AUTO 11004KT 3SM 05/01 A3036 RMK T00500010 IEM_DS3505
ZHHH,2001-01-16 17:00,ZHHH 161700Z AUTO 00000KT 4SM 05/02 A3036 RMK T00500020 IEM_DS3505
ZHHH,2001-01-16 18:00,ZHHH 161800Z AUTO 00000KT 9SM 06/01 A3036 RMK SLP281 T00590012 57001 IEM_DS3505
ZHHH,2001-01-16 19:00,ZHHH 161900Z AUTO 00000KT 3SM 05/02 A3036 RMK T00500020 IEM_DS3505
ZHHH,2001-01-16 20:00,ZHHH 162000Z AUTO 00000KT 3SM 05/02 A3033 RMK T00500020 IEM_DS3505
ZHHH,2001-01-16 21:00,ZHHH 162100Z AUTO 07002KT 9SM 05/03 A3033 RMK SLP273 T00510026 57008 IEM_DS3505
ZHHH,2001-01-16 22:00,ZHHH 162200Z AUTO 3SM 04/01 A3033 RMK T00400010 IEM_DS3505
ZHHH,2001-01-16 23:00,ZHHH 162300Z AUTO 12004G16KT 3SM 04/01 A3033 RMK T00400010 IEM_DS3505
ZHHH,2001-01-17 00:00,ZHHH 170000Z AUTO 11002KT 9SM 04/02 A3033 RMK SLP276 T00390018 52003 IEM_DS3505
ZHHH,2001-01-17 01:00,ZHHH 170100Z AUTO 13006KT 1 1/2SM 04/02 A3036 RMK T00400020 IEM_DS3505
ZHHH,2001-01-17 02:00,ZHHH 170200Z AUTO 12006KT 1 1/2SM 06/02 A3036 RMK T00600020 IEM_DS3505
ZHHH,2001-01-17 03:00,ZHHH 170300Z AUTO 07002KT 11SM 09/02 A3036 RMK SLP279 T00870021 52003 IEM_DS3505
ZHHH,2001-01-17 04:00,ZHHH 170400Z AUTO 09006KT 2 1/2SM 09/01 A3033 RMK T00900010 IEM_DS3505
ZHHH,2001-01-17 05:00,ZHHH 170500Z AUTO 10/00 A3027 RMK T01000000 IEM_DS3505
ZHHH,2001-01-17 06:00,ZHHH 170600Z AUTO 09002KT 9SM 10/02 A3024 RMK SLP243 T01050017 57036 IEM_DS3505
ZHHH,2001-01-17 07:00,ZHHH 170700Z AUTO 11006KT 3SM 10/02 A3021 RMK T01000020 IEM_DS3505
ZHHH,2001-01-17 08:00,ZHHH 170800Z AUTO 10004KT 2 1/2SM 10/02 A3021 RMK T01000020 IEM_DS3505
ZHHH,2001-01-17 09:00,ZHHH 170900Z AUTO 07002KT 9SM 10/03 A3018 RMK SLP228 T00970033 57015 IEM_DS3505
ZHHH,2001-01-17 10:00,ZHHH 171000Z AUTO 2SM 09/03 A3021 RMK T00900030 IEM_DS3505
ZHHH,2001-01-17 11:00,ZHHH 171100Z AUTO 1 1/2SM 08/03 A3018 RMK T00800030 IEM_DS3505
ZHHH,2001-01-17 12:00,ZHHH 171200Z AUTO 07002KT 9SM 08/04 A3018 RMK 60000 SLP226 T00830044 57002 IEM_DS3505
ZHHH,2001-01-17 13:00,ZHHH 171300Z AUTO 09004KT 1 1/2SM 08/04 A3018 RMK T00800040 IEM_DS3505
ZHHH,2001-01-17 14:00,ZHHH 171400Z AUTO 10004KT 1 1/2SM 08/04 A3021 RMK T00800040 IEM_DS3505
ZHHH,2001-01-17 15:00,ZHHH 171500Z AUTO 09002KT 9SM 08/05 A3018 RMK SLP227 T00790048 52001 IEM_DS3505
ZHHH,2001-01-17 16:00,ZHHH 171600Z AUTO 11004KT 1 1/2SM 08/05 A3018 RMK T00800050 IEM_DS3505
ZHHH,2001-01-17 17:00,ZHHH 171700Z AUTO 00000KT 1 1/2SM 07/05 A3018 RMK T00700050 IEM_DS3505
ZHHH,2001-01-17 18:00,ZHHH 171800Z AUTO 09002KT 9SM 08/04 A3018 RMK 60003 SLP223 T00800041 57004 IEM_DS3505
ZHHH,2001-01-17 19:00,ZHHH 171900Z AUTO 06004KT 1 1/2SM 07/05 A3018 RMK T00700050 IEM_DS3505
ZHHH,2001-01-17 20:00,ZHHH 172000Z AUTO 1 1/2SM 07/05 A3015 RMK T00700050 IEM_DS3505
ZHHH,2001-01-17 21:00,ZHHH 172100Z AUTO 00000KT 9SM 07/05 A3018 RMK 70000 SLP220 T00710048 57003 IEM_DS3505
ZHHH,2001-01-17 22:00,ZHHH 172200Z AUTO 13004KT 1 1/2SM 07/05 A3018 RMK T00700050 IEM_DS3505
ZHHH,2001-01-17 23:00,ZHHH 172300Z AUTO 09006KT 1 1/2SM 07/05 A3018 RMK T00700050 IEM_DS3505
ZHHH,2001-01-18 00:00,ZHHH 180000Z AUTO 11002KT 11SM 07/05 A3021 RMK 70000 SLP233 T00710047 52013 IEM_DS3505
ZHHH,2001-01-18 01:00,ZHHH 180100Z AUTO 1 1/4SM 07/06 A3021 RMK T00700060 IEM_DS3505
ZHHH,2001-01-18 02:00,ZHHH 180200Z AUTO 15006KT 1 1/2SM 09/06 A3024 RMK T00900060 IEM_DS3505
ZHHH,2001-01-18 03:00,ZHHH 180300Z AUTO 22004KT 11SM 10/06 A3024 RMK SLP242 T00960063 52009 IEM_DS3505
ZHHH,2001-01-18 04:00,ZHHH 180400Z AUTO 1 1/4SM 11/06 A3021 RMK T01100060 IEM_DS3505
ZHHH,2001-01-18 05:00,ZHHH 180500Z AUTO 1SM 12/06 A3018 RMK T01200060 IEM_DS3505
ZHHH,2001-01-18 06:00,ZHHH 180600Z AUTO 09002KT 11SM 13/05 A3018 RMK SLP219 T01270053 57023 IEM_DS3505
ZHHH,2001-01-18 07:00,ZHHH 180700Z AUTO 11006KT 1 1/4SM 13/05 A3015 RMK T01300050 IEM_DS3505
ZHHH,2001-01-18 08:00,ZHHH 180800Z AUTO 11008KT 1 1/4SM 13/06 A3015 RMK T01300060 IEM_DS3505
ZHHH,2001-01-18 09:00,ZHHH 180900Z AUTO 00000KT 9SM 13/06 A3018 RMK SLP222 T01260061 52003 IEM_DS3505
ZHHH,2001-01-18 10:00,ZHHH 181000Z AUTO 14002KT 1 1/4SM 11/06 A3021 RMK T01100060 IEM_DS3505
ZHHH,2001-01-18 11:00,ZHHH 181100Z AUTO 11004KT 1 1/4SM 10/06 A3021 RMK T01000060 IEM_DS3505
ZHHH,2001-01-18 12:00,ZHHH 181200Z AUTO 00000KT 9SM 11/06 A3021 RMK SLP230 T01090059 52008 IEM_DS3505
ZHHH,2001-01-18 13:00,ZHHH 181300Z AUTO 06004KT 1SM 10/06 A3021 RMK T01000060 IEM_DS3505
ZHHH,2001-01-18 14:00,ZHHH 181400Z AUTO 08006KT 1 1/4SM 10/06 A3021 RMK T01000060 IEM_DS3505
ZHHH,2001-01-18 15:00,ZHHH 181500Z AUTO 07002KT 9SM 10/07 A3024 RMK SLP237 T01010066 52007 IEM_DS3505
ZHHH,2001-01-18 16:00,ZHHH 181600Z AUTO 06004KT 1 1/4SM 09/07 A3024 RMK T00900070 IEM_DS3505
ZHHH,2001-01-18 17:00,ZHHH 181700Z AUTO 08006KT 1 1/2SM 09/07 A3024 RMK T00900070 IEM_DS3505
ZHHH,2001-01-18 18:00,ZHHH 181800Z AUTO 04002KT 7SM 10/08 A3024 RMK SLP242 T00950076 52005 IEM_DS3505
ZHHH,2001-01-18 19:00,ZHHH 181900Z AUTO 05002KT 2SM 09/06 A3024 RMK T00900060 IEM_DS3505
ZHHH,2001-01-18 20:00,ZHHH 182000Z AUTO 08006KT 2SM 09/06 A3021 RMK T00900060 IEM_DS3505
ZHHH,2001-01-18 21:00,ZHHH 182100Z AUTO 02002KT 7SM 09/07 A3018 RMK 70003 SLP231 T00920067 57011 IEM_DS3505
ZHHH,2001-01-18 22:00,ZHHH 182200Z AUTO 1 1/4SM 08/06 A3021 RMK T00800060 IEM_DS3505
ZHHH,2001-01-18 23:00,ZHHH 182300Z AUTO 04008KT 1 1/4SM 07/05 A3024 RMK T00700050 IEM_DS3505
ZHHH,2001-01-19 00:00,ZHHH 190000Z AUTO 02002KT 6SM 08/06 A3024 RMK 60003 SLP238 T00750056 52007 IEM_DS3505
ZHHH,2001-01-19 01:00,ZHHH 190100Z AUTO 04008KT 1SM 06/05 A3024 RMK T00600050 IEM_DS3505
ZHHH,2001-01-19 02:00,ZHHH 190200Z AUTO 04010KT 1/2SM 05/04 A3027 RMK T00500040 IEM_DS3505
ZHHH,2001-01-19 03:00,ZHHH 190300Z AUTO 02002KT 6SM 06/05 A3027 RMK SLP250 T00600052 52012 IEM_DS3505
ZHHH,2001-01-19 04:00,ZHHH 190400Z AUTO 03006KT 3/8SM 06/05 A3024 RMK T00600050 IEM_DS3505
ZHHH,2001-01-19 05:00,ZHHH 190500Z AUTO 35006KT 1/4SM 06/05 A3021 RMK T00600050 IEM_DS3505
ZHHH,2001-01-19 06:00,ZHHH 190600Z AUTO 32002KT 6SM 06/05 A3021 RMK 60008 SLP235 T00550052 57015 IEM_DS3505
ZHHH,2001-01-19 07:00,ZHHH 190700Z AUTO 05010KT 1/2SM 04/03 A3021 RMK T00400030 IEM_DS3505
ZHHH,2001-01-19 08:00,ZHHH 190800Z AUTO 03014KT 1SM 03/03 A3021 RMK T00300030 IEM_DS3505
ZHHH,2001-01-19 09:00,ZHHH 190900Z AUTO 07004KT 6SM 04/03 A3021 RMK SLP235 T00400032 54000 IEM_DS3505
ZHHH,2001-01-19 10:00,ZHHH 191000Z AUTO 03008KT 1 1/4SM 04/03 A3024 RMK T00400030 IEM_DS3505
ZHHH,2001-01-19 11:00,ZHHH 191100Z AUTO 01006KT 1 1/4SM 04/03 A3027 RMK T00400030 IEM_DS3505
ZHHH,2001-01-19 12:00,ZHHH 191200Z AUTO 29002KT 6SM 04/04 A3027 RMK 60012 SLP253 T00450041 52018 IEM_DS3505
ZHHH,2001-01-19 13:00,ZHHH 191300Z AUTO 1 1/4SM 04/04 A3027 RMK T00400040 IEM_DS3505
ZHHH,2001-01-19 14:00,ZHHH 191400Z AUTO 1 1/4SM 04/04 A3027 RMK T00400040 IEM_DS3505
ZHHH,2001-01-19 15:00,ZHHH 191500Z AUTO 29002KT 6SM 05/04 A3030 RMK SLP268 T00470040 52015 IEM_DS3505
ZHHH,2001-01-19 16:00,ZHHH 191600Z AUTO 35008KT 1 1/2SM 04/04 A3030 RMK T00400040 IEM_DS3505
ZHHH,2001-01-19 17:00,ZHHH 191700Z AUTO 35008KT 2SM 04/04 A3033 RMK T00400040 IEM_DS3505
ZHHH,2001-01-19 18:00,ZHHH 191800Z AUTO 36002KT 9SM 04/04 A3030 RMK 60000 SLP267 T00450035 57001 IEM_DS3505
ZHHH,2001-01-19 19:00,ZHHH 191900Z AUTO 35006KT 2SM 04/03 A3030 RMK T00400030 IEM_DS3505
ZHHH,2001-01-19 20:00,ZHHH 192000Z AUTO 3SM 03/03 A3030 RMK T00300030 IEM_DS3505
ZHHH,2001-01-19 21:00,ZHHH 192100Z AUTO 00000KT 9SM 04/03 A3027 RMK 70022 SLP259 T00360027 57009 IEM_DS3505
ZHHH,2001-01-19 22:00,ZHHH 192200Z AUTO 1 1/4SM 02/02 A3027 RMK T00200020 IEM_DS3505
ZHHH,2001-01-19 23:00,ZHHH 192300Z AUTO 1SM 01/01 A3030 RMK T00100010 IEM_DS3505
ZHHH,2001-01-20 00:00,ZHHH 200000Z AUTO 00000KT 5SM 03/03 A3033 RMK 70022 SLP268 T00330029 52009 IEM_DS3505
ZHHH,2001-01-20 01:00,ZHHH 200100Z AUTO 3/8SM 01/01 A3033 RMK T00100010 IEM_DS3505
ZHHH,2001-01-20 02:00,ZHHH 200200Z AUTO 1/2SM 02/01 A3036 RMK T00200010 IEM_DS3505
ZHHH,2001-01-20 03:00,ZHHH 200300Z AUTO 07002KT 6SM 04/02 A3033 RMK SLP274 T00350024 52006 IEM_DS3505
ZHHH,2001-01-20 04:00,ZHHH 200400Z AUTO 1SM 03/03 A3030 RMK T00300030 IEM_DS3505
ZHHH,2001-01-20 05:00,ZHHH 200500Z AUTO 1SM 04/03 A3027 RMK T00400030 IEM_DS3505
ZHHH,2001-01-20 06:00,ZHHH 200600Z AUTO 36002KT 6SM 07/04 A3024 RMK SLP240 T00670040 57033 IEM_DS3505
ZHHH,2001-01-20 07:00,ZHHH 200700Z AUTO 1 1/2SM 05/03 A3021 RMK T00500030 IEM_DS3505
ZHHH,2001-01-20 09:00,ZHHH 200900Z AUTO 07002KT 6SM 06/04 A3018 RMK SLP229 T00630044 57011 IEM_DS3505
ZHHH,2001-01-20 10:00,ZHHH 201000Z AUTO 13008KT 1SM 04/03 A3021 RMK T00400030 IEM_DS3505
ZHHH,2001-01-20 11:00,ZHHH 201100Z AUTO 11010KT 1 1/2SM 04/04 A3021 RMK T00400040 IEM_DS3505
ZHHH,2001-01-20 12:00,ZHHH 201200Z AUTO 09004KT 7SM 05/04 A3018 RMK SLP226 T00460040 57003 IEM_DS3505
ZHHH,2001-01-20 13:00,ZHHH 201300Z AUTO 09006KT 1 1/2SM 04/04 A3018 RMK T00400040 IEM_DS3505
ZHHH,2001-01-20 14:00,ZHHH 201400Z AUTO 08006KT 1 1/2SM 04/04 A3018 RMK T00400040 IEM_DS3505
ZHHH,2001-01-20 15:00,ZHHH 201500Z AUTO 09002KT 7SM 04/04 A3018 RMK SLP219 T00450041 57007 IEM_DS3505
ZHHH,2001-01-20 16:00,ZHHH 201600Z AUTO 07008KT 1 1/2SM 04/04 A3015 RMK T00400040 IEM_DS3505
ZHHH,2001-01-20 17:00,ZHHH 201700Z AUTO 07008KT 2SM 04/04 A3015 RMK T00400040 IEM_DS3505
ZHHH,2001-01-20 18:00,ZHHH 201800Z AUTO 07002KT 9SM 05/05 A3012 RMK SLP211 T00500046 57008 IEM_DS3505
ZHHH,2001-01-20 21:00,ZHHH 202100Z AUTO 09004KT 7SM 05/05 A3009 RMK SLP193 T00510047 57018 IEM_DS3505
ZHHH,2001-01-20 22:00,ZHHH 202200Z AUTO 06008KT 1SM 04/04 A3009 RMK T00400040 IEM_DS3505
ZHHH,2001-01-20 23:00,ZHHH 202300Z AUTO 07006KT 1SM 04/04 A3009 RMK T00400040 IEM_DS3505
ZHHH,2001-01-21 00:00,ZHHH 210000Z AUTO 07004KT 6SM 05/05 RMK 60002 SLP195 T00500049 52002 IEM_DS3505
ZHHH,2001-01-21 01:00,ZHHH 210100Z AUTO 1SM 04/04 A3012 RMK T00400040 IEM_DS3505
ZHHH,2001-01-21 02:00,ZHHH 210200Z AUTO 05006KT 1SM 05/04 A3012 RMK T00500040 IEM_DS3505
ZHHH,2001-01-21 03:00,ZHHH 210300Z AUTO 04002KT 6SM 05/05 A3009 RMK SLP197 T00500050 52002 IEM_DS3505
ZHHH,2001-01-21 04:00,ZHHH 210400Z AUTO 05008KT 1SM 04/04 A3006 RMK T00400040 IEM_DS3505
ZHHH,2001-01-21 05:00,ZHHH 210500Z AUTO 04008KT 1SM 04/04 A3003 RMK T00400040 IEM_DS3505
ZHHH,2001-01-21 06:00,ZHHH 210600Z AUTO 04002KT 6SM 05/05 A3000 RMK 60031 SLP165 T00500049 57032 IEM_DS3505
ZHHH,2001-01-21 07:00,ZHHH 210700Z AUTO 03006KT 1 1/2SM 05/04 A3000 RMK T00500040 IEM_DS3505
ZHHH,2001-01-21 08:00,ZHHH 210800Z AUTO 04006KT 1 1/2SM 04/04 A3000 RMK T00400040 IEM_DS3505
ZHHH,2001-01-21 09:00,ZHHH 210900Z AUTO 04004KT 6SM 05/05 A3000 RMK SLP162 T00490047 57003 IEM_DS3505
ZHHH,2001-01-21 10:00,ZHHH 211000Z AUTO 03008KT 1 1/2SM 04/04 A3000 RMK T00400040 IEM_DS3505
ZHHH,2001-01-21 11:00,ZHHH 211100Z AUTO 04006KT 4SM 04/04 A3000 RMK T00400040 IEM_DS3505
ZHHH,2001-01-21 12:00,ZHHH 211200Z AUTO 04004KT 9SM 05/04 A3003 RMK 60008 SLP178 T00460042 52016 IEM_DS3505
ZHHH,2001-01-21 13:00,ZHHH 211300Z AUTO 7SM 05/04 A3006 RMK T00500040 IEM_DS3505
ZHHH,2001-01-21 14:00,ZHHH 211400Z AUTO 35008KT 4SM 04/04 A3009 RMK T00400040 IEM_DS3505
ZHHH,2001-01-21 15:00,ZHHH 211500Z AUTO 36004KT 9SM 04/03 A3012 RMK SLP200 T00400034 52022 IEM_DS3505
ZHHH,2001-01-21 16:00,ZHHH 211600Z AUTO 03008KT 2SM 04/03 A3009 RMK T00400030 IEM_DS3505
ZHHH,2001-01-21 17:00,ZHHH 211700Z AUTO 02006KT 2SM 04/03 A3012 RMK T00400030 IEM_DS3505
ZHHH,2001-01-21 18:00,ZHHH 211800Z AUTO 34002KT 7SM 04/03 A3012 RMK 60000 SLP204 T00390033 52004 IEM_DS3505
ZHHH,2001-01-21 19:00,ZHHH 211900Z AUTO 35006KT 2SM 03/03 A3012 RMK T00300030 IEM_DS3505
ZHHH,2001-01-21 20:00,ZHHH 212000Z AUTO 03006KT 2SM 03/03 A3012 RMK T00300030 IEM_DS3505
ZHHH,2001-01-21 21:00,ZHHH 212100Z AUTO 02002KT 7SM 04/03 A3009 RMK 70042 SLP196 T00350028 57008 IEM_DS3505
ZHHH,2001-01-21 22:00,ZHHH 212200Z AUTO 03010KT 2SM 03/02 A3009 RMK T00300020 IEM_DS3505
ZHHH,2001-01-21 23:00,ZHHH 212300Z AUTO 03008KT 1 1/2SM 03/02 A3012 RMK T00300020 IEM_DS3505
ZHHH,2001-01-22 00:00,ZHHH 220000Z AUTO 36004KT 6SM 04/03 A3015 RMK 70040 SLP213 T00350027 52017 IEM_DS3505
ZHHH,2001-01-22 01:00,ZHHH 220100Z AUTO 01006KT 1SM 03/03 A3018 RMK T00300030 IEM_DS3505
ZHHH,2001-01-22 02:00,ZHHH 220200Z AUTO 02008KT 1 1/2SM 04/03 A3018 RMK T00400030 IEM_DS3505
ZHHH,2001-01-22 03:00,ZHHH 220300Z AUTO 02004KT 6SM 04/03 A3018 RMK SLP231 T00410030 52018 IEM_DS3505
ZHHH,2001-01-22 05:00,ZHHH 220500Z AUTO 02010KT 1 1/2SM 05/04 A3015 RMK T00500040 IEM_DS3505
ZHHH,2001-01-22 06:00,ZHHH 220600Z AUTO 36006KT 6SM 05/04 A3015 RMK 60003 SLP211 T00460036 57020 IEM_DS3505
ZHHH,2001-01-22 07:00,ZHHH 220700Z AUTO 04012KT 2SM 05/03 A3012 RMK T00500030 IEM_DS3505
ZHHH,2001-01-22 08:00,ZHHH 220800Z AUTO 03012KT 2SM 04/03 A3012 RMK T00400030 IEM_DS3505
ZHHH,2001-01-22 09:00,ZHHH 220900Z AUTO 04004KT 7SM 05/03 A3012 RMK SLP210 T00480034 57001 IEM_DS3505
ZHHH,2001-01-22 10:00,ZHHH 221000Z AUTO 05010KT 1 1/2SM 04/03 A3015 RMK T00400030 IEM_DS3505
ZHHH,2001-01-22 11:00,ZHHH 221100Z AUTO 04010KT 1 1/2SM 04/03 A3018 RMK T00400030 IEM_DS3505
ZHHH,2001-01-22 12:00,ZHHH 221200Z AUTO 04004KT 6SM 05/03 A3018 RMK 60003 SLP224 T00460032 52014 IEM_DS3505
ZHHH,2001-01-22 13:00,ZHHH 221300Z AUTO 04010KT 4SM 04/03 A3018 RMK T00400030 IEM_DS3505
ZHHH,2001-01-22 14:00,ZHHH 221400Z AUTO 04010KT 7SM 04/03 A3021 RMK T00400030 IEM_DS3505
ZHHH,2001-01-22 15:00,ZHHH 221500Z AUTO 04004KT 6SM 05/03 A3021 RMK SLP236 T00480034 52012 IEM_DS3505
ZHHH,2001-01-22 16:00,ZHHH 221600Z AUTO 05010KT 7SM 04/03 A3021 RMK T00400030 IEM_DS3505
ZHHH,2001-01-22 17:00,ZHHH 221700Z AUTO 04008KT 2 1/2SM 04/03 A3021 RMK T00400030 IEM_DS3505
ZHHH,2001-01-22 18:00,ZHHH 221800Z AUTO 34004KT 9SM 04/04 A3021 RMK 60004 SLP237 T00440038 52001 IEM_DS3505
ZHHH,2001-01-22 19:00,ZHHH 221900Z AUTO 03010KT 2 1/2SM 04/03 A3021 RMK T00400030 IEM_DS3505
ZHHH,2001-01-22 20:00,ZHHH 222000Z AUTO 04010KT 1 1/2SM 04/03 A3018 RMK T00400030 IEM_DS3505
ZHHH,2001-01-22 21:00,ZHHH 222100Z AUTO 04006KT 8SM 04/04 A3018 RMK 70015 SLP220 T00400037 57017 IEM_DS3505
ZHHH,2001-01-22 22:00,ZHHH 222200Z AUTO 04010KT 1 1/4SM 03/03 A3018 RMK T00300030 IEM_DS3505
ZHHH,2001-01-22 23:00,ZHHH 222300Z AUTO 04012KT 2 1/2SM 03/02 A3018 RMK T00300020 IEM_DS3505
ZHHH,2001-01-23 00:00,ZHHH 230000Z AUTO 04004KT 7SM 03/03 A3018 RMK 60012 SLP228 T00330027 52008 IEM_DS3505
ZHHH,2001-01-23 01:00,ZHHH 230100Z AUTO 02008KT 2 1/2SM 03/02 A3021 RMK T00300020 IEM_DS3505
ZHHH,2001-01-23 02:00,ZHHH 230200Z AUTO 03008KT 3SM 03/03 A3021 RMK T00300030 IEM_DS3505
ZHHH,2001-01-23 03:00,ZHHH 230300Z AUTO 34002KT 9SM 04/03 A3021 RMK SLP232 T00350033 52004 IEM_DS3505
ZHHH,2001-01-23 04:00,ZHHH 230400Z AUTO 2 1/2SM 03/03 A3018 RMK T00300030 IEM_DS3505
ZHHH,2001-01-23 05:00,ZHHH 230500Z AUTO 01006KT 2SM 04/03 A3015 RMK T00400030 IEM_DS3505
ZHHH,2001-01-23 06:00,ZHHH 230600Z AUTO 02002KT 6SM 04/04 A3012 RMK 60035 SLP206 T00390036 57026 IEM_DS3505
ZHHH,2001-01-23 07:00,ZHHH 230700Z AUTO 02008KT 2SM 04/03 A3012 RMK T00400030 IEM_DS3505
ZHHH,2001-01-23 08:00,ZHHH 230800Z AUTO 02008KT 2SM 03/03 A3012 RMK T00300030 IEM_DS3505
ZHHH,2001-01-23 09:00,ZHHH 230900Z AUTO 36004KT 7SM 04/04 A3012 RMK SLP201 T00370037 57005 IEM_DS3505
ZHHH,2001-01-23 10:00,ZHHH 231000Z AUTO 03008KT 4SM 03/03 A3012 RMK T00300030 IEM_DS3505
ZHHH,2001-01-23 11:00,ZHHH 231100Z AUTO 02008KT 7SM 03/03 A3012 RMK T00300030 IEM_DS3505
ZHHH,2001-01-23 12:00,ZHHH 231200Z AUTO 36004KT 6SM 04/03 A3015 RMK 60008 SLP218 T00350034 52016 IEM_DS3505
ZHHH,2001-01-23 13:00,ZHHH 231300Z AUTO 5SM 03/03 A3018 RMK T00300030 IEM_DS3505
ZHHH,2001-01-23 14:00,ZHHH 231400Z AUTO 05004KT 7SM 03/03 A3018 RMK T00300030 IEM_DS3505
ZHHH,2001-01-23 15:00,ZHHH 231500Z AUTO 34004KT 6SM 03/03 A3018 RMK SLP231 T00320032 52013 IEM_DS3505
ZHHH,2001-01-23 16:00,ZHHH 231600Z AUTO 03008KT 7SM 02/02 A3018 RMK T00200020 IEM_DS3505
ZHHH,2001-01-23 17:00,ZHHH 231700Z AUTO 02008KT 7SM 02/02 A3018 RMK T00200020 IEM_DS3505
ZHHH,2001-01-23 18:00,ZHHH 231800Z AUTO 02006KT 5SM 02/02 A3015 RMK 60008 SLP219 T00240019 57012 IEM_DS3505
ZHHH,2001-01-23 19:00,ZHHH 231900Z AUTO 02010KT 7SM 01/00 A3018 RMK T00100000 IEM_DS3505
ZHHH,2001-01-23 20:00,ZHHH 232000Z AUTO 03008KT 3SM 01/00 A3015 RMK T00100000 IEM_DS3505
ZHHH,2001-01-23 21:00,ZHHH 232100Z AUTO 36004KT 6SM 01/00 A3015 RMK 70056 SLP219 T00110005 54000 IEM_DS3505
ZHHH,2001-01-23 22:00,ZHHH 232200Z AUTO 02010KT 4SM 00/M01 A3018 RMK T00001010 IEM_DS3505
ZHHH,2001-01-23 23:00,ZHHH 232300Z AUTO 35006KT 3SM 00/M01 A3018 RMK T00001010 IEM_DS3505
ZHHH,2001-01-24 00:00,ZHHH 240000Z AUTO 29002KT 4SM 00/00 A3021 RMK 60012 SLP232 T00050000 52013 IEM_DS3505
ZHHH,2001-01-24 01:00,ZHHH 240100Z AUTO 35008KT 1SM 00/00 A3021 RMK T00000000 IEM_DS3505
ZHHH,2001-01-24 02:00,ZHHH 240200Z AUTO 35010KT 1 1/4SM 01/00 A3024 RMK T00100000 IEM_DS3505
ZHHH,2001-01-24 03:00,ZHHH 240300Z AUTO 29004KT 4SM 01/00 A3024 RMK SLP244 T00090004 52012 IEM_DS3505
ZHHH,2001-01-24 04:00,ZHHH 240400Z AUTO 36008KT 1 1/2SM 01/00 A3021 RMK T00100000 IEM_DS3505
ZHHH,2001-01-24 05:00,ZHHH 240500Z AUTO 34008KT 1 1/2SM 01/00 A3021 RMK T00100000 IEM_DS3505
ZHHH,2001-01-24 06:00,ZHHH 240600Z AUTO 34006KT 6SM 01/00 A3018 RMK 60008 SLP225 T00120003 57019 IEM_DS3505
ZHHH,2001-01-24 07:00,ZHHH 240700Z AUTO 36010KT 1SM 01/01 A3015 RMK T00100010 IEM_DS3505
ZHHH,2001-01-24 08:00,ZHHH 240800Z AUTO 35010KT 1 1/4SM 01/01 A3015 RMK T00100010 IEM_DS3505
ZHHH,2001-01-24 09:00,ZHHH 240900Z AUTO 34008KT 5SM 01/00 A3018 RMK SLP217 T00120005 57008 IEM_DS3505
ZHHH,2001-01-24 10:00,ZHHH 241000Z AUTO 01006KT 4SM 01/00 A3018 RMK T00100000 IEM_DS3505
ZHHH,2001-01-24 11:00,ZHHH 241100Z AUTO 01008KT 2 1/2SM 01/00 A3018 RMK T00100000 IEM_DS3505
ZHHH,2001-01-24 12:00,ZHHH 241200Z AUTO 34004KT 4SM 01/00 A3018 RMK 60002 SLP229 T00100005 52012 IEM_DS3505
ZHHH,2001-01-24 13:00,ZHHH 241300Z AUTO 34008KT 1 1/2SM 01/00 A3021 RMK T00100000 IEM_DS3505
ZHHH,2001-01-24 14:00,ZHHH 241400Z AUTO 01008KT 1 1/2SM 01/00 A3018 RMK T00100000 IEM_DS3505
ZHHH,2001-01-24 15:00,ZHHH 241500Z AUTO 34004KT 5SM 01/01 A3018 RMK SLP227 T00100007 57002 IEM_DS3505
ZHHH,2001-01-24 16:00,ZHHH 241600Z AUTO 01008KT 3SM 02/00 A3021 RMK T00200000 IEM_DS3505
ZHHH,2001-01-24 17:00,ZHHH 241700Z AUTO 02012KT 4SM 01/00 A3021 RMK T00100000 IEM_DS3505
ZHHH,2001-01-24 18:00,ZHHH 241800Z AUTO 07002KT 6SM 02/00 A3021 RMK 60002 SLP232 T00160005 52005 IEM_DS3505
ZHHH,2001-01-24 19:00,ZHHH 241900Z AUTO 02010KT 2 1/2SM 01/00 A3018 RMK T00100000 IEM_DS3505
ZHHH,2001-01-24 20:00,ZHHH 242000Z AUTO 02010KT 2 1/2SM 01/M01 A3018 RMK T00101010 IEM_DS3505
ZHHH,2001-01-24 21:00,ZHHH 242100Z AUTO 02006KT 5SM 01/M00 A3015 RMK 70018 SLP212 T00101005 57020 IEM_DS3505
ZHHH,2001-01-24 22:00,ZHHH 242200Z AUTO 02012KT 2 1/2SM 00/M01 A3015 RMK T00001010 IEM_DS3505
ZHHH,2001-01-24 23:00,ZHHH 242300Z AUTO 02010KT 1SM M01/M01 A3015 RMK T10101010 IEM_DS3505
ZHHH,2001-01-25 00:00,ZHHH 250000Z AUTO 36004KT 3SM M00/M01 A3018 RMK 60008 SLP222 T10041006 52010 IEM_DS3505
ZHHH,2001-01-25 01:00,ZHHH 250100Z AUTO 01010KT 1/2SM M01/M01 A3021 RMK T10101010 IEM_DS3505
ZHHH,2001-01-25 02:00,ZHHH 250200Z AUTO 01008KT 3/8SM M01/M01 A3021 RMK T10101010 IEM_DS3505
ZHHH,2001-01-25 03:00,ZHHH 250300Z AUTO 36004KT 1/2SM M00/M00 A3021 RMK SLP230 T10021003 52008 IEM_DS3505
ZHHH,2001-01-25 04:00,ZHHH 250400Z AUTO 01006KT 1 1/2SM 00/00 A3018 RMK T00000000 IEM_DS3505
ZHHH,2001-01-25 05:00,ZHHH 250500Z AUTO 01008KT 2SM 00/00 A3018 RMK T00000000 IEM_DS3505
ZHHH,2001-01-25 06:00,ZHHH 250600Z AUTO 36006KT 1 1/4SM M00/M01 A3015 RMK 60016 SLP220 T10051010 57010 IEM_DS3505
ZHHH,2001-01-25 07:00,ZHHH 250700Z AUTO 36008KT 1SM 00/00 A3015 RMK T00000000 IEM_DS3505
ZHHH,2001-01-25 08:00,ZHHH 250800Z AUTO 03012KT 3SM 00/M01 A3015 RMK T00001010 IEM_DS3505
ZHHH,2001-01-25 09:00,ZHHH 250900Z AUTO 02006KT 6SM M00/M02 A3018 RMK SLP225 T10031017 52005 IEM_DS3505
ZHHH,2001-01-25 10:00,ZHHH 251000Z AUTO 01010KT 4SM M01/M02 A3018 RMK T10101020 IEM_DS3505
ZHHH,2001-01-25 11:00,ZHHH 251100Z AUTO 02010KT 4SM M01/M02 A3021 RMK T10101020 IEM_DS3505
ZHHH,2001-01-25 12:00,ZHHH 251200Z AUTO 34004KT 5SM M01/M02 A3024 RMK 60002 SLP248 T10081019 52023 IEM_DS3505
ZHHH,2001-01-25 13:00,ZHHH 251300Z AUTO 36006KT 3SM M01/M02 A3027 RMK T10101020 IEM_DS3505
ZHHH,2001-01-25 14:00,ZHHH 251400Z AUTO 35014KT 2 1/2SM M01/M02 A3027 RMK T10101020 IEM_DS3505
ZHHH,2001-01-25 15:00,ZHHH 251500Z AUTO 34002KT 5SM M01/M02 A3027 RMK SLP257 T10111023 52009 IEM_DS3505
ZHHH,2001-01-25 16:00,ZHHH 251600Z AUTO 02008KT 2SM M01/M03 A3030 RMK T10101030 IEM_DS3505
ZHHH,2001-01-25 17:00,ZHHH 251700Z AUTO 36012KT 2SM M02/M03 A3030 RMK T10201030 IEM_DS3505
ZHHH,2001-01-25 18:00,ZHHH 251800Z AUTO 36006KT 7SM M01/M03 A3027 RMK SLP265 T10141027 52008 IEM_DS3505
ZHHH,2001-01-25 19:00,ZHHH 251900Z AUTO 34012KT 2SM M02/M03 A3033 RMK T10201030 IEM_DS3505
ZHHH,2001-01-25 20:00,ZHHH 252000Z AUTO 34012KT 2 1/2SM M02/M03 A3030 RMK T10201030 IEM_DS3505
ZHHH,2001-01-25 21:00,ZHHH 252100Z AUTO 32002KT 7SM M02/M03 A3030 RMK 70026 SLP271 T10201032 52006 IEM_DS3505
ZHHH,2001-01-25 22:00,ZHHH 252200Z AUTO 34010KT 3SM M02/M03 A3030 RMK T10201030 IEM_DS3505
ZHHH,2001-01-25 23:00,ZHHH 252300Z AUTO 36008KT 3SM M02/M04 A3030 RMK T10201040 IEM_DS3505
ZHHH,2001-01-26 00:00,ZHHH 260000Z AUTO 02002KT 7SM M02/M04 A3030 RMK 70020 SLP271 T10191035 54000 IEM_DS3505
ZHHH,2001-01-26 01:00,ZHHH 260100Z AUTO 34004KT 2SM M02/M03 A3033 RMK T10201030 IEM_DS3505
ZHHH,2001-01-26 02:00,ZHHH 260200Z AUTO 3SM M01/M04 A3036 RMK T10101040 IEM_DS3505
ZHHH,2001-01-26 03:00,ZHHH 260300Z AUTO 07002KT 9SM M01/M04 A3033 RMK SLP278 T10061036 52007 IEM_DS3505
ZHHH,2001-01-26 04:00,ZHHH 260400Z AUTO 7SM 00/M04 A3033 RMK T00001040 IEM_DS3505
ZHHH,2001-01-26 05:00,ZHHH 260500Z AUTO 7SM 00/M04 A3027 RMK T00001040 IEM_DS3505
ZHHH,2001-01-26 06:00,ZHHH 260600Z AUTO 27002KT 9SM 02/M02 A3027 RMK SLP256 T00161024 57022 IEM_DS3505
ZHHH,2001-01-26 07:00,ZHHH 260700Z AUTO 7SM 01/M03 A3027 RMK T00101030 IEM_DS3505
ZHHH,2001-01-26 08:00,ZHHH 260800Z AUTO 27008KT 7SM 02/M02 A3030 RMK T00201020 IEM_DS3505
ZHHH,2001-01-26 09:00,ZHHH 260900Z AUTO 29002KT 9SM 02/M02 A3030 RMK SLP266 T00151024 52010 IEM_DS3505
ZHHH,2001-01-26 10:00,ZHHH 261000Z AUTO 3SM 01/M03 A3030 RMK T00101030 IEM_DS3505
ZHHH,2001-01-26 11:00,ZHHH 261100Z AUTO 25002KT 6SM 00/M02 A3030 RMK T00001020 IEM_DS3505
ZHHH,2001-01-26 12:00,ZHHH 261200Z AUTO 00000KT 11SM 00/M02 A3030 RMK SLP271 T00031022 52005 IEM_DS3505
ZHHH,2001-01-26 13:00,ZHHH 261300Z AUTO 6SM 00/M03 A3033 RMK T00001030 IEM_DS3505
ZHHH,2001-01-26 14:00,ZHHH 261400Z AUTO 4SM 00/M03 A3033 RMK T00001030 IEM_DS3505
ZHHH,2001-01-26 15:00,ZHHH 261500Z AUTO 00000KT 11SM M01/M02 A3033 RMK SLP273 T10061016 52002 IEM_DS3505
ZHHH,2001-01-26 16:00,ZHHH 261600Z AUTO 3SM M01/M02 A3033 RMK T10101020 IEM_DS3505
ZHHH,2001-01-26 17:00,ZHHH 261700Z AUTO 30002KT 3SM M01/M02 A3036 RMK T10101020 IEM_DS3505
ZHHH,2001-01-26 18:00,ZHHH 261800Z AUTO 00000KT 7SM M01/M02 A3033 RMK SLP273 T10101018 54000 IEM_DS3505
ZHHH,2001-01-26 19:00,ZHHH 261900Z AUTO 06004KT 1 1/2SM M01/M02 A3030 RMK T10101020 IEM_DS3505
ZHHH,2001-01-26 20:00,ZHHH 262000Z AUTO 1 1/2SM M01/M02 A3033 RMK T10101020 IEM_DS3505
ZHHH,2001-01-26 21:00,ZHHH 262100Z AUTO 00000KT 7SM M01/M02 A3033 RMK SLP271 T10091016 57002 IEM_DS3505
ZHHH,2001-01-26 22:00,ZHHH 262200Z AUTO 2SM M01/M02 A3030 RMK T10101020 IEM_DS3505
ZHHH,2001-01-26 23:00,ZHHH 262300Z AUTO 2SM M01/M02 A3033 RMK T10101020 IEM_DS3505
ZHHH,2001-01-27 00:00,ZHHH 270000Z AUTO 04002KT 7SM M01/M02 A3033 RMK SLP277 T10081015 52006 IEM_DS3505
ZHHH,2001-01-27 01:00,ZHHH 270100Z AUTO 00000KT 1 1/4SM M01/M02 A3036 RMK T10101020 IEM_DS3505
ZHHH,2001-01-27 02:00,ZHHH 270200Z AUTO 00000KT 1 1/2SM 00/M02 A3039 RMK T00001020 IEM_DS3505
ZHHH,2001-01-27 03:00,ZHHH 270300Z AUTO 14002KT 11SM 02/M01 A3036 RMK SLP287 T00151009 52010 IEM_DS3505
ZHHH,2001-01-27 04:00,ZHHH 270400Z AUTO 3SM 02/00 A3033 RMK T00200000 IEM_DS3505
ZHHH,2001-01-27 05:00,ZHHH 270500Z AUTO 30006KT 3SM 03/00 A3033 RMK T00300000 IEM_DS3505
ZHHH,2001-01-27 06:00,ZHHH 270600Z AUTO 36004KT 11SM 04/00 A3030 RMK SLP265 T00390002 57022 IEM_DS3505
ZHHH,2001-01-27 07:00,ZHHH 270700Z AUTO 36006KT 3SM 05/01 A3027 RMK T00500010 IEM_DS3505
ZHHH,2001-01-27 08:00,ZHHH 270800Z AUTO 3SM 05/01 A3030 RMK T00500010 IEM_DS3505
ZHHH,2001-01-27 09:00,ZHHH 270900Z AUTO 34002KT 11SM 05/01 A3030 RMK SLP268 T00470008 52003 IEM_DS3505
ZHHH,2001-01-27 10:00,ZHHH 271000Z AUTO 33006KT 2 1/2SM 05/02 A3030 RMK T00500020 IEM_DS3505
ZHHH,2001-01-27 11:00,ZHHH 271100Z AUTO 2 1/2SM 04/02 A3033 RMK T00400020 IEM_DS3505
ZHHH,2001-01-27 12:00,ZHHH 271200Z AUTO 25002KT 9SM 04/02 A3033 RMK SLP285 T00410019 52017 IEM_DS3505
ZHHH,2001-01-27 13:00,ZHHH 271300Z AUTO 2 1/2SM 04/02 A3036 RMK T00400020 IEM_DS3505
ZHHH,2001-01-27 14:00,ZHHH 271400Z AUTO 26004KT 2 1/2SM 03/02 A3039 RMK T00300020 IEM_DS3505
ZHHH,2001-01-27 15:00,ZHHH 271500Z AUTO 29002KT 9SM 03/02 A3042 RMK SLP303 T00320015 52018 IEM_DS3505
ZHHH,2001-01-27 16:00,ZHHH 271600Z AUTO 2SM 02/01 A3042 RMK T00200010 IEM_DS3505
ZHHH,2001-01-27 17:00,ZHHH 271700Z AUTO 27002KT 1 1/2SM 01/01 A3039 RMK T00100010 IEM_DS3505
ZHHH,2001-01-27 18:00,ZHHH 271800Z AUTO 00000KT 9SM 02/01 A3039 RMK SLP295 T00160008 57008 IEM_DS3505
ZHHH,2001-01-27 19:00,ZHHH 271900Z AUTO 1 1/2SM 01/00 A3042 RMK T00100000 IEM_DS3505
ZHHH,2001-01-27 20:00,ZHHH 272000Z AUTO 36004KT 1 1/2SM 01/00 A3042 RMK T00100000 IEM_DS3505
ZHHH,2001-01-27 21:00,ZHHH 272100Z AUTO 29002KT 11SM 01/00 A3042 RMK SLP307 T00110005 52012 IEM_DS3505
ZHHH,2001-01-27 22:00,ZHHH 272200Z AUTO 1 1/2SM 00/00 A3045 RMK T00000000 IEM_DS3505
ZHHH,2001-01-27 23:00,ZHHH 272300Z AUTO 1 1/2SM 00/00 A3047 RMK T00000000 IEM_DS3505
ZHHH,2001-01-28 00:00,ZHHH 280000Z AUTO 09002KT 9SM 00/M00 A3050 RMK SLP331 T00041001 52024 IEM_DS3505
ZHHH,2001-01-28 01:00,ZHHH 280100Z AUTO 08006KT 4SM 02/M01 A3050 RMK T00201010 IEM_DS3505
ZHHH,2001-01-28 02:00,ZHHH 280200Z AUTO 07012KT 6SM 04/M03 A3053 RMK T00401030 IEM_DS3505
ZHHH,2001-01-28 03:00,ZHHH 280300Z AUTO 09006KT 11SM 05/M03 A3053 RMK SLP341 T00511034 52010 IEM_DS3505
ZHHH,2001-01-28 04:00,ZHHH 280400Z AUTO 05014KT 6SM 06/M04 A3050 RMK T00601040 IEM_DS3505
ZHHH,2001-01-28 05:00,ZHHH 280500Z AUTO 06016KT 6SM 06/M06 A3045 RMK T00601060 IEM_DS3505
ZHHH,2001-01-28 06:00,ZHHH 280600Z AUTO 07006KT 11SM 07/M08 A3042 RMK SLP308 T00701076 57033 IEM_DS3505
ZHHH,2001-01-28 07:00,ZHHH 280700Z AUTO 05010KT 6SM 07/M09 A3042 RMK T00701090 IEM_DS3505
ZHHH,2001-01-28 08:00,ZHHH 280800Z AUTO 05012KT 6SM 07/M09 A3042 RMK T00701090 IEM_DS3505
ZHHH,2001-01-28 09:00,ZHHH 280900Z AUTO 09002KT 11SM 07/M07 A3042 RMK SLP306 T00701067 57002 IEM_DS3505
ZHHH,2001-01-28 10:00,ZHHH 281000Z AUTO 04006KT 6SM 05/M05 A3045 RMK T00501050 IEM_DS3505
ZHHH,2001-01-28 11:00,ZHHH 281100Z AUTO 6SM 04/M06 A3045 RMK T00401060 IEM_DS3505
ZHHH,2001-01-28 12:00,ZHHH 281200Z AUTO 04004KT 9SM 04/M05 A3047 RMK SLP322 T00361049 52016 IEM_DS3505
ZHHH,2001-01-28 14:00,ZHHH 281400Z AUTO 04006KT 6SM 02/M06 A3045 RMK T00201060 IEM_DS3505
ZHHH,2001-01-28 15:00,ZHHH 281500Z AUTO 04002KT 9SM 02/M05 A3047 RMK SLP324 T00241049 52002 IEM_DS3505
ZHHH,2001-01-28 16:00,ZHHH 281600Z AUTO 13006KT 6SM 01/M04 A3045 RMK T00101040 IEM_DS3505
ZHHH,2001-01-28 17:00,ZHHH 281700Z AUTO 12004KT 6SM 01/M04 A3042 RMK T00101040 IEM_DS3505
ZHHH,2001-01-28 18:00,ZHHH 281800Z AUTO 00000KT 9SM 02/M05 A3039 RMK SLP292 T00171053 57032 IEM_DS3505
ZHHH,2001-01-28 19:00,ZHHH 281900Z AUTO 6SM 01/M04 A3036 RMK T00101040 IEM_DS3505
ZHHH,2001-01-28 20:00,ZHHH 282000Z AUTO 33006KT 6SM 00/M02 A3039 RMK T00001020 IEM_DS3505
ZHHH,2001-01-28 21:00,ZHHH 282100Z AUTO 04002KT 9SM 01/M04 A3039 RMK SLP295 T00091035 52003 IEM_DS3505
ZHHH,2001-01-28 22:00,ZHHH 282200Z AUTO 05006KT 6SM 00/M03 A3039 RMK T00001030 IEM_DS3505
ZHHH,2001-01-28 23:00,ZHHH 282300Z AUTO 14004KT 6SM M01/M03 A3039 RMK T10101030 IEM_DS3505
ZHHH,2001-01-29 00:00,ZHHH 290000Z AUTO 09002KT 9SM 00/M04 A3039 RMK SLP293 T00051037 57002 IEM_DS3505
ZHHH,2001-01-29 01:00,ZHHH 290100Z AUTO 13006KT 6SM 01/M02 A3036 RMK T00101020 IEM_DS3505
ZHHH,2001-01-29 03:00,ZHHH 290300Z AUTO 16004KT 11SM 06/M03 A3033 RMK SLP278 T00551029 57015 IEM_DS3505
ZHHH,2001-01-29 04:00,ZHHH 290400Z AUTO 20006KT 6SM 07/M02 A3030 RMK T00701020 IEM_DS3505
ZHHH,2001-01-29 05:00,ZHHH 290500Z AUTO 6SM 08/M07 A3027 RMK T00801070 IEM_DS3505
ZHHH,2001-01-29 06:00,ZHHH 290600Z AUTO 20002KT 11SM 09/M05 A3024 RMK SLP243 T00921048 57034 IEM_DS3505
ZHHH,2001-01-29 07:00,ZHHH 290700Z AUTO 6SM 09/M05 A3021 RMK T00901050 IEM_DS3505
ZHHH,2001-01-29 08:00,ZHHH 290800Z AUTO 6SM 10/M04 A3021 RMK T01001040 IEM_DS3505
ZHHH,2001-01-29 09:00,ZHHH 290900Z AUTO 11002KT 11SM 09/M07 A3021 RMK SLP229 T00941069 57014 IEM_DS3505
ZHHH,2001-01-29 10:00,ZHHH 291000Z AUTO 11004KT 6SM 08/M04 A3021 RMK T00801040 IEM_DS3505
ZHHH,2001-01-29 12:00,ZHHH 291200Z AUTO 07002KT 12SM 06/M01 A3021 RMK SLP238 T00601012 52008 IEM_DS3505
ZHHH,2001-01-29 13:00,ZHHH 291300Z AUTO 11006KT 6SM 05/M01 A3024 RMK T00501010 IEM_DS3505
ZHHH,2001-01-29 14:00,ZHHH 291400Z AUTO 08004KT 6SM 05/M02 A3024 RMK T00501020 IEM_DS3505
ZHHH,2001-01-29 15:00,ZHHH 291500Z AUTO 09002KT 12SM 03/00 A3024 RMK SLP246 T00330003 52009 IEM_DS3505
ZHHH,2001-01-29 16:00,ZHHH 291600Z AUTO 6SM 04/M02 A3027 RMK T00401020 IEM_DS3505
ZHHH,2001-01-29 17:00,ZHHH 291700Z AUTO 07006KT 6SM 04/M03 A3027 RMK T00401030 IEM_DS3505
ZHHH,2001-01-29 18:00,ZHHH 291800Z AUTO 07002KT 9SM 04/M00 A3027 RMK SLP248 T00351004 52002 IEM_DS3505
ZHHH,2001-01-29 19:00,ZHHH 291900Z AUTO 09006KT 6SM 03/M01 A3024 RMK T00301010 IEM_DS3505
ZHHH,2001-01-29 20:00,ZHHH 292000Z AUTO 00000KT 6SM 04/M02 A3024 RMK T00401020 IEM_DS3505
ZHHH,2001-01-29 21:00,ZHHH 292100Z AUTO 11002KT 7SM 04/M00 A3018 RMK SLP223 T00371003 57025 IEM_DS3505
ZHHH,2001-01-29 22:00,ZHHH 292200Z AUTO 03006KT 6SM 03/M01 A3021 RMK T00301010 IEM_DS3505
ZHHH,2001-01-29 23:00,ZHHH 292300Z AUTO 07006KT 6SM 02/M01 A3021 RMK T00201010 IEM_DS3505
ZHHH,2001-01-30 00:00,ZHHH 300000Z AUTO 00000KT 9SM 03/00 A3021 RMK SLP237 T00280003 52014 IEM_DS3505
ZHHH,2001-01-30 01:00,ZHHH 300100Z AUTO 3SM 03/M01 A3024 RMK T00301010 IEM_DS3505
ZHHH,2001-01-30 02:00,ZHHH 300200Z AUTO 10006KT 11SM 05/M02 A3024 RMK T00501020 IEM_DS3505
ZHHH,2001-01-30 03:00,ZHHH 300300Z AUTO 09002KT 11SM 08/01 A3021 RMK SLP234 T00770008 57003 IEM_DS3505
ZHHH,2001-01-30 04:00,ZHHH 300400Z AUTO 11006KT 6SM 09/M02 A3018 RMK T00901020 IEM_DS3505
ZHHH,2001-01-30 05:00,ZHHH 300500Z AUTO 13006KT 6SM 10/00 A3015 RMK T01000000 IEM_DS3505
ZHHH,2001-01-30 06:00,ZHHH 300600Z AUTO 07002KT 12SM 12/M01 A3009 RMK SLP195 T01151010 57039 IEM_DS3505
ZHHH,2001-01-30 07:00,ZHHH 300700Z AUTO 6SM 11/00 A3006 RMK T01100000 IEM_DS3505
ZHHH,2001-01-30 08:00,ZHHH 300800Z AUTO 6SM 12/00 A3006 RMK T01200000 IEM_DS3505
ZHHH,2001-01-30 09:00,ZHHH 300900Z AUTO 11002KT 12SM 13/M04 A3006 RMK SLP180 T01261041 57015 IEM_DS3505
ZHHH,2001-01-30 10:00,ZHHH 301000Z AUTO 10006KT 6SM 10/02 A3006 RMK T01000020 IEM_DS3505
ZHHH,2001-01-30 11:00,ZHHH 301100Z AUTO 09006KT 6SM 09/02 A3006 RMK T00900020 IEM_DS3505
ZHHH,2001-01-30 12:00,ZHHH 301200Z AUTO 00000KT 11SM 08/01 A3006 RMK SLP181 T00780012 52001 IEM_DS3505
ZHHH,2001-01-30 13:00,ZHHH 301300Z AUTO 12006KT 6SM 09/03 A3006 RMK T00900030 IEM_DS3505
ZHHH,2001-01-30 14:00,ZHHH 301400Z AUTO 11006KT 6SM 08/02 A3006 RMK T00800020 IEM_DS3505
ZHHH,2001-01-30 15:00,ZHHH 301500Z AUTO 09002KT 9SM 07/00 A3003 RMK SLP175 T00700005 57006 IEM_DS3505
ZHHH,2001-01-30 16:00,ZHHH 301600Z AUTO 11006KT 6SM 06/01 A3003 RMK T00600010 IEM_DS3505
ZHHH,2001-01-30 17:00,ZHHH 301700Z AUTO 6SM 06/01 A3003 RMK T00600010 IEM_DS3505
ZHHH,2001-01-30 18:00,ZHHH 301800Z AUTO 27002KT 12SM 07/01 A3006 RMK SLP183 T00700007 52008 IEM_DS3505
ZHHH,2001-01-30 19:00,ZHHH 301900Z AUTO 6SM 06/02 A3006 RMK T00600020 IEM_DS3505
ZHHH,2001-01-30 20:00,ZHHH 302000Z AUTO 06006KT 6SM 07/01 A3006 RMK T00700010 IEM_DS3505
ZHHH,2001-01-30 21:00,ZHHH 302100Z AUTO 00000KT 12SM 06/02 A3006 RMK SLP184 T00640024 52001 IEM_DS3505
ZHHH,2001-01-30 22:00,ZHHH 302200Z AUTO 28002KT 6SM 07/01 A3006 RMK T00700010 IEM_DS3505
ZHHH,2001-01-30 23:00,ZHHH 302300Z AUTO 00000KT 6SM 06/03 A3009 RMK T00600030 IEM_DS3505
ZHHH,2001-01-31 00:00,ZHHH 310000Z AUTO 34002KT 11SM 06/04 A3012 RMK SLP202 T00650037 52018 IEM_DS3505
ZHHH,2001-01-31 01:00,ZHHH 310100Z AUTO 01004KT 6SM 06/04 A3012 RMK T00600040 IEM_DS3505
ZHHH,2001-01-31 02:00,ZHHH 310200Z AUTO 6SM 07/03 A3015 RMK T00700030 IEM_DS3505
ZHHH,2001-01-31 03:00,ZHHH 310300Z AUTO 36004KT 11SM 08/02 A3015 RMK SLP216 T00750025 52014 IEM_DS3505
ZHHH,2001-01-31 04:00,ZHHH 310400Z AUTO 6SM 07/03 A3015 RMK T00700030 IEM_DS3505
ZHHH,2001-01-31 05:00,ZHHH 310500Z AUTO 35006KT 4SM 08/03 A3012 RMK T00800030 IEM_DS3505
ZHHH,2001-01-31 06:00,ZHHH 310600Z AUTO 34004KT 12SM 10/03 A3012 RMK SLP201 T00980029 57015 IEM_DS3505
ZHHH,2001-01-31 07:00,ZHHH 310700Z AUTO 05021KT 3SM 11/M05 A3012 RMK T01101050 IEM_DS3505
ZHHH,2001-01-31 08:00,ZHHH 310800Z AUTO 05023KT 2 1/2SM 09/M07 A3012 RMK T00901070 IEM_DS3505
ZHHH,2001-01-31 09:00,ZHHH 310900Z AUTO 04006KT 11SM 09/M06 A3015 RMK SLP219 T00941063 52018 IEM_DS3505
ZHHH,2001-01-31 10:00,ZHHH 311000Z AUTO 03010KT 3SM 08/M04 A3018 RMK T00801040 IEM_DS3505
ZHHH,2001-01-31 11:00,ZHHH 311100Z AUTO 03010KT 3SM 08/M04 A3021 RMK T00801040 IEM_DS3505
ZHHH,2001-01-31 12:00,ZHHH 311200Z AUTO 02006KT 9SM 08/M04 A3024 RMK SLP244 T00781039 52025 IEM_DS3505
ZHHH,2001-01-31 13:00,ZHHH 311300Z AUTO 04006KT 06/M02 A3024 RMK T00601020 IEM_DS3505
ZHHH,2001-01-31 14:00,ZHHH 311400Z AUTO 03006KT 06/M03 A3027 RMK T00601030 IEM_DS3505
ZHHH,2001-01-31 15:00,ZHHH 311500Z AUTO 02004KT 9SM 06/M03 A3027 RMK SLP255 T00631034 52011 IEM_DS3505
ZHHH,2001-01-31 16:00,ZHHH 311600Z AUTO 01006KT 04/M02 A3030 RMK T00401020 IEM_DS3505
ZHHH,2001-01-31 17:00,ZHHH 311700Z AUTO 02006KT 04/M05 A3030 RMK T00401050 IEM_DS3505
ZHHH,2001-01-31 18:00,ZHHH 311800Z AUTO 04002KT 9SM 06/M07 A3027 RMK SLP257 T00561070 52002 IEM_DS3505
ZHHH,2001-01-31 19:00,ZHHH 311900Z AUTO 05004KT 3SM 04/M05 A3027 RMK T00401050 IEM_DS3505
ZHHH,2001-01-31 20:00,ZHHH 312000Z AUTO 35002KT 2 1/2SM 03/M04 A3027 RMK T00301040 IEM_DS3505
ZHHH,2001-01-31 21:00,ZHHH 312100Z AUTO 04002KT 9SM 04/M05 A3027 RMK SLP253 T00421049 57004 IEM_DS3505
ZHHH,2001-01-31 22:00,ZHHH 312200Z AUTO 01004KT 3SM 03/M07 A3027 RMK T00301070 IEM_DS3505
ZHHH,2001-01-31 23:00,ZHHH 312300Z AUTO 01004KT 2 1/2SM 02/M04 A3027 RMK T00201040 IEM_DS3505
ZHHH,2001-02-01 00:00,ZHHH 010000Z AUTO 34004KT 9SM 03/M03 A3027 RMK SLP249 T00341032 57004 IEM_DS3505
ZHHH,2001-02-01 01:00,ZHHH 010100Z AUTO 2SM 03/M03 A3027 RMK T00301030 IEM_DS3505
ZHHH,2001-02-01 02:00,ZHHH 010200Z AUTO 36006KT 2SM 05/M03 A3030 RMK T00501030 IEM_DS3505
ZHHH,2001-02-01 03:00,ZHHH 010300Z AUTO 04002KT 12SM 06/M04 A3027 RMK SLP257 T00581036 52008 IEM_DS3505
ZHHH,2001-02-01 04:00,ZHHH 010400Z AUTO 05012KT 2 1/2SM 08/M06 A3027 RMK T00801060 IEM_DS3505
ZHHH,2001-02-01 05:00,ZHHH 010500Z AUTO 06008KT 2 1/2SM 08/M07 A3024 RMK T00801070 IEM_DS3505
ZHHH,2001-02-01 06:00,ZHHH 010600Z AUTO 07004KT 9SM 08/M07 A3021 RMK SLP232 T00821068 57025 IEM_DS3505
ZHHH,2001-02-01 07:00,ZHHH 010700Z AUTO 3SM 09/M07 A3018 RMK T00901070 IEM_DS3505
ZHHH,2001-02-01 08:00,ZHHH 010800Z AUTO 3SM 09/M05 A3018 RMK T00901050 IEM_DS3505
ZHHH,2001-02-01 09:00,ZHHH 010900Z AUTO 14002KT 9SM 09/M06 A3018 RMK SLP228 T00861056 57004 IEM_DS3505
ZHHH,2001-02-01 10:00,ZHHH 011000Z AUTO 2 1/2SM 08/M07 A3021 RMK T00801070 IEM_DS3505
ZHHH,2001-02-01 11:00,ZHHH 011100Z AUTO 3SM 07/M04 A3024 RMK T00701040 IEM_DS3505
ZHHH,2001-02-01 12:00,ZHHH 011200Z AUTO 25002KT 9SM 07/M03 A3024 RMK SLP248 T00661027 52020 IEM_DS3505
ZHHH,2001-02-01 13:00,ZHHH 011300Z AUTO 3SM 06/M01 A3027 RMK T00601010 IEM_DS3505
ZHHH,2001-02-01 14:00,ZHHH 011400Z AUTO 2 1/2SM 06/M01 A3024 RMK T00601010 IEM_DS3505
ZHHH,2001-02-01 15:00,ZHHH 011500Z AUTO 00000KT 9SM 06/M02 A3027 RMK SLP249 T00591017 52001 IEM_DS3505
ZHHH,2001-02-01 16:00,ZHHH 011600Z AUTO 06002KT 3SM 06/00 A3027 RMK T00600000 IEM_DS3505
ZHHH,2001-02-01 17:00,ZHHH 011700Z AUTO 09004KT 3SM 05/00 A3024 RMK T00500000 IEM_DS3505
ZHHH,2001-02-01 18:00,ZHHH 011800Z AUTO 00000KT 9SM 05/00 A3024 RMK SLP244 T00540003 57005 IEM_DS3505
ZHHH,2001-02-01 19:00,ZHHH 011900Z AUTO 35002KT 3SM 04/01 A3024 RMK T00400010 IEM_DS3505
ZHHH,2001-02-01 20:00,ZHHH 012000Z AUTO 08002KT 3SM 03/00 A3024 RMK T00300000 IEM_DS3505
ZHHH,2001-02-01 21:00,ZHHH 012100Z AUTO 00000KT 9SM 04/01 A3021 RMK SLP237 T00430013 57007 IEM_DS3505
ZHHH,2001-02-01 22:00,ZHHH 012200Z AUTO 12004KT 4SM 03/00 A3021 RMK T00300000 IEM_DS3505
ZHHH,2001-02-01 23:00,ZHHH 012300Z AUTO 10006KT 4SM 02/00 A3024 RMK T00200000 IEM_DS3505
ZHHH,2001-02-02 00:00,ZHHH 020000Z AUTO 09002KT 9SM 03/01 A3021 RMK SLP238 T00320013 52001 IEM_DS3505
ZHHH,2001-02-02 01:00,ZHHH 020100Z AUTO 10006KT 2SM 03/00 A3024 RMK T00300000 IEM_DS3505
ZHHH,2001-02-02 02:00,ZHHH 020200Z AUTO 3SM 05/01 A3024 RMK T00500010 IEM_DS3505
ZHHH,2001-02-02 03:00,ZHHH 020300Z AUTO 14002KT 12SM 08/M03 A3024 RMK SLP238 T00841032 54000 IEM_DS3505
ZHHH,2001-02-02 05:00,ZHHH 020500Z AUTO 3SM 09/M03 A3015 RMK T00901030 IEM_DS3505
ZHHH,2001-02-02 06:00,ZHHH 020600Z AUTO 04004KT 11SM 10/M04 A3012 RMK SLP198 T01051042 57040 IEM_DS3505
ZHHH,2001-02-02 07:00,ZHHH 020700Z AUTO 10/M04 A3009 RMK T01001040 IEM_DS3505
ZHHH,2001-02-02 08:00,ZHHH 020800Z AUTO 13006KT 10/M05 A3006 RMK T01001050 IEM_DS3505
ZHHH,2001-02-02 09:00,ZHHH 020900Z AUTO 11002KT 9SM 10/M03 A3006 RMK SLP185 T00971030 57013 IEM_DS3505
ZHHH,2001-02-02 10:00,ZHHH 021000Z AUTO 12004KT 09/M02 A3006 RMK T00901020 IEM_DS3505
ZHHH,2001-02-02 11:00,ZHHH 021100Z AUTO 11002KT 3SM 08/M01 A3009 RMK T00801010 IEM_DS3505
ZHHH,2001-02-02 12:00,ZHHH 021200Z AUTO 22002KT 9SM 08/M00 A3012 RMK SLP199 T00851005 52014 IEM_DS3505
ZHHH,2001-02-02 13:00,ZHHH 021300Z AUTO 11002KT 3SM 08/M01 A3012 RMK T00801010 IEM_DS3505
ZHHH,2001-02-02 14:00,ZHHH 021400Z AUTO 08/00 A3012 RMK T00800000 IEM_DS3505
ZHHH,2001-02-02 15:00,ZHHH 021500Z AUTO 00000KT 9SM 08/01 A3009 RMK SLP198 T00780008 57001 IEM_DS3505
ZHHH,2001-02-02 16:00,ZHHH 021600Z AUTO 00000KT 2 1/2SM 08/01 A3012 RMK T00800010 IEM_DS3505
ZHHH,2001-02-02 17:00,ZHHH 021700Z AUTO 14002KT 3SM 07/01 A3009 RMK T00700010 IEM_DS3505
ZHHH,2001-02-02 18:00,ZHHH 021800Z AUTO 00000KT 9SM 07/03 A3009 RMK SLP196 T00730030 57002 IEM_DS3505
ZHHH,2001-02-02 19:00,ZHHH 021900Z AUTO 00000KT 2 1/2SM 07/M03 A3009 RMK T00701030 IEM_DS3505
ZHHH,2001-02-02 20:00,ZHHH 022000Z AUTO 02004KT 3SM 06/02 A3009 RMK T00600020 IEM_DS3505
ZHHH,2001-02-02 21:00,ZHHH 022100Z AUTO 00000KT 9SM 07/03 A3009 RMK SLP192 T00690026 57004 IEM_DS3505
ZHHH,2001-02-02 22:00,ZHHH 022200Z AUTO 09004KT 3SM 06/01 A3009 RMK T00600010 IEM_DS3505
ZHHH,2001-02-02 23:00,ZHHH 022300Z AUTO 08002KT 3SM 06/02 A3009 RMK T00600020 IEM_DS3505
ZHHH,2001-02-03 00:00,ZHHH 030000Z AUTO 00000KT 9SM 06/02 A3012 RMK SLP202 T00650020 52010 IEM_DS3505
ZHHH,2001-02-03 01:00,ZHHH 030100Z AUTO 09004KT 2 1/2SM 06/02 A3015 RMK T00600020 IEM_DS3505
ZHHH,2001-02-03 02:00,ZHHH 030200Z AUTO 08004KT 2 1/2SM 07/01 A3015 RMK T00700010 IEM_DS3505
ZHHH,2001-02-03 03:00,ZHHH 030300Z AUTO 00000KT 9SM 07/02 A3018 RMK SLP219 T00740022 52017 IEM_DS3505
ZHHH,2001-02-03 04:00,ZHHH 030400Z AUTO 00000KT 08/00 A3015 RMK T00800000 IEM_DS3505
ZHHH,2001-02-03 05:00,ZHHH 030500Z AUTO 08/M01 A3012 RMK T00801010 IEM_DS3505
ZHHH,2001-02-03 06:00,ZHHH 030600Z AUTO 02002KT 9SM 08/02 A3012 RMK SLP198 T00800021 57021 IEM_DS3505
ZHHH,2001-02-03 07:00,ZHHH 030700Z AUTO 00000KT 6SM 08/00 A3009 RMK T00800000 IEM_DS3505
ZHHH,2001-02-03 08:00,ZHHH 030800Z AUTO 6SM 08/M01 A3009 RMK T00801010 IEM_DS3505
ZHHH,2001-02-03 09:00,ZHHH 030900Z AUTO 00000KT 9SM 08/02 A3012 RMK SLP202 T00800022 52006 IEM_DS3505
ZHHH,2001-02-03 10:00,ZHHH 031000Z AUTO 22004KT 4SM 07/02 A3012 RMK T00700020 IEM_DS3505
ZHHH,2001-02-03 11:00,ZHHH 031100Z AUTO 24004KT 3SM 07/02 A3015 RMK T00700020 IEM_DS3505
ZHHH,2001-02-03 12:00,ZHHH 031200Z AUTO 25002KT 9SM 07/03 A3015 RMK 60003 SLP221 T00710029 52015 IEM_DS3505
ZHHH,2001-02-03 13:00,ZHHH 031300Z AUTO 21004KT 2SM 07/03 A3018 RMK T00700030 IEM_DS3505
ZHHH,2001-02-03 14:00,ZHHH 031400Z AUTO 22004KT 2SM 07/04 A3021 RMK T00700040 IEM_DS3505
ZHHH,2001-02-03 15:00,ZHHH 031500Z AUTO 27002KT 9SM 07/04 A3021 RMK SLP232 T00660035 52011 IEM_DS3505
ZHHH,2001-02-03 16:00,ZHHH 031600Z AUTO 24002KT 1 1/2SM 06/04 A3021 RMK T00600040 IEM_DS3505
ZHHH,2001-02-03 17:00,ZHHH 031700Z AUTO 27002KT 2SM 06/04 A3021 RMK T00600040 IEM_DS3505
ZHHH,2001-02-03 18:00,ZHHH 031800Z AUTO 00000KT 7SM 07/03 A3021 RMK SLP235 T00660032 52003 IEM_DS3505
ZHHH,2001-02-03 19:00,ZHHH 031900Z AUTO 00000KT 1 1/2SM 06/04 A3021 RMK T00600040 IEM_DS3505
ZHHH,2001-02-03 20:00,ZHHH 032000Z AUTO 2SM 06/03 A3021 RMK T00600030 IEM_DS3505
ZHHH,2001-02-03 21:00,ZHHH 032100Z AUTO 04004KT 7SM 06/03 A3021 RMK 70003 SLP231 T00590030 57004 IEM_DS3505
ZHHH,2001-02-03 22:00,ZHHH 032200Z AUTO 04008KT 2SM 04/02 A3021 RMK T00400020 IEM_DS3505
ZHHH,2001-02-03 23:00,ZHHH 032300Z AUTO 04010KT 1 1/2SM 03/02 A3024 RMK T00300020 IEM_DS3505
ZHHH,2001-02-04 00:00,ZHHH 040000Z AUTO 04004KT 7SM 04/02 A3024 RMK 70003 SLP245 T00440023 52014 IEM_DS3505
ZHHH,2001-02-04 01:00,ZHHH 040100Z AUTO 04008KT 1 1/2SM 04/02 A3024 RMK T00400020 IEM_DS3505
ZHHH,2001-02-04 02:00,ZHHH 040200Z AUTO 04008KT 1 1/2SM 05/02 A3027 RMK T00500020 IEM_DS3505
ZHHH,2001-02-04 03:00,ZHHH 040300Z AUTO 07002KT 12SM 07/03 A3027 RMK SLP253 T00690030 52008 IEM_DS3505
ZHHH,2001-02-04 04:00,ZHHH 040400Z AUTO 04006KT 2 1/2SM 08/03 A3024 RMK T00800030 IEM_DS3505
ZHHH,2001-02-04 05:00,ZHHH 040500Z AUTO 3SM 09/02 A3021 RMK T00900020 IEM_DS3505
ZHHH,2001-02-04 06:00,ZHHH 040600Z AUTO 07004KT 11SM 10/03 RMK SLP219 T01020032 57034 IEM_DS3505
ZHHH,2001-02-04 07:00,ZHHH 040700Z AUTO 6SM 11/01 A3015 RMK T01100010 IEM_DS3505
ZHHH,2001-02-04 08:00,ZHHH 040800Z AUTO 6SM 11/02 A3012 RMK T01100020 IEM_DS3505
ZHHH,2001-02-04 09:00,ZHHH 040900Z AUTO 07002KT 11SM 11/02 A3012 RMK SLP197 T01070015 57022 IEM_DS3505
ZHHH,2001-02-04 10:00,ZHHH 041000Z AUTO 3SM 10/03 A3009 RMK T01000030 IEM_DS3505
ZHHH,2001-02-04 11:00,ZHHH 041100Z AUTO 10/03 A3009 RMK T01000030 IEM_DS3505
ZHHH,2001-02-04 12:00,ZHHH 041200Z AUTO 00000KT 9SM 09/04 A3012 RMK SLP200 T00890042 52003 IEM_DS3505
ZHHH,2001-02-04 13:00,ZHHH 041300Z AUTO 07014KT 4SM 05/03 A3012 RMK T00500030 IEM_DS3505
ZHHH,2001-02-04 15:00,ZHHH 041500Z AUTO 07004KT 9SM 06/03 A3012 RMK SLP208 T00580030 52008 IEM_DS3505
ZHHH,2001-02-04 16:00,ZHHH 041600Z AUTO 07008KT 2SM 05/03 A3012 RMK T00500030 IEM_DS3505
ZHHH,2001-02-04 17:00,ZHHH 041700Z AUTO 07006KT 2SM 05/03 A3012 RMK T00500030 IEM_DS3505
ZHHH,2001-02-04 18:00,ZHHH 041800Z AUTO 07002KT 9SM 06/04 A3009 RMK SLP197 T00560036 57011 IEM_DS3505
ZHHH,2001-02-04 19:00,ZHHH 041900Z AUTO 04006KT 1 1/2SM 05/03 A3009 RMK T00500030 IEM_DS3505
ZHHH,2001-02-04 20:00,ZHHH 042000Z AUTO 05006KT 2SM 05/03 A3009 RMK T00500030 IEM_DS3505
ZHHH,2001-02-04 21:00,ZHHH 042100Z AUTO 04002KT 7SM 06/04 A3006 RMK SLP187 T00560039 57010 IEM_DS3505
ZHHH,2001-02-04 22:00,ZHHH 042200Z AUTO 04006KT 1 1/2SM 05/04 A3009 RMK T00500040 IEM_DS3505
ZHHH,2001-02-04 23:00,ZHHH 042300Z AUTO 05008KT 1SM 04/04 A3009 RMK T00400040 IEM_DS3505
ZHHH,2001-02-05 00:00,ZHHH 050000Z AUTO 07002KT 5SM 05/05 A3009 RMK 60000 SLP193 T00530050 52006 IEM_DS3505
ZHHH,2001-02-05 01:00,ZHHH 050100Z AUTO 05006KT 1SM 05/05 A3009 RMK T00500050 IEM_DS3505
ZHHH,2001-02-05 02:00,ZHHH 050200Z AUTO 03004KT 1SM 05/05 A3009 RMK T00500050 IEM_DS3505
ZHHH,2001-02-05 03:00,ZHHH 050300Z AUTO 09002KT 6SM 06/05 A3009 RMK SLP195 T00570049 52002 IEM_DS3505
ZHHH,2001-02-05 04:00,ZHHH 050400Z AUTO 02006KT 1SM 05/05 A3006 RMK T00500050 IEM_DS3505
ZHHH,2001-02-05 05:00,ZHHH 050500Z AUTO 1SM 06/05 A3003 RMK T00600050 IEM_DS3505
ZHHH,2001-02-05 06:00,ZHHH 050600Z AUTO 34002KT 6SM 06/05 A3000 RMK 60003 SLP167 T00620052 57028 IEM_DS3505
ZHHH,2001-02-05 07:00,ZHHH 050700Z AUTO 1SM 06/05 A3000 RMK T00600050 IEM_DS3505
ZHHH,2001-02-05 09:00,ZHHH 050900Z AUTO 02002KT 6SM 06/05 A2997 RMK SLP159 T00640054 57008 IEM_DS3505
ZHHH,2001-02-05 10:00,ZHHH 051000Z AUTO 2SM 06/04 A3000 RMK T00600040 IEM_DS3505
ZHHH,2001-02-05 11:00,ZHHH 051100Z AUTO 04008KT 2SM 05/04 A3003 RMK T00500040 IEM_DS3505
ZHHH,2001-02-05 12:00,ZHHH 051200Z AUTO 04004KT 7SM 06/05 A3003 RMK SLP179 T00610046 52020 IEM_DS3505
ZHHH,2001-02-05 13:00,ZHHH 051300Z AUTO 04008KT 2 1/2SM 05/03 A3006 RMK T00500030 IEM_DS3505
ZHHH,2001-02-05 14:00,ZHHH 051400Z AUTO 03008KT 2 1/2SM 04/03 A3009 RMK T00400030 IEM_DS3505
ZHHH,2001-02-05 15:00,ZHHH 051500Z AUTO 02004KT 7SM 05/03 A3009 RMK SLP194 T00490031 52015 IEM_DS3505
ZHHH,2001-02-05 16:00,ZHHH 051600Z AUTO 03006KT 2 1/2SM 04/03 A3009 RMK T00400030 IEM_DS3505
ZHHH,2001-02-05 17:00,ZHHH 051700Z AUTO 02006KT 4SM 04/02 A3009 RMK T00400020 IEM_DS3505
ZHHH,2001-02-05 18:00,ZHHH 051800Z AUTO 04004KT 9SM 04/03 A3009 RMK SLP195 T00450026 52001 IEM_DS3505
ZHHH,2001-02-05 19:00,ZHHH 051900Z AUTO 04010KT 4SM 03/02 A3009 RMK T00300020 IEM_DS3505
ZHHH,2001-02-05 20:00,ZHHH 052000Z AUTO 03008KT 4SM 03/02 A3009 RMK T00300020 IEM_DS3505
ZHHH,2001-02-05 21:00,ZHHH 052100Z AUTO 04004KT 8SM 04/02 A3009 RMK 70000 SLP193 T00380019 57002 IEM_DS3505
ZHHH,2001-02-05 22:00,ZHHH 052200Z AUTO 01006KT 4SM 03/02 A3009 RMK T00300020 IEM_DS3505
ZHHH,2001-02-05 23:00,ZHHH 052300Z AUTO 03010KT 4SM 03/01 A3012 RMK T00300010 IEM_DS3505
ZHHH,2001-02-06 00:00,ZHHH 060000Z AUTO 36002KT 7SM 04/02 A3015 RMK 70003 SLP215 T00350023 52022 IEM_DS3505
ZHHH,2001-02-06 01:00,ZHHH 060100Z AUTO 02012KT 7SM 03/01 A3018 RMK T00300010 IEM_DS3505
ZHHH,2001-02-06 02:00,ZHHH 060200Z AUTO 02010KT 7SM 02/00 A3018 RMK T00200000 IEM_DS3505
ZHHH,2001-02-06 03:00,ZHHH 060300Z AUTO 02004KT 6SM 03/01 A3018 RMK SLP225 T00290009 52010 IEM_DS3505
ZHHH,2001-02-06 04:00,ZHHH 060400Z AUTO 02010KT 4SM 02/01 A3018 RMK T00200010 IEM_DS3505
ZHHH,2001-02-06 05:00,ZHHH 060500Z AUTO 01008KT 3SM 02/01 A3015 RMK T00200010 IEM_DS3505
ZHHH,2001-02-06 06:00,ZHHH 060600Z AUTO 02002KT 6SM 02/02 A3015 RMK 60000 SLP210 T00220017 57015 IEM_DS3505
ZHHH,2001-02-06 07:00,ZHHH 060700Z AUTO 02010KT 4SM 01/00 A3012 RMK T00100000 IEM_DS3505
ZHHH,2001-02-06 08:00,ZHHH 060800Z AUTO 02010KT 7SM 01/M01 A3015 RMK T00101010 IEM_DS3505
ZHHH,2001-02-06 09:00,ZHHH 060900Z AUTO 04006KT 7SM 02/M00 A3015 RMK SLP215 T00181004 52004 IEM_DS3505
ZHHH,2001-02-06 10:00,ZHHH 061000Z AUTO 02012KT 7SM 01/M01 A3015 RMK T00101010 IEM_DS3505
ZHHH,2001-02-06 11:00,ZHHH 061100Z AUTO 02008KT 4SM 01/M02 A3018 RMK T00101020 IEM_DS3505
ZHHH,2001-02-06 12:00,ZHHH 061200Z AUTO 36004KT 9SM 02/M00 A3021 RMK 60000 SLP240 T00151001 52025 IEM_DS3505
ZHHH,2001-02-06 13:00,ZHHH 061300Z AUTO 02004KT 4SM 00/M01 A3024 RMK T00001010 IEM_DS3505
ZHHH,2001-02-06 14:00,ZHHH 061400Z AUTO 02010KT 2 1/2SM 00/M01 A3027 RMK T00001010 IEM_DS3505
ZHHH,2001-02-06 15:00,ZHHH 061500Z AUTO 34002KT 9SM 01/M00 A3027 RMK SLP263 T00071004 52023 IEM_DS3505
ZHHH,2001-02-06 16:00,ZHHH 061600Z AUTO 02008KT 3SM 00/M01 A3030 RMK T00001010 IEM_DS3505
ZHHH,2001-02-06 17:00,ZHHH 061700Z AUTO 36006KT 3SM 00/M02 A3033 RMK T00001020 IEM_DS3505
ZHHH,2001-02-06 18:00,ZHHH 061800Z AUTO 34004KT 6SM 00/M01 A3033 RMK 60004 SLP278 T00031011 52015 IEM_DS3505
ZHHH,2001-02-06 19:00,ZHHH 061900Z AUTO 35006KT 3SM 00/M02 A3033 RMK T00001020 IEM_DS3505
ZHHH,2001-02-06 20:00,ZHHH 062000Z AUTO 35006KT 3SM 00/M01 A3033 RMK T00001010 IEM_DS3505
ZHHH,2001-02-06 21:00,ZHHH 062100Z AUTO 34004KT 6SM M00/M01 A3033 RMK 70007 SLP278 T10031014 54000 IEM_DS3505
ZHHH,2001-02-06 22:00,ZHHH 062200Z AUTO 02008KT 2 1/2SM M01/M03 A3036 RMK T10101030 IEM_DS3505
ZHHH,2001-02-06 23:00,ZHHH 062300Z AUTO 36006KT 3SM 00/M02 A3039 RMK T00001020 IEM_DS3505
ZHHH,2001-02-07 00:00,ZHHH 070000Z AUTO 36002KT 7SM 00/M02 A3039 RMK 60001 SLP301 T00001015 52023 IEM_DS3505
ZHHH,2001-02-07 01:00,ZHHH 070100Z AUTO 04008KT 6SM M01/M03 A3042 RMK T10101030 IEM_DS3505
ZHHH,2001-02-07 02:00,ZHHH 070200Z AUTO 02008KT 6SM 00/M02 A3045 RMK T00001020 IEM_DS3505
ZHHH,2001-02-07 03:00,ZHHH 070300Z AUTO 07002KT 9SM 02/M01 A3045 RMK SLP313 T00161011 52012 IEM_DS3505
ZHHH,2001-02-07 04:00,ZHHH 070400Z AUTO 02008KT 6SM 02/M01 A3042 RMK T00201010 IEM_DS3505
ZHHH,2001-02-07 05:00,ZHHH 070500Z AUTO 04006KT 6SM 04/M01 A3042 RMK T00401010 IEM_DS3505
ZHHH,2001-02-07 06:00,ZHHH 070600Z AUTO 07004KT 11SM 05/00 A3039 RMK SLP291 T00490002 57022 IEM_DS3505
ZHHH,2001-02-07 07:00,ZHHH 070700Z AUTO 01006KT 6SM 05/00 A3039 RMK T00500000 IEM_DS3505
ZHHH,2001-02-07 08:00,ZHHH 070800Z AUTO 04008KT 6SM 04/00 A3039 RMK T00400000 IEM_DS3505
ZHHH,2001-02-07 09:00,ZHHH 070900Z AUTO 07004KT 9SM 04/00 A3039 RMK SLP290 T00440005 57001 IEM_DS3505
ZHHH,2001-02-07 10:00,ZHHH 071000Z AUTO 05010KT 6SM 03/00 A3039 RMK T00300000 IEM_DS3505
ZHHH,2001-02-07 11:00,ZHHH 071100Z AUTO 05010KT 6SM 01/M01 A3039 RMK T00101010 IEM_DS3505
ZHHH,2001-02-07 12:00,ZHHH 071200Z AUTO 04002KT 7SM 02/M01 A3042 RMK SLP308 T00171007 52018 IEM_DS3505
ZHHH,2001-02-07 13:00,ZHHH 071300Z AUTO 04006KT 6SM 00/M02 A3045 RMK T00001020 IEM_DS3505
ZHHH,2001-02-07 14:00,ZHHH 071400Z AUTO 05006KT 6SM 00/M02 A3047 RMK T00001020 IEM_DS3505
ZHHH,2001-02-07 15:00,ZHHH 071500Z AUTO 09004KT 7SM 00/M02 A3045 RMK SLP321 T00001019 52013 IEM_DS3505
ZHHH,2001-02-07 16:00,ZHHH 071600Z AUTO 07004KT 6SM M01/M02 A3047 RMK T10101020 IEM_DS3505
ZHHH,2001-02-07 17:00,ZHHH 071700Z AUTO 03002KT 5SM M01/M02 A3047 RMK T10101020 IEM_DS3505
ZHHH,2001-02-07 18:00,ZHHH 071800Z AUTO 04002KT 7SM 00/M01 A3047 RMK SLP323 T00031014 52002 IEM_DS3505
ZHHH,2001-02-07 19:00,ZHHH 071900Z AUTO 04004KT 4SM M01/M02 A3045 RMK T10101020 IEM_DS3505
ZHHH,2001-02-07 20:00,ZHHH 072000Z AUTO 06004KT 2 1/2SM M02/M02 A3042 RMK T10201020 IEM_DS3505
ZHHH,2001-02-07 21:00,ZHHH 072100Z AUTO 09002KT 7SM M00/M02 A3039 RMK 70003 SLP298 T10041019 57025 IEM_DS3505
ZHHH,2001-02-07 22:00,ZHHH 072200Z AUTO 05002KT 2SM M02/M03 A3039 RMK T10201030 IEM_DS3505
ZHHH,2001-02-07 23:00,ZHHH 072300Z AUTO 04002KT 2SM M02/M03 A3042 RMK T10201030 IEM_DS3505
ZHHH,2001-02-08 00:00,ZHHH 080000Z AUTO 07002KT 7SM M01/M02 A3039 RMK SLP296 T10091019 57002 IEM_DS3505
ZHHH,2001-02-08 01:00,ZHHH 080100Z AUTO 06004KT 2SM M01/M02 A3039 RMK T10101020 IEM_DS3505
ZHHH,2001-02-08 02:00,ZHHH 080200Z AUTO 1 1/2SM 00/M01 A3042 RMK T00001010 IEM_DS3505
ZHHH,2001-02-08 03:00,ZHHH 080300Z AUTO 27002KT 9SM 02/M00 A3045 RMK SLP315 T00221005 52019 IEM_DS3505
ZHHH,2001-02-08 04:00,ZHHH 080400Z AUTO 2SM 03/00 A3042 RMK T00300000 IEM_DS3505
ZHHH,2001-02-08 05:00,ZHHH 080500Z AUTO 11006KT 2 1/2SM 05/01 A3033 RMK T00500010 IEM_DS3505
ZHHH,2001-02-08 06:00,ZHHH 080600Z AUTO 09004KT 9SM 07/02 A3030 RMK SLP260 T00700019 57055 IEM_DS3505
ZHHH,2001-02-08 07:00,ZHHH 080700Z AUTO 7SM 07/01 A3030 RMK T00700010 IEM_DS3505
ZHHH,2001-02-08 08:00,ZHHH 080800Z AUTO 7SM 06/02 A3030 RMK T00600020 IEM_DS3505
ZHHH,2001-02-08 09:00,ZHHH 080900Z AUTO 14002KT 9SM 07/02 A3030 RMK SLP264 T00670021 52004 IEM_DS3505
ZHHH,2001-02-08 10:00,ZHHH 081000Z AUTO 11004KT 4SM 06/02 A3030 RMK T00600020 IEM_DS3505
ZHHH,2001-02-08 11:00,ZHHH 081100Z AUTO 14004KT 3SM 05/02 A3027 RMK T00500020 IEM_DS3505
ZHHH,2001-02-08 12:00,ZHHH 081200Z AUTO 00000KT 9SM 06/02 A3033 RMK SLP278 T00580021 52014 IEM_DS3505
ZHHH,2001-02-08 13:00,ZHHH 081300Z AUTO 17002KT 3SM 05/03 A3033 RMK T00500030 IEM_DS3505
ZHHH,2001-02-08 14:00,ZHHH 081400Z AUTO 12002KT 2 1/2SM 05/02 A3033 RMK T00500020 IEM_DS3505
ZHHH,2001-02-08 15:00,ZHHH 081500Z AUTO 00000KT 9SM 05/03 A3033 RMK SLP280 T00490029 52002 IEM_DS3505
ZHHH,2001-02-08 16:00,ZHHH 081600Z AUTO 04002KT 2SM 04/03 A3036 RMK T00400030 IEM_DS3505
ZHHH,2001-02-08 17:00,ZHHH 081700Z AUTO 02002KT 2SM 04/03 A3036 RMK T00400030 IEM_DS3505
ZHHH,2001-02-08 18:00,ZHHH 081800Z AUTO 00000KT 7SM 04/03 A3036 RMK SLP279 T00440033 54000 IEM_DS3505
ZHHH,2001-02-08 19:00,ZHHH 081900Z AUTO 14002KT 1 1/4SM 03/02 A3033 RMK T00300020 IEM_DS3505
ZHHH,2001-02-08 20:00,ZHHH 082000Z AUTO 08002KT 1 1/4SM 04/03 A3033 RMK T00400030 IEM_DS3505
ZHHH,2001-02-08 21:00,ZHHH 082100Z AUTO 27002KT 7SM 04/03 A3033 RMK SLP271 T00410032 57008 IEM_DS3505
ZHHH,2001-02-08 22:00,ZHHH 082200Z AUTO 00000KT 1SM 03/03 A3033 RMK T00300030 IEM_DS3505
ZHHH,2001-02-08 23:00,ZHHH 082300Z AUTO 02004KT 1SM 03/02 A3033 RMK T00300020 IEM_DS3505
ZHHH,2001-02-09 00:00,ZHHH 090000Z AUTO 00000KT 7SM 03/03 A3036 RMK SLP283 T00330028 52011 IEM_DS3505
ZHHH,2001-02-09 01:00,ZHHH 090100Z AUTO 1SM 04/03 A3039 RMK T00400030 IEM_DS3505
ZHHH,2001-02-09 02:00,ZHHH 090200Z AUTO 1 1/2SM 07/03 A3039 RMK T00700030 IEM_DS3505
ZHHH,2001-02-09 03:00,ZHHH 090300Z AUTO 00000KT 9SM 08/03 A3036 RMK SLP288 T00750030 52006 IEM_DS3505
ZHHH,2001-02-09 04:00,ZHHH 090400Z AUTO 6SM 09/02 A3036 RMK T00900020 IEM_DS3505
ZHHH,2001-02-09 05:00,ZHHH 090500Z AUTO 6SM 10/03 A3033 RMK T01000030 IEM_DS3505
ZHHH,2001-02-09 06:00,ZHHH 090600Z AUTO 09004KT 11SM 11/02 A3027 RMK SLP255 T01100018 57033 IEM_DS3505
ZHHH,2001-02-09 07:00,ZHHH 090700Z AUTO 6SM 12/02 A3027 RMK T01200020 IEM_DS3505
ZHHH,2001-02-09 08:00,ZHHH 090800Z AUTO 6SM 13/04 A3024 RMK T01300040 IEM_DS3505
ZHHH,2001-02-09 09:00,ZHHH 090900Z AUTO 27002KT 11SM 12/02 A3027 RMK SLP253 T01200021 57002 IEM_DS3505
ZHHH,2001-02-09 10:00,ZHHH 091000Z AUTO 22004KT 6SM 11/04 A3027 RMK T01100040 IEM_DS3505
ZHHH,2001-02-09 11:00,ZHHH 091100Z AUTO 22004KT 6SM 10/03 A3027 RMK T01000030 IEM_DS3505
ZHHH,2001-02-09 12:00,ZHHH 091200Z AUTO 00000KT 9SM 09/03 A3030 RMK SLP265 T00900032 52012 IEM_DS3505
ZHHH,2001-02-09 13:00,ZHHH 091300Z AUTO 00000KT 4SM 09/04 A3033 RMK T00900040 IEM_DS3505
ZHHH,2001-02-09 14:00,ZHHH 091400Z AUTO 00000KT 4SM 08/04 A3033 RMK T00800040 IEM_DS3505
ZHHH,2001-02-09 15:00,ZHHH 091500Z AUTO 00000KT 9SM 07/04 A3036 RMK SLP278 T00730036 52013 IEM_DS3505
ZHHH,2001-02-09 16:00,ZHHH 091600Z AUTO 11002KT 3SM 07/04 A3033 RMK T00700040 IEM_DS3505
ZHHH,2001-02-09 17:00,ZHHH 091700Z AUTO 14002KT 2 1/2SM 07/03 A3033 RMK T00700030 IEM_DS3505
ZHHH,2001-02-09 18:00,ZHHH 091800Z AUTO 00000KT 9SM 05/04 A3033 RMK SLP271 T00520037 57007 IEM_DS3505
ZHHH,2001-02-09 19:00,ZHHH 091900Z AUTO 14002KT 1 1/2SM 06/03 A3033 RMK T00600030 IEM_DS3505
ZHHH,2001-02-09 20:00,ZHHH 092000Z AUTO 11004KT 2SM 05/03 A3033 RMK T00500030 IEM_DS3505
ZHHH,2001-02-09 21:00,ZHHH 092100Z AUTO 00000KT 8SM 04/03 A3030 RMK SLP265 T00360031 57006 IEM_DS3505
ZHHH,2001-02-09 22:00,ZHHH 092200Z AUTO 11004KT 1 1/2SM 04/03 A3030 RMK T00400030 IEM_DS3505
ZHHH,2001-02-09 23:00,ZHHH 092300Z AUTO 13006KT 1SM 03/03 A3030 RMK T00300030 IEM_DS3505
ZHHH,2001-02-10 00:00,ZHHH 100000Z AUTO 18002KT 7SM 04/04 A3033 RMK SLP270 T00450037 52005 IEM_DS3505
ZHHH,2001-02-10 01:00,ZHHH 100100Z AUTO 11004KT 1/8SM 03/03 A3033 RMK T00300030 IEM_DS3505
ZHHH,2001-02-10 02:00,ZHHH 100200Z AUTO 1/4SM 05/05 A3033 RMK T00500050 IEM_DS3505
ZHHH,2001-02-10 03:00,ZHHH 100300Z AUTO 18002KT 11SM 11/05 A3030 RMK SLP268 T01060047 57002 IEM_DS3505
ZHHH,2001-02-10 04:00,ZHHH 100400Z AUTO 13004KT 2SM 11/04 A3030 RMK T01100040 IEM_DS3505
ZHHH,2001-02-10 05:00,ZHHH 100500Z AUTO 12004KT 2 1/2SM 12/04 A3024 RMK T01200040 IEM_DS3505
ZHHH,2001-02-10 06:00,ZHHH 100600Z AUTO 04006KT 11SM 13/04 A3021 RMK SLP230 T01340039 57038 IEM_DS3505
ZHHH,2001-02-10 07:00,ZHHH 100700Z AUTO 10006KT 13/04 A3018 RMK T01300040 IEM_DS3505
ZHHH,2001-02-10 08:00,ZHHH 100800Z AUTO 11006KT 5SM 14/04 A3018 RMK T01400040 IEM_DS3505
ZHHH,2001-02-10 09:00,ZHHH 100900Z AUTO 07004KT 11SM 14/04 A3018 RMK SLP219 T01390044 57011 IEM_DS3505
ZHHH,2001-02-10 10:00,ZHHH 101000Z AUTO 10006KT 6SM 12/05 A3015 RMK T01200050 IEM_DS3505
ZHHH,2001-02-10 11:00,ZHHH 101100Z AUTO 09006KT 11/05 A3015 RMK T01100050 IEM_DS3505
ZHHH,2001-02-10 12:00,ZHHH 101200Z AUTO 07002KT 9SM 10/04 A3015 RMK SLP214 T01020045 57005 IEM_DS3505
ZHHH,2001-02-10 13:00,ZHHH 101300Z AUTO 10006KT 10/04 A3018 RMK T01000040 IEM_DS3505
ZHHH,2001-02-10 14:00,ZHHH 101400Z AUTO 09008KT 10/04 A3021 RMK T01000040 IEM_DS3505
ZHHH,2001-02-10 15:00,ZHHH 101500Z AUTO 07004KT 9SM 09/04 A3021 RMK SLP229 T00900037 52015 IEM_DS3505
ZHHH,2001-02-10 16:00,ZHHH 101600Z AUTO 07006KT 4SM 07/04 A3021 RMK T00700040 IEM_DS3505
ZHHH,2001-02-10 17:00,ZHHH 101700Z AUTO 06006KT 3SM 07/04 A3024 RMK T00700040 IEM_DS3505
ZHHH,2001-02-10 18:00,ZHHH 101800Z AUTO 04002KT 11SM 08/04 A3021 RMK SLP239 T00790043 52010 IEM_DS3505
ZHHH,2001-02-10 19:00,ZHHH 101900Z AUTO 09006KT 2 1/2SM 07/04 A3021 RMK T00700040 IEM_DS3505
ZHHH,2001-02-10 20:00,ZHHH 102000Z AUTO 09004KT 3SM 07/04 A3018 RMK T00700040 IEM_DS3505
ZHHH,2001-02-10 21:00,ZHHH 102100Z AUTO 09004KT 11SM 08/05 A3015 RMK SLP216 T00750046 57023 IEM_DS3505
ZHHH,2001-02-10 22:00,ZHHH 102200Z AUTO 05010KT 2 1/2SM 06/04 A3018 RMK T00600040 IEM_DS3505
ZHHH,2001-02-10 23:00,ZHHH 102300Z AUTO 03008KT 2SM 06/04 A3021 RMK T00600040 IEM_DS3505
ZHHH,2001-02-11 00:00,ZHHH 110000Z AUTO 04006KT 6SM 06/04 A3027 RMK 60002 SLP243 T00580042 52027 IEM_DS3505
ZHHH,2001-02-11 01:00,ZHHH 110100Z AUTO 05014KT 1 1/4SM 05/04 A3024 RMK T00500040 IEM_DS3505
ZHHH,2001-02-11 02:00,ZHHH 110200Z AUTO 05012KT 1 1/2SM 05/04 A3024 RMK T00500040 IEM_DS3505
ZHHH,2001-02-11 03:00,ZHHH 110300Z AUTO 07006KT 7SM 06/04 A3024 RMK SLP247 T00560040 52004 IEM_DS3505
ZHHH,2001-02-11 04:00,ZHHH 110400Z AUTO 04010KT 1SM 05/04 A3024 RMK T00500040 IEM_DS3505
ZHHH,2001-02-11 05:00,ZHHH 110500Z AUTO 04012KT 1SM 05/04 A3021 RMK T00500040 IEM_DS3505
ZHHH,2001-02-11 06:00,ZHHH 110600Z AUTO 04004KT 6SM 05/05 A3021 RMK 60016 SLP232 T00530048 57015 IEM_DS3505
ZHHH,2001-02-11 07:00,ZHHH 110700Z AUTO 03014KT 1SM 05/04 A3018 RMK T00500040 IEM_DS3505
ZHHH,2001-02-11 08:00,ZHHH 110800Z AUTO 04014KT 1SM 04/03 A3021 RMK T00400030 IEM_DS3505
ZHHH,2001-02-11 09:00,ZHHH 110900Z AUTO 04008KT 6SM 04/04 A3021 RMK SLP226 T00450039 57006 IEM_DS3505
ZHHH,2001-02-11 10:00,ZHHH 111000Z AUTO 03012KT 1 1/4SM 04/03 A3021 RMK T00400030 IEM_DS3505
ZHHH,2001-02-11 11:00,ZHHH 111100Z AUTO 02010KT 1 1/2SM 04/03 A3024 RMK T00400030 IEM_DS3505
ZHHH,2001-02-11 12:00,ZHHH 111200Z AUTO 04004KT 5SM 04/03 A3024 RMK 60028 SLP248 T00390030 52022 IEM_DS3505
ZHHH,2001-02-11 13:00,ZHHH 111300Z AUTO 02010KT 2SM 03/03 A3027 RMK T00300030 IEM_DS3505
ZHHH,2001-02-11 14:00,ZHHH 111400Z AUTO 02008KT 2 1/2SM 04/03 A3030 RMK T00400030 IEM_DS3505
ZHHH,2001-02-11 15:00,ZHHH 111500Z AUTO 34004KT 6SM 04/04 A3030 RMK SLP264 T00440037 52016 IEM_DS3505
ZHHH,2001-02-11 16:00,ZHHH 111600Z AUTO 02008KT 2 1/2SM 04/04 A3030 RMK T00400040 IEM_DS3505
ZHHH,2001-02-11 17:00,ZHHH 111700Z AUTO 02008KT 2 1/2SM 05/04 A3033 RMK T00500040 IEM_DS3505
ZHHH,2001-02-11 18:00,ZHHH 111800Z AUTO 34002KT 5SM 04/04 A3033 RMK 60016 SLP273 T00410039 52008 IEM_DS3505
ZHHH,2001-02-11 19:00,ZHHH 111900Z AUTO 01006KT 7SM 05/03 A3033 RMK T00500030 IEM_DS3505
ZHHH,2001-02-11 20:00,ZHHH 112000Z AUTO 01008KT 7SM 04/03 A3033 RMK T00400030 IEM_DS3505
ZHHH,2001-02-11 21:00,ZHHH 112100Z AUTO 36004KT 3SM 04/03 A3036 RMK 70063 SLP282 T00440033 52009 IEM_DS3505
ZHHH,2001-02-11 22:00,ZHHH 112200Z AUTO 02012KT 7SM 03/02 A3036 RMK T00300020 IEM_DS3505
ZHHH,2001-02-11 23:00,ZHHH 112300Z AUTO 03012KT 7SM 03/01 A3036 RMK T00300010 IEM_DS3505
ZHHH,2001-02-12 00:00,ZHHH 120000Z AUTO 02006KT 7SM 03/02 A3039 RMK 60003 SLP291 T00320016 52009 IEM_DS3505
ZHHH,2001-02-12 01:00,ZHHH 120100Z AUTO 01010KT 7SM 03/01 A3039 RMK T00300010 IEM_DS3505
ZHHH,2001-02-12 02:00,ZHHH 120200Z AUTO 03008KT 6SM 03/01 A3039 RMK T00300010 IEM_DS3505
ZHHH,2001-02-12 03:00,ZHHH 120300Z AUTO 36004KT 9SM 03/02 A3042 RMK SLP301 T00270018 52010 IEM_DS3505
ZHHH,2001-02-12 04:00,ZHHH 120400Z AUTO 01008KT 4SM 03/02 A3039 RMK T00300020 IEM_DS3505
ZHHH,2001-02-12 05:00,ZHHH 120500Z AUTO 01008KT 4SM 03/02 A3036 RMK T00300020 IEM_DS3505
ZHHH,2001-02-12 06:00,ZHHH 120600Z AUTO 36004KT 7SM 02/02 A3033 RMK 60004 SLP278 T00220017 57023 IEM_DS3505
ZHHH,2001-02-12 07:00,ZHHH 120700Z AUTO 35008KT 2SM 02/01 A3033 RMK T00200010 IEM_DS3505
ZHHH,2001-02-12 08:00,ZHHH 120800Z AUTO 36008KT 1 1/2SM 02/01 A3033 RMK T00200010 IEM_DS3505
ZHHH,2001-02-12 09:00,ZHHH 120900Z AUTO 36006KT 6SM 01/01 A3033 RMK SLP276 T00140011 57002 IEM_DS3505
ZHHH,2001-02-12 10:00,ZHHH 121000Z AUTO 35006KT 2SM 02/01 A3033 RMK T00200010 IEM_DS3505
ZHHH,2001-02-12 11:00,ZHHH 121100Z AUTO 35006KT 2 1/2SM 01/01 A3033 RMK T00100010 IEM_DS3505
ZHHH,2001-02-12 12:00,ZHHH 121200Z AUTO 34004KT 6SM 01/01 A3036 RMK 60012 SLP287 T00120010 52011 IEM_DS3505
ZHHH,2001-02-12 13:00,ZHHH 121300Z AUTO 34010KT 2SM 01/01 A3039 RMK T00100010 IEM_DS3505
ZHHH,2001-02-12 14:00,ZHHH 121400Z AUTO 35008KT 2 1/2SM 01/01 A3042 RMK T00100010 IEM_DS3505
ZHHH,2001-02-12 15:00,ZHHH 121500Z AUTO 36002KT 6SM 01/01 A3042 RMK SLP304 T00130011 52017 IEM_DS3505
ZHHH,2001-02-12 16:00,ZHHH 121600Z AUTO 35006KT 1 1/2SM 02/01 A3042 RMK T00200010 IEM_DS3505
ZHHH,2001-02-12 17:00,ZHHH 121700Z AUTO 35008KT 2SM 01/01 A3042 RMK T00100010 IEM_DS3505
ZHHH,2001-02-12 18:00,ZHHH 121800Z AUTO 34006KT 5SM 01/01 A3042 RMK 60008 SLP310 T00120010 52006 IEM_DS3505
ZHHH,2001-02-12 19:00,ZHHH 121900Z AUTO 35006KT 3SM 02/01 A3042 RMK T00200010 IEM_DS3505
ZHHH,2001-02-12 20:00,ZHHH 122000Z AUTO 35006KT 3SM 02/01 A3042 RMK T00200010 IEM_DS3505
ZHHH,2001-02-12 21:00,ZHHH 122100Z AUTO 34004KT 5SM 02/01 A3042 RMK 70028 SLP305 T00150011 57005 IEM_DS3505
ZHHH,2001-02-12 22:00,ZHHH 122200Z AUTO 01008KT 3SM 02/01 A3042 RMK T00200010 IEM_DS3505
ZHHH,2001-02-12 23:00,ZHHH 122300Z AUTO 02008KT 2 1/2SM 02/01 A3045 RMK T00200010 IEM_DS3505
ZHHH,2001-02-13 00:00,ZHHH 130000Z AUTO 02004KT 7SM 02/01 A3045 RMK 60002 SLP318 T00200014 52013 IEM_DS3505
ZHHH,2001-02-13 01:00,ZHHH 130100Z AUTO 01006KT 2 1/2SM 03/02 A3047 RMK T00300020 IEM_DS3505
ZHHH,2001-02-13 02:00,ZHHH 130200Z AUTO 35010KT 2SM 03/02 A3047 RMK T00300020 IEM_DS3505
ZHHH,2001-02-13 03:00,ZHHH 130300Z AUTO 32004KT 7SM 03/02 A3047 RMK SLP332 T00290016 52014 IEM_DS3505
ZHHH,2001-02-13 04:00,ZHHH 130400Z AUTO 7SM 05/03 A3047 RMK T00500030 IEM_DS3505
ZHHH,2001-02-13 05:00,ZHHH 130500Z AUTO 01008KT 7SM 05/02 A3045 RMK T00500020 IEM_DS3505
ZHHH,2001-02-13 06:00,ZHHH 130600Z AUTO 4SM 05/03 A3042 RMK T00500030 IEM_DS3505
ZHHH,2001-02-13 07:00,ZHHH 130700Z AUTO 35006KT 7SM 06/03 A3042 RMK T00600030 IEM_DS3505
ZHHH,2001-02-13 08:00,ZHHH 130800Z AUTO 35006KT 7SM 07/03 A3042 RMK T00700030 IEM_DS3505
ZHHH,2001-02-13 09:00,ZHHH 130900Z AUTO 34002KT 9SM 07/03 A3042 RMK SLP302 T00730028 57006 IEM_DS3505
ZHHH,2001-02-13 10:00,ZHHH 131000Z AUTO 35002KT 6SM 07/03 A3042 RMK T00700030 IEM_DS3505
ZHHH,2001-02-13 11:00,ZHHH 131100Z AUTO 30002KT 6SM 06/03 A3045 RMK T00600030 IEM_DS3505
ZHHH,2001-02-13 12:00,ZHHH 131200Z AUTO 25002KT 9SM 05/03 A3045 RMK SLP323 T00510032 52021 IEM_DS3505
ZHHH,2001-02-13 13:00,ZHHH 131300Z AUTO 21006KT 4SM 04/03 A3047 RMK T00400030 IEM_DS3505
ZHHH,2001-02-13 14:00,ZHHH 131400Z AUTO 22004KT 1 1/2SM 04/03 A3047 RMK T00400030 IEM_DS3505
ZHHH,2001-02-13 15:00,ZHHH 131500Z AUTO 27002KT 9SM 03/02 A3050 RMK SLP332 T00310024 52009 IEM_DS3505
ZHHH,2001-02-13 16:00,ZHHH 131600Z AUTO 22004KT 1 1/4SM 03/02 A3047 RMK T00300020 IEM_DS3505
ZHHH,2001-02-13 17:00,ZHHH 131700Z AUTO 25004KT 1 1/4SM 02/02 A3047 RMK T00200020 IEM_DS3505
ZHHH,2001-02-13 18:00,ZHHH 131800Z AUTO 27002KT 9SM 02/02 A3047 RMK SLP326 T00220017 57006 IEM_DS3505
ZHHH,2001-02-13 19:00,ZHHH 131900Z AUTO 1 1/4SM 02/01 A3045 RMK T00200010 IEM_DS3505
ZHHH,2001-02-13 20:00,ZHHH 132000Z AUTO 1SM 01/01 A3045 RMK T00100010 IEM_DS3505
ZHHH,2001-02-13 21:00,ZHHH 132100Z AUTO 00000KT 9SM 02/01 A3045 RMK 70003 SLP316 T00160012 57010 IEM_DS3505
ZHHH,2001-02-13 22:00,ZHHH 132200Z AUTO 00000KT 1SM 01/01 A3045 RMK T00100010 IEM_DS3505
ZHHH,2001-02-13 23:00,ZHHH 132300Z AUTO 00000KT 1/2SM 00/00 A3045 RMK T00000000 IEM_DS3505
ZHHH,2001-02-14 00:00,ZHHH 140000Z AUTO 16002KT 02/01 A3047 RMK SLP322 T00160014 52006 IEM_DS3505
ZHHH,2001-02-14 01:00,ZHHH 140100Z AUTO 13006KT 1/8SM M01/M01 A3047 RMK T10101010 IEM_DS3505
ZHHH,2001-02-14 02:00,ZHHH 140200Z AUTO 13006KT 1/8SM 01/01 A3047 RMK T00100010 IEM_DS3505
ZHHH,2001-02-14 03:00,ZHHH 140300Z AUTO 14004KT 5SM 03/03 A3047 RMK SLP322 T00320029 54000 IEM_DS3505
ZHHH,2001-02-14 04:00,ZHHH 140400Z AUTO 1SM 05/05 A3045 RMK T00500050 IEM_DS3505
ZHHH,2001-02-14 05:00,ZHHH 140500Z AUTO 17006KT 1SM 06/05 A3039 RMK T00600050 IEM_DS3505
ZHHH,2001-02-14 06:00,ZHHH 140600Z AUTO 20002KT 12SM 10/02 A3036 RMK SLP283 T00960022 57038 IEM_DS3505
ZHHH,2001-02-14 07:00,ZHHH 140700Z AUTO 2 1/2SM 09/04 A3033 RMK T00900040 IEM_DS3505
ZHHH,2001-02-14 08:00,ZHHH 140800Z AUTO 17006KT 5SM 10/03 A3030 RMK T01000030 IEM_DS3505
ZHHH,2001-02-14 09:00,ZHHH 140900Z AUTO 14002KT 12SM 10/03 A3030 RMK SLP264 T01030030 57019 IEM_DS3505
ZHHH,2001-02-14 10:00,ZHHH 141000Z AUTO 3SM 08/04 A3030 RMK T00800040 IEM_DS3505
ZHHH,2001-02-14 11:00,ZHHH 141100Z AUTO 12006KT 2 1/2SM 07/04 A3030 RMK T00700040 IEM_DS3505
ZHHH,2001-02-14 12:00,ZHHH 141200Z AUTO 00000KT 9SM 08/04 A3030 RMK SLP271 T00770037 52006 IEM_DS3505
ZHHH,2001-02-14 13:00,ZHHH 141300Z AUTO 12006KT 2 1/2SM 06/03 A3033 RMK T00600030 IEM_DS3505
ZHHH,2001-02-14 14:00,ZHHH 141400Z AUTO 13006KT 2SM 05/04 A3033 RMK T00500040 IEM_DS3505
ZHHH,2001-02-14 15:00,ZHHH 141500Z AUTO 11002KT 7SM 06/03 A3033 RMK SLP277 T00610032 52006 IEM_DS3505
ZHHH,2001-02-14 16:00,ZHHH 141600Z AUTO 13004KT 1 1/2SM 05/03 A3033 RMK T00500030 IEM_DS3505
ZHHH,2001-02-14 17:00,ZHHH 141700Z AUTO 1 1/2SM 05/03 A3033 RMK T00500030 IEM_DS3505
ZHHH,2001-02-14 18:00,ZHHH 141800Z AUTO 00000KT 9SM 04/03 A3036 RMK SLP279 T00380029 52003 IEM_DS3505
ZHHH,2001-02-14 19:00,ZHHH 141900Z AUTO 04002KT 1 1/4SM 03/03 A3036 RMK T00300030 IEM_DS3505
ZHHH,2001-02-14 20:00,ZHHH 142000Z AUTO 13002KT 1SM 03/02 A3033 RMK T00300020 IEM_DS3505
ZHHH,2001-02-14 21:00,ZHHH 142100Z AUTO 18004KT 9SM 04/02 A3033 RMK SLP273 T00350025 57006 IEM_DS3505
ZHHH,2001-02-14 22:00,ZHHH 142200Z AUTO 1/2SM 02/01 A3033 RMK T00200010 IEM_DS3505
ZHHH,2001-02-14 23:00,ZHHH 142300Z AUTO 06004KT 1/2SM 02/02 A3036 RMK T00200020 IEM_DS3505
ZHHH,2001-02-15 00:00,ZHHH 150000Z AUTO 00000KT 03/03 A3039 RMK SLP291 T00330026 52018 IEM_DS3505
ZHHH,2001-02-15 01:00,ZHHH 150100Z AUTO 09006KT 1SM 03/02 A3039 RMK T00300020 IEM_DS3505
ZHHH,2001-02-15 02:00,ZHHH 150200Z AUTO 10006KT 1 1/2SM 06/04 A3042 RMK T00600040 IEM_DS3505
ZHHH,2001-02-15 03:00,ZHHH 150300Z AUTO 09002KT 9SM 10/05 A3042 RMK SLP304 T00980050 52013 IEM_DS3505
ZHHH,2001-02-15 04:00,ZHHH 150400Z AUTO 6SM 10/03 A3042 RMK T01000030 IEM_DS3505
ZHHH,2001-02-15 05:00,ZHHH 150500Z AUTO 6SM 12/05 A3039 RMK T01200050 IEM_DS3505
ZHHH,2001-02-15 06:00,ZHHH 150600Z AUTO 36004KT 11SM 13/04 A3036 RMK SLP276 T01280035 57028 IEM_DS3505
ZHHH,2001-02-15 07:00,ZHHH 150700Z AUTO 6SM 13/04 A3033 RMK T01300040 IEM_DS3505
ZHHH,2001-02-15 08:00,ZHHH 150800Z AUTO 6SM 13/03 A3033 RMK T01300030 IEM_DS3505
ZHHH,2001-02-15 09:00,ZHHH 150900Z AUTO 11002KT 11SM 14/04 A3033 RMK SLP269 T01370036 57007 IEM_DS3505
ZHHH,2001-02-15 10:00,ZHHH 151000Z AUTO 33002KT 6SM 12/05 A3033 RMK T01200050 IEM_DS3505
ZHHH,2001-02-15 12:00,ZHHH 151200Z AUTO 00000KT 9SM 09/06 A3036 RMK SLP286 T00940057 52017 IEM_DS3505
ZHHH,2001-02-15 13:00,ZHHH 151300Z AUTO 03006KT 6SM 10/02 A3039 RMK T01000020 IEM_DS3505
ZHHH,2001-02-15 14:00,ZHHH 151400Z AUTO 04006KT 6SM 09/00 A3042 RMK T00900000 IEM_DS3505
ZHHH,2001-02-15 15:00,ZHHH 151500Z AUTO 02002KT 9SM 09/02 A3042 RMK SLP301 T00890017 52015 IEM_DS3505
ZHHH,2001-02-15 16:00,ZHHH 151600Z AUTO 05006KT 6SM 08/01 A3042 RMK T00800010 IEM_DS3505
ZHHH,2001-02-15 18:00,ZHHH 151800Z AUTO 34002KT 9SM 08/01 RMK SLP306 T00790012 52005 IEM_DS3505
ZHHH,2001-02-15 19:00,ZHHH 151900Z AUTO 03006KT 6SM 07/01 A3042 RMK T00700010 IEM_DS3505
ZHHH,2001-02-15 20:00,ZHHH 152000Z AUTO 03006KT 6SM 07/01 A3042 RMK T00700010 IEM_DS3505
ZHHH,2001-02-15 21:00,ZHHH 152100Z AUTO 09002KT 9SM 06/02 A3045 RMK SLP312 T00620021 52006 IEM_DS3505
ZHHH,2001-02-15 22:00,ZHHH 152200Z AUTO 06004KT 6SM 06/01 A3045 RMK T00600010 IEM_DS3505
ZHHH,2001-02-15 23:00,ZHHH 152300Z AUTO 6SM 05/01 A3047 RMK T00500010 IEM_DS3505
ZHHH,2001-02-16 00:00,ZHHH 160000Z AUTO 02002KT 7SM 05/01 A3050 RMK SLP334 T00540011 52022 IEM_DS3505
ZHHH,2001-02-16 01:00,ZHHH 160100Z AUTO 13006KT 6SM 06/01 A3050 RMK T00600010 IEM_DS3505
ZHHH,2001-02-16 03:00,ZHHH 160300Z AUTO 09002KT 11SM 11/03 A3053 RMK SLP339 T01080030 52005 IEM_DS3505
ZHHH,2001-02-16 04:00,ZHHH 160400Z AUTO 11006KT 6SM 12/02 A3050 RMK T01200020 IEM_DS3505
ZHHH,2001-02-16 05:00,ZHHH 160500Z AUTO 13006KT 6SM 13/00 A3047 RMK T01300000 IEM_DS3505
ZHHH,2001-02-16 06:00,ZHHH 160600Z AUTO 07004KT 9SM 14/M01 A3042 RMK SLP301 T01381013 57038 IEM_DS3505
ZHHH,2001-02-16 07:00,ZHHH 160700Z AUTO 12008KT 6SM 14/M02 A3039 RMK T01401020 IEM_DS3505
ZHHH,2001-02-16 08:00,ZHHH 160800Z AUTO 11008KT 6SM 13/M02 A3036 RMK T01301020 IEM_DS3505
ZHHH,2001-02-16 09:00,ZHHH 160900Z AUTO 09004KT 9SM 13/M01 A3033 RMK SLP272 T01331011 57029 IEM_DS3505
ZHHH,2001-02-16 10:00,ZHHH 161000Z AUTO 08006KT 6SM 11/01 A3033 RMK T01100010 IEM_DS3505
ZHHH,2001-02-16 11:00,ZHHH 161100Z AUTO 07006KT 6SM 10/01 A3030 RMK T01000010 IEM_DS3505
ZHHH,2001-02-16 12:00,ZHHH 161200Z AUTO 09002KT 9SM 10/03 A3033 RMK SLP268 T01030029 57004 IEM_DS3505
ZHHH,2001-02-16 13:00,ZHHH 161300Z AUTO 11006KT 6SM 09/03 A3033 RMK T00900030 IEM_DS3505
ZHHH,2001-02-16 14:00,ZHHH 161400Z AUTO 11006KT 6SM 08/01 A3030 RMK T00800010 IEM_DS3505
ZHHH,2001-02-16 15:00,ZHHH 161500Z AUTO 14002KT 9SM 10/M03 RMK SLP262 T00981032 57006 IEM_DS3505
ZHHH,2001-02-16 16:00,ZHHH 161600Z AUTO 13008KT 6SM 08/01 A3027 RMK T00800010 IEM_DS3505
ZHHH,2001-02-16 17:00,ZHHH 161700Z AUTO 13006KT 6SM 07/02 A3024 RMK T00700020 IEM_DS3505
ZHHH,2001-02-16 18:00,ZHHH 161800Z AUTO 11004KT 9SM 09/M02 A3024 RMK SLP241 T00881022 57021 IEM_DS3505
ZHHH,2001-02-16 19:00,ZHHH 161900Z AUTO 12010KT 6SM 07/00 A3021 RMK T00700000 IEM_DS3505
ZHHH,2001-02-16 20:00,ZHHH 162000Z AUTO 14006KT 6SM 07/01 A3018 RMK T00700010 IEM_DS3505
ZHHH,2001-02-16 21:00,ZHHH 162100Z AUTO 11004KT 9SM 08/00 A3018 RMK SLP221 T00790000 57020 IEM_DS3505
ZHHH,2001-02-16 22:00,ZHHH 162200Z AUTO 09004KT 6SM 06/02 A3018 RMK T00600020 IEM_DS3505
ZHHH,2001-02-16 23:00,ZHHH 162300Z AUTO 12006KT 6SM 06/01 A3018 RMK T00600010 IEM_DS3505
ZHHH,2001-02-17 00:00,ZHHH 170000Z AUTO 11002KT 9SM 08/01 A3018 RMK SLP219 T00800007 57002 IEM_DS3505
ZHHH,2001-02-17 01:00,ZHHH 170100Z AUTO 2 1/2SM 07/02 A3018 RMK T00700020 IEM_DS3505
ZHHH,2001-02-17 02:00,ZHHH 170200Z AUTO 3SM 07/03 A3018 RMK T00700030 IEM_DS3505
ZHHH,2001-02-17 03:00,ZHHH 170300Z AUTO 14002KT 9SM 08/02 A3018 RMK SLP227 T00830023 52008 IEM_DS3505
ZHHH,2001-02-17 04:00,ZHHH 170400Z AUTO 14006KT 3SM 07/03 A3015 RMK T00700030 IEM_DS3505
ZHHH,2001-02-17 05:00,ZHHH 170500Z AUTO 14006KT 3SM 08/03 A3012 RMK T00800030 IEM_DS3505
ZHHH,2001-02-17 06:00,ZHHH 170600Z AUTO 16004KT 7SM 10/03 A3009 RMK SLP194 T00950030 57033 IEM_DS3505
ZHHH,2001-02-17 07:00,ZHHH 170700Z AUTO 2 1/2SM 10/03 A3009 RMK T01000030 IEM_DS3505
ZHHH,2001-02-17 08:00,ZHHH 170800Z AUTO 16006KT 3SM 11/03 A3006 RMK T01100030 IEM_DS3505
ZHHH,2001-02-17 09:00,ZHHH 170900Z AUTO 09002KT 11SM 12/04 A3006 RMK SLP185 T01180041 57009 IEM_DS3505
ZHHH,2001-02-17 10:00,ZHHH 171000Z AUTO 14006KT 2 1/2SM 10/04 A3006 RMK T01000040 IEM_DS3505
ZHHH,2001-02-17 11:00,ZHHH 171100Z AUTO 13004KT 3SM 09/04 A3009 RMK T00900040 IEM_DS3505
ZHHH,2001-02-17 12:00,ZHHH 171200Z AUTO 14002KT 9SM 09/04 A3012 RMK SLP198 T00930036 52013 IEM_DS3505
ZHHH,2001-02-17 13:00,ZHHH 171300Z AUTO 12004KT 1 1/2SM 08/05 A3012 RMK T00800050 IEM_DS3505
ZHHH,2001-02-17 14:00,ZHHH 171400Z AUTO 2SM 07/04 A3012 RMK T00700040 IEM_DS3505
ZHHH,2001-02-17 15:00,ZHHH 171500Z AUTO 00000KT 7SM 07/04 RMK SLP207 T00710043 52009 IEM_DS3505
ZHHH,2001-02-17 16:00,ZHHH 171600Z AUTO 09004KT 2SM 07/04 A3012 RMK T00700040 IEM_DS3505
ZHHH,2001-02-17 17:00,ZHHH 171700Z AUTO 09004KT 2SM 06/03 A3012 RMK T00600030 IEM_DS3505
ZHHH,2001-02-17 18:00,ZHHH 171800Z AUTO 09002KT 7SM 06/04 A3012 RMK SLP206 T00590042 57001 IEM_DS3505
ZHHH,2001-02-17 19:00,ZHHH 171900Z AUTO 12002KT 2SM 06/04 A3012 RMK T00600040 IEM_DS3505
ZHHH,2001-02-17 20:00,ZHHH 172000Z AUTO 06004KT 2SM 05/03 A3009 RMK T00500030 IEM_DS3505
ZHHH,2001-02-17 21:00,ZHHH 172100Z AUTO 07002KT 7SM 05/04 A3009 RMK SLP196 T00510042 57010 IEM_DS3505
ZHHH,2001-02-17 22:00,ZHHH 172200Z AUTO 1 1/2SM 04/03 A3009 RMK T00400030 IEM_DS3505
ZHHH,2001-02-17 23:00,ZHHH 172300Z AUTO 12002KT 1 1/4SM 03/03 A3012 RMK T00300030 IEM_DS3505
ZHHH,2001-02-18 00:00,ZHHH 180000Z AUTO 09002KT 11SM 05/03 A3012 RMK SLP203 T00540034 52007 IEM_DS3505
ZHHH,2001-02-18 01:00,ZHHH 180100Z AUTO 1 1/2SM 06/04 A3012 RMK T00600040 IEM_DS3505
ZHHH,2001-02-18 02:00,ZHHH 180200Z AUTO 2SM 08/05 A3012 RMK T00800050 IEM_DS3505
ZHHH,2001-02-18 03:00,ZHHH 180300Z AUTO 11002KT 12SM 12/05 A3012 RMK SLP204 T01200048 52001 IEM_DS3505
ZHHH,2001-02-18 04:00,ZHHH 180400Z AUTO 13004KT 6SM 13/04 A3009 RMK T01300040 IEM_DS3505
ZHHH,2001-02-18 05:00,ZHHH 180500Z AUTO 11004KT 6SM 14/04 A3006 RMK T01400040 IEM_DS3505
ZHHH,2001-02-18 06:00,ZHHH 180600Z AUTO 07002KT 12SM 16/04 A3003 RMK SLP171 T01650037 57033 IEM_DS3505
ZHHH,2001-02-18 07:00,ZHHH 180700Z AUTO 12004KT 6SM 17/05 A3000 RMK T01700050 IEM_DS3505
ZHHH,2001-02-18 08:00,ZHHH 180800Z AUTO 13004KT 6SM 17/05 A3000 RMK T01700050 IEM_DS3505
ZHHH,2001-02-18 09:00,ZHHH 180900Z AUTO 11002KT 12SM 18/05 A3000 RMK SLP158 T01800048 57012 IEM_DS3505
ZHHH,2001-02-18 10:00,ZHHH 181000Z AUTO 10004KT 5SM 16/06 A3000 RMK T01600060 IEM_DS3505
ZHHH,2001-02-18 11:00,ZHHH 181100Z AUTO 07004KT 14/06 A3000 RMK T01400060 IEM_DS3505
ZHHH,2001-02-18 12:00,ZHHH 181200Z AUTO 00000KT 11SM 13/08 A3003 RMK SLP172 T01270080 52013 IEM_DS3505
ZHHH,2001-02-18 13:00,ZHHH 181300Z AUTO 13/06 A3003 RMK T01300060 IEM_DS3505
ZHHH,2001-02-18 14:00,ZHHH 181400Z AUTO 09006KT 13/06 A3006 RMK T01300060 IEM_DS3505
ZHHH,2001-02-18 15:00,ZHHH 181500Z AUTO 00000KT 11SM 11/06 A3009 RMK SLP187 T01080065 52015 IEM_DS3505
ZHHH,2001-02-18 16:00,ZHHH 181600Z AUTO 09008KT 4SM 11/07 A3009 RMK T01100070 IEM_DS3505
ZHHH,2001-02-18 17:00,ZHHH 181700Z AUTO 06006KT 4SM 10/06 A3009 RMK T01000060 IEM_DS3505
ZHHH,2001-02-18 18:00,ZHHH 181800Z AUTO 00000KT 8SM 10/07 A3009 RMK SLP188 T01040073 52002 IEM_DS3505
ZHHH,2001-02-18 19:00,ZHHH 181900Z AUTO 05004KT 4SM 09/06 A3009 RMK T00900060 IEM_DS3505
ZHHH,2001-02-18 20:00,ZHHH 182000Z AUTO 12002KT 4SM 09/06 A3006 RMK T00900060 IEM_DS3505
ZHHH,2001-02-18 21:00,ZHHH 182100Z AUTO 07002KT 8SM 10/07 A3006 RMK SLP188 T01040073 54000 IEM_DS3505
ZHHH,2001-02-18 22:00,ZHHH 182200Z AUTO 3SM 09/07 A3009 RMK T00900070 IEM_DS3505
ZHHH,2001-02-18 23:00,ZHHH 182300Z AUTO 3SM 09/07 A3012 RMK T00900070 IEM_DS3505
ZHHH,2001-02-19 00:00,ZHHH 190000Z AUTO 07004KT 9SM 10/07 A3015 RMK SLP207 T01030071 52018 IEM_DS3505
ZHHH,2001-02-19 01:00,ZHHH 190100Z AUTO 08004KT 2SM 10/06 A3015 RMK T01000060 IEM_DS3505
ZHHH,2001-02-19 02:00,ZHHH 190200Z AUTO 09006KT 3SM 11/07 A3015 RMK T01100070 IEM_DS3505
ZHHH,2001-02-19 03:00,ZHHH 190300Z AUTO 07002KT 9SM 13/07 A3018 RMK SLP217 T01320068 52010 IEM_DS3505
ZHHH,2001-02-19 04:00,ZHHH 190400Z AUTO 4SM 12/08 A3015 RMK T01200080 IEM_DS3505
ZHHH,2001-02-19 05:00,ZHHH 190500Z AUTO 4SM 13/08 A3012 RMK T01300080 IEM_DS3505
ZHHH,2001-02-19 06:00,ZHHH 190600Z AUTO 02002KT 9SM 15/06 A3009 RMK 60003 SLP188 T01540064 57028 IEM_DS3505
ZHHH,2001-02-19 07:00,ZHHH 190700Z AUTO 28002KT 15/09 A3009 RMK T01500090 IEM_DS3505
ZHHH,2001-02-19 08:00,ZHHH 190800Z AUTO 15/09 A3006 RMK T01500090 IEM_DS3505
ZHHH,2001-02-19 09:00,ZHHH 190900Z AUTO 07002KT 9SM 15/08 A3006 RMK SLP186 T01520085 57002 IEM_DS3505
ZHHH,2001-02-19 10:00,ZHHH 191000Z AUTO 05006KT 6SM 14/09 A3006 RMK T01400090 IEM_DS3505
ZHHH,2001-02-19 11:00,ZHHH 191100Z AUTO 6SM 14/08 A3009 RMK T01400080 IEM_DS3505
ZHHH,2001-02-19 12:00,ZHHH 191200Z AUTO 00000KT 7SM 14/10 A3009 RMK 60003 SLP193 T01380099 52006 IEM_DS3505
ZHHH,2001-02-19 13:00,ZHHH 191300Z AUTO 6SM 13/08 A3009 RMK T01300080 IEM_DS3505
ZHHH,2001-02-19 14:00,ZHHH 191400Z AUTO 6SM 12/09 A3009 RMK T01200090 IEM_DS3505
ZHHH,2001-02-19 15:00,ZHHH 191500Z AUTO 07002KT 8SM 13/09 A3009 RMK SLP191 T01260089 57001 IEM_DS3505
ZHHH,2001-02-19 16:00,ZHHH 191600Z AUTO 04006KT 6SM 12/08 A3006 RMK T01200080 IEM_DS3505
ZHHH,2001-02-19 17:00,ZHHH 191700Z AUTO 4SM 12/09 A3009 RMK T01200090 IEM_DS3505
ZHHH,2001-02-19 18:00,ZHHH 191800Z AUTO 34002KT 5SM 11/10 A3009 RMK 60008 SLP186 T01130101 57005 IEM_DS3505
ZHHH,2001-02-19 19:00,ZHHH 191900Z AUTO 32006KT 1 1/2SM 11/10 A3006 RMK T01100100 IEM_DS3505
ZHHH,2001-02-19 20:00,ZHHH 192000Z AUTO 1SM 10/10 A3006 RMK T01000100 IEM_DS3505
ZHHH,2001-02-19 21:00,ZHHH 192100Z AUTO 00000KT 6SM 11/10 A3006 RMK 70009 SLP182 T01080102 57004 IEM_DS3505
ZHHH,2001-02-19 22:00,ZHHH 192200Z AUTO 00000KT 1SM 10/10 A3006 RMK T01000100 IEM_DS3505
ZHHH,2001-02-19 23:00,ZHHH 192300Z AUTO 1SM 10/10 A3006 RMK T01000100 IEM_DS3505
ZHHH,2001-02-20 00:00,ZHHH 200000Z AUTO 36002KT 5SM 11/10 A3009 RMK 60012 SLP191 T01070105 52009 IEM_DS3505
ZHHH,2001-02-20 01:00,ZHHH 200100Z AUTO 1SM 10/10 A3009 RMK T01000100 IEM_DS3505
ZHHH,2001-02-20 02:00,ZHHH 200200Z AUTO 1SM 11/10 A3009 RMK T01100100 IEM_DS3505
ZHHH,2001-02-20 03:00,ZHHH 200300Z AUTO 36002KT 6SM 12/11 A3006 RMK SLP187 T01170107 57004 IEM_DS3505
ZHHH,2001-02-20 05:00,ZHHH 200500Z AUTO 1SM 12/11 A3003 RMK T01200110 IEM_DS3505
ZHHH,2001-02-20 06:00,ZHHH 200600Z AUTO 32002KT 5SM 12/11 A3000 RMK 60003 SLP161 T01210114 57026 IEM_DS3505
ZHHH,2001-02-20 07:00,ZHHH 200700Z AUTO 33006KT 1/2SM 11/11 A2997 RMK T01100110 IEM_DS3505
ZHHH,2001-02-20 08:00,ZHHH 200800Z AUTO 36006KT 1/2SM 11/11 A2997 RMK T01100110 IEM_DS3505
ZHHH,2001-02-20 09:00,ZHHH 200900Z AUTO 29002KT 4SM 11/11 A2997 RMK SLP151 T01080107 57011 IEM_DS3505
ZHHH,2001-02-20 10:00,ZHHH 201000Z AUTO 36006KT 1SM 10/10 A2997 RMK T01000100 IEM_DS3505
ZHHH,2001-02-20 11:00,ZHHH 201100Z AUTO 36004KT 1/2SM 10/10 A2997 RMK T01000100 IEM_DS3505
ZHHH,2001-02-20 12:00,ZHHH 201200Z AUTO 34002KT 4SM 10/10 A3000 RMK 60024 SLP160 T01040104 52009 IEM_DS3505
ZHHH,2001-02-20 13:00,ZHHH 201300Z AUTO 34004KT 1/2SM 10/10 A3000 RMK T01000100 IEM_DS3505
ZHHH,2001-02-20 14:00,ZHHH 201400Z AUTO 1/2SM 09/09 A3000 RMK T00900090 IEM_DS3505
ZHHH,2001-02-20 15:00,ZHHH 201500Z AUTO 36004KT 4SM 10/09 A3003 RMK SLP168 T00950093 52008 IEM_DS3505
ZHHH,2001-02-20 16:00,ZHHH 201600Z AUTO 1SM 09/09 A3000 RMK T00900090 IEM_DS3505
ZHHH,2001-02-20 17:00,ZHHH 201700Z AUTO 35004KT 1SM 09/09 A3000 RMK T00900090 IEM_DS3505
ZHHH,2001-02-20 18:00,ZHHH 201800Z AUTO 36002KT 6SM 09/09 A3003 RMK 60024 SLP171 T00890088 52003 IEM_DS3505
ZHHH,2001-02-20 19:00,ZHHH 201900Z AUTO 1SM 08/08 A3000 RMK T00800080 IEM_DS3505
ZHHH,2001-02-20 20:00,ZHHH 202000Z AUTO 34006KT 1 1/2SM 08/08 A3000 RMK T00800080 IEM_DS3505
ZHHH,2001-02-20 21:00,ZHHH 202100Z AUTO 36002KT 6SM 09/08 A3000 RMK 70063 SLP158 T00860083 57013 IEM_DS3505
ZHHH,2001-02-20 22:00,ZHHH 202200Z AUTO 1 1/2SM 08/08 A3000 RMK T00800080 IEM_DS3505
ZHHH,2001-02-20 23:00,ZHHH 202300Z AUTO 35006KT 1 1/2SM 08/08 A3000 RMK T00800080 IEM_DS3505
ZHHH,2001-02-21 00:00,ZHHH 210000Z AUTO 00000KT 6SM 09/08 A3003 RMK 60004 SLP177 T00860084 52019 IEM_DS3505
ZHHH,2001-02-21 01:00,ZHHH 210100Z AUTO 00000KT 1 1/2SM 09/09 A3003 RMK T00900090 IEM_DS3505
ZHHH,2001-02-21 02:00,ZHHH 210200Z AUTO 2SM 10/09 A3006 RMK T01000090 IEM_DS3505
ZHHH,2001-02-21 03:00,ZHHH 210300Z AUTO 29002KT 6SM 10/09 A3006 RMK SLP185 T01040090 52008 IEM_DS3505
ZHHH,2001-02-21 04:00,ZHHH 210400Z AUTO 2 1/2SM 11/09 A3006 RMK T01100090 IEM_DS3505
ZHHH,2001-02-21 05:00,ZHHH 210500Z AUTO 4SM 12/09 A3003 RMK T01200090 IEM_DS3505
ZHHH,2001-02-21 06:00,ZHHH 210600Z AUTO 00000KT 7SM 13/10 A3000 RMK SLP165 T01260098 57020 IEM_DS3505
ZHHH,2001-02-21 07:00,ZHHH 210700Z AUTO 4SM 14/10 A3000 RMK T01400100 IEM_DS3505
ZHHH,2001-02-21 08:00,ZHHH 210800Z AUTO 00000KT 4SM 14/09 A2997 RMK T01400090 IEM_DS3505
ZHHH,2001-02-21 09:00,ZHHH 210900Z AUTO 11002KT 7SM 13/10 A2997 RMK SLP158 T01330101 57007 IEM_DS3505
ZHHH,2001-02-21 10:00,ZHHH 211000Z AUTO 20006KT 2SM 13/10 A3000 RMK T01300100 IEM_DS3505
ZHHH,2001-02-21 11:00,ZHHH 211100Z AUTO 1 1/2SM 12/10 A3000 RMK T01200100 IEM_DS3505
ZHHH,2001-02-21 12:00,ZHHH 211200Z AUTO 11002KT 6SM 11/10 A3000 RMK SLP162 T01120098 52004 IEM_DS3505
ZHHH,2001-02-21 13:00,ZHHH 211300Z AUTO 1SM 11/10 A3000 RMK T01100100 IEM_DS3505
ZHHH,2001-02-21 14:00,ZHHH 211400Z AUTO 1SM 10/10 A3000 RMK T01000100 IEM_DS3505
ZHHH,2001-02-21 15:00,ZHHH 211500Z AUTO 00000KT 6SM 10/10 A3000 RMK SLP168 T00990095 52006 IEM_DS3505
ZHHH,2001-02-21 16:00,ZHHH 211600Z AUTO 17002KT 1SM 09/09 A3003 RMK T00900090 IEM_DS3505
ZHHH,2001-02-21 17:00,ZHHH 211700Z AUTO 1SM 10/09 A3003 RMK T01000090 IEM_DS3505
ZHHH,2001-02-21 18:00,ZHHH 211800Z AUTO 00000KT 7SM 10/10 A2997 RMK SLP158 T00960095 57010 IEM_DS3505
ZHHH,2001-02-21 19:00,ZHHH 211900Z AUTO 12002KT 1 1/4SM 10/10 A2997 RMK T01000100 IEM_DS3505
ZHHH,2001-02-21 20:00,ZHHH 212000Z AUTO 08004KT 1 1/4SM 10/10 A2997 RMK T01000100 IEM_DS3505
ZHHH,2001-02-21 21:00,ZHHH 212100Z AUTO 00000KT 7SM 10/10 A2994 RMK SLP144 T01030101 57013 IEM_DS3505
ZHHH,2001-02-21 22:00,ZHHH 212200Z AUTO 08002KT 1SM 10/10 A2994 RMK T01000100 IEM_DS3505
ZHHH,2001-02-21 23:00,ZHHH 212300Z AUTO 12004KT 1SM 10/10 A2994 RMK T01000100 IEM_DS3505
ZHHH,2001-02-22 00:00,ZHHH 220000Z AUTO 09002KT 5SM 11/10 A2997 RMK SLP145 T01070105 52001 IEM_DS3505
ZHHH,2001-02-22 01:00,ZHHH 220100Z AUTO 12010KT 1SM 11/10 A2994 RMK T01100100 IEM_DS3505
ZHHH,2001-02-22 02:00,ZHHH 220200Z AUTO 13006KT 1SM 11/10 A2997 RMK T01100100 IEM_DS3505
ZHHH,2001-02-22 03:00,ZHHH 220300Z AUTO 11002KT 7SM 12/11 A2994 RMK SLP141 T01230107 57004 IEM_DS3505
ZHHH,2001-02-22 04:00,ZHHH 220400Z AUTO 1SM 12/11 A2991 RMK T01200110 IEM_DS3505
ZHHH,2001-02-22 05:00,ZHHH 220500Z AUTO 1SM 12/11 A2988 RMK T01200110 IEM_DS3505
ZHHH,2001-02-22 06:00,ZHHH 220600Z AUTO 07002KT 5SM 13/12 A2983 RMK 60003 SLP104 T01280118 57037 IEM_DS3505
ZHHH,2001-02-22 07:00,ZHHH 220700Z AUTO 1SM 12/11 A2983 RMK T01200110 IEM_DS3505
ZHHH,2001-02-22 08:00,ZHHH 220800Z AUTO 1 1/4SM 13/11 A2980 RMK T01300110 IEM_DS3505
ZHHH,2001-02-22 09:00,ZHHH 220900Z AUTO 07002KT 6SM 13/12 A2977 RMK SLP083 T01340123 57021 IEM_DS3505
ZHHH,2001-02-22 10:00,ZHHH 221000Z AUTO 1 1/4SM 13/12 A2977 RMK T01300120 IEM_DS3505
ZHHH,2001-02-22 11:00,ZHHH 221100Z AUTO 07004KT 1SM 13/12 A2977 RMK T01300120 IEM_DS3505
ZHHH,2001-02-22 12:00,ZHHH 221200Z AUTO 04002KT 6SM 13/12 A2977 RMK SLP082 T01320125 57001 IEM_DS3505
ZHHH,2001-02-22 13:00,ZHHH 221300Z AUTO 05004KT 1SM 13/12 A2977 RMK T01300120 IEM_DS3505
ZHHH,2001-02-22 14:00,ZHHH 221400Z AUTO 1SM 12/12 A2977 RMK T01200120 IEM_DS3505
ZHHH,2001-02-22 15:00,ZHHH 221500Z AUTO 36002KT 6SM 13/12 A2977 RMK SLP086 T01280125 52004 IEM_DS3505
ZHHH,2001-02-22 16:00,ZHHH 221600Z AUTO 36004KT 1SM 12/12 A2977 RMK T01200120 IEM_DS3505
ZHHH,2001-02-22 17:00,ZHHH 221700Z AUTO 36006KT 1SM 12/12 A2980 RMK T01200120 IEM_DS3505
ZHHH,2001-02-22 18:00,ZHHH 221800Z AUTO 02002KT 6SM 13/12 A2977 RMK 60000 SLP086 T01260123 54000 IEM_DS3505
ZHHH,2001-02-22 19:00,ZHHH 221900Z AUTO 36008KT 1 1/2SM 12/11 A2977 RMK T01200110 IEM_DS3505
ZHHH,2001-02-22 20:00,ZHHH 222000Z AUTO 35012KT 1 1/2SM 13/12 A2977 RMK T01300120 IEM_DS3505
ZHHH,2001-02-22 21:00,ZHHH 222100Z AUTO 32004KT 6SM 12/12 A2980 RMK 70003 SLP086 T01240120 54000 IEM_DS3505
ZHHH,2001-02-22 22:00,ZHHH 222200Z AUTO 03008KT 1SM 12/12 A2980 RMK T01200120 IEM_DS3505
ZHHH,2001-02-22 23:00,ZHHH 222300Z AUTO 04006KT 1 1/2SM 11/11 A2983 RMK T01100110 IEM_DS3505
ZHHH,2001-02-23 00:00,ZHHH 230000Z AUTO 04004KT 5SM 11/11 A2983 RMK 60024 SLP108 T01140113 52022 IEM_DS3505
ZHHH,2001-02-23 01:00,ZHHH 230100Z AUTO 03008KT 7SM 11/10 A2988 RMK T01100100 IEM_DS3505
ZHHH,2001-02-23 02:00,ZHHH 230200Z AUTO 02012KT 7SM 11/10 A2988 RMK T01100100 IEM_DS3505
ZHHH,2001-02-23 03:00,ZHHH 230300Z AUTO 04006KT 7SM 11/10 A2991 RMK SLP128 T01110104 52020 IEM_DS3505
ZHHH,2001-02-23 04:00,ZHHH 230400Z AUTO 01012KT 7SM 10/09 A2991 RMK T01000090 IEM_DS3505
ZHHH,2001-02-23 05:00,ZHHH 230500Z AUTO 02012KT 7SM 10/09 A2988 RMK T01000090 IEM_DS3505
ZHHH,2001-02-23 06:00,ZHHH 230600Z AUTO 04004KT 7SM 10/09 A2991 RMK 60004 SLP130 T00990093 52002 IEM_DS3505
ZHHH,2001-02-23 07:00,ZHHH 230700Z AUTO 04016KT 7SM 07/05 A2991 RMK T00700050 IEM_DS3505
ZHHH,2001-02-23 08:00,ZHHH 230800Z AUTO 03017KT 7SM 06/04 A2994 RMK T00600040 IEM_DS3505
ZHHH,2001-02-23 09:00,ZHHH 230900Z AUTO 36006KT 7SM 06/04 A3000 RMK SLP157 T00590038 52026 IEM_DS3505
ZHHH,2001-02-23 10:00,ZHHH 231000Z AUTO 03019KT 7SM 04/02 A3000 RMK T00400020 IEM_DS3505
ZHHH,2001-02-23 11:00,ZHHH 231100Z AUTO 03016KT 7SM 04/01 A3006 RMK T00400010 IEM_DS3505
ZHHH,2001-02-23 12:00,ZHHH 231200Z AUTO 04006KT 7SM 04/02 A3009 RMK 60003 SLP198 T00420020 52041 IEM_DS3505
ZHHH,2001-02-23 13:00,ZHHH 231300Z AUTO 03014KT 7SM 03/01 A3012 RMK T00300010 IEM_DS3505
ZHHH,2001-02-23 14:00,ZHHH 231400Z AUTO 36010KT 7SM 03/01 A3018 RMK T00300010 IEM_DS3505
ZHHH,2001-02-23 15:00,ZHHH 231500Z AUTO 02004KT 7SM 04/02 A3021 RMK SLP229 T00360018 52031 IEM_DS3505
ZHHH,2001-02-23 16:00,ZHHH 231600Z AUTO 04016KT 7SM 02/00 A3018 RMK T00200000 IEM_DS3505
ZHHH,2001-02-23 17:00,ZHHH 231700Z AUTO 03008KT 7SM 02/00 A3021 RMK T00200000 IEM_DS3505
ZHHH,2001-02-23 18:00,ZHHH 231800Z AUTO 04004KT 9SM 02/00 A3024 RMK SLP245 T00240004 52016 IEM_DS3505
ZHHH,2001-02-23 19:00,ZHHH 231900Z AUTO 01010KT 7SM 02/00 A3027 RMK T00200000 IEM_DS3505
ZHHH,2001-02-23 20:00,ZHHH 232000Z AUTO 04014KT 7SM 02/00 A3027 RMK T00200000 IEM_DS3505
ZHHH,2001-02-23 21:00,ZHHH 232100Z AUTO 04006KT 9SM 02/M00 A3030 RMK 70026 SLP268 T00201001 52022 IEM_DS3505
ZHHH,2001-02-23 23:00,ZHHH 232300Z AUTO 03012KT 7SM 01/M02 A3039 RMK T00101020 IEM_DS3505
ZHHH,2001-02-24 00:00,ZHHH 240000Z AUTO 02004KT 11SM 01/M01 RMK 70005 SLP307 T00141013 52039 IEM_DS3505
ZHHH,2001-02-24 01:00,ZHHH 240100Z AUTO 04016KT 6SM 02/M01 A3045 RMK T00201010 IEM_DS3505
ZHHH,2001-02-24 02:00,ZHHH 240200Z AUTO 04012KT 6SM 03/M01 A3045 RMK T00301010 IEM_DS3505
ZHHH,2001-02-24 03:00,ZHHH 240300Z AUTO 04006KT 12SM 05/M00 A3045 RMK SLP321 T00461003 52014 IEM_DS3505
ZHHH,2001-02-24 04:00,ZHHH 240400Z AUTO 04014KT 6SM 06/01 A3047 RMK T00600010 IEM_DS3505
ZHHH,2001-02-24 05:00,ZHHH 240500Z AUTO 03016KT 6SM 06/M01 A3045 RMK T00601010 IEM_DS3505
ZHHH,2001-02-24 06:00,ZHHH 240600Z AUTO 04008KT 12SM 07/M01 A3042 RMK SLP304 T00711011 57017 IEM_DS3505
ZHHH,2001-02-24 07:00,ZHHH 240700Z AUTO 02014KT 6SM 07/00 A3042 RMK T00700000 IEM_DS3505
ZHHH,2001-02-24 08:00,ZHHH 240800Z AUTO 02010KT 6SM 08/M01 A3042 RMK T00801010 IEM_DS3505
ZHHH,2001-02-24 09:00,ZHHH 240900Z AUTO 02004KT 12SM 08/M00 RMK SLP301 T00761005 57003 IEM_DS3505
ZHHH,2001-02-24 10:00,ZHHH 241000Z AUTO 03012KT 6SM 06/M02 A3042 RMK T00601020 IEM_DS3505
ZHHH,2001-02-24 11:00,ZHHH 241100Z AUTO 03012KT 6SM 05/M01 A3042 RMK T00501010 IEM_DS3505
ZHHH,2001-02-24 12:00,ZHHH 241200Z AUTO 04006KT 9SM 05/M01 A3042 RMK SLP309 T00521010 52008 IEM_DS3505
ZHHH,2001-02-24 13:00,ZHHH 241300Z AUTO 03012KT 6SM 04/M01 A3045 RMK T00401010 IEM_DS3505
ZHHH,2001-02-24 14:00,ZHHH 241400Z AUTO 05014KT 6SM 03/M01 A3045 RMK T00301010 IEM_DS3505
ZHHH,2001-02-24 15:00,ZHHH 241500Z AUTO 04006KT 9SM 04/M02 A3045 RMK SLP318 T00401015 52009 IEM_DS3505
ZHHH,2001-02-24 16:00,ZHHH 241600Z AUTO 05008KT 6SM 03/M02 A3047 RMK T00301020 IEM_DS3505
ZHHH,2001-02-24 17:00,ZHHH 241700Z AUTO 06010KT 6SM 02/M02 A3045 RMK T00201020 IEM_DS3505
ZHHH,2001-02-24 18:00,ZHHH 241800Z AUTO 07004KT 9SM 03/M01 A3045 RMK SLP317 T00311012 57001 IEM_DS3505
ZHHH,2001-02-24 19:00,ZHHH 241900Z AUTO 07010KT 6SM 02/M02 A3045 RMK T00201020 IEM_DS3505
ZHHH,2001-02-24 20:00,ZHHH 242000Z AUTO 06010KT 6SM 02/M02 A3042 RMK T00201020 IEM_DS3505
ZHHH,2001-02-24 21:00,ZHHH 242100Z AUTO 07004KT 9SM 02/M01 A3042 RMK SLP307 T00231010 57010 IEM_DS3505
ZHHH,2001-02-24 22:00,ZHHH 242200Z AUTO 07008KT 6SM 01/M02 A3042 RMK T00101020 IEM_DS3505
ZHHH,2001-02-24 23:00,ZHHH 242300Z AUTO 06006KT 6SM 01/M02 A3045 RMK T00101020 IEM_DS3505
ZHHH,2001-02-25 00:00,ZHHH 250000Z AUTO 07002KT 11SM 02/M01 A3047 RMK SLP318 T00241012 52011 IEM_DS3505
ZHHH,2001-02-25 01:00,ZHHH 250100Z AUTO 06010KT 6SM 03/M01 A3045 RMK T00301010 IEM_DS3505
ZHHH,2001-02-25 02:00,ZHHH 250200Z AUTO 06008KT 6SM 04/M02 A3047 RMK T00401020 IEM_DS3505
ZHHH,2001-02-25 03:00,ZHHH 250300Z AUTO 07004KT 11SM 06/M00 A3047 RMK SLP318 T00561003 54000 IEM_DS3505
ZHHH,2001-02-25 04:00,ZHHH 250400Z AUTO 08006KT 6SM 06/M03 A3045 RMK T00601030 IEM_DS3505
ZHHH,2001-02-25 05:00,ZHHH 250500Z AUTO 08006KT 6SM 06/M04 A3045 RMK T00601040 IEM_DS3505
ZHHH,2001-02-25 06:00,ZHHH 250600Z AUTO 09002KT 11SM 07/M01 A3039 RMK SLP298 T00661013 57020 IEM_DS3505
ZHHH,2001-02-25 07:00,ZHHH 250700Z AUTO 13006KT 6SM 07/M03 A3036 RMK T00701030 IEM_DS3505
ZHHH,2001-02-25 08:00,ZHHH 250800Z AUTO 6SM 07/M03 A3033 RMK T00701030 IEM_DS3505
ZHHH,2001-02-25 09:00,ZHHH 250900Z AUTO 04002KT 9SM 07/M02 A3033 RMK SLP274 T00681023 57024 IEM_DS3505
ZHHH,2001-02-25 10:00,ZHHH 251000Z AUTO 6SM 07/M02 A3033 RMK T00701020 IEM_DS3505
ZHHH,2001-02-25 11:00,ZHHH 251100Z AUTO 6SM 07/M01 A3033 RMK T00701010 IEM_DS3505
ZHHH,2001-02-25 12:00,ZHHH 251200Z AUTO 00000KT 7SM 06/M02 A3033 RMK SLP276 T00651015 52002 IEM_DS3505
ZHHH,2001-02-25 13:00,ZHHH 251300Z AUTO 6SM 06/01 A3036 RMK T00600010 IEM_DS3505
ZHHH,2001-02-25 14:00,ZHHH 251400Z AUTO 00000KT 6SM 06/M01 A3036 RMK T00601010 IEM_DS3505
ZHHH,2001-02-25 15:00,ZHHH 251500Z AUTO 14002KT 7SM 06/00 A3036 RMK SLP281 T00640003 52006 IEM_DS3505
ZHHH,2001-02-25 16:00,ZHHH 251600Z AUTO 6SM 06/02 A3036 RMK T00600020 IEM_DS3505
ZHHH,2001-02-25 17:00,ZHHH 251700Z AUTO 6SM 05/02 A3036 RMK T00500020 IEM_DS3505
ZHHH,2001-02-25 18:00,ZHHH 251800Z AUTO 11002KT 7SM 04/01 A3036 RMK 60003 SLP284 T00430012 52003 IEM_DS3505
ZHHH,2001-02-25 19:00,ZHHH 251900Z AUTO 15010KT 7SM 04/01 A3033 RMK T00400010 IEM_DS3505
ZHHH,2001-02-25 20:00,ZHHH 252000Z AUTO 14008KT 7SM 04/02 A3033 RMK T00400020 IEM_DS3505
ZHHH,2001-02-25 21:00,ZHHH 252100Z AUTO 11002KT 7SM 04/01 A3030 RMK 70003 SLP265 T00420012 57019 IEM_DS3505
ZHHH,2001-02-25 22:00,ZHHH 252200Z AUTO 11006KT 6SM 04/02 A3030 RMK T00400020 IEM_DS3505
ZHHH,2001-02-25 23:00,ZHHH 252300Z AUTO 12010KT 6SM 04/02 A3030 RMK T00400020 IEM_DS3505
ZHHH,2001-02-26 00:00,ZHHH 260000Z AUTO 09006KT 9SM 05/02 A3030 RMK 60003 SLP263 T00460017 57002 IEM_DS3505
ZHHH,2001-02-26 01:00,ZHHH 260100Z AUTO 10010KT 7SM 04/02 A3030 RMK T00400020 IEM_DS3505
ZHHH,2001-02-26 02:00,ZHHH 260200Z AUTO 14010KT 7SM 05/03 A3033 RMK T00500030 IEM_DS3505
ZHHH,2001-02-26 03:00,ZHHH 260300Z AUTO 11006KT 11SM 07/02 A3030 RMK SLP259 T00670025 57004 IEM_DS3505
ZHHH,2001-02-26 04:00,ZHHH 260400Z AUTO 13010KT 7SM 07/03 A3027 RMK T00700030 IEM_DS3505
ZHHH,2001-02-26 05:00,ZHHH 260500Z AUTO 12008KT 7SM 07/03 A3024 RMK T00700030 IEM_DS3505
ZHHH,2001-02-26 06:00,ZHHH 260600Z AUTO 22002KT 6SM 07/04 A3024 RMK 60001 SLP245 T00740040 57014 IEM_DS3505
ZHHH,2001-02-26 07:00,ZHHH 260700Z AUTO 10004KT 7SM 06/05 A3024 RMK T00600050 IEM_DS3505
ZHHH,2001-02-26 08:00,ZHHH 260800Z AUTO 06004KT 7SM 06/05 A3021 RMK T00600050 IEM_DS3505
ZHHH,2001-02-26 09:00,ZHHH 260900Z AUTO 00000KT 6SM 06/05 A3021 RMK SLP233 T00650052 57012 IEM_DS3505
ZHHH,2001-02-26 10:00,ZHHH 261000Z AUTO 2SM 06/05 A3021 RMK T00600050 IEM_DS3505
ZHHH,2001-02-26 11:00,ZHHH 261100Z AUTO 1 1/2SM 06/05 A3024 RMK T00600050 IEM_DS3505
ZHHH,2001-02-26 12:00,ZHHH 261200Z AUTO 36002KT 6SM 06/06 A3024 RMK 60012 SLP243 T00590056 52010 IEM_DS3505
ZHHH,2001-02-26 14:00,ZHHH 261400Z AUTO 1 1/4SM 06/05 A3027 RMK T00600050 IEM_DS3505
ZHHH,2001-02-26 15:00,ZHHH 261500Z AUTO 34002KT 6SM 06/06 A3027 RMK SLP250 T00590057 52007 IEM_DS3505
ZHHH,2001-02-26 16:00,ZHHH 261600Z AUTO 34006KT 1 1/4SM 05/05 A3027 RMK T00500050 IEM_DS3505
ZHHH,2001-02-26 18:00,ZHHH 261800Z AUTO 34004KT 4SM 06/06 A3024 RMK 60003 SLP246 T00550055 57004 IEM_DS3505
ZHHH,2001-02-26 19:00,ZHHH 261900Z AUTO 01006KT 1SM 05/05 A3024 RMK T00500050 IEM_DS3505
ZHHH,2001-02-26 20:00,ZHHH 262000Z AUTO 35008KT 1SM 05/05 A3024 RMK T00500050 IEM_DS3505
ZHHH,2001-02-26 21:00,ZHHH 262100Z AUTO 34002KT 4SM 05/05 A3021 RMK 70017 SLP240 T00510046 57006 IEM_DS3505
ZHHH,2001-02-26 22:00,ZHHH 262200Z AUTO 35008KT 1SM 04/04 A3024 RMK T00400040 IEM_DS3505
ZHHH,2001-02-26 23:00,ZHHH 262300Z AUTO 34008KT 1 1/2SM 04/04 A3024 RMK T00400040 IEM_DS3505
ZHHH,2001-02-27 00:00,ZHHH 270000Z AUTO 32004KT 6SM 05/04 A3027 RMK 60008 SLP250 T00470043 52010 IEM_DS3505
ZHHH,2001-02-27 01:00,ZHHH 270100Z AUTO 35008KT 2SM 04/04 A3027 RMK T00400040 IEM_DS3505
ZHHH,2001-02-27 02:00,ZHHH 270200Z AUTO 34010KT 2 1/2SM 05/04 A3030 RMK T00500040 IEM_DS3505
ZHHH,2001-02-27 03:00,ZHHH 270300Z AUTO 27004KT 6SM 05/04 A3030 RMK SLP263 T00500043 52013 IEM_DS3505
ZHHH,2001-02-27 04:00,ZHHH 270400Z AUTO 34006KT 7SM 06/05 A3027 RMK T00600050 IEM_DS3505
ZHHH,2001-02-27 05:00,ZHHH 270500Z AUTO 32010KT 7SM 06/05 A3027 RMK T00600050 IEM_DS3505
ZHHH,2001-02-27 06:00,ZHHH 270600Z AUTO 29006KT 7SM 06/04 A3027 RMK 60001 SLP249 T00590043 57014 IEM_DS3505
ZHHH,2001-02-27 07:00,ZHHH 270700Z AUTO 30008KT 5SM 06/04 A3024 RMK T00600040 IEM_DS3505
ZHHH,2001-02-27 08:00,ZHHH 270800Z AUTO 31006KT 5SM 06/04 A3024 RMK T00600040 IEM_DS3505
ZHHH,2001-02-27 09:00,ZHHH 270900Z AUTO 25004KT 7SM 06/04 A3024 RMK SLP245 T00640040 57004 IEM_DS3505
ZHHH,2001-02-27 10:00,ZHHH 271000Z AUTO 24004KT 4SM 06/04 A3024 RMK T00600040 IEM_DS3505
ZHHH,2001-02-27 11:00,ZHHH 271100Z AUTO 24004KT 4SM 06/04 A3024 RMK T00600040 IEM_DS3505
ZHHH,2001-02-27 12:00,ZHHH 271200Z AUTO 00000KT 7SM 06/04 A3027 RMK SLP254 T00640043 52009 IEM_DS3505
ZHHH,2001-02-27 13:00,ZHHH 271300Z AUTO 6SM 06/04 A3030 RMK T00600040 IEM_DS3505
ZHHH,2001-02-27 14:00,ZHHH 271400Z AUTO 6SM 06/04 A3030 RMK T00600040 IEM_DS3505
ZHHH,2001-02-27 15:00,ZHHH 271500Z AUTO 27002KT 9SM 06/04 A3030 RMK SLP263 T00580045 52009 IEM_DS3505
ZHHH,2001-02-27 16:00,ZHHH 271600Z AUTO 6SM 06/05 A3030 RMK T00600050 IEM_DS3505
ZHHH,2001-02-27 17:00,ZHHH 271700Z AUTO 25004KT 4SM 05/04 A3027 RMK T00500040 IEM_DS3505
ZHHH,2001-02-27 18:00,ZHHH 271800Z AUTO 27004KT 8SM 05/04 A3027 RMK SLP260 T00510044 57003 IEM_DS3505
ZHHH,2001-02-27 19:00,ZHHH 271900Z AUTO 29006KT 2SM 05/05 A3027 RMK T00500050 IEM_DS3505
ZHHH,2001-02-27 20:00,ZHHH 272000Z AUTO 29006KT 2SM 05/05 A3027 RMK T00500050 IEM_DS3505
ZHHH,2001-02-27 21:00,ZHHH 272100Z AUTO 27004KT 9SM 06/04 A3027 RMK 70009 SLP249 T00550045 57011 IEM_DS3505
ZHHH,2001-02-27 22:00,ZHHH 272200Z AUTO 1 1/2SM 05/04 A3027 RMK T00500040 IEM_DS3505
ZHHH,2001-02-27 23:00,ZHHH 272300Z AUTO 1/2SM 04/04 A3027 RMK T00400040 IEM_DS3505
ZHHH,2001-02-28 00:00,ZHHH 280000Z AUTO 00000KT 7SM 05/04 A3030 RMK 70001 SLP264 T00470042 52015 IEM_DS3505
ZHHH,2001-02-28 01:00,ZHHH 280100Z AUTO 1/4SM 05/05 A3030 RMK T00500050 IEM_DS3505
ZHHH,2001-02-28 02:00,ZHHH 280200Z AUTO 1SM 06/06 A3030 RMK T00600060 IEM_DS3505
ZHHH,2001-02-28 03:00,ZHHH 280300Z AUTO 20002KT 9SM 09/06 A3030 RMK SLP263 T00910060 57001 IEM_DS3505
ZHHH,2001-02-28 04:00,ZHHH 280400Z AUTO 2SM 10/07 A3027 RMK T01000070 IEM_DS3505
ZHHH,2001-02-28 05:00,ZHHH 280500Z AUTO 27006KT 2 1/2SM 11/06 A3024 RMK T01100060 IEM_DS3505
ZHHH,2001-02-28 06:00,ZHHH 280600Z AUTO 25002KT 9SM 13/04 A3021 RMK SLP236 T01310045 57027 IEM_DS3505
ZHHH,2001-02-28 07:00,ZHHH 280700Z AUTO 13/05 A3018 RMK T01300050 IEM_DS3505
ZHHH,2001-02-28 08:00,ZHHH 280800Z AUTO 6SM 13/03 A3018 RMK T01300030 IEM_DS3505
ZHHH,2001-02-28 09:00,ZHHH 280900Z AUTO 25004KT 11SM 14/04 A3018 RMK SLP226 T01410041 57010 IEM_DS3505
ZHHH,2001-02-28 10:00,ZHHH 281000Z AUTO 26006KT 6SM 12/05 A3018 RMK T01200050 IEM_DS3505
ZHHH,2001-02-28 11:00,ZHHH 281100Z AUTO 22006KT 6SM 11/07 A3021 RMK T01100070 IEM_DS3505
ZHHH,2001-02-28 12:00,ZHHH 281200Z AUTO 00000KT 9SM 11/08 A3021 RMK SLP235 T01060077 52009 IEM_DS3505
ZHHH,2001-02-28 13:00,ZHHH 281300Z AUTO 21004KT 6SM 09/07 A3021 RMK T00900070 IEM_DS3505
ZHHH,2001-02-28 14:00,ZHHH 281400Z AUTO 20004KT 4SM 09/07 A3024 RMK T00900070 IEM_DS3505
ZHHH,2001-02-28 15:00,ZHHH 281500Z AUTO 00000KT 9SM 08/07 A3024 RMK SLP245 T00850067 52010 IEM_DS3505
ZHHH,2001-02-28 16:00,ZHHH 281600Z AUTO 23006KT 4SM 08/07 A3024 RMK T00800070 IEM_DS3505
ZHHH,2001-02-28 17:00,ZHHH 281700Z AUTO 21004KT 3SM 08/06 A3024 RMK T00800060 IEM_DS3505
ZHHH,2001-02-28 18:00,ZHHH 281800Z AUTO 27002KT 9SM 08/06 A3024 RMK SLP242 T00750061 57003 IEM_DS3505
ZHHH,2001-02-28 19:00,ZHHH 281900Z AUTO 23002KT 3SM 07/06 A3024 RMK T00700060 IEM_DS3505
ZHHH,2001-02-28 20:00,ZHHH 282000Z AUTO 21002KT 3SM 07/06 A3021 RMK T00700060 IEM_DS3505
ZHHH,2001-02-28 21:00,ZHHH 282100Z AUTO 00000KT 11SM 07/05 A3021 RMK SLP237 T00700054 57005 IEM_DS3505
ZHHH,2001-02-28 22:00,ZHHH 282200Z AUTO 1SM 06/05 A3021 RMK T00600050 IEM_DS3505
ZHHH,2001-02-28 23:00,ZHHH 282300Z AUTO 1SM 05/05 A3024 RMK T00500050 IEM_DS3505
ZHHH,2001-03-01 00:00,ZHHH 010000Z AUTO 00000KT 12SM 06/05 A3024 RMK SLP246 T00600050 52009 IEM_DS3505
ZHHH,2001-03-01 01:00,ZHHH 010100Z AUTO 1SM 08/07 A3027 RMK T00800070 IEM_DS3505
ZHHH,2001-03-01 02:00,ZHHH 010200Z AUTO 2 1/2SM 10/06 A3027 RMK T01000060 IEM_DS3505
ZHHH,2001-03-01 03:00,ZHHH 010300Z AUTO 20004KT 12SM 13/07 A3027 RMK SLP255 T01270068 52009 IEM_DS3505
ZHHH,2001-03-01 04:00,ZHHH 010400Z AUTO 24006KT 14/08 A3027 RMK T01400080 IEM_DS3505
ZHHH,2001-03-01 05:00,ZHHH 010500Z AUTO 22006KT 15/09 A3024 RMK T01500090 IEM_DS3505
ZHHH,2001-03-01 06:00,ZHHH 010600Z AUTO 18002KT 12SM 18/09 A3021 RMK SLP232 T01770093 57023 IEM_DS3505
ZHHH,2001-03-01 07:00,ZHHH 010700Z AUTO 6SM 18/08 A3018 RMK T01800080 IEM_DS3505
ZHHH,2001-03-01 08:00,ZHHH 010800Z AUTO 19006KT 6SM 18/08 A3018 RMK T01800080 IEM_DS3505
ZHHH,2001-03-01 09:00,ZHHH 010900Z AUTO 00000KT 12SM 19/07 A3018 RMK SLP219 T01890066 57012 IEM_DS3505
ZHHH,2001-03-01 10:00,ZHHH 011000Z AUTO 16004KT 6SM 17/08 A3018 RMK T01700080 IEM_DS3505
ZHHH,2001-03-01 11:00,ZHHH 011100Z AUTO 11006KT 4SM 15/10 A3018 RMK T01500100 IEM_DS3505
ZHHH,2001-03-01 12:00,ZHHH 011200Z AUTO 09002KT 11SM 15/09 A3018 RMK SLP226 T01480092 52006 IEM_DS3505
ZHHH,2001-03-01 13:00,ZHHH 011300Z AUTO 12006KT 2SM 13/10 A3021 RMK T01300100 IEM_DS3505
ZHHH,2001-03-01 14:00,ZHHH 011400Z AUTO 13004KT 2SM 13/10 A3021 RMK T01300100 IEM_DS3505
ZHHH,2001-03-01 15:00,ZHHH 011500Z AUTO 00000KT 11SM 11/09 A3021 RMK SLP232 T01070090 52006 IEM_DS3505
ZHHH,2001-03-01 16:00,ZHHH 011600Z AUTO 07008KT 1 1/2SM 11/09 A3018 RMK T01100090 IEM_DS3505
ZHHH,2001-03-01 17:00,ZHHH 011700Z AUTO 11008KT 1 1/2SM 10/09 A3018 RMK T01000090 IEM_DS3505
ZHHH,2001-03-01 18:00,ZHHH 011800Z AUTO 00000KT 7SM 11/08 A3018 RMK SLP227 T01060081 57004 IEM_DS3505
ZHHH,2001-03-01 19:00,ZHHH 011900Z AUTO 12002KT 2SM 10/08 A3018 RMK T01000080 IEM_DS3505
ZHHH,2001-03-01 20:00,ZHHH 012000Z AUTO 11004KT 1 1/2SM 10/08 A3015 RMK T01000080 IEM_DS3505
ZHHH,2001-03-01 21:00,ZHHH 012100Z AUTO 11002KT 7SM 10/08 A3015 RMK SLP211 T01020080 57016 IEM_DS3505
ZHHH,2001-03-01 22:00,ZHHH 012200Z AUTO 11008KT 1 1/2SM 09/07 A3015 RMK T00900070 IEM_DS3505
ZHHH,2001-03-01 23:00,ZHHH 012300Z AUTO 11006KT 1 1/2SM 09/07 A3015 RMK T00900070 IEM_DS3505
ZHHH,2001-03-02 00:00,ZHHH 020000Z AUTO 09002KT 7SM 10/07 A3015 RMK SLP217 T01050071 52005 IEM_DS3505
ZHHH,2001-03-02 01:00,ZHHH 020100Z AUTO 11008KT 2 1/2SM 11/08 A3018 RMK T01100080 IEM_DS3505
ZHHH,2001-03-02 02:00,ZHHH 020200Z AUTO 13008KT 3SM 12/08 A3018 RMK T01200080 IEM_DS3505
ZHHH,2001-03-02 03:00,ZHHH 020300Z AUTO 11006KT 11SM 16/04 A3015 RMK SLP210 T01620038 57006 IEM_DS3505
ZHHH,2001-03-02 04:00,ZHHH 020400Z AUTO 11008KT 16/08 A3012 RMK T01600080 IEM_DS3505
ZHHH,2001-03-02 05:00,ZHHH 020500Z AUTO 12006KT 16/08 A3009 RMK T01600080 IEM_DS3505
ZHHH,2001-03-02 06:00,ZHHH 020600Z AUTO 20002KT 11SM 17/04 A3006 RMK SLP181 T01720042 57029 IEM_DS3505
ZHHH,2001-03-02 07:00,ZHHH 020700Z AUTO 6SM 18/06 A3003 RMK T01800060 IEM_DS3505
ZHHH,2001-03-02 08:00,ZHHH 020800Z AUTO 21006KT 6SM 17/05 A3003 RMK T01700050 IEM_DS3505
ZHHH,2001-03-02 09:00,ZHHH 020900Z AUTO 16002KT 9SM 17/07 A3003 RMK SLP175 T01660073 57006 IEM_DS3505
ZHHH,2001-03-02 10:00,ZHHH 021000Z AUTO 20002KT 16/07 A3006 RMK T01600070 IEM_DS3505
ZHHH,2001-03-02 11:00,ZHHH 021100Z AUTO 15/08 A3006 RMK T01500080 IEM_DS3505
ZHHH,2001-03-02 12:00,ZHHH 021200Z AUTO 00000KT 9SM 15/08 A3009 RMK SLP191 T01490085 52016 IEM_DS3505
ZHHH,2001-03-02 13:00,ZHHH 021300Z AUTO 22004KT 4SM 14/09 A3009 RMK T01400090 IEM_DS3505
ZHHH,2001-03-02 14:00,ZHHH 021400Z AUTO 4SM 13/10 A3012 RMK T01300100 IEM_DS3505
ZHHH,2001-03-02 15:00,ZHHH 021500Z AUTO 27002KT 9SM 14/10 A3015 RMK SLP208 T01360095 52017 IEM_DS3505
ZHHH,2001-03-02 16:00,ZHHH 021600Z AUTO 30004KT 3SM 13/10 A3015 RMK T01300100 IEM_DS3505
ZHHH,2001-03-02 17:00,ZHHH 021700Z AUTO 32004KT 3SM 12/09 A3015 RMK T01200090 IEM_DS3505
ZHHH,2001-03-02 18:00,ZHHH 021800Z AUTO 29002KT 9SM 12/08 A3015 RMK SLP214 T01190079 52006 IEM_DS3505
ZHHH,2001-03-02 19:00,ZHHH 021900Z AUTO 30004KT 2 1/2SM 10/09 A3015 RMK T01000090 IEM_DS3505
ZHHH,2001-03-02 20:00,ZHHH 022000Z AUTO 00000KT 2SM 10/09 A3015 RMK T01000090 IEM_DS3505
ZHHH,2001-03-02 21:00,ZHHH 022100Z AUTO 29002KT 9SM 11/08 A3018 RMK SLP222 T01090080 52008 IEM_DS3505
ZHHH,2001-03-02 22:00,ZHHH 022200Z AUTO 34006KT 2 1/2SM 10/08 A3021 RMK T01000080 IEM_DS3505
ZHHH,2001-03-02 23:00,ZHHH 022300Z AUTO 4SM 10/07 A3024 RMK T01000070 IEM_DS3505
ZHHH,2001-03-03 00:00,ZHHH 030000Z AUTO 04004G21KT 9SM 11/08 A3027 RMK SLP255 T01090076 52032 IEM_DS3505
ZHHH,2001-03-03 01:00,ZHHH 030100Z AUTO 04016KT 3SM 12/M02 A3033 RMK T01201020 IEM_DS3505
ZHHH,2001-03-03 02:00,ZHHH 030200Z AUTO 04016KT 3SM 12/M03 A3033 RMK T01201030 IEM_DS3505
ZHHH,2001-03-03 03:00,ZHHH 030300Z AUTO 04006KT 9SM 13/M03 A3036 RMK SLP281 T01291031 52026 IEM_DS3505
ZHHH,2001-03-03 04:00,ZHHH 030400Z AUTO 03012KT 14/M04 A3036 RMK T01401040 IEM_DS3505
ZHHH,2001-03-03 05:00,ZHHH 030500Z AUTO 04012KT 2 1/2SM 14/M06 A3033 RMK T01401060 IEM_DS3505
ZHHH,2001-03-03 06:00,ZHHH 030600Z AUTO 02004KT 9SM 15/M04 A3030 RMK SLP258 T01461038 57023 IEM_DS3505
ZHHH,2001-03-03 07:00,ZHHH 030700Z AUTO 03006KT 3SM 14/M07 A3027 RMK T01401070 IEM_DS3505
ZHHH,2001-03-03 08:00,ZHHH 030800Z AUTO 3SM 14/M06 A3024 RMK T01401060 IEM_DS3505
ZHHH,2001-03-03 09:00,ZHHH 030900Z AUTO 04002KT 9SM 14/M04 A3024 RMK SLP239 T01401043 57019 IEM_DS3505
ZHHH,2001-03-03 10:00,ZHHH 031000Z AUTO 00000KT 2 1/2SM 13/M04 A3024 RMK T01301040 IEM_DS3505
ZHHH,2001-03-03 11:00,ZHHH 031100Z AUTO 11/00 A3024 RMK T01100000 IEM_DS3505
ZHHH,2001-03-03 12:00,ZHHH 031200Z AUTO 00000KT 9SM 12/M02 A3024 RMK SLP245 T01201017 52006 IEM_DS3505
ZHHH,2001-03-03 13:00,ZHHH 031300Z AUTO 19004KT 11/00 A3027 RMK T01100000 IEM_DS3505
ZHHH,2001-03-03 14:00,ZHHH 031400Z AUTO 22004KT 3SM 10/00 A3027 RMK T01000000 IEM_DS3505
ZHHH,2001-03-03 15:00,ZHHH 031500Z AUTO 00000KT 9SM 10/02 A3027 RMK SLP259 T01010016 52014 IEM_DS3505
ZHHH,2001-03-03 16:00,ZHHH 031600Z AUTO 22004KT 6SM 09/03 A3030 RMK T00900030 IEM_DS3505
ZHHH,2001-03-03 17:00,ZHHH 031700Z AUTO 6SM 09/03 A3027 RMK T00900030 IEM_DS3505
ZHHH,2001-03-03 18:00,ZHHH 031800Z AUTO 27004KT 7SM 09/05 A3027 RMK SLP256 T00910054 57003 IEM_DS3505
ZHHH,2001-03-03 19:00,ZHHH 031900Z AUTO 6SM 08/04 A3027 RMK T00800040 IEM_DS3505
ZHHH,2001-03-03 20:00,ZHHH 032000Z AUTO 04006KT 6SM 08/05 A3030 RMK T00800050 IEM_DS3505
ZHHH,2001-03-03 21:00,ZHHH 032100Z AUTO 00000KT 7SM 08/06 A3030 RMK SLP260 T00810064 52004 IEM_DS3505
ZHHH,2001-03-03 22:00,ZHHH 032200Z AUTO 6SM 08/02 A3030 RMK T00800020 IEM_DS3505
ZHHH,2001-03-03 23:00,ZHHH 032300Z AUTO 11002KT 3SM 07/04 A3030 RMK T00700040 IEM_DS3505
ZHHH,2001-03-04 00:00,ZHHH 040000Z AUTO 09002KT 7SM 08/06 A3030 RMK SLP268 T00830065 52008 IEM_DS3505
ZHHH,2001-03-04 01:00,ZHHH 040100Z AUTO 11006KT 2 1/2SM 09/03 A3033 RMK T00900030 IEM_DS3505
ZHHH,2001-03-04 02:00,ZHHH 040200Z AUTO 11008KT 3SM 11/M05 A3030 RMK T01101050 IEM_DS3505
ZHHH,2001-03-04 03:00,ZHHH 040300Z AUTO 07004KT 7SM 12/M00 A3030 RMK SLP265 T01241002 57003 IEM_DS3505
ZHHH,2001-03-04 04:00,ZHHH 040400Z AUTO 11008KT 3SM 13/M05 A3027 RMK T01301050 IEM_DS3505
ZHHH,2001-03-04 05:00,ZHHH 040500Z AUTO 13006KT 14/M05 A3024 RMK T01401050 IEM_DS3505
ZHHH,2001-03-04 06:00,ZHHH 040600Z AUTO 20004KT 11SM 16/M02 A3021 RMK SLP228 T01621023 57037 IEM_DS3505
ZHHH,2001-03-04 07:00,ZHHH 040700Z AUTO 12008KT 3SM 15/M03 A3018 RMK T01501030 IEM_DS3505
ZHHH,2001-03-04 08:00,ZHHH 040800Z AUTO 15006KT 3SM 15/M04 A3015 RMK T01501040 IEM_DS3505
ZHHH,2001-03-04 09:00,ZHHH 040900Z AUTO 11002KT 9SM 16/M03 A3012 RMK SLP196 T01611032 57032 IEM_DS3505
ZHHH,2001-03-04 10:00,ZHHH 041000Z AUTO 13006KT 3SM 14/02 A3009 RMK T01400020 IEM_DS3505
ZHHH,2001-03-04 11:00,ZHHH 041100Z AUTO 12006KT 12/02 A3009 RMK T01200020 IEM_DS3505
ZHHH,2001-03-04 12:00,ZHHH 041200Z AUTO 11004KT 9SM 13/M01 A3009 RMK SLP187 T01341007 57009 IEM_DS3505
ZHHH,2001-03-04 13:00,ZHHH 041300Z AUTO 11010KT 6SM 11/03 A3009 RMK T01100030 IEM_DS3505
ZHHH,2001-03-04 14:00,ZHHH 041400Z AUTO 12010KT 6SM 11/03 A3009 RMK T01100030 IEM_DS3505
ZHHH,2001-03-04 15:00,ZHHH 041500Z AUTO 09002KT 9SM 14/M02 A3009 RMK SLP189 T01351025 52003 IEM_DS3505
ZHHH,2001-03-04 16:00,ZHHH 041600Z AUTO 11008KT 6SM 11/01 A3009 RMK T01100010 IEM_DS3505
ZHHH,2001-03-04 17:00,ZHHH 041700Z AUTO 13010KT 6SM 12/01 A3006 RMK T01200010 IEM_DS3505
ZHHH,2001-03-04 18:00,ZHHH 041800Z AUTO 11004KT 7SM 13/M01 A3003 RMK SLP176 T01321013 57013 IEM_DS3505
ZHHH,2001-03-04 19:00,ZHHH 041900Z AUTO 14008KT 6SM 11/05 A3003 RMK T01100050 IEM_DS3505
ZHHH,2001-03-04 20:00,ZHHH 042000Z AUTO 14010KT 6SM 11/05 A3000 RMK T01100050 IEM_DS3505
ZHHH,2001-03-04 21:00,ZHHH 042100Z AUTO 14004KT 7SM 12/03 A3000 RMK SLP162 T01230031 57014 IEM_DS3505
ZHHH,2001-03-04 22:00,ZHHH 042200Z AUTO 13008KT 6SM 11/05 A3000 RMK T01100050 IEM_DS3505
ZHHH,2001-03-04 23:00,ZHHH 042300Z AUTO 12006KT 3SM 10/05 A3000 RMK T01000050 IEM_DS3505
ZHHH,2001-03-05 00:00,ZHHH 050000Z AUTO 14002KT 9SM 12/04 A3003 RMK SLP167 T01250035 52005 IEM_DS3505
ZHHH,2001-03-05 01:00,ZHHH 050100Z AUTO 12006KT 11/04 A3003 RMK T01100040 IEM_DS3505
ZHHH,2001-03-05 02:00,ZHHH 050200Z AUTO 13008KT 5SM 12/04 A3003 RMK T01200040 IEM_DS3505
ZHHH,2001-03-05 03:00,ZHHH 050300Z AUTO 11002KT 6SM 13/04 A3000 RMK SLP167 T01330044 54000 IEM_DS3505
ZHHH,2001-03-05 04:00,ZHHH 050400Z AUTO 14004KT 4SM 13/05 A3003 RMK T01300050 IEM_DS3505
ZHHH,2001-03-05 05:00,ZHHH 050500Z AUTO 4SM 13/05 A3000 RMK T01300050 IEM_DS3505
ZHHH,2001-03-05 06:00,ZHHH 050600Z AUTO 09002KT 8SM 13/05 A2997 RMK 60003 SLP151 T01290054 57016 IEM_DS3505
ZHHH,2001-03-05 07:00,ZHHH 050700Z AUTO 12004KT 4SM 12/07 A2997 RMK T01200070 IEM_DS3505
ZHHH,2001-03-05 08:00,ZHHH 050800Z AUTO 12006KT 7SM 13/07 A2994 RMK T01300070 IEM_DS3505
ZHHH,2001-03-05 09:00,ZHHH 050900Z AUTO 11002KT 8SM 14/05 A2994 RMK SLP142 T01370051 57009 IEM_DS3505
ZHHH,2001-03-05 10:00,ZHHH 051000Z AUTO 3SM 12/07 A2994 RMK T01200070 IEM_DS3505
ZHHH,2001-03-05 11:00,ZHHH 051100Z AUTO 14008KT 4SM 12/07 A2997 RMK T01200070 IEM_DS3505
ZHHH,2001-03-05 12:00,ZHHH 051200Z AUTO 11002KT 7SM 12/05 A3000 RMK 60003 SLP159 T01250054 52017 IEM_DS3505
ZHHH,2001-03-05 13:00,ZHHH 051300Z AUTO 14006KT 4SM 11/07 A3000 RMK T01100070 IEM_DS3505
ZHHH,2001-03-05 14:00,ZHHH 051400Z AUTO 3SM 10/07 A3000 RMK T01000070 IEM_DS3505
ZHHH,2001-03-05 15:00,ZHHH 051500Z AUTO 14004KT 7SM 11/06 A3000 RMK SLP160 T01120059 52001 IEM_DS3505
ZHHH,2001-03-05 16:00,ZHHH 051600Z AUTO 07002KT 2 1/2SM 09/06 A3000 RMK T00900060 IEM_DS3505
ZHHH,2001-03-05 17:00,ZHHH 051700Z AUTO 12006KT 2 1/2SM 09/07 A2997 RMK T00900070 IEM_DS3505
ZHHH,2001-03-05 18:00,ZHHH 051800Z AUTO 18002KT 7SM 11/06 A2997 RMK SLP154 T01060055 57006 IEM_DS3505
ZHHH,2001-03-05 19:00,ZHHH 051900Z AUTO 1 1/2SM 08/06 A3000 RMK T00800060 IEM_DS3505
ZHHH,2001-03-05 20:00,ZHHH 052000Z AUTO 09004KT 1 1/2SM 08/06 A2997 RMK T00800060 IEM_DS3505
ZHHH,2001-03-05 21:00,ZHHH 052100Z AUTO 02002KT 7SM 09/07 A2997 RMK 70003 SLP148 T00890067 57006 IEM_DS3505
ZHHH,2001-03-05 23:00,ZHHH 052300Z AUTO 09008KT 2 1/2SM 08/06 A2997 RMK T00800060 IEM_DS3505
ZHHH,2001-03-06 00:00,ZHHH 060000Z AUTO 07004KT 9SM 10/07 A3000 RMK 70003 SLP165 T00950069 52016 IEM_DS3505
ZHHH,2001-03-06 01:00,ZHHH 060100Z AUTO 2 1/2SM 10/07 A3003 RMK T01000070 IEM_DS3505
ZHHH,2001-03-06 02:00,ZHHH 060200Z AUTO 10008KT 4SM 11/07 A3003 RMK T01100070 IEM_DS3505
ZHHH,2001-03-06 03:00,ZHHH 060300Z AUTO 00000KT 9SM 14/07 A3006 RMK SLP179 T01370072 52015 IEM_DS3505
ZHHH,2001-03-06 04:00,ZHHH 060400Z AUTO 04008KT 6SM 14/08 A3006 RMK T01400080 IEM_DS3505
ZHHH,2001-03-06 05:00,ZHHH 060500Z AUTO 01006KT 6SM 16/07 A3006 RMK T01600070 IEM_DS3505
ZHHH,2001-03-06 06:00,ZHHH 060600Z AUTO 36002KT 9SM 15/08 A3003 RMK SLP170 T01520083 57009 IEM_DS3505
ZHHH,2001-03-06 07:00,ZHHH 060700Z AUTO 03006KT 6SM 16/07 A3003 RMK T01600070 IEM_DS3505
ZHHH,2001-03-06 08:00,ZHHH 060800Z AUTO 04010KT 6SM 15/08 A3003 RMK T01500080 IEM_DS3505
ZHHH,2001-03-06 09:00,ZHHH 060900Z AUTO 04006KT 6SM 15/07 A3006 RMK SLP186 T01460070 52015 IEM_DS3505
ZHHH,2001-03-06 10:00,ZHHH 061000Z AUTO 03008KT 2 1/2SM 14/07 A3009 RMK T01400070 IEM_DS3505
ZHHH,2001-03-06 11:00,ZHHH 061100Z AUTO 04010KT 3SM 14/04 A3012 RMK T01400040 IEM_DS3505
ZHHH,2001-03-06 12:00,ZHHH 061200Z AUTO 04004KT 9SM 14/01 A3015 RMK 60003 SLP218 T01370007 52032 IEM_DS3505
ZHHH,2001-03-06 13:00,ZHHH 061300Z AUTO 04010KT 13/01 A3018 RMK T01300010 IEM_DS3505
ZHHH,2001-03-06 14:00,ZHHH 061400Z AUTO 05016KT 13/M01 A3021 RMK T01301010 IEM_DS3505
ZHHH,2001-03-06 15:00,ZHHH 061500Z AUTO 07006KT 9SM 12/M02 A3024 RMK SLP238 T01231025 52020 IEM_DS3505
ZHHH,2001-03-06 16:00,ZHHH 061600Z AUTO 04012KT 12/M04 A3024 RMK T01201040 IEM_DS3505
ZHHH,2001-03-06 17:00,ZHHH 061700Z AUTO 04012KT 11/M04 A3021 RMK T01101040 IEM_DS3505
ZHHH,2001-03-06 18:00,ZHHH 061800Z AUTO 02002KT 9SM 11/M04 A3027 RMK SLP255 T01141037 52017 IEM_DS3505
ZHHH,2001-03-06 19:00,ZHHH 061900Z AUTO 04008KT 6SM 10/M03 A3030 RMK T01001030 IEM_DS3505
ZHHH,2001-03-06 20:00,ZHHH 062000Z AUTO 02008KT 6SM 09/M02 A3030 RMK T00901020 IEM_DS3505
ZHHH,2001-03-06 21:00,ZHHH 062100Z AUTO 04004KT 9SM 10/M04 A3030 RMK 70003 SLP255 T00971035 54000 IEM_DS3505
ZHHH,2001-03-06 23:00,ZHHH 062300Z AUTO 04010KT 6SM 07/M03 A3033 RMK T00701030 IEM_DS3505
ZHHH,2001-03-07 00:00,ZHHH 070000Z AUTO 02006KT 11SM 07/M04 A3039 RMK 70003 SLP290 T00711040 52035 IEM_DS3505
ZHHH,2001-03-07 01:00,ZHHH 070100Z AUTO 04012KT 6SM 07/M06 A3039 RMK T00701060 IEM_DS3505
ZHHH,2001-03-07 02:00,ZHHH 070200Z AUTO 04014KT 6SM 08/M07 A3039 RMK T00801070 IEM_DS3505
ZHHH,2001-03-07 03:00,ZHHH 070300Z AUTO 05016KT 6SM 09/M09 A3039 RMK T00901090 IEM_DS3505
ZHHH,2001-03-07 04:00,ZHHH 070400Z AUTO 04012KT 6SM 10/M10 A3039 RMK T01001100 IEM_DS3505
ZHHH,2001-03-07 05:00,ZHHH 070500Z AUTO 02012KT 6SM 11/M09 A3036 RMK T01101090 IEM_DS3505
ZHHH,2001-03-07 06:00,ZHHH 070600Z AUTO 02006KT 12SM 12/M07 A3036 RMK SLP279 T01191068 57016 IEM_DS3505
ZHHH,2001-03-07 07:00,ZHHH 070700Z AUTO 03012KT 6SM 12/M08 A3033 RMK T01201080 IEM_DS3505
ZHHH,2001-03-07 08:00,ZHHH 070800Z AUTO 03012KT 6SM 12/M06 A3033 RMK T01201060 IEM_DS3505
ZHHH,2001-03-07 09:00,ZHHH 070900Z AUTO 02004KT 11SM 11/M06 A3033 RMK SLP273 T01141065 57006 IEM_DS3505
ZHHH,2001-03-07 10:00,ZHHH 071000Z AUTO 02010KT 6SM 10/M06 A3033 RMK T01001060 IEM_DS3505
ZHHH,2001-03-07 11:00,ZHHH 071100Z AUTO 02010KT 6SM 09/M05 A3036 RMK T00901050 IEM_DS3505
ZHHH,2001-03-07 12:00,ZHHH 071200Z AUTO 02004KT 11SM 09/M04 A3039 RMK SLP293 T00911044 52020 IEM_DS3505
ZHHH,2001-03-07 13:00,ZHHH 071300Z AUTO 01006KT 6SM 08/M05 A3042 RMK T00801050 IEM_DS3505
ZHHH,2001-03-07 14:00,ZHHH 071400Z AUTO 6SM 08/M04 A3042 RMK T00801040 IEM_DS3505
ZHHH,2001-03-07 15:00,ZHHH 071500Z AUTO 02002KT 9SM 08/M04 A3045 RMK SLP315 T00811045 52022 IEM_DS3505
ZHHH,2001-03-07 16:00,ZHHH 071600Z AUTO 6SM 07/M04 A3045 RMK T00701040 IEM_DS3505
ZHHH,2001-03-07 17:00,ZHHH 071700Z AUTO 04002KT 6SM 07/M04 A3045 RMK T00701040 IEM_DS3505
ZHHH,2001-03-07 18:00,ZHHH 071800Z AUTO 00000KT 9SM 06/M01 A3045 RMK SLP312 T00611006 57003 IEM_DS3505
ZHHH,2001-03-07 19:00,ZHHH 071900Z AUTO 01004KT 6SM 05/M01 A3045 RMK T00501010 IEM_DS3505
ZHHH,2001-03-07 20:00,ZHHH 072000Z AUTO 35004KT 6SM 04/M01 A3045 RMK T00401010 IEM_DS3505
ZHHH,2001-03-07 21:00,ZHHH 072100Z AUTO 02002KT 9SM 05/M03 A3045 RMK SLP314 T00491028 52002 IEM_DS3505
ZHHH,2001-03-07 22:00,ZHHH 072200Z AUTO 00000KT 6SM 04/M02 A3047 RMK T00401020 IEM_DS3505
ZHHH,2001-03-07 23:00,ZHHH 072300Z AUTO 03004KT 6SM 04/M02 A3050 RMK T00401020 IEM_DS3505
ZHHH,2001-03-08 00:00,ZHHH 080000Z AUTO 07004KT 12SM 06/M06 A3053 RMK SLP347 T00561056 52033 IEM_DS3505
ZHHH,2001-03-08 01:00,ZHHH 080100Z AUTO 04016KT 6SM 06/M13 A3056 RMK T00601130 IEM_DS3505
ZHHH,2001-03-08 02:00,ZHHH 080200Z AUTO 04016KT 6SM 07/M14 A3056 RMK T00701140 IEM_DS3505
ZHHH,2001-03-08 03:00,ZHHH 080300Z AUTO 04008KT 12SM 09/M12 A3056 RMK SLP358 T00871119 52011 IEM_DS3505
ZHHH,2001-03-08 04:00,ZHHH 080400Z AUTO 06014G23KT 6SM 09/M12 A3056 RMK T00901120 IEM_DS3505
ZHHH,2001-03-08 05:00,ZHHH 080500Z AUTO 05006KT 6SM 10/M12 A3050 RMK T01001120 IEM_DS3505
ZHHH,2001-03-08 06:00,ZHHH 080600Z AUTO 36002KT 12SM 11/M09 A3047 RMK SLP323 T01121093 57035 IEM_DS3505
ZHHH,2001-03-08 07:00,ZHHH 080700Z AUTO 35010KT 6SM 12/M13 A3045 RMK T01201130 IEM_DS3505
ZHHH,2001-03-08 08:00,ZHHH 080800Z AUTO 33008KT 6SM 11/M13 A3042 RMK T01101130 IEM_DS3505
ZHHH,2001-03-08 09:00,ZHHH 080900Z AUTO 09002KT 12SM 11/M11 A3042 RMK SLP299 T01101110 57024 IEM_DS3505
ZHHH,2001-03-08 10:00,ZHHH 081000Z AUTO 6SM 10/M12 A3039 RMK T01001120 IEM_DS3505
ZHHH,2001-03-08 11:00,ZHHH 081100Z AUTO 00000KT 6SM 09/M12 A3039 RMK T00901120 IEM_DS3505
ZHHH,2001-03-08 12:00,ZHHH 081200Z AUTO 27002KT 11SM 10/M10 A3039 RMK SLP297 T00951104 57002 IEM_DS3505
ZHHH,2001-03-08 13:00,ZHHH 081300Z AUTO 00000KT 6SM 08/M03 A3042 RMK T00801030 IEM_DS3505
ZHHH,2001-03-08 14:00,ZHHH 081400Z AUTO 14002KT 6SM 08/M03 A3042 RMK T00801030 IEM_DS3505
ZHHH,2001-03-08 15:00,ZHHH 081500Z AUTO 20002KT 11SM 07/M04 A3042 RMK SLP303 T00711038 52006 IEM_DS3505
ZHHH,2001-03-08 16:00,ZHHH 081600Z AUTO 18004KT 6SM 07/M03 A3042 RMK T00701030 IEM_DS3505
ZHHH,2001-03-08 17:00,ZHHH 081700Z AUTO 21002KT 6SM 06/M02 A3039 RMK T00601020 IEM_DS3505
ZHHH,2001-03-08 18:00,ZHHH 081800Z AUTO 16002KT 11SM 06/M00 A3039 RMK SLP290 T00621003 57013 IEM_DS3505
ZHHH,2001-03-08 19:00,ZHHH 081900Z AUTO 14004KT 6SM 05/01 A3036 RMK T00500010 IEM_DS3505
ZHHH,2001-03-08 20:00,ZHHH 082000Z AUTO 12002KT 6SM 05/M01 A3033 RMK T00501010 IEM_DS3505
ZHHH,2001-03-08 21:00,ZHHH 082100Z AUTO 14002KT 11SM 05/M01 A3030 RMK SLP268 T00521008 57022 IEM_DS3505
ZHHH,2001-03-08 22:00,ZHHH 082200Z AUTO 11006KT 6SM 03/01 A3033 RMK T00300010 IEM_DS3505
ZHHH,2001-03-08 23:00,ZHHH 082300Z AUTO 11006KT 3SM 03/01 A3033 RMK T00300010 IEM_DS3505
ZHHH,2001-03-09 00:00,ZHHH 090000Z AUTO 11002KT 14SM 07/M02 A3033 RMK SLP273 T00681019 52005 IEM_DS3505
ZHHH,2001-03-09 01:00,ZHHH 090100Z AUTO 13008KT 3SM 06/02 A3033 RMK T00600020 IEM_DS3505
ZHHH,2001-03-09 02:00,ZHHH 090200Z AUTO 15006KT 11SM 08/02 A3033 RMK T00800020 IEM_DS3505
ZHHH,2001-03-09 03:00,ZHHH 090300Z AUTO 14004KT 11SM 10/M02 A3033 RMK SLP270 T00981025 57003 IEM_DS3505
ZHHH,2001-03-09 04:00,ZHHH 090400Z AUTO 13008KT 6SM 10/M02 A3030 RMK T01001020 IEM_DS3505
ZHHH,2001-03-09 05:00,ZHHH 090500Z AUTO 14006KT 6SM 12/M01 A3027 RMK T01201010 IEM_DS3505
ZHHH,2001-03-09 06:00,ZHHH 090600Z AUTO 22004KT 12SM 13/M03 A3024 RMK SLP241 T01281028 57029 IEM_DS3505
ZHHH,2001-03-09 07:00,ZHHH 090700Z AUTO 21006KT 6SM 13/M05 A3018 RMK T01301050 IEM_DS3505
ZHHH,2001-03-09 08:00,ZHHH 090800Z AUTO 20006KT 6SM 12/M02 A3015 RMK T01201020 IEM_DS3505
ZHHH,2001-03-09 09:00,ZHHH 090900Z AUTO 20006KT 6SM 12/M01 A3015 RMK T01201010 IEM_DS3505
ZHHH,2001-03-09 10:00,ZHHH 091000Z AUTO 22006KT 6SM 11/M02 A3018 RMK T01101020 IEM_DS3505
ZHHH,2001-03-09 11:00,ZHHH 091100Z AUTO 20006KT 6SM 10/00 A3015 RMK T01000000 IEM_DS3505
ZHHH,2001-03-09 12:00,ZHHH 091200Z AUTO 20002KT 11SM 10/M01 A3018 RMK SLP222 T01031009 52005 IEM_DS3505
ZHHH,2001-03-09 13:00,ZHHH 091300Z AUTO 21004KT 6SM 10/00 A3018 RMK T01000000 IEM_DS3505
ZHHH,2001-03-09 14:00,ZHHH 091400Z AUTO 24002KT 6SM 09/02 A3021 RMK T00900020 IEM_DS3505
ZHHH,2001-03-09 15:00,ZHHH 091500Z AUTO 00000KT 11SM 09/03 A3018 RMK SLP226 T00910026 52004 IEM_DS3505
ZHHH,2001-03-09 16:00,ZHHH 091600Z AUTO 15002KT 6SM 09/03 A3018 RMK T00900030 IEM_DS3505
ZHHH,2001-03-09 17:00,ZHHH 091700Z AUTO 6SM 08/03 A3018 RMK T00800030 IEM_DS3505
ZHHH,2001-03-09 18:00,ZHHH 091800Z AUTO 00000KT 9SM 08/03 A3018 RMK SLP218 T00760030 57008 IEM_DS3505
ZHHH,2001-03-09 19:00,ZHHH 091900Z AUTO 14002KT 6SM 07/03 A3015 RMK T00700030 IEM_DS3505
ZHHH,2001-03-09 20:00,ZHHH 092000Z AUTO 10002KT 6SM 07/04 A3015 RMK T00700040 IEM_DS3505
ZHHH,2001-03-09 21:00,ZHHH 092100Z AUTO 00000KT 9SM 07/04 A3015 RMK SLP210 T00670037 57008 IEM_DS3505
ZHHH,2001-03-09 22:00,ZHHH 092200Z AUTO 11004KT 6SM 06/04 A3015 RMK T00600040 IEM_DS3505
ZHHH,2001-03-09 23:00,ZHHH 092300Z AUTO 11004KT 4SM 06/04 A3018 RMK T00600040 IEM_DS3505
ZHHH,2001-03-10 00:00,ZHHH 100000Z AUTO 00000KT 7SM 08/04 A3018 RMK SLP227 T00800039 52017 IEM_DS3505
ZHHH,2001-03-10 01:00,ZHHH 100100Z AUTO 1 1/2SM 09/06 A3021 RMK T00900060 IEM_DS3505
ZHHH,2001-03-10 02:00,ZHHH 100200Z AUTO 11006KT 11SM 12/02 A3018 RMK T01200020 IEM_DS3505
ZHHH,2001-03-10 03:00,ZHHH 100300Z AUTO 27004KT 11SM 15/01 A3018 RMK SLP230 T01490013 52003 IEM_DS3505
ZHHH,2001-03-10 04:00,ZHHH 100400Z AUTO 6SM 15/03 A3018 RMK T01500030 IEM_DS3505
ZHHH,2001-03-10 05:00,ZHHH 100500Z AUTO 6SM 16/04 A3015 RMK T01600040 IEM_DS3505
ZHHH,2001-03-10 06:00,ZHHH 100600Z AUTO 16004KT 9SM 17/03 A3015 RMK SLP206 T01670033 57024 IEM_DS3505
ZHHH,2001-03-10 07:00,ZHHH 100700Z AUTO 6SM 17/05 A3012 RMK T01700050 IEM_DS3505
ZHHH,2001-03-10 08:00,ZHHH 100800Z AUTO 6SM 16/05 A3012 RMK T01600050 IEM_DS3505
ZHHH,2001-03-10 09:00,ZHHH 100900Z AUTO 25002KT 11SM 16/06 A3012 RMK T01600060 IEM_DS3505
ZHHH,2001-03-10 10:00,ZHHH 101000Z AUTO 6SM 15/06 A3012 RMK T01500060 IEM_DS3505
ZHHH,2001-03-10 11:00,ZHHH 101100Z AUTO 33002KT 6SM 15/07 A3012 RMK T01500070 IEM_DS3505
ZHHH,2001-03-10 12:00,ZHHH 101200Z AUTO 34002KT 9SM 15/06 A3015 RMK SLP211 T01460064 52007 IEM_DS3505
ZHHH,2001-03-10 13:00,ZHHH 101300Z AUTO 01002KT 6SM 14/07 A3018 RMK T01400070 IEM_DS3505
ZHHH,2001-03-10 14:00,ZHHH 101400Z AUTO 01004KT 6SM 13/07 A3018 RMK T01300070 IEM_DS3505
ZHHH,2001-03-10 15:00,ZHHH 101500Z AUTO 00000KT 9SM 13/06 A3021 RMK SLP227 T01340065 52017 IEM_DS3505
ZHHH,2001-03-10 16:00,ZHHH 101600Z AUTO 6SM 12/08 A3021 RMK T01200080 IEM_DS3505
ZHHH,2001-03-10 17:00,ZHHH 101700Z AUTO 35002KT 6SM 11/08 A3021 RMK T01100080 IEM_DS3505
ZHHH,2001-03-10 18:00,ZHHH 101800Z AUTO 00000KT 9SM 12/07 A3018 RMK SLP228 T01250073 52001 IEM_DS3505
ZHHH,2001-03-10 19:00,ZHHH 101900Z AUTO 00000KT 6SM 10/07 A3018 RMK T01000070 IEM_DS3505
ZHHH,2001-03-10 20:00,ZHHH 102000Z AUTO 6SM 10/08 A3018 RMK T01000080 IEM_DS3505
ZHHH,2001-03-10 21:00,ZHHH 102100Z AUTO 27002KT 9SM 10/07 A3018 RMK SLP221 T01050073 57007 IEM_DS3505
ZHHH,2001-03-10 22:00,ZHHH 102200Z AUTO 22002KT 1 1/2SM 09/07 A3018 RMK T00900070 IEM_DS3505
ZHHH,2001-03-10 23:00,ZHHH 102300Z AUTO 30002KT 1SM 08/08 A3021 RMK T00800080 IEM_DS3505
ZHHH,2001-03-11 00:00,ZHHH 110000Z AUTO 34004KT 7SM 09/07 A3024 RMK SLP243 T00920072 52021 IEM_DS3505
ZHHH,2001-03-11 01:00,ZHHH 110100Z AUTO 1 1/4SM 10/07 A3027 RMK T01000070 IEM_DS3505
ZHHH,2001-03-11 02:00,ZHHH 110200Z AUTO 1 1/2SM 12/08 A3027 RMK T01200080 IEM_DS3505
ZHHH,2001-03-11 03:00,ZHHH 110300Z AUTO 36002KT 9SM 14/07 A3027 RMK SLP256 T01440069 52013 IEM_DS3505
ZHHH,2001-03-11 04:00,ZHHH 110400Z AUTO 3SM 15/09 A3027 RMK T01500090 IEM_DS3505
ZHHH,2001-03-11 05:00,ZHHH 110500Z AUTO 3SM 17/09 A3024 RMK T01700090 IEM_DS3505
ZHHH,2001-03-11 06:00,ZHHH 110600Z AUTO 27004KT 9SM 18/08 A3021 RMK SLP231 T01810078 57024 IEM_DS3505
ZHHH,2001-03-11 07:00,ZHHH 110700Z AUTO 31006KT 6SM 19/07 A3018 RMK T01900070 IEM_DS3505
ZHHH,2001-03-11 09:00,ZHHH 110900Z AUTO 02004KT 9SM 19/06 A3015 RMK SLP216 T01900059 57015 IEM_DS3505
ZHHH,2001-03-11 10:00,ZHHH 111000Z AUTO 35002KT 3SM 18/08 A3015 RMK T01800080 IEM_DS3505
ZHHH,2001-03-11 11:00,ZHHH 111100Z AUTO 25002KT 2 1/2SM 16/09 A3018 RMK T01600090 IEM_DS3505
ZHHH,2001-03-11 12:00,ZHHH 111200Z AUTO 00000KT 9SM 15/08 A3021 RMK SLP230 T01490085 52013 IEM_DS3505
ZHHH,2001-03-11 13:00,ZHHH 111300Z AUTO 2SM 15/08 A3021 RMK T01500080 IEM_DS3505
ZHHH,2001-03-11 14:00,ZHHH 111400Z AUTO 00000KT 2SM 15/06 A3024 RMK T01500060 IEM_DS3505
ZHHH,2001-03-11 15:00,ZHHH 111500Z AUTO 00000KT 9SM 12/09 A3024 RMK SLP242 T01220091 52012 IEM_DS3505
ZHHH,2001-03-11 16:00,ZHHH 111600Z AUTO 2SM 14/05 A3024 RMK T01400050 IEM_DS3505
ZHHH,2001-03-11 17:00,ZHHH 111700Z AUTO 00000KT 2SM 13/06 A3024 RMK T01300060 IEM_DS3505
ZHHH,2001-03-11 18:00,ZHHH 111800Z AUTO 00000KT 7SM 11/09 A3024 RMK SLP242 T01070087 52001 IEM_DS3505
ZHHH,2001-03-11 19:00,ZHHH 111900Z AUTO 10002KT 2 1/2SM 12/04 A3024 RMK T01200040 IEM_DS3505
ZHHH,2001-03-11 20:00,ZHHH 112000Z AUTO 16002KT 2 1/2SM 11/04 A3024 RMK T01100040 IEM_DS3505
ZHHH,2001-03-11 21:00,ZHHH 112100Z AUTO 00000KT 6SM 11/09 A3024 RMK SLP240 T01090092 57002 IEM_DS3505
ZHHH,2001-03-11 22:00,ZHHH 112200Z AUTO 12004KT 1 1/2SM 10/07 A3024 RMK T01000070 IEM_DS3505
ZHHH,2001-03-11 23:00,ZHHH 112300Z AUTO 12002KT 1 1/2SM 09/07 A3024 RMK T00900070 IEM_DS3505
ZHHH,2001-03-12 00:00,ZHHH 120000Z AUTO 16002KT 9SM 12/10 A3027 RMK SLP254 T01160097 52013 IEM_DS3505
ZHHH,2001-03-12 01:00,ZHHH 120100Z AUTO 1 1/2SM 12/09 A3027 RMK T01200090 IEM_DS3505
ZHHH,2001-03-12 02:00,ZHHH 120200Z AUTO 1SM 15/11 A3027 RMK T01500110 IEM_DS3505
ZHHH,2001-03-12 03:00,ZHHH 120300Z AUTO 22004KT 11SM 18/10 A3027 RMK SLP255 T01790095 52002 IEM_DS3505
ZHHH,2001-03-12 04:00,ZHHH 120400Z AUTO 21004KT 2 1/2SM 19/08 A3027 RMK T01900080 IEM_DS3505
ZHHH,2001-03-12 05:00,ZHHH 120500Z AUTO 24008KT 20/08 A3024 RMK T02000080 IEM_DS3505
ZHHH,2001-03-12 06:00,ZHHH 120600Z AUTO 18004KT 11SM 21/07 A3021 RMK SLP227 T02130069 57028 IEM_DS3505
ZHHH,2001-03-12 07:00,ZHHH 120700Z AUTO 23006KT 6SM 22/07 A3015 RMK T02200070 IEM_DS3505
ZHHH,2001-03-12 08:00,ZHHH 120800Z AUTO 6SM 22/03 A3015 RMK T02200030 IEM_DS3505
ZHHH,2001-03-12 09:00,ZHHH 120900Z AUTO 00000KT 12SM 22/01 A3012 RMK SLP205 T02150008 57022 IEM_DS3505
ZHHH,2001-03-12 10:00,ZHHH 121000Z AUTO 6SM 20/06 A3012 RMK T02000060 IEM_DS3505
ZHHH,2001-03-12 11:00,ZHHH 121100Z AUTO 6SM 18/05 A3012 RMK T01800050 IEM_DS3505
ZHHH,2001-03-12 12:00,ZHHH 121200Z AUTO 00000KT 9SM 16/10 A3012 RMK SLP203 T01550099 57002 IEM_DS3505
ZHHH,2001-03-12 13:00,ZHHH 121300Z AUTO 23004KT 6SM 16/04 A3012 RMK T01600040 IEM_DS3505
ZHHH,2001-03-12 14:00,ZHHH 121400Z AUTO 14004KT 6SM 16/05 A3012 RMK T01600050 IEM_DS3505
ZHHH,2001-03-12 15:00,ZHHH 121500Z AUTO 00000KT 9SM 14/06 A3012 RMK SLP205 T01400063 52002 IEM_DS3505
ZHHH,2001-03-12 16:00,ZHHH 121600Z AUTO 16002KT 6SM 15/05 A3012 RMK T01500050 IEM_DS3505
ZHHH,2001-03-12 17:00,ZHHH 121700Z AUTO 17004KT 6SM 15/04 A3012 RMK T01500040 IEM_DS3505
ZHHH,2001-03-12 18:00,ZHHH 121800Z AUTO 14002KT 9SM 14/04 A3009 RMK SLP194 T01400042 57011 IEM_DS3505
ZHHH,2001-03-12 19:00,ZHHH 121900Z AUTO 14006KT 13/07 A3006 RMK T01300070 IEM_DS3505
ZHHH,2001-03-12 20:00,ZHHH 122000Z AUTO 14006KT 3SM 12/08 A3006 RMK T01200080 IEM_DS3505
ZHHH,2001-03-12 21:00,ZHHH 122100Z AUTO 00000KT 9SM 12/04 A3003 RMK SLP174 T01210045 57020 IEM_DS3505
ZHHH,2001-03-12 22:00,ZHHH 122200Z AUTO 12006KT 1 1/2SM 09/07 A3003 RMK T00900070 IEM_DS3505
ZHHH,2001-03-12 23:00,ZHHH 122300Z AUTO 12002KT 1 1/4SM 10/08 A3003 RMK T01000080 IEM_DS3505
ZHHH,2001-03-13 00:00,ZHHH 130000Z AUTO 11002KT 9SM 14/06 A3003 RMK SLP175 T01360062 52001 IEM_DS3505
ZHHH,2001-03-13 01:00,ZHHH 130100Z AUTO 13008KT 2 1/2SM 13/08 A3003 RMK T01300080 IEM_DS3505
ZHHH,2001-03-13 02:00,ZHHH 130200Z AUTO 14006KT 2 1/2SM 16/08 A3003 RMK T01600080 IEM_DS3505
ZHHH,2001-03-13 03:00,ZHHH 130300Z AUTO 11006KT 11SM 19/05 A3003 RMK SLP166 T01930052 57009 IEM_DS3505
ZHHH,2001-03-13 04:00,ZHHH 130400Z AUTO 15008KT 20/08 A3000 RMK T02000080 IEM_DS3505
ZHHH,2001-03-13 05:00,ZHHH 130500Z AUTO 20008KT 5SM 21/07 A2997 RMK T02100070 IEM_DS3505
ZHHH,2001-03-13 06:00,ZHHH 130600Z AUTO 18004KT 11SM 23/05 A2991 RMK SLP133 T02300053 57033 IEM_DS3505
ZHHH,2001-03-13 07:00,ZHHH 130700Z AUTO 20010KT 6SM 22/05 A2988 RMK T02200050 IEM_DS3505
ZHHH,2001-03-13 08:00,ZHHH 130800Z AUTO 19010KT 6SM 23/06 A2985 RMK T02300060 IEM_DS3505
ZHHH,2001-03-13 09:00,ZHHH 130900Z AUTO 14004KT 11SM 23/05 A2983 RMK SLP106 T02310049 57027 IEM_DS3505
ZHHH,2001-03-13 10:00,ZHHH 131000Z AUTO 18006KT 6SM 21/06 A2983 RMK T02100060 IEM_DS3505
ZHHH,2001-03-13 11:00,ZHHH 131100Z AUTO 12006KT 6SM 19/10 A2983 RMK T01900100 IEM_DS3505
ZHHH,2001-03-13 12:00,ZHHH 131200Z AUTO 11002KT 9SM 20/06 A2985 RMK SLP108 T01990064 52002 IEM_DS3505
ZHHH,2001-03-13 13:00,ZHHH 131300Z AUTO 12008KT 6SM 16/10 A2985 RMK T01600100 IEM_DS3505
ZHHH,2001-03-13 14:00,ZHHH 131400Z AUTO 12006KT 6SM 16/10 A2988 RMK T01600100 IEM_DS3505
ZHHH,2001-03-13 15:00,ZHHH 131500Z AUTO 14002KT 9SM 18/09 A2985 RMK SLP115 T01800091 52007 IEM_DS3505
ZHHH,2001-03-13 16:00,ZHHH 131600Z AUTO 11008KT 6SM 15/11 A2985 RMK T01500110 IEM_DS3505
ZHHH,2001-03-13 17:00,ZHHH 131700Z AUTO 12008KT 6SM 14/11 A2985 RMK T01400110 IEM_DS3505
ZHHH,2001-03-13 18:00,ZHHH 131800Z AUTO 11004KT 9SM 17/09 A2985 RMK SLP110 T01670094 57004 IEM_DS3505
ZHHH,2001-03-13 19:00,ZHHH 131900Z AUTO 12006KT 6SM 14/11 A2985 RMK T01400110 IEM_DS3505
ZHHH,2001-03-13 20:00,ZHHH 132000Z AUTO 13006KT 6SM 13/11 A2985 RMK T01300110 IEM_DS3505
ZHHH,2001-03-13 21:00,ZHHH 132100Z AUTO 09002KT 9SM 15/10 A2985 RMK SLP111 T01540099 54000 IEM_DS3505
ZHHH,2001-03-13 22:00,ZHHH 132200Z AUTO 13004KT 3SM 14/11 A2988 RMK T01400110 IEM_DS3505
ZHHH,2001-03-13 23:00,ZHHH 132300Z AUTO 13004KT 2 1/2SM 14/11 A2988 RMK T01400110 IEM_DS3505
ZHHH,2001-03-14 00:00,ZHHH 140000Z AUTO 16002KT 12SM 17/10 A2991 RMK SLP135 T01700105 52024 IEM_DS3505
ZHHH,2001-03-14 01:00,ZHHH 140100Z AUTO 2 1/2SM 18/13 A2994 RMK T01800130 IEM_DS3505
ZHHH,2001-03-14 02:00,ZHHH 140200Z AUTO 23006KT 6SM 20/12 A2997 RMK T02000120 IEM_DS3505
ZHHH,2001-03-14 03:00,ZHHH 140300Z AUTO 27004KT 14SM 22/12 A2997 RMK SLP153 T02250125 52018 IEM_DS3505
ZHHH,2001-03-14 04:00,ZHHH 140400Z AUTO 26010KT 6SM 23/14 A2997 RMK T02300140 IEM_DS3505
ZHHH,2001-03-14 05:00,ZHHH 140500Z AUTO 6SM 24/14 A2997 RMK T02400140 IEM_DS3505
ZHHH,2001-03-14 06:00,ZHHH 140600Z AUTO 34004KT 14SM 24/12 A2997 RMK SLP144 T02420119 57009 IEM_DS3505
ZHHH,2001-03-14 07:00,ZHHH 140700Z AUTO 6SM 24/14 A2994 RMK T02400140 IEM_DS3505
ZHHH,2001-03-14 08:00,ZHHH 140800Z AUTO 6SM 24/14 A2994 RMK T02400140 IEM_DS3505
ZHHH,2001-03-14 09:00,ZHHH 140900Z AUTO 07004KT 12SM 24/12 A2994 RMK SLP141 T02430116 57003 IEM_DS3505
ZHHH,2001-03-14 10:00,ZHHH 141000Z AUTO 03010KT 3SM 22/08 A2997 RMK T02200080 IEM_DS3505
ZHHH,2001-03-14 11:00,ZHHH 141100Z AUTO 04012KT 2 1/2SM 21/08 A3000 RMK T02100080 IEM_DS3505
ZHHH,2001-03-14 12:00,ZHHH 141200Z AUTO 04008KT 9SM 20/07 A3003 RMK SLP166 T02050069 52025 IEM_DS3505
ZHHH,2001-03-14 13:00,ZHHH 141300Z AUTO 05019G33KT 2SM 18/06 A3003 RMK T01800060 IEM_DS3505
ZHHH,2001-03-14 14:00,ZHHH 141400Z AUTO 05019G29KT 2SM 17/05 A3006 RMK T01700050 IEM_DS3505
ZHHH,2001-03-14 15:00,ZHHH 141500Z AUTO 04006KT 9SM 17/03 A3009 RMK SLP188 T01700027 52022 IEM_DS3505
ZHHH,2001-03-14 16:00,ZHHH 141600Z AUTO 05019KT 2 1/2SM 16/01 A3006 RMK T01600010 IEM_DS3505
ZHHH,2001-03-14 17:00,ZHHH 141700Z AUTO 04016KT 2 1/2SM 15/02 A3006 RMK T01500020 IEM_DS3505
ZHHH,2001-03-14 18:00,ZHHH 141800Z AUTO 04002KT 7SM 14/05 A3009 RMK 60002 SLP189 T01370052 52001 IEM_DS3505
ZHHH,2001-03-14 19:00,ZHHH 141900Z AUTO 03010KT 2 1/2SM 10/07 A3009 RMK T01000070 IEM_DS3505
ZHHH,2001-03-14 20:00,ZHHH 142000Z AUTO 02012KT 2SM 09/07 A3006 RMK T00900070 IEM_DS3505
ZHHH,2001-03-14 21:00,ZHHH 142100Z AUTO 04006KT 7SM 10/07 A3006 RMK 70004 SLP188 T01030072 57001 IEM_DS3505
ZHHH,2001-03-14 22:00,ZHHH 142200Z AUTO 04014KT 4SM 10/08 A3009 RMK T01000080 IEM_DS3505
ZHHH,2001-03-14 23:00,ZHHH 142300Z AUTO 03012KT 2SM 09/08 A3012 RMK T00900080 IEM_DS3505
ZHHH,2001-03-15 00:00,ZHHH 150000Z AUTO 04006KT 7SM 10/07 A3012 RMK 60002 SLP208 T00950072 52020 IEM_DS3505
ZHHH,2001-03-15 01:00,ZHHH 150100Z AUTO 04012KT 4SM 08/06 A3015 RMK T00800060 IEM_DS3505
ZHHH,2001-03-15 02:00,ZHHH 150200Z AUTO 04010KT 4SM 08/06 A3015 RMK T00800060 IEM_DS3505
ZHHH,2001-03-15 03:00,ZHHH 150300Z AUTO 02004KT 7SM 10/06 A3012 RMK SLP209 T00980065 52001 IEM_DS3505
ZHHH,2001-03-15 04:00,ZHHH 150400Z AUTO 02008KT 5SM 08/06 A3012 RMK T00800060 IEM_DS3505
ZHHH,2001-03-15 05:00,ZHHH 150500Z AUTO 03008KT 4SM 08/07 A3009 RMK T00800070 IEM_DS3505
ZHHH,2001-03-15 06:00,ZHHH 150600Z AUTO 02006KT 9SM 09/06 A3006 RMK SLP182 T00920058 57028 IEM_DS3505
ZHHH,2001-03-15 07:00,ZHHH 150700Z AUTO 04010KT 5SM 08/06 A3003 RMK T00800060 IEM_DS3505
ZHHH,2001-03-15 08:00,ZHHH 150800Z AUTO 03006KT 2SM 08/06 A3003 RMK T00800060 IEM_DS3505
ZHHH,2001-03-15 09:00,ZHHH 150900Z AUTO 04006KT 6SM 08/07 A3000 RMK SLP162 T00780066 57020 IEM_DS3505
ZHHH,2001-03-15 10:00,ZHHH 151000Z AUTO 04008KT 3SM 07/07 A3000 RMK T00700070 IEM_DS3505
ZHHH,2001-03-15 11:00,ZHHH 151100Z AUTO 02008KT 2 1/2SM 07/06 A3003 RMK T00700060 IEM_DS3505
ZHHH,2001-03-15 12:00,ZHHH 151200Z AUTO 02004KT 6SM 08/07 A3000 RMK 60043 SLP173 T00750069 52011 IEM_DS3505
ZHHH,2001-03-15 13:00,ZHHH 151300Z AUTO 04008KT 2 1/2SM 07/06 A3003 RMK T00700060 IEM_DS3505
ZHHH,2001-03-15 14:00,ZHHH 151400Z AUTO 03008KT 2 1/2SM 07/06 A3003 RMK T00700060 IEM_DS3505
ZHHH,2001-03-15 15:00,ZHHH 151500Z AUTO 36004KT 6SM 07/06 A3003 RMK SLP177 T00690065 52004 IEM_DS3505
ZHHH,2001-03-15 16:00,ZHHH 151600Z AUTO 03006KT 1 1/2SM 06/06 A3003 RMK T00600060 IEM_DS3505
ZHHH,2001-03-15 17:00,ZHHH 151700Z AUTO 1 1/2SM 06/06 A3003 RMK T00600060 IEM_DS3505
ZHHH,2001-03-15 18:00,ZHHH 151800Z AUTO 36002KT 6SM 07/07 A3003 RMK 60012 SLP170 T00690067 57007 IEM_DS3505
ZHHH,2001-03-15 19:00,ZHHH 151900Z AUTO 35006KT 2SM 06/06 A3000 RMK T00600060 IEM_DS3505
ZHHH,2001-03-15 20:00,ZHHH 152000Z AUTO 34008KT 2SM 06/06 A3000 RMK T00600060 IEM_DS3505
ZHHH,2001-03-15 21:00,ZHHH 152100Z AUTO 02002KT 6SM 06/06 A3000 RMK 70056 SLP159 T00630060 57011 IEM_DS3505
ZHHH,2001-03-15 22:00,ZHHH 152200Z AUTO 03004KT 2SM 06/06 A3000 RMK T00600060 IEM_DS3505
ZHHH,2001-03-15 23:00,ZHHH 152300Z AUTO 2 1/2SM 06/06 A3000 RMK T00600060 IEM_DS3505
ZHHH,2001-03-16 00:00,ZHHH 160000Z AUTO 32002KT 6SM 06/06 A3003 RMK 60003 SLP174 T00650062 52015 IEM_DS3505
ZHHH,2001-03-16 01:00,ZHHH 160100Z AUTO 33008KT 1 1/4SM 06/06 A3006 RMK T00600060 IEM_DS3505
ZHHH,2001-03-16 02:00,ZHHH 160200Z AUTO 03006KT 1 1/2SM 06/06 A3003 RMK T00600060 IEM_DS3505
ZHHH,2001-03-16 03:00,ZHHH 160300Z AUTO 29004KT 6SM 07/06 A3003 RMK SLP175 T00690064 52001 IEM_DS3505
ZHHH,2001-03-16 04:00,ZHHH 160400Z AUTO 34008KT 7SM 06/06 A3003 RMK T00600060 IEM_DS3505
ZHHH,2001-03-16 05:00,ZHHH 160500Z AUTO 04006KT 7SM 07/06 A3000 RMK T00700060 IEM_DS3505
ZHHH,2001-03-16 06:00,ZHHH 160600Z AUTO 34004KT 7SM 07/06 A2997 RMK 60020 SLP156 T00710056 57019 IEM_DS3505
ZHHH,2001-03-16 07:00,ZHHH 160700Z AUTO 36006KT 7SM 07/05 A2997 RMK T00700050 IEM_DS3505
ZHHH,2001-03-16 08:00,ZHHH 160800Z AUTO 04012KT 7SM 07/05 A2994 RMK T00700050 IEM_DS3505
ZHHH,2001-03-16 09:00,ZHHH 160900Z AUTO 34004KT 7SM 07/05 A2997 RMK SLP154 T00670050 57002 IEM_DS3505
ZHHH,2001-03-16 10:00,ZHHH 161000Z AUTO 02008KT 7SM 06/05 A2997 RMK T00600050 IEM_DS3505
ZHHH,2001-03-16 11:00,ZHHH 161100Z AUTO 01004KT 7SM 06/05 A3000 RMK T00600050 IEM_DS3505
ZHHH,2001-03-16 12:00,ZHHH 161200Z AUTO 36004KT 6SM 06/05 A3003 RMK 60004 SLP170 T00640050 52016 IEM_DS3505
ZHHH,2001-03-16 13:00,ZHHH 161300Z AUTO 01008KT 7SM 06/05 A3006 RMK T00600050 IEM_DS3505
ZHHH,2001-03-16 14:00,ZHHH 161400Z AUTO 35010KT 7SM 06/05 A3006 RMK T00600050 IEM_DS3505
ZHHH,2001-03-16 15:00,ZHHH 161500Z AUTO 36002KT 7SM 06/04 RMK SLP191 T00640044 52021 IEM_DS3505
ZHHH,2001-03-16 16:00,ZHHH 161600Z AUTO 35006KT 7SM 06/05 A3009 RMK T00600050 IEM_DS3505
ZHHH,2001-03-16 17:00,ZHHH 161700Z AUTO 35008KT 6SM 06/05 A3006 RMK T00600050 IEM_DS3505
ZHHH,2001-03-16 18:00,ZHHH 161800Z AUTO 02002KT 9SM 06/04 A3006 RMK 60002 SLP187 T00610041 57004 IEM_DS3505
ZHHH,2001-03-16 19:00,ZHHH 161900Z AUTO 35006KT 6SM 05/05 A3006 RMK T00500050 IEM_DS3505
ZHHH,2001-03-16 20:00,ZHHH 162000Z AUTO 34006KT 6SM 05/04 A3003 RMK T00500040 IEM_DS3505
ZHHH,2001-03-16 21:00,ZHHH 162100Z AUTO 00000KT 9SM 06/04 A3003 RMK 70024 SLP180 T00580043 57007 IEM_DS3505
ZHHH,2001-03-16 22:00,ZHHH 162200Z AUTO 35006KT 6SM 06/05 A3006 RMK T00600050 IEM_DS3505
ZHHH,2001-03-16 23:00,ZHHH 162300Z AUTO 6SM 06/05 A3009 RMK T00600050 IEM_DS3505
ZHHH,2001-03-17 00:00,ZHHH 170000Z AUTO 25002KT 9SM 06/04 A3012 RMK 60003 SLP205 T00620044 52025 IEM_DS3505
ZHHH,2001-03-17 01:00,ZHHH 170100Z AUTO 3SM 06/05 A3009 RMK T00600050 IEM_DS3505
ZHHH,2001-03-17 02:00,ZHHH 170200Z AUTO 4SM 07/05 A3009 RMK T00700050 IEM_DS3505
ZHHH,2001-03-17 03:00,ZHHH 170300Z AUTO 27002KT 11SM 09/05 A3009 RMK SLP199 T00890049 57006 IEM_DS3505
ZHHH,2001-03-17 04:00,ZHHH 170400Z AUTO 27008KT 6SM 10/06 A3009 RMK T01000060 IEM_DS3505
ZHHH,2001-03-17 05:00,ZHHH 170500Z AUTO 26010KT 7SM 11/05 A3009 RMK T01100050 IEM_DS3505
ZHHH,2001-03-17 06:00,ZHHH 170600Z AUTO 25004KT 11SM 13/06 A3006 RMK 60000 SLP182 T01310061 57017 IEM_DS3505
ZHHH,2001-03-17 07:00,ZHHH 170700Z AUTO 27010KT 7SM 13/07 A3003 RMK T01300070 IEM_DS3505
ZHHH,2001-03-17 08:00,ZHHH 170800Z AUTO 26008KT 7SM 14/07 A3003 RMK T01400070 IEM_DS3505
ZHHH,2001-03-17 09:00,ZHHH 170900Z AUTO 27004KT 12SM 14/07 A3003 RMK SLP172 T01400070 57010 IEM_DS3505
ZHHH,2001-03-17 10:00,ZHHH 171000Z AUTO 23006KT 6SM 13/08 A3003 RMK T01300080 IEM_DS3505
ZHHH,2001-03-17 11:00,ZHHH 171100Z AUTO 23006KT 6SM 12/09 A3006 RMK T01200090 IEM_DS3505
ZHHH,2001-03-17 12:00,ZHHH 171200Z AUTO 00000KT 9SM 11/08 A3009 RMK SLP191 T01140083 52019 IEM_DS3505
ZHHH,2001-03-17 13:00,ZHHH 171300Z AUTO 20006KT 6SM 11/09 A3009 RMK T01100090 IEM_DS3505
ZHHH,2001-03-17 14:00,ZHHH 171400Z AUTO 20006KT 6SM 10/09 A3012 RMK T01000090 IEM_DS3505
ZHHH,2001-03-17 15:00,ZHHH 171500Z AUTO 00000KT 9SM 10/08 A3012 RMK SLP204 T00980079 52013 IEM_DS3505
ZHHH,2001-03-17 16:00,ZHHH 171600Z AUTO 22002KT 6SM 10/08 A3012 RMK T01000080 IEM_DS3505
ZHHH,2001-03-17 17:00,ZHHH 171700Z AUTO 6SM 09/08 A3012 RMK T00900080 IEM_DS3505
ZHHH,2001-03-17 18:00,ZHHH 171800Z AUTO 00000KT 9SM 09/08 A3012 RMK SLP202 T00910078 57002 IEM_DS3505
ZHHH,2001-03-17 19:00,ZHHH 171900Z AUTO 14002KT 6SM 09/08 A3009 RMK T00900080 IEM_DS3505
ZHHH,2001-03-17 20:00,ZHHH 172000Z AUTO 3SM 08/07 A3009 RMK T00800070 IEM_DS3505
ZHHH,2001-03-17 21:00,ZHHH 172100Z AUTO 00000KT 9SM 08/08 A3009 RMK 70000 SLP197 T00850078 57005 IEM_DS3505
ZHHH,2001-03-17 22:00,ZHHH 172200Z AUTO 00000KT 1SM 08/08 A3015 RMK T00800080 IEM_DS3505
ZHHH,2001-03-17 23:00,ZHHH 172300Z AUTO 00000KT 1SM 08/08 A3015 RMK T00800080 IEM_DS3505
ZHHH,2001-03-18 00:00,ZHHH 180000Z AUTO 14002KT 10/08 A3015 RMK 70000 SLP217 T00960080 52020 IEM_DS3505
ZHHH,2001-03-18 01:00,ZHHH 180100Z AUTO 1SM 10/10 A3018 RMK T01000100 IEM_DS3505
ZHHH,2001-03-18 02:00,ZHHH 180200Z AUTO 1 1/4SM 12/10 A3018 RMK T01200100 IEM_DS3505
ZHHH,2001-03-18 03:00,ZHHH 180300Z AUTO 29002KT 8SM 12/08 A3018 RMK SLP220 T01220082 52003 IEM_DS3505
ZHHH,2001-03-18 04:00,ZHHH 180400Z AUTO 1 1/2SM 13/10 A3015 RMK T01300100 IEM_DS3505
ZHHH,2001-03-18 05:00,ZHHH 180500Z AUTO 00000KT 2 1/2SM 13/09 A3012 RMK T01300090 IEM_DS3505
ZHHH,2001-03-18 06:00,ZHHH 180600Z AUTO 34002KT 9SM 14/09 A3009 RMK 60003 SLP194 T01450089 57026 IEM_DS3505
ZHHH,2001-03-18 07:00,ZHHH 180700Z AUTO 6SM 14/08 A3006 RMK T01400080 IEM_DS3505
ZHHH,2001-03-18 08:00,ZHHH 180800Z AUTO 6SM 15/07 A3006 RMK T01500070 IEM_DS3505
ZHHH,2001-03-18 09:00,ZHHH 180900Z AUTO 11002KT 9SM 15/08 A3003 RMK SLP175 T01530081 57018 IEM_DS3505
ZHHH,2001-03-18 10:00,ZHHH 181000Z AUTO 6SM 14/08 A3003 RMK T01400080 IEM_DS3505
ZHHH,2001-03-18 11:00,ZHHH 181100Z AUTO 00000KT 6SM 13/09 A3003 RMK T01300090 IEM_DS3505
ZHHH,2001-03-18 12:00,ZHHH 181200Z AUTO 00000KT 9SM 12/09 A3006 RMK SLP180 T01210087 52004 IEM_DS3505
ZHHH,2001-03-18 13:00,ZHHH 181300Z AUTO 4SM 12/09 A3006 RMK T01200090 IEM_DS3505
ZHHH,2001-03-18 14:00,ZHHH 181400Z AUTO 00000KT 4SM 12/09 A3009 RMK T01200090 IEM_DS3505
ZHHH,2001-03-18 15:00,ZHHH 181500Z AUTO 00000KT 9SM 12/09 A3009 RMK SLP192 T01220092 52013 IEM_DS3505
ZHHH,2001-03-18 16:00,ZHHH 181600Z AUTO 00000KT 4SM 11/10 A3009 RMK T01100100 IEM_DS3505
ZHHH,2001-03-18 17:00,ZHHH 181700Z AUTO 00000KT 3SM 11/09 A3006 RMK T01100090 IEM_DS3505
ZHHH,2001-03-18 18:00,ZHHH 181800Z AUTO 00000KT 7SM 11/09 A3003 RMK SLP171 T01080091 57021 IEM_DS3505
ZHHH,2001-03-18 19:00,ZHHH 181900Z AUTO 08002KT 2 1/2SM 10/09 A3000 RMK T01000090 IEM_DS3505
ZHHH,2001-03-18 20:00,ZHHH 182000Z AUTO 1 1/2SM 10/09 A3000 RMK T01000090 IEM_DS3505
ZHHH,2001-03-18 21:00,ZHHH 182100Z AUTO 25002KT 7SM 11/10 A3000 RMK 70003 SLP167 T01090096 57004 IEM_DS3505
ZHHH,2001-03-18 22:00,ZHHH 182200Z AUTO 1 1/2SM 10/10 A3003 RMK T01000100 IEM_DS3505
ZHHH,2001-03-18 23:00,ZHHH 182300Z AUTO 00000KT 1SM 10/10 A3003 RMK T01000100 IEM_DS3505
ZHHH,2001-03-19 00:00,ZHHH 190000Z AUTO 27002KT 9SM 11/09 A3006 RMK 70003 SLP181 T01130094 52013 IEM_DS3505
ZHHH,2001-03-19 01:00,ZHHH 190100Z AUTO 29004KT 2SM 11/10 A3006 RMK T01100100 IEM_DS3505
ZHHH,2001-03-19 02:00,ZHHH 190200Z AUTO 4SM 13/10 A3006 RMK T01300100 IEM_DS3505
ZHHH,2001-03-19 03:00,ZHHH 190300Z AUTO 25004KT 11SM 16/09 A3006 RMK SLP181 T01560091 52001 IEM_DS3505
ZHHH,2001-03-19 04:00,ZHHH 190400Z AUTO 28006KT 6SM 16/09 A3003 RMK T01600090 IEM_DS3505
ZHHH,2001-03-19 05:00,ZHHH 190500Z AUTO 25008KT 6SM 17/10 A3000 RMK T01700100 IEM_DS3505
ZHHH,2001-03-19 06:00,ZHHH 190600Z AUTO 22002KT 11SM 19/09 A2997 RMK SLP151 T01870088 57030 IEM_DS3505
ZHHH,2001-03-19 07:00,ZHHH 190700Z AUTO 28006KT 6SM 18/09 A2994 RMK T01800090 IEM_DS3505
ZHHH,2001-03-19 08:00,ZHHH 190800Z AUTO 29004KT 6SM 19/10 A2991 RMK T01900100 IEM_DS3505
ZHHH,2001-03-19 09:00,ZHHH 190900Z AUTO 25002KT 11SM 19/07 A2991 RMK SLP136 T01910069 57015 IEM_DS3505
ZHHH,2001-03-19 10:00,ZHHH 191000Z AUTO 6SM 18/09 A2994 RMK T01800090 IEM_DS3505
ZHHH,2001-03-19 11:00,ZHHH 191100Z AUTO 6SM 16/11 A2994 RMK T01600110 IEM_DS3505
ZHHH,2001-03-19 12:00,ZHHH 191200Z AUTO 27002KT 12SM 16/10 A2997 RMK SLP152 T01620099 52016 IEM_DS3505
ZHHH,2001-03-19 13:00,ZHHH 191300Z AUTO 24006KT 6SM 15/10 A3000 RMK T01500100 IEM_DS3505
ZHHH,2001-03-19 14:00,ZHHH 191400Z AUTO 23008KT 6SM 14/11 A3000 RMK T01400110 IEM_DS3505
ZHHH,2001-03-19 15:00,ZHHH 191500Z AUTO 27002KT 11SM 13/11 A3000 RMK SLP166 T01330109 52014 IEM_DS3505
ZHHH,2001-03-19 16:00,ZHHH 191600Z AUTO 23006KT 6SM 12/11 A3000 RMK T01200110 IEM_DS3505
ZHHH,2001-03-19 17:00,ZHHH 191700Z AUTO 25006KT 4SM 12/10 A3000 RMK T01200100 IEM_DS3505
ZHHH,2001-03-19 18:00,ZHHH 191800Z AUTO 27002KT 12SM 12/09 A3000 RMK SLP163 T01200089 57003 IEM_DS3505
ZHHH,2001-03-19 19:00,ZHHH 191900Z AUTO 27004KT 3SM 10/09 A3000 RMK T01000090 IEM_DS3505
ZHHH,2001-03-19 20:00,ZHHH 192000Z AUTO 24006KT 2 1/2SM 10/09 A2997 RMK T01000090 IEM_DS3505
ZHHH,2001-03-19 21:00,ZHHH 192100Z AUTO 00000KT 12SM 10/10 A2997 RMK SLP151 T01050097 57012 IEM_DS3505
ZHHH,2001-03-19 22:00,ZHHH 192200Z AUTO 21004KT 1 1/2SM 10/09 A2997 RMK T01000090 IEM_DS3505
ZHHH,2001-03-19 23:00,ZHHH 192300Z AUTO 22004KT 1 1/2SM 10/09 A2997 RMK T01000090 IEM_DS3505
ZHHH,2001-03-20 00:00,ZHHH 200000Z AUTO 25002KT 9SM 11/10 A3000 RMK SLP162 T01130101 52011 IEM_DS3505
ZHHH,2001-03-20 01:00,ZHHH 200100Z AUTO 24006KT 2SM 12/11 A3003 RMK T01200110 IEM_DS3505
ZHHH,2001-03-20 02:00,ZHHH 200200Z AUTO 24008KT 3SM 13/11 A3000 RMK T01300110 IEM_DS3505
ZHHH,2001-03-20 03:00,ZHHH 200300Z AUTO 25004KT 9SM 16/12 A3000 RMK SLP160 T01580117 57002 IEM_DS3505
ZHHH,2001-03-20 04:00,ZHHH 200400Z AUTO 25008KT 4SM 17/12 A2997 RMK T01700120 IEM_DS3505
ZHHH,2001-03-20 05:00,ZHHH 200500Z AUTO 25008KT 18/12 A2994 RMK T01800120 IEM_DS3505
ZHHH,2001-03-20 06:00,ZHHH 200600Z AUTO 25004KT 11SM 20/12 A2988 RMK SLP127 T02010121 57033 IEM_DS3505
ZHHH,2001-03-20 07:00,ZHHH 200700Z AUTO 27006KT 21/11 A2988 RMK T02100110 IEM_DS3505
ZHHH,2001-03-20 08:00,ZHHH 200800Z AUTO 22006KT 6SM 21/10 A2985 RMK T02100100 IEM_DS3505
ZHHH,2001-03-20 09:00,ZHHH 200900Z AUTO 20004KT 11SM 21/11 A2985 RMK SLP113 T02090108 57014 IEM_DS3505
ZHHH,2001-03-20 10:00,ZHHH 201000Z AUTO 19008KT 6SM 19/12 A2985 RMK T01900120 IEM_DS3505
ZHHH,2001-03-20 11:00,ZHHH 201100Z AUTO 21010KT 6SM 18/14 A2985 RMK T01800140 IEM_DS3505
ZHHH,2001-03-20 12:00,ZHHH 201200Z AUTO 27002KT 9SM 17/13 A2985 RMK SLP119 T01690127 52006 IEM_DS3505
ZHHH,2001-03-20 13:00,ZHHH 201300Z AUTO 21004KT 4SM 16/13 A2988 RMK T01600130 IEM_DS3505
ZHHH,2001-03-20 14:00,ZHHH 201400Z AUTO 23006KT 4SM 15/12 A2988 RMK T01500120 IEM_DS3505
ZHHH,2001-03-20 15:00,ZHHH 201500Z AUTO 25002KT 9SM 16/10 A2988 RMK SLP123 T01550103 52004 IEM_DS3505
ZHHH,2001-03-20 16:00,ZHHH 201600Z AUTO 4SM 15/11 A2988 RMK T01500110 IEM_DS3505
ZHHH,2001-03-20 17:00,ZHHH 201700Z AUTO 18004KT 4SM 14/11 A2985 RMK T01400110 IEM_DS3505
ZHHH,2001-03-20 18:00,ZHHH 201800Z AUTO 00000KT 11SM 14/08 A2983 RMK SLP106 T01380084 57017 IEM_DS3505
ZHHH,2001-03-20 19:00,ZHHH 201900Z AUTO 13004KT 3SM 13/09 A2983 RMK T01300090 IEM_DS3505
ZHHH,2001-03-20 20:00,ZHHH 202000Z AUTO 15004KT 3SM 13/09 A2983 RMK T01300090 IEM_DS3505
ZHHH,2001-03-20 21:00,ZHHH 202100Z AUTO 13004KT 3SM 11/10 A2983 RMK T01100100 IEM_DS3505
ZHHH,2001-03-20 22:00,ZHHH 202200Z AUTO 13002KT 2 1/2SM 11/10 A2983 RMK T01100100 IEM_DS3505
ZHHH,2001-03-20 23:00,ZHHH 202300Z AUTO 14004KT 2 1/2SM 12/10 A2985 RMK T01200100 IEM_DS3505
ZHHH,2001-03-21 00:00,ZHHH 210000Z AUTO 14002KT 11SM 15/09 A2985 RMK SLP109 T01470089 52008 IEM_DS3505
ZHHH,2001-03-21 01:00,ZHHH 210100Z AUTO 2SM 15/10 A2985 RMK T01500100 IEM_DS3505
ZHHH,2001-03-21 02:00,ZHHH 210200Z AUTO 20008KT 6SM 19/10 A2985 RMK T01900100 IEM_DS3505
ZHHH,2001-03-21 03:00,ZHHH 210300Z AUTO 18006KT 11SM 20/10 A2985 RMK SLP110 T02020105 52001 IEM_DS3505
ZHHH,2001-03-21 04:00,ZHHH 210400Z AUTO 21008KT 6SM 21/11 A2983 RMK T02100110 IEM_DS3505
ZHHH,2001-03-21 05:00,ZHHH 210500Z AUTO 21010KT 6SM 23/11 A2980 RMK T02300110 IEM_DS3505
ZHHH,2001-03-21 06:00,ZHHH 210600Z AUTO 27004KT 12SM 24/11 A2977 RMK SLP086 T02440112 57024 IEM_DS3505
ZHHH,2001-03-21 07:00,ZHHH 210700Z AUTO 23010KT 6SM 24/12 A2977 RMK T02400120 IEM_DS3505
ZHHH,2001-03-21 08:00,ZHHH 210800Z AUTO 23012KT 6SM 25/12 A2974 RMK T02500120 IEM_DS3505
ZHHH,2001-03-21 09:00,ZHHH 210900Z AUTO 25004KT 12SM 25/09 A2974 RMK SLP068 T02480093 57017 IEM_DS3505
ZHHH,2001-03-21 10:00,ZHHH 211000Z AUTO 24004KT 6SM 23/12 A2974 RMK T02300120 IEM_DS3505
ZHHH,2001-03-21 11:00,ZHHH 211100Z AUTO 6SM 21/11 A2974 RMK T02100110 IEM_DS3505
ZHHH,2001-03-21 12:00,ZHHH 211200Z AUTO 00000KT 9SM 19/14 A2977 RMK SLP076 T01920137 52007 IEM_DS3505
ZHHH,2001-03-21 13:00,ZHHH 211300Z AUTO 13004KT 6SM 19/14 A2977 RMK T01900140 IEM_DS3505
ZHHH,2001-03-21 14:00,ZHHH 211400Z AUTO 12004KT 6SM 19/11 A2977 RMK T01900110 IEM_DS3505
ZHHH,2001-03-21 15:00,ZHHH 211500Z AUTO 00000KT 9SM 16/14 A2977 RMK SLP084 T01640139 52008 IEM_DS3505
ZHHH,2001-03-21 16:00,ZHHH 211600Z AUTO 07002KT 6SM 17/13 A2980 RMK T01700130 IEM_DS3505
ZHHH,2001-03-21 17:00,ZHHH 211700Z AUTO 07006KT 4SM 16/13 A2980 RMK T01600130 IEM_DS3505
ZHHH,2001-03-21 18:00,ZHHH 211800Z AUTO 07002KT 9SM 16/14 A2977 RMK SLP082 T01600140 57001 IEM_DS3505
ZHHH,2001-03-21 19:00,ZHHH 211900Z AUTO 10008KT 4SM 16/13 A2977 RMK T01600130 IEM_DS3505
ZHHH,2001-03-21 20:00,ZHHH 212000Z AUTO 12006KT 3SM 15/13 A2974 RMK T01500130 IEM_DS3505
ZHHH,2001-03-21 21:00,ZHHH 212100Z AUTO 11002KT 9SM 17/12 A2974 RMK SLP074 T01670121 57008 IEM_DS3505
ZHHH,2001-03-21 22:00,ZHHH 212200Z AUTO 10008KT 3SM 15/12 A2977 RMK T01500120 IEM_DS3505
ZHHH,2001-03-21 23:00,ZHHH 212300Z AUTO 08006KT 3SM 15/12 A2977 RMK T01500120 IEM_DS3505
ZHHH,2001-03-22 00:00,ZHHH 220000Z AUTO 07004KT 9SM 16/13 A2980 RMK SLP089 T01620127 52014 IEM_DS3505
ZHHH,2001-03-22 01:00,ZHHH 220100Z AUTO 09008KT 6SM 17/12 A2980 RMK T01700120 IEM_DS3505
ZHHH,2001-03-22 02:00,ZHHH 220200Z AUTO 06012KT 6SM 18/13 A2983 RMK T01800130 IEM_DS3505
ZHHH,2001-03-22 03:00,ZHHH 220300Z AUTO 07006KT 12SM 21/13 A2983 RMK SLP097 T02080126 52008 IEM_DS3505
ZHHH,2001-03-22 04:00,ZHHH 220400Z AUTO 7SM 20/13 A2983 RMK T02000130 IEM_DS3505
ZHHH,2001-03-22 05:00,ZHHH 220500Z AUTO 7SM 20/14 A2980 RMK T02000140 IEM_DS3505
ZHHH,2001-03-22 06:00,ZHHH 220600Z AUTO 00000KT 6SM 19/15 A2977 RMK 60000 SLP083 T01940146 57014 IEM_DS3505
ZHHH,2001-03-22 07:00,ZHHH 220700Z AUTO 5SM 20/15 A2974 RMK T02000150 IEM_DS3505
ZHHH,2001-03-22 08:00,ZHHH 220800Z AUTO 03006KT 20/14 A2974 RMK T02000140 IEM_DS3505
ZHHH,2001-03-22 09:00,ZHHH 220900Z AUTO 34002KT 6SM 19/14 A2977 RMK SLP088 T01890144 52005 IEM_DS3505
ZHHH,2001-03-22 10:00,ZHHH 221000Z AUTO 03004KT 3SM 18/14 A2980 RMK T01800140 IEM_DS3505
ZHHH,2001-03-22 11:00,ZHHH 221100Z AUTO 08008KT 2SM 17/12 A2983 RMK T01700120 IEM_DS3505
ZHHH,2001-03-22 12:00,ZHHH 221200Z AUTO 11002KT 6SM 17/15 A2983 RMK 60002 SLP100 T01730148 52012 IEM_DS3505
ZHHH,2001-03-22 13:00,ZHHH 221300Z AUTO 07010KT 2 1/2SM 17/10 A2985 RMK T01700100 IEM_DS3505
ZHHH,2001-03-22 13:58,ZHHH 221358Z AUTO 08008KT 2 1/2SM 15/10 A2988 RMK T01500100 IEM_DS3505
ZHHH,2001-03-22 15:00,ZHHH 221500Z AUTO 07002KT 6SM 16/12 A2988 RMK SLP122 T01560122 52022 IEM_DS3505
ZHHH,2001-03-22 16:00,ZHHH 221600Z AUTO 06006KT 3SM 15/09 A2988 RMK T01500090 IEM_DS3505
ZHHH,2001-03-22 17:00,ZHHH 221700Z AUTO 06006KT 6SM 14/09 A2988 RMK T01400090 IEM_DS3505
ZHHH,2001-03-22 18:00,ZHHH 221800Z AUTO 02002KT 7SM 15/10 A2988 RMK SLP124 T01470102 52002 IEM_DS3505
ZHHH,2001-03-22 19:00,ZHHH 221900Z AUTO 02004KT 6SM 13/10 A2988 RMK T01300100 IEM_DS3505
ZHHH,2001-03-22 20:00,ZHHH 222000Z AUTO 06006KT 6SM 13/09 A2985 RMK T01300090 IEM_DS3505
ZHHH,2001-03-22 21:00,ZHHH 222100Z AUTO 04002KT 8SM 13/11 A2985 RMK 70002 SLP110 T01320107 57014 IEM_DS3505
ZHHH,2001-03-22 22:00,ZHHH 222200Z AUTO 6SM 12/09 A2988 RMK T01200090 IEM_DS3505
ZHHH,2001-03-22 23:00,ZHHH 222300Z AUTO 05004KT 3SM 11/08 A2988 RMK T01100080 IEM_DS3505
ZHHH,2001-03-23 00:00,ZHHH 230000Z AUTO 09004KT 7SM 13/09 A2988 RMK 70002 SLP125 T01280093 52015 IEM_DS3505
ZHHH,2001-03-23 01:00,ZHHH 230100Z AUTO 01004KT 3SM 12/10 A2991 RMK T01200100 IEM_DS3505
ZHHH,2001-03-23 03:00,ZHHH 230300Z AUTO 07002KT 8SM 14/10 A2991 RMK SLP128 T01390097 52003 IEM_DS3505
ZHHH,2001-03-23 04:00,ZHHH 230400Z AUTO 15/09 A2988 RMK T01500090 IEM_DS3505
ZHHH,2001-03-23 05:00,ZHHH 230500Z AUTO 4SM 15/10 A2985 RMK T01500100 IEM_DS3505
ZHHH,2001-03-23 06:00,ZHHH 230600Z AUTO 04004KT 8SM 16/11 A2983 RMK SLP100 T01640108 57028 IEM_DS3505
ZHHH,2001-03-23 07:00,ZHHH 230700Z AUTO 17/10 A2980 RMK T01700100 IEM_DS3505
ZHHH,2001-03-23 08:00,ZHHH 230800Z AUTO 4SM 16/11 A2980 RMK T01600110 IEM_DS3505
ZHHH,2001-03-23 09:00,ZHHH 230900Z AUTO 36002KT 8SM 16/12 A2980 RMK SLP089 T01590118 57011 IEM_DS3505
ZHHH,2001-03-23 10:00,ZHHH 231000Z AUTO 25002KT 4SM 15/13 A2980 RMK T01500130 IEM_DS3505
ZHHH,2001-03-23 11:00,ZHHH 231100Z AUTO 4SM 14/13 A2980 RMK T01400130 IEM_DS3505
ZHHH,2001-03-23 12:00,ZHHH 231200Z AUTO 29002KT 6SM 15/13 A2983 RMK 60002 SLP108 T01460131 52019 IEM_DS3505
ZHHH,2001-03-23 13:00,ZHHH 231300Z AUTO 3SM 14/13 A2985 RMK T01400130 IEM_DS3505
ZHHH,2001-03-23 14:00,ZHHH 231400Z AUTO 3SM 14/13 A2985 RMK T01400130 IEM_DS3505
ZHHH,2001-03-23 15:00,ZHHH 231500Z AUTO 34002KT 6SM 15/13 A2988 RMK SLP118 T01460129 52010 IEM_DS3505
ZHHH,2001-03-23 16:00,ZHHH 231600Z AUTO 00000KT 2SM 14/13 A2985 RMK T01400130 IEM_DS3505
ZHHH,2001-03-23 17:00,ZHHH 231700Z AUTO 2SM 14/13 A2985 RMK T01400130 IEM_DS3505
ZHHH,2001-03-23 18:00,ZHHH 231800Z AUTO 00000KT 6SM 14/13 A2983 RMK 60000 SLP105 T01450129 57013 IEM_DS3505
ZHHH,2001-03-23 19:00,ZHHH 231900Z AUTO 2SM 14/13 A2983 RMK T01400130 IEM_DS3505
ZHHH,2001-03-23 20:00,ZHHH 232000Z AUTO 35002KT 2SM 14/13 A2980 RMK T01400130 IEM_DS3505
ZHHH,2001-03-23 21:00,ZHHH 232100Z AUTO 00000KT 6SM 14/13 A2977 RMK 70002 SLP086 T01420132 57019 IEM_DS3505
ZHHH,2001-03-23 22:00,ZHHH 232200Z AUTO 1 1/2SM 14/13 A2980 RMK T01400130 IEM_DS3505
ZHHH,2001-03-23 23:00,ZHHH 232300Z AUTO 34010KT 1 1/2SM 13/12 A2985 RMK T01300120 IEM_DS3505
ZHHH,2001-03-24 00:00,ZHHH 240000Z AUTO 29004KT 6SM 12/12 A2985 RMK 60031 SLP112 T01250125 52026 IEM_DS3505
ZHHH,2001-03-24 01:00,ZHHH 240100Z AUTO 36006KT 1 1/2SM 12/12 A2985 RMK T01200120 IEM_DS3505
ZHHH,2001-03-24 02:00,ZHHH 240200Z AUTO 35008KT 1 1/2SM 12/12 A2985 RMK T01200120 IEM_DS3505
ZHHH,2001-03-24 03:00,ZHHH 240300Z AUTO 29006KT 6SM 12/12 A2985 RMK SLP115 T01190119 52003 IEM_DS3505
ZHHH,2001-03-24 04:00,ZHHH 240400Z AUTO 31008KT 1 1/4SM 12/12 A2983 RMK T01200120 IEM_DS3505
ZHHH,2001-03-24 05:00,ZHHH 240500Z AUTO 33006KT 1 1/2SM 12/12 A2983 RMK T01200120 IEM_DS3505
ZHHH,2001-03-24 06:00,ZHHH 240600Z AUTO 27002KT 6SM 13/13 A2980 RMK 60051 SLP093 T01330130 57022 IEM_DS3505
ZHHH,2001-03-24 07:00,ZHHH 240700Z AUTO 31010KT 3SM 15/14 A2977 RMK T01500140 IEM_DS3505
ZHHH,2001-03-24 08:00,ZHHH 240800Z AUTO 33012KT 7SM 17/13 A2977 RMK T01700130 IEM_DS3505
ZHHH,2001-03-24 09:00,ZHHH 240900Z AUTO 29002KT 7SM 16/13 A2977 RMK SLP090 T01650127 57003 IEM_DS3505
ZHHH,2001-03-24 10:00,ZHHH 241000Z AUTO 30004KT 6SM 16/14 A2980 RMK T01600140 IEM_DS3505
ZHHH,2001-03-24 11:00,ZHHH 241100Z AUTO 6SM 15/13 A2983 RMK T01500130 IEM_DS3505
ZHHH,2001-03-24 12:00,ZHHH 241200Z AUTO 00000KT 7SM 15/14 A2983 RMK 60000 SLP109 T01530135 52019 IEM_DS3505
ZHHH,2001-03-24 13:00,ZHHH 241300Z AUTO 6SM 15/13 A2988 RMK T01500130 IEM_DS3505
ZHHH,2001-03-24 14:00,ZHHH 241400Z AUTO 6SM 14/13 A2988 RMK T01400130 IEM_DS3505
ZHHH,2001-03-24 15:00,ZHHH 241500Z AUTO 00000KT 7SM 14/14 A2991 RMK SLP125 T01440135 52016 IEM_DS3505
ZHHH,2001-03-24 16:00,ZHHH 241600Z AUTO 26002KT 6SM 14/13 A2988 RMK T01400130 IEM_DS3505
ZHHH,2001-03-24 17:00,ZHHH 241700Z AUTO 20006KT 6SM 13/13 A2985 RMK T01300130 IEM_DS3505
ZHHH,2001-03-24 18:00,ZHHH 241800Z AUTO 29002KT 7SM 13/13 A2988 RMK SLP119 T01330133 57006 IEM_DS3505
ZHHH,2001-03-24 19:00,ZHHH 241900Z AUTO 34002KT 2 1/2SM 13/12 A2988 RMK T01300120 IEM_DS3505
ZHHH,2001-03-24 20:00,ZHHH 242000Z AUTO 29006KT 1 1/2SM 13/13 A2988 RMK T01300130 IEM_DS3505
ZHHH,2001-03-24 21:00,ZHHH 242100Z AUTO 00000KT 7SM 13/13 A2988 RMK 70080 SLP126 T01320129 52007 IEM_DS3505
ZHHH,2001-03-24 22:00,ZHHH 242200Z AUTO 21004KT 1 1/2SM 13/13 A2991 RMK T01300130 IEM_DS3505
ZHHH,2001-03-24 23:00,ZHHH 242300Z AUTO 00000KT 1 1/4SM 12/12 A2988 RMK T01200120 IEM_DS3505
ZHHH,2001-03-25 00:00,ZHHH 250000Z AUTO 18002KT 9SM 14/13 A2991 RMK T01350133 IEM_DS3505
ZHHH,2001-03-25 01:00,ZHHH 250100Z AUTO 00000KT 1 1/4SM 14/13 A2994 RMK T01400130 IEM_DS3505
ZHHH,2001-03-25 02:00,ZHHH 250200Z AUTO 2SM 15/13 A2994 RMK T01500130 IEM_DS3505
ZHHH,2001-03-25 03:00,ZHHH 250300Z AUTO 36002KT 9SM 16/13 A2997 RMK SLP147 T01570134 52018 IEM_DS3505
ZHHH,2001-03-25 04:00,ZHHH 250400Z AUTO 2 1/2SM 16/13 A2994 RMK T01600130 IEM_DS3505
ZHHH,2001-03-25 05:00,ZHHH 250500Z AUTO 3SM 17/14 A2994 RMK T01700140 IEM_DS3505
ZHHH,2001-03-25 06:00,ZHHH 250600Z AUTO 32002KT 11SM 19/14 A2991 RMK SLP128 T01910136 57019 IEM_DS3505
ZHHH,2001-03-25 07:00,ZHHH 250700Z AUTO 04012KT 2SM 21/09 A2988 RMK T02100090 IEM_DS3505
ZHHH,2001-03-25 08:00,ZHHH 250800Z AUTO 02008KT 1 1/2SM 20/09 A2988 RMK T02000090 IEM_DS3505
ZHHH,2001-03-25 09:00,ZHHH 250900Z AUTO 02002KT 11SM 20/10 A2988 RMK SLP120 T01980099 57008 IEM_DS3505
ZHHH,2001-03-25 10:00,ZHHH 251000Z AUTO 01004KT 2SM 19/12 A2988 RMK T01900120 IEM_DS3505
ZHHH,2001-03-25 11:00,ZHHH 251100Z AUTO 1 1/2SM 18/13 A2988 RMK T01800130 IEM_DS3505
ZHHH,2001-03-25 12:00,ZHHH 251200Z AUTO 32002KT 7SM 17/12 A2991 RMK SLP125 T01710124 52005 IEM_DS3505
ZHHH,2001-03-25 13:00,ZHHH 251300Z AUTO 05006KT 1 1/2SM 16/13 A2991 RMK T01600130 IEM_DS3505
ZHHH,2001-03-25 14:00,ZHHH 251400Z AUTO 1 1/4SM 15/13 A2991 RMK T01500130 IEM_DS3505
ZHHH,2001-03-25 15:00,ZHHH 251500Z AUTO 02002KT 7SM 16/13 A2991 RMK SLP136 T01570132 52011 IEM_DS3505
ZHHH,2001-03-25 16:00,ZHHH 251600Z AUTO 1 1/4SM 14/13 A2994 RMK T01400130 IEM_DS3505
ZHHH,2001-03-25 17:00,ZHHH 251700Z AUTO 00000KT 1 1/4SM 13/12 A2991 RMK T01300120 IEM_DS3505
ZHHH,2001-03-25 18:00,ZHHH 251800Z AUTO 00000KT 9SM 14/13 A2991 RMK SLP130 T01370127 57006 IEM_DS3505
ZHHH,2001-03-25 19:00,ZHHH 251900Z AUTO 07004KT 1 1/2SM 13/12 A2991 RMK T01300120 IEM_DS3505
ZHHH,2001-03-25 20:00,ZHHH 252000Z AUTO 07004KT 1 1/2SM 12/11 A2988 RMK T01200110 IEM_DS3505
ZHHH,2001-03-25 21:00,ZHHH 252100Z AUTO 00000KT 9SM 13/13 A2988 RMK SLP123 T01300126 57007 IEM_DS3505
ZHHH,2001-03-25 22:00,ZHHH 252200Z AUTO 1/8SM 11/11 A2988 RMK T01100110 IEM_DS3505
ZHHH,2001-03-25 23:00,ZHHH 252300Z AUTO 09006KT 1/8SM 11/11 A2988 RMK T01100110 IEM_DS3505
ZHHH,2001-03-26 00:00,ZHHH 260000Z AUTO 09002KT 3/8SM 12/12 A2991 RMK SLP132 T01220121 52009 IEM_DS3505
ZHHH,2001-03-26 01:00,ZHHH 260100Z AUTO 13008KT 1/8SM 13/13 A2991 RMK T01300130 IEM_DS3505
ZHHH,2001-03-26 02:00,ZHHH 260200Z AUTO 14006KT 1/4SM 13/13 A2991 RMK T01300130 IEM_DS3505
ZHHH,2001-03-26 03:00,ZHHH 260300Z AUTO 18002KT 7SM 17/15 A2988 RMK SLP127 T01700148 57005 IEM_DS3505
ZHHH,2001-03-26 04:00,ZHHH 260400Z AUTO 12006KT 1 1/4SM 18/15 A2985 RMK T01800150 IEM_DS3505
ZHHH,2001-03-26 05:00,ZHHH 260500Z AUTO 16006KT 1 1/2SM 19/15 A2983 RMK T01900150 IEM_DS3505
ZHHH,2001-03-26 06:00,ZHHH 260600Z AUTO 20004KT 7SM 21/14 A2980 RMK SLP095 T02100141 57032 IEM_DS3505
ZHHH,2001-03-26 07:00,ZHHH 260700Z AUTO 18006KT 1 1/2SM 20/13 A2977 RMK T02000130 IEM_DS3505
ZHHH,2001-03-26 08:00,ZHHH 260800Z AUTO 20006KT 2SM 21/12 A2977 RMK T02100120 IEM_DS3505
ZHHH,2001-03-26 09:00,ZHHH 260900Z AUTO 16002KT 9SM 22/13 A2974 RMK SLP071 T02160133 57024 IEM_DS3505
ZHHH,2001-03-26 10:00,ZHHH 261000Z AUTO 2 1/2SM 20/13 A2974 RMK T02000130 IEM_DS3505
ZHHH,2001-03-26 11:00,ZHHH 261100Z AUTO 2 1/2SM 19/13 A2974 RMK T01900130 IEM_DS3505
ZHHH,2001-03-26 12:00,ZHHH 261200Z AUTO 00000KT 6SM 19/11 A2977 RMK SLP081 T01880110 52010 IEM_DS3505
ZHHH,2001-03-26 13:00,ZHHH 261300Z AUTO 1 1/2SM 18/13 A2980 RMK T01800130 IEM_DS3505
ZHHH,2001-03-26 14:00,ZHHH 261400Z AUTO 07004KT 1 1/2SM 17/13 A2980 RMK T01700130 IEM_DS3505
ZHHH,2001-03-26 15:00,ZHHH 261500Z AUTO 36002KT 6SM 17/13 A2980 RMK SLP089 T01740126 52008 IEM_DS3505
ZHHH,2001-03-26 16:00,ZHHH 261600Z AUTO 08002KT 1 1/2SM 16/13 A2977 RMK T01600130 IEM_DS3505
ZHHH,2001-03-26 17:00,ZHHH 261700Z AUTO 00000KT 1 1/2SM 16/13 A2977 RMK T01600130 IEM_DS3505
ZHHH,2001-03-26 18:00,ZHHH 261800Z AUTO 00000KT 7SM 16/14 A2977 RMK SLP084 T01630139 57005 IEM_DS3505
ZHHH,2001-03-26 19:00,ZHHH 261900Z AUTO 06006KT 2SM 14/13 A2977 RMK T01400130 IEM_DS3505
ZHHH,2001-03-26 20:00,ZHHH 262000Z AUTO 04012KT 2SM 14/12 A2980 RMK T01400120 IEM_DS3505
ZHHH,2001-03-26 21:00,ZHHH 262100Z AUTO 04006KT 7SM 15/12 A2980 RMK SLP092 T01460121 52008 IEM_DS3505
ZHHH,2001-03-26 22:00,ZHHH 262200Z AUTO 06012KT 2 1/2SM 13/10 A2980 RMK T01300100 IEM_DS3505
ZHHH,2001-03-26 23:00,ZHHH 262300Z AUTO 07008KT 4SM 13/09 A2980 RMK T01300090 IEM_DS3505
ZHHH,2001-03-27 00:00,ZHHH 270000Z AUTO 04004KT 9SM 14/11 A2983 RMK SLP102 T01410108 52010 IEM_DS3505
ZHHH,2001-03-27 01:00,ZHHH 270100Z AUTO 02006KT 3SM 15/10 A2985 RMK T01500100 IEM_DS3505
ZHHH,2001-03-27 02:00,ZHHH 270200Z AUTO 33008KT 3SM 16/11 A2985 RMK T01600110 IEM_DS3505
ZHHH,2001-03-27 03:00,ZHHH 270300Z AUTO 32002KT 11SM 18/12 A2985 RMK SLP118 T01810118 52016 IEM_DS3505
ZHHH,2001-03-27 04:00,ZHHH 270400Z AUTO 02008KT 19/10 A2985 RMK T01900100 IEM_DS3505
ZHHH,2001-03-27 05:00,ZHHH 270500Z AUTO 05016KT 19/11 A2985 RMK T01900110 IEM_DS3505
ZHHH,2001-03-27 06:00,ZHHH 270600Z AUTO 04006KT 11SM 20/11 A2985 RMK SLP110 T02000114 57008 IEM_DS3505
ZHHH,2001-03-27 07:00,ZHHH 270700Z AUTO 05019KT 18/10 A2985 RMK T01800100 IEM_DS3505
ZHHH,2001-03-27 08:00,ZHHH 270800Z AUTO 04019KT 17/10 A2988 RMK T01700100 IEM_DS3505
ZHHH,2001-03-27 09:00,ZHHH 270900Z AUTO 04008KT 11SM 17/09 A2991 RMK SLP125 T01680093 52015 IEM_DS3505
ZHHH,2001-03-27 10:00,ZHHH 271000Z AUTO 03016KT 15/09 A2994 RMK T01500090 IEM_DS3505
ZHHH,2001-03-27 11:00,ZHHH 271100Z AUTO 04010KT 3SM 13/07 A2997 RMK T01300070 IEM_DS3505
ZHHH,2001-03-27 12:00,ZHHH 271200Z AUTO 04008KT 9SM 13/06 A3000 RMK SLP160 T01310064 52035 IEM_DS3505
ZHHH,2001-03-27 13:00,ZHHH 271300Z AUTO 04010KT 2 1/2SM 11/06 A3003 RMK T01100060 IEM_DS3505
ZHHH,2001-03-27 14:00,ZHHH 271400Z AUTO 05010KT 2 1/2SM 10/06 A3006 RMK T01000060 IEM_DS3505
ZHHH,2001-03-27 15:00,ZHHH 271500Z AUTO 04002KT 9SM 11/07 A3006 RMK SLP183 T01060070 52023 IEM_DS3505
ZHHH,2001-03-27 18:00,ZHHH 271800Z AUTO 04006KT 9SM 09/05 RMK SLP185 T00860054 52002 IEM_DS3505
ZHHH,2001-03-27 20:00,ZHHH 272000Z AUTO 03012KT 4SM 07/04 A3006 RMK T00700040 IEM_DS3505
ZHHH,2001-03-27 21:00,ZHHH 272100Z AUTO 02004KT 9SM 07/04 A3006 RMK SLP181 T00730039 57004 IEM_DS3505
ZHHH,2001-03-27 22:00,ZHHH 272200Z AUTO 03014KT 6SM 06/01 A3006 RMK T00600010 IEM_DS3505
ZHHH,2001-03-27 23:00,ZHHH 272300Z AUTO 02012KT 6SM 06/02 A3009 RMK T00600020 IEM_DS3505
ZHHH,2001-03-28 00:00,ZHHH 280000Z AUTO 04002KT 9SM 07/03 RMK SLP199 T00740029 52017 IEM_DS3505
ZHHH,2001-03-28 01:00,ZHHH 280100Z AUTO 02008KT 6SM 07/02 A3015 RMK T00700020 IEM_DS3505
ZHHH,2001-03-28 02:00,ZHHH 280200Z AUTO 04012KT 6SM 07/02 A3018 RMK T00700020 IEM_DS3505
ZHHH,2001-03-28 03:00,ZHHH 280300Z AUTO 02002KT 9SM 08/03 A3018 RMK SLP228 T00810031 52029 IEM_DS3505
ZHHH,2001-03-28 04:00,ZHHH 280400Z AUTO 18008KT 7SM 08/03 A3012 RMK T00800030 IEM_DS3505
ZHHH,2001-03-28 05:00,ZHHH 280500Z AUTO 34006KT 7SM 08/03 A3015 RMK T00800030 IEM_DS3505
ZHHH,2001-03-28 06:00,ZHHH 280600Z AUTO 11002KT 9SM 09/05 A3012 RMK 60003 SLP210 T00880046 57018 IEM_DS3505
ZHHH,2001-03-28 07:00,ZHHH 280700Z AUTO 6SM 09/03 A3012 RMK T00900030 IEM_DS3505
ZHHH,2001-03-28 08:00,ZHHH 280800Z AUTO 6SM 09/04 A3009 RMK T00900040 IEM_DS3505
ZHHH,2001-03-28 09:00,ZHHH 280900Z AUTO 00000KT 9SM 09/04 A3009 RMK SLP195 T00920044 57015 IEM_DS3505
ZHHH,2001-03-28 10:00,ZHHH 281000Z AUTO 6SM 09/04 A3009 RMK T00900040 IEM_DS3505
ZHHH,2001-03-28 11:00,ZHHH 281100Z AUTO 23002KT 6SM 08/04 A3012 RMK T00800040 IEM_DS3505
ZHHH,2001-03-28 12:00,ZHHH 281200Z AUTO 29002KT 9SM 09/05 A3015 RMK SLP220 T00870047 52025 IEM_DS3505
ZHHH,2001-03-28 13:00,ZHHH 281300Z AUTO 28004KT 6SM 08/05 A3021 RMK T00800050 IEM_DS3505
ZHHH,2001-03-28 14:00,ZHHH 281400Z AUTO 6SM 07/05 A3021 RMK T00700050 IEM_DS3505
ZHHH,2001-03-28 15:00,ZHHH 281500Z AUTO 00000KT 9SM 08/05 A3018 RMK SLP229 T00760046 52009 IEM_DS3505
ZHHH,2001-03-28 16:00,ZHHH 281600Z AUTO 22002KT 6SM 07/04 A3018 RMK T00700040 IEM_DS3505
ZHHH,2001-03-28 17:00,ZHHH 281700Z AUTO 22004KT 6SM 06/05 A3018 RMK T00600050 IEM_DS3505
ZHHH,2001-03-28 18:00,ZHHH 281800Z AUTO 27002KT 11SM 07/06 A3018 RMK SLP219 T00670059 57010 IEM_DS3505
ZHHH,2001-03-28 19:00,ZHHH 281900Z AUTO 23002KT 2 1/2SM 06/05 A3015 RMK T00600050 IEM_DS3505
ZHHH,2001-03-28 20:00,ZHHH 282000Z AUTO 22002KT 2 1/2SM 06/05 A3012 RMK T00600050 IEM_DS3505
ZHHH,2001-03-28 21:00,ZHHH 282100Z AUTO 00000KT 11SM 06/06 A3012 RMK 70003 SLP203 T00600058 57016 IEM_DS3505
ZHHH,2001-03-28 22:00,ZHHH 282200Z AUTO 17002KT 1 1/4SM 06/05 A3012 RMK T00600050 IEM_DS3505
ZHHH,2001-03-28 23:00,ZHHH 282300Z AUTO 18004KT 1SM 06/05 A3012 RMK T00600050 IEM_DS3505
ZHHH,2001-03-29 00:00,ZHHH 290000Z AUTO 25002KT 9SM 09/08 A3012 RMK 70003 SLP209 T00860077 52006 IEM_DS3505
ZHHH,2001-03-29 01:00,ZHHH 290100Z AUTO 21010KT 4SM 10/07 A3015 RMK T01000070 IEM_DS3505
ZHHH,2001-03-29 02:00,ZHHH 290200Z AUTO 22010KT 6SM 11/08 A3012 RMK T01100080 IEM_DS3505
ZHHH,2001-03-29 03:00,ZHHH 290300Z AUTO 22004KT 9SM 14/08 A3012 RMK SLP201 T01350083 57008 IEM_DS3505
ZHHH,2001-03-29 04:00,ZHHH 290400Z AUTO 23010KT 7SM 14/09 A3009 RMK T01400090 IEM_DS3505
ZHHH,2001-03-29 05:00,ZHHH 290500Z AUTO 24012KT 7SM 14/09 A3006 RMK T01400090 IEM_DS3505
ZHHH,2001-03-29 06:00,ZHHH 290600Z AUTO 25006KT 12SM 17/10 A3000 RMK SLP161 T01740095 57039 IEM_DS3505
ZHHH,2001-03-29 07:00,ZHHH 290700Z AUTO 23010KT 7SM 17/09 A2997 RMK T01700090 IEM_DS3505
ZHHH,2001-03-29 08:00,ZHHH 290800Z AUTO 22012KT 7SM 18/10 A2991 RMK T01800100 IEM_DS3505
ZHHH,2001-03-29 09:00,ZHHH 290900Z AUTO 27004KT 12SM 18/09 A2991 RMK SLP128 T01850091 57033 IEM_DS3505
ZHHH,2001-03-29 10:00,ZHHH 291000Z AUTO 24014KT 6SM 17/07 A2991 RMK T01700070 IEM_DS3505
ZHHH,2001-03-29 11:00,ZHHH 291100Z AUTO 24008KT 6SM 15/09 A2991 RMK T01500090 IEM_DS3505
ZHHH,2001-03-29 12:00,ZHHH 291200Z AUTO 27002KT 11SM 15/09 A2991 RMK SLP130 T01520093 52002 IEM_DS3505
ZHHH,2001-03-29 13:00,ZHHH 291300Z AUTO 6SM 15/09 A2991 RMK T01500090 IEM_DS3505
ZHHH,2001-03-29 14:00,ZHHH 291400Z AUTO 6SM 14/10 A2991 RMK T01400100 IEM_DS3505
ZHHH,2001-03-29 15:00,ZHHH 291500Z AUTO 11002KT 9SM 14/10 A2991 RMK SLP133 T01400101 52003 IEM_DS3505
ZHHH,2001-03-29 16:00,ZHHH 291600Z AUTO 6SM 12/10 A2991 RMK T01200100 IEM_DS3505
ZHHH,2001-03-29 17:00,ZHHH 291700Z AUTO 14006KT 6SM 13/11 A2991 RMK T01300110 IEM_DS3505
ZHHH,2001-03-29 18:00,ZHHH 291800Z AUTO 00000KT 9SM 12/11 A2991 RMK SLP131 T01200108 57002 IEM_DS3505
ZHHH,2001-03-29 19:00,ZHHH 291900Z AUTO 6SM 11/10 A2991 RMK T01100100 IEM_DS3505
ZHHH,2001-03-29 20:00,ZHHH 292000Z AUTO 12004KT 3SM 11/10 A2991 RMK T01100100 IEM_DS3505
ZHHH,2001-03-29 21:00,ZHHH 292100Z AUTO 00000KT 9SM 11/10 A2991 RMK SLP130 T01100105 57001 IEM_DS3505
ZHHH,2001-03-29 22:00,ZHHH 292200Z AUTO 11008KT 3SM 10/09 A2991 RMK T01000090 IEM_DS3505
ZHHH,2001-03-29 23:00,ZHHH 292300Z AUTO 12006KT 1 1/2SM 10/09 A2991 RMK T01000090 IEM_DS3505
ZHHH,2001-03-30 00:00,ZHHH 300000Z AUTO 09002KT 12SM 14/11 A2994 RMK SLP139 T01350112 52009 IEM_DS3505
ZHHH,2001-03-30 01:00,ZHHH 300100Z AUTO 11008KT 4SM 14/10 A2994 RMK T01400100 IEM_DS3505
ZHHH,2001-03-30 02:00,ZHHH 300200Z AUTO 11008KT 6SM 16/10 A2997 RMK T01600100 IEM_DS3505
ZHHH,2001-03-30 03:00,ZHHH 300300Z AUTO 18004KT 12SM 20/07 A2997 RMK SLP148 T01970068 52009 IEM_DS3505
ZHHH,2001-03-30 04:00,ZHHH 300400Z AUTO 6SM 20/07 A2997 RMK T02000070 IEM_DS3505
ZHHH,2001-03-30 05:00,ZHHH 300500Z AUTO 6SM 21/08 A2994 RMK T02100080 IEM_DS3505
ZHHH,2001-03-30 06:00,ZHHH 300600Z AUTO 04004KT 11SM 22/08 A2991 RMK SLP133 T02210077 57015 IEM_DS3505
ZHHH,2001-03-30 07:00,ZHHH 300700Z AUTO 6SM 22/09 A2991 RMK T02200090 IEM_DS3505
ZHHH,2001-03-30 08:00,ZHHH 300800Z AUTO 6SM 22/09 A2988 RMK T02200090 IEM_DS3505
ZHHH,2001-03-30 09:00,ZHHH 300900Z AUTO 36002KT 11SM 23/09 A2991 RMK SLP126 T02270086 57007 IEM_DS3505
ZHHH,2001-03-30 10:00,ZHHH 301000Z AUTO 6SM 21/10 A2991 RMK T02100100 IEM_DS3505
ZHHH,2001-03-30 11:00,ZHHH 301100Z AUTO 04002KT 6SM 20/10 A2994 RMK T02000100 IEM_DS3505
ZHHH,2001-03-30 12:00,ZHHH 301200Z AUTO 07002KT 11SM 19/12 A2997 RMK SLP148 T01880118 52022 IEM_DS3505
ZHHH,2001-03-30 13:00,ZHHH 301300Z AUTO 05012KT 6SM 16/11 A3000 RMK T01600110 IEM_DS3505
ZHHH,2001-03-30 14:00,ZHHH 301400Z AUTO 06012KT 6SM 15/10 A3003 RMK T01500100 IEM_DS3505
ZHHH,2001-03-30 15:00,ZHHH 301500Z AUTO 07004KT 11SM 16/10 A3003 RMK SLP170 T01560102 52022 IEM_DS3505
ZHHH,2001-03-30 16:00,ZHHH 301600Z AUTO 05016KT 6SM 14/09 A3003 RMK T01400090 IEM_DS3505
ZHHH,2001-03-30 17:00,ZHHH 301700Z AUTO 05017KT 6SM 14/10 A3006 RMK T01400100 IEM_DS3505
ZHHH,2001-03-30 18:00,ZHHH 301800Z AUTO 04002KT 9SM 14/10 A3009 RMK SLP191 T01350104 52021 IEM_DS3505
ZHHH,2001-03-30 19:00,ZHHH 301900Z AUTO 05012KT 6SM 12/09 A3009 RMK T01200090 IEM_DS3505
ZHHH,2001-03-30 20:00,ZHHH 302000Z AUTO 04006KT 6SM 11/08 A3009 RMK T01100080 IEM_DS3505
ZHHH,2001-03-30 21:00,ZHHH 302100Z AUTO 04004KT 9SM 12/09 A3012 RMK SLP198 T01190087 52007 IEM_DS3505
ZHHH,2001-03-30 22:00,ZHHH 302200Z AUTO 04006KT 6SM 10/07 A3012 RMK T01000070 IEM_DS3505
ZHHH,2001-03-30 23:00,ZHHH 302300Z AUTO 05008KT 6SM 10/06 A3015 RMK T01000060 IEM_DS3505
ZHHH,2001-03-31 00:00,ZHHH 310000Z AUTO 09004KT 11SM 12/08 A3018 RMK SLP219 T01250084 52021 IEM_DS3505
ZHHH,2001-03-31 01:00,ZHHH 310100Z AUTO 08006KT 6SM 13/08 A3018 RMK T01300080 IEM_DS3505
ZHHH,2001-03-31 02:00,ZHHH 310200Z AUTO 6SM 15/08 A3021 RMK T01500080 IEM_DS3505
ZHHH,2001-03-31 03:00,ZHHH 310300Z AUTO 04006KT 12SM 15/09 A3021 RMK SLP230 T01530093 52011 IEM_DS3505
ZHHH,2001-03-31 04:00,ZHHH 310400Z AUTO 08006KT 6SM 16/09 A3021 RMK T01600090 IEM_DS3505
ZHHH,2001-03-31 05:00,ZHHH 310500Z AUTO 06006KT 6SM 18/10 A3018 RMK T01800100 IEM_DS3505
ZHHH,2001-03-31 06:00,ZHHH 310600Z AUTO 09004KT 9SM 19/12 A3015 RMK SLP210 T01880115 57020 IEM_DS3505
ZHHH,2001-03-31 07:00,ZHHH 310700Z AUTO 6SM 19/10 A3012 RMK T01900100 IEM_DS3505
ZHHH,2001-03-31 08:00,ZHHH 310800Z AUTO 03006KT 6SM 19/09 A3012 RMK T01900090 IEM_DS3505
ZHHH,2001-03-31 09:00,ZHHH 310900Z AUTO 04002KT 11SM 19/11 A3015 RMK SLP206 T01930110 57004 IEM_DS3505
ZHHH,2001-03-31 10:00,ZHHH 311000Z AUTO 04004KT 6SM 19/09 A3015 RMK T01900090 IEM_DS3505
ZHHH,2001-03-31 11:00,ZHHH 311100Z AUTO 6SM 17/07 A3015 RMK T01700070 IEM_DS3505
ZHHH,2001-03-31 12:00,ZHHH 311200Z AUTO 04002KT 11SM 17/09 A3015 RMK SLP214 T01720093 52008 IEM_DS3505
ZHHH,2001-03-31 13:00,ZHHH 311300Z AUTO 05012KT 6SM 15/06 A3018 RMK T01500060 IEM_DS3505
ZHHH,2001-03-31 14:00,ZHHH 311400Z AUTO 04008KT 6SM 14/06 A3018 RMK T01400060 IEM_DS3505
ZHHH,2001-03-31 15:00,ZHHH 311500Z AUTO 04002KT 11SM 14/06 RMK SLP226 T01410063 52012 IEM_DS3505
ZHHH,2001-03-31 16:00,ZHHH 311600Z AUTO 05008KT 6SM 12/05 A3018 RMK T01200050 IEM_DS3505
ZHHH,2001-03-31 18:00,ZHHH 311800Z AUTO 07002KT 7SM 12/07 A3018 RMK SLP218 T01230069 57008 IEM_DS3505
ZHHH,2001-03-31 19:00,ZHHH 311900Z AUTO 06004KT 6SM 10/05 A3015 RMK T01000050 IEM_DS3505
ZHHH,2001-03-31 20:00,ZHHH 312000Z AUTO 08006KT 6SM 10/06 A3015 RMK T01000060 IEM_DS3505
ZHHH,2001-03-31 21:00,ZHHH 312100Z AUTO 04002KT 7SM 11/07 A3012 RMK SLP206 T01090068 57012 IEM_DS3505
ZHHH,2001-03-31 22:00,ZHHH 312200Z AUTO 09006KT 6SM 09/06 A3015 RMK T00900060 IEM_DS3505
ZHHH,2001-03-31 23:00,ZHHH 312300Z AUTO 6SM 09/06 A3015 RMK T00900060 IEM_DS3505
ZHHH,2001-04-01 00:00,ZHHH 010000Z AUTO 09002KT 12SM 13/08 A3015 RMK SLP210 T01260081 52004 IEM_DS3505
ZHHH,2001-04-01 01:00,ZHHH 010100Z AUTO 10008KT 6SM 13/08 A3015 RMK T01300080 IEM_DS3505
ZHHH,2001-04-01 02:00,ZHHH 010200Z AUTO 13006KT 6SM 15/09 A3015 RMK T01500090 IEM_DS3505
ZHHH,2001-04-01 03:00,ZHHH 010300Z AUTO 07004KT 12SM 18/09 A3012 RMK SLP203 T01840091 57007 IEM_DS3505
ZHHH,2001-04-01 04:00,ZHHH 010400Z AUTO 14006KT 6SM 18/09 A3009 RMK T01800090 IEM_DS3505
ZHHH,2001-04-01 05:00,ZHHH 010500Z AUTO 10006KT 6SM 19/09 A3006 RMK T01900090 IEM_DS3505
ZHHH,2001-04-01 06:00,ZHHH 010600Z AUTO 09004KT 12SM 22/09 A3000 RMK SLP162 T02150086 57041 IEM_DS3505
ZHHH,2001-04-01 07:00,ZHHH 010700Z AUTO 11008KT 6SM 20/10 A2997 RMK T02000100 IEM_DS3505
ZHHH,2001-04-01 08:00,ZHHH 010800Z AUTO 11006KT 6SM 20/11 A2994 RMK T02000110 IEM_DS3505
ZHHH,2001-04-01 09:00,ZHHH 010900Z AUTO 02002KT 9SM 21/12 A2994 RMK SLP140 T02090118 57022 IEM_DS3505
ZHHH,2001-04-01 10:00,ZHHH 011000Z AUTO 6SM 19/12 A2994 RMK T01900120 IEM_DS3505
ZHHH,2001-04-01 11:00,ZHHH 011100Z AUTO 10004KT 6SM 19/12 A2994 RMK T01900120 IEM_DS3505
ZHHH,2001-04-01 12:00,ZHHH 011200Z AUTO 27002KT 6SM 19/13 A2994 RMK 60000 SLP144 T01920133 52004 IEM_DS3505
ZHHH,2001-04-01 13:00,ZHHH 011300Z AUTO 22004KT 3SM 17/14 A2997 RMK T01700140 IEM_DS3505
ZHHH,2001-04-01 14:00,ZHHH 011400Z AUTO 26008KT 2 1/2SM 16/15 A2997 RMK T01600150 IEM_DS3505
ZHHH,2001-04-01 15:00,ZHHH 011500Z AUTO 27002KT 6SM 16/16 A2994 RMK SLP145 T01600157 52001 IEM_DS3505
ZHHH,2001-04-01 16:00,ZHHH 011600Z AUTO 27004KT 1SM 15/15 A2994 RMK T01500150 IEM_DS3505
ZHHH,2001-04-01 17:00,ZHHH 011700Z AUTO 29006KT 1SM 15/15 A2991 RMK T01500150 IEM_DS3505
ZHHH,2001-04-01 18:00,ZHHH 011800Z AUTO 00000KT 6SM 15/15 A2991 RMK 60016 SLP126 T01540151 57019 IEM_DS3505
ZHHH,2001-04-01 19:00,ZHHH 011900Z AUTO 1SM 15/15 A2988 RMK T01500150 IEM_DS3505
ZHHH,2001-04-01 20:00,ZHHH 012000Z AUTO 1SM 15/15 A2985 RMK T01500150 IEM_DS3505
ZHHH,2001-04-01 21:00,ZHHH 012100Z AUTO 00000KT 6SM 14/14 A2985 RMK T01400140 IEM_DS3505
ZHHH,2001-04-01 22:00,ZHHH 012200Z AUTO 00000KT 1SM 14/14 A2985 RMK T01400140 IEM_DS3505
ZHHH,2001-04-01 23:00,ZHHH 012300Z AUTO 00000KT 1SM 14/14 A2988 RMK T01400140 IEM_DS3505
ZHHH,2001-04-02 00:00,ZHHH 020000Z AUTO 00000KT 7SM 16/15 A2988 RMK 60000 SLP119 T01560149 52005 IEM_DS3505
ZHHH,2001-04-02 01:00,ZHHH 020100Z AUTO 00000KT 1SM 15/15 A2988 RMK T01500150 IEM_DS3505
ZHHH,2001-04-02 02:00,ZHHH 020200Z AUTO 1 1/4SM 15/15 A2988 RMK T01500150 IEM_DS3505
ZHHH,2001-04-02 03:00,ZHHH 020300Z AUTO 07002KT 7SM 16/15 A2988 RMK SLP126 T01570150 52007 IEM_DS3505
ZHHH,2001-04-02 04:00,ZHHH 020400Z AUTO 00000KT 1 1/4SM 15/15 A2988 RMK T01500150 IEM_DS3505
ZHHH,2001-04-02 05:00,ZHHH 020500Z AUTO 1 1/2SM 16/15 A2985 RMK T01600150 IEM_DS3505
ZHHH,2001-04-02 06:00,ZHHH 020600Z AUTO 04002KT 6SM 16/15 A2983 RMK SLP106 T01620154 57020 IEM_DS3505
ZHHH,2001-04-02 07:00,ZHHH 020700Z AUTO 00000KT 1SM 16/15 A2983 RMK T01600150 IEM_DS3505
ZHHH,2001-04-02 08:00,ZHHH 020800Z AUTO 36004KT 1 1/4SM 16/15 A2980 RMK T01600150 IEM_DS3505
ZHHH,2001-04-02 09:00,ZHHH 020900Z AUTO 36002KT 6SM 17/16 A2980 RMK SLP096 T01710156 57010 IEM_DS3505
ZHHH,2001-04-02 10:00,ZHHH 021000Z AUTO 00000KT 1 1/2SM 17/15 A2980 RMK T01700150 IEM_DS3505
ZHHH,2001-04-02 11:00,ZHHH 021100Z AUTO 00000KT 1SM 16/15 A2983 RMK T01600150 IEM_DS3505
ZHHH,2001-04-02 12:00,ZHHH 021200Z AUTO 36002KT 6SM 16/16 A2983 RMK SLP106 T01640156 52010 IEM_DS3505
ZHHH,2001-04-02 13:00,ZHHH 021300Z AUTO 00000KT 1 1/2SM 15/15 A2988 RMK T01500150 IEM_DS3505
ZHHH,2001-04-02 14:00,ZHHH 021400Z AUTO 02004KT 1 1/2SM 15/15 A2988 RMK T01500150 IEM_DS3505
ZHHH,2001-04-02 15:00,ZHHH 021500Z AUTO 00000KT 6SM 15/15 A2988 RMK SLP124 T01530153 52018 IEM_DS3505
ZHHH,2001-04-02 16:00,ZHHH 021600Z AUTO 2SM 15/15 A2991 RMK T01500150 IEM_DS3505
ZHHH,2001-04-02 17:00,ZHHH 021700Z AUTO 00000KT 2SM 15/14 A2988 RMK T01500140 IEM_DS3505
ZHHH,2001-04-02 18:00,ZHHH 021800Z AUTO 36002KT 7SM 15/15 A2988 RMK SLP120 T01510150 57004 IEM_DS3505
ZHHH,2001-04-02 19:00,ZHHH 021900Z AUTO 02004KT 1SM 14/14 A2988 RMK T01400140 IEM_DS3505
ZHHH,2001-04-02 20:00,ZHHH 022000Z AUTO 02006KT 1SM 13/13 A2988 RMK T01300130 IEM_DS3505
ZHHH,2001-04-02 21:00,ZHHH 022100Z AUTO 02002KT 7SM 14/14 A2988 RMK 70000 SLP125 T01410141 52005 IEM_DS3505
ZHHH,2001-04-02 22:00,ZHHH 022200Z AUTO 01004KT 1SM 14/14 A2991 RMK T01400140 IEM_DS3505
ZHHH,2001-04-02 23:00,ZHHH 022300Z AUTO 00000KT 1SM 13/13 A2994 RMK T01300130 IEM_DS3505
ZHHH,2001-04-03 00:00,ZHHH 030000Z AUTO 02002KT 7SM 14/14 A2997 RMK SLP152 T01420140 52027 IEM_DS3505
ZHHH,2001-04-03 01:00,ZHHH 030100Z AUTO 04012KT 1 1/4SM 16/15 A2997 RMK T01600150 IEM_DS3505
ZHHH,2001-04-03 02:00,ZHHH 030200Z AUTO 06016KT 2 1/2SM 19/16 A3000 RMK T01900160 IEM_DS3505
ZHHH,2001-04-03 03:00,ZHHH 030300Z AUTO 04002KT 11SM 20/16 A3000 RMK SLP161 T02010163 52009 IEM_DS3505
ZHHH,2001-04-03 04:00,ZHHH 030400Z AUTO 06014KT 4SM 21/16 A3000 RMK T02100160 IEM_DS3505
ZHHH,2001-04-03 05:00,ZHHH 030500Z AUTO 06012KT 6SM 22/16 A2997 RMK T02200160 IEM_DS3505
ZHHH,2001-04-03 06:00,ZHHH 030600Z AUTO 07004KT 11SM 23/16 A2997 RMK SLP145 T02300159 57016 IEM_DS3505
ZHHH,2001-04-03 07:00,ZHHH 030700Z AUTO 03014KT 3SM 21/14 A2994 RMK T02100140 IEM_DS3505
ZHHH,2001-04-03 08:00,ZHHH 030800Z AUTO 02014KT 21/14 A2994 RMK T02100140 IEM_DS3505
ZHHH,2001-04-03 09:00,ZHHH 030900Z AUTO 36006KT 9SM 20/14 A2994 RMK SLP143 T01980137 57002 IEM_DS3505
ZHHH,2001-04-03 10:00,ZHHH 031000Z AUTO 03010G19KT 17/11 A2997 RMK T01700110 IEM_DS3505
ZHHH,2001-04-03 11:00,ZHHH 031100Z AUTO 02008G25KT 17/11 A3000 RMK T01700110 IEM_DS3505
ZHHH,2001-04-03 12:00,ZHHH 031200Z AUTO 04006KT 9SM 17/11 A3003 RMK SLP172 T01740114 52029 IEM_DS3505
ZHHH,2001-04-03 13:00,ZHHH 031300Z AUTO 06017KT 3SM 16/10 A3006 RMK T01600100 IEM_DS3505
ZHHH,2001-04-03 14:00,ZHHH 031400Z AUTO 06014KT 3SM 16/10 A3009 RMK T01600100 IEM_DS3505
ZHHH,2001-04-03 15:00,ZHHH 031500Z AUTO 07006KT 9SM 16/10 A3009 RMK SLP194 T01620105 52022 IEM_DS3505
ZHHH,2001-04-03 16:00,ZHHH 031600Z AUTO 07008KT 4SM 14/09 A3012 RMK T01400090 IEM_DS3505
ZHHH,2001-04-03 17:00,ZHHH 031700Z AUTO 04006KT 4SM 13/09 A3009 RMK T01300090 IEM_DS3505
ZHHH,2001-04-03 18:00,ZHHH 031800Z AUTO 07002KT 9SM 14/09 A3009 RMK SLP191 T01440092 57003 IEM_DS3505
ZHHH,2001-04-03 19:00,ZHHH 031900Z AUTO 03006KT 4SM 12/08 A3006 RMK T01200080 IEM_DS3505
ZHHH,2001-04-03 20:00,ZHHH 032000Z AUTO 05008KT 4SM 12/07 A3006 RMK T01200070 IEM_DS3505
ZHHH,2001-04-03 21:00,ZHHH 032100Z AUTO 00000KT 9SM 12/08 A3006 RMK SLP186 T01250084 57005 IEM_DS3505
ZHHH,2001-04-03 22:00,ZHHH 032200Z AUTO 05006KT 6SM 10/07 A3009 RMK T01000070 IEM_DS3505
ZHHH,2001-04-03 23:00,ZHHH 032300Z AUTO 05006KT 6SM 10/06 A3009 RMK T01000060 IEM_DS3505
ZHHH,2001-04-04 00:00,ZHHH 040000Z AUTO 07004KT 16SM 13/08 A3009 RMK SLP191 T01280075 52005 IEM_DS3505
ZHHH,2001-04-04 01:00,ZHHH 040100Z AUTO 06006KT 6SM 14/07 A3009 RMK T01400070 IEM_DS3505
ZHHH,2001-04-04 02:00,ZHHH 040200Z AUTO 6SM 16/07 A3009 RMK T01600070 IEM_DS3505
ZHHH,2001-04-04 03:00,ZHHH 040300Z AUTO 07002KT 12SM 17/08 A3009 RMK SLP195 T01740083 52004 IEM_DS3505
ZHHH,2001-04-04 04:00,ZHHH 040400Z AUTO 6SM 17/07 A3006 RMK T01700070 IEM_DS3505
ZHHH,2001-04-04 05:00,ZHHH 040500Z AUTO 6SM 19/06 A3003 RMK T01900060 IEM_DS3505
ZHHH,2001-04-04 06:00,ZHHH 040600Z AUTO 34004KT 14SM 20/04 A3003 RMK SLP164 T02050037 57031 IEM_DS3505
ZHHH,2001-04-04 07:00,ZHHH 040700Z AUTO 6SM 21/06 A3000 RMK T02100060 IEM_DS3505
ZHHH,2001-04-04 08:00,ZHHH 040800Z AUTO 6SM 21/04 A2997 RMK T02100040 IEM_DS3505
ZHHH,2001-04-04 09:00,ZHHH 040900Z AUTO 09004KT 12SM 21/04 RMK SLP145 T02140036 57019 IEM_DS3505
ZHHH,2001-04-04 10:00,ZHHH 041000Z AUTO 6SM 20/03 A2994 RMK T02000030 IEM_DS3505
ZHHH,2001-04-04 11:00,ZHHH 041100Z AUTO 6SM 19/06 A2997 RMK T01900060 IEM_DS3505
ZHHH,2001-04-04 12:00,ZHHH 041200Z AUTO 00000KT 11SM 18/09 A2997 RMK SLP152 T01800088 52007 IEM_DS3505
ZHHH,2001-04-04 13:00,ZHHH 041300Z AUTO 6SM 18/07 A3000 RMK T01800070 IEM_DS3505
ZHHH,2001-04-04 14:00,ZHHH 041400Z AUTO 6SM 18/08 A3000 RMK T01800080 IEM_DS3505
ZHHH,2001-04-04 15:00,ZHHH 041500Z AUTO 00000KT 11SM 17/10 A3000 RMK SLP164 T01740101 52012 IEM_DS3505
ZHHH,2001-04-04 16:00,ZHHH 041600Z AUTO 6SM 17/10 A3003 RMK T01700100 IEM_DS3505
ZHHH,2001-04-04 17:00,ZHHH 041700Z AUTO 00000KT 6SM 16/09 A3000 RMK T01600090 IEM_DS3505
ZHHH,2001-04-04 18:00,ZHHH 041800Z AUTO 36002KT 9SM 16/11 A3000 RMK SLP161 T01630111 57003 IEM_DS3505
ZHHH,2001-04-04 19:00,ZHHH 041900Z AUTO 12002KT 6SM 16/08 A2997 RMK T01600080 IEM_DS3505
ZHHH,2001-04-04 20:00,ZHHH 042000Z AUTO 6SM 15/09 A2997 RMK T01500090 IEM_DS3505
ZHHH,2001-04-04 21:00,ZHHH 042100Z AUTO 00000KT 6SM 14/12 A2997 RMK SLP153 T01390120 57008 IEM_DS3505
ZHHH,2001-04-04 22:00,ZHHH 042200Z AUTO 11006KT 6SM 13/10 A2997 RMK T01300100 IEM_DS3505
ZHHH,2001-04-04 23:00,ZHHH 042300Z AUTO 4SM 13/11 A3000 RMK T01300110 IEM_DS3505
ZHHH,2001-04-05 00:00,ZHHH 050000Z AUTO 14002KT 9SM 17/13 A3000 RMK SLP164 T01680131 52011 IEM_DS3505
ZHHH,2001-04-05 01:00,ZHHH 050100Z AUTO 4SM 17/13 A3003 RMK T01700130 IEM_DS3505
ZHHH,2001-04-05 02:00,ZHHH 050200Z AUTO 6SM 19/12 A3003 RMK T01900120 IEM_DS3505
ZHHH,2001-04-05 03:00,ZHHH 050300Z AUTO 20002KT 11SM 22/11 A3003 RMK SLP172 T02160111 52008 IEM_DS3505
ZHHH,2001-04-05 04:00,ZHHH 050400Z AUTO 6SM 22/10 A3003 RMK T02200100 IEM_DS3505
ZHHH,2001-04-05 05:00,ZHHH 050500Z AUTO 22/11 A2997 RMK T02200110 IEM_DS3505
ZHHH,2001-04-05 06:00,ZHHH 050600Z AUTO 25002KT 12SM 24/11 A2997 RMK SLP146 T02370113 57026 IEM_DS3505
ZHHH,2001-04-05 07:00,ZHHH 050700Z AUTO 23/11 A2994 RMK T02300110 IEM_DS3505
ZHHH,2001-04-05 08:00,ZHHH 050800Z AUTO 23/11 A2991 RMK T02300110 IEM_DS3505
ZHHH,2001-04-05 09:00,ZHHH 050900Z AUTO 14002KT 11SM 23/10 A2991 RMK SLP132 T02340101 57014 IEM_DS3505
ZHHH,2001-04-05 10:00,ZHHH 051000Z AUTO 00000KT 22/12 A2991 RMK T02200120 IEM_DS3505
ZHHH,2001-04-05 11:00,ZHHH 051100Z AUTO 36002KT 6SM 21/12 A2994 RMK T02100120 IEM_DS3505
ZHHH,2001-04-05 12:00,ZHHH 051200Z AUTO 00000KT 11SM 20/15 A2994 RMK SLP144 T01990152 52012 IEM_DS3505
ZHHH,2001-04-05 13:00,ZHHH 051300Z AUTO 06004KT 6SM 20/13 A2997 RMK T02000130 IEM_DS3505
ZHHH,2001-04-05 14:00,ZHHH 051400Z AUTO 07004KT 6SM 20/14 A3000 RMK T02000140 IEM_DS3505
ZHHH,2001-04-05 15:00,ZHHH 051500Z AUTO 09002KT 9SM 20/16 A3000 RMK SLP158 T01950159 52014 IEM_DS3505
ZHHH,2001-04-05 16:00,ZHHH 051600Z AUTO 10004KT 6SM 18/15 A3000 RMK T01800150 IEM_DS3505
ZHHH,2001-04-05 17:00,ZHHH 051700Z AUTO 09006KT 3SM 18/15 A3000 RMK T01800150 IEM_DS3505
ZHHH,2001-04-05 18:00,ZHHH 051800Z AUTO 10008KT 3SM 18/15 A2997 RMK T01800150 IEM_DS3505
ZHHH,2001-04-05 19:00,ZHHH 051900Z AUTO 11006KT 3SM 17/15 A2994 RMK T01700150 IEM_DS3505
ZHHH,2001-04-05 20:00,ZHHH 052000Z AUTO 10006KT 2 1/2SM 16/15 A2994 RMK T01600150 IEM_DS3505
ZHHH,2001-04-05 21:00,ZHHH 052100Z AUTO 07002KT 9SM 17/15 A2994 RMK SLP139 T01700149 57008 IEM_DS3505
ZHHH,2001-04-05 22:00,ZHHH 052200Z AUTO 08008KT 2SM 15/14 A2994 RMK T01500140 IEM_DS3505
ZHHH,2001-04-05 23:00,ZHHH 052300Z AUTO 08008KT 1 1/2SM 15/14 A3000 RMK T01500140 IEM_DS3505
ZHHH,2001-04-06 00:00,ZHHH 060000Z AUTO 07004KT 7SM 19/15 A3000 RMK SLP161 T01860147 52022 IEM_DS3505
ZHHH,2001-04-06 01:00,ZHHH 060100Z AUTO 07008KT 4SM 17/13 A3003 RMK T01700130 IEM_DS3505
ZHHH,2001-04-06 02:00,ZHHH 060200Z AUTO 04010KT 4SM 17/12 A3003 RMK T01700120 IEM_DS3505
ZHHH,2001-04-06 03:00,ZHHH 060300Z AUTO 02004KT 7SM 18/13 A3003 RMK SLP170 T01810132 52009 IEM_DS3505
ZHHH,2001-04-06 04:00,ZHHH 060400Z AUTO 06006KT 6SM 17/12 A3000 RMK T01700120 IEM_DS3505
ZHHH,2001-04-06 05:00,ZHHH 060500Z AUTO 01006KT 18/12 A3000 RMK T01800120 IEM_DS3505
ZHHH,2001-04-06 06:00,ZHHH 060600Z AUTO 34006KT 9SM 18/14 A2997 RMK SLP153 T01830135 57017 IEM_DS3505
ZHHH,2001-04-06 07:00,ZHHH 060700Z AUTO 19/13 A2997 RMK T01900130 IEM_DS3505
ZHHH,2001-04-06 08:00,ZHHH 060800Z AUTO 19/13 A2994 RMK T01900130 IEM_DS3505
ZHHH,2001-04-06 09:00,ZHHH 060900Z AUTO 34004KT 9SM 19/13 A2994 RMK SLP142 T01860131 57011 IEM_DS3505
ZHHH,2001-04-06 10:00,ZHHH 061000Z AUTO 01004KT 19/13 A2994 RMK T01900130 IEM_DS3505
ZHHH,2001-04-06 11:00,ZHHH 061100Z AUTO 04006KT 4SM 17/13 A2997 RMK T01700130 IEM_DS3505
ZHHH,2001-04-06 12:00,ZHHH 061200Z AUTO 04004KT 9SM 17/13 A2997 RMK 60003 SLP153 T01700127 52011 IEM_DS3505
ZHHH,2001-04-06 13:00,ZHHH 061300Z AUTO 03006KT 3SM 15/12 A3000 RMK T01500120 IEM_DS3505
ZHHH,2001-04-06 14:00,ZHHH 061400Z AUTO 04006KT 3SM 15/11 A3000 RMK T01500110 IEM_DS3505
ZHHH,2001-04-06 15:00,ZHHH 061500Z AUTO 36002KT 9SM 15/12 A3003 RMK SLP170 T01510122 52017 IEM_DS3505
ZHHH,2001-04-06 16:00,ZHHH 061600Z AUTO 02002KT 3SM 14/11 A3003 RMK T01400110 IEM_DS3505
ZHHH,2001-04-06 17:00,ZHHH 061700Z AUTO 34004KT 2SM 13/12 A3003 RMK T01300120 IEM_DS3505
ZHHH,2001-04-06 18:00,ZHHH 061800Z AUTO 34002KT 9SM 14/12 A3000 RMK SLP164 T01360120 57006 IEM_DS3505
ZHHH,2001-04-06 19:00,ZHHH 061900Z AUTO 33002KT 2SM 12/11 A3000 RMK T01200110 IEM_DS3505
ZHHH,2001-04-06 20:00,ZHHH 062000Z AUTO 2SM 12/12 A2997 RMK T01200120 IEM_DS3505
ZHHH,2001-04-06 21:00,ZHHH 062100Z AUTO 00000KT 9SM 13/12 A2997 RMK 70003 SLP151 T01280118 57013 IEM_DS3505
ZHHH,2001-04-06 22:00,ZHHH 062200Z AUTO 16002KT 1 1/2SM 12/11 A2997 RMK T01200110 IEM_DS3505
ZHHH,2001-04-06 23:00,ZHHH 062300Z AUTO 12002KT 1 1/2SM 13/12 A2997 RMK T01300120 IEM_DS3505
ZHHH,2001-04-07 00:00,ZHHH 070000Z AUTO 04002KT 11SM 15/13 A3000 RMK 70003 SLP163 T01460129 52012 IEM_DS3505
ZHHH,2001-04-07 01:00,ZHHH 070100Z AUTO 00000KT 1 1/2SM 16/13 A3000 RMK T01600130 IEM_DS3505
ZHHH,2001-04-07 02:00,ZHHH 070200Z AUTO 1 1/2SM 17/14 A3000 RMK T01700140 IEM_DS3505
ZHHH,2001-04-07 03:00,ZHHH 070300Z AUTO 07004KT 11SM 19/14 A3000 RMK SLP154 T01930141 57009 IEM_DS3505
ZHHH,2001-04-07 04:00,ZHHH 070400Z AUTO 1 1/2SM 20/15 A2994 RMK T02000150 IEM_DS3505
ZHHH,2001-04-07 05:00,ZHHH 070500Z AUTO 1 1/2SM 21/15 A2991 RMK T02100150 IEM_DS3505
ZHHH,2001-04-07 06:00,ZHHH 070600Z AUTO 22004KT 7SM 23/15 A2988 RMK SLP122 T02310146 57032 IEM_DS3505
ZHHH,2001-04-07 07:00,ZHHH 070700Z AUTO 1SM 23/16 A2983 RMK T02300160 IEM_DS3505
ZHHH,2001-04-07 08:00,ZHHH 070800Z AUTO 1 1/2SM 23/15 A2980 RMK T02300150 IEM_DS3505
ZHHH,2001-04-07 09:00,ZHHH 070900Z AUTO 18002KT 9SM 23/15 A2980 RMK SLP089 T02290154 57033 IEM_DS3505
ZHHH,2001-04-07 10:00,ZHHH 071000Z AUTO 1 1/2SM 22/16 A2980 RMK T02200160 IEM_DS3505
ZHHH,2001-04-07 11:00,ZHHH 071100Z AUTO 01002KT 1 1/2SM 21/16 A2980 RMK T02100160 IEM_DS3505
ZHHH,2001-04-07 12:00,ZHHH 071200Z AUTO 34002KT 7SM 21/17 A2980 RMK SLP094 T02120167 52005 IEM_DS3505
ZHHH,2001-04-07 13:00,ZHHH 071300Z AUTO 02004KT 1 1/2SM 20/17 A2980 RMK T02000170 IEM_DS3505
ZHHH,2001-04-07 14:00,ZHHH 071400Z AUTO 1 1/2SM 19/17 A2983 RMK T01900170 IEM_DS3505
ZHHH,2001-04-07 15:00,ZHHH 071500Z AUTO 04002KT 5SM 19/17 A2985 RMK SLP097 T01900168 52003 IEM_DS3505
ZHHH,2001-04-07 16:00,ZHHH 071600Z AUTO 01004KT 1 1/2SM 18/17 A2983 RMK T01800170 IEM_DS3505
ZHHH,2001-04-07 17:00,ZHHH 071700Z AUTO 01006KT 1 1/4SM 18/17 A2983 RMK T01800170 IEM_DS3505
ZHHH,2001-04-07 18:00,ZHHH 071800Z AUTO 36004KT 9SM 18/17 A2977 RMK 60012 SLP077 T01790169 57019 IEM_DS3505
ZHHH,2001-04-07 19:00,ZHHH 071900Z AUTO 1 1/4SM 17/16 A2971 RMK T01700160 IEM_DS3505
ZHHH,2001-04-07 20:00,ZHHH 072000Z AUTO 07008KT 1 1/4SM 17/15 A2968 RMK T01700150 IEM_DS3505
ZHHH,2001-04-07 21:00,ZHHH 072100Z AUTO 09002KT 9SM 18/15 A2965 RMK 70011 SLP045 T01760153 57032 IEM_DS3505
ZHHH,2001-04-07 22:00,ZHHH 072200Z AUTO 06002KT 1 1/2SM 17/15 A2968 RMK T01700150 IEM_DS3505
ZHHH,2001-04-07 23:00,ZHHH 072300Z AUTO 00000KT 1 1/2SM 17/16 A2971 RMK T01700160 IEM_DS3505
ZHHH,2001-04-08 00:00,ZHHH 080000Z AUTO 04002KT 8SM 18/16 A2971 RMK 70011 SLP061 T01770157 52016 IEM_DS3505
ZHHH,2001-04-08 01:00,ZHHH 080100Z AUTO 2 1/2SM 18/16 A2971 RMK T01800160 IEM_DS3505
ZHHH,2001-04-08 02:00,ZHHH 080200Z AUTO 2 1/2SM 18/16 A2974 RMK T01800160 IEM_DS3505
ZHHH,2001-04-08 03:00,ZHHH 080300Z AUTO 04002KT 9SM 20/15 A2977 RMK SLP078 T01990152 52017 IEM_DS3505
ZHHH,2001-04-08 05:00,ZHHH 080500Z AUTO 6SM 24/12 A2974 RMK T02400120 IEM_DS3505
ZHHH,2001-04-08 06:00,ZHHH 080600Z AUTO 34006KT 12SM 24/14 A2971 RMK SLP060 T02430138 57018 IEM_DS3505
ZHHH,2001-04-08 07:00,ZHHH 080700Z AUTO 7SM 25/14 A2971 RMK T02500140 IEM_DS3505
ZHHH,2001-04-08 08:00,ZHHH 080800Z AUTO 7SM 25/14 A2968 RMK T02500140 IEM_DS3505
ZHHH,2001-04-08 09:00,ZHHH 080900Z AUTO 34004KT 12SM 25/12 A2968 RMK SLP051 T02540118 57009 IEM_DS3505
ZHHH,2001-04-08 10:00,ZHHH 081000Z AUTO 24002KT 6SM 24/14 A2968 RMK T02400140 IEM_DS3505
ZHHH,2001-04-08 11:00,ZHHH 081100Z AUTO 21002KT 6SM 23/14 A2971 RMK T02300140 IEM_DS3505
ZHHH,2001-04-08 12:00,ZHHH 081200Z AUTO 00000KT 11SM 21/16 A2974 RMK SLP075 T02120159 52024 IEM_DS3505
ZHHH,2001-04-08 13:00,ZHHH 081300Z AUTO 00000KT 6SM 23/13 A2977 RMK T02300130 IEM_DS3505
ZHHH,2001-04-08 14:00,ZHHH 081400Z AUTO 06008KT 6SM 20/15 A2980 RMK T02000150 IEM_DS3505
ZHHH,2001-04-08 15:00,ZHHH 081500Z AUTO 04002KT 11SM 20/16 A2980 RMK SLP096 T02020159 52021 IEM_DS3505
ZHHH,2001-04-08 16:00,ZHHH 081600Z AUTO 07006KT 6SM 18/16 A2983 RMK T01800160 IEM_DS3505
ZHHH,2001-04-08 17:00,ZHHH 081700Z AUTO 09008KT 6SM 18/16 A2983 RMK T01800160 IEM_DS3505
ZHHH,2001-04-08 18:00,ZHHH 081800Z AUTO 07002KT 9SM 18/16 A2985 RMK SLP105 T01820160 52009 IEM_DS3505
ZHHH,2001-04-08 19:00,ZHHH 081900Z AUTO 10008KT 3SM 17/16 A2983 RMK T01700160 IEM_DS3505
ZHHH,2001-04-08 20:00,ZHHH 082000Z AUTO 11006KT 2 1/2SM 16/16 A2985 RMK T01600160 IEM_DS3505
ZHHH,2001-04-08 21:00,ZHHH 082100Z AUTO 09002KT 7SM 18/16 A2985 RMK SLP110 T01770164 52005 IEM_DS3505
ZHHH,2001-04-08 22:00,ZHHH 082200Z AUTO 10008KT 1 1/4SM 16/16 A2988 RMK T01600160 IEM_DS3505
ZHHH,2001-04-08 23:00,ZHHH 082300Z AUTO 10008KT 1SM 16/16 A2988 RMK T01600160 IEM_DS3505
ZHHH,2001-04-09 00:00,ZHHH 090000Z AUTO 09004KT 9SM 19/16 A2991 RMK SLP131 T01860160 52020 IEM_DS3505
ZHHH,2001-04-09 01:00,ZHHH 090100Z AUTO 10012KT 1 1/4SM 17/16 A2994 RMK T01700160 IEM_DS3505
ZHHH,2001-04-09 02:00,ZHHH 090200Z AUTO 12012KT 1 1/2SM 18/16 A2997 RMK T01800160 IEM_DS3505
ZHHH,2001-04-09 03:00,ZHHH 090300Z AUTO 11004KT 9SM 21/16 A2997 RMK SLP147 T02140164 52016 IEM_DS3505
ZHHH,2001-04-09 04:00,ZHHH 090400Z AUTO 13012KT 2 1/2SM 20/17 A2994 RMK T02000170 IEM_DS3505
ZHHH,2001-04-09 05:00,ZHHH 090500Z AUTO 10014KT 7SM 22/17 A2994 RMK T02200170 IEM_DS3505
ZHHH,2001-04-09 06:00,ZHHH 090600Z AUTO 07004KT 9SM 24/17 A2994 RMK SLP132 T02390172 57014 IEM_DS3505
ZHHH,2001-04-09 07:00,ZHHH 090700Z AUTO 08010KT 23/17 A2991 RMK T02300170 IEM_DS3505
ZHHH,2001-04-09 08:00,ZHHH 090800Z AUTO 08014KT 23/17 A2988 RMK T02300170 IEM_DS3505
ZHHH,2001-04-09 09:00,ZHHH 090900Z AUTO 07006KT 9SM 24/16 A2985 RMK SLP113 T02370165 57019 IEM_DS3505
ZHHH,2001-04-09 10:00,ZHHH 091000Z AUTO 06012KT 23/17 A2988 RMK T02300170 IEM_DS3505
ZHHH,2001-04-09 11:00,ZHHH 091100Z AUTO 04008KT 4SM 22/17 A2988 RMK T02200170 IEM_DS3505
ZHHH,2001-04-09 12:00,ZHHH 091200Z AUTO 02006KT 9SM 22/16 A2991 RMK SLP132 T02170158 52018 IEM_DS3505
ZHHH,2001-04-09 13:00,ZHHH 091300Z AUTO 03012KT 4SM 20/16 A2997 RMK T02000160 IEM_DS3505
ZHHH,2001-04-09 14:00,ZHHH 091400Z AUTO 02019KT 3SM 17/13 A3000 RMK T01700130 IEM_DS3505
ZHHH,2001-04-09 15:00,ZHHH 091500Z AUTO 04008KT 9SM 16/10 A3000 RMK SLP162 T01610098 52030 IEM_DS3505
ZHHH,2001-04-09 16:00,ZHHH 091600Z AUTO 02021G33KT 7SM 14/06 A3006 RMK T01400060 IEM_DS3505
ZHHH,2001-04-09 17:00,ZHHH 091700Z AUTO 02021G39KT 6SM 13/04 A3009 RMK T01300040 IEM_DS3505
ZHHH,2001-04-09 18:00,ZHHH 091800Z AUTO 34008G31KT 6SM 11/08 A3012 RMK 60004 SLP216 T01140076 52054 IEM_DS3505
ZHHH,2001-04-09 19:00,ZHHH 091900Z AUTO 36014KT 4SM 09/07 A3018 RMK T00900070 IEM_DS3505
ZHHH,2001-04-09 20:00,ZHHH 092000Z AUTO 02021KT 7SM 08/06 A3015 RMK T00800060 IEM_DS3505
ZHHH,2001-04-09 21:00,ZHHH 092100Z AUTO 04010G35KT 6SM 09/06 A3012 RMK 70032 SLP208 T00910061 57008 IEM_DS3505
ZHHH,2001-04-09 22:00,ZHHH 092200Z AUTO 02023G37KT 7SM 08/05 A3018 RMK T00800050 IEM_DS3505
ZHHH,2001-04-09 23:00,ZHHH 092300Z AUTO 02017KT 7SM 08/06 A3021 RMK T00800060 IEM_DS3505
ZHHH,2001-04-10 00:00,ZHHH 100000Z AUTO 36010G25KT 6SM 08/07 A3024 RMK 60043 SLP244 T00780071 52036 IEM_DS3505
ZHHH,2001-04-10 01:00,ZHHH 100100Z AUTO 02017KT 7SM 07/06 A3024 RMK T00700060 IEM_DS3505
ZHHH,2001-04-10 02:00,ZHHH 100200Z AUTO 02016G25KT 7SM 07/06 A3027 RMK T00700060 IEM_DS3505
ZHHH,2001-04-10 03:00,ZHHH 100300Z AUTO 02006KT 7SM 08/06 A3027 RMK SLP260 T00810065 52015 IEM_DS3505
ZHHH,2001-04-10 04:00,ZHHH 100400Z AUTO 02014KT 7SM 08/06 A3030 RMK T00800060 IEM_DS3505
ZHHH,2001-04-10 05:00,ZHHH 100500Z AUTO 02014KT 4SM 07/06 A3027 RMK T00700060 IEM_DS3505
ZHHH,2001-04-10 06:00,ZHHH 100600Z AUTO 04004G25KT 6SM 08/08 A3027 RMK 60020 SLP256 T00760075 57004 IEM_DS3505
ZHHH,2001-04-10 07:00,ZHHH 100700Z AUTO 02014KT 4SM 08/06 A3027 RMK T00800060 IEM_DS3505
ZHHH,2001-04-10 08:00,ZHHH 100800Z AUTO 03017KT 4SM 08/05 A3027 RMK T00800050 IEM_DS3505
ZHHH,2001-04-10 09:00,ZHHH 100900Z AUTO 36004KT 6SM 08/07 A3027 RMK SLP255 T00750066 57001 IEM_DS3505
ZHHH,2001-04-10 10:00,ZHHH 101000Z AUTO 02014KT 7SM 07/05 A3027 RMK T00700050 IEM_DS3505
ZHHH,2001-04-10 11:00,ZHHH 101100Z AUTO 01012KT 7SM 08/04 A3030 RMK T00800040 IEM_DS3505
ZHHH,2001-04-10 12:00,ZHHH 101200Z AUTO 36006G21KT 6SM 07/06 A3036 RMK 60008 SLP280 T00690064 52025 IEM_DS3505
ZHHH,2001-04-10 13:00,ZHHH 101300Z AUTO 36010KT 2 1/2SM 07/05 A3036 RMK T00700050 IEM_DS3505
ZHHH,2001-04-10 14:00,ZHHH 101400Z AUTO 36008KT 2SM 07/06 A3039 RMK T00700060 IEM_DS3505
ZHHH,2001-04-10 15:00,ZHHH 101500Z AUTO 34008KT 6SM 07/06 RMK SLP299 T00690061 52019 IEM_DS3505
ZHHH,2001-04-10 18:00,ZHHH 101800Z AUTO 29004KT 6SM 07/06 RMK 60008 SLP296 T00690063 57003 IEM_DS3505
ZHHH,2001-04-10 20:00,ZHHH 102000Z AUTO 01004KT 19SM RMK IEM_DS3505
ZHHH,2001-04-10 21:00,ZHHH 102100Z AUTO 32002KT 7SM 08/06 A3036 RMK 70051 SLP282 T00750060 57014 IEM_DS3505
ZHHH,2001-04-10 22:00,ZHHH 102200Z AUTO 3SM 07/05 A3036 RMK T00700050 IEM_DS3505
ZHHH,2001-04-10 23:00,ZHHH 102300Z AUTO 29006KT 3SM 07/06 A3036 RMK T00700060 IEM_DS3505
ZHHH,2001-04-11 00:00,ZHHH 110000Z AUTO 27004KT 12SM 09/06 A3036 RMK 60000 SLP287 T00890056 52005 IEM_DS3505
ZHHH,2001-04-11 01:00,ZHHH 110100Z AUTO 32010KT 5SM 10/05 A3036 RMK T01000050 IEM_DS3505
ZHHH,2001-04-11 02:00,ZHHH 110200Z AUTO 32012KT 5SM 11/04 A3036 RMK T01100040 IEM_DS3505
ZHHH,2001-04-11 03:00,ZHHH 110300Z AUTO 29006KT 11SM 13/05 A3033 RMK SLP277 T01270048 57010 IEM_DS3505
ZHHH,2001-04-11 04:00,ZHHH 110400Z AUTO 31010KT 6SM 13/03 A3030 RMK T01300030 IEM_DS3505
ZHHH,2001-04-11 05:00,ZHHH 110500Z AUTO 30010KT 6SM 15/03 A3027 RMK T01500030 IEM_DS3505
ZHHH,2001-04-11 06:00,ZHHH 110600Z AUTO 36006KT 12SM 15/00 A3024 RMK SLP245 T01510004 57032 IEM_DS3505
ZHHH,2001-04-11 07:00,ZHHH 110700Z AUTO 28008KT 6SM 16/00 A3021 RMK T01600000 IEM_DS3505
ZHHH,2001-04-11 08:00,ZHHH 110800Z AUTO 6SM 16/M01 A3018 RMK T01601010 IEM_DS3505
ZHHH,2001-04-11 09:00,ZHHH 110900Z AUTO 27006KT 12SM 16/01 A3015 RMK SLP216 T01590008 57029 IEM_DS3505
ZHHH,2001-04-11 10:00,ZHHH 111000Z AUTO 25008KT 6SM 15/03 A3015 RMK T01500030 IEM_DS3505
ZHHH,2001-04-11 11:00,ZHHH 111100Z AUTO 25006KT 6SM 13/03 A3015 RMK T01300030 IEM_DS3505
ZHHH,2001-04-11 12:00,ZHHH 111200Z AUTO 00000KT 11SM 13/05 A3018 RMK SLP225 T01320050 52009 IEM_DS3505
ZHHH,2001-04-11 13:00,ZHHH 111300Z AUTO 24006KT 12/06 A3021 RMK T01200060 IEM_DS3505
ZHHH,2001-04-11 14:00,ZHHH 111400Z AUTO 24008KT 12/06 A3021 RMK T01200060 IEM_DS3505
ZHHH,2001-04-11 15:00,ZHHH 111500Z AUTO 00000KT 9SM 12/06 A3021 RMK SLP235 T01160057 52010 IEM_DS3505
ZHHH,2001-04-11 16:00,ZHHH 111600Z AUTO 17004KT 4SM 11/06 A3021 RMK T01100060 IEM_DS3505
ZHHH,2001-04-11 17:00,ZHHH 111700Z AUTO 21004KT 11/05 A3021 RMK T01100050 IEM_DS3505
ZHHH,2001-04-11 18:00,ZHHH 111800Z AUTO 25002KT 9SM 11/07 A3018 RMK SLP226 T01070072 57009 IEM_DS3505
ZHHH,2001-04-11 19:00,ZHHH 111900Z AUTO 24004KT 6SM 10/06 A3018 RMK T01000060 IEM_DS3505
ZHHH,2001-04-11 20:00,ZHHH 112000Z AUTO 6SM 10/06 A3015 RMK T01000060 IEM_DS3505
ZHHH,2001-04-11 21:00,ZHHH 112100Z AUTO 18002KT 9SM 10/08 A3015 RMK 70003 SLP208 T00960079 57017 IEM_DS3505
ZHHH,2001-04-11 22:00,ZHHH 112200Z AUTO 6SM 09/07 A3015 RMK T00900070 IEM_DS3505
ZHHH,2001-04-11 23:00,ZHHH 112300Z AUTO 23002KT 6SM 09/08 A3015 RMK T00900080 IEM_DS3505
ZHHH,2001-04-12 00:00,ZHHH 120000Z AUTO 22004KT 7SM 11/08 A3015 RMK SLP215 T01140085 52006 IEM_DS3505
ZHHH,2001-04-12 01:00,ZHHH 120100Z AUTO 25008KT 6SM 13/09 A3015 RMK T01300090 IEM_DS3505
ZHHH,2001-04-12 02:00,ZHHH 120200Z AUTO 25006KT 6SM 15/08 A3015 RMK T01500080 IEM_DS3505
ZHHH,2001-04-12 03:00,ZHHH 120300Z AUTO 27006KT 9SM 17/05 A3015 RMK SLP215 T01670049 52001 IEM_DS3505
ZHHH,2001-04-12 04:00,ZHHH 120400Z AUTO 24010KT 6SM 17/08 A3012 RMK T01700080 IEM_DS3505
ZHHH,2001-04-12 06:00,ZHHH 120600Z AUTO 25006KT 12SM 20/06 A3006 RMK SLP182 T01990062 57033 IEM_DS3505
ZHHH,2001-04-12 07:00,ZHHH 120700Z AUTO 24010KT 6SM 20/07 A3003 RMK T02000070 IEM_DS3505
ZHHH,2001-04-12 08:00,ZHHH 120800Z AUTO 7SM RMK IEM_DS3505
ZHHH,2001-04-12 09:00,ZHHH 120900Z AUTO 18004KT 11SM 20/05 A2997 RMK SLP156 T01980049 57026 IEM_DS3505
ZHHH,2001-04-12 10:00,ZHHH 121000Z AUTO 20012KT 6SM 18/06 A2997 RMK T01800060 IEM_DS3505
ZHHH,2001-04-12 11:00,ZHHH 121100Z AUTO 20006KT 6SM 17/04 A2997 RMK T01700040 IEM_DS3505
ZHHH,2001-04-12 12:00,ZHHH 121200Z AUTO 00000KT 9SM 16/06 A2997 RMK SLP153 T01630060 57003 IEM_DS3505
ZHHH,2001-04-12 13:00,ZHHH 121300Z AUTO 6SM 15/04 A2997 RMK T01500040 IEM_DS3505
ZHHH,2001-04-12 14:00,ZHHH 121400Z AUTO 15004KT 6SM 15/05 A3000 RMK T01500050 IEM_DS3505
ZHHH,2001-04-12 15:00,ZHHH 121500Z AUTO 00000KT 9SM 14/07 A3000 RMK SLP160 T01440071 52007 IEM_DS3505
ZHHH,2001-04-12 16:00,ZHHH 121600Z AUTO 21004KT 6SM 14/07 A3000 RMK T01400070 IEM_DS3505
ZHHH,2001-04-12 17:00,ZHHH 121700Z AUTO 6SM 13/07 A2997 RMK T01300070 IEM_DS3505
ZHHH,2001-04-12 18:00,ZHHH 121800Z AUTO 14002KT 9SM 13/08 A2997 RMK SLP149 T01320078 57011 IEM_DS3505
ZHHH,2001-04-12 19:00,ZHHH 121900Z AUTO 14006KT 6SM 13/10 A2994 RMK T01300100 IEM_DS3505
ZHHH,2001-04-12 20:00,ZHHH 122000Z AUTO 14006KT 6SM 12/10 A2991 RMK T01200100 IEM_DS3505
ZHHH,2001-04-12 21:00,ZHHH 122100Z AUTO 00000KT 9SM 12/08 A2994 RMK SLP136 T01250080 57013 IEM_DS3505
ZHHH,2001-04-12 22:00,ZHHH 122200Z AUTO 4SM 10/08 A2997 RMK T01000080 IEM_DS3505
ZHHH,2001-04-12 23:00,ZHHH 122300Z AUTO 10010KT 3SM 10/09 A2997 RMK T01000090 IEM_DS3505
ZHHH,2001-04-13 00:00,ZHHH 130000Z AUTO 14002KT 11SM 15/09 A3000 RMK SLP158 T01500087 52022 IEM_DS3505
ZHHH,2001-04-13 01:00,ZHHH 130100Z AUTO 6SM RMK IEM_DS3505
ZHHH,2001-04-13 02:00,ZHHH 130200Z AUTO 21010KT 6SM 18/08 A3000 RMK T01800080 IEM_DS3505
ZHHH,2001-04-13 03:00,ZHHH 130300Z AUTO 20004G29KT 11SM 21/08 A3000 RMK SLP161 T02060080 52003 IEM_DS3505
ZHHH,2001-04-13 04:00,ZHHH 130400Z AUTO 21010KT 6SM 21/10 A2997 RMK T02100100 IEM_DS3505
ZHHH,2001-04-13 05:00,ZHHH 130500Z AUTO 21010KT 6SM 22/10 A2997 RMK T02200100 IEM_DS3505
ZHHH,2001-04-13 06:00,ZHHH 130600Z AUTO 20004KT 12SM 23/09 A2994 RMK SLP145 T02340091 57016 IEM_DS3505
ZHHH,2001-04-13 07:00,ZHHH 130700Z AUTO 22008KT 6SM 24/10 A2994 RMK T02400100 IEM_DS3505
ZHHH,2001-04-13 08:00,ZHHH 130800Z AUTO 24006KT 6SM 24/08 A2994 RMK T02400080 IEM_DS3505
ZHHH,2001-04-13 09:00,ZHHH 130900Z AUTO 29004KT 12SM 24/07 A2994 RMK SLP145 T02440068 54000 IEM_DS3505
ZHHH,2001-04-13 10:00,ZHHH 131000Z AUTO 00000KT 6SM 22/11 A2997 RMK T02200110 IEM_DS3505
ZHHH,2001-04-13 11:00,ZHHH 131100Z AUTO 6SM 21/10 A3000 RMK T02100100 IEM_DS3505
ZHHH,2001-04-13 12:00,ZHHH 131200Z AUTO 00000KT 11SM 20/13 A3003 RMK SLP176 T02020126 52031 IEM_DS3505
ZHHH,2001-04-13 13:00,ZHHH 131300Z AUTO 05012KT 6SM 19/10 A3009 RMK T01900100 IEM_DS3505
ZHHH,2001-04-13 14:00,ZHHH 131400Z AUTO 05014KT 6SM 18/11 A3012 RMK T01800110 IEM_DS3505
ZHHH,2001-04-13 15:00,ZHHH 131500Z AUTO 09004KT 11SM 18/12 A3012 RMK SLP202 T01830120 52026 IEM_DS3505
ZHHH,2001-04-13 16:00,ZHHH 131600Z AUTO 05012KT 6SM 17/10 A3015 RMK T01700100 IEM_DS3505
ZHHH,2001-04-13 17:00,ZHHH 131700Z AUTO 03006KT 6SM 16/10 A3015 RMK T01600100 IEM_DS3505
ZHHH,2001-04-13 18:00,ZHHH 131800Z AUTO 07002KT 9SM 16/10 A3018 RMK SLP222 T01630103 52020 IEM_DS3505
ZHHH,2001-04-13 19:00,ZHHH 131900Z AUTO 36004KT 6SM 15/09 A3018 RMK T01500090 IEM_DS3505
ZHHH,2001-04-13 20:00,ZHHH 132000Z AUTO 03006KT 6SM 15/08 A3018 RMK T01500080 IEM_DS3505
ZHHH,2001-04-13 21:00,ZHHH 132100Z AUTO 36002KT 9SM 15/08 A3018 RMK SLP227 T01500085 52005 IEM_DS3505
ZHHH,2001-04-13 22:00,ZHHH 132200Z AUTO 04010KT 6SM 13/08 A3021 RMK T01300080 IEM_DS3505
ZHHH,2001-04-13 23:00,ZHHH 132300Z AUTO 02008G23KT 6SM 13/08 A3021 RMK T01300080 IEM_DS3505
ZHHH,2001-04-14 00:00,ZHHH 140000Z AUTO 02002KT 9SM 15/09 A3024 RMK SLP247 T01480087 52020 IEM_DS3505
ZHHH,2001-04-14 01:00,ZHHH 140100Z AUTO 03008KT 6SM 16/07 A3027 RMK T01600070 IEM_DS3505
ZHHH,2001-04-14 02:00,ZHHH 140200Z AUTO 04006KT 6SM 18/07 A3027 RMK T01800070 IEM_DS3505
ZHHH,2001-04-14 03:00,ZHHH 140300Z AUTO 11002KT 11SM 19/07 A3027 RMK SLP257 T01940072 52010 IEM_DS3505
ZHHH,2001-04-14 04:00,ZHHH 140400Z AUTO 10006KT 6SM 20/07 A3024 RMK T02000070 IEM_DS3505
ZHHH,2001-04-14 05:00,ZHHH 140500Z AUTO 6SM 21/07 A3024 RMK T02100070 IEM_DS3505
ZHHH,2001-04-14 06:00,ZHHH 140600Z AUTO 07004KT 11SM 22/04 A3021 RMK SLP228 T02230043 57029 IEM_DS3505
ZHHH,2001-04-14 07:00,ZHHH 140700Z AUTO 6SM 22/05 A3018 RMK T02200050 IEM_DS3505
ZHHH,2001-04-14 08:00,ZHHH 140800Z AUTO 6SM 23/04 A3015 RMK T02300040 IEM_DS3505
ZHHH,2001-04-14 09:00,ZHHH 140900Z AUTO 27002KT 11SM 23/05 A3015 RMK SLP208 T02310051 57020 IEM_DS3505
ZHHH,2001-04-14 10:00,ZHHH 141000Z AUTO 6SM 22/04 A3015 RMK T02200040 IEM_DS3505
ZHHH,2001-04-14 11:00,ZHHH 141100Z AUTO 00000KT 6SM 21/04 A3015 RMK T02100040 IEM_DS3505
ZHHH,2001-04-14 12:00,ZHHH 141200Z AUTO 00000KT 9SM 20/07 A3015 RMK SLP212 T02050068 52004 IEM_DS3505
ZHHH,2001-04-14 13:00,ZHHH 141300Z AUTO 00000KT 6SM 20/06 A3018 RMK T02000060 IEM_DS3505
ZHHH,2001-04-14 14:00,ZHHH 141400Z AUTO 00000KT 6SM 20/07 A3018 RMK T02000070 IEM_DS3505
ZHHH,2001-04-14 15:00,ZHHH 141500Z AUTO 00000KT 9SM 19/10 A3018 RMK SLP217 T01900100 52005 IEM_DS3505
ZHHH,2001-04-14 16:00,ZHHH 141600Z AUTO 00000KT 6SM 18/10 A3018 RMK T01800100 IEM_DS3505
ZHHH,2001-04-14 17:00,ZHHH 141700Z AUTO 00000KT 6SM 19/09 A3015 RMK T01900090 IEM_DS3505
ZHHH,2001-04-14 18:00,ZHHH 141800Z AUTO 25002KT 11SM 18/10 A3015 RMK SLP213 T01820095 57004 IEM_DS3505
ZHHH,2001-04-14 19:00,ZHHH 141900Z AUTO 4SM 16/13 A3015 RMK T01600130 IEM_DS3505
ZHHH,2001-04-14 20:00,ZHHH 142000Z AUTO 08004KT 2 1/2SM 15/12 A3012 RMK T01500120 IEM_DS3505
ZHHH,2001-04-14 21:00,ZHHH 142100Z AUTO 00000KT 11SM 16/13 A3012 RMK SLP202 T01630134 57011 IEM_DS3505
ZHHH,2001-04-14 22:00,ZHHH 142200Z AUTO 11004KT 1 1/4SM 14/13 A3012 RMK T01400130 IEM_DS3505
ZHHH,2001-04-14 23:00,ZHHH 142300Z AUTO 12006KT 1 1/2SM 15/12 A3012 RMK T01500120 IEM_DS3505
ZHHH,2001-04-15 00:00,ZHHH 150000Z AUTO 11002KT 7SM 18/10 A3015 RMK SLP206 T01810096 52004 IEM_DS3505
ZHHH,2001-04-15 01:00,ZHHH 150100Z AUTO 13006KT 18/12 A3015 RMK T01800120 IEM_DS3505
ZHHH,2001-04-15 02:00,ZHHH 150200Z AUTO 14008KT 9SM 19/12 A3015 RMK T01900120 IEM_DS3505
ZHHH,2001-04-15 03:00,ZHHH 150300Z AUTO 18004KT 9SM 21/09 A3012 RMK SLP208 T02090087 52002 IEM_DS3505
ZHHH,2001-04-15 04:00,ZHHH 150400Z AUTO 16004KT 6SM 20/10 A3012 RMK T02000100 IEM_DS3505
ZHHH,2001-04-15 05:00,ZHHH 150500Z AUTO 13006KT 21/12 A3009 RMK T02100120 IEM_DS3505
ZHHH,2001-04-15 06:00,ZHHH 150600Z AUTO 11002KT 9SM 20/13 A3006 RMK 60003 SLP181 T02050127 57027 IEM_DS3505
ZHHH,2001-04-15 07:00,ZHHH 150700Z AUTO 19008KT 6SM 22/09 A3003 RMK T02200090 IEM_DS3505
ZHHH,2001-04-15 08:00,ZHHH 150800Z AUTO 6SM 22/09 A3000 RMK T02200090 IEM_DS3505
ZHHH,2001-04-15 09:00,ZHHH 150900Z AUTO 18002KT 9SM 22/09 A3000 RMK SLP162 T02250092 57019 IEM_DS3505
ZHHH,2001-04-15 10:00,ZHHH 151000Z AUTO 16004KT 6SM 21/12 A3000 RMK T02100120 IEM_DS3505
ZHHH,2001-04-15 11:00,ZHHH 151100Z AUTO 18006KT 6SM 20/12 A3000 RMK T02000120 IEM_DS3505
ZHHH,2001-04-15 12:00,ZHHH 151200Z AUTO 27002KT 11SM 19/13 A3000 RMK SLP162 T01870134 54000 IEM_DS3505
ZHHH,2001-04-15 13:00,ZHHH 151300Z AUTO 20006KT 6SM 18/13 A3003 RMK T01800130 IEM_DS3505
ZHHH,2001-04-15 14:00,ZHHH 151400Z AUTO 19008KT 4SM 17/13 A3003 RMK T01700130 IEM_DS3505
ZHHH,2001-04-15 15:00,ZHHH 151500Z AUTO 00000KT 11SM 17/14 A3003 RMK SLP167 T01670135 52005 IEM_DS3505
ZHHH,2001-04-15 16:00,ZHHH 151600Z AUTO 3SM 16/13 A3003 RMK T01600130 IEM_DS3505
ZHHH,2001-04-15 17:00,ZHHH 151700Z AUTO 20002KT 2 1/2SM 15/13 A3000 RMK T01500130 IEM_DS3505
ZHHH,2001-04-15 18:00,ZHHH 151800Z AUTO 00000KT 7SM 15/14 A3000 RMK SLP158 T01530137 57009 IEM_DS3505
ZHHH,2001-04-15 19:00,ZHHH 151900Z AUTO 2SM 15/13 A2997 RMK T01500130 IEM_DS3505
ZHHH,2001-04-15 20:00,ZHHH 152000Z AUTO 11002KT 2SM 14/13 A2997 RMK T01400130 IEM_DS3505
ZHHH,2001-04-15 21:00,ZHHH 152100Z AUTO 14002KT 7SM 14/13 A2997 RMK 70003 SLP146 T01450132 57012 IEM_DS3505
ZHHH,2001-04-15 22:00,ZHHH 152200Z AUTO 1SM 13/13 A2997 RMK T01300130 IEM_DS3505
ZHHH,2001-04-15 23:00,ZHHH 152300Z AUTO 14002KT 1SM 14/13 A2997 RMK T01400130 IEM_DS3505
ZHHH,2001-04-16 00:00,ZHHH 160000Z AUTO 11002KT 11SM 16/13 A2997 RMK 70003 SLP155 T01630129 52009 IEM_DS3505
ZHHH,2001-04-16 01:00,ZHHH 160100Z AUTO 1 1/2SM 18/14 A2997 RMK T01800140 IEM_DS3505
ZHHH,2001-04-16 02:00,ZHHH 160200Z AUTO 21006KT 11SM 19/13 A2997 RMK T01900130 IEM_DS3505
ZHHH,2001-04-16 03:00,ZHHH 160300Z AUTO 16004KT 11SM 20/11 A2997 RMK SLP149 T02010112 57006 IEM_DS3505
ZHHH,2001-04-16 04:00,ZHHH 160400Z AUTO 22006KT 6SM 23/12 A2994 RMK T02300120 IEM_DS3505
ZHHH,2001-04-16 05:00,ZHHH 160500Z AUTO 21006KT 6SM 22/13 A2991 RMK T02200130 IEM_DS3505
ZHHH,2001-04-16 06:00,ZHHH 160600Z AUTO 18006KT 11SM 23/13 A2988 RMK SLP120 T02290131 57029 IEM_DS3505
ZHHH,2001-04-16 07:00,ZHHH 160700Z AUTO 21008KT 6SM 23/13 A2985 RMK T02300130 IEM_DS3505
ZHHH,2001-04-16 08:00,ZHHH 160800Z AUTO 22006KT 6SM 23/14 A2983 RMK T02300140 IEM_DS3505
ZHHH,2001-04-16 09:00,ZHHH 160900Z AUTO 11002KT 11SM 22/14 A2985 RMK SLP108 T02210139 57012 IEM_DS3505
ZHHH,2001-04-16 10:00,ZHHH 161000Z AUTO 6SM 21/15 A2985 RMK T02100150 IEM_DS3505
ZHHH,2001-04-16 11:00,ZHHH 161100Z AUTO 6SM 21/15 A2985 RMK T02100150 IEM_DS3505
ZHHH,2001-04-16 12:00,ZHHH 161200Z AUTO 18002KT 9SM 21/15 A2988 RMK SLP115 T02080146 52007 IEM_DS3505
ZHHH,2001-04-16 13:00,ZHHH 161300Z AUTO 6SM 20/14 A2988 RMK T02000140 IEM_DS3505
ZHHH,2001-04-16 14:00,ZHHH 161400Z AUTO 12002KT 6SM 19/15 A2991 RMK T01900150 IEM_DS3505
ZHHH,2001-04-16 15:00,ZHHH 161500Z AUTO 00000KT 9SM 19/13 RMK SLP131 T01910134 52016 IEM_DS3505
ZHHH,2001-04-16 16:00,ZHHH 161600Z AUTO 6SM 18/14 A2991 RMK T01800140 IEM_DS3505
ZHHH,2001-04-16 17:00,ZHHH 161700Z AUTO 16004KT 6SM 18/15 A2988 RMK T01800150 IEM_DS3505
ZHHH,2001-04-16 18:00,ZHHH 161800Z AUTO 00000KT 11SM 18/14 A2988 RMK SLP119 T01790142 57011 IEM_DS3505
ZHHH,2001-04-16 19:00,ZHHH 161900Z AUTO 3SM 18/13 A2985 RMK T01800130 IEM_DS3505
ZHHH,2001-04-16 21:00,ZHHH 162100Z AUTO 00000KT 11SM 17/15 A2988 RMK SLP117 T01660149 57003 IEM_DS3505
ZHHH,2001-04-16 22:00,ZHHH 162200Z AUTO 11006KT 1 1/4SM 15/14 A2988 RMK T01500140 IEM_DS3505
ZHHH,2001-04-16 23:00,ZHHH 162300Z AUTO 11008KT 1 1/4SM 15/14 A2988 RMK T01500140 IEM_DS3505
ZHHH,2001-04-17 00:00,ZHHH 170000Z AUTO 16002KT 7SM 19/15 A2991 RMK SLP133 T01900147 52016 IEM_DS3505
ZHHH,2001-04-17 01:00,ZHHH 170100Z AUTO 1 1/2SM 19/15 A2991 RMK T01900150 IEM_DS3505
ZHHH,2001-04-17 02:00,ZHHH 170200Z AUTO 1 1/2SM 22/15 A2994 RMK T02200150 IEM_DS3505
ZHHH,2001-04-17 03:00,ZHHH 170300Z AUTO 25004KT 12SM 24/14 A2991 RMK SLP134 T02370145 52002 IEM_DS3505
ZHHH,2001-04-17 04:00,ZHHH 170400Z AUTO 24/15 A2988 RMK T02400150 IEM_DS3505
ZHHH,2001-04-17 05:00,ZHHH 170500Z AUTO 3SM 25/15 A2985 RMK T02500150 IEM_DS3505
ZHHH,2001-04-17 06:00,ZHHH 170600Z AUTO 14004KT 12SM 26/13 A2983 RMK SLP105 T02610130 57029 IEM_DS3505
ZHHH,2001-04-17 07:00,ZHHH 170700Z AUTO 3SM 26/15 A2983 RMK T02600150 IEM_DS3505
ZHHH,2001-04-17 08:00,ZHHH 170800Z AUTO 13006KT 26/14 A2980 RMK T02600140 IEM_DS3505
ZHHH,2001-04-17 09:00,ZHHH 170900Z AUTO 14004KT 12SM 27/12 A2980 RMK SLP091 T02690120 57014 IEM_DS3505
ZHHH,2001-04-17 10:00,ZHHH 171000Z AUTO 26/14 A2980 RMK T02600140 IEM_DS3505
ZHHH,2001-04-17 11:00,ZHHH 171100Z AUTO 24/16 A2980 RMK T02400160 IEM_DS3505
ZHHH,2001-04-17 12:00,ZHHH 171200Z AUTO 00000KT 9SM 23/14 A2980 RMK SLP093 T02280137 52002 IEM_DS3505
ZHHH,2001-04-17 13:00,ZHHH 171300Z AUTO 16002KT 23/13 A2983 RMK T02300130 IEM_DS3505
ZHHH,2001-04-17 14:00,ZHHH 171400Z AUTO 22/14 A2983 RMK T02200140 IEM_DS3505
ZHHH,2001-04-17 15:00,ZHHH 171500Z AUTO 00000KT 9SM 21/14 A2983 RMK SLP097 T02060139 52004 IEM_DS3505
ZHHH,2001-04-17 16:00,ZHHH 171600Z AUTO 3SM 20/15 A2983 RMK T02000150 IEM_DS3505
ZHHH,2001-04-17 17:00,ZHHH 171700Z AUTO 06006KT 2 1/2SM 18/16 A2980 RMK T01800160 IEM_DS3505
ZHHH,2001-04-17 18:00,ZHHH 171800Z AUTO 00000KT 9SM 19/16 A2980 RMK SLP088 T01860160 57009 IEM_DS3505
ZHHH,2001-04-17 19:00,ZHHH 171900Z AUTO 1 1/2SM 18/16 A2977 RMK T01800160 IEM_DS3505
ZHHH,2001-04-17 20:00,ZHHH 172000Z AUTO 07004KT 1 1/2SM 17/15 A2977 RMK T01700150 IEM_DS3505
ZHHH,2001-04-17 21:00,ZHHH 172100Z AUTO 11002KT 9SM 18/16 A2977 RMK SLP078 T01760165 57010 IEM_DS3505
ZHHH,2001-04-17 22:00,ZHHH 172200Z AUTO 06006KT 1 1/4SM 16/14 A2977 RMK T01600140 IEM_DS3505
ZHHH,2001-04-17 23:00,ZHHH 172300Z AUTO 08002KT 1 1/2SM 16/14 A2977 RMK T01600140 IEM_DS3505
ZHHH,2001-04-18 00:00,ZHHH 180000Z AUTO 09002KT 11SM 21/16 A2980 RMK SLP088 T02060165 52010 IEM_DS3505
ZHHH,2001-04-18 01:00,ZHHH 180100Z AUTO 13006KT 2 1/2SM 20/16 A2980 RMK T02000160 IEM_DS3505
ZHHH,2001-04-18 02:00,ZHHH 180200Z AUTO 14006KT 2 1/2SM 23/16 A2980 RMK T02300160 IEM_DS3505
ZHHH,2001-04-18 03:00,ZHHH 180300Z AUTO 16004G19KT 16SM 26/14 A2980 RMK SLP091 T02550145 52003 IEM_DS3505
ZHHH,2001-04-18 04:00,ZHHH 180400Z AUTO 14006KT 6SM 26/15 A2977 RMK T02600150 IEM_DS3505
ZHHH,2001-04-18 05:00,ZHHH 180500Z AUTO 6SM 27/15 A2974 RMK T02700150 IEM_DS3505
ZHHH,2001-04-18 06:00,ZHHH 180600Z AUTO 14004KT 14SM 28/13 A2971 RMK SLP065 T02760127 57026 IEM_DS3505
ZHHH,2001-04-18 07:00,ZHHH 180700Z AUTO 6SM 28/13 A2968 RMK T02800130 IEM_DS3505
ZHHH,2001-04-18 08:00,ZHHH 180800Z AUTO 6SM 28/12 A2968 RMK T02800120 IEM_DS3505
ZHHH,2001-04-18 09:00,ZHHH 180900Z AUTO 29002KT 12SM 29/12 A2968 RMK SLP046 T02880116 57019 IEM_DS3505
ZHHH,2001-04-18 10:00,ZHHH 181000Z AUTO 00000KT 6SM 27/13 A2968 RMK T02700130 IEM_DS3505
ZHHH,2001-04-18 11:00,ZHHH 181100Z AUTO 6SM 26/14 A2968 RMK T02600140 IEM_DS3505
ZHHH,2001-04-18 12:00,ZHHH 181200Z AUTO 00000KT 11SM 24/14 A2968 RMK SLP051 T02440141 52005 IEM_DS3505
ZHHH,2001-04-18 13:00,ZHHH 181300Z AUTO 6SM 24/14 A2971 RMK T02400140 IEM_DS3505
ZHHH,2001-04-18 14:00,ZHHH 181400Z AUTO 6SM 25/13 A2971 RMK T02500130 IEM_DS3505
ZHHH,2001-04-18 15:00,ZHHH 181500Z AUTO 07002KT 11SM 22/16 A2968 RMK SLP055 T02230164 52004 IEM_DS3505
ZHHH,2001-04-18 16:00,ZHHH 181600Z AUTO 2 1/2SM 23/18 A2968 RMK T02300180 IEM_DS3505
ZHHH,2001-04-18 17:00,ZHHH 181700Z AUTO 00000KT 2 1/2SM 22/18 A2968 RMK T02200180 IEM_DS3505
ZHHH,2001-04-18 18:00,ZHHH 181800Z AUTO 09002KT 9SM 22/16 A2968 RMK SLP049 T02180162 57006 IEM_DS3505
ZHHH,2001-04-18 19:00,ZHHH 181900Z AUTO 11006KT 2 1/2SM 21/19 A2968 RMK T02100190 IEM_DS3505
ZHHH,2001-04-18 20:00,ZHHH 182000Z AUTO 2SM 21/19 A2965 RMK T02100190 IEM_DS3505
ZHHH,2001-04-18 21:00,ZHHH 182100Z AUTO 14002KT 9SM 23/19 A2965 RMK SLP045 T02270187 57004 IEM_DS3505
ZHHH,2001-04-18 22:00,ZHHH 182200Z AUTO 11004KT 2SM 21/19 A2968 RMK T02100190 IEM_DS3505
ZHHH,2001-04-18 23:00,ZHHH 182300Z AUTO 1 1/2SM 21/19 A2968 RMK T02100190 IEM_DS3505
ZHHH,2001-04-19 00:00,ZHHH 190000Z AUTO 14002KT 7SM 23/19 A2971 RMK SLP056 T02340190 52011 IEM_DS3505
ZHHH,2001-04-19 01:00,ZHHH 190100Z AUTO 13006KT 1 1/4SM 22/20 A2971 RMK T02200200 IEM_DS3505
ZHHH,2001-04-19 02:00,ZHHH 190200Z AUTO 14006KT 1 1/2SM 23/20 A2971 RMK T02300200 IEM_DS3505
ZHHH,2001-04-19 03:00,ZHHH 190300Z AUTO 11002KT 9SM 26/18 A2971 RMK SLP058 T02590184 52002 IEM_DS3505
ZHHH,2001-04-19 04:00,ZHHH 190400Z AUTO 11008KT 1 1/2SM 25/20 A2968 RMK T02500200 IEM_DS3505
ZHHH,2001-04-19 05:00,ZHHH 190500Z AUTO 11008KT 2 1/2SM 26/18 A2968 RMK T02600180 IEM_DS3505
ZHHH,2001-04-19 06:00,ZHHH 190600Z AUTO 11004KT 9SM 28/19 A2965 RMK SLP039 T02790189 57019 IEM_DS3505
ZHHH,2001-04-19 07:00,ZHHH 190700Z AUTO 08012KT 4SM 26/21 A2965 RMK T02600210 IEM_DS3505
ZHHH,2001-04-19 08:00,ZHHH 190800Z AUTO 07010KT 4SM 26/21 A2962 RMK T02600210 IEM_DS3505
ZHHH,2001-04-19 09:00,ZHHH 190900Z AUTO 04006KT 9SM 26/21 A2962 RMK SLP031 T02590208 57008 IEM_DS3505
ZHHH,2001-04-19 10:00,ZHHH 191000Z AUTO 07012KT 7SM 23/20 A2962 RMK T02300200 IEM_DS3505
ZHHH,2001-04-19 11:00,ZHHH 191100Z AUTO 06014KT 7SM 22/20 A2965 RMK T02200200 IEM_DS3505
ZHHH,2001-04-19 12:00,ZHHH 191200Z AUTO 07004KT 8SM 23/20 A2965 RMK SLP041 T02330199 52010 IEM_DS3505
ZHHH,2001-04-19 13:00,ZHHH 191300Z AUTO 06014KT 7SM 22/20 A2968 RMK T02200200 IEM_DS3505
ZHHH,2001-04-19 14:00,ZHHH 191400Z AUTO 05012KT 6SM 22/20 A2971 RMK T02200200 IEM_DS3505
ZHHH,2001-04-19 15:00,ZHHH 191500Z AUTO 04006KT 6SM 23/19 A2971 RMK SLP057 T02300193 52016 IEM_DS3505
ZHHH,2001-04-19 16:00,ZHHH 191600Z AUTO 04014KT 7SM 21/18 A2971 RMK T02100180 IEM_DS3505
ZHHH,2001-04-19 17:00,ZHHH 191700Z AUTO 09006KT 7SM 20/18 A2971 RMK T02000180 IEM_DS3505
ZHHH,2001-04-19 18:00,ZHHH 191800Z AUTO 04008KT 5SM 19/19 RMK 60102 SLP058 T01930190 52001 IEM_DS3505
ZHHH,2001-04-19 19:00,ZHHH 191900Z AUTO 04016KT 2SM 17/17 A2971 RMK T01700170 IEM_DS3505
ZHHH,2001-04-19 20:00,ZHHH 192000Z AUTO 03016KT 1 1/2SM 16/15 A2968 RMK T01600150 IEM_DS3505
ZHHH,2001-04-19 21:00,ZHHH 192100Z AUTO 03016KT 2SM 15/14 A2971 RMK T01500140 IEM_DS3505
ZHHH,2001-04-19 22:00,ZHHH 192200Z AUTO 03017KT 2SM 14/13 A2974 RMK T01400130 IEM_DS3505
ZHHH,2001-04-19 23:00,ZHHH 192300Z AUTO 04021KT 2 1/2SM 13/12 A2974 RMK T01300120 IEM_DS3505
ZHHH,2001-04-20 00:00,ZHHH 200000Z AUTO 02006KT 5SM 14/12 A2974 RMK 60043 SLP076 T01350125 52015 IEM_DS3505
ZHHH,2001-04-20 02:00,ZHHH 200200Z AUTO 03016KT 4SM 12/10 A2977 RMK T01200100 IEM_DS3505
ZHHH,2001-04-20 03:00,ZHHH 200300Z AUTO 04006KT 6SM 12/11 RMK SLP084 T01170109 52008 IEM_DS3505
ZHHH,2001-04-20 04:00,ZHHH 200400Z AUTO 03014KT 7SM 11/09 A2977 RMK T01100090 IEM_DS3505
ZHHH,2001-04-20 06:00,ZHHH 200600Z AUTO 36004KT 6SM 10/10 A2977 RMK 60063 SLP083 T01040103 57001 IEM_DS3505
ZHHH,2001-04-20 07:00,ZHHH 200700Z AUTO 02012KT 4SM 09/09 A2977 RMK T00900090 IEM_DS3505
ZHHH,2001-04-20 08:00,ZHHH 200800Z AUTO 02012KT 7SM 09/09 A2977 RMK T00900090 IEM_DS3505
ZHHH,2001-04-20 09:00,ZHHH 200900Z AUTO 02006G23KT 6SM 10/10 A2977 RMK SLP083 T00970096 54000 IEM_DS3505
ZHHH,2001-04-20 10:00,ZHHH 201000Z AUTO 03016KT 7SM 09/08 A2980 RMK T00900080 IEM_DS3505
ZHHH,2001-04-20 11:00,ZHHH 201100Z AUTO 03016KT 7SM 09/08 A2983 RMK T00900080 IEM_DS3505
ZHHH,2001-04-20 12:00,ZHHH 201200Z AUTO 36004KT 6SM 09/09 A2985 RMK 60106 SLP115 T00930092 52032 IEM_DS3505
ZHHH,2001-04-20 13:00,ZHHH 201300Z AUTO 03016KT 7SM 09/08 A2988 RMK T00900080 IEM_DS3505
ZHHH,2001-04-20 14:00,ZHHH 201400Z AUTO 03012KT 7SM 09/08 A2991 RMK T00900080 IEM_DS3505
ZHHH,2001-04-20 15:00,ZHHH 201500Z AUTO 07002KT 6SM 09/09 A2994 RMK SLP145 T00930092 52029 IEM_DS3505
ZHHH,2001-04-20 16:00,ZHHH 201600Z AUTO 03010KT 7SM 09/09 A2994 RMK T00900090 IEM_DS3505
ZHHH,2001-04-20 17:00,ZHHH 201700Z AUTO 03008KT 7SM 09/08 A2994 RMK T00900080 IEM_DS3505
ZHHH,2001-04-20 18:00,ZHHH 201800Z AUTO 36004KT 6SM 10/09 A2994 RMK 60012 SLP144 T00970092 57001 IEM_DS3505
ZHHH,2001-04-20 19:00,ZHHH 201900Z AUTO 03010KT 6SM 10/08 A2994 RMK T01000080 IEM_DS3505
ZHHH,2001-04-20 20:00,ZHHH 202000Z AUTO 01006KT 6SM 10/08 A2994 RMK T01000080 IEM_DS3505
ZHHH,2001-04-20 21:00,ZHHH 202100Z AUTO 36004KT 7SM 10/08 A2994 RMK 70181 SLP144 T01050079 54000 IEM_DS3505
ZHHH,2001-04-20 22:00,ZHHH 202200Z AUTO 02006KT 6SM 10/05 A2997 RMK T01000050 IEM_DS3505
ZHHH,2001-04-20 23:00,ZHHH 202300Z AUTO 02006KT 6SM 11/06 A2997 RMK T01100060 IEM_DS3505
ZHHH,2001-04-21 00:00,ZHHH 210000Z AUTO 02004KT 9SM 12/06 A3000 RMK 60003 SLP162 T01160058 52018 IEM_DS3505
ZHHH,2001-04-21 01:00,ZHHH 210100Z AUTO 03008KT 6SM 12/06 A3003 RMK T01200060 IEM_DS3505
ZHHH,2001-04-21 02:00,ZHHH 210200Z AUTO 03012KT 6SM 14/05 A3003 RMK T01400050 IEM_DS3505
ZHHH,2001-04-21 03:00,ZHHH 210300Z AUTO 36004KT 11SM 15/05 A3006 RMK SLP182 T01530052 52021 IEM_DS3505
ZHHH,2001-04-21 04:00,ZHHH 210400Z AUTO 03010KT 6SM 16/03 A3006 RMK T01600030 IEM_DS3505
ZHHH,2001-04-21 05:00,ZHHH 210500Z AUTO 03016KT 6SM 16/02 A3003 RMK T01600020 IEM_DS3505
ZHHH,2001-04-21 06:00,ZHHH 210600Z AUTO 36004KT 11SM 17/04 A3000 RMK SLP164 T01660043 57018 IEM_DS3505
ZHHH,2001-04-21 07:00,ZHHH 210700Z AUTO 02010KT 6SM 16/05 A3000 RMK T01600050 IEM_DS3505
ZHHH,2001-04-21 08:00,ZHHH 210800Z AUTO 03010KT 6SM 15/05 A3000 RMK T01500050 IEM_DS3505
ZHHH,2001-04-21 09:00,ZHHH 210900Z AUTO 02004KT 0SM 16/07 A3000 RMK SLP166 T01560067 52002 IEM_DS3505
ZHHH,2001-04-21 10:00,ZHHH 211000Z AUTO 02006KT 7SM 15/06 A3003 RMK T01500060 IEM_DS3505
ZHHH,2001-04-21 11:00,ZHHH 211100Z AUTO 02008KT 6SM 15/06 A3006 RMK T01500060 IEM_DS3505
ZHHH,2001-04-21 12:00,ZHHH 211200Z AUTO 04004KT 7SM 15/08 A3006 RMK 60003 SLP184 T01480081 52018 IEM_DS3505
ZHHH,2001-04-21 13:00,ZHHH 211300Z AUTO 03006KT 6SM 14/10 A3009 RMK T01400100 IEM_DS3505
ZHHH,2001-04-21 14:00,ZHHH 211400Z AUTO 6SM 14/09 A3012 RMK T01400090 IEM_DS3505
ZHHH,2001-04-21 15:00,ZHHH 211500Z AUTO 36002KT 7SM 14/10 A3012 RMK SLP204 T01400099 52020 IEM_DS3505
ZHHH,2001-04-21 16:00,ZHHH 211600Z AUTO 36004KT 6SM 13/11 A3012 RMK T01300110 IEM_DS3505
ZHHH,2001-04-21 17:00,ZHHH 211700Z AUTO 36006KT 7SM 12/11 A3012 RMK T01200110 IEM_DS3505
ZHHH,2001-04-21 18:00,ZHHH 211800Z AUTO 34004KT 6SM 12/11 A3012 RMK 60002 SLP202 T01200113 57002 IEM_DS3505
ZHHH,2001-04-21 19:00,ZHHH 211900Z AUTO 36006KT 1 1/4SM 11/11 A3012 RMK T01100110 IEM_DS3505
ZHHH,2001-04-21 20:00,ZHHH 212000Z AUTO 1 1/4SM 11/11 A3009 RMK T01100110 IEM_DS3505
ZHHH,2001-04-21 21:00,ZHHH 212100Z AUTO 04002KT 6SM 12/12 A3009 RMK 70030 SLP193 T01190119 57009 IEM_DS3505
ZHHH,2001-04-21 22:00,ZHHH 212200Z AUTO 36006KT 1 1/4SM 11/11 A3009 RMK T01100110 IEM_DS3505
ZHHH,2001-04-21 23:00,ZHHH 212300Z AUTO 36006KT 1 1/2SM 12/11 A3012 RMK T01200110 IEM_DS3505
ZHHH,2001-04-22 00:00,ZHHH 220000Z AUTO 36004KT 9SM 13/12 A3012 RMK 60028 SLP205 T01260118 52012 IEM_DS3505
ZHHH,2001-04-22 01:00,ZHHH 220100Z AUTO 35006KT 3SM 13/12 A3015 RMK T01300120 IEM_DS3505
ZHHH,2001-04-22 02:00,ZHHH 220200Z AUTO 4SM 14/12 A3015 RMK T01400120 IEM_DS3505
ZHHH,2001-04-22 03:00,ZHHH 220300Z AUTO 04002KT 9SM 15/12 A3015 RMK SLP208 T01510124 52003 IEM_DS3505
ZHHH,2001-04-22 04:00,ZHHH 220400Z AUTO 04002KT 6SM 16/12 A3012 RMK T01600120 IEM_DS3505
ZHHH,2001-04-22 05:00,ZHHH 220500Z AUTO 6SM 18/12 A3009 RMK T01800120 IEM_DS3505
ZHHH,2001-04-22 06:00,ZHHH 220600Z AUTO 14002KT 12SM 19/12 A3006 RMK SLP177 T01890120 57031 IEM_DS3505
ZHHH,2001-04-22 07:00,ZHHH 220700Z AUTO 13010KT 6SM 19/07 A3003 RMK T01900070 IEM_DS3505
ZHHH,2001-04-22 08:00,ZHHH 220800Z AUTO 14010KT 6SM 19/08 A3000 RMK T01900080 IEM_DS3505
ZHHH,2001-04-22 09:00,ZHHH 220900Z AUTO 11002KT 9SM 19/09 A3000 RMK SLP160 T01880087 57017 IEM_DS3505
ZHHH,2001-04-22 10:00,ZHHH 221000Z AUTO 6SM 18/09 A3000 RMK T01800090 IEM_DS3505
ZHHH,2001-04-22 11:00,ZHHH 221100Z AUTO 10004KT 6SM 18/11 A2997 RMK T01800110 IEM_DS3505
ZHHH,2001-04-22 12:00,ZHHH 221200Z AUTO 11002KT 6SM 17/09 A3000 RMK 60000 SLP164 T01700092 52004 IEM_DS3505
ZHHH,2001-04-22 13:00,ZHHH 221300Z AUTO 6SM 16/09 A3003 RMK T01600090 IEM_DS3505
ZHHH,2001-04-22 14:00,ZHHH 221400Z AUTO 6SM 16/10 A3000 RMK T01600100 IEM_DS3505
ZHHH,2001-04-22 15:00,ZHHH 221500Z AUTO 14002KT 6SM 16/10 A3000 RMK SLP165 T01620095 52001 IEM_DS3505
ZHHH,2001-04-22 16:00,ZHHH 221600Z AUTO 6SM 16/09 A3000 RMK T01600090 IEM_DS3505
ZHHH,2001-04-22 17:00,ZHHH 221700Z AUTO 16002KT 6SM 16/09 A2997 RMK T01600090 IEM_DS3505
ZHHH,2001-04-22 18:00,ZHHH 221800Z AUTO 00000KT 7SM 15/11 A2997 RMK 60003 SLP153 T01470107 57012 IEM_DS3505
ZHHH,2001-04-22 19:00,ZHHH 221900Z AUTO 12002KT 6SM 15/11 A2994 RMK T01500110 IEM_DS3505
ZHHH,2001-04-22 20:00,ZHHH 222000Z AUTO 00000KT 6SM 15/11 A2994 RMK T01500110 IEM_DS3505
ZHHH,2001-04-22 21:00,ZHHH 222100Z AUTO 00000KT 7SM 15/12 A2994 RMK 70000 SLP138 T01520124 57015 IEM_DS3505
ZHHH,2001-04-22 22:00,ZHHH 222200Z AUTO 6SM 15/12 A2994 RMK T01500120 IEM_DS3505
ZHHH,2001-04-22 23:00,ZHHH 222300Z AUTO 07004KT 6SM 15/12 A2994 RMK T01500120 IEM_DS3505
ZHHH,2001-04-23 00:00,ZHHH 230000Z AUTO 16002KT 9SM 16/12 A2997 RMK 70000 SLP149 T01580120 52011 IEM_DS3505
ZHHH,2001-04-23 01:00,ZHHH 230100Z AUTO 00000KT 3SM 15/13 A2997 RMK T01500130 IEM_DS3505
ZHHH,2001-04-23 02:00,ZHHH 230200Z AUTO 2SM 15/13 A2997 RMK T01500130 IEM_DS3505
ZHHH,2001-04-23 03:00,ZHHH 230300Z AUTO 27004KT 6SM 15/14 A2997 RMK SLP155 T01510140 52006 IEM_DS3505
ZHHH,2001-04-23 04:00,ZHHH 230400Z AUTO 01006KT 2SM 14/14 A2997 RMK T01400140 IEM_DS3505
ZHHH,2001-04-23 05:00,ZHHH 230500Z AUTO 2 1/2SM 15/13 A2997 RMK T01500130 IEM_DS3505
ZHHH,2001-04-23 06:00,ZHHH 230600Z AUTO 34004KT 9SM 16/13 A2994 RMK 60002 SLP144 T01590133 57011 IEM_DS3505
ZHHH,2001-04-23 07:00,ZHHH 230700Z AUTO 5SM 15/12 A2994 RMK T01500120 IEM_DS3505
ZHHH,2001-04-23 08:00,ZHHH 230800Z AUTO 7SM 15/12 A2994 RMK T01500120 IEM_DS3505
ZHHH,2001-04-23 09:00,ZHHH 230900Z AUTO 36002KT 8SM 15/13 A2994 RMK SLP141 T01540126 57003 IEM_DS3505
ZHHH,2001-04-23 10:00,ZHHH 231000Z AUTO 01006KT 1SM 13/13 A2997 RMK T01300130 IEM_DS3505
ZHHH,2001-04-23 11:00,ZHHH 231100Z AUTO 36006KT 1SM 13/13 A2997 RMK T01300130 IEM_DS3505
ZHHH,2001-04-23 12:00,ZHHH 231200Z AUTO 36002KT 6SM 13/13 A3003 RMK 60002 SLP167 T01310131 52026 IEM_DS3505
ZHHH,2001-04-23 13:00,ZHHH 231300Z AUTO 03008KT 3SM 13/13 A3006 RMK T01300130 IEM_DS3505
ZHHH,2001-04-23 15:00,ZHHH 231500Z AUTO 36002KT 7SM 13/12 RMK SLP191 T01330116 52024 IEM_DS3505
ZHHH,2001-04-23 16:00,ZHHH 231600Z AUTO 01006KT 6SM 13/11 A3009 RMK T01300110 IEM_DS3505
ZHHH,2001-04-23 17:00,ZHHH 231700Z AUTO 35006KT 6SM 13/11 A3009 RMK T01300110 IEM_DS3505
ZHHH,2001-04-23 18:00,ZHHH 231800Z AUTO 34002KT 7SM 13/12 A3006 RMK 60002 SLP187 T01320118 57004 IEM_DS3505
ZHHH,2001-04-23 19:00,ZHHH 231900Z AUTO 36008KT 3SM 13/11 A3006 RMK T01300110 IEM_DS3505
ZHHH,2001-04-23 20:00,ZHHH 232000Z AUTO 01008KT 2 1/2SM 13/11 A3006 RMK T01300110 IEM_DS3505
ZHHH,2001-04-23 21:00,ZHHH 232100Z AUTO 34002KT 7SM 13/11 A3009 RMK 70006 SLP190 T01300113 52003 IEM_DS3505
ZHHH,2001-04-23 22:00,ZHHH 232200Z AUTO 34008KT 2 1/2SM 12/11 A3009 RMK T01200110 IEM_DS3505
ZHHH,2001-04-23 23:00,ZHHH 232300Z AUTO 36008KT 2 1/2SM 12/11 A3009 RMK T01200110 IEM_DS3505
ZHHH,2001-04-24 00:00,ZHHH 240000Z AUTO 36004KT 12SM 13/10 A3012 RMK 70006 SLP205 T01290098 52015 IEM_DS3505
ZHHH,2001-04-24 01:00,ZHHH 240100Z AUTO 02008KT 7SM 14/10 A3015 RMK T01400100 IEM_DS3505
ZHHH,2001-04-24 02:00,ZHHH 240200Z AUTO 03008KT 6SM 14/09 A3015 RMK T01400090 IEM_DS3505
ZHHH,2001-04-24 03:00,ZHHH 240300Z AUTO 02004KT 16SM 16/10 A3015 RMK SLP210 T01600096 52005 IEM_DS3505
ZHHH,2001-04-24 04:00,ZHHH 240400Z AUTO 05010KT 6SM 17/09 A3012 RMK T01700090 IEM_DS3505
ZHHH,2001-04-24 05:00,ZHHH 240500Z AUTO 36006KT 6SM 17/10 A3012 RMK T01700100 IEM_DS3505
ZHHH,2001-04-24 06:00,ZHHH 240600Z AUTO 36004KT 12SM 18/10 A3009 RMK SLP193 T01830097 57017 IEM_DS3505
ZHHH,2001-04-24 07:00,ZHHH 240700Z AUTO 03006KT 6SM 18/09 A3006 RMK T01800090 IEM_DS3505
ZHHH,2001-04-24 08:00,ZHHH 240800Z AUTO 05008KT 6SM 18/10 A3006 RMK T01800100 IEM_DS3505
ZHHH,2001-04-24 09:00,ZHHH 240900Z AUTO 07002KT 9SM 18/10 A3006 RMK SLP183 T01810100 57010 IEM_DS3505
ZHHH,2001-04-24 10:00,ZHHH 241000Z AUTO 04006KT 6SM 17/11 A3006 RMK T01700110 IEM_DS3505
ZHHH,2001-04-24 11:00,ZHHH 241100Z AUTO 04008KT 2 1/2SM 16/11 A3009 RMK T01600110 IEM_DS3505
ZHHH,2001-04-24 12:00,ZHHH 241200Z AUTO 02004KT 9SM 17/11 A3009 RMK SLP196 T01680107 52013 IEM_DS3505
ZHHH,2001-04-24 13:00,ZHHH 241300Z AUTO 04006KT 2 1/2SM 16/11 A3012 RMK T01600110 IEM_DS3505
ZHHH,2001-04-24 14:00,ZHHH 241400Z AUTO 03006KT 2 1/2SM 15/12 A3012 RMK T01500120 IEM_DS3505
ZHHH,2001-04-24 15:00,ZHHH 241500Z AUTO 36002KT 9SM 15/12 A3015 RMK SLP208 T01540122 52012 IEM_DS3505
ZHHH,2001-04-24 16:00,ZHHH 241600Z AUTO 03006KT 3SM 14/12 A3012 RMK T01400120 IEM_DS3505
ZHHH,2001-04-24 17:00,ZHHH 241700Z AUTO 03006KT 3SM 14/11 A3012 RMK T01400110 IEM_DS3505
ZHHH,2001-04-24 18:00,ZHHH 241800Z AUTO 04002KT 9SM 14/12 A3012 RMK SLP202 T01440116 57006 IEM_DS3505
ZHHH,2001-04-24 19:00,ZHHH 241900Z AUTO 04006KT 2SM 13/11 A3012 RMK T01300110 IEM_DS3505
ZHHH,2001-04-24 20:00,ZHHH 242000Z AUTO 2SM 13/10 A3009 RMK T01300100 IEM_DS3505
ZHHH,2001-04-24 21:00,ZHHH 242100Z AUTO 04002KT 9SM 14/12 A3009 RMK SLP195 T01370115 57007 IEM_DS3505
ZHHH,2001-04-24 22:00,ZHHH 242200Z AUTO 06006KT 3SM 12/10 A3009 RMK T01200100 IEM_DS3505
ZHHH,2001-04-24 23:00,ZHHH 242300Z AUTO 07006KT 3SM 12/10 A3009 RMK T01200100 IEM_DS3505
ZHHH,2001-04-25 00:00,ZHHH 250000Z AUTO 07004KT 11SM 14/11 A3012 RMK SLP203 T01450107 52008 IEM_DS3505
ZHHH,2001-04-25 01:00,ZHHH 250100Z AUTO 6SM 16/10 A3015 RMK T01600100 IEM_DS3505
ZHHH,2001-04-25 02:00,ZHHH 250200Z AUTO 6SM 17/10 A3015 RMK T01700100 IEM_DS3505
ZHHH,2001-04-25 03:00,ZHHH 250300Z AUTO 11002KT 11SM 19/12 A3015 RMK SLP206 T01910121 52003 IEM_DS3505
ZHHH,2001-04-25 04:00,ZHHH 250400Z AUTO 6SM 19/10 A3012 RMK T01900100 IEM_DS3505
ZHHH,2001-04-25 05:00,ZHHH 250500Z AUTO 6SM 20/09 A3012 RMK T02000090 IEM_DS3505
ZHHH,2001-04-25 06:00,ZHHH 250600Z AUTO 07002KT 12SM 20/11 A3009 RMK SLP186 T02010114 57020 IEM_DS3505
ZHHH,2001-04-25 07:00,ZHHH 250700Z AUTO 12006KT 6SM 20/08 A3006 RMK T02000080 IEM_DS3505
ZHHH,2001-04-25 08:00,ZHHH 250800Z AUTO 12006KT 6SM 21/08 A3003 RMK T02100080 IEM_DS3505
ZHHH,2001-04-25 09:00,ZHHH 250900Z AUTO 11004KT 12SM 21/11 A3000 RMK SLP164 T02090113 57022 IEM_DS3505
ZHHH,2001-04-25 10:00,ZHHH 251000Z AUTO 6SM 20/10 A3000 RMK T02000100 IEM_DS3505
ZHHH,2001-04-25 11:00,ZHHH 251100Z AUTO 6SM 19/11 A3003 RMK T01900110 IEM_DS3505
ZHHH,2001-04-25 12:00,ZHHH 251200Z AUTO 11002KT 9SM 19/12 A3003 RMK SLP173 T01870122 52009 IEM_DS3505
ZHHH,2001-04-25 13:00,ZHHH 251300Z AUTO 6SM 18/12 A3006 RMK T01800120 IEM_DS3505
ZHHH,2001-04-25 14:00,ZHHH 251400Z AUTO 15004KT 6SM 18/11 A3006 RMK T01800110 IEM_DS3505
ZHHH,2001-04-25 15:00,ZHHH 251500Z AUTO 00000KT 9SM 16/10 A3006 RMK SLP183 T01620105 52010 IEM_DS3505
ZHHH,2001-04-25 16:00,ZHHH 251600Z AUTO 14006KT 4SM 16/11 A3006 RMK T01600110 IEM_DS3505
ZHHH,2001-04-25 17:00,ZHHH 251700Z AUTO 13004KT 3SM 16/11 A3006 RMK T01600110 IEM_DS3505
ZHHH,2001-04-25 18:00,ZHHH 251800Z AUTO 14002KT 9SM 16/10 A3003 RMK SLP177 T01550100 57006 IEM_DS3505
ZHHH,2001-04-25 19:00,ZHHH 251900Z AUTO 15006KT 2 1/2SM 15/10 A3003 RMK T01500100 IEM_DS3505
ZHHH,2001-04-25 20:00,ZHHH 252000Z AUTO 14006KT 15/09 A3003 RMK T01500090 IEM_DS3505
ZHHH,2001-04-25 21:00,ZHHH 252100Z AUTO 11004KT 9SM 15/10 A3003 RMK SLP167 T01480104 57010 IEM_DS3505
ZHHH,2001-04-25 22:00,ZHHH 252200Z AUTO 11006KT 4SM 13/10 A3003 RMK T01300100 IEM_DS3505
ZHHH,2001-04-25 23:00,ZHHH 252300Z AUTO 12008KT 4SM 13/10 A3003 RMK T01300100 IEM_DS3505
ZHHH,2001-04-26 00:00,ZHHH 260000Z AUTO 14006KT 7SM 17/09 A3006 RMK SLP181 T01690090 52014 IEM_DS3505
ZHHH,2001-04-26 01:00,ZHHH 260100Z AUTO 15008KT 6SM 17/10 A3009 RMK T01700100 IEM_DS3505
ZHHH,2001-04-26 02:00,ZHHH 260200Z AUTO 15008KT 6SM 18/10 A3006 RMK T01800100 IEM_DS3505
ZHHH,2001-04-26 03:00,ZHHH 260300Z AUTO 18002KT 11SM 20/12 A3006 RMK SLP179 T01990123 57002 IEM_DS3505
ZHHH,2001-04-26 04:00,ZHHH 260400Z AUTO 21006KT 6SM 21/12 A3003 RMK T02100120 IEM_DS3505
ZHHH,2001-04-26 05:00,ZHHH 260500Z AUTO 22006KT 6SM 22/13 A2997 RMK T02200130 IEM_DS3505
ZHHH,2001-04-26 06:00,ZHHH 260600Z AUTO 11004KT 11SM 22/12 A2994 RMK SLP145 T02210125 57034 IEM_DS3505
ZHHH,2001-04-26 07:00,ZHHH 260700Z AUTO 13008KT 6SM 22/12 A2994 RMK T02200120 IEM_DS3505
ZHHH,2001-04-26 08:00,ZHHH 260800Z AUTO 12008KT 6SM 22/12 A2991 RMK T02200120 IEM_DS3505
ZHHH,2001-04-26 09:00,ZHHH 260900Z AUTO 09004KT 11SM 22/12 A2988 RMK SLP120 T02220119 57025 IEM_DS3505
ZHHH,2001-04-26 10:00,ZHHH 261000Z AUTO 11008KT 6SM 21/14 A2988 RMK T02100140 IEM_DS3505
ZHHH,2001-04-26 11:00,ZHHH 261100Z AUTO 11006KT 6SM 20/14 A2988 RMK T02000140 IEM_DS3505
ZHHH,2001-04-26 12:00,ZHHH 261200Z AUTO 11002KT 12SM 21/13 A2988 RMK SLP125 T02070134 52005 IEM_DS3505
ZHHH,2001-04-26 13:00,ZHHH 261300Z AUTO 12006KT 6SM 19/14 A2991 RMK T01900140 IEM_DS3505
ZHHH,2001-04-26 14:00,ZHHH 261400Z AUTO 11006KT 6SM 19/15 A2991 RMK T01900150 IEM_DS3505
ZHHH,2001-04-26 15:00,ZHHH 261500Z AUTO 14002KT 12SM 20/14 A2991 RMK SLP130 T02030142 52005 IEM_DS3505
ZHHH,2001-04-26 16:00,ZHHH 261600Z AUTO 11006KT 4SM 19/15 A2991 RMK T01900150 IEM_DS3505
ZHHH,2001-04-26 17:00,ZHHH 261700Z AUTO 13006KT 4SM 18/15 A2988 RMK T01800150 IEM_DS3505
ZHHH,2001-04-26 18:00,ZHHH 261800Z AUTO 14002KT 9SM 19/15 A2988 RMK SLP113 T01930151 57016 IEM_DS3505
ZHHH,2001-04-26 19:00,ZHHH 261900Z AUTO 13008KT 4SM 18/15 A2983 RMK T01800150 IEM_DS3505
ZHHH,2001-04-26 20:00,ZHHH 262000Z AUTO 13010KT 4SM 18/15 A2980 RMK T01800150 IEM_DS3505
ZHHH,2001-04-26 21:00,ZHHH 262100Z AUTO 00000KT 6SM 17/16 A2985 RMK 70015 SLP105 T01720164 57008 IEM_DS3505
ZHHH,2001-04-26 22:00,ZHHH 262200Z AUTO 14010KT 1 1/4SM 16/16 A2983 RMK T01600160 IEM_DS3505
ZHHH,2001-04-26 23:00,ZHHH 262300Z AUTO 1SM 16/16 A2983 RMK T01600160 IEM_DS3505
ZHHH,2001-04-27 00:00,ZHHH 270000Z AUTO 11002KT 6SM 17/17 A2983 RMK 60039 SLP106 T01700168 54000 IEM_DS3505
ZHHH,2001-04-27 01:00,ZHHH 270100Z AUTO 10006KT 1SM 16/16 A2983 RMK T01600160 IEM_DS3505
ZHHH,2001-04-27 02:00,ZHHH 270200Z AUTO 12006KT 1SM 16/16 A2983 RMK T01600160 IEM_DS3505
ZHHH,2001-04-27 03:00,ZHHH 270300Z AUTO 09002KT 6SM 17/17 A2980 RMK SLP096 T01700170 57010 IEM_DS3505
ZHHH,2001-04-27 04:00,ZHHH 270400Z AUTO 12006KT 1SM 17/17 A2980 RMK T01700170 IEM_DS3505
ZHHH,2001-04-27 05:00,ZHHH 270500Z AUTO 12006G19KT 1 1/4SM 17/17 A2977 RMK T01700170 IEM_DS3505
ZHHH,2001-04-27 06:00,ZHHH 270600Z AUTO 09002KT 4SM 18/18 A2977 RMK SLP081 T01770177 IEM_DS3505
ZHHH,2001-04-27 07:00,ZHHH 270700Z AUTO 13004KT 1SM 17/17 A2974 RMK T01700170 IEM_DS3505
ZHHH,2001-04-27 08:00,ZHHH 270800Z AUTO 1 1/4SM 17/17 A2974 RMK T01700170 IEM_DS3505
ZHHH,2001-04-27 09:00,ZHHH 270900Z AUTO 00000KT 4SM 18/18 A2971 RMK SLP068 T01810181 57013 IEM_DS3505
ZHHH,2001-04-27 10:00,ZHHH 271000Z AUTO 10006KT 1SM 17/17 A2971 RMK T01700170 IEM_DS3505
ZHHH,2001-04-27 11:00,ZHHH 271100Z AUTO 1SM 17/17 A2974 RMK T01700170 IEM_DS3505
ZHHH,2001-04-27 12:00,ZHHH 271200Z AUTO 00000KT 3SM 18/18 A2977 RMK 60008 SLP076 T01810181 52008 IEM_DS3505
ZHHH,2001-04-27 13:00,ZHHH 271300Z AUTO 1SM 17/17 A2977 RMK T01700170 IEM_DS3505
ZHHH,2001-04-27 14:00,ZHHH 271400Z AUTO 04004KT 1 1/2SM 17/17 A2980 RMK T01700170 IEM_DS3505
ZHHH,2001-04-27 15:00,ZHHH 271500Z AUTO 04004KT 3SM 18/18 A2977 RMK SLP082 T01800179 52006 IEM_DS3505
ZHHH,2001-04-27 16:00,ZHHH 271600Z AUTO 05006KT 2 1/2SM 17/17 A2977 RMK T01700170 IEM_DS3505
ZHHH,2001-04-27 17:00,ZHHH 271700Z AUTO 04006KT 2SM 17/17 A2977 RMK T01700170 IEM_DS3505
ZHHH,2001-04-27 18:00,ZHHH 271800Z AUTO 04002KT 3SM 17/17 A2974 RMK 60004 SLP070 T01710171 57012 IEM_DS3505
ZHHH,2001-04-27 20:00,ZHHH 272000Z AUTO 04008KT 1SM 17/17 A2974 RMK T01700170 IEM_DS3505
ZHHH,2001-04-27 21:00,ZHHH 272100Z AUTO 07002KT 9SM 17/17 A2974 RMK 70093 SLP065 T01710171 57005 IEM_DS3505
ZHHH,2001-04-27 22:00,ZHHH 272200Z AUTO 07006KT 1SM 17/17 A2971 RMK T01700170 IEM_DS3505
ZHHH,2001-04-27 23:00,ZHHH 272300Z AUTO 06006KT 1 1/2SM 16/16 A2974 RMK T01600160 IEM_DS3505
ZHHH,2001-04-28 00:00,ZHHH 280000Z AUTO 02004KT 6SM 17/17 A2974 RMK 60028 SLP070 T01710171 52005 IEM_DS3505
ZHHH,2001-04-28 01:00,ZHHH 280100Z AUTO 04008KT 2 1/2SM 17/17 A2971 RMK T01700170 IEM_DS3505
ZHHH,2001-04-28 02:00,ZHHH 280200Z AUTO 05008KT 1 1/4SM 17/16 A2974 RMK T01700160 IEM_DS3505
ZHHH,2001-04-28 03:00,ZHHH 280300Z AUTO 02004KT 6SM 17/17 A2974 RMK SLP064 T01700170 57006 IEM_DS3505
ZHHH,2001-04-28 04:00,ZHHH 280400Z AUTO 02008KT 3SM 17/17 A2971 RMK T01700170 IEM_DS3505
ZHHH,2001-04-28 05:00,ZHHH 280500Z AUTO 03008KT 3SM RMK IEM_DS3505
ZHHH,2001-04-28 06:00,ZHHH 280600Z AUTO 36004KT 6SM 18/18 A2971 RMK 60028 SLP061 T01790175 57003 IEM_DS3505
ZHHH,2001-04-28 07:00,ZHHH 280700Z AUTO 03008KT 4SM 18/17 A2968 RMK T01800170 IEM_DS3505
ZHHH,2001-04-28 08:00,ZHHH 280800Z AUTO 4SM 19/17 A2968 RMK T01900170 IEM_DS3505
ZHHH,2001-04-28 09:00,ZHHH 280900Z AUTO 34002KT 7SM 19/18 A2971 RMK SLP057 T01860176 57004 IEM_DS3505
ZHHH,2001-04-28 10:00,ZHHH 281000Z AUTO 04008KT 4SM 18/16 A2971 RMK T01800160 IEM_DS3505
ZHHH,2001-04-28 11:00,ZHHH 281100Z AUTO 05006KT 7SM 17/16 A2974 RMK T01700160 IEM_DS3505
ZHHH,2001-04-28 12:00,ZHHH 281200Z AUTO 04002KT 6SM 18/16 A2974 RMK 60003 SLP076 T01760161 52019 IEM_DS3505
ZHHH,2001-04-28 13:00,ZHHH 281300Z AUTO 03008KT 4SM 17/16 A2977 RMK T01700160 IEM_DS3505
ZHHH,2001-04-28 14:00,ZHHH 281400Z AUTO 04008KT 4SM 17/15 A2977 RMK T01700150 IEM_DS3505
ZHHH,2001-04-28 15:00,ZHHH 281500Z AUTO 36002KT 7SM 17/16 A2977 RMK SLP082 T01710159 52006 IEM_DS3505
ZHHH,2001-04-28 16:00,ZHHH 281600Z AUTO 2SM 17/16 A2977 RMK T01700160 IEM_DS3505
ZHHH,2001-04-28 17:00,ZHHH 281700Z AUTO 00000KT 1 1/2SM 16/16 A2974 RMK T01600160 IEM_DS3505
ZHHH,2001-04-28 18:00,ZHHH 281800Z AUTO 27004KT 4SM 17/16 A2974 RMK 60003 SLP074 T01670163 57008 IEM_DS3505
ZHHH,2001-04-28 19:00,ZHHH 281900Z AUTO 1 1/2SM 16/16 A2974 RMK T01600160 IEM_DS3505
ZHHH,2001-04-28 20:00,ZHHH 282000Z AUTO 00000KT 1 1/4SM 16/16 A2974 RMK T01600160 IEM_DS3505
ZHHH,2001-04-28 21:00,ZHHH 282100Z AUTO 36002KT 4SM 16/16 A2974 RMK 70029 SLP073 T01650163 57001 IEM_DS3505
ZHHH,2001-04-28 22:00,ZHHH 282200Z AUTO 1SM 16/16 A2977 RMK T01600160 IEM_DS3505
ZHHH,2001-04-28 23:00,ZHHH 282300Z AUTO 1SM 16/16 A2980 RMK T01600160 IEM_DS3505
ZHHH,2001-04-29 00:00,ZHHH 290000Z AUTO 36004KT 6SM 17/16 A2977 RMK 60002 SLP085 T01660164 52012 IEM_DS3505
ZHHH,2001-04-29 01:00,ZHHH 290100Z AUTO 1SM 17/16 A2980 RMK T01700160 IEM_DS3505
ZHHH,2001-04-29 02:00,ZHHH 290200Z AUTO 05008KT 2 1/2SM 18/16 A2980 RMK T01800160 IEM_DS3505
ZHHH,2001-04-29 03:00,ZHHH 290300Z AUTO 36002KT 7SM 19/16 A2983 RMK SLP103 T01890165 52018 IEM_DS3505
ZHHH,2001-04-29 04:00,ZHHH 290400Z AUTO 3SM 19/16 A2983 RMK T01900160 IEM_DS3505
ZHHH,2001-04-29 05:00,ZHHH 290500Z AUTO 4SM 20/16 A2980 RMK T02000160 IEM_DS3505
ZHHH,2001-04-29 06:00,ZHHH 290600Z AUTO 00000KT 9SM 20/16 A2980 RMK 60003 SLP094 T02030164 57009 IEM_DS3505
ZHHH,2001-04-29 07:00,ZHHH 290700Z AUTO 36006KT 4SM 20/17 A2980 RMK T02000170 IEM_DS3505
ZHHH,2001-04-29 08:00,ZHHH 290800Z AUTO 34006KT 7SM 20/17 A2980 RMK T02000170 IEM_DS3505
ZHHH,2001-04-29 09:00,ZHHH 290900Z AUTO 09002KT 9SM 21/17 A2983 RMK SLP099 T02060168 52005 IEM_DS3505
ZHHH,2001-04-29 10:00,ZHHH 291000Z AUTO 03006KT 7SM 19/16 A2985 RMK T01900160 IEM_DS3505
ZHHH,2001-04-29 11:00,ZHHH 291100Z AUTO 02006KT 3SM 19/16 A2988 RMK T01900160 IEM_DS3505
ZHHH,2001-04-29 12:00,ZHHH 291200Z AUTO 00000KT 8SM 19/16 A2991 RMK SLP126 T01890162 52027 IEM_DS3505
ZHHH,2001-04-29 13:00,ZHHH 291300Z AUTO 05006KT 2 1/2SM 18/16 A2994 RMK T01800160 IEM_DS3505
ZHHH,2001-04-29 14:00,ZHHH 291400Z AUTO 07006KT 2 1/2SM 18/16 A2997 RMK T01800160 IEM_DS3505
ZHHH,2001-04-29 15:00,ZHHH 291500Z AUTO 00000KT 7SM 18/16 A2997 RMK SLP154 T01750159 52028 IEM_DS3505
ZHHH,2001-04-29 16:00,ZHHH 291600Z AUTO 02004KT 2SM 16/15 A2997 RMK T01600150 IEM_DS3505
ZHHH,2001-04-29 17:00,ZHHH 291700Z AUTO 01004KT 1 1/2SM 16/15 A2997 RMK T01600150 IEM_DS3505
ZHHH,2001-04-29 18:00,ZHHH 291800Z AUTO 34002KT 9SM 17/16 A3000 RMK SLP159 T01660157 52005 IEM_DS3505
ZHHH,2001-04-29 19:00,ZHHH 291900Z AUTO 01006KT 2SM 16/15 A3000 RMK T01600150 IEM_DS3505
ZHHH,2001-04-29 20:00,ZHHH 292000Z AUTO 04006KT 2SM 16/14 A3000 RMK T01600140 IEM_DS3505
ZHHH,2001-04-29 21:00,ZHHH 292100Z AUTO 07002KT 9SM 16/15 A3000 RMK 70002 SLP169 T01620148 52010 IEM_DS3505
ZHHH,2001-04-29 22:00,ZHHH 292200Z AUTO 03006KT 1 1/2SM 15/14 A3003 RMK T01500140 IEM_DS3505
ZHHH,2001-04-29 23:00,ZHHH 292300Z AUTO 04010KT 2 1/2SM 16/14 A3003 RMK T01600140 IEM_DS3505
ZHHH,2001-04-30 00:00,ZHHH 300000Z AUTO 04004KT 12SM 18/14 A3006 RMK 70003 SLP181 T01760141 52012 IEM_DS3505
ZHHH,2001-04-30 01:00,ZHHH 300100Z AUTO 2 1/2SM 18/15 A3006 RMK T01800150 IEM_DS3505
ZHHH,2001-04-30 02:00,ZHHH 300200Z AUTO 31006KT 4SM 18/15 A3009 RMK T01800150 IEM_DS3505
ZHHH,2001-04-30 03:00,ZHHH 300300Z AUTO 02004KT 12SM 20/14 A3006 RMK SLP184 T02040142 52003 IEM_DS3505
ZHHH,2001-04-30 04:00,ZHHH 300400Z AUTO 01006KT 2SM 21/14 A3006 RMK T02100140 IEM_DS3505
ZHHH,2001-04-30 05:00,ZHHH 300500Z AUTO 03008KT 1 1/2SM 22/12 A3006 RMK T02200120 IEM_DS3505
ZHHH,2001-04-30 06:00,ZHHH 300600Z AUTO 36004KT 9SM 22/13 A3003 RMK SLP175 T02210131 57009 IEM_DS3505
ZHHH,2001-04-30 07:00,ZHHH 300700Z AUTO 03010KT 2SM 22/12 A3003 RMK T02200120 IEM_DS3505
ZHHH,2001-04-30 08:00,ZHHH 300800Z AUTO 03006KT 2 1/2SM 21/13 A3003 RMK T02100130 IEM_DS3505
ZHHH,2001-04-30 09:00,ZHHH 300900Z AUTO 04002KT 9SM 21/14 A3003 RMK SLP166 T02140135 57009 IEM_DS3505
ZHHH,2001-04-30 10:00,ZHHH 301000Z AUTO 04006KT 2SM 21/13 A3003 RMK T02100130 IEM_DS3505
ZHHH,2001-04-30 11:00,ZHHH 301100Z AUTO 05008KT 1 1/2SM 20/12 A3003 RMK T02000120 IEM_DS3505
ZHHH,2001-04-30 12:00,ZHHH 301200Z AUTO 00000KT 9SM 20/12 A3003 RMK SLP173 T02000124 52007 IEM_DS3505
ZHHH,2001-04-30 13:00,ZHHH 301300Z AUTO 02006KT 1 1/2SM 19/10 A3006 RMK T01900100 IEM_DS3505
ZHHH,2001-04-30 14:00,ZHHH 301400Z AUTO 2SM 19/10 A3006 RMK T01900100 IEM_DS3505
ZHHH,2001-04-30 15:00,ZHHH 301500Z AUTO 00000KT 9SM 19/13 A3006 RMK SLP176 T01880127 52003 IEM_DS3505
ZHHH,2001-04-30 16:00,ZHHH 301600Z AUTO 02004KT 1 1/2SM 18/11 A3003 RMK T01800110 IEM_DS3505
ZHHH,2001-04-30 17:00,ZHHH 301700Z AUTO 2SM 18/12 A3003 RMK T01800120 IEM_DS3505
ZHHH,2001-04-30 18:00,ZHHH 301800Z AUTO 29002KT 9SM 18/13 A3003 RMK SLP174 T01830130 57002 IEM_DS3505
ZHHH,2001-04-30 19:00,ZHHH 301900Z AUTO 2 1/2SM 17/14 A3003 RMK T01700140 IEM_DS3505
ZHHH,2001-04-30 20:00,ZHHH 302000Z AUTO 2 1/2SM 17/14 A3000 RMK T01700140 IEM_DS3505
ZHHH,2001-04-30 21:00,ZHHH 302100Z AUTO 25002KT 9SM 17/14 A3000 RMK SLP162 T01730145 57012 IEM_DS3505
ZHHH,2001-04-30 22:00,ZHHH 302200Z AUTO 2SM 17/14 A3000 RMK T01700140 IEM_DS3505
ZHHH,2001-04-30 23:00,ZHHH 302300Z AUTO 30002KT 1 1/2SM 17/14 A3000 RMK T01700140 IEM_DS3505
ZHHH,2001-05-01 00:00,ZHHH 010000Z AUTO 00000KT 9SM 18/14 A3003 RMK SLP169 T01790143 52007 IEM_DS3505
ZHHH,2001-05-01 01:00,ZHHH 010100Z AUTO 1 1/2SM 19/13 A3003 RMK T01900130 IEM_DS3505
ZHHH,2001-05-01 02:00,ZHHH 010200Z AUTO 1 1/2SM 19/14 A3003 RMK T01900140 IEM_DS3505
ZHHH,2001-05-01 03:00,ZHHH 010300Z AUTO 27004KT 9SM 20/12 A3003 RMK SLP169 T02040123 54000 IEM_DS3505
ZHHH,2001-05-01 04:00,ZHHH 010400Z AUTO 2 1/2SM 23/13 A3000 RMK T02300130 IEM_DS3505
ZHHH,2001-05-01 05:00,ZHHH 010500Z AUTO 2 1/2SM 24/12 A2997 RMK T02400120 IEM_DS3505
ZHHH,2001-05-01 06:00,ZHHH 010600Z AUTO 3SM 24/10 A2994 RMK T02400100 IEM_DS3505
ZHHH,2001-05-01 07:00,ZHHH 010700Z AUTO 3SM 25/08 A2991 RMK T02500080 IEM_DS3505
ZHHH,2001-05-01 08:00,ZHHH 010800Z AUTO 3SM 25/11 A2988 RMK T02500110 IEM_DS3505
ZHHH,2001-05-01 09:00,ZHHH 010900Z AUTO 22002KT 11SM 25/10 A2988 RMK SLP120 T02500095 57019 IEM_DS3505
ZHHH,2001-05-01 10:00,ZHHH 011000Z AUTO 22006KT 6SM 24/10 A2988 RMK T02400100 IEM_DS3505
ZHHH,2001-05-01 11:00,ZHHH 011100Z AUTO 19004KT 22/13 A2988 RMK T02200130 IEM_DS3505
ZHHH,2001-05-01 12:00,ZHHH 011200Z AUTO 11002KT 12SM 21/15 A2988 RMK SLP125 T02110150 52004 IEM_DS3505
ZHHH,2001-05-01 13:00,ZHHH 011300Z AUTO 19004KT 6SM 20/15 A2991 RMK T02000150 IEM_DS3505
ZHHH,2001-05-01 15:00,ZHHH 011500Z AUTO 27002KT 11SM 19/16 A2991 RMK SLP129 T01900156 52004 IEM_DS3505
ZHHH,2001-05-01 16:00,ZHHH 011600Z AUTO 17004KT 6SM 18/16 A2991 RMK T01800160 IEM_DS3505
ZHHH,2001-05-01 17:00,ZHHH 011700Z AUTO 16002KT 6SM 18/15 A2991 RMK T01800150 IEM_DS3505
ZHHH,2001-05-01 18:00,ZHHH 011800Z AUTO 00000KT 9SM 17/14 A2988 RMK SLP120 T01680140 57008 IEM_DS3505
ZHHH,2001-05-01 19:00,ZHHH 011900Z AUTO 6SM 17/14 A2985 RMK T01700140 IEM_DS3505
ZHHH,2001-05-01 20:00,ZHHH 012000Z AUTO 14004KT 4SM 17/14 A2985 RMK T01700140 IEM_DS3505
ZHHH,2001-05-01 21:00,ZHHH 012100Z AUTO 14002KT 9SM 17/14 A2985 RMK SLP111 T01660145 57009 IEM_DS3505
ZHHH,2001-05-01 22:00,ZHHH 012200Z AUTO 13006KT 2SM 16/15 A2985 RMK T01600150 IEM_DS3505
ZHHH,2001-05-01 23:00,ZHHH 012300Z AUTO 13006KT 1 1/2SM 16/15 A2985 RMK T01600150 IEM_DS3505
ZHHH,2001-05-02 00:00,ZHHH 020000Z AUTO 11002KT 9SM 20/15 A2988 RMK SLP117 T02000154 52006 IEM_DS3505
ZHHH,2001-05-02 01:00,ZHHH 020100Z AUTO 12006KT 1 1/2SM 20/16 A2988 RMK T02000160 IEM_DS3505
ZHHH,2001-05-02 02:00,ZHHH 020200Z AUTO 12006KT 1 1/2SM 22/16 A2988 RMK T02200160 IEM_DS3505
ZHHH,2001-05-02 03:00,ZHHH 020300Z AUTO 16004KT 9SM 24/13 A2988 RMK SLP122 T02360130 52005 IEM_DS3505
ZHHH,2001-05-02 04:00,ZHHH 020400Z AUTO 18006KT 3SM 24/14 A2985 RMK T02400140 IEM_DS3505
ZHHH,2001-05-02 05:00,ZHHH 020500Z AUTO 21006KT 25/15 A2983 RMK T02500150 IEM_DS3505
ZHHH,2001-05-02 06:00,ZHHH 020600Z AUTO 16004KT 12SM 26/13 A2983 RMK SLP096 T02610129 57026 IEM_DS3505
ZHHH,2001-05-02 07:00,ZHHH 020700Z AUTO 21008KT 6SM 27/15 A2980 RMK T02700150 IEM_DS3505
ZHHH,2001-05-02 08:00,ZHHH 020800Z AUTO 22006KT 6SM 27/13 A2977 RMK T02700130 IEM_DS3505
ZHHH,2001-05-02 09:00,ZHHH 020900Z AUTO 22002KT 16SM 28/12 A2977 RMK SLP078 T02790124 57018 IEM_DS3505
ZHHH,2001-05-02 10:00,ZHHH 021000Z AUTO 6SM 26/13 A2977 RMK T02600130 IEM_DS3505
ZHHH,2001-05-02 11:00,ZHHH 021100Z AUTO 6SM 25/14 A2977 RMK T02500140 IEM_DS3505
ZHHH,2001-05-02 12:00,ZHHH 021200Z AUTO 14002KT 11SM 24/14 A2980 RMK SLP086 T02410138 52008 IEM_DS3505
ZHHH,2001-05-02 13:00,ZHHH 021300Z AUTO 11006KT 6SM 22/15 A2983 RMK T02200150 IEM_DS3505
ZHHH,2001-05-02 14:00,ZHHH 021400Z AUTO 12006KT 6SM 22/16 A2983 RMK T02200160 IEM_DS3505
ZHHH,2001-05-02 15:00,ZHHH 021500Z AUTO 00000KT 9SM 22/12 A2983 RMK SLP100 T02190124 52014 IEM_DS3505
ZHHH,2001-05-02 16:00,ZHHH 021600Z AUTO 6SM 21/16 A2983 RMK T02100160 IEM_DS3505
ZHHH,2001-05-02 17:00,ZHHH 021700Z AUTO 2 1/2SM 19/16 A2983 RMK T01900160 IEM_DS3505
ZHHH,2001-05-02 18:00,ZHHH 021800Z AUTO 00000KT 12SM 20/15 A2983 RMK SLP100 T02040152 54000 IEM_DS3505
ZHHH,2001-05-02 19:00,ZHHH 021900Z AUTO 3SM 19/15 A2980 RMK T01900150 IEM_DS3505
ZHHH,2001-05-02 20:00,ZHHH 022000Z AUTO 14006KT 2 1/2SM 19/16 A2980 RMK T01900160 IEM_DS3505
ZHHH,2001-05-02 21:00,ZHHH 022100Z AUTO 11002KT 12SM 18/16 A2980 RMK SLP092 T01800160 57008 IEM_DS3505
ZHHH,2001-05-02 22:00,ZHHH 022200Z AUTO 12010KT 2 1/2SM 18/15 A2983 RMK T01800150 IEM_DS3505
ZHHH,2001-05-02 23:00,ZHHH 022300Z AUTO 13012KT 2 1/2SM 19/16 A2983 RMK T01900160 IEM_DS3505
ZHHH,2001-05-03 00:00,ZHHH 030000Z AUTO 36004KT 7SM 21/18 A2985 RMK SLP116 T02060175 52024 IEM_DS3505
ZHHH,2001-05-03 01:00,ZHHH 030100Z AUTO 2 1/2SM 22/16 A2988 RMK T02200160 IEM_DS3505
ZHHH,2001-05-03 02:00,ZHHH 030200Z AUTO 2 1/2SM 23/17 A2988 RMK T02300170 IEM_DS3505
ZHHH,2001-05-03 03:00,ZHHH 030300Z AUTO 02002KT 9SM 26/18 A2988 RMK SLP118 T02650181 52002 IEM_DS3505
ZHHH,2001-05-03 04:00,ZHHH 030400Z AUTO 6SM 26/18 A2985 RMK T02600180 IEM_DS3505
ZHHH,2001-05-03 05:00,ZHHH 030500Z AUTO 28/17 A2985 RMK T02800170 IEM_DS3505
ZHHH,2001-05-03 06:00,ZHHH 030600Z AUTO 00000KT 9SM 29/15 A2983 RMK SLP104 T02920148 57014 IEM_DS3505
ZHHH,2001-05-03 07:00,ZHHH 030700Z AUTO 14006KT 6SM 28/16 A2983 RMK T02800160 IEM_DS3505
ZHHH,2001-05-03 08:00,ZHHH 030800Z AUTO 6SM 28/16 A2980 RMK T02800160 IEM_DS3505
ZHHH,2001-05-03 09:00,ZHHH 030900Z AUTO 04002KT 11SM 29/20 A2980 RMK SLP091 T02900199 57013 IEM_DS3505
ZHHH,2001-05-03 10:00,ZHHH 031000Z AUTO 11006KT 4SM 27/17 A2983 RMK T02700170 IEM_DS3505
ZHHH,2001-05-03 11:00,ZHHH 031100Z AUTO 11004KT 26/17 A2983 RMK T02600170 IEM_DS3505
ZHHH,2001-05-03 12:00,ZHHH 031200Z AUTO 11002KT 11SM 25/18 A2983 RMK SLP100 T02540185 52009 IEM_DS3505
ZHHH,2001-05-03 13:00,ZHHH 031300Z AUTO 2 1/2SM 25/17 A2985 RMK T02500170 IEM_DS3505
ZHHH,2001-05-03 14:00,ZHHH 031400Z AUTO 12002KT 2SM 24/16 A2988 RMK T02400160 IEM_DS3505
ZHHH,2001-05-03 15:00,ZHHH 031500Z AUTO 00000KT 11SM 23/18 A2988 RMK SLP123 T02260182 52023 IEM_DS3505
ZHHH,2001-05-03 16:00,ZHHH 031600Z AUTO 1 1/2SM 22/18 A2988 RMK T02200180 IEM_DS3505
ZHHH,2001-05-03 17:00,ZHHH 031700Z AUTO 06006KT 2SM 22/16 A2988 RMK T02200160 IEM_DS3505
ZHHH,2001-05-03 18:00,ZHHH 031800Z AUTO 07004KT 9SM 22/20 A2985 RMK SLP109 T02190195 57014 IEM_DS3505
ZHHH,2001-05-03 19:00,ZHHH 031900Z AUTO 11006KT 3SM 20/17 A2985 RMK T02000170 IEM_DS3505
ZHHH,2001-05-03 20:00,ZHHH 032000Z AUTO 08006KT 3SM 20/18 A2985 RMK T02000180 IEM_DS3505
ZHHH,2001-05-03 21:00,ZHHH 032100Z AUTO 07002KT 9SM 21/19 A2985 RMK SLP108 T02090191 57001 IEM_DS3505
ZHHH,2001-05-03 22:00,ZHHH 032200Z AUTO 06008KT 3SM 19/17 A2985 RMK T01900170 IEM_DS3505
ZHHH,2001-05-03 23:00,ZHHH 032300Z AUTO 07008KT 4SM 20/17 A2985 RMK T02000170 IEM_DS3505
ZHHH,2001-05-04 00:00,ZHHH 040000Z AUTO 07004KT 9SM 22/19 A2988 RMK SLP117 T02150187 52009 IEM_DS3505
ZHHH,2001-05-04 01:00,ZHHH 040100Z AUTO 09010KT 6SM 22/18 A2988 RMK T02200180 IEM_DS3505
ZHHH,2001-05-04 02:00,ZHHH 040200Z AUTO 10012KT 6SM 25/17 A2988 RMK T02500170 IEM_DS3505
ZHHH,2001-05-04 03:00,ZHHH 040300Z AUTO 09006KT 11SM 26/19 A2985 RMK SLP106 T02620189 57011 IEM_DS3505
ZHHH,2001-05-04 04:00,ZHHH 040400Z AUTO 12012KT 7SM 26/17 A2983 RMK T02600170 IEM_DS3505
ZHHH,2001-05-04 06:00,ZHHH 040600Z AUTO 34004KT 6SM 25/22 A2980 RMK 60003 SLP086 T02510224 57020 IEM_DS3505
ZHHH,2001-05-04 07:00,ZHHH 040700Z AUTO 36010KT 19SM RMK IEM_DS3505
ZHHH,2001-05-04 08:00,ZHHH 040800Z AUTO 04010KT 4SM 20/19 A2977 RMK T02000190 IEM_DS3505
ZHHH,2001-05-04 09:00,ZHHH 040900Z AUTO 04004KT 5SM 20/19 A2977 RMK SLP083 T02000192 57003 IEM_DS3505
ZHHH,2001-05-04 10:00,ZHHH 041000Z AUTO 06016KT 4SM 19/18 A2977 RMK T01900180 IEM_DS3505
ZHHH,2001-05-04 11:00,ZHHH 041100Z AUTO 03008KT 7SM 19/18 A2980 RMK T01900180 IEM_DS3505
ZHHH,2001-05-04 12:00,ZHHH 041200Z AUTO 04004KT 6SM 19/19 A2980 RMK 60110 SLP088 T01930190 52005 IEM_DS3505
ZHHH,2001-05-04 13:00,ZHHH 041300Z AUTO 02008KT 4SM 18/17 A2980 RMK T01800170 IEM_DS3505
ZHHH,2001-05-04 14:00,ZHHH 041400Z AUTO 35006KT 7SM 18/17 A2983 RMK T01800170 IEM_DS3505
ZHHH,2001-05-04 15:00,ZHHH 041500Z AUTO 36002KT 5SM 19/19 RMK SLP092 T01910191 52004 IEM_DS3505
ZHHH,2001-05-04 16:00,ZHHH 041600Z AUTO 03012KT 7SM 18/17 A2983 RMK T01800170 IEM_DS3505
ZHHH,2001-05-04 17:00,ZHHH 041700Z AUTO 02006KT 7SM 18/17 A2980 RMK T01800170 IEM_DS3505
ZHHH,2001-05-04 18:00,ZHHH 041800Z AUTO 36004KT 7SM 18/17 A2980 RMK 60020 SLP090 T01850170 57002 IEM_DS3505
ZHHH,2001-05-04 19:00,ZHHH 041900Z AUTO 35006KT 4SM 18/16 A2980 RMK T01800160 IEM_DS3505
ZHHH,2001-05-04 20:00,ZHHH 042000Z AUTO 3SM 18/17 A2980 RMK T01800170 IEM_DS3505
ZHHH,2001-05-04 21:00,ZHHH 042100Z AUTO 29002KT 6SM 18/17 A2980 RMK 70127 SLP098 T01760171 52007 IEM_DS3505
ZHHH,2001-05-04 22:00,ZHHH 042200Z AUTO 36006KT 6SM 17/16 A2983 RMK T01700160 IEM_DS3505
ZHHH,2001-05-04 23:00,ZHHH 042300Z AUTO 6SM 18/17 A2983 RMK T01800170 IEM_DS3505
ZHHH,2001-05-05 00:00,ZHHH 050000Z AUTO 34002KT 7SM 18/17 A2985 RMK 60003 SLP109 T01850168 52011 IEM_DS3505
ZHHH,2001-05-05 01:00,ZHHH 050100Z AUTO 6SM 19/17 A2985 RMK T01900170 IEM_DS3505
ZHHH,2001-05-05 02:00,ZHHH 050200Z AUTO 6SM 21/18 A2985 RMK T02100180 IEM_DS3505
ZHHH,2001-05-05 03:00,ZHHH 050300Z AUTO 36002KT 7SM 21/18 A2985 RMK SLP114 T02080177 52006 IEM_DS3505
ZHHH,2001-05-05 04:00,ZHHH 050400Z AUTO 7SM 22/19 A2985 RMK T02200190 IEM_DS3505
ZHHH,2001-05-05 05:00,ZHHH 050500Z AUTO 7SM 22/18 A2983 RMK T02200180 IEM_DS3505
ZHHH,2001-05-05 06:00,ZHHH 050600Z AUTO 32004KT 9SM 23/19 A2983 RMK SLP099 T02260186 57015 IEM_DS3505
ZHHH,2001-05-05 07:00,ZHHH 050700Z AUTO 6SM 23/18 A2980 RMK T02300180 IEM_DS3505
ZHHH,2001-05-05 08:00,ZHHH 050800Z AUTO 7SM 23/18 A2980 RMK T02300180 IEM_DS3505
ZHHH,2001-05-05 09:00,ZHHH 050900Z AUTO 27002KT 9SM 23/20 A2977 RMK SLP083 T02290199 57016 IEM_DS3505
ZHHH,2001-05-05 10:00,ZHHH 051000Z AUTO 26004KT 7SM 22/19 A2980 RMK T02200190 IEM_DS3505
ZHHH,2001-05-05 11:00,ZHHH 051100Z AUTO 24004KT 7SM 22/19 A2980 RMK T02200190 IEM_DS3505
ZHHH,2001-05-05 12:00,ZHHH 051200Z AUTO 27002KT 9SM 21/19 A2980 RMK 60003 SLP096 T02130194 52013 IEM_DS3505
ZHHH,2001-05-05 13:00,ZHHH 051300Z AUTO 23004KT 6SM 21/19 A2983 RMK T02100190 IEM_DS3505
ZHHH,2001-05-05 14:00,ZHHH 051400Z AUTO 23004KT 6SM 21/19 A2983 RMK T02100190 IEM_DS3505
ZHHH,2001-05-05 15:00,ZHHH 051500Z AUTO 25002KT 9SM 20/19 RMK SLP102 T02050193 52006 IEM_DS3505
ZHHH,2001-05-05 16:00,ZHHH 051600Z AUTO 24004KT 6SM 20/19 A2983 RMK T02000190 IEM_DS3505
ZHHH,2001-05-05 17:00,ZHHH 051700Z AUTO 22004KT 6SM 20/19 A2980 RMK T02000190 IEM_DS3505
ZHHH,2001-05-05 18:00,ZHHH 051800Z AUTO 00000KT 6SM 20/19 A2980 RMK SLP092 T01980191 57010 IEM_DS3505
ZHHH,2001-05-05 19:00,ZHHH 051900Z AUTO 22004KT 7SM 19/19 A2977 RMK T01900190 IEM_DS3505
ZHHH,2001-05-05 20:00,ZHHH 052000Z AUTO 23002KT 6SM 19/19 A2977 RMK T01900190 IEM_DS3505
ZHHH,2001-05-05 21:00,ZHHH 052100Z AUTO 25002KT 6SM 20/19 A2980 RMK 70003 SLP087 T01980190 57005 IEM_DS3505
ZHHH,2001-05-05 22:00,ZHHH 052200Z AUTO 21002KT 3SM 19/19 A2980 RMK T01900190 IEM_DS3505
ZHHH,2001-05-05 23:00,ZHHH 052300Z AUTO 3SM 20/19 A2980 RMK T02000190 IEM_DS3505
ZHHH,2001-05-06 00:00,ZHHH 060000Z AUTO 14002KT 9SM 21/20 A2980 RMK 60003 SLP094 T02090197 52007 IEM_DS3505
ZHHH,2001-05-06 01:00,ZHHH 060100Z AUTO 15004KT 3SM 21/19 A2983 RMK T02100190 IEM_DS3505
ZHHH,2001-05-06 02:00,ZHHH 060200Z AUTO 15004KT 4SM 22/19 A2980 RMK T02200190 IEM_DS3505
ZHHH,2001-05-06 03:00,ZHHH 060300Z AUTO 22002KT 9SM 24/19 A2983 RMK SLP098 T02360193 52004 IEM_DS3505
ZHHH,2001-05-06 04:00,ZHHH 060400Z AUTO 3SM 24/19 A2980 RMK T02400190 IEM_DS3505
ZHHH,2001-05-06 05:00,ZHHH 060500Z AUTO 2 1/2SM 24/19 A2980 RMK T02400190 IEM_DS3505
ZHHH,2001-05-06 06:00,ZHHH 060600Z AUTO 36002KT 9SM 24/20 A2977 RMK SLP082 T02420198 57016 IEM_DS3505
ZHHH,2001-05-06 07:00,ZHHH 060700Z AUTO 4SM 24/19 A2977 RMK T02400190 IEM_DS3505
ZHHH,2001-05-06 08:00,ZHHH 060800Z AUTO 4SM 24/19 A2974 RMK T02400190 IEM_DS3505
ZHHH,2001-05-06 09:00,ZHHH 060900Z AUTO 16004KT 9SM 25/23 A2974 RMK SLP071 T02460227 57011 IEM_DS3505
ZHHH,2001-05-06 10:00,ZHHH 061000Z AUTO 4SM 24/20 A2974 RMK T02400200 IEM_DS3505
ZHHH,2001-05-06 11:00,ZHHH 061100Z AUTO 17004KT 3SM 24/20 A2974 RMK T02400200 IEM_DS3505
ZHHH,2001-05-06 12:00,ZHHH 061200Z AUTO 00000KT 9SM 23/22 A2977 RMK SLP078 T02340220 52007 IEM_DS3505
ZHHH,2001-05-06 13:00,ZHHH 061300Z AUTO 00000KT 2 1/2SM 23/20 A2977 RMK T02300200 IEM_DS3505
ZHHH,2001-05-06 14:00,ZHHH 061400Z AUTO 00000KT 1 1/2SM 23/21 A2980 RMK T02300210 IEM_DS3505
ZHHH,2001-05-06 15:00,ZHHH 061500Z AUTO 00000KT 9SM 23/20 A2980 RMK SLP089 T02290202 52011 IEM_DS3505
ZHHH,2001-05-06 16:00,ZHHH 061600Z AUTO 04004KT 1SM 22/20 A2980 RMK T02200200 IEM_DS3505
ZHHH,2001-05-06 17:00,ZHHH 061700Z AUTO 05004KT 1SM 21/20 A2980 RMK T02100200 IEM_DS3505
ZHHH,2001-05-06 18:00,ZHHH 061800Z AUTO 06006KT 1SM 21/20 A2980 RMK T02100200 IEM_DS3505
ZHHH,2001-05-06 19:00,ZHHH 061900Z AUTO 08008KT 1 1/2SM 21/20 A2977 RMK T02100200 IEM_DS3505
ZHHH,2001-05-06 20:00,ZHHH 062000Z AUTO 06008KT 2SM 21/19 A2977 RMK T02100190 IEM_DS3505
ZHHH,2001-05-06 21:00,ZHHH 062100Z AUTO 04004KT 9SM 21/20 A2977 RMK 70003 SLP083 T02100198 57002 IEM_DS3505
ZHHH,2001-05-06 22:00,ZHHH 062200Z AUTO 06008KT 4SM 20/18 A2977 RMK T02000180 IEM_DS3505
ZHHH,2001-05-06 23:00,ZHHH 062300Z AUTO 05008KT 4SM 20/18 A2980 RMK T02000180 IEM_DS3505
ZHHH,2001-05-07 00:00,ZHHH 070000Z AUTO 04004KT 9SM 21/18 A2980 RMK SLP095 T02070185 52012 IEM_DS3505
ZHHH,2001-05-07 01:00,ZHHH 070100Z AUTO 04010KT 4SM 21/17 A2983 RMK T02100170 IEM_DS3505
ZHHH,2001-05-07 02:00,ZHHH 070200Z AUTO 02008KT 5SM 21/17 A2983 RMK T02100170 IEM_DS3505
ZHHH,2001-05-07 03:00,ZHHH 070300Z AUTO 04004KT 9SM 22/16 A2983 RMK SLP103 T02200162 52008 IEM_DS3505
ZHHH,2001-05-07 04:00,ZHHH 070400Z AUTO 01008KT 7SM 23/17 A2983 RMK T02300170 IEM_DS3505
ZHHH,2001-05-07 05:00,ZHHH 070500Z AUTO 01010KT 7SM 23/17 A2980 RMK T02300170 IEM_DS3505
ZHHH,2001-05-07 06:00,ZHHH 070600Z AUTO 36006KT 9SM 23/17 A2980 RMK 60000 SLP092 T02340172 57011 IEM_DS3505
ZHHH,2001-05-07 07:00,ZHHH 070700Z AUTO 03012KT 7SM 23/17 A2977 RMK T02300170 IEM_DS3505
ZHHH,2001-05-07 08:00,ZHHH 070800Z AUTO 04008KT 6SM 23/17 A2977 RMK T02300170 IEM_DS3505
ZHHH,2001-05-07 09:00,ZHHH 070900Z AUTO 36002KT 9SM 23/17 RMK SLP081 T02340171 57011 IEM_DS3505
ZHHH,2001-05-07 10:00,ZHHH 071000Z AUTO 36006KT 6SM 23/17 A2977 RMK T02300170 IEM_DS3505
ZHHH,2001-05-07 11:00,ZHHH 071100Z AUTO 6SM 23/17 A2977 RMK T02300170 IEM_DS3505
ZHHH,2001-05-07 12:00,ZHHH 071200Z AUTO 34002KT 9SM 22/18 A2980 RMK SLP086 T02220177 52005 IEM_DS3505
ZHHH,2001-05-07 13:00,ZHHH 071300Z AUTO 01002KT 6SM 21/18 A2980 RMK T02100180 IEM_DS3505
ZHHH,2001-05-07 14:00,ZHHH 071400Z AUTO 02004KT 6SM 21/17 A2983 RMK T02100170 IEM_DS3505
ZHHH,2001-05-07 15:00,ZHHH 071500Z AUTO 00000KT 9SM 21/18 A2983 RMK SLP099 T02060181 52013 IEM_DS3505
ZHHH,2001-05-07 16:00,ZHHH 071600Z AUTO 6SM 20/17 A2980 RMK T02000170 IEM_DS3505
ZHHH,2001-05-07 17:00,ZHHH 071700Z AUTO 04004KT 6SM 19/17 A2980 RMK T01900170 IEM_DS3505
ZHHH,2001-05-07 18:00,ZHHH 071800Z AUTO 27002KT 9SM 20/18 A2980 RMK SLP088 T01990184 57011 IEM_DS3505
ZHHH,2001-05-07 19:00,ZHHH 071900Z AUTO 6SM 19/18 A2977 RMK T01900180 IEM_DS3505
ZHHH,2001-05-07 20:00,ZHHH 072000Z AUTO 01002KT 6SM 19/17 A2977 RMK T01900170 IEM_DS3505
ZHHH,2001-05-07 21:00,ZHHH 072100Z AUTO 36002KT 9SM 19/18 A2977 RMK 70000 SLP086 T01940176 57002 IEM_DS3505
ZHHH,2001-05-07 22:00,ZHHH 072200Z AUTO 6SM 18/17 A2980 RMK T01800170 IEM_DS3505
ZHHH,2001-05-07 23:00,ZHHH 072300Z AUTO 6SM 19/17 A2977 RMK T01900170 IEM_DS3505
ZHHH,2001-05-08 00:00,ZHHH 080000Z AUTO 29002KT 9SM 20/18 RMK 70000 SLP098 T02050181 52012 IEM_DS3505
ZHHH,2001-05-08 01:00,ZHHH 080100Z AUTO 6SM 22/19 A2983 RMK T02200190 IEM_DS3505
ZHHH,2001-05-08 02:00,ZHHH 080200Z AUTO 6SM 24/18 A2983 RMK T02400180 IEM_DS3505
ZHHH,2001-05-08 03:00,ZHHH 080300Z AUTO 27002KT 12SM 26/18 A2980 RMK SLP094 T02570184 57004 IEM_DS3505
ZHHH,2001-05-08 04:00,ZHHH 080400Z AUTO 6SM 26/19 A2980 RMK T02600190 IEM_DS3505
ZHHH,2001-05-08 05:00,ZHHH 080500Z AUTO 6SM 27/17 A2977 RMK T02700170 IEM_DS3505
ZHHH,2001-05-08 06:00,ZHHH 080600Z AUTO 25004KT 12SM 27/18 A2974 RMK SLP076 T02720181 57018 IEM_DS3505
ZHHH,2001-05-08 07:00,ZHHH 080700Z AUTO 29008KT 6SM 27/17 A2974 RMK T02700170 IEM_DS3505
ZHHH,2001-05-08 08:00,ZHHH 080800Z AUTO 29008KT 6SM 26/19 A2974 RMK T02600190 IEM_DS3505
ZHHH,2001-05-08 09:00,ZHHH 080900Z AUTO 25002KT 12SM 26/19 A2974 RMK SLP068 T02560187 57008 IEM_DS3505
ZHHH,2001-05-08 10:00,ZHHH 081000Z AUTO 25008KT 6SM 25/20 A2974 RMK T02500200 IEM_DS3505
ZHHH,2001-05-08 11:00,ZHHH 081100Z AUTO 25006KT 6SM RMK IEM_DS3505
ZHHH,2001-05-08 12:00,ZHHH 081200Z AUTO 29002KT 9SM 24/19 A2977 RMK SLP078 T02410189 52010 IEM_DS3505
ZHHH,2001-05-08 13:00,ZHHH 081300Z AUTO 6SM 23/20 A2977 RMK T02300200 IEM_DS3505
ZHHH,2001-05-08 14:00,ZHHH 081400Z AUTO 25004KT 6SM 23/20 A2980 RMK T02300200 IEM_DS3505
ZHHH,2001-05-08 15:00,ZHHH 081500Z AUTO 00000KT 9SM 23/20 A2980 RMK SLP086 T02300197 52008 IEM_DS3505
ZHHH,2001-05-08 16:00,ZHHH 081600Z AUTO 10SM 22/20 A2977 RMK T02200200 IEM_DS3505
ZHHH,2001-05-08 17:00,ZHHH 081700Z AUTO 6SM 22/20 A2977 RMK T02200200 IEM_DS3505
ZHHH,2001-05-08 18:00,ZHHH 081800Z AUTO 00000KT 8SM 22/20 A2977 RMK SLP081 T02230204 57005 IEM_DS3505
ZHHH,2001-05-08 19:00,ZHHH 081900Z AUTO 21004KT 6SM 22/20 A2977 RMK T02200200 IEM_DS3505
ZHHH,2001-05-08 20:00,ZHHH 082000Z AUTO 24002KT 20SM 21/20 A2977 RMK T02100200 IEM_DS3505
ZHHH,2001-05-08 21:00,ZHHH 082100Z AUTO 34002KT 9SM 22/20 A2980 RMK SLP088 T02160197 52007 IEM_DS3505
ZHHH,2001-05-08 22:00,ZHHH 082200Z AUTO 03004KT 20/20 A2977 RMK T02000200 IEM_DS3505
ZHHH,2001-05-08 23:00,ZHHH 082300Z AUTO 21/19 A2980 RMK T02100190 IEM_DS3505
ZHHH,2001-05-09 00:00,ZHHH 090000Z AUTO 27002KT 7SM 22/20 A2983 RMK SLP100 T02150197 52012 IEM_DS3505
ZHHH,2001-05-09 01:00,ZHHH 090100Z AUTO 3SM 21/18 A2985 RMK T02100180 IEM_DS3505
ZHHH,2001-05-09 02:00,ZHHH 090200Z AUTO 6SM 21/17 A2988 RMK T02100170 IEM_DS3505
ZHHH,2001-05-09 03:00,ZHHH 090300Z AUTO 27002KT 9SM 21/18 A2991 RMK SLP124 T02100180 52024 IEM_DS3505
ZHHH,2001-05-09 04:00,ZHHH 090400Z AUTO 6SM 22/17 A2988 RMK T02200170 IEM_DS3505
ZHHH,2001-05-09 05:00,ZHHH 090500Z AUTO 15012KT 6SM 22/17 A2983 RMK T02200170 IEM_DS3505
ZHHH,2001-05-09 06:00,ZHHH 090600Z AUTO 16006KT 11SM 22/13 A2985 RMK 60003 SLP111 T02240132 57013 IEM_DS3505
ZHHH,2001-05-09 07:00,ZHHH 090700Z AUTO 6SM 22/14 A2988 RMK T02200140 IEM_DS3505
ZHHH,2001-05-09 08:00,ZHHH 090800Z AUTO 23008KT 6SM 21/16 A2988 RMK T02100160 IEM_DS3505
ZHHH,2001-05-09 09:00,ZHHH 090900Z AUTO 18002KT 9SM 21/15 A2988 RMK SLP121 T02140152 52010 IEM_DS3505
ZHHH,2001-05-09 10:00,ZHHH 091000Z AUTO 21008KT 6SM 21/16 A2988 RMK T02100160 IEM_DS3505
ZHHH,2001-05-09 11:00,ZHHH 091100Z AUTO 18008KT 6SM 20/15 A2988 RMK T02000150 IEM_DS3505
ZHHH,2001-05-09 12:00,ZHHH 091200Z AUTO 16002KT 12SM 20/15 A2991 RMK SLP135 T02010146 52014 IEM_DS3505
ZHHH,2001-05-09 13:00,ZHHH 091300Z AUTO 22006KT 6SM 20/15 A2997 RMK T02000150 IEM_DS3505
ZHHH,2001-05-09 14:00,ZHHH 091400Z AUTO 19006KT 6SM 19/15 A2997 RMK T01900150 IEM_DS3505
ZHHH,2001-05-09 15:00,ZHHH 091500Z AUTO 16002KT 12SM 19/15 A2997 RMK SLP157 T01860154 52021 IEM_DS3505
ZHHH,2001-05-09 16:00,ZHHH 091600Z AUTO 6SM 18/15 A2997 RMK T01800150 IEM_DS3505
ZHHH,2001-05-09 17:00,ZHHH 091700Z AUTO 17004KT 6SM 18/15 A2997 RMK T01800150 IEM_DS3505
ZHHH,2001-05-09 18:00,ZHHH 091800Z AUTO 00000KT 9SM 17/16 A2997 RMK SLP149 T01720155 57008 IEM_DS3505
ZHHH,2001-05-09 19:00,ZHHH 091900Z AUTO 6SM 17/16 A2994 RMK T01700160 IEM_DS3505
ZHHH,2001-05-09 20:00,ZHHH 092000Z AUTO 6SM 16/15 A2997 RMK T01600150 IEM_DS3505
ZHHH,2001-05-09 21:00,ZHHH 092100Z AUTO 00000KT 9SM 16/16 A2997 RMK 70003 SLP147 T01650157 57002 IEM_DS3505
ZHHH,2001-05-09 22:00,ZHHH 092200Z AUTO 6SM 16/15 A2997 RMK T01600150 IEM_DS3505
ZHHH,2001-05-09 23:00,ZHHH 092300Z AUTO 18/16 A3000 RMK T01800160 IEM_DS3505
ZHHH,2001-05-10 00:00,ZHHH 100000Z AUTO 27002KT 11SM 20/17 A3000 RMK 70003 SLP162 T02000166 52015 IEM_DS3505
ZHHH,2001-05-10 01:00,ZHHH 100100Z AUTO 6SM 21/16 A3000 RMK T02100160 IEM_DS3505
ZHHH,2001-05-10 02:00,ZHHH 100200Z AUTO 6SM 22/16 A3000 RMK T02200160 IEM_DS3505
ZHHH,2001-05-10 03:00,ZHHH 100300Z AUTO 25004KT 11SM 23/16 A3000 RMK SLP164 T02330161 52002 IEM_DS3505
ZHHH,2001-05-10 04:00,ZHHH 100400Z AUTO 22006KT 6SM 24/16 A3000 RMK T02400160 IEM_DS3505
ZHHH,2001-05-10 05:00,ZHHH 100500Z AUTO 19008KT 6SM 24/16 A2997 RMK T02400160 IEM_DS3505
ZHHH,2001-05-10 06:00,ZHHH 100600Z AUTO 18004KT 12SM 25/16 A2997 RMK SLP146 T02520162 57017 IEM_DS3505
ZHHH,2001-05-10 07:00,ZHHH 100700Z AUTO 24010KT 6SM 25/16 A2994 RMK T02500160 IEM_DS3505
ZHHH,2001-05-10 08:00,ZHHH 100800Z AUTO 22008KT 6SM 25/16 A2991 RMK T02500160 IEM_DS3505
ZHHH,2001-05-10 09:00,ZHHH 100900Z AUTO 16002KT 12SM 25/15 A2991 RMK SLP127 T02530151 57019 IEM_DS3505
ZHHH,2001-05-10 10:00,ZHHH 101000Z AUTO 6SM 24/16 A2991 RMK T02400160 IEM_DS3505
ZHHH,2001-05-10 11:00,ZHHH 101100Z AUTO 19004KT 6SM 23/16 A2991 RMK T02300160 IEM_DS3505
ZHHH,2001-05-10 12:00,ZHHH 101200Z AUTO 25002KT 9SM 23/15 A2991 RMK SLP134 T02290151 52007 IEM_DS3505
ZHHH,2001-05-10 13:00,ZHHH 101300Z AUTO 6SM 22/15 A2994 RMK T02200150 IEM_DS3505
ZHHH,2001-05-10 14:00,ZHHH 101400Z AUTO 6SM 22/16 A2997 RMK T02200160 IEM_DS3505
ZHHH,2001-05-10 15:00,ZHHH 101500Z AUTO 00000KT 9SM 20/16 A2997 RMK SLP148 T02040165 52014 IEM_DS3505
ZHHH,2001-05-10 16:00,ZHHH 101600Z AUTO 6SM 21/16 A2997 RMK T02100160 IEM_DS3505
ZHHH,2001-05-10 17:00,ZHHH 101700Z AUTO 11002KT 6SM 20/17 A2994 RMK T02000170 IEM_DS3505
ZHHH,2001-05-10 18:00,ZHHH 101800Z AUTO 00000KT 9SM 19/18 A2994 RMK SLP144 T01910175 57004 IEM_DS3505
ZHHH,2001-05-10 19:00,ZHHH 101900Z AUTO 10002KT 20/18 A2997 RMK T02000180 IEM_DS3505
ZHHH,2001-05-10 20:00,ZHHH 102000Z AUTO 07004KT 19/18 A2997 RMK T01900180 IEM_DS3505
ZHHH,2001-05-10 21:00,ZHHH 102100Z AUTO 04002KT 9SM 20/19 A2997 RMK SLP148 T01950189 52004 IEM_DS3505
ZHHH,2001-05-10 22:00,ZHHH 102200Z AUTO 10002KT 18/17 A2997 RMK T01800170 IEM_DS3505
ZHHH,2001-05-10 23:00,ZHHH 102300Z AUTO 13004KT 6SM 18/17 A2997 RMK T01800170 IEM_DS3505
ZHHH,2001-05-11 00:00,ZHHH 110000Z AUTO 07004KT 7SM 22/18 A3000 RMK SLP155 T02190185 52007 IEM_DS3505
ZHHH,2001-05-11 01:00,ZHHH 110100Z AUTO 11008KT 6SM 22/17 A3000 RMK T02200170 IEM_DS3505
ZHHH,2001-05-11 02:00,ZHHH 110200Z AUTO 11006KT 6SM RMK IEM_DS3505
ZHHH,2001-05-11 03:00,ZHHH 110300Z AUTO 07004KT 11SM 27/14 A3000 RMK SLP156 T02670139 52001 IEM_DS3505
ZHHH,2001-05-11 04:00,ZHHH 110400Z AUTO 6SM 27/16 A2997 RMK T02700160 IEM_DS3505
ZHHH,2001-05-11 05:00,ZHHH 110500Z AUTO 6SM 28/14 A2997 RMK T02800140 IEM_DS3505
ZHHH,2001-05-11 06:00,ZHHH 110600Z AUTO 07002KT 12SM 29/13 A2994 RMK SLP141 T02900134 57015 IEM_DS3505
ZHHH,2001-05-11 07:00,ZHHH 110700Z AUTO 6SM 29/16 A2991 RMK T02900160 IEM_DS3505
ZHHH,2001-05-11 08:00,ZHHH 110800Z AUTO 6SM 29/13 A2991 RMK T02900130 IEM_DS3505
ZHHH,2001-05-11 09:00,ZHHH 110900Z AUTO 02004KT 12SM 29/14 A2991 RMK SLP125 T02900137 57016 IEM_DS3505
ZHHH,2001-05-11 10:00,ZHHH 111000Z AUTO 6SM 28/13 A2991 RMK T02800130 IEM_DS3505
ZHHH,2001-05-11 11:00,ZHHH 111100Z AUTO 6SM 27/14 A2991 RMK T02700140 IEM_DS3505
ZHHH,2001-05-11 12:00,ZHHH 111200Z AUTO 00000KT 12SM 25/16 A2991 RMK SLP133 T02520156 52008 IEM_DS3505
ZHHH,2001-05-11 13:00,ZHHH 111300Z AUTO 16002KT 6SM 26/12 A2994 RMK T02600120 IEM_DS3505
ZHHH,2001-05-11 15:00,ZHHH 111500Z AUTO 00000KT 11SM 22/17 A2997 RMK SLP145 T02240172 52012 IEM_DS3505
ZHHH,2001-05-11 16:00,ZHHH 111600Z AUTO 07004KT 6SM 23/16 A2997 RMK T02300160 IEM_DS3505
ZHHH,2001-05-11 17:00,ZHHH 111700Z AUTO 06004KT 6SM 23/16 A2997 RMK T02300160 IEM_DS3505
ZHHH,2001-05-11 18:00,ZHHH 111800Z AUTO 07002KT 11SM 22/19 A2994 RMK SLP140 T02150187 57005 IEM_DS3505
ZHHH,2001-05-11 19:00,ZHHH 111900Z AUTO 07004KT 6SM 21/17 A2994 RMK T02100170 IEM_DS3505
ZHHH,2001-05-11 20:00,ZHHH 112000Z AUTO 07004KT 6SM 21/17 A2994 RMK T02100170 IEM_DS3505
ZHHH,2001-05-11 21:00,ZHHH 112100Z AUTO 09002KT 9SM 21/19 A2994 RMK SLP138 T02110190 57002 IEM_DS3505
ZHHH,2001-05-11 22:00,ZHHH 112200Z AUTO 07006KT 3SM 19/17 A2997 RMK T01900170 IEM_DS3505
ZHHH,2001-05-11 23:00,ZHHH 112300Z AUTO 07008KT 6SM 20/17 A2997 RMK T02000170 IEM_DS3505
ZHHH,2001-05-12 00:00,ZHHH 120000Z AUTO 09002KT 12SM 24/20 A2997 RMK SLP148 T02370200 52010 IEM_DS3505
ZHHH,2001-05-12 01:00,ZHHH 120100Z AUTO 12006KT 6SM 24/18 A2997 RMK T02400180 IEM_DS3505
ZHHH,2001-05-12 02:00,ZHHH 120200Z AUTO 6SM 26/18 A2997 RMK T02600180 IEM_DS3505
ZHHH,2001-05-12 03:00,ZHHH 120300Z AUTO 11004KT 14SM 29/15 A2994 RMK SLP143 T02870154 57005 IEM_DS3505
ZHHH,2001-05-12 04:00,ZHHH 120400Z AUTO 12006KT 6SM 29/19 A2994 RMK T02900190 IEM_DS3505
ZHHH,2001-05-12 05:00,ZHHH 120500Z AUTO 10006KT 6SM 30/15 A2991 RMK T03000150 IEM_DS3505
ZHHH,2001-05-12 06:00,ZHHH 120600Z AUTO 02004G19KT 11SM 30/15 A2988 RMK SLP117 T03040148 57026 IEM_DS3505
ZHHH,2001-05-12 07:00,ZHHH 120700Z AUTO 6SM 31/16 A2985 RMK T03100160 IEM_DS3505
ZHHH,2001-05-12 08:00,ZHHH 120800Z AUTO 6SM 30/14 A2985 RMK T03000140 IEM_DS3505
ZHHH,2001-05-12 09:00,ZHHH 120900Z AUTO 09004KT 11SM 31/11 A2983 RMK SLP103 T03080111 57014 IEM_DS3505
ZHHH,2001-05-12 10:00,ZHHH 121000Z AUTO 6SM 30/12 A2983 RMK T03000120 IEM_DS3505
ZHHH,2001-05-12 11:00,ZHHH 121100Z AUTO 14004KT 6SM 28/15 A2983 RMK T02800150 IEM_DS3505
ZHHH,2001-05-12 12:00,ZHHH 121200Z AUTO 00000KT 11SM 26/16 A2983 RMK SLP102 T02560160 57001 IEM_DS3505
ZHHH,2001-05-12 13:00,ZHHH 121300Z AUTO 6SM 26/18 A2985 RMK T02600180 IEM_DS3505
ZHHH,2001-05-12 14:00,ZHHH 121400Z AUTO 6SM 25/20 A2985 RMK T02500200 IEM_DS3505
ZHHH,2001-05-12 15:00,ZHHH 121500Z AUTO 00000KT 9SM 23/17 A2985 RMK SLP113 T02300169 52011 IEM_DS3505
ZHHH,2001-05-12 16:00,ZHHH 121600Z AUTO 6SM 24/16 A2985 RMK T02400160 IEM_DS3505
ZHHH,2001-05-12 17:00,ZHHH 121700Z AUTO 11004KT 6SM 24/17 A2985 RMK T02400170 IEM_DS3505
ZHHH,2001-05-12 18:00,ZHHH 121800Z AUTO 00000KT 11SM 22/17 A2983 RMK SLP099 T02240170 57014 IEM_DS3505
ZHHH,2001-05-12 19:00,ZHHH 121900Z AUTO 13004KT 6SM 22/19 A2980 RMK T02200190 IEM_DS3505
ZHHH,2001-05-12 20:00,ZHHH 122000Z AUTO 10004KT 10SM 21/19 A2980 RMK T02100190 IEM_DS3505
ZHHH,2001-05-12 21:00,ZHHH 122100Z AUTO 00000KT 11SM 22/17 A2980 RMK SLP092 T02180168 57007 IEM_DS3505
ZHHH,2001-05-12 22:00,ZHHH 122200Z AUTO 12006KT 6SM 21/19 A2980 RMK T02100190 IEM_DS3505
ZHHH,2001-05-12 23:00,ZHHH 122300Z AUTO 11008KT 22/16 A2983 RMK T02200160 IEM_DS3505
ZHHH,2001-05-13 00:00,ZHHH 130000Z AUTO 09002KT 7SM 25/17 A2983 RMK SLP101 T02510169 52009 IEM_DS3505
ZHHH,2001-05-13 01:00,ZHHH 130100Z AUTO 13010KT 25/17 A2983 RMK T02500170 IEM_DS3505
ZHHH,2001-05-13 02:00,ZHHH 130200Z AUTO 13010KT 6SM RMK IEM_DS3505
ZHHH,2001-05-13 03:00,ZHHH 130300Z AUTO 11006KT 9SM 29/14 RMK SLP099 T02870140 57002 IEM_DS3505
ZHHH,2001-05-13 04:00,ZHHH 130400Z AUTO 15006KT 6SM 29/16 A2980 RMK T02900160 IEM_DS3505
ZHHH,2001-05-13 05:00,ZHHH 130500Z AUTO 17006KT 6SM 30/16 A2980 RMK T03000160 IEM_DS3505
ZHHH,2001-05-13 06:00,ZHHH 130600Z AUTO 09004KT 16SM 31/15 A2977 RMK SLP080 T03090146 57019 IEM_DS3505
ZHHH,2001-05-13 07:00,ZHHH 130700Z AUTO 14006G21KT 6SM 31/13 A2974 RMK T03100130 IEM_DS3505
ZHHH,2001-05-13 08:00,ZHHH 130800Z AUTO 17006KT 6SM 32/13 A2974 RMK T03200130 IEM_DS3505
ZHHH,2001-05-13 09:00,ZHHH 130900Z AUTO 11002KT 12SM 32/13 A2974 RMK SLP066 T03190134 57014 IEM_DS3505
ZHHH,2001-05-13 10:00,ZHHH 131000Z AUTO 17006KT 6SM 30/15 A2971 RMK T03000150 IEM_DS3505
ZHHH,2001-05-13 11:00,ZHHH 131100Z AUTO 16006KT 6SM 29/14 A2974 RMK T02900140 IEM_DS3505
ZHHH,2001-05-13 12:00,ZHHH 131200Z AUTO 14002KT 11SM 29/14 A2974 RMK SLP071 T02860141 52005 IEM_DS3505
ZHHH,2001-05-13 13:00,ZHHH 131300Z AUTO 6SM 26/20 A2977 RMK T02600200 IEM_DS3505
ZHHH,2001-05-13 14:00,ZHHH 131400Z AUTO 14006KT 25/20 A2977 RMK T02500200 IEM_DS3505
ZHHH,2001-05-13 15:00,ZHHH 131500Z AUTO 14002KT 9SM 26/18 A2977 RMK SLP079 T02590181 52008 IEM_DS3505
ZHHH,2001-05-13 16:00,ZHHH 131600Z AUTO 14004KT 6SM 25/18 A2977 RMK T02500180 IEM_DS3505
ZHHH,2001-05-13 17:00,ZHHH 131700Z AUTO 6SM 24/19 A2977 RMK T02400190 IEM_DS3505
ZHHH,2001-05-13 18:00,ZHHH 131800Z AUTO 00000KT 9SM 24/19 A2977 RMK SLP077 T02380186 57002 IEM_DS3505
ZHHH,2001-05-13 19:00,ZHHH 131900Z AUTO 12004G17KT 15SM 22/19 A2977 RMK T02200190 IEM_DS3505
ZHHH,2001-05-13 20:00,ZHHH 132000Z AUTO 12008KT 6SM 21/19 A2977 RMK T02100190 IEM_DS3505
ZHHH,2001-05-14 00:00,ZHHH 140000Z AUTO 11006KT 11SM 26/17 A2980 RMK SLP093 T02550166 52012 IEM_DS3505
ZHHH,2001-05-14 01:00,ZHHH 140100Z AUTO 13008KT 6SM RMK IEM_DS3505
ZHHH,2001-05-14 03:00,ZHHH 140300Z AUTO 18004KT 11SM 29/18 A2983 RMK SLP096 T02880181 52003 IEM_DS3505
ZHHH,2001-05-14 04:00,ZHHH 140400Z AUTO 13006KT 6SM 29/17 A2980 RMK T02900170 IEM_DS3505
ZHHH,2001-05-14 05:00,ZHHH 140500Z AUTO 30/19 A2980 RMK T03000190 IEM_DS3505
ZHHH,2001-05-14 06:00,ZHHH 140600Z AUTO 20004KT 16SM 32/16 A2980 RMK SLP087 T03200161 57009 IEM_DS3505
ZHHH,2001-05-14 07:00,ZHHH 140700Z AUTO 6SM 31/18 A2977 RMK T03100180 IEM_DS3505
ZHHH,2001-05-14 08:00,ZHHH 140800Z AUTO 6SM 31/16 A2977 RMK T03100160 IEM_DS3505
ZHHH,2001-05-14 09:00,ZHHH 140900Z AUTO 27002KT 11SM 32/16 RMK SLP079 T03200157 57008 IEM_DS3505
ZHHH,2001-05-14 11:00,ZHHH 141100Z AUTO 6SM 30/18 A2980 RMK T03000180 IEM_DS3505
ZHHH,2001-05-14 12:00,ZHHH 141200Z AUTO 27002KT 9SM 29/19 A2980 RMK SLP094 T02930187 52015 IEM_DS3505
ZHHH,2001-05-14 13:00,ZHHH 141300Z AUTO 6SM 28/19 A2983 RMK T02800190 IEM_DS3505
ZHHH,2001-05-14 14:00,ZHHH 141400Z AUTO 15002KT 6SM 28/20 A2985 RMK T02800200 IEM_DS3505
ZHHH,2001-05-14 15:00,ZHHH 141500Z AUTO 00000KT 9SM 27/20 A2985 RMK SLP111 T02700204 52017 IEM_DS3505
ZHHH,2001-05-14 16:00,ZHHH 141600Z AUTO 6SM 26/22 A2985 RMK T02600220 IEM_DS3505
ZHHH,2001-05-14 18:00,ZHHH 141800Z AUTO 00000KT 7SM 26/22 RMK SLP110 T02650215 57001 IEM_DS3505
ZHHH,2001-05-14 20:00,ZHHH 142000Z AUTO 6SM 24/21 A2985 RMK T02400210 IEM_DS3505
ZHHH,2001-05-14 21:00,ZHHH 142100Z AUTO 04002KT 9SM 25/22 A2985 RMK SLP116 T02530224 52006 IEM_DS3505
ZHHH,2001-05-14 22:00,ZHHH 142200Z AUTO 05004KT 6SM 24/20 A2988 RMK T02400200 IEM_DS3505
ZHHH,2001-05-14 23:00,ZHHH 142300Z AUTO 6SM 24/21 A2991 RMK T02400210 IEM_DS3505
ZHHH,2001-05-15 00:00,ZHHH 150000Z AUTO 36006KT 11SM 26/19 A2994 RMK SLP141 T02570189 52025 IEM_DS3505
ZHHH,2001-05-15 01:00,ZHHH 150100Z AUTO 03010KT 6SM RMK IEM_DS3505
ZHHH,2001-05-15 02:00,ZHHH 150200Z AUTO 02010KT 6SM 28/18 A2997 RMK T02800180 IEM_DS3505
ZHHH,2001-05-15 03:00,ZHHH 150300Z AUTO 36006KT 11SM 29/14 A2997 RMK SLP154 T02880143 52013 IEM_DS3505
ZHHH,2001-05-15 04:00,ZHHH 150400Z AUTO 03010KT 6SM RMK IEM_DS3505
ZHHH,2001-05-15 05:00,ZHHH 150500Z AUTO 04012KT 40SM RMK IEM_DS3505
ZHHH,2001-05-15 06:00,ZHHH 150600Z AUTO 07002KT 11SM 29/12 A2994 RMK SLP141 T02910125 57013 IEM_DS3505
ZHHH,2001-05-15 07:00,ZHHH 150700Z AUTO 01008KT 6SM 28/15 A2994 RMK T02800150 IEM_DS3505
ZHHH,2001-05-15 08:00,ZHHH 150800Z AUTO 02010KT 6SM 27/15 A2994 RMK T02700150 IEM_DS3505
ZHHH,2001-05-15 09:00,ZHHH 150900Z AUTO 36008KT 11SM 28/13 A2994 RMK SLP136 T02750131 57005 IEM_DS3505
ZHHH,2001-05-15 10:00,ZHHH 151000Z AUTO 02010KT 6SM 25/14 A2994 RMK T02500140 IEM_DS3505
ZHHH,2001-05-15 11:00,ZHHH 151100Z AUTO 01006KT 6SM 24/14 A2994 RMK T02400140 IEM_DS3505
ZHHH,2001-05-15 12:00,ZHHH 151200Z AUTO 34006KT 9SM 24/15 A2997 RMK SLP152 T02410146 52016 IEM_DS3505
ZHHH,2001-05-15 13:00,ZHHH 151300Z AUTO 36002KT 6SM 22/15 A3000 RMK T02200150 IEM_DS3505
ZHHH,2001-05-15 14:00,ZHHH 151400Z AUTO 6SM RMK IEM_DS3505
ZHHH,2001-05-15 15:00,ZHHH 151500Z AUTO 27002KT 9SM 22/15 A3003 RMK SLP170 T02230149 52018 IEM_DS3505
ZHHH,2001-05-15 16:00,ZHHH 151600Z AUTO 35004KT 6SM 20/15 A3000 RMK T02000150 IEM_DS3505
ZHHH,2001-05-15 17:00,ZHHH 151700Z AUTO 35004KT 6SM 20/16 A3000 RMK T02000160 IEM_DS3505
ZHHH,2001-05-15 20:00,ZHHH 152000Z AUTO 33004KT 6SM 18/15 A2997 RMK T01800150 IEM_DS3505
ZHHH,2001-05-15 21:00,ZHHH 152100Z AUTO 00000KT 9SM 19/15 A2997 RMK SLP148 T01930153 57007 IEM_DS3505
ZHHH,2001-05-15 22:00,ZHHH 152200Z AUTO 6SM 18/15 A3000 RMK T01800150 IEM_DS3505
ZHHH,2001-05-15 23:00,ZHHH 152300Z AUTO 6SM 19/14 A3000 RMK T01900140 IEM_DS3505
ZHHH,2001-05-16 00:00,ZHHH 160000Z AUTO 07002KT 11SM 22/16 A3000 RMK SLP163 T02170158 52015 IEM_DS3505
ZHHH,2001-05-16 01:00,ZHHH 160100Z AUTO 6SM 24/15 A3000 RMK T02400150 IEM_DS3505
ZHHH,2001-05-16 02:00,ZHHH 160200Z AUTO 6SM 25/15 A2997 RMK T02500150 IEM_DS3505
ZHHH,2001-05-16 03:00,ZHHH 160300Z AUTO 11002KT 12SM 28/15 A2997 RMK SLP148 T02800147 57015 IEM_DS3505
ZHHH,2001-05-16 04:00,ZHHH 160400Z AUTO 27006KT 6SM 28/16 A2994 RMK T02800160 IEM_DS3505
ZHHH,2001-05-16 05:00,ZHHH 160500Z AUTO 6SM 28/16 A2994 RMK T02800160 IEM_DS3505
ZHHH,2001-05-16 06:00,ZHHH 160600Z AUTO 29004KT 11SM 30/16 A2988 RMK SLP122 T02970158 57026 IEM_DS3505
ZHHH,2001-05-16 07:00,ZHHH 160700Z AUTO 6SM 29/16 A2988 RMK T02900160 IEM_DS3505
ZHHH,2001-05-16 08:00,ZHHH 160800Z AUTO 6SM 30/17 A2985 RMK T03000170 IEM_DS3505
ZHHH,2001-05-16 09:00,ZHHH 160900Z AUTO 29004KT 9SM 30/16 A2985 RMK SLP109 T02960162 57013 IEM_DS3505
ZHHH,2001-05-16 10:00,ZHHH 161000Z AUTO 6SM 29/17 A2985 RMK T02900170 IEM_DS3505
ZHHH,2001-05-16 11:00,ZHHH 161100Z AUTO 6SM 28/18 A2985 RMK T02800180 IEM_DS3505
ZHHH,2001-05-16 12:00,ZHHH 161200Z AUTO 29002KT 9SM 27/14 A2988 RMK SLP120 T02730144 52011 IEM_DS3505
ZHHH,2001-05-16 13:00,ZHHH 161300Z AUTO 6SM 26/16 A2988 RMK T02600160 IEM_DS3505
ZHHH,2001-05-16 14:00,ZHHH 161400Z AUTO 6SM 25/16 A2991 RMK T02500160 IEM_DS3505
ZHHH,2001-05-16 15:00,ZHHH 161500Z AUTO 36002KT 9SM 26/15 A2991 RMK SLP130 T02600152 52010 IEM_DS3505
ZHHH,2001-05-16 16:00,ZHHH 161600Z AUTO 6SM 24/09 A2991 RMK T02400090 IEM_DS3505
ZHHH,2001-05-16 17:00,ZHHH 161700Z AUTO 6SM 22/12 A2991 RMK T02200120 IEM_DS3505
ZHHH,2001-05-16 18:00,ZHHH 161800Z AUTO 34002KT 9SM 23/10 A2988 RMK SLP121 T02270098 57009 IEM_DS3505
ZHHH,2001-05-16 20:00,ZHHH 162000Z AUTO 35006KT 6SM 20/12 A2985 RMK T02000120 IEM_DS3505
ZHHH,2001-05-16 21:00,ZHHH 162100Z AUTO 32004KT 9SM 20/13 A2985 RMK SLP115 T02010129 57006 IEM_DS3505
ZHHH,2001-05-16 22:00,ZHHH 162200Z AUTO 35010KT 6SM 19/13 A2988 RMK T01900130 IEM_DS3505
ZHHH,2001-05-16 23:00,ZHHH 162300Z AUTO 35006KT 6SM 19/14 A2988 RMK T01900140 IEM_DS3505
ZHHH,2001-05-17 00:00,ZHHH 170000Z AUTO 32004KT 10SM 21/14 A2991 RMK SLP129 T02090137 52014 IEM_DS3505
ZHHH,2001-05-17 01:00,ZHHH 170100Z AUTO 33006KT 6SM 21/14 A2991 RMK T02100140 IEM_DS3505
ZHHH,2001-05-17 02:00,ZHHH 170200Z AUTO 34008KT 6SM 22/14 A2991 RMK T02200140 IEM_DS3505
ZHHH,2001-05-17 03:00,ZHHH 170300Z AUTO 34006KT 11SM 24/13 A2988 RMK SLP124 T02370131 57005 IEM_DS3505
ZHHH,2001-05-17 04:00,ZHHH 170400Z AUTO 34006KT 6SM 25/13 A2985 RMK T02500130 IEM_DS3505
ZHHH,2001-05-17 05:00,ZHHH 170500Z AUTO 6SM 26/13 A2985 RMK T02600130 IEM_DS3505
ZHHH,2001-05-17 06:00,ZHHH 170600Z AUTO 36004KT 11SM 27/13 A2985 RMK SLP107 T02660127 57017 IEM_DS3505
ZHHH,2001-05-17 07:00,ZHHH 170700Z AUTO 32010KT 6SM 25/14 A2983 RMK T02500140 IEM_DS3505
ZHHH,2001-05-17 08:00,ZHHH 170800Z AUTO 32008KT 6SM 25/13 A2983 RMK T02500130 IEM_DS3505
ZHHH,2001-05-17 09:00,ZHHH 170900Z AUTO 36004KT 9SM 25/14 A2983 RMK SLP095 T02520143 57012 IEM_DS3505
ZHHH,2001-05-17 10:00,ZHHH 171000Z AUTO 35006KT 6SM 23/14 A2983 RMK T02300140 IEM_DS3505
ZHHH,2001-05-17 11:00,ZHHH 171100Z AUTO 36006KT 6SM 23/14 A2983 RMK T02300140 IEM_DS3505
ZHHH,2001-05-17 12:00,ZHHH 171200Z AUTO 00000KT 11SM 23/15 RMK 60003 SLP110 T02300147 52015 IEM_DS3505
ZHHH,2001-05-17 13:00,ZHHH 171300Z AUTO 6SM 22/15 A2985 RMK T02200150 IEM_DS3505
ZHHH,2001-05-17 14:00,ZHHH 171400Z AUTO 6SM 21/14 A2985 RMK T02100140 IEM_DS3505
ZHHH,2001-05-17 15:00,ZHHH 171500Z AUTO 16002KT 9SM 22/15 A2985 RMK SLP111 T02250149 52001 IEM_DS3505
ZHHH,2001-05-17 16:00,ZHHH 171600Z AUTO 6SM 21/17 A2985 RMK T02100170 IEM_DS3505
ZHHH,2001-05-17 17:00,ZHHH 171700Z AUTO 14SM 20/18 A2983 RMK T02000180 IEM_DS3505
ZHHH,2001-05-17 18:00,ZHHH 171800Z AUTO 25002KT 8SM 20/18 A2983 RMK 60003 SLP099 T02040177 57012 IEM_DS3505
ZHHH,2001-05-17 19:00,ZHHH 171900Z AUTO 24006KT 20/18 A2983 RMK T02000180 IEM_DS3505
ZHHH,2001-05-17 20:00,ZHHH 172000Z AUTO 24004KT 19/18 A2980 RMK T01900180 IEM_DS3505
ZHHH,2001-05-17 21:00,ZHHH 172100Z AUTO 18002KT 9SM 20/18 A2980 RMK 70004 SLP093 T01990183 57006 IEM_DS3505
ZHHH,2001-05-17 22:00,ZHHH 172200Z AUTO 25004KT 6SM 19/18 A2983 RMK T01900180 IEM_DS3505
ZHHH,2001-05-18 00:00,ZHHH 180000Z AUTO 25002KT 7SM 22/18 A2983 RMK 60000 SLP103 T02210181 52010 IEM_DS3505
ZHHH,2001-05-18 01:00,ZHHH 180100Z AUTO 24006KT 6SM 23/19 A2983 RMK T02300190 IEM_DS3505
ZHHH,2001-05-18 02:00,ZHHH 180200Z AUTO 25006KT 6SM 24/16 A2983 RMK T02400160 IEM_DS3505
ZHHH,2001-05-18 03:00,ZHHH 180300Z AUTO 29006KT 11SM 26/16 A2983 RMK SLP104 T02630164 52001 IEM_DS3505
ZHHH,2001-05-18 04:00,ZHHH 180400Z AUTO 6SM 27/14 A2980 RMK T02700140 IEM_DS3505
ZHHH,2001-05-18 06:00,ZHHH 180600Z AUTO 27004KT 11SM 28/14 A2977 RMK SLP083 T02750136 57021 IEM_DS3505
ZHHH,2001-05-18 07:00,ZHHH 180700Z AUTO 26006KT 6SM 27/16 A2977 RMK T02700160 IEM_DS3505
ZHHH,2001-05-18 08:00,ZHHH 180800Z AUTO 26006KT 6SM 28/16 A2974 RMK T02800160 IEM_DS3505
ZHHH,2001-05-18 09:00,ZHHH 180900Z AUTO 29004KT 11SM 29/14 A2974 RMK SLP066 T02880143 57017 IEM_DS3505
ZHHH,2001-05-18 10:00,ZHHH 181000Z AUTO 6SM 28/17 A2974 RMK T02800170 IEM_DS3505
ZHHH,2001-05-18 11:00,ZHHH 181100Z AUTO 6SM 26/18 A2974 RMK T02600180 IEM_DS3505
ZHHH,2001-05-18 12:00,ZHHH 181200Z AUTO 29002KT 9SM 26/16 A2974 RMK SLP075 T02550163 52009 IEM_DS3505
ZHHH,2001-05-18 13:00,ZHHH 181300Z AUTO 6SM 25/17 A2977 RMK T02500170 IEM_DS3505
ZHHH,2001-05-18 14:00,ZHHH 181400Z AUTO 6SM 24/17 A2977 RMK T02400170 IEM_DS3505
ZHHH,2001-05-18 15:00,ZHHH 181500Z AUTO 00000KT 9SM 23/17 A2977 RMK SLP083 T02300172 52008 IEM_DS3505
ZHHH,2001-05-18 16:00,ZHHH 181600Z AUTO 6SM 23/18 A2977 RMK T02300180 IEM_DS3505
ZHHH,2001-05-18 17:00,ZHHH 181700Z AUTO 6SM 22/20 A2977 RMK T02200200 IEM_DS3505
ZHHH,2001-05-18 18:00,ZHHH 181800Z AUTO 00000KT 9SM 22/18 A2974 RMK SLP075 T02190182 57008 IEM_DS3505
ZHHH,2001-05-18 19:00,ZHHH 181900Z AUTO 6SM 21/19 A2974 RMK T02100190 IEM_DS3505
ZHHH,2001-05-18 20:00,ZHHH 182000Z AUTO 21/19 A2974 RMK T02100190 IEM_DS3505
ZHHH,2001-05-18 21:00,ZHHH 182100Z AUTO 27002KT 9SM 21/20 A2974 RMK SLP070 T02130197 57005 IEM_DS3505
ZHHH,2001-05-18 22:00,ZHHH 182200Z AUTO 6SM 20/19 A2974 RMK T02000190 IEM_DS3505
ZHHH,2001-05-18 23:00,ZHHH 182300Z AUTO 6SM 21/20 A2977 RMK T02100200 IEM_DS3505
ZHHH,2001-05-19 00:00,ZHHH 190000Z AUTO 00000KT 11SM 24/20 A2977 RMK SLP083 T02410204 52013 IEM_DS3505
ZHHH,2001-05-19 01:00,ZHHH 190100Z AUTO 6SM 25/20 A2977 RMK T02500200 IEM_DS3505
ZHHH,2001-05-19 02:00,ZHHH 190200Z AUTO 6SM 26/20 A2977 RMK T02600200 IEM_DS3505
ZHHH,2001-05-19 03:00,ZHHH 190300Z AUTO 11002KT 12SM 28/18 A2977 RMK SLP080 T02800175 57003 IEM_DS3505
ZHHH,2001-05-19 04:00,ZHHH 190400Z AUTO 29/20 A2974 RMK T02900200 IEM_DS3505
ZHHH,2001-05-19 05:00,ZHHH 190500Z AUTO 6SM 30/18 A2971 RMK T03000180 IEM_DS3505
ZHHH,2001-05-19 06:00,ZHHH 190600Z AUTO 27002KT 11SM 30/16 RMK SLP056 T03020163 57024 IEM_DS3505
ZHHH,2001-05-19 07:00,ZHHH 190700Z AUTO 6SM 32/11 A2965 RMK T03200110 IEM_DS3505
ZHHH,2001-05-19 08:00,ZHHH 190800Z AUTO 6SM 32/13 A2965 RMK T03200130 IEM_DS3505
ZHHH,2001-05-19 09:00,ZHHH 190900Z AUTO 20004KT 11SM 32/14 A2962 RMK SLP034 T03160142 57022 IEM_DS3505
ZHHH,2001-05-19 10:00,ZHHH 191000Z AUTO 21006KT 6SM 30/16 A2962 RMK T03000160 IEM_DS3505
ZHHH,2001-05-19 11:00,ZHHH 191100Z AUTO 6SM 29/16 A2962 RMK T02900160 IEM_DS3505
ZHHH,2001-05-19 12:00,ZHHH 191200Z AUTO 00000KT 9SM 26/16 A2965 RMK SLP036 T02640163 52002 IEM_DS3505
ZHHH,2001-05-19 13:00,ZHHH 191300Z AUTO 6SM 27/17 A2965 RMK T02700170 IEM_DS3505
ZHHH,2001-05-19 14:00,ZHHH 191400Z AUTO 6SM 27/16 A2965 RMK T02700160 IEM_DS3505
ZHHH,2001-05-19 15:00,ZHHH 191500Z AUTO 00000KT 9SM 25/18 A2965 RMK SLP045 T02470184 52009 IEM_DS3505
ZHHH,2001-05-19 16:00,ZHHH 191600Z AUTO 25/17 A2965 RMK T02500170 IEM_DS3505
ZHHH,2001-05-19 17:00,ZHHH 191700Z AUTO 24002KT 6SM 25/19 A2965 RMK T02500190 IEM_DS3505
ZHHH,2001-05-19 18:00,ZHHH 191800Z AUTO 00000KT 9SM 23/19 A2962 RMK SLP035 T02320186 57010 IEM_DS3505
ZHHH,2001-05-19 19:00,ZHHH 191900Z AUTO 6SM 24/19 A2962 RMK T02400190 IEM_DS3505
ZHHH,2001-05-19 20:00,ZHHH 192000Z AUTO 36002KT 6SM 22/20 A2962 RMK T02200200 IEM_DS3505
ZHHH,2001-05-19 21:00,ZHHH 192100Z AUTO 00000KT 9SM 22/18 A2962 RMK SLP029 T02150183 57006 IEM_DS3505
ZHHH,2001-05-19 22:00,ZHHH 192200Z AUTO 13004KT 6SM 22/19 A2962 RMK T02200190 IEM_DS3505
ZHHH,2001-05-19 23:00,ZHHH 192300Z AUTO 12004KT 6SM 23/20 A2962 RMK T02300200 IEM_DS3505
ZHHH,2001-05-20 00:00,ZHHH 200000Z AUTO 16002KT 11SM 25/16 A2965 RMK SLP038 T02530163 52009 IEM_DS3505
ZHHH,2001-05-20 01:00,ZHHH 200100Z AUTO 2 1/2SM 26/19 A2965 RMK T02600190 IEM_DS3505
ZHHH,2001-05-20 02:00,ZHHH 200200Z AUTO 6SM 28/18 A2965 RMK T02800180 IEM_DS3505
ZHHH,2001-05-20 03:00,ZHHH 200300Z AUTO 18002KT 12SM 30/13 RMK SLP034 T03010134 57004 IEM_DS3505
ZHHH,2001-05-20 04:00,ZHHH 200400Z AUTO 6SM 31/17 A2962 RMK T03100170 IEM_DS3505
ZHHH,2001-05-20 05:00,ZHHH 200500Z AUTO 6SM 31/17 A2959 RMK T03100170 IEM_DS3505
ZHHH,2001-05-20 06:00,ZHHH 200600Z AUTO 18002KT 12SM 32/16 A2959 RMK SLP017 T03190165 57017 IEM_DS3505
ZHHH,2001-05-20 07:00,ZHHH 200700Z AUTO 23008KT 6SM 31/18 A2956 RMK T03100180 IEM_DS3505
ZHHH,2001-05-20 08:00,ZHHH 200800Z AUTO 23008KT 6SM RMK IEM_DS3505
ZHHH,2001-05-20 09:00,ZHHH 200900Z AUTO 18002KT 12SM 32/14 A2953 RMK SLP000 T03160138 57017 IEM_DS3505
ZHHH,2001-05-20 10:00,ZHHH 201000Z AUTO 23004KT 6SM 30/17 A2953 RMK T03000170 IEM_DS3505
ZHHH,2001-05-20 11:00,ZHHH 201100Z AUTO 6SM 29/17 A2953 RMK T02900170 IEM_DS3505
ZHHH,2001-05-20 12:00,ZHHH 201200Z AUTO 00000KT 11SM 28/17 A2956 RMK SLP007 T02750166 52007 IEM_DS3505
ZHHH,2001-05-20 13:00,ZHHH 201300Z AUTO 6SM 28/14 A2956 RMK T02800140 IEM_DS3505
ZHHH,2001-05-20 14:00,ZHHH 201400Z AUTO 6SM 28/14 A2959 RMK T02800140 IEM_DS3505
ZHHH,2001-05-20 15:00,ZHHH 201500Z AUTO 18002KT 11SM 27/17 A2959 RMK SLP017 T02670174 52011 IEM_DS3505
ZHHH,2001-05-20 16:00,ZHHH 201600Z AUTO 6SM 26/16 A2959 RMK T02600160 IEM_DS3505
ZHHH,2001-05-20 17:00,ZHHH 201700Z AUTO 14004KT 6SM 25/19 A2956 RMK T02500190 IEM_DS3505
ZHHH,2001-05-20 18:00,ZHHH 201800Z AUTO 18002KT 9SM 24/17 A2956 RMK SLP008 T02450169 57009 IEM_DS3505
ZHHH,2001-05-20 19:00,ZHHH 201900Z AUTO 6SM 25/17 A2953 RMK T02500170 IEM_DS3505
ZHHH,2001-05-20 20:00,ZHHH 202000Z AUTO 23/19 A2953 RMK T02300190 IEM_DS3505
ZHHH,2001-05-20 21:00,ZHHH 202100Z AUTO 16002KT 9SM 24/19 A2953 RMK SLP004 T02390187 57004 IEM_DS3505
ZHHH,2001-05-20 22:00,ZHHH 202200Z AUTO 12004KT 22/21 A2956 RMK T02200210 IEM_DS3505
ZHHH,2001-05-20 23:00,ZHHH 202300Z AUTO 6SM 23/21 A2956 RMK T02300210 IEM_DS3505
ZHHH,2001-05-21 00:00,ZHHH 210000Z AUTO 07002KT 16SM 28/19 A2959 RMK SLP016 T02760186 52011 IEM_DS3505
ZHHH,2001-05-21 01:00,ZHHH 210100Z AUTO 11006KT 12SM 27/22 A2959 RMK T02700220 IEM_DS3505
ZHHH,2001-05-21 02:00,ZHHH 210200Z AUTO 11006KT 28/20 A2959 RMK T02800200 IEM_DS3505
ZHHH,2001-05-21 03:00,ZHHH 210300Z AUTO 18004KT 16SM 31/16 A2959 RMK SLP018 T03090159 52003 IEM_DS3505
ZHHH,2001-05-21 04:00,ZHHH 210400Z AUTO 14006KT 31/18 A2959 RMK T03100180 IEM_DS3505
ZHHH,2001-05-21 05:00,ZHHH 210500Z AUTO 32/18 A2956 RMK T03200180 IEM_DS3505
ZHHH,2001-05-21 06:00,ZHHH 210600Z AUTO 20004KT 16SM 33/17 A2956 RMK SLP005 T03320167 57013 IEM_DS3505
ZHHH,2001-05-21 07:00,ZHHH 210700Z AUTO 6SM 33/15 A2953 RMK T03300150 IEM_DS3505
ZHHH,2001-05-21 08:00,ZHHH 210800Z AUTO 6SM 34/13 A2953 RMK T03400130 IEM_DS3505
ZHHH,2001-05-21 09:00,ZHHH 210900Z AUTO 00000KT 16SM 34/16 A2950 RMK SLP992 T03430163 57013 IEM_DS3505
ZHHH,2001-05-21 10:00,ZHHH 211000Z AUTO 6SM 33/12 A2950 RMK T03300120 IEM_DS3505
ZHHH,2001-05-21 11:00,ZHHH 211100Z AUTO 12004KT 6SM 31/16 A2950 RMK T03100160 IEM_DS3505
ZHHH,2001-05-21 12:00,ZHHH 211200Z AUTO 11002KT 12SM 30/16 A2953 RMK SLP001 T03000161 52009 IEM_DS3505
ZHHH,2001-05-21 13:00,ZHHH 211300Z AUTO 6SM 29/20 A2956 RMK T02900200 IEM_DS3505
ZHHH,2001-05-21 14:00,ZHHH 211400Z AUTO 6SM 29/18 A2959 RMK T02900180 IEM_DS3505
ZHHH,2001-05-21 15:00,ZHHH 211500Z AUTO 00000KT 12SM 28/18 A2959 RMK SLP019 T02810182 52018 IEM_DS3505
ZHHH,2001-05-21 16:00,ZHHH 211600Z AUTO 01006KT 6SM 26/17 A2959 RMK T02600170 IEM_DS3505
ZHHH,2001-05-21 17:00,ZHHH 211700Z AUTO 02006KT 6SM 26/18 A2959 RMK T02600180 IEM_DS3505
ZHHH,2001-05-21 18:00,ZHHH 211800Z AUTO 07002KT 11SM 26/19 A2959 RMK SLP022 T02600189 52003 IEM_DS3505
ZHHH,2001-05-21 19:00,ZHHH 211900Z AUTO 6SM 25/19 A2959 RMK T02500190 IEM_DS3505
ZHHH,2001-05-21 20:00,ZHHH 212000Z AUTO 6SM 25/19 A2959 RMK T02500190 IEM_DS3505
ZHHH,2001-05-21 21:00,ZHHH 212100Z AUTO 02002KT 11SM 25/20 A2959 RMK SLP021 T02510197 57001 IEM_DS3505
ZHHH,2001-05-21 22:00,ZHHH 212200Z AUTO 07008KT 2 1/2SM 23/20 A2962 RMK T02300200 IEM_DS3505
ZHHH,2001-05-21 23:00,ZHHH 212300Z AUTO 23/20 A2962 RMK T02300200 IEM_DS3505
ZHHH,2001-05-22 00:00,ZHHH 220000Z AUTO 07004KT 11SM 26/20 A2965 RMK SLP038 T02570200 52016 IEM_DS3505
ZHHH,2001-05-22 01:00,ZHHH 220100Z AUTO 07008KT 6SM 26/20 A2965 RMK T02600200 IEM_DS3505
ZHHH,2001-05-22 02:00,ZHHH 220200Z AUTO 07006KT 6SM 28/20 A2965 RMK T02800200 IEM_DS3505
ZHHH,2001-05-22 03:00,ZHHH 220300Z AUTO 36004KT 11SM 29/21 A2965 RMK SLP044 T02920206 52007 IEM_DS3505
ZHHH,2001-05-22 04:00,ZHHH 220400Z AUTO 6SM 31/21 A2965 RMK T03100210 IEM_DS3505
ZHHH,2001-05-22 05:00,ZHHH 220500Z AUTO 6SM 31/20 A2965 RMK T03100200 IEM_DS3505
ZHHH,2001-05-22 06:00,ZHHH 220600Z AUTO 09002KT 12SM 33/18 A2962 RMK SLP030 T03270175 57014 IEM_DS3505
ZHHH,2001-05-22 07:00,ZHHH 220700Z AUTO 03006KT 6SM 34/10 A2962 RMK T03400100 IEM_DS3505
ZHHH,2001-05-22 08:00,ZHHH 220800Z AUTO 03006KT 6SM 33/12 A2959 RMK T03300120 IEM_DS3505
ZHHH,2001-05-22 09:00,ZHHH 220900Z AUTO 04004KT 12SM 33/11 A2959 RMK SLP020 T03300108 57010 IEM_DS3505
ZHHH,2001-05-22 10:00,ZHHH 221000Z AUTO 04008KT 6SM 31/17 A2959 RMK T03100170 IEM_DS3505
ZHHH,2001-05-22 11:00,ZHHH 221100Z AUTO 6SM 30/19 A2959 RMK T03000190 IEM_DS3505
ZHHH,2001-05-22 12:00,ZHHH 221200Z AUTO 07004KT 11SM 29/19 A2962 RMK SLP033 T02920194 52012 IEM_DS3505
ZHHH,2001-05-22 13:00,ZHHH 221300Z AUTO 6SM 27/19 A2965 RMK T02700190 IEM_DS3505
ZHHH,2001-05-22 14:00,ZHHH 221400Z AUTO 05008KT 6SM 26/19 A2968 RMK T02600190 IEM_DS3505
ZHHH,2001-05-22 15:00,ZHHH 221500Z AUTO 02002KT 9SM 26/19 A2968 RMK SLP051 T02620190 52018 IEM_DS3505
ZHHH,2001-05-22 16:00,ZHHH 221600Z AUTO 6SM 25/20 A2968 RMK T02500200 IEM_DS3505
ZHHH,2001-05-22 17:00,ZHHH 221700Z AUTO 05006KT 6SM 24/20 A2968 RMK T02400200 IEM_DS3505
ZHHH,2001-05-22 18:00,ZHHH 221800Z AUTO 07002KT 12SM 25/20 A2968 RMK SLP050 T02480198 54000 IEM_DS3505
ZHHH,2001-05-22 19:00,ZHHH 221900Z AUTO 07010KT 6SM 23/19 A2968 RMK T02300190 IEM_DS3505
ZHHH,2001-05-22 20:00,ZHHH 222000Z AUTO 09008KT 6SM 22/20 A2968 RMK T02200200 IEM_DS3505
ZHHH,2001-05-22 21:00,ZHHH 222100Z AUTO 09002KT 12SM 23/21 A2968 RMK SLP053 T02340208 52002 IEM_DS3505
ZHHH,2001-05-22 22:00,ZHHH 222200Z AUTO 08006KT 7SM 21/20 A2971 RMK T02100200 IEM_DS3505
ZHHH,2001-05-22 23:00,ZHHH 222300Z AUTO 09008KT 6SM 22/20 A2971 RMK T02200200 IEM_DS3505
ZHHH,2001-05-23 00:00,ZHHH 230000Z AUTO 09002KT 11SM 26/22 A2971 RMK SLP063 T02600220 52010 IEM_DS3505
ZHHH,2001-05-23 01:00,ZHHH 230100Z AUTO 12008KT 26/22 A2971 RMK T02600220 IEM_DS3505
ZHHH,2001-05-23 02:00,ZHHH 230200Z AUTO 13010KT 28/21 A2971 RMK T02800210 IEM_DS3505
ZHHH,2001-05-23 03:00,ZHHH 230300Z AUTO 07002KT 11SM 31/20 A2971 RMK SLP058 T03090200 57005 IEM_DS3505
ZHHH,2001-05-23 04:00,ZHHH 230400Z AUTO 13006KT 30/20 A2968 RMK T03000200 IEM_DS3505
ZHHH,2001-05-23 05:00,ZHHH 230500Z AUTO 13006KT 6SM 32/20 A2965 RMK T03200200 IEM_DS3505
ZHHH,2001-05-23 06:00,ZHHH 230600Z AUTO 02002KT 14SM 34/11 A2965 RMK SLP035 T03420109 57022 IEM_DS3505
ZHHH,2001-05-23 07:00,ZHHH 230700Z AUTO 16006KT 6SM 33/16 A2962 RMK T03300160 IEM_DS3505
ZHHH,2001-05-23 08:00,ZHHH 230800Z AUTO 14006KT 6SM 33/15 A2962 RMK T03300150 IEM_DS3505
ZHHH,2001-05-23 09:00,ZHHH 230900Z AUTO 09004KT 12SM 34/14 A2959 RMK SLP021 T03370135 57014 IEM_DS3505
ZHHH,2001-05-23 10:00,ZHHH 231000Z AUTO 6SM 32/18 A2959 RMK T03200180 IEM_DS3505
ZHHH,2001-05-23 12:00,ZHHH 231200Z AUTO 14002KT 11SM 31/15 A2962 RMK SLP031 T03080154 52010 IEM_DS3505
ZHHH,2001-05-23 13:00,ZHHH 231300Z AUTO 13006KT 6SM 29/18 A2965 RMK T02900180 IEM_DS3505
ZHHH,2001-05-23 14:00,ZHHH 231400Z AUTO 12006KT 6SM 28/19 A2968 RMK T02800190 IEM_DS3505
ZHHH,2001-05-23 15:00,ZHHH 231500Z AUTO 09002KT 9SM 28/18 A2968 RMK SLP045 T02820184 52014 IEM_DS3505
ZHHH,2001-05-23 18:00,ZHHH 231800Z AUTO 11004KT 9SM 27/18 RMK SLP041 T02670176 57004 IEM_DS3505
ZHHH,2001-05-23 21:00,ZHHH 232100Z AUTO 09004KT 9SM 24/20 RMK SLP041 T02410205 54000 IEM_DS3505
ZHHH,2001-05-24 00:00,ZHHH 240000Z AUTO 14002KT 12SM 28/19 RMK SLP055 T02840189 52014 IEM_DS3505
ZHHH,2001-05-24 01:00,ZHHH 240100Z AUTO 14002KT 12SM 28/19 RMK SLP055 T02840189 52014 IEM_DS3505
ZHHH,2001-05-24 03:00,ZHHH 240300Z AUTO 14004KT 14SM 33/15 A2971 RMK SLP053 T03270147 57002 IEM_DS3505
ZHHH,2001-05-24 04:00,ZHHH 240400Z AUTO 16004KT 6SM 33/17 A2968 RMK T03300170 IEM_DS3505
ZHHH,2001-05-24 05:00,ZHHH 240500Z AUTO 22006KT 6SM 34/14 A2965 RMK T03400140 IEM_DS3505
ZHHH,2001-05-24 06:00,ZHHH 240600Z AUTO 22004KT 12SM 35/13 RMK SLP039 T03540126 57014 IEM_DS3505
ZHHH,2001-05-24 07:00,ZHHH 240700Z AUTO 26004KT 6SM 35/11 A2962 RMK T03500110 IEM_DS3505
ZHHH,2001-05-24 08:00,ZHHH 240800Z AUTO 6SM 36/12 A2962 RMK T03600120 IEM_DS3505
ZHHH,2001-05-24 09:00,ZHHH 240900Z AUTO 07002KT 12SM 35/13 A2962 RMK SLP027 T03490130 57012 IEM_DS3505
ZHHH,2001-05-24 10:00,ZHHH 241000Z AUTO 6SM 34/16 A2962 RMK T03400160 IEM_DS3505
ZHHH,2001-05-24 11:00,ZHHH 241100Z AUTO 6SM 32/18 A2962 RMK T03200180 IEM_DS3505
ZHHH,2001-05-24 12:00,ZHHH 241200Z AUTO 34002KT 11SM 30/20 A2965 RMK SLP038 T03050202 52011 IEM_DS3505
ZHHH,2001-05-24 13:00,ZHHH 241300Z AUTO 34008KT 6SM 28/20 A2968 RMK T02800200 IEM_DS3505
ZHHH,2001-05-24 14:00,ZHHH 241400Z AUTO 35008KT 6SM 28/21 A2971 RMK T02800210 IEM_DS3505
ZHHH,2001-05-24 15:00,ZHHH 241500Z AUTO 34004KT 9SM 28/20 A2971 RMK SLP058 T02790200 52020 IEM_DS3505
ZHHH,2001-05-24 16:00,ZHHH 241600Z AUTO 02006KT 6SM 27/18 A2971 RMK T02700180 IEM_DS3505
ZHHH,2001-05-24 17:00,ZHHH 241700Z AUTO 02006KT 6SM 26/18 A2971 RMK T02600180 IEM_DS3505
ZHHH,2001-05-24 18:00,ZHHH 241800Z AUTO 02002KT 9SM 26/19 A2971 RMK SLP055 T02650188 57003 IEM_DS3505
ZHHH,2001-05-24 19:00,ZHHH 241900Z AUTO 02008KT 6SM 25/18 A2968 RMK T02500180 IEM_DS3505
ZHHH,2001-05-24 20:00,ZHHH 242000Z AUTO 02004KT 6SM 25/17 A2968 RMK T02500170 IEM_DS3505
ZHHH,2001-05-24 21:00,ZHHH 242100Z AUTO 04004KT 9SM 25/18 A2971 RMK SLP056 T02500178 52001 IEM_DS3505
ZHHH,2001-05-24 22:00,ZHHH 242200Z AUTO 02004KT 6SM 24/17 A2971 RMK T02400170 IEM_DS3505
ZHHH,2001-05-24 23:00,ZHHH 242300Z AUTO 04006KT 6SM 24/17 A2971 RMK T02400170 IEM_DS3505
ZHHH,2001-05-25 00:00,ZHHH 250000Z AUTO 04004KT 11SM 26/17 A2974 RMK SLP069 T02580173 52012 IEM_DS3505
ZHHH,2001-05-25 01:00,ZHHH 250100Z AUTO 03008KT 6SM 26/17 A2974 RMK T02600170 IEM_DS3505
ZHHH,2001-05-25 02:00,ZHHH 250200Z AUTO 03008KT 6SM 27/17 A2974 RMK T02700170 IEM_DS3505
ZHHH,2001-05-25 03:00,ZHHH 250300Z AUTO 04004KT 11SM 29/18 A2974 RMK SLP074 T02910181 52005 IEM_DS3505
ZHHH,2001-05-25 04:00,ZHHH 250400Z AUTO 05008KT 6SM 30/18 A2974 RMK T03000180 IEM_DS3505
ZHHH,2001-05-25 05:00,ZHHH 250500Z AUTO 03006KT 6SM 30/17 A2974 RMK T03000170 IEM_DS3505
ZHHH,2001-05-25 06:00,ZHHH 250600Z AUTO 36004KT 9SM 30/18 A2974 RMK 60003 SLP064 T03000185 57010 IEM_DS3505
ZHHH,2001-05-25 07:00,ZHHH 250700Z AUTO 6SM 30/18 A2971 RMK T03000180 IEM_DS3505
ZHHH,2001-05-25 08:00,ZHHH 250800Z AUTO 6SM 30/18 A2971 RMK T03000180 IEM_DS3505
ZHHH,2001-05-25 09:00,ZHHH 250900Z AUTO 34004KT 9SM 30/19 A2971 RMK SLP056 T02960193 57008 IEM_DS3505
ZHHH,2001-05-25 10:00,ZHHH 251000Z AUTO 03006KT 6SM 28/18 A2971 RMK T02800180 IEM_DS3505
ZHHH,2001-05-25 11:00,ZHHH 251100Z AUTO 03008KT 6SM 27/17 A2974 RMK T02700170 IEM_DS3505
ZHHH,2001-05-25 12:00,ZHHH 251200Z AUTO 36004KT 12SM 27/17 RMK 60003 SLP078 T02730173 52022 IEM_DS3505
ZHHH,2001-05-25 13:00,ZHHH 251300Z AUTO 01006KT 6SM 26/16 A2980 RMK T02600160 IEM_DS3505
ZHHH,2001-05-25 14:00,ZHHH 251400Z AUTO 01006KT 6SM 26/16 A2983 RMK T02600160 IEM_DS3505
ZHHH,2001-05-25 15:00,ZHHH 251500Z AUTO 34004KT 9SM 26/18 A2983 RMK SLP100 T02550181 52022 IEM_DS3505
ZHHH,2001-05-25 16:00,ZHHH 251600Z AUTO 36008KT 6SM 24/19 A2983 RMK T02400190 IEM_DS3505
ZHHH,2001-05-25 17:00,ZHHH 251700Z AUTO 35008KT 6SM 23/19 A2983 RMK T02300190 IEM_DS3505
ZHHH,2001-05-25 18:00,ZHHH 251800Z AUTO 34002KT 9SM 22/19 A2983 RMK SLP101 T02250189 52001 IEM_DS3505
ZHHH,2001-05-25 19:00,ZHHH 251900Z AUTO 35014KT 6SM 22/19 A2983 RMK T02200190 IEM_DS3505
ZHHH,2001-05-25 20:00,ZHHH 252000Z AUTO 01010KT 6SM 22/18 A2980 RMK T02200180 IEM_DS3505
ZHHH,2001-05-25 21:00,ZHHH 252100Z AUTO 34006KT 9SM 22/19 A2983 RMK 70003 SLP105 T02190186 52004 IEM_DS3505
ZHHH,2001-05-25 22:00,ZHHH 252200Z AUTO 35010KT RMK IEM_DS3505
ZHHH,2001-05-25 23:00,ZHHH 252300Z AUTO 01010KT 6SM 22/19 A2988 RMK T02200190 IEM_DS3505
ZHHH,2001-05-26 00:00,ZHHH 260000Z AUTO 34004KT 6SM 21/20 A2991 RMK 60000 SLP126 T02140196 52021 IEM_DS3505
ZHHH,2001-05-26 01:00,ZHHH 260100Z AUTO 35006KT 6SM 20/19 A2991 RMK T02000190 IEM_DS3505
ZHHH,2001-05-26 02:00,ZHHH 260200Z AUTO 36006KT 6SM 20/20 A2991 RMK T02000200 IEM_DS3505
ZHHH,2001-05-26 03:00,ZHHH 260300Z AUTO 36004KT 6SM 20/20 A2994 RMK SLP135 T02030203 52009 IEM_DS3505
ZHHH,2001-05-26 04:00,ZHHH 260400Z AUTO 02008KT 20/20 A2994 RMK T02000200 IEM_DS3505
ZHHH,2001-05-26 05:00,ZHHH 260500Z AUTO 02008KT 6SM 20/19 A2991 RMK T02000190 IEM_DS3505
ZHHH,2001-05-26 06:00,ZHHH 260600Z AUTO 36004KT 6SM 20/20 A2991 RMK 60067 SLP128 T02030202 57007 IEM_DS3505
ZHHH,2001-05-26 07:00,ZHHH 260700Z AUTO 01006KT 8SM 20/20 A2991 RMK T02000200 IEM_DS3505
ZHHH,2001-05-26 08:00,ZHHH 260800Z AUTO 35008KT 6SM 20/20 A2991 RMK T02000200 IEM_DS3505
ZHHH,2001-05-26 09:00,ZHHH 260900Z AUTO 34002KT 5SM 20/20 A2991 RMK SLP128 T02010201 54000 IEM_DS3505
ZHHH,2001-05-26 10:00,ZHHH 261000Z AUTO 20/20 A2991 RMK T02000200 IEM_DS3505
ZHHH,2001-05-26 11:00,ZHHH 261100Z AUTO 01006KT 6SM 20/20 A2991 RMK T02000200 IEM_DS3505
ZHHH,2001-05-26 12:00,ZHHH 261200Z AUTO 34006KT 6SM 20/20 A2994 RMK 60016 SLP137 T02010200 52009 IEM_DS3505
ZHHH,2001-05-26 13:00,ZHHH 261300Z AUTO 04010KT 6SM RMK IEM_DS3505
ZHHH,2001-05-26 14:00,ZHHH 261400Z AUTO 04008KT 6SM 19/18 A2997 RMK T01900180 IEM_DS3505
ZHHH,2001-05-26 15:00,ZHHH 261500Z AUTO 04004KT 6SM 19/18 A2997 RMK SLP150 T01930180 52012 IEM_DS3505
ZHHH,2001-05-26 16:00,ZHHH 261600Z AUTO 02006KT 6SM 19/18 A2997 RMK T01900180 IEM_DS3505
ZHHH,2001-05-26 17:00,ZHHH 261700Z AUTO 04006KT 6SM 18/18 A2997 RMK T01800180 IEM_DS3505
ZHHH,2001-05-26 18:00,ZHHH 261800Z AUTO 04004KT 6SM 18/18 A2997 RMK 60008 SLP149 T01850183 57001 IEM_DS3505
ZHHH,2001-05-26 19:00,ZHHH 261900Z AUTO 04008KT 9SM 18/18 A2997 RMK T01800180 IEM_DS3505
ZHHH,2001-05-26 20:00,ZHHH 262000Z AUTO 03006KT 6SM 18/18 A2997 RMK T01800180 IEM_DS3505
ZHHH,2001-05-26 21:00,ZHHH 262100Z AUTO 07004KT 6SM 18/18 A2997 RMK 70110 SLP148 T01810180 57001 IEM_DS3505
ZHHH,2001-05-26 22:00,ZHHH 262200Z AUTO 03006KT 15SM 18/17 A2997 RMK T01800170 IEM_DS3505
ZHHH,2001-05-26 23:00,ZHHH 262300Z AUTO 05010KT 6SM 18/18 A2997 RMK T01800180 IEM_DS3505
ZHHH,2001-05-27 00:00,ZHHH 270000Z AUTO 04004KT 6SM 18/18 A3000 RMK 60031 SLP159 T01810180 52011 IEM_DS3505
ZHHH,2001-05-27 01:00,ZHHH 270100Z AUTO 18/18 A3000 RMK T01800180 IEM_DS3505
ZHHH,2001-05-27 02:00,ZHHH 270200Z AUTO 04006KT 6SM 19/18 A3000 RMK T01900180 IEM_DS3505
ZHHH,2001-05-27 03:00,ZHHH 270300Z AUTO 07002KT 11SM 20/19 A3000 RMK SLP159 T01970190 54000 IEM_DS3505
ZHHH,2001-05-27 05:00,ZHHH 270500Z AUTO 21/18 A2997 RMK T02100180 IEM_DS3505
ZHHH,2001-05-27 06:00,ZHHH 270600Z AUTO 04002KT 7SM 21/18 A2994 RMK 60016 SLP145 T02130181 57014 IEM_DS3505
ZHHH,2001-05-27 07:00,ZHHH 270700Z AUTO 5SM 20/18 A2994 RMK T02000180 IEM_DS3505
ZHHH,2001-05-27 08:00,ZHHH 270800Z AUTO 36006KT 7SM 21/19 A2994 RMK T02100190 IEM_DS3505
ZHHH,2001-05-27 09:00,ZHHH 270900Z AUTO 34004KT 7SM 21/18 RMK SLP135 T02120185 57010 IEM_DS3505
ZHHH,2001-05-27 10:00,ZHHH 271000Z AUTO 23006KT 6SM 21/18 A2991 RMK T02100180 IEM_DS3505
ZHHH,2001-05-27 12:00,ZHHH 271200Z AUTO 27002KT 6SM 20/19 A2994 RMK 60008 SLP141 T02000187 52006 IEM_DS3505
ZHHH,2001-05-27 13:00,ZHHH 271300Z AUTO 6SM 20/19 A2994 RMK T02000190 IEM_DS3505
ZHHH,2001-05-27 14:00,ZHHH 271400Z AUTO 6SM 20/19 A2994 RMK T02000190 IEM_DS3505
ZHHH,2001-05-27 15:00,ZHHH 271500Z AUTO 27002KT 6SM 20/19 A2994 RMK SLP144 T01980189 52003 IEM_DS3505
ZHHH,2001-05-27 16:00,ZHHH 271600Z AUTO 6SM 19/19 A2994 RMK T01900190 IEM_DS3505
ZHHH,2001-05-27 17:00,ZHHH 271700Z AUTO 6SM 19/19 A2991 RMK T01900190 IEM_DS3505
ZHHH,2001-05-27 18:00,ZHHH 271800Z AUTO 29002KT 7SM 19/18 A2991 RMK 60003 SLP130 T01940184 57014 IEM_DS3505
ZHHH,2001-05-27 19:00,ZHHH 271900Z AUTO 9SM 19/18 A2991 RMK T01900180 IEM_DS3505
ZHHH,2001-05-27 20:00,ZHHH 272000Z AUTO 19/18 A2988 RMK T01900180 IEM_DS3505
ZHHH,2001-05-27 21:00,ZHHH 272100Z AUTO 00000KT 9SM 19/18 A2988 RMK 70035 SLP127 T01930179 57003 IEM_DS3505
ZHHH,2001-05-27 22:00,ZHHH 272200Z AUTO 6SM 18/18 A2991 RMK T01800180 IEM_DS3505
ZHHH,2001-05-27 23:00,ZHHH 272300Z AUTO 6SM 19/18 A2991 RMK T01900180 IEM_DS3505
ZHHH,2001-05-28 00:00,ZHHH 280000Z AUTO 34002KT 9SM 21/17 A2991 RMK 70022 SLP128 T02090169 52002 IEM_DS3505
ZHHH,2001-05-28 01:00,ZHHH 280100Z AUTO 6SM 21/18 A2991 RMK T02100180 IEM_DS3505
ZHHH,2001-05-28 02:00,ZHHH 280200Z AUTO 6SM 21/17 A2991 RMK T02100170 IEM_DS3505
ZHHH,2001-05-28 03:00,ZHHH 280300Z AUTO 16002KT 11SM 22/18 A2988 RMK SLP118 T02150176 57010 IEM_DS3505
ZHHH,2001-05-28 04:00,ZHHH 280400Z AUTO 6SM 23/16 A2985 RMK T02300160 IEM_DS3505
ZHHH,2001-05-28 05:00,ZHHH 280500Z AUTO 6SM 22/17 A2983 RMK T02200170 IEM_DS3505
ZHHH,2001-05-28 06:00,ZHHH 280600Z AUTO 14002KT 9SM 23/17 A2983 RMK SLP102 T02270168 57016 IEM_DS3505
ZHHH,2001-05-28 07:00,ZHHH 280700Z AUTO 26006KT 6SM 22/17 A2983 RMK T02200170 IEM_DS3505
ZHHH,2001-05-28 08:00,ZHHH 280800Z AUTO 26006KT 6SM 22/17 A2983 RMK T02200170 IEM_DS3505
ZHHH,2001-05-28 09:00,ZHHH 280900Z AUTO 27004KT 9SM 22/18 A2980 RMK SLP090 T02200177 57012 IEM_DS3505
ZHHH,2001-05-28 10:00,ZHHH 281000Z AUTO 23004KT 6SM 21/18 A2980 RMK T02100180 IEM_DS3505
ZHHH,2001-05-28 11:00,ZHHH 281100Z AUTO 6SM 21/18 A2980 RMK T02100180 IEM_DS3505
ZHHH,2001-05-28 12:00,ZHHH 281200Z AUTO 29002KT 7SM 21/19 A2980 RMK 60003 SLP094 T02100186 52004 IEM_DS3505
ZHHH,2001-05-28 13:00,ZHHH 281300Z AUTO 28004KT 6SM 20/18 A2980 RMK T02000180 IEM_DS3505
ZHHH,2001-05-28 14:00,ZHHH 281400Z AUTO 22002KT 6SM 20/18 A2983 RMK T02000180 IEM_DS3505
ZHHH,2001-05-28 15:00,ZHHH 281500Z AUTO 00000KT 7SM 20/18 A2980 RMK SLP097 T02040179 52003 IEM_DS3505
ZHHH,2001-05-28 16:00,ZHHH 281600Z AUTO 4SM 20/18 A2980 RMK T02000180 IEM_DS3505
ZHHH,2001-05-28 17:00,ZHHH 281700Z AUTO 6SM 20/18 A2980 RMK T02000180 IEM_DS3505
ZHHH,2001-05-28 18:00,ZHHH 281800Z AUTO 00000KT 6SM 20/18 A2980 RMK 60003 SLP087 T01990180 57010 IEM_DS3505
ZHHH,2001-05-28 19:00,ZHHH 281900Z AUTO 6SM 19/17 A2977 RMK T01900170 IEM_DS3505
ZHHH,2001-05-28 20:00,ZHHH 282000Z AUTO 6SM 19/18 A2977 RMK T01900180 IEM_DS3505
ZHHH,2001-05-28 21:00,ZHHH 282100Z AUTO 00000KT 6SM 20/18 A2977 RMK 70002 SLP079 T01960184 57008 IEM_DS3505
ZHHH,2001-05-28 22:00,ZHHH 282200Z AUTO 25SM 18/16 A2977 RMK T01800160 IEM_DS3505
ZHHH,2001-05-28 23:00,ZHHH 282300Z AUTO 03004KT 6SM 18/18 A2980 RMK T01800180 IEM_DS3505
ZHHH,2001-05-29 00:00,ZHHH 290000Z AUTO 09002KT 7SM 19/18 A2980 RMK 60012 SLP088 T01890175 52009 IEM_DS3505
ZHHH,2001-05-29 01:00,ZHHH 290100Z AUTO 11004KT 7SM 18/18 A2977 RMK T01800180 IEM_DS3505
ZHHH,2001-05-29 02:00,ZHHH 290200Z AUTO 13008KT 18/18 A2977 RMK T01800180 IEM_DS3505
ZHHH,2001-05-29 03:00,ZHHH 290300Z AUTO 09002KT 6SM 19/18 A2977 RMK SLP077 T01890185 57011 IEM_DS3505
ZHHH,2001-05-29 04:00,ZHHH 290400Z AUTO 09006KT 18/18 A2974 RMK T01800180 IEM_DS3505
ZHHH,2001-05-29 05:00,ZHHH 290500Z AUTO 09006KT 6SM 18/18 A2974 RMK T01800180 IEM_DS3505
ZHHH,2001-05-29 06:00,ZHHH 290600Z AUTO 00000KT 6SM 19/19 A2971 RMK 60051 SLP059 T01940192 57018 IEM_DS3505
ZHHH,2001-05-29 07:00,ZHHH 290700Z AUTO 11006KT 12SM RMK IEM_DS3505
ZHHH,2001-05-29 08:00,ZHHH 290800Z AUTO 09006KT 6SM 19/18 A2968 RMK T01900180 IEM_DS3505
ZHHH,2001-05-29 09:00,ZHHH 290900Z AUTO 00000KT 6SM 19/19 A2968 RMK SLP050 T01910191 57009 IEM_DS3505
ZHHH,2001-05-29 10:00,ZHHH 291000Z AUTO 08006KT 18/18 A2968 RMK T01800180 IEM_DS3505
ZHHH,2001-05-29 11:00,ZHHH 291100Z AUTO 04006KT 6SM 18/18 A2968 RMK T01800180 IEM_DS3505
ZHHH,2001-05-29 12:00,ZHHH 291200Z AUTO 04002KT 6SM 19/19 A2971 RMK 60047 SLP060 T01880188 52010 IEM_DS3505
ZHHH,2001-05-29 13:00,ZHHH 291300Z AUTO 06010KT 6SM 18/18 A2974 RMK T01800180 IEM_DS3505
ZHHH,2001-05-29 14:00,ZHHH 291400Z AUTO 05008KT 18/18 A2974 RMK T01800180 IEM_DS3505
ZHHH,2001-05-29 15:00,ZHHH 291500Z AUTO 14004KT 9SM 18/18 A2971 RMK SLP067 T01830183 52007 IEM_DS3505
ZHHH,2001-05-29 16:00,ZHHH 291600Z AUTO 07008KT 18/18 A2974 RMK T01800180 IEM_DS3505
ZHHH,2001-05-29 17:00,ZHHH 291700Z AUTO 04006KT 6SM 18/18 A2974 RMK T01800180 IEM_DS3505
ZHHH,2001-05-29 18:00,ZHHH 291800Z AUTO 04004KT 6SM 18/18 A2971 RMK 60016 SLP064 T01800180 57003 IEM_DS3505
ZHHH,2001-05-29 19:00,ZHHH 291900Z AUTO 04008KT 6SM RMK IEM_DS3505
ZHHH,2001-05-29 20:00,ZHHH 292000Z AUTO 05008KT RMK IEM_DS3505
ZHHH,2001-05-29 21:00,ZHHH 292100Z AUTO 07002KT 9SM 18/17 A2974 RMK 70126 SLP074 T01760170 52009 IEM_DS3505
ZHHH,2001-05-29 22:00,ZHHH 292200Z AUTO 04004KT 6SM 17/16 A2977 RMK T01700160 IEM_DS3505
ZHHH,2001-05-29 23:00,ZHHH 292300Z AUTO 6SM 18/17 A2977 RMK T01800170 IEM_DS3505
ZHHH,2001-05-30 00:00,ZHHH 300000Z AUTO 02002KT 11SM 19/17 A2980 RMK 60000 SLP093 T01940171 52019 IEM_DS3505
ZHHH,2001-05-30 01:00,ZHHH 300100Z AUTO 02006KT 21/17 A2983 RMK T02100170 IEM_DS3505
ZHHH,2001-05-30 02:00,ZHHH 300200Z AUTO 05006KT 6SM 22/17 A2983 RMK T02200170 IEM_DS3505
ZHHH,2001-05-30 03:00,ZHHH 300300Z AUTO 04002KT 11SM 23/17 A2985 RMK SLP108 T02290170 52016 IEM_DS3505
ZHHH,2001-05-30 04:00,ZHHH 300400Z AUTO 5SM 24/17 A2983 RMK T02400170 IEM_DS3505
ZHHH,2001-05-30 05:00,ZHHH 300500Z AUTO 10006KT 25/18 A2983 RMK T02500180 IEM_DS3505
ZHHH,2001-05-30 06:00,ZHHH 300600Z AUTO 11004KT 16SM 25/18 A2983 RMK SLP100 T02540175 57008 IEM_DS3505
ZHHH,2001-05-30 07:00,ZHHH 300700Z AUTO 6SM 26/18 A2980 RMK T02600180 IEM_DS3505
ZHHH,2001-05-30 08:00,ZHHH 300800Z AUTO 14006KT 12SM 25/17 A2980 RMK T02500170 IEM_DS3505
ZHHH,2001-05-30 09:00,ZHHH 300900Z AUTO 09002KT 12SM 26/18 A2980 RMK SLP092 T02640178 57008 IEM_DS3505
ZHHH,2001-05-30 10:00,ZHHH 301000Z AUTO 6SM 26/18 A2983 RMK T02600180 IEM_DS3505
ZHHH,2001-05-30 11:00,ZHHH 301100Z AUTO 6SM 25/18 A2983 RMK T02500180 IEM_DS3505
ZHHH,2001-05-30 12:00,ZHHH 301200Z AUTO 00000KT 12SM 24/18 A2985 RMK SLP112 T02430178 52020 IEM_DS3505
ZHHH,2001-05-30 13:00,ZHHH 301300Z AUTO 6SM 24/18 A2988 RMK T02400180 IEM_DS3505
ZHHH,2001-05-30 14:00,ZHHH 301400Z AUTO 23004KT 6SM 23/19 A2988 RMK T02300190 IEM_DS3505
ZHHH,2001-05-30 15:00,ZHHH 301500Z AUTO 00000KT 11SM 22/19 A2991 RMK SLP127 T02230189 52015 IEM_DS3505
ZHHH,2001-05-30 16:00,ZHHH 301600Z AUTO 6SM 22/19 A2991 RMK T02200190 IEM_DS3505
ZHHH,2001-05-30 18:00,ZHHH 301800Z AUTO 00000KT 11SM 22/19 RMK SLP124 T02160193 57003 IEM_DS3505
ZHHH,2001-05-30 19:00,ZHHH 301900Z AUTO 01002KT 6SM 21/20 A2991 RMK T02100200 IEM_DS3505
ZHHH,2001-05-30 20:00,ZHHH 302000Z AUTO 04002KT 6SM 21/20 A2991 RMK T02100200 IEM_DS3505
ZHHH,2001-05-30 21:00,ZHHH 302100Z AUTO 07002KT 11SM 21/20 A2991 RMK SLP130 T02070199 52006 IEM_DS3505
ZHHH,2001-05-30 22:00,ZHHH 302200Z AUTO 06004KT 6SM 20/19 A2991 RMK T02000190 IEM_DS3505
ZHHH,2001-05-30 23:00,ZHHH 302300Z AUTO 06006KT 6SM 20/18 A2994 RMK T02000180 IEM_DS3505
ZHHH,2001-05-31 00:00,ZHHH 310000Z AUTO 09002KT 12SM 23/19 A2994 RMK SLP144 T02340194 52014 IEM_DS3505
ZHHH,2001-05-31 01:00,ZHHH 310100Z AUTO 07010KT 22/19 A2997 RMK T02200190 IEM_DS3505
ZHHH,2001-05-31 02:00,ZHHH 310200Z AUTO 09006KT 6SM 23/19 A2997 RMK T02300190 IEM_DS3505
ZHHH,2001-05-31 03:00,ZHHH 310300Z AUTO 07002KT 12SM 26/18 A2997 RMK SLP147 T02560181 52003 IEM_DS3505
ZHHH,2001-05-31 04:00,ZHHH 310400Z AUTO 6SM 26/19 A2994 RMK T02600190 IEM_DS3505
ZHHH,2001-05-31 05:00,ZHHH 310500Z AUTO 6SM 27/19 A2994 RMK T02700190 IEM_DS3505
ZHHH,2001-05-31 06:00,ZHHH 310600Z AUTO 34004KT 12SM 27/18 A2991 RMK SLP130 T02730184 57017 IEM_DS3505
ZHHH,2001-05-31 07:00,ZHHH 310700Z AUTO 6SM 28/18 A2991 RMK T02800180 IEM_DS3505
ZHHH,2001-05-31 08:00,ZHHH 310800Z AUTO 6SM 28/16 A2988 RMK T02800160 IEM_DS3505
ZHHH,2001-05-31 09:00,ZHHH 310900Z AUTO 29004KT 12SM 28/18 A2988 RMK SLP118 T02770182 57012 IEM_DS3505
ZHHH,2001-05-31 10:00,ZHHH 311000Z AUTO 6SM 28/18 A2988 RMK T02800180 IEM_DS3505
ZHHH,2001-05-31 11:00,ZHHH 311100Z AUTO 00000KT 9SM 24/20 A2988 RMK SLP127 T02390204 57009 IEM_DS3505
ZHHH,2001-05-31 12:00,ZHHH 311200Z AUTO 27002KT 11SM 26/18 A2991 RMK SLP129 T02640183 52011 IEM_DS3505
ZHHH,2001-05-31 13:00,ZHHH 311300Z AUTO 36002KT 6SM 26/19 A2991 RMK T02600190 IEM_DS3505
ZHHH,2001-05-31 15:00,ZHHH 311500Z AUTO 00000KT 11SM 25/20 A2994 RMK SLP136 T02500197 52007 IEM_DS3505
ZHHH,2001-05-31 16:00,ZHHH 311600Z AUTO 02004KT 6SM 24/21 A2991 RMK T02400210 IEM_DS3505
ZHHH,2001-05-31 17:00,ZHHH 311700Z AUTO 6SM 24/20 A2991 RMK T02400200 IEM_DS3505
ZHHH,2001-05-31 18:00,ZHHH 311800Z AUTO 00000KT 9SM 24/20 A2991 RMK SLP127 T02390204 57009 IEM_DS3505
ZHHH,2001-05-31 19:00,ZHHH 311900Z AUTO 6SM 24/21 A2991 RMK T02400210 IEM_DS3505
ZHHH,2001-05-31 20:00,ZHHH 312000Z AUTO 21002KT 6SM 24/21 A2991 RMK T02400210 IEM_DS3505
ZHHH,2001-05-31 21:00,ZHHH 312100Z AUTO 00000KT 9SM 24/21 A2991 RMK SLP129 T02360209 52002 IEM_DS3505
ZHHH,2001-05-31 22:00,ZHHH 312200Z AUTO 23/21 A2991 RMK T02300210 IEM_DS3505
ZHHH,2001-05-31 23:00,ZHHH 312300Z AUTO 6SM 23/21 A2991 RMK T02300210 IEM_DS3505
ZHHH,2001-06-01 00:00,ZHHH 010000Z AUTO 00000KT 9SM 24/21 A2991 RMK SLP136 T02450211 52007 IEM_DS3505
ZHHH,2001-06-01 01:00,ZHHH 010100Z AUTO 6SM 25/21 A2994 RMK T02500210 IEM_DS3505
ZHHH,2001-06-01 02:00,ZHHH 010200Z AUTO 6SM 26/22 A2994 RMK T02600220 IEM_DS3505
ZHHH,2001-06-01 03:00,ZHHH 010300Z AUTO 22002KT 11SM 28/19 A2994 RMK SLP141 T02780194 52005 IEM_DS3505
ZHHH,2001-06-01 04:00,ZHHH 010400Z AUTO 26004KT 6SM 28/21 A2994 RMK T02800210 IEM_DS3505
ZHHH,2001-06-01 05:00,ZHHH 010500Z AUTO 28/20 A2991 RMK T02800200 IEM_DS3505
ZHHH,2001-06-01 06:00,ZHHH 010600Z AUTO 27004KT 6SM 28/21 A2991 RMK SLP129 T02810209 57012 IEM_DS3505
ZHHH,2001-06-01 07:00,ZHHH 010700Z AUTO 26006KT 28/20 A2988 RMK T02800200 IEM_DS3505
ZHHH,2001-06-01 08:00,ZHHH 010800Z AUTO 26006KT 6SM 28/21 A2988 RMK T02800210 IEM_DS3505
ZHHH,2001-06-01 09:00,ZHHH 010900Z AUTO 25004KT 6SM 28/20 A2988 RMK SLP121 T02760201 57008 IEM_DS3505
ZHHH,2001-06-01 10:00,ZHHH 011000Z AUTO 23010KT 27/21 A2988 RMK T02700210 IEM_DS3505
ZHHH,2001-06-01 11:00,ZHHH 011100Z AUTO 24012KT 6SM 26/21 A2991 RMK T02600210 IEM_DS3505
ZHHH,2001-06-01 12:00,ZHHH 011200Z AUTO 27004KT 7SM 25/18 A2991 RMK SLP136 T02510183 52015 IEM_DS3505
ZHHH,2001-06-01 13:00,ZHHH 011300Z AUTO 23008KT 6SM 24/20 A2994 RMK T02400200 IEM_DS3505
ZHHH,2001-06-01 14:00,ZHHH 011400Z AUTO 23010KT 10SM 24/21 A2997 RMK T02400210 IEM_DS3505
ZHHH,2001-06-01 15:00,ZHHH 011500Z AUTO 25002KT 9SM 23/19 A2997 RMK SLP146 T02310194 52010 IEM_DS3505
ZHHH,2001-06-01 16:00,ZHHH 011600Z AUTO 10SM 22/19 A2997 RMK T02200190 IEM_DS3505
ZHHH,2001-06-01 17:00,ZHHH 011700Z AUTO 25004KT 6SM 22/19 A2997 RMK T02200190 IEM_DS3505
ZHHH,2001-06-01 18:00,ZHHH 011800Z AUTO 27004KT 9SM 22/19 A2994 RMK SLP144 T02210188 57002 IEM_DS3505
ZHHH,2001-06-01 19:00,ZHHH 011900Z AUTO 25004KT 6SM 21/18 A2994 RMK T02100180 IEM_DS3505
ZHHH,2001-06-01 20:00,ZHHH 012000Z AUTO 21/18 A2994 RMK T02100180 IEM_DS3505
ZHHH,2001-06-01 21:00,ZHHH 012100Z AUTO 00000KT 9SM 21/18 A2994 RMK SLP141 T02100177 57003 IEM_DS3505
ZHHH,2001-06-01 22:00,ZHHH 012200Z AUTO 3SM 20/18 A2994 RMK T02000180 IEM_DS3505
ZHHH,2001-06-01 23:00,ZHHH 012300Z AUTO 6SM 21/19 A2997 RMK T02100190 IEM_DS3505
ZHHH,2001-06-02 00:00,ZHHH 020000Z AUTO 27002KT 7SM 22/18 A3000 RMK SLP155 T02220184 52014 IEM_DS3505
ZHHH,2001-06-02 01:00,ZHHH 020100Z AUTO 6SM 23/18 A3000 RMK T02300180 IEM_DS3505
ZHHH,2001-06-02 04:00,ZHHH 020400Z AUTO 6SM 24/19 A3000 RMK T02400190 IEM_DS3505
ZHHH,2001-06-02 05:00,ZHHH 020500Z AUTO 13006KT 6SM 25/19 A2997 RMK T02500190 IEM_DS3505
ZHHH,2001-06-02 06:00,ZHHH 020600Z AUTO 14008KT 6SM 24/18 A2997 RMK T02400180 IEM_DS3505
ZHHH,2001-06-02 07:00,ZHHH 020700Z AUTO 15012KT 6SM 23/19 A2994 RMK T02300190 IEM_DS3505
ZHHH,2001-06-02 08:00,ZHHH 020800Z AUTO 15008KT 14SM 22/19 A2994 RMK T02200190 IEM_DS3505
ZHHH,2001-06-02 09:00,ZHHH 020900Z AUTO 14004KT 7SM 22/19 A2994 RMK SLP135 T02200186 57013 IEM_DS3505
ZHHH,2001-06-02 10:00,ZHHH 021000Z AUTO 13008G19KT 21/19 A2994 RMK T02100190 IEM_DS3505
ZHHH,2001-06-02 11:00,ZHHH 021100Z AUTO 14006KT 6SM 21/20 A2994 RMK T02100200 IEM_DS3505
ZHHH,2001-06-02 12:00,ZHHH 021200Z AUTO 14002KT 9SM 20/20 RMK 60012 SLP144 T02030196 52009 IEM_DS3505
ZHHH,2001-06-02 13:00,ZHHH 021300Z AUTO 14006KT 6SM 20/19 A2997 RMK T02000190 IEM_DS3505
ZHHH,2001-06-02 14:00,ZHHH 021400Z AUTO 15006KT 6SM 20/19 A2994 RMK T02000190 IEM_DS3505
ZHHH,2001-06-02 15:00,ZHHH 021500Z AUTO 14002KT 6SM 20/19 A2994 RMK SLP143 T01990194 57001 IEM_DS3505
ZHHH,2001-06-02 16:00,ZHHH 021600Z AUTO 13004KT 19/19 A2994 RMK T01900190 IEM_DS3505
ZHHH,2001-06-02 17:00,ZHHH 021700Z AUTO 13006KT 6SM 19/19 A2991 RMK T01900190 IEM_DS3505
ZHHH,2001-06-02 18:00,ZHHH 021800Z AUTO 16002KT 6SM 20/19 A2991 RMK 60028 SLP125 T01980194 57018 IEM_DS3505
ZHHH,2001-06-02 19:00,ZHHH 021900Z AUTO 12008KT 19/19 A2988 RMK T01900190 IEM_DS3505
ZHHH,2001-06-02 20:00,ZHHH 022000Z AUTO 14006KT 6SM 19/19 A2988 RMK T01900190 IEM_DS3505
ZHHH,2001-06-02 21:00,ZHHH 022100Z AUTO 00000KT 6SM 19/19 A2988 RMK 70070 SLP117 T01940194 57008 IEM_DS3505
ZHHH,2001-06-02 22:00,ZHHH 022200Z AUTO 6SM 19/19 A2985 RMK T01900190 IEM_DS3505
ZHHH,2001-06-02 23:00,ZHHH 022300Z AUTO 12008KT 6SM 19/19 A2988 RMK T01900190 IEM_DS3505
ZHHH,2001-06-03 00:00,ZHHH 030000Z AUTO 09002KT 7SM 20/20 A2988 RMK 60043 SLP119 T02010197 52002 IEM_DS3505
ZHHH,2001-06-03 01:00,ZHHH 030100Z AUTO 10008KT 6SM 19/19 A2988 RMK T01900190 IEM_DS3505
ZHHH,2001-06-03 02:00,ZHHH 030200Z AUTO 10008KT 6SM 19/19 A2988 RMK T01900190 IEM_DS3505
ZHHH,2001-06-03 03:00,ZHHH 030300Z AUTO 09002KT 7SM 20/20 A2988 RMK SLP122 T02030201 52002 IEM_DS3505
ZHHH,2001-06-03 04:00,ZHHH 030400Z AUTO 11006KT 6SM 19/19 A2988 RMK T01900190 IEM_DS3505
ZHHH,2001-06-03 05:00,ZHHH 030500Z AUTO 09006KT 20/20 A2985 RMK T02000200 IEM_DS3505
ZHHH,2001-06-03 06:00,ZHHH 030600Z AUTO 00000KT 5SM 20/20 A2985 RMK 60020 SLP107 T02010199 57014 IEM_DS3505
ZHHH,2001-06-03 07:00,ZHHH 030700Z AUTO 12006KT 6SM 20/20 A2983 RMK T02000200 IEM_DS3505
ZHHH,2001-06-03 08:00,ZHHH 030800Z AUTO 11006KT 6SM 20/20 A2983 RMK T02000200 IEM_DS3505
ZHHH,2001-06-03 09:00,ZHHH 030900Z AUTO 09002KT 5SM 20/20 A2980 RMK SLP095 T02040200 57012 IEM_DS3505
ZHHH,2001-06-03 10:00,ZHHH 031000Z AUTO 6SM 20/19 A2980 RMK T02000190 IEM_DS3505
ZHHH,2001-06-03 11:00,ZHHH 031100Z AUTO 20/20 A2983 RMK T02000200 IEM_DS3505
ZHHH,2001-06-03 12:00,ZHHH 031200Z AUTO 04002KT 5SM 20/20 A2983 RMK 60016 SLP096 T02040203 52001 IEM_DS3505
ZHHH,2001-06-03 13:00,ZHHH 031300Z AUTO 09006KT 11SM 20/20 A2980 RMK T02000200 IEM_DS3505
ZHHH,2001-06-03 14:00,ZHHH 031400Z AUTO 11004KT 6SM 20/20 A2983 RMK T02000200 IEM_DS3505
ZHHH,2001-06-03 15:00,ZHHH 031500Z AUTO 00000KT 5SM 20/20 A2980 RMK SLP093 T02030203 57003 IEM_DS3505
ZHHH,2001-06-03 16:00,ZHHH 031600Z AUTO 14002KT 6SM 20/20 A2980 RMK T02000200 IEM_DS3505
ZHHH,2001-06-03 17:00,ZHHH 031700Z AUTO 6SM 20/20 A2977 RMK T02000200 IEM_DS3505
ZHHH,2001-06-03 18:00,ZHHH 031800Z AUTO 27002KT 6SM 20/20 A2977 RMK 60008 SLP078 T02040204 57015 IEM_DS3505
ZHHH,2001-06-03 19:00,ZHHH 031900Z AUTO 20/20 A2974 RMK T02000200 IEM_DS3505
ZHHH,2001-06-03 20:00,ZHHH 032000Z AUTO 26004KT 25SM 20/20 A2974 RMK T02000200 IEM_DS3505
ZHHH,2001-06-03 21:00,ZHHH 032100Z AUTO 29002KT 6SM 20/20 A2971 RMK 70074 SLP065 T01970197 57013 IEM_DS3505
ZHHH,2001-06-03 22:00,ZHHH 032200Z AUTO 19/19 A2974 RMK T01900190 IEM_DS3505
ZHHH,2001-06-03 23:00,ZHHH 032300Z AUTO 6SM 20/20 A2974 RMK T02000200 IEM_DS3505
ZHHH,2001-06-04 00:00,ZHHH 040000Z AUTO 36002KT 14SM 21/20 RMK 60024 SLP072 T02070201 52007 IEM_DS3505
ZHHH,2001-06-04 01:00,ZHHH 040100Z AUTO 21/20 A2974 RMK T02100200 IEM_DS3505
ZHHH,2001-06-04 02:00,ZHHH 040200Z AUTO 31006KT 14SM RMK IEM_DS3505
ZHHH,2001-06-04 03:00,ZHHH 040300Z AUTO 36004KT 14SM 24/19 RMK SLP072 T02410194 54000 IEM_DS3505
ZHHH,2001-06-04 04:00,ZHHH 040400Z AUTO 6SM 24/20 A2971 RMK T02400200 IEM_DS3505
ZHHH,2001-06-04 05:00,ZHHH 040500Z AUTO 6SM 23/20 A2971 RMK T02300200 IEM_DS3505
ZHHH,2001-06-04 06:00,ZHHH 040600Z AUTO 36004KT 14SM 25/19 RMK SLP052 T02520192 57020 IEM_DS3505
ZHHH,2001-06-04 07:00,ZHHH 040700Z AUTO 6SM 26/20 A2968 RMK T02600200 IEM_DS3505
ZHHH,2001-06-04 09:00,ZHHH 040900Z AUTO 29004KT 14SM 26/19 A2965 RMK SLP038 T02650187 57014 IEM_DS3505
ZHHH,2001-06-04 11:00,ZHHH 041100Z AUTO 9SM RMK IEM_DS3505
ZHHH,2001-06-04 12:00,ZHHH 041200Z AUTO 25002KT 9SM 25/19 RMK SLP043 T02460188 52005 IEM_DS3505
ZHHH,2001-06-04 13:00,ZHHH 041300Z AUTO 25004KT 23/21 A2968 RMK T02300210 IEM_DS3505
ZHHH,2001-06-04 14:00,ZHHH 041400Z AUTO 23/21 A2968 RMK T02300210 IEM_DS3505
ZHHH,2001-06-04 15:00,ZHHH 041500Z AUTO 27002KT 9SM 23/20 A2971 RMK SLP056 T02290196 52013 IEM_DS3505
ZHHH,2001-06-04 16:00,ZHHH 041600Z AUTO 28004KT 6SM 22/20 A2968 RMK T02200200 IEM_DS3505
ZHHH,2001-06-04 17:00,ZHHH 041700Z AUTO 6SM 21/21 A2968 RMK T02100210 IEM_DS3505
ZHHH,2001-06-04 18:00,ZHHH 041800Z AUTO 29004KT 9SM 22/20 A2968 RMK SLP046 T02180202 57010 IEM_DS3505
ZHHH,2001-06-04 19:00,ZHHH 041900Z AUTO 01002KT 6SM 20/20 A2965 RMK T02000200 IEM_DS3505
ZHHH,2001-06-04 20:00,ZHHH 042000Z AUTO 12SM 20/19 A2965 RMK T02000190 IEM_DS3505
ZHHH,2001-06-04 21:00,ZHHH 042100Z AUTO 27002KT 11SM 21/19 A2968 RMK 70003 SLP047 T02070189 52001 IEM_DS3505
ZHHH,2001-06-04 22:00,ZHHH 042200Z AUTO 27002KT 19/19 A2968 RMK T01900190 IEM_DS3505
ZHHH,2001-06-04 23:00,ZHHH 042300Z AUTO 6SM 19/19 A2968 RMK T01900190 IEM_DS3505
ZHHH,2001-06-05 00:00,ZHHH 050000Z AUTO 00000KT 14SM 24/19 A2971 RMK SLP059 T02350194 52012 IEM_DS3505
ZHHH,2001-06-05 01:00,ZHHH 050100Z AUTO 6SM 24/20 A2971 RMK T02400200 IEM_DS3505
ZHHH,2001-06-05 02:00,ZHHH 050200Z AUTO 6SM 25/19 A2971 RMK T02500190 IEM_DS3505
ZHHH,2001-06-05 03:00,ZHHH 050300Z AUTO 22004KT 16SM 27/21 A2968 RMK SLP053 T02710208 57006 IEM_DS3505
ZHHH,2001-06-05 04:00,ZHHH 050400Z AUTO 26006KT 6SM 27/21 A2968 RMK T02700210 IEM_DS3505
ZHHH,2001-06-05 05:00,ZHHH 050500Z AUTO 29006KT 6SM 29/20 A2968 RMK T02900200 IEM_DS3505
ZHHH,2001-06-05 06:00,ZHHH 050600Z AUTO 27004KT 12SM 30/19 A2965 RMK SLP042 T02980194 57011 IEM_DS3505
ZHHH,2001-06-05 07:00,ZHHH 050700Z AUTO 6SM 30/19 A2965 RMK T03000190 IEM_DS3505
ZHHH,2001-06-05 08:00,ZHHH 050800Z AUTO 25006KT 6SM 30/21 A2962 RMK T03000210 IEM_DS3505
ZHHH,2001-06-05 09:00,ZHHH 050900Z AUTO 27004KT 12SM 31/19 A2959 RMK SLP025 T03070193 57017 IEM_DS3505
ZHHH,2001-06-05 10:00,ZHHH 051000Z AUTO 25006KT 6SM 30/19 A2959 RMK T03000190 IEM_DS3505
ZHHH,2001-06-05 11:00,ZHHH 051100Z AUTO 24004KT 6SM 28/19 A2962 RMK T02800190 IEM_DS3505
ZHHH,2001-06-05 12:00,ZHHH 051200Z AUTO 00000KT 11SM 27/20 A2962 RMK SLP034 T02730202 52009 IEM_DS3505
ZHHH,2001-06-05 13:00,ZHHH 051300Z AUTO 6SM 27/20 A2965 RMK T02700200 IEM_DS3505
ZHHH,2001-06-05 14:00,ZHHH 051400Z AUTO 6SM 26/21 A2965 RMK T02600210 IEM_DS3505
ZHHH,2001-06-05 15:00,ZHHH 051500Z AUTO 00000KT 11SM 25/22 RMK SLP047 T02480215 52013 IEM_DS3505
ZHHH,2001-06-05 16:00,ZHHH 051600Z AUTO 19002KT 6SM 24/21 A2968 RMK T02400210 IEM_DS3505
ZHHH,2001-06-05 17:00,ZHHH 051700Z AUTO 20002KT 6SM 24/22 A2968 RMK T02400220 IEM_DS3505
ZHHH,2001-06-05 18:00,ZHHH 051800Z AUTO 00000KT 11SM 24/21 A2965 RMK SLP046 T02360212 57001 IEM_DS3505
ZHHH,2001-06-05 19:00,ZHHH 051900Z AUTO 18004KT 5SM 23/21 A2965 RMK T02300210 IEM_DS3505
ZHHH,2001-06-05 20:00,ZHHH 052000Z AUTO 18006KT 2SM 23/21 A2968 RMK T02300210 IEM_DS3505
ZHHH,2001-06-05 21:00,ZHHH 052100Z AUTO 00000KT 11SM 23/21 A2968 RMK SLP052 T02310210 52006 IEM_DS3505
ZHHH,2001-06-05 22:00,ZHHH 052200Z AUTO 14004KT 23/21 A2968 RMK T02300210 IEM_DS3505
ZHHH,2001-06-05 23:00,ZHHH 052300Z AUTO 23/20 A2971 RMK T02300200 IEM_DS3505
ZHHH,2001-06-06 00:00,ZHHH 060000Z AUTO 16002KT 11SM 26/21 A2974 RMK SLP066 T02590211 52014 IEM_DS3505
ZHHH,2001-06-06 01:00,ZHHH 060100Z AUTO 16002KT 11SM 26/21 A2974 RMK SLP066 T02590211 52014 IEM_DS3505
ZHHH,2001-06-06 02:00,ZHHH 060200Z AUTO 6SM 27/21 A2974 RMK T02700210 IEM_DS3505
ZHHH,2001-06-06 03:00,ZHHH 060300Z AUTO 22002KT 12SM 29/20 A2974 RMK SLP067 T02910196 52001 IEM_DS3505
ZHHH,2001-06-06 04:00,ZHHH 060400Z AUTO 6SM 31/20 A2974 RMK SLP072 T03100200 IEM_DS3505
ZHHH,2001-06-06 05:00,ZHHH 060500Z AUTO 6SM 30/17 A2971 RMK SLP062 T03000170 IEM_DS3505
ZHHH,2001-06-06 06:00,ZHHH 060600Z AUTO 16004KT 16SM 31/17 A2971 RMK SLP056 T03140168 57011 IEM_DS3505
ZHHH,2001-06-06 07:00,ZHHH 060700Z AUTO 6SM 31/18 A2968 RMK SLP052 T03100180 IEM_DS3505
ZHHH,2001-06-06 08:00,ZHHH 060800Z AUTO 24006KT 6SM 31/18 A2968 RMK SLP052 T03100180 IEM_DS3505
ZHHH,2001-06-06 09:00,ZHHH 060900Z AUTO 00000KT 14SM 31/19 A2968 RMK SLP046 T03060192 57010 IEM_DS3505
ZHHH,2001-06-06 10:00,ZHHH 061000Z AUTO 24004KT 6SM 30/19 A2965 RMK SLP042 T03000190 IEM_DS3505
ZHHH,2001-06-06 11:00,ZHHH 061100Z AUTO 22002KT 6SM 29/20 A2968 RMK SLP052 T02900200 IEM_DS3505
ZHHH,2001-06-06 12:00,ZHHH 061200Z AUTO 00000KT 11SM 29/22 A2968 RMK SLP052 T02870219 52006 IEM_DS3505
ZHHH,2001-06-06 13:00,ZHHH 061300Z AUTO 17002KT 6SM 28/21 A2971 RMK SLP062 T02800210 IEM_DS3505
ZHHH,2001-06-06 14:00,ZHHH 061400Z AUTO 6SM 27/22 A2971 RMK SLP062 T02700220 IEM_DS3505
ZHHH,2001-06-06 15:00,ZHHH 061500Z AUTO 22002KT 11SM 27/23 A2971 RMK SLP063 T02680229 52011 IEM_DS3505
ZHHH,2001-06-06 16:00,ZHHH 061600Z AUTO 26/22 A2971 RMK SLP062 T02600220 IEM_DS3505
ZHHH,2001-06-06 17:00,ZHHH 061700Z AUTO 6SM 25/23 A2968 RMK SLP052 T02500230 IEM_DS3505
ZHHH,2001-06-06 18:00,ZHHH 061800Z AUTO 00000KT 7SM 25/22 A2968 RMK SLP051 T02500222 57012 IEM_DS3505
ZHHH,2001-06-06 19:00,ZHHH 061900Z AUTO 19SM 24/23 A2968 RMK SLP053 T02400230 IEM_DS3505
ZHHH,2001-06-06 20:00,ZHHH 062000Z AUTO 24/22 A2968 RMK SLP053 T02400220 IEM_DS3505
ZHHH,2001-06-06 21:00,ZHHH 062100Z AUTO 00000KT 7SM 24/22 A2968 RMK SLP053 T02400224 52002 IEM_DS3505
ZHHH,2001-06-06 22:00,ZHHH 062200Z AUTO 6SM 23/23 A2968 RMK SLP053 T02300230 IEM_DS3505
ZHHH,2001-06-06 23:00,ZHHH 062300Z AUTO 24/23 A2971 RMK SLP063 T02400230 IEM_DS3505
ZHHH,2001-06-07 00:00,ZHHH 070000Z AUTO 09002KT 7SM 27/24 A2971 RMK SLP060 T02730236 52007 IEM_DS3505
ZHHH,2001-06-07 01:00,ZHHH 070100Z AUTO 6SM 27/23 A2971 RMK SLP062 T02700230 IEM_DS3505
ZHHH,2001-06-07 03:00,ZHHH 070300Z AUTO 09002KT 7SM 30/22 A2970 RMK SLP057 T03040225 57003 IEM_DS3505
ZHHH,2001-06-07 04:00,ZHHH 070400Z AUTO 6SM 30/20 A2968 RMK SLP052 T03000200 IEM_DS3505
ZHHH,2001-06-07 05:00,ZHHH 070500Z AUTO 6SM RMK IEM_DS3505
ZHHH,2001-06-07 06:00,ZHHH 070600Z AUTO 25002KT 9SM 33/18 A2965 RMK SLP038 T03300184 57018 IEM_DS3505
ZHHH,2001-06-07 07:00,ZHHH 070700Z AUTO 6SM 33/19 A2962 RMK SLP032 T03300190 IEM_DS3505
ZHHH,2001-06-07 08:00,ZHHH 070800Z AUTO 6SM 33/22 A2962 RMK SLP032 T03300220 IEM_DS3505
ZHHH,2001-06-07 09:00,ZHHH 070900Z AUTO 34002KT 11SM 34/17 A2959 RMK SLP022 T03370170 57016 IEM_DS3505
ZHHH,2001-06-07 10:00,ZHHH 071000Z AUTO 6SM 32/20 A2959 RMK SLP021 T03200200 IEM_DS3505
ZHHH,2001-06-07 11:00,ZHHH 071100Z AUTO 6SM 31/20 A2959 RMK SLP021 T03100200 IEM_DS3505
ZHHH,2001-06-07 12:00,ZHHH 071200Z AUTO 00000KT 9SM 30/20 A2962 RMK SLP028 T03020201 52006 IEM_DS3505
ZHHH,2001-06-07 13:00,ZHHH 071300Z AUTO 6SM 29/21 A2962 RMK SLP032 T02900210 IEM_DS3505
ZHHH,2001-06-07 14:00,ZHHH 071400Z AUTO 6SM 28/21 A2965 RMK SLP042 T02800210 IEM_DS3505
ZHHH,2001-06-07 15:00,ZHHH 071500Z AUTO 00000KT 9SM 28/20 A2965 RMK SLP035 T02780197 52007 IEM_DS3505
ZHHH,2001-06-07 16:00,ZHHH 071600Z AUTO 6SM 27/23 A2965 RMK SLP042 T02700230 IEM_DS3505
ZHHH,2001-06-07 17:00,ZHHH 071700Z AUTO 08006KT RMK IEM_DS3505
ZHHH,2001-06-07 18:00,ZHHH 071800Z AUTO 09002KT 9SM 26/23 A2965 RMK SLP034 T02640226 57001 IEM_DS3505
ZHHH,2001-06-07 19:00,ZHHH 071900Z AUTO 09008KT 6SM 25/23 A2962 RMK SLP032 T02500230 IEM_DS3505
ZHHH,2001-06-07 20:00,ZHHH 072000Z AUTO 10008KT 1 1/4SM 25/22 A2962 RMK SLP032 T02500220 IEM_DS3505
ZHHH,2001-06-07 21:00,ZHHH 072100Z AUTO 09002KT 9SM 26/22 A2962 RMK SLP032 T02590225 IEM_DS3505
ZHHH,2001-06-07 22:00,ZHHH 072200Z AUTO 09006KT 6SM 24/22 A2965 RMK SLP043 T02400220 IEM_DS3505
ZHHH,2001-06-07 23:00,ZHHH 072300Z AUTO 10006KT 25SM 24/22 A2965 RMK SLP043 T02400220 IEM_DS3505
ZHHH,2001-06-08 00:00,ZHHH 080000Z AUTO 09004KT 9SM 27/23 A2965 RMK SLP040 T02700227 52008 IEM_DS3505
ZHHH,2001-06-08 01:00,ZHHH 080100Z AUTO 10008KT 6SM 26/23 A2968 RMK SLP052 T02600230 IEM_DS3505
ZHHH,2001-06-08 02:00,ZHHH 080200Z AUTO 12010KT 6SM 27/24 A2968 RMK SLP052 T02700240 IEM_DS3505
ZHHH,2001-06-08 03:00,ZHHH 080300Z AUTO 16004KT 11SM 30/24 A2968 RMK SLP044 T02970235 52004 IEM_DS3505
ZHHH,2001-06-08 04:00,ZHHH 080400Z AUTO 11008KT 6SM 29/25 A2965 RMK SLP042 T02900250 IEM_DS3505
ZHHH,2001-06-08 05:00,ZHHH 080500Z AUTO 13010KT 6SM 29/25 A2965 RMK SLP042 T02900250 IEM_DS3505
ZHHH,2001-06-08 06:00,ZHHH 080600Z AUTO 09002KT 7SM 30/25 A2962 RMK 60003 SLP030 T03050249 57014 IEM_DS3505
ZHHH,2001-06-08 07:00,ZHHH 080700Z AUTO 11010KT 6SM 30/25 A2962 RMK SLP032 T03000250 IEM_DS3505
ZHHH,2001-06-08 08:00,ZHHH 080800Z AUTO 10010KT 6SM 30/25 A2959 RMK SLP021 T03000250 IEM_DS3505
ZHHH,2001-06-08 09:00,ZHHH 080900Z AUTO 07004KT 9SM 31/24 A2959 RMK SLP016 T03060244 57014 IEM_DS3505
ZHHH,2001-06-08 10:00,ZHHH 081000Z AUTO 09010KT 6SM 30/24 A2959 RMK SLP021 T03000240 IEM_DS3505
ZHHH,2001-06-08 11:00,ZHHH 081100Z AUTO 10006KT 6SM 29/25 A2959 RMK SLP021 T02900250 IEM_DS3505
ZHHH,2001-06-08 12:00,ZHHH 081200Z AUTO 11002KT 9SM 29/23 A2959 RMK SLP022 T02930234 52006 IEM_DS3505
ZHHH,2001-06-08 13:00,ZHHH 081300Z AUTO 10006KT RMK IEM_DS3505
ZHHH,2001-06-08 14:00,ZHHH 081400Z AUTO 11006KT 6SM 27/25 A2965 RMK SLP042 T02700250 IEM_DS3505
ZHHH,2001-06-08 15:00,ZHHH 081500Z AUTO 00000KT 9SM 28/24 A2965 RMK SLP042 T02840239 52020 IEM_DS3505
ZHHH,2001-06-08 16:00,ZHHH 081600Z AUTO 11008KT 6SM 27/24 A2965 RMK SLP042 T02700240 IEM_DS3505
ZHHH,2001-06-08 17:00,ZHHH 081700Z AUTO 12008KT 47SM 27/25 A2962 RMK SLP032 T02700250 IEM_DS3505
ZHHH,2001-06-08 18:00,ZHHH 081800Z AUTO 00000KT 6SM 26/24 A2962 RMK 60002 SLP029 T02570239 57007 IEM_DS3505
ZHHH,2001-06-08 19:00,ZHHH 081900Z AUTO 29004KT 6SM 26/25 A2962 RMK SLP032 T02600250 IEM_DS3505
ZHHH,2001-06-08 20:00,ZHHH 082000Z AUTO 6SM 25/25 A2962 RMK SLP032 T02500250 IEM_DS3505
ZHHH,2001-06-08 21:00,ZHHH 082100Z AUTO 04002KT 6SM 25/24 A2962 RMK 70009 SLP031 T02500243 52001 IEM_DS3505
ZHHH,2001-06-08 22:00,ZHHH 082200Z AUTO 10006KT 6SM 25/25 A2962 RMK SLP032 T02500250 IEM_DS3505
ZHHH,2001-06-08 23:00,ZHHH 082300Z AUTO 12008KT 6SM 25/25 A2965 RMK SLP042 T02500250 IEM_DS3505
ZHHH,2001-06-09 00:00,ZHHH 090000Z AUTO 11006KT 4SM 25/25 A2965 RMK 60035 SLP034 T02510248 52003 IEM_DS3505
ZHHH,2001-06-09 03:00,ZHHH 090300Z AUTO 11004KT 5SM 26/25 A2965 RMK SLP040 T02580253 52006 IEM_DS3505
ZHHH,2001-06-09 04:00,ZHHH 090400Z AUTO 08012KT 6SM 24/24 A2965 RMK SLP043 T02400240 IEM_DS3505
ZHHH,2001-06-09 05:00,ZHHH 090500Z AUTO 07012KT 6SM 24/23 A2962 RMK SLP033 T02400230 IEM_DS3505
ZHHH,2001-06-09 06:00,ZHHH 090600Z AUTO 09004KT 6SM 25/24 A2962 RMK 60024 SLP028 T02480241 57012 IEM_DS3505
ZHHH,2001-06-09 07:00,ZHHH 090700Z AUTO 08014KT 6SM 25/24 A2959 RMK SLP021 T02500240 IEM_DS3505
ZHHH,2001-06-09 08:00,ZHHH 090800Z AUTO 09012KT 26/24 A2962 RMK SLP032 T02600240 IEM_DS3505
ZHHH,2001-06-09 09:00,ZHHH 090900Z AUTO 09004KT 7SM 26/25 A2959 RMK SLP020 T02640248 57008 IEM_DS3505
ZHHH,2001-06-09 10:00,ZHHH 091000Z AUTO 08014KT 25/24 A2959 RMK SLP021 T02500240 IEM_DS3505
ZHHH,2001-06-09 11:00,ZHHH 091100Z AUTO 07014KT RMK IEM_DS3505
ZHHH,2001-06-09 12:00,ZHHH 091200Z AUTO 09004KT 11SM 25/24 A2962 RMK 60003 SLP029 T02520243 52009 IEM_DS3505
ZHHH,2001-06-09 13:00,ZHHH 091300Z AUTO 08012KT 24/23 A2962 RMK SLP033 T02400230 IEM_DS3505
ZHHH,2001-06-09 14:00,ZHHH 091400Z AUTO 09012KT 11SM 24/23 A2965 RMK SLP043 T02400230 IEM_DS3505
ZHHH,2001-06-09 15:00,ZHHH 091500Z AUTO 02002KT 6SM 24/24 A2965 RMK SLP040 T02410239 52011 IEM_DS3505
ZHHH,2001-06-09 16:00,ZHHH 091600Z AUTO 08008KT 6SM 23/23 A2965 RMK SLP043 T02300230 IEM_DS3505
ZHHH,2001-06-09 17:00,ZHHH 091700Z AUTO 08008KT 6SM 23/23 A2962 RMK SLP033 T02300230 IEM_DS3505
ZHHH,2001-06-09 18:00,ZHHH 091800Z AUTO 09002KT 6SM 24/24 A2962 RMK 60012 SLP030 T02390236 57010 IEM_DS3505
ZHHH,2001-06-09 19:00,ZHHH 091900Z AUTO 04006KT 23/23 A2962 RMK SLP033 T02300230 IEM_DS3505
ZHHH,2001-06-09 20:00,ZHHH 092000Z AUTO 08010KT 23/23 A2962 RMK SLP033 T02300230 IEM_DS3505
ZHHH,2001-06-09 21:00,ZHHH 092100Z AUTO 04006KT 6SM 24/24 A2962 RMK 70070 SLP029 T02390235 57001 IEM_DS3505
ZHHH,2001-06-09 22:00,ZHHH 092200Z AUTO 05014KT 23/22 A2962 RMK SLP033 T02300220 IEM_DS3505
ZHHH,2001-06-09 23:00,ZHHH 092300Z AUTO 05010KT 2SM 23/22 A2965 RMK SLP043 T02300220 IEM_DS3505
ZHHH,2001-06-10 00:00,ZHHH 100000Z AUTO 04004KT 6SM 23/22 A2965 RMK 60008 SLP044 T02320225 52015 IEM_DS3505
ZHHH,2001-06-10 01:00,ZHHH 100100Z AUTO 04006KT 6SM 23/22 A2968 RMK SLP053 T02300220 IEM_DS3505
ZHHH,2001-06-10 02:00,ZHHH 100200Z AUTO 03008KT 23/22 A2968 RMK SLP053 T02300220 IEM_DS3505
ZHHH,2001-06-10 03:00,ZHHH 100300Z AUTO 04004KT 7SM 24/23 A2968 RMK SLP048 T02360226 52004 IEM_DS3505
ZHHH,2001-06-10 04:00,ZHHH 100400Z AUTO 04010KT 6SM 23/22 A2968 RMK SLP053 T02300220 IEM_DS3505
ZHHH,2001-06-10 05:00,ZHHH 100500Z AUTO 6SM 24/22 A2968 RMK SLP053 T02400220 IEM_DS3505
ZHHH,2001-06-10 06:00,ZHHH 100600Z AUTO 04004KT 6SM 25/22 A2968 RMK 60012 SLP050 T02480224 52002 IEM_DS3505
ZHHH,2001-06-10 07:00,ZHHH 100700Z AUTO 04010KT 6SM 25/22 A2968 RMK SLP052 T02500220 IEM_DS3505
ZHHH,2001-06-10 08:00,ZHHH 100800Z AUTO 05010KT 9SM RMK IEM_DS3505
ZHHH,2001-06-10 09:00,ZHHH 100900Z AUTO 09002KT 6SM 23/22 A2965 RMK SLP046 T02320222 57004 IEM_DS3505
ZHHH,2001-06-10 10:00,ZHHH 101000Z AUTO 6SM 26/22 A2968 RMK SLP052 T02600220 IEM_DS3505
ZHHH,2001-06-10 12:00,ZHHH 101200Z AUTO 36002KT 7SM 25/23 A2968 RMK 60003 SLP051 T02480226 52005 IEM_DS3505
ZHHH,2001-06-10 13:00,ZHHH 101300Z AUTO 4SM 24/21 A2971 RMK SLP063 T02400210 IEM_DS3505
ZHHH,2001-06-10 14:00,ZHHH 101400Z AUTO 06004KT 6SM 23/21 A2971 RMK SLP063 T02300210 IEM_DS3505
ZHHH,2001-06-10 15:00,ZHHH 101500Z AUTO 00000KT 7SM 24/21 A2971 RMK SLP063 T02380210 52012 IEM_DS3505
ZHHH,2001-06-10 16:00,ZHHH 101600Z AUTO 02004KT 22/20 A2971 RMK SLP063 T02200200 IEM_DS3505
ZHHH,2001-06-10 17:00,ZHHH 101700Z AUTO 14SM 22/20 A2971 RMK SLP063 T02200200 IEM_DS3505
ZHHH,2001-06-10 18:00,ZHHH 101800Z AUTO 04002KT 12SM 22/21 A2971 RMK SLP059 T02250206 57004 IEM_DS3505
ZHHH,2001-06-10 19:00,ZHHH 101900Z AUTO 04006KT 22/20 A2971 RMK SLP063 T02200200 IEM_DS3505
ZHHH,2001-06-10 20:00,ZHHH 102000Z AUTO 05008KT 21/20 A2971 RMK SLP063 T02100200 IEM_DS3505
ZHHH,2001-06-10 21:00,ZHHH 102100Z AUTO 04004KT 9SM 23/20 A2971 RMK 70018 SLP064 T02260205 52005 IEM_DS3505
ZHHH,2001-06-10 22:00,ZHHH 102200Z AUTO 06006KT 6SM 21/20 A2971 RMK SLP063 T02100200 IEM_DS3505
ZHHH,2001-06-10 23:00,ZHHH 102300Z AUTO 23/20 A2971 RMK SLP063 T02300200 IEM_DS3505
ZHHH,2001-06-11 00:00,ZHHH 110000Z AUTO 04002KT 11SM 24/21 A2974 RMK 70015 SLP069 T02410209 52005 IEM_DS3505
ZHHH,2001-06-11 01:00,ZHHH 110100Z AUTO 09010KT 6SM 25/21 A2974 RMK SLP073 T02500210 IEM_DS3505
ZHHH,2001-06-11 02:00,ZHHH 110200Z AUTO 09006KT 6SM 25/21 A2974 RMK SLP073 T02500210 IEM_DS3505
ZHHH,2001-06-11 03:00,ZHHH 110300Z AUTO 09002KT 12SM 27/22 A2974 RMK SLP070 T02690215 52001 IEM_DS3505
ZHHH,2001-06-11 04:00,ZHHH 110400Z AUTO 6SM 28/22 A2974 RMK SLP072 T02800220 IEM_DS3505
ZHHH,2001-06-11 06:00,ZHHH 110600Z AUTO 11002KT 12SM 29/22 A2970 RMK SLP061 T02860216 57009 IEM_DS3505
ZHHH,2001-06-11 08:00,ZHHH 110800Z AUTO 6SM RMK IEM_DS3505
ZHHH,2001-06-11 09:00,ZHHH 110900Z AUTO 36002KT 12SM 29/21 A2966 RMK SLP046 T02940211 57015 IEM_DS3505
ZHHH,2001-06-11 10:00,ZHHH 111000Z AUTO 29/22 A2965 RMK SLP042 T02900220 IEM_DS3505
ZHHH,2001-06-11 11:00,ZHHH 111100Z AUTO 6SM 28/22 A2968 RMK SLP052 T02800220 IEM_DS3505
ZHHH,2001-06-11 12:00,ZHHH 111200Z AUTO 00000KT 11SM 27/22 A2967 RMK SLP051 T02730222 52005 IEM_DS3505
ZHHH,2001-06-11 14:00,ZHHH 111400Z AUTO 15006KT 6SM 26/23 A2971 RMK SLP062 T02600230 IEM_DS3505
ZHHH,2001-06-11 15:00,ZHHH 111500Z AUTO 14002KT 11SM 26/23 A2971 RMK SLP060 T02600229 52009 IEM_DS3505
ZHHH,2001-06-11 16:00,ZHHH 111600Z AUTO 15004KT 6SM 25/23 A2968 RMK SLP052 T02500230 IEM_DS3505
ZHHH,2001-06-11 17:00,ZHHH 111700Z AUTO 6SM 25/23 A2968 RMK SLP052 T02500230 IEM_DS3505
ZHHH,2001-06-11 18:00,ZHHH 111800Z AUTO 11002KT 9SM 25/23 A2965 RMK SLP042 T02480233 57018 IEM_DS3505
ZHHH,2001-06-11 19:00,ZHHH 111900Z AUTO 6SM 24/23 A2965 RMK SLP043 T02400230 IEM_DS3505
ZHHH,2001-06-11 20:00,ZHHH 112000Z AUTO 6SM 24/23 A2965 RMK SLP043 T02400230 IEM_DS3505
ZHHH,2001-06-11 21:00,ZHHH 112100Z AUTO 00000KT 11SM 24/23 A2965 RMK SLP042 T02420231 54000 IEM_DS3505
ZHHH,2001-06-11 22:00,ZHHH 112200Z AUTO 6SM 24/23 A2965 RMK SLP043 T02400230 IEM_DS3505
ZHHH,2001-06-11 23:00,ZHHH 112300Z AUTO 12SM 24/23 A2965 RMK SLP043 T02400230 IEM_DS3505
ZHHH,2001-06-12 00:00,ZHHH 120000Z AUTO 11002KT 11SM 26/24 A2965 RMK SLP044 T02620235 52002 IEM_DS3505
ZHHH,2001-06-12 01:00,ZHHH 120100Z AUTO 13006KT 26/23 A2965 RMK SLP042 T02600230 IEM_DS3505
ZHHH,2001-06-12 02:00,ZHHH 120200Z AUTO 6SM 27/24 A2965 RMK SLP042 T02700240 IEM_DS3505
ZHHH,2001-06-12 03:00,ZHHH 120300Z AUTO 25002KT 11SM 29/23 A2965 RMK SLP036 T02900230 57008 IEM_DS3505
ZHHH,2001-06-12 04:00,ZHHH 120400Z AUTO 1 1/4SM 28/23 A2962 RMK SLP032 T02800230 IEM_DS3505
ZHHH,2001-06-12 05:00,ZHHH 120500Z AUTO 10SM 25/23 A2962 RMK SLP032 T02500230 IEM_DS3505
ZHHH,2001-06-12 06:00,ZHHH 120600Z AUTO 34006KT 6SM 25/24 A2960 RMK 60001 SLP027 T02530235 57009 IEM_DS3505
ZHHH,2001-06-12 07:00,ZHHH 120700Z AUTO 35016KT 6SM RMK IEM_DS3505
ZHHH,2001-06-12 08:00,ZHHH 120800Z AUTO 35012KT 6SM 24/22 A2959 RMK SLP021 T02400220 IEM_DS3505
ZHHH,2001-06-12 09:00,ZHHH 120900Z AUTO 34004KT 7SM 25/22 A2959 RMK SLP024 T02460221 57003 IEM_DS3505
ZHHH,2001-06-12 10:00,ZHHH 121000Z AUTO 35006KT 6SM 23/21 A2962 RMK SLP033 T02300210 IEM_DS3505
ZHHH,2001-06-12 11:00,ZHHH 121100Z AUTO 34008KT 6SM 22/21 A2962 RMK SLP033 T02200210 IEM_DS3505
ZHHH,2001-06-12 12:00,ZHHH 121200Z AUTO 27002KT 6SM 22/21 A2965 RMK 60002 SLP036 T02240206 52012 IEM_DS3505
ZHHH,2001-06-12 13:00,ZHHH 121300Z AUTO 6SM 22/21 A2962 RMK SLP033 T02200210 IEM_DS3505
ZHHH,2001-06-12 14:00,ZHHH 121400Z AUTO 35006KT 6SM 22/21 A2965 RMK SLP043 T02200210 IEM_DS3505
ZHHH,2001-06-12 15:00,ZHHH 121500Z AUTO 29002KT 6SM 22/20 A2965 RMK SLP042 T02220203 52006 IEM_DS3505
ZHHH,2001-06-12 16:00,ZHHH 121600Z AUTO 34008KT 21/20 A2965 RMK SLP043 T02100200 IEM_DS3505
ZHHH,2001-06-12 17:00,ZHHH 121700Z AUTO 34008KT 21/20 A2965 RMK SLP043 T02100200 IEM_DS3505
ZHHH,2001-06-12 18:00,ZHHH 121800Z AUTO 29002KT 7SM 22/20 A2962 RMK 60003 SLP034 T02150197 57008 IEM_DS3505
ZHHH,2001-06-12 19:00,ZHHH 121900Z AUTO 36008KT 20/19 A2962 RMK SLP033 T02000190 IEM_DS3505
ZHHH,2001-06-12 20:00,ZHHH 122000Z AUTO 36006KT 6SM 20/19 A2959 RMK SLP022 T02000190 IEM_DS3505
ZHHH,2001-06-12 21:00,ZHHH 122100Z AUTO 00000KT 9SM 21/19 A2962 RMK 70003 SLP028 T02080192 57006 IEM_DS3505
ZHHH,2001-06-12 22:00,ZHHH 122200Z AUTO 6SM 20/19 A2962 RMK SLP033 T02000190 IEM_DS3505
ZHHH,2001-06-12 23:00,ZHHH 122300Z AUTO 01006KT 20/19 A2962 RMK SLP033 T02000190 IEM_DS3505
ZHHH,2001-06-13 00:00,ZHHH 130000Z AUTO 02002KT 11SM 22/19 A2962 RMK 70003 SLP036 T02200191 52008 IEM_DS3505
ZHHH,2001-06-13 01:00,ZHHH 130100Z AUTO 02006KT 6SM 23/19 A2965 RMK SLP043 T02300190 IEM_DS3505
ZHHH,2001-06-13 02:00,ZHHH 130200Z AUTO 28004KT 6SM 23/20 A2965 RMK SLP043 T02300200 IEM_DS3505
ZHHH,2001-06-13 03:00,ZHHH 130300Z AUTO 27004KT 11SM 25/19 A2962 RMK SLP034 T02490188 57002 IEM_DS3505
ZHHH,2001-06-13 04:00,ZHHH 130400Z AUTO 26/20 A2962 RMK SLP032 T02600200 IEM_DS3505
ZHHH,2001-06-13 05:00,ZHHH 130500Z AUTO 16SM 27/20 A2959 RMK SLP021 T02700200 IEM_DS3505
ZHHH,2001-06-13 06:00,ZHHH 130600Z AUTO 04004KT 12SM 27/19 A2959 RMK SLP017 T02740188 57017 IEM_DS3505
ZHHH,2001-06-13 07:00,ZHHH 130700Z AUTO 6SM 28/18 A2956 RMK SLP011 T02800180 IEM_DS3505
ZHHH,2001-06-13 08:00,ZHHH 130800Z AUTO 28006KT 6SM 27/20 A2956 RMK SLP011 T02700200 IEM_DS3505
ZHHH,2001-06-13 09:00,ZHHH 130900Z AUTO 29006KT 12SM 28/20 A2956 RMK SLP009 T02770198 57008 IEM_DS3505
ZHHH,2001-06-13 10:00,ZHHH 131000Z AUTO 30008KT 6SM 27/21 A2956 RMK SLP011 T02700210 IEM_DS3505
ZHHH,2001-06-13 11:00,ZHHH 131100Z AUTO 29006KT 6SM 26/21 A2956 RMK SLP011 T02600210 IEM_DS3505
ZHHH,2001-06-13 12:00,ZHHH 131200Z AUTO 27002KT 9SM 26/20 A2959 RMK SLP017 T02580199 52008 IEM_DS3505
ZHHH,2001-06-13 13:00,ZHHH 131300Z AUTO 6SM 25/21 A2959 RMK SLP021 T02500210 IEM_DS3505
ZHHH,2001-06-13 14:00,ZHHH 131400Z AUTO 28002KT 25/22 A2959 RMK SLP021 T02500220 IEM_DS3505
ZHHH,2001-06-13 15:00,ZHHH 131500Z AUTO 00000KT 9SM 24/21 A2962 RMK SLP024 T02450212 52007 IEM_DS3505
ZHHH,2001-06-13 16:00,ZHHH 131600Z AUTO 6SM 24/22 A2962 RMK SLP033 T02400220 IEM_DS3505
ZHHH,2001-06-13 17:00,ZHHH 131700Z AUTO 10006KT 6SM 23/21 A2959 RMK SLP022 T02300210 IEM_DS3505
ZHHH,2001-06-13 18:00,ZHHH 131800Z AUTO 00000KT 9SM 24/21 A2959 RMK SLP020 T02360212 57004 IEM_DS3505
ZHHH,2001-06-13 19:00,ZHHH 131900Z AUTO 10006KT 6SM 22/20 A2959 RMK SLP022 T02200200 IEM_DS3505
ZHHH,2001-06-13 20:00,ZHHH 132000Z AUTO 10006KT 0SM 22/20 A2959 RMK SLP022 T02200200 IEM_DS3505
ZHHH,2001-06-13 21:00,ZHHH 132100Z AUTO 11002KT 9SM 23/22 A2962 RMK SLP024 T02310216 52004 IEM_DS3505
ZHHH,2001-06-13 22:00,ZHHH 132200Z AUTO 10006KT 6SM 21/21 A2962 RMK SLP033 T02100210 IEM_DS3505
ZHHH,2001-06-13 23:00,ZHHH 132300Z AUTO 12006KT 21/21 A2962 RMK SLP033 T02100210 IEM_DS3505
ZHHH,2001-06-14 00:00,ZHHH 140000Z AUTO 11002KT 9SM 24/22 A2962 RMK SLP035 T02430217 52011 IEM_DS3505
ZHHH,2001-06-14 01:00,ZHHH 140100Z AUTO 13006KT 6SM 24/22 A2965 RMK SLP043 T02400220 IEM_DS3505
ZHHH,2001-06-14 02:00,ZHHH 140200Z AUTO 12006KT 6SM 26/23 A2965 RMK SLP042 T02600230 IEM_DS3505
ZHHH,2001-06-14 03:00,ZHHH 140300Z AUTO 22002KT 9SM 28/22 A2965 RMK SLP038 T02840223 52003 IEM_DS3505
ZHHH,2001-06-14 04:00,ZHHH 140400Z AUTO 28/22 A2962 RMK SLP032 T02800220 IEM_DS3505
ZHHH,2001-06-14 05:00,ZHHH 140500Z AUTO 28/22 A2962 RMK SLP032 T02800220 IEM_DS3505
ZHHH,2001-06-14 06:00,ZHHH 140600Z AUTO 11006KT 11SM 30/21 A2959 RMK SLP024 T02970213 57014 IEM_DS3505
ZHHH,2001-06-14 07:00,ZHHH 140700Z AUTO 13008KT 29/22 A2959 RMK SLP021 T02900220 IEM_DS3505
ZHHH,2001-06-14 08:00,ZHHH 140800Z AUTO 13010KT 6SM 29/23 A2959 RMK SLP021 T02900230 IEM_DS3505
ZHHH,2001-06-14 09:00,ZHHH 140900Z AUTO 14004KT 11SM 30/21 A2959 RMK SLP017 T03020214 57007 IEM_DS3505
ZHHH,2001-06-14 10:00,ZHHH 141000Z AUTO 15006KT 6SM 29/23 A2959 RMK SLP021 T02900230 IEM_DS3505
ZHHH,2001-06-14 11:00,ZHHH 141100Z AUTO 14SM 28/21 A2962 RMK SLP032 T02800210 IEM_DS3505
ZHHH,2001-06-14 12:00,ZHHH 141200Z AUTO 14002KT 12SM 28/21 A2962 RMK SLP031 T02780206 52014 IEM_DS3505
ZHHH,2001-06-14 13:00,ZHHH 141300Z AUTO 15006KT 6SM 26/22 A2962 RMK SLP032 T02600220 IEM_DS3505
ZHHH,2001-06-14 14:00,ZHHH 141400Z AUTO 14006KT 26/22 A2965 RMK SLP042 T02600220 IEM_DS3505
ZHHH,2001-06-14 15:00,ZHHH 141500Z AUTO 14004KT 11SM 26/22 A2965 RMK SLP036 T02640216 52005 IEM_DS3505
ZHHH,2001-06-14 16:00,ZHHH 141600Z AUTO 12006KT 6SM 24/22 A2965 RMK SLP043 T02400220 IEM_DS3505
ZHHH,2001-06-14 17:00,ZHHH 141700Z AUTO 14008KT 10SM 24/22 A2962 RMK SLP033 T02400220 IEM_DS3505
ZHHH,2001-06-14 18:00,ZHHH 141800Z AUTO 14004KT 9SM 25/21 A2962 RMK SLP025 T02480211 57011 IEM_DS3505
ZHHH,2001-06-14 19:00,ZHHH 141900Z AUTO 14006KT 6SM 23/21 A2959 RMK SLP022 T02300210 IEM_DS3505
ZHHH,2001-06-14 20:00,ZHHH 142000Z AUTO 14006KT 22/22 A2962 RMK SLP033 T02200220 IEM_DS3505
ZHHH,2001-06-14 21:00,ZHHH 142100Z AUTO 11002KT 9SM 24/22 A2962 RMK SLP026 T02380216 52001 IEM_DS3505
ZHHH,2001-06-14 22:00,ZHHH 142200Z AUTO 14010G19KT 6SM 23/22 A2962 RMK SLP033 T02300220 IEM_DS3505
ZHHH,2001-06-14 23:00,ZHHH 142300Z AUTO 14012G21KT 6SM 24/22 A2962 RMK SLP033 T02400220 IEM_DS3505
ZHHH,2001-06-15 00:00,ZHHH 150000Z AUTO 11004KT 12SM 26/22 A2962 RMK SLP035 T02590220 52009 IEM_DS3505
ZHHH,2001-06-15 01:00,ZHHH 150100Z AUTO 15012KT 6SM 26/22 A2962 RMK SLP032 T02600220 IEM_DS3505
ZHHH,2001-06-15 02:00,ZHHH 150200Z AUTO 15010KT 6SM 27/22 A2962 RMK SLP032 T02700220 IEM_DS3505
ZHHH,2001-06-15 03:00,ZHHH 150300Z AUTO 14006G19KT 12SM 29/22 A2962 RMK SLP031 T02930222 57004 IEM_DS3505
ZHHH,2001-06-15 04:00,ZHHH 150400Z AUTO 15012KT 6SM 30/22 A2959 RMK SLP021 T03000220 IEM_DS3505
ZHHH,2001-06-15 05:00,ZHHH 150500Z AUTO 18010KT 6SM 32/21 A2959 RMK SLP021 T03200210 IEM_DS3505
ZHHH,2001-06-15 06:00,ZHHH 150600Z AUTO 22004KT 16SM 33/19 A2956 RMK SLP012 T03300187 57018 IEM_DS3505
ZHHH,2001-06-15 07:00,ZHHH 150700Z AUTO 19010KT 6SM 33/22 A2956 RMK SLP011 T03300220 IEM_DS3505
ZHHH,2001-06-15 08:00,ZHHH 150800Z AUTO 18010KT 6SM 33/23 A2953 RMK SLP001 T03300230 IEM_DS3505
ZHHH,2001-06-15 09:00,ZHHH 150900Z AUTO 11004KT 16SM 34/20 A2953 RMK SLP995 T03380198 57017 IEM_DS3505
ZHHH,2001-06-15 10:00,ZHHH 151000Z AUTO 14008KT 6SM 32/23 A2953 RMK SLP001 T03200230 IEM_DS3505
ZHHH,2001-06-15 11:00,ZHHH 151100Z AUTO 13008KT 6SM 30/25 A2953 RMK SLP001 T03000250 IEM_DS3505
ZHHH,2001-06-15 12:00,ZHHH 151200Z AUTO 11006KT 11SM 31/23 A2956 RMK SLP005 T03080230 52010 IEM_DS3505
ZHHH,2001-06-15 14:00,ZHHH 151400Z AUTO 12010KT 6SM 27/25 A2956 RMK SLP011 T02700250 IEM_DS3505
ZHHH,2001-06-15 15:00,ZHHH 151500Z AUTO 11004KT 9SM 29/23 A2956 RMK SLP012 T02870230 52007 IEM_DS3505
ZHHH,2001-06-15 16:00,ZHHH 151600Z AUTO 13010KT 6SM 26/24 A2956 RMK SLP011 T02600240 IEM_DS3505
ZHHH,2001-06-15 17:00,ZHHH 151700Z AUTO 14008KT 6SM 26/24 A2956 RMK SLP011 T02600240 IEM_DS3505
ZHHH,2001-06-15 18:00,ZHHH 151800Z AUTO 14004KT 9SM 27/23 A2956 RMK SLP006 T02660231 57006 IEM_DS3505
ZHHH,2001-06-15 19:00,ZHHH 151900Z AUTO 13006KT 6SM 24/23 A2956 RMK SLP011 T02400230 IEM_DS3505
ZHHH,2001-06-15 20:00,ZHHH 152000Z AUTO 13008KT 6SM 24/23 A2956 RMK SLP011 T02400230 IEM_DS3505
ZHHH,2001-06-15 21:00,ZHHH 152100Z AUTO 11004KT 9SM 26/22 A2956 RMK SLP011 T02580223 52005 IEM_DS3505
ZHHH,2001-06-15 22:00,ZHHH 152200Z AUTO 12008KT 15SM 23/22 A2959 RMK SLP022 T02300220 IEM_DS3505
ZHHH,2001-06-15 23:00,ZHHH 152300Z AUTO 13008KT 24/23 A2959 RMK SLP021 T02400230 IEM_DS3505
ZHHH,2001-06-16 00:00,ZHHH 160000Z AUTO 14004KT 12SM 28/22 A2959 RMK SLP022 T02790221 52011 IEM_DS3505
ZHHH,2001-06-16 01:00,ZHHH 160100Z AUTO 14010KT 6SM 28/23 A2959 RMK SLP021 T02800230 IEM_DS3505
ZHHH,2001-06-16 02:00,ZHHH 160200Z AUTO 14008KT 6SM 29/23 A2959 RMK SLP021 T02900230 IEM_DS3505
ZHHH,2001-06-16 03:00,ZHHH 160300Z AUTO 16006KT 12SM 32/21 A2959 RMK SLP020 T03170212 57002 IEM_DS3505
ZHHH,2001-06-16 04:00,ZHHH 160400Z AUTO 23012KT 6SM 32/21 A2959 RMK SLP021 T03200210 IEM_DS3505
ZHHH,2001-06-16 05:00,ZHHH 160500Z AUTO 24008KT 33/23 A2959 RMK SLP021 T03300230 IEM_DS3505
ZHHH,2001-06-16 06:00,ZHHH 160600Z AUTO 26008KT 6SM 33/22 A2956 RMK SLP011 T03300220 IEM_DS3505
ZHHH,2001-06-16 07:00,ZHHH 160700Z AUTO 23006KT 6SM RMK IEM_DS3505
ZHHH,2001-06-16 08:00,ZHHH 160800Z AUTO 21006KT 6SM 33/21 A2956 RMK SLP011 T03300210 IEM_DS3505
ZHHH,2001-06-16 09:00,ZHHH 160900Z AUTO 27002KT 12SM 33/21 A2953 RMK SLP004 T03310214 57007 IEM_DS3505
ZHHH,2001-06-16 10:00,ZHHH 161000Z AUTO 6SM 32/23 A2956 RMK SLP011 T03200230 IEM_DS3505
ZHHH,2001-06-16 11:00,ZHHH 161100Z AUTO 6SM 31/24 A2956 RMK SLP011 T03100240 IEM_DS3505
ZHHH,2001-06-16 12:00,ZHHH 161200Z AUTO 00000KT 12SM 30/22 A2956 RMK SLP012 T03040221 52008 IEM_DS3505
ZHHH,2001-06-16 13:00,ZHHH 161300Z AUTO 6SM 29/24 A2959 RMK SLP021 T02900240 IEM_DS3505
ZHHH,2001-06-16 14:00,ZHHH 161400Z AUTO 11006KT 6SM 29/24 A2959 RMK SLP021 T02900240 IEM_DS3505
ZHHH,2001-06-16 15:00,ZHHH 161500Z AUTO 00000KT 11SM 29/24 A2959 RMK SLP021 T02900239 52009 IEM_DS3505
ZHHH,2001-06-16 16:00,ZHHH 161600Z AUTO 6SM 28/25 A2959 RMK SLP021 T02800250 IEM_DS3505
ZHHH,2001-06-16 17:00,ZHHH 161700Z AUTO 11006KT 6SM 27/25 A2959 RMK SLP021 T02700250 IEM_DS3505
ZHHH,2001-06-16 18:00,ZHHH 161800Z AUTO 09004KT 9SM 28/25 A2956 RMK SLP011 T02760254 57010 IEM_DS3505
ZHHH,2001-06-16 19:00,ZHHH 161900Z AUTO 09008KT 26/24 A2956 RMK SLP011 T02600240 IEM_DS3505
ZHHH,2001-06-16 20:00,ZHHH 162000Z AUTO 09008KT 12SM 26/24 A2956 RMK SLP011 T02600240 IEM_DS3505
ZHHH,2001-06-16 21:00,ZHHH 162100Z AUTO 09004KT 9SM 27/25 A2956 RMK SLP011 T02710248 54000 IEM_DS3505
ZHHH,2001-06-16 22:00,ZHHH 162200Z AUTO 14006KT 2 1/2SM 26/25 A2959 RMK SLP021 T02600250 IEM_DS3505
ZHHH,2001-06-16 23:00,ZHHH 162300Z AUTO 17004KT 6SM 27/25 A2959 RMK SLP021 T02700250 IEM_DS3505
ZHHH,2001-06-17 00:00,ZHHH 170000Z AUTO 18002KT 7SM 29/26 A2959 RMK SLP022 T02930257 52011 IEM_DS3505
ZHHH,2001-06-17 01:00,ZHHH 170100Z AUTO 6SM 28/26 A2962 RMK SLP032 T02800260 IEM_DS3505
ZHHH,2001-06-17 02:00,ZHHH 170200Z AUTO 31/26 A2962 RMK SLP032 T03100260 IEM_DS3505
ZHHH,2001-06-17 03:00,ZHHH 170300Z AUTO 25004KT 11SM 33/24 A2962 RMK SLP026 T03300238 52004 IEM_DS3505
ZHHH,2001-06-17 04:00,ZHHH 170400Z AUTO 23010KT 7SM RMK IEM_DS3505
ZHHH,2001-06-17 05:00,ZHHH 170500Z AUTO 23012KT RMK IEM_DS3505
ZHHH,2001-06-17 06:00,ZHHH 170600Z AUTO 25004KT 11SM 33/24 A2959 RMK SLP013 T03330244 57013 IEM_DS3505
ZHHH,2001-06-17 07:00,ZHHH 170700Z AUTO 25008KT 10SM 33/25 A2956 RMK SLP011 T03300250 IEM_DS3505
ZHHH,2001-06-17 08:00,ZHHH 170800Z AUTO 26010KT 6SM 33/25 A2953 RMK SLP001 T03300250 IEM_DS3505
ZHHH,2001-06-17 09:00,ZHHH 170900Z AUTO 27004KT 14SM 34/23 A2953 RMK SLP000 T03370231 57013 IEM_DS3505
ZHHH,2001-06-17 10:00,ZHHH 171000Z AUTO 23006KT 6SM 32/25 A2953 RMK SLP001 T03200250 IEM_DS3505
ZHHH,2001-06-17 11:00,ZHHH 171100Z AUTO 24006KT 6SM 32/23 A2953 RMK SLP001 T03200230 IEM_DS3505
ZHHH,2001-06-17 12:00,ZHHH 171200Z AUTO 00000KT 12SM 31/23 A2956 RMK SLP008 T03100231 52008 IEM_DS3505
ZHHH,2001-06-17 13:00,ZHHH 171300Z AUTO 6SM 30/25 A2956 RMK SLP011 T03000250 IEM_DS3505
ZHHH,2001-06-17 14:00,ZHHH 171400Z AUTO 15004KT 6SM 29/24 A2959 RMK SLP021 T02900240 IEM_DS3505
ZHHH,2001-06-17 15:00,ZHHH 171500Z AUTO 14002KT 12SM 30/25 A2959 RMK SLP015 T02980251 52007 IEM_DS3505
ZHHH,2001-06-17 16:00,ZHHH 171600Z AUTO 16006KT 6SM 28/26 A2956 RMK SLP011 T02800260 IEM_DS3505
ZHHH,2001-06-17 18:00,ZHHH 171800Z AUTO 27006KT 9SM 28/24 A2953 RMK SLP998 T02840242 57017 IEM_DS3505
ZHHH,2001-06-17 19:00,ZHHH 171900Z AUTO 35008KT RMK IEM_DS3505
ZHHH,2001-06-17 20:00,ZHHH 172000Z AUTO 24/23 A2953 RMK SLP001 T02400230 IEM_DS3505
ZHHH,2001-06-17 21:00,ZHHH 172100Z AUTO 18002KT 5SM 25/24 A2956 RMK 70005 SLP004 T02530235 52006 IEM_DS3505
ZHHH,2001-06-17 22:00,ZHHH 172200Z AUTO 06006KT 6SM RMK IEM_DS3505
ZHHH,2001-06-17 23:00,ZHHH 172300Z AUTO 6SM 23/23 A2956 RMK SLP012 T02300230 IEM_DS3505
ZHHH,2001-06-18 00:00,ZHHH 180000Z AUTO 09002KT 5SM 24/24 A2956 RMK 60130 SLP007 T02410241 52003 IEM_DS3505
ZHHH,2001-06-18 01:00,ZHHH 180100Z AUTO 15006KT 6SM 24/24 A2956 RMK SLP011 T02400240 IEM_DS3505
ZHHH,2001-06-18 02:00,ZHHH 180200Z AUTO 16004KT 6SM 23/23 A2956 RMK SLP012 T02300230 IEM_DS3505
ZHHH,2001-06-18 03:00,ZHHH 180300Z AUTO 22004KT 6SM 25/25 A2957 RMK SLP013 T02470246 52005 IEM_DS3505
ZHHH,2001-06-18 04:00,ZHHH 180400Z AUTO 24006KT 6SM 25/25 A2956 RMK SLP011 T02500250 IEM_DS3505
ZHHH,2001-06-18 06:00,ZHHH 180600Z AUTO 00000KT 6SM 26/25 A2953 RMK 60213 SLP002 T02600247 57011 IEM_DS3505
ZHHH,2001-06-18 07:00,ZHHH 180700Z AUTO 35006KT 11SM 24/24 A2953 RMK SLP001 T02400240 IEM_DS3505
ZHHH,2001-06-18 08:00,ZHHH 180800Z AUTO 04008KT 24/24 A2953 RMK SLP001 T02400240 IEM_DS3505
ZHHH,2001-06-18 09:00,ZHHH 180900Z AUTO 36004KT 6SM 25/24 A2953 RMK SLP995 T02500242 57007 IEM_DS3505
ZHHH,2001-06-18 10:00,ZHHH 181000Z AUTO 04006KT 6SM RMK IEM_DS3505
ZHHH,2001-06-18 11:00,ZHHH 181100Z AUTO 2 1/2SM 25/23 A2953 RMK SLP001 T02500230 IEM_DS3505
ZHHH,2001-06-18 12:00,ZHHH 181200Z AUTO 04004KT 7SM 26/23 A2956 RMK 60000 SLP005 T02550232 52010 IEM_DS3505
ZHHH,2001-06-18 13:00,ZHHH 181300Z AUTO 04004KT RMK IEM_DS3505
ZHHH,2001-06-18 14:00,ZHHH 181400Z AUTO 07006KT RMK IEM_DS3505
ZHHH,2001-06-18 15:00,ZHHH 181500Z AUTO 04002KT 8SM 25/23 A2959 RMK SLP017 T02460234 52012 IEM_DS3505
ZHHH,2001-06-18 16:00,ZHHH 181600Z AUTO 04004KT 6SM 23/22 A2956 RMK SLP012 T02300220 IEM_DS3505
ZHHH,2001-06-18 17:00,ZHHH 181700Z AUTO 04004KT 23/22 A2956 RMK SLP012 T02300220 IEM_DS3505
ZHHH,2001-06-18 18:00,ZHHH 181800Z AUTO 04002KT 11SM 24/22 A2955 RMK SLP008 T02370225 57009 IEM_DS3505
ZHHH,2001-06-18 19:00,ZHHH 181900Z AUTO 6SM 22/22 A2953 RMK SLP002 T02200220 IEM_DS3505
ZHHH,2001-06-18 20:00,ZHHH 182000Z AUTO 36002KT 6SM 22/22 A2953 RMK SLP002 T02200220 IEM_DS3505
ZHHH,2001-06-18 21:00,ZHHH 182100Z AUTO 34002KT 11SM 23/22 A2953 RMK 70338 SLP003 T02320225 57005 IEM_DS3505
ZHHH,2001-06-18 22:00,ZHHH 182200Z AUTO 02004KT 22/22 A2956 RMK SLP012 T02200220 IEM_DS3505
ZHHH,2001-06-18 23:00,ZHHH 182300Z AUTO 6SM 23/22 A2956 RMK SLP012 T02300220 IEM_DS3505
ZHHH,2001-06-19 00:00,ZHHH 190000Z AUTO 02004KT 11SM 25/22 A2959 RMK 70213 SLP018 T02470224 52015 IEM_DS3505
ZHHH,2001-06-19 01:00,ZHHH 190100Z AUTO 6SM 25/23 A2959 RMK SLP021 T02500230 IEM_DS3505
ZHHH,2001-06-19 02:00,ZHHH 190200Z AUTO 08008KT 6SM 26/23 A2959 RMK SLP021 T02600230 IEM_DS3505
ZHHH,2001-06-19 03:00,ZHHH 190300Z AUTO 04004KT 12SM 28/24 A2959 RMK SLP016 T02790235 57002 IEM_DS3505
ZHHH,2001-06-19 04:00,ZHHH 190400Z AUTO 12006KT 6SM RMK IEM_DS3505
ZHHH,2001-06-19 05:00,ZHHH 190500Z AUTO 6SM RMK IEM_DS3505
ZHHH,2001-06-19 06:00,ZHHH 190600Z AUTO 09004KT 12SM 29/24 A2956 RMK SLP009 T02940239 57007 IEM_DS3505
ZHHH,2001-06-19 07:00,ZHHH 190700Z AUTO 6SM RMK IEM_DS3505
ZHHH,2001-06-19 08:00,ZHHH 190800Z AUTO 10006KT RMK IEM_DS3505
ZHHH,2001-06-19 09:00,ZHHH 190900Z AUTO 00000KT 12SM 30/24 A2953 RMK SLP998 T03040236 57011 IEM_DS3505
ZHHH,2001-06-19 10:00,ZHHH 191000Z AUTO 6SM 29/24 A2953 RMK SLP001 T02900240 IEM_DS3505
ZHHH,2001-06-19 11:00,ZHHH 191100Z AUTO 10002KT 6SM 29/25 A2953 RMK SLP001 T02900250 IEM_DS3505
ZHHH,2001-06-19 12:00,ZHHH 191200Z AUTO 00000KT 6SM 29/25 A2956 RMK SLP009 T02860247 52011 IEM_DS3505
ZHHH,2001-06-19 13:00,ZHHH 191300Z AUTO 04004KT 28/25 A2956 RMK SLP011 T02800250 IEM_DS3505
ZHHH,2001-06-19 14:00,ZHHH 191400Z AUTO 07006KT 6SM 27/25 A2959 RMK SLP021 T02700250 IEM_DS3505
ZHHH,2001-06-19 15:00,ZHHH 191500Z AUTO 11002KT 7SM 28/25 A2959 RMK SLP022 T02800251 52014 IEM_DS3505
ZHHH,2001-06-19 16:00,ZHHH 191600Z AUTO 6SM 27/25 A2959 RMK SLP021 T02700250 IEM_DS3505
ZHHH,2001-06-19 17:00,ZHHH 191700Z AUTO 27/25 A2959 RMK SLP021 T02700250 IEM_DS3505
ZHHH,2001-06-19 18:00,ZHHH 191800Z AUTO 00000KT 9SM 27/26 A2959 RMK SLP019 T02710257 57003 IEM_DS3505
ZHHH,2001-06-19 19:00,ZHHH 191900Z AUTO 26/25 A2959 RMK SLP021 T02600250 IEM_DS3505
ZHHH,2001-06-19 20:00,ZHHH 192000Z AUTO 26/25 A2959 RMK SLP021 T02600250 IEM_DS3505
ZHHH,2001-06-19 21:00,ZHHH 192100Z AUTO 00000KT 9SM 26/25 A2959 RMK SLP020 T02650254 52001 IEM_DS3505
ZHHH,2001-06-19 22:00,ZHHH 192200Z AUTO 6SM 26/25 A2959 RMK SLP021 T02600250 IEM_DS3505
ZHHH,2001-06-19 23:00,ZHHH 192300Z AUTO 26/25 A2959 RMK SLP021 T02600250 IEM_DS3505
ZHHH,2001-06-20 00:00,ZHHH 200000Z AUTO 00000KT 9SM 28/24 A2962 RMK SLP026 T02760245 52006 IEM_DS3505
ZHHH,2001-06-20 01:00,ZHHH 200100Z AUTO 6SM 27/25 A2962 RMK SLP032 T02700250 IEM_DS3505
ZHHH,2001-06-20 02:00,ZHHH 200200Z AUTO 6SM RMK IEM_DS3505
ZHHH,2001-06-20 03:00,ZHHH 200300Z AUTO 00000KT 11SM 30/25 A2962 RMK SLP030 T03000248 52004 IEM_DS3505
ZHHH,2001-06-20 04:00,ZHHH 200400Z AUTO 12006KT 6SM 29/25 A2962 RMK SLP032 T02900250 IEM_DS3505
ZHHH,2001-06-20 05:00,ZHHH 200500Z AUTO 6SM 29/25 A2962 RMK SLP032 T02900250 IEM_DS3505
ZHHH,2001-06-20 06:00,ZHHH 200600Z AUTO 09004KT 11SM 30/25 A2962 RMK SLP024 T03050249 57006 IEM_DS3505
ZHHH,2001-06-20 07:00,ZHHH 200700Z AUTO 11006KT 15SM RMK IEM_DS3505
ZHHH,2001-06-20 08:00,ZHHH 200800Z AUTO 6SM 29/25 A2962 RMK SLP032 T02900250 IEM_DS3505
ZHHH,2001-06-20 09:00,ZHHH 200900Z AUTO 04004KT 11SM 29/24 A2959 RMK SLP022 T02940241 57002 IEM_DS3505
ZHHH,2001-06-20 10:00,ZHHH 201000Z AUTO 02004KT 6SM 29/25 A2962 RMK SLP032 T02900250 IEM_DS3505
ZHHH,2001-06-20 11:00,ZHHH 201100Z AUTO 04002KT 6SM 28/26 A2962 RMK SLP032 T02800260 IEM_DS3505
ZHHH,2001-06-20 12:00,ZHHH 201200Z AUTO 00000KT 7SM 28/25 A2962 RMK 60003 SLP034 T02840254 52011 IEM_DS3505
ZHHH,2001-06-20 13:00,ZHHH 201300Z AUTO 6SM 28/25 A2965 RMK SLP042 T02800250 IEM_DS3505
ZHHH,2001-06-20 14:00,ZHHH 201400Z AUTO 6SM 27/25 A2968 RMK SLP052 T02700250 IEM_DS3505
ZHHH,2001-06-20 15:00,ZHHH 201500Z AUTO 00000KT 7SM 28/25 A2968 RMK SLP050 T02800252 52017 IEM_DS3505
ZHHH,2001-06-20 16:00,ZHHH 201600Z AUTO 26/25 A2968 RMK SLP052 T02600250 IEM_DS3505
ZHHH,2001-06-20 17:00,ZHHH 201700Z AUTO 26/24 A2968 RMK SLP052 T02600240 IEM_DS3505
ZHHH,2001-06-20 18:00,ZHHH 201800Z AUTO 36004KT 6SM 26/25 A2968 RMK 60000 SLP043 T02650252 57007 IEM_DS3505
ZHHH,2001-06-20 19:00,ZHHH 201900Z AUTO 02004KT 19SM 25/24 A2965 RMK SLP042 T02500240 IEM_DS3505
ZHHH,2001-06-20 20:00,ZHHH 202000Z AUTO 05004KT 6SM 25/23 A2965 RMK SLP042 T02500230 IEM_DS3505
ZHHH,2001-06-20 21:00,ZHHH 202100Z AUTO 00000KT 7SM 26/24 A2966 RMK 70001 SLP046 T02560239 52002 IEM_DS3505
ZHHH,2001-06-20 22:00,ZHHH 202200Z AUTO 6SM 25/23 A2968 RMK SLP052 T02500230 IEM_DS3505
ZHHH,2001-06-20 23:00,ZHHH 202300Z AUTO 6SM 25/23 A2968 RMK SLP052 T02500230 IEM_DS3505
ZHHH,2001-06-21 00:00,ZHHH 210000Z AUTO 00000KT 9SM 26/23 A2971 RMK 60003 SLP060 T02610226 52014 IEM_DS3505
ZHHH,2001-06-21 01:00,ZHHH 210100Z AUTO 6SM 26/23 A2971 RMK SLP062 T02600230 IEM_DS3505
ZHHH,2001-06-21 02:00,ZHHH 210200Z AUTO 6SM 26/23 A2971 RMK SLP062 T02600230 IEM_DS3505
ZHHH,2001-06-21 03:00,ZHHH 210300Z AUTO 27002KT 9SM 27/23 A2974 RMK SLP069 T02690229 52009 IEM_DS3505
ZHHH,2001-06-21 04:00,ZHHH 210400Z AUTO 10SM 27/23 A2974 RMK SLP072 T02700230 IEM_DS3505
ZHHH,2001-06-21 05:00,ZHHH 210500Z AUTO 6SM 27/23 A2974 RMK SLP072 T02700230 IEM_DS3505
ZHHH,2001-06-21 06:00,ZHHH 210600Z AUTO 36002KT 9SM 28/24 A2974 RMK 60003 SLP065 T02770236 57004 IEM_DS3505
ZHHH,2001-06-21 07:00,ZHHH 210700Z AUTO 04008KT 27/22 A2971 RMK SLP062 T02700220 IEM_DS3505
ZHHH,2001-06-21 08:00,ZHHH 210800Z AUTO 05008KT 6SM RMK IEM_DS3505
ZHHH,2001-06-21 09:00,ZHHH 210900Z AUTO 04004KT 9SM 27/19 A2971 RMK SLP060 T02700189 57005 IEM_DS3505
ZHHH,2001-06-21 11:00,ZHHH 211100Z AUTO 6SM 26/22 A2971 RMK SLP062 T02600220 IEM_DS3505
ZHHH,2001-06-21 12:00,ZHHH 211200Z AUTO 00000KT 6SM 26/22 A2971 RMK 60003 SLP060 T02590219 54000 IEM_DS3505
ZHHH,2001-06-21 13:00,ZHHH 211300Z AUTO 25/22 A2971 RMK SLP063 T02500220 IEM_DS3505
ZHHH,2001-06-21 14:00,ZHHH 211400Z AUTO 6SM 25/22 A2974 RMK SLP073 T02500220 IEM_DS3505
ZHHH,2001-06-21 15:00,ZHHH 211500Z AUTO 00000KT 6SM 25/22 A2974 RMK SLP074 T02530220 52014 IEM_DS3505
ZHHH,2001-06-21 16:00,ZHHH 211600Z AUTO 11004KT 24/21 A2974 RMK SLP073 T02400210 IEM_DS3505
ZHHH,2001-06-21 17:00,ZHHH 211700Z AUTO 6SM 24/21 A2974 RMK SLP073 T02400210 IEM_DS3505
ZHHH,2001-06-21 18:00,ZHHH 211800Z AUTO 00000KT 6SM 24/22 A2974 RMK 60002 SLP072 T02420216 57002 IEM_DS3505
ZHHH,2001-06-21 19:00,ZHHH 211900Z AUTO 6SM 23/21 A2971 RMK SLP063 T02300210 IEM_DS3505
ZHHH,2001-06-21 20:00,ZHHH 212000Z AUTO 6SM 23/22 A2974 RMK SLP073 T02300220 IEM_DS3505
ZHHH,2001-06-21 21:00,ZHHH 212100Z AUTO 16002KT 6SM 24/23 A2974 RMK 70002 SLP065 T02430228 57007 IEM_DS3505
ZHHH,2001-06-21 22:00,ZHHH 212200Z AUTO 6SM 23/21 A2974 RMK SLP073 T02300210 IEM_DS3505
ZHHH,2001-06-21 23:00,ZHHH 212300Z AUTO 18006KT 23/21 A2974 RMK SLP073 T02300210 IEM_DS3505
ZHHH,2001-06-22 00:00,ZHHH 220000Z AUTO 20002KT 7SM 24/20 A2977 RMK 60004 SLP083 T02360205 52018 IEM_DS3505
ZHHH,2001-06-22 01:00,ZHHH 220100Z AUTO 8SM 23/22 A2977 RMK SLP083 T02300220 IEM_DS3505
ZHHH,2001-06-22 02:00,ZHHH 220200Z AUTO 14006KT 23/20 A2980 RMK SLP093 T02300200 IEM_DS3505
ZHHH,2001-06-22 03:00,ZHHH 220300Z AUTO 14002KT 6SM 23/21 A2979 RMK SLP089 T02340208 52006 IEM_DS3505
ZHHH,2001-06-22 04:00,ZHHH 220400Z AUTO 15006KT 6SM 24/21 A2980 RMK SLP093 T02400210 IEM_DS3505
ZHHH,2001-06-22 05:00,ZHHH 220500Z AUTO 6SM 24/19 A2977 RMK SLP083 T02400190 IEM_DS3505
ZHHH,2001-06-22 06:00,ZHHH 220600Z AUTO 14004KT 9SM 25/21 A2975 RMK 60008 SLP076 T02510207 57013 IEM_DS3505
ZHHH,2001-06-22 07:00,ZHHH 220700Z AUTO 11006KT 6SM RMK IEM_DS3505
ZHHH,2001-06-22 08:00,ZHHH 220800Z AUTO 13008KT 6SM 24/20 A2974 RMK SLP073 T02400200 IEM_DS3505
ZHHH,2001-06-22 09:00,ZHHH 220900Z AUTO 18002KT 7SM 24/21 A2971 RMK SLP064 T02410206 57012 IEM_DS3505
ZHHH,2001-06-22 10:00,ZHHH 221000Z AUTO 14006KT 6SM 24/21 A2971 RMK SLP063 T02400210 IEM_DS3505
ZHHH,2001-06-22 11:00,ZHHH 221100Z AUTO 14006KT 6SM 23/21 A2971 RMK SLP063 T02300210 IEM_DS3505
ZHHH,2001-06-22 12:00,ZHHH 221200Z AUTO 11002KT 7SM 24/21 A2974 RMK 60003 SLP068 T02360210 52004 IEM_DS3505
ZHHH,2001-06-22 13:00,ZHHH 221300Z AUTO 6SM 23/21 A2974 RMK SLP073 T02300210 IEM_DS3505
ZHHH,2001-06-22 14:00,ZHHH 221400Z AUTO 13004KT 6SM 23/21 A2977 RMK SLP083 T02300210 IEM_DS3505
ZHHH,2001-06-22 15:00,ZHHH 221500Z AUTO 18002KT 7SM 23/21 A2977 RMK SLP080 T02320213 52012 IEM_DS3505
ZHHH,2001-06-22 16:00,ZHHH 221600Z AUTO 12004KT 6SM 22/21 A2974 RMK SLP073 T02200210 IEM_DS3505
ZHHH,2001-06-22 17:00,ZHHH 221700Z AUTO 25SM 22/21 A2974 RMK SLP073 T02200210 IEM_DS3505
ZHHH,2001-06-22 18:00,ZHHH 221800Z AUTO 00000KT 7SM 23/22 A2974 RMK SLP066 T02270216 57014 IEM_DS3505
ZHHH,2001-06-22 19:00,ZHHH 221900Z AUTO 12006KT 22SM 21/21 A2971 RMK SLP063 T02100210 IEM_DS3505
ZHHH,2001-06-22 20:00,ZHHH 222000Z AUTO 6SM 21/21 A2971 RMK SLP063 T02100210 IEM_DS3505
ZHHH,2001-06-22 21:00,ZHHH 222100Z AUTO 00000KT 9SM 22/22 A2971 RMK 70012 SLP064 T02250218 57002 IEM_DS3505
ZHHH,2001-06-22 22:00,ZHHH 222200Z AUTO 6SM 21/20 A2974 RMK SLP073 T02100200 IEM_DS3505
ZHHH,2001-06-22 23:00,ZHHH 222300Z AUTO 31SM 22/21 A2974 RMK SLP073 T02200210 IEM_DS3505
ZHHH,2001-06-23 00:00,ZHHH 230000Z AUTO 09002KT 9SM 24/20 A2977 RMK 70007 SLP075 T02400200 52011 IEM_DS3505
ZHHH,2001-06-23 01:00,ZHHH 230100Z AUTO 11006KT 6SM RMK IEM_DS3505
ZHHH,2001-06-23 02:00,ZHHH 230200Z AUTO 6SM RMK IEM_DS3505
ZHHH,2001-06-23 03:00,ZHHH 230300Z AUTO 36004KT 9SM 26/20 A2974 RMK SLP074 T02600205 57001 IEM_DS3505
ZHHH,2001-06-23 04:00,ZHHH 230400Z AUTO 6SM 27/21 A2974 RMK SLP072 T02700210 IEM_DS3505
ZHHH,2001-06-23 06:00,ZHHH 230600Z AUTO 36004KT 7SM 28/21 A2970 RMK SLP059 T02820213 57015 IEM_DS3505
ZHHH,2001-06-23 07:00,ZHHH 230700Z AUTO 6SM 29/21 A2968 RMK SLP052 T02900210 IEM_DS3505
ZHHH,2001-06-23 08:00,ZHHH 230800Z AUTO 6SM 30/22 A2968 RMK SLP052 T03000220 IEM_DS3505
ZHHH,2001-06-23 09:00,ZHHH 230900Z AUTO 36002KT 9SM 29/21 A2965 RMK SLP043 T02910207 57016 IEM_DS3505
ZHHH,2001-06-23 10:00,ZHHH 231000Z AUTO 29006KT 6SM 29/23 A2965 RMK SLP042 T02900230 IEM_DS3505
ZHHH,2001-06-23 11:00,ZHHH 231100Z AUTO 6SM 28/22 A2965 RMK SLP042 T02800220 IEM_DS3505
ZHHH,2001-06-23 12:00,ZHHH 231200Z AUTO 34002KT 9SM 28/21 A2965 RMK SLP044 T02760213 52001 IEM_DS3505
ZHHH,2001-06-23 13:00,ZHHH 231300Z AUTO 33004KT 6SM 27/23 A2968 RMK SLP052 T02700230 IEM_DS3505
ZHHH,2001-06-23 14:00,ZHHH 231400Z AUTO 04004KT 6SM 26/24 A2968 RMK SLP052 T02600240 IEM_DS3505
ZHHH,2001-06-23 15:00,ZHHH 231500Z AUTO 36002KT 9SM 26/23 A2971 RMK SLP062 T02640226 IEM_DS3505
ZHHH,2001-06-23 16:00,ZHHH 231600Z AUTO 04006KT 6SM 25/22 A2971 RMK SLP063 T02500220 IEM_DS3505
ZHHH,2001-06-23 17:00,ZHHH 231700Z AUTO 04006KT 6SM 24/22 A2971 RMK SLP063 T02400220 IEM_DS3505
ZHHH,2001-06-23 18:00,ZHHH 231800Z AUTO 00000KT 9SM 25/23 A2968 RMK SLP053 T02500227 57003 IEM_DS3505
ZHHH,2001-06-23 19:00,ZHHH 231900Z AUTO 07006KT 6SM 23/22 A2968 RMK SLP053 T02300220 IEM_DS3505
ZHHH,2001-06-23 20:00,ZHHH 232000Z AUTO 6SM 23/22 A2968 RMK SLP053 T02300220 IEM_DS3505
ZHHH,2001-06-23 21:00,ZHHH 232100Z AUTO 36002KT 7SM 24/22 A2971 RMK SLP056 T02380225 52003 IEM_DS3505
ZHHH,2001-06-23 22:00,ZHHH 232200Z AUTO 15SM 22/22 A2971 RMK SLP063 T02200220 IEM_DS3505
ZHHH,2001-06-23 23:00,ZHHH 232300Z AUTO 04006KT 6SM 23/22 A2971 RMK SLP063 T02300220 IEM_DS3505
ZHHH,2001-06-24 00:00,ZHHH 240000Z AUTO 09004KT 11SM 25/22 A2974 RMK SLP068 T02490219 52012 IEM_DS3505
ZHHH,2001-06-24 01:00,ZHHH 240100Z AUTO 06006KT 25/22 A2974 RMK SLP073 T02500220 IEM_DS3505
ZHHH,2001-06-24 02:00,ZHHH 240200Z AUTO 6SM 26/23 A2974 RMK SLP072 T02600230 IEM_DS3505
ZHHH,2001-06-24 03:00,ZHHH 240300Z AUTO 09004KT 11SM 28/22 A2974 RMK SLP070 T02800222 52002 IEM_DS3505
ZHHH,2001-06-24 04:00,ZHHH 240400Z AUTO 6SM 29/24 A2974 RMK SLP072 T02900240 IEM_DS3505
ZHHH,2001-06-24 05:00,ZHHH 240500Z AUTO 29/23 A2974 RMK SLP072 T02900230 IEM_DS3505
ZHHH,2001-06-24 06:00,ZHHH 240600Z AUTO 07002KT 11SM 30/22 A2971 RMK SLP064 T02950225 57006 IEM_DS3505
ZHHH,2001-06-24 08:00,ZHHH 240800Z AUTO 6SM RMK IEM_DS3505
ZHHH,2001-06-24 09:00,ZHHH 240900Z AUTO 34002KT 9SM 31/22 A2968 RMK SLP051 T03060223 57013 IEM_DS3505
ZHHH,2001-06-24 10:00,ZHHH 241000Z AUTO 6SM 30/21 A2968 RMK SLP052 T03000210 IEM_DS3505
ZHHH,2001-06-24 11:00,ZHHH 241100Z AUTO 6SM 30/21 A2968 RMK SLP052 T03000210 IEM_DS3505
ZHHH,2001-06-24 12:00,ZHHH 241200Z AUTO 00000KT 9SM 29/22 A2971 RMK SLP056 T02890220 52005 IEM_DS3505
ZHHH,2001-06-24 13:00,ZHHH 241300Z AUTO 11004KT 6SM 28/24 A2971 RMK SLP062 T02800240 IEM_DS3505
ZHHH,2001-06-24 14:00,ZHHH 241400Z AUTO 12002KT 6SM 28/23 A2974 RMK SLP072 T02800230 IEM_DS3505
ZHHH,2001-06-24 15:00,ZHHH 241500Z AUTO 16002KT 9SM 28/24 A2974 RMK SLP071 T02810236 52015 IEM_DS3505
ZHHH,2001-06-24 16:00,ZHHH 241600Z AUTO 05006KT 6SM 26/23 A2974 RMK SLP072 T02600230 IEM_DS3505
ZHHH,2001-06-24 17:00,ZHHH 241700Z AUTO 06008KT 6SM 25/23 A2974 RMK SLP073 T02500230 IEM_DS3505
ZHHH,2001-06-24 18:00,ZHHH 241800Z AUTO 07002KT 9SM 27/23 A2971 RMK SLP060 T02680234 57011 IEM_DS3505
ZHHH,2001-06-24 19:00,ZHHH 241900Z AUTO 11004KT 6SM 25/24 A2971 RMK SLP063 T02500240 IEM_DS3505
ZHHH,2001-06-24 20:00,ZHHH 242000Z AUTO 6SM 25/24 A2971 RMK SLP063 T02500240 IEM_DS3505
ZHHH,2001-06-24 21:00,ZHHH 242100Z AUTO 11002KT 9SM 26/23 A2974 RMK SLP066 T02600229 52006 IEM_DS3505
ZHHH,2001-06-24 22:00,ZHHH 242200Z AUTO 10006KT 24/23 A2974 RMK SLP073 T02400230 IEM_DS3505
ZHHH,2001-06-24 23:00,ZHHH 242300Z AUTO 09008KT 25/23 A2974 RMK SLP073 T02500230 IEM_DS3505
ZHHH,2001-06-25 00:00,ZHHH 250000Z AUTO 14002KT 12SM 28/23 A2974 RMK SLP071 T02820226 52005 IEM_DS3505
ZHHH,2001-06-25 01:00,ZHHH 250100Z AUTO 12008KT 6SM 28/23 A2974 RMK SLP072 T02800230 IEM_DS3505
ZHHH,2001-06-25 02:00,ZHHH 250200Z AUTO 12010KT 6SM 29/23 A2974 RMK SLP072 T02900230 IEM_DS3505
ZHHH,2001-06-25 03:00,ZHHH 250300Z AUTO 18004G19KT 16SM 30/22 A2974 RMK SLP067 T03010225 57004 IEM_DS3505
ZHHH,2001-06-25 04:00,ZHHH 250400Z AUTO 13006KT 6SM 30/24 A2971 RMK SLP062 T03000240 IEM_DS3505
ZHHH,2001-06-25 05:00,ZHHH 250500Z AUTO 12006KT 6SM 30/24 A2971 RMK SLP062 T03000240 IEM_DS3505
ZHHH,2001-06-25 06:00,ZHHH 250600Z AUTO 20002KT 16SM 32/22 A2968 RMK SLP050 T03230220 57016 IEM_DS3505
ZHHH,2001-06-25 07:00,ZHHH 250700Z AUTO 14006KT 6SM 32/23 A2968 RMK SLP052 T03200230 IEM_DS3505
ZHHH,2001-06-25 08:00,ZHHH 250800Z AUTO 12008KT 6SM 32/24 A2965 RMK SLP042 T03200240 IEM_DS3505
ZHHH,2001-06-25 09:00,ZHHH 250900Z AUTO 14004KT 16SM 32/22 A2965 RMK SLP037 T03170222 57013 IEM_DS3505
ZHHH,2001-06-25 10:00,ZHHH 251000Z AUTO 13006KT 6SM 31/24 A2965 RMK SLP042 T03100240 IEM_DS3505
ZHHH,2001-06-25 11:00,ZHHH 251100Z AUTO 13006KT 6SM 30/24 A2965 RMK SLP042 T03000240 IEM_DS3505
ZHHH,2001-06-25 12:00,ZHHH 251200Z AUTO 16002KT 11SM 30/24 A2965 RMK SLP042 T02950242 52005 IEM_DS3505
ZHHH,2001-06-25 13:00,ZHHH 251300Z AUTO 12010KT 6SM 27/25 A2968 RMK SLP052 T02700250 IEM_DS3505
ZHHH,2001-06-25 14:00,ZHHH 251400Z AUTO 12010KT 6SM 26/24 A2968 RMK SLP052 T02600240 IEM_DS3505
ZHHH,2001-06-25 15:00,ZHHH 251500Z AUTO 16002G19KT 9SM 28/24 A2968 RMK SLP052 T02750237 52010 IEM_DS3505
ZHHH,2001-06-25 16:00,ZHHH 251600Z AUTO 14006KT 6SM 26/24 A2968 RMK SLP052 T02600240 IEM_DS3505
ZHHH,2001-06-25 17:00,ZHHH 251700Z AUTO 6SM 26/24 A2968 RMK SLP052 T02600240 IEM_DS3505
ZHHH,2001-06-25 18:00,ZHHH 251800Z AUTO 14002KT 9SM 26/24 A2968 RMK SLP042 T02610236 57010 IEM_DS3505
ZHHH,2001-06-25 19:00,ZHHH 251900Z AUTO 10008KT 24/23 A2965 RMK SLP043 T02400230 IEM_DS3505
ZHHH,2001-06-25 20:00,ZHHH 252000Z AUTO 11008KT 7SM 24/23 A2965 RMK SLP043 T02400230 IEM_DS3505
ZHHH,2001-06-25 21:00,ZHHH 252100Z AUTO 07002KT 9SM 25/23 A2965 RMK SLP040 T02510229 57002 IEM_DS3505
ZHHH,2001-06-25 22:00,ZHHH 252200Z AUTO 14006KT 6SM 24/23 A2965 RMK SLP043 T02400230 IEM_DS3505
ZHHH,2001-06-25 23:00,ZHHH 252300Z AUTO 14008KT 6SM 25/24 A2968 RMK SLP052 T02500240 IEM_DS3505
ZHHH,2001-06-26 00:00,ZHHH 260000Z AUTO 11002KT 11SM 27/23 A2968 RMK SLP049 T02710227 52008 IEM_DS3505
ZHHH,2001-06-26 01:00,ZHHH 260100Z AUTO 14008KT 27/24 A2968 RMK SLP052 T02700240 IEM_DS3505
ZHHH,2001-06-26 02:00,ZHHH 260200Z AUTO 13006KT 6SM 28/24 A2968 RMK SLP052 T02800240 IEM_DS3505
ZHHH,2001-06-26 03:00,ZHHH 260300Z AUTO 09004KT 11SM 30/23 A2968 RMK SLP045 T02970231 57003 IEM_DS3505
ZHHH,2001-06-26 06:00,ZHHH 260600Z AUTO 11004KT 14SM 32/22 A2962 RMK SLP031 T03220223 57014 IEM_DS3505
ZHHH,2001-06-26 07:00,ZHHH 260700Z AUTO 32/24 A2962 RMK SLP032 T03200240 IEM_DS3505
ZHHH,2001-06-26 08:00,ZHHH 260800Z AUTO 6SM 32/24 A2959 RMK SLP021 T03200240 IEM_DS3505
ZHHH,2001-06-26 09:00,ZHHH 260900Z AUTO 16002KT 12SM 33/22 A2959 RMK SLP016 T03290223 57015 IEM_DS3505
ZHHH,2001-06-26 10:00,ZHHH 261000Z AUTO 6SM 32/23 A2959 RMK SLP021 T03200230 IEM_DS3505
ZHHH,2001-06-26 11:00,ZHHH 261100Z AUTO 11008KT 10SM 30/24 A2959 RMK SLP021 T03000240 IEM_DS3505
ZHHH,2001-06-26 12:00,ZHHH 261200Z AUTO 10006KT 9SM 29/25 A2959 RMK SLP021 T02900250 IEM_DS3505
ZHHH,2001-06-26 13:00,ZHHH 261300Z AUTO 6SM 29/25 A2962 RMK SLP032 T02900250 IEM_DS3505
ZHHH,2001-06-26 14:00,ZHHH 261400Z AUTO 14004KT 6SM 29/25 A2962 RMK SLP032 T02900250 IEM_DS3505
ZHHH,2001-06-26 15:00,ZHHH 261500Z AUTO 11002KT 11SM 30/23 A2962 RMK SLP032 T02970229 52011 IEM_DS3505
ZHHH,2001-06-26 16:00,ZHHH 261600Z AUTO 13002KT 28/25 A2962 RMK SLP032 T02800250 IEM_DS3505
ZHHH,2001-06-26 17:00,ZHHH 261700Z AUTO 14006KT 6SM 27/26 A2962 RMK SLP032 T02700260 IEM_DS3505
ZHHH,2001-06-26 18:00,ZHHH 261800Z AUTO 14002KT 9SM 29/26 A2962 RMK SLP023 T02860259 57009 IEM_DS3505
ZHHH,2001-06-26 19:00,ZHHH 261900Z AUTO 12006KT 10SM 27/26 A2959 RMK SLP021 T02700260 IEM_DS3505
ZHHH,2001-06-26 20:00,ZHHH 262000Z AUTO 10006KT 6SM 26/25 A2959 RMK SLP021 T02600250 IEM_DS3505
ZHHH,2001-06-26 21:00,ZHHH 262100Z AUTO 14002KT 9SM 28/26 A2962 RMK SLP027 T02790256 52004 IEM_DS3505
ZHHH,2001-06-26 22:00,ZHHH 262200Z AUTO 14006KT 6SM 26/26 A2962 RMK SLP032 T02600260 IEM_DS3505
ZHHH,2001-06-26 23:00,ZHHH 262300Z AUTO 14006KT 6SM 27/26 A2962 RMK SLP032 T02700260 IEM_DS3505
ZHHH,2001-06-27 00:00,ZHHH 270000Z AUTO 11004KT 9SM 29/26 A2965 RMK SLP037 T02860260 52010 IEM_DS3505
ZHHH,2001-06-27 01:00,ZHHH 270100Z AUTO 15008KT 6SM 29/27 A2965 RMK SLP042 T02900270 IEM_DS3505
ZHHH,2001-06-27 02:00,ZHHH 270200Z AUTO 16008KT 6SM 30/27 A2965 RMK SLP042 T03000270 IEM_DS3505
ZHHH,2001-06-27 03:00,ZHHH 270300Z AUTO 14002KT 12SM 32/26 A2965 RMK SLP040 T03220257 52003 IEM_DS3505
ZHHH,2001-06-27 04:00,ZHHH 270400Z AUTO 21010KT 6SM RMK IEM_DS3505
ZHHH,2001-06-27 05:00,ZHHH 270500Z AUTO 6SM RMK IEM_DS3505
ZHHH,2001-06-27 06:00,ZHHH 270600Z AUTO 20004KT 11SM 34/25 A2959 RMK SLP022 T03420251 57018 IEM_DS3505
ZHHH,2001-06-27 07:00,ZHHH 270700Z AUTO 22008KT 19SM RMK IEM_DS3505
ZHHH,2001-06-27 08:00,ZHHH 270800Z AUTO 22010KT 6SM 34/26 A2959 RMK SLP021 T03400260 IEM_DS3505
ZHHH,2001-06-27 09:00,ZHHH 270900Z AUTO 20004KT 11SM 35/25 A2956 RMK SLP012 T03510248 57010 IEM_DS3505
ZHHH,2001-06-27 10:00,ZHHH 271000Z AUTO 17006KT 7SM 32/27 A2956 RMK SLP011 T03200270 IEM_DS3505
ZHHH,2001-06-27 11:00,ZHHH 271100Z AUTO 14008KT 6SM 31/27 A2959 RMK SLP021 T03100270 IEM_DS3505
ZHHH,2001-06-27 12:00,ZHHH 271200Z AUTO 14004KT 9SM 31/26 A2959 RMK SLP020 T03060255 52008 IEM_DS3505
ZHHH,2001-06-27 13:00,ZHHH 271300Z AUTO 14008KT 6SM 30/26 A2962 RMK SLP032 T03000260 IEM_DS3505
ZHHH,2001-06-27 14:00,ZHHH 271400Z AUTO 14008KT 6SM 29/26 A2962 RMK SLP032 T02900260 IEM_DS3505
ZHHH,2001-06-27 15:00,ZHHH 271500Z AUTO 16004KT 11SM 30/26 A2962 RMK SLP034 T02970263 52014 IEM_DS3505
ZHHH,2001-06-27 16:00,ZHHH 271600Z AUTO 14008KT 6SM 29/26 A2962 RMK SLP032 T02900260 IEM_DS3505
ZHHH,2001-06-27 17:00,ZHHH 271700Z AUTO 18006KT 6SM 29/26 A2962 RMK SLP032 T02900260 IEM_DS3505
ZHHH,2001-06-27 18:00,ZHHH 271800Z AUTO 00000KT 7SM 29/26 A2962 RMK SLP025 T02900255 57009 IEM_DS3505
ZHHH,2001-06-27 19:00,ZHHH 271900Z AUTO 18006KT 6SM 28/25 A2962 RMK SLP032 T02800250 IEM_DS3505
ZHHH,2001-06-27 20:00,ZHHH 272000Z AUTO 18006KT 6SM 28/25 A2962 RMK SLP032 T02800250 IEM_DS3505
ZHHH,2001-06-27 21:00,ZHHH 272100Z AUTO 14002KT 7SM 28/25 A2959 RMK SLP023 T02830250 57002 IEM_DS3505
ZHHH,2001-06-27 22:00,ZHHH 272200Z AUTO 17004KT 6SM 28/25 A2962 RMK SLP032 T02800250 IEM_DS3505
ZHHH,2001-06-27 23:00,ZHHH 272300Z AUTO 17006KT 6SM 29/25 A2962 RMK SLP032 T02900250 IEM_DS3505
ZHHH,2001-06-28 00:00,ZHHH 280000Z AUTO 18004KT 9SM 30/24 A2962 RMK SLP034 T03050237 52011 IEM_DS3505
ZHHH,2001-06-28 01:00,ZHHH 280100Z AUTO 20014KT 6SM 31/24 A2965 RMK SLP042 T03100240 IEM_DS3505
ZHHH,2001-06-28 02:00,ZHHH 280200Z AUTO 21016KT 6SM 32/24 A2965 RMK SLP042 T03200240 IEM_DS3505
ZHHH,2001-06-28 03:00,ZHHH 280300Z AUTO 22004G29KT 11SM 33/24 A2965 RMK SLP041 T03290239 52007 IEM_DS3505
ZHHH,2001-06-28 04:00,ZHHH 280400Z AUTO 22016KT 32/24 A2965 RMK SLP042 T03200240 IEM_DS3505
ZHHH,2001-06-28 05:00,ZHHH 280500Z AUTO 22017KT 6SM RMK IEM_DS3505
ZHHH,2001-06-28 06:00,ZHHH 280600Z AUTO 18004KT 12SM 35/24 A2962 RMK SLP026 T03460241 57015 IEM_DS3505
ZHHH,2001-06-28 07:00,ZHHH 280700Z AUTO 22019KT RMK IEM_DS3505
ZHHH,2001-06-28 08:00,ZHHH 280800Z AUTO 23017KT 6SM 35/24 A2959 RMK SLP021 T03500240 IEM_DS3505
ZHHH,2001-06-28 09:00,ZHHH 280900Z AUTO 25006KT 12SM 34/24 A2957 RMK SLP014 T03450235 57012 IEM_DS3505
ZHHH,2001-06-28 10:00,ZHHH 281000Z AUTO 22016KT 6SM 34/24 A2956 RMK SLP011 T03400240 IEM_DS3505
ZHHH,2001-06-28 11:00,ZHHH 281100Z AUTO 22012KT 6SM 33/25 A2956 RMK SLP011 T03300250 IEM_DS3505
ZHHH,2001-06-28 12:00,ZHHH 281200Z AUTO 00000KT 11SM 32/25 A2959 RMK SLP018 T03220248 52004 IEM_DS3505
ZHHH,2001-06-28 13:00,ZHHH 281300Z AUTO 21006KT 6SM 31/25 A2959 RMK SLP021 T03100250 IEM_DS3505
ZHHH,2001-06-28 14:00,ZHHH 281400Z AUTO 19008KT 6SM 30/25 A2962 RMK SLP032 T03000250 IEM_DS3505
ZHHH,2001-06-28 15:00,ZHHH 281500Z AUTO 18002G29KT 11SM 31/25 A2962 RMK SLP028 T03120246 52010 IEM_DS3505
ZHHH,2001-06-28 16:00,ZHHH 281600Z AUTO 19010G27KT 6SM 30/25 A2959 RMK SLP021 T03000250 IEM_DS3505
ZHHH,2001-06-28 17:00,ZHHH 281700Z AUTO 21008KT 6SM 30/25 A2962 RMK SLP032 T03000250 IEM_DS3505
ZHHH,2001-06-28 18:00,ZHHH 281800Z AUTO 27002G29KT 9SM 30/24 A2959 RMK SLP023 T02980243 57005 IEM_DS3505
ZHHH,2001-06-28 19:00,ZHHH 281900Z AUTO 21010KT 6SM 29/25 A2959 RMK SLP021 T02900250 IEM_DS3505
ZHHH,2001-06-28 20:00,ZHHH 282000Z AUTO 22014KT 6SM 29/24 A2959 RMK SLP021 T02900240 IEM_DS3505
ZHHH,2001-06-28 21:00,ZHHH 282100Z AUTO 20004KT 9SM 30/23 A2959 RMK SLP021 T02970232 57002 IEM_DS3505
ZHHH,2001-06-28 22:00,ZHHH 282200Z AUTO 23012KT 6SM 29/24 A2959 RMK SLP021 T02900240 IEM_DS3505
ZHHH,2001-06-28 23:00,ZHHH 282300Z AUTO 22012G29KT 6SM 29/24 A2962 RMK SLP032 T02900240 IEM_DS3505
ZHHH,2001-06-29 00:00,ZHHH 290000Z AUTO 22004KT 12SM 30/24 A2962 RMK SLP034 T03030240 52013 IEM_DS3505
ZHHH,2001-06-29 01:00,ZHHH 290100Z AUTO 22016KT 6SM 30/24 A2962 RMK SLP032 T03000240 IEM_DS3505
ZHHH,2001-06-29 02:00,ZHHH 290200Z AUTO 23017KT 6SM 32/25 A2962 RMK SLP032 T03200250 IEM_DS3505
ZHHH,2001-06-29 03:00,ZHHH 290300Z AUTO 27006KT 16SM 33/25 A2962 RMK SLP030 T03280246 57004 IEM_DS3505
ZHHH,2001-06-29 04:00,ZHHH 290400Z AUTO 23017G31KT 6SM 33/25 A2962 RMK SLP032 T03300250 IEM_DS3505
ZHHH,2001-06-29 05:00,ZHHH 290500Z AUTO 24016KT 33/25 A2962 RMK SLP032 T03300250 IEM_DS3505
ZHHH,2001-06-29 06:00,ZHHH 290600Z AUTO 22008KT 16SM 34/24 A2960 RMK SLP025 T03450244 57005 IEM_DS3505
ZHHH,2001-06-29 07:00,ZHHH 290700Z AUTO 24017G33KT 15SM RMK IEM_DS3505
ZHHH,2001-06-29 08:00,ZHHH 290800Z AUTO 23019KT 6SM 34/25 A2959 RMK SLP021 T03400250 IEM_DS3505
ZHHH,2001-06-29 09:00,ZHHH 290900Z AUTO 20006G33KT 16SM 35/24 A2956 RMK SLP016 T03480245 57009 IEM_DS3505
ZHHH,2001-06-29 10:00,ZHHH 291000Z AUTO 24016KT 6SM 34/25 A2959 RMK SLP021 T03400250 IEM_DS3505
ZHHH,2001-06-29 12:00,ZHHH 291200Z AUTO 25002KT 11SM 32/26 A2961 RMK SLP027 T03210255 52011 IEM_DS3505
ZHHH,2001-06-29 13:00,ZHHH 291300Z AUTO 36006KT 6SM 27/25 A2962 RMK SLP032 T02700250 IEM_DS3505
ZHHH,2001-06-29 14:00,ZHHH 291400Z AUTO 6SM 27/25 A2965 RMK SLP042 T02700250 IEM_DS3505
ZHHH,2001-06-29 15:00,ZHHH 291500Z AUTO 00000KT 9SM 28/26 A2965 RMK SLP035 T02790255 52008 IEM_DS3505
ZHHH,2001-06-29 16:00,ZHHH 291600Z AUTO 6SM 27/25 A2962 RMK SLP032 T02700250 IEM_DS3505
ZHHH,2001-06-29 17:00,ZHHH 291700Z AUTO 6SM 27/26 A2962 RMK SLP032 T02700260 IEM_DS3505
ZHHH,2001-06-29 18:00,ZHHH 291800Z AUTO 04002KT 11SM 28/26 A2962 RMK SLP027 T02780256 57008 IEM_DS3505
ZHHH,2001-06-29 19:00,ZHHH 291900Z AUTO 6SM 27/26 A2962 RMK SLP032 T02700260 IEM_DS3505
ZHHH,2001-06-29 20:00,ZHHH 292000Z AUTO 6SM 27/26 A2962 RMK SLP032 T02700260 IEM_DS3505
ZHHH,2001-06-29 21:00,ZHHH 292100Z AUTO 00000KT 9SM 29/26 A2962 RMK SLP027 T02860259 54000 IEM_DS3505
ZHHH,2001-06-29 22:00,ZHHH 292200Z AUTO 6SM 26/25 A2962 RMK SLP032 T02600250 IEM_DS3505
ZHHH,2001-06-29 23:00,ZHHH 292300Z AUTO 6SM 28/26 A2962 RMK SLP032 T02800260 IEM_DS3505
ZHHH,2001-06-30 00:00,ZHHH 300000Z AUTO 22004KT 12SM 30/26 A2962 RMK SLP030 T03030262 52003 IEM_DS3505
ZHHH,2001-06-30 01:00,ZHHH 300100Z AUTO 25008KT 6SM 30/27 A2962 RMK SLP032 T03000270 IEM_DS3505
ZHHH,2001-06-30 02:00,ZHHH 300200Z AUTO 24006KT 6SM 30/27 A2962 RMK SLP032 T03000270 IEM_DS3505
ZHHH,2001-06-30 03:00,ZHHH 300300Z AUTO 27008KT 12SM 33/26 A2962 RMK SLP032 T03330255 52002 IEM_DS3505
ZHHH,2001-06-30 04:00,ZHHH 300400Z AUTO 24016KT 6SM 33/26 A2962 RMK SLP032 T03300260 IEM_DS3505
ZHHH,2001-06-30 06:00,ZHHH 300600Z AUTO 27004KT 12SM 34/26 A2957 RMK SLP016 T03370259 57016 IEM_DS3505
ZHHH,2001-06-30 07:00,ZHHH 300700Z AUTO 23008KT 6SM 32/27 A2956 RMK SLP011 T03200270 IEM_DS3505
ZHHH,2001-06-30 08:00,ZHHH 300800Z AUTO 23010KT 6SM 32/27 A2956 RMK SLP011 T03200270 IEM_DS3505
ZHHH,2001-06-30 09:00,ZHHH 300900Z AUTO 27004KT 12SM 33/26 A2956 RMK SLP006 T03340261 57010 IEM_DS3505
ZHHH,2001-06-30 10:00,ZHHH 301000Z AUTO 24008KT 6SM 33/27 A2956 RMK SLP011 T03300270 IEM_DS3505
ZHHH,2001-06-30 11:00,ZHHH 301100Z AUTO 24006KT 6SM 32/27 A2956 RMK SLP011 T03200270 IEM_DS3505
ZHHH,2001-06-30 12:00,ZHHH 301200Z AUTO 27002KT 11SM 32/26 A2956 RMK SLP008 T03210258 52002 IEM_DS3505
ZHHH,2001-06-30 13:00,ZHHH 301300Z AUTO 27004KT 6SM 31/27 A2956 RMK SLP011 T03100270 IEM_DS3505
ZHHH,2001-06-30 14:00,ZHHH 301400Z AUTO 18004KT 6SM 30/27 A2959 RMK SLP021 T03000270 IEM_DS3505
ZHHH,2001-06-30 15:00,ZHHH 301500Z AUTO 18002KT 9SM 32/27 A2959 RMK SLP023 T03150268 52015 IEM_DS3505
ZHHH,2001-06-30 16:00,ZHHH 301600Z AUTO 21004KT 6SM 30/27 A2959 RMK SLP021 T03000270 IEM_DS3505
ZHHH,2001-06-30 17:00,ZHHH 301700Z AUTO 19004KT 6SM 30/26 A2959 RMK SLP021 T03000260 IEM_DS3505
ZHHH,2001-06-30 18:00,ZHHH 301800Z AUTO 18002KT 9SM 31/26 A2956 RMK SLP014 T03080255 57009 IEM_DS3505
ZHHH,2001-06-30 19:00,ZHHH 301900Z AUTO 18004KT 6SM 30/26 A2959 RMK SLP021 T03000260 IEM_DS3505
ZHHH,2001-06-30 20:00,ZHHH 302000Z AUTO 6SM 30/26 A2959 RMK SLP021 T03000260 IEM_DS3505
ZHHH,2001-06-30 21:00,ZHHH 302100Z AUTO 18002KT 9SM 30/25 A2959 RMK SLP019 T03030248 52005 IEM_DS3505
ZHHH,2001-06-30 22:00,ZHHH 302200Z AUTO 6SM 29/25 A2959 RMK SLP021 T02900250 IEM_DS3505
ZHHH,2001-06-30 23:00,ZHHH 302300Z AUTO 18004KT 6SM 30/25 A2962 RMK SLP032 T03000250 IEM_DS3505
ZHHH,2001-07-01 00:00,ZHHH 010000Z AUTO 18004KT 12SM 31/25 A2962 RMK SLP033 T03110246 52014 IEM_DS3505
ZHHH,2001-07-01 01:00,ZHHH 010100Z AUTO 20010KT 6SM 33/25 A2962 RMK T03300250 IEM_DS3505
ZHHH,2001-07-01 02:00,ZHHH 010200Z AUTO 20010KT 6SM 33/25 A2965 RMK T03300250 IEM_DS3505
ZHHH,2001-07-01 03:00,ZHHH 010300Z AUTO 20004KT 16SM 34/26 A2965 RMK SLP035 T03440260 52002 IEM_DS3505
ZHHH,2001-07-01 04:00,ZHHH 010400Z AUTO 22010KT 6SM 34/26 A2965 RMK T03400260 IEM_DS3505
ZHHH,2001-07-01 05:00,ZHHH 010500Z AUTO 22012KT 6SM 35/26 A2962 RMK T03500260 IEM_DS3505
ZHHH,2001-07-01 06:00,ZHHH 010600Z AUTO 25004KT 16SM 37/25 A2962 RMK 60003 SLP027 T03690248 57008 IEM_DS3505
ZHHH,2001-07-01 07:00,ZHHH 010700Z AUTO 24010KT 6SM 37/26 A2962 RMK T03700260 IEM_DS3505
ZHHH,2001-07-01 08:00,ZHHH 010800Z AUTO 24008KT 6SM 36/25 A2959 RMK T03600250 IEM_DS3505
ZHHH,2001-07-01 09:00,ZHHH 010900Z AUTO 25002KT 16SM 37/23 A2959 RMK SLP018 T03700232 57009 IEM_DS3505
ZHHH,2001-07-01 10:00,ZHHH 011000Z AUTO 6SM 35/26 A2959 RMK T03500260 IEM_DS3505
ZHHH,2001-07-01 11:00,ZHHH 011100Z AUTO 27002KT 6SM 34/26 A2959 RMK T03400260 IEM_DS3505
ZHHH,2001-07-01 12:00,ZHHH 011200Z AUTO 00000KT 11SM 35/25 A2962 RMK SLP025 T03460253 52007 IEM_DS3505
ZHHH,2001-07-01 13:00,ZHHH 011300Z AUTO 12002KT 6SM 33/27 A2962 RMK T03300270 IEM_DS3505
ZHHH,2001-07-01 14:00,ZHHH 011400Z AUTO 6SM 33/27 A2965 RMK T03300270 IEM_DS3505
ZHHH,2001-07-01 15:00,ZHHH 011500Z AUTO 14002KT 11SM 32/26 A2968 RMK SLP046 T03210256 52021 IEM_DS3505
ZHHH,2001-07-01 16:00,ZHHH 011600Z AUTO 17004KT 6SM 31/27 A2968 RMK T03100270 IEM_DS3505
ZHHH,2001-07-01 17:00,ZHHH 011700Z AUTO 18006KT 6SM 31/26 A2968 RMK T03100260 IEM_DS3505
ZHHH,2001-07-01 18:00,ZHHH 011800Z AUTO 14002KT 9SM 31/25 A2965 RMK SLP039 T03070247 57007 IEM_DS3505
ZHHH,2001-07-01 19:00,ZHHH 011900Z AUTO 14004KT 6SM 30/25 A2965 RMK T03000250 IEM_DS3505
ZHHH,2001-07-01 20:00,ZHHH 012000Z AUTO 14002KT 6SM 30/25 A2965 RMK T03000250 IEM_DS3505
ZHHH,2001-07-01 21:00,ZHHH 012100Z AUTO 11002KT 9SM 30/24 A2965 RMK 70003 SLP040 T03010241 52001 IEM_DS3505
ZHHH,2001-07-01 22:00,ZHHH 012200Z AUTO 13006KT 6SM 29/26 A2968 RMK T02900260 IEM_DS3505
ZHHH,2001-07-01 23:00,ZHHH 012300Z AUTO 14006KT 6SM 30/26 A2968 RMK T03000260 IEM_DS3505
ZHHH,2001-07-02 00:00,ZHHH 020000Z AUTO 16004KT 14SM 33/24 A2968 RMK 70003 SLP051 T03330240 52011 IEM_DS3505
ZHHH,2001-07-02 01:00,ZHHH 020100Z AUTO 16010KT 6SM 33/26 A2968 RMK T03300260 IEM_DS3505
ZHHH,2001-07-02 02:00,ZHHH 020200Z AUTO 18010KT 6SM 34/24 A2971 RMK T03400240 IEM_DS3505
ZHHH,2001-07-02 03:00,ZHHH 020300Z AUTO 20006KT 16SM 36/22 A2971 RMK SLP057 T03560216 52006 IEM_DS3505
ZHHH,2001-07-02 04:00,ZHHH 020400Z AUTO 21010KT 6SM 36/24 A2971 RMK T03600240 IEM_DS3505
ZHHH,2001-07-02 05:00,ZHHH 020500Z AUTO 22008KT 6SM 36/23 A2968 RMK T03600230 IEM_DS3505
ZHHH,2001-07-02 06:00,ZHHH 020600Z AUTO 25002KT 16SM 37/22 A2965 RMK SLP042 T03660219 57015 IEM_DS3505
ZHHH,2001-07-02 07:00,ZHHH 020700Z AUTO 22008KT 6SM 37/25 A2962 RMK T03700250 IEM_DS3505
ZHHH,2001-07-02 08:00,ZHHH 020800Z AUTO 22008KT 37/23 A2962 RMK T03700230 IEM_DS3505
ZHHH,2001-07-02 09:00,ZHHH 020900Z AUTO 27004KT 16SM 38/22 A2962 RMK SLP031 T03830225 57011 IEM_DS3505
ZHHH,2001-07-02 10:00,ZHHH 021000Z AUTO 6SM RMK IEM_DS3505
ZHHH,2001-07-02 11:00,ZHHH 021100Z AUTO 6SM 35/23 A2965 RMK T03500230 IEM_DS3505
ZHHH,2001-07-02 12:00,ZHHH 021200Z AUTO 14002KT 16SM 36/22 A2968 RMK SLP047 T03550218 52016 IEM_DS3505
ZHHH,2001-07-02 13:00,ZHHH 021300Z AUTO 11004KT 6SM 34/26 A2971 RMK T03400260 IEM_DS3505
ZHHH,2001-07-02 14:00,ZHHH 021400Z AUTO 13006KT 6SM 32/27 A2971 RMK T03200270 IEM_DS3505
ZHHH,2001-07-02 15:00,ZHHH 021500Z AUTO 18002KT 16SM 32/25 A2971 RMK SLP056 T03240252 52009 IEM_DS3505
ZHHH,2001-07-02 16:00,ZHHH 021600Z AUTO 18004KT 6SM 31/25 A2971 RMK T03100250 IEM_DS3505
ZHHH,2001-07-02 17:00,ZHHH 021700Z AUTO 19006KT 6SM 31/26 A2971 RMK T03100260 IEM_DS3505
ZHHH,2001-07-02 18:00,ZHHH 021800Z AUTO 14002KT 16SM 31/24 A2968 RMK SLP050 T03110239 57006 IEM_DS3505
ZHHH,2001-07-02 19:00,ZHHH 021900Z AUTO 14004KT 6SM 30/26 A2968 RMK T03000260 IEM_DS3505
ZHHH,2001-07-02 20:00,ZHHH 022000Z AUTO 12004KT 6SM 29/27 A2968 RMK T02900270 IEM_DS3505
ZHHH,2001-07-02 21:00,ZHHH 022100Z AUTO 14002KT 16SM 30/23 RMK SLP054 T03010234 52004 IEM_DS3505
ZHHH,2001-07-02 22:00,ZHHH 022200Z AUTO 14002KT 6SM 29/26 A2971 RMK T02900260 IEM_DS3505
ZHHH,2001-07-02 23:00,ZHHH 022300Z AUTO 30/27 A2971 RMK T03000270 IEM_DS3505
ZHHH,2001-07-03 00:00,ZHHH 030000Z AUTO 14002KT 11SM 33/23 A2971 RMK SLP060 T03270234 52006 IEM_DS3505
ZHHH,2001-07-03 01:00,ZHHH 030100Z AUTO 18006KT 6SM 33/25 A2971 RMK T03300250 IEM_DS3505
ZHHH,2001-07-03 02:00,ZHHH 030200Z AUTO 19008KT 6SM 35/24 A2971 RMK T03500240 IEM_DS3505
ZHHH,2001-07-03 03:00,ZHHH 030300Z AUTO 14008KT 11SM 35/20 A2971 RMK SLP057 T03530200 57003 IEM_DS3505
ZHHH,2001-07-03 04:00,ZHHH 030400Z AUTO 21012KT 6SM 36/20 A2971 RMK T03600200 IEM_DS3505
ZHHH,2001-07-03 05:00,ZHHH 030500Z AUTO 21010KT 36/22 A2968 RMK T03600220 IEM_DS3505
ZHHH,2001-07-03 06:00,ZHHH 030600Z AUTO 22002KT 16SM 37/21 A2968 RMK SLP046 T03660206 57011 IEM_DS3505
ZHHH,2001-07-03 07:00,ZHHH 030700Z AUTO 23010KT 36/21 A2965 RMK T03600210 IEM_DS3505
ZHHH,2001-07-03 08:00,ZHHH 030800Z AUTO 24008KT 6SM 37/21 A2965 RMK T03700210 IEM_DS3505
ZHHH,2001-07-03 09:00,ZHHH 030900Z AUTO 25004KT 16SM 37/20 A2962 RMK SLP033 T03730204 57013 IEM_DS3505
ZHHH,2001-07-03 10:00,ZHHH 031000Z AUTO 35/22 A2962 RMK T03500220 IEM_DS3505
ZHHH,2001-07-03 11:00,ZHHH 031100Z AUTO 30006KT 6SM 34/25 A2965 RMK T03400250 IEM_DS3505
ZHHH,2001-07-03 12:00,ZHHH 031200Z AUTO 29004KT 14SM 33/24 A2965 RMK SLP043 T03320235 52010 IEM_DS3505
ZHHH,2001-07-03 13:00,ZHHH 031300Z AUTO 6SM 31/26 A2968 RMK T03100260 IEM_DS3505
ZHHH,2001-07-03 14:00,ZHHH 031400Z AUTO 31004KT 6SM 31/26 A2971 RMK T03100260 IEM_DS3505
ZHHH,2001-07-03 15:00,ZHHH 031500Z AUTO 27002KT 12SM 32/23 A2971 RMK SLP055 T03210226 52012 IEM_DS3505
ZHHH,2001-07-03 16:00,ZHHH 031600Z AUTO 16004KT 6SM 31/25 A2968 RMK T03100250 IEM_DS3505
ZHHH,2001-07-03 17:00,ZHHH 031700Z AUTO 6SM 30/26 A2965 RMK T03000260 IEM_DS3505
ZHHH,2001-07-03 18:00,ZHHH 031800Z AUTO 29004KT 16SM 30/25 A2965 RMK SLP037 T02960247 57018 IEM_DS3505
ZHHH,2001-07-03 19:00,ZHHH 031900Z AUTO 17004KT 6SM 29/26 A2965 RMK T02900260 IEM_DS3505
ZHHH,2001-07-03 20:00,ZHHH 032000Z AUTO 6SM 29/25 A2962 RMK T02900250 IEM_DS3505
ZHHH,2001-07-03 21:00,ZHHH 032100Z AUTO 25002KT 16SM 29/26 A2962 RMK SLP034 T02920262 57003 IEM_DS3505
ZHHH,2001-07-03 22:00,ZHHH 032200Z AUTO 6SM 28/26 A2962 RMK T02800260 IEM_DS3505
ZHHH,2001-07-03 23:00,ZHHH 032300Z AUTO 6SM 28/26 A2965 RMK T02800260 IEM_DS3505
ZHHH,2001-07-04 00:00,ZHHH 040000Z AUTO 00000KT 16SM 32/24 RMK SLP040 T03150241 52006 IEM_DS3505
ZHHH,2001-07-04 01:00,ZHHH 040100Z AUTO 6SM 31/25 A2965 RMK T03100250 IEM_DS3505
ZHHH,2001-07-04 02:00,ZHHH 040200Z AUTO 6SM 32/25 A2965 RMK T03200250 IEM_DS3505
ZHHH,2001-07-04 03:00,ZHHH 040300Z AUTO 16004KT 16SM 33/24 A2965 RMK SLP036 T03310239 57004 IEM_DS3505
ZHHH,2001-07-04 04:00,ZHHH 040400Z AUTO 6SM 34/25 A2962 RMK T03400250 IEM_DS3505
ZHHH,2001-07-04 05:00,ZHHH 040500Z AUTO 24006KT 6SM 36/24 A2962 RMK T03600240 IEM_DS3505
ZHHH,2001-07-04 06:00,ZHHH 040600Z AUTO 27006KT 14SM 36/22 A2959 RMK SLP022 T03580220 57014 IEM_DS3505
ZHHH,2001-07-04 07:00,ZHHH 040700Z AUTO 26006KT 6SM 36/23 A2959 RMK T03600230 IEM_DS3505
ZHHH,2001-07-04 08:00,ZHHH 040800Z AUTO 24006KT 6SM 36/24 A2959 RMK T03600240 IEM_DS3505
ZHHH,2001-07-04 09:00,ZHHH 040900Z AUTO 22004KT 16SM 36/21 A2956 RMK SLP009 T03610214 57013 IEM_DS3505
ZHHH,2001-07-04 10:00,ZHHH 041000Z AUTO 6SM 35/25 A2956 RMK T03500250 IEM_DS3505
ZHHH,2001-07-04 11:00,ZHHH 041100Z AUTO 6SM 33/26 A2956 RMK T03300260 IEM_DS3505
ZHHH,2001-07-04 12:00,ZHHH 041200Z AUTO 29004KT 12SM 33/23 A2956 RMK SLP011 T03340234 52002 IEM_DS3505
ZHHH,2001-07-04 13:00,ZHHH 041300Z AUTO 01002KT 6SM 32/27 A2959 RMK T03200270 IEM_DS3505
ZHHH,2001-07-04 14:00,ZHHH 041400Z AUTO 01002KT 6SM 32/26 A2959 RMK T03200260 IEM_DS3505
ZHHH,2001-07-04 15:00,ZHHH 041500Z AUTO 29002KT 11SM 32/26 A2959 RMK SLP017 T03170256 52006 IEM_DS3505
ZHHH,2001-07-04 16:00,ZHHH 041600Z AUTO 02004KT 6SM 30/26 A2959 RMK T03000260 IEM_DS3505
ZHHH,2001-07-04 17:00,ZHHH 041700Z AUTO 05004KT 6SM 29/26 A2956 RMK T02900260 IEM_DS3505
ZHHH,2001-07-04 18:00,ZHHH 041800Z AUTO 04002KT 12SM 30/26 A2953 RMK SLP003 T03010258 57014 IEM_DS3505
ZHHH,2001-07-04 19:00,ZHHH 041900Z AUTO 07006KT 6SM 29/26 A2953 RMK T02900260 IEM_DS3505
ZHHH,2001-07-04 20:00,ZHHH 042000Z AUTO 05004KT 6SM 28/26 A2953 RMK T02800260 IEM_DS3505
ZHHH,2001-07-04 21:00,ZHHH 042100Z AUTO 04002KT 11SM 29/26 A2953 RMK SLP000 T02940260 57003 IEM_DS3505
ZHHH,2001-07-04 22:00,ZHHH 042200Z AUTO 05004KT 6SM 28/26 A2953 RMK T02800260 IEM_DS3505
ZHHH,2001-07-04 23:00,ZHHH 042300Z AUTO 6SM 29/26 A2953 RMK T02900260 IEM_DS3505
ZHHH,2001-07-05 00:00,ZHHH 050000Z AUTO 07004KT 14SM 31/26 A2956 RMK SLP010 T03130259 52010 IEM_DS3505
ZHHH,2001-07-05 01:00,ZHHH 050100Z AUTO 05008KT 6SM 31/26 A2956 RMK T03100260 IEM_DS3505
ZHHH,2001-07-05 02:00,ZHHH 050200Z AUTO 04008KT 6SM 32/26 A2956 RMK T03200260 IEM_DS3505
ZHHH,2001-07-05 03:00,ZHHH 050300Z AUTO 04006KT 16SM 34/25 A2956 RMK SLP010 T03360252 54000 IEM_DS3505
ZHHH,2001-07-05 04:00,ZHHH 050400Z AUTO 05010KT 6SM 33/26 A2956 RMK T03300260 IEM_DS3505
ZHHH,2001-07-05 05:00,ZHHH 050500Z AUTO 04008KT 6SM 33/25 A2953 RMK T03300250 IEM_DS3505
ZHHH,2001-07-05 06:00,ZHHH 050600Z AUTO 07004KT 16SM 34/24 A2953 RMK SLP997 T03440242 57013 IEM_DS3505
ZHHH,2001-07-05 07:00,ZHHH 050700Z AUTO 07014KT 6SM 36/23 A2950 RMK T03600230 IEM_DS3505
ZHHH,2001-07-05 08:00,ZHHH 050800Z AUTO 07016KT 6SM 37/23 A2950 RMK T03700230 IEM_DS3505
ZHHH,2001-07-05 09:00,ZHHH 050900Z AUTO 02006KT 16SM 37/22 A2947 RMK SLP979 T03660216 57018 IEM_DS3505
ZHHH,2001-07-05 10:00,ZHHH 051000Z AUTO 07010KT 6SM 36/24 A2947 RMK T03600240 IEM_DS3505
ZHHH,2001-07-05 11:00,ZHHH 051100Z AUTO 04008KT 6SM 34/23 A2947 RMK T03400230 IEM_DS3505
ZHHH,2001-07-05 12:00,ZHHH 051200Z AUTO 02002KT 11SM 34/24 A2947 RMK SLP981 T03360237 52002 IEM_DS3505
ZHHH,2001-07-05 13:00,ZHHH 051300Z AUTO 04006KT 6SM 32/26 A2950 RMK T03200260 IEM_DS3505
ZHHH,2001-07-05 14:00,ZHHH 051400Z AUTO 05006KT 6SM 31/26 A2950 RMK T03100260 IEM_DS3505
ZHHH,2001-07-05 15:00,ZHHH 051500Z AUTO 02004KT 11SM 32/25 A2953 RMK SLP995 T03170253 52014 IEM_DS3505
ZHHH,2001-07-05 16:00,ZHHH 051600Z AUTO 04006KT 6SM 30/26 A2953 RMK T03000260 IEM_DS3505
ZHHH,2001-07-05 17:00,ZHHH 051700Z AUTO 05006KT 6SM 30/26 A2950 RMK T03000260 IEM_DS3505
ZHHH,2001-07-05 18:00,ZHHH 051800Z AUTO 04004KT 9SM 30/25 A2950 RMK SLP989 T03050254 57006 IEM_DS3505
ZHHH,2001-07-05 19:00,ZHHH 051900Z AUTO 06008KT 6SM 30/26 A2950 RMK T03000260 IEM_DS3505
ZHHH,2001-07-05 20:00,ZHHH 052000Z AUTO 04008KT 6SM 29/25 A2950 RMK T02900250 IEM_DS3505
ZHHH,2001-07-05 21:00,ZHHH 052100Z AUTO 04010KT 6SM 28/25 A2953 RMK T02800250 IEM_DS3505
ZHHH,2001-07-05 23:00,ZHHH 052300Z AUTO 04012KT 6SM 28/26 A2956 RMK T02800260 IEM_DS3505
ZHHH,2001-07-06 00:00,ZHHH 060000Z AUTO 07004KT 16SM 31/26 A2956 RMK SLP012 T03080255 52016 IEM_DS3505
ZHHH,2001-07-06 01:00,ZHHH 060100Z AUTO 05014KT 6SM 31/26 A2956 RMK T03100260 IEM_DS3505
ZHHH,2001-07-06 02:00,ZHHH 060200Z AUTO 04010KT 6SM 33/26 A2959 RMK T03300260 IEM_DS3505
ZHHH,2001-07-06 03:00,ZHHH 060300Z AUTO 04006KT 16SM 34/26 A2959 RMK SLP019 T03370258 52007 IEM_DS3505
ZHHH,2001-07-06 04:00,ZHHH 060400Z AUTO 04012KT 6SM 34/27 A2959 RMK T03400270 IEM_DS3505
ZHHH,2001-07-06 05:00,ZHHH 060500Z AUTO 03012KT 35/27 A2959 RMK T03500270 IEM_DS3505
ZHHH,2001-07-06 06:00,ZHHH 060600Z AUTO 02006KT 16SM 35/26 A2959 RMK SLP011 T03480261 57008 IEM_DS3505
ZHHH,2001-07-06 07:00,ZHHH 060700Z AUTO 05016KT 2 1/2SM RMK IEM_DS3505
ZHHH,2001-07-06 08:00,ZHHH 060800Z AUTO 05012KT 6SM 33/26 A2956 RMK T03300260 IEM_DS3505
ZHHH,2001-07-06 09:00,ZHHH 060900Z AUTO 07004KT 11SM 33/25 A2959 RMK SLP014 T03310254 52003 IEM_DS3505
ZHHH,2001-07-06 10:00,ZHHH 061000Z AUTO 04008KT 6SM 32/27 A2959 RMK T03200270 IEM_DS3505
ZHHH,2001-07-06 11:00,ZHHH 061100Z AUTO 05008KT 6SM 32/26 A2959 RMK T03200260 IEM_DS3505
ZHHH,2001-07-06 12:00,ZHHH 061200Z AUTO 07002KT 11SM 32/26 A2962 RMK 60003 SLP024 T03180258 52010 IEM_DS3505
ZHHH,2001-07-06 13:00,ZHHH 061300Z AUTO 05008KT 6SM 31/26 A2962 RMK T03100260 IEM_DS3505
ZHHH,2001-07-06 14:00,ZHHH 061400Z AUTO 05010KT 6SM 30/26 A2965 RMK T03000260 IEM_DS3505
ZHHH,2001-07-06 15:00,ZHHH 061500Z AUTO 07002KT 11SM 31/25 A2965 RMK SLP039 T03070254 52015 IEM_DS3505
ZHHH,2001-07-06 16:00,ZHHH 061600Z AUTO 06010KT 6SM 30/26 A2965 RMK T03000260 IEM_DS3505
ZHHH,2001-07-06 18:00,ZHHH 061800Z AUTO 07004KT 11SM 30/25 A2965 RMK SLP037 T02970250 57002 IEM_DS3505
ZHHH,2001-07-06 19:00,ZHHH 061900Z AUTO 06008KT 6SM 28/25 A2965 RMK T02800250 IEM_DS3505
ZHHH,2001-07-06 20:00,ZHHH 062000Z AUTO 07008KT 6SM 28/25 A2965 RMK T02800250 IEM_DS3505
ZHHH,2001-07-06 21:00,ZHHH 062100Z AUTO 09004KT 9SM 29/25 A2965 RMK 70003 SLP040 T02880252 52003 IEM_DS3505
ZHHH,2001-07-06 22:00,ZHHH 062200Z AUTO 06010KT 6SM 28/25 A2965 RMK T02800250 IEM_DS3505
ZHHH,2001-07-06 23:00,ZHHH 062300Z AUTO 05010KT 6SM 28/25 A2968 RMK T02800250 IEM_DS3505
ZHHH,2001-07-07 00:00,ZHHH 070000Z AUTO 07002KT 16SM 29/25 A2968 RMK 70003 SLP054 T02870249 52014 IEM_DS3505
ZHHH,2001-07-07 01:00,ZHHH 070100Z AUTO 06012KT 6SM 29/25 A2971 RMK T02900250 IEM_DS3505
ZHHH,2001-07-07 02:00,ZHHH 070200Z AUTO 08012KT 6SM 29/25 A2971 RMK T02900250 IEM_DS3505
ZHHH,2001-07-07 03:00,ZHHH 070300Z AUTO 07004KT 12SM 31/26 A2971 RMK SLP062 T03110255 52008 IEM_DS3505
ZHHH,2001-07-07 04:00,ZHHH 070400Z AUTO 08010KT 6SM 31/26 A2971 RMK T03100260 IEM_DS3505
ZHHH,2001-07-07 06:00,ZHHH 070600Z AUTO 11004KT 14SM 34/25 RMK SLP059 T03350248 57003 IEM_DS3505
ZHHH,2001-07-07 07:00,ZHHH 070700Z AUTO 11010KT 6SM RMK IEM_DS3505
ZHHH,2001-07-07 08:00,ZHHH 070800Z AUTO 11010KT 6SM 32/26 A2971 RMK T03200260 IEM_DS3505
ZHHH,2001-07-07 09:00,ZHHH 070900Z AUTO 14008KT 14SM 32/25 RMK SLP054 T03250247 57005 IEM_DS3505
ZHHH,2001-07-07 10:00,ZHHH 071000Z AUTO 12010KT 31/25 A2971 RMK T03100250 IEM_DS3505
ZHHH,2001-07-07 11:00,ZHHH 071100Z AUTO 13006KT 6SM 31/26 A2971 RMK T03100260 IEM_DS3505
ZHHH,2001-07-07 12:00,ZHHH 071200Z AUTO 14002KT 11SM 31/25 A2974 RMK SLP063 T03120249 52009 IEM_DS3505
ZHHH,2001-07-07 13:00,ZHHH 071300Z AUTO 13006KT 6SM RMK IEM_DS3505
ZHHH,2001-07-07 14:00,ZHHH 071400Z AUTO 08006KT 6SM 29/26 A2974 RMK T02900260 IEM_DS3505
ZHHH,2001-07-07 15:00,ZHHH 071500Z AUTO 14006KT 11SM 31/25 A2977 RMK SLP073 T03070246 52010 IEM_DS3505
ZHHH,2001-07-07 16:00,ZHHH 071600Z AUTO 09006KT 6SM 28/27 A2974 RMK T02800270 IEM_DS3505
ZHHH,2001-07-07 17:00,ZHHH 071700Z AUTO 09006KT 6SM 27/26 A2974 RMK T02700260 IEM_DS3505
ZHHH,2001-07-07 18:00,ZHHH 071800Z AUTO 11002KT 11SM 30/25 A2974 RMK SLP063 T02970249 57010 IEM_DS3505
ZHHH,2001-07-07 19:00,ZHHH 071900Z AUTO 09006KT 6SM 27/26 A2971 RMK T02700260 IEM_DS3505
ZHHH,2001-07-07 20:00,ZHHH 072000Z AUTO 11006KT 6SM 27/26 A2971 RMK T02700260 IEM_DS3505
ZHHH,2001-07-07 21:00,ZHHH 072100Z AUTO 09002KT 9SM 29/26 A2974 RMK SLP066 T02870257 52003 IEM_DS3505
ZHHH,2001-07-07 22:00,ZHHH 072200Z AUTO 09006KT 6SM 26/25 A2974 RMK T02600250 IEM_DS3505
ZHHH,2001-07-07 23:00,ZHHH 072300Z AUTO 11006KT 6SM 27/26 A2977 RMK T02700260 IEM_DS3505
ZHHH,2001-07-08 00:00,ZHHH 080000Z AUTO 14004KT 11SM 31/26 A2977 RMK SLP077 T03060258 52011 IEM_DS3505
ZHHH,2001-07-08 01:00,ZHHH 080100Z AUTO 13008KT 30/27 A2977 RMK T03000270 IEM_DS3505
ZHHH,2001-07-08 03:00,ZHHH 080300Z AUTO 22004KT 11SM 34/26 A2977 RMK SLP082 T03390260 52005 IEM_DS3505
ZHHH,2001-07-08 04:00,ZHHH 080400Z AUTO 23006KT 6SM 35/26 A2977 RMK T03500260 IEM_DS3505
ZHHH,2001-07-08 05:00,ZHHH 080500Z AUTO 24008KT 6SM 36/25 A2977 RMK T03600250 IEM_DS3505
ZHHH,2001-07-08 06:00,ZHHH 080600Z AUTO 25004KT 16SM 36/25 A2974 RMK SLP067 T03580249 57015 IEM_DS3505
ZHHH,2001-07-08 07:00,ZHHH 080700Z AUTO 25008KT 6SM 37/26 A2971 RMK T03700260 IEM_DS3505
ZHHH,2001-07-08 08:00,ZHHH 080800Z AUTO 25008KT 6SM 36/26 A2968 RMK T03600260 IEM_DS3505
ZHHH,2001-07-08 09:00,ZHHH 080900Z AUTO 27002KT 16SM 36/25 RMK SLP050 T03600247 57017 IEM_DS3505
ZHHH,2001-07-08 10:00,ZHHH 081000Z AUTO 25006KT 6SM 35/25 A2968 RMK T03500250 IEM_DS3505
ZHHH,2001-07-08 11:00,ZHHH 081100Z AUTO 24006KT 6SM 34/26 A2968 RMK T03400260 IEM_DS3505
ZHHH,2001-07-08 12:00,ZHHH 081200Z AUTO 32002KT 16SM 33/25 A2968 RMK SLP052 T03330250 52002 IEM_DS3505
ZHHH,2001-07-08 13:00,ZHHH 081300Z AUTO 16004KT 6SM 32/26 A2971 RMK T03200260 IEM_DS3505
ZHHH,2001-07-08 14:00,ZHHH 081400Z AUTO 19006KT 6SM 32/26 A2971 RMK T03200260 IEM_DS3505
ZHHH,2001-07-08 15:00,ZHHH 081500Z AUTO 18002KT 16SM 32/26 A2971 RMK SLP061 T03250258 52009 IEM_DS3505
ZHHH,2001-07-08 16:00,ZHHH 081600Z AUTO 19004KT 6SM 31/27 A2971 RMK T03100270 IEM_DS3505
ZHHH,2001-07-08 17:00,ZHHH 081700Z AUTO 19004KT 6SM 31/27 A2968 RMK T03100270 IEM_DS3505
ZHHH,2001-07-08 18:00,ZHHH 081800Z AUTO 25002KT 12SM 31/27 A2968 RMK SLP049 T03130269 57012 IEM_DS3505
ZHHH,2001-07-08 19:00,ZHHH 081900Z AUTO 6SM 30/27 A2968 RMK T03000270 IEM_DS3505
ZHHH,2001-07-08 20:00,ZHHH 082000Z AUTO 18004KT 6SM 30/27 A2968 RMK T03000270 IEM_DS3505
ZHHH,2001-07-08 21:00,ZHHH 082100Z AUTO 00000KT 12SM 30/27 A2968 RMK SLP047 T03050266 57002 IEM_DS3505
ZHHH,2001-07-08 22:00,ZHHH 082200Z AUTO 21008KT 6SM 30/27 A2968 RMK T03000270 IEM_DS3505
ZHHH,2001-07-08 23:00,ZHHH 082300Z AUTO 21008KT 6SM 30/27 A2971 RMK T03000270 IEM_DS3505
ZHHH,2001-07-09 00:00,ZHHH 090000Z AUTO 27002KT 12SM 32/26 A2971 RMK SLP059 T03210260 52012 IEM_DS3505
ZHHH,2001-07-09 01:00,ZHHH 090100Z AUTO 22014KT 6SM 33/26 A2971 RMK T03300260 IEM_DS3505
ZHHH,2001-07-09 02:00,ZHHH 090200Z AUTO 22014KT 6SM 34/27 A2971 RMK T03400270 IEM_DS3505
ZHHH,2001-07-09 03:00,ZHHH 090300Z AUTO 25006KT 16SM 35/26 A2971 RMK SLP057 T03500256 57002 IEM_DS3505
ZHHH,2001-07-09 04:00,ZHHH 090400Z AUTO 22014KT 6SM 35/27 A2968 RMK T03500270 IEM_DS3505
ZHHH,2001-07-09 05:00,ZHHH 090500Z AUTO 22014KT 6SM 36/26 A2968 RMK T03600260 IEM_DS3505
ZHHH,2001-07-09 06:00,ZHHH 090600Z AUTO 27008KT 16SM 37/25 A2965 RMK SLP042 T03680250 57015 IEM_DS3505
ZHHH,2001-07-09 07:00,ZHHH 090700Z AUTO 24016KT 6SM 37/26 A2965 RMK T03700260 IEM_DS3505
ZHHH,2001-07-09 08:00,ZHHH 090800Z AUTO 23014KT 6SM 37/26 A2962 RMK T03700260 IEM_DS3505
ZHHH,2001-07-09 09:00,ZHHH 090900Z AUTO 27004KT 14SM 37/25 A2959 RMK SLP025 T03680250 57017 IEM_DS3505
ZHHH,2001-07-09 10:00,ZHHH 091000Z AUTO 22012KT 6SM 36/25 A2959 RMK T03600250 IEM_DS3505
ZHHH,2001-07-09 11:00,ZHHH 091100Z AUTO 23010KT 6SM 35/25 A2959 RMK T03500250 IEM_DS3505
ZHHH,2001-07-09 12:00,ZHHH 091200Z AUTO 25004KT 16SM 34/25 A2962 RMK SLP025 T03380249 54000 IEM_DS3505
ZHHH,2001-07-09 13:00,ZHHH 091300Z AUTO 21006KT 6SM 32/26 A2962 RMK T03200260 IEM_DS3505
ZHHH,2001-07-09 14:00,ZHHH 091400Z AUTO 21008KT 6SM 32/26 A2962 RMK T03200260 IEM_DS3505
ZHHH,2001-07-09 15:00,ZHHH 091500Z AUTO 04002KT 16SM 32/26 A2962 RMK SLP028 T03210263 52003 IEM_DS3505
ZHHH,2001-07-09 16:00,ZHHH 091600Z AUTO 23004KT 6SM 32/27 A2962 RMK T03200270 IEM_DS3505
ZHHH,2001-07-09 17:00,ZHHH 091700Z AUTO 21006KT 6SM 31/27 A2959 RMK T03100270 IEM_DS3505
ZHHH,2001-07-09 18:00,ZHHH 091800Z AUTO 14002KT 11SM 31/26 A2959 RMK SLP019 T03130255 57009 IEM_DS3505
ZHHH,2001-07-09 19:00,ZHHH 091900Z AUTO 22006KT 6SM 31/26 A2959 RMK T03100260 IEM_DS3505
ZHHH,2001-07-09 20:00,ZHHH 092000Z AUTO 21006KT 6SM 30/26 A2959 RMK T03000260 IEM_DS3505
ZHHH,2001-07-09 21:00,ZHHH 092100Z AUTO 29002KT 12SM 30/25 A2959 RMK SLP022 T03040251 52003 IEM_DS3505
ZHHH,2001-07-09 22:00,ZHHH 092200Z AUTO 20008KT 6SM 30/26 A2959 RMK T03000260 IEM_DS3505
ZHHH,2001-07-09 23:00,ZHHH 092300Z AUTO 20008KT 6SM 30/26 A2959 RMK T03000260 IEM_DS3505
ZHHH,2001-07-10 00:00,ZHHH 100000Z AUTO 16004KT 11SM 32/26 A2962 RMK SLP026 T03190258 52004 IEM_DS3505
ZHHH,2001-07-10 01:00,ZHHH 100100Z AUTO 22012KT 6SM 33/26 A2962 RMK T03300260 IEM_DS3505
ZHHH,2001-07-10 02:00,ZHHH 100200Z AUTO 23010KT 6SM 34/26 A2962 RMK T03400260 IEM_DS3505
ZHHH,2001-07-10 03:00,ZHHH 100300Z AUTO 18004KT 11SM 35/25 A2962 RMK SLP027 T03510252 52001 IEM_DS3505
ZHHH,2001-07-10 04:00,ZHHH 100400Z AUTO 23010KT 6SM 36/27 A2959 RMK T03600270 IEM_DS3505
ZHHH,2001-07-10 06:00,ZHHH 100600Z AUTO 25006KT 14SM 36/25 A2956 RMK SLP011 T03650252 57016 IEM_DS3505
ZHHH,2001-07-10 07:00,ZHHH 100700Z AUTO 22012KT 6SM 37/27 A2956 RMK T03700270 IEM_DS3505
ZHHH,2001-07-10 08:00,ZHHH 100800Z AUTO 23010KT 6SM 37/26 A2953 RMK T03700260 IEM_DS3505
ZHHH,2001-07-10 09:00,ZHHH 100900Z AUTO 20006KT 16SM 37/25 A2953 RMK SLP003 T03680249 57008 IEM_DS3505
ZHHH,2001-07-10 10:00,ZHHH 101000Z AUTO 22008KT 6SM 35/26 A2956 RMK T03500260 IEM_DS3505
ZHHH,2001-07-10 11:00,ZHHH 101100Z AUTO 22006KT 6SM 35/26 A2956 RMK T03500260 IEM_DS3505
ZHHH,2001-07-10 12:00,ZHHH 101200Z AUTO 25002KT 12SM 34/25 A2956 RMK SLP008 T03420253 52005 IEM_DS3505
ZHHH,2001-07-10 13:00,ZHHH 101300Z AUTO 6SM 32/27 A2956 RMK T03200270 IEM_DS3505
ZHHH,2001-07-10 14:00,ZHHH 101400Z AUTO 6SM 32/27 A2959 RMK T03200270 IEM_DS3505
ZHHH,2001-07-10 15:00,ZHHH 101500Z AUTO 18002KT 11SM 33/26 A2959 RMK SLP018 T03280257 52010 IEM_DS3505
ZHHH,2001-07-10 16:00,ZHHH 101600Z AUTO 19004KT 6SM 32/26 A2959 RMK T03200260 IEM_DS3505
ZHHH,2001-07-10 17:00,ZHHH 101700Z AUTO 19004KT 6SM 31/27 A2956 RMK T03100270 IEM_DS3505
ZHHH,2001-07-10 18:00,ZHHH 101800Z AUTO 00000KT 16SM 32/27 A2956 RMK SLP008 T03150269 57010 IEM_DS3505
ZHHH,2001-07-10 19:00,ZHHH 101900Z AUTO 6SM 31/27 A2956 RMK T03100270 IEM_DS3505
ZHHH,2001-07-10 20:00,ZHHH 102000Z AUTO 6SM 31/27 A2956 RMK T03100270 IEM_DS3505
ZHHH,2001-07-10 21:00,ZHHH 102100Z AUTO 20002KT 16SM 31/26 A2953 RMK SLP004 T03130258 57004 IEM_DS3505
ZHHH,2001-07-10 22:00,ZHHH 102200Z AUTO 19006KT 6SM 30/27 A2953 RMK T03000270 IEM_DS3505
ZHHH,2001-07-10 23:00,ZHHH 102300Z AUTO 21006KT 6SM 31/26 A2956 RMK T03100260 IEM_DS3505
ZHHH,2001-07-11 00:00,ZHHH 110000Z AUTO 25004KT 16SM 33/25 A2956 RMK SLP008 T03290254 52004 IEM_DS3505
ZHHH,2001-07-11 01:00,ZHHH 110100Z AUTO 22012KT 6SM 33/26 A2956 RMK T03300260 IEM_DS3505
ZHHH,2001-07-11 02:00,ZHHH 110200Z AUTO 22008KT 6SM 34/27 A2956 RMK T03400270 IEM_DS3505
ZHHH,2001-07-11 03:00,ZHHH 110300Z AUTO 18004KT 16SM 36/25 A2956 RMK SLP007 T03560254 57001 IEM_DS3505
ZHHH,2001-07-11 04:00,ZHHH 110400Z AUTO 27006KT 6SM 35/27 A2956 RMK T03500270 IEM_DS3505
ZHHH,2001-07-11 05:00,ZHHH 110500Z AUTO 29006KT 6SM 35/27 A2953 RMK T03500270 IEM_DS3505
ZHHH,2001-07-11 06:00,ZHHH 110600Z AUTO 18004KT 11SM 36/27 A2953 RMK SLP996 T03620266 57011 IEM_DS3505
ZHHH,2001-07-11 07:00,ZHHH 110700Z AUTO 28006KT 6SM 35/28 A2950 RMK T03500280 IEM_DS3505
ZHHH,2001-07-11 08:00,ZHHH 110800Z AUTO 30006KT 6SM 35/27 A2950 RMK T03500270 IEM_DS3505
ZHHH,2001-07-11 09:00,ZHHH 110900Z AUTO 27004KT 11SM 36/28 A2950 RMK SLP986 T03560275 57010 IEM_DS3505
ZHHH,2001-07-11 10:00,ZHHH 111000Z AUTO 34010KT 6SM RMK IEM_DS3505
ZHHH,2001-07-11 11:00,ZHHH 111100Z AUTO 36008KT 6SM 32/25 A2950 RMK T03200250 IEM_DS3505
ZHHH,2001-07-11 12:00,ZHHH 111200Z AUTO 34004KT 11SM 31/24 A2953 RMK SLP002 T03110239 52016 IEM_DS3505
ZHHH,2001-07-11 13:00,ZHHH 111300Z AUTO 6SM 30/24 A2956 RMK T03000240 IEM_DS3505
ZHHH,2001-07-11 14:00,ZHHH 111400Z AUTO 6SM 29/23 A2956 RMK T02900230 IEM_DS3505
ZHHH,2001-07-11 15:00,ZHHH 111500Z AUTO 02002KT 9SM 29/22 A2956 RMK SLP010 T02920225 52008 IEM_DS3505
ZHHH,2001-07-11 18:00,ZHHH 111800Z AUTO 04004KT 6SM 28/24 A2956 RMK T02800240 IEM_DS3505
ZHHH,2001-07-11 19:00,ZHHH 111900Z AUTO 01002KT 6SM 27/24 A2953 RMK T02700240 IEM_DS3505
ZHHH,2001-07-11 20:00,ZHHH 112000Z AUTO 01002KT 6SM 27/24 A2953 RMK T02700240 IEM_DS3505
ZHHH,2001-07-11 21:00,ZHHH 112100Z AUTO 29002KT 11SM 28/24 A2953 RMK SLP004 T02770240 57002 IEM_DS3505
ZHHH,2001-07-11 22:00,ZHHH 112200Z AUTO 05004KT 6SM 27/23 A2953 RMK T02700230 IEM_DS3505
ZHHH,2001-07-11 23:00,ZHHH 112300Z AUTO 6SM 27/24 A2956 RMK T02700240 IEM_DS3505
ZHHH,2001-07-12 00:00,ZHHH 120000Z AUTO 34006KT 12SM 28/23 A2956 RMK SLP011 T02840233 52007 IEM_DS3505
ZHHH,2001-07-12 01:00,ZHHH 120100Z AUTO 6SM 30/24 A2956 RMK T03000240 IEM_DS3505
ZHHH,2001-07-12 02:00,ZHHH 120200Z AUTO 33010KT 6SM 30/24 A2959 RMK T03000240 IEM_DS3505
ZHHH,2001-07-12 03:00,ZHHH 120300Z AUTO 36006G19KT 12SM 28/23 A2959 RMK SLP023 T02830231 52012 IEM_DS3505
ZHHH,2001-07-12 04:00,ZHHH 120400Z AUTO 36008KT 6SM 27/24 A2959 RMK T02700240 IEM_DS3505
ZHHH,2001-07-12 05:00,ZHHH 120500Z AUTO 32010KT 6SM 29/25 A2956 RMK T02900250 IEM_DS3505
ZHHH,2001-07-12 06:00,ZHHH 120600Z AUTO 02004KT 6SM 26/25 A2956 RMK 60016 SLP000 T02600246 57023 IEM_DS3505
ZHHH,2001-07-12 07:00,ZHHH 120700Z AUTO 35006KT 6SM RMK IEM_DS3505
ZHHH,2001-07-12 08:00,ZHHH 120800Z AUTO 6SM 27/25 A2953 RMK T02700250 IEM_DS3505
ZHHH,2001-07-12 09:00,ZHHH 120900Z AUTO 34004KT 11SM 29/24 A2950 RMK SLP994 T02900242 57006 IEM_DS3505
ZHHH,2001-07-12 10:00,ZHHH 121000Z AUTO 31006KT 6SM 29/25 A2950 RMK T02900250 IEM_DS3505
ZHHH,2001-07-12 11:00,ZHHH 121100Z AUTO 31008KT 6SM 28/25 A2950 RMK T02800250 IEM_DS3505
ZHHH,2001-07-12 12:00,ZHHH 121200Z AUTO 27002KT 11SM 27/24 A2950 RMK 60000 SLP993 T02740241 57001 IEM_DS3505
ZHHH,2001-07-12 13:00,ZHHH 121300Z AUTO 6SM 27/24 A2953 RMK T02700240 IEM_DS3505
ZHHH,2001-07-12 14:00,ZHHH 121400Z AUTO 35004KT 6SM 26/24 A2956 RMK T02600240 IEM_DS3505
ZHHH,2001-07-12 15:00,ZHHH 121500Z AUTO 34004KT 11SM 27/24 A2956 RMK SLP008 T02710241 52015 IEM_DS3505
ZHHH,2001-07-12 16:00,ZHHH 121600Z AUTO 6SM 25/24 A2956 RMK T02500240 IEM_DS3505
ZHHH,2001-07-12 17:00,ZHHH 121700Z AUTO 36002KT 6SM 25/23 A2953 RMK T02500230 IEM_DS3505
ZHHH,2001-07-12 18:00,ZHHH 121800Z AUTO 02002KT 9SM 26/24 A2953 RMK SLP000 T02620238 57009 IEM_DS3505
ZHHH,2001-07-12 19:00,ZHHH 121900Z AUTO 6SM 25/23 A2953 RMK T02500230 IEM_DS3505
ZHHH,2001-07-12 20:00,ZHHH 122000Z AUTO 01002KT 6SM 25/23 A2953 RMK T02500230 IEM_DS3505
ZHHH,2001-07-12 21:00,ZHHH 122100Z AUTO 00000KT 9SM 26/24 A2953 RMK 70015 SLP998 T02570235 57001 IEM_DS3505
ZHHH,2001-07-12 22:00,ZHHH 122200Z AUTO 09004KT 6SM 24/23 A2953 RMK T02400230 IEM_DS3505
ZHHH,2001-07-12 23:00,ZHHH 122300Z AUTO 6SM 25/23 A2956 RMK T02500230 IEM_DS3505
ZHHH,2001-07-13 00:00,ZHHH 130000Z AUTO 04002KT 11SM 28/22 A2956 RMK 70015 SLP013 T02750225 52014 IEM_DS3505
ZHHH,2001-07-13 01:00,ZHHH 130100Z AUTO 6SM 28/23 A2956 RMK T02800230 IEM_DS3505
ZHHH,2001-07-13 02:00,ZHHH 130200Z AUTO 6SM 30/22 A2956 RMK T03000220 IEM_DS3505
ZHHH,2001-07-13 03:00,ZHHH 130300Z AUTO 16002KT 11SM 33/19 A2956 RMK SLP013 T03260187 52001 IEM_DS3505
ZHHH,2001-07-13 04:00,ZHHH 130400Z AUTO 30006KT 6SM 32/22 A2956 RMK T03200220 IEM_DS3505
ZHHH,2001-07-13 05:00,ZHHH 130500Z AUTO 33006KT 6SM 33/21 A2953 RMK T03300210 IEM_DS3505
ZHHH,2001-07-13 06:00,ZHHH 130600Z AUTO 34004KT 16SM 33/20 A2953 RMK SLP004 T03310195 57009 IEM_DS3505
ZHHH,2001-07-13 07:00,ZHHH 130700Z AUTO 6SM 34/22 A2953 RMK T03400220 IEM_DS3505
ZHHH,2001-07-13 08:00,ZHHH 130800Z AUTO 6SM 34/22 A2953 RMK T03400220 IEM_DS3505
ZHHH,2001-07-13 09:00,ZHHH 130900Z AUTO 27004KT 12SM 34/20 RMK SLP992 T03370200 57012 IEM_DS3505
ZHHH,2001-07-13 10:00,ZHHH 131000Z AUTO 16008KT 6SM 31/26 A2950 RMK T03100260 IEM_DS3505
ZHHH,2001-07-13 11:00,ZHHH 131100Z AUTO 14002KT 6SM 31/26 A2953 RMK T03100260 IEM_DS3505
ZHHH,2001-07-13 12:00,ZHHH 131200Z AUTO 14004KT 9SM 31/25 A2953 RMK SLP999 T03090250 52007 IEM_DS3505
ZHHH,2001-07-13 13:00,ZHHH 131300Z AUTO 16006KT 6SM 28/26 A2953 RMK T02800260 IEM_DS3505
ZHHH,2001-07-13 14:00,ZHHH 131400Z AUTO 6SM 28/26 A2953 RMK T02800260 IEM_DS3505
ZHHH,2001-07-13 15:00,ZHHH 131500Z AUTO 18004KT 9SM 29/26 A2953 RMK SLP003 T02890256 52004 IEM_DS3505
ZHHH,2001-07-13 16:00,ZHHH 131600Z AUTO 14002KT 6SM 27/26 A2956 RMK T02700260 IEM_DS3505
ZHHH,2001-07-13 17:00,ZHHH 131700Z AUTO 6SM 28/26 A2956 RMK T02800260 IEM_DS3505
ZHHH,2001-07-13 18:00,ZHHH 131800Z AUTO 00000KT 9SM 28/26 A2956 RMK SLP009 T02830263 52006 IEM_DS3505
ZHHH,2001-07-13 19:00,ZHHH 131900Z AUTO 18004KT 25SM 28/26 A2956 RMK T02800260 IEM_DS3505
ZHHH,2001-07-13 20:00,ZHHH 132000Z AUTO 24006KT 6SM 28/27 A2956 RMK T02800270 IEM_DS3505
ZHHH,2001-07-13 21:00,ZHHH 132100Z AUTO 22002KT 11SM 28/26 A2956 RMK SLP013 T02820261 52004 IEM_DS3505
ZHHH,2001-07-13 22:00,ZHHH 132200Z AUTO 25006KT 6SM 28/27 A2959 RMK T02800270 IEM_DS3505
ZHHH,2001-07-13 23:00,ZHHH 132300Z AUTO 28/27 A2959 RMK T02800270 IEM_DS3505
ZHHH,2001-07-14 00:00,ZHHH 140000Z AUTO 27004KT 7SM 28/26 A2962 RMK SLP029 T02820260 52016 IEM_DS3505
ZHHH,2001-07-14 01:00,ZHHH 140100Z AUTO 24010KT 6SM 28/26 A2962 RMK T02800260 IEM_DS3505
ZHHH,2001-07-14 02:00,ZHHH 140200Z AUTO 17010KT 6SM 26/24 A2962 RMK T02600240 IEM_DS3505
ZHHH,2001-07-14 03:00,ZHHH 140300Z AUTO 16004KT 6SM 26/24 A2965 RMK SLP038 T02650245 52008 IEM_DS3505
ZHHH,2001-07-14 04:00,ZHHH 140400Z AUTO 24006KT 6SM 24/21 A2965 RMK T02400210 IEM_DS3505
ZHHH,2001-07-14 05:00,ZHHH 140500Z AUTO 6SM 24/22 A2965 RMK T02400220 IEM_DS3505
ZHHH,2001-07-14 06:00,ZHHH 140600Z AUTO 18002KT 12SM 28/24 RMK 60000 SLP038 T02770240 54000 IEM_DS3505
ZHHH,2001-07-14 07:00,ZHHH 140700Z AUTO 6SM 26/24 A2962 RMK T02600240 IEM_DS3505
ZHHH,2001-07-14 08:00,ZHHH 140800Z AUTO 6SM RMK IEM_DS3505
ZHHH,2001-07-14 09:00,ZHHH 140900Z AUTO 11002KT 12SM 28/22 RMK SLP035 T02850215 57002 IEM_DS3505
ZHHH,2001-07-14 11:00,ZHHH 141100Z AUTO 6SM 27/24 A2962 RMK T02700240 IEM_DS3505
ZHHH,2001-07-14 12:00,ZHHH 141200Z AUTO 09002KT 11SM 27/23 A2968 RMK SLP048 T02710232 52012 IEM_DS3505
ZHHH,2001-07-14 14:00,ZHHH 141400Z AUTO 6SM 26/25 A2971 RMK T02600250 IEM_DS3505
ZHHH,2001-07-14 15:00,ZHHH 141500Z AUTO 00000KT 7SM 27/24 A2971 RMK SLP055 T02700238 52007 IEM_DS3505
ZHHH,2001-07-14 16:00,ZHHH 141600Z AUTO 10004KT 6SM 25/24 A2971 RMK T02500240 IEM_DS3505
ZHHH,2001-07-14 17:00,ZHHH 141700Z AUTO 11004KT 31SM 25/25 A2971 RMK T02500250 IEM_DS3505
ZHHH,2001-07-14 18:00,ZHHH 141800Z AUTO 00000KT 9SM 26/25 A2968 RMK SLP049 T02620248 57006 IEM_DS3505
ZHHH,2001-07-14 19:00,ZHHH 141900Z AUTO 07002KT 6SM 25/24 A2968 RMK T02500240 IEM_DS3505
ZHHH,2001-07-14 20:00,ZHHH 142000Z AUTO 07002KT 6SM 25/24 A2968 RMK T02500240 IEM_DS3505
ZHHH,2001-07-14 21:00,ZHHH 142100Z AUTO 29002KT 6SM 26/26 A2965 RMK 70000 SLP047 T02590255 57002 IEM_DS3505
ZHHH,2001-07-14 22:00,ZHHH 142200Z AUTO 03004KT 6SM 24/24 A2968 RMK T02400240 IEM_DS3505
ZHHH,2001-07-14 23:00,ZHHH 142300Z AUTO 06004KT 6SM 24/24 A2971 RMK T02400240 IEM_DS3505
ZHHH,2001-07-15 00:00,ZHHH 150000Z AUTO 07002KT 7SM 26/25 A2974 RMK 70000 SLP066 T02650250 52019 IEM_DS3505
ZHHH,2001-07-15 01:00,ZHHH 150100Z AUTO 07006KT 6SM 27/25 A2974 RMK T02700250 IEM_DS3505
ZHHH,2001-07-15 02:00,ZHHH 150200Z AUTO 6SM 29/25 A2971 RMK T02900250 IEM_DS3505
ZHHH,2001-07-15 03:00,ZHHH 150300Z AUTO 36002KT 12SM 31/24 A2971 RMK SLP060 T03090236 57006 IEM_DS3505
ZHHH,2001-07-15 04:00,ZHHH 150400Z AUTO 6SM 31/25 A2971 RMK T03100250 IEM_DS3505
ZHHH,2001-07-15 05:00,ZHHH 150500Z AUTO 32/25 A2968 RMK T03200250 IEM_DS3505
ZHHH,2001-07-15 06:00,ZHHH 150600Z AUTO 36002KT 12SM 33/23 A2968 RMK SLP045 T03290230 57014 IEM_DS3505
ZHHH,2001-07-15 07:00,ZHHH 150700Z AUTO 33/25 A2965 RMK T03300250 IEM_DS3505
ZHHH,2001-07-15 08:00,ZHHH 150800Z AUTO 6SM RMK IEM_DS3505
ZHHH,2001-07-15 09:00,ZHHH 150900Z AUTO 22002KT 12SM 34/24 A2962 RMK SLP033 T03420240 57012 IEM_DS3505
ZHHH,2001-07-15 10:00,ZHHH 151000Z AUTO 6SM 33/24 A2962 RMK T03300240 IEM_DS3505
ZHHH,2001-07-15 11:00,ZHHH 151100Z AUTO 30006KT 6SM 31/27 A2962 RMK T03100270 IEM_DS3505
ZHHH,2001-07-15 12:00,ZHHH 151200Z AUTO 27002KT 11SM 31/25 A2965 RMK SLP040 T03110250 52007 IEM_DS3505
ZHHH,2001-07-15 13:00,ZHHH 151300Z AUTO 6SM 30/26 A2968 RMK T03000260 IEM_DS3505
ZHHH,2001-07-15 14:00,ZHHH 151400Z AUTO 6SM RMK IEM_DS3505
ZHHH,2001-07-15 15:00,ZHHH 151500Z AUTO 16004KT 11SM 28/20 A2974 RMK SLP065 T02760204 52025 IEM_DS3505
ZHHH,2001-07-15 16:00,ZHHH 151600Z AUTO 15004KT 27/23 A2971 RMK T02700230 IEM_DS3505
ZHHH,2001-07-15 17:00,ZHHH 151700Z AUTO 12004KT 6SM 26/24 A2971 RMK T02600240 IEM_DS3505
ZHHH,2001-07-15 18:00,ZHHH 151800Z AUTO 09004KT 7SM 27/22 A2971 RMK SLP055 T02720215 57010 IEM_DS3505
ZHHH,2001-07-15 19:00,ZHHH 151900Z AUTO 10006KT 6SM 25/23 A2968 RMK T02500230 IEM_DS3505
ZHHH,2001-07-15 20:00,ZHHH 152000Z AUTO 08006KT 6SM 25/24 A2968 RMK T02500240 IEM_DS3505
ZHHH,2001-07-15 21:00,ZHHH 152100Z AUTO 07002KT 9SM 26/24 A2971 RMK SLP057 T02630243 52002 IEM_DS3505
ZHHH,2001-07-15 22:00,ZHHH 152200Z AUTO 07006KT 6SM 24/23 A2971 RMK T02400230 IEM_DS3505
ZHHH,2001-07-15 23:00,ZHHH 152300Z AUTO 10006KT 6SM 25/23 A2971 RMK T02500230 IEM_DS3505
ZHHH,2001-07-16 00:00,ZHHH 160000Z AUTO 11002KT 7SM 29/24 A2974 RMK SLP063 T02870243 52006 IEM_DS3505
ZHHH,2001-07-16 01:00,ZHHH 160100Z AUTO 6SM 28/25 A2974 RMK T02800250 IEM_DS3505
ZHHH,2001-07-16 02:00,ZHHH 160200Z AUTO 6SM 29/25 A2974 RMK T02900250 IEM_DS3505
ZHHH,2001-07-16 03:00,ZHHH 160300Z AUTO 27002KT 7SM 30/24 RMK SLP062 T03050239 57001 IEM_DS3505
ZHHH,2001-07-16 04:00,ZHHH 160400Z AUTO 7SM RMK IEM_DS3505
ZHHH,2001-07-16 05:00,ZHHH 160500Z AUTO 6SM RMK IEM_DS3505
ZHHH,2001-07-16 06:00,ZHHH 160600Z AUTO 04004KT 12SM 33/19 RMK SLP043 T03340193 57019 IEM_DS3505
ZHHH,2001-07-16 07:00,ZHHH 160700Z AUTO 6SM 33/24 A2965 RMK T03300240 IEM_DS3505
ZHHH,2001-07-16 08:00,ZHHH 160800Z AUTO 9SM 34/23 A2962 RMK T03400230 IEM_DS3505
ZHHH,2001-07-16 09:00,ZHHH 160900Z AUTO 16002KT 11SM 34/22 RMK SLP023 T03380224 57020 IEM_DS3505
ZHHH,2001-07-16 10:00,ZHHH 161000Z AUTO 6SM 33/23 A2959 RMK T03300230 IEM_DS3505
ZHHH,2001-07-16 11:00,ZHHH 161100Z AUTO 6SM 32/23 A2962 RMK T03200230 IEM_DS3505
ZHHH,2001-07-16 12:00,ZHHH 161200Z AUTO 25002KT 11SM 32/22 A2962 RMK SLP030 T03160217 52007 IEM_DS3505
ZHHH,2001-07-16 13:00,ZHHH 161300Z AUTO 04006KT 6SM 31/23 A2965 RMK T03100230 IEM_DS3505
ZHHH,2001-07-16 14:00,ZHHH 161400Z AUTO 06006KT 6SM 29/24 A2965 RMK T02900240 IEM_DS3505
ZHHH,2001-07-16 15:00,ZHHH 161500Z AUTO 09002KT 9SM 30/24 A2965 RMK SLP039 T02960237 52009 IEM_DS3505
ZHHH,2001-07-16 16:00,ZHHH 161600Z AUTO 10004KT 6SM 27/24 A2965 RMK T02700240 IEM_DS3505
ZHHH,2001-07-16 17:00,ZHHH 161700Z AUTO 13006KT 6SM 28/25 A2962 RMK T02800250 IEM_DS3505
ZHHH,2001-07-16 18:00,ZHHH 161800Z AUTO 16002KT 12SM 28/24 A2965 RMK SLP035 T02840238 57004 IEM_DS3505
ZHHH,2001-07-16 19:00,ZHHH 161900Z AUTO 14006KT 37SM 28/23 A2962 RMK T02800230 IEM_DS3505
ZHHH,2001-07-16 20:00,ZHHH 162000Z AUTO 15004KT 27/24 A2962 RMK T02700240 IEM_DS3505
ZHHH,2001-07-16 21:00,ZHHH 162100Z AUTO 11002KT 11SM 28/22 A2962 RMK SLP030 T02800219 57005 IEM_DS3505
ZHHH,2001-07-16 22:00,ZHHH 162200Z AUTO 13004KT 6SM 26/24 A2962 RMK T02600240 IEM_DS3505
ZHHH,2001-07-16 23:00,ZHHH 162300Z AUTO 08006KT 6SM 26/24 A2965 RMK T02600240 IEM_DS3505
ZHHH,2001-07-17 00:00,ZHHH 170000Z AUTO 11002KT 12SM 28/24 A2968 RMK SLP045 T02830241 52015 IEM_DS3505
ZHHH,2001-07-17 01:00,ZHHH 170100Z AUTO 6SM 28/24 A2968 RMK T02800240 IEM_DS3505
ZHHH,2001-07-17 02:00,ZHHH 170200Z AUTO 6SM 29/23 A2968 RMK T02900230 IEM_DS3505
ZHHH,2001-07-17 03:00,ZHHH 170300Z AUTO 11004KT 12SM 31/22 A2968 RMK SLP045 T03100223 54000 IEM_DS3505
ZHHH,2001-07-17 04:00,ZHHH 170400Z AUTO 12006KT 6SM 31/23 A2965 RMK T03100230 IEM_DS3505
ZHHH,2001-07-17 05:00,ZHHH 170500Z AUTO 6SM 32/23 A2965 RMK T03200230 IEM_DS3505
ZHHH,2001-07-17 06:00,ZHHH 170600Z AUTO 11004KT 11SM 33/22 A2962 RMK SLP029 T03310215 57016 IEM_DS3505
ZHHH,2001-07-17 07:00,ZHHH 170700Z AUTO 10006KT 6SM 33/23 A2959 RMK T03300230 IEM_DS3505
ZHHH,2001-07-17 08:00,ZHHH 170800Z AUTO 15008KT 9SM 34/23 A2956 RMK T03400230 IEM_DS3505
ZHHH,2001-07-17 09:00,ZHHH 170900Z AUTO 11004KT 11SM 33/22 A2956 RMK SLP010 T03330220 57019 IEM_DS3505
ZHHH,2001-07-17 10:00,ZHHH 171000Z AUTO 14006KT 6SM 33/23 A2956 RMK T03300230 IEM_DS3505
ZHHH,2001-07-17 12:00,ZHHH 171200Z AUTO 14004KT 11SM 31/23 A2959 RMK SLP017 T03120229 52007 IEM_DS3505
ZHHH,2001-07-17 13:00,ZHHH 171300Z AUTO 6SM 30/24 A2959 RMK T03000240 IEM_DS3505
ZHHH,2001-07-17 14:00,ZHHH 171400Z AUTO 14006KT RMK IEM_DS3505
ZHHH,2001-07-17 15:00,ZHHH 171500Z AUTO 14004KT 11SM 30/24 RMK SLP030 T02960240 52013 IEM_DS3505
ZHHH,2001-07-17 16:00,ZHHH 171600Z AUTO 6SM RMK IEM_DS3505
ZHHH,2001-07-17 17:00,ZHHH 171700Z AUTO 28/25 A2959 RMK T02800250 IEM_DS3505
ZHHH,2001-07-17 18:00,ZHHH 171800Z AUTO 09002KT 11SM 28/23 A2959 RMK SLP016 T02850227 57014 IEM_DS3505
ZHHH,2001-07-17 19:00,ZHHH 171900Z AUTO 3SM 27/24 A2959 RMK T02700240 IEM_DS3505
ZHHH,2001-07-17 20:00,ZHHH 172000Z AUTO 06004KT 6SM 26/25 A2956 RMK T02600250 IEM_DS3505
ZHHH,2001-07-17 21:00,ZHHH 172100Z AUTO 09002KT 12SM 27/24 A2956 RMK SLP011 T02730239 57005 IEM_DS3505
ZHHH,2001-07-17 22:00,ZHHH 172200Z AUTO 07004KT 12SM 26/25 A2956 RMK T02600250 IEM_DS3505
ZHHH,2001-07-17 23:00,ZHHH 172300Z AUTO 08006KT 6SM 26/25 A2959 RMK T02600250 IEM_DS3505
ZHHH,2001-07-18 00:00,ZHHH 180000Z AUTO 09004KT 11SM 29/24 A2959 RMK SLP019 T02900236 52008 IEM_DS3505
ZHHH,2001-07-18 01:00,ZHHH 180100Z AUTO 10008KT 6SM 29/23 A2959 RMK T02900230 IEM_DS3505
ZHHH,2001-07-18 02:00,ZHHH 180200Z AUTO 13008KT 6SM 31/23 A2962 RMK T03100230 IEM_DS3505
ZHHH,2001-07-18 03:00,ZHHH 180300Z AUTO 09006KT 12SM 31/23 A2962 RMK SLP029 T03080231 52010 IEM_DS3505
ZHHH,2001-07-18 04:00,ZHHH 180400Z AUTO 12010KT 6SM 31/25 A2962 RMK T03100250 IEM_DS3505
ZHHH,2001-07-18 05:00,ZHHH 180500Z AUTO 14008KT 6SM 31/25 A2959 RMK T03100250 IEM_DS3505
ZHHH,2001-07-18 06:00,ZHHH 180600Z AUTO 11004KT 12SM 33/24 A2956 RMK SLP011 T03300239 57018 IEM_DS3505
ZHHH,2001-07-18 07:00,ZHHH 180700Z AUTO 12012KT 6SM 33/24 A2956 RMK T03300240 IEM_DS3505
ZHHH,2001-07-18 08:00,ZHHH 180800Z AUTO 13010KT 6SM 33/23 A2953 RMK T03300230 IEM_DS3505
ZHHH,2001-07-18 09:00,ZHHH 180900Z AUTO 09004KT 12SM 33/23 A2953 RMK SLP996 T03280232 57015 IEM_DS3505
ZHHH,2001-07-18 10:00,ZHHH 181000Z AUTO 13008KT 6SM 32/24 A2953 RMK T03200240 IEM_DS3505
ZHHH,2001-07-18 11:00,ZHHH 181100Z AUTO 12008KT 6SM 31/25 A2953 RMK T03100250 IEM_DS3505
ZHHH,2001-07-18 12:00,ZHHH 181200Z AUTO 09004KT 11SM 31/23 A2956 RMK SLP006 T03130230 52010 IEM_DS3505
ZHHH,2001-07-18 13:00,ZHHH 181300Z AUTO 12006KT 6SM 29/25 A2959 RMK T02900250 IEM_DS3505
ZHHH,2001-07-18 14:00,ZHHH 181400Z AUTO 13006KT 6SM 29/26 A2959 RMK T02900260 IEM_DS3505
ZHHH,2001-07-18 15:00,ZHHH 181500Z AUTO 09002KT 11SM 30/25 A2959 RMK SLP019 T03010246 52013 IEM_DS3505
ZHHH,2001-07-18 16:00,ZHHH 181600Z AUTO 12006KT 6SM 28/25 A2959 RMK T02800250 IEM_DS3505
ZHHH,2001-07-18 17:00,ZHHH 181700Z AUTO 10006KT 6SM 28/25 A2959 RMK T02800250 IEM_DS3505
ZHHH,2001-07-18 18:00,ZHHH 181800Z AUTO 11002KT 11SM 29/24 A2959 RMK SLP018 T02890244 57001 IEM_DS3505
ZHHH,2001-07-18 20:00,ZHHH 182000Z AUTO 11004KT 6SM 27/26 A2959 RMK T02700260 IEM_DS3505
ZHHH,2001-07-18 21:00,ZHHH 182100Z AUTO 11002KT 11SM 28/25 A2959 RMK SLP015 T02810249 57003 IEM_DS3505
ZHHH,2001-07-18 22:00,ZHHH 182200Z AUTO 12006KT 6SM 27/25 A2959 RMK T02700250 IEM_DS3505
ZHHH,2001-07-18 23:00,ZHHH 182300Z AUTO 12006KT 6SM 28/26 A2959 RMK T02800260 IEM_DS3505
ZHHH,2001-07-19 00:00,ZHHH 190000Z AUTO 14004KT 12SM 30/25 A2962 RMK SLP025 T02970248 52010 IEM_DS3505
ZHHH,2001-07-19 01:00,ZHHH 190100Z AUTO 6SM 30/26 A2962 RMK T03000260 IEM_DS3505
ZHHH,2001-07-19 02:00,ZHHH 190200Z AUTO 13006KT 6SM 31/26 A2962 RMK T03100260 IEM_DS3505
ZHHH,2001-07-19 03:00,ZHHH 190300Z AUTO 22004KT 12SM 33/24 RMK SLP028 T03260240 52003 IEM_DS3505
ZHHH,2001-07-19 04:00,ZHHH 190400Z AUTO 16006KT 6SM 31/26 A2962 RMK T03100260 IEM_DS3505
ZHHH,2001-07-19 05:00,ZHHH 190500Z AUTO 12006KT 6SM 33/25 A2959 RMK T03300250 IEM_DS3505
ZHHH,2001-07-19 06:00,ZHHH 190600Z AUTO 07004KT 9SM 32/25 RMK 60003 SLP018 T03150254 57010 IEM_DS3505
ZHHH,2001-07-19 07:00,ZHHH 190700Z AUTO 33/25 A2956 RMK T03300250 IEM_DS3505
ZHHH,2001-07-19 08:00,ZHHH 190800Z AUTO 6SM 34/25 A2956 RMK T03400250 IEM_DS3505
ZHHH,2001-07-19 09:00,ZHHH 190900Z AUTO 20004KT 9SM 34/24 A2956 RMK SLP006 T03400244 57012 IEM_DS3505
ZHHH,2001-07-19 10:00,ZHHH 191000Z AUTO 16006KT 6SM 33/25 A2953 RMK T03300250 IEM_DS3505
ZHHH,2001-07-19 11:00,ZHHH 191100Z AUTO 16006KT 6SM RMK IEM_DS3505
ZHHH,2001-07-19 12:00,ZHHH 191200Z AUTO 18002KT 11SM 31/26 RMK SLP016 T03140255 52010 IEM_DS3505
ZHHH,2001-07-19 13:00,ZHHH 191300Z AUTO 6SM 30/26 A2959 RMK T03000260 IEM_DS3505
ZHHH,2001-07-19 14:00,ZHHH 191400Z AUTO 15006KT 6SM 30/26 A2962 RMK T03000260 IEM_DS3505
ZHHH,2001-07-19 15:00,ZHHH 191500Z AUTO 16004KT 9SM 30/25 A2962 RMK SLP027 T03030251 52011 IEM_DS3505
ZHHH,2001-07-19 16:00,ZHHH 191600Z AUTO 6SM 29/27 A2962 RMK T02900270 IEM_DS3505
ZHHH,2001-07-19 17:00,ZHHH 191700Z AUTO 12006KT 6SM 29/26 A2962 RMK T02900260 IEM_DS3505
ZHHH,2001-07-19 18:00,ZHHH 191800Z AUTO 00000KT 11SM 30/25 A2962 RMK SLP023 T02950252 57004 IEM_DS3505
ZHHH,2001-07-19 20:00,ZHHH 192000Z AUTO 12006KT 6SM 28/26 A2959 RMK T02800260 IEM_DS3505
ZHHH,2001-07-19 21:00,ZHHH 192100Z AUTO 18002KT 11SM 29/26 A2959 RMK 70003 SLP022 T02910265 57001 IEM_DS3505
ZHHH,2001-07-19 22:00,ZHHH 192200Z AUTO 12004KT 6SM 28/27 A2962 RMK T02800270 IEM_DS3505
ZHHH,2001-07-19 23:00,ZHHH 192300Z AUTO 14004KT 6SM 28/27 A2962 RMK T02800270 IEM_DS3505
ZHHH,2001-07-20 00:00,ZHHH 200000Z AUTO 14002KT 12SM 30/27 A2962 RMK 70003 SLP029 T02990270 52007 IEM_DS3505
ZHHH,2001-07-20 01:00,ZHHH 200100Z AUTO 6SM 30/27 A2962 RMK T03000270 IEM_DS3505
ZHHH,2001-07-20 02:00,ZHHH 200200Z AUTO 6SM RMK IEM_DS3505
ZHHH,2001-07-20 03:00,ZHHH 200300Z AUTO 27004KT 12SM 32/25 A2962 RMK SLP029 T03240250 54000 IEM_DS3505
ZHHH,2001-07-20 04:00,ZHHH 200400Z AUTO 33/26 A2962 RMK T03300260 IEM_DS3505
ZHHH,2001-07-20 05:00,ZHHH 200500Z AUTO 6SM 34/27 A2959 RMK T03400270 IEM_DS3505
ZHHH,2001-07-20 06:00,ZHHH 200600Z AUTO 16006KT 14SM 35/25 A2959 RMK SLP017 T03460251 57012 IEM_DS3505
ZHHH,2001-07-20 07:00,ZHHH 200700Z AUTO 6SM 34/26 A2956 RMK T03400260 IEM_DS3505
ZHHH,2001-07-20 08:00,ZHHH 200800Z AUTO 6SM 34/27 A2956 RMK T03400270 IEM_DS3505
ZHHH,2001-07-20 09:00,ZHHH 200900Z AUTO 18006KT 12SM 35/25 A2956 RMK SLP006 T03520254 57011 IEM_DS3505
ZHHH,2001-07-20 10:00,ZHHH 201000Z AUTO 18012KT 6SM 32/25 A2956 RMK T03200250 IEM_DS3505
ZHHH,2001-07-20 11:00,ZHHH 201100Z AUTO 19008KT 6SM 32/25 A2959 RMK T03200250 IEM_DS3505
ZHHH,2001-07-20 12:00,ZHHH 201200Z AUTO 16004KT 9SM 30/27 A2959 RMK SLP017 T03040268 52011 IEM_DS3505
ZHHH,2001-07-20 13:00,ZHHH 201300Z AUTO 18004KT 6SM 29/25 A2959 RMK T02900250 IEM_DS3505
ZHHH,2001-07-20 14:00,ZHHH 201400Z AUTO 14004KT 6SM 29/26 A2959 RMK T02900260 IEM_DS3505
ZHHH,2001-07-20 15:00,ZHHH 201500Z AUTO 18002KT 9SM 29/26 A2962 RMK SLP028 T02910255 52011 IEM_DS3505
ZHHH,2001-07-20 16:00,ZHHH 201600Z AUTO 14004KT 6SM 29/26 A2962 RMK T02900260 IEM_DS3505
ZHHH,2001-07-20 17:00,ZHHH 201700Z AUTO 15006KT 6SM 29/26 A2959 RMK T02900260 IEM_DS3505
ZHHH,2001-07-20 18:00,ZHHH 201800Z AUTO 14002KT 7SM 29/26 A2959 RMK SLP016 T02920262 57012 IEM_DS3505
ZHHH,2001-07-20 19:00,ZHHH 201900Z AUTO 6SM 29/27 A2959 RMK T02900270 IEM_DS3505
ZHHH,2001-07-20 20:00,ZHHH 202000Z AUTO 17004KT 6SM 29/26 A2959 RMK T02900260 IEM_DS3505
ZHHH,2001-07-20 21:00,ZHHH 202100Z AUTO 00000KT 7SM 29/26 A2959 RMK SLP020 T02880259 52004 IEM_DS3505
ZHHH,2001-07-20 22:00,ZHHH 202200Z AUTO 14004KT 6SM 29/26 A2962 RMK T02900260 IEM_DS3505
ZHHH,2001-07-20 23:00,ZHHH 202300Z AUTO 6SM 29/27 A2962 RMK T02900270 IEM_DS3505
ZHHH,2001-07-21 00:00,ZHHH 210000Z AUTO 11004KT 12SM 31/25 RMK SLP036 T03080254 52016 IEM_DS3505
ZHHH,2001-07-21 01:00,ZHHH 210100Z AUTO 19012KT 6SM 33/25 A2965 RMK T03300250 IEM_DS3505
ZHHH,2001-07-21 02:00,ZHHH 210200Z AUTO 21012KT 6SM 34/26 A2965 RMK T03400260 IEM_DS3505
ZHHH,2001-07-21 03:00,ZHHH 210300Z AUTO 22004KT 16SM 35/26 A2965 RMK SLP041 T03490255 52005 IEM_DS3505
ZHHH,2001-07-21 05:00,ZHHH 210500Z AUTO 23016KT 6SM 35/25 A2962 RMK T03500250 IEM_DS3505
ZHHH,2001-07-21 06:00,ZHHH 210600Z AUTO 20006KT 16SM 36/25 A2962 RMK SLP028 T03620247 57013 IEM_DS3505
ZHHH,2001-07-21 07:00,ZHHH 210700Z 23009MPS 200V260 CAVOK 36/25 Q1002 NOSIG
ZHHH,2001-07-21 08:00,ZHHH 210800Z 23008MPS 200V270 CAVOK 36/25 Q1002 NOSIG
ZHHH,2001-07-21 09:00,ZHHH 210900Z 23005MPS 200V270 CAVOK 36/25 Q1001 NOSIG
ZHHH,2001-07-21 10:00,ZHHH 211000Z 25004MPS 220V280 CAVOK 35/26 Q1002 NOSIG
ZHHH,2001-07-21 11:00,ZHHH 211100Z 24002MPS CAVOK 34/26 Q1002 NOSIG
ZHHH,2001-07-21 12:00,ZHHH 211200Z 26001MPS CAVOK 33/27 Q1003 NOSIG
ZHHH,2001-07-21 13:00,ZHHH 211300Z AUTO 21002KT 6SM 33/26 A2965 RMK T03300260 IEM_DS3505
ZHHH,2001-07-21 14:00,ZHHH 211400Z AUTO 6SM 32/26 A2968 RMK T03200260 IEM_DS3505
ZHHH,2001-07-21 15:00,ZHHH 211500Z AUTO 00000KT 9SM 33/26 A2968 RMK SLP047 T03270256 52016 IEM_DS3505
ZHHH,2001-07-21 16:00,ZHHH 211600Z AUTO 6SM 32/26 A2965 RMK T03200260 IEM_DS3505
ZHHH,2001-07-21 17:00,ZHHH 211700Z AUTO 6SM 31/26 A2965 RMK T03100260 IEM_DS3505
ZHHH,2001-07-21 18:00,ZHHH 211800Z AUTO 18002KT 11SM 32/26 A2968 RMK SLP045 T03150263 57002 IEM_DS3505
ZHHH,2001-07-21 19:00,ZHHH 211900Z AUTO 16006KT 6SM 30/27 A2968 RMK T03000270 IEM_DS3505
ZHHH,2001-07-21 20:00,ZHHH 212000Z AUTO 6SM 30/27 A2968 RMK T03000270 IEM_DS3505
ZHHH,2001-07-21 21:00,ZHHH 212100Z AUTO 16004KT 11SM 30/26 A2968 RMK SLP047 T03040258 52002 IEM_DS3505
ZHHH,2001-07-21 22:00,ZHHH 212200Z AUTO 6SM 30/25 A2968 RMK T03000250 IEM_DS3505
ZHHH,2001-07-21 23:00,ZHHH 212300Z AUTO 18006KT 6SM 30/25 A2968 RMK T03000250 IEM_DS3505
ZHHH,2001-07-22 00:00,ZHHH 220000Z AUTO 18004KT 11SM 32/24 A2971 RMK SLP059 T03220245 52012 IEM_DS3505
ZHHH,2001-07-22 01:00,ZHHH 220100Z AUTO 22012KT 6SM 33/25 A2971 RMK T03300250 IEM_DS3505
ZHHH,2001-07-22 02:00,ZHHH 220200Z AUTO 21012KT 6SM 34/25 A2971 RMK T03400250 IEM_DS3505
ZHHH,2001-07-22 03:00,ZHHH 220300Z AUTO 18004KT 11SM 35/24 A2971 RMK SLP063 T03480236 52004 IEM_DS3505
ZHHH,2001-07-22 04:00,ZHHH 220400Z AUTO 22012KT 6SM 35/24 A2971 RMK T03500240 IEM_DS3505
ZHHH,2001-07-22 05:00,ZHHH 220500Z AUTO 22012KT 6SM 36/25 A2971 RMK T03600250 IEM_DS3505
ZHHH,2001-07-22 06:00,ZHHH 220600Z AUTO 22006KT 16SM 36/23 A2968 RMK SLP055 T03650226 57008 IEM_DS3505
ZHHH,2001-07-22 07:00,ZHHH 220700Z AUTO 22010KT 6SM 37/25 A2968 RMK T03700250 IEM_DS3505
ZHHH,2001-07-22 08:00,ZHHH 220800Z AUTO 22012KT 6SM 37/24 A2965 RMK T03700240 IEM_DS3505
ZHHH,2001-07-22 09:00,ZHHH 220900Z AUTO 18004KT 16SM 37/23 A2962 RMK SLP034 T03730232 57021 IEM_DS3505
ZHHH,2001-07-22 10:00,ZHHH 221000Z AUTO 24010KT 6SM 36/25 A2965 RMK T03600250 IEM_DS3505
ZHHH,2001-07-22 11:00,ZHHH 221100Z AUTO 24008KT 6SM 35/25 A2965 RMK T03500250 IEM_DS3505
ZHHH,2001-07-22 12:00,ZHHH 221200Z AUTO 27004KT 11SM 34/25 RMK SLP055 T03450246 52021 IEM_DS3505
ZHHH,2001-07-22 13:00,ZHHH 221300Z AUTO 6SM 33/27 A2971 RMK T03300270 IEM_DS3505
ZHHH,2001-07-22 14:00,ZHHH 221400Z AUTO 6SM 32/27 A2974 RMK T03200270 IEM_DS3505
ZHHH,2001-07-22 15:00,ZHHH 221500Z AUTO 00000KT 12SM 33/25 A2974 RMK SLP066 T03280252 52011 IEM_DS3505
ZHHH,2001-07-22 16:00,ZHHH 221600Z AUTO 12004KT 6SM 32/27 A2974 RMK T03200270 IEM_DS3505
ZHHH,2001-07-22 17:00,ZHHH 221700Z AUTO 6SM 32/27 A2971 RMK T03200270 IEM_DS3505
ZHHH,2001-07-22 18:00,ZHHH 221800Z AUTO 00000KT 9SM 32/25 A2971 RMK SLP061 T03210253 57005 IEM_DS3505
ZHHH,2001-07-22 19:00,ZHHH 221900Z AUTO 6SM 30/28 A2971 RMK T03000280 IEM_DS3505
ZHHH,2001-07-22 20:00,ZHHH 222000Z AUTO 14002KT 6SM 30/28 A2971 RMK T03000280 IEM_DS3505
ZHHH,2001-07-22 21:00,ZHHH 222100Z AUTO 16002KT 9SM 31/27 A2971 RMK SLP057 T03100272 57004 IEM_DS3505
ZHHH,2001-07-22 22:00,ZHHH 222200Z AUTO 6SM 30/28 A2971 RMK T03000280 IEM_DS3505
ZHHH,2001-07-22 23:00,ZHHH 222300Z AUTO 31/28 A2971 RMK T03100280 IEM_DS3505
ZHHH,2001-07-23 00:00,ZHHH 230000Z AUTO 16002KT 14SM 32/27 A2971 RMK T03200270 IEM_DS3505
ZHHH,2001-07-23 01:00,ZHHH 230100Z AUTO 6SM 34/26 A2974 RMK T03400260 IEM_DS3505
ZHHH,2001-07-23 02:00,ZHHH 230200Z AUTO 22010KT 6SM 34/25 A2974 RMK T03400250 IEM_DS3505
ZHHH,2001-07-23 03:00,ZHHH 230300Z AUTO 16004KT 16SM 35/25 RMK SLP065 T03520249 54000 IEM_DS3505
ZHHH,2001-07-23 04:00,ZHHH 230400Z AUTO 22012KT 6SM RMK IEM_DS3505
ZHHH,2001-07-23 05:00,ZHHH 230500Z AUTO 23014KT RMK IEM_DS3505
ZHHH,2001-07-23 06:00,ZHHH 230600Z AUTO 25008KT 16SM 37/22 RMK SLP051 T03660224 57014 IEM_DS3505
ZHHH,2001-07-23 07:00,ZHHH 230700Z AUTO 23010KT 1/4SM RMK IEM_DS3505
ZHHH,2001-07-23 08:00,ZHHH 230800Z AUTO 24010KT 37SM RMK IEM_DS3505
ZHHH,2001-07-23 09:00,ZHHH 230900Z AUTO 25004KT 16SM 37/22 A2962 RMK SLP025 T03700221 57026 IEM_DS3505
ZHHH,2001-07-23 10:00,ZHHH 231000Z AUTO 28006KT 6SM 36/24 A2962 RMK T03600240 IEM_DS3505
ZHHH,2001-07-23 11:00,ZHHH 231100Z AUTO 28006KT 6SM 35/25 A2962 RMK T03500250 IEM_DS3505
ZHHH,2001-07-23 12:00,ZHHH 231200Z AUTO 32002KT 12SM 34/25 A2962 RMK SLP031 T03410251 52006 IEM_DS3505
ZHHH,2001-07-23 13:00,ZHHH 231300Z AUTO 6SM 33/27 A2965 RMK T03300270 IEM_DS3505
ZHHH,2001-07-23 14:00,ZHHH 231400Z AUTO 6SM 33/26 A2965 RMK T03300260 IEM_DS3505
ZHHH,2001-07-23 15:00,ZHHH 231500Z AUTO 32002KT 5SM 26/23 A2965 RMK SLP055 T02580233 52024 IEM_DS3505
ZHHH,2001-07-23 16:00,ZHHH 231600Z AUTO 6SM 27/25 A2965 RMK T02700250 IEM_DS3505
ZHHH,2001-07-23 17:00,ZHHH 231700Z AUTO 6SM 27/25 A2962 RMK T02700250 IEM_DS3505
ZHHH,2001-07-23 18:00,ZHHH 231800Z AUTO 00000KT 9SM 27/25 A2962 RMK 60102 SLP025 T02720250 57030 IEM_DS3505
ZHHH,2001-07-23 19:00,ZHHH 231900Z AUTO 07006KT 6SM 27/26 A2962 RMK T02700260 IEM_DS3505
ZHHH,2001-07-23 20:00,ZHHH 232000Z AUTO 6SM 27/26 A2962 RMK T02700260 IEM_DS3505
ZHHH,2001-07-23 21:00,ZHHH 232100Z AUTO 14002KT 6SM 29/27 A2962 RMK 70104 SLP028 T02930272 52003 IEM_DS3505
ZHHH,2001-07-23 22:00,ZHHH 232200Z AUTO 6SM 29/28 A2962 RMK T02900280 IEM_DS3505
ZHHH,2001-07-23 23:00,ZHHH 232300Z AUTO 14004G19KT 20SM RMK IEM_DS3505
ZHHH,2001-07-24 00:00,ZHHH 240000Z AUTO 14004KT 11SM 32/26 A2965 RMK 70104 SLP038 T03160262 52010 IEM_DS3505
ZHHH,2001-07-24 01:00,ZHHH 240100Z AUTO 19008KT 6SM 33/27 A2965 RMK T03300270 IEM_DS3505
ZHHH,2001-07-24 02:00,ZHHH 240200Z AUTO 18008KT 6SM 34/26 A2965 RMK T03400260 IEM_DS3505
ZHHH,2001-07-24 03:00,ZHHH 240300Z AUTO 18004KT 11SM 35/24 A2962 RMK SLP034 T03510244 57004 IEM_DS3505
ZHHH,2001-07-24 04:00,ZHHH 240400Z AUTO 21010KT 6SM RMK IEM_DS3505
ZHHH,2001-07-24 05:00,ZHHH 240500Z AUTO 19010KT 36/25 A2962 RMK T03600250 IEM_DS3505
ZHHH,2001-07-24 06:00,ZHHH 240600Z AUTO 18006KT 16SM 36/25 A2959 RMK SLP022 T03600249 57012 IEM_DS3505
ZHHH,2001-07-24 07:00,ZHHH 240700Z AUTO 21010KT 7SM 37/26 A2959 RMK T03700260 IEM_DS3505
ZHHH,2001-07-24 08:00,ZHHH 240800Z AUTO 22010KT 6SM 37/25 A2956 RMK T03700250 IEM_DS3505
ZHHH,2001-07-24 09:00,ZHHH 240900Z AUTO 27004KT 16SM 37/23 A2956 RMK SLP006 T03690233 57016 IEM_DS3505
ZHHH,2001-07-24 10:00,ZHHH 241000Z AUTO 6SM 36/25 A2953 RMK T03600250 IEM_DS3505
ZHHH,2001-07-24 11:00,ZHHH 241100Z AUTO 6SM 35/26 A2956 RMK T03500260 IEM_DS3505
ZHHH,2001-07-24 12:00,ZHHH 241200Z AUTO 04002KT 12SM 35/26 A2959 RMK SLP014 T03460263 52008 IEM_DS3505
ZHHH,2001-07-24 13:00,ZHHH 241300Z AUTO 13008KT 6SM 33/27 A2959 RMK T03300270 IEM_DS3505
ZHHH,2001-07-24 14:00,ZHHH 241400Z AUTO 12006KT 6SM 32/27 A2962 RMK T03200270 IEM_DS3505
ZHHH,2001-07-24 15:00,ZHHH 241500Z AUTO 14002KT 12SM 33/25 A2962 RMK SLP027 T03340254 52013 IEM_DS3505
ZHHH,2001-07-24 16:00,ZHHH 241600Z AUTO 12006KT 6SM 31/27 A2962 RMK T03100270 IEM_DS3505
ZHHH,2001-07-24 17:00,ZHHH 241700Z AUTO 13008G19KT 6SM 30/27 A2959 RMK T03000270 IEM_DS3505
ZHHH,2001-07-24 18:00,ZHHH 241800Z AUTO 16004KT 11SM 32/26 A2959 RMK SLP018 T03160265 57009 IEM_DS3505
ZHHH,2001-07-24 19:00,ZHHH 241900Z AUTO 14008KT 6SM 31/27 A2962 RMK T03100270 IEM_DS3505
ZHHH,2001-07-24 20:00,ZHHH 242000Z AUTO 6SM 30/27 A2962 RMK T03000270 IEM_DS3505
ZHHH,2001-07-24 21:00,ZHHH 242100Z AUTO 00000KT 11SM 31/27 A2962 RMK SLP031 T03080267 52013 IEM_DS3505
ZHHH,2001-07-24 22:00,ZHHH 242200Z AUTO 11006KT 6SM 29/27 A2962 RMK T02900270 IEM_DS3505
ZHHH,2001-07-25 00:00,ZHHH 250000Z AUTO 16002G16KT 12SM 33/26 A2965 RMK SLP042 T03290260 52011 IEM_DS3505
ZHHH,2001-07-25 01:00,ZHHH 250100Z AUTO 12006KT 9SM 31/28 A2968 RMK T03100280 IEM_DS3505
ZHHH,2001-07-25 02:00,ZHHH 250200Z AUTO 13010KT 6SM 33/28 A2968 RMK T03300280 IEM_DS3505
ZHHH,2001-07-25 03:00,ZHHH 250300Z AUTO 14004KT 12SM 35/26 RMK SLP049 T03490261 52007 IEM_DS3505
ZHHH,2001-07-25 04:00,ZHHH 250400Z AUTO 16010KT 35/28 A2968 RMK T03500280 IEM_DS3505
ZHHH,2001-07-25 05:00,ZHHH 250500Z AUTO 13012KT 35/26 A2968 RMK T03500260 IEM_DS3505
ZHHH,2001-07-25 06:00,ZHHH 250600Z AUTO 16004KT 11SM 36/26 A2965 RMK SLP037 T03550255 57012 IEM_DS3505
ZHHH,2001-07-25 07:00,ZHHH 250700Z AUTO 14006KT 19SM 35/26 A2962 RMK T03500260 IEM_DS3505
ZHHH,2001-07-25 08:00,ZHHH 250800Z AUTO 6SM 36/26 A2962 RMK T03600260 IEM_DS3505
ZHHH,2001-07-25 09:00,ZHHH 250900Z AUTO 29002KT 11SM 36/25 A2962 RMK SLP025 T03620248 57012 IEM_DS3505
ZHHH,2001-07-25 10:00,ZHHH 251000Z AUTO 6SM 35/25 A2962 RMK T03500250 IEM_DS3505
ZHHH,2001-07-25 11:00,ZHHH 251100Z AUTO 36002KT 6SM 35/26 A2965 RMK T03500260 IEM_DS3505
ZHHH,2001-07-25 12:00,ZHHH 251200Z AUTO 02002KT 11SM 34/26 A2965 RMK SLP042 T03450260 52017 IEM_DS3505
ZHHH,2001-07-25 13:00,ZHHH 251300Z AUTO 6SM 33/28 A2968 RMK T03300280 IEM_DS3505
ZHHH,2001-07-25 14:00,ZHHH 251400Z AUTO 6SM 33/27 A2968 RMK T03300270 IEM_DS3505
ZHHH,2001-07-25 15:00,ZHHH 251500Z AUTO 00000KT 11SM 31/25 RMK SLP057 T03100247 52015 IEM_DS3505
ZHHH,2001-07-25 16:00,ZHHH 251600Z AUTO 12004KT 6SM 31/27 A2968 RMK T03100270 IEM_DS3505
ZHHH,2001-07-25 17:00,ZHHH 251700Z AUTO 10006KT 6SM 30/27 A2968 RMK T03000270 IEM_DS3505
ZHHH,2001-07-25 18:00,ZHHH 251800Z AUTO 14002KT 11SM 30/26 A2968 RMK SLP050 T03050261 57007 IEM_DS3505
ZHHH,2001-07-25 19:00,ZHHH 251900Z AUTO 6SM 29/28 A2968 RMK T02900280 IEM_DS3505
ZHHH,2001-07-25 20:00,ZHHH 252000Z AUTO 10006KT 6SM 29/27 A2968 RMK T02900270 IEM_DS3505
ZHHH,2001-07-25 21:00,ZHHH 252100Z AUTO 00000KT 9SM 30/27 RMK SLP054 T03010267 52004 IEM_DS3505
ZHHH,2001-07-25 22:00,ZHHH 252200Z AUTO 11006KT 6SM RMK IEM_DS3505
ZHHH,2001-07-25 23:00,ZHHH 252300Z AUTO 11008KT 6SM RMK IEM_DS3505
ZHHH,2001-07-26 00:00,ZHHH 260000Z AUTO 16004KT 12SM 32/26 RMK SLP061 T03250257 52007 IEM_DS3505
ZHHH,2001-07-26 01:00,ZHHH 260100Z AUTO 14008KT 3SM 32/28 A2971 RMK T03200280 IEM_DS3505
ZHHH,2001-07-26 02:00,ZHHH 260200Z AUTO 16008KT 6SM 33/26 A2971 RMK T03300260 IEM_DS3505
ZHHH,2001-07-26 03:00,ZHHH 260300Z AUTO 11006KT 16SM 35/24 A2971 RMK SLP064 T03490245 52003 IEM_DS3505
ZHHH,2001-07-26 04:00,ZHHH 260400Z AUTO 6SM 35/25 A2971 RMK T03500250 IEM_DS3505
ZHHH,2001-07-26 05:00,ZHHH 260500Z AUTO 21008KT 36/25 A2968 RMK T03600250 IEM_DS3505
ZHHH,2001-07-26 06:00,ZHHH 260600Z AUTO 25004KT 16SM 36/22 RMK SLP044 T03640222 57020 IEM_DS3505
ZHHH,2001-07-26 07:00,ZHHH 260700Z AUTO 21006KT 6SM RMK IEM_DS3505
ZHHH,2001-07-26 09:00,ZHHH 260900Z AUTO 11006KT 16SM 34/24 A2962 RMK SLP028 T03440239 57016 IEM_DS3505
ZHHH,2001-07-26 10:00,ZHHH 261000Z AUTO 14006KT 6SM 33/25 A2962 RMK T03300250 IEM_DS3505
ZHHH,2001-07-26 11:00,ZHHH 261100Z AUTO 6SM 33/26 A2965 RMK T03300260 IEM_DS3505
ZHHH,2001-07-26 12:00,ZHHH 261200Z AUTO 14002KT 11SM 32/24 A2965 RMK SLP036 T03250239 52008 IEM_DS3505
ZHHH,2001-07-26 13:00,ZHHH 261300Z AUTO 6SM 31/27 A2965 RMK T03100270 IEM_DS3505
ZHHH,2001-07-26 14:00,ZHHH 261400Z AUTO 12008KT 6SM 30/26 A2968 RMK T03000260 IEM_DS3505
ZHHH,2001-07-26 15:00,ZHHH 261500Z AUTO 18004KT 11SM 31/25 A2968 RMK SLP049 T03130254 52013 IEM_DS3505
ZHHH,2001-07-26 16:00,ZHHH 261600Z AUTO 6SM 30/27 A2968 RMK T03000270 IEM_DS3505
ZHHH,2001-07-26 17:00,ZHHH 261700Z AUTO 16004KT 6SM 29/27 A2965 RMK T02900270 IEM_DS3505
ZHHH,2001-07-26 18:00,ZHHH 261800Z AUTO 11004KT 11SM 30/26 A2965 RMK SLP038 T03050255 57011 IEM_DS3505
ZHHH,2001-07-26 19:00,ZHHH 261900Z AUTO 6SM 29/27 A2962 RMK T02900270 IEM_DS3505
ZHHH,2001-07-26 20:00,ZHHH 262000Z AUTO 6SM 29/27 A2962 RMK T02900270 IEM_DS3505
ZHHH,2001-07-26 21:00,ZHHH 262100Z AUTO 16002KT 11SM 30/25 A2962 RMK SLP032 T02950252 57006 IEM_DS3505
ZHHH,2001-07-26 22:00,ZHHH 262200Z AUTO 13004KT 6SM 28/27 A2962 RMK T02800270 IEM_DS3505
ZHHH,2001-07-26 23:00,ZHHH 262300Z AUTO 14006KT 15SM 29/28 A2965 RMK T02900280 IEM_DS3505
ZHHH,2001-07-27 00:00,ZHHH 270000Z AUTO 11004KT 12SM 31/24 A2965 RMK SLP038 T03130242 52006 IEM_DS3505
ZHHH,2001-07-27 01:00,ZHHH 270100Z AUTO 20010KT 6SM 32/25 A2965 RMK T03200250 IEM_DS3505
ZHHH,2001-07-27 02:00,ZHHH 270200Z AUTO 21008KT 6SM RMK IEM_DS3505
ZHHH,2001-07-27 03:00,ZHHH 270300Z AUTO 18006KT 16SM 34/24 A2965 RMK SLP037 T03390244 57001 IEM_DS3505
ZHHH,2001-07-27 04:00,ZHHH 270400Z AUTO 22010KT 6SM 35/26 A2965 RMK T03500260 IEM_DS3505
ZHHH,2001-07-27 05:00,ZHHH 270500Z AUTO 22012KT 6SM 35/25 A2962 RMK T03500250 IEM_DS3505
ZHHH,2001-07-27 06:00,ZHHH 270600Z AUTO 18004KT 17SM 35/24 RMK SLP024 T03500237 57013 IEM_DS3505
ZHHH,2001-07-27 07:00,ZHHH 270700Z AUTO 23010KT 6SM RMK IEM_DS3505
ZHHH,2001-07-27 08:00,ZHHH 270800Z AUTO 23008KT 6SM 36/25 A2959 RMK T03600250 IEM_DS3505
ZHHH,2001-07-27 09:00,ZHHH 270900Z AUTO 27004KT 16SM 36/25 A2956 RMK SLP013 T03610250 57011 IEM_DS3505
ZHHH,2001-07-27 10:00,ZHHH 271000Z AUTO 25008KT 6SM 35/26 A2956 RMK T03500260 IEM_DS3505
ZHHH,2001-07-27 11:00,ZHHH 271100Z AUTO 24006KT 6SM RMK IEM_DS3505
ZHHH,2001-07-27 12:00,ZHHH 271200Z AUTO 27002KT 12SM 34/24 RMK SLP023 T03390242 52010 IEM_DS3505
ZHHH,2001-07-27 13:00,ZHHH 271300Z AUTO 12SM 31/26 A2962 RMK T03100260 IEM_DS3505
ZHHH,2001-07-27 14:00,ZHHH 271400Z AUTO 14002KT 6SM 32/27 A2962 RMK T03200270 IEM_DS3505
ZHHH,2001-07-27 15:00,ZHHH 271500Z AUTO 14002KT 11SM 32/25 A2962 RMK SLP031 T03240252 52008 IEM_DS3505
ZHHH,2001-07-27 16:00,ZHHH 271600Z AUTO 6SM 31/28 A2962 RMK T03100280 IEM_DS3505
ZHHH,2001-07-27 17:00,ZHHH 271700Z AUTO 6SM 31/28 A2962 RMK T03100280 IEM_DS3505
ZHHH,2001-07-27 18:00,ZHHH 271800Z AUTO 14002KT 11SM 31/26 A2959 RMK SLP023 T03090263 57008 IEM_DS3505
ZHHH,2001-07-27 19:00,ZHHH 271900Z AUTO 14004KT 6SM 30/27 A2959 RMK T03000270 IEM_DS3505
ZHHH,2001-07-27 20:00,ZHHH 272000Z AUTO 16004KT 6SM 30/27 A2959 RMK T03000270 IEM_DS3505
ZHHH,2001-07-27 21:00,ZHHH 272100Z AUTO 11002KT 11SM 30/25 A2959 RMK SLP020 T03000254 57003 IEM_DS3505
ZHHH,2001-07-27 22:00,ZHHH 272200Z AUTO 6SM 30/25 A2962 RMK T03000250 IEM_DS3505
ZHHH,2001-07-27 23:00,ZHHH 272300Z AUTO 16004KT 6SM 30/26 A2962 RMK T03000260 IEM_DS3505
ZHHH,2001-07-28 00:00,ZHHH 280000Z AUTO 20004KT 16SM 32/24 A2965 RMK SLP037 T03200244 52017 IEM_DS3505
ZHHH,2001-07-28 01:00,ZHHH 280100Z AUTO 22014KT 6SM 33/25 A2965 RMK T03300250 IEM_DS3505
ZHHH,2001-07-28 02:00,ZHHH 280200Z AUTO 22012KT 6SM 33/25 A2965 RMK T03300250 IEM_DS3505
ZHHH,2001-07-28 03:00,ZHHH 280300Z AUTO 20006KT 16SM 34/25 A2965 RMK SLP037 T03450246 54000 IEM_DS3505
ZHHH,2001-07-28 04:00,ZHHH 280400Z AUTO 21010KT 6SM 34/26 A2962 RMK T03400260 IEM_DS3505
ZHHH,2001-07-28 05:00,ZHHH 280500Z AUTO 23012KT 35/26 A2962 RMK T03500260 IEM_DS3505
ZHHH,2001-07-28 06:00,ZHHH 280600Z AUTO 22006KT 16SM 36/26 A2959 RMK SLP025 T03570255 57012 IEM_DS3505
ZHHH,2001-07-28 07:00,ZHHH 280700Z AUTO 23014G31KT RMK IEM_DS3505
ZHHH,2001-07-28 08:00,ZHHH 280800Z AUTO 25010KT 6SM 36/25 A2956 RMK T03600250 IEM_DS3505
ZHHH,2001-07-28 09:00,ZHHH 280900Z AUTO 22004KT 16SM 35/25 A2956 RMK SLP009 T03520250 57016 IEM_DS3505
ZHHH,2001-07-28 10:00,ZHHH 281000Z AUTO 21008KT 6SM 34/26 A2956 RMK T03400260 IEM_DS3505
ZHHH,2001-07-28 11:00,ZHHH 281100Z AUTO 23004KT 6SM 34/26 A2959 RMK T03400260 IEM_DS3505
ZHHH,2001-07-28 12:00,ZHHH 281200Z AUTO 20002KT 9SM 34/25 A2962 RMK SLP027 T03360246 52018 IEM_DS3505
ZHHH,2001-07-28 13:00,ZHHH 281300Z AUTO 6SM 32/27 A2962 RMK T03200270 IEM_DS3505
ZHHH,2001-07-28 14:00,ZHHH 281400Z AUTO 6SM 32/26 A2962 RMK T03200260 IEM_DS3505
ZHHH,2001-07-28 15:00,ZHHH 281500Z AUTO 14002KT 9SM 33/25 A2962 RMK SLP030 T03270254 52003 IEM_DS3505
ZHHH,2001-07-28 16:00,ZHHH 281600Z AUTO 6SM 31/27 A2962 RMK T03100270 IEM_DS3505
ZHHH,2001-07-28 17:00,ZHHH 281700Z AUTO 16SM 31/27 A2962 RMK T03100270 IEM_DS3505
ZHHH,2001-07-28 18:00,ZHHH 281800Z AUTO 14002KT 9SM 32/25 A2959 RMK SLP021 T03210253 57009 IEM_DS3505
ZHHH,2001-07-28 19:00,ZHHH 281900Z AUTO 07006KT 6SM 29/27 A2959 RMK T02900270 IEM_DS3505
ZHHH,2001-07-28 20:00,ZHHH 282000Z AUTO 07008KT 6SM 28/26 A2959 RMK T02800260 IEM_DS3505
ZHHH,2001-07-28 21:00,ZHHH 282100Z AUTO 07002KT 7SM 30/27 A2959 RMK SLP023 T02990272 52002 IEM_DS3505
ZHHH,2001-07-28 22:00,ZHHH 282200Z AUTO 11006G16KT 6SM 28/26 A2962 RMK T02800260 IEM_DS3505
ZHHH,2001-07-28 23:00,ZHHH 282300Z AUTO 11006KT 6SM 28/27 A2965 RMK T02800270 IEM_DS3505
ZHHH,2001-07-29 00:00,ZHHH 290000Z AUTO 14004G17KT 14SM 33/26 RMK SLP038 T03300257 52015 IEM_DS3505
ZHHH,2001-07-29 01:00,ZHHH 290100Z AUTO 16004KT 6SM RMK IEM_DS3505
ZHHH,2001-07-29 02:00,ZHHH 290200Z AUTO 21012KT 6SM 35/26 A2965 RMK T03500260 IEM_DS3505
ZHHH,2001-07-29 03:00,ZHHH 290300Z AUTO 22004KT 16SM 36/24 A2965 RMK SLP036 T03560244 57002 IEM_DS3505
ZHHH,2001-07-29 04:00,ZHHH 290400Z AUTO 22010KT 6SM 36/26 A2962 RMK T03600260 IEM_DS3505
ZHHH,2001-07-29 05:00,ZHHH 290500Z AUTO 24010KT 6SM 37/25 A2962 RMK T03700250 IEM_DS3505
ZHHH,2001-07-29 06:00,ZHHH 290600Z AUTO 27006KT 16SM 37/23 A2959 RMK SLP020 T03700231 57016 IEM_DS3505
ZHHH,2001-07-29 08:00,ZHHH 290800Z AUTO 26010KT 6SM 37/25 A2956 RMK T03700250 IEM_DS3505
ZHHH,2001-07-29 09:00,ZHHH 290900Z AUTO 29004KT 12SM 36/24 A2956 RMK SLP008 T03620243 57012 IEM_DS3505
ZHHH,2001-07-29 10:00,ZHHH 291000Z AUTO 28008KT 6SM 35/25 A2956 RMK T03500250 IEM_DS3505
ZHHH,2001-07-29 11:00,ZHHH 291100Z AUTO 30004KT 6SM 34/27 A2956 RMK T03400270 IEM_DS3505
ZHHH,2001-07-29 12:00,ZHHH 291200Z AUTO 29002KT 11SM 34/24 A2959 RMK SLP017 T03420236 52009 IEM_DS3505
ZHHH,2001-07-29 13:00,ZHHH 291300Z AUTO 13004KT 6SM 32/28 A2959 RMK T03200280 IEM_DS3505
ZHHH,2001-07-29 14:00,ZHHH 291400Z AUTO 12004KT 6SM 32/27 A2959 RMK T03200270 IEM_DS3505
ZHHH,2001-07-29 15:00,ZHHH 291500Z AUTO 00000KT 11SM 34/24 A2959 RMK SLP022 T03360235 52005 IEM_DS3505
ZHHH,2001-07-29 16:00,ZHHH 291600Z AUTO 13006KT 6SM 32/28 A2959 RMK T03200280 IEM_DS3505
ZHHH,2001-07-29 17:00,ZHHH 291700Z AUTO 13004KT 6SM 31/27 A2959 RMK T03100270 IEM_DS3505
ZHHH,2001-07-29 18:00,ZHHH 291800Z AUTO 25002KT 9SM 32/26 A2956 RMK SLP014 T03240263 57008 IEM_DS3505
ZHHH,2001-07-29 19:00,ZHHH 291900Z AUTO 13004KT 6SM 31/27 A2956 RMK T03100270 IEM_DS3505
ZHHH,2001-07-29 20:00,ZHHH 292000Z AUTO 6SM 30/27 A2956 RMK T03000270 IEM_DS3505
ZHHH,2001-07-29 21:00,ZHHH 292100Z AUTO 16002KT 9SM 31/28 A2956 RMK SLP011 T03070275 57003 IEM_DS3505
ZHHH,2001-07-29 22:00,ZHHH 292200Z AUTO 6SM 29/27 A2956 RMK T02900270 IEM_DS3505
ZHHH,2001-07-29 23:00,ZHHH 292300Z AUTO 10006KT 6SM 29/28 A2959 RMK T02900280 IEM_DS3505
ZHHH,2001-07-30 00:00,ZHHH 300000Z AUTO 18004KT 11SM 32/27 A2959 RMK SLP019 T03200270 52008 IEM_DS3505
ZHHH,2001-07-30 01:00,ZHHH 300100Z AUTO 34/29 A2959 RMK T03400290 IEM_DS3505
ZHHH,2001-07-30 02:00,ZHHH 300200Z AUTO 23010KT 6SM 35/26 A2962 RMK T03500260 IEM_DS3505
ZHHH,2001-07-30 03:00,ZHHH 300300Z AUTO 25004KT 12SM 36/25 A2959 RMK SLP022 T03650249 52003 IEM_DS3505
ZHHH,2001-07-30 04:00,ZHHH 300400Z AUTO 25010KT 6SM 37/26 A2959 RMK T03700260 IEM_DS3505
ZHHH,2001-07-30 05:00,ZHHH 300500Z AUTO 25012KT 6SM 37/26 A2956 RMK T03700260 IEM_DS3505
ZHHH,2001-07-30 06:00,ZHHH 300600Z AUTO 25004KT 14SM 38/24 RMK SLP009 T03770236 57013 IEM_DS3505
ZHHH,2001-07-30 07:00,ZHHH 300700Z AUTO 25012KT 6SM 37/26 A2953 RMK T03700260 IEM_DS3505
ZHHH,2001-07-30 08:00,ZHHH 300800Z AUTO 35016G25KT 6SM A2959 RMK IEM_DS3505
ZHHH,2001-07-30 09:00,ZHHH 300900Z AUTO 04004KT 11SM 31/24 A2956 RMK SLP009 T03080238 54000 IEM_DS3505
ZHHH,2001-07-30 10:00,ZHHH 301000Z AUTO 36010KT 6SM 28/27 A2956 RMK T02800270 IEM_DS3505
ZHHH,2001-07-30 11:00,ZHHH 301100Z AUTO 02008KT 6SM 27/26 A2959 RMK T02700260 IEM_DS3505
ZHHH,2001-07-30 12:00,ZHHH 301200Z AUTO 36004KT 12SM 29/24 RMK SLP026 T02880242 52017 IEM_DS3505
ZHHH,2001-07-30 13:00,ZHHH 301300Z AUTO 04010KT 6SM RMK IEM_DS3505
ZHHH,2001-07-30 14:00,ZHHH 301400Z AUTO 03008KT 6SM 25/23 A2965 RMK T02500230 IEM_DS3505
ZHHH,2001-07-30 15:00,ZHHH 301500Z AUTO 04004KT 9SM 26/22 A2965 RMK SLP039 T02590225 52013 IEM_DS3505
ZHHH,2001-07-30 16:00,ZHHH 301600Z AUTO 07008KT 6SM 24/23 A2965 RMK T02400230 IEM_DS3505
ZHHH,2001-07-30 17:00,ZHHH 301700Z AUTO 6SM 24/22 A2962 RMK T02400220 IEM_DS3505
ZHHH,2001-07-30 18:00,ZHHH 301800Z AUTO 34002KT 9SM 25/23 A2962 RMK SLP029 T02540230 57010 IEM_DS3505
ZHHH,2001-07-30 19:00,ZHHH 301900Z AUTO 35006KT 6SM 24/22 A2962 RMK T02400220 IEM_DS3505
ZHHH,2001-07-30 20:00,ZHHH 302000Z AUTO 36006KT 6SM 24/22 A2962 RMK T02400220 IEM_DS3505
ZHHH,2001-07-30 21:00,ZHHH 302100Z AUTO 32004KT 7SM 24/22 A2962 RMK 70003 SLP036 T02390220 52006 IEM_DS3505
ZHHH,2001-07-30 22:00,ZHHH 302200Z AUTO 35008KT 4SM 22/22 A2965 RMK T02200220 IEM_DS3505
ZHHH,2001-07-30 23:00,ZHHH 302300Z AUTO 04006KT 7SM 22/22 A2968 RMK T02200220 IEM_DS3505
ZHHH,2001-07-31 00:00,ZHHH 310000Z AUTO 02004KT 11SM 23/22 A2968 RMK 60039 SLP047 T02340219 52011 IEM_DS3505
ZHHH,2001-07-31 01:00,ZHHH 310100Z AUTO 05010KT 7SM 23/22 A2968 RMK T02300220 IEM_DS3505
ZHHH,2001-07-31 02:00,ZHHH 310200Z AUTO 7SM 24/22 A2974 RMK T02400220 IEM_DS3505
ZHHH,2001-07-31 03:00,ZHHH 310300Z AUTO 04002KT 11SM 25/22 A2971 RMK SLP063 T02460221 52016 IEM_DS3505
ZHHH,2001-07-31 04:00,ZHHH 310400Z AUTO 05010KT 7SM 26/22 A2971 RMK T02600220 IEM_DS3505
ZHHH,2001-07-31 05:00,ZHHH 310500Z AUTO 02008KT 7SM 26/22 A2968 RMK T02600220 IEM_DS3505
ZHHH,2001-07-31 06:00,ZHHH 310600Z AUTO 32004KT 11SM 28/23 A2965 RMK 60008 SLP042 T02780227 57021 IEM_DS3505
ZHHH,2001-07-31 07:00,ZHHH 310700Z AUTO 01006KT 7SM 28/22 A2962 RMK T02800220 IEM_DS3505
ZHHH,2001-07-31 08:00,ZHHH 310800Z AUTO 7SM 29/22 A2962 RMK T02900220 IEM_DS3505
ZHHH,2001-07-31 09:00,ZHHH 310900Z AUTO 07002KT 11SM 28/22 A2959 RMK SLP020 T02830220 57022 IEM_DS3505
ZHHH,2001-07-31 10:00,ZHHH 311000Z AUTO 6SM 29/22 A2959 RMK T02900220 IEM_DS3505
ZHHH,2001-07-31 11:00,ZHHH 311100Z AUTO 6SM 28/23 A2962 RMK T02800230 IEM_DS3505
ZHHH,2001-07-31 12:00,ZHHH 311200Z AUTO 16002KT 9SM 28/23 A2965 RMK SLP036 T02760226 52016 IEM_DS3505
ZHHH,2001-07-31 13:00,ZHHH 311300Z AUTO 6SM 27/23 A2965 RMK T02700230 IEM_DS3505
ZHHH,2001-07-31 14:00,ZHHH 311400Z AUTO 24004KT 4SM 27/24 A2968 RMK T02700240 IEM_DS3505
ZHHH,2001-07-31 15:00,ZHHH 311500Z AUTO 29006KT 11SM 26/24 A2965 RMK SLP043 T02620236 52007 IEM_DS3505
ZHHH,2001-07-31 16:00,ZHHH 311600Z AUTO 32006KT 4SM 25/24 A2965 RMK T02500240 IEM_DS3505
ZHHH,2001-07-31 17:00,ZHHH 311700Z AUTO 33006KT 3SM 25/24 A2965 RMK T02500240 IEM_DS3505
ZHHH,2001-07-31 18:00,ZHHH 311800Z AUTO 29006KT 9SM 26/23 A2965 RMK SLP036 T02560234 57007 IEM_DS3505
ZHHH,2001-07-31 19:00,ZHHH 311900Z AUTO 31008KT 2SM 25/24 A2962 RMK T02500240 IEM_DS3505
ZHHH,2001-07-31 20:00,ZHHH 312000Z AUTO 34006KT 1 1/2SM 24/24 A2962 RMK T02400240 IEM_DS3505
ZHHH,2001-07-31 21:00,ZHHH 312100Z AUTO 32002KT 6SM 24/23 A2962 RMK 70046 SLP032 T02450233 57004 IEM_DS3505
ZHHH,2001-07-31 22:00,ZHHH 312200Z AUTO 1 1/4SM 24/23 A2962 RMK T02400230 IEM_DS3505
ZHHH,2001-08-01 00:00,ZHHH 010000Z AUTO 34002KT 7SM 26/24 A2965 RMK 70006 SLP046 T02650236 52014 IEM_DS3505
ZHHH,2001-08-01 01:00,ZHHH 010100Z AUTO 3SM 28/23 A2965 RMK T02800230 IEM_DS3505
ZHHH,2001-08-01 02:00,ZHHH 010200Z AUTO 03006KT 7SM 29/23 A2965 RMK T02900230 IEM_DS3505
ZHHH,2001-08-01 03:00,ZHHH 010300Z AUTO 02004KT 9SM 29/21 A2965 RMK SLP046 T02940212 54000 IEM_DS3505
ZHHH,2001-08-01 04:00,ZHHH 010400Z AUTO 04010KT 7SM 31/22 A2965 RMK T03100220 IEM_DS3505
ZHHH,2001-08-01 05:00,ZHHH 010500Z AUTO 04008KT 7SM 32/21 A2965 RMK T03200210 IEM_DS3505
ZHHH,2001-08-01 06:00,ZHHH 010600Z AUTO 25002KT 9SM 32/21 A2965 RMK SLP038 T03190213 57007 IEM_DS3505
ZHHH,2001-08-01 07:00,ZHHH 010700Z AUTO 30008KT 7SM 33/22 A2962 RMK T03300220 IEM_DS3505
ZHHH,2001-08-01 08:00,ZHHH 010800Z AUTO 28006KT 7SM 33/22 A2962 RMK T03300220 IEM_DS3505
ZHHH,2001-08-01 09:00,ZHHH 010900Z AUTO 29004KT 9SM 32/22 A2962 RMK SLP025 T03210215 57013 IEM_DS3505
ZHHH,2001-08-01 10:00,ZHHH 011000Z AUTO 28006KT 7SM 32/23 A2959 RMK T03200230 IEM_DS3505
ZHHH,2001-08-01 11:00,ZHHH 011100Z AUTO 6SM 31/23 A2962 RMK T03100230 IEM_DS3505
ZHHH,2001-08-01 12:00,ZHHH 011200Z AUTO 22002KT 9SM 30/23 A2962 RMK SLP030 T03050226 52005 IEM_DS3505
ZHHH,2001-08-01 13:00,ZHHH 011300Z AUTO 6SM 30/22 A2965 RMK T03000220 IEM_DS3505
ZHHH,2001-08-01 14:00,ZHHH 011400Z AUTO 05006KT 6SM 29/22 A2968 RMK T02900220 IEM_DS3505
ZHHH,2001-08-01 15:00,ZHHH 011500Z AUTO 00000KT 9SM 29/25 A2968 RMK SLP053 T02870248 52023 IEM_DS3505
ZHHH,2001-08-01 16:00,ZHHH 011600Z AUTO 02004KT 6SM 27/22 A2968 RMK T02700220 IEM_DS3505
ZHHH,2001-08-01 17:00,ZHHH 011700Z AUTO 03004KT 6SM 27/22 A2968 RMK T02700220 IEM_DS3505
ZHHH,2001-08-01 18:00,ZHHH 011800Z AUTO 02004KT 9SM 28/22 A2968 RMK SLP047 T02750222 57006 IEM_DS3505
ZHHH,2001-08-01 19:00,ZHHH 011900Z AUTO 03006KT 4SM 26/23 A2968 RMK T02600230 IEM_DS3505
ZHHH,2001-08-01 20:00,ZHHH 012000Z AUTO 2SM 25/23 A2971 RMK T02500230 IEM_DS3505
ZHHH,2001-08-01 21:00,ZHHH 012100Z AUTO 00000KT 11SM 26/23 A2971 RMK SLP057 T02600232 52010 IEM_DS3505
ZHHH,2001-08-01 22:00,ZHHH 012200Z AUTO 01002KT 1 1/2SM 25/23 A2971 RMK T02500230 IEM_DS3505
ZHHH,2001-08-01 23:00,ZHHH 012300Z AUTO 2SM 25/23 A2974 RMK T02500230 IEM_DS3505
ZHHH,2001-08-02 00:00,ZHHH 020000Z AUTO 36002KT 11SM 27/23 A2974 RMK SLP075 T02730230 52017 IEM_DS3505
ZHHH,2001-08-02 01:00,ZHHH 020100Z AUTO 01006KT 4SM 29/24 A2974 RMK T02900240 IEM_DS3505
ZHHH,2001-08-02 02:00,ZHHH 020200Z AUTO 04006KT 6SM 29/23 A2977 RMK T02900230 IEM_DS3505
ZHHH,2001-08-02 03:00,ZHHH 020300Z AUTO 07004KT 11SM 30/23 A2977 RMK SLP082 T02980230 52007 IEM_DS3505
ZHHH,2001-08-02 04:00,ZHHH 020400Z AUTO 06006KT 7SM 31/22 A2977 RMK T03100220 IEM_DS3505
ZHHH,2001-08-02 05:00,ZHHH 020500Z AUTO 04008KT 7SM 32/22 A2974 RMK T03200220 IEM_DS3505
ZHHH,2001-08-02 06:00,ZHHH 020600Z AUTO 09004KT 11SM 32/22 A2974 RMK SLP072 T03240221 57009 IEM_DS3505
ZHHH,2001-08-02 07:00,ZHHH 020700Z AUTO 7SM 33/22 A2974 RMK T03300220 IEM_DS3505
ZHHH,2001-08-02 08:00,ZHHH 020800Z AUTO 7SM 33/21 A2971 RMK T03300210 IEM_DS3505
ZHHH,2001-08-02 09:00,ZHHH 020900Z AUTO 09002KT 11SM 33/21 A2971 RMK SLP060 T03280214 57012 IEM_DS3505
ZHHH,2001-08-02 10:00,ZHHH 021000Z AUTO 6SM 32/23 A2971 RMK T03200230 IEM_DS3505
ZHHH,2001-08-02 11:00,ZHHH 021100Z AUTO 15004KT 6SM 31/24 A2971 RMK T03100240 IEM_DS3505
ZHHH,2001-08-02 12:00,ZHHH 021200Z AUTO 09002KT 11SM 30/23 A2974 RMK SLP075 T03050227 52014 IEM_DS3505
ZHHH,2001-08-02 13:00,ZHHH 021300Z AUTO 6SM 30/25 A2980 RMK T03000250 IEM_DS3505
ZHHH,2001-08-02 14:00,ZHHH 021400Z AUTO 09010KT 6SM 29/23 A2980 RMK T02900230 IEM_DS3505
ZHHH,2001-08-02 15:00,ZHHH 021500Z AUTO 07002KT 11SM 30/24 A2983 RMK SLP097 T02960245 52022 IEM_DS3505
ZHHH,2001-08-02 16:00,ZHHH 021600Z AUTO 08008KT 6SM 27/24 A2983 RMK T02700240 IEM_DS3505
ZHHH,2001-08-02 17:00,ZHHH 021700Z AUTO 06006KT 6SM 27/24 A2983 RMK T02700240 IEM_DS3505
ZHHH,2001-08-02 18:00,ZHHH 021800Z AUTO 04002KT 9SM 28/25 A2983 RMK SLP100 T02760249 52003 IEM_DS3505
ZHHH,2001-08-02 19:00,ZHHH 021900Z AUTO 07008KT 6SM 26/23 A2983 RMK T02600230 IEM_DS3505
ZHHH,2001-08-02 20:00,ZHHH 022000Z AUTO 07008KT 4SM 26/24 A2983 RMK T02600240 IEM_DS3505
ZHHH,2001-08-02 21:00,ZHHH 022100Z AUTO 07002KT 9SM 27/24 A2983 RMK SLP096 T02710241 57004 IEM_DS3505
ZHHH,2001-08-02 22:00,ZHHH 022200Z AUTO 05008KT 3SM 26/23 A2983 RMK T02600230 IEM_DS3505
ZHHH,2001-08-02 23:00,ZHHH 022300Z AUTO 07008KT 3SM 26/23 A2985 RMK T02600230 IEM_DS3505
ZHHH,2001-08-03 00:00,ZHHH 030000Z AUTO 07004KT 11SM 28/23 A2985 RMK SLP112 T02780234 52016 IEM_DS3505
ZHHH,2001-08-03 01:00,ZHHH 030100Z AUTO 07010KT 3SM 29/24 A2985 RMK T02900240 IEM_DS3505
ZHHH,2001-08-03 02:00,ZHHH 030200Z AUTO 10008KT 4SM 30/25 A2988 RMK T03000250 IEM_DS3505
ZHHH,2001-08-03 03:00,ZHHH 030300Z AUTO 02004KT 12SM 31/25 A2988 RMK SLP119 T03140252 52007 IEM_DS3505
ZHHH,2001-08-03 04:00,ZHHH 030400Z AUTO 11008KT 7SM 32/26 A2988 RMK T03200260 IEM_DS3505
ZHHH,2001-08-03 05:00,ZHHH 030500Z AUTO 10008KT 7SM 32/25 A2988 RMK T03200250 IEM_DS3505
ZHHH,2001-08-03 06:00,ZHHH 030600Z AUTO 09004KT 12SM 34/24 A2985 RMK 60003 SLP110 T03350239 57008 IEM_DS3505
ZHHH,2001-08-03 07:00,ZHHH 030700Z AUTO 12006KT 7SM 33/25 A2985 RMK T03300250 IEM_DS3505
ZHHH,2001-08-03 08:00,ZHHH 030800Z AUTO 6SM 34/25 A2985 RMK T03400250 IEM_DS3505
ZHHH,2001-08-03 09:00,ZHHH 030900Z AUTO 09002KT 12SM 33/24 A2983 RMK SLP103 T03320245 57008 IEM_DS3505
ZHHH,2001-08-03 10:00,ZHHH 031000Z AUTO 7SM 33/25 A2985 RMK T03300250 IEM_DS3505
ZHHH,2001-08-03 11:00,ZHHH 031100Z AUTO 6SM 31/26 A2985 RMK T03100260 IEM_DS3505
ZHHH,2001-08-03 12:00,ZHHH 031200Z AUTO 27004KT 9SM 30/25 A2988 RMK 60003 SLP121 T03010253 52018 IEM_DS3505
ZHHH,2001-08-03 13:00,ZHHH 031300Z AUTO 07006KT 6SM 29/25 A2991 RMK T02900250 IEM_DS3505
ZHHH,2001-08-03 15:00,ZHHH 031500Z AUTO 09002KT 9SM 29/25 A2991 RMK SLP131 T02930246 52010 IEM_DS3505
ZHHH,2001-08-03 16:00,ZHHH 031600Z AUTO 10008KT 6SM 28/25 A2991 RMK T02800250 IEM_DS3505
ZHHH,2001-08-03 17:00,ZHHH 031700Z AUTO 09006KT 6SM 27/25 A2991 RMK T02700250 IEM_DS3505
ZHHH,2001-08-03 18:00,ZHHH 031800Z AUTO 04004KT 11SM 28/24 A2988 RMK SLP123 T02800245 57008 IEM_DS3505
ZHHH,2001-08-03 19:00,ZHHH 031900Z AUTO 04002KT 6SM 27/25 A2988 RMK T02700250 IEM_DS3505
ZHHH,2001-08-03 20:00,ZHHH 032000Z AUTO 6SM 27/25 A2988 RMK T02700250 IEM_DS3505
ZHHH,2001-08-03 21:00,ZHHH 032100Z AUTO 04002KT 11SM 27/25 A2988 RMK 70003 SLP119 T02730251 57004 IEM_DS3505
ZHHH,2001-08-03 22:00,ZHHH 032200Z AUTO 6SM 26/25 A2988 RMK T02600250 IEM_DS3505
ZHHH,2001-08-03 23:00,ZHHH 032300Z AUTO 06006KT 6SM 27/25 A2991 RMK T02700250 IEM_DS3505
ZHHH,2001-08-04 00:00,ZHHH 040000Z AUTO 02002KT 16SM 29/25 A2991 RMK 70003 SLP133 T02900248 52014 IEM_DS3505
ZHHH,2001-08-04 01:00,ZHHH 040100Z AUTO 08006KT 7SM 30/25 A2991 RMK T03000250 IEM_DS3505
ZHHH,2001-08-04 02:00,ZHHH 040200Z AUTO 6SM 33/25 A2991 RMK T03300250 IEM_DS3505
ZHHH,2001-08-04 03:00,ZHHH 040300Z AUTO 09002KT 16SM 33/25 A2991 RMK SLP131 T03270248 57002 IEM_DS3505
ZHHH,2001-08-04 04:00,ZHHH 040400Z AUTO 7SM 34/25 A2991 RMK T03400250 IEM_DS3505
ZHHH,2001-08-04 05:00,ZHHH 040500Z AUTO 6SM 34/25 A2988 RMK T03400250 IEM_DS3505
ZHHH,2001-08-04 06:00,ZHHH 040600Z AUTO 32004KT 16SM 35/24 A2985 RMK SLP112 T03470245 57018 IEM_DS3505
ZHHH,2001-08-04 07:00,ZHHH 040700Z AUTO 28006KT 6SM 35/24 A2985 RMK T03500240 IEM_DS3505
ZHHH,2001-08-04 08:00,ZHHH 040800Z AUTO 28006KT 6SM 36/24 A2983 RMK T03600240 IEM_DS3505
ZHHH,2001-08-04 09:00,ZHHH 040900Z AUTO 32004KT 16SM 35/24 A2983 RMK SLP096 T03490242 57016 IEM_DS3505
ZHHH,2001-08-04 10:00,ZHHH 041000Z AUTO 29006KT 7SM 35/25 A2983 RMK T03500250 IEM_DS3505
ZHHH,2001-08-04 11:00,ZHHH 041100Z AUTO 29006KT 7SM 33/27 A2983 RMK T03300270 IEM_DS3505
ZHHH,2001-08-04 12:00,ZHHH 041200Z AUTO 29002KT 11SM 32/26 A2983 RMK SLP101 T03190256 52005 IEM_DS3505
ZHHH,2001-08-04 13:00,ZHHH 041300Z AUTO 4SM 30/26 A2985 RMK T03000260 IEM_DS3505
ZHHH,2001-08-04 14:00,ZHHH 041400Z AUTO 4SM 30/27 A2985 RMK T03000270 IEM_DS3505
ZHHH,2001-08-04 15:00,ZHHH 041500Z AUTO 00000KT 9SM 30/26 A2985 RMK SLP107 T03050255 52006 IEM_DS3505
ZHHH,2001-08-04 16:00,ZHHH 041600Z AUTO 4SM 29/27 A2983 RMK T02900270 IEM_DS3505
ZHHH,2001-08-04 17:00,ZHHH 041700Z AUTO 01002KT 4SM 29/26 A2983 RMK T02900260 IEM_DS3505
ZHHH,2001-08-04 18:00,ZHHH 041800Z AUTO 27002KT 11SM 29/26 A2983 RMK SLP095 T02920262 57012 IEM_DS3505
ZHHH,2001-08-04 19:00,ZHHH 041900Z AUTO 6SM 28/26 A2980 RMK T02800260 IEM_DS3505
ZHHH,2001-08-04 20:00,ZHHH 042000Z AUTO 6SM 28/26 A2980 RMK T02800260 IEM_DS3505
ZHHH,2001-08-04 21:00,ZHHH 042100Z AUTO 27004KT 11SM 28/26 A2980 RMK SLP094 T02820260 57001 IEM_DS3505
ZHHH,2001-08-04 22:00,ZHHH 042200Z AUTO 4SM 28/27 A2980 RMK T02800270 IEM_DS3505
ZHHH,2001-08-04 23:00,ZHHH 042300Z AUTO 4SM 28/27 A2980 RMK T02800270 IEM_DS3505
ZHHH,2001-08-05 00:00,ZHHH 050000Z AUTO 27004KT 12SM 30/25 A2980 RMK SLP094 T02980252 54000 IEM_DS3505
ZHHH,2001-08-05 01:00,ZHHH 050100Z AUTO 5SM 31/27 A2983 RMK T03100270 IEM_DS3505
ZHHH,2001-08-05 02:00,ZHHH 050200Z AUTO 28006KT 6SM 32/27 A2980 RMK T03200270 IEM_DS3505
ZHHH,2001-08-05 03:00,ZHHH 050300Z AUTO 27006KT 12SM 34/25 A2980 RMK SLP091 T03370247 57003 IEM_DS3505
ZHHH,2001-08-05 04:00,ZHHH 050400Z AUTO 28006KT 7SM 34/25 A2980 RMK T03400250 IEM_DS3505
ZHHH,2001-08-05 05:00,ZHHH 050500Z AUTO 28006KT 7SM 36/25 A2977 RMK T03600250 IEM_DS3505
ZHHH,2001-08-05 06:00,ZHHH 050600Z AUTO 25004KT 12SM 35/24 A2974 RMK SLP072 T03490245 57019 IEM_DS3505
ZHHH,2001-08-05 07:00,ZHHH 050700Z AUTO 25008KT 7SM 36/25 A2971 RMK T03600250 IEM_DS3505
ZHHH,2001-08-05 08:00,ZHHH 050800Z AUTO 26008KT 7SM 36/25 A2971 RMK T03600250 IEM_DS3505
ZHHH,2001-08-05 09:00,ZHHH 050900Z AUTO 27004KT 12SM 36/22 A2968 RMK SLP055 T03550221 57017 IEM_DS3505
ZHHH,2001-08-05 10:00,ZHHH 051000Z AUTO 25008KT 6SM 34/25 A2968 RMK T03400250 IEM_DS3505
ZHHH,2001-08-05 11:00,ZHHH 051100Z AUTO 24006KT 6SM 33/26 A2968 RMK T03300260 IEM_DS3505
ZHHH,2001-08-05 12:00,ZHHH 051200Z AUTO 25004KT 11SM 33/26 A2968 RMK SLP055 T03260257 54000 IEM_DS3505
ZHHH,2001-08-05 13:00,ZHHH 051300Z AUTO 22004KT 4SM 31/27 A2971 RMK T03100270 IEM_DS3505
ZHHH,2001-08-05 14:00,ZHHH 051400Z AUTO 2 1/2SM 31/27 A2971 RMK T03100270 IEM_DS3505
ZHHH,2001-08-05 15:00,ZHHH 051500Z AUTO 18002KT 11SM 32/26 A2971 RMK SLP057 T03150264 52002 IEM_DS3505
ZHHH,2001-08-05 16:00,ZHHH 051600Z AUTO 2SM 30/27 A2971 RMK T03000270 IEM_DS3505
ZHHH,2001-08-05 17:00,ZHHH 051700Z AUTO 16004KT 2SM 30/27 A2971 RMK T03000270 IEM_DS3505
ZHHH,2001-08-05 18:00,ZHHH 051800Z AUTO 16004KT 7SM 30/27 A2968 RMK SLP051 T03020266 57006 IEM_DS3505
ZHHH,2001-08-05 19:00,ZHHH 051900Z AUTO 20004KT 2SM 30/27 A2968 RMK T03000270 IEM_DS3505
ZHHH,2001-08-05 20:00,ZHHH 052000Z AUTO 18004KT 2SM 30/27 A2965 RMK T03000270 IEM_DS3505
ZHHH,2001-08-05 21:00,ZHHH 052100Z AUTO 14002KT 7SM 30/26 A2965 RMK SLP037 T02970259 57014 IEM_DS3505
ZHHH,2001-08-05 22:00,ZHHH 052200Z AUTO 14004KT 2SM 30/26 A2965 RMK T03000260 IEM_DS3505
ZHHH,2001-08-06 00:00,ZHHH 060000Z AUTO 18002KT 11SM 32/26 RMK SLP041 T03230259 52004 IEM_DS3505
ZHHH,2001-08-06 01:00,ZHHH 060100Z AUTO 22008KT 3SM 33/26 A2965 RMK T03300260 IEM_DS3505
ZHHH,2001-08-06 02:00,ZHHH 060200Z AUTO 22010KT 11SM 34/27 A2965 RMK T03400270 IEM_DS3505
ZHHH,2001-08-06 03:00,ZHHH 060300Z AUTO 22004KT 11SM 36/27 A2965 RMK SLP041 T03560267 54000 IEM_DS3505
ZHHH,2001-08-06 04:00,ZHHH 060400Z AUTO 22010KT 6SM 35/27 A2962 RMK T03500270 IEM_DS3505
ZHHH,2001-08-06 05:00,ZHHH 060500Z AUTO 23012KT 6SM 36/27 A2962 RMK T03600270 IEM_DS3505
ZHHH,2001-08-06 06:00,ZHHH 060600Z AUTO 22006KT 12SM 36/27 RMK SLP017 T03630268 57024 IEM_DS3505
ZHHH,2001-08-06 07:00,ZHHH 060700Z AUTO 25012KT 6SM 36/27 A2956 RMK T03600270 IEM_DS3505
ZHHH,2001-08-06 09:00,ZHHH 060900Z AUTO 25006KT 12SM 36/27 A2953 RMK SLP995 T03640268 57022 IEM_DS3505
ZHHH,2001-08-06 10:00,ZHHH 061000Z AUTO 24008KT 6SM 35/28 A2950 RMK T03500280 IEM_DS3505
ZHHH,2001-08-06 11:00,ZHHH 061100Z AUTO 25006KT 6SM 34/28 A2953 RMK T03400280 IEM_DS3505
ZHHH,2001-08-06 12:00,ZHHH 061200Z AUTO 27002KT 16SM 33/27 A2953 RMK SLP001 T03340269 52006 IEM_DS3505
ZHHH,2001-08-06 13:00,ZHHH 061300Z AUTO 21004KT 6SM 33/28 A2956 RMK T03300280 IEM_DS3505
ZHHH,2001-08-06 14:00,ZHHH 061400Z AUTO 18006KT 6SM 32/28 A2956 RMK T03200280 IEM_DS3505
ZHHH,2001-08-06 15:00,ZHHH 061500Z AUTO 00000KT 12SM 32/27 A2956 RMK SLP013 T03210268 52012 IEM_DS3505
ZHHH,2001-08-06 16:00,ZHHH 061600Z AUTO 18004KT 3SM 31/28 A2956 RMK T03100280 IEM_DS3505
ZHHH,2001-08-06 17:00,ZHHH 061700Z AUTO 16004KT 3SM 31/28 A2956 RMK T03100280 IEM_DS3505
ZHHH,2001-08-06 18:00,ZHHH 061800Z AUTO 18002KT 12SM 31/26 A2956 RMK SLP009 T03140263 57004 IEM_DS3505
ZHHH,2001-08-06 19:00,ZHHH 061900Z AUTO 4SM 31/28 A2956 RMK T03100280 IEM_DS3505
ZHHH,2001-08-06 20:00,ZHHH 062000Z AUTO 12006KT 3SM 29/28 A2956 RMK T02900280 IEM_DS3505
ZHHH,2001-08-06 21:00,ZHHH 062100Z AUTO 14002KT 9SM 31/27 A2953 RMK SLP005 T03110266 57004 IEM_DS3505
ZHHH,2001-08-06 22:00,ZHHH 062200Z AUTO 14004KT 1 1/4SM 29/28 A2956 RMK T02900280 IEM_DS3505
ZHHH,2001-08-06 23:00,ZHHH 062300Z AUTO 1 1/2SM 30/28 A2956 RMK T03000280 IEM_DS3505
ZHHH,2001-08-07 00:00,ZHHH 070000Z AUTO 14002KT 11SM 31/27 A2959 RMK SLP016 T03130266 52011 IEM_DS3505
ZHHH,2001-08-07 01:00,ZHHH 070100Z AUTO 12006KT 1 1/2SM 30/28 A2959 RMK T03000280 IEM_DS3505
ZHHH,2001-08-07 02:00,ZHHH 070200Z AUTO 17006KT 2SM 33/29 A2959 RMK T03300290 IEM_DS3505
ZHHH,2001-08-07 03:00,ZHHH 070300Z AUTO 22004KT 12SM 35/26 A2959 RMK SLP018 T03470263 52002 IEM_DS3505
ZHHH,2001-08-07 04:00,ZHHH 070400Z AUTO 22008KT 6SM 35/28 A2956 RMK T03500280 IEM_DS3505
ZHHH,2001-08-07 05:00,ZHHH 070500Z AUTO 22008KT 6SM 36/27 A2956 RMK T03600270 IEM_DS3505
ZHHH,2001-08-07 06:00,ZHHH 070600Z AUTO 18004KT 12SM 36/25 RMK SLP002 T03640254 57016 IEM_DS3505
ZHHH,2001-08-07 07:00,ZHHH 070700Z AUTO 23010KT 6SM 36/27 A2950 RMK T03600270 IEM_DS3505
ZHHH,2001-08-07 09:00,ZHHH 070900Z AUTO 27004KT 12SM 36/25 A2950 RMK SLP992 T03610253 57010 IEM_DS3505
ZHHH,2001-08-07 10:00,ZHHH 071000Z AUTO 24004KT 6SM 35/26 A2950 RMK T03500260 IEM_DS3505
ZHHH,2001-08-07 11:00,ZHHH 071100Z AUTO 6SM 34/26 A2953 RMK T03400260 IEM_DS3505
ZHHH,2001-08-07 12:00,ZHHH 071200Z AUTO 00000KT 11SM 34/27 A2956 RMK SLP010 T03410266 52018 IEM_DS3505
ZHHH,2001-08-07 13:00,ZHHH 071300Z AUTO 6SM 33/29 A2959 RMK T03300290 IEM_DS3505
ZHHH,2001-08-07 14:00,ZHHH 071400Z AUTO 3SM 32/28 A2959 RMK T03200280 IEM_DS3505
ZHHH,2001-08-07 15:00,ZHHH 071500Z AUTO 29002KT 9SM 32/28 A2959 RMK SLP019 T03170282 52009 IEM_DS3505
ZHHH,2001-08-07 16:00,ZHHH 071600Z AUTO 03006KT 2SM 30/27 A2959 RMK T03000270 IEM_DS3505
ZHHH,2001-08-07 17:00,ZHHH 071700Z AUTO 02019G29KT 3SM 29/25 A2962 RMK T02900250 IEM_DS3505
ZHHH,2001-08-07 18:00,ZHHH 071800Z AUTO 09004KT 9SM 26/25 A2965 RMK 60001 SLP031 T02630253 52012 IEM_DS3505
ZHHH,2001-08-07 19:00,ZHHH 071900Z AUTO 4SM 26/25 A2965 RMK T02600250 IEM_DS3505
ZHHH,2001-08-07 20:00,ZHHH 072000Z AUTO 16004KT 4SM 26/25 A2968 RMK T02600250 IEM_DS3505
ZHHH,2001-08-07 21:00,ZHHH 072100Z AUTO 27002KT 6SM 26/25 A2968 RMK 70013 SLP045 T02610251 52014 IEM_DS3505
ZHHH,2001-08-07 22:00,ZHHH 072200Z AUTO 2SM 26/26 A2968 RMK T02600260 IEM_DS3505
ZHHH,2001-08-07 23:00,ZHHH 072300Z AUTO 1 1/2SM 26/26 A2968 RMK T02600260 IEM_DS3505
ZHHH,2001-08-08 00:00,ZHHH 080000Z AUTO 27004KT 7SM 27/25 A2971 RMK 60016 SLP063 T02680252 52018 IEM_DS3505
ZHHH,2001-08-08 01:00,ZHHH 080100Z AUTO 4SM 27/25 A2974 RMK T02700250 IEM_DS3505
ZHHH,2001-08-08 02:00,ZHHH 080200Z AUTO 04008KT 4SM 28/25 A2974 RMK T02800250 IEM_DS3505
ZHHH,2001-08-08 03:00,ZHHH 080300Z AUTO 32002KT 6SM 26/25 A2977 RMK SLP080 T02650249 52016 IEM_DS3505
ZHHH,2001-08-08 04:00,ZHHH 080400Z AUTO 05010KT 7SM 29/25 A2977 RMK T02900250 IEM_DS3505
ZHHH,2001-08-08 05:00,ZHHH 080500Z AUTO 02008KT 7SM 30/26 A2974 RMK T03000260 IEM_DS3505
ZHHH,2001-08-08 06:00,ZHHH 080600Z AUTO 07004KT 11SM 31/25 A2974 RMK 60067 SLP066 T03060254 57014 IEM_DS3505
ZHHH,2001-08-08 07:00,ZHHH 080700Z AUTO 34006KT 7SM 32/25 A2971 RMK T03200250 IEM_DS3505
ZHHH,2001-08-08 08:00,ZHHH 080800Z AUTO 30006KT 7SM 32/25 A2971 RMK T03200250 IEM_DS3505
ZHHH,2001-08-08 09:00,ZHHH 080900Z AUTO 34002KT 11SM 31/25 A2971 RMK SLP060 T03120248 57006 IEM_DS3505
ZHHH,2001-08-08 10:00,ZHHH 081000Z AUTO 03008KT 7SM 31/24 A2971 RMK T03100240 IEM_DS3505
ZHHH,2001-08-08 11:00,ZHHH 081100Z AUTO 6SM 30/25 A2974 RMK T03000250 IEM_DS3505
ZHHH,2001-08-08 12:00,ZHHH 081200Z AUTO 04004KT 9SM 30/24 A2974 RMK 60003 SLP074 T02990245 52014 IEM_DS3505
ZHHH,2001-08-08 13:00,ZHHH 081300Z AUTO 6SM 29/25 A2977 RMK T02900250 IEM_DS3505
ZHHH,2001-08-08 14:00,ZHHH 081400Z AUTO 02006KT 6SM 28/25 A2980 RMK T02800250 IEM_DS3505
ZHHH,2001-08-08 15:00,ZHHH 081500Z AUTO 11002KT 9SM 29/25 A2980 RMK SLP089 T02860252 52015 IEM_DS3505
ZHHH,2001-08-08 16:00,ZHHH 081600Z AUTO 02006KT 4SM 28/25 A2980 RMK T02800250 IEM_DS3505
ZHHH,2001-08-08 17:00,ZHHH 081700Z AUTO 4SM 27/25 A2977 RMK T02700250 IEM_DS3505
ZHHH,2001-08-08 18:00,ZHHH 081800Z AUTO 04002KT 9SM 28/25 A2977 RMK SLP085 T02800248 57004 IEM_DS3505
ZHHH,2001-08-08 19:00,ZHHH 081900Z AUTO 3SM 26/25 A2977 RMK T02600250 IEM_DS3505
ZHHH,2001-08-08 20:00,ZHHH 082000Z AUTO 3SM 26/25 A2980 RMK T02600250 IEM_DS3505
ZHHH,2001-08-08 21:00,ZHHH 082100Z AUTO 07002KT 9SM 27/25 A2980 RMK 70070 SLP087 T02720247 52002 IEM_DS3505
ZHHH,2001-08-08 22:00,ZHHH 082200Z AUTO 4SM 26/24 A2980 RMK T02600240 IEM_DS3505
ZHHH,2001-08-08 23:00,ZHHH 082300Z AUTO 3SM A2980 RMK IEM_DS3505
ZHHH,2001-08-09 00:00,ZHHH 090000Z AUTO 07004KT 12SM 28/24 A2983 RMK 70066 SLP097 T02750241 52010 IEM_DS3505
ZHHH,2001-08-09 01:00,ZHHH 090100Z AUTO 06010KT 6SM 28/25 A2983 RMK T02800250 IEM_DS3505
ZHHH,2001-08-09 02:00,ZHHH 090200Z AUTO 08010KT 6SM 28/25 A2983 RMK T02800250 IEM_DS3505
ZHHH,2001-08-09 03:00,ZHHH 090300Z AUTO 07004KT 9SM 29/25 RMK SLP103 T02910250 52006 IEM_DS3505
ZHHH,2001-08-09 04:00,ZHHH 090400Z AUTO 13006KT 7SM 28/25 A2983 RMK T02800250 IEM_DS3505
ZHHH,2001-08-09 05:00,ZHHH 090500Z AUTO 15008KT 7SM 29/26 A2980 RMK T02900260 IEM_DS3505
ZHHH,2001-08-09 06:00,ZHHH 090600Z AUTO 09002KT 9SM 30/24 A2980 RMK SLP086 T03050243 57017 IEM_DS3505
ZHHH,2001-08-09 08:00,ZHHH 090800Z AUTO 08017KT 7SM 25/25 A2977 RMK T02500250 IEM_DS3505
ZHHH,2001-08-09 09:00,ZHHH 090900Z AUTO 04004KT 7SM 27/25 A2977 RMK SLP080 T02720246 57006 IEM_DS3505
ZHHH,2001-08-09 10:00,ZHHH 091000Z AUTO 05010KT 6SM 26/24 A2977 RMK T02600240 IEM_DS3505
ZHHH,2001-08-09 11:00,ZHHH 091100Z AUTO 05010KT 7SM 26/24 A2977 RMK T02600240 IEM_DS3505
ZHHH,2001-08-09 12:00,ZHHH 091200Z AUTO 07006KT 11SM 27/24 A2980 RMK 60003 SLP089 T02710238 52009 IEM_DS3505
ZHHH,2001-08-09 13:00,ZHHH 091300Z AUTO 06014KT 6SM 26/24 A2983 RMK T02600240 IEM_DS3505
ZHHH,2001-08-09 14:00,ZHHH 091400Z AUTO 05010KT 6SM 26/23 A2983 RMK T02600230 IEM_DS3505
ZHHH,2001-08-09 15:00,ZHHH 091500Z AUTO 04004KT 11SM 27/21 A2983 RMK SLP103 T02660213 52014 IEM_DS3505
ZHHH,2001-08-09 16:00,ZHHH 091600Z AUTO 04006KT 6SM 25/22 A2983 RMK T02500220 IEM_DS3505
ZHHH,2001-08-09 17:00,ZHHH 091700Z AUTO 05010KT 6SM 25/21 A2983 RMK T02500210 IEM_DS3505
ZHHH,2001-08-09 18:00,ZHHH 091800Z AUTO 07004KT 9SM 26/20 A2980 RMK SLP092 T02590204 57011 IEM_DS3505
ZHHH,2001-08-09 19:00,ZHHH 091900Z AUTO 04008KT 7SM 25/21 A2980 RMK T02500210 IEM_DS3505
ZHHH,2001-08-09 20:00,ZHHH 092000Z AUTO 04006KT 7SM 25/21 A2980 RMK T02500210 IEM_DS3505
ZHHH,2001-08-09 21:00,ZHHH 092100Z AUTO 02004KT 9SM 26/21 A2980 RMK 70003 SLP093 T02550208 52001 IEM_DS3505
ZHHH,2001-08-09 23:00,ZHHH 092300Z AUTO 05008KT 6SM 24/21 A2983 RMK T02400210 IEM_DS3505
ZHHH,2001-08-10 00:00,ZHHH 100000Z AUTO 09004KT 9SM 24/22 A2985 RMK 70003 SLP107 T02420217 52014 IEM_DS3505
ZHHH,2001-08-10 01:00,ZHHH 100100Z AUTO 07014KT 7SM 22/21 A2985 RMK T02200210 IEM_DS3505
ZHHH,2001-08-10 02:00,ZHHH 100200Z AUTO 07016KT 7SM 23/20 A2988 RMK T02300200 IEM_DS3505
ZHHH,2001-08-10 03:00,ZHHH 100300Z AUTO 07008KT 6SM 23/18 A2988 RMK SLP124 T02300178 52017 IEM_DS3505
ZHHH,2001-08-10 04:00,ZHHH 100400Z AUTO 11008KT 7SM 23/20 A2988 RMK T02300200 IEM_DS3505
ZHHH,2001-08-10 05:00,ZHHH 100500Z AUTO 10010KT 7SM 24/19 A2988 RMK T02400190 IEM_DS3505
ZHHH,2001-08-10 06:00,ZHHH 100600Z AUTO 09004KT 9SM 24/18 A2991 RMK 60003 SLP128 T02360184 52004 IEM_DS3505
ZHHH,2001-08-10 07:00,ZHHH 100700Z AUTO 14006KT 7SM 24/19 A2991 RMK T02400190 IEM_DS3505
ZHHH,2001-08-10 08:00,ZHHH 100800Z AUTO 16008KT 7SM 23/20 A2988 RMK T02300200 IEM_DS3505
ZHHH,2001-08-10 09:00,ZHHH 100900Z AUTO 14002KT 9SM 23/20 A2988 RMK SLP124 T02320196 57004 IEM_DS3505
ZHHH,2001-08-10 10:00,ZHHH 101000Z AUTO 7SM 23/19 A2991 RMK T02300190 IEM_DS3505
ZHHH,2001-08-10 11:00,ZHHH 101100Z AUTO 6SM 23/20 A2991 RMK T02300200 IEM_DS3505
ZHHH,2001-08-10 12:00,ZHHH 101200Z AUTO 20002KT 7SM 22/20 A2991 RMK 60003 SLP134 T02250195 52010 IEM_DS3505
ZHHH,2001-08-10 13:00,ZHHH 101300Z AUTO 4SM 22/20 A2994 RMK T02200200 IEM_DS3505
ZHHH,2001-08-10 14:00,ZHHH 101400Z AUTO 4SM 22/20 A2994 RMK T02200200 IEM_DS3505
ZHHH,2001-08-10 15:00,ZHHH 101500Z AUTO 36002KT 9SM 23/19 A2994 RMK SLP144 T02270193 52010 IEM_DS3505
ZHHH,2001-08-10 16:00,ZHHH 101600Z AUTO 4SM 22/20 A2997 RMK T02200200 IEM_DS3505
ZHHH,2001-08-10 17:00,ZHHH 101700Z AUTO 4SM 21/19 A2994 RMK T02100190 IEM_DS3505
ZHHH,2001-08-10 18:00,ZHHH 101800Z AUTO 36002KT 11SM 22/20 RMK 60003 SLP139 T02180197 57005 IEM_DS3505
ZHHH,2001-08-10 19:00,ZHHH 101900Z AUTO 3SM 20/19 A2991 RMK T02000190 IEM_DS3505
ZHHH,2001-08-10 21:00,ZHHH 102100Z AUTO 04002KT 11SM 22/19 A2994 RMK 70003 SLP136 T02150193 57003 IEM_DS3505
ZHHH,2001-08-10 22:00,ZHHH 102200Z AUTO 04004KT 3SM 20/19 A2994 RMK T02000190 IEM_DS3505
ZHHH,2001-08-10 23:00,ZHHH 102300Z AUTO 4SM 21/19 A2994 RMK T02100190 IEM_DS3505
ZHHH,2001-08-11 00:00,ZHHH 110000Z AUTO 07004KT 12SM 24/19 A2997 RMK 70003 SLP146 T02360190 52010 IEM_DS3505
ZHHH,2001-08-11 01:00,ZHHH 110100Z AUTO 09006KT 6SM 24/18 A2997 RMK T02400180 IEM_DS3505
ZHHH,2001-08-11 02:00,ZHHH 110200Z AUTO 6SM 25/18 A2997 RMK T02500180 IEM_DS3505
ZHHH,2001-08-11 03:00,ZHHH 110300Z AUTO 07002KT 16SM 26/17 A2997 RMK SLP151 T02650171 52005 IEM_DS3505
ZHHH,2001-08-11 04:00,ZHHH 110400Z AUTO 07010KT 7SM 26/18 A2997 RMK T02600180 IEM_DS3505
ZHHH,2001-08-11 05:00,ZHHH 110500Z AUTO 10010KT 7SM 27/19 A2994 RMK T02700190 IEM_DS3505
ZHHH,2001-08-11 06:00,ZHHH 110600Z AUTO 07004KT 16SM 28/19 A2994 RMK SLP135 T02820190 57016 IEM_DS3505
ZHHH,2001-08-11 12:00,ZHHH 111200Z AUTO 16002KT 11SM 26/20 A2991 RMK SLP130 T02550196 52006 IEM_DS3505
ZHHH,2001-08-11 13:00,ZHHH 111300Z AUTO 6SM 25/20 A2991 RMK T02500200 IEM_DS3505
ZHHH,2001-08-11 16:00,ZHHH 111600Z AUTO 23002KT 6SM 24/21 A2994 RMK T02400210 IEM_DS3505
ZHHH,2001-08-11 17:00,ZHHH 111700Z AUTO 26002KT 6SM 24/22 A2991 RMK T02400220 IEM_DS3505
ZHHH,2001-08-11 18:00,ZHHH 111800Z AUTO 00000KT 9SM 24/21 A2991 RMK SLP129 T02360207 57011 IEM_DS3505
ZHHH,2001-08-11 19:00,ZHHH 111900Z AUTO 6SM 23/22 A2991 RMK T02300220 IEM_DS3505
ZHHH,2001-08-11 20:00,ZHHH 112000Z AUTO 6SM 23/22 A2991 RMK T02300220 IEM_DS3505
ZHHH,2001-08-11 21:00,ZHHH 112100Z AUTO 00000KT 11SM 23/21 A2991 RMK SLP126 T02330214 57003 IEM_DS3505
ZHHH,2001-08-11 22:00,ZHHH 112200Z AUTO 02002KT 4SM 22/21 A2991 RMK T02200210 IEM_DS3505
ZHHH,2001-08-11 23:00,ZHHH 112300Z AUTO 1 1/2SM 22/21 A2991 RMK T02200210 IEM_DS3505
ZHHH,2001-08-12 00:00,ZHHH 120000Z AUTO 04002KT 16SM 25/21 A2991 RMK SLP136 T02460212 52010 IEM_DS3505
ZHHH,2001-08-12 01:00,ZHHH 120100Z AUTO 12006KT 2 1/2SM 26/22 A2994 RMK T02600220 IEM_DS3505
ZHHH,2001-08-12 02:00,ZHHH 120200Z AUTO 10006KT 7SM 27/20 A2994 RMK T02700200 IEM_DS3505
ZHHH,2001-08-12 03:00,ZHHH 120300Z AUTO 04004KT 12SM 28/20 A2991 RMK SLP132 T02770199 57004 IEM_DS3505
ZHHH,2001-08-12 04:00,ZHHH 120400Z AUTO 08008KT 7SM 28/19 A2991 RMK T02800190 IEM_DS3505
ZHHH,2001-08-12 05:00,ZHHH 120500Z AUTO 10006KT 6SM 28/19 A2988 RMK T02800190 IEM_DS3505
ZHHH,2001-08-12 06:00,ZHHH 120600Z AUTO 02002KT 11SM 29/16 A2985 RMK SLP114 T02900162 57018 IEM_DS3505
ZHHH,2001-08-12 07:00,ZHHH 120700Z AUTO 15006KT 6SM 29/18 A2985 RMK T02900180 IEM_DS3505
ZHHH,2001-08-12 09:00,ZHHH 120900Z AUTO 20002KT 11SM 29/19 A2983 RMK SLP103 T02930186 57011 IEM_DS3505
ZHHH,2001-08-12 10:00,ZHHH 121000Z AUTO 21008KT 6SM 29/19 A2983 RMK T02900190 IEM_DS3505
ZHHH,2001-08-12 11:00,ZHHH 121100Z AUTO 26006KT 6SM 28/20 A2983 RMK T02800200 IEM_DS3505
ZHHH,2001-08-12 13:00,ZHHH 121300Z AUTO 24004KT 7SM 26/22 A2988 RMK T02600220 IEM_DS3505
ZHHH,2001-08-12 14:00,ZHHH 121400Z AUTO 4SM 26/23 A2988 RMK T02600230 IEM_DS3505
ZHHH,2001-08-12 15:00,ZHHH 121500Z AUTO 2SM 25/23 A2988 RMK T02500230 IEM_DS3505
ZHHH,2001-08-12 16:00,ZHHH 121600Z AUTO 2SM 25/23 A2988 RMK T02500230 IEM_DS3505
ZHHH,2001-08-12 17:00,ZHHH 121700Z AUTO 28004KT 2SM 24/23 A2988 RMK T02400230 IEM_DS3505
ZHHH,2001-08-12 18:00,ZHHH 121800Z AUTO 32002KT 9SM 25/22 A2988 RMK SLP116 T02460221 57007 IEM_DS3505
ZHHH,2001-08-12 19:00,ZHHH 121900Z AUTO 31004KT 2 1/2SM 24/23 A2985 RMK T02400230 IEM_DS3505
ZHHH,2001-08-12 20:00,ZHHH 122000Z AUTO 02002KT 1 1/2SM 23/23 A2985 RMK T02300230 IEM_DS3505
ZHHH,2001-08-12 21:00,ZHHH 122100Z AUTO 00000KT 7SM 24/22 A2985 RMK SLP113 T02420224 57003 IEM_DS3505
ZHHH,2001-08-12 22:00,ZHHH 122200Z AUTO 1 1/4SM 23/22 A2985 RMK T02300220 IEM_DS3505
ZHHH,2001-08-12 23:00,ZHHH 122300Z AUTO 1SM 24/22 A2988 RMK T02400220 IEM_DS3505
ZHHH,2001-08-13 00:00,ZHHH 130000Z AUTO 11002KT 11SM 26/22 A2988 RMK SLP117 T02640220 52004 IEM_DS3505
ZHHH,2001-08-13 01:00,ZHHH 130100Z AUTO 4SM 27/22 A2988 RMK T02700220 IEM_DS3505
ZHHH,2001-08-13 03:00,ZHHH 130300Z AUTO 14002KT 11SM 29/21 A2988 RMK SLP116 T02930209 57001 IEM_DS3505
ZHHH,2001-08-13 04:00,ZHHH 130400Z AUTO 7SM 30/21 A2985 RMK T03000210 IEM_DS3505
ZHHH,2001-08-13 05:00,ZHHH 130500Z AUTO 24006KT 7SM 32/20 A2983 RMK T03200200 IEM_DS3505
ZHHH,2001-08-13 06:00,ZHHH 130600Z AUTO 29002KT 11SM 32/18 A2983 RMK SLP099 T03190177 57017 IEM_DS3505
ZHHH,2001-08-13 07:00,ZHHH 130700Z AUTO 16006KT 7SM 32/19 A2980 RMK T03200190 IEM_DS3505
ZHHH,2001-08-13 08:00,ZHHH 130800Z AUTO 7SM 32/19 A2980 RMK T03200190 IEM_DS3505
ZHHH,2001-08-13 09:00,ZHHH 130900Z AUTO 18004KT 9SM 31/21 A2980 RMK SLP090 T03130213 57009 IEM_DS3505
ZHHH,2001-08-13 10:00,ZHHH 131000Z AUTO 21008KT 6SM 31/20 A2980 RMK T03100200 IEM_DS3505
ZHHH,2001-08-13 11:00,ZHHH 131100Z AUTO 6SM 30/22 A2980 RMK T03000220 IEM_DS3505
ZHHH,2001-08-13 12:00,ZHHH 131200Z AUTO 27002KT 11SM 29/21 A2980 RMK SLP095 T02920211 52005 IEM_DS3505
ZHHH,2001-08-13 13:00,ZHHH 131300Z AUTO 7SM RMK IEM_DS3505
ZHHH,2001-08-13 14:00,ZHHH 131400Z AUTO 2SM 28/23 A2983 RMK T02800230 IEM_DS3505
ZHHH,2001-08-13 15:00,ZHHH 131500Z AUTO 00000KT 9SM 27/22 A2985 RMK SLP107 T02710218 52012 IEM_DS3505
ZHHH,2001-08-13 16:00,ZHHH 131600Z AUTO 22002KT 1 1/2SM 27/23 A2985 RMK T02700230 IEM_DS3505
ZHHH,2001-08-13 17:00,ZHHH 131700Z AUTO 24004KT 1 1/2SM 26/23 A2983 RMK T02600230 IEM_DS3505
ZHHH,2001-08-13 18:00,ZHHH 131800Z AUTO 00000KT 11SM 26/22 A2983 RMK SLP099 T02610225 57008 IEM_DS3505
ZHHH,2001-08-13 19:00,ZHHH 131900Z AUTO 2SM 26/23 A2980 RMK T02600230 IEM_DS3505
ZHHH,2001-08-13 20:00,ZHHH 132000Z AUTO 23002KT 2SM 25/23 A2980 RMK T02500230 IEM_DS3505
ZHHH,2001-08-13 21:00,ZHHH 132100Z AUTO 2SM 25/23 A2983 RMK T02500230 IEM_DS3505
ZHHH,2001-08-13 22:00,ZHHH 132200Z AUTO 1 1/4SM 25/23 A2983 RMK T02500230 IEM_DS3505
ZHHH,2001-08-13 23:00,ZHHH 132300Z AUTO 14002KT 1 1/4SM 25/24 A2983 RMK T02500240 IEM_DS3505
ZHHH,2001-08-14 00:00,ZHHH 140000Z AUTO 25004KT 11SM 26/23 A2983 RMK SLP106 T02610231 52008 IEM_DS3505
ZHHH,2001-08-14 01:00,ZHHH 140100Z AUTO 1 1/2SM 27/24 A2985 RMK T02700240 IEM_DS3505
ZHHH,2001-08-14 02:00,ZHHH 140200Z AUTO 6SM RMK IEM_DS3505
ZHHH,2001-08-14 03:00,ZHHH 140300Z AUTO 22002KT 11SM 29/23 A2985 RMK SLP110 T02910232 52004 IEM_DS3505
ZHHH,2001-08-14 04:00,ZHHH 140400Z AUTO 2 1/2SM 30/24 A2985 RMK T03000240 IEM_DS3505
ZHHH,2001-08-14 05:00,ZHHH 140500Z AUTO 16006KT 6SM 31/21 A2983 RMK T03100210 IEM_DS3505
ZHHH,2001-08-14 06:00,ZHHH 140600Z AUTO 16004KT 11SM 31/21 A2980 RMK SLP093 T03100212 57017 IEM_DS3505
ZHHH,2001-08-14 07:00,ZHHH 140700Z AUTO 30/22 A2980 RMK T03000220 IEM_DS3505
ZHHH,2001-08-14 08:00,ZHHH 140800Z AUTO 13006KT 31/23 A2977 RMK T03100230 IEM_DS3505
ZHHH,2001-08-14 09:00,ZHHH 140900Z AUTO 16002KT 9SM 30/22 A2977 RMK SLP075 T03040218 57018 IEM_DS3505
ZHHH,2001-08-14 10:00,ZHHH 141000Z AUTO 30/23 A2974 RMK T03000230 IEM_DS3505
ZHHH,2001-08-14 11:00,ZHHH 141100Z AUTO 12004KT 4SM 29/24 A2974 RMK T02900240 IEM_DS3505
ZHHH,2001-08-14 12:00,ZHHH 141200Z AUTO 00000KT 9SM 29/21 A2977 RMK 60003 SLP082 T02900213 52007 IEM_DS3505
ZHHH,2001-08-14 13:00,ZHHH 141300Z AUTO 3SM 29/23 A2980 RMK T02900230 IEM_DS3505
ZHHH,2001-08-14 15:00,ZHHH 141500Z AUTO 2 1/2SM 28/24 A2980 RMK T02800240 IEM_DS3505
ZHHH,2001-08-14 16:00,ZHHH 141600Z AUTO 2 1/2SM 28/24 A2980 RMK T02800240 IEM_DS3505
ZHHH,2001-08-14 17:00,ZHHH 141700Z AUTO 11004KT 2 1/2SM 27/24 A2980 RMK T02700240 IEM_DS3505
ZHHH,2001-08-14 18:00,ZHHH 141800Z AUTO 00000KT 9SM 28/23 A2977 RMK 60003 SLP083 T02750230 57010 IEM_DS3505
ZHHH,2001-08-14 19:00,ZHHH 141900Z AUTO 11006KT 2 1/2SM 26/23 A2977 RMK T02600230 IEM_DS3505
ZHHH,2001-08-14 20:00,ZHHH 142000Z AUTO 09010KT 1 1/2SM 24/23 A2977 RMK T02400230 IEM_DS3505
ZHHH,2001-08-14 21:00,ZHHH 142100Z AUTO 06006KT 2 1/2SM 23/23 A2977 RMK T02300230 IEM_DS3505
ZHHH,2001-08-14 22:00,ZHHH 142200Z AUTO 12006KT 6SM 23/22 A2977 RMK T02300220 IEM_DS3505
ZHHH,2001-08-14 23:00,ZHHH 142300Z AUTO 12006KT 6SM 23/22 A2977 RMK T02300220 IEM_DS3505
ZHHH,2001-08-15 00:00,ZHHH 150000Z AUTO 09002KT 11SM 25/21 A2980 RMK 70003 SLP088 T02500214 52003 IEM_DS3505
ZHHH,2001-08-15 01:00,ZHHH 150100Z AUTO 09008KT 6SM 25/23 A2980 RMK T02500230 IEM_DS3505
ZHHH,2001-08-15 02:00,ZHHH 150200Z AUTO 14008KT 6SM 27/24 A2980 RMK T02700240 IEM_DS3505
ZHHH,2001-08-15 03:00,ZHHH 150300Z AUTO 14004KT 11SM 29/22 A2980 RMK SLP090 T02880221 52002 IEM_DS3505
ZHHH,2001-08-15 04:00,ZHHH 150400Z AUTO 12010KT 7SM 29/24 A2980 RMK T02900240 IEM_DS3505
ZHHH,2001-08-15 05:00,ZHHH 150500Z AUTO 14006KT 7SM 29/22 A2977 RMK T02900220 IEM_DS3505
ZHHH,2001-08-15 06:00,ZHHH 150600Z AUTO 09004KT 11SM 31/23 A2977 RMK SLP074 T03070226 57016 IEM_DS3505
ZHHH,2001-08-15 07:00,ZHHH 150700Z AUTO 12010KT 7SM 30/24 A2974 RMK T03000240 IEM_DS3505
ZHHH,2001-08-15 08:00,ZHHH 150800Z AUTO 12006KT 6SM 30/23 A2971 RMK T03000230 IEM_DS3505
ZHHH,2001-08-15 09:00,ZHHH 150900Z AUTO 11004KT 11SM 31/22 A2971 RMK SLP060 T03090221 57014 IEM_DS3505
ZHHH,2001-08-15 10:00,ZHHH 151000Z AUTO 12008KT 6SM 29/23 A2971 RMK T02900230 IEM_DS3505
ZHHH,2001-08-15 11:00,ZHHH 151100Z AUTO 12008KT 6SM 28/23 A2971 RMK T02800230 IEM_DS3505
ZHHH,2001-08-15 12:00,ZHHH 151200Z AUTO 11004KT 9SM 28/22 A2974 RMK SLP067 T02840223 52007 IEM_DS3505
ZHHH,2001-08-15 13:00,ZHHH 151300Z AUTO 15006KT 6SM 26/24 A2974 RMK T02600240 IEM_DS3505
ZHHH,2001-08-15 14:00,ZHHH 151400Z AUTO 14006KT 6SM 26/24 A2977 RMK T02600240 IEM_DS3505
ZHHH,2001-08-15 15:00,ZHHH 151500Z AUTO 09004KT 9SM 26/20 A2977 RMK SLP080 T02620203 52013 IEM_DS3505
ZHHH,2001-08-15 16:00,ZHHH 151600Z AUTO 11006KT 2 1/2SM 24/22 A2977 RMK T02400220 IEM_DS3505
ZHHH,2001-08-15 17:00,ZHHH 151700Z AUTO 13004KT 2 1/2SM 24/23 A2974 RMK T02400230 IEM_DS3505
ZHHH,2001-08-15 18:00,ZHHH 151800Z AUTO 07002KT 12SM 25/21 A2974 RMK SLP067 T02470214 57013 IEM_DS3505
ZHHH,2001-08-15 19:00,ZHHH 151900Z AUTO 2 1/2SM 23/22 A2971 RMK T02300220 IEM_DS3505
ZHHH,2001-08-15 20:00,ZHHH 152000Z AUTO 10006KT 2SM 23/22 A2971 RMK T02300220 IEM_DS3505
ZHHH,2001-08-15 21:00,ZHHH 152100Z AUTO 11002KT 12SM 24/22 A2971 RMK SLP065 T02400223 57002 IEM_DS3505
ZHHH,2001-08-15 22:00,ZHHH 152200Z AUTO 07006KT 2SM 23/22 A2974 RMK T02300220 IEM_DS3505
ZHHH,2001-08-15 23:00,ZHHH 152300Z AUTO 09006KT 2 1/2SM 23/22 A2974 RMK T02300220 IEM_DS3505
ZHHH,2001-08-16 00:00,ZHHH 160000Z AUTO 09004KT 11SM 26/22 A2977 RMK SLP080 T02600225 52015 IEM_DS3505
ZHHH,2001-08-16 01:00,ZHHH 160100Z AUTO 09010KT 6SM 26/23 A2977 RMK T02600230 IEM_DS3505
ZHHH,2001-08-16 02:00,ZHHH 160200Z AUTO 10008KT 7SM 28/23 A2977 RMK T02800230 IEM_DS3505
ZHHH,2001-08-16 03:00,ZHHH 160300Z AUTO 09006G17KT 11SM 29/22 A2977 RMK SLP079 T02860221 57001 IEM_DS3505
ZHHH,2001-08-16 04:00,ZHHH 160400Z AUTO 15004KT 7SM 29/23 A2974 RMK T02900230 IEM_DS3505
ZHHH,2001-08-16 05:00,ZHHH 160500Z AUTO 13006KT 7SM 30/24 A2974 RMK T03000240 IEM_DS3505
ZHHH,2001-08-16 06:00,ZHHH 160600Z AUTO 14002KT 11SM 32/22 A2974 RMK SLP066 T03150221 57013 IEM_DS3505
ZHHH,2001-08-16 07:00,ZHHH 160700Z AUTO 14008KT 7SM 31/22 A2971 RMK T03100220 IEM_DS3505
ZHHH,2001-08-16 08:00,ZHHH 160800Z AUTO 15006KT 6SM 31/22 A2968 RMK T03100220 IEM_DS3505
ZHHH,2001-08-16 09:00,ZHHH 160900Z AUTO 04002KT 11SM 32/20 A2968 RMK SLP046 T03150203 57020 IEM_DS3505
ZHHH,2001-08-16 10:00,ZHHH 161000Z AUTO 12006KT 6SM 31/22 A2965 RMK T03100220 IEM_DS3505
ZHHH,2001-08-16 11:00,ZHHH 161100Z AUTO 6SM 30/23 A2968 RMK T03000230 IEM_DS3505
ZHHH,2001-08-16 12:00,ZHHH 161200Z AUTO 02002KT 12SM 30/22 A2971 RMK SLP057 T02960215 52011 IEM_DS3505
ZHHH,2001-08-16 13:00,ZHHH 161300Z AUTO 05004KT 6SM 29/23 A2971 RMK T02900230 IEM_DS3505
ZHHH,2001-08-16 14:00,ZHHH 161400Z AUTO 6SM 28/23 A2974 RMK T02800230 IEM_DS3505
ZHHH,2001-08-16 15:00,ZHHH 161500Z AUTO 04002KT 12SM 28/23 A2974 RMK SLP069 T02820228 52012 IEM_DS3505
ZHHH,2001-08-16 16:00,ZHHH 161600Z AUTO 05006KT 6SM 26/24 A2974 RMK T02600240 IEM_DS3505
ZHHH,2001-08-16 17:00,ZHHH 161700Z AUTO 06008KT 6SM 26/24 A2974 RMK T02600240 IEM_DS3505
ZHHH,2001-08-16 18:00,ZHHH 161800Z AUTO 02002KT 11SM 27/23 A2971 RMK SLP062 T02660233 57006 IEM_DS3505
ZHHH,2001-08-16 19:00,ZHHH 161900Z AUTO 05006KT 6SM 25/23 A2971 RMK T02500230 IEM_DS3505
ZHHH,2001-08-16 20:00,ZHHH 162000Z AUTO 04004KT 6SM 25/23 A2971 RMK T02500230 IEM_DS3505
ZHHH,2001-08-16 21:00,ZHHH 162100Z AUTO 04002KT 11SM 26/23 A2971 RMK SLP063 T02580226 54000 IEM_DS3505
ZHHH,2001-08-16 22:00,ZHHH 162200Z AUTO 7SM 24/23 A2974 RMK T02400230 IEM_DS3505
ZHHH,2001-08-17 01:00,ZHHH 170100Z AUTO 7SM 29/24 A2977 RMK T02900240 IEM_DS3505
ZHHH,2001-08-17 02:00,ZHHH 170200Z AUTO 04008KT 6SM 29/23 A2977 RMK T02900230 IEM_DS3505
ZHHH,2001-08-17 03:00,ZHHH 170300Z AUTO 04004KT 12SM 31/23 A2977 RMK SLP077 T03080227 54000 IEM_DS3505
ZHHH,2001-08-17 04:00,ZHHH 170400Z AUTO 7SM 32/23 A2974 RMK T03200230 IEM_DS3505
ZHHH,2001-08-17 05:00,ZHHH 170500Z AUTO 7SM 32/23 A2974 RMK T03200230 IEM_DS3505
ZHHH,2001-08-17 06:00,ZHHH 170600Z AUTO 09004KT 11SM 33/22 A2971 RMK SLP059 T03300225 57018 IEM_DS3505
ZHHH,2001-08-17 07:00,ZHHH 170700Z AUTO 7SM 33/23 A2968 RMK T03300230 IEM_DS3505
ZHHH,2001-08-17 08:00,ZHHH 170800Z AUTO 7SM 34/24 A2965 RMK T03400240 IEM_DS3505
ZHHH,2001-08-17 09:00,ZHHH 170900Z AUTO 14002KT 11SM 33/20 A2965 RMK SLP041 T03340201 57018 IEM_DS3505
ZHHH,2001-08-17 10:00,ZHHH 171000Z AUTO 6SM 33/22 A2965 RMK T03300220 IEM_DS3505
ZHHH,2001-08-17 11:00,ZHHH 171100Z AUTO 7SM 32/23 A2965 RMK T03200230 IEM_DS3505
ZHHH,2001-08-17 12:00,ZHHH 171200Z AUTO 18002KT 11SM 31/24 RMK SLP055 T03140237 52014 IEM_DS3505
ZHHH,2001-08-17 13:00,ZHHH 171300Z AUTO 06010KT 6SM 29/24 A2974 RMK T02900240 IEM_DS3505
ZHHH,2001-08-17 14:00,ZHHH 171400Z AUTO 07008KT 6SM 28/24 A2974 RMK T02800240 IEM_DS3505
ZHHH,2001-08-17 15:00,ZHHH 171500Z AUTO 09002KT 11SM 29/22 A2974 RMK SLP068 T02880223 52013 IEM_DS3505
ZHHH,2001-08-17 16:00,ZHHH 171600Z AUTO 08008KT 6SM 27/24 A2974 RMK T02700240 IEM_DS3505
ZHHH,2001-08-17 17:00,ZHHH 171700Z AUTO 08010KT 6SM 27/23 A2974 RMK T02700230 IEM_DS3505
ZHHH,2001-08-17 18:00,ZHHH 171800Z AUTO 04002KT 11SM 28/24 A2974 RMK SLP068 T02750237 54000 IEM_DS3505
ZHHH,2001-08-17 19:00,ZHHH 171900Z AUTO 08008KT 6SM 26/23 A2974 RMK T02600230 IEM_DS3505
ZHHH,2001-08-17 20:00,ZHHH 172000Z AUTO 09008KT 3SM 26/23 A2971 RMK T02600230 IEM_DS3505
ZHHH,2001-08-17 21:00,ZHHH 172100Z AUTO 09004KT 11SM 27/24 A2971 RMK SLP063 T02680238 57005 IEM_DS3505
ZHHH,2001-08-17 22:00,ZHHH 172200Z AUTO 3SM 25/23 A2974 RMK T02500230 IEM_DS3505
ZHHH,2001-08-17 23:00,ZHHH 172300Z AUTO 07006KT 3SM 25/24 A2974 RMK T02500240 IEM_DS3505
ZHHH,2001-08-18 00:00,ZHHH 180000Z AUTO 09004KT 12SM 28/24 A2974 RMK SLP072 T02830239 52009 IEM_DS3505
ZHHH,2001-08-18 01:00,ZHHH 180100Z AUTO 09008KT 6SM 29/25 A2977 RMK T02900250 IEM_DS3505
ZHHH,2001-08-18 02:00,ZHHH 180200Z AUTO 10006KT 6SM 31/25 A2977 RMK T03100250 IEM_DS3505
ZHHH,2001-08-18 03:00,ZHHH 180300Z AUTO 09004KT 14SM 32/24 RMK SLP073 T03210241 52001 IEM_DS3505
ZHHH,2001-08-18 04:00,ZHHH 180400Z AUTO 13008KT 7SM 33/25 A2974 RMK T03300250 IEM_DS3505
ZHHH,2001-08-18 05:00,ZHHH 180500Z AUTO 14010KT 7SM 34/24 A2971 RMK T03400240 IEM_DS3505
ZHHH,2001-08-18 06:00,ZHHH 180600Z AUTO 09006KT 14SM 34/24 A2971 RMK SLP057 T03370239 57016 IEM_DS3505
ZHHH,2001-08-18 07:00,ZHHH 180700Z AUTO 11008KT 7SM 34/24 A2968 RMK T03400240 IEM_DS3505
ZHHH,2001-08-18 08:00,ZHHH 180800Z AUTO 7SM 34/23 A2965 RMK T03400230 IEM_DS3505
ZHHH,2001-08-18 09:00,ZHHH 180900Z AUTO 07002KT 16SM 34/23 A2965 RMK SLP037 T03450226 57020 IEM_DS3505
ZHHH,2001-08-18 10:00,ZHHH 181000Z AUTO 12008KT 6SM 33/24 A2965 RMK T03300240 IEM_DS3505
ZHHH,2001-08-18 11:00,ZHHH 181100Z AUTO 11006KT 6SM 32/25 A2965 RMK T03200250 IEM_DS3505
ZHHH,2001-08-18 12:00,ZHHH 181200Z AUTO 09002KT 11SM 31/24 A2968 RMK SLP051 T03140236 52014 IEM_DS3505
ZHHH,2001-08-18 13:00,ZHHH 181300Z AUTO 07010KT 6SM 29/25 A2971 RMK T02900250 IEM_DS3505
ZHHH,2001-08-18 14:00,ZHHH 181400Z AUTO 06008KT 6SM 28/25 A2974 RMK T02800250 IEM_DS3505
ZHHH,2001-08-18 15:00,ZHHH 181500Z AUTO 07004KT 11SM 29/25 A2974 RMK SLP067 T02870252 52016 IEM_DS3505
ZHHH,2001-08-18 16:00,ZHHH 181600Z AUTO 08008KT 6SM 27/24 A2974 RMK T02700240 IEM_DS3505
ZHHH,2001-08-18 17:00,ZHHH 181700Z AUTO 07006KT 6SM 27/24 A2974 RMK T02700240 IEM_DS3505
ZHHH,2001-08-18 18:00,ZHHH 181800Z AUTO 07004KT 11SM 27/25 A2974 RMK SLP064 T02730247 57003 IEM_DS3505
ZHHH,2001-08-18 19:00,ZHHH 181900Z AUTO 07006KT 6SM 26/24 A2971 RMK T02600240 IEM_DS3505
ZHHH,2001-08-18 20:00,ZHHH 182000Z AUTO 10006KT 6SM 26/24 A2971 RMK T02600240 IEM_DS3505
ZHHH,2001-08-18 21:00,ZHHH 182100Z AUTO 07002KT 11SM 27/24 A2971 RMK SLP062 T02710245 57002 IEM_DS3505
ZHHH,2001-08-18 22:00,ZHHH 182200Z AUTO 09008KT 6SM 25/24 A2974 RMK T02500240 IEM_DS3505
ZHHH,2001-08-18 23:00,ZHHH 182300Z AUTO 09008KT 3SM 26/24 A2974 RMK T02600240 IEM_DS3505
ZHHH,2001-08-19 00:00,ZHHH 190000Z AUTO 11004KT 12SM 30/24 A2974 RMK SLP071 T02950236 52009 IEM_DS3505
ZHHH,2001-08-19 01:00,ZHHH 190100Z AUTO 13008KT 2 1/2SM 30/26 A2974 RMK T03000260 IEM_DS3505
ZHHH,2001-08-19 02:00,ZHHH 190200Z AUTO 13010KT 3SM 31/25 A2977 RMK T03100250 IEM_DS3505
ZHHH,2001-08-19 03:00,ZHHH 190300Z AUTO 11004KT 16SM 33/22 A2974 RMK SLP073 T03280222 52002 IEM_DS3505
ZHHH,2001-08-19 04:00,ZHHH 190400Z AUTO 12008KT 6SM 33/24 A2974 RMK T03300240 IEM_DS3505
ZHHH,2001-08-19 05:00,ZHHH 190500Z AUTO 6SM 34/22 A2974 RMK T03400220 IEM_DS3505
ZHHH,2001-08-19 06:00,ZHHH 190600Z AUTO 36004KT 16SM 35/21 A2971 RMK SLP057 T03500213 57016 IEM_DS3505
ZHHH,2001-08-19 07:00,ZHHH 190700Z AUTO 10008KT 6SM 35/21 A2971 RMK T03500210 IEM_DS3505
ZHHH,2001-08-19 08:00,ZHHH 190800Z AUTO 13006KT 6SM 35/20 A2968 RMK T03500200 IEM_DS3505
ZHHH,2001-08-19 09:00,ZHHH 190900Z AUTO 11002KT 16SM 35/20 A2968 RMK SLP052 T03470195 57005 IEM_DS3505
ZHHH,2001-08-19 10:00,ZHHH 191000Z AUTO 15006KT 6SM 34/22 A2968 RMK T03400220 IEM_DS3505
ZHHH,2001-08-19 11:00,ZHHH 191100Z AUTO 6SM 32/23 A2971 RMK T03200230 IEM_DS3505
ZHHH,2001-08-19 12:00,ZHHH 191200Z AUTO 09002KT 11SM 32/21 A2971 RMK SLP059 T03250210 52007 IEM_DS3505
ZHHH,2001-08-19 13:00,ZHHH 191300Z AUTO 03004KT 6SM 31/24 A2974 RMK T03100240 IEM_DS3505
ZHHH,2001-08-19 14:00,ZHHH 191400Z AUTO 03004KT 6SM 30/24 A2974 RMK T03000240 IEM_DS3505
ZHHH,2001-08-19 15:00,ZHHH 191500Z AUTO 04004KT 11SM 30/24 A2977 RMK SLP074 T03040238 52015 IEM_DS3505
ZHHH,2001-08-19 16:00,ZHHH 191600Z AUTO 07006KT 6SM 29/25 A2974 RMK T02900250 IEM_DS3505
ZHHH,2001-08-19 17:00,ZHHH 191700Z AUTO 07006KT 6SM 28/25 A2974 RMK T02800250 IEM_DS3505
ZHHH,2001-08-19 18:00,ZHHH 191800Z AUTO 07002KT 9SM 29/24 A2974 RMK SLP072 T02920241 57002 IEM_DS3505
ZHHH,2001-08-19 19:00,ZHHH 191900Z AUTO 05006KT 6SM 27/25 A2974 RMK T02700250 IEM_DS3505
ZHHH,2001-08-19 20:00,ZHHH 192000Z AUTO 05006KT 6SM 27/25 A2974 RMK T02700250 IEM_DS3505
ZHHH,2001-08-19 21:00,ZHHH 192100Z AUTO 04002KT 11SM 28/24 A2974 RMK SLP073 T02800240 52001 IEM_DS3505
ZHHH,2001-08-19 22:00,ZHHH 192200Z AUTO 06008KT 6SM 26/25 A2977 RMK T02600250 IEM_DS3505
ZHHH,2001-08-19 23:00,ZHHH 192300Z AUTO 05008KT 3SM 27/25 A2977 RMK T02700250 IEM_DS3505
ZHHH,2001-08-20 00:00,ZHHH 200000Z AUTO 07004KT 12SM 29/24 A2977 RMK SLP082 T02860245 52009 IEM_DS3505
ZHHH,2001-08-20 01:00,ZHHH 200100Z AUTO 03008KT 3SM 28/25 A2980 RMK T02800250 IEM_DS3505
ZHHH,2001-08-20 02:00,ZHHH 200200Z AUTO 03008KT 3SM 30/25 A2980 RMK T03000250 IEM_DS3505
ZHHH,2001-08-20 03:00,ZHHH 200300Z AUTO 02004KT 12SM 30/24 A2980 RMK SLP090 T03030239 52008 IEM_DS3505
ZHHH,2001-08-20 04:00,ZHHH 200400Z AUTO 7SM 32/25 A2980 RMK T03200250 IEM_DS3505
ZHHH,2001-08-20 05:00,ZHHH 200500Z AUTO 32006KT 7SM 33/24 A2977 RMK T03300240 IEM_DS3505
ZHHH,2001-08-20 06:00,ZHHH 200600Z AUTO 27002KT 16SM 34/24 A2977 RMK SLP075 T03350240 57015 IEM_DS3505
ZHHH,2001-08-20 07:00,ZHHH 200700Z AUTO 7SM 32/25 A2974 RMK T03200250 IEM_DS3505
ZHHH,2001-08-20 08:00,ZHHH 200800Z AUTO 31008KT 7SM 32/25 A2971 RMK T03200250 IEM_DS3505
ZHHH,2001-08-20 09:00,ZHHH 200900Z AUTO 27006KT 11SM 32/24 A2971 RMK SLP064 T03250240 57011 IEM_DS3505
ZHHH,2001-08-20 10:00,ZHHH 201000Z AUTO 35008KT 6SM 31/24 A2971 RMK T03100240 IEM_DS3505
ZHHH,2001-08-20 11:00,ZHHH 201100Z AUTO 33006KT 6SM 32/24 A2971 RMK T03200240 IEM_DS3505
ZHHH,2001-08-20 12:00,ZHHH 201200Z AUTO 36006KT 11SM 30/23 A2974 RMK SLP068 T03000234 52004 IEM_DS3505
ZHHH,2001-08-20 13:00,ZHHH 201300Z AUTO 36008KT 6SM 28/24 A2974 RMK T02800240 IEM_DS3505
ZHHH,2001-08-20 14:00,ZHHH 201400Z AUTO 01006KT 6SM 28/24 A2977 RMK T02800240 IEM_DS3505
ZHHH,2001-08-20 15:00,ZHHH 201500Z AUTO 32002KT 9SM 28/23 A2977 RMK SLP079 T02750233 52010 IEM_DS3505
ZHHH,2001-08-20 16:00,ZHHH 201600Z AUTO 6SM 26/24 A2977 RMK T02600240 IEM_DS3505
ZHHH,2001-08-20 17:00,ZHHH 201700Z AUTO 4SM 25/23 A2974 RMK T02500230 IEM_DS3505
ZHHH,2001-08-20 18:00,ZHHH 201800Z AUTO 27002KT 7SM 26/23 A2974 RMK SLP072 T02590228 57006 IEM_DS3505
ZHHH,2001-08-20 19:00,ZHHH 201900Z AUTO 3SM 25/23 A2974 RMK T02500230 IEM_DS3505
ZHHH,2001-08-20 20:00,ZHHH 202000Z AUTO 36008KT 3SM 24/23 A2974 RMK T02400230 IEM_DS3505
ZHHH,2001-08-20 21:00,ZHHH 202100Z AUTO 36006KT 11SM 30/23 A2974 RMK SLP068 T03000234 52004 IEM_DS3505
ZHHH,2001-08-20 22:00,ZHHH 202200Z AUTO 4SM 24/22 A2974 RMK T02400220 IEM_DS3505
ZHHH,2001-08-20 23:00,ZHHH 202300Z AUTO 4SM 24/22 A2974 RMK T02400220 IEM_DS3505
ZHHH,2001-08-21 00:00,ZHHH 210000Z AUTO 36002KT 9SM 26/22 A2974 RMK SLP071 T02590225 52004 IEM_DS3505
ZHHH,2001-08-21 01:00,ZHHH 210100Z AUTO 33006KT 4SM 28/24 A2974 RMK T02800240 IEM_DS3505
ZHHH,2001-08-21 02:00,ZHHH 210200Z AUTO 33008KT 4SM 28/23 A2977 RMK T02800230 IEM_DS3505
ZHHH,2001-08-21 03:00,ZHHH 210300Z AUTO 29006KT 11SM 28/22 A2977 RMK SLP078 T02800221 52007 IEM_DS3505
ZHHH,2001-08-21 04:00,ZHHH 210400Z AUTO 35010KT 6SM 28/23 A2974 RMK T02800230 IEM_DS3505
ZHHH,2001-08-21 05:00,ZHHH 210500Z AUTO 6SM 28/23 A2971 RMK T02800230 IEM_DS3505
ZHHH,2001-08-21 06:00,ZHHH 210600Z AUTO 34002KT 11SM 28/22 A2968 RMK SLP052 T02800221 57026 IEM_DS3505
ZHHH,2001-08-21 07:00,ZHHH 210700Z AUTO 33008KT 6SM 27/24 A2965 RMK T02700240 IEM_DS3505
ZHHH,2001-08-21 08:00,ZHHH 210800Z AUTO 33008KT 6SM 28/24 A2965 RMK T02800240 IEM_DS3505
ZHHH,2001-08-21 09:00,ZHHH 210900Z AUTO 36004KT 7SM 28/23 A2962 RMK SLP036 T02810229 57016 IEM_DS3505
ZHHH,2001-08-21 10:00,ZHHH 211000Z AUTO 6SM 28/23 A2962 RMK T02800230 IEM_DS3505
ZHHH,2001-08-21 11:00,ZHHH 211100Z AUTO 30006KT 6SM 28/24 A2965 RMK T02800240 IEM_DS3505
ZHHH,2001-08-21 12:00,ZHHH 211200Z AUTO 29002KT 9SM 27/23 A2965 RMK 60003 SLP041 T02740230 52005 IEM_DS3505
ZHHH,2001-08-21 13:00,ZHHH 211300Z AUTO 29002KT 3SM 27/24 A2965 RMK T02700240 IEM_DS3505
ZHHH,2001-08-21 14:00,ZHHH 211400Z AUTO 31002KT 2 1/2SM 27/24 A2965 RMK T02700240 IEM_DS3505
ZHHH,2001-08-21 15:00,ZHHH 211500Z AUTO 27002KT 9SM 27/23 A2968 RMK SLP046 T02720230 52005 IEM_DS3505
ZHHH,2001-08-21 16:00,ZHHH 211600Z AUTO 25002KT 2SM 27/24 A2965 RMK T02700240 IEM_DS3505
ZHHH,2001-08-21 17:00,ZHHH 211700Z AUTO 1 1/2SM 26/24 A2965 RMK T02600240 IEM_DS3505
ZHHH,2001-08-21 18:00,ZHHH 211800Z AUTO 27002KT 9SM 27/23 A2965 RMK SLP036 T02700230 57010 IEM_DS3505
ZHHH,2001-08-21 19:00,ZHHH 211900Z AUTO 30004KT 2SM 26/24 A2962 RMK T02600240 IEM_DS3505
ZHHH,2001-08-21 20:00,ZHHH 212000Z AUTO 2SM 25/24 A2962 RMK T02500240 IEM_DS3505
ZHHH,2001-08-21 21:00,ZHHH 212100Z AUTO 27004KT 9SM 26/24 A2962 RMK 70003 SLP027 T02620238 57009 IEM_DS3505
ZHHH,2001-08-21 22:00,ZHHH 212200Z AUTO 1 1/2SM 25/24 A2962 RMK T02500240 IEM_DS3505
ZHHH,2001-08-21 23:00,ZHHH 212300Z AUTO 1 1/2SM 25/24 A2962 RMK T02500240 IEM_DS3505
ZHHH,2001-08-22 00:00,ZHHH 220000Z AUTO 27002KT 11SM 27/24 A2965 RMK 70003 SLP038 T02710236 52011 IEM_DS3505
ZHHH,2001-08-22 01:00,ZHHH 220100Z AUTO 30004KT 2 1/2SM 28/25 A2965 RMK T02800250 IEM_DS3505
ZHHH,2001-08-22 02:00,ZHHH 220200Z AUTO 31004KT 4SM 29/24 A2965 RMK T02900240 IEM_DS3505
ZHHH,2001-08-22 03:00,ZHHH 220300Z AUTO 27004KT 11SM 31/24 A2965 RMK SLP038 T03100236 52001 IEM_DS3505
ZHHH,2001-08-22 04:00,ZHHH 220400Z AUTO 27006KT 7SM 31/25 A2962 RMK T03100250 IEM_DS3505
ZHHH,2001-08-22 05:00,ZHHH 220500Z AUTO 27006KT 32/24 A2962 RMK T03200240 IEM_DS3505
ZHHH,2001-08-22 06:00,ZHHH 220600Z AUTO 29006KT 12SM 32/23 A2959 RMK SLP021 T03240229 57017 IEM_DS3505
ZHHH,2001-08-22 07:00,ZHHH 220700Z AUTO 28006KT 6SM 32/23 A2959 RMK T03200230 IEM_DS3505
ZHHH,2001-08-22 08:00,ZHHH 220800Z AUTO 6SM 32/24 A2956 RMK T03200240 IEM_DS3505
ZHHH,2001-08-22 09:00,ZHHH 220900Z AUTO 29004KT 11SM 31/23 A2959 RMK SLP016 T03130228 57005 IEM_DS3505
ZHHH,2001-08-22 10:00,ZHHH 221000Z AUTO 26004KT 6SM 30/25 A2956 RMK T03000250 IEM_DS3505
ZHHH,2001-08-22 11:00,ZHHH 221100Z AUTO 25004KT 6SM 30/25 A2956 RMK T03000250 IEM_DS3505
ZHHH,2001-08-22 12:00,ZHHH 221200Z AUTO 25002KT 9SM 30/24 A2959 RMK SLP019 T02980238 52003 IEM_DS3505
ZHHH,2001-08-22 13:00,ZHHH 221300Z AUTO 27004KT 4SM 29/26 A2959 RMK T02900260 IEM_DS3505
ZHHH,2001-08-22 14:00,ZHHH 221400Z AUTO 22002KT 4SM 29/25 A2962 RMK T02900250 IEM_DS3505
ZHHH,2001-08-22 15:00,ZHHH 221500Z AUTO 00000KT 9SM 29/24 A2959 RMK SLP021 T02920238 52002 IEM_DS3505
ZHHH,2001-08-22 16:00,ZHHH 221600Z AUTO 29002KT 4SM 28/26 A2959 RMK T02800260 IEM_DS3505
ZHHH,2001-08-22 17:00,ZHHH 221700Z AUTO 3SM 28/26 A2959 RMK T02800260 IEM_DS3505
ZHHH,2001-08-22 18:00,ZHHH 221800Z AUTO 00000KT 9SM 28/24 A2959 RMK SLP016 T02850242 57005 IEM_DS3505
ZHHH,2001-08-22 19:00,ZHHH 221900Z AUTO 21004KT 4SM 28/26 A2956 RMK T02800260 IEM_DS3505
ZHHH,2001-08-22 20:00,ZHHH 222000Z AUTO 24002KT 2 1/2SM 28/26 A2956 RMK T02800260 IEM_DS3505
ZHHH,2001-08-22 21:00,ZHHH 222100Z AUTO 29002KT 9SM 28/25 A2959 RMK SLP016 T02800249 54000 IEM_DS3505
ZHHH,2001-08-22 22:00,ZHHH 222200Z AUTO 25004KT 2 1/2SM 27/26 A2959 RMK T02700260 IEM_DS3505
ZHHH,2001-08-22 23:00,ZHHH 222300Z AUTO 2 1/2SM 27/26 A2959 RMK T02700260 IEM_DS3505
ZHHH,2001-08-23 00:00,ZHHH 230000Z AUTO 27002KT 9SM 28/26 A2962 RMK SLP026 T02840255 52010 IEM_DS3505
ZHHH,2001-08-23 01:00,ZHHH 230100Z AUTO 2 1/2SM 29/26 A2962 RMK T02900260 IEM_DS3505
ZHHH,2001-08-23 02:00,ZHHH 230200Z AUTO 2 1/2SM 30/26 A2962 RMK T03000260 IEM_DS3505
ZHHH,2001-08-23 03:00,ZHHH 230300Z AUTO 27004KT 9SM 31/24 A2959 RMK SLP022 T03120244 57004 IEM_DS3505
ZHHH,2001-08-23 04:00,ZHHH 230400Z AUTO 28006KT 6SM 30/26 A2959 RMK T03000260 IEM_DS3505
ZHHH,2001-08-23 05:00,ZHHH 230500Z AUTO 29008KT 6SM 31/25 A2959 RMK T03100250 IEM_DS3505
ZHHH,2001-08-23 06:00,ZHHH 230600Z AUTO 29006KT 11SM 32/23 A2956 RMK SLP010 T03180233 57012 IEM_DS3505
ZHHH,2001-08-23 07:00,ZHHH 230700Z AUTO 28008KT 6SM 33/25 A2953 RMK T03300250 IEM_DS3505
ZHHH,2001-08-23 08:00,ZHHH 230800Z AUTO 26010KT 7SM 32/25 A2953 RMK T03200250 IEM_DS3505
ZHHH,2001-08-23 09:00,ZHHH 230900Z AUTO 27002KT 11SM 29/24 A2953 RMK SLP005 T02920237 57005 IEM_DS3505
ZHHH,2001-08-23 10:00,ZHHH 231000Z AUTO 26008KT 6SM 30/24 A2953 RMK T03000240 IEM_DS3505
ZHHH,2001-08-23 11:00,ZHHH 231100Z AUTO 23008KT 6SM 29/24 A2953 RMK T02900240 IEM_DS3505
ZHHH,2001-08-23 12:00,ZHHH 231200Z AUTO 25002KT 9SM 28/24 A2956 RMK 60004 SLP013 T02760240 52008 IEM_DS3505
ZHHH,2001-08-23 13:00,ZHHH 231300Z AUTO 7SM 27/24 A2959 RMK T02700240 IEM_DS3505
ZHHH,2001-08-23 14:00,ZHHH 231400Z AUTO 23008KT 6SM 27/24 A2962 RMK T02700240 IEM_DS3505
ZHHH,2001-08-23 15:00,ZHHH 231500Z AUTO 25002KT 9SM 27/24 A2959 RMK SLP020 T02690239 52007 IEM_DS3505
ZHHH,2001-08-23 16:00,ZHHH 231600Z AUTO 6SM 27/24 A2962 RMK T02700240 IEM_DS3505
ZHHH,2001-08-23 17:00,ZHHH 231700Z AUTO 6SM 26/25 A2959 RMK T02600250 IEM_DS3505
ZHHH,2001-08-23 18:00,ZHHH 231800Z AUTO 20002KT 11SM 26/24 A2959 RMK SLP019 T02620242 57001 IEM_DS3505
ZHHH,2001-08-23 19:00,ZHHH 231900Z AUTO 26006KT 7SM 26/25 A2959 RMK T02600250 IEM_DS3505
ZHHH,2001-08-23 20:00,ZHHH 232000Z AUTO 4SM 26/25 A2959 RMK T02600250 IEM_DS3505
ZHHH,2001-08-23 21:00,ZHHH 232100Z AUTO 27002KT 6SM 26/24 A2959 RMK 70005 SLP020 T02550236 54000 IEM_DS3505
ZHHH,2001-08-23 22:00,ZHHH 232200Z AUTO 3SM 25/24 A2959 RMK T02500240 IEM_DS3505
ZHHH,2001-08-23 23:00,ZHHH 232300Z AUTO 4SM 25/24 A2959 RMK T02500240 IEM_DS3505
ZHHH,2001-08-24 00:00,ZHHH 240000Z AUTO 27002KT 9SM 26/23 A2959 RMK 70005 SLP024 T02600228 52004 IEM_DS3505
ZHHH,2001-08-24 01:00,ZHHH 240100Z AUTO 6SM 27/23 A2962 RMK T02700230 IEM_DS3505
ZHHH,2001-08-24 02:00,ZHHH 240200Z AUTO 22006KT 6SM 28/24 A2962 RMK T02800240 IEM_DS3505
ZHHH,2001-08-24 03:00,ZHHH 240300Z AUTO 27002KT 9SM 29/24 A2962 RMK SLP031 T02860235 52007 IEM_DS3505
ZHHH,2001-08-24 04:00,ZHHH 240400Z AUTO 7SM 30/24 A2962 RMK T03000240 IEM_DS3505
ZHHH,2001-08-24 05:00,ZHHH 240500Z AUTO 7SM 30/24 A2959 RMK T03000240 IEM_DS3505
ZHHH,2001-08-24 06:00,ZHHH 240600Z AUTO 11002KT 11SM 30/24 A2959 RMK SLP016 T03010237 57014 IEM_DS3505
ZHHH,2001-08-24 07:00,ZHHH 240700Z AUTO 7SM 31/24 A2956 RMK T03100240 IEM_DS3505
ZHHH,2001-08-24 08:00,ZHHH 240800Z AUTO 20006KT 7SM 30/25 A2956 RMK T03000250 IEM_DS3505
ZHHH,2001-08-24 09:00,ZHHH 240900Z AUTO 14002KT 6SM 29/24 A2956 RMK SLP015 T02940236 57002 IEM_DS3505
ZHHH,2001-08-24 10:00,ZHHH 241000Z AUTO 2 1/2SM 28/25 A2959 RMK T02800250 IEM_DS3505
ZHHH,2001-08-24 11:00,ZHHH 241100Z AUTO 2 1/2SM 28/25 A2959 RMK T02800250 IEM_DS3505
ZHHH,2001-08-24 12:00,ZHHH 241200Z AUTO 18002KT 7SM 28/24 A2959 RMK 60003 SLP027 T02760245 52012 IEM_DS3505
ZHHH,2001-08-24 13:00,ZHHH 241300Z AUTO 4SM 27/24 A2962 RMK T02700240 IEM_DS3505
ZHHH,2001-08-24 14:00,ZHHH 241400Z AUTO 4SM 26/24 A2965 RMK T02600240 IEM_DS3505
ZHHH,2001-08-24 15:00,ZHHH 241500Z AUTO 29002KT 7SM 26/23 A2965 RMK SLP036 T02650234 52009 IEM_DS3505
ZHHH,2001-08-24 16:00,ZHHH 241600Z AUTO 4SM 25/24 A2965 RMK T02500240 IEM_DS3505
ZHHH,2001-08-24 17:00,ZHHH 241700Z AUTO 2 1/2SM 25/24 A2965 RMK T02500240 IEM_DS3505
ZHHH,2001-08-24 18:00,ZHHH 241800Z AUTO 07002KT 9SM 26/24 A2965 RMK 60003 SLP038 T02570238 52002 IEM_DS3505
ZHHH,2001-08-24 19:00,ZHHH 241900Z AUTO 3SM 25/23 A2965 RMK T02500230 IEM_DS3505
ZHHH,2001-08-24 20:00,ZHHH 242000Z AUTO 2SM 25/24 A2965 RMK T02500240 IEM_DS3505
ZHHH,2001-08-24 21:00,ZHHH 242100Z AUTO 09002KT 9SM 26/24 A2965 RMK 70003 SLP036 T02570236 57002 IEM_DS3505
ZHHH,2001-08-24 22:00,ZHHH 242200Z AUTO 06006KT 3SM 24/23 A2965 RMK T02400230 IEM_DS3505
ZHHH,2001-08-24 23:00,ZHHH 242300Z AUTO 4SM 25/23 A2968 RMK T02500230 IEM_DS3505
ZHHH,2001-08-25 00:00,ZHHH 250000Z AUTO 09002KT 9SM 26/24 A2971 RMK 60003 SLP038 T02570238 52002 IEM_DS3505
ZHHH,2001-08-25 01:00,ZHHH 250100Z AUTO 04010KT 6SM 29/24 A2971 RMK T02900240 IEM_DS3505
ZHHH,2001-08-25 02:00,ZHHH 250200Z AUTO 05008KT 6SM 30/24 A2974 RMK T03000240 IEM_DS3505
ZHHH,2001-08-25 03:00,ZHHH 250300Z AUTO 07002KT 12SM 31/23 A2974 RMK SLP069 T03090228 52008 IEM_DS3505
ZHHH,2001-08-25 04:00,ZHHH 250400Z AUTO 05008KT 7SM 33/23 A2971 RMK T03300230 IEM_DS3505
ZHHH,2001-08-25 05:00,ZHHH 250500Z AUTO 05008KT 7SM 34/21 A2971 RMK T03400210 IEM_DS3505
ZHHH,2001-08-25 06:00,ZHHH 250600Z AUTO 14004KT 11SM 34/22 A2968 RMK SLP055 T03390223 57013 IEM_DS3505
ZHHH,2001-08-25 07:00,ZHHH 250700Z AUTO 05012KT 7SM 34/21 A2968 RMK T03400210 IEM_DS3505
ZHHH,2001-08-25 08:00,ZHHH 250800Z AUTO 05016KT 7SM 34/20 A2968 RMK T03400200 IEM_DS3505
ZHHH,2001-08-25 09:00,ZHHH 250900Z AUTO 04006KT 11SM 34/19 A2968 RMK SLP045 T03410189 57010 IEM_DS3505
ZHHH,2001-08-25 10:00,ZHHH 251000Z AUTO 04012KT 6SM 33/21 A2968 RMK T03300210 IEM_DS3505
ZHHH,2001-08-25 11:00,ZHHH 251100Z AUTO 04006KT 6SM 31/22 A2968 RMK T03100220 IEM_DS3505
ZHHH,2001-08-25 12:00,ZHHH 251200Z AUTO 04004KT 11SM 30/21 A2971 RMK SLP058 T03050213 52012 IEM_DS3505
ZHHH,2001-08-25 13:00,ZHHH 251300Z AUTO 04008KT 6SM 29/21 A2974 RMK T02900210 IEM_DS3505
ZHHH,2001-08-25 15:00,ZHHH 251500Z AUTO 07002KT 11SM 28/22 A2977 RMK SLP078 T02790225 52020 IEM_DS3505
ZHHH,2001-08-25 16:00,ZHHH 251600Z AUTO 08012KT 6SM 26/22 A2977 RMK T02600220 IEM_DS3505
ZHHH,2001-08-25 17:00,ZHHH 251700Z AUTO 10006KT 6SM 25/22 A2977 RMK T02500220 IEM_DS3505
ZHHH,2001-08-25 18:00,ZHHH 251800Z AUTO 04004KT 11SM 26/22 A2977 RMK SLP082 T02620218 52005 IEM_DS3505
ZHHH,2001-08-25 19:00,ZHHH 251900Z AUTO 3SM 24/22 A2977 RMK T02400220 IEM_DS3505
ZHHH,2001-08-25 20:00,ZHHH 252000Z AUTO 3SM 24/22 A2977 RMK T02400220 IEM_DS3505
ZHHH,2001-08-25 21:00,ZHHH 252100Z AUTO 04004KT 11SM 26/21 A2977 RMK SLP080 T02550209 57002 IEM_DS3505
ZHHH,2001-08-25 22:00,ZHHH 252200Z AUTO 05004KT 6SM 24/21 A2980 RMK T02400210 IEM_DS3505
ZHHH,2001-08-25 23:00,ZHHH 252300Z AUTO 06006KT 6SM 24/21 A2980 RMK T02400210 IEM_DS3505
ZHHH,2001-08-26 00:00,ZHHH 260000Z AUTO 09004KT 12SM 26/21 A2983 RMK SLP098 T02640208 52017 IEM_DS3505
ZHHH,2001-08-26 01:00,ZHHH 260100Z AUTO 06010KT 6SM 27/21 A2983 RMK T02700210 IEM_DS3505
ZHHH,2001-08-26 02:00,ZHHH 260200Z AUTO 06014KT 6SM 29/22 A2983 RMK T02900220 IEM_DS3505
ZHHH,2001-08-26 03:00,ZHHH 260300Z AUTO 07008KT 14SM 30/20 A2983 RMK SLP100 T02960200 52002 IEM_DS3505
ZHHH,2001-08-26 04:00,ZHHH 260400Z AUTO 05008KT 7SM 31/21 A2980 RMK T03100210 IEM_DS3505
ZHHH,2001-08-26 05:00,ZHHH 260500Z AUTO 10012KT 7SM 32/19 A2980 RMK T03200190 IEM_DS3505
ZHHH,2001-08-26 06:00,ZHHH 260600Z AUTO 07004KT 14SM 33/19 A2980 RMK SLP087 T03260189 57013 IEM_DS3505
ZHHH,2001-08-26 07:00,ZHHH 260700Z AUTO 11012KT 7SM 33/19 A2977 RMK T03300190 IEM_DS3505
ZHHH,2001-08-26 08:00,ZHHH 260800Z AUTO 08014KT 6SM 33/19 A2977 RMK T03300190 IEM_DS3505
ZHHH,2001-08-26 09:00,ZHHH 260900Z AUTO 11004KT 14SM 32/18 A2977 RMK SLP078 T03220183 57009 IEM_DS3505
ZHHH,2001-08-26 10:00,ZHHH 261000Z AUTO 10006KT 7SM 31/21 A2977 RMK T03100210 IEM_DS3505
ZHHH,2001-08-26 11:00,ZHHH 261100Z AUTO 04008KT 6SM 30/21 A2977 RMK T03000210 IEM_DS3505
ZHHH,2001-08-26 12:00,ZHHH 261200Z AUTO 04004KT 11SM 30/21 A2980 RMK SLP088 T02980211 52010 IEM_DS3505
ZHHH,2001-08-26 13:00,ZHHH 261300Z AUTO 03008KT 6SM 28/22 A2983 RMK T02800220 IEM_DS3505
ZHHH,2001-08-26 14:00,ZHHH 261400Z AUTO 05010KT 6SM 27/21 A2983 RMK T02700210 IEM_DS3505
ZHHH,2001-08-26 15:00,ZHHH 261500Z AUTO 04002KT 11SM 27/21 A2983 RMK SLP100 T02700213 52012 IEM_DS3505
ZHHH,2001-08-26 16:00,ZHHH 261600Z AUTO 05008KT 6SM 26/21 A2983 RMK T02600210 IEM_DS3505
ZHHH,2001-08-26 17:00,ZHHH 261700Z AUTO 04008KT 6SM 25/21 A2983 RMK T02500210 IEM_DS3505
ZHHH,2001-08-26 18:00,ZHHH 261800Z AUTO 04004KT 11SM 26/21 A2983 RMK SLP097 T02590206 57003 IEM_DS3505
ZHHH,2001-08-26 19:00,ZHHH 261900Z AUTO 05008KT 6SM 24/20 A2980 RMK T02400200 IEM_DS3505
ZHHH,2001-08-26 20:00,ZHHH 262000Z AUTO 05008KT 6SM 24/20 A2980 RMK T02400200 IEM_DS3505
ZHHH,2001-08-26 21:00,ZHHH 262100Z AUTO 02002KT 11SM 25/20 A2980 RMK SLP095 T02540201 57002 IEM_DS3505
ZHHH,2001-08-26 22:00,ZHHH 262200Z AUTO 05008KT 6SM 24/20 A2983 RMK T02400200 IEM_DS3505
ZHHH,2001-08-26 23:00,ZHHH 262300Z AUTO 05008KT 6SM 24/21 A2983 RMK T02400210 IEM_DS3505
ZHHH,2001-08-27 00:00,ZHHH 270000Z AUTO 04004KT 11SM 26/20 A2983 RMK SLP102 T02650204 52007 IEM_DS3505
ZHHH,2001-08-27 01:00,ZHHH 270100Z AUTO 03010KT 6SM 27/21 A2983 RMK T02700210 IEM_DS3505
ZHHH,2001-08-27 02:00,ZHHH 270200Z AUTO 05012KT 6SM 29/20 A2983 RMK T02900200 IEM_DS3505
ZHHH,2001-08-27 03:00,ZHHH 270300Z AUTO 02006KT 16SM 30/20 A2983 RMK SLP102 T02990199 54000 IEM_DS3505
ZHHH,2001-08-27 04:00,ZHHH 270400Z AUTO 08012KT 7SM 30/20 A2980 RMK T03000200 IEM_DS3505
ZHHH,2001-08-27 05:00,ZHHH 270500Z AUTO 06014KT 7SM 31/20 A2977 RMK T03100200 IEM_DS3505
ZHHH,2001-08-27 06:00,ZHHH 270600Z AUTO 09004KT 16SM 32/18 A2977 RMK SLP078 T03150177 57024 IEM_DS3505
ZHHH,2001-08-27 07:00,ZHHH 270700Z AUTO 08010KT 7SM 32/18 A2974 RMK T03200180 IEM_DS3505
ZHHH,2001-08-27 08:00,ZHHH 270800Z AUTO 08016KT 7SM 32/17 A2974 RMK T03200170 IEM_DS3505
ZHHH,2001-08-27 09:00,ZHHH 270900Z AUTO 07008KT 16SM 32/15 A2974 RMK SLP067 T03210154 57011 IEM_DS3505
ZHHH,2001-08-27 10:00,ZHHH 271000Z AUTO 03008KT 6SM 30/17 A2974 RMK T03000170 IEM_DS3505
ZHHH,2001-08-27 11:00,ZHHH 271100Z AUTO 04008KT 6SM 29/17 A2974 RMK T02900170 IEM_DS3505
ZHHH,2001-08-27 12:00,ZHHH 271200Z AUTO 02004KT 11SM 29/15 A2977 RMK SLP078 T02870152 52011 IEM_DS3505
ZHHH,2001-08-27 13:00,ZHHH 271300Z AUTO 04008KT 6SM 27/17 A2980 RMK T02700170 IEM_DS3505
ZHHH,2001-08-27 14:00,ZHHH 271400Z AUTO 03008KT 6SM 26/17 A2980 RMK T02600170 IEM_DS3505
ZHHH,2001-08-27 15:00,ZHHH 271500Z AUTO 04006KT 11SM 27/17 A2980 RMK SLP090 T02670167 52012 IEM_DS3505
ZHHH,2001-08-27 16:00,ZHHH 271600Z AUTO 04008KT 6SM 25/16 A2980 RMK T02500160 IEM_DS3505
ZHHH,2001-08-27 17:00,ZHHH 271700Z AUTO 04010KT 6SM 24/16 A2980 RMK T02400160 IEM_DS3505
ZHHH,2001-08-27 18:00,ZHHH 271800Z AUTO 04004KT 11SM 24/16 A2980 RMK SLP087 T02450164 57003 IEM_DS3505
ZHHH,2001-08-27 19:00,ZHHH 271900Z AUTO 03006KT 6SM 24/16 A2977 RMK T02400160 IEM_DS3505
ZHHH,2001-08-27 20:00,ZHHH 272000Z AUTO 04006KT 6SM 23/16 A2977 RMK T02300160 IEM_DS3505
ZHHH,2001-08-27 21:00,ZHHH 272100Z AUTO 04004KT 11SM 24/16 RMK SLP082 T02370159 57005 IEM_DS3505
ZHHH,2001-08-27 22:00,ZHHH 272200Z AUTO 34004KT 6SM 22/ A2980 RMK IEM_DS3505
ZHHH,2001-08-27 23:00,ZHHH 272300Z AUTO 6SM 22/19 A2980 RMK T02200190 IEM_DS3505
ZHHH,2001-08-28 00:00,ZHHH 280000Z AUTO 34002KT 12SM 24/19 A2980 RMK SLP095 T02350190 52013 IEM_DS3505
ZHHH,2001-08-28 01:00,ZHHH 280100Z AUTO 03006KT 6SM 26/18 A2980 RMK T02600180 IEM_DS3505
ZHHH,2001-08-28 02:00,ZHHH 280200Z AUTO 09006KT 6SM 28/18 A2980 RMK T02800180 IEM_DS3505
ZHHH,2001-08-28 03:00,ZHHH 280300Z AUTO 16004KT 16SM 29/19 A2980 RMK SLP093 T02890187 57002 IEM_DS3505
ZHHH,2001-08-28 04:00,ZHHH 280400Z AUTO 28006KT 7SM 30/20 A2980 RMK T03000200 IEM_DS3505
ZHHH,2001-08-28 05:00,ZHHH 280500Z AUTO 7SM 31/19 A2977 RMK T03100190 IEM_DS3505
ZHHH,2001-08-28 06:00,ZHHH 280600Z AUTO 02002KT 16SM 31/18 A2974 RMK SLP072 T03120178 57021 IEM_DS3505
ZHHH,2001-08-28 07:00,ZHHH 280700Z AUTO 27008KT 7SM 31/20 A2971 RMK T03100200 IEM_DS3505
ZHHH,2001-08-28 08:00,ZHHH 280800Z AUTO 27008KT 7SM 32/20 A2971 RMK T03200200 IEM_DS3505
ZHHH,2001-08-28 09:00,ZHHH 280900Z AUTO 34002KT 16SM 31/18 A2971 RMK SLP062 T03110182 57010 IEM_DS3505
ZHHH,2001-08-28 10:00,ZHHH 281000Z AUTO 28006KT 6SM 31/21 A2971 RMK T03100210 IEM_DS3505
ZHHH,2001-08-28 11:00,ZHHH 281100Z AUTO 7SM 30/21 A2971 RMK T03000210 IEM_DS3505
ZHHH,2001-08-28 12:00,ZHHH 281200Z AUTO 34004KT 11SM 29/20 A2974 RMK SLP069 T02920205 52007 IEM_DS3505
ZHHH,2001-08-28 13:00,ZHHH 281300Z AUTO 05008KT 6SM 28/20 A2977 RMK T02800200 IEM_DS3505
ZHHH,2001-08-28 14:00,ZHHH 281400Z AUTO 05008KT 6SM 27/20 A2977 RMK T02700200 IEM_DS3505
ZHHH,2001-08-28 15:00,ZHHH 281500Z AUTO 07002KT 9SM 27/20 A2977 RMK SLP080 T02730201 52011 IEM_DS3505
ZHHH,2001-08-28 16:00,ZHHH 281600Z AUTO 08010KT 26/20 A2977 RMK T02600200 IEM_DS3505
ZHHH,2001-08-28 17:00,ZHHH 281700Z AUTO 06008KT 26/20 A2977 RMK T02600200 IEM_DS3505
ZHHH,2001-08-28 18:00,ZHHH 281800Z AUTO 04002KT 7SM 27/20 A2977 RMK SLP075 T02660204 57005 IEM_DS3505
ZHHH,2001-08-28 19:00,ZHHH 281900Z AUTO 4SM 25/20 A2974 RMK T02500200 IEM_DS3505
ZHHH,2001-08-28 20:00,ZHHH 282000Z AUTO 04006KT 6SM 25/20 A2974 RMK T02500200 IEM_DS3505
ZHHH,2001-08-28 21:00,ZHHH 282100Z AUTO 00000KT 7SM 26/20 A2977 RMK SLP078 T02600200 52003 IEM_DS3505
ZHHH,2001-08-28 22:00,ZHHH 282200Z AUTO 05010KT 6SM 25/19 A2977 RMK T02500190 IEM_DS3505
ZHHH,2001-08-28 23:00,ZHHH 282300Z AUTO 06010KT 6SM 25/19 A2977 RMK T02500190 IEM_DS3505
ZHHH,2001-08-29 00:00,ZHHH 290000Z AUTO 04006KT 11SM 26/19 RMK SLP084 T02620189 52006 IEM_DS3505
ZHHH,2001-08-29 02:00,ZHHH 290200Z AUTO 03010KT 6SM 29/20 A2980 RMK T02900200 IEM_DS3505
ZHHH,2001-08-29 03:00,ZHHH 290300Z AUTO 36004KT 11SM 29/20 RMK SLP092 T02910200 52008 IEM_DS3505
ZHHH,2001-08-29 04:00,ZHHH 290400Z AUTO 04010KT 6SM 29/21 A2980 RMK T02900210 IEM_DS3505
ZHHH,2001-08-29 05:00,ZHHH 290500Z AUTO 03010KT 6SM 29/21 A2977 RMK T02900210 IEM_DS3505
ZHHH,2001-08-29 06:00,ZHHH 290600Z AUTO 02006KT 12SM 30/21 A2977 RMK 60003 SLP075 T02980211 57017 IEM_DS3505
ZHHH,2001-08-29 07:00,ZHHH 290700Z AUTO 03012KT 6SM 29/22 A2974 RMK T02900220 IEM_DS3505
ZHHH,2001-08-29 08:00,ZHHH 290800Z AUTO 03012KT 6SM 29/21 A2974 RMK T02900210 IEM_DS3505
ZHHH,2001-08-29 09:00,ZHHH 290900Z AUTO 04008KT 9SM 29/20 A2974 RMK SLP067 T02890204 57008 IEM_DS3505
ZHHH,2001-08-29 10:00,ZHHH 291000Z AUTO 04010KT 6SM 28/20 A2974 RMK T02800200 IEM_DS3505
ZHHH,2001-08-29 11:00,ZHHH 291100Z AUTO 04008KT 6SM 28/21 A2974 RMK T02800210 IEM_DS3505
ZHHH,2001-08-29 12:00,ZHHH 291200Z AUTO 04004KT 12SM 27/21 A2974 RMK SLP073 T02720207 52006 IEM_DS3505
ZHHH,2001-08-29 13:00,ZHHH 291300Z AUTO 05010KT 6SM 26/20 A2977 RMK T02600200 IEM_DS3505
ZHHH,2001-08-29 14:00,ZHHH 291400Z AUTO 05010KT 6SM 25/20 A2980 RMK T02500200 IEM_DS3505
ZHHH,2001-08-29 15:00,ZHHH 291500Z AUTO 04006KT 11SM 25/20 A2980 RMK SLP089 T02530201 52016 IEM_DS3505
ZHHH,2001-08-29 16:00,ZHHH 291600Z AUTO 6SM 24/20 A2980 RMK T02400200 IEM_DS3505
ZHHH,2001-08-29 17:00,ZHHH 291700Z AUTO 6SM 23/20 A2980 RMK T02300200 IEM_DS3505
ZHHH,2001-08-29 18:00,ZHHH 291800Z AUTO 04004KT 9SM 24/20 A2980 RMK SLP087 T02390198 57002 IEM_DS3505
ZHHH,2001-08-29 19:00,ZHHH 291900Z AUTO 03008KT 6SM 23/20 A2977 RMK T02300200 IEM_DS3505
ZHHH,2001-08-29 20:00,ZHHH 292000Z AUTO 05006KT 6SM 22/19 A2977 RMK T02200190 IEM_DS3505
ZHHH,2001-08-29 21:00,ZHHH 292100Z AUTO 04002KT 9SM 22/19 A2980 RMK 70003 SLP085 T02220194 57002 IEM_DS3505
ZHHH,2001-08-29 22:00,ZHHH 292200Z AUTO 03008KT 6SM 21/19 A2980 RMK T02100190 IEM_DS3505
ZHHH,2001-08-29 23:00,ZHHH 292300Z AUTO 03008KT 6SM 21/19 A2983 RMK T02100190 IEM_DS3505
ZHHH,2001-08-30 00:00,ZHHH 300000Z AUTO 07006KT 11SM 23/19 A2983 RMK 70003 SLP107 T02260189 52022 IEM_DS3505
ZHHH,2001-08-30 01:00,ZHHH 300100Z AUTO 06012KT 7SM 24/19 A2985 RMK T02400190 IEM_DS3505
ZHHH,2001-08-30 02:00,ZHHH 300200Z AUTO 06014KT 7SM 25/20 A2985 RMK T02500200 IEM_DS3505
ZHHH,2001-08-30 03:00,ZHHH 300300Z AUTO 02006KT 11SM 26/19 A2983 RMK SLP103 T02650191 57004 IEM_DS3505
ZHHH,2001-08-30 04:00,ZHHH 300400Z AUTO 06010KT 7SM 27/19 A2983 RMK T02700190 IEM_DS3505
ZHHH,2001-08-30 05:00,ZHHH 300500Z AUTO 07008KT 7SM 29/19 A2980 RMK T02900190 IEM_DS3505
ZHHH,2001-08-30 06:00,ZHHH 300600Z AUTO 07004KT 12SM 29/19 A2980 RMK SLP087 T02880188 57016 IEM_DS3505
ZHHH,2001-08-30 07:00,ZHHH 300700Z AUTO 04010KT 7SM 29/19 A2977 RMK T02900190 IEM_DS3505
ZHHH,2001-08-30 08:00,ZHHH 300800Z AUTO 06008KT 7SM 29/19 A2977 RMK T02900190 IEM_DS3505
ZHHH,2001-08-30 09:00,ZHHH 300900Z AUTO 04006KT 11SM 29/19 A2974 RMK SLP075 T02940187 57012 IEM_DS3505
ZHHH,2001-08-30 10:00,ZHHH 301000Z AUTO 03010KT 7SM 29/19 A2977 RMK T02900190 IEM_DS3505
ZHHH,2001-08-30 11:00,ZHHH 301100Z AUTO 03008KT 7SM 28/19 A2977 RMK T02800190 IEM_DS3505
ZHHH,2001-08-30 12:00,ZHHH 301200Z AUTO 04004KT 12SM 27/18 A2980 RMK SLP091 T02740184 52016 IEM_DS3505
ZHHH,2001-08-30 13:00,ZHHH 301300Z AUTO 05010KT 6SM 26/19 A2983 RMK T02600190 IEM_DS3505
ZHHH,2001-08-30 14:00,ZHHH 301400Z AUTO 05010KT 7SM 25/19 A2983 RMK T02500190 IEM_DS3505
ZHHH,2001-08-30 15:00,ZHHH 301500Z AUTO 07006KT 12SM 26/19 A2983 RMK SLP101 T02570189 52010 IEM_DS3505
ZHHH,2001-08-30 17:00,ZHHH 301700Z AUTO 05006KT 6SM 24/20 A2983 RMK T02400200 IEM_DS3505
ZHHH,2001-08-30 18:00,ZHHH 301800Z AUTO 04004KT 11SM 24/19 A2980 RMK SLP093 T02450194 57008 IEM_DS3505
ZHHH,2001-08-30 19:00,ZHHH 301900Z AUTO 05008KT 6SM 23/20 A2980 RMK T02300200 IEM_DS3505
ZHHH,2001-08-30 20:00,ZHHH 302000Z AUTO 05008KT 6SM 23/20 A2980 RMK T02300200 IEM_DS3505
ZHHH,2001-08-30 21:00,ZHHH 302100Z AUTO 04004KT 11SM 24/20 A2980 RMK SLP089 T02390198 57004 IEM_DS3505
ZHHH,2001-08-30 22:00,ZHHH 302200Z AUTO 04006KT 6SM 23/20 A2980 RMK T02300200 IEM_DS3505
ZHHH,2001-08-30 23:00,ZHHH 302300Z AUTO 03008KT 6SM 23/20 A2983 RMK T02300200 IEM_DS3505
ZHHH,2001-08-31 00:00,ZHHH 310000Z AUTO 04004KT 11SM 24/20 A2983 RMK SLP099 T02440199 52010 IEM_DS3505
ZHHH,2001-08-31 01:00,ZHHH 310100Z AUTO 04010KT 6SM 25/20 A2983 RMK T02500200 IEM_DS3505
ZHHH,2001-08-31 02:00,ZHHH 310200Z AUTO 03012KT 6SM 26/20 A2983 RMK T02600200 IEM_DS3505
ZHHH,2001-08-31 03:00,ZHHH 310300Z AUTO 02004KT 9SM 26/19 A2983 RMK SLP101 T02620194 52002 IEM_DS3505
ZHHH,2001-08-31 04:00,ZHHH 310400Z AUTO 03008KT 6SM 26/20 A2983 RMK T02600200 IEM_DS3505
ZHHH,2001-08-31 05:00,ZHHH 310500Z AUTO 6SM 26/20 A2980 RMK T02600200 IEM_DS3505
ZHHH,2001-08-31 06:00,ZHHH 310600Z AUTO 04006KT 9SM 27/19 A2980 RMK SLP089 T02700191 57012 IEM_DS3505
ZHHH,2001-08-31 07:00,ZHHH 310700Z AUTO 04012KT 6SM 28/18 A2977 RMK T02800180 IEM_DS3505
ZHHH,2001-08-31 08:00,ZHHH 310800Z AUTO 05012KT 6SM 27/18 A2977 RMK T02700180 IEM_DS3505
ZHHH,2001-08-31 09:00,ZHHH 310900Z AUTO 36004KT 9SM 27/17 A2977 RMK SLP083 T02730173 57006 IEM_DS3505
ZHHH,2001-08-31 10:00,ZHHH 311000Z AUTO 04012KT 6SM 27/18 A2977 RMK T02700180 IEM_DS3505
ZHHH,2001-08-31 11:00,ZHHH 311100Z AUTO 04008KT 6SM 26/18 A2980 RMK T02600180 IEM_DS3505
ZHHH,2001-08-31 12:00,ZHHH 311200Z AUTO 04002KT 11SM 26/18 A2980 RMK SLP092 T02610184 52009 IEM_DS3505
ZHHH,2001-08-31 15:00,ZHHH 311500Z AUTO 02004KT 9SM 25/20 RMK SLP097 T02470198 52005 IEM_DS3505
ZHHH,2001-08-31 16:00,ZHHH 311600Z AUTO 04006KT 6SM 23/20 A2983 RMK T02300200 IEM_DS3505
ZHHH,2001-08-31 17:00,ZHHH 311700Z AUTO 03006KT 6SM 22/19 A2980 RMK T02200190 IEM_DS3505
ZHHH,2001-08-31 18:00,ZHHH 311800Z AUTO 07002KT 12SM 23/18 A2980 RMK SLP096 T02310184 57001 IEM_DS3505
ZHHH,2001-08-31 19:00,ZHHH 311900Z AUTO 03006KT 4SM 22/18 A2980 RMK T02200180 IEM_DS3505
ZHHH,2001-08-31 20:00,ZHHH 312000Z AUTO 4SM 22/18 A2980 RMK T02200180 IEM_DS3505
ZHHH,2001-08-31 21:00,ZHHH 312100Z AUTO 04002KT 12SM 22/18 A2980 RMK SLP092 T02220181 57004 IEM_DS3505
ZHHH,2001-08-31 22:00,ZHHH 312200Z AUTO 6SM 21/17 A2980 RMK T02100170 IEM_DS3505
ZHHH,2001-08-31 23:00,ZHHH 312300Z AUTO 6SM 22/17 A2983 RMK T02200170 IEM_DS3505
ZHHH,2001-09-01 00:00,ZHHH 010000Z AUTO 36002KT 9SM 23/19 A2983 RMK SLP103 T02290186 52011 IEM_DS3505
ZHHH,2001-09-01 01:00,ZHHH 010100Z AUTO 02008KT 6SM 24/17 A2983 RMK T02400170 IEM_DS3505
ZHHH,2001-09-01 03:00,ZHHH 010300Z AUTO 02002KT 11SM 27/18 A2983 RMK SLP106 T02730177 52003 IEM_DS3505
ZHHH,2001-09-01 04:00,ZHHH 010400Z AUTO 08008KT 7SM 29/17 A2983 RMK T02900170 IEM_DS3505
ZHHH,2001-09-01 05:00,ZHHH 010500Z AUTO 12008KT 7SM 30/18 A2980 RMK T03000180 IEM_DS3505
ZHHH,2001-09-01 06:00,ZHHH 010600Z AUTO 07006KT 12SM 30/16 A2980 RMK SLP088 T02980165 57018 IEM_DS3505
ZHHH,2001-09-01 07:00,ZHHH 010700Z AUTO 13008KT 7SM 30/18 A2977 RMK T03000180 IEM_DS3505
ZHHH,2001-09-01 08:00,ZHHH 010800Z AUTO 14008G19KT 7SM 30/18 A2977 RMK T03000180 IEM_DS3505
ZHHH,2001-09-01 09:00,ZHHH 010900Z AUTO 07002KT 11SM 30/15 A2977 RMK SLP080 T02990152 57008 IEM_DS3505
ZHHH,2001-09-01 10:00,ZHHH 011000Z AUTO 6SM 29/18 A2977 RMK T02900180 IEM_DS3505
ZHHH,2001-09-01 11:00,ZHHH 011100Z AUTO 6SM 28/20 A2977 RMK T02800200 IEM_DS3505
ZHHH,2001-09-01 12:00,ZHHH 011200Z AUTO 00000KT 11SM 28/19 A2980 RMK SLP088 T02790189 52008 IEM_DS3505
ZHHH,2001-09-01 13:00,ZHHH 011300Z AUTO 04006KT 6SM 27/18 A2980 RMK T02700180 IEM_DS3505
ZHHH,2001-09-01 14:00,ZHHH 011400Z AUTO 6SM 26/18 A2983 RMK T02600180 IEM_DS3505
ZHHH,2001-09-01 15:00,ZHHH 011500Z AUTO 09002KT 9SM 25/19 A2983 RMK SLP100 T02540187 52012 IEM_DS3505
ZHHH,2001-09-01 16:00,ZHHH 011600Z AUTO 6SM 24/18 A2983 RMK T02400180 IEM_DS3505
ZHHH,2001-09-01 17:00,ZHHH 011700Z AUTO 05006KT 6SM 24/18 A2983 RMK T02400180 IEM_DS3505
ZHHH,2001-09-01 18:00,ZHHH 011800Z AUTO 00000KT 11SM 24/18 A2983 RMK SLP100 T02400175 54000 IEM_DS3505
ZHHH,2001-09-01 19:00,ZHHH 011900Z AUTO 06006KT 6SM 22/18 A2983 RMK T02200180 IEM_DS3505
ZHHH,2001-09-01 20:00,ZHHH 012000Z AUTO 05006KT 6SM 22/18 A2983 RMK T02200180 IEM_DS3505
ZHHH,2001-09-01 21:00,ZHHH 012100Z AUTO 04002KT 11SM 23/18 A2983 RMK SLP098 T02290182 57002 IEM_DS3505
ZHHH,2001-09-01 22:00,ZHHH 012200Z AUTO 05006KT 4SM 21/18 A2983 RMK T02100180 IEM_DS3505
ZHHH,2001-09-01 23:00,ZHHH 012300Z AUTO 05006KT 4SM 22/19 A2985 RMK T02200190 IEM_DS3505
ZHHH,2001-09-02 00:00,ZHHH 020000Z AUTO 07002KT 12SM 24/19 RMK SLP113 T02450191 52015 IEM_DS3505
ZHHH,2001-09-02 01:00,ZHHH 020100Z AUTO 05008KT 6SM 27/19 A2985 RMK T02700190 IEM_DS3505
ZHHH,2001-09-02 02:00,ZHHH 020200Z AUTO 08010KT 6SM 28/18 A2988 RMK T02800180 IEM_DS3505
ZHHH,2001-09-02 03:00,ZHHH 020300Z AUTO 04002KT 12SM 29/16 A2985 RMK SLP116 T02910161 52003 IEM_DS3505
ZHHH,2001-09-02 04:00,ZHHH 020400Z AUTO 14006KT 7SM 29/18 A2985 RMK T02900180 IEM_DS3505
ZHHH,2001-09-02 05:00,ZHHH 020500Z AUTO 14006KT 7SM 31/18 A2983 RMK T03100180 IEM_DS3505
ZHHH,2001-09-02 06:00,ZHHH 020600Z AUTO 07004KT 11SM 31/16 A2983 RMK SLP101 T03140162 57015 IEM_DS3505
ZHHH,2001-09-02 07:00,ZHHH 020700Z AUTO 09006KT 7SM 32/17 A2980 RMK T03200170 IEM_DS3505
ZHHH,2001-09-02 08:00,ZHHH 020800Z AUTO 7SM 32/17 A2980 RMK T03200170 IEM_DS3505
ZHHH,2001-09-02 09:00,ZHHH 020900Z AUTO 11004KT 11SM 32/17 A2980 RMK SLP091 T03150166 57010 IEM_DS3505
ZHHH,2001-09-02 10:00,ZHHH 021000Z AUTO 09006KT 6SM 31/17 A2980 RMK T03100170 IEM_DS3505
ZHHH,2001-09-02 11:00,ZHHH 021100Z AUTO 06006KT 6SM 30/17 A2983 RMK T03000170 IEM_DS3505
ZHHH,2001-09-02 12:00,ZHHH 021200Z AUTO 09002KT 11SM 30/17 A2983 RMK SLP105 T02960167 52014 IEM_DS3505
ZHHH,2001-09-02 13:00,ZHHH 021300Z AUTO 05010KT 6SM 27/16 A2985 RMK T02700160 IEM_DS3505
ZHHH,2001-09-02 14:00,ZHHH 021400Z AUTO 07012KT 6SM 26/17 A2988 RMK T02600170 IEM_DS3505
ZHHH,2001-09-02 15:00,ZHHH 021500Z AUTO 07002KT 11SM 26/20 A2988 RMK SLP121 T02620199 52016 IEM_DS3505
ZHHH,2001-09-02 16:00,ZHHH 021600Z AUTO 08010KT 6SM 24/17 A2988 RMK T02400170 IEM_DS3505
ZHHH,2001-09-02 17:00,ZHHH 021700Z AUTO 08006KT 6SM 23/18 A2988 RMK T02300180 IEM_DS3505
ZHHH,2001-09-02 18:00,ZHHH 021800Z AUTO 07002KT 11SM 24/18 A2988 RMK SLP121 T02420185 54000 IEM_DS3505
ZHHH,2001-09-02 19:00,ZHHH 021900Z AUTO 06006KT 4SM 22/17 A2988 RMK T02200170 IEM_DS3505
ZHHH,2001-09-02 20:00,ZHHH 022000Z AUTO 05006KT 4SM 22/17 A2988 RMK T02200170 IEM_DS3505
ZHHH,2001-09-02 21:00,ZHHH 022100Z AUTO 04002KT 11SM 23/18 A2988 RMK SLP124 T02310181 52003 IEM_DS3505
ZHHH,2001-09-02 22:00,ZHHH 022200Z AUTO 05006KT 6SM 22/18 A2991 RMK T02200180 IEM_DS3505
ZHHH,2001-09-02 23:00,ZHHH 022300Z AUTO 05008KT 6SM 21/18 A2991 RMK T02100180 IEM_DS3505
ZHHH,2001-09-03 00:00,ZHHH 030000Z AUTO 04004KT 16SM 25/19 RMK SLP135 T02500190 52011 IEM_DS3505
ZHHH,2001-09-03 01:00,ZHHH 030100Z AUTO 07010KT 6SM 27/19 A2994 RMK T02700190 IEM_DS3505
ZHHH,2001-09-03 02:00,ZHHH 030200Z AUTO 10008KT 6SM 28/18 A2994 RMK T02800180 IEM_DS3505
ZHHH,2001-09-03 03:00,ZHHH 030300Z AUTO 04006KT 16SM 29/16 A2994 RMK SLP139 T02930157 52004 IEM_DS3505
ZHHH,2001-09-03 04:00,ZHHH 030400Z AUTO 10008KT 6SM 30/17 A2991 RMK T03000170 IEM_DS3505
ZHHH,2001-09-03 05:00,ZHHH 030500Z AUTO 10006KT 6SM 31/18 A2988 RMK T03100180 IEM_DS3505
ZHHH,2001-09-03 06:00,ZHHH 030600Z AUTO 07004KT 16SM 31/15 A2988 RMK SLP121 T03130154 57018 IEM_DS3505
ZHHH,2001-09-03 07:00,ZHHH 030700Z AUTO 13006KT 7SM 32/17 A2985 RMK T03200170 IEM_DS3505
ZHHH,2001-09-03 08:00,ZHHH 030800Z AUTO 6SM 32/18 A2985 RMK T03200180 IEM_DS3505
ZHHH,2001-09-03 09:00,ZHHH 030900Z AUTO 36002KT 16SM 32/16 A2985 RMK SLP107 T03210155 57014 IEM_DS3505
ZHHH,2001-09-03 10:00,ZHHH 031000Z AUTO 25004KT 6SM 31/18 A2985 RMK T03100180 IEM_DS3505
ZHHH,2001-09-03 11:00,ZHHH 031100Z AUTO 26004KT 6SM 29/19 A2985 RMK T02900190 IEM_DS3505
ZHHH,2001-09-03 12:00,ZHHH 031200Z AUTO 00000KT 11SM 29/16 A2985 RMK SLP114 T02900163 52007 IEM_DS3505
ZHHH,2001-09-03 13:00,ZHHH 031300Z AUTO 6SM 28/19 A2988 RMK T02800190 IEM_DS3505
ZHHH,2001-09-03 14:00,ZHHH 031400Z AUTO 6SM 27/18 A2988 RMK T02700180 IEM_DS3505
ZHHH,2001-09-03 15:00,ZHHH 031500Z AUTO 00000KT 11SM 27/18 A2988 RMK SLP123 T02740184 52009 IEM_DS3505
ZHHH,2001-09-03 16:00,ZHHH 031600Z AUTO 09006KT 6SM 25/19 A2988 RMK T02500190 IEM_DS3505
ZHHH,2001-09-03 17:00,ZHHH 031700Z AUTO 13006KT 6SM 24/20 A2988 RMK T02400200 IEM_DS3505
ZHHH,2001-09-03 18:00,ZHHH 031800Z AUTO 00000KT 11SM 25/20 A2988 RMK SLP117 T02510198 57006 IEM_DS3505
ZHHH,2001-09-03 19:00,ZHHH 031900Z AUTO 6SM 24/20 A2985 RMK T02400200 IEM_DS3505
ZHHH,2001-09-03 20:00,ZHHH 032000Z AUTO 6SM 23/20 A2985 RMK T02300200 IEM_DS3505
ZHHH,2001-09-03 21:00,ZHHH 032100Z AUTO 27002KT 11SM 24/20 A2985 RMK SLP113 T02420197 57004 IEM_DS3505
ZHHH,2001-09-03 22:00,ZHHH 032200Z AUTO 4SM 23/19 A2985 RMK T02300190 IEM_DS3505
ZHHH,2001-09-03 23:00,ZHHH 032300Z AUTO 05004KT 3SM 22/19 A2988 RMK T02200190 IEM_DS3505
ZHHH,2001-09-04 00:00,ZHHH 040000Z AUTO 04002KT 9SM 25/21 A2988 RMK SLP121 T02520209 52008 IEM_DS3505
ZHHH,2001-09-04 01:00,ZHHH 040100Z AUTO 6SM 27/19 A2988 RMK T02700190 IEM_DS3505
ZHHH,2001-09-04 02:00,ZHHH 040200Z AUTO 6SM 28/18 A2988 RMK T02800180 IEM_DS3505
ZHHH,2001-09-04 03:00,ZHHH 040300Z AUTO 11002KT 7SM 29/19 A2988 RMK SLP121 T02880191 54000 IEM_DS3505
ZHHH,2001-09-04 04:00,ZHHH 040400Z AUTO 27006KT 6SM 30/19 A2985 RMK T03000190 IEM_DS3505
ZHHH,2001-09-04 05:00,ZHHH 040500Z AUTO 6SM 30/18 A2983 RMK T03000180 IEM_DS3505
ZHHH,2001-09-04 06:00,ZHHH 040600Z AUTO 36006KT 12SM 30/17 A2983 RMK SLP096 T03000168 57025 IEM_DS3505
ZHHH,2001-09-04 07:00,ZHHH 040700Z AUTO 27006KT 6SM 30/19 A2980 RMK T03000190 IEM_DS3505
ZHHH,2001-09-04 08:00,ZHHH 040800Z AUTO 28006KT 6SM 31/19 A2977 RMK T03100190 IEM_DS3505
ZHHH,2001-09-04 09:00,ZHHH 040900Z AUTO 34004KT 12SM 30/19 A2977 RMK SLP080 T03040189 57016 IEM_DS3505
ZHHH,2001-09-04 10:00,ZHHH 041000Z AUTO 6SM 30/19 A2977 RMK T03000190 IEM_DS3505
ZHHH,2001-09-04 11:00,ZHHH 041100Z AUTO 28004KT 6SM 29/20 A2977 RMK T02900200 IEM_DS3505
ZHHH,2001-09-04 12:00,ZHHH 041200Z AUTO 27002KT 12SM 28/20 A2977 RMK SLP081 T02810199 52001 IEM_DS3505
ZHHH,2001-09-04 13:00,ZHHH 041300Z AUTO 6SM 28/22 A2980 RMK T02800220 IEM_DS3505
ZHHH,2001-09-04 14:00,ZHHH 041400Z AUTO 6SM 27/22 A2980 RMK T02700220 IEM_DS3505
ZHHH,2001-09-04 15:00,ZHHH 041500Z AUTO 29002KT 12SM 28/20 A2980 RMK SLP090 T02770200 52009 IEM_DS3505
ZHHH,2001-09-04 16:00,ZHHH 041600Z AUTO 01002KT 6SM 26/22 A2980 RMK T02600220 IEM_DS3505
ZHHH,2001-09-04 18:00,ZHHH 041800Z AUTO 00000KT 11SM 26/21 RMK SLP086 T02620209 57004 IEM_DS3505
ZHHH,2001-09-04 20:00,ZHHH 042000Z AUTO 34002KT 3SM 24/21 A2977 RMK T02400210 IEM_DS3505
ZHHH,2001-09-04 21:00,ZHHH 042100Z AUTO 00000KT 11SM 25/20 A2977 RMK SLP082 T02520201 57004 IEM_DS3505
ZHHH,2001-09-05 00:00,ZHHH 050000Z AUTO 36002KT 12SM 27/20 A2980 RMK SLP091 T02740200 52009 IEM_DS3505
ZHHH,2001-09-05 01:00,ZHHH 050100Z AUTO 28/19 A2980 RMK T02800190 IEM_DS3505
ZHHH,2001-09-05 03:00,ZHHH 050300Z AUTO 29002KT 12SM 31/17 A2980 RMK SLP093 T03080171 52002 IEM_DS3505
ZHHH,2001-09-05 04:00,ZHHH 050400Z AUTO 30006KT 6SM 32/18 A2977 RMK T03200180 IEM_DS3505
ZHHH,2001-09-05 05:00,ZHHH 050500Z AUTO 29006KT 6SM 33/18 A2974 RMK T03300180 IEM_DS3505
ZHHH,2001-09-05 06:00,ZHHH 050600Z AUTO 32004KT 16SM 34/17 A2974 RMK SLP070 T03350169 57022 IEM_DS3505
ZHHH,2001-09-05 07:00,ZHHH 050700Z AUTO 27006KT 6SM 33/19 A2971 RMK T03300190 IEM_DS3505
ZHHH,2001-09-05 08:00,ZHHH 050800Z AUTO 28006KT 6SM 33/19 A2971 RMK T03300190 IEM_DS3505
ZHHH,2001-09-05 09:00,ZHHH 050900Z AUTO 29004KT 16SM 34/17 A2971 RMK SLP059 T03360166 57011 IEM_DS3505
ZHHH,2001-09-05 10:00,ZHHH 051000Z AUTO 23006KT 6SM 32/19 A2971 RMK T03200190 IEM_DS3505
ZHHH,2001-09-05 11:00,ZHHH 051100Z AUTO 6SM 31/20 A2971 RMK T03100200 IEM_DS3505
ZHHH,2001-09-05 12:00,ZHHH 051200Z AUTO 25002KT 11SM 31/17 A2974 RMK SLP066 T03070171 52006 IEM_DS3505
ZHHH,2001-09-05 13:00,ZHHH 051300Z AUTO 6SM 29/23 A2974 RMK T02900230 IEM_DS3505
ZHHH,2001-09-05 14:00,ZHHH 051400Z AUTO 28002KT 4SM 28/23 A2977 RMK T02800230 IEM_DS3505
ZHHH,2001-09-05 15:00,ZHHH 051500Z AUTO 27002KT 11SM 29/20 A2977 RMK SLP078 T02890203 52013 IEM_DS3505
ZHHH,2001-09-05 16:00,ZHHH 051600Z AUTO 4SM 27/22 A2977 RMK T02700220 IEM_DS3505
ZHHH,2001-09-05 17:00,ZHHH 051700Z AUTO 36002KT 27/21 A2977 RMK T02700210 IEM_DS3505
ZHHH,2001-09-05 18:00,ZHHH 051800Z AUTO 36002KT 11SM 27/21 A2977 RMK SLP084 T02720209 52006 IEM_DS3505
ZHHH,2001-09-05 19:00,ZHHH 051900Z AUTO 4SM 25/21 A2980 RMK T02500210 IEM_DS3505
ZHHH,2001-09-05 20:00,ZHHH 052000Z AUTO 4SM 25/21 A2977 RMK T02500210 IEM_DS3505
ZHHH,2001-09-05 21:00,ZHHH 052100Z AUTO 00000KT 9SM 26/22 A2977 RMK SLP084 T02630216 54000 IEM_DS3505
ZHHH,2001-09-05 22:00,ZHHH 052200Z AUTO 08008KT 4SM 24/20 A2980 RMK T02400200 IEM_DS3505
ZHHH,2001-09-05 23:00,ZHHH 052300Z AUTO 08006KT 4SM 24/20 A2983 RMK T02400200 IEM_DS3505
ZHHH,2001-09-06 00:00,ZHHH 060000Z AUTO 07002KT 11SM 26/22 A2983 RMK SLP103 T02630221 52018 IEM_DS3505
ZHHH,2001-09-06 01:00,ZHHH 060100Z AUTO 07010KT 6SM 28/19 A2983 RMK T02800190 IEM_DS3505
ZHHH,2001-09-06 02:00,ZHHH 060200Z AUTO 06012KT 6SM 30/19 A2985 RMK T03000190 IEM_DS3505
ZHHH,2001-09-06 03:00,ZHHH 060300Z AUTO 07006KT 12SM 31/20 A2985 RMK SLP108 T03110197 52005 IEM_DS3505
ZHHH,2001-09-06 04:00,ZHHH 060400Z AUTO 07014KT 6SM 32/18 A2983 RMK T03200180 IEM_DS3505
ZHHH,2001-09-06 05:00,ZHHH 060500Z AUTO 05012KT 6SM 34/18 A2983 RMK T03400180 IEM_DS3505
ZHHH,2001-09-06 06:00,ZHHH 060600Z AUTO 04004G23KT 12SM 33/17 A2980 RMK SLP092 T03300173 57015 IEM_DS3505
ZHHH,2001-09-06 07:00,ZHHH 060700Z AUTO 06014KT 6SM 35/14 A2980 RMK T03500140 IEM_DS3505
ZHHH,2001-09-06 08:00,ZHHH 060800Z AUTO 07012KT 6SM 34/13 A2977 RMK T03400130 IEM_DS3505
ZHHH,2001-09-06 09:00,ZHHH 060900Z AUTO 07004KT 12SM 34/14 A2977 RMK SLP081 T03360139 57011 IEM_DS3505
ZHHH,2001-09-06 10:00,ZHHH 061000Z AUTO 04008KT 6SM 32/13 A2977 RMK T03200130 IEM_DS3505
ZHHH,2001-09-06 11:00,ZHHH 061100Z AUTO 04006KT 6SM 30/14 A2977 RMK T03000140 IEM_DS3505
ZHHH,2001-09-06 12:00,ZHHH 061200Z AUTO 07004KT 11SM 29/14 A2980 RMK SLP095 T02900145 52013 IEM_DS3505
ZHHH,2001-09-06 13:00,ZHHH 061300Z AUTO 05008KT 27/14 A2983 RMK T02700140 IEM_DS3505
ZHHH,2001-09-06 14:00,ZHHH 061400Z AUTO 06010KT 27/14 A2983 RMK T02700140 IEM_DS3505
ZHHH,2001-09-06 15:00,ZHHH 061500Z AUTO 09004KT 11SM 26/16 A2985 RMK SLP107 T02650160 52012 IEM_DS3505
ZHHH,2001-09-06 16:00,ZHHH 061600Z AUTO 09012KT 25/15 A2985 RMK T02500150 IEM_DS3505
ZHHH,2001-09-06 17:00,ZHHH 061700Z AUTO 07012KT 24/15 A2985 RMK T02400150 IEM_DS3505
ZHHH,2001-09-06 18:00,ZHHH 061800Z AUTO 07004KT 9SM 24/17 A2985 RMK SLP107 T02430171 54000 IEM_DS3505
ZHHH,2001-09-06 19:00,ZHHH 061900Z AUTO 07008KT 3SM 22/15 A2985 RMK T02200150 IEM_DS3505
ZHHH,2001-09-06 20:00,ZHHH 062000Z AUTO 06008KT 3SM 22/16 A2985 RMK T02200160 IEM_DS3505
ZHHH,2001-09-06 21:00,ZHHH 062100Z AUTO 07002KT 9SM 23/17 A2985 RMK SLP109 T02270171 52002 IEM_DS3505
ZHHH,2001-09-06 22:00,ZHHH 062200Z AUTO 05004KT 6SM 21/16 A2985 RMK T02100160 IEM_DS3505
ZHHH,2001-09-06 23:00,ZHHH 062300Z AUTO 07006KT 6SM 21/16 A2985 RMK T02100160 IEM_DS3505
ZHHH,2001-09-07 00:00,ZHHH 070000Z AUTO 09004KT 11SM 24/18 A2988 RMK SLP119 T02410179 52010 IEM_DS3505
ZHHH,2001-09-07 01:00,ZHHH 070100Z AUTO 10008KT 6SM 25/17 A2988 RMK T02500170 IEM_DS3505
ZHHH,2001-09-07 02:00,ZHHH 070200Z AUTO 12010KT 6SM 27/17 A2988 RMK T02700170 IEM_DS3505
ZHHH,2001-09-07 03:00,ZHHH 070300Z AUTO 11004KT 12SM 29/18 A2988 RMK SLP118 T02880185 57001 IEM_DS3505
ZHHH,2001-09-07 04:00,ZHHH 070400Z AUTO 12008KT 6SM 29/18 A2985 RMK T02900180 IEM_DS3505
ZHHH,2001-09-07 05:00,ZHHH 070500Z AUTO 13006KT 6SM 29/17 A2985 RMK T02900170 IEM_DS3505
ZHHH,2001-09-07 06:00,ZHHH 070600Z AUTO 07006KT 12SM 31/16 A2983 RMK SLP099 T03080163 57019 IEM_DS3505
ZHHH,2001-09-07 07:00,ZHHH 070700Z AUTO 06008KT 6SM 31/15 A2980 RMK T03100150 IEM_DS3505
ZHHH,2001-09-07 08:00,ZHHH 070800Z AUTO 14008KT 6SM 31/16 A2980 RMK T03100160 IEM_DS3505
ZHHH,2001-09-07 09:00,ZHHH 070900Z AUTO 09004KT 12SM 30/15 A2980 RMK SLP091 T03040150 57008 IEM_DS3505
ZHHH,2001-09-07 10:00,ZHHH 071000Z AUTO 6SM 30/17 A2980 RMK T03000170 IEM_DS3505
ZHHH,2001-09-07 11:00,ZHHH 071100Z AUTO 6SM 28/17 A2980 RMK T02800170 IEM_DS3505
ZHHH,2001-09-07 12:00,ZHHH 071200Z AUTO 00000KT 12SM 28/17 A2983 RMK SLP100 T02790169 52009 IEM_DS3505
ZHHH,2001-09-07 13:00,ZHHH 071300Z AUTO 03006KT 6SM 27/16 A2985 RMK T02700160 IEM_DS3505
ZHHH,2001-09-07 14:00,ZHHH 071400Z AUTO 04006KT 6SM 26/16 A2985 RMK T02600160 IEM_DS3505
ZHHH,2001-09-07 15:00,ZHHH 071500Z AUTO 04002KT 12SM 26/17 A2985 RMK SLP110 T02620167 52010 IEM_DS3505
ZHHH,2001-09-07 16:00,ZHHH 071600Z AUTO 04006KT 6SM 24/15 A2985 RMK T02400150 IEM_DS3505
ZHHH,2001-09-07 17:00,ZHHH 071700Z AUTO 05006KT 6SM 23/15 A2985 RMK T02300150 IEM_DS3505
ZHHH,2001-09-07 18:00,ZHHH 071800Z AUTO 04002KT 11SM 24/16 A2985 RMK SLP110 T02440161 54000 IEM_DS3505
ZHHH,2001-09-07 19:00,ZHHH 071900Z AUTO 03006KT 6SM 22/15 A2985 RMK T02200150 IEM_DS3505
ZHHH,2001-09-07 20:00,ZHHH 072000Z AUTO 6SM 21/14 A2983 RMK T02100140 IEM_DS3505
ZHHH,2001-09-07 21:00,ZHHH 072100Z AUTO 04002KT 11SM 23/16 A2983 RMK SLP107 T02260158 57003 IEM_DS3505
ZHHH,2001-09-07 22:00,ZHHH 072200Z AUTO 6SM 21/15 A2985 RMK T02100150 IEM_DS3505
ZHHH,2001-09-07 23:00,ZHHH 072300Z AUTO 6SM 21/16 A2985 RMK T02100160 IEM_DS3505
ZHHH,2001-09-08 00:00,ZHHH 080000Z AUTO 34004KT 12SM 23/17 RMK SLP118 T02340173 52011 IEM_DS3505
ZHHH,2001-09-08 01:00,ZHHH 080100Z AUTO 6SM 26/15 A2988 RMK T02600150 IEM_DS3505
ZHHH,2001-09-08 02:00,ZHHH 080200Z AUTO 6SM 27/15 A2988 RMK T02700150 IEM_DS3505
ZHHH,2001-09-08 03:00,ZHHH 080300Z AUTO 04006KT 12SM 28/15 A2988 RMK SLP121 T02750148 52003 IEM_DS3505
ZHHH,2001-09-08 04:00,ZHHH 080400Z AUTO 26006KT 6SM 29/16 A2985 RMK T02900160 IEM_DS3505
ZHHH,2001-09-08 05:00,ZHHH 080500Z AUTO 27006KT 6SM 31/16 A2985 RMK T03100160 IEM_DS3505
ZHHH,2001-09-08 06:00,ZHHH 080600Z AUTO 29004KT 12SM 30/15 A2983 RMK SLP102 T03030151 57019 IEM_DS3505
ZHHH,2001-09-08 07:00,ZHHH 080700Z AUTO 28008KT 6SM 31/16 A2980 RMK T03100160 IEM_DS3505
ZHHH,2001-09-08 08:00,ZHHH 080800Z AUTO 28006KT 6SM 31/15 A2980 RMK T03100150 IEM_DS3505
ZHHH,2001-09-08 09:00,ZHHH 080900Z AUTO 27006KT 12SM 31/17 A2980 RMK SLP094 T03130168 57008 IEM_DS3505
ZHHH,2001-09-08 10:00,ZHHH 081000Z AUTO 03006KT 6SM 31/12 A2980 RMK T03100120 IEM_DS3505
ZHHH,2001-09-08 11:00,ZHHH 081100Z AUTO 04006KT 6SM 29/13 A2983 RMK T02900130 IEM_DS3505
ZHHH,2001-09-08 12:00,ZHHH 081200Z AUTO 04004KT 11SM 28/ A2983 RMK SLP103 52009 IEM_DS3505
ZHHH,2001-09-08 13:00,ZHHH 081300Z AUTO 04008KT 6SM 26/14 A2985 RMK T02600140 IEM_DS3505
ZHHH,2001-09-08 14:00,ZHHH 081400Z AUTO 04008KT 6SM 26/14 A2988 RMK T02600140 IEM_DS3505
ZHHH,2001-09-08 15:00,ZHHH 081500Z AUTO 04004KT 11SM 26/23 A2988 RMK SLP119 T02620228 52016 IEM_DS3505
ZHHH,2001-09-08 17:00,ZHHH 081700Z AUTO 01006KT 6SM 24/14 A2988 RMK T02400140 IEM_DS3505
ZHHH,2001-09-08 18:00,ZHHH 081800Z AUTO 36002KT 12SM 24/15 A2988 RMK SLP121 T02450154 52002 IEM_DS3505
ZHHH,2001-09-08 19:00,ZHHH 081900Z AUTO 03006KT 6SM 23/13 A2988 RMK T02300130 IEM_DS3505
ZHHH,2001-09-08 20:00,ZHHH 082000Z AUTO 36004KT 6SM 23/13 A2988 RMK T02300130 IEM_DS3505
ZHHH,2001-09-08 21:00,ZHHH 082100Z AUTO 36002KT 12SM 23/16 A2988 RMK SLP122 T02310162 52001 IEM_DS3505
ZHHH,2001-09-08 22:00,ZHHH 082200Z AUTO 03006KT 6SM 21/14 A2991 RMK T02100140 IEM_DS3505
ZHHH,2001-09-08 23:00,ZHHH 082300Z AUTO 02008KT 6SM 21/15 A2991 RMK T02100150 IEM_DS3505
ZHHH,2001-09-09 00:00,ZHHH 090000Z AUTO 04002KT 11SM 24/16 A2991 RMK SLP136 T02380165 52014 IEM_DS3505
ZHHH,2001-09-09 01:00,ZHHH 090100Z AUTO 02012KT 6SM 24/16 A2994 RMK T02400160 IEM_DS3505
ZHHH,2001-09-09 02:00,ZHHH 090200Z AUTO 03010KT 6SM 27/17 A2994 RMK T02700170 IEM_DS3505
ZHHH,2001-09-09 03:00,ZHHH 090300Z AUTO 04008KT 11SM 28/17 A2994 RMK SLP137 T02830171 52001 IEM_DS3505
ZHHH,2001-09-09 04:00,ZHHH 090400Z AUTO 04010KT 7SM 29/16 A2991 RMK T02900160 IEM_DS3505
ZHHH,2001-09-09 05:00,ZHHH 090500Z AUTO 04010KT 7SM 30/15 A2988 RMK T03000150 IEM_DS3505
ZHHH,2001-09-09 06:00,ZHHH 090600Z AUTO 04006KT 12SM 30/15 A2988 RMK SLP119 T03010149 57018 IEM_DS3505
ZHHH,2001-09-09 07:00,ZHHH 090700Z AUTO 03008KT 7SM 30/16 A2985 RMK T03000160 IEM_DS3505
ZHHH,2001-09-09 08:00,ZHHH 090800Z AUTO 03010KT 7SM 30/15 A2985 RMK T03000150 IEM_DS3505
ZHHH,2001-09-09 09:00,ZHHH 090900Z AUTO 36004KT 12SM 30/15 A2985 RMK SLP109 T03050146 57010 IEM_DS3505
ZHHH,2001-09-09 10:00,ZHHH 091000Z AUTO 04010KT 6SM 29/15 A2985 RMK T02900150 IEM_DS3505
ZHHH,2001-09-09 11:00,ZHHH 091100Z AUTO 04012KT 6SM 28/14 A2985 RMK T02800140 IEM_DS3505
ZHHH,2001-09-09 12:00,ZHHH 091200Z AUTO 04006KT 11SM 28/14 A2988 RMK SLP121 T02770136 52012 IEM_DS3505
ZHHH,2001-09-09 13:00,ZHHH 091300Z AUTO 02006KT 6SM 25/15 A2991 RMK T02500150 IEM_DS3505
ZHHH,2001-09-09 14:00,ZHHH 091400Z AUTO 02006KT 6SM 25/15 A2991 RMK T02500150 IEM_DS3505
ZHHH,2001-09-09 15:00,ZHHH 091500Z AUTO 02002KT 11SM 25/16 A2991 RMK SLP131 T02480163 52010 IEM_DS3505
ZHHH,2001-09-09 16:00,ZHHH 091600Z AUTO 04010KT 6SM 24/16 A2991 RMK T02400160 IEM_DS3505
ZHHH,2001-09-09 17:00,ZHHH 091700Z AUTO 02006KT 6SM 23/16 A2991 RMK T02300160 IEM_DS3505
ZHHH,2001-09-09 18:00,ZHHH 091800Z AUTO 04002KT 11SM 24/16 A2991 RMK SLP132 T02380159 52001 IEM_DS3505
ZHHH,2001-09-09 19:00,ZHHH 091900Z AUTO 05008KT 6SM 22/16 A2991 RMK T02200160 IEM_DS3505
ZHHH,2001-09-09 20:00,ZHHH 092000Z AUTO 03006KT 6SM 22/16 A2991 RMK T02200160 IEM_DS3505
ZHHH,2001-09-09 21:00,ZHHH 092100Z AUTO 04002KT 11SM 22/16 A2991 RMK SLP130 T02230160 57002 IEM_DS3505
ZHHH,2001-09-09 22:00,ZHHH 092200Z AUTO 01004KT 6SM 21/15 A2991 RMK T02100150 IEM_DS3505
ZHHH,2001-09-09 23:00,ZHHH 092300Z AUTO 02006KT 6SM 22/15 A2994 RMK T02200150 IEM_DS3505
ZHHH,2001-09-10 00:00,ZHHH 100000Z AUTO 04002KT 11SM 24/16 A2994 RMK SLP141 T02380161 52011 IEM_DS3505
ZHHH,2001-09-10 01:00,ZHHH 100100Z AUTO 02008KT 6SM 26/16 A2994 RMK T02600160 IEM_DS3505
ZHHH,2001-09-10 02:00,ZHHH 100200Z AUTO 03008KT 6SM 27/15 A2997 RMK T02700150 IEM_DS3505
ZHHH,2001-09-10 03:00,ZHHH 100300Z AUTO 07004KT 12SM 29/15 A2994 RMK SLP140 T02870148 57001 IEM_DS3505
ZHHH,2001-09-10 04:00,ZHHH 100400Z AUTO 01008KT 6SM 29/15 A2991 RMK T02900150 IEM_DS3505
ZHHH,2001-09-10 05:00,ZHHH 100500Z AUTO 03008KT 7SM 30/14 A2991 RMK T03000140 IEM_DS3505
ZHHH,2001-09-10 06:00,ZHHH 100600Z AUTO 36004KT 11SM 31/14 A2988 RMK SLP119 T03070139 57021 IEM_DS3505
ZHHH,2001-09-10 07:00,ZHHH 100700Z AUTO 02010KT 7SM 31/16 A2985 RMK T03100160 IEM_DS3505
ZHHH,2001-09-10 08:00,ZHHH 100800Z AUTO 05014KT 7SM 30/14 A2985 RMK T03000140 IEM_DS3505
ZHHH,2001-09-10 09:00,ZHHH 100900Z AUTO 07004KT 11SM 30/14 A2985 RMK SLP114 T02970135 57005 IEM_DS3505
ZHHH,2001-09-10 10:00,ZHHH 101000Z AUTO 03012KT 6SM 28/14 A2988 RMK T02800140 IEM_DS3505
ZHHH,2001-09-10 11:00,ZHHH 101100Z AUTO 03008KT 6SM 27/13 A2988 RMK T02700130 IEM_DS3505
ZHHH,2001-09-10 12:00,ZHHH 101200Z AUTO 04004KT 11SM 27/13 A2988 RMK SLP125 T02690127 52011 IEM_DS3505
ZHHH,2001-09-10 13:00,ZHHH 101300Z AUTO 6SM 26/12 A2991 RMK T02600120 IEM_DS3505
ZHHH,2001-09-10 14:00,ZHHH 101400Z AUTO 03006KT 6SM 25/13 A2991 RMK T02500130 IEM_DS3505
ZHHH,2001-09-10 15:00,ZHHH 101500Z AUTO 36004KT 11SM 25/13 A2991 RMK SLP131 T02520127 52006 IEM_DS3505
ZHHH,2001-09-10 16:00,ZHHH 101600Z AUTO 01004KT 6SM 24/12 A2991 RMK T02400120 IEM_DS3505
ZHHH,2001-09-10 17:00,ZHHH 101700Z AUTO 6SM 24/12 A2991 RMK T02400120 IEM_DS3505
ZHHH,2001-09-10 18:00,ZHHH 101800Z AUTO 04002KT 9SM 24/14 A2991 RMK 60003 SLP125 T02400144 57006 IEM_DS3505
ZHHH,2001-09-10 19:00,ZHHH 101900Z AUTO 02004KT 6SM 23/15 A2988 RMK T02300150 IEM_DS3505
ZHHH,2001-09-10 20:00,ZHHH 102000Z AUTO 6SM 23/15 A2988 RMK T02300150 IEM_DS3505
ZHHH,2001-09-10 21:00,ZHHH 102100Z AUTO 36004KT 9SM 23/16 RMK 70003 SLP126 T02320159 52001 IEM_DS3505
ZHHH,2001-09-10 22:00,ZHHH 102200Z AUTO 36002KT 6SM 22/16 A2991 RMK T02200160 IEM_DS3505
ZHHH,2001-09-10 23:00,ZHHH 102300Z AUTO 6SM 22/17 A2994 RMK T02200170 IEM_DS3505
ZHHH,2001-09-11 00:00,ZHHH 110000Z AUTO 36002KT 12SM 23/18 RMK 70003 SLP141 T02330176 52015 IEM_DS3505
ZHHH,2001-09-11 01:00,ZHHH 110100Z AUTO 36006KT 6SM 25/16 A2994 RMK T02500160 IEM_DS3505
ZHHH,2001-09-11 02:00,ZHHH 110200Z AUTO 08006KT 6SM 27/16 A2994 RMK T02700160 IEM_DS3505
ZHHH,2001-09-11 03:00,ZHHH 110300Z AUTO 36002KT 14SM 28/17 A2994 RMK SLP140 T02780170 57001 IEM_DS3505
ZHHH,2001-09-11 04:00,ZHHH 110400Z AUTO 7SM 29/16 A2991 RMK T02900160 IEM_DS3505
ZHHH,2001-09-11 05:00,ZHHH 110500Z AUTO 7SM 30/15 A2988 RMK T03000150 IEM_DS3505
ZHHH,2001-09-11 06:00,ZHHH 110600Z AUTO 14002KT 14SM 29/15 A2988 RMK SLP121 T02940151 57019 IEM_DS3505
ZHHH,2001-09-11 07:00,ZHHH 110700Z AUTO 09004KT 7SM 31/15 A2985 RMK T03100150 IEM_DS3505
ZHHH,2001-09-11 08:00,ZHHH 110800Z AUTO 01004KT 7SM 32/13 A2985 RMK T03200130 IEM_DS3505
ZHHH,2001-09-11 09:00,ZHHH 110900Z AUTO 32002KT 14SM 31/14 RMK SLP111 T03060144 57010 IEM_DS3505
ZHHH,2001-09-11 10:00,ZHHH 111000Z AUTO 6SM 29/17 A2985 RMK T02900170 IEM_DS3505
ZHHH,2001-09-11 11:00,ZHHH 111100Z AUTO 6SM 28/17 A2985 RMK T02800170 IEM_DS3505
ZHHH,2001-09-11 12:00,ZHHH 111200Z AUTO 29002KT 11SM 28/15 A2988 RMK SLP121 T02810149 52010 IEM_DS3505
ZHHH,2001-09-11 13:00,ZHHH 111300Z AUTO 02004KT 6SM 27/15 A2991 RMK T02700150 IEM_DS3505
ZHHH,2001-09-11 14:00,ZHHH 111400Z AUTO 02002KT 6SM 26/15 A2991 RMK T02600150 IEM_DS3505
ZHHH,2001-09-11 15:00,ZHHH 111500Z AUTO 04002KT 11SM 26/15 A2991 RMK SLP132 T02600154 52011 IEM_DS3505
ZHHH,2001-09-11 16:00,ZHHH 111600Z AUTO 36004KT 6SM 24/14 A2991 RMK T02400140 IEM_DS3505
ZHHH,2001-09-11 17:00,ZHHH 111700Z AUTO 36004KT 6SM 23/14 A2991 RMK T02300140 IEM_DS3505
ZHHH,2001-09-11 18:00,ZHHH 111800Z AUTO 09004KT 11SM 24/16 A2991 RMK SLP126 T02420155 57006 IEM_DS3505
ZHHH,2001-09-11 19:00,ZHHH 111900Z AUTO 06008KT 6SM 22/15 A2988 RMK T02200150 IEM_DS3505
ZHHH,2001-09-11 20:00,ZHHH 112000Z AUTO 05008KT 6SM 22/14 A2988 RMK T02200140 IEM_DS3505
ZHHH,2001-09-11 21:00,ZHHH 112100Z AUTO 09002KT 11SM 23/16 A2991 RMK SLP130 T02260160 52004 IEM_DS3505
ZHHH,2001-09-11 22:00,ZHHH 112200Z AUTO 06008KT 6SM 21/14 A2991 RMK T02100140 IEM_DS3505
ZHHH,2001-09-12 00:00,ZHHH 120000Z AUTO 07004KT 16SM 24/16 A2994 RMK SLP144 T02390164 52014 IEM_DS3505
ZHHH,2001-09-12 01:00,ZHHH 120100Z AUTO 08006KT 6SM 26/16 A2994 RMK T02600160 IEM_DS3505
ZHHH,2001-09-12 02:00,ZHHH 120200Z AUTO 11006KT 6SM 28/16 A2997 RMK T02800160 IEM_DS3505
ZHHH,2001-09-12 03:00,ZHHH 120300Z AUTO 09004KT 16SM 29/16 A2994 RMK SLP141 T02880160 57003 IEM_DS3505
ZHHH,2001-09-12 04:00,ZHHH 120400Z AUTO 7SM 29/17 A2991 RMK T02900170 IEM_DS3505
ZHHH,2001-09-12 06:00,ZHHH 120600Z AUTO 29004KT 16SM 30/16 A2988 RMK SLP120 T03030155 57021 IEM_DS3505
ZHHH,2001-09-12 07:00,ZHHH 120700Z AUTO 27006KT 7SM 31/16 A2985 RMK T03100160 IEM_DS3505
ZHHH,2001-09-12 08:00,ZHHH 120800Z AUTO 23006KT 6SM 31/15 A2985 RMK T03100150 IEM_DS3505
ZHHH,2001-09-12 09:00,ZHHH 120900Z AUTO 34002KT 16SM 31/14 A2985 RMK SLP110 T03060145 57010 IEM_DS3505
ZHHH,2001-09-12 10:00,ZHHH 121000Z AUTO 21004KT 6SM 30/15 A2985 RMK T03000150 IEM_DS3505
ZHHH,2001-09-12 11:00,ZHHH 121100Z AUTO 22004KT 6SM 29/16 A2985 RMK T02900160 IEM_DS3505
ZHHH,2001-09-12 12:00,ZHHH 121200Z AUTO 27002KT 11SM 28/15 A2988 RMK SLP116 T02850153 52006 IEM_DS3505
ZHHH,2001-09-12 13:00,ZHHH 121300Z AUTO 29002KT 27/19 A2988 RMK T02700190 IEM_DS3505
ZHHH,2001-09-12 14:00,ZHHH 121400Z AUTO 01004KT 3SM 26/19 A2988 RMK T02600190 IEM_DS3505
ZHHH,2001-09-12 15:00,ZHHH 121500Z AUTO 34002KT 9SM 26/19 A2988 RMK SLP117 T02590189 52001 IEM_DS3505
ZHHH,2001-09-12 16:00,ZHHH 121600Z AUTO 3SM 25/17 A2985 RMK T02500170 IEM_DS3505
ZHHH,2001-09-12 17:00,ZHHH 121700Z AUTO 24/17 A2985 RMK T02400170 IEM_DS3505
ZHHH,2001-09-12 18:00,ZHHH 121800Z AUTO 04002KT 11SM 25/19 A2985 RMK SLP109 T02470186 57008 IEM_DS3505
ZHHH,2001-09-12 19:00,ZHHH 121900Z AUTO 12004KT 4SM 23/18 A2985 RMK T02300180 IEM_DS3505
ZHHH,2001-09-12 20:00,ZHHH 122000Z AUTO 23/17 A2983 RMK T02300170 IEM_DS3505
ZHHH,2001-09-12 21:00,ZHHH 122100Z AUTO 07002KT 11SM 23/19 A2985 RMK SLP107 T02320190 57002 IEM_DS3505
ZHHH,2001-09-12 22:00,ZHHH 122200Z AUTO 07008KT 6SM 22/17 A2985 RMK T02200170 IEM_DS3505
ZHHH,2001-09-12 23:00,ZHHH 122300Z AUTO 09008KT 6SM 23/17 A2988 RMK T02300170 IEM_DS3505
ZHHH,2001-09-13 00:00,ZHHH 130000Z AUTO 07004KT 9SM 26/20 A2988 RMK SLP119 T02570203 52012 IEM_DS3505
ZHHH,2001-09-13 01:00,ZHHH 130100Z AUTO 12008KT 25/18 A2988 RMK T02500180 IEM_DS3505
ZHHH,2001-09-13 02:00,ZHHH 130200Z AUTO 11006KT 12SM 27/19 A2988 RMK T02700190 IEM_DS3505
ZHHH,2001-09-13 03:00,ZHHH 130300Z AUTO 00000KT 12SM 30/19 A2988 RMK SLP116 T02960190 57003 IEM_DS3505
ZHHH,2001-09-13 04:00,ZHHH 130400Z AUTO 23006KT 6SM 30/19 A2985 RMK T03000190 IEM_DS3505
ZHHH,2001-09-13 05:00,ZHHH 130500Z AUTO 26006KT 7SM 31/19 A2983 RMK T03100190 IEM_DS3505
ZHHH,2001-09-13 06:00,ZHHH 130600Z AUTO 29002KT 8SM 31/19 A2980 RMK SLP095 T03060191 57021 IEM_DS3505
ZHHH,2001-09-13 07:00,ZHHH 130700Z AUTO 29006KT 7SM 32/18 A2980 RMK T03200180 IEM_DS3505
ZHHH,2001-09-13 08:00,ZHHH 130800Z AUTO 6SM 31/17 A2977 RMK T03100170 IEM_DS3505
ZHHH,2001-09-13 09:00,ZHHH 130900Z AUTO 25002KT 8SM 31/17 A2977 RMK SLP085 T03140171 57010 IEM_DS3505
ZHHH,2001-09-13 10:00,ZHHH 131000Z AUTO 6SM 30/19 A2977 RMK T03000190 IEM_DS3505
ZHHH,2001-09-13 11:00,ZHHH 131100Z AUTO 31002KT 2 1/2SM 29/20 A2977 RMK T02900200 IEM_DS3505
ZHHH,2001-09-13 12:00,ZHHH 131200Z AUTO 00000KT 9SM 29/19 A2980 RMK SLP089 T02890186 52004 IEM_DS3505
ZHHH,2001-09-13 13:00,ZHHH 131300Z AUTO 28/21 A2980 RMK T02800210 IEM_DS3505
ZHHH,2001-09-13 14:00,ZHHH 131400Z AUTO 2 1/2SM 27/21 A2983 RMK T02700210 IEM_DS3505
ZHHH,2001-09-13 15:00,ZHHH 131500Z AUTO 27002KT 11SM 28/15 A2983 RMK SLP116 T02850153 52006 IEM_DS3505
ZHHH,2001-09-13 16:00,ZHHH 131600Z AUTO 04004KT 26/18 A2983 RMK T02600180 IEM_DS3505
ZHHH,2001-09-13 17:00,ZHHH 131700Z AUTO 12004KT 25/18 A2983 RMK T02500180 IEM_DS3505
ZHHH,2001-09-13 18:00,ZHHH 131800Z AUTO 00000KT 9SM 26/20 A2983 RMK SLP102 T02650197 52001 IEM_DS3505
ZHHH,2001-09-13 19:00,ZHHH 131900Z AUTO 11006KT 3SM 24/20 A2983 RMK T02400200 IEM_DS3505
ZHHH,2001-09-13 20:00,ZHHH 132000Z AUTO 08008KT 3SM 23/20 A2983 RMK T02300200 IEM_DS3505
ZHHH,2001-09-13 21:00,ZHHH 132100Z AUTO 14004KT 9SM 26/19 A2985 RMK SLP104 T02630187 52002 IEM_DS3505
ZHHH,2001-09-13 22:00,ZHHH 132200Z AUTO 09006KT 3SM 23/21 A2985 RMK T02300210 IEM_DS3505
ZHHH,2001-09-14 00:00,ZHHH 140000Z AUTO 09004KT 9SM 26/19 RMK SLP122 T02620186 52018 IEM_DS3505
ZHHH,2001-09-14 01:00,ZHHH 140100Z AUTO 11008KT 6SM 28/18 A2991 RMK T02800180 IEM_DS3505
ZHHH,2001-09-14 02:00,ZHHH 140200Z AUTO 11008KT 6SM 29/18 A2991 RMK T02900180 IEM_DS3505
ZHHH,2001-09-14 03:00,ZHHH 140300Z AUTO 07004KT 12SM 30/16 A2991 RMK SLP127 T03050165 52005 IEM_DS3505
ZHHH,2001-09-14 04:00,ZHHH 140400Z AUTO 6SM 31/18 A2988 RMK T03100180 IEM_DS3505
ZHHH,2001-09-14 05:00,ZHHH 140500Z AUTO 25006KT 6SM 32/17 A2985 RMK T03200170 IEM_DS3505
ZHHH,2001-09-14 06:00,ZHHH 140600Z AUTO 04004KT 12SM 32/17 A2983 RMK SLP107 T03190166 57020 IEM_DS3505
ZHHH,2001-09-14 07:00,ZHHH 140700Z AUTO 24008KT 6SM 34/17 A2983 RMK T03400170 IEM_DS3505
ZHHH,2001-09-14 08:00,ZHHH 140800Z AUTO 03006KT 6SM 34/13 A2980 RMK T03400130 IEM_DS3505
ZHHH,2001-09-14 09:00,ZHHH 140900Z AUTO 20002KT 12SM 33/16 A2980 RMK SLP094 T03310164 57013 IEM_DS3505
ZHHH,2001-09-14 10:00,ZHHH 141000Z AUTO 22006KT 6SM 32/18 A2980 RMK T03200180 IEM_DS3505
ZHHH,2001-09-14 11:00,ZHHH 141100Z AUTO 6SM 30/18 A2983 RMK T03000180 IEM_DS3505
ZHHH,2001-09-14 12:00,ZHHH 141200Z AUTO 02002KT 11SM 30/19 A2985 RMK SLP108 T02950187 52014 IEM_DS3505
ZHHH,2001-09-14 13:00,ZHHH 141300Z AUTO 05010KT 3SM 28/15 A2985 RMK T02800150 IEM_DS3505
ZHHH,2001-09-14 14:00,ZHHH 141400Z AUTO 06012KT 3SM 27/14 A2988 RMK T02700140 IEM_DS3505
ZHHH,2001-09-14 15:00,ZHHH 141500Z AUTO 07004KT 11SM 27/14 A2988 RMK SLP119 T02660137 52011 IEM_DS3505
ZHHH,2001-09-14 16:00,ZHHH 141600Z AUTO 09012KT 2 1/2SM 24/13 A2988 RMK T02400130 IEM_DS3505
ZHHH,2001-09-14 17:00,ZHHH 141700Z AUTO 09010KT 2 1/2SM 23/14 A2988 RMK T02300140 IEM_DS3505
ZHHH,2001-09-14 18:00,ZHHH 141800Z AUTO 09004KT 9SM 24/17 A2988 RMK SLP117 T02440174 57002 IEM_DS3505
ZHHH,2001-09-14 19:00,ZHHH 141900Z AUTO 09004KT 3SM 23/14 A2988 RMK T02300140 IEM_DS3505
ZHHH,2001-09-14 20:00,ZHHH 142000Z AUTO 3SM 22/15 A2988 RMK T02200150 IEM_DS3505
ZHHH,2001-09-14 21:00,ZHHH 142100Z AUTO 07002KT 9SM 23/16 A2988 RMK SLP119 T02310157 52002 IEM_DS3505
ZHHH,2001-09-14 22:00,ZHHH 142200Z AUTO 07006KT 6SM 21/15 A2988 RMK T02100150 IEM_DS3505
ZHHH,2001-09-14 23:00,ZHHH 142300Z AUTO 08006KT 6SM 21/15 A2991 RMK T02100150 IEM_DS3505
ZHHH,2001-09-15 00:00,ZHHH 150000Z AUTO 07004KT 12SM 25/17 A2991 RMK SLP132 T02490168 52013 IEM_DS3505
ZHHH,2001-09-15 01:00,ZHHH 150100Z AUTO 09006KT 6SM 26/16 A2994 RMK T02600160 IEM_DS3505
ZHHH,2001-09-15 02:00,ZHHH 150200Z AUTO 12006KT 6SM 27/16 A2994 RMK T02700160 IEM_DS3505
ZHHH,2001-09-15 03:00,ZHHH 150300Z AUTO 04002KT 12SM 28/15 A2991 RMK SLP133 T02830148 52001 IEM_DS3505
ZHHH,2001-09-15 04:00,ZHHH 150400Z AUTO 6SM 28/16 A2988 RMK T02800160 IEM_DS3505
ZHHH,2001-09-15 05:00,ZHHH 150500Z AUTO 15006KT 6SM 30/17 A2988 RMK T03000170 IEM_DS3505
ZHHH,2001-09-15 06:00,ZHHH 150600Z AUTO 11004KT 14SM 31/14 A2985 RMK SLP110 T03060143 57023 IEM_DS3505
ZHHH,2001-09-15 07:00,ZHHH 150700Z AUTO 23008KT 6SM 31/17 A2983 RMK T03100170 IEM_DS3505
ZHHH,2001-09-15 08:00,ZHHH 150800Z AUTO 23006KT 6SM 32/16 A2983 RMK T03200160 IEM_DS3505
ZHHH,2001-09-15 09:00,ZHHH 150900Z AUTO 11002KT 14SM 32/13 A2980 RMK SLP097 T03160130 57013 IEM_DS3505
ZHHH,2001-09-15 10:00,ZHHH 151000Z AUTO 21004KT 6SM 30/16 A2980 RMK T03000160 IEM_DS3505
ZHHH,2001-09-15 11:00,ZHHH 151100Z AUTO 18004KT 6SM 29/16 A2983 RMK T02900160 IEM_DS3505
ZHHH,2001-09-15 12:00,ZHHH 151200Z AUTO 16002KT 12SM 29/15 A2983 RMK SLP101 T02870151 52004 IEM_DS3505
ZHHH,2001-09-15 13:00,ZHHH 151300Z AUTO 6SM 28/15 A2985 RMK T02800150 IEM_DS3505
ZHHH,2001-09-15 14:00,ZHHH 151400Z AUTO 05004KT 6SM 26/16 A2985 RMK T02600160 IEM_DS3505
ZHHH,2001-09-15 15:00,ZHHH 151500Z AUTO 02002KT 12SM 26/20 A2985 RMK SLP112 T02640198 52011 IEM_DS3505
ZHHH,2001-09-15 16:00,ZHHH 151600Z AUTO 08004KT 6SM 26/16 A2985 RMK T02600160 IEM_DS3505
ZHHH,2001-09-15 17:00,ZHHH 151700Z AUTO 08006KT 6SM 25/16 A2985 RMK T02500160 IEM_DS3505
ZHHH,2001-09-15 18:00,ZHHH 151800Z AUTO 00000KT 11SM 25/19 A2985 RMK SLP111 T02520191 57001 IEM_DS3505
ZHHH,2001-09-15 19:00,ZHHH 151900Z AUTO 6SM 23/17 A2985 RMK T02300170 IEM_DS3505
ZHHH,2001-09-15 20:00,ZHHH 152000Z AUTO 07006KT 6SM 23/18 A2985 RMK T02300180 IEM_DS3505
ZHHH,2001-09-15 21:00,ZHHH 152100Z AUTO 04002KT 11SM 25/21 A2985 RMK SLP113 T02460210 52002 IEM_DS3505
ZHHH,2001-09-15 22:00,ZHHH 152200Z AUTO 08006KT 6SM 22/18 A2985 RMK T02200180 IEM_DS3505
ZHHH,2001-09-15 23:00,ZHHH 152300Z AUTO 6SM 23/18 A2988 RMK T02300180 IEM_DS3505
ZHHH,2001-09-16 00:00,ZHHH 160000Z AUTO 07002KT 9SM 25/21 A2988 RMK SLP121 T02530213 52008 IEM_DS3505
ZHHH,2001-09-16 01:00,ZHHH 160100Z AUTO 14006KT 6SM 26/21 A2988 RMK T02600210 IEM_DS3505
ZHHH,2001-09-16 02:00,ZHHH 160200Z AUTO 11006KT 2 1/2SM 28/21 A2988 RMK T02800210 IEM_DS3505
ZHHH,2001-09-16 03:00,ZHHH 160300Z AUTO 09004KT 12SM 30/21 A2988 RMK SLP117 T03020208 57004 IEM_DS3505
ZHHH,2001-09-16 04:00,ZHHH 160400Z AUTO 27006KT 7SM 30/21 A2985 RMK T03000210 IEM_DS3505
ZHHH,2001-09-16 05:00,ZHHH 160500Z AUTO 27006KT 7SM 32/21 A2983 RMK T03200210 IEM_DS3505
ZHHH,2001-09-16 06:00,ZHHH 160600Z AUTO 32004KT 12SM 32/18 A2980 RMK SLP090 T03220185 57027 IEM_DS3505
ZHHH,2001-09-16 07:00,ZHHH 160700Z AUTO 27006KT 6SM 33/18 A2977 RMK T03300180 IEM_DS3505
ZHHH,2001-09-16 08:00,ZHHH 160800Z AUTO 6SM 33/16 A2974 RMK T03300160 IEM_DS3505
ZHHH,2001-09-16 09:00,ZHHH 160900Z AUTO 27002KT 12SM 33/18 A2974 RMK SLP075 T03280175 57015 IEM_DS3505
ZHHH,2001-09-16 10:00,ZHHH 161000Z AUTO 6SM 32/17 A2977 RMK T03200170 IEM_DS3505
ZHHH,2001-09-16 11:00,ZHHH 161100Z AUTO 6SM 31/18 A2977 RMK T03100180 IEM_DS3505
ZHHH,2001-09-16 12:00,ZHHH 161200Z AUTO 00000KT 11SM 29/21 A2977 RMK SLP083 T02910214 52008 IEM_DS3505
ZHHH,2001-09-16 13:00,ZHHH 161300Z AUTO 6SM 30/19 A2980 RMK T03000190 IEM_DS3505
ZHHH,2001-09-16 15:00,ZHHH 161500Z AUTO 29002KT 11SM 28/21 A2980 RMK SLP089 T02830207 52006 IEM_DS3505
ZHHH,2001-09-16 16:00,ZHHH 161600Z AUTO 01004KT 6SM 26/19 A2980 RMK T02600190 IEM_DS3505
ZHHH,2001-09-16 17:00,ZHHH 161700Z AUTO 03004KT 6SM 27/17 A2980 RMK T02700170 IEM_DS3505
ZHHH,2001-09-16 18:00,ZHHH 161800Z AUTO 00000KT 12SM 26/20 A2977 RMK SLP086 T02620203 57003 IEM_DS3505
ZHHH,2001-09-16 19:00,ZHHH 161900Z AUTO 16004KT 4SM 25/20 A2977 RMK T02500200 IEM_DS3505
ZHHH,2001-09-16 20:00,ZHHH 162000Z AUTO 3SM 25/20 A2977 RMK T02500200 IEM_DS3505
ZHHH,2001-09-16 21:00,ZHHH 162100Z AUTO 18002G19KT 7SM 27/22 A2977 RMK SLP085 T02660216 57001 IEM_DS3505
ZHHH,2001-09-16 22:00,ZHHH 162200Z AUTO 07002KT 4SM 24/20 A2980 RMK T02400200 IEM_DS3505
ZHHH,2001-09-16 23:00,ZHHH 162300Z AUTO 4SM 24/19 A2980 RMK T02400190 IEM_DS3505
ZHHH,2001-09-17 00:00,ZHHH 170000Z AUTO 27002KT 11SM 27/23 A2980 RMK SLP095 T02740226 52010 IEM_DS3505
ZHHH,2001-09-17 01:00,ZHHH 170100Z AUTO 28/21 A2983 RMK T02800210 IEM_DS3505
ZHHH,2001-09-17 03:00,ZHHH 170300Z AUTO 02002KT 11SM 31/17 A2980 RMK SLP095 T03100167 54000 IEM_DS3505
ZHHH,2001-09-17 04:00,ZHHH 170400Z AUTO 03008KT 6SM 34/17 A2980 RMK T03400170 IEM_DS3505
ZHHH,2001-09-17 05:00,ZHHH 170500Z AUTO 07008KT 6SM 34/17 A2977 RMK T03400170 IEM_DS3505
ZHHH,2001-09-17 06:00,ZHHH 170600Z AUTO 32002KT 11SM 35/16 A2974 RMK SLP073 T03470164 57021 IEM_DS3505
ZHHH,2001-09-17 07:00,ZHHH 170700Z AUTO 04008KT 6SM 35/18 A2974 RMK T03500180 IEM_DS3505
ZHHH,2001-09-17 08:00,ZHHH 170800Z AUTO 05010KT 6SM 35/18 A2971 RMK T03500180 IEM_DS3505
ZHHH,2001-09-17 09:00,ZHHH 170900Z AUTO 09002KT 11SM 34/16 A2971 RMK SLP063 T03450163 57010 IEM_DS3505
ZHHH,2001-09-17 10:00,ZHHH 171000Z AUTO 05006KT 6SM 33/16 A2974 RMK T03300160 IEM_DS3505
ZHHH,2001-09-17 11:00,ZHHH 171100Z AUTO 04008KT 6SM 32/16 A2974 RMK T03200160 IEM_DS3505
ZHHH,2001-09-17 12:00,ZHHH 171200Z AUTO 04004KT 11SM 31/16 A2977 RMK SLP080 T03120157 52016 IEM_DS3505
ZHHH,2001-09-17 13:00,ZHHH 171300Z AUTO 04012KT 6SM 29/18 A2980 RMK T02900180 IEM_DS3505
ZHHH,2001-09-17 14:00,ZHHH 171400Z AUTO 04014KT 6SM 28/20 A2980 RMK T02800200 IEM_DS3505
ZHHH,2001-09-17 15:00,ZHHH 171500Z AUTO 04006KT 11SM 28/20 A2980 RMK SLP096 T02770200 52016 IEM_DS3505
ZHHH,2001-09-17 16:00,ZHHH 171600Z AUTO 05014KT 3SM 26/21 A2980 RMK T02600210 IEM_DS3505
ZHHH,2001-09-17 17:00,ZHHH 171700Z AUTO 04012KT 2 1/2SM 26/21 A2980 RMK T02600210 IEM_DS3505
ZHHH,2001-09-17 18:00,ZHHH 171800Z AUTO 02004KT 9SM 26/20 A2980 RMK SLP097 T02580199 52002 IEM_DS3505
ZHHH,2001-09-17 19:00,ZHHH 171900Z AUTO 03012KT 1 1/2SM 25/20 A2980 RMK T02500200 IEM_DS3505
ZHHH,2001-09-17 20:00,ZHHH 172000Z AUTO 04012KT 1 1/2SM 24/20 A2980 RMK T02400200 IEM_DS3505
ZHHH,2001-09-17 21:00,ZHHH 172100Z AUTO 04004KT 9SM 25/20 A2983 RMK SLP101 T02460195 52003 IEM_DS3505
ZHHH,2001-09-17 22:00,ZHHH 172200Z AUTO 04008KT 1 1/2SM 24/20 A2983 RMK T02400200 IEM_DS3505
ZHHH,2001-09-17 23:00,ZHHH 172300Z AUTO 03006G23KT 1 1/2SM 24/20 A2985 RMK T02400200 IEM_DS3505
ZHHH,2001-09-18 00:00,ZHHH 180000Z AUTO 04004KT 9SM 25/20 A2988 RMK SLP119 T02480197 52018 IEM_DS3505
ZHHH,2001-09-18 01:00,ZHHH 180100Z AUTO 03010KT 1 1/2SM 25/20 A2991 RMK T02500200 IEM_DS3505
ZHHH,2001-09-18 02:00,ZHHH 180200Z AUTO 03010KT 1 1/2SM 26/21 A2991 RMK T02600210 IEM_DS3505
ZHHH,2001-09-18 03:00,ZHHH 180300Z AUTO 04004KT 9SM 27/20 A2991 RMK SLP127 T02700201 52008 IEM_DS3505
ZHHH,2001-09-18 04:00,ZHHH 180400Z AUTO 03012KT 1 1/2SM 27/21 A2988 RMK T02700210 IEM_DS3505
ZHHH,2001-09-18 05:00,ZHHH 180500Z AUTO 03012KT 1 1/2SM 27/20 A2988 RMK T02700200 IEM_DS3505
ZHHH,2001-09-18 06:00,ZHHH 180600Z AUTO 36006KT 7SM 28/20 A2985 RMK SLP113 T02790199 57014 IEM_DS3505
ZHHH,2001-09-18 07:00,ZHHH 180700Z AUTO 04014KT 1 1/2SM 28/21 A2983 RMK T02800210 IEM_DS3505
ZHHH,2001-09-18 08:00,ZHHH 180800Z AUTO 04014KT 1 1/4SM 28/21 A2983 RMK T02800210 IEM_DS3505
ZHHH,2001-09-18 09:00,ZHHH 180900Z AUTO 04004KT 7SM 28/20 A2983 RMK SLP097 T02760202 57016 IEM_DS3505
ZHHH,2001-09-18 10:00,ZHHH 181000Z AUTO 02008KT 1SM 27/21 A2983 RMK T02700210 IEM_DS3505
ZHHH,2001-09-18 11:00,ZHHH 181100Z AUTO 03008KT 1SM 26/21 A2983 RMK T02600210 IEM_DS3505
ZHHH,2001-09-18 12:00,ZHHH 181200Z AUTO 04002KT 7SM 26/20 A2985 RMK SLP110 T02590196 52013 IEM_DS3505
ZHHH,2001-09-18 13:00,ZHHH 181300Z AUTO 04014KT 1 1/4SM 25/20 A2985 RMK T02500200 IEM_DS3505
ZHHH,2001-09-18 14:00,ZHHH 181400Z AUTO 05012KT 1 1/4SM 25/19 A2988 RMK T02500190 IEM_DS3505
ZHHH,2001-09-18 15:00,ZHHH 181500Z AUTO 36002KT 9SM 25/19 A2988 RMK SLP119 T02500190 52009 IEM_DS3505
ZHHH,2001-09-18 16:00,ZHHH 181600Z AUTO 05010KT 1 1/2SM 24/19 A2988 RMK T02400190 IEM_DS3505
ZHHH,2001-09-18 17:00,ZHHH 181700Z AUTO 05008KT 2SM 24/18 A2988 RMK T02400180 IEM_DS3505
ZHHH,2001-09-18 18:00,ZHHH 181800Z AUTO 04002KT 9SM 24/18 A2988 RMK SLP118 T02440182 57001 IEM_DS3505
ZHHH,2001-09-18 19:00,ZHHH 181900Z AUTO 05008KT 2SM 24/18 A2988 RMK T02400180 IEM_DS3505
ZHHH,2001-09-18 20:00,ZHHH 182000Z AUTO 2SM 24/18 A2985 RMK T02400180 IEM_DS3505
ZHHH,2001-09-18 21:00,ZHHH 182100Z AUTO 07004KT 9SM 24/18 A2988 RMK SLP116 T02360184 57002 IEM_DS3505
ZHHH,2001-09-18 22:00,ZHHH 182200Z AUTO 04006KT 1 1/2SM 23/18 A2988 RMK T02300180 IEM_DS3505
ZHHH,2001-09-18 23:00,ZHHH 182300Z AUTO 06006KT 1 1/2SM 23/18 A2991 RMK T02300180 IEM_DS3505
ZHHH,2001-09-19 00:00,ZHHH 190000Z AUTO 07002KT 11SM 24/19 A2991 RMK SLP134 T02430186 52018 IEM_DS3505
ZHHH,2001-09-19 01:00,ZHHH 190100Z AUTO 04006KT 2 1/2SM 24/19 A2994 RMK T02400190 IEM_DS3505
ZHHH,2001-09-19 02:00,ZHHH 190200Z AUTO 04008KT 11SM 25/19 A2994 RMK T02500190 IEM_DS3505
ZHHH,2001-09-19 03:00,ZHHH 190300Z AUTO 36004KT 11SM 28/19 A2991 RMK SLP135 T02780193 52001 IEM_DS3505
ZHHH,2001-09-19 04:00,ZHHH 190400Z AUTO 05006KT 2 1/2SM 28/20 A2991 RMK T02800200 IEM_DS3505
ZHHH,2001-09-19 05:00,ZHHH 190500Z AUTO 2 1/2SM 29/19 A2991 RMK T02900190 IEM_DS3505
ZHHH,2001-09-19 06:00,ZHHH 190600Z AUTO 04004KT 12SM 30/19 A2988 RMK SLP118 T02950192 57017 IEM_DS3505
ZHHH,2001-09-19 07:00,ZHHH 190700Z AUTO 31008KT 2 1/2SM 30/20 A2985 RMK T03000200 IEM_DS3505
ZHHH,2001-09-19 08:00,ZHHH 190800Z AUTO 33008KT 2 1/2SM 30/20 A2985 RMK T03000200 IEM_DS3505
ZHHH,2001-09-19 09:00,ZHHH 190900Z AUTO 32004KT 12SM 29/20 A2988 RMK SLP116 T02930199 57002 IEM_DS3505
ZHHH,2001-09-19 10:00,ZHHH 191000Z AUTO 04014KT 27/20 A2988 RMK T02700200 IEM_DS3505
ZHHH,2001-09-19 11:00,ZHHH 191100Z AUTO 04014KT 4SM 25/20 A2988 RMK T02500200 IEM_DS3505
ZHHH,2001-09-19 12:00,ZHHH 191200Z AUTO 02006KT 9SM 25/19 A2991 RMK SLP129 T02500191 52013 IEM_DS3505
ZHHH,2001-09-19 13:00,ZHHH 191300Z AUTO 04012KT 6SM 24/19 A2991 RMK T02400190 IEM_DS3505
ZHHH,2001-09-19 14:00,ZHHH 191400Z AUTO 05010KT 6SM 24/19 A2994 RMK T02400190 IEM_DS3505
ZHHH,2001-09-19 15:00,ZHHH 191500Z AUTO 04004KT 11SM 24/18 A2994 RMK SLP145 T02390184 52016 IEM_DS3505
ZHHH,2001-09-19 16:00,ZHHH 191600Z AUTO 05008KT 6SM 24/18 A2997 RMK T02400180 IEM_DS3505
ZHHH,2001-09-19 17:00,ZHHH 191700Z AUTO 05010KT 6SM 24/18 A2997 RMK T02400180 IEM_DS3505
ZHHH,2001-09-19 18:00,ZHHH 191800Z AUTO 04002KT 9SM 23/18 A2997 RMK SLP151 T02340175 52006 IEM_DS3505
ZHHH,2001-09-19 19:00,ZHHH 191900Z AUTO 03010KT 6SM 22/16 A2997 RMK T02200160 IEM_DS3505
ZHHH,2001-09-19 20:00,ZHHH 192000Z AUTO 04010KT 6SM 21/15 A2997 RMK T02100150 IEM_DS3505
ZHHH,2001-09-19 21:00,ZHHH 192100Z AUTO 04004KT 11SM 22/15 A2997 RMK SLP155 T02170148 52004 IEM_DS3505
ZHHH,2001-09-19 22:00,ZHHH 192200Z AUTO 04012KT 6SM 20/14 A3000 RMK T02000140 IEM_DS3505
ZHHH,2001-09-19 23:00,ZHHH 192300Z AUTO 03012KT 6SM 20/14 A3000 RMK T02000140 IEM_DS3505
ZHHH,2001-09-20 00:00,ZHHH 200000Z AUTO 04004KT 9SM 21/14 A3003 RMK SLP168 T02130143 52013 IEM_DS3505
ZHHH,2001-09-20 01:00,ZHHH 200100Z AUTO 04012KT 6SM 22/15 A3003 RMK T02200150 IEM_DS3505
ZHHH,2001-09-20 02:00,ZHHH 200200Z AUTO 03012KT 6SM 23/16 A3003 RMK T02300160 IEM_DS3505
ZHHH,2001-09-20 03:00,ZHHH 200300Z AUTO 36006KT 11SM 25/16 A3003 RMK SLP169 T02480157 52001 IEM_DS3505
ZHHH,2001-09-20 04:00,ZHHH 200400Z AUTO 03010KT 6SM 27/16 A3003 RMK T02700160 IEM_DS3505
ZHHH,2001-09-20 05:00,ZHHH 200500Z AUTO 03010KT 6SM 28/16 A3000 RMK T02800160 IEM_DS3505
ZHHH,2001-09-20 06:00,ZHHH 200600Z AUTO 02004KT 11SM 28/15 A2997 RMK SLP154 T02790149 57015 IEM_DS3505
ZHHH,2001-09-20 07:00,ZHHH 200700Z AUTO 04008KT 6SM 29/17 A2997 RMK T02900170 IEM_DS3505
ZHHH,2001-09-20 08:00,ZHHH 200800Z AUTO 04010KT 6SM 29/17 A2997 RMK T02900170 IEM_DS3505
ZHHH,2001-09-20 09:00,ZHHH 200900Z AUTO 36002KT 11SM 29/17 A2997 RMK SLP147 T02860173 57007 IEM_DS3505
ZHHH,2001-09-20 10:00,ZHHH 201000Z AUTO 04010KT 6SM 28/16 A2997 RMK T02800160 IEM_DS3505
ZHHH,2001-09-20 11:00,ZHHH 201100Z AUTO 05014KT 6SM 27/15 A3000 RMK T02700150 IEM_DS3505
ZHHH,2001-09-20 12:00,ZHHH 201200Z AUTO 07002KT 9SM 27/14 A3003 RMK 60003 SLP167 T02680135 52020 IEM_DS3505
ZHHH,2001-09-20 13:00,ZHHH 201300Z AUTO 07012KT 6SM 26/15 A3003 RMK T02600150 IEM_DS3505
ZHHH,2001-09-20 14:00,ZHHH 201400Z AUTO 06014KT 6SM 25/15 A3006 RMK T02500150 IEM_DS3505
ZHHH,2001-09-20 15:00,ZHHH 201500Z AUTO 04004KT 9SM 25/14 A3006 RMK SLP180 T02520142 52013 IEM_DS3505
ZHHH,2001-09-20 16:00,ZHHH 201600Z AUTO 06012KT 6SM 24/14 A3006 RMK T02400140 IEM_DS3505
ZHHH,2001-09-20 17:00,ZHHH 201700Z AUTO 06008KT 6SM 24/14 A3006 RMK T02400140 IEM_DS3505
ZHHH,2001-09-20 18:00,ZHHH 201800Z AUTO 04004KT 9SM 24/15 A3006 RMK SLP183 T02420149 52003 IEM_DS3505
ZHHH,2001-09-20 19:00,ZHHH 201900Z AUTO 06010KT 6SM 24/15 A3006 RMK T02400150 IEM_DS3505
ZHHH,2001-09-20 20:00,ZHHH 202000Z AUTO 04008KT 6SM 23/15 A3006 RMK T02300150 IEM_DS3505
ZHHH,2001-09-20 21:00,ZHHH 202100Z AUTO 02004KT 9SM 24/15 A3006 RMK 70003 SLP180 T02360148 57003 IEM_DS3505
ZHHH,2001-09-20 22:00,ZHHH 202200Z AUTO 03008KT 6SM 22/15 A3006 RMK T02200150 IEM_DS3505
ZHHH,2001-09-20 23:00,ZHHH 202300Z AUTO 03010KT 6SM 22/16 A3009 RMK T02200160 IEM_DS3505
ZHHH,2001-09-21 00:00,ZHHH 210000Z AUTO 36002KT 6SM 22/16 A3009 RMK 70003 SLP197 T02190160 52017 IEM_DS3505
ZHHH,2001-09-21 01:00,ZHHH 210100Z AUTO 04012KT 4SM 21/17 A3012 RMK T02100170 IEM_DS3505
ZHHH,2001-09-21 02:00,ZHHH 210200Z AUTO 04014KT 6SM 22/18 A3015 RMK T02200180 IEM_DS3505
ZHHH,2001-09-21 03:00,ZHHH 210300Z AUTO 04004KT 9SM 23/18 A3015 RMK SLP207 T02260176 52010 IEM_DS3505
ZHHH,2001-09-21 04:00,ZHHH 210400Z AUTO 05014KT 6SM 23/18 A3012 RMK T02300180 IEM_DS3505
ZHHH,2001-09-21 05:00,ZHHH 210500Z AUTO 04012KT 6SM 23/18 A3012 RMK T02300180 IEM_DS3505
ZHHH,2001-09-21 06:00,ZHHH 210600Z AUTO 02004KT 9SM 24/17 A3012 RMK 60003 SLP197 T02350172 57010 IEM_DS3505
ZHHH,2001-09-21 07:00,ZHHH 210700Z AUTO 04012KT 6SM 22/17 A3012 RMK T02200170 IEM_DS3505
ZHHH,2001-09-21 08:00,ZHHH 210800Z AUTO 04012KT 4SM 20/18 A3012 RMK T02000180 IEM_DS3505
ZHHH,2001-09-21 09:00,ZHHH 210900Z AUTO 02006KT 9SM 19/17 A3012 RMK SLP203 T01920174 52005 IEM_DS3505
ZHHH,2001-09-21 10:00,ZHHH 211000Z AUTO 03010KT 7SM 18/16 A3015 RMK T01800160 IEM_DS3505
ZHHH,2001-09-21 11:00,ZHHH 211100Z AUTO 03010KT 7SM 18/16 A3015 RMK T01800160 IEM_DS3505
ZHHH,2001-09-21 12:00,ZHHH 211200Z AUTO 04006KT 7SM 19/15 A3018 RMK 60004 SLP218 T01870150 52015 IEM_DS3505
ZHHH,2001-09-21 13:00,ZHHH 211300Z AUTO 05014KT 7SM 18/16 A3018 RMK T01800160 IEM_DS3505
ZHHH,2001-09-21 14:00,ZHHH 211400Z AUTO 05008KT 7SM 18/16 A3018 RMK T01800160 IEM_DS3505
ZHHH,2001-09-21 15:00,ZHHH 211500Z AUTO 07006KT 9SM 19/17 A3018 RMK SLP218 T01930168 54000 IEM_DS3505
ZHHH,2001-09-21 16:00,ZHHH 211600Z AUTO 04010KT 4SM 18/17 A3015 RMK T01800170 IEM_DS3505
ZHHH,2001-09-21 17:00,ZHHH 211700Z AUTO 04010KT 5SM 18/17 A3015 RMK T01800170 IEM_DS3505
ZHHH,2001-09-21 18:00,ZHHH 211800Z AUTO 04006KT 8SM 19/17 A3015 RMK SLP209 T01920171 57009 IEM_DS3505
ZHHH,2001-09-21 19:00,ZHHH 211900Z AUTO 04010KT 7SM 19/17 A3015 RMK T01900170 IEM_DS3505
ZHHH,2001-09-21 20:00,ZHHH 212000Z AUTO 04008KT 6SM 19/17 A3012 RMK T01900170 IEM_DS3505
ZHHH,2001-09-21 21:00,ZHHH 212100Z AUTO 04004KT 7SM 20/17 RMK 70004 SLP203 T01950170 57006 IEM_DS3505
ZHHH,2001-09-21 22:00,ZHHH 212200Z AUTO 04008KT 6SM 19/17 A3012 RMK T01900170 IEM_DS3505
ZHHH,2001-09-21 23:00,ZHHH 212300Z AUTO 04006KT 6SM 19/17 A3015 RMK T01900170 IEM_DS3505
ZHHH,2001-09-22 00:00,ZHHH 220000Z AUTO 04004KT 9SM 20/16 A3018 RMK 70004 SLP218 T02000158 52015 IEM_DS3505
ZHHH,2001-09-22 01:00,ZHHH 220100Z AUTO 06012KT 6SM 20/17 A3018 RMK T02000170 IEM_DS3505
ZHHH,2001-09-22 02:00,ZHHH 220200Z AUTO 07012KT 6SM 22/16 A3015 RMK T02200160 IEM_DS3505
ZHHH,2001-09-22 03:00,ZHHH 220300Z AUTO 04002KT 9SM 23/15 A3015 RMK SLP213 T02290146 57005 IEM_DS3505
ZHHH,2001-09-22 04:00,ZHHH 220400Z AUTO 09010KT 6SM 25/13 A3012 RMK T02500130 IEM_DS3505
ZHHH,2001-09-22 05:00,ZHHH 220500Z AUTO 12008KT 6SM 26/14 A3009 RMK T02600140 IEM_DS3505
ZHHH,2001-09-22 06:00,ZHHH 220600Z AUTO 04008KT 12SM 27/11 A3009 RMK SLP188 T02700112 57024 IEM_DS3505
ZHHH,2001-09-22 07:00,ZHHH 220700Z AUTO 06008KT 7SM 27/15 A3006 RMK T02700150 IEM_DS3505
ZHHH,2001-09-22 09:00,ZHHH 220900Z AUTO 02004KT 12SM 27/14 A3006 RMK SLP175 T02740139 57013 IEM_DS3505
ZHHH,2001-09-22 10:00,ZHHH 221000Z AUTO 05008KT 6SM 26/15 A3003 RMK T02600150 IEM_DS3505
ZHHH,2001-09-22 11:00,ZHHH 221100Z AUTO 6SM 24/15 A3003 RMK T02400150 IEM_DS3505
ZHHH,2001-09-22 12:00,ZHHH 221200Z AUTO 04002KT 9SM 24/15 A3006 RMK SLP179 T02390151 52004 IEM_DS3505
ZHHH,2001-09-22 13:00,ZHHH 221300Z AUTO 6SM 23/15 A3006 RMK T02300150 IEM_DS3505
ZHHH,2001-09-22 14:00,ZHHH 221400Z AUTO 01004KT 6SM 22/16 A3006 RMK T02200160 IEM_DS3505
ZHHH,2001-09-22 15:00,ZHHH 221500Z AUTO 36002KT 9SM 22/14 A3006 RMK SLP183 T02190143 52004 IEM_DS3505
ZHHH,2001-09-22 16:00,ZHHH 221600Z AUTO 35004KT 6SM 20/16 A3006 RMK T02000160 IEM_DS3505
ZHHH,2001-09-22 17:00,ZHHH 221700Z AUTO 35004KT 6SM 20/16 A3006 RMK T02000160 IEM_DS3505
ZHHH,2001-09-22 18:00,ZHHH 221800Z AUTO 00000KT 11SM 20/16 A3003 RMK SLP175 T02050157 57008 IEM_DS3505
ZHHH,2001-09-22 19:00,ZHHH 221900Z AUTO 6SM 20/14 A3003 RMK T02000140 IEM_DS3505
ZHHH,2001-09-22 20:00,ZHHH 222000Z AUTO 34002KT 6SM 19/16 A3003 RMK T01900160 IEM_DS3505
ZHHH,2001-09-22 21:00,ZHHH 222100Z AUTO 34002KT 11SM 20/16 A3003 RMK SLP171 T02030156 57004 IEM_DS3505
ZHHH,2001-09-22 22:00,ZHHH 222200Z AUTO 01002KT 6SM 19/14 A3003 RMK T01900140 IEM_DS3505
ZHHH,2001-09-22 23:00,ZHHH 222300Z AUTO 03002KT 6SM 19/14 A3006 RMK T01900140 IEM_DS3505
ZHHH,2001-09-23 00:00,ZHHH 230000Z AUTO 02004KT 12SM 21/14 A3006 RMK SLP180 T02110140 52009 IEM_DS3505
ZHHH,2001-09-23 01:00,ZHHH 230100Z AUTO 6SM 23/14 A3006 RMK T02300140 IEM_DS3505
ZHHH,2001-09-23 02:00,ZHHH 230200Z AUTO 6SM 25/14 A3006 RMK T02500140 IEM_DS3505
ZHHH,2001-09-23 03:00,ZHHH 230300Z AUTO 07002KT 12SM 28/13 A3003 RMK SLP174 T02750132 57006 IEM_DS3505
ZHHH,2001-09-23 04:00,ZHHH 230400Z AUTO 6SM 28/13 A3003 RMK T02800130 IEM_DS3505
ZHHH,2001-09-23 05:00,ZHHH 230500Z AUTO 6SM 29/13 A2997 RMK T02900130 IEM_DS3505
ZHHH,2001-09-23 06:00,ZHHH 230600Z AUTO 29002KT 16SM 30/12 A2994 RMK SLP143 T03010125 57031 IEM_DS3505
ZHHH,2001-09-23 07:00,ZHHH 230700Z AUTO 27006KT 6SM 30/14 A2991 RMK T03000140 IEM_DS3505
ZHHH,2001-09-23 08:00,ZHHH 230800Z AUTO 26006KT 6SM 30/14 A2991 RMK T03000140 IEM_DS3505
ZHHH,2001-09-23 09:00,ZHHH 230900Z AUTO 34002KT 16SM 30/13 A2991 RMK SLP127 T02950128 57016 IEM_DS3505
ZHHH,2001-09-23 10:00,ZHHH 231000Z AUTO 6SM 29/14 A2991 RMK T02900140 IEM_DS3505
ZHHH,2001-09-23 11:00,ZHHH 231100Z AUTO 6SM 27/15 A2991 RMK T02700150 IEM_DS3505
ZHHH,2001-09-23 12:00,ZHHH 231200Z AUTO 25002KT 16SM 27/14 A2991 RMK SLP133 T02710135 52006 IEM_DS3505
ZHHH,2001-09-23 13:00,ZHHH 231300Z AUTO 29002KT 6SM 26/18 A2994 RMK T02600180 IEM_DS3505
ZHHH,2001-09-23 14:00,ZHHH 231400Z AUTO 6SM 25/18 A2994 RMK T02500180 IEM_DS3505
ZHHH,2001-09-23 15:00,ZHHH 231500Z AUTO 00000KT 12SM 24/16 A2994 RMK SLP139 T02390163 52006 IEM_DS3505
ZHHH,2001-09-23 16:00,ZHHH 231600Z AUTO 6SM 23/19 A2994 RMK T02300190 IEM_DS3505
ZHHH,2001-09-23 17:00,ZHHH 231700Z AUTO 13002KT 6SM 23/18 A2994 RMK T02300180 IEM_DS3505
ZHHH,2001-09-23 18:00,ZHHH 231800Z AUTO 00000KT 9SM 23/17 A2994 RMK SLP138 T02330173 57001 IEM_DS3505
ZHHH,2001-09-23 19:00,ZHHH 231900Z AUTO 3SM 22/18 A2994 RMK T02200180 IEM_DS3505
ZHHH,2001-09-23 20:00,ZHHH 232000Z AUTO 11004KT 2SM 21/18 A2991 RMK T02100180 IEM_DS3505
ZHHH,2001-09-23 21:00,ZHHH 232100Z AUTO 18002KT 9SM 23/17 A2994 RMK SLP136 T02280166 57002 IEM_DS3505
ZHHH,2001-09-23 22:00,ZHHH 232200Z AUTO 06006KT 1 1/4SM 20/18 A2994 RMK T02000180 IEM_DS3505
ZHHH,2001-09-23 23:00,ZHHH 232300Z AUTO 06006KT 1 1/4SM 20/18 A2997 RMK T02000180 IEM_DS3505
ZHHH,2001-09-24 00:00,ZHHH 240000Z AUTO 00000KT 9SM 23/19 A2997 RMK SLP154 T02330190 52018 IEM_DS3505
ZHHH,2001-09-24 01:00,ZHHH 240100Z AUTO 3SM 25/19 A3000 RMK T02500190 IEM_DS3505
ZHHH,2001-09-24 02:00,ZHHH 240200Z AUTO 5SM 27/17 A3000 RMK T02700170 IEM_DS3505
ZHHH,2001-09-24 03:00,ZHHH 240300Z AUTO 04002KT 11SM 28/17 A2997 RMK SLP156 T02790171 52002 IEM_DS3505
ZHHH,2001-09-24 04:00,ZHHH 240400Z AUTO 04016KT 6SM 30/15 A2997 RMK T03000150 IEM_DS3505
ZHHH,2001-09-24 05:00,ZHHH 240500Z AUTO 04016KT 6SM 31/15 A2994 RMK T03100150 IEM_DS3505
ZHHH,2001-09-24 06:00,ZHHH 240600Z AUTO 02006KT 12SM 31/14 A2994 RMK SLP135 T03100142 57021 IEM_DS3505
ZHHH,2001-09-24 07:00,ZHHH 240700Z AUTO 03012KT 6SM 31/16 A2991 RMK T03100160 IEM_DS3505
ZHHH,2001-09-24 08:00,ZHHH 240800Z AUTO 04014KT 6SM 30/16 A2991 RMK T03000160 IEM_DS3505
ZHHH,2001-09-24 09:00,ZHHH 240900Z AUTO 02006KT 12SM 30/15 A2991 RMK SLP131 T02970146 57004 IEM_DS3505
ZHHH,2001-09-24 10:00,ZHHH 241000Z AUTO 02014KT 6SM 27/17 A2994 RMK T02700170 IEM_DS3505
ZHHH,2001-09-24 11:00,ZHHH 241100Z AUTO 02012KT 25/17 A2994 RMK T02500170 IEM_DS3505
ZHHH,2001-09-24 12:00,ZHHH 241200Z AUTO 36006KT 11SM 25/17 A3000 RMK SLP155 T02490166 52024 IEM_DS3505
ZHHH,2001-09-24 13:00,ZHHH 241300Z AUTO 02010KT 23/17 A3000 RMK T02300170 IEM_DS3505
ZHHH,2001-09-24 14:00,ZHHH 241400Z AUTO 01010KT 4SM 23/18 A3003 RMK T02300180 IEM_DS3505
ZHHH,2001-09-24 15:00,ZHHH 241500Z AUTO 36004KT 9SM 23/18 A3003 RMK SLP165 T02320175 52010 IEM_DS3505
ZHHH,2001-09-24 16:00,ZHHH 241600Z AUTO 04010KT 6SM 23/18 A3000 RMK T02300180 IEM_DS3505
ZHHH,2001-09-24 17:00,ZHHH 241700Z AUTO 03012KT 6SM 23/18 A3000 RMK T02300180 IEM_DS3505
ZHHH,2001-09-24 18:00,ZHHH 241800Z AUTO 02004KT 9SM 23/17 A3000 RMK SLP158 T02290169 57007 IEM_DS3505
ZHHH,2001-09-24 19:00,ZHHH 241900Z AUTO 03012KT 6SM 22/17 A3000 RMK T02200170 IEM_DS3505
ZHHH,2001-09-24 21:00,ZHHH 242100Z AUTO 04004KT 9SM 22/17 A3000 RMK SLP161 T02200170 52003 IEM_DS3505
ZHHH,2001-09-24 22:00,ZHHH 242200Z AUTO 03010KT 6SM 21/17 A3000 RMK T02100170 IEM_DS3505
ZHHH,2001-09-25 00:00,ZHHH 250000Z AUTO 04004KT 7SM 22/17 A3006 RMK SLP176 T02150169 52015 IEM_DS3505
ZHHH,2001-09-25 01:00,ZHHH 250100Z AUTO 03010KT 2SM 22/18 A3006 RMK T02200180 IEM_DS3505
ZHHH,2001-09-25 02:00,ZHHH 250200Z AUTO 04016KT 2 1/2SM 23/18 A3006 RMK T02300180 IEM_DS3505
ZHHH,2001-09-25 03:00,ZHHH 250300Z AUTO 04008KT 9SM 25/17 A3006 RMK SLP178 T02530168 52002 IEM_DS3505
ZHHH,2001-09-25 04:00,ZHHH 250400Z AUTO 05012KT 6SM 27/17 A3003 RMK T02700170 IEM_DS3505
ZHHH,2001-09-25 05:00,ZHHH 250500Z AUTO 05014KT 6SM 27/17 A3000 RMK T02700170 IEM_DS3505
ZHHH,2001-09-25 06:00,ZHHH 250600Z AUTO 02008KT 9SM 27/16 A2997 RMK SLP152 T02720160 57026 IEM_DS3505
ZHHH,2001-09-25 07:00,ZHHH 250700Z AUTO 06014KT 6SM 28/14 A2994 RMK T02800140 IEM_DS3505
ZHHH,2001-09-25 08:00,ZHHH 250800Z AUTO 03014KT 6SM 29/13 A2994 RMK T02900130 IEM_DS3505
ZHHH,2001-09-25 09:00,ZHHH 250900Z AUTO 04004KT 11SM 28/12 A2994 RMK SLP141 T02790121 57011 IEM_DS3505
ZHHH,2001-09-25 10:00,ZHHH 251000Z AUTO 04012KT 6SM 26/14 A2994 RMK T02600140 IEM_DS3505
ZHHH,2001-09-25 11:00,ZHHH 251100Z AUTO 04008KT 6SM 24/13 A2997 RMK T02400130 IEM_DS3505
ZHHH,2001-09-25 12:00,ZHHH 251200Z AUTO 36006KT 11SM 24/11 A2997 RMK SLP151 T02420112 52010 IEM_DS3505
ZHHH,2001-09-25 13:00,ZHHH 251300Z AUTO 02006KT 6SM 22/11 A3000 RMK T02200110 IEM_DS3505
ZHHH,2001-09-25 14:00,ZHHH 251400Z AUTO 02004KT 6SM 22/11 A3000 RMK T02200110 IEM_DS3505
ZHHH,2001-09-25 15:00,ZHHH 251500Z AUTO 34004KT 9SM 22/11 A2997 RMK SLP155 T02210114 52004 IEM_DS3505
ZHHH,2001-09-25 16:00,ZHHH 251600Z AUTO 04006KT 6SM 20/10 A2997 RMK T02000100 IEM_DS3505
ZHHH,2001-09-25 17:00,ZHHH 251700Z AUTO 04006KT 6SM 20/10 A2997 RMK T02000100 IEM_DS3505
ZHHH,2001-09-25 18:00,ZHHH 251800Z AUTO 02002KT 9SM 21/11 A2994 RMK SLP144 T02080109 57011 IEM_DS3505
ZHHH,2001-09-25 19:00,ZHHH 251900Z AUTO 04006KT 6SM 20/11 A2994 RMK T02000110 IEM_DS3505
ZHHH,2001-09-25 20:00,ZHHH 252000Z AUTO 6SM 20/11 A2994 RMK T02000110 IEM_DS3505
ZHHH,2001-09-25 21:00,ZHHH 252100Z AUTO 32002KT 11SM 20/13 A2994 RMK SLP143 T01950134 57001 IEM_DS3505
ZHHH,2001-09-25 22:00,ZHHH 252200Z AUTO 35004KT 6SM 19/14 A2997 RMK T01900140 IEM_DS3505
ZHHH,2001-09-25 23:00,ZHHH 252300Z AUTO 35002KT 6SM 19/14 A2997 RMK T01900140 IEM_DS3505
ZHHH,2001-09-26 00:00,ZHHH 260000Z AUTO 27002KT 9SM 20/14 A3000 RMK SLP158 T02020136 52015 IEM_DS3505
ZHHH,2001-09-26 01:00,ZHHH 260100Z AUTO 6SM 22/14 A3000 RMK T02200140 IEM_DS3505
ZHHH,2001-09-26 02:00,ZHHH 260200Z AUTO 6SM 24/14 A3000 RMK T02400140 IEM_DS3505
ZHHH,2001-09-26 03:00,ZHHH 260300Z AUTO 04002KT 11SM 25/14 A2997 RMK SLP152 T02470137 57006 IEM_DS3505
ZHHH,2001-09-26 04:00,ZHHH 260400Z AUTO 30006KT 6SM 27/15 A2994 RMK T02700150 IEM_DS3505
ZHHH,2001-09-26 05:00,ZHHH 260500Z AUTO 29006KT 7SM 28/15 A2991 RMK T02800150 IEM_DS3505
ZHHH,2001-09-26 06:00,ZHHH 260600Z AUTO 36004KT 11SM 27/14 A2988 RMK SLP122 T02720135 57030 IEM_DS3505
ZHHH,2001-09-26 07:00,ZHHH 260700Z AUTO 27006KT 7SM 28/15 A2985 RMK T02800150 IEM_DS3505
ZHHH,2001-09-26 08:00,ZHHH 260800Z AUTO 7SM 28/15 A2985 RMK T02800150 IEM_DS3505
ZHHH,2001-09-26 09:00,ZHHH 260900Z AUTO 36004KT 11SM 28/13 A2985 RMK SLP111 T02770132 57011 IEM_DS3505
ZHHH,2001-09-26 10:00,ZHHH 261000Z AUTO 6SM 27/15 A2985 RMK T02700150 IEM_DS3505
ZHHH,2001-09-26 11:00,ZHHH 261100Z AUTO 6SM 26/15 A2988 RMK T02600150 IEM_DS3505
ZHHH,2001-09-26 12:00,ZHHH 261200Z AUTO 34002KT 9SM 26/15 A2988 RMK SLP124 T02580151 52013 IEM_DS3505
ZHHH,2001-09-26 13:00,ZHHH 261300Z AUTO 03006KT 6SM 24/15 A2991 RMK T02400150 IEM_DS3505
ZHHH,2001-09-26 14:00,ZHHH 261400Z AUTO 03006KT 6SM 23/15 RMK T02300150 IEM_DS3505
ZHHH,2001-09-26 15:00,ZHHH 261500Z AUTO 04004KT 9SM 24/14 A2991 RMK SLP134 T02350143 52010 IEM_DS3505
ZHHH,2001-09-26 16:00,ZHHH 261600Z AUTO 05006KT 6SM 22/14 A2991 RMK T02200140 IEM_DS3505
ZHHH,2001-09-26 17:00,ZHHH 261700Z AUTO 6SM 22/13 A2991 RMK T02200130 IEM_DS3505
ZHHH,2001-09-26 18:00,ZHHH 261800Z AUTO 04002KT 9SM 22/14 A2991 RMK SLP135 T02170142 52001 IEM_DS3505
ZHHH,2001-09-26 19:00,ZHHH 261900Z AUTO 03004KT 6SM 20/13 A2991 RMK T02000130 IEM_DS3505
ZHHH,2001-09-26 20:00,ZHHH 262000Z AUTO 02004KT 6SM 19/13 A2991 RMK T01900130 IEM_DS3505
ZHHH,2001-09-26 21:00,ZHHH 262100Z AUTO 04002KT 9SM 20/14 A2994 RMK SLP141 T02040145 52006 IEM_DS3505
ZHHH,2001-09-26 22:00,ZHHH 262200Z AUTO 6SM 18/13 A2997 RMK T01800130 IEM_DS3505
ZHHH,2001-09-26 23:00,ZHHH 262300Z AUTO 6SM 18/13 A2997 RMK T01800130 IEM_DS3505
ZHHH,2001-09-27 00:00,ZHHH 270000Z AUTO 02002KT 12SM 20/13 A3000 RMK SLP160 T02050129 52019 IEM_DS3505
ZHHH,2001-09-27 01:00,ZHHH 270100Z AUTO 02008KT 6SM 24/12 A3000 RMK T02400120 IEM_DS3505
ZHHH,2001-09-27 02:00,ZHHH 270200Z AUTO 04010KT 6SM 26/12 A3000 RMK T02600120 IEM_DS3505
ZHHH,2001-09-27 03:00,ZHHH 270300Z AUTO 04008KT 12SM 27/11 A3000 RMK SLP163 T02680108 52003 IEM_DS3505
ZHHH,2001-09-27 04:00,ZHHH 270400Z AUTO 06014KT 6SM 28/10 A2997 RMK T02800100 IEM_DS3505
ZHHH,2001-09-27 05:00,ZHHH 270500Z AUTO 05010KT 6SM 29/09 A2997 RMK T02900090 IEM_DS3505
ZHHH,2001-09-27 06:00,ZHHH 270600Z AUTO 07004KT 16SM 30/08 A2994 RMK SLP138 T02970081 57025 IEM_DS3505
ZHHH,2001-09-27 07:00,ZHHH 270700Z AUTO 02010KT 6SM 30/07 A2991 RMK T03000070 IEM_DS3505
ZHHH,2001-09-27 08:00,ZHHH 270800Z AUTO 03012KT 6SM 30/07 A2991 RMK T03000070 IEM_DS3505
ZHHH,2001-09-27 09:00,ZHHH 270900Z AUTO 02006KT 16SM 29/08 A2994 RMK SLP134 T02900079 57004 IEM_DS3505
ZHHH,2001-09-27 10:00,ZHHH 271000Z AUTO 03012KT 6SM 27/10 A2994 RMK T02700100 IEM_DS3505
ZHHH,2001-09-27 11:00,ZHHH 271100Z AUTO 03008KT 6SM 26/10 A2994 RMK T02600100 IEM_DS3505
ZHHH,2001-09-27 12:00,ZHHH 271200Z AUTO 04002KT 11SM 25/08 A2997 RMK SLP153 T02530078 52019 IEM_DS3505
ZHHH,2001-09-27 13:00,ZHHH 271300Z AUTO 05012KT 6SM 24/07 A3000 RMK T02400070 IEM_DS3505
ZHHH,2001-09-27 14:00,ZHHH 271400Z AUTO 05010KT 6SM 23/08 A3003 RMK T02300080 IEM_DS3505
ZHHH,2001-09-27 15:00,ZHHH 271500Z AUTO 04004KT 9SM 23/09 A3003 RMK SLP169 T02290089 52016 IEM_DS3505
ZHHH,2001-09-27 16:00,ZHHH 271600Z AUTO 04006KT 6SM 22/10 A3003 RMK T02200100 IEM_DS3505
ZHHH,2001-09-27 17:00,ZHHH 271700Z AUTO 04006KT 6SM 21/10 A3003 RMK T02100100 IEM_DS3505
ZHHH,2001-09-27 18:00,ZHHH 271800Z AUTO 04004KT 9SM 21/11 A3003 RMK SLP167 T02140107 57002 IEM_DS3505
ZHHH,2001-09-27 19:00,ZHHH 271900Z AUTO 04006KT 6SM 20/11 A3003 RMK T02000110 IEM_DS3505
ZHHH,2001-09-27 20:00,ZHHH 272000Z AUTO 04006KT 6SM 19/12 A3000 RMK T01900120 IEM_DS3505
ZHHH,2001-09-27 21:00,ZHHH 272100Z AUTO 04004KT 11SM 20/12 A3003 RMK SLP168 T01990124 52001 IEM_DS3505
ZHHH,2001-09-27 22:00,ZHHH 272200Z AUTO 04006KT 6SM 18/14 A3003 RMK T01800140 IEM_DS3505
ZHHH,2001-09-28 00:00,ZHHH 280000Z AUTO 04004KT 11SM 21/14 A3006 RMK SLP185 T02120145 52017 IEM_DS3505
ZHHH,2001-09-28 01:00,ZHHH 280100Z AUTO 04010KT 6SM 23/16 A3009 RMK T02300160 IEM_DS3505
ZHHH,2001-09-28 02:00,ZHHH 280200Z AUTO 05010KT 6SM 25/16 A3006 RMK T02500160 IEM_DS3505
ZHHH,2001-09-28 03:00,ZHHH 280300Z AUTO 07004KT 12SM 26/16 A3006 RMK SLP183 T02600156 57002 IEM_DS3505
ZHHH,2001-09-28 04:00,ZHHH 280400Z AUTO 12006KT 7SM 28/15 A3003 RMK T02800150 IEM_DS3505
ZHHH,2001-09-28 05:00,ZHHH 280500Z AUTO 07006KT 7SM 28/15 A3003 RMK T02800150 IEM_DS3505
ZHHH,2001-09-28 06:00,ZHHH 280600Z AUTO 07004KT 14SM 29/14 A3000 RMK SLP158 T02870136 57025 IEM_DS3505
ZHHH,2001-09-28 07:00,ZHHH 280700Z AUTO 01004KT 7SM 29/15 A2997 RMK T02900150 IEM_DS3505
ZHHH,2001-09-28 08:00,ZHHH 280800Z AUTO 06006KT 6SM 29/15 A2994 RMK T02900150 IEM_DS3505
ZHHH,2001-09-28 09:00,ZHHH 280900Z AUTO 00000KT 12SM 28/14 A2994 RMK SLP144 T02840137 57014 IEM_DS3505
ZHHH,2001-09-28 10:00,ZHHH 281000Z AUTO 6SM 28/15 A2994 RMK T02800150 IEM_DS3505
ZHHH,2001-09-28 11:00,ZHHH 281100Z AUTO 6SM 27/16 A2994 RMK T02700160 IEM_DS3505
ZHHH,2001-09-28 12:00,ZHHH 281200Z AUTO 29002KT 11SM 27/14 A2997 RMK SLP151 T02700144 52007 IEM_DS3505
ZHHH,2001-09-28 13:00,ZHHH 281300Z AUTO 04006KT 6SM 25/15 A3000 RMK T02500150 IEM_DS3505
ZHHH,2001-09-28 14:00,ZHHH 281400Z AUTO 05010KT 6SM 25/15 A3000 RMK T02500150 IEM_DS3505
ZHHH,2001-09-28 15:00,ZHHH 281500Z AUTO 04004KT 11SM 25/16 A3000 RMK SLP156 T02520156 52005 IEM_DS3505
ZHHH,2001-09-28 16:00,ZHHH 281600Z AUTO 07010KT 6SM 24/14 A3000 RMK T02400140 IEM_DS3505
ZHHH,2001-09-28 17:00,ZHHH 281700Z AUTO 07010KT 6SM 24/14 A3000 RMK T02400140 IEM_DS3505
ZHHH,2001-09-28 18:00,ZHHH 281800Z AUTO 00000KT 11SM 24/16 A2997 RMK SLP151 T02380165 57005 IEM_DS3505
ZHHH,2001-09-28 19:00,ZHHH 281900Z AUTO 08006KT 6SM 23/15 A2997 RMK T02300150 IEM_DS3505
ZHHH,2001-09-28 20:00,ZHHH 282000Z AUTO 07006KT 6SM 23/14 A2997 RMK T02300140 IEM_DS3505
ZHHH,2001-09-28 21:00,ZHHH 282100Z AUTO 07002KT 11SM 23/17 A2997 RMK SLP149 T02310168 57002 IEM_DS3505
ZHHH,2001-09-28 22:00,ZHHH 282200Z AUTO 05006KT 6SM 22/14 A2997 RMK T02200140 IEM_DS3505
ZHHH,2001-09-28 23:00,ZHHH 282300Z AUTO 04006KT 6SM 22/14 A2997 RMK T02200140 IEM_DS3505
ZHHH,2001-09-29 00:00,ZHHH 290000Z AUTO 02002KT 12SM 24/15 RMK SLP160 T02370150 52011 IEM_DS3505
ZHHH,2001-09-29 01:00,ZHHH 290100Z AUTO 6SM 24/15 A3000 RMK T02400150 IEM_DS3505
ZHHH,2001-09-29 02:00,ZHHH 290200Z AUTO 6SM 26/15 A3000 RMK T02600150 IEM_DS3505
ZHHH,2001-09-29 03:00,ZHHH 290300Z AUTO 27002KT 9SM 27/14 A3000 RMK SLP164 T02670135 52004 IEM_DS3505
ZHHH,2001-09-29 04:00,ZHHH 290400Z AUTO 28006KT 6SM 27/15 A3000 RMK T02700150 IEM_DS3505
ZHHH,2001-09-29 05:00,ZHHH 290500Z AUTO 27008KT 6SM 29/16 A2997 RMK T02900160 IEM_DS3505
ZHHH,2001-09-29 06:00,ZHHH 290600Z AUTO 32004KT 11SM 29/14 A2994 RMK SLP140 T02910141 57024 IEM_DS3505
ZHHH,2001-09-29 07:00,ZHHH 290700Z AUTO 31010KT 6SM 31/14 A2991 RMK T03100140 IEM_DS3505
ZHHH,2001-09-29 08:00,ZHHH 290800Z AUTO 34012KT 6SM 31/14 A2991 RMK T03100140 IEM_DS3505
ZHHH,2001-09-29 09:00,ZHHH 290900Z AUTO 29004KT 11SM 30/14 A2991 RMK SLP130 T02950139 57010 IEM_DS3505
ZHHH,2001-09-29 10:00,ZHHH 291000Z AUTO 03010KT 6SM 28/15 A2991 RMK T02800150 IEM_DS3505
ZHHH,2001-09-29 11:00,ZHHH 291100Z AUTO 03008KT 6SM 26/15 A2994 RMK T02600150 IEM_DS3505
ZHHH,2001-09-29 12:00,ZHHH 291200Z AUTO 36004KT 11SM 26/16 A2994 RMK SLP144 T02590163 52014 IEM_DS3505
ZHHH,2001-09-29 13:00,ZHHH 291300Z AUTO 02006KT 6SM 25/16 A2997 RMK T02500160 IEM_DS3505
ZHHH,2001-09-29 14:00,ZHHH 291400Z AUTO 02008KT 6SM 24/16 A2997 RMK T02400160 IEM_DS3505
ZHHH,2001-09-29 15:00,ZHHH 291500Z AUTO 36004KT 9SM 23/16 A2997 RMK SLP155 T02340161 52011 IEM_DS3505
ZHHH,2001-09-29 16:00,ZHHH 291600Z AUTO 02006KT 6SM 22/16 A3000 RMK T02200160 IEM_DS3505
ZHHH,2001-09-29 17:00,ZHHH 291700Z AUTO 35006KT 6SM 21/16 A3000 RMK T02100160 IEM_DS3505
ZHHH,2001-09-29 18:00,ZHHH 291800Z AUTO 36004KT 7SM 21/16 A3000 RMK SLP157 T02130160 52002 IEM_DS3505
ZHHH,2001-09-29 19:00,ZHHH 291900Z AUTO 6SM 21/16 A2997 RMK T02100160 IEM_DS3505
ZHHH,2001-09-29 20:00,ZHHH 292000Z AUTO 6SM 21/16 A2997 RMK T02100160 IEM_DS3505
ZHHH,2001-09-29 21:00,ZHHH 292100Z AUTO 32004KT 7SM 21/15 A2997 RMK SLP156 T02100152 57001 IEM_DS3505
ZHHH,2001-09-29 22:00,ZHHH 292200Z AUTO 36006KT 6SM 20/15 A3000 RMK T02000150 IEM_DS3505
ZHHH,2001-09-29 23:00,ZHHH 292300Z AUTO 1 1/2SM 19/16 A3000 RMK T01900160 IEM_DS3505
ZHHH,2001-09-30 00:00,ZHHH 300000Z AUTO 34006KT 12SM 21/15 RMK SLP170 T02090151 52014 IEM_DS3505
ZHHH,2001-09-30 01:00,ZHHH 300100Z AUTO 01006KT 2 1/2SM 22/15 A3003 RMK T02200150 IEM_DS3505
ZHHH,2001-09-30 02:00,ZHHH 300200Z AUTO 36008KT 6SM 24/14 A3003 RMK T02400140 IEM_DS3505
ZHHH,2001-09-30 03:00,ZHHH 300300Z AUTO 34004KT 12SM 25/14 A3003 RMK SLP175 T02490145 52005 IEM_DS3505
ZHHH,2001-09-30 04:00,ZHHH 300400Z AUTO 35006KT 7SM 26/14 A3000 RMK T02600140 IEM_DS3505
ZHHH,2001-09-30 06:00,ZHHH 300600Z AUTO 32006KT 11SM 28/13 A2997 RMK SLP148 T02790128 57027 IEM_DS3505
ZHHH,2001-09-30 07:00,ZHHH 300700Z AUTO 03008KT 7SM 27/13 A2994 RMK T02700130 IEM_DS3505
ZHHH,2001-09-30 08:00,ZHHH 300800Z AUTO 03008KT 7SM 27/13 A2994 RMK T02700130 IEM_DS3505
ZHHH,2001-09-30 09:00,ZHHH 300900Z AUTO 04004KT 11SM 27/12 A2994 RMK SLP144 T02740124 57004 IEM_DS3505
ZHHH,2001-09-30 10:00,ZHHH 301000Z AUTO 05008KT 7SM 26/13 A2997 RMK T02600130 IEM_DS3505
ZHHH,2001-09-30 11:00,ZHHH 301100Z AUTO 05008KT 6SM 24/12 A2997 RMK T02400120 IEM_DS3505
ZHHH,2001-09-30 12:00,ZHHH 301200Z AUTO 02004KT 11SM 24/11 A3000 RMK SLP161 T02450111 52017 IEM_DS3505
ZHHH,2001-09-30 13:00,ZHHH 301300Z AUTO 04008KT 6SM 23/11 A3003 RMK T02300110 IEM_DS3505
ZHHH,2001-09-30 14:00,ZHHH 301400Z AUTO 05008KT 6SM 22/10 A3003 RMK T02200100 IEM_DS3505
ZHHH,2001-09-30 15:00,ZHHH 301500Z AUTO 02002KT 11SM 22/10 RMK SLP175 T02230098 52014 IEM_DS3505
ZHHH,2001-09-30 17:00,ZHHH 301700Z AUTO 6SM 20/09 A3003 RMK T02000090 IEM_DS3505
ZHHH,2001-09-30 18:00,ZHHH 301800Z AUTO 02002KT 9SM 20/11 A3003 RMK SLP171 T02010112 57004 IEM_DS3505
ZHHH,2001-09-30 19:00,ZHHH 301900Z AUTO 6SM 18/10 A3003 RMK T01800100 IEM_DS3505
ZHHH,2001-09-30 20:00,ZHHH 302000Z AUTO 6SM 18/09 A3003 RMK T01800090 IEM_DS3505
ZHHH,2001-09-30 21:00,ZHHH 302100Z AUTO 00000KT 9SM 18/11 A3006 RMK SLP176 T01830109 52005 IEM_DS3505
ZHHH,2001-09-30 22:00,ZHHH 302200Z AUTO 02006KT 6SM 17/09 A3006 RMK T01700090 IEM_DS3505
ZHHH,2001-09-30 23:00,ZHHH 302300Z AUTO 05006KT 6SM 18/08 A3006 RMK T01800080 IEM_DS3505
ZHHH,2001-10-01 00:00,ZHHH 010000Z AUTO 34004KT 11SM 20/13 A3009 RMK SLP190 T02010134 52014 IEM_DS3505
ZHHH,2001-10-01 01:00,ZHHH 010100Z AUTO 6SM 23/08 A3009 RMK T02300080 IEM_DS3505
ZHHH,2001-10-01 02:00,ZHHH 010200Z AUTO 6SM 25/07 A3012 RMK T02500070 IEM_DS3505
ZHHH,2001-10-01 03:00,ZHHH 010300Z AUTO 11004KT 12SM 26/07 A3009 RMK SLP193 T02620074 52003 IEM_DS3505
ZHHH,2001-10-01 04:00,ZHHH 010400Z AUTO 14008KT 6SM 27/07 A3006 RMK T02700070 IEM_DS3505
ZHHH,2001-10-01 05:00,ZHHH 010500Z AUTO 14010G21KT 6SM 28/04 A3003 RMK T02800040 IEM_DS3505
ZHHH,2001-10-01 06:00,ZHHH 010600Z AUTO 07004KT 12SM 29/04 A3003 RMK SLP168 T02870035 57025 IEM_DS3505
ZHHH,2001-10-01 07:00,ZHHH 010700Z AUTO 16008KT 6SM 28/03 A3000 RMK T02800030 IEM_DS3505
ZHHH,2001-10-01 08:00,ZHHH 010800Z AUTO 18006KT 6SM 29/04 A2997 RMK T02900040 IEM_DS3505
ZHHH,2001-10-01 09:00,ZHHH 010900Z AUTO 11002KT 11SM 28/02 A2997 RMK SLP153 T02800016 57015 IEM_DS3505
ZHHH,2001-10-01 10:00,ZHHH 011000Z AUTO 6SM 27/06 A2997 RMK T02700060 IEM_DS3505
ZHHH,2001-10-01 11:00,ZHHH 011100Z AUTO 22002KT 6SM 26/05 A3000 RMK T02600050 IEM_DS3505
ZHHH,2001-10-01 12:00,ZHHH 011200Z AUTO 00000KT 12SM 25/10 A3000 RMK SLP157 T02480102 52004 IEM_DS3505
ZHHH,2001-10-01 13:00,ZHHH 011300Z AUTO 6SM 25/10 A3000 RMK T02500100 IEM_DS3505
ZHHH,2001-10-01 14:00,ZHHH 011400Z AUTO 6SM 25/10 A3003 RMK T02500100 IEM_DS3505
ZHHH,2001-10-01 15:00,ZHHH 011500Z AUTO 09002KT 12SM 24/15 A3003 RMK SLP168 T02380152 52011 IEM_DS3505
ZHHH,2001-10-01 16:00,ZHHH 011600Z AUTO 09008KT 6SM 23/11 A3003 RMK T02300110 IEM_DS3505
ZHHH,2001-10-01 17:00,ZHHH 011700Z AUTO 11006KT 6SM 23/13 A3000 RMK T02300130 IEM_DS3505
ZHHH,2001-10-01 18:00,ZHHH 011800Z AUTO 11004KT 11SM 24/09 A3000 RMK SLP162 T02410086 57006 IEM_DS3505
ZHHH,2001-10-01 19:00,ZHHH 011900Z AUTO 10004KT 6SM 22/14 A3000 RMK T02200140 IEM_DS3505
ZHHH,2001-10-01 20:00,ZHHH 012000Z AUTO 10006KT 3SM 21/14 A3000 RMK T02100140 IEM_DS3505
ZHHH,2001-10-01 21:00,ZHHH 012100Z AUTO 11004KT 11SM 24/07 A3000 RMK SLP154 T02350073 57008 IEM_DS3505
ZHHH,2001-10-01 22:00,ZHHH 012200Z AUTO 11006KT 2 1/2SM 20/13 A3000 RMK T02000130 IEM_DS3505
ZHHH,2001-10-01 23:00,ZHHH 012300Z AUTO 11006KT 6SM 20/12 A3000 RMK T02000120 IEM_DS3505
ZHHH,2001-10-02 00:00,ZHHH 020000Z AUTO 00000KT 9SM 23/09 A3003 RMK SLP170 T02310086 52016 IEM_DS3505
ZHHH,2001-10-02 01:00,ZHHH 020100Z AUTO 13008KT 6SM 23/11 A3003 RMK T02300110 IEM_DS3505
ZHHH,2001-10-02 02:00,ZHHH 020200Z AUTO 12008KT 6SM 24/10 A3003 RMK T02400100 IEM_DS3505
ZHHH,2001-10-02 03:00,ZHHH 020300Z AUTO 16004KT 11SM 27/09 A3003 RMK SLP171 T02660089 52001 IEM_DS3505
ZHHH,2001-10-02 04:00,ZHHH 020400Z AUTO 14008KT 6SM 26/10 A3000 RMK T02600100 IEM_DS3505
ZHHH,2001-10-02 05:00,ZHHH 020500Z AUTO 15006KT 6SM 28/11 A2997 RMK T02800110 IEM_DS3505
ZHHH,2001-10-02 06:00,ZHHH 020600Z AUTO 22002KT 11SM 29/10 RMK SLP144 T02900098 57027 IEM_DS3505
ZHHH,2001-10-02 07:00,ZHHH 020700Z AUTO 6SM 28/10 A2994 RMK T02800100 IEM_DS3505
ZHHH,2001-10-02 08:00,ZHHH 020800Z AUTO 12006KT 6SM 28/10 A2991 RMK T02800100 IEM_DS3505
ZHHH,2001-10-02 09:00,ZHHH 020900Z AUTO 02004KT 9SM 28/10 A2994 RMK SLP135 T02780097 57009 IEM_DS3505
ZHHH,2001-10-02 10:00,ZHHH 021000Z AUTO 09006KT 6SM 27/10 A2994 RMK T02700100 IEM_DS3505
ZHHH,2001-10-02 11:00,ZHHH 021100Z AUTO 05012KT 6SM 25/10 A2994 RMK T02500100 IEM_DS3505
ZHHH,2001-10-02 12:00,ZHHH 021200Z AUTO 02004KT 9SM 24/09 A2997 RMK SLP150 T02420094 52015 IEM_DS3505
ZHHH,2001-10-02 13:00,ZHHH 021300Z AUTO 02008KT 23/10 A2997 RMK T02300100 IEM_DS3505
ZHHH,2001-10-02 14:00,ZHHH 021400Z AUTO 01008KT 22/11 A3000 RMK T02200110 IEM_DS3505
ZHHH,2001-10-02 15:00,ZHHH 021500Z AUTO 32006KT 7SM 21/12 A3006 RMK SLP176 T02090125 52026 IEM_DS3505
ZHHH,2001-10-02 16:00,ZHHH 021600Z AUTO 34014KT 4SM 18/15 A3006 RMK T01800150 IEM_DS3505
ZHHH,2001-10-02 17:00,ZHHH 021700Z AUTO 36012KT 3SM 17/16 A3003 RMK T01700160 IEM_DS3505
ZHHH,2001-10-02 18:00,ZHHH 021800Z AUTO 34006KT 9SM 18/15 A3003 RMK 60003 SLP178 T01810150 52002 IEM_DS3505
ZHHH,2001-10-02 19:00,ZHHH 021900Z AUTO 01006KT 7SM 17/16 A3003 RMK T01700160 IEM_DS3505
ZHHH,2001-10-02 20:00,ZHHH 022000Z AUTO 6SM 17/16 A3003 RMK T01700160 IEM_DS3505
ZHHH,2001-10-02 21:00,ZHHH 022100Z AUTO 36004KT 7SM 18/15 A3003 RMK 70003 SLP171 T01840149 57007 IEM_DS3505
ZHHH,2001-10-02 23:00,ZHHH 022300Z AUTO 34006KT 6SM 18/16 A3006 RMK T01800160 IEM_DS3505
ZHHH,2001-10-03 00:00,ZHHH 030000Z AUTO 27002KT 6SM 18/15 RMK 60003 SLP194 T01850148 52022 IEM_DS3505
ZHHH,2001-10-03 01:00,ZHHH 030100Z AUTO 34008KT 2SM 18/16 A3012 RMK T01800160 IEM_DS3505
ZHHH,2001-10-03 03:00,ZHHH 030300Z AUTO 29002KT 6SM 19/15 A3012 RMK SLP201 T01860151 52007 IEM_DS3505
ZHHH,2001-10-03 04:00,ZHHH 030400Z AUTO 2 1/2SM 19/16 A3009 RMK T01900160 IEM_DS3505
ZHHH,2001-10-03 05:00,ZHHH 030500Z AUTO 2 1/2SM 20/16 A3009 RMK T02000160 IEM_DS3505
ZHHH,2001-10-03 06:00,ZHHH 030600Z AUTO 27002KT 9SM 21/15 A3006 RMK SLP184 T02140148 57017 IEM_DS3505
ZHHH,2001-10-03 07:00,ZHHH 030700Z AUTO 6SM 23/15 A3003 RMK T02300150 IEM_DS3505
ZHHH,2001-10-03 08:00,ZHHH 030800Z AUTO 6SM 23/14 A3003 RMK T02300140 IEM_DS3505
ZHHH,2001-10-03 09:00,ZHHH 030900Z AUTO 04002KT 11SM 23/12 A3003 RMK SLP175 T02260122 57009 IEM_DS3505
ZHHH,2001-10-03 10:00,ZHHH 031000Z AUTO 6SM 21/14 A3003 RMK T02100140 IEM_DS3505
ZHHH,2001-10-03 11:00,ZHHH 031100Z AUTO 6SM 20/15 A3006 RMK T02000150 IEM_DS3505
ZHHH,2001-10-03 12:00,ZHHH 031200Z AUTO 25002KT 9SM 20/17 A3006 RMK SLP187 T02010166 52012 IEM_DS3505
ZHHH,2001-10-03 13:00,ZHHH 031300Z AUTO 21006KT 2 1/2SM 19/17 A3009 RMK T01900170 IEM_DS3505
ZHHH,2001-10-03 14:00,ZHHH 031400Z AUTO 1 1/4SM 19/17 A3012 RMK T01900170 IEM_DS3505
ZHHH,2001-10-03 15:00,ZHHH 031500Z AUTO 25002KT 9SM 19/17 A3012 RMK SLP203 T01860170 52016 IEM_DS3505
ZHHH,2001-10-03 16:00,ZHHH 031600Z AUTO 27006KT 1SM 18/17 A3012 RMK T01800170 IEM_DS3505
ZHHH,2001-10-03 17:00,ZHHH 031700Z AUTO 29006KT 1SM 17/17 A3012 RMK T01700170 IEM_DS3505
ZHHH,2001-10-03 18:00,ZHHH 031800Z AUTO 27002KT 18/16 A3012 RMK SLP205 T01770164 52002 IEM_DS3505
ZHHH,2001-10-03 19:00,ZHHH 031900Z AUTO 3/8SM 16/16 A3012 RMK T01600160 IEM_DS3505
ZHHH,2001-10-03 20:00,ZHHH 032000Z AUTO 19002KT 3/8SM 16/16 A3012 RMK T01600160 IEM_DS3505
ZHHH,2001-10-03 21:00,ZHHH 032100Z AUTO 00000KT 17/16 A3012 RMK 70003 SLP205 T01680160 54000 IEM_DS3505
ZHHH,2001-10-03 22:00,ZHHH 032200Z AUTO 07006KT 3/8SM 15/14 A3015 RMK T01500140 IEM_DS3505
ZHHH,2001-10-03 23:00,ZHHH 032300Z AUTO 08006KT 1SM 15/14 A3015 RMK T01500140 IEM_DS3505
ZHHH,2001-10-04 00:00,ZHHH 040000Z AUTO 09002KT 3SM 18/15 A3018 RMK 70003 SLP219 T01770146 52014 IEM_DS3505
ZHHH,2001-10-04 01:00,ZHHH 040100Z AUTO 09008KT 2 1/2SM 18/12 A3018 RMK T01800120 IEM_DS3505
ZHHH,2001-10-04 02:00,ZHHH 040200Z AUTO 09008KT 2 1/2SM 20/12 A3018 RMK T02000120 IEM_DS3505
ZHHH,2001-10-04 03:00,ZHHH 040300Z AUTO 34002KT 7SM 22/14 A3018 RMK SLP223 T02180136 52004 IEM_DS3505
ZHHH,2001-10-04 04:00,ZHHH 040400Z AUTO 24/14 A3015 RMK T02400140 IEM_DS3505
ZHHH,2001-10-04 05:00,ZHHH 040500Z AUTO 30006KT 6SM 25/13 A3012 RMK T02500130 IEM_DS3505
ZHHH,2001-10-04 06:00,ZHHH 040600Z AUTO 16002KT 11SM 26/09 A3009 RMK SLP195 T02650093 57028 IEM_DS3505
ZHHH,2001-10-04 07:00,ZHHH 040700Z AUTO 25006KT 6SM 26/11 A3009 RMK T02600110 IEM_DS3505
ZHHH,2001-10-04 08:00,ZHHH 040800Z AUTO 23008KT 6SM 26/09 A3006 RMK T02600090 IEM_DS3505
ZHHH,2001-10-04 09:00,ZHHH 040900Z AUTO 09004KT 11SM 26/06 A3006 RMK SLP181 T02600063 57014 IEM_DS3505
ZHHH,2001-10-04 10:00,ZHHH 041000Z AUTO 18004KT 6SM 24/09 A3006 RMK T02400090 IEM_DS3505
ZHHH,2001-10-04 11:00,ZHHH 041100Z AUTO 6SM 23/09 A3006 RMK T02300090 IEM_DS3505
ZHHH,2001-10-04 12:00,ZHHH 041200Z AUTO 00000KT 11SM 22/09 A3006 RMK SLP182 T02200088 52001 IEM_DS3505
ZHHH,2001-10-04 13:00,ZHHH 041300Z AUTO 6SM 22/10 A3006 RMK T02200100 IEM_DS3505
ZHHH,2001-10-04 14:00,ZHHH 041400Z AUTO 6SM 20/11 A3009 RMK T02000110 IEM_DS3505
ZHHH,2001-10-04 15:00,ZHHH 041500Z AUTO 07002KT 11SM 20/11 A3012 RMK SLP198 T02010110 52016 IEM_DS3505
ZHHH,2001-10-04 16:00,ZHHH 041600Z AUTO 09008KT 6SM 18/11 A3012 RMK T01800110 IEM_DS3505
ZHHH,2001-10-04 17:00,ZHHH 041700Z AUTO 09010KT 6SM 18/12 A3009 RMK T01800120 IEM_DS3505
ZHHH,2001-10-04 18:00,ZHHH 041800Z AUTO 09002KT 9SM 19/13 A3009 RMK SLP190 T01920131 57007 IEM_DS3505
ZHHH,2001-10-04 19:00,ZHHH 041900Z AUTO 10010KT 6SM 17/14 A3006 RMK T01700140 IEM_DS3505
ZHHH,2001-10-04 20:00,ZHHH 042000Z AUTO 12008KT 6SM 17/14 A3006 RMK T01700140 IEM_DS3505
ZHHH,2001-10-04 21:00,ZHHH 042100Z AUTO 09004KT 9SM 19/11 A3006 RMK SLP181 T01920107 57009 IEM_DS3505
ZHHH,2001-10-04 22:00,ZHHH 042200Z AUTO 10008KT 3SM A3006 RMK IEM_DS3505
ZHHH,2001-10-04 23:00,ZHHH 042300Z AUTO 11008KT 3SM 15/13 A3006 RMK T01500130 IEM_DS3505
ZHHH,2001-10-05 00:00,ZHHH 050000Z AUTO 11004KT 11SM 21/08 A3009 RMK SLP192 T02070085 52010 IEM_DS3505
ZHHH,2001-10-05 01:00,ZHHH 050100Z AUTO 14010KT 3SM 20/12 A3012 RMK T02000120 IEM_DS3505
ZHHH,2001-10-05 02:00,ZHHH 050200Z AUTO 13010KT 11SM 22/12 A3012 RMK T02200120 IEM_DS3505
ZHHH,2001-10-05 03:00,ZHHH 050300Z AUTO 07004KT 11SM 24/09 A3009 RMK SLP193 T02450086 52002 IEM_DS3505
ZHHH,2001-10-05 04:00,ZHHH 050400Z AUTO 13010KT 24/12 A3006 RMK T02400120 IEM_DS3505
ZHHH,2001-10-05 05:00,ZHHH 050500Z AUTO 12010KT 5SM 24/10 A3003 RMK T02400100 IEM_DS3505
ZHHH,2001-10-05 06:00,ZHHH 050600Z AUTO 07002KT 11SM 26/09 A3000 RMK SLP161 T02580088 57032 IEM_DS3505
ZHHH,2001-10-05 07:00,ZHHH 050700Z AUTO 12010KT 6SM 25/09 A3000 RMK T02500090 IEM_DS3505
ZHHH,2001-10-05 08:00,ZHHH 050800Z AUTO 13010KT 6SM 25/10 A3000 RMK T02500100 IEM_DS3505
ZHHH,2001-10-05 09:00,ZHHH 050900Z AUTO 07002KT 11SM 25/10 A2997 RMK SLP153 T02490097 57008 IEM_DS3505
ZHHH,2001-10-05 10:00,ZHHH 051000Z AUTO 6SM 24/10 A3000 RMK T02400100 IEM_DS3505
ZHHH,2001-10-05 11:00,ZHHH 051100Z AUTO 23/11 A3000 RMK T02300110 IEM_DS3505
ZHHH,2001-10-05 12:00,ZHHH 051200Z AUTO 00000KT 11SM 23/10 A3003 RMK SLP165 T02290096 52012 IEM_DS3505
ZHHH,2001-10-05 13:00,ZHHH 051300Z AUTO 12006KT 2SM 22/12 A3003 RMK T02200120 IEM_DS3505
ZHHH,2001-10-05 14:00,ZHHH 051400Z AUTO 09006KT 2SM 21/12 A3003 RMK T02100120 IEM_DS3505
ZHHH,2001-10-05 15:00,ZHHH 051500Z AUTO 11004KT 9SM 23/10 A3003 RMK SLP166 T02290098 52001 IEM_DS3505
ZHHH,2001-10-05 16:00,ZHHH 051600Z AUTO 09006KT 2SM 21/13 A3000 RMK T02100130 IEM_DS3505
ZHHH,2001-10-05 17:00,ZHHH 051700Z AUTO 08008KT 2SM 20/14 A3000 RMK T02000140 IEM_DS3505
ZHHH,2001-10-05 18:00,ZHHH 051800Z AUTO 09002KT 9SM 22/12 A3000 RMK 60003 SLP160 T02170116 57006 IEM_DS3505
ZHHH,2001-10-05 19:00,ZHHH 051900Z AUTO 11008KT 2 1/2SM 20/14 A3000 RMK T02000140 IEM_DS3505
ZHHH,2001-10-05 20:00,ZHHH 052000Z AUTO 08008KT 2 1/2SM 19/13 A3000 RMK T01900130 IEM_DS3505
ZHHH,2001-10-05 21:00,ZHHH 052100Z AUTO 04004KT 11SM 20/14 A3000 RMK 70003 SLP163 T02040135 52003 IEM_DS3505
ZHHH,2001-10-05 22:00,ZHHH 052200Z AUTO 08010KT 2 1/2SM 19/11 A3000 RMK T01900110 IEM_DS3505
ZHHH,2001-10-05 23:00,ZHHH 052300Z AUTO 12006KT 2 1/2SM 19/12 A3000 RMK T01900120 IEM_DS3505
ZHHH,2001-10-06 00:00,ZHHH 060000Z AUTO 07002KT 8SM 20/13 A3003 RMK 60003 SLP169 T01990133 52005 IEM_DS3505
ZHHH,2001-10-06 01:00,ZHHH 060100Z AUTO 10008KT 2 1/2SM 19/12 A3003 RMK T01900120 IEM_DS3505
ZHHH,2001-10-06 02:00,ZHHH 060200Z AUTO 11008KT 2 1/2SM 20/13 A3003 RMK T02000130 IEM_DS3505
ZHHH,2001-10-06 03:00,ZHHH 060300Z AUTO 09004KT 9SM 22/13 A3003 RMK SLP165 T02180129 57003 IEM_DS3505
ZHHH,2001-10-06 04:00,ZHHH 060400Z AUTO 11010KT 3SM 22/13 A3000 RMK T02200130 IEM_DS3505
ZHHH,2001-10-06 05:00,ZHHH 060500Z AUTO 11010KT 3SM 22/14 A2997 RMK T02200140 IEM_DS3505
ZHHH,2001-10-06 06:00,ZHHH 060600Z AUTO 09004KT 9SM 22/14 A2994 RMK SLP141 T02210144 57024 IEM_DS3505
ZHHH,2001-10-06 07:00,ZHHH 060700Z AUTO 12012KT 2 1/2SM 20/16 A2994 RMK T02000160 IEM_DS3505
ZHHH,2001-10-06 08:00,ZHHH 060800Z AUTO 09010KT 2 1/2SM 19/18 A2994 RMK T01900180 IEM_DS3505
ZHHH,2001-10-06 09:00,ZHHH 060900Z AUTO 09002KT 9SM 19/18 A2994 RMK SLP140 T01900178 57002 IEM_DS3505
ZHHH,2001-10-06 10:00,ZHHH 061000Z AUTO 06010KT 1 1/2SM 18/18 A2994 RMK T01800180 IEM_DS3505
ZHHH,2001-10-06 11:00,ZHHH 061100Z AUTO 04012KT 1 1/4SM 16/15 A2994 RMK T01600150 IEM_DS3505
ZHHH,2001-10-06 12:00,ZHHH 061200Z AUTO 04006KT 6SM 16/15 A2997 RMK 60055 SLP148 T01610150 52008 IEM_DS3505
ZHHH,2001-10-06 13:00,ZHHH 061300Z AUTO 03008KT 1SM 15/15 A2997 RMK T01500150 IEM_DS3505
ZHHH,2001-10-06 14:00,ZHHH 061400Z AUTO 05008KT 1SM 15/15 A2997 RMK T01500150 IEM_DS3505
ZHHH,2001-10-06 15:00,ZHHH 061500Z AUTO 04004KT 6SM 16/16 A2994 RMK SLP147 T01640159 57001 IEM_DS3505
ZHHH,2001-10-06 16:00,ZHHH 061600Z AUTO 03006KT 1SM 16/16 A2994 RMK T01600160 IEM_DS3505
ZHHH,2001-10-06 17:00,ZHHH 061700Z AUTO 36006KT 1/2SM 16/16 A2994 RMK T01600160 IEM_DS3505
ZHHH,2001-10-06 18:00,ZHHH 061800Z AUTO 00000KT 5SM 17/16 A2994 RMK 60051 SLP140 T01670163 57007 IEM_DS3505
ZHHH,2001-10-06 19:00,ZHHH 061900Z AUTO 1SM 16/16 A2994 RMK T01600160 IEM_DS3505
ZHHH,2001-10-06 20:00,ZHHH 062000Z AUTO 36006KT 1SM 17/17 A2994 RMK T01700170 IEM_DS3505
ZHHH,2001-10-06 21:00,ZHHH 062100Z AUTO 34002KT 5SM 17/17 RMK 70145 SLP142 T01710168 52002 IEM_DS3505
ZHHH,2001-10-06 22:00,ZHHH 062200Z AUTO 35006KT 1SM 17/17 A2994 RMK T01700170 IEM_DS3505
ZHHH,2001-10-06 23:00,ZHHH 062300Z AUTO 35006KT 1SM 17/17 A2997 RMK T01700170 IEM_DS3505
ZHHH,2001-10-07 00:00,ZHHH 070000Z AUTO 34004KT 4SM 17/16 A2997 RMK 60051 SLP156 T01670163 52014 IEM_DS3505
ZHHH,2001-10-07 01:00,ZHHH 070100Z AUTO 35006KT 3/8SM 17/17 A3000 RMK T01700170 IEM_DS3505
ZHHH,2001-10-07 02:00,ZHHH 070200Z AUTO 33006KT 3/8SM 17/17 A3000 RMK T01700170 IEM_DS3505
ZHHH,2001-10-07 03:00,ZHHH 070300Z AUTO 27002KT 5SM 17/17 A3000 RMK SLP162 T01730166 52006 IEM_DS3505
ZHHH,2001-10-07 04:00,ZHHH 070400Z AUTO 35008KT 1SM 18/18 A2997 RMK T01800180 IEM_DS3505
ZHHH,2001-10-07 05:00,ZHHH 070500Z AUTO 35006KT 1SM 18/18 A2997 RMK T01800180 IEM_DS3505
ZHHH,2001-10-07 06:00,ZHHH 070600Z AUTO 29004KT 6SM 18/17 A2997 RMK 60016 SLP149 T01810169 57013 IEM_DS3505
ZHHH,2001-10-07 07:00,ZHHH 070700Z AUTO 35008KT 1SM 18/17 A2997 RMK T01800170 IEM_DS3505
ZHHH,2001-10-07 08:00,ZHHH 070800Z AUTO 02006KT 1 1/2SM 17/17 A2997 RMK T01700170 IEM_DS3505
ZHHH,2001-10-07 09:00,ZHHH 070900Z AUTO 29002KT 5SM 18/17 A2997 RMK SLP156 T01760170 52007 IEM_DS3505
ZHHH,2001-10-07 10:00,ZHHH 071000Z AUTO 36008KT 1SM 17/17 A3000 RMK T01700170 IEM_DS3505
ZHHH,2001-10-07 12:00,ZHHH 071200Z AUTO 34004KT 6SM 17/16 A3000 RMK 60020 SLP166 T01740165 52010 IEM_DS3505
ZHHH,2001-10-07 13:00,ZHHH 071300Z AUTO 35006KT 1 1/2SM 17/16 A3003 RMK T01700160 IEM_DS3505
ZHHH,2001-10-07 14:00,ZHHH 071400Z AUTO 36006KT 1 1/2SM 17/16 A3003 RMK T01700160 IEM_DS3505
ZHHH,2001-10-07 15:00,ZHHH 071500Z AUTO 29002KT 6SM 17/16 A3003 RMK SLP173 T01740162 52007 IEM_DS3505
ZHHH,2001-10-07 16:00,ZHHH 071600Z AUTO 36008KT 1 1/2SM 17/16 A3003 RMK T01700160 IEM_DS3505
ZHHH,2001-10-07 17:00,ZHHH 071700Z AUTO 36006KT 1 1/2SM 17/16 A3003 RMK T01700160 IEM_DS3505
ZHHH,2001-10-07 18:00,ZHHH 071800Z AUTO 34002KT 4SM 17/16 A3003 RMK 60002 SLP171 T01730159 57002 IEM_DS3505
ZHHH,2001-10-07 19:00,ZHHH 071900Z AUTO 35008KT 2SM 17/16 A3003 RMK T01700160 IEM_DS3505
ZHHH,2001-10-07 20:00,ZHHH 072000Z AUTO 35008KT 2SM 16/16 A3003 RMK T01600160 IEM_DS3505
ZHHH,2001-10-07 21:00,ZHHH 072100Z AUTO 32002KT 4SM 17/16 A3003 RMK 70050 SLP171 T01700156 54000 IEM_DS3505
ZHHH,2001-10-07 22:00,ZHHH 072200Z AUTO 1 1/2SM 16/16 A3003 RMK T01600160 IEM_DS3505
ZHHH,2001-10-07 23:00,ZHHH 072300Z AUTO 36006KT 1 1/4SM 16/16 A3003 RMK T01600160 IEM_DS3505
ZHHH,2001-10-08 00:00,ZHHH 080000Z AUTO 36004KT 7SM 17/16 A3006 RMK 70039 SLP180 T01730155 52009 IEM_DS3505
ZHHH,2001-10-08 01:00,ZHHH 080100Z AUTO 36008KT 1SM 18/16 A3009 RMK T01800160 IEM_DS3505
ZHHH,2001-10-08 02:00,ZHHH 080200Z AUTO 01008KT 1 1/2SM 19/16 A3009 RMK T01900160 IEM_DS3505
ZHHH,2001-10-08 03:00,ZHHH 080300Z AUTO 34006KT 7SM 20/16 A3009 RMK SLP187 T02000160 52007 IEM_DS3505
ZHHH,2001-10-08 04:00,ZHHH 080400Z AUTO 2 1/2SM 21/16 A3006 RMK T02100160 IEM_DS3505
ZHHH,2001-10-08 05:00,ZHHH 080500Z AUTO 36008KT 3SM 22/15 A3006 RMK T02200150 IEM_DS3505
ZHHH,2001-10-08 06:00,ZHHH 080600Z AUTO 34002KT 7SM 22/15 A3003 RMK SLP172 T02220151 57015 IEM_DS3505
ZHHH,2001-10-08 07:00,ZHHH 080700Z AUTO 35006KT 7SM 22/16 A3000 RMK T02200160 IEM_DS3505
ZHHH,2001-10-08 09:00,ZHHH 080900Z AUTO 32002KT 7SM 21/14 A3003 RMK SLP168 T02110143 57004 IEM_DS3505
ZHHH,2001-10-08 10:00,ZHHH 081000Z AUTO 34006KT 2 1/2SM 20/15 A3003 RMK T02000150 IEM_DS3505
ZHHH,2001-10-08 11:00,ZHHH 081100Z AUTO 2SM 19/16 A3003 RMK T01900160 IEM_DS3505
ZHHH,2001-10-08 12:00,ZHHH 081200Z AUTO 27002KT 7SM 19/15 A3006 RMK SLP181 T01920146 52013 IEM_DS3505
ZHHH,2001-10-08 13:00,ZHHH 081300Z AUTO 29004KT 1SM 18/16 A3006 RMK T01800160 IEM_DS3505
ZHHH,2001-10-08 14:00,ZHHH 081400Z AUTO 1SM 17/16 A3006 RMK T01700160 IEM_DS3505
ZHHH,2001-10-08 15:00,ZHHH 081500Z AUTO 25002KT 7SM 18/15 A3009 RMK SLP189 T01770147 52008 IEM_DS3505
ZHHH,2001-10-08 16:00,ZHHH 081600Z AUTO 1SM 17/15 A3006 RMK T01700150 IEM_DS3505
ZHHH,2001-10-08 17:00,ZHHH 081700Z AUTO 25004KT 1 1/4SM 16/15 A3006 RMK T01600150 IEM_DS3505
ZHHH,2001-10-08 18:00,ZHHH 081800Z AUTO 25002KT 7SM 17/14 A3006 RMK SLP178 T01680145 57011 IEM_DS3505
ZHHH,2001-10-08 19:00,ZHHH 081900Z AUTO 1 1/4SM 16/15 A3003 RMK T01600150 IEM_DS3505
ZHHH,2001-10-08 20:00,ZHHH 082000Z AUTO 1 1/4SM 15/15 A3003 RMK T01500150 IEM_DS3505
ZHHH,2001-10-08 21:00,ZHHH 082100Z AUTO 00000KT 7SM 16/15 A3003 RMK SLP176 T01580147 57002 IEM_DS3505
ZHHH,2001-10-08 22:00,ZHHH 082200Z AUTO 1SM 15/15 A3006 RMK T01500150 IEM_DS3505
ZHHH,2001-10-08 23:00,ZHHH 082300Z AUTO 1SM 15/15 A3006 RMK T01500150 IEM_DS3505
ZHHH,2001-10-09 00:00,ZHHH 090000Z AUTO 25002KT 9SM 17/15 A3009 RMK SLP190 T01690150 52014 IEM_DS3505
ZHHH,2001-10-09 01:00,ZHHH 090100Z AUTO 26006KT 1SM 18/16 A3009 RMK T01800160 IEM_DS3505
ZHHH,2001-10-09 02:00,ZHHH 090200Z AUTO 1SM 19/17 A3009 RMK T01900170 IEM_DS3505
ZHHH,2001-10-09 03:00,ZHHH 090300Z AUTO 25004KT 9SM 22/16 A3006 RMK SLP186 T02180162 57004 IEM_DS3505
ZHHH,2001-10-09 04:00,ZHHH 090400Z AUTO 28006KT 2 1/2SM 23/16 A3006 RMK T02300160 IEM_DS3505
ZHHH,2001-10-09 05:00,ZHHH 090500Z AUTO 25006KT 2 1/2SM 25/16 A3003 RMK T02500160 IEM_DS3505
ZHHH,2001-10-09 06:00,ZHHH 090600Z AUTO 25002KT 11SM 25/09 A3000 RMK SLP161 T02520090 57025 IEM_DS3505
ZHHH,2001-10-09 07:00,ZHHH 090700Z AUTO 6SM 26/10 A2997 RMK T02600100 IEM_DS3505
ZHHH,2001-10-09 08:00,ZHHH 090800Z AUTO 6SM 26/10 A2997 RMK T02600100 IEM_DS3505
ZHHH,2001-10-09 09:00,ZHHH 090900Z AUTO 25002KT 12SM 26/09 A2997 RMK SLP153 T02600086 57008 IEM_DS3505
ZHHH,2001-10-09 10:00,ZHHH 091000Z AUTO 20002KT 6SM 24/12 A2997 RMK T02400120 IEM_DS3505
ZHHH,2001-10-09 11:00,ZHHH 091100Z AUTO 21004KT 6SM 23/11 A2997 RMK T02300110 IEM_DS3505
ZHHH,2001-10-09 12:00,ZHHH 091200Z AUTO 18002KT 9SM 21/15 A3000 RMK SLP162 T02100151 IEM_DS3505
ZHHH,2001-10-09 13:00,ZHHH 091300Z AUTO 22006KT 6SM 21/16 A3000 RMK T02100160 IEM_DS3505
ZHHH,2001-10-09 14:00,ZHHH 091400Z AUTO 6SM 20/14 A3003 RMK T02000140 IEM_DS3505
ZHHH,2001-10-09 15:00,ZHHH 091500Z AUTO 00000KT 9SM 18/14 A3003 RMK SLP172 T01800138 52010 IEM_DS3505
ZHHH,2001-10-09 16:00,ZHHH 091600Z AUTO 08002KT 6SM 18/14 A3003 RMK T01800140 IEM_DS3505
ZHHH,2001-10-09 17:00,ZHHH 091700Z AUTO 6SM 18/14 A3003 RMK T01800140 IEM_DS3505
ZHHH,2001-10-09 18:00,ZHHH 091800Z AUTO 09002KT 8SM 17/15 A3003 RMK SLP174 T01720150 52002 IEM_DS3505
ZHHH,2001-10-09 19:00,ZHHH 091900Z AUTO 14004KT 2 1/2SM 17/15 A3003 RMK T01700150 IEM_DS3505
ZHHH,2001-10-09 20:00,ZHHH 092000Z AUTO 2SM 17/15 A3003 RMK T01700150 IEM_DS3505
ZHHH,2001-10-09 21:00,ZHHH 092100Z AUTO 00000KT 7SM 17/15 A3003 RMK SLP175 T01660147 52001 IEM_DS3505
ZHHH,2001-10-09 22:00,ZHHH 092200Z AUTO 08006KT 1SM 15/14 A3006 RMK T01500140 IEM_DS3505
ZHHH,2001-10-09 23:00,ZHHH 092300Z AUTO 09006KT 1SM 15/14 A3006 RMK T01500140 IEM_DS3505
ZHHH,2001-10-10 00:00,ZHHH 100000Z AUTO 07002KT 9SM 19/15 A3009 RMK SLP193 T01910149 52018 IEM_DS3505
ZHHH,2001-10-10 01:00,ZHHH 100100Z AUTO 09006KT 1SM 18/16 A3012 RMK T01800160 IEM_DS3505
ZHHH,2001-10-10 02:00,ZHHH 100200Z AUTO 1 1/2SM 21/15 A3012 RMK T02100150 IEM_DS3505
ZHHH,2001-10-10 03:00,ZHHH 100300Z AUTO 07004KT 8SM 24/12 A3012 RMK SLP196 T02440120 52003 IEM_DS3505
ZHHH,2001-10-10 04:00,ZHHH 100400Z AUTO 13004KT 6SM 25/14 A3009 RMK T02500140 IEM_DS3505
ZHHH,2001-10-10 05:00,ZHHH 100500Z AUTO 6SM 26/14 A3006 RMK T02600140 IEM_DS3505
ZHHH,2001-10-10 06:00,ZHHH 100600Z AUTO 02002KT 9SM 26/12 A3003 RMK SLP170 T02640120 57025 IEM_DS3505
ZHHH,2001-10-10 07:00,ZHHH 100700Z AUTO 14006KT 6SM 27/12 A3003 RMK T02700120 IEM_DS3505
ZHHH,2001-10-10 08:00,ZHHH 100800Z AUTO 14006KT 6SM 27/11 A3000 RMK T02700110 IEM_DS3505
ZHHH,2001-10-10 09:00,ZHHH 100900Z AUTO 07002KT 11SM 26/11 A3000 RMK SLP163 T02620110 57007 IEM_DS3505
ZHHH,2001-10-10 10:00,ZHHH 101000Z AUTO 6SM 25/12 A3000 RMK T02500120 IEM_DS3505
ZHHH,2001-10-10 11:00,ZHHH 101100Z AUTO 6SM 23/14 A3000 RMK T02300140 IEM_DS3505
ZHHH,2001-10-10 12:00,ZHHH 101200Z AUTO 00000KT 9SM 20/15 A3003 RMK SLP170 T02000147 52006 IEM_DS3505
ZHHH,2001-10-10 13:00,ZHHH 101300Z AUTO 6SM 22/11 A3006 RMK T02200110 IEM_DS3505
ZHHH,2001-10-10 15:00,ZHHH 101500Z AUTO 07002KT 9SM 20/15 A3006 RMK SLP185 T01950149 52015 IEM_DS3505
ZHHH,2001-10-10 16:00,ZHHH 101600Z AUTO 08008KT 19/13 A3009 RMK T01900130 IEM_DS3505
ZHHH,2001-10-10 17:00,ZHHH 101700Z AUTO 09010KT 4SM 18/13 A3006 RMK T01800130 IEM_DS3505
ZHHH,2001-10-10 18:00,ZHHH 101800Z AUTO 07002KT 9SM 19/14 A3006 RMK SLP182 T01890136 57002 IEM_DS3505
ZHHH,2001-10-10 19:00,ZHHH 101900Z AUTO 09010KT 6SM 17/11 A3006 RMK T01700110 IEM_DS3505
ZHHH,2001-10-10 20:00,ZHHH 102000Z AUTO 10008KT 6SM 17/10 A3006 RMK T01700100 IEM_DS3505
ZHHH,2001-10-10 21:00,ZHHH 102100Z AUTO 00000KT 9SM 17/14 A3006 RMK SLP186 T01720142 52003 IEM_DS3505
ZHHH,2001-10-10 22:00,ZHHH 102200Z AUTO 11006KT 6SM 16/11 A3009 RMK T01600110 IEM_DS3505
ZHHH,2001-10-10 23:00,ZHHH 102300Z AUTO 10010KT 6SM 15/11 A3009 RMK T01500110 IEM_DS3505
ZHHH,2001-10-11 00:00,ZHHH 110000Z AUTO 04002KT 9SM 19/13 A3012 RMK SLP199 T01880133 52013 IEM_DS3505
ZHHH,2001-10-11 01:00,ZHHH 110100Z AUTO 10008KT 6SM 20/11 A3012 RMK T02000110 IEM_DS3505
ZHHH,2001-10-11 02:00,ZHHH 110200Z AUTO 11010KT 6SM 22/11 A3012 RMK T02200110 IEM_DS3505
ZHHH,2001-10-11 03:00,ZHHH 110300Z AUTO 09006KT 12SM 25/10 A3012 RMK SLP200 T02480096 52001 IEM_DS3505
ZHHH,2001-10-11 04:00,ZHHH 110400Z AUTO 11008KT 6SM 25/13 A3009 RMK T02500130 IEM_DS3505
ZHHH,2001-10-11 05:00,ZHHH 110500Z AUTO 12008KT 6SM 26/13 A3006 RMK T02600130 IEM_DS3505
ZHHH,2001-10-11 06:00,ZHHH 110600Z AUTO 09006KT 16SM 28/07 A3003 RMK SLP170 T02780073 57029 IEM_DS3505
ZHHH,2001-10-11 07:00,ZHHH 110700Z AUTO 14010KT 6SM 27/09 A3000 RMK T02700090 IEM_DS3505
ZHHH,2001-10-11 08:00,ZHHH 110800Z AUTO 13008KT 6SM 27/11 A3003 RMK T02700110 IEM_DS3505
ZHHH,2001-10-11 09:00,ZHHH 110900Z AUTO 09004KT 16SM 27/09 A3000 RMK SLP163 T02670090 57007 IEM_DS3505
ZHHH,2001-10-11 10:00,ZHHH 111000Z AUTO 12006KT 6SM 25/11 A3000 RMK T02500110 IEM_DS3505
ZHHH,2001-10-11 11:00,ZHHH 111100Z AUTO 13004KT 6SM 25/11 A3003 RMK T02500110 IEM_DS3505
ZHHH,2001-10-11 12:00,ZHHH 111200Z AUTO 00000KT 11SM 24/11 A3003 RMK SLP174 T02350107 52010 IEM_DS3505
ZHHH,2001-10-11 13:00,ZHHH 111300Z AUTO 13006KT 6SM 23/13 A3006 RMK T02300130 IEM_DS3505
ZHHH,2001-10-11 14:00,ZHHH 111400Z AUTO 10010KT 6SM 22/12 A3003 RMK T02200120 IEM_DS3505
ZHHH,2001-10-11 15:00,ZHHH 111500Z AUTO 00000KT 9SM 23/10 A3003 RMK SLP176 T02320095 52003 IEM_DS3505
ZHHH,2001-10-11 16:00,ZHHH 111600Z AUTO 23002KT 3SM 21/13 A3006 RMK T02100130 IEM_DS3505
ZHHH,2001-10-11 17:00,ZHHH 111700Z AUTO 2 1/2SM 21/15 A3006 RMK T02100150 IEM_DS3505
ZHHH,2001-10-11 18:00,ZHHH 111800Z AUTO 09002KT 9SM 22/12 A3006 RMK SLP177 T02180115 IEM_DS3505
ZHHH,2001-10-11 19:00,ZHHH 111900Z AUTO 06008KT 2 1/2SM 20/15 A3006 RMK T02000150 IEM_DS3505
ZHHH,2001-10-11 20:00,ZHHH 112000Z AUTO 07008KT 2 1/2SM 20/15 A3006 RMK T02000150 IEM_DS3505
ZHHH,2001-10-11 21:00,ZHHH 112100Z AUTO 09002KT 7SM 20/14 A3003 RMK 70003 SLP170 T02050141 57007 IEM_DS3505
ZHHH,2001-10-11 22:00,ZHHH 112200Z AUTO 06008KT 6SM 19/12 A3006 RMK T01900120 IEM_DS3505
ZHHH,2001-10-11 23:00,ZHHH 112300Z AUTO 6SM 19/11 A3009 RMK T01900110 IEM_DS3505
ZHHH,2001-10-12 00:00,ZHHH 120000Z AUTO 00000KT 9SM 20/13 RMK 60003 SLP191 T02050130 52020 IEM_DS3505
ZHHH,2001-10-12 01:00,ZHHH 120100Z AUTO 20/12 A3012 RMK T02000120 IEM_DS3505
ZHHH,2001-10-12 02:00,ZHHH 120200Z AUTO 09012KT 6SM 22/12 A3009 RMK T02200120 IEM_DS3505
ZHHH,2001-10-12 03:00,ZHHH 120300Z AUTO 00000KT 9SM 22/15 A3009 RMK SLP192 T02170151 52002 IEM_DS3505
ZHHH,2001-10-12 04:00,ZHHH 120400Z AUTO 12006KT 6SM 24/13 A3006 RMK T02400130 IEM_DS3505
ZHHH,2001-10-12 05:00,ZHHH 120500Z AUTO 12006KT 6SM 25/13 A3003 RMK T02500130 IEM_DS3505
ZHHH,2001-10-12 06:00,ZHHH 120600Z AUTO 11008KT 6SM 26/13 A3000 RMK T02600130 IEM_DS3505
ZHHH,2001-10-12 07:00,ZHHH 120700Z AUTO 12006KT 6SM 26/14 A3000 RMK T02600140 IEM_DS3505
ZHHH,2001-10-12 08:00,ZHHH 120800Z AUTO 12006KT 6SM 26/14 A3000 RMK T02600140 IEM_DS3505
ZHHH,2001-10-12 09:00,ZHHH 120900Z AUTO 07002KT 9SM 25/15 A3000 RMK SLP155 T02510150 57008 IEM_DS3505
ZHHH,2001-10-12 10:00,ZHHH 121000Z AUTO 07006KT 6SM 25/14 A2997 RMK T02500140 IEM_DS3505
ZHHH,2001-10-12 11:00,ZHHH 121100Z AUTO 05006KT 6SM 24/15 A3000 RMK T02400150 IEM_DS3505
ZHHH,2001-10-12 12:00,ZHHH 121200Z AUTO 00000KT 9SM 23/16 A3000 RMK 60003 SLP163 T02340160 52008 IEM_DS3505
ZHHH,2001-10-12 13:00,ZHHH 121300Z AUTO 6SM 23/14 A3003 RMK T02300140 IEM_DS3505
ZHHH,2001-10-12 14:00,ZHHH 121400Z AUTO 06006KT 6SM 23/15 A3003 RMK T02300150 IEM_DS3505
ZHHH,2001-10-12 15:00,ZHHH 121500Z AUTO 07002KT 9SM 22/16 A3003 RMK SLP171 T02250156 52008 IEM_DS3505
ZHHH,2001-10-12 16:00,ZHHH 121600Z AUTO 07008KT 6SM 22/14 A3003 RMK T02200140 IEM_DS3505
ZHHH,2001-10-12 17:00,ZHHH 121700Z AUTO 6SM 22/14 A3003 RMK T02200140 IEM_DS3505
ZHHH,2001-10-12 18:00,ZHHH 121800Z AUTO 02004KT 6SM 22/15 A3003 RMK 60003 SLP166 T02160148 57005 IEM_DS3505
ZHHH,2001-10-12 19:00,ZHHH 121900Z AUTO 04006KT 6SM 20/15 A3003 RMK T02000150 IEM_DS3505
ZHHH,2001-10-12 20:00,ZHHH 122000Z AUTO 06008KT 6SM 19/15 A3000 RMK T01900150 IEM_DS3505
ZHHH,2001-10-12 21:00,ZHHH 122100Z AUTO 02004KT 6SM 19/15 A3000 RMK 70002 SLP160 T01930152 57006 IEM_DS3505
ZHHH,2001-10-12 22:00,ZHHH 122200Z AUTO 02006KT 7SM 18/16 A3000 RMK T01800160 IEM_DS3505
ZHHH,2001-10-12 23:00,ZHHH 122300Z AUTO 6SM 18/16 A3003 RMK T01800160 IEM_DS3505
ZHHH,2001-10-13 00:00,ZHHH 130000Z AUTO 04002KT 9SM 19/15 A3006 RMK 60002 SLP177 T01930153 52016 IEM_DS3505
ZHHH,2001-10-13 01:00,ZHHH 130100Z AUTO 02008KT 2 1/2SM 18/16 A3006 RMK T01800160 IEM_DS3505
ZHHH,2001-10-13 02:00,ZHHH 130200Z AUTO 02006KT 1 1/2SM 18/17 A3006 RMK T01800170 IEM_DS3505
ZHHH,2001-10-13 03:00,ZHHH 130300Z AUTO 04004KT 9SM 20/16 A3006 RMK SLP183 T01950160 52006 IEM_DS3505
ZHHH,2001-10-13 04:00,ZHHH 130400Z AUTO 08008KT 2SM 18/16 A3003 RMK T01800160 IEM_DS3505
ZHHH,2001-10-13 05:00,ZHHH 130500Z AUTO 08010KT 4SM 20/16 A3000 RMK T02000160 IEM_DS3505
ZHHH,2001-10-13 06:00,ZHHH 130600Z AUTO 04002KT 9SM 20/16 A3000 RMK 60002 SLP157 T02040156 57026 IEM_DS3505
ZHHH,2001-10-13 07:00,ZHHH 130700Z AUTO 04006KT 6SM 21/16 A2997 RMK T02100160 IEM_DS3505
ZHHH,2001-10-13 08:00,ZHHH 130800Z AUTO 06008KT 6SM 20/17 A2997 RMK T02000170 IEM_DS3505
ZHHH,2001-10-13 09:00,ZHHH 130900Z AUTO 04002KT 9SM 21/16 A2997 RMK SLP148 T02100163 57009 IEM_DS3505
ZHHH,2001-10-13 10:00,ZHHH 131000Z AUTO 2 1/2SM 20/17 A2997 RMK T02000170 IEM_DS3505
ZHHH,2001-10-13 11:00,ZHHH 131100Z AUTO 2SM 20/18 A2997 RMK T02000180 IEM_DS3505
ZHHH,2001-10-13 12:00,ZHHH 131200Z AUTO 00000KT 6SM 20/17 A2997 RMK 60000 SLP155 T02020170 52007 IEM_DS3505
ZHHH,2001-10-13 13:00,ZHHH 131300Z AUTO 03008KT 1 1/2SM 20/17 A3000 RMK T02000170 IEM_DS3505
ZHHH,2001-10-13 14:00,ZHHH 131400Z AUTO 05006KT 1 1/2SM 19/17 A3000 RMK T01900170 IEM_DS3505
ZHHH,2001-10-13 15:00,ZHHH 131500Z AUTO 04004KT 6SM 20/16 A3000 RMK SLP161 T01960164 52006 IEM_DS3505
ZHHH,2001-10-13 16:00,ZHHH 131600Z AUTO 03006KT 2SM 19/16 A3000 RMK T01900160 IEM_DS3505
ZHHH,2001-10-13 17:00,ZHHH 131700Z AUTO 36002KT 2SM 19/16 A3000 RMK T01900160 IEM_DS3505
ZHHH,2001-10-13 18:00,ZHHH 131800Z AUTO 00000KT 6SM 19/16 A3000 RMK 60000 SLP164 T01890156 52003 IEM_DS3505
ZHHH,2001-10-13 19:00,ZHHH 131900Z AUTO 34006KT 2SM 18/16 A3000 RMK T01800160 IEM_DS3505
ZHHH,2001-10-13 20:00,ZHHH 132000Z AUTO 33008KT 1 1/2SM 17/16 A3000 RMK T01700160 IEM_DS3505
ZHHH,2001-10-13 21:00,ZHHH 132100Z AUTO 36006KT 7SM 16/15 A3000 RMK 70007 SLP158 T01640148 57006 IEM_DS3505
ZHHH,2001-10-13 22:00,ZHHH 132200Z AUTO 03012KT 1 1/2SM 16/15 A3000 RMK T01600150 IEM_DS3505
ZHHH,2001-10-13 23:00,ZHHH 132300Z AUTO 03010KT 4SM 16/15 A3003 RMK T01600150 IEM_DS3505
ZHHH,2001-10-14 00:00,ZHHH 140000Z AUTO 07002KT 7SM 17/14 A3003 RMK 60004 SLP170 T01660144 52012 IEM_DS3505
ZHHH,2001-10-14 01:00,ZHHH 140100Z AUTO 07010KT 1 1/2SM 16/15 A3003 RMK T01600150 IEM_DS3505
ZHHH,2001-10-14 02:00,ZHHH 140200Z AUTO 06006KT 1 1/2SM 17/16 A3003 RMK T01700160 IEM_DS3505
ZHHH,2001-10-14 03:00,ZHHH 140300Z AUTO 36004KT 9SM 18/15 A3003 RMK SLP173 T01800150 52003 IEM_DS3505
ZHHH,2001-10-14 04:00,ZHHH 140400Z AUTO 01006KT 2 1/2SM 18/16 A3000 RMK T01800160 IEM_DS3505
ZHHH,2001-10-14 05:00,ZHHH 140500Z AUTO 2SM 18/16 A3000 RMK T01800160 IEM_DS3505
ZHHH,2001-10-14 06:00,ZHHH 140600Z AUTO 36002KT 9SM 19/15 A2997 RMK 60003 SLP151 T01900154 57022 IEM_DS3505
ZHHH,2001-10-14 07:00,ZHHH 140700Z AUTO 36008KT 1 1/2SM 18/16 A2997 RMK T01800160 IEM_DS3505
ZHHH,2001-10-14 08:00,ZHHH 140800Z AUTO 02006KT 3SM 18/15 A2994 RMK T01800150 IEM_DS3505
ZHHH,2001-10-14 09:00,ZHHH 140900Z AUTO 36006KT 7SM 18/16 A2997 RMK SLP149 T01750156 57002 IEM_DS3505
ZHHH,2001-10-14 10:00,ZHHH 141000Z AUTO 02006KT 1 1/2SM 17/16 A2997 RMK T01700160 IEM_DS3505
ZHHH,2001-10-14 11:00,ZHHH 141100Z AUTO 01006KT 1 1/2SM 17/16 A2997 RMK T01700160 IEM_DS3505
ZHHH,2001-10-14 12:00,ZHHH 141200Z AUTO 29002KT 6SM 17/16 A3000 RMK 60003 SLP167 T01730163 52018 IEM_DS3505
ZHHH,2001-10-14 13:00,ZHHH 141300Z AUTO 36010KT 1SM 17/16 A3003 RMK T01700160 IEM_DS3505
ZHHH,2001-10-14 14:00,ZHHH 141400Z AUTO 36010KT 1SM 16/16 A3003 RMK T01600160 IEM_DS3505
ZHHH,2001-10-14 15:00,ZHHH 141500Z AUTO 34004KT 6SM 17/16 A3006 RMK SLP179 T01690163 52012 IEM_DS3505
ZHHH,2001-10-14 16:00,ZHHH 141600Z AUTO 1 1/4SM 17/17 A3006 RMK T01700170 IEM_DS3505
ZHHH,2001-10-14 17:00,ZHHH 141700Z AUTO 04006KT 1 1/2SM 16/16 A3006 RMK T01600160 IEM_DS3505
ZHHH,2001-10-14 18:00,ZHHH 141800Z AUTO 36002KT 6SM 17/16 A3006 RMK 60028 SLP181 T01690163 52002 IEM_DS3505
ZHHH,2001-10-14 19:00,ZHHH 141900Z AUTO 04008KT 7SM 16/16 A3006 RMK T01600160 IEM_DS3505
ZHHH,2001-10-14 20:00,ZHHH 142000Z AUTO 02006KT 7SM 16/15 A3006 RMK T01600150 IEM_DS3505
ZHHH,2001-10-14 21:00,ZHHH 142100Z AUTO 34002KT 6SM 16/16 A3006 RMK 70028 SLP188 T01640155 52007 IEM_DS3505
ZHHH,2001-10-14 22:00,ZHHH 142200Z AUTO 35006KT 2SM 16/16 A3009 RMK T01600160 IEM_DS3505
ZHHH,2001-10-14 23:00,ZHHH 142300Z AUTO 1 1/2SM 16/16 A3009 RMK T01600160 IEM_DS3505
ZHHH,2001-10-15 00:00,ZHHH 150000Z AUTO 32004KT 6SM 16/16 A3012 RMK 60000 SLP206 T01620155 52018 IEM_DS3505
ZHHH,2001-10-15 01:00,ZHHH 150100Z AUTO 35006KT 1 1/2SM 16/16 A3015 RMK T01600160 IEM_DS3505
ZHHH,2001-10-15 02:00,ZHHH 150200Z AUTO 4SM 17/16 A3015 RMK T01700160 IEM_DS3505
ZHHH,2001-10-15 03:00,ZHHH 150300Z AUTO 04002KT 6SM 18/16 A3015 RMK SLP209 T01820157 52003 IEM_DS3505
ZHHH,2001-10-15 04:00,ZHHH 150400Z AUTO 02008KT 4SM 18/16 A3012 RMK T01800160 IEM_DS3505
ZHHH,2001-10-15 05:00,ZHHH 150500Z AUTO 01006KT 4SM 19/16 A3012 RMK T01900160 IEM_DS3505
ZHHH,2001-10-15 06:00,ZHHH 150600Z AUTO 36004KT 6SM 19/16 A3009 RMK 60003 SLP193 T01890156 57016 IEM_DS3505
ZHHH,2001-10-15 07:00,ZHHH 150700Z AUTO 03008KT 4SM 19/16 A3009 RMK T01900160 IEM_DS3505
ZHHH,2001-10-15 08:00,ZHHH 150800Z AUTO 02006KT 4SM 20/16 A3009 RMK T02000160 IEM_DS3505
ZHHH,2001-10-15 09:00,ZHHH 150900Z AUTO 04002KT 7SM 20/16 A3009 RMK SLP189 T01980155 57004 IEM_DS3505
ZHHH,2001-10-15 10:00,ZHHH 151000Z AUTO 03006KT 4SM 19/16 A3009 RMK T01900160 IEM_DS3505
ZHHH,2001-10-15 11:00,ZHHH 151100Z AUTO 04006KT 4SM 19/15 A3012 RMK T01900150 IEM_DS3505
ZHHH,2001-10-15 12:00,ZHHH 151200Z AUTO 00000KT 7SM 19/15 A3012 RMK SLP202 T01910150 52013 IEM_DS3505
ZHHH,2001-10-15 13:00,ZHHH 151300Z AUTO 4SM 18/15 A3012 RMK T01800150 IEM_DS3505
ZHHH,2001-10-15 14:00,ZHHH 151400Z AUTO 4SM 18/15 A3012 RMK T01800150 IEM_DS3505
ZHHH,2001-10-15 15:00,ZHHH 151500Z AUTO 4SM 18/15 A3012 RMK T01800150 IEM_DS3505
ZHHH,2001-10-15 16:00,ZHHH 151600Z AUTO 01002KT 2 1/2SM 18/15 A3012 RMK T01800150 IEM_DS3505
ZHHH,2001-10-15 17:00,ZHHH 151700Z AUTO 2 1/2SM 18/16 A3009 RMK T01800160 IEM_DS3505
ZHHH,2001-10-15 18:00,ZHHH 151800Z AUTO 29002KT 4SM 18/16 RMK 60003 SLP193 T01780159 57010 IEM_DS3505
ZHHH,2001-10-15 19:00,ZHHH 151900Z AUTO 3SM 17/16 A3009 RMK T01700160 IEM_DS3505
ZHHH,2001-10-15 20:00,ZHHH 152000Z AUTO 2SM 17/16 A3009 RMK T01700160 IEM_DS3505
ZHHH,2001-10-15 21:00,ZHHH 152100Z AUTO 29002KT 4SM 18/16 A3009 RMK 70000 SLP191 T01800157 57002 IEM_DS3505
ZHHH,2001-10-15 22:00,ZHHH 152200Z AUTO 1 1/2SM 17/16 A3009 RMK T01700160 IEM_DS3505
ZHHH,2001-10-15 23:00,ZHHH 152300Z AUTO 01006KT 2SM 17/15 A3012 RMK T01700150 IEM_DS3505
ZHHH,2001-10-16 00:00,ZHHH 160000Z AUTO 34004KT 6SM 18/16 A3015 RMK 60004 SLP207 T01750158 52016 IEM_DS3505
ZHHH,2001-10-16 01:00,ZHHH 160100Z AUTO 02008KT 1 1/4SM 17/16 A3015 RMK T01700160 IEM_DS3505
ZHHH,2001-10-16 02:00,ZHHH 160200Z AUTO 02008KT 1 1/4SM 17/16 A3015 RMK T01700160 IEM_DS3505
ZHHH,2001-10-16 03:00,ZHHH 160300Z AUTO 02004G27KT 6SM 18/16 A3015 RMK SLP207 T01750155 54000 IEM_DS3505
ZHHH,2001-10-16 04:00,ZHHH 160400Z AUTO 03012KT 1 1/2SM 17/16 A3012 RMK T01700160 IEM_DS3505
ZHHH,2001-10-16 05:00,ZHHH 160500Z AUTO 02010KT 2 1/2SM 17/16 A3009 RMK T01700160 IEM_DS3505
ZHHH,2001-10-16 06:00,ZHHH 160600Z AUTO 36004KT 6SM 18/16 A3006 RMK 60003 SLP186 T01800157 57021 IEM_DS3505
ZHHH,2001-10-16 07:00,ZHHH 160700Z AUTO 01008KT 1 1/2SM 17/16 A3006 RMK T01700160 IEM_DS3505
ZHHH,2001-10-16 08:00,ZHHH 160800Z AUTO 02008KT 1 1/2SM 18/16 A3006 RMK T01800160 IEM_DS3505
ZHHH,2001-10-16 09:00,ZHHH 160900Z AUTO 02004KT 6SM 18/15 A3009 RMK SLP187 T01780147 52001 IEM_DS3505
ZHHH,2001-10-16 10:00,ZHHH 161000Z AUTO 02006KT 1 1/2SM 17/15 A3009 RMK T01700150 IEM_DS3505
ZHHH,2001-10-16 11:00,ZHHH 161100Z AUTO 02008KT 2SM 17/16 A3009 RMK T01700160 IEM_DS3505
ZHHH,2001-10-16 12:00,ZHHH 161200Z AUTO 02002KT 6SM 17/15 A3012 RMK 60004 SLP200 T01720153 52013 IEM_DS3505
ZHHH,2001-10-16 13:00,ZHHH 161300Z AUTO 03008KT 2SM 17/16 A3012 RMK T01700160 IEM_DS3505
ZHHH,2001-10-16 14:00,ZHHH 161400Z AUTO 02006KT 2SM 17/16 A3015 RMK T01700160 IEM_DS3505
ZHHH,2001-10-16 15:00,ZHHH 161500Z AUTO 00000KT 6SM 18/15 A3015 RMK SLP206 T01760149 52006 IEM_DS3505
ZHHH,2001-10-16 16:00,ZHHH 161600Z AUTO 03006KT 2 1/2SM 17/15 A3012 RMK T01700150 IEM_DS3505
ZHHH,2001-10-16 17:00,ZHHH 161700Z AUTO 2SM 17/16 A3012 RMK T01700160 IEM_DS3505
ZHHH,2001-10-16 18:00,ZHHH 161800Z AUTO 36002KT 7SM 17/15 A3012 RMK SLP200 T01730154 57006 IEM_DS3505
ZHHH,2001-10-16 19:00,ZHHH 161900Z AUTO 1 1/2SM 17/15 A3012 RMK T01700150 IEM_DS3505
ZHHH,2001-10-16 20:00,ZHHH 162000Z AUTO 1 1/2SM 17/15 A3012 RMK T01700150 IEM_DS3505
ZHHH,2001-10-16 21:00,ZHHH 162100Z AUTO 00000KT 7SM 17/15 A3012 RMK 70008 SLP198 T01710150 57002 IEM_DS3505
ZHHH,2001-10-16 22:00,ZHHH 162200Z AUTO 04008KT 1 1/2SM 17/15 A3012 RMK T01700150 IEM_DS3505
ZHHH,2001-10-16 23:00,ZHHH 162300Z AUTO 04010KT 1SM 17/14 A3012 RMK T01700140 IEM_DS3505
ZHHH,2001-10-17 00:00,ZHHH 170000Z AUTO 04004KT 6SM 17/14 A3015 RMK SLP212 T01740145 52014 IEM_DS3505
ZHHH,2001-10-17 01:00,ZHHH 170100Z AUTO 04008KT 1SM 18/15 A3018 RMK T01800150 IEM_DS3505
ZHHH,2001-10-17 02:00,ZHHH 170200Z AUTO 04006KT 1 1/2SM 19/15 A3018 RMK T01900150 IEM_DS3505
ZHHH,2001-10-17 03:00,ZHHH 170300Z AUTO 04002KT 6SM 19/14 A3018 RMK SLP220 T01910144 52008 IEM_DS3505
ZHHH,2001-10-17 04:00,ZHHH 170400Z AUTO 06008KT 2SM 22/15 A3015 RMK T02200150 IEM_DS3505
ZHHH,2001-10-17 06:00,ZHHH 170600Z AUTO 09004KT 7SM 23/13 A3012 RMK SLP199 T02270127 57021 IEM_DS3505
ZHHH,2001-10-17 07:00,ZHHH 170700Z AUTO 3SM 23/13 A3009 RMK T02300130 IEM_DS3505
ZHHH,2001-10-17 08:00,ZHHH 170800Z AUTO 3SM 24/11 A3009 RMK T02400110 IEM_DS3505
ZHHH,2001-10-17 09:00,ZHHH 170900Z AUTO 25002KT 7SM 21/15 A3009 RMK SLP192 T02120151 57007 IEM_DS3505
ZHHH,2001-10-17 10:00,ZHHH 171000Z AUTO 1 1/2SM 21/17 A3009 RMK T02100170 IEM_DS3505
ZHHH,2001-10-17 11:00,ZHHH 171100Z AUTO 04006KT 1 1/2SM 21/14 A3012 RMK T02100140 IEM_DS3505
ZHHH,2001-10-17 12:00,ZHHH 171200Z AUTO 00000KT 6SM 19/16 A3012 RMK SLP205 T01940159 52013 IEM_DS3505
ZHHH,2001-10-17 13:00,ZHHH 171300Z AUTO 05008KT 4SM 18/14 A3015 RMK T01800140 IEM_DS3505
ZHHH,2001-10-17 14:00,ZHHH 171400Z AUTO 05008KT 6SM 18/14 A3015 RMK T01800140 IEM_DS3505
ZHHH,2001-10-17 15:00,ZHHH 171500Z AUTO 07002KT 6SM 18/13 A3015 RMK SLP209 T01790132 52004 IEM_DS3505
ZHHH,2001-10-17 16:00,ZHHH 171600Z AUTO 07008KT 6SM 17/12 A3015 RMK T01700120 IEM_DS3505
ZHHH,2001-10-17 17:00,ZHHH 171700Z AUTO 07010KT 6SM 16/12 A3012 RMK T01600120 IEM_DS3505
ZHHH,2001-10-17 18:00,ZHHH 171800Z AUTO 07004KT 7SM 16/13 A3012 RMK SLP205 T01620131 57004 IEM_DS3505
ZHHH,2001-10-17 19:00,ZHHH 171900Z AUTO 07008KT 6SM 15/11 A3012 RMK T01500110 IEM_DS3505
ZHHH,2001-10-17 20:00,ZHHH 172000Z AUTO 09008KT 6SM 15/11 A3012 RMK T01500110 IEM_DS3505
ZHHH,2001-10-17 21:00,ZHHH 172100Z AUTO 07002KT 7SM 15/13 A3012 RMK SLP206 T01530127 52001 IEM_DS3505
ZHHH,2001-10-17 22:00,ZHHH 172200Z AUTO 10006KT 6SM 15/10 A3015 RMK T01500100 IEM_DS3505
ZHHH,2001-10-17 23:00,ZHHH 172300Z AUTO 6SM 14/10 A3018 RMK T01400100 IEM_DS3505
ZHHH,2001-10-18 00:00,ZHHH 180000Z AUTO 07002KT 7SM 16/12 A3021 RMK SLP227 T01610119 52021 IEM_DS3505
ZHHH,2001-10-18 01:00,ZHHH 180100Z AUTO 10008KT 6SM 17/11 A3021 RMK T01700110 IEM_DS3505
ZHHH,2001-10-18 02:00,ZHHH 180200Z AUTO 13008KT 6SM 19/11 A3021 RMK T01900110 IEM_DS3505
ZHHH,2001-10-18 03:00,ZHHH 180300Z AUTO 04002KT 9SM 22/11 A3021 RMK SLP230 T02160113 52003 IEM_DS3505
ZHHH,2001-10-18 04:00,ZHHH 180400Z AUTO 15006KT 6SM 22/10 A3018 RMK T02200100 IEM_DS3505
ZHHH,2001-10-18 05:00,ZHHH 180500Z AUTO 12006KT 6SM 22/11 A3015 RMK T02200110 IEM_DS3505
ZHHH,2001-10-18 06:00,ZHHH 180600Z AUTO 07004KT 9SM 24/08 A3015 RMK SLP206 T02380082 57024 IEM_DS3505
ZHHH,2001-10-18 07:00,ZHHH 180700Z AUTO 11006KT 6SM 23/09 A3012 RMK T02300090 IEM_DS3505
ZHHH,2001-10-18 08:00,ZHHH 180800Z AUTO 11006KT 6SM 23/07 A3012 RMK T02300070 IEM_DS3505
ZHHH,2001-10-18 09:00,ZHHH 180900Z AUTO 09002KT 11SM 23/07 A3012 RMK SLP200 T02310067 57006 IEM_DS3505
ZHHH,2001-10-18 10:00,ZHHH 181000Z AUTO 10004KT 6SM 21/08 A3012 RMK T02100080 IEM_DS3505
ZHHH,2001-10-18 11:00,ZHHH 181100Z AUTO 6SM 21/08 A3012 RMK T02100080 IEM_DS3505
ZHHH,2001-10-18 12:00,ZHHH 181200Z AUTO 00000KT 9SM 20/11 A3015 RMK SLP212 T02010114 52012 IEM_DS3505
ZHHH,2001-10-18 13:00,ZHHH 181300Z AUTO 6SM 20/11 A3015 RMK T02000110 IEM_DS3505
ZHHH,2001-10-18 14:00,ZHHH 181400Z AUTO 15006KT 6SM 20/09 A3018 RMK T02000090 IEM_DS3505
ZHHH,2001-10-18 15:00,ZHHH 181500Z AUTO 09002KT 9SM 20/06 A3018 RMK SLP217 T01980063 52005 IEM_DS3505
ZHHH,2001-10-18 16:00,ZHHH 181600Z AUTO 14006KT 6SM 19/09 A3018 RMK T01900090 IEM_DS3505
ZHHH,2001-10-18 17:00,ZHHH 181700Z AUTO 13004KT 6SM 18/10 A3018 RMK T01800100 IEM_DS3505
ZHHH,2001-10-18 18:00,ZHHH 181800Z AUTO 14004KT 9SM 19/07 A3018 RMK SLP218 T01900069 52001 IEM_DS3505
ZHHH,2001-10-18 19:00,ZHHH 181900Z AUTO 10004KT 6SM 17/12 A3015 RMK T01700120 IEM_DS3505
ZHHH,2001-10-18 20:00,ZHHH 182000Z AUTO 12004KT 6SM 17/12 A3015 RMK T01700120 IEM_DS3505
ZHHH,2001-10-18 21:00,ZHHH 182100Z AUTO 00000KT 9SM 17/09 A3018 RMK SLP220 T01740087 52002 IEM_DS3505
ZHHH,2001-10-18 22:00,ZHHH 182200Z AUTO 08006KT 6SM 16/11 A3018 RMK T01600110 IEM_DS3505
ZHHH,2001-10-18 23:00,ZHHH 182300Z AUTO 10008KT 6SM 16/12 A3018 RMK T01600120 IEM_DS3505
ZHHH,2001-10-19 00:00,ZHHH 190000Z AUTO 09002KT 9SM 18/10 A3021 RMK SLP230 T01850104 52010 IEM_DS3505
ZHHH,2001-10-19 01:00,ZHHH 190100Z AUTO 12008KT 6SM 18/11 A3021 RMK T01800110 IEM_DS3505
ZHHH,2001-10-19 02:00,ZHHH 190200Z AUTO 12010G19KT 6SM 20/10 A3024 RMK T02000100 IEM_DS3505
ZHHH,2001-10-19 03:00,ZHHH 190300Z AUTO 14004KT 11SM 23/09 A3021 RMK SLP235 T02270088 52005 IEM_DS3505
ZHHH,2001-10-19 04:00,ZHHH 190400Z AUTO 12012KT 6SM 22/11 A3021 RMK T02200110 IEM_DS3505
ZHHH,2001-10-19 05:00,ZHHH 190500Z AUTO 13008KT 6SM 23/11 A3018 RMK T02300110 IEM_DS3505
ZHHH,2001-10-19 06:00,ZHHH 190600Z AUTO 16002KT 11SM 24/09 A3015 RMK SLP212 T02440089 57023 IEM_DS3505
ZHHH,2001-10-19 07:00,ZHHH 190700Z AUTO 13006KT 6SM 24/11 A3012 RMK T02400110 IEM_DS3505
ZHHH,2001-10-19 08:00,ZHHH 190800Z AUTO 6SM 23/11 A3012 RMK T02300110 IEM_DS3505
ZHHH,2001-10-19 09:00,ZHHH 190900Z AUTO 04002KT 7SM 24/09 A3012 RMK SLP202 T02360092 57010 IEM_DS3505
ZHHH,2001-10-19 10:00,ZHHH 191000Z AUTO 05006KT 22/12 A3012 RMK T02200120 IEM_DS3505
ZHHH,2001-10-19 11:00,ZHHH 191100Z AUTO 05004KT 22/12 A3015 RMK T02200120 IEM_DS3505
ZHHH,2001-10-19 12:00,ZHHH 191200Z AUTO 00000KT 7SM 21/14 A3015 RMK 60003 SLP212 T02110135 52010 IEM_DS3505
ZHHH,2001-10-19 13:00,ZHHH 191300Z AUTO 03006KT 2SM 20/14 A3015 RMK T02000140 IEM_DS3505
ZHHH,2001-10-19 14:00,ZHHH 191400Z AUTO 01006KT 2 1/2SM 19/15 A3018 RMK T01900150 IEM_DS3505
ZHHH,2001-10-19 15:00,ZHHH 191500Z AUTO 02002KT 6SM 20/14 A3015 RMK SLP216 T01950139 52004 IEM_DS3505
ZHHH,2001-10-19 16:00,ZHHH 191600Z AUTO 02006KT 4SM 19/14 A3015 RMK T01900140 IEM_DS3505
ZHHH,2001-10-19 17:00,ZHHH 191700Z AUTO 04006KT 4SM 19/15 A3015 RMK T01900150 IEM_DS3505
ZHHH,2001-10-19 18:00,ZHHH 191800Z AUTO 36002KT 7SM 19/14 A3015 RMK 60003 SLP208 T01890145 57008 IEM_DS3505
ZHHH,2001-10-19 19:00,ZHHH 191900Z AUTO 6SM 18/14 A3012 RMK T01800140 IEM_DS3505
ZHHH,2001-10-19 20:00,ZHHH 192000Z AUTO 6SM 17/15 A3012 RMK T01700150 IEM_DS3505
ZHHH,2001-10-19 21:00,ZHHH 192100Z AUTO 02002KT 7SM 18/14 A3015 RMK 70003 SLP209 T01780144 52001 IEM_DS3505
ZHHH,2001-10-19 22:00,ZHHH 192200Z AUTO 05008KT 6SM 16/14 A3015 RMK T01600140 IEM_DS3505
ZHHH,2001-10-19 23:00,ZHHH 192300Z AUTO 04012KT 6SM 16/13 A3018 RMK T01600130 IEM_DS3505
ZHHH,2001-10-20 00:00,ZHHH 200000Z AUTO 02002KT 9SM 17/13 A3018 RMK 70003 SLP222 T01670133 52013 IEM_DS3505
ZHHH,2001-10-20 01:00,ZHHH 200100Z AUTO 04010KT 6SM 16/14 A3018 RMK T01600140 IEM_DS3505
ZHHH,2001-10-20 02:00,ZHHH 200200Z AUTO 05012KT 6SM 16/14 A3021 RMK T01600140 IEM_DS3505
ZHHH,2001-10-20 03:00,ZHHH 200300Z AUTO 04004KT 7SM 17/14 A3018 RMK SLP227 T01710137 52005 IEM_DS3505
ZHHH,2001-10-20 04:00,ZHHH 200400Z AUTO 6SM 16/14 A3018 RMK T01600140 IEM_DS3505
ZHHH,2001-10-20 05:00,ZHHH 200500Z AUTO 2 1/2SM 16/15 A3015 RMK T01600150 IEM_DS3505
ZHHH,2001-10-20 06:00,ZHHH 200600Z AUTO 36004KT 9SM 17/14 A3015 RMK 60003 SLP209 T01710144 57018 IEM_DS3505
ZHHH,2001-10-20 07:00,ZHHH 200700Z AUTO 01006KT 3SM 17/16 A3015 RMK T01700160 IEM_DS3505
ZHHH,2001-10-20 08:00,ZHHH 200800Z AUTO 02010KT 4SM 16/15 A3012 RMK T01600150 IEM_DS3505
ZHHH,2001-10-20 09:00,ZHHH 200900Z AUTO 34004KT 7SM 16/14 A3012 RMK SLP205 T01650143 57004 IEM_DS3505
ZHHH,2001-10-20 10:00,ZHHH 201000Z AUTO 01006KT 4SM 16/15 A3015 RMK T01600150 IEM_DS3505
ZHHH,2001-10-20 11:00,ZHHH 201100Z AUTO 36006KT 2 1/2SM 16/15 A3015 RMK T01600150 IEM_DS3505
ZHHH,2001-10-20 12:00,ZHHH 201200Z AUTO 02002KT 7SM 16/15 A3015 RMK SLP215 T01630148 52010 IEM_DS3505
ZHHH,2001-10-20 13:00,ZHHH 201300Z AUTO 03006KT 7SM 16/15 A3018 RMK T01600150 IEM_DS3505
ZHHH,2001-10-20 14:00,ZHHH 201400Z AUTO 7SM 16/15 A3018 RMK T01600150 IEM_DS3505
ZHHH,2001-10-20 15:00,ZHHH 201500Z AUTO 27002KT 7SM 16/15 A3018 RMK SLP220 T01630151 52005 IEM_DS3505
ZHHH,2001-10-20 16:00,ZHHH 201600Z AUTO 7SM 16/15 A3018 RMK T01600150 IEM_DS3505
ZHHH,2001-10-20 17:00,ZHHH 201700Z AUTO 7SM 15/15 A3018 RMK T01500150 IEM_DS3505
ZHHH,2001-10-20 18:00,ZHHH 201800Z AUTO 34004KT 9SM 16/15 A3015 RMK SLP214 T01570146 57006 IEM_DS3505
ZHHH,2001-10-20 19:00,ZHHH 201900Z AUTO 3SM 15/15 A3015 RMK T01500150 IEM_DS3505
ZHHH,2001-10-20 20:00,ZHHH 202000Z AUTO 2 1/2SM 15/15 A3015 RMK T01500150 IEM_DS3505
ZHHH,2001-10-20 21:00,ZHHH 202100Z AUTO 32002KT 9SM 15/14 A3015 RMK 70003 SLP213 T01540143 57001 IEM_DS3505
ZHHH,2001-10-20 22:00,ZHHH 202200Z AUTO 1SM 15/14 A3015 RMK T01500140 IEM_DS3505
ZHHH,2001-10-20 23:00,ZHHH 202300Z AUTO 1SM 15/14 A3015 RMK T01500140 IEM_DS3505
ZHHH,2001-10-21 00:00,ZHHH 210000Z AUTO 00000KT 9SM 15/14 A3018 RMK 60002 SLP223 T01540143 52010 IEM_DS3505
ZHHH,2001-10-21 01:00,ZHHH 210100Z AUTO 2SM 15/15 A3018 RMK T01500150 IEM_DS3505
ZHHH,2001-10-21 02:00,ZHHH 210200Z AUTO 1 1/2SM 16/15 A3021 RMK T01600150 IEM_DS3505
ZHHH,2001-10-21 03:00,ZHHH 210300Z AUTO 32002KT 9SM 17/14 A3021 RMK SLP228 T01660144 52005 IEM_DS3505
ZHHH,2001-10-21 04:00,ZHHH 210400Z AUTO 3SM 17/15 A3018 RMK T01700150 IEM_DS3505
ZHHH,2001-10-21 05:00,ZHHH 210500Z AUTO 4SM 17/15 A3015 RMK T01700150 IEM_DS3505
ZHHH,2001-10-21 06:00,ZHHH 210600Z AUTO 34002KT 9SM 19/15 A3012 RMK SLP205 T01910148 57023 IEM_DS3505
ZHHH,2001-10-21 07:00,ZHHH 210700Z AUTO 6SM 18/15 A3012 RMK T01800150 IEM_DS3505
ZHHH,2001-10-21 08:00,ZHHH 210800Z AUTO 7SM 19/15 A3012 RMK T01900150 IEM_DS3505
ZHHH,2001-10-21 09:00,ZHHH 210900Z AUTO 00000KT 9SM 19/14 A3012 RMK SLP198 T01920143 57007 IEM_DS3505
ZHHH,2001-10-21 10:00,ZHHH 211000Z AUTO 02002KT 6SM 18/16 A3012 RMK T01800160 IEM_DS3505
ZHHH,2001-10-21 11:00,ZHHH 211100Z AUTO 05002KT 3SM 18/16 A3012 RMK T01800160 IEM_DS3505
ZHHH,2001-10-21 12:00,ZHHH 211200Z AUTO 27002KT 7SM 18/15 A3012 RMK SLP208 T01830149 52010 IEM_DS3505
ZHHH,2001-10-21 13:00,ZHHH 211300Z AUTO 1 1/4SM 17/16 A3015 RMK T01700160 IEM_DS3505
ZHHH,2001-10-21 14:00,ZHHH 211400Z AUTO 1SM 17/16 A3015 RMK T01700160 IEM_DS3505
ZHHH,2001-10-21 15:00,ZHHH 211500Z AUTO 27002KT 6SM 17/15 A3015 RMK SLP209 T01700149 52001 IEM_DS3505
ZHHH,2001-10-21 16:00,ZHHH 211600Z AUTO 1SM 16/15 A3015 RMK T01600150 IEM_DS3505
ZHHH,2001-10-21 17:00,ZHHH 211700Z AUTO 1 1/4SM 15/15 A3015 RMK T01500150 IEM_DS3505
ZHHH,2001-10-21 18:00,ZHHH 211800Z AUTO 00000KT 11SM 16/15 A3015 RMK SLP211 T01610147 52002 IEM_DS3505
ZHHH,2001-10-21 19:00,ZHHH 211900Z AUTO 24002KT 1 1/4SM 16/15 A3015 RMK T01600150 IEM_DS3505
ZHHH,2001-10-21 20:00,ZHHH 212000Z AUTO 1SM 15/15 A3015 RMK T01500150 IEM_DS3505
ZHHH,2001-10-21 21:00,ZHHH 212100Z AUTO 00000KT 11SM 16/15 A3015 RMK 70002 SLP211 T01620149 54000 IEM_DS3505
ZHHH,2001-10-21 22:00,ZHHH 212200Z AUTO 1SM 15/15 A3015 RMK T01500150 IEM_DS3505
ZHHH,2001-10-21 23:00,ZHHH 212300Z AUTO 1SM 15/15 A3018 RMK T01500150 IEM_DS3505
ZHHH,2001-10-22 00:00,ZHHH 220000Z AUTO 1 1/4SM 15/15 A3018 RMK T01500150 IEM_DS3505
ZHHH,2001-10-22 01:00,ZHHH 220100Z AUTO 1 1/2SM 16/15 A3021 RMK T01600150 IEM_DS3505
ZHHH,2001-10-22 02:00,ZHHH 220200Z AUTO 1 1/2SM 18/15 A3021 RMK T01800150 IEM_DS3505
ZHHH,2001-10-22 03:00,ZHHH 220300Z AUTO 02002KT 7SM 19/14 A3021 RMK SLP225 T01940136 54000 IEM_DS3505
ZHHH,2001-10-22 04:00,ZHHH 220400Z AUTO 3SM 19/15 A3018 RMK T01900150 IEM_DS3505
ZHHH,2001-10-22 05:00,ZHHH 220500Z AUTO 4SM 20/15 A3018 RMK T02000150 IEM_DS3505
ZHHH,2001-10-22 06:00,ZHHH 220600Z AUTO 04002KT 8SM 20/13 A3015 RMK 60003 SLP210 T02030128 57015 IEM_DS3505
ZHHH,2001-10-22 07:00,ZHHH 220700Z AUTO 5SM 21/15 A3012 RMK T02100150 IEM_DS3505
ZHHH,2001-10-22 08:00,ZHHH 220800Z AUTO 5SM 21/15 A3012 RMK T02100150 IEM_DS3505
ZHHH,2001-10-22 09:00,ZHHH 220900Z AUTO 00000KT 7SM 21/13 A3012 RMK SLP205 T02060134 57005 IEM_DS3505
ZHHH,2001-10-22 11:00,ZHHH 221100Z AUTO 2 1/2SM 20/16 A3012 RMK T02000160 IEM_DS3505
ZHHH,2001-10-22 12:00,ZHHH 221200Z AUTO 00000KT 9SM 19/14 A3015 RMK 60003 SLP211 T01930145 52006 IEM_DS3505
ZHHH,2001-10-22 13:00,ZHHH 221300Z AUTO 29002KT 1 1/4SM 19/17 A3015 RMK T01900170 IEM_DS3505
ZHHH,2001-10-22 14:00,ZHHH 221400Z AUTO 1 1/4SM 18/16 A3015 RMK T01800160 IEM_DS3505
ZHHH,2001-10-22 15:00,ZHHH 221500Z AUTO 00000KT 9SM 18/14 A3015 RMK SLP213 T01770140 52002 IEM_DS3505
ZHHH,2001-10-22 16:00,ZHHH 221600Z AUTO 1 1/4SM 18/16 A3015 RMK T01800160 IEM_DS3505
ZHHH,2001-10-22 17:00,ZHHH 221700Z AUTO 35002KT 1 1/4SM 18/16 A3015 RMK T01800160 IEM_DS3505
ZHHH,2001-10-22 18:00,ZHHH 221800Z AUTO 00000KT 7SM 17/15 A3015 RMK SLP209 T01720148 57004 IEM_DS3505
ZHHH,2001-10-22 19:00,ZHHH 221900Z AUTO 1SM 18/16 A3012 RMK T01800160 IEM_DS3505
ZHHH,2001-10-22 20:00,ZHHH 222000Z AUTO 1SM 17/15 A3012 RMK T01700150 IEM_DS3505
ZHHH,2001-10-22 21:00,ZHHH 222100Z AUTO 00000KT 7SM 17/15 A3012 RMK 70003 SLP203 T01740151 57006 IEM_DS3505
ZHHH,2001-10-22 22:00,ZHHH 222200Z AUTO 1 1/4SM 17/16 A3015 RMK T01700160 IEM_DS3505
ZHHH,2001-10-22 23:00,ZHHH 222300Z AUTO 35004KT 1SM 17/16 A3015 RMK T01700160 IEM_DS3505
ZHHH,2001-10-23 00:00,ZHHH 230000Z AUTO 00000KT 5SM 18/16 A3018 RMK 60003 SLP224 T01790163 52021 IEM_DS3505
ZHHH,2001-10-23 01:00,ZHHH 230100Z AUTO 1 1/4SM 17/16 A3021 RMK T01700160 IEM_DS3505
ZHHH,2001-10-23 02:00,ZHHH 230200Z AUTO 1SM 17/16 A3021 RMK T01700160 IEM_DS3505
ZHHH,2001-10-23 03:00,ZHHH 230300Z AUTO 36002KT 5SM 18/16 A3021 RMK SLP232 T01780164 52008 IEM_DS3505
ZHHH,2001-10-23 04:00,ZHHH 230400Z AUTO 35006KT 1SM 17/16 A3018 RMK T01700160 IEM_DS3505
ZHHH,2001-10-23 05:00,ZHHH 230500Z AUTO 1 1/4SM 18/17 A3015 RMK T01800170 IEM_DS3505
ZHHH,2001-10-23 06:00,ZHHH 230600Z AUTO 04004KT 7SM 19/16 A3012 RMK 60008 SLP204 T01890160 57028 IEM_DS3505
ZHHH,2001-10-23 07:00,ZHHH 230700Z AUTO 6SM 21/17 A3012 RMK T02100170 IEM_DS3505
ZHHH,2001-10-23 08:00,ZHHH 230800Z AUTO 6SM 22/17 A3012 RMK T02200170 IEM_DS3505
ZHHH,2001-10-23 09:00,ZHHH 230900Z AUTO 04004KT 6SM 21/17 A3009 RMK SLP196 T02070167 57008 IEM_DS3505
ZHHH,2001-10-23 10:00,ZHHH 231000Z AUTO 6SM 20/17 A3009 RMK T02000170 IEM_DS3505
ZHHH,2001-10-23 11:00,ZHHH 231100Z AUTO 4SM 19/17 A3012 RMK T01900170 IEM_DS3505
ZHHH,2001-10-23 12:00,ZHHH 231200Z AUTO 00000KT 7SM 19/17 A3012 RMK SLP203 T01860168 52007 IEM_DS3505
ZHHH,2001-10-23 13:00,ZHHH 231300Z AUTO 09006KT 2SM 18/17 A3015 RMK T01800170 IEM_DS3505
ZHHH,2001-10-23 14:00,ZHHH 231400Z AUTO 2SM 18/16 A3015 RMK T01800160 IEM_DS3505
ZHHH,2001-10-23 15:00,ZHHH 231500Z AUTO 02002KT 7SM 18/17 A3015 RMK SLP207 T01790166 52004 IEM_DS3505
ZHHH,2001-10-23 16:00,ZHHH 231600Z AUTO 2SM 17/16 A3012 RMK T01700160 IEM_DS3505
ZHHH,2001-10-23 17:00,ZHHH 231700Z AUTO 11004KT 2SM 17/16 A3012 RMK T01700160 IEM_DS3505
ZHHH,2001-10-23 18:00,ZHHH 231800Z AUTO 00000KT 9SM 17/16 A3009 RMK SLP196 T01680158 57011 IEM_DS3505
ZHHH,2001-10-23 19:00,ZHHH 231900Z AUTO 11004KT 2SM 16/16 A3009 RMK T01600160 IEM_DS3505
ZHHH,2001-10-23 20:00,ZHHH 232000Z AUTO 08008KT 2SM 16/16 A3009 RMK T01600160 IEM_DS3505
ZHHH,2001-10-23 21:00,ZHHH 232100Z AUTO 07002KT 9SM 16/16 A3009 RMK 70006 SLP191 T01640158 57005 IEM_DS3505
ZHHH,2001-10-23 22:00,ZHHH 232200Z AUTO 07006KT 2 1/2SM 16/15 A3009 RMK T01600150 IEM_DS3505
ZHHH,2001-10-23 23:00,ZHHH 232300Z AUTO 09006KT 1 1/4SM 16/15 A3012 RMK T01600150 IEM_DS3505
ZHHH,2001-10-24 00:00,ZHHH 240000Z AUTO 07002KT 7SM 17/16 RMK 70006 SLP199 T01710162 52008 IEM_DS3505
ZHHH,2001-10-24 01:00,ZHHH 240100Z AUTO 12006KT 1 1/4SM 18/17 A3012 RMK T01800170 IEM_DS3505
ZHHH,2001-10-24 02:00,ZHHH 240200Z AUTO 12006KT 1 1/4SM 20/18 A3012 RMK T02000180 IEM_DS3505
ZHHH,2001-10-24 03:00,ZHHH 240300Z AUTO 09004KT 6SM 23/17 A3012 RMK SLP197 T02320173 57002 IEM_DS3505
ZHHH,2001-10-24 04:00,ZHHH 240400Z AUTO 14006KT 1 1/2SM 24/19 A3009 RMK T02400190 IEM_DS3505
ZHHH,2001-10-24 05:00,ZHHH 240500Z AUTO 1 1/2SM 25/18 A3006 RMK T02500180 IEM_DS3505
ZHHH,2001-10-24 06:00,ZHHH 240600Z AUTO 07002KT 7SM 26/17 A3003 RMK SLP167 T02600167 57030 IEM_DS3505
ZHHH,2001-10-24 07:00,ZHHH 240700Z AUTO 13008KT 3SM 26/18 A3000 RMK T02600180 IEM_DS3505
ZHHH,2001-10-24 08:00,ZHHH 240800Z AUTO 13006KT 26/18 A3000 RMK T02600180 IEM_DS3505
ZHHH,2001-10-24 09:00,ZHHH 240900Z AUTO 00000KT 7SM 26/17 A3000 RMK SLP161 T02550173 57006 IEM_DS3505
ZHHH,2001-10-24 10:00,ZHHH 241000Z AUTO 11004KT 4SM 24/17 A3000 RMK T02400170 IEM_DS3505
ZHHH,2001-10-24 11:00,ZHHH 241100Z AUTO 11006KT 23/17 A3000 RMK T02300170 IEM_DS3505
ZHHH,2001-10-24 12:00,ZHHH 241200Z AUTO 00000KT 7SM 22/17 A3003 RMK SLP166 T02210170 52005 IEM_DS3505
ZHHH,2001-10-24 13:00,ZHHH 241300Z AUTO 07006KT 4SM 22/17 A3003 RMK T02200170 IEM_DS3505
ZHHH,2001-10-24 14:00,ZHHH 241400Z AUTO 10008KT 3SM 21/17 A3003 RMK T02100170 IEM_DS3505
ZHHH,2001-10-24 15:00,ZHHH 241500Z AUTO 00000KT 6SM 21/17 A3003 RMK SLP170 T02130173 52005 IEM_DS3505
ZHHH,2001-10-24 16:00,ZHHH 241600Z AUTO 08006KT 2 1/2SM 21/18 A3003 RMK T02100180 IEM_DS3505
ZHHH,2001-10-24 17:00,ZHHH 241700Z AUTO 07006KT 2SM 20/18 A3003 RMK T02000180 IEM_DS3505
ZHHH,2001-10-24 18:00,ZHHH 241800Z AUTO 07002KT 6SM 20/18 A3003 RMK SLP164 T02020180 57006 IEM_DS3505
ZHHH,2001-10-24 19:00,ZHHH 241900Z AUTO 08008KT 1 1/2SM 20/18 A3000 RMK T02000180 IEM_DS3505
ZHHH,2001-10-24 20:00,ZHHH 242000Z AUTO 11008KT 1 1/2SM 19/18 A2997 RMK T01900180 IEM_DS3505
ZHHH,2001-10-24 21:00,ZHHH 242100Z AUTO 14002KT 6SM 20/18 A2997 RMK 70003 SLP153 T02040175 57011 IEM_DS3505
ZHHH,2001-10-24 22:00,ZHHH 242200Z AUTO 11008KT 1 1/2SM 19/18 A2997 RMK T01900180 IEM_DS3505
ZHHH,2001-10-24 23:00,ZHHH 242300Z AUTO 10006KT 1 1/4SM 19/18 A3000 RMK T01900180 IEM_DS3505
ZHHH,2001-10-25 00:00,ZHHH 250000Z AUTO 00000KT 7SM 22/17 A3000 RMK 60003 SLP161 T02150168 52008 IEM_DS3505
ZHHH,2001-10-25 01:00,ZHHH 250100Z AUTO 11006KT 1 1/4SM 21/18 A3000 RMK T02100180 IEM_DS3505
ZHHH,2001-10-25 02:00,ZHHH 250200Z AUTO 13008KT 1 1/2SM 22/19 A3003 RMK T02200190 IEM_DS3505
ZHHH,2001-10-25 03:00,ZHHH 250300Z AUTO 09004G19KT 9SM 25/17 A3000 RMK SLP163 T02480171 52002 IEM_DS3505
ZHHH,2001-10-25 04:00,ZHHH 250400Z AUTO 12008KT 2SM 25/18 A3000 RMK T02500180 IEM_DS3505
ZHHH,2001-10-25 05:00,ZHHH 250500Z AUTO 14006KT 1 1/2SM 26/18 A2997 RMK T02600180 IEM_DS3505
ZHHH,2001-10-25 06:00,ZHHH 250600Z AUTO 11002KT 9SM 27/18 A2994 RMK SLP139 T02660179 57024 IEM_DS3505
ZHHH,2001-10-25 07:00,ZHHH 250700Z AUTO 2 1/2SM 26/18 A2994 RMK T02600180 IEM_DS3505
ZHHH,2001-10-25 08:00,ZHHH 250800Z AUTO 12004KT 2 1/2SM 26/19 A2994 RMK T02600190 IEM_DS3505
ZHHH,2001-10-25 09:00,ZHHH 250900Z AUTO 00000KT 8SM 26/18 A2994 RMK SLP136 T02610185 57003 IEM_DS3505
ZHHH,2001-10-25 10:00,ZHHH 251000Z AUTO 06006KT 1 1/2SM 25/20 A2994 RMK T02500200 IEM_DS3505
ZHHH,2001-10-25 11:00,ZHHH 251100Z AUTO 05010KT 2SM 22/20 A2997 RMK T02200200 IEM_DS3505
ZHHH,2001-10-25 12:00,ZHHH 251200Z AUTO 04004KT 8SM 22/19 A2997 RMK SLP154 T02250192 52018 IEM_DS3505
ZHHH,2001-10-25 13:00,ZHHH 251300Z AUTO 05010KT 2 1/2SM 20/18 A3000 RMK T02000180 IEM_DS3505
ZHHH,2001-10-25 14:00,ZHHH 251400Z AUTO 06008KT 2 1/2SM 20/18 A3000 RMK T02000180 IEM_DS3505
ZHHH,2001-10-25 15:00,ZHHH 251500Z AUTO 07004KT 7SM 21/18 A3000 RMK SLP157 T02060180 52003 IEM_DS3505
ZHHH,2001-10-25 16:00,ZHHH 251600Z AUTO 03006KT 2SM 19/18 A3000 RMK T01900180 IEM_DS3505
ZHHH,2001-10-25 17:00,ZHHH 251700Z AUTO 03010KT 2SM 18/17 A3000 RMK T01800170 IEM_DS3505
ZHHH,2001-10-25 18:00,ZHHH 251800Z AUTO 36006KT 6SM 19/16 RMK SLP152 T01860165 57005 IEM_DS3505
ZHHH,2001-10-25 19:00,ZHHH 251900Z AUTO 04008KT 1 1/4SM 17/16 A2997 RMK T01700160 IEM_DS3505
ZHHH,2001-10-25 20:00,ZHHH 252000Z AUTO 04008KT 1 1/2SM 17/16 A2997 RMK T01700160 IEM_DS3505
ZHHH,2001-10-25 21:00,ZHHH 252100Z AUTO 36004KT 6SM 17/16 A3000 RMK 70004 SLP157 T01700160 52005 IEM_DS3505
ZHHH,2001-10-25 22:00,ZHHH 252200Z AUTO 1 1/2SM 16/16 A3000 RMK T01600160 IEM_DS3505
ZHHH,2001-10-26 00:00,ZHHH 260000Z AUTO 02004KT 6SM 16/16 A3003 RMK 60012 SLP175 T01650155 52017 IEM_DS3505
ZHHH,2001-10-26 01:00,ZHHH 260100Z AUTO 04008KT 7SM 16/15 A3006 RMK T01600150 IEM_DS3505
ZHHH,2001-10-26 02:00,ZHHH 260200Z AUTO 03010KT 7SM 15/15 A3009 RMK T01500150 IEM_DS3505
ZHHH,2001-10-26 03:00,ZHHH 260300Z AUTO 02004KT 6SM 16/15 A3006 RMK SLP187 T01600150 52012 IEM_DS3505
ZHHH,2001-10-26 04:00,ZHHH 260400Z AUTO 03006KT 7SM 16/15 A3006 RMK T01600150 IEM_DS3505
ZHHH,2001-10-26 05:00,ZHHH 260500Z AUTO 03006KT 7SM 16/15 A3003 RMK T01600150 IEM_DS3505
ZHHH,2001-10-26 06:00,ZHHH 260600Z AUTO 04004KT 7SM 16/15 A3003 RMK 60016 SLP170 T01620148 57017 IEM_DS3505
ZHHH,2001-10-26 07:00,ZHHH 260700Z AUTO 7SM 16/15 A3003 RMK T01600150 IEM_DS3505
ZHHH,2001-10-26 08:00,ZHHH 260800Z AUTO 2 1/2SM 16/16 A3003 RMK T01600160 IEM_DS3505
ZHHH,2001-10-26 09:00,ZHHH 260900Z AUTO 36004KT 6SM 16/15 A3003 RMK SLP174 T01580152 52004 IEM_DS3505
ZHHH,2001-10-26 10:00,ZHHH 261000Z AUTO 03008KT 7SM 15/15 A3003 RMK T01500150 IEM_DS3505
ZHHH,2001-10-26 11:00,ZHHH 261100Z AUTO 02006KT 7SM 15/15 A3006 RMK T01500150 IEM_DS3505
ZHHH,2001-10-26 12:00,ZHHH 261200Z AUTO 36002KT 6SM 16/15 A3006 RMK 60004 SLP190 T01600150 52016 IEM_DS3505
ZHHH,2001-10-26 13:00,ZHHH 261300Z AUTO 01006KT 7SM 16/15 A3009 RMK T01600150 IEM_DS3505
ZHHH,2001-10-26 14:00,ZHHH 261400Z AUTO 36006KT 4SM 16/15 A3009 RMK T01600150 IEM_DS3505
ZHHH,2001-10-26 15:00,ZHHH 261500Z AUTO 34004KT 6SM 16/16 A3009 RMK SLP190 T01600155 54000 IEM_DS3505
ZHHH,2001-10-26 16:00,ZHHH 261600Z AUTO 35008KT 3SM 16/16 A3009 RMK T01600160 IEM_DS3505
ZHHH,2001-10-26 17:00,ZHHH 261700Z AUTO 36006KT 5SM 16/16 A3006 RMK T01600160 IEM_DS3505
ZHHH,2001-10-26 18:00,ZHHH 261800Z AUTO 34004KT 6SM 16/16 A3006 RMK 60028 SLP185 T01610155 57005 IEM_DS3505
ZHHH,2001-10-26 19:00,ZHHH 261900Z AUTO 36008KT 2 1/2SM 16/16 A3006 RMK T01600160 IEM_DS3505
ZHHH,2001-10-26 20:00,ZHHH 262000Z AUTO 35008KT 2SM 16/16 A3006 RMK T01600160 IEM_DS3505
ZHHH,2001-10-27 00:00,ZHHH 270000Z AUTO 34006KT 6SM 16/15 A3012 RMK 60008 SLP203 T01650152 52017 IEM_DS3505
ZHHH,2001-10-27 01:00,ZHHH 270100Z AUTO 36010KT 1 1/4SM 17/16 A3015 RMK T01700160 IEM_DS3505
ZHHH,2001-10-27 02:00,ZHHH 270200Z AUTO 35008KT 2SM 17/16 A3015 RMK T01700160 IEM_DS3505
ZHHH,2001-10-27 03:00,ZHHH 270300Z AUTO 34006KT 7SM 19/16 A3015 RMK SLP213 T01870155 52010 IEM_DS3505
ZHHH,2001-10-27 04:00,ZHHH 270400Z AUTO 35014KT 7SM 18/16 A3015 RMK T01800160 IEM_DS3505
ZHHH,2001-10-27 05:00,ZHHH 270500Z AUTO 35014G23KT 7SM 18/16 A3012 RMK T01800160 IEM_DS3505
ZHHH,2001-10-27 06:00,ZHHH 270600Z AUTO 34006KT 7SM 19/15 A3009 RMK SLP198 T01900154 57015 IEM_DS3505
ZHHH,2001-10-27 07:00,ZHHH 270700Z AUTO 36012KT 6SM 19/16 A3009 RMK T01900160 IEM_DS3505
ZHHH,2001-10-27 08:00,ZHHH 270800Z AUTO 35008KT 7SM 20/16 A3009 RMK T02000160 IEM_DS3505
ZHHH,2001-10-27 09:00,ZHHH 270900Z AUTO 27002KT 11SM 19/15 A3009 RMK SLP192 T01920147 57006 IEM_DS3505
ZHHH,2001-10-27 10:00,ZHHH 271000Z AUTO 34006KT 7SM 18/16 A3009 RMK T01800160 IEM_DS3505
ZHHH,2001-10-27 11:00,ZHHH 271100Z AUTO 7SM 18/16 A3012 RMK T01800160 IEM_DS3505
ZHHH,2001-10-27 12:00,ZHHH 271200Z AUTO 00000KT 8SM 18/15 A3015 RMK SLP208 T01750154 52016 IEM_DS3505
ZHHH,2001-10-27 13:00,ZHHH 271300Z AUTO 01002KT 3SM 17/16 A3015 RMK T01700160 IEM_DS3505
ZHHH,2001-10-27 14:00,ZHHH 271400Z AUTO 3SM 16/15 A3015 RMK T01600150 IEM_DS3505
ZHHH,2001-10-27 15:00,ZHHH 271500Z AUTO 00000KT 9SM 16/15 A3015 RMK SLP218 T01610150 52010 IEM_DS3505
ZHHH,2001-10-27 16:00,ZHHH 271600Z AUTO 20002KT 2 1/2SM 16/15 A3015 RMK T01600150 IEM_DS3505
ZHHH,2001-10-27 17:00,ZHHH 271700Z AUTO 25004KT 2SM 15/15 A3015 RMK T01500150 IEM_DS3505
ZHHH,2001-10-27 18:00,ZHHH 271800Z AUTO 27002KT 11SM 16/15 A3015 RMK SLP213 T01570146 57005 IEM_DS3505
ZHHH,2001-10-27 19:00,ZHHH 271900Z AUTO 1 1/4SM 15/15 A3015 RMK T01500150 IEM_DS3505
ZHHH,2001-10-27 20:00,ZHHH 272000Z AUTO 30002KT 1SM 15/15 A3015 RMK T01500150 IEM_DS3505
ZHHH,2001-10-27 21:00,ZHHH 272100Z AUTO 00000KT 15/14 A3015 RMK 70003 SLP211 T01520141 57002 IEM_DS3505
ZHHH,2001-10-27 22:00,ZHHH 272200Z AUTO 04002KT 1/8SM 13/13 A3015 RMK T01300130 IEM_DS3505
ZHHH,2001-10-27 23:00,ZHHH 272300Z AUTO 1/8SM 13/13 A3018 RMK T01300130 IEM_DS3505
ZHHH,2001-10-28 00:00,ZHHH 280000Z AUTO 00000KT 8SM 16/15 A3018 RMK SLP225 T01550147 52014 IEM_DS3505
ZHHH,2001-10-28 01:00,ZHHH 280100Z AUTO 1/4SM 15/15 A3021 RMK T01500150 IEM_DS3505
ZHHH,2001-10-28 02:00,ZHHH 280200Z AUTO 1SM 15/15 A3021 RMK T01500150 IEM_DS3505
ZHHH,2001-10-28 03:00,ZHHH 280300Z AUTO 02002KT 8SM 17/15 A3021 RMK SLP233 T01740151 52008 IEM_DS3505
ZHHH,2001-10-28 04:00,ZHHH 280400Z AUTO 2SM 19/16 A3018 RMK T01900160 IEM_DS3505
ZHHH,2001-10-28 05:00,ZHHH 280500Z AUTO 03006KT 3SM 20/17 A3018 RMK T02000170 IEM_DS3505
ZHHH,2001-10-28 06:00,ZHHH 280600Z AUTO 07004KT 9SM 21/15 A3018 RMK SLP218 T02090154 57015 IEM_DS3505
ZHHH,2001-10-28 07:00,ZHHH 280700Z AUTO 04012KT 1 1/2SM 20/16 A3018 RMK T02000160 IEM_DS3505
ZHHH,2001-10-28 08:00,ZHHH 280800Z AUTO 03010KT 1 1/2SM 19/15 A3018 RMK T01900150 IEM_DS3505
ZHHH,2001-10-28 09:00,ZHHH 280900Z AUTO 04002KT 7SM 19/14 A3018 RMK SLP221 T01930142 52003 IEM_DS3505
ZHHH,2001-10-28 10:00,ZHHH 281000Z AUTO 02006KT 1 1/4SM 18/13 A3018 RMK T01800130 IEM_DS3505
ZHHH,2001-10-28 11:00,ZHHH 281100Z AUTO 04006KT 1 1/4SM 17/13 A3021 RMK T01700130 IEM_DS3505
ZHHH,2001-10-28 12:00,ZHHH 281200Z AUTO 02002KT 11SM 18/13 A3024 RMK SLP241 T01760126 52020 IEM_DS3505
ZHHH,2001-10-28 13:00,ZHHH 281300Z AUTO 2SM 16/13 A3024 RMK T01600130 IEM_DS3505
ZHHH,2001-10-28 14:00,ZHHH 281400Z AUTO 04006KT 2SM 16/12 A3027 RMK T01600120 IEM_DS3505
ZHHH,2001-10-28 15:00,ZHHH 281500Z AUTO 02002KT 11SM 16/12 A3027 RMK SLP249 T01570117 52008 IEM_DS3505
ZHHH,2001-10-28 16:00,ZHHH 281600Z AUTO 2SM 14/11 A3027 RMK T01400110 IEM_DS3505
ZHHH,2001-10-28 17:00,ZHHH 281700Z AUTO 03006KT 2SM 14/11 A3027 RMK T01400110 IEM_DS3505
ZHHH,2001-10-28 18:00,ZHHH 281800Z AUTO 36002KT 11SM 14/10 A3027 RMK SLP248 T01400101 57001 IEM_DS3505
ZHHH,2001-10-28 19:00,ZHHH 281900Z AUTO 03004KT 2SM 12/10 A3024 RMK T01200100 IEM_DS3505
ZHHH,2001-10-28 20:00,ZHHH 282000Z AUTO 03002KT 2SM 12/09 A3024 RMK T01200090 IEM_DS3505
ZHHH,2001-10-28 21:00,ZHHH 282100Z AUTO 02002KT 11SM 13/09 A3024 RMK SLP244 T01280092 57004 IEM_DS3505
ZHHH,2001-10-28 22:00,ZHHH 282200Z AUTO 02006KT 2 1/2SM 11/09 A3024 RMK T01100090 IEM_DS3505
ZHHH,2001-10-28 23:00,ZHHH 282300Z AUTO 4SM 11/08 A3027 RMK T01100080 IEM_DS3505
ZHHH,2001-10-29 00:00,ZHHH 290000Z AUTO 36004KT 12SM 13/09 A3027 RMK SLP255 T01310089 52011 IEM_DS3505
ZHHH,2001-10-29 01:00,ZHHH 290100Z AUTO 6SM 14/09 A3030 RMK T01400090 IEM_DS3505
ZHHH,2001-10-29 02:00,ZHHH 290200Z AUTO 03006KT 6SM 15/09 A3030 RMK T01500090 IEM_DS3505
ZHHH,2001-10-29 03:00,ZHHH 290300Z AUTO 02004KT 12SM 16/10 A3030 RMK SLP257 T01630095 52002 IEM_DS3505
ZHHH,2001-10-29 04:00,ZHHH 290400Z AUTO 6SM 18/10 A3027 RMK T01800100 IEM_DS3505
ZHHH,2001-10-29 05:00,ZHHH 290500Z AUTO 6SM 19/10 A3021 RMK T01900100 IEM_DS3505
ZHHH,2001-10-29 06:00,ZHHH 290600Z AUTO 36004KT 12SM 19/10 A3021 RMK SLP227 T01900095 57030 IEM_DS3505
ZHHH,2001-10-29 07:00,ZHHH 290700Z AUTO 27004KT 6SM 20/10 A3018 RMK T02000100 IEM_DS3505
ZHHH,2001-10-29 08:00,ZHHH 290800Z AUTO 6SM 20/10 A3015 RMK T02000100 IEM_DS3505
ZHHH,2001-10-29 09:00,ZHHH 290900Z AUTO 34002KT 12SM 19/09 A3015 RMK SLP216 T01880087 57011 IEM_DS3505
ZHHH,2001-10-29 10:00,ZHHH 291000Z AUTO 6SM 18/10 A3018 RMK T01800100 IEM_DS3505
ZHHH,2001-10-29 11:00,ZHHH 291100Z AUTO 6SM 17/10 A3018 RMK T01700100 IEM_DS3505
ZHHH,2001-10-29 12:00,ZHHH 291200Z AUTO 00000KT 9SM 15/10 A3018 RMK SLP222 T01480105 52006 IEM_DS3505
ZHHH,2001-10-29 14:00,ZHHH 291400Z AUTO 07006KT 2 1/2SM 14/10 A3018 RMK T01400100 IEM_DS3505
ZHHH,2001-10-29 15:00,ZHHH 291500Z AUTO 04002KT 7SM 15/11 A3018 RMK SLP225 T01460107 52003 IEM_DS3505
ZHHH,2001-10-29 16:00,ZHHH 291600Z AUTO 06006KT 2 1/2SM 13/10 A3018 RMK T01300100 IEM_DS3505
ZHHH,2001-10-29 17:00,ZHHH 291700Z AUTO 06006KT 3SM 12/09 A3018 RMK T01200090 IEM_DS3505
ZHHH,2001-10-29 18:00,ZHHH 291800Z AUTO 07002KT 9SM 13/11 A3018 RMK SLP217 T01330106 57008 IEM_DS3505
ZHHH,2001-10-29 19:00,ZHHH 291900Z AUTO 06004KT 3SM 11/09 A3015 RMK T01100090 IEM_DS3505
ZHHH,2001-10-29 20:00,ZHHH 292000Z AUTO 07004KT 4SM 11/09 A3015 RMK T01100090 IEM_DS3505
ZHHH,2001-10-29 21:00,ZHHH 292100Z AUTO 07002KT 9SM 13/10 A3015 RMK SLP207 T01260099 57010 IEM_DS3505
ZHHH,2001-10-29 22:00,ZHHH 292200Z AUTO 09008KT 6SM 11/09 A3012 RMK T01100090 IEM_DS3505
ZHHH,2001-10-29 23:00,ZHHH 292300Z AUTO 11008KT 6SM 11/09 A3015 RMK T01100090 IEM_DS3505
ZHHH,2001-10-30 00:00,ZHHH 300000Z AUTO 00000KT 11SM 14/12 A3015 RMK SLP216 T01360119 52009 IEM_DS3505
ZHHH,2001-10-30 01:00,ZHHH 300100Z AUTO 12006KT 4SM 14/12 A3018 RMK T01400120 IEM_DS3505
ZHHH,2001-10-30 02:00,ZHHH 300200Z AUTO 13006KT 4SM 17/12 A3018 RMK T01700120 IEM_DS3505
ZHHH,2001-10-30 03:00,ZHHH 300300Z AUTO 11002KT 12SM 19/12 A3015 RMK SLP215 T01930116 57001 IEM_DS3505
ZHHH,2001-10-30 04:00,ZHHH 300400Z AUTO 20/12 A3015 RMK T02000120 IEM_DS3505
ZHHH,2001-10-30 05:00,ZHHH 300500Z AUTO 21/13 A3009 RMK T02100130 IEM_DS3505
ZHHH,2001-10-30 06:00,ZHHH 300600Z AUTO 07002KT 12SM 22/13 A3006 RMK SLP184 T02160131 57031 IEM_DS3505
ZHHH,2001-10-30 07:00,ZHHH 300700Z AUTO 22/13 A3006 RMK T02200130 IEM_DS3505
ZHHH,2001-10-30 08:00,ZHHH 300800Z AUTO 22/14 A3003 RMK T02200140 IEM_DS3505
ZHHH,2001-10-30 09:00,ZHHH 300900Z AUTO 00000KT 12SM 22/13 A3003 RMK SLP172 T02180132 57012 IEM_DS3505
ZHHH,2001-10-30 10:00,ZHHH 301000Z AUTO 10004KT 20/14 A3003 RMK T02000140 IEM_DS3505
ZHHH,2001-10-30 11:00,ZHHH 301100Z AUTO 10006KT 4SM 19/14 A3006 RMK T01900140 IEM_DS3505
ZHHH,2001-10-30 12:00,ZHHH 301200Z AUTO 00000KT 9SM 18/14 A3006 RMK SLP180 T01840143 52008 IEM_DS3505
ZHHH,2001-10-30 13:00,ZHHH 301300Z AUTO 11006KT 4SM 18/14 A3006 RMK T01800140 IEM_DS3505
ZHHH,2001-10-30 14:00,ZHHH 301400Z AUTO 11006KT 4SM 17/14 A3006 RMK T01700140 IEM_DS3505
ZHHH,2001-10-30 15:00,ZHHH 301500Z AUTO 00000KT 8SM 17/14 A3006 RMK SLP184 T01660143 52004 IEM_DS3505
ZHHH,2001-10-30 16:00,ZHHH 301600Z AUTO 11006KT 2 1/2SM 16/14 A3006 RMK T01600140 IEM_DS3505
ZHHH,2001-10-30 17:00,ZHHH 301700Z AUTO 10006KT 2SM 16/14 A3006 RMK T01600140 IEM_DS3505
ZHHH,2001-10-30 18:00,ZHHH 301800Z AUTO 00000KT 7SM 17/15 A3006 RMK SLP181 T01720149 57003 IEM_DS3505
ZHHH,2001-10-30 19:00,ZHHH 301900Z AUTO 11006KT 3SM 16/14 A3003 RMK T01600140 IEM_DS3505
ZHHH,2001-10-30 20:00,ZHHH 302000Z AUTO 05004KT 1 1/2SM 15/14 A3003 RMK T01500140 IEM_DS3505
ZHHH,2001-10-30 21:00,ZHHH 302100Z AUTO 07002KT 6SM 16/15 A3006 RMK 70001 SLP175 T01640152 57006 IEM_DS3505
ZHHH,2001-10-30 22:00,ZHHH 302200Z AUTO 1 1/2SM 15/14 A3006 RMK T01500140 IEM_DS3505
ZHHH,2001-10-30 23:00,ZHHH 302300Z AUTO 08004KT 1 1/4SM 15/14 A3009 RMK T01500140 IEM_DS3505
ZHHH,2001-10-31 00:00,ZHHH 310000Z AUTO 09002KT 5SM 16/15 A3012 RMK 60012 SLP198 T01590154 52023 IEM_DS3505
ZHHH,2001-10-31 01:00,ZHHH 310100Z AUTO 09004KT 1/2SM 15/15 A3012 RMK T01500150 IEM_DS3505
ZHHH,2001-10-31 02:00,ZHHH 310200Z AUTO 1/2SM 15/15 A3015 RMK T01500150 IEM_DS3505
ZHHH,2001-10-31 03:00,ZHHH 310300Z AUTO 07002KT 5SM 16/16 A3012 RMK SLP203 T01620155 52005 IEM_DS3505
ZHHH,2001-10-31 04:00,ZHHH 310400Z AUTO 1 1/4SM 16/16 A3012 RMK T01600160 IEM_DS3505
ZHHH,2001-10-31 05:00,ZHHH 310500Z AUTO 1SM 16/16 A3009 RMK T01600160 IEM_DS3505
ZHHH,2001-10-31 06:00,ZHHH 310600Z AUTO 07002KT 6SM 17/16 A3006 RMK 60012 SLP188 T01670157 57015 IEM_DS3505
ZHHH,2001-10-31 08:00,ZHHH 310800Z AUTO 04004KT 1 1/2SM 17/16 A3009 RMK T01700160 IEM_DS3505
ZHHH,2001-10-31 09:00,ZHHH 310900Z AUTO 04002KT 6SM 17/16 A3009 RMK SLP192 T01720155 52004 IEM_DS3505
ZHHH,2001-10-31 10:00,ZHHH 311000Z AUTO 1 1/2SM 17/16 A3009 RMK T01700160 IEM_DS3505
ZHHH,2001-10-31 11:00,ZHHH 311100Z AUTO 1 1/2SM 17/16 A3012 RMK T01700160 IEM_DS3505
ZHHH,2001-10-31 12:00,ZHHH 311200Z AUTO 36002KT 6SM 17/16 A3015 RMK SLP208 T01690156 52016 IEM_DS3505
ZHHH,2001-10-31 13:00,ZHHH 311300Z AUTO 1 1/4SM 17/16 A3018 RMK T01700160 IEM_DS3505
ZHHH,2001-10-31 14:00,ZHHH 311400Z AUTO 1SM 16/16 A3018 RMK T01600160 IEM_DS3505
ZHHH,2001-10-31 15:00,ZHHH 311500Z AUTO 36002KT 6SM 16/16 A3018 RMK SLP220 T01630156 52012 IEM_DS3505
ZHHH,2001-10-31 16:00,ZHHH 311600Z AUTO 1/2SM 15/15 A3018 RMK T01500150 IEM_DS3505
ZHHH,2001-10-31 17:00,ZHHH 311700Z AUTO 36002KT 3/8SM 15/15 A3018 RMK T01500150 IEM_DS3505
ZHHH,2001-10-31 18:00,ZHHH 311800Z AUTO 29002KT 4SM 15/15 A3018 RMK SLP225 T01540152 52005 IEM_DS3505
ZHHH,2001-10-31 19:00,ZHHH 311900Z AUTO 1/8SM 14/14 A3018 RMK T01400140 IEM_DS3505
ZHHH,2001-10-31 20:00,ZHHH 312000Z AUTO 0SM 13/13 A3021 RMK T01300130 IEM_DS3505
ZHHH,2001-10-31 21:00,ZHHH 312100Z AUTO 02002KT 1/2SM 15/15 A3021 RMK 70023 SLP227 T01460146 52002 IEM_DS3505
ZHHH,2001-10-31 22:00,ZHHH 312200Z AUTO 1/8SM 12/12 A3021 RMK T01200120 IEM_DS3505
ZHHH,2001-10-31 23:00,ZHHH 312300Z AUTO 08004KT 1/4SM 13/13 A3021 RMK T01300130 IEM_DS3505
ZHHH,2001-11-01 00:00,ZHHH 010000Z AUTO 36002KT 7SM 14/14 A3024 RMK 70012 SLP240 T01440137 52013 IEM_DS3505
ZHHH,2001-11-01 01:00,ZHHH 010100Z AUTO 05006KT 1SM 15/15 A3027 RMK T01500150 IEM_DS3505
ZHHH,2001-11-01 02:00,ZHHH 010200Z AUTO 06006KT 1SM 16/15 A3027 RMK T01600150 IEM_DS3505
ZHHH,2001-11-01 03:00,ZHHH 010300Z AUTO 04004KT 9SM 17/14 A3024 RMK SLP247 T01690139 52007 IEM_DS3505
ZHHH,2001-11-01 04:00,ZHHH 010400Z AUTO 05006KT 1 1/4SM 19/15 A3024 RMK T01900150 IEM_DS3505
ZHHH,2001-11-01 05:00,ZHHH 010500Z AUTO 03006KT 1 1/4SM 19/16 A3021 RMK T01900160 IEM_DS3505
ZHHH,2001-11-01 06:00,ZHHH 010600Z AUTO 02004KT 7SM 19/14 A3018 RMK 60003 SLP223 T01900143 57024 IEM_DS3505
ZHHH,2001-11-01 07:00,ZHHH 010700Z AUTO 04008KT 2SM 19/15 A3018 RMK T01900150 IEM_DS3505
ZHHH,2001-11-01 08:00,ZHHH 010800Z AUTO 04008KT 1 1/2SM 18/15 A3018 RMK T01800150 IEM_DS3505
ZHHH,2001-11-01 09:00,ZHHH 010900Z AUTO 04004KT 6SM 18/14 A3018 RMK SLP217 T01760144 57006 IEM_DS3505
ZHHH,2001-11-01 10:00,ZHHH 011000Z AUTO 05010KT 1SM 16/14 A3018 RMK T01600140 IEM_DS3505
ZHHH,2001-11-01 11:00,ZHHH 011100Z AUTO 04010KT 1SM 15/14 A3018 RMK T01500140 IEM_DS3505
ZHHH,2001-11-01 12:00,ZHHH 011200Z AUTO 02004KT 6SM 16/14 A3018 RMK 60000 SLP219 T01570138 52002 IEM_DS3505
ZHHH,2001-11-01 13:00,ZHHH 011300Z AUTO 05008KT 1SM 15/14 A3018 RMK T01500140 IEM_DS3505
ZHHH,2001-11-01 14:00,ZHHH 011400Z AUTO 06010KT 1SM 15/14 A3015 RMK T01500140 IEM_DS3505
ZHHH,2001-11-01 15:00,ZHHH 011500Z AUTO 07002KT 6SM 15/14 A3015 RMK SLP215 T01540139 57004 IEM_DS3505
ZHHH,2001-11-01 16:00,ZHHH 011600Z AUTO 04006KT 1SM 14/14 A3015 RMK T01400140 IEM_DS3505
ZHHH,2001-11-01 17:00,ZHHH 011700Z AUTO 04008KT 1SM 14/14 A3015 RMK T01400140 IEM_DS3505
ZHHH,2001-11-01 18:00,ZHHH 011800Z AUTO 02002KT 6SM 14/13 A3012 RMK 60016 SLP202 T01430132 57013 IEM_DS3505
ZHHH,2001-11-01 19:00,ZHHH 011900Z AUTO 04008KT 1SM 13/12 A3012 RMK T01300120 IEM_DS3505
ZHHH,2001-11-01 20:00,ZHHH 012000Z AUTO 05010KT 1/2SM 12/12 A3009 RMK T01200120 IEM_DS3505
ZHHH,2001-11-01 21:00,ZHHH 012100Z AUTO 07002KT 6SM 14/13 A3009 RMK 70019 SLP188 T01360129 57014 IEM_DS3505
ZHHH,2001-11-01 22:00,ZHHH 012200Z AUTO 04006KT 1SM 12/12 A3009 RMK T01200120 IEM_DS3505
ZHHH,2001-11-01 23:00,ZHHH 012300Z AUTO 02006KT 1SM 12/12 A3009 RMK T01200120 IEM_DS3505
ZHHH,2001-11-02 00:00,ZHHH 020000Z AUTO 02004KT 6SM 13/12 A3009 RMK 60008 SLP197 T01300121 52009 IEM_DS3505
ZHHH,2001-11-02 01:00,ZHHH 020100Z AUTO 1SM 12/12 A3009 RMK T01200120 IEM_DS3505
ZHHH,2001-11-02 02:00,ZHHH 020200Z AUTO 03008KT 1SM 13/12 A3009 RMK T01300120 IEM_DS3505
ZHHH,2001-11-02 03:00,ZHHH 020300Z AUTO 02002KT 6SM 13/12 A3009 RMK SLP192 T01330125 57005 IEM_DS3505
ZHHH,2001-11-02 04:00,ZHHH 020400Z AUTO 02006KT 1SM 13/12 A3006 RMK T01300120 IEM_DS3505
ZHHH,2001-11-02 05:00,ZHHH 020500Z AUTO 02006KT 1 1/2SM 13/13 A3003 RMK T01300130 IEM_DS3505
ZHHH,2001-11-02 06:00,ZHHH 020600Z AUTO 34002KT 5SM 14/13 A3000 RMK 60024 SLP168 T01370130 57024 IEM_DS3505
ZHHH,2001-11-02 07:00,ZHHH 020700Z AUTO 35006KT 1 1/4SM 13/13 A3000 RMK T01300130 IEM_DS3505
ZHHH,2001-11-02 08:00,ZHHH 020800Z AUTO 34006KT 1SM 13/13 A3003 RMK T01300130 IEM_DS3505
ZHHH,2001-11-02 09:00,ZHHH 020900Z AUTO 34004KT 6SM 13/13 A3000 RMK SLP167 T01330126 57001 IEM_DS3505
ZHHH,2001-11-02 10:00,ZHHH 021000Z AUTO 36006KT 1SM 13/13 A3003 RMK T01300130 IEM_DS3505
ZHHH,2001-11-02 11:00,ZHHH 021100Z AUTO 1SM 13/13 A3003 RMK T01300130 IEM_DS3505
ZHHH,2001-11-02 12:00,ZHHH 021200Z AUTO 29002KT 5SM 13/12 A3006 RMK 60020 SLP185 T01320125 52018 IEM_DS3505
ZHHH,2001-11-02 13:00,ZHHH 021300Z AUTO 1 1/2SM 13/13 A3006 RMK T01300130 IEM_DS3505
ZHHH,2001-11-02 14:00,ZHHH 021400Z AUTO 34008KT 1 1/2SM 12/12 A3009 RMK T01200120 IEM_DS3505
ZHHH,2001-11-02 15:00,ZHHH 021500Z AUTO 27004KT 6SM 13/12 A3009 RMK SLP201 T01270115 52016 IEM_DS3505
ZHHH,2001-11-02 16:00,ZHHH 021600Z AUTO 2SM 12/12 A3012 RMK T01200120 IEM_DS3505
ZHHH,2001-11-02 17:00,ZHHH 021700Z AUTO 3SM 12/12 A3009 RMK T01200120 IEM_DS3505
ZHHH,2001-11-02 18:00,ZHHH 021800Z AUTO 00000KT 6SM 13/12 A3012 RMK 60002 SLP202 T01280115 52001 IEM_DS3505
ZHHH,2001-11-02 19:00,ZHHH 021900Z AUTO 34010KT 4SM 12/12 A3012 RMK T01200120 IEM_DS3505
ZHHH,2001-11-02 20:00,ZHHH 022000Z AUTO 34008KT 4SM 12/12 A3015 RMK T01200120 IEM_DS3505
ZHHH,2001-11-02 21:00,ZHHH 022100Z AUTO 34002KT 7SM 13/11 A3015 RMK 70048 SLP215 T01270114 52013 IEM_DS3505
ZHHH,2001-11-02 23:00,ZHHH 022300Z AUTO 34006KT 2 1/2SM 12/11 A3018 RMK T01200110 IEM_DS3505
ZHHH,2001-11-03 00:00,ZHHH 030000Z AUTO 32002KT 7SM 13/11 A3021 RMK 70046 SLP232 T01280113 52016 IEM_DS3505
ZHHH,2001-11-03 01:00,ZHHH 030100Z AUTO 36006KT 2SM 13/12 A3021 RMK T01300120 IEM_DS3505
ZHHH,2001-11-03 02:00,ZHHH 030200Z AUTO 01006KT 7SM 13/12 A3024 RMK T01300120 IEM_DS3505
ZHHH,2001-11-03 03:00,ZHHH 030300Z AUTO 36004KT 9SM 14/12 A3024 RMK SLP239 T01360115 52007 IEM_DS3505
ZHHH,2001-11-03 04:00,ZHHH 030400Z AUTO 02006KT 7SM 14/12 A3021 RMK T01400120 IEM_DS3505
ZHHH,2001-11-03 05:00,ZHHH 030500Z AUTO 02006KT 7SM 15/12 A3018 RMK T01500120 IEM_DS3505
ZHHH,2001-11-03 06:00,ZHHH 030600Z AUTO 04002KT 7SM 15/12 RMK 60003 SLP227 T01500115 57011 IEM_DS3505
ZHHH,2001-11-03 07:00,ZHHH 030700Z AUTO 05008KT 7SM 14/12 A3018 RMK T01400120 IEM_DS3505
ZHHH,2001-11-03 08:00,ZHHH 030800Z AUTO 04006KT 7SM 14/12 A3021 RMK T01400120 IEM_DS3505
ZHHH,2001-11-03 09:00,ZHHH 030900Z AUTO 02004KT 6SM 14/13 A3018 RMK SLP225 T01390129 57002 IEM_DS3505
ZHHH,2001-11-03 10:00,ZHHH 031000Z AUTO 05006KT 7SM 14/13 A3018 RMK T01400130 IEM_DS3505
ZHHH,2001-11-03 11:00,ZHHH 031100Z AUTO 07006KT 7SM 14/13 A3018 RMK T01400130 IEM_DS3505
ZHHH,2001-11-03 12:00,ZHHH 031200Z AUTO 00000KT 7SM 14/13 A3018 RMK 60003 SLP227 T01410131 52002 IEM_DS3505
ZHHH,2001-11-03 13:00,ZHHH 031300Z AUTO 4SM 14/12 A3021 RMK T01400120 IEM_DS3505
ZHHH,2001-11-03 14:00,ZHHH 031400Z AUTO 4SM 13/12 A3021 RMK T01300120 IEM_DS3505
ZHHH,2001-11-03 15:00,ZHHH 031500Z AUTO 07002KT 7SM 14/12 A3021 RMK SLP233 T01390122 52006 IEM_DS3505
ZHHH,2001-11-03 16:00,ZHHH 031600Z AUTO 07008KT 4SM 13/12 A3021 RMK T01300120 IEM_DS3505
ZHHH,2001-11-03 17:00,ZHHH 031700Z AUTO 06006KT 4SM 13/12 A3021 RMK T01300120 IEM_DS3505
ZHHH,2001-11-03 18:00,ZHHH 031800Z AUTO 04002KT 9SM 14/12 A3021 RMK SLP228 T01370117 57005 IEM_DS3505
ZHHH,2001-11-03 19:00,ZHHH 031900Z AUTO 05006KT 4SM 13/12 A3018 RMK T01300120 IEM_DS3505
ZHHH,2001-11-03 20:00,ZHHH 032000Z AUTO 05008KT 4SM 13/12 A3018 RMK T01300120 IEM_DS3505
ZHHH,2001-11-03 21:00,ZHHH 032100Z AUTO 04004KT 7SM 13/12 A3015 RMK 70000 SLP215 T01330118 57013 IEM_DS3505
ZHHH,2001-11-03 22:00,ZHHH 032200Z AUTO 04006KT 3SM 12/12 A3015 RMK T01200120 IEM_DS3505
ZHHH,2001-11-03 23:00,ZHHH 032300Z AUTO 04004KT 4SM 12/12 A3018 RMK T01200120 IEM_DS3505
ZHHH,2001-11-04 00:00,ZHHH 040000Z AUTO 07004KT 8SM 13/12 A3018 RMK 60004 SLP221 T01300117 52006 IEM_DS3505
ZHHH,2001-11-04 01:00,ZHHH 040100Z AUTO 05006KT 7SM 13/12 A3018 RMK T01300120 IEM_DS3505
ZHHH,2001-11-04 02:00,ZHHH 040200Z AUTO 6SM 13/12 A3021 RMK T01300120 IEM_DS3505
ZHHH,2001-11-04 03:00,ZHHH 040300Z AUTO 36004KT 9SM 14/12 A3018 RMK SLP225 T01380121 52004 IEM_DS3505
ZHHH,2001-11-04 04:00,ZHHH 040400Z AUTO 01006KT 7SM 14/13 A3015 RMK T01400130 IEM_DS3505
ZHHH,2001-11-04 05:00,ZHHH 040500Z AUTO 35008KT 7SM 14/13 A3015 RMK T01400130 IEM_DS3505
ZHHH,2001-11-04 06:00,ZHHH 040600Z AUTO 32002KT 9SM 14/13 A3012 RMK 60003 SLP207 T01440127 57018 IEM_DS3505
ZHHH,2001-11-04 07:00,ZHHH 040700Z AUTO 01006KT 7SM 14/13 A3012 RMK T01400130 IEM_DS3505
ZHHH,2001-11-04 08:00,ZHHH 040800Z AUTO 36006KT 7SM 14/13 A3015 RMK T01400130 IEM_DS3505
ZHHH,2001-11-04 09:00,ZHHH 040900Z AUTO 34002KT 7SM 14/13 A3015 RMK SLP211 T01420129 52004 IEM_DS3505
ZHHH,2001-11-04 10:00,ZHHH 041000Z AUTO 36006KT 7SM 14/13 A3015 RMK T01400130 IEM_DS3505
ZHHH,2001-11-04 11:00,ZHHH 041100Z AUTO 36006KT 4SM 14/13 A3015 RMK T01400130 IEM_DS3505
ZHHH,2001-11-04 12:00,ZHHH 041200Z AUTO 00000KT 6SM 14/13 A3018 RMK 60004 SLP224 T01400132 52013 IEM_DS3505
ZHHH,2001-11-04 13:00,ZHHH 041300Z AUTO 2 1/2SM 13/13 A3021 RMK T01300130 IEM_DS3505
ZHHH,2001-11-04 14:00,ZHHH 041400Z AUTO 02006KT 2SM 13/12 A3024 RMK T01300120 IEM_DS3505
ZHHH,2001-11-04 15:00,ZHHH 041500Z AUTO 32002KT 6SM 13/13 A3024 RMK SLP245 T01330127 52020 IEM_DS3505
ZHHH,2001-11-04 18:00,ZHHH 041800Z AUTO 32002KT 6SM 13/12 RMK 60028 SLP248 T01290120 52003 IEM_DS3505
ZHHH,2001-11-04 21:00,ZHHH 042100Z AUTO 29002KT 6SM 13/12 RMK 70037 SLP257 T01280117 52009 IEM_DS3505
ZHHH,2001-11-04 23:00,ZHHH 042300Z AUTO 1SM 12/11 A3030 RMK T01200110 IEM_DS3505
ZHHH,2001-11-05 00:00,ZHHH 050000Z AUTO 27002KT 7SM 13/12 A3033 RMK 60000 SLP281 T01320120 52024 IEM_DS3505
ZHHH,2001-11-05 01:00,ZHHH 050100Z AUTO 1 1/4SM 13/12 A3036 RMK T01300120 IEM_DS3505
ZHHH,2001-11-05 02:00,ZHHH 050200Z AUTO 1 1/2SM 14/13 A3039 RMK T01400130 IEM_DS3505
ZHHH,2001-11-05 03:00,ZHHH 050300Z AUTO 34004KT 9SM 16/11 RMK SLP297 T01650107 52016 IEM_DS3505
ZHHH,2001-11-05 04:00,ZHHH 050400Z AUTO 03012KT 6SM 18/03 A3039 RMK T01800030 IEM_DS3505
ZHHH,2001-11-05 05:00,ZHHH 050500Z AUTO 04012KT 6SM 18/05 A3039 RMK T01800050 IEM_DS3505
ZHHH,2001-11-05 06:00,ZHHH 050600Z AUTO 04004KT 11SM 19/03 A3039 RMK SLP286 T01910026 57010 IEM_DS3505
ZHHH,2001-11-05 07:00,ZHHH 050700Z AUTO 04010KT 6SM 18/02 A3039 RMK T01800020 IEM_DS3505
ZHHH,2001-11-05 08:00,ZHHH 050800Z AUTO 05012KT 6SM 18/02 A3039 RMK T01800020 IEM_DS3505
ZHHH,2001-11-05 09:00,ZHHH 050900Z AUTO 04004KT 9SM 17/03 A3039 RMK SLP292 T01720026 52006 IEM_DS3505
ZHHH,2001-11-05 10:00,ZHHH 051000Z AUTO 05012KT 6SM 15/03 A3042 RMK T01500030 IEM_DS3505
ZHHH,2001-11-05 11:00,ZHHH 051100Z AUTO 05008KT 6SM 14/03 A3042 RMK T01400030 IEM_DS3505
ZHHH,2001-11-05 12:00,ZHHH 051200Z AUTO 04002KT 9SM 13/05 A3045 RMK SLP312 T01330047 52019 IEM_DS3505
ZHHH,2001-11-05 13:00,ZHHH 051300Z AUTO 07008KT 6SM 12/06 A3045 RMK T01200060 IEM_DS3505
ZHHH,2001-11-05 14:00,ZHHH 051400Z AUTO 08008KT 6SM 11/06 A3047 RMK T01100060 IEM_DS3505
ZHHH,2001-11-05 15:00,ZHHH 051500Z AUTO 06006KT 6SM 11/05 A3047 RMK T01100050 IEM_DS3505
ZHHH,2001-11-05 16:00,ZHHH 051600Z AUTO 06006KT 6SM 11/04 A3045 RMK T01100040 IEM_DS3505
ZHHH,2001-11-05 17:00,ZHHH 051700Z AUTO 03004KT 6SM 10/04 A3045 RMK T01000040 IEM_DS3505
ZHHH,2001-11-05 18:00,ZHHH 051800Z AUTO 02004KT 9SM 10/05 A3045 RMK SLP319 T01020048 57001 IEM_DS3505
ZHHH,2001-11-05 19:00,ZHHH 051900Z AUTO 6SM 09/04 A3045 RMK T00900040 IEM_DS3505
ZHHH,2001-11-05 20:00,ZHHH 052000Z AUTO 06004KT 6SM 08/04 A3045 RMK T00800040 IEM_DS3505
ZHHH,2001-11-05 21:00,ZHHH 052100Z AUTO 00000KT 9SM 09/05 A3045 RMK 70003 SLP315 T00860053 57004 IEM_DS3505
ZHHH,2001-11-05 22:00,ZHHH 052200Z AUTO 07006KT 6SM 08/03 A3045 RMK T00800030 IEM_DS3505
ZHHH,2001-11-05 23:00,ZHHH 052300Z AUTO 06006KT 6SM 07/03 A3047 RMK T00700030 IEM_DS3505
ZHHH,2001-11-06 00:00,ZHHH 060000Z AUTO 02002KT 11SM 10/04 A3047 RMK SLP328 T01000045 52013 IEM_DS3505
ZHHH,2001-11-06 01:00,ZHHH 060100Z AUTO 05008KT 6SM 12/01 A3050 RMK T01200010 IEM_DS3505
ZHHH,2001-11-06 02:00,ZHHH 060200Z AUTO 08006KT 6SM 13/00 A3050 RMK T01300000 IEM_DS3505
ZHHH,2001-11-06 03:00,ZHHH 060300Z AUTO 09002KT 12SM 15/M00 A3050 RMK SLP329 T01541001 52001 IEM_DS3505
ZHHH,2001-11-06 04:00,ZHHH 060400Z AUTO 13006KT 6SM 15/M04 A3047 RMK T01501040 IEM_DS3505
ZHHH,2001-11-06 05:00,ZHHH 060500Z AUTO 10006KT 6SM 16/M03 A3042 RMK T01601030 IEM_DS3505
ZHHH,2001-11-06 06:00,ZHHH 060600Z AUTO 09004KT 12SM 17/M02 A3042 RMK SLP297 T01681020 57032 IEM_DS3505
ZHHH,2001-11-06 07:00,ZHHH 060700Z AUTO 11004KT 6SM 16/M01 A3039 RMK T01601010 IEM_DS3505
ZHHH,2001-11-06 08:00,ZHHH 060800Z AUTO 6SM 16/M01 A3039 RMK T01601010 IEM_DS3505
ZHHH,2001-11-06 09:00,ZHHH 060900Z AUTO 07002KT 11SM 15/M00 A3036 RMK SLP285 T01511001 57012 IEM_DS3505
ZHHH,2001-11-06 10:00,ZHHH 061000Z AUTO 6SM 14/01 A3036 RMK T01400010 IEM_DS3505
ZHHH,2001-11-06 11:00,ZHHH 061100Z AUTO 6SM 14/03 A3036 RMK T01400030 IEM_DS3505
ZHHH,2001-11-06 12:00,ZHHH 061200Z AUTO 00000KT 9SM 14/04 A3039 RMK SLP289 T01380036 52004 IEM_DS3505
ZHHH,2001-11-06 13:00,ZHHH 061300Z AUTO 05004KT 6SM 13/04 A3036 RMK T01300040 IEM_DS3505
ZHHH,2001-11-06 14:00,ZHHH 061400Z AUTO 05006KT 6SM 13/04 A3036 RMK T01300040 IEM_DS3505
ZHHH,2001-11-06 15:00,ZHHH 061500Z AUTO 04002KT 9SM 13/06 A3036 RMK SLP282 T01270065 57007 IEM_DS3505
ZHHH,2001-11-06 16:00,ZHHH 061600Z AUTO 06004KT 6SM 12/05 A3036 RMK T01200050 IEM_DS3505
ZHHH,2001-11-06 17:00,ZHHH 061700Z AUTO 05006KT 6SM 11/05 A3033 RMK T01100050 IEM_DS3505
ZHHH,2001-11-06 18:00,ZHHH 061800Z AUTO 07002KT 9SM 11/06 A3033 RMK SLP273 T01140056 57009 IEM_DS3505
ZHHH,2001-11-06 19:00,ZHHH 061900Z AUTO 11004KT 6SM 10/05 A3030 RMK T01000050 IEM_DS3505
ZHHH,2001-11-06 20:00,ZHHH 062000Z AUTO 10006KT 6SM 09/05 A3030 RMK T00900050 IEM_DS3505
ZHHH,2001-11-06 21:00,ZHHH 062100Z AUTO 00000KT 9SM 10/07 A3030 RMK SLP263 T00970069 57010 IEM_DS3505
ZHHH,2001-11-06 22:00,ZHHH 062200Z AUTO 07006KT 6SM 08/04 A3030 RMK T00800040 IEM_DS3505
ZHHH,2001-11-06 23:00,ZHHH 062300Z AUTO 09004KT 6SM 08/04 A3033 RMK T00800040 IEM_DS3505
ZHHH,2001-11-07 00:00,ZHHH 070000Z AUTO 00000KT 12SM 11/08 A3033 RMK SLP272 T01140078 52009 IEM_DS3505
ZHHH,2001-11-07 01:00,ZHHH 070100Z AUTO 09006KT 6SM 11/07 A3033 RMK T01100070 IEM_DS3505
ZHHH,2001-11-07 02:00,ZHHH 070200Z AUTO 6SM 13/06 A3033 RMK T01300060 IEM_DS3505
ZHHH,2001-11-07 03:00,ZHHH 070300Z AUTO 09002KT 11SM 16/03 A3030 RMK SLP266 T01590030 57005 IEM_DS3505
ZHHH,2001-11-07 04:00,ZHHH 070400Z AUTO 6SM 16/06 A3030 RMK T01600060 IEM_DS3505
ZHHH,2001-11-07 05:00,ZHHH 070500Z AUTO 6SM 17/05 A3024 RMK T01700050 IEM_DS3505
ZHHH,2001-11-07 06:00,ZHHH 070600Z AUTO 36004KT 12SM 17/04 A3021 RMK SLP230 T01740040 57036 IEM_DS3505
ZHHH,2001-11-07 07:00,ZHHH 070700Z AUTO 6SM 18/05 A3021 RMK T01800050 IEM_DS3505
ZHHH,2001-11-07 08:00,ZHHH 070800Z AUTO 6SM 17/04 A3021 RMK T01700040 IEM_DS3505
ZHHH,2001-11-07 09:00,ZHHH 070900Z AUTO 00000KT 11SM 16/04 A3018 RMK SLP223 T01650036 57007 IEM_DS3505
ZHHH,2001-11-07 10:00,ZHHH 071000Z AUTO 6SM 15/05 A3018 RMK T01500050 IEM_DS3505
ZHHH,2001-11-07 11:00,ZHHH 071100Z AUTO 06002KT 6SM 15/04 A3021 RMK T01500040 IEM_DS3505
ZHHH,2001-11-07 12:00,ZHHH 071200Z AUTO 00000KT 12SM 14/07 A3021 RMK SLP233 T01350073 52009 IEM_DS3505
ZHHH,2001-11-07 13:00,ZHHH 071300Z AUTO 35004KT 6SM 13/05 A3024 RMK T01300050 IEM_DS3505
ZHHH,2001-11-07 14:00,ZHHH 071400Z AUTO 01004KT 6SM 13/04 A3021 RMK T01300040 IEM_DS3505
ZHHH,2001-11-07 15:00,ZHHH 071500Z AUTO 00000KT 11SM 13/07 A3024 RMK SLP238 T01300071 52006 IEM_DS3505
ZHHH,2001-11-07 16:00,ZHHH 071600Z AUTO 04004KT 6SM 12/06 A3021 RMK T01200060 IEM_DS3505
ZHHH,2001-11-07 17:00,ZHHH 071700Z AUTO 05004KT 6SM 11/06 A3021 RMK T01100060 IEM_DS3505
ZHHH,2001-11-07 18:00,ZHHH 071800Z AUTO 00000KT 9SM 12/07 A3021 RMK SLP232 T01240067 57006 IEM_DS3505
ZHHH,2001-11-07 19:00,ZHHH 071900Z AUTO 01002KT 6SM 11/06 A3021 RMK T01100060 IEM_DS3505
ZHHH,2001-11-07 20:00,ZHHH 072000Z AUTO 6SM 10/07 A3021 RMK T01000070 IEM_DS3505
ZHHH,2001-11-07 21:00,ZHHH 072100Z AUTO 00000KT 9SM 12/08 A3021 RMK SLP231 T01190079 57001 IEM_DS3505
ZHHH,2001-11-07 22:00,ZHHH 072200Z AUTO 36002KT 6SM 11/07 A3021 RMK T01100070 IEM_DS3505
ZHHH,2001-11-07 23:00,ZHHH 072300Z AUTO 6SM 10/07 A3021 RMK T01000070 IEM_DS3505
ZHHH,2001-11-08 00:00,ZHHH 080000Z AUTO 27004KT 9SM 12/09 A3024 RMK SLP246 T01180088 52014 IEM_DS3505
ZHHH,2001-11-08 01:00,ZHHH 080100Z AUTO 6SM 12/08 A3027 RMK T01200080 IEM_DS3505
ZHHH,2001-11-08 02:00,ZHHH 080200Z AUTO 6SM 14/08 A3027 RMK T01400080 IEM_DS3505
ZHHH,2001-11-08 03:00,ZHHH 080300Z AUTO 27004KT 11SM 17/04 A3027 RMK SLP250 T01730037 52005 IEM_DS3505
ZHHH,2001-11-08 04:00,ZHHH 080400Z AUTO 6SM 16/07 A3024 RMK T01600070 IEM_DS3505
ZHHH,2001-11-08 05:00,ZHHH 080500Z AUTO 32006KT 6SM 18/06 A3021 RMK T01800060 IEM_DS3505
ZHHH,2001-11-08 06:00,ZHHH 080600Z AUTO 34002KT 11SM 18/04 A3021 RMK SLP230 T01820037 57020 IEM_DS3505
ZHHH,2001-11-08 07:00,ZHHH 080700Z AUTO 6SM 18/05 A3018 RMK T01800050 IEM_DS3505
ZHHH,2001-11-08 08:00,ZHHH 080800Z AUTO 6SM 18/05 A3018 RMK T01800050 IEM_DS3505
ZHHH,2001-11-08 09:00,ZHHH 080900Z AUTO 00000KT 11SM 17/04 A3021 RMK SLP232 T01690044 52002 IEM_DS3505
ZHHH,2001-11-08 10:00,ZHHH 081000Z AUTO 31004KT 6SM 16/07 A3021 RMK T01600070 IEM_DS3505
ZHHH,2001-11-08 11:00,ZHHH 081100Z AUTO 6SM 15/10 A3021 RMK T01500100 IEM_DS3505
ZHHH,2001-11-08 12:00,ZHHH 081200Z AUTO 00000KT 9SM 16/08 A3024 RMK SLP243 T01570084 52011 IEM_DS3505
ZHHH,2001-11-08 13:00,ZHHH 081300Z AUTO 01002KT 6SM 15/10 A3027 RMK T01500100 IEM_DS3505
ZHHH,2001-11-08 14:00,ZHHH 081400Z AUTO 04004KT 6SM 15/08 A3027 RMK T01500080 IEM_DS3505
ZHHH,2001-11-08 15:00,ZHHH 081500Z AUTO 34002KT 9SM 15/09 A3027 RMK SLP257 T01500093 52014 IEM_DS3505
ZHHH,2001-11-08 16:00,ZHHH 081600Z AUTO 02006KT 6SM 15/07 A3030 RMK T01500070 IEM_DS3505
ZHHH,2001-11-08 17:00,ZHHH 081700Z AUTO 04004KT 6SM 14/08 A3030 RMK T01400080 IEM_DS3505
ZHHH,2001-11-08 18:00,ZHHH 081800Z AUTO 34002KT 7SM 14/08 A3030 RMK SLP260 T01450081 52003 IEM_DS3505
ZHHH,2001-11-08 19:00,ZHHH 081900Z AUTO 6SM 13/07 A3030 RMK T01300070 IEM_DS3505
ZHHH,2001-11-08 20:00,ZHHH 082000Z AUTO 02006KT 6SM 12/06 A3030 RMK T01200060 IEM_DS3505
ZHHH,2001-11-08 21:00,ZHHH 082100Z AUTO 36002KT 6SM 12/06 A3030 RMK SLP266 T01250065 52006 IEM_DS3505
ZHHH,2001-11-08 22:00,ZHHH 082200Z AUTO 02006KT 4SM 11/07 A3033 RMK T01100070 IEM_DS3505
ZHHH,2001-11-08 23:00,ZHHH 082300Z AUTO 1 1/2SM 10/07 A3036 RMK T01000070 IEM_DS3505
ZHHH,2001-11-09 00:00,ZHHH 090000Z AUTO 36004KT 12SM 12/08 A3039 RMK SLP294 T01220077 52027 IEM_DS3505
ZHHH,2001-11-09 01:00,ZHHH 090100Z AUTO 03008KT 3SM 13/07 A3042 RMK T01300070 IEM_DS3505
ZHHH,2001-11-09 02:00,ZHHH 090200Z AUTO 03012KT 3SM 14/08 A3042 RMK T01400080 IEM_DS3505
ZHHH,2001-11-09 03:00,ZHHH 090300Z AUTO 36006KT 12SM 15/08 A3042 RMK SLP294 T01510080 52001 IEM_DS3505
ZHHH,2001-11-09 04:00,ZHHH 090400Z AUTO 02010KT 15/08 A3039 RMK T01500080 IEM_DS3505
ZHHH,2001-11-09 05:00,ZHHH 090500Z AUTO 02010KT 4SM 16/08 A3039 RMK T01600080 IEM_DS3505
ZHHH,2001-11-09 06:00,ZHHH 090600Z AUTO 04008KT 12SM 17/08 A3036 RMK SLP279 T01700075 57015 IEM_DS3505
ZHHH,2001-11-09 07:00,ZHHH 090700Z AUTO 02010KT 3SM 17/08 A3033 RMK T01700080 IEM_DS3505
ZHHH,2001-11-09 08:00,ZHHH 090800Z AUTO 04010KT 3SM 16/08 A3033 RMK T01600080 IEM_DS3505
ZHHH,2001-11-09 09:00,ZHHH 090900Z AUTO 02004KT 11SM 15/08 A3033 RMK SLP265 T01510081 57015 IEM_DS3505
ZHHH,2001-11-09 10:00,ZHHH 091000Z AUTO 04012KT 3SM 13/08 A3030 RMK T01300080 IEM_DS3505
ZHHH,2001-11-09 11:00,ZHHH 091100Z AUTO 04014KT 3SM 12/07 A3030 RMK T01200070 IEM_DS3505
ZHHH,2001-11-09 12:00,ZHHH 091200Z AUTO 02004KT 11SM 13/07 A3033 RMK SLP276 T01260074 52011 IEM_DS3505
ZHHH,2001-11-09 13:00,ZHHH 091300Z AUTO 04008KT 2 1/2SM 12/07 A3033 RMK T01200070 IEM_DS3505
ZHHH,2001-11-09 14:00,ZHHH 091400Z AUTO 03008KT 2SM 11/07 A3036 RMK T01100070 IEM_DS3505
ZHHH,2001-11-09 15:00,ZHHH 091500Z AUTO 04002KT 11SM 12/07 A3036 RMK SLP289 T01220073 52013 IEM_DS3505
ZHHH,2001-11-09 17:00,ZHHH 091700Z AUTO 02004KT 1 1/2SM 10/08 A3036 RMK T01000080 IEM_DS3505
ZHHH,2001-11-09 18:00,ZHHH 091800Z AUTO 04002KT 9SM 12/08 A3033 RMK SLP273 T01150075 57016 IEM_DS3505
ZHHH,2001-11-09 19:00,ZHHH 091900Z AUTO 03004KT 1 1/2SM 10/07 A3033 RMK T01000070 IEM_DS3505
ZHHH,2001-11-09 20:00,ZHHH 092000Z AUTO 1 1/2SM 10/07 A3030 RMK T01000070 IEM_DS3505
ZHHH,2001-11-09 21:00,ZHHH 092100Z AUTO 00000KT 9SM 11/07 A3030 RMK SLP266 T01060069 57007 IEM_DS3505
ZHHH,2001-11-09 22:00,ZHHH 092200Z AUTO 02004KT 1 1/2SM 10/07 A3030 RMK T01000070 IEM_DS3505
ZHHH,2001-11-09 23:00,ZHHH 092300Z AUTO 1 1/2SM 09/07 A3030 RMK T00900070 IEM_DS3505
ZHHH,2001-11-10 00:00,ZHHH 100000Z AUTO 00000KT 9SM 11/07 A3033 RMK SLP272 T01080066 52006 IEM_DS3505
ZHHH,2001-11-10 01:00,ZHHH 100100Z AUTO 3SM 11/06 A3033 RMK T01100060 IEM_DS3505
ZHHH,2001-11-10 02:00,ZHHH 100200Z AUTO 6SM 13/06 A3033 RMK T01300060 IEM_DS3505
ZHHH,2001-11-10 03:00,ZHHH 100300Z AUTO 11004KT 9SM 15/03 A3030 RMK SLP267 T01500032 57005 IEM_DS3505
ZHHH,2001-11-10 04:00,ZHHH 100400Z AUTO 6SM 16/04 A3027 RMK T01600040 IEM_DS3505
ZHHH,2001-11-10 05:00,ZHHH 100500Z AUTO 6SM 16/05 A3024 RMK T01600050 IEM_DS3505
ZHHH,2001-11-10 06:00,ZHHH 100600Z AUTO 00000KT 12SM 18/04 A3021 RMK SLP231 T01750044 57035 IEM_DS3505
ZHHH,2001-11-10 07:00,ZHHH 100700Z AUTO 6SM 17/03 A3021 RMK T01700030 IEM_DS3505
ZHHH,2001-11-10 08:00,ZHHH 100800Z AUTO 29002KT 6SM 16/02 A3018 RMK T01600020 IEM_DS3505
ZHHH,2001-11-10 09:00,ZHHH 100900Z AUTO 00000KT 12SM 16/04 A3018 RMK SLP225 T01650045 57006 IEM_DS3505
ZHHH,2001-11-10 10:00,ZHHH 101000Z AUTO 6SM 16/01 A3018 RMK T01600010 IEM_DS3505
ZHHH,2001-11-10 11:00,ZHHH 101100Z AUTO 23002KT 6SM 15/03 A3021 RMK T01500030 IEM_DS3505
ZHHH,2001-11-10 12:00,ZHHH 101200Z AUTO 00000KT 11SM 15/06 A3021 RMK SLP236 T01480062 52010 IEM_DS3505
ZHHH,2001-11-10 13:00,ZHHH 101300Z AUTO 26002KT 6SM 14/07 A3021 RMK T01400070 IEM_DS3505
ZHHH,2001-11-10 14:00,ZHHH 101400Z AUTO 26004KT 6SM 12/09 A3024 RMK T01200090 IEM_DS3505
ZHHH,2001-11-10 15:00,ZHHH 101500Z AUTO 25002KT 11SM 13/08 A3021 RMK SLP238 T01260083 52003 IEM_DS3505
ZHHH,2001-11-10 16:00,ZHHH 101600Z AUTO 28004KT 6SM 11/09 A3021 RMK T01100090 IEM_DS3505
ZHHH,2001-11-10 17:00,ZHHH 101700Z AUTO 2SM 11/09 A3021 RMK T01100090 IEM_DS3505
ZHHH,2001-11-10 18:00,ZHHH 101800Z AUTO 25002KT 9SM 11/08 A3018 RMK SLP228 T01110078 57010 IEM_DS3505
ZHHH,2001-11-10 19:00,ZHHH 101900Z AUTO 2SM 10/08 A3018 RMK T01000080 IEM_DS3505
ZHHH,2001-11-10 20:00,ZHHH 102000Z AUTO 2SM 10/08 A3018 RMK T01000080 IEM_DS3505
ZHHH,2001-11-10 21:00,ZHHH 102100Z AUTO 00000KT 9SM 10/07 A3018 RMK SLP224 T01040070 57004 IEM_DS3505
ZHHH,2001-11-10 23:00,ZHHH 102300Z AUTO 19002KT 1 1/4SM 09/08 A3021 RMK T00900080 IEM_DS3505
ZHHH,2001-11-11 00:00,ZHHH 110000Z AUTO 16002KT 11SM 11/09 A3021 RMK SLP239 T01100090 52014 IEM_DS3505
ZHHH,2001-11-11 01:00,ZHHH 110100Z AUTO 1 1/4SM 12/09 A3024 RMK T01200090 IEM_DS3505
ZHHH,2001-11-11 02:00,ZHHH 110200Z AUTO 23006KT 1 1/4SM 13/09 A3024 RMK T01300090 IEM_DS3505
ZHHH,2001-11-11 03:00,ZHHH 110300Z AUTO 22002KT 12SM 15/09 A3021 RMK SLP236 T01540094 57002 IEM_DS3505
ZHHH,2001-11-11 04:00,ZHHH 110400Z AUTO 25006KT 1 1/2SM 16/10 A3021 RMK T01600100 IEM_DS3505
ZHHH,2001-11-11 05:00,ZHHH 110500Z AUTO 2SM 17/10 A3018 RMK T01700100 IEM_DS3505
ZHHH,2001-11-11 06:00,ZHHH 110600Z AUTO 2SM 19/10 A3015 RMK T01900100 IEM_DS3505
ZHHH,2001-11-11 07:00,ZHHH 110700Z AUTO 2SM 19/10 A3015 RMK T01900100 IEM_DS3505
ZHHH,2001-11-11 08:00,ZHHH 110800Z AUTO 2SM 19/10 A3015 RMK T01900100 IEM_DS3505
ZHHH,2001-11-11 09:00,ZHHH 110900Z AUTO 00000KT 12SM 18/11 A3015 RMK SLP211 T01830109 54000 IEM_DS3505
ZHHH,2001-11-11 10:00,ZHHH 111000Z AUTO 1 1/2SM 16/10 A3015 RMK T01600100 IEM_DS3505
ZHHH,2001-11-11 11:00,ZHHH 111100Z AUTO 1 1/4SM 16/10 A3015 RMK T01600100 IEM_DS3505
ZHHH,2001-11-11 12:00,ZHHH 111200Z AUTO 1SM 15/11 A3018 RMK T01500110 IEM_DS3505
ZHHH,2001-11-11 13:00,ZHHH 111300Z AUTO 1SM 15/10 A3021 RMK T01500100 IEM_DS3505
ZHHH,2001-11-11 14:00,ZHHH 111400Z AUTO 1SM 14/11 A3021 RMK T01400110 IEM_DS3505
ZHHH,2001-11-11 15:00,ZHHH 111500Z AUTO 00000KT 9SM 11/10 A3021 RMK SLP234 T01140105 52008 IEM_DS3505
ZHHH,2001-11-11 16:00,ZHHH 111600Z AUTO 1SM 12/10 A3021 RMK T01200100 IEM_DS3505
ZHHH,2001-11-11 17:00,ZHHH 111700Z AUTO 10004G14KT 1/2SM 11/10 A3021 RMK T01100100 IEM_DS3505
ZHHH,2001-11-11 18:00,ZHHH 111800Z AUTO 00000KT 4SM 11/11 A3021 RMK SLP237 T01140107 52003 IEM_DS3505
ZHHH,2001-11-11 19:00,ZHHH 111900Z AUTO 10008KT 1SM 10/09 A3024 RMK T01000090 IEM_DS3505
ZHHH,2001-11-11 20:00,ZHHH 112000Z AUTO 1SM 10/08 A3024 RMK T01000080 IEM_DS3505
ZHHH,2001-11-11 21:00,ZHHH 112100Z AUTO 00000KT 7SM 10/10 A3021 RMK SLP236 T01020095 57001 IEM_DS3505
ZHHH,2001-11-11 22:00,ZHHH 112200Z AUTO 06006KT 1SM 09/08 A3024 RMK T00900080 IEM_DS3505
ZHHH,2001-11-11 23:00,ZHHH 112300Z AUTO 3/8SM 08/08 A3024 RMK T00800080 IEM_DS3505
ZHHH,2001-11-12 00:00,ZHHH 120000Z AUTO 07002KT 1/2SM 10/10 A3024 RMK SLP245 T01050104 52008 IEM_DS3505
ZHHH,2001-11-12 01:00,ZHHH 120100Z AUTO 07008KT 1SM 10/09 A3024 RMK T01000090 IEM_DS3505
ZHHH,2001-11-12 02:00,ZHHH 120200Z AUTO 09006KT 1SM 12/10 A3024 RMK T01200100 IEM_DS3505
ZHHH,2001-11-12 03:00,ZHHH 120300Z AUTO 00000KT 4SM 14/12 A3024 RMK SLP247 T01450118 52002 IEM_DS3505
ZHHH,2001-11-12 04:00,ZHHH 120400Z AUTO 1 1/2SM 16/12 A3021 RMK T01600120 IEM_DS3505
ZHHH,2001-11-12 05:00,ZHHH 120500Z AUTO 1 1/2SM 18/09 A3018 RMK T01800090 IEM_DS3505
ZHHH,2001-11-12 06:00,ZHHH 120600Z AUTO 36004KT 7SM 19/11 A3015 RMK SLP210 T01920110 57036 IEM_DS3505
ZHHH,2001-11-12 07:00,ZHHH 120700Z AUTO 6SM 20/08 A3012 RMK T02000080 IEM_DS3505
ZHHH,2001-11-12 09:00,ZHHH 120900Z AUTO 00000KT 7SM 18/10 A3012 RMK SLP203 T01820095 57007 IEM_DS3505
ZHHH,2001-11-12 10:00,ZHHH 121000Z AUTO 12002KT 1 1/2SM 17/10 A3015 RMK T01700100 IEM_DS3505
ZHHH,2001-11-12 11:00,ZHHH 121100Z AUTO 1 1/2SM 16/08 A3015 RMK T01600080 IEM_DS3505
ZHHH,2001-11-12 12:00,ZHHH 121200Z AUTO 00000KT 7SM 14/09 A3015 RMK SLP218 T01420093 52014 IEM_DS3505
ZHHH,2001-11-12 13:00,ZHHH 121300Z AUTO 1 1/2SM 16/06 A3018 RMK T01600060 IEM_DS3505
ZHHH,2001-11-12 14:00,ZHHH 121400Z AUTO 01004KT 1 1/2SM 13/08 A3021 RMK T01300080 IEM_DS3505
ZHHH,2001-11-12 15:00,ZHHH 121500Z AUTO 00000KT 6SM 14/10 A3021 RMK SLP233 T01350100 52016 IEM_DS3505
ZHHH,2001-11-12 16:00,ZHHH 121600Z AUTO 1 1/2SM 14/06 A3021 RMK T01400060 IEM_DS3505
ZHHH,2001-11-12 17:00,ZHHH 121700Z AUTO 2SM 13/07 A3021 RMK T01300070 IEM_DS3505
ZHHH,2001-11-12 18:00,ZHHH 121800Z AUTO 00000KT 7SM 13/09 A3018 RMK SLP224 T01310088 57009 IEM_DS3505
ZHHH,2001-11-12 19:00,ZHHH 121900Z AUTO 2SM 12/09 A3018 RMK T01200090 IEM_DS3505
ZHHH,2001-11-12 20:00,ZHHH 122000Z AUTO 34004KT 1 1/2SM 12/10 A3018 RMK T01200100 IEM_DS3505
ZHHH,2001-11-12 21:00,ZHHH 122100Z AUTO 00000KT 7SM 13/09 A3018 RMK SLP225 T01280092 52001 IEM_DS3505
ZHHH,2001-11-12 22:00,ZHHH 122200Z AUTO 35006KT 1 1/2SM 12/09 A3018 RMK T01200090 IEM_DS3505
ZHHH,2001-11-12 23:00,ZHHH 122300Z AUTO 1SM 11/09 A3021 RMK T01100090 IEM_DS3505
ZHHH,2001-11-13 00:00,ZHHH 130000Z AUTO 29002KT 7SM 13/09 A3024 RMK SLP248 T01320093 52022 IEM_DS3505
ZHHH,2001-11-13 01:00,ZHHH 130100Z AUTO 36008KT 1SM 13/10 A3027 RMK T01300100 IEM_DS3505
ZHHH,2001-11-13 02:00,ZHHH 130200Z AUTO 36008KT 1SM 14/10 A3030 RMK T01400100 IEM_DS3505
ZHHH,2001-11-13 03:00,ZHHH 130300Z AUTO 34004KT 8SM 16/10 A3030 RMK SLP267 T01650097 52020 IEM_DS3505
ZHHH,2001-11-13 04:00,ZHHH 130400Z AUTO 1 1/2SM 16/10 A3030 RMK T01600100 IEM_DS3505
ZHHH,2001-11-13 05:00,ZHHH 130500Z AUTO 35010KT 2 1/2SM 19/03 A3027 RMK T01900030 IEM_DS3505
ZHHH,2001-11-13 06:00,ZHHH 130600Z AUTO 34006KT 7SM 19/02 A3027 RMK SLP252 T01890019 57015 IEM_DS3505
ZHHH,2001-11-13 07:00,ZHHH 130700Z AUTO 35012G21KT 6SM 19/M06 A3027 RMK T01901060 IEM_DS3505
ZHHH,2001-11-13 08:00,ZHHH 130800Z AUTO 36010KT 6SM 19/M05 A3027 RMK T01901050 IEM_DS3505
ZHHH,2001-11-13 09:00,ZHHH 130900Z AUTO 04004KT 9SM 17/M03 A3030 RMK SLP264 T01721030 52012 IEM_DS3505
ZHHH,2001-11-13 10:00,ZHHH 131000Z AUTO 05010KT 6SM 14/M03 A3033 RMK T01401030 IEM_DS3505
ZHHH,2001-11-13 11:00,ZHHH 131100Z AUTO 05008KT 6SM 13/M03 A3036 RMK T01301030 IEM_DS3505
ZHHH,2001-11-13 12:00,ZHHH 131200Z AUTO 09002KT 9SM 13/M02 A3039 RMK SLP295 T01311025 52030 IEM_DS3505
ZHHH,2001-11-13 13:00,ZHHH 131300Z AUTO 07008KT 6SM 11/M02 A3042 RMK T01101020 IEM_DS3505
ZHHH,2001-11-13 14:00,ZHHH 131400Z AUTO 6SM 10/M01 A3042 RMK T01001010 IEM_DS3505
ZHHH,2001-11-13 15:00,ZHHH 131500Z AUTO 36002KT 9SM 11/M01 A3045 RMK SLP310 T01091006 52015 IEM_DS3505
ZHHH,2001-11-13 16:00,ZHHH 131600Z AUTO 02004KT 6SM 09/M01 A3045 RMK T00901010 IEM_DS3505
ZHHH,2001-11-13 17:00,ZHHH 131700Z AUTO 02004KT 6SM 08/00 A3045 RMK T00800000 IEM_DS3505
ZHHH,2001-11-13 18:00,ZHHH 131800Z AUTO 34002KT 9SM 09/01 A3045 RMK SLP316 T00890010 52006 IEM_DS3505
ZHHH,2001-11-13 19:00,ZHHH 131900Z AUTO 01004KT 6SM 07/M01 A3045 RMK T00701010 IEM_DS3505
ZHHH,2001-11-13 20:00,ZHHH 132000Z AUTO 6SM 06/00 A3045 RMK T00600000 IEM_DS3505
ZHHH,2001-11-13 21:00,ZHHH 132100Z AUTO 34002KT 9SM 08/02 A3045 RMK SLP309 T00770017 57007 IEM_DS3505
ZHHH,2001-11-13 22:00,ZHHH 132200Z AUTO 02004KT 6SM 05/01 A3045 RMK T00500010 IEM_DS3505
ZHHH,2001-11-13 23:00,ZHHH 132300Z AUTO 04006KT 6SM 06/M01 A3045 RMK T00601010 IEM_DS3505
ZHHH,2001-11-14 00:00,ZHHH 140000Z AUTO 07002KT 16SM 08/01 A3045 RMK SLP314 T00830007 52005 IEM_DS3505
ZHHH,2001-11-14 01:00,ZHHH 140100Z AUTO 07008KT 6SM 08/00 A3045 RMK T00800000 IEM_DS3505
ZHHH,2001-11-14 02:00,ZHHH 140200Z AUTO 6SM 11/00 A3045 RMK T01100000 IEM_DS3505
ZHHH,2001-11-14 03:00,ZHHH 140300Z AUTO 00000KT 12SM 13/00 A3045 RMK SLP313 T01280003 57001 IEM_DS3505
ZHHH,2001-11-14 04:00,ZHHH 140400Z AUTO 6SM 13/M01 A3042 RMK T01301010 IEM_DS3505
ZHHH,2001-11-14 05:00,ZHHH 140500Z AUTO 6SM 14/M01 A3039 RMK T01401010 IEM_DS3505
ZHHH,2001-11-14 06:00,ZHHH 140600Z AUTO 25002KT 12SM 15/M02 A3036 RMK SLP278 T01531020 57035 IEM_DS3505
ZHHH,2001-11-14 07:00,ZHHH 140700Z AUTO 6SM 15/M02 A3033 RMK T01501020 IEM_DS3505
ZHHH,2001-11-14 08:00,ZHHH 140800Z AUTO 6SM 15/M04 A3030 RMK T01501040 IEM_DS3505
ZHHH,2001-11-14 09:00,ZHHH 140900Z AUTO 27002KT 12SM 14/M03 A3030 RMK SLP267 T01441028 57011 IEM_DS3505
ZHHH,2001-11-14 10:00,ZHHH 141000Z AUTO 6SM 13/M01 A3030 RMK T01301010 IEM_DS3505
ZHHH,2001-11-14 11:00,ZHHH 141100Z AUTO 6SM 12/00 A3030 RMK T01200000 IEM_DS3505
ZHHH,2001-11-14 12:00,ZHHH 141200Z AUTO 00000KT 9SM 10/01 A3033 RMK SLP273 T01030011 52006 IEM_DS3505
ZHHH,2001-11-14 13:00,ZHHH 141300Z AUTO 24004KT 6SM 11/M01 A3036 RMK T01101010 IEM_DS3505
ZHHH,2001-11-14 14:00,ZHHH 141400Z AUTO 6SM 10/02 A3036 RMK T01000020 IEM_DS3505
ZHHH,2001-11-14 15:00,ZHHH 141500Z AUTO 00000KT 9SM 10/03 A3036 RMK SLP280 T00960030 52007 IEM_DS3505
ZHHH,2001-11-14 16:00,ZHHH 141600Z AUTO 24002KT 6SM 09/03 A3033 RMK T00900030 IEM_DS3505
ZHHH,2001-11-14 17:00,ZHHH 141700Z AUTO 6SM 10/01 A3033 RMK T01000010 IEM_DS3505
ZHHH,2001-11-14 18:00,ZHHH 141800Z AUTO 00000KT 8SM 09/05 A3033 RMK SLP271 T00900047 57009 IEM_DS3505
ZHHH,2001-11-14 19:00,ZHHH 141900Z AUTO 6SM 08/03 A3033 RMK T00800030 IEM_DS3505
ZHHH,2001-11-14 20:00,ZHHH 142000Z AUTO 12002KT 3SM 07/04 A3033 RMK T00700040 IEM_DS3505
ZHHH,2001-11-14 21:00,ZHHH 142100Z AUTO 00000KT 8SM 08/05 A3030 RMK SLP268 T00780054 57003 IEM_DS3505
ZHHH,2001-11-14 22:00,ZHHH 142200Z AUTO 2 1/2SM 06/04 A3030 RMK T00600040 IEM_DS3505
ZHHH,2001-11-14 23:00,ZHHH 142300Z AUTO 1 1/2SM 06/05 A3033 RMK T00600050 IEM_DS3505
ZHHH,2001-11-15 00:00,ZHHH 150000Z AUTO 00000KT 11SM 10/05 A3033 RMK SLP278 T00950050 52010 IEM_DS3505
ZHHH,2001-11-15 01:00,ZHHH 150100Z AUTO 09006KT 1 1/2SM 08/06 A3036 RMK T00800060 IEM_DS3505
ZHHH,2001-11-15 02:00,ZHHH 150200Z AUTO 12006KT 1 1/2SM 11/07 A3036 RMK T01100070 IEM_DS3505
ZHHH,2001-11-15 03:00,ZHHH 150300Z AUTO 00000KT 12SM 15/02 A3036 RMK SLP282 T01540017 52004 IEM_DS3505
ZHHH,2001-11-15 04:00,ZHHH 150400Z AUTO 15/03 A3033 RMK T01500030 IEM_DS3505
ZHHH,2001-11-15 05:00,ZHHH 150500Z AUTO 6SM 16/02 A3030 RMK T01600020 IEM_DS3505
ZHHH,2001-11-15 06:00,ZHHH 150600Z AUTO 32002KT 11SM 17/01 A3027 RMK SLP255 T01740009 57027 IEM_DS3505
ZHHH,2001-11-15 07:00,ZHHH 150700Z AUTO 6SM 17/01 A3027 RMK T01700010 IEM_DS3505
ZHHH,2001-11-15 08:00,ZHHH 150800Z AUTO 6SM 17/01 A3027 RMK T01700010 IEM_DS3505
ZHHH,2001-11-15 09:00,ZHHH 150900Z AUTO 00000KT 11SM 16/03 A3027 RMK SLP250 T01590034 57005 IEM_DS3505
ZHHH,2001-11-15 10:00,ZHHH 151000Z AUTO 6SM 14/02 A3027 RMK T01400020 IEM_DS3505
ZHHH,2001-11-15 11:00,ZHHH 151100Z AUTO 6SM 14/03 A3027 RMK T01400030 IEM_DS3505
ZHHH,2001-11-15 12:00,ZHHH 151200Z AUTO 00000KT 11SM 12/06 A3030 RMK SLP261 T01240056 52011 IEM_DS3505
ZHHH,2001-11-15 13:00,ZHHH 151300Z AUTO 11006KT 6SM 12/03 A3030 RMK T01200030 IEM_DS3505
ZHHH,2001-11-15 14:00,ZHHH 151400Z AUTO 6SM 12/02 A3030 RMK T01200020 IEM_DS3505
ZHHH,2001-11-15 15:00,ZHHH 151500Z AUTO 00000KT 9SM 09/08 A3033 RMK SLP270 T00940075 52009 IEM_DS3505
ZHHH,2001-11-15 16:00,ZHHH 151600Z AUTO 6SM 09/03 A3033 RMK T00900030 IEM_DS3505
ZHHH,2001-11-15 17:00,ZHHH 151700Z AUTO 08008KT 6SM 09/02 A3030 RMK T00900020 IEM_DS3505
ZHHH,2001-11-15 18:00,ZHHH 151800Z AUTO 07002KT 9SM 10/03 A3030 RMK SLP265 T00970033 57005 IEM_DS3505
ZHHH,2001-11-15 19:00,ZHHH 151900Z AUTO 6SM 08/03 A3030 RMK T00800030 IEM_DS3505
ZHHH,2001-11-15 20:00,ZHHH 152000Z AUTO 12004KT 6SM 07/04 A3027 RMK T00700040 IEM_DS3505
ZHHH,2001-11-15 21:00,ZHHH 152100Z AUTO 07002KT 6SM 09/04 A3027 RMK SLP258 T00880041 57007 IEM_DS3505
ZHHH,2001-11-15 22:00,ZHHH 152200Z AUTO 6SM 07/02 A3030 RMK T00700020 IEM_DS3505
ZHHH,2001-11-15 23:00,ZHHH 152300Z AUTO 6SM 06/02 A3030 RMK T00600020 IEM_DS3505
ZHHH,2001-11-16 00:00,ZHHH 160000Z AUTO 00000KT 12SM 09/06 A3030 RMK SLP270 T00910055 52012 IEM_DS3505
ZHHH,2001-11-16 01:00,ZHHH 160100Z AUTO 4SM 09/05 A3033 RMK T00900050 IEM_DS3505
ZHHH,2001-11-16 02:00,ZHHH 160200Z AUTO 11006KT 4SM 11/06 A3033 RMK T01100060 IEM_DS3505
ZHHH,2001-11-16 03:00,ZHHH 160300Z AUTO 09002KT 12SM 16/06 A3033 RMK SLP273 T01560059 52003 IEM_DS3505
ZHHH,2001-11-16 04:00,ZHHH 160400Z AUTO 13006KT 6SM 16/06 A3030 RMK T01600060 IEM_DS3505
ZHHH,2001-11-16 05:00,ZHHH 160500Z AUTO 12004KT 6SM 17/04 A3027 RMK T01700040 IEM_DS3505
ZHHH,2001-11-16 06:00,ZHHH 160600Z AUTO 00000KT 12SM 19/03 A3027 RMK SLP247 T01870030 57025 IEM_DS3505
ZHHH,2001-11-16 07:00,ZHHH 160700Z AUTO 6SM 18/02 A3024 RMK T01800020 IEM_DS3505
ZHHH,2001-11-16 08:00,ZHHH 160800Z AUTO 6SM 18/04 A3024 RMK T01800040 IEM_DS3505
ZHHH,2001-11-16 09:00,ZHHH 160900Z AUTO 00000KT 12SM 17/07 A3024 RMK SLP247 T01700071 57001 IEM_DS3505
ZHHH,2001-11-16 10:00,ZHHH 161000Z AUTO 6SM 16/04 A3027 RMK T01600040 IEM_DS3505
ZHHH,2001-11-16 11:00,ZHHH 161100Z AUTO 11004KT 6SM 15/05 A3027 RMK T01500050 IEM_DS3505
ZHHH,2001-11-16 12:00,ZHHH 161200Z AUTO 00000KT 11SM 12/06 A3030 RMK SLP259 T01210064 52012 IEM_DS3505
ZHHH,2001-11-16 13:00,ZHHH 161300Z AUTO 6SM 14/03 A3030 RMK T01400030 IEM_DS3505
ZHHH,2001-11-16 14:00,ZHHH 161400Z AUTO 06004KT 6SM 13/03 A3033 RMK T01300030 IEM_DS3505
ZHHH,2001-11-16 15:00,ZHHH 161500Z AUTO 00000KT 9SM 11/07 A3033 RMK SLP273 T01100069 52014 IEM_DS3505
ZHHH,2001-11-16 16:00,ZHHH 161600Z AUTO 6SM 12/02 A3033 RMK T01200020 IEM_DS3505
ZHHH,2001-11-16 18:00,ZHHH 161800Z AUTO 04002KT 9SM 11/07 A3033 RMK SLP271 T01120071 57001 IEM_DS3505
ZHHH,2001-11-16 19:00,ZHHH 161900Z AUTO 08008KT 6SM 10/04 A3030 RMK T01000040 IEM_DS3505
ZHHH,2001-11-16 20:00,ZHHH 162000Z AUTO 09004KT 6SM 09/05 A3030 RMK T00900050 IEM_DS3505
ZHHH,2001-11-16 21:00,ZHHH 162100Z AUTO 00000KT 9SM 10/05 A3033 RMK SLP272 T01010049 54000 IEM_DS3505
ZHHH,2001-11-16 22:00,ZHHH 162200Z AUTO 4SM 09/05 A3033 RMK T00900050 IEM_DS3505
ZHHH,2001-11-16 23:00,ZHHH 162300Z AUTO 4SM 09/05 A3036 RMK T00900050 IEM_DS3505
ZHHH,2001-11-17 00:00,ZHHH 170000Z AUTO 07002KT 9SM 11/06 A3039 RMK SLP288 T01090060 52016 IEM_DS3505
ZHHH,2001-11-17 01:00,ZHHH 170100Z AUTO 05004KT 4SM 11/07 A3039 RMK T01100070 IEM_DS3505
ZHHH,2001-11-17 02:00,ZHHH 170200Z AUTO 5SM 13/07 A3042 RMK T01300070 IEM_DS3505
ZHHH,2001-11-17 03:00,ZHHH 170300Z AUTO 04004KT 11SM 16/03 A3039 RMK SLP297 T01600030 52009 IEM_DS3505
ZHHH,2001-11-17 04:00,ZHHH 170400Z AUTO 08006KT 6SM 18/M01 A3036 RMK T01801010 IEM_DS3505
ZHHH,2001-11-17 05:00,ZHHH 170500Z AUTO 09008KT 6SM 19/01 A3036 RMK T01900010 IEM_DS3505
ZHHH,2001-11-17 06:00,ZHHH 170600Z AUTO 11002KT 16SM 19/03 A3033 RMK SLP271 T01930026 57025 IEM_DS3505
ZHHH,2001-11-17 07:00,ZHHH 170700Z AUTO 06006KT 6SM 19/00 A3033 RMK T01900000 IEM_DS3505
ZHHH,2001-11-17 08:00,ZHHH 170800Z AUTO 06006KT 6SM 19/M02 A3033 RMK T01901020 IEM_DS3505
ZHHH,2001-11-17 09:00,ZHHH 170900Z AUTO 00000KT 12SM 18/02 A3033 RMK SLP270 T01780016 57002 IEM_DS3505
ZHHH,2001-11-17 10:00,ZHHH 171000Z AUTO 06004KT 6SM 16/02 A3033 RMK T01600020 IEM_DS3505
ZHHH,2001-11-17 11:00,ZHHH 171100Z AUTO 05004KT 6SM 15/03 A3033 RMK T01500030 IEM_DS3505
ZHHH,2001-11-17 12:00,ZHHH 171200Z AUTO 04004KT 11SM 15/02 A3036 RMK SLP280 T01470019 52010 IEM_DS3505
ZHHH,2001-11-17 13:00,ZHHH 171300Z AUTO 05010KT 6SM 12/01 A3036 RMK T01200010 IEM_DS3505
ZHHH,2001-11-17 14:00,ZHHH 171400Z AUTO 06008KT 6SM 12/01 A3036 RMK T01200010 IEM_DS3505
ZHHH,2001-11-17 15:00,ZHHH 171500Z AUTO 09002KT 11SM 12/03 A3036 RMK SLP289 T01160028 52009 IEM_DS3505
ZHHH,2001-11-17 16:00,ZHHH 171600Z AUTO 6SM 11/00 A3039 RMK T01100000 IEM_DS3505
ZHHH,2001-11-17 17:00,ZHHH 171700Z AUTO 6SM 10/00 A3036 RMK T01000000 IEM_DS3505
ZHHH,2001-11-17 18:00,ZHHH 171800Z AUTO 00000KT 11SM 10/02 A3036 RMK SLP290 T00970017 52001 IEM_DS3505
ZHHH,2001-11-17 19:00,ZHHH 171900Z AUTO 6SM 10/00 A3036 RMK T01000000 IEM_DS3505
ZHHH,2001-11-17 20:00,ZHHH 172000Z AUTO 6SM 08/00 A3036 RMK T00800000 IEM_DS3505
ZHHH,2001-11-17 21:00,ZHHH 172100Z AUTO 00000KT 11SM 09/04 A3036 RMK SLP284 T00890039 57006 IEM_DS3505
ZHHH,2001-11-17 22:00,ZHHH 172200Z AUTO 6SM 08/03 A3036 RMK T00800030 IEM_DS3505
ZHHH,2001-11-17 23:00,ZHHH 172300Z AUTO 4SM 08/04 A3039 RMK T00800040 IEM_DS3505
ZHHH,2001-11-18 00:00,ZHHH 180000Z AUTO 04002KT 9SM 09/06 A3039 RMK SLP299 T00900055 52015 IEM_DS3505
ZHHH,2001-11-18 01:00,ZHHH 180100Z AUTO 3SM 09/02 A3042 RMK T00900020 IEM_DS3505
ZHHH,2001-11-18 02:00,ZHHH 180200Z AUTO 11SM 13/03 A3042 RMK T01300030 IEM_DS3505
ZHHH,2001-11-18 03:00,ZHHH 180300Z AUTO 04004KT 11SM 14/02 A3042 RMK SLP301 T01440018 52002 IEM_DS3505
ZHHH,2001-11-18 04:00,ZHHH 180400Z AUTO 6SM 16/02 A3039 RMK T01600020 IEM_DS3505
ZHHH,2001-11-18 05:00,ZHHH 180500Z AUTO 28006KT 6SM 17/03 A3036 RMK T01700030 IEM_DS3505
ZHHH,2001-11-18 06:00,ZHHH 180600Z AUTO 14002KT 14SM 18/M02 A3033 RMK SLP273 T01801021 57028 IEM_DS3505
ZHHH,2001-11-18 07:00,ZHHH 180700Z AUTO 6SM 18/M01 A3033 RMK T01801010 IEM_DS3505
ZHHH,2001-11-18 08:00,ZHHH 180800Z AUTO 6SM 18/00 A3030 RMK T01800000 IEM_DS3505
ZHHH,2001-11-18 09:00,ZHHH 180900Z AUTO 00000KT 14SM 17/01 A3030 RMK SLP268 T01690009 57005 IEM_DS3505
ZHHH,2001-11-18 10:00,ZHHH 181000Z AUTO 6SM 15/00 A3033 RMK T01500000 IEM_DS3505
ZHHH,2001-11-18 11:00,ZHHH 181100Z AUTO 18002KT 6SM 15/00 A3033 RMK T01500000 IEM_DS3505
ZHHH,2001-11-18 12:00,ZHHH 181200Z AUTO 00000KT 11SM 11/06 A3033 RMK SLP275 T01140057 52007 IEM_DS3505
ZHHH,2001-11-18 13:00,ZHHH 181300Z AUTO 22002KT 6SM 14/01 A3033 RMK T01400010 IEM_DS3505
ZHHH,2001-11-18 14:00,ZHHH 181400Z AUTO 6SM 12/03 A3033 RMK T01200030 IEM_DS3505
ZHHH,2001-11-18 15:00,ZHHH 181500Z AUTO 27002KT 9SM 10/04 A3033 RMK SLP278 T01010042 52003 IEM_DS3505
ZHHH,2001-11-18 16:00,ZHHH 181600Z AUTO 6SM 10/05 A3033 RMK T01000050 IEM_DS3505
ZHHH,2001-11-18 17:00,ZHHH 181700Z AUTO 34004KT 6SM 09/05 A3033 RMK T00900050 IEM_DS3505
ZHHH,2001-11-18 18:00,ZHHH 181800Z AUTO 00000KT 11SM 09/05 A3033 RMK SLP270 T00860046 57008 IEM_DS3505
ZHHH,2001-11-18 19:00,ZHHH 181900Z AUTO 09/03 A3030 RMK T00900030 IEM_DS3505
ZHHH,2001-11-18 21:00,ZHHH 182100Z AUTO 00000KT 11SM 08/06 RMK SLP265 T00850056 57005 IEM_DS3505
ZHHH,2001-11-18 23:00,ZHHH 182300Z AUTO 11002KT 2SM 07/04 A3033 RMK T00700040 IEM_DS3505
ZHHH,2001-11-19 00:00,ZHHH 190000Z AUTO 00000KT 9SM 10/07 RMK SLP275 T01030071 52010 IEM_DS3505
ZHHH,2001-11-19 01:00,ZHHH 190100Z AUTO 1 1/4SM 09/06 A3033 RMK T00900060 IEM_DS3505
ZHHH,2001-11-19 02:00,ZHHH 190200Z AUTO 1SM 12/09 A3033 RMK T01200090 IEM_DS3505
ZHHH,2001-11-19 03:00,ZHHH 190300Z AUTO 00000KT 9SM 16/07 RMK SLP275 T01600071 54000 IEM_DS3505
ZHHH,2001-11-19 04:00,ZHHH 190400Z AUTO 1 1/4SM 16/08 A3030 RMK T01600080 IEM_DS3505
ZHHH,2001-11-19 05:00,ZHHH 190500Z AUTO 1 1/2SM 17/07 A3027 RMK T01700070 IEM_DS3505
ZHHH,2001-11-19 06:00,ZHHH 190600Z AUTO 00000KT 9SM 19/05 A3027 RMK SLP248 T01940054 57026 IEM_DS3505
ZHHH,2001-11-19 07:00,ZHHH 190700Z AUTO 5SM 18/06 A3024 RMK T01800060 IEM_DS3505
ZHHH,2001-11-19 08:00,ZHHH 190800Z AUTO 19/07 A3024 RMK T01900070 IEM_DS3505
ZHHH,2001-11-19 09:00,ZHHH 190900Z AUTO 00000KT 9SM 17/07 A3024 RMK SLP245 T01740074 57004 IEM_DS3505
ZHHH,2001-11-19 10:00,ZHHH 191000Z AUTO 15/05 A3024 RMK T01500050 IEM_DS3505
ZHHH,2001-11-19 11:00,ZHHH 191100Z AUTO 2 1/2SM 14/05 A3027 RMK T01400050 IEM_DS3505
ZHHH,2001-11-19 12:00,ZHHH 191200Z AUTO 00000KT 7SM 12/08 A3027 RMK SLP257 T01170082 52012 IEM_DS3505
ZHHH,2001-11-19 13:00,ZHHH 191300Z AUTO 2SM 13/05 A3030 RMK T01300050 IEM_DS3505
ZHHH,2001-11-19 14:00,ZHHH 191400Z AUTO 1 1/2SM 12/06 A3030 RMK T01200060 IEM_DS3505
ZHHH,2001-11-19 15:00,ZHHH 191500Z AUTO 00000KT 6SM 10/09 A3030 RMK SLP264 T01000086 52007 IEM_DS3505
ZHHH,2001-11-19 16:00,ZHHH 191600Z AUTO 1 1/2SM 10/07 A3030 RMK T01000070 IEM_DS3505
ZHHH,2001-11-19 17:00,ZHHH 191700Z AUTO 1 1/2SM 10/06 A3030 RMK T01000060 IEM_DS3505
ZHHH,2001-11-19 18:00,ZHHH 191800Z AUTO 00000KT 9SM 08/07 A3030 RMK SLP261 T00850071 57003 IEM_DS3505
ZHHH,2001-11-19 19:00,ZHHH 191900Z AUTO 1 1/4SM 09/06 A3030 RMK T00900060 IEM_DS3505
ZHHH,2001-11-19 20:00,ZHHH 192000Z AUTO 1 1/4SM 08/06 A3027 RMK T00800060 IEM_DS3505
ZHHH,2001-11-19 21:00,ZHHH 192100Z AUTO 00000KT 7SM 08/07 A3027 RMK SLP255 T00770068 57006 IEM_DS3505
ZHHH,2001-11-19 22:00,ZHHH 192200Z AUTO 1SM 07/06 A3030 RMK T00700060 IEM_DS3505
ZHHH,2001-11-19 23:00,ZHHH 192300Z AUTO 02004KT 1/2SM 06/05 A3030 RMK T00600050 IEM_DS3505
ZHHH,2001-11-20 00:00,ZHHH 200000Z AUTO 00000KT 5SM 08/07 A3033 RMK SLP273 T00850071 52018 IEM_DS3505
ZHHH,2001-11-20 01:00,ZHHH 200100Z AUTO 1 1/4SM 09/07 A3033 RMK T00900070 IEM_DS3505
ZHHH,2001-11-20 02:00,ZHHH 200200Z AUTO 1 1/4SM 12/09 A3033 RMK T01200090 IEM_DS3505
ZHHH,2001-11-20 03:00,ZHHH 200300Z AUTO 00000KT 6SM 16/08 A3033 RMK SLP275 T01600075 52002 IEM_DS3505
ZHHH,2001-11-20 04:00,ZHHH 200400Z AUTO 3SM 17/06 A3030 RMK T01700060 IEM_DS3505
ZHHH,2001-11-20 05:00,ZHHH 200500Z AUTO 6SM 18/05 A3027 RMK T01800050 IEM_DS3505
ZHHH,2001-11-20 06:00,ZHHH 200600Z AUTO 27002KT 7SM 20/02 A3024 RMK SLP246 T01990023 57028 IEM_DS3505
ZHHH,2001-11-20 07:00,ZHHH 200700Z AUTO 6SM 19/03 A3024 RMK T01900030 IEM_DS3505
ZHHH,2001-11-20 08:00,ZHHH 200800Z AUTO 6SM 19/02 A3024 RMK T01900020 IEM_DS3505
ZHHH,2001-11-20 09:00,ZHHH 200900Z AUTO 00000KT 7SM 17/05 A3024 RMK SLP245 T01730047 57002 IEM_DS3505
ZHHH,2001-11-20 10:00,ZHHH 201000Z AUTO 6SM 17/02 A3024 RMK T01700020 IEM_DS3505
ZHHH,2001-11-20 11:00,ZHHH 201100Z AUTO 6SM 16/01 A3027 RMK T01600010 IEM_DS3505
ZHHH,2001-11-20 12:00,ZHHH 201200Z AUTO 00000KT 6SM 12/07 A3027 RMK SLP256 T01150073 52011 IEM_DS3505
ZHHH,2001-11-20 13:00,ZHHH 201300Z AUTO 16004KT 15/04 A3027 RMK T01500040 IEM_DS3505
ZHHH,2001-11-20 14:00,ZHHH 201400Z AUTO 14/03 A3027 RMK T01400030 IEM_DS3505
ZHHH,2001-11-20 15:00,ZHHH 201500Z AUTO 00000KT 7SM 10/06 A3030 RMK SLP258 T01050065 52002 IEM_DS3505
ZHHH,2001-11-20 16:00,ZHHH 201600Z AUTO 08002KT 2 1/2SM 11/05 A3027 RMK T01100050 IEM_DS3505
ZHHH,2001-11-20 17:00,ZHHH 201700Z AUTO 2 1/2SM 09/05 A3030 RMK T00900050 IEM_DS3505
ZHHH,2001-11-20 18:00,ZHHH 201800Z AUTO 00000KT 6SM 10/07 A3030 RMK SLP258 T00970072 52001 IEM_DS3505
ZHHH,2001-11-20 19:00,ZHHH 201900Z AUTO 1 1/2SM 09/07 A3027 RMK T00900070 IEM_DS3505
ZHHH,2001-11-20 20:00,ZHHH 202000Z AUTO 09004KT 1 1/2SM 08/07 A3027 RMK T00800070 IEM_DS3505
ZHHH,2001-11-20 21:00,ZHHH 202100Z AUTO 00000KT 4SM 09/08 A3027 RMK SLP253 T00900080 57006 IEM_DS3505
ZHHH,2001-11-20 22:00,ZHHH 202200Z AUTO 10004KT 1 1/2SM 08/05 A3027 RMK T00800050 IEM_DS3505
ZHHH,2001-11-20 23:00,ZHHH 202300Z AUTO 10006KT 1 1/4SM 07/04 A3027 RMK T00700040 IEM_DS3505
ZHHH,2001-11-21 00:00,ZHHH 210000Z AUTO 00000KT 5SM 09/08 A3030 RMK SLP263 T00940083 52010 IEM_DS3505
ZHHH,2001-11-21 01:00,ZHHH 210100Z AUTO 1 1/2SM 09/05 A3030 RMK T00900050 IEM_DS3505
ZHHH,2001-11-21 02:00,ZHHH 210200Z AUTO 2SM 12/07 A3030 RMK T01200070 IEM_DS3505
ZHHH,2001-11-21 03:00,ZHHH 210300Z AUTO 16002KT 7SM 17/07 A3030 RMK SLP262 T01700068 57001 IEM_DS3505
ZHHH,2001-11-21 04:00,ZHHH 210400Z AUTO 3SM 16/08 A3027 RMK T01600080 IEM_DS3505
ZHHH,2001-11-21 05:00,ZHHH 210500Z AUTO 19/07 A3024 RMK T01900070 IEM_DS3505
ZHHH,2001-11-21 06:00,ZHHH 210600Z AUTO 16004KT 11SM 20/01 A3021 RMK SLP236 T02010011 57025 IEM_DS3505
ZHHH,2001-11-21 07:00,ZHHH 210700Z AUTO 6SM 20/00 A3021 RMK T02000000 IEM_DS3505
ZHHH,2001-11-21 08:00,ZHHH 210800Z AUTO 6SM 19/02 A3021 RMK T01900020 IEM_DS3505
ZHHH,2001-11-21 09:00,ZHHH 210900Z AUTO 00000KT 11SM 18/04 A3021 RMK SLP227 T01790035 57009 IEM_DS3505
ZHHH,2001-11-21 11:00,ZHHH 211100Z AUTO 11004KT 15/03 A3021 RMK T01500030 IEM_DS3505
ZHHH,2001-11-21 12:00,ZHHH 211200Z AUTO 00000KT 6SM 12/08 A3024 RMK SLP243 T01180081 52015 IEM_DS3505
ZHHH,2001-11-21 13:00,ZHHH 211300Z AUTO 11004KT 3SM 14/02 A3024 RMK T01400020 IEM_DS3505
ZHHH,2001-11-21 14:00,ZHHH 211400Z AUTO 3SM 14/01 A3024 RMK T01400010 IEM_DS3505
ZHHH,2001-11-21 15:00,ZHHH 211500Z AUTO 00000KT 6SM 10/06 A3027 RMK SLP249 T00970056 52006 IEM_DS3505
ZHHH,2001-11-21 18:00,ZHHH 211800Z AUTO 07002KT 7SM 10/07 A3024 RMK SLP242 T00970074 57006 IEM_DS3505
ZHHH,2001-11-21 19:00,ZHHH 211900Z AUTO 10006KT 2SM 09/04 A3024 RMK T00900040 IEM_DS3505
ZHHH,2001-11-21 20:00,ZHHH 212000Z AUTO 11006KT 1 1/2SM 09/04 A3024 RMK T00900040 IEM_DS3505
ZHHH,2001-11-21 21:00,ZHHH 212100Z AUTO 00000KT 7SM 09/07 A3021 RMK SLP238 T00890070 57005 IEM_DS3505
ZHHH,2001-11-21 22:00,ZHHH 212200Z AUTO 11008KT 1 1/2SM 08/03 A3021 RMK T00800030 IEM_DS3505
ZHHH,2001-11-21 23:00,ZHHH 212300Z AUTO 11008KT 1 1/2SM 07/03 A3024 RMK T00700030 IEM_DS3505
ZHHH,2001-11-22 00:00,ZHHH 220000Z AUTO 09002KT 11SM 10/06 A3024 RMK SLP242 T01040060 52004 IEM_DS3505
ZHHH,2001-11-22 01:00,ZHHH 220100Z AUTO 12008KT 2 1/2SM 10/06 A3024 RMK T01000060 IEM_DS3505
ZHHH,2001-11-22 02:00,ZHHH 220200Z AUTO 14006KT 2 1/2SM 13/06 A3024 RMK T01300060 IEM_DS3505
ZHHH,2001-11-22 03:00,ZHHH 220300Z AUTO 16002KT 12SM 17/04 A3024 RMK SLP242 T01730039 54000 IEM_DS3505
ZHHH,2001-11-22 04:00,ZHHH 220400Z AUTO 3SM 17/05 A3021 RMK T01700050 IEM_DS3505
ZHHH,2001-11-22 05:00,ZHHH 220500Z AUTO 4SM 19/05 A3018 RMK T01900050 IEM_DS3505
ZHHH,2001-11-22 06:00,ZHHH 220600Z AUTO 00000KT 12SM 20/06 A3015 RMK SLP211 T02040055 57030 IEM_DS3505
ZHHH,2001-11-22 07:00,ZHHH 220700Z AUTO 4SM 21/03 A3015 RMK T02100030 IEM_DS3505
ZHHH,2001-11-22 08:00,ZHHH 220800Z AUTO 20/03 A3012 RMK T02000030 IEM_DS3505
ZHHH,2001-11-22 09:00,ZHHH 220900Z AUTO 00000KT 12SM 19/04 A3012 RMK SLP203 T01870038 57008 IEM_DS3505
ZHHH,2001-11-22 10:00,ZHHH 221000Z AUTO 17/03 A3012 RMK T01700030 IEM_DS3505
ZHHH,2001-11-22 11:00,ZHHH 221100Z AUTO 10006KT 16/05 A3015 RMK T01600050 IEM_DS3505
ZHHH,2001-11-22 12:00,ZHHH 221200Z AUTO 00000KT 11SM 13/06 A3015 RMK SLP211 T01330063 52007 IEM_DS3505
ZHHH,2001-11-22 13:00,ZHHH 221300Z AUTO 11006KT 14/04 A3015 RMK T01400040 IEM_DS3505
ZHHH,2001-11-22 14:00,ZHHH 221400Z AUTO 11006KT 3SM 14/05 A3015 RMK T01400050 IEM_DS3505
ZHHH,2001-11-22 15:00,ZHHH 221500Z AUTO 00000KT 11SM 11/06 A3015 RMK SLP213 T01060062 52003 IEM_DS3505
ZHHH,2001-11-22 16:00,ZHHH 221600Z AUTO 11004KT 3SM 11/06 A3015 RMK T01100060 IEM_DS3505
ZHHH,2001-11-22 17:00,ZHHH 221700Z AUTO 12004KT 3SM 11/06 A3015 RMK T01100060 IEM_DS3505
ZHHH,2001-11-22 18:00,ZHHH 221800Z AUTO 00000KT 9SM 10/06 A3015 RMK SLP213 T00990064 54000 IEM_DS3505
ZHHH,2001-11-22 19:00,ZHHH 221900Z AUTO 11004KT 3SM 10/06 A3015 RMK T01000060 IEM_DS3505
ZHHH,2001-11-22 21:00,ZHHH 222100Z AUTO 09002KT 6SM 10/07 A3015 RMK SLP208 T00980073 57005 IEM_DS3505
ZHHH,2001-11-22 23:00,ZHHH 222300Z AUTO 11008KT 2 1/2SM 08/04 A3015 RMK T00800040 IEM_DS3505
ZHHH,2001-11-23 00:00,ZHHH 230000Z AUTO 00000KT 11SM 11/07 A3018 RMK SLP220 T01140066 52011 IEM_DS3505
ZHHH,2001-11-23 01:00,ZHHH 230100Z AUTO 12006KT 3SM 11/06 A3018 RMK T01100060 IEM_DS3505
ZHHH,2001-11-23 02:00,ZHHH 230200Z AUTO 13006KT 3SM 14/06 A3018 RMK T01400060 IEM_DS3505
ZHHH,2001-11-23 03:00,ZHHH 230300Z AUTO 18002KT 12SM 18/05 A3018 RMK SLP220 T01790052 52001 IEM_DS3505
ZHHH,2001-11-23 04:00,ZHHH 230400Z AUTO 19/06 A3015 RMK T01900060 IEM_DS3505
ZHHH,2001-11-23 05:00,ZHHH 230500Z AUTO 3SM 20/07 A3012 RMK T02000070 IEM_DS3505
ZHHH,2001-11-23 06:00,ZHHH 230600Z AUTO 00000KT 11SM 21/06 A3009 RMK SLP192 T02120057 57028 IEM_DS3505
ZHHH,2001-11-23 07:00,ZHHH 230700Z AUTO 6SM 20/05 A3006 RMK T02000050 IEM_DS3505
ZHHH,2001-11-23 08:00,ZHHH 230800Z AUTO 6SM 20/06 A3006 RMK T02000060 IEM_DS3505
ZHHH,2001-11-23 09:00,ZHHH 230900Z AUTO 00000KT 11SM 19/06 A3006 RMK SLP184 T01890060 57008 IEM_DS3505
ZHHH,2001-11-23 10:00,ZHHH 231000Z AUTO 02002KT 6SM 18/06 A3009 RMK T01800060 IEM_DS3505
ZHHH,2001-11-23 11:00,ZHHH 231100Z AUTO 08002KT 6SM 16/05 A3009 RMK T01600050 IEM_DS3505
ZHHH,2001-11-23 12:00,ZHHH 231200Z AUTO 00000KT 9SM 13/08 A3009 RMK SLP197 T01280083 52012 IEM_DS3505
ZHHH,2001-11-23 13:00,ZHHH 231300Z AUTO 10002KT 6SM 16/06 A3009 RMK T01600060 IEM_DS3505
ZHHH,2001-11-23 14:00,ZHHH 231400Z AUTO 6SM 15/06 A3009 RMK T01500060 IEM_DS3505
ZHHH,2001-11-23 15:00,ZHHH 231500Z AUTO 00000KT 9SM 11/08 A3009 RMK SLP197 T01100080 52001 IEM_DS3505
ZHHH,2001-11-23 16:00,ZHHH 231600Z AUTO 6SM 12/07 A3012 RMK T01200070 IEM_DS3505
ZHHH,2001-11-23 17:00,ZHHH 231700Z AUTO 08002KT 6SM 12/06 A3012 RMK T01200060 IEM_DS3505
ZHHH,2001-11-23 18:00,ZHHH 231800Z AUTO 00000KT 11SM 12/08 A3012 RMK SLP198 T01180082 52001 IEM_DS3505
ZHHH,2001-11-23 19:00,ZHHH 231900Z AUTO 6SM 11/06 A3012 RMK T01100060 IEM_DS3505
ZHHH,2001-11-23 20:00,ZHHH 232000Z AUTO 05002KT 6SM 10/06 A3009 RMK T01000060 IEM_DS3505
ZHHH,2001-11-23 21:00,ZHHH 232100Z AUTO 32002KT 11SM 11/08 A3012 RMK SLP200 T01110082 52002 IEM_DS3505
ZHHH,2001-11-23 22:00,ZHHH 232200Z AUTO 01002KT 3SM 10/07 A3012 RMK T01000070 IEM_DS3505
ZHHH,2001-11-24 00:00,ZHHH 240000Z AUTO 00000KT 7SM 11/08 A3015 RMK SLP215 T01110079 52014 IEM_DS3505
ZHHH,2001-11-24 01:00,ZHHH 240100Z AUTO 1 1/2SM 11/07 A3015 RMK T01100070 IEM_DS3505
ZHHH,2001-11-24 02:00,ZHHH 240200Z AUTO 1 1/2SM 13/08 A3018 RMK T01300080 IEM_DS3505
ZHHH,2001-11-24 03:00,ZHHH 240300Z AUTO 34002KT 9SM 15/09 A3015 RMK SLP217 T01530090 52003 IEM_DS3505
ZHHH,2001-11-24 04:00,ZHHH 240400Z AUTO 2 1/2SM 15/10 A3012 RMK T01500100 IEM_DS3505
ZHHH,2001-11-24 05:00,ZHHH 240500Z AUTO 2 1/2SM 17/10 A3009 RMK T01700100 IEM_DS3505
ZHHH,2001-11-24 06:00,ZHHH 240600Z AUTO 00000KT 12SM 19/07 RMK SLP184 T01940071 57033 IEM_DS3505
ZHHH,2001-11-24 07:00,ZHHH 240700Z AUTO 2 1/2SM 19/09 A3006 RMK T01900090 IEM_DS3505
ZHHH,2001-11-24 08:00,ZHHH 240800Z AUTO 26002KT 3SM 19/08 A3006 RMK T01900080 IEM_DS3505
ZHHH,2001-11-24 09:00,ZHHH 240900Z AUTO 00000KT 11SM 18/08 A3006 RMK SLP179 T01820083 57005 IEM_DS3505
ZHHH,2001-11-24 11:00,ZHHH 241100Z AUTO 20004KT 3SM 16/08 A3006 RMK T01600080 IEM_DS3505
ZHHH,2001-11-24 12:00,ZHHH 241200Z AUTO 00000KT 11SM 13/07 A3009 RMK SLP189 T01330073 52010 IEM_DS3505
ZHHH,2001-11-24 13:00,ZHHH 241300Z AUTO 1 1/2SM 13/08 A3009 RMK T01300080 IEM_DS3505
ZHHH,2001-11-24 14:00,ZHHH 241400Z AUTO 1 1/2SM 13/07 A3009 RMK T01300070 IEM_DS3505
ZHHH,2001-11-24 15:00,ZHHH 241500Z AUTO 00000KT 11SM 11/08 A3009 RMK SLP194 T01110080 52005 IEM_DS3505
ZHHH,2001-11-24 16:00,ZHHH 241600Z AUTO 04002KT 1 1/4SM 12/07 A3009 RMK T01200070 IEM_DS3505
ZHHH,2001-11-24 17:00,ZHHH 241700Z AUTO 02002KT 1 1/4SM 12/07 A3009 RMK T01200070 IEM_DS3505
ZHHH,2001-11-24 18:00,ZHHH 241800Z AUTO 00000KT 9SM 10/08 A3009 RMK SLP187 T01000080 57007 IEM_DS3505
ZHHH,2001-11-24 19:00,ZHHH 241900Z AUTO 14002KT 2SM 11/04 A3006 RMK T01100040 IEM_DS3505
ZHHH,2001-11-24 20:00,ZHHH 242000Z AUTO 09002KT 2SM 10/03 A3006 RMK T01000030 IEM_DS3505
ZHHH,2001-11-24 21:00,ZHHH 242100Z AUTO 07002KT 9SM 10/07 A3006 RMK SLP187 T01010066 54000 IEM_DS3505
ZHHH,2001-11-24 22:00,ZHHH 242200Z AUTO 08006KT 1 1/2SM 08/03 A3009 RMK T00800030 IEM_DS3505
ZHHH,2001-11-24 23:00,ZHHH 242300Z AUTO 05004KT 2 1/2SM 08/03 A3012 RMK T00800030 IEM_DS3505
ZHHH,2001-11-25 00:00,ZHHH 250000Z AUTO 07002KT 11SM 09/05 A3015 RMK SLP219 T00920050 52031 IEM_DS3505
ZHHH,2001-11-25 01:00,ZHHH 250100Z AUTO 10/04 A3018 RMK T01000040 IEM_DS3505
ZHHH,2001-11-25 02:00,ZHHH 250200Z AUTO 06010KT 6SM 13/04 A3021 RMK T01300040 IEM_DS3505
ZHHH,2001-11-25 03:00,ZHHH 250300Z AUTO 02004KT 12SM 15/03 A3024 RMK SLP241 T01540026 52022 IEM_DS3505
ZHHH,2001-11-25 04:00,ZHHH 250400Z AUTO 03019KT 3SM 15/01 A3021 RMK T01500010 IEM_DS3505
ZHHH,2001-11-25 05:00,ZHHH 250500Z AUTO 04016KT 15/01 A3021 RMK T01500010 IEM_DS3505
ZHHH,2001-11-25 06:00,ZHHH 250600Z AUTO 36004KT 12SM 17/02 A3021 RMK SLP231 T01690017 57009 IEM_DS3505
ZHHH,2001-11-25 07:00,ZHHH 250700Z AUTO 02014KT 3SM 15/02 A3021 RMK T01500020 IEM_DS3505
ZHHH,2001-11-25 08:00,ZHHH 250800Z AUTO 03016KT 3SM 14/03 A3024 RMK T01400030 IEM_DS3505
ZHHH,2001-11-25 09:00,ZHHH 250900Z AUTO 02004KT 11SM 13/03 A3027 RMK SLP250 T01330031 52018 IEM_DS3505
ZHHH,2001-11-25 10:00,ZHHH 251000Z AUTO 01010KT 6SM 11/01 A3030 RMK T01100010 IEM_DS3505
ZHHH,2001-11-25 11:00,ZHHH 251100Z AUTO 02008KT 6SM 10/01 A3030 RMK T01000010 IEM_DS3505
ZHHH,2001-11-25 12:00,ZHHH 251200Z AUTO 02002KT 11SM 11/02 A3033 RMK SLP272 T01070015 52022 IEM_DS3505
ZHHH,2001-11-25 13:00,ZHHH 251300Z AUTO 03006KT 6SM 10/00 A3033 RMK T01000000 IEM_DS3505
ZHHH,2001-11-25 14:00,ZHHH 251400Z AUTO 01004KT 6SM 09/00 A3033 RMK T00900000 IEM_DS3505
ZHHH,2001-11-25 15:00,ZHHH 251500Z AUTO 34002KT 11SM 10/01 A3036 RMK SLP282 T00970009 52010 IEM_DS3505
ZHHH,2001-11-25 16:00,ZHHH 251600Z AUTO 04006KT 6SM 09/00 A3036 RMK T00900000 IEM_DS3505
ZHHH,2001-11-25 17:00,ZHHH 251700Z AUTO 6SM 08/00 A3033 RMK T00800000 IEM_DS3505
ZHHH,2001-11-25 18:00,ZHHH 251800Z AUTO 02002KT 11SM 08/00 A3033 RMK SLP270 T00850003 57012 IEM_DS3505
ZHHH,2001-11-25 19:00,ZHHH 251900Z AUTO 6SM 08/M01 A3030 RMK T00801010 IEM_DS3505
ZHHH,2001-11-25 20:00,ZHHH 252000Z AUTO 6SM 07/M01 A3030 RMK T00701010 IEM_DS3505
ZHHH,2001-11-25 21:00,ZHHH 252100Z AUTO 36002KT 11SM 08/01 A3030 RMK SLP267 T00800009 57003 IEM_DS3505
ZHHH,2001-11-25 22:00,ZHHH 252200Z AUTO 05006KT 6SM 07/00 A3030 RMK T00700000 IEM_DS3505
ZHHH,2001-11-25 23:00,ZHHH 252300Z AUTO 05006KT 6SM 07/00 A3033 RMK T00700000 IEM_DS3505
ZHHH,2001-11-26 00:00,ZHHH 260000Z AUTO 07002KT 11SM 08/02 A3033 RMK SLP277 T00840017 52010 IEM_DS3505
ZHHH,2001-11-26 01:00,ZHHH 260100Z AUTO 09006KT 6SM 09/01 A3036 RMK T00900010 IEM_DS3505
ZHHH,2001-11-26 02:00,ZHHH 260200Z AUTO 08010KT 6SM 11/M01 A3036 RMK T01101010 IEM_DS3505
ZHHH,2001-11-26 03:00,ZHHH 260300Z AUTO 02004KT 12SM 12/M01 A3036 RMK SLP281 T01221010 52004 IEM_DS3505
ZHHH,2001-11-26 04:00,ZHHH 260400Z AUTO 07010KT 6SM 13/M03 A3033 RMK T01301030 IEM_DS3505
ZHHH,2001-11-26 05:00,ZHHH 260500Z AUTO 08008G17KT 6SM 13/M03 A3030 RMK T01301030 IEM_DS3505
ZHHH,2001-11-26 06:00,ZHHH 260600Z AUTO 09004KT 12SM 14/00 A3027 RMK SLP257 T01360003 57024 IEM_DS3505
ZHHH,2001-11-26 07:00,ZHHH 260700Z AUTO 06006KT 6SM 14/M07 A3027 RMK T01401070 IEM_DS3505
ZHHH,2001-11-26 08:00,ZHHH 260800Z AUTO 05008KT 6SM 14/M06 A3027 RMK T01401060 IEM_DS3505
ZHHH,2001-11-26 09:00,ZHHH 260900Z AUTO 00000KT 12SM 14/M03 A3027 RMK SLP257 T01351031 54000 IEM_DS3505
ZHHH,2001-11-26 10:00,ZHHH 261000Z AUTO 05008KT 6SM 11/M05 A3030 RMK T01101050 IEM_DS3505
ZHHH,2001-11-26 11:00,ZHHH 261100Z AUTO 05010KT 6SM 10/M05 A3030 RMK T01001050 IEM_DS3505
ZHHH,2001-11-26 12:00,ZHHH 261200Z AUTO 04002KT 11SM 11/M03 A3030 RMK SLP264 T01061032 52007 IEM_DS3505
ZHHH,2001-11-26 13:00,ZHHH 261300Z AUTO 04010KT 6SM 09/M04 A3030 RMK T00901040 IEM_DS3505
ZHHH,2001-11-26 14:00,ZHHH 261400Z 05004MPS CAVOK 09/M03 Q1027 NOSIG
ZHHH,2001-11-26 15:00,ZHHH 261500Z 04004MPS 010V070 CAVOK 08/M03 Q1027 NOSIG
ZHHH,2001-11-26 16:00,ZHHH 261600Z AUTO 05006KT 6SM 08/M02 A3033 RMK T00801020 IEM_DS3505
ZHHH,2001-11-26 17:00,ZHHH 261700Z AUTO 6SM 08/M02 A3030 RMK T00801020 IEM_DS3505
ZHHH,2001-11-26 18:00,ZHHH 261800Z AUTO 00000KT 11SM 08/01 A3030 RMK SLP267 T00810009 57005 IEM_DS3505
ZHHH,2001-11-26 19:00,ZHHH 261900Z AUTO 6SM 07/M02 A3030 RMK T00701020 IEM_DS3505
ZHHH,2001-11-26 20:00,ZHHH 262000Z AUTO 06006KT 6SM 07/M02 A3027 RMK T00701020 IEM_DS3505
ZHHH,2001-11-26 21:00,ZHHH 262100Z AUTO 09002KT 11SM 08/02 A3027 RMK SLP250 T00750015 57017 IEM_DS3505
ZHHH,2001-11-26 22:00,ZHHH 262200Z AUTO 06006KT 6SM 06/M01 A3027 RMK T00601010 IEM_DS3505
ZHHH,2001-11-26 23:00,ZHHH 262300Z AUTO 07006KT 6SM 06/M01 A3027 RMK T00601010 IEM_DS3505
ZHHH,2001-11-27 00:00,ZHHH 270000Z AUTO 07002KT 7SM 07/01 A3027 RMK SLP259 T00740009 52009 IEM_DS3505
ZHHH,2001-11-27 01:00,ZHHH 270100Z AUTO 07006KT 6SM 08/M01 A3030 RMK T00801010 IEM_DS3505
ZHHH,2001-11-27 02:00,ZHHH 270200Z AUTO 10008KT 5SM 10/01 A3027 RMK T01000010 IEM_DS3505
ZHHH,2001-11-27 03:00,ZHHH 270300Z AUTO 11004KT 9SM 13/02 A3024 RMK SLP245 T01330016 57014 IEM_DS3505
ZHHH,2001-11-27 04:00,ZHHH 270400Z AUTO 12006KT 13/04 A3021 RMK T01300040 IEM_DS3505
ZHHH,2001-11-27 05:00,ZHHH 270500Z AUTO 13006KT 6SM 14/03 A3018 RMK T01400030 IEM_DS3505
ZHHH,2001-11-27 06:00,ZHHH 270600Z AUTO 11002KT 11SM 16/03 A3015 RMK SLP208 T01550028 57037 IEM_DS3505
ZHHH,2001-11-27 07:00,ZHHH 270700Z AUTO 12006KT 6SM 15/02 A3009 RMK T01500020 IEM_DS3505
ZHHH,2001-11-27 08:00,ZHHH 270800Z AUTO 10006KT 6SM 15/03 A3009 RMK T01500030 IEM_DS3505
ZHHH,2001-11-27 09:00,ZHHH 270900Z AUTO 00000KT 7SM 15/05 A3009 RMK SLP188 T01470046 57020 IEM_DS3505
ZHHH,2001-11-27 10:00,ZHHH 271000Z AUTO 10006KT 12/04 A3006 RMK T01200040 IEM_DS3505
ZHHH,2001-11-27 11:00,ZHHH 271100Z AUTO 11006KT 2 1/2SM 11/05 A3006 RMK T01100050 IEM_DS3505
ZHHH,2001-11-27 12:00,ZHHH 271200Z AUTO 00000KT 7SM 12/06 A3006 RMK SLP179 T01220056 57009 IEM_DS3505
ZHHH,2001-11-27 13:00,ZHHH 271300Z AUTO 11006KT 2SM 10/06 A3006 RMK T01000060 IEM_DS3505
ZHHH,2001-11-27 14:00,ZHHH 271400Z AUTO 2SM 10/07 A3003 RMK T01000070 IEM_DS3505
ZHHH,2001-11-27 15:00,ZHHH 271500Z AUTO 00000KT 7SM 12/07 A3003 RMK SLP172 T01150070 57006 IEM_DS3505
ZHHH,2001-11-27 16:00,ZHHH 271600Z AUTO 07004KT 1 1/2SM 10/07 A3000 RMK T01000070 IEM_DS3505
ZHHH,2001-11-27 17:00,ZHHH 271700Z AUTO 1 1/2SM 09/07 A3000 RMK T00900070 IEM_DS3505
ZHHH,2001-11-27 18:00,ZHHH 271800Z AUTO 00000KT 9SM 09/07 A3000 RMK SLP160 T00910069 57012 IEM_DS3505
ZHHH,2001-11-27 19:00,ZHHH 271900Z AUTO 10004KT 1 1/2SM 09/07 A2997 RMK T00900070 IEM_DS3505
ZHHH,2001-11-27 20:00,ZHHH 272000Z AUTO 11004KT 2SM 09/07 A2997 RMK T00900070 IEM_DS3505
ZHHH,2001-11-27 21:00,ZHHH 272100Z AUTO 14002KT 9SM 09/07 RMK SLP148 T00880070 57012 IEM_DS3505
ZHHH,2001-11-27 23:00,ZHHH 272300Z AUTO 12004KT 1 1/4SM 09/07 A2997 RMK T00900070 IEM_DS3505
ZHHH,2001-11-28 00:00,ZHHH 280000Z AUTO 11002KT 9SM 11/08 A2997 RMK SLP152 T01080078 52004 IEM_DS3505
ZHHH,2001-11-28 01:00,ZHHH 280100Z AUTO 13004KT 1 1/4SM 10/09 A2997 RMK T01000090 IEM_DS3505
ZHHH,2001-11-28 02:00,ZHHH 280200Z AUTO 14006KT 1 1/2SM 12/09 A2997 RMK T01200090 IEM_DS3505
ZHHH,2001-11-28 03:00,ZHHH 280300Z AUTO 16002KT 9SM 15/09 A2994 RMK SLP143 T01500094 57009 IEM_DS3505
ZHHH,2001-11-28 04:00,ZHHH 280400Z AUTO 1 1/2SM 16/09 A2991 RMK T01600090 IEM_DS3505
ZHHH,2001-11-28 05:00,ZHHH 280500Z AUTO 2SM 18/09 A2985 RMK T01800090 IEM_DS3505
ZHHH,2001-11-28 06:00,ZHHH 280600Z AUTO 00000KT 11SM 18/09 RMK SLP108 T01790091 57035 IEM_DS3505
ZHHH,2001-11-28 07:00,ZHHH 280700Z AUTO 1 1/2SM 18/09 A2983 RMK T01800090 IEM_DS3505
ZHHH,2001-11-28 08:00,ZHHH 280800Z AUTO 1 1/2SM 18/09 A2983 RMK T01800090 IEM_DS3505
ZHHH,2001-11-28 09:00,ZHHH 280900Z AUTO 00000KT 6SM 17/11 A2985 RMK SLP108 T01730107 54000 IEM_DS3505
ZHHH,2001-11-28 10:00,ZHHH 281000Z AUTO 01002KT 1SM 15/12 A2985 RMK T01500120 IEM_DS3505
ZHHH,2001-11-28 11:00,ZHHH 281100Z AUTO 1SM 15/12 A2985 RMK T01500120 IEM_DS3505
ZHHH,2001-11-28 12:00,ZHHH 281200Z AUTO 00000KT 6SM 15/13 A2988 RMK 60003 SLP120 T01510130 52012 IEM_DS3505
ZHHH,2001-11-28 13:00,ZHHH 281300Z AUTO 09002KT 1SM 14/13 A2988 RMK T01400130 IEM_DS3505
ZHHH,2001-11-28 14:00,ZHHH 281400Z AUTO 1SM 14/13 A2991 RMK T01400130 IEM_DS3505
ZHHH,2001-11-28 15:00,ZHHH 281500Z AUTO 00000KT 5SM 14/14 A2991 RMK SLP134 T01450139 52014 IEM_DS3505
ZHHH,2001-11-28 16:00,ZHHH 281600Z AUTO 1/2SM 14/13 A2991 RMK T01400130 IEM_DS3505
ZHHH,2001-11-28 17:00,ZHHH 281700Z AUTO 3/8SM 13/13 A2991 RMK T01300130 IEM_DS3505
ZHHH,2001-11-28 18:00,ZHHH 281800Z AUTO 27002KT 4SM 13/13 A2991 RMK 60055 SLP134 T01340131 54000 IEM_DS3505
ZHHH,2001-11-28 19:00,ZHHH 281900Z AUTO 33006KT 3/8SM 13/13 A2994 RMK T01300130 IEM_DS3505
ZHHH,2001-11-28 20:00,ZHHH 282000Z AUTO 1/2SM 12/12 A2991 RMK T01200120 IEM_DS3505
ZHHH,2001-11-28 21:00,ZHHH 282100Z AUTO 32002KT 4SM 12/11 A2994 RMK 70087 SLP143 T01170109 52009 IEM_DS3505
ZHHH,2001-11-28 22:00,ZHHH 282200Z AUTO 1 1/4SM 11/09 A2997 RMK T01100090 IEM_DS3505
ZHHH,2001-11-28 23:00,ZHHH 282300Z AUTO 1 1/2SM 11/08 A3000 RMK T01100080 IEM_DS3505
ZHHH,2001-11-29 00:00,ZHHH 290000Z AUTO 34004KT 6SM 12/10 A3003 RMK 60031 SLP171 T01160100 52028 IEM_DS3505
ZHHH,2001-11-29 02:00,ZHHH 290200Z AUTO 2SM 12/04 A3006 RMK T01200040 IEM_DS3505
ZHHH,2001-11-29 03:00,ZHHH 290300Z AUTO 29004KT 9SM 13/08 A3006 RMK SLP186 T01260078 52015 IEM_DS3505
ZHHH,2001-11-29 04:00,ZHHH 290400Z AUTO 03006KT 2SM 14/05 A3006 RMK T01400050 IEM_DS3505
ZHHH,2001-11-29 05:00,ZHHH 290500Z AUTO 03006KT 3SM 14/04 A3003 RMK T01400040 IEM_DS3505
ZHHH,2001-11-29 06:00,ZHHH 290600Z AUTO 04004KT 9SM 15/06 A3000 RMK SLP164 T01470060 57022 IEM_DS3505
ZHHH,2001-11-29 07:00,ZHHH 290700Z AUTO 3SM 15/04 A3000 RMK T01500040 IEM_DS3505
ZHHH,2001-11-29 08:00,ZHHH 290800Z AUTO 25002KT 3SM 15/05 A3003 RMK T01500050 IEM_DS3505
ZHHH,2001-11-29 09:00,ZHHH 290900Z AUTO 00000KT 9SM 14/06 A3006 RMK SLP179 T01440061 52015 IEM_DS3505
ZHHH,2001-11-29 10:00,ZHHH 291000Z AUTO 06008KT 1 1/4SM 12/04 A3006 RMK T01200040 IEM_DS3505
ZHHH,2001-11-29 11:00,ZHHH 291100Z AUTO 06008KT 2 1/2SM 12/04 A3006 RMK T01200040 IEM_DS3505
ZHHH,2001-11-29 12:00,ZHHH 291200Z AUTO 02002KT 9SM 12/05 A3012 RMK SLP199 T01170054 52019 IEM_DS3505
ZHHH,2001-11-29 13:00,ZHHH 291300Z AUTO 05004KT 2 1/2SM 11/04 A3012 RMK T01100040 IEM_DS3505
ZHHH,2001-11-29 14:00,ZHHH 291400Z AUTO 02006KT 1 1/4SM 11/02 A3012 RMK T01100020 IEM_DS3505
ZHHH,2001-11-29 15:00,ZHHH 291500Z AUTO 34004KT 9SM 12/03 A3012 RMK SLP206 T01190029 52007 IEM_DS3505
ZHHH,2001-11-29 16:00,ZHHH 291600Z AUTO 01002KT 2 1/2SM 11/03 A3015 RMK T01100030 IEM_DS3505
ZHHH,2001-11-29 17:00,ZHHH 291700Z AUTO 02006KT 2 1/2SM 10/02 A3015 RMK T01000020 IEM_DS3505
ZHHH,2001-11-29 18:00,ZHHH 291800Z AUTO 00000KT 7SM 10/04 A3015 RMK SLP211 T01050043 52005 IEM_DS3505
ZHHH,2001-11-29 19:00,ZHHH 291900Z AUTO 02002KT 2 1/2SM 10/03 A3015 RMK T01000030 IEM_DS3505
ZHHH,2001-11-29 20:00,ZHHH 292000Z AUTO 2 1/2SM 10/03 A3015 RMK T01000030 IEM_DS3505
ZHHH,2001-11-29 21:00,ZHHH 292100Z AUTO 02004KT 6SM 10/03 A3015 RMK 70003 SLP214 T01020032 52003 IEM_DS3505
ZHHH,2001-11-29 22:00,ZHHH 292200Z AUTO 05008KT 2SM 09/03 A3015 RMK T00900030 IEM_DS3505
ZHHH,2001-11-29 23:00,ZHHH 292300Z AUTO 07006KT 1 1/4SM 09/03 A3015 RMK T00900030 IEM_DS3505
ZHHH,2001-11-30 00:00,ZHHH 300000Z AUTO 02004KT 6SM 09/04 A3018 RMK SLP223 T00940038 52009 IEM_DS3505
ZHHH,2001-11-30 01:00,ZHHH 300100Z AUTO 1SM 09/04 A3018 RMK T00900040 IEM_DS3505
ZHHH,2001-11-30 02:00,ZHHH 300200Z AUTO 1SM 09/04 A3021 RMK T00900040 IEM_DS3505
ZHHH,2001-11-30 03:00,ZHHH 300300Z AUTO 02004KT 6SM 10/04 A3018 RMK SLP225 T01020042 52002 IEM_DS3505
ZHHH,2001-11-30 04:00,ZHHH 300400Z AUTO 1SM 11/05 A3015 RMK T01100050 IEM_DS3505
ZHHH,2001-11-30 05:00,ZHHH 300500Z AUTO 1SM 12/05 A3012 RMK T01200050 IEM_DS3505
ZHHH,2001-11-30 06:00,ZHHH 300600Z AUTO 04002KT 9SM 13/06 A3009 RMK SLP196 T01260061 57029 IEM_DS3505
ZHHH,2001-11-30 07:00,ZHHH 300700Z AUTO 1SM 13/06 A3009 RMK T01300060 IEM_DS3505
ZHHH,2001-11-30 08:00,ZHHH 300800Z AUTO 1SM 13/06 A3009 RMK T01300060 IEM_DS3505
ZHHH,2001-11-30 09:00,ZHHH 300900Z AUTO 00000KT 6SM 12/08 A3009 RMK SLP193 T01230076 57003 IEM_DS3505
ZHHH,2001-11-30 10:00,ZHHH 301000Z AUTO 1SM 11/09 A3009 RMK T01100090 IEM_DS3505
ZHHH,2001-11-30 11:00,ZHHH 301100Z AUTO 1SM 11/09 A3009 RMK T01100090 IEM_DS3505
ZHHH,2001-11-30 12:00,ZHHH 301200Z AUTO 34004KT 6SM 11/08 A3012 RMK 60003 SLP203 T01080082 52010 IEM_DS3505
ZHHH,2001-11-30 13:00,ZHHH 301300Z AUTO 36004KT 1SM 10/09 A3012 RMK T01000090 IEM_DS3505
ZHHH,2001-11-30 14:00,ZHHH 301400Z AUTO 25002KT 1SM 10/09 A3015 RMK T01000090 IEM_DS3505
ZHHH,2001-11-30 15:00,ZHHH 301500Z AUTO 27002KT 6SM 10/08 A3015 RMK SLP211 T01000085 52008 IEM_DS3505
ZHHH,2001-11-30 16:00,ZHHH 301600Z AUTO 28002KT 1/2SM 10/09 A3012 RMK T01000090 IEM_DS3505
ZHHH,2001-11-30 17:00,ZHHH 301700Z AUTO 23002KT 1/2SM 10/09 A3012 RMK T01000090 IEM_DS3505
ZHHH,2001-11-30 18:00,ZHHH 301800Z AUTO 27002KT 6SM 10/08 A3009 RMK 60016 SLP196 T01000085 57015 IEM_DS3505
ZHHH,2001-11-30 19:00,ZHHH 301900Z AUTO 26002KT 1/4SM 09/09 A3009 RMK T00900090 IEM_DS3505
ZHHH,2001-11-30 20:00,ZHHH 302000Z AUTO 31004KT 1/4SM 09/09 A3009 RMK T00900090 IEM_DS3505
ZHHH,2001-11-30 21:00,ZHHH 302100Z AUTO 29002KT 6SM 10/08 RMK 70019 SLP193 T00980085 57003 IEM_DS3505
ZHHH,2001-11-30 22:00,ZHHH 302200Z AUTO 1SM 09/09 A3009 RMK T00900090 IEM_DS3505
ZHHH,2001-11-30 23:00,ZHHH 302300Z AUTO 1/2SM 09/09 A3009 RMK T00900090 IEM_DS3505
ZHHH,2001-12-01 00:00,ZHHH 010000Z AUTO 27002KT 5SM 10/08 A3012 RMK 60003 SLP207 T01000082 52014 IEM_DS3505
ZHHH,2001-12-01 01:00,ZHHH 010100Z AUTO 1SM 10/09 A3015 RMK T01000090 IEM_DS3505
ZHHH,2001-12-01 02:00,ZHHH 010200Z AUTO 1SM 10/09 A3015 RMK T01000090 IEM_DS3505
ZHHH,2001-12-01 03:00,ZHHH 010300Z AUTO 27002KT 6SM 12/08 RMK SLP214 T01180084 52007 IEM_DS3505
ZHHH,2001-12-01 04:00,ZHHH 010400Z AUTO 1SM 11/09 A3015 RMK T01100090 IEM_DS3505
ZHHH,2001-12-01 05:00,ZHHH 010500Z AUTO 1SM 12/08 A3012 RMK T01200080 IEM_DS3505
ZHHH,2001-12-01 06:00,ZHHH 010600Z AUTO 27002KT 6SM 12/08 A3009 RMK 60003 SLP198 T01250077 57016 IEM_DS3505
ZHHH,2001-12-01 07:00,ZHHH 010700Z AUTO 1SM 12/08 A3009 RMK T01200080 IEM_DS3505
ZHHH,2001-12-01 08:00,ZHHH 010800Z AUTO 27002KT 1SM 12/08 A3009 RMK T01200080 IEM_DS3505
ZHHH,2001-12-01 09:00,ZHHH 010900Z AUTO 00000KT 6SM 12/08 A3009 RMK SLP193 T01220083 57005 IEM_DS3505
ZHHH,2001-12-01 10:00,ZHHH 011000Z AUTO 1SM 11/08 A3009 RMK T01100080 IEM_DS3505
ZHHH,2001-12-01 11:00,ZHHH 011100Z AUTO 1SM 10/08 A3012 RMK T01000080 IEM_DS3505
ZHHH,2001-12-01 12:00,ZHHH 011200Z AUTO 00000KT 6SM 10/08 A3012 RMK SLP207 T00980082 52014 IEM_DS3505
ZHHH,2001-12-01 13:00,ZHHH 011300Z AUTO 02004KT 1SM 09/08 A3015 RMK T00900080 IEM_DS3505
ZHHH,2001-12-01 14:00,ZHHH 011400Z AUTO 04004KT 1SM 09/08 A3015 RMK T00900080 IEM_DS3505
ZHHH,2001-12-01 15:00,ZHHH 011500Z AUTO 00000KT 6SM 10/08 A3015 RMK SLP217 T01000084 52010 IEM_DS3505
ZHHH,2001-12-01 16:00,ZHHH 011600Z AUTO 02004KT 1SM 10/09 A3018 RMK T01000090 IEM_DS3505
ZHHH,2001-12-01 17:00,ZHHH 011700Z AUTO 03004KT 1SM 10/08 A3018 RMK T01000080 IEM_DS3505
ZHHH,2001-12-01 18:00,ZHHH 011800Z AUTO 00000KT 6SM 10/09 A3015 RMK SLP218 T01040086 52001 IEM_DS3505
ZHHH,2001-12-01 19:00,ZHHH 011900Z AUTO 04004KT 1SM 10/08 A3015 RMK T01000080 IEM_DS3505
ZHHH,2001-12-01 20:00,ZHHH 012000Z AUTO 06002KT 1SM 09/08 A3012 RMK T00900080 IEM_DS3505
ZHHH,2001-12-01 21:00,ZHHH 012100Z AUTO 02002KT 7SM 10/08 A3012 RMK 70003 SLP207 T00980085 57011 IEM_DS3505
ZHHH,2001-12-01 22:00,ZHHH 012200Z AUTO 06008KT 1/2SM 09/07 A3015 RMK T00900070 IEM_DS3505
ZHHH,2001-12-01 23:00,ZHHH 012300Z AUTO 06008KT 1/2SM 09/07 A3012 RMK T00900070 IEM_DS3505
ZHHH,2001-12-02 00:00,ZHHH 020000Z AUTO 02002KT 5SM 10/07 A3015 RMK 70003 SLP219 T00970072 52012 IEM_DS3505
ZHHH,2001-12-02 01:00,ZHHH 020100Z AUTO 03006KT 1/2SM 09/06 A3018 RMK T00900060 IEM_DS3505
ZHHH,2001-12-02 02:00,ZHHH 020200Z AUTO 05008KT 1SM 09/06 A3021 RMK T00900060 IEM_DS3505
ZHHH,2001-12-02 03:00,ZHHH 020300Z AUTO 04006KT 6SM 10/06 A3018 RMK SLP226 T00950063 52007 IEM_DS3505
ZHHH,2001-12-02 04:00,ZHHH 020400Z AUTO 06010KT 1SM 09/06 A3015 RMK T00900060 IEM_DS3505
ZHHH,2001-12-02 05:00,ZHHH 020500Z AUTO 07008KT 1SM 10/07 A3012 RMK T01000070 IEM_DS3505
ZHHH,2001-12-02 06:00,ZHHH 020600Z AUTO 04004KT 6SM 12/08 A3006 RMK SLP187 T01170079 57039 IEM_DS3505
ZHHH,2001-12-02 07:00,ZHHH 020700Z AUTO 06008KT 1 1/4SM 12/08 A3006 RMK T01200080 IEM_DS3505
ZHHH,2001-12-02 08:00,ZHHH 020800Z AUTO 05004KT 1SM 12/09 A3006 RMK T01200090 IEM_DS3505
ZHHH,2001-12-02 09:00,ZHHH 020900Z AUTO 02002KT 6SM 12/09 A3009 RMK SLP187 T01180089 54000 IEM_DS3505
ZHHH,2001-12-02 10:00,ZHHH 021000Z AUTO 03008KT 1 1/4SM 10/08 A3006 RMK T01000080 IEM_DS3505
ZHHH,2001-12-02 11:00,ZHHH 021100Z AUTO 04012KT 1SM 09/07 A3009 RMK T00900070 IEM_DS3505
ZHHH,2001-12-02 12:00,ZHHH 021200Z AUTO 02004KT 6SM 09/07 A3009 RMK 60000 SLP198 T00890069 52011 IEM_DS3505
ZHHH,2001-12-02 13:00,ZHHH 021300Z AUTO 05014KT 1SM 07/06 A3009 RMK T00700060 IEM_DS3505
ZHHH,2001-12-02 14:00,ZHHH 021400Z AUTO 03006KT 1SM 06/05 A3012 RMK T00600050 IEM_DS3505
ZHHH,2001-12-02 15:00,ZHHH 021500Z AUTO 36004KT 5SM 07/06 A3015 RMK SLP214 T00690061 52016 IEM_DS3505
ZHHH,2001-12-02 16:00,ZHHH 021600Z AUTO 02006KT 1SM 06/06 A3012 RMK T00600060 IEM_DS3505
ZHHH,2001-12-02 17:00,ZHHH 021700Z AUTO 03008KT 1 1/4SM 05/04 A3015 RMK T00500040 IEM_DS3505
ZHHH,2001-12-02 18:00,ZHHH 021800Z AUTO 02006KT 6SM 06/05 A3015 RMK 60012 SLP210 T00560049 57004 IEM_DS3505
ZHHH,2001-12-02 19:00,ZHHH 021900Z AUTO 01008KT 1 1/2SM 05/04 A3015 RMK T00500040 IEM_DS3505
ZHHH,2001-12-02 20:00,ZHHH 022000Z AUTO 02008KT 1 1/2SM 04/04 A3015 RMK T00400040 IEM_DS3505
ZHHH,2001-12-02 21:00,ZHHH 022100Z AUTO 36004KT 6SM 06/05 A3012 RMK 70022 SLP207 T00550050 57003 IEM_DS3505
ZHHH,2001-12-02 22:00,ZHHH 022200Z AUTO 02008KT 4SM 05/04 A3012 RMK T00500040 IEM_DS3505
ZHHH,2001-12-02 23:00,ZHHH 022300Z AUTO 03008KT 4SM 05/04 A3015 RMK T00500040 IEM_DS3505
ZHHH,2001-12-03 00:00,ZHHH 030000Z AUTO 29002KT 5SM 05/05 A3015 RMK 60020 SLP219 T00520047 52012 IEM_DS3505
ZHHH,2001-12-03 01:00,ZHHH 030100Z AUTO 2 1/2SM 05/04 A3018 RMK T00500040 IEM_DS3505
ZHHH,2001-12-03 02:00,ZHHH 030200Z AUTO 34008KT 1 1/2SM 05/05 A3021 RMK T00500050 IEM_DS3505
ZHHH,2001-12-03 03:00,ZHHH 030300Z AUTO 34004KT 5SM 05/05 A3021 RMK SLP238 T00520046 52019 IEM_DS3505
ZHHH,2001-12-03 04:00,ZHHH 030400Z AUTO 35008KT 1 1/2SM 05/05 A3021 RMK T00500050 IEM_DS3505
ZHHH,2001-12-03 05:00,ZHHH 030500Z AUTO 1 1/2SM 05/04 A3018 RMK T00500040 IEM_DS3505
ZHHH,2001-12-03 06:00,ZHHH 030600Z AUTO 34002KT 6SM 05/04 A3018 RMK 60059 SLP225 T00520045 57013 IEM_DS3505
ZHHH,2001-12-03 07:00,ZHHH 030700Z AUTO 34006KT 2SM 05/04 A3018 RMK T00500040 IEM_DS3505
ZHHH,2001-12-03 08:00,ZHHH 030800Z AUTO 35006KT 4SM 05/05 A3018 RMK T00500050 IEM_DS3505
ZHHH,2001-12-03 09:00,ZHHH 030900Z AUTO 36004KT 9SM 05/04 A3021 RMK SLP230 T00520040 52005 IEM_DS3505
ZHHH,2001-12-03 10:00,ZHHH 031000Z AUTO 01008KT 7SM 05/04 A3021 RMK T00500040 IEM_DS3505
ZHHH,2001-12-03 11:00,ZHHH 031100Z AUTO 34008KT 7SM 05/04 A3024 RMK T00500040 IEM_DS3505
ZHHH,2001-12-03 12:00,ZHHH 031200Z AUTO 29004KT 6SM 05/04 RMK 60003 SLP251 T00480035 52021 IEM_DS3505
ZHHH,2001-12-03 14:00,ZHHH 031400Z AUTO 7SM 05/04 A3027 RMK T00500040 IEM_DS3505
ZHHH,2001-12-03 15:00,ZHHH 031500Z AUTO 00000KT 4SM 05/04 RMK SLP255 T00520039 52004 IEM_DS3505
ZHHH,2001-12-03 16:00,ZHHH 031600Z AUTO 01006KT 7SM 05/04 A3027 RMK T00500040 IEM_DS3505
ZHHH,2001-12-03 17:00,ZHHH 031700Z AUTO 7SM 05/04 A3027 RMK T00500040 IEM_DS3505
ZHHH,2001-12-03 18:00,ZHHH 031800Z AUTO 32004KT 7SM 05/04 A3027 RMK SLP251 T00510040 57004 IEM_DS3505
ZHHH,2001-12-03 19:00,ZHHH 031900Z AUTO 6SM 05/04 A3027 RMK T00500040 IEM_DS3505
ZHHH,2001-12-03 20:00,ZHHH 032000Z AUTO 03004KT 6SM 05/04 A3024 RMK T00500040 IEM_DS3505
ZHHH,2001-12-03 21:00,ZHHH 032100Z AUTO 36002KT 7SM 05/04 A3021 RMK 70071 SLP239 T00540044 57012 IEM_DS3505
ZHHH,2001-12-03 22:00,ZHHH 032200Z AUTO 03006KT 3SM 05/04 A3024 RMK T00500040 IEM_DS3505
ZHHH,2001-12-03 23:00,ZHHH 032300Z AUTO 05006KT 1 1/2SM 05/04 A3021 RMK T00500040 IEM_DS3505
ZHHH,2001-12-04 00:00,ZHHH 040000Z AUTO 07004KT 6SM 05/05 A3021 RMK 60003 SLP232 T00540047 57007 IEM_DS3505
ZHHH,2001-12-04 01:00,ZHHH 040100Z AUTO 03006KT 1SM 05/05 A3024 RMK T00500050 IEM_DS3505
ZHHH,2001-12-04 02:00,ZHHH 040200Z AUTO 1 1/2SM 06/05 A3027 RMK T00600050 IEM_DS3505
ZHHH,2001-12-04 03:00,ZHHH 040300Z AUTO 09002KT 7SM 07/05 A3021 RMK SLP237 T00660052 52005 IEM_DS3505
ZHHH,2001-12-04 04:00,ZHHH 040400Z AUTO 07006KT 3SM 07/06 A3018 RMK T00700060 IEM_DS3505
ZHHH,2001-12-04 05:00,ZHHH 040500Z AUTO 7SM 07/06 A3015 RMK T00700060 IEM_DS3505
ZHHH,2001-12-04 06:00,ZHHH 040600Z AUTO 00000KT 6SM 07/06 A3015 RMK 60003 SLP208 T00740060 57029 IEM_DS3505
ZHHH,2001-12-04 07:00,ZHHH 040700Z AUTO 7SM 07/05 A3012 RMK T00700050 IEM_DS3505
ZHHH,2001-12-04 08:00,ZHHH 040800Z AUTO 03006KT 2 1/2SM 07/06 A3012 RMK T00700060 IEM_DS3505
ZHHH,2001-12-04 09:00,ZHHH 040900Z AUTO 36002KT 6SM 07/06 A3015 RMK SLP211 T00710062 52003 IEM_DS3505
ZHHH,2001-12-04 10:00,ZHHH 041000Z AUTO 03008KT 2SM 07/06 A3015 RMK T00700060 IEM_DS3505
ZHHH,2001-12-04 11:00,ZHHH 041100Z AUTO 02008KT 2 1/2SM 06/05 A3018 RMK T00600050 IEM_DS3505
ZHHH,2001-12-04 12:00,ZHHH 041200Z AUTO 36004KT 6SM 06/06 A3021 RMK 60002 SLP227 T00610055 52016 IEM_DS3505
ZHHH,2001-12-04 13:00,ZHHH 041300Z AUTO 04014KT 7SM 05/04 A3018 RMK T00500040 IEM_DS3505
ZHHH,2001-12-04 14:00,ZHHH 041400Z AUTO 02010KT 7SM 05/04 A3024 RMK T00500040 IEM_DS3505
ZHHH,2001-12-04 17:00,ZHHH 041700Z AUTO 03016KT 7SM 04/03 A3024 RMK T00400030 IEM_DS3505
ZHHH,2001-12-04 18:00,ZHHH 041800Z AUTO 36006KT 6SM 05/03 A3024 RMK 60016 SLP255 T00470029 52012 IEM_DS3505
ZHHH,2001-12-04 19:00,ZHHH 041900Z AUTO 03012KT 7SM 03/02 A3024 RMK T00300020 IEM_DS3505
ZHHH,2001-12-04 21:00,ZHHH 042100Z AUTO 34006KT 6SM 03/02 RMK 70030 SLP254 T00320023 57001 IEM_DS3505
ZHHH,2001-12-04 22:00,ZHHH 042200Z AUTO 02010KT 7SM 02/01 A3027 RMK T00200010 IEM_DS3505
ZHHH,2001-12-04 23:00,ZHHH 042300Z AUTO 03010KT 7SM 02/01 A3027 RMK T00200010 IEM_DS3505
ZHHH,2001-12-05 00:00,ZHHH 050000Z AUTO 34004KT 6SM 03/02 A3030 RMK 60035 SLP266 T00280021 52011 IEM_DS3505
ZHHH,2001-12-05 01:00,ZHHH 050100Z AUTO 35010KT 1 1/2SM 02/01 A3030 RMK T00200010 IEM_DS3505
ZHHH,2001-12-05 02:00,ZHHH 050200Z AUTO 36010KT 1 1/2SM 02/02 A3033 RMK T00200020 IEM_DS3505
ZHHH,2001-12-05 03:00,ZHHH 050300Z AUTO 34006KT 6SM 02/02 A3033 RMK SLP275 T00250018 52009 IEM_DS3505
ZHHH,2001-12-05 04:00,ZHHH 050400Z AUTO 02010KT 4SM 02/01 A3030 RMK T00200010 IEM_DS3505
ZHHH,2001-12-05 05:00,ZHHH 050500Z AUTO 01008KT 7SM 02/01 A3030 RMK T00200010 IEM_DS3505
ZHHH,2001-12-05 06:00,ZHHH 050600Z AUTO 34006KT 6SM 02/02 A3030 RMK 60039 SLP263 T00240017 57012 IEM_DS3505
ZHHH,2001-12-05 07:00,ZHHH 050700Z AUTO 36008KT 1SM 01/00 A3030 RMK T00100000 IEM_DS3505
ZHHH,2001-12-05 08:00,ZHHH 050800Z AUTO 36006KT 1SM 01/00 A3033 RMK T00100000 IEM_DS3505
ZHHH,2001-12-05 09:00,ZHHH 050900Z AUTO 34004KT 6SM 02/01 A3036 RMK SLP287 T00170011 52024 IEM_DS3505
ZHHH,2001-12-05 10:00,ZHHH 051000Z AUTO 01008KT 1 1/2SM 01/00 A3039 RMK T00100000 IEM_DS3505
ZHHH,2001-12-05 11:00,ZHHH 051100Z AUTO 01008KT 1 1/2SM 01/00 A3042 RMK T00100000 IEM_DS3505
ZHHH,2001-12-05 12:00,ZHHH 051200Z AUTO 34002KT 6SM 01/01 A3045 RMK 60020 SLP316 T00110008 52029 IEM_DS3505
ZHHH,2001-12-05 13:00,ZHHH 051300Z AUTO 02012KT 7SM 02/01 A3045 RMK T00200010 IEM_DS3505
ZHHH,2001-12-05 14:00,ZHHH 051400Z AUTO 02010KT 7SM 02/01 A3047 RMK T00200010 IEM_DS3505
ZHHH,2001-12-05 15:00,ZHHH 051500Z AUTO 34004KT 6SM 02/01 A3050 RMK SLP332 T00190013 52016 IEM_DS3505
ZHHH,2001-12-05 16:00,ZHHH 051600Z AUTO 36006KT 6SM 02/01 A3050 RMK T00200010 IEM_DS3505
ZHHH,2001-12-05 17:00,ZHHH 051700Z AUTO 36006KT 6SM 02/01 A3047 RMK T00200010 IEM_DS3505
ZHHH,2001-12-05 18:00,ZHHH 051800Z AUTO 34004KT 7SM 02/01 A3050 RMK 60000 SLP330 T00230008 57002 IEM_DS3505
ZHHH,2001-12-05 19:00,ZHHH 051900Z AUTO 36006KT 4SM 02/01 A3047 RMK T00200010 IEM_DS3505
ZHHH,2001-12-05 20:00,ZHHH 052000Z AUTO 35006KT 4SM 02/00 A3047 RMK T00200000 IEM_DS3505
ZHHH,2001-12-05 21:00,ZHHH 052100Z AUTO 34004KT 9SM 03/M00 A3047 RMK 70080 SLP326 T00261004 57004 IEM_DS3505
ZHHH,2001-12-05 22:00,ZHHH 052200Z AUTO 36008KT 4SM 02/M01 A3050 RMK T00201010 IEM_DS3505
ZHHH,2001-12-05 23:00,ZHHH 052300Z AUTO 03012KT 6SM 02/M02 A3050 RMK T00201020 IEM_DS3505
ZHHH,2001-12-06 00:00,ZHHH 060000Z AUTO 36004KT 9SM 03/M02 A3050 RMK 70058 SLP338 T00281017 52012 IEM_DS3505
ZHHH,2001-12-06 01:00,ZHHH 060100Z AUTO 03008KT 6SM 02/M02 A3050 RMK T00201020 IEM_DS3505
ZHHH,2001-12-06 02:00,ZHHH 060200Z AUTO 03010KT 6SM 03/M01 A3050 RMK T00301010 IEM_DS3505
ZHHH,2001-12-06 03:00,ZHHH 060300Z AUTO 04002KT 9SM 03/M02 A3050 RMK SLP335 T00331020 57003 IEM_DS3505
ZHHH,2001-12-06 04:00,ZHHH 060400Z AUTO 04008KT 6SM 04/M02 A3047 RMK T00401020 IEM_DS3505
ZHHH,2001-12-06 05:00,ZHHH 060500Z AUTO 02006KT 6SM 05/M01 A3045 RMK T00501010 IEM_DS3505
ZHHH,2001-12-06 06:00,ZHHH 060600Z AUTO 36002KT 11SM 06/M01 A3045 RMK SLP309 T00621012 57026 IEM_DS3505
ZHHH,2001-12-06 07:00,ZHHH 060700Z AUTO 04010KT 6SM 06/M03 A3042 RMK T00601030 IEM_DS3505
ZHHH,2001-12-06 08:00,ZHHH 060800Z AUTO 05008KT 6SM 06/M02 A3042 RMK T00601020 IEM_DS3505
ZHHH,2001-12-06 09:00,ZHHH 060900Z AUTO 04002KT 9SM 06/M01 A3042 RMK SLP303 T00591006 57006 IEM_DS3505
ZHHH,2001-12-06 10:00,ZHHH 061000Z AUTO 05006KT 6SM 05/M01 A3042 RMK T00501010 IEM_DS3505
ZHHH,2001-12-06 11:00,ZHHH 061100Z AUTO 05004KT 6SM 05/M01 A3042 RMK T00501010 IEM_DS3505
ZHHH,2001-12-06 12:00,ZHHH 061200Z AUTO 02002KT 9SM 05/M01 A3045 RMK SLP311 T00521006 52008 IEM_DS3505
ZHHH,2001-12-06 13:00,ZHHH 061300Z AUTO 6SM 04/M01 A3045 RMK T00401010 IEM_DS3505
ZHHH,2001-12-06 14:00,ZHHH 061400Z AUTO 04006KT 6SM 04/M01 A3045 RMK T00401010 IEM_DS3505
ZHHH,2001-12-06 15:00,ZHHH 061500Z AUTO 02004KT 9SM 04/M01 A3045 RMK SLP313 T00421009 52002 IEM_DS3505
ZHHH,2001-12-06 16:00,ZHHH 061600Z AUTO 6SM 03/00 A3042 RMK T00300000 IEM_DS3505
ZHHH,2001-12-06 17:00,ZHHH 061700Z AUTO 12004KT 6SM 03/00 A3039 RMK T00300000 IEM_DS3505
ZHHH,2001-12-06 18:00,ZHHH 061800Z AUTO 02002KT 11SM 03/00 A3039 RMK SLP290 T00340003 57023 IEM_DS3505
ZHHH,2001-12-06 19:00,ZHHH 061900Z AUTO 6SM 02/00 A3036 RMK T00200000 IEM_DS3505
ZHHH,2001-12-06 20:00,ZHHH 062000Z AUTO 07006KT 6SM 01/M01 A3033 RMK T00101010 IEM_DS3505
ZHHH,2001-12-06 21:00,ZHHH 062100Z AUTO 07002KT 11SM 02/00 A3033 RMK SLP273 T00210001 57017 IEM_DS3505
ZHHH,2001-12-06 22:00,ZHHH 062200Z AUTO 09008KT 6SM 01/M01 A3033 RMK T00101010 IEM_DS3505
ZHHH,2001-12-06 23:00,ZHHH 062300Z AUTO 07008KT 3SM 01/M01 A3033 RMK T00101010 IEM_DS3505
ZHHH,2001-12-07 00:00,ZHHH 070000Z AUTO 07002KT 9SM 03/01 A3033 RMK SLP277 T00290010 52004 IEM_DS3505
ZHHH,2001-12-07 01:00,ZHHH 070100Z AUTO 06008KT 2SM 03/00 A3036 RMK T00300000 IEM_DS3505
ZHHH,2001-12-07 02:00,ZHHH 070200Z AUTO 07008KT 2SM 03/01 A3036 RMK T00300010 IEM_DS3505
ZHHH,2001-12-07 03:00,ZHHH 070300Z AUTO 07004KT 9SM 04/02 A3033 RMK SLP277 T00440019 54000 IEM_DS3505
ZHHH,2001-12-07 04:00,ZHHH 070400Z AUTO 07008KT 2 1/2SM 04/01 A3033 RMK T00400010 IEM_DS3505
ZHHH,2001-12-07 05:00,ZHHH 070500Z AUTO 2SM 04/01 A3030 RMK T00400010 IEM_DS3505
ZHHH,2001-12-07 06:00,ZHHH 070600Z AUTO 36002KT 7SM 05/02 A3030 RMK 60001 SLP262 T00480024 57015 IEM_DS3505
ZHHH,2001-12-07 07:00,ZHHH 070700Z AUTO 1 1/2SM 04/02 A3027 RMK T00400020 IEM_DS3505
ZHHH,2001-12-07 08:00,ZHHH 070800Z AUTO 01006KT 1 1/2SM 04/03 A3030 RMK T00400030 IEM_DS3505
ZHHH,2001-12-07 09:00,ZHHH 070900Z AUTO 04002KT 6SM 04/03 A3030 RMK SLP265 T00430031 52003 IEM_DS3505
ZHHH,2001-12-07 10:00,ZHHH 071000Z AUTO 1SM 04/03 A3033 RMK T00400030 IEM_DS3505
ZHHH,2001-12-07 11:00,ZHHH 071100Z AUTO 1 1/4SM 04/03 A3033 RMK T00400030 IEM_DS3505
ZHHH,2001-12-07 12:00,ZHHH 071200Z AUTO 36002KT 9SM 04/03 A3033 RMK 60008 SLP280 T00440029 52015 IEM_DS3505
ZHHH,2001-12-07 13:00,ZHHH 071300Z AUTO 1 1/4SM 04/03 A3036 RMK T00400030 IEM_DS3505
ZHHH,2001-12-07 15:00,ZHHH 071500Z AUTO 29002KT 6SM 04/04 A3036 RMK SLP286 T00450037 52006 IEM_DS3505
ZHHH,2001-12-07 16:00,ZHHH 071600Z AUTO 35006KT 1SM 04/04 A3036 RMK T00400040 IEM_DS3505
ZHHH,2001-12-07 17:00,ZHHH 071700Z AUTO 1SM 04/04 A3039 RMK T00400040 IEM_DS3505
ZHHH,2001-12-07 18:00,ZHHH 071800Z AUTO 02002KT 6SM 04/03 A3039 RMK 60002 SLP293 T00420029 52007 IEM_DS3505
ZHHH,2001-12-07 19:00,ZHHH 071900Z AUTO 05006KT 1SM 04/03 A3039 RMK T00400030 IEM_DS3505
ZHHH,2001-12-07 20:00,ZHHH 072000Z AUTO 04006KT 1SM 04/03 A3036 RMK T00400030 IEM_DS3505
ZHHH,2001-12-07 21:00,ZHHH 072100Z AUTO 02002KT 6SM 04/03 A3036 RMK 70011 SLP291 T00430027 57002 IEM_DS3505
ZHHH,2001-12-07 22:00,ZHHH 072200Z AUTO 1SM 04/03 A3039 RMK T00400030 IEM_DS3505
ZHHH,2001-12-07 23:00,ZHHH 072300Z AUTO 1SM 04/03 A3039 RMK T00400030 IEM_DS3505
ZHHH,2001-12-08 00:00,ZHHH 080000Z AUTO 32002KT 4SM 04/04 RMK 60008 SLP305 T00430036 52014 IEM_DS3505
ZHHH,2001-12-08 01:00,ZHHH 080100Z AUTO 03006KT 1SM 04/04 A3042 RMK T00400040 IEM_DS3505
ZHHH,2001-12-08 02:00,ZHHH 080200Z AUTO 03008KT 1SM 04/03 A3045 RMK T00400030 IEM_DS3505
ZHHH,2001-12-08 03:00,ZHHH 080300Z AUTO 36002KT 6SM 05/04 A3045 RMK SLP311 T00470037 52006 IEM_DS3505
ZHHH,2001-12-08 04:00,ZHHH 080400Z AUTO 1 1/4SM 04/04 A3042 RMK T00400040 IEM_DS3505
ZHHH,2001-12-08 05:00,ZHHH 080500Z AUTO 02008KT 1 1/4SM 05/04 A3039 RMK T00500040 IEM_DS3505
ZHHH,2001-12-08 06:00,ZHHH 080600Z AUTO 02002KT 6SM 05/04 A3036 RMK 60001 SLP286 T00530036 57025 IEM_DS3505
ZHHH,2001-12-08 07:00,ZHHH 080700Z AUTO 1 1/2SM 05/04 A3036 RMK T00500040 IEM_DS3505
ZHHH,2001-12-08 08:00,ZHHH 080800Z AUTO 02008KT 1SM 05/04 A3039 RMK T00500040 IEM_DS3505
ZHHH,2001-12-08 09:00,ZHHH 080900Z AUTO 36004KT 5SM 05/04 A3039 RMK SLP299 T00490041 52013 IEM_DS3505
ZHHH,2001-12-08 10:00,ZHHH 081000Z AUTO 03010KT 1/2SM 04/04 A3039 RMK T00400040 IEM_DS3505
ZHHH,2001-12-08 11:00,ZHHH 081100Z AUTO 03008KT 1SM 05/04 A3042 RMK T00500040 IEM_DS3505
ZHHH,2001-12-08 12:00,ZHHH 081200Z AUTO 04006KT 5SM 05/04 A3045 RMK 60000 SLP309 T00510040 52010 IEM_DS3505
ZHHH,2001-12-08 13:00,ZHHH 081300Z AUTO 03008KT 1SM 05/04 A3045 RMK T00500040 IEM_DS3505
ZHHH,2001-12-08 14:00,ZHHH 081400Z AUTO 01008KT 1 1/4SM 05/04 A3045 RMK T00500040 IEM_DS3505
ZHHH,2001-12-08 15:00,ZHHH 081500Z AUTO 02004KT 6SM 05/04 A3045 RMK SLP313 T00530040 52004 IEM_DS3505
ZHHH,2001-12-08 16:00,ZHHH 081600Z AUTO 02008KT 1 1/2SM 05/04 A3045 RMK T00500040 IEM_DS3505
ZHHH,2001-12-08 17:00,ZHHH 081700Z AUTO 01008KT 2SM 05/04 A3045 RMK T00500040 IEM_DS3505
ZHHH,2001-12-08 18:00,ZHHH 081800Z AUTO 34002KT 6SM 05/04 A3045 RMK 60003 SLP316 T00480039 52003 IEM_DS3505
ZHHH,2001-12-08 19:00,ZHHH 081900Z AUTO 1 1/2SM 04/04 A3045 RMK T00400040 IEM_DS3505
ZHHH,2001-12-08 20:00,ZHHH 082000Z AUTO 03008KT 1 1/4SM 04/04 A3045 RMK T00400040 IEM_DS3505
ZHHH,2001-12-08 21:00,ZHHH 082100Z AUTO 02002KT 6SM 04/04 A3042 RMK 70012 SLP310 T00450037 57006 IEM_DS3505
ZHHH,2001-12-08 22:00,ZHHH 082200Z AUTO 05008KT 1 1/4SM 04/03 A3042 RMK T00400030 IEM_DS3505
ZHHH,2001-12-08 23:00,ZHHH 082300Z AUTO 36006KT 1 1/2SM 04/03 A3045 RMK T00400030 IEM_DS3505
ZHHH,2001-12-09 00:00,ZHHH 090000Z AUTO 29004KT 6SM 05/04 A3045 RMK 60000 SLP323 T00470037 52013 IEM_DS3505
ZHHH,2001-12-09 01:00,ZHHH 090100Z AUTO 36006KT 1 1/2SM 05/04 A3047 RMK T00500040 IEM_DS3505
ZHHH,2001-12-09 02:00,ZHHH 090200Z AUTO 34008KT 1SM 04/04 A3050 RMK T00400040 IEM_DS3505
ZHHH,2001-12-09 03:00,ZHHH 090300Z AUTO 32004KT 05/04 A3050 RMK SLP334 T00460040 52011 IEM_DS3505
ZHHH,2001-12-09 04:00,ZHHH 090400Z AUTO 34008KT 1SM 04/04 A3050 RMK T00400040 IEM_DS3505
ZHHH,2001-12-09 05:00,ZHHH 090500Z AUTO 01006KT 1SM 04/04 A3045 RMK T00400040 IEM_DS3505
ZHHH,2001-12-09 06:00,ZHHH 090600Z AUTO 02002KT 4SM 05/04 A3045 RMK 60008 SLP315 T00490043 57019 IEM_DS3505
ZHHH,2001-12-09 07:00,ZHHH 090700Z AUTO 02010KT 7SM 04/03 A3045 RMK T00400030 IEM_DS3505
ZHHH,2001-12-09 08:00,ZHHH 090800Z AUTO 7SM 04/03 A3045 RMK T00400030 IEM_DS3505
ZHHH,2001-12-09 09:00,ZHHH 090900Z AUTO 34006KT 6SM 04/03 A3045 RMK SLP318 T00440030 52003 IEM_DS3505
ZHHH,2001-12-09 10:00,ZHHH 091000Z AUTO 36006KT 7SM 04/03 A3047 RMK T00400030 IEM_DS3505
ZHHH,2001-12-09 11:00,ZHHH 091100Z AUTO 02008KT 7SM 04/02 A3047 RMK T00400020 IEM_DS3505
ZHHH,2001-12-09 12:00,ZHHH 091200Z AUTO 34002KT 4SM 04/03 A3047 RMK 60000 SLP332 T00360026 52014 IEM_DS3505
ZHHH,2001-12-09 13:00,ZHHH 091300Z AUTO 01006KT 3SM 03/02 A3050 RMK T00300020 IEM_DS3505
ZHHH,2001-12-09 14:00,ZHHH 091400Z AUTO 34006KT 2SM 03/02 A3050 RMK T00300020 IEM_DS3505
ZHHH,2001-12-09 15:00,ZHHH 091500Z AUTO 32002KT 2SM 03/03 A3050 RMK SLP334 T00310026 52002 IEM_DS3505
ZHHH,2001-12-09 16:00,ZHHH 091600Z AUTO 2 1/2SM 03/03 A3050 RMK T00300030 IEM_DS3505
ZHHH,2001-12-09 17:00,ZHHH 091700Z AUTO 33006KT 2SM 03/03 A3050 RMK T00300030 IEM_DS3505
ZHHH,2001-12-09 18:00,ZHHH 091800Z AUTO 32004KT 5SM 03/02 A3047 RMK 60002 SLP327 T00300025 57007 IEM_DS3505
ZHHH,2001-12-09 21:00,ZHHH 092100Z AUTO 34002KT 5SM 03/03 RMK 70011 SLP327 T00320027 54000 IEM_DS3505
ZHHH,2001-12-09 22:00,ZHHH 092200Z AUTO 01008KT 2SM 03/02 A3047 RMK T00300020 IEM_DS3505
ZHHH,2001-12-09 23:00,ZHHH 092300Z AUTO 1 1/2SM 03/02 A3050 RMK T00300020 IEM_DS3505
ZHHH,2001-12-10 00:00,ZHHH 100000Z AUTO 34004KT 4SM 03/02 A3053 RMK 60003 SLP338 T00290025 52011 IEM_DS3505
ZHHH,2001-12-10 02:00,ZHHH 100200Z AUTO 4SM 03/03 A3053 RMK T00300030 IEM_DS3505
ZHHH,2001-12-10 03:00,ZHHH 100300Z AUTO 04002KT 6SM 04/03 A3050 RMK SLP329 T00370027 57009 IEM_DS3505
ZHHH,2001-12-10 04:00,ZHHH 100400Z AUTO 7SM 04/03 A3047 RMK T00400030 IEM_DS3505
ZHHH,2001-12-10 05:00,ZHHH 100500Z AUTO 34008KT 7SM 04/03 A3045 RMK T00400030 IEM_DS3505
ZHHH,2001-12-10 06:00,ZHHH 100600Z AUTO 29002KT 9SM 04/03 A3045 RMK 60000 SLP321 T00420026 57008 IEM_DS3505
ZHHH,2001-12-10 07:00,ZHHH 100700Z AUTO 35010KT 7SM 03/02 A3045 RMK T00300020 IEM_DS3505
ZHHH,2001-12-10 08:00,ZHHH 100800Z AUTO 01006KT 7SM 04/02 A3045 RMK T00400020 IEM_DS3505
ZHHH,2001-12-10 09:00,ZHHH 100900Z AUTO 34004KT 7SM 04/02 A3045 RMK SLP314 T00390021 57007 IEM_DS3505
ZHHH,2001-12-10 10:00,ZHHH 101000Z AUTO 02006KT 7SM 03/02 A3045 RMK T00300020 IEM_DS3505
ZHHH,2001-12-10 11:00,ZHHH 101100Z AUTO 02006KT 7SM 03/02 A3045 RMK T00300020 IEM_DS3505
ZHHH,2001-12-10 12:00,ZHHH 101200Z AUTO 36002KT 6SM 04/03 A3045 RMK 60003 SLP315 T00380026 52001 IEM_DS3505
ZHHH,2001-12-10 13:00,ZHHH 101300Z AUTO 7SM 04/02 A3045 RMK T00400020 IEM_DS3505
ZHHH,2001-12-10 14:00,ZHHH 101400Z AUTO 7SM 04/02 A3045 RMK T00400020 IEM_DS3505
ZHHH,2001-12-10 15:00,ZHHH 101500Z AUTO 32002KT 6SM 04/02 A3042 RMK SLP311 T00350024 57004 IEM_DS3505
ZHHH,2001-12-10 16:00,ZHHH 101600Z AUTO 35006KT 3SM 03/02 A3042 RMK T00300020 IEM_DS3505
ZHHH,2001-12-10 17:00,ZHHH 101700Z AUTO 1 1/2SM 03/03 A3042 RMK T00300030 IEM_DS3505
ZHHH,2001-12-10 18:00,ZHHH 101800Z AUTO 34002KT 2SM 03/03 A3039 RMK 60008 SLP293 T00340029 57018 IEM_DS3505
ZHHH,2001-12-10 19:00,ZHHH 101900Z AUTO 1SM 03/03 A3039 RMK T00300030 IEM_DS3505
ZHHH,2001-12-10 20:00,ZHHH 102000Z AUTO 1SM 03/03 A3036 RMK T00300030 IEM_DS3505
ZHHH,2001-12-10 21:00,ZHHH 102100Z AUTO 34002KT 2SM 04/03 A3036 RMK 70016 SLP283 T00360032 57010 IEM_DS3505
ZHHH,2001-12-10 22:00,ZHHH 102200Z AUTO 1SM 03/03 A3033 RMK T00300030 IEM_DS3505
ZHHH,2001-12-10 23:00,ZHHH 102300Z AUTO 1SM 03/03 A3036 RMK T00300030 IEM_DS3505
ZHHH,2001-12-11 00:00,ZHHH 110000Z AUTO 34002KT 5SM 04/03 A3036 RMK 60024 SLP285 T00350031 52002 IEM_DS3505
ZHHH,2001-12-11 01:00,ZHHH 110100Z AUTO 1SM 04/03 A3036 RMK T00400030 IEM_DS3505
ZHHH,2001-12-11 02:00,ZHHH 110200Z AUTO 34002KT 1SM 04/04 A3036 RMK T00400040 IEM_DS3505
ZHHH,2001-12-11 03:00,ZHHH 110300Z AUTO 27004KT 6SM 04/04 A3036 RMK SLP288 T00440039 52003 IEM_DS3505
ZHHH,2001-12-11 04:00,ZHHH 110400Z AUTO 1SM 04/04 A3033 RMK T00400040 IEM_DS3505
ZHHH,2001-12-11 05:00,ZHHH 110500Z AUTO 33006KT 1/2SM 05/05 A3030 RMK T00500050 IEM_DS3505
ZHHH,2001-12-11 06:00,ZHHH 110600Z AUTO 36002KT 4SM 05/05 A3027 RMK 60008 SLP252 T00510046 57036 IEM_DS3505
ZHHH,2001-12-11 07:00,ZHHH 110700Z AUTO 1SM 05/05 A3024 RMK T00500050 IEM_DS3505
ZHHH,2001-12-11 08:00,ZHHH 110800Z AUTO 1 1/2SM 06/06 A3024 RMK T00600060 IEM_DS3505
ZHHH,2001-12-11 09:00,ZHHH 110900Z AUTO 34002KT 5SM 06/05 A3027 RMK SLP251 T00570052 54000 IEM_DS3505
ZHHH,2001-12-11 10:00,ZHHH 111000Z AUTO 1 1/4SM 06/06 A3027 RMK T00600060 IEM_DS3505
ZHHH,2001-12-11 11:00,ZHHH 111100Z AUTO 1 1/4SM 06/06 A3027 RMK T00600060 IEM_DS3505
ZHHH,2001-12-11 12:00,ZHHH 111200Z AUTO 00000KT 4SM 06/06 A3030 RMK 60001 SLP266 T00570055 52014 IEM_DS3505
ZHHH,2001-12-11 13:00,ZHHH 111300Z AUTO 2SM 06/06 A3030 RMK T00600060 IEM_DS3505
ZHHH,2001-12-11 14:00,ZHHH 111400Z AUTO 34006KT 1SM 05/05 A3030 RMK T00500050 IEM_DS3505
ZHHH,2001-12-11 15:00,ZHHH 111500Z AUTO 29004KT 4SM 05/05 A3030 RMK SLP274 T00530050 52008 IEM_DS3505
ZHHH,2001-12-11 16:00,ZHHH 111600Z AUTO 35006KT 1SM 05/05 A3033 RMK T00500050 IEM_DS3505
ZHHH,2001-12-11 17:00,ZHHH 111700Z AUTO 33008KT 1SM 05/05 A3033 RMK T00500050 IEM_DS3505
ZHHH,2001-12-11 18:00,ZHHH 111800Z AUTO 32004KT 4SM 05/04 A3033 RMK 60012 SLP282 T00470042 52008 IEM_DS3505
ZHHH,2001-12-11 19:00,ZHHH 111900Z AUTO 35010KT 4SM 04/04 A3036 RMK T00400040 IEM_DS3505
ZHHH,2001-12-11 20:00,ZHHH 112000Z AUTO 36008KT 5SM 04/04 A3036 RMK T00400040 IEM_DS3505
ZHHH,2001-12-11 21:00,ZHHH 112100Z AUTO 34004KT 4SM 04/04 A3033 RMK 70046 SLP276 T00410036 57006 IEM_DS3505
ZHHH,2001-12-11 22:00,ZHHH 112200Z AUTO 02008KT 7SM 04/03 A3036 RMK T00400030 IEM_DS3505
ZHHH,2001-12-11 23:00,ZHHH 112300Z AUTO 35008KT 7SM 03/03 A3036 RMK T00300030 IEM_DS3505
ZHHH,2001-12-12 00:00,ZHHH 120000Z AUTO 34006KT 6SM 03/02 A3039 RMK 60008 SLP300 T00340022 52024 IEM_DS3505
ZHHH,2001-12-12 01:00,ZHHH 120100Z AUTO 01008KT 4SM 03/02 A3042 RMK T00300020 IEM_DS3505
ZHHH,2001-12-12 02:00,ZHHH 120200Z AUTO 35008KT 2SM 04/03 A3045 RMK T00400030 IEM_DS3505
ZHHH,2001-12-12 03:00,ZHHH 120300Z AUTO 34004KT 6SM 04/03 A3045 RMK SLP316 T00420029 52016 IEM_DS3505
ZHHH,2001-12-12 04:00,ZHHH 120400Z AUTO 35006KT 1 1/2SM 04/04 A3045 RMK T00400040 IEM_DS3505
ZHHH,2001-12-12 05:00,ZHHH 120500Z AUTO 02006KT 7SM 05/04 A3042 RMK T00500040 IEM_DS3505
ZHHH,2001-12-12 06:00,ZHHH 120600Z AUTO 34006KT 7SM 06/03 A3042 RMK 60000 SLP301 T00570026 57015 IEM_DS3505
ZHHH,2001-12-12 07:00,ZHHH 120700Z AUTO 03006KT 7SM 06/02 A3042 RMK T00600020 IEM_DS3505
ZHHH,2001-12-12 08:00,ZHHH 120800Z AUTO 04010KT 7SM 06/02 A3042 RMK T00600020 IEM_DS3505
ZHHH,2001-12-12 09:00,ZHHH 120900Z AUTO 04002KT 9SM 06/02 RMK SLP312 T00590020 52011 IEM_DS3505
ZHHH,2001-12-12 10:00,ZHHH 121000Z AUTO 04006KT 6SM 05/01 A3047 RMK T00500010 IEM_DS3505
ZHHH,2001-12-12 11:00,ZHHH 121100Z AUTO 06010KT 6SM 05/01 A3047 RMK T00500010 IEM_DS3505
ZHHH,2001-12-12 12:00,ZHHH 121200Z AUTO 02004KT 6SM 05/01 A3050 RMK SLP337 T00510010 52025 IEM_DS3505
ZHHH,2001-12-12 13:00,ZHHH 121300Z AUTO 04008KT 6SM 04/M03 A3053 RMK T00401030 IEM_DS3505
ZHHH,2001-12-12 14:00,ZHHH 121400Z AUTO 03006KT 6SM 04/M03 A3056 RMK T00401030 IEM_DS3505
ZHHH,2001-12-12 15:00,ZHHH 121500Z AUTO 34004KT 9SM 04/M01 A3059 RMK SLP363 T00421014 52026 IEM_DS3505
ZHHH,2001-12-12 16:00,ZHHH 121600Z AUTO 02006KT 7SM 04/M03 A3059 RMK T00401030 IEM_DS3505
ZHHH,2001-12-12 17:00,ZHHH 121700Z AUTO 02008KT 7SM 03/M03 A3062 RMK T00301030 IEM_DS3505
ZHHH,2001-12-12 18:00,ZHHH 121800Z AUTO 02002KT 9SM 04/M03 A3062 RMK SLP375 T00351030 IEM_DS3505
ZHHH,2001-12-12 19:00,ZHHH 121900Z AUTO 04010KT 6SM 02/M05 A3059 RMK T00201050 IEM_DS3505
ZHHH,2001-12-12 21:00,ZHHH 122100Z AUTO 02006KT 9SM 03/M05 A3062 RMK 70001 SLP376 T00261047 IEM_DS3505
ZHHH,2001-12-12 22:00,ZHHH 122200Z AUTO 02008KT 6SM 02/M04 A3065 RMK T00201040 IEM_DS3505
ZHHH,2001-12-12 23:00,ZHHH 122300Z AUTO 02008KT 6SM 02/M05 A3065 RMK T00201050 IEM_DS3505
ZHHH,2001-12-13 00:00,ZHHH 130000Z AUTO 36006KT 12SM 02/M04 A3068 RMK 70000 SLP398 T00231044 52022 IEM_DS3505
ZHHH,2001-12-13 01:00,ZHHH 130100Z AUTO 03012KT 6SM 02/M05 A3071 RMK T00201050 IEM_DS3505
ZHHH,2001-12-13 02:00,ZHHH 130200Z AUTO 03014KT 6SM 03/M06 A3074 RMK T00301060 IEM_DS3505
ZHHH,2001-12-13 03:00,ZHHH 130300Z AUTO 36006KT 14SM 04/M08 A3074 RMK SLP416 T00391082 52018 IEM_DS3505
ZHHH,2001-12-13 04:00,ZHHH 130400Z AUTO 03012KT 6SM 04/M10 A3074 RMK T00401100 IEM_DS3505
ZHHH,2001-12-13 05:00,ZHHH 130500Z AUTO 02012KT 6SM 04/M10 A3071 RMK T00401100 IEM_DS3505
ZHHH,2001-12-13 06:00,ZHHH 130600Z AUTO 04004KT 12SM 05/M09 A3068 RMK SLP397 T00501088 57019 IEM_DS3505
ZHHH,2001-12-13 07:00,ZHHH 130700Z AUTO 01010KT 6SM 04/M10 A3068 RMK T00401100 IEM_DS3505
ZHHH,2001-12-13 08:00,ZHHH 130800Z AUTO 04008KT 6SM 03/M09 A3068 RMK T00301090 IEM_DS3505
ZHHH,2001-12-13 09:00,ZHHH 130900Z AUTO 04002KT 11SM 04/M10 A3068 RMK SLP398 T00361100 52001 IEM_DS3505
ZHHH,2001-12-13 10:00,ZHHH 131000Z AUTO 04006KT 6SM 03/M09 A3071 RMK T00301090 IEM_DS3505
ZHHH,2001-12-13 11:00,ZHHH 131100Z AUTO 03004KT 6SM 02/M08 A3074 RMK T00201080 IEM_DS3505
ZHHH,2001-12-13 12:00,ZHHH 131200Z AUTO 34004KT 9SM 02/M09 A3071 RMK SLP410 T00231086 52012 IEM_DS3505
ZHHH,2001-12-13 13:00,ZHHH 131300Z AUTO 04004KT 6SM 01/M09 A3074 RMK T00101090 IEM_DS3505
ZHHH,2001-12-13 14:00,ZHHH 131400Z AUTO 03004KT 6SM 01/M08 A3074 RMK T00101080 IEM_DS3505
ZHHH,2001-12-13 15:00,ZHHH 131500Z AUTO 00000KT 9SM 01/M07 A3074 RMK SLP416 T00101066 52006 IEM_DS3505
ZHHH,2001-12-13 16:00,ZHHH 131600Z AUTO 06002KT 6SM 00/M08 A3074 RMK T00001080 IEM_DS3505
ZHHH,2001-12-13 17:00,ZHHH 131700Z AUTO 05006KT 6SM 00/M08 A3074 RMK T00001080 IEM_DS3505
ZHHH,2001-12-13 18:00,ZHHH 131800Z AUTO 04002KT 11SM 00/M06 RMK SLP408 T00021065 57008 IEM_DS3505
ZHHH,2001-12-13 20:00,ZHHH 132000Z AUTO 30002KT 6SM M02/M06 A3071 RMK T10201060 IEM_DS3505
ZHHH,2001-12-13 21:00,ZHHH 132100Z AUTO 27002KT 11SM M01/M05 A3068 RMK SLP397 T10071049 57011 IEM_DS3505
ZHHH,2001-12-13 22:00,ZHHH 132200Z AUTO 6SM M02/M05 A3065 RMK T10201050 IEM_DS3505
ZHHH,2001-12-13 23:00,ZHHH 132300Z AUTO 02002KT 6SM M01/M04 A3068 RMK T10101040 IEM_DS3505
ZHHH,2001-12-14 00:00,ZHHH 140000Z AUTO 00000KT 11SM M01/M04 A3068 RMK SLP393 T10081036 57004 IEM_DS3505
ZHHH,2001-12-14 01:00,ZHHH 140100Z AUTO 6SM 00/M04 A3068 RMK T00001040 IEM_DS3505
ZHHH,2001-12-14 03:00,ZHHH 140300Z AUTO 14002KT 12SM 05/M09 A3068 RMK SLP397 T00491087 52004 IEM_DS3505
ZHHH,2001-12-14 04:00,ZHHH 140400Z AUTO 6SM 05/M08 A3068 RMK T00501080 IEM_DS3505
ZHHH,2001-12-14 05:00,ZHHH 140500Z AUTO 6SM 06/M08 A3062 RMK T00601080 IEM_DS3505
ZHHH,2001-12-14 06:00,ZHHH 140600Z AUTO 00000KT 11SM 07/M08 A3056 RMK SLP354 T00701077 57043 IEM_DS3505
ZHHH,2001-12-14 07:00,ZHHH 140700Z AUTO 6SM 07/M07 A3053 RMK T00701070 IEM_DS3505
ZHHH,2001-12-14 08:00,ZHHH 140800Z AUTO 6SM 07/M06 A3053 RMK T00701060 IEM_DS3505
ZHHH,2001-12-14 09:00,ZHHH 140900Z AUTO 00000KT 11SM 07/M06 A3053 RMK SLP343 T00661059 57011 IEM_DS3505
ZHHH,2001-12-14 10:00,ZHHH 141000Z AUTO 6SM 05/M05 A3053 RMK T00501050 IEM_DS3505
ZHHH,2001-12-14 11:00,ZHHH 141100Z AUTO 6SM 05/M05 A3050 RMK T00501050 IEM_DS3505
ZHHH,2001-12-14 12:00,ZHHH 141200Z AUTO 00000KT 9SM 06/M02 A3053 RMK SLP341 T00591022 57002 IEM_DS3505
ZHHH,2001-12-14 13:00,ZHHH 141300Z AUTO 6SM 05/M02 A3053 RMK T00501020 IEM_DS3505
ZHHH,2001-12-14 14:00,ZHHH 141400Z AUTO 11004KT 6SM 04/M02 A3053 RMK T00401020 IEM_DS3505
ZHHH,2001-12-14 15:00,ZHHH 141500Z AUTO 00000KT 9SM 05/M00 A3053 RMK SLP343 T00531005 52002 IEM_DS3505
ZHHH,2001-12-14 16:00,ZHHH 141600Z AUTO 10006KT 6SM 04/M02 A3050 RMK T00401020 IEM_DS3505
ZHHH,2001-12-14 17:00,ZHHH 141700Z AUTO 09006KT 6SM 04/M03 A3050 RMK T00401030 IEM_DS3505
ZHHH,2001-12-14 18:00,ZHHH 141800Z AUTO 00000KT 9SM 05/M01 A3050 RMK SLP332 T00491009 57011 IEM_DS3505
ZHHH,2001-12-14 19:00,ZHHH 141900Z AUTO 09006KT 6SM 04/M02 A3047 RMK T00401020 IEM_DS3505
ZHHH,2001-12-14 20:00,ZHHH 142000Z AUTO 08006KT 6SM 04/M02 A3047 RMK T00401020 IEM_DS3505
ZHHH,2001-12-14 21:00,ZHHH 142100Z AUTO 04002KT 9SM 04/00 A3045 RMK SLP314 T00440003 57018 IEM_DS3505
ZHHH,2001-12-14 22:00,ZHHH 142200Z AUTO 09008KT 6SM 03/M01 A3042 RMK T00301010 IEM_DS3505
ZHHH,2001-12-14 23:00,ZHHH 142300Z AUTO 10006KT 6SM 03/M01 A3042 RMK T00301010 IEM_DS3505
ZHHH,2001-12-15 00:00,ZHHH 150000Z AUTO 07002KT 8SM 05/00 A3042 RMK 60003 SLP307 T00480001 57007 IEM_DS3505
ZHHH,2001-12-15 01:00,ZHHH 150100Z AUTO 6SM 04/00 A3045 RMK T00400000 IEM_DS3505
ZHHH,2001-12-15 02:00,ZHHH 150200Z AUTO 07006KT 6SM 04/00 A3047 RMK T00400000 IEM_DS3505
ZHHH,2001-12-15 03:00,ZHHH 150300Z AUTO 04004KT 8SM 05/01 A3047 RMK SLP316 T00500013 52009 IEM_DS3505
ZHHH,2001-12-15 04:00,ZHHH 150400Z AUTO 07006KT 6SM 05/M01 A3042 RMK T00501010 IEM_DS3505
ZHHH,2001-12-15 05:00,ZHHH 150500Z AUTO 6SM 05/M01 A3039 RMK T00501010 IEM_DS3505
ZHHH,2001-12-15 06:00,ZHHH 150600Z AUTO 11002KT 7SM 06/M05 A3039 RMK 60003 SLP290 T00651049 57025 IEM_DS3505
ZHHH,2001-12-15 07:00,ZHHH 150700Z AUTO 6SM 05/01 A3036 RMK T00500010 IEM_DS3505
ZHHH,2001-12-15 08:00,ZHHH 150800Z AUTO 08006KT 7SM 05/01 A3036 RMK T00500010 IEM_DS3505
ZHHH,2001-12-15 09:00,ZHHH 150900Z AUTO 00000KT 6SM 06/01 A3039 RMK SLP291 T00560011 54000 IEM_DS3505
ZHHH,2001-12-15 10:00,ZHHH 151000Z AUTO 08004KT 7SM 05/01 A3039 RMK T00500010 IEM_DS3505
ZHHH,2001-12-15 11:00,ZHHH 151100Z AUTO 09004KT 4SM 04/01 A3039 RMK T00400010 IEM_DS3505
ZHHH,2001-12-15 12:00,ZHHH 151200Z AUTO 00000KT 8SM 05/M00 A3042 RMK 60003 SLP302 T00531001 52011 IEM_DS3505
ZHHH,2001-12-15 13:00,ZHHH 151300Z AUTO 11004KT 4SM 05/01 A3042 RMK T00500010 IEM_DS3505
ZHHH,2001-12-15 14:00,ZHHH 151400Z AUTO 07004KT 4SM 04/01 A3042 RMK T00400010 IEM_DS3505
ZHHH,2001-12-15 15:00,ZHHH 151500Z AUTO 14002KT 7SM 05/00 RMK SLP313 T00470000 52011 IEM_DS3505
ZHHH,2001-12-15 16:00,ZHHH 151600Z AUTO 13002KT 4SM 04/01 A3045 RMK T00400010 IEM_DS3505
ZHHH,2001-12-15 17:00,ZHHH 151700Z AUTO 16004KT 7SM 04/01 A3042 RMK T00400010 IEM_DS3505
ZHHH,2001-12-15 18:00,ZHHH 151800Z AUTO 00000KT 7SM 04/01 RMK SLP307 T00400012 57006 IEM_DS3505
ZHHH,2001-12-15 19:00,ZHHH 151900Z AUTO 7SM 03/01 A3042 RMK T00300010 IEM_DS3505
ZHHH,2001-12-15 20:00,ZHHH 152000Z AUTO 7SM 03/01 A3039 RMK T00300010 IEM_DS3505
ZHHH,2001-12-15 21:00,ZHHH 152100Z AUTO 32002KT 7SM 04/02 A3039 RMK 70003 SLP294 T00390016 57013 IEM_DS3505
ZHHH,2001-12-15 22:00,ZHHH 152200Z AUTO 04004KT 7SM 03/01 A3039 RMK T00300010 IEM_DS3505
ZHHH,2001-12-15 23:00,ZHHH 152300Z AUTO 06004KT 1 1/2SM 03/00 A3039 RMK T00300000 IEM_DS3505
ZHHH,2001-12-16 00:00,ZHHH 160000Z AUTO 34002KT 7SM 04/01 A3042 RMK 70003 SLP303 T00370009 52009 IEM_DS3505
ZHHH,2001-12-16 01:00,ZHHH 160100Z AUTO 2 1/2SM 03/00 A3042 RMK T00300000 IEM_DS3505
ZHHH,2001-12-16 02:00,ZHHH 160200Z AUTO 2 1/2SM 03/00 A3042 RMK T00300000 IEM_DS3505
ZHHH,2001-12-16 03:00,ZHHH 160300Z AUTO 04002KT 8SM 04/01 A3042 RMK SLP306 T00420010 52003 IEM_DS3505
ZHHH,2001-12-16 04:00,ZHHH 160400Z AUTO 2 1/2SM 04/00 A3039 RMK T00400000 IEM_DS3505
ZHHH,2001-12-16 05:00,ZHHH 160500Z AUTO 2 1/2SM 04/00 A3039 RMK T00400000 IEM_DS3505
ZHHH,2001-12-16 06:00,ZHHH 160600Z AUTO 32002KT 7SM 04/01 A3036 RMK SLP285 T00440013 57021 IEM_DS3505
ZHHH,2001-12-16 08:00,ZHHH 160800Z AUTO 1 1/2SM 04/01 A3036 RMK T00400010 IEM_DS3505
ZHHH,2001-12-16 09:00,ZHHH 160900Z AUTO 04002KT 7SM 04/01 RMK SLP282 T00430006 57003 IEM_DS3505
ZHHH,2001-12-16 10:00,ZHHH 161000Z AUTO 01002KT 1 1/2SM 04/01 A3036 RMK T00400010 IEM_DS3505
ZHHH,2001-12-16 11:00,ZHHH 161100Z AUTO 2SM 04/01 A3039 RMK T00400010 IEM_DS3505
ZHHH,2001-12-16 12:00,ZHHH 161200Z AUTO 32002KT 7SM 04/01 RMK 60003 SLP298 T00420008 52016 IEM_DS3505
ZHHH,2001-12-16 13:00,ZHHH 161300Z AUTO 01002KT 2SM 04/01 A3039 RMK T00400010 IEM_DS3505
ZHHH,2001-12-16 14:00,ZHHH 161400Z AUTO 2SM 04/01 A3042 RMK T00400010 IEM_DS3505
ZHHH,2001-12-16 15:00,ZHHH 161500Z AUTO 00000KT 6SM 04/01 A3042 RMK SLP308 T00430014 52010 IEM_DS3505
ZHHH,2001-12-16 16:00,ZHHH 161600Z AUTO 01002KT 1 1/2SM 04/02 A3042 RMK T00400020 IEM_DS3505
ZHHH,2001-12-16 18:00,ZHHH 161800Z AUTO 00000KT 9SM 04/02 A3042 RMK SLP308 T00410016 54000 IEM_DS3505
ZHHH,2001-12-16 19:00,ZHHH 161900Z AUTO 1 1/2SM 04/02 A3042 RMK T00400020 IEM_DS3505
ZHHH,2001-12-16 20:00,ZHHH 162000Z AUTO 1 1/4SM 04/01 A3039 RMK T00400010 IEM_DS3505
ZHHH,2001-12-16 21:00,ZHHH 162100Z AUTO 36002KT 8SM 04/02 A3042 RMK 70003 SLP301 T00420016 57007 IEM_DS3505
ZHHH,2001-12-16 22:00,ZHHH 162200Z AUTO 1 1/4SM 04/02 A3042 RMK T00400020 IEM_DS3505
ZHHH,2001-12-16 23:00,ZHHH 162300Z AUTO 1 1/4SM 04/02 A3045 RMK T00400020 IEM_DS3505
ZHHH,2001-12-17 00:00,ZHHH 170000Z AUTO 00000KT 6SM 04/01 A3045 RMK 70003 SLP319 T00410013 52018 IEM_DS3505
ZHHH,2001-12-17 01:00,ZHHH 170100Z AUTO 1SM 04/02 A3047 RMK T00400020 IEM_DS3505
ZHHH,2001-12-17 02:00,ZHHH 170200Z AUTO 1SM 04/02 A3050 RMK T00400020 IEM_DS3505
ZHHH,2001-12-17 03:00,ZHHH 170300Z AUTO 36004KT 6SM 05/02 A3050 RMK SLP331 T00510021 52012 IEM_DS3505
ZHHH,2001-12-17 04:00,ZHHH 170400Z AUTO 1 1/4SM 05/04 A3047 RMK T00500040 IEM_DS3505
ZHHH,2001-12-17 05:00,ZHHH 170500Z AUTO 03006KT 1 1/4SM 05/04 A3045 RMK T00500040 IEM_DS3505
ZHHH,2001-12-17 06:00,ZHHH 170600Z AUTO 00000KT 7SM 06/04 A3042 RMK SLP307 T00580040 57024 IEM_DS3505
ZHHH,2001-12-17 07:00,ZHHH 170700Z AUTO 03008KT 1SM 05/03 A3042 RMK T00500030 IEM_DS3505
ZHHH,2001-12-17 08:00,ZHHH 170800Z AUTO 04008KT 1SM 04/03 A3042 RMK T00400030 IEM_DS3505
ZHHH,2001-12-17 09:00,ZHHH 170900Z AUTO 02004KT 6SM 05/03 A3045 RMK SLP313 T00490032 52006 IEM_DS3505
ZHHH,2001-12-17 10:00,ZHHH 171000Z AUTO 03006KT 1SM 04/03 A3045 RMK T00400030 IEM_DS3505
ZHHH,2001-12-17 11:00,ZHHH 171100Z AUTO 03006KT 1SM 04/03 A3047 RMK T00400030 IEM_DS3505
ZHHH,2001-12-17 12:00,ZHHH 171200Z AUTO 36004KT 6SM 05/03 RMK 60003 SLP330 T00470031 52017 IEM_DS3505
ZHHH,2001-12-17 13:00,ZHHH 171300Z AUTO 02006KT 1SM 04/03 A3050 RMK T00400030 IEM_DS3505
ZHHH,2001-12-17 14:00,ZHHH 171400Z AUTO 02008KT 1SM 04/03 A3050 RMK T00400030 IEM_DS3505
ZHHH,2001-12-17 15:00,ZHHH 171500Z AUTO 36004KT 6SM 04/03 A3053 RMK SLP346 T00420032 52016 IEM_DS3505
ZHHH,2001-12-17 16:00,ZHHH 171600Z AUTO 02008KT 1SM 03/03 A3053 RMK T00300030 IEM_DS3505
ZHHH,2001-12-17 17:00,ZHHH 171700Z AUTO 02008KT 1SM 03/03 A3053 RMK T00300030 IEM_DS3505
ZHHH,2001-12-17 18:00,ZHHH 171800Z AUTO 04002KT 4SM 04/02 A3053 RMK 60000 SLP346 T00370024 54000 IEM_DS3505
ZHHH,2001-12-17 19:00,ZHHH 171900Z AUTO 02008KT 1SM 03/02 A3053 RMK T00300020 IEM_DS3505
ZHHH,2001-12-17 20:00,ZHHH 172000Z AUTO 03008KT 1SM 03/02 A3050 RMK T00300020 IEM_DS3505
ZHHH,2001-12-17 21:00,ZHHH 172100Z AUTO 36006KT 4SM 04/02 A3050 RMK 70000 SLP339 T00350019 57007 IEM_DS3505
ZHHH,2001-12-17 22:00,ZHHH 172200Z AUTO 02006KT 1 1/4SM 03/02 A3050 RMK T00300020 IEM_DS3505
ZHHH,2001-12-17 23:00,ZHHH 172300Z AUTO 02006KT 1 1/4SM 03/02 A3053 RMK T00300020 IEM_DS3505
ZHHH,2001-12-18 00:00,ZHHH 180000Z AUTO 34004KT 6SM 04/02 A3053 RMK 60003 SLP345 T00380020 52006 IEM_DS3505
ZHHH,2001-12-18 01:00,ZHHH 180100Z AUTO 03008KT 1 1/2SM 03/02 A3053 RMK T00300020 IEM_DS3505
ZHHH,2001-12-18 02:00,ZHHH 180200Z AUTO 02006KT 1 1/2SM 03/02 A3056 RMK T00300020 IEM_DS3505
ZHHH,2001-12-18 03:00,ZHHH 180300Z AUTO 02002KT 9SM 04/02 A3056 RMK SLP357 T00400018 52012 IEM_DS3505
ZHHH,2001-12-18 04:00,ZHHH 180400Z AUTO 7SM 04/02 A3053 RMK T00400020 IEM_DS3505
ZHHH,2001-12-18 05:00,ZHHH 180500Z AUTO 7SM 04/02 A3050 RMK T00400020 IEM_DS3505
ZHHH,2001-12-18 06:00,ZHHH 180600Z AUTO 27004KT 9SM 04/02 A3050 RMK SLP334 T00420022 57023 IEM_DS3505
ZHHH,2001-12-18 07:00,ZHHH 180700Z AUTO 03008KT 7SM 04/02 A3047 RMK T00400020 IEM_DS3505
ZHHH,2001-12-18 08:00,ZHHH 180800Z AUTO 31006KT 1 1/2SM 04/02 A3050 RMK T00400020 IEM_DS3505
ZHHH,2001-12-18 09:00,ZHHH 180900Z AUTO 36002KT 6SM 03/02 A3050 RMK SLP331 T00320025 57003 IEM_DS3505
ZHHH,2001-12-18 10:00,ZHHH 181000Z AUTO 05006KT 1 1/2SM 03/02 A3050 RMK T00300020 IEM_DS3505
ZHHH,2001-12-18 11:00,ZHHH 181100Z AUTO 04004KT 1 1/2SM 03/02 A3053 RMK T00300020 IEM_DS3505
ZHHH,2001-12-18 12:00,ZHHH 181200Z AUTO 34002KT 6SM 03/02 A3053 RMK 60003 SLP349 T00330024 52018 IEM_DS3505
ZHHH,2001-12-18 13:00,ZHHH 181300Z AUTO 34006KT 1 1/2SM 03/02 A3056 RMK T00300020 IEM_DS3505
ZHHH,2001-12-18 14:00,ZHHH 181400Z AUTO 35008KT 1 1/2SM 03/02 A3059 RMK T00300020 IEM_DS3505
ZHHH,2001-12-18 15:00,ZHHH 181500Z AUTO 02002KT 6SM 03/02 A3059 RMK SLP363 T00320022 52014 IEM_DS3505
ZHHH,2001-12-18 16:00,ZHHH 181600Z AUTO 3SM 03/02 A3056 RMK T00300020 IEM_DS3505
ZHHH,2001-12-18 17:00,ZHHH 181700Z AUTO 3SM 03/02 A3056 RMK T00300020 IEM_DS3505
ZHHH,2001-12-18 18:00,ZHHH 181800Z AUTO 32002KT 6SM 03/02 A3056 RMK 60003 SLP352 T00320024 57011 IEM_DS3505
ZHHH,2001-12-18 19:00,ZHHH 181900Z AUTO 2 1/2SM 03/02 A3053 RMK T00300020 IEM_DS3505
ZHHH,2001-12-18 20:00,ZHHH 182000Z AUTO 2 1/2SM 03/02 A3053 RMK T00300020 IEM_DS3505
ZHHH,2001-12-18 21:00,ZHHH 182100Z AUTO 27002KT 6SM 03/02 A3053 RMK 70003 SLP347 T00330025 57005 IEM_DS3505
ZHHH,2001-12-18 22:00,ZHHH 182200Z AUTO 32006KT 2SM 03/03 A3053 RMK T00300030 IEM_DS3505
ZHHH,2001-12-18 23:00,ZHHH 182300Z AUTO 34006KT 1 1/2SM 03/03 A3056 RMK T00300030 IEM_DS3505
ZHHH,2001-12-19 00:00,ZHHH 190000Z AUTO 36002KT 6SM 04/03 RMK 70003 SLP354 T00360027 52007 IEM_DS3505
ZHHH,2001-12-19 01:00,ZHHH 190100Z AUTO 7SM 05/04 A3056 RMK SLP320 T00510035 57006 IEM_DS3505
ZHHH,2001-12-19 02:00,ZHHH 190200Z AUTO 1SM 04/03 A3059 RMK T00400030 IEM_DS3505
ZHHH,2001-12-19 03:00,ZHHH 190300Z AUTO 02002KT 7SM 04/03 A3059 RMK SLP359 T00450032 52005 IEM_DS3505
ZHHH,2001-12-19 04:00,ZHHH 190400Z AUTO 02006KT 1 1/2SM 04/03 A3056 RMK T00400030 IEM_DS3505
ZHHH,2001-12-19 05:00,ZHHH 190500Z AUTO 01006KT 2SM 05/04 A3053 RMK T00500040 IEM_DS3505
ZHHH,2001-12-19 06:00,ZHHH 190600Z AUTO 34004KT 7SM 05/04 A3050 RMK SLP338 T00530036 57021 IEM_DS3505
ZHHH,2001-12-19 07:00,ZHHH 190700Z AUTO 34006KT 1 1/4SM 05/04 A3050 RMK T00500040 IEM_DS3505
ZHHH,2001-12-19 08:00,ZHHH 190800Z AUTO 1 1/4SM 05/04 A3050 RMK T00500040 IEM_DS3505
ZHHH,2001-12-19 09:00,ZHHH 190900Z AUTO 34004KT 7SM 05/04 A3050 RMK SLP332 T00510035 57006 IEM_DS3505
ZHHH,2001-12-19 10:00,ZHHH 191000Z AUTO 1 1/4SM 05/04 A3050 RMK T00500040 IEM_DS3505
ZHHH,2001-12-19 11:00,ZHHH 191100Z AUTO 35006KT 1 1/4SM 05/04 A3050 RMK T00500040 IEM_DS3505
ZHHH,2001-12-19 12:00,ZHHH 191200Z AUTO 32004KT 6SM 05/03 A3053 RMK SLP351 T00460034 52019 IEM_DS3505
ZHHH,2001-12-19 13:00,ZHHH 191300Z AUTO 35006KT 1 1/4SM 04/03 A3056 RMK T00400030 IEM_DS3505
ZHHH,2001-12-19 14:00,ZHHH 191400Z AUTO 1 1/4SM 04/04 A3056 RMK T00400040 IEM_DS3505
ZHHH,2001-12-19 15:00,ZHHH 191500Z AUTO 36002KT 6SM 04/04 A3056 RMK SLP356 T00440037 52005 IEM_DS3505
ZHHH,2001-12-19 16:00,ZHHH 191600Z AUTO 34006KT 1SM 04/04 A3056 RMK T00400040 IEM_DS3505
ZHHH,2001-12-19 17:00,ZHHH 191700Z AUTO 36006KT 1SM 04/03 A3056 RMK T00400030 IEM_DS3505
ZHHH,2001-12-19 18:00,ZHHH 191800Z AUTO 32004KT 6SM 04/04 A3056 RMK 60000 SLP353 T00400035 57003 IEM_DS3505
ZHHH,2001-12-19 19:00,ZHHH 191900Z AUTO 35006KT 1SM 04/04 A3056 RMK T00400040 IEM_DS3505
ZHHH,2001-12-19 20:00,ZHHH 192000Z AUTO 35006KT 1SM 04/04 A3053 RMK T00400040 IEM_DS3505
ZHHH,2001-12-19 21:00,ZHHH 192100Z AUTO 34006KT 6SM 04/03 RMK 70002 SLP343 T00370029 57010 IEM_DS3505
ZHHH,2001-12-19 22:00,ZHHH 192200Z AUTO 03010KT 1 1/4SM 03/03 A3053 RMK T00300030 IEM_DS3505
ZHHH,2001-12-19 23:00,ZHHH 192300Z AUTO 01010KT 1 1/4SM 03/02 A3056 RMK T00300020 IEM_DS3505
ZHHH,2001-12-20 00:00,ZHHH 200000Z AUTO 34004KT 5SM 03/02 A3059 RMK 60004 SLP364 T00300023 52021 IEM_DS3505
ZHHH,2001-12-20 01:00,ZHHH 200100Z AUTO 02012KT 1SM 02/01 A3059 RMK T00200010 IEM_DS3505
ZHHH,2001-12-20 02:00,ZHHH 200200Z AUTO 01008KT 1SM 02/01 A3065 RMK T00200010 IEM_DS3505
ZHHH,2001-12-20 03:00,ZHHH 200300Z AUTO 34004KT 4SM 02/01 A3065 RMK SLP385 T00150011 52021 IEM_DS3505
ZHHH,2001-12-20 04:00,ZHHH 200400Z AUTO 36012KT 1SM 02/01 A3065 RMK T00200010 IEM_DS3505
ZHHH,2001-12-20 05:00,ZHHH 200500Z AUTO 36016KT 1SM 02/01 A3062 RMK T00200010 IEM_DS3505
ZHHH,2001-12-20 06:00,ZHHH 200600Z AUTO 32006KT 5SM 02/01 A3062 RMK 60012 SLP374 T00210013 57011 IEM_DS3505
ZHHH,2001-12-20 07:00,ZHHH 200700Z AUTO 36012KT 1SM 02/01 A3062 RMK T00200010 IEM_DS3505
ZHHH,2001-12-20 08:00,ZHHH 200800Z AUTO 01010KT 1 1/4SM 02/02 A3065 RMK T00200020 IEM_DS3505
ZHHH,2001-12-20 09:00,ZHHH 200900Z AUTO 02002KT 6SM 03/02 A3065 RMK SLP383 T00290017 52009 IEM_DS3505
ZHHH,2001-12-20 10:00,ZHHH 201000Z AUTO 05006KT 1 1/2SM 02/01 A3065 RMK T00200010 IEM_DS3505
ZHHH,2001-12-20 11:00,ZHHH 201100Z AUTO 03010KT 1 1/2SM 03/00 A3068 RMK T00300000 IEM_DS3505
ZHHH,2001-12-20 12:00,ZHHH 201200Z AUTO 36002KT 7SM 02/00 A3071 RMK 60008 SLP402 T00240005 52019 IEM_DS3505
ZHHH,2001-12-20 13:00,ZHHH 201300Z AUTO 04008KT 2 1/2SM 02/M01 A3071 RMK T00201010 IEM_DS3505
ZHHH,2001-12-20 15:00,ZHHH 201500Z AUTO 04004KT 9SM 02/M03 A3074 RMK SLP417 T00151028 52015 IEM_DS3505
ZHHH,2001-12-20 16:00,ZHHH 201600Z AUTO 06010KT 7SM 00/M04 A3074 RMK T00001040 IEM_DS3505
ZHHH,2001-12-20 17:00,ZHHH 201700Z AUTO 05008KT 7SM 00/M05 A3074 RMK T00001050 IEM_DS3505
ZHHH,2001-12-20 18:00,ZHHH 201800Z AUTO 04002KT 9SM 00/M05 A3074 RMK SLP418 T00031047 52001 IEM_DS3505
ZHHH,2001-12-20 19:00,ZHHH 201900Z AUTO 6SM M01/M06 A3077 RMK T10101060 IEM_DS3505
ZHHH,2001-12-20 20:00,ZHHH 202000Z AUTO 6SM M01/M05 A3077 RMK T10101050 IEM_DS3505
ZHHH,2001-12-20 21:00,ZHHH 202100Z AUTO 00000KT 9SM M00/M05 A3077 RMK 70019 SLP420 T10031050 52002 IEM_DS3505
ZHHH,2001-12-20 22:00,ZHHH 202200Z AUTO 02004KT 6SM M02/M05 A3074 RMK T10201050 IEM_DS3505
ZHHH,2001-12-20 23:00,ZHHH 202300Z AUTO 08006KT 6SM M02/M06 A3074 RMK T10201060 IEM_DS3505
ZHHH,2001-12-21 00:00,ZHHH 210000Z AUTO 36002KT 12SM M01/M06 A3077 RMK 70018 SLP427 T10091056 52007 IEM_DS3505
ZHHH,2001-12-21 01:00,ZHHH 210100Z AUTO 6SM M01/M05 A3080 RMK T10101050 IEM_DS3505
ZHHH,2001-12-21 02:00,ZHHH 210200Z AUTO 6SM 01/M07 A3080 RMK T00101070 IEM_DS3505
ZHHH,2001-12-21 03:00,ZHHH 210300Z AUTO 02002KT 14SM 03/M08 A3077 RMK SLP425 T00321084 57002 IEM_DS3505
ZHHH,2001-12-21 04:00,ZHHH 210400Z AUTO 35006KT 6SM 03/M08 A3074 RMK T00301080 IEM_DS3505
ZHHH,2001-12-21 05:00,ZHHH 210500Z AUTO 6SM 04/M07 A3071 RMK T00401070 IEM_DS3505
ZHHH,2001-12-21 06:00,ZHHH 210600Z AUTO 02002KT 12SM 05/M08 A3068 RMK SLP396 T00521079 57029 IEM_DS3505
ZHHH,2001-12-21 07:00,ZHHH 210700Z AUTO 30006KT 6SM 05/M08 A3068 RMK T00501080 IEM_DS3505
ZHHH,2001-12-21 08:00,ZHHH 210800Z AUTO 32008KT 6SM 05/M09 A3065 RMK T00501090 IEM_DS3505
ZHHH,2001-12-21 09:00,ZHHH 210900Z AUTO 00000KT 12SM 04/M09 A3065 RMK SLP383 T00451086 57013 IEM_DS3505
ZHHH,2001-12-21 10:00,ZHHH 211000Z AUTO 6SM 03/M08 A3065 RMK T00301080 IEM_DS3505
ZHHH,2001-12-21 11:00,ZHHH 211100Z AUTO 24002KT 6SM 02/M07 A3065 RMK T00201070 IEM_DS3505
ZHHH,2001-12-21 12:00,ZHHH 211200Z AUTO 00000KT 11SM 02/M06 A3065 RMK SLP385 T00191055 52002 IEM_DS3505
ZHHH,2001-12-21 14:00,ZHHH 211400Z AUTO 22006KT 6SM 02/M07 A3065 RMK T00201070 IEM_DS3505
ZHHH,2001-12-21 15:00,ZHHH 211500Z AUTO 00000KT 9SM 00/M04 A3065 RMK SLP381 T00031041 57004 IEM_DS3505
ZHHH,2001-12-21 16:00,ZHHH 211600Z AUTO 19004KT 6SM 01/M05 A3062 RMK T00101050 IEM_DS3505
ZHHH,2001-12-21 17:00,ZHHH 211700Z AUTO 19004KT 6SM 00/M04 A3062 RMK T00001040 IEM_DS3505
ZHHH,2001-12-21 18:00,ZHHH 211800Z AUTO 00000KT 11SM 00/M03 A3059 RMK SLP363 T00021032 57018 IEM_DS3505
ZHHH,2001-12-21 19:00,ZHHH 211900Z AUTO 19004KT 6SM 00/M04 A3056 RMK T00001040 IEM_DS3505
ZHHH,2001-12-21 20:00,ZHHH 212000Z AUTO 18004KT 6SM 00/M03 A3053 RMK T00001030 IEM_DS3505
ZHHH,2001-12-21 21:00,ZHHH 212100Z AUTO 00000KT 11SM M00/M02 A3056 RMK SLP349 T10051024 57014 IEM_DS3505
ZHHH,2001-12-21 22:00,ZHHH 212200Z AUTO 16002KT 6SM M01/M03 A3056 RMK T10101030 IEM_DS3505
ZHHH,2001-12-21 23:00,ZHHH 212300Z AUTO 15002KT 6SM M01/M04 A3056 RMK T10101040 IEM_DS3505
ZHHH,2001-12-22 00:00,ZHHH 220000Z AUTO 16002KT 11SM 00/M02 A3056 RMK SLP352 T00001024 52003 IEM_DS3505
ZHHH,2001-12-22 01:00,ZHHH 220100Z AUTO 1 1/2SM 00/M02 A3056 RMK T00001020 IEM_DS3505
ZHHH,2001-12-22 02:00,ZHHH 220200Z AUTO 2 1/2SM 02/M01 A3056 RMK T00201010 IEM_DS3505
ZHHH,2001-12-22 03:00,ZHHH 220300Z AUTO 16004KT 11SM 05/M03 A3053 RMK SLP344 T00531032 57008 IEM_DS3505
ZHHH,2001-12-22 04:00,ZHHH 220400Z AUTO 18006KT 06/M05 A3050 RMK T00601050 IEM_DS3505
ZHHH,2001-12-22 05:00,ZHHH 220500Z AUTO 22006KT 6SM 07/M03 A3045 RMK T00701030 IEM_DS3505
ZHHH,2001-12-22 06:00,ZHHH 220600Z AUTO 18004KT 12SM 08/M03 A3042 RMK SLP303 T00821031 57041 IEM_DS3505
ZHHH,2001-12-22 07:00,ZHHH 220700Z AUTO 21008KT 6SM 08/M03 A3039 RMK T00801030 IEM_DS3505
ZHHH,2001-12-22 08:00,ZHHH 220800Z AUTO 21006KT 6SM 08/M02 A3039 RMK T00801020 IEM_DS3505
ZHHH,2001-12-22 09:00,ZHHH 220900Z AUTO 00000KT 12SM 08/00 A3039 RMK SLP289 T00790003 57014 IEM_DS3505
ZHHH,2001-12-22 10:00,ZHHH 221000Z AUTO 14002KT 5SM 06/M01 A3039 RMK T00601010 IEM_DS3505
ZHHH,2001-12-22 11:00,ZHHH 221100Z AUTO 14002KT 3SM 05/M01 A3036 RMK T00501010 IEM_DS3505
ZHHH,2001-12-22 12:00,ZHHH 221200Z AUTO 16002KT 12SM 03/01 A3039 RMK SLP294 T00340006 52005 IEM_DS3505
ZHHH,2001-12-22 13:00,ZHHH 221300Z AUTO 15004KT 2SM 05/M01 A3039 RMK T00501010 IEM_DS3505
ZHHH,2001-12-22 14:00,ZHHH 221400Z AUTO 2SM 03/00 A3039 RMK T00300000 IEM_DS3505
ZHHH,2001-12-22 15:00,ZHHH 221500Z AUTO 00000KT 12SM 02/M01 A3039 RMK SLP293 T00191008 57001 IEM_DS3505
ZHHH,2001-12-22 17:00,ZHHH 221700Z AUTO 12006KT 1 1/2SM 02/M01 A3036 RMK T00201010 IEM_DS3505
ZHHH,2001-12-22 18:00,ZHHH 221800Z AUTO 00000KT 9SM 02/M01 A3036 RMK SLP280 T00151009 57013 IEM_DS3505
ZHHH,2001-12-22 19:00,ZHHH 221900Z AUTO 12008KT 2SM 01/M01 A3033 RMK T00101010 IEM_DS3505
ZHHH,2001-12-22 20:00,ZHHH 222000Z AUTO 10008KT 1 1/2SM 00/M02 A3033 RMK T00001020 IEM_DS3505
ZHHH,2001-12-22 21:00,ZHHH 222100Z AUTO 00000KT 9SM 00/M01 A3033 RMK SLP271 T00021013 57009 IEM_DS3505
ZHHH,2001-12-22 22:00,ZHHH 222200Z AUTO 12006KT 1 1/2SM 00/M03 A3033 RMK T00001030 IEM_DS3505
ZHHH,2001-12-22 23:00,ZHHH 222300Z AUTO 12006KT 2SM 00/M02 A3033 RMK T00001020 IEM_DS3505
ZHHH,2001-12-23 00:00,ZHHH 230000Z AUTO 07002KT 11SM 01/M02 A3036 RMK SLP285 T00091015 52014 IEM_DS3505
ZHHH,2001-12-23 01:00,ZHHH 230100Z AUTO 11008KT 3SM 01/M02 A3039 RMK T00101020 IEM_DS3505
ZHHH,2001-12-23 02:00,ZHHH 230200Z AUTO 11006KT 4SM 03/M01 A3042 RMK T00301010 IEM_DS3505
ZHHH,2001-12-23 03:00,ZHHH 230300Z AUTO 09002KT 14SM 06/00 A3042 RMK SLP298 T00640000 52013 IEM_DS3505
ZHHH,2001-12-23 04:00,ZHHH 230400Z AUTO 12006KT 6SM 07/00 A3039 RMK T00700000 IEM_DS3505
ZHHH,2001-12-23 05:00,ZHHH 230500Z AUTO 6SM 08/00 A3036 RMK T00800000 IEM_DS3505
ZHHH,2001-12-23 06:00,ZHHH 230600Z AUTO 00000KT 11SM 10/M03 A3033 RMK SLP270 T01051028 57027 IEM_DS3505
ZHHH,2001-12-23 07:00,ZHHH 230700Z AUTO 6SM 10/M01 A3030 RMK T01001010 IEM_DS3505
ZHHH,2001-12-23 08:00,ZHHH 230800Z AUTO 6SM 09/M01 A3030 RMK T00901010 IEM_DS3505
ZHHH,2001-12-23 09:00,ZHHH 230900Z AUTO 00000KT 11SM 09/00 RMK SLP271 T00870004 54000 IEM_DS3505
ZHHH,2001-12-23 10:00,ZHHH 231000Z AUTO 08006KT 3SM 07/M01 A3033 RMK T00701010 IEM_DS3505
ZHHH,2001-12-23 11:00,ZHHH 231100Z AUTO 3SM 06/M02 A3033 RMK T00601020 IEM_DS3505
ZHHH,2001-12-23 12:00,ZHHH 231200Z AUTO 00000KT 9SM 05/00 A3033 RMK SLP276 T00490003 52005 IEM_DS3505
ZHHH,2001-12-23 13:00,ZHHH 231300Z AUTO 12004KT 3SM 06/M01 A3033 RMK T00601010 IEM_DS3505
ZHHH,2001-12-23 14:00,ZHHH 231400Z AUTO 07004KT 3SM 05/M01 A3033 RMK T00501010 IEM_DS3505
ZHHH,2001-12-23 15:00,ZHHH 231500Z AUTO 00000KT 9SM 03/M00 A3033 RMK SLP277 T00301001 52001 IEM_DS3505
ZHHH,2001-12-23 16:00,ZHHH 231600Z AUTO 06006KT 3SM 03/M01 A3036 RMK T00301010 IEM_DS3505
ZHHH,2001-12-23 17:00,ZHHH 231700Z AUTO 07008KT 2 1/2SM 03/M01 A3036 RMK T00301010 IEM_DS3505
ZHHH,2001-12-23 18:00,ZHHH 231800Z AUTO 07002KT 9SM 03/00 A3033 RMK T00280000 IEM_DS3505
ZHHH,2001-12-23 19:00,ZHHH 231900Z AUTO 07006KT 2 1/2SM 02/M01 A3033 RMK T00201010 IEM_DS3505
ZHHH,2001-12-23 20:00,ZHHH 232000Z AUTO 06006KT 2 1/2SM 02/M01 A3033 RMK T00201010 IEM_DS3505
ZHHH,2001-12-23 21:00,ZHHH 232100Z AUTO 07002KT 9SM 02/M00 A3036 RMK SLP279 T00181004 52003 IEM_DS3505
ZHHH,2001-12-23 22:00,ZHHH 232200Z AUTO 06006KT 2 1/2SM 01/M01 A3036 RMK T00101010 IEM_DS3505
ZHHH,2001-12-23 23:00,ZHHH 232300Z AUTO 05006KT 1 1/2SM 02/M01 A3039 RMK T00201010 IEM_DS3505
ZHHH,2001-12-24 00:00,ZHHH 240000Z AUTO 04002KT 9SM 02/M01 A3042 RMK SLP304 T00191008 52024 IEM_DS3505
ZHHH,2001-12-24 01:00,ZHHH 240100Z AUTO 03006KT 1 1/2SM 03/M01 A3042 RMK T00301010 IEM_DS3505
ZHHH,2001-12-24 02:00,ZHHH 240200Z AUTO 04006KT 2 1/2SM 05/M01 A3045 RMK T00501010 IEM_DS3505
ZHHH,2001-12-24 03:00,ZHHH 240300Z AUTO 02004KT 11SM 07/M01 A3045 RMK SLP319 T00721010 52015 IEM_DS3505
ZHHH,2001-12-24 04:00,ZHHH 240400Z AUTO 04012KT 6SM 09/M04 A3045 RMK T00901040 IEM_DS3505
ZHHH,2001-12-24 05:00,ZHHH 240500Z AUTO 03010KT 6SM 09/M03 A3042 RMK T00901030 IEM_DS3505
ZHHH,2001-12-24 06:00,ZHHH 240600Z AUTO 02006KT 14SM 10/M04 A3042 RMK SLP303 T01011036 57015 IEM_DS3505
ZHHH,2001-12-24 07:00,ZHHH 240700Z AUTO 04014KT 6SM 09/M02 A3042 RMK T00901020 IEM_DS3505
ZHHH,2001-12-24 08:00,ZHHH 240800Z AUTO 04012KT 2 1/2SM 08/01 A3045 RMK T00800010 IEM_DS3505
ZHHH,2001-12-24 09:00,ZHHH 240900Z AUTO 04004KT 11SM 07/00 A3047 RMK SLP327 T00740002 52023 IEM_DS3505
ZHHH,2001-12-24 10:00,ZHHH 241000Z AUTO 03010KT 2 1/2SM 05/M02 A3050 RMK T00501020 IEM_DS3505
ZHHH,2001-12-24 11:00,ZHHH 241100Z AUTO 03014KT 3SM 04/M03 A3053 RMK T00401030 IEM_DS3505
ZHHH,2001-12-24 12:00,ZHHH 241200Z AUTO 02006KT 11SM 04/M04 A3056 RMK SLP359 T00371037 52032 IEM_DS3505
ZHHH,2001-12-24 13:00,ZHHH 241300Z AUTO 03012G21KT 6SM 02/M05 A3059 RMK T00201050 IEM_DS3505
ZHHH,2001-12-24 14:00,ZHHH 241400Z AUTO 03010KT 6SM 02/M07 A3065 RMK T00201070 IEM_DS3505
ZHHH,2001-12-24 15:00,ZHHH 241500Z AUTO 02006KT 11SM 02/M05 A3065 RMK SLP385 T00151053 52026 IEM_DS3505
ZHHH,2001-12-24 16:00,ZHHH 241600Z AUTO 03008KT 6SM 00/M08 A3068 RMK T00001080 IEM_DS3505
ZHHH,2001-12-24 17:00,ZHHH 241700Z AUTO 02006KT 6SM 00/M10 A3068 RMK T00001100 IEM_DS3505
ZHHH,2001-12-24 18:00,ZHHH 241800Z AUTO 36006KT 11SM M00/M10 A3068 RMK SLP395 T10011105 52010 IEM_DS3505
ZHHH,2001-12-24 19:00,ZHHH 241900Z AUTO 02008KT 6SM M01/M12 A3071 RMK T10101120 IEM_DS3505
ZHHH,2001-12-24 20:00,ZHHH 242000Z AUTO 02008KT 6SM M02/M12 A3071 RMK T10201120 IEM_DS3505
ZHHH,2001-12-24 21:00,ZHHH 242100Z AUTO 36006KT 9SM M02/M13 A3071 RMK SLP401 T10151127 52006 IEM_DS3505
ZHHH,2001-12-24 22:00,ZHHH 242200Z AUTO 02010KT 6SM M03/M13 A3071 RMK T10301130 IEM_DS3505
ZHHH,2001-12-24 23:00,ZHHH 242300Z AUTO 03012KT 6SM M03/M13 A3074 RMK T10301130 IEM_DS3505
ZHHH,2001-12-25 00:00,ZHHH 250000Z AUTO 04004KT 12SM M03/M13 A3077 RMK SLP425 T10261134 52024 IEM_DS3505
ZHHH,2001-12-25 01:00,ZHHH 250100Z AUTO 03010KT 6SM M03/M14 A3077 RMK T10301140 IEM_DS3505
ZHHH,2001-12-25 02:00,ZHHH 250200Z AUTO 04008KT 6SM M02/M14 A3077 RMK T10201140 IEM_DS3505
ZHHH,2001-12-25 03:00,ZHHH 250300Z AUTO 34004KT 12SM 00/M14 A3077 RMK SLP421 T00001139 57004 IEM_DS3505
ZHHH,2001-12-25 04:00,ZHHH 250400Z AUTO 07006KT 6SM 01/M14 A3074 RMK T00101140 IEM_DS3505
ZHHH,2001-12-25 05:00,ZHHH 250500Z AUTO 6SM 02/M15 A3068 RMK T00201150 IEM_DS3505
ZHHH,2001-12-25 06:00,ZHHH 250600Z AUTO 09004KT 12SM 03/M12 A3065 RMK SLP386 T00311121 57035 IEM_DS3505
ZHHH,2001-12-25 07:00,ZHHH 250700Z AUTO 6SM 03/M13 A3062 RMK T00301130 IEM_DS3505
ZHHH,2001-12-25 08:00,ZHHH 250800Z AUTO 6SM 03/M12 A3062 RMK T00301120 IEM_DS3505
ZHHH,2001-12-25 09:00,ZHHH 250900Z AUTO 07002KT 12SM 03/M11 A3062 RMK SLP375 T00291108 57011 IEM_DS3505
ZHHH,2001-12-25 10:00,ZHHH 251000Z AUTO 05002KT 6SM 02/M13 A3062 RMK T00201130 IEM_DS3505
ZHHH,2001-12-25 11:00,ZHHH 251100Z AUTO 06006KT 6SM 02/M10 A3062 RMK T00201100 IEM_DS3505
ZHHH,2001-12-25 12:00,ZHHH 251200Z AUTO 00000KT 11SM 02/M08 A3062 RMK SLP376 T00211085 52001 IEM_DS3505
ZHHH,2001-12-25 13:00,ZHHH 251300Z AUTO 05006KT 6SM 00/M08 A3062 RMK T00001080 IEM_DS3505
ZHHH,2001-12-25 14:00,ZHHH 251400Z AUTO 6SM 00/M07 A3062 RMK T00001070 IEM_DS3505
ZHHH,2001-12-25 15:00,ZHHH 251500Z AUTO 36002KT 9SM 01/M07 A3062 RMK SLP377 T00071068 52001 IEM_DS3505
ZHHH,2001-12-25 16:00,ZHHH 251600Z AUTO 05004KT 6SM 00/M07 A3062 RMK T00001070 IEM_DS3505
ZHHH,2001-12-25 17:00,ZHHH 251700Z AUTO 06004KT 6SM 00/M07 A3059 RMK T00001070 IEM_DS3505
ZHHH,2001-12-25 18:00,ZHHH 251800Z AUTO 04002KT 9SM M00/M06 RMK SLP365 T10011055 57012 IEM_DS3505
ZHHH,2001-12-25 19:00,ZHHH 251900Z AUTO 06002KT 6SM M01/M06 A3059 RMK T10101060 IEM_DS3505
ZHHH,2001-12-25 20:00,ZHHH 252000Z AUTO 07002KT 6SM M01/M07 A3056 RMK T10101070 IEM_DS3505
ZHHH,2001-12-25 21:00,ZHHH 252100Z AUTO 07002KT 9SM M01/M05 A3056 RMK SLP356 T10071052 57009 IEM_DS3505
ZHHH,2001-12-25 22:00,ZHHH 252200Z AUTO 6SM M02/M07 A3056 RMK T10201070 IEM_DS3505
ZHHH,2001-12-25 23:00,ZHHH 252300Z AUTO 6SM M02/M06 A3056 RMK T10201060 IEM_DS3505
ZHHH,2001-12-26 00:00,ZHHH 260000Z AUTO 00000KT 11SM M00/M06 A3059 RMK SLP360 T10051058 52004 IEM_DS3505
ZHHH,2001-12-26 01:00,ZHHH 260100Z AUTO 6SM 00/M05 A3059 RMK T00001050 IEM_DS3505
ZHHH,2001-12-26 02:00,ZHHH 260200Z AUTO 6SM 01/M06 A3059 RMK T00101060 IEM_DS3505
ZHHH,2001-12-26 03:00,ZHHH 260300Z AUTO 34002KT 11SM 02/M04 A3059 RMK SLP363 T00251035 52003 IEM_DS3505
ZHHH,2001-12-26 04:00,ZHHH 260400Z AUTO 6SM 02/M06 A3056 RMK T00201060 IEM_DS3505
ZHHH,2001-12-26 05:00,ZHHH 260500Z AUTO 6SM 03/M06 A3053 RMK T00301060 IEM_DS3505
ZHHH,2001-12-26 06:00,ZHHH 260600Z AUTO 27002KT 9SM 04/M05 A3050 RMK SLP334 T00411053 57029 IEM_DS3505
ZHHH,2001-12-26 07:00,ZHHH 260700Z AUTO 6SM 04/M06 A3050 RMK T00401060 IEM_DS3505
ZHHH,2001-12-26 08:00,ZHHH 260800Z AUTO 6SM 04/M08 A3047 RMK T00401080 IEM_DS3505
ZHHH,2001-12-26 09:00,ZHHH 260900Z AUTO 34002KT 11SM 04/M05 A3047 RMK SLP330 T00381050 57004 IEM_DS3505
ZHHH,2001-12-26 10:00,ZHHH 261000Z AUTO 6SM 03/M05 A3050 RMK T00301050 IEM_DS3505
ZHHH,2001-12-26 11:00,ZHHH 261100Z AUTO 02/M04 A3050 RMK T00201040 IEM_DS3505
ZHHH,2001-12-26 12:00,ZHHH 261200Z AUTO 00000KT 7SM 03/M05 A3053 RMK SLP342 T00321046 52012 IEM_DS3505
ZHHH,2001-12-26 13:00,ZHHH 261300Z AUTO 02/M05 A3053 RMK T00201050 IEM_DS3505
ZHHH,2001-12-26 14:00,ZHHH 261400Z AUTO 36002KT 4SM 02/M03 A3053 RMK T00201030 IEM_DS3505
ZHHH,2001-12-26 15:00,ZHHH 261500Z AUTO 00000KT 7SM 03/M04 A3056 RMK SLP353 T00261040 52011 IEM_DS3505
ZHHH,2001-12-26 16:00,ZHHH 261600Z AUTO 02/M04 A3053 RMK T00201040 IEM_DS3505
ZHHH,2001-12-26 17:00,ZHHH 261700Z AUTO 01/M05 A3053 RMK T00101050 IEM_DS3505
ZHHH,2001-12-26 18:00,ZHHH 261800Z AUTO 29002KT 7SM 02/M04 A3053 RMK SLP349 T00241039 57004 IEM_DS3505
ZHHH,2001-12-26 19:00,ZHHH 261900Z AUTO 34006KT 02/M04 A3053 RMK T00201040 IEM_DS3505
ZHHH,2001-12-26 20:00,ZHHH 262000Z AUTO 4SM 01/M04 A3053 RMK T00101040 IEM_DS3505
ZHHH,2001-12-26 21:00,ZHHH 262100Z AUTO 27002KT 7SM 02/M05 A3053 RMK SLP348 T00221046 57001 IEM_DS3505
ZHHH,2001-12-26 22:00,ZHHH 262200Z AUTO 34004KT 4SM 00/M04 A3053 RMK T00001040 IEM_DS3505
ZHHH,2001-12-26 23:00,ZHHH 262300Z AUTO 35004KT 2 1/2SM M01/M03 A3056 RMK T10101030 IEM_DS3505
ZHHH,2001-12-27 00:00,ZHHH 270000Z AUTO 00000KT 11SM 00/M04 A3056 RMK SLP360 T00041039 52012 IEM_DS3505
ZHHH,2001-12-27 01:00,ZHHH 270100Z AUTO 32002KT 2SM 00/M03 A3059 RMK T00001030 IEM_DS3505
ZHHH,2001-12-27 02:00,ZHHH 270200Z AUTO 2 1/2SM 02/M03 A3062 RMK T00201030 IEM_DS3505
ZHHH,2001-12-27 03:00,ZHHH 270300Z AUTO 34002KT 11SM 05/M04 RMK SLP367 T00461040 52007 IEM_DS3505
ZHHH,2001-12-27 04:00,ZHHH 270400Z AUTO 6SM 06/M05 A3056 RMK T00601050 IEM_DS3505
ZHHH,2001-12-27 05:00,ZHHH 270500Z AUTO 32006KT 6SM 07/M04 A3053 RMK T00701040 IEM_DS3505
ZHHH,2001-12-27 06:00,ZHHH 270600Z AUTO 29002KT 11SM 08/M06 A3050 RMK SLP341 T00761059 57026 IEM_DS3505
ZHHH,2001-12-27 07:00,ZHHH 270700Z AUTO 6SM 07/M04 A3050 RMK T00701040 IEM_DS3505
ZHHH,2001-12-27 08:00,ZHHH 270800Z AUTO 6SM 07/M04 A3053 RMK T00701040 IEM_DS3505
ZHHH,2001-12-27 09:00,ZHHH 270900Z AUTO 00000KT 11SM 07/M05 A3053 RMK SLP344 T00701054 52003 IEM_DS3505
ZHHH,2001-12-27 10:00,ZHHH 271000Z AUTO 6SM 05/M03 A3053 RMK T00501030 IEM_DS3505
ZHHH,2001-12-27 11:00,ZHHH 271100Z AUTO 36002KT 6SM 05/M04 A3053 RMK T00501040 IEM_DS3505
ZHHH,2001-12-27 12:00,ZHHH 271200Z AUTO 00000KT 9SM 03/M02 A3056 RMK SLP352 T00291018 52008 IEM_DS3505
ZHHH,2001-12-27 13:00,ZHHH 271300Z AUTO 6SM 04/M06 A3056 RMK T00401060 IEM_DS3505
ZHHH,2001-12-27 14:00,ZHHH 271400Z AUTO 04004KT 6SM 02/M06 A3056 RMK T00201060 IEM_DS3505
ZHHH,2001-12-27 15:00,ZHHH 271500Z AUTO 34002KT 6SM 02/M02 A3056 RMK SLP359 T00221021 52007 IEM_DS3505
ZHHH,2001-12-27 16:00,ZHHH 271600Z AUTO 04002KT 6SM 01/M07 A3056 RMK T00101070 IEM_DS3505
ZHHH,2001-12-27 17:00,ZHHH 271700Z AUTO 6SM 00/M06 A3056 RMK T00001060 IEM_DS3505
ZHHH,2001-12-27 18:00,ZHHH 271800Z AUTO 00000KT 4SM 00/M03 A3056 RMK SLP360 T00051027 52001 IEM_DS3505
ZHHH,2001-12-27 19:00,ZHHH 271900Z AUTO 6SM M01/M03 A3056 RMK T10101030 IEM_DS3505
ZHHH,2001-12-27 20:00,ZHHH 272000Z AUTO 34004KT 6SM M01/M02 A3056 RMK T10101020 IEM_DS3505
ZHHH,2001-12-27 21:00,ZHHH 272100Z AUTO 00000KT 4SM M00/M04 A3056 RMK SLP354 T10041044 57006 IEM_DS3505
ZHHH,2001-12-27 22:00,ZHHH 272200Z AUTO 32004KT 6SM M02/M04 A3056 RMK T10201040 IEM_DS3505
ZHHH,2001-12-27 23:00,ZHHH 272300Z AUTO 32004KT 3SM M02/M04 A3056 RMK T10201040 IEM_DS3505
ZHHH,2001-12-28 00:00,ZHHH 280000Z AUTO 00000KT 11SM 00/M05 A3056 RMK SLP360 T00011049 52006 IEM_DS3505
ZHHH,2001-12-28 01:00,ZHHH 280100Z AUTO 1 1/2SM 00/M04 A3059 RMK T00001040 IEM_DS3505
ZHHH,2001-12-28 02:00,ZHHH 280200Z AUTO 2SM 03/M06 A3059 RMK T00301060 IEM_DS3505
ZHHH,2001-12-28 03:00,ZHHH 280300Z AUTO 27004KT 11SM 04/M04 A3059 RMK SLP362 T00421039 52002 IEM_DS3505
ZHHH,2001-12-28 04:00,ZHHH 280400Z AUTO 27006KT 2 1/2SM 05/M03 A3056 RMK T00501030 IEM_DS3505
ZHHH,2001-12-28 05:00,ZHHH 280500Z AUTO 3SM 07/M03 A3050 RMK T00701030 IEM_DS3505
ZHHH,2001-12-28 06:00,ZHHH 280600Z AUTO 00000KT 9SM 10/M04 A3047 RMK SLP328 T00971041 57034 IEM_DS3505
ZHHH,2001-12-28 07:00,ZHHH 280700Z AUTO 09/M03 A3047 RMK T00901030 IEM_DS3505
ZHHH,2001-12-28 08:00,ZHHH 280800Z AUTO 22006KT 3SM 09/M03 A3045 RMK T00901030 IEM_DS3505
ZHHH,2001-12-28 09:00,ZHHH 280900Z AUTO 18002KT 9SM 09/M03 A3045 RMK SLP315 T00861033 57013 IEM_DS3505
ZHHH,2001-12-28 10:00,ZHHH 281000Z AUTO 21006KT 2 1/2SM 07/M02 A3045 RMK T00701020 IEM_DS3505
ZHHH,2001-12-28 11:00,ZHHH 281100Z AUTO 21004KT 2 1/2SM 06/M02 A3045 RMK T00601020 IEM_DS3505
ZHHH,2001-12-28 12:00,ZHHH 281200Z AUTO 00000KT 11SM 05/M02 A3042 RMK SLP306 T00481025 57009 IEM_DS3505
ZHHH,2001-12-28 13:00,ZHHH 281300Z AUTO 2 1/2SM 05/M03 A3042 RMK T00501030 IEM_DS3505
ZHHH,2001-12-28 14:00,ZHHH 281400Z AUTO 16004KT 2 1/2SM 04/M03 A3042 RMK T00401030 IEM_DS3505
ZHHH,2001-12-28 15:00,ZHHH 281500Z AUTO 00000KT 11SM 02/M03 A3042 RMK SLP301 T00251028 57005 IEM_DS3505
ZHHH,2001-12-28 16:00,ZHHH 281600Z AUTO 2 1/2SM 04/M04 A3042 RMK T00401040 IEM_DS3505
ZHHH,2001-12-28 17:00,ZHHH 281700Z AUTO 14004KT 2 1/2SM 02/M02 A3039 RMK T00201020 IEM_DS3505
ZHHH,2001-12-28 18:00,ZHHH 281800Z AUTO 16002KT 11SM 01/M02 A3039 RMK SLP293 T00131023 57008 IEM_DS3505
ZHHH,2001-12-28 19:00,ZHHH 281900Z AUTO 14004KT 2SM 02/M02 A3036 RMK T00201020 IEM_DS3505
ZHHH,2001-12-28 20:00,ZHHH 282000Z AUTO 14004KT 1 1/2SM 02/M02 A3036 RMK T00201020 IEM_DS3505
ZHHH,2001-12-28 21:00,ZHHH 282100Z AUTO 00000KT 9SM 02/M02 A3033 RMK SLP279 T00151016 57014 IEM_DS3505
ZHHH,2001-12-28 22:00,ZHHH 282200Z AUTO 14004KT 1 1/2SM 01/M02 A3033 RMK T00101020 IEM_DS3505
ZHHH,2001-12-28 23:00,ZHHH 282300Z AUTO 13004KT 1 1/4SM 00/M01 A3036 RMK T00001010 IEM_DS3505
ZHHH,2001-12-29 00:00,ZHHH 290000Z AUTO 00000KT 9SM 01/M01 A3036 RMK SLP290 T00131013 52011 IEM_DS3505
ZHHH,2001-12-29 01:00,ZHHH 290100Z AUTO 1SM 02/M01 A3039 RMK T00201010 IEM_DS3505
ZHHH,2001-12-29 02:00,ZHHH 290200Z AUTO 1SM 04/01 A3039 RMK T00400010 IEM_DS3505
ZHHH,2001-12-29 03:00,ZHHH 290300Z AUTO 25002KT 11SM 08/M00 A3039 RMK SLP291 T00801004 52001 IEM_DS3505
ZHHH,2001-12-29 04:00,ZHHH 290400Z AUTO 26006KT 2SM 08/00 A3036 RMK T00800000 IEM_DS3505
ZHHH,2001-12-29 05:00,ZHHH 290500Z AUTO 2SM 10/00 A3033 RMK T01000000 IEM_DS3505
ZHHH,2001-12-29 06:00,ZHHH 290600Z AUTO 25002KT 12SM 12/01 A3030 RMK SLP259 T01200006 57031 IEM_DS3505
ZHHH,2001-12-29 07:00,ZHHH 290700Z AUTO 22006KT 2SM 11/02 A3027 RMK T01100020 IEM_DS3505
ZHHH,2001-12-29 08:00,ZHHH 290800Z AUTO 2SM 12/02 A3027 RMK T01200020 IEM_DS3505
ZHHH,2001-12-29 09:00,ZHHH 290900Z AUTO 00000KT 11SM 11/03 A3027 RMK SLP252 T01110033 57007 IEM_DS3505
ZHHH,2001-12-29 10:00,ZHHH 291000Z AUTO 18004KT 1 1/2SM 09/03 A3027 RMK T00900030 IEM_DS3505
ZHHH,2001-12-29 11:00,ZHHH 291100Z AUTO 17002KT 1 1/2SM 09/03 A3027 RMK T00900030 IEM_DS3505
ZHHH,2001-12-29 12:00,ZHHH 291200Z AUTO 00000KT 7SM 05/03 RMK SLP254 T00480027 52001 IEM_DS3505
ZHHH,2001-12-29 13:00,ZHHH 291300Z AUTO 1 1/4SM 07/03 A3027 RMK T00700030 IEM_DS3505
ZHHH,2001-12-29 14:00,ZHHH 291400Z AUTO 10004KT 1SM 06/02 A3027 RMK T00600020 IEM_DS3505
ZHHH,2001-12-29 15:00,ZHHH 291500Z AUTO 00000KT 6SM 03/02 A3027 RMK SLP251 T00340023 57002 IEM_DS3505
ZHHH,2001-12-29 16:00,ZHHH 291600Z AUTO 12004KT 1SM 05/02 A3027 RMK T00500020 IEM_DS3505
ZHHH,2001-12-29 17:00,ZHHH 291700Z AUTO 10004KT 1SM 04/01 A3027 RMK T00400010 IEM_DS3505
ZHHH,2001-12-29 18:00,ZHHH 291800Z AUTO 07002KT 7SM 02/02 A3027 RMK SLP253 T00250018 52002 IEM_DS3505
ZHHH,2001-12-29 19:00,ZHHH 291900Z AUTO 12006KT 1SM 03/01 A3027 RMK T00300010 IEM_DS3505
ZHHH,2001-12-29 20:00,ZHHH 292000Z AUTO 11008KT 1SM 02/00 A3024 RMK T00200000 IEM_DS3505
ZHHH,2001-12-29 21:00,ZHHH 292100Z AUTO 07002KT 9SM 02/01 A3024 RMK SLP241 T00230014 57012 IEM_DS3505
ZHHH,2001-12-29 22:00,ZHHH 292200Z AUTO 10006KT 1SM 02/00 A3024 RMK T00200000 IEM_DS3505
ZHHH,2001-12-29 23:00,ZHHH 292300Z AUTO 11008KT 1SM 01/M01 A3024 RMK T00101010 IEM_DS3505
ZHHH,2001-12-30 00:00,ZHHH 300000Z AUTO 00000KT 7SM 02/01 A3024 RMK SLP249 T00210007 52007 IEM_DS3505
ZHHH,2001-12-30 01:00,ZHHH 300100Z AUTO 11008KT 1 1/4SM 02/00 A3027 RMK T00200000 IEM_DS3505
ZHHH,2001-12-30 03:00,ZHHH 300300Z AUTO 11002KT 9SM 11/02 A3027 RMK SLP251 T01070021 52003 IEM_DS3505
ZHHH,2001-12-30 04:00,ZHHH 300400Z AUTO 12006KT 1 1/2SM 10/03 A3024 RMK T01000030 IEM_DS3505
ZHHH,2001-12-30 05:00,ZHHH 300500Z AUTO 13006KT 1 1/2SM 12/04 A3018 RMK T01200040 IEM_DS3505
ZHHH,2001-12-30 06:00,ZHHH 300600Z AUTO 14002KT 9SM 15/M00 A3015 RMK SLP214 T01521004 57037 IEM_DS3505
ZHHH,2001-12-30 07:00,ZHHH 300700Z AUTO 2 1/2SM 14/02 A3012 RMK T01400020 IEM_DS3505
ZHHH,2001-12-30 08:00,ZHHH 300800Z AUTO 12006KT 2 1/2SM 14/01 A3012 RMK T01400010 IEM_DS3505
ZHHH,2001-12-30 09:00,ZHHH 300900Z AUTO 00000KT 9SM 12/01 A3012 RMK SLP203 T01240008 57011 IEM_DS3505
ZHHH,2001-12-30 10:00,ZHHH 301000Z AUTO 09006KT 1 1/2SM 11/03 A3012 RMK T01100030 IEM_DS3505
ZHHH,2001-12-30 11:00,ZHHH 301100Z AUTO 10006KT 1 1/2SM 10/02 A3012 RMK T01000020 IEM_DS3505
ZHHH,2001-12-30 12:00,ZHHH 301200Z AUTO 00000KT 9SM 06/02 A3012 RMK SLP199 T00610025 57004 IEM_DS3505
ZHHH,2001-12-30 13:00,ZHHH 301300Z AUTO 1 1/2SM 09/02 A3012 RMK T00900020 IEM_DS3505
ZHHH,2001-12-30 14:00,ZHHH 301400Z AUTO 12004KT 1 1/2SM 07/03 A3009 RMK T00700030 IEM_DS3505
ZHHH,2001-12-30 15:00,ZHHH 301500Z AUTO 11002KT 9SM 05/03 A3009 RMK SLP196 T00520026 57003 IEM_DS3505
ZHHH,2001-12-30 16:00,ZHHH 301600Z AUTO 09004KT 2SM 06/03 A3009 RMK T00600030 IEM_DS3505
ZHHH,2001-12-30 17:00,ZHHH 301700Z AUTO 07002KT 2SM 06/03 A3009 RMK T00600030 IEM_DS3505
ZHHH,2001-12-30 18:00,ZHHH 301800Z AUTO 00000KT 9SM 06/02 RMK T00600020 IEM_DS3505
ZHHH,2001-12-30 19:00,ZHHH 301900Z AUTO 11004KT 2SM 05/02 A3009 RMK T00500020 IEM_DS3505
ZHHH,2001-12-30 21:00,ZHHH 302100Z AUTO 25002KT 9SM 06/03 A3009 RMK SLP197 T00620029 52002 IEM_DS3505
ZHHH,2001-12-30 22:00,ZHHH 302200Z AUTO 1 1/4SM 04/03 A3009 RMK T00400030 IEM_DS3505
ZHHH,2001-12-30 23:00,ZHHH 302300Z AUTO 1SM 04/04 A3009 RMK T00400040 IEM_DS3505
