station,valid,metar
ZBOW,2016-01-16 03:00,ZBOW 160300Z 25001MPS 9000 NSC M06/M13 Q1016 NOSIG
