station,valid,metar
ZBOW,2019-06-11 17:00,ZBOW 111700Z 30002MPS CAVOK 23/12 Q1011 NOSIG
