station,valid,metar
ZBOW,2012-11-10 10:00,ZBOW 101000Z 27006MPS 9999 SCT030 M04/M10 Q1024 NOSIG
