station,valid,metar
ZBOW,2006-07-27 21:00,ZBOW 272100Z AUTO 10004KT 5SM 18/17 A2977 RMK T01800170 IEM_DS3505
