station,valid,metar
ZBMZ,2018-03-16 02:03,ZBMZ 160203Z 00000MPS CAVOK M09/M16 Q1020 NOSIG
