station,valid,metar
ZGCD,2013-10-01 10:00,ZGCD 011000Z 10001MPS CAVOK 26/17 Q1016 NOSIG
ZGCD,2013-10-01 11:00,ZGCD 011100Z 00000MPS CAVOK 22/19 Q1016 NOSIG
ZGCD,2013-10-03 22:00,ZGCD 032200Z 00000MPS 3000 BR NSC 12/12 Q1018 NOSIG
