station,valid,metar
ZGOW,1995-01-01 00:00,ZGOW 010000Z AUTO 07004KT 9SM 14/10 A3031 RMK SLP260 T01420097 52013 IEM_DS3505
ZGOW,1995-01-01 01:00,ZGOW 010100Z AUTO 04010KT 7SM 15/09 A3033 RMK SLP267 T01500090 IEM_DS3505
ZGOW,1995-01-01 02:00,ZGOW 010200Z AUTO 03012KT 7SM 16/08 A3036 RMK SLP277 T01600080 IEM_DS3505
ZGOW,1995-01-01 03:00,ZGOW 010300Z AUTO 04010KT 11SM 17/09 A3033 RMK SLP271 T01740086 52011 IEM_DS3505
ZGOW,1995-01-01 04:00,ZGOW 010400Z AUTO 02012KT 7SM 18/08 A3033 RMK SLP267 T01800080 IEM_DS3505
ZGOW,1995-01-01 06:00,ZGOW 010600Z AUTO 07008KT 17SM 18/09 A3024 RMK SLP239 T01820090 57032 IEM_DS3505
ZGOW,1995-01-01 07:00,ZGOW 010700Z AUTO 05010KT 7SM 18/09 A3024 RMK SLP236 T01800090 IEM_DS3505
ZGOW,1995-01-01 09:00,ZGOW 010900Z AUTO 09012KT 12SM 17/09 A3024 RMK SLP239 T01700093 54000 IEM_DS3505
ZGOW,1995-01-01 10:00,ZGOW 011000Z AUTO 06010KT 7SM 16/10 A3024 RMK SLP236 T01600100 IEM_DS3505
ZGOW,1995-01-01 11:00,ZGOW 011100Z AUTO 04012KT 7SM 16/09 A3027 RMK SLP246 T01600090 IEM_DS3505
ZGOW,1995-01-01 12:00,ZGOW 011200Z AUTO 11010KT 9SM 16/10 A3030 RMK SLP256 T01570097 52017 IEM_DS3505
ZGOW,1995-01-01 14:00,ZGOW 011400Z AUTO 06014KT 7SM 15/09 A3033 RMK SLP267 T01500090 IEM_DS3505
ZGOW,1995-01-01 15:00,ZGOW 011500Z AUTO 07010KT 9SM 15/09 A3034 RMK SLP271 T01490090 52015 IEM_DS3505
ZGOW,1995-01-01 18:00,ZGOW 011800Z AUTO 07004KT 9SM 14/08 A3032 RMK SLP265 T01360084 57006 IEM_DS3505
ZGOW,1995-01-01 21:00,ZGOW 012100Z AUTO 04006KT 8SM 12/08 A3027 RMK SLP246 T01210085 57019 IEM_DS3505
ZGOW,1995-01-01 22:00,ZGOW 012200Z AUTO 01006KT 7SM 13/08 A3027 RMK SLP247 T01300080 IEM_DS3505
ZGOW,1995-01-01 23:00,ZGOW 012300Z AUTO 00000KT 7SM 13/09 A3027 RMK SLP247 T01300090 IEM_DS3505
ZGOW,1995-01-02 00:00,ZGOW 020000Z AUTO 04004KT 9SM 14/09 A3027 RMK SLP253 T01370089 52007 IEM_DS3505
ZGOW,1995-01-02 01:00,ZGOW 020100Z AUTO 36008KT 6SM 15/07 A3030 RMK SLP257 T01500070 IEM_DS3505
ZGOW,1995-01-02 02:00,ZGOW 020200Z AUTO 01004KT 7SM 16/08 A3030 RMK SLP257 T01600080 IEM_DS3505
ZGOW,1995-01-02 03:00,ZGOW 020300Z AUTO 09006KT 9SM 18/10 A3027 RMK SLP250 T01750095 57003 IEM_DS3505
ZGOW,1995-01-02 06:00,ZGOW 020600Z AUTO 07006KT 9SM 19/10 A3018 RMK SLP216 T01920103 57034 IEM_DS3505
ZGOW,1995-01-02 07:00,ZGOW 020700Z AUTO 06006KT 7SM 20/10 A3015 RMK SLP206 T02000100 IEM_DS3505
ZGOW,1995-01-02 08:00,ZGOW 020800Z AUTO 06006KT 7SM 19/11 A3015 RMK SLP206 T01900110 IEM_DS3505
ZGOW,1995-01-02 09:00,ZGOW 020900Z AUTO 07004KT 10SM 18/12 A3015 RMK SLP209 T01780120 57007 IEM_DS3505
ZGOW,1995-01-02 10:00,ZGOW 021000Z AUTO 05006KT 6SM 17/12 A3015 RMK SLP206 T01700120 IEM_DS3505
ZGOW,1995-01-02 11:00,ZGOW 021100Z AUTO 04006KT 7SM 17/12 A3018 RMK SLP216 T01700120 IEM_DS3505
ZGOW,1995-01-02 12:00,ZGOW 021200Z AUTO 04008KT 7SM 17/13 A3018 RMK SLP216 T01700130 IEM_DS3505
ZGOW,1995-01-02 13:00,ZGOW 021300Z AUTO 05008KT 7SM 17/13 A3018 RMK SLP216 T01700130 IEM_DS3505
ZGOW,1995-01-02 15:00,ZGOW 021500Z AUTO 07008KT 7SM 17/12 A3017 RMK SLP212 T01670125 57004 IEM_DS3505
ZGOW,1995-01-02 18:00,ZGOW 021800Z AUTO 07008KT 7SM 16/13 A3013 RMK SLP200 T01620126 57012 IEM_DS3505
ZGOW,1995-01-02 21:00,ZGOW 022100Z AUTO 04004KT 7SM 16/13 A3012 RMK SLP189 T01560129 57011 IEM_DS3505
ZGOW,1995-01-02 22:00,ZGOW 022200Z AUTO 00000KT 7SM 15/13 A3012 RMK SLP196 T01500130 IEM_DS3505
ZGOW,1995-01-02 23:00,ZGOW 022300Z AUTO 00000KT 7SM 16/13 A3009 RMK SLP186 T01600130 IEM_DS3505
ZGOW,1995-01-03 00:00,ZGOW 030000Z AUTO 04002KT 8SM 16/12 A3009 RMK SLP186 T01600124 57003 IEM_DS3505
ZGOW,1995-01-03 01:00,ZGOW 030100Z AUTO 02004KT 6SM 17/13 A3009 RMK SLP186 T01700130 IEM_DS3505
ZGOW,1995-01-03 03:00,ZGOW 030300Z AUTO 09004KT 7SM 20/13 A3009 RMK SLP184 T01970132 57002 IEM_DS3505
ZGOW,1995-01-03 06:00,ZGOW 030600Z AUTO 29002KT 4SM 18/15 A3003 RMK 60000 SLP163 T01820146 57021 IEM_DS3505
ZGOW,1995-01-03 07:00,ZGOW 030700Z AUTO 30008KT 4SM 18/14 A3003 RMK SLP165 T01800140 IEM_DS3505
ZGOW,1995-01-03 08:00,ZGOW 030800Z AUTO 29010KT 3SM 16/14 A3003 RMK SLP165 T01600140 IEM_DS3505
ZGOW,1995-01-03 09:00,ZGOW 030900Z AUTO 36008KT 3SM 14/13 A3004 RMK SLP167 T01440130 52004 IEM_DS3505
ZGOW,1995-01-03 10:00,ZGOW 031000Z AUTO 29006KT 3SM RMK IEM_DS3505
ZGOW,1995-01-03 11:00,ZGOW 031100Z AUTO 28006KT 5SM 13/12 A3006 RMK SLP175 T01300120 IEM_DS3505
ZGOW,1995-01-03 12:00,ZGOW 031200Z AUTO 02006KT 5SM 14/11 A3009 RMK 60016 SLP190 T01400112 52023 IEM_DS3505
ZGOW,1995-01-03 13:00,ZGOW 031300Z AUTO 36004KT 7SM 14/12 A3009 RMK SLP186 T01400120 IEM_DS3505
ZGOW,1995-01-03 15:00,ZGOW 031500Z AUTO 04004KT 5SM 13/12 A3011 RMK SLP191 T01310122 52001 IEM_DS3505
ZGOW,1995-01-03 18:00,ZGOW 031800Z AUTO 36006KT 5SM 12/10 A3015 RMK 60028 SLP207 T01150097 52016 IEM_DS3505
ZGOW,1995-01-03 21:00,ZGOW 032100Z AUTO 02008KT 7SM 11/07 A3011 RMK SLP193 T01070074 57014 IEM_DS3505
ZGOW,1995-01-03 22:00,ZGOW 032200Z AUTO 29008KT 7SM 10/07 A3012 RMK SLP197 T01000070 IEM_DS3505
ZGOW,1995-01-03 23:00,ZGOW 032300Z AUTO 31008KT 7SM 10/07 A3015 RMK SLP207 T01000070 IEM_DS3505
ZGOW,1995-01-04 00:00,ZGOW 040000Z AUTO 36008KT 12SM 11/06 A3018 RMK 60000 70047 SLP219 T01060061 52026 IEM_DS3505
ZGOW,1995-01-04 01:00,ZGOW 040100Z AUTO 28012KT 6SM 11/06 A3018 RMK SLP217 T01100060 IEM_DS3505
ZGOW,1995-01-04 02:00,ZGOW 040200Z AUTO 30008KT 6SM 12/06 A3021 RMK SLP227 T01200060 IEM_DS3505
ZGOW,1995-01-04 03:00,ZGOW 040300Z AUTO 36010KT 17SM 12/06 A3021 RMK SLP229 T01240060 52010 IEM_DS3505
ZGOW,1995-01-04 06:00,ZGOW 040600Z AUTO 02006KT 17SM 16/08 A3015 RMK SLP203 T01640083 57026 IEM_DS3505
ZGOW,1995-01-04 07:00,ZGOW 040700Z AUTO 29008KT 6SM 16/08 A3015 RMK SLP206 T01600080 IEM_DS3505
ZGOW,1995-01-04 08:00,ZGOW 040800Z AUTO 31008KT 6SM 16/07 A3015 RMK SLP206 T01600070 IEM_DS3505
ZGOW,1995-01-04 09:00,ZGOW 040900Z AUTO 34006KT 12SM 15/06 A3018 RMK SLP213 T01500063 52010 IEM_DS3505
ZGOW,1995-01-04 10:00,ZGOW 041000Z AUTO 29004KT 7SM 15/05 A3018 RMK SLP216 T01500050 IEM_DS3505
ZGOW,1995-01-04 11:00,ZGOW 041100Z AUTO 30004KT 7SM 13/05 A3021 RMK SLP227 T01300050 IEM_DS3505
ZGOW,1995-01-04 12:00,ZGOW 041200Z AUTO 02008KT 9SM 12/02 A3024 RMK SLP237 T01250023 52024 IEM_DS3505
ZGOW,1995-01-04 13:00,ZGOW 041300Z AUTO 32008KT 7SM 12/03 A3027 RMK SLP247 T01200030 IEM_DS3505
ZGOW,1995-01-04 14:00,ZGOW 041400Z AUTO 33008KT 7SM 11/03 A3027 RMK SLP247 T01100030 IEM_DS3505
ZGOW,1995-01-04 15:00,ZGOW 041500Z AUTO 02006KT 9SM 10/00 A3027 RMK SLP249 T01040005 52012 IEM_DS3505
ZGOW,1995-01-04 18:00,ZGOW 041800Z AUTO 36006KT 9SM 09/M01 A3029 RMK SLP254 T00931011 52005 IEM_DS3505
ZGOW,1995-01-04 21:00,ZGOW 042100Z AUTO 02006KT 9SM 07/M02 A3030 RMK SLP259 T00741018 52005 IEM_DS3505
ZGOW,1995-01-04 22:00,ZGOW 042200Z AUTO 29006KT 7SM 07/M01 A3033 RMK SLP268 T00701010 IEM_DS3505
ZGOW,1995-01-04 23:00,ZGOW 042300Z AUTO 30006KT 6SM 07/M01 A3033 RMK SLP268 T00701010 IEM_DS3505
ZGOW,1995-01-05 00:00,ZGOW 050000Z AUTO 04006KT 9SM 08/M03 A3036 RMK SLP278 T00751027 52019 IEM_DS3505
ZGOW,1995-01-05 01:00,ZGOW 050100Z AUTO 30006KT 7SM 09/M02 A3036 RMK SLP278 T00901020 IEM_DS3505
ZGOW,1995-01-05 02:00,ZGOW 050200Z AUTO 36004KT 7SM 11/M04 A3036 RMK SLP278 T01101040 IEM_DS3505
ZGOW,1995-01-05 03:00,ZGOW 050300Z AUTO 34010KT 16SM 13/M03 A3036 RMK SLP273 T01261027 57005 IEM_DS3505
ZGOW,1995-01-05 05:00,ZGOW 050500Z AUTO 32004KT 7SM 15/M01 A3027 RMK SLP246 T01501010 IEM_DS3505
ZGOW,1995-01-05 06:00,ZGOW 050600Z AUTO 36004KT 17SM 16/M02 A3027 RMK SLP243 T01611017 57030 IEM_DS3505
ZGOW,1995-01-05 08:00,ZGOW 050800Z AUTO 00000KT 7SM 16/M01 A3024 RMK SLP236 T01601010 IEM_DS3505
ZGOW,1995-01-05 09:00,ZGOW 050900Z AUTO 02006KT 14SM 16/M01 A3027 RMK SLP245 T01591013 52002 IEM_DS3505
ZGOW,1995-01-05 10:00,ZGOW 051000Z AUTO 00000KT 7SM 15/M02 A3027 RMK SLP246 T01501020 IEM_DS3505
ZGOW,1995-01-05 11:00,ZGOW 051100Z AUTO 00000KT 7SM 12/02 A3030 RMK SLP258 T01200020 IEM_DS3505
ZGOW,1995-01-05 12:00,ZGOW 051200Z AUTO 04004KT 9SM 11/02 A3030 RMK SLP266 T01130015 52021 IEM_DS3505
ZGOW,1995-01-05 13:00,ZGOW 051300Z AUTO 00000KT 7SM 10/02 A3033 RMK SLP268 T01000020 IEM_DS3505
ZGOW,1995-01-05 15:00,ZGOW 051500Z AUTO 04002KT 7SM 09/01 A3034 RMK SLP272 T00900011 52006 IEM_DS3505
ZGOW,1995-01-05 18:00,ZGOW 051800Z AUTO 36004KT 7SM 08/M00 A3034 RMK SLP271 T00821003 57001 IEM_DS3505
ZGOW,1995-01-05 21:00,ZGOW 052100Z AUTO 02002KT 6SM 07/M00 A3035 RMK SLP273 T00691001 52002 IEM_DS3505
ZGOW,1995-01-05 22:00,ZGOW 052200Z AUTO 33004KT 7SM 07/00 A3036 RMK SLP278 T00700000 IEM_DS3505
ZGOW,1995-01-05 23:00,ZGOW 052300Z AUTO 00000KT 6SM 06/00 A3036 RMK SLP278 T00600000 IEM_DS3505
ZGOW,1995-01-06 00:00,ZGOW 060000Z AUTO 02006KT 10SM 08/M00 A3039 RMK SLP286 T00761002 52013 IEM_DS3505
ZGOW,1995-01-06 01:00,ZGOW 060100Z AUTO 29006KT 7SM 09/M01 A3039 RMK SLP288 T00901010 IEM_DS3505
ZGOW,1995-01-06 02:00,ZGOW 060200Z AUTO 28006KT 7SM 11/M01 A3039 RMK SLP288 T01101010 IEM_DS3505
ZGOW,1995-01-06 03:00,ZGOW 060300Z AUTO 04004KT 16SM 13/M01 A3039 RMK SLP289 T01311011 52003 IEM_DS3505
ZGOW,1995-01-06 04:00,ZGOW 060400Z AUTO 00000KT 6SM 14/M02 A3036 RMK SLP278 T01401020 IEM_DS3505
ZGOW,1995-01-06 06:00,ZGOW 060600Z AUTO 09004KT 16SM 16/M02 A3027 RMK SLP249 T01601023 57040 IEM_DS3505
ZGOW,1995-01-06 07:00,ZGOW 060700Z AUTO 00000KT 6SM 16/M01 A3027 RMK SLP246 T01601010 IEM_DS3505
ZGOW,1995-01-06 08:00,ZGOW 060800Z AUTO 01004KT 6SM 16/M01 A3027 RMK SLP246 T01601010 IEM_DS3505
ZGOW,1995-01-06 09:00,ZGOW 060900Z AUTO 18004KT 12SM 15/01 A3027 RMK SLP251 T01470009 52002 IEM_DS3505
ZGOW,1995-01-06 10:00,ZGOW 061000Z AUTO 00000KT 6SM 12/04 A3030 RMK SLP258 T01200040 IEM_DS3505
ZGOW,1995-01-06 11:00,ZGOW 061100Z AUTO 00000KT 6SM 10/05 A3030 RMK SLP258 T01000050 IEM_DS3505
ZGOW,1995-01-06 12:00,ZGOW 061200Z AUTO 00000KT 9SM 10/05 A3030 RMK SLP264 T00980051 52013 IEM_DS3505
ZGOW,1995-01-06 13:00,ZGOW 061300Z AUTO 00000KT 6SM 09/06 A3033 RMK SLP268 T00900060 IEM_DS3505
ZGOW,1995-01-06 14:00,ZGOW 061400Z AUTO 00000KT 6SM 09/06 A3033 RMK SLP268 T00900060 IEM_DS3505
ZGOW,1995-01-06 15:00,ZGOW 061500Z AUTO 02004KT 6SM 08/06 A3033 RMK SLP267 T00840057 52003 IEM_DS3505
ZGOW,1995-01-06 18:00,ZGOW 061800Z AUTO 07004KT 6SM 08/05 A3030 RMK SLP258 T00790047 57009 IEM_DS3505
ZGOW,1995-01-06 21:00,ZGOW 062100Z AUTO 02004KT 6SM 06/04 A3030 RMK SLP255 T00630039 57003 IEM_DS3505
ZGOW,1995-01-06 22:00,ZGOW 062200Z AUTO 00000KT 6SM 06/03 A3030 RMK SLP258 T00600030 IEM_DS3505
ZGOW,1995-01-06 23:00,ZGOW 062300Z AUTO 28004KT 6SM 06/03 A3033 RMK SLP268 T00600030 IEM_DS3505
ZGOW,1995-01-07 00:00,ZGOW 070000Z AUTO 00000KT 4SM 07/05 A3036 RMK SLP274 T00720049 52019 IEM_DS3505
ZGOW,1995-01-07 01:00,ZGOW 070100Z AUTO 30006KT 4SM 08/02 A3036 RMK SLP278 T00800020 IEM_DS3505
ZGOW,1995-01-07 02:00,ZGOW 070200Z AUTO 30006KT 7SM 12/04 A3036 RMK SLP278 T01200040 IEM_DS3505
ZGOW,1995-01-07 03:00,ZGOW 070300Z AUTO 04006KT 6SM 15/02 A3033 RMK SLP271 T01490025 57003 IEM_DS3505
ZGOW,1995-01-07 06:00,ZGOW 070600Z AUTO 11004KT 7SM 18/03 A3024 RMK SLP230 T01840031 57041 IEM_DS3505
ZGOW,1995-01-07 07:00,ZGOW 070700Z AUTO 06006KT 7SM 18/03 A3021 RMK SLP226 T01800030 IEM_DS3505
ZGOW,1995-01-07 08:00,ZGOW 070800Z AUTO 07004KT 6SM 18/03 A3018 RMK SLP216 T01800030 IEM_DS3505
ZGOW,1995-01-07 09:00,ZGOW 070900Z AUTO 11006KT 9SM 16/08 A3021 RMK SLP222 T01620076 57008 IEM_DS3505
ZGOW,1995-01-07 10:00,ZGOW 071000Z AUTO 00000KT 7SM 16/10 A3021 RMK SLP226 T01600100 IEM_DS3505
ZGOW,1995-01-07 11:00,ZGOW 071100Z AUTO 00000KT 7SM 15/11 A3021 RMK SLP226 T01500110 IEM_DS3505
ZGOW,1995-01-07 12:00,ZGOW 071200Z AUTO 02002KT 7SM 16/11 A3024 RMK SLP234 T01560107 52012 IEM_DS3505
ZGOW,1995-01-07 13:00,ZGOW 071300Z AUTO 00000KT 7SM 15/10 A3024 RMK SLP236 T01500100 IEM_DS3505
ZGOW,1995-01-07 15:00,ZGOW 071500Z AUTO 02004KT 6SM 14/10 A3024 RMK SLP236 T01360105 52002 IEM_DS3505
ZGOW,1995-01-07 18:00,ZGOW 071800Z AUTO 04004KT 5SM 13/09 A3021 RMK SLP228 T01270093 57008 IEM_DS3505
ZGOW,1995-01-07 21:00,ZGOW 072100Z AUTO 02004KT 5SM 11/09 A3018 RMK SLP221 T01140086 57007 IEM_DS3505
ZGOW,1995-01-07 22:00,ZGOW 072200Z AUTO 30004KT 7SM 11/08 A3021 RMK SLP227 T01100080 IEM_DS3505
ZGOW,1995-01-07 23:00,ZGOW 072300Z AUTO 00000KT 7SM 11/08 A3021 RMK SLP227 T01100080 IEM_DS3505
ZGOW,1995-01-08 00:00,ZGOW 080000Z AUTO 02004KT 5SM 12/08 A3024 RMK SLP239 T01180083 52018 IEM_DS3505
ZGOW,1995-01-08 01:00,ZGOW 080100Z AUTO 30004KT 6SM 13/08 A3027 RMK SLP247 T01300080 IEM_DS3505
ZGOW,1995-01-08 02:00,ZGOW 080200Z AUTO 00000KT 7SM 15/09 A3027 RMK SLP246 T01500090 IEM_DS3505
ZGOW,1995-01-08 03:00,ZGOW 080300Z AUTO 29004KT 5SM 18/08 A3027 RMK SLP240 T01830082 52001 IEM_DS3505
ZGOW,1995-01-08 05:00,ZGOW 080500Z AUTO 00000KT 7SM 20/08 A3018 RMK SLP216 T02000080 IEM_DS3505
ZGOW,1995-01-08 06:00,ZGOW 080600Z AUTO 18006KT 6SM 22/07 A3015 RMK SLP203 T02150068 57037 IEM_DS3505
ZGOW,1995-01-08 07:00,ZGOW 080700Z AUTO 14008KT 7SM 21/06 A3012 RMK SLP196 T02100060 IEM_DS3505
ZGOW,1995-01-08 09:00,ZGOW 080900Z AUTO 14006KT 6SM 19/06 A3012 RMK SLP193 T01900058 57010 IEM_DS3505
ZGOW,1995-01-08 10:00,ZGOW 081000Z AUTO 14006KT 7SM 17/11 A3012 RMK SLP196 T01700110 IEM_DS3505
ZGOW,1995-01-08 11:00,ZGOW 081100Z AUTO 00000KT 7SM 15/12 A3015 RMK SLP206 T01500120 IEM_DS3505
ZGOW,1995-01-08 12:00,ZGOW 081200Z AUTO 00000KT 5SM 15/11 A3015 RMK SLP210 T01500109 52017 IEM_DS3505
ZGOW,1995-01-08 15:00,ZGOW 081500Z AUTO 04002KT 4SM 14/11 A3018 RMK SLP216 T01400110 52006 IEM_DS3505
ZGOW,1995-01-08 18:00,ZGOW 081800Z AUTO 04004KT 3SM 13/10 A3012 RMK SLP198 T01280105 57018 IEM_DS3505
ZGOW,1995-01-08 21:00,ZGOW 082100Z AUTO 07004KT 2 1/2SM 12/11 A3012 RMK SLP196 T01180106 57002 IEM_DS3505
ZGOW,1995-01-08 22:00,ZGOW 082200Z AUTO 00000KT 2 1/2SM 11/10 A3012 RMK SLP197 T01100100 IEM_DS3505
ZGOW,1995-01-08 23:00,ZGOW 082300Z AUTO 00000KT 1 1/2SM 10/10 A3015 RMK SLP207 T01000100 IEM_DS3505
ZGOW,1995-01-09 00:00,ZGOW 090000Z AUTO 04002KT 4SM 12/10 A3015 RMK SLP210 T01240105 52014 IEM_DS3505
ZGOW,1995-01-09 01:00,ZGOW 090100Z AUTO 00000KT 2 1/2SM 15/11 A3018 RMK SLP216 T01500110 IEM_DS3505
ZGOW,1995-01-09 02:00,ZGOW 090200Z AUTO 00000KT 2 1/2SM 17/11 A3018 RMK SLP216 T01700110 IEM_DS3505
ZGOW,1995-01-09 03:00,ZGOW 090300Z AUTO 02002KT 4SM 20/12 A3015 RMK SLP208 T01990116 57002 IEM_DS3505
ZGOW,1995-01-09 06:00,ZGOW 090600Z AUTO 16006KT 5SM 22/10 A3006 RMK SLP176 T02190102 57032 IEM_DS3505
ZGOW,1995-01-09 07:00,ZGOW 090700Z AUTO 12004KT 7SM 21/12 A3006 RMK SLP175 T02100120 IEM_DS3505
ZGOW,1995-01-09 08:00,ZGOW 090800Z AUTO 13006KT 7SM 20/11 A3003 RMK SLP165 T02000110 IEM_DS3505
ZGOW,1995-01-09 09:00,ZGOW 090900Z AUTO 11004KT 5SM 19/06 A3006 RMK SLP172 T01940061 57004 IEM_DS3505
ZGOW,1995-01-09 10:00,ZGOW 091000Z AUTO 00000KT 7SM 17/12 A3006 RMK SLP175 T01700120 IEM_DS3505
ZGOW,1995-01-09 11:00,ZGOW 091100Z AUTO 05006KT 7SM 17/10 A3009 RMK SLP186 T01700100 IEM_DS3505
ZGOW,1995-01-09 12:00,ZGOW 091200Z AUTO 07004KT 5SM 16/08 A3012 RMK SLP191 T01640079 52019 IEM_DS3505
ZGOW,1995-01-09 13:00,ZGOW 091300Z AUTO 06012KT 7SM 16/11 A3012 RMK SLP196 T01600110 IEM_DS3505
ZGOW,1995-01-09 14:00,ZGOW 091400Z AUTO 06008KT 7SM 16/12 A3009 RMK SLP186 T01600120 IEM_DS3505
ZGOW,1995-01-09 15:00,ZGOW 091500Z AUTO 07006KT 5SM 16/12 A3011 RMK SLP191 T01550124 54000 IEM_DS3505
ZGOW,1995-01-09 18:00,ZGOW 091800Z AUTO 07006KT 5SM 15/11 A3007 RMK SLP181 T01520113 57010 IEM_DS3505
ZGOW,1995-01-09 21:00,ZGOW 092100Z AUTO 07002KT 3SM 12/09 A3006 RMK SLP183 T01170089 52002 IEM_DS3505
ZGOW,1995-01-09 22:00,ZGOW 092200Z AUTO 00000KT 7SM 10/09 A3009 RMK SLP187 T01000090 IEM_DS3505
ZGOW,1995-01-09 23:00,ZGOW 092300Z AUTO 29004KT 3SM 10/08 A3009 RMK SLP187 T01000080 IEM_DS3505
ZGOW,1995-01-10 00:00,ZGOW 100000Z AUTO 07002KT 3SM 12/09 A3012 RMK SLP199 T01180088 52016 IEM_DS3505
ZGOW,1995-01-10 01:00,ZGOW 100100Z AUTO 00000KT 2 1/2SM 14/10 A3015 RMK SLP206 T01400100 IEM_DS3505
ZGOW,1995-01-10 02:00,ZGOW 100200Z AUTO 02006KT 4SM 14/10 A3015 RMK SLP206 T01400100 IEM_DS3505
ZGOW,1995-01-10 03:00,ZGOW 100300Z AUTO 11008KT 3SM 18/10 A3012 RMK SLP199 T01800103 54000 IEM_DS3505
ZGOW,1995-01-10 04:00,ZGOW 100400Z AUTO 03010KT 4SM 19/11 A3012 RMK SLP196 T01900110 IEM_DS3505
ZGOW,1995-01-10 06:00,ZGOW 100600Z AUTO 07006KT 5SM 19/10 A3006 RMK SLP172 T01920103 57027 IEM_DS3505
ZGOW,1995-01-10 07:00,ZGOW 100700Z AUTO 05008KT 4SM 19/11 A3003 RMK SLP165 T01900110 IEM_DS3505
ZGOW,1995-01-10 08:00,ZGOW 100800Z AUTO 06008KT 4SM 19/11 A3003 RMK SLP165 T01900110 IEM_DS3505
ZGOW,1995-01-10 09:00,ZGOW 100900Z AUTO 07004KT 4SM 18/12 A3006 RMK SLP170 T01840119 57002 IEM_DS3505
ZGOW,1995-01-10 10:00,ZGOW 101000Z AUTO 06006KT 4SM 17/12 A3006 RMK SLP175 T01700120 IEM_DS3505
ZGOW,1995-01-10 11:00,ZGOW 101100Z AUTO 06008KT 4SM 17/12 A3009 RMK SLP186 T01700120 IEM_DS3505
ZGOW,1995-01-10 12:00,ZGOW 101200Z AUTO 07006KT 4SM 17/12 A3009 RMK SLP188 T01680123 52018 IEM_DS3505
ZGOW,1995-01-10 13:00,ZGOW 101300Z AUTO 06008KT 5SM 16/13 A3009 RMK SLP186 T01600130 IEM_DS3505
ZGOW,1995-01-10 15:00,ZGOW 101500Z AUTO 07008KT 4SM 16/13 A3009 RMK SLP185 T01570126 57003 IEM_DS3505
ZGOW,1995-01-10 18:00,ZGOW 101800Z AUTO 07008KT 4SM 15/12 A3006 RMK SLP177 T01490123 57008 IEM_DS3505
ZGOW,1995-01-10 21:00,ZGOW 102100Z AUTO 09006KT 4SM 15/12 A3006 RMK SLP173 T01490120 57004 IEM_DS3505
ZGOW,1995-01-10 22:00,ZGOW 102200Z AUTO 05008KT 7SM 15/12 A3006 RMK SLP175 T01500120 IEM_DS3505
ZGOW,1995-01-10 23:00,ZGOW 102300Z AUTO 05008KT 7SM 15/12 A3009 RMK SLP186 T01500120 IEM_DS3505
ZGOW,1995-01-11 00:00,ZGOW 110000Z AUTO 04006KT 6SM 16/12 A3012 RMK SLP195 T01550124 52022 IEM_DS3505
ZGOW,1995-01-11 01:00,ZGOW 110100Z AUTO 06008KT 6SM 16/12 A3012 RMK SLP196 T01600120 IEM_DS3505
ZGOW,1995-01-11 02:00,ZGOW 110200Z AUTO 03010KT 7SM 17/12 A3015 RMK SLP206 T01700120 IEM_DS3505
ZGOW,1995-01-11 03:00,ZGOW 110300Z AUTO 04008KT 6SM 17/12 A3015 RMK SLP206 T01720125 52011 IEM_DS3505
ZGOW,1995-01-11 04:00,ZGOW 110400Z AUTO 06010KT 6SM 18/13 A3009 RMK SLP186 T01800130 IEM_DS3505
ZGOW,1995-01-11 05:00,ZGOW 110500Z AUTO 13006KT 7SM 19/14 A3006 RMK SLP175 T01900140 IEM_DS3505
ZGOW,1995-01-11 06:00,ZGOW 110600Z AUTO 25002KT 7SM 19/14 A3003 RMK SLP165 T01920142 57041 IEM_DS3505
ZGOW,1995-01-11 07:00,ZGOW 110700Z AUTO 04006KT 7SM 19/13 A3000 RMK SLP155 T01900130 IEM_DS3505
ZGOW,1995-01-11 08:00,ZGOW 110800Z AUTO 10006KT 7SM 19/14 A3000 RMK SLP155 T01900140 IEM_DS3505
ZGOW,1995-01-11 09:00,ZGOW 110900Z AUTO 11006KT 3SM 17/14 A3003 RMK SLP162 T01740137 57003 IEM_DS3505
ZGOW,1995-01-11 10:00,ZGOW 111000Z AUTO 11006KT 6SM 16/14 A3003 RMK SLP165 T01600140 IEM_DS3505
ZGOW,1995-01-11 11:00,ZGOW 111100Z AUTO 00000KT 6SM 16/14 A3003 RMK SLP165 T01600140 IEM_DS3505
ZGOW,1995-01-11 12:00,ZGOW 111200Z AUTO 09006KT 4SM 16/14 A3006 RMK SLP181 T01600137 52019 IEM_DS3505
ZGOW,1995-01-11 13:00,ZGOW 111300Z AUTO 05004KT 6SM 15/14 A3009 RMK SLP186 T01500140 IEM_DS3505
ZGOW,1995-01-11 15:00,ZGOW 111500Z AUTO 04006KT 4SM 15/13 A3011 RMK SLP193 T01520134 52012 IEM_DS3505
ZGOW,1995-01-11 18:00,ZGOW 111800Z AUTO 02004KT 5SM 15/14 A3011 RMK SLP193 T01540136 54000 IEM_DS3505
ZGOW,1995-01-11 21:00,ZGOW 112100Z AUTO 02004KT 4SM 14/09 A3012 RMK SLP194 T01360088 52001 IEM_DS3505
ZGOW,1995-01-11 22:00,ZGOW 112200Z AUTO 00000KT 4SM 13/09 A3012 RMK SLP196 T01300090 IEM_DS3505
ZGOW,1995-01-11 23:00,ZGOW 112300Z AUTO 33004KT 4SM 13/08 A3015 RMK SLP206 T01300080 IEM_DS3505
ZGOW,1995-01-12 00:00,ZGOW 120000Z AUTO 02006KT 4SM 13/08 A3020 RMK SLP224 T01260077 52030 IEM_DS3505
ZGOW,1995-01-12 01:00,ZGOW 120100Z AUTO 32004KT 3SM 13/07 A3021 RMK SLP227 T01300070 IEM_DS3505
ZGOW,1995-01-12 02:00,ZGOW 120200Z AUTO 32006KT 3SM 15/08 A3021 RMK SLP226 T01500080 IEM_DS3505
ZGOW,1995-01-12 03:00,ZGOW 120300Z AUTO 36006KT 6SM 16/08 A3021 RMK SLP227 T01610084 52003 IEM_DS3505
ZGOW,1995-01-12 04:00,ZGOW 120400Z AUTO 36004KT 4SM 16/09 A3018 RMK SLP216 T01600090 IEM_DS3505
ZGOW,1995-01-12 06:00,ZGOW 120600Z AUTO 02006KT 8SM 19/10 A3012 RMK SLP197 T01880098 57030 IEM_DS3505
ZGOW,1995-01-12 07:00,ZGOW 120700Z AUTO 06004KT 4SM 18/11 A3012 RMK SLP196 T01800110 IEM_DS3505
ZGOW,1995-01-12 08:00,ZGOW 120800Z AUTO 06006KT 5SM 18/11 A3012 RMK SLP196 T01800110 IEM_DS3505
ZGOW,1995-01-12 09:00,ZGOW 120900Z AUTO 11006KT 6SM 17/12 A3012 RMK SLP194 T01680117 57003 IEM_DS3505
ZGOW,1995-01-12 10:00,ZGOW 121000Z AUTO 05006KT 4SM 16/13 A3012 RMK SLP196 T01600130 IEM_DS3505
ZGOW,1995-01-12 11:00,ZGOW 121100Z AUTO 02004KT 4SM 15/12 A3015 RMK SLP206 T01500120 IEM_DS3505
ZGOW,1995-01-12 12:00,ZGOW 121200Z AUTO 04006KT 4SM 15/11 A3018 RMK SLP215 T01480108 52021 IEM_DS3505
ZGOW,1995-01-12 14:00,ZGOW 121400Z AUTO 00000KT 4SM 14/08 A3021 RMK SLP226 T01400080 IEM_DS3505
ZGOW,1995-01-12 15:00,ZGOW 121500Z AUTO 02004KT 5SM 14/07 A3020 RMK SLP222 T01360067 52007 IEM_DS3505
ZGOW,1995-01-12 18:00,ZGOW 121800Z AUTO 36006KT 6SM 12/05 A3018 RMK SLP216 T01190051 57006 IEM_DS3505
ZGOW,1995-01-12 21:00,ZGOW 122100Z AUTO 04008KT 9SM 10/05 A3021 RMK SLP216 T01030052 54000 IEM_DS3505
ZGOW,1995-01-12 23:00,ZGOW 122300Z AUTO 32008KT 7SM 10/05 A3024 RMK SLP237 T01000050 IEM_DS3505
ZGOW,1995-01-13 00:00,ZGOW 130000Z AUTO 36006KT 9SM 10/05 A3027 RMK SLP242 T01010050 52026 IEM_DS3505
ZGOW,1995-01-13 01:00,ZGOW 130100Z AUTO 00000KT 7SM 11/04 A3027 RMK SLP247 T01100040 IEM_DS3505
ZGOW,1995-01-13 02:00,ZGOW 130200Z AUTO 30006KT 7SM 12/05 A3027 RMK SLP247 T01200050 IEM_DS3505
ZGOW,1995-01-13 03:00,ZGOW 130300Z AUTO 02004KT 7SM 13/06 A3027 RMK SLP248 T01320060 52006 IEM_DS3505
ZGOW,1995-01-13 06:00,ZGOW 130600Z AUTO 04008KT 8SM 16/08 A3019 RMK SLP220 T01610082 57028 IEM_DS3505
ZGOW,1995-01-13 07:00,ZGOW 130700Z AUTO 03004KT 7SM 16/08 A3018 RMK SLP216 T01600080 IEM_DS3505
ZGOW,1995-01-13 09:00,ZGOW 130900Z AUTO 07006KT 7SM 15/08 A3018 RMK SLP221 T01480082 52001 IEM_DS3505
ZGOW,1995-01-13 10:00,ZGOW 131000Z AUTO 05008KT 6SM 14/09 A3021 RMK SLP226 T01400090 IEM_DS3505
ZGOW,1995-01-13 11:00,ZGOW 131100Z AUTO 05008KT 7SM 14/09 A3021 RMK SLP226 T01400090 IEM_DS3505
ZGOW,1995-01-13 12:00,ZGOW 131200Z AUTO 07006KT 7SM 13/09 A3024 RMK SLP236 T01300088 52015 IEM_DS3505
ZGOW,1995-01-13 13:00,ZGOW 131300Z AUTO 03004KT 6SM 13/09 A3024 RMK SLP237 T01300090 IEM_DS3505
ZGOW,1995-01-13 15:00,ZGOW 131500Z AUTO 02004KT 5SM 11/09 A3026 RMK SLP243 T01140092 52007 IEM_DS3505
ZGOW,1995-01-13 18:00,ZGOW 131800Z AUTO 04004KT 3SM 11/09 A3025 RMK SLP242 T01110087 57001 IEM_DS3505
ZGOW,1995-01-13 21:00,ZGOW 132100Z AUTO 07004KT 4SM 12/08 A3024 RMK SLP232 T01160077 57010 IEM_DS3505
ZGOW,1995-01-13 22:00,ZGOW 132200Z AUTO 04008KT 7SM 12/05 A3024 RMK SLP237 T01200050 IEM_DS3505
ZGOW,1995-01-13 23:00,ZGOW 132300Z AUTO 06008KT 6SM 12/04 A3024 RMK SLP237 T01200040 IEM_DS3505
ZGOW,1995-01-14 00:00,ZGOW 140000Z AUTO 07006KT 6SM 12/05 A3027 RMK SLP251 T01190046 52019 IEM_DS3505
ZGOW,1995-01-14 01:00,ZGOW 140100Z AUTO 06010KT 6SM 12/04 A3030 RMK SLP258 T01200040 IEM_DS3505
ZGOW,1995-01-14 03:00,ZGOW 140300Z AUTO 09006KT 6SM 13/04 A3032 RMK SLP265 T01320039 52014 IEM_DS3505
ZGOW,1995-01-14 06:00,ZGOW 140600Z AUTO 04004KT 7SM 14/04 A3024 RMK SLP239 T01380041 57026 IEM_DS3505
ZGOW,1995-01-14 07:00,ZGOW 140700Z AUTO 06008KT 7SM 14/04 A3024 RMK SLP236 T01400040 IEM_DS3505
ZGOW,1995-01-14 08:00,ZGOW 140800Z AUTO 06006KT 7SM 14/04 A3024 RMK SLP236 T01400040 IEM_DS3505
ZGOW,1995-01-14 09:00,ZGOW 140900Z AUTO 07006KT 7SM 13/06 A3024 RMK SLP238 T01320055 57001 IEM_DS3505
ZGOW,1995-01-14 10:00,ZGOW 141000Z AUTO 05008KT 7SM 13/05 A3027 RMK SLP247 T01300050 IEM_DS3505
ZGOW,1995-01-14 12:00,ZGOW 141200Z AUTO 07006KT 7SM 13/06 A3030 RMK SLP254 T01300060 52016 IEM_DS3505
ZGOW,1995-01-14 13:00,ZGOW 141300Z AUTO 04008KT 7SM 13/06 A3030 RMK SLP258 T01300060 IEM_DS3505
ZGOW,1995-01-14 15:00,ZGOW 141500Z AUTO 07008KT 7SM 13/06 A3030 RMK SLP259 T01270064 52005 IEM_DS3505
ZGOW,1995-01-14 18:00,ZGOW 141800Z AUTO 07006KT 7SM 11/05 A3028 RMK SLP251 T01120053 57008 IEM_DS3505
ZGOW,1995-01-14 21:00,ZGOW 142100Z AUTO 04008KT 6SM 11/03 A3027 RMK SLP247 T01100030 IEM_DS3505
ZGOW,1995-01-14 22:00,ZGOW 142200Z AUTO 06006KT 6SM 10/04 A3027 RMK SLP247 T01000040 IEM_DS3505
ZGOW,1995-01-14 23:00,ZGOW 142300Z AUTO 04004KT 6SM 11/03 A3030 RMK SLP258 T01100030 IEM_DS3505
ZGOW,1995-01-15 00:00,ZGOW 150000Z AUTO 04006KT 7SM 10/05 A3032 RMK SLP266 T01040046 52024 IEM_DS3505
ZGOW,1995-01-15 02:00,ZGOW 150200Z AUTO 00000KT 6SM 13/05 A3036 RMK SLP278 T01300050 IEM_DS3505
ZGOW,1995-01-15 03:00,ZGOW 150300Z AUTO 02004KT 6SM 14/06 A3035 RMK SLP274 T01390056 52008 IEM_DS3505
ZGOW,1995-01-15 06:00,ZGOW 150600Z AUTO 36004KT 5SM 16/07 A3024 RMK SLP239 T01600071 57035 IEM_DS3505
ZGOW,1995-01-15 09:00,ZGOW 150900Z AUTO 00000KT 4SM 16/08 A3021 RMK SLP232 T01610075 57007 IEM_DS3505
ZGOW,1995-01-15 10:00,ZGOW 151000Z AUTO 00000KT 5SM 15/09 A3024 RMK SLP236 T01500090 IEM_DS3505
ZGOW,1995-01-15 12:00,ZGOW 151200Z AUTO 07002KT 4SM 14/08 A3027 RMK SLP248 T01450083 52016 IEM_DS3505
ZGOW,1995-01-15 17:00,ZGOW 151700Z AUTO 04002KT 4SM 12/10 A3027 RMK SLP248 T01190101 57007 IEM_DS3505
ZGOW,1995-01-15 21:00,ZGOW 152100Z AUTO 04002KT 4SM 12/09 A3024 RMK SLP247 T01160090 57001 IEM_DS3505
ZGOW,1995-01-15 22:00,ZGOW 152200Z AUTO 00000KT 3SM 12/09 A3027 RMK SLP247 T01200090 IEM_DS3505
ZGOW,1995-01-15 23:00,ZGOW 152300Z AUTO 00000KT 3SM 12/08 A3027 RMK SLP247 T01200080 IEM_DS3505
ZGOW,1995-01-16 00:00,ZGOW 160000Z AUTO 36004KT 5SM 12/08 A3030 RMK SLP263 T01150078 52016 IEM_DS3505
ZGOW,1995-01-16 01:00,ZGOW 160100Z AUTO 32006KT 2 1/2SM 13/09 A3030 RMK SLP258 T01300090 IEM_DS3505
ZGOW,1995-01-16 02:00,ZGOW 160200Z AUTO 30004KT 3SM 14/08 A3033 RMK SLP268 T01400080 IEM_DS3505
ZGOW,1995-01-16 03:00,ZGOW 160300Z AUTO 04006KT 7SM 16/08 A3033 RMK SLP264 T01590077 52001 IEM_DS3505
ZGOW,1995-01-16 06:00,ZGOW 160600Z AUTO 18004KT 7SM 18/09 A3024 RMK SLP230 T01800087 57034 IEM_DS3505
ZGOW,1995-01-16 07:00,ZGOW 160700Z AUTO 10006KT 4SM 18/09 A3021 RMK SLP226 T01800090 IEM_DS3505
ZGOW,1995-01-16 08:00,ZGOW 160800Z AUTO 14008KT 4SM 18/10 A3021 RMK SLP226 T01800100 IEM_DS3505
ZGOW,1995-01-16 09:00,ZGOW 160900Z AUTO 16004KT 7SM 16/10 A3021 RMK SLP224 T01630098 57006 IEM_DS3505
ZGOW,1995-01-16 10:00,ZGOW 161000Z AUTO 10006KT 4SM 15/11 A3024 RMK SLP236 T01500110 IEM_DS3505
ZGOW,1995-01-16 11:00,ZGOW 161100Z AUTO 09006KT 6SM 14/10 A3024 RMK SLP264 T01380099 52005 IEM_DS3505
ZGOW,1995-01-16 12:00,ZGOW 161200Z AUTO 11006KT 6SM 15/11 A3027 RMK SLP246 T01460108 52022 IEM_DS3505
ZGOW,1995-01-16 13:00,ZGOW 161300Z AUTO 05008KT 5SM 14/10 A3027 RMK SLP246 T01400100 IEM_DS3505
ZGOW,1995-01-16 14:00,ZGOW 161400Z AUTO 05008KT 5SM 14/10 A3030 RMK SLP258 T01400100 IEM_DS3505
ZGOW,1995-01-16 15:00,ZGOW 161500Z AUTO 07006KT 4SM 13/11 A3030 RMK SLP259 T01340109 52013 IEM_DS3505
ZGOW,1995-01-16 18:00,ZGOW 161800Z AUTO 09006KT 6SM 14/ A3032 RMK SLP264 52005 IEM_DS3505
ZGOW,1995-01-16 21:00,ZGOW 162100Z AUTO 07006KT 6SM 13/09 A3033 RMK SLP263 T01270089 57001 IEM_DS3505
ZGOW,1995-01-16 22:00,ZGOW 162200Z AUTO 02004KT 4SM 12/08 A3033 RMK SLP268 T01200080 IEM_DS3505
ZGOW,1995-01-16 23:00,ZGOW 162300Z AUTO 02004KT 4SM 12/08 A3033 RMK SLP268 T01200080 IEM_DS3505
ZGOW,1995-01-17 00:00,ZGOW 170000Z AUTO 04004KT 5SM 11/09 A3036 RMK SLP278 T01090091 52015 IEM_DS3505
ZGOW,1995-01-17 01:00,ZGOW 170100Z AUTO 01006KT 6SM 13/08 A3036 RMK SLP278 T01300080 IEM_DS3505
ZGOW,1995-01-17 02:00,ZGOW 170200Z AUTO 04008KT 7SM 15/06 A3036 RMK SLP277 T01500060 IEM_DS3505
ZGOW,1995-01-17 03:00,ZGOW 170300Z AUTO 09006KT 6SM 15/06 A3036 RMK SLP277 T01500060 57001 IEM_DS3505
ZGOW,1995-01-17 06:00,ZGOW 170600Z AUTO 09006KT 6SM 15/07 A3027 RMK SLP243 T01540068 57034 IEM_DS3505
ZGOW,1995-01-17 07:00,ZGOW 170700Z AUTO 06008KT 6SM 16/08 A3024 RMK SLP236 T01600080 IEM_DS3505
ZGOW,1995-01-17 08:00,ZGOW 170800Z AUTO 00000KT 7SM 16/08 A3024 RMK SLP236 T01600080 IEM_DS3505
ZGOW,1995-01-17 09:00,ZGOW 170900Z AUTO 07006KT 6SM 15/08 A3024 RMK SLP238 T01520085 57005 IEM_DS3505
ZGOW,1995-01-17 10:00,ZGOW 171000Z AUTO 06006KT 5SM 15/09 A3024 RMK SLP236 T01500090 IEM_DS3505
ZGOW,1995-01-17 11:00,ZGOW 171100Z AUTO 03006KT 5SM 15/10 A3024 RMK SLP236 T01500100 IEM_DS3505
ZGOW,1995-01-17 12:00,ZGOW 171200Z AUTO 07006KT 4SM 15/10 A3027 RMK SLP249 T01480096 52011 IEM_DS3505
ZGOW,1995-01-17 15:00,ZGOW 171500Z AUTO 09006KT 4SM 15/10 A3029 RMK SLP253 T01480096 52004 IEM_DS3505
ZGOW,1995-01-17 18:00,ZGOW 171800Z AUTO 07004KT 5SM 14/10 A3025 RMK SLP242 T01440095 57011 IEM_DS3505
ZGOW,1995-01-17 21:00,ZGOW 172100Z AUTO 36004KT 5SM 14/10 A3024 RMK SLP235 T01390102 57007 IEM_DS3505
ZGOW,1995-01-17 22:00,ZGOW 172200Z AUTO 00000KT 3SM 14/10 A3024 RMK SLP236 T01400100 IEM_DS3505
ZGOW,1995-01-17 23:00,ZGOW 172300Z AUTO 00000KT 3SM 14/10 A3024 RMK SLP236 T01400100 IEM_DS3505
ZGOW,1995-01-18 00:00,ZGOW 180000Z AUTO 02002KT 4SM 14/10 A3024 RMK SLP243 T01390104 52008 IEM_DS3505
ZGOW,1995-01-18 01:00,ZGOW 180100Z AUTO 02004KT 4SM 15/09 A3027 RMK SLP246 T01500090 IEM_DS3505
ZGOW,1995-01-18 02:00,ZGOW 180200Z AUTO 03006KT 4SM 16/09 A3027 RMK SLP246 T01600090 IEM_DS3505
ZGOW,1995-01-18 03:00,ZGOW 180300Z AUTO 04006KT 7SM 18/09 A3024 RMK SLP243 T01840090 54000 IEM_DS3505
ZGOW,1995-01-18 04:00,ZGOW 180400Z AUTO 05008KT 7SM 18/09 A3024 RMK SLP236 T01800090 IEM_DS3505
ZGOW,1995-01-18 06:00,ZGOW 180600Z AUTO 09008KT 9SM 20/09 A3017 RMK SLP215 T01960094 57028 IEM_DS3505
ZGOW,1995-01-18 07:00,ZGOW 180700Z AUTO 12008KT 6SM 20/10 A3015 RMK SLP206 T02000100 IEM_DS3505
ZGOW,1995-01-18 08:00,ZGOW 180800Z AUTO 10008KT 6SM 19/11 A3018 RMK SLP216 T01900110 IEM_DS3505
ZGOW,1995-01-18 09:00,ZGOW 180900Z AUTO 16004KT 9SM 18/11 A3018 RMK SLP211 T01780112 57004 IEM_DS3505
ZGOW,1995-01-18 10:00,ZGOW 181000Z AUTO 13006KT 6SM 17/13 A3018 RMK SLP216 T01700130 IEM_DS3505
ZGOW,1995-01-18 11:00,ZGOW 181100Z AUTO 00000KT 4SM 15/14 A3018 RMK SLP216 T01500140 IEM_DS3505
ZGOW,1995-01-18 12:00,ZGOW 181200Z AUTO 07002KT 5SM 16/13 A3018 RMK SLP219 T01590128 52008 IEM_DS3505
ZGOW,1995-01-18 13:00,ZGOW 181300Z AUTO 00000KT 4SM 15/13 A3021 RMK SLP226 T01500130 IEM_DS3505
ZGOW,1995-01-18 14:00,ZGOW 181400Z AUTO 00000KT 4SM 15/13 A3021 RMK SLP226 T01500130 IEM_DS3505
ZGOW,1995-01-18 15:00,ZGOW 181500Z AUTO 02002KT 4SM 15/13 A3020 RMK SLP224 T01540129 52005 IEM_DS3505
ZGOW,1995-01-18 21:00,ZGOW 182100Z AUTO 00000KT 15/14 A3017 RMK SLP212 T01490137 57003 IEM_DS3505
ZGOW,1995-01-18 22:00,ZGOW 182200Z AUTO 00000KT 1 1/2SM 14/13 A3018 RMK SLP216 T01400130 IEM_DS3505
ZGOW,1995-01-18 23:00,ZGOW 182300Z AUTO 00000KT 1 1/4SM 14/13 A3018 RMK SLP216 T01400130 IEM_DS3505
ZGOW,1995-01-19 00:00,ZGOW 190000Z AUTO 07004KT 2SM 15/14 A3021 RMK SLP223 T01530137 52011 IEM_DS3505
ZGOW,1995-01-19 01:00,ZGOW 190100Z AUTO 02006KT 2 1/2SM 17/13 A3021 RMK SLP226 T01700130 IEM_DS3505
ZGOW,1995-01-19 02:00,ZGOW 190200Z AUTO 03006KT 3SM 18/14 A3021 RMK SLP226 T01800140 IEM_DS3505
ZGOW,1995-01-19 03:00,ZGOW 190300Z AUTO 09004KT 4SM 19/14 A3021 RMK SLP222 T01920136 57001 IEM_DS3505
ZGOW,1995-01-19 06:00,ZGOW 190600Z AUTO 18006KT 4SM 21/15 A3009 RMK SLP184 T02140146 57038 IEM_DS3505
ZGOW,1995-01-19 07:00,ZGOW 190700Z AUTO 11008KT 4SM 20/14 A3006 RMK SLP175 T02000140 IEM_DS3505
ZGOW,1995-01-19 08:00,ZGOW 190800Z AUTO 11004KT 4SM A3006 RMK IEM_DS3505
ZGOW,1995-01-19 09:00,ZGOW 190900Z AUTO 14004KT 2 1/2SM 18/14 A3006 RMK SLP176 T01840141 57008 IEM_DS3505
ZGOW,1995-01-19 10:00,ZGOW 191000Z AUTO 09006KT 3SM 17/15 A3006 RMK SLP175 T01700150 IEM_DS3505
ZGOW,1995-01-19 11:00,ZGOW 191100Z AUTO 00000KT 3SM 16/15 A3009 RMK SLP186 T01600150 IEM_DS3505
ZGOW,1995-01-19 12:00,ZGOW 191200Z AUTO 09006KT 2 1/2SM 16/15 A3009 RMK SLP190 T01630149 52014 IEM_DS3505
ZGOW,1995-01-19 13:00,ZGOW 191300Z AUTO 00000KT 3SM 16/14 A3012 RMK SLP196 T01600140 IEM_DS3505
ZGOW,1995-01-19 14:00,ZGOW 191400Z AUTO 04004KT 3SM 16/14 A3012 RMK SLP196 T01600140 IEM_DS3505
ZGOW,1995-01-19 15:00,ZGOW 191500Z AUTO 09004KT 1 1/4SM 15/14 A3013 RMK SLP199 T01530142 52009 IEM_DS3505
ZGOW,1995-01-19 18:00,ZGOW 191800Z AUTO 18002KT 1 1/4SM 15/14 A3012 RMK SLP197 T01530139 57002 IEM_DS3505
ZGOW,1995-01-19 21:00,ZGOW 192100Z AUTO 07006KT 3SM 15/13 A3012 RMK SLP197 T01520128 54000 IEM_DS3505
ZGOW,1995-01-19 22:00,ZGOW 192200Z AUTO 01006KT 4SM 15/13 A3012 RMK SLP196 T01500130 IEM_DS3505
ZGOW,1995-01-19 23:00,ZGOW 192300Z AUTO 01004KT 2 1/2SM 15/13 A3012 RMK SLP196 T01500130 IEM_DS3505
ZGOW,1995-01-20 00:00,ZGOW 200000Z AUTO 07006KT 4SM 16/13 A3013 RMK SLP199 T01560129 52002 IEM_DS3505
ZGOW,1995-01-20 01:00,ZGOW 200100Z AUTO 01008KT 7SM 16/12 A3012 RMK SLP196 T01600120 IEM_DS3505
ZGOW,1995-01-20 02:00,ZGOW 200200Z AUTO 04008KT 7SM 17/12 A3015 RMK SLP206 T01700120 IEM_DS3505
ZGOW,1995-01-20 03:00,ZGOW 200300Z AUTO 07008KT 5SM 19/13 A3015 RMK SLP202 T01880128 52003 IEM_DS3505
ZGOW,1995-01-20 04:00,ZGOW 200400Z AUTO 03008KT 4SM 18/13 A3012 RMK SLP196 T01800130 IEM_DS3505
ZGOW,1995-01-20 06:00,ZGOW 200600Z AUTO 20004KT 5SM 20/13 A3006 RMK SLP179 T01980133 57023 IEM_DS3505
ZGOW,1995-01-20 07:00,ZGOW 200700Z AUTO 06006KT 4SM 20/13 A3006 RMK SLP175 T02000130 IEM_DS3505
ZGOW,1995-01-20 08:00,ZGOW 200800Z AUTO 07006KT 4SM 19/14 A3006 RMK SLP175 T01900140 IEM_DS3505
ZGOW,1995-01-20 09:00,ZGOW 200900Z AUTO 09004KT 5SM 18/14 A3006 RMK SLP177 T01840139 57002 IEM_DS3505
ZGOW,1995-01-20 10:00,ZGOW 201000Z AUTO 05008KT 4SM 17/14 A3009 RMK SLP186 T01700140 IEM_DS3505
ZGOW,1995-01-20 11:00,ZGOW 201100Z AUTO 07008KT 4SM 16/13 A3009 RMK SLP186 T01600130 IEM_DS3505
ZGOW,1995-01-20 12:00,ZGOW 201200Z AUTO 11006KT 5SM 16/13 A3009 RMK SLP187 T01580133 52010 IEM_DS3505
ZGOW,1995-01-20 13:00,ZGOW 201300Z AUTO 03008KT 4SM 15/14 A3009 RMK SLP186 T01500140 IEM_DS3505
ZGOW,1995-01-20 15:00,ZGOW 201500Z AUTO 09006KT 6SM 15/13 A3010 RMK SLP188 T01520127 52001 IEM_DS3505
ZGOW,1995-01-20 18:00,ZGOW 201800Z AUTO 04006KT 4SM 15/13 A3008 RMK SLP183 T01470127 57005 IEM_DS3505
ZGOW,1995-01-20 21:00,ZGOW 202100Z AUTO 07004KT 4SM 15/13 A3006 RMK SLP176 T01470127 57007 IEM_DS3505
ZGOW,1995-01-20 22:00,ZGOW 202200Z AUTO 00000KT 3SM 15/13 A3009 RMK SLP186 T01500130 IEM_DS3505
ZGOW,1995-01-20 23:00,ZGOW 202300Z AUTO 01006KT 3SM 15/12 A3009 RMK SLP186 T01500120 IEM_DS3505
ZGOW,1995-01-21 00:00,ZGOW 210000Z AUTO 02002KT 3SM 15/13 A3009 RMK SLP188 T01500128 52012 IEM_DS3505
ZGOW,1995-01-21 01:00,ZGOW 210100Z AUTO 02002KT 3SM 15/ A3009 RMK SLP186 52012 IEM_DS3505
ZGOW,1995-01-21 02:00,ZGOW 210200Z AUTO 00000KT 3SM 16/13 A3012 RMK SLP196 T01600130 IEM_DS3505
ZGOW,1995-01-21 03:00,ZGOW 210300Z AUTO 07006KT 2SM 17/13 A3009 RMK SLP185 T01730128 57003 IEM_DS3505
ZGOW,1995-01-21 04:00,ZGOW 210400Z AUTO 00000KT 3SM 18/13 A3006 RMK SLP175 T01800130 IEM_DS3505
ZGOW,1995-01-21 05:00,ZGOW 210500Z AUTO 01004KT 3SM 19/13 A3003 RMK SLP165 T01900130 IEM_DS3505
ZGOW,1995-01-21 06:00,ZGOW 210600Z AUTO 09002KT 3SM 20/14 A3000 RMK SLP152 T01960143 57033 IEM_DS3505
ZGOW,1995-01-21 07:00,ZGOW 210700Z AUTO 03004KT 3SM 20/14 A3000 RMK SLP155 T02000140 IEM_DS3505
ZGOW,1995-01-21 08:00,ZGOW 210800Z AUTO 03004KT 2 1/2SM 19/14 A2997 RMK SLP145 T01900140 IEM_DS3505
ZGOW,1995-01-21 09:00,ZGOW 210900Z AUTO 11004KT 2 1/2SM 19/14 A2997 RMK SLP152 T01940142 54000 IEM_DS3505
ZGOW,1995-01-21 10:00,ZGOW 211000Z AUTO 12006KT 2 1/2SM 18/14 A2997 RMK SLP145 T01800140 IEM_DS3505
ZGOW,1995-01-21 11:00,ZGOW 211100Z AUTO 00000KT 2 1/2SM 18/15 A3000 RMK SLP155 T01800150 IEM_DS3505
ZGOW,1995-01-21 12:00,ZGOW 211200Z AUTO 07002KT 2 1/2SM 18/15 A3000 RMK SLP153 T01770146 52001 IEM_DS3505
ZGOW,1995-01-21 13:00,ZGOW 211300Z AUTO 00000KT 2 1/2SM 17/15 A3000 RMK SLP155 T01700150 IEM_DS3505
ZGOW,1995-01-21 14:00,ZGOW 211400Z AUTO 00000KT 2 1/2SM 17/15 A3000 RMK SLP155 T01700150 IEM_DS3505
ZGOW,1995-01-21 15:00,ZGOW 211500Z AUTO 09004KT 2 1/2SM 18/15 A3000 RMK SLP154 T01770146 52001 IEM_DS3505
ZGOW,1995-01-21 16:00,ZGOW 211600Z AUTO 00000KT 2 1/2SM 17/15 A3000 RMK SLP155 T01700150 IEM_DS3505
ZGOW,1995-01-21 18:00,ZGOW 211800Z AUTO 00000KT 4SM 18/15 A2998 RMK SLP148 T01760152 57006 IEM_DS3505
ZGOW,1995-01-21 21:00,ZGOW 212100Z AUTO 27002KT 1 1/4SM 17/16 A2997 RMK SLP143 T01710159 57005 IEM_DS3505
ZGOW,1995-01-21 22:00,ZGOW 212200Z AUTO 00000KT 1 1/2SM 17/15 A2997 RMK SLP145 T01700150 IEM_DS3505
ZGOW,1995-01-21 23:00,ZGOW 212300Z AUTO 00000KT 1SM 17/15 A2997 RMK SLP145 T01700150 IEM_DS3505
ZGOW,1995-01-22 00:00,ZGOW 220000Z AUTO 00000KT 1SM 17/16 A3000 RMK SLP159 T01680158 52016 IEM_DS3505
ZGOW,1995-01-22 01:00,ZGOW 220100Z AUTO 00000KT 1SM 18/16 A3003 RMK SLP165 T01800160 IEM_DS3505
ZGOW,1995-01-22 02:00,ZGOW 220200Z AUTO 30004KT 1SM 20/17 A3003 RMK SLP165 T02000170 IEM_DS3505
ZGOW,1995-01-22 03:00,ZGOW 220300Z AUTO 34002KT 1 1/4SM 22/18 A3000 RMK SLP158 T02170175 57001 IEM_DS3505
ZGOW,1995-01-22 06:00,ZGOW 220600Z AUTO 11002KT 3SM 25/18 A2991 RMK SLP125 T02490180 57033 IEM_DS3505
ZGOW,1995-01-22 07:00,ZGOW 220700Z AUTO 10006KT 2 1/2SM 24/18 A2991 RMK SLP125 T02400180 IEM_DS3505
ZGOW,1995-01-22 08:00,ZGOW 220800Z AUTO 12008KT 2 1/2SM 24/18 A2991 RMK SLP125 T02400180 IEM_DS3505
ZGOW,1995-01-22 09:00,ZGOW 220900Z AUTO 11002KT 5SM 24/18 A2991 RMK SLP123 T02370180 57002 IEM_DS3505
ZGOW,1995-01-22 10:00,ZGOW 221000Z AUTO 00000KT 2 1/2SM 20/17 A2991 RMK SLP125 T02000170 IEM_DS3505
ZGOW,1995-01-22 11:00,ZGOW 221100Z AUTO 00000KT 2 1/2SM 19/17 A2994 RMK SLP135 T01900170 IEM_DS3505
ZGOW,1995-01-22 12:00,ZGOW 221200Z AUTO 16002KT 4SM 20/18 A2997 RMK SLP142 T01990178 52019 IEM_DS3505
ZGOW,1995-01-22 13:00,ZGOW 221300Z AUTO 00000KT 2SM 18/17 A2997 RMK SLP145 T01800170 IEM_DS3505
ZGOW,1995-01-22 14:00,ZGOW 221400Z AUTO 00000KT 2SM 17/16 A2997 RMK SLP145 T01700160 IEM_DS3505
ZGOW,1995-01-22 15:00,ZGOW 221500Z AUTO 25002KT 3SM 19/17 A2999 RMK SLP151 T01870174 52009 IEM_DS3505
ZGOW,1995-01-22 18:00,ZGOW 221800Z AUTO 04004KT 2SM 18/17 A2997 RMK SLP146 T01790169 57005 IEM_DS3505
ZGOW,1995-01-22 21:00,ZGOW 222100Z AUTO 09006KT 2SM 18/17 A3000 RMK SLP158 T01760168 52012 IEM_DS3505
ZGOW,1995-01-22 22:00,ZGOW 222200Z AUTO 05010KT 2 1/2SM 16/15 A3003 RMK SLP165 T01600150 IEM_DS3505
ZGOW,1995-01-22 23:00,ZGOW 222300Z AUTO 05012KT 2SM 16/15 A3006 RMK SLP175 T01600150 IEM_DS3505
ZGOW,1995-01-23 00:00,ZGOW 230000Z AUTO 07006KT 2SM 16/15 A3009 RMK SLP182 T01650149 52024 IEM_DS3505
ZGOW,1995-01-23 01:00,ZGOW 230100Z AUTO 04014KT 7SM 16/14 A3012 RMK SLP196 T01600140 IEM_DS3505
ZGOW,1995-01-23 02:00,ZGOW 230200Z AUTO 04012KT 7SM 16/14 A3012 RMK SLP196 T01600140 IEM_DS3505
ZGOW,1995-01-23 03:00,ZGOW 230300Z AUTO 04008KT 2SM 15/14 A3015 RMK SLP207 T01500141 52025 IEM_DS3505
ZGOW,1995-01-23 04:00,ZGOW 230400Z AUTO 04008KT 2 1/2SM 15/14 A3012 RMK SLP196 T01500140 IEM_DS3505
ZGOW,1995-01-23 05:00,ZGOW 230500Z AUTO 36008KT 2SM 14/12 A3012 RMK SLP196 T01400120 IEM_DS3505
ZGOW,1995-01-23 06:00,ZGOW 230600Z AUTO 02006KT 7SM 15/12 A3009 RMK 60000 SLP195 T01520119 57012 IEM_DS3505
ZGOW,1995-01-23 07:00,ZGOW 230700Z AUTO 29006KT 3SM 15/12 A3012 RMK SLP196 T01500120 IEM_DS3505
ZGOW,1995-01-23 08:00,ZGOW 230800Z AUTO 35006KT 5SM 15/11 A3012 RMK SLP196 T01500110 IEM_DS3505
ZGOW,1995-01-23 09:00,ZGOW 230900Z AUTO 04004KT 7SM 14/10 A3015 RMK SLP207 T01450101 52012 IEM_DS3505
ZGOW,1995-01-23 10:00,ZGOW 231000Z AUTO 01008KT 4SM 14/10 A3018 RMK SLP216 T01400100 IEM_DS3505
ZGOW,1995-01-23 11:00,ZGOW 231100Z AUTO 36004KT 4SM 14/10 A3018 RMK SLP216 T01400100 IEM_DS3505
ZGOW,1995-01-23 12:00,ZGOW 231200Z AUTO 04004KT 7SM 13/08 A3021 RMK SLP230 T01340082 52023 IEM_DS3505
ZGOW,1995-01-23 13:00,ZGOW 231300Z AUTO 00000KT 5SM 13/09 A3021 RMK SLP227 T01300090 IEM_DS3505
ZGOW,1995-01-23 14:00,ZGOW 231400Z AUTO 01006KT 4SM 13/09 A3021 RMK SLP227 T01300090 IEM_DS3505
ZGOW,1995-01-23 15:00,ZGOW 231500Z AUTO 04004KT 7SM 13/08 A3022 RMK SLP232 T01300081 52002 IEM_DS3505
ZGOW,1995-01-23 18:00,ZGOW 231800Z AUTO 04004KT 7SM 12/09 A3023 RMK SLP234 T01200088 52002 IEM_DS3505
ZGOW,1995-01-23 21:00,ZGOW 232100Z AUTO 02006KT 7SM 12/09 A3024 RMK SLP239 T01160086 52005 IEM_DS3505
ZGOW,1995-01-23 22:00,ZGOW 232200Z AUTO 00000KT 3SM 11/10 A3024 RMK SLP237 T01100100 IEM_DS3505
ZGOW,1995-01-23 23:00,ZGOW 232300Z AUTO 35006KT 7SM 11/09 A3024 RMK SLP237 T01100090 IEM_DS3505
ZGOW,1995-01-24 00:00,ZGOW 240000Z AUTO 04010KT 4SM 12/10 A3024 RMK 70001 SLP241 T01170095 52002 IEM_DS3505
ZGOW,1995-01-24 01:00,ZGOW 240100Z AUTO 01006KT 7SM 12/09 A3027 RMK SLP247 T01200090 IEM_DS3505
ZGOW,1995-01-24 03:00,ZGOW 240300Z AUTO 04006KT 4SM 14/10 A3027 RMK SLP250 T01360097 52009 IEM_DS3505
ZGOW,1995-01-24 04:00,ZGOW 240400Z AUTO 01008KT 7SM 14/09 A3027 RMK SLP246 T01400090 IEM_DS3505
ZGOW,1995-01-24 06:00,ZGOW 240600Z AUTO 11004KT 6SM 14/10 A3021 RMK SLP224 T01420097 57026 IEM_DS3505
ZGOW,1995-01-24 07:00,ZGOW 240700Z AUTO 05008KT 7SM 14/09 A3021 RMK SLP226 T01400090 IEM_DS3505
ZGOW,1995-01-24 08:00,ZGOW 240800Z AUTO 05010KT 7SM 14/08 A3021 RMK SLP226 T01400080 IEM_DS3505
ZGOW,1995-01-24 09:00,ZGOW 240900Z AUTO 07006KT 6SM 14/09 A3024 RMK SLP230 T01430088 52006 IEM_DS3505
ZGOW,1995-01-24 10:00,ZGOW 241000Z AUTO 03008KT 7SM 14/09 A3024 RMK SLP236 T01400090 IEM_DS3505
ZGOW,1995-01-24 11:00,ZGOW 241100Z AUTO 03006KT 7SM 14/09 A3027 RMK SLP246 T01400090 IEM_DS3505
ZGOW,1995-01-24 12:00,ZGOW 241200Z AUTO 04006KT 6SM 14/09 A3027 RMK SLP248 T01390094 52018 IEM_DS3505
ZGOW,1995-01-24 13:00,ZGOW 241300Z AUTO 02006KT 7SM 14/09 A3027 RMK SLP246 T01400090 IEM_DS3505
ZGOW,1995-01-24 14:00,ZGOW 241400Z AUTO 01006KT 7SM 14/10 A3027 RMK SLP246 T01400100 IEM_DS3505
ZGOW,1995-01-24 15:00,ZGOW 241500Z AUTO 07008KT 6SM 13/10 A3026 RMK SLP245 T01340099 57003 IEM_DS3505
ZGOW,1995-01-24 18:00,ZGOW 241800Z AUTO 04006KT 6SM 13/09 A3024 RMK SLP237 T01320092 57008 IEM_DS3505
ZGOW,1995-01-24 21:00,ZGOW 242100Z AUTO 07004KT 5SM 12/10 A3021 RMK SLP226 T01180098 57011 IEM_DS3505
ZGOW,1995-01-24 22:00,ZGOW 242200Z AUTO 00000KT 4SM 12/10 A3024 RMK SLP237 T01200100 IEM_DS3505
ZGOW,1995-01-24 23:00,ZGOW 242300Z AUTO 00000KT 5SM 12/10 A3027 RMK SLP247 T01200100 IEM_DS3505
ZGOW,1995-01-25 00:00,ZGOW 250000Z AUTO 02004KT 4SM 12/10 A3027 RMK SLP252 T01230102 52026 IEM_DS3505
ZGOW,1995-01-25 01:00,ZGOW 250100Z AUTO 27004KT 4SM 13/10 A3030 RMK SLP258 T01300100 IEM_DS3505
ZGOW,1995-01-25 02:00,ZGOW 250200Z AUTO 00000KT 4SM 14/10 A3030 RMK SLP258 T01400100 IEM_DS3505
ZGOW,1995-01-25 03:00,ZGOW 250300Z AUTO 02004KT 6SM 15/11 A3030 RMK SLP260 T01480106 52008 IEM_DS3505
ZGOW,1995-01-25 06:00,ZGOW 250600Z AUTO 09006KT 7SM 16/11 A3021 RMK SLP225 T01640114 57035 IEM_DS3505
ZGOW,1995-01-25 07:00,ZGOW 250700Z AUTO 06014KT 6SM 17/11 A3018 RMK SLP216 T01700110 IEM_DS3505
ZGOW,1995-01-25 08:00,ZGOW 250800Z AUTO 06014KT 6SM 17/11 A3021 RMK SLP226 T01700110 IEM_DS3505
ZGOW,1995-01-25 09:00,ZGOW 250900Z AUTO 09008KT 8SM 16/11 A3021 RMK SLP230 T01580107 52005 IEM_DS3505
ZGOW,1995-01-25 10:00,ZGOW 251000Z AUTO 04014KT 7SM 15/10 A3021 RMK SLP226 T01500100 IEM_DS3505
ZGOW,1995-01-25 11:00,ZGOW 251100Z AUTO 04014KT 7SM 14/10 A3021 RMK SLP226 T01400100 IEM_DS3505
ZGOW,1995-01-25 12:00,ZGOW 251200Z AUTO 07010KT 7SM 14/10 A3021 RMK SLP232 T01400101 52002 IEM_DS3505
ZGOW,1995-01-25 13:00,ZGOW 251300Z AUTO 05014KT 7SM 14/10 A3021 RMK SLP226 T01400100 IEM_DS3505
ZGOW,1995-01-25 14:00,ZGOW 251400Z AUTO 04010KT 7SM 14/10 A3024 RMK SLP236 T01400100 IEM_DS3505
ZGOW,1995-01-25 15:00,ZGOW 251500Z AUTO 09008KT 7SM 13/10 A3023 RMK SLP233 T01340103 52001 IEM_DS3505
ZGOW,1995-01-25 18:00,ZGOW 251800Z AUTO 09006KT 6SM 14/11 A3020 RMK SLP223 T01400106 57010 IEM_DS3505
ZGOW,1995-01-25 21:00,ZGOW 252100Z AUTO 07002KT 6SM 14/10 A3018 RMK SLP211 T01380105 57012 IEM_DS3505
ZGOW,1995-01-25 22:00,ZGOW 252200Z AUTO 03006KT 7SM 15/11 RMK T01500110 IEM_DS3505
ZGOW,1995-01-26 00:00,ZGOW 260000Z AUTO 04004KT 6SM 14/11 A3022 RMK SLP231 T01380112 52020 IEM_DS3505
ZGOW,1995-01-26 01:00,ZGOW 260100Z AUTO 00000KT 2 1/2SM 14/11 A3024 RMK SLP236 T01400110 IEM_DS3505
ZGOW,1995-01-26 02:00,ZGOW 260200Z AUTO 00000KT 3SM 15/12 A3024 RMK SLP236 T01500120 IEM_DS3505
ZGOW,1995-01-26 03:00,ZGOW 260300Z AUTO 02004KT 7SM 16/12 A3024 RMK SLP233 T01560117 52002 IEM_DS3505
ZGOW,1995-01-26 04:00,ZGOW 260400Z AUTO 01004KT 7SM 16/11 A3021 RMK SLP226 T01600110 IEM_DS3505
ZGOW,1995-01-26 06:00,ZGOW 260600Z AUTO 04006KT 6SM 16/11 A3018 RMK SLP211 T01640112 57022 IEM_DS3505
ZGOW,1995-01-26 07:00,ZGOW 260700Z AUTO 03008KT 7SM 16/12 A3015 RMK SLP206 T01600120 IEM_DS3505
ZGOW,1995-01-26 09:00,ZGOW 260900Z AUTO 09006KT 4SM 15/12 A3018 RMK SLP215 T01520123 52004 IEM_DS3505
ZGOW,1995-01-26 10:00,ZGOW 261000Z AUTO 03008KT 2SM 15/13 A3015 RMK SLP206 T01500130 IEM_DS3505
ZGOW,1995-01-26 11:00,ZGOW 261100Z AUTO 05012KT 7SM 14/12 A3018 RMK SLP216 T01400120 IEM_DS3505
ZGOW,1995-01-26 12:00,ZGOW 261200Z AUTO 07006KT 7SM 14/11 A3021 RMK SLP226 T01380114 52011 IEM_DS3505
ZGOW,1995-01-26 13:00,ZGOW 261300Z AUTO 04012KT 7SM 14/11 A3021 RMK SLP226 T01400110 IEM_DS3505
ZGOW,1995-01-26 15:00,ZGOW 261500Z AUTO 07008KT 11SM 14/11 A3019 RMK SLP221 T01390107 57005 IEM_DS3505
ZGOW,1995-01-26 18:00,ZGOW 261800Z AUTO 07004KT 10SM 14/11 A3019 RMK SLP220 T01360107 57001 IEM_DS3505
ZGOW,1995-01-26 21:00,ZGOW 262100Z AUTO 02006KT 4SM 12/11 A3018 RMK SLP219 T01180112 57001 IEM_DS3505
ZGOW,1995-01-26 22:00,ZGOW 262200Z AUTO 01004KT 4SM 12/12 A3018 RMK SLP217 T01200120 IEM_DS3505
ZGOW,1995-01-26 23:00,ZGOW 262300Z AUTO 36004KT 7SM 12/12 A3021 RMK SLP227 T01200120 IEM_DS3505
ZGOW,1995-01-27 00:00,ZGOW 270000Z AUTO 04002KT 9SM 12/11 A3024 RMK 60002 70002 SLP229 T01220111 52010 IEM_DS3505
ZGOW,1995-01-27 01:00,ZGOW 270100Z AUTO 36004KT 7SM 13/11 A3024 RMK SLP237 T01300110 IEM_DS3505
ZGOW,1995-01-27 02:00,ZGOW 270200Z AUTO 36006KT 7SM 13/11 A3027 RMK SLP247 T01300110 IEM_DS3505
ZGOW,1995-01-27 03:00,ZGOW 270300Z AUTO 04004KT 6SM 12/11 A3027 RMK SLP238 T01220111 52009 IEM_DS3505
ZGOW,1995-01-27 04:00,ZGOW 270400Z AUTO 03008KT 7SM 13/10 A3021 RMK SLP227 T01300100 IEM_DS3505
ZGOW,1995-01-27 06:00,ZGOW 270600Z AUTO 07006KT 7SM 12/11 A3018 RMK 60004 SLP215 T01230106 57023 IEM_DS3505
ZGOW,1995-01-27 07:00,ZGOW 270700Z AUTO 00000KT 4SM 12/11 A3018 RMK SLP217 T01200110 IEM_DS3505
ZGOW,1995-01-27 08:00,ZGOW 270800Z AUTO 04004KT 2 1/2SM 12/11 A3018 RMK SLP217 T01200110 IEM_DS3505
ZGOW,1995-01-27 09:00,ZGOW 270900Z AUTO 07004KT 4SM 12/11 A3018 RMK SLP219 T01200112 52004 IEM_DS3505
ZGOW,1995-01-27 10:00,ZGOW 271000Z AUTO 04006KT 2 1/2SM 12/11 A3021 RMK SLP227 T01200110 IEM_DS3505
ZGOW,1995-01-27 11:00,ZGOW 271100Z AUTO 04006KT 2 1/2SM 12/11 A3021 RMK SLP227 T01200110 IEM_DS3505
ZGOW,1995-01-27 12:00,ZGOW 271200Z AUTO 07004KT 5SM 12/11 A3021 RMK 60020 SLP232 T01200110 52013 IEM_DS3505
ZGOW,1995-01-27 13:00,ZGOW 271300Z AUTO 04006KT 5SM 12/10 A3024 RMK SLP237 T01200100 IEM_DS3505
ZGOW,1995-01-27 14:00,ZGOW 271400Z AUTO 03004KT 7SM 12/10 A3027 RMK SLP247 T01200100 IEM_DS3505
ZGOW,1995-01-27 15:00,ZGOW 271500Z AUTO 04004KT 4SM 12/11 A3027 RMK SLP247 T01160106 52015 IEM_DS3505
ZGOW,1995-01-27 18:00,ZGOW 271800Z AUTO 02004KT 4SM 12/11 A3025 RMK 60008 SLP242 T01150109 57005 IEM_DS3505
ZGOW,1995-01-27 21:00,ZGOW 272100Z AUTO 02006KT 5SM 11/10 A3027 RMK SLP242 T01080098 54000 IEM_DS3505
ZGOW,1995-01-27 22:00,ZGOW 272200Z AUTO 29004KT 7SM 11/10 A3027 RMK SLP247 T01100100 IEM_DS3505
ZGOW,1995-01-27 23:00,ZGOW 272300Z AUTO 29006KT 7SM 10/10 A3027 RMK SLP247 T01000100 IEM_DS3505
ZGOW,1995-01-28 00:00,ZGOW 280000Z AUTO 02004KT 12SM 11/09 A3030 RMK 60008 70035 SLP256 T01090091 52014 IEM_DS3505
ZGOW,1995-01-28 01:00,ZGOW 280100Z AUTO 31004KT 7SM 12/09 A3033 RMK SLP268 T01200090 IEM_DS3505
ZGOW,1995-01-28 02:00,ZGOW 280200Z AUTO 32004KT 7SM 12/09 A3033 RMK SLP268 T01200090 IEM_DS3505
ZGOW,1995-01-28 03:00,ZGOW 280300Z AUTO 34006KT 16SM 14/10 A3030 RMK SLP265 T01410096 52009 IEM_DS3505
ZGOW,1995-01-28 06:00,ZGOW 280600Z AUTO 07004KT 19SM 16/10 A3024 RMK SLP236 T01560101 57029 IEM_DS3505
ZGOW,1995-01-28 07:00,ZGOW 280700Z AUTO 03006KT 7SM 15/11 A3024 RMK SLP236 T01500110 IEM_DS3505
ZGOW,1995-01-28 08:00,ZGOW 280800Z AUTO 05008KT 7SM 14/10 A3024 RMK SLP236 T01400100 IEM_DS3505
ZGOW,1995-01-28 09:00,ZGOW 280900Z AUTO 07006KT 11SM 14/10 A3024 RMK SLP235 T01360099 57001 IEM_DS3505
ZGOW,1995-01-28 10:00,ZGOW 281000Z AUTO 04006KT 7SM 14/10 A3027 RMK SLP246 T01400100 IEM_DS3505
ZGOW,1995-01-28 11:00,ZGOW 281100Z AUTO 02006KT 7SM 14/10 A3027 RMK SLP246 T01400100 IEM_DS3505
ZGOW,1995-01-28 12:00,ZGOW 281200Z AUTO 04006KT 9SM 13/09 A3030 RMK SLP254 T01280094 52019 IEM_DS3505
ZGOW,1995-01-28 13:00,ZGOW 281300Z AUTO 36006KT 7SM 13/09 A3030 RMK SLP258 T01300090 IEM_DS3505
ZGOW,1995-01-28 15:00,ZGOW 281500Z AUTO 04004KT 9SM 12/08 A3032 RMK SLP265 T01190080 52011 IEM_DS3505
ZGOW,1995-01-28 18:00,ZGOW 281800Z AUTO 02004KT 8SM 11/08 A3029 RMK SLP253 T01130078 57012 IEM_DS3505
ZGOW,1995-01-28 21:00,ZGOW 282100Z AUTO 02004KT 7SM 11/08 A3027 RMK SLP246 T01070076 57007 IEM_DS3505
ZGOW,1995-01-28 22:00,ZGOW 282200Z AUTO 00000KT 7SM 11/08 A3030 RMK SLP258 T01100080 IEM_DS3505
ZGOW,1995-01-28 23:00,ZGOW 282300Z AUTO 00000KT 7SM 10/08 A3030 RMK SLP258 T01000080 IEM_DS3505
ZGOW,1995-01-29 00:00,ZGOW 290000Z AUTO 04004KT 9SM 11/07 A3033 RMK SLP270 T01080074 52024 IEM_DS3505
ZGOW,1995-01-29 01:00,ZGOW 290100Z AUTO 01006KT 7SM 11/07 A3033 RMK SLP268 T01100070 IEM_DS3505
ZGOW,1995-01-29 02:00,ZGOW 290200Z AUTO 01004KT 7SM 12/08 A3036 RMK SLP278 T01200080 IEM_DS3505
ZGOW,1995-01-29 03:00,ZGOW 290300Z AUTO 07004KT 9SM 13/08 A3036 RMK SLP277 T01320081 52007 IEM_DS3505
ZGOW,1995-01-29 05:00,ZGOW 290500Z AUTO 00000KT 7SM 14/07 A3030 RMK SLP258 T01400070 IEM_DS3505
ZGOW,1995-01-29 06:00,ZGOW 290600Z AUTO 09008KT 12SM 15/06 A3027 RMK SLP245 T01530059 57032 IEM_DS3505
ZGOW,1995-01-29 07:00,ZGOW 290700Z AUTO 04006KT 7SM 15/07 A3024 RMK SLP236 T01500070 IEM_DS3505
ZGOW,1995-01-29 08:00,ZGOW 290800Z AUTO 00000KT 7SM 16/07 A3024 RMK SLP236 T01600070 IEM_DS3505
ZGOW,1995-01-29 09:00,ZGOW 290900Z AUTO 09004KT 12SM 14/09 A3024 RMK SLP239 T01420086 57006 IEM_DS3505
ZGOW,1995-01-29 10:00,ZGOW 291000Z AUTO 05008KT 6SM 14/08 A3024 RMK SLP236 T01400080 IEM_DS3505
ZGOW,1995-01-29 11:00,ZGOW 291100Z AUTO 05008KT 6SM 13/07 A3027 RMK SLP247 T01300070 IEM_DS3505
ZGOW,1995-01-29 12:00,ZGOW 291200Z AUTO 09008KT 10SM 13/07 A3027 RMK SLP250 T01280067 52011 IEM_DS3505
ZGOW,1995-01-29 13:00,ZGOW 291300Z AUTO 04010KT 6SM 13/05 A3030 RMK SLP258 T01300050 IEM_DS3505
ZGOW,1995-01-29 14:00,ZGOW 291400Z AUTO 06012KT 6SM 13/05 A3030 RMK SLP258 T01300050 IEM_DS3505
ZGOW,1995-01-29 15:00,ZGOW 291500Z AUTO 09006KT 9SM 13/06 A3033 RMK SLP264 T01260060 52014 IEM_DS3505
ZGOW,1995-01-29 18:00,ZGOW 291800Z AUTO 07006KT 7SM 12/06 A3032 RMK SLP263 T01220060 57001 IEM_DS3505
ZGOW,1995-01-29 21:00,ZGOW 292100Z AUTO 07006KT 8SM 12/06 A3030 RMK SLP258 T01180055 57005 IEM_DS3505
ZGOW,1995-01-30 00:00,ZGOW 300000Z AUTO 07004KT 7SM 12/06 A3035 RMK SLP273 T01160060 52015 IEM_DS3505
ZGOW,1995-01-30 02:00,ZGOW 300200Z AUTO 03006KT 6SM 13/05 A3036 RMK SLP278 T01300050 IEM_DS3505
ZGOW,1995-01-30 03:00,ZGOW 300300Z AUTO 07006KT 7SM 12/06 A3036 RMK SLP278 T01240065 52005 IEM_DS3505
ZGOW,1995-01-30 04:00,ZGOW 300400Z AUTO 02006KT 7SM 13/06 A3033 RMK SLP268 T01300060 IEM_DS3505
ZGOW,1995-01-30 05:00,ZGOW 300500Z AUTO 02004KT 7SM 13/06 A3033 RMK SLP268 T01300060 IEM_DS3505
ZGOW,1995-01-30 06:00,ZGOW 300600Z AUTO 07004KT 5SM 12/09 A3030 RMK 60000 SLP258 T01250093 57020 IEM_DS3505
ZGOW,1995-01-30 07:00,ZGOW 300700Z AUTO 00000KT 7SM 13/09 A3027 RMK SLP247 T01300090 IEM_DS3505
ZGOW,1995-01-30 08:00,ZGOW 300800Z AUTO 02004KT 7SM 13/08 A3027 RMK SLP247 T01300080 IEM_DS3505
ZGOW,1995-01-30 09:00,ZGOW 300900Z AUTO 04004KT 7SM 13/08 A3030 RMK SLP254 T01260081 57004 IEM_DS3505
ZGOW,1995-01-30 10:00,ZGOW 301000Z AUTO 03004KT 7SM 12/08 A3030 RMK SLP258 T01200080 IEM_DS3505
ZGOW,1995-01-30 11:00,ZGOW 301100Z AUTO 03004KT 7SM 12/08 A3030 RMK SLP258 T01200080 IEM_DS3505
ZGOW,1995-01-30 12:00,ZGOW 301200Z AUTO 04006KT 6SM 12/08 A3033 RMK 60000 SLP268 T01220081 52014 IEM_DS3505
ZGOW,1995-01-30 13:00,ZGOW 301300Z AUTO 02006KT 7SM 12/09 A3036 RMK SLP278 T01200090 IEM_DS3505
ZGOW,1995-01-30 14:00,ZGOW 301400Z AUTO 02006KT 7SM 11/09 A3036 RMK SLP278 T01100090 IEM_DS3505
ZGOW,1995-01-30 15:00,ZGOW 301500Z AUTO 04006KT 4SM 11/09 A3033 RMK SLP279 T01110093 52011 IEM_DS3505
ZGOW,1995-01-30 18:00,ZGOW 301800Z AUTO 04004KT 4SM 11/09 A3034 RMK 60001 SLP270 T01090091 57009 IEM_DS3505
ZGOW,1995-01-30 21:00,ZGOW 302100Z AUTO 36004KT 4SM 11/08 A3017 RMK SLP215 T01060083 52005 IEM_DS3505
ZGOW,1995-01-30 22:00,ZGOW 302200Z AUTO 00000KT 4SM 11/08 A3036 RMK SLP278 T01100080 IEM_DS3505
ZGOW,1995-01-30 23:00,ZGOW 302300Z AUTO 00000KT 4SM 10/08 A3036 RMK SLP278 T01000080 IEM_DS3505
ZGOW,1995-01-31 00:00,ZGOW 310000Z AUTO 36006KT 5SM 11/07 A3039 RMK 60001 70004 SLP288 T01060074 52013 IEM_DS3505
ZGOW,1995-01-31 01:00,ZGOW 310100Z AUTO 00000KT 4SM 11/07 A3039 RMK SLP288 T01100070 IEM_DS3505
ZGOW,1995-01-31 02:00,ZGOW 310200Z AUTO 01004KT 4SM 13/07 A3042 RMK SLP298 T01300070 IEM_DS3505
ZGOW,1995-01-31 03:00,ZGOW 310300Z AUTO 02006KT 7SM 13/06 A3042 RMK SLP299 T01320065 52011 IEM_DS3505
ZGOW,1995-01-31 06:00,ZGOW 310600Z AUTO 29002KT 11SM 15/07 A3033 RMK SLP275 T01530074 57024 IEM_DS3505
ZGOW,1995-01-31 07:00,ZGOW 310700Z AUTO 06004KT 4SM 15/08 A3033 RMK SLP267 T01500080 IEM_DS3505
ZGOW,1995-01-31 08:00,ZGOW 310800Z AUTO 03006KT 4SM 14/08 A3033 RMK SLP268 T01400080 IEM_DS3505
ZGOW,1995-01-31 09:00,ZGOW 310900Z AUTO 09006KT 9SM 14/08 A3036 RMK SLP276 T01380077 52001 IEM_DS3505
ZGOW,1995-01-31 11:00,ZGOW 311100Z AUTO 08012KT 4SM 13/07 A3039 RMK SLP288 T01300070 IEM_DS3505
ZGOW,1995-01-31 12:00,ZGOW 311200Z AUTO 09008KT 7SM 12/07 A3039 RMK SLP294 T01240067 52018 IEM_DS3505
ZGOW,1995-01-31 13:00,ZGOW 311300Z AUTO 04008KT 4SM 12/05 A3042 RMK SLP298 T01200050 IEM_DS3505
ZGOW,1995-01-31 14:00,ZGOW 311400Z AUTO 05010KT 4SM 12/03 A3042 RMK SLP298 T01200030 IEM_DS3505
ZGOW,1995-01-31 15:00,ZGOW 311500Z AUTO 07010KT 8SM 11/02 A3043 RMK SLP302 T01140022 52008 IEM_DS3505
ZGOW,1995-01-31 18:00,ZGOW 311800Z AUTO 07006KT 9SM 11/M03 A3047 RMK SLP316 T01061027 52014 IEM_DS3505
ZGOW,1995-01-31 21:00,ZGOW 312100Z AUTO 07006KT 9SM 10/01 A3045 RMK SLP305 T00990008 57011 IEM_DS3505
ZGOW,1995-01-31 22:00,ZGOW 312200Z AUTO 03004KT 7SM 10/02 A3045 RMK SLP308 T01000020 IEM_DS3505
ZGOW,1995-01-31 23:00,ZGOW 312300Z AUTO 03004KT 6SM 09/01 A3047 RMK SLP315 T00900010 IEM_DS3505
ZGOW,1995-02-01 00:00,ZGOW 010000Z AUTO 07006KT 9SM 10/02 A3048 RMK SLP319 T00970017 52014 IEM_DS3505
ZGOW,1995-02-01 01:00,ZGOW 010100Z AUTO 04006KT 7SM 11/00 A3047 RMK SLP316 T01100000 IEM_DS3505
ZGOW,1995-02-01 02:00,ZGOW 010200Z AUTO 01004KT 6SM 12/00 A3050 RMK SLP327 T01200000 IEM_DS3505
ZGOW,1995-02-01 03:00,ZGOW 010300Z AUTO 04008KT 11SM 12/M02 A3050 RMK SLP328 T01241016 52009 IEM_DS3505
ZGOW,1995-02-01 04:00,ZGOW 010400Z AUTO 01008KT 6SM 13/M03 A3047 RMK SLP316 T01301030 IEM_DS3505
ZGOW,1995-02-01 06:00,ZGOW 010600Z AUTO 11004KT 14SM 15/M02 A3042 RMK SLP295 T01481015 57033 IEM_DS3505
ZGOW,1995-02-01 08:00,ZGOW 010800Z AUTO 08008KT 6SM 15/M01 A3039 RMK SLP289 T01501010 IEM_DS3505
ZGOW,1995-02-01 09:00,ZGOW 010900Z AUTO 09006KT 11SM 13/02 A3042 RMK SLP292 T01340024 57003 IEM_DS3505
ZGOW,1995-02-01 10:00,ZGOW 011000Z AUTO 03008KT 6SM 13/02 A3042 RMK SLP299 T01300020 IEM_DS3505
ZGOW,1995-02-01 11:00,ZGOW 011100Z AUTO 03006KT 6SM 12/04 A3042 RMK SLP299 T01200040 IEM_DS3505
ZGOW,1995-02-01 12:00,ZGOW 011200Z AUTO 09008KT 9SM 11/03 A3045 RMK SLP308 T01110033 52016 IEM_DS3505
ZGOW,1995-02-01 13:00,ZGOW 011300Z AUTO 03012KT 6SM 11/03 A3045 RMK SLP310 T01100030 IEM_DS3505
ZGOW,1995-02-01 15:00,ZGOW 011500Z AUTO 04008KT 9SM 10/02 A3046 RMK SLP314 T01000024 52006 IEM_DS3505
ZGOW,1995-02-01 18:00,ZGOW 011800Z AUTO 07004KT 10SM 10/M00 A3047 RMK SLP315 T00951005 52001 IEM_DS3505
ZGOW,1995-02-01 21:00,ZGOW 012100Z AUTO 04004KT 7SM 08/02 A3043 RMK SLP304 T00810023 57011 IEM_DS3505
ZGOW,1995-02-01 22:00,ZGOW 012200Z AUTO 01004KT 6SM 07/03 A3045 RMK SLP310 T00700030 IEM_DS3505
ZGOW,1995-02-01 23:00,ZGOW 012300Z AUTO 02006KT 6SM 08/02 A3045 RMK SLP310 T00800020 IEM_DS3505
ZGOW,1995-02-02 00:00,ZGOW 020000Z AUTO 07004KT 4SM 08/03 A3045 RMK SLP309 T00800032 52005 IEM_DS3505
ZGOW,1995-02-02 01:00,ZGOW 020100Z AUTO 36004KT 6SM 09/03 A3045 RMK SLP310 T00900030 IEM_DS3505
ZGOW,1995-02-02 02:00,ZGOW 020200Z AUTO 03004KT 6SM 11/01 A3047 RMK SLP316 T01100010 IEM_DS3505
ZGOW,1995-02-02 03:00,ZGOW 020300Z AUTO 07004KT 6SM 13/03 A3045 RMK SLP313 T01260030 52004 IEM_DS3505
ZGOW,1995-02-02 04:00,ZGOW 020400Z AUTO 05008KT 6SM 13/02 A3042 RMK SLP299 T01300020 IEM_DS3505
ZGOW,1995-02-02 06:00,ZGOW 020600Z AUTO 09006KT 7SM 14/00 A3036 RMK SLP278 T01350003 57035 IEM_DS3505
ZGOW,1995-02-02 07:00,ZGOW 020700Z AUTO 03006KT 6SM 14/02 A3036 RMK SLP279 T01400020 IEM_DS3505
ZGOW,1995-02-02 08:00,ZGOW 020800Z AUTO 03008KT 7SM 13/03 A3033 RMK SLP269 T01300030 IEM_DS3505
ZGOW,1995-02-02 09:00,ZGOW 020900Z AUTO 04006KT 12SM 13/04 A3036 RMK SLP276 T01320041 57002 IEM_DS3505
ZGOW,1995-02-02 10:00,ZGOW 021000Z AUTO 04008KT 7SM 12/05 A3036 RMK SLP279 T01200050 IEM_DS3505
ZGOW,1995-02-02 11:00,ZGOW 021100Z AUTO 04008KT 7SM 11/05 A3039 RMK SLP289 T01100050 IEM_DS3505
ZGOW,1995-02-02 12:00,ZGOW 021200Z AUTO 09006KT 9SM 11/05 A3039 RMK SLP290 T01070052 52014 IEM_DS3505
ZGOW,1995-02-02 15:00,ZGOW 021500Z AUTO 07006KT 9SM 10/03 A3040 RMK SLP291 T01010034 52001 IEM_DS3505
ZGOW,1995-02-02 18:00,ZGOW 021800Z AUTO 04006KT 7SM 09/00 A3040 RMK SLP292 T00900005 52001 IEM_DS3505
ZGOW,1995-02-02 21:00,ZGOW 022100Z AUTO 07002KT 8SM 08/03 A3039 RMK SLP287 T00810026 57005 IEM_DS3505
ZGOW,1995-02-02 22:00,ZGOW 022200Z AUTO 00000KT 7SM 08/02 A3039 RMK SLP289 T00800020 IEM_DS3505
ZGOW,1995-02-02 23:00,ZGOW 022300Z AUTO 05006KT 7SM 08/03 A3039 RMK SLP289 T00800030 IEM_DS3505
ZGOW,1995-02-03 00:00,ZGOW 030000Z AUTO 04006KT 7SM 09/01 A3040 RMK SLP291 T00940010 52004 IEM_DS3505
ZGOW,1995-02-03 01:00,ZGOW 030100Z AUTO 00000KT 6SM 11/M01 A3042 RMK SLP299 T01101010 IEM_DS3505
ZGOW,1995-02-03 02:00,ZGOW 030200Z AUTO 03008KT 6SM 11/M01 A3042 RMK SLP299 T01101010 IEM_DS3505
ZGOW,1995-02-03 03:00,ZGOW 030300Z AUTO 07006KT 9SM 13/02 A3042 RMK SLP296 T01260021 52005 IEM_DS3505
ZGOW,1995-02-03 04:00,ZGOW 030400Z AUTO 35008KT 6SM 13/01 A3039 RMK SLP289 T01300010 IEM_DS3505
ZGOW,1995-02-03 06:00,ZGOW 030600Z AUTO 04006KT 9SM 14/02 A3033 RMK SLP268 T01430022 57028 IEM_DS3505
ZGOW,1995-02-03 07:00,ZGOW 030700Z AUTO 35006KT 6SM 15/03 A3030 RMK SLP258 T01500030 IEM_DS3505
ZGOW,1995-02-03 08:00,ZGOW 030800Z AUTO 02004KT 6SM 15/05 A3030 RMK SLP258 T01500050 IEM_DS3505
ZGOW,1995-02-03 09:00,ZGOW 030900Z AUTO 04006KT 9SM 14/03 A3033 RMK SLP268 T01430028 54000 IEM_DS3505
ZGOW,1995-02-03 11:00,ZGOW 031100Z AUTO 00000KT 7SM 13/06 A3036 RMK SLP279 T01300060 IEM_DS3505
ZGOW,1995-02-03 12:00,ZGOW 031200Z AUTO 34002KT 7SM 13/06 A3039 RMK SLP285 T01300062 52017 IEM_DS3505
ZGOW,1995-02-03 13:00,ZGOW 031300Z AUTO 00000KT 7SM 13/04 A3039 RMK SLP289 T01300040 IEM_DS3505
ZGOW,1995-02-03 15:00,ZGOW 031500Z AUTO 04004KT 7SM 12/05 A3040 RMK SLP293 T01250051 52008 IEM_DS3505
ZGOW,1995-02-03 18:00,ZGOW 031800Z AUTO 02004KT 7SM 11/03 A3038 RMK SLP287 T01070033 57006 IEM_DS3505
ZGOW,1995-02-03 21:00,ZGOW 032100Z AUTO 02006KT 8SM 10/02 A3039 RMK SLP287 T00970023 54000 IEM_DS3505
ZGOW,1995-02-03 22:00,ZGOW 032200Z AUTO 30004KT 6SM 09/03 A3039 RMK SLP289 T00900030 IEM_DS3505
ZGOW,1995-02-03 23:00,ZGOW 032300Z AUTO 30008KT 6SM 09/03 A3039 RMK SLP289 T00900030 IEM_DS3505
ZGOW,1995-02-04 00:00,ZGOW 040000Z AUTO 36006KT 9SM 10/03 A3042 RMK SLP300 T00950026 52013 IEM_DS3505
ZGOW,1995-02-04 01:00,ZGOW 040100Z AUTO 30008KT 6SM 11/02 A3042 RMK SLP299 T01100020 IEM_DS3505
ZGOW,1995-02-04 02:00,ZGOW 040200Z AUTO 30008KT 7SM 12/02 RMK T01200020 IEM_DS3505
ZGOW,1995-02-04 03:00,ZGOW 040300Z AUTO 02010KT 11SM 14/02 A3041 RMK SLP297 T01370016 57003 IEM_DS3505
ZGOW,1995-02-04 04:00,ZGOW 040400Z AUTO 29006KT 6SM 14/02 A3039 RMK SLP289 T01400020 IEM_DS3505
ZGOW,1995-02-04 06:00,ZGOW 040600Z AUTO 07006KT 19SM 17/01 A3030 RMK SLP256 T01710008 57041 IEM_DS3505
ZGOW,1995-02-04 07:00,ZGOW 040700Z AUTO 00000KT 6SM 18/01 A3027 RMK SLP248 T01800010 IEM_DS3505
ZGOW,1995-02-04 08:00,ZGOW 040800Z AUTO 29006KT 6SM 18/00 A3027 RMK SLP248 T01800000 IEM_DS3505
ZGOW,1995-02-04 09:00,ZGOW 040900Z AUTO 02006KT 16SM 17/M01 A3027 RMK SLP250 T01741012 57006 IEM_DS3505
ZGOW,1995-02-04 10:00,ZGOW 041000Z AUTO 13004KT 6SM 15/06 A3030 RMK SLP258 T01500060 IEM_DS3505
ZGOW,1995-02-04 11:00,ZGOW 041100Z AUTO 00000KT 6SM 11/07 A3033 RMK SLP269 T01100070 IEM_DS3505
ZGOW,1995-02-04 12:00,ZGOW 041200Z AUTO 09002KT 11SM 13/07 A3033 RMK SLP276 T01290066 52026 IEM_DS3505
ZGOW,1995-02-04 13:00,ZGOW 041300Z AUTO 00000KT 7SM 12/07 A3036 RMK SLP279 T01200070 IEM_DS3505
ZGOW,1995-02-04 15:00,ZGOW 041500Z AUTO 02004KT 7SM 10/07 A3038 RMK SLP286 T01040070 52010 IEM_DS3505
ZGOW,1995-02-04 18:00,ZGOW 041800Z AUTO 36004KT 6SM 08/M01 A3040 RMK SLP292 T00831009 52006 IEM_DS3505
ZGOW,1995-02-04 21:00,ZGOW 042100Z AUTO 36004KT 7SM 07/M05 A3039 RMK SLP288 T00741049 57004 IEM_DS3505
ZGOW,1995-02-04 22:00,ZGOW 042200Z AUTO 35004KT 7SM 07/M01 A3042 RMK SLP299 T00701010 IEM_DS3505
ZGOW,1995-02-05 00:00,ZGOW 050000Z AUTO 02006KT 12SM 07/M04 A3046 RMK SLP313 T00721040 52025 IEM_DS3505
ZGOW,1995-02-05 02:00,ZGOW 050200Z AUTO 33008KT 6SM 11/M05 A3045 RMK SLP310 T01101050 IEM_DS3505
ZGOW,1995-02-05 03:00,ZGOW 050300Z AUTO 04006KT 16SM 13/M05 A3045 RMK SLP309 T01321051 57004 IEM_DS3505
ZGOW,1995-02-05 04:00,ZGOW 050400Z AUTO 03008KT 6SM 13/M08 A3042 RMK SLP299 T01301080 IEM_DS3505
ZGOW,1995-02-05 06:00,ZGOW 050600Z AUTO 04006KT 19SM 16/M07 A3036 RMK SLP270 T01591068 57039 IEM_DS3505
ZGOW,1995-02-05 07:00,ZGOW 050700Z AUTO 04008KT 6SM 15/M06 A3033 RMK SLP268 T01501060 IEM_DS3505
ZGOW,1995-02-05 08:00,ZGOW 050800Z AUTO 06006KT 6SM 15/M05 A3033 RMK SLP268 T01501050 IEM_DS3505
ZGOW,1995-02-05 09:00,ZGOW 050900Z AUTO 14006KT 12SM 14/00 A3033 RMK SLP266 T01350003 57004 IEM_DS3505
ZGOW,1995-02-05 11:00,ZGOW 051100Z AUTO 07004KT 6SM 12/04 A3036 RMK SLP279 T01200040 IEM_DS3505
ZGOW,1995-02-05 12:00,ZGOW 051200Z AUTO 04004KT 9SM 11/03 A3038 RMK SLP285 T01110030 52019 IEM_DS3505
ZGOW,1995-02-05 13:00,ZGOW 051300Z AUTO 05008KT 6SM 11/05 A3039 RMK SLP289 T01100050 IEM_DS3505
ZGOW,1995-02-05 14:00,ZGOW 051400Z AUTO 05008KT 6SM 11/05 A3039 RMK SLP289 T01100050 IEM_DS3505
ZGOW,1995-02-05 15:00,ZGOW 051500Z AUTO 04006KT 9SM 10/05 A3041 RMK SLP295 T01020046 52010 IEM_DS3505
ZGOW,1995-02-05 18:00,ZGOW 051800Z AUTO 02004KT 9SM 08/04 A3038 RMK SLP287 T00760038 57008 IEM_DS3505
ZGOW,1995-02-05 21:00,ZGOW 052100Z AUTO 04004KT 7SM 06/04 A3039 RMK SLP294 T00590042 52007 IEM_DS3505
ZGOW,1995-02-05 22:00,ZGOW 052200Z AUTO 35004KT 6SM 06/04 A3042 RMK SLP299 T00600040 IEM_DS3505
ZGOW,1995-02-05 23:00,ZGOW 052300Z AUTO 36006KT 6SM 07/01 A3042 RMK SLP299 T00700010 IEM_DS3505
ZGOW,1995-02-06 00:00,ZGOW 060000Z AUTO 04004KT 8SM 07/04 A3045 RMK SLP309 T00690038 52015 IEM_DS3505
ZGOW,1995-02-06 01:00,ZGOW 060100Z AUTO 33006KT 7SM 10/01 A3045 RMK SLP310 T01000010 IEM_DS3505
ZGOW,1995-02-06 02:00,ZGOW 060200Z AUTO 01006KT 7SM 12/M03 A3045 RMK SLP310 T01201030 IEM_DS3505
ZGOW,1995-02-06 03:00,ZGOW 060300Z AUTO 09008KT 9SM 13/M02 A3045 RMK SLP310 T01311019 52001 IEM_DS3505
ZGOW,1995-02-06 06:00,ZGOW 060600Z AUTO 07004KT 11SM 15/M02 A3033 RMK SLP271 T01501019 57039 IEM_DS3505
ZGOW,1995-02-06 08:00,ZGOW 060800Z AUTO 10008KT 7SM 15/04 A3030 RMK SLP258 T01500040 IEM_DS3505
ZGOW,1995-02-06 09:00,ZGOW 060900Z AUTO 11006KT 9SM 14/03 A3030 RMK SLP262 T01360027 57009 IEM_DS3505
ZGOW,1995-02-06 10:00,ZGOW 061000Z AUTO 07008KT 7SM 13/04 A3030 RMK SLP259 T01300040 IEM_DS3505
ZGOW,1995-02-06 11:00,ZGOW 061100Z AUTO 06012KT 7SM 12/03 A3030 RMK SLP259 T01200030 IEM_DS3505
ZGOW,1995-02-06 12:00,ZGOW 061200Z AUTO 07004KT 8SM 11/04 A3033 RMK SLP273 T01120037 52011 IEM_DS3505
ZGOW,1995-02-06 13:00,ZGOW 061300Z AUTO 05008KT 7SM 11/04 A3036 RMK SLP279 T01100040 IEM_DS3505
ZGOW,1995-02-06 14:00,ZGOW 061400Z AUTO 04006KT 7SM 11/05 A3036 RMK SLP279 T01100050 IEM_DS3505
ZGOW,1995-02-06 15:00,ZGOW 061500Z AUTO 07006KT 8SM 10/05 A3036 RMK SLP278 T01020048 52005 IEM_DS3505
ZGOW,1995-02-06 18:00,ZGOW 061800Z AUTO 04006KT 8SM 09/04 A3032 RMK SLP265 T00860040 57013 IEM_DS3505
ZGOW,1995-02-06 21:00,ZGOW 062100Z AUTO 04004KT 7SM 07/04 A3030 RMK SLP256 T00670041 57009 IEM_DS3505
ZGOW,1995-02-06 22:00,ZGOW 062200Z AUTO 00000KT 7SM 06/04 A3030 RMK SLP259 T00600040 IEM_DS3505
ZGOW,1995-02-06 23:00,ZGOW 062300Z AUTO 00000KT 7SM 06/04 A3030 RMK SLP259 T00600040 IEM_DS3505
ZGOW,1995-02-07 00:00,ZGOW 070000Z AUTO 07004KT 8SM 08/04 A3030 RMK SLP265 T00780041 52009 IEM_DS3505
ZGOW,1995-02-07 01:00,ZGOW 070100Z AUTO 29004KT 7SM 09/05 A3033 RMK SLP269 T00900050 IEM_DS3505
ZGOW,1995-02-07 02:00,ZGOW 070200Z AUTO 30006KT 0SM 12/05 A3033 RMK SLP269 T01200050 IEM_DS3505
ZGOW,1995-02-07 03:00,ZGOW 070300Z AUTO 02004KT 9SM 14/04 A3032 RMK SLP267 T01400041 52002 IEM_DS3505
ZGOW,1995-02-07 05:00,ZGOW 070500Z AUTO 02006KT 7SM 16/04 A3027 RMK SLP248 T01600040 IEM_DS3505
ZGOW,1995-02-07 06:00,ZGOW 070600Z AUTO 07006KT 11SM 17/01 A3024 RMK SLP230 T01680014 57037 IEM_DS3505
ZGOW,1995-02-07 07:00,ZGOW 070700Z AUTO 08006KT 7SM 17/02 A3021 RMK SLP227 T01700020 IEM_DS3505
ZGOW,1995-02-07 08:00,ZGOW 070800Z AUTO 14008KT 7SM 16/07 A3018 RMK SLP217 T01600070 IEM_DS3505
ZGOW,1995-02-07 09:00,ZGOW 070900Z AUTO 14006KT 10SM 15/06 A3019 RMK SLP219 T01520055 57011 IEM_DS3505
ZGOW,1995-02-07 10:00,ZGOW 071000Z AUTO 13006KT 7SM 15/08 A3018 RMK SLP217 T01500080 IEM_DS3505
ZGOW,1995-02-07 11:00,ZGOW 071100Z AUTO 11006KT 7SM 13/09 A3021 RMK SLP228 T01300090 IEM_DS3505
ZGOW,1995-02-07 12:00,ZGOW 071200Z AUTO 11004KT 9SM 13/09 A3024 RMK SLP233 T01310089 52014 IEM_DS3505
ZGOW,1995-02-07 15:00,ZGOW 071500Z AUTO 04004KT 8SM 11/09 A3021 RMK SLP229 T01130089 57004 IEM_DS3505
ZGOW,1995-02-07 18:00,ZGOW 071800Z AUTO 07004KT 6SM 10/08 A3016 RMK SLP213 T01010085 57016 IEM_DS3505
ZGOW,1995-02-07 21:00,ZGOW 072100Z AUTO 36002KT 6SM 11/08 A3012 RMK SLP203 T01100081 57010 IEM_DS3505
ZGOW,1995-02-07 22:00,ZGOW 072200Z AUTO 00000KT 4SM 11/08 A3015 RMK SLP208 T01100080 IEM_DS3505
ZGOW,1995-02-07 23:00,ZGOW 072300Z AUTO 00000KT 7SM 11/08 A3018 RMK SLP218 T01100080 IEM_DS3505
ZGOW,1995-02-08 00:00,ZGOW 080000Z AUTO 32002KT 6SM 11/09 A3018 RMK SLP213 T01140090 52010 IEM_DS3505
ZGOW,1995-02-08 01:00,ZGOW 080100Z AUTO 00000KT 7SM 12/10 A3018 RMK SLP218 T01200100 IEM_DS3505
ZGOW,1995-02-08 02:00,ZGOW 080200Z AUTO 00000KT 7SM 12/10 A3018 RMK SLP218 T01200100 IEM_DS3505
ZGOW,1995-02-08 03:00,ZGOW 080300Z AUTO 04004KT 6SM 14/09 A3015 RMK SLP208 T01400091 57005 IEM_DS3505
ZGOW,1995-02-08 06:00,ZGOW 080600Z AUTO 36002KT 4SM 18/03 A3006 RMK SLP180 T01780031 57028 IEM_DS3505
ZGOW,1995-02-08 07:00,ZGOW 080700Z AUTO 00000KT 7SM 18/08 A3006 RMK SLP177 T01800080 IEM_DS3505
ZGOW,1995-02-08 09:00,ZGOW 080900Z AUTO 11004KT 3SM 17/06 A3006 RMK SLP173 T01720062 57007 IEM_DS3505
ZGOW,1995-02-08 10:00,ZGOW 081000Z AUTO 00000KT 7SM 15/09 A3006 RMK SLP177 T01500090 IEM_DS3505
ZGOW,1995-02-08 11:00,ZGOW 081100Z AUTO 00000KT 7SM 14/09 A3009 RMK SLP187 T01400090 IEM_DS3505
ZGOW,1995-02-08 12:00,ZGOW 081200Z AUTO 16004KT 6SM 14/08 A3009 RMK SLP189 T01450076 52016 IEM_DS3505
ZGOW,1995-02-08 13:00,ZGOW 081300Z AUTO 00000KT 4SM 12/10 A3009 RMK SLP188 T01200100 IEM_DS3505
ZGOW,1995-02-08 14:00,ZGOW 081400Z AUTO 00000KT 4SM 12/09 A3012 RMK SLP198 T01200090 IEM_DS3505
ZGOW,1995-02-08 15:00,ZGOW 081500Z AUTO 00000KT 6SM 12/10 A3013 RMK SLP202 T01220098 52013 IEM_DS3505
ZGOW,1995-02-08 18:00,ZGOW 081800Z AUTO 00000KT 6SM 11/09 A3012 RMK SLP198 T01080088 57004 IEM_DS3505
ZGOW,1995-02-08 21:00,ZGOW 082100Z AUTO 00000KT 6SM 11/09 A3012 RMK SLP198 T01060086 54000 IEM_DS3505
ZGOW,1995-02-08 23:00,ZGOW 082300Z AUTO 00000KT 4SM 10/09 A3015 RMK SLP208 T01000090 IEM_DS3505
ZGOW,1995-02-09 00:00,ZGOW 090000Z AUTO 00000KT 7SM 12/09 A3015 RMK SLP214 T01150091 52016 IEM_DS3505
ZGOW,1995-02-09 01:00,ZGOW 090100Z AUTO 00000KT 2 1/2SM 14/10 A3018 RMK SLP217 T01400100 IEM_DS3505
ZGOW,1995-02-09 02:00,ZGOW 090200Z AUTO 34006KT 4SM 16/10 A3018 RMK SLP217 T01600100 IEM_DS3505
ZGOW,1995-02-09 03:00,ZGOW 090300Z AUTO 27002KT 7SM 18/10 A3018 RMK SLP220 T01840097 52006 IEM_DS3505
ZGOW,1995-02-09 06:00,ZGOW 090600Z AUTO 16004KT 7SM 19/09 A3012 RMK SLP192 T01940092 57028 IEM_DS3505
ZGOW,1995-02-09 07:00,ZGOW 090700Z AUTO 10006KT 6SM 20/10 A3009 RMK SLP187 T02000100 IEM_DS3505
ZGOW,1995-02-09 08:00,ZGOW 090800Z AUTO 11010KT 6SM 20/11 A3009 RMK SLP187 T02000110 IEM_DS3505
ZGOW,1995-02-09 09:00,ZGOW 090900Z AUTO 14006KT 7SM 17/11 A3012 RMK SLP194 T01680110 52006 IEM_DS3505
ZGOW,1995-02-09 10:00,ZGOW 091000Z AUTO 10008KT 6SM 16/11 A3012 RMK SLP197 T01600110 IEM_DS3505
ZGOW,1995-02-09 11:00,ZGOW 091100Z AUTO 06010KT 6SM 15/10 A3015 RMK SLP207 T01500100 IEM_DS3505
ZGOW,1995-02-09 12:00,ZGOW 091200Z AUTO 07006KT 7SM 15/09 A3018 RMK SLP222 T01480087 52028 IEM_DS3505
ZGOW,1995-02-09 13:00,ZGOW 091300Z AUTO 05012KT 6SM 14/08 A3021 RMK SLP227 T01400080 IEM_DS3505
ZGOW,1995-02-09 14:00,ZGOW 091400Z AUTO 05012KT 6SM 14/07 A3024 RMK SLP238 T01400070 IEM_DS3505
ZGOW,1995-02-09 15:00,ZGOW 091500Z AUTO 09010KT 6SM 14/05 A3024 RMK SLP236 T01430054 52014 IEM_DS3505
ZGOW,1995-02-09 18:00,ZGOW 091800Z AUTO 04002KT 6SM 12/07 A3023 RMK SLP234 T01240070 57002 IEM_DS3505
ZGOW,1995-02-09 21:00,ZGOW 092100Z AUTO 09002KT 6SM 10/08 A3021 RMK SLP232 T01010078 57002 IEM_DS3505
ZGOW,1995-02-09 22:00,ZGOW 092200Z AUTO 00000KT 4SM 08/07 A3024 RMK SLP239 T00800070 IEM_DS3505
ZGOW,1995-02-09 23:00,ZGOW 092300Z AUTO 00000KT 4SM 08/08 A3027 RMK SLP249 T00800080 IEM_DS3505
ZGOW,1995-02-10 00:00,ZGOW 100000Z AUTO 04002KT 6SM 12/09 A3027 RMK SLP247 T01160086 52015 IEM_DS3505
ZGOW,1995-02-10 01:00,ZGOW 100100Z AUTO 02004KT 6SM 15/07 A3027 RMK SLP248 T01500070 IEM_DS3505
ZGOW,1995-02-10 02:00,ZGOW 100200Z AUTO 02004KT 6SM 17/06 A3027 RMK SLP248 T01700060 IEM_DS3505
ZGOW,1995-02-10 03:00,ZGOW 100300Z AUTO 07008KT 9SM 17/06 A3024 RMK SLP244 T01730055 57003 IEM_DS3505
ZGOW,1995-02-10 04:00,ZGOW 100400Z AUTO 09014KT 6SM 18/06 A3024 RMK SLP238 T01800060 IEM_DS3505
ZGOW,1995-02-10 06:00,ZGOW 100600Z AUTO 09012KT 14SM 19/03 A3015 RMK SLP215 T01920032 57029 IEM_DS3505
ZGOW,1995-02-10 07:00,ZGOW 100700Z AUTO 06012KT 6SM 19/05 A3015 RMK SLP207 T01900050 IEM_DS3505
ZGOW,1995-02-10 08:00,ZGOW 100800Z AUTO 06012KT 6SM 18/07 A3015 RMK SLP207 T01800070 IEM_DS3505
ZGOW,1995-02-10 09:00,ZGOW 100900Z AUTO 09006KT 10SM 18/07 A3015 RMK SLP205 T01780073 57010 IEM_DS3505
ZGOW,1995-02-10 10:00,ZGOW 101000Z AUTO 05014KT 6SM 16/08 A3015 RMK SLP207 T01600080 IEM_DS3505
ZGOW,1995-02-10 11:00,ZGOW 101100Z AUTO 05012KT 6SM 15/08 A3018 RMK SLP217 T01500080 IEM_DS3505
ZGOW,1995-02-10 12:00,ZGOW 101200Z AUTO 09010KT 9SM 15/08 A3020 RMK SLP224 T01500080 52019 IEM_DS3505
ZGOW,1995-02-10 13:00,ZGOW 101300Z AUTO 06008KT 6SM 14/09 A3021 RMK SLP227 T01400090 IEM_DS3505
ZGOW,1995-02-10 15:00,ZGOW 101500Z AUTO 07008KT 8SM 14/08 A3023 RMK SLP233 T01400084 52009 IEM_DS3505
ZGOW,1995-02-10 18:00,ZGOW 101800Z AUTO 07006KT 8SM 13/08 A3019 RMK SLP222 T01330078 57011 IEM_DS3505
ZGOW,1995-02-10 23:00,ZGOW 102300Z AUTO 00000KT 4SM 11/09 A3018 RMK SLP218 T01100090 IEM_DS3505
ZGOW,1995-02-11 00:00,ZGOW 110000Z AUTO 04004KT 5SM 12/09 A3018 RMK SLP220 T01170091 52006 IEM_DS3505
ZGOW,1995-02-11 01:00,ZGOW 110100Z AUTO 28006KT 4SM 13/09 A3021 RMK SLP228 T01300090 IEM_DS3505
ZGOW,1995-02-11 02:00,ZGOW 110200Z AUTO 00000KT 3SM 14/09 A3021 RMK SLP227 T01400090 IEM_DS3505
ZGOW,1995-02-11 03:00,ZGOW 110300Z AUTO 00000KT 6SM 17/08 A3018 RMK SLP219 T01680084 57001 IEM_DS3505
ZGOW,1995-02-11 04:00,ZGOW 110400Z AUTO 03006KT 6SM 18/09 A3018 RMK SLP217 T01800090 IEM_DS3505
ZGOW,1995-02-11 06:00,ZGOW 110600Z AUTO 07006KT 10SM 20/09 A3012 RMK SLP190 T01960092 57029 IEM_DS3505
ZGOW,1995-02-11 07:00,ZGOW 110700Z AUTO 06008KT 6SM 19/10 A3009 RMK SLP187 T01900100 IEM_DS3505
ZGOW,1995-02-11 08:00,ZGOW 110800Z AUTO 07006KT 6SM 19/11 A3009 RMK SLP187 T01900110 IEM_DS3505
ZGOW,1995-02-11 09:00,ZGOW 110900Z AUTO 18006KT 7SM 17/11 A3009 RMK SLP190 T01740107 54000 IEM_DS3505
ZGOW,1995-02-11 10:00,ZGOW 111000Z AUTO 00000KT 5SM 17/12 A3009 RMK SLP187 T01700120 IEM_DS3505
ZGOW,1995-02-11 11:00,ZGOW 111100Z AUTO 00000KT 4SM 16/12 A3012 RMK SLP197 T01600120 IEM_DS3505
ZGOW,1995-02-11 12:00,ZGOW 111200Z AUTO 07004KT 7SM 16/12 A3012 RMK SLP197 T01620116 52007 IEM_DS3505
ZGOW,1995-02-11 13:00,ZGOW 111300Z AUTO 06006KT 5SM 16/12 A3015 RMK SLP207 T01600120 IEM_DS3505
ZGOW,1995-02-11 14:00,ZGOW 111400Z AUTO 05008KT 6SM 15/12 A3015 RMK SLP207 T01500120 IEM_DS3505
ZGOW,1995-02-11 15:00,ZGOW 111500Z AUTO 04004KT 6SM 15/12 A3014 RMK SLP203 T01490118 52006 IEM_DS3505
ZGOW,1995-02-11 18:00,ZGOW 111800Z AUTO 02004KT 6SM 13/11 A3010 RMK SLP190 T01260111 57013 IEM_DS3505
ZGOW,1995-02-11 21:00,ZGOW 112100Z AUTO 00000KT 2 1/2SM 12/11 A3009 RMK SLP182 T01150109 57008 IEM_DS3505
ZGOW,1995-02-11 22:00,ZGOW 112200Z AUTO 00000KT 1 1/2SM 12/11 A3009 RMK SLP188 T01200110 IEM_DS3505
ZGOW,1995-02-11 23:00,ZGOW 112300Z AUTO 00000KT 1SM 11/11 A3009 RMK SLP188 T01100110 IEM_DS3505
ZGOW,1995-02-12 00:00,ZGOW 120000Z AUTO 00000KT 1 1/2SM 12/11 A3009 RMK SLP190 T01220114 52008 IEM_DS3505
ZGOW,1995-02-12 01:00,ZGOW 120100Z AUTO 30004KT 2 1/2SM 15/12 A3012 RMK SLP197 T01500120 IEM_DS3505
ZGOW,1995-02-12 02:00,ZGOW 120200Z AUTO 30004KT 4SM 17/12 A3009 RMK SLP187 T01700120 IEM_DS3505
ZGOW,1995-02-12 03:00,ZGOW 120300Z AUTO 32002KT 2 1/2SM 20/12 A3009 RMK SLP183 T02000124 57007 IEM_DS3505
ZGOW,1995-02-12 04:00,ZGOW 120400Z AUTO 00000KT 4SM 22/12 A3003 RMK SLP166 T02200120 IEM_DS3505
ZGOW,1995-02-12 06:00,ZGOW 120600Z AUTO 18004KT 7SM 25/11 A2997 RMK SLP147 T02480112 57036 IEM_DS3505
ZGOW,1995-02-12 07:00,ZGOW 120700Z AUTO 15006KT 3SM 24/13 A2994 RMK SLP136 T02400130 IEM_DS3505
ZGOW,1995-02-12 08:00,ZGOW 120800Z AUTO 12008KT 3SM 25/13 A2994 RMK SLP136 T02500130 IEM_DS3505
ZGOW,1995-02-12 09:00,ZGOW 120900Z AUTO 18006KT 4SM 22/14 A2997 RMK SLP142 T02160137 57005 IEM_DS3505
ZGOW,1995-02-12 10:00,ZGOW 121000Z AUTO 12008KT 2 1/2SM 18/14 A2997 RMK SLP146 T01800140 IEM_DS3505
ZGOW,1995-02-12 11:00,ZGOW 121100Z AUTO 12006KT 2 1/2SM 16/14 A2997 RMK SLP146 T01600140 IEM_DS3505
ZGOW,1995-02-12 12:00,ZGOW 121200Z AUTO 16004KT 4SM 17/13 A3000 RMK SLP156 T01710128 52014 IEM_DS3505
ZGOW,1995-02-12 13:00,ZGOW 121300Z AUTO 06004KT 2 1/2SM 16/14 A3000 RMK SLP156 T01600140 IEM_DS3505
ZGOW,1995-02-12 15:00,ZGOW 121500Z AUTO 07004KT 1 1/4SM 16/14 A3002 RMK SLP163 T01590143 52007 IEM_DS3505
ZGOW,1995-02-12 18:00,ZGOW 121800Z AUTO 00000KT 1 1/4SM 14/13 A3000 RMK SLP157 T01440133 57006 IEM_DS3505
ZGOW,1995-02-12 21:00,ZGOW 122100Z AUTO 04002KT 1 1/4SM 14/14 A3000 RMK SLP152 T01440135 57005 IEM_DS3505
ZGOW,1995-02-12 22:00,ZGOW 122200Z AUTO 00000KT 2 1/2SM 14/13 A3000 RMK SLP156 T01400130 IEM_DS3505
ZGOW,1995-02-12 23:00,ZGOW 122300Z AUTO 06008KT 15/13 A3003 RMK SLP166 T01500130 IEM_DS3505
ZGOW,1995-02-13 00:00,ZGOW 130000Z AUTO 04004KT 2 1/2SM 15/13 A3003 RMK SLP174 T01480128 52022 IEM_DS3505
ZGOW,1995-02-13 01:00,ZGOW 130100Z AUTO 08008KT 5SM 17/14 A3006 RMK SLP177 T01700140 IEM_DS3505
ZGOW,1995-02-13 02:00,ZGOW 130200Z AUTO 06012KT 5SM 18/14 A3006 RMK SLP177 T01800140 IEM_DS3505
ZGOW,1995-02-13 03:00,ZGOW 130300Z AUTO 04010KT 5SM 18/14 A3009 RMK SLP183 T01840141 52009 IEM_DS3505
ZGOW,1995-02-13 06:00,ZGOW 130600Z AUTO 04004KT 6SM 19/14 A3000 RMK SLP152 T01920142 57031 IEM_DS3505
ZGOW,1995-02-13 07:00,ZGOW 130700Z AUTO 07004KT 4SM 18/14 A2997 RMK SLP146 T01800140 IEM_DS3505
ZGOW,1995-02-13 08:00,ZGOW 130800Z AUTO 05004KT 4SM 17/14 A2997 RMK SLP146 T01700140 IEM_DS3505
ZGOW,1995-02-13 09:00,ZGOW 130900Z AUTO 07004KT 4SM 18/14 A3000 RMK SLP154 T01760143 52002 IEM_DS3505
ZGOW,1995-02-13 10:00,ZGOW 131000Z AUTO 06006KT 2SM 17/15 A2997 RMK SLP146 T01700150 IEM_DS3505
ZGOW,1995-02-13 11:00,ZGOW 131100Z AUTO 08004KT 2SM 15/14 A3000 RMK SLP156 T01500140 IEM_DS3505
ZGOW,1995-02-13 12:00,ZGOW 131200Z AUTO 00000KT 4SM 15/14 A3003 RMK 60008 SLP167 T01530141 52013 IEM_DS3505
ZGOW,1995-02-13 13:00,ZGOW 131300Z AUTO 00000KT 2SM 15/14 A3003 RMK SLP166 T01500140 IEM_DS3505
ZGOW,1995-02-13 14:00,ZGOW 131400Z AUTO 06006KT 2SM 15/14 A3003 RMK SLP166 T01500140 IEM_DS3505
ZGOW,1995-02-13 15:00,ZGOW 131500Z AUTO 04006KT 1 1/4SM 15/14 A3006 RMK SLP178 T01500143 52011 IEM_DS3505
ZGOW,1995-02-13 18:00,ZGOW 131800Z AUTO 07008KT 4SM 14/13 A3002 RMK 60016 SLP163 T01390130 57015 IEM_DS3505
ZGOW,1995-02-13 21:00,ZGOW 132100Z AUTO 09004KT 5SM 14/12 A3003 RMK SLP167 T01400123 52004 IEM_DS3505
ZGOW,1995-02-13 22:00,ZGOW 132200Z AUTO 06010KT 2 1/2SM 14/12 A3003 RMK SLP166 T01400120 IEM_DS3505
ZGOW,1995-02-13 23:00,ZGOW 132300Z AUTO 03008KT 4SM 14/12 A3003 RMK SLP166 T01400120 IEM_DS3505
ZGOW,1995-02-14 00:00,ZGOW 140000Z AUTO 07006KT 4SM 14/12 A3003 RMK 70024 SLP175 T01420124 52008 IEM_DS3505
ZGOW,1995-02-14 01:00,ZGOW 140100Z AUTO 01004KT 3SM 14/12 A3012 RMK SLP197 T01400120 IEM_DS3505
ZGOW,1995-02-14 02:00,ZGOW 140200Z AUTO 09004KT 3SM 14/13 A3009 RMK SLP187 T01400130 IEM_DS3505
ZGOW,1995-02-14 03:00,ZGOW 140300Z AUTO 07004KT 3SM 14/13 A3009 RMK SLP189 T01430134 52014 IEM_DS3505
ZGOW,1995-02-14 04:00,ZGOW 140400Z AUTO 04006KT 4SM 14/13 A3009 RMK SLP187 T01400130 IEM_DS3505
ZGOW,1995-02-14 06:00,ZGOW 140600Z AUTO 07004KT 5SM 14/13 A3006 RMK 60016 SLP175 T01400127 57014 IEM_DS3505
ZGOW,1995-02-14 07:00,ZGOW 140700Z AUTO 04008KT 7SM 14/12 A3006 RMK SLP177 T01400120 IEM_DS3505
ZGOW,1995-02-14 08:00,ZGOW 140800Z AUTO 04006KT 7SM 14/12 A3003 RMK SLP166 T01400120 IEM_DS3505
ZGOW,1995-02-14 09:00,ZGOW 140900Z AUTO 09008KT 6SM 14/12 A3004 RMK SLP170 T01380116 57005 IEM_DS3505
ZGOW,1995-02-14 10:00,ZGOW 141000Z AUTO 03008KT 7SM 13/11 A3003 RMK SLP166 T01300110 IEM_DS3505
ZGOW,1995-02-14 11:00,ZGOW 141100Z AUTO 03008KT 7SM 13/11 A3003 RMK SLP166 T01300110 IEM_DS3505
ZGOW,1995-02-14 12:00,ZGOW 141200Z AUTO 11006KT 6SM 13/11 A3008 RMK 60004 SLP184 T01290112 52014 IEM_DS3505
ZGOW,1995-02-14 13:00,ZGOW 141300Z AUTO 03008KT 7SM 13/11 A3006 RMK SLP177 T01300110 IEM_DS3505
ZGOW,1995-02-14 14:00,ZGOW 141400Z AUTO 03008KT 7SM 13/11 A3009 RMK SLP187 T01300110 IEM_DS3505
ZGOW,1995-02-14 15:00,ZGOW 141500Z AUTO 07004KT 7SM 13/11 A3008 RMK SLP182 T01300107 57002 IEM_DS3505
ZGOW,1995-02-14 18:00,ZGOW 141800Z AUTO 09004KT 6SM 13/12 A3003 RMK 60000 SLP168 T01260115 57014 IEM_DS3505
ZGOW,1995-02-14 21:00,ZGOW 142100Z AUTO 14002KT 5SM 13/12 A3003 RMK SLP165 T01310118 57003 IEM_DS3505
ZGOW,1995-02-14 22:00,ZGOW 142200Z AUTO 03006KT 4SM 13/11 A3003 RMK SLP166 T01300110 IEM_DS3505
ZGOW,1995-02-14 23:00,ZGOW 142300Z AUTO 06008KT 7SM 13/11 A3006 RMK SLP177 T01300110 IEM_DS3505
ZGOW,1995-02-15 00:00,ZGOW 150000Z AUTO 07004KT 5SM 13/09 A3009 RMK 70020 SLP180 T01310094 52015 IEM_DS3505
ZGOW,1995-02-15 02:00,ZGOW 150200Z AUTO 04008KT 5SM 13/11 A3009 RMK SLP187 T01300110 IEM_DS3505
ZGOW,1995-02-15 03:00,ZGOW 150300Z AUTO 09006KT 4SM 13/12 A3009 RMK SLP193 T01340115 52013 IEM_DS3505
ZGOW,1995-02-15 04:00,ZGOW 150400Z AUTO 01006KT 7SM 14/11 A3009 RMK SLP187 T01400110 IEM_DS3505
ZGOW,1995-02-15 06:00,ZGOW 150600Z AUTO 04004KT 9SM 17/11 A3006 RMK 60004 SLP172 T01690112 57021 IEM_DS3505
ZGOW,1995-02-15 07:00,ZGOW 150700Z AUTO 05006KT 6SM 17/11 A3003 RMK SLP166 T01700110 IEM_DS3505
ZGOW,1995-02-15 08:00,ZGOW 150800Z AUTO 04008KT 6SM 17/11 A3003 RMK SLP166 T01700110 IEM_DS3505
ZGOW,1995-02-15 09:00,ZGOW 150900Z AUTO 09004KT 8SM 16/10 A3003 RMK SLP168 T01640104 57004 IEM_DS3505
ZGOW,1995-02-15 10:00,ZGOW 151000Z AUTO 05006KT 7SM 16/08 A3003 RMK SLP166 T01600080 IEM_DS3505
ZGOW,1995-02-15 11:00,ZGOW 151100Z AUTO 05006KT 7SM 15/09 A3006 RMK SLP177 T01500090 IEM_DS3505
ZGOW,1995-02-15 12:00,ZGOW 151200Z AUTO 07006KT 7SM 14/09 A3006 RMK SLP180 T01450092 52012 IEM_DS3505
ZGOW,1995-02-15 13:00,ZGOW 151300Z AUTO 04008KT 7SM 14/10 A3009 RMK SLP187 T01400100 IEM_DS3505
ZGOW,1995-02-15 15:00,ZGOW 151500Z AUTO 09006KT 7SM 14/10 A3010 RMK SLP191 T01380101 52011 IEM_DS3505
ZGOW,1995-02-15 18:00,ZGOW 151800Z AUTO 09006KT 8SM 14/10 A3008 RMK SLP186 T01350096 57005 IEM_DS3505
ZGOW,1995-02-15 21:00,ZGOW 152100Z AUTO 07004KT 7SM 13/09 A3006 RMK SLP178 T01310094 57008 IEM_DS3505
ZGOW,1995-02-15 22:00,ZGOW 152200Z AUTO 00000KT 6SM 13/09 A3006 RMK SLP177 T01300090 IEM_DS3505
ZGOW,1995-02-15 23:00,ZGOW 152300Z AUTO 00000KT 6SM 13/09 A3012 RMK SLP197 T01300090 IEM_DS3505
ZGOW,1995-02-16 00:00,ZGOW 160000Z AUTO 07004KT 8SM 14/09 A3012 RMK 70004 SLP203 T01380088 52025 IEM_DS3505
ZGOW,1995-02-16 01:00,ZGOW 160100Z AUTO 00000KT 4SM 14/09 A3015 RMK SLP207 T01400090 IEM_DS3505
ZGOW,1995-02-16 02:00,ZGOW 160200Z AUTO 00000KT 4SM 14/10 A3018 RMK SLP217 T01400100 IEM_DS3505
ZGOW,1995-02-16 03:00,ZGOW 160300Z AUTO 07006KT 6SM 14/11 A3018 RMK SLP211 T01440110 52008 IEM_DS3505
ZGOW,1995-02-16 06:00,ZGOW 160600Z AUTO 04002KT 4SM 15/10 A3012 RMK 60000 SLP194 T01480098 57017 IEM_DS3505
ZGOW,1995-02-16 07:00,ZGOW 160700Z AUTO 00000KT 4SM 15/10 A3012 RMK SLP197 T01500100 IEM_DS3505
ZGOW,1995-02-16 08:00,ZGOW 160800Z AUTO 04010KT 4SM 15/08 A3009 RMK SLP187 T01500080 IEM_DS3505
ZGOW,1995-02-16 09:00,ZGOW 160900Z AUTO 07006KT 4SM 15/08 A3009 RMK SLP190 T01480080 57004 IEM_DS3505
ZGOW,1995-02-16 10:00,ZGOW 161000Z AUTO 04008KT 4SM 14/09 A3009 RMK SLP187 T01400090 IEM_DS3505
ZGOW,1995-02-16 11:00,ZGOW 161100Z AUTO 04008KT 4SM 14/08 A3012 RMK SLP197 T01400080 IEM_DS3505
ZGOW,1995-02-16 12:00,ZGOW 161200Z AUTO 07006KT 6SM 14/08 A3015 RMK SLP208 T01410083 52018 IEM_DS3505
ZGOW,1995-02-16 13:00,ZGOW 161300Z AUTO 03006KT 4SM 14/09 A3018 RMK SLP217 T01400090 IEM_DS3505
ZGOW,1995-02-16 14:00,ZGOW 161400Z AUTO 02006KT 3SM 13/10 A3018 RMK SLP218 T01300100 IEM_DS3505
ZGOW,1995-02-16 15:00,ZGOW 161500Z AUTO 07006KT 3SM 12/09 A3018 RMK SLP219 T01250093 52011 IEM_DS3505
ZGOW,1995-02-16 18:00,ZGOW 161800Z AUTO 07008KT 4SM 12/07 A3017 RMK 60004 SLP214 T01170073 57001 IEM_DS3505
ZGOW,1995-02-16 21:00,ZGOW 162100Z AUTO 07006KT 9SM 12/06 A3015 RMK SLP204 T01150057 57010 IEM_DS3505
ZGOW,1995-02-16 22:00,ZGOW 162200Z AUTO 03006KT 7SM 12/05 A3015 RMK SLP208 T01200050 IEM_DS3505
ZGOW,1995-02-16 23:00,ZGOW 162300Z AUTO 03008KT 7SM 12/04 A3015 RMK SLP208 T01200040 IEM_DS3505
ZGOW,1995-02-17 00:00,ZGOW 170000Z AUTO 04008KT 9SM 12/06 A3018 RMK 70004 SLP213 T01220055 52009 IEM_DS3505
ZGOW,1995-02-17 01:00,ZGOW 170100Z AUTO 06010KT 7SM 13/05 A3018 RMK SLP218 T01300050 IEM_DS3505
ZGOW,1995-02-17 02:00,ZGOW 170200Z AUTO 05014G23KT 7SM 13/06 A3018 RMK SLP218 T01300060 IEM_DS3505
ZGOW,1995-02-17 03:00,ZGOW 170300Z AUTO 07008KT 8SM 13/06 A3018 RMK SLP210 T01330064 57003 IEM_DS3505
ZGOW,1995-02-17 04:00,ZGOW 170400Z AUTO 03012KT 5SM 13/07 A3012 RMK SLP197 T01300070 IEM_DS3505
ZGOW,1995-02-17 06:00,ZGOW 170600Z AUTO 09010KT 7SM 14/08 A3009 RMK SLP181 T01390081 57029 IEM_DS3505
ZGOW,1995-02-17 07:00,ZGOW 170700Z AUTO 05012KT 5SM 14/08 A3006 RMK SLP177 T01400080 IEM_DS3505
ZGOW,1995-02-17 08:00,ZGOW 170800Z AUTO 05012KT 5SM 14/09 A3003 RMK SLP166 T01400090 IEM_DS3505
ZGOW,1995-02-17 09:00,ZGOW 170900Z AUTO 07006KT 6SM 14/09 A3003 RMK SLP167 T01380091 57014 IEM_DS3505
ZGOW,1995-02-17 10:00,ZGOW 171000Z AUTO 04008KT 5SM 14/09 A3003 RMK SLP166 T01400090 IEM_DS3505
ZGOW,1995-02-17 11:00,ZGOW 171100Z AUTO 05012KT 5SM 14/09 A3003 RMK SLP166 T01400090 IEM_DS3505
ZGOW,1995-02-17 12:00,ZGOW 171200Z AUTO 04008KT 6SM 14/09 A3003 RMK SLP175 T01370092 52008 IEM_DS3505
ZGOW,1995-02-17 13:00,ZGOW 171300Z AUTO 06012KT 7SM 14/10 A3006 RMK SLP177 T01400100 IEM_DS3505
ZGOW,1995-02-17 14:00,ZGOW 171400Z AUTO 05010KT 7SM 14/09 A3006 RMK SLP177 T01400090 IEM_DS3505
ZGOW,1995-02-17 15:00,ZGOW 171500Z AUTO 07006KT 6SM 14/10 A3007 RMK SLP179 T01370098 52004 IEM_DS3505
ZGOW,1995-02-17 18:00,ZGOW 171800Z AUTO 04006KT 6SM 13/10 A3003 RMK SLP168 T01340103 57011 IEM_DS3505
ZGOW,1995-02-17 21:00,ZGOW 172100Z AUTO 04006KT 5SM 13/11 A3000 RMK SLP157 T01320109 57011 IEM_DS3505
ZGOW,1995-02-17 22:00,ZGOW 172200Z AUTO 03006KT 7SM 13/11 A3000 RMK SLP156 T01300110 IEM_DS3505
ZGOW,1995-02-17 23:00,ZGOW 172300Z AUTO 01006KT 2 1/2SM 14/11 A3000 RMK SLP156 T01400110 IEM_DS3505
ZGOW,1995-02-18 00:00,ZGOW 180000Z AUTO 07002KT 5SM 14/11 A3000 RMK SLP158 T01370113 52001 IEM_DS3505
ZGOW,1995-02-18 01:00,ZGOW 180100Z AUTO 00000KT 2 1/2SM 14/11 A3000 RMK SLP156 T01400110 IEM_DS3505
ZGOW,1995-02-18 02:00,ZGOW 180200Z AUTO 00000KT 2 1/2SM 14/12 A3000 RMK SLP156 T01400120 IEM_DS3505
ZGOW,1995-02-18 03:00,ZGOW 180300Z AUTO 00000KT 3SM 14/12 A3000 RMK SLP158 T01450123 54000 IEM_DS3505
ZGOW,1995-02-18 04:00,ZGOW 180400Z AUTO 27004KT 2 1/2SM 15/12 A2997 RMK SLP146 T01500120 IEM_DS3505
ZGOW,1995-02-18 06:00,ZGOW 180600Z AUTO 25002KT 2SM 16/13 A2994 RMK SLP137 T01600133 57021 IEM_DS3505
ZGOW,1995-02-18 07:00,ZGOW 180700Z AUTO 33004KT 2SM 17/14 A2994 RMK SLP136 T01700140 IEM_DS3505
ZGOW,1995-02-18 08:00,ZGOW 180800Z AUTO 35004KT 2SM 17/14 A2991 RMK SLP126 T01700140 IEM_DS3505
ZGOW,1995-02-18 09:00,ZGOW 180900Z AUTO 04004KT 2SM 17/15 A2993 RMK SLP133 T01740148 57004 IEM_DS3505
ZGOW,1995-02-18 10:00,ZGOW 181000Z AUTO 00000KT 2SM 17/15 A2994 RMK SLP136 T01700150 IEM_DS3505
ZGOW,1995-02-18 11:00,ZGOW 181100Z AUTO 00000KT 2SM 16/14 A2994 RMK SLP136 T01600140 IEM_DS3505
ZGOW,1995-02-18 12:00,ZGOW 181200Z AUTO 09004KT 2 1/2SM 17/15 A2997 RMK SLP145 T01670150 52012 IEM_DS3505
ZGOW,1995-02-18 14:00,ZGOW 181400Z AUTO 00000KT 2SM 15/14 A3000 RMK SLP156 T01500140 IEM_DS3505
ZGOW,1995-02-18 15:00,ZGOW 181500Z AUTO 07002KT 2SM 16/15 A3000 RMK SLP156 T01610147 52011 IEM_DS3505
ZGOW,1995-02-18 18:00,ZGOW 181800Z AUTO 07002KT 1 1/4SM 16/15 A2998 RMK SLP151 T01590150 57005 IEM_DS3505
ZGOW,1995-02-18 21:00,ZGOW 182100Z AUTO 07002KT 2SM 16/15 A2997 RMK SLP144 T01600150 57007 IEM_DS3505
ZGOW,1995-02-18 22:00,ZGOW 182200Z AUTO 03008KT 2 1/2SM 15/15 A3000 RMK SLP156 T01500150 IEM_DS3505
ZGOW,1995-02-18 23:00,ZGOW 182300Z AUTO 03014KT 2 1/2SM 15/14 A3000 RMK SLP156 T01500140 IEM_DS3505
ZGOW,1995-02-19 00:00,ZGOW 190000Z AUTO 09004KT 4SM 15/14 A3003 RMK 60012 70012 SLP171 T01480137 52027 IEM_DS3505
ZGOW,1995-02-19 01:00,ZGOW 190100Z AUTO 03014KT 7SM 15/12 A3006 RMK SLP177 T01500120 IEM_DS3505
ZGOW,1995-02-19 02:00,ZGOW 190200Z AUTO 06012KT 7SM 15/12 A3009 RMK SLP187 T01500120 IEM_DS3505
ZGOW,1995-02-19 03:00,ZGOW 190300Z AUTO 04008KT 7SM 15/12 A3009 RMK SLP187 T01500121 52016 IEM_DS3505
ZGOW,1995-02-19 05:00,ZGOW 190500Z AUTO 05012KT 7SM 15/12 A3006 RMK SLP177 T01500120 IEM_DS3505
ZGOW,1995-02-19 06:00,ZGOW 190600Z AUTO 09010KT 9SM 16/11 A3006 RMK SLP169 T01550106 57018 IEM_DS3505
ZGOW,1995-02-19 07:00,ZGOW 190700Z AUTO 05012KT 7SM 15/10 A3006 RMK SLP177 T01500100 IEM_DS3505
ZGOW,1995-02-19 08:00,ZGOW 190800Z AUTO 05014KT 7SM 16/09 A3003 RMK SLP166 T01600090 IEM_DS3505
ZGOW,1995-02-19 09:00,ZGOW 190900Z AUTO 09008KT 10SM 15/09 A3006 RMK SLP174 T01530093 52005 IEM_DS3505
ZGOW,1995-02-19 10:00,ZGOW 191000Z AUTO 04012KT 7SM 15/10 A3006 RMK SLP177 T01500100 IEM_DS3505
ZGOW,1995-02-19 12:00,ZGOW 191200Z AUTO 09008KT 10SM 15/09 A3009 RMK SLP183 T01460093 52009 IEM_DS3505
ZGOW,1995-02-19 13:00,ZGOW 191300Z AUTO 05012KT 7SM 14/10 A3009 RMK SLP187 T01400100 IEM_DS3505
ZGOW,1995-02-19 15:00,ZGOW 191500Z AUTO 07006KT 12SM 14/10 A3011 RMK SLP194 T01410098 52011 IEM_DS3505
ZGOW,1995-02-19 18:00,ZGOW 191800Z AUTO 07008KT 12SM 14/10 A3008 RMK SLP185 T01430103 57009 IEM_DS3505
ZGOW,1995-02-19 21:00,ZGOW 192100Z AUTO 07008KT 9SM 14/10 A3009 RMK SLP182 T01380101 57003 IEM_DS3505
ZGOW,1995-02-19 23:00,ZGOW 192300Z AUTO 05008KT 7SM 13/11 A3012 RMK SLP197 T01300110 IEM_DS3505
ZGOW,1995-02-20 00:00,ZGOW 200000Z AUTO 07004KT 12SM 13/11 A3015 RMK 60004 70008 SLP209 T01290110 52027 IEM_DS3505
ZGOW,1995-02-20 03:00,ZGOW 200300Z AUTO 07004KT 12SM 14/12 A3015 RMK SLP211 T01410123 52002 IEM_DS3505
ZGOW,1995-02-20 04:00,ZGOW 200400Z AUTO 06008KT 7SM 15/11 A3015 RMK SLP207 T01500110 IEM_DS3505
ZGOW,1995-02-20 05:00,ZGOW 200500Z AUTO 36008KT 7SM 15/11 A3012 RMK SLP197 T01500110 IEM_DS3505
ZGOW,1995-02-20 06:00,ZGOW 200600Z AUTO 07008KT 10SM 15/11 A3010 RMK SLP191 T01530114 57020 IEM_DS3505
ZGOW,1995-02-20 08:00,ZGOW 200800Z AUTO 05012KT 7SM 15/11 A3009 RMK SLP187 T01500110 IEM_DS3505
ZGOW,1995-02-20 09:00,ZGOW 200900Z AUTO 09006KT 9SM 15/11 A3009 RMK SLP187 T01460112 57004 IEM_DS3505
ZGOW,1995-02-20 10:00,ZGOW 201000Z AUTO 05008KT 7SM 14/11 A3009 RMK SLP187 T01400110 IEM_DS3505
ZGOW,1995-02-20 11:00,ZGOW 201100Z AUTO 03012KT 7SM 14/11 A3009 RMK SLP187 T01400110 IEM_DS3505
ZGOW,1995-02-20 12:00,ZGOW 201200Z AUTO 07008KT 9SM 14/11 A3009 RMK SLP190 T01380110 52003 IEM_DS3505
ZGOW,1995-02-20 13:00,ZGOW 201300Z AUTO 04016KT 7SM 14/11 A3012 RMK SLP197 T01400110 IEM_DS3505
ZGOW,1995-02-20 14:00,ZGOW 201400Z AUTO 04017KT 7SM 13/10 A3012 RMK SLP197 T01300100 IEM_DS3505
ZGOW,1995-02-20 15:00,ZGOW 201500Z AUTO 07010KT 9SM 13/10 A3013 RMK SLP201 T01300099 52011 IEM_DS3505
ZGOW,1995-02-20 18:00,ZGOW 201800Z AUTO 09010KT 9SM 13/09 A3011 RMK SLP194 T01300086 57007 IEM_DS3505
ZGOW,1995-02-20 21:00,ZGOW 202100Z AUTO 09008KT 9SM 13/09 A3009 RMK SLP189 T01290089 57005 IEM_DS3505
ZGOW,1995-02-20 22:00,ZGOW 202200Z AUTO 05016KT 7SM 13/09 A3009 RMK SLP187 T01300090 IEM_DS3505
ZGOW,1995-02-20 23:00,ZGOW 202300Z AUTO 04014KT 7SM 12/09 A3009 RMK SLP188 T01200090 IEM_DS3505
ZGOW,1995-02-21 00:00,ZGOW 210000Z AUTO 07010KT 8SM 13/09 A3013 RMK SLP201 T01260094 52012 IEM_DS3505
ZGOW,1995-02-21 01:00,ZGOW 210100Z AUTO 04014KT 7SM 13/09 A3015 RMK SLP207 T01300090 IEM_DS3505
ZGOW,1995-02-21 02:00,ZGOW 210200Z AUTO 05012KT 7SM 12/09 A3012 RMK SLP198 T01200090 IEM_DS3505
ZGOW,1995-02-21 03:00,ZGOW 210300Z AUTO 09008KT 9SM 12/09 A3012 RMK SLP197 T01250093 57004 IEM_DS3505
ZGOW,1995-02-21 06:00,ZGOW 210600Z AUTO 07006KT 5SM 12/11 A3009 RMK SLP181 T01170109 57016 IEM_DS3505
ZGOW,1995-02-21 07:00,ZGOW 210700Z AUTO 04010KT 7SM 12/10 A3006 RMK SLP177 T01200100 IEM_DS3505
ZGOW,1995-02-21 08:00,ZGOW 210800Z AUTO 03008KT 7SM 12/11 A3006 RMK SLP177 T01200110 IEM_DS3505
ZGOW,1995-02-21 09:00,ZGOW 210900Z AUTO 07006KT 6SM 12/10 A3006 RMK SLP182 T01170105 52001 IEM_DS3505
ZGOW,1995-02-21 10:00,ZGOW 211000Z AUTO 05008KT 7SM 12/10 A3009 RMK SLP188 T01200100 IEM_DS3505
ZGOW,1995-02-21 12:00,ZGOW 211200Z AUTO 07006KT 6SM 11/ A3009 RMK 60012 SLP195 52013 IEM_DS3505
ZGOW,1995-02-21 13:00,ZGOW 211300Z AUTO 03008KT 7SM 12/10 A3015 RMK SLP208 T01200100 IEM_DS3505
ZGOW,1995-02-21 15:00,ZGOW 211500Z AUTO 09006KT 7SM 11/10 A3013 RMK SLP203 T01140104 52008 IEM_DS3505
ZGOW,1995-02-21 18:00,ZGOW 211800Z AUTO 04006KT 7SM 11/10 A3011 RMK 60012 SLP195 T01080096 57008 IEM_DS3505
ZGOW,1995-02-21 21:00,ZGOW 212100Z AUTO 07004KT 7SM 11/10 A3012 RMK SLP194 T01060098 57001 IEM_DS3505
ZGOW,1995-02-21 22:00,ZGOW 212200Z AUTO 04006KT 7SM 11/10 A3012 RMK SLP198 T01100100 IEM_DS3505
ZGOW,1995-02-22 00:00,ZGOW 220000Z AUTO 09006KT 7SM 11/10 A3015 RMK 60039 70063 SLP207 T01100102 52013 IEM_DS3505
ZGOW,1995-02-22 01:00,ZGOW 220100Z AUTO 03004KT 7SM 11/11 A3015 RMK SLP208 T01100110 IEM_DS3505
ZGOW,1995-02-22 02:00,ZGOW 220200Z AUTO 06006KT 5SM 11/11 A3018 RMK SLP218 T01100110 IEM_DS3505
ZGOW,1995-02-22 03:00,ZGOW 220300Z AUTO 04004KT 4SM 11/11 A3018 RMK SLP209 T01140108 52002 IEM_DS3505
ZGOW,1995-02-22 04:00,ZGOW 220400Z AUTO 03004KT 7SM 12/11 A3015 RMK SLP208 T01200110 IEM_DS3505
ZGOW,1995-02-22 06:00,ZGOW 220600Z AUTO 09006KT 6SM 12/11 A3009 RMK 60020 SLP189 T01190109 57020 IEM_DS3505
ZGOW,1995-02-22 07:00,ZGOW 220700Z AUTO 04006KT 7SM 12/11 A3009 RMK SLP188 T01200110 IEM_DS3505
ZGOW,1995-02-22 08:00,ZGOW 220800Z AUTO 05004KT 7SM 13/11 A3009 RMK SLP187 T01300110 IEM_DS3505
ZGOW,1995-02-22 09:00,ZGOW 220900Z AUTO 09006KT 6SM 12/11 A3009 RMK SLP189 T01220112 54000 IEM_DS3505
ZGOW,1995-02-22 11:00,ZGOW 221100Z AUTO 06008KT 7SM 12/10 A3009 RMK SLP188 T01200100 IEM_DS3505
ZGOW,1995-02-22 12:00,ZGOW 221200Z AUTO 07004KT 6SM 12/11 A3012 RMK SLP197 T01250106 52008 IEM_DS3505
ZGOW,1995-02-22 15:00,ZGOW 221500Z AUTO 09006KT 7SM 12/10 A3016 RMK SLP213 T01200100 52016 IEM_DS3505
ZGOW,1995-02-22 18:00,ZGOW 221800Z AUTO 07004KT 5SM 12/11 A3013 RMK 60000 SLP201 T01170107 57012 IEM_DS3505
ZGOW,1995-02-22 21:00,ZGOW 222100Z AUTO 07004KT 6SM 12/11 A3009 RMK SLP194 T01200106 57007 IEM_DS3505
ZGOW,1995-02-22 22:00,ZGOW 222200Z AUTO 03006KT 7SM 12/10 A3012 RMK SLP198 T01200100 IEM_DS3505
ZGOW,1995-02-22 23:00,ZGOW 222300Z AUTO 00000KT 7SM 12/10 A3015 RMK SLP208 T01200100 IEM_DS3505
ZGOW,1995-02-23 00:00,ZGOW 230000Z AUTO 07004KT 6SM 12/10 A3015 RMK 60000 70020 SLP215 T01250102 52021 IEM_DS3505
ZGOW,1995-02-23 01:00,ZGOW 230100Z AUTO 03010KT 7SM 13/10 A3018 RMK SLP218 T01300100 IEM_DS3505
ZGOW,1995-02-23 02:00,ZGOW 230200Z AUTO 05008KT 7SM 13/10 A3018 RMK SLP218 T01300100 IEM_DS3505
ZGOW,1995-02-23 03:00,ZGOW 230300Z AUTO 09006KT 7SM 13/10 A3018 RMK SLP221 T01320105 52006 IEM_DS3505
ZGOW,1995-02-23 04:00,ZGOW 230400Z AUTO 04008KT 7SM 13/10 A3018 RMK SLP218 T01300100 IEM_DS3505
ZGOW,1995-02-23 06:00,ZGOW 230600Z AUTO 11008KT 9SM 14/10 A3012 RMK SLP192 T01430105 57029 IEM_DS3505
ZGOW,1995-02-23 07:00,ZGOW 230700Z AUTO 03006KT 7SM 14/10 A3009 RMK SLP187 T01400100 IEM_DS3505
ZGOW,1995-02-23 08:00,ZGOW 230800Z AUTO 05006KT 7SM 14/10 A3009 RMK SLP187 T01400100 IEM_DS3505
ZGOW,1995-02-23 09:00,ZGOW 230900Z AUTO 07004KT 8SM 14/11 A3009 RMK SLP189 T01410109 57003 IEM_DS3505
ZGOW,1995-02-23 10:00,ZGOW 231000Z AUTO 04008KT 7SM 13/10 A3009 RMK SLP187 T01300100 IEM_DS3505
ZGOW,1995-02-23 11:00,ZGOW 231100Z AUTO 06006KT 7SM 13/10 A3012 RMK SLP197 T01300100 IEM_DS3505
ZGOW,1995-02-23 12:00,ZGOW 231200Z AUTO 07004KT 7SM 13/11 A3015 RMK SLP206 T01320107 52017 IEM_DS3505
ZGOW,1995-02-23 13:00,ZGOW 231300Z AUTO 05010KT 7SM 13/10 A3015 RMK SLP207 T01300100 IEM_DS3505
ZGOW,1995-02-23 14:00,ZGOW 231400Z AUTO 06008KT 7SM 12/10 A3015 RMK SLP208 T01200100 IEM_DS3505
ZGOW,1995-02-23 15:00,ZGOW 231500Z AUTO 04004KT 7SM 12/11 A3016 RMK SLP211 T01250108 52005 IEM_DS3505
ZGOW,1995-02-23 18:00,ZGOW 231800Z AUTO 11004KT 6SM 12/11 A3013 RMK SLP202 T01190111 57009 IEM_DS3505
ZGOW,1995-02-23 21:00,ZGOW 232100Z AUTO 09004KT 6SM 12/11 A3010 RMK SLP190 T01220109 57012 IEM_DS3505
ZGOW,1995-02-23 22:00,ZGOW 232200Z AUTO 05010KT 4SM 12/11 A3012 RMK SLP198 T01200110 IEM_DS3505
ZGOW,1995-02-23 23:00,ZGOW 232300Z AUTO 03008KT 7SM 12/10 A3015 RMK SLP208 T01200100 IEM_DS3505
ZGOW,1995-02-24 00:00,ZGOW 240000Z AUTO 07006KT 5SM 12/11 A3015 RMK SLP205 T01240107 52015 IEM_DS3505
ZGOW,1995-02-24 01:00,ZGOW 240100Z AUTO 02008KT 7SM 13/10 A3018 RMK SLP218 T01300100 IEM_DS3505
ZGOW,1995-02-24 03:00,ZGOW 240300Z AUTO 09008KT 6SM 14/10 A3018 RMK SLP209 T01410105 52004 IEM_DS3505
ZGOW,1995-02-24 06:00,ZGOW 240600Z AUTO 07006KT 7SM 16/11 A3006 RMK SLP178 T01560111 57031 IEM_DS3505
ZGOW,1995-02-24 07:00,ZGOW 240700Z AUTO 03008KT 7SM 15/11 A3006 RMK SLP177 T01500110 IEM_DS3505
ZGOW,1995-02-24 08:00,ZGOW 240800Z AUTO 02006KT 6SM 15/11 A3003 RMK SLP166 T01500110 IEM_DS3505
ZGOW,1995-02-24 09:00,ZGOW 240900Z AUTO 07006KT 7SM 15/11 A3003 RMK SLP168 T01530114 57010 IEM_DS3505
ZGOW,1995-02-24 10:00,ZGOW 241000Z AUTO 07006KT 7SM 14/11 A3003 RMK SLP166 T01400110 IEM_DS3505
ZGOW,1995-02-24 11:00,ZGOW 241100Z AUTO 00000KT 7SM 14/09 A3003 RMK SLP166 T01400090 IEM_DS3505
ZGOW,1995-02-24 12:00,ZGOW 241200Z AUTO 14006KT 7SM 14/11 A3007 RMK SLP180 T01370113 52012 IEM_DS3505
ZGOW,1995-02-24 13:00,ZGOW 241300Z AUTO 00000KT 7SM 14/11 A3009 RMK SLP187 T01400110 IEM_DS3505
ZGOW,1995-02-24 15:00,ZGOW 241500Z AUTO 11002KT 7SM 13/11 A3011 RMK SLP193 T01340111 52013 IEM_DS3505
ZGOW,1995-02-24 18:00,ZGOW 241800Z AUTO 07004KT 7SM 13/11 A3008 RMK SLP184 T01300111 57009 IEM_DS3505
ZGOW,1995-02-24 21:00,ZGOW 242100Z AUTO 07002KT 5SM 12/12 A3009 RMK SLP183 T01230115 57001 IEM_DS3505
ZGOW,1995-02-24 22:00,ZGOW 242200Z AUTO 06006KT 7SM 12/11 A3009 RMK SLP188 T01200110 IEM_DS3505
ZGOW,1995-02-24 23:00,ZGOW 242300Z AUTO 00000KT 3SM 12/11 A3009 RMK SLP188 T01200110 IEM_DS3505
ZGOW,1995-02-25 00:00,ZGOW 250000Z AUTO 07004KT 6SM 13/11 A3012 RMK SLP194 T01280111 52011 IEM_DS3505
ZGOW,1995-02-25 01:00,ZGOW 250100Z AUTO 35004KT 3SM 13/11 A3012 RMK SLP197 T01300110 IEM_DS3505
ZGOW,1995-02-25 02:00,ZGOW 250200Z AUTO 33006KT 2SM 13/12 A3012 RMK SLP197 T01300120 IEM_DS3505
ZGOW,1995-02-25 03:00,ZGOW 250300Z AUTO 04006KT 6SM 14/12 A3012 RMK SLP197 T01370116 52003 IEM_DS3505
ZGOW,1995-02-25 04:00,ZGOW 250400Z AUTO 36004KT 5SM 14/11 A3009 RMK SLP187 T01400110 IEM_DS3505
ZGOW,1995-02-25 05:00,ZGOW 250500Z AUTO 01008KT 7SM 14/11 A3009 RMK SLP187 T01400110 IEM_DS3505
ZGOW,1995-02-25 06:00,ZGOW 250600Z AUTO 36008KT 7SM 14/10 A3006 RMK SLP172 T01420097 57025 IEM_DS3505
ZGOW,1995-02-25 07:00,ZGOW 250700Z AUTO 29010KT 7SM 14/09 A3003 RMK SLP166 T01400090 IEM_DS3505
ZGOW,1995-02-25 08:00,ZGOW 250800Z AUTO 35004KT 7SM 13/09 A3003 RMK SLP166 T01300090 IEM_DS3505
ZGOW,1995-02-25 09:00,ZGOW 250900Z AUTO 02004KT 7SM 13/10 A3003 RMK SLP167 T01280095 57005 IEM_DS3505
ZGOW,1995-02-25 10:00,ZGOW 251000Z AUTO 30004KT 7SM 13/09 A3003 RMK SLP166 T01300090 IEM_DS3505
ZGOW,1995-02-25 11:00,ZGOW 251100Z AUTO 30006KT 7SM 12/10 A3003 RMK SLP166 T01200100 IEM_DS3505
ZGOW,1995-02-25 12:00,ZGOW 251200Z AUTO 02004KT 7SM 12/09 A3006 RMK SLP182 T01210093 52015 IEM_DS3505
ZGOW,1995-02-25 13:00,ZGOW 251300Z AUTO 00000KT 7SM 12/09 A3009 RMK SLP188 T01200090 IEM_DS3505
ZGOW,1995-02-25 14:00,ZGOW 251400Z AUTO 35004KT 7SM 12/08 A3012 RMK SLP198 T01200080 IEM_DS3505
ZGOW,1995-02-25 15:00,ZGOW 251500Z AUTO 02004KT 7SM 12/09 A3011 RMK SLP195 T01170087 52013 IEM_DS3505
ZGOW,1995-02-25 18:00,ZGOW 251800Z AUTO 04004KT 7SM 11/09 A3011 RMK SLP193 T01100086 57002 IEM_DS3505
ZGOW,1995-02-25 21:00,ZGOW 252100Z AUTO 02004KT 6SM 11/09 A3012 RMK SLP188 T01060088 57005 IEM_DS3505
ZGOW,1995-02-25 22:00,ZGOW 252200Z AUTO 00000KT 7SM 11/08 A3012 RMK SLP198 T01100080 IEM_DS3505
ZGOW,1995-02-25 23:00,ZGOW 252300Z AUTO 00000KT 5SM 11/09 A3015 RMK SLP208 T01100090 IEM_DS3505
ZGOW,1995-02-26 00:00,ZGOW 260000Z AUTO 02004KT 4SM 10/09 A3015 RMK 60000 SLP211 T01040090 52023 IEM_DS3505
ZGOW,1995-02-26 01:00,ZGOW 260100Z AUTO 36006KT 1SM 10/10 A3018 RMK SLP218 T01000100 IEM_DS3505
ZGOW,1995-02-26 02:00,ZGOW 260200Z AUTO 02006KT 5SM 11/10 A3018 RMK SLP218 T01100100 IEM_DS3505
ZGOW,1995-02-26 03:00,ZGOW 260300Z AUTO 07004KT 4SM 12/09 A3018 RMK SLP211 T01220094 54000 IEM_DS3505
ZGOW,1995-02-26 06:00,ZGOW 260600Z AUTO 02004KT 5SM 13/10 A3006 RMK SLP183 T01280103 57028 IEM_DS3505
ZGOW,1995-02-26 07:00,ZGOW 260700Z AUTO 03006KT 7SM 13/10 A3006 RMK SLP177 T01300100 IEM_DS3505
ZGOW,1995-02-26 08:00,ZGOW 260800Z AUTO 03004KT 7SM 14/07 A3006 RMK SLP177 T01400070 IEM_DS3505
ZGOW,1995-02-26 09:00,ZGOW 260900Z AUTO 02004KT 4SM 13/10 A3006 RMK SLP176 T01320099 57007 IEM_DS3505
ZGOW,1995-02-26 10:00,ZGOW 261000Z AUTO 00000KT 4SM 13/10 A3006 RMK SLP177 T01300100 IEM_DS3505
ZGOW,1995-02-26 11:00,ZGOW 261100Z AUTO 00000KT 4SM 13/10 A3006 RMK SLP177 T01300100 IEM_DS3505
ZGOW,1995-02-26 12:00,ZGOW 261200Z AUTO 02004KT 4SM 13/10 A3009 RMK SLP185 T01260105 52009 IEM_DS3505
ZGOW,1995-02-26 13:00,ZGOW 261300Z AUTO 00000KT 4SM 13/10 A3009 RMK SLP187 T01300100 IEM_DS3505
ZGOW,1995-02-26 14:00,ZGOW 261400Z AUTO 00000KT 4SM 12/10 A3009 RMK SLP188 T01200100 IEM_DS3505
ZGOW,1995-02-26 15:00,ZGOW 261500Z AUTO 04004KT 4SM 12/10 A3010 RMK SLP190 T01250095 52005 IEM_DS3505
ZGOW,1995-02-26 18:00,ZGOW 261800Z AUTO 07004KT 6SM 12/08 A3008 RMK SLP184 T01240077 57006 IEM_DS3505
ZGOW,1995-02-26 21:00,ZGOW 262100Z AUTO 04004KT 5SM 12/10 A3003 RMK SLP172 T01180098 57012 IEM_DS3505
ZGOW,1995-02-26 22:00,ZGOW 262200Z AUTO 33004KT 4SM 12/10 A3006 RMK SLP177 T01200100 IEM_DS3505
ZGOW,1995-02-26 23:00,ZGOW 262300Z AUTO 00000KT 1 1/2SM 12/10 A3009 RMK SLP188 T01200100 IEM_DS3505
ZGOW,1995-02-27 00:00,ZGOW 270000Z AUTO 07002KT 4SM 11/10 A3009 RMK 60008 70008 SLP192 T01140098 52020 IEM_DS3505
ZGOW,1995-02-27 01:00,ZGOW 270100Z AUTO 00000KT 4SM 12/10 A3012 RMK SLP198 T01200100 IEM_DS3505
ZGOW,1995-02-27 03:00,ZGOW 270300Z AUTO 07004KT 4SM 13/10 A3012 RMK SLP198 T01300097 52006 IEM_DS3505
ZGOW,1995-02-27 04:00,ZGOW 270400Z AUTO 00000KT 7SM 13/09 A3009 RMK SLP187 T01300090 IEM_DS3505
ZGOW,1995-02-27 06:00,ZGOW 270600Z AUTO 36004KT 5SM 15/10 A3003 RMK 60004 SLP168 T01520105 57030 IEM_DS3505
ZGOW,1995-02-27 09:00,ZGOW 270900Z AUTO 04004KT 5SM 15/11 A3003 RMK SLP167 T01500111 57001 IEM_DS3505
ZGOW,1995-02-27 11:00,ZGOW 271100Z AUTO 10004KT 3SM 13/11 A3003 RMK SLP166 T01300110 IEM_DS3505
ZGOW,1995-02-27 12:00,ZGOW 271200Z AUTO 14004KT 4SM 13/11 A3004 RMK 60000 SLP171 T01310108 52004 IEM_DS3505
ZGOW,1995-02-27 13:00,ZGOW 271300Z AUTO 00000KT 3SM 12/11 A3006 RMK SLP177 T01200110 IEM_DS3505
ZGOW,1995-02-27 14:00,ZGOW 271400Z AUTO 00000KT 3SM 12/11 A3006 RMK SLP177 T01200110 IEM_DS3505
ZGOW,1995-02-27 15:00,ZGOW 271500Z AUTO 02002KT 3SM 12/10 A3006 RMK SLP175 T01190105 52004 IEM_DS3505
ZGOW,1995-02-27 18:00,ZGOW 271800Z AUTO 00000KT 2 1/2SM 12/11 A3007 RMK SLP180 T01210110 52005 IEM_DS3505
ZGOW,1995-02-27 21:00,ZGOW 272100Z AUTO 07004KT 2 1/2SM 11/11 A3004 RMK SLP172 T01130107 57008 IEM_DS3505
ZGOW,1995-02-27 22:00,ZGOW 272200Z AUTO 00000KT 4SM 11/10 A3006 RMK SLP178 T01100100 IEM_DS3505
ZGOW,1995-02-27 23:00,ZGOW 272300Z AUTO 00000KT 2 1/2SM 11/10 A3009 RMK SLP188 T01100100 IEM_DS3505
ZGOW,1995-02-28 00:00,ZGOW 280000Z AUTO 04006KT 5SM 12/10 A3010 RMK 70004 SLP190 T01230100 52018 IEM_DS3505
ZGOW,1995-02-28 01:00,ZGOW 280100Z AUTO 00000KT 3SM 14/10 A3012 RMK SLP197 T01400100 IEM_DS3505
ZGOW,1995-02-28 02:00,ZGOW 280200Z AUTO 00000KT 4SM 16/11 A3012 RMK SLP197 T01600110 IEM_DS3505
ZGOW,1995-02-28 03:00,ZGOW 280300Z AUTO 04006KT 6SM 18/10 A3012 RMK SLP196 T01780103 52006 IEM_DS3505
ZGOW,1995-02-28 04:00,ZGOW 280400Z AUTO 03008KT 7SM 18/11 A3012 RMK SLP197 T01800110 IEM_DS3505
ZGOW,1995-02-28 06:00,ZGOW 280600Z AUTO 09010KT 8SM 19/06 A3003 RMK SLP172 T01910057 57024 IEM_DS3505
ZGOW,1995-02-28 07:00,ZGOW 280700Z AUTO 10014KT 7SM 18/07 A3000 RMK SLP156 T01800070 IEM_DS3505
ZGOW,1995-02-28 08:00,ZGOW 280800Z AUTO 08016KT 6SM 17/05 A3003 RMK SLP166 T01700050 IEM_DS3505
ZGOW,1995-02-28 09:00,ZGOW 280900Z AUTO 09008KT 7SM 16/09 A3003 RMK SLP165 T01560088 57007 IEM_DS3505
ZGOW,1995-02-28 10:00,ZGOW 281000Z AUTO 06012KT 6SM 15/08 A3003 RMK SLP166 T01500080 IEM_DS3505
ZGOW,1995-02-28 11:00,ZGOW 281100Z AUTO 06012KT 5SM 14/08 A3006 RMK SLP177 T01400080 IEM_DS3505
ZGOW,1995-02-28 12:00,ZGOW 281200Z AUTO 07004KT 6SM 14/10 A3006 RMK SLP179 T01390098 52014 IEM_DS3505
ZGOW,1995-02-28 15:00,ZGOW 281500Z AUTO 07008KT 6SM 13/10 A3008 RMK SLP185 T01340101 52006 IEM_DS3505
ZGOW,1995-02-28 18:00,ZGOW 281800Z AUTO 07006KT 5SM 13/08 A3009 RMK SLP187 T01340082 52002 IEM_DS3505
ZGOW,1995-02-28 21:00,ZGOW 282100Z AUTO 07008KT 5SM 12/09 A3007 RMK SLP180 T01220090 57007 IEM_DS3505
ZGOW,1995-03-01 00:00,ZGOW 010000Z AUTO 09006KT 6SM 12/10 A3013 RMK 60039 70035 SLP199 T01150097 52019 IEM_DS3505
ZGOW,1995-03-01 06:00,ZGOW 010600Z AUTO 04008KT 7SM 12/10 A3003 RMK 60024 SLP171 T01250096 57034 IEM_DS3505
ZGOW,1995-03-01 09:00,ZGOW 010900Z AUTO 09006KT 7SM 12/10 A3003 RMK SLP159 T01200103 57012 IEM_DS3505
ZGOW,1995-03-01 10:00,ZGOW 011000Z AUTO 04010KT 3SM 12/11 A3000 RMK SLP157 T01200110 IEM_DS3505
ZGOW,1995-03-01 12:00,ZGOW 011200Z AUTO 09010KT 6SM 12/10 A3003 RMK 60008 SLP163 T01180098 52004 IEM_DS3505
ZGOW,1995-03-01 13:00,ZGOW 011300Z AUTO 04008KT 4SM 12/11 A3003 RMK SLP167 T01200110 IEM_DS3505
ZGOW,1995-03-01 14:00,ZGOW 011400Z AUTO 03012KT 4SM 12/10 A3003 RMK SLP167 T01200100 IEM_DS3505
ZGOW,1995-03-01 18:00,ZGOW 011800Z AUTO 07004KT 4SM 12/11 A3003 RMK 60004 SLP166 T01170111 57010 IEM_DS3505
ZGOW,1995-03-01 21:00,ZGOW 012100Z AUTO 02004KT 3SM 12/11 A3006 RMK SLP155 T01160112 57011 IEM_DS3505
ZGOW,1995-03-01 22:00,ZGOW 012200Z AUTO 35004KT 3SM 12/11 A3000 RMK SLP157 T01200110 IEM_DS3505
ZGOW,1995-03-02 00:00,ZGOW 020000Z AUTO 32002KT 1 1/4SM 12/12 A3003 RMK 60063 70098 SLP166 T01210115 52011 IEM_DS3505
ZGOW,1995-03-02 01:00,ZGOW 020100Z AUTO 35004KT 3SM 13/12 A3006 RMK SLP177 T01300120 IEM_DS3505
ZGOW,1995-03-02 02:00,ZGOW 020200Z AUTO 00000KT 3SM 13/12 A3006 RMK SLP177 T01300120 IEM_DS3505
ZGOW,1995-03-02 03:00,ZGOW 020300Z AUTO 00000KT 6SM 14/12 A3004 RMK SLP171 T01380123 52005 IEM_DS3505
ZGOW,1995-03-02 04:00,ZGOW 020400Z AUTO 04006KT 7SM 14/12 A3003 RMK SLP167 T01400120 IEM_DS3505
ZGOW,1995-03-02 06:00,ZGOW 020600Z AUTO 11004KT 6SM 15/13 A2997 RMK 60020 SLP139 T01520129 57032 IEM_DS3505
ZGOW,1995-03-02 07:00,ZGOW 020700Z AUTO 01006KT 7SM 15/13 A2994 RMK SLP137 T01500130 IEM_DS3505
ZGOW,1995-03-02 08:00,ZGOW 020800Z AUTO 02004KT 7SM 15/13 A2994 RMK SLP137 T01500130 IEM_DS3505
ZGOW,1995-03-02 09:00,ZGOW 020900Z AUTO 11002KT 5SM 15/13 A2994 RMK SLP138 T01510133 57001 IEM_DS3505
ZGOW,1995-03-02 10:00,ZGOW 021000Z AUTO 00000KT 7SM 14/13 A2994 RMK SLP137 T01400130 IEM_DS3505
ZGOW,1995-03-02 11:00,ZGOW 021100Z AUTO 00000KT 7SM 14/13 A2997 RMK SLP147 T01400130 IEM_DS3505
ZGOW,1995-03-02 12:00,ZGOW 021200Z AUTO 11004KT 4SM 15/13 A2997 RMK SLP149 T01460132 52011 IEM_DS3505
ZGOW,1995-03-02 14:00,ZGOW 021400Z AUTO 04006KT 3SM 14/13 A3000 RMK SLP157 T01400130 IEM_DS3505
ZGOW,1995-03-02 15:00,ZGOW 021500Z AUTO 07004KT 4SM 14/13 A3000 RMK SLP158 T01390132 52009 IEM_DS3505
ZGOW,1995-03-02 18:00,ZGOW 021800Z AUTO 04002KT 4SM 14/13 A2999 RMK 60008 SLP154 T01370132 57004 IEM_DS3505
ZGOW,1995-03-02 21:00,ZGOW 022100Z AUTO 18004KT 1 1/4SM 14/13 A2997 RMK SLP148 T01380134 57006 IEM_DS3505
ZGOW,1995-03-02 22:00,ZGOW 022200Z AUTO 00000KT 3/8SM 14/14 A3000 RMK SLP157 T01400140 IEM_DS3505
ZGOW,1995-03-02 23:00,ZGOW 022300Z AUTO 00000KT 1/8SM 13/13 A3000 RMK SLP157 T01300130 IEM_DS3505
ZGOW,1995-03-03 00:00,ZGOW 030000Z AUTO 00000KT 2SM 14/14 A3003 RMK 60000 70028 SLP165 T01410137 52017 IEM_DS3505
ZGOW,1995-03-03 03:00,ZGOW 030300Z AUTO 04004KT 9SM 20/13 A3004 RMK SLP169 T02050134 52004 IEM_DS3505
ZGOW,1995-03-03 06:00,ZGOW 030600Z AUTO 18006KT 11SM 19/15 A2997 RMK SLP147 T01890150 57022 IEM_DS3505
ZGOW,1995-03-03 09:00,ZGOW 030900Z AUTO 11004KT 7SM 17/14 A2999 RMK SLP155 T01740135 52008 IEM_DS3505
ZGOW,1995-03-03 12:00,ZGOW 031200Z AUTO 04006KT 6SM 15/10 A3008 RMK SLP183 T01480104 52028 IEM_DS3505
ZGOW,1995-03-03 15:00,ZGOW 031500Z AUTO 04006KT 6SM 14/11 A3013 RMK SLP201 T01400112 52018 IEM_DS3505
ZGOW,1995-03-03 18:00,ZGOW 031800Z AUTO 04004KT 6SM 13/11 A3014 RMK SLP204 T01310108 52003 IEM_DS3505
ZGOW,1995-03-03 21:00,ZGOW 032100Z AUTO 36004KT 6SM 12/06 A3014 RMK SLP206 T01180063 52002 IEM_DS3505
ZGOW,1995-03-03 22:00,ZGOW 032200Z AUTO 00000KT 7SM 12/08 A3015 RMK SLP208 T01200080 IEM_DS3505
ZGOW,1995-03-04 00:00,ZGOW 040000Z AUTO 36002KT 7SM 12/06 A3021 RMK SLP229 T01200060 52023 IEM_DS3505
ZGOW,1995-03-04 01:00,ZGOW 040100Z AUTO 36008KT 7SM 14/03 A3021 RMK SLP228 T01400030 IEM_DS3505
ZGOW,1995-03-04 02:00,ZGOW 040200Z AUTO 01010KT 6SM 16/M01 A3021 RMK SLP228 T01601010 IEM_DS3505
ZGOW,1995-03-04 03:00,ZGOW 040300Z AUTO 34006KT 7SM 18/02 A3021 RMK SLP228 T01780024 57001 IEM_DS3505
ZGOW,1995-03-04 06:00,ZGOW 040600Z AUTO 32004KT 9SM 20/02 A3012 RMK SLP199 T01960016 57029 IEM_DS3505
ZGOW,1995-03-04 07:00,ZGOW 040700Z AUTO 06012KT 7SM 21/M02 A3012 RMK SLP197 T02101020 IEM_DS3505
ZGOW,1995-03-04 08:00,ZGOW 040800Z AUTO 08012KT 7SM 19/04 A3009 RMK SLP187 T01900040 IEM_DS3505
ZGOW,1995-03-04 09:00,ZGOW 040900Z AUTO 14008KT 7SM 16/07 A3012 RMK SLP194 T01600069 57005 IEM_DS3505
ZGOW,1995-03-04 10:00,ZGOW 041000Z AUTO 06014KT 7SM 15/09 A3012 RMK SLP198 T01500090 IEM_DS3505
ZGOW,1995-03-04 12:00,ZGOW 041200Z AUTO 04004KT 7SM 14/08 A3015 RMK SLP208 T01350083 52014 IEM_DS3505
ZGOW,1995-03-04 13:00,ZGOW 041300Z AUTO 06008KT 7SM 13/09 A3018 RMK SLP218 T01300090 IEM_DS3505
ZGOW,1995-03-04 14:00,ZGOW 041400Z AUTO 03010KT 7SM 12/09 A3018 RMK SLP218 T01200090 IEM_DS3505
ZGOW,1995-03-04 15:00,ZGOW 041500Z AUTO 09006KT 6SM 13/09 A3018 RMK SLP219 T01260090 52011 IEM_DS3505
ZGOW,1995-03-04 18:00,ZGOW 041800Z AUTO 04006KT 6SM 12/06 A3020 RMK SLP224 T01150062 52005 IEM_DS3505
ZGOW,1995-03-04 21:00,ZGOW 042100Z AUTO 04008KT 7SM 11/03 A3019 RMK SLP223 T01080032 57001 IEM_DS3505
ZGOW,1995-03-04 22:00,ZGOW 042200Z AUTO 05010KT 3SM 11/02 A3021 RMK SLP228 T01100020 IEM_DS3505
ZGOW,1995-03-04 23:00,ZGOW 042300Z AUTO 04006KT 7SM 11/02 A3024 RMK SLP238 T01100020 IEM_DS3505
ZGOW,1995-03-05 00:00,ZGOW 050000Z AUTO 04006KT 7SM 11/04 A3024 RMK SLP240 T01080045 52017 IEM_DS3505
ZGOW,1995-03-05 01:00,ZGOW 050100Z AUTO 05010KT 7SM 12/02 A3024 RMK SLP238 T01200020 IEM_DS3505
ZGOW,1995-03-05 02:00,ZGOW 050200Z AUTO 05010KT 7SM 13/02 A3024 RMK SLP238 T01300020 IEM_DS3505
ZGOW,1995-03-05 03:00,ZGOW 050300Z AUTO 07010KT 8SM 15/05 A3024 RMK SLP238 T01530046 57002 IEM_DS3505
ZGOW,1995-03-05 06:00,ZGOW 050600Z AUTO 07004KT 9SM 16/04 A3015 RMK SLP210 T01630035 57028 IEM_DS3505
ZGOW,1995-03-05 09:00,ZGOW 050900Z AUTO 11006KT 7SM 15/06 A3010 RMK SLP192 T01460063 57018 IEM_DS3505
ZGOW,1995-03-05 12:00,ZGOW 051200Z AUTO 07004KT 7SM 13/07 A3015 RMK SLP205 T01260067 52013 IEM_DS3505
ZGOW,1995-03-05 13:00,ZGOW 051300Z AUTO 04008KT 7SM 12/08 A3018 RMK SLP218 T01200080 IEM_DS3505
ZGOW,1995-03-05 14:00,ZGOW 051400Z AUTO 03008KT 7SM 12/08 A3018 RMK SLP218 T01200080 IEM_DS3505
ZGOW,1995-03-05 15:00,ZGOW 051500Z AUTO 07004KT 6SM 12/09 A3018 RMK SLP218 T01170087 52013 IEM_DS3505
ZGOW,1995-03-05 18:00,ZGOW 051800Z AUTO 04004KT 6SM 11/09 A3016 RMK SLP211 T01140090 57007 IEM_DS3505
ZGOW,1995-03-05 21:00,ZGOW 052100Z AUTO 02002KT 5SM 11/08 A3014 RMK SLP205 T01080083 57006 IEM_DS3505
ZGOW,1995-03-05 22:00,ZGOW 052200Z AUTO 00000KT 4SM 11/09 A3015 RMK SLP208 T01100090 IEM_DS3505
ZGOW,1995-03-06 00:00,ZGOW 060000Z AUTO 04004KT 4SM 12/09 A3018 RMK SLP218 T01150089 52013 IEM_DS3505
ZGOW,1995-03-06 02:00,ZGOW 060200Z AUTO 35004KT 3SM 14/08 A3018 RMK SLP218 T01400080 IEM_DS3505
ZGOW,1995-03-06 03:00,ZGOW 060300Z AUTO 02004KT 6SM 14/07 A3018 RMK SLP223 T01430066 52005 IEM_DS3505
ZGOW,1995-03-06 06:00,ZGOW 060600Z AUTO 11004KT 7SM 16/05 A3012 RMK SLP195 T01620048 57028 IEM_DS3505
ZGOW,1995-03-06 07:00,ZGOW 060700Z AUTO 06004KT 7SM 16/07 A3009 RMK SLP188 T01600070 IEM_DS3505
ZGOW,1995-03-06 08:00,ZGOW 060800Z AUTO 06006KT 6SM 17/07 A3006 RMK SLP177 T01700070 IEM_DS3505
ZGOW,1995-03-06 09:00,ZGOW 060900Z AUTO 16002KT 7SM 16/05 A3006 RMK SLP182 T01630049 57013 IEM_DS3505
ZGOW,1995-03-06 10:00,ZGOW 061000Z AUTO 09004KT 6SM 15/10 A3006 RMK SLP177 T01500100 IEM_DS3505
ZGOW,1995-03-06 12:00,ZGOW 061200Z AUTO 07002KT 7SM 14/09 A3009 RMK SLP184 T01370087 52002 IEM_DS3505
ZGOW,1995-03-06 13:00,ZGOW 061300Z AUTO 00000KT 7SM 12/10 A3009 RMK SLP188 T01200100 IEM_DS3505
ZGOW,1995-03-06 14:00,ZGOW 061400Z AUTO 00000KT 7SM 12/10 A3012 RMK SLP198 T01200100 IEM_DS3505
ZGOW,1995-03-06 15:00,ZGOW 061500Z AUTO 00000KT 6SM 12/10 A3010 RMK SLP192 T01160098 52008 IEM_DS3505
ZGOW,1995-03-06 18:00,ZGOW 061800Z AUTO 00000KT 4SM 12/10 A3010 RMK SLP189 T01190101 57003 IEM_DS3505
ZGOW,1995-03-06 21:00,ZGOW 062100Z AUTO 04004KT 4SM 12/10 A3009 RMK SLP181 T01220103 57008 IEM_DS3505
ZGOW,1995-03-06 22:00,ZGOW 062200Z AUTO 00000KT 2 1/2SM 12/10 A3009 RMK SLP188 T01200100 IEM_DS3505
ZGOW,1995-03-06 23:00,ZGOW 062300Z AUTO 00000KT 1 1/2SM 13/10 A3012 RMK SLP198 T01300100 IEM_DS3505
ZGOW,1995-03-07 00:00,ZGOW 070000Z AUTO 07002KT 3SM 13/10 A3012 RMK 60000 70001 SLP202 T01300105 52021 IEM_DS3505
ZGOW,1995-03-07 01:00,ZGOW 070100Z AUTO 00000KT 2SM 14/11 A3015 RMK SLP208 T01400110 IEM_DS3505
ZGOW,1995-03-07 03:00,ZGOW 070300Z AUTO 00000KT 3SM 16/12 A3015 RMK SLP208 T01600116 52006 IEM_DS3505
ZGOW,1995-03-07 06:00,ZGOW 070600Z AUTO 11006KT 7SM 20/08 A3009 RMK SLP177 T02000078 57031 IEM_DS3505
ZGOW,1995-03-07 07:00,ZGOW 070700Z AUTO 12004KT 4SM 19/11 A3003 RMK SLP166 T01900110 IEM_DS3505
ZGOW,1995-03-07 08:00,ZGOW 070800Z AUTO 12008KT 4SM 18/11 A3003 RMK SLP166 T01800110 IEM_DS3505
ZGOW,1995-03-07 09:00,ZGOW 070900Z AUTO 09006KT 5SM 18/09 A3003 RMK SLP165 T01780092 57012 IEM_DS3505
ZGOW,1995-03-07 10:00,ZGOW 071000Z AUTO 00000KT 4SM 17/11 A3003 RMK SLP167 T01700110 IEM_DS3505
ZGOW,1995-03-07 11:00,ZGOW 071100Z AUTO 00000KT 4SM 17/09 A3003 RMK SLP167 T01700090 IEM_DS3505
ZGOW,1995-03-07 12:00,ZGOW 071200Z AUTO 20002KT 5SM 15/11 A3006 RMK SLP177 T01530112 52012 IEM_DS3505
ZGOW,1995-03-07 13:00,ZGOW 071300Z AUTO 00000KT 4SM 15/08 A3006 RMK SLP177 T01500080 IEM_DS3505
ZGOW,1995-03-07 14:00,ZGOW 071400Z AUTO 00000KT 4SM 15/09 A3009 RMK SLP188 T01500090 IEM_DS3505
ZGOW,1995-03-07 15:00,ZGOW 071500Z AUTO 04004KT 5SM 15/09 A3008 RMK SLP184 T01460087 52007 IEM_DS3505
ZGOW,1995-03-07 18:00,ZGOW 071800Z AUTO 07004KT 5SM 14/10 A3007 RMK SLP179 T01440095 57005 IEM_DS3505
ZGOW,1995-03-07 21:00,ZGOW 072100Z AUTO 07002KT 6SM 14/10 A3006 RMK SLP174 T01380095 57005 IEM_DS3505
ZGOW,1995-03-07 22:00,ZGOW 072200Z AUTO 00000KT 4SM 14/10 A3006 RMK SLP177 T01400100 IEM_DS3505
ZGOW,1995-03-07 23:00,ZGOW 072300Z AUTO 00000KT 2 1/2SM 14/11 A3006 RMK SLP177 T01400110 IEM_DS3505
ZGOW,1995-03-08 00:00,ZGOW 080000Z AUTO 02004KT 5SM 14/11 A3009 RMK SLP184 T01440110 52010 IEM_DS3505
ZGOW,1995-03-08 01:00,ZGOW 080100Z AUTO 00000KT 2 1/2SM 15/11 A3009 RMK SLP188 T01500110 IEM_DS3505
ZGOW,1995-03-08 02:00,ZGOW 080200Z AUTO 00000KT 2 1/2SM 17/10 A3009 RMK SLP188 T01700100 IEM_DS3505
ZGOW,1995-03-08 03:00,ZGOW 080300Z AUTO 04006KT 5SM 19/10 A3009 RMK SLP182 T01940105 57002 IEM_DS3505
ZGOW,1995-03-08 06:00,ZGOW 080600Z AUTO 04004KT 8SM 22/12 A3000 RMK SLP152 T02190120 57030 IEM_DS3505
ZGOW,1995-03-08 08:00,ZGOW 080800Z AUTO 10012KT 7SM 20/13 A2997 RMK SLP146 T02000130 IEM_DS3505
ZGOW,1995-03-08 09:00,ZGOW 080900Z AUTO 11008KT 7SM 19/10 A2997 RMK SLP139 T01940099 57013 IEM_DS3505
ZGOW,1995-03-08 10:00,ZGOW 081000Z AUTO 09008KT 7SM 18/12 A2997 RMK SLP146 T01800120 IEM_DS3505
ZGOW,1995-03-08 12:00,ZGOW 081200Z AUTO 09004KT 6SM 16/12 A3000 RMK SLP156 T01650123 52017 IEM_DS3505
ZGOW,1995-03-08 13:00,ZGOW 081300Z AUTO 00000KT 7SM 16/12 A3000 RMK SLP157 T01600120 IEM_DS3505
ZGOW,1995-03-08 14:00,ZGOW 081400Z AUTO 03006KT 7SM 15/13 A3000 RMK SLP157 T01500130 IEM_DS3505
ZGOW,1995-03-08 15:00,ZGOW 081500Z AUTO 07008KT 5SM 16/13 A3001 RMK SLP160 T01610134 52004 IEM_DS3505
ZGOW,1995-03-08 18:00,ZGOW 081800Z AUTO 04002KT 5SM 16/14 A3000 RMK SLP157 T01600135 57003 IEM_DS3505
ZGOW,1995-03-08 21:00,ZGOW 082100Z AUTO 04002KT 5SM 16/14 A2998 RMK SLP151 T01590136 57006 IEM_DS3505
ZGOW,1995-03-08 22:00,ZGOW 082200Z AUTO 00000KT 3SM 16/13 A3000 RMK SLP157 T01600130 IEM_DS3505
ZGOW,1995-03-08 23:00,ZGOW 082300Z AUTO 00000KT 2 1/2SM 16/13 A3000 RMK SLP157 T01600130 IEM_DS3505
ZGOW,1995-03-09 00:00,ZGOW 090000Z AUTO 36002KT 4SM 16/14 A3000 RMK SLP163 T01640143 52012 IEM_DS3505
ZGOW,1995-03-09 01:00,ZGOW 090100Z AUTO 00000KT 3SM 19/14 A3000 RMK SLP156 T01900140 IEM_DS3505
ZGOW,1995-03-09 02:00,ZGOW 090200Z AUTO 12004KT 3SM 20/14 A3000 RMK SLP156 T02000140 IEM_DS3505
ZGOW,1995-03-09 03:00,ZGOW 090300Z AUTO 25006KT 4SM 20/ A2997 RMK SLP147 57016 IEM_DS3505
ZGOW,1995-03-09 04:00,ZGOW 090400Z AUTO 00000KT 4SM 23/15 A2994 RMK SLP136 T02300150 IEM_DS3505
ZGOW,1995-03-09 06:00,ZGOW 090600Z AUTO 20004KT 6SM 24/16 A2988 RMK SLP115 T02400156 57032 IEM_DS3505
ZGOW,1995-03-09 08:00,ZGOW 090800Z AUTO 14012KT 7SM 23/16 A2985 RMK SLP105 T02300160 IEM_DS3505
ZGOW,1995-03-09 09:00,ZGOW 090900Z AUTO 16008KT 6SM 22/17 A2985 RMK SLP105 T02250170 57010 IEM_DS3505
ZGOW,1995-03-09 11:00,ZGOW 091100Z AUTO 18008KT 4SM 20/17 A2985 RMK SLP105 T02000170 IEM_DS3505
ZGOW,1995-03-09 12:00,ZGOW 091200Z AUTO 18002KT 5SM 20/18 A2988 RMK SLP116 T01990175 52011 IEM_DS3505
ZGOW,1995-03-09 13:00,ZGOW 091300Z AUTO 00000KT 3SM 19/18 A2991 RMK SLP126 T01900180 IEM_DS3505
ZGOW,1995-03-09 15:00,ZGOW 091500Z AUTO 00000KT 2 1/2SM 19/18 A2993 RMK SLP134 T01940179 52018 IEM_DS3505
ZGOW,1995-03-09 18:00,ZGOW 091800Z AUTO 02006KT 5SM 20/15 A2996 RMK SLP142 T01960148 52008 IEM_DS3505
ZGOW,1995-03-09 21:00,ZGOW 092100Z AUTO 36002KT 9SM 18/12 A3000 RMK SLP144 T01780116 52002 IEM_DS3505
ZGOW,1995-03-09 23:00,ZGOW 092300Z AUTO 33004KT 6SM 17/11 A3003 RMK SLP167 T01700110 IEM_DS3505
ZGOW,1995-03-10 00:00,ZGOW 100000Z AUTO 04004KT 14SM 18/11 A3006 RMK SLP177 T01750112 52033 IEM_DS3505
ZGOW,1995-03-10 03:00,ZGOW 100300Z AUTO 09006KT 12SM 20/12 A3009 RMK SLP188 T01990124 52011 IEM_DS3505
ZGOW,1995-03-10 06:00,ZGOW 100600Z AUTO 07006KT 16SM 21/15 A3001 RMK SLP158 T02100149 57030 IEM_DS3505
ZGOW,1995-03-10 07:00,ZGOW 100700Z AUTO 08012KT 7SM 20/14 A3000 RMK SLP156 T02000140 IEM_DS3505
ZGOW,1995-03-10 09:00,ZGOW 100900Z AUTO 09004KT 12SM 19/13 A3000 RMK SLP150 T01890133 57008 IEM_DS3505
ZGOW,1995-03-10 10:00,ZGOW 101000Z AUTO 06010KT 7SM 17/12 A3000 RMK SLP157 T01700120 IEM_DS3505
ZGOW,1995-03-10 12:00,ZGOW 101200Z AUTO 11008KT 6SM 16/12 A3006 RMK SLP171 T01620120 52021 IEM_DS3505
ZGOW,1995-03-10 15:00,ZGOW 101500Z AUTO 07004KT 6SM 15/11 A3009 RMK SLP189 T01540113 52018 IEM_DS3505
ZGOW,1995-03-10 18:00,ZGOW 101800Z AUTO 04004KT 6SM 14/10 A3005 RMK SLP174 T01450105 57015 IEM_DS3505
ZGOW,1995-03-10 21:00,ZGOW 102100Z AUTO 09008KT 6SM 15/10 A3003 RMK SLP166 T01460100 57008 IEM_DS3505
ZGOW,1995-03-11 00:00,ZGOW 110000Z AUTO 07006KT 6SM 15/10 A3006 RMK SLP175 T01510095 52009 IEM_DS3505
ZGOW,1995-03-11 03:00,ZGOW 110300Z AUTO 02004KT 7SM 17/10 A3006 RMK SLP177 T01660097 52002 IEM_DS3505
ZGOW,1995-03-11 06:00,ZGOW 110600Z AUTO 07006KT 7SM 17/10 A2998 RMK SLP151 T01680102 57026 IEM_DS3505
ZGOW,1995-03-11 09:00,ZGOW 110900Z AUTO 07004KT 4SM 16/11 A2996 RMK SLP143 T01620114 57008 IEM_DS3505
ZGOW,1995-03-11 12:00,ZGOW 111200Z AUTO 07002KT 2 1/2SM 15/13 A3003 RMK 60004 SLP167 T01470134 52024 IEM_DS3505
ZGOW,1995-03-11 15:00,ZGOW 111500Z AUTO 07002KT 2 1/2SM 14/14 A3007 RMK SLP181 T01430136 52014 IEM_DS3505
ZGOW,1995-03-11 18:00,ZGOW 111800Z AUTO 07004KT 3SM 14/14 A3004 RMK 60001 SLP171 T01450136 57010 IEM_DS3505
ZGOW,1995-03-11 21:00,ZGOW 112100Z AUTO 09006KT 4SM 14/13 A3003 RMK SLP168 T01410128 57003 IEM_DS3505
ZGOW,1995-03-11 23:00,ZGOW 112300Z AUTO 05008KT 7SM 14/12 A3006 RMK SLP177 T01400120 IEM_DS3505
ZGOW,1995-03-12 00:00,ZGOW 120000Z AUTO 11008KT 4SM 14/12 A3007 RMK 60000 70004 SLP181 T01420120 52013 IEM_DS3505
ZGOW,1995-03-12 03:00,ZGOW 120300Z AUTO 07004KT 4SM 16/13 A3009 RMK SLP188 T01600131 52007 IEM_DS3505
ZGOW,1995-03-12 06:00,ZGOW 120600Z AUTO 07010KT 7SM 18/10 A3001 RMK SLP160 T01780103 57028 IEM_DS3505
ZGOW,1995-03-12 09:00,ZGOW 120900Z AUTO 07008KT 7SM 17/08 A2999 RMK SLP154 T01680077 57006 IEM_DS3505
ZGOW,1995-03-12 12:00,ZGOW 121200Z AUTO 09010KT 7SM 15/07 A3006 RMK SLP183 T01530072 52029 IEM_DS3505
ZGOW,1995-03-12 13:00,ZGOW 121300Z AUTO 06017KT 7SM 15/09 A3009 RMK SLP188 T01500090 IEM_DS3505
ZGOW,1995-03-12 14:00,ZGOW 121400Z AUTO 05017KT 7SM 15/09 A3009 RMK SLP188 T01500090 IEM_DS3505
ZGOW,1995-03-12 15:00,ZGOW 121500Z AUTO 04012KT 7SM 14/07 A3011 RMK SLP193 T01440070 52010 IEM_DS3505
ZGOW,1995-03-12 18:00,ZGOW 121800Z AUTO 09006KT 6SM 14/07 A3009 RMK SLP185 T01420070 57008 IEM_DS3505
ZGOW,1995-03-12 21:00,ZGOW 122100Z AUTO 07008KT 6SM 13/07 A3008 RMK SLP183 T01290071 57002 IEM_DS3505
ZGOW,1995-03-12 23:00,ZGOW 122300Z AUTO 05016KT 3SM 12/08 A3012 RMK SLP198 T01200080 IEM_DS3505
ZGOW,1995-03-13 00:00,ZGOW 130000Z AUTO 07010KT 6SM 12/06 A3015 RMK SLP208 T01250064 52025 IEM_DS3505
ZGOW,1995-03-13 02:00,ZGOW 130200Z AUTO 05014KT 7SM 13/07 A3018 RMK SLP218 T01300070 IEM_DS3505
ZGOW,1995-03-13 03:00,ZGOW 130300Z AUTO 09010KT 6SM 13/08 A3015 RMK SLP210 T01300079 52002 IEM_DS3505
ZGOW,1995-03-13 06:00,ZGOW 130600Z AUTO 07008KT 7SM 14/09 A3009 RMK SLP187 T01380086 57023 IEM_DS3505
ZGOW,1995-03-13 07:00,ZGOW 130700Z AUTO 04014KT 7SM 13/08 A3009 RMK SLP188 T01300080 IEM_DS3505
ZGOW,1995-03-13 08:00,ZGOW 130800Z AUTO 04012KT 7SM 13/09 A3006 RMK SLP177 T01300090 IEM_DS3505
ZGOW,1995-03-13 09:00,ZGOW 130900Z AUTO 07006KT 6SM 13/09 A3006 RMK SLP181 T01300093 57006 IEM_DS3505
ZGOW,1995-03-13 10:00,ZGOW 131000Z AUTO 05010KT 4SM 13/10 A3009 RMK SLP188 T01300100 IEM_DS3505
ZGOW,1995-03-13 12:00,ZGOW 131200Z AUTO 07008KT 5SM 12/10 A3009 RMK SLP192 T01250102 52011 IEM_DS3505
ZGOW,1995-03-13 13:00,ZGOW 131300Z AUTO 03008KT 3SM 12/10 A3012 RMK SLP198 T01200100 IEM_DS3505
ZGOW,1995-03-13 14:00,ZGOW 131400Z AUTO 04012KT 7SM 13/10 A3012 RMK SLP198 T01300100 IEM_DS3505
ZGOW,1995-03-13 15:00,ZGOW 131500Z AUTO 07006KT 5SM 13/10 A3014 RMK SLP204 T01270100 52012 IEM_DS3505
ZGOW,1995-03-13 18:00,ZGOW 131800Z AUTO 04004KT 5SM 12/11 A3012 RMK SLP197 T01210113 57007 IEM_DS3505
ZGOW,1995-03-13 21:00,ZGOW 132100Z AUTO 04002KT 4SM 12/12 A3012 RMK SLP197 T01210117 54000 IEM_DS3505
ZGOW,1995-03-13 23:00,ZGOW 132300Z AUTO 04004KT 1 1/2SM 12/12 A3015 RMK SLP208 T01200120 IEM_DS3505
ZGOW,1995-03-14 00:00,ZGOW 140000Z AUTO 09004KT 2 1/2SM 13/12 A3018 RMK 60002 70002 SLP221 T01270121 52024 IEM_DS3505
ZGOW,1995-03-14 01:00,ZGOW 140100Z AUTO 03006KT 3SM 13/13 A3021 RMK SLP228 T01300130 IEM_DS3505
ZGOW,1995-03-14 02:00,ZGOW 140200Z AUTO 03006KT 7SM 14/12 A3021 RMK SLP228 T01400120 IEM_DS3505
ZGOW,1995-03-14 03:00,ZGOW 140300Z AUTO 04006KT 6SM 14/12 A3024 RMK SLP231 T01360123 52010 IEM_DS3505
ZGOW,1995-03-14 04:00,ZGOW 140400Z AUTO 03006KT 7SM 14/13 A3021 RMK SLP228 T01400130 IEM_DS3505
ZGOW,1995-03-14 06:00,ZGOW 140600Z AUTO 07004KT 7SM 15/12 A3015 RMK 60000 SLP205 T01520121 57026 IEM_DS3505
ZGOW,1995-03-14 07:00,ZGOW 140700Z AUTO 03006KT 7SM 15/12 A3012 RMK SLP198 T01500120 IEM_DS3505
ZGOW,1995-03-14 08:00,ZGOW 140800Z AUTO 03006KT 7SM 15/12 A3012 RMK SLP198 T01500120 IEM_DS3505
ZGOW,1995-03-14 09:00,ZGOW 140900Z AUTO 07004KT 7SM 15/12 A3012 RMK SLP188 T01530124 57017 IEM_DS3505
ZGOW,1995-03-14 10:00,ZGOW 141000Z AUTO 1/4SM RMK IEM_DS3505
ZGOW,1995-03-14 11:00,ZGOW 141100Z AUTO 02004KT 7SM 15/12 A3012 RMK SLP198 T01500120 IEM_DS3505
ZGOW,1995-03-14 12:00,ZGOW 141200Z AUTO 04004KT 7SM 15/12 A3012 RMK SLP198 T01500124 52010 IEM_DS3505
ZGOW,1995-03-14 13:00,ZGOW 141300Z AUTO 04004KT 7SM 15/13 A3012 RMK SLP198 T01500130 IEM_DS3505
ZGOW,1995-03-14 15:00,ZGOW 141500Z AUTO 22002KT 5SM 15/13 A3013 RMK SLP201 T01480134 52003 IEM_DS3505
ZGOW,1995-03-14 18:00,ZGOW 141800Z AUTO 22004KT 4SM 15/13 A3011 RMK SLP195 T01460132 57006 IEM_DS3505
ZGOW,1995-03-14 21:00,ZGOW 142100Z AUTO 04004KT 4SM 14/13 A3008 RMK SLP185 T01430128 57010 IEM_DS3505
ZGOW,1995-03-14 23:00,ZGOW 142300Z AUTO 35004KT 2 1/2SM 14/13 A3012 RMK SLP198 T01400130 IEM_DS3505
ZGOW,1995-03-15 00:00,ZGOW 150000Z AUTO 07002KT 3SM 15/14 A3012 RMK SLP202 T01460135 52017 IEM_DS3505
ZGOW,1995-03-15 02:00,ZGOW 150200Z AUTO 03004KT 2 1/2SM 16/14 A3012 RMK SLP198 T01600140 IEM_DS3505
ZGOW,1995-03-15 03:00,ZGOW 150300Z AUTO 29004KT 2 1/2SM 17/15 A3012 RMK SLP198 T01740148 57004 IEM_DS3505
ZGOW,1995-03-15 06:00,ZGOW 150600Z AUTO 07002KT 6SM 23/17 A3000 RMK SLP155 T02260171 57043 IEM_DS3505
ZGOW,1995-03-15 07:00,ZGOW 150700Z AUTO 09006KT 2 1/2SM 24/17 A2997 RMK SLP146 T02400170 IEM_DS3505
ZGOW,1995-03-15 08:00,ZGOW 150800Z AUTO 11008KT 2 1/2SM 22/17 A2994 RMK SLP136 T02200170 IEM_DS3505
ZGOW,1995-03-15 09:00,ZGOW 150900Z AUTO 14004KT 5SM 21/16 A2994 RMK SLP135 T02080156 57020 IEM_DS3505
ZGOW,1995-03-15 10:00,ZGOW 151000Z AUTO 12006KT 3SM 19/15 A2994 RMK SLP136 T01900150 IEM_DS3505
ZGOW,1995-03-15 12:00,ZGOW 151200Z AUTO 14004KT 5SM 18/16 A3000 RMK SLP156 T01850155 52021 IEM_DS3505
ZGOW,1995-03-15 13:00,ZGOW 151300Z AUTO 00000KT 2 1/2SM 17/15 A3003 RMK SLP167 T01700150 IEM_DS3505
ZGOW,1995-03-15 18:00,ZGOW 151800Z AUTO 16002KT 1SM 17/17 A2998 RMK SLP149 T01700168 57011 IEM_DS3505
ZGOW,1995-03-15 21:00,ZGOW 152100Z AUTO 11002KT 1/8SM 17/17 A2999 RMK SLP155 T01680168 52006 IEM_DS3505
ZGOW,1995-03-15 23:00,ZGOW 152300Z AUTO 00000KT 1/2SM 17/16 A3000 RMK SLP157 T01700160 IEM_DS3505
ZGOW,1995-03-16 00:00,ZGOW 160000Z AUTO 04004KT 3/8SM 17/17 A3005 RMK SLP173 T01740172 52017 IEM_DS3505
ZGOW,1995-03-16 01:00,ZGOW 160100Z AUTO 00000KT 1SM 18/17 A3003 RMK SLP166 T01800170 IEM_DS3505
ZGOW,1995-03-16 02:00,ZGOW 160200Z AUTO 00000KT 1SM 19/18 A3003 RMK SLP166 T01900180 IEM_DS3505
ZGOW,1995-03-16 03:00,ZGOW 160300Z AUTO 20002KT 1SM 19/18 A3003 RMK SLP171 T01870181 57001 IEM_DS3505
ZGOW,1995-03-16 06:00,ZGOW 160600Z AUTO 29004KT 5SM 23/20 A2994 RMK 60004 SLP139 T02300196 57032 IEM_DS3505
ZGOW,1995-03-16 07:00,ZGOW 160700Z AUTO 19006KT 3SM 24/20 A2994 RMK SLP136 T02400200 IEM_DS3505
ZGOW,1995-03-16 09:00,ZGOW 160900Z AUTO 18006KT 6SM 25/20 A2991 RMK SLP123 T02500198 57016 IEM_DS3505
ZGOW,1995-03-16 10:00,ZGOW 161000Z AUTO 00000KT 3SM 21/19 A2991 RMK SLP126 T02100190 IEM_DS3505
ZGOW,1995-03-16 12:00,ZGOW 161200Z AUTO 11002KT 5SM 21/19 A2996 RMK SLP144 T02090188 52021 IEM_DS3505
ZGOW,1995-03-16 13:00,ZGOW 161300Z AUTO 12006KT 3SM 18/17 A2997 RMK SLP146 T01800170 IEM_DS3505
ZGOW,1995-03-16 14:00,ZGOW 161400Z AUTO 12006KT 1/4SM 17/17 A3000 RMK SLP157 T01700170 IEM_DS3505
ZGOW,1995-03-16 15:00,ZGOW 161500Z AUTO 00000KT 5SM 19/18 A3000 RMK SLP156 T01910183 52012 IEM_DS3505
ZGOW,1995-03-16 18:00,ZGOW 161800Z AUTO 20002KT 4SM 18/18 A2998 RMK SLP149 T01800177 57007 IEM_DS3505
ZGOW,1995-03-16 21:00,ZGOW 162100Z AUTO 10019KT 2SM 18/17 A2998 RMK SLP149 T01790174 54000 IEM_DS3505
ZGOW,1995-03-16 22:00,ZGOW 162200Z AUTO 06006KT 3/8SM 18/17 A3000 RMK SLP156 T01800170 IEM_DS3505
ZGOW,1995-03-16 23:00,ZGOW 162300Z AUTO 06010KT 1 1/4SM 17/17 A3003 RMK SLP167 T01700170 IEM_DS3505
ZGOW,1995-03-17 00:00,ZGOW 170000Z AUTO 07006KT 3SM 18/17 A3003 RMK 70004 SLP171 T01760169 52022 IEM_DS3505
ZGOW,1995-03-17 01:00,ZGOW 170100Z AUTO 05012KT 3SM 16/15 A3006 RMK SLP177 T01600150 IEM_DS3505
ZGOW,1995-03-17 02:00,ZGOW 170200Z AUTO 05017KT 1 1/2SM 15/14 A3009 RMK SLP188 T01500140 IEM_DS3505
ZGOW,1995-03-17 03:00,ZGOW 170300Z AUTO 09010KT 3SM 15/14 A3012 RMK SLP190 T01540140 52019 IEM_DS3505
ZGOW,1995-03-17 06:00,ZGOW 170600Z AUTO 09008KT 5SM 13/12 A3012 RMK 60028 SLP194 T01320121 52004 IEM_DS3505
ZGOW,1995-03-17 07:00,ZGOW 170700Z AUTO 04014G23KT 2 1/2SM 13/12 A3012 RMK SLP198 T01300120 IEM_DS3505
ZGOW,1995-03-17 08:00,ZGOW 170800Z AUTO 03014KT 7SM 13/12 A3012 RMK SLP198 T01300120 IEM_DS3505
ZGOW,1995-03-17 09:00,ZGOW 170900Z AUTO 04008KT 4SM 13/12 A3015 RMK SLP202 T01300123 52008 IEM_DS3505
ZGOW,1995-03-17 12:00,ZGOW 171200Z AUTO 07006KT 6SM 13/12 A3021 RMK 60047 SLP225 T01290118 52023 IEM_DS3505
ZGOW,1995-03-17 13:00,ZGOW 171300Z AUTO 06008KT 7SM 13/11 A3021 RMK SLP228 T01300110 IEM_DS3505
ZGOW,1995-03-17 15:00,ZGOW 171500Z AUTO 07006KT 7SM 13/11 A3026 RMK SLP244 T01310112 52019 IEM_DS3505
ZGOW,1995-03-17 18:00,ZGOW 171800Z AUTO 07006KT 7SM 13/11 A3024 RMK 60000 SLP239 T01290110 57005 IEM_DS3505
ZGOW,1995-03-17 21:00,ZGOW 172100Z AUTO 04004KT 6SM 12/12 A3024 RMK SLP242 T01250117 52003 IEM_DS3505
ZGOW,1995-03-17 23:00,ZGOW 172300Z AUTO 04004KT 2 1/2SM 12/12 A3030 RMK SLP259 T01200120 IEM_DS3505
ZGOW,1995-03-18 00:00,ZGOW 180000Z AUTO 11002KT 5SM 12/12 A3033 RMK 60008 70079 SLP265 T01250119 52023 IEM_DS3505
ZGOW,1995-03-18 02:00,ZGOW 180200Z AUTO 03004KT 3SM 13/12 A3036 RMK SLP279 T01300120 IEM_DS3505
ZGOW,1995-03-18 03:00,ZGOW 180300Z AUTO 36004KT 6SM 12/12 A3036 RMK SLP281 T01250116 52016 IEM_DS3505
ZGOW,1995-03-18 06:00,ZGOW 180600Z AUTO 04006KT 15SM 15/12 A3030 RMK 60008 SLP242 T01520125 57039 IEM_DS3505
ZGOW,1995-03-18 07:00,ZGOW 180700Z AUTO 06006KT 7SM 15/12 A3024 RMK SLP238 T01500120 IEM_DS3505
ZGOW,1995-03-18 08:00,ZGOW 180800Z AUTO 35004KT 7SM 15/14 A3033 RMK SLP269 T01500140 IEM_DS3505
ZGOW,1995-03-18 09:00,ZGOW 180900Z AUTO 09004KT 9SM 14/12 A3024 RMK SLP232 T01450125 57010 IEM_DS3505
ZGOW,1995-03-18 10:00,ZGOW 181000Z AUTO 05006KT 7SM 14/12 A3024 RMK SLP238 T01400120 IEM_DS3505
ZGOW,1995-03-18 12:00,ZGOW 181200Z AUTO 07006KT 7SM 14/11 A3027 RMK SLP246 T01350114 52014 IEM_DS3505
ZGOW,1995-03-18 13:00,ZGOW 181300Z AUTO 05010KT 7SM 13/10 A3027 RMK SLP248 T01300100 IEM_DS3505
ZGOW,1995-03-18 15:00,ZGOW 181500Z AUTO 07008KT 8SM 13/09 A3031 RMK SLP261 T01300086 52015 IEM_DS3505
ZGOW,1995-03-18 18:00,ZGOW 181800Z AUTO 09006KT 6SM 13/10 A3028 RMK SLP251 T01280101 57010 IEM_DS3505
ZGOW,1995-03-18 21:00,ZGOW 182100Z AUTO 09004KT 4SM 13/11 A3024 RMK SLP240 T01260107 57011 IEM_DS3505
ZGOW,1995-03-18 22:00,ZGOW 182200Z AUTO 04008KT 7SM 12/11 A3027 RMK SLP248 T01200110 IEM_DS3505
ZGOW,1995-03-18 23:00,ZGOW 182300Z AUTO 02006KT 4SM 12/11 A3030 RMK SLP259 T01200110 IEM_DS3505
ZGOW,1995-03-19 00:00,ZGOW 190000Z AUTO 07004KT 4SM 12/11 A3030 RMK 60004 70012 SLP261 T01240111 52021 IEM_DS3505
ZGOW,1995-03-19 01:00,ZGOW 190100Z AUTO 05008KT 4SM 12/11 A3033 RMK SLP269 T01200110 IEM_DS3505
ZGOW,1995-03-19 02:00,ZGOW 190200Z AUTO 05008KT 7SM 13/10 A3033 RMK SLP269 T01300100 IEM_DS3505
ZGOW,1995-03-19 03:00,ZGOW 190300Z AUTO 07006KT 6SM 13/07 A3033 RMK SLP268 T01340072 52007 IEM_DS3505
ZGOW,1995-03-19 06:00,ZGOW 190600Z AUTO 09008KT 9SM 15/07 A3024 RMK 60004 SLP232 T01490069 57036 IEM_DS3505
ZGOW,1995-03-19 07:00,ZGOW 190700Z AUTO 06010KT 7SM 16/07 A3021 RMK SLP228 T01600070 IEM_DS3505
ZGOW,1995-03-19 08:00,ZGOW 190800Z AUTO 05010KT 7SM 15/07 A3021 RMK SLP228 T01500070 IEM_DS3505
ZGOW,1995-03-19 09:00,ZGOW 190900Z AUTO 07006KT 7SM 14/07 A3021 RMK SLP221 T01420070 57011 IEM_DS3505
ZGOW,1995-03-19 12:00,ZGOW 191200Z AUTO 07006KT 6SM 14/09 A3024 RMK SLP233 T01390087 52012 IEM_DS3505
ZGOW,1995-03-19 13:00,ZGOW 191300Z AUTO 06010KT 7SM 13/09 A3021 RMK SLP228 T01300090 IEM_DS3505
ZGOW,1995-03-19 15:00,ZGOW 191500Z AUTO 09008KT 6SM 14/06 A3024 RMK SLP239 T01380055 52006 IEM_DS3505
ZGOW,1995-03-19 18:00,ZGOW 191800Z AUTO 07002KT 6SM 13/08 A3024 RMK SLP236 T01320084 57003 IEM_DS3505
ZGOW,1995-03-19 21:00,ZGOW 192100Z AUTO 04004KT 6SM 13/10 A3021 RMK SLP223 T01340095 57013 IEM_DS3505
ZGOW,1995-03-19 22:00,ZGOW 192200Z AUTO 02004KT 6SM 13/10 A3021 RMK SLP228 T01300100 IEM_DS3505
ZGOW,1995-03-19 23:00,ZGOW 192300Z AUTO 35004KT 6SM 13/10 A3021 RMK SLP228 T01300100 IEM_DS3505
ZGOW,1995-03-20 00:00,ZGOW 200000Z AUTO 07002KT 6SM 14/11 A3021 RMK 70004 SLP231 T01350106 52008 IEM_DS3505
ZGOW,1995-03-20 01:00,ZGOW 200100Z AUTO 00000KT 7SM 14/10 A3021 RMK SLP228 T01400100 IEM_DS3505
ZGOW,1995-03-20 02:00,ZGOW 200200Z AUTO 01006KT 7SM 15/09 A3021 RMK SLP228 T01500090 IEM_DS3505
ZGOW,1995-03-20 03:00,ZGOW 200300Z AUTO 02004KT 6SM 16/10 A3021 RMK SLP227 T01580105 57004 IEM_DS3505
ZGOW,1995-03-20 06:00,ZGOW 200600Z AUTO 09008KT 7SM 18/12 A3012 RMK SLP193 T01760118 57034 IEM_DS3505
ZGOW,1995-03-20 07:00,ZGOW 200700Z AUTO 02006KT 7SM 17/12 A3009 RMK SLP188 T01700120 IEM_DS3505
ZGOW,1995-03-20 08:00,ZGOW 200800Z AUTO 02004KT 6SM 18/13 A3006 RMK SLP177 T01800130 IEM_DS3505
ZGOW,1995-03-20 09:00,ZGOW 200900Z AUTO 09004KT 6SM 18/13 A3006 RMK SLP178 T01830130 57015 IEM_DS3505
ZGOW,1995-03-20 10:00,ZGOW 201000Z AUTO 00000KT 6SM 17/13 A3009 RMK SLP188 T01700130 IEM_DS3505
ZGOW,1995-03-20 12:00,ZGOW 201200Z AUTO 00000KT 5SM 15/13 A3012 RMK SLP190 T01540127 52012 IEM_DS3505
ZGOW,1995-03-20 13:00,ZGOW 201300Z AUTO 00000KT 6SM 15/13 A3012 RMK SLP198 T01500130 IEM_DS3505
ZGOW,1995-03-20 15:00,ZGOW 201500Z AUTO 04002KT 5SM 15/12 A3011 RMK SLP193 T01460116 52003 IEM_DS3505
ZGOW,1995-03-20 18:00,ZGOW 201800Z AUTO 00000KT 4SM 14/12 A3008 RMK SLP183 T01370118 57010 IEM_DS3505
ZGOW,1995-03-20 21:00,ZGOW 202100Z AUTO 00000KT 4SM 13/12 A3005 RMK SLP174 T01300121 57009 IEM_DS3505
ZGOW,1995-03-20 22:00,ZGOW 202200Z AUTO 00000KT 4SM 13/12 A3006 RMK SLP177 T01300120 IEM_DS3505
ZGOW,1995-03-20 23:00,ZGOW 202300Z AUTO 00000KT 2 1/2SM 13/12 A3009 RMK SLP188 T01300120 IEM_DS3505
ZGOW,1995-03-21 00:00,ZGOW 210000Z AUTO 36002KT 3SM 15/14 A3012 RMK SLP192 T01500136 52018 IEM_DS3505
ZGOW,1995-03-21 01:00,ZGOW 210100Z AUTO 00000KT 3SM 16/13 A3012 RMK SLP198 T01600130 IEM_DS3505
ZGOW,1995-03-21 02:00,ZGOW 210200Z AUTO 00000KT 3SM 18/13 A3012 RMK SLP198 T01800130 IEM_DS3505
ZGOW,1995-03-21 03:00,ZGOW 210300Z AUTO 25006KT 2 1/2SM 20/14 A3009 RMK SLP192 T02000143 54000 IEM_DS3505
ZGOW,1995-03-21 06:00,ZGOW 210600Z AUTO 25006KT 6SM 24/16 A3003 RMK SLP162 T02350165 57030 IEM_DS3505
ZGOW,1995-03-21 07:00,ZGOW 210700Z AUTO 00000KT 3SM 25/16 A3000 RMK SLP156 T02500160 IEM_DS3505
ZGOW,1995-03-21 08:00,ZGOW 210800Z AUTO 12004KT 3SM 24/18 A2997 RMK SLP146 T02400180 IEM_DS3505
ZGOW,1995-03-21 09:00,ZGOW 210900Z AUTO 25002KT 6SM 25/18 A2997 RMK SLP142 T02500175 57020 IEM_DS3505
ZGOW,1995-03-21 10:00,ZGOW 211000Z AUTO 12006KT 2 1/2SM 20/16 A2997 RMK SLP146 T02000160 IEM_DS3505
ZGOW,1995-03-21 12:00,ZGOW 211200Z AUTO 09002KT 5SM 20/16 A2997 RMK SLP152 T02000164 52010 IEM_DS3505
ZGOW,1995-03-21 13:00,ZGOW 211300Z AUTO 00000KT 2 1/2SM 18/16 A3000 RMK SLP156 T01800160 IEM_DS3505
ZGOW,1995-03-21 14:00,ZGOW 211400Z AUTO 12006KT 2 1/2SM 17/16 A3000 RMK SLP157 T01700160 IEM_DS3505
ZGOW,1995-03-21 15:00,ZGOW 211500Z AUTO 09002KT 5SM 18/16 A3000 RMK SLP155 T01850155 52003 IEM_DS3505
ZGOW,1995-03-21 18:00,ZGOW 211800Z AUTO 00000KT 4SM 17/16 A2996 RMK SLP142 T01740159 57013 IEM_DS3505
ZGOW,1995-03-21 21:00,ZGOW 212100Z AUTO 00000KT 2SM 16/16 A2994 RMK SLP138 T01630158 57004 IEM_DS3505
ZGOW,1995-03-21 23:00,ZGOW 212300Z AUTO 00000KT 1SM RMK IEM_DS3505
ZGOW,1995-03-22 00:00,ZGOW 220000Z AUTO 00000KT 1SM 18/17 A2997 RMK SLP153 T01800170 52015 IEM_DS3505
ZGOW,1995-03-22 01:00,ZGOW 220100Z AUTO 00000KT 1SM 20/17 A3000 RMK SLP156 T02000170 IEM_DS3505
ZGOW,1995-03-22 02:00,ZGOW 220200Z AUTO 00000KT 1SM 23/18 A3000 RMK SLP156 T02300180 IEM_DS3505
ZGOW,1995-03-22 03:00,ZGOW 220300Z AUTO 00000KT 1 1/2SM 23/18 A2997 RMK SLP146 T02300180 IEM_DS3505
ZGOW,1995-03-22 06:00,ZGOW 220600Z AUTO 14004KT 3SM 25/18 A2991 RMK SLP123 T02460178 57026 IEM_DS3505
ZGOW,1995-03-22 07:00,ZGOW 220700Z AUTO 11008KT 2 1/2SM 24/18 A2988 RMK SLP116 T02400180 IEM_DS3505
ZGOW,1995-03-22 08:00,ZGOW 220800Z AUTO 10008KT 3SM 22/17 A2988 RMK SLP116 T02200170 IEM_DS3505
ZGOW,1995-03-22 09:00,ZGOW 220900Z AUTO 14004KT 4SM 21/17 A2987 RMK SLP111 T02100168 57012 IEM_DS3505
ZGOW,1995-03-22 10:00,ZGOW 221000Z AUTO 11008KT 2 1/2SM 20/16 A2988 RMK SLP116 T02000160 IEM_DS3505
ZGOW,1995-03-22 12:00,ZGOW 221200Z AUTO 11006KT 4SM 19/17 A2991 RMK SLP127 T01890173 52016 IEM_DS3505
ZGOW,1995-03-22 13:00,ZGOW 221300Z AUTO 09006KT 4SM 18/16 A2991 RMK SLP126 T01800160 IEM_DS3505
ZGOW,1995-03-22 15:00,ZGOW 221500Z AUTO 04004KT 4SM 18/17 A2993 RMK SLP134 T01830166 52007 IEM_DS3505
ZGOW,1995-03-22 18:00,ZGOW 221800Z AUTO 09002KT 3SM 19/17 A2993 RMK SLP134 T01870172 54000 IEM_DS3505
ZGOW,1995-03-22 21:00,ZGOW 222100Z AUTO 04004KT 3SM 18/17 A2991 RMK SLP130 T01840169 57004 IEM_DS3505
ZGOW,1995-03-22 23:00,ZGOW 222300Z AUTO 00000KT 1 1/4SM 18/17 A2994 RMK SLP136 T01800170 IEM_DS3505
ZGOW,1995-03-23 00:00,ZGOW 230000Z AUTO 14002KT 2 1/2SM 19/18 A2997 RMK SLP144 T01910175 52014 IEM_DS3505
ZGOW,1995-03-23 01:00,ZGOW 230100Z AUTO 36004KT 2 1/2SM 19/18 A2997 RMK SLP146 T01900180 IEM_DS3505
ZGOW,1995-03-23 02:00,ZGOW 230200Z AUTO 00000KT 2 1/2SM 20/18 A2997 RMK SLP146 T02000180 IEM_DS3505
ZGOW,1995-03-23 03:00,ZGOW 230300Z AUTO 36004KT 3SM 21/18 A2997 RMK SLP147 T02130181 52003 IEM_DS3505
ZGOW,1995-03-23 06:00,ZGOW 230600Z AUTO 20004KT 5SM 24/19 A2988 RMK SLP120 T02370187 57027 IEM_DS3505
ZGOW,1995-03-23 07:00,ZGOW 230700Z AUTO 15008KT 3SM A2985 RMK IEM_DS3505
ZGOW,1995-03-23 08:00,ZGOW 230800Z AUTO 14012KT 3SM 23/18 A2985 RMK SLP105 T02300180 IEM_DS3505
ZGOW,1995-03-23 09:00,ZGOW 230900Z AUTO 20008KT 5SM 22/18 A2985 RMK SLP108 T02160181 57012 IEM_DS3505
ZGOW,1995-03-23 10:00,ZGOW 231000Z AUTO 14004KT 3SM 20/17 A2988 RMK SLP116 T02000170 IEM_DS3505
ZGOW,1995-03-23 11:00,ZGOW 231100Z AUTO 00000KT 3SM 20/17 A2988 RMK SLP116 T02000170 IEM_DS3505
ZGOW,1995-03-23 12:00,ZGOW 231200Z AUTO 20004KT 6SM 20/17 A2988 RMK SLP124 T01980174 52016 IEM_DS3505
ZGOW,1995-03-23 13:00,ZGOW 231300Z AUTO 00000KT 2SM 19/17 A2991 RMK SLP126 T01900170 IEM_DS3505
ZGOW,1995-03-23 14:00,ZGOW 231400Z AUTO 00000KT 1 1/2SM 18/17 A2991 RMK SLP126 T01800170 IEM_DS3505
ZGOW,1995-03-23 15:00,ZGOW 231500Z AUTO 00000KT 5SM 19/18 A2991 RMK SLP126 T01930180 52002 IEM_DS3505
ZGOW,1995-03-23 18:00,ZGOW 231800Z AUTO 20004KT 3SM 18/17 A2988 RMK SLP117 T01800173 57009 IEM_DS3505
ZGOW,1995-03-23 21:00,ZGOW 232100Z AUTO 00000KT 1 1/4SM 18/18 A2988 RMK SLP115 T01800175 57002 IEM_DS3505
ZGOW,1995-03-23 22:00,ZGOW 232200Z AUTO 00000KT 1/2SM 17/16 A2991 RMK SLP126 T01700160 IEM_DS3505
ZGOW,1995-03-23 23:00,ZGOW 232300Z AUTO 00000KT 1SM 17/17 A2991 RMK SLP126 T01700170 IEM_DS3505
ZGOW,1995-03-24 00:00,ZGOW 240000Z AUTO 00000KT 1/2SM 19/18 A2994 RMK SLP137 T01900184 52022 IEM_DS3505
ZGOW,1995-03-24 01:00,ZGOW 240100Z AUTO 24004KT 1SM 21/19 A2994 RMK SLP136 T02100190 IEM_DS3505
ZGOW,1995-03-24 02:00,ZGOW 240200Z AUTO 23006KT 1 1/4SM 23/19 A2997 RMK SLP146 T02300190 IEM_DS3505
ZGOW,1995-03-24 03:00,ZGOW 240300Z AUTO 27006KT 2SM 23/19 A2994 RMK SLP139 T02280192 52002 IEM_DS3505
ZGOW,1995-03-24 06:00,ZGOW 240600Z AUTO 22008KT 4SM 26/19 A2985 RMK SLP112 T02650194 57025 IEM_DS3505
ZGOW,1995-03-24 08:00,ZGOW 240800Z AUTO 16008KT 4SM 27/20 A2983 RMK SLP099 T02700200 IEM_DS3505
ZGOW,1995-03-24 09:00,ZGOW 240900Z AUTO 11004KT 4SM 27/20 A2983 RMK SLP097 T02700198 57015 IEM_DS3505
ZGOW,1995-03-24 10:00,ZGOW 241000Z AUTO 14004KT 6SM 24/20 A2985 RMK SLP105 T02400200 IEM_DS3505
ZGOW,1995-03-24 11:00,ZGOW 241100Z AUTO 12004KT 7SM 23/20 A2985 RMK SLP105 T02300200 IEM_DS3505
ZGOW,1995-03-24 12:00,ZGOW 241200Z AUTO 18002KT 6SM 24/20 A2988 RMK SLP114 T02370205 52017 IEM_DS3505
ZGOW,1995-03-24 13:00,ZGOW 241300Z AUTO 00000KT 6SM 22/20 A2991 RMK SLP126 T02200200 IEM_DS3505
ZGOW,1995-03-24 15:00,ZGOW 241500Z AUTO 25006KT 6SM 23/20 A2991 RMK SLP126 T02260197 52012 IEM_DS3505
ZGOW,1995-03-24 18:00,ZGOW 241800Z AUTO 00000KT 5SM 22/20 A2988 RMK SLP116 T02160201 57010 IEM_DS3505
ZGOW,1995-03-24 21:00,ZGOW 242100Z AUTO 07004KT 1SM 19/18 A2988 RMK SLP119 T01870184 52003 IEM_DS3505
ZGOW,1995-03-24 22:00,ZGOW 242200Z AUTO 03004KT 1/4SM 18/17 A2991 RMK SLP126 T01800170 IEM_DS3505
ZGOW,1995-03-24 23:00,ZGOW 242300Z AUTO 04004KT 1/4SM 18/17 A2994 RMK SLP136 T01800170 IEM_DS3505
ZGOW,1995-03-25 00:00,ZGOW 250000Z AUTO 00000KT 1 1/4SM 18/18 A2997 RMK SLP146 T01840182 52027 IEM_DS3505
ZGOW,1995-03-25 01:00,ZGOW 250100Z AUTO 01006KT 1/2SM 18/17 A3000 RMK SLP156 T01800170 IEM_DS3505
ZGOW,1995-03-25 02:00,ZGOW 250200Z AUTO 31008KT 2 1/2SM 18/18 A3003 RMK SLP166 T01800180 IEM_DS3505
ZGOW,1995-03-25 03:00,ZGOW 250300Z AUTO 34008KT 7SM 18/15 A3003 RMK SLP176 T01800146 52030 IEM_DS3505
ZGOW,1995-03-25 06:00,ZGOW 250600Z AUTO 36008KT 12SM 17/10 A3004 RMK 60004 SLP170 T01740105 57006 IEM_DS3505
ZGOW,1995-03-25 07:00,ZGOW 250700Z AUTO 31012KT 7SM 17/09 A3003 RMK SLP167 T01700090 IEM_DS3505
ZGOW,1995-03-25 09:00,ZGOW 250900Z AUTO 02006KT 14SM 16/09 A3005 RMK SLP173 T01620093 52003 IEM_DS3505
ZGOW,1995-03-25 11:00,ZGOW 251100Z AUTO 35010KT 7SM 16/09 A3009 RMK SLP188 T01600090 IEM_DS3505
ZGOW,1995-03-25 12:00,ZGOW 251200Z AUTO 36004KT 11SM 16/09 A3012 RMK SLP199 T01580090 52026 IEM_DS3505
ZGOW,1995-03-25 13:00,ZGOW 251300Z AUTO 00000KT 7SM 16/09 A3015 RMK SLP208 T01600090 IEM_DS3505
ZGOW,1995-03-25 14:00,ZGOW 251400Z AUTO 33004KT 7SM 15/08 A3015 RMK SLP208 T01500080 IEM_DS3505
ZGOW,1995-03-25 15:00,ZGOW 251500Z AUTO 04006KT 12SM 15/08 A3015 RMK SLP208 T01480075 52009 IEM_DS3505
ZGOW,1995-03-25 18:00,ZGOW 251800Z AUTO 36006KT 11SM 14/06 A3011 RMK SLP195 T01360060 57013 IEM_DS3505
ZGOW,1995-03-25 21:00,ZGOW 252100Z AUTO 36006KT 11SM 13/03 A3009 RMK SLP191 T01260034 57004 IEM_DS3505
ZGOW,1995-03-25 22:00,ZGOW 252200Z AUTO 36004KT 7SM 12/05 A3012 RMK SLP198 T01200050 IEM_DS3505
ZGOW,1995-03-25 23:00,ZGOW 252300Z AUTO 01004KT 7SM 12/05 A3015 RMK SLP208 T01200050 IEM_DS3505
ZGOW,1995-03-26 00:00,ZGOW 260000Z AUTO 04004KT 12SM 12/04 A3019 RMK 70004 SLP219 T01250035 52028 IEM_DS3505
ZGOW,1995-03-26 01:00,ZGOW 260100Z AUTO 02008KT 7SM 14/04 A3018 RMK SLP218 T01400040 IEM_DS3505
ZGOW,1995-03-26 03:00,ZGOW 260300Z AUTO 11006KT 12SM 17/06 A3018 RMK SLP213 T01670055 57006 IEM_DS3505
ZGOW,1995-03-26 06:00,ZGOW 260600Z AUTO 14006KT 12SM 17/08 A3007 RMK SLP180 T01680082 57033 IEM_DS3505
ZGOW,1995-03-26 08:00,ZGOW 260800Z AUTO 12008KT 7SM 17/09 A3003 RMK SLP167 T01700090 IEM_DS3505
ZGOW,1995-03-26 09:00,ZGOW 260900Z AUTO 16008KT 11SM 16/08 A3003 RMK SLP163 T01570077 57017 IEM_DS3505
ZGOW,1995-03-26 11:00,ZGOW 261100Z AUTO 08006KT 7SM 14/09 A3003 RMK SLP167 T01400090 IEM_DS3505
ZGOW,1995-03-26 12:00,ZGOW 261200Z AUTO 09006KT 9SM 14/09 A3006 RMK SLP189 T01380086 52019 IEM_DS3505
ZGOW,1995-03-26 15:00,ZGOW 261500Z AUTO 07006KT 9SM 13/08 A3009 RMK SLP187 T01300079 52005 IEM_DS3505
ZGOW,1995-03-26 18:00,ZGOW 261800Z AUTO 02004KT 9SM 12/09 A3005 RMK SLP173 T01160086 57014 IEM_DS3505
ZGOW,1995-03-26 21:00,ZGOW 262100Z AUTO 02004KT 6SM 12/08 A3004 RMK SLP169 T01200079 57004 IEM_DS3505
ZGOW,1995-03-26 22:00,ZGOW 262200Z AUTO 01006KT 6SM 12/07 A3003 RMK SLP167 T01200070 IEM_DS3505
ZGOW,1995-03-26 23:00,ZGOW 262300Z AUTO 36006KT 6SM 12/08 A3006 RMK SLP177 T01200080 IEM_DS3505
ZGOW,1995-03-27 00:00,ZGOW 270000Z AUTO 04006KT 6SM 13/09 A3007 RMK SLP181 T01300086 52012 IEM_DS3505
ZGOW,1995-03-27 01:00,ZGOW 270100Z AUTO 02006KT 6SM 15/04 A3009 RMK SLP188 T01500040 IEM_DS3505
ZGOW,1995-03-27 03:00,ZGOW 270300Z AUTO 04006KT 7SM 16/05 A3007 RMK SLP181 T01570046 54000 IEM_DS3505
ZGOW,1995-03-27 06:00,ZGOW 270600Z AUTO 11006KT 9SM 17/03 A3000 RMK SLP155 T01740028 57026 IEM_DS3505
ZGOW,1995-03-27 07:00,ZGOW 270700Z AUTO 07006KT 6SM 17/05 A2997 RMK SLP147 T01700050 IEM_DS3505
ZGOW,1995-03-27 08:00,ZGOW 270800Z AUTO 11006KT 6SM 18/06 A2997 RMK SLP146 T01800060 IEM_DS3505
ZGOW,1995-03-27 09:00,ZGOW 270900Z AUTO 14004KT 7SM 17/06 A2997 RMK SLP142 T01730058 57013 IEM_DS3505
ZGOW,1995-03-27 10:00,ZGOW 271000Z AUTO 00000KT 7SM 17/09 A2997 RMK SLP147 T01700090 IEM_DS3505
ZGOW,1995-03-27 12:00,ZGOW 271200Z AUTO 00000KT 7SM 16/10 A3000 RMK SLP158 T01620095 52016 IEM_DS3505
ZGOW,1995-03-27 14:00,ZGOW 271400Z AUTO 02006KT 7SM 16/11 A3003 RMK SLP167 T01600110 IEM_DS3505
ZGOW,1995-03-27 15:00,ZGOW 271500Z AUTO 07006KT 6SM 16/10 A3006 RMK SLP176 T01580101 52009 IEM_DS3505
ZGOW,1995-03-27 18:00,ZGOW 271800Z AUTO 04004KT 6SM 16/10 A3000 RMK SLP155 T01580099 57012 IEM_DS3505
ZGOW,1995-03-27 21:00,ZGOW 272100Z AUTO 36002KT 6SM 16/10 A3000 RMK SLP151 T01560101 57004 IEM_DS3505
ZGOW,1995-03-27 22:00,ZGOW 272200Z AUTO 00000KT 7SM 16/10 A3000 RMK SLP157 T01600100 IEM_DS3505
ZGOW,1995-03-27 23:00,ZGOW 272300Z AUTO 00000KT 5SM 16/12 A3000 RMK SLP157 T01600120 IEM_DS3505
ZGOW,1995-03-28 00:00,ZGOW 280000Z AUTO 04004KT 4SM 17/11 A3003 RMK SLP166 T01660114 52015 IEM_DS3505
ZGOW,1995-03-28 01:00,ZGOW 280100Z AUTO 04004KT 7SM 18/11 A3003 RMK SLP166 T01800110 IEM_DS3505
ZGOW,1995-03-28 03:00,ZGOW 280300Z AUTO 07010KT 6SM 18/11 A3000 RMK SLP158 T01850112 57008 IEM_DS3505
ZGOW,1995-03-28 06:00,ZGOW 280600Z AUTO 04008KT 7SM 20/13 A2994 RMK SLP134 T01980127 57024 IEM_DS3505
ZGOW,1995-03-28 07:00,ZGOW 280700Z AUTO 03006KT 7SM 19/13 A2994 RMK SLP136 T01900130 IEM_DS3505
ZGOW,1995-03-28 08:00,ZGOW 280800Z AUTO 07008KT 7SM 19/13 A2991 RMK SLP126 T01900130 IEM_DS3505
ZGOW,1995-03-28 09:00,ZGOW 280900Z AUTO 07004KT 6SM 19/13 A2991 RMK SLP125 T01900128 57009 IEM_DS3505
ZGOW,1995-03-28 10:00,ZGOW 281000Z AUTO 12004KT 4SM 18/14 A2991 RMK SLP126 T01800140 IEM_DS3505
ZGOW,1995-03-28 11:00,ZGOW 281100Z AUTO 06004KT 4SM 18/13 A2991 RMK SLP126 T01800130 IEM_DS3505
ZGOW,1995-03-28 12:00,ZGOW 281200Z AUTO 07004KT 5SM 18/13 A2994 RMK SLP137 T01770133 52012 IEM_DS3505
ZGOW,1995-03-28 14:00,ZGOW 281400Z AUTO 02006KT 4SM 17/13 A2994 RMK SLP137 T01700130 IEM_DS3505
ZGOW,1995-03-28 15:00,ZGOW 281500Z AUTO 04006KT 6SM 17/13 A2995 RMK SLP140 T01730128 52003 IEM_DS3505
ZGOW,1995-03-28 18:00,ZGOW 281800Z AUTO 07004KT 6SM 17/13 A2989 RMK SLP120 T01680134 57020 IEM_DS3505
ZGOW,1995-03-28 21:00,ZGOW 282100Z AUTO 29002KT 5SM 17/14 A2988 RMK SLP115 T01670144 57005 IEM_DS3505
ZGOW,1995-03-28 23:00,ZGOW 282300Z AUTO 00000KT 3SM 17/14 A2988 RMK SLP116 T01700140 IEM_DS3505
ZGOW,1995-03-29 00:00,ZGOW 290000Z AUTO 09002KT 4SM 17/15 A2988 RMK SLP119 T01740152 52004 IEM_DS3505
ZGOW,1995-03-29 01:00,ZGOW 290100Z AUTO 00000KT 2 1/2SM 18/15 A2988 RMK SLP116 T01800150 IEM_DS3505
ZGOW,1995-03-29 02:00,ZGOW 290200Z AUTO 00000KT 2 1/2SM 19/15 A2991 RMK SLP126 T01900150 IEM_DS3505
ZGOW,1995-03-29 03:00,ZGOW 290300Z AUTO 25002KT 2 1/2SM 21/16 A2990 RMK SLP123 T02060161 52004 IEM_DS3505
ZGOW,1995-03-29 06:00,ZGOW 290600Z AUTO 18004KT 2 1/2SM 22/18 A2985 RMK SLP101 T02240183 57022 IEM_DS3505
ZGOW,1995-03-29 08:00,ZGOW 290800Z AUTO 00000KT 2 1/2SM 22/18 A2983 RMK SLP099 T02200180 IEM_DS3505
ZGOW,1995-03-29 09:00,ZGOW 290900Z AUTO 14002KT 2 1/2SM 22/18 A2980 RMK SLP090 T02240181 57011 IEM_DS3505
ZGOW,1995-03-29 12:00,ZGOW 291200Z AUTO 20002KT 2SM 20/18 A2982 RMK SLP095 T02000182 52005 IEM_DS3505
ZGOW,1995-03-29 14:00,ZGOW 291400Z AUTO 02004KT 3/8SM 18/18 A2985 RMK SLP105 T01800180 IEM_DS3505
ZGOW,1995-03-29 15:00,ZGOW 291500Z AUTO 16002KT 1SM 19/19 A2984 RMK SLP101 T01920189 52009 IEM_DS3505
ZGOW,1995-03-29 18:00,ZGOW 291800Z AUTO 02004KT 1/2SM 19/18 A2982 RMK 60000 SLP094 T01900185 57010 IEM_DS3505
ZGOW,1995-03-29 21:00,ZGOW 292100Z AUTO 00000KT 1 1/4SM 19/18 A2980 RMK SLP087 T01900185 57007 IEM_DS3505
ZGOW,1995-03-29 22:00,ZGOW 292200Z AUTO 00000KT 1/4SM 19/18 A2983 RMK SLP099 T01900180 IEM_DS3505
ZGOW,1995-03-30 00:00,ZGOW 300000Z AUTO 11002KT 1 1/4SM 19/19 A2985 RMK 60004 70008 SLP104 T01940188 52017 IEM_DS3505
ZGOW,1995-03-30 02:00,ZGOW 300200Z AUTO 00000KT 1 1/4SM 19/19 A2985 RMK SLP105 T01900190 IEM_DS3505
ZGOW,1995-03-30 03:00,ZGOW 300300Z AUTO 00000KT 2SM 20/19 A2985 RMK SLP106 T01960191 52002 IEM_DS3505
ZGOW,1995-03-30 06:00,ZGOW 300600Z AUTO 18004KT 4SM 22/21 A2977 RMK 60067 SLP081 T02250210 57025 IEM_DS3505
ZGOW,1995-03-30 07:00,ZGOW 300700Z AUTO 03004KT 1 1/2SM 21/20 A2977 RMK SLP078 T02100200 IEM_DS3505
ZGOW,1995-03-30 08:00,ZGOW 300800Z AUTO 03006KT 2SM 21/20 A2980 RMK SLP088 T02100200 IEM_DS3505
ZGOW,1995-03-30 09:00,ZGOW 300900Z AUTO 07006KT 2 1/2SM 21/20 A2980 RMK SLP087 T02120201 52006 IEM_DS3505
ZGOW,1995-03-30 12:00,ZGOW 301200Z AUTO 04004KT 3SM 20/19 A2985 RMK 60008 SLP103 T01970191 52016 IEM_DS3505
ZGOW,1995-03-30 13:00,ZGOW 301300Z AUTO 00000KT 2SM 19/19 A2985 RMK SLP105 T01900190 IEM_DS3505
ZGOW,1995-03-30 14:00,ZGOW 301400Z AUTO 04008KT 7SM 18/18 A2988 RMK SLP116 T01800180 IEM_DS3505
ZGOW,1995-03-30 15:00,ZGOW 301500Z AUTO 09004KT 5SM 18/17 A2990 RMK SLP123 T01770170 52020 IEM_DS3505
ZGOW,1995-03-30 18:00,ZGOW 301800Z AUTO 07006KT 10SM 16/15 A2992 RMK 60035 SLP128 T01600148 52005 IEM_DS3505
ZGOW,1995-03-30 21:00,ZGOW 302100Z AUTO 07006KT 11SM 16/14 A2991 RMK SLP128 T01590140 54000 IEM_DS3505
ZGOW,1995-03-30 22:00,ZGOW 302200Z AUTO 06014KT 7SM 16/14 A2991 RMK SLP127 T01600140 IEM_DS3505
ZGOW,1995-03-30 23:00,ZGOW 302300Z AUTO 05006KT 7SM 16/13 A2994 RMK SLP137 T01600130 IEM_DS3505
ZGOW,1995-03-31 00:00,ZGOW 310000Z AUTO 07008KT 11SM 16/13 A2997 RMK 60002 70110 SLP149 T01650133 52021 IEM_DS3505
ZGOW,1995-03-31 01:00,ZGOW 310100Z AUTO 05014KT 7SM 17/13 A2997 RMK SLP147 T01700130 IEM_DS3505
ZGOW,1995-03-31 02:00,ZGOW 310200Z AUTO 05014KT 7SM 18/13 A3000 RMK SLP156 T01800130 IEM_DS3505
ZGOW,1995-03-31 03:00,ZGOW 310300Z AUTO 07010KT 12SM 19/12 A3000 RMK SLP157 T01860125 52008 IEM_DS3505
ZGOW,1995-03-31 06:00,ZGOW 310600Z AUTO 07008KT 15SM 20/13 A2994 RMK SLP137 T01970128 57020 IEM_DS3505
ZGOW,1995-03-31 07:00,ZGOW 310700Z AUTO 05016KT 7SM 19/12 A2991 RMK SLP126 T01900120 IEM_DS3505
ZGOW,1995-03-31 08:00,ZGOW 310800Z AUTO 03014KT 7SM 18/12 A2991 RMK SLP126 T01800120 IEM_DS3505
ZGOW,1995-03-31 09:00,ZGOW 310900Z AUTO 09008KT 12SM 18/12 A2991 RMK SLP127 T01760118 57010 IEM_DS3505
ZGOW,1995-03-31 10:00,ZGOW 311000Z AUTO 06016KT 7SM 17/12 A2991 RMK SLP126 T01700120 IEM_DS3505
ZGOW,1995-03-31 12:00,ZGOW 311200Z AUTO 04012KT 10SM 16/10 A2994 RMK SLP145 T01640104 52018 IEM_DS3505
ZGOW,1995-03-31 13:00,ZGOW 311300Z AUTO 05014KT 7SM 15/13 A2997 RMK SLP147 T01500130 IEM_DS3505
ZGOW,1995-03-31 14:00,ZGOW 311400Z AUTO 05012KT 7SM 15/14 A3003 RMK SLP167 T01500140 IEM_DS3505
ZGOW,1995-03-31 15:00,ZGOW 311500Z AUTO 07004KT 9SM 16/12 A3000 RMK SLP158 T01560119 52013 IEM_DS3505
ZGOW,1995-03-31 18:00,ZGOW 311800Z AUTO 07008KT 7SM 14/12 A2999 RMK 60008 SLP153 T01390119 57005 IEM_DS3505
ZGOW,1995-03-31 21:00,ZGOW 312100Z AUTO 04006KT 7SM 14/13 A2996 RMK 70008 SLP144 T01400127 57009 IEM_DS3505
ZGOW,1995-03-31 23:00,ZGOW 312300Z AUTO 05014KT 7SM 14/12 A2997 RMK SLP147 T01400120 IEM_DS3505
ZGOW,1995-04-01 00:00,ZGOW 010000Z AUTO 07006KT 10SM 14/12 A3000 RMK 60000 70008 SLP156 T01440122 52012 IEM_DS3505
ZGOW,1995-04-01 01:00,ZGOW 010100Z AUTO 05010KT 7SM 14/12 A3000 RMK SLP158 T01400120 IEM_DS3505
ZGOW,1995-04-01 03:00,ZGOW 010300Z AUTO 07010KT 9SM 15/11 A3003 RMK SLP163 T01520107 52007 IEM_DS3505
ZGOW,1995-04-01 06:00,ZGOW 010600Z AUTO 11010KT 7SM 16/10 A2996 RMK SLP144 T01590104 57019 IEM_DS3505
ZGOW,1995-04-01 09:00,ZGOW 010900Z AUTO 09010KT 7SM 16/12 A2993 RMK SLP135 T01580116 57009 IEM_DS3505
ZGOW,1995-04-01 12:00,ZGOW 011200Z AUTO 09016KT 5SM 15/12 A2997 RMK SLP148 T01520125 52013 IEM_DS3505
ZGOW,1995-04-01 15:00,ZGOW 011500Z AUTO 07006KT 5SM 15/13 A3001 RMK SLP161 T01500128 52013 IEM_DS3505
ZGOW,1995-04-01 18:00,ZGOW 011800Z AUTO 09008KT 6SM 15/12 A3000 RMK SLP158 T01460122 57003 IEM_DS3505
ZGOW,1995-04-01 21:00,ZGOW 012100Z AUTO 07004KT 4SM 14/14 A3000 RMK 70000 SLP159 T01400136 52001 IEM_DS3505
ZGOW,1995-04-01 22:00,ZGOW 012200Z AUTO 05008KT 2SM 14/14 A3003 RMK SLP168 T01400140 IEM_DS3505
ZGOW,1995-04-01 23:00,ZGOW 012300Z AUTO 05008KT 1SM 14/13 A3003 RMK SLP168 T01400130 IEM_DS3505
ZGOW,1995-04-02 00:00,ZGOW 020000Z AUTO 07006KT 4SM 14/13 A3005 RMK 60008 70008 SLP173 T01420133 52014 IEM_DS3505
ZGOW,1995-04-02 01:00,ZGOW 020100Z AUTO 04012KT 7SM 14/13 A3009 RMK SLP189 T01400130 IEM_DS3505
ZGOW,1995-04-02 02:00,ZGOW 020200Z AUTO 05008KT 7SM 14/13 A3009 RMK SLP189 T01400130 IEM_DS3505
ZGOW,1995-04-02 03:00,ZGOW 020300Z AUTO 04006KT 4SM 14/13 A3009 RMK SLP184 T01420127 52011 IEM_DS3505
ZGOW,1995-04-02 06:00,ZGOW 020600Z AUTO 07006KT 3SM 14/13 A3006 RMK 60002 SLP175 T01420133 57009 IEM_DS3505
ZGOW,1995-04-02 07:00,ZGOW 020700Z AUTO 05008KT 2SM 14/13 A3006 RMK SLP179 T01400130 IEM_DS3505
ZGOW,1995-04-02 08:00,ZGOW 020800Z AUTO 05010KT 2 1/2SM 14/13 A3003 RMK SLP168 T01400130 IEM_DS3505
ZGOW,1995-04-02 09:00,ZGOW 020900Z AUTO 07004KT 3SM 14/13 A3003 RMK SLP169 T01410130 57006 IEM_DS3505
ZGOW,1995-04-02 10:00,ZGOW 021000Z AUTO 05008KT 3SM 14/13 A3006 RMK SLP179 T01400130 IEM_DS3505
ZGOW,1995-04-02 11:00,ZGOW 021100Z AUTO 06008KT 3SM 14/13 A3006 RMK SLP179 T01400130 IEM_DS3505
ZGOW,1995-04-02 12:00,ZGOW 021200Z AUTO 09008KT 5SM 14/13 A3009 RMK 60008 SLP184 T01390126 52015 IEM_DS3505
ZGOW,1995-04-02 13:00,ZGOW 021300Z AUTO 04010KT 2 1/2SM 14/13 A3012 RMK SLP199 T01400130 IEM_DS3505
ZGOW,1995-04-02 15:00,ZGOW 021500Z AUTO 4SM 13/12 A3016 RMK SLP212 T01320119 52028 IEM_DS3505
ZGOW,1995-04-02 18:00,ZGOW 021800Z AUTO 07004KT 7SM 14/11 A3015 RMK 60012 SLP209 T01380110 57003 IEM_DS3505
ZGOW,1995-04-02 21:00,ZGOW 022100Z AUTO 09006KT 7SM 14/11 A3015 RMK 70024 SLP207 T01350108 57002 IEM_DS3505
ZGOW,1995-04-02 22:00,ZGOW 022200Z AUTO 05010KT 7SM 13/10 A3015 RMK SLP209 T01300100 IEM_DS3505
ZGOW,1995-04-02 23:00,ZGOW 022300Z AUTO 04010KT 7SM 14/10 A3021 RMK SLP229 T01400100 IEM_DS3505
ZGOW,1995-04-03 00:00,ZGOW 030000Z AUTO 07010KT 10SM 14/09 A3021 RMK 60000 70020 SLP226 T01420086 52019 IEM_DS3505
ZGOW,1995-04-03 02:00,ZGOW 030200Z AUTO 03010KT 6SM 16/09 A3021 RMK SLP229 T01600090 IEM_DS3505
ZGOW,1995-04-03 03:00,ZGOW 030300Z AUTO 04010KT 9SM 16/09 A3021 RMK SLP232 T01640088 52006 IEM_DS3505
ZGOW,1995-04-03 06:00,ZGOW 030600Z AUTO 07008KT 8SM 15/10 A3015 RMK SLP210 T01500098 57022 IEM_DS3505
ZGOW,1995-04-03 07:00,ZGOW 030700Z AUTO 03008KT 7SM 14/12 A3015 RMK SLP209 T01400120 IEM_DS3505
ZGOW,1995-04-03 08:00,ZGOW 030800Z AUTO 06012KT 7SM 14/12 A3015 RMK SLP209 T01400120 IEM_DS3505
ZGOW,1995-04-03 09:00,ZGOW 030900Z AUTO 07006KT 6SM 14/11 A3015 RMK SLP203 T01390113 57007 IEM_DS3505
ZGOW,1995-04-03 10:00,ZGOW 031000Z AUTO 04006KT 7SM 13/11 A3012 RMK SLP199 T01300110 IEM_DS3505
ZGOW,1995-04-03 11:00,ZGOW 031100Z AUTO 03008KT 7SM 14/10 A3015 RMK SLP209 T01400100 IEM_DS3505
ZGOW,1995-04-03 12:00,ZGOW 031200Z AUTO 09010KT 7SM 14/10 A3015 RMK 60002 SLP209 T01380099 52006 IEM_DS3505
ZGOW,1995-04-03 13:00,ZGOW 031300Z AUTO 04012KT 6SM 13/09 A3015 RMK SLP209 T01300090 IEM_DS3505
ZGOW,1995-04-03 14:00,ZGOW 031400Z AUTO 06014KT 6SM 14/10 A3018 RMK SLP219 T01400100 IEM_DS3505
ZGOW,1995-04-03 15:00,ZGOW 031500Z AUTO 07010KT 9SM 14/09 A3014 RMK SLP206 T01360093 57003 IEM_DS3505
ZGOW,1995-04-03 18:00,ZGOW 031800Z AUTO 07006KT 8SM 13/08 A3012 RMK SLP197 T01340077 57009 IEM_DS3505
ZGOW,1995-04-03 21:00,ZGOW 032100Z AUTO 07006KT 8SM 14/08 A3008 RMK 70002 SLP186 T01350085 57011 IEM_DS3505
ZGOW,1995-04-03 22:00,ZGOW 032200Z AUTO 05006KT 7SM 14/09 A3009 RMK SLP189 T01400090 IEM_DS3505
ZGOW,1995-04-03 23:00,ZGOW 032300Z AUTO 04008KT 7SM 14/08 A3012 RMK SLP199 T01400080 IEM_DS3505
ZGOW,1995-04-04 00:00,ZGOW 040000Z AUTO 04006KT 9SM 14/09 A3015 RMK 70002 SLP204 T01370094 52018 IEM_DS3505
ZGOW,1995-04-04 01:00,ZGOW 040100Z AUTO 03006KT 7SM 14/09 A3015 RMK SLP209 T01400090 IEM_DS3505
ZGOW,1995-04-04 02:00,ZGOW 040200Z AUTO 03008KT 7SM 14/09 A3015 RMK SLP209 T01400090 IEM_DS3505
ZGOW,1995-04-04 03:00,ZGOW 040300Z AUTO 07006KT 7SM 14/09 A3012 RMK SLP199 T01440093 57005 IEM_DS3505
ZGOW,1995-04-04 06:00,ZGOW 040600Z AUTO 07006KT 7SM 15/10 A3009 RMK SLP177 T01500104 57022 IEM_DS3505
ZGOW,1995-04-04 07:00,ZGOW 040700Z AUTO 05008KT 7SM 15/10 A3003 RMK SLP168 T01500100 IEM_DS3505
ZGOW,1995-04-04 08:00,ZGOW 040800Z AUTO 05008KT 7SM 15/10 A3003 RMK SLP168 T01500100 IEM_DS3505
ZGOW,1995-04-04 09:00,ZGOW 040900Z AUTO 07004KT 7SM 15/11 A3003 RMK SLP166 T01460112 57011 IEM_DS3505
ZGOW,1995-04-04 10:00,ZGOW 041000Z AUTO 01006KT 7SM 14/11 A3003 RMK SLP168 T01400110 IEM_DS3505
ZGOW,1995-04-04 11:00,ZGOW 041100Z AUTO 06006KT 5SM 14/10 A3003 RMK SLP168 T01400100 IEM_DS3505
ZGOW,1995-04-04 12:00,ZGOW 041200Z AUTO 07004KT 6SM 14/12 A3006 RMK SLP179 T01420118 52013 IEM_DS3505
ZGOW,1995-04-04 13:00,ZGOW 041300Z AUTO 05006KT 5SM 14/12 A3006 RMK SLP179 T01400120 IEM_DS3505
ZGOW,1995-04-04 14:00,ZGOW 041400Z AUTO 05006KT 4SM 14/12 A3009 RMK SLP189 T01400120 IEM_DS3505
ZGOW,1995-04-04 15:00,ZGOW 041500Z AUTO 04004KT 4SM 14/12 A3009 RMK SLP188 T01420120 52009 IEM_DS3505
ZGOW,1995-04-04 18:00,ZGOW 041800Z AUTO 04004KT 3SM 14/13 A3006 RMK SLP177 T01370128 57011 IEM_DS3505
ZGOW,1995-04-04 21:00,ZGOW 042100Z AUTO 04004KT 4SM 14/13 A3004 RMK SLP171 T01380127 57006 IEM_DS3505
ZGOW,1995-04-04 22:00,ZGOW 042200Z AUTO 04006KT 7SM 14/13 A3006 RMK SLP179 T01400130 IEM_DS3505
ZGOW,1995-04-04 23:00,ZGOW 042300Z AUTO 02006KT 2 1/2SM 14/13 A3009 RMK SLP189 T01400130 IEM_DS3505
ZGOW,1995-04-05 00:00,ZGOW 050000Z AUTO 07004KT 4SM 14/13 A3009 RMK SLP188 T01420131 52017 IEM_DS3505
ZGOW,1995-04-05 01:00,ZGOW 050100Z AUTO 02006KT 7SM 15/13 A3012 RMK SLP199 T01500130 IEM_DS3505
ZGOW,1995-04-05 02:00,ZGOW 050200Z AUTO 36004KT 7SM 15/13 A3012 RMK SLP199 T01500130 IEM_DS3505
ZGOW,1995-04-05 03:00,ZGOW 050300Z AUTO 36002KT 3SM 16/14 A3009 RMK SLP188 T01560138 54000 IEM_DS3505
ZGOW,1995-04-05 06:00,ZGOW 050600Z AUTO 36002KT 3SM 17/15 A3003 RMK SLP167 T01700148 57021 IEM_DS3505
ZGOW,1995-04-05 07:00,ZGOW 050700Z AUTO 34004KT 1 1/4SM 17/15 A3000 RMK SLP158 T01700150 IEM_DS3505
ZGOW,1995-04-05 08:00,ZGOW 050800Z AUTO 30004KT 1 1/4SM 17/15 A3000 RMK SLP158 T01700150 IEM_DS3505
ZGOW,1995-04-05 09:00,ZGOW 050900Z AUTO 25002KT 2 1/2SM 17/16 A2999 RMK SLP154 T01740157 57013 IEM_DS3505
ZGOW,1995-04-05 10:00,ZGOW 051000Z AUTO 00000KT 1 1/4SM 17/16 A3000 RMK SLP158 T01700160 IEM_DS3505
ZGOW,1995-04-05 11:00,ZGOW 051100Z AUTO 00000KT 1 1/4SM 17/16 A3000 RMK SLP158 T01700160 IEM_DS3505
ZGOW,1995-04-05 12:00,ZGOW 051200Z AUTO 27002KT 1 1/4SM 17/16 A3003 RMK SLP163 T01730160 52009 IEM_DS3505
ZGOW,1995-04-05 14:00,ZGOW 051400Z AUTO 00000KT 1SM 17/16 A3006 RMK SLP179 T01700160 IEM_DS3505
ZGOW,1995-04-05 15:00,ZGOW 051500Z AUTO 00000KT 2SM 17/16 A3003 RMK SLP171 T01720164 52008 IEM_DS3505
ZGOW,1995-04-05 18:00,ZGOW 051800Z AUTO 07002KT 2SM 16/15 A3001 RMK SLP161 T01650153 57010 IEM_DS3505
ZGOW,1995-04-05 21:00,ZGOW 052100Z AUTO 04002KT 2 1/2SM 16/15 A3000 RMK SLP152 T01630149 57009 IEM_DS3505
ZGOW,1995-04-05 22:00,ZGOW 052200Z AUTO 00000KT 2 1/2SM 16/15 A3000 RMK SLP158 T01600150 IEM_DS3505
ZGOW,1995-04-05 23:00,ZGOW 052300Z AUTO 01004KT 4SM 16/15 A3003 RMK SLP168 T01600150 IEM_DS3505
ZGOW,1995-04-06 00:00,ZGOW 060000Z AUTO 11004KT 5SM 17/15 A3006 RMK SLP169 T01670150 52017 IEM_DS3505
ZGOW,1995-04-06 01:00,ZGOW 060100Z AUTO 00000KT 4SM 17/15 A3006 RMK SLP179 T01700150 IEM_DS3505
ZGOW,1995-04-06 02:00,ZGOW 060200Z AUTO 09004KT 4SM 18/15 A3006 RMK SLP179 T01800150 IEM_DS3505
ZGOW,1995-04-06 03:00,ZGOW 060300Z AUTO 07004KT 5SM 18/16 A3003 RMK SLP165 T01830156 57004 IEM_DS3505
ZGOW,1995-04-06 06:00,ZGOW 060600Z AUTO 29004KT 4SM 20/17 A2994 RMK SLP141 T02030167 57024 IEM_DS3505
ZGOW,1995-04-06 07:00,ZGOW 060700Z AUTO 00000KT 2 1/2SM 21/17 A2994 RMK SLP137 T02100170 IEM_DS3505
ZGOW,1995-04-06 08:00,ZGOW 060800Z AUTO 00000KT 3SM 21/17 A2994 RMK SLP137 T02100170 IEM_DS3505
ZGOW,1995-04-06 09:00,ZGOW 060900Z AUTO 18002KT 4SM 21/17 A2991 RMK SLP130 T02110172 57011 IEM_DS3505
ZGOW,1995-04-06 10:00,ZGOW 061000Z AUTO 13004KT 3SM 19/17 A2991 RMK SLP127 T01900170 IEM_DS3505
ZGOW,1995-04-06 11:00,ZGOW 061100Z AUTO 05006KT 2 1/2SM 18/16 A2994 RMK SLP137 T01800160 IEM_DS3505
ZGOW,1995-04-06 12:00,ZGOW 061200Z AUTO 14004KT 3SM 18/16 A2994 RMK SLP140 T01830161 52010 IEM_DS3505
ZGOW,1995-04-06 13:00,ZGOW 061300Z AUTO 00000KT 4SM 17/15 A2997 RMK SLP148 T01700150 IEM_DS3505
ZGOW,1995-04-06 15:00,ZGOW 061500Z AUTO 07004KT 4SM 17/15 A2998 RMK SLP152 T01740154 52012 IEM_DS3505
ZGOW,1995-04-06 18:00,ZGOW 061800Z AUTO 29004KT 4SM 17/16 A2994 RMK SLP136 T01720160 57016 IEM_DS3505
ZGOW,1995-04-06 21:00,ZGOW 062100Z AUTO 00000KT 3SM 17/16 A2994 RMK SLP140 T01740161 52004 IEM_DS3505
ZGOW,1995-04-06 22:00,ZGOW 062200Z AUTO 00000KT 2 1/2SM 17/16 A2994 RMK SLP138 T01700160 IEM_DS3505
ZGOW,1995-04-06 23:00,ZGOW 062300Z AUTO 27006KT 2SM 17/16 A3000 RMK SLP158 T01700160 IEM_DS3505
ZGOW,1995-04-07 00:00,ZGOW 070000Z AUTO 11004KT 1SM 17/17 A2997 RMK 60024 70024 SLP154 T01740169 52014 IEM_DS3505
ZGOW,1995-04-07 01:00,ZGOW 070100Z AUTO 00000KT 1SM 17/17 A3000 RMK SLP158 T01700170 IEM_DS3505
ZGOW,1995-04-07 02:00,ZGOW 070200Z AUTO 03004KT 1 1/4SM 18/17 A3000 RMK SLP157 T01800170 IEM_DS3505
ZGOW,1995-04-07 03:00,ZGOW 070300Z AUTO 04006KT 4SM 18/17 A3000 RMK SLP160 T01760168 52006 IEM_DS3505
ZGOW,1995-04-07 06:00,ZGOW 070600Z AUTO 04004KT 6SM 19/16 A2994 RMK 60035 SLP139 T01930160 57021 IEM_DS3505
ZGOW,1995-04-07 07:00,ZGOW 070700Z AUTO 03006KT 7SM 19/15 A2991 RMK SLP127 T01900150 IEM_DS3505
ZGOW,1995-04-07 08:00,ZGOW 070800Z AUTO 03004KT 7SM 19/15 A2991 RMK SLP127 T01900150 IEM_DS3505
ZGOW,1995-04-07 09:00,ZGOW 070900Z AUTO 04004KT 5SM 18/16 A2991 RMK SLP128 T01840164 57011 IEM_DS3505
ZGOW,1995-04-07 10:00,ZGOW 071000Z AUTO 00000KT 5SM 18/16 A2991 RMK SLP127 T01800160 IEM_DS3505
ZGOW,1995-04-07 11:00,ZGOW 071100Z AUTO 00000KT 4SM 17/16 A2991 RMK SLP127 T01700160 IEM_DS3505
ZGOW,1995-04-07 12:00,ZGOW 071200Z AUTO 02002KT 4SM 18/16 A2991 RMK 60002 SLP136 T01800162 52008 IEM_DS3505
ZGOW,1995-04-07 13:00,ZGOW 071300Z AUTO 00000KT 3SM 17/16 A2994 RMK SLP138 T01700160 IEM_DS3505
ZGOW,1995-04-07 14:00,ZGOW 071400Z AUTO 00000KT 3SM 17/15 A2997 RMK SLP148 T01700150 IEM_DS3505
ZGOW,1995-04-07 15:00,ZGOW 071500Z AUTO 00000KT 4SM 18/16 A2995 RMK SLP141 T01760157 52005 IEM_DS3505
ZGOW,1995-04-07 18:00,ZGOW 071800Z AUTO 00000KT 4SM 17/16 A2993 RMK SLP135 T01720158 57006 IEM_DS3505
ZGOW,1995-04-07 21:00,ZGOW 072100Z AUTO 00000KT 3SM 17/15 A2994 RMK 70059 SLP135 T01720150 54000 IEM_DS3505
ZGOW,1995-04-07 22:00,ZGOW 072200Z AUTO 00000KT 3SM 17/15 A2994 RMK SLP138 T01700150 IEM_DS3505
ZGOW,1995-04-07 23:00,ZGOW 072300Z AUTO 00000KT 3SM 17/15 A2994 RMK SLP138 T01700150 IEM_DS3505
ZGOW,1995-04-08 00:00,ZGOW 080000Z AUTO 04004KT 4SM 18/16 A2997 RMK 70035 SLP148 T01820158 52013 IEM_DS3505
ZGOW,1995-04-08 01:00,ZGOW 080100Z AUTO 00000KT 2 1/2SM 19/16 A2997 RMK SLP147 T01900160 IEM_DS3505
ZGOW,1995-04-08 02:00,ZGOW 080200Z AUTO 00000KT 7SM 20/15 A3000 RMK SLP157 T02000150 IEM_DS3505
ZGOW,1995-04-08 03:00,ZGOW 080300Z AUTO 04002KT 4SM 21/16 A3000 RMK SLP151 T02140158 52003 IEM_DS3505
ZGOW,1995-04-08 06:00,ZGOW 080600Z AUTO 20006KT 4SM 24/18 A2994 RMK SLP132 T02380176 57019 IEM_DS3505
ZGOW,1995-04-08 07:00,ZGOW 080700Z AUTO 10006KT 4SM 23/16 A2994 RMK SLP137 T02300160 IEM_DS3505
ZGOW,1995-04-08 08:00,ZGOW 080800Z AUTO 12006KT 4SM 22/16 A2988 RMK SLP117 T02200160 IEM_DS3505
ZGOW,1995-04-08 09:00,ZGOW 080900Z AUTO 16004KT 4SM 22/16 A2991 RMK SLP123 T02250159 57009 IEM_DS3505
ZGOW,1995-04-08 10:00,ZGOW 081000Z AUTO 12004KT 7SM 21/15 A2991 RMK SLP127 T02100150 IEM_DS3505
ZGOW,1995-04-08 12:00,ZGOW 081200Z AUTO 14004KT 5SM 20/14 A2994 RMK SLP135 T01980137 52012 IEM_DS3505
ZGOW,1995-04-08 13:00,ZGOW 081300Z AUTO 12006KT 6SM 19/14 A2997 RMK SLP147 T01900140 IEM_DS3505
ZGOW,1995-04-08 15:00,ZGOW 081500Z AUTO 00000KT 4SM 20/16 A2998 RMK SLP150 T01990159 52015 IEM_DS3505
ZGOW,1995-04-08 18:00,ZGOW 081800Z AUTO 00000KT 2 1/2SM 19/17 A2995 RMK SLP141 T01920166 57009 IEM_DS3505
ZGOW,1995-04-08 21:00,ZGOW 082100Z AUTO 32002KT 1 1/4SM 19/17 A2994 RMK SLP140 T01940173 57001 IEM_DS3505
ZGOW,1995-04-08 22:00,ZGOW 082200Z AUTO 00000KT 2SM 19/17 A2997 RMK SLP147 T01900170 IEM_DS3505
ZGOW,1995-04-08 23:00,ZGOW 082300Z AUTO 00000KT 2 1/2SM 19/17 A2997 RMK SLP147 T01900170 IEM_DS3505
ZGOW,1995-04-09 00:00,ZGOW 090000Z AUTO 36002KT 2SM 21/18 A3000 RMK SLP162 T02070183 52022 IEM_DS3505
ZGOW,1995-04-09 01:00,ZGOW 090100Z AUTO 00000KT 1 1/2SM 21/17 A3003 RMK SLP167 T02100170 IEM_DS3505
ZGOW,1995-04-09 02:00,ZGOW 090200Z AUTO 00000KT 2SM 23/18 A3003 RMK SLP167 T02300180 IEM_DS3505
ZGOW,1995-04-09 03:00,ZGOW 090300Z AUTO 25004KT 2SM 24/20 A3003 RMK SLP171 T02440201 52009 IEM_DS3505
ZGOW,1995-04-09 06:00,ZGOW 090600Z AUTO 20004KT 5SM 28/20 A2996 RMK SLP144 T02820205 57027 IEM_DS3505
ZGOW,1995-04-09 07:00,ZGOW 090700Z AUTO 13008KT 4SM 28/21 A2994 RMK SLP137 T02800210 IEM_DS3505
ZGOW,1995-04-09 08:00,ZGOW 090800Z AUTO 15008KT 6SM 26/20 A2994 RMK SLP137 T02600200 IEM_DS3505
ZGOW,1995-04-09 09:00,ZGOW 090900Z AUTO 18004KT 5SM 26/20 A2991 RMK SLP131 T02630199 57013 IEM_DS3505
ZGOW,1995-04-09 10:00,ZGOW 091000Z AUTO 12004KT 5SM 24/20 A2994 RMK SLP137 T02400200 IEM_DS3505
ZGOW,1995-04-09 12:00,ZGOW 091200Z AUTO 27002KT 5SM 24/20 A2998 RMK SLP149 T02390201 52018 IEM_DS3505
ZGOW,1995-04-09 15:00,ZGOW 091500Z AUTO 04004KT 3SM 23/21 A3002 RMK SLP165 T02270206 52016 IEM_DS3505
ZGOW,1995-04-09 18:00,ZGOW 091800Z AUTO 00000KT 2 1/2SM 21/20 A3000 RMK SLP156 T02120198 57009 IEM_DS3505
ZGOW,1995-04-09 21:00,ZGOW 092100Z AUTO 07006KT 4SM 18/16 A3002 RMK SLP165 T01850155 52009 IEM_DS3505
ZGOW,1995-04-09 23:00,ZGOW 092300Z AUTO 05010KT 6SM 19/14 A3009 RMK SLP188 T01900140 IEM_DS3505
ZGOW,1995-04-10 00:00,ZGOW 100000Z AUTO 07012KT 6SM 19/14 A3010 RMK SLP190 T01910145 52025 IEM_DS3505
ZGOW,1995-04-10 01:00,ZGOW 100100Z AUTO 08010KT 6SM 20/14 A3009 RMK SLP188 T02000140 IEM_DS3505
ZGOW,1995-04-10 03:00,ZGOW 100300Z AUTO 14006KT 6SM 23/16 A3009 RMK SLP190 T02290156 54000 IEM_DS3505
ZGOW,1995-04-10 04:00,ZGOW 100400Z AUTO 06014KT 7SM 23/14 A3006 RMK SLP178 T02300140 IEM_DS3505
ZGOW,1995-04-10 06:00,ZGOW 100600Z AUTO 11004KT 7SM 23/16 A3000 RMK SLP162 T02300165 57028 IEM_DS3505
ZGOW,1995-04-10 07:00,ZGOW 100700Z AUTO 09006KT 7SM 24/16 A2997 RMK SLP147 T02400160 IEM_DS3505
ZGOW,1995-04-10 09:00,ZGOW 100900Z AUTO 14004KT 6SM 22/17 A2996 RMK SLP145 T02170166 57017 IEM_DS3505
ZGOW,1995-04-10 10:00,ZGOW 101000Z AUTO 02006KT 7SM 21/17 A2997 RMK SLP147 T02100170 IEM_DS3505
ZGOW,1995-04-10 12:00,ZGOW 101200Z AUTO 04004KT 6SM 19/17 A3001 RMK SLP162 T01930167 52017 IEM_DS3505
ZGOW,1995-04-10 15:00,ZGOW 101500Z AUTO 07006KT 6SM 18/16 A3003 RMK SLP169 T01800155 52007 IEM_DS3505
ZGOW,1995-04-10 18:00,ZGOW 101800Z AUTO 04004KT 4SM 18/16 A3001 RMK SLP161 T01760157 57008 IEM_DS3505
ZGOW,1995-04-10 21:00,ZGOW 102100Z AUTO 04004KT 3SM 18/16 A3000 RMK SLP158 T01770160 57003 IEM_DS3505
ZGOW,1995-04-10 22:00,ZGOW 102200Z AUTO 01006KT 3SM 17/15 A3003 RMK SLP168 T01700150 IEM_DS3505
ZGOW,1995-04-10 23:00,ZGOW 102300Z AUTO 05006KT 3SM 17/15 A3006 RMK SLP179 T01700150 IEM_DS3505
ZGOW,1995-04-11 00:00,ZGOW 110000Z AUTO 07004KT 3SM 18/16 A3006 RMK SLP183 T01850162 52025 IEM_DS3505
ZGOW,1995-04-11 01:00,ZGOW 110100Z AUTO 00000KT 3SM 20/16 A3006 RMK SLP178 T02000160 IEM_DS3505
ZGOW,1995-04-11 02:00,ZGOW 110200Z AUTO 21004KT 3SM 21/17 A3006 RMK SLP178 T02100170 IEM_DS3505
ZGOW,1995-04-11 03:00,ZGOW 110300Z AUTO 25006KT 4SM 23/18 A3006 RMK SLP175 T02270181 57008 IEM_DS3505
ZGOW,1995-04-11 06:00,ZGOW 110600Z AUTO 16004KT 4SM 24/18 A2998 RMK SLP151 T02380179 57024 IEM_DS3505
ZGOW,1995-04-11 07:00,ZGOW 110700Z AUTO 12008KT 3SM 24/18 A2997 RMK SLP147 T02400180 IEM_DS3505
ZGOW,1995-04-11 08:00,ZGOW 110800Z AUTO 12008KT 3SM 22/18 A2994 RMK SLP137 T02200180 IEM_DS3505
ZGOW,1995-04-11 09:00,ZGOW 110900Z AUTO 14006KT 4SM 22/18 A2994 RMK SLP138 T02240179 57013 IEM_DS3505
ZGOW,1995-04-11 11:00,ZGOW 111100Z AUTO 11006KT 3SM 19/17 A2997 RMK SLP147 T01900170 IEM_DS3505
ZGOW,1995-04-11 12:00,ZGOW 111200Z AUTO 07002KT 4SM 20/18 A3000 RMK SLP156 T01970179 52018 IEM_DS3505
ZGOW,1995-04-11 15:00,ZGOW 111500Z AUTO 14004KT 4SM 19/17 A3003 RMK SLP167 T01930167 52011 IEM_DS3505
ZGOW,1995-04-11 18:00,ZGOW 111800Z AUTO 09004KT 4SM 18/17 A3003 RMK SLP169 T01790169 52002 IEM_DS3505
ZGOW,1995-04-11 21:00,ZGOW 112100Z AUTO 09004KT 4SM 18/16 A3003 RMK SLP166 T01760164 57003 IEM_DS3505
ZGOW,1995-04-11 23:00,ZGOW 112300Z AUTO 06008KT 7SM 19/15 A3006 RMK SLP178 T01900150 IEM_DS3505
ZGOW,1995-04-12 00:00,ZGOW 120000Z AUTO 07012KT 7SM 21/14 A3007 RMK SLP180 T02060139 52014 IEM_DS3505
ZGOW,1995-04-12 02:00,ZGOW 120200Z AUTO 05014KT 7SM 22/13 A3009 RMK SLP188 T02200130 IEM_DS3505
ZGOW,1995-04-12 03:00,ZGOW 120300Z AUTO 09010KT 10SM 23/14 A3009 RMK SLP180 T02260137 54000 IEM_DS3505
ZGOW,1995-04-12 04:00,ZGOW 120400Z AUTO 04016KT 7SM 23/13 A3006 RMK SLP178 T02300130 IEM_DS3505
ZGOW,1995-04-12 06:00,ZGOW 120600Z AUTO 09010KT 10SM 24/14 A2999 RMK SLP153 T02350136 57027 IEM_DS3505
ZGOW,1995-04-12 08:00,ZGOW 120800Z AUTO 06008KT 6SM 22/15 A2997 RMK SLP147 T02200150 IEM_DS3505
ZGOW,1995-04-12 09:00,ZGOW 120900Z AUTO 11008KT 7SM 21/14 A2997 RMK SLP146 T02070138 IEM_DS3505
ZGOW,1995-04-12 12:00,ZGOW 121200Z AUTO 09004KT 6SM 20/14 A3000 RMK SLP153 T01970136 52007 IEM_DS3505
ZGOW,1995-04-12 14:00,ZGOW 121400Z AUTO 06012KT 7SM 18/12 A3000 RMK SLP157 T01800120 IEM_DS3505
ZGOW,1995-04-12 15:00,ZGOW 121500Z AUTO 04006KT 6SM 18/12 A3001 RMK SLP160 T01850122 52007 IEM_DS3505
ZGOW,1995-04-12 18:00,ZGOW 121800Z AUTO 04002KT 6SM 18/13 A2996 RMK SLP143 T01830128 57017 IEM_DS3505
ZGOW,1995-04-12 21:00,ZGOW 122100Z AUTO 09006KT 7SM 19/13 A2993 RMK SLP133 T01900130 57010 IEM_DS3505
ZGOW,1995-04-12 22:00,ZGOW 122200Z AUTO 03008KT 7SM 19/13 A2994 RMK SLP137 T01900130 IEM_DS3505
ZGOW,1995-04-12 23:00,ZGOW 122300Z AUTO 00000KT 7SM 19/13 A2994 RMK SLP137 T01900130 IEM_DS3505
ZGOW,1995-04-13 00:00,ZGOW 130000Z AUTO 09004KT 8SM 19/14 A2997 RMK SLP145 T01940144 52012 IEM_DS3505
ZGOW,1995-04-13 01:00,ZGOW 130100Z AUTO 02006KT 7SM 20/13 A2997 RMK SLP147 T02000130 IEM_DS3505
ZGOW,1995-04-13 03:00,ZGOW 130300Z AUTO 36002KT 6SM 21/15 A2997 RMK SLP140 T02090146 57005 IEM_DS3505
ZGOW,1995-04-13 04:00,ZGOW 130400Z AUTO 08004KT 4SM 21/15 A2994 RMK SLP137 T02100150 IEM_DS3505
ZGOW,1995-04-13 06:00,ZGOW 130600Z AUTO 00000KT 3SM 23/17 A2988 RMK SLP114 T02260166 57026 IEM_DS3505
ZGOW,1995-04-13 07:00,ZGOW 130700Z AUTO 00000KT 3SM 23/18 A2985 RMK SLP107 T02300180 IEM_DS3505
ZGOW,1995-04-13 08:00,ZGOW 130800Z AUTO 04006KT 4SM 23/18 A2985 RMK SLP107 T02300180 IEM_DS3505
ZGOW,1995-04-13 09:00,ZGOW 130900Z AUTO 20002KT 2 1/2SM 24/19 A2983 RMK SLP096 T02360186 57018 IEM_DS3505
ZGOW,1995-04-13 10:00,ZGOW 131000Z AUTO 05006KT 3SM 22/19 A2983 RMK SLP100 T02200190 IEM_DS3505
ZGOW,1995-04-13 12:00,ZGOW 131200Z AUTO 07002KT 2 1/2SM 22/18 A2988 RMK SLP114 T02180185 52018 IEM_DS3505
ZGOW,1995-04-13 13:00,ZGOW 131300Z AUTO 13004KT 4SM 21/18 A2988 RMK SLP117 T02100180 IEM_DS3505
ZGOW,1995-04-13 15:00,ZGOW 131500Z AUTO 04002KT 2 1/2SM 21/18 A2989 RMK SLP120 T02130184 52006 IEM_DS3505
ZGOW,1995-04-13 18:00,ZGOW 131800Z AUTO 00000KT 2 1/2SM 21/19 A2986 RMK SLP111 T02140187 57009 IEM_DS3505
ZGOW,1995-04-13 21:00,ZGOW 132100Z AUTO 16004KT 1 1/4SM 21/20 A2985 RMK SLP106 T02090201 57005 IEM_DS3505
ZGOW,1995-04-13 22:00,ZGOW 132200Z AUTO 11006KT 1/8SM 20/20 A2985 RMK SLP107 T02000200 IEM_DS3505
ZGOW,1995-04-13 23:00,ZGOW 132300Z AUTO 10004KT 1/8SM 21/20 A2988 RMK SLP117 T02100200 IEM_DS3505
ZGOW,1995-04-14 00:00,ZGOW 140000Z AUTO 07002KT 1/2SM 21/21 A2991 RMK SLP127 T02140208 52021 IEM_DS3505
ZGOW,1995-04-14 01:00,ZGOW 140100Z AUTO 12006KT 1/2SM 22/21 A2991 RMK SLP127 T02200210 IEM_DS3505
ZGOW,1995-04-14 02:00,ZGOW 140200Z AUTO 00000KT 2SM 23/22 A2991 RMK SLP127 T02300220 IEM_DS3505
ZGOW,1995-04-14 03:00,ZGOW 140300Z AUTO 04002KT 1SM 24/22 A2991 RMK SLP131 T02390220 52004 IEM_DS3505
ZGOW,1995-04-14 06:00,ZGOW 140600Z AUTO 22006KT 2SM 24/23 A2985 RMK 60000 SLP108 T02450230 57023 IEM_DS3505
ZGOW,1995-04-14 07:00,ZGOW 140700Z AUTO 17008KT 4SM 24/23 A2985 RMK SLP107 T02400230 IEM_DS3505
ZGOW,1995-04-14 08:00,ZGOW 140800Z AUTO 16008KT 4SM 24/23 A2983 RMK SLP100 T02400230 IEM_DS3505
ZGOW,1995-04-14 09:00,ZGOW 140900Z AUTO 18008KT 3SM 25/23 A2983 RMK SLP097 T02500229 57011 IEM_DS3505
ZGOW,1995-04-14 10:00,ZGOW 141000Z AUTO 00000KT 3SM 25/23 A2983 RMK SLP100 T02500230 IEM_DS3505
ZGOW,1995-04-14 11:00,ZGOW 141100Z AUTO 15008KT 3SM 24/22 A2985 RMK SLP107 T02400220 IEM_DS3505
ZGOW,1995-04-14 12:00,ZGOW 141200Z AUTO 20006KT 3SM 24/23 A2985 RMK 60000 SLP110 T02450232 52013 IEM_DS3505
ZGOW,1995-04-14 13:00,ZGOW 141300Z AUTO 16008KT 4SM 24/23 A2988 RMK SLP117 T02400230 IEM_DS3505
ZGOW,1995-04-14 14:00,ZGOW 141400Z AUTO 17006KT 3SM 24/23 A2988 RMK SLP117 T02400230 IEM_DS3505
ZGOW,1995-04-14 15:00,ZGOW 141500Z AUTO 20008KT 3SM 24/23 A2989 RMK SLP120 T02440232 52010 IEM_DS3505
ZGOW,1995-04-14 18:00,ZGOW 141800Z AUTO 20006KT 3SM 24/23 A2983 RMK SLP101 T02390232 57019 IEM_DS3505
ZGOW,1995-04-14 21:00,ZGOW 142100Z AUTO 18006KT 3SM 24/23 A2983 RMK 70001 SLP094 T02390229 57007 IEM_DS3505
ZGOW,1995-04-14 22:00,ZGOW 142200Z AUTO 16004KT 2SM 23/22 A2983 RMK SLP100 T02300220 IEM_DS3505
ZGOW,1995-04-14 23:00,ZGOW 142300Z AUTO 16008KT 2SM 23/ A2985 RMK SLP107 IEM_DS3505
ZGOW,1995-04-15 00:00,ZGOW 150000Z AUTO 20002KT 3SM 24/23 A2988 RMK 70001 SLP117 T02440231 52023 IEM_DS3505
ZGOW,1995-04-15 01:00,ZGOW 150100Z AUTO 16008KT 3SM 24/23 A2988 RMK SLP117 T02400230 IEM_DS3505
ZGOW,1995-04-15 02:00,ZGOW 150200Z AUTO 18004KT 3SM 25/23 A2988 RMK SLP117 T02500230 IEM_DS3505
ZGOW,1995-04-15 03:00,ZGOW 150300Z AUTO 22008KT 6SM 27/24 A2990 RMK SLP123 T02700235 52006 IEM_DS3505
ZGOW,1995-04-15 06:00,ZGOW 150600Z AUTO 22006KT 6SM 28/24 A2985 RMK SLP101 T02770235 57022 IEM_DS3505
ZGOW,1995-04-15 07:00,ZGOW 150700Z AUTO 17010KT 5SM 27/24 A2983 RMK SLP100 T02700240 IEM_DS3505
ZGOW,1995-04-15 08:00,ZGOW 150800Z AUTO 16010KT 5SM 27/24 A2983 RMK SLP100 T02700240 IEM_DS3505
ZGOW,1995-04-15 09:00,ZGOW 150900Z AUTO 18006KT 7SM 27/24 A2980 RMK SLP090 T02710236 57011 IEM_DS3505
ZGOW,1995-04-15 12:00,ZGOW 151200Z AUTO 20006KT 6SM 25/23 A2985 RMK SLP107 T02540234 52017 IEM_DS3505
ZGOW,1995-04-15 13:00,ZGOW 151300Z AUTO 17004KT 4SM 24/23 A2985 RMK SLP107 T02400230 IEM_DS3505
ZGOW,1995-04-15 15:00,ZGOW 151500Z AUTO 22004KT 5SM 24/23 A2990 RMK SLP122 T02440232 52015 IEM_DS3505
ZGOW,1995-04-15 18:00,ZGOW 151800Z AUTO 00000KT 5SM 24/23 A2987 RMK SLP114 T02360227 57008 IEM_DS3505
ZGOW,1995-04-15 21:00,ZGOW 152100Z AUTO 00000KT 1 1/4SM 22/22 A2988 RMK SLP117 T02220219 52003 IEM_DS3505
ZGOW,1995-04-15 22:00,ZGOW 152200Z AUTO 00000KT 1/8SM 22/22 A3018 RMK T02200220 IEM_DS3505
ZGOW,1995-04-15 23:00,ZGOW 152300Z AUTO 00000KT 1/8SM 23/22 A3021 RMK T02300220 IEM_DS3505
ZGOW,1995-04-16 00:00,ZGOW 160000Z AUTO 27002KT 3/8SM 23/23 A2991 RMK SLP135 T02270226 52018 IEM_DS3505
ZGOW,1995-04-16 01:00,ZGOW 160100Z AUTO 22008KT 10SM 30/22 A2994 RMK SLP111 T03030221 57025 IEM_DS3505
ZGOW,1995-04-16 03:00,ZGOW 160300Z AUTO 27002KT 11SM 28/22 A2994 RMK SLP136 T02800223 52001 IEM_DS3505
ZGOW,1995-04-16 06:00,ZGOW 160600Z AUTO 22008KT 10SM 30/22 A2986 RMK SLP111 T03030221 57025 IEM_DS3505
ZGOW,1995-04-16 07:00,ZGOW 160700Z AUTO 16014KT 7SM 29/23 A2985 RMK SLP107 T02900230 IEM_DS3505
ZGOW,1995-04-16 08:00,ZGOW 160800Z AUTO 16012KT 7SM 29/23 A2983 RMK SLP100 T02900230 IEM_DS3505
ZGOW,1995-04-16 09:00,ZGOW 160900Z AUTO 20010KT 9SM 28/22 A2983 RMK SLP096 T02850224 57015 IEM_DS3505
ZGOW,1995-04-16 10:00,ZGOW 161000Z AUTO 15006KT 7SM 27/23 A2983 RMK SLP100 T02700230 IEM_DS3505
ZGOW,1995-04-16 11:00,ZGOW 161100Z AUTO 13006KT 6SM 25/22 A2985 RMK SLP107 T02500220 IEM_DS3505
ZGOW,1995-04-16 12:00,ZGOW 161200Z AUTO 22008KT 7SM 26/22 A2985 RMK SLP117 T02560222 52021 IEM_DS3505
ZGOW,1995-04-16 13:00,ZGOW 161300Z AUTO 00000KT 7SM 24/22 A2988 RMK SLP117 T02400220 IEM_DS3505
ZGOW,1995-04-16 14:00,ZGOW 161400Z AUTO 13004KT 7SM 24/22 A2991 RMK SLP127 T02400220 IEM_DS3505
ZGOW,1995-04-16 15:00,ZGOW 161500Z AUTO 16002KT 7SM 24/22 A2991 RMK SLP128 T02440222 52011 IEM_DS3505
ZGOW,1995-04-16 18:00,ZGOW 161800Z AUTO 09004KT 1 1/4SM 22/22 A2992 RMK SLP131 T02210218 52003 IEM_DS3505
ZGOW,1995-04-16 21:00,ZGOW 162100Z AUTO 04004KT 3/8SM 21/20 A2992 RMK SLP130 T02060203 57001 IEM_DS3505
ZGOW,1995-04-16 23:00,ZGOW 162300Z AUTO 04006KT 2 1/2SM 20/19 A2994 RMK SLP137 T02000190 IEM_DS3505
ZGOW,1995-04-17 00:00,ZGOW 170000Z AUTO 04004KT 1 1/4SM 21/20 A2996 RMK SLP145 T02130202 52015 IEM_DS3505
ZGOW,1995-04-17 01:00,ZGOW 170100Z AUTO 05006KT 3SM 22/20 A2997 RMK SLP147 T02200200 IEM_DS3505
ZGOW,1995-04-17 02:00,ZGOW 170200Z AUTO 04006KT 3SM 22/20 A3000 RMK SLP157 T02200200 IEM_DS3505
ZGOW,1995-04-17 03:00,ZGOW 170300Z AUTO 16004KT 6SM 24/21 A3000 RMK SLP152 T02360210 52007 IEM_DS3505
ZGOW,1995-04-17 06:00,ZGOW 170600Z AUTO 18006KT 7SM 26/21 A2991 RMK SLP126 T02570214 57026 IEM_DS3505
ZGOW,1995-04-17 07:00,ZGOW 170700Z AUTO 12008KT 7SM 25/21 A2991 RMK SLP127 T02500210 IEM_DS3505
ZGOW,1995-04-17 08:00,ZGOW 170800Z AUTO 10008KT 7SM 25/22 A2988 RMK SLP117 T02500220 IEM_DS3505
ZGOW,1995-04-17 09:00,ZGOW 170900Z AUTO 18004KT 7SM 25/21 A2988 RMK SLP111 T02460208 57015 IEM_DS3505
ZGOW,1995-04-17 12:00,ZGOW 171200Z AUTO 14002KT 4SM 22/21 A2991 RMK SLP125 T02180207 52014 IEM_DS3505
ZGOW,1995-04-17 13:00,ZGOW 171300Z AUTO 12008KT 1SM 21/21 A2994 RMK SLP137 T02100210 IEM_DS3505
ZGOW,1995-04-17 14:00,ZGOW 171400Z AUTO 13006KT 1SM 21/21 A2994 RMK SLP137 T02100210 IEM_DS3505
ZGOW,1995-04-17 15:00,ZGOW 171500Z AUTO 20004KT 4SM 22/21 A2997 RMK SLP139 T02180209 52014 IEM_DS3505
ZGOW,1995-04-17 18:00,ZGOW 171800Z AUTO 00000KT 6SM 22/21 A2994 RMK SLP136 T02210210 57003 IEM_DS3505
ZGOW,1995-04-17 21:00,ZGOW 172100Z AUTO 04002KT 5SM 23/21 A2994 RMK SLP139 T02260212 52003 IEM_DS3505
ZGOW,1995-04-17 22:00,ZGOW 172200Z AUTO 00000KT 6SM 22/21 A2997 RMK SLP147 T02200210 IEM_DS3505
ZGOW,1995-04-17 23:00,ZGOW 172300Z AUTO 00000KT 5SM 23/22 A2997 RMK SLP147 T02300220 IEM_DS3505
ZGOW,1995-04-18 00:00,ZGOW 180000Z AUTO 32002KT 6SM 24/20 A3000 RMK SLP150 T02400203 52011 IEM_DS3505
ZGOW,1995-04-18 03:00,ZGOW 180300Z AUTO 29006KT 7SM 27/21 A2997 RMK SLP146 T02690211 57004 IEM_DS3505
ZGOW,1995-04-18 04:00,ZGOW 180400Z AUTO 24006KT 4SM 29/21 A2994 RMK SLP137 T02900210 IEM_DS3505
ZGOW,1995-04-18 06:00,ZGOW 180600Z AUTO 20008KT 9SM 29/21 A2988 RMK SLP116 T02910211 57030 IEM_DS3505
ZGOW,1995-04-18 09:00,ZGOW 180900Z AUTO 18008KT 7SM 27/21 A2985 RMK SLP104 T02720212 57012 IEM_DS3505
ZGOW,1995-04-18 12:00,ZGOW 181200Z AUTO 22004KT 7SM 24/21 A2988 RMK SLP115 T02440214 52011 IEM_DS3505
ZGOW,1995-04-18 13:00,ZGOW 181300Z AUTO 12006KT 3SM 23/22 A2988 RMK SLP117 T02300220 IEM_DS3505
ZGOW,1995-04-18 15:00,ZGOW 181500Z AUTO 00000KT 6SM 24/22 A2990 RMK SLP124 T02390218 52009 IEM_DS3505
ZGOW,1995-04-18 18:00,ZGOW 181800Z AUTO 00000KT 4SM 24/22 A2989 RMK SLP119 T02360223 57005 IEM_DS3505
ZGOW,1995-04-18 21:00,ZGOW 182100Z AUTO 00000KT 2SM 23/22 A2991 RMK SLP124 T02330224 52005 IEM_DS3505
ZGOW,1995-04-18 22:00,ZGOW 182200Z AUTO 00000KT 1 1/2SM 23/22 A2991 RMK SLP127 T02300220 IEM_DS3505
ZGOW,1995-04-18 23:00,ZGOW 182300Z AUTO 00000KT 1 1/2SM 23/22 A2994 RMK SLP137 T02300220 IEM_DS3505
ZGOW,1995-04-19 00:00,ZGOW 190000Z AUTO 29002KT 3SM 25/23 A2994 RMK SLP140 T02460228 52016 IEM_DS3505
ZGOW,1995-04-19 01:00,ZGOW 190100Z AUTO 04016KT 2SM 26/22 A2997 RMK SLP147 T02600220 IEM_DS3505
ZGOW,1995-04-19 02:00,ZGOW 190200Z AUTO 05021KT 5SM 22/18 A2997 RMK SLP147 T02200180 IEM_DS3505
ZGOW,1995-04-19 03:00,ZGOW 190300Z AUTO 09014KT 8SM 22/17 A3000 RMK SLP159 T02190174 52019 IEM_DS3505
ZGOW,1995-04-19 06:00,ZGOW 190600Z AUTO 09010KT 6SM 22/15 A2997 RMK SLP143 T02230149 57016 IEM_DS3505
ZGOW,1995-04-19 07:00,ZGOW 190700Z AUTO 05017KT 7SM 21/12 A2994 RMK SLP137 T02100120 IEM_DS3505
ZGOW,1995-04-19 08:00,ZGOW 190800Z AUTO 05017G27KT 7SM 21/12 A2994 RMK SLP137 T02100120 IEM_DS3505
ZGOW,1995-04-19 09:00,ZGOW 190900Z AUTO 09012G25KT 5SM 21/11 A2994 RMK SLP137 T02080112 57006 IEM_DS3505
ZGOW,1995-04-19 11:00,ZGOW 191100Z AUTO ////17G27KT 1 1/4SM RMK IEM_DS3505
ZGOW,1995-04-19 12:00,ZGOW 191200Z AUTO 09012G27KT 7SM 20/12 A2999 RMK SLP154 T01970122 52017 IEM_DS3505
ZGOW,1995-04-19 13:00,ZGOW 191300Z AUTO ////19KT 1SM RMK IEM_DS3505
ZGOW,1995-04-19 14:00,ZGOW 191400Z AUTO 03016KT 6SM 19/12 A3000 RMK SLP157 T01900120 IEM_DS3505
ZGOW,1995-04-19 15:00,ZGOW 191500Z AUTO 11010KT 7SM 19/12 A3004 RMK SLP170 T01910117 52016 IEM_DS3505
ZGOW,1995-04-19 18:00,ZGOW 191800Z AUTO 09010KT 7SM 18/10 A3000 RMK SLP157 T01840100 57013 IEM_DS3505
ZGOW,1995-04-19 21:00,ZGOW 192100Z AUTO 09008KT 7SM 18/09 A3000 RMK SLP160 T01820088 52003 IEM_DS3505
ZGOW,1995-04-19 22:00,ZGOW 192200Z AUTO 05010KT 7SM 18/09 A3003 RMK SLP168 T01800090 IEM_DS3505
ZGOW,1995-04-19 23:00,ZGOW 192300Z AUTO 04012KT 7SM 18/08 A3003 RMK SLP168 T01800080 IEM_DS3505
ZGOW,1995-04-20 00:00,ZGOW 200000Z AUTO 04006KT 9SM 19/08 A3003 RMK SLP172 T01900082 52012 IEM_DS3505
ZGOW,1995-04-20 01:00,ZGOW 200100Z AUTO 06012KT 7SM 19/08 A3003 RMK SLP167 T01900080 IEM_DS3505
ZGOW,1995-04-20 03:00,ZGOW 200300Z AUTO 09008KT 9SM 21/09 A3006 RMK SLP172 T02060094 54000 IEM_DS3505
ZGOW,1995-04-20 04:00,ZGOW 200400Z AUTO 21/10 A3003 RMK SLP167 T02100100 IEM_DS3505
ZGOW,1995-04-20 06:00,ZGOW 200600Z AUTO 07008KT 10SM 23/12 A2996 RMK SLP144 T02270117 57028 IEM_DS3505
ZGOW,1995-04-20 07:00,ZGOW 200700Z AUTO 12008KT 7SM 22/13 A2994 RMK SLP137 T02200130 IEM_DS3505
ZGOW,1995-04-20 09:00,ZGOW 200900Z AUTO 09004KT 8SM 21/14 A2994 RMK SLP134 T02140137 57010 IEM_DS3505
ZGOW,1995-04-20 10:00,ZGOW 201000Z AUTO 06008KT 7SM 21/13 A2994 RMK SLP137 T02100130 IEM_DS3505
ZGOW,1995-04-20 11:00,ZGOW 201100Z AUTO 03008KT 7SM 20/14 A2994 RMK SLP137 T02000140 IEM_DS3505
ZGOW,1995-04-20 12:00,ZGOW 201200Z AUTO 04006KT 7SM 20/15 A2996 RMK SLP143 T02000149 52009 IEM_DS3505
ZGOW,1995-04-20 13:00,ZGOW 201300Z AUTO 05006KT 7SM 19/15 A2997 RMK SLP147 T01900150 IEM_DS3505
ZGOW,1995-04-20 14:00,ZGOW 201400Z AUTO 04010KT 7SM 19/15 A2997 RMK SLP147 T01900150 IEM_DS3505
ZGOW,1995-04-20 15:00,ZGOW 201500Z AUTO 07006KT 7SM 19/16 A2998 RMK SLP149 T01910157 52006 IEM_DS3505
ZGOW,1995-04-20 18:00,ZGOW 201800Z AUTO 07006KT 7SM 19/16 A2995 RMK SLP141 T01890159 57008 IEM_DS3505
ZGOW,1995-04-20 21:00,ZGOW 202100Z AUTO 04002KT 8SM 19/16 A2994 RMK SLP138 T01890162 57003 IEM_DS3505
ZGOW,1995-04-20 23:00,ZGOW 202300Z AUTO 00000KT 7SM 19/16 A2997 RMK SLP147 T01900160 IEM_DS3505
ZGOW,1995-04-21 00:00,ZGOW 210000Z AUTO 04002KT 6SM 20/17 A2997 RMK SLP146 T02020168 52008 IEM_DS3505
ZGOW,1995-04-21 03:00,ZGOW 210300Z AUTO 04006KT 6SM 26/20 A2994 RMK SLP140 T02560201 57006 IEM_DS3505
ZGOW,1995-04-21 06:00,ZGOW 210600Z AUTO 16006KT 9SM 26/20 A2989 RMK SLP119 T02600199 57021 IEM_DS3505
ZGOW,1995-04-21 09:00,ZGOW 210900Z AUTO 14006KT 8SM 25/21 A2984 RMK SLP104 T02510210 57015 IEM_DS3505
ZGOW,1995-04-21 12:00,ZGOW 211200Z AUTO 11002KT 6SM 23/20 A2987 RMK SLP114 T02260203 52010 IEM_DS3505
ZGOW,1995-04-21 15:00,ZGOW 211500Z AUTO 00000KT 3SM 23/21 A2990 RMK SLP124 T02260211 52010 IEM_DS3505
ZGOW,1995-04-21 18:00,ZGOW 211800Z AUTO 00000KT 2 1/2SM 23/22 A2986 RMK SLP110 T02260217 57014 IEM_DS3505
ZGOW,1995-04-21 21:00,ZGOW 212100Z AUTO 00000KT 2 1/2SM 23/21 A2986 RMK SLP109 T02260214 57001 IEM_DS3505
ZGOW,1995-04-22 00:00,ZGOW 220000Z AUTO 16004KT 4SM 24/22 A2991 RMK SLP127 T02380215 52018 IEM_DS3505
ZGOW,1995-04-22 03:00,ZGOW 220300Z AUTO 22010KT 7SM 28/21 A2992 RMK SLP130 T02810214 52003 IEM_DS3505
ZGOW,1995-04-22 06:00,ZGOW 220600Z AUTO 18008KT 12SM 29/22 A2985 RMK SLP105 T02860221 57025 IEM_DS3505
ZGOW,1995-04-22 09:00,ZGOW 220900Z AUTO 18012KT 16SM 28/23 A2980 RMK SLP089 T02810227 57016 IEM_DS3505
ZGOW,1995-04-22 12:00,ZGOW 221200Z AUTO 20010KT 11SM 26/23 A2983 RMK SLP099 T02560227 52010 IEM_DS3505
ZGOW,1995-04-22 15:00,ZGOW 221500Z AUTO 22004KT 9SM 25/23 A2988 RMK SLP116 T02500226 52017 IEM_DS3505
ZGOW,1995-04-22 18:00,ZGOW 221800Z AUTO 00000KT 8SM 24/23 A2986 RMK SLP110 T02400227 57006 IEM_DS3505
ZGOW,1995-04-22 21:00,ZGOW 222100Z AUTO 27004KT 4SM 23/22 A2986 RMK SLP111 T02340224 52001 IEM_DS3505
ZGOW,1995-04-23 00:00,ZGOW 230000Z AUTO 22006KT 6SM 25/22 A2990 RMK SLP123 T02520224 52012 IEM_DS3505
ZGOW,1995-04-23 03:00,ZGOW 230300Z AUTO 22008KT 6SM 29/22 A2990 RMK SLP123 T02920223 54000 IEM_DS3505
ZGOW,1995-04-23 06:00,ZGOW 230600Z AUTO 22010KT 9SM 31/22 A2984 RMK SLP104 T03130221 57019 IEM_DS3505
ZGOW,1995-04-23 07:00,ZGOW 230700Z AUTO 24010KT 7SM 32/22 A2983 RMK SLP100 T03200220 IEM_DS3505
ZGOW,1995-04-23 09:00,ZGOW 230900Z AUTO 20006KT 9SM 30/23 A2980 RMK SLP088 T03020227 57016 IEM_DS3505
ZGOW,1995-04-23 10:00,ZGOW 231000Z AUTO 16008KT 7SM 28/23 A2983 RMK SLP100 T02800230 IEM_DS3505
ZGOW,1995-04-23 11:00,ZGOW 231100Z AUTO 17006KT 6SM 27/23 A2983 RMK SLP100 T02700230 IEM_DS3505
ZGOW,1995-04-23 12:00,ZGOW 231200Z AUTO 18002KT 7SM 27/23 A2985 RMK SLP110 T02690227 52022 IEM_DS3505
ZGOW,1995-04-23 13:00,ZGOW 231300Z AUTO 05016KT 7SM 21/19 A2991 RMK SLP127 T02100190 IEM_DS3505
ZGOW,1995-04-23 15:00,ZGOW 231500Z AUTO 09008KT 6SM 21/19 A2996 RMK SLP143 T02090188 52033 IEM_DS3505
ZGOW,1995-04-23 18:00,ZGOW 231800Z AUTO 09006KT 6SM 20/17 A2995 RMK SLP141 T01980174 57002 IEM_DS3505
ZGOW,1995-04-23 21:00,ZGOW 232100Z AUTO 04004KT 6SM 20/17 A2994 RMK SLP137 T01980172 57004 IEM_DS3505
ZGOW,1995-04-23 23:00,ZGOW 232300Z AUTO 05010KT 7SM 20/17 A2997 RMK SLP147 T02000170 IEM_DS3505
ZGOW,1995-04-24 00:00,ZGOW 240000Z AUTO 04006KT 7SM 21/18 A3000 RMK SLP155 T02080176 52018 IEM_DS3505
ZGOW,1995-04-24 03:00,ZGOW 240300Z AUTO 11004KT 8SM 25/19 A3000 RMK SLP156 T02460188 52001 IEM_DS3505
ZGOW,1995-04-24 04:00,ZGOW 240400Z AUTO 03006KT 7SM 26/19 A3000 RMK SLP157 T02600190 IEM_DS3505
ZGOW,1995-04-24 06:00,ZGOW 240600Z AUTO 27006KT 7SM 27/20 A2993 RMK SLP132 T02720196 57024 IEM_DS3505
ZGOW,1995-04-24 09:00,ZGOW 240900Z AUTO 18006KT 9SM 24/19 A2987 RMK SLP115 T02420191 57017 IEM_DS3505
ZGOW,1995-04-24 15:00,ZGOW 241500Z AUTO 11002KT 7SM 22/19 A2997 RMK SLP147 T02160194 52014 IEM_DS3505
ZGOW,1995-04-24 18:00,ZGOW 241800Z AUTO 22002KT 6SM 22/20 A2995 RMK SLP142 T02170200 57005 IEM_DS3505
ZGOW,1995-04-24 21:00,ZGOW 242100Z AUTO 00000KT 5SM 21/20 A2996 RMK SLP143 T02140202 52001 IEM_DS3505
ZGOW,1995-04-25 00:00,ZGOW 250000Z AUTO 36002KT 5SM 23/20 A3000 RMK SLP157 T02280205 52014 IEM_DS3505
ZGOW,1995-04-25 03:00,ZGOW 250300Z AUTO 04002KT 7SM 25/21 A2999 RMK SLP154 T02540209 57003 IEM_DS3505
ZGOW,1995-04-25 06:00,ZGOW 250600Z AUTO 18006KT 6SM 28/21 A2991 RMK SLP126 T02780209 57028 IEM_DS3505
ZGOW,1995-04-25 09:00,ZGOW 250900Z AUTO 16004KT 8SM 26/21 A2988 RMK SLP117 T02640207 57009 IEM_DS3505
ZGOW,1995-04-25 11:00,ZGOW 251100Z AUTO 13008KT 6SM 24/21 A2991 RMK SLP127 T02400210 IEM_DS3505
ZGOW,1995-04-25 12:00,ZGOW 251200Z AUTO 18004KT 7SM 24/21 A2995 RMK SLP141 T02410209 52024 IEM_DS3505
ZGOW,1995-04-25 13:00,ZGOW 251300Z AUTO 00000KT 6SM 23/21 A2997 RMK SLP147 T02300210 IEM_DS3505
ZGOW,1995-04-25 14:00,ZGOW 251400Z AUTO 10006KT 6SM 24/21 A3000 RMK SLP157 T02400210 IEM_DS3505
ZGOW,1995-04-25 15:00,ZGOW 251500Z AUTO 18004KT 6SM 24/21 A2998 RMK SLP149 T02360212 52008 IEM_DS3505
ZGOW,1995-04-25 18:00,ZGOW 251800Z AUTO 00000KT 5SM 23/22 A2993 RMK SLP135 T02270215 57014 IEM_DS3505
ZGOW,1995-04-25 21:00,ZGOW 252100Z AUTO 07008KT 5SM 21/20 A2997 RMK SLP146 T02120195 52011 IEM_DS3505
ZGOW,1995-04-25 22:00,ZGOW 252200Z AUTO 05012KT 7SM 21/19 A2997 RMK SLP147 T02100190 IEM_DS3505
ZGOW,1995-04-25 23:00,ZGOW 252300Z AUTO 03008KT 7SM 21/19 A3000 RMK SLP157 T02100190 IEM_DS3505
ZGOW,1995-04-26 00:00,ZGOW 260000Z AUTO 09008KT 6SM 22/19 A3002 RMK SLP165 T02220189 52019 IEM_DS3505
ZGOW,1995-04-26 01:00,ZGOW 260100Z AUTO 06016KT 7SM 23/19 RMK T02300190 IEM_DS3505
ZGOW,1995-04-26 02:00,ZGOW 260200Z AUTO 05012KT 7SM 24/19 A3003 RMK SLP167 T02400190 IEM_DS3505
ZGOW,1995-04-26 03:00,ZGOW 260300Z AUTO 09008KT 9SM 24/19 A3003 RMK SLP169 T02360194 52004 IEM_DS3505
ZGOW,1995-04-26 04:00,ZGOW 260400Z AUTO 05012KT 7SM A3003 RMK IEM_DS3505
ZGOW,1995-04-26 06:00,ZGOW 260600Z AUTO 04008KT 11SM 24/19 A2998 RMK SLP152 T02440193 57017 IEM_DS3505
ZGOW,1995-04-26 07:00,ZGOW 260700Z AUTO 05016KT 7SM 24/18 A2997 RMK SLP147 T02400180 IEM_DS3505
ZGOW,1995-04-26 08:00,ZGOW 260800Z AUTO 05016KT 7SM 24/17 A2997 RMK SLP147 T02400170 IEM_DS3505
ZGOW,1995-04-26 09:00,ZGOW 260900Z AUTO 07006KT 10SM 24/18 A2997 RMK SLP147 T02400185 57005 IEM_DS3505
ZGOW,1995-04-26 12:00,ZGOW 261200Z AUTO 09008KT 10SM 21/16 A3000 RMK SLP159 T02080165 52012 IEM_DS3505
ZGOW,1995-04-26 13:00,ZGOW 261300Z AUTO 05016KT 7SM 20/16 A3003 RMK SLP167 T02000160 IEM_DS3505
ZGOW,1995-04-26 15:00,ZGOW 261500Z AUTO 09010KT 9SM 20/16 A3007 RMK SLP181 T01990155 52022 IEM_DS3505
ZGOW,1995-04-26 18:00,ZGOW 261800Z AUTO 07006KT 8SM 20/16 A3003 RMK SLP166 T01960156 57015 IEM_DS3505
ZGOW,1995-04-26 21:00,ZGOW 262100Z AUTO 36002KT 7SM 20/17 A3003 RMK SLP168 T01970167 52002 IEM_DS3505
ZGOW,1995-04-26 23:00,ZGOW 262300Z AUTO 03006KT 5SM 20/16 A3006 RMK SLP178 T02000160 IEM_DS3505
ZGOW,1995-04-27 00:00,ZGOW 270000Z AUTO 09006KT 7SM 22/16 A3006 RMK SLP186 T02220163 52018 IEM_DS3505
ZGOW,1995-04-27 01:00,ZGOW 270100Z AUTO 05004KT 6SM 22/16 A3009 RMK SLP188 T02200160 IEM_DS3505
ZGOW,1995-04-27 02:00,ZGOW 270200Z AUTO 03004KT 6SM 24/17 A3009 RMK SLP188 T02400170 IEM_DS3505
ZGOW,1995-04-27 03:00,ZGOW 270300Z AUTO 11004KT 7SM 26/18 A3009 RMK SLP185 T02560182 57001 IEM_DS3505
ZGOW,1995-04-27 04:00,ZGOW 270400Z AUTO 06006KT 6SM 26/18 A3006 RMK SLP178 T02600180 IEM_DS3505
ZGOW,1995-04-27 06:00,ZGOW 270600Z AUTO 18008KT 10SM 28/19 A2999 RMK SLP155 T02780192 57030 IEM_DS3505
ZGOW,1995-04-27 07:00,ZGOW 270700Z AUTO 10006KT 6SM 26/20 A3000 RMK SLP157 T02600200 IEM_DS3505
ZGOW,1995-04-27 08:00,ZGOW 270800Z AUTO 11008KT 6SM 26/20 A2997 RMK SLP147 T02600200 IEM_DS3505
ZGOW,1995-04-27 09:00,ZGOW 270900Z AUTO 18006KT 9SM 25/19 A2997 RMK SLP142 T02480192 57013 IEM_DS3505
ZGOW,1995-04-27 10:00,ZGOW 271000Z AUTO 12010KT 6SM 24/19 A2997 RMK SLP147 T02400190 IEM_DS3505
ZGOW,1995-04-27 11:00,ZGOW 271100Z AUTO 12008KT 4SM 23/19 A2997 RMK SLP147 T02300190 IEM_DS3505
ZGOW,1995-04-27 12:00,ZGOW 271200Z AUTO 11004KT 6SM 22/20 A2997 RMK SLP151 T02250195 52009 IEM_DS3505
ZGOW,1995-04-27 13:00,ZGOW 271300Z AUTO 00000KT 4SM 22/20 A3000 RMK SLP157 T02200200 IEM_DS3505
ZGOW,1995-04-27 14:00,ZGOW 271400Z AUTO 11006KT 4SM 22/20 A3000 RMK SLP157 T02200200 IEM_DS3505
ZGOW,1995-04-27 15:00,ZGOW 271500Z AUTO 11004KT 6SM 22/20 A3000 RMK SLP160 T02230198 52009 IEM_DS3505
ZGOW,1995-04-27 18:00,ZGOW 271800Z AUTO 04002KT 6SM 22/20 A2998 RMK SLP151 T02190199 57009 IEM_DS3505
ZGOW,1995-04-27 21:00,ZGOW 272100Z AUTO 00000KT 4SM 21/20 A2997 RMK SLP146 T02120200 57005 IEM_DS3505
ZGOW,1995-04-27 23:00,ZGOW 272300Z AUTO 00000KT 4SM 22/19 A3000 RMK SLP157 T02200190 IEM_DS3505
ZGOW,1995-04-28 00:00,ZGOW 280000Z AUTO 04004KT 4SM 24/20 A3003 RMK SLP160 T02430203 52014 IEM_DS3505
ZGOW,1995-04-28 01:00,ZGOW 280100Z AUTO 00000KT 7SM 26/20 A3003 RMK SLP167 T02600200 IEM_DS3505
ZGOW,1995-04-28 02:00,ZGOW 280200Z AUTO 10006KT 7SM 27/21 A3003 RMK SLP167 T02700210 IEM_DS3505
ZGOW,1995-04-28 03:00,ZGOW 280300Z AUTO 16004KT 4SM 28/22 A3003 RMK SLP162 T02780217 52002 IEM_DS3505
ZGOW,1995-04-28 06:00,ZGOW 280600Z AUTO 18006KT 9SM 28/21 A2997 RMK SLP146 T02840211 57016 IEM_DS3505
ZGOW,1995-04-28 07:00,ZGOW 280700Z AUTO 09010KT 6SM 27/22 A2997 RMK SLP147 T02700220 IEM_DS3505
ZGOW,1995-04-28 08:00,ZGOW 280800Z AUTO 09010KT 6SM 27/22 A2994 RMK SLP137 T02700220 IEM_DS3505
ZGOW,1995-04-28 09:00,ZGOW 280900Z AUTO 18004KT 9SM 27/21 A2994 RMK SLP126 T02700213 57020 IEM_DS3505
ZGOW,1995-04-28 12:00,ZGOW 281200Z AUTO 14004KT 7SM 24/21 A2994 RMK SLP136 T02350211 52010 IEM_DS3505
ZGOW,1995-04-28 13:00,ZGOW 281300Z AUTO 13006KT 1 1/2SM 22/21 A2994 RMK SLP137 T02200210 IEM_DS3505
ZGOW,1995-04-28 14:00,ZGOW 281400Z AUTO 12004KT 1SM 22/21 A2997 RMK SLP147 T02200210 IEM_DS3505
ZGOW,1995-04-28 15:00,ZGOW 281500Z AUTO 20004KT 5SM 22/21 A2997 RMK SLP147 T02200209 52011 IEM_DS3505
ZGOW,1995-04-28 18:00,ZGOW 281800Z AUTO 00000KT 4SM 22/21 A2993 RMK SLP134 T02200211 57013 IEM_DS3505
ZGOW,1995-04-28 21:00,ZGOW 282100Z AUTO 04004KT 4SM 22/21 A2994 RMK SLP133 T02250213 57001 IEM_DS3505
ZGOW,1995-04-28 22:00,ZGOW 282200Z AUTO 00000KT 1 1/2SM 23/21 A2994 RMK SLP137 T02300210 IEM_DS3505
ZGOW,1995-04-28 23:00,ZGOW 282300Z AUTO 00000KT 1 1/2SM 23/21 A2994 RMK SLP137 T02300210 IEM_DS3505
ZGOW,1995-04-29 00:00,ZGOW 290000Z AUTO 36004KT 6SM 24/21 A2994 RMK SLP144 T02380214 52011 IEM_DS3505
ZGOW,1995-04-29 01:00,ZGOW 290100Z AUTO 00000KT 2 1/2SM 25/21 A2994 RMK SLP137 T02500210 IEM_DS3505
ZGOW,1995-04-29 02:00,ZGOW 290200Z AUTO 00000KT 4SM 26/21 A2997 RMK SLP147 T02600210 IEM_DS3505
ZGOW,1995-04-29 03:00,ZGOW 290300Z AUTO 25002KT 8SM 27/22 A2997 RMK SLP144 T02710218 54000 IEM_DS3505
ZGOW,1995-04-29 06:00,ZGOW 290600Z AUTO 18006KT 7SM 29/22 A2988 RMK SLP116 T02920223 57028 IEM_DS3505
ZGOW,1995-04-29 07:00,ZGOW 290700Z AUTO 10010KT 4SM 28/22 A2985 RMK SLP107 T02800220 IEM_DS3505
ZGOW,1995-04-29 08:00,ZGOW 290800Z AUTO 10012KT 5SM 27/22 A2985 RMK SLP107 T02700220 IEM_DS3505
ZGOW,1995-04-29 09:00,ZGOW 290900Z AUTO 14006KT 8SM 27/22 A2983 RMK SLP098 T02680221 57018 IEM_DS3505
ZGOW,1995-04-29 12:00,ZGOW 291200Z AUTO 18008KT 7SM 25/22 A2985 RMK SLP110 T02480223 52012 IEM_DS3505
ZGOW,1995-04-29 13:00,ZGOW 291300Z AUTO 14006KT 4SM 24/22 A2988 RMK SLP117 T02400220 IEM_DS3505
ZGOW,1995-04-29 14:00,ZGOW 291400Z AUTO 14006KT 4SM 24/22 A2988 RMK SLP117 T02400220 IEM_DS3505
ZGOW,1995-04-29 15:00,ZGOW 291500Z AUTO 20006KT 5SM 24/23 A2990 RMK SLP122 T02410228 52012 IEM_DS3505
ZGOW,1995-04-29 18:00,ZGOW 291800Z AUTO 00000KT 5SM 24/22 A2986 RMK SLP109 T02400225 57013 IEM_DS3505
ZGOW,1995-04-29 21:00,ZGOW 292100Z AUTO 25004KT 3SM 24/22 A2985 RMK SLP100 T02360220 57009 IEM_DS3505
ZGOW,1995-04-29 22:00,ZGOW 292200Z AUTO 15002KT 1 1/4SM 23/22 A2985 RMK SLP107 T02300220 IEM_DS3505
ZGOW,1995-04-29 23:00,ZGOW 292300Z AUTO 00000KT 2 1/2SM 24/23 A2985 RMK SLP107 T02400230 IEM_DS3505
ZGOW,1995-04-30 00:00,ZGOW 300000Z AUTO 27004KT 5SM 26/22 A2985 RMK SLP113 T02560224 52013 IEM_DS3505
ZGOW,1995-04-30 01:00,ZGOW 300100Z AUTO 22004KT 4SM 26/21 A2988 RMK SLP117 T02600210 IEM_DS3505
ZGOW,1995-04-30 03:00,ZGOW 300300Z AUTO 18006KT 6SM 29/23 A2986 RMK SLP109 T02900226 57004 IEM_DS3505
ZGOW,1995-04-30 04:00,ZGOW 300400Z AUTO 15006KT 7SM 30/23 A2985 RMK SLP107 T03000230 IEM_DS3505
ZGOW,1995-04-30 06:00,ZGOW 300600Z AUTO 16012KT 6SM 31/23 A2983 RMK SLP100 T03100230 IEM_DS3505
ZGOW,1995-04-30 07:00,ZGOW 300700Z AUTO 16012KT 6SM 30/24 A2980 RMK SLP090 T03000240 IEM_DS3505
ZGOW,1995-04-30 08:00,ZGOW 300800Z AUTO 16012KT 6SM 30/24 A2980 RMK SLP090 T03000240 IEM_DS3505
ZGOW,1995-04-30 09:00,ZGOW 300900Z AUTO 22016KT 11SM 30/21 A2980 RMK SLP089 T03010207 57002 IEM_DS3505
ZGOW,1995-04-30 12:00,ZGOW 301200Z AUTO 20008KT 9SM 26/22 A2979 RMK SLP085 T02650216 57004 IEM_DS3505
ZGOW,1995-04-30 14:00,ZGOW 301400Z AUTO 00000KT 7SM 25/22 A2983 RMK SLP100 T02500220 IEM_DS3505
ZGOW,1995-04-30 15:00,ZGOW 301500Z AUTO 25006KT 9SM 25/22 A2985 RMK SLP106 T02540223 52021 IEM_DS3505
ZGOW,1995-04-30 18:00,ZGOW 301800Z AUTO 25006KT 7SM 25/23 A2982 RMK SLP097 T02480226 57009 IEM_DS3505
ZGOW,1995-04-30 21:00,ZGOW 302100Z AUTO 29004KT 6SM 24/22 A2980 RMK SLP101 T02420224 52004 IEM_DS3505
ZGOW,1995-04-30 22:00,ZGOW 302200Z AUTO 00000KT 1 1/2SM 23/22 A2983 RMK SLP100 T02300220 IEM_DS3505
ZGOW,1995-04-30 23:00,ZGOW 302300Z AUTO 00000KT 1 1/2SM 24/23 A2983 RMK SLP100 T02400230 IEM_DS3505
ZGOW,1995-05-01 00:00,ZGOW 010000Z AUTO 29004KT 5SM 23/ A2987 RMK SLP118 52017 IEM_DS3505
ZGOW,1995-05-01 01:00,ZGOW 010100Z AUTO 24008KT 4SM 28/22 A2988 RMK SLP122 T02800220 IEM_DS3505
ZGOW,1995-05-01 02:00,ZGOW 010200Z AUTO 22008KT 7SM 29/21 A2988 RMK SLP122 T02900210 IEM_DS3505
ZGOW,1995-05-01 03:00,ZGOW 010300Z AUTO 27008KT 8SM 30/21 A2990 RMK SLP128 T02950207 52010 IEM_DS3505
ZGOW,1995-05-01 06:00,ZGOW 010600Z AUTO 16006KT 11SM 31/23 A2983 RMK SLP103 T03120227 57025 IEM_DS3505
ZGOW,1995-05-01 07:00,ZGOW 010700Z AUTO 15012KT 7SM 31/22 A2983 RMK SLP105 T03100220 IEM_DS3505
ZGOW,1995-05-01 08:00,ZGOW 010800Z AUTO 15012KT 7SM 31/23 A2983 RMK SLP105 T03100230 IEM_DS3505
ZGOW,1995-05-01 09:00,ZGOW 010900Z AUTO 18010KT 9SM 30/23 A2983 RMK SLP096 T02960229 57007 IEM_DS3505
ZGOW,1995-05-01 10:00,ZGOW 011000Z AUTO 17012KT 6SM 28/21 A2983 RMK SLP105 T02800210 IEM_DS3505
ZGOW,1995-05-01 12:00,ZGOW 011200Z AUTO 25004KT 9SM 27/24 A2985 RMK SLP113 T02700235 52017 IEM_DS3505
ZGOW,1995-05-01 13:00,ZGOW 011300Z AUTO 00000KT 6SM 26/24 A2985 RMK SLP111 T02600240 IEM_DS3505
ZGOW,1995-05-01 14:00,ZGOW 011400Z AUTO 00000KT 6SM 26/24 A2988 RMK SLP122 T02600240 IEM_DS3505
ZGOW,1995-05-01 15:00,ZGOW 011500Z AUTO 20004KT 8SM 26/24 A2988 RMK SLP128 T02600237 52015 IEM_DS3505
ZGOW,1995-05-01 18:00,ZGOW 011800Z AUTO 22004KT 7SM 25/24 A2988 RMK SLP122 T02540238 57006 IEM_DS3505
ZGOW,1995-05-01 21:00,ZGOW 012100Z AUTO 04004KT 2 1/2SM 25/24 A2988 RMK SLP120 T02500241 57002 IEM_DS3505
ZGOW,1995-05-01 22:00,ZGOW 012200Z AUTO 03004KT 1SM 24/24 A2988 RMK SLP122 T02400240 IEM_DS3505
ZGOW,1995-05-01 23:00,ZGOW 012300Z AUTO 00000KT 1 1/2SM 24/23 A2991 RMK SLP132 T02400230 IEM_DS3505
ZGOW,1995-05-02 00:00,ZGOW 020000Z AUTO 14004KT 6SM 24/23 A2991 RMK SLP139 T02440234 52019 IEM_DS3505
ZGOW,1995-05-02 02:00,ZGOW 020200Z AUTO 07008KT 2 1/2SM 25/23 A2997 RMK SLP152 T02500230 IEM_DS3505
ZGOW,1995-05-02 03:00,ZGOW 020300Z AUTO 11006KT 8SM 27/23 A2997 RMK SLP148 T02720234 52009 IEM_DS3505
ZGOW,1995-05-02 06:00,ZGOW 020600Z AUTO 14006KT 9SM 27/23 A2991 RMK SLP133 T02740232 57015 IEM_DS3505
ZGOW,1995-05-02 07:00,ZGOW 020700Z AUTO 10012KT 7SM 27/23 A2991 RMK SLP132 T02700230 IEM_DS3505
ZGOW,1995-05-02 08:00,ZGOW 020800Z AUTO 12014KT 2 1/2SM 25/22 A2988 RMK SLP122 T02500220 IEM_DS3505
ZGOW,1995-05-02 09:00,ZGOW 020900Z AUTO 14004KT 5SM 24/22 A2987 RMK SLP119 T02380219 57014 IEM_DS3505
ZGOW,1995-05-02 10:00,ZGOW 021000Z AUTO 12010KT 3/8SM 23/22 A2988 RMK SLP122 T02300220 IEM_DS3505
ZGOW,1995-05-02 12:00,ZGOW 021200Z AUTO 11004KT 4SM 22/22 A2991 RMK SLP129 T02220216 52010 IEM_DS3505
ZGOW,1995-05-02 13:00,ZGOW 021300Z AUTO 12004KT 1/4SM 22/22 A2991 RMK SLP132 T02200220 IEM_DS3505
ZGOW,1995-05-02 14:00,ZGOW 021400Z AUTO 00000KT 1/4SM 22/21 A2991 RMK SLP132 T02200210 IEM_DS3505
ZGOW,1995-05-02 15:00,ZGOW 021500Z AUTO 07004KT 4SM 23/21 A2994 RMK SLP141 T02280214 52012 IEM_DS3505
ZGOW,1995-05-02 18:00,ZGOW 021800Z AUTO 11002KT 3SM 23/22 A2999 RMK SLP158 T02300218 57010 IEM_DS3505
ZGOW,1995-05-02 21:00,ZGOW 022100Z AUTO 07004KT 2SM 24/22 A2991 RMK SLP130 T02360223 57001 IEM_DS3505
ZGOW,1995-05-02 22:00,ZGOW 022200Z AUTO 13004KT 1 1/2SM 24/22 A2991 RMK SLP132 T02400220 IEM_DS3505
ZGOW,1995-05-02 23:00,ZGOW 022300Z AUTO 00000KT 1 1/2SM 24/22 A2991 RMK SLP132 T02400220 IEM_DS3505
ZGOW,1995-05-03 00:00,ZGOW 030000Z AUTO 07002KT 4SM 25/23 A2994 RMK SLP144 T02540226 52014 IEM_DS3505
ZGOW,1995-05-03 02:00,ZGOW 030200Z AUTO 10006KT 4SM 28/23 A2994 RMK SLP142 T02800230 IEM_DS3505
ZGOW,1995-05-03 03:00,ZGOW 030300Z AUTO 18004KT 6SM 28/22 A2994 RMK SLP135 T02820220 57009 IEM_DS3505
ZGOW,1995-05-03 04:00,ZGOW 030400Z AUTO 12008KT 7SM 30/22 A2991 RMK SLP132 T03000220 IEM_DS3505
ZGOW,1995-05-03 06:00,ZGOW 030600Z AUTO 18006KT 8SM 28/21 A2985 RMK SLP114 T02850212 57021 IEM_DS3505
ZGOW,1995-05-03 07:00,ZGOW 030700Z AUTO 10008KT 6SM 28/22 A2983 RMK SLP105 T02800220 IEM_DS3505
ZGOW,1995-05-03 08:00,ZGOW 030800Z AUTO 13010KT 7SM 27/23 A2983 RMK SLP105 T02700230 IEM_DS3505
ZGOW,1995-05-03 09:00,ZGOW 030900Z AUTO 18004KT 9SM 27/22 A2983 RMK SLP097 T02710219 57017 IEM_DS3505
ZGOW,1995-05-03 10:00,ZGOW 031000Z AUTO 14004KT 7SM 26/22 A2983 RMK SLP105 T02600220 IEM_DS3505
ZGOW,1995-05-03 12:00,ZGOW 031200Z AUTO 00000KT 7SM 26/22 A2988 RMK SLP123 T02560224 52026 IEM_DS3505
ZGOW,1995-05-03 14:00,ZGOW 031400Z AUTO 05012KT 7SM 23/21 A2991 RMK SLP132 T02300210 IEM_DS3505
ZGOW,1995-05-03 15:00,ZGOW 031500Z AUTO 04008KT 6SM 23/20 A2993 RMK SLP138 T02290203 52015 IEM_DS3505
ZGOW,1995-05-03 18:00,ZGOW 031800Z AUTO 09008KT 6SM 21/19 A2990 RMK SLP129 T02130186 57009 IEM_DS3505
ZGOW,1995-05-03 21:00,ZGOW 032100Z AUTO 07006KT 8SM 21/18 A2987 RMK SLP119 T02080182 57010 IEM_DS3505
ZGOW,1995-05-03 22:00,ZGOW 032200Z AUTO 05012KT 7SM 20/18 A2988 RMK SLP122 T02000180 IEM_DS3505
ZGOW,1995-05-03 23:00,ZGOW 032300Z AUTO 05012KT 7SM 21/18 A2988 RMK SLP122 T02100180 IEM_DS3505
ZGOW,1995-05-04 00:00,ZGOW 040000Z AUTO 04006KT 9SM 21/18 A2992 RMK SLP135 T02110182 52016 IEM_DS3505
ZGOW,1995-05-04 01:00,ZGOW 040100Z AUTO 05012KT 7SM 22/18 A2991 RMK SLP132 T02200180 IEM_DS3505
ZGOW,1995-05-04 03:00,ZGOW 040300Z AUTO 04006KT 9SM 23/18 A2991 RMK SLP134 T02280185 57001 IEM_DS3505
ZGOW,1995-05-04 04:00,ZGOW 040400Z AUTO 06012KT 7SM 23/18 A2991 RMK SLP132 T02300180 IEM_DS3505
ZGOW,1995-05-04 06:00,ZGOW 040600Z AUTO 09008KT 11SM 22/18 A2988 RMK SLP121 T02230183 57013 IEM_DS3505
ZGOW,1995-05-04 08:00,ZGOW 040800Z AUTO 01008KT 7SM 21/19 A2988 RMK SLP122 T02100190 IEM_DS3505
ZGOW,1995-05-04 09:00,ZGOW 040900Z AUTO 11006KT 4SM 20/19 A2988 RMK SLP121 T02020193 54000 IEM_DS3505
ZGOW,1995-05-04 12:00,ZGOW 041200Z AUTO 14006KT 5SM 20/18 A2991 RMK 60016 SLP132 T01960183 52011 IEM_DS3505
ZGOW,1995-05-04 13:00,ZGOW 041300Z AUTO 05012KT 7SM 20/18 A2991 RMK SLP132 T02000180 IEM_DS3505
ZGOW,1995-05-04 14:00,ZGOW 041400Z AUTO 05012KT 7SM 19/18 A2994 RMK SLP142 T01900180 IEM_DS3505
ZGOW,1995-05-04 15:00,ZGOW 041500Z AUTO 09006KT 6SM 19/17 A2994 RMK SLP142 T01930172 52010 IEM_DS3505
ZGOW,1995-05-04 18:00,ZGOW 041800Z AUTO 07006KT 7SM 19/17 A2992 RMK SLP134 T01920167 57008 IEM_DS3505
ZGOW,1995-05-04 21:00,ZGOW 042100Z AUTO 09006KT 9SM 19/14 A2994 RMK 70016 SLP138 T01920144 52004 IEM_DS3505
ZGOW,1995-05-04 22:00,ZGOW 042200Z AUTO 02006KT 7SM 19/16 A2994 RMK SLP142 T01900160 IEM_DS3505
ZGOW,1995-05-04 23:00,ZGOW 042300Z AUTO 05006KT 7SM 20/15 A2997 RMK SLP152 T02000150 IEM_DS3505
ZGOW,1995-05-05 00:00,ZGOW 050000Z AUTO 11006KT 14SM 20/16 A2997 RMK 70016 SLP160 T01980156 52022 IEM_DS3505
ZGOW,1995-05-05 01:00,ZGOW 050100Z AUTO 05008KT 7SM 21/14 A3000 RMK SLP162 T02100140 IEM_DS3505
ZGOW,1995-05-05 02:00,ZGOW 050200Z AUTO 04006KT 6SM 22/14 A2997 RMK SLP152 T02200140 IEM_DS3505
ZGOW,1995-05-05 03:00,ZGOW 050300Z AUTO 09010KT 16SM 22/13 A2998 RMK SLP156 T02230133 57004 IEM_DS3505
ZGOW,1995-05-05 06:00,ZGOW 050600Z AUTO 09008KT 15SM 24/12 A2994 RMK SLP141 T02410120 57015 IEM_DS3505
ZGOW,1995-05-05 07:00,ZGOW 050700Z AUTO 06010KT 6SM 24/12 A2991 RMK SLP132 T02400120 IEM_DS3505
ZGOW,1995-05-05 08:00,ZGOW 050800Z AUTO 06006KT 6SM 24/13 A2991 RMK SLP132 T02400130 IEM_DS3505
ZGOW,1995-05-05 09:00,ZGOW 050900Z AUTO 09006KT 11SM 23/11 A2991 RMK SLP135 T02280107 57006 IEM_DS3505
ZGOW,1995-05-05 12:00,ZGOW 051200Z AUTO 09004KT 9SM 21/12 A2994 RMK SLP146 T02090118 52011 IEM_DS3505
ZGOW,1995-05-05 13:00,ZGOW 051300Z AUTO 05008KT 6SM 21/14 A2994 RMK SLP142 T02100140 IEM_DS3505
ZGOW,1995-05-05 14:00,ZGOW 051400Z AUTO 03006KT 6SM 21/14 A2997 RMK SLP152 T02100140 IEM_DS3505
ZGOW,1995-05-05 15:00,ZGOW 051500Z AUTO 09006KT 9SM 21/14 A2998 RMK SLP156 T02060137 52010 IEM_DS3505
ZGOW,1995-05-05 18:00,ZGOW 051800Z AUTO 04002KT 7SM 19/15 A2993 RMK SLP140 T01880147 57016 IEM_DS3505
ZGOW,1995-05-05 21:00,ZGOW 052100Z AUTO 04002KT 6SM 18/14 A2994 RMK SLP141 T01780145 52001 IEM_DS3505
ZGOW,1995-05-05 22:00,ZGOW 052200Z AUTO 00000KT 6SM 17/14 A2994 RMK SLP143 T01700140 IEM_DS3505
ZGOW,1995-05-05 23:00,ZGOW 052300Z AUTO 00000KT 7SM 19/14 A2994 RMK SLP142 T01900140 IEM_DS3505
ZGOW,1995-05-06 00:00,ZGOW 060000Z AUTO 02002KT 7SM 20/15 A2997 RMK SLP153 T02050153 52012 IEM_DS3505
ZGOW,1995-05-06 01:00,ZGOW 060100Z AUTO 01006KT 6SM 22/13 A2997 RMK SLP152 T02200130 IEM_DS3505
ZGOW,1995-05-06 02:00,ZGOW 060200Z AUTO 07006KT 7SM 24/12 A2997 RMK SLP152 T02400120 IEM_DS3505
ZGOW,1995-05-06 03:00,ZGOW 060300Z AUTO 22002KT 10SM 25/14 A2997 RMK SLP155 T02490143 52002 IEM_DS3505
ZGOW,1995-05-06 06:00,ZGOW 060600Z AUTO 16004KT 12SM 26/15 A2994 RMK SLP133 T02600149 57022 IEM_DS3505
ZGOW,1995-05-06 07:00,ZGOW 060700Z AUTO 10010KT 6SM 26/15 A2991 RMK SLP132 T02600150 IEM_DS3505
ZGOW,1995-05-06 08:00,ZGOW 060800Z AUTO 09012KT 6SM 25/14 A2988 RMK SLP122 T02500140 IEM_DS3505
ZGOW,1995-05-06 09:00,ZGOW 060900Z AUTO 16004KT 9SM 24/14 A2991 RMK SLP122 T02430138 57011 IEM_DS3505
ZGOW,1995-05-06 10:00,ZGOW 061000Z AUTO 12006KT 6SM 24/14 A2988 RMK SLP122 T02400140 IEM_DS3505
ZGOW,1995-05-06 11:00,ZGOW 061100Z AUTO 12006KT 6SM 22/15 A2991 RMK SLP132 T02200150 IEM_DS3505
ZGOW,1995-05-06 12:00,ZGOW 061200Z AUTO 14004KT 9SM 22/15 A2991 RMK SLP133 T02250153 52011 IEM_DS3505
ZGOW,1995-05-06 13:00,ZGOW 061300Z AUTO 09004KT 6SM 21/18 A2991 RMK SLP132 T02100180 IEM_DS3505
ZGOW,1995-05-06 14:00,ZGOW 061400Z AUTO 10004KT 6SM 21/18 A2994 RMK SLP142 T02100180 IEM_DS3505
ZGOW,1995-05-06 15:00,ZGOW 061500Z AUTO 09004KT 8SM 22/17 A2992 RMK SLP134 T02210173 52001 IEM_DS3505
ZGOW,1995-05-06 18:00,ZGOW 061800Z AUTO 09004KT 7SM 21/18 A2989 RMK SLP124 T02120177 57010 IEM_DS3505
ZGOW,1995-05-06 21:00,ZGOW 062100Z AUTO 04004KT 5SM 20/18 A2988 RMK SLP129 T02050178 52005 IEM_DS3505
ZGOW,1995-05-06 22:00,ZGOW 062200Z AUTO 00000KT 2 1/2SM 21/19 A2991 RMK SLP132 T02100190 IEM_DS3505
ZGOW,1995-05-06 23:00,ZGOW 062300Z AUTO 00000KT 5SM 21/18 A2991 RMK SLP132 T02100180 IEM_DS3505
ZGOW,1995-05-07 00:00,ZGOW 070000Z AUTO 36002KT 5SM 22/18 A2994 RMK SLP149 T02150182 52020 IEM_DS3505
ZGOW,1995-05-07 01:00,ZGOW 070100Z AUTO 32004KT 4SM 21/18 A2997 RMK SLP152 T02100180 IEM_DS3505
ZGOW,1995-05-07 02:00,ZGOW 070200Z AUTO 30004KT 4SM 22/18 A2997 RMK SLP152 T02200180 IEM_DS3505
ZGOW,1995-05-07 03:00,ZGOW 070300Z AUTO 04006KT 5SM 22/17 A2997 RMK SLP148 T02210171 57001 IEM_DS3505
ZGOW,1995-05-07 04:00,ZGOW 070400Z AUTO 35006KT 4SM 23/17 A2994 RMK SLP142 T02300170 IEM_DS3505
ZGOW,1995-05-07 06:00,ZGOW 070600Z AUTO 04004KT 6SM 23/19 A2994 RMK 60002 SLP137 T02300188 57011 IEM_DS3505
ZGOW,1995-05-07 07:00,ZGOW 070700Z AUTO 00000KT 4SM 23/19 A2991 RMK SLP132 T02300190 IEM_DS3505
ZGOW,1995-05-07 08:00,ZGOW 070800Z AUTO 26004KT 4SM 23/19 A2991 RMK SLP132 T02300190 IEM_DS3505
ZGOW,1995-05-07 09:00,ZGOW 070900Z AUTO 25002KT 5SM 23/19 A2991 RMK SLP131 T02320193 57006 IEM_DS3505
ZGOW,1995-05-07 10:00,ZGOW 071000Z AUTO 10004KT 3SM 23/19 A2991 RMK SLP132 T02300190 IEM_DS3505
ZGOW,1995-05-07 11:00,ZGOW 071100Z AUTO 00000KT 4SM 22/19 A2994 RMK SLP142 T02200190 IEM_DS3505
ZGOW,1995-05-07 12:00,ZGOW 071200Z AUTO 04002KT 4SM 22/19 A2994 RMK SLP139 T02210190 52008 IEM_DS3505
ZGOW,1995-05-07 13:00,ZGOW 071300Z AUTO 00000KT 6SM 21/20 A2994 RMK SLP142 T02100200 IEM_DS3505
ZGOW,1995-05-07 15:00,ZGOW 071500Z AUTO 09004KT 5SM 21/19 A2994 RMK SLP141 T02130186 52002 IEM_DS3505
ZGOW,1995-05-07 18:00,ZGOW 071800Z AUTO 07004KT 5SM 21/18 A2990 RMK SLP127 T02060184 57014 IEM_DS3505
ZGOW,1995-05-07 21:00,ZGOW 072100Z AUTO 00000KT 6SM 20/19 A2991 RMK 70002 SLP130 T02050194 52003 IEM_DS3505
ZGOW,1995-05-07 23:00,ZGOW 072300Z AUTO 00000KT 1SM 21/19 A2991 RMK SLP132 T02100190 IEM_DS3505
ZGOW,1995-05-08 00:00,ZGOW 080000Z AUTO 04004KT 2SM 22/20 A2994 RMK 70002 SLP141 T02180201 52011 IEM_DS3505
ZGOW,1995-05-08 01:00,ZGOW 080100Z AUTO 09004KT 2 1/2SM 23/19 A2994 RMK SLP142 T02300190 IEM_DS3505
ZGOW,1995-05-08 02:00,ZGOW 080200Z AUTO 00000KT 2 1/2SM 23/19 A2994 RMK SLP142 T02300190 IEM_DS3505
ZGOW,1995-05-08 03:00,ZGOW 080300Z AUTO 14002KT 2 1/2SM 24/19 A2994 RMK SLP140 T02370189 57001 IEM_DS3505
ZGOW,1995-05-08 04:00,ZGOW 080400Z AUTO 07004KT 4SM 25/19 A2994 RMK SLP142 T02500190 IEM_DS3505
ZGOW,1995-05-08 06:00,ZGOW 080600Z AUTO 12010KT 6SM 26/20 A2988 RMK SLP122 T02600200 IEM_DS3505
ZGOW,1995-05-08 08:00,ZGOW 080800Z AUTO 12012KT 6SM 25/19 A2985 RMK SLP111 T02500190 IEM_DS3505
ZGOW,1995-05-08 09:00,ZGOW 080900Z AUTO 14006KT 6SM 24/18 A2986 RMK SLP114 T02410177 57009 IEM_DS3505
ZGOW,1995-05-08 12:00,ZGOW 081200Z AUTO 11004KT 6SM 22/18 A2985 RMK SLP116 T02230175 52002 IEM_DS3505
ZGOW,1995-05-08 15:00,ZGOW 081500Z AUTO 07002KT 6SM 21/19 A2989 RMK SLP126 T02120187 52010 IEM_DS3505
ZGOW,1995-05-08 18:00,ZGOW 081800Z AUTO 04002KT 4SM 20/19 A2985 RMK SLP113 T01990186 57013 IEM_DS3505
ZGOW,1995-05-08 21:00,ZGOW 082100Z AUTO 04004KT 5SM 19/17 A2985 RMK SLP109 T01920169 57004 IEM_DS3505
ZGOW,1995-05-08 22:00,ZGOW 082200Z AUTO 00000KT 2 1/2SM 19/17 A2985 RMK SLP111 T01900170 IEM_DS3505
ZGOW,1995-05-09 00:00,ZGOW 090000Z AUTO 04002KT 4SM 21/16 A2985 RMK SLP122 T02100164 52013 IEM_DS3505
ZGOW,1995-05-09 01:00,ZGOW 090100Z AUTO 00000KT 6SM 22/17 A2988 RMK SLP122 T02200170 IEM_DS3505
ZGOW,1995-05-09 02:00,ZGOW 090200Z AUTO 01004KT 6SM 24/16 A2985 RMK SLP111 T02400160 IEM_DS3505
ZGOW,1995-05-09 03:00,ZGOW 090300Z AUTO 02006KT 6SM 25/16 A2985 RMK SLP120 T02460163 57002 IEM_DS3505
ZGOW,1995-05-09 04:00,ZGOW 090400Z AUTO 06006KT 6SM 26/17 A2985 RMK SLP111 T02600170 IEM_DS3505
ZGOW,1995-05-09 06:00,ZGOW 090600Z AUTO 18008KT 16SM 25/18 A2983 RMK SLP104 T02480180 57016 IEM_DS3505
ZGOW,1995-05-09 07:00,ZGOW 090700Z AUTO 10010KT 6SM 25/18 A2983 RMK SLP105 T02500180 IEM_DS3505
ZGOW,1995-05-09 08:00,ZGOW 090800Z AUTO 12014KT 6SM 24/19 A2983 RMK SLP105 T02400190 IEM_DS3505
ZGOW,1995-05-09 09:00,ZGOW 090900Z AUTO 14006KT 11SM 23/19 A2980 RMK SLP097 T02320192 57007 IEM_DS3505
ZGOW,1995-05-09 10:00,ZGOW 091000Z AUTO 09006KT 7SM 23/19 A2980 RMK SLP094 T02300190 IEM_DS3505
ZGOW,1995-05-09 12:00,ZGOW 091200Z AUTO 14004KT 7SM 23/20 A2983 RMK SLP110 T02270201 52013 IEM_DS3505
ZGOW,1995-05-09 13:00,ZGOW 091300Z AUTO 00000KT 3SM 22/20 A2985 RMK SLP111 T02200200 IEM_DS3505
ZGOW,1995-05-09 14:00,ZGOW 091400Z AUTO 00000KT 3SM 22/20 A2985 RMK SLP111 T02200200 IEM_DS3505
ZGOW,1995-05-09 15:00,ZGOW 091500Z AUTO 36002KT 5SM 21/20 A2986 RMK SLP114 T02140202 52004 IEM_DS3505
ZGOW,1995-05-09 18:00,ZGOW 091800Z AUTO 04004KT 2 1/2SM 21/20 A2984 RMK SLP109 T02060195 57005 IEM_DS3505
ZGOW,1995-05-09 21:00,ZGOW 092100Z AUTO 04004KT 2SM 19/18 A2983 RMK SLP111 T01930180 52002 IEM_DS3505
ZGOW,1995-05-09 22:00,ZGOW 092200Z AUTO 00000KT 2 1/2SM 19/17 A2985 RMK SLP111 T01900170 IEM_DS3505
ZGOW,1995-05-09 23:00,ZGOW 092300Z AUTO 00000KT 2 1/2SM 20/18 A2988 RMK SLP122 T02000180 IEM_DS3505
ZGOW,1995-05-10 00:00,ZGOW 100000Z AUTO 00000KT 5SM 22/18 A2988 RMK SLP126 T02150185 52015 IEM_DS3505
ZGOW,1995-05-10 02:00,ZGOW 100200Z AUTO 00000KT 6SM 26/18 A2988 RMK SLP122 T02600180 IEM_DS3505
ZGOW,1995-05-10 03:00,ZGOW 100300Z AUTO 04006KT 5SM 28/16 A2988 RMK SLP121 T02750163 57005 IEM_DS3505
ZGOW,1995-05-10 04:00,ZGOW 100400Z AUTO 12008KT 6SM 28/17 A2985 RMK SLP111 T02800170 IEM_DS3505
ZGOW,1995-05-10 06:00,ZGOW 100600Z AUTO 18006KT 8SM 28/11 A2985 RMK SLP108 T02760113 57013 IEM_DS3505
ZGOW,1995-05-10 07:00,ZGOW 100700Z AUTO 12012KT 6SM 28/18 A2983 RMK SLP105 T02800180 IEM_DS3505
ZGOW,1995-05-10 08:00,ZGOW 100800Z AUTO 12010KT 6SM 27/17 A2983 RMK SLP105 T02700170 IEM_DS3505
ZGOW,1995-05-10 09:00,ZGOW 100900Z AUTO 18004KT 7SM 27/19 A2983 RMK SLP099 T02660194 57009 IEM_DS3505
ZGOW,1995-05-10 10:00,ZGOW 101000Z AUTO 12008KT 6SM 25/19 A2983 RMK SLP105 T02500190 IEM_DS3505
ZGOW,1995-05-10 12:00,ZGOW 101200Z AUTO 20004KT 7SM 24/17 A2985 RMK SLP115 T02350172 52016 IEM_DS3505
ZGOW,1995-05-10 13:00,ZGOW 101300Z AUTO 00000KT 6SM 23/20 A2988 RMK SLP122 T02300200 IEM_DS3505
ZGOW,1995-05-10 14:00,ZGOW 101400Z AUTO 00000KT 2 1/2SM 22/20 A2988 RMK SLP122 T02200200 IEM_DS3505
ZGOW,1995-05-10 15:00,ZGOW 101500Z AUTO 07004KT 4SM 23/20 A2992 RMK SLP134 T02300204 52019 IEM_DS3505
ZGOW,1995-05-10 18:00,ZGOW 101800Z AUTO 09008KT 5SM 22/19 A2990 RMK SLP129 T02200192 57005 IEM_DS3505
ZGOW,1995-05-10 21:00,ZGOW 102100Z AUTO 09006KT 4SM 21/17 A2988 RMK SLP135 T02130174 52006 IEM_DS3505
ZGOW,1995-05-10 22:00,ZGOW 102200Z AUTO 06012KT 7SM 21/16 A2994 RMK SLP142 T02100160 IEM_DS3505
ZGOW,1995-05-11 00:00,ZGOW 110000Z AUTO 07006KT 7SM 22/17 A2997 RMK SLP159 T02210173 52024 IEM_DS3505
ZGOW,1995-05-11 01:00,ZGOW 110100Z AUTO 04014KT 7SM 23/17 A3000 RMK SLP162 T02300170 IEM_DS3505
ZGOW,1995-05-11 02:00,ZGOW 110200Z AUTO 03010KT 7SM 23/16 A3000 RMK SLP162 T02300160 IEM_DS3505
ZGOW,1995-05-11 03:00,ZGOW 110300Z AUTO 04010KT 9SM 24/17 A2997 RMK SLP157 T02370167 57002 IEM_DS3505
ZGOW,1995-05-11 06:00,ZGOW 110600Z AUTO 14004KT 9SM 25/15 A2991 RMK SLP133 T02500147 57024 IEM_DS3505
ZGOW,1995-05-11 07:00,ZGOW 110700Z AUTO 06006KT 6SM 25/17 A2991 RMK SLP132 T02500170 IEM_DS3505
ZGOW,1995-05-11 08:00,ZGOW 110800Z AUTO 05010KT 7SM 24/14 A2988 RMK SLP122 T02400140 IEM_DS3505
ZGOW,1995-05-11 09:00,ZGOW 110900Z AUTO 14004KT 7SM 24/16 A2988 RMK SLP121 T02370162 57012 IEM_DS3505
ZGOW,1995-05-11 10:00,ZGOW 111000Z AUTO 04010KT 7SM 24/15 A2991 RMK SLP132 T02400150 IEM_DS3505
ZGOW,1995-05-11 12:00,ZGOW 111200Z AUTO 07008KT 6SM 22/17 A2994 RMK SLP139 T02240171 52018 IEM_DS3505
ZGOW,1995-05-11 13:00,ZGOW 111300Z AUTO 04008KT 7SM 22/18 A2994 RMK SLP142 T02200180 IEM_DS3505
ZGOW,1995-05-11 15:00,ZGOW 111500Z AUTO 07006KT 6SM 22/18 A2995 RMK SLP144 T02170177 52005 IEM_DS3505
ZGOW,1995-05-11 18:00,ZGOW 111800Z AUTO 04006KT 6SM 21/17 A2991 RMK SLP130 T02140174 57014 IEM_DS3505
ZGOW,1995-05-11 21:00,ZGOW 112100Z AUTO 04004KT 7SM 21/17 A2989 RMK SLP125 T02130171 57001 IEM_DS3505
ZGOW,1995-05-11 22:00,ZGOW 112200Z AUTO 02006KT 7SM 21/17 A2991 RMK SLP132 T02100170 IEM_DS3505
ZGOW,1995-05-11 23:00,ZGOW 112300Z AUTO 04008KT 7SM 22/17 A2991 RMK SLP132 T02200170 IEM_DS3505
ZGOW,1995-05-12 00:00,ZGOW 120000Z AUTO 04008KT 8SM 22/17 A2994 RMK SLP139 T02200166 52010 IEM_DS3505
ZGOW,1995-05-12 01:00,ZGOW 120100Z AUTO 06008KT 7SM 22/16 A2994 RMK SLP142 T02200160 IEM_DS3505
ZGOW,1995-05-12 02:00,ZGOW 120200Z AUTO 03008KT 7SM 22/17 A2994 RMK SLP142 T02200170 IEM_DS3505
ZGOW,1995-05-12 03:00,ZGOW 120300Z AUTO 07006KT 7SM 23/17 A2994 RMK SLP147 T02300168 52008 IEM_DS3505
ZGOW,1995-05-12 04:00,ZGOW 120400Z AUTO 04008KT 7SM 23/17 A2994 RMK SLP142 T02300170 IEM_DS3505
ZGOW,1995-05-12 06:00,ZGOW 120600Z AUTO 09002KT 7SM 24/17 A2988 RMK SLP128 T02350174 57019 IEM_DS3505
ZGOW,1995-05-12 07:00,ZGOW 120700Z AUTO 03008KT 7SM 23/18 A2988 RMK SLP122 T02300180 IEM_DS3505
ZGOW,1995-05-12 08:00,ZGOW 120800Z AUTO 05008KT 7SM 23/18 A2988 RMK SLP122 T02300180 IEM_DS3505
ZGOW,1995-05-12 09:00,ZGOW 120900Z AUTO 09004KT 6SM 23/18 A2985 RMK SLP115 T02310178 57013 IEM_DS3505
ZGOW,1995-05-12 10:00,ZGOW 121000Z AUTO 00000KT 7SM 23/18 A2985 RMK SLP111 T02300180 IEM_DS3505
ZGOW,1995-05-12 12:00,ZGOW 121200Z AUTO 04004KT 6SM 22/19 A2987 RMK 60001 SLP118 T02170192 52003 IEM_DS3505
ZGOW,1995-05-12 13:00,ZGOW 121300Z AUTO 03006KT 7SM 22/19 A2988 RMK SLP122 T02200190 IEM_DS3505
ZGOW,1995-05-12 14:00,ZGOW 121400Z AUTO 04008KT 7SM 22/19 A2988 RMK SLP122 T02200190 IEM_DS3505
ZGOW,1995-05-12 15:00,ZGOW 121500Z AUTO 07004KT 6SM 22/20 A2988 RMK SLP123 T02200197 52005 IEM_DS3505
ZGOW,1995-05-12 18:00,ZGOW 121800Z AUTO 04006KT 5SM 22/21 A2983 RMK SLP104 T02220208 57019 IEM_DS3505
ZGOW,1995-05-12 21:00,ZGOW 122100Z AUTO 04008KT 3SM 22/21 A2980 RMK 70008 SLP096 T02160210 57008 IEM_DS3505
ZGOW,1995-05-13 00:00,ZGOW 130000Z AUTO 07006KT 2 1/2SM 22/21 A2982 RMK 60051 70051 SLP102 T02150207 52006 IEM_DS3505
ZGOW,1995-05-13 02:00,ZGOW 130200Z AUTO 03012KT 2SM 22/21 A2983 RMK SLP105 T02200210 IEM_DS3505
ZGOW,1995-05-13 03:00,ZGOW 130300Z AUTO 09006KT 2SM 22/22 A2983 RMK SLP101 T02240215 57001 IEM_DS3505
ZGOW,1995-05-13 04:00,ZGOW 130400Z AUTO 03012KT 7SM 23/21 A2980 RMK SLP094 T02300210 IEM_DS3505
ZGOW,1995-05-13 06:00,ZGOW 130600Z AUTO 09010KT 4SM 24/21 A2977 RMK 60012 SLP078 T02390210 57023 IEM_DS3505
ZGOW,1995-05-13 07:00,ZGOW 130700Z AUTO 05012KT 7SM 24/21 A2974 RMK SLP074 T02400210 IEM_DS3505
ZGOW,1995-05-13 08:00,ZGOW 130800Z AUTO 03008KT 7SM 25/21 A2974 RMK SLP074 T02500210 IEM_DS3505
ZGOW,1995-05-13 09:00,ZGOW 130900Z AUTO 09006KT 10SM 24/21 A2974 RMK SLP072 T02420206 57006 IEM_DS3505
ZGOW,1995-05-13 12:00,ZGOW 131200Z AUTO 14002KT 9SM 23/21 A2974 RMK SLP074 T02330207 52002 IEM_DS3505
ZGOW,1995-05-13 13:00,ZGOW 131300Z AUTO 00000KT 7SM 22/20 A2977 RMK SLP084 T02200200 IEM_DS3505
ZGOW,1995-05-13 15:00,ZGOW 131500Z AUTO 00000KT 7SM 22/20 A2976 RMK SLP081 T02160205 52007 IEM_DS3505
ZGOW,1995-05-13 18:00,ZGOW 131800Z AUTO 27004KT 4SM 21/20 A2972 RMK SLP067 T02130202 57014 IEM_DS3505
ZGOW,1995-05-13 21:00,ZGOW 132100Z AUTO 27006KT 2SM 21/21 A2971 RMK 70055 SLP068 T02140208 52001 IEM_DS3505
ZGOW,1995-05-13 22:00,ZGOW 132200Z AUTO 00000KT 2SM 20/20 A2974 RMK SLP074 T02000200 IEM_DS3505
ZGOW,1995-05-13 23:00,ZGOW 132300Z AUTO 29004KT 2 1/2SM 22/20 A2974 RMK SLP074 T02200200 IEM_DS3505
ZGOW,1995-05-14 00:00,ZGOW 140000Z AUTO 27006KT 4SM 24/21 A2974 RMK 70012 SLP075 T02390212 52007 IEM_DS3505
ZGOW,1995-05-14 01:00,ZGOW 140100Z AUTO 21006KT 7SM 26/21 A2974 RMK SLP074 T02600210 IEM_DS3505
ZGOW,1995-05-14 02:00,ZGOW 140200Z AUTO 24006KT 7SM 27/21 A2974 RMK SLP074 T02700210 IEM_DS3505
ZGOW,1995-05-14 03:00,ZGOW 140300Z AUTO 27008KT 7SM 28/22 A2974 RMK SLP068 T02800216 57007 IEM_DS3505
ZGOW,1995-05-14 04:00,ZGOW 140400Z AUTO 21006KT 7SM 30/23 A2971 RMK SLP064 T03000230 IEM_DS3505
ZGOW,1995-05-14 06:00,ZGOW 140600Z AUTO 22008KT 16SM 32/22 A2965 RMK SLP048 T03150224 57020 IEM_DS3505
ZGOW,1995-05-14 07:00,ZGOW 140700Z AUTO 16012KT 7SM A2965 RMK IEM_DS3505
ZGOW,1995-05-14 08:00,ZGOW 140800Z AUTO 16012KT 6SM 31/23 A2962 RMK SLP034 T03100230 IEM_DS3505
ZGOW,1995-05-14 09:00,ZGOW 140900Z AUTO 18008KT 17SM 30/23 A2962 RMK SLP035 T03000234 57013 IEM_DS3505
ZGOW,1995-05-14 10:00,ZGOW 141000Z AUTO 18010KT 6SM 29/23 A2962 RMK SLP034 T02900230 IEM_DS3505
ZGOW,1995-05-14 11:00,ZGOW 141100Z AUTO 17008KT 6SM 28/23 A2965 RMK SLP044 T02800230 IEM_DS3505
ZGOW,1995-05-14 12:00,ZGOW 141200Z AUTO 18004KT 9SM 27/23 A2968 RMK SLP056 T02720228 52021 IEM_DS3505
ZGOW,1995-05-14 13:00,ZGOW 141300Z AUTO 00000KT 6SM 26/23 A2971 RMK SLP064 T02600230 IEM_DS3505
ZGOW,1995-05-14 15:00,ZGOW 141500Z AUTO 07008KT 5SM 24/23 A2975 RMK SLP078 T02450233 52022 IEM_DS3505
ZGOW,1995-05-14 18:00,ZGOW 141800Z AUTO 07006KT 5SM 23/22 A2976 RMK 60043 SLP081 T02330215 52003 IEM_DS3505
ZGOW,1995-05-14 21:00,ZGOW 142100Z AUTO 04006KT 2SM 22/21 A2977 RMK 70098 SLP085 T02190210 52004 IEM_DS3505
ZGOW,1995-05-14 22:00,ZGOW 142200Z AUTO 03006KT 1SM 22/21 A2977 RMK SLP084 T02200210 IEM_DS3505
ZGOW,1995-05-14 23:00,ZGOW 142300Z AUTO 03008KT 1SM 21/20 A2980 RMK SLP094 T02100200 IEM_DS3505
ZGOW,1995-05-15 00:00,ZGOW 150000Z AUTO 07006KT 2 1/2SM 21/20 A2980 RMK 60067 70110 SLP103 T02120203 52018 IEM_DS3505
ZGOW,1995-05-15 02:00,ZGOW 150200Z AUTO 05004KT 1 1/4SM 22/21 A2983 RMK SLP105 T02200210 IEM_DS3505
ZGOW,1995-05-15 03:00,ZGOW 150300Z AUTO 04004KT 4SM 22/21 A2983 RMK SLP106 T02220207 52003 IEM_DS3505
ZGOW,1995-05-15 06:00,ZGOW 150600Z AUTO 04006KT 4SM 22/20 A2980 RMK 60002 SLP090 T02240203 57016 IEM_DS3505
ZGOW,1995-05-15 09:00,ZGOW 150900Z AUTO 07006KT 2 1/2SM 22/21 A2978 RMK SLP087 T02150206 57003 IEM_DS3505
ZGOW,1995-05-15 12:00,ZGOW 151200Z AUTO 04004KT 2 1/2SM 21/20 A2983 RMK 60008 SLP105 T02070198 52018 IEM_DS3505
ZGOW,1995-05-15 15:00,ZGOW 151500Z AUTO 02004KT 3SM 20/19 A2985 RMK SLP113 T01970186 52008 IEM_DS3505
ZGOW,1995-05-15 18:00,ZGOW 151800Z AUTO 04004KT 4SM 20/18 A2982 RMK 60008 SLP101 T01950181 57012 IEM_DS3505
ZGOW,1995-05-15 21:00,ZGOW 152100Z AUTO 04004KT 2 1/2SM 20/18 A2983 RMK 70028 SLP104 T01960183 52003 IEM_DS3505
ZGOW,1995-05-16 00:00,ZGOW 160000Z AUTO 04006KT 3SM 20/19 A2987 RMK 60020 70035 SLP119 T01960186 52015 IEM_DS3505
ZGOW,1995-05-16 03:00,ZGOW 160300Z AUTO 09008KT 7SM 20/18 A2988 RMK SLP121 T02040180 52002 IEM_DS3505
ZGOW,1995-05-16 06:00,ZGOW 160600Z AUTO 04006KT 6SM 20/18 A2985 RMK 60008 SLP113 T01970183 57008 IEM_DS3505
ZGOW,1995-05-16 09:00,ZGOW 160900Z AUTO 09008KT 6SM 20/18 A2983 RMK SLP104 T01950182 57009 IEM_DS3505
ZGOW,1995-05-16 12:00,ZGOW 161200Z AUTO 09008KT 7SM 19/18 A2984 RMK 60008 SLP107 T01940181 52003 IEM_DS3505
ZGOW,1995-05-16 15:00,ZGOW 161500Z AUTO 07012KT 5SM 19/17 A2987 RMK SLP118 T01860173 52011 IEM_DS3505
ZGOW,1995-05-16 18:00,ZGOW 161800Z AUTO 04006KT 3SM 18/18 A2983 RMK 60004 SLP103 T01830176 57015 IEM_DS3505
ZGOW,1995-05-16 21:00,ZGOW 162100Z AUTO 04004KT 2 1/2SM 18/18 A2980 RMK 70039 SLP096 T01840179 57007 IEM_DS3505
ZGOW,1995-05-17 00:00,ZGOW 170000Z AUTO 04002KT 5SM 19/18 A2983 RMK 60002 70020 SLP105 T01930185 52009 IEM_DS3505
ZGOW,1995-05-17 06:00,ZGOW 170600Z AUTO 07004KT 8SM 22/20 A2978 RMK 60004 SLP086 T02150195 57015 IEM_DS3505
ZGOW,1995-05-17 09:00,ZGOW 170900Z AUTO 04006KT 4SM 21/20 A2975 RMK SLP078 T02090198 57008 IEM_DS3505
ZGOW,1995-05-17 12:00,ZGOW 171200Z AUTO 00000KT 5SM 21/20 A2977 RMK 60001 SLP085 T02100199 52007 IEM_DS3505
ZGOW,1995-05-17 15:00,ZGOW 171500Z AUTO 02002KT 4SM 21/20 A2980 RMK SLP094 T02110203 52009 IEM_DS3505
ZGOW,1995-05-17 18:00,ZGOW 171800Z AUTO 00000KT 3SM 21/20 A2977 RMK SLP084 T02100204 57010 IEM_DS3505
ZGOW,1995-05-17 21:00,ZGOW 172100Z AUTO 00000KT 4SM 21/20 A2977 RMK 70008 SLP089 T02110203 52005 IEM_DS3505
ZGOW,1995-05-17 22:00,ZGOW 172200Z AUTO 00000KT 1 1/2SM 21/20 A2980 RMK SLP094 T02100200 IEM_DS3505
ZGOW,1995-05-17 23:00,ZGOW 172300Z AUTO 00000KT 1 1/2SM 21/20 A2980 RMK SLP094 T02100200 IEM_DS3505
ZGOW,1995-05-18 00:00,ZGOW 180000Z AUTO 00000KT 12SM 22/ A2980 RMK SLP099 IEM_DS3505
ZGOW,1995-05-18 01:00,ZGOW 180100Z AUTO 13004KT 1 1/2SM 23/21 A2980 RMK SLP094 T02300210 IEM_DS3505
ZGOW,1995-05-18 02:00,ZGOW 180200Z AUTO 00000KT 3SM 24/21 A2980 RMK SLP094 T02400210 IEM_DS3505
ZGOW,1995-05-18 03:00,ZGOW 180300Z AUTO 18004KT 6SM 26/22 A2983 RMK SLP103 T02590221 52004 IEM_DS3505
ZGOW,1995-05-18 04:00,ZGOW 180400Z AUTO 13008KT 7SM 25/22 A2983 RMK SLP105 T02500220 IEM_DS3505
ZGOW,1995-05-18 06:00,ZGOW 180600Z AUTO 18004KT 7SM 26/23 A2978 RMK SLP087 T02640230 57016 IEM_DS3505
ZGOW,1995-05-18 07:00,ZGOW 180700Z AUTO 12012KT 7SM 26/23 A2977 RMK SLP084 T02600230 IEM_DS3505
ZGOW,1995-05-18 08:00,ZGOW 180800Z AUTO 27/23 A2977 RMK SLP084 T02700230 IEM_DS3505
ZGOW,1995-05-18 09:00,ZGOW 180900Z AUTO 14006KT 6SM 25/23 A2977 RMK SLP081 T02520227 57006 IEM_DS3505
ZGOW,1995-05-18 10:00,ZGOW 181000Z AUTO 13010KT 7SM 24/22 A2977 RMK SLP084 T02400220 IEM_DS3505
ZGOW,1995-05-18 12:00,ZGOW 181200Z AUTO 09004KT 4SM 25/23 A2980 RMK SLP096 T02470231 52015 IEM_DS3505
ZGOW,1995-05-18 13:00,ZGOW 181300Z AUTO 00000KT 7SM 24/23 A2983 RMK SLP105 T02400230 IEM_DS3505
ZGOW,1995-05-18 15:00,ZGOW 181500Z AUTO 09004KT 4SM 24/23 A2983 RMK SLP105 T02430230 52009 IEM_DS3505
ZGOW,1995-05-18 18:00,ZGOW 181800Z AUTO 04004KT 2 1/2SM 24/23 A2979 RMK 60001 SLP092 T02360229 57013 IEM_DS3505
ZGOW,1995-05-18 21:00,ZGOW 182100Z AUTO 04002KT 2SM 23/23 A2980 RMK 70008 SLP099 T02330227 52007 IEM_DS3505
ZGOW,1995-05-18 22:00,ZGOW 182200Z AUTO 06006KT 1SM 23/22 A2983 RMK SLP105 T02300220 IEM_DS3505
ZGOW,1995-05-18 23:00,ZGOW 182300Z AUTO 03004KT 1 1/4SM 23/22 A2983 RMK SLP105 T02300220 IEM_DS3505
ZGOW,1995-05-19 00:00,ZGOW 190000Z AUTO 07006KT 2SM 24/23 A2985 RMK 60012 70012 SLP108 T02360230 52009 IEM_DS3505
ZGOW,1995-05-19 01:00,ZGOW 190100Z AUTO 04006KT 3SM 24/23 A2985 RMK SLP111 T02400230 IEM_DS3505
ZGOW,1995-05-19 02:00,ZGOW 190200Z AUTO 02006KT 7SM 26/24 A2985 RMK SLP111 T02600240 IEM_DS3505
ZGOW,1995-05-19 03:00,ZGOW 190300Z AUTO 14006KT 3SM 26/24 A2985 RMK SLP106 T02640244 57002 IEM_DS3505
ZGOW,1995-05-19 06:00,ZGOW 190600Z AUTO 16004KT 5SM 27/25 A2980 RMK 60012 SLP088 T02720246 57018 IEM_DS3505
ZGOW,1995-05-19 08:00,ZGOW 190800Z AUTO 10008KT 7SM 27/24 A2977 RMK SLP084 T02700240 IEM_DS3505
ZGOW,1995-05-19 09:00,ZGOW 190900Z AUTO 16004KT 6SM 27/25 A2974 RMK SLP075 T02660246 57013 IEM_DS3505
ZGOW,1995-05-19 10:00,ZGOW 191000Z AUTO 10006KT 2SM 26/25 A2974 RMK SLP074 T02600250 IEM_DS3505
ZGOW,1995-05-19 11:00,ZGOW 191100Z AUTO 11006KT 3SM 26/25 A2977 RMK SLP084 T02600250 IEM_DS3505
ZGOW,1995-05-19 12:00,ZGOW 191200Z AUTO 20008KT 7SM 27/25 A2977 RMK SLP085 T02690253 52010 IEM_DS3505
ZGOW,1995-05-19 13:00,ZGOW 191300Z AUTO 17006KT 7SM 26/25 A2980 RMK SLP094 T02600250 IEM_DS3505
ZGOW,1995-05-19 15:00,ZGOW 191500Z AUTO 18002KT 6SM 26/25 A2981 RMK SLP097 T02600251 52012 IEM_DS3505
ZGOW,1995-05-19 18:00,ZGOW 191800Z AUTO 18006KT 6SM 26/25 A2978 RMK SLP089 T02610251 57008 IEM_DS3505
ZGOW,1995-05-19 21:00,ZGOW 192100Z AUTO 18002KT 6SM 26/25 A2977 RMK 70016 SLP084 T02620249 57002 IEM_DS3505
ZGOW,1995-05-19 22:00,ZGOW 192200Z AUTO 15004KT 2 1/2SM 26/25 A2977 RMK SLP084 T02600250 IEM_DS3505
ZGOW,1995-05-19 23:00,ZGOW 192300Z AUTO 17006KT 2 1/2SM 26/25 A2980 RMK SLP094 T02600250 IEM_DS3505
ZGOW,1995-05-20 00:00,ZGOW 200000Z AUTO 22006KT 6SM 28/26 A2980 RMK 70012 SLP093 T02760255 52006 IEM_DS3505
ZGOW,1995-05-20 01:00,ZGOW 200100Z AUTO 22006KT 6SM 28/26 A2980 RMK 70012 SLP094 T02760255 52006 IEM_DS3505
ZGOW,1995-05-20 02:00,ZGOW 200200Z AUTO 16008KT 5SM 30/26 A2980 RMK SLP094 T03000260 IEM_DS3505
ZGOW,1995-05-20 03:00,ZGOW 200300Z AUTO 22006KT 12SM 30/26 A2977 RMK SLP087 T03040261 57006 IEM_DS3505
ZGOW,1995-05-20 04:00,ZGOW 200400Z AUTO 16012KT 7SM 30/27 A2977 RMK SLP084 T03000270 IEM_DS3505
ZGOW,1995-05-20 06:00,ZGOW 200600Z AUTO 18010KT 14SM 31/26 A2971 RMK SLP062 T03140263 57025 IEM_DS3505
ZGOW,1995-05-20 07:00,ZGOW 200700Z AUTO 16014KT 6SM 31/26 A2968 RMK SLP054 T03100260 IEM_DS3505
ZGOW,1995-05-20 08:00,ZGOW 200800Z AUTO 18012KT 6SM 31/27 A2968 RMK SLP054 T03100270 IEM_DS3505
ZGOW,1995-05-20 09:00,ZGOW 200900Z AUTO 22010KT 16SM 30/25 A2965 RMK SLP046 T03040249 57016 IEM_DS3505
ZGOW,1995-05-20 11:00,ZGOW 201100Z AUTO 20010KT 6SM 28/25 A2968 RMK SLP054 T02800250 IEM_DS3505
ZGOW,1995-05-20 12:00,ZGOW 201200Z AUTO 22010KT 9SM 28/25 A2969 RMK SLP057 T02820249 52011 IEM_DS3505
ZGOW,1995-05-20 13:00,ZGOW 201300Z AUTO 18006KT 7SM 27/26 A2971 RMK SLP064 T02700260 IEM_DS3505
ZGOW,1995-05-20 15:00,ZGOW 201500Z AUTO 22006KT 9SM 27/25 A2973 RMK SLP070 T02730252 52013 IEM_DS3505
ZGOW,1995-05-20 18:00,ZGOW 201800Z AUTO 22006KT 7SM 27/25 A2968 RMK SLP055 T02700247 57015 IEM_DS3505
ZGOW,1995-05-20 21:00,ZGOW 202100Z AUTO 22004KT 5SM 26/25 A2968 RMK SLP050 T02590246 57005 IEM_DS3505
ZGOW,1995-05-20 22:00,ZGOW 202200Z AUTO 00000KT 1 1/4SM 25/24 A2968 RMK SLP054 T02500240 IEM_DS3505
ZGOW,1995-05-20 23:00,ZGOW 202300Z AUTO 00000KT 2 1/2SM 26/25 A2968 RMK SLP054 T02600250 IEM_DS3505
ZGOW,1995-05-21 00:00,ZGOW 210000Z AUTO 25006KT 9SM 28/25 A2971 RMK SLP065 T02820247 52015 IEM_DS3505
ZGOW,1995-05-21 01:00,ZGOW 210100Z AUTO 23006KT 7SM 29/25 A2971 RMK SLP064 T02900250 IEM_DS3505
ZGOW,1995-05-21 02:00,ZGOW 210200Z AUTO 23008KT 7SM 31/25 A2971 RMK SLP064 T03100250 IEM_DS3505
ZGOW,1995-05-21 03:00,ZGOW 210300Z AUTO 29008KT 14SM 31/24 A2971 RMK SLP062 T03140245 57003 IEM_DS3505
ZGOW,1995-05-21 06:00,ZGOW 210600Z AUTO 20008KT 17SM 32/26 A2962 RMK SLP034 T03200261 57028 IEM_DS3505
ZGOW,1995-05-21 07:00,ZGOW 210700Z AUTO 16008KT 7SM 31/26 A2962 RMK SLP034 T03100260 IEM_DS3505
ZGOW,1995-05-21 08:00,ZGOW 210800Z AUTO 16008KT 7SM 30/26 A2962 RMK SLP034 T03000260 IEM_DS3505
ZGOW,1995-05-21 09:00,ZGOW 210900Z AUTO 08008KT 12SM 30/26 A2959 RMK SLP026 T02980263 57008 IEM_DS3505
ZGOW,1995-05-21 10:00,ZGOW 211000Z AUTO 06008KT 5SM 29/27 A2962 RMK SLP034 T02900270 IEM_DS3505
ZGOW,1995-05-21 11:00,ZGOW 211100Z AUTO 05008KT 4SM 25/23 A2962 RMK SLP034 T02500230 IEM_DS3505
ZGOW,1995-05-21 12:00,ZGOW 211200Z AUTO 09008KT 6SM 25/23 A2969 RMK SLP058 T02460227 52032 IEM_DS3505
ZGOW,1995-05-21 13:00,ZGOW 211300Z AUTO 03008KT 4SM RMK IEM_DS3505
ZGOW,1995-05-21 14:00,ZGOW 211400Z AUTO 03008KT 7SM RMK IEM_DS3505
ZGOW,1995-05-21 15:00,ZGOW 211500Z AUTO 11006KT 5SM 22/21 A2975 RMK SLP078 T02220213 52020 IEM_DS3505
ZGOW,1995-05-21 18:00,ZGOW 211800Z AUTO 09006KT 6SM 22/21 A2971 RMK 60047 SLP064 T02190207 57014 IEM_DS3505
ZGOW,1995-05-21 21:00,ZGOW 212100Z AUTO 09004KT 7SM 22/20 A2974 RMK 70047 SLP072 T02150200 52008 IEM_DS3505
ZGOW,1995-05-21 22:00,ZGOW 212200Z AUTO 07008KT 7SM 21/19 A2974 RMK SLP074 T02100190 IEM_DS3505
ZGOW,1995-05-21 23:00,ZGOW 212300Z AUTO 05008KT 7SM 21/19 A2977 RMK SLP084 T02100190 IEM_DS3505
ZGOW,1995-05-22 00:00,ZGOW 220000Z AUTO 07006KT 12SM 22/19 A2979 RMK 70047 SLP090 T02160194 52018 IEM_DS3505
ZGOW,1995-05-22 01:00,ZGOW 220100Z AUTO 06008KT 7SM 22/18 A2980 RMK SLP094 T02200180 IEM_DS3505
ZGOW,1995-05-22 02:00,ZGOW 220200Z AUTO 06010KT 7SM 22/17 A2980 RMK SLP094 T02200170 IEM_DS3505
ZGOW,1995-05-22 03:00,ZGOW 220300Z AUTO 04006KT 12SM 22/17 A2983 RMK SLP098 T02170166 52008 IEM_DS3505
ZGOW,1995-05-22 06:00,ZGOW 220600Z AUTO 09008KT 11SM 22/18 A2977 RMK SLP088 T02230178 57010 IEM_DS3505
ZGOW,1995-05-22 07:00,ZGOW 220700Z AUTO 05012KT 7SM 22/17 A2977 RMK SLP084 T02200170 IEM_DS3505
ZGOW,1995-05-22 08:00,ZGOW 220800Z AUTO 04012KT 7SM 22/17 A2977 RMK SLP084 T02200170 IEM_DS3505
ZGOW,1995-05-22 09:00,ZGOW 220900Z AUTO 09006KT 8SM 22/17 A2977 RMK SLP081 T02170174 57007 IEM_DS3505
ZGOW,1995-05-22 10:00,ZGOW 221000Z AUTO 06010KT 7SM 22/17 A2977 RMK SLP084 T02200170 IEM_DS3505
ZGOW,1995-05-22 11:00,ZGOW 221100Z AUTO 06008KT 7SM 22/17 A2980 RMK SLP094 T02200170 IEM_DS3505
ZGOW,1995-05-22 12:00,ZGOW 221200Z AUTO 04004KT 6SM 21/18 A2983 RMK SLP100 T02140179 52019 IEM_DS3505
ZGOW,1995-05-22 13:00,ZGOW 221300Z AUTO 03008KT 7SM 21/17 A2983 RMK SLP105 T02100170 IEM_DS3505
ZGOW,1995-05-22 15:00,ZGOW 221500Z AUTO 04006KT 7SM 21/17 A2985 RMK SLP112 T02100174 52012 IEM_DS3505
ZGOW,1995-05-22 18:00,ZGOW 221800Z AUTO 04006KT 7SM 20/18 A2982 RMK SLP102 T02030177 57010 IEM_DS3505
ZGOW,1995-05-22 21:00,ZGOW 222100Z AUTO 04004KT 6SM 20/18 A2983 RMK SLP108 T02030176 52006 IEM_DS3505
ZGOW,1995-05-22 22:00,ZGOW 222200Z AUTO 03006KT 7SM 20/17 A2985 RMK SLP111 T02000170 IEM_DS3505
ZGOW,1995-05-22 23:00,ZGOW 222300Z AUTO 03006KT 7SM 20/17 A2985 RMK SLP111 T02000170 IEM_DS3505
ZGOW,1995-05-23 00:00,ZGOW 230000Z AUTO 04004KT 8SM 21/17 A2988 RMK SLP124 T02070173 52016 IEM_DS3505
ZGOW,1995-05-23 01:00,ZGOW 230100Z AUTO 03008KT 7SM 21/17 A2988 RMK SLP122 T02100170 IEM_DS3505
ZGOW,1995-05-23 03:00,ZGOW 230300Z AUTO 04006KT 9SM 23/18 A2988 RMK SLP126 T02280177 52002 IEM_DS3505
ZGOW,1995-05-23 06:00,ZGOW 230600Z AUTO 09006KT 12SM 24/17 A2985 RMK SLP112 T02370171 57014 IEM_DS3505
ZGOW,1995-05-23 07:00,ZGOW 230700Z AUTO 05012KT 7SM 24/17 A2985 RMK SLP111 T02400170 IEM_DS3505
ZGOW,1995-05-23 08:00,ZGOW 230800Z AUTO 05012KT 7SM 23/18 A2985 RMK SLP111 T02300180 IEM_DS3505
ZGOW,1995-05-23 09:00,ZGOW 230900Z AUTO 09008KT 9SM 23/18 A2985 RMK SLP110 T02300177 57002 IEM_DS3505
ZGOW,1995-05-23 10:00,ZGOW 231000Z AUTO 05012KT 7SM 22/18 A2985 RMK SLP111 T02200180 IEM_DS3505
ZGOW,1995-05-23 11:00,ZGOW 231100Z AUTO 05012KT 7SM 22/18 A2985 RMK SLP111 T02200180 IEM_DS3505
ZGOW,1995-05-23 12:00,ZGOW 231200Z AUTO 04010KT 2SM 22/17 A2988 RMK SLP122 T02250174 52012 IEM_DS3505
ZGOW,1995-05-23 13:00,ZGOW 231300Z AUTO 05012KT 7SM 23/16 A2991 RMK SLP132 T02300160 IEM_DS3505
ZGOW,1995-05-23 15:00,ZGOW 231500Z AUTO 09008KT 7SM 22/14 A2991 RMK SLP133 T02220136 52011 IEM_DS3505
ZGOW,1995-05-23 18:00,ZGOW 231800Z AUTO 09004KT 7SM 22/16 A2987 RMK SLP118 T02200157 57015 IEM_DS3505
ZGOW,1995-05-23 21:00,ZGOW 232100Z AUTO 02004KT 8SM 22/17 A2985 RMK SLP116 T02150166 57002 IEM_DS3505
ZGOW,1995-05-23 22:00,ZGOW 232200Z AUTO 02006KT 7SM 22/16 A2988 RMK SLP122 T02200160 IEM_DS3505
ZGOW,1995-05-24 00:00,ZGOW 240000Z AUTO 04004KT 11SM 22/17 A2992 RMK SLP135 T02230166 52019 IEM_DS3505
ZGOW,1995-05-24 02:00,ZGOW 240200Z AUTO 02006KT 7SM 23/15 A2991 RMK SLP132 T02300150 IEM_DS3505
ZGOW,1995-05-24 03:00,ZGOW 240300Z AUTO 09006KT 9SM 25/16 A2991 RMK SLP127 T02540156 57008 IEM_DS3505
ZGOW,1995-05-24 04:00,ZGOW 240400Z AUTO 05008KT 7SM 25/14 A2988 RMK SLP122 T02500140 IEM_DS3505
ZGOW,1995-05-24 06:00,ZGOW 240600Z AUTO 09004KT 11SM 26/16 A2985 RMK SLP107 T02600156 57020 IEM_DS3505
ZGOW,1995-05-24 07:00,ZGOW 240700Z AUTO 05006KT 7SM 25/16 A2983 RMK SLP105 T02500160 IEM_DS3505
ZGOW,1995-05-24 09:00,ZGOW 240900Z AUTO 14004KT 9SM 25/18 A2980 RMK SLP096 T02540178 57011 IEM_DS3505
ZGOW,1995-05-24 10:00,ZGOW 241000Z AUTO 00000KT 7SM 24/18 A2983 RMK SLP105 T02400180 IEM_DS3505
ZGOW,1995-05-24 12:00,ZGOW 241200Z AUTO 02004KT 6SM 24/19 A2983 RMK SLP108 T02420189 52012 IEM_DS3505
ZGOW,1995-05-24 13:00,ZGOW 241300Z AUTO 06004KT 7SM 24/20 A2985 RMK SLP111 T02400200 IEM_DS3505
ZGOW,1995-05-24 15:00,ZGOW 241500Z AUTO 04002KT 6SM 24/19 A2987 RMK SLP119 T02350193 52011 IEM_DS3505
ZGOW,1995-05-24 18:00,ZGOW 241800Z AUTO 00000KT 6SM 23/20 A2983 RMK SLP106 T02320200 57013 IEM_DS3505
ZGOW,1995-05-24 21:00,ZGOW 242100Z AUTO 00000KT 4SM 23/20 A2983 RMK SLP103 T02310203 57003 IEM_DS3505
ZGOW,1995-05-24 22:00,ZGOW 242200Z AUTO 32004KT 2 1/2SM 23/20 A2983 RMK SLP105 T02300200 IEM_DS3505
ZGOW,1995-05-24 23:00,ZGOW 242300Z AUTO 00000KT 2 1/2SM 23/20 A2983 RMK SLP105 T02300200 IEM_DS3505
ZGOW,1995-05-25 00:00,ZGOW 250000Z AUTO 29004KT 2 1/2SM 25/21 A2985 RMK SLP115 T02460213 52012 IEM_DS3505
ZGOW,1995-05-25 01:00,ZGOW 250100Z AUTO 00000KT 2 1/2SM 25/22 A2985 RMK SLP111 T02500220 IEM_DS3505
ZGOW,1995-05-25 02:00,ZGOW 250200Z AUTO 22004KT 2 1/2SM 27/23 A2983 RMK SLP105 T02700230 IEM_DS3505
ZGOW,1995-05-25 03:00,ZGOW 250300Z AUTO 27004KT 6SM 29/24 A2983 RMK SLP101 T02860239 57015 IEM_DS3505
ZGOW,1995-05-25 04:00,ZGOW 250400Z AUTO 15008KT 4SM 30/24 A2983 RMK SLP105 T03000240 IEM_DS3505
ZGOW,1995-05-25 06:00,ZGOW 250600Z AUTO 16006KT 7SM 30/25 A2977 RMK SLP082 T02960248 57018 IEM_DS3505
ZGOW,1995-05-25 07:00,ZGOW 250700Z AUTO 12012KT 7SM 29/24 A2974 RMK SLP074 T02900240 IEM_DS3505
ZGOW,1995-05-25 08:00,ZGOW 250800Z AUTO 16012KT 7SM 29/25 A2974 RMK SLP074 T02900250 IEM_DS3505
ZGOW,1995-05-25 09:00,ZGOW 250900Z AUTO 14006KT 10SM 29/24 A2971 RMK SLP063 T02910243 57019 IEM_DS3505
ZGOW,1995-05-25 10:00,ZGOW 251000Z AUTO 15008KT 7SM 28/24 A2977 RMK SLP084 T02800240 IEM_DS3505
ZGOW,1995-05-25 11:00,ZGOW 251100Z AUTO 16010KT 5SM 27/24 A2974 RMK SLP074 T02700240 IEM_DS3505
ZGOW,1995-05-25 12:00,ZGOW 251200Z AUTO 16006KT 8SM 27/24 A2977 RMK SLP084 T02680245 52021 IEM_DS3505
ZGOW,1995-05-25 13:00,ZGOW 251300Z AUTO 17008KT 5SM 26/25 A2980 RMK SLP094 T02600250 IEM_DS3505
ZGOW,1995-05-25 15:00,ZGOW 251500Z AUTO 25004KT 7SM 26/24 A2981 RMK SLP097 T02650245 52013 IEM_DS3505
ZGOW,1995-05-25 18:00,ZGOW 251800Z AUTO 22004KT 7SM 26/25 A2977 RMK SLP084 T02580247 57013 IEM_DS3505
ZGOW,1995-05-25 21:00,ZGOW 252100Z AUTO 04002KT 5SM 25/24 A2977 RMK SLP088 T02490242 52004 IEM_DS3505
ZGOW,1995-05-25 22:00,ZGOW 252200Z AUTO 00000KT 3/8SM 24/23 A2977 RMK SLP084 T02400230 IEM_DS3505
ZGOW,1995-05-25 23:00,ZGOW 252300Z AUTO 00000KT 1 1/4SM 26/24 A2980 RMK SLP094 T02600240 IEM_DS3505
ZGOW,1995-05-26 00:00,ZGOW 260000Z AUTO 00000KT 4SM 27/25 A2983 RMK SLP099 T02670250 52011 IEM_DS3505
ZGOW,1995-05-26 01:00,ZGOW 260100Z AUTO 00000KT 4SM 28/25 A2983 RMK SLP105 T02800250 IEM_DS3505
ZGOW,1995-05-26 02:00,ZGOW 260200Z AUTO 00000KT 7SM 29/24 A2983 RMK SLP105 T02900240 IEM_DS3505
ZGOW,1995-05-26 03:00,ZGOW 260300Z AUTO 25004KT 7SM 30/24 A2983 RMK SLP101 T03020242 52002 IEM_DS3505
ZGOW,1995-05-26 06:00,ZGOW 260600Z AUTO 22004KT 10SM 32/24 A2977 RMK SLP080 T03220241 57021 IEM_DS3505
ZGOW,1995-05-26 08:00,ZGOW 260800Z AUTO 16010KT 7SM 30/25 A2974 RMK SLP074 T03000250 IEM_DS3505
ZGOW,1995-05-26 09:00,ZGOW 260900Z AUTO 18008KT 11SM 30/26 A2974 RMK SLP073 T03050255 57007 IEM_DS3505
ZGOW,1995-05-26 10:00,ZGOW 261000Z AUTO 16010KT 7SM 29/25 A2974 RMK SLP074 T02900250 IEM_DS3505
ZGOW,1995-05-26 11:00,ZGOW 261100Z AUTO 16012KT 7SM 28/24 A2977 RMK SLP084 T02800240 IEM_DS3505
ZGOW,1995-05-26 12:00,ZGOW 261200Z AUTO 22006KT 9SM 28/24 A2980 RMK SLP090 T02800244 52017 IEM_DS3505
ZGOW,1995-05-26 13:00,ZGOW 261300Z AUTO 16006KT 6SM 27/24 A2980 RMK SLP094 T02700240 IEM_DS3505
ZGOW,1995-05-26 14:00,ZGOW 261400Z AUTO 18004KT 7SM 27/25 A2985 RMK SLP111 T02700250 IEM_DS3505
ZGOW,1995-05-26 15:00,ZGOW 261500Z AUTO 22004KT 7SM 27/25 A2985 RMK SLP111 T02740248 52021 IEM_DS3505
ZGOW,1995-05-26 18:00,ZGOW 261800Z AUTO 00000KT 7SM 27/25 A2980 RMK SLP095 T02670247 57016 IEM_DS3505
ZGOW,1995-05-26 21:00,ZGOW 262100Z AUTO 00000KT 6SM 26/25 A2983 RMK SLP104 T02560246 52009 IEM_DS3505
ZGOW,1995-05-26 22:00,ZGOW 262200Z AUTO 00000KT 2 1/2SM 25/25 A2985 RMK SLP111 T02500250 IEM_DS3505
ZGOW,1995-05-26 23:00,ZGOW 262300Z AUTO 06006KT 7SM 26/25 A2985 RMK SLP111 T02600250 IEM_DS3505
ZGOW,1995-05-27 00:00,ZGOW 270000Z AUTO 11006KT 6SM 27/25 A2988 RMK SLP122 T02710250 52018 IEM_DS3505
ZGOW,1995-05-27 01:00,ZGOW 270100Z AUTO 07006KT 7SM 28/25 A2991 RMK SLP132 T02800250 IEM_DS3505
ZGOW,1995-05-27 02:00,ZGOW 270200Z AUTO 07006KT 7SM 28/24 A2991 RMK SLP132 T02800240 IEM_DS3505
ZGOW,1995-05-27 03:00,ZGOW 270300Z AUTO 11006KT 5SM 28/24 A2988 RMK SLP123 T02810244 52001 IEM_DS3505
ZGOW,1995-05-27 06:00,ZGOW 270600Z AUTO 14006KT 8SM 28/24 A2985 RMK SLP109 T02820240 57014 IEM_DS3505
ZGOW,1995-05-27 07:00,ZGOW 270700Z AUTO 05006KT 7SM 29/24 A2983 RMK SLP105 T02900240 IEM_DS3505
ZGOW,1995-05-27 08:00,ZGOW 270800Z AUTO 04006KT 7SM 29/24 A2983 RMK SLP105 T02900240 IEM_DS3505
ZGOW,1995-05-27 09:00,ZGOW 270900Z AUTO 18006KT 7SM 26/24 A2983 RMK SLP103 T02600237 57006 IEM_DS3505
ZGOW,1995-05-27 10:00,ZGOW 271000Z AUTO 12010KT 7SM 26/23 A2983 RMK SLP105 T02600230 IEM_DS3505
ZGOW,1995-05-27 12:00,ZGOW 271200Z AUTO 09006KT 6SM 25/23 A2985 RMK SLP116 T02510229 52013 IEM_DS3505
ZGOW,1995-05-27 13:00,ZGOW 271300Z AUTO 05008KT 7SM 25/23 A2988 RMK SLP122 T02500230 IEM_DS3505
ZGOW,1995-05-27 15:00,ZGOW 271500Z AUTO 14004KT 6SM 25/23 A2991 RMK SLP132 T02500229 52016 IEM_DS3505
ZGOW,1995-05-27 18:00,ZGOW 271800Z AUTO 16004KT 6SM 24/23 A2988 RMK SLP123 T02410229 57009 IEM_DS3505
ZGOW,1995-05-27 21:00,ZGOW 272100Z AUTO 04004KT 6SM 24/23 A2988 RMK SLP118 T02420230 57005 IEM_DS3505
ZGOW,1995-05-27 23:00,ZGOW 272300Z AUTO 04004KT 4SM 24/23 A2991 RMK SLP132 T02400230 IEM_DS3505
ZGOW,1995-05-28 00:00,ZGOW 280000Z AUTO 04006KT 7SM 26/23 A2991 RMK SLP130 T02550232 52012 IEM_DS3505
ZGOW,1995-05-28 01:00,ZGOW 280100Z AUTO 00000KT 7SM 26/23 A2991 RMK SLP132 T02600230 IEM_DS3505
ZGOW,1995-05-28 02:00,ZGOW 280200Z AUTO 00000KT 7SM 27/23 A2991 RMK SLP132 T02700230 IEM_DS3505
ZGOW,1995-05-28 03:00,ZGOW 280300Z AUTO 22004KT 7SM 28/24 A2988 RMK SLP128 T02750236 57002 IEM_DS3505
ZGOW,1995-05-28 04:00,ZGOW 280400Z AUTO 12008KT 7SM 29/24 A2988 RMK SLP122 T02900240 IEM_DS3505
ZGOW,1995-05-28 06:00,ZGOW 280600Z AUTO 18004KT 9SM 30/25 A2985 RMK SLP106 T02980249 57022 IEM_DS3505
ZGOW,1995-05-28 07:00,ZGOW 280700Z AUTO 12010KT 6SM 30/25 A2983 RMK SLP105 T03000250 IEM_DS3505
ZGOW,1995-05-28 08:00,ZGOW 280800Z AUTO 12012KT 7SM 30/24 A2980 RMK SLP094 T03000240 IEM_DS3505
ZGOW,1995-05-28 09:00,ZGOW 280900Z AUTO 18008KT 7SM 28/24 A2980 RMK SLP085 T02760239 57021 IEM_DS3505
ZGOW,1995-05-28 10:00,ZGOW 281000Z AUTO 14006KT 6SM 27/24 A2977 RMK SLP084 T02700240 IEM_DS3505
ZGOW,1995-05-28 11:00,ZGOW 281100Z AUTO 14006KT 6SM 27/25 A2980 RMK SLP094 T02700250 IEM_DS3505
ZGOW,1995-05-28 12:00,ZGOW 281200Z AUTO 22004KT 7SM 26/24 A2983 RMK SLP102 T02640244 52017 IEM_DS3505
ZGOW,1995-05-28 13:00,ZGOW 281300Z AUTO 00000KT 6SM 26/24 A2983 RMK SLP105 T02600240 IEM_DS3505
ZGOW,1995-05-28 15:00,ZGOW 281500Z AUTO 18004KT 6SM 26/25 A2985 RMK SLP110 T02600246 52008 IEM_DS3505
ZGOW,1995-05-28 18:00,ZGOW 281800Z AUTO 27004KT 6SM 26/24 A2980 RMK SLP095 T02580245 57015 IEM_DS3505
ZGOW,1995-05-28 21:00,ZGOW 282100Z AUTO 00000KT 6SM 25/24 A2980 RMK SLP092 T02500243 57003 IEM_DS3505
ZGOW,1995-05-28 22:00,ZGOW 282200Z AUTO 00000KT 2SM 25/24 A2980 RMK SLP094 T02500240 IEM_DS3505
ZGOW,1995-05-28 23:00,ZGOW 282300Z AUTO 00000KT 2 1/2SM 26/25 A2983 RMK SLP105 T02600250 IEM_DS3505
ZGOW,1995-05-29 00:00,ZGOW 290000Z AUTO 00000KT 4SM 27/25 A2983 RMK SLP104 T02720249 52012 IEM_DS3505
ZGOW,1995-05-29 01:00,ZGOW 290100Z AUTO 00000KT 3SM 28/24 A2983 RMK SLP105 T02800240 IEM_DS3505
ZGOW,1995-05-29 02:00,ZGOW 290200Z AUTO 00000KT 3SM 29/25 A2983 RMK SLP105 T02900250 IEM_DS3505
ZGOW,1995-05-29 03:00,ZGOW 290300Z AUTO 22006KT 6SM 30/24 A2983 RMK SLP100 T02980239 57004 IEM_DS3505
ZGOW,1995-05-29 04:00,ZGOW 290400Z AUTO 15008KT 7SM 31/25 A2980 RMK SLP094 T03100250 IEM_DS3505
ZGOW,1995-05-29 06:00,ZGOW 290600Z AUTO 18006KT 8SM 32/25 A2977 RMK SLP082 T03200253 57018 IEM_DS3505
ZGOW,1995-05-29 07:00,ZGOW 290700Z AUTO 16008KT 6SM 32/25 A2974 RMK SLP074 T03200250 IEM_DS3505
ZGOW,1995-05-29 08:00,ZGOW 290800Z AUTO 15012KT 6SM 31/25 A2974 RMK SLP074 T03100250 IEM_DS3505
ZGOW,1995-05-29 09:00,ZGOW 290900Z AUTO 18008KT 9SM 30/23 A2974 RMK SLP070 T03050232 57012 IEM_DS3505
ZGOW,1995-05-29 10:00,ZGOW 291000Z AUTO 16008KT 7SM 29/25 A2974 RMK SLP074 T02900250 IEM_DS3505
ZGOW,1995-05-29 12:00,ZGOW 291200Z AUTO 18004KT 7SM 28/25 A2980 RMK SLP091 T02760246 52021 IEM_DS3505
ZGOW,1995-05-29 13:00,ZGOW 291300Z AUTO 11004KT 6SM 27/25 A2980 RMK SLP094 T02700250 IEM_DS3505
ZGOW,1995-05-29 14:00,ZGOW 291400Z AUTO 00000KT 6SM 27/25 A2983 RMK SLP105 T02700250 IEM_DS3505
ZGOW,1995-05-29 15:00,ZGOW 291500Z AUTO 14004KT 8SM 27/25 A2983 RMK SLP106 T02700250 52015 IEM_DS3505
ZGOW,1995-05-29 18:00,ZGOW 291800Z AUTO 11002KT 6SM 26/25 A2980 RMK SLP094 T02650249 57012 IEM_DS3505
ZGOW,1995-05-29 21:00,ZGOW 292100Z AUTO 07004KT 6SM 26/25 A2980 RMK SLP097 T02600249 52003 IEM_DS3505
ZGOW,1995-05-29 22:00,ZGOW 292200Z AUTO 00000KT 7SM 26/25 A2983 RMK SLP105 T02600250 IEM_DS3505
ZGOW,1995-05-29 23:00,ZGOW 292300Z AUTO 02004KT 4SM 27/25 A2983 RMK SLP105 T02700250 IEM_DS3505
ZGOW,1995-05-30 00:00,ZGOW 300000Z AUTO 07006KT 4SM 28/25 A2983 RMK SLP107 T02750254 52010 IEM_DS3505
ZGOW,1995-05-30 01:00,ZGOW 300100Z AUTO 06010KT 7SM 29/25 A2985 RMK SLP111 T02900250 IEM_DS3505
ZGOW,1995-05-30 02:00,ZGOW 300200Z AUTO 05010KT 7SM 30/24 A2985 RMK SLP111 T03000240 IEM_DS3505
ZGOW,1995-05-30 03:00,ZGOW 300300Z AUTO 09008KT 6SM 30/25 A2985 RMK SLP110 T02990247 52003 IEM_DS3505
ZGOW,1995-05-30 06:00,ZGOW 300600Z AUTO 11006KT 11SM 28/25 A2981 RMK SLP097 T02840247 57013 IEM_DS3505
ZGOW,1995-05-30 07:00,ZGOW 300700Z AUTO 08010KT 7SM 28/27 A2980 RMK SLP094 T02800270 IEM_DS3505
ZGOW,1995-05-30 08:00,ZGOW 300800Z AUTO 06010KT 7SM 28/26 A2980 RMK SLP094 T02800260 IEM_DS3505
ZGOW,1995-05-30 09:00,ZGOW 300900Z AUTO 09006KT 10SM 28/25 A2977 RMK SLP089 T02840250 57008 IEM_DS3505
ZGOW,1995-05-30 10:00,ZGOW 301000Z AUTO 09008KT 7SM 28/25 A2980 RMK SLP094 T02800250 IEM_DS3505
ZGOW,1995-05-30 12:00,ZGOW 301200Z AUTO 09006KT 7SM 27/25 A2980 RMK 60020 SLP102 T02740253 52013 IEM_DS3505
ZGOW,1995-05-30 13:00,ZGOW 301300Z AUTO 06006KT 7SM 27/26 A2985 RMK SLP111 T02700260 IEM_DS3505
ZGOW,1995-05-30 15:00,ZGOW 301500Z AUTO 09004KT 7SM 27/26 A2986 RMK SLP114 T02690255 52012 IEM_DS3505
ZGOW,1995-05-30 18:00,ZGOW 301800Z AUTO 04002KT 7SM 26/25 A2982 RMK SLP102 T02640251 57012 IEM_DS3505
ZGOW,1995-05-30 21:00,ZGOW 302100Z AUTO 09002KT 6SM 26/25 A2983 RMK 70020 SLP105 T02640253 52001 IEM_DS3505
ZGOW,1995-05-30 23:00,ZGOW 302300Z AUTO 09006KT 7SM 28/26 A2983 RMK SLP105 T02800260 IEM_DS3505
ZGOW,1995-05-31 00:00,ZGOW 310000Z AUTO 18004KT 7SM 29/26 A2985 RMK 70020 SLP110 T02870258 52007 IEM_DS3505
ZGOW,1995-05-31 01:00,ZGOW 310100Z AUTO 12008KT 7SM 29/26 A2985 RMK SLP111 T02900260 IEM_DS3505
ZGOW,1995-05-31 02:00,ZGOW 310200Z AUTO 12008KT 7SM 30/26 A2985 RMK SLP111 T03000260 IEM_DS3505
ZGOW,1995-05-31 03:00,ZGOW 310300Z AUTO 14006KT 12SM 30/25 A2985 RMK SLP113 T03020251 52003 IEM_DS3505
ZGOW,1995-05-31 04:00,ZGOW 310400Z AUTO 12012KT 7SM 31/25 A2985 RMK SLP111 T03100250 IEM_DS3505
ZGOW,1995-05-31 06:00,ZGOW 310600Z AUTO 14010KT 14SM 30/25 A2985 RMK SLP109 T02980250 57004 IEM_DS3505
ZGOW,1995-05-31 07:00,ZGOW 310700Z AUTO 12008KT 7SM 30/26 A2983 RMK SLP105 T03000260 IEM_DS3505
ZGOW,1995-05-31 08:00,ZGOW 310800Z AUTO 11010KT 7SM 30/25 A2980 RMK SLP094 T03000250 IEM_DS3505
ZGOW,1995-05-31 09:00,ZGOW 310900Z AUTO 11006KT 11SM 30/25 A2980 RMK SLP093 T02950254 57016 IEM_DS3505
ZGOW,1995-05-31 10:00,ZGOW 311000Z AUTO 13010KT 7SM 29/25 A2980 RMK SLP094 T02900250 IEM_DS3505
ZGOW,1995-05-31 12:00,ZGOW 311200Z AUTO 16006KT 9SM 28/26 A2985 RMK SLP107 T02800258 52014 IEM_DS3505
ZGOW,1995-05-31 13:00,ZGOW 311300Z AUTO 12008KT 7SM 28/25 A2985 RMK SLP111 T02800250 IEM_DS3505
ZGOW,1995-05-31 15:00,ZGOW 311500Z AUTO 18004KT 9SM 27/26 A2988 RMK SLP120 T02740256 52013 IEM_DS3505
ZGOW,1995-05-31 18:00,ZGOW 311800Z AUTO 18006KT 7SM 27/25 A2985 RMK SLP113 T02710253 57007 IEM_DS3505
ZGOW,1995-05-31 21:00,ZGOW 312100Z AUTO 04004KT 8SM 27/25 A2985 RMK SLP106 T02680252 57007 IEM_DS3505
ZGOW,1995-06-01 00:00,ZGOW 010000Z AUTO 11004KT 12SM 28/25 A2985 RMK SLP112 T02820246 52006 IEM_DS3505
ZGOW,1995-06-01 03:00,ZGOW 010300Z AUTO 18008KT 16SM 30/24 A2985 RMK SLP115 T02990245 52003 IEM_DS3505
ZGOW,1995-06-01 04:00,ZGOW 010400Z AUTO 10010KT 7SM 30/24 A2985 RMK SLP111 T03000240 IEM_DS3505
ZGOW,1995-06-01 06:00,ZGOW 010600Z AUTO 16008KT 19SM 31/25 A2985 RMK SLP110 T03060250 57005 IEM_DS3505
ZGOW,1995-06-01 07:00,ZGOW 010700Z AUTO 13008KT 7SM 31/25 A2983 RMK SLP105 T03100250 IEM_DS3505
ZGOW,1995-06-01 09:00,ZGOW 010900Z AUTO 18006KT 14SM 30/25 A2980 RMK SLP095 T02960254 57015 IEM_DS3505
ZGOW,1995-06-01 10:00,ZGOW 011000Z AUTO 12010KT 7SM 29/25 A2980 RMK SLP094 T02900250 IEM_DS3505
ZGOW,1995-06-01 11:00,ZGOW 011100Z AUTO 11008KT 6SM 28/25 A2980 RMK SLP094 T02800250 IEM_DS3505
ZGOW,1995-06-01 12:00,ZGOW 011200Z AUTO 16004KT 9SM 28/25 A2983 RMK SLP103 T02780251 52008 IEM_DS3505
ZGOW,1995-06-01 13:00,ZGOW 011300Z AUTO 12004KT 7SM 27/26 A2985 RMK SLP111 T02700260 IEM_DS3505
ZGOW,1995-06-01 14:00,ZGOW 011400Z AUTO 00000KT 7SM 27/25 A2985 RMK SLP111 T02700250 IEM_DS3505
ZGOW,1995-06-01 15:00,ZGOW 011500Z AUTO 09004KT 9SM 28/24 A2987 RMK SLP117 T02750245 52014 IEM_DS3505
ZGOW,1995-06-01 18:00,ZGOW 011800Z AUTO 04004KT 9SM 27/25 A2983 RMK SLP104 T02690252 57013 IEM_DS3505
ZGOW,1995-06-01 21:00,ZGOW 012100Z AUTO 00000KT 8SM 26/25 A2983 RMK SLP103 T02650248 57001 IEM_DS3505
ZGOW,1995-06-01 22:00,ZGOW 012200Z AUTO 00000KT 7SM 26/25 A2983 RMK SLP105 T02600250 IEM_DS3505
ZGOW,1995-06-01 23:00,ZGOW 012300Z AUTO 08004KT 7SM 28/25 A2985 RMK SLP111 T02800250 IEM_DS3505
ZGOW,1995-06-02 00:00,ZGOW 020000Z AUTO 11006KT 10SM 28/25 A2985 RMK SLP107 T02830246 52004 IEM_DS3505
ZGOW,1995-06-02 01:00,ZGOW 020100Z AUTO 08006KT 7SM 29/25 A2985 RMK SLP111 T02900250 IEM_DS3505
ZGOW,1995-06-02 02:00,ZGOW 020200Z AUTO 06008KT 7SM 29/25 A2985 RMK SLP111 T02900250 IEM_DS3505
ZGOW,1995-06-02 03:00,ZGOW 020300Z AUTO 18006KT 12SM 30/24 A2985 RMK SLP110 T03010243 52003 IEM_DS3505
ZGOW,1995-06-02 04:00,ZGOW 020400Z AUTO 12010KT 7SM 31/25 A2985 RMK SLP111 T03100250 IEM_DS3505
ZGOW,1995-06-02 06:00,ZGOW 020600Z AUTO 14006KT 14SM 31/26 A2980 RMK SLP094 T03080258 IEM_DS3505
ZGOW,1995-06-02 07:00,ZGOW 020700Z AUTO 08010KT 7SM 31/25 A2980 RMK SLP094 T03100250 IEM_DS3505
ZGOW,1995-06-02 09:00,ZGOW 020900Z AUTO 18006KT 10SM 30/26 A2975 RMK SLP079 T02970255 57015 IEM_DS3505
ZGOW,1995-06-02 10:00,ZGOW 021000Z AUTO 12012KT 7SM 29/25 A2974 RMK SLP074 T02900250 IEM_DS3505
ZGOW,1995-06-02 12:00,ZGOW 021200Z AUTO 14006KT 7SM 28/25 A2977 RMK SLP088 T02760251 52009 IEM_DS3505
ZGOW,1995-06-02 13:00,ZGOW 021300Z AUTO 10004KT 7SM 27/25 A2980 RMK SLP094 T02700250 IEM_DS3505
ZGOW,1995-06-02 14:00,ZGOW 021400Z AUTO 00000KT 7SM 28/26 A2983 RMK SLP105 T02800260 IEM_DS3505
ZGOW,1995-06-02 15:00,ZGOW 021500Z AUTO 18004KT 7SM 28/25 A2983 RMK SLP100 T02750252 52012 IEM_DS3505
ZGOW,1995-06-02 18:00,ZGOW 021800Z AUTO 09004KT 6SM 27/25 A2978 RMK SLP089 T02710251 57011 IEM_DS3505
ZGOW,1995-06-02 21:00,ZGOW 022100Z AUTO 20002KT 7SM 26/25 A2977 RMK SLP079 T02650248 57010 IEM_DS3505
ZGOW,1995-06-02 23:00,ZGOW 022300Z AUTO 00000KT 7SM RMK IEM_DS3505
ZGOW,1995-06-03 00:00,ZGOW 030000Z AUTO 29006KT 12SM 28/25 A2977 RMK SLP085 T02820252 52006 IEM_DS3505
ZGOW,1995-06-03 01:00,ZGOW 030100Z AUTO 27006KT 7SM 29/25 A2977 RMK SLP084 T02900250 IEM_DS3505
ZGOW,1995-06-03 02:00,ZGOW 030200Z AUTO 24008KT 7SM 29/ A2977 RMK SLP084 IEM_DS3505
ZGOW,1995-06-03 03:00,ZGOW 030300Z AUTO 18004KT 12SM 30/24 A2976 RMK SLP082 T03010237 57003 IEM_DS3505
ZGOW,1995-06-03 06:00,ZGOW 030600Z AUTO 18008KT 11SM 32/24 A2974 RMK SLP068 T03160241 57014 IEM_DS3505
ZGOW,1995-06-03 07:00,ZGOW 030700Z AUTO 12014KT 7SM 31/24 A2971 RMK SLP064 T03100240 IEM_DS3505
ZGOW,1995-06-03 08:00,ZGOW 030800Z AUTO 12012KT 7SM 31/24 A2968 RMK SLP054 T03100240 IEM_DS3505
ZGOW,1995-06-03 09:00,ZGOW 030900Z AUTO 16008KT 10SM 30/24 A2968 RMK SLP053 T03020241 57015 IEM_DS3505
ZGOW,1995-06-03 10:00,ZGOW 031000Z AUTO 15010KT 6SM 29/24 A2968 RMK SLP054 T02900240 IEM_DS3505
ZGOW,1995-06-03 12:00,ZGOW 031200Z AUTO 20006KT 9SM 28/25 A2971 RMK SLP069 T02800246 52016 IEM_DS3505
ZGOW,1995-06-03 13:00,ZGOW 031300Z AUTO 00000KT 7SM 28/25 A2974 RMK SLP074 T02800250 IEM_DS3505
ZGOW,1995-06-03 14:00,ZGOW 031400Z AUTO 00000KT 7SM 27/24 A2974 RMK SLP074 T02700240 IEM_DS3505
ZGOW,1995-06-03 15:00,ZGOW 031500Z AUTO 22004KT 9SM 28/25 A2975 RMK SLP077 T02750248 52008 IEM_DS3505
ZGOW,1995-06-03 18:00,ZGOW 031800Z AUTO 25004KT 8SM 27/25 A2970 RMK SLP059 T02670247 57018 IEM_DS3505
ZGOW,1995-06-03 21:00,ZGOW 032100Z AUTO 29002KT 7SM 26/25 A2971 RMK SLP063 T02620248 52004 IEM_DS3505
ZGOW,1995-06-03 22:00,ZGOW 032200Z AUTO 00000KT 5SM 25/25 A2971 RMK SLP064 T02500250 IEM_DS3505
ZGOW,1995-06-03 23:00,ZGOW 032300Z AUTO 00000KT 5SM 27/25 A2971 RMK SLP064 T02700250 IEM_DS3505
ZGOW,1995-06-04 00:00,ZGOW 040000Z AUTO 32002KT 10SM 28/25 A2971 RMK SLP067 T02840249 52004 IEM_DS3505
ZGOW,1995-06-04 01:00,ZGOW 040100Z AUTO 00000KT 7SM 29/24 A2971 RMK SLP064 T02900240 IEM_DS3505
ZGOW,1995-06-04 02:00,ZGOW 040200Z AUTO 24006KT 7SM 30/24 A2971 RMK SLP064 T03000240 IEM_DS3505
ZGOW,1995-06-04 03:00,ZGOW 040300Z AUTO 25004KT 14SM 31/23 A2971 RMK SLP064 T03100231 57003 IEM_DS3505
ZGOW,1995-06-04 06:00,ZGOW 040600Z AUTO 14008KT 14SM 31/24 A2968 RMK SLP054 T03140245 57010 IEM_DS3505
ZGOW,1995-06-04 09:00,ZGOW 040900Z AUTO 16004KT 12SM 30/24 A2966 RMK SLP046 T03050241 57008 IEM_DS3505
ZGOW,1995-06-04 12:00,ZGOW 041200Z AUTO 11006KT 10SM 28/24 A2970 RMK SLP059 T02840240 52013 IEM_DS3505
ZGOW,1995-06-04 13:00,ZGOW 041300Z AUTO 10006KT 6SM 28/25 A2968 RMK SLP054 T02800250 IEM_DS3505
ZGOW,1995-06-04 15:00,ZGOW 041500Z AUTO 09004KT 9SM 28/25 A2974 RMK SLP075 T02800250 52015 IEM_DS3505
ZGOW,1995-06-04 18:00,ZGOW 041800Z AUTO 09004KT 8SM 27/25 A2970 RMK SLP061 T02740246 57013 IEM_DS3505
ZGOW,1995-06-04 21:00,ZGOW 042100Z AUTO 07004KT 7SM 26/24 A2970 RMK SLP059 T02610236 57002 IEM_DS3505
ZGOW,1995-06-04 22:00,ZGOW 042200Z AUTO 06010KT 7SM 26/23 A2971 RMK SLP064 T02600230 IEM_DS3505
ZGOW,1995-06-04 23:00,ZGOW 042300Z AUTO 03010KT 7SM 27/23 A2974 RMK SLP074 T02700230 IEM_DS3505
ZGOW,1995-06-05 00:00,ZGOW 050000Z AUTO 07008KT 12SM 27/22 A2976 RMK SLP081 T02690222 52022 IEM_DS3505
ZGOW,1995-06-05 03:00,ZGOW 050300Z AUTO 04010KT 16SM 28/22 A2977 RMK SLP084 T02840219 52003 IEM_DS3505
ZGOW,1995-06-05 04:00,ZGOW 050400Z AUTO 06012KT 7SM A2977 RMK IEM_DS3505
ZGOW,1995-06-05 06:00,ZGOW 050600Z AUTO 09006KT 11SM 28/22 A2973 RMK SLP072 T02830220 57012 IEM_DS3505
ZGOW,1995-06-05 09:00,ZGOW 050900Z AUTO 14008KT 9SM 28/22 A2971 RMK SLP065 T02790217 57007 IEM_DS3505
ZGOW,1995-06-05 12:00,ZGOW 051200Z AUTO 09006KT 7SM 26/20 A2977 RMK SLP080 T02620205 52015 IEM_DS3505
ZGOW,1995-06-05 13:00,ZGOW 051300Z AUTO 07008KT 6SM 26/19 A2977 RMK SLP084 T02600190 IEM_DS3505
ZGOW,1995-06-05 14:00,ZGOW 051400Z AUTO 05008KT 6SM 26/17 A2977 RMK SLP084 T02600170 IEM_DS3505
ZGOW,1995-06-05 15:00,ZGOW 051500Z AUTO 07006KT 7SM 26/18 A2980 RMK SLP095 T02570184 52015 IEM_DS3505
ZGOW,1995-06-05 18:00,ZGOW 051800Z AUTO 09006KT 6SM 26/16 A2977 RMK SLP083 T02560158 57012 IEM_DS3505
ZGOW,1995-06-05 21:00,ZGOW 052100Z AUTO 04006KT 7SM 24/15 A2974 RMK SLP073 T02450153 57010 IEM_DS3505
ZGOW,1995-06-05 23:00,ZGOW 052300Z AUTO 01004KT 7SM 25/16 A2977 RMK SLP084 T02500160 IEM_DS3505
ZGOW,1995-06-06 00:00,ZGOW 060000Z AUTO 04004KT 10SM 27/16 A2979 RMK SLP090 T02690165 52017 IEM_DS3505
ZGOW,1995-06-06 03:00,ZGOW 060300Z AUTO 14008KT 10SM 28/14 A2982 RMK SLP100 T02830145 52010 IEM_DS3505
ZGOW,1995-06-06 06:00,ZGOW 060600Z AUTO 11006KT 12SM 30/17 A2977 RMK SLP079 T02960168 57021 IEM_DS3505
ZGOW,1995-06-06 09:00,ZGOW 060900Z AUTO 16008KT 12SM 27/21 A2971 RMK SLP063 T02740211 57016 IEM_DS3505
ZGOW,1995-06-06 10:00,ZGOW 061000Z AUTO 10008KT 6SM 26/21 A2971 RMK SLP064 T02600210 IEM_DS3505
ZGOW,1995-06-06 12:00,ZGOW 061200Z AUTO 09006KT 9SM 26/22 A2975 RMK SLP078 T02560216 52015 IEM_DS3505
ZGOW,1995-06-06 15:00,ZGOW 061500Z AUTO 07008KT 7SM 25/21 A2979 RMK SLP090 T02500214 52012 IEM_DS3505
ZGOW,1995-06-06 18:00,ZGOW 061800Z AUTO 09008KT 6SM 25/22 A2973 RMK SLP071 T02500216 57019 IEM_DS3505
ZGOW,1995-06-06 21:00,ZGOW 062100Z AUTO 09006KT 6SM 25/20 A2971 RMK SLP062 T02480197 57009 IEM_DS3505
ZGOW,1995-06-06 23:00,ZGOW 062300Z AUTO 04008KT 7SM 25/20 A2971 RMK SLP064 T02500200 IEM_DS3505
ZGOW,1995-06-07 00:00,ZGOW 070000Z AUTO 09006KT 9SM 26/20 A2971 RMK SLP067 T02610202 52005 IEM_DS3505
ZGOW,1995-06-07 02:00,ZGOW 070200Z AUTO 06008KT 7SM 26/20 A2974 RMK SLP074 T02600200 IEM_DS3505
ZGOW,1995-06-07 03:00,ZGOW 070300Z AUTO 09006KT 7SM 25/21 A2975 RMK SLP077 T02530213 52010 IEM_DS3505
ZGOW,1995-06-07 06:00,ZGOW 070600Z AUTO 02006KT 8SM 28/22 A2969 RMK SLP056 T02810219 57021 IEM_DS3505
ZGOW,1995-06-07 09:00,ZGOW 070900Z AUTO 09004KT 7SM 28/23 A2965 RMK SLP045 T02790228 57011 IEM_DS3505
ZGOW,1995-06-07 12:00,ZGOW 071200Z AUTO 09008KT 6SM 26/23 A2969 RMK SLP058 T02600231 52013 IEM_DS3505
ZGOW,1995-06-07 14:00,ZGOW 071400Z AUTO 05012KT 5SM 25/23 A2968 RMK SLP054 T02500230 IEM_DS3505
ZGOW,1995-06-07 15:00,ZGOW 071500Z AUTO 04008KT 5SM 25/24 A2968 RMK SLP054 T02540235 57004 IEM_DS3505
ZGOW,1995-06-07 18:00,ZGOW 071800Z AUTO 09008KT 5SM 25/23 A2964 RMK SLP041 T02520232 57013 IEM_DS3505
ZGOW,1995-06-07 21:00,ZGOW 072100Z AUTO 04006KT 4SM 25/23 A2962 RMK SLP039 T02510229 57002 IEM_DS3505
ZGOW,1995-06-08 00:00,ZGOW 080000Z AUTO 36004KT 5SM 26/23 A2965 RMK SLP042 T02580232 52003 IEM_DS3505
ZGOW,1995-06-08 01:00,ZGOW 080100Z AUTO 00000KT 5SM 28/23 A2965 RMK SLP044 T02800230 IEM_DS3505
ZGOW,1995-06-08 03:00,ZGOW 080300Z AUTO 14004KT 5SM 28/23 A2965 RMK SLP043 T02830232 52001 IEM_DS3505
ZGOW,1995-06-08 06:00,ZGOW 080600Z AUTO 27006KT 9SM 30/23 A2959 RMK SLP022 T03030231 57021 IEM_DS3505
ZGOW,1995-06-08 07:00,ZGOW 080700Z AUTO 14012KT 4SM 30/24 A2959 RMK SLP023 T03000240 IEM_DS3505
ZGOW,1995-06-08 09:00,ZGOW 080900Z AUTO 20008KT 6SM 28/24 A2956 RMK SLP014 T02780238 57008 IEM_DS3505
ZGOW,1995-06-08 10:00,ZGOW 081000Z AUTO 15010KT 7SM 27/24 A2959 RMK SLP023 T02700240 IEM_DS3505
ZGOW,1995-06-08 12:00,ZGOW 081200Z AUTO 6SM 27/24 A2959 RMK SLP030 T02660242 52016 IEM_DS3505
ZGOW,1995-06-08 13:00,ZGOW 081300Z AUTO 08006KT 7SM 26/23 A2962 RMK SLP034 T02600230 IEM_DS3505
ZGOW,1995-06-08 15:00,ZGOW 081500Z AUTO 14004KT 5SM 26/25 A2962 RMK SLP034 T02620246 52004 IEM_DS3505
ZGOW,1995-06-08 18:00,ZGOW 081800Z AUTO 09004KT 3SM 26/25 A2957 RMK 60028 SLP015 T02570248 57019 IEM_DS3505
ZGOW,1995-06-08 21:00,ZGOW 082100Z AUTO 00000KT 2 1/2SM 26/25 A2956 RMK 70031 SLP012 T02560250 57003 IEM_DS3505
ZGOW,1995-06-08 22:00,ZGOW 082200Z AUTO 03006KT 1 1/2SM 25/25 A2956 RMK SLP013 T02500250 IEM_DS3505
ZGOW,1995-06-08 23:00,ZGOW 082300Z AUTO 00000KT 7SM 26/25 A2956 RMK SLP013 T02600250 IEM_DS3505
ZGOW,1995-06-09 00:00,ZGOW 090000Z AUTO 09002KT 2 1/2SM 26/25 A2956 RMK 60016 70043 SLP019 T02580248 52007 IEM_DS3505
ZGOW,1995-06-09 01:00,ZGOW 090100Z AUTO 12006KT 5SM 26/25 A2959 RMK SLP023 T02600250 IEM_DS3505
ZGOW,1995-06-09 02:00,ZGOW 090200Z AUTO 07006KT 3SM 26/25 A2959 RMK SLP023 T02600250 IEM_DS3505
ZGOW,1995-06-09 03:00,ZGOW 090300Z AUTO 09004KT 2 1/2SM 26/25 A2957 RMK SLP017 T02590248 57002 IEM_DS3505
ZGOW,1995-06-09 04:00,ZGOW 090400Z AUTO 05006KT 4SM RMK IEM_DS3505
ZGOW,1995-06-09 06:00,ZGOW 090600Z AUTO 09008KT 4SM 25/25 A2951 RMK 60079 SLP995 T02530247 57022 IEM_DS3505
ZGOW,1995-06-09 07:00,ZGOW 090700Z AUTO 05014KT 7SM 25/24 A2950 RMK SLP993 T02500240 IEM_DS3505
ZGOW,1995-06-09 08:00,ZGOW 090800Z AUTO 04012KT 25/24 A2947 RMK SLP983 T02500240 IEM_DS3505
ZGOW,1995-06-09 09:00,ZGOW 090900Z AUTO 09008KT 9SM 25/23 A2947 RMK SLP988 T02500230 57007 IEM_DS3505
ZGOW,1995-06-09 10:00,ZGOW 091000Z AUTO 06014KT 7SM 25/23 A2950 RMK SLP993 T02500230 IEM_DS3505
ZGOW,1995-06-09 11:00,ZGOW 091100Z AUTO 05014KT 7SM 25/22 A2950 RMK SLP993 T02500220 IEM_DS3505
ZGOW,1995-06-09 12:00,ZGOW 091200Z AUTO 04006KT 9SM 25/23 A2953 RMK 60008 SLP009 T02500230 52021 IEM_DS3505
ZGOW,1995-06-09 13:00,ZGOW 091300Z AUTO 03006KT 7SM 25/22 A2956 RMK SLP013 T02500220 IEM_DS3505
ZGOW,1995-06-09 15:00,ZGOW 091500Z AUTO 04004KT 7SM 24/23 A2959 RMK SLP024 T02420230 52015 IEM_DS3505
ZGOW,1995-06-09 18:00,ZGOW 091800Z AUTO 25004KT 6SM 24/24 A2959 RMK SLP023 T02450235 57001 IEM_DS3505
ZGOW,1995-06-09 21:00,ZGOW 092100Z AUTO 36002KT 5SM 24/23 A2962 RMK 70094 SLP030 T02380229 52007 IEM_DS3505
ZGOW,1995-06-09 22:00,ZGOW 092200Z AUTO 21004KT 5SM 24/23 A2962 RMK SLP034 T02400230 IEM_DS3505
ZGOW,1995-06-09 23:00,ZGOW 092300Z AUTO 21004KT 7SM 24/23 A2962 RMK SLP034 T02400230 IEM_DS3505
ZGOW,1995-06-10 00:00,ZGOW 100000Z AUTO 18004KT 6SM 24/23 A2965 RMK 60002 70087 SLP048 T02420230 52018 IEM_DS3505
ZGOW,1995-06-10 01:00,ZGOW 100100Z AUTO 19004KT 7SM 25/23 A2968 RMK SLP054 T02500230 IEM_DS3505
ZGOW,1995-06-10 02:00,ZGOW 100200Z AUTO 14006KT 7SM 26/24 A2968 RMK SLP054 T02600240 IEM_DS3505
ZGOW,1995-06-10 03:00,ZGOW 100300Z AUTO 14004KT 9SM 27/23 A2968 RMK SLP060 T02660231 52012 IEM_DS3505
ZGOW,1995-06-10 04:00,ZGOW 100400Z AUTO 11012KT 7SM 28/22 A2968 RMK SLP054 T02800220 IEM_DS3505
ZGOW,1995-06-10 06:00,ZGOW 100600Z AUTO 09004KT 11SM 27/22 A2968 RMK SLP053 T02700215 57007 IEM_DS3505
ZGOW,1995-06-10 07:00,ZGOW 100700Z AUTO 09006KT 7SM 27/22 A2968 RMK SLP054 T02700220 IEM_DS3505
ZGOW,1995-06-10 08:00,ZGOW 100800Z AUTO 09010KT 7SM 25/22 A2968 RMK SLP054 T02500220 IEM_DS3505
ZGOW,1995-06-10 09:00,ZGOW 100900Z AUTO 11006KT 9SM 26/21 A2965 RMK SLP050 T02560213 57003 IEM_DS3505
ZGOW,1995-06-10 10:00,ZGOW 101000Z AUTO 06004KT 7SM 25/21 A2968 RMK SLP054 T02500210 IEM_DS3505
ZGOW,1995-06-10 12:00,ZGOW 101200Z AUTO 11004KT 7SM 25/21 A2971 RMK SLP069 T02540210 52019 IEM_DS3505
ZGOW,1995-06-10 13:00,ZGOW 101300Z AUTO 05004KT 7SM 25/22 A2974 RMK SLP074 T02500220 IEM_DS3505
ZGOW,1995-06-10 15:00,ZGOW 101500Z AUTO 04004KT 7SM 24/22 A2974 RMK SLP074 T02440225 52005 IEM_DS3505
ZGOW,1995-06-10 18:00,ZGOW 101800Z AUTO 04002KT 5SM 24/23 A2970 RMK 60004 SLP060 T02400230 57014 IEM_DS3505
ZGOW,1995-06-10 21:00,ZGOW 102100Z AUTO 04004KT 5SM 24/22 A2967 RMK 70004 SLP049 T02370225 57011 IEM_DS3505
ZGOW,1995-06-10 22:00,ZGOW 102200Z AUTO 01004KT 7SM 24/22 A2968 RMK SLP054 T02400220 IEM_DS3505
ZGOW,1995-06-10 23:00,ZGOW 102300Z AUTO 01006KT 7SM 25/21 A2971 RMK SLP064 T02500210 IEM_DS3505
ZGOW,1995-06-11 00:00,ZGOW 110000Z AUTO 04006KT 8SM 25/22 A2971 RMK 70004 SLP068 T02530217 52019 IEM_DS3505
ZGOW,1995-06-11 01:00,ZGOW 110100Z AUTO 03006KT 6SM 26/21 A2971 RMK SLP064 T02600210 IEM_DS3505
ZGOW,1995-06-11 02:00,ZGOW 110200Z AUTO 06012KT 6SM 28/20 A2971 RMK SLP064 T02800200 IEM_DS3505
ZGOW,1995-06-11 03:00,ZGOW 110300Z AUTO 04008KT 12SM 29/20 A2971 RMK SLP071 T02860202 52003 IEM_DS3505
ZGOW,1995-06-11 06:00,ZGOW 110600Z AUTO 09006KT 12SM 27/21 A2971 RMK SLP059 T02740211 57012 IEM_DS3505
ZGOW,1995-06-11 07:00,ZGOW 110700Z AUTO 05010KT 7SM 26/22 A2971 RMK SLP064 T02600220 IEM_DS3505
ZGOW,1995-06-11 09:00,ZGOW 110900Z AUTO 14004KT 7SM 24/21 A2968 RMK SLP058 T02440214 57001 IEM_DS3505
ZGOW,1995-06-11 10:00,ZGOW 111000Z AUTO 06006KT 7SM 25/22 A2971 RMK SLP064 T02500220 IEM_DS3505
ZGOW,1995-06-11 11:00,ZGOW 111100Z AUTO 00000KT 5SM 24/22 A2971 RMK SLP064 T02400220 IEM_DS3505
ZGOW,1995-06-11 12:00,ZGOW 111200Z AUTO 07002KT 3SM 24/22 A2973 RMK 60024 SLP071 T02350223 52013 IEM_DS3505
ZGOW,1995-06-11 13:00,ZGOW 111300Z AUTO 06006KT 5SM 24/22 A2974 RMK SLP074 T02400220 IEM_DS3505
ZGOW,1995-06-11 15:00,ZGOW 111500Z AUTO 07004KT 4SM 24/22 A2975 RMK SLP078 T02400216 52007 IEM_DS3505
ZGOW,1995-06-11 18:00,ZGOW 111800Z AUTO 04004KT 3SM 23/22 A2972 RMK 60000 SLP069 T02310224 57009 IEM_DS3505
ZGOW,1995-06-11 21:00,ZGOW 112100Z AUTO 29004KT 4SM 23/22 A2971 RMK 70024 SLP062 T02260215 57007 IEM_DS3505
ZGOW,1995-06-11 22:00,ZGOW 112200Z AUTO 00000KT 1 1/2SM 23/21 A2971 RMK SLP064 T02300210 IEM_DS3505
ZGOW,1995-06-11 23:00,ZGOW 112300Z AUTO 00000KT 2 1/2SM 24/22 A2974 RMK SLP074 T02400220 IEM_DS3505
ZGOW,1995-06-12 00:00,ZGOW 120000Z AUTO 29002KT 5SM 25/23 A2977 RMK 70024 SLP084 T02520226 52022 IEM_DS3505
ZGOW,1995-06-12 02:00,ZGOW 120200Z AUTO 00000KT 5SM 28/22 A2977 RMK SLP084 T02800220 IEM_DS3505
ZGOW,1995-06-12 03:00,ZGOW 120300Z AUTO 02004KT 6SM 29/23 A2977 RMK SLP081 T02940230 57003 IEM_DS3505
ZGOW,1995-06-12 06:00,ZGOW 120600Z AUTO 16006KT 7SM 30/24 A2971 RMK SLP069 T02980235 57012 IEM_DS3505
ZGOW,1995-06-12 07:00,ZGOW 120700Z AUTO 12012KT 7SM 30/23 A2971 RMK SLP064 T03000230 IEM_DS3505
ZGOW,1995-06-12 08:00,ZGOW 120800Z AUTO 12012KT 7SM 29/22 A2971 RMK SLP064 T02900220 IEM_DS3505
ZGOW,1995-06-12 09:00,ZGOW 120900Z AUTO 14008KT 7SM 28/22 A2971 RMK SLP064 T02770223 57005 IEM_DS3505
ZGOW,1995-06-12 10:00,ZGOW 121000Z AUTO 12012KT 7SM 27/22 A2971 RMK SLP064 T02700220 IEM_DS3505
ZGOW,1995-06-12 12:00,ZGOW 121200Z AUTO 20006KT 7SM 26/22 A2974 RMK SLP080 T02620217 52016 IEM_DS3505
ZGOW,1995-06-12 13:00,ZGOW 121300Z AUTO 00000KT 6SM 25/22 A2977 RMK SLP084 T02500220 IEM_DS3505
ZGOW,1995-06-12 14:00,ZGOW 121400Z AUTO 00000KT 6SM 24/22 A2980 RMK SLP094 T02400220 IEM_DS3505
ZGOW,1995-06-12 15:00,ZGOW 121500Z AUTO 20004KT 6SM 25/23 A2980 RMK SLP095 T02530230 52015 IEM_DS3505
ZGOW,1995-06-12 18:00,ZGOW 121800Z AUTO 04004KT 4SM 24/23 A2976 RMK SLP082 T02440231 57013 IEM_DS3505
ZGOW,1995-06-12 21:00,ZGOW 122100Z AUTO 00000KT 1 1/4SM 24/23 A2977 RMK SLP077 T02380231 57005 IEM_DS3505
ZGOW,1995-06-12 22:00,ZGOW 122200Z AUTO 00000KT 3SM 24/23 A2977 RMK SLP084 T02400230 IEM_DS3505
ZGOW,1995-06-12 23:00,ZGOW 122300Z AUTO 00000KT 3SM 25/23 A2977 RMK SLP084 T02500230 IEM_DS3505
ZGOW,1995-06-13 00:00,ZGOW 130000Z AUTO 09004KT 6SM 27/22 A2980 RMK SLP096 T02680225 52019 IEM_DS3505
ZGOW,1995-06-13 01:00,ZGOW 130100Z AUTO 06010KT 7SM 28/23 A2980 RMK SLP094 T02800230 IEM_DS3505
ZGOW,1995-06-13 02:00,ZGOW 130200Z AUTO 09010KT 7SM 29/23 A2983 RMK SLP105 T02900230 IEM_DS3505
ZGOW,1995-06-13 03:00,ZGOW 130300Z AUTO 14006KT 7SM 29/23 A2983 RMK SLP101 T02880233 52005 IEM_DS3505
ZGOW,1995-06-13 04:00,ZGOW 130400Z AUTO 12008KT 7SM 29/23 A2983 RMK SLP105 T02900230 IEM_DS3505
ZGOW,1995-06-13 06:00,ZGOW 130600Z AUTO 14004KT 9SM 28/23 A2977 RMK SLP088 T02840232 57013 IEM_DS3505
ZGOW,1995-06-13 07:00,ZGOW 130700Z AUTO 12014KT 7SM 29/23 A2977 RMK SLP084 T02900230 IEM_DS3505
ZGOW,1995-06-13 08:00,ZGOW 130800Z AUTO 12012KT 7SM 28/22 A2977 RMK SLP084 T02800220 IEM_DS3505
ZGOW,1995-06-13 09:00,ZGOW 130900Z AUTO 14006KT 9SM 28/24 A2977 RMK SLP080 T02750235 57008 IEM_DS3505
ZGOW,1995-06-13 10:00,ZGOW 131000Z AUTO 10008KT 6SM 27/23 A2977 RMK SLP084 T02700230 IEM_DS3505
ZGOW,1995-06-13 11:00,ZGOW 131100Z AUTO 12008KT 6SM 26/24 A2977 RMK SLP084 T02600240 IEM_DS3505
ZGOW,1995-06-13 12:00,ZGOW 131200Z AUTO 18006KT 7SM 26/24 A2977 RMK SLP095 T02640235 52015 IEM_DS3505
ZGOW,1995-06-13 13:00,ZGOW 131300Z AUTO 00000KT 6SM 26/24 A2983 RMK SLP105 T02600240 IEM_DS3505
ZGOW,1995-06-13 15:00,ZGOW 131500Z AUTO 09004KT 7SM 26/24 A2982 RMK SLP102 T02600241 52007 IEM_DS3505
ZGOW,1995-06-13 18:00,ZGOW 131800Z AUTO 07004KT 6SM 25/24 A2978 RMK SLP087 T02540237 57015 IEM_DS3505
ZGOW,1995-06-13 21:00,ZGOW 132100Z AUTO 09002KT 6SM 25/23 A2978 RMK SLP088 T02480227 52001 IEM_DS3505
ZGOW,1995-06-13 22:00,ZGOW 132200Z AUTO 03006KT 7SM 25/23 A2980 RMK SLP094 T02500230 IEM_DS3505
ZGOW,1995-06-13 23:00,ZGOW 132300Z AUTO 03006KT 7SM 25/23 A2980 RMK SLP094 T02500230 IEM_DS3505
ZGOW,1995-06-14 00:00,ZGOW 140000Z AUTO 04008KT 6SM 26/23 A2983 RMK SLP099 T02570229 52011 IEM_DS3505
ZGOW,1995-06-14 01:00,ZGOW 140100Z AUTO 04006KT 7SM 26/22 A2983 RMK SLP105 T02600220 IEM_DS3505
ZGOW,1995-06-14 02:00,ZGOW 140200Z AUTO 06010KT 7SM 26/23 A2983 RMK SLP105 T02600230 IEM_DS3505
ZGOW,1995-06-14 03:00,ZGOW 140300Z AUTO 07010KT 7SM 28/23 A2983 RMK SLP097 T02810227 57002 IEM_DS3505
ZGOW,1995-06-14 06:00,ZGOW 140600Z AUTO 04006KT 7SM 26/22 A2980 RMK 60000 SLP087 T02620225 57010 IEM_DS3505
ZGOW,1995-06-14 07:00,ZGOW 140700Z AUTO 05010KT 2 1/2SM 25/23 A2977 RMK SLP084 T02500230 IEM_DS3505
ZGOW,1995-06-14 08:00,ZGOW 140800Z AUTO 05008KT 7SM 25/23 A2977 RMK SLP084 T02500230 IEM_DS3505
ZGOW,1995-06-14 09:00,ZGOW 140900Z AUTO 09006KT 7SM 25/23 A2977 RMK SLP079 T02500226 57008 IEM_DS3505
ZGOW,1995-06-14 10:00,ZGOW 141000Z AUTO 04010KT 7SM 25/22 A2977 RMK SLP084 T02500220 IEM_DS3505
ZGOW,1995-06-14 11:00,ZGOW 141100Z AUTO 06010KT 7SM 25/22 A2977 RMK SLP084 T02500220 IEM_DS3505
ZGOW,1995-06-14 12:00,ZGOW 141200Z AUTO 09004KT 6SM 25/23 A2977 RMK 60004 SLP085 T02460231 52006 IEM_DS3505
ZGOW,1995-06-14 13:00,ZGOW 141300Z AUTO 04008KT 5SM 24/23 A2977 RMK SLP084 T02400230 IEM_DS3505
ZGOW,1995-06-14 14:00,ZGOW 141400Z AUTO 03004KT 4SM 24/24 A2977 RMK SLP084 T02400240 IEM_DS3505
ZGOW,1995-06-14 15:00,ZGOW 141500Z AUTO 09004KT 4SM 24/24 A2977 RMK SLP085 T02440238 54000 IEM_DS3505
ZGOW,1995-06-14 16:00,ZGOW 141600Z AUTO 01006KT 5SM 24/23 A2977 RMK SLP084 T02400230 IEM_DS3505
ZGOW,1995-06-14 18:00,ZGOW 141800Z AUTO 02002KT 3SM 24/24 A2974 RMK 60028 SLP073 T02400236 57012 IEM_DS3505
ZGOW,1995-06-14 21:00,ZGOW 142100Z AUTO 07002KT 3SM 24/24 A2971 RMK 70035 SLP068 T02420238 57005 IEM_DS3505
ZGOW,1995-06-14 23:00,ZGOW 142300Z AUTO 05004KT 2 1/2SM 25/24 A2974 RMK SLP074 T02500240 IEM_DS3505
ZGOW,1995-06-15 00:00,ZGOW 150000Z AUTO 00000KT 3SM 26/25 A2974 RMK 60012 70043 SLP073 T02580248 52005 IEM_DS3505
ZGOW,1995-06-15 02:00,ZGOW 150200Z AUTO 08004KT 2 1/2SM 26/24 RMK T02600240 IEM_DS3505
ZGOW,1995-06-15 03:00,ZGOW 150300Z AUTO 00000KT 4SM 27/25 A2972 RMK SLP067 T02720252 57006 IEM_DS3505
ZGOW,1995-06-15 06:00,ZGOW 150600Z AUTO 20010KT 7SM 29/26 A2968 RMK 60020 SLP056 T02860259 57011 IEM_DS3505
ZGOW,1995-06-15 07:00,ZGOW 150700Z AUTO 18012KT 7SM 29/26 A2968 RMK SLP054 T02900260 IEM_DS3505
ZGOW,1995-06-15 08:00,ZGOW 150800Z AUTO 18012KT 7SM 29/26 A2968 RMK SLP054 T02900260 IEM_DS3505
ZGOW,1995-06-15 09:00,ZGOW 150900Z AUTO 22004KT 3SM 27/26 A2966 RMK SLP048 T02730260 57008 IEM_DS3505
ZGOW,1995-06-15 10:00,ZGOW 151000Z AUTO 17008KT 7SM 27/26 A2968 RMK SLP054 T02700260 IEM_DS3505
ZGOW,1995-06-15 11:00,ZGOW 151100Z AUTO 17008KT 7SM 27/26 A2968 RMK SLP054 T02700260 IEM_DS3505
ZGOW,1995-06-15 12:00,ZGOW 151200Z AUTO 22006KT 6SM 27/26 A2969 RMK 60024 SLP058 T02710257 52010 IEM_DS3505
ZGOW,1995-06-15 13:00,ZGOW 151300Z AUTO 19006KT 7SM 27/26 A2968 RMK SLP054 T02700260 IEM_DS3505
ZGOW,1995-06-15 14:00,ZGOW 151400Z AUTO 21004KT 7SM 26/26 A2971 RMK SLP064 T02600260 IEM_DS3505
ZGOW,1995-06-15 15:00,ZGOW 151500Z AUTO 22006KT 6SM 27/26 A2971 RMK SLP063 T02730255 52005 IEM_DS3505
ZGOW,1995-06-15 18:00,ZGOW 151800Z AUTO 22008KT 6SM 27/25 A2969 RMK 60000 SLP056 T02740253 57007 IEM_DS3505
ZGOW,1995-06-15 21:00,ZGOW 152100Z AUTO 22006KT 7SM 27/25 A2966 RMK 70051 SLP046 T02740250 57010 IEM_DS3505
ZGOW,1995-06-15 22:00,ZGOW 152200Z AUTO 18003KT 27/26 A2968 RMK SLP054 T02700260 IEM_DS3505
ZGOW,1995-06-15 23:00,ZGOW 152300Z AUTO 19008KT 7SM 27/25 A2968 RMK SLP054 T02700250 IEM_DS3505
ZGOW,1995-06-16 00:00,ZGOW 160000Z AUTO 20008KT 10SM 28/26 A2968 RMK 70043 SLP056 T02810257 52010 IEM_DS3505
ZGOW,1995-06-16 01:00,ZGOW 160100Z AUTO 19008KT 7SM 28/26 A2968 RMK SLP054 T02800260 IEM_DS3505
ZGOW,1995-06-16 02:00,ZGOW 160200Z AUTO 19008KT 7SM 29/26 A2968 RMK SLP054 T02900260 IEM_DS3505
ZGOW,1995-06-16 03:00,ZGOW 160300Z AUTO 22010KT 14SM 30/26 A2968 RMK SLP053 T03000255 57003 IEM_DS3505
ZGOW,1995-06-16 04:00,ZGOW 160400Z AUTO 17012KT 7SM 30/26 A2968 RMK SLP054 T03000260 IEM_DS3505
ZGOW,1995-06-16 06:00,ZGOW 160600Z AUTO 22008KT 11SM 30/26 A2962 RMK SLP035 T03000261 57018 IEM_DS3505
ZGOW,1995-06-16 08:00,ZGOW 160800Z AUTO 21008KT 2 1/2SM 28/26 RMK T02800260 IEM_DS3505
ZGOW,1995-06-16 09:00,ZGOW 160900Z AUTO 22008KT 7SM 28/26 A2961 RMK SLP030 T02760259 57005 IEM_DS3505
ZGOW,1995-06-16 10:00,ZGOW 161000Z AUTO 20008KT 7SM 27/26 A2962 RMK SLP034 T02700260 IEM_DS3505
ZGOW,1995-06-16 12:00,ZGOW 161200Z AUTO 22008KT 9SM 28/25 A2962 RMK 60020 SLP040 T02820252 52010 IEM_DS3505
ZGOW,1995-06-16 13:00,ZGOW 161300Z AUTO 18008KT 7SM 27/26 A2965 RMK SLP044 T02700260 IEM_DS3505
ZGOW,1995-06-16 14:00,ZGOW 161400Z AUTO 18010KT 7SM 27/26 A2965 RMK SLP044 T02700260 IEM_DS3505
ZGOW,1995-06-16 15:00,ZGOW 161500Z AUTO 18004KT 7SM 28/26 A2968 RMK SLP053 T02780256 52013 IEM_DS3505
ZGOW,1995-06-16 18:00,ZGOW 161800Z AUTO 22006KT 6SM 28/26 A2966 RMK SLP047 T02750255 57006 IEM_DS3505
ZGOW,1995-06-16 21:00,ZGOW 162100Z AUTO 20006KT 7SM 27/25 A2965 RMK 70020 SLP041 T02730253 57006 IEM_DS3505
ZGOW,1995-06-16 22:00,ZGOW 162200Z AUTO 19008KT 7SM 27/26 A2965 RMK SLP044 T02700260 IEM_DS3505
ZGOW,1995-06-17 00:00,ZGOW 170000Z AUTO 22006KT 11SM 29/26 A2968 RMK 70020 SLP055 T02870255 52014 IEM_DS3505
ZGOW,1995-06-17 01:00,ZGOW 170100Z AUTO 21010KT 7SM 29/26 A2968 RMK SLP054 T02900260 IEM_DS3505
ZGOW,1995-06-17 03:00,ZGOW 170300Z AUTO 22012KT 11SM 30/26 A2969 RMK SLP057 T03020259 52002 IEM_DS3505
ZGOW,1995-06-17 04:00,ZGOW 170400Z AUTO 18014KT 7SM 31/27 A2968 RMK SLP054 T03100270 IEM_DS3505
ZGOW,1995-06-17 06:00,ZGOW 170600Z AUTO 22014KT 12SM 30/26 A2965 RMK SLP042 T02980255 57015 IEM_DS3505
ZGOW,1995-06-17 09:00,ZGOW 170900Z AUTO 20012KT 11SM 29/26 A2964 RMK SLP039 T02930257 57003 IEM_DS3505
ZGOW,1995-06-17 10:00,ZGOW 171000Z AUTO 20008KT 7SM 29/26 A2965 RMK SLP044 T02900260 IEM_DS3505
ZGOW,1995-06-17 11:00,ZGOW 171100Z AUTO 1 1/4SM RMK IEM_DS3505
ZGOW,1995-06-17 12:00,ZGOW 171200Z AUTO 22006KT 9SM 29/25 A2968 RMK SLP052 T02870253 52013 IEM_DS3505
ZGOW,1995-06-17 13:00,ZGOW 171300Z AUTO 18006KT 7SM 28/26 A2968 RMK SLP054 T02800260 IEM_DS3505
ZGOW,1995-06-17 14:00,ZGOW 171400Z AUTO 17006KT 7SM 28/21 A2971 RMK SLP064 T02800210 IEM_DS3505
ZGOW,1995-06-17 15:00,ZGOW 171500Z AUTO 22006KT 7SM 28/26 A2973 RMK SLP071 T02780263 52019 IEM_DS3505
ZGOW,1995-06-17 18:00,ZGOW 171800Z AUTO 29006KT 6SM 26/25 A2970 RMK 60002 SLP061 T02630249 57010 IEM_DS3505
ZGOW,1995-06-17 21:00,ZGOW 172100Z AUTO 27004KT 5SM 26/25 A2971 RMK 70051 SLP071 T02590250 52010 IEM_DS3505
ZGOW,1995-06-17 22:00,ZGOW 172200Z AUTO 00000KT 7SM RMK IEM_DS3505
ZGOW,1995-06-17 23:00,ZGOW 172300Z AUTO 00000KT 7SM 26/25 A2977 RMK SLP084 T02600250 IEM_DS3505
ZGOW,1995-06-18 00:00,ZGOW 180000Z AUTO 27004KT 6SM 26/25 A2978 RMK 60059 70059 SLP087 T02590250 52016 IEM_DS3505
ZGOW,1995-06-18 02:00,ZGOW 180200Z AUTO 00000KT 2 1/2SM 26/26 A2980 RMK SLP094 T02600260 IEM_DS3505
ZGOW,1995-06-18 03:00,ZGOW 180300Z AUTO 32002KT 6SM 28/26 A2980 RMK SLP094 T02760265 52007 IEM_DS3505
ZGOW,1995-06-18 06:00,ZGOW 180600Z AUTO 25008KT 7SM 28/26 A2979 RMK 60024 SLP090 T02810261 57004 IEM_DS3505
ZGOW,1995-06-18 07:00,ZGOW 180700Z AUTO 21004KT 7SM 27/25 A2980 RMK SLP094 T02700250 IEM_DS3505
ZGOW,1995-06-18 08:00,ZGOW 180800Z AUTO 21004KT 7SM 28/25 A2980 RMK SLP094 T02800250 IEM_DS3505
ZGOW,1995-06-18 09:00,ZGOW 180900Z AUTO 27006KT 11SM 29/25 A2977 RMK SLP080 T02900251 57010 IEM_DS3505
ZGOW,1995-06-18 10:00,ZGOW 181000Z AUTO 16006KT 6SM 28/26 A2977 RMK SLP084 T02800260 IEM_DS3505
ZGOW,1995-06-18 11:00,ZGOW 181100Z AUTO 15006KT 6SM 28/26 A2977 RMK SLP084 T02800260 IEM_DS3505
ZGOW,1995-06-18 12:00,ZGOW 181200Z AUTO 18006KT 7SM 28/26 A2980 RMK 60000 SLP090 T02750257 52010 IEM_DS3505
ZGOW,1995-06-18 13:00,ZGOW 181300Z AUTO 00000KT 7SM 27/26 A2980 RMK SLP094 T02700260 IEM_DS3505
ZGOW,1995-06-18 15:00,ZGOW 181500Z AUTO 18004KT 7SM 27/26 A2981 RMK SLP097 T02710257 52007 IEM_DS3505
ZGOW,1995-06-18 18:00,ZGOW 181800Z AUTO 20006KT 7SM 27/26 A2978 RMK SLP086 T02740259 57011 IEM_DS3505
ZGOW,1995-06-18 21:00,ZGOW 182100Z AUTO 20004KT 9SM 27/26 A2980 RMK 70031 SLP092 T02720255 52006 IEM_DS3505
ZGOW,1995-06-18 23:00,ZGOW 182300Z AUTO 18008KT 6SM 28/25 A2983 RMK SLP105 T02800250 IEM_DS3505
ZGOW,1995-06-19 00:00,ZGOW 190000Z AUTO 22008KT 14SM 29/26 A2985 RMK 70024 SLP110 T02900255 52018 IEM_DS3505
ZGOW,1995-06-19 01:00,ZGOW 190100Z AUTO 18008KT 7SM 30/26 A2985 RMK SLP111 T03000260 IEM_DS3505
ZGOW,1995-06-19 02:00,ZGOW 190200Z AUTO 17010KT 7SM 31/26 A2983 RMK SLP105 T03100260 IEM_DS3505
ZGOW,1995-06-19 03:00,ZGOW 190300Z AUTO 22010KT 16SM 31/26 A2985 RMK SLP106 T03080261 57004 IEM_DS3505
ZGOW,1995-06-19 06:00,ZGOW 190600Z AUTO 22012KT 19SM 32/26 A2978 RMK SLP089 T03200257 57017 IEM_DS3505
ZGOW,1995-06-19 07:00,ZGOW 190700Z AUTO 17007KT 31/28 A2977 RMK SLP084 T03100280 IEM_DS3505
ZGOW,1995-06-19 08:00,ZGOW 190800Z AUTO 16012KT 7SM 30/27 A2977 RMK SLP084 T03000270 IEM_DS3505
ZGOW,1995-06-19 09:00,ZGOW 190900Z AUTO 20012KT 16SM 31/26 A2977 RMK SLP081 T03060260 57008 IEM_DS3505
ZGOW,1995-06-19 10:00,ZGOW 191000Z AUTO 18010KT 7SM 30/26 A2977 RMK SLP084 T03000260 IEM_DS3505
ZGOW,1995-06-19 11:00,ZGOW 191100Z AUTO 18006KT 7SM 29/26 A2977 RMK SLP084 T02900260 IEM_DS3505
ZGOW,1995-06-19 12:00,ZGOW 191200Z AUTO 20008KT 11SM 29/26 A2980 RMK SLP089 T02870258 52008 IEM_DS3505
ZGOW,1995-06-19 13:00,ZGOW 191300Z AUTO 18006KT 7SM 28/26 A2983 RMK SLP105 T02800260 IEM_DS3505
ZGOW,1995-06-19 14:00,ZGOW 191400Z AUTO 18006KT 7SM 28/26 A2983 RMK SLP105 T02800260 IEM_DS3505
ZGOW,1995-06-19 15:00,ZGOW 191500Z AUTO 20006KT 10SM 28/26 A2982 RMK SLP101 T02820258 52012 IEM_DS3505
ZGOW,1995-06-19 18:00,ZGOW 191800Z AUTO 22004KT 9SM 28/26 A2981 RMK SLP099 T02780263 57002 IEM_DS3505
ZGOW,1995-06-19 21:00,ZGOW 192100Z AUTO 20006KT 9SM 28/26 A2983 RMK SLP099 T02770257 54000 IEM_DS3505
ZGOW,1995-06-19 23:00,ZGOW 192300Z AUTO 00000KT 7SM 28/27 A2983 RMK SLP105 T02800270 IEM_DS3505
ZGOW,1995-06-20 00:00,ZGOW 200000Z AUTO 22010KT 14SM 29/26 A2984 RMK SLP108 T02870256 52009 IEM_DS3505
ZGOW,1995-06-20 01:00,ZGOW 200100Z AUTO 17008KT 7SM 30/27 A2985 RMK SLP111 T03000270 IEM_DS3505
ZGOW,1995-06-20 02:00,ZGOW 200200Z AUTO 20006KT 7SM 28/27 A2985 RMK SLP111 T02800270 IEM_DS3505
ZGOW,1995-06-20 03:00,ZGOW 200300Z AUTO 27006KT 14SM 29/26 A2983 RMK SLP098 T02890258 57010 IEM_DS3505
ZGOW,1995-06-20 04:00,ZGOW 200400Z AUTO 21004KT 7SM 29/27 A2983 RMK SLP105 T02900270 IEM_DS3505
ZGOW,1995-06-20 06:00,ZGOW 200600Z AUTO 22012KT 14SM 32/25 A2978 RMK 60004 SLP086 T03170253 57012 IEM_DS3505
ZGOW,1995-06-20 07:00,ZGOW 200700Z AUTO 18008KT 7SM 31/27 A2977 RMK SLP084 T03100270 IEM_DS3505
ZGOW,1995-06-20 08:00,ZGOW 200800Z AUTO 16014KT 6SM 32/26 A2977 RMK SLP084 T03200260 IEM_DS3505
ZGOW,1995-06-20 09:00,ZGOW 200900Z AUTO 22014KT 14SM 32/25 A2977 RMK SLP079 T03160253 57007 IEM_DS3505
ZGOW,1995-06-20 10:00,ZGOW 201000Z AUTO 19014KT 6SM 30/26 A2977 RMK SLP084 T03000260 IEM_DS3505
ZGOW,1995-06-20 12:00,ZGOW 201200Z AUTO 22010KT 11SM 29/25 A2980 RMK SLP090 T02920253 52011 IEM_DS3505
ZGOW,1995-06-20 13:00,ZGOW 201300Z AUTO 18010KT 6SM 28/25 A2980 RMK SLP094 T02800250 IEM_DS3505
ZGOW,1995-06-20 15:00,ZGOW 201500Z AUTO 22008KT 9SM 28/25 A2979 RMK SLP091 T02850254 52001 IEM_DS3505
ZGOW,1995-06-20 18:00,ZGOW 201800Z AUTO 22006KT 9SM 28/26 A2975 RMK SLP076 T02800255 57015 IEM_DS3505
ZGOW,1995-06-20 21:00,ZGOW 202100Z AUTO 22006KT 9SM 28/25 A2977 RMK 70004 SLP083 T02770252 52007 IEM_DS3505
ZGOW,1995-06-20 22:00,ZGOW 202200Z AUTO 17004KT 7SM 27/26 A2977 RMK SLP084 T02700260 IEM_DS3505
ZGOW,1995-06-20 23:00,ZGOW 202300Z AUTO 20006KT 7SM 28/26 A2980 RMK SLP094 T02800260 IEM_DS3505
ZGOW,1995-06-21 00:00,ZGOW 210000Z AUTO 22010KT 12SM 30/25 A2980 RMK 70004 SLP099 T02960251 52016 IEM_DS3505
ZGOW,1995-06-21 01:00,ZGOW 210100Z AUTO 20012KT 6SM 30/26 A2983 RMK SLP105 T03000260 IEM_DS3505
ZGOW,1995-06-21 02:00,ZGOW 210200Z AUTO 20010KT 7SM 31/25 A2983 RMK SLP105 T03100250 IEM_DS3505
ZGOW,1995-06-21 03:00,ZGOW 210300Z AUTO 25012KT 19SM 33/25 A2980 RMK SLP096 T03260250 57003 IEM_DS3505
ZGOW,1995-06-21 06:00,ZGOW 210600Z AUTO 25014KT 19SM 33/26 A2974 RMK SLP064 T03320256 57032 IEM_DS3505
ZGOW,1995-06-21 07:00,ZGOW 210700Z AUTO 19016KT 7SM 32/25 A2971 RMK SLP064 T03200250 IEM_DS3505
ZGOW,1995-06-21 08:00,ZGOW 210800Z AUTO 19014KT 7SM 32/25 A2971 RMK SLP064 T03200250 IEM_DS3505
ZGOW,1995-06-21 09:00,ZGOW 210900Z AUTO 22012KT 19SM 32/25 A2971 RMK SLP059 T03160250 57005 IEM_DS3505
ZGOW,1995-06-21 10:00,ZGOW 211000Z AUTO 21006KT 6SM 31/25 A2971 RMK SLP064 T03100250 IEM_DS3505
ZGOW,1995-06-21 11:00,ZGOW 211100Z AUTO 20008KT 6SM 30/25 A2974 RMK SLP074 T03000250 IEM_DS3505
ZGOW,1995-06-21 12:00,ZGOW 211200Z AUTO 22010KT 11SM 30/25 A2974 RMK SLP070 T02950254 52011 IEM_DS3505
ZGOW,1995-06-21 15:00,ZGOW 211500Z AUTO 22004KT 9SM 29/25 A2976 RMK SLP081 T02870250 52011 IEM_DS3505
ZGOW,1995-06-21 18:00,ZGOW 211800Z AUTO 22008KT 9SM 28/25 A2971 RMK SLP064 T02840250 57017 IEM_DS3505
ZGOW,1995-06-21 21:00,ZGOW 212100Z AUTO 22004KT 9SM 28/25 A2971 RMK SLP067 T02780253 52003 IEM_DS3505
ZGOW,1995-06-21 22:00,ZGOW 212200Z AUTO 00000KT 7SM 28/26 A2974 RMK SLP074 T02800260 IEM_DS3505
ZGOW,1995-06-22 00:00,ZGOW 220000Z AUTO 22008KT 8SM 29/25 A2977 RMK SLP081 T02940252 52014 IEM_DS3505
ZGOW,1995-06-22 01:00,ZGOW 220100Z AUTO 21010KT 7SM 30/26 A2977 RMK SLP084 T03000260 IEM_DS3505
ZGOW,1995-06-22 02:00,ZGOW 220200Z AUTO 22010KT 7SM 32/25 A2977 RMK SLP084 T03200250 IEM_DS3505
ZGOW,1995-06-22 03:00,ZGOW 220300Z AUTO 22010KT 11SM 33/25 A2975 RMK SLP076 T03320254 57005 IEM_DS3505
ZGOW,1995-06-22 04:00,ZGOW 220400Z AUTO 16014KT 7SM 32/26 A2974 RMK SLP074 T03200260 IEM_DS3505
ZGOW,1995-06-22 05:00,ZGOW 220500Z AUTO 18014KT 7SM 33/26 A2971 RMK SLP064 T03300260 IEM_DS3505
ZGOW,1995-06-22 06:00,ZGOW 220600Z AUTO 22014KT 19SM 33/25 A2970 RMK SLP059 T03320248 57017 IEM_DS3505
ZGOW,1995-06-22 07:00,ZGOW 220700Z AUTO 18014KT 7SM 33/25 A2968 RMK SLP054 T03300250 IEM_DS3505
ZGOW,1995-06-22 08:00,ZGOW 220800Z AUTO 18016KT 7SM 33/26 A2968 RMK SLP054 T03300260 IEM_DS3505
ZGOW,1995-06-22 09:00,ZGOW 220900Z AUTO 22016KT 12SM 32/26 A2968 RMK SLP052 T03250258 57007 IEM_DS3505
ZGOW,1995-06-22 10:00,ZGOW 221000Z AUTO 18010KT 7SM 32/25 A2968 RMK SLP054 T03200250 IEM_DS3505
ZGOW,1995-06-22 11:00,ZGOW 221100Z AUTO 20012KT 7SM 31/25 A2968 RMK SLP054 T03100250 IEM_DS3505
ZGOW,1995-06-22 12:00,ZGOW 221200Z AUTO 22014KT 11SM 30/25 A2968 RMK SLP056 T02950253 52004 IEM_DS3505
ZGOW,1995-06-22 13:00,ZGOW 221300Z AUTO 19010KT 6SM 30/24 A2971 RMK SLP064 T03000240 IEM_DS3505
ZGOW,1995-06-22 15:00,ZGOW 221500Z AUTO 22010KT 10SM 29/25 A2972 RMK SLP069 T02880254 52013 IEM_DS3505
ZGOW,1995-06-22 18:00,ZGOW 221800Z AUTO 22008KT 10SM 28/25 A2970 RMK SLP059 T02820252 57010 IEM_DS3505
ZGOW,1995-06-22 21:00,ZGOW 222100Z AUTO 22008KT 7SM 28/25 A2971 RMK SLP070 T02760251 52011 IEM_DS3505
ZGOW,1995-06-22 22:00,ZGOW 222200Z AUTO 21004KT 6SM 27/25 A2971 RMK SLP064 T02700250 IEM_DS3505
ZGOW,1995-06-22 23:00,ZGOW 222300Z AUTO 22006KT 7SM 28/25 A2974 RMK SLP074 T02800250 IEM_DS3505
ZGOW,1995-06-23 00:00,ZGOW 230000Z AUTO 22010KT 12SM 29/25 A2977 RMK 60000 SLP084 T02940247 52014 IEM_DS3505
ZGOW,1995-06-23 01:00,ZGOW 230100Z AUTO 21010KT 7SM 30/25 A2977 RMK SLP084 T03000250 IEM_DS3505
ZGOW,1995-06-23 02:00,ZGOW 230200Z AUTO 21012KT 7SM 31/25 A2977 RMK SLP084 T03100250 IEM_DS3505
ZGOW,1995-06-23 03:00,ZGOW 230300Z AUTO 25010KT 19SM 33/24 A2977 RMK SLP081 T03260239 57003 IEM_DS3505
ZGOW,1995-06-23 04:00,ZGOW 230400Z AUTO 17010KT 7SM 33/25 A2977 RMK SLP084 T03300250 IEM_DS3505
ZGOW,1995-06-23 06:00,ZGOW 230600Z AUTO 22010KT 19SM 33/24 A2971 RMK SLP062 T03340245 57019 IEM_DS3505
ZGOW,1995-06-23 07:00,ZGOW 230700Z AUTO 18014KT 7SM 32/25 A2971 RMK SLP064 T03200250 IEM_DS3505
ZGOW,1995-06-23 08:00,ZGOW 230800Z AUTO 18010KT 7SM 32/25 A2968 RMK SLP054 T03200250 IEM_DS3505
ZGOW,1995-06-23 09:00,ZGOW 230900Z AUTO 22014KT 12SM 32/25 A2968 RMK SLP051 T03180249 57011 IEM_DS3505
ZGOW,1995-06-23 10:00,ZGOW 231000Z AUTO 18014KT 6SM 30/25 A2968 RMK SLP054 T03000250 IEM_DS3505
ZGOW,1995-06-23 11:00,ZGOW 231100Z AUTO 20014KT 6SM 29/25 A2968 RMK SLP054 T02900250 IEM_DS3505
ZGOW,1995-06-23 12:00,ZGOW 231200Z AUTO 22010KT 11SM 29/25 A2971 RMK SLP058 T02900251 52007 IEM_DS3505
ZGOW,1995-06-23 13:00,ZGOW 231300Z AUTO 21008KT 6SM 28/25 A2971 RMK SLP064 T02800250 IEM_DS3505
ZGOW,1995-06-23 15:00,ZGOW 231500Z AUTO 22008KT 11SM 29/25 A2975 RMK SLP079 T02860254 52021 IEM_DS3505
ZGOW,1995-06-23 18:00,ZGOW 231800Z AUTO 22006KT 10SM 28/25 A2973 RMK SLP070 T02800253 57009 IEM_DS3505
ZGOW,1995-06-23 21:00,ZGOW 232100Z AUTO 22004KT 9SM 28/25 A2972 RMK 70000 SLP069 T02790249 57001 IEM_DS3505
ZGOW,1995-06-23 22:00,ZGOW 232200Z AUTO 00000KT 7SM 26/25 A2974 RMK SLP074 T02600250 IEM_DS3505
ZGOW,1995-06-23 23:00,ZGOW 232300Z AUTO 20006KT 7SM 28/26 A2974 RMK SLP074 T02800260 IEM_DS3505
ZGOW,1995-06-24 00:00,ZGOW 240000Z AUTO 22008KT 19SM 30/26 A2977 RMK SLP080 T02970255 52011 IEM_DS3505
ZGOW,1995-06-24 01:00,ZGOW 240100Z AUTO 23010KT 30/26 A2977 RMK SLP084 T03000260 IEM_DS3505
ZGOW,1995-06-24 02:00,ZGOW 240200Z AUTO 24010KT 7SM 31/26 A2974 RMK SLP074 T03100260 IEM_DS3505
ZGOW,1995-06-24 03:00,ZGOW 240300Z AUTO 25008KT 19SM 32/25 A2974 RMK SLP076 T03200254 57004 IEM_DS3505
ZGOW,1995-06-24 04:00,ZGOW 240400Z AUTO 17006KT 7SM 33/26 A2974 RMK SLP074 T03300260 IEM_DS3505
ZGOW,1995-06-24 06:00,ZGOW 240600Z AUTO 22014KT 19SM 35/25 A2971 RMK 60004 SLP057 T03460247 57019 IEM_DS3505
ZGOW,1995-06-24 07:00,ZGOW 240700Z AUTO 17014KT 7SM 33/26 A2968 RMK SLP054 T03300260 IEM_DS3505
ZGOW,1995-06-24 08:00,ZGOW 240800Z AUTO 16016KT 7SM 33/26 A2968 RMK SLP054 T03300260 IEM_DS3505
ZGOW,1995-06-24 09:00,ZGOW 240900Z AUTO 22016KT 16SM 33/25 A2965 RMK SLP050 T03300253 57007 IEM_DS3505
ZGOW,1995-06-24 12:00,ZGOW 241200Z AUTO 22010KT 11SM 30/25 A2972 RMK SLP067 T03000251 52017 IEM_DS3505
ZGOW,1995-06-24 13:00,ZGOW 241300Z AUTO 22012KT 7SM 29/25 A2971 RMK SLP064 T02900250 IEM_DS3505
ZGOW,1995-06-24 14:00,ZGOW 241400Z AUTO 18010KT 7SM 29/25 A2971 RMK SLP064 T02900250 IEM_DS3505
ZGOW,1995-06-24 15:00,ZGOW 241500Z AUTO 22008KT 9SM 29/25 A2974 RMK SLP073 T02880253 52006 IEM_DS3505
ZGOW,1995-06-24 18:00,ZGOW 241800Z AUTO 22008KT 9SM 28/25 A2971 RMK SLP064 T02840252 57009 IEM_DS3505
ZGOW,1995-06-24 21:00,ZGOW 242100Z AUTO 22006KT 7SM 28/25 A2973 RMK 70004 SLP070 T02770249 52006 IEM_DS3505
ZGOW,1995-06-24 22:00,ZGOW 242200Z AUTO 21006KT 7SM 27/25 A2974 RMK SLP074 T02700250 IEM_DS3505
ZGOW,1995-06-24 23:00,ZGOW 242300Z AUTO 18006KT 7SM 29/25 A2974 RMK SLP074 T02900250 IEM_DS3505
ZGOW,1995-06-25 00:00,ZGOW 250000Z AUTO 25008KT 19SM 30/25 A2974 RMK 70004 SLP076 T02990251 52006 IEM_DS3505
ZGOW,1995-06-25 01:00,ZGOW 250100Z AUTO 22010KT 7SM 31/25 A2974 RMK SLP074 T03100250 IEM_DS3505
ZGOW,1995-06-25 02:00,ZGOW 250200Z AUTO 21010KT 7SM 32/24 A2974 RMK SLP074 T03200240 IEM_DS3505
ZGOW,1995-06-25 03:00,ZGOW 250300Z AUTO 25012KT 19SM 32/24 A2971 RMK SLP064 T03230242 57012 IEM_DS3505
ZGOW,1995-06-25 04:00,ZGOW 250400Z AUTO 23012KT 7SM 33/24 A2971 RMK SLP064 T03300240 IEM_DS3505
ZGOW,1995-06-25 06:00,ZGOW 250600Z AUTO 22016KT 19SM 34/24 A2968 RMK SLP050 T03420239 57014 IEM_DS3505
ZGOW,1995-06-25 07:00,ZGOW 250700Z AUTO 19012KT 7SM 34/24 A2965 RMK SLP044 T03400240 IEM_DS3505
ZGOW,1995-06-25 08:00,ZGOW 250800Z AUTO 20012KT 6SM 34/24 A2965 RMK SLP044 T03400240 IEM_DS3505
ZGOW,1995-06-25 09:00,ZGOW 250900Z AUTO 22017KT 19SM 33/24 A2965 RMK SLP041 T03320240 57009 IEM_DS3505
ZGOW,1995-06-25 10:00,ZGOW 251000Z AUTO 19010KT 6SM 32/25 A2965 RMK SLP044 T03200250 IEM_DS3505
ZGOW,1995-06-25 12:00,ZGOW 251200Z AUTO 22012KT 14SM 30/24 A2968 RMK SLP059 T02970245 52018 IEM_DS3505
ZGOW,1995-06-25 13:00,ZGOW 251300Z AUTO 19008KT 6SM 29/25 A2971 RMK SLP064 T02900250 IEM_DS3505
ZGOW,1995-06-25 15:00,ZGOW 251500Z AUTO 25004KT 11SM 29/25 A2976 RMK SLP080 T02870252 52021 IEM_DS3505
ZGOW,1995-06-25 18:00,ZGOW 251800Z AUTO 22004KT 9SM 28/25 A2971 RMK SLP065 T02810253 57015 IEM_DS3505
ZGOW,1995-06-25 21:00,ZGOW 252100Z AUTO 22006KT 6SM 28/26 A2971 RMK SLP060 T02760255 57005 IEM_DS3505
ZGOW,1995-06-25 22:00,ZGOW 252200Z AUTO 18008KT 7SM 27/26 A2971 RMK SLP064 T02700260 IEM_DS3505
ZGOW,1995-06-25 23:00,ZGOW 252300Z AUTO 17008KT 7SM 28/26 A2971 RMK SLP064 T02800260 IEM_DS3505
ZGOW,1995-06-26 00:00,ZGOW 260000Z AUTO 22010KT 14SM 29/26 A2974 RMK 60000 SLP066 T02900258 52006 IEM_DS3505
ZGOW,1995-06-26 01:00,ZGOW 260100Z AUTO 21008KT 7SM 29/26 A2974 RMK SLP074 T02900260 IEM_DS3505
ZGOW,1995-06-26 02:00,ZGOW 260200Z AUTO 18008KT 7SM 31/26 A2974 RMK SLP074 T03100260 IEM_DS3505
ZGOW,1995-06-26 03:00,ZGOW 260300Z AUTO 20010KT 16SM 32/25 A2971 RMK SLP066 T03170254 54000 IEM_DS3505
ZGOW,1995-06-26 06:00,ZGOW 260600Z AUTO 22016KT 19SM 33/24 A2967 RMK 60002 SLP052 T03330244 57014 IEM_DS3505
ZGOW,1995-06-26 07:00,ZGOW 260700Z AUTO 20014KT 7SM 31/26 A2968 RMK SLP054 T03100260 IEM_DS3505
ZGOW,1995-06-26 08:00,ZGOW 260800Z AUTO 18012KT 7SM 31/25 A2965 RMK SLP044 T03100250 IEM_DS3505
ZGOW,1995-06-26 09:00,ZGOW 260900Z AUTO 22012KT 19SM 32/25 A2965 RMK SLP041 T03210251 57011 IEM_DS3505
ZGOW,1995-06-26 10:00,ZGOW 261000Z AUTO 17010KT 6SM 30/26 A2965 RMK SLP044 T03000260 IEM_DS3505
ZGOW,1995-06-26 12:00,ZGOW 261200Z AUTO 22010KT 17SM 30/25 A2968 RMK SLP053 T02950254 52012 IEM_DS3505
ZGOW,1995-06-26 15:00,ZGOW 261500Z AUTO 18006KT 16SM 28/26 A2971 RMK SLP063 T02830264 52010 IEM_DS3505
ZGOW,1995-06-26 18:00,ZGOW 261800Z AUTO 20010KT 10SM 28/26 A2967 RMK 60000 SLP051 T02850256 57012 IEM_DS3505
ZGOW,1995-06-26 21:00,ZGOW 262100Z AUTO 22006KT 9SM 28/26 A2965 RMK 70004 SLP042 T02790255 57009 IEM_DS3505
ZGOW,1995-06-26 22:00,ZGOW 262200Z AUTO 15008KT 7SM 27/26 A2965 RMK SLP044 T02700260 IEM_DS3505
ZGOW,1995-06-27 00:00,ZGOW 270000Z AUTO 20008KT 7SM 28/26 A2968 RMK 60008 70008 SLP054 T02790264 52012 IEM_DS3505
ZGOW,1995-06-27 01:00,ZGOW 270100Z AUTO 18010KT 7SM 28/27 A2968 RMK SLP054 T02800270 IEM_DS3505
ZGOW,1995-06-27 02:00,ZGOW 270200Z AUTO 18016KT 7SM 30/27 A2968 RMK SLP054 T03000270 IEM_DS3505
ZGOW,1995-06-27 03:00,ZGOW 270300Z AUTO 29008KT 16SM 30/26 A2966 RMK SLP048 T03010265 57006 IEM_DS3505
ZGOW,1995-06-27 06:00,ZGOW 270600Z AUTO 22010KT 12SM 32/25 A2965 RMK SLP038 T03240250 57010 IEM_DS3505
ZGOW,1995-06-27 07:00,ZGOW 270700Z AUTO 18012KT 7SM 32/26 A2962 RMK SLP034 T03200260 IEM_DS3505
ZGOW,1995-06-27 08:00,ZGOW 270800Z AUTO 18014KT 7SM 32/26 A2962 RMK SLP034 T03200260 IEM_DS3505
ZGOW,1995-06-27 09:00,ZGOW 270900Z AUTO 20006KT 10SM 31/26 A2962 RMK SLP028 T03140257 57010 IEM_DS3505
ZGOW,1995-06-27 10:00,ZGOW 271000Z AUTO 18014KT 7SM 30/25 A2962 RMK SLP034 T03000250 IEM_DS3505
ZGOW,1995-06-27 11:00,ZGOW 271100Z AUTO 18012KT 7SM 30/25 A2965 RMK SLP044 T03000250 IEM_DS3505
ZGOW,1995-06-27 12:00,ZGOW 271200Z AUTO 22004KT 9SM 29/25 A2965 RMK SLP042 T02920253 52014 IEM_DS3505
ZGOW,1995-06-27 13:00,ZGOW 271300Z AUTO 16008KT 6SM 28/25 A2965 RMK SLP044 T02800250 IEM_DS3505
ZGOW,1995-06-27 15:00,ZGOW 271500Z AUTO 22004KT 9SM 28/26 A2969 RMK SLP058 T02850256 52016 IEM_DS3505
ZGOW,1995-06-27 18:00,ZGOW 271800Z AUTO 22004KT 7SM 28/26 A2967 RMK SLP050 T02790257 57008 IEM_DS3505
ZGOW,1995-06-27 21:00,ZGOW 272100Z AUTO 25002KT 6SM 27/26 A2965 RMK 70020 SLP040 T02740261 57010 IEM_DS3505
ZGOW,1995-06-27 22:00,ZGOW 272200Z AUTO 00000KT 7SM 27/26 A2965 RMK SLP044 T02700260 IEM_DS3505
ZGOW,1995-06-27 23:00,ZGOW 272300Z AUTO 18006KT 7SM 28/26 A2965 RMK SLP044 T02800260 IEM_DS3505
ZGOW,1995-06-28 00:00,ZGOW 280000Z AUTO 20008KT 7SM 29/26 A2965 RMK 60002 70012 SLP050 T02890260 52010 IEM_DS3505
ZGOW,1995-06-28 01:00,ZGOW 280100Z AUTO 18014KT 7SM 30/26 A2965 RMK SLP044 T03000260 IEM_DS3505
ZGOW,1995-06-28 02:00,ZGOW 280200Z AUTO 18014KT 7SM 31/26 A2965 RMK SLP044 T03100260 IEM_DS3505
ZGOW,1995-06-28 03:00,ZGOW 280300Z AUTO 20012G23KT 11SM 32/26 A2965 RMK SLP049 T03190255 57001 IEM_DS3505
ZGOW,1995-06-28 04:00,ZGOW 280400Z AUTO 18014KT 7SM 30/24 A2965 RMK SLP044 T03000240 IEM_DS3505
ZGOW,1995-06-28 06:00,ZGOW 280600Z AUTO 22008KT 16SM 30/25 A2968 RMK SLP054 T03000251 52005 IEM_DS3505
ZGOW,1995-06-28 07:00,ZGOW 280700Z AUTO 30004KT 7SM 26/23 A2971 RMK SLP064 T02600230 IEM_DS3505
ZGOW,1995-06-28 08:00,ZGOW 280800Z AUTO 00000KT 7SM 25/23 A2971 RMK SLP064 T02500230 IEM_DS3505
ZGOW,1995-06-28 09:00,ZGOW 280900Z AUTO 02002KT 5SM 26/24 A2970 RMK SLP061 T02550241 52007 IEM_DS3505
ZGOW,1995-06-28 10:00,ZGOW 281000Z AUTO 02004KT 5SM 25/24 A2971 RMK SLP064 T02500240 IEM_DS3505
ZGOW,1995-06-28 11:00,ZGOW 281100Z AUTO 00000KT 7SM 25/24 A2971 RMK SLP064 T02500240 IEM_DS3505
ZGOW,1995-06-28 12:00,ZGOW 281200Z AUTO 00000KT 9SM 26/24 A2974 RMK 60055 SLP074 T02550244 52013 IEM_DS3505
ZGOW,1995-06-28 13:00,ZGOW 281300Z AUTO 00000KT 7SM 25/24 A2977 RMK SLP084 T02500240 IEM_DS3505
ZGOW,1995-06-28 14:00,ZGOW 281400Z AUTO 00000KT 7SM 25/24 A2977 RMK SLP084 T02500240 IEM_DS3505
ZGOW,1995-06-28 15:00,ZGOW 281500Z AUTO 11002KT 9SM 25/24 A2977 RMK SLP087 T02520238 52013 IEM_DS3505
ZGOW,1995-06-28 18:00,ZGOW 281800Z AUTO 00000KT 9SM 25/24 A2975 RMK SLP076 T02500238 57011 IEM_DS3505
ZGOW,1995-06-28 21:00,ZGOW 282100Z AUTO 00000KT 6SM 25/24 A2975 RMK 70055 SLP077 T02500241 52001 IEM_DS3505
ZGOW,1995-06-28 22:00,ZGOW 282200Z AUTO 36031KT 6SM 25/24 A2977 RMK SLP084 T02500240 IEM_DS3505
ZGOW,1995-06-28 23:00,ZGOW 282300Z AUTO 03006KT 7SM 25/24 A2977 RMK SLP084 T02500240 IEM_DS3505
ZGOW,1995-06-29 00:00,ZGOW 290000Z AUTO 04002KT 8SM 26/24 A2977 RMK 60000 70055 SLP089 T02640245 52012 IEM_DS3505
ZGOW,1995-06-29 01:00,ZGOW 290100Z AUTO 02006KT 7SM 26/25 A2980 RMK SLP094 T02600250 IEM_DS3505
ZGOW,1995-06-29 03:00,ZGOW 290300Z AUTO 11004KT 7SM 29/26 A2979 RMK SLP092 T02860257 52003 IEM_DS3505
ZGOW,1995-06-29 06:00,ZGOW 290600Z AUTO 11006KT 11SM 29/26 A2977 RMK 60002 SLP079 T02930257 57013 IEM_DS3505
ZGOW,1995-06-29 07:00,ZGOW 290700Z AUTO 13008KT 7SM 30/26 A2974 RMK SLP074 T03000260 IEM_DS3505
ZGOW,1995-06-29 08:00,ZGOW 290800Z AUTO 13010KT 7SM 30/26 A2974 RMK SLP074 T03000260 IEM_DS3505
ZGOW,1995-06-29 09:00,ZGOW 290900Z AUTO 11004KT 8SM 28/26 A2974 RMK SLP071 T02820255 57008 IEM_DS3505
ZGOW,1995-06-29 11:00,ZGOW 291100Z AUTO 09006KT 7SM 27/26 A2974 RMK SLP074 T02700260 IEM_DS3505
ZGOW,1995-06-29 12:00,ZGOW 291200Z AUTO 08002KT 7SM 27/25 A2974 RMK SLP076 T02700254 52005 IEM_DS3505
ZGOW,1995-06-29 14:00,ZGOW 291400Z AUTO 00000KT 7SM 26/25 A2977 RMK SLP084 T02600250 IEM_DS3505
ZGOW,1995-06-29 15:00,ZGOW 291500Z AUTO 14002KT 3SM 27/26 A2977 RMK SLP088 T02670256 52012 IEM_DS3505
ZGOW,1995-06-29 16:00,ZGOW 291600Z AUTO 00000KT 2 1/2SM 26/26 A2977 RMK SLP084 T02600260 IEM_DS3505
ZGOW,1995-06-29 18:00,ZGOW 291800Z AUTO 00000KT 3SM 26/26 A2975 RMK SLP079 T02630256 57009 IEM_DS3505
ZGOW,1995-06-29 21:00,ZGOW 292100Z AUTO 00000KT 2SM 26/26 A2975 RMK 70002 SLP077 T02640257 57002 IEM_DS3505
ZGOW,1995-06-29 22:00,ZGOW 292200Z AUTO 00000KT 2SM 27/26 A2977 RMK SLP084 T02700260 IEM_DS3505
ZGOW,1995-06-29 23:00,ZGOW 292300Z AUTO 00000KT 3SM 27/26 A2977 RMK SLP084 T02700260 IEM_DS3505
ZGOW,1995-06-30 00:00,ZGOW 300000Z AUTO 00000KT 1 1/4SM 28/26 A2977 RMK 70002 SLP086 T02750261 52009 IEM_DS3505
ZGOW,1995-06-30 03:00,ZGOW 300300Z AUTO 27002KT 3SM 30/26 A2975 RMK SLP079 T03020256 57007 IEM_DS3505
ZGOW,1995-06-30 06:00,ZGOW 300600Z AUTO 14004KT 11SM 32/26 A2971 RMK SLP059 T03220255 57020 IEM_DS3505
ZGOW,1995-06-30 08:00,ZGOW 300800Z AUTO 12008KT 6SM 31/25 A2968 RMK SLP054 T03100250 IEM_DS3505
ZGOW,1995-06-30 09:00,ZGOW 300900Z AUTO 11006KT 9SM 31/26 A2968 RMK SLP053 T03060256 57006 IEM_DS3505
ZGOW,1995-06-30 12:00,ZGOW 301200Z AUTO 14004KT 9SM 28/25 A2971 RMK SLP067 T02810251 52014 IEM_DS3505
ZGOW,1995-06-30 13:00,ZGOW 301300Z AUTO 11004KT 6SM 27/25 A2974 RMK SLP074 T02700250 IEM_DS3505
ZGOW,1995-06-30 14:00,ZGOW 301400Z AUTO 12004KT 6SM 27/25 A2974 RMK SLP074 T02700250 IEM_DS3505
ZGOW,1995-06-30 15:00,ZGOW 301500Z AUTO 00000KT 6SM 27/26 A2975 RMK SLP078 T02740260 52011 IEM_DS3505
ZGOW,1995-06-30 18:00,ZGOW 301800Z AUTO 04002KT 6SM 27/26 A2970 RMK SLP059 T02740261 57019 IEM_DS3505
ZGOW,1995-06-30 21:00,ZGOW 302100Z AUTO 00000KT 4SM 27/26 A2968 RMK SLP049 T02680260 57010 IEM_DS3505
ZGOW,1995-07-01 00:00,ZGOW 010000Z AUTO 11002KT 6SM 29/26 A2968 RMK SLP056 T02890265 52007 IEM_DS3505
ZGOW,1995-07-01 02:00,ZGOW 010200Z AUTO 12006KT 7SM 30/27 A2968 RMK SLP053 T03000270 IEM_DS3505
ZGOW,1995-07-01 03:00,ZGOW 010300Z AUTO 16004KT 12SM 30/26 A2968 RMK SLP053 T03020265 57003 IEM_DS3505
ZGOW,1995-07-01 06:00,ZGOW 010600Z AUTO 09004KT 11SM 31/25 A2965 RMK 60002 SLP044 T03100248 57009 IEM_DS3505
ZGOW,1995-07-01 09:00,ZGOW 010900Z AUTO 11006KT 11SM 30/25 A2963 RMK SLP035 T02970249 57009 IEM_DS3505
ZGOW,1995-07-01 12:00,ZGOW 011200Z AUTO 14004KT 10SM 27/26 A2965 RMK 60008 SLP041 T02740256 52006 IEM_DS3505
ZGOW,1995-07-01 15:00,ZGOW 011500Z AUTO 18002KT 9SM 27/26 A2969 RMK SLP056 T02730255 52015 IEM_DS3505
ZGOW,1995-07-01 18:00,ZGOW 011800Z AUTO 00000KT 9SM 27/25 A2965 RMK SLP043 T02710251 57013 IEM_DS3505
ZGOW,1995-07-01 21:00,ZGOW 012100Z AUTO 14004KT 6SM 26/25 A2962 RMK 70012 SLP036 T02620249 57007 IEM_DS3505
ZGOW,1995-07-02 00:00,ZGOW 020000Z AUTO 18004KT 11SM 28/25 A2965 RMK 60004 70012 SLP043 T02800249 52007 IEM_DS3505
ZGOW,1995-07-02 03:00,ZGOW 020300Z AUTO 14008KT 12SM 30/26 A2965 RMK SLP039 T03030256 57004 IEM_DS3505
ZGOW,1995-07-02 06:00,ZGOW 020600Z AUTO 20008KT 10SM 29/26 A2963 RMK 60004 SLP037 T02930257 57002 IEM_DS3505
ZGOW,1995-07-02 09:00,ZGOW 020900Z AUTO 22008KT 12SM 29/25 A2962 RMK SLP031 T02900252 57006 IEM_DS3505
ZGOW,1995-07-02 12:00,ZGOW 021200Z AUTO 22002KT 9SM 27/25 A2968 RMK 60004 SLP051 T02680254 52020 IEM_DS3505
ZGOW,1995-07-02 15:00,ZGOW 021500Z AUTO 18004KT 7SM 27/25 A2971 RMK SLP063 T02680252 52012 IEM_DS3505
ZGOW,1995-07-02 18:00,ZGOW 021800Z AUTO 27002KT 7SM 25/25 A2968 RMK 60059 SLP051 T02540248 57012 IEM_DS3505
ZGOW,1995-07-02 21:00,ZGOW 022100Z AUTO 00000KT 6SM 26/25 A2968 RMK 70079 SLP053 T02560250 52002 IEM_DS3505
ZGOW,1995-07-03 00:00,ZGOW 030000Z AUTO 20006KT 5SM 26/25 A2971 RMK 60016 70079 SLP070 T02600249 52017 IEM_DS3505
ZGOW,1995-07-03 03:00,ZGOW 030300Z AUTO 18004KT 9SM 28/26 A2973 RMK SLP069 T02800256 57001 IEM_DS3505
ZGOW,1995-07-03 06:00,ZGOW 030600Z AUTO 20006KT 11SM 27/25 A2969 RMK 60016 SLP056 T02710251 57013 IEM_DS3505
ZGOW,1995-07-03 09:00,ZGOW 030900Z AUTO 22008KT 9SM 28/25 A2970 RMK SLP059 T02780248 52003 IEM_DS3505
ZGOW,1995-07-03 12:00,ZGOW 031200Z AUTO 18004KT 11SM 27/24 A2973 RMK SLP070 T02690242 52011 IEM_DS3505
ZGOW,1995-07-03 15:00,ZGOW 031500Z AUTO 22006KT 10SM 27/24 A2977 RMK SLP081 T02660245 52011 IEM_DS3505
ZGOW,1995-07-03 18:00,ZGOW 031800Z AUTO 16004KT 9SM 26/25 A2975 RMK SLP077 T02620248 57004 IEM_DS3505
ZGOW,1995-07-03 21:00,ZGOW 032100Z AUTO 18004KT 7SM 26/25 A2974 RMK 70016 SLP072 T02570247 57005 IEM_DS3505
ZGOW,1995-07-03 22:00,ZGOW 032200Z AUTO 00000KT 7SM 25/25 A2974 RMK SLP073 T02500250 IEM_DS3505
ZGOW,1995-07-03 23:00,ZGOW 032300Z AUTO 00000KT 7SM 26/25 A2977 RMK SLP083 T02600250 IEM_DS3505
ZGOW,1995-07-04 00:00,ZGOW 040000Z AUTO 18004KT 10SM 27/25 A2978 RMK 60008 70024 SLP086 T02700252 52014 IEM_DS3505
ZGOW,1995-07-04 06:00,ZGOW 040600Z AUTO 18008KT 16SM 30/26 A2974 RMK 60016 SLP071 T03040258 57014 IEM_DS3505
ZGOW,1995-07-04 07:00,ZGOW 040700Z AUTO 17014KT 7SM 31/26 A2974 RMK SLP073 T03100260 IEM_DS3505
ZGOW,1995-07-04 08:00,ZGOW 040800Z AUTO 19014KT 7SM 30/25 A2974 RMK SLP073 T03000250 IEM_DS3505
ZGOW,1995-07-04 09:00,ZGOW 040900Z AUTO 25008KT 12SM 29/24 A2974 RMK SLP070 T02860245 57001 IEM_DS3505
ZGOW,1995-07-04 10:00,ZGOW 041000Z AUTO 21010KT 7SM 28/24 A2974 RMK SLP073 T02800240 IEM_DS3505
ZGOW,1995-07-04 11:00,ZGOW 041100Z AUTO 22010KT 7SM 27/23 A2974 RMK SLP073 T02700230 IEM_DS3505
ZGOW,1995-07-04 12:00,ZGOW 041200Z AUTO 25008KT 9SM 27/24 A2974 RMK SLP081 T02710235 52011 IEM_DS3505
ZGOW,1995-07-04 13:00,ZGOW 041300Z AUTO 00000KT 6SM 26/24 A2977 RMK SLP083 T02600240 IEM_DS3505
ZGOW,1995-07-04 15:00,ZGOW 041500Z AUTO 20004KT 9SM 27/24 A2982 RMK SLP099 T02660239 52018 IEM_DS3505
ZGOW,1995-07-04 18:00,ZGOW 041800Z AUTO 20006KT 9SM 26/24 A2978 RMK SLP087 T02640241 57012 IEM_DS3505
ZGOW,1995-07-04 21:00,ZGOW 042100Z AUTO 00000KT 7SM 26/25 A2976 RMK 70024 SLP079 T02580247 57008 IEM_DS3505
ZGOW,1995-07-04 22:00,ZGOW 042200Z AUTO 00000KT 7SM 25/24 A2977 RMK SLP083 T02500240 IEM_DS3505
ZGOW,1995-07-04 23:00,ZGOW 042300Z AUTO 00000KT 7SM 25/24 A2977 RMK SLP083 T02500240 IEM_DS3505
ZGOW,1995-07-05 00:00,ZGOW 050000Z AUTO 22004KT 9SM 27/25 A2980 RMK 70016 SLP090 T02720248 52011 IEM_DS3505
ZGOW,1995-07-05 01:00,ZGOW 050100Z AUTO 25008KT 12SM 30/26 A2980 RMK 60035 SLP082 T03000255 57007 IEM_DS3505
ZGOW,1995-07-05 02:00,ZGOW 050200Z AUTO 13004KT 7SM 29/25 A2980 RMK SLP093 T02900250 IEM_DS3505
ZGOW,1995-07-05 03:00,ZGOW 050300Z AUTO 16004KT 11SM 30/25 A2980 RMK SLP089 T02960254 57001 IEM_DS3505
ZGOW,1995-07-05 04:00,ZGOW 050400Z AUTO 21008KT 7SM 27/26 RMK T02700260 IEM_DS3505
ZGOW,1995-07-05 06:00,ZGOW 050600Z AUTO 25008KT 12SM 30/26 A2977 RMK 60035 SLP082 T03000255 57007 IEM_DS3505
ZGOW,1995-07-05 07:00,ZGOW 050700Z AUTO 19006KT 7SM 30/26 A2977 RMK SLP083 T03000260 IEM_DS3505
ZGOW,1995-07-05 08:00,ZGOW 050800Z AUTO 12012KT 7SM 30/26 A2974 RMK SLP073 T03000260 IEM_DS3505
ZGOW,1995-07-05 09:00,ZGOW 050900Z AUTO 18006KT 16SM 29/25 A2974 RMK SLP073 T02920248 57009 IEM_DS3505
ZGOW,1995-07-05 10:00,ZGOW 051000Z AUTO 14008KT 7SM 29/25 A2974 RMK SLP073 T02900250 IEM_DS3505
ZGOW,1995-07-05 11:00,ZGOW 051100Z AUTO 15008KT 7SM 28/25 A2974 RMK SLP073 T02800250 IEM_DS3505
ZGOW,1995-07-05 12:00,ZGOW 051200Z AUTO 18008KT 11SM 28/25 A2977 RMK SLP083 T02800253 52010 IEM_DS3505
ZGOW,1995-07-05 13:00,ZGOW 051300Z AUTO 16004KT 7SM 27/25 A2980 RMK SLP093 T02700250 IEM_DS3505
ZGOW,1995-07-05 15:00,ZGOW 051500Z AUTO 16004KT 9SM 27/25 A2982 RMK SLP100 T02720251 52017 IEM_DS3505
ZGOW,1995-07-05 18:00,ZGOW 051800Z AUTO 18004KT 8SM 27/25 A2979 RMK SLP091 T02680252 57009 IEM_DS3505
ZGOW,1995-07-05 21:00,ZGOW 052100Z AUTO 20002KT 8SM 27/25 A2980 RMK 70035 SLP090 T02660253 57001 IEM_DS3505
ZGOW,1995-07-05 22:00,ZGOW 052200Z AUTO 00000KT 1/2SM 26/25 A2980 RMK SLP093 T02600250 IEM_DS3505
ZGOW,1995-07-05 23:00,ZGOW 052300Z AUTO 00000KT 2SM 26/25 A2980 RMK SLP093 T02600250 IEM_DS3505
ZGOW,1995-07-06 00:00,ZGOW 060000Z AUTO 22004KT 11SM 29/26 A2983 RMK 70035 SLP100 T02860255 52010 IEM_DS3505
ZGOW,1995-07-06 01:00,ZGOW 060100Z AUTO 14006KT 7SM 29/26 A2983 RMK SLP103 T02900260 IEM_DS3505
ZGOW,1995-07-06 02:00,ZGOW 060200Z AUTO 17006KT 7SM 31/26 A2983 RMK SLP103 T03100260 IEM_DS3505
ZGOW,1995-07-06 03:00,ZGOW 060300Z AUTO 16006KT 12SM 31/25 A2980 RMK SLP098 T03070251 57002 IEM_DS3505
ZGOW,1995-07-06 06:00,ZGOW 060600Z AUTO 16006KT 14SM 31/25 A2977 RMK 60008 SLP087 T03140252 57011 IEM_DS3505
ZGOW,1995-07-06 07:00,ZGOW 060700Z AUTO 13012KT 7SM 31/25 A2977 RMK SLP083 T03100250 IEM_DS3505
ZGOW,1995-07-06 08:00,ZGOW 060800Z AUTO 14008KT 7SM 31/23 A2974 RMK SLP073 T03100230 IEM_DS3505
ZGOW,1995-07-06 09:00,ZGOW 060900Z AUTO 18008KT 11SM 30/23 A2974 RMK SLP071 T03040226 57016 IEM_DS3505
ZGOW,1995-07-06 11:00,ZGOW 061100Z AUTO 13006KT 6SM 28/25 A2977 RMK SLP083 T02800250 IEM_DS3505
ZGOW,1995-07-06 12:00,ZGOW 061200Z AUTO 14004KT 12SM 28/24 A2980 RMK SLP090 T02820237 52019 IEM_DS3505
ZGOW,1995-07-06 13:00,ZGOW 061300Z AUTO 00000KT 6SM 28/26 A2980 RMK SLP093 T02800260 IEM_DS3505
ZGOW,1995-07-06 14:00,ZGOW 061400Z AUTO 00000KT 6SM 28/26 A2983 RMK SLP103 T02800260 IEM_DS3505
ZGOW,1995-07-06 15:00,ZGOW 061500Z AUTO 18004KT 6SM 28/26 A2983 RMK SLP108 T02760256 52018 IEM_DS3505
ZGOW,1995-07-06 18:00,ZGOW 061800Z AUTO 04004KT 6SM 27/25 A2982 RMK SLP099 T02700250 57009 IEM_DS3505
ZGOW,1995-07-06 21:00,ZGOW 062100Z AUTO 07004KT 6SM 26/25 A2980 RMK 70008 SLP093 T02650249 57006 IEM_DS3505
ZGOW,1995-07-06 22:00,ZGOW 062200Z AUTO 00000KT 7SM 26/25 A2980 RMK SLP093 T02600250 IEM_DS3505
ZGOW,1995-07-06 23:00,ZGOW 062300Z AUTO 00000KT 7SM 27/25 A2983 RMK SLP103 T02700250 IEM_DS3505
ZGOW,1995-07-07 00:00,ZGOW 070000Z AUTO 09002KT 8SM 28/26 A2983 RMK 60004 70012 SLP103 T02770257 52010 IEM_DS3505
ZGOW,1995-07-07 01:00,ZGOW 070100Z AUTO 11004KT 7SM 29/26 A2983 RMK SLP103 T02900260 IEM_DS3505
ZGOW,1995-07-07 02:00,ZGOW 070200Z AUTO 00000KT 7SM 31/25 A2983 RMK SLP103 T03100250 IEM_DS3505
ZGOW,1995-07-07 03:00,ZGOW 070300Z AUTO 16006KT 14SM 31/25 A2983 RMK SLP104 T03070251 52001 IEM_DS3505
ZGOW,1995-07-07 04:00,ZGOW 070400Z AUTO 12010KT 7SM 32/25 A2983 RMK SLP103 T03200250 IEM_DS3505
ZGOW,1995-07-07 05:00,ZGOW 070500Z AUTO 12010KT 7SM 32/25 A2983 RMK SLP103 T03200250 IEM_DS3505
ZGOW,1995-07-07 06:00,ZGOW 070600Z AUTO 16008KT 16SM 31/24 A2981 RMK SLP098 T03120241 57006 IEM_DS3505
ZGOW,1995-07-07 08:00,ZGOW 070800Z AUTO 12008KT 7SM 31/25 A2980 RMK SLP093 T03100250 IEM_DS3505
ZGOW,1995-07-07 09:00,ZGOW 070900Z AUTO 14008KT 14SM 31/25 A2980 RMK SLP089 T03080246 57009 IEM_DS3505
ZGOW,1995-07-07 10:00,ZGOW 071000Z AUTO 12006KT 7SM 30/25 A2980 RMK SLP093 T03000250 IEM_DS3505
ZGOW,1995-07-07 12:00,ZGOW 071200Z AUTO 11002KT 10SM 29/25 A2983 RMK SLP099 T02890249 52010 IEM_DS3505
ZGOW,1995-07-07 13:00,ZGOW 071300Z AUTO 12004KT 7SM 29/26 A2985 RMK SLP110 T02900260 IEM_DS3505
ZGOW,1995-07-07 14:00,ZGOW 071400Z AUTO 06004KT 7SM 29/25 A2985 RMK SLP110 T02900250 IEM_DS3505
ZGOW,1995-07-07 15:00,ZGOW 071500Z AUTO 11004KT 7SM 28/25 A2983 RMK SLP103 T02820252 52004 IEM_DS3505
ZGOW,1995-07-07 18:00,ZGOW 071800Z AUTO 09006KT 7SM 27/25 A2981 RMK SLP095 T02730252 57008 IEM_DS3505
ZGOW,1995-07-07 21:00,ZGOW 072100Z AUTO 04004KT 7SM 27/25 A2980 RMK 70004 SLP090 T02680250 57005 IEM_DS3505
ZGOW,1995-07-07 23:00,ZGOW 072300Z AUTO 04004KT 7SM 28/25 A2980 RMK SLP093 T02800250 IEM_DS3505
ZGOW,1995-07-08 00:00,ZGOW 080000Z AUTO 09006KT 11SM 29/24 A2980 RMK SLP100 T02920245 52010 IEM_DS3505
ZGOW,1995-07-08 01:00,ZGOW 080100Z AUTO 05008KT 7SM 29/24 A2983 RMK SLP103 T02900240 IEM_DS3505
ZGOW,1995-07-08 02:00,ZGOW 080200Z AUTO 05006KT 7SM 29/24 A2983 RMK SLP103 T02900240 IEM_DS3505
ZGOW,1995-07-08 03:00,ZGOW 080300Z AUTO 09008KT 16SM 30/24 A2983 RMK SLP101 T03030242 52001 IEM_DS3505
ZGOW,1995-07-08 04:00,ZGOW 080400Z AUTO 06010KT 7SM 31/24 A2983 RMK SLP103 T03100240 IEM_DS3505
ZGOW,1995-07-08 06:00,ZGOW 080600Z AUTO 18010KT 4SM 27/25 A2980 RMK 60012 SLP094 T02720252 57007 IEM_DS3505
ZGOW,1995-07-08 07:00,ZGOW 080700Z AUTO 18008KT 7SM 26/23 A2980 RMK SLP093 T02600230 IEM_DS3505
ZGOW,1995-07-08 09:00,ZGOW 080900Z AUTO 11002KT 6SM 25/24 A2980 RMK SLP086 T02520245 57008 IEM_DS3505
ZGOW,1995-07-08 10:00,ZGOW 081000Z AUTO 12010KT 7SM 25/24 A2980 RMK SLP093 T02500240 IEM_DS3505
ZGOW,1995-07-08 12:00,ZGOW 081200Z AUTO 07004KT 6SM 25/25 A2983 RMK 60157 SLP096 T02510248 52010 IEM_DS3505
ZGOW,1995-07-08 13:00,ZGOW 081300Z AUTO 12006KT 7SM 25/24 A2983 RMK SLP103 T02500240 IEM_DS3505
ZGOW,1995-07-08 15:00,ZGOW 081500Z AUTO 09004KT 9SM 25/24 A2982 RMK SLP101 T02530239 52005 IEM_DS3505
ZGOW,1995-07-08 18:00,ZGOW 081800Z AUTO 09004KT 6SM 26/25 A2977 RMK 60004 SLP083 T02560247 57018 IEM_DS3505
ZGOW,1995-07-08 21:00,ZGOW 082100Z AUTO 07004KT 7SM 25/25 A2974 RMK 70177 SLP074 T02540247 57009 IEM_DS3505
ZGOW,1995-07-08 22:00,ZGOW 082200Z AUTO 00000KT 7SM 26/25 A2977 RMK SLP083 T02600250 IEM_DS3505
ZGOW,1995-07-09 00:00,ZGOW 090000Z AUTO 04004KT 9SM 27/25 A2977 RMK 60002 70177 SLP083 T02690249 52009 IEM_DS3505
ZGOW,1995-07-09 01:00,ZGOW 090100Z AUTO 01006KT 7SM 28/25 A2977 RMK SLP083 T02800250 IEM_DS3505
ZGOW,1995-07-09 02:00,ZGOW 090200Z AUTO 06008KT 7SM 29/25 A2977 RMK SLP083 T02900250 IEM_DS3505
ZGOW,1995-07-09 03:00,ZGOW 090300Z AUTO 11002KT 7SM 26/25 A2977 RMK SLP084 T02600247 52001 IEM_DS3505
ZGOW,1995-07-09 04:00,ZGOW 090400Z AUTO 12006KT 7SM 28/25 A2977 RMK SLP083 T02800250 IEM_DS3505
ZGOW,1995-07-09 06:00,ZGOW 090600Z AUTO 14006KT 9SM 28/25 A2974 RMK 60039 SLP070 T02750248 57014 IEM_DS3505
ZGOW,1995-07-09 07:00,ZGOW 090700Z AUTO 13010KT 7SM 29/25 A2971 RMK SLP063 T02900250 IEM_DS3505
ZGOW,1995-07-09 08:00,ZGOW 090800Z AUTO 13008KT 7SM 28/25 A2971 RMK SLP063 T02800250 IEM_DS3505
ZGOW,1995-07-09 09:00,ZGOW 090900Z AUTO 16002KT 9SM 27/24 A2971 RMK SLP061 T02740244 57009 IEM_DS3505
ZGOW,1995-07-09 10:00,ZGOW 091000Z AUTO 15006KT 7SM 27/25 A2971 RMK SLP063 T02700250 IEM_DS3505
ZGOW,1995-07-09 11:00,ZGOW 091100Z AUTO 15004KT 7SM 27/26 A2974 RMK SLP073 T02700260 IEM_DS3505
ZGOW,1995-07-09 12:00,ZGOW 091200Z AUTO 18002KT 9SM 27/25 A2974 RMK SLP071 T02680251 52010 IEM_DS3505
ZGOW,1995-07-09 13:00,ZGOW 091300Z AUTO 00000KT 7SM 27/25 A2974 RMK SLP073 T02700250 IEM_DS3505
ZGOW,1995-07-09 15:00,ZGOW 091500Z AUTO 14004KT 9SM 27/25 A2975 RMK SLP077 T02660247 52006 IEM_DS3505
ZGOW,1995-07-09 18:00,ZGOW 091800Z AUTO 09002KT 9SM 26/25 A2972 RMK SLP065 T02630250 57012 IEM_DS3505
ZGOW,1995-07-09 21:00,ZGOW 092100Z AUTO 18006KT 5SM 25/25 A2971 RMK 70067 SLP063 T02500247 57002 IEM_DS3505
ZGOW,1995-07-09 22:00,ZGOW 092200Z AUTO 00000KT 2 1/2SM 24/24 RMK T02400240 IEM_DS3505
ZGOW,1995-07-09 23:00,ZGOW 092300Z AUTO 00000KT 3SM 25/24 RMK T02500240 IEM_DS3505
ZGOW,1995-07-10 00:00,ZGOW 100000Z AUTO 00000KT 6SM 25/25 A2971 RMK 60138 70177 SLP068 T02520248 52005 IEM_DS3505
ZGOW,1995-07-10 01:00,ZGOW 100100Z AUTO 20006KT 7SM 25/25 RMK T02500250 IEM_DS3505
ZGOW,1995-07-10 02:00,ZGOW 100200Z AUTO 25004KT 7SM 25/25 A2971 RMK SLP063 T02500250 IEM_DS3505
ZGOW,1995-07-10 03:00,ZGOW 100300Z AUTO 29006KT 9SM 27/25 A2971 RMK SLP066 T02700247 57002 IEM_DS3505
ZGOW,1995-07-10 06:00,ZGOW 100600Z AUTO 25012KT 6SM 26/24 A2968 RMK 60008 SLP051 T02650244 57015 IEM_DS3505
ZGOW,1995-07-10 07:00,ZGOW 100700Z AUTO 21008KT 7SM 27/24 A2965 RMK SLP042 T02700240 IEM_DS3505
ZGOW,1995-07-10 09:00,ZGOW 100900Z AUTO 20006KT 6SM 27/24 A2965 RMK SLP044 T02710242 57007 IEM_DS3505
ZGOW,1995-07-10 10:00,ZGOW 101000Z AUTO 17008KT 7SM 27/25 A2965 RMK SLP042 T02700250 IEM_DS3505
ZGOW,1995-07-10 12:00,ZGOW 101200Z AUTO 20006KT 6SM 27/25 A2971 RMK 60000 SLP059 T02670246 52015 IEM_DS3505
ZGOW,1995-07-10 13:00,ZGOW 101300Z AUTO 18008KT 7SM 26/25 A2971 RMK SLP063 T02600250 IEM_DS3505
ZGOW,1995-07-10 14:00,ZGOW 101400Z AUTO 17008KT 7SM 26/25 A2971 RMK SLP063 T02600250 IEM_DS3505
ZGOW,1995-07-10 15:00,ZGOW 101500Z AUTO 20006KT 6SM 27/25 A2972 RMK SLP066 T02680252 52007 IEM_DS3505
ZGOW,1995-07-10 18:00,ZGOW 101800Z AUTO 22008KT 6SM 25/23 A2968 RMK 60004 SLP054 T02500233 57012 IEM_DS3505
ZGOW,1995-07-10 21:00,ZGOW 102100Z AUTO 00000KT 6SM 25/24 A2967 RMK 70122 SLP049 T02540244 57005 IEM_DS3505
ZGOW,1995-07-10 22:00,ZGOW 102200Z AUTO 00000KT 7SM 25/24 RMK T02500240 IEM_DS3505
ZGOW,1995-07-10 23:00,ZGOW 102300Z AUTO 13004KT 7SM 25/24 A2968 RMK SLP053 T02500240 IEM_DS3505
ZGOW,1995-07-11 00:00,ZGOW 110000Z AUTO 07004KT 7SM 26/25 A2971 RMK 60000 70012 SLP062 T02640251 52013 IEM_DS3505
ZGOW,1995-07-11 01:00,ZGOW 110100Z AUTO 00000KT 7SM 26/25 A2971 RMK SLP063 T02600250 IEM_DS3505
ZGOW,1995-07-11 02:00,ZGOW 110200Z AUTO 12006KT 7SM 26/25 RMK T02600250 IEM_DS3505
ZGOW,1995-07-11 03:00,ZGOW 110300Z AUTO 14002KT 7SM 26/24 A2971 RMK SLP067 T02640245 52005 IEM_DS3505
ZGOW,1995-07-11 04:00,ZGOW 110400Z AUTO 15004KT 7SM 26/24 A2971 RMK SLP063 T02600240 IEM_DS3505
ZGOW,1995-07-11 06:00,ZGOW 110600Z AUTO 16006KT 14SM 28/25 A2971 RMK 60012 SLP059 T02780251 57008 IEM_DS3505
ZGOW,1995-07-11 07:00,ZGOW 110700Z AUTO 14010KT 7SM 28/25 A2968 RMK SLP053 T02800250 IEM_DS3505
ZGOW,1995-07-11 08:00,ZGOW 110800Z AUTO 14006KT 7SM 28/25 A2968 RMK SLP053 T02800250 IEM_DS3505
ZGOW,1995-07-11 09:00,ZGOW 110900Z AUTO 18006KT 12SM 28/25 A2968 RMK SLP050 T02750252 57009 IEM_DS3505
ZGOW,1995-07-11 10:00,ZGOW 111000Z AUTO 09006KT 6SM 27/25 A2968 RMK SLP053 T02700250 IEM_DS3505
ZGOW,1995-07-11 12:00,ZGOW 111200Z AUTO 18004KT 7SM 27/25 A2971 RMK SLP067 T02660249 52017 IEM_DS3505
ZGOW,1995-07-11 13:00,ZGOW 111300Z AUTO 10004KT 7SM 26/25 A2974 RMK SLP073 T02600250 IEM_DS3505
ZGOW,1995-07-11 15:00,ZGOW 111500Z AUTO 18006KT 6SM 26/25 A2976 RMK SLP080 T02640248 52013 IEM_DS3505
ZGOW,1995-07-11 18:00,ZGOW 111800Z AUTO 20004KT 7SM 26/25 A2972 RMK 60012 SLP067 T02590250 57013 IEM_DS3505
ZGOW,1995-07-11 21:00,ZGOW 112100Z AUTO 20006KT 6SM 25/24 A2971 RMK SLP064 T02500243 57003 IEM_DS3505
ZGOW,1995-07-11 23:00,ZGOW 112300Z AUTO 00000KT 3SM 24/23 A2974 RMK SLP073 T02400230 IEM_DS3505
ZGOW,1995-07-12 00:00,ZGOW 120000Z AUTO 14004KT 4SM 25/24 A2974 RMK 60051 70079 SLP077 T02500241 52013 IEM_DS3505
ZGOW,1995-07-12 01:00,ZGOW 120100Z AUTO 00000KT 7SM 25/24 A2977 RMK SLP083 T02500240 IEM_DS3505
ZGOW,1995-07-12 02:00,ZGOW 120200Z AUTO 00000KT 7SM 26/25 RMK T02600250 IEM_DS3505
ZGOW,1995-07-12 03:00,ZGOW 120300Z AUTO 04004KT 4SM 27/25 A2977 RMK SLP086 T02680252 52009 IEM_DS3505
ZGOW,1995-07-12 06:00,ZGOW 120600Z AUTO 16002KT 5SM 24/24 A2977 RMK 60213 SLP083 T02450242 57003 IEM_DS3505
ZGOW,1995-07-12 07:00,ZGOW 120700Z AUTO 16006KT 7SM 26/25 RMK T02600250 IEM_DS3505
ZGOW,1995-07-12 08:00,ZGOW 120800Z AUTO 00000KT 7SM 26/25 RMK T02600250 IEM_DS3505
ZGOW,1995-07-12 09:00,ZGOW 120900Z AUTO 09002KT 6SM 26/25 A2974 RMK SLP073 T02640247 57010 IEM_DS3505
ZGOW,1995-07-12 10:00,ZGOW 121000Z AUTO 13006KT 7SM 26/25 A2974 RMK SLP073 T02600250 IEM_DS3505
ZGOW,1995-07-12 11:00,ZGOW 121100Z AUTO 12004KT 7SM 25/ RMK IEM_DS3505
ZGOW,1995-07-12 12:00,ZGOW 121200Z AUTO 16004KT 5SM 25/24 A2977 RMK 60039 SLP083 T02520242 52010 IEM_DS3505
ZGOW,1995-07-12 13:00,ZGOW 121300Z AUTO 11008KT 7SM 25/24 A2977 RMK SLP083 T02500240 IEM_DS3505
ZGOW,1995-07-12 15:00,ZGOW 121500Z AUTO 16006KT 9SM 25/24 A2982 RMK SLP101 T02500241 52018 IEM_DS3505
ZGOW,1995-07-12 18:00,ZGOW 121800Z AUTO 09004KT 9SM 25/24 A2979 RMK 60004 SLP091 T02500241 57010 IEM_DS3505
ZGOW,1995-07-12 21:00,ZGOW 122100Z AUTO 18006KT 4SM 24/24 A2980 RMK 70315 SLP092 T02440240 52001 IEM_DS3505
ZGOW,1995-07-12 22:00,ZGOW 122200Z AUTO 00000KT 7SM 24/24 A2980 RMK SLP093 T02400240 IEM_DS3505
ZGOW,1995-07-13 00:00,ZGOW 130000Z AUTO 18004KT 5SM 25/24 A2980 RMK 60067 70323 SLP099 T02510242 52007 IEM_DS3505
ZGOW,1995-07-13 01:00,ZGOW 130100Z AUTO 12006KT 7SM 26/24 A2983 RMK SLP103 T02600240 IEM_DS3505
ZGOW,1995-07-13 02:00,ZGOW 130200Z AUTO 12008KT 7SM 27/25 A2983 RMK SLP103 T02700250 IEM_DS3505
ZGOW,1995-07-13 03:00,ZGOW 130300Z AUTO 09004KT 5SM 25/24 A2983 RMK SLP108 T02470243 52009 IEM_DS3505
ZGOW,1995-07-13 06:00,ZGOW 130600Z AUTO 14008KT 7SM 27/25 A2983 RMK 60039 SLP096 T02680250 57012 IEM_DS3505
ZGOW,1995-07-13 08:00,ZGOW 130800Z AUTO 12010KT 7SM 26/25 A2980 RMK SLP093 T02600250 IEM_DS3505
ZGOW,1995-07-13 09:00,ZGOW 130900Z AUTO 11006KT 6SM 26/24 A2980 RMK SLP088 T02650245 57008 IEM_DS3505
ZGOW,1995-07-13 10:00,ZGOW 131000Z AUTO 12006KT 7SM 26/25 A2980 RMK SLP093 T02600250 IEM_DS3505
ZGOW,1995-07-13 12:00,ZGOW 131200Z AUTO 11006KT 7SM 26/25 A2983 RMK 60020 SLP098 T02600246 52010 IEM_DS3505
ZGOW,1995-07-13 13:00,ZGOW 131300Z AUTO 12006KT 7SM 25/24 A2983 RMK SLP103 T02500240 IEM_DS3505
ZGOW,1995-07-13 15:00,ZGOW 131500Z AUTO 14004KT 7SM 26/25 A2985 RMK SLP110 T02580247 52012 IEM_DS3505
ZGOW,1995-07-13 18:00,ZGOW 131800Z AUTO 18002KT 6SM 25/24 A2981 RMK 60047 SLP098 T02460240 57012 IEM_DS3505
ZGOW,1995-07-13 21:00,ZGOW 132100Z AUTO 00000KT 5SM 25/24 A2980 RMK 70161 SLP091 T02480244 57007 IEM_DS3505
ZGOW,1995-07-13 22:00,ZGOW 132200Z AUTO 00000KT 7SM 25/24 A2980 RMK SLP093 T02500240 IEM_DS3505
ZGOW,1995-07-14 00:00,ZGOW 140000Z AUTO 00000KT 4SM 26/25 A2983 RMK 60008 70114 SLP099 T02580248 52008 IEM_DS3505
ZGOW,1995-07-14 01:00,ZGOW 140100Z AUTO 06004KT 7SM 26/25 A2983 RMK SLP103 T02600250 IEM_DS3505
ZGOW,1995-07-14 02:00,ZGOW 140200Z AUTO 17004KT 7SM 26/25 A2983 RMK SLP103 T02600250 IEM_DS3505
ZGOW,1995-07-14 03:00,ZGOW 140300Z AUTO 14002KT 17SM 27/25 A2981 RMK SLP096 T02680247 57003 IEM_DS3505
ZGOW,1995-07-14 06:00,ZGOW 140600Z AUTO 16006KT 6SM 26/24 A2979 RMK 60024 SLP089 T02550242 57007 IEM_DS3505
ZGOW,1995-07-14 07:00,ZGOW 140700Z AUTO 15006KT 7SM 25/24 A2977 RMK SLP083 T02500240 IEM_DS3505
ZGOW,1995-07-14 08:00,ZGOW 140800Z AUTO 14006KT 7SM 26/25 RMK T02600250 IEM_DS3505
ZGOW,1995-07-14 09:00,ZGOW 140900Z AUTO 07004KT 6SM 26/25 A2975 RMK SLP076 T02580247 57013 IEM_DS3505
ZGOW,1995-07-14 10:00,ZGOW 141000Z AUTO 00000KT 24/24 A2977 RMK SLP083 T02400240 IEM_DS3505
ZGOW,1995-07-14 11:00,ZGOW 141100Z AUTO 00000KT 3SM 24/24 A2977 RMK 60134 SLP084 T02440235 52008 IEM_DS3505
ZGOW,1995-07-14 12:00,ZGOW 141200Z AUTO 00000KT 3SM 24/24 A2977 RMK 60134 SLP084 T02440235 52008 IEM_DS3505
ZGOW,1995-07-14 13:00,ZGOW 141300Z AUTO 00000KT 7SM 24/24 RMK T02400240 IEM_DS3505
ZGOW,1995-07-14 14:00,ZGOW 141400Z AUTO 00000KT 7SM 24/24 A2980 RMK SLP093 T02400240 IEM_DS3505
ZGOW,1995-07-14 15:00,ZGOW 141500Z AUTO 07002KT 6SM 24/24 A2981 RMK SLP095 T02450241 52011 IEM_DS3505
ZGOW,1995-07-14 18:00,ZGOW 141800Z AUTO 00000KT 6SM 24/24 A2975 RMK 60008 SLP076 T02420239 57019 IEM_DS3505
ZGOW,1995-07-14 21:00,ZGOW 142100Z AUTO 07004KT 5SM 24/24 A2975 RMK 70169 SLP076 T02410237 54000 IEM_DS3505
ZGOW,1995-07-14 22:00,ZGOW 142200Z AUTO 00000KT 7SM 24/23 A2977 RMK SLP083 T02400230 IEM_DS3505
ZGOW,1995-07-14 23:00,ZGOW 142300Z AUTO 00000KT 7SM 25/23 A2977 RMK SLP083 T02500230 IEM_DS3505
ZGOW,1995-07-15 00:00,ZGOW 150000Z AUTO 04002KT 6SM 25/24 A2977 RMK 60001 70165 SLP081 T02530240 52005 IEM_DS3505
ZGOW,1995-07-15 01:00,ZGOW 150100Z AUTO 00000KT 7SM 27/24 A2977 RMK SLP083 T02700240 IEM_DS3505
ZGOW,1995-07-15 02:00,ZGOW 150200Z AUTO 01004KT 7SM 27/24 A2977 RMK SLP083 T02700240 IEM_DS3505
ZGOW,1995-07-15 03:00,ZGOW 150300Z AUTO 07004KT 7SM 28/24 A2977 RMK SLP083 T02820244 52002 IEM_DS3505
ZGOW,1995-07-15 06:00,ZGOW 150600Z AUTO 00000KT 12SM 27/25 A2974 RMK 60004 SLP074 T02680248 57009 IEM_DS3505
ZGOW,1995-07-15 09:00,ZGOW 150900Z AUTO 20004KT 16SM 29/25 A2973 RMK SLP069 T02890248 57005 IEM_DS3505
ZGOW,1995-07-15 12:00,ZGOW 151200Z AUTO 18004KT 9SM 27/25 A2974 RMK SLP069 T02680251 54000 IEM_DS3505
ZGOW,1995-07-15 13:00,ZGOW 151300Z AUTO 00000KT 7SM 26/25 A2974 RMK SLP073 T02600250 IEM_DS3505
ZGOW,1995-07-15 15:00,ZGOW 151500Z AUTO 20004KT 7SM 25/24 A2978 RMK SLP087 T02540244 52018 IEM_DS3505
ZGOW,1995-07-15 18:00,ZGOW 151800Z AUTO 00000KT 5SM 25/25 A2975 RMK SLP075 T02500246 57012 IEM_DS3505
ZGOW,1995-07-15 21:00,ZGOW 152100Z AUTO 00000KT 4SM 25/24 A2977 RMK 70004 SLP078 T02490245 52003 IEM_DS3505
ZGOW,1995-07-15 22:00,ZGOW 152200Z AUTO 00000KT 1SM 24/24 A2977 RMK SLP083 T02400240 IEM_DS3505
ZGOW,1995-07-15 23:00,ZGOW 152300Z AUTO 00000KT 1 1/2SM 25/24 A2977 RMK SLP083 T02500240 IEM_DS3505
ZGOW,1995-07-16 00:00,ZGOW 160000Z AUTO 00000KT 6SM 27/25 A2980 RMK 70004 SLP091 T02660247 52013 IEM_DS3505
ZGOW,1995-07-16 01:00,ZGOW 160100Z AUTO 00000KT 7SM 29/25 A2980 RMK SLP093 T02900250 IEM_DS3505
ZGOW,1995-07-16 02:00,ZGOW 160200Z AUTO 00000KT 7SM 29/25 A2980 RMK SLP093 T02900250 IEM_DS3505
ZGOW,1995-07-16 03:00,ZGOW 160300Z AUTO 20006KT 12SM 30/25 A2980 RMK SLP089 T03040251 57002 IEM_DS3505
ZGOW,1995-07-16 06:00,ZGOW 160600Z AUTO 18008KT 12SM 30/25 A2977 RMK SLP082 T03040254 57007 IEM_DS3505
ZGOW,1995-07-16 07:00,ZGOW 160700Z AUTO 14012KT 6SM 31/25 A2977 RMK SLP083 T03100250 IEM_DS3505
ZGOW,1995-07-16 08:00,ZGOW 160800Z AUTO 17012KT 6SM 31/25 A2974 RMK SLP073 T03100250 IEM_DS3505
ZGOW,1995-07-16 09:00,ZGOW 160900Z AUTO 20008KT 19SM 30/26 A2974 RMK SLP071 T03020256 57011 IEM_DS3505
ZGOW,1995-07-16 10:00,ZGOW 161000Z AUTO 16014KT 6SM 29/25 A2974 RMK SLP073 T02900250 IEM_DS3505
ZGOW,1995-07-16 11:00,ZGOW 161100Z AUTO 14008KT 6SM 28/25 A2974 RMK SLP073 T02800250 IEM_DS3505
ZGOW,1995-07-16 12:00,ZGOW 161200Z AUTO 20006KT 17SM 28/25 A2974 RMK SLP077 T02760253 52006 IEM_DS3505
ZGOW,1995-07-16 13:00,ZGOW 161300Z AUTO 00000KT 6SM 27/25 A2974 RMK SLP073 T02700250 IEM_DS3505
ZGOW,1995-07-16 14:00,ZGOW 161400Z AUTO 00000KT 7SM 27/26 A2977 RMK SLP083 T02700260 IEM_DS3505
ZGOW,1995-07-16 15:00,ZGOW 161500Z AUTO 20004KT 8SM 27/25 A2979 RMK SLP089 T02720252 52012 IEM_DS3505
ZGOW,1995-07-16 18:00,ZGOW 161800Z AUTO 25004KT 6SM 27/25 A2981 RMK SLP095 T02660250 52006 IEM_DS3505
ZGOW,1995-07-16 21:00,ZGOW 162100Z AUTO 00000KT 5SM 26/25 A2980 RMK SLP097 T02600250 52002 IEM_DS3505
ZGOW,1995-07-16 22:00,ZGOW 162200Z AUTO 00000KT 7SM 25/25 A2980 RMK SLP093 T02500250 IEM_DS3505
ZGOW,1995-07-16 23:00,ZGOW 162300Z AUTO 00000KT 6SM 27/25 A2983 RMK SLP103 T02700250 IEM_DS3505
ZGOW,1995-07-17 00:00,ZGOW 170000Z AUTO 29004KT 7SM 28/25 A2984 RMK SLP107 T02840246 52010 IEM_DS3505
ZGOW,1995-07-17 01:00,ZGOW 170100Z AUTO 00000KT 7SM 29/26 A2983 RMK SLP103 T02900260 IEM_DS3505
ZGOW,1995-07-17 03:00,ZGOW 170300Z AUTO 29004KT 19SM 31/25 A2983 RMK SLP103 T03090250 57004 IEM_DS3505
ZGOW,1995-07-17 06:00,ZGOW 170600Z AUTO 18006KT 19SM 32/25 A2980 RMK SLP087 T03190246 57016 IEM_DS3505
ZGOW,1995-07-17 07:00,ZGOW 170700Z AUTO 18010KT 7SM 33/26 A2980 RMK SLP093 T03300260 IEM_DS3505
ZGOW,1995-07-17 09:00,ZGOW 170900Z AUTO 18010KT 19SM 32/24 A2975 RMK SLP075 T03160244 57012 IEM_DS3505
ZGOW,1995-07-17 10:00,ZGOW 171000Z AUTO 17010KT 7SM 30/25 A2977 RMK SLP083 T03000250 IEM_DS3505
ZGOW,1995-07-17 12:00,ZGOW 171200Z AUTO 20004KT 11SM 29/24 A2977 RMK SLP085 T02920245 52010 IEM_DS3505
ZGOW,1995-07-17 13:00,ZGOW 171300Z AUTO 00000KT 7SM 28/25 A2980 RMK SLP093 T02800250 IEM_DS3505
ZGOW,1995-07-17 15:00,ZGOW 171500Z AUTO 22008KT 7SM 28/25 A2981 RMK SLP098 T02830249 52013 IEM_DS3505
ZGOW,1995-07-17 18:00,ZGOW 171800Z AUTO 27004KT 11SM 27/25 A2978 RMK SLP088 T02740250 57010 IEM_DS3505
ZGOW,1995-07-17 21:00,ZGOW 172100Z AUTO 00000KT 7SM 26/25 A2977 RMK SLP087 T02650251 57001 IEM_DS3505
ZGOW,1995-07-17 23:00,ZGOW 172300Z AUTO 00000KT 6SM 27/25 A2980 RMK SLP093 T02700250 IEM_DS3505
ZGOW,1995-07-18 00:00,ZGOW 180000Z AUTO 25008KT 14SM 28/25 A2981 RMK SLP096 T02830248 52009 IEM_DS3505
ZGOW,1995-07-18 01:00,ZGOW 180100Z AUTO 24006KT 6SM 29/25 A2983 RMK SLP103 T02900250 IEM_DS3505
ZGOW,1995-07-18 06:00,ZGOW 180600Z AUTO 25008KT 19SM 34/26 A2975 RMK SLP077 T03420256 57018 IEM_DS3505
ZGOW,1995-07-18 09:00,ZGOW 180900Z AUTO 22008KT 19SM 34/25 A2973 RMK SLP068 T03360251 57009 IEM_DS3505
ZGOW,1995-07-18 10:00,ZGOW 181000Z AUTO 18010KT 6SM 32/26 A2974 RMK SLP073 T03200260 IEM_DS3505
ZGOW,1995-07-18 12:00,ZGOW 181200Z AUTO 25006KT 12SM 30/25 A2975 RMK SLP075 T03050253 52007 IEM_DS3505
ZGOW,1995-07-18 13:00,ZGOW 181300Z AUTO 21008KT 7SM 29/25 A2977 RMK SLP083 T02900250 IEM_DS3505
ZGOW,1995-07-18 15:00,ZGOW 181500Z AUTO 25006KT 10SM 29/25 A2976 RMK SLP081 T02880250 52006 IEM_DS3505
ZGOW,1995-07-18 18:00,ZGOW 181800Z AUTO 29004KT 9SM 28/25 A2975 RMK SLP075 T02790254 57006 IEM_DS3505
ZGOW,1995-07-18 21:00,ZGOW 182100Z AUTO 27008KT 5SM 27/26 A2977 RMK SLP077 T02720257 52002 IEM_DS3505
ZGOW,1995-07-18 23:00,ZGOW 182300Z AUTO 00000KT 2 1/2SM 28/25 A2977 RMK SLP083 T02800250 IEM_DS3505
ZGOW,1995-07-19 00:00,ZGOW 190000Z AUTO 29004KT 4SM 29/25 A2978 RMK SLP086 T02880253 52009 IEM_DS3505
ZGOW,1995-07-19 01:00,ZGOW 190100Z AUTO 00000KT 5SM 30/25 A2977 RMK SLP083 T03000250 IEM_DS3505
ZGOW,1995-07-19 03:00,ZGOW 190300Z AUTO 27006KT 4SM 32/26 A2977 RMK SLP084 T03210260 57002 IEM_DS3505
ZGOW,1995-07-19 06:00,ZGOW 190600Z AUTO 27008KT 10SM 35/24 A2973 RMK SLP070 T03540238 57014 IEM_DS3505
ZGOW,1995-07-19 07:00,ZGOW 190700Z AUTO 17008KT 7SM 35/25 A2971 RMK SLP063 T03500250 IEM_DS3505
ZGOW,1995-07-19 08:00,ZGOW 190800Z AUTO 18010KT 7SM 34/26 A2971 RMK SLP063 T03400260 IEM_DS3505
ZGOW,1995-07-19 09:00,ZGOW 190900Z AUTO 22008KT 8SM 34/26 A2968 RMK SLP054 T03410257 57016 IEM_DS3505
ZGOW,1995-07-19 10:00,ZGOW 191000Z AUTO 20008KT 7SM 32/25 A2971 RMK SLP063 T03200250 IEM_DS3505
ZGOW,1995-07-19 11:00,ZGOW 191100Z AUTO 20010KT 7SM 31/25 A2971 RMK SLP063 T03100250 IEM_DS3505
ZGOW,1995-07-19 12:00,ZGOW 191200Z AUTO 25008KT 7SM 31/25 A2974 RMK SLP073 T03060250 52019 IEM_DS3505
ZGOW,1995-07-19 13:00,ZGOW 191300Z AUTO 21004KT 7SM 30/25 A2974 RMK SLP073 T03000250 IEM_DS3505
ZGOW,1995-07-19 14:00,ZGOW 191400Z AUTO 20004KT 7SM 29/25 A2977 RMK SLP083 T02900250 IEM_DS3505
ZGOW,1995-07-19 15:00,ZGOW 191500Z AUTO 22008KT 7SM 29/25 A2975 RMK SLP077 T02920253 52004 IEM_DS3505
ZGOW,1995-07-19 18:00,ZGOW 191800Z AUTO 29002KT 7SM 28/26 A2975 RMK SLP075 T02820257 57002 IEM_DS3505
ZGOW,1995-07-19 21:00,ZGOW 192100Z AUTO 27004KT 5SM 27/25 A2973 RMK SLP069 T02740251 57006 IEM_DS3505
ZGOW,1995-07-19 22:00,ZGOW 192200Z AUTO 00000KT 2 1/2SM 26/26 A2974 RMK SLP073 T02600260 IEM_DS3505
ZGOW,1995-07-19 23:00,ZGOW 192300Z AUTO 21006KT 2 1/2SM 28/26 A2974 RMK SLP073 T02800260 IEM_DS3505
ZGOW,1995-07-20 00:00,ZGOW 200000Z AUTO 25006KT 6SM 29/25 A2974 RMK SLP078 T02870252 52009 IEM_DS3505
ZGOW,1995-07-20 01:00,ZGOW 200100Z AUTO 21006KT 6SM 30/26 A2977 RMK SLP083 T03000260 IEM_DS3505
ZGOW,1995-07-20 02:00,ZGOW 200200Z AUTO 21006KT 7SM 31/25 A2977 RMK SLP083 T03100250 IEM_DS3505
ZGOW,1995-07-20 03:00,ZGOW 200300Z AUTO 29008KT 6SM 33/26 A2975 RMK SLP075 T03260255 57003 IEM_DS3505
ZGOW,1995-07-20 06:00,ZGOW 200600Z AUTO 27010KT 6SM 36/24 A2971 RMK SLP062 T03570239 57013 IEM_DS3505
ZGOW,1995-07-20 07:00,ZGOW 200700Z AUTO 19006KT 7SM 36/23 A2968 RMK SLP053 T03600230 IEM_DS3505
ZGOW,1995-07-20 08:00,ZGOW 200800Z AUTO 24012KT 7SM 36/23 A2971 RMK SLP063 T03600230 IEM_DS3505
ZGOW,1995-07-20 09:00,ZGOW 200900Z AUTO 27010KT 9SM 36/23 A2965 RMK SLP046 T03590231 57016 IEM_DS3505
ZGOW,1995-07-20 10:00,ZGOW 201000Z AUTO 21006KT 7SM 33/26 A2965 RMK SLP042 T03300260 IEM_DS3505
ZGOW,1995-07-20 11:00,ZGOW 201100Z AUTO 21006KT 6SM 32/27 A2968 RMK SLP053 T03200270 IEM_DS3505
ZGOW,1995-07-20 12:00,ZGOW 201200Z AUTO 25008KT 6SM 31/26 A2968 RMK SLP056 T03090259 52010 IEM_DS3505
ZGOW,1995-07-20 13:00,ZGOW 201300Z AUTO 20006KT 7SM 30/26 A2971 RMK SLP063 T03000260 IEM_DS3505
ZGOW,1995-07-20 15:00,ZGOW 201500Z AUTO 25006KT 6SM 30/26 A2971 RMK SLP064 T02970258 52008 IEM_DS3505
ZGOW,1995-07-20 18:00,ZGOW 201800Z AUTO 27006KT 4SM 29/26 A2967 RMK SLP049 T02870262 57015 IEM_DS3505
ZGOW,1995-07-20 21:00,ZGOW 202100Z AUTO 29004KT 4SM 28/26 A2968 RMK SLP056 T02750255 52007 IEM_DS3505
ZGOW,1995-07-20 23:00,ZGOW 202300Z AUTO 26006KT 4SM 28/25 A2971 RMK SLP063 T02800250 IEM_DS3505
ZGOW,1995-07-21 00:00,ZGOW 210000Z AUTO 25006KT 6SM 29/25 A2971 RMK SLP062 T02880253 52006 IEM_DS3505
ZGOW,1995-07-21 01:00,ZGOW 210100Z AUTO 25006KT 4SM 31/25 A2971 RMK SLP063 T03100250 IEM_DS3505
ZGOW,1995-07-21 02:00,ZGOW 210200Z AUTO 22010KT 4SM 32/25 A2968 RMK SLP053 T03200250 IEM_DS3505
ZGOW,1995-07-21 03:00,ZGOW 210300Z AUTO 29008KT 6SM 33/24 A2968 RMK SLP053 T03280242 57009 IEM_DS3505
ZGOW,1995-07-21 06:00,ZGOW 210600Z AUTO 32006KT 6SM 35/24 A2962 RMK SLP034 T03540240 57019 IEM_DS3505
ZGOW,1995-07-21 09:00,ZGOW 210900Z AUTO 27006KT 7SM 36/24 A2957 RMK SLP016 T03580245 57018 IEM_DS3505
ZGOW,1995-07-21 12:00,ZGOW 211200Z AUTO 22010KT 4SM 32/26 A2960 RMK SLP025 T03160265 52009 IEM_DS3505
ZGOW,1995-07-21 13:00,ZGOW 211300Z AUTO 23006KT 3SM 31/26 A2959 RMK SLP022 T03100260 IEM_DS3505
ZGOW,1995-07-21 15:00,ZGOW 211500Z AUTO 22006KT 4SM 30/26 A2963 RMK SLP036 T03010262 52011 IEM_DS3505
ZGOW,1995-07-21 18:00,ZGOW 211800Z AUTO 25006KT 4SM 29/26 A2961 RMK SLP029 T02900259 57007 IEM_DS3505
ZGOW,1995-07-21 21:00,ZGOW 212100Z AUTO 25006KT 3SM 28/26 A2959 RMK SLP030 T02840260 52001 IEM_DS3505
ZGOW,1995-07-21 22:00,ZGOW 212200Z AUTO 00000KT 1 1/4SM 28/26 A2962 RMK SLP032 T02800260 IEM_DS3505
ZGOW,1995-07-21 23:00,ZGOW 212300Z AUTO 00000KT 1 1/2SM 29/27 A2962 RMK SLP032 T02900270 IEM_DS3505
ZGOW,1995-07-22 00:00,ZGOW 220000Z AUTO 22006KT 4SM 30/26 A2966 RMK SLP045 T02950265 52015 IEM_DS3505
ZGOW,1995-07-22 01:00,ZGOW 220100Z AUTO 27004KT 2 1/2SM 31/26 A2965 RMK SLP042 T03100260 IEM_DS3505
ZGOW,1995-07-22 02:00,ZGOW 220200Z AUTO 21004KT 3SM 33/27 A2965 RMK SLP042 T03300270 IEM_DS3505
ZGOW,1995-07-22 03:00,ZGOW 220300Z AUTO 22006KT 4SM 33/26 A2965 RMK SLP049 T03340265 52004 IEM_DS3505
ZGOW,1995-07-22 06:00,ZGOW 220600Z AUTO 27006KT 4SM 36/24 A2962 RMK SLP029 T03610237 57020 IEM_DS3505
ZGOW,1995-07-22 07:00,ZGOW 220700Z AUTO 15012KT 4SM 35/27 A2959 RMK SLP022 T03500270 IEM_DS3505
ZGOW,1995-07-22 08:00,ZGOW 220800Z AUTO 15012KT 4SM 35/26 A2959 RMK SLP022 T03500260 IEM_DS3505
ZGOW,1995-07-22 09:00,ZGOW 220900Z AUTO 18008KT 4SM 33/26 A2959 RMK SLP021 T03340264 57008 IEM_DS3505
ZGOW,1995-07-22 10:00,ZGOW 221000Z AUTO 16006KT 3SM 32/26 A2959 RMK SLP022 T03200260 IEM_DS3505
ZGOW,1995-07-22 12:00,ZGOW 221200Z AUTO 22004KT 6SM 31/26 A2962 RMK SLP037 T03060259 52016 IEM_DS3505
ZGOW,1995-07-22 13:00,ZGOW 221300Z AUTO 15004KT 4SM 29/26 A2965 RMK SLP042 T02900260 IEM_DS3505
ZGOW,1995-07-22 14:00,ZGOW 221400Z AUTO 00000KT 4SM 29/26 A2965 RMK SLP042 T02900260 IEM_DS3505
ZGOW,1995-07-22 15:00,ZGOW 221500Z AUTO 22006KT 6SM 30/26 A2967 RMK SLP050 T02980263 52013 IEM_DS3505
ZGOW,1995-07-22 18:00,ZGOW 221800Z AUTO 25006KT 7SM 29/26 A2966 RMK SLP047 T02920261 57003 IEM_DS3505
ZGOW,1995-07-22 21:00,ZGOW 222100Z AUTO 00000KT 5SM 29/26 A2968 RMK SLP054 T02900264 52007 IEM_DS3505
ZGOW,1995-07-22 22:00,ZGOW 222200Z AUTO 00000KT 2 1/2SM 27/26 A2968 RMK SLP053 T02700260 IEM_DS3505
ZGOW,1995-07-22 23:00,ZGOW 222300Z AUTO 00000KT 3SM 28/27 A2971 RMK SLP063 T02800270 IEM_DS3505
ZGOW,1995-07-23 00:00,ZGOW 230000Z AUTO 27008KT 6SM 30/26 A2971 RMK SLP064 T02990260 52010 IEM_DS3505
ZGOW,1995-07-23 01:00,ZGOW 230100Z AUTO 23006KT 4SM 30/26 A2971 RMK SLP063 T03000260 IEM_DS3505
ZGOW,1995-07-23 02:00,ZGOW 230200Z AUTO 17006KT 5SM 31/26 A2974 RMK SLP073 T03100260 IEM_DS3505
ZGOW,1995-07-23 03:00,ZGOW 230300Z AUTO 29004KT 4SM 33/27 A2974 RMK SLP069 T03270267 52005 IEM_DS3505
ZGOW,1995-07-23 04:00,ZGOW 230400Z AUTO 14008KT 3SM 33/28 A2971 RMK SLP063 T03300280 IEM_DS3505
ZGOW,1995-07-23 06:00,ZGOW 230600Z AUTO 18008KT 6SM 34/27 A2965 RMK SLP044 T03350268 57025 IEM_DS3505
ZGOW,1995-07-23 07:00,ZGOW 230700Z AUTO 17012KT 7SM 34/26 A2965 RMK SLP042 T03400260 IEM_DS3505
ZGOW,1995-07-23 08:00,ZGOW 230800Z AUTO 18012KT 7SM 33/26 A2965 RMK SLP042 T03300260 IEM_DS3505
ZGOW,1995-07-23 09:00,ZGOW 230900Z AUTO 18008KT 9SM 33/24 A2965 RMK SLP039 T03260243 57005 IEM_DS3505
ZGOW,1995-07-23 10:00,ZGOW 231000Z AUTO 34010KT 2 1/2SM 30/26 A2971 RMK SLP063 T03000260 IEM_DS3505
ZGOW,1995-07-23 12:00,ZGOW 231200Z AUTO 36004KT 2 1/2SM 28/23 A2973 RMK SLP070 T02800234 52031 IEM_DS3505
ZGOW,1995-07-23 13:00,ZGOW 231300Z AUTO 36004KT 3SM 28/23 A2977 RMK SLP083 T02800230 IEM_DS3505
ZGOW,1995-07-23 15:00,ZGOW 231500Z AUTO 07004KT 6SM 27/24 A2979 RMK SLP089 T02740241 52019 IEM_DS3505
ZGOW,1995-07-23 18:00,ZGOW 231800Z AUTO 04004KT 4SM 27/25 A2976 RMK SLP080 T02700247 57009 IEM_DS3505
ZGOW,1995-07-23 21:00,ZGOW 232100Z AUTO 02002KT 4SM 27/25 A2977 RMK SLP078 T02710247 57002 IEM_DS3505
ZGOW,1995-07-23 22:00,ZGOW 232200Z AUTO 00000KT 2SM 27/26 A2977 RMK SLP083 T02700260 IEM_DS3505
ZGOW,1995-07-23 23:00,ZGOW 232300Z AUTO 00000KT 1 1/2SM 27/26 A2977 RMK SLP083 T02700260 IEM_DS3505
ZGOW,1995-07-24 00:00,ZGOW 240000Z AUTO 04004KT 4SM 28/26 A2980 RMK SLP090 T02780260 52012 IEM_DS3505
ZGOW,1995-07-24 01:00,ZGOW 240100Z AUTO 12006KT 2 1/2SM 27/26 RMK T02700260 IEM_DS3505
ZGOW,1995-07-24 02:00,ZGOW 240200Z AUTO 14008KT 3SM 30/27 A2980 RMK SLP093 T03000270 IEM_DS3505
ZGOW,1995-07-24 03:00,ZGOW 240300Z AUTO 14006KT 6SM 30/26 A2980 RMK SLP094 T03050259 52004 IEM_DS3505
ZGOW,1995-07-24 04:00,ZGOW 240400Z AUTO 13008KT 7SM 31/26 A2980 RMK SLP093 T03100260 IEM_DS3505
ZGOW,1995-07-24 06:00,ZGOW 240600Z AUTO 11006KT 11SM 32/26 A2977 RMK SLP081 T03150255 57013 IEM_DS3505
ZGOW,1995-07-24 07:00,ZGOW 240700Z AUTO 14010KT 7SM 32/26 A2974 RMK SLP073 T03200260 IEM_DS3505
ZGOW,1995-07-24 08:00,ZGOW 240800Z AUTO 12008KT 7SM 30/26 A2974 RMK SLP073 T03000260 IEM_DS3505
ZGOW,1995-07-24 09:00,ZGOW 240900Z AUTO 14004KT 12SM 30/25 A2971 RMK SLP066 T03030246 57015 IEM_DS3505
ZGOW,1995-07-24 10:00,ZGOW 241000Z AUTO 14008KT 7SM 29/25 A2974 RMK SLP073 T02900250 IEM_DS3505
ZGOW,1995-07-24 11:00,ZGOW 241100Z AUTO 00000KT 2SM 28/25 A2974 RMK SLP073 T02800250 IEM_DS3505
ZGOW,1995-07-24 12:00,ZGOW 241200Z AUTO 16004KT 9SM 28/25 A2977 RMK SLP082 T02820254 52016 IEM_DS3505
ZGOW,1995-07-24 13:00,ZGOW 241300Z AUTO 00000KT 4SM 28/25 A2980 RMK SLP093 T02800250 IEM_DS3505
ZGOW,1995-07-24 15:00,ZGOW 241500Z AUTO 11004KT 8SM 28/26 A2982 RMK SLP100 T02790255 52018 IEM_DS3505
ZGOW,1995-07-24 18:00,ZGOW 241800Z AUTO 07004KT 7SM 27/25 A2978 RMK SLP086 T02720252 57014 IEM_DS3505
ZGOW,1995-07-24 21:00,ZGOW 242100Z AUTO 07004KT 7SM 27/25 A2973 RMK SLP070 T02670253 57016 IEM_DS3505
ZGOW,1995-07-24 22:00,ZGOW 242200Z AUTO 04006KT 7SM 27/25 A2974 RMK SLP073 T02700250 IEM_DS3505
ZGOW,1995-07-24 23:00,ZGOW 242300Z AUTO 04004KT 7SM 28/25 A2974 RMK SLP073 T02800250 IEM_DS3505
ZGOW,1995-07-25 00:00,ZGOW 250000Z AUTO 09006KT 11SM 28/26 A2977 RMK 60004 70004 SLP079 T02830258 52009 IEM_DS3505
ZGOW,1995-07-25 01:00,ZGOW 250100Z AUTO 05008KT 7SM 29/25 A2977 RMK SLP083 T02900250 IEM_DS3505
ZGOW,1995-07-25 02:00,ZGOW 250200Z AUTO 03012KT 7SM 30/25 A2977 RMK SLP083 T03000250 IEM_DS3505
ZGOW,1995-07-25 03:00,ZGOW 250300Z AUTO 11006KT 16SM 30/25 A2977 RMK SLP077 T03020247 57002 IEM_DS3505
ZGOW,1995-07-25 06:00,ZGOW 250600Z AUTO 11010KT 19SM 31/24 A2971 RMK SLP065 T03060245 57012 IEM_DS3505
ZGOW,1995-07-25 07:00,ZGOW 250700Z AUTO 06010KT 7SM 30/23 A2971 RMK SLP063 T03000230 IEM_DS3505
ZGOW,1995-07-25 08:00,ZGOW 250800Z AUTO 08008KT 7SM 29/25 A2968 RMK SLP053 T02900250 IEM_DS3505
ZGOW,1995-07-25 09:00,ZGOW 250900Z AUTO 09006KT 17SM 28/24 A2971 RMK SLP055 T02830243 57010 IEM_DS3505
ZGOW,1995-07-25 10:00,ZGOW 251000Z AUTO 06008KT 7SM 28/24 A2971 RMK SLP063 T02800240 IEM_DS3505
ZGOW,1995-07-25 11:00,ZGOW 251100Z AUTO 01006KT 7SM 28/24 A2971 RMK SLP063 T02800240 IEM_DS3505
ZGOW,1995-07-25 12:00,ZGOW 251200Z AUTO 11006KT 9SM 27/25 A2971 RMK SLP069 T02700246 52014 IEM_DS3505
ZGOW,1995-07-25 13:00,ZGOW 251300Z AUTO 05006KT 7SM 26/24 A2974 RMK SLP073 T02600240 IEM_DS3505
ZGOW,1995-07-25 14:00,ZGOW 251400Z AUTO 03004KT 7SM 27/25 A2974 RMK SLP073 T02700250 IEM_DS3505
ZGOW,1995-07-25 15:00,ZGOW 251500Z AUTO 07004KT 7SM 26/24 A2976 RMK SLP080 T02620245 52011 IEM_DS3505
ZGOW,1995-07-25 18:00,ZGOW 251800Z AUTO 09004KT 8SM 26/25 A2972 RMK SLP067 T02570247 57013 IEM_DS3505
ZGOW,1995-07-25 21:00,ZGOW 252100Z AUTO 07004KT 10SM 25/24 A2970 RMK 70004 SLP061 T02540243 57006 IEM_DS3505
ZGOW,1995-07-25 22:00,ZGOW 252200Z AUTO 06006KT 7SM 26/24 A2971 RMK SLP063 T02600240 IEM_DS3505
ZGOW,1995-07-25 23:00,ZGOW 252300Z AUTO 06008KT 7SM 26/24 A2974 RMK SLP073 T02600240 IEM_DS3505
ZGOW,1995-07-26 00:00,ZGOW 260000Z AUTO 04008KT 10SM 26/24 A2974 RMK SLP077 T02580245 52016 IEM_DS3505
ZGOW,1995-07-26 02:00,ZGOW 260200Z AUTO 05006KT 7SM 28/24 A2977 RMK SLP083 T02800240 IEM_DS3505
ZGOW,1995-07-26 03:00,ZGOW 260300Z AUTO 14006KT 11SM 27/24 A2977 RMK SLP083 T02740243 52006 IEM_DS3505
ZGOW,1995-07-26 06:00,ZGOW 260600Z AUTO 11008KT 12SM 28/23 A2973 RMK SLP068 T02790234 57015 IEM_DS3505
ZGOW,1995-07-26 07:00,ZGOW 260700Z AUTO 09010KT 7SM 28/24 A2974 RMK SLP073 T02800240 IEM_DS3505
ZGOW,1995-07-26 08:00,ZGOW 260800Z AUTO 12016KT 4SM 27/25 RMK T02700250 IEM_DS3505
ZGOW,1995-07-26 09:00,ZGOW 260900Z AUTO 18010KT 9SM 26/24 A2974 RMK SLP069 T02560239 52001 IEM_DS3505
ZGOW,1995-07-26 10:00,ZGOW 261000Z AUTO 10006KT 1 1/4SM 26/24 A2974 RMK SLP073 T02600240 IEM_DS3505
ZGOW,1995-07-26 11:00,ZGOW 261100Z AUTO 11006KT 7SM 25/24 A2974 RMK SLP073 T02500240 IEM_DS3505
ZGOW,1995-07-26 12:00,ZGOW 261200Z AUTO 14006KT 7SM 25/24 A2977 RMK 60004 SLP079 T02530239 52010 IEM_DS3505
ZGOW,1995-07-26 13:00,ZGOW 261300Z AUTO 08004KT 7SM 25/24 A2980 RMK SLP093 T02500240 IEM_DS3505
ZGOW,1995-07-26 15:00,ZGOW 261500Z AUTO 11002KT 7SM 26/24 A2981 RMK SLP095 T02550241 52016 IEM_DS3505
ZGOW,1995-07-26 18:00,ZGOW 261800Z AUTO 11004KT 7SM 26/24 A2976 RMK SLP079 T02550241 57016 IEM_DS3505
ZGOW,1995-07-26 21:00,ZGOW 262100Z AUTO 09006KT 8SM 25/24 A2974 RMK 70020 SLP076 T02540241 57003 IEM_DS3505
ZGOW,1995-07-26 22:00,ZGOW 262200Z AUTO 04006KT 7SM 25/24 A2977 RMK SLP083 T02500240 IEM_DS3505
ZGOW,1995-07-26 23:00,ZGOW 262300Z AUTO 05014KT 7SM 27/24 A2977 RMK SLP083 T02700240 IEM_DS3505
ZGOW,1995-07-27 00:00,ZGOW 270000Z AUTO 09008KT 11SM 26/23 A2978 RMK 60016 70020 SLP087 T02620234 52011 IEM_DS3505
ZGOW,1995-07-27 01:00,ZGOW 270100Z AUTO 05012KT 7SM 27/23 A2980 RMK SLP093 T02700230 IEM_DS3505
ZGOW,1995-07-27 02:00,ZGOW 270200Z AUTO 05014KT 7SM 28/24 A2980 RMK SLP093 T02800240 IEM_DS3505
ZGOW,1995-07-27 03:00,ZGOW 270300Z AUTO 07008KT 16SM 29/24 A2980 RMK SLP096 T02940237 52009 IEM_DS3505
ZGOW,1995-07-27 04:00,ZGOW 270400Z AUTO 09008KT 17SM 29/23 A2980 RMK 60008 SLP087 T02930234 57009 IEM_DS3505
ZGOW,1995-07-27 05:00,ZGOW 270500Z AUTO 07006KT 7SM 29/24 A2980 RMK SLP093 T02900240 IEM_DS3505
ZGOW,1995-07-27 06:00,ZGOW 270600Z AUTO 09008KT 17SM 29/23 A2977 RMK 60008 SLP087 T02930234 57009 IEM_DS3505
ZGOW,1995-07-27 07:00,ZGOW 270700Z AUTO 07006KT 7SM 30/24 A2977 RMK SLP083 T03000240 IEM_DS3505
ZGOW,1995-07-27 09:00,ZGOW 270900Z AUTO 16004KT 19SM 29/22 A2977 RMK SLP073 T02890225 57014 IEM_DS3505
ZGOW,1995-07-27 12:00,ZGOW 271200Z AUTO 04004KT 14SM 26/23 A2977 RMK SLP080 T02590227 52007 IEM_DS3505
ZGOW,1995-07-27 15:00,ZGOW 271500Z AUTO 09004KT 9SM 27/24 A2980 RMK SLP094 T02720240 52014 IEM_DS3505
ZGOW,1995-07-27 18:00,ZGOW 271800Z AUTO 09004KT 7SM 27/24 A2974 RMK SLP072 T02660243 57022 IEM_DS3505
ZGOW,1995-07-27 21:00,ZGOW 272100Z AUTO 07004KT 6SM 26/24 A2974 RMK 70008 SLP072 T02620245 54000 IEM_DS3505
ZGOW,1995-07-27 22:00,ZGOW 272200Z AUTO 00000KT 6SM 26/25 A2974 RMK SLP073 T02600250 IEM_DS3505
ZGOW,1995-07-28 00:00,ZGOW 280000Z AUTO 07004KT 8SM 28/25 A2974 RMK 70008 SLP075 T02760249 52003 IEM_DS3505
ZGOW,1995-07-28 01:00,ZGOW 280100Z AUTO 01004KT 6SM 29/24 A2974 RMK SLP073 T02900240 IEM_DS3505
ZGOW,1995-07-28 02:00,ZGOW 280200Z AUTO 03006KT 6SM 31/24 A2974 RMK SLP073 T03100240 IEM_DS3505
ZGOW,1995-07-28 03:00,ZGOW 280300Z AUTO 07008KT 11SM 32/24 A2974 RMK SLP070 T03240236 57005 IEM_DS3505
ZGOW,1995-07-28 06:00,ZGOW 280600Z AUTO 07006KT 12SM 34/24 A2965 RMK SLP044 T03360240 57026 IEM_DS3505
ZGOW,1995-07-28 09:00,ZGOW 280900Z AUTO 18004KT 9SM 32/25 A2962 RMK SLP035 T03220248 57009 IEM_DS3505
ZGOW,1995-07-28 12:00,ZGOW 281200Z AUTO 11006KT 7SM 29/23 A2965 RMK SLP045 T02940234 52010 IEM_DS3505
ZGOW,1995-07-28 13:00,ZGOW 281300Z AUTO 03010KT 7SM 29/23 A2965 RMK SLP042 T02900230 IEM_DS3505
ZGOW,1995-07-28 14:00,ZGOW 281400Z AUTO 06012KT 7SM 28/23 A2968 RMK SLP053 T02800230 IEM_DS3505
ZGOW,1995-07-28 15:00,ZGOW 281500Z AUTO 09006KT 7SM 28/23 A2969 RMK SLP057 T02800234 52012 IEM_DS3505
ZGOW,1995-07-28 18:00,ZGOW 281800Z AUTO 36002KT 7SM 27/24 A2965 RMK SLP042 T02710241 57015 IEM_DS3505
ZGOW,1995-07-28 21:00,ZGOW 282100Z AUTO 04004KT 6SM 26/25 A2965 RMK SLP035 T02640250 57007 IEM_DS3505
ZGOW,1995-07-28 22:00,ZGOW 282200Z AUTO 30004KT 2 1/2SM 26/25 A2962 RMK SLP032 T02600250 IEM_DS3505
ZGOW,1995-07-28 23:00,ZGOW 282300Z AUTO 00000KT 2 1/2SM 27/26 A2965 RMK SLP042 T02700260 IEM_DS3505
ZGOW,1995-07-29 00:00,ZGOW 290000Z AUTO 04004KT 7SM 30/24 A2965 RMK SLP038 T02950239 52003 IEM_DS3505
ZGOW,1995-07-29 02:00,ZGOW 290200Z AUTO 34008KT 6SM 31/24 A2962 RMK SLP032 T03100240 IEM_DS3505
ZGOW,1995-07-29 03:00,ZGOW 290300Z AUTO 09008KT 12SM 33/22 A2959 RMK SLP027 T03260222 57011 IEM_DS3505
ZGOW,1995-07-29 06:00,ZGOW 290600Z AUTO 18008KT 12SM 33/24 A2956 RMK SLP011 T03280245 57016 IEM_DS3505
ZGOW,1995-07-29 07:00,ZGOW 290700Z AUTO 03008KT 6SM 33/24 A2953 RMK SLP002 T03300240 IEM_DS3505
ZGOW,1995-07-29 08:00,ZGOW 290800Z AUTO 01008KT 6SM 33/25 A2953 RMK SLP002 T03300250 IEM_DS3505
ZGOW,1995-07-29 09:00,ZGOW 290900Z AUTO 16006KT 10SM 32/24 A2953 RMK SLP002 T03170242 57009 IEM_DS3505
ZGOW,1995-07-29 10:00,ZGOW 291000Z AUTO 05010KT 6SM 31/24 A2953 RMK SLP002 T03100240 IEM_DS3505
ZGOW,1995-07-29 11:00,ZGOW 291100Z AUTO 05008KT 4SM 30/24 A2953 RMK SLP002 T03000240 IEM_DS3505
ZGOW,1995-07-29 12:00,ZGOW 291200Z AUTO 11004KT 9SM 29/24 A2956 RMK SLP013 T02880239 52011 IEM_DS3505
ZGOW,1995-07-29 13:00,ZGOW 291300Z AUTO 06010KT 3SM 29/25 A2956 RMK SLP012 T02900250 IEM_DS3505
ZGOW,1995-07-29 14:00,ZGOW 291400Z AUTO 05008KT 3SM 28/26 A2959 RMK SLP022 T02800260 IEM_DS3505
ZGOW,1995-07-29 15:00,ZGOW 291500Z AUTO 09004KT 7SM 28/24 A2959 RMK SLP024 T02780235 52011 IEM_DS3505
ZGOW,1995-07-29 18:00,ZGOW 291800Z AUTO 09008KT 7SM 28/23 A2957 RMK SLP016 T02840226 57008 IEM_DS3505
ZGOW,1995-07-29 21:00,ZGOW 292100Z AUTO 07002KT 6SM 27/24 A2954 RMK SLP005 T02700238 57011 IEM_DS3505
ZGOW,1995-07-29 23:00,ZGOW 292300Z AUTO 02004KT 6SM 28/24 A2953 RMK SLP002 T02800240 IEM_DS3505
ZGOW,1995-07-30 00:00,ZGOW 300000Z AUTO 11006KT 9SM 30/24 A2956 RMK SLP013 T02960237 52008 IEM_DS3505
ZGOW,1995-07-30 01:00,ZGOW 300100Z AUTO 03006KT 7SM 30/24 A2956 RMK SLP012 T03000240 IEM_DS3505
ZGOW,1995-07-30 02:00,ZGOW 300200Z AUTO 04010KT 7SM 31/24 A2956 RMK SLP012 T03100240 IEM_DS3505
ZGOW,1995-07-30 03:00,ZGOW 300300Z AUTO 07008KT 16SM 32/24 A2956 RMK SLP014 T03160238 52001 IEM_DS3505
ZGOW,1995-07-30 04:00,ZGOW 300400Z AUTO 04014KT 7SM 30/24 A2956 RMK SLP012 T03000240 IEM_DS3505
ZGOW,1995-07-30 06:00,ZGOW 300600Z AUTO 11012KT 14SM 29/24 A2956 RMK SLP007 T02940240 57007 IEM_DS3505
ZGOW,1995-07-30 07:00,ZGOW 300700Z AUTO 04010G19KT 6SM 29/24 A2953 RMK SLP002 T02900240 IEM_DS3505
ZGOW,1995-07-30 08:00,ZGOW 300800Z AUTO 04012KT 7SM 29/24 A2953 RMK SLP002 T02900240 IEM_DS3505
ZGOW,1995-07-30 09:00,ZGOW 300900Z AUTO 04010KT 9SM 29/24 A2953 RMK SLP006 T02880236 57001 IEM_DS3505
ZGOW,1995-07-30 10:00,ZGOW 301000Z AUTO 05010KT 7SM 28/24 A2956 RMK SLP012 T02800240 IEM_DS3505
ZGOW,1995-07-30 11:00,ZGOW 301100Z AUTO 05012KT 7SM 28/24 A2953 RMK SLP002 T02800240 IEM_DS3505
ZGOW,1995-07-30 12:00,ZGOW 301200Z AUTO 07008G19KT 6SM 26/24 A2953 RMK 60008 SLP008 T02570244 52002 IEM_DS3505
ZGOW,1995-07-30 13:00,ZGOW 301300Z AUTO 04012G21KT 7SM 26/24 A2953 RMK SLP002 T02600240 IEM_DS3505
ZGOW,1995-07-30 15:00,ZGOW 301500Z AUTO 09008KT 7SM 25/24 A2956 RMK SLP011 T02540241 52003 IEM_DS3505
ZGOW,1995-07-30 18:00,ZGOW 301800Z AUTO 07012KT 3SM 25/24 A2948 RMK 60012 SLP985 T02460236 57026 IEM_DS3505
ZGOW,1995-07-30 21:00,ZGOW 302100Z AUTO 07019G29KT 3SM 25/24 A2935 RMK 70126 SLP944 T02490239 57041 IEM_DS3505
ZGOW,1995-07-30 22:00,ZGOW 302200Z AUTO 03021G33KT 2 1/2SM 25/23 A2932 RMK SLP931 T02500230 IEM_DS3505
ZGOW,1995-07-30 23:00,ZGOW 302300Z AUTO 03025G37KT 5SM 25/23 A2926 RMK SLP910 T02500230 IEM_DS3505
ZGOW,1995-07-31 00:00,ZGOW 310000Z AUTO 02019G43KT 4SM 24/23 A2921 RMK 60232 70236 SLP883 T02400234 57037 IEM_DS3505
ZGOW,1995-07-31 01:00,ZGOW 310100Z AUTO 04016G39KT 2SM 24/24 A2918 RMK SLP883 T02440235 57050 IEM_DS3505
ZGOW,1995-07-31 02:00,ZGOW 310200Z AUTO 02016G35KT 1 1/4SM 24/24 A2914 RMK SLP869 T02440238 57049 IEM_DS3505
ZGOW,1995-07-31 03:00,ZGOW 310300Z AUTO 34014KT 1 1/4SM 24/24 A2908 RMK SLP848 T02410240 57044 IEM_DS3505
ZGOW,1995-07-31 04:00,ZGOW 310400Z AUTO 29019KT 7SM 24/23 A2918 RMK SLP883 T02400234 54000 IEM_DS3505
ZGOW,1995-07-31 05:00,ZGOW 310500Z AUTO 27027KT 1 1/4SM 24/24 A2929 RMK SLP921 T02420236 52052 IEM_DS3505
ZGOW,1995-07-31 06:00,ZGOW 310600Z AUTO 25016KT 2SM 25/23 A2936 RMK 60386 SLP944 T02470234 4////0234 52096 IEM_DS3505
ZGOW,1995-07-31 07:00,ZGOW 310700Z AUTO 22019KT 2SM 25/24 A2939 RMK SLP955 T02480235 52072 IEM_DS3505
ZGOW,1995-07-31 08:00,ZGOW 310800Z AUTO 22016KT 2 1/2SM 25/24 A2941 RMK SLP966 T02500236 52045 IEM_DS3505
ZGOW,1995-07-31 09:00,ZGOW 310900Z AUTO 22016KT 9SM 26/24 A2948 RMK SLP985 T02560236 52041 IEM_DS3505
ZGOW,1995-07-31 10:00,ZGOW 311000Z AUTO 22012KT 12SM 27/23 A2953 RMK SLP001 T02670234 52046 IEM_DS3505
ZGOW,1995-07-31 12:00,ZGOW 311200Z AUTO 22016KT 9SM 27/24 A2956 RMK 60024 SLP027 T02660239 52042 IEM_DS3505
ZGOW,1995-07-31 13:00,ZGOW 311300Z AUTO 19008KT 5SM RMK IEM_DS3505
ZGOW,1995-07-31 15:00,ZGOW 311500Z AUTO 25016KT 5SM 26/24 A2969 RMK SLP057 T02600235 52030 IEM_DS3505
ZGOW,1995-07-31 16:00,ZGOW 311600Z AUTO 20014KT 7SM 25/25 RMK T02500250 IEM_DS3505
ZGOW,1995-07-31 18:00,ZGOW 311800Z AUTO 20012KT 4SM 27/25 A2970 RMK 60236 SLP060 T02660253 52003 IEM_DS3505
ZGOW,1995-07-31 21:00,ZGOW 312100Z AUTO 34004KT 5SM 25/24 A2973 RMK 70756 SLP068 T02480244 52008 IEM_DS3505
ZGOW,1995-07-31 23:00,ZGOW 312300Z AUTO 25006KT 2 1/2SM 26/26 A2974 RMK SLP073 T02600260 IEM_DS3505
ZGOW,1995-08-01 00:00,ZGOW 010000Z AUTO 22010KT 4SM 26/25 A2975 RMK 60122 70768 SLP077 T02600253 52009 IEM_DS3505
ZGOW,1995-08-01 01:00,ZGOW 010100Z AUTO 21006KT 7SM 27/26 RMK T02700260 IEM_DS3505
ZGOW,1995-08-01 02:00,ZGOW 010200Z AUTO 21006KT 7SM 28/26 RMK T02800260 IEM_DS3505
ZGOW,1995-08-01 03:00,ZGOW 010300Z AUTO 27008KT 6SM 26/24 A2977 RMK SLP081 T02550245 52004 IEM_DS3505
ZGOW,1995-08-01 06:00,ZGOW 010600Z AUTO 22008KT 11SM 27/25 A2974 RMK 60067 SLP075 T02680250 57006 IEM_DS3505
ZGOW,1995-08-01 07:00,ZGOW 010700Z AUTO 18014KT 7SM 28/25 A2974 RMK SLP074 T02800250 IEM_DS3505
ZGOW,1995-08-01 09:00,ZGOW 010900Z AUTO 22008KT 14SM 28/24 A2972 RMK SLP069 T02830243 57006 IEM_DS3505
ZGOW,1995-08-01 10:00,ZGOW 011000Z AUTO 18008KT 7SM 27/25 A2974 RMK SLP074 T02700250 IEM_DS3505
ZGOW,1995-08-01 11:00,ZGOW 011100Z AUTO 18008KT 7SM 27/25 A2974 RMK SLP074 T02700250 IEM_DS3505
ZGOW,1995-08-01 12:00,ZGOW 011200Z AUTO 20004KT 9SM 27/25 A2977 RMK SLP081 T02700250 52012 IEM_DS3505
ZGOW,1995-08-01 13:00,ZGOW 011300Z AUTO 15006KT 7SM 26/25 A2977 RMK SLP084 T02600250 IEM_DS3505
ZGOW,1995-08-01 14:00,ZGOW 011400Z AUTO 18004KT 7SM 26/25 A2977 RMK SLP084 T02600250 IEM_DS3505
ZGOW,1995-08-01 15:00,ZGOW 011500Z AUTO 22006KT 7SM 26/25 A2977 RMK SLP085 T02650251 52004 IEM_DS3505
ZGOW,1995-08-01 18:00,ZGOW 011800Z AUTO 00000KT 9SM 26/25 A2972 RMK 60004 SLP069 T02570247 57016 IEM_DS3505
ZGOW,1995-08-01 21:00,ZGOW 012100Z AUTO 22006KT 5SM 24/24 A2974 RMK 70213 SLP073 T02440238 52004 IEM_DS3505
ZGOW,1995-08-01 22:00,ZGOW 012200Z AUTO 17006KT 4SM 24/24 A2974 RMK SLP074 T02400240 IEM_DS3505
ZGOW,1995-08-01 23:00,ZGOW 012300Z AUTO 17008KT 7SM 25/24 RMK T02500240 IEM_DS3505
ZGOW,1995-08-02 00:00,ZGOW 020000Z AUTO 22010KT 6SM 26/24 A2975 RMK 60067 70138 SLP079 T02550241 52006 IEM_DS3505
ZGOW,1995-08-02 01:00,ZGOW 020100Z AUTO 00000KT 7SM 25/25 RMK T02500250 IEM_DS3505
ZGOW,1995-08-02 02:00,ZGOW 020200Z AUTO 24006KT 7SM 26/25 A2974 RMK SLP074 T02600250 IEM_DS3505
ZGOW,1995-08-02 03:00,ZGOW 020300Z AUTO 20006KT 4SM 26/25 A2974 RMK SLP078 T02610247 57001 IEM_DS3505
ZGOW,1995-08-02 06:00,ZGOW 020600Z AUTO 18006KT 5SM 26/24 A2971 RMK 60008 SLP063 T02620243 57015 IEM_DS3505
ZGOW,1995-08-02 07:00,ZGOW 020700Z AUTO 15010KT 7SM 26/25 A2968 RMK SLP054 T02600250 IEM_DS3505
ZGOW,1995-08-02 08:00,ZGOW 020800Z AUTO 16010KT 7SM 26/24 A2968 RMK SLP054 T02600240 IEM_DS3505
ZGOW,1995-08-02 09:00,ZGOW 020900Z AUTO 18008KT 4SM 25/24 A2968 RMK SLP050 T02520243 57013 IEM_DS3505
ZGOW,1995-08-02 10:00,ZGOW 021000Z AUTO 17012KT 7SM 25/24 A2968 RMK SLP054 T02500240 IEM_DS3505
ZGOW,1995-08-02 12:00,ZGOW 021200Z AUTO 18008KT 6SM 25/24 A2968 RMK 60028 SLP056 T02500240 52006 IEM_DS3505
ZGOW,1995-08-02 13:00,ZGOW 021300Z AUTO 23008KT 7SM 25/24 A2968 RMK SLP054 T02500240 IEM_DS3505
ZGOW,1995-08-02 15:00,ZGOW 021500Z AUTO 18010KT 8SM 26/24 A2971 RMK SLP065 T02550242 52009 IEM_DS3505
ZGOW,1995-08-02 18:00,ZGOW 021800Z AUTO 20006KT 6SM 25/24 A2967 RMK 60002 SLP050 T02500241 57015 IEM_DS3505
ZGOW,1995-08-02 21:00,ZGOW 022100Z AUTO 22006KT 4SM 24/24 A2966 RMK 70079 SLP048 T02430239 57002 IEM_DS3505
ZGOW,1995-08-02 22:00,ZGOW 022200Z AUTO 16008KT 2 1/2SM 24/24 A2968 RMK SLP054 T02400240 IEM_DS3505
ZGOW,1995-08-02 23:00,ZGOW 022300Z AUTO 18006KT 2 1/2SM 24/24 A2968 RMK SLP054 T02400240 IEM_DS3505
ZGOW,1995-08-03 00:00,ZGOW 030000Z AUTO 22014KT 6SM 25/24 A2969 RMK 60059 70094 SLP057 T02460236 52009 IEM_DS3505
ZGOW,1995-08-03 01:00,ZGOW 030100Z AUTO 16012KT 4SM 25/25 RMK T02500250 IEM_DS3505
ZGOW,1995-08-03 02:00,ZGOW 030200Z AUTO 16017KT 5SM 25/24 A2971 RMK SLP064 T02500240 IEM_DS3505
ZGOW,1995-08-03 03:00,ZGOW 030300Z AUTO 22010KT 5SM 25/23 A2973 RMK SLP070 T02500230 52013 IEM_DS3505
ZGOW,1995-08-03 04:00,ZGOW 030400Z AUTO 18012KT 7SM 25/24 A2974 RMK SLP074 T02500240 IEM_DS3505
ZGOW,1995-08-03 06:00,ZGOW 030600Z AUTO 22006KT 4SM 25/24 A2970 RMK 60098 SLP062 T02480235 57008 IEM_DS3505
ZGOW,1995-08-03 07:00,ZGOW 030700Z AUTO 17008KT 5SM 24/23 RMK T02400230 IEM_DS3505
ZGOW,1995-08-03 08:00,ZGOW 030800Z AUTO 14006KT 7SM 25/24 RMK T02500240 IEM_DS3505
ZGOW,1995-08-03 09:00,ZGOW 030900Z AUTO 18002KT 5SM 25/24 A2971 RMK SLP056 T02540241 57006 IEM_DS3505
ZGOW,1995-08-03 10:00,ZGOW 031000Z AUTO 00000KT 7SM 25/24 A2971 RMK SLP064 T02500240 IEM_DS3505
ZGOW,1995-08-03 12:00,ZGOW 031200Z AUTO 18006KT 6SM 25/24 A2974 RMK 60024 SLP072 T02500241 52016 IEM_DS3505
ZGOW,1995-08-03 15:00,ZGOW 031500Z AUTO 04004KT 6SM 25/24 A2977 RMK SLP085 T02500238 52013 IEM_DS3505
ZGOW,1995-08-03 17:00,ZGOW 031700Z AUTO 09006KT 9SM 26/24 A2975 RMK SLP077 T02580244 57018 IEM_DS3505
ZGOW,1995-08-03 18:00,ZGOW 031800Z AUTO 09006KT 9SM 26/24 A2975 RMK SLP077 T02580244 57008 IEM_DS3505
ZGOW,1995-08-03 21:00,ZGOW 032100Z AUTO 00000KT 8SM 26/25 A2976 RMK 70142 SLP082 T02550248 52005 IEM_DS3505
ZGOW,1995-08-03 22:00,ZGOW 032200Z AUTO 12006KT 7SM 25/24 A2977 RMK SLP084 T02500240 IEM_DS3505
ZGOW,1995-08-03 23:00,ZGOW 032300Z AUTO 08008KT 7SM 26/24 A2980 RMK SLP094 T02600240 IEM_DS3505
ZGOW,1995-08-04 00:00,ZGOW 040000Z AUTO 14002KT 4SM 26/25 A2983 RMK 60008 70126 SLP100 T02570251 52018 IEM_DS3505
ZGOW,1995-08-04 01:00,ZGOW 040100Z AUTO 19006KT 4SM 26/25 A2985 RMK SLP111 T02600250 IEM_DS3505
ZGOW,1995-08-04 02:00,ZGOW 040200Z AUTO 24008KT 7SM 26/25 A2985 RMK SLP111 T02600250 IEM_DS3505
ZGOW,1995-08-04 03:00,ZGOW 040300Z AUTO 22004KT 4SM 24/24 A2988 RMK SLP122 T02430237 52022 IEM_DS3505
ZGOW,1995-08-04 06:00,ZGOW 040600Z AUTO 02002KT 5SM 26/24 A2985 RMK 60091 SLP109 T02550239 57013 IEM_DS3505
ZGOW,1995-08-04 07:00,ZGOW 040700Z AUTO 36004KT 7SM 26/24 A2983 RMK SLP105 T02600240 IEM_DS3505
ZGOW,1995-08-04 08:00,ZGOW 040800Z AUTO 00000KT 7SM 26/24 A2983 RMK SLP105 T02600240 IEM_DS3505
ZGOW,1995-08-04 09:00,ZGOW 040900Z AUTO 02004KT 6SM 26/24 A2984 RMK SLP107 T02620245 57002 IEM_DS3505
ZGOW,1995-08-04 10:00,ZGOW 041000Z AUTO 00000KT 7SM 26/24 A2985 RMK SLP111 T02600240 IEM_DS3505
ZGOW,1995-08-04 11:00,ZGOW 041100Z AUTO 00000KT 7SM 25/23 A2985 RMK SLP111 T02500230 IEM_DS3505
ZGOW,1995-08-04 12:00,ZGOW 041200Z AUTO 07002KT 5SM 25/24 A2988 RMK 60002 SLP122 T02540244 52015 IEM_DS3505
ZGOW,1995-08-04 13:00,ZGOW 041300Z AUTO 00000KT 7SM 25/24 RMK T02500240 IEM_DS3505
ZGOW,1995-08-04 14:00,ZGOW 041400Z AUTO 00000KT 7SM 25/24 RMK T02500240 IEM_DS3505
ZGOW,1995-08-04 15:00,ZGOW 041500Z AUTO 00000KT 5SM 25/24 A2991 RMK SLP133 T02480238 52011 IEM_DS3505
ZGOW,1995-08-04 18:00,ZGOW 041800Z AUTO 00000KT 4SM 25/24 A2987 RMK 60008 SLP117 T02470243 57016 IEM_DS3505
ZGOW,1995-08-04 21:00,ZGOW 042100Z AUTO 04004KT 4SM 24/24 A2985 RMK 70110 SLP113 T02440241 57004 IEM_DS3505
ZGOW,1995-08-04 22:00,ZGOW 042200Z AUTO 00000KT 7SM 24/24 A2988 RMK SLP122 T02400240 IEM_DS3505
ZGOW,1995-08-04 23:00,ZGOW 042300Z AUTO 00000KT 7SM 24/24 RMK T02400240 IEM_DS3505
ZGOW,1995-08-05 00:00,ZGOW 050000Z AUTO 04002KT 4SM 25/24 A2990 RMK 60008 70106 SLP129 T02490242 52016 IEM_DS3505
ZGOW,1995-08-05 01:00,ZGOW 050100Z AUTO 07004KT 7SM 25/24 RMK T02500240 IEM_DS3505
ZGOW,1995-08-05 02:00,ZGOW 050200Z AUTO 00000KT 7SM 25/24 RMK T02500240 IEM_DS3505
ZGOW,1995-08-05 03:00,ZGOW 050300Z AUTO 09004KT 5SM 26/24 A2993 RMK SLP137 T02560239 52008 IEM_DS3505
ZGOW,1995-08-05 06:00,ZGOW 050600Z AUTO 04002KT 11SM 26/24 A2988 RMK 60004 SLP123 T02650235 57014 IEM_DS3505
ZGOW,1995-08-05 08:00,ZGOW 050800Z AUTO 01006KT 7SM 28/23 A2985 RMK SLP111 T02800230 IEM_DS3505
ZGOW,1995-08-05 09:00,ZGOW 050900Z AUTO 07004KT 12SM 27/24 A2985 RMK SLP111 T02740236 57012 IEM_DS3505
ZGOW,1995-08-05 12:00,ZGOW 051200Z AUTO 00000KT 8SM 26/25 A2985 RMK SLP121 T02570246 52010 IEM_DS3505
ZGOW,1995-08-05 13:00,ZGOW 051300Z AUTO 00000KT 7SM 25/25 A2988 RMK SLP122 T02500250 IEM_DS3505
ZGOW,1995-08-05 14:00,ZGOW 051400Z AUTO 00000KT 7SM 25/24 A2988 RMK SLP122 T02500240 IEM_DS3505
ZGOW,1995-08-05 15:00,ZGOW 051500Z AUTO 00000KT 6SM 25/24 A2990 RMK SLP127 T02520243 52006 IEM_DS3505
ZGOW,1995-08-05 18:00,ZGOW 051800Z AUTO 00000KT 6SM 25/24 A2986 RMK SLP115 T02490242 57012 IEM_DS3505
ZGOW,1995-08-05 21:00,ZGOW 052100Z AUTO 00000KT 4SM 25/24 A2985 RMK 70004 SLP109 T02460242 57006 IEM_DS3505
ZGOW,1995-08-05 22:00,ZGOW 052200Z AUTO 00000KT 2 1/2SM 25/24 A2985 RMK SLP111 T02500240 IEM_DS3505
ZGOW,1995-08-05 23:00,ZGOW 052300Z AUTO 00000KT 3SM 25/24 A2985 RMK SLP111 T02500240 IEM_DS3505
ZGOW,1995-08-06 00:00,ZGOW 060000Z AUTO 07002KT 4SM 26/24 A2985 RMK 70004 SLP115 T02560245 52006 IEM_DS3505
ZGOW,1995-08-06 01:00,ZGOW 060100Z AUTO 03004KT 7SM 26/24 A2985 RMK SLP111 T02600240 IEM_DS3505
ZGOW,1995-08-06 03:00,ZGOW 060300Z AUTO 27002KT 6SM 29/24 A2986 RMK SLP116 T02870243 52001 IEM_DS3505
ZGOW,1995-08-06 06:00,ZGOW 060600Z AUTO 11004KT 11SM 29/24 A2985 RMK SLP105 T02920241 57011 IEM_DS3505
ZGOW,1995-08-06 07:00,ZGOW 060700Z AUTO 12008KT 7SM 29/24 A2983 RMK SLP105 T02900240 IEM_DS3505
ZGOW,1995-08-06 08:00,ZGOW 060800Z AUTO 14006KT 7SM 29/24 A2983 RMK SLP105 T02900240 IEM_DS3505
ZGOW,1995-08-06 09:00,ZGOW 060900Z AUTO 16002KT 9SM 28/24 A2983 RMK SLP098 T02820243 57007 IEM_DS3505
ZGOW,1995-08-06 12:00,ZGOW 061200Z AUTO 27004KT 5SM 26/25 A2985 RMK 60001 SLP117 T02610250 52019 IEM_DS3505
ZGOW,1995-08-06 15:00,ZGOW 061500Z AUTO 25004KT 3SM 25/25 A2989 RMK SLP125 T02530246 52008 IEM_DS3505
ZGOW,1995-08-06 18:00,ZGOW 061800Z AUTO 27002KT 2 1/2SM 25/24 A2983 RMK 60004 SLP106 T02470243 57019 IEM_DS3505
ZGOW,1995-08-06 21:00,ZGOW 062100Z AUTO 27004KT 3SM 24/24 A2980 RMK 70008 SLP094 T02450239 57012 IEM_DS3505
ZGOW,1995-08-06 22:00,ZGOW 062200Z AUTO 00000KT 3SM 24/24 A2983 RMK SLP105 T02400240 IEM_DS3505
ZGOW,1995-08-06 23:00,ZGOW 062300Z AUTO 00000KT 7SM 24/23 A2983 RMK SLP105 T02400230 IEM_DS3505
ZGOW,1995-08-07 00:00,ZGOW 070000Z AUTO 29002KT 2SM 25/24 A2983 RMK 60004 70008 SLP106 T02530240 52012 IEM_DS3505
ZGOW,1995-08-07 01:00,ZGOW 070100Z AUTO 30004KT 7SM 26/24 A2985 RMK SLP111 T02600240 IEM_DS3505
ZGOW,1995-08-07 02:00,ZGOW 070200Z AUTO 00000KT 7SM 27/24 A2985 RMK SLP111 T02700240 IEM_DS3505
ZGOW,1995-08-07 03:00,ZGOW 070300Z AUTO 02004KT 3SM 28/25 A2985 RMK SLP111 T02820248 52005 IEM_DS3505
ZGOW,1995-08-07 06:00,ZGOW 070600Z AUTO 07002KT 5SM 28/25 A2983 RMK 60008 SLP097 T02800252 57014 IEM_DS3505
ZGOW,1995-08-07 07:00,ZGOW 070700Z AUTO 16006KT 7SM 29/25 A2980 RMK SLP094 T02900250 IEM_DS3505
ZGOW,1995-08-07 09:00,ZGOW 070900Z AUTO 18004KT 7SM 28/25 A2980 RMK SLP089 T02800250 57008 IEM_DS3505
ZGOW,1995-08-07 10:00,ZGOW 071000Z AUTO 13006KT 7SM 28/25 A2980 RMK SLP094 T02800250 IEM_DS3505
ZGOW,1995-08-07 11:00,ZGOW 071100Z AUTO 00000KT 7SM 27/25 A2980 RMK SLP094 T02700250 IEM_DS3505
ZGOW,1995-08-07 12:00,ZGOW 071200Z AUTO 00000KT 6SM 27/25 A2983 RMK SLP102 T02680252 52013 IEM_DS3505
ZGOW,1995-08-07 13:00,ZGOW 071300Z AUTO 00000KT 7SM 27/25 A2983 RMK SLP105 T02700250 IEM_DS3505
ZGOW,1995-08-07 15:00,ZGOW 071500Z AUTO 00000KT 3SM 26/25 A2987 RMK SLP118 T02650254 52016 IEM_DS3505
ZGOW,1995-08-07 18:00,ZGOW 071800Z AUTO 00000KT 1 1/4SM 26/25 A2983 RMK 60002 SLP103 T02590252 57015 IEM_DS3505
ZGOW,1995-08-07 21:00,ZGOW 072100Z AUTO 00000KT 1 1/4SM 25/25 A2980 RMK 70008 SLP096 T02520249 57007 IEM_DS3505
ZGOW,1995-08-07 22:00,ZGOW 072200Z AUTO 00000KT 3/8SM 26/25 RMK T02600250 IEM_DS3505
ZGOW,1995-08-07 23:00,ZGOW 072300Z AUTO 00000KT 1SM 26/25 A2983 RMK SLP105 T02600250 IEM_DS3505
ZGOW,1995-08-08 00:00,ZGOW 080000Z AUTO 04004KT 2SM 27/26 A2984 RMK 70008 SLP109 T02710258 52013 IEM_DS3505
ZGOW,1995-08-08 01:00,ZGOW 080100Z AUTO 00000KT 2 1/2SM 28/26 A2985 RMK SLP111 T02800260 IEM_DS3505
ZGOW,1995-08-08 02:00,ZGOW 080200Z AUTO 03006KT 7SM 29/25 A2985 RMK SLP111 T02900250 IEM_DS3505
ZGOW,1995-08-08 03:00,ZGOW 080300Z AUTO 11006KT 6SM 30/26 A2987 RMK SLP117 T02970255 52008 IEM_DS3505
ZGOW,1995-08-08 06:00,ZGOW 080600Z AUTO 18006KT 12SM 30/25 A2985 RMK 60002 SLP104 T03050253 57013 IEM_DS3505
ZGOW,1995-08-08 07:00,ZGOW 080700Z AUTO 16012KT 7SM 31/26 A2983 RMK SLP105 T03100260 IEM_DS3505
ZGOW,1995-08-08 09:00,ZGOW 080900Z AUTO 22008KT 9SM 29/25 A2979 RMK SLP091 T02900250 57013 IEM_DS3505
ZGOW,1995-08-08 11:00,ZGOW 081100Z AUTO 9SM 28/25 A2984 RMK SLP107 T02760252 52016 IEM_DS3505
ZGOW,1995-08-08 12:00,ZGOW 081200Z AUTO 20006KT 9SM 28/25 A2983 RMK SLP107 T02760252 52016 IEM_DS3505
ZGOW,1995-08-08 13:00,ZGOW 081300Z AUTO 16006KT 6SM 27/25 A2985 RMK SLP111 T02700250 IEM_DS3505
ZGOW,1995-08-08 14:00,ZGOW 081400Z AUTO 21006KT 6SM 27/25 A2988 RMK SLP122 T02700250 IEM_DS3505
ZGOW,1995-08-08 15:00,ZGOW 081500Z AUTO 27004KT 9SM 27/25 A2987 RMK SLP119 T02700254 52012 IEM_DS3505
ZGOW,1995-08-08 18:00,ZGOW 081800Z AUTO 00000KT 6SM 26/25 A2983 RMK SLP104 T02580247 57015 IEM_DS3505
ZGOW,1995-08-08 21:00,ZGOW 082100Z AUTO 00000KT 4SM 25/ A2982 RMK 70002 SLP100 57004 IEM_DS3505
ZGOW,1995-08-08 23:00,ZGOW 082300Z AUTO 27004KT 1SM 26/25 A2985 RMK SLP111 T02600250 IEM_DS3505
ZGOW,1995-08-09 00:00,ZGOW 090000Z AUTO 27004KT 1 1/4SM 26/25 A2985 RMK 70002 SLP114 T02630253 52014 IEM_DS3505
ZGOW,1995-08-09 01:00,ZGOW 090100Z AUTO 00000KT 5SM 28/25 A2985 RMK SLP111 T02800250 IEM_DS3505
ZGOW,1995-08-09 02:00,ZGOW 090200Z AUTO 30004KT 6SM 29/26 A2985 RMK SLP111 T02900260 IEM_DS3505
ZGOW,1995-08-09 03:00,ZGOW 090300Z AUTO 27006KT 6SM 30/26 A2985 RMK SLP108 T03050262 57006 IEM_DS3505
ZGOW,1995-08-09 04:00,ZGOW 090400Z AUTO 24004KT 7SM 32/25 A2983 RMK SLP105 T03200250 IEM_DS3505
ZGOW,1995-08-09 06:00,ZGOW 090600Z AUTO 22006KT 9SM 33/24 A2980 RMK SLP092 T03340242 57016 IEM_DS3505
ZGOW,1995-08-09 07:00,ZGOW 090700Z AUTO 16012KT 7SM 33/27 A2980 RMK SLP094 T03300270 IEM_DS3505
ZGOW,1995-08-09 08:00,ZGOW 090800Z AUTO 18008KT 7SM 33/26 A2980 RMK SLP094 T03300260 IEM_DS3505
ZGOW,1995-08-09 09:00,ZGOW 090900Z AUTO 18010KT 11SM 32/26 A2980 RMK SLP083 T03200256 57009 IEM_DS3505
ZGOW,1995-08-09 10:00,ZGOW 091000Z AUTO 18006KT 6SM 31/26 A2977 RMK SLP084 T03100260 IEM_DS3505
ZGOW,1995-08-09 11:00,ZGOW 091100Z AUTO 16006KT 6SM 30/26 A2977 RMK SLP084 T03000260 IEM_DS3505
ZGOW,1995-08-09 12:00,ZGOW 091200Z AUTO 00000KT 9SM 30/26 A2978 RMK SLP087 T02950265 52004 IEM_DS3505
ZGOW,1995-08-09 13:00,ZGOW 091300Z AUTO 00000KT 6SM 29/26 A2980 RMK SLP094 T02900260 IEM_DS3505
ZGOW,1995-08-09 15:00,ZGOW 091500Z AUTO 27004KT 8SM 29/27 A2983 RMK SLP106 T02880266 52019 IEM_DS3505
ZGOW,1995-08-09 18:00,ZGOW 091800Z AUTO 04002KT 7SM 28/26 A2982 RMK SLP100 T02760262 57006 IEM_DS3505
ZGOW,1995-08-09 21:00,ZGOW 092100Z AUTO 04004KT 6SM 27/26 A2983 RMK SLP101 T02720258 52001 IEM_DS3505
ZGOW,1995-08-09 22:00,ZGOW 092200Z AUTO 00000KT 3SM 27/26 A2983 RMK SLP105 T02700260 IEM_DS3505
ZGOW,1995-08-09 23:00,ZGOW 092300Z AUTO 00000KT 7SM 27/25 A2985 RMK SLP111 T02700250 IEM_DS3505
ZGOW,1995-08-10 00:00,ZGOW 100000Z AUTO 11004KT 6SM 28/26 A2985 RMK SLP114 T02820258 52013 IEM_DS3505
ZGOW,1995-08-10 01:00,ZGOW 100100Z AUTO 00000KT 7SM 30/26 A2985 RMK SLP111 T03000260 IEM_DS3505
ZGOW,1995-08-10 02:00,ZGOW 100200Z AUTO 00000KT 7SM 31/25 A2985 RMK SLP111 T03100250 IEM_DS3505
ZGOW,1995-08-10 03:00,ZGOW 100300Z AUTO 18004KT 7SM 32/24 A2985 RMK SLP111 T03160245 57003 IEM_DS3505
ZGOW,1995-08-10 06:00,ZGOW 100600Z AUTO 14006KT 12SM 32/24 A2983 RMK SLP100 T03210242 57011 IEM_DS3505
ZGOW,1995-08-10 07:00,ZGOW 100700Z AUTO 13010KT 6SM 32/25 A2980 RMK SLP094 T03200250 IEM_DS3505
ZGOW,1995-08-10 08:00,ZGOW 100800Z AUTO 12012KT 7SM 31/26 A2980 RMK SLP094 T03100260 IEM_DS3505
ZGOW,1995-08-10 09:00,ZGOW 100900Z AUTO 11008KT 12SM 30/23 A2980 RMK SLP093 T03030232 57007 IEM_DS3505
ZGOW,1995-08-10 10:00,ZGOW 101000Z AUTO 12004KT 7SM 30/25 A2980 RMK SLP094 T03000250 IEM_DS3505
ZGOW,1995-08-10 12:00,ZGOW 101200Z AUTO 11008KT 9SM 28/24 A2985 RMK SLP111 T02810244 52018 IEM_DS3505
ZGOW,1995-08-10 13:00,ZGOW 101300Z AUTO 10006KT 6SM 27/24 A2985 RMK SLP111 T02700240 IEM_DS3505
ZGOW,1995-08-10 15:00,ZGOW 101500Z AUTO 14006KT 10SM 28/25 A2989 RMK SLP124 T02780247 52013 IEM_DS3505
ZGOW,1995-08-10 18:00,ZGOW 101800Z AUTO 09004KT 9SM 27/25 A2985 RMK SLP110 T02720248 57014 IEM_DS3505
ZGOW,1995-08-10 21:00,ZGOW 102100Z AUTO 04006KT 9SM 27/25 A2985 RMK SLP106 T02670249 57004 IEM_DS3505
ZGOW,1995-08-10 22:00,ZGOW 102200Z AUTO 03004KT 7SM 27/25 A2983 RMK SLP105 T02700250 IEM_DS3505
ZGOW,1995-08-11 00:00,ZGOW 110000Z AUTO 07006KT 9SM 28/25 A2985 RMK 60002 70002 SLP117 T02760252 52011 IEM_DS3505
ZGOW,1995-08-11 01:00,ZGOW 110100Z AUTO 03004KT 7SM 28/25 A2985 RMK SLP111 T02800250 IEM_DS3505
ZGOW,1995-08-11 02:00,ZGOW 110200Z AUTO 06006KT 7SM 30/25 A2988 RMK SLP122 T03000250 IEM_DS3505
ZGOW,1995-08-11 03:00,ZGOW 110300Z AUTO 04010KT 10SM 30/24 A2985 RMK SLP118 T03030245 52001 IEM_DS3505
ZGOW,1995-08-11 04:00,ZGOW 110400Z AUTO 03012KT 7SM 31/25 A2985 RMK SLP111 T03100250 IEM_DS3505
ZGOW,1995-08-11 06:00,ZGOW 110600Z AUTO 14008KT 6SM 25/24 A2985 RMK 60020 SLP115 T02500235 57003 IEM_DS3505
ZGOW,1995-08-11 07:00,ZGOW 110700Z AUTO 05008KT 7SM 27/24 A2985 RMK SLP111 T02700240 IEM_DS3505
ZGOW,1995-08-11 08:00,ZGOW 110800Z AUTO 02006KT 7SM 27/23 A2983 RMK SLP105 T02700230 IEM_DS3505
ZGOW,1995-08-11 09:00,ZGOW 110900Z AUTO 04002KT 12SM 27/24 A2983 RMK SLP104 T02680242 57011 IEM_DS3505
ZGOW,1995-08-11 10:00,ZGOW 111000Z AUTO 03008KT 6SM 27/24 A2983 RMK SLP105 T02700240 IEM_DS3505
ZGOW,1995-08-11 12:00,ZGOW 111200Z AUTO 09006KT 7SM 26/24 A2983 RMK 60000 SLP102 T02630244 57002 IEM_DS3505
ZGOW,1995-08-11 13:00,ZGOW 111300Z AUTO 08004KT 7SM 25/24 A2985 RMK SLP111 T02500240 IEM_DS3505
ZGOW,1995-08-11 14:00,ZGOW 111400Z AUTO 09012KT 7SM 26/24 A2983 RMK SLP105 T02600240 IEM_DS3505
ZGOW,1995-08-11 15:00,ZGOW 111500Z AUTO 07004KT 9SM 26/24 A2984 RMK SLP109 T02550241 52007 IEM_DS3505
ZGOW,1995-08-11 18:00,ZGOW 111800Z AUTO 14006KT 6SM 26/24 A2979 RMK 60012 SLP091 T02620245 57018 IEM_DS3505
ZGOW,1995-08-11 21:00,ZGOW 112100Z AUTO 14008KT 7SM 27/24 A2977 RMK 70031 SLP079 T02680242 57012 IEM_DS3505
ZGOW,1995-08-11 22:00,ZGOW 112200Z AUTO 06008KT 7SM 26/24 A2974 RMK SLP074 T02600240 IEM_DS3505
ZGOW,1995-08-11 23:00,ZGOW 112300Z AUTO 12017G27KT 7SM 25/24 RMK T02500240 IEM_DS3505
ZGOW,1995-08-12 00:00,ZGOW 120000Z AUTO 16008G29KT 8SM 26/23 A2977 RMK 60020 70051 SLP084 T02640230 52005 IEM_DS3505
ZGOW,1995-08-12 01:00,ZGOW 120100Z AUTO 13023KT 7SM 26/23 A2977 RMK SLP084 T02600230 IEM_DS3505
ZGOW,1995-08-12 02:00,ZGOW 120200Z AUTO 12021G31KT 5SM 26/23 RMK T02600230 IEM_DS3505
ZGOW,1995-08-12 03:00,ZGOW 120300Z AUTO 16012KT 5SM 25/24 A2978 RMK SLP087 T02510235 52003 IEM_DS3505
ZGOW,1995-08-12 06:00,ZGOW 120600Z AUTO 18012KT 4SM 24/24 A2974 RMK 60106 SLP073 T02410235 57014 IEM_DS3505
ZGOW,1995-08-12 07:00,ZGOW 120700Z AUTO 14019G29KT 3SM 24/23 RMK T02400230 IEM_DS3505
ZGOW,1995-08-12 08:00,ZGOW 120800Z AUTO 14017KT 3SM 24/24 A2974 RMK SLP074 T02400240 IEM_DS3505
ZGOW,1995-08-12 09:00,ZGOW 120900Z AUTO 18012KT 4SM 24/24 A2971 RMK SLP064 T02400236 57009 IEM_DS3505
ZGOW,1995-08-12 10:00,ZGOW 121000Z AUTO 12019KT 4SM 24/24 A2971 RMK SLP064 T02400240 IEM_DS3505
ZGOW,1995-08-12 11:00,ZGOW 121100Z AUTO 12023KT 2 1/2SM 24/24 A2974 RMK SLP074 T02400240 IEM_DS3505
ZGOW,1995-08-12 12:00,ZGOW 121200Z AUTO 14006KT 6SM 25/24 A2974 RMK 60142 SLP072 T02480236 52008 IEM_DS3505
ZGOW,1995-08-12 13:00,ZGOW 121300Z AUTO 12014KT 7SM 24/24 A2974 RMK SLP074 T02400240 IEM_DS3505
ZGOW,1995-08-12 14:00,ZGOW 121400Z AUTO 12012KT 4SM 25/24 RMK T02500240 IEM_DS3505
ZGOW,1995-08-12 15:00,ZGOW 121500Z AUTO 18004KT 4SM 25/24 A2978 RMK SLP086 T02460240 52014 IEM_DS3505
ZGOW,1995-08-12 18:00,ZGOW 121800Z AUTO 18010KT 3SM 26/25 A2974 RMK 60157 SLP073 T02620246 57013 IEM_DS3505
ZGOW,1995-08-12 21:00,ZGOW 122100Z AUTO 18004KT 4SM 24/23 A2974 RMK 70484 SLP075 T02350229 52002 IEM_DS3505
ZGOW,1995-08-13 00:00,ZGOW 130000Z AUTO 22006KT 9SM 24/23 A2980 RMK 60091 70496 SLP090 T02390229 52015 IEM_DS3505
ZGOW,1995-08-13 01:00,ZGOW 130100Z AUTO 18004KT 7SM 24/23 A2980 RMK SLP094 T02400230 IEM_DS3505
ZGOW,1995-08-13 03:00,ZGOW 130300Z AUTO 27002KT 4SM 24/24 A2983 RMK SLP102 T02450244 52012 IEM_DS3505
ZGOW,1995-08-13 04:00,ZGOW 130400Z AUTO 32006KT 4SM 26/25 A2980 RMK 60114 SLP094 T02570250 57008 IEM_DS3505
ZGOW,1995-08-13 06:00,ZGOW 130600Z AUTO 32006KT 4SM 26/25 A2980 RMK 60114 SLP094 T02570250 57008 IEM_DS3505
ZGOW,1995-08-13 07:00,ZGOW 130700Z AUTO 21006KT 7SM 26/25 A2980 RMK SLP094 T02600250 IEM_DS3505
ZGOW,1995-08-13 08:00,ZGOW 130800Z AUTO 14006KT 7SM 24/23 A2980 RMK SLP094 T02400230 IEM_DS3505
ZGOW,1995-08-13 09:00,ZGOW 130900Z AUTO 16004KT 7SM 25/24 A2977 RMK SLP082 T02500240 57012 IEM_DS3505
ZGOW,1995-08-13 10:00,ZGOW 131000Z AUTO 18004KT 7SM 24/23 A2977 RMK SLP084 T02400230 IEM_DS3505
ZGOW,1995-08-13 11:00,ZGOW 131100Z AUTO 00000KT 7SM 25/24 A2980 RMK SLP094 T02500240 IEM_DS3505
ZGOW,1995-08-13 12:00,ZGOW 131200Z AUTO 22006KT 7SM 26/26 A2980 RMK 60008 SLP093 T02650255 52011 IEM_DS3505
ZGOW,1995-08-13 13:00,ZGOW 131300Z AUTO 18006KT 7SM 25/24 A2983 RMK SLP105 T02500240 IEM_DS3505
ZGOW,1995-08-13 14:00,ZGOW 131400Z AUTO 21006KT 7SM 25/24 A2985 RMK SLP111 T02500240 IEM_DS3505
ZGOW,1995-08-13 15:00,ZGOW 131500Z AUTO 14004KT 6SM 26/25 A2984 RMK SLP107 T02600251 52014 IEM_DS3505
ZGOW,1995-08-13 18:00,ZGOW 131800Z AUTO 04002KT 3SM 26/25 A2980 RMK 60004 SLP095 T02570251 57012 IEM_DS3505
ZGOW,1995-08-13 21:00,ZGOW 132100Z AUTO 27004KT 2SM 25/25 A2980 RMK 70161 SLP095 T02540251 54000 IEM_DS3505
ZGOW,1995-08-13 22:00,ZGOW 132200Z AUTO 10010KT 2 1/2SM 26/25 RMK T02600250 IEM_DS3505
ZGOW,1995-08-13 23:00,ZGOW 132300Z AUTO 12010KT 2 1/2SM 26/25 RMK T02600250 IEM_DS3505
ZGOW,1995-08-14 00:00,ZGOW 140000Z AUTO 27012KT 2SM 23/23 A2987 RMK 60236 70358 SLP119 T02310230 52024 IEM_DS3505
ZGOW,1995-08-14 01:00,ZGOW 140100Z AUTO 03004KT 2 1/2SM 26/25 A2988 RMK SLP122 T02600250 IEM_DS3505
ZGOW,1995-08-14 02:00,ZGOW 140200Z AUTO 00000KT 2 1/2SM 24/24 RMK T02400240 IEM_DS3505
ZGOW,1995-08-14 03:00,ZGOW 140300Z AUTO 04004KT 5SM 23/23 A2991 RMK SLP130 T02310231 52011 IEM_DS3505
ZGOW,1995-08-14 04:00,ZGOW 140400Z AUTO 05004KT 7SM 24/24 RMK T02400240 IEM_DS3505
ZGOW,1995-08-14 06:00,ZGOW 140600Z AUTO 34004KT 5SM 24/24 A2988 RMK 60181 SLP113 T02440240 57017 IEM_DS3505
ZGOW,1995-08-14 07:00,ZGOW 140700Z AUTO 00000KT 7SM 25/23 A2985 RMK SLP111 T02500230 IEM_DS3505
ZGOW,1995-08-14 08:00,ZGOW 140800Z AUTO 00000KT 7SM 25/23 RMK T02500230 IEM_DS3505
ZGOW,1995-08-14 09:00,ZGOW 140900Z AUTO 22006KT 7SM 24/24 A2985 RMK SLP108 T02450238 57005 IEM_DS3505
ZGOW,1995-08-14 10:00,ZGOW 141000Z AUTO 00000KT 7SM 25/23 A2983 RMK SLP105 T02500230 IEM_DS3505
ZGOW,1995-08-14 11:00,ZGOW 141100Z AUTO 27002KT 8SM 25/24 A2985 RMK 60008 SLP114 T02480241 52006 IEM_DS3505
ZGOW,1995-08-14 12:00,ZGOW 141200Z AUTO 27002KT 8SM 25/24 A2986 RMK 60008 SLP114 T02480241 52006 IEM_DS3505
ZGOW,1995-08-14 13:00,ZGOW 141300Z AUTO 00000KT 7SM 25/24 A2985 RMK SLP111 T02500240 IEM_DS3505
ZGOW,1995-08-14 14:00,ZGOW 141400Z AUTO 00000KT 7SM 24/24 A2988 RMK SLP122 T02400240 IEM_DS3505
ZGOW,1995-08-14 15:00,ZGOW 141500Z AUTO 00000KT 6SM 25/24 A2991 RMK SLP130 T02460240 52016 IEM_DS3505
ZGOW,1995-08-14 18:00,ZGOW 141800Z AUTO 14002KT 4SM 24/24 A2990 RMK SLP128 T02440241 57002 IEM_DS3505
ZGOW,1995-08-14 21:00,ZGOW 142100Z AUTO 04002KT 3SM 24/24 A2989 RMK 70413 SLP126 T02440241 57002 IEM_DS3505
ZGOW,1995-08-14 22:00,ZGOW 142200Z AUTO 05004KT 7SM 24/24 A2988 RMK SLP122 T02400240 IEM_DS3505
ZGOW,1995-08-14 23:00,ZGOW 142300Z AUTO 04006KT 7SM 25/24 A2991 RMK SLP132 T02500240 IEM_DS3505
ZGOW,1995-08-15 00:00,ZGOW 150000Z AUTO 04004KT 6SM 26/24 A2991 RMK 70189 SLP131 T02580241 52005 IEM_DS3505
ZGOW,1995-08-15 01:00,ZGOW 150100Z AUTO 08004KT 7SM 26/24 A2991 RMK SLP132 T02600240 IEM_DS3505
ZGOW,1995-08-15 03:00,ZGOW 150300Z AUTO 04004KT 6SM 28/24 A2991 RMK SLP139 T02760239 52008 IEM_DS3505
ZGOW,1995-08-15 06:00,ZGOW 150600Z AUTO 04002KT 7SM 28/25 A2988 RMK SLP121 T02800249 57018 IEM_DS3505
ZGOW,1995-08-15 09:00,ZGOW 150900Z AUTO 14002KT 9SM 28/24 A2986 RMK SLP114 T02770237 57007 IEM_DS3505
ZGOW,1995-08-15 10:00,ZGOW 151000Z AUTO 03004KT 7SM 27/24 A2988 RMK SLP122 T02700240 IEM_DS3505
ZGOW,1995-08-15 12:00,ZGOW 151200Z AUTO 04004KT 8SM 26/24 A2991 RMK SLP130 T02650243 52016 IEM_DS3505
ZGOW,1995-08-15 13:00,ZGOW 151300Z AUTO 05004KT 7SM 26/24 A2994 RMK SLP142 T02600240 IEM_DS3505
ZGOW,1995-08-15 15:00,ZGOW 151500Z AUTO 09004KT 4SM 25/25 A2994 RMK SLP143 T02540247 52013 IEM_DS3505
ZGOW,1995-08-15 18:00,ZGOW 151800Z AUTO 04002KT 5SM 25/24 A2991 RMK 60012 SLP131 T02490240 57012 IEM_DS3505
ZGOW,1995-08-15 21:00,ZGOW 152100Z AUTO 07004KT 5SM 25/24 A2991 RMK 70012 SLP132 T02470240 52001 IEM_DS3505
ZGOW,1995-08-15 22:00,ZGOW 152200Z AUTO 00000KT 7SM 24/24 A2991 RMK SLP132 T02400240 IEM_DS3505
ZGOW,1995-08-15 23:00,ZGOW 152300Z AUTO 00000KT 7SM 24/23 RMK T02400230 IEM_DS3505
ZGOW,1995-08-16 00:00,ZGOW 160000Z AUTO 09004KT 6SM 25/24 A2994 RMK 60001 70012 SLP141 T02500240 52009 IEM_DS3505
ZGOW,1995-08-16 02:00,ZGOW 160200Z AUTO 00000KT 7SM 27/23 A2994 RMK SLP142 T02700230 IEM_DS3505
ZGOW,1995-08-16 03:00,ZGOW 160300Z AUTO 02002KT 6SM 28/24 A2994 RMK SLP140 T02770238 57001 IEM_DS3505
ZGOW,1995-08-16 04:00,ZGOW 160400Z AUTO 03004KT 6SM 28/24 A2994 RMK SLP142 T02800240 IEM_DS3505
ZGOW,1995-08-16 06:00,ZGOW 160600Z AUTO 16002KT 6SM 28/24 A2991 RMK SLP125 T02840236 57015 IEM_DS3505
ZGOW,1995-08-16 07:00,ZGOW 160700Z AUTO 00000KT 6SM 28/23 A2988 RMK SLP122 T02800230 IEM_DS3505
ZGOW,1995-08-16 08:00,ZGOW 160800Z AUTO 00000KT 6SM 29/23 A2985 RMK SLP111 T02900230 IEM_DS3505
ZGOW,1995-08-16 09:00,ZGOW 160900Z AUTO 18002KT 7SM 29/24 A2985 RMK SLP111 T02880241 57014 IEM_DS3505
ZGOW,1995-08-16 10:00,ZGOW 161000Z AUTO 00000KT 6SM 28/24 A2985 RMK SLP111 T02800240 IEM_DS3505
ZGOW,1995-08-16 12:00,ZGOW 161200Z AUTO 14002KT 6SM 27/25 A2988 RMK SLP123 T02690248 52012 IEM_DS3505
ZGOW,1995-08-16 14:00,ZGOW 161400Z AUTO 00000KT 6SM 26/23 A2991 RMK SLP132 T02600230 IEM_DS3505
ZGOW,1995-08-16 15:00,ZGOW 161500Z AUTO 27002KT 6SM 26/24 A2993 RMK SLP138 T02590236 52015 IEM_DS3505
ZGOW,1995-08-16 18:00,ZGOW 161800Z AUTO 32002KT 7SM 25/23 A2988 RMK SLP123 T02480230 57015 IEM_DS3505
ZGOW,1995-08-16 21:00,ZGOW 162100Z AUTO 04002KT 5SM 24/24 A2985 RMK SLP113 T02440235 57010 IEM_DS3505
ZGOW,1995-08-16 23:00,ZGOW 162300Z AUTO 00000KT 5SM 25/23 A2988 RMK SLP122 T02500230 IEM_DS3505
ZGOW,1995-08-17 00:00,ZGOW 170000Z AUTO 36002KT 6SM 26/24 A2990 RMK SLP127 T02650241 52014 IEM_DS3505
ZGOW,1995-08-17 01:00,ZGOW 170100Z AUTO 00000KT 6SM 27/24 A2988 RMK SLP122 T02700240 IEM_DS3505
ZGOW,1995-08-17 02:00,ZGOW 170200Z AUTO 08004KT 6SM 29/24 A2988 RMK SLP122 T02900240 IEM_DS3505
ZGOW,1995-08-17 03:00,ZGOW 170300Z AUTO 22004KT 8SM 30/23 A2988 RMK SLP126 T03020230 57001 IEM_DS3505
ZGOW,1995-08-17 04:00,ZGOW 170400Z AUTO 12008KT 7SM 31/23 A2988 RMK SLP122 T03100230 IEM_DS3505
ZGOW,1995-08-17 06:00,ZGOW 170600Z AUTO 18006KT 9SM 31/24 A2985 RMK SLP114 T03070237 57012 IEM_DS3505
ZGOW,1995-08-17 07:00,ZGOW 170700Z AUTO 14012KT 7SM 31/23 A2985 RMK SLP111 T03100230 IEM_DS3505
ZGOW,1995-08-17 08:00,ZGOW 170800Z AUTO 14012KT 7SM 31/22 A2985 RMK SLP111 T03100220 IEM_DS3505
ZGOW,1995-08-17 09:00,ZGOW 170900Z AUTO 18006KT 9SM 30/24 A2983 RMK SLP105 T03020236 57009 IEM_DS3505
ZGOW,1995-08-17 10:00,ZGOW 171000Z AUTO 15004KT 7SM 29/24 A2985 RMK SLP111 T02900240 IEM_DS3505
ZGOW,1995-08-17 11:00,ZGOW 171100Z AUTO 16004KT 7SM 28/23 A2985 RMK SLP111 T02800230 IEM_DS3505
ZGOW,1995-08-17 12:00,ZGOW 171200Z AUTO 18002KT 7SM 28/24 A2985 RMK SLP121 T02750238 52016 IEM_DS3505
ZGOW,1995-08-17 13:00,ZGOW 171300Z AUTO 00000KT 4SM 26/24 A2988 RMK SLP122 T02600240 IEM_DS3505
ZGOW,1995-08-17 15:00,ZGOW 171500Z AUTO 00000KT 5SM 26/25 A2989 RMK SLP126 T02630246 52005 IEM_DS3505
ZGOW,1995-08-17 18:00,ZGOW 171800Z AUTO 02002KT 4SM 25/24 A2983 RMK SLP106 T02540242 57020 IEM_DS3505
ZGOW,1995-08-17 21:00,ZGOW 172100Z AUTO 04002KT 3SM 25/24 A2983 RMK SLP100 T02460239 57006 IEM_DS3505
ZGOW,1995-08-17 22:00,ZGOW 172200Z AUTO 00000KT 4SM 24/23 A2983 RMK SLP105 T02400230 IEM_DS3505
ZGOW,1995-08-17 23:00,ZGOW 172300Z AUTO 00000KT 4SM 24/23 A2983 RMK SLP105 T02400230 IEM_DS3505
ZGOW,1995-08-18 00:00,ZGOW 180000Z AUTO 04004KT 7SM 26/24 A2985 RMK SLP117 T02610242 52017 IEM_DS3505
ZGOW,1995-08-18 01:00,ZGOW 180100Z AUTO 00000KT 6SM 28/24 A2988 RMK SLP122 T02800240 IEM_DS3505
ZGOW,1995-08-18 02:00,ZGOW 180200Z AUTO 00000KT 7SM 28/23 A2988 RMK SLP122 T02800230 IEM_DS3505
ZGOW,1995-08-18 03:00,ZGOW 180300Z AUTO 36004KT 9SM 30/23 A2987 RMK SLP119 T03040226 52002 IEM_DS3505
ZGOW,1995-08-18 04:00,ZGOW 180400Z AUTO 00000KT 7SM 30/23 A2985 RMK SLP111 T03000230 IEM_DS3505
ZGOW,1995-08-18 06:00,ZGOW 180600Z AUTO 22006KT 9SM 32/22 A2983 RMK SLP096 T03210221 57023 IEM_DS3505
ZGOW,1995-08-18 07:00,ZGOW 180700Z AUTO 14006KT 7SM 32/22 A2980 RMK SLP094 T03200220 IEM_DS3505
ZGOW,1995-08-18 08:00,ZGOW 180800Z AUTO 15008KT 7SM 31/22 A2980 RMK SLP094 T03100220 IEM_DS3505
ZGOW,1995-08-18 09:00,ZGOW 180900Z AUTO 18006KT 9SM 30/22 A2977 RMK SLP084 T03050217 57012 IEM_DS3505
ZGOW,1995-08-18 10:00,ZGOW 181000Z AUTO 15010KT 6SM 29/22 A2977 RMK SLP084 T02900220 IEM_DS3505
ZGOW,1995-08-18 11:00,ZGOW 181100Z AUTO 15006KT 6SM 28/23 A2980 RMK SLP094 T02800230 IEM_DS3505
ZGOW,1995-08-18 12:00,ZGOW 181200Z AUTO 18004KT 7SM 28/24 A2983 RMK SLP096 T02780239 52012 IEM_DS3505
ZGOW,1995-08-18 13:00,ZGOW 181300Z AUTO 17006KT 6SM 27/25 A2983 RMK SLP105 T02700250 IEM_DS3505
ZGOW,1995-08-18 14:00,ZGOW 181400Z AUTO 17004KT 6SM 27/25 A2985 RMK SLP111 T02700250 IEM_DS3505
ZGOW,1995-08-18 15:00,ZGOW 181500Z AUTO 20002KT 5SM 27/25 A2983 RMK SLP104 T02710251 52008 IEM_DS3505
ZGOW,1995-08-18 18:00,ZGOW 181800Z AUTO 00000KT 3SM 26/25 A2980 RMK SLP096 T02620249 57008 IEM_DS3505
ZGOW,1995-08-18 21:00,ZGOW 182100Z AUTO 04004KT 2SM 25/24 A2980 RMK SLP094 T02530241 57002 IEM_DS3505
ZGOW,1995-08-18 22:00,ZGOW 182200Z AUTO 00000KT 4SM 24/23 A2980 RMK SLP094 T02400230 IEM_DS3505
ZGOW,1995-08-18 23:00,ZGOW 182300Z AUTO 00000KT 6SM 25/22 A2983 RMK SLP105 T02500220 IEM_DS3505
ZGOW,1995-08-19 00:00,ZGOW 190000Z AUTO 04002KT 5SM 27/23 A2985 RMK SLP110 T02720228 52016 IEM_DS3505
ZGOW,1995-08-19 01:00,ZGOW 190100Z AUTO 00000KT 7SM RMK IEM_DS3505
ZGOW,1995-08-19 02:00,ZGOW 190200Z AUTO 03004KT 6SM 31/24 A2985 RMK SLP111 T03100240 IEM_DS3505
ZGOW,1995-08-19 03:00,ZGOW 190300Z AUTO 16004KT 6SM 31/ A2985 RMK SLP106 57004 IEM_DS3505
ZGOW,1995-08-19 04:00,ZGOW 190400Z AUTO 12006KT 6SM 32/22 A2983 RMK SLP105 T03200220 IEM_DS3505
ZGOW,1995-08-19 06:00,ZGOW 190600Z AUTO 18006KT 16SM 32/23 A2983 RMK SLP096 T03150232 57010 IEM_DS3505
ZGOW,1995-08-19 07:00,ZGOW 190700Z AUTO 12006KT 6SM 32/23 A2980 RMK SLP094 T03200230 IEM_DS3505
ZGOW,1995-08-19 08:00,ZGOW 190800Z AUTO 13006KT 6SM 31/23 A2977 RMK SLP084 T03100230 IEM_DS3505
ZGOW,1995-08-19 09:00,ZGOW 190900Z AUTO 18006KT 16SM 31/24 A2977 RMK SLP084 T03090239 57012 IEM_DS3505
ZGOW,1995-08-19 10:00,ZGOW 191000Z AUTO 15004KT 6SM 30/23 A2977 RMK SLP084 T03000230 IEM_DS3505
ZGOW,1995-08-19 11:00,ZGOW 191100Z AUTO 00000KT 6SM 29/24 A2980 RMK SLP094 T02900240 IEM_DS3505
ZGOW,1995-08-19 12:00,ZGOW 191200Z AUTO 18004KT 9SM 29/24 A2981 RMK SLP098 T02860242 52014 IEM_DS3505
ZGOW,1995-08-19 15:00,ZGOW 191500Z AUTO 00000KT 4SM 28/25 A2983 RMK SLP103 T02750249 52005 IEM_DS3505
ZGOW,1995-08-19 18:00,ZGOW 191800Z AUTO 25002KT 5SM 27/25 A2981 RMK SLP097 T02710251 57006 IEM_DS3505
ZGOW,1995-08-19 21:00,ZGOW 192100Z AUTO 04002KT 4SM 26/25 A2980 RMK SLP099 T02620246 52002 IEM_DS3505
ZGOW,1995-08-19 22:00,ZGOW 192200Z AUTO 00000KT 2 1/2SM 26/25 A2983 RMK SLP105 T02600250 IEM_DS3505
ZGOW,1995-08-19 23:00,ZGOW 192300Z AUTO 00000KT 5SM 26/25 A2983 RMK SLP105 T02600250 IEM_DS3505
ZGOW,1995-08-20 00:00,ZGOW 200000Z AUTO 36004KT 5SM 28/25 A2983 RMK SLP102 T02840247 52003 IEM_DS3505
ZGOW,1995-08-20 01:00,ZGOW 200100Z AUTO 30006KT 6SM 29/25 A2983 RMK SLP105 T02900250 IEM_DS3505
ZGOW,1995-08-20 02:00,ZGOW 200200Z AUTO 30004KT 6SM 30/25 A2983 RMK SLP105 T03000250 IEM_DS3505
ZGOW,1995-08-20 03:00,ZGOW 200300Z AUTO 29004KT 6SM 32/23 A2983 RMK SLP104 T03180233 52002 IEM_DS3505
ZGOW,1995-08-20 04:00,ZGOW 200400Z AUTO 09004KT 7SM 33/23 A2983 RMK SLP105 T03300230 IEM_DS3505
ZGOW,1995-08-20 06:00,ZGOW 200600Z AUTO 16004KT 6SM 32/25 A2980 RMK SLP090 T03200250 57014 IEM_DS3505
ZGOW,1995-08-20 07:00,ZGOW 200700Z AUTO 11014KT 7SM 32/25 A2980 RMK SLP094 T03200250 IEM_DS3505
ZGOW,1995-08-20 08:00,ZGOW 200800Z AUTO 11006KT 7SM 32/25 A2977 RMK SLP084 T03200250 IEM_DS3505
ZGOW,1995-08-20 09:00,ZGOW 200900Z AUTO 14006KT 6SM 31/23 A2974 RMK SLP078 T03120231 57012 IEM_DS3505
ZGOW,1995-08-20 10:00,ZGOW 201000Z AUTO 10006KT 6SM 31/24 A2977 RMK SLP084 T03100240 IEM_DS3505
ZGOW,1995-08-20 11:00,ZGOW 201100Z AUTO 12008KT 6SM 29/24 A2977 RMK SLP084 T02900240 IEM_DS3505
ZGOW,1995-08-20 12:00,ZGOW 201200Z AUTO 14002KT 6SM 29/25 A2980 RMK SLP090 T02860248 52012 IEM_DS3505
ZGOW,1995-08-20 15:00,ZGOW 201500Z AUTO 00000KT 6SM 28/24 A2982 RMK SLP102 T02800238 52012 IEM_DS3505
ZGOW,1995-08-20 18:00,ZGOW 201800Z AUTO 07002KT 5SM 28/25 A2980 RMK SLP094 T02760251 57008 IEM_DS3505
ZGOW,1995-08-20 21:00,ZGOW 202100Z AUTO 07002KT 4SM 27/25 A2980 RMK SLP094 T02700252 54000 IEM_DS3505
ZGOW,1995-08-20 22:00,ZGOW 202200Z AUTO 00000KT 2 1/2SM 26/25 A2980 RMK SLP094 T02600250 IEM_DS3505
ZGOW,1995-08-20 23:00,ZGOW 202300Z AUTO 00000KT 2 1/2SM 27/25 A2980 RMK SLP094 T02700250 IEM_DS3505
ZGOW,1995-08-21 00:00,ZGOW 210000Z AUTO 27006KT 4SM 28/25 A2980 RMK SLP095 T02820248 52001 IEM_DS3505
ZGOW,1995-08-21 02:00,ZGOW 210200Z AUTO 34004KT 3SM 30/25 A2983 RMK SLP105 T03000250 IEM_DS3505
ZGOW,1995-08-21 03:00,ZGOW 210300Z AUTO 18004KT 5SM 30/25 A2981 RMK SLP099 T03040252 52004 IEM_DS3505
ZGOW,1995-08-21 04:00,ZGOW 210400Z AUTO 12006KT 5SM 31/25 A2983 RMK SLP105 T03100250 IEM_DS3505
ZGOW,1995-08-21 06:00,ZGOW 210600Z AUTO 18008KT 6SM 32/24 A2977 RMK SLP085 T03190241 57014 IEM_DS3505
ZGOW,1995-08-21 08:00,ZGOW 210800Z AUTO 16008KT 6SM 32/24 A2974 RMK SLP074 T03200240 IEM_DS3505
ZGOW,1995-08-21 09:00,ZGOW 210900Z AUTO 18008KT 7SM 31/24 A2974 RMK SLP071 T03080243 57014 IEM_DS3505
ZGOW,1995-08-21 10:00,ZGOW 211000Z AUTO 13006KT 6SM 31/26 A2974 RMK SLP074 T03100260 IEM_DS3505
ZGOW,1995-08-21 11:00,ZGOW 211100Z AUTO 14004KT 6SM 30/25 A2977 RMK SLP084 T03000250 IEM_DS3505
ZGOW,1995-08-21 12:00,ZGOW 211200Z AUTO 18004KT 6SM 29/25 A2977 RMK SLP088 T02900252 52017 IEM_DS3505
ZGOW,1995-08-21 13:00,ZGOW 211300Z AUTO 00000KT 6SM 29/26 A2980 RMK SLP094 T02900260 IEM_DS3505
ZGOW,1995-08-21 15:00,ZGOW 211500Z AUTO 00000KT 4SM 28/25 A2982 RMK SLP101 T02830253 52013 IEM_DS3505
ZGOW,1995-08-21 18:00,ZGOW 211800Z AUTO 04004KT 4SM 27/25 A2977 RMK SLP085 T02720246 57016 IEM_DS3505
ZGOW,1995-08-21 21:00,ZGOW 212100Z AUTO 07004KT 5SM 26/24 A2974 RMK SLP074 T02620236 57011 IEM_DS3505
ZGOW,1995-08-21 22:00,ZGOW 212200Z AUTO 00000KT 6SM 26/24 A2974 RMK SLP074 T02600240 IEM_DS3505
ZGOW,1995-08-21 23:00,ZGOW 212300Z AUTO 00000KT 6SM 27/23 A2977 RMK SLP084 T02700230 IEM_DS3505
ZGOW,1995-08-22 00:00,ZGOW 220000Z AUTO 04004KT 10SM 28/24 A2977 RMK SLP085 T02790237 52011 IEM_DS3505
ZGOW,1995-08-22 03:00,ZGOW 220300Z AUTO 25004KT 7SM 31/24 A2976 RMK SLP082 T03060236 57003 IEM_DS3505
ZGOW,1995-08-22 06:00,ZGOW 220600Z AUTO 16006KT 7SM 32/25 A2970 RMK SLP062 T03250251 57020 IEM_DS3505
ZGOW,1995-08-22 08:00,ZGOW 220800Z AUTO 16012KT 6SM 32/24 A2965 RMK SLP044 T03200240 IEM_DS3505
ZGOW,1995-08-22 09:00,ZGOW 220900Z AUTO 04004KT 10SM 28/24 A2965 RMK SLP085 T02790237 57017 IEM_DS3505
ZGOW,1995-08-22 10:00,ZGOW 221000Z AUTO 15008KT 7SM 30/24 A2965 RMK T03000240 IEM_DS3505
ZGOW,1995-08-22 12:00,ZGOW 221200Z AUTO 20004KT 7SM 29/25 A2971 RMK SLP064 T02900249 52021 IEM_DS3505
ZGOW,1995-08-22 13:00,ZGOW 221300Z AUTO 18006KT 7SM 28/25 A2971 RMK SLP064 T02800250 IEM_DS3505
ZGOW,1995-08-22 14:00,ZGOW 221400Z AUTO 32004KT 7SM 28/25 A2974 RMK SLP074 T02800250 IEM_DS3505
ZGOW,1995-08-22 15:00,ZGOW 221500Z AUTO 00000KT 5SM 28/25 A2974 RMK SLP073 T02780254 52009 IEM_DS3505
ZGOW,1995-08-22 18:00,ZGOW 221800Z AUTO 00000KT 5SM 27/25 A2969 RMK SLP057 T02730249 57016 IEM_DS3505
ZGOW,1995-08-22 21:00,ZGOW 222100Z AUTO 00000KT 4SM 26/25 A2965 RMK SLP045 T02640248 57012 IEM_DS3505
ZGOW,1995-08-22 22:00,ZGOW 222200Z AUTO 00000KT 3SM 26/25 A2965 RMK SLP044 T02600250 IEM_DS3505
ZGOW,1995-08-22 23:00,ZGOW 222300Z AUTO 00000KT 4SM 27/25 A2968 RMK SLP054 T02700250 IEM_DS3505
ZGOW,1995-08-23 00:00,ZGOW 230000Z AUTO 27004KT 4SM 28/25 A2968 RMK SLP058 T02820249 52013 IEM_DS3505
ZGOW,1995-08-23 01:00,ZGOW 230100Z AUTO 02006KT 3SM 29/25 A2968 RMK SLP054 T02900250 IEM_DS3505
ZGOW,1995-08-23 02:00,ZGOW 230200Z AUTO 24006KT 6SM 31/26 A2971 RMK SLP064 T03100260 IEM_DS3505
ZGOW,1995-08-23 03:00,ZGOW 230300Z AUTO 27006KT 6SM 31/25 A2971 RMK SLP062 T03140248 52004 IEM_DS3505
ZGOW,1995-08-23 04:00,ZGOW 230400Z AUTO 17004KT 7SM 34/25 A2968 RMK SLP054 T03400250 IEM_DS3505
ZGOW,1995-08-23 06:00,ZGOW 230600Z AUTO 22006KT 7SM 33/26 A2965 RMK SLP035 T03260264 57027 IEM_DS3505
ZGOW,1995-08-23 07:00,ZGOW 230700Z AUTO 18012KT 7SM 34/27 A2965 RMK SLP044 T03400270 IEM_DS3505
ZGOW,1995-08-23 08:00,ZGOW 230800Z AUTO 20008KT 7SM 32/26 A2965 RMK SLP044 T03200260 IEM_DS3505
ZGOW,1995-08-23 09:00,ZGOW 230900Z AUTO 04004KT 7SM 26/24 A2965 RMK SLP039 T02550236 52004 IEM_DS3505
ZGOW,1995-08-23 10:00,ZGOW 231000Z AUTO 34008KT 7SM 27/23 A2965 RMK SLP044 T02700230 IEM_DS3505
ZGOW,1995-08-23 12:00,ZGOW 231200Z AUTO 36004KT 9SM 26/25 A2968 RMK 60031 SLP051 T02640248 52012 IEM_DS3505
ZGOW,1995-08-23 13:00,ZGOW 231300Z AUTO 27006KT 6SM 26/24 A2968 RMK SLP054 T02600240 IEM_DS3505
ZGOW,1995-08-23 14:00,ZGOW 231400Z AUTO 32006KT 7SM 26/24 A2968 RMK SLP054 T02600240 IEM_DS3505
ZGOW,1995-08-23 15:00,ZGOW 231500Z AUTO 04002KT 6SM 27/25 A2970 RMK SLP060 T02670250 52009 IEM_DS3505
ZGOW,1995-08-23 18:00,ZGOW 231800Z AUTO 27004KT 4SM 26/25 A2966 RMK SLP047 T02650254 57013 IEM_DS3505
ZGOW,1995-08-23 21:00,ZGOW 232100Z AUTO 27004KT 4SM 26/25 A2965 RMK 70031 SLP045 T02640251 57002 IEM_DS3505
ZGOW,1995-08-23 22:00,ZGOW 232200Z AUTO 00000KT 2 1/2SM 26/25 A2968 RMK SLP054 T02600250 IEM_DS3505
ZGOW,1995-08-23 23:00,ZGOW 232300Z AUTO 00000KT 2 1/2SM 27/25 RMK T02700250 IEM_DS3505
ZGOW,1995-08-24 00:00,ZGOW 240000Z AUTO 00000KT 5SM 28/25 A2971 RMK 70031 SLP060 T02810253 52015 IEM_DS3505
ZGOW,1995-08-24 01:00,ZGOW 240100Z AUTO 28006KT 6SM 29/25 A2971 RMK SLP064 T02900250 IEM_DS3505
ZGOW,1995-08-24 02:00,ZGOW 240200Z AUTO 21006KT 6SM 31/25 A2971 RMK SLP064 T03100250 IEM_DS3505
ZGOW,1995-08-24 03:00,ZGOW 240300Z AUTO 25006KT 7SM 31/25 A2971 RMK SLP063 T03100250 52003 IEM_DS3505
ZGOW,1995-08-24 06:00,ZGOW 240600Z AUTO 27006KT 9SM 34/25 A2965 RMK SLP042 T03380253 57021 IEM_DS3505
ZGOW,1995-08-24 07:00,ZGOW 240700Z AUTO 15010KT 7SM 34/27 A2962 RMK SLP034 T03400270 IEM_DS3505
ZGOW,1995-08-24 08:00,ZGOW 240800Z AUTO 16010KT 7SM 34/27 A2962 RMK SLP034 T03400270 IEM_DS3505
ZGOW,1995-08-24 09:00,ZGOW 240900Z AUTO 02004KT 7SM 29/25 A2963 RMK SLP038 T02940253 57004 IEM_DS3505
ZGOW,1995-08-24 10:00,ZGOW 241000Z AUTO 17006KT 5SM 28/25 A2962 RMK SLP034 T02800250 IEM_DS3505
ZGOW,1995-08-24 12:00,ZGOW 241200Z AUTO 22006KT 6SM 30/26 A2965 RMK 60016 SLP043 T02980256 52005 IEM_DS3505
ZGOW,1995-08-24 13:00,ZGOW 241300Z AUTO 00000KT 7SM 28/27 A2968 RMK SLP054 T02800270 IEM_DS3505
ZGOW,1995-08-24 14:00,ZGOW 241400Z AUTO 00000KT 5SM 28/27 A2965 RMK SLP044 T02800270 IEM_DS3505
ZGOW,1995-08-24 15:00,ZGOW 241500Z AUTO 00000KT 4SM 29/27 A2968 RMK SLP055 T02910266 52012 IEM_DS3505
ZGOW,1995-08-24 16:00,ZGOW 241600Z AUTO 00000KT 5SM 28/27 A2968 RMK SLP054 T02800270 IEM_DS3505
ZGOW,1995-08-24 18:00,ZGOW 241800Z AUTO 25006KT 4SM 29/26 A2965 RMK SLP042 T02870263 57013 IEM_DS3505
ZGOW,1995-08-24 21:00,ZGOW 242100Z AUTO 18004KT 4SM 28/26 A2965 RMK 70016 SLP042 T02820265 54000 IEM_DS3505
ZGOW,1995-08-24 22:00,ZGOW 242200Z AUTO 19004KT 2 1/2SM 28/26 A2965 RMK SLP044 T02800260 IEM_DS3505
ZGOW,1995-08-24 23:00,ZGOW 242300Z AUTO 00000KT 2 1/2SM 28/26 A2965 RMK SLP044 T02800260 IEM_DS3505
ZGOW,1995-08-25 00:00,ZGOW 250000Z AUTO 00000KT 2 1/2SM 29/27 A2965 RMK 70016 SLP052 T02880267 52010 IEM_DS3505
ZGOW,1995-08-25 01:00,ZGOW 250100Z AUTO 32004KT 5SM 30/26 A2971 RMK SLP064 T03000260 IEM_DS3505
ZGOW,1995-08-25 02:00,ZGOW 250200Z AUTO 33004KT 7SM 31/25 A2968 RMK SLP054 T03100250 IEM_DS3505
ZGOW,1995-08-25 03:00,ZGOW 250300Z AUTO 36004KT 6SM 32/25 A2968 RMK SLP055 T03190249 52003 IEM_DS3505
ZGOW,1995-08-25 04:00,ZGOW 250400Z AUTO 15008KT 4SM 32/27 A2968 RMK SLP054 T03200270 IEM_DS3505
ZGOW,1995-08-25 06:00,ZGOW 250600Z AUTO 22008KT 6SM 31/26 A2965 RMK SLP042 T03060263 57013 IEM_DS3505
ZGOW,1995-08-25 07:00,ZGOW 250700Z AUTO 15008KT 7SM 31/26 RMK T03100260 IEM_DS3505
ZGOW,1995-08-25 08:00,ZGOW 250800Z AUTO 30004KT 7SM 30/25 A2965 RMK SLP044 T03000250 IEM_DS3505
ZGOW,1995-08-25 09:00,ZGOW 250900Z AUTO 29004KT 8SM 28/24 A2968 RMK SLP054 T02750242 52012 IEM_DS3505
ZGOW,1995-08-25 10:00,ZGOW 251000Z AUTO 35004KT 7SM 27/23 A2968 RMK SLP054 T02700230 IEM_DS3505
ZGOW,1995-08-25 12:00,ZGOW 251200Z AUTO 36004KT 6SM 27/24 A2970 RMK SLP062 T02670240 52008 IEM_DS3505
ZGOW,1995-08-25 13:00,ZGOW 251300Z AUTO 00000KT 6SM 27/25 A2971 RMK SLP064 T02700250 IEM_DS3505
ZGOW,1995-08-25 14:00,ZGOW 251400Z AUTO 00000KT 6SM 26/25 A2974 RMK SLP074 T02600250 IEM_DS3505
ZGOW,1995-08-25 15:00,ZGOW 251500Z AUTO 04002KT 6SM 27/25 A2973 RMK SLP071 T02670249 52009 IEM_DS3505
ZGOW,1995-08-25 18:00,ZGOW 251800Z AUTO 04004KT 3SM 27/25 A2969 RMK SLP056 T02660252 57015 IEM_DS3505
ZGOW,1995-08-25 21:00,ZGOW 252100Z AUTO 36002KT 2 1/2SM 25/24 A2968 RMK 70047 SLP055 T02470243 57001 IEM_DS3505
ZGOW,1995-08-25 22:00,ZGOW 252200Z AUTO 00000KT 7SM 25/24 A2971 RMK SLP064 T02500240 IEM_DS3505
ZGOW,1995-08-25 23:00,ZGOW 252300Z AUTO 00000KT 7SM 25/25 RMK T02500250 IEM_DS3505
ZGOW,1995-08-26 00:00,ZGOW 260000Z AUTO 07004KT 7SM 26/25 A2971 RMK 60055 70055 SLP065 T02570248 52010 IEM_DS3505
ZGOW,1995-08-26 01:00,ZGOW 260100Z AUTO 02006KT 7SM 29/26 A2974 RMK SLP074 T02900260 IEM_DS3505
ZGOW,1995-08-26 02:00,ZGOW 260200Z AUTO 03006KT 7SM A2971 RMK IEM_DS3505
ZGOW,1995-08-26 03:00,ZGOW 260300Z AUTO 09006KT 9SM 30/26 A2971 RMK SLP070 T02980256 52005 IEM_DS3505
ZGOW,1995-08-26 04:00,ZGOW 260400Z AUTO 05012KT 7SM 29/24 A2971 RMK SLP064 T02900240 IEM_DS3505
ZGOW,1995-08-26 06:00,ZGOW 260600Z AUTO 09008KT 19SM 30/24 A2971 RMK 60002 SLP059 T02950239 57011 IEM_DS3505
ZGOW,1995-08-26 07:00,ZGOW 260700Z AUTO 07012KT 7SM 28/24 A2968 RMK SLP054 T02800240 IEM_DS3505
ZGOW,1995-08-26 08:00,ZGOW 260800Z AUTO 07010KT 7SM 27/24 A2968 RMK SLP054 T02700240 IEM_DS3505
ZGOW,1995-08-26 09:00,ZGOW 260900Z AUTO 11008KT 11SM 26/25 A2971 RMK SLP060 T02590246 52001 IEM_DS3505
ZGOW,1995-08-26 10:00,ZGOW 261000Z AUTO 11006KT 7SM 26/25 A2971 RMK SLP064 T02600250 IEM_DS3505
ZGOW,1995-08-26 12:00,ZGOW 261200Z AUTO 04004KT 9SM 26/25 A2974 RMK 60016 SLP079 T02590246 52019 IEM_DS3505
ZGOW,1995-08-26 13:00,ZGOW 261300Z AUTO 06006KT 7SM 26/25 A2977 RMK SLP084 T02600250 IEM_DS3505
ZGOW,1995-08-26 14:00,ZGOW 261400Z AUTO 04006KT 7SM 26/25 A2977 RMK SLP084 T02600250 IEM_DS3505
ZGOW,1995-08-26 15:00,ZGOW 261500Z AUTO 04006KT 8SM 26/25 A2976 RMK SLP081 T02580247 52002 IEM_DS3505
ZGOW,1995-08-26 18:00,ZGOW 261800Z AUTO 14006KT 6SM 25/24 A2975 RMK 60012 SLP076 T02460242 57005 IEM_DS3505
ZGOW,1995-08-26 21:00,ZGOW 262100Z AUTO 04004KT 7SM 25/24 A2974 RMK 70047 SLP073 T02490240 57003 IEM_DS3505
ZGOW,1995-08-27 00:00,ZGOW 270000Z AUTO 00000KT 6SM 25/25 A2974 RMK 60020 70047 SLP082 T02540248 52009 IEM_DS3505
ZGOW,1995-08-27 01:00,ZGOW 270100Z AUTO 07008KT 7SM 27/25 A2977 RMK SLP084 T02700250 IEM_DS3505
ZGOW,1995-08-27 02:00,ZGOW 270200Z AUTO 05006KT 7SM 28/25 A2977 RMK SLP084 T02800250 IEM_DS3505
ZGOW,1995-08-27 03:00,ZGOW 270300Z AUTO 09008KT 11SM 29/26 A2977 RMK SLP085 T02940261 52003 IEM_DS3505
ZGOW,1995-08-27 04:00,ZGOW 270400Z AUTO 07010KT 7SM 30/26 A2977 RMK SLP084 T03000260 IEM_DS3505
ZGOW,1995-08-27 06:00,ZGOW 270600Z AUTO 16008KT 16SM 30/26 A2974 RMK SLP074 T02960255 57011 IEM_DS3505
ZGOW,1995-08-27 07:00,ZGOW 270700Z AUTO 08008KT 7SM 30/25 A2974 RMK SLP074 T03000250 IEM_DS3505
ZGOW,1995-08-27 08:00,ZGOW 270800Z AUTO 05006KT 7SM 29/25 A2971 RMK SLP064 T02900250 IEM_DS3505
ZGOW,1995-08-27 09:00,ZGOW 270900Z AUTO 09008KT 14SM 29/25 A2971 RMK SLP065 T02870247 57009 IEM_DS3505
ZGOW,1995-08-27 10:00,ZGOW 271000Z AUTO 05008KT 7SM 29/25 A2971 RMK SLP064 T02900250 IEM_DS3505
ZGOW,1995-08-27 12:00,ZGOW 271200Z AUTO 09004KT 9SM 28/25 A2977 RMK SLP084 T02750249 52019 IEM_DS3505
ZGOW,1995-08-27 13:00,ZGOW 271300Z AUTO 00000KT 6SM 27/25 A2980 RMK SLP094 T02700250 IEM_DS3505
ZGOW,1995-08-27 14:00,ZGOW 271400Z AUTO 04004KT 6SM 27/25 A2980 RMK SLP094 T02700250 IEM_DS3505
ZGOW,1995-08-27 15:00,ZGOW 271500Z AUTO 04004KT 4SM 27/26 A2980 RMK SLP095 T02710258 52011 IEM_DS3505
ZGOW,1995-08-27 18:00,ZGOW 271800Z AUTO 04004KT 3SM 27/26 A2977 RMK SLP083 T02660255 57012 IEM_DS3505
ZGOW,1995-08-27 21:00,ZGOW 272100Z AUTO 04004KT 3SM 26/25 A2974 RMK 70008 SLP077 T02640250 57006 IEM_DS3505
ZGOW,1995-08-27 22:00,ZGOW 272200Z AUTO 04004KT 4SM 26/25 A2977 RMK SLP084 T02600250 IEM_DS3505
ZGOW,1995-08-27 23:00,ZGOW 272300Z AUTO 04004KT 4SM 27/25 A2977 RMK SLP084 T02700250 IEM_DS3505
ZGOW,1995-08-28 00:00,ZGOW 280000Z AUTO 04006KT 4SM 28/25 A2980 RMK SLP092 T02810253 52015 IEM_DS3505
ZGOW,1995-08-28 02:00,ZGOW 280200Z AUTO 06010KT 7SM 31/25 A2983 RMK SLP105 T03100250 IEM_DS3505
ZGOW,1995-08-28 03:00,ZGOW 280300Z AUTO 11006KT 16SM 31/25 A2983 RMK SLP097 T03080253 52005 IEM_DS3505
ZGOW,1995-08-28 06:00,ZGOW 280600Z AUTO 14004KT 16SM 30/24 A2980 RMK SLP083 T02980243 57014 IEM_DS3505
ZGOW,1995-08-28 07:00,ZGOW 280700Z AUTO 09006KT 7SM 30/24 A2977 RMK SLP084 T03000240 IEM_DS3505
ZGOW,1995-08-28 08:00,ZGOW 280800Z AUTO 12004KT 7SM 30/25 A2974 RMK SLP074 T03000250 IEM_DS3505
ZGOW,1995-08-28 09:00,ZGOW 280900Z AUTO 18006KT 16SM 29/25 A2974 RMK SLP069 T02900251 57014 IEM_DS3505
ZGOW,1995-08-28 12:00,ZGOW 281200Z AUTO 16002KT 8SM 28/26 A2977 RMK SLP083 T02760255 52014 IEM_DS3505
ZGOW,1995-08-28 13:00,ZGOW 281300Z AUTO 00000KT 6SM 28/26 A2980 RMK SLP094 T02800260 IEM_DS3505
ZGOW,1995-08-28 15:00,ZGOW 281500Z AUTO 07004KT 6SM 28/26 A2980 RMK SLP095 T02770256 52012 IEM_DS3505
ZGOW,1995-08-28 18:00,ZGOW 281800Z AUTO 04006KT 6SM 28/25 A2977 RMK SLP084 T02760246 57011 IEM_DS3505
ZGOW,1995-08-28 21:00,ZGOW 282100Z AUTO 04004KT 7SM 27/24 A2976 RMK SLP082 T02670241 57002 IEM_DS3505
ZGOW,1995-08-28 22:00,ZGOW 282200Z AUTO 00000KT 7SM 26/24 A2977 RMK SLP084 T02600240 IEM_DS3505
ZGOW,1995-08-28 23:00,ZGOW 282300Z AUTO 00000KT 7SM 27/25 A2980 RMK SLP094 T02700250 IEM_DS3505
ZGOW,1995-08-29 00:00,ZGOW 290000Z AUTO 07004KT 11SM 29/25 A2980 RMK SLP091 T02880250 52009 IEM_DS3505
ZGOW,1995-08-29 02:00,ZGOW 290200Z AUTO 07006KT 7SM 31/24 A2980 RMK SLP094 T03100240 IEM_DS3505
ZGOW,1995-08-29 03:00,ZGOW 290300Z AUTO 09008KT 16SM 32/24 A2977 RMK SLP086 T03160245 57005 IEM_DS3505
ZGOW,1995-08-29 04:00,ZGOW 290400Z AUTO 06006KT 7SM 32/24 A2977 RMK SLP084 T03200240 IEM_DS3505
ZGOW,1995-08-29 06:00,ZGOW 290600Z AUTO 18006KT 14SM 32/24 A2974 RMK SLP073 T03150243 57013 IEM_DS3505
ZGOW,1995-08-29 08:00,ZGOW 290800Z AUTO 13010KT 7SM 32/24 A2974 RMK SLP074 T03200240 IEM_DS3505
ZGOW,1995-08-29 09:00,ZGOW 290900Z AUTO 14006KT 11SM 31/24 A2971 RMK SLP066 T03060239 57007 IEM_DS3505
ZGOW,1995-08-29 10:00,ZGOW 291000Z AUTO 10004KT 7SM 30/23 A2971 RMK SLP064 T03000230 IEM_DS3505
ZGOW,1995-08-29 12:00,ZGOW 291200Z AUTO 09006KT 8SM 29/25 A2975 RMK SLP078 T02870252 52012 IEM_DS3505
ZGOW,1995-08-29 13:00,ZGOW 291300Z AUTO 01004KT 7SM 29/25 A2974 RMK SLP074 T02900250 IEM_DS3505
ZGOW,1995-08-29 15:00,ZGOW 291500Z AUTO 09004KT 8SM 28/24 A2977 RMK SLP083 T02840243 52005 IEM_DS3505
ZGOW,1995-08-29 18:00,ZGOW 291800Z AUTO 32004KT 6SM 27/25 A2970 RMK SLP061 T02720249 57022 IEM_DS3505
ZGOW,1995-08-29 21:00,ZGOW 292100Z AUTO 32004KT 4SM 27/25 A2968 RMK SLP055 T02710251 57006 IEM_DS3505
ZGOW,1995-08-29 22:00,ZGOW 292200Z AUTO 33004KT 3SM 27/25 A2968 RMK SLP054 T02700250 IEM_DS3505
ZGOW,1995-08-29 23:00,ZGOW 292300Z AUTO 33006KT 5SM 27/25 A2968 RMK SLP054 T02700250 IEM_DS3505
ZGOW,1995-08-30 00:00,ZGOW 300000Z AUTO 31008KT 7SM 28/24 A2968 RMK SLP054 T02800240 IEM_DS3505
ZGOW,1995-08-30 01:00,ZGOW 300100Z AUTO 31006KT 6SM 30/24 A2968 RMK SLP054 T03000240 IEM_DS3505
ZGOW,1995-08-30 02:00,ZGOW 300200Z AUTO 31006KT 6SM 31/24 A2968 RMK SLP054 T03100240 IEM_DS3505
ZGOW,1995-08-30 03:00,ZGOW 300300Z AUTO 02006KT 7SM 32/23 A2965 RMK SLP045 T03170232 57010 IEM_DS3505
ZGOW,1995-08-30 04:00,ZGOW 300400Z AUTO 34006KT 7SM 33/22 A2965 RMK SLP044 T03300220 IEM_DS3505
ZGOW,1995-08-30 06:00,ZGOW 300600Z AUTO 36006KT 16SM 34/23 A2956 RMK SLP018 T03440233 57027 IEM_DS3505
ZGOW,1995-08-30 09:00,ZGOW 300900Z AUTO 27006KT 16SM 34/24 A2952 RMK SLP000 T03440240 57018 IEM_DS3505
ZGOW,1995-08-30 12:00,ZGOW 301200Z AUTO 20006KT 9SM 30/24 A2955 RMK SLP011 T02980243 55011 IEM_DS3505
ZGOW,1995-08-30 13:00,ZGOW 301300Z AUTO 18008KT 7SM 30/25 A2956 RMK SLP018 T02980246 52022 IEM_DS3505
ZGOW,1995-08-30 14:00,ZGOW 301400Z AUTO 20008KT 7SM 30/24 A2956 RMK SLP012 T02970240 52005 IEM_DS3505
ZGOW,1995-08-30 15:00,ZGOW 301500Z AUTO 20006KT 7SM 30/24 A2957 RMK SLP015 T02950241 52004 IEM_DS3505
ZGOW,1995-08-30 16:00,ZGOW 301600Z AUTO 00000KT 7SM 29/25 A2956 RMK SLP012 T02940247 57006 IEM_DS3505
ZGOW,1995-08-30 17:00,ZGOW 301700Z AUTO 00000KT 7SM 29/25 A2954 RMK SLP007 T02910252 57005 IEM_DS3505
ZGOW,1995-08-30 18:00,ZGOW 301800Z AUTO 04010KT 7SM 29/25 A2955 RMK SLP011 T02920250 57004 IEM_DS3505
ZGOW,1995-08-30 19:00,ZGOW 301900Z AUTO 04006KT 7SM 29/25 A2951 RMK SLP995 T02870252 57017 IEM_DS3505
ZGOW,1995-08-30 20:00,ZGOW 302000Z AUTO 04016KT 7SM 29/24 A2951 RMK SLP995 T02920245 57012 IEM_DS3505
ZGOW,1995-08-30 21:00,ZGOW 302100Z AUTO 07012G29KT 8SM 30/23 A2950 RMK SLP990 T02950233 57021 IEM_DS3505
ZGOW,1995-08-30 22:00,ZGOW 302200Z AUTO 07019G27KT 9SM 28/24 A2950 RMK SLP992 T02810235 57003 IEM_DS3505
ZGOW,1995-08-30 23:00,ZGOW 302300Z AUTO 04016G29KT 7SM 27/24 A2948 RMK SLP987 T02670241 57008 IEM_DS3505
ZGOW,1995-08-31 00:00,ZGOW 310000Z AUTO 04021G33KT 6SM 26/24 A2946 RMK 60024 70024 SLP979 T02630244 57011 IEM_DS3505
ZGOW,1995-08-31 01:00,ZGOW 310100Z AUTO 04017G29KT 6SM 27/24 A2947 RMK SLP983 T02670241 57009 IEM_DS3505
ZGOW,1995-08-31 02:00,ZGOW 310200Z AUTO 07017G25KT 6SM 26/24 A2950 RMK SLP993 T02620240 52006 IEM_DS3505
ZGOW,1995-08-31 03:00,ZGOW 310300Z AUTO 11016G25KT 4SM 26/24 A2953 RMK SLP004 T02560242 52025 IEM_DS3505
ZGOW,1995-08-31 04:00,ZGOW 310400Z AUTO 11014G39KT 4SM 26/24 A2955 RMK SLP009 T02560240 52026 IEM_DS3505
ZGOW,1995-08-31 05:00,ZGOW 310500Z AUTO 11012KT 4SM 26/24 A2957 RMK SLP017 T02560237 52024 IEM_DS3505
ZGOW,1995-08-31 06:00,ZGOW 310600Z AUTO 14012G37KT 5SM 26/24 A2959 RMK 60083 SLP024 T02580242 4////0253 52020 IEM_DS3505
ZGOW,1995-08-31 07:00,ZGOW 310700Z AUTO 09016G27KT 7SM 26/24 A2959 RMK SLP023 T02600240 IEM_DS3505
ZGOW,1995-08-31 08:00,ZGOW 310800Z AUTO 09014G23KT 7SM 26/24 RMK T02600240 IEM_DS3505
ZGOW,1995-08-31 09:00,ZGOW 310900Z AUTO 09008KT 6SM 26/24 A2965 RMK SLP042 T02640244 52018 IEM_DS3505
ZGOW,1995-08-31 12:00,ZGOW 311200Z AUTO 09006KT 6SM 26/25 A2971 RMK 60004 SLP060 T02600250 52018 IEM_DS3505
ZGOW,1995-08-31 13:00,ZGOW 311300Z AUTO 09012KT 7SM 26/25 A2971 RMK SLP064 T02600250 IEM_DS3505
ZGOW,1995-08-31 14:00,ZGOW 311400Z AUTO 12016KT 7SM 26/25 A2974 RMK SLP074 T02600250 IEM_DS3505
ZGOW,1995-08-31 15:00,ZGOW 311500Z AUTO 14006KT 7SM 26/25 A2976 RMK SLP080 T02580247 52020 IEM_DS3505
ZGOW,1995-08-31 16:00,ZGOW 311600Z AUTO 11008KT 7SM 25/25 A2977 RMK SLP084 T02500250 IEM_DS3505
ZGOW,1995-08-31 18:00,ZGOW 311800Z AUTO 14004KT 5SM 26/25 A2975 RMK 60004 SLP079 T02590248 57001 IEM_DS3505
ZGOW,1995-08-31 21:00,ZGOW 312100Z AUTO 14008KT 4SM 26/25 A2977 RMK 70134 SLP088 T02590252 52009 IEM_DS3505
ZGOW,1995-08-31 22:00,ZGOW 312200Z AUTO 15004KT 7SM 26/25 A2980 RMK SLP094 T02600250 IEM_DS3505
ZGOW,1995-08-31 23:00,ZGOW 312300Z AUTO 11008KT 7SM 27/25 A2983 RMK SLP105 T02700250 IEM_DS3505
ZGOW,1995-09-01 00:00,ZGOW 010000Z AUTO 14006KT 9SM 27/25 A2983 RMK 60024 70110 SLP106 T02690253 52018 IEM_DS3505
ZGOW,1995-09-01 01:00,ZGOW 010100Z AUTO 12010KT 7SM 29/26 A2983 RMK SLP106 T02900260 IEM_DS3505
ZGOW,1995-09-01 02:00,ZGOW 010200Z AUTO 11008KT 7SM 28/26 A2985 RMK SLP113 T02800260 IEM_DS3505
ZGOW,1995-09-01 03:00,ZGOW 010300Z AUTO 14006KT 11SM 29/26 A2985 RMK SLP115 T02940259 52009 IEM_DS3505
ZGOW,1995-09-01 04:00,ZGOW 010400Z AUTO 08012KT 7SM 30/26 A2985 RMK SLP113 T03000260 IEM_DS3505
ZGOW,1995-09-01 06:00,ZGOW 010600Z AUTO 09006KT 16SM 29/26 A2985 RMK SLP113 T02940258 57002 IEM_DS3505
ZGOW,1995-09-01 07:00,ZGOW 010700Z AUTO 10012KT 7SM 30/26 A2985 RMK SLP113 T03000260 IEM_DS3505
ZGOW,1995-09-01 08:00,ZGOW 010800Z AUTO 10012KT 7SM 29/26 A2985 RMK SLP113 T02900260 IEM_DS3505
ZGOW,1995-09-01 09:00,ZGOW 010900Z AUTO 16004KT 11SM 28/26 A2985 RMK SLP112 T02850258 57001 IEM_DS3505
ZGOW,1995-09-01 10:00,ZGOW 011000Z AUTO 09006KT 7SM 28/26 A2985 RMK SLP113 T02800260 IEM_DS3505
ZGOW,1995-09-01 12:00,ZGOW 011200Z AUTO 14006KT 9SM 27/26 A2988 RMK SLP125 T02740257 52013 IEM_DS3505
ZGOW,1995-09-01 13:00,ZGOW 011300Z AUTO 12006KT 6SM 27/26 A2991 RMK SLP133 T02700260 IEM_DS3505
ZGOW,1995-09-01 14:00,ZGOW 011400Z AUTO 11004KT 7SM 27/26 A2991 RMK SLP133 T02700260 IEM_DS3505
ZGOW,1995-09-01 15:00,ZGOW 011500Z AUTO 09004KT 7SM 27/26 A2993 RMK SLP139 T02730258 52014 IEM_DS3505
ZGOW,1995-09-01 18:00,ZGOW 011800Z AUTO 09004KT 7SM 27/26 A2990 RMK SLP131 T02690255 57008 IEM_DS3505
ZGOW,1995-09-01 21:00,ZGOW 012100Z AUTO 04004KT 6SM 27/25 A2988 RMK 70000 SLP119 T02660252 57012 IEM_DS3505
ZGOW,1995-09-01 22:00,ZGOW 012200Z AUTO 02004KT 7SM 26/25 A2988 RMK SLP123 T02600250 IEM_DS3505
ZGOW,1995-09-02 00:00,ZGOW 020000Z AUTO 07006KT 7SM 28/25 A2988 RMK SLP125 T02770254 52006 IEM_DS3505
ZGOW,1995-09-02 01:00,ZGOW 020100Z AUTO 15008KT 7SM 29/25 A2988 RMK SLP123 T02900250 IEM_DS3505
ZGOW,1995-09-02 02:00,ZGOW 020200Z AUTO 08010KT 7SM 30/25 A2991 RMK SLP133 T03000250 IEM_DS3505
ZGOW,1995-09-02 03:00,ZGOW 020300Z AUTO 18004KT 10SM 30/25 A2991 RMK SLP126 T03020253 52001 IEM_DS3505
ZGOW,1995-09-02 04:00,ZGOW 020400Z AUTO 14004KT 7SM 32/25 A2988 RMK SLP123 T03200250 IEM_DS3505
ZGOW,1995-09-02 06:00,ZGOW 020600Z AUTO 16004KT 12SM 32/23 A2988 RMK SLP118 T03180233 57008 IEM_DS3505
ZGOW,1995-09-02 07:00,ZGOW 020700Z AUTO 12008KT 7SM 33/24 A2988 RMK SLP123 T03300240 IEM_DS3505
ZGOW,1995-09-02 09:00,ZGOW 020900Z AUTO 32002KT 12SM 31/24 A2985 RMK SLP111 T03100243 57007 IEM_DS3505
ZGOW,1995-09-02 10:00,ZGOW 021000Z AUTO 12008KT 6SM 30/25 A2985 RMK SLP113 T03000250 IEM_DS3505
ZGOW,1995-09-02 12:00,ZGOW 021200Z AUTO 20004KT 10SM 28/24 A2988 RMK SLP122 T02850244 52011 IEM_DS3505
ZGOW,1995-09-02 13:00,ZGOW 021300Z AUTO 16006KT 7SM 28/25 A2991 RMK SLP133 T02800250 IEM_DS3505
ZGOW,1995-09-02 14:00,ZGOW 021400Z AUTO 15004KT 7SM 28/25 A2991 RMK SLP133 T02800250 IEM_DS3505
ZGOW,1995-09-02 15:00,ZGOW 021500Z AUTO 20002KT 7SM 28/25 A2990 RMK SLP131 T02750249 52009 IEM_DS3505
ZGOW,1995-09-02 18:00,ZGOW 021800Z AUTO 32002KT 5SM 27/25 A2986 RMK SLP117 T02680251 57014 IEM_DS3505
ZGOW,1995-09-02 21:00,ZGOW 022100Z AUTO 27004KT 2 1/2SM 26/25 A2984 RMK SLP110 T02620249 57007 IEM_DS3505
ZGOW,1995-09-02 23:00,ZGOW 022300Z AUTO 34004KT 2 1/2SM 27/25 A2985 RMK SLP113 T02700250 IEM_DS3505
ZGOW,1995-09-03 00:00,ZGOW 030000Z AUTO 00000KT 5SM 28/26 A2988 RMK SLP116 T02800255 52006 IEM_DS3505
ZGOW,1995-09-03 01:00,ZGOW 030100Z AUTO 31004KT 7SM 29/24 A2985 RMK SLP113 T02900240 IEM_DS3505
ZGOW,1995-09-03 02:00,ZGOW 030200Z AUTO 25004KT 7SM 30/24 A2985 RMK SLP113 T03000240 IEM_DS3505
ZGOW,1995-09-03 03:00,ZGOW 030300Z AUTO 27006KT 7SM 31/24 A2983 RMK SLP106 T03060236 57010 IEM_DS3505
ZGOW,1995-09-03 04:00,ZGOW 030400Z AUTO 23004KT 7SM 32/23 A2980 RMK SLP096 T03200230 IEM_DS3505
ZGOW,1995-09-03 06:00,ZGOW 030600Z AUTO 27006KT 9SM 33/24 A2977 RMK SLP083 T03300238 57023 IEM_DS3505
ZGOW,1995-09-03 07:00,ZGOW 030700Z AUTO 15008KT 7SM 33/24 A2977 RMK SLP085 T03300240 IEM_DS3505
ZGOW,1995-09-03 08:00,ZGOW 030800Z AUTO 19010KT 7SM 32/25 A2977 RMK SLP085 T03200250 IEM_DS3505
ZGOW,1995-09-03 09:00,ZGOW 030900Z AUTO 20008KT 9SM 31/24 A2974 RMK SLP076 T03110240 57007 IEM_DS3505
ZGOW,1995-09-03 10:00,ZGOW 031000Z AUTO 18006KT 6SM 30/24 A2977 RMK SLP085 T03000240 IEM_DS3505
ZGOW,1995-09-03 11:00,ZGOW 031100Z AUTO 21006KT 6SM 29/24 A2977 RMK SLP085 T02900240 IEM_DS3505
ZGOW,1995-09-03 12:00,ZGOW 031200Z AUTO 20006KT 9SM 29/24 A2977 RMK SLP088 T02890239 52012 IEM_DS3505
ZGOW,1995-09-03 15:00,ZGOW 031500Z AUTO 22006KT 7SM 28/25 A2978 RMK SLP088 T02800246 54000 IEM_DS3505
ZGOW,1995-09-03 18:00,ZGOW 031800Z AUTO 22002KT 7SM 27/24 A2976 RMK SLP081 T02730241 57007 IEM_DS3505
ZGOW,1995-09-03 21:00,ZGOW 032100Z AUTO 00000KT 7SM 26/24 A2974 RMK SLP075 T02600244 57006 IEM_DS3505
ZGOW,1995-09-03 22:00,ZGOW 032200Z AUTO 00000KT 6SM 26/24 A2977 RMK SLP085 T02600240 IEM_DS3505
ZGOW,1995-09-03 23:00,ZGOW 032300Z AUTO 00000KT 6SM 26/25 A2977 RMK SLP085 T02600250 IEM_DS3505
ZGOW,1995-09-04 00:00,ZGOW 040000Z AUTO 22004KT 6SM 28/25 A2977 RMK SLP089 T02800250 52014 IEM_DS3505
ZGOW,1995-09-04 01:00,ZGOW 040100Z AUTO 36004KT 7SM 29/25 A2980 RMK SLP096 T02900250 IEM_DS3505
ZGOW,1995-09-04 02:00,ZGOW 040200Z AUTO 02004KT 7SM 30/24 A2980 RMK SLP096 T03000240 IEM_DS3505
ZGOW,1995-09-04 03:00,ZGOW 040300Z AUTO 27006KT 11SM 31/24 A2977 RMK SLP085 T03140243 57004 IEM_DS3505
ZGOW,1995-09-04 04:00,ZGOW 040400Z AUTO 02006KT 7SM 33/24 A2974 RMK SLP075 T03300240 IEM_DS3505
ZGOW,1995-09-04 06:00,ZGOW 040600Z AUTO 18008KT 11SM 33/26 A2969 RMK SLP058 T03320256 57027 IEM_DS3505
ZGOW,1995-09-04 07:00,ZGOW 040700Z AUTO 15010KT 7SM 34/25 A2968 RMK SLP055 T03400250 IEM_DS3505
ZGOW,1995-09-04 08:00,ZGOW 040800Z AUTO 16010KT 7SM 33/25 A2968 RMK SLP055 T03300250 IEM_DS3505
ZGOW,1995-09-04 09:00,ZGOW 040900Z AUTO 18004KT 9SM 32/24 A2968 RMK SLP048 T03190239 57010 IEM_DS3505
ZGOW,1995-09-04 10:00,ZGOW 041000Z AUTO 17006KT 7SM 30/25 A2968 RMK SLP055 T03000250 IEM_DS3505
ZGOW,1995-09-04 11:00,ZGOW 041100Z AUTO 15004KT 7SM 30/25 A2968 RMK SLP055 T03000250 IEM_DS3505
ZGOW,1995-09-04 12:00,ZGOW 041200Z AUTO 00000KT 7SM 30/25 A2968 RMK SLP053 T02970251 52005 IEM_DS3505
ZGOW,1995-09-04 13:00,ZGOW 041300Z AUTO 15004KT 7SM 29/26 A2968 RMK SLP055 T02900260 IEM_DS3505
ZGOW,1995-09-04 15:00,ZGOW 041500Z AUTO 27004KT 6SM 28/26 A2969 RMK SLP059 T02850256 52006 IEM_DS3505
ZGOW,1995-09-04 18:00,ZGOW 041800Z AUTO 00000KT 5SM 27/26 A2967 RMK SLP053 T02730255 57006 IEM_DS3505
ZGOW,1995-09-04 21:00,ZGOW 042100Z AUTO 32002KT 4SM 27/26 A2967 RMK SLP053 T02710258 54000 IEM_DS3505
ZGOW,1995-09-05 00:00,ZGOW 050000Z AUTO 14002KT 4SM 29/26 A2974 RMK SLP078 T02870259 52025 IEM_DS3505
ZGOW,1995-09-05 02:00,ZGOW 050200Z AUTO 00000KT 7SM 32/24 A2974 RMK SLP075 T03200240 IEM_DS3505
ZGOW,1995-09-05 03:00,ZGOW 050300Z AUTO 18002KT 7SM 32/23 A2974 RMK SLP075 T03180234 57003 IEM_DS3505
ZGOW,1995-09-05 04:00,ZGOW 050400Z AUTO 06004KT 7SM 33/23 A2974 RMK SLP075 T03300230 IEM_DS3505
ZGOW,1995-09-05 05:00,ZGOW 050500Z AUTO 07004KT 7SM 34/24 A2971 RMK SLP065 T03400240 IEM_DS3505
ZGOW,1995-09-05 06:00,ZGOW 050600Z AUTO 09006KT 11SM 33/23 A2968 RMK SLP053 T03310227 57022 IEM_DS3505
ZGOW,1995-09-05 07:00,ZGOW 050700Z AUTO 12008KT 7SM 33/24 A2968 RMK SLP055 T03300240 IEM_DS3505
ZGOW,1995-09-05 08:00,ZGOW 050800Z AUTO 12012KT 7SM 32/24 A2968 RMK SLP055 T03200240 IEM_DS3505
ZGOW,1995-09-05 09:00,ZGOW 050900Z AUTO 11006KT 10SM 31/24 A2967 RMK SLP051 T03100239 57002 IEM_DS3505
ZGOW,1995-09-05 10:00,ZGOW 051000Z AUTO 00000KT 7SM 30/25 A2968 RMK SLP055 T03000250 IEM_DS3505
ZGOW,1995-09-05 11:00,ZGOW 051100Z AUTO 08004KT 7SM 29/25 A2968 RMK SLP055 T02900250 IEM_DS3505
ZGOW,1995-09-05 12:00,ZGOW 051200Z AUTO 09006KT 10SM 29/25 A2971 RMK SLP063 T02860246 52012 IEM_DS3505
ZGOW,1995-09-05 13:00,ZGOW 051300Z AUTO 11004KT 7SM 29/25 A2971 RMK SLP065 T02900250 IEM_DS3505
ZGOW,1995-09-05 15:00,ZGOW 051500Z AUTO 07004KT 9SM 28/26 A2974 RMK SLP076 T02830258 52013 IEM_DS3505
ZGOW,1995-09-05 18:00,ZGOW 051800Z AUTO 04006KT 7SM 28/26 A2970 RMK SLP062 T02790257 57014 IEM_DS3505
ZGOW,1995-09-05 21:00,ZGOW 052100Z AUTO 07006KT 5SM 28/26 A2968 RMK SLP053 T02770259 57009 IEM_DS3505
ZGOW,1995-09-05 22:00,ZGOW 052200Z AUTO 05004KT 7SM 27/25 A2968 RMK SLP055 T02700250 IEM_DS3505
ZGOW,1995-09-05 23:00,ZGOW 052300Z AUTO 07004KT 7SM 28/26 A2971 RMK SLP065 T02800260 IEM_DS3505
ZGOW,1995-09-06 00:00,ZGOW 060000Z AUTO 09006KT 7SM 28/26 A2973 RMK SLP072 T02830256 52019 IEM_DS3505
ZGOW,1995-09-06 01:00,ZGOW 060100Z AUTO 09004KT 7SM 29/27 A2974 RMK SLP075 T02900270 IEM_DS3505
ZGOW,1995-09-06 03:00,ZGOW 060300Z AUTO 11006KT 16SM 30/26 A2977 RMK SLP083 T03040258 52011 IEM_DS3505
ZGOW,1995-09-06 04:00,ZGOW 060400Z AUTO 12008KT 7SM 31/27 A2974 RMK SLP075 T03100270 IEM_DS3505
ZGOW,1995-09-06 05:00,ZGOW 060500Z AUTO 09010KT 7SM 32/27 A2974 RMK SLP075 T03200270 IEM_DS3505
ZGOW,1995-09-06 06:00,ZGOW 060600Z AUTO 14006KT 19SM 31/26 A2974 RMK 60000 SLP066 T03080256 57017 IEM_DS3505
ZGOW,1995-09-06 07:00,ZGOW 060700Z AUTO 09012KT 7SM 32/26 A2971 RMK SLP065 T03200260 IEM_DS3505
ZGOW,1995-09-06 08:00,ZGOW 060800Z AUTO 06008KT 7SM 31/26 A2971 RMK SLP065 T03100260 IEM_DS3505
ZGOW,1995-09-06 09:00,ZGOW 060900Z AUTO 09008KT 17SM 30/26 A2971 RMK SLP065 T02960255 57001 IEM_DS3505
ZGOW,1995-09-06 10:00,ZGOW 061000Z AUTO 06006KT 7SM 29/26 A2971 RMK SLP065 T02900260 IEM_DS3505
ZGOW,1995-09-06 11:00,ZGOW 061100Z AUTO 07008KT 7SM 28/26 A2974 RMK SLP075 T02800260 IEM_DS3505
ZGOW,1995-09-06 12:00,ZGOW 061200Z AUTO 09006KT 10SM 28/26 A2977 RMK 60016 SLP079 T02780261 52014 IEM_DS3505
ZGOW,1995-09-06 13:00,ZGOW 061300Z AUTO 08006KT 6SM 28/26 A2977 RMK SLP085 T02800260 IEM_DS3505
ZGOW,1995-09-06 14:00,ZGOW 061400Z AUTO 08004KT 6SM 27/ A2980 RMK SLP096 IEM_DS3505
ZGOW,1995-09-06 15:00,ZGOW 061500Z AUTO 16004KT 8SM 28/26 A2981 RMK SLP098 T02790258 52019 IEM_DS3505
ZGOW,1995-09-06 21:00,ZGOW 062100Z AUTO 16004KT 7SM 27/25 A2980 RMK 70016 SLP089 T02740253 52002 IEM_DS3505
ZGOW,1995-09-06 22:00,ZGOW 062200Z AUTO 00000KT 7SM 27/26 A2980 RMK SLP096 T02700260 IEM_DS3505
ZGOW,1995-09-06 23:00,ZGOW 062300Z AUTO 08004KT 6SM 28/26 A2980 RMK SLP096 T02800260 IEM_DS3505
ZGOW,1995-09-07 00:00,ZGOW 070000Z AUTO 09004KT 10SM 28/26 A2983 RMK 70016 SLP107 T02850260 52018 IEM_DS3505
ZGOW,1995-09-07 01:00,ZGOW 070100Z AUTO 12010KT 7SM 28/26 A2985 RMK SLP113 T02800260 IEM_DS3505
ZGOW,1995-09-07 02:00,ZGOW 070200Z AUTO 12012KT 7SM 29/26 A2985 RMK SLP113 T02900260 IEM_DS3505
ZGOW,1995-09-07 03:00,ZGOW 070300Z AUTO 14010KT 12SM 29/25 A2988 RMK SLP120 T02940247 52013 IEM_DS3505
ZGOW,1995-09-07 04:00,ZGOW 070400Z AUTO 12008KT 7SM 31/25 A2985 RMK SLP113 T03100250 IEM_DS3505
ZGOW,1995-09-07 06:00,ZGOW 070600Z AUTO 14004KT 19SM 31/26 A2983 RMK 60002 SLP107 T03080259 57013 IEM_DS3505
ZGOW,1995-09-07 07:00,ZGOW 070700Z AUTO 14012KT 7SM 31/25 A2983 RMK SLP106 T03100250 IEM_DS3505
ZGOW,1995-09-07 08:00,ZGOW 070800Z AUTO 12008KT 7SM 30/26 A2983 RMK SLP106 T03000260 IEM_DS3505
ZGOW,1995-09-07 09:00,ZGOW 070900Z AUTO 18006KT 19SM 30/26 A2985 RMK SLP107 T03000257 54000 IEM_DS3505
ZGOW,1995-09-07 10:00,ZGOW 071000Z AUTO 12006KT 7SM 29/26 A2985 RMK SLP113 T02900260 IEM_DS3505
ZGOW,1995-09-07 11:00,ZGOW 071100Z AUTO 12006KT 7SM 29/26 A2985 RMK SLP113 T02900260 IEM_DS3505
ZGOW,1995-09-07 12:00,ZGOW 071200Z AUTO 18004KT 11SM 29/26 A2988 RMK SLP122 T02860258 52015 IEM_DS3505
ZGOW,1995-09-07 13:00,ZGOW 071300Z AUTO 08006KT 7SM 28/26 A2991 RMK SLP133 T02800260 IEM_DS3505
ZGOW,1995-09-07 15:00,ZGOW 071500Z AUTO 11004KT 7SM 28/26 A2990 RMK SLP131 T02830264 52009 IEM_DS3505
ZGOW,1995-09-07 18:00,ZGOW 071800Z AUTO 11004KT 6SM 28/26 A2989 RMK SLP126 T02790261 57005 IEM_DS3505
ZGOW,1995-09-07 21:00,ZGOW 072100Z AUTO 11002KT 1/8SM 23/ A2988 RMK 70002 SLP120 57003 IEM_DS3505
ZGOW,1995-09-07 22:00,ZGOW 072200Z AUTO 00000KT 27/26 A2991 RMK SLP133 T02700260 IEM_DS3505
ZGOW,1995-09-08 00:00,ZGOW 080000Z AUTO 04004KT 8SM 29/26 A2991 RMK 70002 SLP134 T02940262 52011 IEM_DS3505
ZGOW,1995-09-08 01:00,ZGOW 080100Z AUTO 06006KT 7SM 30/25 A2991 RMK SLP133 T03000250 IEM_DS3505
ZGOW,1995-09-08 03:00,ZGOW 080300Z AUTO 16006KT 9SM 32/26 A2994 RMK SLP143 T03160256 52009 IEM_DS3505
ZGOW,1995-09-08 04:00,ZGOW 080400Z AUTO 10006KT 7SM 32/25 A2994 RMK SLP143 T03200250 IEM_DS3505
ZGOW,1995-09-08 06:00,ZGOW 080600Z AUTO 18006KT 16SM 32/26 A2991 RMK SLP127 T03220260 57016 IEM_DS3505
ZGOW,1995-09-08 07:00,ZGOW 080700Z AUTO 15010KT 7SM 32/25 A2988 RMK SLP123 T03200250 IEM_DS3505
ZGOW,1995-09-08 08:00,ZGOW 080800Z AUTO 15010KT 7SM 32/25 A2985 RMK SLP113 T03200250 IEM_DS3505
ZGOW,1995-09-08 09:00,ZGOW 080900Z AUTO 18006KT 19SM 31/25 A2985 RMK SLP116 T03110249 57011 IEM_DS3505
ZGOW,1995-09-08 11:00,ZGOW 081100Z AUTO 15006KT 7SM 29/26 A2985 RMK SLP113 T02900260 IEM_DS3505
ZGOW,1995-09-08 12:00,ZGOW 081200Z AUTO 16004KT 10SM 29/25 A2985 RMK SLP122 T02880250 52006 IEM_DS3505
ZGOW,1995-09-08 15:00,ZGOW 081500Z AUTO 25002KT 8SM 28/26 A2991 RMK SLP133 T02840256 52011 IEM_DS3505
ZGOW,1995-09-08 18:00,ZGOW 081800Z AUTO 32004KT 6SM 28/26 A2987 RMK SLP121 T02790261 57012 IEM_DS3505
ZGOW,1995-09-08 21:00,ZGOW 082100Z AUTO 25004KT 4SM 27/26 A2985 RMK SLP113 T02740260 57008 IEM_DS3505
ZGOW,1995-09-08 22:00,ZGOW 082200Z AUTO 00000KT 3SM 27/26 A2985 RMK SLP113 T02700260 IEM_DS3505
ZGOW,1995-09-08 23:00,ZGOW 082300Z AUTO 00000KT 3SM 28/26 A2985 RMK SLP113 T02800260 IEM_DS3505
ZGOW,1995-09-09 00:00,ZGOW 090000Z AUTO 32004KT 6SM 28/26 A2988 RMK SLP122 T02840259 52009 IEM_DS3505
ZGOW,1995-09-09 01:00,ZGOW 090100Z AUTO 00000KT 5SM 30/26 A2988 RMK SLP123 T03000260 IEM_DS3505
ZGOW,1995-09-09 02:00,ZGOW 090200Z AUTO 29004KT 5SM 31/26 A2988 RMK SLP123 T03100260 IEM_DS3505
ZGOW,1995-09-09 03:00,ZGOW 090300Z AUTO 25004KT 6SM 32/26 A2985 RMK SLP117 T03180260 57005 IEM_DS3505
ZGOW,1995-09-09 04:00,ZGOW 090400Z AUTO 13010KT 5SM 33/27 A2985 RMK SLP113 T03300270 IEM_DS3505
ZGOW,1995-09-09 05:00,ZGOW 090500Z AUTO 14012KT 7SM 33/26 A2983 RMK SLP106 T03300260 IEM_DS3505
ZGOW,1995-09-09 06:00,ZGOW 090600Z AUTO 16004KT 11SM 33/26 A2980 RMK SLP100 T03270256 57017 IEM_DS3505
ZGOW,1995-09-09 08:00,ZGOW 090800Z AUTO 13012KT 7SM 32/25 A2980 RMK SLP096 T03200250 IEM_DS3505
ZGOW,1995-09-09 09:00,ZGOW 090900Z AUTO 18006KT 16SM 31/25 A2977 RMK SLP087 T03100246 57013 IEM_DS3505
ZGOW,1995-09-09 10:00,ZGOW 091000Z AUTO 16012KT 7SM 30/24 A2980 RMK SLP096 T03000240 IEM_DS3505
ZGOW,1995-09-09 11:00,ZGOW 091100Z AUTO 15008KT 6SM 29/25 A2980 RMK SLP096 T02900250 IEM_DS3505
ZGOW,1995-09-09 12:00,ZGOW 091200Z AUTO 20008KT 10SM 29/25 A2983 RMK SLP106 T02890251 52019 IEM_DS3505
ZGOW,1995-09-09 13:00,ZGOW 091300Z AUTO 18006KT 6SM 28/25 A2985 RMK SLP113 T02800250 IEM_DS3505
ZGOW,1995-09-09 14:00,ZGOW 091400Z AUTO 19004KT 6SM 28/25 A2985 RMK SLP113 T02800250 IEM_DS3505
ZGOW,1995-09-09 15:00,ZGOW 091500Z AUTO 00000KT 8SM 28/26 A2986 RMK SLP115 T02820257 52009 IEM_DS3505
ZGOW,1995-09-09 18:00,ZGOW 091800Z AUTO 27002KT 7SM 28/26 A2982 RMK SLP102 T02780257 57013 IEM_DS3505
ZGOW,1995-09-09 21:00,ZGOW 092100Z AUTO 00000KT 5SM 27/25 A2983 RMK SLP103 T02710251 52001 IEM_DS3505
ZGOW,1995-09-09 22:00,ZGOW 092200Z AUTO 00000KT 3SM 26/25 A2985 RMK SLP113 T02600250 IEM_DS3505
ZGOW,1995-09-09 23:00,ZGOW 092300Z AUTO 00000KT 4SM 27/26 A2985 RMK SLP113 T02700260 IEM_DS3505
ZGOW,1995-09-10 00:00,ZGOW 100000Z AUTO 00000KT 6SM 29/26 A2985 RMK SLP116 T02940255 52013 IEM_DS3505
ZGOW,1995-09-10 01:00,ZGOW 100100Z AUTO 00000KT 4SM 30/25 A2985 RMK SLP113 T03000250 IEM_DS3505
ZGOW,1995-09-10 02:00,ZGOW 100200Z AUTO 12004KT 4SM 32/26 A2985 RMK SLP113 T03200260 IEM_DS3505
ZGOW,1995-09-10 03:00,ZGOW 100300Z AUTO 18004KT 7SM 32/25 A2987 RMK SLP119 T03150252 52003 IEM_DS3505
ZGOW,1995-09-10 04:00,ZGOW 100400Z AUTO 14010KT 7SM 33/25 A2985 RMK SLP113 T03300250 IEM_DS3505
ZGOW,1995-09-10 05:00,ZGOW 100500Z AUTO 13012KT 7SM 32/26 A2983 RMK SLP106 T03200260 IEM_DS3505
ZGOW,1995-09-10 06:00,ZGOW 100600Z AUTO 18008KT 8SM 32/24 A2980 RMK SLP095 T03220235 57024 IEM_DS3505
ZGOW,1995-09-10 07:00,ZGOW 100700Z AUTO 14012KT 7SM 33/25 A2980 RMK SLP096 T03300250 IEM_DS3505
ZGOW,1995-09-10 08:00,ZGOW 100800Z AUTO 16010KT 7SM 32/25 A2977 RMK SLP085 T03200250 IEM_DS3505
ZGOW,1995-09-10 09:00,ZGOW 100900Z AUTO 18006KT 9SM 30/24 A2980 RMK SLP089 T03020244 57006 IEM_DS3505
ZGOW,1995-09-10 10:00,ZGOW 101000Z AUTO 16008KT 6SM 30/25 A2980 RMK SLP096 T03000250 IEM_DS3505
ZGOW,1995-09-10 11:00,ZGOW 101100Z AUTO 15004KT 6SM 29/25 A2980 RMK SLP096 T02900250 IEM_DS3505
ZGOW,1995-09-10 12:00,ZGOW 101200Z AUTO 18004KT 9SM 28/27 A2983 RMK SLP104 T02850266 52015 IEM_DS3505
ZGOW,1995-09-10 15:00,ZGOW 101500Z AUTO 22004KT 7SM 28/25 A2989 RMK SLP125 T02800253 52021 IEM_DS3505
ZGOW,1995-09-10 18:00,ZGOW 101800Z AUTO 18002KT 9SM 28/25 A2987 RMK SLP120 T02750251 57005 IEM_DS3505
ZGOW,1995-09-10 21:00,ZGOW 102100Z AUTO 04004KT 7SM 27/26 A2988 RMK SLP119 T02660255 57001 IEM_DS3505
ZGOW,1995-09-10 22:00,ZGOW 102200Z AUTO 03004KT 6SM 27/26 A2988 RMK SLP123 T02700260 IEM_DS3505
ZGOW,1995-09-10 23:00,ZGOW 102300Z AUTO 03006KT 6SM 28/26 A2988 RMK SLP123 T02800260 IEM_DS3505
ZGOW,1995-09-11 00:00,ZGOW 110000Z AUTO 04004KT 7SM 28/26 A2991 RMK SLP135 T02750260 52016 IEM_DS3505
ZGOW,1995-09-11 01:00,ZGOW 110100Z AUTO 02004KT 7SM 30/25 A2994 RMK SLP143 T03000250 IEM_DS3505
ZGOW,1995-09-11 02:00,ZGOW 110200Z AUTO 04008KT 7SM 30/25 A2994 RMK SLP143 T03000250 IEM_DS3505
ZGOW,1995-09-11 03:00,ZGOW 110300Z AUTO 04010KT 9SM 31/24 A2994 RMK SLP139 T03140242 52004 IEM_DS3505
ZGOW,1995-09-11 04:00,ZGOW 110400Z AUTO 08012KT 7SM 32/24 A2991 RMK SLP133 T03200240 IEM_DS3505
ZGOW,1995-09-11 05:00,ZGOW 110500Z AUTO 08012KT 7SM 32/24 A2988 RMK SLP123 T03200240 IEM_DS3505
ZGOW,1995-09-11 06:00,ZGOW 110600Z AUTO 11008KT 12SM 32/24 A2989 RMK SLP127 T03160239 57012 IEM_DS3505
ZGOW,1995-09-11 07:00,ZGOW 110700Z AUTO 08014KT 7SM 32/24 A2988 RMK SLP123 T03200240 IEM_DS3505
ZGOW,1995-09-11 08:00,ZGOW 110800Z AUTO 08010KT 7SM 31/23 A2988 RMK SLP123 T03100230 IEM_DS3505
ZGOW,1995-09-11 09:00,ZGOW 110900Z AUTO 04008KT 11SM 31/23 A2988 RMK SLP118 T03070229 57009 IEM_DS3505
ZGOW,1995-09-11 10:00,ZGOW 111000Z AUTO 07012KT 7SM 29/24 A2985 RMK SLP113 T02900240 IEM_DS3505
ZGOW,1995-09-11 11:00,ZGOW 111100Z AUTO 06010KT 7SM 29/24 A2988 RMK SLP123 T02900240 IEM_DS3505
ZGOW,1995-09-11 12:00,ZGOW 111200Z AUTO 09008KT 9SM 28/24 A2991 RMK SLP131 T02830238 52013 IEM_DS3505
ZGOW,1995-09-11 13:00,ZGOW 111300Z AUTO 08008KT 7SM 28/24 A2994 RMK SLP143 T02800240 IEM_DS3505
ZGOW,1995-09-11 15:00,ZGOW 111500Z AUTO 09006KT 6SM 28/24 A2995 RMK SLP148 T02760240 52017 IEM_DS3505
ZGOW,1995-09-11 18:00,ZGOW 111800Z AUTO 04006KT 6SM 27/24 A2995 RMK SLP147 T02680244 57001 IEM_DS3505
ZGOW,1995-09-11 21:00,ZGOW 112100Z AUTO 00000KT 6SM 26/23 A2993 RMK SLP140 T02580230 57007 IEM_DS3505
ZGOW,1995-09-11 22:00,ZGOW 112200Z AUTO 00000KT 6SM 25/23 A2994 RMK SLP143 T02500230 IEM_DS3505
ZGOW,1995-09-11 23:00,ZGOW 112300Z AUTO 00000KT 6SM 26/24 A2994 RMK SLP143 T02600240 IEM_DS3505
ZGOW,1995-09-12 00:00,ZGOW 120000Z AUTO 07004KT 7SM 29/23 A2997 RMK SLP150 T02860228 52010 IEM_DS3505
ZGOW,1995-09-12 01:00,ZGOW 120100Z AUTO 00000KT 6SM 29/22 A2997 RMK SLP153 T02900220 IEM_DS3505
ZGOW,1995-09-12 02:00,ZGOW 120200Z AUTO 06006KT 6SM 30/22 A2997 RMK SLP153 T03000220 IEM_DS3505
ZGOW,1995-09-12 03:00,ZGOW 120300Z AUTO 04008KT 8SM 31/22 A2997 RMK SLP148 T03060224 57002 IEM_DS3505
ZGOW,1995-09-12 05:00,ZGOW 120500Z AUTO 06008KT 7SM 32/22 A2994 RMK SLP143 T03200220 IEM_DS3505
ZGOW,1995-09-12 06:00,ZGOW 120600Z AUTO 09006KT 10SM 32/22 A2989 RMK SLP126 T03220222 57022 IEM_DS3505
ZGOW,1995-09-12 07:00,ZGOW 120700Z AUTO 06006KT 6SM 31/23 A2988 RMK SLP123 T03100230 IEM_DS3505
ZGOW,1995-09-12 08:00,ZGOW 120800Z AUTO 06006KT 6SM 30/24 A2988 RMK SLP123 T03000240 IEM_DS3505
ZGOW,1995-09-12 09:00,ZGOW 120900Z AUTO 14012KT 7SM 30/23 A2988 RMK SLP126 T02950230 54000 IEM_DS3505
ZGOW,1995-09-12 10:00,ZGOW 121000Z AUTO 06014KT 6SM 29/23 A2988 RMK SLP123 T02900230 IEM_DS3505
ZGOW,1995-09-12 11:00,ZGOW 121100Z AUTO 06012KT 7SM 28/23 A2991 RMK SLP133 T02800230 IEM_DS3505
ZGOW,1995-09-12 12:00,ZGOW 121200Z AUTO 09010KT 7SM 28/23 A2991 RMK SLP137 T02800226 52011 IEM_DS3505
ZGOW,1995-09-12 13:00,ZGOW 121300Z AUTO 08012KT 7SM 27/23 A2994 RMK SLP143 T02700230 IEM_DS3505
ZGOW,1995-09-12 14:00,ZGOW 121400Z AUTO 08008KT 7SM 27/24 A2997 RMK SLP153 T02700240 IEM_DS3505
ZGOW,1995-09-12 15:00,ZGOW 121500Z AUTO 7SM 28/23 A2996 RMK SLP150 T02750234 52013 IEM_DS3505
ZGOW,1995-09-12 18:00,ZGOW 121800Z AUTO 04004KT 6SM 27/23 A2992 RMK SLP136 T02700232 57014 IEM_DS3505
ZGOW,1995-09-12 21:00,ZGOW 122100Z AUTO 04004KT 4SM 26/24 A2989 RMK SLP125 T02560236 57011 IEM_DS3505
ZGOW,1995-09-12 22:00,ZGOW 122200Z AUTO 00000KT 2 1/2SM 26/24 A2991 RMK SLP133 T02600240 IEM_DS3505
ZGOW,1995-09-12 23:00,ZGOW 122300Z AUTO 00000KT 2 1/2SM 26/24 A2991 RMK SLP133 T02600240 IEM_DS3505
ZGOW,1995-09-13 00:00,ZGOW 130000Z AUTO 02004KT 5SM 27/24 A2991 RMK SLP132 T02700241 52007 IEM_DS3505
ZGOW,1995-09-13 01:00,ZGOW 130100Z AUTO 31006KT 5SM 28/24 A2991 RMK SLP133 T02800240 IEM_DS3505
ZGOW,1995-09-13 02:00,ZGOW 130200Z AUTO 06008KT 7SM 30/24 A2991 RMK SLP133 T03000240 IEM_DS3505
ZGOW,1995-09-13 03:00,ZGOW 130300Z AUTO 04008KT 7SM 32/22 A2991 RMK SLP126 T03160216 57006 IEM_DS3505
ZGOW,1995-09-13 06:00,ZGOW 130600Z AUTO 18008KT 8SM 32/22 A2985 RMK SLP104 T03180224 57022 IEM_DS3505
ZGOW,1995-09-13 07:00,ZGOW 130700Z AUTO 12008KT 6SM 32/24 A2983 RMK SLP106 T03200240 IEM_DS3505
ZGOW,1995-09-13 08:00,ZGOW 130800Z AUTO 12008KT 7SM 32/24 A2980 RMK SLP096 T03200240 IEM_DS3505
ZGOW,1995-09-13 09:00,ZGOW 130900Z AUTO 09006KT 7SM 30/24 A2980 RMK SLP093 T03050236 57011 IEM_DS3505
ZGOW,1995-09-13 10:00,ZGOW 131000Z AUTO 10004KT 7SM 29/25 A2980 RMK SLP096 T02900250 IEM_DS3505
ZGOW,1995-09-13 11:00,ZGOW 131100Z AUTO 12006KT 7SM 29/23 A2980 RMK SLP096 T02900230 IEM_DS3505
ZGOW,1995-09-13 12:00,ZGOW 131200Z AUTO 09004KT 7SM 28/24 A2983 RMK SLP107 T02820237 52014 IEM_DS3505
ZGOW,1995-09-13 13:00,ZGOW 131300Z AUTO 06006KT 7SM 28/24 A2985 RMK SLP113 T02800240 IEM_DS3505
ZGOW,1995-09-13 15:00,ZGOW 131500Z AUTO 09004KT 7SM 28/24 A2984 RMK SLP110 T02750241 52003 IEM_DS3505
ZGOW,1995-09-13 18:00,ZGOW 131800Z AUTO 00000KT 6SM 27/24 A2982 RMK SLP101 T02730244 57009 IEM_DS3505
ZGOW,1995-09-13 21:00,ZGOW 132100Z AUTO 04002KT 5SM 26/24 A2980 RMK SLP094 T02620243 57007 IEM_DS3505
ZGOW,1995-09-13 22:00,ZGOW 132200Z AUTO 00000KT 2 1/2SM 26/25 A2980 RMK SLP096 T02600250 IEM_DS3505
ZGOW,1995-09-13 23:00,ZGOW 132300Z AUTO 00000KT 2 1/2SM 27/25 A2980 RMK SLP096 T02700250 IEM_DS3505
ZGOW,1995-09-14 00:00,ZGOW 140000Z AUTO 04004KT 6SM 28/25 A2981 RMK SLP098 T02800250 52004 IEM_DS3505
ZGOW,1995-09-14 02:00,ZGOW 140200Z AUTO 03006KT 7SM 31/24 A2983 RMK SLP106 T03100240 IEM_DS3505
ZGOW,1995-09-14 03:00,ZGOW 140300Z AUTO 04006KT 7SM 30/23 A2983 RMK SLP098 T03050227 54000 IEM_DS3505
ZGOW,1995-09-14 04:00,ZGOW 140400Z AUTO 03008KT 6SM 32/23 A2980 RMK SLP096 T03200230 IEM_DS3505
ZGOW,1995-09-14 05:00,ZGOW 140500Z AUTO 01004KT 6SM 33/23 A2977 RMK SLP085 T03300230 IEM_DS3505
ZGOW,1995-09-14 06:00,ZGOW 140600Z AUTO 11008KT 9SM 32/22 A2977 RMK SLP082 T03180225 57016 IEM_DS3505
ZGOW,1995-09-14 07:00,ZGOW 140700Z AUTO 09008KT 7SM 33/25 A2974 RMK SLP075 T03300250 IEM_DS3505
ZGOW,1995-09-14 08:00,ZGOW 140800Z AUTO 12008KT 7SM 31/24 A2974 RMK SLP075 T03100240 IEM_DS3505
ZGOW,1995-09-14 09:00,ZGOW 140900Z AUTO 11008KT 9SM 30/23 A2974 RMK SLP071 T02960233 57011 IEM_DS3505
ZGOW,1995-09-14 10:00,ZGOW 141000Z AUTO 08004KT 6SM 29/24 A2974 RMK SLP075 T02900240 IEM_DS3505
ZGOW,1995-09-14 11:00,ZGOW 141100Z AUTO 10008KT 7SM 29/23 A2974 RMK SLP075 T02900230 IEM_DS3505
ZGOW,1995-09-14 12:00,ZGOW 141200Z AUTO 14004KT 8SM 28/24 A2977 RMK SLP087 T02820236 52016 IEM_DS3505
ZGOW,1995-09-14 13:00,ZGOW 141300Z AUTO 05006KT 6SM 28/24 A2980 RMK SLP096 T02800240 IEM_DS3505
ZGOW,1995-09-14 15:00,ZGOW 141500Z AUTO 07004KT 7SM 28/24 A2978 RMK SLP089 T02770243 52002 IEM_DS3505
ZGOW,1995-09-14 18:00,ZGOW 141800Z AUTO 29002KT 6SM 27/24 A2977 RMK SLP085 T02690242 57004 IEM_DS3505
ZGOW,1995-09-14 21:00,ZGOW 142100Z AUTO 04004KT 4SM 26/24 A2977 RMK SLP080 T02610244 57005 IEM_DS3505
ZGOW,1995-09-14 22:00,ZGOW 142200Z AUTO 00000KT 4SM 26/24 A2977 RMK SLP085 T02600240 IEM_DS3505
ZGOW,1995-09-14 23:00,ZGOW 142300Z AUTO 00000KT 4SM 27/24 A2980 RMK SLP096 T02700240 IEM_DS3505
ZGOW,1995-09-15 00:00,ZGOW 150000Z AUTO 04006KT 6SM 28/25 A2980 RMK SLP096 T02840246 52016 IEM_DS3505
ZGOW,1995-09-15 01:00,ZGOW 150100Z AUTO 04006KT 7SM 30/25 A2980 RMK SLP096 T03000250 IEM_DS3505
ZGOW,1995-09-15 02:00,ZGOW 150200Z AUTO 09008KT 7SM 31/21 A2980 RMK SLP096 T03100210 IEM_DS3505
ZGOW,1995-09-15 03:00,ZGOW 150300Z AUTO 09006KT 10SM 31/22 A2980 RMK SLP094 T03120215 57002 IEM_DS3505
ZGOW,1995-09-15 04:00,ZGOW 150400Z AUTO 06008KT 7SM 32/23 A2980 RMK SLP096 T03200230 IEM_DS3505
ZGOW,1995-09-15 05:00,ZGOW 150500Z AUTO 07006KT 7SM 33/22 A2977 RMK SLP085 T03300220 IEM_DS3505
ZGOW,1995-09-15 06:00,ZGOW 150600Z AUTO 07004KT 9SM 32/21 A2974 RMK SLP073 T03220208 57021 IEM_DS3505
ZGOW,1995-09-15 07:00,ZGOW 150700Z AUTO 10006KT 7SM 33/21 A2974 RMK SLP075 T03300210 IEM_DS3505
ZGOW,1995-09-15 08:00,ZGOW 150800Z AUTO 09004KT 7SM 31/21 A2974 RMK SLP075 T03100210 IEM_DS3505
ZGOW,1995-09-15 09:00,ZGOW 150900Z AUTO 14008KT 6SM 30/23 A2974 RMK SLP070 T03010232 57003 IEM_DS3505
ZGOW,1995-09-15 10:00,ZGOW 151000Z AUTO 00000KT 7SM 29/24 A2974 RMK SLP075 T02900240 IEM_DS3505
ZGOW,1995-09-15 11:00,ZGOW 151100Z AUTO 00000KT 6SM 28/24 A2974 RMK SLP075 T02800240 IEM_DS3505
ZGOW,1995-09-15 12:00,ZGOW 151200Z AUTO 09006KT 9SM 28/23 A2977 RMK SLP082 T02840230 52012 IEM_DS3505
ZGOW,1995-09-15 14:00,ZGOW 151400Z AUTO 06008KT 7SM 28/24 A2977 RMK SLP085 T02800240 IEM_DS3505
ZGOW,1995-09-15 15:00,ZGOW 151500Z AUTO 04004KT 7SM 28/24 A2978 RMK SLP088 T02760239 52006 IEM_DS3505
ZGOW,1995-09-15 18:00,ZGOW 151800Z AUTO 04004KT 7SM 27/24 A2976 RMK SLP082 T02740237 57006 IEM_DS3505
ZGOW,1995-09-15 21:00,ZGOW 152100Z AUTO 07004KT 4SM 26/24 A2977 RMK SLP085 T02650241 52003 IEM_DS3505
ZGOW,1995-09-15 22:00,ZGOW 152200Z AUTO 00000KT 7SM 26/23 A2977 RMK SLP085 T02600230 IEM_DS3505
ZGOW,1995-09-16 00:00,ZGOW 160000Z AUTO 09006KT 7SM 27/22 A2980 RMK SLP101 T02700221 52016 IEM_DS3505
ZGOW,1995-09-16 01:00,ZGOW 160100Z AUTO 07006KT 7SM 29/22 A2983 RMK SLP106 T02900220 IEM_DS3505
ZGOW,1995-09-16 02:00,ZGOW 160200Z AUTO 07006KT 6SM 30/22 A2983 RMK SLP106 T03000220 IEM_DS3505
ZGOW,1995-09-16 03:00,ZGOW 160300Z AUTO 09006KT 7SM 30/22 A2983 RMK SLP105 T02990223 52004 IEM_DS3505
ZGOW,1995-09-16 04:00,ZGOW 160400Z AUTO 03006KT 7SM 31/22 A2980 RMK SLP096 T03100220 IEM_DS3505
ZGOW,1995-09-16 05:00,ZGOW 160500Z AUTO 08006KT 7SM 31/22 A2980 RMK SLP096 T03100220 IEM_DS3505
ZGOW,1995-09-16 06:00,ZGOW 160600Z AUTO 16006KT 9SM 31/22 A2977 RMK SLP086 T03070216 57019 IEM_DS3505
ZGOW,1995-09-16 07:00,ZGOW 160700Z AUTO 08008KT 6SM 31/24 A2977 RMK SLP085 T03100240 IEM_DS3505
ZGOW,1995-09-16 08:00,ZGOW 160800Z AUTO 12010KT 6SM 30/24 A2977 RMK SLP085 T03000240 IEM_DS3505
ZGOW,1995-09-16 09:00,ZGOW 160900Z AUTO 14004KT 5SM 28/23 A2980 RMK SLP091 T02810232 52005 IEM_DS3505
ZGOW,1995-09-16 10:00,ZGOW 161000Z AUTO 08004KT 7SM 28/22 A2980 RMK SLP096 T02800220 IEM_DS3505
ZGOW,1995-09-16 11:00,ZGOW 161100Z AUTO 06010KT 7SM 27/23 A2983 RMK SLP106 T02700230 IEM_DS3505
ZGOW,1995-09-16 12:00,ZGOW 161200Z AUTO 09006KT 5SM 27/21 A2983 RMK 60004 SLP105 T02680210 52014 IEM_DS3505
ZGOW,1995-09-16 13:00,ZGOW 161300Z AUTO 06010KT 6SM 27/19 A2985 RMK SLP113 T02700190 IEM_DS3505
ZGOW,1995-09-16 15:00,ZGOW 161500Z AUTO 04006KT 6SM 26/20 A2985 RMK SLP113 T02630196 52008 IEM_DS3505
ZGOW,1995-09-16 18:00,ZGOW 161800Z AUTO 04002KT 7SM 26/22 A2983 RMK SLP107 T02560219 57006 IEM_DS3505
ZGOW,1995-09-16 21:00,ZGOW 162100Z AUTO 04006KT 8SM 25/18 A2985 RMK 70004 SLP109 T02540185 52002 IEM_DS3505
ZGOW,1995-09-16 22:00,ZGOW 162200Z AUTO 00000KT 7SM 25/19 A2985 RMK SLP113 T02500190 IEM_DS3505
ZGOW,1995-09-16 23:00,ZGOW 162300Z AUTO 03004KT 7SM 25/19 A2988 RMK SLP123 T02500190 IEM_DS3505
ZGOW,1995-09-17 00:00,ZGOW 170000Z AUTO 09004KT 7SM 26/20 A2988 RMK 70004 SLP129 T02580198 52020 IEM_DS3505
ZGOW,1995-09-17 01:00,ZGOW 170100Z AUTO 06006KT 6SM 26/19 A2991 RMK SLP133 T02600190 IEM_DS3505
ZGOW,1995-09-17 02:00,ZGOW 170200Z AUTO 03010KT 6SM 27/19 A2991 RMK SLP133 T02700190 IEM_DS3505
ZGOW,1995-09-17 03:00,ZGOW 170300Z AUTO 04006KT 7SM 29/19 A2991 RMK SLP122 T02900189 57007 IEM_DS3505
ZGOW,1995-09-17 05:00,ZGOW 170500Z AUTO 04010KT 6SM 30/18 A2985 RMK SLP113 T03000180 IEM_DS3505
ZGOW,1995-09-17 06:00,ZGOW 170600Z AUTO 09004KT 7SM 30/19 A2983 RMK SLP104 T02990189 57018 IEM_DS3505
ZGOW,1995-09-17 07:00,ZGOW 170700Z AUTO 06006KT 6SM 28/21 A2983 RMK SLP106 T02800210 IEM_DS3505
ZGOW,1995-09-17 08:00,ZGOW 170800Z AUTO 10008KT 3SM 27/21 A2983 RMK SLP106 T02700210 IEM_DS3505
ZGOW,1995-09-17 09:00,ZGOW 170900Z AUTO 14008KT 6SM 27/20 A2983 RMK SLP104 T02660202 54000 IEM_DS3505
ZGOW,1995-09-17 10:00,ZGOW 171000Z AUTO 06012KT 7SM 27/18 A2983 RMK SLP106 T02700180 IEM_DS3505
ZGOW,1995-09-17 11:00,ZGOW 171100Z AUTO 06012KT 7SM 27/18 A2985 RMK SLP113 T02700180 IEM_DS3505
ZGOW,1995-09-17 12:00,ZGOW 171200Z AUTO 09008KT 9SM 26/17 A2988 RMK SLP120 T02590173 52016 IEM_DS3505
ZGOW,1995-09-17 13:00,ZGOW 171300Z AUTO 05014KT 7SM 26/17 A2988 RMK SLP123 T02600170 IEM_DS3505
ZGOW,1995-09-17 15:00,ZGOW 171500Z AUTO 04008KT 8SM 25/18 A2990 RMK SLP131 T02500182 52011 IEM_DS3505
ZGOW,1995-09-17 18:00,ZGOW 171800Z AUTO 04006KT 8SM 24/17 A2988 RMK SLP124 T02440170 57007 IEM_DS3505
ZGOW,1995-09-17 21:00,ZGOW 172100Z AUTO 04004KT 7SM 23/17 A2989 RMK SLP125 T02320174 52001 IEM_DS3505
ZGOW,1995-09-17 22:00,ZGOW 172200Z AUTO 36006KT 6SM 23/15 A2991 RMK SLP133 T02300150 IEM_DS3505
ZGOW,1995-09-17 23:00,ZGOW 172300Z AUTO 35006KT 6SM 23/16 A2991 RMK SLP133 T02300160 IEM_DS3505
ZGOW,1995-09-18 00:00,ZGOW 180000Z AUTO 04006KT 9SM 25/18 A2992 RMK SLP136 T02460181 52011 IEM_DS3505
ZGOW,1995-09-18 01:00,ZGOW 180100Z AUTO 03006KT 7SM 26/16 A2994 RMK SLP143 T02600160 IEM_DS3505
ZGOW,1995-09-18 02:00,ZGOW 180200Z AUTO 06010KT 7SM 27/16 A2997 RMK SLP153 T02700160 IEM_DS3505
ZGOW,1995-09-18 03:00,ZGOW 180300Z AUTO 04006KT 10SM 28/17 A2994 RMK SLP131 T02840172 57005 IEM_DS3505
ZGOW,1995-09-18 04:00,ZGOW 180400Z AUTO 06012KT 7SM 29/17 A2988 RMK SLP123 T02900170 IEM_DS3505
ZGOW,1995-09-18 05:00,ZGOW 180500Z AUTO 05010KT 7SM 29/17 A2985 RMK SLP113 T02900170 IEM_DS3505
ZGOW,1995-09-18 06:00,ZGOW 180600Z AUTO 09010KT 12SM 29/18 A2985 RMK SLP110 T02880175 57021 IEM_DS3505
ZGOW,1995-09-18 07:00,ZGOW 180700Z AUTO 08012KT 7SM 29/18 A2983 RMK SLP106 T02900180 IEM_DS3505
ZGOW,1995-09-18 08:00,ZGOW 180800Z AUTO 07012KT 7SM 28/19 A2983 RMK SLP106 T02800190 IEM_DS3505
ZGOW,1995-09-18 09:00,ZGOW 180900Z AUTO 09012KT 9SM 27/18 A2983 RMK SLP104 T02700185 57006 IEM_DS3505
ZGOW,1995-09-18 10:00,ZGOW 181000Z AUTO 05010KT 7SM 26/19 A2983 RMK SLP106 T02600190 IEM_DS3505
ZGOW,1995-09-18 11:00,ZGOW 181100Z AUTO 08012KT 7SM 26/18 A2985 RMK SLP113 T02600180 IEM_DS3505
ZGOW,1995-09-18 12:00,ZGOW 181200Z AUTO 07006KT 8SM 25/18 A2985 RMK SLP118 T02540185 52014 IEM_DS3505
ZGOW,1995-09-18 15:00,ZGOW 181500Z AUTO 07008KT 7SM 25/18 A2988 RMK SLP123 T02470179 52005 IEM_DS3505
ZGOW,1995-09-18 18:00,ZGOW 181800Z AUTO 04008KT 7SM 24/16 A2988 RMK SLP122 T02360157 57001 IEM_DS3505
ZGOW,1995-09-18 21:00,ZGOW 182100Z AUTO 04004KT 6SM 22/17 A2983 RMK SLP121 T02160172 57001 IEM_DS3505
ZGOW,1995-09-18 22:00,ZGOW 182200Z AUTO 00000KT 6SM 21/17 A2985 RMK SLP113 T02100170 IEM_DS3505
ZGOW,1995-09-19 00:00,ZGOW 190000Z AUTO 04004KT 7SM 23/17 A2988 RMK SLP127 T02320169 52006 IEM_DS3505
ZGOW,1995-09-19 01:00,ZGOW 190100Z AUTO 36004KT 6SM 24/15 A2991 RMK SLP133 T02400150 IEM_DS3505
ZGOW,1995-09-19 02:00,ZGOW 190200Z AUTO 01006KT 6SM 27/15 A2991 RMK SLP133 T02700150 IEM_DS3505
ZGOW,1995-09-19 03:00,ZGOW 190300Z AUTO 09008KT 7SM 27/15 A2988 RMK SLP125 T02720153 57002 IEM_DS3505
ZGOW,1995-09-19 04:00,ZGOW 190400Z AUTO 02006KT 6SM 28/16 A2988 RMK SLP123 T02800160 IEM_DS3505
ZGOW,1995-09-19 05:00,ZGOW 190500Z AUTO 06008KT 6SM 28/17 A2985 RMK SLP113 T02800170 IEM_DS3505
ZGOW,1995-09-19 06:00,ZGOW 190600Z AUTO 07008KT 9SM 27/17 A2985 RMK SLP109 T02710173 57016 IEM_DS3505
ZGOW,1995-09-19 08:00,ZGOW 190800Z AUTO 06008KT 6SM 27/19 A2983 RMK SLP106 T02700190 IEM_DS3505
ZGOW,1995-09-19 09:00,ZGOW 190900Z AUTO 14006KT 11SM 26/19 A2983 RMK SLP105 T02650193 57004 IEM_DS3505
ZGOW,1995-09-19 12:00,ZGOW 191200Z AUTO 09004KT 7SM 25/21 A2988 RMK SLP121 T02540206 52016 IEM_DS3505
ZGOW,1995-09-19 13:00,ZGOW 191300Z AUTO 05008KT 7SM 25/21 A2991 RMK SLP133 T02500210 IEM_DS3505
ZGOW,1995-09-19 15:00,ZGOW 191500Z AUTO 04006KT 6SM 25/21 A2988 RMK SLP124 T02490210 52003 IEM_DS3505
ZGOW,1995-09-19 18:00,ZGOW 191800Z AUTO 04004KT 6SM 25/19 A2985 RMK SLP114 T02490192 57010 IEM_DS3505
ZGOW,1995-09-19 21:00,ZGOW 192100Z AUTO 36002KT 5SM 24/20 A2985 RMK SLP113 T02370200 57001 IEM_DS3505
ZGOW,1995-09-19 22:00,ZGOW 192200Z AUTO 35006KT 7SM 23/19 RMK T02300190 IEM_DS3505
ZGOW,1995-09-19 23:00,ZGOW 192300Z AUTO 36006KT 7SM 23/19 A2988 RMK SLP123 T02300190 IEM_DS3505
ZGOW,1995-09-20 00:00,ZGOW 200000Z AUTO 04008KT 6SM 22/20 A2991 RMK 60001 70001 SLP128 T02190199 52015 IEM_DS3505
ZGOW,1995-09-20 01:00,ZGOW 200100Z AUTO 03006KT 7SM 22/19 A2991 RMK SLP133 T02200190 IEM_DS3505
ZGOW,1995-09-20 03:00,ZGOW 200300Z AUTO 04006KT 6SM 22/20 A2991 RMK SLP136 T02220200 52008 IEM_DS3505
ZGOW,1995-09-20 05:00,ZGOW 200500Z AUTO 02004KT 7SM 22/20 A2988 RMK SLP123 T02200200 IEM_DS3505
ZGOW,1995-09-20 06:00,ZGOW 200600Z AUTO 04006KT 5SM 22/20 A2985 RMK 60008 SLP115 T02220200 57021 IEM_DS3505
ZGOW,1995-09-20 07:00,ZGOW 200700Z AUTO 00000KT 7SM 23/19 A2985 RMK SLP113 T02300190 IEM_DS3505
ZGOW,1995-09-20 08:00,ZGOW 200800Z AUTO 02006KT 7SM 23/19 A2985 RMK SLP113 T02300190 IEM_DS3505
ZGOW,1995-09-20 09:00,ZGOW 200900Z AUTO 04008KT 6SM 22/20 A2985 RMK SLP113 T02250199 57002 IEM_DS3505
ZGOW,1995-09-20 10:00,ZGOW 201000Z AUTO 02008KT 1 1/2SM 21/20 A2985 RMK SLP113 T02100200 IEM_DS3505
ZGOW,1995-09-20 11:00,ZGOW 201100Z AUTO 01006KT 2SM 21/19 A2988 RMK SLP123 T02100190 IEM_DS3505
ZGOW,1995-09-20 12:00,ZGOW 201200Z AUTO 04006KT 6SM 21/20 A2991 RMK 60004 SLP128 T02090195 52015 IEM_DS3505
ZGOW,1995-09-20 13:00,ZGOW 201300Z AUTO 06006KT 7SM 21/19 A2991 RMK SLP133 T02100190 IEM_DS3505
ZGOW,1995-09-20 14:00,ZGOW 201400Z AUTO 01006KT 7SM 21/19 A2991 RMK SLP133 T02100190 IEM_DS3505
ZGOW,1995-09-20 15:00,ZGOW 201500Z AUTO 04010KT 7SM 21/19 A2989 RMK SLP127 T02090188 57001 IEM_DS3505
ZGOW,1995-09-20 18:00,ZGOW 201800Z AUTO 02006KT 6SM 21/18 A2985 RMK 60000 SLP112 T02090180 57015 IEM_DS3505
ZGOW,1995-09-20 21:00,ZGOW 202100Z AUTO 00000KT 7SM 20/18 A2983 RMK SLP106 T02000180 IEM_DS3505
ZGOW,1995-09-20 22:00,ZGOW 202200Z AUTO 36006KT 7SM 21/17 A2983 RMK SLP106 T02100170 IEM_DS3505
ZGOW,1995-09-20 23:00,ZGOW 202300Z AUTO 35008KT 7SM 22/17 A2983 RMK SLP106 T02200170 IEM_DS3505
ZGOW,1995-09-21 00:00,ZGOW 210000Z AUTO 04004KT 8SM 22/19 A2985 RMK 70012 SLP111 T02160191 52006 IEM_DS3505
ZGOW,1995-09-21 01:00,ZGOW 210100Z AUTO 36004KT 7SM 22/17 A2985 RMK SLP113 T02200170 IEM_DS3505
ZGOW,1995-09-21 02:00,ZGOW 210200Z AUTO 01006KT 7SM 23/19 A2985 RMK SLP113 T02300190 IEM_DS3505
ZGOW,1995-09-21 03:00,ZGOW 210300Z AUTO 04006KT 5SM 23/20 A2984 RMK SLP110 T02340195 57001 IEM_DS3505
ZGOW,1995-09-21 04:00,ZGOW 210400Z AUTO 02008KT 7SM 24/19 A2983 RMK SLP106 T02400190 IEM_DS3505
ZGOW,1995-09-21 05:00,ZGOW 210500Z AUTO 02012KT 7SM 24/19 A2980 RMK SLP096 T02400190 IEM_DS3505
ZGOW,1995-09-21 06:00,ZGOW 210600Z AUTO 04010KT 17SM 25/19 A2977 RMK 60001 SLP081 T02520192 57029 IEM_DS3505
ZGOW,1995-09-21 07:00,ZGOW 210700Z AUTO 36010KT 7SM 25/18 A2974 RMK SLP075 T02500180 IEM_DS3505
ZGOW,1995-09-21 08:00,ZGOW 210800Z AUTO 36008KT 7SM 24/19 A2974 RMK SLP075 T02400190 IEM_DS3505
ZGOW,1995-09-21 09:00,ZGOW 210900Z AUTO 04010KT 10SM 24/19 A2974 RMK SLP075 T02380193 57006 IEM_DS3505
ZGOW,1995-09-21 10:00,ZGOW 211000Z AUTO 01006KT 7SM 21/20 A2974 RMK SLP075 T02100200 IEM_DS3505
ZGOW,1995-09-21 11:00,ZGOW 211100Z AUTO 03014KT 7SM 20/19 A2974 RMK SLP075 T02000190 IEM_DS3505
ZGOW,1995-09-21 12:00,ZGOW 211200Z AUTO 02004KT 7SM 22/20 A2977 RMK SLP085 T02250200 52010 IEM_DS3505
ZGOW,1995-09-21 13:00,ZGOW 211300Z AUTO 33004KT 7SM 22/20 A2977 RMK SLP085 T02200200 IEM_DS3505
ZGOW,1995-09-21 15:00,ZGOW 211500Z AUTO 04004KT 7SM 22/19 A2977 RMK SLP084 T02240194 57001 IEM_DS3505
ZGOW,1995-09-21 18:00,ZGOW 211800Z AUTO 04004KT 7SM 21/19 A2970 RMK SLP063 T02120187 57021 IEM_DS3505
ZGOW,1995-09-21 21:00,ZGOW 212100Z AUTO 00000KT 7SM 21/18 A2971 RMK 70001 SLP068 T02090179 52005 IEM_DS3505
ZGOW,1995-09-21 22:00,ZGOW 212200Z AUTO 30006KT 6SM 21/18 A2974 RMK SLP075 T02100180 IEM_DS3505
ZGOW,1995-09-21 23:00,ZGOW 212300Z AUTO 30004KT 6SM 21/17 A2974 RMK SLP075 T02100170 IEM_DS3505
ZGOW,1995-09-22 00:00,ZGOW 220000Z AUTO 29002KT 11SM 24/17 A2977 RMK 70001 SLP085 T02430171 52017 IEM_DS3505
ZGOW,1995-09-22 01:00,ZGOW 220100Z AUTO 32008KT 6SM 25/17 A2977 RMK SLP085 T02500170 IEM_DS3505
ZGOW,1995-09-22 02:00,ZGOW 220200Z AUTO 30008KT 6SM 26/17 A2977 RMK SLP085 T02600170 IEM_DS3505
ZGOW,1995-09-22 03:00,ZGOW 220300Z AUTO 02004KT 14SM 29/16 A2977 RMK SLP083 T02920165 57002 IEM_DS3505
ZGOW,1995-09-22 04:00,ZGOW 220400Z AUTO 29008KT 6SM 29/17 A2977 RMK SLP085 T02900170 IEM_DS3505
ZGOW,1995-09-22 05:00,ZGOW 220500Z AUTO 30006KT 6SM 30/17 A2974 RMK SLP075 T03000170 IEM_DS3505
ZGOW,1995-09-22 06:00,ZGOW 220600Z AUTO 02006KT 6SM 31/18 A2970 RMK SLP063 T03070179 57020 IEM_DS3505
ZGOW,1995-09-22 07:00,ZGOW 220700Z AUTO 27008KT 7SM 31/17 A2968 RMK SLP055 T03100170 IEM_DS3505
ZGOW,1995-09-22 09:00,ZGOW 220900Z AUTO 32008KT 9SM 31/20 A2969 RMK SLP059 T03090203 57004 IEM_DS3505
ZGOW,1995-09-22 11:00,ZGOW 221100Z AUTO 18006KT 6SM 27/20 A2971 RMK SLP065 T02700200 IEM_DS3505
ZGOW,1995-09-22 12:00,ZGOW 221200Z AUTO 22006KT 8SM 26/21 A2974 RMK SLP076 T02650213 52017 IEM_DS3505
ZGOW,1995-09-22 13:00,ZGOW 221300Z AUTO 00000KT 6SM 25/21 A2977 RMK SLP085 T02500210 IEM_DS3505
ZGOW,1995-09-22 15:00,ZGOW 221500Z AUTO 36004KT 5SM 24/22 A2980 RMK SLP094 T02440219 52018 IEM_DS3505
ZGOW,1995-09-22 18:00,ZGOW 221800Z AUTO 04004KT 4SM 24/22 A2978 RMK SLP088 T02380222 57006 IEM_DS3505
ZGOW,1995-09-22 21:00,ZGOW 222100Z AUTO 04006KT 4SM 23/21 A2980 RMK SLP094 T02320214 52006 IEM_DS3505
ZGOW,1995-09-22 22:00,ZGOW 222200Z AUTO 00000KT 7SM 23/21 A2980 RMK SLP096 T02300210 IEM_DS3505
ZGOW,1995-09-22 23:00,ZGOW 222300Z AUTO 30004KT 6SM 24/21 A2983 RMK SLP106 T02400210 IEM_DS3505
ZGOW,1995-09-23 00:00,ZGOW 230000Z AUTO 02002KT 7SM 25/21 A2985 RMK SLP112 T02500206 52018 IEM_DS3505
ZGOW,1995-09-23 01:00,ZGOW 230100Z AUTO 00000KT 7SM 26/21 A2985 RMK SLP113 T02600210 IEM_DS3505
ZGOW,1995-09-23 02:00,ZGOW 230200Z AUTO 00000KT 7SM 26/21 A2985 RMK SLP113 T02600210 IEM_DS3505
ZGOW,1995-09-23 03:00,ZGOW 230300Z AUTO 02004KT 7SM 27/21 A2985 RMK SLP115 T02710208 52003 IEM_DS3505
ZGOW,1995-09-23 04:00,ZGOW 230400Z AUTO 00000KT 7SM 28/21 A2985 RMK SLP113 T02800210 IEM_DS3505
ZGOW,1995-09-23 05:00,ZGOW 230500Z AUTO 16004KT 7SM 28/21 A2983 RMK SLP106 T02800210 IEM_DS3505
ZGOW,1995-09-23 06:00,ZGOW 230600Z AUTO 18006KT 11SM 29/20 A2983 RMK SLP098 T02860198 57017 IEM_DS3505
ZGOW,1995-09-23 07:00,ZGOW 230700Z AUTO 17008KT 7SM 29/19 A2980 RMK SLP096 T02900190 IEM_DS3505
ZGOW,1995-09-23 08:00,ZGOW 230800Z AUTO 15010KT 6SM 29/18 A2980 RMK SLP096 T02900180 IEM_DS3505
ZGOW,1995-09-23 09:00,ZGOW 230900Z AUTO 20004KT 8SM 28/19 A2983 RMK SLP096 T02770191 57002 IEM_DS3505
ZGOW,1995-09-23 10:00,ZGOW 231000Z AUTO 15006KT 6SM 26/20 A2983 RMK SLP106 T02600200 IEM_DS3505
ZGOW,1995-09-23 12:00,ZGOW 231200Z AUTO 18004KT 7SM 26/20 A2985 RMK SLP113 T02550205 52017 IEM_DS3505
ZGOW,1995-09-23 13:00,ZGOW 231300Z AUTO 00000KT 6SM 24/22 A2988 RMK SLP123 T02400220 IEM_DS3505
ZGOW,1995-09-23 15:00,ZGOW 231500Z AUTO 25004KT 6SM 25/22 A2990 RMK SLP128 T02470220 52015 IEM_DS3505
ZGOW,1995-09-23 18:00,ZGOW 231800Z AUTO 00000KT 4SM 24/21 A2988 RMK SLP123 T02390213 57005 IEM_DS3505
ZGOW,1995-09-23 21:00,ZGOW 232100Z AUTO 04004KT 2 1/2SM 23/21 A2988 RMK SLP123 T02290211 54000 IEM_DS3505
ZGOW,1995-09-23 22:00,ZGOW 232200Z AUTO 00000KT 2SM 22/21 A2988 RMK SLP123 T02200210 IEM_DS3505
ZGOW,1995-09-23 23:00,ZGOW 232300Z AUTO 00000KT 3SM 23/21 A2991 RMK SLP133 T02300210 IEM_DS3505
ZGOW,1995-09-24 00:00,ZGOW 240000Z AUTO 36002KT 4SM 24/21 A2991 RMK SLP138 T02390213 52015 IEM_DS3505
ZGOW,1995-09-24 01:00,ZGOW 240100Z AUTO 01004KT 4SM 26/22 A2994 RMK SLP143 T02600220 IEM_DS3505
ZGOW,1995-09-24 02:00,ZGOW 240200Z AUTO 07004KT 5SM 28/22 A2994 RMK SLP143 T02800220 IEM_DS3505
ZGOW,1995-09-24 03:00,ZGOW 240300Z AUTO 09006KT 5SM 28/22 A2994 RMK SLP140 T02800216 52002 IEM_DS3505
ZGOW,1995-09-24 04:00,ZGOW 240400Z AUTO 10008KT 5SM 29/23 A2991 RMK SLP133 T02900230 IEM_DS3505
ZGOW,1995-09-24 05:00,ZGOW 240500Z AUTO 11010KT 7SM 29/22 A2991 RMK SLP133 T02900220 IEM_DS3505
ZGOW,1995-09-24 06:00,ZGOW 240600Z AUTO 18006KT 6SM 29/22 A2988 RMK SLP120 T02860223 57020 IEM_DS3505
ZGOW,1995-09-24 07:00,ZGOW 240700Z AUTO 11008KT 6SM 28/20 A2985 RMK SLP113 T02800200 IEM_DS3505
ZGOW,1995-09-24 08:00,ZGOW 240800Z AUTO 09006KT 6SM 28/21 A2985 RMK SLP113 T02800210 IEM_DS3505
ZGOW,1995-09-24 09:00,ZGOW 240900Z AUTO 09008KT 6SM 27/18 A2988 RMK SLP119 T02720185 57001 IEM_DS3505
ZGOW,1995-09-24 10:00,ZGOW 241000Z AUTO 12006KT 6SM 27/21 A2988 RMK SLP123 T02700210 IEM_DS3505
ZGOW,1995-09-24 11:00,ZGOW 241100Z AUTO 11006KT 6SM 26/21 A2991 RMK SLP133 T02600210 IEM_DS3505
ZGOW,1995-09-24 12:00,ZGOW 241200Z AUTO 09004KT 6SM 26/22 A2994 RMK SLP137 T02550218 52018 IEM_DS3505
ZGOW,1995-09-24 13:00,ZGOW 241300Z AUTO 00000KT 6SM 25/22 A2997 RMK SLP153 T02500220 IEM_DS3505
ZGOW,1995-09-24 15:00,ZGOW 241500Z AUTO 00000KT 5SM 25/22 A2997 RMK SLP153 T02480224 52016 IEM_DS3505
ZGOW,1995-09-24 18:00,ZGOW 241800Z AUTO 04002KT 3SM 24/22 A2995 RMK SLP145 T02380222 57008 IEM_DS3505
ZGOW,1995-09-24 21:00,ZGOW 242100Z AUTO 04004KT 3SM 23/22 A2997 RMK SLP146 T02330218 52001 IEM_DS3505
ZGOW,1995-09-24 22:00,ZGOW 242200Z AUTO 00000KT 1 1/4SM 23/22 A2997 RMK SLP153 T02300220 IEM_DS3505
ZGOW,1995-09-24 23:00,ZGOW 242300Z AUTO 00000KT 1 1/2SM 23/21 A2997 RMK SLP153 T02300210 IEM_DS3505
ZGOW,1995-09-25 00:00,ZGOW 250000Z AUTO 02002KT 4SM 24/21 A3000 RMK SLP160 T02450213 52014 IEM_DS3505
ZGOW,1995-09-25 01:00,ZGOW 250100Z AUTO 36006KT 5SM 26/20 A3000 RMK SLP163 T02600200 IEM_DS3505
ZGOW,1995-09-25 02:00,ZGOW 250200Z AUTO 04006KT 7SM 28/18 A3000 RMK SLP163 T02800180 IEM_DS3505
ZGOW,1995-09-25 03:00,ZGOW 250300Z AUTO 09004KT 5SM 29/14 A3000 RMK SLP159 T02880143 57001 IEM_DS3505
ZGOW,1995-09-25 04:00,ZGOW 250400Z AUTO 06006KT 7SM 29/16 A2997 RMK SLP153 T02900160 IEM_DS3505
ZGOW,1995-09-25 05:00,ZGOW 250500Z AUTO 06006KT 7SM 29/18 A2997 RMK SLP153 T02900180 IEM_DS3505
ZGOW,1995-09-25 06:00,ZGOW 250600Z AUTO 09004KT 7SM 29/18 A2994 RMK SLP138 T02940177 57021 IEM_DS3505
ZGOW,1995-09-25 07:00,ZGOW 250700Z AUTO 10008KT 7SM 29/20 A2991 RMK SLP133 T02900200 IEM_DS3505
ZGOW,1995-09-25 08:00,ZGOW 250800Z AUTO 12010KT 7SM 28/21 A2991 RMK SLP133 T02800210 IEM_DS3505
ZGOW,1995-09-25 09:00,ZGOW 250900Z AUTO 16006KT 6SM 27/20 A2991 RMK SLP134 T02710203 57004 IEM_DS3505
ZGOW,1995-09-25 10:00,ZGOW 251000Z AUTO 00000KT 6SM 26/21 A2991 RMK SLP133 T02600210 IEM_DS3505
ZGOW,1995-09-25 11:00,ZGOW 251100Z AUTO 09004KT 7SM 26/21 A2994 RMK SLP143 T02600210 IEM_DS3505
ZGOW,1995-09-25 12:00,ZGOW 251200Z AUTO 07006KT 6SM 26/20 A2997 RMK SLP154 T02590203 52020 IEM_DS3505
ZGOW,1995-09-25 13:00,ZGOW 251300Z AUTO 00000KT 7SM 25/19 A2997 RMK SLP153 T02500190 IEM_DS3505
ZGOW,1995-09-25 15:00,ZGOW 251500Z AUTO 09004KT 5SM 25/21 A2998 RMK SLP155 T02460210 52001 IEM_DS3505
ZGOW,1995-09-25 18:00,ZGOW 251800Z AUTO 00000KT 2 1/2SM 23/21 A2995 RMK SLP146 T02330209 57009 IEM_DS3505
ZGOW,1995-09-25 21:00,ZGOW 252100Z AUTO 04004KT 2SM 23/21 A2997 RMK SLP148 T02260209 52002 IEM_DS3505
ZGOW,1995-09-25 22:00,ZGOW 252200Z AUTO 00000KT 2SM 22/20 A2997 RMK SLP153 T02200200 IEM_DS3505
ZGOW,1995-09-26 00:00,ZGOW 260000Z AUTO 04004KT 3SM 25/21 A3000 RMK SLP162 T02470209 52014 IEM_DS3505
ZGOW,1995-09-26 01:00,ZGOW 260100Z AUTO 00000KT 3SM 26/20 A3000 RMK SLP163 T02600200 IEM_DS3505
ZGOW,1995-09-26 02:00,ZGOW 260200Z AUTO 00000KT 4SM 29/20 A3000 RMK SLP163 T02900200 IEM_DS3505
ZGOW,1995-09-26 03:00,ZGOW 260300Z AUTO 09006KT 3SM 29/19 A3000 RMK SLP160 T02920193 57002 IEM_DS3505
ZGOW,1995-09-26 04:00,ZGOW 260400Z AUTO 08008KT 4SM 31/21 A3000 RMK SLP163 T03100210 IEM_DS3505
ZGOW,1995-09-26 05:00,ZGOW 260500Z AUTO 08008KT 4SM 30/18 A2997 RMK SLP153 T03000180 IEM_DS3505
ZGOW,1995-09-26 06:00,ZGOW 260600Z AUTO 16006KT 4SM 30/19 A2993 RMK SLP141 T03020192 57019 IEM_DS3505
ZGOW,1995-09-26 07:00,ZGOW 260700Z AUTO 10010KT 7SM 30/21 A2994 RMK SLP143 T03000210 IEM_DS3505
ZGOW,1995-09-26 08:00,ZGOW 260800Z AUTO 08010KT 7SM 29/19 A2991 RMK SLP133 T02900190 IEM_DS3505
ZGOW,1995-09-26 09:00,ZGOW 260900Z AUTO 11006KT 4SM 28/18 A2993 RMK SLP141 T02790183 54000 IEM_DS3505
ZGOW,1995-09-26 10:00,ZGOW 261000Z AUTO 09006KT 7SM 27/20 A2994 RMK SLP143 T02700200 IEM_DS3505
ZGOW,1995-09-26 11:00,ZGOW 261100Z AUTO 08006KT 7SM 27/19 A2997 RMK SLP153 T02700190 IEM_DS3505
ZGOW,1995-09-26 12:00,ZGOW 261200Z AUTO 09006KT 7SM 26/20 A2997 RMK SLP158 T02590201 52017 IEM_DS3505
ZGOW,1995-09-26 13:00,ZGOW 261300Z AUTO 00000KT 7SM 25/22 A3000 RMK SLP163 T02500220 IEM_DS3505
ZGOW,1995-09-26 14:00,ZGOW 261400Z AUTO 09004KT 7SM 25/22 A3000 RMK SLP163 T02500220 IEM_DS3505
ZGOW,1995-09-26 15:00,ZGOW 261500Z AUTO 04004KT 7SM 25/21 A3000 RMK SLP163 T02530209 52005 IEM_DS3505
ZGOW,1995-09-26 18:00,ZGOW 261800Z AUTO 09002KT 6SM 24/21 A2996 RMK SLP151 T02360213 57012 IEM_DS3505
ZGOW,1995-09-26 21:00,ZGOW 262100Z AUTO 04002KT 2SM 23/21 A2997 RMK SLP146 T02260209 57005 IEM_DS3505
ZGOW,1995-09-26 22:00,ZGOW 262200Z AUTO 00000KT 2SM 22/21 A2997 RMK SLP153 T02200210 IEM_DS3505
ZGOW,1995-09-26 23:00,ZGOW 262300Z AUTO 00000KT 2 1/2SM 23/21 A2997 RMK SLP153 T02300210 IEM_DS3505
ZGOW,1995-09-27 00:00,ZGOW 270000Z AUTO 04004KT 5SM 25/21 A2997 RMK SLP158 T02460207 52012 IEM_DS3505
ZGOW,1995-09-27 01:00,ZGOW 270100Z AUTO 00000KT 2 1/2SM 26/20 A3000 RMK SLP163 T02600200 IEM_DS3505
ZGOW,1995-09-27 02:00,ZGOW 270200Z AUTO 08008KT 6SM 27/19 A3000 RMK SLP163 T02700190 IEM_DS3505
ZGOW,1995-09-27 03:00,ZGOW 270300Z AUTO 09008KT 6SM 29/17 A3000 RMK SLP158 T02930170 54000 IEM_DS3505
ZGOW,1995-09-27 04:00,ZGOW 270400Z AUTO 08012KT 6SM 30/19 A2997 RMK SLP153 T03000190 IEM_DS3505
ZGOW,1995-09-27 05:00,ZGOW 270500Z AUTO 06014KT 6SM 30/20 A2994 RMK SLP143 T03000200 IEM_DS3505
ZGOW,1995-09-27 06:00,ZGOW 270600Z AUTO 04012KT 16SM 30/21 A2994 RMK SLP143 T02980210 57015 IEM_DS3505
ZGOW,1995-09-27 08:00,ZGOW 270800Z AUTO 07012KT 6SM 30/21 A2991 RMK SLP133 T03000210 IEM_DS3505
ZGOW,1995-09-27 09:00,ZGOW 270900Z AUTO 09006KT 7SM 28/20 A2994 RMK SLP140 T02850205 57003 IEM_DS3505
ZGOW,1995-09-27 10:00,ZGOW 271000Z AUTO 06010KT 6SM 28/20 A2994 RMK SLP143 T02800200 IEM_DS3505
ZGOW,1995-09-27 11:00,ZGOW 271100Z AUTO 06010KT 6SM 27/21 A2997 RMK SLP153 T02700210 IEM_DS3505
ZGOW,1995-09-27 12:00,ZGOW 271200Z AUTO 04006KT 8SM 27/21 A2997 RMK SLP156 T02700210 52016 IEM_DS3505
ZGOW,1995-09-27 13:00,ZGOW 271300Z AUTO 06012KT 6SM 27/21 A3000 RMK SLP163 T02700210 IEM_DS3505
ZGOW,1995-09-27 14:00,ZGOW 271400Z AUTO 06012KT 6SM 26/21 A3000 RMK SLP163 T02600210 IEM_DS3505
ZGOW,1995-09-27 15:00,ZGOW 271500Z AUTO 04008KT 8SM 26/20 A2997 RMK SLP154 T02600201 57002 IEM_DS3505
ZGOW,1995-09-27 18:00,ZGOW 271800Z AUTO 07004KT 7SM 25/19 A2994 RMK SLP144 T02500194 57010 IEM_DS3505
ZGOW,1995-09-27 21:00,ZGOW 272100Z AUTO 00000KT 6SM 23/20 A2993 RMK SLP141 T02320198 57003 IEM_DS3505
ZGOW,1995-09-27 22:00,ZGOW 272200Z AUTO 00000KT 6SM 23/20 A2994 RMK SLP143 T02300200 IEM_DS3505
ZGOW,1995-09-27 23:00,ZGOW 272300Z AUTO 00000KT 6SM 23/20 A2997 RMK SLP153 T02300200 IEM_DS3505
ZGOW,1995-09-28 00:00,ZGOW 280000Z AUTO 04004KT 7SM 26/20 A2997 RMK SLP153 T02550200 52012 IEM_DS3505
ZGOW,1995-09-28 01:00,ZGOW 280100Z AUTO 01006KT 6SM 28/19 A2997 RMK SLP153 T02800190 IEM_DS3505
ZGOW,1995-09-28 02:00,ZGOW 280200Z AUTO 05010KT 6SM 29/20 A2997 RMK SLP153 T02900200 IEM_DS3505
ZGOW,1995-09-28 03:00,ZGOW 280300Z AUTO 04008KT 7SM 29/20 A2997 RMK SLP148 T02940204 57005 IEM_DS3505
ZGOW,1995-09-28 04:00,ZGOW 280400Z AUTO 06012KT 6SM 30/20 A2994 RMK SLP143 T03000200 IEM_DS3505
ZGOW,1995-09-28 05:00,ZGOW 280500Z AUTO 06006KT 6SM 30/21 A2991 RMK SLP133 T03000210 IEM_DS3505
ZGOW,1995-09-28 06:00,ZGOW 280600Z AUTO 09008KT 7SM 31/21 A2991 RMK SLP126 T03060211 57022 IEM_DS3505
ZGOW,1995-09-28 07:00,ZGOW 280700Z AUTO 06010KT 6SM 31/21 A2988 RMK SLP123 T03100210 IEM_DS3505
ZGOW,1995-09-28 08:00,ZGOW 280800Z AUTO 06008KT 6SM 31/22 A2988 RMK SLP123 T03100220 IEM_DS3505
ZGOW,1995-09-28 09:00,ZGOW 280900Z AUTO 04004KT 6SM 29/22 A2988 RMK SLP119 T02940221 57007 IEM_DS3505
ZGOW,1995-09-28 10:00,ZGOW 281000Z AUTO 09006KT 6SM 28/22 A2988 RMK SLP123 T02800220 IEM_DS3505
ZGOW,1995-09-28 12:00,ZGOW 281200Z AUTO 09006KT 6SM 27/23 A2991 RMK SLP138 T02690230 52019 IEM_DS3505
ZGOW,1995-09-28 15:00,ZGOW 281500Z AUTO 09008KT 6SM 26/21 A2994 RMK SLP143 T02650213 52005 IEM_DS3505
ZGOW,1995-09-28 18:00,ZGOW 281800Z AUTO 07004KT 6SM 26/21 A2990 RMK SLP130 T02560213 57013 IEM_DS3505
ZGOW,1995-09-28 21:00,ZGOW 282100Z AUTO 04004KT 5SM 25/22 A2991 RMK SLP130 T02500217 54000 IEM_DS3505
ZGOW,1995-09-28 22:00,ZGOW 282200Z AUTO 03006KT 2 1/2SM 24/22 A2991 RMK SLP133 T02400220 IEM_DS3505
ZGOW,1995-09-28 23:00,ZGOW 282300Z AUTO 05004KT 2 1/2SM 25/21 A2991 RMK SLP133 T02500210 IEM_DS3505
ZGOW,1995-09-29 00:00,ZGOW 290000Z AUTO 04006KT 6SM 26/22 A2994 RMK SLP145 T02630220 52015 IEM_DS3505
ZGOW,1995-09-29 01:00,ZGOW 290100Z AUTO 02006KT 4SM 28/21 A2994 RMK SLP143 T02800210 IEM_DS3505
ZGOW,1995-09-29 02:00,ZGOW 290200Z AUTO 06008KT 7SM 28/21 A2994 RMK SLP143 T02800210 IEM_DS3505
ZGOW,1995-09-29 03:00,ZGOW 290300Z AUTO 09008KT 5SM 29/22 A2991 RMK SLP131 T02930216 57014 IEM_DS3505
ZGOW,1995-09-29 04:00,ZGOW 290400Z AUTO 04006KT 6SM 30/21 A2988 RMK SLP123 T03000210 IEM_DS3505
ZGOW,1995-09-29 05:00,ZGOW 290500Z AUTO 06010KT 6SM 30/22 A2985 RMK SLP113 T03000220 IEM_DS3505
ZGOW,1995-09-29 06:00,ZGOW 290600Z AUTO 16008KT 6SM 30/22 A2983 RMK SLP105 T02960223 57026 IEM_DS3505
ZGOW,1995-09-29 07:00,ZGOW 290700Z AUTO 09006KT 6SM 30/22 A2985 RMK SLP113 T03000220 IEM_DS3505
ZGOW,1995-09-29 08:00,ZGOW 290800Z AUTO 10010KT 6SM 28/22 A2985 RMK SLP113 T02800220 IEM_DS3505
ZGOW,1995-09-29 09:00,ZGOW 290900Z AUTO 09008KT 6SM 28/22 A2985 RMK SLP111 T02770223 52006 IEM_DS3505
ZGOW,1995-09-29 10:00,ZGOW 291000Z AUTO 09010KT 6SM 27/22 A2985 RMK SLP113 T02700220 IEM_DS3505
ZGOW,1995-09-29 11:00,ZGOW 291100Z AUTO 10004KT 6SM 26/23 A2988 RMK SLP123 T02600230 IEM_DS3505
ZGOW,1995-09-29 12:00,ZGOW 291200Z AUTO 04008KT 6SM 26/22 A2988 RMK SLP127 T02590222 52016 IEM_DS3505
ZGOW,1995-09-29 13:00,ZGOW 291300Z AUTO 04012KT 7SM 26/21 A2991 RMK SLP133 T02600210 IEM_DS3505
ZGOW,1995-09-29 14:00,ZGOW 291400Z AUTO 05012KT 7SM 26/21 A2991 RMK SLP133 T02600210 IEM_DS3505
ZGOW,1995-09-29 15:00,ZGOW 291500Z AUTO 04006KT 6SM 25/21 A2991 RMK SLP133 T02540212 52006 IEM_DS3505
ZGOW,1995-09-29 18:00,ZGOW 291800Z AUTO 09004KT 6SM 25/21 A2987 RMK SLP120 T02480213 57013 IEM_DS3505
ZGOW,1995-09-29 21:00,ZGOW 292100Z AUTO 00000KT 6SM 25/21 A2988 RMK SLP117 T02480210 57003 IEM_DS3505
ZGOW,1995-09-29 22:00,ZGOW 292200Z AUTO 00000KT 6SM 24/21 A2988 RMK SLP123 T02400210 IEM_DS3505
ZGOW,1995-09-29 23:00,ZGOW 292300Z AUTO 00000KT 7SM 26/21 A2988 RMK SLP123 T02600210 IEM_DS3505
ZGOW,1995-09-30 00:00,ZGOW 300000Z AUTO 09008KT 9SM 26/21 A2991 RMK SLP132 T02570209 52015 IEM_DS3505
ZGOW,1995-09-30 02:00,ZGOW 300200Z AUTO 04008KT 7SM 28/21 A2991 RMK SLP133 T02800210 IEM_DS3505
ZGOW,1995-09-30 03:00,ZGOW 300300Z AUTO 09010KT 11SM 28/21 A2991 RMK SLP136 T02770213 52004 IEM_DS3505
ZGOW,1995-09-30 05:00,ZGOW 300500Z AUTO 05010KT 6SM 28/21 A2988 RMK SLP123 T02800210 IEM_DS3505
ZGOW,1995-09-30 06:00,ZGOW 300600Z AUTO 09008KT 14SM 29/22 A2985 RMK SLP114 T02860218 57022 IEM_DS3505
ZGOW,1995-09-30 07:00,ZGOW 300700Z AUTO 06010KT 6SM 29/21 A2985 RMK SLP113 T02900210 IEM_DS3505
ZGOW,1995-09-30 08:00,ZGOW 300800Z AUTO 06012KT 6SM 28/21 A2985 RMK SLP113 T02800210 IEM_DS3505
ZGOW,1995-09-30 09:00,ZGOW 300900Z AUTO 09008KT 8SM 28/22 A2985 RMK SLP114 T02800215 54000 IEM_DS3505
ZGOW,1995-09-30 10:00,ZGOW 301000Z AUTO 05008KT 6SM 28/22 A2988 RMK SLP123 T02800220 IEM_DS3505
ZGOW,1995-09-30 11:00,ZGOW 301100Z AUTO 00000KT 6SM 26/22 A2988 RMK SLP125 T02570217 52011 IEM_DS3505
ZGOW,1995-09-30 12:00,ZGOW 301200Z AUTO 09006KT 6SM 26/22 A2991 RMK SLP125 T02570217 52011 IEM_DS3505
ZGOW,1995-09-30 13:00,ZGOW 301300Z AUTO 05006KT 6SM 25/21 A2991 RMK SLP133 T02500210 IEM_DS3505
ZGOW,1995-09-30 14:00,ZGOW 301400Z AUTO 06008KT 6SM 25/21 A2991 RMK SLP133 T02500210 IEM_DS3505
ZGOW,1995-09-30 15:00,ZGOW 301500Z AUTO 04006KT 7SM 25/22 A2990 RMK SLP131 T02500217 52006 IEM_DS3505
ZGOW,1995-09-30 18:00,ZGOW 301800Z AUTO 04004KT 9SM 25/21 A2989 RMK SLP125 T02470212 57006 IEM_DS3505
ZGOW,1995-09-30 21:00,ZGOW 302100Z AUTO 00000KT 6SM 23/22 A2985 RMK SLP114 T02290217 57011 IEM_DS3505
ZGOW,1995-09-30 22:00,ZGOW 302200Z AUTO 00000KT 6SM 23/21 A2988 RMK SLP123 T02300210 IEM_DS3505
ZGOW,1995-09-30 23:00,ZGOW 302300Z AUTO 00000KT 3SM 24/21 A2988 RMK SLP123 T02400210 IEM_DS3505
ZGOW,1995-10-01 00:00,ZGOW 010000Z AUTO 07002KT 4SM 26/23 A2991 RMK SLP134 T02580226 52020 IEM_DS3505
ZGOW,1995-10-01 01:00,ZGOW 010100Z AUTO 04004KT 7SM 28/24 A2991 RMK SLP132 T02800240 IEM_DS3505
ZGOW,1995-10-01 02:00,ZGOW 010200Z AUTO 06006KT 7SM 28/20 A2991 RMK SLP132 T02800200 IEM_DS3505
ZGOW,1995-10-01 03:00,ZGOW 010300Z AUTO 04008KT 16SM 29/22 A2988 RMK SLP133 T02920217 57001 IEM_DS3505
ZGOW,1995-10-01 04:00,ZGOW 010400Z AUTO 06012KT 6SM 30/21 A2991 RMK SLP132 T03000210 IEM_DS3505
ZGOW,1995-10-01 05:00,ZGOW 010500Z AUTO 06012KT 6SM 30/21 A2988 RMK SLP122 T03000210 IEM_DS3505
ZGOW,1995-10-01 06:00,ZGOW 010600Z AUTO 04012KT 19SM 30/22 A2985 RMK SLP113 T03050215 57020 IEM_DS3505
ZGOW,1995-10-01 07:00,ZGOW 010700Z AUTO 06012G21KT 6SM 30/22 A2985 RMK SLP111 T03000220 IEM_DS3505
ZGOW,1995-10-01 08:00,ZGOW 010800Z AUTO 06012G27KT 6SM 29/22 A2985 RMK SLP111 T02900220 IEM_DS3505
ZGOW,1995-10-01 09:00,ZGOW 010900Z AUTO 09010G25KT 11SM 28/22 A2988 RMK SLP125 T02780222 52012 IEM_DS3505
ZGOW,1995-10-01 11:00,ZGOW 011100Z AUTO 06014KT 6SM 27/22 A2991 RMK SLP132 T02700220 IEM_DS3505
ZGOW,1995-10-01 12:00,ZGOW 011200Z AUTO 04006KT 8SM 26/23 A2991 RMK SLP135 T02620228 52010 IEM_DS3505
ZGOW,1995-10-01 13:00,ZGOW 011300Z AUTO 04010KT 6SM 26/23 A2994 RMK SLP142 T02600230 IEM_DS3505
ZGOW,1995-10-01 14:00,ZGOW 011400Z AUTO 04010KT 6SM 26/23 A2994 RMK SLP142 T02600230 IEM_DS3505
ZGOW,1995-10-01 15:00,ZGOW 011500Z AUTO 09010KT 8SM 26/23 A2994 RMK SLP143 T02600229 52008 IEM_DS3505
ZGOW,1995-10-01 18:00,ZGOW 011800Z AUTO 07008KT 9SM 26/22 A2990 RMK SLP128 T02600225 57015 IEM_DS3505
ZGOW,1995-10-01 21:00,ZGOW 012100Z AUTO 04006KT 9SM 26/22 A2988 RMK SLP118 T02570225 57010 IEM_DS3505
ZGOW,1995-10-01 22:00,ZGOW 012200Z AUTO 05010KT 7SM 26/22 A2988 RMK SLP122 T02600220 IEM_DS3505
ZGOW,1995-10-01 23:00,ZGOW 012300Z AUTO 06006KT 7SM 26/22 A2988 RMK SLP122 T02600220 IEM_DS3505
ZGOW,1995-10-02 00:00,ZGOW 020000Z AUTO 04008KT 12SM 27/22 A2991 RMK SLP135 T02660219 52017 IEM_DS3505
ZGOW,1995-10-02 01:00,ZGOW 020100Z AUTO 07010KT 7SM 27/22 A2988 RMK SLP122 T02700220 IEM_DS3505
ZGOW,1995-10-02 02:00,ZGOW 020200Z AUTO 05010KT 7SM 26/23 RMK T02600230 IEM_DS3505
ZGOW,1995-10-02 03:00,ZGOW 020300Z AUTO 07010KT 10SM 27/23 A2993 RMK SLP137 T02700229 52002 IEM_DS3505
ZGOW,1995-10-02 04:00,ZGOW 020400Z AUTO 05006KT 7SM 28/23 RMK T02800230 IEM_DS3505
ZGOW,1995-10-02 05:00,ZGOW 020500Z AUTO 06012KT 7SM 28/23 A2991 RMK SLP132 T02800230 IEM_DS3505
ZGOW,1995-10-02 07:00,ZGOW 020700Z AUTO 04012KT 7SM 27/23 RMK T02700230 IEM_DS3505
ZGOW,1995-10-02 08:00,ZGOW 020800Z AUTO 04010KT 7SM 27/23 A2985 RMK SLP111 T02700230 IEM_DS3505
ZGOW,1995-10-02 09:00,ZGOW 020900Z AUTO 09008KT 6SM 26/23 A2985 RMK SLP112 T02630232 57002 IEM_DS3505
ZGOW,1995-10-02 10:00,ZGOW 021000Z AUTO 06010KT 7SM 26/24 RMK T02600240 IEM_DS3505
ZGOW,1995-10-02 11:00,ZGOW 021100Z AUTO 06010KT 7SM 26/24 A2985 RMK SLP111 T02600240 IEM_DS3505
ZGOW,1995-10-02 12:00,ZGOW 021200Z AUTO 09010KT 7SM 26/24 A2988 RMK 60000 SLP132 T02630235 52020 IEM_DS3505
ZGOW,1995-10-02 13:00,ZGOW 021300Z AUTO 04008KT 7SM 26/23 A2988 RMK SLP122 T02600230 IEM_DS3505
ZGOW,1995-10-02 14:00,ZGOW 021400Z AUTO 08012KT 7SM 26/23 A2991 RMK SLP132 T02600230 IEM_DS3505
ZGOW,1995-10-02 15:00,ZGOW 021500Z AUTO 07006KT 5SM 26/24 A2994 RMK SLP143 T02600238 52011 IEM_DS3505
ZGOW,1995-10-02 16:00,ZGOW 021600Z AUTO 06008KT 7SM 26/23 A2994 RMK SLP142 T02600230 IEM_DS3505
ZGOW,1995-10-02 17:00,ZGOW 021700Z AUTO 06010KT 7SM 26/23 A2991 RMK SLP132 T02600230 IEM_DS3505
ZGOW,1995-10-02 18:00,ZGOW 021800Z AUTO 09008KT 7SM 26/23 A2991 RMK 60000 SLP126 T02620230 57017 IEM_DS3505
ZGOW,1995-10-02 19:00,ZGOW 021900Z AUTO 06010KT 7SM 26/24 A2988 RMK SLP122 T02600240 IEM_DS3505
ZGOW,1995-10-02 21:00,ZGOW 022100Z AUTO 09010KT 6SM 26/23 A2988 RMK 70004 SLP123 T02580232 57003 IEM_DS3505
ZGOW,1995-10-02 22:00,ZGOW 022200Z AUTO 06010KT 7SM 26/24 A2988 RMK SLP122 T02600240 IEM_DS3505
ZGOW,1995-10-02 23:00,ZGOW 022300Z AUTO 08010KT 7SM 26/23 A2991 RMK SLP132 T02600230 IEM_DS3505
ZGOW,1995-10-03 00:00,ZGOW 030000Z AUTO 04008KT 7SM 26/23 A2991 RMK 60002 70004 SLP136 T02650231 52013 IEM_DS3505
ZGOW,1995-10-03 01:00,ZGOW 030100Z AUTO 06010KT 7SM 27/23 A2991 RMK SLP132 T02700230 IEM_DS3505
ZGOW,1995-10-03 02:00,ZGOW 030200Z AUTO 06012KT 7SM 27/23 A2991 RMK SLP132 T02700230 IEM_DS3505
ZGOW,1995-10-03 03:00,ZGOW 030300Z AUTO 09008KT 11SM 28/24 A2992 RMK SLP134 T02800235 57002 IEM_DS3505
ZGOW,1995-10-03 04:00,ZGOW 030400Z AUTO 07012KT 7SM 29/24 A2991 RMK SLP132 T02900240 IEM_DS3505
ZGOW,1995-10-03 05:00,ZGOW 030500Z AUTO 05010KT 5SM 26/25 RMK T02600250 IEM_DS3505
ZGOW,1995-10-03 06:00,ZGOW 030600Z AUTO 14006KT 11SM 27/24 A2985 RMK 60035 SLP117 T02680244 57017 IEM_DS3505
ZGOW,1995-10-03 07:00,ZGOW 030700Z AUTO 10008KT 7SM 28/24 A2985 RMK SLP111 T02800240 IEM_DS3505
ZGOW,1995-10-03 08:00,ZGOW 030800Z AUTO 08012KT 7SM 28/24 A2985 RMK SLP111 T02800240 IEM_DS3505
ZGOW,1995-10-03 09:00,ZGOW 030900Z AUTO 11008KT 11SM 27/24 A2985 RMK SLP114 T02680245 57003 IEM_DS3505
ZGOW,1995-10-03 10:00,ZGOW 031000Z AUTO 08010KT 7SM 27/25 A2988 RMK SLP122 T02700250 IEM_DS3505
ZGOW,1995-10-03 11:00,ZGOW 031100Z AUTO 06010KT 7SM 27/24 A2988 RMK SLP122 T02700240 IEM_DS3505
ZGOW,1995-10-03 12:00,ZGOW 031200Z AUTO 11008KT 9SM 27/24 A2991 RMK 60002 SLP131 T02660245 52017 IEM_DS3505
ZGOW,1995-10-03 13:00,ZGOW 031300Z AUTO 10012KT 7SM 26/24 A2991 RMK SLP132 T02600240 IEM_DS3505
ZGOW,1995-10-03 14:00,ZGOW 031400Z AUTO 08010KT 7SM 26/24 A2994 RMK SLP142 T02600240 IEM_DS3505
ZGOW,1995-10-03 15:00,ZGOW 031500Z AUTO 09006KT 7SM 26/25 A2993 RMK SLP139 T02650246 52008 IEM_DS3505
ZGOW,1995-10-03 18:00,ZGOW 031800Z AUTO 09002KT 7SM 26/24 A2988 RMK SLP122 T02630244 57017 IEM_DS3505
ZGOW,1995-10-03 21:00,ZGOW 032100Z AUTO 09004KT 5SM 26/25 A2988 RMK 70039 SLP121 T02610247 57001 IEM_DS3505
ZGOW,1995-10-03 22:00,ZGOW 032200Z AUTO 08006KT 2 1/2SM 25/24 A2988 RMK SLP122 T02500240 IEM_DS3505
ZGOW,1995-10-03 23:00,ZGOW 032300Z AUTO 00000KT 7SM 25/25 RMK T02500250 IEM_DS3505
ZGOW,1995-10-04 00:00,ZGOW 040000Z AUTO 18002KT 5SM 26/25 A2996 RMK 60051 70087 SLP147 T02550248 52026 IEM_DS3505
ZGOW,1995-10-04 01:00,ZGOW 040100Z AUTO 06006KT 7SM 26/25 A2994 RMK SLP142 T02600250 IEM_DS3505
ZGOW,1995-10-04 02:00,ZGOW 040200Z AUTO 05006KT 7SM 27/25 A2994 RMK SLP142 T02700250 IEM_DS3505
ZGOW,1995-10-04 03:00,ZGOW 040300Z AUTO 11006KT 10SM 29/25 A2994 RMK SLP141 T02910249 57006 IEM_DS3505
ZGOW,1995-10-04 04:00,ZGOW 040400Z AUTO 03006KT 6SM 29/25 A2994 RMK SLP142 T02900250 IEM_DS3505
ZGOW,1995-10-04 05:00,ZGOW 040500Z AUTO 08010KT 6SM 30/25 A2991 RMK SLP132 T03000250 IEM_DS3505
ZGOW,1995-10-04 06:00,ZGOW 040600Z AUTO 14006KT 11SM 29/25 A2988 RMK 60181 SLP122 T02930248 57019 IEM_DS3505
ZGOW,1995-10-04 07:00,ZGOW 040700Z AUTO 06004KT 7SM RMK IEM_DS3505
ZGOW,1995-10-04 08:00,ZGOW 040800Z AUTO 09008KT 6SM 29/25 A2988 RMK SLP122 T02900250 IEM_DS3505
ZGOW,1995-10-04 09:00,ZGOW 040900Z AUTO 14004KT 9SM 28/24 A2988 RMK SLP120 T02800243 57002 IEM_DS3505
ZGOW,1995-10-04 10:00,ZGOW 041000Z AUTO 10006KT 6SM 27/25 A2988 RMK SLP122 T02700250 IEM_DS3505
ZGOW,1995-10-04 11:00,ZGOW 041100Z AUTO 10006KT 6SM 26/25 A2991 RMK SLP132 T02600250 IEM_DS3505
ZGOW,1995-10-04 12:00,ZGOW 041200Z AUTO 09002KT 9SM 27/24 A2991 RMK SLP134 T02680241 52014 IEM_DS3505
ZGOW,1995-10-04 13:00,ZGOW 041300Z AUTO 00000KT 6SM 26/24 A2994 RMK SLP142 T02600240 IEM_DS3505
ZGOW,1995-10-04 14:00,ZGOW 041400Z AUTO 00000KT 6SM 26/25 A2994 RMK SLP142 T02600250 IEM_DS3505
ZGOW,1995-10-04 15:00,ZGOW 041500Z AUTO 09004KT 7SM 26/24 A2992 RMK SLP135 T02620242 52001 IEM_DS3505
ZGOW,1995-10-04 18:00,ZGOW 041800Z AUTO 07004KT 4SM 26/24 A2989 RMK SLP125 T02570244 57010 IEM_DS3505
ZGOW,1995-10-04 21:00,ZGOW 042100Z AUTO 04002KT 2 1/2SM 26/24 A2988 RMK 70232 SLP124 T02580245 57001 IEM_DS3505
ZGOW,1995-10-04 22:00,ZGOW 042200Z AUTO 05006KT 5SM 26/24 A2991 RMK SLP132 T02600240 IEM_DS3505
ZGOW,1995-10-04 23:00,ZGOW 042300Z AUTO 07006KT 6SM 26/24 A2994 RMK SLP142 T02600240 IEM_DS3505
ZGOW,1995-10-05 00:00,ZGOW 050000Z AUTO 09004KT 4SM 27/24 A2994 RMK 70181 SLP143 T02710245 52019 IEM_DS3505
ZGOW,1995-10-05 01:00,ZGOW 050100Z AUTO 06006KT 7SM 29/24 A2994 RMK SLP142 T02900240 IEM_DS3505
ZGOW,1995-10-05 02:00,ZGOW 050200Z AUTO 06008KT 7SM 29/24 A2994 RMK SLP142 T02900240 IEM_DS3505
ZGOW,1995-10-05 03:00,ZGOW 050300Z AUTO 04008KT 4SM 29/24 A2994 RMK SLP141 T02900240 57002 IEM_DS3505
ZGOW,1995-10-05 04:00,ZGOW 050400Z AUTO 06008KT 6SM 30/24 A2994 RMK SLP142 T03000240 IEM_DS3505
ZGOW,1995-10-05 05:00,ZGOW 050500Z AUTO 05008KT 6SM 30/24 A2991 RMK SLP132 T03000240 IEM_DS3505
ZGOW,1995-10-05 06:00,ZGOW 050600Z AUTO 11006KT 12SM 30/24 A2988 RMK SLP124 T02960243 57017 IEM_DS3505
ZGOW,1995-10-05 07:00,ZGOW 050700Z AUTO 06010KT 6SM 31/24 A2988 RMK SLP122 T03100240 IEM_DS3505
ZGOW,1995-10-05 08:00,ZGOW 050800Z AUTO 05008KT 6SM 30/24 A2988 RMK SLP122 T03000240 IEM_DS3505
ZGOW,1995-10-05 09:00,ZGOW 050900Z AUTO 09006KT 9SM 28/24 A2988 RMK SLP124 T02820237 54000 IEM_DS3505
ZGOW,1995-10-05 10:00,ZGOW 051000Z AUTO 00000KT 6SM 28/24 A2988 RMK SLP122 T02800240 IEM_DS3505
ZGOW,1995-10-05 11:00,ZGOW 051100Z AUTO 00000KT 6SM 27/24 A2991 RMK SLP132 T02700240 IEM_DS3505
ZGOW,1995-10-05 12:00,ZGOW 051200Z AUTO 07006KT 6SM 27/25 A2991 RMK SLP139 T02660246 52015 IEM_DS3505
ZGOW,1995-10-05 13:00,ZGOW 051300Z AUTO 01008KT 6SM 26/24 A2994 RMK SLP142 T02600240 IEM_DS3505
ZGOW,1995-10-05 15:00,ZGOW 051500Z AUTO 07008KT 6SM 26/24 A2997 RMK SLP151 T02590239 52012 IEM_DS3505
ZGOW,1995-10-05 18:00,ZGOW 051800Z AUTO 09010KT 10SM 25/23 A2996 RMK SLP149 T02540234 57002 IEM_DS3505
ZGOW,1995-10-05 21:00,ZGOW 052100Z AUTO 07010KT 7SM 25/23 A2997 RMK 70001 SLP150 T02470226 52001 IEM_DS3505
ZGOW,1995-10-05 22:00,ZGOW 052200Z AUTO 06012KT 7SM 26/21 A2997 RMK SLP152 T02600210 IEM_DS3505
ZGOW,1995-10-05 23:00,ZGOW 052300Z AUTO 05010KT 7SM 26/23 A3000 RMK SLP162 T02600230 IEM_DS3505
ZGOW,1995-10-06 00:00,ZGOW 060000Z AUTO 09010KT 12SM 25/21 A3003 RMK 60000 70001 SLP170 T02480213 52020 IEM_DS3505
ZGOW,1995-10-06 01:00,ZGOW 060100Z AUTO 05012KT 7SM 27/24 A3003 RMK SLP172 T02700240 IEM_DS3505
ZGOW,1995-10-06 02:00,ZGOW 060200Z AUTO 06012KT 7SM 27/21 A3003 RMK SLP172 T02700210 IEM_DS3505
ZGOW,1995-10-06 03:00,ZGOW 060300Z AUTO 09010KT 12SM 27/21 A3003 RMK SLP172 T02670210 52002 IEM_DS3505
ZGOW,1995-10-06 04:00,ZGOW 060400Z AUTO 06010KT 6SM 28/20 A3003 RMK SLP172 T02800200 IEM_DS3505
ZGOW,1995-10-06 06:00,ZGOW 060600Z AUTO 09004KT 12SM 27/21 A2997 RMK SLP154 T02740211 57018 IEM_DS3505
ZGOW,1995-10-06 07:00,ZGOW 060700Z AUTO 06010KT 6SM 28/21 A2997 RMK SLP152 T02800210 IEM_DS3505
ZGOW,1995-10-06 09:00,ZGOW 060900Z AUTO 09008KT 8SM 26/22 A2997 RMK SLP157 T02620217 52003 IEM_DS3505
ZGOW,1995-10-06 10:00,ZGOW 061000Z AUTO 06010KT 7SM 25/21 A3000 RMK SLP162 T02500210 IEM_DS3505
ZGOW,1995-10-06 11:00,ZGOW 061100Z AUTO 04008KT 7SM 25/21 A3003 RMK SLP172 T02500210 IEM_DS3505
ZGOW,1995-10-06 12:00,ZGOW 061200Z AUTO 09008KT 7SM 25/21 A3006 RMK SLP182 T02480212 52025 IEM_DS3505
ZGOW,1995-10-06 13:00,ZGOW 061300Z AUTO 04008KT 6SM 25/20 A3006 RMK SLP182 T02500200 IEM_DS3505
ZGOW,1995-10-06 14:00,ZGOW 061400Z AUTO 05006KT 7SM 24/21 A3006 RMK SLP182 T02400210 IEM_DS3505
ZGOW,1995-10-06 15:00,ZGOW 061500Z AUTO 07006KT 7SM 24/21 A3006 RMK SLP183 T02410212 52001 IEM_DS3505
ZGOW,1995-10-06 18:00,ZGOW 061800Z AUTO 04006KT 6SM 24/21 A3001 RMK SLP167 T02360207 57016 IEM_DS3505
ZGOW,1995-10-06 21:00,ZGOW 062100Z AUTO 36004KT 5SM 23/21 A3000 RMK SLP161 T02300209 57006 IEM_DS3505
ZGOW,1995-10-06 22:00,ZGOW 062200Z AUTO 00000KT 7SM 23/20 A3003 RMK SLP172 T02300200 IEM_DS3505
ZGOW,1995-10-06 23:00,ZGOW 062300Z AUTO 34004KT 7SM 23/20 A3003 RMK SLP172 T02300200 IEM_DS3505
ZGOW,1995-10-07 00:00,ZGOW 070000Z AUTO 36006KT 6SM 24/20 A3006 RMK SLP188 T02370205 52027 IEM_DS3505
ZGOW,1995-10-07 01:00,ZGOW 070100Z AUTO 27004KT 6SM 24/20 A3009 RMK SLP193 T02400200 IEM_DS3505
ZGOW,1995-10-07 02:00,ZGOW 070200Z AUTO 03004KT 7SM 26/20 A3006 RMK SLP182 T02600200 IEM_DS3505
ZGOW,1995-10-07 03:00,ZGOW 070300Z AUTO 04006KT 7SM 27/21 A3006 RMK SLP188 T02700210 54000 IEM_DS3505
ZGOW,1995-10-07 04:00,ZGOW 070400Z AUTO 06006KT 7SM 28/20 A3006 RMK SLP182 T02800200 IEM_DS3505
ZGOW,1995-10-07 05:00,ZGOW 070500Z AUTO 29/21 A3003 RMK SLP172 T02900210 IEM_DS3505
ZGOW,1995-10-07 06:00,ZGOW 070600Z AUTO 07006KT 8SM 28/22 A3000 RMK SLP158 T02840217 57030 IEM_DS3505
ZGOW,1995-10-07 07:00,ZGOW 070700Z AUTO 09006KT 7SM 28/22 A3000 RMK SLP162 T02800220 IEM_DS3505
ZGOW,1995-10-07 08:00,ZGOW 070800Z AUTO 08006KT 7SM 28/21 A2997 RMK SLP152 T02800210 IEM_DS3505
ZGOW,1995-10-07 09:00,ZGOW 070900Z AUTO 09004KT 7SM 27/21 A2997 RMK SLP156 T02690214 57002 IEM_DS3505
ZGOW,1995-10-07 10:00,ZGOW 071000Z AUTO 08006KT 6SM 27/22 A3000 RMK SLP162 T02700220 IEM_DS3505
ZGOW,1995-10-07 11:00,ZGOW 071100Z AUTO 08008KT 6SM 26/21 A3000 RMK SLP162 T02600210 IEM_DS3505
ZGOW,1995-10-07 12:00,ZGOW 071200Z AUTO 09006KT 7SM 26/22 A3003 RMK SLP178 T02590216 52022 IEM_DS3505
ZGOW,1995-10-07 13:00,ZGOW 071300Z AUTO 06008KT 6SM 26/22 A3006 RMK SLP182 T02600220 IEM_DS3505
ZGOW,1995-10-07 15:00,ZGOW 071500Z AUTO 04006KT 7SM 25/22 A3007 RMK SLP186 T02530217 52008 IEM_DS3505
ZGOW,1995-10-07 18:00,ZGOW 071800Z AUTO 04004KT 5SM 24/22 A3001 RMK SLP164 T02380222 57022 IEM_DS3505
ZGOW,1995-10-07 21:00,ZGOW 072100Z AUTO 04002KT 5SM 23/22 A3001 RMK SLP164 T02320215 54000 IEM_DS3505
ZGOW,1995-10-07 22:00,ZGOW 072200Z AUTO 03006KT 6SM 23/20 A3000 RMK SLP162 T02300200 IEM_DS3505
ZGOW,1995-10-07 23:00,ZGOW 072300Z AUTO 36006KT 6SM 25/20 A3003 RMK SLP172 T02500200 IEM_DS3505
ZGOW,1995-10-08 00:00,ZGOW 080000Z AUTO 02004KT 7SM 25/21 A3003 RMK SLP175 T02510212 52011 IEM_DS3505
ZGOW,1995-10-08 01:00,ZGOW 080100Z AUTO 00000KT 6SM 26/21 A3003 RMK SLP172 T02600210 IEM_DS3505
ZGOW,1995-10-08 02:00,ZGOW 080200Z AUTO 28006KT 6SM 27/21 A3003 RMK SLP172 T02700210 IEM_DS3505
ZGOW,1995-10-08 03:00,ZGOW 080300Z AUTO 04004KT 11SM 29/21 A3003 RMK SLP173 T02880214 57002 IEM_DS3505
ZGOW,1995-10-08 04:00,ZGOW 080400Z AUTO 10006KT 6SM 29/21 A3003 RMK SLP172 T02900210 IEM_DS3505
ZGOW,1995-10-08 05:00,ZGOW 080500Z AUTO 11008KT 6SM 30/21 A3000 RMK SLP162 T03000210 IEM_DS3505
ZGOW,1995-10-08 06:00,ZGOW 080600Z AUTO 09006KT 12SM 30/22 A3000 RMK SLP154 T02960221 57019 IEM_DS3505
ZGOW,1995-10-08 07:00,ZGOW 080700Z AUTO 08008KT 6SM 30/21 A2997 RMK SLP152 T03000210 IEM_DS3505
ZGOW,1995-10-08 08:00,ZGOW 080800Z AUTO 05006KT 6SM 29/22 A2997 RMK SLP152 T02900220 IEM_DS3505
ZGOW,1995-10-08 09:00,ZGOW 080900Z AUTO 07008KT 9SM 28/22 A2995 RMK SLP146 T02790215 57008 IEM_DS3505
ZGOW,1995-10-08 10:00,ZGOW 081000Z AUTO 05004KT 6SM 27/21 A2997 RMK SLP152 T02700210 IEM_DS3505
ZGOW,1995-10-08 11:00,ZGOW 081100Z AUTO 07006KT 6SM 26/21 A2997 RMK SLP152 T02600210 IEM_DS3505
ZGOW,1995-10-08 12:00,ZGOW 081200Z AUTO 04006KT 9SM 26/22 A2997 RMK SLP160 T02580218 52014 IEM_DS3505
ZGOW,1995-10-08 13:00,ZGOW 081300Z AUTO 00000KT 6SM 26/21 A3000 RMK SLP162 T02600210 IEM_DS3505
ZGOW,1995-10-08 15:00,ZGOW 081500Z AUTO 07004KT 9SM 26/22 A3002 RMK SLP170 T02580216 52010 IEM_DS3505
ZGOW,1995-10-08 18:00,ZGOW 081800Z AUTO 09004KT 7SM 25/22 A3000 RMK SLP163 T02500222 57007 IEM_DS3505
ZGOW,1995-10-08 21:00,ZGOW 082100Z AUTO 04004KT 5SM 24/22 A2997 RMK SLP154 T02420217 57009 IEM_DS3505
ZGOW,1995-10-08 22:00,ZGOW 082200Z AUTO 00000KT 3SM 24/22 A2997 RMK SLP152 T02400220 IEM_DS3505
ZGOW,1995-10-08 23:00,ZGOW 082300Z AUTO 00000KT 3SM 24/22 A2997 RMK SLP152 T02400220 IEM_DS3505
ZGOW,1995-10-09 00:00,ZGOW 090000Z AUTO 07006KT 6SM 25/22 A2997 RMK SLP165 T02500220 52011 IEM_DS3505
ZGOW,1995-10-09 01:00,ZGOW 090100Z AUTO 05006KT 7SM 26/21 A3003 RMK SLP172 T02600210 IEM_DS3505
ZGOW,1995-10-09 02:00,ZGOW 090200Z AUTO 03006KT 7SM 27/21 A3003 RMK SLP172 T02700210 IEM_DS3505
ZGOW,1995-10-09 03:00,ZGOW 090300Z AUTO 07008KT 6SM 28/21 A3000 RMK SLP163 T02820209 57002 IEM_DS3505
ZGOW,1995-10-09 04:00,ZGOW 090400Z AUTO 07006KT 6SM 28/21 A2997 RMK SLP152 T02800210 IEM_DS3505
ZGOW,1995-10-09 05:00,ZGOW 090500Z AUTO 09006KT 6SM 27/22 A2997 RMK SLP133 T02660215 57006 IEM_DS3505
ZGOW,1995-10-09 06:00,ZGOW 090600Z AUTO 14006KT 6SM 29/22 A2994 RMK SLP139 T02880215 57024 IEM_DS3505
ZGOW,1995-10-09 07:00,ZGOW 090700Z AUTO 08010KT 7SM 29/22 A2991 RMK SLP132 T02900220 IEM_DS3505
ZGOW,1995-10-09 08:00,ZGOW 090800Z AUTO 08008KT 7SM 28/21 A2991 RMK SLP132 T02800210 IEM_DS3505
ZGOW,1995-10-09 09:00,ZGOW 090900Z AUTO 09006KT 6SM 27/22 A2991 RMK SLP133 T02660215 57006 IEM_DS3505
ZGOW,1995-10-09 10:00,ZGOW 091000Z AUTO 06008KT 7SM 27/21 A2991 RMK SLP132 T02700210 IEM_DS3505
ZGOW,1995-10-09 12:00,ZGOW 091200Z AUTO 09008KT 6SM 25/22 A2994 RMK SLP144 T02490215 52011 IEM_DS3505
ZGOW,1995-10-09 13:00,ZGOW 091300Z AUTO 05010KT 6SM 25/21 A2997 RMK SLP152 T02500210 IEM_DS3505
ZGOW,1995-10-09 15:00,ZGOW 091500Z AUTO 09008KT 7SM 25/20 A2999 RMK SLP159 T02490203 52015 IEM_DS3505
ZGOW,1995-10-09 18:00,ZGOW 091800Z AUTO 04008KT 7SM 24/19 A2996 RMK SLP149 T02380191 57010 IEM_DS3505
ZGOW,1995-10-09 21:00,ZGOW 092100Z AUTO 09004KT 9SM 23/18 A2994 RMK SLP147 T02290180 57002 IEM_DS3505
ZGOW,1995-10-09 22:00,ZGOW 092200Z AUTO 04006KT 6SM 22/18 A2997 RMK SLP152 T02200180 IEM_DS3505
ZGOW,1995-10-09 23:00,ZGOW 092300Z AUTO 03006KT 6SM 23/18 A2997 RMK SLP152 T02300180 IEM_DS3505
ZGOW,1995-10-10 00:00,ZGOW 100000Z AUTO 04006KT 12SM 25/18 A3000 RMK SLP164 T02470184 52017 IEM_DS3505
ZGOW,1995-10-10 01:00,ZGOW 100100Z AUTO 01006KT 7SM 26/19 A3000 RMK SLP162 T02600190 IEM_DS3505
ZGOW,1995-10-10 02:00,ZGOW 100200Z AUTO 04008KT 7SM 27/19 A3000 RMK SLP162 T02700190 IEM_DS3505
ZGOW,1995-10-10 03:00,ZGOW 100300Z AUTO 04010KT 14SM 28/19 A3000 RMK SLP160 T02850193 57004 IEM_DS3505
ZGOW,1995-10-10 04:00,ZGOW 100400Z AUTO 06008KT 6SM 29/18 A2997 RMK SLP152 T02900180 IEM_DS3505
ZGOW,1995-10-10 06:00,ZGOW 100600Z AUTO 07010KT 16SM 29/19 A2994 RMK SLP137 T02920189 57023 IEM_DS3505
ZGOW,1995-10-10 07:00,ZGOW 100700Z AUTO 06012KT 6SM 29/20 A2991 RMK SLP132 T02900200 IEM_DS3505
ZGOW,1995-10-10 08:00,ZGOW 100800Z AUTO 07012KT 6SM 28/19 A2991 RMK SLP132 T02800190 IEM_DS3505
ZGOW,1995-10-10 09:00,ZGOW 100900Z AUTO 09008KT 12SM 27/20 A2993 RMK SLP137 T02680203 54000 IEM_DS3505
ZGOW,1995-10-10 10:00,ZGOW 101000Z AUTO 07008KT 6SM 26/19 A2994 RMK SLP142 T02600190 IEM_DS3505
ZGOW,1995-10-10 12:00,ZGOW 101200Z AUTO 09010KT 9SM 26/20 A2997 RMK SLP154 T02560199 52017 IEM_DS3505
ZGOW,1995-10-10 15:00,ZGOW 101500Z AUTO 09012KT 9SM 25/18 A2999 RMK SLP160 T02480182 52006 IEM_DS3505
ZGOW,1995-10-10 18:00,ZGOW 101800Z AUTO 04006KT 10SM 24/17 A2996 RMK SLP148 T02420168 57012 IEM_DS3505
ZGOW,1995-10-10 21:00,ZGOW 102100Z AUTO 04006KT 9SM 23/17 A2997 RMK SLP153 T02330172 52005 IEM_DS3505
ZGOW,1995-10-10 22:00,ZGOW 102200Z AUTO 00000KT 6SM 22/18 A3000 RMK SLP162 T02200180 IEM_DS3505
ZGOW,1995-10-10 23:00,ZGOW 102300Z AUTO 00000KT 6SM 22/19 A3000 RMK SLP162 T02200190 IEM_DS3505
ZGOW,1995-10-11 00:00,ZGOW 110000Z AUTO 07002KT 9SM 24/19 A3000 RMK SLP169 T02380188 52016 IEM_DS3505
ZGOW,1995-10-11 01:00,ZGOW 110100Z AUTO 33004KT 6SM 25/17 A3003 RMK SLP172 T02500170 IEM_DS3505
ZGOW,1995-10-11 02:00,ZGOW 110200Z AUTO 03008KT 6SM 28/18 A3003 RMK SLP172 T02800180 IEM_DS3505
ZGOW,1995-10-11 03:00,ZGOW 110300Z AUTO 04014KT 12SM 29/18 A3003 RMK SLP171 T02860176 52002 IEM_DS3505
ZGOW,1995-10-11 04:00,ZGOW 110400Z AUTO 06010KT 6SM 29/19 A3000 RMK SLP162 T02900190 IEM_DS3505
ZGOW,1995-10-11 05:00,ZGOW 110500Z AUTO 08014KT 6SM 29/19 A3000 RMK SLP162 T02900190 IEM_DS3505
ZGOW,1995-10-11 06:00,ZGOW 110600Z AUTO 09008KT 10SM 29/19 A2997 RMK SLP149 T02900190 57022 IEM_DS3505
ZGOW,1995-10-11 07:00,ZGOW 110700Z AUTO 08014KT 6SM 29/19 A2994 RMK SLP142 T02900190 IEM_DS3505
ZGOW,1995-10-11 08:00,ZGOW 110800Z AUTO 08014KT 6SM 28/20 A2994 RMK SLP142 T02800200 IEM_DS3505
ZGOW,1995-10-11 09:00,ZGOW 110900Z AUTO 09008KT 9SM 27/21 A2994 RMK SLP149 T02670213 54000 IEM_DS3505
ZGOW,1995-10-11 10:00,ZGOW 111000Z AUTO 06012KT 6SM 26/21 A2997 RMK SLP152 T02600210 IEM_DS3505
ZGOW,1995-10-11 11:00,ZGOW 111100Z AUTO 06012KT 6SM 25/21 A2997 RMK SLP152 T02500210 IEM_DS3505
ZGOW,1995-10-11 12:00,ZGOW 111200Z AUTO 09008KT 9SM 25/20 A3000 RMK SLP161 T02530204 52012 IEM_DS3505
ZGOW,1995-10-11 13:00,ZGOW 111300Z AUTO 06010KT 6SM 25/18 A3000 RMK SLP162 T02500180 IEM_DS3505
ZGOW,1995-10-11 14:00,ZGOW 111400Z AUTO 06014KT 6SM 25/19 A3000 RMK SLP162 T02500190 IEM_DS3505
ZGOW,1995-10-11 15:00,ZGOW 111500Z AUTO 09008KT 9SM 25/18 A3002 RMK SLP170 T02500177 52009 IEM_DS3505
ZGOW,1995-10-11 18:00,ZGOW 111800Z AUTO 04006KT 9SM 24/16 A2999 RMK SLP160 T02390155 57010 IEM_DS3505
ZGOW,1995-10-11 21:00,ZGOW 112100Z AUTO 07004KT 9SM 23/16 A3000 RMK SLP161 T02340158 52001 IEM_DS3505
ZGOW,1995-10-11 22:00,ZGOW 112200Z AUTO 00000KT 6SM 23/16 A3000 RMK SLP162 T02300160 IEM_DS3505
ZGOW,1995-10-12 00:00,ZGOW 120000Z AUTO 04006KT 9SM 24/16 A3002 RMK SLP169 T02380163 52008 IEM_DS3505
ZGOW,1995-10-12 01:00,ZGOW 120100Z AUTO 00000KT 6SM 24/17 A3003 RMK SLP172 T02400170 IEM_DS3505
ZGOW,1995-10-12 02:00,ZGOW 120200Z AUTO 06006KT 6SM 26/17 A3003 RMK SLP172 T02600170 IEM_DS3505
ZGOW,1995-10-12 03:00,ZGOW 120300Z AUTO 14006KT 9SM 26/18 A3000 RMK SLP168 T02620182 57001 IEM_DS3505
ZGOW,1995-10-12 05:00,ZGOW 120500Z AUTO 09008KT 6SM 28/20 A3000 RMK SLP162 T02800200 IEM_DS3505
ZGOW,1995-10-12 06:00,ZGOW 120600Z AUTO 09006KT 11SM 28/20 A2997 RMK SLP149 T02790202 57019 IEM_DS3505
ZGOW,1995-10-12 07:00,ZGOW 120700Z AUTO 09012KT 7SM 28/20 A2997 RMK SLP152 T02800200 IEM_DS3505
ZGOW,1995-10-12 08:00,ZGOW 120800Z AUTO 06008KT 7SM 27/21 A2994 RMK SLP142 T02700210 IEM_DS3505
ZGOW,1995-10-12 09:00,ZGOW 120900Z AUTO 09006KT 8SM 26/21 A2997 RMK SLP149 T02620208 54000 IEM_DS3505
ZGOW,1995-10-12 10:00,ZGOW 121000Z AUTO 08008KT 7SM 26/20 A2997 RMK SLP152 T02600200 IEM_DS3505
ZGOW,1995-10-12 11:00,ZGOW 121100Z AUTO 08012KT 7SM 26/21 A2997 RMK SLP152 T02600210 IEM_DS3505
ZGOW,1995-10-12 12:00,ZGOW 121200Z AUTO 09006KT 7SM 25/21 A3000 RMK SLP164 T02500214 52015 IEM_DS3505
ZGOW,1995-10-12 13:00,ZGOW 121300Z AUTO 08012KT 7SM 25/22 A3000 RMK SLP162 T02500220 IEM_DS3505
ZGOW,1995-10-12 14:00,ZGOW 121400Z AUTO 06010KT 7SM 25/21 A3000 RMK SLP162 T02500210 IEM_DS3505
ZGOW,1995-10-12 15:00,ZGOW 121500Z AUTO 07008KT 7SM 25/21 A3001 RMK SLP164 T02470212 54000 IEM_DS3505
ZGOW,1995-10-12 18:00,ZGOW 121800Z AUTO 09008KT 7SM 24/20 A2997 RMK SLP153 T02390199 57011 IEM_DS3505
ZGOW,1995-10-12 21:00,ZGOW 122100Z AUTO 09006KT 7SM 24/19 A2996 RMK SLP148 T02360187 57005 IEM_DS3505
ZGOW,1995-10-12 22:00,ZGOW 122200Z AUTO 08008KT 7SM 23/18 A2997 RMK SLP152 T02300180 IEM_DS3505
ZGOW,1995-10-12 23:00,ZGOW 122300Z AUTO 06006KT 7SM 25/19 A2997 RMK SLP152 T02500190 IEM_DS3505
ZGOW,1995-10-13 00:00,ZGOW 130000Z AUTO 07006KT 11SM 25/18 A3000 RMK SLP161 T02510185 52013 IEM_DS3505
ZGOW,1995-10-13 01:00,ZGOW 130100Z AUTO 06006KT 7SM 26/18 A3000 RMK SLP162 T02600180 IEM_DS3505
ZGOW,1995-10-13 02:00,ZGOW 130200Z AUTO 06006KT 7SM 27/18 A3000 RMK SLP162 T02700180 IEM_DS3505
ZGOW,1995-10-13 03:00,ZGOW 130300Z AUTO 04008KT 7SM 27/19 A3000 RMK SLP153 T02700188 57008 IEM_DS3505
ZGOW,1995-10-13 04:00,ZGOW 130400Z AUTO 08008KT 7SM 28/18 A2994 RMK SLP142 T02800180 IEM_DS3505
ZGOW,1995-10-13 05:00,ZGOW 130500Z AUTO 04006KT 6SM 28/18 A2991 RMK SLP132 T02800180 IEM_DS3505
ZGOW,1995-10-13 06:00,ZGOW 130600Z AUTO 09006KT 9SM 28/20 A2988 RMK SLP126 T02780197 57027 IEM_DS3505
ZGOW,1995-10-13 07:00,ZGOW 130700Z AUTO 11006KT 6SM 28/21 A2988 RMK SLP122 T02800210 IEM_DS3505
ZGOW,1995-10-13 09:00,ZGOW 130900Z AUTO 09006KT 9SM 25/21 A2988 RMK SLP127 T02530208 52001 IEM_DS3505
ZGOW,1995-10-13 10:00,ZGOW 131000Z AUTO 11006KT 7SM 24/21 A2988 RMK SLP122 T02400210 IEM_DS3505
ZGOW,1995-10-13 12:00,ZGOW 131200Z AUTO 04004KT 9SM 24/21 A2992 RMK SLP135 T02440208 52008 IEM_DS3505
ZGOW,1995-10-13 13:00,ZGOW 131300Z AUTO 09006KT 7SM 24/21 A2991 RMK SLP132 T02400210 IEM_DS3505
ZGOW,1995-10-13 14:00,ZGOW 131400Z AUTO 03006KT 7SM 24/21 A2991 RMK SLP132 T02400210 IEM_DS3505
ZGOW,1995-10-13 15:00,ZGOW 131500Z AUTO 06006KT 7SM 24/21 A2991 RMK SLP132 T02400210 IEM_DS3505
ZGOW,1995-10-13 18:00,ZGOW 131800Z AUTO 09004KT 7SM 23/21 A2987 RMK SLP119 T02320208 57013 IEM_DS3505
ZGOW,1995-10-13 21:00,ZGOW 132100Z AUTO 07008KT 9SM 23/18 A2985 RMK SLP113 T02270178 57006 IEM_DS3505
ZGOW,1995-10-13 22:00,ZGOW 132200Z AUTO 00000KT 6SM 22/18 A2985 RMK SLP111 T02200180 IEM_DS3505
ZGOW,1995-10-14 00:00,ZGOW 140000Z AUTO 04006KT 11SM 24/19 A2991 RMK SLP132 T02430190 52019 IEM_DS3505
ZGOW,1995-10-14 01:00,ZGOW 140100Z AUTO 03008KT 6SM 25/18 A2991 RMK SLP132 T02500180 IEM_DS3505
ZGOW,1995-10-14 02:00,ZGOW 140200Z AUTO 04008KT 6SM 26/18 A2988 RMK SLP122 T02600180 IEM_DS3505
ZGOW,1995-10-14 03:00,ZGOW 140300Z AUTO 04008KT 9SM 26/18 A2988 RMK SLP123 T02630185 57009 IEM_DS3505
ZGOW,1995-10-14 04:00,ZGOW 140400Z AUTO 03004KT 6SM 27/18 A2985 RMK SLP111 T02700180 IEM_DS3505
ZGOW,1995-10-14 05:00,ZGOW 140500Z AUTO 12004KT 7SM 28/19 A2985 RMK SLP111 T02800190 IEM_DS3505
ZGOW,1995-10-14 06:00,ZGOW 140600Z AUTO 09002KT 9SM 27/20 A2983 RMK SLP100 T02740198 57023 IEM_DS3505
ZGOW,1995-10-14 07:00,ZGOW 140700Z AUTO 12006KT 6SM 28/20 A2983 RMK SLP105 T02800200 IEM_DS3505
ZGOW,1995-10-14 08:00,ZGOW 140800Z AUTO 12006KT 6SM 26/20 A2983 RMK SLP105 T02600200 IEM_DS3505
ZGOW,1995-10-14 09:00,ZGOW 140900Z AUTO 14006KT 7SM 26/20 A2983 RMK SLP098 T02570204 57002 IEM_DS3505
ZGOW,1995-10-14 10:00,ZGOW 141000Z AUTO 11006KT 6SM 25/21 A2980 RMK SLP094 T02500210 IEM_DS3505
ZGOW,1995-10-14 11:00,ZGOW 141100Z AUTO 10004KT 6SM 25/21 A2983 RMK SLP105 T02500210 IEM_DS3505
ZGOW,1995-10-14 12:00,ZGOW 141200Z AUTO 14004KT 7SM 24/21 A2983 RMK SLP108 T02450213 52010 IEM_DS3505
ZGOW,1995-10-14 13:00,ZGOW 141300Z AUTO 10004KT 6SM 24/21 A2985 RMK SLP111 T02400210 IEM_DS3505
ZGOW,1995-10-14 15:00,ZGOW 141500Z AUTO 04004KT 7SM 24/22 A2986 RMK SLP116 T02450218 52008 IEM_DS3505
ZGOW,1995-10-14 18:00,ZGOW 141800Z AUTO 04006KT 6SM 24/22 A2984 RMK SLP107 T02370221 57009 IEM_DS3505
ZGOW,1995-10-14 21:00,ZGOW 142100Z AUTO 09004KT 6SM 23/21 A2983 RMK SLP106 T02270210 57001 IEM_DS3505
ZGOW,1995-10-14 22:00,ZGOW 142200Z AUTO 04004KT 6SM 23/21 A2985 RMK SLP111 T02300210 IEM_DS3505
ZGOW,1995-10-14 23:00,ZGOW 142300Z AUTO 03006KT 6SM 24/20 A2988 RMK SLP122 T02400200 IEM_DS3505
ZGOW,1995-10-15 00:00,ZGOW 150000Z AUTO 09006KT 6SM 24/20 A2991 RMK SLP130 T02390205 52024 IEM_DS3505
ZGOW,1995-10-15 01:00,ZGOW 150100Z AUTO 03006KT 6SM 25/20 A2991 RMK SLP132 T02500200 IEM_DS3505
ZGOW,1995-10-15 02:00,ZGOW 150200Z AUTO 06006KT 6SM 25/20 A2991 RMK SLP132 T02500200 IEM_DS3505
ZGOW,1995-10-15 03:00,ZGOW 150300Z AUTO 04006KT 6SM 27/20 A2991 RMK SLP133 T02660202 52003 IEM_DS3505
ZGOW,1995-10-15 04:00,ZGOW 150400Z AUTO 05008KT 6SM 27/20 A2991 RMK SLP132 T02700200 IEM_DS3505
ZGOW,1995-10-15 05:00,ZGOW 150500Z AUTO 06006KT 6SM 27/20 A2988 RMK SLP122 T02700200 IEM_DS3505
ZGOW,1995-10-15 06:00,ZGOW 150600Z AUTO 09010KT 7SM 28/20 A2985 RMK SLP115 T02830203 57018 IEM_DS3505
ZGOW,1995-10-15 08:00,ZGOW 150800Z AUTO 07006KT 6SM 28/20 A2985 RMK SLP111 T02800200 IEM_DS3505
ZGOW,1995-10-15 09:00,ZGOW 150900Z AUTO 09004KT 6SM 27/21 A2985 RMK SLP115 T02660211 54000 IEM_DS3505
ZGOW,1995-10-15 10:00,ZGOW 151000Z AUTO 08006KT 6SM 26/21 A2985 RMK SLP111 T02600210 IEM_DS3505
ZGOW,1995-10-15 11:00,ZGOW 151100Z AUTO 03004KT 4SM 26/22 A2988 RMK SLP122 T02600220 IEM_DS3505
ZGOW,1995-10-15 12:00,ZGOW 151200Z AUTO 04002KT 6SM 24/20 A2991 RMK SLP133 T02440198 52018 IEM_DS3505
ZGOW,1995-10-15 13:00,ZGOW 151300Z AUTO 00000KT 4SM 24/19 A2991 RMK SLP132 T02400190 IEM_DS3505
ZGOW,1995-10-15 15:00,ZGOW 151500Z AUTO 07004KT 6SM 23/19 A2993 RMK SLP139 T02280192 52006 IEM_DS3505
ZGOW,1995-10-15 18:00,ZGOW 151800Z AUTO 07004KT 5SM 23/20 A2993 RMK SLP139 T02260198 54000 IEM_DS3505
ZGOW,1995-10-15 21:00,ZGOW 152100Z AUTO 09006KT 6SM 24/19 A2991 RMK SLP137 T02390194 57002 IEM_DS3505
ZGOW,1995-10-15 22:00,ZGOW 152200Z AUTO 03004KT 7SM 24/19 A2994 RMK SLP142 T02400190 IEM_DS3505
ZGOW,1995-10-15 23:00,ZGOW 152300Z AUTO 00000KT 6SM 24/18 A2997 RMK SLP152 T02400180 IEM_DS3505
ZGOW,1995-10-16 00:00,ZGOW 160000Z AUTO 07006KT 6SM 24/19 A2997 RMK SLP158 T02440186 52021 IEM_DS3505
ZGOW,1995-10-16 01:00,ZGOW 160100Z AUTO 06006KT 6SM 25/19 A3000 RMK SLP162 T02500190 IEM_DS3505
ZGOW,1995-10-16 02:00,ZGOW 160200Z AUTO 03006KT 6SM 27/16 A3000 RMK SLP162 T02700160 IEM_DS3505
ZGOW,1995-10-16 03:00,ZGOW 160300Z AUTO 09006KT 9SM 28/16 A3000 RMK SLP161 T02780158 52003 IEM_DS3505
ZGOW,1995-10-16 04:00,ZGOW 160400Z AUTO 08012KT 7SM 28/15 A2997 RMK SLP152 T02800150 IEM_DS3505
ZGOW,1995-10-16 05:00,ZGOW 160500Z AUTO 08012KT 7SM 28/15 A2994 RMK SLP142 T02800150 IEM_DS3505
ZGOW,1995-10-16 06:00,ZGOW 160600Z AUTO 09008KT 9SM 29/14 A2992 RMK SLP136 T02910143 57025 IEM_DS3505
ZGOW,1995-10-16 07:00,ZGOW 160700Z AUTO 06014KT 6SM 28/16 A2991 RMK SLP132 T02800160 IEM_DS3505
ZGOW,1995-10-16 08:00,ZGOW 160800Z AUTO 06010KT 6SM 27/17 A2991 RMK SLP132 T02700170 IEM_DS3505
ZGOW,1995-10-16 09:00,ZGOW 160900Z AUTO 09008KT 5SM 26/18 A2994 RMK SLP141 T02600180 52005 IEM_DS3505
ZGOW,1995-10-16 12:00,ZGOW 161200Z AUTO 04006KT 5SM 24/19 A3000 RMK SLP158 T02400187 52017 IEM_DS3505
ZGOW,1995-10-16 13:00,ZGOW 161300Z AUTO 06008KT 7SM 24/18 A3000 RMK SLP162 T02400180 IEM_DS3505
ZGOW,1995-10-16 15:00,ZGOW 161500Z AUTO 07006KT 4SM 23/18 A3001 RMK SLP165 T02340176 52007 IEM_DS3505
ZGOW,1995-10-16 18:00,ZGOW 161800Z AUTO 07006KT 6SM 22/15 A2998 RMK SLP157 T02250152 57008 IEM_DS3505
ZGOW,1995-10-16 21:00,ZGOW 162100Z AUTO 07002KT 6SM 21/16 A3000 RMK SLP159 T02140158 52002 IEM_DS3505
ZGOW,1995-10-16 22:00,ZGOW 162200Z AUTO 00000KT 7SM 21/15 A3000 RMK SLP162 T02100150 IEM_DS3505
ZGOW,1995-10-16 23:00,ZGOW 162300Z AUTO 00000KT 7SM 20/16 A3003 RMK SLP172 T02000160 IEM_DS3505
ZGOW,1995-10-17 00:00,ZGOW 170000Z AUTO 02004KT 6SM 23/17 A3003 RMK SLP177 T02310173 52018 IEM_DS3505
ZGOW,1995-10-17 01:00,ZGOW 170100Z AUTO 03006KT 7SM 25/16 A3003 RMK SLP172 T02500160 IEM_DS3505
ZGOW,1995-10-17 02:00,ZGOW 170200Z AUTO 08006KT 7SM 26/14 A3003 RMK SLP172 T02600140 IEM_DS3505
ZGOW,1995-10-17 03:00,ZGOW 170300Z AUTO 09006KT 9SM 27/16 A3003 RMK SLP174 T02680157 57003 IEM_DS3505
ZGOW,1995-10-17 04:00,ZGOW 170400Z AUTO 09010KT 7SM 27/16 A3003 RMK SLP172 T02700160 IEM_DS3505
ZGOW,1995-10-17 05:00,ZGOW 170500Z AUTO 09010KT 7SM 28/15 A3000 RMK SLP162 T02800150 IEM_DS3505
ZGOW,1995-10-17 06:00,ZGOW 170600Z AUTO 09006KT 9SM 27/17 A2996 RMK SLP150 T02690172 57024 IEM_DS3505
ZGOW,1995-10-17 08:00,ZGOW 170800Z AUTO 08006KT 7SM 26/18 A2997 RMK SLP152 T02600180 IEM_DS3505
ZGOW,1995-10-17 09:00,ZGOW 170900Z AUTO 04006KT 11SM 25/18 A2997 RMK SLP151 T02520181 52001 IEM_DS3505
ZGOW,1995-10-17 10:00,ZGOW 171000Z AUTO 08008KT 7SM 24/18 A2997 RMK SLP152 T02400180 IEM_DS3505
ZGOW,1995-10-17 12:00,ZGOW 171200Z AUTO 04004KT 9SM 24/19 A3000 RMK SLP161 T02350186 52010 IEM_DS3505
ZGOW,1995-10-17 14:00,ZGOW 171400Z AUTO 06010KT 7SM 23/20 A3000 RMK SLP162 T02300200 IEM_DS3505
ZGOW,1995-10-17 15:00,ZGOW 171500Z AUTO 09006KT 7SM 23/19 A3002 RMK SLP168 T02290188 52007 IEM_DS3505
ZGOW,1995-10-17 18:00,ZGOW 171800Z AUTO 04004KT 7SM 22/18 A3000 RMK SLP161 T02190176 57007 IEM_DS3505
ZGOW,1995-10-17 21:00,ZGOW 172100Z AUTO 04004KT 6SM 20/18 A2998 RMK SLP155 T02040183 57006 IEM_DS3505
ZGOW,1995-10-17 22:00,ZGOW 172200Z AUTO 00000KT 7SM 20/15 A3000 RMK SLP163 T02000150 IEM_DS3505
ZGOW,1995-10-17 23:00,ZGOW 172300Z AUTO 00000KT 7SM 21/14 A3000 RMK SLP163 T02100140 IEM_DS3505
ZGOW,1995-10-18 00:00,ZGOW 180000Z AUTO 04004KT 5SM 22/19 A3003 RMK SLP173 T02240189 52018 IEM_DS3505
ZGOW,1995-10-18 03:00,ZGOW 180300Z AUTO 36004KT 9SM 26/16 A3003 RMK SLP163 T02640160 57010 IEM_DS3505
ZGOW,1995-10-18 04:00,ZGOW 180400Z AUTO 04004KT 7SM 26/15 A2997 RMK SLP153 T02600150 IEM_DS3505
ZGOW,1995-10-18 05:00,ZGOW 180500Z AUTO 04004KT 7SM 27/15 A2997 RMK SLP153 T02700150 IEM_DS3505
ZGOW,1995-10-18 06:00,ZGOW 180600Z AUTO 16006KT 14SM 27/16 A2994 RMK SLP138 T02670164 57025 IEM_DS3505
ZGOW,1995-10-18 07:00,ZGOW 180700Z AUTO 11008KT 7SM 27/17 A2991 RMK SLP133 T02700170 IEM_DS3505
ZGOW,1995-10-18 08:00,ZGOW 180800Z AUTO 10006KT 7SM 26/18 A2991 RMK SLP133 T02600180 IEM_DS3505
ZGOW,1995-10-18 09:00,ZGOW 180900Z AUTO 11008KT 9SM 25/18 A2994 RMK SLP135 T02500177 57003 IEM_DS3505
ZGOW,1995-10-18 10:00,ZGOW 181000Z AUTO 09004KT 7SM 24/19 A2994 RMK SLP143 T02400190 IEM_DS3505
ZGOW,1995-10-18 11:00,ZGOW 181100Z AUTO 06004KT 7SM 24/19 A2994 RMK SLP143 T02400190 IEM_DS3505
ZGOW,1995-10-18 12:00,ZGOW 181200Z AUTO 04004KT 7SM 24/19 A2997 RMK SLP148 T02360191 52013 IEM_DS3505
ZGOW,1995-10-18 13:00,ZGOW 181300Z AUTO 03006KT 7SM 24/19 A2997 RMK SLP153 T02400190 IEM_DS3505
ZGOW,1995-10-18 14:00,ZGOW 181400Z AUTO 06004KT 7SM 24/19 A2997 RMK SLP153 T02400190 IEM_DS3505
ZGOW,1995-10-18 15:00,ZGOW 181500Z AUTO 04004KT 7SM 23/19 A2997 RMK SLP153 T02300189 52005 IEM_DS3505
ZGOW,1995-10-18 18:00,ZGOW 181800Z AUTO 04004KT 6SM 22/19 A2995 RMK SLP146 T02220189 57007 IEM_DS3505
ZGOW,1995-10-18 21:00,ZGOW 182100Z AUTO 09004KT 5SM 21/18 A2997 RMK SLP145 T02140180 57001 IEM_DS3505
ZGOW,1995-10-18 22:00,ZGOW 182200Z AUTO 00000KT 7SM 20/18 A2997 RMK SLP153 T02000180 IEM_DS3505
ZGOW,1995-10-18 23:00,ZGOW 182300Z AUTO 00000KT 7SM 21/18 A2997 RMK SLP153 T02100180 IEM_DS3505
ZGOW,1995-10-19 00:00,ZGOW 190000Z AUTO 09004KT 5SM 23/18 A2999 RMK SLP160 T02280179 52015 IEM_DS3505
ZGOW,1995-10-19 03:00,ZGOW 190300Z AUTO 09006KT 7SM 26/17 A2998 RMK SLP155 T02630169 57005 IEM_DS3505
ZGOW,1995-10-19 05:00,ZGOW 190500Z AUTO 07006KT 7SM 27/17 A2991 RMK SLP133 T02700170 IEM_DS3505
ZGOW,1995-10-19 06:00,ZGOW 190600Z AUTO 14004KT 7SM 28/17 A2988 RMK SLP123 T02780174 57032 IEM_DS3505
ZGOW,1995-10-19 09:00,ZGOW 190900Z AUTO 16006KT 6SM 26/19 A2986 RMK SLP117 T02580186 57006 IEM_DS3505
ZGOW,1995-10-19 12:00,ZGOW 191200Z AUTO 04008KT 6SM 24/18 A2993 RMK SLP138 T02380176 52021 IEM_DS3505
ZGOW,1995-10-19 15:00,ZGOW 191500Z AUTO 09008KT 6SM 23/16 A2994 RMK SLP142 T02330157 52004 IEM_DS3505
ZGOW,1995-10-19 18:00,ZGOW 191800Z AUTO 04004KT 6SM 23/17 A2990 RMK SLP131 T02260171 57011 IEM_DS3505
ZGOW,1995-10-19 21:00,ZGOW 192100Z AUTO 00000KT 5SM 21/18 A2988 RMK SLP128 T02080179 57003 IEM_DS3505
ZGOW,1995-10-19 22:00,ZGOW 192200Z AUTO 00000KT 7SM 19/18 A2991 RMK SLP133 T01900180 IEM_DS3505
ZGOW,1995-10-20 00:00,ZGOW 200000Z AUTO 04004KT 6SM 23/18 A2994 RMK SLP144 T02290183 52016 IEM_DS3505
ZGOW,1995-10-20 03:00,ZGOW 200300Z AUTO 07004KT 7SM 27/15 A2993 RMK SLP140 T02700152 57004 IEM_DS3505
ZGOW,1995-10-20 06:00,ZGOW 200600Z AUTO 14004KT 7SM 28/16 A2984 RMK SLP110 T02800163 57030 IEM_DS3505
ZGOW,1995-10-20 09:00,ZGOW 200900Z AUTO 09006KT 5SM 25/18 A2985 RMK SLP111 T02540185 52001 IEM_DS3505
ZGOW,1995-10-20 12:00,ZGOW 201200Z AUTO 04004KT 7SM 24/19 A2991 RMK SLP133 T02420192 52022 IEM_DS3505
ZGOW,1995-10-20 15:00,ZGOW 201500Z AUTO 09006KT 7SM 23/19 A2993 RMK SLP138 T02340192 52005 IEM_DS3505
ZGOW,1995-10-20 18:00,ZGOW 201800Z AUTO 04004KT 6SM 23/19 A2991 RMK SLP133 T02300191 57005 IEM_DS3505
ZGOW,1995-10-20 21:00,ZGOW 202100Z AUTO 02004KT 5SM 22/20 A2992 RMK SLP136 T02210203 52003 IEM_DS3505
ZGOW,1995-10-21 00:00,ZGOW 210000Z AUTO 04004KT 4SM 24/20 A2997 RMK SLP154 T02370203 52018 IEM_DS3505
ZGOW,1995-10-21 03:00,ZGOW 210300Z AUTO 04006KT 6SM 27/17 A2995 RMK SLP147 T02700168 57007 IEM_DS3505
ZGOW,1995-10-21 06:00,ZGOW 210600Z AUTO 18006KT 7SM 27/17 A2987 RMK SLP121 T02690172 57026 IEM_DS3505
ZGOW,1995-10-21 09:00,ZGOW 210900Z AUTO 04004KT 7SM 26/18 A2988 RMK SLP123 T02590184 52002 IEM_DS3505
ZGOW,1995-10-21 12:00,ZGOW 211200Z AUTO 09006KT 7SM 24/18 A2995 RMK SLP145 T02420175 52022 IEM_DS3505
ZGOW,1995-10-21 15:00,ZGOW 211500Z AUTO 04004KT 6SM 23/18 A2998 RMK SLP157 T02320176 52012 IEM_DS3505
ZGOW,1995-10-21 18:00,ZGOW 211800Z AUTO 04004KT 6SM 22/21 A2995 RMK SLP148 T02240206 57009 IEM_DS3505
ZGOW,1995-10-21 21:00,ZGOW 212100Z AUTO 04002KT 7SM 21/18 A2995 RMK SLP148 T02080177 54000 IEM_DS3505
ZGOW,1995-10-22 00:00,ZGOW 220000Z AUTO 04002KT 6SM 23/17 A3003 RMK SLP173 T02270172 52025 IEM_DS3505
ZGOW,1995-10-22 02:00,ZGOW 220200Z AUTO 06008KT 7SM 27/16 A3003 RMK SLP174 T02700160 IEM_DS3505
ZGOW,1995-10-22 03:00,ZGOW 220300Z AUTO 09006KT 6SM 27/14 A3003 RMK SLP168 T02720138 57005 IEM_DS3505
ZGOW,1995-10-22 04:00,ZGOW 220400Z AUTO 06008KT 7SM 27/16 A3000 RMK SLP163 T02700160 IEM_DS3505
ZGOW,1995-10-22 05:00,ZGOW 220500Z AUTO 06006KT 7SM 28/17 A2997 RMK SLP153 T02800170 IEM_DS3505
ZGOW,1995-10-22 06:00,ZGOW 220600Z AUTO 14004KT 10SM 28/17 A2994 RMK SLP143 T02790166 57025 IEM_DS3505
ZGOW,1995-10-22 07:00,ZGOW 220700Z AUTO 09006KT 7SM 28/18 A2994 RMK SLP143 T02800180 IEM_DS3505
ZGOW,1995-10-22 08:00,ZGOW 220800Z AUTO 06006KT 7SM 27/18 A2994 RMK SLP143 T02700180 IEM_DS3505
ZGOW,1995-10-22 09:00,ZGOW 220900Z AUTO 09006KT 7SM 26/18 A2994 RMK SLP146 T02580179 52003 IEM_DS3505
ZGOW,1995-10-22 10:00,ZGOW 221000Z AUTO 06008KT 7SM 25/17 A2997 RMK SLP153 T02500170 IEM_DS3505
ZGOW,1995-10-22 11:00,ZGOW 221100Z AUTO 06010KT 7SM 24/17 A2997 RMK SLP153 T02400170 IEM_DS3505
ZGOW,1995-10-22 12:00,ZGOW 221200Z AUTO 04008KT 6SM 24/16 A3000 RMK SLP163 T02380157 52017 IEM_DS3505
ZGOW,1995-10-22 13:00,ZGOW 221300Z AUTO 06012KT 7SM 24/16 A3000 RMK SLP163 T02400160 IEM_DS3505
ZGOW,1995-10-22 15:00,ZGOW 221500Z AUTO 11012KT 7SM 23/17 A3003 RMK SLP174 T02290174 52011 IEM_DS3505
ZGOW,1995-10-22 18:00,ZGOW 221800Z AUTO 04004KT 7SM 22/16 A3001 RMK SLP168 T02180157 57006 IEM_DS3505
ZGOW,1995-10-22 21:00,ZGOW 222100Z AUTO 04004KT 6SM 19/16 A3000 RMK SLP164 T01860161 57004 IEM_DS3505
ZGOW,1995-10-22 22:00,ZGOW 222200Z AUTO 00000KT 7SM 17/14 A3003 RMK SLP175 T01700140 IEM_DS3505
ZGOW,1995-10-22 23:00,ZGOW 222300Z AUTO 00000KT 7SM 20/14 A3003 RMK SLP174 T02000140 IEM_DS3505
ZGOW,1995-10-23 00:00,ZGOW 230000Z AUTO 04004KT 7SM 23/17 A3006 RMK SLP180 T02260173 52016 IEM_DS3505
ZGOW,1995-10-23 01:00,ZGOW 230100Z AUTO 03006KT 7SM 25/13 A3006 RMK SLP184 T02500130 IEM_DS3505
ZGOW,1995-10-23 02:00,ZGOW 230200Z AUTO 03008KT 6SM 26/14 A3006 RMK SLP184 T02600140 IEM_DS3505
ZGOW,1995-10-23 03:00,ZGOW 230300Z AUTO 04010KT 12SM 27/15 A3006 RMK SLP176 T02720146 57004 IEM_DS3505
ZGOW,1995-10-23 04:00,ZGOW 230400Z AUTO 05010KT 7SM 27/14 A3003 RMK SLP174 T02700140 IEM_DS3505
ZGOW,1995-10-23 05:00,ZGOW 230500Z AUTO 06006KT 7SM 28/15 A3000 RMK SLP163 T02800150 IEM_DS3505
ZGOW,1995-10-23 06:00,ZGOW 230600Z AUTO 09006KT 12SM 28/16 A2996 RMK SLP151 T02810164 57025 IEM_DS3505
ZGOW,1995-10-23 07:00,ZGOW 230700Z AUTO 08008KT 6SM 28/18 A2997 RMK SLP153 T02800180 IEM_DS3505
ZGOW,1995-10-23 08:00,ZGOW 230800Z AUTO 10006KT 6SM 27/18 A2994 RMK SLP143 T02700180 IEM_DS3505
ZGOW,1995-10-23 09:00,ZGOW 230900Z AUTO 14006KT 10SM 26/19 A2997 RMK SLP149 T02580191 57002 IEM_DS3505
ZGOW,1995-10-23 10:00,ZGOW 231000Z AUTO 04006KT 6SM 25/18 A2997 RMK SLP153 T02500180 IEM_DS3505
ZGOW,1995-10-23 11:00,ZGOW 231100Z AUTO 06004KT 6SM 24/19 A2997 RMK SLP153 T02400190 IEM_DS3505
ZGOW,1995-10-23 12:00,ZGOW 231200Z AUTO 04006KT 9SM 24/20 A3000 RMK SLP167 T02380195 52018 IEM_DS3505
ZGOW,1995-10-23 13:00,ZGOW 231300Z AUTO 06008KT 7SM 24/20 A3003 RMK SLP174 T02400200 IEM_DS3505
ZGOW,1995-10-23 15:00,ZGOW 231500Z AUTO 04006KT 8SM 23/19 A3001 RMK SLP168 T02310194 52001 IEM_DS3505
ZGOW,1995-10-23 18:00,ZGOW 231800Z AUTO 04002KT 6SM 22/19 A2999 RMK SLP160 T02160191 57008 IEM_DS3505
ZGOW,1995-10-23 21:00,ZGOW 232100Z AUTO 04002KT 5SM 21/19 A3000 RMK SLP163 T02060192 52003 IEM_DS3505
ZGOW,1995-10-23 22:00,ZGOW 232200Z AUTO 00000KT 3SM 19/18 A3003 RMK SLP174 T01900180 IEM_DS3505
ZGOW,1995-10-24 00:00,ZGOW 240000Z AUTO 02002KT 4SM 23/20 A3006 RMK SLP182 T02260196 52019 IEM_DS3505
ZGOW,1995-10-24 01:00,ZGOW 240100Z AUTO 35006KT 7SM 24/18 A3006 RMK SLP184 T02400180 IEM_DS3505
ZGOW,1995-10-24 02:00,ZGOW 240200Z AUTO 36008KT 7SM 26/18 A3006 RMK SLP184 T02600180 IEM_DS3505
ZGOW,1995-10-24 03:00,ZGOW 240300Z AUTO 04008KT 6SM 27/18 A3003 RMK SLP175 T02730181 57007 IEM_DS3505
ZGOW,1995-10-24 04:00,ZGOW 240400Z AUTO 10004KT 7SM 27/18 A3003 RMK SLP174 T02700180 IEM_DS3505
ZGOW,1995-10-24 05:00,ZGOW 240500Z AUTO 12008KT 7SM 27/17 A3000 RMK SLP163 T02700170 IEM_DS3505
ZGOW,1995-10-24 06:00,ZGOW 240600Z AUTO 14006KT 5SM 27/18 A2997 RMK SLP151 T02720181 57024 IEM_DS3505
ZGOW,1995-10-24 07:00,ZGOW 240700Z AUTO 10006KT 7SM 28/19 A2997 RMK SLP153 T02800190 IEM_DS3505
ZGOW,1995-10-24 08:00,ZGOW 240800Z AUTO 10004KT 7SM 27/20 A2997 RMK SLP153 T02700200 IEM_DS3505
ZGOW,1995-10-24 09:00,ZGOW 240900Z AUTO 09006KT 4SM 25/19 A2997 RMK SLP148 T02500188 57003 IEM_DS3505
ZGOW,1995-10-24 10:00,ZGOW 241000Z AUTO 08006KT 6SM 25/19 A2997 RMK SLP153 T02500190 IEM_DS3505
ZGOW,1995-10-24 11:00,ZGOW 241100Z AUTO 06008KT 6SM 24/19 A3000 RMK SLP163 T02400190 IEM_DS3505
ZGOW,1995-10-24 12:00,ZGOW 241200Z AUTO 09006KT 6SM 24/19 A3003 RMK SLP171 T02420191 52023 IEM_DS3505
ZGOW,1995-10-24 13:00,ZGOW 241300Z AUTO 06010KT 7SM 24/20 A3006 RMK SLP184 T02400200 IEM_DS3505
ZGOW,1995-10-24 15:00,ZGOW 241500Z AUTO 04010KT 7SM 24/18 A3006 RMK SLP183 T02380179 52012 IEM_DS3505
ZGOW,1995-10-24 18:00,ZGOW 241800Z AUTO 04004KT 8SM 24/18 A3005 RMK SLP180 T02360175 57003 IEM_DS3505
ZGOW,1995-10-24 21:00,ZGOW 242100Z AUTO 04004KT 7SM 23/19 A3003 RMK SLP172 T02270186 57008 IEM_DS3505
ZGOW,1995-10-24 22:00,ZGOW 242200Z AUTO 00000KT 5SM 22/19 A3006 RMK SLP184 T02200190 IEM_DS3505
ZGOW,1995-10-24 23:00,ZGOW 242300Z AUTO 36004KT 5SM 21/19 A3006 RMK SLP184 T02100190 IEM_DS3505
ZGOW,1995-10-25 00:00,ZGOW 250000Z AUTO 04004KT 7SM 23/18 A3009 RMK SLP192 T02260180 52020 IEM_DS3505
ZGOW,1995-10-25 01:00,ZGOW 250100Z AUTO 02008KT 5SM 24/17 A3009 RMK SLP194 T02400170 IEM_DS3505
ZGOW,1995-10-25 02:00,ZGOW 250200Z AUTO 03010KT 7SM 25/17 A3009 RMK SLP194 T02500170 IEM_DS3505
ZGOW,1995-10-25 03:00,ZGOW 250300Z AUTO 04008KT 7SM 26/16 A3009 RMK SLP192 T02590160 54000 IEM_DS3505
ZGOW,1995-10-25 04:00,ZGOW 250400Z AUTO 03012KT 7SM 26/17 A3006 RMK SLP184 T02600170 IEM_DS3505
ZGOW,1995-10-25 05:00,ZGOW 250500Z AUTO 04008KT 7SM 27/17 A3003 RMK SLP174 T02700170 IEM_DS3505
ZGOW,1995-10-25 06:00,ZGOW 250600Z AUTO 09008KT 7SM 26/16 A3000 RMK SLP161 T02600165 57031 IEM_DS3505
ZGOW,1995-10-25 07:00,ZGOW 250700Z AUTO 08012KT 6SM 26/17 A2997 RMK SLP153 T02600170 IEM_DS3505
ZGOW,1995-10-25 08:00,ZGOW 250800Z AUTO 07008KT 6SM 25/18 A2997 RMK SLP153 T02500180 IEM_DS3505
ZGOW,1995-10-25 09:00,ZGOW 250900Z AUTO 11006KT 6SM 24/17 A2999 RMK SLP160 T02400173 57001 IEM_DS3505
ZGOW,1995-10-25 10:00,ZGOW 251000Z AUTO 08008KT 6SM 23/17 A3000 RMK SLP163 T02300170 IEM_DS3505
ZGOW,1995-10-25 11:00,ZGOW 251100Z AUTO 06010KT 6SM 23/17 A3003 RMK SLP174 T02300170 IEM_DS3505
ZGOW,1995-10-25 12:00,ZGOW 251200Z AUTO 09006KT 6SM 23/17 A3003 RMK SLP181 T02280170 52021 IEM_DS3505
ZGOW,1995-10-25 13:00,ZGOW 251300Z AUTO 04010KT 6SM 23/17 A3006 RMK SLP184 T02300170 IEM_DS3505
ZGOW,1995-10-25 14:00,ZGOW 251400Z AUTO 05010KT 6SM 22/17 A3006 RMK SLP184 T02200170 IEM_DS3505
ZGOW,1995-10-25 15:00,ZGOW 251500Z AUTO 09006KT 7SM 22/16 A3005 RMK SLP180 T02200161 57001 IEM_DS3505
ZGOW,1995-10-25 18:00,ZGOW 251800Z AUTO 07008KT 7SM 21/14 A3003 RMK SLP173 T02120144 57007 IEM_DS3505
ZGOW,1995-10-25 21:00,ZGOW 252100Z AUTO 04006KT 7SM 21/14 A3003 RMK SLP166 T02060145 57007 IEM_DS3505
ZGOW,1995-10-25 22:00,ZGOW 252200Z AUTO 01006KT 6SM 20/16 A3003 RMK SLP174 T02000160 IEM_DS3505
ZGOW,1995-10-25 23:00,ZGOW 252300Z AUTO 01004KT 6SM 21/16 A3003 RMK SLP174 T02100160 IEM_DS3505
ZGOW,1995-10-26 00:00,ZGOW 260000Z AUTO 04004KT 6SM 21/16 A3006 RMK SLP181 T02140161 52015 IEM_DS3505
ZGOW,1995-10-26 01:00,ZGOW 260100Z AUTO 36004KT 6SM 22/16 A3006 RMK SLP184 T02200160 IEM_DS3505
ZGOW,1995-10-26 02:00,ZGOW 260200Z AUTO 35004KT 6SM 23/16 A3006 RMK SLP184 T02300160 IEM_DS3505
ZGOW,1995-10-26 03:00,ZGOW 260300Z AUTO 04008KT 6SM 24/16 A3006 RMK SLP185 T02400156 52004 IEM_DS3505
ZGOW,1995-10-26 04:00,ZGOW 260400Z AUTO 03006KT 6SM 25/17 A3006 RMK SLP184 T02500170 IEM_DS3505
ZGOW,1995-10-26 05:00,ZGOW 260500Z AUTO 05008KT 6SM 26/17 A3003 RMK SLP174 T02600170 IEM_DS3505
ZGOW,1995-10-26 06:00,ZGOW 260600Z AUTO 04008KT 9SM 24/15 A3000 RMK SLP162 T02450148 57023 IEM_DS3505
ZGOW,1995-10-26 07:00,ZGOW 260700Z AUTO 06008KT 6SM 25/17 A3000 RMK SLP163 T02500170 IEM_DS3505
ZGOW,1995-10-26 08:00,ZGOW 260800Z AUTO 06010KT 6SM 25/17 A2997 RMK SLP153 T02500170 IEM_DS3505
ZGOW,1995-10-26 09:00,ZGOW 260900Z AUTO 06010KT 6SM 24/17 A2997 RMK SLP153 T02400170 IEM_DS3505
ZGOW,1995-10-26 12:00,ZGOW 261200Z AUTO 04006KT 7SM 23/18 A3003 RMK SLP170 T02290180 52012 IEM_DS3505
ZGOW,1995-10-26 13:00,ZGOW 261300Z AUTO 05004KT 6SM 23/18 A3003 RMK SLP174 T02300180 IEM_DS3505
ZGOW,1995-10-26 14:00,ZGOW 261400Z AUTO 05008KT 6SM 23/18 A3003 RMK SLP174 T02300180 IEM_DS3505
ZGOW,1995-10-26 15:00,ZGOW 261500Z AUTO 09006KT 7SM 22/17 A3004 RMK SLP176 T02250170 52006 IEM_DS3505
ZGOW,1995-10-26 18:00,ZGOW 261800Z AUTO 07006KT 7SM 22/16 A3002 RMK SLP170 T02200162 57006 IEM_DS3505
ZGOW,1995-10-26 21:00,ZGOW 262100Z AUTO 00000KT 8SM 22/15 A3001 RMK SLP168 T02150153 57002 IEM_DS3505
ZGOW,1995-10-26 22:00,ZGOW 262200Z AUTO 04004KT 6SM 20/17 A3003 RMK SLP174 T02000170 IEM_DS3505
ZGOW,1995-10-26 23:00,ZGOW 262300Z AUTO 00000KT 6SM 21/17 A3003 RMK SLP174 T02100170 IEM_DS3505
ZGOW,1995-10-27 00:00,ZGOW 270000Z AUTO 07004KT 6SM 22/15 A3006 RMK SLP180 T02210147 52012 IEM_DS3505
ZGOW,1995-10-27 01:00,ZGOW 270100Z AUTO 06008KT 6SM 23/15 A3006 RMK SLP184 T02300150 IEM_DS3505
ZGOW,1995-10-27 03:00,ZGOW 270300Z AUTO 09006KT 4SM 26/14 A3005 RMK SLP179 T02600135 57001 IEM_DS3505
ZGOW,1995-10-27 04:00,ZGOW 270400Z AUTO 08008KT 6SM 26/16 A3006 RMK SLP184 T02600160 IEM_DS3505
ZGOW,1995-10-27 05:00,ZGOW 270500Z AUTO 09006KT 6SM 26/15 A3000 RMK SLP163 T02600150 IEM_DS3505
ZGOW,1995-10-27 06:00,ZGOW 270600Z AUTO 14006KT 12SM 26/14 A3000 RMK SLP158 T02620140 57021 IEM_DS3505
ZGOW,1995-10-27 07:00,ZGOW 270700Z AUTO 06010KT 6SM 26/15 A2997 RMK SLP153 T02600150 IEM_DS3505
ZGOW,1995-10-27 08:00,ZGOW 270800Z AUTO 03004KT 6SM 25/16 A2997 RMK SLP153 T02500160 IEM_DS3505
ZGOW,1995-10-27 09:00,ZGOW 270900Z AUTO 09006KT 7SM 24/17 A2997 RMK SLP149 T02420171 57009 IEM_DS3505
ZGOW,1995-10-27 10:00,ZGOW 271000Z AUTO 06010KT 6SM 23/18 A2997 RMK SLP153 T02300180 IEM_DS3505
ZGOW,1995-10-27 11:00,ZGOW 271100Z AUTO 08010KT 6SM 23/19 A2997 RMK SLP153 T02300190 IEM_DS3505
ZGOW,1995-10-27 12:00,ZGOW 271200Z AUTO 07008KT 7SM 23/18 A3000 RMK SLP158 T02280177 52009 IEM_DS3505
ZGOW,1995-10-27 13:00,ZGOW 271300Z AUTO 06010KT 7SM 23/19 A3000 RMK SLP163 T02300190 IEM_DS3505
ZGOW,1995-10-27 14:00,ZGOW 271400Z AUTO 06010KT 7SM 23/19 A3000 RMK SLP163 T02300190 IEM_DS3505
ZGOW,1995-10-27 15:00,ZGOW 271500Z AUTO 09008KT 7SM 22/16 A3000 RMK SLP164 T02220157 52006 IEM_DS3505
ZGOW,1995-10-27 18:00,ZGOW 271800Z AUTO 07006KT 7SM 21/16 A2998 RMK SLP157 T02100159 57007 IEM_DS3505
ZGOW,1995-10-27 21:00,ZGOW 272100Z AUTO 04002KT 6SM 20/17 A2999 RMK SLP159 T02020168 52002 IEM_DS3505
ZGOW,1995-10-27 22:00,ZGOW 272200Z AUTO 00000KT 6SM 20/16 A3000 RMK SLP163 T02000160 IEM_DS3505
ZGOW,1995-10-27 23:00,ZGOW 272300Z AUTO 00000KT 6SM 21/17 A3000 RMK SLP163 T02100170 IEM_DS3505
ZGOW,1995-10-28 00:00,ZGOW 280000Z AUTO 04004KT 6SM 22/19 A3003 RMK 60000 SLP170 T02220186 52011 IEM_DS3505
ZGOW,1995-10-28 02:00,ZGOW 280200Z AUTO 01006KT 6SM 25/15 A3003 RMK SLP174 T02500150 IEM_DS3505
ZGOW,1995-10-28 03:00,ZGOW 280300Z AUTO 04008KT 7SM 26/13 A3000 RMK SLP164 T02620133 57006 IEM_DS3505
ZGOW,1995-10-28 04:00,ZGOW 280400Z AUTO 08006KT 7SM 26/16 A2997 RMK SLP153 T02600160 IEM_DS3505
ZGOW,1995-10-28 05:00,ZGOW 280500Z AUTO 07006KT 7SM 27/16 A2994 RMK SLP143 T02700160 IEM_DS3505
ZGOW,1995-10-28 06:00,ZGOW 280600Z AUTO 14004KT 14SM 26/17 A2991 RMK SLP135 T02620166 57029 IEM_DS3505
ZGOW,1995-10-28 07:00,ZGOW 280700Z AUTO 11008KT 7SM 27/19 A2991 RMK SLP133 T02700190 IEM_DS3505
ZGOW,1995-10-28 08:00,ZGOW 280800Z AUTO 10008KT 7SM 26/19 A2988 RMK SLP123 T02600190 IEM_DS3505
ZGOW,1995-10-28 09:00,ZGOW 280900Z AUTO 14006KT 9SM 24/18 A2988 RMK SLP130 T02410181 57005 IEM_DS3505
ZGOW,1995-10-28 10:00,ZGOW 281000Z AUTO 09008KT 6SM 24/20 A2991 RMK SLP133 T02400200 IEM_DS3505
ZGOW,1995-10-28 11:00,ZGOW 281100Z AUTO 06008KT 7SM 23/19 A2991 RMK SLP133 T02300190 IEM_DS3505
ZGOW,1995-10-28 12:00,ZGOW 281200Z AUTO 09006KT 7SM 23/18 A2994 RMK SLP143 T02270181 52013 IEM_DS3505
ZGOW,1995-10-28 13:00,ZGOW 281300Z AUTO 04006KT 7SM 22/19 A2997 RMK SLP153 T02200190 IEM_DS3505
ZGOW,1995-10-28 15:00,ZGOW 281500Z AUTO 04004KT 6SM 22/18 A2996 RMK SLP149 T02220181 52006 IEM_DS3505
ZGOW,1995-10-28 18:00,ZGOW 281800Z AUTO 04004KT 6SM 21/19 A2993 RMK SLP138 T02060187 57011 IEM_DS3505
ZGOW,1995-10-28 21:00,ZGOW 282100Z AUTO 00000KT 5SM 20/18 A2993 RMK SLP138 T01970184 54000 IEM_DS3505
ZGOW,1995-10-28 22:00,ZGOW 282200Z AUTO 00000KT 3SM 18/17 A2994 RMK SLP143 T01800170 IEM_DS3505
ZGOW,1995-10-28 23:00,ZGOW 282300Z AUTO 00000KT 2 1/2SM 19/18 A2997 RMK SLP153 T01900180 IEM_DS3505
ZGOW,1995-10-29 00:00,ZGOW 290000Z AUTO 04002KT 6SM 21/19 A3000 RMK SLP158 T02130186 52020 IEM_DS3505
ZGOW,1995-10-29 01:00,ZGOW 290100Z AUTO 02004KT 7SM 24/18 A3000 RMK SLP163 T02400180 IEM_DS3505
ZGOW,1995-10-29 02:00,ZGOW 290200Z AUTO 06006KT 7SM 25/17 A3000 RMK SLP163 T02500170 IEM_DS3505
ZGOW,1995-10-29 03:00,ZGOW 290300Z AUTO 09006KT 7SM 26/15 A2997 RMK SLP149 T02580149 57009 IEM_DS3505
ZGOW,1995-10-29 04:00,ZGOW 290400Z AUTO 07010KT 7SM 26/14 A2994 RMK SLP143 T02600140 IEM_DS3505
ZGOW,1995-10-29 05:00,ZGOW 290500Z AUTO 06006KT 7SM 27/15 A2991 RMK SLP133 T02700150 IEM_DS3505
ZGOW,1995-10-29 06:00,ZGOW 290600Z AUTO 14006KT 11SM 27/15 A2988 RMK SLP124 T02670154 57025 IEM_DS3505
ZGOW,1995-10-29 07:00,ZGOW 290700Z AUTO 12006KT 7SM 27/18 A2985 RMK SLP113 T02700180 IEM_DS3505
ZGOW,1995-10-29 08:00,ZGOW 290800Z AUTO 08008KT 7SM 26/17 A2988 RMK SLP123 T02600170 IEM_DS3505
ZGOW,1995-10-29 09:00,ZGOW 290900Z AUTO 04004KT 8SM 25/17 A2988 RMK SLP122 T02480173 57002 IEM_DS3505
ZGOW,1995-10-29 10:00,ZGOW 291000Z AUTO 07006KT 7SM 23/18 A2988 RMK SLP123 T02300180 IEM_DS3505
ZGOW,1995-10-29 11:00,ZGOW 291100Z AUTO 06006KT 7SM 23/18 A2991 RMK SLP133 T02300180 IEM_DS3505
ZGOW,1995-10-29 12:00,ZGOW 291200Z AUTO 09006KT 7SM 23/18 A2991 RMK SLP134 T02270177 52012 IEM_DS3505
ZGOW,1995-10-29 14:00,ZGOW 291400Z AUTO 06004KT 4SM 22/18 A2988 RMK SLP123 T02200180 IEM_DS3505
ZGOW,1995-10-29 15:00,ZGOW 291500Z AUTO 04004KT 6SM 22/18 A2992 RMK SLP136 T02190176 52002 IEM_DS3505
ZGOW,1995-10-29 18:00,ZGOW 291800Z AUTO 04004KT 4SM 20/18 A2990 RMK SLP130 T02050181 57006 IEM_DS3505
ZGOW,1995-10-29 21:00,ZGOW 292100Z AUTO 00000KT 3SM 19/18 A2991 RMK SLP132 T01860176 52002 IEM_DS3505
ZGOW,1995-10-29 22:00,ZGOW 292200Z AUTO 00000KT 1 1/2SM 18/17 A2991 RMK SLP133 T01800170 IEM_DS3505
ZGOW,1995-10-30 00:00,ZGOW 300000Z AUTO 02004KT 5SM 21/19 A2997 RMK SLP151 T02130189 52019 IEM_DS3505
ZGOW,1995-10-30 01:00,ZGOW 300100Z AUTO 03004KT 7SM 24/15 A2997 RMK SLP153 T02400150 IEM_DS3505
ZGOW,1995-10-30 02:00,ZGOW 300200Z AUTO 06008KT 7SM 25/15 A2997 RMK SLP153 T02500150 IEM_DS3505
ZGOW,1995-10-30 03:00,ZGOW 300300Z AUTO 09006KT 9SM 26/13 A2994 RMK SLP146 T02610130 57005 IEM_DS3505
ZGOW,1995-10-30 04:00,ZGOW 300400Z AUTO 03006KT 7SM 27/14 A2991 RMK SLP133 T02700140 IEM_DS3505
ZGOW,1995-10-30 05:00,ZGOW 300500Z AUTO 03004KT 7SM 27/14 A2988 RMK SLP123 T02700140 IEM_DS3505
ZGOW,1995-10-30 06:00,ZGOW 300600Z AUTO 14006KT 9SM 27/17 A2985 RMK SLP114 T02690172 57032 IEM_DS3505
ZGOW,1995-10-30 07:00,ZGOW 300700Z AUTO 06006KT 7SM 27/18 A2985 RMK SLP113 T02700180 IEM_DS3505
ZGOW,1995-10-30 08:00,ZGOW 300800Z AUTO 09008KT 7SM 26/19 A2985 RMK SLP113 T02600190 IEM_DS3505
ZGOW,1995-10-30 09:00,ZGOW 300900Z AUTO 09004KT 7SM 25/18 A2985 RMK SLP111 T02480185 57003 IEM_DS3505
ZGOW,1995-10-30 10:00,ZGOW 301000Z AUTO 10006KT 6SM 23/19 A2985 RMK SLP113 T02300190 IEM_DS3505
ZGOW,1995-10-30 11:00,ZGOW 301100Z AUTO 08006KT 6SM 23/19 A2988 RMK SLP123 T02300190 IEM_DS3505
ZGOW,1995-10-30 12:00,ZGOW 301200Z AUTO 07004KT 6SM 23/19 A2991 RMK SLP129 T02270193 52018 IEM_DS3505
ZGOW,1995-10-30 13:00,ZGOW 301300Z AUTO 06006KT 6SM 22/19 A2991 RMK SLP133 T02200190 IEM_DS3505
ZGOW,1995-10-30 15:00,ZGOW 301500Z AUTO 04004KT 4SM 22/20 A2992 RMK SLP137 T02200197 52008 IEM_DS3505
ZGOW,1995-10-30 18:00,ZGOW 301800Z AUTO 04004KT 4SM 21/19 A2991 RMK SLP134 T02070190 57003 IEM_DS3505
ZGOW,1995-10-30 21:00,ZGOW 302100Z AUTO 04002KT 2 1/2SM 20/19 A2988 RMK SLP135 T02000189 52001 IEM_DS3505
ZGOW,1995-10-30 22:00,ZGOW 302200Z AUTO 00000KT 1 1/4SM 19/18 A2991 RMK SLP133 T01900180 IEM_DS3505
ZGOW,1995-10-30 23:00,ZGOW 302300Z AUTO 35004KT 1SM 19/18 A2994 RMK SLP143 T01900180 IEM_DS3505
ZGOW,1995-10-31 00:00,ZGOW 310000Z AUTO 04004KT 2SM 21/19 A2997 RMK SLP152 T02090192 52017 IEM_DS3505
ZGOW,1995-10-31 01:00,ZGOW 310100Z AUTO 02004KT 4SM 24/18 A2997 RMK SLP153 T02400180 IEM_DS3505
ZGOW,1995-10-31 02:00,ZGOW 310200Z AUTO 06004KT 7SM 25/17 A2997 RMK SLP153 T02500170 IEM_DS3505
ZGOW,1995-10-31 03:00,ZGOW 310300Z AUTO 09006KT 4SM 26/18 A2997 RMK SLP150 T02580183 57002 IEM_DS3505
ZGOW,1995-10-31 04:00,ZGOW 310400Z AUTO 08004KT 7SM 27/18 A2994 RMK SLP143 T02700180 IEM_DS3505
ZGOW,1995-10-31 05:00,ZGOW 310500Z AUTO 12006KT 7SM 27/17 A2991 RMK SLP133 T02700170 IEM_DS3505
ZGOW,1995-10-31 06:00,ZGOW 310600Z AUTO 18006KT 6SM 28/19 A2987 RMK SLP120 T02760190 57030 IEM_DS3505
ZGOW,1995-10-31 07:00,ZGOW 310700Z AUTO 12008KT 7SM 27/19 A2988 RMK SLP123 T02700190 IEM_DS3505
ZGOW,1995-10-31 10:00,ZGOW 311000Z AUTO 08012KT 7SM 24/15 A2991 RMK SLP133 T02400150 IEM_DS3505
ZGOW,1995-10-31 11:00,ZGOW 311100Z AUTO 05014KT 4SM 23/17 A2991 RMK SLP133 T02300170 IEM_DS3505
ZGOW,1995-10-31 12:00,ZGOW 311200Z AUTO 09010KT 5SM 23/17 A2994 RMK SLP149 T02300170 52026 IEM_DS3505
ZGOW,1995-10-31 13:00,ZGOW 311300Z AUTO 04014KT 4SM 23/16 A2997 RMK SLP153 T02300160 IEM_DS3505
ZGOW,1995-10-31 15:00,ZGOW 311500Z AUTO 09008KT 4SM 23/17 A2998 RMK SLP157 T02260169 52008 IEM_DS3505
ZGOW,1995-10-31 18:00,ZGOW 311800Z AUTO 09004KT 6SM 21/15 A2998 RMK SLP157 T02140152 54000 IEM_DS3505
ZGOW,1995-10-31 21:00,ZGOW 312100Z AUTO 07004KT 6SM 20/14 A3000 RMK SLP163 T02000143 52006 IEM_DS3505
ZGOW,1995-10-31 22:00,ZGOW 312200Z AUTO 00000KT 3SM 19/16 A3003 RMK SLP174 T01900160 IEM_DS3505
ZGOW,1995-10-31 23:00,ZGOW 312300Z AUTO 02006KT 4SM 19/15 A3006 RMK SLP184 T01900150 IEM_DS3505
ZGOW,1995-11-01 00:00,ZGOW 010000Z AUTO 07008KT 5SM 21/14 A3006 RMK SLP188 T02060139 52025 IEM_DS3505
ZGOW,1995-11-01 01:00,ZGOW 010100Z AUTO 03008KT 7SM 22/14 A3006 RMK SLP184 T02200140 IEM_DS3505
ZGOW,1995-11-01 02:00,ZGOW 010200Z AUTO 03014KT 7SM 23/11 A3006 RMK SLP184 T02300110 IEM_DS3505
ZGOW,1995-11-01 03:00,ZGOW 010300Z AUTO 04012KT 6SM 24/12 A3006 RMK SLP179 T02400121 57009 IEM_DS3505
ZGOW,1995-11-01 04:00,ZGOW 010400Z AUTO 05010KT 7SM 24/11 A3003 RMK SLP174 T02400110 IEM_DS3505
ZGOW,1995-11-01 05:00,ZGOW 010500Z AUTO 06014KT 7SM 25/11 A3000 RMK SLP163 T02500110 IEM_DS3505
ZGOW,1995-11-01 06:00,ZGOW 010600Z AUTO 09008KT 5SM 24/12 A3000 RMK SLP157 T02370119 57022 IEM_DS3505
ZGOW,1995-11-01 07:00,ZGOW 010700Z AUTO 06014KT 6SM 23/12 A2997 RMK SLP153 T02300120 IEM_DS3505
ZGOW,1995-11-01 09:00,ZGOW 010900Z AUTO 14010KT 4SM 22/13 A2997 RMK SLP157 T02220128 54000 IEM_DS3505
ZGOW,1995-11-01 10:00,ZGOW 011000Z AUTO 05016KT 7SM 21/13 A3000 RMK SLP163 T02100130 IEM_DS3505
ZGOW,1995-11-01 11:00,ZGOW 011100Z AUTO 06012KT 7SM 20/13 A3003 RMK SLP174 T02000130 IEM_DS3505
ZGOW,1995-11-01 12:00,ZGOW 011200Z AUTO 09008KT 5SM 20/12 A3006 RMK SLP183 T02030123 52026 IEM_DS3505
ZGOW,1995-11-01 13:00,ZGOW 011300Z AUTO 06014KT 7SM 20/13 A3006 RMK SLP184 T02000130 IEM_DS3505
ZGOW,1995-11-01 14:00,ZGOW 011400Z AUTO 03010KT 7SM 20/14 A3006 RMK SLP184 T02000140 IEM_DS3505
ZGOW,1995-11-01 15:00,ZGOW 011500Z AUTO 09008KT 6SM 19/10 A3009 RMK SLP193 T01910104 52010 IEM_DS3505
ZGOW,1995-11-01 18:00,ZGOW 011800Z AUTO 04006KT 6SM 18/10 A3010 RMK SLP198 T01800097 52005 IEM_DS3505
ZGOW,1995-11-01 21:00,ZGOW 012100Z AUTO 04004KT 6SM 16/10 RMK T01630100 57003 IEM_DS3505
ZGOW,1995-11-01 22:00,ZGOW 012200Z AUTO 03004KT 7SM 16/10 A3012 RMK SLP205 T01600100 IEM_DS3505
ZGOW,1995-11-01 23:00,ZGOW 012300Z AUTO 00000KT 7SM 17/10 A3012 RMK SLP205 T01700100 IEM_DS3505
ZGOW,1995-11-02 00:00,ZGOW 020000Z AUTO 04006KT 6SM 18/11 A3015 RMK SLP212 T01830111 52017 IEM_DS3505
ZGOW,1995-11-02 01:00,ZGOW 020100Z AUTO 01006KT 7SM 21/10 A3015 RMK SLP214 T02100100 IEM_DS3505
ZGOW,1995-11-02 02:00,ZGOW 020200Z AUTO 01006KT 7SM 22/10 A3015 RMK SLP214 T02200100 IEM_DS3505
ZGOW,1995-11-02 03:00,ZGOW 020300Z AUTO 04014KT 6SM 23/07 A3012 RMK SLP201 T02270073 57011 IEM_DS3505
ZGOW,1995-11-02 04:00,ZGOW 020400Z AUTO 07008KT 7SM 23/09 A3009 RMK SLP194 T02300090 IEM_DS3505
ZGOW,1995-11-02 05:00,ZGOW 020500Z AUTO 05006KT 7SM 23/11 A3006 RMK SLP184 T02300110 IEM_DS3505
ZGOW,1995-11-02 06:00,ZGOW 020600Z AUTO 11008KT 6SM 24/10 A3003 RMK SLP171 T02350103 57030 IEM_DS3505
ZGOW,1995-11-02 07:00,ZGOW 020700Z AUTO 06010KT 7SM 23/12 A3000 RMK SLP163 T02300120 IEM_DS3505
ZGOW,1995-11-02 08:00,ZGOW 020800Z AUTO 06010KT 7SM 22/13 A3000 RMK SLP163 T02200130 IEM_DS3505
ZGOW,1995-11-02 09:00,ZGOW 020900Z AUTO 09008KT 6SM 21/12 A3000 RMK SLP163 T02140122 57008 IEM_DS3505
ZGOW,1995-11-02 10:00,ZGOW 021000Z AUTO 06012KT 7SM 21/13 A3000 RMK SLP163 T02100130 IEM_DS3505
ZGOW,1995-11-02 11:00,ZGOW 021100Z AUTO 06012KT 7SM 20/13 A3000 RMK SLP163 T02000130 IEM_DS3505
ZGOW,1995-11-02 12:00,ZGOW 021200Z AUTO 09010KT 6SM 20/12 A3006 RMK SLP182 T01960123 52019 IEM_DS3505
ZGOW,1995-11-02 13:00,ZGOW 021300Z AUTO 06012KT 7SM 20/12 A3006 RMK SLP184 T02000120 IEM_DS3505
ZGOW,1995-11-02 15:00,ZGOW 021500Z AUTO 04008KT 9SM 19/08 A3009 RMK SLP194 T01890085 52012 IEM_DS3505
ZGOW,1995-11-02 18:00,ZGOW 021800Z AUTO 04002KT 9SM 16/10 A3008 RMK SLP190 T01620101 57004 IEM_DS3505
ZGOW,1995-11-02 21:00,ZGOW 022100Z AUTO 01004KT 7SM 15/11 A3003 RMK SLP175 T01500110 IEM_DS3505
ZGOW,1995-11-02 22:00,ZGOW 022200Z AUTO 35004KT 7SM 15/11 A3006 RMK SLP185 T01500110 IEM_DS3505
ZGOW,1995-11-02 23:00,ZGOW 022300Z AUTO 00000KT 6SM 15/12 A3006 RMK SLP185 T01500120 IEM_DS3505
ZGOW,1995-11-03 00:00,ZGOW 030000Z AUTO 04004KT 6SM 18/13 A3009 RMK SLP194 T01750129 52009 IEM_DS3505
ZGOW,1995-11-03 01:00,ZGOW 030100Z AUTO 36004KT 6SM 19/12 A3009 RMK SLP194 T01900120 IEM_DS3505
ZGOW,1995-11-03 02:00,ZGOW 030200Z AUTO 35004KT 6SM 21/11 A3009 RMK SLP194 T02100110 IEM_DS3505
ZGOW,1995-11-03 03:00,ZGOW 030300Z AUTO 07008KT 9SM 23/10 A3006 RMK SLP182 T02300103 57012 IEM_DS3505
ZGOW,1995-11-03 04:00,ZGOW 030400Z AUTO 02004KT 6SM 23/11 A3003 RMK SLP174 T02300110 IEM_DS3505
ZGOW,1995-11-03 05:00,ZGOW 030500Z AUTO 04006KT 6SM 24/13 A3000 RMK SLP163 T02400130 IEM_DS3505
ZGOW,1995-11-03 06:00,ZGOW 030600Z AUTO 16006KT 9SM 24/11 A2997 RMK SLP153 T02400112 57029 IEM_DS3505
ZGOW,1995-11-03 07:00,ZGOW 030700Z AUTO 07008KT 6SM 24/13 A2997 RMK SLP153 T02400130 IEM_DS3505
ZGOW,1995-11-03 08:00,ZGOW 030800Z AUTO 07008KT 6SM 23/14 A2997 RMK SLP153 T02300140 IEM_DS3505
ZGOW,1995-11-03 09:00,ZGOW 030900Z AUTO 09006KT 7SM 22/14 A2997 RMK SLP154 T02250138 52001 IEM_DS3505
ZGOW,1995-11-03 10:00,ZGOW 031000Z AUTO 05010KT 6SM 21/15 A2997 RMK SLP153 T02100150 IEM_DS3505
ZGOW,1995-11-03 11:00,ZGOW 031100Z AUTO 05012KT 6SM 21/15 A3000 RMK SLP163 T02100150 IEM_DS3505
ZGOW,1995-11-03 12:00,ZGOW 031200Z AUTO 09008KT 6SM 21/14 A3003 RMK SLP168 T02090142 52014 IEM_DS3505
ZGOW,1995-11-03 13:00,ZGOW 031300Z AUTO 04010KT 7SM 21/14 A3003 RMK SLP174 T02100140 IEM_DS3505
ZGOW,1995-11-03 15:00,ZGOW 031500Z AUTO 04004KT 6SM 20/13 A3003 RMK SLP172 T01970130 52004 IEM_DS3505
ZGOW,1995-11-03 18:00,ZGOW 031800Z AUTO 36002KT 6SM 18/13 A2998 RMK SLP157 T01760130 57015 IEM_DS3505
ZGOW,1995-11-03 21:00,ZGOW 032100Z AUTO 04004KT 4SM 17/14 A3000 RMK SLP161 T01690143 52004 IEM_DS3505
ZGOW,1995-11-03 22:00,ZGOW 032200Z AUTO 33004KT 6SM 16/15 A3000 RMK SLP164 T01600150 IEM_DS3505
ZGOW,1995-11-03 23:00,ZGOW 032300Z AUTO 00000KT 6SM 17/14 A3003 RMK SLP175 T01700140 IEM_DS3505
ZGOW,1995-11-04 00:00,ZGOW 040000Z AUTO 04004KT 6SM 18/12 A3003 RMK SLP178 T01760120 52017 IEM_DS3505
ZGOW,1995-11-04 01:00,ZGOW 040100Z AUTO 33004KT 4SM 18/13 A3003 RMK SLP175 T01800130 IEM_DS3505
ZGOW,1995-11-04 02:00,ZGOW 040200Z AUTO 34006KT 4SM 21/13 A3003 RMK SLP174 T02100130 IEM_DS3505
ZGOW,1995-11-04 03:00,ZGOW 040300Z AUTO 04008KT 7SM 24/12 A3000 RMK SLP166 T02430125 57012 IEM_DS3505
ZGOW,1995-11-04 04:00,ZGOW 040400Z AUTO 03008KT 6SM 24/13 A3000 RMK SLP163 T02400130 IEM_DS3505
ZGOW,1995-11-04 05:00,ZGOW 040500Z AUTO 02008KT 6SM 24/14 A2997 RMK SLP153 T02400140 IEM_DS3505
ZGOW,1995-11-04 06:00,ZGOW 040600Z AUTO 07008KT 9SM 24/14 A2994 RMK SLP144 T02440137 57022 IEM_DS3505
ZGOW,1995-11-04 07:00,ZGOW 040700Z AUTO 05008KT 7SM 24/15 A2994 RMK SLP143 T02400150 IEM_DS3505
ZGOW,1995-11-04 08:00,ZGOW 040800Z AUTO 05008KT 6SM 24/16 A2991 RMK SLP133 T02400160 IEM_DS3505
ZGOW,1995-11-04 09:00,ZGOW 040900Z AUTO 04008KT 9SM 24/16 A2994 RMK SLP138 T02370158 57006 IEM_DS3505
ZGOW,1995-11-04 10:00,ZGOW 041000Z AUTO 04006KT 6SM 23/17 A2994 RMK SLP143 T02300170 IEM_DS3505
ZGOW,1995-11-04 11:00,ZGOW 041100Z AUTO 04006KT 7SM 23/17 A2997 RMK SLP153 T02300170 IEM_DS3505
ZGOW,1995-11-04 12:00,ZGOW 041200Z AUTO 09008KT 8SM 23/17 A2997 RMK SLP156 T02270167 52018 IEM_DS3505
ZGOW,1995-11-04 13:00,ZGOW 041300Z AUTO 03006KT 6SM 22/17 A3000 RMK SLP163 T02200170 IEM_DS3505
ZGOW,1995-11-04 15:00,ZGOW 041500Z AUTO 09006KT 7SM 22/16 A3000 RMK SLP162 T02160162 52006 IEM_DS3505
ZGOW,1995-11-04 18:00,ZGOW 041800Z AUTO 00000KT 8SM 22/17 A2995 RMK SLP148 T02150166 57014 IEM_DS3505
ZGOW,1995-11-04 21:00,ZGOW 042100Z AUTO 04002KT 7SM 20/17 A2994 RMK SLP143 T02020173 57005 IEM_DS3505
ZGOW,1995-11-04 22:00,ZGOW 042200Z AUTO 00000KT 6SM 20/16 A2994 RMK SLP143 T02000160 IEM_DS3505
ZGOW,1995-11-04 23:00,ZGOW 042300Z AUTO 00000KT 6SM 20/17 A2997 RMK SLP153 T02000170 IEM_DS3505
ZGOW,1995-11-05 00:00,ZGOW 050000Z AUTO 00000KT 6SM 21/16 A3000 RMK SLP163 T02130156 52020 IEM_DS3505
ZGOW,1995-11-05 01:00,ZGOW 050100Z AUTO 00000KT 6SM 22/15 A3003 RMK SLP174 T02200150 IEM_DS3505
ZGOW,1995-11-05 02:00,ZGOW 050200Z AUTO 00000KT 4SM 23/15 A3003 RMK SLP174 T02300150 IEM_DS3505
ZGOW,1995-11-05 03:00,ZGOW 050300Z AUTO 04006KT 6SM 25/17 A3000 RMK SLP164 T02480167 52001 IEM_DS3505
ZGOW,1995-11-05 04:00,ZGOW 050400Z AUTO 06008KT 7SM 25/18 A3000 RMK SLP163 T02500180 IEM_DS3505
ZGOW,1995-11-05 05:00,ZGOW 050500Z AUTO 06006KT 7SM RMK IEM_DS3505
ZGOW,1995-11-05 06:00,ZGOW 050600Z AUTO 07002KT 9SM 24/19 A2995 RMK SLP146 T02450189 57018 IEM_DS3505
ZGOW,1995-11-05 07:00,ZGOW 050700Z AUTO 06006KT 7SM 23/20 A2994 RMK SLP143 T02300200 IEM_DS3505
ZGOW,1995-11-05 08:00,ZGOW 050800Z AUTO 06008KT 6SM 23/19 A2994 RMK SLP143 T02300190 IEM_DS3505
ZGOW,1995-11-05 09:00,ZGOW 050900Z AUTO 07004KT 6SM 24/19 A2994 RMK SLP146 T02370194 54000 IEM_DS3505
ZGOW,1995-11-05 10:00,ZGOW 051000Z AUTO 03004KT 7SM 23/19 A2994 RMK SLP143 T02300190 IEM_DS3505
ZGOW,1995-11-05 11:00,ZGOW 051100Z AUTO 00000KT 7SM 23/19 A2997 RMK SLP153 T02300190 IEM_DS3505
ZGOW,1995-11-05 12:00,ZGOW 051200Z AUTO 07006KT 6SM 23/20 A3000 RMK SLP159 T02290195 52013 IEM_DS3505
ZGOW,1995-11-05 13:00,ZGOW 051300Z AUTO 00000KT 6SM 22/19 A3000 RMK SLP163 T02200190 IEM_DS3505
ZGOW,1995-11-05 14:00,ZGOW 051400Z AUTO 00000KT 6SM 22/19 A3000 RMK SLP163 T02200190 IEM_DS3505
ZGOW,1995-11-05 15:00,ZGOW 051500Z AUTO 09004KT 6SM 23/19 A3000 RMK SLP162 T02270193 52003 IEM_DS3505
ZGOW,1995-11-05 18:00,ZGOW 051800Z AUTO 04006KT 6SM 22/20 A2997 RMK SLP154 T02180195 57008 IEM_DS3505
ZGOW,1995-11-05 21:00,ZGOW 052100Z AUTO 00000KT 5SM 20/18 A2995 RMK SLP146 T02050184 57008 IEM_DS3505
ZGOW,1995-11-05 22:00,ZGOW 052200Z AUTO 00000KT 3SM 20/19 A2997 RMK SLP153 T02000190 IEM_DS3505
ZGOW,1995-11-05 23:00,ZGOW 052300Z AUTO 00000KT 3SM 20/18 A2997 RMK SLP153 T02000180 IEM_DS3505
ZGOW,1995-11-06 00:00,ZGOW 060000Z AUTO 04004KT 5SM 22/19 A2997 RMK SLP158 T02180186 52012 IEM_DS3505
ZGOW,1995-11-06 01:00,ZGOW 060100Z AUTO 01006KT 3SM 24/18 A3000 RMK SLP163 T02400180 IEM_DS3505
ZGOW,1995-11-06 02:00,ZGOW 060200Z AUTO 01006KT 6SM 26/18 A3000 RMK SLP163 T02600180 IEM_DS3505
ZGOW,1995-11-06 03:00,ZGOW 060300Z AUTO 09008KT 8SM 26/20 A3000 RMK SLP162 T02600195 52004 IEM_DS3505
ZGOW,1995-11-06 04:00,ZGOW 060400Z AUTO 05006KT 6SM 26/19 A2997 RMK SLP153 T02600190 IEM_DS3505
ZGOW,1995-11-06 05:00,ZGOW 060500Z AUTO 01006KT 6SM 27/19 A2994 RMK SLP143 T02700190 IEM_DS3505
ZGOW,1995-11-06 06:00,ZGOW 060600Z AUTO 11006KT 7SM 27/20 A2994 RMK SLP139 T02700202 57023 IEM_DS3505
ZGOW,1995-11-06 07:00,ZGOW 060700Z AUTO 11006KT 6SM 26/20 A2994 RMK SLP143 T02600200 IEM_DS3505
ZGOW,1995-11-06 08:00,ZGOW 060800Z AUTO 11006KT 6SM 25/20 A2991 RMK SLP133 T02500200 IEM_DS3505
ZGOW,1995-11-06 09:00,ZGOW 060900Z AUTO 09004KT 7SM 24/20 A2991 RMK SLP134 T02450201 57005 IEM_DS3505
ZGOW,1995-11-06 10:00,ZGOW 061000Z AUTO 10004KT 6SM 24/20 A2991 RMK SLP133 T02400200 IEM_DS3505
ZGOW,1995-11-06 11:00,ZGOW 061100Z AUTO 06006KT 6SM 23/20 A2991 RMK SLP133 T02300200 IEM_DS3505
ZGOW,1995-11-06 12:00,ZGOW 061200Z AUTO 07004KT 7SM 23/20 A2994 RMK SLP146 T02280203 52012 IEM_DS3505
ZGOW,1995-11-06 13:00,ZGOW 061300Z AUTO 06008KT 6SM 23/20 A2997 RMK SLP153 T02300200 IEM_DS3505
ZGOW,1995-11-06 15:00,ZGOW 061500Z AUTO 11006KT 7SM 22/20 A3000 RMK SLP162 T02210201 52016 IEM_DS3505
ZGOW,1995-11-06 18:00,ZGOW 061800Z AUTO 07006KT 7SM 22/19 A2998 RMK SLP155 T02220194 57007 IEM_DS3505
ZGOW,1995-11-06 21:00,ZGOW 062100Z AUTO 04004KT 7SM 22/20 A2997 RMK SLP153 T02190196 57002 IEM_DS3505
ZGOW,1995-11-06 22:00,ZGOW 062200Z AUTO 00000KT 6SM 21/19 A2997 RMK SLP153 T02100190 IEM_DS3505
ZGOW,1995-11-06 23:00,ZGOW 062300Z AUTO 00000KT 6SM 22/19 A3000 RMK SLP163 T02200190 IEM_DS3505
ZGOW,1995-11-07 00:00,ZGOW 070000Z AUTO 02002KT 5SM 23/20 A3000 RMK SLP166 T02270204 52013 IEM_DS3505
ZGOW,1995-11-07 01:00,ZGOW 070100Z AUTO 00000KT 6SM 25/20 A3003 RMK SLP174 T02500200 IEM_DS3505
ZGOW,1995-11-07 02:00,ZGOW 070200Z AUTO 00000KT 6SM 25/20 A3003 RMK SLP174 T02500200 IEM_DS3505
ZGOW,1995-11-07 03:00,ZGOW 070300Z AUTO 09004KT 5SM 26/20 A3003 RMK SLP173 T02630204 52007 IEM_DS3505
ZGOW,1995-11-07 04:00,ZGOW 070400Z AUTO 07004KT 6SM 27/20 A3000 RMK SLP163 T02700200 IEM_DS3505
ZGOW,1995-11-07 05:00,ZGOW 070500Z AUTO 07006KT 6SM 27/20 A3000 RMK SLP163 T02700200 IEM_DS3505
ZGOW,1995-11-07 06:00,ZGOW 070600Z AUTO 04010KT 4SM 27/20 A2997 RMK SLP155 T02730195 57018 IEM_DS3505
ZGOW,1995-11-07 07:00,ZGOW 070700Z AUTO 11006KT 7SM 25/20 A3000 RMK SLP163 T02500200 IEM_DS3505
ZGOW,1995-11-07 08:00,ZGOW 070800Z AUTO 03006KT 2 1/2SM 23/21 A3003 RMK SLP174 T02300210 IEM_DS3505
ZGOW,1995-11-07 09:00,ZGOW 070900Z AUTO 04006KT 9SM 23/17 A3004 RMK SLP177 T02320172 52022 IEM_DS3505
ZGOW,1995-11-07 10:00,ZGOW 071000Z AUTO 33004KT 7SM 22/19 A3003 RMK SLP174 T02200190 IEM_DS3505
ZGOW,1995-11-07 11:00,ZGOW 071100Z AUTO 34006KT 7SM 23/15 A3006 RMK SLP184 T02300150 IEM_DS3505
ZGOW,1995-11-07 12:00,ZGOW 071200Z AUTO 36008KT 7SM 22/15 A3009 RMK SLP195 T02200147 52018 IEM_DS3505
ZGOW,1995-11-07 13:00,ZGOW 071300Z AUTO 34006KT 7SM 22/14 A3009 RMK SLP194 T02200140 IEM_DS3505
ZGOW,1995-11-07 14:00,ZGOW 071400Z AUTO 01006KT 7SM 22/14 A3009 RMK SLP194 T02200140 IEM_DS3505
ZGOW,1995-11-07 15:00,ZGOW 071500Z AUTO 02006KT 7SM 21/13 A3009 RMK SLP195 T02130133 54000 IEM_DS3505
ZGOW,1995-11-07 18:00,ZGOW 071800Z AUTO 02006KT 7SM 21/11 A3008 RMK SLP190 T02080114 57005 IEM_DS3505
ZGOW,1995-11-07 21:00,ZGOW 072100Z AUTO 02006KT 7SM 19/12 A3008 RMK SLP189 T01940118 57001 IEM_DS3505
ZGOW,1995-11-07 22:00,ZGOW 072200Z AUTO 33010KT 7SM 19/11 A3009 RMK SLP194 T01900110 IEM_DS3505
ZGOW,1995-11-07 23:00,ZGOW 072300Z AUTO 34008KT 6SM 19/11 A3009 RMK SLP194 T01900110 IEM_DS3505
ZGOW,1995-11-08 00:00,ZGOW 080000Z AUTO 04006KT 6SM 20/11 A3009 RMK SLP206 T01970109 52017 IEM_DS3505
ZGOW,1995-11-08 03:00,ZGOW 080300Z AUTO 04006KT 6SM 22/10 A3015 RMK SLP215 T02250105 52009 IEM_DS3505
ZGOW,1995-11-08 06:00,ZGOW 080600Z AUTO 11004KT 4SM 23/14 A3009 RMK SLP194 T02280143 57021 IEM_DS3505
ZGOW,1995-11-08 07:00,ZGOW 080700Z AUTO 06008KT 6SM 23/14 A3009 RMK SLP194 T02300140 IEM_DS3505
ZGOW,1995-11-08 08:00,ZGOW 080800Z AUTO 06008KT 6SM 22/15 A3009 RMK SLP194 T02200150 IEM_DS3505
ZGOW,1995-11-08 09:00,ZGOW 080900Z AUTO 04006KT 5SM 21/14 A3010 RMK SLP198 T02100143 52004 IEM_DS3505
ZGOW,1995-11-08 10:00,ZGOW 081000Z AUTO 05008KT 7SM 20/15 A3012 RMK SLP204 T02000150 IEM_DS3505
ZGOW,1995-11-08 11:00,ZGOW 081100Z AUTO 06010KT 7SM 20/14 A3012 RMK SLP204 T02000140 IEM_DS3505
ZGOW,1995-11-08 12:00,ZGOW 081200Z AUTO 11008KT 6SM 20/14 RMK SLP212 T01980137 52014 IEM_DS3505
ZGOW,1995-11-08 13:00,ZGOW 081300Z AUTO 06008KT 6SM 20/14 A3018 RMK SLP224 T02000140 IEM_DS3505
ZGOW,1995-11-08 15:00,ZGOW 081500Z AUTO 07006KT 6SM 18/14 A3014 RMK SLP213 T01850138 52001 IEM_DS3505
ZGOW,1995-11-08 18:00,ZGOW 081800Z AUTO 04004KT 6SM 17/13 A3012 RMK SLP203 T01730134 57010 IEM_DS3505
ZGOW,1995-11-08 21:00,ZGOW 082100Z AUTO 04004KT 6SM 17/12 A3012 RMK SLP206 T01670122 52003 IEM_DS3505
ZGOW,1995-11-08 22:00,ZGOW 082200Z AUTO 01004KT 6SM 16/13 A3015 RMK SLP215 T01600130 IEM_DS3505
ZGOW,1995-11-08 23:00,ZGOW 082300Z AUTO 00000KT 4SM 16/12 A3018 RMK SLP225 T01600120 IEM_DS3505
ZGOW,1995-11-09 00:00,ZGOW 090000Z AUTO 04004KT 6SM 17/10 A3018 RMK SLP229 T01710101 52023 IEM_DS3505
ZGOW,1995-11-09 01:00,ZGOW 090100Z AUTO 02004KT 6SM 18/12 A3021 RMK SLP235 T01800120 IEM_DS3505
ZGOW,1995-11-09 02:00,ZGOW 090200Z AUTO 00000KT 6SM 19/12 A3021 RMK SLP235 T01900120 IEM_DS3505
ZGOW,1995-11-09 03:00,ZGOW 090300Z AUTO 04004KT 5SM 21/11 A3018 RMK SLP227 T02060114 57002 IEM_DS3505
ZGOW,1995-11-09 03:12,ZGOW 090312Z AUTO 04008KT 7SM RMK IEM_DS3505
ZGOW,1995-11-09 05:00,ZGOW 090500Z AUTO 04006KT 6SM 21/11 A3012 RMK SLP204 T02100110 IEM_DS3505
ZGOW,1995-11-09 06:00,ZGOW 090600Z AUTO 09004KT 7SM 22/11 A3010 RMK SLP197 T02220113 57030 IEM_DS3505
ZGOW,1995-11-09 07:00,ZGOW 090700Z AUTO 04006KT 6SM 22/11 A3009 RMK SLP194 T02200110 IEM_DS3505
ZGOW,1995-11-09 08:00,ZGOW 090800Z AUTO 06006KT 6SM 22/12 A3009 RMK SLP194 T02200120 IEM_DS3505
ZGOW,1995-11-09 09:00,ZGOW 090900Z AUTO 11004KT 8SM 21/13 A3009 RMK SLP190 T02120128 57007 IEM_DS3505
ZGOW,1995-11-09 10:00,ZGOW 091000Z AUTO 06004KT 6SM 20/14 A3009 RMK SLP194 T02000140 IEM_DS3505
ZGOW,1995-11-09 11:00,ZGOW 091100Z AUTO 06004KT 6SM 19/14 A3009 RMK SLP194 T01900140 IEM_DS3505
ZGOW,1995-11-09 12:00,ZGOW 091200Z AUTO 04002KT 7SM 19/14 A3012 RMK SLP201 T01880137 52011 IEM_DS3505
ZGOW,1995-11-09 13:00,ZGOW 091300Z AUTO 05004KT 6SM 18/15 A3012 RMK SLP205 T01800150 IEM_DS3505
ZGOW,1995-11-09 15:00,ZGOW 091500Z AUTO 02004KT 6SM 18/14 A3011 RMK SLP201 T01760145 54000 IEM_DS3505
ZGOW,1995-11-09 18:00,ZGOW 091800Z AUTO 04004KT 6SM 16/14 A3009 RMK SLP195 T01620137 57006 IEM_DS3505
ZGOW,1995-11-09 21:00,ZGOW 092100Z AUTO 00000KT 4SM 16/14 A3009 RMK SLP188 T01550137 57007 IEM_DS3505
ZGOW,1995-11-09 22:00,ZGOW 092200Z AUTO 32004KT 2 1/2SM 15/14 A3009 RMK SLP195 T01500140 IEM_DS3505
ZGOW,1995-11-09 23:00,ZGOW 092300Z AUTO 00000KT 2 1/2SM 16/14 A3012 RMK SLP205 T01600140 IEM_DS3505
ZGOW,1995-11-10 00:00,ZGOW 100000Z AUTO 02004KT 3SM 17/14 A3015 RMK SLP211 T01670141 52023 IEM_DS3505
ZGOW,1995-11-10 01:00,ZGOW 100100Z AUTO 32004KT 2 1/2SM 18/15 A3015 RMK SLP215 T01800150 IEM_DS3505
ZGOW,1995-11-10 03:00,ZGOW 100300Z AUTO 27004KT 7SM 22/15 A3012 RMK SLP197 T02240146 57014 IEM_DS3505
ZGOW,1995-11-10 04:00,ZGOW 100400Z AUTO 00000KT 6SM 24/12 A3009 RMK SLP194 T02400120 IEM_DS3505
ZGOW,1995-11-10 05:00,ZGOW 100500Z AUTO 24004KT 6SM 26/10 A3006 RMK SLP184 T02600100 IEM_DS3505
ZGOW,1995-11-10 06:00,ZGOW 100600Z AUTO 18004KT 9SM 27/08 A3003 RMK SLP167 T02740083 57030 IEM_DS3505
ZGOW,1995-11-10 07:00,ZGOW 100700Z AUTO 08008KT 6SM 26/16 A3000 RMK SLP163 T02600160 IEM_DS3505
ZGOW,1995-11-10 08:00,ZGOW 100800Z AUTO 08008KT 7SM 24/16 A3000 RMK SLP163 T02400160 IEM_DS3505
ZGOW,1995-11-10 09:00,ZGOW 100900Z AUTO 09004KT 4SM 22/16 A3000 RMK SLP166 T02230157 57001 IEM_DS3505
ZGOW,1995-11-10 10:00,ZGOW 101000Z AUTO 12004KT 6SM 21/17 A3003 RMK SLP174 T02100170 IEM_DS3505
ZGOW,1995-11-10 11:00,ZGOW 101100Z AUTO 00000KT 6SM 21/15 A3006 RMK SLP184 T02100150 IEM_DS3505
ZGOW,1995-11-10 12:00,ZGOW 101200Z AUTO 09002KT 4SM 21/15 A3006 RMK SLP188 T02070149 52022 IEM_DS3505
ZGOW,1995-11-10 13:00,ZGOW 101300Z AUTO 00000KT 6SM 19/14 A3009 RMK SLP194 T01900140 IEM_DS3505
ZGOW,1995-11-10 14:00,ZGOW 101400Z AUTO 00000KT 6SM 18/14 A3009 RMK SLP195 T01800140 IEM_DS3505
ZGOW,1995-11-10 15:00,ZGOW 101500Z AUTO 04006KT 3SM 19/15 A3008 RMK SLP190 T01860150 52002 IEM_DS3505
ZGOW,1995-11-10 18:00,ZGOW 101800Z AUTO 04004KT 4SM 17/14 A3004 RMK SLP178 T01700135 57012 IEM_DS3505
ZGOW,1995-11-10 21:00,ZGOW 102100Z AUTO 04002KT 4SM 15/12 A3005 RMK SLP180 T01540117 52002 IEM_DS3505
ZGOW,1995-11-10 22:00,ZGOW 102200Z AUTO 00000KT 3SM 13/12 A3006 RMK SLP185 T01300120 IEM_DS3505
ZGOW,1995-11-10 23:00,ZGOW 102300Z AUTO 00000KT 3SM 13/13 A3009 RMK SLP195 T01300130 IEM_DS3505
ZGOW,1995-11-11 00:00,ZGOW 110000Z AUTO 04004KT 6SM 18/10 A3009 RMK SLP202 T01760096 52022 IEM_DS3505
ZGOW,1995-11-11 02:00,ZGOW 110200Z AUTO 06008KT 6SM 20/13 A3012 RMK SLP204 T02000130 IEM_DS3505
ZGOW,1995-11-11 03:00,ZGOW 110300Z AUTO 09010KT 7SM 22/07 A3009 RMK SLP190 T02240071 57012 IEM_DS3505
ZGOW,1995-11-11 04:00,ZGOW 110400Z AUTO 06012KT 6SM 22/08 A3006 RMK SLP184 T02200080 IEM_DS3505
ZGOW,1995-11-11 05:00,ZGOW 110500Z AUTO 06012KT 6SM 23/08 A3003 RMK SLP174 T02300080 IEM_DS3505
ZGOW,1995-11-11 06:00,ZGOW 110600Z AUTO 11006KT 9SM 23/08 A3000 RMK SLP158 T02290084 57032 IEM_DS3505
ZGOW,1995-11-11 07:00,ZGOW 110700Z AUTO 06008KT 6SM 23/09 A2997 RMK SLP153 T02300090 IEM_DS3505
ZGOW,1995-11-11 08:00,ZGOW 110800Z AUTO 06010KT 6SM 22/09 A2997 RMK SLP153 T02200090 IEM_DS3505
ZGOW,1995-11-11 09:00,ZGOW 110900Z AUTO 9SM 22/11 A3000 RMK SLP162 T02180110 52004 IEM_DS3505
ZGOW,1995-11-11 10:00,ZGOW 111000Z AUTO 06008KT 4SM 20/13 A3003 RMK SLP174 T02000130 IEM_DS3505
ZGOW,1995-11-11 11:00,ZGOW 111100Z AUTO 06008KT 4SM 20/12 A3003 RMK SLP174 T02000120 IEM_DS3505
ZGOW,1995-11-11 12:00,ZGOW 111200Z AUTO 09006KT 8SM 20/12 A3003 RMK SLP178 T02010121 52016 IEM_DS3505
ZGOW,1995-11-11 13:00,ZGOW 111300Z AUTO 05010KT 6SM 19/13 A3006 RMK SLP184 T01900130 IEM_DS3505
ZGOW,1995-11-11 15:00,ZGOW 111500Z AUTO 07006KT 7SM 19/13 A3007 RMK SLP187 T01920132 52009 IEM_DS3505
ZGOW,1995-11-11 18:00,ZGOW 111800Z AUTO 04006KT 7SM 18/12 A3003 RMK SLP173 T01840125 57014 IEM_DS3505
ZGOW,1995-11-11 21:00,ZGOW 112100Z AUTO 04002KT 6SM 15/12 A3004 RMK SLP179 T01540121 52006 IEM_DS3505
ZGOW,1995-11-11 22:00,ZGOW 112200Z AUTO 00000KT 3SM 15/12 A3006 RMK SLP185 T01500120 IEM_DS3505
ZGOW,1995-11-11 23:00,ZGOW 112300Z AUTO 00000KT 4SM 16/12 A3009 RMK SLP195 T01600120 IEM_DS3505
ZGOW,1995-11-12 00:00,ZGOW 120000Z AUTO 04006KT 5SM 17/12 A3009 RMK SLP194 T01720125 52015 IEM_DS3505
ZGOW,1995-11-12 01:00,ZGOW 120100Z AUTO 01006KT 6SM 19/12 A3009 RMK SLP194 T01900120 IEM_DS3505
ZGOW,1995-11-12 02:00,ZGOW 120200Z AUTO 02004KT 6SM 21/09 A3009 RMK SLP194 T02100090 IEM_DS3505
ZGOW,1995-11-12 03:00,ZGOW 120300Z AUTO 04004KT 5SM 22/09 A3009 RMK SLP190 T02240090 57004 IEM_DS3505
ZGOW,1995-11-12 04:00,ZGOW 120400Z AUTO 05006KT 6SM 23/11 A3006 RMK SLP184 T02300110 IEM_DS3505
ZGOW,1995-11-12 06:00,ZGOW 120600Z AUTO 09006KT 6SM 23/10 A3003 RMK SLP164 T02330098 57026 IEM_DS3505
ZGOW,1995-11-12 08:00,ZGOW 120800Z AUTO 07004KT 6SM 22/14 A3000 RMK SLP163 T02200140 IEM_DS3505
ZGOW,1995-11-12 09:00,ZGOW 120900Z AUTO 16004KT 5SM 22/14 A3000 RMK SLP165 T02180135 52001 IEM_DS3505
ZGOW,1995-11-12 10:00,ZGOW 121000Z AUTO 06006KT 6SM 21/15 A3003 RMK SLP174 T02100150 IEM_DS3505
ZGOW,1995-11-12 11:00,ZGOW 121100Z AUTO 00000KT 6SM 20/16 A3003 RMK SLP174 T02000160 IEM_DS3505
ZGOW,1995-11-12 12:00,ZGOW 121200Z AUTO 09004KT 6SM 21/15 A3006 RMK SLP179 T02080151 52014 IEM_DS3505
ZGOW,1995-11-12 15:00,ZGOW 121500Z AUTO 07004KT 6SM 20/17 A3007 RMK SLP188 T01980172 52009 IEM_DS3505
ZGOW,1995-11-12 18:00,ZGOW 121800Z AUTO 04002KT 4SM 18/16 A3006 RMK SLP185 T01810157 57003 IEM_DS3505
ZGOW,1995-11-12 21:00,ZGOW 122100Z AUTO 04004KT 4SM 17/15 A3006 RMK SLP179 T01700146 57006 IEM_DS3505
ZGOW,1995-11-12 22:00,ZGOW 122200Z AUTO 00000KT 7SM 16/15 A3006 RMK SLP185 T01600150 IEM_DS3505
ZGOW,1995-11-13 00:00,ZGOW 130000Z AUTO 04004KT 4SM 18/15 A3009 RMK SLP190 T01840150 52011 IEM_DS3505
ZGOW,1995-11-13 01:00,ZGOW 130100Z AUTO 34004KT 5SM 22/14 A3009 RMK SLP194 T02200140 IEM_DS3505
ZGOW,1995-11-13 02:00,ZGOW 130200Z AUTO 35004KT 5SM 22/15 A3009 RMK SLP194 T02200150 IEM_DS3505
ZGOW,1995-11-13 03:00,ZGOW 130300Z AUTO 09006KT 5SM 25/16 A3006 RMK SLP184 T02460161 57006 IEM_DS3505
ZGOW,1995-11-13 04:00,ZGOW 130400Z AUTO 03006KT 7SM 25/16 A3006 RMK SLP184 T02500160 IEM_DS3505
ZGOW,1995-11-13 05:00,ZGOW 130500Z AUTO 00000KT 7SM 25/15 A3000 RMK SLP163 T02500150 IEM_DS3505
ZGOW,1995-11-13 06:00,ZGOW 130600Z AUTO 04004KT 9SM 27/15 A3000 RMK SLP157 T02660147 57027 IEM_DS3505
ZGOW,1995-11-13 07:00,ZGOW 130700Z AUTO 00000KT 7SM 27/17 A2997 RMK SLP153 T02700170 IEM_DS3505
ZGOW,1995-11-13 08:00,ZGOW 130800Z AUTO 11004KT 7SM 26/17 A2997 RMK SLP153 T02600170 IEM_DS3505
ZGOW,1995-11-13 09:00,ZGOW 130900Z AUTO 14006KT 7SM 24/17 A2997 RMK SLP153 T02440170 57002 IEM_DS3505
ZGOW,1995-11-13 10:00,ZGOW 131000Z AUTO 00000KT 7SM 22/19 A3000 RMK SLP163 T02200190 IEM_DS3505
ZGOW,1995-11-13 11:00,ZGOW 131100Z AUTO 14004KT 7SM 22/19 A3000 RMK SLP163 T02200190 IEM_DS3505
ZGOW,1995-11-13 12:00,ZGOW 131200Z AUTO 00000KT 6SM 22/19 A3003 RMK SLP168 T02190187 52013 IEM_DS3505
ZGOW,1995-11-13 13:00,ZGOW 131300Z AUTO 00000KT 7SM 20/19 A3003 RMK SLP174 T02000190 IEM_DS3505
ZGOW,1995-11-13 14:00,ZGOW 131400Z AUTO 00000KT 7SM 20/19 A3003 RMK SLP174 T02000190 IEM_DS3505
ZGOW,1995-11-13 15:00,ZGOW 131500Z AUTO 02002KT 6SM 21/19 A3004 RMK SLP177 T02140190 52009 IEM_DS3505
ZGOW,1995-11-13 18:00,ZGOW 131800Z AUTO 02004KT 9SM 21/15 A3003 RMK SLP174 T02130151 57003 IEM_DS3505
ZGOW,1995-11-13 21:00,ZGOW 132100Z AUTO 34006KT 8SM 21/14 A3003 RMK SLP174 T02090138 54000 IEM_DS3505
ZGOW,1995-11-14 00:00,ZGOW 140000Z AUTO 36006KT 6SM 20/14 A3008 RMK SLP191 T02000143 52017 IEM_DS3505
ZGOW,1995-11-14 03:00,ZGOW 140300Z AUTO 36010KT 7SM 22/14 A3009 RMK SLP198 T02220144 52007 IEM_DS3505
ZGOW,1995-11-14 04:00,ZGOW 140400Z AUTO 01006KT 6SM 22/14 A3009 RMK SLP194 T02200140 IEM_DS3505
ZGOW,1995-11-14 05:00,ZGOW 140500Z AUTO 32008KT 6SM 22/14 A3006 RMK SLP184 T02200140 IEM_DS3505
ZGOW,1995-11-14 06:00,ZGOW 140600Z AUTO 02008KT 6SM 22/14 A3003 RMK SLP175 T02210141 57023 IEM_DS3505
ZGOW,1995-11-14 07:00,ZGOW 140700Z AUTO 33004KT 6SM 21/15 A3003 RMK SLP174 T02100150 IEM_DS3505
ZGOW,1995-11-14 08:00,ZGOW 140800Z AUTO 36006KT 6SM 21/14 A3003 RMK SLP174 T02100140 IEM_DS3505
ZGOW,1995-11-14 09:00,ZGOW 140900Z AUTO 02006KT 6SM 20/14 A3006 RMK SLP180 T02040138 52005 IEM_DS3505
ZGOW,1995-11-14 10:00,ZGOW 141000Z AUTO 01004KT 5SM 20/14 A3006 RMK SLP184 T02000140 IEM_DS3505
ZGOW,1995-11-14 11:00,ZGOW 141100Z AUTO 34004KT 7SM 20/14 A3009 RMK SLP194 T02000140 IEM_DS3505
ZGOW,1995-11-14 12:00,ZGOW 141200Z AUTO 36006KT 7SM 20/15 A3012 RMK SLP200 T02000150 52020 IEM_DS3505
ZGOW,1995-11-14 13:00,ZGOW 141300Z AUTO 31006KT 6SM 19/15 A3012 RMK SLP205 T01900150 IEM_DS3505
ZGOW,1995-11-14 18:00,ZGOW 141800Z AUTO 36006KT 7SM 17/13 A3011 RMK 60001 SLP202 T01670133 57002 IEM_DS3505
ZGOW,1995-11-14 21:00,ZGOW 142100Z AUTO 04004KT 7SM 17/13 A3012 RMK SLP196 T01660132 57006 IEM_DS3505
ZGOW,1995-11-14 22:00,ZGOW 142200Z AUTO 35008KT 7SM 16/13 A3012 RMK SLP205 T01600130 IEM_DS3505
ZGOW,1995-11-14 23:00,ZGOW 142300Z AUTO 01006KT 7SM 16/12 A3015 RMK SLP215 T01600120 IEM_DS3505
ZGOW,1995-11-15 00:00,ZGOW 150000Z AUTO 04008KT 6SM 16/11 A3015 RMK 60001 70002 SLP214 T01580113 52018 IEM_DS3505
ZGOW,1995-11-15 01:00,ZGOW 150100Z AUTO 01006KT 7SM 16/11 A3015 RMK SLP215 T01600110 IEM_DS3505
ZGOW,1995-11-15 03:00,ZGOW 150300Z AUTO 04008KT 9SM 17/10 A3015 RMK SLP210 T01740098 57004 IEM_DS3505
ZGOW,1995-11-15 04:00,ZGOW 150400Z AUTO 02006KT 7SM 18/10 A3015 RMK SLP215 T01800100 IEM_DS3505
ZGOW,1995-11-15 05:00,ZGOW 150500Z AUTO 05010KT 19/11 A3012 RMK SLP205 T01900110 IEM_DS3505
ZGOW,1995-11-15 06:00,ZGOW 150600Z AUTO 36008KT 11SM 20/10 A3009 RMK SLP191 T02040103 57019 IEM_DS3505
ZGOW,1995-11-15 07:00,ZGOW 150700Z AUTO 05008KT 6SM 20/10 A3009 RMK SLP194 T02000100 IEM_DS3505
ZGOW,1995-11-15 08:00,ZGOW 150800Z AUTO 06010KT 6SM 20/11 A3009 RMK SLP194 T02000110 IEM_DS3505
ZGOW,1995-11-15 09:00,ZGOW 150900Z AUTO 09008KT 11SM 19/10 A3009 RMK SLP187 T01880105 57004 IEM_DS3505
ZGOW,1995-11-15 11:00,ZGOW 151100Z AUTO 05006KT 6SM 18/11 A3009 RMK SLP195 T01800110 IEM_DS3505
ZGOW,1995-11-15 12:00,ZGOW 151200Z AUTO 04006KT 9SM 17/10 A3012 RMK SLP205 T01720105 52018 IEM_DS3505
ZGOW,1995-11-15 13:00,ZGOW 151300Z AUTO 03004KT 6SM 17/12 A3015 RMK SLP215 T01700120 IEM_DS3505
ZGOW,1995-11-15 14:00,ZGOW 151400Z AUTO 36004KT 7SM 17/12 A3012 RMK SLP205 T01700120 IEM_DS3505
ZGOW,1995-11-15 15:00,ZGOW 151500Z AUTO 04004KT 8SM 16/12 A3012 RMK SLP204 T01600118 57001 IEM_DS3505
ZGOW,1995-11-15 18:00,ZGOW 151800Z AUTO 04002KT 7SM 15/12 A3010 RMK SLP196 T01510118 57008 IEM_DS3505
ZGOW,1995-11-15 21:00,ZGOW 152100Z AUTO 04004KT 7SM 14/11 A3009 RMK SLP192 T01430111 57004 IEM_DS3505
ZGOW,1995-11-15 22:00,ZGOW 152200Z AUTO 00000KT 6SM 14/11 A3012 RMK SLP205 T01400110 IEM_DS3505
ZGOW,1995-11-15 23:00,ZGOW 152300Z AUTO 34004KT 6SM 14/12 A3012 RMK SLP205 T01400120 IEM_DS3505
ZGOW,1995-11-16 00:00,ZGOW 160000Z AUTO 36006KT 9SM 15/11 A3015 RMK SLP208 T01540109 52016 IEM_DS3505
ZGOW,1995-11-16 01:00,ZGOW 160100Z AUTO 32008KT 6SM 17/12 A3015 RMK SLP215 T01700120 IEM_DS3505
ZGOW,1995-11-16 02:00,ZGOW 160200Z AUTO 30004KT 7SM 20/12 A3015 RMK SLP214 T02000120 IEM_DS3505
ZGOW,1995-11-16 03:00,ZGOW 160300Z AUTO 14006KT 8SM 22/12 A3012 RMK SLP203 T02180121 57005 IEM_DS3505
ZGOW,1995-11-16 05:00,ZGOW 160500Z AUTO 06010KT 7SM 23/12 A3009 RMK SLP194 T02300120 IEM_DS3505
ZGOW,1995-11-16 06:00,ZGOW 160600Z AUTO 04008KT 19SM 23/12 A3005 RMK SLP179 T02280125 57024 IEM_DS3505
ZGOW,1995-11-16 07:00,ZGOW 160700Z AUTO 06006KT 7SM 23/15 A3006 RMK SLP184 T02300150 IEM_DS3505
ZGOW,1995-11-16 08:00,ZGOW 160800Z AUTO 03010KT 6SM 22/15 A3006 RMK SLP184 T02200150 IEM_DS3505
ZGOW,1995-11-16 09:00,ZGOW 160900Z AUTO 04008KT 12SM 21/15 A3006 RMK SLP180 T02120150 52001 IEM_DS3505
ZGOW,1995-11-16 10:00,ZGOW 161000Z AUTO 06012KT 7SM 20/15 A3009 RMK SLP194 T02000150 IEM_DS3505
ZGOW,1995-11-16 11:00,ZGOW 161100Z AUTO 06012KT 7SM 20/15 A3009 RMK SLP194 T02000150 IEM_DS3505
ZGOW,1995-11-16 12:00,ZGOW 161200Z AUTO 04006KT 9SM 19/15 A3012 RMK SLP204 T01940146 52024 IEM_DS3505
ZGOW,1995-11-16 13:00,ZGOW 161300Z AUTO 06008KT 7SM 19/15 A3015 RMK SLP215 T01900150 IEM_DS3505
ZGOW,1995-11-16 15:00,ZGOW 161500Z AUTO 00000KT 9SM 17/15 A3013 RMK SLP210 T01700149 52006 IEM_DS3505
ZGOW,1995-11-16 18:00,ZGOW 161800Z AUTO 04004KT 7SM 16/14 A3010 RMK SLP198 T01550141 57012 IEM_DS3505
ZGOW,1995-11-16 21:00,ZGOW 162100Z AUTO 00000KT 4SM 15/14 A3010 RMK SLP199 T01510139 52001 IEM_DS3505
ZGOW,1995-11-16 22:00,ZGOW 162200Z AUTO 00000KT 2 1/2SM 14/13 A3012 RMK SLP205 T01400130 IEM_DS3505
ZGOW,1995-11-16 23:00,ZGOW 162300Z AUTO 30006KT 2 1/2SM 14/13 A3015 RMK SLP215 T01400130 IEM_DS3505
ZGOW,1995-11-17 00:00,ZGOW 170000Z AUTO 04004KT 7SM 17/14 A3015 RMK SLP219 T01680140 52020 IEM_DS3505
ZGOW,1995-11-17 01:00,ZGOW 170100Z AUTO 00000KT 5SM 19/14 A3015 RMK SLP215 T01900140 IEM_DS3505
ZGOW,1995-11-17 02:00,ZGOW 170200Z AUTO 07006KT 6SM 20/13 A3015 RMK SLP214 T02000130 IEM_DS3505
ZGOW,1995-11-17 03:00,ZGOW 170300Z AUTO 04008KT 11SM 22/12 A3015 RMK SLP216 T02200123 57003 IEM_DS3505
ZGOW,1995-11-17 04:00,ZGOW 170400Z AUTO 02006KT 6SM 23/14 A3015 RMK SLP214 T02300140 IEM_DS3505
ZGOW,1995-11-17 05:00,ZGOW 170500Z AUTO 04010KT 7SM 23/14 A3009 RMK SLP194 T02300140 IEM_DS3505
ZGOW,1995-11-17 06:00,ZGOW 170600Z AUTO 14006KT 16SM 24/13 A3006 RMK SLP187 T02370132 57029 IEM_DS3505
ZGOW,1995-11-17 07:00,ZGOW 170700Z AUTO 06008KT 7SM 24/15 A3006 RMK SLP184 T02400150 IEM_DS3505
ZGOW,1995-11-17 08:00,ZGOW 170800Z AUTO 08008KT 7SM 23/15 A3006 RMK SLP184 T02300150 IEM_DS3505
ZGOW,1995-11-17 09:00,ZGOW 170900Z AUTO 09004KT 12SM 22/16 A3006 RMK SLP181 T02240160 57006 IEM_DS3505
ZGOW,1995-11-17 10:00,ZGOW 171000Z AUTO 06006KT 7SM 21/16 A3006 RMK SLP184 T02100160 IEM_DS3505
ZGOW,1995-11-17 11:00,ZGOW 171100Z AUTO 03008KT 7SM 20/16 A3006 RMK SLP184 T02000160 IEM_DS3505
ZGOW,1995-11-17 12:00,ZGOW 171200Z AUTO 09008KT 12SM 20/15 A3009 RMK SLP196 T02040154 52015 IEM_DS3505
ZGOW,1995-11-17 13:00,ZGOW 171300Z AUTO 03008KT 6SM 20/17 A3009 RMK SLP194 T02000170 IEM_DS3505
ZGOW,1995-11-17 14:00,ZGOW 171400Z AUTO 01006KT 6SM 20/16 A3009 RMK SLP194 T02000160 IEM_DS3505
ZGOW,1995-11-17 15:00,ZGOW 171500Z AUTO 09004KT 12SM 20/14 A3012 RMK SLP206 T01960141 52010 IEM_DS3505
ZGOW,1995-11-17 18:00,ZGOW 171800Z AUTO 11004KT 11SM 19/12 A3010 RMK SLP198 T01880117 57008 IEM_DS3505
ZGOW,1995-11-17 21:00,ZGOW 172100Z AUTO 04004KT 10SM 17/11 A3011 RMK SLP200 T01740111 52002 IEM_DS3505
ZGOW,1995-11-17 22:00,ZGOW 172200Z AUTO 00000KT 6SM 16/14 A3012 RMK SLP205 T01600140 IEM_DS3505
ZGOW,1995-11-17 23:00,ZGOW 172300Z AUTO 00000KT 3SM 17/16 A3015 RMK SLP215 T01700160 IEM_DS3505
ZGOW,1995-11-18 00:00,ZGOW 180000Z AUTO 34004KT 8SM 17/15 A3015 RMK SLP221 T01730152 52021 IEM_DS3505
ZGOW,1995-11-18 01:00,ZGOW 180100Z AUTO 35004KT 4SM 20/15 A3018 RMK SLP224 T02000150 IEM_DS3505
ZGOW,1995-11-18 03:00,ZGOW 180300Z AUTO 09006KT 10SM 23/11 A3015 RMK SLP213 T02300112 57008 IEM_DS3505
ZGOW,1995-11-18 05:00,ZGOW 180500Z AUTO 07008KT 6SM 23/12 A3009 RMK SLP194 T02300120 IEM_DS3505
ZGOW,1995-11-18 06:00,ZGOW 180600Z AUTO 16004KT 16SM 24/14 A3006 RMK SLP184 T02350138 57029 IEM_DS3505
ZGOW,1995-11-18 07:00,ZGOW 180700Z AUTO 12006KT 6SM 24/15 A3006 RMK SLP184 T02400150 IEM_DS3505
ZGOW,1995-11-18 08:00,ZGOW 180800Z AUTO 08006KT 6SM 23/15 A3006 RMK SLP184 T02300150 IEM_DS3505
ZGOW,1995-11-18 09:00,ZGOW 180900Z AUTO 09004KT 11SM 22/15 A3006 RMK SLP179 T02170152 57005 IEM_DS3505
ZGOW,1995-11-18 10:00,ZGOW 181000Z AUTO 05008KT 7SM 21/16 A3006 RMK SLP184 T02100160 IEM_DS3505
ZGOW,1995-11-18 11:00,ZGOW 181100Z AUTO 07008KT 7SM 20/16 A3009 RMK SLP194 T02000160 IEM_DS3505
ZGOW,1995-11-18 12:00,ZGOW 181200Z AUTO 09006KT 9SM 20/14 A3009 RMK SLP193 T02050143 52014 IEM_DS3505
ZGOW,1995-11-18 13:00,ZGOW 181300Z AUTO 05006KT 6SM 20/16 A3009 RMK SLP194 T02000160 IEM_DS3505
ZGOW,1995-11-18 14:00,ZGOW 181400Z AUTO 05006KT 7SM 20/15 A3009 RMK SLP194 T02000150 IEM_DS3505
ZGOW,1995-11-18 15:00,ZGOW 181500Z AUTO 09004KT 9SM 20/15 A3012 RMK SLP197 T01970153 52004 IEM_DS3505
ZGOW,1995-11-18 18:00,ZGOW 181800Z AUTO 00000KT 7SM 19/15 A3009 RMK SLP194 T01880154 57003 IEM_DS3505
ZGOW,1995-11-18 21:00,ZGOW 182100Z AUTO 00000KT 6SM 17/16 A3009 RMK SLP196 T01720157 52002 IEM_DS3505
ZGOW,1995-11-18 22:00,ZGOW 182200Z AUTO 00000KT 5SM 17/16 A3012 RMK SLP205 T01700160 IEM_DS3505
ZGOW,1995-11-18 23:00,ZGOW 182300Z AUTO 00000KT 4SM 18/16 A3015 RMK SLP215 T01800160 IEM_DS3505
ZGOW,1995-11-19 00:00,ZGOW 190000Z AUTO 36004KT 6SM 19/16 A3015 RMK SLP213 T01880156 52017 IEM_DS3505
ZGOW,1995-11-19 02:00,ZGOW 190200Z AUTO 00000KT 7SM 22/16 A3015 RMK SLP214 T02200160 IEM_DS3505
ZGOW,1995-11-19 03:00,ZGOW 190300Z AUTO 09006KT 7SM 24/15 A3012 RMK SLP204 T02410151 57009 IEM_DS3505
ZGOW,1995-11-19 06:00,ZGOW 190600Z AUTO 14006KT 7SM 24/16 A3001 RMK SLP167 T02440157 57037 IEM_DS3505
ZGOW,1995-11-19 07:00,ZGOW 190700Z AUTO 10008KT 6SM 24/17 A3000 RMK SLP163 T02400170 IEM_DS3505
ZGOW,1995-11-19 09:00,ZGOW 190900Z AUTO 09004KT 7SM 22/16 A3000 RMK SLP166 T02210165 57001 IEM_DS3505
ZGOW,1995-11-19 10:00,ZGOW 191000Z AUTO 00000KT 6SM 21/18 A3003 RMK SLP174 T02100180 IEM_DS3505
ZGOW,1995-11-19 11:00,ZGOW 191100Z AUTO 04006KT 6SM 21/17 A3003 RMK SLP174 T02100170 IEM_DS3505
ZGOW,1995-11-19 12:00,ZGOW 191200Z AUTO 04006KT 7SM 20/17 A3006 RMK SLP183 T02050172 52017 IEM_DS3505
ZGOW,1995-11-19 13:00,ZGOW 191300Z AUTO 04006KT 6SM 20/18 A3009 RMK SLP194 T02000180 IEM_DS3505
ZGOW,1995-11-19 15:00,ZGOW 191500Z AUTO 04004KT 7SM 20/17 A3009 RMK SLP193 T02020171 52010 IEM_DS3505
ZGOW,1995-11-19 18:00,ZGOW 191800Z AUTO 04002KT 6SM 19/15 A3008 RMK SLP189 T01880154 57004 IEM_DS3505
ZGOW,1995-11-19 21:00,ZGOW 192100Z AUTO 04002KT 6SM 17/12 A3012 RMK SLP201 T01730118 52012 IEM_DS3505
ZGOW,1995-11-19 22:00,ZGOW 192200Z AUTO 00000KT 6SM 17/15 A3012 RMK SLP205 T01700150 IEM_DS3505
ZGOW,1995-11-19 23:00,ZGOW 192300Z AUTO 00000KT 7SM 16/15 A3015 RMK SLP215 T01600150 IEM_DS3505
ZGOW,1995-11-20 00:00,ZGOW 200000Z AUTO 02004KT 4SM 17/12 A3018 RMK SLP225 T01690116 52024 IEM_DS3505
ZGOW,1995-11-20 01:00,ZGOW 200100Z AUTO 00000KT 6SM 18/13 A3021 RMK SLP235 T01800130 IEM_DS3505
ZGOW,1995-11-20 02:00,ZGOW 200200Z AUTO 02010KT 7SM 20/12 A3021 RMK SLP234 T02000120 IEM_DS3505
ZGOW,1995-11-20 03:00,ZGOW 200300Z AUTO 04006KT 4SM 21/12 A3018 RMK SLP218 T02100121 57007 IEM_DS3505
ZGOW,1995-11-20 04:00,ZGOW 200400Z AUTO 06006KT 7SM 21/12 A3015 RMK SLP214 T02100120 IEM_DS3505
ZGOW,1995-11-20 05:00,ZGOW 200500Z AUTO 05010KT 7SM 22/13 A3012 RMK SLP204 T02200130 IEM_DS3505
ZGOW,1995-11-20 06:00,ZGOW 200600Z AUTO 04004KT 6SM 22/12 A3007 RMK SLP188 T02220117 57030 IEM_DS3505
ZGOW,1995-11-20 07:00,ZGOW 200700Z AUTO 08014KT 7SM 22/12 A3006 RMK SLP184 T02200120 IEM_DS3505
ZGOW,1995-11-20 08:00,ZGOW 200800Z AUTO 06012KT 6SM 21/12 A3006 RMK SLP184 T02100120 IEM_DS3505
ZGOW,1995-11-20 09:00,ZGOW 200900Z AUTO 09006KT 4SM 20/12 A3009 RMK SLP189 T02030123 52001 IEM_DS3505
ZGOW,1995-11-20 10:00,ZGOW 201000Z AUTO 07014KT 6SM 19/13 A3009 RMK SLP194 T01900130 IEM_DS3505
ZGOW,1995-11-20 11:00,ZGOW 201100Z AUTO 06012KT 6SM 19/13 A3012 RMK SLP205 T01900130 IEM_DS3505
ZGOW,1995-11-20 12:00,ZGOW 201200Z AUTO 04010KT 4SM 19/13 A3015 RMK SLP215 T01870126 52026 IEM_DS3505
ZGOW,1995-11-20 13:00,ZGOW 201300Z AUTO 06012KT 6SM 18/13 A3018 RMK SLP225 T01800130 IEM_DS3505
ZGOW,1995-11-20 14:00,ZGOW 201400Z AUTO 05010KT 6SM 18/13 A3018 RMK SLP225 T01800130 IEM_DS3505
ZGOW,1995-11-20 15:00,ZGOW 201500Z AUTO 04008KT 4SM 18/12 A3016 RMK SLP220 T01750119 52005 IEM_DS3505
ZGOW,1995-11-20 18:00,ZGOW 201800Z AUTO 04004KT 5SM 17/12 A3016 RMK SLP218 T01670117 57002 IEM_DS3505
ZGOW,1995-11-20 21:00,ZGOW 202100Z AUTO 04002KT 3SM 16/12 A3015 RMK SLP212 T01610123 57006 IEM_DS3505
ZGOW,1995-11-20 22:00,ZGOW 202200Z AUTO 35004KT 6SM 15/13 A3018 RMK SLP225 T01500130 IEM_DS3505
ZGOW,1995-11-20 23:00,ZGOW 202300Z AUTO 35004KT 3SM 16/11 A3018 RMK SLP225 T01600110 IEM_DS3505
ZGOW,1995-11-21 00:00,ZGOW 210000Z AUTO 36004KT 4SM 16/11 A3021 RMK SLP229 T01610106 52017 IEM_DS3505
ZGOW,1995-11-21 01:00,ZGOW 210100Z AUTO 32008KT 2 1/2SM 17/11 A3021 RMK SLP235 T01700110 IEM_DS3505
ZGOW,1995-11-21 02:00,ZGOW 210200Z AUTO 33008KT 2 1/2SM 17/11 A3024 RMK SLP246 T01700110 IEM_DS3505
ZGOW,1995-11-21 03:00,ZGOW 210300Z AUTO 02006KT 4SM 18/10 A3021 RMK SLP226 T01800105 57003 IEM_DS3505
ZGOW,1995-11-21 04:00,ZGOW 210400Z AUTO 30006KT 2 1/2SM 18/11 A3018 RMK SLP225 T01800110 IEM_DS3505
ZGOW,1995-11-21 05:00,ZGOW 210500Z AUTO 35004KT 2 1/2SM 18/12 A3012 RMK SLP205 T01800120 IEM_DS3505
ZGOW,1995-11-21 06:00,ZGOW 210600Z AUTO 04004KT 3SM 19/11 A3010 RMK SLP196 T01940114 57030 IEM_DS3505
ZGOW,1995-11-21 07:00,ZGOW 210700Z AUTO 09006KT 4SM 20/12 A3009 RMK SLP194 T02000120 IEM_DS3505
ZGOW,1995-11-21 08:00,ZGOW 210800Z AUTO 06004KT 4SM 19/10 A3009 RMK SLP194 T01900100 IEM_DS3505
ZGOW,1995-11-21 09:00,ZGOW 210900Z AUTO 04004KT 2 1/2SM 19/11 A3009 RMK SLP189 T01930106 57007 IEM_DS3505
ZGOW,1995-11-21 10:00,ZGOW 211000Z AUTO 05006KT 3SM 18/13 A3009 RMK SLP195 T01800130 IEM_DS3505
ZGOW,1995-11-21 11:00,ZGOW 211100Z AUTO 06008KT 3SM 18/13 A3012 RMK SLP205 T01800130 IEM_DS3505
ZGOW,1995-11-21 12:00,ZGOW 211200Z AUTO 04004KT 3SM 18/12 A3012 RMK SLP209 T01780122 52020 IEM_DS3505
ZGOW,1995-11-21 13:00,ZGOW 211300Z AUTO 06006KT 2 1/2SM 18/13 A3015 RMK SLP215 T01800130 IEM_DS3505
ZGOW,1995-11-21 15:00,ZGOW 211500Z AUTO 04004KT 4SM 18/13 A3016 RMK SLP218 T01750127 52009 IEM_DS3505
ZGOW,1995-11-21 18:00,ZGOW 211800Z AUTO 04004KT 3SM 16/12 A3014 RMK SLP212 T01610123 57006 IEM_DS3505
ZGOW,1995-11-21 21:00,ZGOW 212100Z AUTO 02002KT 3SM 14/12 A3015 RMK SLP208 T01400120 57004 IEM_DS3505
ZGOW,1995-11-21 23:00,ZGOW 212300Z AUTO 32006KT 2 1/2SM 14/12 A3015 RMK SLP215 T01400120 IEM_DS3505
ZGOW,1995-11-22 00:00,ZGOW 220000Z AUTO 02004KT 2 1/2SM 16/12 A3018 RMK SLP222 T01550122 52014 IEM_DS3505
ZGOW,1995-11-22 01:00,ZGOW 220100Z AUTO 33006KT 3SM 17/13 A3018 RMK SLP225 T01700130 IEM_DS3505
ZGOW,1995-11-22 02:00,ZGOW 220200Z AUTO 33004KT 3SM 19/12 A3018 RMK SLP225 T01900120 IEM_DS3505
ZGOW,1995-11-22 03:00,ZGOW 220300Z AUTO 34004KT 2 1/2SM 20/13 A3015 RMK SLP215 T02010127 57007 IEM_DS3505
ZGOW,1995-11-22 04:00,ZGOW 220400Z AUTO 08004KT 4SM 21/14 A3015 RMK SLP214 T02100140 IEM_DS3505
ZGOW,1995-11-22 05:00,ZGOW 220500Z AUTO 00000KT 4SM 23/14 A3009 RMK SLP194 T02300140 IEM_DS3505
ZGOW,1995-11-22 06:00,ZGOW 220600Z AUTO 22006KT 2 1/2SM 23/13 A3006 RMK SLP183 T02310129 57032 IEM_DS3505
ZGOW,1995-11-22 07:00,ZGOW 220700Z AUTO 07004KT 4SM 23/14 A3003 RMK SLP174 T02300140 IEM_DS3505
ZGOW,1995-11-22 08:00,ZGOW 220800Z AUTO 12006KT 5SM 21/15 A3003 RMK SLP174 T02100150 IEM_DS3505
ZGOW,1995-11-22 09:00,ZGOW 220900Z AUTO 09002KT 3SM 21/14 A3006 RMK SLP174 T02120144 57009 IEM_DS3505
ZGOW,1995-11-22 10:00,ZGOW 221000Z AUTO 00000KT 3SM 19/15 A3006 RMK SLP184 T01900150 IEM_DS3505
ZGOW,1995-11-22 11:00,ZGOW 221100Z AUTO 00000KT 3SM 19/16 A3006 RMK SLP184 T01900160 IEM_DS3505
ZGOW,1995-11-22 12:00,ZGOW 221200Z AUTO 04002KT 4SM 19/16 A3009 RMK SLP191 T01930158 52017 IEM_DS3505
ZGOW,1995-11-22 13:00,ZGOW 221300Z AUTO 00000KT 3SM 18/16 A3009 RMK SLP195 T01800160 IEM_DS3505
ZGOW,1995-11-22 15:00,ZGOW 221500Z AUTO 02004KT 2 1/2SM 18/13 A3012 RMK SLP204 T01760130 52013 IEM_DS3505
ZGOW,1995-11-22 18:00,ZGOW 221800Z AUTO 04004KT 3SM 17/13 A3012 RMK SLP205 T01730126 52001 IEM_DS3505
ZGOW,1995-11-22 21:00,ZGOW 222100Z AUTO 04004KT 3SM 16/12 A3010 RMK SLP197 T01610121 57008 IEM_DS3505
ZGOW,1995-11-22 22:00,ZGOW 222200Z AUTO 31006KT 6SM 16/12 A3012 RMK SLP205 T01600120 IEM_DS3505
ZGOW,1995-11-22 23:00,ZGOW 222300Z AUTO 03006KT 4SM 15/12 A3015 RMK SLP215 T01500120 IEM_DS3505
ZGOW,1995-11-23 00:00,ZGOW 230000Z AUTO 36006KT 6SM 17/11 A3018 RMK SLP223 T01660106 52026 IEM_DS3505
ZGOW,1995-11-23 01:00,ZGOW 230100Z AUTO 33008KT 6SM 18/10 A3021 RMK SLP235 T01800100 IEM_DS3505
ZGOW,1995-11-23 02:00,ZGOW 230200Z AUTO 34006KT 7SM 19/10 A3021 RMK SLP235 T01900100 IEM_DS3505
ZGOW,1995-11-23 03:00,ZGOW 230300Z AUTO 02006KT 6SM 20/10 A3018 RMK SLP226 T02030099 52003 IEM_DS3505
ZGOW,1995-11-23 04:00,ZGOW 230400Z AUTO 29006KT 7SM 21/10 A3018 RMK SLP224 T02100100 IEM_DS3505
ZGOW,1995-11-23 05:00,ZGOW 230500Z AUTO 34006KT 7SM 22/11 A3012 RMK SLP204 T02200110 IEM_DS3505
ZGOW,1995-11-23 06:00,ZGOW 230600Z AUTO 04004KT 8SM 23/09 A3012 RMK SLP199 T02330090 57027 IEM_DS3505
ZGOW,1995-11-23 07:00,ZGOW 230700Z AUTO 33006KT 7SM 23/08 A3012 RMK SLP204 T02300080 IEM_DS3505
ZGOW,1995-11-23 08:00,ZGOW 230800Z AUTO 10008KT 7SM 23/13 A3012 RMK SLP204 T02300130 IEM_DS3505
ZGOW,1995-11-23 09:00,ZGOW 230900Z AUTO 04006KT 8SM 22/04 A3015 RMK SLP212 T02180041 52013 IEM_DS3505
ZGOW,1995-11-23 10:00,ZGOW 231000Z AUTO 36008KT 6SM 20/09 A3018 RMK SLP224 T02000090 IEM_DS3505
ZGOW,1995-11-23 11:00,ZGOW 231100Z AUTO 35008KT 6SM 19/07 A3021 RMK SLP235 T01900070 IEM_DS3505
ZGOW,1995-11-23 12:00,ZGOW 231200Z AUTO 02006KT 7SM 16/06 A3024 RMK SLP241 T01630062 52029 IEM_DS3505
ZGOW,1995-11-23 13:00,ZGOW 231300Z AUTO 34006KT 6SM 17/04 A3027 RMK SLP256 T01700040 IEM_DS3505
ZGOW,1995-11-23 14:00,ZGOW 231400Z AUTO 35006KT 6SM 16/03 A3027 RMK SLP256 T01600030 IEM_DS3505
ZGOW,1995-11-23 15:00,ZGOW 231500Z AUTO 07002KT 7SM 14/03 A3027 RMK SLP253 T01440033 52012 IEM_DS3505
ZGOW,1995-11-23 18:00,ZGOW 231800Z AUTO 04004KT 7SM 13/03 A3026 RMK SLP251 T01320030 57002 IEM_DS3505
ZGOW,1995-11-23 21:00,ZGOW 232100Z AUTO 36006KT 7SM 11/01 A3024 RMK SLP247 T01070007 57004 IEM_DS3505
ZGOW,1995-11-23 22:00,ZGOW 232200Z AUTO 01004KT 5SM 12/02 A3024 RMK SLP246 T01200020 IEM_DS3505
ZGOW,1995-11-23 23:00,ZGOW 232300Z AUTO 36004KT 7SM 12/00 A3027 RMK SLP256 T01200000 IEM_DS3505
ZGOW,1995-11-24 00:00,ZGOW 240000Z AUTO 36006KT 9SM 12/M03 A3027 RMK SLP256 T01231033 52009 IEM_DS3505
ZGOW,1995-11-24 01:00,ZGOW 240100Z AUTO 33006KT 7SM 14/M03 A3030 RMK SLP266 T01401030 IEM_DS3505
ZGOW,1995-11-24 02:00,ZGOW 240200Z AUTO 35010KT 7SM 16/M08 A3027 RMK SLP256 T01601080 IEM_DS3505
ZGOW,1995-11-24 03:00,ZGOW 240300Z AUTO 09006KT 12SM 17/M06 A3024 RMK SLP249 T01701056 57007 IEM_DS3505
ZGOW,1995-11-24 04:00,ZGOW 240400Z AUTO 30006KT 7SM 19/M07 A3024 RMK SLP246 T01901070 IEM_DS3505
ZGOW,1995-11-24 05:00,ZGOW 240500Z AUTO 36006KT 7SM 19/M04 A3018 RMK SLP225 T01901040 IEM_DS3505
ZGOW,1995-11-24 06:00,ZGOW 240600Z AUTO 09004KT 16SM 20/M03 A3015 RMK SLP213 T01981028 57036 IEM_DS3505
ZGOW,1995-11-24 07:00,ZGOW 240700Z AUTO 09006KT 6SM 20/01 A3015 RMK SLP214 T02000010 IEM_DS3505
ZGOW,1995-11-24 08:00,ZGOW 240800Z AUTO 08004KT 7SM 19/03 A3012 RMK SLP205 T01900030 IEM_DS3505
ZGOW,1995-11-24 09:00,ZGOW 240900Z AUTO 11004KT 11SM 17/02 A3012 RMK SLP203 T01740018 57010 IEM_DS3505
ZGOW,1995-11-24 10:00,ZGOW 241000Z AUTO 06004KT 7SM 15/08 A3012 RMK SLP205 T01500080 IEM_DS3505
ZGOW,1995-11-24 12:00,ZGOW 241200Z AUTO 07004KT 7SM 15/05 A3015 RMK SLP212 T01500053 52009 IEM_DS3505
ZGOW,1995-11-24 13:00,ZGOW 241300Z AUTO 02006KT 7SM 14/07 A3015 RMK SLP215 T01400070 IEM_DS3505
ZGOW,1995-11-24 14:00,ZGOW 241400Z AUTO 34006KT 7SM 13/06 A3015 RMK SLP215 T01300060 IEM_DS3505
ZGOW,1995-11-24 15:00,ZGOW 241500Z AUTO 02002KT 6SM 12/06 A3015 RMK SLP213 T01180063 52001 IEM_DS3505
ZGOW,1995-11-24 18:00,ZGOW 241800Z AUTO 04004KT 6SM 10/05 A3011 RMK SLP202 T01000049 57011 IEM_DS3505
ZGOW,1995-11-24 21:00,ZGOW 242100Z AUTO 04004KT 6SM 09/02 A3010 RMK SLP199 T00860015 57003 IEM_DS3505
ZGOW,1995-11-24 22:00,ZGOW 242200Z AUTO 00000KT 7SM 08/04 A3012 RMK SLP205 T00800040 IEM_DS3505
ZGOW,1995-11-24 23:00,ZGOW 242300Z AUTO 00000KT 6SM 08/03 A3015 RMK SLP215 T00800030 IEM_DS3505
ZGOW,1995-11-25 00:00,ZGOW 250000Z AUTO 04004KT 7SM 10/02 A3015 RMK SLP214 T00980022 52015 IEM_DS3505
ZGOW,1995-11-25 01:00,ZGOW 250100Z AUTO 36004KT 6SM 12/04 A3015 RMK SLP215 T01200040 IEM_DS3505
ZGOW,1995-11-25 02:00,ZGOW 250200Z AUTO 35004KT 6SM 15/04 A3015 RMK SLP215 T01500040 IEM_DS3505
ZGOW,1995-11-25 03:00,ZGOW 250300Z AUTO 34004KT 6SM 17/02 A3015 RMK SLP209 T01680024 57005 IEM_DS3505
ZGOW,1995-11-25 04:00,ZGOW 250400Z AUTO 06008KT 7SM 19/04 A3012 RMK SLP205 T01900040 IEM_DS3505
ZGOW,1995-11-25 05:00,ZGOW 250500Z AUTO 03008KT 7SM 19/05 A3009 RMK SLP194 T01900050 IEM_DS3505
ZGOW,1995-11-25 06:00,ZGOW 250600Z AUTO 04004KT 16SM 20/05 A3003 RMK SLP175 T01950052 57034 IEM_DS3505
ZGOW,1995-11-25 07:00,ZGOW 250700Z AUTO 05008KT 7SM 20/08 A3003 RMK SLP174 T02000080 IEM_DS3505
ZGOW,1995-11-25 08:00,ZGOW 250800Z AUTO 05006KT 7SM 20/10 A3003 RMK SLP174 T02000100 IEM_DS3505
ZGOW,1995-11-25 09:00,ZGOW 250900Z AUTO 16004KT 10SM 18/10 A3002 RMK SLP170 T01800095 57005 IEM_DS3505
ZGOW,1995-11-25 10:00,ZGOW 251000Z AUTO 00000KT 7SM 15/12 A3003 RMK SLP175 T01500120 IEM_DS3505
ZGOW,1995-11-25 11:00,ZGOW 251100Z AUTO 00000KT 7SM 14/09 A3006 RMK SLP185 T01400090 IEM_DS3505
ZGOW,1995-11-25 12:00,ZGOW 251200Z AUTO 04004KT 8SM 17/11 A3006 RMK SLP183 T01660114 52013 IEM_DS3505
ZGOW,1995-11-25 13:00,ZGOW 251300Z AUTO 08004KT 7SM 15/12 A3006 RMK SLP185 T01500120 IEM_DS3505
ZGOW,1995-11-25 15:00,ZGOW 251500Z AUTO 04004KT 4SM 15/12 A3008 RMK SLP190 T01480118 52007 IEM_DS3505
ZGOW,1995-11-25 18:00,ZGOW 251800Z AUTO 02004KT 6SM 14/11 A3008 RMK SLP189 T01420108 57001 IEM_DS3505
ZGOW,1995-11-25 21:00,ZGOW 252100Z AUTO 02004KT 4SM 13/10 A3006 RMK SLP184 T01280097 57005 IEM_DS3505
ZGOW,1995-11-25 22:00,ZGOW 252200Z AUTO 30004KT 6SM 12/10 A3006 RMK SLP185 T01200100 IEM_DS3505
ZGOW,1995-11-25 23:00,ZGOW 252300Z AUTO 00000KT 7SM 13/10 A3009 RMK SLP195 T01300100 IEM_DS3505
ZGOW,1995-11-26 00:00,ZGOW 260000Z AUTO 04004KT 6SM 14/09 A3009 RMK SLP197 T01430092 52013 IEM_DS3505
ZGOW,1995-11-26 01:00,ZGOW 260100Z AUTO 34004KT 7SM 16/09 A3012 RMK SLP205 T01600090 IEM_DS3505
ZGOW,1995-11-26 02:00,ZGOW 260200Z AUTO 35006KT 7SM 18/09 A3012 RMK SLP205 T01800090 IEM_DS3505
ZGOW,1995-11-26 03:00,ZGOW 260300Z AUTO 07004KT 4SM 20/09 A3009 RMK SLP193 T02030092 57004 IEM_DS3505
ZGOW,1995-11-26 04:00,ZGOW 260400Z AUTO 04004KT 7SM 22/09 A3006 RMK SLP184 T02200090 IEM_DS3505
ZGOW,1995-11-26 05:00,ZGOW 260500Z AUTO 03004KT 7SM 22/09 A3003 RMK SLP174 T02200090 IEM_DS3505
ZGOW,1995-11-26 06:00,ZGOW 260600Z AUTO 14004KT 5SM 22/10 A3000 RMK SLP159 T02210095 57034 IEM_DS3505
ZGOW,1995-11-26 08:00,ZGOW 260800Z AUTO 08006KT 6SM 21/12 A2997 RMK SLP153 T02100120 IEM_DS3505
ZGOW,1995-11-26 09:00,ZGOW 260900Z AUTO 18004KT 4SM 20/12 A3000 RMK SLP158 T02000122 57001 IEM_DS3505
ZGOW,1995-11-26 11:00,ZGOW 261100Z AUTO 08006KT 6SM 18/14 A3003 RMK SLP175 T01800140 IEM_DS3505
ZGOW,1995-11-26 12:00,ZGOW 261200Z AUTO 09004KT 5SM 18/14 A3005 RMK SLP180 T01840142 52022 IEM_DS3505
ZGOW,1995-11-26 13:00,ZGOW 261300Z AUTO 02002KT 6SM 17/14 A3006 RMK SLP185 T01700140 IEM_DS3505
ZGOW,1995-11-26 15:00,ZGOW 261500Z AUTO 00000KT 4SM 16/14 A3007 RMK SLP189 T01590140 52009 IEM_DS3505
ZGOW,1995-11-26 18:00,ZGOW 261800Z AUTO 04002KT 4SM 15/13 A3005 RMK SLP179 T01520127 57010 IEM_DS3505
ZGOW,1995-11-26 21:00,ZGOW 262100Z AUTO 04004KT 2 1/2SM 15/12 A3006 RMK SLP178 T01470123 57001 IEM_DS3505
ZGOW,1995-11-26 22:00,ZGOW 262200Z AUTO 00000KT 4SM 13/12 A3006 RMK SLP185 T01300120 IEM_DS3505
ZGOW,1995-11-26 23:00,ZGOW 262300Z AUTO 00000KT 2 1/2SM 14/12 A3009 RMK SLP195 T01400120 IEM_DS3505
ZGOW,1995-11-27 00:00,ZGOW 270000Z AUTO 07004KT 2SM 16/12 A3009 RMK SLP191 T01560123 52013 IEM_DS3505
ZGOW,1995-11-27 01:00,ZGOW 270100Z AUTO 03004KT 4SM 18/13 A3006 RMK SLP185 T01800130 IEM_DS3505
ZGOW,1995-11-27 02:00,ZGOW 270200Z AUTO 01006KT 6SM 20/13 A3006 RMK SLP184 T02000130 IEM_DS3505
ZGOW,1995-11-27 03:00,ZGOW 270300Z AUTO 04006KT 4SM 21/12 A3005 RMK SLP179 T02120115 57012 IEM_DS3505
ZGOW,1995-11-27 04:00,ZGOW 270400Z AUTO 05006KT 6SM 22/12 A3003 RMK SLP174 T02200120 IEM_DS3505
ZGOW,1995-11-27 05:00,ZGOW 270500Z AUTO 07008KT 6SM 22/12 A3000 RMK SLP163 T02200120 IEM_DS3505
ZGOW,1995-11-27 06:00,ZGOW 270600Z AUTO 09006KT 11SM 23/14 A2998 RMK SLP155 T02260137 57024 IEM_DS3505
ZGOW,1995-11-27 07:00,ZGOW 270700Z AUTO 08010KT 6SM 22/14 A2997 RMK SLP153 T02200140 IEM_DS3505
ZGOW,1995-11-27 08:00,ZGOW 270800Z AUTO 07010KT 7SM 21/15 A3000 RMK SLP163 T02100150 IEM_DS3505
ZGOW,1995-11-27 09:00,ZGOW 270900Z AUTO 07008KT 5SM 20/15 A3000 RMK SLP164 T02020149 52009 IEM_DS3505
ZGOW,1995-11-27 10:00,ZGOW 271000Z AUTO 06010KT 7SM 19/13 A3000 RMK SLP163 T01900130 IEM_DS3505
ZGOW,1995-11-27 11:00,ZGOW 271100Z AUTO 06006KT 7SM 19/14 A3003 RMK SLP174 T01900140 IEM_DS3505
ZGOW,1995-11-27 12:00,ZGOW 271200Z AUTO 09006KT 6SM 18/13 A3006 RMK SLP186 T01850134 52022 IEM_DS3505
ZGOW,1995-11-27 13:00,ZGOW 271300Z AUTO 06006KT 7SM 18/14 A3009 RMK SLP195 T01800140 IEM_DS3505
ZGOW,1995-11-27 15:00,ZGOW 271500Z AUTO 04006KT 6SM 18/11 A3005 RMK SLP182 T01810111 57004 IEM_DS3505
ZGOW,1995-11-27 18:00,ZGOW 271800Z AUTO 07002KT 7SM 16/10 A3003 RMK SLP172 T01640097 57010 IEM_DS3505
ZGOW,1995-11-27 21:00,ZGOW 272100Z AUTO 36004KT 6SM 16/11 A3003 RMK SLP174 T01570106 52002 IEM_DS3505
ZGOW,1995-11-27 22:00,ZGOW 272200Z AUTO 00000KT 4SM 15/11 A3003 RMK SLP175 T01500110 IEM_DS3505
ZGOW,1995-11-27 23:00,ZGOW 272300Z AUTO 32004KT 2 1/2SM 15/12 A3006 RMK SLP185 T01500120 IEM_DS3505
ZGOW,1995-11-28 00:00,ZGOW 280000Z AUTO 36002KT 5SM 16/12 A3009 RMK SLP192 T01610125 52018 IEM_DS3505
ZGOW,1995-11-28 01:00,ZGOW 280100Z AUTO 30006KT 2 1/2SM 18/13 A3009 RMK SLP195 T01800130 IEM_DS3505
ZGOW,1995-11-28 02:00,ZGOW 280200Z AUTO 32004KT 2 1/2SM 19/13 A3009 RMK SLP194 T01900130 IEM_DS3505
ZGOW,1995-11-28 03:00,ZGOW 280300Z AUTO 04004KT 6SM 21/11 A3009 RMK SLP193 T02060110 52001 IEM_DS3505
ZGOW,1995-11-28 04:00,ZGOW 280400Z AUTO 04006KT 6SM 21/11 A3012 RMK SLP204 T02100110 IEM_DS3505
ZGOW,1995-11-28 05:00,ZGOW 280500Z AUTO 07008KT 6SM 22/13 A3003 RMK SLP174 T02200130 IEM_DS3505
ZGOW,1995-11-28 06:00,ZGOW 280600Z AUTO 07006KT 6SM 21/13 A3003 RMK SLP168 T02140130 57025 IEM_DS3505
ZGOW,1995-11-28 07:00,ZGOW 280700Z AUTO 07008KT 7SM 21/13 A3000 RMK SLP163 T02100130 IEM_DS3505
ZGOW,1995-11-28 08:00,ZGOW 280800Z AUTO 07010KT 7SM 21/14 A3000 RMK SLP163 T02100140 IEM_DS3505
ZGOW,1995-11-28 09:00,ZGOW 280900Z AUTO 09004KT 4SM 20/14 A3003 RMK SLP175 T02040144 52007 IEM_DS3505
ZGOW,1995-11-28 10:00,ZGOW 281000Z AUTO 06012KT 7SM 20/15 A3003 RMK SLP174 T02000150 IEM_DS3505
ZGOW,1995-11-28 11:00,ZGOW 281100Z AUTO 05010KT 7SM 19/15 A3006 RMK SLP184 T01900150 IEM_DS3505
ZGOW,1995-11-28 12:00,ZGOW 281200Z AUTO 09006KT 6SM 19/15 A3009 RMK SLP191 T01910146 52016 IEM_DS3505
ZGOW,1995-11-28 13:00,ZGOW 281300Z AUTO 06010KT 7SM 18/16 A3009 RMK SLP195 T01800160 IEM_DS3505
ZGOW,1995-11-28 18:00,ZGOW 281800Z AUTO 04006KT 7SM 18/14 A3007 RMK SLP187 T01780140 57010 IEM_DS3505
ZGOW,1995-11-28 21:00,ZGOW 282100Z AUTO 07004KT 7SM 18/14 A3006 RMK SLP184 T01770142 57003 IEM_DS3505
ZGOW,1995-11-28 22:00,ZGOW 282200Z AUTO 00000KT 2 1/2SM 18/14 A3009 RMK SLP195 T01800140 IEM_DS3505
ZGOW,1995-11-28 23:00,ZGOW 282300Z AUTO 05006KT 7SM 18/13 A3009 RMK SLP195 T01800130 IEM_DS3505
ZGOW,1995-11-29 00:00,ZGOW 290000Z AUTO 04002KT 6SM 18/15 A3009 RMK SLP200 T01790146 52016 IEM_DS3505
ZGOW,1995-11-29 01:00,ZGOW 290100Z AUTO 06006KT 6SM 19/14 A3012 RMK SLP205 T01900140 IEM_DS3505
ZGOW,1995-11-29 02:00,ZGOW 290200Z AUTO 07008KT 6SM 21/14 A3012 RMK SLP204 T02100140 IEM_DS3505
ZGOW,1995-11-29 03:00,ZGOW 290300Z AUTO 07006KT 6SM 21/14 A3012 RMK SLP200 T02070142 54000 IEM_DS3505
ZGOW,1995-11-29 04:00,ZGOW 290400Z AUTO 06010KT 6SM 20/14 A3009 RMK SLP194 T02000140 IEM_DS3505
ZGOW,1995-11-29 05:00,ZGOW 290500Z AUTO 06008KT 6SM 21/14 A3006 RMK SLP184 T02100140 IEM_DS3505
ZGOW,1995-11-29 06:00,ZGOW 290600Z AUTO 18006KT 6SM 22/15 A3003 RMK SLP175 T02180147 57025 IEM_DS3505
ZGOW,1995-11-29 07:00,ZGOW 290700Z AUTO 08008KT 6SM 22/15 A3003 RMK SLP174 T02200150 IEM_DS3505
ZGOW,1995-11-29 08:00,ZGOW 290800Z AUTO 07012KT 6SM 22/15 A3003 RMK SLP174 T02200150 IEM_DS3505
ZGOW,1995-11-29 09:00,ZGOW 290900Z AUTO 14004KT 7SM 21/15 A3003 RMK SLP174 T02060146 57003 IEM_DS3505
ZGOW,1995-11-29 10:00,ZGOW 291000Z AUTO 06008KT 6SM 20/14 A3003 RMK SLP174 T02000140 IEM_DS3505
ZGOW,1995-11-29 11:00,ZGOW 291100Z AUTO 07008KT 6SM 19/14 A3006 RMK SLP184 T01900140 IEM_DS3505
ZGOW,1995-11-29 12:00,ZGOW 291200Z AUTO 07008KT 7SM 19/14 A3008 RMK SLP190 T01900140 52018 IEM_DS3505
ZGOW,1995-11-29 13:00,ZGOW 291300Z AUTO 06010KT 6SM 19/14 A3009 RMK SLP194 T01900140 IEM_DS3505
ZGOW,1995-11-29 14:00,ZGOW 291400Z AUTO 06010KT 6SM 19/14 A3009 RMK SLP194 T01900140 IEM_DS3505
ZGOW,1995-11-29 15:00,ZGOW 291500Z AUTO 07010KT 7SM 18/13 A3009 RMK SLP195 T01840133 52005 IEM_DS3505
ZGOW,1995-11-29 18:00,ZGOW 291800Z AUTO 04006KT 7SM 18/13 A3008 RMK SLP189 T01830128 57006 IEM_DS3505
ZGOW,1995-11-29 21:00,ZGOW 292100Z AUTO 09002KT 7SM 18/13 A3006 RMK SLP182 T01760132 57007 IEM_DS3505
ZGOW,1995-11-29 22:00,ZGOW 292200Z AUTO 00000KT 6SM 17/14 A3006 RMK SLP185 T01700140 IEM_DS3505
ZGOW,1995-11-29 23:00,ZGOW 292300Z AUTO 00000KT 6SM 16/13 A3009 RMK SLP195 T01600130 IEM_DS3505
ZGOW,1995-11-30 00:00,ZGOW 300000Z AUTO 00000KT 6SM 18/14 A3012 RMK SLP205 T01760141 52023 IEM_DS3505
ZGOW,1995-11-30 01:00,ZGOW 300100Z AUTO 36004KT 6SM 19/13 A3012 RMK SLP205 T01900130 IEM_DS3505
ZGOW,1995-11-30 02:00,ZGOW 300200Z AUTO 01004KT 6SM 20/13 A3012 RMK SLP204 T02000130 IEM_DS3505
ZGOW,1995-11-30 03:00,ZGOW 300300Z AUTO 09006KT 7SM 22/12 A3012 RMK SLP197 T02180123 57008 IEM_DS3505
ZGOW,1995-11-30 04:00,ZGOW 300400Z AUTO 06006KT 6SM 22/13 A3009 RMK SLP194 T02200130 IEM_DS3505
ZGOW,1995-11-30 05:00,ZGOW 300500Z AUTO 08010KT 6SM 22/12 A3006 RMK SLP184 T02200120 IEM_DS3505
ZGOW,1995-11-30 06:00,ZGOW 300600Z AUTO 07006KT 14SM 22/13 A3002 RMK SLP171 T02210129 57026 IEM_DS3505
ZGOW,1995-11-30 07:00,ZGOW 300700Z AUTO 06012KT 7SM 22/12 A3000 RMK SLP163 T02200120 IEM_DS3505
ZGOW,1995-11-30 08:00,ZGOW 300800Z AUTO 06010KT 7SM 21/13 A3000 RMK SLP163 T02100130 IEM_DS3505
ZGOW,1995-11-30 09:00,ZGOW 300900Z AUTO 09006KT 7SM 20/14 A3003 RMK SLP170 T02000136 57001 IEM_DS3505
ZGOW,1995-11-30 10:00,ZGOW 301000Z AUTO 07008KT 6SM 19/13 A3003 RMK SLP174 T01900130 IEM_DS3505
ZGOW,1995-11-30 11:00,ZGOW 301100Z AUTO 05012KT 6SM 19/13 A3006 RMK SLP184 T01900130 IEM_DS3505
ZGOW,1995-11-30 12:00,ZGOW 301200Z AUTO 09008KT 6SM 18/13 A3009 RMK SLP193 T01820133 52023 IEM_DS3505
ZGOW,1995-11-30 13:00,ZGOW 301300Z AUTO 06012KT 6SM 18/13 A3009 RMK SLP195 T01800130 IEM_DS3505
ZGOW,1995-11-30 14:00,ZGOW 301400Z AUTO 06010KT 6SM 18/13 A3009 RMK SLP195 T01800130 IEM_DS3505
ZGOW,1995-11-30 15:00,ZGOW 301500Z AUTO 09008KT 6SM 17/14 A3011 RMK SLP201 T01740135 52008 IEM_DS3505
ZGOW,1995-11-30 18:00,ZGOW 301800Z AUTO 04008KT 6SM 16/12 A3009 RMK SLP195 T01640118 57006 IEM_DS3505
ZGOW,1995-11-30 21:00,ZGOW 302100Z AUTO 04004KT 5SM 15/12 A3012 RMK SLP197 T01470119 52002 IEM_DS3505
ZGOW,1995-11-30 22:00,ZGOW 302200Z AUTO 01004KT 7SM 14/12 A3012 RMK SLP205 T01400120 IEM_DS3505
ZGOW,1995-11-30 23:00,ZGOW 302300Z AUTO 03002KT 14/11 A3015 RMK SLP215 T01400110 IEM_DS3505
ZGOW,1995-12-01 00:00,ZGOW 010000Z AUTO 04006KT 3SM 16/12 A3015 RMK SLP218 T01550116 52021 IEM_DS3505
ZGOW,1995-12-01 01:00,ZGOW 010100Z AUTO 03008KT 7SM 18/12 A3018 RMK T01800120 IEM_DS3505
ZGOW,1995-12-01 02:00,ZGOW 010200Z AUTO 05008KT 7SM 19/12 A3018 RMK T01900120 IEM_DS3505
ZGOW,1995-12-01 03:00,ZGOW 010300Z AUTO 04010KT 6SM 20/12 A3015 RMK SLP215 T02000117 57003 IEM_DS3505
ZGOW,1995-12-01 04:00,ZGOW 010400Z AUTO 08006KT 6SM 20/11 A3012 RMK T02000110 IEM_DS3505
ZGOW,1995-12-01 05:00,ZGOW 010500Z AUTO 07008KT 6SM 20/11 A3012 RMK T02000110 IEM_DS3505
ZGOW,1995-12-01 06:00,ZGOW 010600Z AUTO 14004KT 6SM 21/11 A3009 RMK SLP184 T02060112 57031 IEM_DS3505
ZGOW,1995-12-01 07:00,ZGOW 010700Z AUTO 08012KT 7SM 20/11 A3003 RMK T02000110 IEM_DS3505
ZGOW,1995-12-01 09:00,ZGOW 010900Z AUTO 11004KT 5SM 19/12 A3006 RMK SLP182 T01870124 57002 IEM_DS3505
ZGOW,1995-12-01 10:00,ZGOW 011000Z AUTO 06008KT 3SM 18/12 A3006 RMK T01800120 IEM_DS3505
ZGOW,1995-12-01 11:00,ZGOW 011100Z AUTO 06006KT 3SM 17/13 A3012 RMK T01700130 IEM_DS3505
ZGOW,1995-12-01 12:00,ZGOW 011200Z AUTO 04004KT 5SM 17/12 A3012 RMK SLP204 T01720117 52022 IEM_DS3505
ZGOW,1995-12-01 14:00,ZGOW 011400Z AUTO 06010KT 7SM 16/13 A3015 RMK T01600130 IEM_DS3505
ZGOW,1995-12-01 15:00,ZGOW 011500Z AUTO 04004KT 4SM 16/11 RMK SLP215 T01630107 52011 IEM_DS3505
ZGOW,1995-12-01 18:00,ZGOW 011800Z AUTO 04004KT 4SM 15/10 RMK SLP209 T01540098 57006 IEM_DS3505
ZGOW,1995-12-01 21:00,ZGOW 012100Z AUTO 00000KT 4SM 13/11 RMK SLP210 T01290112 52001 IEM_DS3505
ZGOW,1995-12-01 22:00,ZGOW 012200Z AUTO 00000KT 4SM 11/10 RMK T01100100 IEM_DS3505
ZGOW,1995-12-02 00:00,ZGOW 020000Z AUTO 07004KT 3SM 15/11 A3018 RMK SLP228 T01460106 52018 IEM_DS3505
ZGOW,1995-12-02 01:00,ZGOW 020100Z AUTO 06004KT 6SM 17/06 A3021 RMK T01700060 IEM_DS3505
ZGOW,1995-12-02 02:00,ZGOW 020200Z AUTO 04006KT 6SM 18/05 A3021 RMK T01800050 IEM_DS3505
ZGOW,1995-12-02 03:00,ZGOW 020300Z AUTO 04006KT 7SM 19/05 A3018 RMK SLP227 T01940047 57001 IEM_DS3505
ZGOW,1995-12-02 05:00,ZGOW 020500Z AUTO 05006KT 6SM 21/07 A3012 RMK T02100070 IEM_DS3505
ZGOW,1995-12-02 06:00,ZGOW 020600Z AUTO 09006KT 9SM 21/07 A3009 RMK SLP189 T02120072 57038 IEM_DS3505
ZGOW,1995-12-02 07:00,ZGOW 020700Z AUTO 07008KT 7SM 20/09 A3006 RMK T02000090 IEM_DS3505
ZGOW,1995-12-02 08:00,ZGOW 020800Z AUTO 07008KT 7SM 20/10 A3006 RMK T02000100 IEM_DS3505
ZGOW,1995-12-02 09:00,ZGOW 020900Z AUTO 09004KT 3SM 19/10 A3006 RMK SLP189 T01870105 54000 IEM_DS3505
ZGOW,1995-12-02 10:00,ZGOW 021000Z AUTO 06008KT 4SM 18/11 A3006 RMK T01800110 IEM_DS3505
ZGOW,1995-12-02 12:00,ZGOW 021200Z AUTO 07002KT 3SM 17/11 A3012 RMK SLP208 T01700113 52019 IEM_DS3505
ZGOW,1995-12-02 13:00,ZGOW 021300Z AUTO 06008KT 4SM 17/11 A3012 RMK T01700110 IEM_DS3505
ZGOW,1995-12-02 14:00,ZGOW 021400Z AUTO 06006KT 4SM 17/10 A3015 RMK T01700100 IEM_DS3505
ZGOW,1995-12-02 15:00,ZGOW 021500Z AUTO 04006KT 4SM 16/10 RMK SLP213 T01630102 52005 IEM_DS3505
ZGOW,1995-12-02 18:00,ZGOW 021800Z AUTO 04004KT 4SM 15/09 RMK SLP211 T01510090 57002 IEM_DS3505
ZGOW,1995-12-02 21:00,ZGOW 022100Z AUTO 29002KT 3SM 13/11 A3015 RMK SLP209 T01300111 57002 IEM_DS3505
ZGOW,1995-12-02 22:00,ZGOW 022200Z AUTO 01004KT 2 1/2SM 13/10 A3015 RMK T01300100 IEM_DS3505
ZGOW,1995-12-02 23:00,ZGOW 022300Z AUTO 00000KT 2SM 13/10 A3015 RMK T01300100 IEM_DS3505
ZGOW,1995-12-03 00:00,ZGOW 030000Z AUTO 02004KT 2 1/2SM 14/11 A3015 RMK SLP212 T01350112 52003 IEM_DS3505
ZGOW,1995-12-03 01:00,ZGOW 030100Z AUTO 00000KT 2 1/2SM 15/11 A3015 RMK T01500110 IEM_DS3505
ZGOW,1995-12-03 03:00,ZGOW 030300Z AUTO 36004KT 2 1/2SM 19/10 A3015 RMK SLP207 T01910104 57005 IEM_DS3505
ZGOW,1995-12-03 04:00,ZGOW 030400Z AUTO 06004KT 7SM 20/09 A3012 RMK T02000090 IEM_DS3505
ZGOW,1995-12-03 05:00,ZGOW 030500Z AUTO 06006KT 7SM 21/09 A3009 RMK T02100090 IEM_DS3505
ZGOW,1995-12-03 06:00,ZGOW 030600Z AUTO 14006KT 3SM 21/10 A3006 RMK SLP180 T02060101 57027 IEM_DS3505
ZGOW,1995-12-03 07:00,ZGOW 030700Z AUTO 11006KT 7SM 20/13 A3003 RMK T02000130 IEM_DS3505
ZGOW,1995-12-03 08:00,ZGOW 030800Z AUTO 08008KT 7SM 20/13 A3003 RMK T02000130 IEM_DS3505
ZGOW,1995-12-03 09:00,ZGOW 030900Z AUTO 11006KT 4SM 19/12 A3006 RMK SLP180 T01860121 54000 IEM_DS3505
ZGOW,1995-12-03 10:00,ZGOW 031000Z AUTO 08006KT 7SM 18/14 A3009 RMK T01800140 IEM_DS3505
ZGOW,1995-12-03 11:00,ZGOW 031100Z AUTO 07006KT 7SM 17/14 A3009 RMK T01700140 IEM_DS3505
ZGOW,1995-12-03 12:00,ZGOW 031200Z AUTO 07004KT 4SM 17/13 A3012 RMK SLP202 T01700133 52022 IEM_DS3505
ZGOW,1995-12-03 13:00,ZGOW 031300Z AUTO 04006KT 7SM 17/14 A3015 RMK T01700140 IEM_DS3505
ZGOW,1995-12-03 14:00,ZGOW 031400Z AUTO 03006KT 7SM 17/14 A3015 RMK T01700140 IEM_DS3505
ZGOW,1995-12-03 15:00,ZGOW 031500Z AUTO 04004KT 3SM 16/14 A3015 RMK SLP216 T01650139 52014 IEM_DS3505
ZGOW,1995-12-03 16:00,ZGOW 031600Z AUTO 05008KT 6SM 16/15 A3015 RMK T01600150 IEM_DS3505
ZGOW,1995-12-03 18:00,ZGOW 031800Z AUTO 04006KT 3SM 15/11 RMK SLP207 T01490109 57009 IEM_DS3505
ZGOW,1995-12-03 21:00,ZGOW 032100Z AUTO 04004KT 4SM 14/10 A3015 RMK SLP205 T01380095 57002 IEM_DS3505
ZGOW,1995-12-03 22:00,ZGOW 032200Z AUTO 00000KT 4SM 14/10 A3015 RMK T01400100 IEM_DS3505
ZGOW,1995-12-03 23:00,ZGOW 032300Z AUTO 00000KT 3SM 13/10 A3015 RMK T01300100 IEM_DS3505
ZGOW,1995-12-04 00:00,ZGOW 040000Z AUTO 04004KT 4SM 14/10 A3018 RMK SLP219 T01440095 52014 IEM_DS3505
ZGOW,1995-12-04 01:00,ZGOW 040100Z AUTO 34004KT 3SM 16/10 A3018 RMK T01600100 IEM_DS3505
ZGOW,1995-12-04 02:00,ZGOW 040200Z AUTO 00000KT 4SM 17/10 A3021 RMK T01700100 IEM_DS3505
ZGOW,1995-12-04 03:00,ZGOW 040300Z AUTO 04006KT 4SM 18/10 A3018 RMK SLP225 T01820104 52006 IEM_DS3505
ZGOW,1995-12-04 04:00,ZGOW 040400Z AUTO 03004KT 4SM 19/12 A3015 RMK T01900120 IEM_DS3505
ZGOW,1995-12-04 05:00,ZGOW 040500Z AUTO 00000KT 4SM 20/12 A3012 RMK T02000120 IEM_DS3505
ZGOW,1995-12-04 06:00,ZGOW 040600Z AUTO 34002KT 3SM 20/11 A3009 RMK SLP195 T01980110 57030 IEM_DS3505
ZGOW,1995-12-04 07:00,ZGOW 040700Z AUTO 00000KT 4SM 19/10 A3009 RMK T01900100 IEM_DS3505
ZGOW,1995-12-04 08:00,ZGOW 040800Z AUTO 02004KT 4SM 18/12 A3009 RMK T01800120 IEM_DS3505
ZGOW,1995-12-04 09:00,ZGOW 040900Z AUTO 09006KT 2 1/2SM 18/12 A3009 RMK SLP190 T01790123 57005 IEM_DS3505
ZGOW,1995-12-04 10:00,ZGOW 041000Z AUTO 06006KT 4SM 17/12 A3009 RMK T01700120 IEM_DS3505
ZGOW,1995-12-04 11:00,ZGOW 041100Z AUTO 04008KT 4SM 16/12 A3012 RMK T01600120 IEM_DS3505
ZGOW,1995-12-04 12:00,ZGOW 041200Z AUTO 07006KT 2 1/2SM 16/12 A3012 RMK SLP208 T01590121 52018 IEM_DS3505
ZGOW,1995-12-04 13:00,ZGOW 041300Z AUTO 06006KT 3SM 16/12 A3015 RMK T01600120 IEM_DS3505
ZGOW,1995-12-04 14:00,ZGOW 041400Z AUTO 04008KT 3SM 16/11 A3018 RMK T01600110 IEM_DS3505
ZGOW,1995-12-04 15:00,ZGOW 041500Z AUTO 09004KT 3SM 15/12 RMK SLP223 T01540119 52015 IEM_DS3505
ZGOW,1995-12-04 18:00,ZGOW 041800Z AUTO 04004KT 2 1/2SM 14/11 RMK SLP224 T01440110 52001 IEM_DS3505
ZGOW,1995-12-04 21:00,ZGOW 042100Z AUTO 04002KT 2SM 13/11 A3018 RMK SLP223 T01260111 57001 IEM_DS3505
ZGOW,1995-12-04 22:00,ZGOW 042200Z AUTO 00000KT 2SM 12/10 A3021 RMK T01200100 IEM_DS3505
ZGOW,1995-12-04 23:00,ZGOW 042300Z AUTO 00000KT 1 1/2SM 11/10 A3021 RMK T01100100 IEM_DS3505
ZGOW,1995-12-05 00:00,ZGOW 050000Z AUTO 04004KT 2 1/2SM 13/09 RMK SLP242 T01310094 52019 IEM_DS3505
ZGOW,1995-12-05 01:00,ZGOW 050100Z AUTO 00000KT 2 1/2SM 14/10 A3024 RMK T01400100 IEM_DS3505
ZGOW,1995-12-05 03:00,ZGOW 050300Z AUTO 04004KT 2 1/2SM 17/09 A3024 RMK SLP246 T01740091 52004 IEM_DS3505
ZGOW,1995-12-05 04:00,ZGOW 050400Z AUTO 05008KT 3SM 19/07 A3024 RMK T01900070 IEM_DS3505
ZGOW,1995-12-05 05:00,ZGOW 050500Z AUTO 06010KT 4SM 19/06 A3018 RMK T01900060 IEM_DS3505
ZGOW,1995-12-05 06:00,ZGOW 050600Z AUTO 09006KT 4SM 19/07 A3015 RMK SLP216 T01900074 57030 IEM_DS3505
ZGOW,1995-12-05 08:00,ZGOW 050800Z AUTO 06010KT 4SM 19/05 A3012 RMK T01900050 IEM_DS3505
ZGOW,1995-12-05 09:00,ZGOW 050900Z AUTO 07006KT 2 1/2SM 18/09 A3015 RMK SLP209 T01760087 57007 IEM_DS3505
ZGOW,1995-12-05 10:00,ZGOW 051000Z AUTO 05010KT 3SM 16/09 A3015 RMK T01600090 IEM_DS3505
ZGOW,1995-12-05 11:00,ZGOW 051100Z AUTO 04008KT 3SM 16/09 A3018 RMK T01600090 IEM_DS3505
ZGOW,1995-12-05 12:00,ZGOW 051200Z AUTO 04004KT 3SM 16/10 A3021 RMK SLP230 T01560103 52021 IEM_DS3505
ZGOW,1995-12-05 13:00,ZGOW 051300Z AUTO 04010KT 3SM 15/09 A3021 RMK T01500090 IEM_DS3505
ZGOW,1995-12-05 15:00,ZGOW 051500Z AUTO 07004KT 3SM 15/09 A3024 RMK SLP250 T01460091 52020 IEM_DS3505
ZGOW,1995-12-05 18:00,ZGOW 051800Z AUTO 07006KT 6SM 14/08 RMK SLP242 T01380079 57008 IEM_DS3505
ZGOW,1995-12-05 21:00,ZGOW 052100Z AUTO 02004KT 6SM 11/08 A3024 RMK SLP249 T01100081 IEM_DS3505
ZGOW,1995-12-05 22:00,ZGOW 052200Z AUTO 05004KT 3SM 12/06 A3027 RMK T01200060 IEM_DS3505
ZGOW,1995-12-05 23:00,ZGOW 052300Z AUTO 02004KT 2 1/2SM 11/06 A3027 RMK T01100060 IEM_DS3505
ZGOW,1995-12-06 00:00,ZGOW 060000Z AUTO 04006KT 5SM 12/06 RMK SLP260 T01220065 52011 IEM_DS3505
ZGOW,1995-12-06 01:00,ZGOW 060100Z AUTO 01010KT 3SM 13/05 A3030 RMK T01300050 IEM_DS3505
ZGOW,1995-12-06 02:00,ZGOW 060200Z AUTO 36008KT 3SM 14/04 A3033 RMK T01400040 IEM_DS3505
ZGOW,1995-12-06 03:00,ZGOW 060300Z AUTO 02006KT 5SM 16/05 A3033 RMK SLP269 T01630046 52009 IEM_DS3505
ZGOW,1995-12-06 05:00,ZGOW 060500Z AUTO 03006KT 7SM 18/03 A3024 RMK T01800030 IEM_DS3505
ZGOW,1995-12-06 06:00,ZGOW 060600Z AUTO 09006KT 4SM 19/04 RMK SLP228 T01870042 57041 IEM_DS3505
ZGOW,1995-12-06 07:00,ZGOW 060700Z AUTO 08010KT 7SM 18/05 A3018 RMK T01800050 IEM_DS3505
ZGOW,1995-12-06 08:00,ZGOW 060800Z AUTO 06004KT 7SM 18/06 A3018 RMK T01800060 IEM_DS3505
ZGOW,1995-12-06 09:00,ZGOW 060900Z AUTO 04006KT 3SM 17/06 A3018 RMK SLP225 T01680061 57003 IEM_DS3505
ZGOW,1995-12-06 10:00,ZGOW 061000Z AUTO 06008KT 3SM 16/07 A3021 RMK T01600070 IEM_DS3505
ZGOW,1995-12-06 11:00,ZGOW 061100Z AUTO 05008KT 3SM 15/07 A3024 RMK T01500070 IEM_DS3505
ZGOW,1995-12-06 12:00,ZGOW 061200Z AUTO 07006KT 3SM 15/08 A3024 RMK SLP248 T01460084 52023 IEM_DS3505
ZGOW,1995-12-06 13:00,ZGOW 061300Z AUTO 05010KT 7SM 14/09 A3027 RMK T01400090 IEM_DS3505
ZGOW,1995-12-06 14:00,ZGOW 061400Z AUTO 05010KT 7SM 14/09 A3030 RMK T01400090 IEM_DS3505
ZGOW,1995-12-06 15:00,ZGOW 061500Z AUTO 07006KT 6SM 13/06 A3030 RMK SLP261 T01310061 52013 IEM_DS3505
ZGOW,1995-12-06 18:00,ZGOW 061800Z AUTO 04004KT 7SM 11/06 RMK SLP257 T01080058 57004 IEM_DS3505
ZGOW,1995-12-06 21:00,ZGOW 062100Z AUTO 36002KT 7SM 09/04 RMK SLP257 T00920044 54000 IEM_DS3505
ZGOW,1995-12-06 22:00,ZGOW 062200Z AUTO 00000KT 3SM 08/04 A3030 RMK T00800040 IEM_DS3505
ZGOW,1995-12-06 23:00,ZGOW 062300Z AUTO 36004KT 4SM 09/04 A3030 RMK T00900040 IEM_DS3505
ZGOW,1995-12-07 00:00,ZGOW 070000Z AUTO 02004KT 8SM 10/04 A3030 RMK SLP273 T00950040 52016 IEM_DS3505
ZGOW,1995-12-07 01:00,ZGOW 070100Z AUTO 01004KT 7SM 12/02 A3033 RMK T01200020 IEM_DS3505
ZGOW,1995-12-07 02:00,ZGOW 070200Z AUTO 01008KT 7SM 14/M01 A3033 RMK T01401010 IEM_DS3505
ZGOW,1995-12-07 03:00,ZGOW 070300Z AUTO 04006KT 9SM 15/01 RMK SLP272 T01540013 57001 IEM_DS3505
ZGOW,1995-12-07 04:00,ZGOW 070400Z AUTO 03008KT 7SM 17/00 A3030 RMK T01700000 IEM_DS3505
ZGOW,1995-12-07 06:00,ZGOW 070600Z AUTO 04010KT 9SM 18/04 A3021 RMK SLP236 T01810041 57036 IEM_DS3505
ZGOW,1995-12-07 07:00,ZGOW 070700Z AUTO 07010KT 7SM 18/01 A3021 RMK T01800010 IEM_DS3505
ZGOW,1995-12-07 08:00,ZGOW 070800Z AUTO 07010KT 7SM 18/03 A3021 RMK T01800030 IEM_DS3505
ZGOW,1995-12-07 09:00,ZGOW 070900Z AUTO 07006KT 8SM 17/04 RMK SLP240 T01660039 52004 IEM_DS3505
ZGOW,1995-12-07 10:00,ZGOW 071000Z AUTO 06010KT 6SM 15/05 A3024 RMK T01500050 IEM_DS3505
ZGOW,1995-12-07 12:00,ZGOW 071200Z AUTO 07010KT 8SM 14/06 A3030 RMK SLP261 T01380055 52021 IEM_DS3505
ZGOW,1995-12-07 13:00,ZGOW 071300Z AUTO 04006KT 7SM 14/03 A3033 RMK T01400030 IEM_DS3505
ZGOW,1995-12-07 15:00,ZGOW 071500Z AUTO 04006KT 7SM 12/05 RMK SLP274 T01150049 52013 IEM_DS3505
ZGOW,1995-12-07 18:00,ZGOW 071800Z AUTO 04006KT 6SM 11/03 RMK SLP264 T01100032 57010 IEM_DS3505
ZGOW,1995-12-07 21:00,ZGOW 072100Z AUTO 00000KT 6SM 08/03 A3030 RMK SLP258 T00830034 57006 IEM_DS3505
ZGOW,1995-12-07 22:00,ZGOW 072200Z AUTO 02004KT 7SM 09/02 A3030 RMK T00900020 IEM_DS3505
ZGOW,1995-12-07 23:00,ZGOW 072300Z AUTO 01004KT 7SM 08/01 A3033 RMK T00800010 IEM_DS3505
ZGOW,1995-12-08 00:00,ZGOW 080000Z AUTO 04004KT 6SM 09/03 A3033 RMK SLP277 T00880031 52019 IEM_DS3505
ZGOW,1995-12-08 01:00,ZGOW 080100Z AUTO 04008KT 7SM 12/00 A3036 RMK T01200000 IEM_DS3505
ZGOW,1995-12-08 02:00,ZGOW 080200Z AUTO 03008KT 7SM 13/M01 A3033 RMK T01301010 IEM_DS3505
ZGOW,1995-12-08 03:00,ZGOW 080300Z AUTO 04010KT 6SM 14/M01 A3033 RMK SLP277 T01421007 54000 IEM_DS3505
ZGOW,1995-12-08 04:00,ZGOW 080400Z AUTO 07008KT 6SM 15/M01 A3030 RMK T01501010 IEM_DS3505
ZGOW,1995-12-08 05:00,ZGOW 080500Z AUTO 04008KT 6SM 15/01 A3027 RMK T01500010 IEM_DS3505
ZGOW,1995-12-08 06:00,ZGOW 080600Z AUTO 09006KT 7SM 15/01 A3024 RMK SLP242 T01470009 57035 IEM_DS3505
ZGOW,1995-12-08 07:00,ZGOW 080700Z AUTO 07008KT 6SM 15/01 A3024 RMK T01500010 IEM_DS3505
ZGOW,1995-12-08 08:00,ZGOW 080800Z AUTO 07008KT 6SM 14/02 A3024 RMK T01400020 IEM_DS3505
ZGOW,1995-12-08 09:00,ZGOW 080900Z AUTO 14006KT 9SM 14/03 A3024 RMK SLP242 T01400030 54000 IEM_DS3505
ZGOW,1995-12-08 10:00,ZGOW 081000Z AUTO 06008KT 6SM 13/03 A3024 RMK T01300030 IEM_DS3505
ZGOW,1995-12-08 11:00,ZGOW 081100Z AUTO 05008KT 6SM 13/04 A3027 RMK T01300040 IEM_DS3505
ZGOW,1995-12-08 12:00,ZGOW 081200Z AUTO 07004KT 8SM 12/05 A3030 RMK SLP261 T01230051 52019 IEM_DS3505
ZGOW,1995-12-08 13:00,ZGOW 081300Z AUTO 06008KT 6SM 12/04 A3030 RMK T01200040 IEM_DS3505
ZGOW,1995-12-08 14:00,ZGOW 081400Z AUTO 05008KT 6SM 12/03 A3030 RMK T01200030 IEM_DS3505
ZGOW,1995-12-08 15:00,ZGOW 081500Z AUTO 04006KT 9SM 11/02 RMK SLP268 T01110024 52007 IEM_DS3505
ZGOW,1995-12-08 18:00,ZGOW 081800Z AUTO 00000KT 8SM 08/04 RMK SLP255 T00750037 57013 IEM_DS3505
ZGOW,1995-12-08 21:00,ZGOW 082100Z AUTO 04004KT 6SM 07/04 RMK SLP246 T00700037 57009 IEM_DS3505
ZGOW,1995-12-08 23:00,ZGOW 082300Z AUTO 00000KT 4SM 07/03 A3030 RMK T00700030 IEM_DS3505
ZGOW,1995-12-09 00:00,ZGOW 090000Z AUTO 36004KT 5SM 08/03 A3030 RMK SLP263 T00810031 52017 IEM_DS3505
ZGOW,1995-12-09 01:00,ZGOW 090100Z AUTO 34004KT 4SM 11/01 A3030 RMK T01100010 IEM_DS3505
ZGOW,1995-12-09 02:00,ZGOW 090200Z AUTO 06006KT 7SM 14/01 A3030 RMK T01400010 IEM_DS3505
ZGOW,1995-12-09 04:00,ZGOW 090400Z AUTO 07008KT 7SM 16/05 A3027 RMK T01600050 IEM_DS3505
ZGOW,1995-12-09 05:00,ZGOW 090500Z AUTO 03008KT 7SM 17/05 A3024 RMK T01700050 IEM_DS3505
ZGOW,1995-12-09 06:00,ZGOW 090600Z AUTO 09004KT 11SM 17/06 A3021 RMK SLP226 T01730063 57035 IEM_DS3505
ZGOW,1995-12-09 07:00,ZGOW 090700Z AUTO 07008KT 7SM 17/07 A3015 RMK T01700070 IEM_DS3505
ZGOW,1995-12-09 08:00,ZGOW 090800Z AUTO 07008KT 7SM 17/07 A3015 RMK T01700070 IEM_DS3505
ZGOW,1995-12-09 09:00,ZGOW 090900Z AUTO 09004KT 7SM 16/08 A3015 RMK SLP216 T01560085 57010 IEM_DS3505
ZGOW,1995-12-09 10:00,ZGOW 091000Z AUTO 07006KT 7SM 14/09 A3015 RMK T01400090 IEM_DS3505
ZGOW,1995-12-09 11:00,ZGOW 091100Z AUTO 06006KT 7SM 14/09 A3018 RMK T01400090 IEM_DS3505
ZGOW,1995-12-09 12:00,ZGOW 091200Z AUTO 04006KT 7SM 14/10 A3018 RMK SLP229 T01360095 52013 IEM_DS3505
ZGOW,1995-12-09 13:00,ZGOW 091300Z AUTO 05006KT 7SM 14/10 A3021 RMK T01400100 IEM_DS3505
ZGOW,1995-12-09 15:00,ZGOW 091500Z AUTO 07006KT 7SM 13/09 RMK SLP240 T01300092 52011 IEM_DS3505
ZGOW,1995-12-09 18:00,ZGOW 091800Z AUTO 04002KT 7SM 11/08 RMK SLP236 T01100083 57004 IEM_DS3505
ZGOW,1995-12-09 21:00,ZGOW 092100Z AUTO 02004KT 4SM 09/07 RMK SLP224 T00870074 57012 IEM_DS3505
ZGOW,1995-12-09 22:00,ZGOW 092200Z AUTO 00000KT 4SM 09/07 A3018 RMK T00900070 IEM_DS3505
ZGOW,1995-12-09 23:00,ZGOW 092300Z AUTO 34006KT 7SM 09/07 A3021 RMK T00900070 IEM_DS3505
ZGOW,1995-12-10 00:00,ZGOW 100000Z AUTO 34004KT 5SM 10/07 A3021 RMK SLP242 T01040070 52018 IEM_DS3505
ZGOW,1995-12-10 01:00,ZGOW 100100Z AUTO 01004KT 7SM 13/07 A3024 RMK T01300070 IEM_DS3505
ZGOW,1995-12-10 02:00,ZGOW 100200Z AUTO 01006KT 7SM 16/07 A3024 RMK T01600070 IEM_DS3505
ZGOW,1995-12-10 03:00,ZGOW 100300Z AUTO 04008KT 6SM 17/08 A3024 RMK SLP237 T01720077 57005 IEM_DS3505
ZGOW,1995-12-10 04:00,ZGOW 100400Z AUTO 05010KT 7SM 18/08 A3021 RMK T01800080 IEM_DS3505
ZGOW,1995-12-10 05:00,ZGOW 100500Z AUTO 06010KT 7SM 19/08 A3018 RMK T01900080 IEM_DS3505
ZGOW,1995-12-10 06:00,ZGOW 100600Z AUTO 04004KT 10SM 20/10 A3015 RMK SLP210 T01980099 57027 IEM_DS3505
ZGOW,1995-12-10 07:00,ZGOW 100700Z AUTO 06012KT 7SM 19/09 A3012 RMK T01900090 IEM_DS3505
ZGOW,1995-12-10 08:00,ZGOW 100800Z AUTO 10008KT 7SM 19/10 A3015 RMK T01900100 IEM_DS3505
ZGOW,1995-12-10 09:00,ZGOW 100900Z AUTO 14004KT 7SM 18/11 A3012 RMK SLP207 T01800110 57003 IEM_DS3505
ZGOW,1995-12-10 10:00,ZGOW 101000Z AUTO 08008KT 7SM 17/11 A3015 RMK T01700110 IEM_DS3505
ZGOW,1995-12-10 11:00,ZGOW 101100Z AUTO 04006KT 7SM 16/12 A3015 RMK T01600120 IEM_DS3505
ZGOW,1995-12-10 12:00,ZGOW 101200Z AUTO 09008KT 7SM 16/12 A3018 RMK SLP220 T01580115 52013 IEM_DS3505
ZGOW,1995-12-10 15:00,ZGOW 101500Z AUTO 04004KT 7SM 15/12 RMK SLP225 T01490119 52005 IEM_DS3505
ZGOW,1995-12-10 18:00,ZGOW 101800Z AUTO 00000KT 3SM 12/11 RMK SLP215 T01210106 57010 IEM_DS3505
ZGOW,1995-12-10 21:00,ZGOW 102100Z AUTO 04004KT 2 1/2SM 11/02 RMK SLP212 T01110017 57003 IEM_DS3505
ZGOW,1995-12-10 22:00,ZGOW 102200Z AUTO 00000KT 2 1/2SM 10/09 A3015 RMK T01000090 IEM_DS3505
ZGOW,1995-12-10 23:00,ZGOW 102300Z AUTO 31006KT 4SM 11/09 A3015 RMK T01100090 IEM_DS3505
ZGOW,1995-12-11 00:00,ZGOW 110000Z AUTO 36002KT 5SM 12/10 A3018 RMK SLP223 T01240099 52011 IEM_DS3505
ZGOW,1995-12-11 01:00,ZGOW 110100Z AUTO 30004KT 3SM 14/09 A3018 RMK T01400090 IEM_DS3505
ZGOW,1995-12-11 02:00,ZGOW 110200Z AUTO 30006KT 4SM 16/10 A3018 RMK T01600100 IEM_DS3505
ZGOW,1995-12-11 03:00,ZGOW 110300Z AUTO 04006KT 6SM 20/11 A3018 RMK SLP220 T01990112 57003 IEM_DS3505
ZGOW,1995-12-11 04:00,ZGOW 110400Z AUTO 08008KT 7SM 20/11 A3015 RMK T02000110 IEM_DS3505
ZGOW,1995-12-11 05:00,ZGOW 110500Z AUTO 08006KT 7SM 21/11 A3012 RMK T02100110 IEM_DS3505
ZGOW,1995-12-11 06:00,ZGOW 110600Z AUTO 18004KT 11SM 21/12 A3009 RMK SLP193 T02080119 57027 IEM_DS3505
ZGOW,1995-12-11 07:00,ZGOW 110700Z AUTO 10004KT 7SM 22/11 A3009 RMK T02200110 IEM_DS3505
ZGOW,1995-12-11 08:00,ZGOW 110800Z AUTO 06004KT 7SM 20/13 A3006 RMK T02000130 IEM_DS3505
ZGOW,1995-12-11 09:00,ZGOW 110900Z AUTO 11002KT 8SM 19/13 A3006 RMK SLP186 T01860129 57007 IEM_DS3505
ZGOW,1995-12-11 10:00,ZGOW 111000Z AUTO 10006KT 5SM 17/14 A3009 RMK T01700140 IEM_DS3505
ZGOW,1995-12-11 11:00,ZGOW 111100Z AUTO 00000KT 5SM 16/14 A3009 RMK T01600140 IEM_DS3505
ZGOW,1995-12-11 12:00,ZGOW 111200Z AUTO 04002KT 6SM 16/13 A3009 RMK SLP199 T01550132 52013 IEM_DS3505
ZGOW,1995-12-11 13:00,ZGOW 111300Z AUTO 03004KT 7SM 15/13 A3012 RMK T01500130 IEM_DS3505
ZGOW,1995-12-11 14:00,ZGOW 111400Z AUTO 00000KT 7SM 15/13 A3012 RMK T01500130 IEM_DS3505
ZGOW,1995-12-11 15:00,ZGOW 111500Z AUTO 04004KT 3SM 14/13 RMK SLP205 T01430127 52006 IEM_DS3505
ZGOW,1995-12-11 18:00,ZGOW 111800Z AUTO 04004KT 2SM 13/12 RMK SLP201 T01330122 57004 IEM_DS3505
ZGOW,1995-12-11 21:00,ZGOW 112100Z AUTO 04006KT 3SM 13/11 RMK SLP198 T01270110 57003 IEM_DS3505
ZGOW,1995-12-11 22:00,ZGOW 112200Z AUTO 00000KT 3SM 12/10 A3012 RMK T01200100 IEM_DS3505
ZGOW,1995-12-11 23:00,ZGOW 112300Z AUTO 00000KT 2SM 10/10 A3015 RMK T01000100 IEM_DS3505
ZGOW,1995-12-12 00:00,ZGOW 120000Z AUTO 07002KT 3SM 13/11 A3015 RMK SLP211 T01340113 52013 IEM_DS3505
ZGOW,1995-12-12 01:00,ZGOW 120100Z AUTO 35004KT 2SM 15/09 A3015 RMK T01500090 IEM_DS3505
ZGOW,1995-12-12 02:00,ZGOW 120200Z AUTO 00000KT 4SM 18/12 A3015 RMK T01800120 IEM_DS3505
ZGOW,1995-12-12 03:00,ZGOW 120300Z AUTO 04006KT 4SM 20/11 A3012 RMK SLP206 T01990112 57005 IEM_DS3505
ZGOW,1995-12-12 04:00,ZGOW 120400Z AUTO 05006KT 6SM 21/11 A3012 RMK T02100110 IEM_DS3505
ZGOW,1995-12-12 06:00,ZGOW 120600Z AUTO 14006KT 9SM 21/12 RMK SLP182 T02080121 57024 IEM_DS3505
ZGOW,1995-12-12 07:00,ZGOW 120700Z AUTO 07010KT 6SM 21/12 A3006 RMK T02100120 IEM_DS3505
ZGOW,1995-12-12 08:00,ZGOW 120800Z AUTO 07010KT 6SM 20/13 A3006 RMK T02000130 IEM_DS3505
ZGOW,1995-12-12 09:00,ZGOW 120900Z AUTO 09008KT 9SM 19/12 A3006 RMK SLP181 T01910121 57001 IEM_DS3505
ZGOW,1995-12-12 10:00,ZGOW 121000Z AUTO 06010KT 6SM 18/13 A3009 RMK T01800130 IEM_DS3505
ZGOW,1995-12-12 11:00,ZGOW 121100Z AUTO 06010KT 6SM 17/12 A3009 RMK T01700120 IEM_DS3505
ZGOW,1995-12-12 12:00,ZGOW 121200Z AUTO 09006KT 9SM 18/12 A3012 RMK SLP200 T01760120 52019 IEM_DS3505
ZGOW,1995-12-12 13:00,ZGOW 121300Z AUTO 07008G17KT 7SM 17/12 A3012 RMK T01700120 IEM_DS3505
ZGOW,1995-12-12 14:00,ZGOW 121400Z AUTO 06008KT 7SM 17/11 A3012 RMK T01700110 IEM_DS3505
ZGOW,1995-12-12 15:00,ZGOW 121500Z AUTO 04006KT 9SM 16/10 RMK SLP206 T01640101 52006 IEM_DS3505
ZGOW,1995-12-12 18:00,ZGOW 121800Z AUTO 04006KT 7SM 15/08 RMK SLP197 T01510081 57009 IEM_DS3505
ZGOW,1995-12-12 21:00,ZGOW 122100Z AUTO 02004KT 6SM 15/10 A3009 RMK SLP195 T01470098 57003 IEM_DS3505
ZGOW,1995-12-12 22:00,ZGOW 122200Z AUTO 34004KT 3SM 12/10 A3012 RMK T01200100 IEM_DS3505
ZGOW,1995-12-12 23:00,ZGOW 122300Z AUTO 33004KT 2 1/2SM 12/10 A3015 RMK T01200100 IEM_DS3505
ZGOW,1995-12-13 00:00,ZGOW 130000Z AUTO 04004KT 5SM 13/11 A3015 RMK SLP215 T01330108 52021 IEM_DS3505
ZGOW,1995-12-13 01:00,ZGOW 130100Z AUTO 33004KT 6SM 16/11 A3015 RMK T01600110 IEM_DS3505
ZGOW,1995-12-13 02:00,ZGOW 130200Z AUTO 33004KT 7SM 17/11 A3015 RMK T01700110 IEM_DS3505
ZGOW,1995-12-13 03:00,ZGOW 130300Z AUTO 04006KT 4SM 19/10 A3015 RMK SLP212 T01890097 57003 IEM_DS3505
ZGOW,1995-12-13 04:00,ZGOW 130400Z AUTO 07008KT 6SM 21/10 A3012 RMK T02100100 IEM_DS3505
ZGOW,1995-12-13 05:00,ZGOW 130500Z AUTO 06006KT 6SM 21/10 A3009 RMK T02100100 IEM_DS3505
ZGOW,1995-12-13 06:00,ZGOW 130600Z AUTO 16006KT 6SM 20/11 A3006 RMK SLP179 T02020111 57033 IEM_DS3505
ZGOW,1995-12-13 07:00,ZGOW 130700Z AUTO 12004KT 6SM 22/12 A3003 RMK T02200120 IEM_DS3505
ZGOW,1995-12-13 08:00,ZGOW 130800Z AUTO 12004KT 6SM 21/13 A3003 RMK T02100130 IEM_DS3505
ZGOW,1995-12-13 09:00,ZGOW 130900Z AUTO 14004KT 4SM 19/13 A3002 RMK SLP170 T01880128 57009 IEM_DS3505
ZGOW,1995-12-13 10:00,ZGOW 131000Z AUTO 06004KT 6SM 17/11 A3003 RMK T01700110 IEM_DS3505
ZGOW,1995-12-13 11:00,ZGOW 131100Z AUTO 06008KT 6SM 17/13 A3003 RMK T01700130 IEM_DS3505
ZGOW,1995-12-13 12:00,ZGOW 131200Z AUTO 07004KT 4SM 17/14 A3006 RMK SLP189 T01690135 52019 IEM_DS3505
ZGOW,1995-12-13 13:00,ZGOW 131300Z AUTO 04008KT 6SM 16/13 A3006 RMK T01600130 IEM_DS3505
ZGOW,1995-12-13 14:00,ZGOW 131400Z AUTO 06006KT 6SM 16/13 A3009 RMK T01600130 IEM_DS3505
ZGOW,1995-12-13 15:00,ZGOW 131500Z AUTO 04006KT 3SM 16/14 RMK SLP194 T01630136 52005 IEM_DS3505
ZGOW,1995-12-13 18:00,ZGOW 131800Z AUTO 07004KT 4SM 16/13 RMK SLP184 T01620134 57010 IEM_DS3505
ZGOW,1995-12-13 21:00,ZGOW 132100Z AUTO 36004KT 3SM 15/13 RMK SLP179 T01480130 57005 IEM_DS3505
ZGOW,1995-12-13 22:00,ZGOW 132200Z AUTO 31004KT 3SM 15/12 A3006 RMK T01500120 IEM_DS3505
ZGOW,1995-12-13 23:00,ZGOW 132300Z AUTO 00000KT 2SM 15/13 A3009 RMK T01500130 IEM_DS3505
ZGOW,1995-12-14 00:00,ZGOW 140000Z AUTO 04004KT 2 1/2SM 16/14 A3009 RMK SLP198 T01580135 52019 IEM_DS3505
ZGOW,1995-12-14 01:00,ZGOW 140100Z AUTO 30004KT 2 1/2SM 17/13 A3012 RMK T01700130 IEM_DS3505
ZGOW,1995-12-14 02:00,ZGOW 140200Z AUTO 00000KT 3SM 19/13 A3012 RMK T01900130 IEM_DS3505
ZGOW,1995-12-14 03:00,ZGOW 140300Z AUTO 04004KT 3SM 20/14 RMK SLP198 T01960139 54000 IEM_DS3505
ZGOW,1995-12-14 04:00,ZGOW 140400Z AUTO 03004KT 4SM 20/14 A3009 RMK T02000140 IEM_DS3505
ZGOW,1995-12-14 05:00,ZGOW 140500Z AUTO 05006KT 5SM 21/14 A3006 RMK T02100140 IEM_DS3505
ZGOW,1995-12-14 06:00,ZGOW 140600Z AUTO 04006KT 5SM 22/14 A3003 RMK SLP172 T02200144 57026 IEM_DS3505
ZGOW,1995-12-14 07:00,ZGOW 140700Z AUTO 04006KT 6SM 22/13 A3003 RMK T02200130 IEM_DS3505
ZGOW,1995-12-14 08:00,ZGOW 140800Z AUTO 04006KT 4SM 21/14 A3003 RMK T02100140 IEM_DS3505
ZGOW,1995-12-14 09:00,ZGOW 140900Z AUTO 09002KT 5SM 20/14 A3003 RMK SLP172 T02040144 54000 IEM_DS3505
ZGOW,1995-12-14 10:00,ZGOW 141000Z AUTO 06004KT 3SM 20/15 A3003 RMK T02000150 IEM_DS3505
ZGOW,1995-12-14 11:00,ZGOW 141100Z AUTO 08004KT 3SM 19/14 A3006 RMK T01900140 IEM_DS3505
ZGOW,1995-12-14 12:00,ZGOW 141200Z AUTO 04004KT 4SM 19/16 A3006 RMK SLP188 T01880156 52016 IEM_DS3505
ZGOW,1995-12-14 13:00,ZGOW 141300Z AUTO 04006KT 3SM 19/15 A3009 RMK T01900150 IEM_DS3505
ZGOW,1995-12-14 15:00,ZGOW 141500Z AUTO 04004KT 4SM 19/15 RMK SLP197 T01860146 52009 IEM_DS3505
ZGOW,1995-12-14 18:00,ZGOW 141800Z AUTO 00000KT 4SM 18/16 RMK SLP192 T01820155 57005 IEM_DS3505
ZGOW,1995-12-14 21:00,ZGOW 142100Z AUTO 00000KT 2SM 18/16 A3009 RMK SLP194 T01790159 52002 IEM_DS3505
ZGOW,1995-12-14 22:00,ZGOW 142200Z AUTO 00000KT 1 1/2SM 18/16 A3012 RMK T01800160 IEM_DS3505
ZGOW,1995-12-14 23:00,ZGOW 142300Z AUTO 35004KT 1 1/4SM 18/16 A3012 RMK T01800160 IEM_DS3505
ZGOW,1995-12-15 00:00,ZGOW 150000Z AUTO 09004KT 1SM 18/16 A3018 RMK 60000 SLP220 T01820162 52026 IEM_DS3505
ZGOW,1995-12-15 01:00,ZGOW 150100Z AUTO 07004KT 3SM 19/15 A3018 RMK T01900150 IEM_DS3505
ZGOW,1995-12-15 02:00,ZGOW 150200Z AUTO 00000KT 3SM 19/17 A3018 RMK T01900170 IEM_DS3505
ZGOW,1995-12-15 03:00,ZGOW 150300Z AUTO 11002KT 2SM 19/16 A3018 RMK SLP226 T01940162 52006 IEM_DS3505
ZGOW,1995-12-15 04:00,ZGOW 150400Z AUTO 03004KT 2 1/2SM 19/16 A3018 RMK T01900160 IEM_DS3505
ZGOW,1995-12-15 05:00,ZGOW 150500Z AUTO 06010KT 5SM 20/16 A3012 RMK T02000160 IEM_DS3505
ZGOW,1995-12-15 06:00,ZGOW 150600Z AUTO 07004KT 3SM 20/14 A3009 RMK 60002 SLP195 T02050141 57031 IEM_DS3505
ZGOW,1995-12-15 07:00,ZGOW 150700Z AUTO 05010KT 6SM 20/14 A3009 RMK T02000140 IEM_DS3505
ZGOW,1995-12-15 08:00,ZGOW 150800Z AUTO 06010KT 6SM 20/13 A3009 RMK T02000130 IEM_DS3505
ZGOW,1995-12-15 09:00,ZGOW 150900Z AUTO 07006KT 7SM 19/14 A3009 RMK SLP196 T01930139 52001 IEM_DS3505
ZGOW,1995-12-15 10:00,ZGOW 151000Z AUTO 05008KT 5SM 18/14 A3012 RMK T01800140 IEM_DS3505
ZGOW,1995-12-15 11:00,ZGOW 151100Z AUTO 05010KT 5SM 18/15 A3012 RMK T01800150 IEM_DS3505
ZGOW,1995-12-15 12:00,ZGOW 151200Z AUTO 04010G19KT 5SM 18/14 A3015 RMK SLP209 T01780145 52013 IEM_DS3505
ZGOW,1995-12-15 13:00,ZGOW 151300Z AUTO 03012G21KT 4SM 18/15 A3015 RMK T01800150 IEM_DS3505
ZGOW,1995-12-15 15:00,ZGOW 151500Z AUTO 09006KT 5SM 17/15 RMK SLP214 T01710147 52005 IEM_DS3505
ZGOW,1995-12-15 18:00,ZGOW 151800Z AUTO 04004KT 3SM 17/15 RMK SLP206 T01690146 57008 IEM_DS3505
ZGOW,1995-12-15 21:00,ZGOW 152100Z AUTO 04004KT 4SM 17/14 RMK SLP202 T01690141 57004 IEM_DS3505
ZGOW,1995-12-15 22:00,ZGOW 152200Z AUTO 03008KT 4SM 17/15 A3012 RMK T01700150 IEM_DS3505
ZGOW,1995-12-15 23:00,ZGOW 152300Z AUTO 03004KT 3SM 17/14 A3012 RMK T01700140 IEM_DS3505
ZGOW,1995-12-16 00:00,ZGOW 160000Z AUTO 04006KT 4SM 17/14 A3015 RMK 70002 SLP213 T01730140 52011 IEM_DS3505
ZGOW,1995-12-16 01:00,ZGOW 160100Z AUTO 05010KT 3SM 18/13 A3015 RMK T01800130 IEM_DS3505
ZGOW,1995-12-16 02:00,ZGOW 160200Z AUTO 03008KT 3SM 18/14 A3015 RMK T01800140 IEM_DS3505
ZGOW,1995-12-16 03:00,ZGOW 160300Z AUTO 04006KT 5SM 19/14 A3015 RMK SLP213 T01900142 54000 IEM_DS3505
ZGOW,1995-12-16 04:00,ZGOW 160400Z AUTO 02006KT 5SM 19/14 A3015 RMK T01900140 IEM_DS3505
ZGOW,1995-12-16 05:00,ZGOW 160500Z AUTO 05006KT 3SM 20/14 A3009 RMK T02000140 IEM_DS3505
ZGOW,1995-12-16 06:00,ZGOW 160600Z AUTO 09004KT 4SM 20/15 RMK SLP182 T02020146 57031 IEM_DS3505
ZGOW,1995-12-16 07:00,ZGOW 160700Z AUTO 03006KT 3SM 20/15 A3006 RMK T02000150 IEM_DS3505
ZGOW,1995-12-16 08:00,ZGOW 160800Z AUTO 05006KT 3SM 20/15 A3003 RMK T02000150 IEM_DS3505
ZGOW,1995-12-16 09:00,ZGOW 160900Z AUTO 04004KT 3SM 20/15 A3006 RMK SLP178 T01970148 57004 IEM_DS3505
ZGOW,1995-12-16 10:00,ZGOW 161000Z AUTO 03004KT 2 1/2SM 19/16 A3006 RMK T01900160 IEM_DS3505
ZGOW,1995-12-16 11:00,ZGOW 161100Z AUTO 00000KT 2 1/2SM 18/16 A3006 RMK T01800160 IEM_DS3505
ZGOW,1995-12-16 12:00,ZGOW 161200Z AUTO 00000KT 4SM 19/15 A3012 RMK SLP196 T01930152 52018 IEM_DS3505
ZGOW,1995-12-16 13:00,ZGOW 161300Z AUTO 00000KT 3SM 18/16 A3012 RMK T01800160 IEM_DS3505
ZGOW,1995-12-16 15:00,ZGOW 161500Z AUTO 04002KT 4SM 19/16 RMK SLP201 T01880156 52005 IEM_DS3505
ZGOW,1995-12-16 18:00,ZGOW 161800Z AUTO 09004KT 3SM 18/16 RMK SLP190 T01840155 57011 IEM_DS3505
ZGOW,1995-12-16 21:00,ZGOW 162100Z AUTO 04002KT 2 1/2SM 18/16 RMK SLP195 T01820157 52005 IEM_DS3505
ZGOW,1995-12-16 22:00,ZGOW 162200Z AUTO 01004KT 4SM 18/16 A3009 RMK T01800160 IEM_DS3505
ZGOW,1995-12-16 23:00,ZGOW 162300Z AUTO 06006KT 1SM 17/16 A3012 RMK T01700160 IEM_DS3505
ZGOW,1995-12-17 00:00,ZGOW 170000Z AUTO 09006KT 1 1/4SM 17/16 RMK 60004 70004 SLP213 T01710164 52018 IEM_DS3505
ZGOW,1995-12-17 01:00,ZGOW 170100Z AUTO 06006KT 1SM 17/16 A3021 RMK T01700160 IEM_DS3505
ZGOW,1995-12-17 02:00,ZGOW 170200Z AUTO 06008KT 7SM 17/15 A3018 RMK T01700150 IEM_DS3505
ZGOW,1995-12-17 03:00,ZGOW 170300Z AUTO 09010KT 9SM 17/15 A3021 RMK SLP230 T01660149 52017 IEM_DS3505
ZGOW,1995-12-17 04:00,ZGOW 170400Z AUTO 05008KT 7SM 16/15 A3018 RMK T01600150 IEM_DS3505
ZGOW,1995-12-17 05:00,ZGOW 170500Z AUTO 05008KT 7SM 16/15 A3018 RMK T01600150 IEM_DS3505
ZGOW,1995-12-17 06:00,ZGOW 170600Z AUTO 5SM 16/15 A3015 RMK 60002 SLP214 T01600150 57016 IEM_DS3505
ZGOW,1995-12-17 07:00,ZGOW 170700Z AUTO 04008KT 4SM 16/15 A3015 RMK T01600150 IEM_DS3505
ZGOW,1995-12-17 08:00,ZGOW 170800Z AUTO 04006KT 4SM 16/15 A3015 RMK T01600150 IEM_DS3505
ZGOW,1995-12-17 09:00,ZGOW 170900Z AUTO 04006KT 6SM 16/14 A3015 RMK SLP213 T01590143 57001 IEM_DS3505
ZGOW,1995-12-17 10:00,ZGOW 171000Z AUTO 05008KT 7SM 16/14 A3015 RMK T01600140 IEM_DS3505
ZGOW,1995-12-17 11:00,ZGOW 171100Z AUTO 05010KT 7SM 15/13 A3018 RMK T01500130 IEM_DS3505
ZGOW,1995-12-17 12:00,ZGOW 171200Z AUTO 09008KT 7SM 15/12 A3021 RMK 60001 SLP231 T01540125 52018 IEM_DS3505
ZGOW,1995-12-17 13:00,ZGOW 171300Z AUTO 05010KT 7SM 15/12 A3021 RMK T01500120 IEM_DS3505
ZGOW,1995-12-17 14:00,ZGOW 171400Z AUTO 06010KT 7SM 15/12 A3024 RMK T01500120 IEM_DS3505
ZGOW,1995-12-17 15:00,ZGOW 171500Z AUTO 09006KT 8SM 15/12 RMK SLP240 T01470115 52009 IEM_DS3505
ZGOW,1995-12-17 18:00,ZGOW 171800Z AUTO 04008KT 9SM 15/11 RMK SLP229 T01460110 57011 IEM_DS3505
ZGOW,1995-12-17 21:00,ZGOW 172100Z AUTO 36004KT 9SM 14/11 RMK SLP222 T01380112 57007 IEM_DS3505
ZGOW,1995-12-17 22:00,ZGOW 172200Z AUTO 35006KT 7SM 13/11 A3021 RMK T01300110 IEM_DS3505
ZGOW,1995-12-17 23:00,ZGOW 172300Z AUTO 34006KT 5SM 13/12 A3021 RMK T01300120 IEM_DS3505
ZGOW,1995-12-18 00:00,ZGOW 180000Z AUTO 04004KT 7SM 13/11 A3024 RMK 70004 SLP237 T01340107 52015 IEM_DS3505
ZGOW,1995-12-18 01:00,ZGOW 180100Z AUTO 34006KT 7SM 13/10 A3024 RMK T01300100 IEM_DS3505
ZGOW,1995-12-18 02:00,ZGOW 180200Z AUTO 35006KT 4SM 13/10 A3027 RMK T01300100 IEM_DS3505
ZGOW,1995-12-18 03:00,ZGOW 180300Z AUTO 36008KT 6SM 13/11 A3027 RMK SLP251 T01330106 52014 IEM_DS3505
ZGOW,1995-12-18 04:00,ZGOW 180400Z AUTO 35004KT 3SM 13/12 RMK T01300120 IEM_DS3505
ZGOW,1995-12-18 05:00,ZGOW 180500Z AUTO 30006KT 3SM 13/12 A3018 RMK T01300120 IEM_DS3505
ZGOW,1995-12-18 06:00,ZGOW 180600Z AUTO 36006KT 6SM 14/13 A3018 RMK 60004 SLP216 T01410128 57035 IEM_DS3505
ZGOW,1995-12-18 07:00,ZGOW 180700Z AUTO 35004KT 3SM 14/12 A3015 RMK T01400120 IEM_DS3505
ZGOW,1995-12-18 08:00,ZGOW 180800Z AUTO 32006KT 2SM 13/12 A3018 RMK T01300120 IEM_DS3505
ZGOW,1995-12-18 09:00,ZGOW 180900Z AUTO 04002KT 4SM 13/12 A3018 RMK SLP224 T01320125 52008 IEM_DS3505
ZGOW,1995-12-18 10:00,ZGOW 181000Z AUTO 34004KT 2 1/2SM 13/12 A3021 RMK T01300120 IEM_DS3505
ZGOW,1995-12-18 11:00,ZGOW 181100Z AUTO 34006KT 4SM 14/12 A3024 RMK T01400120 IEM_DS3505
ZGOW,1995-12-18 12:00,ZGOW 181200Z AUTO 02006KT 9SM 13/10 A3024 RMK 60008 SLP245 T01340105 52021 IEM_DS3505
ZGOW,1995-12-18 13:00,ZGOW 181300Z AUTO 00000KT 7SM 13/11 A3024 RMK T01300110 IEM_DS3505
ZGOW,1995-12-18 15:00,ZGOW 181500Z AUTO 02004KT 9SM 13/10 RMK SLP247 T01340103 52002 IEM_DS3505
ZGOW,1995-12-18 18:00,ZGOW 181800Z AUTO 04004KT 9SM 13/10 RMK SLP243 T01300101 57004 IEM_DS3505
ZGOW,1995-12-18 21:00,ZGOW 182100Z AUTO 36006KT 7SM 12/09 A3024 RMK SLP239 T01240092 57004 IEM_DS3505
ZGOW,1995-12-18 22:00,ZGOW 182200Z AUTO 35006KT 7SM 12/09 A3024 RMK T01200090 IEM_DS3505
ZGOW,1995-12-18 23:00,ZGOW 182300Z AUTO 00000KT 6SM 12/09 A3024 RMK T01200090 IEM_DS3505
ZGOW,1995-12-19 00:00,ZGOW 190000Z AUTO 04006KT 9SM 13/09 A3027 RMK 70016 SLP250 T01270091 52011 IEM_DS3505
ZGOW,1995-12-19 01:00,ZGOW 190100Z AUTO 33004KT 7SM 13/10 A3027 RMK T01300100 IEM_DS3505
ZGOW,1995-12-19 03:00,ZGOW 190300Z AUTO 04006KT 6SM 16/11 A3027 RMK SLP250 T01650111 54000 IEM_DS3505
ZGOW,1995-12-19 04:00,ZGOW 190400Z AUTO 03010KT 7SM 17/11 A3027 RMK T01700110 IEM_DS3505
ZGOW,1995-12-19 05:00,ZGOW 190500Z AUTO 05010KT 7SM 16/12 A3021 RMK T01600120 IEM_DS3505
ZGOW,1995-12-19 06:00,ZGOW 190600Z AUTO 36004KT 7SM 16/12 A3021 RMK SLP231 T01600118 57019 IEM_DS3505
ZGOW,1995-12-19 07:00,ZGOW 190700Z AUTO 33006KT 7SM 16/10 A3021 RMK T01600100 IEM_DS3505
ZGOW,1995-12-19 08:00,ZGOW 190800Z AUTO 01004KT 7SM 16/11 A3018 RMK T01600110 IEM_DS3505
ZGOW,1995-12-19 09:00,ZGOW 190900Z AUTO 04004KT 6SM 16/11 A3018 RMK SLP227 T01580109 57004 IEM_DS3505
ZGOW,1995-12-19 10:00,ZGOW 191000Z AUTO 00000KT 4SM 16/12 A3021 RMK T01600120 IEM_DS3505
ZGOW,1995-12-19 11:00,ZGOW 191100Z AUTO 02004KT 4SM 15/12 A3024 RMK T01500120 IEM_DS3505
ZGOW,1995-12-19 12:00,ZGOW 191200Z AUTO 04004KT 6SM 15/11 A3024 RMK SLP244 T01500113 52017 IEM_DS3505
ZGOW,1995-12-19 13:00,ZGOW 191300Z AUTO 00000KT 4SM 15/11 A3027 RMK T01500110 IEM_DS3505
ZGOW,1995-12-19 14:00,ZGOW 191400Z AUTO 00000KT 4SM 15/11 A3027 RMK T01500110 IEM_DS3505
ZGOW,1995-12-19 15:00,ZGOW 191500Z AUTO 04004KT 6SM 14/10 RMK SLP259 T01430103 52015 IEM_DS3505
ZGOW,1995-12-19 18:00,ZGOW 191800Z AUTO 02002KT 6SM 14/11 RMK SLP249 T01390107 57010 IEM_DS3505
ZGOW,1995-12-19 21:00,ZGOW 192100Z AUTO 04002KT 6SM 13/10 A3024 RMK SLP243 T01310102 57006 IEM_DS3505
ZGOW,1995-12-19 22:00,ZGOW 192200Z AUTO 00000KT 4SM 13/10 A3024 RMK T01300100 IEM_DS3505
ZGOW,1995-12-19 23:00,ZGOW 192300Z AUTO 00000KT 4SM 13/10 A3027 RMK T01300100 IEM_DS3505
ZGOW,1995-12-20 00:00,ZGOW 200000Z AUTO 02004KT 6SM 14/10 A3027 RMK SLP256 T01360101 52013 IEM_DS3505
ZGOW,1995-12-20 01:00,ZGOW 200100Z AUTO 32006KT 6SM 15/10 A3027 RMK T01500100 IEM_DS3505
ZGOW,1995-12-20 02:00,ZGOW 200200Z AUTO 02004KT 6SM 16/10 A3027 RMK T01600100 IEM_DS3505
ZGOW,1995-12-20 03:00,ZGOW 200300Z AUTO 09004KT 8SM 18/11 A3027 RMK SLP251 T01840112 57005 IEM_DS3505
ZGOW,1995-12-20 04:00,ZGOW 200400Z AUTO 07008KT 7SM 18/11 A3024 RMK T01800110 IEM_DS3505
ZGOW,1995-12-20 05:00,ZGOW 200500Z AUTO 03004KT 7SM 18/12 A3024 RMK T01800120 IEM_DS3505
ZGOW,1995-12-20 06:00,ZGOW 200600Z AUTO 04006KT 7SM 18/12 A3021 RMK SLP230 T01820116 57021 IEM_DS3505
ZGOW,1995-12-20 07:00,ZGOW 200700Z AUTO 18/12 A3018 RMK T01800120 IEM_DS3505
ZGOW,1995-12-20 08:00,ZGOW 200800Z AUTO 06006KT 4SM 17/12 A3018 RMK T01700120 IEM_DS3505
ZGOW,1995-12-20 09:00,ZGOW 200900Z AUTO 09004KT 6SM 17/12 A3018 RMK SLP227 T01670117 57003 IEM_DS3505
ZGOW,1995-12-20 10:00,ZGOW 201000Z AUTO 00000KT 3SM 16/13 A3021 RMK T01600130 IEM_DS3505
ZGOW,1995-12-20 11:00,ZGOW 201100Z AUTO 00000KT 3SM 15/13 A3024 RMK T01500130 IEM_DS3505
ZGOW,1995-12-20 12:00,ZGOW 201200Z AUTO 04004KT 4SM 15/13 A3024 RMK SLP245 T01530126 52018 IEM_DS3505
ZGOW,1995-12-20 13:00,ZGOW 201300Z AUTO 33006KT 4SM 15/11 A3027 RMK T01500110 IEM_DS3505
ZGOW,1995-12-20 15:00,ZGOW 201500Z AUTO 02004KT 6SM 15/10 RMK SLP253 T01460104 52008 IEM_DS3505
ZGOW,1995-12-20 18:00,ZGOW 201800Z AUTO 04002KT 6SM 14/11 RMK SLP249 T01440106 57004 IEM_DS3505
ZGOW,1995-12-20 21:00,ZGOW 202100Z AUTO 04004KT 6SM 14/10 RMK SLP247 T01410105 57002 IEM_DS3505
ZGOW,1995-12-20 22:00,ZGOW 202200Z AUTO 33006KT 3SM 14/10 A3027 RMK T01400100 IEM_DS3505
ZGOW,1995-12-20 23:00,ZGOW 202300Z AUTO 00000KT 3SM 14/10 A3027 RMK T01400100 IEM_DS3505
ZGOW,1995-12-21 00:00,ZGOW 210000Z AUTO 02004KT 6SM 14/10 A3027 RMK SLP255 T01370098 52008 IEM_DS3505
ZGOW,1995-12-21 01:00,ZGOW 210100Z AUTO 01004KT 5SM 15/11 A3027 RMK T01500110 IEM_DS3505
ZGOW,1995-12-21 02:00,ZGOW 210200Z AUTO 03006KT 7SM 17/10 A3030 RMK T01700100 IEM_DS3505
ZGOW,1995-12-21 03:00,ZGOW 210300Z AUTO 09006KT 7SM 18/10 A3027 RMK SLP257 T01750097 52002 IEM_DS3505
ZGOW,1995-12-21 04:00,ZGOW 210400Z AUTO 05006KT 4SM 18/11 A3027 RMK T01800110 IEM_DS3505
ZGOW,1995-12-21 05:00,ZGOW 210500Z AUTO 04006KT 5SM 17/11 A3024 RMK T01700110 IEM_DS3505
ZGOW,1995-12-21 06:00,ZGOW 210600Z AUTO 04006KT 7SM 18/11 A3021 RMK SLP231 T01820114 57026 IEM_DS3505
ZGOW,1995-12-21 07:00,ZGOW 210700Z AUTO 05006KT 4SM 18/11 A3018 RMK T01800110 IEM_DS3505
ZGOW,1995-12-21 08:00,ZGOW 210800Z AUTO 06006KT 4SM 18/12 A3018 RMK T01800120 IEM_DS3505
ZGOW,1995-12-21 09:00,ZGOW 210900Z AUTO 07006KT 5SM 17/11 A3018 RMK SLP228 T01740111 57003 IEM_DS3505
ZGOW,1995-12-21 10:00,ZGOW 211000Z AUTO 03006KT 4SM 16/12 A3021 RMK T01600120 IEM_DS3505
ZGOW,1995-12-21 11:00,ZGOW 211100Z AUTO 06008KT 4SM 15/12 A3021 RMK T01500120 IEM_DS3505
ZGOW,1995-12-21 12:00,ZGOW 211200Z AUTO 04006KT 6SM 16/11 A3024 RMK SLP243 T01580107 52015 IEM_DS3505
ZGOW,1995-12-21 13:00,ZGOW 211300Z AUTO 06010KT 7SM 15/11 A3027 RMK T01500110 IEM_DS3505
ZGOW,1995-12-21 15:00,ZGOW 211500Z AUTO 07008KT 7SM 15/08 RMK SLP254 T01510083 52011 IEM_DS3505
ZGOW,1995-12-21 18:00,ZGOW 211800Z AUTO 09006KT 7SM 15/06 RMK SLP252 T01460063 57002 IEM_DS3505
ZGOW,1995-12-21 21:00,ZGOW 212100Z AUTO 04004KT 7SM 14/07 A3024 RMK SLP247 T01370073 57005 IEM_DS3505
ZGOW,1995-12-21 22:00,ZGOW 212200Z AUTO 00000KT 3SM 12/08 A3027 RMK SLP256 T01200080 IEM_DS3505
ZGOW,1995-12-21 23:00,ZGOW 212300Z AUTO 00000KT 2 1/2SM 11/08 A3027 RMK SLP256 T01100080 IEM_DS3505
ZGOW,1995-12-22 00:00,ZGOW 220000Z AUTO 07002KT 5SM 13/08 A3027 RMK SLP260 T01340081 52013 IEM_DS3505
ZGOW,1995-12-22 01:00,ZGOW 220100Z AUTO 36004KT 4SM 15/08 A3030 RMK SLP266 T01500080 IEM_DS3505
ZGOW,1995-12-22 02:00,ZGOW 220200Z AUTO 35004KT 4SM 17/09 A3030 RMK SLP266 T01700090 IEM_DS3505
ZGOW,1995-12-22 03:00,ZGOW 220300Z AUTO 04004KT 6SM 18/09 A3027 RMK SLP255 T01790088 57005 IEM_DS3505
ZGOW,1995-12-22 06:00,ZGOW 220600Z AUTO 09008KT 7SM 19/10 A3018 RMK SLP226 T01870099 57029 IEM_DS3505
ZGOW,1995-12-22 07:00,ZGOW 220700Z AUTO 10006KT 7SM 19/11 A3018 RMK SLP225 T01900110 IEM_DS3505
ZGOW,1995-12-22 08:00,ZGOW 220800Z AUTO 07006KT 7SM 18/12 A3018 RMK SLP225 T01800120 IEM_DS3505
ZGOW,1995-12-22 09:00,ZGOW 220900Z AUTO 09004KT 6SM 17/11 A3018 RMK SLP220 T01680112 57006 IEM_DS3505
ZGOW,1995-12-22 10:00,ZGOW 221000Z AUTO 08006KT 5SM 16/11 A3018 RMK SLP225 T01600110 IEM_DS3505
ZGOW,1995-12-22 11:00,ZGOW 221100Z AUTO 06006KT 7SM 16/12 A3021 RMK SLP235 T01600120 IEM_DS3505
ZGOW,1995-12-22 12:00,ZGOW 221200Z AUTO 09006KT 7SM 15/12 A3021 RMK SLP236 T01540117 52016 IEM_DS3505
ZGOW,1995-12-22 13:00,ZGOW 221300Z AUTO 05006KT 7SM 15/12 A3024 RMK SLP246 T01500120 IEM_DS3505
ZGOW,1995-12-22 14:00,ZGOW 221400Z AUTO 05006KT 7SM 15/12 A3024 RMK SLP246 T01500120 IEM_DS3505
ZGOW,1995-12-22 15:00,ZGOW 221500Z AUTO 04004KT 7SM 14/12 A3024 RMK SLP245 T01440118 52009 IEM_DS3505
ZGOW,1995-12-22 18:00,ZGOW 221800Z AUTO 04004KT 2 1/2SM 12/11 A3021 RMK SLP234 T01240109 57011 IEM_DS3505
ZGOW,1995-12-22 21:00,ZGOW 222100Z AUTO 02002KT 1 1/2SM 12/10 A3021 RMK SLP226 T01190103 57008 IEM_DS3505
ZGOW,1995-12-22 22:00,ZGOW 222200Z AUTO 35004KT 3SM 12/10 A3021 RMK SLP235 T01200100 IEM_DS3505
ZGOW,1995-12-22 23:00,ZGOW 222300Z AUTO 34004KT 4SM 11/09 A3021 RMK SLP235 T01100090 IEM_DS3505
ZGOW,1995-12-23 00:00,ZGOW 230000Z AUTO 04004KT 6SM 12/10 A3024 RMK SLP243 T01250097 52017 IEM_DS3505
ZGOW,1995-12-23 01:00,ZGOW 230100Z AUTO 32006KT 4SM 14/10 A3024 RMK SLP246 T01400100 IEM_DS3505
ZGOW,1995-12-23 02:00,ZGOW 230200Z AUTO 30004KT 4SM 16/11 A3024 RMK SLP246 T01600110 IEM_DS3505
ZGOW,1995-12-23 03:00,ZGOW 230300Z AUTO 02004KT 9SM 18/11 A3024 RMK SLP238 T01850107 57005 IEM_DS3505
ZGOW,1995-12-23 04:00,ZGOW 230400Z AUTO 02006KT 7SM 20/11 A3021 RMK SLP234 T02000110 IEM_DS3505
ZGOW,1995-12-23 05:00,ZGOW 230500Z AUTO 03004KT 7SM 20/11 A3018 RMK SLP224 T02000110 IEM_DS3505
ZGOW,1995-12-23 06:00,ZGOW 230600Z AUTO 04004KT 11SM 21/11 A3012 RMK SLP201 T02130110 57037 IEM_DS3505
ZGOW,1995-12-23 07:00,ZGOW 230700Z AUTO 04006KT 7SM 21/11 A3012 RMK SLP204 T02100110 IEM_DS3505
ZGOW,1995-12-23 09:00,ZGOW 230900Z AUTO 16002KT 9SM 19/12 A3012 RMK SLP203 T01860117 52002 IEM_DS3505
ZGOW,1995-12-23 10:00,ZGOW 231000Z AUTO 08006KT 7SM 17/12 A3012 RMK SLP205 T01700120 IEM_DS3505
ZGOW,1995-12-23 11:00,ZGOW 231100Z AUTO 08006KT 7SM 16/12 A3015 RMK SLP215 T01600120 IEM_DS3505
ZGOW,1995-12-23 12:00,ZGOW 231200Z AUTO 09004KT 7SM 16/12 A3018 RMK SLP226 T01620118 52023 IEM_DS3505
ZGOW,1995-12-23 13:00,ZGOW 231300Z AUTO 04010KT 7SM 16/11 A3021 RMK SLP235 T01600110 IEM_DS3505
ZGOW,1995-12-23 15:00,ZGOW 231500Z AUTO 09008KT 7SM 15/11 A3022 RMK SLP238 T01530106 52012 IEM_DS3505
ZGOW,1995-12-23 18:00,ZGOW 231800Z AUTO 04004KT 7SM 13/11 A3021 RMK SLP235 T01340107 57003 IEM_DS3505
ZGOW,1995-12-23 21:00,ZGOW 232100Z AUTO 02002KT 6SM 12/10 A3021 RMK SLP231 T01220103 57004 IEM_DS3505
ZGOW,1995-12-23 22:00,ZGOW 232200Z AUTO 00000KT 7SM 12/11 A3021 RMK SLP235 T01200110 IEM_DS3505
ZGOW,1995-12-23 23:00,ZGOW 232300Z AUTO 00000KT 2 1/2SM 11/10 A3024 RMK SLP246 T01100100 IEM_DS3505
ZGOW,1995-12-24 00:00,ZGOW 240000Z AUTO 04002KT 2 1/2SM 13/10 A3027 RMK SLP251 T01320101 52020 IEM_DS3505
ZGOW,1995-12-24 03:00,ZGOW 240300Z AUTO 04006KT 4SM 19/09 A3030 RMK SLP257 T01860093 52006 IEM_DS3505
ZGOW,1995-12-24 04:00,ZGOW 240400Z AUTO 06010KT 7SM 18/09 A3027 RMK SLP256 T01800090 IEM_DS3505
ZGOW,1995-12-24 05:00,ZGOW 240500Z AUTO 05010KT 7SM 19/09 A3024 RMK SLP246 T01900090 IEM_DS3505
ZGOW,1995-12-24 06:00,ZGOW 240600Z AUTO 04010KT 6SM 19/06 A3021 RMK SLP231 T01920055 57026 IEM_DS3505
ZGOW,1995-12-24 07:00,ZGOW 240700Z AUTO 06012KT 7SM 19/06 A3021 RMK SLP235 T01900060 IEM_DS3505
ZGOW,1995-12-24 08:00,ZGOW 240800Z AUTO 06014G23KT 7SM 18/05 A3018 RMK SLP225 T01800050 IEM_DS3505
ZGOW,1995-12-24 09:00,ZGOW 240900Z AUTO 09010G23KT 4SM 17/05 A3021 RMK SLP235 T01690052 52004 IEM_DS3505
ZGOW,1995-12-24 10:00,ZGOW 241000Z AUTO 06014KT 7SM 16/06 A3024 RMK SLP246 T01600060 IEM_DS3505
ZGOW,1995-12-24 11:00,ZGOW 241100Z AUTO 06014KT 7SM 15/05 A3027 RMK SLP256 T01500050 IEM_DS3505
ZGOW,1995-12-24 12:00,ZGOW 241200Z AUTO 09010KT 6SM 15/02 A3027 RMK SLP260 T01480020 52025 IEM_DS3505
ZGOW,1995-12-24 13:00,ZGOW 241300Z AUTO 05014KT 7SM 14/00 A3030 RMK SLP266 T01400000 IEM_DS3505
ZGOW,1995-12-24 15:00,ZGOW 241500Z AUTO 04008KT 16SM 14/M00 A3033 RMK SLP275 T01351001 52015 IEM_DS3505
ZGOW,1995-12-24 18:00,ZGOW 241800Z AUTO 09006KT 11SM 12/02 A3032 RMK SLP271 T01220025 57004 IEM_DS3505
ZGOW,1995-12-24 21:00,ZGOW 242100Z AUTO 09006KT 9SM 12/03 A3031 RMK SLP269 T01240030 57002 IEM_DS3505
ZGOW,1995-12-24 22:00,ZGOW 242200Z AUTO 05006KT 6SM 12/03 A3033 RMK SLP276 T01200030 IEM_DS3505
ZGOW,1995-12-24 23:00,ZGOW 242300Z AUTO 04008KT 3SM 12/03 A3036 RMK SLP286 T01200030 IEM_DS3505
ZGOW,1995-12-25 00:00,ZGOW 250000Z AUTO 04008KT 11SM 12/02 A3039 RMK SLP291 T01250023 52022 IEM_DS3505
ZGOW,1995-12-25 01:00,ZGOW 250100Z AUTO 05012KT 6SM 13/01 A3039 RMK SLP296 T01300010 IEM_DS3505
ZGOW,1995-12-25 02:00,ZGOW 250200Z AUTO 05012KT 6SM 14/02 A3039 RMK SLP296 T01400020 IEM_DS3505
ZGOW,1995-12-25 03:00,ZGOW 250300Z AUTO 09012KT 11SM 15/00 A3039 RMK SLP299 T01460003 52008 IEM_DS3505
ZGOW,1995-12-25 04:00,ZGOW 250400Z AUTO 06008KT 6SM 15/02 A3039 RMK SLP296 T01500020 IEM_DS3505
ZGOW,1995-12-25 05:00,ZGOW 250500Z AUTO 06008KT 6SM 16/03 A3036 RMK SLP286 T01600030 IEM_DS3505
ZGOW,1995-12-25 06:00,ZGOW 250600Z AUTO 09010KT 14SM 16/04 A3033 RMK SLP272 T01580044 57027 IEM_DS3505
ZGOW,1995-12-25 07:00,ZGOW 250700Z AUTO 06010KT 7SM 16/04 A3030 RMK SLP266 T01600040 IEM_DS3505
ZGOW,1995-12-25 09:00,ZGOW 250900Z AUTO 09010KT 9SM 15/06 A3030 RMK SLP262 T01470061 57010 IEM_DS3505
ZGOW,1995-12-25 10:00,ZGOW 251000Z AUTO 06012KT 6SM 14/07 A3030 RMK SLP266 T01400070 IEM_DS3505
ZGOW,1995-12-25 11:00,ZGOW 251100Z AUTO 06014G23KT 6SM 13/07 A3033 RMK SLP276 T01300070 IEM_DS3505
ZGOW,1995-12-25 12:00,ZGOW 251200Z AUTO 07012KT 9SM 13/07 A3036 RMK SLP285 T01300070 52023 IEM_DS3505
ZGOW,1995-12-25 13:00,ZGOW 251300Z AUTO 04012KT 7SM 13/06 A3036 RMK SLP286 T01300060 IEM_DS3505
ZGOW,1995-12-25 15:00,ZGOW 251500Z AUTO 07006KT 8SM 12/05 A3039 RMK SLP296 T01200047 52011 IEM_DS3505
ZGOW,1995-12-25 18:00,ZGOW 251800Z AUTO 00000KT 7SM 10/05 A3038 RMK SLP292 T01040046 57004 IEM_DS3505
ZGOW,1995-12-25 21:00,ZGOW 252100Z AUTO 04004KT 7SM 10/04 A3038 RMK SLP293 T00960036 52001 IEM_DS3505
ZGOW,1995-12-25 22:00,ZGOW 252200Z AUTO 00000KT 7SM 08/04 A3039 RMK SLP296 T00800040 IEM_DS3505
ZGOW,1995-12-25 23:00,ZGOW 252300Z AUTO 00000KT 7SM 07/05 A3039 RMK SLP296 T00700050 IEM_DS3505
ZGOW,1995-12-26 00:00,ZGOW 260000Z AUTO 04004KT 6SM 10/06 A3042 RMK SLP310 T00970060 52017 IEM_DS3505
ZGOW,1995-12-26 01:00,ZGOW 260100Z AUTO 03008KT 6SM 12/03 A3042 RMK SLP307 T01200030 IEM_DS3505
ZGOW,1995-12-26 02:00,ZGOW 260200Z AUTO 03012KT 6SM 14/06 A3042 RMK SLP307 T01400060 IEM_DS3505
ZGOW,1995-12-26 03:00,ZGOW 260300Z AUTO 04012KT 8SM 15/03 A3042 RMK SLP306 T01460034 57004 IEM_DS3505
ZGOW,1995-12-26 04:00,ZGOW 260400Z AUTO 02008KT 7SM 16/04 A3039 RMK SLP296 T01600040 IEM_DS3505
ZGOW,1995-12-26 05:00,ZGOW 260500Z AUTO 04008KT 7SM 17/05 A3036 RMK SLP286 T01700050 IEM_DS3505
ZGOW,1995-12-26 06:00,ZGOW 260600Z AUTO 09008KT 16SM 17/06 A3033 RMK SLP270 T01670062 57036 IEM_DS3505
ZGOW,1995-12-26 07:00,ZGOW 260700Z AUTO 05008KT 7SM 17/07 A3030 RMK SLP266 T01700070 IEM_DS3505
ZGOW,1995-12-26 08:00,ZGOW 260800Z AUTO 07008KT 7SM 16/06 A3030 RMK SLP266 T01600060 IEM_DS3505
ZGOW,1995-12-26 09:00,ZGOW 260900Z AUTO 04008KT 14SM 16/06 A3030 RMK SLP269 T01560058 57001 IEM_DS3505
ZGOW,1995-12-26 10:00,ZGOW 261000Z AUTO 06008KT 7SM 14/07 A3030 RMK SLP266 T01400070 IEM_DS3505
ZGOW,1995-12-26 11:00,ZGOW 261100Z AUTO 06008KT 7SM 14/08 A3033 RMK SLP276 T01400080 IEM_DS3505
ZGOW,1995-12-26 12:00,ZGOW 261200Z AUTO 09008KT 9SM 14/07 A3036 RMK SLP285 T01370066 52016 IEM_DS3505
ZGOW,1995-12-26 13:00,ZGOW 261300Z AUTO 06010KT 7SM 13/08 A3036 RMK SLP286 T01300080 IEM_DS3505
ZGOW,1995-12-26 15:00,ZGOW 261500Z AUTO 07006KT 8SM 12/06 A3039 RMK SLP296 T01240060 52011 IEM_DS3505
ZGOW,1995-12-26 18:00,ZGOW 261800Z AUTO 04006KT 7SM 10/06 A3035 RMK SLP282 T01050062 57014 IEM_DS3505
ZGOW,1995-12-26 21:00,ZGOW 262100Z AUTO 04004KT 7SM 09/06 A3034 RMK SLP280 T00900059 57002 IEM_DS3505
ZGOW,1995-12-26 22:00,ZGOW 262200Z AUTO 00000KT 7SM 08/07 A3036 RMK SLP286 T00800070 IEM_DS3505
ZGOW,1995-12-26 23:00,ZGOW 262300Z AUTO 31004KT 6SM 09/06 A3036 RMK SLP286 T00900060 IEM_DS3505
ZGOW,1995-12-27 00:00,ZGOW 270000Z AUTO 04004KT 10SM 10/05 A3036 RMK SLP295 T00980051 52015 IEM_DS3505
ZGOW,1995-12-27 01:00,ZGOW 270100Z AUTO 31004KT 6SM 12/06 A3042 RMK SLP307 T01200060 IEM_DS3505
ZGOW,1995-12-27 02:00,ZGOW 270200Z AUTO 34006KT 6SM 14/06 A3042 RMK SLP307 T01400060 IEM_DS3505
ZGOW,1995-12-27 03:00,ZGOW 270300Z AUTO 04006KT 11SM 16/06 A3042 RMK SLP299 T01570059 52004 IEM_DS3505
ZGOW,1995-12-27 04:00,ZGOW 270400Z AUTO 06008KT 6SM 17/06 RMK T01700060 IEM_DS3505
ZGOW,1995-12-27 05:00,ZGOW 270500Z AUTO 08008KT 6SM 18/07 A3033 RMK SLP276 T01800070 IEM_DS3505
ZGOW,1995-12-27 06:00,ZGOW 270600Z AUTO 14008KT 16SM 18/07 A3030 RMK SLP265 T01810074 57034 IEM_DS3505
ZGOW,1995-12-27 07:00,ZGOW 270700Z AUTO 07008KT 7SM 18/08 A3030 RMK SLP266 T01800080 IEM_DS3505
ZGOW,1995-12-27 08:00,ZGOW 270800Z AUTO 08008KT 7SM 18/08 A3030 RMK SLP266 T01800080 IEM_DS3505
ZGOW,1995-12-27 09:00,ZGOW 270900Z AUTO 04004KT 11SM 17/09 A3030 RMK SLP261 T01700090 57004 IEM_DS3505
ZGOW,1995-12-27 10:00,ZGOW 271000Z AUTO 06008KT 7SM 15/09 A3030 RMK SLP266 T01500090 IEM_DS3505
ZGOW,1995-12-27 11:00,ZGOW 271100Z AUTO 06008KT 7SM 15/09 A3033 RMK SLP276 T01500090 IEM_DS3505
ZGOW,1995-12-27 12:00,ZGOW 271200Z AUTO 09006KT 9SM 14/09 A3033 RMK SLP278 T01450090 52017 IEM_DS3505
ZGOW,1995-12-27 13:00,ZGOW 271300Z AUTO 05010KT 7SM 14/09 A3036 RMK SLP286 T01400090 IEM_DS3505
ZGOW,1995-12-27 15:00,ZGOW 271500Z AUTO 04004KT 9SM 13/08 A3035 RMK SLP282 T01320084 52004 IEM_DS3505
ZGOW,1995-12-27 18:00,ZGOW 271800Z AUTO 00000KT 6SM 10/08 A3033 RMK SLP276 T00990082 57006 IEM_DS3505
ZGOW,1995-12-27 21:00,ZGOW 272100Z AUTO 02002KT 6SM 10/08 A3033 RMK SLP270 T00990076 57006 IEM_DS3505
ZGOW,1995-12-27 22:00,ZGOW 272200Z AUTO 33004KT 7SM 09/06 A3033 RMK SLP276 T00900060 IEM_DS3505
ZGOW,1995-12-27 23:00,ZGOW 272300Z AUTO 33004KT 7SM 10/05 A3036 RMK SLP286 T01000050 IEM_DS3505
ZGOW,1995-12-28 00:00,ZGOW 280000Z AUTO 04004KT 5SM 10/06 A3036 RMK SLP283 T01020056 52013 IEM_DS3505
ZGOW,1995-12-28 01:00,ZGOW 280100Z AUTO 32006KT 7SM 12/02 A3036 RMK SLP286 T01200020 IEM_DS3505
ZGOW,1995-12-28 02:00,ZGOW 280200Z AUTO 33006KT 7SM 14/05 A3036 RMK SLP286 T01400050 IEM_DS3505
ZGOW,1995-12-28 03:00,ZGOW 280300Z AUTO 02006KT 5SM 16/05 A3036 RMK SLP282 T01620047 57001 IEM_DS3505
ZGOW,1995-12-28 04:00,ZGOW 280400Z AUTO 36004KT 7SM 18/05 A3033 RMK SLP276 T01800050 IEM_DS3505
ZGOW,1995-12-28 05:00,ZGOW 280500Z AUTO 34004KT 7SM 19/06 A3027 RMK SLP256 T01900060 IEM_DS3505
ZGOW,1995-12-28 06:00,ZGOW 280600Z AUTO 36004KT 7SM 19/04 A3023 RMK SLP240 T01940041 57042 IEM_DS3505
ZGOW,1995-12-28 07:00,ZGOW 280700Z AUTO 30004KT 7SM 19/05 A3021 RMK SLP235 T01900050 IEM_DS3505
ZGOW,1995-12-28 08:00,ZGOW 280800Z AUTO 32004KT 7SM 20/04 A3021 RMK SLP234 T02000040 IEM_DS3505
ZGOW,1995-12-28 09:00,ZGOW 280900Z AUTO 36004KT 6SM 19/04 A3021 RMK SLP237 T01890045 57003 IEM_DS3505
ZGOW,1995-12-28 10:00,ZGOW 281000Z AUTO 12004KT 7SM 14/10 A3024 RMK SLP246 T01400100 IEM_DS3505
ZGOW,1995-12-28 11:00,ZGOW 281100Z AUTO 00000KT 7SM 13/10 A3027 RMK SLP256 T01300100 IEM_DS3505
ZGOW,1995-12-28 12:00,ZGOW 281200Z AUTO 07002KT 6SM 14/10 A3027 RMK SLP260 T01420097 52023 IEM_DS3505
ZGOW,1995-12-28 13:00,ZGOW 281300Z AUTO 02004KT 7SM 12/10 A3030 RMK SLP266 T01200100 IEM_DS3505
ZGOW,1995-12-28 15:00,ZGOW 281500Z AUTO 04002KT 5SM 12/09 A3030 RMK SLP265 T01240090 52005 IEM_DS3505
ZGOW,1995-12-28 18:00,ZGOW 281800Z AUTO 36006KT 7SM 10/02 A3026 RMK SLP251 T01020021 57014 IEM_DS3505
ZGOW,1995-12-28 21:00,ZGOW 282100Z AUTO 04006KT 6SM 10/01 A3024 RMK SLP243 T00960010 57008 IEM_DS3505
ZGOW,1995-12-29 00:00,ZGOW 290000Z AUTO 04004KT 7SM 10/01 A3030 RMK SLP260 T00960007 52017 IEM_DS3505
ZGOW,1995-12-29 01:00,ZGOW 290100Z AUTO 33004KT 7SM 11/04 A3030 RMK SLP266 T01100040 IEM_DS3505
ZGOW,1995-12-29 02:00,ZGOW 290200Z AUTO 00000KT 7SM 13/00 A3030 RMK SLP266 T01300000 IEM_DS3505
ZGOW,1995-12-29 03:00,ZGOW 290300Z AUTO 36004KT 7SM 15/M01 A3027 RMK SLP256 T01541011 57004 IEM_DS3505
ZGOW,1995-12-29 04:00,ZGOW 290400Z AUTO 00000KT 7SM 16/M01 A3024 RMK SLP246 T01601010 IEM_DS3505
ZGOW,1995-12-29 05:00,ZGOW 290500Z AUTO 36006KT 7SM 17/00 A3021 RMK SLP235 T01700000 IEM_DS3505
ZGOW,1995-12-29 06:00,ZGOW 290600Z AUTO 36006KT 7SM 18/M01 A3018 RMK SLP220 T01781008 57036 IEM_DS3505
ZGOW,1995-12-29 07:00,ZGOW 290700Z AUTO 08008KT 7SM 17/02 A3015 RMK SLP215 T01700020 IEM_DS3505
ZGOW,1995-12-29 09:00,ZGOW 290900Z AUTO 11004KT 7SM 15/04 A3015 RMK SLP215 T01520042 57005 IEM_DS3505
ZGOW,1995-12-29 10:00,ZGOW 291000Z AUTO 08004KT 7SM 15/06 A3018 RMK SLP225 T01500060 IEM_DS3505
ZGOW,1995-12-29 11:00,ZGOW 291100Z AUTO 00000KT 7SM 11/07 A3018 RMK SLP225 T01100070 IEM_DS3505
ZGOW,1995-12-29 12:00,ZGOW 291200Z AUTO 04004KT 7SM 13/07 A3021 RMK SLP232 T01280070 52017 IEM_DS3505
ZGOW,1995-12-29 13:00,ZGOW 291300Z AUTO 05004KT 7SM 12/07 A3021 RMK SLP235 T01200070 IEM_DS3505
ZGOW,1995-12-29 15:00,ZGOW 291500Z AUTO 04004KT 6SM 10/07 A3022 RMK SLP238 T01030074 52006 IEM_DS3505
ZGOW,1995-12-29 18:00,ZGOW 291800Z AUTO 04004KT 6SM 08/06 A3019 RMK SLP228 T00850065 57010 IEM_DS3505
ZGOW,1995-12-29 21:00,ZGOW 292100Z AUTO 04004KT 6SM 07/01 A3018 RMK SLP224 T00710013 57004 IEM_DS3505
ZGOW,1995-12-29 22:00,ZGOW 292200Z AUTO 00000KT 4SM 05/02 A3021 RMK SLP235 T00500020 IEM_DS3505
ZGOW,1995-12-29 23:00,ZGOW 292300Z AUTO 36004KT 7SM 07/M01 A3021 RMK SLP235 T00701010 IEM_DS3505
ZGOW,1995-12-30 00:00,ZGOW 300000Z AUTO 02002KT 9SM 07/01 A3024 RMK SLP249 T00730010 52025 IEM_DS3505
ZGOW,1995-12-30 01:00,ZGOW 300100Z AUTO 36008KT 7SM 10/M01 A3027 RMK SLP256 T01001010 IEM_DS3505
ZGOW,1995-12-30 02:00,ZGOW 300200Z AUTO 32006KT 7SM 11/M01 A3027 RMK SLP256 T01101010 IEM_DS3505
ZGOW,1995-12-30 03:00,ZGOW 300300Z AUTO 04006KT 10SM 14/M02 A3024 RMK SLP245 T01381017 57004 IEM_DS3505
ZGOW,1995-12-30 04:00,ZGOW 300400Z AUTO 34004KT 7SM 15/M02 A3021 RMK SLP235 T01501020 IEM_DS3505
ZGOW,1995-12-30 05:00,ZGOW 300500Z AUTO 06002KT 16/M01 A3018 RMK SLP225 T01601010 IEM_DS3505
ZGOW,1995-12-30 06:00,ZGOW 300600Z AUTO 00000KT 6SM 17/00 A3015 RMK SLP210 T01740004 57035 IEM_DS3505
ZGOW,1995-12-30 07:00,ZGOW 300700Z AUTO 07004KT 7SM 17/00 A3015 RMK SLP215 T01700000 IEM_DS3505
ZGOW,1995-12-30 08:00,ZGOW 300800Z AUTO 09006KT 7SM 17/02 A3012 RMK SLP205 T01700020 IEM_DS3505
ZGOW,1995-12-30 09:00,ZGOW 300900Z AUTO 11002KT 4SM 15/03 A3012 RMK SLP207 T01480027 57003 IEM_DS3505
ZGOW,1995-12-30 10:00,ZGOW 301000Z AUTO 09004KT 7SM 14/05 A3015 RMK SLP215 T01400050 IEM_DS3505
ZGOW,1995-12-30 11:00,ZGOW 301100Z AUTO 09004KT 7SM 12/05 A3015 RMK SLP215 T01200050 IEM_DS3505
ZGOW,1995-12-30 12:00,ZGOW 301200Z AUTO 09004KT 6SM 13/06 A3018 RMK SLP224 T01260055 52017 IEM_DS3505
ZGOW,1995-12-30 13:00,ZGOW 301300Z AUTO 06008KT 7SM 11/07 A3018 RMK SLP225 T01100070 IEM_DS3505
ZGOW,1995-12-30 15:00,ZGOW 301500Z AUTO 09006KT 6SM 12/06 A3021 RMK SLP236 T01150057 52012 IEM_DS3505
ZGOW,1995-12-30 18:00,ZGOW 301800Z AUTO 04004KT 5SM 09/06 A3020 RMK SLP232 T00880057 57004 IEM_DS3505
ZGOW,1995-12-30 21:00,ZGOW 302100Z AUTO 04004KT 4SM 07/04 A3018 RMK SLP225 T00690043 57007 IEM_DS3505
ZGOW,1995-12-30 22:00,ZGOW 302200Z AUTO 00000KT 7SM 06/04 A3021 RMK SLP235 T00600040 IEM_DS3505
ZGOW,1995-12-30 23:00,ZGOW 302300Z AUTO 00000KT 3SM 05/03 A3021 RMK SLP235 T00500030 IEM_DS3505
