station,valid,metar
ZGOW,1999-01-01 00:00,ZGOW 010000Z AUTO 04004KT 7SM 14/11 A3024 RMK SLP246 T01450107 52012 IEM_DS3505
ZGOW,1999-01-01 03:00,ZGOW 010300Z AUTO 11006KT 6SM 18/11 A3023 RMK SLP242 T01810113 57004 IEM_DS3505
ZGOW,1999-01-01 06:00,ZGOW 010600Z AUTO 07004KT 7SM 19/12 A3014 RMK SLP210 T01860115 57032 IEM_DS3505
ZGOW,1999-01-01 09:00,ZGOW 010900Z AUTO 11004KT 7SM 17/13 A3012 RMK SLP204 T01710126 57006 IEM_DS3505
ZGOW,1999-01-01 12:00,ZGOW 011200Z AUTO 07006KT 7SM 16/13 A3016 RMK SLP218 T01600129 52014 IEM_DS3505
ZGOW,1999-01-01 15:00,ZGOW 011500Z AUTO 07006KT 6SM 16/13 A3019 RMK SLP227 T01630129 52009 IEM_DS3505
ZGOW,1999-01-01 18:00,ZGOW 011800Z AUTO 34002KT 6SM 16/13 A3017 RMK SLP221 T01590128 57006 IEM_DS3505
ZGOW,1999-01-01 21:00,ZGOW 012100Z AUTO 02004KT 6SM 15/10 A3015 RMK SLP215 T01500102 57006 IEM_DS3505
ZGOW,1999-01-02 00:00,ZGOW 020000Z AUTO 04002KT 6SM 14/09 A3014 RMK SLP212 T01370094 57003 IEM_DS3505
ZGOW,1999-01-02 03:00,ZGOW 020300Z AUTO 02004KT 5SM 18/10 A3014 RMK SLP210 T01780105 57002 IEM_DS3505
ZGOW,1999-01-02 06:00,ZGOW 020600Z AUTO 02008KT 4SM 19/11 A3006 RMK SLP185 T01890106 57025 IEM_DS3505
ZGOW,1999-01-02 09:00,ZGOW 020900Z AUTO 02004KT 4SM 18/10 A3003 RMK SLP176 T01790102 57009 IEM_DS3505
ZGOW,1999-01-02 12:00,ZGOW 021200Z AUTO 02002KT 5SM 16/10 A3008 RMK SLP190 T01560099 52014 IEM_DS3505
ZGOW,1999-01-02 15:00,ZGOW 021500Z AUTO 07004KT 4SM 15/10 A3010 RMK SLP197 T01490101 52007 IEM_DS3505
ZGOW,1999-01-02 18:00,ZGOW 021800Z AUTO 02002KT 4SM 15/09 A3008 RMK SLP191 T01480094 57006 IEM_DS3505
ZGOW,1999-01-02 21:00,ZGOW 022100Z AUTO 02004KT 5SM 14/10 A3003 RMK SLP176 T01360097 57015 IEM_DS3505
ZGOW,1999-01-03 00:00,ZGOW 030000Z AUTO 04006KT 7SM 13/08 A3008 RMK SLP190 T01260084 52014 IEM_DS3505
ZGOW,1999-01-03 03:00,ZGOW 030300Z AUTO 04006KT 7SM 17/08 A3008 RMK SLP192 T01680084 52002 IEM_DS3505
ZGOW,1999-01-03 06:00,ZGOW 030600Z AUTO 22006KT 7SM 19/10 A2999 RMK SLP159 T01890099 57033 IEM_DS3505
ZGOW,1999-01-03 09:00,ZGOW 030900Z AUTO 16004KT 6SM 17/11 A2998 RMK SLP158 T01740113 57001 IEM_DS3505
ZGOW,1999-01-03 12:00,ZGOW 031200Z AUTO 07004KT 6SM 16/13 A3003 RMK SLP175 T01600126 52017 IEM_DS3505
ZGOW,1999-01-03 15:00,ZGOW 031500Z AUTO 04004KT 7SM 15/12 A3005 RMK SLP182 T01490121 52007 IEM_DS3505
ZGOW,1999-01-03 18:00,ZGOW 031800Z AUTO 04004KT 5SM 13/12 A3004 RMK SLP178 T01310116 57004 IEM_DS3505
ZGOW,1999-01-03 21:00,ZGOW 032100Z AUTO 07004KT 2 1/2SM 12/10 A3003 RMK SLP176 T01210104 57002 IEM_DS3505
ZGOW,1999-01-04 00:00,ZGOW 040000Z AUTO 04006KT 5SM 12/08 A3009 RMK SLP192 T01220081 52016 IEM_DS3505
ZGOW,1999-01-04 03:00,ZGOW 040300Z AUTO 11004KT 6SM 17/08 A3009 RMK SLP195 T01740082 52003 IEM_DS3505
ZGOW,1999-01-04 06:00,ZGOW 040600Z AUTO 07004KT 7SM 19/08 A3001 RMK SLP165 T01910078 57030 IEM_DS3505
ZGOW,1999-01-04 09:00,ZGOW 040900Z AUTO 09006KT 6SM 18/09 A2999 RMK SLP161 T01780087 57004 IEM_DS3505
ZGOW,1999-01-04 12:00,ZGOW 041200Z AUTO 07006KT 6SM 16/08 A3006 RMK SLP184 T01550084 52023 IEM_DS3505
ZGOW,1999-01-04 15:00,ZGOW 041500Z AUTO 07006KT 7SM 14/06 A3006 RMK SLP183 T01450064 57001 IEM_DS3505
ZGOW,1999-01-04 18:00,ZGOW 041800Z AUTO 04002KT 4SM 11/09 A3005 RMK SLP179 T01090087 57004 IEM_DS3505
ZGOW,1999-01-04 21:00,ZGOW 042100Z AUTO 04004KT 4SM 11/08 A3003 RMK SLP176 T01120081 57003 IEM_DS3505
ZGOW,1999-01-05 00:00,ZGOW 050000Z AUTO 04004KT 4SM 11/08 A3006 RMK SLP185 T01130076 52009 IEM_DS3505
ZGOW,1999-01-05 03:00,ZGOW 050300Z AUTO 07004KT 5SM 18/07 A3004 RMK SLP179 T01780070 57006 IEM_DS3505
ZGOW,1999-01-05 06:00,ZGOW 050600Z AUTO 11006KT 6SM 20/04 A2997 RMK SLP154 T01980042 57025 IEM_DS3505
ZGOW,1999-01-05 09:00,ZGOW 050900Z AUTO 07004KT 6SM 18/08 A2995 RMK SLP147 T01830075 57007 IEM_DS3505
ZGOW,1999-01-05 12:00,ZGOW 051200Z AUTO 07004KT 7SM 16/11 A2998 RMK SLP157 T01570106 52010 IEM_DS3505
ZGOW,1999-01-05 15:00,ZGOW 051500Z AUTO 04002KT 7SM 13/10 A3001 RMK SLP167 T01270104 52010 IEM_DS3505
ZGOW,1999-01-05 18:00,ZGOW 051800Z AUTO 04004KT 4SM 12/10 A3000 RMK SLP164 T01210097 57003 IEM_DS3505
ZGOW,1999-01-05 21:00,ZGOW 052100Z AUTO 02004KT 4SM 11/08 A2998 RMK SLP159 T01080077 57005 IEM_DS3505
ZGOW,1999-01-06 00:00,ZGOW 060000Z AUTO 04004KT 5SM 12/07 A3003 RMK SLP174 T01180072 52015 IEM_DS3505
ZGOW,1999-01-06 03:00,ZGOW 060300Z AUTO 04004KT 6SM 20/08 A3001 RMK SLP168 T01950076 57006 IEM_DS3505
ZGOW,1999-01-06 06:00,ZGOW 060600Z AUTO 27002KT 8SM 22/05 A2993 RMK SLP140 T02190050 57028 IEM_DS3505
ZGOW,1999-01-06 09:00,ZGOW 060900Z AUTO 11004KT 8SM 19/11 A2993 RMK SLP140 T01870106 54000 IEM_DS3505
ZGOW,1999-01-06 12:00,ZGOW 061200Z AUTO 07004KT 6SM 16/12 A2996 RMK SLP150 T01640118 52010 IEM_DS3505
ZGOW,1999-01-06 15:00,ZGOW 061500Z AUTO 04004KT 6SM 14/12 A2999 RMK SLP161 T01440116 52011 IEM_DS3505
ZGOW,1999-01-06 18:00,ZGOW 061800Z AUTO 04004KT 6SM 13/09 A3002 RMK SLP169 T01270091 52008 IEM_DS3505
ZGOW,1999-01-06 21:00,ZGOW 062100Z AUTO 34004KT 7SM 13/04 A3002 RMK SLP172 T01260045 52003 IEM_DS3505
ZGOW,1999-01-07 00:00,ZGOW 070000Z AUTO 02004KT 9SM 12/05 A3009 RMK SLP193 T01220053 52021 IEM_DS3505
ZGOW,1999-01-07 02:00,ZGOW 070200Z AUTO 34008KT 5SM 16/06 A3009 RMK SLP195 T01600060 IEM_DS3505
ZGOW,1999-01-07 03:00,ZGOW 070300Z AUTO 02006KT 9SM 17/04 A3009 RMK SLP196 T01730041 52003 IEM_DS3505
ZGOW,1999-01-07 06:00,ZGOW 070600Z AUTO 04004KT 6SM 20/06 A3000 RMK SLP162 T01950060 57034 IEM_DS3505
ZGOW,1999-01-07 09:00,ZGOW 070900Z AUTO 09006KT 6SM 17/12 A2998 RMK SLP157 T01720115 57005 IEM_DS3505
ZGOW,1999-01-07 12:00,ZGOW 071200Z AUTO 07008KT 5SM 15/10 A3004 RMK SLP178 T01490105 52021 IEM_DS3505
ZGOW,1999-01-07 15:00,ZGOW 071500Z AUTO 07010KT 4SM 14/09 A3007 RMK SLP187 T01360093 52009 IEM_DS3505
ZGOW,1999-01-07 18:00,ZGOW 071800Z AUTO 07008KT 4SM 13/08 A3007 RMK SLP188 T01260075 52001 IEM_DS3505
ZGOW,1999-01-07 21:00,ZGOW 072100Z AUTO 07004KT 2 1/2SM 11/08 A3008 RMK SLP190 T01130076 52002 IEM_DS3505
ZGOW,1999-01-08 00:00,ZGOW 080000Z AUTO 04004KT 2 1/2SM 11/07 A3012 RMK SLP204 T01070073 52014 IEM_DS3505
ZGOW,1999-01-08 03:00,ZGOW 080300Z AUTO 04006KT 2 1/2SM 15/06 A3014 RMK SLP212 T01470062 52008 IEM_DS3505
ZGOW,1999-01-08 05:00,ZGOW 080500Z AUTO 08010KT 16/06 A3006 RMK SLP185 T01600060 IEM_DS3505
ZGOW,1999-01-08 06:00,ZGOW 080600Z AUTO 09006KT 4SM 16/06 A3005 RMK SLP180 T01620059 57032 IEM_DS3505
ZGOW,1999-01-08 09:00,ZGOW 080900Z AUTO 07008KT 4SM 15/07 A3003 RMK SLP175 T01500066 57005 IEM_DS3505
ZGOW,1999-01-08 12:00,ZGOW 081200Z AUTO 09014KT 6SM 13/07 A3009 RMK SLP194 T01320068 52019 IEM_DS3505
ZGOW,1999-01-08 15:00,ZGOW 081500Z AUTO 04010KT 7SM 12/06 A3012 RMK SLP205 T01220063 52011 IEM_DS3505
ZGOW,1999-01-08 18:00,ZGOW 081800Z AUTO 07010KT 7SM 12/01 A3014 RMK SLP210 T01170012 52005 IEM_DS3505
ZGOW,1999-01-09 00:00,ZGOW 090000Z AUTO 04006KT 9SM 11/02 A3020 RMK SLP231 T01120020 52022 IEM_DS3505
ZGOW,1999-01-09 03:00,ZGOW 090300Z AUTO 04006KT 12SM 14/02 A3022 RMK SLP240 T01450019 52009 IEM_DS3505
ZGOW,1999-01-09 06:00,ZGOW 090600Z AUTO 04006KT 10SM 16/04 A3016 RMK SLP218 T01620036 57022 IEM_DS3505
ZGOW,1999-01-09 09:00,ZGOW 090900Z AUTO 09008KT 9SM 15/05 A3015 RMK SLP216 T01510054 57002 IEM_DS3505
ZGOW,1999-01-09 12:00,ZGOW 091200Z AUTO 07008KT 8SM 14/08 A3020 RMK SLP232 T01370078 52016 IEM_DS3505
ZGOW,1999-01-09 15:00,ZGOW 091500Z AUTO 07010KT 7SM 13/07 A3023 RMK SLP242 T01280072 52010 IEM_DS3505
ZGOW,1999-01-09 18:00,ZGOW 091800Z AUTO 07006KT 7SM 12/07 A3023 RMK SLP242 T01200070 54000 IEM_DS3505
ZGOW,1999-01-09 21:00,ZGOW 092100Z AUTO 04004KT 6SM 11/07 A3021 RMK SLP234 T01110071 57008 IEM_DS3505
ZGOW,1999-01-11 00:00,ZGOW 110000Z AUTO 07004KT 4SM 11/08 A3024 RMK SLP245 T01090076 52010 IEM_DS3505
ZGOW,1999-01-11 03:00,ZGOW 110300Z AUTO 07006KT 5SM 15/08 A3026 RMK SLP252 T01480077 52007 IEM_DS3505
ZGOW,1999-01-11 06:00,ZGOW 110600Z AUTO 07008KT 7SM 17/09 A3015 RMK SLP214 T01740091 57038 IEM_DS3505
ZGOW,1999-01-11 09:00,ZGOW 110900Z AUTO 07008KT 4SM 16/09 A3014 RMK SLP213 T01650092 57001 IEM_DS3505
ZGOW,1999-01-11 12:00,ZGOW 111200Z AUTO 07006KT 6SM 15/10 A3021 RMK SLP234 T01500098 52021 IEM_DS3505
ZGOW,1999-01-11 15:00,ZGOW 111500Z AUTO 07010KT 7SM 14/08 A3024 RMK SLP244 T01410081 52010 IEM_DS3505
ZGOW,1999-01-11 18:00,ZGOW 111800Z AUTO 04008KT 6SM 14/08 A3021 RMK SLP233 T01370085 57011 IEM_DS3505
ZGOW,1999-01-11 21:00,ZGOW 112100Z AUTO 02004KT 6SM 13/09 A3018 RMK SLP224 T01300090 57009 IEM_DS3505
ZGOW,1999-01-12 00:00,ZGOW 120000Z AUTO 02006KT 5SM 11/07 A3024 RMK SLP245 T01120068 52021 IEM_DS3505
ZGOW,1999-01-12 03:00,ZGOW 120300Z AUTO 34006KT 6SM 09/07 A3031 RMK SLP268 T00870070 52023 IEM_DS3505
ZGOW,1999-01-12 06:00,ZGOW 120600Z AUTO 04004KT 4SM 10/09 A3026 RMK SLP250 T00980088 57018 IEM_DS3505
ZGOW,1999-01-12 09:00,ZGOW 120900Z AUTO 04004KT 4SM 09/08 A3026 RMK SLP253 T00930083 52003 IEM_DS3505
ZGOW,1999-01-12 12:00,ZGOW 121200Z AUTO 07004KT 4SM 09/08 A3029 RMK SLP263 T00900079 52010 IEM_DS3505
ZGOW,1999-01-12 15:00,ZGOW 121500Z AUTO 04006KT 5SM 09/08 A3030 RMK SLP267 T00900079 52004 IEM_DS3505
ZGOW,1999-01-12 18:00,ZGOW 121800Z AUTO 04004KT 7SM 09/08 A3029 RMK SLP262 T00940075 57005 IEM_DS3505
ZGOW,1999-01-12 21:00,ZGOW 122100Z AUTO 07002KT 6SM 10/08 A3023 RMK SLP243 T00970078 57019 IEM_DS3505
ZGOW,1999-01-13 00:00,ZGOW 130000Z AUTO 02004KT 9SM 10/08 A3028 RMK SLP258 T01010080 52015 IEM_DS3505
ZGOW,1999-01-13 03:00,ZGOW 130300Z AUTO 04008KT 6SM 14/09 A3028 RMK SLP259 T01420093 52001 IEM_DS3505
ZGOW,1999-01-13 06:00,ZGOW 130600Z AUTO 07008KT 8SM 16/09 A3020 RMK SLP230 T01590089 57029 IEM_DS3505
ZGOW,1999-01-13 09:00,ZGOW 130900Z AUTO 07008KT 8SM 15/10 A3018 RMK SLP225 T01510101 57005 IEM_DS3505
ZGOW,1999-01-13 12:00,ZGOW 131200Z AUTO 07004KT 7SM 15/10 A3022 RMK SLP238 T01470103 52013 IEM_DS3505
ZGOW,1999-01-13 15:00,ZGOW 131500Z AUTO 07008KT 7SM 14/11 A3023 RMK SLP241 T01420110 52003 IEM_DS3505
ZGOW,1999-01-13 18:00,ZGOW 131800Z AUTO 04004KT 7SM 14/11 A3018 RMK SLP224 T01370110 57017 IEM_DS3505
ZGOW,1999-01-13 21:00,ZGOW 132100Z AUTO 00000KT 5SM 13/12 A3014 RMK SLP210 T01320115 57014 IEM_DS3505
ZGOW,1999-01-14 00:00,ZGOW 140000Z AUTO 04004KT 5SM 14/11 A3016 RMK SLP219 T01380114 52009 IEM_DS3505
ZGOW,1999-01-14 03:00,ZGOW 140300Z AUTO 04006KT 6SM 16/12 A3019 RMK SLP227 T01630121 52008 IEM_DS3505
ZGOW,1999-01-14 06:00,ZGOW 140600Z AUTO 02010KT 9SM 14/10 A3014 RMK SLP210 T01440100 57017 IEM_DS3505
ZGOW,1999-01-14 09:00,ZGOW 140900Z AUTO 36008KT 9SM 13/09 A3014 RMK SLP212 T01300088 52002 IEM_DS3505
ZGOW,1999-01-14 12:00,ZGOW 141200Z AUTO 02006KT 7SM 11/09 A3021 RMK SLP235 T01120090 52023 IEM_DS3505
ZGOW,1999-01-14 15:00,ZGOW 141500Z AUTO 04008KT 6SM 09/07 A3027 RMK SLP256 T00930069 52021 IEM_DS3505
ZGOW,1999-01-14 18:00,ZGOW 141800Z AUTO 34006KT 6SM 08/06 A3027 RMK SLP254 T00820060 57002 IEM_DS3505
ZGOW,1999-01-14 21:00,ZGOW 142100Z AUTO 04008KT 6SM 08/04 A3026 RMK SLP253 T00800043 57001 IEM_DS3505
ZGOW,1999-01-14 22:00,ZGOW 142200Z AUTO 34010KT 3SM 08/05 A3027 RMK SLP256 T00800050 IEM_DS3505
ZGOW,1999-01-15 00:00,ZGOW 150000Z AUTO 02006KT 6SM 08/04 A3030 RMK SLP266 T00800035 52013 IEM_DS3505
ZGOW,1999-01-15 03:00,ZGOW 150300Z AUTO 02006KT 6SM 11/04 A3032 RMK SLP272 T01130035 52006 IEM_DS3505
ZGOW,1999-01-15 06:00,ZGOW 150600Z AUTO 04008KT 7SM 14/04 A3025 RMK SLP249 T01380039 57023 IEM_DS3505
ZGOW,1999-01-15 09:00,ZGOW 150900Z AUTO 02006KT 7SM 13/03 A3027 RMK SLP254 T01260027 52005 IEM_DS3505
ZGOW,1999-01-15 12:00,ZGOW 151200Z AUTO 02004KT 7SM 12/04 A3032 RMK SLP272 T01190038 52018 IEM_DS3505
ZGOW,1999-01-15 15:00,ZGOW 151500Z AUTO 04004KT 7SM 11/04 A3034 RMK SLP280 T01120045 52008 IEM_DS3505
ZGOW,1999-01-15 18:00,ZGOW 151800Z AUTO 04004KT 6SM 10/03 A3033 RMK SLP274 T00990026 57006 IEM_DS3505
ZGOW,1999-01-15 21:00,ZGOW 152100Z AUTO 07004KT 7SM 09/01 A3032 RMK SLP271 T00940013 57003 IEM_DS3505
ZGOW,1999-01-16 00:00,ZGOW 160000Z AUTO 04004KT 7SM 09/02 A3034 RMK SLP280 T00880017 52009 IEM_DS3505
ZGOW,1999-01-16 03:00,ZGOW 160300Z AUTO 09008KT 5SM 12/03 A3036 RMK SLP287 T01180034 52007 IEM_DS3505
ZGOW,1999-01-16 06:00,ZGOW 160600Z AUTO 04006KT 6SM 14/03 A3026 RMK SLP252 T01390034 57035 IEM_DS3505
ZGOW,1999-01-16 09:00,ZGOW 160900Z AUTO 07008KT 5SM 14/06 A3024 RMK SLP244 T01380055 57008 IEM_DS3505
ZGOW,1999-01-16 12:00,ZGOW 161200Z AUTO 07006KT 7SM 13/07 A3031 RMK SLP267 T01320067 52023 IEM_DS3505
ZGOW,1999-01-16 15:00,ZGOW 161500Z AUTO 07008KT 6SM 13/07 A3033 RMK SLP275 T01300067 52008 IEM_DS3505
ZGOW,1999-01-16 18:00,ZGOW 161800Z AUTO 07006KT 6SM 12/07 A3031 RMK SLP268 T01220070 57007 IEM_DS3505
ZGOW,1999-01-16 21:00,ZGOW 162100Z AUTO 02002KT 6SM 11/08 A3028 RMK SLP259 T01110076 57009 IEM_DS3505
ZGOW,1999-01-17 00:00,ZGOW 170000Z AUTO 04004KT 6SM 10/06 A3032 RMK SLP271 T00950065 52012 IEM_DS3505
ZGOW,1999-01-17 03:00,ZGOW 170300Z AUTO 07006KT 7SM 16/07 A3031 RMK SLP268 T01590069 57003 IEM_DS3505
ZGOW,1999-01-17 06:00,ZGOW 170600Z AUTO 09008KT 7SM 18/09 A3021 RMK SLP236 T01810089 57032 IEM_DS3505
ZGOW,1999-01-17 09:00,ZGOW 170900Z AUTO 07004KT 7SM 17/10 A3016 RMK SLP220 T01680104 57016 IEM_DS3505
ZGOW,1999-01-17 12:00,ZGOW 171200Z AUTO 09008KT 6SM 15/10 A3019 RMK SLP228 T01490103 52008 IEM_DS3505
ZGOW,1999-01-17 15:00,ZGOW 171500Z AUTO 07004KT 6SM 14/11 A3018 RMK SLP226 T01440110 57002 IEM_DS3505
ZGOW,1999-01-17 18:00,ZGOW 171800Z AUTO 07006KT 6SM 14/12 A3016 RMK SLP216 T01440116 57010 IEM_DS3505
ZGOW,1999-01-17 21:00,ZGOW 172100Z AUTO 00000KT 4SM 14/11 A3011 RMK SLP203 T01390113 57013 IEM_DS3505
ZGOW,1999-01-18 00:00,ZGOW 180000Z AUTO 04002KT 2 1/2SM 14/11 A3015 RMK SLP213 T01360109 52010 IEM_DS3505
ZGOW,1999-01-18 03:00,ZGOW 180300Z AUTO 04008KT 5SM 17/12 A3012 RMK SLP206 T01720119 57007 IEM_DS3505
ZGOW,1999-01-18 06:00,ZGOW 180600Z AUTO 04002KT 4SM 20/14 A3003 RMK SLP174 T02040136 57032 IEM_DS3505
ZGOW,1999-01-18 09:00,ZGOW 180900Z AUTO 09004KT 4SM 17/14 A3001 RMK SLP167 T01720135 57007 IEM_DS3505
ZGOW,1999-01-18 12:00,ZGOW 181200Z AUTO 04002KT 3SM 17/14 A3006 RMK SLP184 T01700138 52017 IEM_DS3505
ZGOW,1999-01-18 15:00,ZGOW 181500Z AUTO 07004KT 3SM 17/14 A3008 RMK SLP190 T01660136 52006 IEM_DS3505
ZGOW,1999-01-18 18:00,ZGOW 181800Z AUTO 04004KT 4SM 16/14 A3006 RMK SLP185 T01640138 57005 IEM_DS3505
ZGOW,1999-01-18 21:00,ZGOW 182100Z AUTO 07002KT 4SM 16/14 A3003 RMK SLP175 T01610142 57010 IEM_DS3505
ZGOW,1999-01-19 00:00,ZGOW 190000Z AUTO 14004KT 4SM 16/14 A3007 RMK SLP187 T01580137 52012 IEM_DS3505
ZGOW,1999-01-19 03:00,ZGOW 190300Z AUTO 07004KT 6SM 20/15 A3009 RMK SLP194 T02030149 52007 IEM_DS3505
ZGOW,1999-01-19 06:00,ZGOW 190600Z AUTO 04006KT 5SM 23/16 A3002 RMK SLP169 T02300157 57025 IEM_DS3505
ZGOW,1999-01-19 09:00,ZGOW 190900Z AUTO 16006KT 5SM 21/15 A3003 RMK SLP172 T02080153 52003 IEM_DS3505
ZGOW,1999-01-19 12:00,ZGOW 191200Z AUTO 07010KT 7SM 18/14 A3009 RMK SLP193 T01820136 52021 IEM_DS3505
ZGOW,1999-01-19 15:00,ZGOW 191500Z AUTO 09006KT 7SM 17/13 A3012 RMK SLP206 T01700131 52013 IEM_DS3505
ZGOW,1999-01-19 18:00,ZGOW 191800Z AUTO 07008KT 7SM 17/12 A3013 RMK SLP208 T01700123 52002 IEM_DS3505
ZGOW,1999-01-19 21:00,ZGOW 192100Z AUTO 04004KT 7SM 16/12 A3012 RMK SLP204 T01580125 57004 IEM_DS3505
ZGOW,1999-01-20 00:00,ZGOW 200000Z AUTO 04004KT 9SM 15/13 A3018 RMK SLP224 T01530126 52020 IEM_DS3505
ZGOW,1999-01-20 03:00,ZGOW 200300Z AUTO 09006KT 6SM 16/12 A3021 RMK SLP236 T01610121 52012 IEM_DS3505
ZGOW,1999-01-20 06:00,ZGOW 200600Z AUTO 16004KT 4SM 19/12 A3012 RMK SLP203 T01900124 57033 IEM_DS3505
ZGOW,1999-01-20 09:00,ZGOW 200900Z AUTO 14004KT 5SM 18/11 A3013 RMK SLP208 T01760107 52005 IEM_DS3505
ZGOW,1999-01-20 12:00,ZGOW 201200Z AUTO 07008KT 7SM 16/10 A3019 RMK SLP229 T01560105 52021 IEM_DS3505
ZGOW,1999-01-20 15:00,ZGOW 201500Z AUTO 07008KT 7SM 15/11 A3022 RMK SLP239 T01520107 52010 IEM_DS3505
ZGOW,1999-01-20 18:00,ZGOW 201800Z AUTO 04004KT 7SM 16/11 A3020 RMK SLP231 T01560107 57008 IEM_DS3505
ZGOW,1999-01-20 21:00,ZGOW 202100Z AUTO 07008KT 6SM 15/11 A3019 RMK SLP230 T01520109 57001 IEM_DS3505
ZGOW,1999-01-21 00:00,ZGOW 210000Z AUTO 09006KT 7SM 14/10 A3024 RMK SLP246 T01420099 52016 IEM_DS3505
ZGOW,1999-01-21 03:00,ZGOW 210300Z AUTO 07008KT 7SM 18/10 A3024 RMK SLP245 T01760096 57001 IEM_DS3505
ZGOW,1999-01-21 06:00,ZGOW 210600Z AUTO 11008KT 8SM 18/10 A3015 RMK SLP213 T01770102 57032 IEM_DS3505
ZGOW,1999-01-21 09:00,ZGOW 210900Z AUTO 11006KT 6SM 18/12 A3011 RMK SLP202 T01750117 57011 IEM_DS3505
ZGOW,1999-01-21 12:00,ZGOW 211200Z AUTO 07008KT 7SM 16/12 A3014 RMK SLP211 T01590119 52009 IEM_DS3505
ZGOW,1999-01-21 15:00,ZGOW 211500Z AUTO 07006KT 7SM 15/12 A3014 RMK SLP210 T01520117 57001 IEM_DS3505
ZGOW,1999-01-21 18:00,ZGOW 211800Z AUTO 09006KT 7SM 15/12 A3012 RMK SLP203 T01520115 57007 IEM_DS3505
ZGOW,1999-01-21 21:00,ZGOW 212100Z AUTO 07004KT 6SM 14/12 A3009 RMK SLP193 T01440120 57010 IEM_DS3505
ZGOW,1999-01-22 00:00,ZGOW 220000Z AUTO 04004KT 4SM 15/12 A3010 RMK SLP198 T01470125 52005 IEM_DS3505
ZGOW,1999-01-22 09:00,ZGOW 220900Z AUTO 18006KT 8SM 20/14 A2998 RMK SLP155 T01960141 57006 IEM_DS3505
ZGOW,1999-01-22 12:00,ZGOW 221200Z AUTO 07008KT 6SM 18/14 A3000 RMK SLP162 T01760145 52007 IEM_DS3505
ZGOW,1999-01-22 15:00,ZGOW 221500Z AUTO 07006KT 5SM 17/15 A3001 RMK SLP168 T01710149 52006 IEM_DS3505
ZGOW,1999-01-22 18:00,ZGOW 221800Z AUTO 04010KT 4SM 17/15 A2998 RMK SLP157 T01670152 57011 IEM_DS3505
ZGOW,1999-01-22 21:00,ZGOW 222100Z AUTO 00000KT 3SM 17/16 A2996 RMK SLP151 T01680156 57006 IEM_DS3505
ZGOW,1999-01-23 00:00,ZGOW 230000Z AUTO 00000KT 2 1/2SM 17/16 A2998 RMK SLP158 T01690159 52007 IEM_DS3505
ZGOW,1999-01-23 03:00,ZGOW 230300Z AUTO 04004KT 1 1/4SM 18/17 A2999 RMK SLP160 T01780166 52002 IEM_DS3505
ZGOW,1999-01-23 06:00,ZGOW 230600Z AUTO 07004KT 1 1/4SM 19/18 A2991 RMK SLP132 T01940179 57028 IEM_DS3505
ZGOW,1999-01-23 07:00,ZGOW 230700Z AUTO 08014KT 6SM 18/12 RMK T01800120 IEM_DS3505
ZGOW,1999-01-23 09:00,ZGOW 230900Z AUTO 07004KT 3SM 20/18 A2990 RMK SLP130 T01980184 57002 IEM_DS3505
ZGOW,1999-01-23 12:00,ZGOW 231200Z AUTO 09002KT 4SM 18/17 A2995 RMK SLP146 T01850172 52016 IEM_DS3505
ZGOW,1999-01-23 15:00,ZGOW 231500Z AUTO 07006KT 5SM 18/16 A2996 RMK SLP149 T01800165 52003 IEM_DS3505
ZGOW,1999-01-23 18:00,ZGOW 231800Z AUTO 07002KT 4SM 18/17 A2996 RMK SLP151 T01790167 52002 IEM_DS3505
ZGOW,1999-01-23 21:00,ZGOW 232100Z AUTO 32004KT 4SM 18/17 A2995 RMK SLP147 T01780171 57004 IEM_DS3505
ZGOW,1999-01-24 00:00,ZGOW 240000Z AUTO 00000KT 1 1/4SM 18/18 A2998 RMK SLP157 T01840176 52010 IEM_DS3505
ZGOW,1999-01-24 03:00,ZGOW 240300Z AUTO 04006KT 1SM 20/18 A3001 RMK SLP168 T01960183 52011 IEM_DS3505
ZGOW,1999-01-24 06:00,ZGOW 240600Z AUTO 09006KT 9SM 23/18 A2994 RMK SLP142 T02310177 57026 IEM_DS3505
ZGOW,1999-01-24 09:00,ZGOW 240900Z AUTO 18004KT 9SM 21/17 A2991 RMK SLP132 T02080174 57010 IEM_DS3505
ZGOW,1999-01-24 12:00,ZGOW 241200Z AUTO 07002KT 7SM 18/16 A2996 RMK SLP151 T01800162 52019 IEM_DS3505
ZGOW,1999-01-24 15:00,ZGOW 241500Z AUTO 04004KT 6SM 17/15 A2998 RMK SLP159 T01740152 52008 IEM_DS3505
ZGOW,1999-01-24 18:00,ZGOW 241800Z AUTO 07008KT 5SM 17/14 A3000 RMK SLP162 T01730143 52003 IEM_DS3505
ZGOW,1999-01-24 21:00,ZGOW 242100Z AUTO 07006KT 5SM 17/14 A2999 RMK SLP161 T01710143 57001 IEM_DS3505
ZGOW,1999-01-25 00:00,ZGOW 250000Z AUTO 07002KT 1 1/4SM 17/16 A3004 RMK SLP176 T01720155 52015 IEM_DS3505
ZGOW,1999-01-25 02:00,ZGOW 250200Z AUTO 08004KT 1 1/2SM 18/16 A3003 RMK SLP174 T01800160 IEM_DS3505
ZGOW,1999-01-25 03:00,ZGOW 250300Z AUTO 07004KT 1 1/4SM 19/16 A3002 RMK SLP170 T01920164 57006 IEM_DS3505
ZGOW,1999-01-25 06:00,ZGOW 250600Z AUTO 18008KT 2SM 21/17 A2991 RMK SLP134 T02120168 57036 IEM_DS3505
ZGOW,1999-01-25 09:00,ZGOW 250900Z AUTO 14006KT 2SM 20/15 A2990 RMK SLP128 T01950151 57006 IEM_DS3505
ZGOW,1999-01-25 12:00,ZGOW 251200Z AUTO 07004KT 5SM 18/15 A2995 RMK SLP145 T01780154 52017 IEM_DS3505
ZGOW,1999-01-25 15:00,ZGOW 251500Z AUTO 07010KT 5SM 17/15 A2995 RMK SLP146 T01730149 52001 IEM_DS3505
ZGOW,1999-01-25 18:00,ZGOW 251800Z AUTO 11006KT 6SM 16/14 A2994 RMK SLP143 T01610136 57003 IEM_DS3505
ZGOW,1999-01-25 21:00,ZGOW 252100Z AUTO 04006KT 6SM 16/13 A2995 RMK SLP148 T01620130 52005 IEM_DS3505
ZGOW,1999-01-26 00:00,ZGOW 260000Z AUTO 07006KT 6SM 16/12 A3000 RMK SLP163 T01630123 52015 IEM_DS3505
ZGOW,1999-01-26 03:00,ZGOW 260300Z AUTO 07008KT 6SM 20/13 A3000 RMK SLP163 T02000130 54000 IEM_DS3505
ZGOW,1999-01-26 06:00,ZGOW 260600Z AUTO 11008KT 6SM 21/11 A2989 RMK SLP127 T02090112 57036 IEM_DS3505
ZGOW,1999-01-26 09:00,ZGOW 260900Z AUTO 14004KT 6SM 20/13 A2988 RMK SLP123 T01960127 57004 IEM_DS3505
ZGOW,1999-01-26 12:00,ZGOW 261200Z AUTO 07006KT 6SM 17/12 A2993 RMK SLP138 T01710116 52015 IEM_DS3505
ZGOW,1999-01-26 15:00,ZGOW 261500Z AUTO 07004KT 5SM 16/13 A2995 RMK SLP148 T01620126 52010 IEM_DS3505
ZGOW,1999-01-26 18:00,ZGOW 261800Z AUTO 07002KT 3SM 15/12 A2996 RMK SLP149 T01540123 52001 IEM_DS3505
ZGOW,1999-01-26 21:00,ZGOW 262100Z AUTO 04004KT 2 1/2SM 15/13 A2994 RMK SLP145 T01520130 57004 IEM_DS3505
ZGOW,1999-01-27 00:00,ZGOW 270000Z AUTO 04004KT 2SM 15/13 A2998 RMK SLP156 T01500134 52011 IEM_DS3505
ZGOW,1999-01-27 03:00,ZGOW 270300Z AUTO 07006KT 4SM 20/13 A2997 RMK SLP152 T02010131 57004 IEM_DS3505
ZGOW,1999-01-27 06:00,ZGOW 270600Z AUTO 20006KT 2 1/2SM 22/13 A2987 RMK SLP120 T02250132 57032 IEM_DS3505
ZGOW,1999-01-27 09:00,ZGOW 270900Z AUTO 14004KT 2 1/2SM 20/13 A2984 RMK SLP110 T02030127 57010 IEM_DS3505
ZGOW,1999-01-27 12:00,ZGOW 271200Z AUTO 00000KT 4SM 18/14 A2990 RMK SLP128 T01810143 52018 IEM_DS3505
ZGOW,1999-01-27 15:00,ZGOW 271500Z AUTO 00000KT 3SM 17/15 A2993 RMK SLP140 T01690148 52012 IEM_DS3505
ZGOW,1999-01-27 18:00,ZGOW 271800Z AUTO 00000KT 2 1/2SM 16/15 A2994 RMK SLP143 T01600150 52003 IEM_DS3505
ZGOW,1999-01-27 21:00,ZGOW 272100Z AUTO 00000KT 1 1/4SM 16/15 A2994 RMK SLP143 T01580146 54000 IEM_DS3505
ZGOW,1999-01-28 00:00,ZGOW 280000Z AUTO 00000KT 2SM 16/14 A3001 RMK SLP166 T01620145 52023 IEM_DS3505
ZGOW,1999-01-28 03:00,ZGOW 280300Z AUTO 07010KT 4SM 20/15 A3005 RMK SLP179 T01960146 52013 IEM_DS3505
ZGOW,1999-01-28 06:00,ZGOW 280600Z AUTO 04004KT 6SM 21/14 A2997 RMK SLP152 T02120138 57027 IEM_DS3505
ZGOW,1999-01-28 09:00,ZGOW 280900Z AUTO 11006KT 7SM 19/12 A2996 RMK SLP151 T01860125 57001 IEM_DS3505
ZGOW,1999-01-28 12:00,ZGOW 281200Z AUTO 07008KT 7SM 17/12 A3002 RMK SLP169 T01730120 52018 IEM_DS3505
ZGOW,1999-01-28 15:00,ZGOW 281500Z AUTO 07008KT 7SM 16/12 A3004 RMK SLP177 T01640124 52008 IEM_DS3505
ZGOW,1999-01-28 18:00,ZGOW 281800Z AUTO 07006KT 6SM 16/12 A3003 RMK SLP175 T01620120 57002 IEM_DS3505
ZGOW,1999-01-28 21:00,ZGOW 282100Z AUTO 07006KT 8SM 16/12 A3003 RMK SLP174 T01620116 57001 IEM_DS3505
ZGOW,1999-01-29 00:00,ZGOW 290000Z AUTO 07004KT 11SM 17/12 A3008 RMK SLP191 T01660124 52017 IEM_DS3505
ZGOW,1999-01-29 03:00,ZGOW 290300Z AUTO 07006KT 10SM 18/12 A3007 RMK SLP189 T01780122 57002 IEM_DS3505
ZGOW,1999-01-29 06:00,ZGOW 290600Z AUTO 11004KT 6SM 19/11 A2998 RMK SLP157 T01920114 57032 IEM_DS3505
ZGOW,1999-01-29 09:00,ZGOW 290900Z AUTO 07010KT 6SM 18/09 A2998 RMK SLP157 T01750093 54000 IEM_DS3505
ZGOW,1999-01-29 12:00,ZGOW 291200Z AUTO 07008KT 6SM 17/10 A3002 RMK SLP169 T01670099 52012 IEM_DS3505
ZGOW,1999-01-29 15:00,ZGOW 291500Z AUTO 09010KT 7SM 17/05 A3005 RMK SLP180 T01660053 52011 IEM_DS3505
ZGOW,1999-01-29 18:00,ZGOW 291800Z AUTO 07008KT 7SM 16/06 A3006 RMK SLP183 T01590057 52003 IEM_DS3505
ZGOW,1999-01-29 21:00,ZGOW 292100Z AUTO 04006KT 9SM 15/06 A3003 RMK SLP176 T01520063 57007 IEM_DS3505
ZGOW,1999-01-29 22:00,ZGOW 292200Z AUTO 07010KT 6SM 15/09 A3003 RMK SLP174 T01500090 IEM_DS3505
ZGOW,1999-01-30 00:00,ZGOW 300000Z AUTO 07008KT 14SM 16/08 A3006 RMK SLP185 T01560083 52009 IEM_DS3505
ZGOW,1999-01-30 03:00,ZGOW 300300Z AUTO 09012KT 11SM 18/09 A3007 RMK SLP189 T01780092 52004 IEM_DS3505
ZGOW,1999-01-30 06:00,ZGOW 300600Z AUTO 14008KT 14SM 20/10 A2997 RMK SLP152 T02000098 57037 IEM_DS3505
ZGOW,1999-01-30 09:00,ZGOW 300900Z AUTO 11006KT 9SM 19/12 A2992 RMK SLP137 T01880118 57015 IEM_DS3505
ZGOW,1999-01-30 12:00,ZGOW 301200Z AUTO 27004KT 7SM 16/12 A2996 RMK SLP150 T01620122 52013 IEM_DS3505
ZGOW,1999-01-30 15:00,ZGOW 301500Z AUTO 07006KT 7SM 16/13 A2998 RMK SLP159 T01560131 52009 IEM_DS3505
ZGOW,1999-01-30 18:00,ZGOW 301800Z AUTO 07008KT 6SM 16/13 A2996 RMK SLP148 T01580131 57011 IEM_DS3505
ZGOW,1999-01-30 21:00,ZGOW 302100Z AUTO 00000KT 5SM 15/13 A2992 RMK SLP136 T01530130 57012 IEM_DS3505
ZGOW,1999-01-31 00:00,ZGOW 310000Z AUTO 00000KT 5SM 16/13 A2994 RMK SLP144 T01630133 52008 IEM_DS3505
ZGOW,1999-01-31 03:00,ZGOW 310300Z AUTO 00000KT 6SM 19/13 A2996 RMK SLP148 T01870133 52004 IEM_DS3505
ZGOW,1999-01-31 06:00,ZGOW 310600Z AUTO 00000KT 8SM 20/14 A2987 RMK SLP119 T02040144 57029 IEM_DS3505
ZGOW,1999-01-31 09:00,ZGOW 310900Z AUTO 09004KT 7SM 20/15 A2983 RMK SLP107 T02010147 57012 IEM_DS3505
ZGOW,1999-01-31 12:00,ZGOW 311200Z AUTO 09004KT 7SM 19/15 A2986 RMK SLP115 T01920148 52008 IEM_DS3505
ZGOW,1999-01-31 15:00,ZGOW 311500Z AUTO 00000KT 6SM 19/15 A2989 RMK SLP125 T01920151 52010 IEM_DS3505
ZGOW,1999-01-31 18:00,ZGOW 311800Z AUTO 04002KT 5SM 19/15 A2989 RMK SLP125 T01920153 54000 IEM_DS3505
ZGOW,1999-01-31 21:00,ZGOW 312100Z AUTO 27002KT 2 1/2SM 19/16 A2987 RMK SLP119 T01880161 57006 IEM_DS3505
ZGOW,1999-02-01 00:00,ZGOW 010000Z AUTO 00000KT 1 1/4SM 18/17 RMK SLP131 T01840166 52012 IEM_DS3505
ZGOW,1999-02-01 03:00,ZGOW 010300Z AUTO 34002KT 2SM 24/17 RMK SLP133 T02400171 52002 IEM_DS3505
ZGOW,1999-02-01 06:00,ZGOW 010600Z AUTO 18002KT 2 1/2SM 28/19 RMK SLP103 T02760186 57030 IEM_DS3505
ZGOW,1999-02-01 09:00,ZGOW 010900Z AUTO 18004KT 2 1/2SM 24/19 RMK SLP095 T02420189 57001 IEM_DS3505
ZGOW,1999-02-01 12:00,ZGOW 011200Z AUTO 00000KT 5SM 22/19 RMK SLP117 T02200189 52015 IEM_DS3505
ZGOW,1999-02-01 15:00,ZGOW 011500Z AUTO 00000KT 4SM 21/19 RMK SLP135 T02120190 52018 IEM_DS3505
ZGOW,1999-02-01 18:00,ZGOW 011800Z AUTO 07006KT 3SM 18/17 RMK SLP153 T01830166 52018 IEM_DS3505
ZGOW,1999-02-01 21:00,ZGOW 012100Z AUTO 07002KT 4SM 17/15 RMK SLP162 T01740154 52009 IEM_DS3505
ZGOW,1999-02-02 00:00,ZGOW 020000Z AUTO 02006KT 11SM 17/10 RMK SLP194 T01670103 52032 IEM_DS3505
ZGOW,1999-02-02 03:00,ZGOW 020300Z AUTO 07008KT 9SM 18/10 RMK SLP207 T01830100 52013 IEM_DS3505
ZGOW,1999-02-02 06:00,ZGOW 020600Z AUTO 04008KT 9SM 18/09 RMK SLP194 T01830091 57013 IEM_DS3505
ZGOW,1999-02-02 09:00,ZGOW 020900Z AUTO 36006KT 9SM 21/08 RMK SLP185 T02060076 57009 IEM_DS3505
ZGOW,1999-02-02 12:00,ZGOW 021200Z AUTO 04006KT 7SM 16/13 RMK SLP210 T01630127 52015 IEM_DS3505
ZGOW,1999-02-02 15:00,ZGOW 021500Z AUTO 02004KT 7SM 15/03 RMK SLP228 T01490031 52018 IEM_DS3505
ZGOW,1999-02-02 18:00,ZGOW 021800Z AUTO 36006KT 8SM 13/00 RMK SLP229 T01320005 52001 IEM_DS3505
ZGOW,1999-02-02 21:00,ZGOW 022100Z AUTO 04004KT 8SM 12/M01 RMK SLP239 T01201014 52010 IEM_DS3505
ZGOW,1999-02-03 00:00,ZGOW 030000Z AUTO 07004KT 9SM 12/M01 RMK SLP259 T01161014 52020 IEM_DS3505
ZGOW,1999-02-03 03:00,ZGOW 030300Z AUTO 04008KT 9SM 17/M02 RMK SLP265 T01661024 52006 IEM_DS3505
ZGOW,1999-02-03 05:00,ZGOW 030500Z AUTO 35006KT 7SM 18/M04 A3024 RMK T01801040 IEM_DS3505
ZGOW,1999-02-03 06:00,ZGOW 030600Z AUTO 07008KT 14SM 19/M04 RMK SLP231 T01921042 57034 IEM_DS3505
ZGOW,1999-02-03 09:00,ZGOW 030900Z AUTO 14006KT 9SM 16/03 RMK SLP224 T01580030 57007 IEM_DS3505
ZGOW,1999-02-03 12:00,ZGOW 031200Z AUTO 04004KT 7SM 14/05 RMK SLP247 T01380052 52023 IEM_DS3505
ZGOW,1999-02-03 15:00,ZGOW 031500Z AUTO 07006KT 7SM 13/06 RMK SLP261 T01280065 52014 IEM_DS3505
ZGOW,1999-02-03 18:00,ZGOW 031800Z AUTO 04004KT 6SM 10/06 RMK SLP265 T01010057 52004 IEM_DS3505
ZGOW,1999-02-03 21:00,ZGOW 032100Z AUTO 04006KT 7SM 10/03 RMK SLP266 T00960033 52001 IEM_DS3505
ZGOW,1999-02-04 00:00,ZGOW 040000Z AUTO 04006KT 10SM 09/02 RMK SLP283 T00930021 52017 IEM_DS3505
ZGOW,1999-02-04 03:00,ZGOW 040300Z AUTO 07006KT 10SM 14/M01 RMK SLP287 T01381006 52004 IEM_DS3505
ZGOW,1999-02-04 06:00,ZGOW 040600Z AUTO 07006KT 8SM 16/00 RMK SLP254 T01560003 57033 IEM_DS3505
ZGOW,1999-02-04 09:00,ZGOW 040900Z AUTO 11008KT 7SM 14/04 RMK SLP245 T01440041 57009 IEM_DS3505
ZGOW,1999-02-04 12:00,ZGOW 041200Z AUTO 07008KT 7SM 13/06 RMK SLP260 T01260055 52015 IEM_DS3505
ZGOW,1999-02-04 15:00,ZGOW 041500Z AUTO 09008KT 7SM 12/06 RMK SLP272 T01180055 52012 IEM_DS3505
ZGOW,1999-02-04 18:00,ZGOW 041800Z AUTO 07006KT 7SM 10/04 RMK SLP275 T01010045 52006 IEM_DS3505
ZGOW,1999-02-04 21:00,ZGOW 042100Z AUTO 07008KT 6SM 09/03 RMK SLP275 T00910030 57003 IEM_DS3505
ZGOW,1999-02-05 00:00,ZGOW 050000Z AUTO 04004KT 8SM 10/03 RMK SLP284 T01000027 52009 IEM_DS3505
ZGOW,1999-02-05 03:00,ZGOW 050300Z AUTO 09008KT 8SM 14/01 RMK SLP282 T01430012 57002 IEM_DS3505
ZGOW,1999-02-05 06:00,ZGOW 050600Z AUTO 07006KT 11SM 16/02 RMK SLP255 T01650015 57027 IEM_DS3505
ZGOW,1999-02-05 09:00,ZGOW 050900Z AUTO 07010KT 11SM 15/04 RMK SLP249 T01500041 57006 IEM_DS3505
ZGOW,1999-02-05 12:00,ZGOW 051200Z AUTO 07010KT 7SM 13/07 RMK SLP255 T01280070 52006 IEM_DS3505
ZGOW,1999-02-05 15:00,ZGOW 051500Z AUTO 07008KT 7SM 12/08 RMK SLP265 T01190080 52010 IEM_DS3505
ZGOW,1999-02-05 18:00,ZGOW 051800Z AUTO 07006KT 7SM 10/05 RMK SLP262 T01050052 57003 IEM_DS3505
ZGOW,1999-02-05 21:00,ZGOW 052100Z AUTO 04002KT 7SM 09/05 RMK SLP256 T00910051 57006 IEM_DS3505
ZGOW,1999-02-06 00:00,ZGOW 060000Z AUTO 07004KT 7SM 10/06 RMK SLP264 T00970057 52008 IEM_DS3505
ZGOW,1999-02-06 03:00,ZGOW 060300Z AUTO 04006KT 7SM 16/06 RMK SLP258 T01650065 57006 IEM_DS3505
ZGOW,1999-02-06 06:00,ZGOW 060600Z AUTO 09004KT 12SM 18/06 RMK SLP225 T01850064 57033 IEM_DS3505
ZGOW,1999-02-06 09:00,ZGOW 060900Z AUTO 09004KT 10SM 17/09 RMK SLP221 T01700089 57004 IEM_DS3505
ZGOW,1999-02-06 12:00,ZGOW 061200Z AUTO 09006KT 7SM 15/10 RMK SLP238 T01460095 52017 IEM_DS3505
ZGOW,1999-02-06 15:00,ZGOW 061500Z AUTO 07006KT 7SM 14/10 RMK SLP247 T01400101 52009 IEM_DS3505
ZGOW,1999-02-06 18:00,ZGOW 061800Z AUTO 04002KT 6SM 13/10 RMK SLP240 T01260096 57007 IEM_DS3505
ZGOW,1999-02-06 21:00,ZGOW 062100Z AUTO 00000KT 4SM 11/09 RMK SLP233 T01100094 57007 IEM_DS3505
ZGOW,1999-02-07 00:00,ZGOW 070000Z AUTO 02002KT 5SM 12/09 A3021 RMK SLP239 T01160092 52006 IEM_DS3505
ZGOW,1999-02-07 03:00,ZGOW 070300Z AUTO 04008KT 6SM 18/09 RMK SLP241 T01750092 52002 IEM_DS3505
ZGOW,1999-02-07 06:00,ZGOW 070600Z AUTO 09006KT 6SM 20/10 RMK SLP201 T01980099 57040 IEM_DS3505
ZGOW,1999-02-07 09:00,ZGOW 070900Z AUTO 14006KT 7SM 18/11 RMK SLP202 T01820108 52001 IEM_DS3505
ZGOW,1999-02-07 12:00,ZGOW 071200Z AUTO 07006KT 7SM 16/12 RMK SLP222 T01560115 52020 IEM_DS3505
ZGOW,1999-02-07 15:00,ZGOW 071500Z AUTO 07006KT 8SM 15/10 RMK SLP232 T01540098 52010 IEM_DS3505
ZGOW,1999-02-07 18:00,ZGOW 071800Z AUTO 04002KT 7SM 13/10 RMK SLP223 T01330102 57009 IEM_DS3505
ZGOW,1999-02-07 21:00,ZGOW 072100Z AUTO 02002KT 3SM 12/10 RMK SLP215 T01210101 57008 IEM_DS3505
ZGOW,1999-02-08 03:00,ZGOW 080300Z AUTO 09008KT 7SM 18/08 RMK SLP229 T01810077 52002 IEM_DS3505
ZGOW,1999-02-08 06:00,ZGOW 080600Z AUTO 07006KT 9SM 21/09 RMK SLP195 T02060091 57034 IEM_DS3505
ZGOW,1999-02-08 09:00,ZGOW 080900Z AUTO 11002KT 9SM 19/11 RMK SLP193 T01910106 57002 IEM_DS3505
ZGOW,1999-02-08 12:00,ZGOW 081200Z AUTO 07006KT 7SM 17/09 RMK SLP206 T01700086 52013 IEM_DS3505
ZGOW,1999-02-08 15:00,ZGOW 081500Z AUTO 07006KT 7SM 15/09 RMK SLP222 T01540089 52016 IEM_DS3505
ZGOW,1999-02-08 18:00,ZGOW 081800Z AUTO 07002KT 7SM 14/10 RMK SLP220 T01390100 57002 IEM_DS3505
ZGOW,1999-02-08 21:00,ZGOW 082100Z AUTO 04004KT 6SM 12/10 RMK SLP206 T01210097 57014 IEM_DS3505
ZGOW,1999-02-09 00:00,ZGOW 090000Z AUTO 04002KT 4SM 13/10 RMK SLP221 T01260101 52015 IEM_DS3505
ZGOW,1999-02-09 03:00,ZGOW 090300Z AUTO 07008KT 4SM 19/08 RMK SLP220 T01920079 57001 IEM_DS3505
ZGOW,1999-02-09 06:00,ZGOW 090600Z AUTO 14006KT 6SM 20/09 RMK SLP192 T02030092 57028 IEM_DS3505
ZGOW,1999-02-09 09:00,ZGOW 090900Z AUTO 11006KT 7SM 20/08 RMK SLP182 T01950083 57010 IEM_DS3505
ZGOW,1999-02-09 12:00,ZGOW 091200Z AUTO 11004KT 7SM 17/09 RMK SLP192 T01670094 52010 IEM_DS3505
ZGOW,1999-02-09 15:00,ZGOW 091500Z AUTO 04006KT 7SM 16/12 RMK SLP200 T01580115 52008 IEM_DS3505
ZGOW,1999-02-09 18:00,ZGOW 091800Z AUTO 04004KT 5SM 14/12 RMK SLP192 T01420122 57008 IEM_DS3505
ZGOW,1999-02-09 21:00,ZGOW 092100Z AUTO 04004KT 4SM 14/11 RMK SLP182 T01410111 57010 IEM_DS3505
ZGOW,1999-02-10 00:00,ZGOW 100000Z AUTO 02002KT 5SM 15/10 RMK SLP198 T01470105 52016 IEM_DS3505
ZGOW,1999-02-10 03:00,ZGOW 100300Z AUTO 04006KT 4SM 20/11 RMK SLP203 T01960110 52005 IEM_DS3505
ZGOW,1999-02-10 06:00,ZGOW 100600Z AUTO 11004KT 6SM 22/13 RMK SLP177 T02230129 57026 IEM_DS3505
ZGOW,1999-02-10 09:00,ZGOW 100900Z AUTO 18004KT 6SM 21/13 RMK SLP169 T02080131 57008 IEM_DS3505
ZGOW,1999-02-10 12:00,ZGOW 101200Z AUTO 00000KT 6SM 18/14 RMK SLP185 T01850142 52016 IEM_DS3505
ZGOW,1999-02-10 15:00,ZGOW 101500Z AUTO 00000KT 5SM 18/15 RMK SLP194 T01800147 52009 IEM_DS3505
ZGOW,1999-02-10 18:00,ZGOW 101800Z AUTO 00000KT 4SM 17/15 RMK SLP189 T01710147 57005 IEM_DS3505
ZGOW,1999-02-10 21:00,ZGOW 102100Z AUTO 29002KT 2SM 16/14 RMK SLP179 T01600142 57010 IEM_DS3505
ZGOW,1999-02-11 00:00,ZGOW 110000Z AUTO 04004KT 3SM 18/14 RMK SLP195 T01760143 52016 IEM_DS3505
ZGOW,1999-02-11 03:00,ZGOW 110300Z AUTO 02006KT 6SM 24/15 RMK SLP204 T02450152 52009 IEM_DS3505
ZGOW,1999-02-11 06:00,ZGOW 110600Z AUTO 04004KT 6SM 27/15 RMK SLP178 T02660151 57026 IEM_DS3505
ZGOW,1999-02-11 09:00,ZGOW 110900Z AUTO 11010KT 6SM 24/14 RMK SLP187 T02380142 52009 IEM_DS3505
ZGOW,1999-02-11 12:00,ZGOW 111200Z AUTO 07010KT 6SM 18/14 RMK SLP222 T01770144 52035 IEM_DS3505
ZGOW,1999-02-11 15:00,ZGOW 111500Z AUTO 04006KT 6SM 17/12 RMK SLP240 T01680125 52018 IEM_DS3505
ZGOW,1999-02-11 18:00,ZGOW 111800Z AUTO 07006KT 6SM 16/12 RMK SLP240 T01570124 54000 IEM_DS3505
ZGOW,1999-02-11 21:00,ZGOW 112100Z AUTO 07004KT 5SM 15/12 RMK SLP239 T01500122 57001 IEM_DS3505
ZGOW,1999-02-12 00:00,ZGOW 120000Z AUTO 04008KT 3SM 15/12 RMK SLP264 T01530116 52025 IEM_DS3505
ZGOW,1999-02-12 01:00,ZGOW 120100Z AUTO 08012KT 3SM 16/11 A3030 RMK T01600110 IEM_DS3505
ZGOW,1999-02-12 03:00,ZGOW 120300Z AUTO 11010KT 3SM 18/10 RMK SLP267 T01750095 52003 IEM_DS3505
ZGOW,1999-02-12 06:00,ZGOW 120600Z AUTO 07008KT 5SM 19/08 RMK SLP238 T01910080 57029 IEM_DS3505
ZGOW,1999-02-12 09:00,ZGOW 120900Z AUTO 07010KT 4SM 17/09 RMK SLP233 T01680088 57005 IEM_DS3505
ZGOW,1999-02-12 12:00,ZGOW 121200Z AUTO 09008KT 6SM 15/06 RMK SLP251 T01480060 52018 IEM_DS3505
ZGOW,1999-02-12 15:00,ZGOW 121500Z AUTO 09008KT 6SM 14/06 RMK SLP259 T01390056 52008 IEM_DS3505
ZGOW,1999-02-12 18:00,ZGOW 121800Z AUTO 09010KT 7SM 13/04 RMK SLP256 T01290037 57003 IEM_DS3505
ZGOW,1999-02-12 21:00,ZGOW 122100Z AUTO 04008KT 8SM 12/03 RMK SLP242 T01200034 57014 IEM_DS3505
ZGOW,1999-02-13 00:00,ZGOW 130000Z AUTO 07006KT 7SM 12/05 RMK SLP259 T01160050 52017 IEM_DS3505
ZGOW,1999-02-13 03:00,ZGOW 130300Z AUTO 04006KT 7SM 16/05 RMK SLP258 T01560050 57001 IEM_DS3505
ZGOW,1999-02-13 06:00,ZGOW 130600Z AUTO 09008KT 9SM 18/05 RMK SLP225 T01760054 57033 IEM_DS3505
ZGOW,1999-02-13 09:00,ZGOW 130900Z AUTO 16006KT 8SM 16/08 RMK SLP220 T01610077 57005 IEM_DS3505
ZGOW,1999-02-13 12:00,ZGOW 131200Z AUTO 07006KT 7SM 15/08 RMK SLP236 T01470083 52016 IEM_DS3505
ZGOW,1999-02-13 15:00,ZGOW 131500Z AUTO 09008KT 7SM 14/09 RMK SLP238 T01400089 52002 IEM_DS3505
ZGOW,1999-02-13 18:00,ZGOW 131800Z AUTO 07006KT 7SM 14/08 RMK SLP228 T01370085 57010 IEM_DS3505
ZGOW,1999-02-13 21:00,ZGOW 132100Z AUTO 04004KT 7SM 13/08 RMK SLP225 T01320077 57003 IEM_DS3505
ZGOW,1999-02-14 00:00,ZGOW 140000Z AUTO 04002KT 6SM 13/09 RMK SLP243 T01330091 52018 IEM_DS3505
ZGOW,1999-02-14 02:00,ZGOW 140200Z AUTO 07012KT 6SM 16/09 A3027 RMK T01600090 IEM_DS3505
ZGOW,1999-02-14 03:00,ZGOW 140300Z AUTO 04008KT 7SM 17/07 RMK SLP255 T01680071 52012 IEM_DS3505
ZGOW,1999-02-14 06:00,ZGOW 140600Z AUTO 07008KT 9SM 19/09 RMK SLP216 T01890087 57039 IEM_DS3505
ZGOW,1999-02-14 09:00,ZGOW 140900Z AUTO 11006KT 8SM 18/11 RMK SLP215 T01830109 57001 IEM_DS3505
ZGOW,1999-02-14 12:00,ZGOW 141200Z AUTO 07010KT 7SM 16/11 RMK SLP233 T01630113 52018 IEM_DS3505
ZGOW,1999-02-14 15:00,ZGOW 141500Z AUTO 07008KT 7SM 15/12 RMK SLP243 T01540115 52010 IEM_DS3505
ZGOW,1999-02-14 18:00,ZGOW 141800Z AUTO 04004KT 6SM 14/11 RMK SLP239 T01400112 57004 IEM_DS3505
ZGOW,1999-02-14 21:00,ZGOW 142100Z AUTO 02002KT 6SM 13/11 RMK SLP228 T01280107 57011 IEM_DS3505
ZGOW,1999-02-15 00:00,ZGOW 150000Z AUTO 04002KT 4SM 13/11 RMK SLP244 T01320109 52016 IEM_DS3505
ZGOW,1999-02-15 03:00,ZGOW 150300Z AUTO 07006KT 7SM 19/11 RMK SLP240 T01930113 57004 IEM_DS3505
ZGOW,1999-02-15 06:00,ZGOW 150600Z AUTO 16004KT 14SM 21/12 RMK SLP209 T02090122 57031 IEM_DS3505
ZGOW,1999-02-15 09:00,ZGOW 150900Z AUTO 14006KT 10SM 19/13 RMK SLP207 T01890127 57002 IEM_DS3505
ZGOW,1999-02-15 12:00,ZGOW 151200Z AUTO 14002KT 9SM 16/13 RMK SLP216 T01650133 52009 IEM_DS3505
ZGOW,1999-02-15 15:00,ZGOW 151500Z AUTO 09004KT 9SM 16/13 RMK SLP224 T01580129 52008 IEM_DS3505
ZGOW,1999-02-15 18:00,ZGOW 151800Z AUTO 07004KT 8SM 15/13 RMK SLP220 T01490129 57004 IEM_DS3505
ZGOW,1999-02-15 21:00,ZGOW 152100Z AUTO 36002KT 6SM 15/13 RMK SLP211 T01480128 57009 IEM_DS3505
ZGOW,1999-02-16 00:00,ZGOW 160000Z AUTO 00000KT 4SM 15/13 RMK SLP225 T01500130 52014 IEM_DS3505
ZGOW,1999-02-16 03:00,ZGOW 160300Z AUTO 02004KT 6SM 21/14 RMK SLP224 T02100135 57001 IEM_DS3505
ZGOW,1999-02-16 06:00,ZGOW 160600Z AUTO 16004KT 9SM 21/13 RMK SLP192 T02130133 57032 IEM_DS3505
ZGOW,1999-02-16 09:00,ZGOW 160900Z AUTO 14006KT 8SM 18/14 RMK SLP183 T01830141 57009 IEM_DS3505
ZGOW,1999-02-16 12:00,ZGOW 161200Z AUTO 07002KT 8SM 17/14 RMK SLP194 T01700142 52011 IEM_DS3505
ZGOW,1999-02-16 15:00,ZGOW 161500Z AUTO 07004KT 6SM 16/14 RMK SLP206 T01600142 52012 IEM_DS3505
ZGOW,1999-02-16 18:00,ZGOW 161800Z AUTO 04006KT 5SM 16/14 RMK SLP198 T01570141 57008 IEM_DS3505
ZGOW,1999-02-16 21:00,ZGOW 162100Z AUTO 07006KT 6SM 16/13 RMK SLP193 T01550130 57005 IEM_DS3505
ZGOW,1999-02-17 00:00,ZGOW 170000Z AUTO 04004KT 4SM 15/14 RMK SLP203 T01500138 52010 IEM_DS3505
ZGOW,1999-02-17 03:00,ZGOW 170300Z AUTO 07006KT 6SM 18/14 RMK SLP206 T01780138 52003 IEM_DS3505
ZGOW,1999-02-17 06:00,ZGOW 170600Z AUTO 18004KT 6SM 21/15 RMK SLP170 T02120146 57036 IEM_DS3505
ZGOW,1999-02-17 09:00,ZGOW 170900Z AUTO 16004KT 7SM 21/14 RMK SLP163 T02080143 57007 IEM_DS3505
ZGOW,1999-02-17 12:00,ZGOW 171200Z AUTO 18004KT 6SM 18/15 RMK SLP169 T01780147 52006 IEM_DS3505
ZGOW,1999-02-17 15:00,ZGOW 171500Z AUTO 00000KT 5SM 17/15 RMK SLP186 T01690146 52017 IEM_DS3505
ZGOW,1999-02-17 18:00,ZGOW 171800Z AUTO 29002KT 4SM 16/14 RMK SLP188 T01570143 52002 IEM_DS3505
ZGOW,1999-02-17 21:00,ZGOW 172100Z AUTO 00000KT 2 1/2SM 15/14 RMK SLP177 T01500138 57011 IEM_DS3505
ZGOW,1999-02-18 00:00,ZGOW 180000Z AUTO 09002KT 3SM 16/14 RMK SLP191 T01590145 52014 IEM_DS3505
ZGOW,1999-02-18 03:00,ZGOW 180300Z AUTO 07004KT 5SM 23/16 RMK SLP195 T02300155 52004 IEM_DS3505
ZGOW,1999-02-18 06:00,ZGOW 180600Z AUTO 25006KT 7SM 26/15 RMK SLP159 T02620148 57036 IEM_DS3505
ZGOW,1999-02-18 09:00,ZGOW 180900Z AUTO 20004KT 7SM 24/16 RMK SLP155 T02420158 57004 IEM_DS3505
ZGOW,1999-02-18 12:00,ZGOW 181200Z AUTO 07010KT 7SM 21/16 RMK SLP194 T02080158 52039 IEM_DS3505
ZGOW,1999-02-18 15:00,ZGOW 181500Z AUTO 07010KT 6SM 17/12 RMK SLP225 T01700121 52031 IEM_DS3505
ZGOW,1999-02-18 18:00,ZGOW 181800Z AUTO 07008KT 6SM 15/13 RMK SLP233 T01540129 52008 IEM_DS3505
ZGOW,1999-02-18 21:00,ZGOW 182100Z AUTO 07004KT 4SM 14/13 RMK SLP234 T01410132 52001 IEM_DS3505
ZGOW,1999-02-19 00:00,ZGOW 190000Z AUTO 04006KT 2SM 14/12 RMK SLP255 T01350116 52021 IEM_DS3505
ZGOW,1999-02-19 03:00,ZGOW 190300Z AUTO 04004KT 7SM 14/12 RMK SLP254 T01410123 57001 IEM_DS3505
ZGOW,1999-02-19 06:00,ZGOW 190600Z AUTO 04006KT 9SM 15/11 RMK SLP230 T01460108 57024 IEM_DS3505
ZGOW,1999-02-19 09:00,ZGOW 190900Z AUTO 04006KT 9SM 14/09 RMK SLP231 T01400091 52001 IEM_DS3505
ZGOW,1999-02-19 12:00,ZGOW 191200Z AUTO 04008KT 7SM 13/08 RMK SLP256 T01330076 52025 IEM_DS3505
ZGOW,1999-02-19 15:00,ZGOW 191500Z AUTO 04006KT 6SM 13/08 RMK SLP266 T01270082 52010 IEM_DS3505
ZGOW,1999-02-19 18:00,ZGOW 191800Z AUTO 04006KT 7SM 12/05 RMK SLP258 T01240047 57008 IEM_DS3505
ZGOW,1999-02-19 21:00,ZGOW 192100Z AUTO 36002KT 9SM 11/01 RMK SLP255 T01120014 57003 IEM_DS3505
ZGOW,1999-02-20 00:00,ZGOW 200000Z AUTO 02006KT 9SM 11/02 RMK SLP267 T01100017 52012 IEM_DS3505
ZGOW,1999-02-20 03:00,ZGOW 200300Z AUTO 02004KT 9SM 13/03 RMK SLP273 T01270029 52006 IEM_DS3505
ZGOW,1999-02-20 06:00,ZGOW 200600Z AUTO 32002KT 8SM 14/04 RMK SLP250 T01390043 57023 IEM_DS3505
ZGOW,1999-02-20 09:00,ZGOW 200900Z AUTO 09006KT 7SM 14/05 RMK SLP237 T01390054 57013 IEM_DS3505
ZGOW,1999-02-20 12:00,ZGOW 201200Z AUTO 07006KT 9SM 13/07 RMK SLP252 T01340067 52015 IEM_DS3505
ZGOW,1999-02-20 15:00,ZGOW 201500Z AUTO 07006KT 7SM 13/07 RMK SLP255 T01320074 52003 IEM_DS3505
ZGOW,1999-02-20 18:00,ZGOW 201800Z AUTO 04004KT 8SM 12/05 RMK SLP251 T01230054 57004 IEM_DS3505
ZGOW,1999-02-20 21:00,ZGOW 202100Z AUTO 04002KT 8SM 12/06 RMK SLP245 T01190059 57006 IEM_DS3505
ZGOW,1999-02-21 00:00,ZGOW 210000Z AUTO 02004KT 9SM 12/06 RMK SLP259 T01190056 52014 IEM_DS3505
ZGOW,1999-02-21 03:00,ZGOW 210300Z AUTO 07008KT 9SM 16/05 RMK SLP265 T01600053 52006 IEM_DS3505
ZGOW,1999-02-21 06:00,ZGOW 210600Z AUTO 07008KT 8SM 17/06 RMK SLP235 T01660061 57030 IEM_DS3505
ZGOW,1999-02-21 09:00,ZGOW 210900Z AUTO 09008KT 7SM 16/07 RMK SLP237 T01570072 52002 IEM_DS3505
ZGOW,1999-02-21 12:00,ZGOW 211200Z AUTO 07008KT 7SM 14/08 RMK SLP249 T01450076 52012 IEM_DS3505
ZGOW,1999-02-21 15:00,ZGOW 211500Z AUTO 09006KT 7SM 14/08 RMK SLP252 T01380075 52003 IEM_DS3505
ZGOW,1999-02-21 18:00,ZGOW 211800Z AUTO 07008KT 6SM 13/06 RMK SLP241 T01340055 57011 IEM_DS3505
ZGOW,1999-02-21 21:00,ZGOW 212100Z AUTO 04004KT 6SM 13/06 RMK SLP240 T01300065 57001 IEM_DS3505
ZGOW,1999-02-22 00:00,ZGOW 220000Z AUTO 04004KT 8SM 13/08 RMK SLP244 T01280077 52004 IEM_DS3505
ZGOW,1999-02-22 03:00,ZGOW 220300Z AUTO 11004KT 9SM 17/05 RMK SLP248 T01660053 52004 IEM_DS3505
ZGOW,1999-02-22 06:00,ZGOW 220600Z AUTO 14004KT 11SM 19/07 RMK SLP215 T01870067 57033 IEM_DS3505
ZGOW,1999-02-22 09:00,ZGOW 220900Z AUTO 11004KT 11SM 18/09 RMK SLP208 T01760092 57007 IEM_DS3505
ZGOW,1999-02-22 12:00,ZGOW 221200Z AUTO 07008KT 9SM 16/10 RMK SLP225 T01550104 52017 IEM_DS3505
ZGOW,1999-02-22 15:00,ZGOW 221500Z AUTO 09008KT 7SM 14/12 RMK SLP229 T01450117 52004 IEM_DS3505
ZGOW,1999-02-22 18:00,ZGOW 221800Z AUTO 07010KT 7SM 14/11 RMK SLP217 T01400110 57012 IEM_DS3505
ZGOW,1999-02-22 21:00,ZGOW 222100Z AUTO 04006KT 7SM 13/11 RMK SLP206 T01310106 57011 IEM_DS3505
ZGOW,1999-02-23 00:00,ZGOW 230000Z AUTO 04004KT 5SM 13/10 RMK SLP212 T01280105 52006 IEM_DS3505
ZGOW,1999-02-23 03:00,ZGOW 230300Z AUTO 04004KT 6SM 19/12 RMK SLP209 T01880115 57003 IEM_DS3505
ZGOW,1999-02-23 06:00,ZGOW 230600Z AUTO 29006KT 7SM 21/12 RMK SLP178 T02140124 57031 IEM_DS3505
ZGOW,1999-02-23 09:00,ZGOW 230900Z AUTO 11006KT 7SM 21/13 RMK SLP169 T02060129 57009 IEM_DS3505
ZGOW,1999-02-23 12:00,ZGOW 231200Z AUTO 14002KT 7SM 18/14 RMK SLP178 T01760139 52009 IEM_DS3505
ZGOW,1999-02-23 15:00,ZGOW 231500Z AUTO 00000KT 5SM 16/14 RMK SLP188 T01640143 52010 IEM_DS3505
ZGOW,1999-02-23 18:00,ZGOW 231800Z AUTO 04004KT 4SM 16/14 RMK SLP170 T01580139 57018 IEM_DS3505
ZGOW,1999-02-23 21:00,ZGOW 232100Z AUTO 27002KT 4SM 15/14 RMK SLP161 T01470136 57009 IEM_DS3505
ZGOW,1999-02-24 00:00,ZGOW 240000Z AUTO 00000KT 1 1/4SM 16/14 RMK SLP170 T01620141 52009 IEM_DS3505
ZGOW,1999-02-24 03:00,ZGOW 240300Z AUTO 29004KT 5SM 24/15 RMK SLP174 T02370152 52004 IEM_DS3505
ZGOW,1999-02-24 06:00,ZGOW 240600Z AUTO 25004KT 5SM 27/14 RMK SLP141 T02720145 57033 IEM_DS3505
ZGOW,1999-02-24 08:00,ZGOW 240800Z AUTO 14010KT 23/16 A2991 RMK T02300160 IEM_DS3505
ZGOW,1999-02-24 09:00,ZGOW 240900Z AUTO 11006KT 5SM 21/14 RMK SLP138 T02130139 57003 IEM_DS3505
ZGOW,1999-02-24 12:00,ZGOW 241200Z AUTO 11002KT 5SM 20/17 RMK SLP158 T02040166 52020 IEM_DS3505
ZGOW,1999-02-24 15:00,ZGOW 241500Z AUTO 07004KT 4SM 19/16 RMK SLP177 T01900158 52019 IEM_DS3505
ZGOW,1999-02-24 18:00,ZGOW 241800Z AUTO 07004KT 5SM 18/15 RMK SLP169 T01800151 57008 IEM_DS3505
ZGOW,1999-02-24 21:00,ZGOW 242100Z AUTO 09004KT 4SM 17/15 RMK SLP166 T01740148 57003 IEM_DS3505
ZGOW,1999-02-25 00:00,ZGOW 250000Z AUTO 07006KT 7SM 18/15 RMK SLP186 T01830152 52020 IEM_DS3505
ZGOW,1999-02-25 03:00,ZGOW 250300Z AUTO 07008KT 6SM 21/15 RMK SLP190 T02090152 52004 IEM_DS3505
ZGOW,1999-02-25 06:00,ZGOW 250600Z AUTO 07006KT 6SM 22/16 RMK SLP155 T02160162 57035 IEM_DS3505
ZGOW,1999-02-25 09:00,ZGOW 250900Z AUTO 20004KT 5SM 20/16 RMK SLP147 T01960159 57008 IEM_DS3505
ZGOW,1999-02-25 12:00,ZGOW 251200Z AUTO 18002KT 5SM 19/16 RMK SLP158 T01890162 52011 IEM_DS3505
ZGOW,1999-02-25 15:00,ZGOW 251500Z AUTO 04006KT 4SM 19/15 RMK SLP166 T01880152 52008 IEM_DS3505
ZGOW,1999-02-25 18:00,ZGOW 251800Z AUTO 07004KT 5SM 18/15 RMK SLP155 T01810150 57011 IEM_DS3505
ZGOW,1999-02-25 21:00,ZGOW 252100Z AUTO 04002KT 4SM 18/16 RMK SLP161 T01830160 52006 IEM_DS3505
ZGOW,1999-02-26 00:00,ZGOW 260000Z AUTO 00000KT 3SM 19/17 RMK SLP176 T01920169 52015 IEM_DS3505
ZGOW,1999-02-26 03:00,ZGOW 260300Z AUTO 18004KT 3SM 24/18 RMK SLP175 T02410177 57001 IEM_DS3505
ZGOW,1999-02-26 06:00,ZGOW 260600Z AUTO 18006KT 5SM 26/19 RMK SLP141 T02560189 57034 IEM_DS3505
ZGOW,1999-02-26 09:00,ZGOW 260900Z AUTO 16004KT 4SM 24/18 RMK SLP131 T02350185 57010 IEM_DS3505
ZGOW,1999-02-26 12:00,ZGOW 261200Z AUTO 00000KT 5SM 21/19 RMK SLP145 T02090192 52014 IEM_DS3505
ZGOW,1999-02-26 15:00,ZGOW 261500Z AUTO 04004KT 4SM 20/19 RMK SLP156 T01980188 52011 IEM_DS3505
ZGOW,1999-02-26 18:00,ZGOW 261800Z AUTO 29002KT 3SM 20/19 RMK SLP154 T02020193 57002 IEM_DS3505
ZGOW,1999-02-26 21:00,ZGOW 262100Z AUTO 00000KT 2 1/2SM 20/19 RMK SLP152 T02000192 57002 IEM_DS3505
ZGOW,1999-02-27 00:00,ZGOW 270000Z AUTO 04004KT 1 1/4SM 21/19 RMK SLP176 T02060192 52024 IEM_DS3505
ZGOW,1999-02-27 03:00,ZGOW 270300Z AUTO 09008KT 5SM 21/16 RMK SLP204 T02080162 52028 IEM_DS3505
ZGOW,1999-02-27 06:00,ZGOW 270600Z AUTO 07016KT 9SM 17/12 RMK SLP193 T01720125 4////0169 57011 IEM_DS3505
ZGOW,1999-02-27 09:00,ZGOW 270900Z AUTO 09010KT 8SM 16/12 RMK SLP203 T01600120 52010 IEM_DS3505
ZGOW,1999-02-27 12:00,ZGOW 271200Z AUTO 09014KT 7SM 15/09 RMK SLP231 T01500094 52028 IEM_DS3505
ZGOW,1999-02-27 15:00,ZGOW 271500Z AUTO 07010KT 6SM 14/07 RMK SLP241 T01450069 52010 IEM_DS3505
ZGOW,1999-02-27 18:00,ZGOW 271800Z AUTO 07006KT 6SM 14/06 RMK SLP236 T01450064 57005 IEM_DS3505
ZGOW,1999-02-27 21:00,ZGOW 272100Z AUTO 07006KT 7SM 15/06 RMK SLP237 T01470061 52001 IEM_DS3505
ZGOW,1999-02-28 00:00,ZGOW 280000Z AUTO 07008KT 9SM 15/06 RMK SLP251 T01470059 52014 IEM_DS3505
ZGOW,1999-02-28 03:00,ZGOW 280300Z AUTO 07006KT 10SM 19/07 RMK SLP249 T01870069 57002 IEM_DS3505
ZGOW,1999-02-28 06:00,ZGOW 280600Z AUTO 16006KT 11SM 18/08 RMK SLP208 T01850084 57041 IEM_DS3505
ZGOW,1999-02-28 09:00,ZGOW 280900Z AUTO 09006KT 11SM 17/10 RMK SLP206 T01720098 57002 IEM_DS3505
ZGOW,1999-02-28 12:00,ZGOW 281200Z AUTO 07006KT 7SM 15/11 RMK SLP225 T01500111 52019 IEM_DS3505
ZGOW,1999-02-28 15:00,ZGOW 281500Z AUTO 07006KT 7SM 14/11 RMK SLP232 T01450107 52007 IEM_DS3505
ZGOW,1999-02-28 18:00,ZGOW 281800Z AUTO 07006KT 7SM 14/11 RMK SLP223 T01390107 57009 IEM_DS3505
ZGOW,1999-02-28 21:00,ZGOW 282100Z AUTO 07004KT 7SM 14/11 RMK SLP212 T01400110 57011 IEM_DS3505
ZGOW,1999-03-01 00:00,ZGOW 010000Z AUTO 04004KT 9SM 15/11 RMK SLP221 T01470113 52009 IEM_DS3505
ZGOW,1999-03-01 03:00,ZGOW 010300Z AUTO 04006KT 8SM 19/10 RMK SLP210 T01880100 57011 IEM_DS3505
ZGOW,1999-03-01 06:00,ZGOW 010600Z AUTO 20008KT 7SM 22/11 RMK SLP170 T02170111 57040 IEM_DS3505
ZGOW,1999-03-01 09:00,ZGOW 010900Z AUTO 14006KT 9SM 18/12 RMK SLP160 T01840117 57010 IEM_DS3505
ZGOW,1999-03-01 12:00,ZGOW 011200Z AUTO 09004KT 7SM 17/14 RMK SLP179 T01670137 52019 IEM_DS3505
ZGOW,1999-03-01 15:00,ZGOW 011500Z AUTO 04006KT 6SM 16/14 RMK SLP192 T01610140 52013 IEM_DS3505
ZGOW,1999-03-01 18:00,ZGOW 011800Z AUTO 04004KT 5SM 16/14 RMK SLP184 T01550139 57008 IEM_DS3505
ZGOW,1999-03-01 21:00,ZGOW 012100Z AUTO 34002KT 6SM 15/13 RMK SLP168 T01460126 57016 IEM_DS3505
ZGOW,1999-03-02 00:00,ZGOW 020000Z AUTO 04004KT 6SM 16/13 RMK SLP178 T01580133 52010 IEM_DS3505
ZGOW,1999-03-02 03:00,ZGOW 020300Z AUTO 09006KT 7SM 20/13 RMK SLP175 T02040132 57003 IEM_DS3505
ZGOW,1999-03-02 09:00,ZGOW 020900Z AUTO 16004KT 7SM 21/15 RMK SLP137 T02100151 57008 IEM_DS3505
ZGOW,1999-03-02 15:00,ZGOW 021500Z AUTO 16002KT 7SM 19/15 RMK SLP160 T01860150 52011 IEM_DS3505
ZGOW,1999-03-02 18:00,ZGOW 021800Z AUTO 09004KT 5SM 18/16 RMK SLP148 T01850158 57012 IEM_DS3505
ZGOW,1999-03-02 21:00,ZGOW 022100Z AUTO 00000KT 4SM 17/15 RMK SLP137 T01700153 57011 IEM_DS3505
ZGOW,1999-03-03 00:00,ZGOW 030000Z AUTO 04004KT 4SM 18/16 RMK SLP151 T01800160 52014 IEM_DS3505
ZGOW,1999-03-03 03:00,ZGOW 030300Z AUTO 14006KT 5SM 22/16 RMK SLP150 T02170157 57001 IEM_DS3505
ZGOW,1999-03-03 06:00,ZGOW 030600Z AUTO 16008KT 7SM 22/16 RMK SLP122 T02180158 57028 IEM_DS3505
ZGOW,1999-03-03 12:00,ZGOW 031200Z AUTO 07008KT 6SM 18/15 RMK SLP133 T01830152 52022 IEM_DS3505
ZGOW,1999-03-03 15:00,ZGOW 031500Z AUTO 07006KT 6SM 17/15 RMK SLP144 T01740148 52011 IEM_DS3505
ZGOW,1999-03-03 18:00,ZGOW 031800Z AUTO 04008KT 7SM 17/15 RMK SLP134 T01700146 57010 IEM_DS3505
ZGOW,1999-03-03 21:00,ZGOW 032100Z AUTO 02004KT 6SM 17/14 RMK SLP127 T01660145 57007 IEM_DS3505
ZGOW,1999-03-04 00:00,ZGOW 040000Z AUTO 02002KT 5SM 17/15 RMK SLP133 T01720150 52006 IEM_DS3505
ZGOW,1999-03-04 03:00,ZGOW 040300Z AUTO 22002KT 5SM 22/16 RMK SLP125 T02220158 57008 IEM_DS3505
ZGOW,1999-03-04 06:00,ZGOW 040600Z AUTO 18004KT 5SM 26/16 RMK SLP087 T02550157 57038 IEM_DS3505
ZGOW,1999-03-04 09:00,ZGOW 040900Z AUTO 18004KT 5SM 23/16 RMK SLP071 T02270162 57016 IEM_DS3505
ZGOW,1999-03-04 12:00,ZGOW 041200Z AUTO 00000KT 5SM 20/16 RMK SLP081 T01960159 52010 IEM_DS3505
ZGOW,1999-03-04 15:00,ZGOW 041500Z AUTO 20002KT 4SM 19/17 RMK SLP089 T01910171 52008 IEM_DS3505
ZGOW,1999-03-04 18:00,ZGOW 041800Z AUTO 04002KT 4SM 18/17 RMK SLP081 T01810168 57008 IEM_DS3505
ZGOW,1999-03-04 21:00,ZGOW 042100Z AUTO 00000KT 1 1/4SM 17/17 RMK SLP079 T01730166 57002 IEM_DS3505
ZGOW,1999-03-04 22:00,ZGOW 042200Z AUTO 31002KT 1SM 17/16 A2977 RMK T01700160 IEM_DS3505
ZGOW,1999-03-05 00:00,ZGOW 050000Z AUTO 27002KT 1 1/4SM 18/17 RMK SLP095 T01820170 52016 IEM_DS3505
ZGOW,1999-03-05 03:00,ZGOW 050300Z AUTO 07002KT 2SM 25/18 RMK SLP091 T02510175 57004 IEM_DS3505
ZGOW,1999-03-05 06:00,ZGOW 050600Z AUTO 16004KT 4SM 29/18 RMK SLP062 T02880175 57029 IEM_DS3505
ZGOW,1999-03-05 09:00,ZGOW 050900Z AUTO 18004KT 4SM 24/16 RMK SLP054 T02350164 57008 IEM_DS3505
ZGOW,1999-03-05 12:00,ZGOW 051200Z AUTO 11002KT 6SM 21/19 RMK SLP067 T02130186 52013 IEM_DS3505
ZGOW,1999-03-05 15:00,ZGOW 051500Z AUTO 07004KT 4SM 20/18 RMK SLP081 T02030184 52014 IEM_DS3505
ZGOW,1999-03-05 18:00,ZGOW 051800Z AUTO 07002KT 3SM 19/18 RMK SLP075 T01860178 57006 IEM_DS3505
ZGOW,1999-03-05 21:00,ZGOW 052100Z AUTO 04004KT 2SM 19/18 RMK SLP072 T01860176 57003 IEM_DS3505
ZGOW,1999-03-06 00:00,ZGOW 060000Z AUTO 09002KT 2 1/2SM 20/17 RMK SLP086 T01990171 52014 IEM_DS3505
ZGOW,1999-03-06 03:00,ZGOW 060300Z AUTO 09008KT 6SM 25/18 RMK SLP079 T02470183 57007 IEM_DS3505
ZGOW,1999-03-06 06:00,ZGOW 060600Z AUTO 18006KT 6SM 24/19 RMK SLP055 T02380186 57024 IEM_DS3505
ZGOW,1999-03-06 09:00,ZGOW 060900Z AUTO 16006KT 6SM 22/18 RMK SLP041 T02170179 57014 IEM_DS3505
ZGOW,1999-03-06 12:00,ZGOW 061200Z AUTO 18004KT 6SM 19/18 RMK SLP058 T01940175 52017 IEM_DS3505
ZGOW,1999-03-06 15:00,ZGOW 061500Z AUTO 18002KT 3SM 18/18 RMK SLP076 T01850177 52018 IEM_DS3505
ZGOW,1999-03-06 18:00,ZGOW 061800Z AUTO 29004KT 3SM 18/18 RMK SLP072 T01850177 57004 IEM_DS3505
ZGOW,1999-03-06 21:00,ZGOW 062100Z AUTO 25004KT 3SM 19/18 RMK SLP053 T01940176 57019 IEM_DS3505
ZGOW,1999-03-07 00:00,ZGOW 070000Z AUTO 34002KT 2 1/2SM 20/18 RMK SLP069 T02020178 52016 IEM_DS3505
ZGOW,1999-03-07 03:00,ZGOW 070300Z AUTO 27006KT 5SM 24/18 RMK SLP070 T02370182 52001 IEM_DS3505
ZGOW,1999-03-07 06:00,ZGOW 070600Z AUTO 04006KT 5SM 30/18 RMK SLP042 T02970175 57028 IEM_DS3505
ZGOW,1999-03-07 09:00,ZGOW 070900Z AUTO 16002KT 5SM 28/16 RMK SLP044 T02840165 52002 IEM_DS3505
ZGOW,1999-03-07 12:00,ZGOW 071200Z AUTO 07014KT 5SM 19/16 RMK SLP084 T01920164 52040 IEM_DS3505
ZGOW,1999-03-07 15:00,ZGOW 071500Z AUTO 07012KT 7SM 17/14 RMK SLP112 T01700137 52028 IEM_DS3505
ZGOW,1999-03-07 18:00,ZGOW 071800Z AUTO 07010KT 7SM 16/12 RMK SLP114 T01650125 50020 IEM_DS3505
ZGOW,1999-03-07 21:00,ZGOW 072100Z AUTO 07012KT 7SM 16/12 RMK SLP102 T01570117 57012 IEM_DS3505
ZGOW,1999-03-08 00:00,ZGOW 080000Z AUTO 09010KT 7SM 16/12 RMK SLP129 T01620116 52027 IEM_DS3505
ZGOW,1999-03-08 03:00,ZGOW 080300Z AUTO 07008KT 7SM 18/11 RMK SLP127 T01780114 57002 IEM_DS3505
ZGOW,1999-03-08 06:00,ZGOW 080600Z AUTO 04006KT 9SM 20/13 RMK SLP098 T02020126 57029 IEM_DS3505
ZGOW,1999-03-08 09:00,ZGOW 080900Z AUTO 14006KT 7SM 18/13 RMK SLP090 T01830130 57008 IEM_DS3505
ZGOW,1999-03-08 12:00,ZGOW 081200Z AUTO 07008KT 7SM 17/14 RMK SLP107 T01720135 52017 IEM_DS3505
ZGOW,1999-03-08 15:00,ZGOW 081500Z AUTO 07008KT 6SM 17/13 RMK SLP119 T01680134 52012 IEM_DS3505
ZGOW,1999-03-08 18:00,ZGOW 081800Z AUTO 07010KT 6SM 17/14 RMK SLP119 T01670135 54000 IEM_DS3505
ZGOW,1999-03-08 21:00,ZGOW 082100Z AUTO 07006KT 7SM 17/13 RMK SLP111 T01680134 57008 IEM_DS3505
ZGOW,1999-03-09 00:00,ZGOW 090000Z AUTO 07006KT 7SM 17/14 RMK SLP122 T01700137 52011 IEM_DS3505
ZGOW,1999-03-09 03:00,ZGOW 090300Z AUTO 04004KT 4SM 19/16 RMK SLP110 T01900162 57012 IEM_DS3505
ZGOW,1999-03-09 06:00,ZGOW 090600Z AUTO 07006KT 4SM 18/16 RMK SLP090 T01840159 57020 IEM_DS3505
ZGOW,1999-03-09 09:00,ZGOW 090900Z AUTO 07002KT 2 1/2SM 19/16 RMK SLP086 T01900165 57004 IEM_DS3505
ZGOW,1999-03-09 12:00,ZGOW 091200Z AUTO 07006KT 3SM 18/16 RMK SLP100 T01810164 52014 IEM_DS3505
ZGOW,1999-03-09 15:00,ZGOW 091500Z AUTO 09008KT 4SM 17/15 RMK SLP115 T01700151 52015 IEM_DS3505
ZGOW,1999-03-09 18:00,ZGOW 091800Z AUTO 07006KT 4SM 17/15 RMK SLP116 T01690152 52001 IEM_DS3505
ZGOW,1999-03-09 21:00,ZGOW 092100Z AUTO 20004KT 3SM 17/16 RMK SLP100 T01700155 57016 IEM_DS3505
ZGOW,1999-03-10 00:00,ZGOW 100000Z AUTO 07006KT 6SM 16/15 RMK SLP114 T01640148 52014 IEM_DS3505
ZGOW,1999-03-10 03:00,ZGOW 100300Z AUTO 07006KT 4SM 17/15 RMK SLP118 T01720150 52004 IEM_DS3505
ZGOW,1999-03-10 06:00,ZGOW 100600Z AUTO 11004KT 6SM 19/15 RMK SLP097 T01860150 57021 IEM_DS3505
ZGOW,1999-03-10 09:00,ZGOW 100900Z AUTO 04004KT 7SM 18/15 RMK SLP096 T01800151 57001 IEM_DS3505
ZGOW,1999-03-10 12:00,ZGOW 101200Z AUTO 09008KT 6SM 16/15 RMK SLP113 T01650146 52017 IEM_DS3505
ZGOW,1999-03-10 15:00,ZGOW 101500Z AUTO 04006KT 6SM 14/12 RMK SLP143 T01370122 52030 IEM_DS3505
ZGOW,1999-03-10 18:00,ZGOW 101800Z AUTO 02004KT 7SM 14/10 RMK SLP139 T01360101 57004 IEM_DS3505
ZGOW,1999-03-10 21:00,ZGOW 102100Z AUTO 04004KT 7SM 13/11 RMK SLP145 T01270106 52006 IEM_DS3505
ZGOW,1999-03-11 00:00,ZGOW 110000Z AUTO 04006KT 11SM 12/10 RMK SLP158 T01230100 52013 IEM_DS3505
ZGOW,1999-03-11 03:00,ZGOW 110300Z AUTO 36008KT 11SM 13/10 RMK SLP162 T01310102 52004 IEM_DS3505
ZGOW,1999-03-11 06:00,ZGOW 110600Z AUTO 04006KT 9SM 13/10 RMK SLP141 T01330104 57021 IEM_DS3505
ZGOW,1999-03-11 09:00,ZGOW 110900Z AUTO 04006KT 8SM 13/11 RMK SLP137 T01340113 57004 IEM_DS3505
ZGOW,1999-03-11 12:00,ZGOW 111200Z AUTO 04006KT 6SM 14/11 RMK SLP145 T01390113 52008 IEM_DS3505
ZGOW,1999-03-11 15:00,ZGOW 111500Z AUTO 04004KT 7SM 13/12 RMK SLP152 T01310116 52007 IEM_DS3505
ZGOW,1999-03-11 18:00,ZGOW 111800Z AUTO 04002KT 5SM 13/12 RMK SLP147 T01320115 57005 IEM_DS3505
ZGOW,1999-03-11 21:00,ZGOW 112100Z AUTO 04002KT 4SM 13/12 RMK SLP138 T01320119 57009 IEM_DS3505
ZGOW,1999-03-12 00:00,ZGOW 120000Z AUTO 04006KT 2SM 13/12 RMK SLP146 T01320123 52008 IEM_DS3505
ZGOW,1999-03-12 03:00,ZGOW 120300Z AUTO 04006KT 2SM 14/12 RMK SLP146 T01380125 54000 IEM_DS3505
ZGOW,1999-03-12 06:00,ZGOW 120600Z AUTO 04004KT 4SM 14/12 RMK SLP118 T01450125 57028 IEM_DS3505
ZGOW,1999-03-12 09:00,ZGOW 120900Z AUTO 09006KT 3SM 14/13 RMK SLP116 T01420127 57002 IEM_DS3505
ZGOW,1999-03-12 12:00,ZGOW 121200Z AUTO 04006KT 4SM 14/13 RMK SLP127 T01390132 52011 IEM_DS3505
ZGOW,1999-03-12 15:00,ZGOW 121500Z AUTO 04006KT 6SM 14/13 RMK SLP133 T01420129 52006 IEM_DS3505
ZGOW,1999-03-12 18:00,ZGOW 121800Z AUTO 07008KT 7SM 15/12 RMK SLP124 T01460122 57009 IEM_DS3505
ZGOW,1999-03-12 21:00,ZGOW 122100Z AUTO 04008KT 7SM 14/12 RMK SLP123 T01440124 57001 IEM_DS3505
ZGOW,1999-03-13 00:00,ZGOW 130000Z AUTO 04004KT 7SM 14/13 RMK SLP136 T01440128 52013 IEM_DS3505
ZGOW,1999-03-13 03:00,ZGOW 130300Z AUTO 04004KT 5SM 15/14 RMK SLP137 T01480136 52001 IEM_DS3505
ZGOW,1999-03-13 06:00,ZGOW 130600Z AUTO 07004KT 4SM 16/14 RMK SLP114 T01550139 57023 IEM_DS3505
ZGOW,1999-03-13 09:00,ZGOW 130900Z AUTO 04004KT 1 1/4SM 15/14 RMK SLP105 T01500145 57009 IEM_DS3505
ZGOW,1999-03-13 12:00,ZGOW 131200Z AUTO 07006KT 5SM 15/14 RMK SLP113 T01520140 52008 IEM_DS3505
ZGOW,1999-03-13 15:00,ZGOW 131500Z AUTO 04004KT 6SM 16/14 RMK SLP126 T01560138 52013 IEM_DS3505
ZGOW,1999-03-13 18:00,ZGOW 131800Z AUTO 04004KT 2 1/2SM 15/15 RMK SLP116 T01510146 57010 IEM_DS3505
ZGOW,1999-03-13 21:00,ZGOW 132100Z AUTO 34002KT 2SM 15/15 RMK SLP117 T01500147 52001 IEM_DS3505
ZGOW,1999-03-14 00:00,ZGOW 140000Z AUTO 04002KT 1/2SM 16/15 RMK SLP128 T01550152 52011 IEM_DS3505
ZGOW,1999-03-14 03:00,ZGOW 140300Z AUTO 04004KT 1 1/4SM 17/16 RMK SLP132 T01670159 52004 IEM_DS3505
ZGOW,1999-03-14 06:00,ZGOW 140600Z AUTO 27004KT 1 1/4SM 18/16 RMK SLP104 T01760159 57028 IEM_DS3505
ZGOW,1999-03-14 09:00,ZGOW 140900Z AUTO 25004KT 1SM 18/17 RMK SLP093 T01760168 57011 IEM_DS3505
ZGOW,1999-03-14 12:00,ZGOW 141200Z AUTO 02004KT 1SM 18/17 RMK SLP111 T01760171 52018 IEM_DS3505
ZGOW,1999-03-14 15:00,ZGOW 141500Z AUTO 02002KT 6SM 17/15 RMK SLP129 T01660147 52018 IEM_DS3505
ZGOW,1999-03-14 18:00,ZGOW 141800Z AUTO 27006KT 9SM 16/11 RMK SLP121 T01650113 57008 IEM_DS3505
ZGOW,1999-03-14 21:00,ZGOW 142100Z AUTO 32006KT 10SM 15/10 RMK SLP113 T01520096 57008 IEM_DS3505
ZGOW,1999-03-15 00:00,ZGOW 150000Z AUTO 25002KT 12SM 15/10 RMK SLP128 T01540096 52015 IEM_DS3505
ZGOW,1999-03-15 03:00,ZGOW 150300Z AUTO 02006KT 11SM 18/10 RMK SLP130 T01800095 52002 IEM_DS3505
ZGOW,1999-03-15 06:00,ZGOW 150600Z AUTO 27004KT 9SM 18/11 RMK SLP112 T01810113 57018 IEM_DS3505
ZGOW,1999-03-15 09:00,ZGOW 150900Z AUTO 29004KT 9SM 19/12 RMK SLP110 T01880118 57002 IEM_DS3505
ZGOW,1999-03-15 12:00,ZGOW 151200Z AUTO 04004KT 7SM 17/11 RMK SLP125 T01670107 52015 IEM_DS3505
ZGOW,1999-03-15 15:00,ZGOW 151500Z AUTO 04002KT 7SM 15/10 RMK SLP137 T01460104 52012 IEM_DS3505
ZGOW,1999-03-15 18:00,ZGOW 151800Z AUTO 07004KT 5SM 15/11 RMK SLP136 T01530112 57001 IEM_DS3505
ZGOW,1999-03-15 21:00,ZGOW 152100Z AUTO 00000KT 5SM 15/11 RMK SLP125 T01510112 57011 IEM_DS3505
ZGOW,1999-03-16 00:00,ZGOW 160000Z AUTO 07006KT 5SM 15/11 RMK SLP141 T01490112 52016 IEM_DS3505
ZGOW,1999-03-16 03:00,ZGOW 160300Z AUTO 04006KT 8SM 17/10 RMK SLP141 T01740105 54000 IEM_DS3505
ZGOW,1999-03-16 06:00,ZGOW 160600Z AUTO 04008KT 9SM 19/10 RMK SLP117 T01920096 57024 IEM_DS3505
ZGOW,1999-03-16 09:00,ZGOW 160900Z AUTO 09004KT 7SM 16/12 RMK SLP114 T01620120 57003 IEM_DS3505
ZGOW,1999-03-16 11:00,ZGOW 161100Z AUTO 07006KT 6SM 16/13 RMK SLP113 T01550126 57001 IEM_DS3505
ZGOW,1999-03-16 12:00,ZGOW 161200Z AUTO 07006KT 6SM 16/13 RMK SLP113 T01550126 57001 IEM_DS3505
ZGOW,1999-03-16 15:00,ZGOW 161500Z AUTO 07006KT 8SM 15/12 RMK SLP128 T01540125 52015 IEM_DS3505
ZGOW,1999-03-16 18:00,ZGOW 161800Z AUTO 36004KT 6SM 15/12 RMK SLP141 T01540121 52013 IEM_DS3505
ZGOW,1999-03-16 21:00,ZGOW 162100Z AUTO 04006KT 6SM 14/13 RMK SLP117 T01420131 57024 IEM_DS3505
ZGOW,1999-03-17 00:00,ZGOW 170000Z AUTO 02002KT 4SM 15/14 RMK SLP129 T01500136 52012 IEM_DS3505
ZGOW,1999-03-17 03:00,ZGOW 170300Z AUTO 29004KT 3SM 18/15 RMK SLP129 T01820151 54000 IEM_DS3505
ZGOW,1999-03-17 06:00,ZGOW 170600Z AUTO 04004KT 4SM 21/17 RMK SLP096 T02100171 57033 IEM_DS3505
ZGOW,1999-03-17 09:00,ZGOW 170900Z AUTO 00000KT 2 1/2SM 20/18 RMK SLP084 T02000176 57012 IEM_DS3505
ZGOW,1999-03-17 12:00,ZGOW 171200Z AUTO 25004KT 2SM 19/18 RMK SLP090 T01920176 52006 IEM_DS3505
ZGOW,1999-03-17 15:00,ZGOW 171500Z AUTO 00000KT 2SM 19/18 RMK SLP097 T01900179 52007 IEM_DS3505
ZGOW,1999-03-17 18:00,ZGOW 171800Z AUTO 00000KT 2SM 19/18 RMK SLP089 T01900180 57008 IEM_DS3505
ZGOW,1999-03-17 21:00,ZGOW 172100Z AUTO 27002KT 3/8SM 19/18 RMK SLP083 T01880180 57006 IEM_DS3505
ZGOW,1999-03-18 00:00,ZGOW 180000Z AUTO 29002KT 1/4SM 19/19 RMK SLP091 T01940186 52008 IEM_DS3505
ZGOW,1999-03-18 03:00,ZGOW 180300Z AUTO 14002KT 1SM 24/21 RMK SLP086 T02380211 57005 IEM_DS3505
ZGOW,1999-03-18 06:00,ZGOW 180600Z AUTO 18004KT 2 1/2SM 24/22 RMK SLP061 T02440219 57025 IEM_DS3505
ZGOW,1999-03-18 09:00,ZGOW 180900Z AUTO 16004KT 2 1/2SM 25/23 RMK SLP045 T02540226 57016 IEM_DS3505
ZGOW,1999-03-18 12:00,ZGOW 181200Z AUTO 20006KT 2SM 24/23 RMK SLP060 T02360227 52015 IEM_DS3505
ZGOW,1999-03-18 15:00,ZGOW 181500Z AUTO 22006KT 1 1/4SM 24/23 RMK SLP080 T02350231 52020 IEM_DS3505
ZGOW,1999-03-18 18:00,ZGOW 181800Z AUTO 18006KT 4SM 24/23 RMK SLP069 T02420226 57011 IEM_DS3505
ZGOW,1999-03-18 21:00,ZGOW 182100Z AUTO 18004KT 4SM 23/22 RMK SLP067 T02300223 57002 IEM_DS3505
ZGOW,1999-03-19 00:00,ZGOW 190000Z AUTO 20004KT 9SM 25/23 RMK SLP083 T02500226 52016 IEM_DS3505
ZGOW,1999-03-19 03:00,ZGOW 190300Z AUTO 25010KT 16SM 29/23 RMK SLP087 T02900226 52004 IEM_DS3505
ZGOW,1999-03-19 06:00,ZGOW 190600Z AUTO 22008KT 16SM 31/22 RMK SLP063 T03080220 57024 IEM_DS3505
ZGOW,1999-03-19 09:00,ZGOW 190900Z AUTO 22008KT 14SM 29/22 RMK SLP050 T02920225 57013 IEM_DS3505
ZGOW,1999-03-19 12:00,ZGOW 191200Z AUTO 20008KT 12SM 26/23 RMK SLP061 T02550232 52011 IEM_DS3505
ZGOW,1999-03-19 15:00,ZGOW 191500Z AUTO 20004KT 9SM 24/23 RMK SLP083 T02400233 52022 IEM_DS3505
ZGOW,1999-03-19 18:00,ZGOW 191800Z AUTO 18002KT 7SM 24/23 RMK SLP084 T02370230 52001 IEM_DS3505
ZGOW,1999-03-19 21:00,ZGOW 192100Z AUTO 09006KT 2 1/2SM 24/23 RMK SLP087 T02360229 52003 IEM_DS3505
ZGOW,1999-03-20 00:00,ZGOW 200000Z AUTO 04008KT 5SM 18/17 RMK SLP107 T01850174 52020 IEM_DS3505
ZGOW,1999-03-20 03:00,ZGOW 200300Z AUTO 07006KT 6SM 19/17 RMK SLP116 T01860168 52009 IEM_DS3505
ZGOW,1999-03-20 06:00,ZGOW 200600Z AUTO 04006KT 7SM 18/17 RMK SLP102 T01850169 57014 IEM_DS3505
ZGOW,1999-03-20 09:00,ZGOW 200900Z AUTO 04010KT 4SM 18/16 RMK SLP093 T01780160 57009 IEM_DS3505
ZGOW,1999-03-20 12:00,ZGOW 201200Z AUTO 07006KT 6SM 17/15 RMK SLP107 T01720153 52014 IEM_DS3505
ZGOW,1999-03-20 15:00,ZGOW 201500Z AUTO 09006KT 9SM 17/15 RMK SLP120 T01670150 52013 IEM_DS3505
ZGOW,1999-03-20 18:00,ZGOW 201800Z AUTO 04008KT 6SM 16/14 RMK SLP116 T01600141 57004 IEM_DS3505
ZGOW,1999-03-20 21:00,ZGOW 202100Z AUTO 04006KT 7SM 16/14 RMK SLP117 T01580139 52001 IEM_DS3505
ZGOW,1999-03-21 00:00,ZGOW 210000Z AUTO 04006KT 7SM 16/14 RMK SLP138 T01610144 52021 IEM_DS3505
ZGOW,1999-03-21 03:00,ZGOW 210300Z AUTO 04006KT 4SM 16/15 RMK SLP142 T01620152 52004 IEM_DS3505
ZGOW,1999-03-21 06:00,ZGOW 210600Z AUTO 07008KT 2 1/2SM 16/15 RMK SLP130 T01620148 57012 IEM_DS3505
ZGOW,1999-03-21 09:00,ZGOW 210900Z AUTO 09008KT 2 1/2SM 16/15 RMK SLP131 T01600148 52001 IEM_DS3505
ZGOW,1999-03-21 12:00,ZGOW 211200Z AUTO 04006KT 2 1/2SM 15/14 RMK SLP152 T01470140 52021 IEM_DS3505
ZGOW,1999-03-21 15:00,ZGOW 211500Z AUTO 02004KT 3SM 13/12 RMK SLP176 T01300124 52024 IEM_DS3505
ZGOW,1999-03-21 18:00,ZGOW 211800Z AUTO 04004KT 4SM 12/11 RMK SLP178 T01200110 52002 IEM_DS3505
ZGOW,1999-03-21 21:00,ZGOW 212100Z AUTO 04004KT 6SM 12/11 RMK SLP184 T01200106 52006 IEM_DS3505
ZGOW,1999-03-22 00:00,ZGOW 220000Z AUTO 04006KT 9SM 12/11 RMK SLP207 T01250106 52023 IEM_DS3505
ZGOW,1999-03-22 03:00,ZGOW 220300Z AUTO 11008KT 11SM 14/10 RMK SLP210 T01430103 52003 IEM_DS3505
ZGOW,1999-03-22 06:00,ZGOW 220600Z AUTO 07006KT 12SM 15/09 RMK SLP188 T01500094 57022 IEM_DS3505
ZGOW,1999-03-22 09:00,ZGOW 220900Z AUTO 04008KT 11SM 14/09 RMK SLP185 T01420093 57003 IEM_DS3505
ZGOW,1999-03-22 12:00,ZGOW 221200Z AUTO 09010KT 7SM 13/09 RMK SLP199 T01320088 52014 IEM_DS3505
ZGOW,1999-03-22 15:00,ZGOW 221500Z AUTO 04010KT 9SM 13/09 RMK SLP214 T01260086 52015 IEM_DS3505
ZGOW,1999-03-22 18:00,ZGOW 221800Z AUTO 09008KT 9SM 13/09 RMK SLP208 T01290089 57006 IEM_DS3505
ZGOW,1999-03-22 21:00,ZGOW 222100Z AUTO 07006KT 8SM 13/09 RMK SLP199 T01310089 57009 IEM_DS3505
ZGOW,1999-03-23 00:00,ZGOW 230000Z AUTO 07008KT 9SM 14/09 RMK SLP210 T01350094 52011 IEM_DS3505
ZGOW,1999-03-23 03:00,ZGOW 230300Z AUTO 04004KT 9SM 15/10 RMK SLP203 T01540105 57007 IEM_DS3505
ZGOW,1999-03-23 06:00,ZGOW 230600Z AUTO 09006KT 9SM 17/11 RMK SLP177 T01660112 57026 IEM_DS3505
ZGOW,1999-03-23 09:00,ZGOW 230900Z AUTO 09004KT 9SM 16/12 RMK SLP164 T01610119 57013 IEM_DS3505
ZGOW,1999-03-23 12:00,ZGOW 231200Z AUTO 04004KT 7SM 16/13 RMK SLP168 T01570126 52004 IEM_DS3505
ZGOW,1999-03-23 15:00,ZGOW 231500Z AUTO 04006KT 7SM 16/13 RMK SLP175 T01550128 52007 IEM_DS3505
ZGOW,1999-03-23 18:00,ZGOW 231800Z AUTO 04006KT 7SM 15/13 RMK SLP171 T01520129 57004 IEM_DS3505
ZGOW,1999-03-23 21:00,ZGOW 232100Z AUTO 04004KT 3SM 15/13 RMK SLP165 T01510133 57006 IEM_DS3505
ZGOW,1999-03-24 00:00,ZGOW 240000Z AUTO 36002KT 2SM 16/14 RMK SLP178 T01580139 52013 IEM_DS3505
ZGOW,1999-03-24 03:00,ZGOW 240300Z AUTO 04004KT 2SM 18/15 RMK SLP178 T01850149 54000 IEM_DS3505
ZGOW,1999-03-24 06:00,ZGOW 240600Z AUTO 04004KT 2 1/2SM 22/16 RMK SLP147 T02180164 57031 IEM_DS3505
ZGOW,1999-03-24 09:00,ZGOW 240900Z AUTO 29002KT 2 1/2SM 22/17 RMK SLP132 T02250174 57015 IEM_DS3505
ZGOW,1999-03-24 12:00,ZGOW 241200Z AUTO 16002KT 4SM 19/16 RMK SLP141 T01940161 52009 IEM_DS3505
ZGOW,1999-03-24 15:00,ZGOW 241500Z AUTO 11002KT 4SM 19/16 RMK SLP155 T01890162 52014 IEM_DS3505
ZGOW,1999-03-24 18:00,ZGOW 241800Z AUTO 07002KT 4SM 19/16 RMK SLP144 T01900163 57011 IEM_DS3505
ZGOW,1999-03-24 21:00,ZGOW 242100Z AUTO 07006KT 5SM 19/16 RMK SLP138 T01880161 57006 IEM_DS3505
ZGOW,1999-03-25 00:00,ZGOW 250000Z AUTO 04006KT 4SM 19/18 RMK SLP151 T01930177 52013 IEM_DS3505
ZGOW,1999-03-25 02:00,ZGOW 250200Z AUTO 05004KT 1 1/4SM 20/19 A2994 RMK T02000190 IEM_DS3505
ZGOW,1999-03-25 03:00,ZGOW 250300Z AUTO 04002KT 2SM 21/19 RMK SLP152 T02100189 52001 IEM_DS3505
ZGOW,1999-03-25 06:00,ZGOW 250600Z AUTO 14002KT 2 1/2SM 24/21 RMK SLP124 T02410208 57028 IEM_DS3505
ZGOW,1999-03-25 09:00,ZGOW 250900Z AUTO 16004KT 4SM 24/21 RMK SLP104 T02450209 57020 IEM_DS3505
ZGOW,1999-03-25 12:00,ZGOW 251200Z AUTO 09004KT 1 1/4SM 22/21 RMK SLP116 T02200208 52012 IEM_DS3505
ZGOW,1999-03-25 15:00,ZGOW 251500Z AUTO 00000KT 1/4SM 21/21 RMK SLP126 T02130210 52010 IEM_DS3505
ZGOW,1999-03-25 18:00,ZGOW 251800Z AUTO 00000KT 1SM 21/21 RMK SLP117 T02100208 57009 IEM_DS3505
ZGOW,1999-03-25 21:00,ZGOW 252100Z AUTO 00000KT 1/4SM 21/20 RMK SLP124 T02060204 52007 IEM_DS3505
ZGOW,1999-03-26 00:00,ZGOW 260000Z AUTO 00000KT 1/8SM 21/21 RMK SLP135 T02080206 52011 IEM_DS3505
ZGOW,1999-03-26 03:00,ZGOW 260300Z AUTO 18002KT 2 1/2SM 26/21 RMK SLP133 T02600214 57002 IEM_DS3505
ZGOW,1999-03-26 06:00,ZGOW 260600Z AUTO 18004KT 8SM 28/21 RMK SLP104 T02760212 57029 IEM_DS3505
ZGOW,1999-03-26 09:00,ZGOW 260900Z AUTO 16008KT 9SM 25/22 RMK SLP089 T02470217 57015 IEM_DS3505
ZGOW,1999-03-26 12:00,ZGOW 261200Z AUTO 22008KT 7SM 24/22 RMK SLP098 T02400218 52009 IEM_DS3505
ZGOW,1999-03-26 15:00,ZGOW 261500Z AUTO 27004KT 6SM 24/22 RMK SLP114 T02380217 52016 IEM_DS3505
ZGOW,1999-03-26 18:00,ZGOW 261800Z AUTO 00000KT 5SM 22/21 RMK SLP105 T02220211 57009 IEM_DS3505
ZGOW,1999-03-26 21:00,ZGOW 262100Z AUTO 00000KT 4SM 22/21 RMK SLP114 T02200212 52009 IEM_DS3505
ZGOW,1999-03-27 00:00,ZGOW 270000Z AUTO 29002KT 3SM 24/22 RMK SLP137 T02380222 52023 IEM_DS3505
ZGOW,1999-03-27 03:00,ZGOW 270300Z AUTO 32004KT 8SM 28/21 RMK SLP142 T02800213 52005 IEM_DS3505
ZGOW,1999-03-27 06:00,ZGOW 270600Z AUTO 16006KT 7SM 22/18 RMK SLP134 T02230180 57008 IEM_DS3505
ZGOW,1999-03-27 09:00,ZGOW 270900Z AUTO 09008KT 7SM 20/16 RMK SLP135 T02000164 52001 IEM_DS3505
ZGOW,1999-03-27 12:00,ZGOW 271200Z AUTO 07012KT 7SM 18/15 RMK SLP157 T01820146 52022 IEM_DS3505
ZGOW,1999-03-27 15:00,ZGOW 271500Z AUTO 09010KT 7SM 17/13 RMK SLP178 T01740127 52021 IEM_DS3505
ZGOW,1999-03-27 18:00,ZGOW 271800Z AUTO 07010KT 7SM 17/12 RMK SLP171 T01700123 57007 IEM_DS3505
ZGOW,1999-03-27 21:00,ZGOW 272100Z AUTO 09010KT 7SM 17/12 RMK SLP173 T01700123 52002 IEM_DS3505
ZGOW,1999-03-28 00:00,ZGOW 280000Z AUTO 09008KT 9SM 17/08 RMK SLP189 T01710078 52016 IEM_DS3505
ZGOW,1999-03-28 03:00,ZGOW 280300Z AUTO 09010KT 9SM 19/10 RMK SLP195 T01860100 52006 IEM_DS3505
ZGOW,1999-03-28 06:00,ZGOW 280600Z AUTO 04008KT 9SM 19/10 RMK SLP172 T01860102 57023 IEM_DS3505
ZGOW,1999-03-28 09:00,ZGOW 280900Z AUTO 09008KT 9SM 19/12 RMK SLP156 T01930115 57016 IEM_DS3505
ZGOW,1999-03-28 12:00,ZGOW 281200Z AUTO 09012KT 9SM 18/12 RMK SLP170 T01800120 52014 IEM_DS3505
ZGOW,1999-03-28 15:00,ZGOW 281500Z AUTO 04010KT 9SM 17/12 RMK SLP191 T01710120 52021 IEM_DS3505
ZGOW,1999-03-28 18:00,ZGOW 281800Z AUTO 04008KT 8SM 17/12 RMK SLP177 T01660122 57014 IEM_DS3505
ZGOW,1999-03-28 21:00,ZGOW 282100Z AUTO 07006KT 8SM 16/12 RMK SLP166 T01580123 57011 IEM_DS3505
ZGOW,1999-03-29 00:00,ZGOW 290000Z AUTO 04006KT 11SM 16/12 RMK SLP173 T01590119 52007 IEM_DS3505
ZGOW,1999-03-29 03:00,ZGOW 290300Z AUTO 04010KT 12SM 19/12 RMK SLP170 T01860123 57003 IEM_DS3505
ZGOW,1999-03-29 06:00,ZGOW 290600Z AUTO 09004KT 12SM 20/13 RMK SLP159 T01960131 57011 IEM_DS3505
ZGOW,1999-03-29 09:00,ZGOW 290900Z AUTO 04008KT 9SM 18/13 RMK SLP160 T01780132 52001 IEM_DS3505
ZGOW,1999-03-29 12:00,ZGOW 291200Z AUTO 09008KT 8SM 17/13 RMK SLP171 T01680132 52011 IEM_DS3505
ZGOW,1999-03-29 15:00,ZGOW 291500Z AUTO 04006KT 9SM 16/12 RMK SLP187 T01610121 52016 IEM_DS3505
ZGOW,1999-03-29 18:00,ZGOW 291800Z AUTO 04006KT 7SM 15/13 RMK SLP172 T01500130 57015 IEM_DS3505
ZGOW,1999-03-29 21:00,ZGOW 292100Z AUTO 04004KT 7SM 15/13 RMK SLP160 T01520130 57012 IEM_DS3505
ZGOW,1999-03-30 00:00,ZGOW 300000Z AUTO 02004KT 12SM 16/11 RMK SLP172 T01560107 52012 IEM_DS3505
ZGOW,1999-03-30 03:00,ZGOW 300300Z AUTO 36004KT 12SM 17/11 RMK SLP181 T01720111 52009 IEM_DS3505
ZGOW,1999-03-30 06:00,ZGOW 300600Z AUTO 36004KT 11SM 20/12 RMK SLP157 T02020120 57024 IEM_DS3505
ZGOW,1999-03-30 09:00,ZGOW 300900Z AUTO 04004KT 9SM 22/12 RMK SLP145 T02160125 57012 IEM_DS3505
ZGOW,1999-03-30 12:00,ZGOW 301200Z AUTO 36006KT 9SM 17/13 RMK SLP159 T01710134 52014 IEM_DS3505
ZGOW,1999-03-30 15:00,ZGOW 301500Z AUTO 09004KT 8SM 17/12 RMK SLP179 T01710124 52020 IEM_DS3505
ZGOW,1999-03-30 18:00,ZGOW 301800Z AUTO 11008KT 7SM 16/12 RMK SLP173 T01630121 57006 IEM_DS3505
ZGOW,1999-03-30 21:00,ZGOW 302100Z AUTO 04006KT 9SM 15/11 RMK SLP169 T01480108 57004 IEM_DS3505
ZGOW,1999-03-31 00:00,ZGOW 310000Z AUTO 09004KT 11SM 17/12 RMK SLP190 T01680115 52021 IEM_DS3505
ZGOW,1999-03-31 03:00,ZGOW 310300Z AUTO 04006KT 12SM 20/11 RMK SLP184 T02040107 57006 IEM_DS3505
ZGOW,1999-03-31 06:00,ZGOW 310600Z AUTO 09006KT 14SM 22/12 RMK SLP151 T02210120 57033 IEM_DS3505
ZGOW,1999-03-31 09:00,ZGOW 310900Z AUTO 14008KT 12SM 20/13 RMK SLP139 T01960127 57012 IEM_DS3505
ZGOW,1999-03-31 12:00,ZGOW 311200Z AUTO 07004KT 11SM 18/14 RMK SLP155 T01820136 52016 IEM_DS3505
ZGOW,1999-03-31 15:00,ZGOW 311500Z AUTO 04004KT 9SM 18/14 RMK SLP171 T01820138 52016 IEM_DS3505
ZGOW,1999-03-31 18:00,ZGOW 311800Z AUTO 04006KT 9SM 18/14 RMK SLP157 T01820138 57014 IEM_DS3505
ZGOW,1999-03-31 21:00,ZGOW 312100Z AUTO 36002KT 8SM 18/15 RMK SLP159 T01780147 52002 IEM_DS3505
ZGOW,1999-04-01 00:00,ZGOW 010000Z AUTO 02004KT 9SM 19/15 RMK SLP171 T01890146 52012 IEM_DS3505
ZGOW,1999-04-01 03:00,ZGOW 010300Z AUTO 04004KT 8SM 23/15 RMK SLP170 T02300154 57001 IEM_DS3505
ZGOW,1999-04-01 09:00,ZGOW 010900Z AUTO 09006KT 8SM 23/16 RMK SLP123 T02270161 57013 IEM_DS3505
ZGOW,1999-04-01 12:00,ZGOW 011200Z AUTO 14002KT 7SM 21/17 RMK SLP137 T02100166 52014 IEM_DS3505
ZGOW,1999-04-01 15:00,ZGOW 011500Z AUTO 02002KT 6SM 21/17 RMK SLP153 T02090173 52016 IEM_DS3505
ZGOW,1999-04-01 18:00,ZGOW 011800Z AUTO 27004KT 6SM 21/17 RMK SLP146 T02110169 57007 IEM_DS3505
ZGOW,1999-04-01 21:00,ZGOW 012100Z AUTO 29002KT 3SM 21/18 RMK SLP143 T02120177 57003 IEM_DS3505
ZGOW,1999-04-02 00:00,ZGOW 020000Z AUTO 00000KT 2SM 23/19 RMK SLP149 T02260188 52006 IEM_DS3505
ZGOW,1999-04-02 03:00,ZGOW 020300Z AUTO 09002KT 2 1/2SM 28/19 RMK SLP146 T02790193 57003 IEM_DS3505
ZGOW,1999-04-02 06:00,ZGOW 020600Z AUTO 14004KT 9SM 28/20 RMK SLP125 T02830203 57021 IEM_DS3505
ZGOW,1999-04-02 09:00,ZGOW 020900Z AUTO 11010KT 12SM 25/17 RMK SLP119 T02530170 57006 IEM_DS3505
ZGOW,1999-04-02 12:00,ZGOW 021200Z AUTO 04010KT 9SM 18/16 RMK SLP157 T01850158 52038 IEM_DS3505
ZGOW,1999-04-02 15:00,ZGOW 021500Z AUTO 04012KT 9SM 17/13 RMK SLP188 T01740131 52031 IEM_DS3505
ZGOW,1999-04-02 18:00,ZGOW 021800Z AUTO 09010KT 9SM 17/09 RMK SLP187 T01700091 57001 IEM_DS3505
ZGOW,1999-04-02 21:00,ZGOW 022100Z AUTO 07008KT 9SM 17/10 RMK SLP181 T01700096 57006 IEM_DS3505
ZGOW,1999-04-03 00:00,ZGOW 030000Z AUTO 04006KT 12SM 17/09 RMK SLP195 T01680093 52014 IEM_DS3505
ZGOW,1999-04-03 03:00,ZGOW 030300Z AUTO 07010KT 14SM 20/09 RMK SLP192 T01950088 57003 IEM_DS3505
ZGOW,1999-04-03 06:00,ZGOW 030600Z AUTO 09006KT 11SM 21/10 RMK SLP167 T02060101 57025 IEM_DS3505
ZGOW,1999-04-03 09:00,ZGOW 030900Z AUTO 07002KT 6SM 18/12 RMK SLP162 T01850122 57005 IEM_DS3505
ZGOW,1999-04-03 12:00,ZGOW 031200Z AUTO 09008KT 6SM 17/11 RMK SLP179 T01730114 52017 IEM_DS3505
ZGOW,1999-04-03 15:00,ZGOW 031500Z AUTO 09010KT 7SM 17/12 RMK SLP189 T01680115 52010 IEM_DS3505
ZGOW,1999-04-03 18:00,ZGOW 031800Z AUTO 07006KT 6SM 17/12 RMK SLP176 T01680117 57013 IEM_DS3505
ZGOW,1999-04-03 21:00,ZGOW 032100Z AUTO 09006KT 8SM 17/11 RMK SLP169 T01660114 57007 IEM_DS3505
ZGOW,1999-04-04 00:00,ZGOW 040000Z AUTO 09006KT 9SM 17/12 RMK SLP186 T01740124 52017 IEM_DS3505
ZGOW,1999-04-04 03:00,ZGOW 040300Z AUTO 04008KT 9SM 19/13 RMK SLP187 T01860127 52001 IEM_DS3505
ZGOW,1999-04-04 06:00,ZGOW 040600Z AUTO 04004KT 9SM 20/13 RMK SLP166 T02020132 57021 IEM_DS3505
ZGOW,1999-04-04 09:00,ZGOW 040900Z AUTO 14004KT 8SM 19/13 RMK SLP153 T01900132 57013 IEM_DS3505
ZGOW,1999-04-04 12:00,ZGOW 041200Z AUTO 04006KT 8SM 18/13 RMK SLP169 T01780134 52016 IEM_DS3505
ZGOW,1999-04-04 15:00,ZGOW 041500Z AUTO 09004KT 9SM 17/14 RMK SLP183 T01720135 52014 IEM_DS3505
ZGOW,1999-04-04 18:00,ZGOW 041800Z AUTO 04006KT 6SM 17/13 RMK SLP178 T01690130 57005 IEM_DS3505
ZGOW,1999-04-04 21:00,ZGOW 042100Z AUTO 09004KT 6SM 17/13 RMK SLP170 T01660128 57008 IEM_DS3505
ZGOW,1999-04-05 00:00,ZGOW 050000Z AUTO 00000KT 6SM 17/13 RMK SLP182 T01730134 52012 IEM_DS3505
ZGOW,1999-04-05 03:00,ZGOW 050300Z AUTO 27008KT 7SM 21/15 RMK SLP166 T02080149 57016 IEM_DS3505
ZGOW,1999-04-05 06:00,ZGOW 050600Z AUTO 16006KT 7SM 22/15 RMK SLP139 T02210151 57027 IEM_DS3505
ZGOW,1999-04-05 09:00,ZGOW 050900Z AUTO 14006KT 6SM 21/13 RMK SLP131 T02060133 57008 IEM_DS3505
ZGOW,1999-04-05 12:00,ZGOW 051200Z AUTO 20004KT 6SM 19/14 RMK SLP148 T01860141 52017 IEM_DS3505
ZGOW,1999-04-05 15:00,ZGOW 051500Z AUTO 16002KT 6SM 18/14 RMK SLP165 T01800138 52017 IEM_DS3505
ZGOW,1999-04-05 18:00,ZGOW 051800Z AUTO 04002KT 6SM 16/13 RMK SLP152 T01610132 57013 IEM_DS3505
ZGOW,1999-04-05 21:00,ZGOW 052100Z AUTO 02004KT 4SM 16/14 RMK SLP149 T01560135 57003 IEM_DS3505
ZGOW,1999-04-06 00:00,ZGOW 060000Z AUTO 04006KT 4SM 18/13 RMK SLP164 T01800132 52015 IEM_DS3505
ZGOW,1999-04-06 03:00,ZGOW 060300Z AUTO 04006KT 7SM 25/12 RMK SLP164 T02520120 54000 IEM_DS3505
ZGOW,1999-04-06 06:00,ZGOW 060600Z AUTO 11008KT 9SM 27/08 RMK SLP136 T02680082 57028 IEM_DS3505
ZGOW,1999-04-06 09:00,ZGOW 060900Z AUTO 07008KT 9SM 26/03 RMK SLP129 T02560033 57007 IEM_DS3505
ZGOW,1999-04-06 12:00,ZGOW 061200Z AUTO 04006KT 7SM 22/05 RMK SLP143 T02230050 52014 IEM_DS3505
ZGOW,1999-04-06 15:00,ZGOW 061500Z AUTO 09006KT 7SM 21/05 RMK SLP156 T02070054 52013 IEM_DS3505
ZGOW,1999-04-06 18:00,ZGOW 061800Z AUTO 00000KT 7SM 17/08 RMK SLP154 T01720075 57002 IEM_DS3505
ZGOW,1999-04-06 21:00,ZGOW 062100Z AUTO 04004KT 6SM 16/09 RMK SLP157 T01550093 52003 IEM_DS3505
ZGOW,1999-04-07 00:00,ZGOW 070000Z AUTO 00000KT 5SM 19/09 RMK SLP177 T01910093 52020 IEM_DS3505
ZGOW,1999-04-07 03:00,ZGOW 070300Z AUTO 04010KT 7SM 24/04 RMK SLP176 T02450039 57001 IEM_DS3505
ZGOW,1999-04-07 06:00,ZGOW 070600Z AUTO 09006KT 9SM 26/10 RMK SLP159 T02580097 57017 IEM_DS3505
ZGOW,1999-04-07 09:00,ZGOW 070900Z AUTO 04006KT 9SM 23/14 RMK SLP146 T02340137 57013 IEM_DS3505
ZGOW,1999-04-07 12:00,ZGOW 071200Z AUTO 07006KT 9SM 20/14 RMK SLP164 T01980145 52018 IEM_DS3505
ZGOW,1999-04-07 15:00,ZGOW 071500Z AUTO 09006KT 9SM 20/14 RMK SLP172 T01990136 52008 IEM_DS3505
ZGOW,1999-04-07 18:00,ZGOW 071800Z AUTO 04004KT 8SM 18/15 RMK SLP163 T01810148 57009 IEM_DS3505
ZGOW,1999-04-07 21:00,ZGOW 072100Z AUTO 02004KT 5SM 17/15 RMK SLP161 T01720150 57002 IEM_DS3505
ZGOW,1999-04-08 00:00,ZGOW 080000Z AUTO 00000KT 3SM 19/15 RMK SLP171 T01920149 52010 IEM_DS3505
ZGOW,1999-04-08 03:00,ZGOW 080300Z AUTO 07004KT 4SM 24/14 RMK SLP165 T02360135 57006 IEM_DS3505
ZGOW,1999-04-08 06:00,ZGOW 080600Z AUTO 14006KT 7SM 25/14 RMK SLP145 T02500137 57020 IEM_DS3505
ZGOW,1999-04-08 09:00,ZGOW 080900Z AUTO 14006KT 7SM 22/15 RMK SLP138 T02220146 57007 IEM_DS3505
ZGOW,1999-04-08 15:00,ZGOW 081500Z AUTO 00000KT 6SM 22/16 RMK SLP163 T02150162 52012 IEM_DS3505
ZGOW,1999-04-08 18:00,ZGOW 081800Z AUTO 00000KT 4SM 21/18 RMK SLP149 T02140175 57014 IEM_DS3505
ZGOW,1999-04-08 21:00,ZGOW 082100Z AUTO 00000KT 2 1/2SM 20/18 RMK SLP140 T02040177 57009 IEM_DS3505
ZGOW,1999-04-09 00:00,ZGOW 090000Z AUTO 02002KT 3SM 24/18 RMK SLP146 T02360182 52006 IEM_DS3505
ZGOW,1999-04-09 03:00,ZGOW 090300Z AUTO 22006KT 5SM 27/20 RMK SLP150 T02680199 52004 IEM_DS3505
ZGOW,1999-04-09 06:00,ZGOW 090600Z AUTO 22006KT 8SM 26/20 RMK SLP138 T02600201 57012 IEM_DS3505
ZGOW,1999-04-09 09:00,ZGOW 090900Z AUTO 18008KT 8SM 26/21 RMK SLP130 T02620209 57008 IEM_DS3505
ZGOW,1999-04-09 12:00,ZGOW 091200Z AUTO 20002KT 7SM 24/21 RMK SLP132 T02450210 52002 IEM_DS3505
ZGOW,1999-04-09 15:00,ZGOW 091500Z AUTO 27002KT 6SM 24/21 RMK SLP139 T02360213 52007 IEM_DS3505
ZGOW,1999-04-09 18:00,ZGOW 091800Z AUTO 27002KT 5SM 23/22 RMK SLP121 T02330216 57018 IEM_DS3505
ZGOW,1999-04-09 21:00,ZGOW 092100Z AUTO 02002KT 4SM 23/21 RMK SLP110 T02310213 57011 IEM_DS3505
ZGOW,1999-04-10 00:00,ZGOW 100000Z AUTO 04004KT 2 1/2SM 24/21 RMK SLP136 T02380208 52026 IEM_DS3505
ZGOW,1999-04-10 03:00,ZGOW 100300Z AUTO 04004KT 4SM 26/21 RMK SLP142 T02550211 52006 IEM_DS3505
ZGOW,1999-04-10 06:00,ZGOW 100600Z AUTO 07008KT 6SM 26/19 RMK SLP132 T02560191 57010 IEM_DS3505
ZGOW,1999-04-10 09:00,ZGOW 100900Z AUTO 09010KT 6SM 23/16 RMK SLP125 T02340155 57007 IEM_DS3505
ZGOW,1999-04-10 12:00,ZGOW 101200Z AUTO 09008KT 7SM 22/14 RMK SLP135 T02180143 52010 IEM_DS3505
ZGOW,1999-04-10 15:00,ZGOW 101500Z AUTO 09010KT 8SM 21/13 RMK SLP144 T02120128 52009 IEM_DS3505
ZGOW,1999-04-10 18:00,ZGOW 101800Z AUTO 09006KT 7SM 21/11 RMK SLP129 T02070107 57015 IEM_DS3505
ZGOW,1999-04-10 21:00,ZGOW 102100Z AUTO 04002KT 8SM 19/14 RMK SLP121 T01880138 57008 IEM_DS3505
ZGOW,1999-04-11 00:00,ZGOW 110000Z AUTO 00000KT 7SM 23/14 RMK SLP130 T02300142 52009 IEM_DS3505
ZGOW,1999-04-11 03:00,ZGOW 110300Z AUTO 11004KT 8SM 22/11 RMK SLP129 T02230110 57001 IEM_DS3505
ZGOW,1999-04-11 06:00,ZGOW 110600Z AUTO 09002KT 7SM 20/14 RMK SLP103 T02030139 57026 IEM_DS3505
ZGOW,1999-04-11 09:00,ZGOW 110900Z AUTO 07004KT 2SM 18/16 RMK SLP089 T01760163 57014 IEM_DS3505
ZGOW,1999-04-11 12:00,ZGOW 111200Z AUTO 04006KT 2 1/2SM 18/17 RMK SLP094 T01800167 52005 IEM_DS3505
ZGOW,1999-04-11 15:00,ZGOW 111500Z AUTO 34002KT 1 1/4SM 18/17 RMK SLP098 T01790172 52004 IEM_DS3505
ZGOW,1999-04-11 18:00,ZGOW 111800Z AUTO 00000KT 1 1/4SM 18/17 RMK SLP069 T01820171 57029 IEM_DS3505
ZGOW,1999-04-11 21:00,ZGOW 112100Z AUTO 18004KT 1 1/4SM 19/18 RMK SLP065 T01860184 57004 IEM_DS3505
ZGOW,1999-04-12 00:00,ZGOW 120000Z AUTO 04004KT 3SM 20/19 RMK SLP083 T01950189 52018 IEM_DS3505
ZGOW,1999-04-12 03:00,ZGOW 120300Z AUTO 25004KT 5SM 24/21 RMK SLP081 T02360209 57002 IEM_DS3505
ZGOW,1999-04-12 06:00,ZGOW 120600Z AUTO 27006KT 11SM 28/21 RMK SLP057 T02800213 57024 IEM_DS3505
ZGOW,1999-04-12 09:00,ZGOW 120900Z AUTO 11006KT 11SM 24/20 RMK SLP052 T02410203 57005 IEM_DS3505
ZGOW,1999-04-12 12:00,ZGOW 121200Z AUTO 11004KT 6SM 23/21 RMK SLP076 T02260212 52024 IEM_DS3505
ZGOW,1999-04-12 15:00,ZGOW 121500Z AUTO 04002KT 6SM 22/21 RMK SLP101 T02220211 52025 IEM_DS3505
ZGOW,1999-04-12 18:00,ZGOW 121800Z AUTO 00000KT 4SM 21/20 RMK SLP095 T02090203 57006 IEM_DS3505
ZGOW,1999-04-12 21:00,ZGOW 122100Z AUTO 02002KT 2 1/2SM 21/21 RMK SLP099 T02140206 52004 IEM_DS3505
ZGOW,1999-04-13 00:00,ZGOW 130000Z AUTO 09006KT 7SM 24/21 RMK SLP122 T02410208 52023 IEM_DS3505
ZGOW,1999-04-13 01:00,ZGOW 130100Z AUTO 09012KT 6SM 26/20 A2988 RMK T02600200 IEM_DS3505
ZGOW,1999-04-13 03:00,ZGOW 130300Z AUTO 09006KT 8SM 26/19 RMK SLP133 T02570189 52011 IEM_DS3505
ZGOW,1999-04-13 06:00,ZGOW 130600Z AUTO 09014KT 12SM 25/17 RMK SLP119 T02480168 57014 IEM_DS3505
ZGOW,1999-04-13 09:00,ZGOW 130900Z AUTO 04014KT 11SM 23/13 RMK SLP110 T02320132 57009 IEM_DS3505
ZGOW,1999-04-13 12:00,ZGOW 131200Z AUTO 09010KT 7SM 20/12 RMK SLP148 T02030115 52038 IEM_DS3505
ZGOW,1999-04-13 15:00,ZGOW 131500Z AUTO 09010KT 7SM 19/11 RMK SLP164 T01910111 52016 IEM_DS3505
ZGOW,1999-04-13 18:00,ZGOW 131800Z AUTO 04008KT 9SM 18/10 RMK SLP162 T01850099 57002 IEM_DS3505
ZGOW,1999-04-13 21:00,ZGOW 132100Z AUTO 04004KT 12SM 18/11 RMK SLP156 T01770106 57006 IEM_DS3505
ZGOW,1999-04-14 00:00,ZGOW 140000Z AUTO 09006KT 12SM 20/12 RMK SLP170 T02040120 52014 IEM_DS3505
ZGOW,1999-04-14 03:00,ZGOW 140300Z AUTO 04010KT 12SM 23/09 RMK SLP174 T02340094 52004 IEM_DS3505
ZGOW,1999-04-14 06:00,ZGOW 140600Z AUTO 16004KT 12SM 24/13 RMK SLP159 T02430134 57015 IEM_DS3505
ZGOW,1999-04-14 09:00,ZGOW 140900Z AUTO 14004KT 11SM 22/15 RMK SLP151 T02210151 57008 IEM_DS3505
ZGOW,1999-04-14 12:00,ZGOW 141200Z AUTO 11008KT 9SM 20/16 RMK SLP171 T02010156 52020 IEM_DS3505
ZGOW,1999-04-14 15:00,ZGOW 141500Z AUTO 09010KT 10SM 20/14 RMK SLP181 T01970144 52010 IEM_DS3505
ZGOW,1999-04-14 18:00,ZGOW 141800Z AUTO 09008KT 8SM 19/15 RMK SLP172 T01940148 57009 IEM_DS3505
ZGOW,1999-04-14 21:00,ZGOW 142100Z AUTO 04008KT 6SM 19/15 RMK SLP162 T01900151 57010 IEM_DS3505
ZGOW,1999-04-15 00:00,ZGOW 150000Z AUTO 09004KT 9SM 22/15 A3000 RMK SLP172 T02160154 52010 IEM_DS3505
ZGOW,1999-04-15 03:00,ZGOW 150300Z AUTO 04008KT 14SM 25/17 RMK SLP171 T02470166 57001 IEM_DS3505
ZGOW,1999-04-15 06:00,ZGOW 150600Z AUTO 16006KT 12SM 24/17 RMK SLP151 T02440168 57020 IEM_DS3505
ZGOW,1999-04-15 09:00,ZGOW 150900Z AUTO 09004KT 10SM 25/17 RMK SLP135 T02500170 57016 IEM_DS3505
ZGOW,1999-04-15 12:00,ZGOW 151200Z AUTO 14004KT 8SM 22/17 RMK SLP142 T02200171 52007 IEM_DS3505
ZGOW,1999-04-15 15:00,ZGOW 151500Z AUTO 04002KT 7SM 21/18 RMK SLP149 T02140184 52007 IEM_DS3505
ZGOW,1999-04-15 18:00,ZGOW 151800Z AUTO 00000KT 6SM 21/18 RMK SLP135 T02090182 57014 IEM_DS3505
ZGOW,1999-04-15 21:00,ZGOW 152100Z AUTO 00000KT 5SM 20/18 RMK SLP130 T02040183 57005 IEM_DS3505
ZGOW,1999-04-16 00:00,ZGOW 160000Z AUTO 09002KT 4SM 23/19 RMK SLP138 T02340190 52008 IEM_DS3505
ZGOW,1999-04-16 03:00,ZGOW 160300Z AUTO 16004KT 6SM 27/21 RMK SLP134 T02740206 57004 IEM_DS3505
ZGOW,1999-04-16 06:00,ZGOW 160600Z AUTO 16006KT 11SM 28/21 RMK SLP108 T02780209 57026 IEM_DS3505
ZGOW,1999-04-16 08:00,ZGOW 160800Z AUTO 14008KT 6SM 26/21 A2980 RMK T02600210 IEM_DS3505
ZGOW,1999-04-16 09:00,ZGOW 160900Z AUTO 18002KT 9SM 26/21 RMK SLP092 T02620208 57016 IEM_DS3505
ZGOW,1999-04-16 12:00,ZGOW 161200Z AUTO 09002KT 7SM 24/20 RMK SLP103 T02380201 52011 IEM_DS3505
ZGOW,1999-04-16 15:00,ZGOW 161500Z AUTO 16002KT 7SM 24/21 RMK SLP112 T02380212 52009 IEM_DS3505
ZGOW,1999-04-16 18:00,ZGOW 161800Z AUTO 18002KT 6SM 24/22 RMK SLP093 T02410216 57019 IEM_DS3505
ZGOW,1999-04-16 21:00,ZGOW 162100Z AUTO 11002KT 5SM 24/22 RMK SLP085 T02410225 57008 IEM_DS3505
ZGOW,1999-04-17 00:00,ZGOW 170000Z AUTO 09002KT 2 1/2SM 24/22 RMK SLP100 T02440223 52015 IEM_DS3505
ZGOW,1999-04-17 03:00,ZGOW 170300Z AUTO 22006KT 6SM 28/23 RMK SLP094 T02780233 57006 IEM_DS3505
ZGOW,1999-04-17 06:00,ZGOW 170600Z AUTO 20008KT 7SM 29/23 RMK SLP068 T02930234 57026 IEM_DS3505
ZGOW,1999-04-17 09:00,ZGOW 170900Z AUTO 22012KT 11SM 30/24 RMK SLP050 T03000236 57018 IEM_DS3505
ZGOW,1999-04-17 12:00,ZGOW 171200Z AUTO 20006KT 8SM 27/24 RMK SLP061 T02690240 52011 IEM_DS3505
ZGOW,1999-04-17 15:00,ZGOW 171500Z AUTO 22004KT 8SM 26/24 RMK SLP069 T02640240 52008 IEM_DS3505
ZGOW,1999-04-17 18:00,ZGOW 171800Z AUTO 22008KT 7SM 27/24 RMK SLP064 T02660239 57005 IEM_DS3505
ZGOW,1999-04-17 21:00,ZGOW 172100Z AUTO 25006KT 6SM 26/24 RMK SLP060 T02650239 57004 IEM_DS3505
ZGOW,1999-04-18 00:00,ZGOW 180000Z AUTO 25012KT 11SM 28/24 RMK SLP080 T02760240 52020 IEM_DS3505
ZGOW,1999-04-18 03:00,ZGOW 180300Z AUTO 22012KT 19SM 30/25 RMK SLP085 T03050247 52005 IEM_DS3505
ZGOW,1999-04-18 06:00,ZGOW 180600Z AUTO 20012KT 16SM 32/24 RMK SLP060 T03200244 57025 IEM_DS3505
ZGOW,1999-04-18 09:00,ZGOW 180900Z AUTO 04008KT 12SM 28/23 RMK SLP064 T02780227 52004 IEM_DS3505
ZGOW,1999-04-18 12:00,ZGOW 181200Z AUTO 36002KT 11SM 28/24 RMK SLP073 T02750235 52009 IEM_DS3505
ZGOW,1999-04-18 15:00,ZGOW 181500Z AUTO 22006KT 7SM 27/24 RMK SLP080 T02660242 52007 IEM_DS3505
ZGOW,1999-04-18 18:00,ZGOW 181800Z AUTO 18004KT 7SM 26/24 RMK SLP079 T02640241 57001 IEM_DS3505
ZGOW,1999-04-18 21:00,ZGOW 182100Z AUTO 22004KT 7SM 26/24 RMK SLP080 T02620240 52001 IEM_DS3505
ZGOW,1999-04-19 00:00,ZGOW 190000Z AUTO 20006KT 9SM 27/24 RMK SLP090 T02700243 52010 IEM_DS3505
ZGOW,1999-04-19 03:00,ZGOW 190300Z AUTO 22006KT 9SM 28/24 RMK SLP100 T02810235 52010 IEM_DS3505
ZGOW,1999-04-19 06:00,ZGOW 190600Z AUTO 25006KT 11SM 28/24 RMK SLP089 T02760243 57011 IEM_DS3505
ZGOW,1999-04-19 09:00,ZGOW 190900Z AUTO 09006KT 12SM 24/21 RMK SLP080 T02380212 57009 IEM_DS3505
ZGOW,1999-04-19 12:00,ZGOW 191200Z AUTO 04010KT 9SM 22/19 RMK SLP102 T02170194 52022 IEM_DS3505
ZGOW,1999-04-19 15:00,ZGOW 191500Z AUTO 04006KT 9SM 22/20 RMK SLP124 T02150196 52022 IEM_DS3505
ZGOW,1999-04-19 18:00,ZGOW 191800Z AUTO 09008KT 8SM 21/19 RMK SLP122 T02100190 57002 IEM_DS3505
ZGOW,1999-04-19 21:00,ZGOW 192100Z AUTO 04006KT 9SM 21/18 RMK SLP130 T02080184 52008 IEM_DS3505
ZGOW,1999-04-20 00:00,ZGOW 200000Z AUTO 07008KT 11SM 21/18 RMK SLP145 T02070185 52015 IEM_DS3505
ZGOW,1999-04-20 03:00,ZGOW 200300Z AUTO 04010KT 9SM 22/18 RMK SLP154 T02160177 52009 IEM_DS3505
ZGOW,1999-04-20 06:00,ZGOW 200600Z AUTO 04006KT 12SM 22/18 RMK SLP134 T02190176 57020 IEM_DS3505
ZGOW,1999-04-20 09:00,ZGOW 200900Z AUTO 04002KT 11SM 23/18 RMK SLP128 T02290183 57006 IEM_DS3505
ZGOW,1999-04-20 12:00,ZGOW 201200Z AUTO 09006KT 9SM 22/17 RMK SLP144 T02220172 52016 IEM_DS3505
ZGOW,1999-04-20 15:00,ZGOW 201500Z AUTO 07004KT 9SM 22/16 RMK SLP155 T02160158 52011 IEM_DS3505
ZGOW,1999-04-20 18:00,ZGOW 201800Z AUTO 09002KT 8SM 22/15 RMK SLP148 T02160154 57007 IEM_DS3505
ZGOW,1999-04-20 21:00,ZGOW 202100Z AUTO 04004KT 7SM 21/12 RMK SLP138 T02130125 57010 IEM_DS3505
ZGOW,1999-04-21 00:00,ZGOW 210000Z AUTO 04006KT 11SM 22/13 RMK SLP147 T02200130 52009 IEM_DS3505
ZGOW,1999-04-21 03:00,ZGOW 210300Z AUTO 04006KT 11SM 24/16 RMK SLP142 T02400156 57005 IEM_DS3505
ZGOW,1999-04-21 06:00,ZGOW 210600Z AUTO 04006KT 10SM 25/17 RMK SLP122 T02520170 57020 IEM_DS3505
ZGOW,1999-04-21 09:00,ZGOW 210900Z AUTO 11006KT 9SM 25/18 RMK SLP107 T02520176 57015 IEM_DS3505
ZGOW,1999-04-21 12:00,ZGOW 211200Z AUTO 16002KT 7SM 23/19 RMK SLP113 T02290187 52006 IEM_DS3505
ZGOW,1999-04-21 15:00,ZGOW 211500Z AUTO 14002KT 7SM 23/20 RMK SLP117 T02290201 52004 IEM_DS3505
ZGOW,1999-04-21 18:00,ZGOW 211800Z AUTO 09006KT 4SM 21/20 RMK SLP104 T02110200 57013 IEM_DS3505
ZGOW,1999-04-21 21:00,ZGOW 212100Z AUTO 07002KT 2SM 21/20 RMK SLP107 T02070199 52003 IEM_DS3505
ZGOW,1999-04-22 00:00,ZGOW 220000Z AUTO 02002KT 1 1/4SM 22/20 RMK SLP118 T02230205 52011 IEM_DS3505
ZGOW,1999-04-22 03:00,ZGOW 220300Z AUTO 29004KT 2SM 26/21 RMK SLP109 T02630214 57009 IEM_DS3505
ZGOW,1999-04-22 06:00,ZGOW 220600Z AUTO 16004KT 9SM 29/22 RMK SLP082 T02900216 57027 IEM_DS3505
ZGOW,1999-04-22 09:00,ZGOW 220900Z AUTO 16006KT 7SM 27/22 RMK SLP062 T02740218 57020 IEM_DS3505
ZGOW,1999-04-22 12:00,ZGOW 221200Z AUTO 22004KT 7SM 25/22 RMK SLP067 T02470220 52005 IEM_DS3505
ZGOW,1999-04-22 15:00,ZGOW 221500Z AUTO 00000KT 6SM 24/22 RMK SLP077 T02430225 52010 IEM_DS3505
ZGOW,1999-04-22 18:00,ZGOW 221800Z AUTO 07002KT 5SM 24/22 RMK SLP072 T02360224 57005 IEM_DS3505
ZGOW,1999-04-22 21:00,ZGOW 222100Z AUTO 09004KT 2 1/2SM 23/22 RMK SLP077 T02300221 52005 IEM_DS3505
ZGOW,1999-04-23 00:00,ZGOW 230000Z AUTO 09006KT 1 1/4SM 23/22 RMK SLP094 T02340222 52017 IEM_DS3505
ZGOW,1999-04-23 03:00,ZGOW 230300Z AUTO 04004KT 2SM 23/21 RMK SLP100 T02300213 52006 IEM_DS3505
ZGOW,1999-04-23 06:00,ZGOW 230600Z AUTO 11004KT 4SM 25/21 RMK SLP078 T02530209 57022 IEM_DS3505
ZGOW,1999-04-23 09:00,ZGOW 230900Z AUTO 14006KT 8SM 24/20 RMK SLP067 T02420197 57011 IEM_DS3505
ZGOW,1999-04-23 12:00,ZGOW 231200Z AUTO 09006KT 7SM 23/20 RMK SLP079 T02340195 52012 IEM_DS3505
ZGOW,1999-04-23 15:00,ZGOW 231500Z AUTO 07004KT 7SM 23/20 RMK SLP092 T02300204 52013 IEM_DS3505
ZGOW,1999-04-23 18:00,ZGOW 231800Z AUTO 04004KT 6SM 22/20 RMK SLP092 T02190199 54000 IEM_DS3505
ZGOW,1999-04-23 21:00,ZGOW 232100Z AUTO 04006KT 6SM 22/19 RMK SLP090 T02190192 57002 IEM_DS3505
ZGOW,1999-04-24 00:00,ZGOW 240000Z AUTO 04008KT 5SM 23/19 RMK SLP102 T02260192 52012 IEM_DS3505
ZGOW,1999-04-24 03:00,ZGOW 240300Z AUTO 18006KT 5SM 24/20 RMK SLP105 T02420199 52003 IEM_DS3505
ZGOW,1999-04-24 06:00,ZGOW 240600Z AUTO 09004KT 6SM 24/19 RMK SLP086 T02430194 57019 IEM_DS3505
ZGOW,1999-04-24 09:00,ZGOW 240900Z AUTO 09004KT 7SM 24/20 RMK SLP072 T02410196 57014 IEM_DS3505
ZGOW,1999-04-24 12:00,ZGOW 241200Z AUTO 09004KT 7SM 23/20 RMK 60003 SLP084 T02330201 52012 IEM_DS3505
ZGOW,1999-04-24 15:00,ZGOW 241500Z AUTO 09004KT 6SM 23/20 RMK SLP092 T02280199 52008 IEM_DS3505
ZGOW,1999-04-24 18:00,ZGOW 241800Z AUTO 04004KT 6SM 22/20 RMK SLP084 T02230201 57008 IEM_DS3505
ZGOW,1999-04-24 21:00,ZGOW 242100Z AUTO 09004KT 4SM 22/21 RMK SLP072 T02220208 57012 IEM_DS3505
ZGOW,1999-04-25 00:00,ZGOW 250000Z AUTO 04008KT 3SM 23/21 RMK SLP089 T02300213 52017 IEM_DS3505
ZGOW,1999-04-25 03:00,ZGOW 250300Z AUTO 09004KT 3SM 25/22 RMK SLP090 T02480220 52001 IEM_DS3505
ZGOW,1999-04-25 06:00,ZGOW 250600Z AUTO 11006KT 5SM 26/22 RMK SLP075 T02630222 57015 IEM_DS3505
ZGOW,1999-04-25 09:00,ZGOW 250900Z AUTO 14006KT 4SM 26/22 RMK SLP064 T02590224 57011 IEM_DS3505
ZGOW,1999-04-25 12:00,ZGOW 251200Z AUTO 11004KT 5SM 25/22 RMK SLP080 T02470223 52016 IEM_DS3505
ZGOW,1999-04-25 15:00,ZGOW 251500Z AUTO 09004KT 5SM 25/23 RMK SLP092 T02480227 52012 IEM_DS3505
ZGOW,1999-04-25 18:00,ZGOW 251800Z AUTO 07004KT 4SM 24/22 RMK SLP088 T02380223 57004 IEM_DS3505
ZGOW,1999-04-25 21:00,ZGOW 252100Z AUTO 09006KT 2 1/2SM 23/22 RMK SLP088 T02340221 54000 IEM_DS3505
ZGOW,1999-04-26 00:00,ZGOW 260000Z AUTO 04008KT 4SM 23/21 RMK SLP110 T02300209 52022 IEM_DS3505
ZGOW,1999-04-26 03:00,ZGOW 260300Z AUTO 07008KT 6SM 24/20 RMK SLP114 T02380203 52004 IEM_DS3505
ZGOW,1999-04-26 06:00,ZGOW 260600Z AUTO 04006KT 8SM 25/20 RMK SLP095 T02460198 57019 IEM_DS3505
ZGOW,1999-04-26 08:00,ZGOW 260800Z AUTO 08016KT 7SM 23/20 A2980 RMK T02300200 IEM_DS3505
ZGOW,1999-04-26 09:00,ZGOW 260900Z AUTO 07008KT 12SM 23/19 A2980 RMK SLP093 T02320188 57002 IEM_DS3505
ZGOW,1999-04-26 12:00,ZGOW 261200Z AUTO 11008KT 10SM 22/18 RMK SLP111 T02230180 52018 IEM_DS3505
ZGOW,1999-04-26 15:00,ZGOW 261500Z AUTO 09006KT 9SM 22/18 RMK SLP132 T02170175 52021 IEM_DS3505
ZGOW,1999-04-26 18:00,ZGOW 261800Z AUTO 07004KT 7SM 21/17 RMK SLP122 T02100171 57010 IEM_DS3505
ZGOW,1999-04-26 21:00,ZGOW 262100Z AUTO 07008KT 8SM 21/15 RMK SLP119 T02120153 57003 IEM_DS3505
ZGOW,1999-04-27 00:00,ZGOW 270000Z AUTO 11006KT 10SM 22/17 RMK SLP133 T02190167 52014 IEM_DS3505
ZGOW,1999-04-27 03:00,ZGOW 270300Z AUTO 11006KT 11SM 26/16 RMK SLP138 T02570158 52005 IEM_DS3505
ZGOW,1999-04-27 06:00,ZGOW 270600Z AUTO 14006KT 12SM 27/17 RMK SLP114 T02690167 57024 IEM_DS3505
ZGOW,1999-04-27 09:00,ZGOW 270900Z AUTO 14004KT 12SM 25/16 RMK SLP109 T02470155 57005 IEM_DS3505
ZGOW,1999-04-27 12:00,ZGOW 271200Z AUTO 09004KT 9SM 24/14 RMK SLP130 T02390143 52021 IEM_DS3505
ZGOW,1999-04-27 15:00,ZGOW 271500Z AUTO 09004KT 9SM 23/14 RMK SLP143 T02340137 52013 IEM_DS3505
ZGOW,1999-04-27 18:00,ZGOW 271800Z AUTO 02004KT 7SM 22/19 RMK SLP133 T02160188 57010 IEM_DS3505
ZGOW,1999-04-27 21:00,ZGOW 272100Z AUTO 02004KT 7SM 21/19 RMK SLP132 T02140194 57001 IEM_DS3505
ZGOW,1999-04-28 00:00,ZGOW 280000Z AUTO 02006KT 14SM 22/18 RMK SLP143 T02180185 52011 IEM_DS3505
ZGOW,1999-04-28 03:00,ZGOW 280300Z AUTO 04008KT 12SM 25/17 RMK SLP150 T02470166 52007 IEM_DS3505
ZGOW,1999-04-28 06:00,ZGOW 280600Z AUTO 09006KT 11SM 26/13 RMK SLP129 T02570131 57021 IEM_DS3505
ZGOW,1999-04-28 09:00,ZGOW 280900Z AUTO 09004KT 8SM 24/16 RMK SLP122 T02420159 57007 IEM_DS3505
ZGOW,1999-04-28 12:00,ZGOW 281200Z AUTO 07010KT 6SM 22/16 RMK SLP141 T02180160 52019 IEM_DS3505
ZGOW,1999-04-28 15:00,ZGOW 281500Z AUTO 04012KT 6SM 21/16 RMK SLP158 T02060159 52017 IEM_DS3505
ZGOW,1999-04-28 21:00,ZGOW 282100Z AUTO 04006KT 6SM 20/14 RMK SLP144 T01960143 57001 IEM_DS3505
ZGOW,1999-04-29 00:00,ZGOW 290000Z AUTO 04010KT 9SM 20/13 RMK SLP153 T02010131 52009 IEM_DS3505
ZGOW,1999-04-29 03:00,ZGOW 290300Z AUTO 07006KT 6SM 20/13 RMK SLP161 T02020126 52008 IEM_DS3505
ZGOW,1999-04-29 09:00,ZGOW 290900Z AUTO 07012KT 6SM 16/12 RMK SLP146 T01570120 57008 IEM_DS3505
ZGOW,1999-04-29 12:00,ZGOW 291200Z AUTO 04012KT 12SM 18/10 RMK SLP144 T01840097 57002 IEM_DS3505
ZGOW,1999-04-29 15:00,ZGOW 291500Z AUTO 07006KT 11SM 18/12 RMK SLP158 T01790117 52014 IEM_DS3505
ZGOW,1999-04-29 18:00,ZGOW 291800Z AUTO 09002KT 11SM 18/11 RMK SLP146 T01770106 57012 IEM_DS3505
ZGOW,1999-04-29 21:00,ZGOW 292100Z AUTO 09004KT 9SM 17/10 RMK SLP141 T01720098 57005 IEM_DS3505
ZGOW,1999-04-30 00:00,ZGOW 300000Z AUTO 09002KT 9SM 18/10 RMK SLP152 T01840102 52011 IEM_DS3505
ZGOW,1999-04-30 03:00,ZGOW 300300Z AUTO 09004KT 9SM 21/13 RMK SLP153 T02070130 52001 IEM_DS3505
ZGOW,1999-04-30 06:00,ZGOW 300600Z AUTO 07008KT 7SM 20/18 RMK SLP137 T02040175 57016 IEM_DS3505
ZGOW,1999-04-30 09:00,ZGOW 300900Z AUTO 04010KT 7SM 20/18 RMK SLP126 T01950177 57011 IEM_DS3505
ZGOW,1999-04-30 12:00,ZGOW 301200Z AUTO 04008KT 6SM 20/18 RMK SLP131 T01950179 52005 IEM_DS3505
ZGOW,1999-04-30 15:00,ZGOW 301500Z AUTO 04008KT 7SM 19/18 RMK SLP143 T01940178 52012 IEM_DS3505
ZGOW,1999-04-30 18:00,ZGOW 301800Z AUTO 04008KT 6SM 19/18 RMK SLP131 T01890179 57012 IEM_DS3505
ZGOW,1999-04-30 21:00,ZGOW 302100Z AUTO 07008KT 6SM 19/18 RMK SLP127 T01880177 57004 IEM_DS3505
ZGOW,1999-05-01 00:00,ZGOW 010000Z AUTO 04006KT 3SM 19/18 RMK SLP143 T01900184 52016 IEM_DS3505
ZGOW,1999-05-01 03:00,ZGOW 010300Z AUTO 04006KT 2 1/2SM 20/19 RMK SLP139 T01990193 57004 IEM_DS3505
ZGOW,1999-05-01 06:00,ZGOW 010600Z AUTO 07008KT 3SM 21/20 RMK SLP125 T02060197 57014 IEM_DS3505
ZGOW,1999-05-01 09:00,ZGOW 010900Z AUTO 07006KT 6SM 20/20 RMK SLP117 T02050196 57008 IEM_DS3505
ZGOW,1999-05-01 12:00,ZGOW 011200Z AUTO 07010KT 8SM 21/19 RMK SLP122 T02100193 52005 IEM_DS3505
ZGOW,1999-05-01 15:00,ZGOW 011500Z AUTO 07006KT 6SM 21/19 RMK SLP124 T02110192 52002 IEM_DS3505
ZGOW,1999-05-01 18:00,ZGOW 011800Z AUTO 07010KT 6SM 21/19 RMK SLP102 T02100188 57022 IEM_DS3505
ZGOW,1999-05-01 21:00,ZGOW 012100Z AUTO 07008KT 7SM 20/19 RMK SLP100 T02050191 57002 IEM_DS3505
ZGOW,1999-05-02 00:00,ZGOW 020000Z AUTO 07010KT 12SM 21/19 RMK SLP116 T02070191 52016 IEM_DS3505
ZGOW,1999-05-02 03:00,ZGOW 020300Z AUTO 04016KT 10SM 21/20 RMK SLP125 T02100196 52009 IEM_DS3505
ZGOW,1999-05-02 06:00,ZGOW 020600Z AUTO 09012KT 9SM 21/20 RMK SLP115 T02110199 57010 IEM_DS3505
ZGOW,1999-05-02 09:00,ZGOW 020900Z AUTO 07016KT 9SM 21/19 RMK SLP098 T02130194 57017 IEM_DS3505
ZGOW,1999-05-02 12:00,ZGOW 021200Z AUTO 07014KT 7SM 21/19 RMK SLP107 T02080194 52009 IEM_DS3505
ZGOW,1999-05-02 15:00,ZGOW 021500Z AUTO 07012KT 8SM 21/20 RMK SLP117 T02080199 52010 IEM_DS3505
ZGOW,1999-05-02 18:00,ZGOW 021800Z AUTO 07004KT 5SM 21/20 RMK SLP107 T02080202 57010 IEM_DS3505
ZGOW,1999-05-02 21:00,ZGOW 022100Z AUTO 07006KT 6SM 21/20 RMK SLP104 T02080202 57003 IEM_DS3505
ZGOW,1999-05-03 00:00,ZGOW 030000Z AUTO 07004KT 8SM 22/21 RMK SLP115 T02150207 52011 IEM_DS3505
ZGOW,1999-05-03 03:00,ZGOW 030300Z AUTO 09002KT 6SM 23/22 RMK SLP112 T02320215 57003 IEM_DS3505
ZGOW,1999-05-03 06:00,ZGOW 030600Z AUTO 11006KT 5SM 23/22 RMK SLP097 T02260219 57015 IEM_DS3505
ZGOW,1999-05-03 09:00,ZGOW 030900Z AUTO 07004KT 5SM 23/22 RMK SLP082 T02340219 57015 IEM_DS3505
ZGOW,1999-05-03 12:00,ZGOW 031200Z AUTO 09004KT 5SM 23/22 RMK SLP092 T02280218 52010 IEM_DS3505
ZGOW,1999-05-03 15:00,ZGOW 031500Z AUTO 00000KT 4SM 22/21 RMK SLP097 T02230212 52005 IEM_DS3505
ZGOW,1999-05-03 18:00,ZGOW 031800Z AUTO 04002KT 3SM 22/21 RMK SLP090 T02200212 57007 IEM_DS3505
ZGOW,1999-05-03 21:00,ZGOW 032100Z AUTO 27004KT 1 1/4SM 22/22 RMK SLP090 T02240220 54000 IEM_DS3505
ZGOW,1999-05-04 00:00,ZGOW 040000Z AUTO 29004KT 4SM 24/22 RMK SLP102 T02400218 52012 IEM_DS3505
ZGOW,1999-05-04 03:00,ZGOW 040300Z AUTO 27008KT 4SM 27/23 RMK SLP102 T02740226 54000 IEM_DS3505
ZGOW,1999-05-04 06:00,ZGOW 040600Z AUTO 27008KT 8SM 31/22 RMK SLP081 T03080219 57021 IEM_DS3505
ZGOW,1999-05-04 09:00,ZGOW 040900Z AUTO 18004KT 8SM 29/24 RMK SLP064 T02940235 57017 IEM_DS3505
ZGOW,1999-05-04 12:00,ZGOW 041200Z AUTO 04004KT 9SM 27/21 RMK SLP088 T02690214 52024 IEM_DS3505
ZGOW,1999-05-04 15:00,ZGOW 041500Z AUTO 07012KT 6SM 22/20 RMK SLP116 T02200203 52028 IEM_DS3505
ZGOW,1999-05-04 18:00,ZGOW 041800Z AUTO 07012KT 7SM 21/18 RMK SLP115 T02060182 57001 IEM_DS3505
ZGOW,1999-05-04 21:00,ZGOW 042100Z AUTO 09012KT 9SM 21/17 RMK SLP116 T02060168 52001 IEM_DS3505
ZGOW,1999-05-05 00:00,ZGOW 050000Z AUTO 07006KT 5SM 20/17 RMK SLP134 T01980170 52018 IEM_DS3505
ZGOW,1999-05-05 03:00,ZGOW 050300Z AUTO 09006KT 4SM 19/18 RMK SLP145 T01870176 52011 IEM_DS3505
ZGOW,1999-05-05 06:00,ZGOW 050600Z AUTO 09010KT 5SM 19/16 RMK SLP133 T01910165 57012 IEM_DS3505
ZGOW,1999-05-05 09:00,ZGOW 050900Z AUTO 07006KT 7SM 19/17 RMK SLP128 T01940166 57005 IEM_DS3505
ZGOW,1999-05-05 12:00,ZGOW 051200Z AUTO 07006KT 5SM 18/16 RMK SLP138 T01770162 52010 IEM_DS3505
ZGOW,1999-05-05 15:00,ZGOW 051500Z AUTO 07004KT 6SM 19/14 RMK SLP146 T01920144 52008 IEM_DS3505
ZGOW,1999-05-05 21:00,ZGOW 052100Z AUTO 04002KT 5SM 18/17 RMK SLP127 T01850170 57007 IEM_DS3505
ZGOW,1999-05-06 00:00,ZGOW 060000Z AUTO 34002KT 4SM 19/17 RMK SLP140 T01940171 52013 IEM_DS3505
ZGOW,1999-05-06 03:00,ZGOW 060300Z AUTO 32002KT 4SM 22/18 RMK SLP137 T02150180 57003 IEM_DS3505
ZGOW,1999-05-06 06:00,ZGOW 060600Z AUTO 11004KT 11SM 25/11 RMK SLP114 T02460114 57023 IEM_DS3505
ZGOW,1999-05-06 09:00,ZGOW 060900Z AUTO 25004KT 9SM 23/12 RMK SLP112 T02290120 57002 IEM_DS3505
ZGOW,1999-05-06 12:00,ZGOW 061200Z AUTO 09004KT 6SM 21/12 RMK SLP129 T02130117 52017 IEM_DS3505
ZGOW,1999-05-06 15:00,ZGOW 061500Z AUTO 04004KT 7SM 21/13 RMK SLP132 T02060129 52003 IEM_DS3505
ZGOW,1999-05-06 18:00,ZGOW 061800Z AUTO 34002KT 7SM 19/14 RMK SLP119 T01940137 57013 IEM_DS3505
ZGOW,1999-05-06 21:00,ZGOW 062100Z AUTO 04004KT 6SM 18/14 RMK SLP116 T01830138 57003 IEM_DS3505
ZGOW,1999-05-07 00:00,ZGOW 070000Z AUTO 04006KT 9SM 19/14 RMK SLP128 T01910135 52012 IEM_DS3505
ZGOW,1999-05-07 03:00,ZGOW 070300Z AUTO 09004KT 9SM 23/13 RMK SLP128 T02330134 54000 IEM_DS3505
ZGOW,1999-05-07 06:00,ZGOW 070600Z AUTO 09006KT 9SM 25/16 RMK SLP114 T02460160 57014 IEM_DS3505
ZGOW,1999-05-07 09:00,ZGOW 070900Z AUTO 11006KT 11SM 24/15 RMK SLP109 T02400150 57005 IEM_DS3505
ZGOW,1999-05-07 12:00,ZGOW 071200Z AUTO 04004KT 10SM 22/18 RMK SLP124 T02220175 52015 IEM_DS3505
ZGOW,1999-05-07 15:00,ZGOW 071500Z AUTO 04004KT 10SM 21/17 RMK SLP136 T02110167 52012 IEM_DS3505
ZGOW,1999-05-07 18:00,ZGOW 071800Z AUTO 00000KT 9SM 20/17 RMK SLP124 T02040170 57012 IEM_DS3505
ZGOW,1999-05-07 21:00,ZGOW 072100Z AUTO 04004KT 4SM 20/17 RMK SLP121 T02010168 57003 IEM_DS3505
ZGOW,1999-05-08 00:00,ZGOW 080000Z AUTO 00000KT 4SM 21/18 RMK SLP133 T02140179 52012 IEM_DS3505
ZGOW,1999-05-08 03:00,ZGOW 080300Z AUTO 09008KT 6SM 24/15 RMK SLP127 T02410150 57006 IEM_DS3505
ZGOW,1999-05-08 06:00,ZGOW 080600Z AUTO 09004KT 6SM 23/18 RMK SLP117 T02330182 57010 IEM_DS3505
ZGOW,1999-05-08 09:00,ZGOW 080900Z AUTO 07006KT 5SM 23/17 RMK SLP110 T02300167 57007 IEM_DS3505
ZGOW,1999-05-08 12:00,ZGOW 081200Z AUTO 07006KT 5SM 22/19 RMK SLP115 T02210188 52005 IEM_DS3505
ZGOW,1999-05-08 15:00,ZGOW 081500Z AUTO 04002KT 6SM 20/17 RMK SLP120 T02010173 52005 IEM_DS3505
ZGOW,1999-05-08 18:00,ZGOW 081800Z AUTO 07006KT 4SM 20/18 RMK SLP094 T01950176 57026 IEM_DS3505
ZGOW,1999-05-08 21:00,ZGOW 082100Z AUTO 04004KT 4SM 18/17 RMK SLP096 T01800173 52002 IEM_DS3505
ZGOW,1999-05-09 00:00,ZGOW 090000Z AUTO 02004KT 5SM 18/17 RMK SLP106 T01830173 52010 IEM_DS3505
ZGOW,1999-05-09 03:00,ZGOW 090300Z AUTO 36004KT 9SM 19/17 RMK SLP117 T01900172 52011 IEM_DS3505
ZGOW,1999-05-09 06:00,ZGOW 090600Z AUTO 04006KT 7SM 19/17 RMK SLP104 T01920174 57013 IEM_DS3505
ZGOW,1999-05-09 09:00,ZGOW 090900Z AUTO 07004KT 5SM 19/18 RMK SLP106 T01900179 52002 IEM_DS3505
ZGOW,1999-05-09 12:00,ZGOW 091200Z AUTO 02002KT 6SM 19/18 RMK SLP119 T01910185 52013 IEM_DS3505
ZGOW,1999-05-09 15:00,ZGOW 091500Z AUTO 00000KT 6SM 19/18 RMK SLP119 T01880178 54000 IEM_DS3505
ZGOW,1999-05-09 21:00,ZGOW 092100Z AUTO 00000KT 4SM 18/18 RMK SLP116 T01820177 52014 IEM_DS3505
ZGOW,1999-05-10 00:00,ZGOW 100000Z AUTO 00000KT 3SM 20/19 RMK SLP130 T02050186 52014 IEM_DS3505
ZGOW,1999-05-10 03:00,ZGOW 100300Z AUTO 36004KT 7SM 24/18 RMK SLP129 T02370182 57001 IEM_DS3505
ZGOW,1999-05-10 06:00,ZGOW 100600Z AUTO 25006KT 7SM 26/18 RMK SLP110 T02600183 57019 IEM_DS3505
ZGOW,1999-05-10 09:00,ZGOW 100900Z AUTO 20004KT 11SM 25/18 RMK SLP104 T02470184 57006 IEM_DS3505
ZGOW,1999-05-10 12:00,ZGOW 101200Z AUTO 18004KT 9SM 22/18 RMK SLP116 T02230185 52012 IEM_DS3505
ZGOW,1999-05-10 15:00,ZGOW 101500Z AUTO 00000KT 9SM 21/19 RMK SLP133 T02120188 52017 IEM_DS3505
ZGOW,1999-05-10 21:00,ZGOW 102100Z AUTO 04004KT 1 1/4SM 20/19 RMK SLP124 T01970191 52001 IEM_DS3505
ZGOW,1999-05-11 00:00,ZGOW 110000Z AUTO 04004KT 2SM 22/19 RMK SLP142 T02200193 52018 IEM_DS3505
ZGOW,1999-05-11 03:00,ZGOW 110300Z AUTO 29002KT 3SM 25/19 RMK SLP141 T02530193 57001 IEM_DS3505
ZGOW,1999-05-11 06:00,ZGOW 110600Z AUTO 14008KT 7SM 25/18 RMK SLP128 T02520181 57013 IEM_DS3505
ZGOW,1999-05-11 09:00,ZGOW 110900Z AUTO 11006KT 7SM 24/19 RMK SLP121 T02430187 57007 IEM_DS3505
ZGOW,1999-05-11 12:00,ZGOW 111200Z AUTO 09004KT 7SM 23/18 RMK SLP133 T02290185 52012 IEM_DS3505
ZGOW,1999-05-11 15:00,ZGOW 111500Z AUTO 07006KT 6SM 22/19 RMK SLP152 T02190194 52019 IEM_DS3505
ZGOW,1999-05-11 18:00,ZGOW 111800Z AUTO 09008KT 7SM 21/19 RMK SLP142 T02120187 57010 IEM_DS3505
ZGOW,1999-05-11 21:00,ZGOW 112100Z AUTO 20002KT 7SM 21/19 RMK SLP145 T02060187 52003 IEM_DS3505
ZGOW,1999-05-12 00:00,ZGOW 120000Z AUTO 09006KT 7SM 23/18 RMK SLP158 T02260178 52013 IEM_DS3505
ZGOW,1999-05-12 03:00,ZGOW 120300Z AUTO 11006KT 11SM 25/17 RMK SLP154 T02480167 57004 IEM_DS3505
ZGOW,1999-05-12 06:00,ZGOW 120600Z AUTO 09004KT 11SM 26/18 RMK SLP132 T02650177 57022 IEM_DS3505
ZGOW,1999-05-12 09:00,ZGOW 120900Z AUTO 14004KT 9SM 24/18 RMK SLP120 T02390179 57012 IEM_DS3505
ZGOW,1999-05-12 12:00,ZGOW 121200Z AUTO 07004KT 6SM 23/19 RMK SLP136 T02300191 52016 IEM_DS3505
ZGOW,1999-05-12 15:00,ZGOW 121500Z AUTO 07002KT 6SM 23/20 RMK SLP145 T02260200 52009 IEM_DS3505
ZGOW,1999-05-12 18:00,ZGOW 121800Z AUTO 02002KT 5SM 22/20 RMK SLP130 T02160199 57015 IEM_DS3505
ZGOW,1999-05-12 21:00,ZGOW 122100Z AUTO 04004KT 4SM 21/20 RMK SLP130 T02080197 54000 IEM_DS3505
ZGOW,1999-05-13 00:00,ZGOW 130000Z AUTO 04004KT 4SM 22/20 RMK SLP147 T02240199 52017 IEM_DS3505
ZGOW,1999-05-13 03:00,ZGOW 130300Z AUTO 04004KT 6SM 26/20 RMK SLP141 T02590199 57006 IEM_DS3505
ZGOW,1999-05-13 06:00,ZGOW 130600Z AUTO 18004KT 6SM 26/19 RMK SLP126 T02600194 57015 IEM_DS3505
ZGOW,1999-05-13 09:00,ZGOW 130900Z AUTO 18002KT 7SM 25/19 RMK SLP110 T02510191 57016 IEM_DS3505
ZGOW,1999-05-13 12:00,ZGOW 131200Z AUTO 16004KT 5SM 24/21 RMK SLP125 T02360207 52015 IEM_DS3505
ZGOW,1999-05-13 15:00,ZGOW 131500Z AUTO 16002KT 6SM 23/21 RMK SLP137 T02330212 52012 IEM_DS3505
ZGOW,1999-05-13 18:00,ZGOW 131800Z AUTO 04004KT 4SM 23/22 RMK SLP121 T02270215 57016 IEM_DS3505
ZGOW,1999-05-13 21:00,ZGOW 132100Z AUTO 07002KT 3SM 22/21 RMK SLP115 T02220210 57006 IEM_DS3505
ZGOW,1999-05-14 03:00,ZGOW 140300Z AUTO 20006KT 6SM 26/20 RMK SLP134 T02550205 52006 IEM_DS3505
ZGOW,1999-05-14 06:00,ZGOW 140600Z AUTO 16004KT 6SM 26/18 RMK SLP119 T02580185 57015 IEM_DS3505
ZGOW,1999-05-14 09:00,ZGOW 140900Z AUTO 16004KT 7SM 26/18 RMK SLP108 T02560177 57011 IEM_DS3505
ZGOW,1999-05-14 12:00,ZGOW 141200Z AUTO 11002KT 7SM 24/19 RMK SLP119 T02420191 52011 IEM_DS3505
ZGOW,1999-05-14 15:00,ZGOW 141500Z AUTO 07002KT 7SM 24/21 RMK SLP129 T02380208 52010 IEM_DS3505
ZGOW,1999-05-14 18:00,ZGOW 141800Z AUTO 02002KT 5SM 23/21 RMK SLP118 T02320212 57011 IEM_DS3505
ZGOW,1999-05-14 21:00,ZGOW 142100Z AUTO 04002KT 3SM 22/21 RMK SLP118 T02200212 54000 IEM_DS3505
ZGOW,1999-05-15 00:00,ZGOW 150000Z AUTO 04002KT 4SM 23/20 RMK SLP130 T02300201 52012 IEM_DS3505
ZGOW,1999-05-15 03:00,ZGOW 150300Z AUTO 07006KT 5SM 25/20 RMK SLP126 T02510199 57004 IEM_DS3505
ZGOW,1999-05-15 06:00,ZGOW 150600Z AUTO 16006KT 9SM 26/19 RMK SLP110 T02630192 57016 IEM_DS3505
ZGOW,1999-05-15 09:00,ZGOW 150900Z AUTO 11006KT 10SM 26/18 RMK SLP090 T02560182 57020 IEM_DS3505
ZGOW,1999-05-15 12:00,ZGOW 151200Z AUTO 18004KT 9SM 24/20 RMK SLP102 T02400199 52012 IEM_DS3505
ZGOW,1999-05-15 15:00,ZGOW 151500Z AUTO 04002KT 7SM 24/21 RMK SLP113 T02380211 52011 IEM_DS3505
ZGOW,1999-05-15 18:00,ZGOW 151800Z AUTO 04002KT 6SM 23/21 RMK SLP098 T02340211 57015 IEM_DS3505
ZGOW,1999-05-15 21:00,ZGOW 152100Z AUTO 04004KT 4SM 23/21 RMK SLP094 T02320212 57004 IEM_DS3505
ZGOW,1999-05-16 00:00,ZGOW 160000Z AUTO 04004KT 2 1/2SM 24/22 RMK SLP102 T02350215 52008 IEM_DS3505
ZGOW,1999-05-16 03:00,ZGOW 160300Z AUTO 16002KT 3SM 26/23 RMK SLP102 T02650233 54000 IEM_DS3505
ZGOW,1999-05-16 06:00,ZGOW 160600Z AUTO 20006KT 6SM 28/23 RMK SLP079 T02840230 57023 IEM_DS3505
ZGOW,1999-05-16 09:00,ZGOW 160900Z AUTO 20008KT 6SM 28/24 RMK SLP060 T02780235 57019 IEM_DS3505
ZGOW,1999-05-16 12:00,ZGOW 161200Z AUTO 20006KT 6SM 26/24 RMK SLP070 T02610235 52010 IEM_DS3505
ZGOW,1999-05-16 15:00,ZGOW 161500Z AUTO 20006KT 6SM 26/24 RMK SLP083 T02580239 52013 IEM_DS3505
ZGOW,1999-05-16 18:00,ZGOW 161800Z AUTO 18004KT 7SM 26/24 RMK SLP073 T02580241 57010 IEM_DS3505
ZGOW,1999-05-16 21:00,ZGOW 162100Z AUTO 22006KT 7SM 26/24 RMK SLP067 T02580242 57006 IEM_DS3505
ZGOW,1999-05-17 00:00,ZGOW 170000Z AUTO 20006KT 12SM 27/24 RMK SLP080 T02740244 52013 IEM_DS3505
ZGOW,1999-05-17 03:00,ZGOW 170300Z AUTO 29004KT 9SM 26/25 RMK SLP075 T02560247 57005 IEM_DS3505
ZGOW,1999-05-17 06:00,ZGOW 170600Z AUTO 22010KT 16SM 31/24 RMK SLP056 T03080241 57019 IEM_DS3505
ZGOW,1999-05-17 09:00,ZGOW 170900Z AUTO 22014KT 14SM 30/24 RMK SLP044 T03050238 57012 IEM_DS3505
ZGOW,1999-05-17 12:00,ZGOW 171200Z AUTO 20008KT 12SM 28/23 RMK SLP058 T02760234 52014 IEM_DS3505
ZGOW,1999-05-17 15:00,ZGOW 171500Z AUTO 25010KT 11SM 27/24 RMK SLP071 T02690240 52013 IEM_DS3505
ZGOW,1999-05-17 18:00,ZGOW 171800Z AUTO 22008KT 11SM 27/24 RMK SLP050 T02680238 57021 IEM_DS3505
ZGOW,1999-05-17 21:00,ZGOW 172100Z AUTO 22008KT 11SM 27/24 RMK SLP056 T02660240 52006 IEM_DS3505
ZGOW,1999-05-18 00:00,ZGOW 180000Z AUTO 25008KT 19SM 29/24 RMK SLP067 T02880238 52011 IEM_DS3505
ZGOW,1999-05-18 03:00,ZGOW 180300Z AUTO 25012KT 19SM 32/24 RMK SLP065 T03160239 57002 IEM_DS3505
ZGOW,1999-05-18 06:00,ZGOW 180600Z AUTO 22016KT 19SM 32/24 RMK SLP044 T03230244 57021 IEM_DS3505
ZGOW,1999-05-18 09:00,ZGOW 180900Z AUTO 36004KT 11SM 25/24 RMK SLP066 T02460236 52022 IEM_DS3505
ZGOW,1999-05-18 12:00,ZGOW 181200Z AUTO 00000KT 9SM 24/22 RMK SLP080 T02440222 52014 IEM_DS3505
ZGOW,1999-05-18 15:00,ZGOW 181500Z AUTO 32002KT 10SM 24/22 RMK SLP091 T02440225 52011 IEM_DS3505
ZGOW,1999-05-18 18:00,ZGOW 181800Z AUTO 00000KT 7SM 24/23 RMK SLP090 T02400227 57001 IEM_DS3505
ZGOW,1999-05-18 21:00,ZGOW 182100Z AUTO 00000KT 7SM 24/23 RMK SLP092 T02380226 52002 IEM_DS3505
ZGOW,1999-05-19 00:00,ZGOW 190000Z AUTO 34004KT 9SM 26/22 RMK SLP107 T02550221 52015 IEM_DS3505
ZGOW,1999-05-19 03:00,ZGOW 190300Z AUTO 34008KT 7SM 24/21 RMK SLP117 T02440209 52010 IEM_DS3505
ZGOW,1999-05-19 06:00,ZGOW 190600Z AUTO 02004KT 7SM 25/22 RMK SLP122 T02500219 52005 IEM_DS3505
ZGOW,1999-05-19 09:00,ZGOW 190900Z AUTO 04006KT 6SM 24/21 RMK SLP126 T02390212 52004 IEM_DS3505
ZGOW,1999-05-19 12:00,ZGOW 191200Z AUTO 07008KT 7SM 23/22 RMK SLP141 T02340216 52015 IEM_DS3505
ZGOW,1999-05-19 15:00,ZGOW 191500Z AUTO 07006KT 9SM 23/20 RMK SLP153 T02290203 52012 IEM_DS3505
ZGOW,1999-05-19 18:00,ZGOW 191800Z AUTO 07004KT 9SM 22/20 RMK SLP142 T02220200 57011 IEM_DS3505
ZGOW,1999-05-19 21:00,ZGOW 192100Z AUTO 04004KT 9SM 22/19 RMK SLP153 T02210186 52011 IEM_DS3505
ZGOW,1999-05-20 00:00,ZGOW 200000Z AUTO 07004KT 10SM 23/19 RMK SLP170 T02300194 52017 IEM_DS3505
ZGOW,1999-05-20 03:00,ZGOW 200300Z AUTO 04012KT 11SM 25/18 RMK SLP167 T02490179 57003 IEM_DS3505
ZGOW,1999-05-20 06:00,ZGOW 200600Z AUTO 09008KT 11SM 26/20 RMK SLP153 T02640195 57014 IEM_DS3505
ZGOW,1999-05-20 09:00,ZGOW 200900Z AUTO 04006KT 9SM 26/19 RMK SLP140 T02560189 57013 IEM_DS3505
ZGOW,1999-05-20 12:00,ZGOW 201200Z AUTO 04006KT 8SM 24/19 RMK SLP154 T02450189 52014 IEM_DS3505
ZGOW,1999-05-20 15:00,ZGOW 201500Z AUTO 09006KT 8SM 24/19 RMK SLP163 T02380188 52009 IEM_DS3505
ZGOW,1999-05-20 18:00,ZGOW 201800Z AUTO 07008KT 6SM 23/19 RMK SLP150 T02300189 57013 IEM_DS3505
ZGOW,1999-05-20 21:00,ZGOW 202100Z AUTO 07006KT 6SM 23/19 RMK SLP151 T02280192 52001 IEM_DS3505
ZGOW,1999-05-21 00:00,ZGOW 210000Z AUTO 09006KT 7SM 24/21 RMK SLP159 T02390209 52008 IEM_DS3505
ZGOW,1999-05-21 03:00,ZGOW 210300Z AUTO 07006KT 7SM 26/17 RMK SLP156 T02600172 57003 IEM_DS3505
ZGOW,1999-05-21 06:00,ZGOW 210600Z AUTO 09006KT 11SM 28/15 RMK SLP142 T02820147 57014 IEM_DS3505
ZGOW,1999-05-21 08:00,ZGOW 210800Z AUTO 14006KT 6SM 27/20 A2991 RMK T02700200 IEM_DS3505
ZGOW,1999-05-21 09:00,ZGOW 210900Z AUTO 16004KT 9SM 26/19 RMK SLP126 T02650191 57016 IEM_DS3505
ZGOW,1999-05-21 12:00,ZGOW 211200Z AUTO 14004KT 8SM 24/20 RMK SLP135 T02450199 52009 IEM_DS3505
ZGOW,1999-05-21 15:00,ZGOW 211500Z AUTO 07002KT 7SM 24/21 RMK SLP152 T02440211 52017 IEM_DS3505
ZGOW,1999-05-21 18:00,ZGOW 211800Z AUTO 07006KT 6SM 24/21 RMK SLP129 T02370213 57023 IEM_DS3505
ZGOW,1999-05-21 21:00,ZGOW 212100Z AUTO 07004KT 6SM 23/21 RMK SLP120 T02330212 57009 IEM_DS3505
ZGOW,1999-05-22 00:00,ZGOW 220000Z AUTO 36002KT 14SM 26/20 RMK SLP132 T02560204 52012 IEM_DS3505
ZGOW,1999-05-22 03:00,ZGOW 220300Z AUTO 04006KT 11SM 28/20 RMK SLP121 T02820205 57011 IEM_DS3505
ZGOW,1999-05-22 06:00,ZGOW 220600Z AUTO 14002KT 11SM 28/22 RMK SLP108 T02850224 57013 IEM_DS3505
ZGOW,1999-05-22 09:00,ZGOW 220900Z AUTO 16006KT 11SM 28/22 RMK SLP094 T02750220 57014 IEM_DS3505
ZGOW,1999-05-22 12:00,ZGOW 221200Z AUTO 04002KT 7SM 26/23 RMK SLP109 T02580230 52015 IEM_DS3505
ZGOW,1999-05-22 15:00,ZGOW 221500Z AUTO 04004KT 6SM 25/24 RMK SLP107 T02530236 57002 IEM_DS3505
ZGOW,1999-05-22 18:00,ZGOW 221800Z AUTO 07004KT 6SM 25/24 RMK SLP094 T02540235 57013 IEM_DS3505
ZGOW,1999-05-22 21:00,ZGOW 222100Z AUTO 09002KT 5SM 26/24 RMK SLP089 T02550236 57005 IEM_DS3505
ZGOW,1999-05-23 00:00,ZGOW 230000Z AUTO 27004KT 4SM 26/24 RMK SLP103 T02650242 52014 IEM_DS3505
ZGOW,1999-05-23 03:00,ZGOW 230300Z AUTO 16004KT 9SM 29/25 RMK SLP097 T02900246 57006 IEM_DS3505
ZGOW,1999-05-23 06:00,ZGOW 230600Z AUTO 18010KT 12SM 30/25 RMK SLP081 T03040246 57016 IEM_DS3505
ZGOW,1999-05-23 09:00,ZGOW 230900Z AUTO 22010KT 16SM 32/23 RMK SLP062 T03160230 57019 IEM_DS3505
ZGOW,1999-05-23 12:00,ZGOW 231200Z AUTO 22004KT 11SM 28/24 RMK SLP075 T02780236 52013 IEM_DS3505
ZGOW,1999-05-23 15:00,ZGOW 231500Z AUTO 25004KT 9SM 27/24 RMK SLP086 T02680235 52011 IEM_DS3505
ZGOW,1999-05-23 21:00,ZGOW 232100Z AUTO 25006KT 9SM 26/24 RMK SLP071 T02650238 57010 IEM_DS3505
ZGOW,1999-05-24 00:00,ZGOW 240000Z AUTO 25008KT 14SM 28/24 RMK SLP080 T02800238 52009 IEM_DS3505
ZGOW,1999-05-24 03:00,ZGOW 240300Z AUTO 25010KT 16SM 31/24 RMK SLP077 T03120239 57003 IEM_DS3505
ZGOW,1999-05-24 09:00,ZGOW 240900Z AUTO 27010KT 19SM 30/24 RMK SLP045 T03030242 57009 IEM_DS3505
ZGOW,1999-05-24 12:00,ZGOW 241200Z AUTO 00000KT 16SM 28/23 RMK SLP069 T02750231 52024 IEM_DS3505
ZGOW,1999-05-24 15:00,ZGOW 241500Z AUTO 04002KT 12SM 27/24 RMK SLP079 T02680236 52010 IEM_DS3505
ZGOW,1999-05-24 18:00,ZGOW 241800Z AUTO 04004KT 9SM 27/24 RMK SLP068 T02680244 57011 IEM_DS3505
ZGOW,1999-05-24 21:00,ZGOW 242100Z AUTO 00000KT 7SM 26/24 RMK SLP063 T02650244 57005 IEM_DS3505
ZGOW,1999-05-25 00:00,ZGOW 250000Z AUTO 27004KT 8SM 27/25 RMK SLP076 T02700250 52013 IEM_DS3505
ZGOW,1999-05-25 03:00,ZGOW 250300Z AUTO 22008KT 11SM 30/24 RMK SLP069 T03010243 57007 IEM_DS3505
ZGOW,1999-05-25 06:00,ZGOW 250600Z AUTO 25014KT 16SM 31/24 RMK SLP060 T03130236 57009 IEM_DS3505
ZGOW,1999-05-25 09:00,ZGOW 250900Z AUTO 22010KT 16SM 29/24 RMK SLP054 T02900237 57006 IEM_DS3505
ZGOW,1999-05-25 12:00,ZGOW 251200Z AUTO 18006KT 12SM 28/24 RMK SLP070 T02800243 52016 IEM_DS3505
ZGOW,1999-05-25 15:00,ZGOW 251500Z AUTO 20006KT 12SM 27/25 RMK SLP083 T02720252 52013 IEM_DS3505
ZGOW,1999-05-25 18:00,ZGOW 251800Z AUTO 22006KT 11SM 27/25 RMK SLP069 T02710250 57014 IEM_DS3505
ZGOW,1999-05-25 21:00,ZGOW 252100Z AUTO 22006KT 10SM 27/25 RMK SLP067 T02710250 57002 IEM_DS3505
ZGOW,1999-05-26 00:00,ZGOW 260000Z AUTO 22006KT 12SM 28/25 RMK SLP077 T02820254 52010 IEM_DS3505
ZGOW,1999-05-26 03:00,ZGOW 260300Z AUTO 27010KT 16SM 27/25 RMK SLP076 T02740247 57001 IEM_DS3505
ZGOW,1999-05-26 06:00,ZGOW 260600Z AUTO 27010KT 12SM 28/24 RMK SLP077 T02760245 4////0251 52001 IEM_DS3505
ZGOW,1999-05-26 09:00,ZGOW 260900Z AUTO 22012KT 16SM 30/25 RMK SLP061 T02980249 57016 IEM_DS3505
ZGOW,1999-05-26 12:00,ZGOW 261200Z AUTO 25012KT 11SM 28/24 RMK SLP080 T02820240 52019 IEM_DS3505
ZGOW,1999-05-26 15:00,ZGOW 261500Z AUTO 34006KT 6SM 25/23 RMK SLP096 T02510226 52016 IEM_DS3505
ZGOW,1999-05-26 18:00,ZGOW 261800Z AUTO 32004KT 7SM 24/23 RMK SLP089 T02410232 57007 IEM_DS3505
ZGOW,1999-05-26 21:00,ZGOW 262100Z AUTO 29006KT 6SM 24/22 RMK SLP091 T02390221 52002 IEM_DS3505
ZGOW,1999-05-27 00:00,ZGOW 270000Z AUTO 02004KT 9SM 24/21 RMK SLP107 T02360212 52016 IEM_DS3505
ZGOW,1999-05-27 03:00,ZGOW 270300Z AUTO 36004KT 9SM 25/22 RMK SLP112 T02500216 52005 IEM_DS3505
ZGOW,1999-05-27 06:00,ZGOW 270600Z AUTO 04004KT 4SM 24/22 RMK SLP097 T02400224 57015 IEM_DS3505
ZGOW,1999-05-27 09:00,ZGOW 270900Z AUTO 36004KT 2 1/2SM 22/21 RMK SLP095 T02220211 57002 IEM_DS3505
ZGOW,1999-05-27 12:00,ZGOW 271200Z AUTO 02004KT 3SM 21/20 RMK SLP108 T02060201 52013 IEM_DS3505
ZGOW,1999-05-27 15:00,ZGOW 271500Z AUTO 02004KT 6SM 21/20 RMK SLP118 T02100204 52010 IEM_DS3505
ZGOW,1999-05-27 18:00,ZGOW 271800Z AUTO 04002KT 6SM 21/20 RMK SLP098 T02110202 57020 IEM_DS3505
ZGOW,1999-05-27 21:00,ZGOW 272100Z AUTO 04004KT 4SM 21/20 RMK SLP101 T02080202 52003 IEM_DS3505
ZGOW,1999-05-28 00:00,ZGOW 280000Z AUTO 04004KT 2 1/2SM 21/20 RMK SLP124 T02060198 52023 IEM_DS3505
ZGOW,1999-05-28 03:00,ZGOW 280300Z AUTO 04010KT 6SM 20/17 RMK SLP132 T02000172 52008 IEM_DS3505
ZGOW,1999-05-28 05:00,ZGOW 280500Z AUTO 06008KT 7SM 22/18 A2985 RMK T02200180 IEM_DS3505
ZGOW,1999-05-28 06:00,ZGOW 280600Z AUTO 11004KT 8SM 21/15 A2985 RMK SLP116 T02110154 57016 IEM_DS3505
ZGOW,1999-05-28 07:00,ZGOW 280700Z AUTO 07006KT 7SM 22/17 A2983 RMK T02200170 IEM_DS3505
ZGOW,1999-05-28 08:00,ZGOW 280800Z AUTO 08004KT 7SM 22/17 A2983 RMK T02200170 IEM_DS3505
ZGOW,1999-05-28 09:00,ZGOW 280900Z AUTO 04004KT 9SM 22/16 A2983 RMK SLP102 T02200155 57014 IEM_DS3505
ZGOW,1999-05-28 10:00,ZGOW 281000Z AUTO 00000KT 6SM 22/16 A2980 RMK T02200160 IEM_DS3505
ZGOW,1999-05-28 11:00,ZGOW 281100Z AUTO 00000KT 7SM 22/17 A2983 RMK T02200170 IEM_DS3505
ZGOW,1999-05-28 12:00,ZGOW 281200Z AUTO 00000KT 9SM 21/16 A2983 RMK SLP105 T02110165 52003 IEM_DS3505
ZGOW,1999-05-28 13:00,ZGOW 281300Z AUTO 31002KT 6SM 21/17 A2983 RMK T02100170 IEM_DS3505
ZGOW,1999-05-28 14:00,ZGOW 281400Z AUTO 32004KT 7SM 21/18 A2985 RMK T02100180 IEM_DS3505
ZGOW,1999-05-28 15:00,ZGOW 281500Z AUTO 00000KT 7SM 20/18 RMK SLP111 T02050179 52006 IEM_DS3505
ZGOW,1999-05-28 18:00,ZGOW 281800Z AUTO 00000KT 5SM 20/18 RMK SLP099 T02040182 57012 IEM_DS3505
ZGOW,1999-05-28 21:00,ZGOW 282100Z AUTO 33004KT 4SM 19/18 A2980 RMK T01900180 IEM_DS3505
ZGOW,1999-05-28 22:00,ZGOW 282200Z AUTO 32004KT 2 1/2SM 19/18 A2980 RMK T01900180 IEM_DS3505
ZGOW,1999-05-28 23:00,ZGOW 282300Z AUTO 34004KT 4SM 21/19 A2980 RMK T02100190 IEM_DS3505
ZGOW,1999-05-29 00:00,ZGOW 290000Z AUTO 04006KT 11SM 22/18 A2983 RMK SLP103 T02200184 52009 IEM_DS3505
ZGOW,1999-05-29 01:00,ZGOW 290100Z AUTO 02004KT 6SM 24/18 A2983 RMK T02400180 IEM_DS3505
ZGOW,1999-05-29 02:00,ZGOW 290200Z AUTO 08008KT 6SM 26/19 A2983 RMK T02600190 IEM_DS3505
ZGOW,1999-05-29 03:00,ZGOW 290300Z AUTO 07010KT 12SM 26/16 A2983 RMK SLP104 T02580159 52001 IEM_DS3505
ZGOW,1999-05-29 04:00,ZGOW 290400Z AUTO 09010KT 6SM 27/19 A2983 RMK T02700190 IEM_DS3505
ZGOW,1999-05-29 05:00,ZGOW 290500Z AUTO 08012KT 6SM 26/18 A2980 RMK T02600180 IEM_DS3505
ZGOW,1999-05-29 06:00,ZGOW 290600Z AUTO 11006KT 11SM 26/18 A2980 RMK SLP092 T02630185 57012 IEM_DS3505
ZGOW,1999-05-29 07:00,ZGOW 290700Z AUTO 12008KT 6SM 26/21 A2977 RMK T02600210 IEM_DS3505
ZGOW,1999-05-29 08:00,ZGOW 290800Z AUTO 08010KT 6SM 26/20 A2974 RMK T02600200 IEM_DS3505
ZGOW,1999-05-29 09:00,ZGOW 290900Z AUTO 14002KT 7SM 25/20 A2974 RMK SLP079 T02520195 57013 IEM_DS3505
ZGOW,1999-05-29 10:00,ZGOW 291000Z AUTO 11002KT 6SM 24/22 A2974 RMK T02400220 IEM_DS3505
ZGOW,1999-05-29 11:00,ZGOW 291100Z AUTO 10002KT 6SM 24/22 A2977 RMK T02400220 IEM_DS3505
ZGOW,1999-05-29 12:00,ZGOW 291200Z AUTO 11004KT 7SM 24/21 A2977 RMK SLP083 T02450214 52004 IEM_DS3505
ZGOW,1999-05-29 13:00,ZGOW 291300Z AUTO 08006KT 4SM 24/22 A2980 RMK T02400220 IEM_DS3505
ZGOW,1999-05-29 14:00,ZGOW 291400Z AUTO 08006KT 5SM 24/21 A2980 RMK T02400210 IEM_DS3505
ZGOW,1999-05-29 15:00,ZGOW 291500Z AUTO 04004KT 7SM 24/22 A2983 RMK SLP101 T02440216 52018 IEM_DS3505
ZGOW,1999-05-29 16:00,ZGOW 291600Z AUTO 08006KT 3SM 24/22 A2980 RMK T02400220 IEM_DS3505
ZGOW,1999-05-29 17:00,ZGOW 291700Z AUTO 04004KT 4SM 23/22 A2980 RMK T02300220 IEM_DS3505
ZGOW,1999-05-29 18:00,ZGOW 291800Z AUTO 04004KT 6SM 23/21 RMK SLP084 T02330212 57017 IEM_DS3505
ZGOW,1999-05-29 21:00,ZGOW 292100Z AUTO 04004KT 4SM 22/21 RMK SLP081 T02200209 57003 IEM_DS3505
ZGOW,1999-05-29 22:00,ZGOW 292200Z AUTO 05008KT 1 1/2SM 20/20 A2977 RMK T02000200 IEM_DS3505
ZGOW,1999-05-29 23:00,ZGOW 292300Z AUTO 02006KT 2 1/2SM 20/20 A2980 RMK T02000200 IEM_DS3505
ZGOW,1999-05-30 00:00,ZGOW 300000Z AUTO 04006KT 6SM 21/20 A2980 RMK SLP095 T02100198 52014 IEM_DS3505
ZGOW,1999-05-30 01:00,ZGOW 300100Z AUTO 35004KT 3SM 21/21 A2980 RMK T02100210 IEM_DS3505
ZGOW,1999-05-30 02:00,ZGOW 300200Z AUTO 36006KT 4SM 23/22 A2980 RMK T02300220 IEM_DS3505
ZGOW,1999-05-30 03:00,ZGOW 300300Z AUTO 04008KT 7SM 23/20 A2980 RMK SLP102 T02320205 52007 IEM_DS3505
ZGOW,1999-05-30 04:00,ZGOW 300400Z AUTO 05008KT 7SM RMK IEM_DS3505
ZGOW,1999-05-30 05:00,ZGOW 300500Z AUTO 04008KT 7SM 24/22 A2977 RMK T02400220 IEM_DS3505
ZGOW,1999-05-30 06:00,ZGOW 300600Z AUTO 07006KT 7SM 24/21 A2977 RMK SLP083 T02380212 57019 IEM_DS3505
ZGOW,1999-05-30 07:00,ZGOW 300700Z AUTO 04008KT 4SM RMK IEM_DS3505
ZGOW,1999-05-30 08:00,ZGOW 300800Z AUTO 04008KT 4SM RMK IEM_DS3505
ZGOW,1999-05-30 09:00,ZGOW 300900Z AUTO 04006KT 2 1/2SM 23/22 RMK SLP072 T02300223 57011 IEM_DS3505
ZGOW,1999-05-30 10:00,ZGOW 301000Z AUTO 05004KT 1 1/4SM RMK IEM_DS3505
ZGOW,1999-05-30 11:00,ZGOW 301100Z AUTO 05006KT 1 1/4SM RMK IEM_DS3505
ZGOW,1999-05-30 12:00,ZGOW 301200Z AUTO 04006KT 2 1/2SM 23/22 RMK SLP086 T02280221 52014 IEM_DS3505
ZGOW,1999-05-30 13:00,ZGOW 301300Z AUTO 05006KT 2 1/2SM RMK IEM_DS3505
ZGOW,1999-05-30 15:00,ZGOW 301500Z AUTO 04006KT 2 1/2SM 22/22 RMK SLP098 T02240220 52012 IEM_DS3505
ZGOW,1999-05-30 18:00,ZGOW 301800Z AUTO 04004KT 4SM 22/22 RMK SLP085 T02200215 57013 IEM_DS3505
ZGOW,1999-05-30 21:00,ZGOW 302100Z AUTO 04004KT 2SM 22/21 A2977 RMK SLP083 T02190214 57002 IEM_DS3505
ZGOW,1999-05-30 22:00,ZGOW 302200Z AUTO 05004KT 1SM RMK IEM_DS3505
ZGOW,1999-05-31 00:00,ZGOW 310000Z AUTO 04004KT 2SM 22/22 A2980 RMK SLP097 T02230217 52014 IEM_DS3505
ZGOW,1999-05-31 01:00,ZGOW 310100Z AUTO 02006KT 1 1/2SM 22/22 A2980 RMK T02200220 IEM_DS3505
ZGOW,1999-05-31 02:00,ZGOW 310200Z AUTO 02006KT 2 1/2SM 23/22 A2980 RMK T02300220 IEM_DS3505
ZGOW,1999-05-31 03:00,ZGOW 310300Z AUTO 07006KT 2 1/2SM 23/22 A2980 RMK SLP097 T02310222 54000 IEM_DS3505
ZGOW,1999-05-31 04:00,ZGOW 310400Z AUTO 03004KT 2 1/2SM 23/23 A2980 RMK T02300230 IEM_DS3505
ZGOW,1999-05-31 05:00,ZGOW 310500Z AUTO 05002KT 2SM 24/23 A2977 RMK T02400230 IEM_DS3505
ZGOW,1999-05-31 06:00,ZGOW 310600Z AUTO 04004KT 2 1/2SM 24/23 A2977 RMK SLP088 T02400227 57009 IEM_DS3505
ZGOW,1999-05-31 07:00,ZGOW 310700Z AUTO 07004KT 1 1/4SM 24/23 A2977 RMK T02400230 IEM_DS3505
ZGOW,1999-05-31 08:00,ZGOW 310800Z AUTO 06006KT 2SM 24/23 A2974 RMK T02400230 IEM_DS3505
ZGOW,1999-05-31 09:00,ZGOW 310900Z AUTO 05006KT 2 1/2SM 24/23 A2974 RMK SLP089 T02400230 57009 IEM_DS3505
ZGOW,1999-05-31 10:00,ZGOW 311000Z AUTO 07004KT 3SM 24/23 A2974 RMK T02400230 IEM_DS3505
ZGOW,1999-05-31 11:00,ZGOW 311100Z AUTO 06006KT 3SM 24/23 A2977 RMK T02400230 IEM_DS3505
ZGOW,1999-05-31 12:00,ZGOW 311200Z AUTO 07004KT 4SM 24/23 A2977 RMK SLP090 T02370227 52013 IEM_DS3505
ZGOW,1999-05-31 13:00,ZGOW 311300Z AUTO 07008KT 2 1/2SM 23/23 A2980 RMK T02300230 IEM_DS3505
ZGOW,1999-05-31 15:00,ZGOW 311500Z AUTO 07006KT 5SM 24/22 RMK SLP095 T02370225 52005 IEM_DS3505
ZGOW,1999-05-31 18:00,ZGOW 311800Z AUTO 04004KT 5SM 24/23 RMK SLP086 T02370227 57009 IEM_DS3505
ZGOW,1999-05-31 21:00,ZGOW 312100Z AUTO 02002KT 3SM 24/23 RMK SLP086 T02350226 54000 IEM_DS3505
ZGOW,1999-05-31 22:00,ZGOW 312200Z AUTO 31002KT 1SM 23/23 A2977 RMK T02300230 IEM_DS3505
ZGOW,1999-05-31 23:00,ZGOW 312300Z AUTO 32002KT 1 1/2SM 24/23 A2980 RMK T02400230 IEM_DS3505
ZGOW,1999-06-01 00:00,ZGOW 010000Z AUTO 04004KT 8SM 26/23 A2980 RMK SLP095 T02590228 52009 IEM_DS3505
ZGOW,1999-06-01 01:00,ZGOW 010100Z AUTO 00000KT 4SM 27/25 A2980 RMK T02700250 IEM_DS3505
ZGOW,1999-06-01 02:00,ZGOW 010200Z AUTO 21002KT 4SM 27/24 A2980 RMK T02700240 IEM_DS3505
ZGOW,1999-06-01 03:00,ZGOW 010300Z AUTO 20004KT 4SM 28/23 A2977 RMK SLP085 T02820234 57010 IEM_DS3505
ZGOW,1999-06-01 04:00,ZGOW 010400Z AUTO 15006KT 4SM 29/26 A2977 RMK T02900260 IEM_DS3505
ZGOW,1999-06-01 05:00,ZGOW 010500Z AUTO 16006KT 6SM 29/26 A2974 RMK T02900260 IEM_DS3505
ZGOW,1999-06-01 06:00,ZGOW 010600Z AUTO 14006KT 5SM 29/24 A2974 RMK SLP070 T02870243 57015 IEM_DS3505
ZGOW,1999-06-01 07:00,ZGOW 010700Z AUTO 14008KT 6SM 29/25 A2971 RMK T02900250 IEM_DS3505
ZGOW,1999-06-01 08:00,ZGOW 010800Z AUTO 15008KT 6SM 28/25 A2968 RMK T02800250 IEM_DS3505
ZGOW,1999-06-01 09:00,ZGOW 010900Z AUTO 16006KT 7SM 28/24 A2968 RMK SLP055 T02850236 57015 IEM_DS3505
ZGOW,1999-06-01 10:00,ZGOW 011000Z AUTO 16006KT 6SM 27/25 A2968 RMK T02700250 IEM_DS3505
ZGOW,1999-06-01 11:00,ZGOW 011100Z AUTO 16004KT 6SM 26/25 A2968 RMK T02600250 IEM_DS3505
ZGOW,1999-06-01 12:00,ZGOW 011200Z AUTO 20006KT 9SM 26/24 A2971 RMK SLP066 T02620237 52011 IEM_DS3505
ZGOW,1999-06-01 13:00,ZGOW 011300Z AUTO 19002KT 4SM 26/25 A2971 RMK T02600250 IEM_DS3505
ZGOW,1999-06-01 15:00,ZGOW 011500Z AUTO 00000KT 7SM 26/24 RMK SLP079 T02570240 52013 IEM_DS3505
ZGOW,1999-06-01 18:00,ZGOW 011800Z AUTO 00000KT 4SM 25/24 RMK SLP065 T02510241 57014 IEM_DS3505
ZGOW,1999-06-01 21:00,ZGOW 012100Z AUTO 29002KT 2SM 25/24 A2971 RMK SLP066 T02520245 52001 IEM_DS3505
ZGOW,1999-06-01 22:00,ZGOW 012200Z AUTO 35002KT 3/8SM 24/24 A2971 RMK T02400240 IEM_DS3505
ZGOW,1999-06-01 23:00,ZGOW 012300Z AUTO 00000KT 1SM 25/25 A2974 RMK T02500250 IEM_DS3505
ZGOW,1999-06-02 00:00,ZGOW 020000Z AUTO 00000KT 2SM 27/25 A2974 RMK SLP076 T02660247 52010 IEM_DS3505
ZGOW,1999-06-02 01:00,ZGOW 020100Z AUTO 29002KT 1 1/2SM 28/26 A2974 RMK T02800260 IEM_DS3505
ZGOW,1999-06-02 02:00,ZGOW 020200Z AUTO 29004KT 1 1/2SM 29/26 A2971 RMK T02900260 IEM_DS3505
ZGOW,1999-06-02 03:00,ZGOW 020300Z AUTO 22006KT 3SM 30/25 A2971 RMK SLP065 T03040249 57011 IEM_DS3505
ZGOW,1999-06-02 04:00,ZGOW 020400Z AUTO 14008KT 1 1/2SM 31/27 A2968 RMK T03100270 IEM_DS3505
ZGOW,1999-06-02 05:00,ZGOW 020500Z AUTO 17008KT 2 1/2SM 31/27 A2968 RMK T03100270 IEM_DS3505
ZGOW,1999-06-02 06:00,ZGOW 020600Z AUTO 20010KT 4SM 31/26 A2965 RMK SLP048 T03130259 57017 IEM_DS3505
ZGOW,1999-06-02 07:00,ZGOW 020700Z AUTO 15010KT 6SM 31/27 A2965 RMK T03100270 IEM_DS3505
ZGOW,1999-06-02 08:00,ZGOW 020800Z AUTO 18008KT 6SM 31/26 A2965 RMK T03100260 IEM_DS3505
ZGOW,1999-06-02 09:00,ZGOW 020900Z AUTO 18006KT 7SM 31/25 A2962 RMK SLP040 T03060254 57008 IEM_DS3505
ZGOW,1999-06-02 10:00,ZGOW 021000Z AUTO 18006KT 6SM 29/26 A2965 RMK T02900260 IEM_DS3505
ZGOW,1999-06-02 11:00,ZGOW 021100Z AUTO 13002KT 6SM 28/26 A2965 RMK T02800260 IEM_DS3505
ZGOW,1999-06-02 12:00,ZGOW 021200Z AUTO 11004KT 8SM 29/25 A2968 RMK SLP053 T02880250 52013 IEM_DS3505
ZGOW,1999-06-02 13:00,ZGOW 021300Z AUTO 13004KT 3SM 27/26 A2971 RMK T02700260 IEM_DS3505
ZGOW,1999-06-02 15:00,ZGOW 021500Z AUTO 16002KT 7SM 27/26 RMK SLP064 T02730255 52011 IEM_DS3505
ZGOW,1999-06-02 18:00,ZGOW 021800Z AUTO 09002KT 7SM 27/25 RMK SLP057 T02680252 57007 IEM_DS3505
ZGOW,1999-06-02 21:00,ZGOW 022100Z AUTO 07004KT 7SM 27/25 RMK SLP058 T02670251 52001 IEM_DS3505
ZGOW,1999-06-02 22:00,ZGOW 022200Z AUTO 08004KT 2SM 26/25 A2971 RMK T02600250 IEM_DS3505
ZGOW,1999-06-02 23:00,ZGOW 022300Z AUTO 08006KT 4SM 26/26 A2971 RMK T02600260 IEM_DS3505
ZGOW,1999-06-03 00:00,ZGOW 030000Z AUTO 09006KT 9SM 28/24 A2971 RMK SLP065 T02800244 52007 IEM_DS3505
ZGOW,1999-06-03 01:00,ZGOW 030100Z AUTO 08008KT 7SM 28/25 A2974 RMK T02800250 IEM_DS3505
ZGOW,1999-06-03 02:00,ZGOW 030200Z AUTO 13004KT 7SM 28/26 A2974 RMK T02800260 IEM_DS3505
ZGOW,1999-06-03 03:00,ZGOW 030300Z AUTO 09006KT 7SM 30/25 A2974 RMK SLP072 T03000249 52007 IEM_DS3505
ZGOW,1999-06-03 04:00,ZGOW 030400Z AUTO 13006KT 7SM 30/26 A2974 RMK T03000260 IEM_DS3505
ZGOW,1999-06-03 06:00,ZGOW 030600Z AUTO 16004KT 9SM 31/25 RMK SLP055 T03080250 57017 IEM_DS3505
ZGOW,1999-06-03 07:00,ZGOW 030700Z AUTO 13008KT 7SM 30/26 A2968 RMK T03000260 IEM_DS3505
ZGOW,1999-06-03 08:00,ZGOW 030800Z AUTO 13008KT 6SM 29/26 A2965 RMK T02900260 IEM_DS3505
ZGOW,1999-06-03 09:00,ZGOW 030900Z AUTO 18006KT 9SM 29/25 A2965 RMK SLP040 T02920247 57015 IEM_DS3505
ZGOW,1999-06-03 10:00,ZGOW 031000Z AUTO 13006KT 6SM 28/25 A2965 RMK T02800250 IEM_DS3505
ZGOW,1999-06-03 11:00,ZGOW 031100Z AUTO 13004KT 3SM 27/25 A2968 RMK T02700250 IEM_DS3505
ZGOW,1999-06-03 12:00,ZGOW 031200Z AUTO 11002KT 7SM 27/25 A2971 RMK SLP061 T02740246 52021 IEM_DS3505
ZGOW,1999-06-03 13:00,ZGOW 031300Z AUTO 12002KT 2 1/2SM 26/25 A2971 RMK T02600250 IEM_DS3505
ZGOW,1999-06-03 14:00,ZGOW 031400Z AUTO 10002KT 3SM 26/25 A2974 RMK T02600250 IEM_DS3505
ZGOW,1999-06-03 15:00,ZGOW 031500Z AUTO 07004KT 7SM 27/24 A2974 RMK SLP075 T02700240 52014 IEM_DS3505
ZGOW,1999-06-03 18:00,ZGOW 031800Z AUTO 09004KT 6SM 26/24 RMK SLP059 T02640243 57016 IEM_DS3505
ZGOW,1999-06-03 21:00,ZGOW 032100Z AUTO 07006KT 5SM 26/24 RMK SLP063 T02640240 52004 IEM_DS3505
ZGOW,1999-06-03 22:00,ZGOW 032200Z AUTO 05002KT 3SM 26/25 A2971 RMK T02600250 IEM_DS3505
ZGOW,1999-06-03 23:00,ZGOW 032300Z AUTO 08006KT 7SM 27/25 A2971 RMK T02700250 IEM_DS3505
ZGOW,1999-06-04 00:00,ZGOW 040000Z AUTO 04004KT 7SM 28/24 A2971 RMK SLP069 T02840241 52006 IEM_DS3505
ZGOW,1999-06-04 01:00,ZGOW 040100Z AUTO 08010KT 7SM 29/24 A2974 RMK T02900240 IEM_DS3505
ZGOW,1999-06-04 02:00,ZGOW 040200Z AUTO 08010KT 7SM 29/25 A2971 RMK T02900250 IEM_DS3505
ZGOW,1999-06-04 03:00,ZGOW 040300Z AUTO 09008KT 8SM 30/23 A2971 RMK SLP065 T02980230 57004 IEM_DS3505
ZGOW,1999-06-04 04:00,ZGOW 040400Z AUTO 10006KT 7SM 30/25 A2971 RMK T03000250 IEM_DS3505
ZGOW,1999-06-04 05:00,ZGOW 040500Z AUTO 11006KT 7SM 31/25 A2968 RMK T03100250 IEM_DS3505
ZGOW,1999-06-04 06:00,ZGOW 040600Z AUTO 18008KT 9SM 30/24 A2965 RMK SLP047 T03010238 57018 IEM_DS3505
ZGOW,1999-06-04 07:00,ZGOW 040700Z AUTO 13010KT 4SM 29/25 A2965 RMK T02900250 IEM_DS3505
ZGOW,1999-06-04 08:00,ZGOW 040800Z AUTO 12010KT 4SM 29/25 A2962 RMK T02900250 IEM_DS3505
ZGOW,1999-06-04 10:00,ZGOW 041000Z AUTO 08010KT 4SM 28/23 A2962 RMK T02800230 IEM_DS3505
ZGOW,1999-06-04 11:00,ZGOW 041100Z AUTO 09010KT 3SM 27/22 A2965 RMK T02700220 IEM_DS3505
ZGOW,1999-06-04 12:00,ZGOW 041200Z AUTO 09004KT 5SM 28/22 A2965 RMK SLP052 T02750219 52020 IEM_DS3505
ZGOW,1999-06-04 13:00,ZGOW 041300Z AUTO 09006KT 2 1/2SM 26/23 A2968 RMK T02600230 IEM_DS3505
ZGOW,1999-06-04 14:00,ZGOW 041400Z AUTO 07008KT 2 1/2SM 26/23 A2968 RMK T02600230 IEM_DS3505
ZGOW,1999-06-04 15:00,ZGOW 041500Z AUTO 07008KT 5SM 27/22 RMK SLP058 T02660217 52006 IEM_DS3505
ZGOW,1999-06-04 18:00,ZGOW 041800Z AUTO 09006KT 5SM 26/23 RMK SLP041 T02560228 57017 IEM_DS3505
ZGOW,1999-06-04 21:00,ZGOW 042100Z AUTO 09004KT 5SM 26/23 A2962 RMK SLP041 T02560228 54000 IEM_DS3505
ZGOW,1999-06-04 22:00,ZGOW 042200Z AUTO 09004KT 4SM 25/23 A2962 RMK T02500230 IEM_DS3505
ZGOW,1999-06-04 23:00,ZGOW 042300Z AUTO 09008KT 4SM 25/23 A2965 RMK T02500230 IEM_DS3505
ZGOW,1999-06-05 00:00,ZGOW 050000Z AUTO 09006KT 5SM 25/20 A2965 RMK SLP045 T02530205 52004 IEM_DS3505
ZGOW,1999-06-05 01:00,ZGOW 050100Z AUTO 08012KT 7SM 25/21 A2965 RMK T02500210 IEM_DS3505
ZGOW,1999-06-05 02:00,ZGOW 050200Z AUTO 08010KT 7SM 26/21 A2962 RMK T02600210 IEM_DS3505
ZGOW,1999-06-05 03:00,ZGOW 050300Z AUTO 07006KT 6SM 27/21 A2962 RMK SLP033 T02660207 57012 IEM_DS3505
ZGOW,1999-06-05 04:00,ZGOW 050400Z AUTO 09012KT 7SM 27/22 A2959 RMK T02700220 IEM_DS3505
ZGOW,1999-06-05 05:00,ZGOW 050500Z AUTO 09010KT 7SM 28/22 A2956 RMK T02800220 IEM_DS3505
ZGOW,1999-06-05 06:00,ZGOW 050600Z AUTO 07006KT 8SM 29/21 A2956 RMK SLP013 T02900213 57020 IEM_DS3505
ZGOW,1999-06-05 07:00,ZGOW 050700Z AUTO 10006KT 6SM 29/22 A2953 RMK T02900220 IEM_DS3505
ZGOW,1999-06-05 08:00,ZGOW 050800Z AUTO 12004KT 7SM 28/22 A2950 RMK T02800220 IEM_DS3505
ZGOW,1999-06-05 09:00,ZGOW 050900Z AUTO 18004KT 6SM 28/21 A2950 RMK SLP992 T02820211 57021 IEM_DS3505
ZGOW,1999-06-05 10:00,ZGOW 051000Z AUTO 12006KT 6SM 27/23 A2947 RMK T02700230 IEM_DS3505
ZGOW,1999-06-05 11:00,ZGOW 051100Z AUTO 00000KT 6SM 27/22 A2950 RMK T02700220 IEM_DS3505
ZGOW,1999-06-05 12:00,ZGOW 051200Z AUTO 29002KT 6SM 27/22 A2950 RMK SLP995 T02690216 52003 IEM_DS3505
ZGOW,1999-06-05 13:00,ZGOW 051300Z AUTO 31002KT 4SM 26/22 A2950 RMK T02600220 IEM_DS3505
ZGOW,1999-06-05 15:00,ZGOW 051500Z AUTO 29004KT 6SM 26/22 RMK SLP992 T02580221 57003 IEM_DS3505
ZGOW,1999-06-05 18:00,ZGOW 051800Z AUTO 27006KT 5SM 25/23 RMK SLP968 T02540228 57024 IEM_DS3505
ZGOW,1999-06-05 21:00,ZGOW 052100Z AUTO 07002KT 7SM 28/19 RMK SLP950 T02780191 57018 IEM_DS3505
ZGOW,1999-06-05 22:00,ZGOW 052200Z AUTO 32006KT 6SM 26/22 A2935 RMK T02600220 IEM_DS3505
ZGOW,1999-06-05 23:00,ZGOW 052300Z AUTO 31008KT 7SM 27/21 A2932 RMK T02700210 IEM_DS3505
ZGOW,1999-06-06 00:00,ZGOW 060000Z AUTO 34006KT 11SM 29/19 A2932 RMK SLP940 T02890193 57010 IEM_DS3505
ZGOW,1999-06-06 01:00,ZGOW 060100Z AUTO 32010KT 7SM 27/22 A2932 RMK T02700220 IEM_DS3505
ZGOW,1999-06-06 02:00,ZGOW 060200Z AUTO 32010KT 6SM 28/23 A2932 RMK T02800230 IEM_DS3505
ZGOW,1999-06-06 03:00,ZGOW 060300Z AUTO 34004KT 11SM 30/21 RMK SLP934 T03040213 57006 IEM_DS3505
ZGOW,1999-06-06 04:00,ZGOW 060400Z AUTO 32008KT 6SM 30/24 A2929 RMK T03000240 IEM_DS3505
ZGOW,1999-06-06 05:00,ZGOW 060500Z AUTO 33006KT 6SM 30/24 A2926 RMK T03000240 IEM_DS3505
ZGOW,1999-06-06 06:00,ZGOW 060600Z AUTO 02006KT 12SM 31/23 A2923 RMK SLP908 T03070226 57026 IEM_DS3505
ZGOW,1999-06-06 07:00,ZGOW 060700Z AUTO 04008KT 12SM 30/23 A2923 RMK SLP900 T03040234 57024 IEM_DS3505
ZGOW,1999-06-06 08:00,ZGOW 060800Z AUTO 04014G29KT 14SM 31/23 A2921 RMK SLP895 T03080231 57024 IEM_DS3505
ZGOW,1999-06-06 09:00,ZGOW 060900Z AUTO 04012G33KT 11SM 28/24 A2921 RMK SLP891 T02750245 57017 IEM_DS3505
ZGOW,1999-06-06 10:00,ZGOW 061000Z AUTO 04029G52KT 2SM 26/25 A2918 RMK T02600250 IEM_DS3505
ZGOW,1999-06-06 11:00,ZGOW 061100Z AUTO 04023G52KT 5SM 26/24 A2918 RMK SLP882 T02570244 57013 IEM_DS3505
ZGOW,1999-06-06 12:00,ZGOW 061200Z AUTO 07025G64KT 5SM 26/24 A2921 RMK SLP892 T02620238 52001 IEM_DS3505
ZGOW,1999-06-06 13:00,ZGOW 061300Z AUTO 07017KT 4SM 25/24 RMK SLP916 T02500243 52033 IEM_DS3505
ZGOW,1999-06-06 14:00,ZGOW 061400Z AUTO 04012KT 6SM 25/24 RMK SLP934 T02530244 52052 IEM_DS3505
ZGOW,1999-06-06 15:00,ZGOW 061500Z AUTO 07010KT 6SM 26/25 RMK SLP952 T02560246 52060 IEM_DS3505
ZGOW,1999-06-06 18:00,ZGOW 061800Z AUTO 11006KT 4SM 25/25 RMK SLP938 T02510247 40311//// 57014 IEM_DS3505
ZGOW,1999-06-06 21:00,ZGOW 062100Z AUTO 11004KT 4SM 26/25 RMK SLP934 T02550249 57004 IEM_DS3505
ZGOW,1999-06-06 22:00,ZGOW 062200Z AUTO 18002KT 7SM 24/24 A2935 RMK T02400240 IEM_DS3505
ZGOW,1999-06-06 23:00,ZGOW 062300Z AUTO 12004KT 7SM 25/24 A2941 RMK T02500240 IEM_DS3505
ZGOW,1999-06-07 00:00,ZGOW 070000Z AUTO 11004KT 8SM 25/24 A2944 RMK SLP977 T02540245 52043 IEM_DS3505
ZGOW,1999-06-07 01:00,ZGOW 070100Z AUTO 14008KT 4SM 26/25 A2947 RMK T02600250 IEM_DS3505
ZGOW,1999-06-07 02:00,ZGOW 070200Z AUTO 12012KT 4SM 27/26 A2947 RMK T02700260 IEM_DS3505
ZGOW,1999-06-07 03:00,ZGOW 070300Z AUTO 14010KT 7SM 27/25 A2947 RMK SLP986 T02740250 52009 IEM_DS3505
ZGOW,1999-06-07 04:00,ZGOW 070400Z AUTO 11016KT 3SM 27/26 A2947 RMK T02700260 IEM_DS3505
ZGOW,1999-06-07 05:00,ZGOW 070500Z AUTO 13014KT 2SM 26/26 A2947 RMK T02600260 IEM_DS3505
ZGOW,1999-06-07 06:00,ZGOW 070600Z AUTO 16008KT 7SM 27/25 A2947 RMK SLP986 T02660252 54000 IEM_DS3505
ZGOW,1999-06-07 07:00,ZGOW 070700Z AUTO 17016KT 2SM 26/25 A2950 RMK T02600250 IEM_DS3505
ZGOW,1999-06-07 08:00,ZGOW 070800Z AUTO 15012KT 3SM 26/25 A2947 RMK T02600250 IEM_DS3505
ZGOW,1999-06-07 09:00,ZGOW 070900Z AUTO 16006KT 9SM 27/25 A2950 RMK SLP989 T02660248 52003 IEM_DS3505
ZGOW,1999-06-07 10:00,ZGOW 071000Z AUTO 14014KT 4SM 26/25 A2950 RMK T02600250 IEM_DS3505
ZGOW,1999-06-07 11:00,ZGOW 071100Z AUTO 14010KT 7SM 26/25 A2953 RMK T02600250 IEM_DS3505
ZGOW,1999-06-07 12:00,ZGOW 071200Z AUTO 11008KT 8SM 26/24 A2956 RMK SLP014 T02630243 52025 IEM_DS3505
ZGOW,1999-06-07 13:00,ZGOW 071300Z AUTO 12012KT 7SM 26/25 A2959 RMK T02600250 IEM_DS3505
ZGOW,1999-06-07 15:00,ZGOW 071500Z AUTO 16004KT 7SM 26/25 RMK SLP035 T02640247 52021 IEM_DS3505
ZGOW,1999-06-07 18:00,ZGOW 071800Z AUTO 11004KT 7SM 26/24 RMK SLP031 T02580244 57004 IEM_DS3505
ZGOW,1999-06-07 21:00,ZGOW 072100Z AUTO 18008KT 7SM 25/23 RMK SLP032 T02540229 52001 IEM_DS3505
ZGOW,1999-06-07 22:00,ZGOW 072200Z AUTO 18008KT 7SM 24/23 A2962 RMK T02400230 IEM_DS3505
ZGOW,1999-06-07 23:00,ZGOW 072300Z AUTO 16006KT 7SM 25/25 A2965 RMK T02500250 IEM_DS3505
ZGOW,1999-06-08 00:00,ZGOW 080000Z AUTO 18006KT 12SM 26/24 A2968 RMK SLP052 T02650242 52020 IEM_DS3505
ZGOW,1999-06-08 01:00,ZGOW 080100Z AUTO 18010KT 7SM 27/26 A2968 RMK T02700260 IEM_DS3505
ZGOW,1999-06-08 02:00,ZGOW 080200Z AUTO 16010KT 7SM 28/26 A2971 RMK T02800260 IEM_DS3505
ZGOW,1999-06-08 03:00,ZGOW 080300Z AUTO 18008KT 12SM 29/26 A2968 RMK SLP055 T02930262 52003 IEM_DS3505
ZGOW,1999-06-08 04:00,ZGOW 080400Z AUTO 18010KT 2SM 27/27 A2968 RMK T02700270 IEM_DS3505
ZGOW,1999-06-08 05:00,ZGOW 080500Z AUTO 19014KT 3SM RMK IEM_DS3505
ZGOW,1999-06-08 06:00,ZGOW 080600Z AUTO 18012KT 11SM 29/26 A2968 RMK SLP051 T02930262 57004 IEM_DS3505
ZGOW,1999-06-08 08:00,ZGOW 080800Z AUTO 17014KT 4SM 29/27 A2968 RMK T02900270 IEM_DS3505
ZGOW,1999-06-08 09:00,ZGOW 080900Z AUTO 20006KT 11SM 29/26 RMK SLP048 T02890264 57003 IEM_DS3505
ZGOW,1999-06-08 10:00,ZGOW 081000Z AUTO 16010KT 5SM 28/27 A2968 RMK T02800270 IEM_DS3505
ZGOW,1999-06-08 11:00,ZGOW 081100Z AUTO 15006KT 4SM 27/27 A2971 RMK T02700270 IEM_DS3505
ZGOW,1999-06-08 12:00,ZGOW 081200Z AUTO 16006KT 8SM 28/26 A2974 RMK SLP071 T02790259 52023 IEM_DS3505
ZGOW,1999-06-08 13:00,ZGOW 081300Z AUTO 15006KT 5SM 27/26 A2977 RMK T02700260 IEM_DS3505
ZGOW,1999-06-08 22:00,ZGOW 082200Z AUTO 16006KT 3SM 27/26 A2977 RMK T02700260 IEM_DS3505
ZGOW,1999-06-09 00:00,ZGOW 090000Z AUTO 18008KT 12SM 28/26 A2983 RMK SLP098 T02820261 52018 IEM_DS3505
ZGOW,1999-06-09 02:00,ZGOW 090200Z AUTO 16010KT 7SM 29/27 A2983 RMK T02900270 IEM_DS3505
ZGOW,1999-06-09 03:00,ZGOW 090300Z AUTO 18008KT 7SM 30/27 A2983 RMK T03000270 IEM_DS3505
ZGOW,1999-06-09 04:00,ZGOW 090400Z AUTO 16010KT 7SM 29/26 A2983 RMK T02900260 IEM_DS3505
ZGOW,1999-06-09 05:00,ZGOW 090500Z AUTO 17010KT 7SM 30/26 A2980 RMK T03000260 IEM_DS3505
ZGOW,1999-06-09 06:00,ZGOW 090600Z AUTO 20010KT 12SM 31/26 A2980 RMK SLP092 T03100263 57013 IEM_DS3505
ZGOW,1999-06-09 07:00,ZGOW 090700Z AUTO 19010KT 7SM 31/27 A2977 RMK T03100270 IEM_DS3505
ZGOW,1999-06-09 08:00,ZGOW 090800Z AUTO 18010KT 7SM 31/26 A2977 RMK T03100260 IEM_DS3505
ZGOW,1999-06-09 09:00,ZGOW 090900Z AUTO 22006KT 12SM 30/25 A2977 RMK SLP082 T02950253 57010 IEM_DS3505
ZGOW,1999-06-09 10:00,ZGOW 091000Z AUTO 16010KT 6SM 29/26 A2977 RMK T02900260 IEM_DS3505
ZGOW,1999-06-09 11:00,ZGOW 091100Z AUTO 18006KT 6SM 28/26 A2977 RMK T02800260 IEM_DS3505
ZGOW,1999-06-09 12:00,ZGOW 091200Z AUTO 18006KT 10SM 28/26 A2980 RMK SLP095 T02780257 52013 IEM_DS3505
ZGOW,1999-06-09 13:00,ZGOW 091300Z AUTO 19004KT 7SM 27/26 A2983 RMK T02700260 IEM_DS3505
ZGOW,1999-06-09 14:00,ZGOW 091400Z AUTO 16004KT 7SM 27/26 A2985 RMK T02700260 IEM_DS3505
ZGOW,1999-06-09 15:00,ZGOW 091500Z AUTO 18004KT 9SM 27/26 RMK SLP119 T02740257 52024 IEM_DS3505
ZGOW,1999-06-09 21:00,ZGOW 092100Z AUTO 22004KT 8SM 27/26 RMK SLP101 T02700256 57002 IEM_DS3505
ZGOW,1999-06-09 22:00,ZGOW 092200Z AUTO 21002KT 3SM 26/26 A2983 RMK T02600260 IEM_DS3505
ZGOW,1999-06-10 00:00,ZGOW 100000Z AUTO 22004KT 12SM 28/26 A2983 RMK SLP109 T02810256 52008 IEM_DS3505
ZGOW,1999-06-10 01:00,ZGOW 100100Z AUTO 18006KT 7SM 29/27 A2983 RMK T02900270 IEM_DS3505
ZGOW,1999-06-10 02:00,ZGOW 100200Z AUTO 18008KT 7SM 30/27 A2983 RMK T03000270 IEM_DS3505
ZGOW,1999-06-10 04:00,ZGOW 100400Z AUTO 19012KT 7SM 31/27 A2980 RMK T03100270 IEM_DS3505
ZGOW,1999-06-10 05:00,ZGOW 100500Z AUTO 19010KT 7SM 31/27 A2977 RMK T03100270 IEM_DS3505
ZGOW,1999-06-10 06:00,ZGOW 100600Z AUTO 18008KT 14SM 32/26 A2977 RMK SLP080 T03150264 57020 IEM_DS3505
ZGOW,1999-06-10 07:00,ZGOW 100700Z AUTO 19012KT 7SM 32/27 A2974 RMK T03200270 IEM_DS3505
ZGOW,1999-06-10 08:00,ZGOW 100800Z AUTO 20012KT 7SM 31/27 A2971 RMK T03100270 IEM_DS3505
ZGOW,1999-06-10 09:00,ZGOW 100900Z AUTO 16008KT 16SM 31/26 A2971 RMK SLP068 T03130257 57012 IEM_DS3505
ZGOW,1999-06-10 10:00,ZGOW 101000Z AUTO 19010KT 6SM 30/27 A2971 RMK T03000270 IEM_DS3505
ZGOW,1999-06-10 11:00,ZGOW 101100Z AUTO 19006KT 6SM 29/27 A2974 RMK T02900270 IEM_DS3505
ZGOW,1999-06-10 12:00,ZGOW 101200Z AUTO 20004KT 11SM 28/26 A2977 RMK SLP084 T02850256 52016 IEM_DS3505
ZGOW,1999-06-10 13:00,ZGOW 101300Z AUTO 20008KT 4SM 28/26 A2980 RMK T02800260 IEM_DS3505
ZGOW,1999-06-10 14:00,ZGOW 101400Z AUTO 20008KT 6SM 28/27 A2980 RMK T02800270 IEM_DS3505
ZGOW,1999-06-10 15:00,ZGOW 101500Z AUTO 22004KT 10SM 28/25 RMK SLP100 T02820252 52016 IEM_DS3505
ZGOW,1999-06-10 18:00,ZGOW 101800Z AUTO 25004KT 8SM 27/26 RMK SLP089 T02720255 57011 IEM_DS3505
ZGOW,1999-06-10 21:00,ZGOW 102100Z AUTO 27004KT 8SM 27/25 RMK SLP081 T02680250 57008 IEM_DS3505
ZGOW,1999-06-10 22:00,ZGOW 102200Z AUTO 22002KT 6SM 26/25 A2977 RMK T02600250 IEM_DS3505
ZGOW,1999-06-10 23:00,ZGOW 102300Z AUTO 26002KT 7SM 27/26 A2980 RMK T02700260 IEM_DS3505
ZGOW,1999-06-11 00:00,ZGOW 110000Z AUTO 27006KT 11SM 29/25 A2980 RMK SLP096 T02860254 52015 IEM_DS3505
ZGOW,1999-06-11 01:00,ZGOW 110100Z AUTO 24006KT 7SM 30/26 A2980 RMK T03000260 IEM_DS3505
ZGOW,1999-06-11 02:00,ZGOW 110200Z AUTO 26008KT 7SM 31/26 A2980 RMK T03100260 IEM_DS3505
ZGOW,1999-06-11 03:00,ZGOW 110300Z AUTO 27006KT 12SM 31/24 A2980 RMK SLP092 T03130242 57004 IEM_DS3505
ZGOW,1999-06-11 04:00,ZGOW 110400Z AUTO 24008KT 7SM 33/25 A2977 RMK T03300250 IEM_DS3505
ZGOW,1999-06-11 05:00,ZGOW 110500Z AUTO 18010KT 7SM 33/27 A2977 RMK T03300270 IEM_DS3505
ZGOW,1999-06-11 06:00,ZGOW 110600Z AUTO 22004KT 14SM 33/25 RMK SLP071 T03320248 57021 IEM_DS3505
ZGOW,1999-06-11 07:00,ZGOW 110700Z AUTO 20012KT 7SM 32/28 A2971 RMK T03200280 IEM_DS3505
ZGOW,1999-06-11 08:00,ZGOW 110800Z AUTO 19014KT 7SM 32/27 A2968 RMK T03200270 IEM_DS3505
ZGOW,1999-06-11 09:00,ZGOW 110900Z AUTO 22014KT 12SM 32/25 A2968 RMK SLP054 T03200251 57017 IEM_DS3505
ZGOW,1999-06-11 10:00,ZGOW 111000Z AUTO 22008KT 7SM 31/26 A2968 RMK T03100260 IEM_DS3505
ZGOW,1999-06-11 11:00,ZGOW 111100Z AUTO 22008KT 6SM 30/25 A2968 RMK T03000250 IEM_DS3505
ZGOW,1999-06-11 12:00,ZGOW 111200Z AUTO 25008KT 11SM 29/25 A2974 RMK SLP073 T02930248 52019 IEM_DS3505
ZGOW,1999-06-11 13:00,ZGOW 111300Z AUTO 23010KT 6SM 29/24 A2974 RMK T02900240 IEM_DS3505
ZGOW,1999-06-11 14:00,ZGOW 111400Z AUTO 24008KT 6SM 29/24 A2974 RMK T02900240 IEM_DS3505
ZGOW,1999-06-11 15:00,ZGOW 111500Z AUTO 25006KT 9SM 28/24 RMK SLP077 T02850239 52004 IEM_DS3505
ZGOW,1999-06-11 18:00,ZGOW 111800Z AUTO 27004KT 7SM 28/24 RMK SLP059 T02770243 57018 IEM_DS3505
ZGOW,1999-06-11 21:00,ZGOW 112100Z AUTO 22004KT 7SM 27/25 A2971 RMK SLP064 T02700246 52005 IEM_DS3505
ZGOW,1999-06-11 22:00,ZGOW 112200Z AUTO 23004KT 6SM 27/25 A2971 RMK T02700250 IEM_DS3505
ZGOW,1999-06-11 23:00,ZGOW 112300Z AUTO 24006KT 6SM 28/25 A2974 RMK T02800250 IEM_DS3505
ZGOW,1999-06-12 00:00,ZGOW 120000Z AUTO 27008KT 11SM 29/24 A2977 RMK SLP083 T02900243 52019 IEM_DS3505
ZGOW,1999-06-12 01:00,ZGOW 120100Z AUTO 25008KT 6SM 30/25 A2977 RMK T03000250 IEM_DS3505
ZGOW,1999-06-12 02:00,ZGOW 120200Z AUTO 25008KT 7SM 31/26 A2977 RMK T03100260 IEM_DS3505
ZGOW,1999-06-12 03:00,ZGOW 120300Z AUTO 27010KT 12SM 32/24 A2977 RMK SLP079 T03210243 57004 IEM_DS3505
ZGOW,1999-06-12 04:00,ZGOW 120400Z AUTO 27008KT 7SM 33/26 A2974 RMK T03300260 IEM_DS3505
ZGOW,1999-06-12 05:00,ZGOW 120500Z AUTO 24010KT 7SM 34/26 A2971 RMK T03400260 IEM_DS3505
ZGOW,1999-06-12 06:00,ZGOW 120600Z AUTO 27010KT 16SM 34/24 A2968 RMK SLP059 T03440244 57020 IEM_DS3505
ZGOW,1999-06-12 07:00,ZGOW 120700Z AUTO 21010KT 6SM 34/27 A2965 RMK T03400270 IEM_DS3505
ZGOW,1999-06-12 08:00,ZGOW 120800Z AUTO 20014KT 6SM 33/27 A2965 RMK T03300270 IEM_DS3505
ZGOW,1999-06-12 09:00,ZGOW 120900Z AUTO 22012KT 19SM 33/25 A2965 RMK SLP045 T03270250 57014 IEM_DS3505
ZGOW,1999-06-12 10:00,ZGOW 121000Z AUTO 20010KT 6SM 32/25 A2965 RMK T03200250 IEM_DS3505
ZGOW,1999-06-12 11:00,ZGOW 121100Z AUTO 20010KT 6SM 30/25 A2968 RMK T03000250 IEM_DS3505
ZGOW,1999-06-12 12:00,ZGOW 121200Z AUTO 25010KT 12SM 30/25 A2968 RMK SLP056 T02960248 52011 IEM_DS3505
ZGOW,1999-06-12 13:00,ZGOW 121300Z AUTO 21004KT 6SM 29/26 A2971 RMK T02900260 IEM_DS3505
ZGOW,1999-06-12 14:00,ZGOW 121400Z AUTO 22004KT 6SM 28/25 A2974 RMK T02800250 IEM_DS3505
ZGOW,1999-06-12 15:00,ZGOW 121500Z AUTO 22008KT 11SM 28/25 A2974 RMK SLP078 T02840246 52022 IEM_DS3505
ZGOW,1999-06-12 18:00,ZGOW 121800Z AUTO 22008KT 11SM 28/24 RMK SLP066 T02790240 57012 IEM_DS3505
ZGOW,1999-06-12 21:00,ZGOW 122100Z AUTO 27006KT 9SM 27/24 RMK SLP065 T02720243 57001 IEM_DS3505
ZGOW,1999-06-12 22:00,ZGOW 122200Z AUTO 00000KT 6SM 27/25 A2974 RMK T02700250 IEM_DS3505
ZGOW,1999-06-12 23:00,ZGOW 122300Z AUTO 34002KT 6SM 28/25 A2974 RMK T02800250 IEM_DS3505
ZGOW,1999-06-13 00:00,ZGOW 130000Z AUTO 27006KT 11SM 29/24 A2974 RMK SLP082 T02900241 52017 IEM_DS3505
ZGOW,1999-06-13 01:00,ZGOW 130100Z AUTO 25008KT 6SM 30/25 A2974 RMK T03000250 IEM_DS3505
ZGOW,1999-06-13 02:00,ZGOW 130200Z AUTO 25006KT 7SM 31/24 A2977 RMK T03100240 IEM_DS3505
ZGOW,1999-06-13 03:00,ZGOW 130300Z AUTO 27008KT 11SM 32/23 A2977 RMK SLP084 T03180233 52002 IEM_DS3505
ZGOW,1999-06-13 04:00,ZGOW 130400Z AUTO 17006KT 7SM 31/25 A2977 RMK T03100250 IEM_DS3505
ZGOW,1999-06-13 05:00,ZGOW 130500Z AUTO 16010KT 7SM 33/27 A2974 RMK T03300270 IEM_DS3505
ZGOW,1999-06-13 06:00,ZGOW 130600Z AUTO 18010KT 19SM 33/25 A2971 RMK SLP068 T03260252 57016 IEM_DS3505
ZGOW,1999-06-13 07:00,ZGOW 130700Z AUTO 17008KT 7SM 31/26 A2971 RMK T03100260 IEM_DS3505
ZGOW,1999-06-13 08:00,ZGOW 130800Z AUTO 19010KT 7SM 32/26 A2971 RMK T03200260 IEM_DS3505
ZGOW,1999-06-13 09:00,ZGOW 130900Z AUTO 16008KT 19SM 32/24 A2971 RMK SLP060 T03170240 57008 IEM_DS3505
ZGOW,1999-06-13 10:00,ZGOW 131000Z AUTO 18008KT 7SM 29/26 A2971 RMK T02900260 IEM_DS3505
ZGOW,1999-06-13 11:00,ZGOW 131100Z AUTO 18008KT 7SM 29/26 A2971 RMK T02900260 IEM_DS3505
ZGOW,1999-06-13 12:00,ZGOW 131200Z AUTO 22004KT 12SM 29/25 A2974 RMK SLP077 T02890246 52017 IEM_DS3505
ZGOW,1999-06-13 13:00,ZGOW 131300Z AUTO 12002KT 6SM 28/26 A2977 RMK T02800260 IEM_DS3505
ZGOW,1999-06-13 14:00,ZGOW 131400Z AUTO 14004KT 6SM 27/26 A2977 RMK T02700260 IEM_DS3505
ZGOW,1999-06-13 15:00,ZGOW 131500Z AUTO 25002KT 11SM 29/25 RMK SLP089 T02860246 52012 IEM_DS3505
ZGOW,1999-06-13 18:00,ZGOW 131800Z AUTO 22008KT 9SM 28/25 RMK SLP078 T02770249 57011 IEM_DS3505
ZGOW,1999-06-13 21:00,ZGOW 132100Z AUTO 22006KT 8SM 27/25 A2974 RMK SLP081 T02720248 52003 IEM_DS3505
ZGOW,1999-06-13 22:00,ZGOW 132200Z AUTO 19004KT 2 1/2SM 27/26 A2977 RMK T02700260 IEM_DS3505
ZGOW,1999-06-13 23:00,ZGOW 132300Z AUTO 22004KT 7SM 27/26 A2977 RMK T02700260 IEM_DS3505
ZGOW,1999-06-14 00:00,ZGOW 140000Z AUTO 25006KT 17SM 29/24 A2980 RMK SLP094 T02900243 52013 IEM_DS3505
ZGOW,1999-06-14 01:00,ZGOW 140100Z AUTO 16004KT 7SM 29/26 A2980 RMK T02900260 IEM_DS3505
ZGOW,1999-06-14 02:00,ZGOW 140200Z AUTO 21004KT 7SM 31/26 A2980 RMK T03100260 IEM_DS3505
ZGOW,1999-06-14 03:00,ZGOW 140300Z AUTO 27006KT 19SM 31/23 A2980 RMK SLP096 T03140231 52002 IEM_DS3505
ZGOW,1999-06-14 04:00,ZGOW 140400Z AUTO 09010KT 7SM 29/26 A2980 RMK T02900260 IEM_DS3505
ZGOW,1999-06-14 05:00,ZGOW 140500Z AUTO 10010KT 7SM 29/27 A2980 RMK T02900270 IEM_DS3505
ZGOW,1999-06-14 06:00,ZGOW 140600Z AUTO 16008KT 19SM 31/26 A2977 RMK SLP086 T03100259 57010 IEM_DS3505
ZGOW,1999-06-14 07:00,ZGOW 140700Z AUTO 14010KT 7SM 30/27 A2977 RMK T03000270 IEM_DS3505
ZGOW,1999-06-14 08:00,ZGOW 140800Z AUTO 13010KT 7SM 30/27 A2974 RMK T03000270 IEM_DS3505
ZGOW,1999-06-14 09:00,ZGOW 140900Z AUTO 18010KT 19SM 30/26 A2974 RMK SLP068 T03050256 57018 IEM_DS3505
ZGOW,1999-06-14 10:00,ZGOW 141000Z AUTO 16010KT 7SM 30/26 A2971 RMK T03000260 IEM_DS3505
ZGOW,1999-06-14 11:00,ZGOW 141100Z AUTO 16006KT 7SM 29/26 A2974 RMK T02900260 IEM_DS3505
ZGOW,1999-06-14 12:00,ZGOW 141200Z AUTO 20006KT 12SM 29/25 RMK SLP073 T02890252 52005 IEM_DS3505
ZGOW,1999-06-14 15:00,ZGOW 141500Z AUTO 22006KT 9SM 28/25 RMK SLP085 T02840253 52012 IEM_DS3505
ZGOW,1999-06-14 18:00,ZGOW 141800Z AUTO 22006KT 9SM 28/25 RMK SLP075 T02810247 57010 IEM_DS3505
ZGOW,1999-06-14 21:00,ZGOW 142100Z AUTO 20002KT 8SM 27/25 RMK SLP076 T02740250 52001 IEM_DS3505
ZGOW,1999-06-15 00:00,ZGOW 150000Z AUTO 27006KT 17SM 29/25 RMK SLP081 T02860251 52005 IEM_DS3505
ZGOW,1999-06-15 01:00,ZGOW 150100Z AUTO 26004KT 7SM 29/26 A2977 RMK T02900260 IEM_DS3505
ZGOW,1999-06-15 02:00,ZGOW 150200Z AUTO 24006KT 7SM 31/25 A2977 RMK T03100250 IEM_DS3505
ZGOW,1999-06-15 03:00,ZGOW 150300Z AUTO 22006KT 19SM 31/24 A2977 RMK SLP083 T03100243 52002 IEM_DS3505
ZGOW,1999-06-15 04:00,ZGOW 150400Z AUTO 26006KT 7SM 32/26 A2977 RMK T03200260 IEM_DS3505
ZGOW,1999-06-15 05:00,ZGOW 150500Z AUTO 19010KT 7SM 32/27 A2974 RMK T03200270 IEM_DS3505
ZGOW,1999-06-15 06:00,ZGOW 150600Z AUTO 22008KT 19SM 32/25 A2971 RMK SLP064 T03250252 57019 IEM_DS3505
ZGOW,1999-06-15 07:00,ZGOW 150700Z AUTO 18010KT 7SM 31/26 A2971 RMK T03100260 IEM_DS3505
ZGOW,1999-06-15 08:00,ZGOW 150800Z AUTO 19008KT 6SM 31/27 A2968 RMK T03100270 IEM_DS3505
ZGOW,1999-06-15 09:00,ZGOW 150900Z AUTO 22010KT 14SM 31/25 A2965 RMK SLP049 T03120247 57015 IEM_DS3505
ZGOW,1999-06-15 10:00,ZGOW 151000Z AUTO 20008KT 6SM 31/26 A2965 RMK T03100260 IEM_DS3505
ZGOW,1999-06-15 11:00,ZGOW 151100Z AUTO 18008KT 6SM 29/26 A2968 RMK T02900260 IEM_DS3505
ZGOW,1999-06-15 12:00,ZGOW 151200Z AUTO 22004KT 12SM 29/25 A2968 RMK SLP056 T02920247 52007 IEM_DS3505
ZGOW,1999-06-15 13:00,ZGOW 151300Z AUTO 20006KT 6SM 28/26 A2971 RMK T02800260 IEM_DS3505
ZGOW,1999-06-15 15:00,ZGOW 151500Z AUTO 22006KT 12SM 28/24 RMK SLP071 T02830245 52015 IEM_DS3505
ZGOW,1999-06-15 18:00,ZGOW 151800Z AUTO 22010KT 11SM 28/25 RMK SLP068 T02790246 57003 IEM_DS3505
ZGOW,1999-06-15 21:00,ZGOW 152100Z AUTO 22006KT 11SM 27/25 A2971 RMK SLP068 T02740247 54000 IEM_DS3505
ZGOW,1999-06-15 22:00,ZGOW 152200Z AUTO 28004KT 6SM 27/25 A2974 RMK T02700250 IEM_DS3505
ZGOW,1999-06-15 23:00,ZGOW 152300Z AUTO 30002KT 6SM 28/26 A2974 RMK T02800260 IEM_DS3505
ZGOW,1999-06-16 00:00,ZGOW 160000Z AUTO 29004KT 19SM 29/24 A2974 RMK SLP083 T02900243 52015 IEM_DS3505
ZGOW,1999-06-16 01:00,ZGOW 160100Z AUTO 27002KT 7SM 30/26 A2974 RMK T03000260 IEM_DS3505
ZGOW,1999-06-16 02:00,ZGOW 160200Z AUTO 24006KT 7SM 31/24 A2974 RMK T03100240 IEM_DS3505
ZGOW,1999-06-16 03:00,ZGOW 160300Z AUTO 27008KT 19SM 32/24 A2974 RMK SLP075 T03160236 57008 IEM_DS3505
ZGOW,1999-06-16 04:00,ZGOW 160400Z AUTO 19008KT 7SM 32/26 A2974 RMK T03200260 IEM_DS3505
ZGOW,1999-06-16 05:00,ZGOW 160500Z AUTO 18008KT 7SM 32/26 A2971 RMK T03200260 IEM_DS3505
ZGOW,1999-06-16 06:00,ZGOW 160600Z AUTO 22006KT 16SM 33/24 A2971 RMK SLP063 T03270242 57012 IEM_DS3505
ZGOW,1999-06-16 07:00,ZGOW 160700Z AUTO 20010KT 7SM 31/26 A2971 RMK T03100260 IEM_DS3505
ZGOW,1999-06-16 08:00,ZGOW 160800Z AUTO 20008KT 7SM 30/26 A2971 RMK T03000260 IEM_DS3505
ZGOW,1999-06-16 09:00,ZGOW 160900Z AUTO 18008KT 16SM 30/25 A2968 RMK SLP054 T02960252 57009 IEM_DS3505
ZGOW,1999-06-16 10:00,ZGOW 161000Z AUTO 20010KT 7SM 29/26 A2968 RMK T02900260 IEM_DS3505
ZGOW,1999-06-16 11:00,ZGOW 161100Z AUTO 20010KT 7SM 29/26 A2968 RMK T02900260 IEM_DS3505
ZGOW,1999-06-16 12:00,ZGOW 161200Z AUTO 18008KT 12SM 28/25 A2971 RMK SLP064 T02850248 52010 IEM_DS3505
ZGOW,1999-06-16 13:00,ZGOW 161300Z AUTO 19006KT 7SM 28/26 A2974 RMK T02800260 IEM_DS3505
ZGOW,1999-06-16 15:00,ZGOW 161500Z AUTO 27004KT 12SM 28/26 RMK SLP077 T02820255 52013 IEM_DS3505
ZGOW,1999-06-16 18:00,ZGOW 161800Z AUTO 18006KT 12SM 28/26 RMK SLP068 T02780257 57009 IEM_DS3505
ZGOW,1999-06-16 21:00,ZGOW 162100Z AUTO 18004KT 11SM 28/26 RMK SLP067 T02760256 57001 IEM_DS3505
ZGOW,1999-06-16 22:00,ZGOW 162200Z AUTO 00000KT 7SM 26/26 A2971 RMK T02600260 IEM_DS3505
ZGOW,1999-06-16 23:00,ZGOW 162300Z AUTO 17002KT 7SM 27/27 A2974 RMK T02700270 IEM_DS3505
ZGOW,1999-06-17 00:00,ZGOW 170000Z AUTO 22004KT 17SM 29/26 A2974 RMK SLP079 T02860255 52012 IEM_DS3505
ZGOW,1999-06-17 01:00,ZGOW 170100Z AUTO 19004KT 7SM 29/26 A2974 RMK T02900260 IEM_DS3505
ZGOW,1999-06-17 02:00,ZGOW 170200Z AUTO 17006KT 7SM 31/27 A2974 RMK T03100270 IEM_DS3505
ZGOW,1999-06-17 03:00,ZGOW 170300Z AUTO 18006KT 19SM 31/24 A2974 RMK SLP074 T03080244 57005 IEM_DS3505
ZGOW,1999-06-17 04:00,ZGOW 170400Z AUTO 18010KT 7SM 31/27 A2974 RMK T03100270 IEM_DS3505
ZGOW,1999-06-17 05:00,ZGOW 170500Z AUTO 18010KT 7SM 32/26 A2971 RMK T03200260 IEM_DS3505
ZGOW,1999-06-17 06:00,ZGOW 170600Z AUTO 18008KT 19SM 31/25 A2971 RMK SLP059 T03140252 57015 IEM_DS3505
ZGOW,1999-06-17 07:00,ZGOW 170700Z AUTO 17010KT 6SM 31/26 A2968 RMK T03100260 IEM_DS3505
ZGOW,1999-06-17 08:00,ZGOW 170800Z AUTO 18008KT 7SM 30/26 A2968 RMK T03000260 IEM_DS3505
ZGOW,1999-06-17 09:00,ZGOW 170900Z AUTO 18008KT 17SM 30/25 A2968 RMK SLP050 T03030253 57009 IEM_DS3505
ZGOW,1999-06-17 10:00,ZGOW 171000Z AUTO 19008KT 7SM 29/26 A2968 RMK T02900260 IEM_DS3505
ZGOW,1999-06-17 11:00,ZGOW 171100Z AUTO 18008KT 7SM 29/26 A2968 RMK T02900260 IEM_DS3505
ZGOW,1999-06-17 12:00,ZGOW 171200Z AUTO 18006KT 12SM 28/26 A2971 RMK SLP062 T02850260 52012 IEM_DS3505
ZGOW,1999-06-17 13:00,ZGOW 171300Z AUTO 17006KT 7SM 28/26 A2971 RMK T02800260 IEM_DS3505
ZGOW,1999-06-17 15:00,ZGOW 171500Z AUTO 22004KT 12SM 28/26 RMK SLP068 T02820258 52006 IEM_DS3505
ZGOW,1999-06-17 18:00,ZGOW 171800Z AUTO 18004KT 9SM 28/26 RMK SLP060 T02770257 57008 IEM_DS3505
ZGOW,1999-06-17 21:00,ZGOW 172100Z AUTO 22006KT 9SM 27/26 RMK SLP056 T02740256 57004 IEM_DS3505
ZGOW,1999-06-17 22:00,ZGOW 172200Z AUTO 16004KT 7SM 26/26 A2968 RMK T02600260 IEM_DS3505
ZGOW,1999-06-17 23:00,ZGOW 172300Z AUTO 15004KT 7SM 27/27 A2968 RMK T02700270 IEM_DS3505
ZGOW,1999-06-18 00:00,ZGOW 180000Z AUTO 25006KT 9SM 26/23 RMK SLP067 T02620231 52011 IEM_DS3505
ZGOW,1999-06-18 01:00,ZGOW 180100Z AUTO 25006KT 7SM 28/26 A2971 RMK T02800260 IEM_DS3505
ZGOW,1999-06-18 02:00,ZGOW 180200Z AUTO 19006KT 7SM 29/26 A2971 RMK T02900260 IEM_DS3505
ZGOW,1999-06-18 03:00,ZGOW 180300Z AUTO 22004KT 11SM 30/25 A2971 RMK SLP064 T02960254 57003 IEM_DS3505
ZGOW,1999-06-18 04:00,ZGOW 180400Z AUTO 19008KT 7SM 31/26 A2971 RMK T03100260 IEM_DS3505
ZGOW,1999-06-18 05:00,ZGOW 180500Z AUTO 17010KT 7SM 32/26 A2968 RMK T03200260 IEM_DS3505
ZGOW,1999-06-18 06:00,ZGOW 180600Z AUTO 22008KT 19SM 29/25 A2968 RMK SLP053 T02930254 57011 IEM_DS3505
ZGOW,1999-06-18 07:00,ZGOW 180700Z AUTO 19008KT 7SM 30/26 A2968 RMK T03000260 IEM_DS3505
ZGOW,1999-06-18 08:00,ZGOW 180800Z AUTO 19008KT 7SM 30/26 A2965 RMK T03000260 IEM_DS3505
ZGOW,1999-06-18 09:00,ZGOW 180900Z AUTO 22008KT 19SM 30/25 A2965 RMK SLP049 T02990253 57004 IEM_DS3505
ZGOW,1999-06-18 10:00,ZGOW 181000Z AUTO 18010KT 7SM 29/26 A2968 RMK T02900260 IEM_DS3505
ZGOW,1999-06-18 11:00,ZGOW 181100Z AUTO 19010KT 7SM 29/26 A2968 RMK T02900260 IEM_DS3505
ZGOW,1999-06-18 12:00,ZGOW 181200Z AUTO 22006KT 17SM 28/25 A2971 RMK SLP061 T02850250 52012 IEM_DS3505
ZGOW,1999-06-18 13:00,ZGOW 181300Z AUTO 21006KT 7SM 28/26 A2971 RMK T02800260 IEM_DS3505
ZGOW,1999-06-18 14:00,ZGOW 181400Z AUTO 19006KT 7SM 28/26 A2974 RMK T02800260 IEM_DS3505
ZGOW,1999-06-18 15:00,ZGOW 181500Z AUTO 22006KT 16SM 28/26 A2974 RMK SLP072 T02790257 52011 IEM_DS3505
ZGOW,1999-06-18 16:00,ZGOW 181600Z AUTO 20004KT 7SM 27/26 A2974 RMK T02700260 IEM_DS3505
ZGOW,1999-06-18 18:00,ZGOW 181800Z AUTO 22004KT 11SM 27/26 RMK SLP061 T02730256 57011 IEM_DS3505
ZGOW,1999-06-18 21:00,ZGOW 182100Z AUTO 04004KT 7SM 27/26 A2971 RMK SLP058 T02670256 57003 IEM_DS3505
ZGOW,1999-06-18 22:00,ZGOW 182200Z AUTO 06004KT 2 1/2SM 26/26 A2971 RMK T02600260 IEM_DS3505
ZGOW,1999-06-18 23:00,ZGOW 182300Z AUTO 06004KT 4SM 26/26 A2974 RMK T02600260 IEM_DS3505
ZGOW,1999-06-19 00:00,ZGOW 190000Z AUTO 04004KT 7SM 28/26 A2974 RMK SLP076 T02830261 52018 IEM_DS3505
ZGOW,1999-06-19 01:00,ZGOW 190100Z AUTO 08008KT 7SM 26/25 A2977 RMK T02600250 IEM_DS3505
ZGOW,1999-06-19 02:00,ZGOW 190200Z AUTO 28002KT 7SM 26/26 A2977 RMK T02600260 IEM_DS3505
ZGOW,1999-06-19 03:00,ZGOW 190300Z AUTO 36002KT 9SM 29/25 A2977 RMK SLP080 T02860249 52004 IEM_DS3505
ZGOW,1999-06-19 04:00,ZGOW 190400Z AUTO 09004KT 4SM 27/26 A2977 RMK T02700260 IEM_DS3505
ZGOW,1999-06-19 05:00,ZGOW 190500Z AUTO 08004KT 7SM 27/26 A2974 RMK T02700260 IEM_DS3505
ZGOW,1999-06-19 06:00,ZGOW 190600Z AUTO 22006KT 14SM 30/25 A2974 RMK SLP072 T03030251 57008 IEM_DS3505
ZGOW,1999-06-19 07:00,ZGOW 190700Z AUTO 14004KT 7SM 29/27 A2971 RMK T02900270 IEM_DS3505
ZGOW,1999-06-19 08:00,ZGOW 190800Z AUTO 06004KT 7SM 28/26 A2971 RMK T02800260 IEM_DS3505
ZGOW,1999-06-19 09:00,ZGOW 190900Z AUTO 07002KT 6SM 27/25 A2971 RMK SLP064 T02710251 57008 IEM_DS3505
ZGOW,1999-06-19 10:00,ZGOW 191000Z AUTO 13004KT 7SM 27/26 A2971 RMK T02700260 IEM_DS3505
ZGOW,1999-06-19 11:00,ZGOW 191100Z AUTO 08002KT 7SM 27/26 A2971 RMK T02700260 IEM_DS3505
ZGOW,1999-06-19 12:00,ZGOW 191200Z AUTO 11002KT 6SM 27/26 A2974 RMK SLP078 T02730258 52014 IEM_DS3505
ZGOW,1999-06-19 13:00,ZGOW 191300Z AUTO 11002KT 7SM 26/26 A2977 RMK T02600260 IEM_DS3505
ZGOW,1999-06-19 14:00,ZGOW 191400Z AUTO 00000KT 6SM 26/26 A2977 RMK T02600260 IEM_DS3505
ZGOW,1999-06-19 15:00,ZGOW 191500Z AUTO 00000KT 7SM 27/26 RMK SLP091 T02710260 52013 IEM_DS3505
ZGOW,1999-06-19 18:00,ZGOW 191800Z AUTO 04004KT 4SM 27/26 RMK SLP072 T02680258 57019 IEM_DS3505
ZGOW,1999-06-19 21:00,ZGOW 192100Z AUTO 09004KT 3SM 26/26 RMK SLP069 T02650259 57003 IEM_DS3505
ZGOW,1999-06-19 22:00,ZGOW 192200Z AUTO 35004KT 1 1/4SM 26/26 A2974 RMK T02600260 IEM_DS3505
ZGOW,1999-06-19 23:00,ZGOW 192300Z AUTO 20002KT 1 1/2SM RMK IEM_DS3505
ZGOW,1999-06-20 00:00,ZGOW 200000Z AUTO 00000KT 7SM 26/25 RMK SLP085 T02620254 52016 IEM_DS3505
ZGOW,1999-06-20 01:00,ZGOW 200100Z AUTO 09004KT 7SM 25/25 A2977 RMK T02500250 IEM_DS3505
ZGOW,1999-06-20 02:00,ZGOW 200200Z AUTO 13002KT 7SM 28/26 A2977 RMK T02800260 IEM_DS3505
ZGOW,1999-06-20 03:00,ZGOW 200300Z AUTO 11004KT 14SM 30/25 A2977 RMK SLP079 T03020251 57006 IEM_DS3505
ZGOW,1999-06-20 04:00,ZGOW 200400Z AUTO 13008KT 7SM 30/27 A2974 RMK T03000270 IEM_DS3505
ZGOW,1999-06-20 05:00,ZGOW 200500Z AUTO 14008KT 7SM 30/26 A2971 RMK T03000260 IEM_DS3505
ZGOW,1999-06-20 06:00,ZGOW 200600Z AUTO 18006KT 19SM 30/26 A2971 RMK SLP062 T03010255 57017 IEM_DS3505
ZGOW,1999-06-20 07:00,ZGOW 200700Z AUTO 14008KT 7SM 30/26 A2971 RMK T03000260 IEM_DS3505
ZGOW,1999-06-20 08:00,ZGOW 200800Z AUTO 14006KT 7SM 30/26 A2968 RMK T03000260 IEM_DS3505
ZGOW,1999-06-20 09:00,ZGOW 200900Z AUTO 20006KT 19SM 29/25 A2968 RMK SLP057 T02930254 57005 IEM_DS3505
ZGOW,1999-06-20 10:00,ZGOW 201000Z AUTO 19006KT 7SM 29/26 A2968 RMK T02900260 IEM_DS3505
ZGOW,1999-06-20 11:00,ZGOW 201100Z AUTO 14002KT 7SM 27/25 A2968 RMK T02700250 IEM_DS3505
ZGOW,1999-06-20 12:00,ZGOW 201200Z AUTO 16004KT 11SM 28/26 A2971 RMK SLP063 T02770259 52006 IEM_DS3505
ZGOW,1999-06-20 13:00,ZGOW 201300Z AUTO 18002KT 7SM 27/26 A2971 RMK T02700260 IEM_DS3505
ZGOW,1999-06-20 15:00,ZGOW 201500Z AUTO 18002KT 9SM 27/26 A2974 RMK SLP076 T02740256 52013 IEM_DS3505
ZGOW,1999-06-20 18:00,ZGOW 201800Z AUTO 18008KT 9SM 26/24 RMK SLP063 T02650245 57013 IEM_DS3505
ZGOW,1999-06-20 21:00,ZGOW 202100Z AUTO 18002KT 11SM 26/24 A2971 RMK SLP064 T02590245 52001 IEM_DS3505
ZGOW,1999-06-20 22:00,ZGOW 202200Z AUTO 26002KT 7SM 26/25 A2971 RMK T02600250 IEM_DS3505
ZGOW,1999-06-20 23:00,ZGOW 202300Z AUTO 05004KT 1 1/4SM 25/24 A2974 RMK T02500240 IEM_DS3505
ZGOW,1999-06-21 00:00,ZGOW 210000Z AUTO 25002KT 12SM 28/25 A2971 RMK SLP073 T02750252 52009 IEM_DS3505
ZGOW,1999-06-21 01:00,ZGOW 210100Z AUTO 18002KT 7SM 29/26 A2974 RMK T02900260 IEM_DS3505
ZGOW,1999-06-21 02:00,ZGOW 210200Z AUTO 17004KT 7SM 30/27 A2974 RMK T03000270 IEM_DS3505
ZGOW,1999-06-21 03:00,ZGOW 210300Z AUTO 18014KT 11SM 30/25 A2971 RMK SLP072 T03010253 57001 IEM_DS3505
ZGOW,1999-06-21 04:00,ZGOW 210400Z AUTO 17008KT 7SM 26/25 A2971 RMK T02600250 IEM_DS3505
ZGOW,1999-06-21 05:00,ZGOW 210500Z AUTO 16006KT 7SM 27/26 A2971 RMK T02700260 IEM_DS3505
ZGOW,1999-06-21 06:00,ZGOW 210600Z AUTO 16006KT 19SM 27/25 A2968 RMK SLP057 T02730253 57015 IEM_DS3505
ZGOW,1999-06-21 07:00,ZGOW 210700Z AUTO 20004KT 7SM 27/26 A2968 RMK T02700260 IEM_DS3505
ZGOW,1999-06-21 08:00,ZGOW 210800Z AUTO 19006KT 7SM 28/26 A2965 RMK T02800260 IEM_DS3505
ZGOW,1999-06-21 09:00,ZGOW 210900Z AUTO 16004KT 17SM 27/26 A2968 RMK SLP050 T02740256 57007 IEM_DS3505
ZGOW,1999-06-21 10:00,ZGOW 211000Z AUTO 18006KT 7SM 27/26 A2968 RMK T02700260 IEM_DS3505
ZGOW,1999-06-21 11:00,ZGOW 211100Z AUTO 20006KT 7SM 27/26 A2968 RMK T02700260 IEM_DS3505
ZGOW,1999-06-21 12:00,ZGOW 211200Z AUTO 22004KT 12SM 27/25 A2971 RMK SLP060 T02690253 52010 IEM_DS3505
ZGOW,1999-06-21 13:00,ZGOW 211300Z AUTO 16002KT 7SM 27/26 A2971 RMK T02700260 IEM_DS3505
ZGOW,1999-06-21 14:00,ZGOW 211400Z AUTO 15002KT 6SM 26/26 A2974 RMK T02600260 IEM_DS3505
ZGOW,1999-06-21 15:00,ZGOW 211500Z AUTO 00000KT 11SM 27/25 RMK SLP070 T02690251 52010 IEM_DS3505
ZGOW,1999-06-21 18:00,ZGOW 211800Z AUTO 18004KT 10SM 27/25 RMK SLP058 T02680254 57012 IEM_DS3505
ZGOW,1999-06-21 21:00,ZGOW 212100Z AUTO 27008KT 6SM 25/24 RMK SLP061 T02520239 52003 IEM_DS3505
ZGOW,1999-06-21 22:00,ZGOW 212200Z AUTO 26004KT 7SM 25/24 A2971 RMK T02500240 IEM_DS3505
ZGOW,1999-06-21 23:00,ZGOW 212300Z AUTO 26008KT 4SM 25/25 A2974 RMK T02500250 IEM_DS3505
ZGOW,1999-06-22 00:00,ZGOW 220000Z AUTO 27008KT 5SM 25/24 A2974 RMK SLP077 T02490240 52016 IEM_DS3505
ZGOW,1999-06-22 01:00,ZGOW 220100Z AUTO 27006KT 7SM 25/25 A2974 RMK T02500250 IEM_DS3505
ZGOW,1999-06-22 02:00,ZGOW 220200Z AUTO 26006KT 7SM 26/25 A2977 RMK T02600250 IEM_DS3505
ZGOW,1999-06-22 03:00,ZGOW 220300Z AUTO 25006KT 11SM 27/24 A2977 RMK SLP080 T02670240 52003 IEM_DS3505
ZGOW,1999-06-22 04:00,ZGOW 220400Z AUTO 22004KT 7SM 27/25 A2974 RMK T02700250 IEM_DS3505
ZGOW,1999-06-22 05:00,ZGOW 220500Z AUTO 24006KT 7SM 28/26 A2974 RMK T02800260 IEM_DS3505
ZGOW,1999-06-22 06:00,ZGOW 220600Z AUTO 18006KT 12SM 28/25 A2974 RMK SLP073 T02840246 57007 IEM_DS3505
ZGOW,1999-06-22 08:00,ZGOW 220800Z AUTO 17006KT 7SM 28/25 A2971 RMK T02800250 IEM_DS3505
ZGOW,1999-06-22 09:00,ZGOW 220900Z AUTO 18004KT 11SM 28/24 RMK SLP055 T02780239 57018 IEM_DS3505
ZGOW,1999-06-22 10:00,ZGOW 221000Z AUTO 17006KT 7SM 27/24 A2968 RMK T02700240 IEM_DS3505
ZGOW,1999-06-22 12:00,ZGOW 221200Z AUTO 18004KT 11SM 27/25 A2974 RMK SLP075 T02710254 52020 IEM_DS3505
ZGOW,1999-06-22 13:00,ZGOW 221300Z AUTO 16004KT 7SM 27/26 A2974 RMK T02700260 IEM_DS3505
ZGOW,1999-06-22 15:00,ZGOW 221500Z AUTO 18006KT 12SM 28/25 RMK SLP080 T02750252 52005 IEM_DS3505
ZGOW,1999-06-22 18:00,ZGOW 221800Z AUTO 18004KT 11SM 27/26 RMK SLP068 T02720257 57012 IEM_DS3505
ZGOW,1999-06-22 21:00,ZGOW 222100Z AUTO 22006KT 11SM 27/25 A2971 RMK SLP067 T02720251 57001 IEM_DS3505
ZGOW,1999-06-22 22:00,ZGOW 222200Z AUTO 17002KT 4SM 26/26 A2974 RMK T02600260 IEM_DS3505
ZGOW,1999-06-23 00:00,ZGOW 230000Z AUTO 22010KT 16SM 27/25 A2974 RMK SLP075 T02700254 52008 IEM_DS3505
ZGOW,1999-06-23 01:00,ZGOW 230100Z AUTO 20008KT 7SM 26/25 A2977 RMK T02600250 IEM_DS3505
ZGOW,1999-06-23 02:00,ZGOW 230200Z AUTO 19010KT 4SM 28/27 A2977 RMK T02800270 IEM_DS3505
ZGOW,1999-06-23 03:00,ZGOW 230300Z AUTO 22008KT 17SM 28/25 A2974 RMK SLP078 T02830249 52003 IEM_DS3505
ZGOW,1999-06-23 04:00,ZGOW 230400Z AUTO 20008KT 7SM 30/26 A2974 RMK T03000260 IEM_DS3505
ZGOW,1999-06-23 05:00,ZGOW 230500Z AUTO 20012KT 7SM 30/27 A2971 RMK T03000270 IEM_DS3505
ZGOW,1999-06-23 06:00,ZGOW 230600Z AUTO 18008KT 14SM 31/26 A2971 RMK SLP066 T03080262 57012 IEM_DS3505
ZGOW,1999-06-23 07:00,ZGOW 230700Z AUTO 19016KT 7SM 30/27 A2968 RMK T03000270 IEM_DS3505
ZGOW,1999-06-23 08:00,ZGOW 230800Z AUTO 19012KT 7SM 30/27 A2968 RMK T03000270 IEM_DS3505
ZGOW,1999-06-23 09:00,ZGOW 230900Z AUTO 22010KT 12SM 30/25 A2968 RMK SLP052 T03010250 57014 IEM_DS3505
ZGOW,1999-06-23 10:00,ZGOW 231000Z AUTO 21012KT 7SM 29/26 A2968 RMK T02900260 IEM_DS3505
ZGOW,1999-06-23 11:00,ZGOW 231100Z AUTO 19010KT 7SM 29/26 A2968 RMK T02900260 IEM_DS3505
ZGOW,1999-06-23 12:00,ZGOW 231200Z AUTO 22008KT 11SM 28/26 A2971 RMK SLP065 T02840255 52013 IEM_DS3505
ZGOW,1999-06-23 13:00,ZGOW 231300Z AUTO 21008KT 7SM 28/26 A2974 RMK T02800260 IEM_DS3505
ZGOW,1999-06-23 15:00,ZGOW 231500Z AUTO 22004KT 10SM 28/25 A2977 RMK SLP080 T02770250 52015 IEM_DS3505
ZGOW,1999-06-23 18:00,ZGOW 231800Z AUTO 22006KT 8SM 27/25 RMK SLP074 T02740248 57006 IEM_DS3505
ZGOW,1999-06-23 21:00,ZGOW 232100Z AUTO 20004KT 6SM 27/25 RMK SLP073 T02670247 57001 IEM_DS3505
ZGOW,1999-06-23 22:00,ZGOW 232200Z AUTO 16002KT 7SM 26/25 A2974 RMK T02600250 IEM_DS3505
ZGOW,1999-06-23 23:00,ZGOW 232300Z AUTO 18004KT 7SM 28/26 A2977 RMK T02800260 IEM_DS3505
ZGOW,1999-06-24 00:00,ZGOW 240000Z AUTO 18008KT 16SM 29/25 RMK SLP085 T02890251 52012 IEM_DS3505
ZGOW,1999-06-24 01:00,ZGOW 240100Z AUTO 22008KT 7SM 29/25 A2980 RMK T02900250 IEM_DS3505
ZGOW,1999-06-24 02:00,ZGOW 240200Z AUTO 19008KT 7SM 30/26 A2980 RMK T03000260 IEM_DS3505
ZGOW,1999-06-24 03:00,ZGOW 240300Z AUTO 20008KT 16SM 31/25 A2977 RMK SLP088 T03090247 52003 IEM_DS3505
ZGOW,1999-06-24 04:00,ZGOW 240400Z AUTO 20010KT 7SM 31/26 A2977 RMK T03100260 IEM_DS3505
ZGOW,1999-06-24 05:00,ZGOW 240500Z AUTO 19012KT 7SM 32/26 A2974 RMK T03200260 IEM_DS3505
ZGOW,1999-06-24 06:00,ZGOW 240600Z AUTO 22010KT 14SM 31/25 RMK SLP072 T03130251 57016 IEM_DS3505
ZGOW,1999-06-24 08:00,ZGOW 240800Z AUTO 19014KT 7SM 30/26 A2971 RMK T03000260 IEM_DS3505
ZGOW,1999-06-24 09:00,ZGOW 240900Z AUTO 18010KT 12SM 31/25 RMK SLP062 T03060251 57010 IEM_DS3505
ZGOW,1999-06-24 10:00,ZGOW 241000Z AUTO 19012G23KT 7SM 29/26 A2971 RMK T02900260 IEM_DS3505
ZGOW,1999-06-24 11:00,ZGOW 241100Z AUTO 20008KT 7SM 29/26 A2974 RMK T02900260 IEM_DS3505
ZGOW,1999-06-24 12:00,ZGOW 241200Z AUTO 18008KT 11SM 29/26 A2974 RMK SLP072 T02860257 52010 IEM_DS3505
ZGOW,1999-06-24 13:00,ZGOW 241300Z AUTO 20010KT 7SM 28/26 A2974 RMK T02800260 IEM_DS3505
ZGOW,1999-06-24 14:00,ZGOW 241400Z AUTO 19008KT 7SM RMK IEM_DS3505
ZGOW,1999-06-24 15:00,ZGOW 241500Z AUTO 18006KT 11SM 28/26 RMK SLP087 T02820257 52015 IEM_DS3505
ZGOW,1999-06-24 18:00,ZGOW 241800Z AUTO 18006KT 10SM 28/26 RMK SLP075 T02780256 57012 IEM_DS3505
ZGOW,1999-06-24 21:00,ZGOW 242100Z AUTO 20006KT 10SM 27/25 RMK SLP070 T02740253 57005 IEM_DS3505
ZGOW,1999-06-24 22:00,ZGOW 242200Z AUTO 19008KT 7SM 27/26 A2974 RMK T02700260 IEM_DS3505
ZGOW,1999-06-24 23:00,ZGOW 242300Z AUTO 19004KT 7SM 28/27 A2977 RMK T02800270 IEM_DS3505
ZGOW,1999-06-25 00:00,ZGOW 250000Z AUTO 18008KT 11SM 29/26 A2977 RMK SLP084 T02880256 52014 IEM_DS3505
ZGOW,1999-06-25 01:00,ZGOW 250100Z AUTO 18006KT 7SM 29/27 A2977 RMK T02900270 IEM_DS3505
ZGOW,1999-06-25 03:00,ZGOW 250300Z AUTO 18008KT 7SM 29/26 A2980 RMK SLP093 T02920260 52009 IEM_DS3505
ZGOW,1999-06-25 04:00,ZGOW 250400Z AUTO 19014KT 4SM 31/27 A2977 RMK T03100270 IEM_DS3505
ZGOW,1999-06-25 05:00,ZGOW 250500Z AUTO 20014KT 7SM 31/27 A2977 RMK T03100270 IEM_DS3505
ZGOW,1999-06-25 06:00,ZGOW 250600Z AUTO 22012KT 12SM 31/25 A2974 RMK SLP073 T03110252 57020 IEM_DS3505
ZGOW,1999-06-25 07:00,ZGOW 250700Z AUTO 20012KT 7SM 30/26 A2974 RMK T03000260 IEM_DS3505
ZGOW,1999-06-25 08:00,ZGOW 250800Z AUTO 21010KT 7SM 31/26 A2971 RMK T03100260 IEM_DS3505
ZGOW,1999-06-25 09:00,ZGOW 250900Z AUTO 18006KT 12SM 31/25 A2971 RMK SLP063 T03070248 57010 IEM_DS3505
ZGOW,1999-06-25 10:00,ZGOW 251000Z AUTO 19010KT 7SM 30/26 A2971 RMK T03000260 IEM_DS3505
ZGOW,1999-06-25 11:00,ZGOW 251100Z AUTO 19010KT 7SM 28/26 A2974 RMK T02800260 IEM_DS3505
ZGOW,1999-06-25 12:00,ZGOW 251200Z AUTO 22008KT 9SM 28/25 A2974 RMK SLP079 T02840249 52016 IEM_DS3505
ZGOW,1999-06-25 13:00,ZGOW 251300Z AUTO 20006KT 7SM 28/26 A2977 RMK T02800260 IEM_DS3505
ZGOW,1999-06-25 15:00,ZGOW 251500Z AUTO 22006KT 9SM 28/25 RMK SLP093 T02780247 52014 IEM_DS3505
ZGOW,1999-06-25 18:00,ZGOW 251800Z AUTO 22006KT 9SM 27/25 RMK SLP086 T02720254 57007 IEM_DS3505
ZGOW,1999-06-25 21:00,ZGOW 252100Z AUTO 22006KT 10SM 27/25 A2977 RMK SLP087 T02680250 52001 IEM_DS3505
ZGOW,1999-06-25 22:00,ZGOW 252200Z AUTO 00000KT 3SM 26/25 A2980 RMK T02600250 IEM_DS3505
ZGOW,1999-06-25 23:00,ZGOW 252300Z AUTO 31002KT 4SM 27/26 A2980 RMK T02700260 IEM_DS3505
ZGOW,1999-06-26 00:00,ZGOW 260000Z AUTO 22004KT 19SM 29/25 A2980 RMK SLP096 T02870247 52009 IEM_DS3505
ZGOW,1999-06-26 01:00,ZGOW 260100Z AUTO 24006KT 7SM 30/25 A2983 RMK T03000250 IEM_DS3505
ZGOW,1999-06-26 02:00,ZGOW 260200Z AUTO 19006KT 7SM 31/26 A2983 RMK T03100260 IEM_DS3505
ZGOW,1999-06-26 03:00,ZGOW 260300Z AUTO 22004KT 19SM 32/24 A2983 RMK SLP103 T03160244 52007 IEM_DS3505
ZGOW,1999-06-26 04:00,ZGOW 260400Z AUTO 20010KT 6SM 31/26 A2983 RMK T03100260 IEM_DS3505
ZGOW,1999-06-26 05:00,ZGOW 260500Z AUTO 18012KT 6SM 32/25 A2983 RMK T03200250 IEM_DS3505
ZGOW,1999-06-26 06:00,ZGOW 260600Z AUTO 18006KT 19SM 32/24 A2980 RMK SLP094 T03170245 57009 IEM_DS3505
ZGOW,1999-06-26 07:00,ZGOW 260700Z AUTO 20012KT 6SM 32/26 A2980 RMK T03200260 IEM_DS3505
ZGOW,1999-06-26 08:00,ZGOW 260800Z AUTO 19012KT 6SM 31/26 A2977 RMK T03100260 IEM_DS3505
ZGOW,1999-06-26 09:00,ZGOW 260900Z AUTO 22010KT 19SM 31/25 A2977 RMK SLP086 T03090251 57008 IEM_DS3505
ZGOW,1999-06-26 10:00,ZGOW 261000Z AUTO 19012KT 6SM 30/26 A2980 RMK T03000260 IEM_DS3505
ZGOW,1999-06-26 11:00,ZGOW 261100Z AUTO 19010KT 6SM 29/26 A2980 RMK T02900260 IEM_DS3505
ZGOW,1999-06-26 13:00,ZGOW 261300Z AUTO 21008KT 6SM 28/26 A2983 RMK T02800260 IEM_DS3505
ZGOW,1999-06-26 14:00,ZGOW 261400Z AUTO 19006KT 6SM 28/26 A2985 RMK T02800260 IEM_DS3505
ZGOW,1999-06-26 15:00,ZGOW 261500Z AUTO 22004KT 10SM 28/25 A2985 RMK SLP111 T02810250 52013 IEM_DS3505
ZGOW,1999-06-26 18:00,ZGOW 261800Z AUTO 22004KT 9SM 28/25 RMK SLP098 T02770254 57013 IEM_DS3505
ZGOW,1999-06-26 21:00,ZGOW 262100Z AUTO 22004KT 9SM 27/25 RMK SLP097 T02680252 57001 IEM_DS3505
ZGOW,1999-06-26 22:00,ZGOW 262200Z AUTO 19004KT 6SM 26/26 A2983 RMK T02600260 IEM_DS3505
ZGOW,1999-06-26 23:00,ZGOW 262300Z AUTO 22004KT 7SM 28/27 A2983 RMK T02800270 IEM_DS3505
ZGOW,1999-06-27 00:00,ZGOW 270000Z AUTO 22006KT 12SM 29/25 RMK SLP109 T02880251 52012 IEM_DS3505
ZGOW,1999-06-27 01:00,ZGOW 270100Z AUTO 21004KT 7SM 30/26 A2985 RMK T03000260 IEM_DS3505
ZGOW,1999-06-27 02:00,ZGOW 270200Z AUTO 22006KT 7SM 31/26 A2985 RMK T03100260 IEM_DS3505
ZGOW,1999-06-27 03:00,ZGOW 270300Z AUTO 27008KT 14SM 31/25 A2985 RMK SLP109 T03120249 54000 IEM_DS3505
ZGOW,1999-06-27 04:00,ZGOW 270400Z AUTO 19008KT 7SM 32/26 A2983 RMK T03200260 IEM_DS3505
ZGOW,1999-06-27 05:00,ZGOW 270500Z AUTO 20008KT 7SM 31/26 A2983 RMK T03100260 IEM_DS3505
ZGOW,1999-06-27 06:00,ZGOW 270600Z AUTO 27006KT 19SM 32/24 RMK SLP092 T03170245 57017 IEM_DS3505
ZGOW,1999-06-27 07:00,ZGOW 270700Z AUTO 19010KT 7SM 31/26 A2980 RMK T03100260 IEM_DS3505
ZGOW,1999-06-27 08:00,ZGOW 270800Z AUTO 19010KT 7SM 32/27 A2977 RMK T03200270 IEM_DS3505
ZGOW,1999-06-27 09:00,ZGOW 270900Z AUTO 18008KT 19SM 32/26 A2977 RMK SLP082 T03160256 57010 IEM_DS3505
ZGOW,1999-06-27 10:00,ZGOW 271000Z AUTO 20010KT 7SM RMK IEM_DS3505
ZGOW,1999-06-27 11:00,ZGOW 271100Z AUTO 20010KT 7SM 29/26 A2980 RMK T02900260 IEM_DS3505
ZGOW,1999-06-27 12:00,ZGOW 271200Z AUTO 18008KT 16SM 29/25 A2980 RMK SLP095 T02890249 52013 IEM_DS3505
ZGOW,1999-06-27 13:00,ZGOW 271300Z AUTO 20008KT 6SM 28/26 A2983 RMK T02800260 IEM_DS3505
ZGOW,1999-06-27 15:00,ZGOW 271500Z AUTO 22002KT 12SM 28/24 RMK SLP102 T02830245 52007 IEM_DS3505
ZGOW,1999-06-27 18:00,ZGOW 271800Z AUTO 27006KT 10SM 28/25 RMK SLP091 T02750249 57011 IEM_DS3505
ZGOW,1999-06-27 21:00,ZGOW 272100Z AUTO 22002KT 10SM 27/25 A2980 RMK SLP089 T02710251 57002 IEM_DS3505
ZGOW,1999-06-27 22:00,ZGOW 272200Z AUTO 00000KT 7SM 26/25 A2980 RMK T02600250 IEM_DS3505
ZGOW,1999-06-27 23:00,ZGOW 272300Z AUTO 00000KT 7SM 27/27 A2980 RMK T02700270 IEM_DS3505
ZGOW,1999-06-28 00:00,ZGOW 280000Z AUTO 22006KT 16SM 29/25 A2980 RMK SLP097 T02900252 52008 IEM_DS3505
ZGOW,1999-06-28 01:00,ZGOW 280100Z AUTO 26008KT 7SM 29/26 A2980 RMK T02900260 IEM_DS3505
ZGOW,1999-06-28 02:00,ZGOW 280200Z AUTO 25008KT 7SM 30/25 A2980 RMK T03000250 IEM_DS3505
ZGOW,1999-06-28 03:00,ZGOW 280300Z AUTO 27004KT 19SM 31/24 A2980 RMK SLP095 T03140245 57002 IEM_DS3505
ZGOW,1999-06-28 04:00,ZGOW 280400Z AUTO 19006KT 7SM 31/26 A2980 RMK T03100260 IEM_DS3505
ZGOW,1999-06-28 05:00,ZGOW 280500Z AUTO 20004KT 7SM 31/26 A2977 RMK T03100260 IEM_DS3505
ZGOW,1999-06-28 06:00,ZGOW 280600Z AUTO 18008KT 19SM 33/23 A2977 RMK SLP079 T03340231 57016 IEM_DS3505
ZGOW,1999-06-28 07:00,ZGOW 280700Z AUTO 20012KT 7SM 32/26 A2974 RMK T03200260 IEM_DS3505
ZGOW,1999-06-28 08:00,ZGOW 280800Z AUTO 19012KT 6SM 32/26 A2971 RMK T03200260 IEM_DS3505
ZGOW,1999-06-28 09:00,ZGOW 280900Z AUTO 22010KT 19SM 32/24 A2971 RMK SLP065 T03150244 57014 IEM_DS3505
ZGOW,1999-06-28 10:00,ZGOW 281000Z AUTO 19012KT 6SM 30/26 A2971 RMK T03000260 IEM_DS3505
ZGOW,1999-06-28 11:00,ZGOW 281100Z AUTO 20008KT 6SM 29/26 A2974 RMK T02900260 IEM_DS3505
ZGOW,1999-06-28 12:00,ZGOW 281200Z AUTO 22008KT 16SM 29/25 A2974 RMK SLP076 T02910247 52011 IEM_DS3505
ZGOW,1999-06-28 13:00,ZGOW 281300Z AUTO 20008KT 6SM 28/26 A2974 RMK T02800260 IEM_DS3505
ZGOW,1999-06-28 14:00,ZGOW 281400Z AUTO 20006KT 6SM 28/25 A2974 RMK T02800250 IEM_DS3505
ZGOW,1999-06-28 15:00,ZGOW 281500Z AUTO 22006KT 16SM 28/25 RMK SLP077 T02810250 52001 IEM_DS3505
ZGOW,1999-06-28 18:00,ZGOW 281800Z AUTO 22004KT 14SM 28/25 RMK SLP067 T02770246 57010 IEM_DS3505
ZGOW,1999-06-28 21:00,ZGOW 282100Z AUTO 22004KT 10SM 27/24 RMK SLP071 T02700244 52004 IEM_DS3505
ZGOW,1999-06-28 22:00,ZGOW 282200Z AUTO 28002KT 6SM 26/25 A2974 RMK T02600250 IEM_DS3505
ZGOW,1999-06-28 23:00,ZGOW 282300Z AUTO 30002KT 6SM 28/26 A2974 RMK T02800260 IEM_DS3505
ZGOW,1999-06-29 00:00,ZGOW 290000Z AUTO 22006KT 16SM 29/25 A2974 RMK SLP077 T02890246 52006 IEM_DS3505
ZGOW,1999-06-29 01:00,ZGOW 290100Z AUTO 28004KT 7SM 30/25 A2977 RMK T03000250 IEM_DS3505
ZGOW,1999-06-29 02:00,ZGOW 290200Z AUTO 24006KT 7SM 31/25 A2977 RMK T03100250 IEM_DS3505
ZGOW,1999-06-29 03:00,ZGOW 290300Z AUTO 18004KT 17SM 32/24 A2977 RMK SLP081 T03160238 52004 IEM_DS3505
ZGOW,1999-06-29 04:00,ZGOW 290400Z AUTO 17008KT 7SM 32/27 A2974 RMK T03200270 IEM_DS3505
ZGOW,1999-06-29 05:00,ZGOW 290500Z AUTO 17010KT 7SM 32/27 A2974 RMK T03200270 IEM_DS3505
ZGOW,1999-06-29 06:00,ZGOW 290600Z AUTO 20008KT 19SM 33/24 A2974 RMK SLP072 T03260241 57009 IEM_DS3505
ZGOW,1999-06-29 07:00,ZGOW 290700Z AUTO 18012KT 7SM 32/26 A2971 RMK T03200260 IEM_DS3505
ZGOW,1999-06-29 08:00,ZGOW 290800Z AUTO 20012KT 7SM 32/26 A2971 RMK T03200260 IEM_DS3505
ZGOW,1999-06-29 09:00,ZGOW 290900Z AUTO 22008KT 19SM 32/24 A2971 RMK SLP059 T03180243 57013 IEM_DS3505
ZGOW,1999-06-29 10:00,ZGOW 291000Z AUTO 19012KT 7SM 30/26 A2971 RMK T03000260 IEM_DS3505
ZGOW,1999-06-29 11:00,ZGOW 291100Z AUTO 20010KT 6SM 29/26 A2971 RMK T02900260 IEM_DS3505
ZGOW,1999-06-29 12:00,ZGOW 291200Z AUTO 22008KT 14SM 29/24 A2974 RMK SLP071 T02920242 52012 IEM_DS3505
ZGOW,1999-06-29 13:00,ZGOW 291300Z AUTO 19004KT 6SM 28/25 A2974 RMK T02800250 IEM_DS3505
ZGOW,1999-06-29 15:00,ZGOW 291500Z AUTO 22006KT 12SM 28/24 RMK SLP077 T02820245 52006 IEM_DS3505
ZGOW,1999-06-29 18:00,ZGOW 291800Z AUTO 27004KT 10SM 28/25 RMK SLP071 T02760249 57006 IEM_DS3505
ZGOW,1999-06-29 21:00,ZGOW 292100Z AUTO 22004KT 11SM 27/25 A2971 RMK SLP068 T02730250 57003 IEM_DS3505
ZGOW,1999-06-29 22:00,ZGOW 292200Z AUTO 34002KT 6SM 26/25 A2974 RMK T02600250 IEM_DS3505
ZGOW,1999-06-29 23:00,ZGOW 292300Z AUTO 00000KT 3SM 28/26 A2974 RMK T02800260 IEM_DS3505
ZGOW,1999-06-30 00:00,ZGOW 300000Z AUTO 27004KT 14SM 29/25 A2974 RMK SLP077 T02860251 52009 IEM_DS3505
ZGOW,1999-06-30 01:00,ZGOW 300100Z AUTO 24002KT 7SM 29/26 A2974 RMK T02900260 IEM_DS3505
ZGOW,1999-06-30 02:00,ZGOW 300200Z AUTO 29004KT 7SM 30/25 A2974 RMK T03000250 IEM_DS3505
ZGOW,1999-06-30 03:00,ZGOW 300300Z AUTO 27004KT 19SM 30/24 RMK SLP078 T03000240 52001 IEM_DS3505
ZGOW,1999-06-30 06:00,ZGOW 300600Z AUTO 18010KT 19SM 32/25 A2971 RMK SLP065 T03170247 57013 IEM_DS3505
ZGOW,1999-06-30 07:00,ZGOW 300700Z AUTO 17012KT 32/25 A2971 RMK T03200250 IEM_DS3505
ZGOW,1999-06-30 09:00,ZGOW 300900Z AUTO 18010KT 17SM 30/25 A2968 RMK SLP051 T03020250 57014 IEM_DS3505
ZGOW,1999-06-30 10:00,ZGOW 301000Z AUTO 17010KT 7SM 29/25 A2968 RMK T02900250 IEM_DS3505
ZGOW,1999-06-30 11:00,ZGOW 301100Z AUTO 18008KT RMK IEM_DS3505
ZGOW,1999-06-30 12:00,ZGOW 301200Z AUTO 18006KT 12SM 29/24 A2971 RMK SLP064 T02860242 52013 IEM_DS3505
ZGOW,1999-06-30 13:00,ZGOW 301300Z AUTO 14004KT 6SM 27/25 A2974 RMK T02700250 IEM_DS3505
ZGOW,1999-06-30 14:00,ZGOW 301400Z AUTO 18004KT 6SM 27/26 A2974 RMK T02700260 IEM_DS3505
ZGOW,1999-06-30 15:00,ZGOW 301500Z AUTO 22006KT 11SM 28/24 RMK SLP072 T02800240 52008 IEM_DS3505
ZGOW,1999-06-30 18:00,ZGOW 301800Z AUTO 22004KT 9SM 28/25 RMK SLP061 T02750247 57011 IEM_DS3505
ZGOW,1999-06-30 21:00,ZGOW 302100Z AUTO 04002KT 9SM 27/25 RMK SLP056 T02700249 57005 IEM_DS3505
ZGOW,1999-06-30 22:00,ZGOW 302200Z AUTO 00000KT 7SM 26/25 A2968 RMK T02600250 IEM_DS3505
ZGOW,1999-06-30 23:00,ZGOW 302300Z AUTO 00000KT 7SM 27/26 A2971 RMK T02700260 IEM_DS3505
ZGOW,1999-07-01 00:00,ZGOW 010000Z AUTO 29002KT 19SM 29/25 A2971 RMK SLP065 T02910253 52009 IEM_DS3505
ZGOW,1999-07-01 01:00,ZGOW 010100Z AUTO 00000KT 7SM 29/26 A2971 RMK T02900260 IEM_DS3505
ZGOW,1999-07-01 02:00,ZGOW 010200Z AUTO 24006KT 7SM 31/26 A2971 RMK T03100260 IEM_DS3505
ZGOW,1999-07-01 03:00,ZGOW 010300Z AUTO 22006KT 19SM 31/24 A2971 RMK SLP065 T03070243 54000 IEM_DS3505
ZGOW,1999-07-01 05:00,ZGOW 010500Z AUTO 19002KT 6SM 31/27 A2968 RMK T03100270 IEM_DS3505
ZGOW,1999-07-01 06:00,ZGOW 010600Z AUTO 18010KT 19SM 33/25 A2965 RMK SLP049 T03260249 57016 IEM_DS3505
ZGOW,1999-07-01 07:00,ZGOW 010700Z AUTO 19010KT 6SM 32/26 A2965 RMK T03200260 IEM_DS3505
ZGOW,1999-07-01 08:00,ZGOW 010800Z AUTO 19012KT 6SM 32/26 A2965 RMK T03200260 IEM_DS3505
ZGOW,1999-07-01 09:00,ZGOW 010900Z AUTO 20008KT 19SM 31/24 A2962 RMK SLP039 T03100242 57010 IEM_DS3505
ZGOW,1999-07-01 10:00,ZGOW 011000Z AUTO 20010KT 6SM 30/26 A2962 RMK T03000260 IEM_DS3505
ZGOW,1999-07-01 11:00,ZGOW 011100Z AUTO 18008KT 6SM 29/25 A2965 RMK T02900250 IEM_DS3505
ZGOW,1999-07-01 12:00,ZGOW 011200Z AUTO 18008KT 16SM 29/24 RMK SLP054 T02910244 52015 IEM_DS3505
ZGOW,1999-07-01 13:00,ZGOW 011300Z AUTO 20008KT 7SM 29/25 A2968 RMK T02900250 IEM_DS3505
ZGOW,1999-07-01 14:00,ZGOW 011400Z AUTO 20006KT 7SM 28/25 A2968 RMK T02800250 IEM_DS3505
ZGOW,1999-07-01 15:00,ZGOW 011500Z AUTO 22004KT 12SM 29/24 RMK SLP062 T02860240 52008 IEM_DS3505
ZGOW,1999-07-01 18:00,ZGOW 011800Z AUTO 25006KT 11SM 28/25 RMK SLP052 T02780253 57010 IEM_DS3505
ZGOW,1999-07-01 21:00,ZGOW 012100Z AUTO 27004KT 11SM 28/25 RMK SLP046 T02770249 57006 IEM_DS3505
ZGOW,1999-07-01 22:00,ZGOW 012200Z AUTO 00000KT 6SM 27/25 A2968 RMK T02700250 IEM_DS3505
ZGOW,1999-07-02 00:00,ZGOW 020000Z AUTO 22002KT 19SM 29/25 A2971 RMK SLP060 T02890246 52014 IEM_DS3505
ZGOW,1999-07-02 01:00,ZGOW 020100Z AUTO 21004KT 7SM 30/25 A2971 RMK T03000250 IEM_DS3505
ZGOW,1999-07-02 02:00,ZGOW 020200Z AUTO 24004KT 7SM 31/26 A2971 RMK T03100260 IEM_DS3505
ZGOW,1999-07-02 03:00,ZGOW 020300Z AUTO 22004KT 19SM 31/25 A2971 RMK SLP060 T03110246 54000 IEM_DS3505
ZGOW,1999-07-02 04:00,ZGOW 020400Z AUTO 11006KT 7SM 30/27 A2968 RMK T03000270 IEM_DS3505
ZGOW,1999-07-02 05:00,ZGOW 020500Z AUTO 14008KT 7SM 31/27 A2968 RMK T03100270 IEM_DS3505
ZGOW,1999-07-02 06:00,ZGOW 020600Z AUTO 16008KT 19SM 32/25 A2968 RMK SLP047 T03190250 57013 IEM_DS3505
ZGOW,1999-07-02 07:00,ZGOW 020700Z AUTO 16010KT 7SM 32/27 A2965 RMK T03200270 IEM_DS3505
ZGOW,1999-07-02 08:00,ZGOW 020800Z AUTO 16008KT 7SM 30/27 A2965 RMK T03000270 IEM_DS3505
ZGOW,1999-07-02 09:00,ZGOW 020900Z AUTO 18008KT 19SM 30/24 A2962 RMK SLP039 T03050244 57008 IEM_DS3505
ZGOW,1999-07-02 10:00,ZGOW 021000Z AUTO 18006KT 7SM 30/25 A2965 RMK T03000250 IEM_DS3505
ZGOW,1999-07-02 11:00,ZGOW 021100Z AUTO 19006KT 7SM 29/26 A2965 RMK T02900260 IEM_DS3505
ZGOW,1999-07-02 12:00,ZGOW 021200Z AUTO 20004KT 16SM 29/26 A2968 RMK SLP056 T02890255 52017 IEM_DS3505
ZGOW,1999-07-02 13:00,ZGOW 021300Z AUTO 16004KT 6SM 28/27 A2971 RMK T02800270 IEM_DS3505
ZGOW,1999-07-02 14:00,ZGOW 021400Z AUTO 12002KT 6SM 27/26 A2971 RMK T02700260 IEM_DS3505
ZGOW,1999-07-02 15:00,ZGOW 021500Z AUTO 18004KT 12SM 28/26 RMK SLP068 T02840255 52012 IEM_DS3505
ZGOW,1999-07-02 18:00,ZGOW 021800Z AUTO 27004KT 11SM 28/25 RMK SLP063 T02820254 57005 IEM_DS3505
ZGOW,1999-07-02 21:00,ZGOW 022100Z AUTO 00000KT 10SM 28/26 A2968 RMK SLP059 T02790261 57004 IEM_DS3505
ZGOW,1999-07-02 22:00,ZGOW 022200Z AUTO 20002KT 6SM 27/26 A2971 RMK T02700260 IEM_DS3505
ZGOW,1999-07-03 00:00,ZGOW 030000Z AUTO 00000KT 14SM 30/26 A2974 RMK SLP078 T02960255 52019 IEM_DS3505
ZGOW,1999-07-03 01:00,ZGOW 030100Z AUTO 08002KT 7SM 30/27 A2974 RMK T03000270 IEM_DS3505
ZGOW,1999-07-03 02:00,ZGOW 030200Z AUTO 13004KT 7SM 31/27 A2974 RMK T03100270 IEM_DS3505
ZGOW,1999-07-03 03:00,ZGOW 030300Z AUTO 18006KT 14SM 30/25 A2974 RMK SLP077 T03000251 57001 IEM_DS3505
ZGOW,1999-07-03 04:00,ZGOW 030400Z AUTO 14010KT 7SM 31/27 A2974 RMK T03100270 IEM_DS3505
ZGOW,1999-07-03 05:00,ZGOW 030500Z AUTO 15010KT 7SM 32/26 A2974 RMK T03200260 IEM_DS3505
ZGOW,1999-07-03 06:00,ZGOW 030600Z AUTO 18012KT 14SM 31/25 A2974 RMK SLP073 T03110248 57004 IEM_DS3505
ZGOW,1999-07-03 07:00,ZGOW 030700Z AUTO 19012KT 7SM 30/27 A2974 RMK T03000270 IEM_DS3505
ZGOW,1999-07-03 08:00,ZGOW 030800Z AUTO 17010KT 7SM 30/26 A2974 RMK T03000260 IEM_DS3505
ZGOW,1999-07-03 09:00,ZGOW 030900Z AUTO 18008KT 16SM 30/24 A2971 RMK SLP065 T03000242 57008 IEM_DS3505
ZGOW,1999-07-03 10:00,ZGOW 031000Z AUTO 20006KT 7SM 29/25 A2974 RMK T02900250 IEM_DS3505
ZGOW,1999-07-03 11:00,ZGOW 031100Z AUTO 19006KT 6SM 28/25 A2974 RMK T02800250 IEM_DS3505
ZGOW,1999-07-03 12:00,ZGOW 031200Z AUTO 18004KT 12SM 28/25 A2974 RMK SLP080 T02830248 52015 IEM_DS3505
ZGOW,1999-07-03 13:00,ZGOW 031300Z AUTO 21004KT 6SM 28/26 A2977 RMK T02800260 IEM_DS3505
ZGOW,1999-07-03 15:00,ZGOW 031500Z AUTO 27006KT 11SM 28/25 RMK SLP090 T02800249 52010 IEM_DS3505
ZGOW,1999-07-03 18:00,ZGOW 031800Z AUTO 27002KT 8SM 27/25 RMK SLP080 T02720249 57010 IEM_DS3505
ZGOW,1999-07-03 21:00,ZGOW 032100Z AUTO 00000KT 8SM 27/25 RMK SLP079 T02700253 57001 IEM_DS3505
ZGOW,1999-07-03 22:00,ZGOW 032200Z AUTO 00000KT 6SM 26/26 A2977 RMK T02600260 IEM_DS3505
ZGOW,1999-07-04 00:00,ZGOW 040000Z AUTO 27004KT 11SM 28/25 A2977 RMK SLP087 T02800250 52008 IEM_DS3505
ZGOW,1999-07-04 01:00,ZGOW 040100Z AUTO 11006KT 7SM 29/26 A2977 RMK T02900260 IEM_DS3505
ZGOW,1999-07-04 02:00,ZGOW 040200Z AUTO 13002KT 7SM 28/26 A2980 RMK T02800260 IEM_DS3505
ZGOW,1999-07-04 03:00,ZGOW 040300Z AUTO 07004KT 11SM 29/25 A2980 RMK SLP090 T02910252 52003 IEM_DS3505
ZGOW,1999-07-04 04:00,ZGOW 040400Z AUTO 14008KT 7SM 28/27 A2977 RMK T02800270 IEM_DS3505
ZGOW,1999-07-04 05:00,ZGOW 040500Z AUTO 17008KT 7SM 30/27 A2977 RMK T03000270 IEM_DS3505
ZGOW,1999-07-04 07:00,ZGOW 040700Z AUTO 16008KT 7SM 30/26 A2974 RMK T03000260 IEM_DS3505
ZGOW,1999-07-04 08:00,ZGOW 040800Z AUTO 19010KT 7SM 30/25 A2971 RMK T03000250 IEM_DS3505
ZGOW,1999-07-04 09:00,ZGOW 040900Z AUTO 18006KT 19SM 30/24 RMK SLP065 T03010243 57014 IEM_DS3505
ZGOW,1999-07-04 10:00,ZGOW 041000Z AUTO 19008KT 7SM 29/26 A2974 RMK T02900260 IEM_DS3505
ZGOW,1999-07-04 11:00,ZGOW 041100Z AUTO 20006KT 7SM 28/25 A2974 RMK T02800250 IEM_DS3505
ZGOW,1999-07-04 12:00,ZGOW 041200Z AUTO 22008KT 16SM 28/24 A2974 RMK SLP076 T02770237 52011 IEM_DS3505
ZGOW,1999-07-04 13:00,ZGOW 041300Z AUTO 19004KT 6SM 27/25 A2977 RMK T02700250 IEM_DS3505
ZGOW,1999-07-04 15:00,ZGOW 041500Z AUTO 27006KT 12SM 27/24 RMK SLP091 T02680241 52015 IEM_DS3505
ZGOW,1999-07-04 18:00,ZGOW 041800Z AUTO 22004KT 9SM 26/24 RMK SLP075 T02650238 57016 IEM_DS3505
ZGOW,1999-07-04 21:00,ZGOW 042100Z AUTO 27002KT 9SM 26/24 A2974 RMK SLP074 T02620237 57001 IEM_DS3505
ZGOW,1999-07-04 22:00,ZGOW 042200Z AUTO 20002KT 7SM 26/25 A2974 RMK T02600250 IEM_DS3505
ZGOW,1999-07-04 23:00,ZGOW 042300Z AUTO 00000KT 7SM 28/25 A2974 RMK T02800250 IEM_DS3505
ZGOW,1999-07-05 00:00,ZGOW 050000Z AUTO 22006KT 16SM 28/24 A2977 RMK SLP084 T02770238 52010 IEM_DS3505
ZGOW,1999-07-05 01:00,ZGOW 050100Z AUTO 29002KT 7SM 29/25 A2977 RMK T02900250 IEM_DS3505
ZGOW,1999-07-05 02:00,ZGOW 050200Z AUTO 25006KT 7SM 31/25 A2977 RMK T03100250 IEM_DS3505
ZGOW,1999-07-05 03:00,ZGOW 050300Z AUTO 25006KT 19SM 30/24 A2974 RMK SLP079 T03020236 57005 IEM_DS3505
ZGOW,1999-07-05 04:00,ZGOW 050400Z AUTO 14010KT 7SM 31/26 A2974 RMK T03100260 IEM_DS3505
ZGOW,1999-07-05 05:00,ZGOW 050500Z AUTO 20008KT 3SM 27/26 A2974 RMK T02700260 IEM_DS3505
ZGOW,1999-07-05 06:00,ZGOW 050600Z AUTO 22004KT 7SM 26/24 A2974 RMK SLP073 T02550241 57006 IEM_DS3505
ZGOW,1999-07-05 07:00,ZGOW 050700Z AUTO 20008KT 7SM 28/25 A2974 RMK T02800250 IEM_DS3505
ZGOW,1999-07-05 08:00,ZGOW 050800Z AUTO 20010KT 7SM 28/25 A2971 RMK T02800250 IEM_DS3505
ZGOW,1999-07-05 09:00,ZGOW 050900Z AUTO 18012KT 12SM 28/24 A2971 RMK SLP065 T02800235 57008 IEM_DS3505
ZGOW,1999-07-05 10:00,ZGOW 051000Z AUTO 22008KT 7SM 28/25 A2971 RMK T02800250 IEM_DS3505
ZGOW,1999-07-05 11:00,ZGOW 051100Z AUTO 22008KT 7SM 27/24 A2974 RMK T02700240 IEM_DS3505
ZGOW,1999-07-05 12:00,ZGOW 051200Z AUTO 27004KT 11SM 26/24 A2974 RMK SLP076 T02640235 52011 IEM_DS3505
ZGOW,1999-07-05 13:00,ZGOW 051300Z AUTO 00000KT 7SM 26/24 A2974 RMK T02600240 IEM_DS3505
ZGOW,1999-07-05 14:00,ZGOW 051400Z AUTO 18002KT 7SM 26/24 A2977 RMK T02600240 IEM_DS3505
ZGOW,1999-07-05 15:00,ZGOW 051500Z AUTO 22004KT 10SM 27/24 RMK SLP087 T02680244 52011 IEM_DS3505
ZGOW,1999-07-05 18:00,ZGOW 051800Z AUTO 27002KT 9SM 26/25 RMK SLP071 T02570248 57016 IEM_DS3505
ZGOW,1999-07-05 21:00,ZGOW 052100Z AUTO 04004KT 7SM 26/25 RMK SLP069 T02560249 57002 IEM_DS3505
ZGOW,1999-07-05 22:00,ZGOW 052200Z AUTO 06002KT 2SM 25/25 A2974 RMK T02500250 IEM_DS3505
ZGOW,1999-07-05 23:00,ZGOW 052300Z AUTO 06002KT 2SM 26/26 A2974 RMK T02600260 IEM_DS3505
ZGOW,1999-07-06 00:00,ZGOW 060000Z AUTO 11002KT 11SM 27/25 A2977 RMK SLP085 T02740248 52016 IEM_DS3505
ZGOW,1999-07-06 01:00,ZGOW 060100Z AUTO 13004KT 7SM 29/27 A2977 RMK T02900270 IEM_DS3505
ZGOW,1999-07-06 02:00,ZGOW 060200Z AUTO 12004KT 7SM 29/26 A2977 RMK T02900260 IEM_DS3505
ZGOW,1999-07-06 03:00,ZGOW 060300Z AUTO 18006KT 12SM 28/25 RMK SLP081 T02850254 57004 IEM_DS3505
ZGOW,1999-07-06 04:00,ZGOW 060400Z AUTO 16008KT 7SM 29/26 A2974 RMK T02900260 IEM_DS3505
ZGOW,1999-07-06 05:00,ZGOW 060500Z AUTO 18006KT 7SM 30/26 A2974 RMK T03000260 IEM_DS3505
ZGOW,1999-07-06 06:00,ZGOW 060600Z AUTO 16008KT 19SM 30/25 A2971 RMK SLP063 T03010252 57018 IEM_DS3505
ZGOW,1999-07-06 07:00,ZGOW 060700Z AUTO 19010KT 7SM 30/25 A2971 RMK T03000250 IEM_DS3505
ZGOW,1999-07-06 08:00,ZGOW 060800Z AUTO 19012KT 7SM 30/25 A2968 RMK T03000250 IEM_DS3505
ZGOW,1999-07-06 09:00,ZGOW 060900Z AUTO 29010KT 19SM 28/24 A2968 RMK SLP058 T02780245 57005 IEM_DS3505
ZGOW,1999-07-06 10:00,ZGOW 061000Z AUTO 26004KT 7SM 26/25 A2971 RMK T02600250 IEM_DS3505
ZGOW,1999-07-06 11:00,ZGOW 061100Z AUTO 26010KT 7SM 25/25 A2974 RMK T02500250 IEM_DS3505
ZGOW,1999-07-06 12:00,ZGOW 061200Z AUTO 00000KT 10SM 26/24 A2974 RMK SLP076 T02550244 52018 IEM_DS3505
ZGOW,1999-07-06 13:00,ZGOW 061300Z AUTO 00000KT 7SM 25/25 A2977 RMK T02500250 IEM_DS3505
ZGOW,1999-07-06 14:00,ZGOW 061400Z AUTO 10004KT 7SM 25/25 A2977 RMK T02500250 IEM_DS3505
ZGOW,1999-07-06 15:00,ZGOW 061500Z AUTO 00000KT 10SM 27/25 RMK SLP080 T02660246 52004 IEM_DS3505
ZGOW,1999-07-06 18:00,ZGOW 061800Z AUTO 18004KT 9SM 26/24 RMK SLP068 T02640241 57012 IEM_DS3505
ZGOW,1999-07-06 21:00,ZGOW 062100Z AUTO 22006KT 9SM 26/24 A2971 RMK SLP065 T02650245 57003 IEM_DS3505
ZGOW,1999-07-06 22:00,ZGOW 062200Z AUTO 27004KT 3SM 26/25 A2974 RMK T02600250 IEM_DS3505
ZGOW,1999-07-06 23:00,ZGOW 062300Z AUTO 27004KT 7SM 26/26 A2974 RMK T02600260 IEM_DS3505
ZGOW,1999-07-07 00:00,ZGOW 070000Z AUTO 22004KT 10SM 27/25 A2974 RMK SLP078 T02660249 52013 IEM_DS3505
ZGOW,1999-07-07 01:00,ZGOW 070100Z AUTO 20006KT 2 1/2SM 26/25 A2974 RMK T02600250 IEM_DS3505
ZGOW,1999-07-07 02:00,ZGOW 070200Z AUTO 21004KT 7SM 27/26 A2974 RMK T02700260 IEM_DS3505
ZGOW,1999-07-07 03:00,ZGOW 070300Z AUTO 27004KT 7SM 28/25 A2971 RMK SLP064 T02840250 57014 IEM_DS3505
ZGOW,1999-07-07 04:00,ZGOW 070400Z AUTO 19008KT 7SM 29/27 A2971 RMK T02900270 IEM_DS3505
ZGOW,1999-07-07 05:00,ZGOW 070500Z AUTO 20006KT 7SM 29/27 A2968 RMK T02900270 IEM_DS3505
ZGOW,1999-07-07 06:00,ZGOW 070600Z AUTO 22012KT 11SM 30/26 A2965 RMK SLP050 T03000255 57014 IEM_DS3505
ZGOW,1999-07-07 07:00,ZGOW 070700Z AUTO 24014KT 3SM 27/25 A2968 RMK T02700250 IEM_DS3505
ZGOW,1999-07-07 08:00,ZGOW 070800Z AUTO 23006KT 7SM 27/26 A2965 RMK T02700260 IEM_DS3505
ZGOW,1999-07-07 09:00,ZGOW 070900Z AUTO 27006KT 9SM 28/24 A2965 RMK SLP046 T02750241 57004 IEM_DS3505
ZGOW,1999-07-07 10:00,ZGOW 071000Z AUTO 10004KT 7SM 27/26 A2968 RMK T02700260 IEM_DS3505
ZGOW,1999-07-07 12:00,ZGOW 071200Z AUTO 00000KT 7SM 27/25 RMK SLP059 T02720249 52013 IEM_DS3505
ZGOW,1999-07-07 15:00,ZGOW 071500Z AUTO 27004KT 6SM 27/25 RMK SLP061 T02720254 52002 IEM_DS3505
ZGOW,1999-07-07 18:00,ZGOW 071800Z AUTO 02002KT 5SM 26/25 RMK SLP051 T02650251 57010 IEM_DS3505
ZGOW,1999-07-07 21:00,ZGOW 072100Z AUTO 25006KT 4SM 26/25 RMK SLP050 T02640248 57001 IEM_DS3505
ZGOW,1999-07-07 22:00,ZGOW 072200Z AUTO 23004KT 7SM 26/26 A2968 RMK T02600260 IEM_DS3505
ZGOW,1999-07-07 23:00,ZGOW 072300Z AUTO 23006KT 7SM 27/26 A2968 RMK T02700260 IEM_DS3505
ZGOW,1999-07-08 00:00,ZGOW 080000Z AUTO 22006KT 16SM 28/26 A2968 RMK SLP054 T02800259 52004 IEM_DS3505
ZGOW,1999-07-08 01:00,ZGOW 080100Z AUTO 25006KT 6SM 29/27 A2971 RMK T02900270 IEM_DS3505
ZGOW,1999-07-08 03:00,ZGOW 080300Z AUTO 27010KT 5SM 25/24 RMK SLP063 T02540244 52009 IEM_DS3505
ZGOW,1999-07-08 04:00,ZGOW 080400Z AUTO 00000KT 7SM 26/25 A2968 RMK T02600250 IEM_DS3505
ZGOW,1999-07-08 05:00,ZGOW 080500Z AUTO 20002KT 7SM 27/26 A2968 RMK T02700260 IEM_DS3505
ZGOW,1999-07-08 06:00,ZGOW 080600Z AUTO 27006KT 9SM 29/26 A2965 RMK SLP040 T02920257 4////0244 57023 IEM_DS3505
ZGOW,1999-07-08 07:00,ZGOW 080700Z AUTO 22016KT 3SM 26/25 A2962 RMK T02600250 IEM_DS3505
ZGOW,1999-07-08 09:00,ZGOW 080900Z AUTO 22008KT 6SM 25/24 A2962 RMK SLP041 T02520240 52001 IEM_DS3505
ZGOW,1999-07-08 10:00,ZGOW 081000Z AUTO 25006KT 7SM 25/24 A2962 RMK T02500240 IEM_DS3505
ZGOW,1999-07-08 11:00,ZGOW 081100Z AUTO 24004KT 7SM 26/25 A2962 RMK T02600250 IEM_DS3505
ZGOW,1999-07-08 12:00,ZGOW 081200Z AUTO 22002KT 7SM 26/24 RMK SLP047 T02570243 52006 IEM_DS3505
ZGOW,1999-07-08 15:00,ZGOW 081500Z AUTO 00000KT 6SM 26/25 RMK SLP055 T02550248 52008 IEM_DS3505
ZGOW,1999-07-08 18:00,ZGOW 081800Z AUTO 00000KT 5SM 26/25 RMK SLP049 T02570250 57006 IEM_DS3505
ZGOW,1999-07-08 21:00,ZGOW 082100Z AUTO 00000KT 3SM 26/25 RMK SLP046 T02580251 57003 IEM_DS3505
ZGOW,1999-07-08 22:00,ZGOW 082200Z AUTO 00000KT 2SM 25/25 A2965 RMK T02500250 IEM_DS3505
ZGOW,1999-07-08 23:00,ZGOW 082300Z AUTO 00000KT 1 1/2SM 26/26 A2965 RMK T02600260 IEM_DS3505
ZGOW,1999-07-09 00:00,ZGOW 090000Z AUTO 04004KT 4SM 27/26 A2965 RMK SLP051 T02700257 52005 IEM_DS3505
ZGOW,1999-07-09 01:00,ZGOW 090100Z AUTO 19002KT 2SM 28/27 A2965 RMK T02800270 IEM_DS3505
ZGOW,1999-07-09 02:00,ZGOW 090200Z AUTO 24010KT 7SM 30/26 A2965 RMK T03000260 IEM_DS3505
ZGOW,1999-07-09 03:00,ZGOW 090300Z AUTO 22012KT 11SM 30/25 A2965 RMK SLP043 T02990253 57008 IEM_DS3505
ZGOW,1999-07-09 04:00,ZGOW 090400Z AUTO 23012KT 7SM 31/27 A2965 RMK T03100270 IEM_DS3505
ZGOW,1999-07-09 05:00,ZGOW 090500Z AUTO 20010KT 7SM 31/27 A2962 RMK T03100270 IEM_DS3505
ZGOW,1999-07-09 06:00,ZGOW 090600Z AUTO 18010KT 19SM 31/25 A2959 RMK SLP023 T03130251 57020 IEM_DS3505
ZGOW,1999-07-09 07:00,ZGOW 090700Z AUTO 22010KT 7SM 30/26 A2959 RMK T03000260 IEM_DS3505
ZGOW,1999-07-09 08:00,ZGOW 090800Z AUTO 22008KT 7SM 30/26 A2956 RMK T03000260 IEM_DS3505
ZGOW,1999-07-09 09:00,ZGOW 090900Z AUTO 29004KT 11SM 26/25 A2959 RMK SLP026 T02580248 52003 IEM_DS3505
ZGOW,1999-07-09 10:00,ZGOW 091000Z AUTO 29004KT 7SM 26/25 A2959 RMK T02600250 IEM_DS3505
ZGOW,1999-07-09 11:00,ZGOW 091100Z AUTO 31002KT 7SM 26/25 A2959 RMK T02600250 IEM_DS3505
ZGOW,1999-07-09 12:00,ZGOW 091200Z AUTO 27004KT 11SM 26/25 A2962 RMK SLP033 T02650249 52007 IEM_DS3505
ZGOW,1999-07-09 13:00,ZGOW 091300Z AUTO 14002KT 4SM 26/26 A2962 RMK T02600260 IEM_DS3505
ZGOW,1999-07-09 14:00,ZGOW 091400Z AUTO 12002KT 4SM 26/25 A2965 RMK T02600250 IEM_DS3505
ZGOW,1999-07-09 15:00,ZGOW 091500Z AUTO 36002KT 12SM 27/25 RMK SLP043 T02680252 52010 IEM_DS3505
ZGOW,1999-07-09 18:00,ZGOW 091800Z AUTO 27004KT 8SM 26/24 RMK SLP036 T02640245 57007 IEM_DS3505
ZGOW,1999-07-09 21:00,ZGOW 092100Z AUTO 00000KT 6SM 26/25 A2962 RMK SLP033 T02590250 57003 IEM_DS3505
ZGOW,1999-07-09 22:00,ZGOW 092200Z AUTO 00000KT 2SM 25/25 A2962 RMK T02500250 IEM_DS3505
ZGOW,1999-07-09 23:00,ZGOW 092300Z AUTO 08002KT 1 1/2SM 26/26 A2965 RMK T02600260 IEM_DS3505
ZGOW,1999-07-10 00:00,ZGOW 100000Z AUTO 04004KT 5SM 27/25 A2965 RMK SLP047 T02740254 52014 IEM_DS3505
ZGOW,1999-07-10 01:00,ZGOW 100100Z AUTO 02002KT 4SM 28/27 A2965 RMK T02800270 IEM_DS3505
ZGOW,1999-07-10 02:00,ZGOW 100200Z AUTO 31002KT 4SM 30/26 A2965 RMK T03000260 IEM_DS3505
ZGOW,1999-07-10 03:00,ZGOW 100300Z AUTO 22002KT 12SM 31/26 A2965 RMK SLP037 T03110257 57010 IEM_DS3505
ZGOW,1999-07-10 04:00,ZGOW 100400Z AUTO 12004KT 7SM 29/28 A2962 RMK T02900280 IEM_DS3505
ZGOW,1999-07-10 05:00,ZGOW 100500Z AUTO 21006KT 7SM 29/28 A2959 RMK T02900280 IEM_DS3505
ZGOW,1999-07-10 06:00,ZGOW 100600Z AUTO 22008KT 14SM 32/26 A2959 RMK SLP020 T03220260 57017 IEM_DS3505
ZGOW,1999-07-10 07:00,ZGOW 100700Z AUTO 29006KT 7SM 27/26 A2956 RMK T02700260 IEM_DS3505
ZGOW,1999-07-10 08:00,ZGOW 100800Z AUTO 20010KT 7SM 30/28 A2953 RMK T03000280 IEM_DS3505
ZGOW,1999-07-10 09:00,ZGOW 100900Z AUTO 22008KT 12SM 31/25 A2956 RMK SLP012 T03060253 57008 IEM_DS3505
ZGOW,1999-07-10 10:00,ZGOW 101000Z AUTO 19010KT 7SM 29/27 A2956 RMK T02900270 IEM_DS3505
ZGOW,1999-07-10 11:00,ZGOW 101100Z AUTO 21008KT 6SM 29/27 A2959 RMK T02900270 IEM_DS3505
ZGOW,1999-07-10 12:00,ZGOW 101200Z AUTO 22008KT 11SM 29/26 A2959 RMK SLP029 T02920257 52017 IEM_DS3505
ZGOW,1999-07-10 13:00,ZGOW 101300Z AUTO 23006KT 7SM 29/26 A2962 RMK T02900260 IEM_DS3505
ZGOW,1999-07-10 15:00,ZGOW 101500Z AUTO 22008KT 10SM 29/26 A2965 RMK SLP043 T02870256 52014 IEM_DS3505
ZGOW,1999-07-10 18:00,ZGOW 101800Z AUTO 04004KT 7SM 26/24 RMK SLP037 T02630244 57006 IEM_DS3505
ZGOW,1999-07-10 21:00,ZGOW 102100Z AUTO 00000KT 6SM 26/25 RMK SLP032 T02630253 57005 IEM_DS3505
ZGOW,1999-07-10 22:00,ZGOW 102200Z AUTO 21002KT 2SM 26/26 A2962 RMK T02600260 IEM_DS3505
ZGOW,1999-07-10 23:00,ZGOW 102300Z AUTO 00000KT 2SM 26/26 A2962 RMK T02600260 IEM_DS3505
ZGOW,1999-07-11 00:00,ZGOW 110000Z AUTO 27004KT 5SM 27/25 A2965 RMK SLP041 T02730247 52009 IEM_DS3505
ZGOW,1999-07-11 01:00,ZGOW 110100Z AUTO 00000KT 2 1/2SM 28/27 A2965 RMK T02800270 IEM_DS3505
ZGOW,1999-07-11 02:00,ZGOW 110200Z AUTO 21002KT 2 1/2SM 30/27 A2965 RMK T03000270 IEM_DS3505
ZGOW,1999-07-11 03:00,ZGOW 110300Z AUTO 29002KT 9SM 31/26 A2965 RMK SLP045 T03070255 52004 IEM_DS3505
ZGOW,1999-07-11 04:00,ZGOW 110400Z AUTO 09006KT 2 1/2SM 29/27 A2965 RMK T02900270 IEM_DS3505
ZGOW,1999-07-11 05:00,ZGOW 110500Z AUTO 10006KT 4SM 30/28 A2962 RMK T03000280 IEM_DS3505
ZGOW,1999-07-11 06:00,ZGOW 110600Z AUTO 04002KT 9SM 31/26 A2959 RMK SLP027 T03060263 57018 IEM_DS3505
ZGOW,1999-07-11 08:00,ZGOW 110800Z AUTO 17008KT 5SM 30/28 A2956 RMK T03000280 IEM_DS3505
ZGOW,1999-07-11 09:00,ZGOW 110900Z AUTO 18006KT 12SM 30/26 A2956 RMK SLP014 T02980259 57013 IEM_DS3505
ZGOW,1999-07-11 10:00,ZGOW 111000Z AUTO 19008KT 7SM 28/27 A2956 RMK T02800270 IEM_DS3505
ZGOW,1999-07-11 11:00,ZGOW 111100Z AUTO 20008KT 6SM 28/27 A2959 RMK T02800270 IEM_DS3505
ZGOW,1999-07-11 12:00,ZGOW 111200Z AUTO 20004KT 10SM 28/26 A2962 RMK SLP032 T02850257 52018 IEM_DS3505
ZGOW,1999-07-11 13:00,ZGOW 111300Z AUTO 18004KT 7SM 27/27 A2962 RMK T02700270 IEM_DS3505
ZGOW,1999-07-11 15:00,ZGOW 111500Z AUTO 22004KT 10SM 28/26 RMK SLP039 T02820258 52007 IEM_DS3505
ZGOW,1999-07-11 18:00,ZGOW 111800Z AUTO 22006KT 9SM 28/26 RMK SLP030 T02760259 57009 IEM_DS3505
ZGOW,1999-07-11 21:00,ZGOW 112100Z AUTO 22002KT 9SM 27/26 A2959 RMK SLP028 T02730258 57002 IEM_DS3505
ZGOW,1999-07-11 22:00,ZGOW 112200Z AUTO 00000KT 1 1/2SM 26/26 A2962 RMK T02600260 IEM_DS3505
ZGOW,1999-07-11 23:00,ZGOW 112300Z AUTO 18002KT 2 1/2SM 27/27 A2962 RMK T02700270 IEM_DS3505
ZGOW,1999-07-12 00:00,ZGOW 120000Z AUTO 22006KT 12SM 29/25 A2962 RMK SLP038 T02880250 52010 IEM_DS3505
ZGOW,1999-07-12 01:00,ZGOW 120100Z AUTO 25008KT 6SM 29/26 A2962 RMK T02900260 IEM_DS3505
ZGOW,1999-07-12 02:00,ZGOW 120200Z AUTO 25010KT 7SM 31/26 A2962 RMK T03100260 IEM_DS3505
ZGOW,1999-07-12 03:00,ZGOW 120300Z AUTO 27006KT 14SM 32/24 A2962 RMK SLP032 T03180242 57006 IEM_DS3505
ZGOW,1999-07-12 04:00,ZGOW 120400Z AUTO 26008KT 7SM 33/27 A2959 RMK T03300270 IEM_DS3505
ZGOW,1999-07-12 05:00,ZGOW 120500Z AUTO 19006KT 7SM 33/27 A2959 RMK T03300270 IEM_DS3505
ZGOW,1999-07-12 06:00,ZGOW 120600Z AUTO 25008KT 19SM 34/24 A2956 RMK SLP014 T03430242 57018 IEM_DS3505
ZGOW,1999-07-12 07:00,ZGOW 120700Z AUTO 19012KT 6SM 33/28 A2953 RMK T03300280 IEM_DS3505
ZGOW,1999-07-12 08:00,ZGOW 120800Z AUTO 19014KT 6SM 32/27 A2953 RMK T03200270 IEM_DS3505
ZGOW,1999-07-12 09:00,ZGOW 120900Z AUTO 20010KT 19SM 33/25 A2953 RMK SLP003 T03260249 57011 IEM_DS3505
ZGOW,1999-07-12 10:00,ZGOW 121000Z AUTO 21010KT 6SM 31/26 A2953 RMK T03100260 IEM_DS3505
ZGOW,1999-07-12 11:00,ZGOW 121100Z AUTO 20008KT 6SM 29/26 A2956 RMK T02900260 IEM_DS3505
ZGOW,1999-07-12 12:00,ZGOW 121200Z AUTO 22008KT 12SM 30/25 A2956 RMK SLP021 T02970252 52018 IEM_DS3505
ZGOW,1999-07-12 13:00,ZGOW 121300Z AUTO 20006KT 4SM 29/26 A2959 RMK T02900260 IEM_DS3505
ZGOW,1999-07-12 15:00,ZGOW 121500Z AUTO 22006KT 9SM 29/25 RMK SLP034 T02870250 52013 IEM_DS3505
ZGOW,1999-07-12 18:00,ZGOW 121800Z AUTO 29004KT 9SM 28/25 RMK SLP027 T02800250 57007 IEM_DS3505
ZGOW,1999-07-12 21:00,ZGOW 122100Z AUTO 29002KT 10SM 27/25 RMK SLP021 T02740253 57006 IEM_DS3505
ZGOW,1999-07-12 22:00,ZGOW 122200Z AUTO 00000KT 1 1/2SM 26/25 A2959 RMK T02600250 IEM_DS3505
ZGOW,1999-07-12 23:00,ZGOW 122300Z AUTO 00000KT 2SM 27/27 A2962 RMK T02700270 IEM_DS3505
ZGOW,1999-07-13 00:00,ZGOW 130000Z AUTO 27004KT 14SM 29/26 A2962 RMK SLP032 T02900255 52011 IEM_DS3505
ZGOW,1999-07-13 01:00,ZGOW 130100Z AUTO 36002KT 7SM 30/27 A2962 RMK T03000270 IEM_DS3505
ZGOW,1999-07-13 02:00,ZGOW 130200Z AUTO 12004KT 7SM 31/27 A2962 RMK T03100270 IEM_DS3505
ZGOW,1999-07-13 03:00,ZGOW 130300Z AUTO 22006KT 17SM 32/25 A2962 RMK SLP037 T03170253 52005 IEM_DS3505
ZGOW,1999-07-13 04:00,ZGOW 130400Z AUTO 15008KT 7SM 31/28 A2962 RMK T03100280 IEM_DS3505
ZGOW,1999-07-13 05:00,ZGOW 130500Z AUTO 15008KT 7SM 31/28 A2959 RMK T03100280 IEM_DS3505
ZGOW,1999-07-13 06:00,ZGOW 130600Z AUTO 18006KT 19SM 32/26 A2959 RMK SLP019 T03150261 57018 IEM_DS3505
ZGOW,1999-07-13 07:00,ZGOW 130700Z AUTO 16008KT 7SM 31/27 A2956 RMK T03100270 IEM_DS3505
ZGOW,1999-07-13 08:00,ZGOW 130800Z AUTO 17010KT 7SM 31/27 A2956 RMK T03100270 IEM_DS3505
ZGOW,1999-07-13 09:00,ZGOW 130900Z AUTO 18008KT 19SM 30/26 A2956 RMK SLP010 T03040264 57009 IEM_DS3505
ZGOW,1999-07-13 10:00,ZGOW 131000Z AUTO 19010KT 7SM 30/27 A2956 RMK T03000270 IEM_DS3505
ZGOW,1999-07-13 11:00,ZGOW 131100Z AUTO 19010KT 6SM 29/27 A2956 RMK T02900270 IEM_DS3505
ZGOW,1999-07-13 12:00,ZGOW 131200Z AUTO 18006KT 12SM 29/26 A2959 RMK SLP026 T02860260 52016 IEM_DS3505
ZGOW,1999-07-13 13:00,ZGOW 131300Z AUTO 17006KT 7SM 28/27 A2962 RMK T02800270 IEM_DS3505
ZGOW,1999-07-13 15:00,ZGOW 131500Z AUTO 22006KT 12SM 28/26 RMK SLP044 T02840257 52018 IEM_DS3505
ZGOW,1999-07-13 18:00,ZGOW 131800Z AUTO 22002KT 11SM 28/26 RMK SLP039 T02780257 57005 IEM_DS3505
ZGOW,1999-07-13 21:00,ZGOW 132100Z AUTO 00000KT 9SM 27/26 A2962 RMK SLP036 T02740257 57003 IEM_DS3505
ZGOW,1999-07-13 22:00,ZGOW 132200Z AUTO 06002KT 1/4SM 26/26 A2965 RMK T02600260 IEM_DS3505
ZGOW,1999-07-13 23:00,ZGOW 132300Z AUTO 00000KT 1 1/2SM 27/27 A2965 RMK T02700270 IEM_DS3505
ZGOW,1999-07-14 00:00,ZGOW 140000Z AUTO 02002KT 16SM 29/26 A2965 RMK SLP048 T02880264 52012 IEM_DS3505
ZGOW,1999-07-14 01:00,ZGOW 140100Z AUTO 00000KT 3SM 30/27 A2965 RMK T03000270 IEM_DS3505
ZGOW,1999-07-14 02:00,ZGOW 140200Z AUTO 13004KT 7SM 30/28 A2968 RMK T03000280 IEM_DS3505
ZGOW,1999-07-14 03:00,ZGOW 140300Z AUTO 18006KT 19SM 32/26 A2968 RMK SLP048 T03200261 54000 IEM_DS3505
ZGOW,1999-07-14 04:00,ZGOW 140400Z AUTO 13008KT 7SM 32/28 A2965 RMK T03200280 IEM_DS3505
ZGOW,1999-07-14 05:00,ZGOW 140500Z AUTO 13010KT 7SM 31/28 A2965 RMK T03100280 IEM_DS3505
ZGOW,1999-07-14 06:00,ZGOW 140600Z AUTO 20008KT 19SM 32/26 A2962 RMK SLP037 T03190255 57011 IEM_DS3505
ZGOW,1999-07-14 07:00,ZGOW 140700Z AUTO 15010KT 7SM 31/28 A2962 RMK T03100280 IEM_DS3505
ZGOW,1999-07-14 08:00,ZGOW 140800Z AUTO 16012KT 7SM 31/27 A2959 RMK T03100270 IEM_DS3505
ZGOW,1999-07-14 09:00,ZGOW 140900Z AUTO 18008KT 17SM 30/25 A2959 RMK SLP028 T03000248 57009 IEM_DS3505
ZGOW,1999-07-14 10:00,ZGOW 141000Z AUTO 15008KT 7SM 29/26 A2959 RMK T02900260 IEM_DS3505
ZGOW,1999-07-14 11:00,ZGOW 141100Z AUTO 16006KT 7SM 28/27 A2962 RMK T02800270 IEM_DS3505
ZGOW,1999-07-14 12:00,ZGOW 141200Z AUTO 18006KT 11SM 29/26 A2965 RMK SLP047 T02870256 52019 IEM_DS3505
ZGOW,1999-07-14 13:00,ZGOW 141300Z AUTO 16006KT 7SM 28/27 A2968 RMK T02800270 IEM_DS3505
ZGOW,1999-07-14 15:00,ZGOW 141500Z AUTO 18006KT 11SM 28/26 RMK SLP059 T02830261 52012 IEM_DS3505
ZGOW,1999-07-14 18:00,ZGOW 141800Z AUTO 00000KT 10SM 28/26 RMK SLP045 T02810262 57014 IEM_DS3505
ZGOW,1999-07-14 21:00,ZGOW 142100Z AUTO 18004KT 9SM 28/26 RMK SLP037 T02770262 57008 IEM_DS3505
ZGOW,1999-07-14 22:00,ZGOW 142200Z AUTO 15004KT 2 1/2SM 27/27 A2962 RMK T02700270 IEM_DS3505
ZGOW,1999-07-14 23:00,ZGOW 142300Z AUTO 14002KT 7SM 27/27 A2965 RMK T02700270 IEM_DS3505
ZGOW,1999-07-15 00:00,ZGOW 150000Z AUTO 18004KT 17SM 29/26 A2965 RMK SLP051 T02940259 52014 IEM_DS3505
ZGOW,1999-07-15 01:00,ZGOW 150100Z AUTO 18006KT 7SM 30/28 A2965 RMK T03000280 IEM_DS3505
ZGOW,1999-07-15 02:00,ZGOW 150200Z AUTO 17008KT 7SM 31/28 A2968 RMK T03100280 IEM_DS3505
ZGOW,1999-07-15 03:00,ZGOW 150300Z AUTO 18006KT 19SM 29/25 A2968 RMK SLP050 T02900251 57001 IEM_DS3505
ZGOW,1999-07-15 04:00,ZGOW 150400Z AUTO 22008KT 3SM 27/26 A2968 RMK T02700260 IEM_DS3505
ZGOW,1999-07-15 05:00,ZGOW 150500Z AUTO 19006KT 4SM 26/25 A2971 RMK T02600250 IEM_DS3505
ZGOW,1999-07-15 06:00,ZGOW 150600Z AUTO 00000KT 9SM 26/25 A2968 RMK SLP050 T02640248 54000 IEM_DS3505
ZGOW,1999-07-15 07:00,ZGOW 150700Z AUTO 00000KT 7SM 27/26 A2965 RMK T02700260 IEM_DS3505
ZGOW,1999-07-15 08:00,ZGOW 150800Z AUTO 00000KT 7SM 28/26 A2965 RMK T02800260 IEM_DS3505
ZGOW,1999-07-15 09:00,ZGOW 150900Z AUTO 27006KT 10SM 28/25 A2965 RMK SLP042 T02810247 57008 IEM_DS3505
ZGOW,1999-07-15 10:00,ZGOW 151000Z AUTO 20008KT 7SM 27/26 A2965 RMK T02700260 IEM_DS3505
ZGOW,1999-07-15 11:00,ZGOW 151100Z AUTO 16002KT 7SM 27/25 A2965 RMK T02700250 IEM_DS3505
ZGOW,1999-07-15 12:00,ZGOW 151200Z AUTO 22004KT 10SM 27/25 A2965 RMK SLP045 T02720251 52003 IEM_DS3505
ZGOW,1999-07-15 13:00,ZGOW 151300Z AUTO 02004KT 4SM 26/26 A2965 RMK T02600260 IEM_DS3505
ZGOW,1999-07-15 15:00,ZGOW 151500Z AUTO 00000KT 7SM 26/25 RMK SLP058 T02640250 52013 IEM_DS3505
ZGOW,1999-07-15 18:00,ZGOW 151800Z AUTO 22004KT 6SM 26/24 RMK SLP051 T02620245 57007 IEM_DS3505
ZGOW,1999-07-15 21:00,ZGOW 152100Z AUTO 00000KT 6SM 26/24 RMK SLP048 T02580245 57003 IEM_DS3505
ZGOW,1999-07-16 00:00,ZGOW 160000Z AUTO 29004KT 12SM 28/25 RMK SLP056 T02770250 52008 IEM_DS3505
ZGOW,1999-07-16 03:00,ZGOW 160300Z AUTO 25008KT 14SM 29/25 A2968 RMK SLP050 T02930252 57006 IEM_DS3505
ZGOW,1999-07-16 04:00,ZGOW 160400Z AUTO 14010KT 4SM 28/27 A2968 RMK T02800270 IEM_DS3505
ZGOW,1999-07-16 05:00,ZGOW 160500Z AUTO 17008KT 7SM 29/27 A2965 RMK T02900270 IEM_DS3505
ZGOW,1999-07-16 06:00,ZGOW 160600Z AUTO 29010KT 11SM 28/25 A2965 RMK SLP046 T02780251 57004 IEM_DS3505
ZGOW,1999-07-16 07:00,ZGOW 160700Z AUTO 28004KT 7SM 28/27 A2965 RMK T02800270 IEM_DS3505
ZGOW,1999-07-16 08:00,ZGOW 160800Z AUTO 29002KT 7SM 29/27 A2965 RMK T02900270 IEM_DS3505
ZGOW,1999-07-16 09:00,ZGOW 160900Z AUTO 00000KT 17SM 30/25 A2965 RMK SLP041 T02960252 57005 IEM_DS3505
ZGOW,1999-07-16 10:00,ZGOW 161000Z AUTO 06004KT 7SM 28/27 A2965 RMK T02800270 IEM_DS3505
ZGOW,1999-07-16 11:00,ZGOW 161100Z AUTO 04004KT 7SM 27/27 A2968 RMK T02700270 IEM_DS3505
ZGOW,1999-07-16 12:00,ZGOW 161200Z AUTO 04004KT 5SM 28/26 A2968 RMK SLP056 T02780263 52015 IEM_DS3505
ZGOW,1999-07-16 13:00,ZGOW 161300Z AUTO 00000KT 4SM 27/26 A2971 RMK T02700260 IEM_DS3505
ZGOW,1999-07-16 14:00,ZGOW 161400Z AUTO 16002KT 3SM 27/26 A2971 RMK T02700260 IEM_DS3505
ZGOW,1999-07-16 15:00,ZGOW 161500Z AUTO 18002KT 9SM 27/26 RMK SLP074 T02740261 52018 IEM_DS3505
ZGOW,1999-07-16 18:00,ZGOW 161800Z AUTO 22004KT 10SM 27/26 RMK SLP069 T02740257 57005 IEM_DS3505
ZGOW,1999-07-16 21:00,ZGOW 162100Z AUTO 00000KT 9SM 26/26 A2971 RMK SLP065 T02640256 57004 IEM_DS3505
ZGOW,1999-07-16 22:00,ZGOW 162200Z AUTO 00000KT 7SM 26/25 A2971 RMK T02600250 IEM_DS3505
ZGOW,1999-07-16 23:00,ZGOW 162300Z AUTO 11002KT 7SM 27/27 A2974 RMK T02700270 IEM_DS3505
ZGOW,1999-07-17 00:00,ZGOW 170000Z AUTO 07002KT 7SM 28/26 A2974 RMK SLP075 T02800265 52010 IEM_DS3505
ZGOW,1999-07-17 01:00,ZGOW 170100Z AUTO 00000KT 7SM 29/28 A2974 RMK T02900280 IEM_DS3505
ZGOW,1999-07-17 03:00,ZGOW 170300Z AUTO 20006KT 11SM 30/26 A2974 RMK SLP073 T03040261 57002 IEM_DS3505
ZGOW,1999-07-17 04:00,ZGOW 170400Z AUTO 20006KT 7SM 29/28 A2974 RMK T02900280 IEM_DS3505
ZGOW,1999-07-17 06:00,ZGOW 170600Z AUTO 27010KT 6SM 27/25 A2971 RMK SLP071 T02710254 57002 IEM_DS3505
ZGOW,1999-07-17 07:00,ZGOW 170700Z AUTO 21002KT 7SM 28/27 A2971 RMK T02800270 IEM_DS3505
ZGOW,1999-07-17 08:00,ZGOW 170800Z AUTO 20004KT 7SM 29/28 A2968 RMK T02900280 IEM_DS3505
ZGOW,1999-07-17 09:00,ZGOW 170900Z AUTO 27008KT 16SM 30/26 A2968 RMK SLP056 T02980258 57015 IEM_DS3505
ZGOW,1999-07-17 10:00,ZGOW 171000Z AUTO 19008KT 6SM 29/27 A2968 RMK T02900270 IEM_DS3505
ZGOW,1999-07-17 12:00,ZGOW 171200Z AUTO 22006KT 12SM 29/26 A2971 RMK SLP062 T02900255 52006 IEM_DS3505
ZGOW,1999-07-17 13:00,ZGOW 171300Z AUTO 20004KT 6SM 28/27 A2974 RMK T02800270 IEM_DS3505
ZGOW,1999-07-17 15:00,ZGOW 171500Z AUTO 18004KT 10SM 28/26 RMK SLP076 T02810261 52014 IEM_DS3505
ZGOW,1999-07-17 18:00,ZGOW 171800Z AUTO 22006KT 9SM 28/26 RMK SLP068 T02800258 57008 IEM_DS3505
ZGOW,1999-07-17 21:00,ZGOW 172100Z AUTO 22004KT 8SM 28/25 RMK SLP061 T02750251 57007 IEM_DS3505
ZGOW,1999-07-17 22:00,ZGOW 172200Z AUTO 22004KT 7SM 26/26 A2971 RMK T02600260 IEM_DS3505
ZGOW,1999-07-17 23:00,ZGOW 172300Z AUTO 23006KT 6SM 28/26 A2971 RMK T02800260 IEM_DS3505
ZGOW,1999-07-18 00:00,ZGOW 180000Z AUTO 22008KT 12SM 29/25 A2971 RMK SLP061 T02890252 54000 IEM_DS3505
ZGOW,1999-07-18 01:00,ZGOW 180100Z AUTO 22010KT 7SM 30/27 A2971 RMK T03000270 IEM_DS3505
ZGOW,1999-07-18 02:00,ZGOW 180200Z AUTO 25010KT 7SM 30/26 RMK T03000260 IEM_DS3505
ZGOW,1999-07-18 03:00,ZGOW 180300Z AUTO 25010KT 16SM 31/24 RMK SLP057 T03140245 57004 IEM_DS3505
ZGOW,1999-07-18 06:00,ZGOW 180600Z AUTO 22008KT 19SM 33/25 RMK SLP045 T03290251 57012 IEM_DS3505
ZGOW,1999-07-18 08:00,ZGOW 180800Z AUTO 21010KT 7SM 32/28 A2962 RMK T03200280 IEM_DS3505
ZGOW,1999-07-18 09:00,ZGOW 180900Z AUTO 22010KT 16SM 32/26 A2962 RMK SLP030 T03180260 57015 IEM_DS3505
ZGOW,1999-07-18 10:00,ZGOW 181000Z AUTO 22010KT 7SM 31/27 A2962 RMK T03100270 IEM_DS3505
ZGOW,1999-07-18 11:00,ZGOW 181100Z AUTO 23010KT 7SM 30/27 A2962 RMK T03000270 IEM_DS3505
ZGOW,1999-07-18 12:00,ZGOW 181200Z AUTO 22010KT 16SM 30/26 A2962 RMK SLP039 T02980255 52009 IEM_DS3505
ZGOW,1999-07-18 13:00,ZGOW 181300Z AUTO 23010KT 7SM 29/26 A2965 RMK T02900260 IEM_DS3505
ZGOW,1999-07-18 15:00,ZGOW 181500Z AUTO 25006KT 11SM 29/25 RMK SLP040 T02880254 52001 IEM_DS3505
ZGOW,1999-07-18 18:00,ZGOW 181800Z AUTO 29002KT 10SM 28/26 RMK SLP043 T02820258 52003 IEM_DS3505
ZGOW,1999-07-18 21:00,ZGOW 182100Z AUTO 00000KT 10SM 28/25 A2962 RMK SLP039 T02800253 57004 IEM_DS3505
ZGOW,1999-07-18 22:00,ZGOW 182200Z AUTO 26004KT 3SM 27/26 A2965 RMK T02700260 IEM_DS3505
ZGOW,1999-07-18 23:00,ZGOW 182300Z AUTO 33002KT 3SM 28/26 A2965 RMK T02800260 IEM_DS3505
ZGOW,1999-07-19 00:00,ZGOW 190000Z AUTO 27004KT 12SM 30/26 A2965 RMK SLP046 T02950259 52007 IEM_DS3505
ZGOW,1999-07-19 01:00,ZGOW 190100Z AUTO 25004KT 6SM 30/27 A2965 RMK T03000270 IEM_DS3505
ZGOW,1999-07-19 02:00,ZGOW 190200Z AUTO 22004KT 7SM 31/27 A2965 RMK T03100270 IEM_DS3505
ZGOW,1999-07-19 03:00,ZGOW 190300Z AUTO 22006KT 14SM 32/25 A2965 RMK SLP044 T03210250 57002 IEM_DS3505
ZGOW,1999-07-19 04:00,ZGOW 190400Z AUTO 25008KT 7SM 33/27 A2962 RMK T03300270 IEM_DS3505
ZGOW,1999-07-19 05:00,ZGOW 190500Z AUTO 21006KT 7SM 33/28 A2962 RMK T03300280 IEM_DS3505
ZGOW,1999-07-19 06:00,ZGOW 190600Z AUTO 22012KT 14SM 30/26 A2959 RMK SLP026 T03050261 57018 IEM_DS3505
ZGOW,1999-07-19 07:00,ZGOW 190700Z AUTO 22012KT 7SM 31/28 A2959 RMK T03100280 IEM_DS3505
ZGOW,1999-07-19 08:00,ZGOW 190800Z AUTO 23010KT 7SM 31/27 A2956 RMK T03100270 IEM_DS3505
ZGOW,1999-07-19 09:00,ZGOW 190900Z AUTO 22006KT 10SM 31/26 A2956 RMK SLP015 T03080265 57011 IEM_DS3505
ZGOW,1999-07-19 10:00,ZGOW 191000Z AUTO 25008KT 7SM 31/27 A2959 RMK T03100270 IEM_DS3505
ZGOW,1999-07-19 11:00,ZGOW 191100Z AUTO 25006KT 6SM 30/27 A2959 RMK T03000270 IEM_DS3505
ZGOW,1999-07-19 12:00,ZGOW 191200Z AUTO 25004KT 9SM 30/26 A2962 RMK SLP036 T03000263 52021 IEM_DS3505
ZGOW,1999-07-19 13:00,ZGOW 191300Z AUTO 23004KT 5SM 29/27 A2962 RMK T02900270 IEM_DS3505
ZGOW,1999-07-19 15:00,ZGOW 191500Z AUTO 27008KT 9SM 29/26 RMK SLP048 T02940258 52012 IEM_DS3505
ZGOW,1999-07-19 18:00,ZGOW 191800Z AUTO 27002KT 7SM 28/25 RMK SLP036 T02780247 57012 IEM_DS3505
ZGOW,1999-07-19 21:00,ZGOW 192100Z AUTO 04004KT 9SM 27/24 RMK SLP033 T02710245 57003 IEM_DS3505
ZGOW,1999-07-19 22:00,ZGOW 192200Z AUTO 30002KT 6SM 27/25 A2962 RMK T02700250 IEM_DS3505
ZGOW,1999-07-19 23:00,ZGOW 192300Z AUTO 28002KT 6SM 27/25 A2965 RMK T02700250 IEM_DS3505
ZGOW,1999-07-20 00:00,ZGOW 200000Z AUTO 00000KT 5SM 29/25 A2965 RMK SLP048 T02860254 52015 IEM_DS3505
ZGOW,1999-07-20 01:00,ZGOW 200100Z AUTO 24002KT 2 1/2SM 29/26 A2965 RMK T02900260 IEM_DS3505
ZGOW,1999-07-20 02:00,ZGOW 200200Z AUTO 32004KT 2 1/2SM 30/27 A2965 RMK T03000270 IEM_DS3505
ZGOW,1999-07-20 03:00,ZGOW 200300Z AUTO 29008KT 5SM 32/26 A2965 RMK SLP049 T03190262 52001 IEM_DS3505
ZGOW,1999-07-20 04:00,ZGOW 200400Z AUTO 27004KT 7SM 32/28 A2965 RMK T03200280 IEM_DS3505
ZGOW,1999-07-20 05:00,ZGOW 200500Z AUTO 27004KT 7SM 33/28 A2962 RMK T03300280 IEM_DS3505
ZGOW,1999-07-20 06:00,ZGOW 200600Z AUTO 22010KT 7SM 35/26 A2962 RMK SLP029 T03460265 57020 IEM_DS3505
ZGOW,1999-07-20 07:00,ZGOW 200700Z AUTO 28006KT 7SM 33/27 A2959 RMK T03300270 IEM_DS3505
ZGOW,1999-07-20 08:00,ZGOW 200800Z AUTO 25004KT 4SM 30/28 A2956 RMK T03000280 IEM_DS3505
ZGOW,1999-07-20 09:00,ZGOW 200900Z AUTO 25008KT 6SM 32/24 A2956 RMK SLP012 T03200238 57017 IEM_DS3505
ZGOW,1999-07-20 10:00,ZGOW 201000Z AUTO 26004KT 4SM 31/27 A2959 RMK T03100270 IEM_DS3505
ZGOW,1999-07-20 11:00,ZGOW 201100Z AUTO 25002KT 2SM 30/27 A2959 RMK T03000270 IEM_DS3505
ZGOW,1999-07-20 12:00,ZGOW 201200Z AUTO 25006KT 5SM 30/27 A2962 RMK SLP030 T03010268 52018 IEM_DS3505
ZGOW,1999-07-20 13:00,ZGOW 201300Z AUTO 24004KT 2 1/2SM 29/28 A2962 RMK T02900280 IEM_DS3505
ZGOW,1999-07-20 15:00,ZGOW 201500Z AUTO 25004KT 5SM 29/26 RMK SLP039 T02930264 52009 IEM_DS3505
ZGOW,1999-07-20 18:00,ZGOW 201800Z AUTO 00000KT 4SM 28/26 RMK SLP035 T02830265 57004 IEM_DS3505
ZGOW,1999-07-20 21:00,ZGOW 202100Z AUTO 00000KT 4SM 28/26 A2962 RMK SLP033 T02820264 57002 IEM_DS3505
ZGOW,1999-07-20 22:00,ZGOW 202200Z AUTO 13004KT 1 1/4SM 27/27 A2962 RMK T02700270 IEM_DS3505
ZGOW,1999-07-20 23:00,ZGOW 202300Z AUTO 13004KT 1 1/2SM 26/26 A2965 RMK T02600260 IEM_DS3505
ZGOW,1999-07-21 00:00,ZGOW 210000Z AUTO 11006KT 4SM 27/25 A2968 RMK SLP049 T02730253 52016 IEM_DS3505
ZGOW,1999-07-21 01:00,ZGOW 210100Z AUTO 13004KT 1 1/2SM 28/27 A2968 RMK T02800270 IEM_DS3505
ZGOW,1999-07-21 02:00,ZGOW 210200Z AUTO 14002KT 1 1/2SM 29/27 A2968 RMK T02900270 IEM_DS3505
ZGOW,1999-07-21 03:00,ZGOW 210300Z AUTO 11002KT 5SM 31/26 A2965 RMK SLP047 T03100263 57002 IEM_DS3505
ZGOW,1999-07-21 04:00,ZGOW 210400Z AUTO 15006KT 3SM 31/28 A2962 RMK T03100280 IEM_DS3505
ZGOW,1999-07-21 05:00,ZGOW 210500Z AUTO 13008KT 4SM 31/28 A2959 RMK T03100280 IEM_DS3505
ZGOW,1999-07-21 06:00,ZGOW 210600Z AUTO 14006KT 5SM 32/26 RMK SLP027 T03170262 57020 IEM_DS3505
ZGOW,1999-07-21 07:00,ZGOW 210700Z AUTO 14012KT 4SM 30/27 A2956 RMK T03000270 IEM_DS3505
ZGOW,1999-07-21 08:00,ZGOW 210800Z AUTO 13010KT 1SM 27/26 A2959 RMK T02700260 IEM_DS3505
ZGOW,1999-07-21 09:00,ZGOW 210900Z AUTO 14006KT 5SM 32/26 A2959 RMK SLP027 T03170262 57020 IEM_DS3505
ZGOW,1999-07-21 10:00,ZGOW 211000Z AUTO 12006KT 1/2SM RMK IEM_DS3505
ZGOW,1999-07-21 11:00,ZGOW 211100Z AUTO 15002KT 1SM 27/25 A2965 RMK T02700250 IEM_DS3505
ZGOW,1999-07-21 12:00,ZGOW 211200Z AUTO 27004KT 5SM 27/24 A2965 RMK SLP041 T02670240 52011 IEM_DS3505
ZGOW,1999-07-21 13:00,ZGOW 211300Z AUTO 04006KT 1SM 26/25 A2965 RMK T02600250 IEM_DS3505
ZGOW,1999-07-21 15:00,ZGOW 211500Z AUTO 04004KT 5SM 27/24 RMK SLP048 T02670243 52007 IEM_DS3505
ZGOW,1999-07-21 18:00,ZGOW 211800Z AUTO 00000KT 4SM 26/24 RMK SLP030 T02630240 57018 IEM_DS3505
ZGOW,1999-07-21 21:00,ZGOW 212100Z AUTO 02002KT 3SM 26/24 RMK SLP029 T02600241 57001 IEM_DS3505
ZGOW,1999-07-21 22:00,ZGOW 212200Z AUTO 32004KT 1SM 25/25 A2962 RMK T02500250 IEM_DS3505
ZGOW,1999-07-21 23:00,ZGOW 212300Z AUTO 34002KT 1SM 26/26 A2962 RMK T02600260 IEM_DS3505
ZGOW,1999-07-22 00:00,ZGOW 220000Z AUTO 02004KT 4SM 28/25 RMK SLP042 T02820247 52013 IEM_DS3505
ZGOW,1999-07-22 02:00,ZGOW 220200Z AUTO 06004KT 4SM 30/26 A2965 RMK T03000260 IEM_DS3505
ZGOW,1999-07-22 03:00,ZGOW 220300Z AUTO 04008KT 4SM 30/25 A2968 RMK SLP051 T03050246 52009 IEM_DS3505
ZGOW,1999-07-22 04:00,ZGOW 220400Z AUTO 08006KT 32/26 A2965 RMK T03200260 IEM_DS3505
ZGOW,1999-07-22 05:00,ZGOW 220500Z AUTO 09008KT 4SM 32/27 A2962 RMK T03200270 IEM_DS3505
ZGOW,1999-07-22 06:00,ZGOW 220600Z AUTO 11008KT 6SM 32/24 A2959 RMK SLP028 T03240242 57023 IEM_DS3505
ZGOW,1999-07-22 07:00,ZGOW 220700Z AUTO 13010KT 4SM 31/26 A2956 RMK T03100260 IEM_DS3505
ZGOW,1999-07-22 08:00,ZGOW 220800Z AUTO 12010KT 2 1/2SM 31/26 A2953 RMK T03100260 IEM_DS3505
ZGOW,1999-07-22 09:00,ZGOW 220900Z AUTO 11004KT 7SM 32/25 A2956 RMK SLP009 T03160247 57019 IEM_DS3505
ZGOW,1999-07-22 10:00,ZGOW 221000Z AUTO 13008KT 1 1/4SM 30/26 A2956 RMK T03000260 IEM_DS3505
ZGOW,1999-07-22 11:00,ZGOW 221100Z AUTO 12006KT 1SM 29/26 A2956 RMK T02900260 IEM_DS3505
ZGOW,1999-07-22 12:00,ZGOW 221200Z AUTO 07004KT 6SM 29/25 A2959 RMK SLP025 T02910250 52016 IEM_DS3505
ZGOW,1999-07-22 13:00,ZGOW 221300Z AUTO 08004KT 2 1/2SM 28/26 A2959 RMK T02800260 IEM_DS3505
ZGOW,1999-07-22 15:00,ZGOW 221500Z AUTO 07004KT 5SM 29/25 RMK SLP029 T02900252 52004 IEM_DS3505
ZGOW,1999-07-22 18:00,ZGOW 221800Z AUTO 04002KT 5SM 28/26 RMK SLP019 T02840259 57010 IEM_DS3505
ZGOW,1999-07-22 21:00,ZGOW 222100Z AUTO 04002KT 4SM 28/26 RMK SLP008 T02750260 57011 IEM_DS3505
ZGOW,1999-07-22 22:00,ZGOW 222200Z AUTO 34004KT 1/2SM 27/26 A2953 RMK T02700260 IEM_DS3505
ZGOW,1999-07-22 23:00,ZGOW 222300Z AUTO 32006KT 1SM 28/27 A2953 RMK T02800270 IEM_DS3505
ZGOW,1999-07-23 00:00,ZGOW 230000Z AUTO 04004KT 3SM 30/26 A2953 RMK SLP012 T02950262 52004 IEM_DS3505
ZGOW,1999-07-23 01:00,ZGOW 230100Z AUTO 06004KT 3SM 31/27 A2953 RMK T03100270 IEM_DS3505
ZGOW,1999-07-23 02:00,ZGOW 230200Z AUTO 08008KT 7SM 33/26 A2956 RMK T03300260 IEM_DS3505
ZGOW,1999-07-23 03:00,ZGOW 230300Z AUTO 16006KT 8SM 33/24 A2956 RMK SLP009 T03300241 57003 IEM_DS3505
ZGOW,1999-07-23 04:00,ZGOW 230400Z AUTO 09006KT 7SM 33/26 A2953 RMK T03300260 IEM_DS3505
ZGOW,1999-07-23 05:00,ZGOW 230500Z AUTO 08004KT 7SM 34/26 A2950 RMK T03400260 IEM_DS3505
ZGOW,1999-07-23 06:00,ZGOW 230600Z AUTO 14006KT 11SM 33/24 A2950 RMK SLP994 T03280245 57015 IEM_DS3505
ZGOW,1999-07-23 07:00,ZGOW 230700Z AUTO 14006KT 6SM 32/27 A2947 RMK T03200270 IEM_DS3505
ZGOW,1999-07-23 08:00,ZGOW 230800Z AUTO 13006KT 6SM 32/28 A2947 RMK T03200280 IEM_DS3505
ZGOW,1999-07-23 09:00,ZGOW 230900Z AUTO 14008KT 14SM 32/26 A2947 RMK SLP983 T03170256 57011 IEM_DS3505
ZGOW,1999-07-23 10:00,ZGOW 231000Z AUTO 12006KT 1SM 31/27 A2947 RMK T03100270 IEM_DS3505
ZGOW,1999-07-23 11:00,ZGOW 231100Z AUTO 14004KT 1 1/2SM 29/26 A2947 RMK T02900260 IEM_DS3505
ZGOW,1999-07-23 12:00,ZGOW 231200Z AUTO 11002KT 10SM 29/25 A2950 RMK SLP992 T02940252 52009 IEM_DS3505
ZGOW,1999-07-23 13:00,ZGOW 231300Z AUTO 23002KT 7SM 28/26 A2953 RMK T02800260 IEM_DS3505
ZGOW,1999-07-23 14:00,ZGOW 231400Z AUTO 00000KT 7SM 28/26 A2953 RMK T02800260 IEM_DS3505
ZGOW,1999-07-23 15:00,ZGOW 231500Z AUTO 18004KT 10SM 28/25 A2953 RMK SLP008 T02850254 52016 IEM_DS3505
ZGOW,1999-07-23 18:00,ZGOW 231800Z AUTO 34002KT 9SM 28/25 RMK SLP996 T02770252 57012 IEM_DS3505
ZGOW,1999-07-23 21:00,ZGOW 232100Z AUTO 36002KT 5SM 28/26 A2947 RMK SLP984 T02760258 57012 IEM_DS3505
ZGOW,1999-07-23 22:00,ZGOW 232200Z AUTO 30002KT 2SM 27/26 A2947 RMK T02700260 IEM_DS3505
ZGOW,1999-07-23 23:00,ZGOW 232300Z AUTO 32004KT 1 1/4SM 28/27 A2950 RMK T02800270 IEM_DS3505
ZGOW,1999-07-24 00:00,ZGOW 240000Z AUTO 36002KT 2SM 30/26 A2950 RMK SLP996 T02980265 52012 IEM_DS3505
ZGOW,1999-07-24 01:00,ZGOW 240100Z AUTO 04004KT 2SM 31/26 A2950 RMK T03100260 IEM_DS3505
ZGOW,1999-07-24 02:00,ZGOW 240200Z AUTO 07010KT 7SM 33/26 A2950 RMK T03300260 IEM_DS3505
ZGOW,1999-07-24 03:00,ZGOW 240300Z AUTO 07008KT 7SM 33/24 A2950 RMK SLP989 T03320239 57007 IEM_DS3505
ZGOW,1999-07-24 04:00,ZGOW 240400Z AUTO 09010KT 7SM 33/27 A2950 RMK T03300270 IEM_DS3505
ZGOW,1999-07-24 05:00,ZGOW 240500Z AUTO 08014KT 6SM 33/27 A2950 RMK T03300270 IEM_DS3505
ZGOW,1999-07-24 06:00,ZGOW 240600Z AUTO 07008KT 11SM 34/25 A2947 RMK SLP986 T03360254 57003 IEM_DS3505
ZGOW,1999-07-24 07:00,ZGOW 240700Z AUTO 09012KT 6SM 33/27 A2947 RMK T03300270 IEM_DS3505
ZGOW,1999-07-24 08:00,ZGOW 240800Z AUTO 10010KT 2SM 33/26 A2944 RMK T03300260 IEM_DS3505
ZGOW,1999-07-24 09:00,ZGOW 240900Z AUTO 14004KT 11SM 32/25 A2944 RMK SLP976 T03190252 57010 IEM_DS3505
ZGOW,1999-07-24 10:00,ZGOW 241000Z AUTO 12008KT 1 1/4SM 30/26 A2944 RMK T03000260 IEM_DS3505
ZGOW,1999-07-24 11:00,ZGOW 241100Z AUTO 12010KT 1 1/4SM 28/25 A2947 RMK T02800250 IEM_DS3505
ZGOW,1999-07-24 12:00,ZGOW 241200Z AUTO 14010KT 9SM 28/24 A2950 RMK SLP993 T02850244 52017 IEM_DS3505
ZGOW,1999-07-24 13:00,ZGOW 241300Z AUTO 11006KT 6SM 27/25 A2950 RMK T02700250 IEM_DS3505
ZGOW,1999-07-24 15:00,ZGOW 241500Z AUTO 09004KT 9SM 29/24 RMK SLP004 T02910241 52011 IEM_DS3505
ZGOW,1999-07-24 18:00,ZGOW 241800Z AUTO 00000KT 8SM 28/25 RMK SLP989 T02750250 57015 IEM_DS3505
ZGOW,1999-07-24 21:00,ZGOW 242100Z AUTO 04004KT 7SM 27/25 RMK SLP988 T02710250 57001 IEM_DS3505
ZGOW,1999-07-24 22:00,ZGOW 242200Z AUTO 33004KT 1 1/2SM 27/26 A2947 RMK T02700260 IEM_DS3505
ZGOW,1999-07-24 23:00,ZGOW 242300Z AUTO 30002KT 1 1/2SM 27/26 A2950 RMK T02700260 IEM_DS3505
ZGOW,1999-07-25 00:00,ZGOW 250000Z AUTO 02002KT 4SM 29/26 A2950 RMK SLP994 T02900256 52006 IEM_DS3505
ZGOW,1999-07-25 01:00,ZGOW 250100Z AUTO 07004KT 4SM 30/25 A2950 RMK T03000250 IEM_DS3505
ZGOW,1999-07-25 02:00,ZGOW 250200Z AUTO 07012KT 4SM 30/25 A2950 RMK T03000250 IEM_DS3505
ZGOW,1999-07-25 03:00,ZGOW 250300Z AUTO 09006KT 7SM 31/25 A2950 RMK SLP996 T03090246 52002 IEM_DS3505
ZGOW,1999-07-25 04:00,ZGOW 250400Z AUTO 08019G29KT 7SM 32/26 A2950 RMK T03200260 IEM_DS3505
ZGOW,1999-07-25 05:00,ZGOW 250500Z AUTO 08017G29KT 7SM 31/26 A2950 RMK T03100260 IEM_DS3505
ZGOW,1999-07-25 06:00,ZGOW 250600Z AUTO 04012KT 12SM 32/24 A2950 RMK SLP990 T03160243 57006 IEM_DS3505
ZGOW,1999-07-25 07:00,ZGOW 250700Z AUTO 08017G29KT 7SM 31/27 A2950 RMK T03100270 IEM_DS3505
ZGOW,1999-07-25 09:00,ZGOW 250900Z AUTO 11008KT 11SM 31/25 A2944 RMK SLP976 T03100254 57014 IEM_DS3505
ZGOW,1999-07-25 10:00,ZGOW 251000Z AUTO 08016KT 4SM 29/26 A2944 RMK T02900260 IEM_DS3505
ZGOW,1999-07-25 11:00,ZGOW 251100Z AUTO 08012KT 3SM 28/26 A2947 RMK T02800260 IEM_DS3505
ZGOW,1999-07-25 12:00,ZGOW 251200Z AUTO 09010KT 6SM 28/26 A2950 RMK SLP996 T02820255 52020 IEM_DS3505
ZGOW,1999-07-25 13:00,ZGOW 251300Z AUTO 08014KT 7SM 27/26 A2953 RMK T02700260 IEM_DS3505
ZGOW,1999-07-25 15:00,ZGOW 251500Z AUTO 07008KT 8SM 28/25 RMK SLP012 T02800253 52016 IEM_DS3505
ZGOW,1999-07-25 18:00,ZGOW 251800Z AUTO 09012KT 7SM 28/25 RMK SLP996 T02760252 57016 IEM_DS3505
ZGOW,1999-07-25 21:00,ZGOW 252100Z AUTO 07008KT 6SM 27/26 A2947 RMK SLP989 T02660258 57007 IEM_DS3505
ZGOW,1999-07-25 22:00,ZGOW 252200Z AUTO 08012KT 7SM 26/26 A2950 RMK T02600260 IEM_DS3505
ZGOW,1999-07-25 23:00,ZGOW 252300Z AUTO 08008KT 5SM 27/26 A2950 RMK T02700260 IEM_DS3505
ZGOW,1999-07-26 00:00,ZGOW 260000Z AUTO 09010KT 7SM 27/25 A2950 RMK SLP999 T02740253 52010 IEM_DS3505
ZGOW,1999-07-26 01:00,ZGOW 260100Z AUTO 08012KT 7SM 29/27 A2950 RMK T02900270 IEM_DS3505
ZGOW,1999-07-26 02:00,ZGOW 260200Z AUTO 07014KT 7SM 29/27 A2950 RMK T02900270 IEM_DS3505
ZGOW,1999-07-26 03:00,ZGOW 260300Z AUTO 07008KT 11SM 28/25 RMK SLP002 T02850251 52003 IEM_DS3505
ZGOW,1999-07-26 04:00,ZGOW 260400Z AUTO 07014KT 7SM 28/26 A2950 RMK T02800260 IEM_DS3505
ZGOW,1999-07-26 05:00,ZGOW 260500Z AUTO 08016KT 7SM 28/26 A2950 RMK T02800260 IEM_DS3505
ZGOW,1999-07-26 06:00,ZGOW 260600Z AUTO 09008KT 14SM 28/25 A2950 RMK SLP992 T02810246 57010 IEM_DS3505
ZGOW,1999-07-26 07:00,ZGOW 260700Z AUTO 08012KT 2 1/2SM 27/26 A2950 RMK T02700260 IEM_DS3505
ZGOW,1999-07-26 08:00,ZGOW 260800Z AUTO 08010KT 2 1/2SM 26/26 A2947 RMK T02600260 IEM_DS3505
ZGOW,1999-07-26 09:00,ZGOW 260900Z AUTO 07004KT 8SM 27/26 A2944 RMK SLP975 T02680255 57017 IEM_DS3505
ZGOW,1999-07-26 10:00,ZGOW 261000Z AUTO 07010KT 7SM 27/26 A2944 RMK T02700260 IEM_DS3505
ZGOW,1999-07-26 11:00,ZGOW 261100Z AUTO 08012KT 7SM 26/26 A2947 RMK T02600260 IEM_DS3505
ZGOW,1999-07-26 12:00,ZGOW 261200Z AUTO 04008KT 9SM 27/25 A2947 RMK SLP987 T02660253 52012 IEM_DS3505
ZGOW,1999-07-26 15:00,ZGOW 261500Z AUTO 09004KT 9SM 27/25 RMK SLP996 T02670253 52009 IEM_DS3505
ZGOW,1999-07-26 18:00,ZGOW 261800Z AUTO 09004KT 6SM 26/25 RMK SLP975 T02590251 57021 IEM_DS3505
ZGOW,1999-07-26 21:00,ZGOW 262100Z AUTO 07006KT 6SM 26/25 RMK SLP960 T02570248 57015 IEM_DS3505
ZGOW,1999-07-26 22:00,ZGOW 262200Z AUTO 04014KT 3SM 25/25 A2938 RMK T02500250 IEM_DS3505
ZGOW,1999-07-26 23:00,ZGOW 262300Z AUTO 06016KT 2SM 26/26 A2935 RMK T02600260 IEM_DS3505
ZGOW,1999-07-27 00:00,ZGOW 270000Z AUTO 07012KT 1 1/4SM 26/25 A2938 RMK SLP946 T02560250 57014 IEM_DS3505
ZGOW,1999-07-27 01:00,ZGOW 270100Z AUTO 04016KT 1/2SM RMK IEM_DS3505
ZGOW,1999-07-27 02:00,ZGOW 270200Z AUTO 07014KT 7SM 25/25 A2935 RMK T02500250 IEM_DS3505
ZGOW,1999-07-27 03:00,ZGOW 270300Z AUTO 07008KT 2SM 25/25 A2932 RMK SLP939 T02540250 57007 IEM_DS3505
ZGOW,1999-07-27 04:00,ZGOW 270400Z AUTO 03014KT 1 1/4SM 25/25 A2932 RMK T02500250 IEM_DS3505
ZGOW,1999-07-27 05:00,ZGOW 270500Z AUTO 04014KT 4SM 26/25 A2929 RMK T02600250 IEM_DS3505
ZGOW,1999-07-27 06:00,ZGOW 270600Z AUTO 04010KT 7SM 25/24 A2929 RMK SLP915 T02490243 57024 IEM_DS3505
ZGOW,1999-07-27 07:00,ZGOW 270700Z AUTO 07008KT 5SM 25/24 A2926 RMK SLP914 T02480242 57019 IEM_DS3505
ZGOW,1999-07-27 08:00,ZGOW 270800Z AUTO 07010KT 6SM 24/23 A2926 RMK SLP924 T02440234 57001 IEM_DS3505
ZGOW,1999-07-27 09:00,ZGOW 270900Z AUTO 36008KT 6SM 25/23 A2926 RMK SLP917 T02480232 52002 IEM_DS3505
ZGOW,1999-07-27 10:00,ZGOW 271000Z AUTO 29004KT 7SM 25/23 A2929 RMK SLP925 T02500234 52011 IEM_DS3505
ZGOW,1999-07-27 11:00,ZGOW 271100Z AUTO 27010KT 2 1/2SM 25/24 A2932 RMK SLP941 T02490237 52017 IEM_DS3505
ZGOW,1999-07-27 12:00,ZGOW 271200Z AUTO 25006KT 7SM 25/24 A2935 RMK SLP944 T02500236 52027 IEM_DS3505
ZGOW,1999-07-27 13:00,ZGOW 271300Z AUTO 25008KT 8SM 26/24 A2935 RMK SLP953 T02550235 52028 IEM_DS3505
ZGOW,1999-07-27 14:00,ZGOW 271400Z AUTO 25010KT 11SM 26/23 RMK SLP961 T02560234 52020 IEM_DS3505
ZGOW,1999-07-27 15:00,ZGOW 271500Z AUTO 25010KT 11SM 26/23 RMK SLP967 T02610230 52023 IEM_DS3505
ZGOW,1999-07-27 18:00,ZGOW 271800Z AUTO 25006KT 11SM 26/23 RMK SLP971 T02570232 52004 IEM_DS3505
ZGOW,1999-07-27 21:00,ZGOW 272100Z AUTO 25004KT 11SM 25/23 A2944 RMK SLP977 T02500234 52006 IEM_DS3505
ZGOW,1999-07-27 22:00,ZGOW 272200Z AUTO 29002KT 7SM 25/24 A2947 RMK T02500240 IEM_DS3505
ZGOW,1999-07-27 23:00,ZGOW 272300Z AUTO 32004KT 7SM 25/24 A2947 RMK T02500240 IEM_DS3505
ZGOW,1999-07-28 00:00,ZGOW 280000Z AUTO 22002KT 6SM 27/25 A2950 RMK SLP993 T02670246 52016 IEM_DS3505
ZGOW,1999-07-28 02:00,ZGOW 280200Z AUTO 24002KT 7SM 29/26 A2950 RMK T02900260 IEM_DS3505
ZGOW,1999-07-28 03:00,ZGOW 280300Z AUTO 22006KT 11SM 30/24 A2953 RMK SLP000 T03000243 52007 IEM_DS3505
ZGOW,1999-07-28 04:00,ZGOW 280400Z AUTO 25008KT 6SM 31/27 A2950 RMK T03100270 IEM_DS3505
ZGOW,1999-07-28 05:00,ZGOW 280500Z AUTO 25006KT 6SM 32/26 A2950 RMK T03200260 IEM_DS3505
ZGOW,1999-07-28 06:00,ZGOW 280600Z AUTO 27004KT 12SM 33/25 A2947 RMK SLP988 T03260246 57012 IEM_DS3505
ZGOW,1999-07-28 07:00,ZGOW 280700Z AUTO 15010KT 4SM 32/28 A2947 RMK T03200280 IEM_DS3505
ZGOW,1999-07-28 08:00,ZGOW 280800Z AUTO 16010KT 4SM 32/28 A2947 RMK T03200280 IEM_DS3505
ZGOW,1999-07-28 09:00,ZGOW 280900Z AUTO 16004KT 9SM 32/27 A2947 RMK SLP984 T03170269 57004 IEM_DS3505
ZGOW,1999-07-28 10:00,ZGOW 281000Z AUTO 20010KT 4SM 30/27 A2947 RMK T03000270 IEM_DS3505
ZGOW,1999-07-28 11:00,ZGOW 281100Z AUTO 19008KT 4SM 29/27 A2950 RMK T02900270 IEM_DS3505
ZGOW,1999-07-28 12:00,ZGOW 281200Z AUTO 18006KT 8SM 29/26 A2953 RMK SLP003 T02930264 52019 IEM_DS3505
ZGOW,1999-07-28 13:00,ZGOW 281300Z AUTO 21006KT 4SM 29/27 A2953 RMK T02900270 IEM_DS3505
ZGOW,1999-07-28 15:00,ZGOW 281500Z AUTO 18002KT 6SM 29/27 RMK SLP021 T02870268 52018 IEM_DS3505
ZGOW,1999-07-28 18:00,ZGOW 281800Z AUTO 18006KT 7SM 28/27 RMK SLP019 T02810267 57002 IEM_DS3505
ZGOW,1999-07-28 21:00,ZGOW 282100Z AUTO 22002KT 6SM 27/25 RMK SLP015 T02690246 57004 IEM_DS3505
ZGOW,1999-07-28 22:00,ZGOW 282200Z AUTO 00000KT 7SM 27/26 A2956 RMK T02700260 IEM_DS3505
ZGOW,1999-07-28 23:00,ZGOW 282300Z AUTO 00000KT 4SM 28/27 A2959 RMK T02800270 IEM_DS3505
ZGOW,1999-07-29 00:00,ZGOW 290000Z AUTO 22004KT 11SM 29/26 A2959 RMK SLP026 T02930260 52011 IEM_DS3505
ZGOW,1999-07-29 01:00,ZGOW 290100Z AUTO 19002KT 7SM 31/28 A2959 RMK T03100280 IEM_DS3505
ZGOW,1999-07-29 02:00,ZGOW 290200Z AUTO 17002KT 7SM 31/27 A2962 RMK T03100270 IEM_DS3505
ZGOW,1999-07-29 03:00,ZGOW 290300Z AUTO 27004KT 17SM 32/25 A2962 RMK SLP032 T03220246 52006 IEM_DS3505
ZGOW,1999-07-29 04:00,ZGOW 290400Z AUTO 16006KT 7SM 32/28 A2959 RMK T03200280 IEM_DS3505
ZGOW,1999-07-29 05:00,ZGOW 290500Z AUTO 15010KT 7SM 33/27 A2959 RMK T03300270 IEM_DS3505
ZGOW,1999-07-29 06:00,ZGOW 290600Z AUTO 18008KT 19SM 31/26 A2959 RMK SLP022 T03130257 57010 IEM_DS3505
ZGOW,1999-07-29 07:00,ZGOW 290700Z AUTO 17010KT 7SM 30/28 A2959 RMK T03000280 IEM_DS3505
ZGOW,1999-07-29 08:00,ZGOW 290800Z AUTO 17010KT 7SM 30/28 A2959 RMK T03000280 IEM_DS3505
ZGOW,1999-07-29 09:00,ZGOW 290900Z AUTO 18006KT 16SM 30/26 A2956 RMK SLP018 T03000258 57004 IEM_DS3505
ZGOW,1999-07-29 10:00,ZGOW 291000Z AUTO 16006KT 7SM 29/27 A2959 RMK T02900270 IEM_DS3505
ZGOW,1999-07-29 11:00,ZGOW 291100Z AUTO 16006KT 7SM 29/27 A2962 RMK T02900270 IEM_DS3505
ZGOW,1999-07-29 12:00,ZGOW 291200Z AUTO 22006KT 11SM 29/26 A2965 RMK SLP040 T02860261 52022 IEM_DS3505
ZGOW,1999-07-29 13:00,ZGOW 291300Z AUTO 16004KT 7SM 28/27 A2965 RMK T02800270 IEM_DS3505
ZGOW,1999-07-29 15:00,ZGOW 291500Z AUTO 22002KT 10SM 28/26 RMK SLP049 T02820261 52009 IEM_DS3505
ZGOW,1999-07-29 21:00,ZGOW 292100Z AUTO 04004KT 8SM 28/26 RMK SLP041 T02750262 52001 IEM_DS3505
ZGOW,1999-07-29 23:00,ZGOW 292300Z AUTO 06004KT 7SM 27/27 A2965 RMK T02700270 IEM_DS3505
ZGOW,1999-07-30 00:00,ZGOW 300000Z AUTO 04004KT 9SM 28/26 A2965 RMK SLP051 T02820263 52010 IEM_DS3505
ZGOW,1999-07-30 01:00,ZGOW 300100Z AUTO 04004KT 7SM 30/27 A2968 RMK T03000270 IEM_DS3505
ZGOW,1999-07-30 02:00,ZGOW 300200Z AUTO 09006KT 7SM 32/27 A2968 RMK T03200270 IEM_DS3505
ZGOW,1999-07-30 03:00,ZGOW 300300Z AUTO 14004KT 9SM 30/26 A2968 RMK SLP057 T03040255 52006 IEM_DS3505
ZGOW,1999-07-30 04:00,ZGOW 300400Z AUTO 13006KT 7SM 31/27 A2968 RMK T03100270 IEM_DS3505
ZGOW,1999-07-30 05:00,ZGOW 300500Z AUTO 14008KT 7SM 30/27 A2968 RMK T03000270 IEM_DS3505
ZGOW,1999-07-30 06:00,ZGOW 300600Z AUTO 14004KT 14SM 31/25 A2965 RMK SLP043 T03080250 57014 IEM_DS3505
ZGOW,1999-07-30 07:00,ZGOW 300700Z AUTO 14010KT 7SM 32/27 A2962 RMK T03200270 IEM_DS3505
ZGOW,1999-07-30 08:00,ZGOW 300800Z AUTO 14010KT 7SM 31/27 A2962 RMK T03100270 IEM_DS3505
ZGOW,1999-07-30 09:00,ZGOW 300900Z AUTO 14004KT 16SM 30/26 A2962 RMK SLP037 T03000257 57006 IEM_DS3505
ZGOW,1999-07-30 10:00,ZGOW 301000Z AUTO 14008KT 7SM 29/27 A2965 RMK T02900270 IEM_DS3505
ZGOW,1999-07-30 11:00,ZGOW 301100Z AUTO 14006KT 7SM 28/27 A2965 RMK T02800270 IEM_DS3505
ZGOW,1999-07-30 12:00,ZGOW 301200Z AUTO 18004KT 12SM 29/26 A2968 RMK SLP055 T02880263 52018 IEM_DS3505
ZGOW,1999-07-30 13:00,ZGOW 301300Z AUTO 12004KT 7SM 28/27 A2968 RMK T02800270 IEM_DS3505
ZGOW,1999-07-30 14:00,ZGOW 301400Z AUTO 11004KT 5SM 28/27 A2971 RMK T02800270 IEM_DS3505
ZGOW,1999-07-30 15:00,ZGOW 301500Z AUTO 10004KT 5SM 28/27 A2971 RMK T02800270 IEM_DS3505
ZGOW,1999-07-30 18:00,ZGOW 301800Z AUTO 18002KT 12SM 28/26 RMK SLP053 T02820261 57008 IEM_DS3505
ZGOW,1999-07-30 21:00,ZGOW 302100Z AUTO 09004KT 12SM 28/27 A2965 RMK SLP047 T02780266 57006 IEM_DS3505
ZGOW,1999-07-30 22:00,ZGOW 302200Z AUTO 08004KT 7SM 27/26 A2968 RMK T02700260 IEM_DS3505
ZGOW,1999-07-30 23:00,ZGOW 302300Z AUTO 07004KT 7SM 28/27 A2968 RMK T02800270 IEM_DS3505
ZGOW,1999-07-31 00:00,ZGOW 310000Z AUTO 11004KT 11SM 28/26 A2968 RMK SLP058 T02830261 52011 IEM_DS3505
ZGOW,1999-07-31 01:00,ZGOW 310100Z AUTO 16002KT 7SM 30/28 A2971 RMK T03000280 IEM_DS3505
ZGOW,1999-07-31 02:00,ZGOW 310200Z AUTO 12008KT 7SM 30/28 A2971 RMK T03000280 IEM_DS3505
ZGOW,1999-07-31 03:00,ZGOW 310300Z AUTO 18008KT 19SM 30/26 A2971 RMK SLP061 T03040260 52003 IEM_DS3505
ZGOW,1999-07-31 04:00,ZGOW 310400Z AUTO 14008KT 7SM 31/28 A2968 RMK T03100280 IEM_DS3505
ZGOW,1999-07-31 05:00,ZGOW 310500Z AUTO 15008KT 7SM 31/27 A2968 RMK T03100270 IEM_DS3505
ZGOW,1999-07-31 06:00,ZGOW 310600Z AUTO 14004KT 19SM 31/25 A2965 RMK SLP047 T03130248 57014 IEM_DS3505
ZGOW,1999-07-31 07:00,ZGOW 310700Z AUTO 15008KT 7SM 31/27 A2965 RMK T03100270 IEM_DS3505
ZGOW,1999-07-31 08:00,ZGOW 310800Z AUTO 15008KT 7SM 31/26 A2965 RMK T03100260 IEM_DS3505
ZGOW,1999-07-31 09:00,ZGOW 310900Z AUTO 18008KT 19SM 31/25 A2965 RMK SLP043 T03080249 57004 IEM_DS3505
ZGOW,1999-07-31 10:00,ZGOW 311000Z AUTO 15004KT 7SM 30/26 A2965 RMK T03000260 IEM_DS3505
ZGOW,1999-07-31 11:00,ZGOW 311100Z AUTO 13004KT 7SM 29/26 A2965 RMK T02900260 IEM_DS3505
ZGOW,1999-07-31 12:00,ZGOW 311200Z AUTO 18002KT 16SM 29/25 A2965 RMK SLP048 T02890254 52005 IEM_DS3505
ZGOW,1999-07-31 13:00,ZGOW 311300Z AUTO 14004KT 7SM 28/26 A2968 RMK T02800260 IEM_DS3505
ZGOW,1999-07-31 15:00,ZGOW 311500Z AUTO 18004KT 10SM 28/26 RMK SLP058 T02820258 52010 IEM_DS3505
ZGOW,1999-07-31 18:00,ZGOW 311800Z AUTO 00000KT 9SM 28/26 RMK SLP045 T02780256 57013 IEM_DS3505
ZGOW,1999-07-31 21:00,ZGOW 312100Z AUTO 00000KT 7SM 28/26 RMK SLP032 T02760262 57013 IEM_DS3505
ZGOW,1999-07-31 22:00,ZGOW 312200Z AUTO 35002KT 3SM 26/26 A2962 RMK T02600260 IEM_DS3505
ZGOW,1999-07-31 23:00,ZGOW 312300Z AUTO 34004KT 2 1/2SM 27/26 A2962 RMK T02700260 IEM_DS3505
ZGOW,1999-08-01 00:00,ZGOW 010000Z AUTO 07002KT 7SM 28/26 A2962 RMK SLP043 T02790261 52011 IEM_DS3505
ZGOW,1999-08-01 01:00,ZGOW 010100Z AUTO 31002KT 7SM 28/27 A2965 RMK T02800270 IEM_DS3505
ZGOW,1999-08-01 02:00,ZGOW 010200Z AUTO 32004KT 7SM 29/26 A2965 RMK T02900260 IEM_DS3505
ZGOW,1999-08-01 03:00,ZGOW 010300Z AUTO 11002KT 12SM 32/25 A2962 RMK SLP034 T03150249 57009 IEM_DS3505
ZGOW,1999-08-01 04:00,ZGOW 010400Z AUTO 10004KT 7SM 32/27 A2962 RMK T03200270 IEM_DS3505
ZGOW,1999-08-01 05:00,ZGOW 010500Z AUTO 14008KT 7SM 32/27 A2959 RMK T03200270 IEM_DS3505
ZGOW,1999-08-01 06:00,ZGOW 010600Z AUTO 11006KT 12SM 32/26 A2956 RMK SLP016 T03190255 57018 IEM_DS3505
ZGOW,1999-08-01 07:00,ZGOW 010700Z AUTO 15008KT 6SM 32/27 A2956 RMK T03200270 IEM_DS3505
ZGOW,1999-08-01 08:00,ZGOW 010800Z AUTO 16008KT 6SM 32/26 A2953 RMK T03200260 IEM_DS3505
ZGOW,1999-08-01 09:00,ZGOW 010900Z AUTO 18006KT 16SM 31/24 A2953 RMK SLP000 T03090241 57016 IEM_DS3505
ZGOW,1999-08-01 10:00,ZGOW 011000Z AUTO 17008KT 6SM 30/26 A2953 RMK T03000260 IEM_DS3505
ZGOW,1999-08-01 11:00,ZGOW 011100Z AUTO 18008KT 6SM 29/26 A2953 RMK T02900260 IEM_DS3505
ZGOW,1999-08-01 12:00,ZGOW 011200Z AUTO 18004KT 11SM 29/25 A2956 RMK SLP014 T02880251 52014 IEM_DS3505
ZGOW,1999-08-01 13:00,ZGOW 011300Z AUTO 18004KT 6SM 28/26 A2959 RMK T02800260 IEM_DS3505
ZGOW,1999-08-01 14:00,ZGOW 011400Z AUTO 20004KT 6SM 28/26 A2959 RMK T02800260 IEM_DS3505
ZGOW,1999-08-01 15:00,ZGOW 011500Z AUTO 18004KT 11SM 28/26 RMK SLP023 T02830256 52009 IEM_DS3505
ZGOW,1999-08-01 18:00,ZGOW 011800Z AUTO 27008KT 9SM 28/26 RMK SLP006 T02810256 57017 IEM_DS3505
ZGOW,1999-08-01 21:00,ZGOW 012100Z AUTO 27002KT 7SM 28/26 A2953 RMK SLP001 T02750255 57005 IEM_DS3505
ZGOW,1999-08-01 22:00,ZGOW 012200Z AUTO 27002KT 2SM 27/26 A2953 RMK T02700260 IEM_DS3505
ZGOW,1999-08-01 23:00,ZGOW 012300Z AUTO 27002KT 2 1/2SM 28/26 A2953 RMK T02800260 IEM_DS3505
ZGOW,1999-08-02 00:00,ZGOW 020000Z AUTO 32002KT 6SM 29/26 A2953 RMK SLP004 T02900258 52003 IEM_DS3505
ZGOW,1999-08-02 01:00,ZGOW 020100Z AUTO 30004KT 4SM 30/27 A2953 RMK T03000270 IEM_DS3505
ZGOW,1999-08-02 02:00,ZGOW 020200Z AUTO 28004KT 4SM 31/27 A2950 RMK T03100270 IEM_DS3505
ZGOW,1999-08-02 03:00,ZGOW 020300Z AUTO 27006KT 9SM 32/26 A2950 RMK SLP996 T03170257 57008 IEM_DS3505
ZGOW,1999-08-02 04:00,ZGOW 020400Z AUTO 23004KT 7SM 32/27 A2950 RMK T03200270 IEM_DS3505
ZGOW,1999-08-02 05:00,ZGOW 020500Z AUTO 17010KT 6SM 33/28 A2947 RMK T03300280 IEM_DS3505
ZGOW,1999-08-02 06:00,ZGOW 020600Z AUTO 18006KT 11SM 34/26 A2944 RMK SLP974 T03360260 57022 IEM_DS3505
ZGOW,1999-08-02 07:00,ZGOW 020700Z AUTO 20012KT 7SM 33/27 A2941 RMK T03300270 IEM_DS3505
ZGOW,1999-08-02 08:00,ZGOW 020800Z AUTO 19010KT 6SM 32/27 A2941 RMK T03200270 IEM_DS3505
ZGOW,1999-08-02 09:00,ZGOW 020900Z AUTO 27006KT 4SM 31/25 A2941 RMK SLP969 T03080248 57005 IEM_DS3505
ZGOW,1999-08-02 10:00,ZGOW 021000Z AUTO 10002KT 1SM 31/27 A2941 RMK T03100270 IEM_DS3505
ZGOW,1999-08-02 11:00,ZGOW 021100Z AUTO 19006KT 4SM 30/27 A2944 RMK T03000270 IEM_DS3505
ZGOW,1999-08-02 12:00,ZGOW 021200Z AUTO 22004KT 4SM 30/25 A2947 RMK SLP982 T03010253 52013 IEM_DS3505
ZGOW,1999-08-02 13:00,ZGOW 021300Z AUTO 20004KT 2SM 29/27 A2947 RMK T02900270 IEM_DS3505
ZGOW,1999-08-02 15:00,ZGOW 021500Z AUTO 22004KT 4SM 30/26 RMK SLP996 T02960260 52014 IEM_DS3505
ZGOW,1999-08-02 18:00,ZGOW 021800Z AUTO 25004KT 3SM 29/26 RMK SLP985 T02870256 57011 IEM_DS3505
ZGOW,1999-08-02 21:00,ZGOW 022100Z AUTO 22004KT 5SM 28/26 RMK SLP979 T02820260 57006 IEM_DS3505
ZGOW,1999-08-02 22:00,ZGOW 022200Z AUTO 16002KT 3SM 27/27 A2947 RMK T02700270 IEM_DS3505
ZGOW,1999-08-02 23:00,ZGOW 022300Z AUTO 00000KT 3SM 28/27 A2950 RMK T02800270 IEM_DS3505
ZGOW,1999-08-03 00:00,ZGOW 030000Z AUTO 04002KT 4SM 29/26 A2950 RMK SLP996 T02900264 52017 IEM_DS3505
ZGOW,1999-08-03 01:00,ZGOW 030100Z AUTO 02002KT 1 1/2SM 30/28 A2950 RMK T03000280 IEM_DS3505
ZGOW,1999-08-03 02:00,ZGOW 030200Z AUTO 01006KT 2 1/2SM 28/26 A2953 RMK T02800260 IEM_DS3505
ZGOW,1999-08-03 03:00,ZGOW 030300Z AUTO 04004KT 5SM 28/26 RMK SLP998 T02850256 52002 IEM_DS3505
ZGOW,1999-08-03 04:00,ZGOW 030400Z AUTO 07002KT 5SM 32/28 A2950 RMK T03200280 IEM_DS3505
ZGOW,1999-08-03 05:00,ZGOW 030500Z AUTO 15008KT 7SM 32/27 A2950 RMK T03200270 IEM_DS3505
ZGOW,1999-08-03 06:00,ZGOW 030600Z AUTO 18006KT 12SM 32/25 A2950 RMK SLP988 T03160252 57010 IEM_DS3505
ZGOW,1999-08-03 07:00,ZGOW 030700Z AUTO 15008KT 7SM 30/27 A2947 RMK T03000270 IEM_DS3505
ZGOW,1999-08-03 08:00,ZGOW 030800Z AUTO 17008KT 7SM 30/27 A2947 RMK T03000270 IEM_DS3505
ZGOW,1999-08-03 09:00,ZGOW 030900Z AUTO 18004KT 19SM 30/25 A2947 RMK SLP981 T03040249 57007 IEM_DS3505
ZGOW,1999-08-03 10:00,ZGOW 031000Z AUTO 14004KT 7SM 29/26 A2950 RMK T02900260 IEM_DS3505
ZGOW,1999-08-03 11:00,ZGOW 031100Z AUTO 16004KT 6SM 29/27 A2950 RMK T02900270 IEM_DS3505
ZGOW,1999-08-03 12:00,ZGOW 031200Z AUTO 18004KT 9SM 29/26 A2950 RMK SLP997 T02920256 52016 IEM_DS3505
ZGOW,1999-08-03 13:00,ZGOW 031300Z AUTO 14002KT 7SM 28/27 A2953 RMK T02800270 IEM_DS3505
ZGOW,1999-08-03 14:00,ZGOW 031400Z AUTO 10002KT 7SM 28/27 A2953 RMK T02800270 IEM_DS3505
ZGOW,1999-08-03 15:00,ZGOW 031500Z AUTO 09002KT 10SM 29/26 A2953 RMK SLP009 T02900259 52012 IEM_DS3505
ZGOW,1999-08-03 16:00,ZGOW 031600Z AUTO 09004KT 7SM 27/27 A2953 RMK T02700270 IEM_DS3505
ZGOW,1999-08-03 17:00,ZGOW 031700Z AUTO 10006KT 7SM 27/26 A2953 RMK T02700260 IEM_DS3505
ZGOW,1999-08-03 18:00,ZGOW 031800Z AUTO 07004KT 7SM 28/26 A2953 RMK SLP003 T02780258 57006 IEM_DS3505
ZGOW,1999-08-03 21:00,ZGOW 032100Z AUTO 04004KT 7SM 28/25 A2953 RMK SLP000 T02760252 57003 IEM_DS3505
ZGOW,1999-08-03 22:00,ZGOW 032200Z AUTO 07008KT 7SM 27/26 A2953 RMK T02700260 IEM_DS3505
ZGOW,1999-08-03 23:00,ZGOW 032300Z AUTO 07008KT 7SM 27/26 A2953 RMK T02700260 IEM_DS3505
ZGOW,1999-08-04 00:00,ZGOW 040000Z AUTO 07006KT 7SM 28/26 A2956 RMK SLP012 T02800259 52012 IEM_DS3505
ZGOW,1999-08-04 01:00,ZGOW 040100Z AUTO 04008KT 7SM 29/28 A2956 RMK T02900280 IEM_DS3505
ZGOW,1999-08-04 02:00,ZGOW 040200Z AUTO 09012KT 7SM 29/26 A2956 RMK T02900260 IEM_DS3505
ZGOW,1999-08-04 04:00,ZGOW 040400Z AUTO 11006KT 7SM 28/26 A2959 RMK T02800260 IEM_DS3505
ZGOW,1999-08-04 05:00,ZGOW 040500Z AUTO 15010KT 7SM 27/26 A2956 RMK T02700260 IEM_DS3505
ZGOW,1999-08-04 06:00,ZGOW 040600Z AUTO 16004KT 14SM 27/24 A2956 RMK SLP015 T02740237 57007 IEM_DS3505
ZGOW,1999-08-04 07:00,ZGOW 040700Z AUTO 12006KT 7SM 26/25 A2953 RMK T02600250 IEM_DS3505
ZGOW,1999-08-04 08:00,ZGOW 040800Z AUTO 06006KT 7SM 27/25 A2953 RMK T02700250 IEM_DS3505
ZGOW,1999-08-04 09:00,ZGOW 040900Z AUTO 07004KT 12SM 28/25 A2950 RMK SLP001 T02760246 57014 IEM_DS3505
ZGOW,1999-08-04 10:00,ZGOW 041000Z AUTO 09006KT 7SM 28/26 A2953 RMK T02800260 IEM_DS3505
ZGOW,1999-08-04 11:00,ZGOW 041100Z AUTO 10004KT 7SM 27/26 A2953 RMK T02700260 IEM_DS3505
ZGOW,1999-08-04 13:00,ZGOW 041300Z AUTO 09008KT 7SM 27/26 A2959 RMK T02700260 IEM_DS3505
ZGOW,1999-08-04 14:00,ZGOW 041400Z AUTO 08010KT 7SM 27/26 A2959 RMK T02700260 IEM_DS3505
ZGOW,1999-08-04 15:00,ZGOW 041500Z AUTO 07004KT 11SM 27/25 RMK SLP026 T02730252 52011 IEM_DS3505
ZGOW,1999-08-04 18:00,ZGOW 041800Z AUTO 04004KT 11SM 27/25 RMK SLP012 T02700253 57014 IEM_DS3505
ZGOW,1999-08-04 21:00,ZGOW 042100Z AUTO 07004KT 9SM 27/25 RMK SLP003 T02660252 57009 IEM_DS3505
ZGOW,1999-08-04 23:00,ZGOW 042300Z AUTO 04010KT 7SM 27/26 A2953 RMK T02700260 IEM_DS3505
ZGOW,1999-08-05 00:00,ZGOW 050000Z AUTO 04010KT 12SM 28/25 A2956 RMK SLP012 T02840250 52009 IEM_DS3505
ZGOW,1999-08-05 01:00,ZGOW 050100Z AUTO 07012KT 7SM 29/26 A2956 RMK T02900260 IEM_DS3505
ZGOW,1999-08-05 02:00,ZGOW 050200Z AUTO 07012KT 7SM 30/27 A2956 RMK T03000270 IEM_DS3505
ZGOW,1999-08-05 03:00,ZGOW 050300Z AUTO 09010KT 17SM 29/25 A2956 RMK SLP016 T02940247 52004 IEM_DS3505
ZGOW,1999-08-05 04:00,ZGOW 050400Z AUTO 08017KT 7SM 30/27 A2956 RMK T03000270 IEM_DS3505
ZGOW,1999-08-05 05:00,ZGOW 050500Z AUTO 08019KT 7SM 30/26 A2953 RMK T03000260 IEM_DS3505
ZGOW,1999-08-05 06:00,ZGOW 050600Z AUTO 11010KT 19SM 30/25 A2953 RMK SLP000 T03030253 57016 IEM_DS3505
ZGOW,1999-08-05 07:00,ZGOW 050700Z AUTO 08017KT 7SM 30/26 A2950 RMK T03000260 IEM_DS3505
ZGOW,1999-08-05 09:00,ZGOW 050900Z AUTO 09010KT 19SM 30/24 RMK SLP990 T03010241 57010 IEM_DS3505
ZGOW,1999-08-05 10:00,ZGOW 051000Z AUTO 08014KT 7SM 28/26 A2950 RMK T02800260 IEM_DS3505
ZGOW,1999-08-05 11:00,ZGOW 051100Z AUTO 08012KT 7SM 28/25 A2953 RMK T02800250 IEM_DS3505
ZGOW,1999-08-05 12:00,ZGOW 051200Z AUTO 09008KT 16SM 28/24 A2953 RMK SLP009 T02810241 52019 IEM_DS3505
ZGOW,1999-08-05 14:00,ZGOW 051400Z AUTO 07012KT 7SM 27/26 A2956 RMK T02700260 IEM_DS3505
ZGOW,1999-08-05 15:00,ZGOW 051500Z AUTO 07008KT 11SM 28/25 RMK SLP011 T02760249 52002 IEM_DS3505
ZGOW,1999-08-05 18:00,ZGOW 051800Z AUTO 04006KT 11SM 28/25 RMK SLP989 T02750247 57022 IEM_DS3505
ZGOW,1999-08-05 21:00,ZGOW 052100Z AUTO 04004KT 8SM 26/24 RMK SLP982 T02620243 57007 IEM_DS3505
ZGOW,1999-08-05 22:00,ZGOW 052200Z AUTO 02008KT 7SM 26/25 A2947 RMK T02600250 IEM_DS3505
ZGOW,1999-08-05 23:00,ZGOW 052300Z AUTO 01006KT 7SM 27/25 A2947 RMK T02700250 IEM_DS3505
ZGOW,1999-08-06 00:00,ZGOW 060000Z AUTO 04008KT 11SM 28/24 A2947 RMK SLP985 T02760242 52003 IEM_DS3505
ZGOW,1999-08-06 01:00,ZGOW 060100Z AUTO 05012KT 7SM 28/25 A2947 RMK T02800250 IEM_DS3505
ZGOW,1999-08-06 02:00,ZGOW 060200Z AUTO 05016G25KT 7SM 28/25 A2947 RMK T02800250 IEM_DS3505
ZGOW,1999-08-06 03:00,ZGOW 060300Z AUTO 07010KT 11SM 29/24 A2947 RMK SLP983 T02880241 57002 IEM_DS3505
ZGOW,1999-08-06 04:00,ZGOW 060400Z AUTO 04016KT 7SM 29/27 A2947 RMK T02900270 IEM_DS3505
ZGOW,1999-08-06 05:00,ZGOW 060500Z AUTO 06012KT 7SM 27/26 A2944 RMK T02700260 IEM_DS3505
ZGOW,1999-08-06 06:00,ZGOW 060600Z AUTO 07008KT 12SM 30/26 A2944 RMK SLP970 T02960256 57013 IEM_DS3505
ZGOW,1999-08-06 07:00,ZGOW 060700Z AUTO 03014KT 7SM 27/26 A2941 RMK T02700260 IEM_DS3505
ZGOW,1999-08-06 08:00,ZGOW 060800Z AUTO 01010KT 7SM 28/26 A2941 RMK T02800260 IEM_DS3505
ZGOW,1999-08-06 09:00,ZGOW 060900Z AUTO 04012KT 12SM 28/25 A2938 RMK SLP956 T02840252 57014 IEM_DS3505
ZGOW,1999-08-06 10:00,ZGOW 061000Z AUTO 03012KT 7SM 29/26 A2938 RMK T02900260 IEM_DS3505
ZGOW,1999-08-06 11:00,ZGOW 061100Z AUTO 03012KT 7SM 28/25 A2941 RMK T02800250 IEM_DS3505
ZGOW,1999-08-06 12:00,ZGOW 061200Z AUTO 04004KT 11SM 28/25 A2944 RMK SLP970 T02800250 52014 IEM_DS3505
ZGOW,1999-08-06 13:00,ZGOW 061300Z AUTO 04008KT 6SM 27/25 A2944 RMK T02700250 IEM_DS3505
ZGOW,1999-08-06 14:00,ZGOW 061400Z AUTO 02006KT 7SM 27/25 A2947 RMK T02700250 IEM_DS3505
ZGOW,1999-08-06 15:00,ZGOW 061500Z AUTO 04006KT 9SM 27/24 A2947 RMK SLP981 T02740240 52011 IEM_DS3505
ZGOW,1999-08-06 16:00,ZGOW 061600Z AUTO 35004KT 7SM 27/25 A2944 RMK T02700250 IEM_DS3505
ZGOW,1999-08-06 21:00,ZGOW 062100Z AUTO 29004KT 8SM 27/24 A2941 RMK SLP969 T02720239 52001 IEM_DS3505
ZGOW,1999-08-06 22:00,ZGOW 062200Z AUTO 30006KT 7SM 27/24 A2944 RMK T02700240 IEM_DS3505
ZGOW,1999-08-06 23:00,ZGOW 062300Z AUTO 33006KT 7SM 27/24 A2947 RMK T02700240 IEM_DS3505
ZGOW,1999-08-07 00:00,ZGOW 070000Z AUTO 29004KT 16SM 29/23 A2947 RMK SLP988 T02890227 52019 IEM_DS3505
ZGOW,1999-08-07 01:00,ZGOW 070100Z AUTO 31006KT 7SM 29/25 A2950 RMK T02900250 IEM_DS3505
ZGOW,1999-08-07 02:00,ZGOW 070200Z AUTO 30004KT 6SM 30/25 A2950 RMK T03000250 IEM_DS3505
ZGOW,1999-08-07 03:00,ZGOW 070300Z AUTO 02004KT 19SM 32/24 A2950 RMK SLP991 T03160243 52003 IEM_DS3505
ZGOW,1999-08-07 04:00,ZGOW 070400Z AUTO 06002KT 6SM 32/24 A2950 RMK T03200240 IEM_DS3505
ZGOW,1999-08-07 05:00,ZGOW 070500Z AUTO 17006KT 6SM 32/26 A2950 RMK T03200260 IEM_DS3505
ZGOW,1999-08-07 06:00,ZGOW 070600Z AUTO 22006KT 16SM 32/25 A2947 RMK SLP988 T03230246 57003 IEM_DS3505
ZGOW,1999-08-07 07:00,ZGOW 070700Z AUTO 17010KT 6SM 32/25 A2947 RMK T03200250 IEM_DS3505
ZGOW,1999-08-07 08:00,ZGOW 070800Z AUTO 16010KT 6SM 32/26 A2947 RMK T03200260 IEM_DS3505
ZGOW,1999-08-07 09:00,ZGOW 070900Z AUTO 18006KT 16SM 31/24 A2947 RMK SLP986 T03100237 57002 IEM_DS3505
ZGOW,1999-08-07 10:00,ZGOW 071000Z AUTO 27002KT 8SM 30/25 A2950 RMK SLP006 T03000250 57013 IEM_DS3505
ZGOW,1999-08-07 11:00,ZGOW 071100Z AUTO 17008KT 6SM 29/26 A2953 RMK T02900260 IEM_DS3505
ZGOW,1999-08-07 12:00,ZGOW 071200Z AUTO 18006KT 7SM 29/27 A2953 RMK SLP004 T02890267 52018 IEM_DS3505
ZGOW,1999-08-07 13:00,ZGOW 071300Z AUTO 16006KT 4SM 28/27 A2953 RMK T02800270 IEM_DS3505
ZGOW,1999-08-07 15:00,ZGOW 071500Z AUTO 18004KT 7SM 29/26 RMK SLP019 T02860265 52015 IEM_DS3505
ZGOW,1999-08-07 18:00,ZGOW 071800Z AUTO 27002KT 8SM 28/26 RMK SLP006 T02810260 57013 IEM_DS3505
ZGOW,1999-08-07 21:00,ZGOW 072100Z AUTO 00000KT 7SM 27/26 RMK SLP013 T02730258 52007 IEM_DS3505
ZGOW,1999-08-07 22:00,ZGOW 072200Z AUTO 34002KT 1 1/2SM 26/26 A2956 RMK T02600260 IEM_DS3505
ZGOW,1999-08-07 23:00,ZGOW 072300Z AUTO 29002KT 1 1/2SM 28/27 A2959 RMK T02800270 IEM_DS3505
ZGOW,1999-08-08 00:00,ZGOW 080000Z AUTO 00000KT 6SM 30/26 A2959 RMK SLP026 T02980263 52013 IEM_DS3505
ZGOW,1999-08-08 01:00,ZGOW 080100Z AUTO 32002KT 3SM 31/27 A2962 RMK T03100270 IEM_DS3505
ZGOW,1999-08-08 02:00,ZGOW 080200Z AUTO 15004KT 2 1/2SM 31/28 A2962 RMK T03100280 IEM_DS3505
ZGOW,1999-08-08 03:00,ZGOW 080300Z AUTO 25006KT 7SM 32/25 A2959 RMK SLP025 T03220254 57001 IEM_DS3505
ZGOW,1999-08-08 04:00,ZGOW 080400Z AUTO 17008KT 7SM 32/28 A2959 RMK T03200280 IEM_DS3505
ZGOW,1999-08-08 05:00,ZGOW 080500Z AUTO 17006KT 7SM 31/28 A2956 RMK T03100280 IEM_DS3505
ZGOW,1999-08-08 06:00,ZGOW 080600Z AUTO 18008KT 11SM 32/27 A2956 RMK SLP009 T03220266 57016 IEM_DS3505
ZGOW,1999-08-08 07:00,ZGOW 080700Z AUTO 19012KT 7SM 31/27 A2953 RMK T03100270 IEM_DS3505
ZGOW,1999-08-08 08:00,ZGOW 080800Z AUTO 19012KT 7SM 31/27 A2953 RMK T03100270 IEM_DS3505
ZGOW,1999-08-08 09:00,ZGOW 080900Z AUTO 18010KT 11SM 31/26 A2953 RMK SLP004 T03130260 57005 IEM_DS3505
ZGOW,1999-08-08 10:00,ZGOW 081000Z AUTO 20008KT 7SM 30/27 A2956 RMK T03000270 IEM_DS3505
ZGOW,1999-08-08 11:00,ZGOW 081100Z AUTO 19008KT 7SM 29/27 A2956 RMK T02900270 IEM_DS3505
ZGOW,1999-08-08 12:00,ZGOW 081200Z AUTO 22006KT 11SM 29/26 A2959 RMK SLP019 T02930258 52015 IEM_DS3505
ZGOW,1999-08-08 13:00,ZGOW 081300Z AUTO 20006KT 6SM 29/27 A2959 RMK T02900270 IEM_DS3505
ZGOW,1999-08-08 18:00,ZGOW 081800Z AUTO 22006KT 10SM 28/26 RMK SLP019 T02840257 57008 IEM_DS3505
ZGOW,1999-08-08 21:00,ZGOW 082100Z AUTO 22002KT 9SM 28/26 A2956 RMK SLP017 T02800256 57002 IEM_DS3505
ZGOW,1999-08-08 22:00,ZGOW 082200Z AUTO 25002KT 7SM 28/27 A2956 RMK T02800270 IEM_DS3505
ZGOW,1999-08-08 23:00,ZGOW 082300Z AUTO 00000KT 4SM 28/27 A2959 RMK T02800270 IEM_DS3505
ZGOW,1999-08-09 00:00,ZGOW 090000Z AUTO 22004KT 11SM 28/26 A2962 RMK SLP033 T02850257 52016 IEM_DS3505
ZGOW,1999-08-09 01:00,ZGOW 090100Z AUTO 21008KT 4SM 27/26 A2965 RMK T02700260 IEM_DS3505
ZGOW,1999-08-09 02:00,ZGOW 090200Z AUTO 22008KT 7SM 27/26 A2965 RMK T02700260 IEM_DS3505
ZGOW,1999-08-09 03:00,ZGOW 090300Z AUTO 22008KT 9SM 26/25 RMK SLP041 T02650246 52008 IEM_DS3505
ZGOW,1999-08-09 05:00,ZGOW 090500Z AUTO 20006KT 7SM 27/26 A2962 RMK T02700260 IEM_DS3505
ZGOW,1999-08-09 06:00,ZGOW 090600Z AUTO 22006KT 11SM 27/25 A2962 RMK SLP033 T02720251 57008 IEM_DS3505
ZGOW,1999-08-09 07:00,ZGOW 090700Z AUTO 21008KT 7SM 27/26 A2959 RMK T02700260 IEM_DS3505
ZGOW,1999-08-09 08:00,ZGOW 090800Z AUTO 24006KT 7SM 27/26 A2956 RMK T02700260 IEM_DS3505
ZGOW,1999-08-09 09:00,ZGOW 090900Z AUTO 22004KT 11SM 28/25 RMK SLP013 T02770250 57020 IEM_DS3505
ZGOW,1999-08-09 10:00,ZGOW 091000Z AUTO 21004KT 7SM 29/26 A2956 RMK T02900260 IEM_DS3505
ZGOW,1999-08-09 11:00,ZGOW 091100Z AUTO 21008KT 7SM 27/25 A2959 RMK T02700250 IEM_DS3505
ZGOW,1999-08-09 12:00,ZGOW 091200Z AUTO 22006KT 9SM 27/25 A2962 RMK SLP039 T02740247 52026 IEM_DS3505
ZGOW,1999-08-09 15:00,ZGOW 091500Z AUTO 22008KT 9SM 28/25 RMK SLP051 T02750252 52012 IEM_DS3505
ZGOW,1999-08-09 18:00,ZGOW 091800Z AUTO 22006KT 8SM 27/25 RMK SLP040 T02710251 57011 IEM_DS3505
ZGOW,1999-08-09 21:00,ZGOW 092100Z AUTO 00000KT 9SM 27/26 RMK SLP035 T02660256 57005 IEM_DS3505
ZGOW,1999-08-09 22:00,ZGOW 092200Z AUTO 29002KT 2SM 26/26 A2965 RMK T02600260 IEM_DS3505
ZGOW,1999-08-09 23:00,ZGOW 092300Z AUTO 00000KT 3SM 27/27 A2968 RMK T02700270 IEM_DS3505
ZGOW,1999-08-10 00:00,ZGOW 100000Z AUTO 22004KT 19SM 27/24 A2968 RMK SLP051 T02740238 52016 IEM_DS3505
ZGOW,1999-08-10 01:00,ZGOW 100100Z AUTO 22006KT 7SM 29/26 A2968 RMK T02900260 IEM_DS3505
ZGOW,1999-08-10 02:00,ZGOW 100200Z AUTO 22006KT 7SM 30/26 A2968 RMK T03000260 IEM_DS3505
ZGOW,1999-08-10 03:00,ZGOW 100300Z AUTO 27008KT 19SM 31/24 A2965 RMK SLP047 T03080241 57004 IEM_DS3505
ZGOW,1999-08-10 04:00,ZGOW 100400Z AUTO 17008KT 7SM 32/27 A2965 RMK T03200270 IEM_DS3505
ZGOW,1999-08-10 05:00,ZGOW 100500Z AUTO 17010KT 7SM 32/28 A2962 RMK T03200280 IEM_DS3505
ZGOW,1999-08-10 06:00,ZGOW 100600Z AUTO 18006KT 19SM 31/27 A2959 RMK SLP029 T03140266 57018 IEM_DS3505
ZGOW,1999-08-10 07:00,ZGOW 100700Z AUTO 19010KT 7SM 30/26 A2959 RMK T03000260 IEM_DS3505
ZGOW,1999-08-10 08:00,ZGOW 100800Z AUTO 18010KT 7SM 30/27 A2959 RMK T03000270 IEM_DS3505
ZGOW,1999-08-10 09:00,ZGOW 100900Z AUTO 18008KT 17SM 30/26 A2959 RMK SLP024 T02960257 57005 IEM_DS3505
ZGOW,1999-08-10 10:00,ZGOW 101000Z AUTO 19010KT 7SM 29/27 A2959 RMK T02900270 IEM_DS3505
ZGOW,1999-08-10 11:00,ZGOW 101100Z AUTO 20008KT 7SM 28/26 A2962 RMK T02800260 IEM_DS3505
ZGOW,1999-08-10 12:00,ZGOW 101200Z AUTO 22008KT 11SM 29/26 A2965 RMK SLP045 T02870255 52021 IEM_DS3505
ZGOW,1999-08-10 13:00,ZGOW 101300Z AUTO 21004KT 7SM 28/26 A2968 RMK T02800260 IEM_DS3505
ZGOW,1999-08-10 14:00,ZGOW 101400Z AUTO 24004KT 7SM 28/26 A2968 RMK T02800260 IEM_DS3505
ZGOW,1999-08-10 15:00,ZGOW 101500Z AUTO 22004KT 11SM 28/26 A2968 RMK SLP051 T02840259 52006 IEM_DS3505
ZGOW,1999-08-10 16:00,ZGOW 101600Z AUTO 26002KT 6SM 28/26 A2965 RMK T02800260 IEM_DS3505
ZGOW,1999-08-10 17:00,ZGOW 101700Z AUTO 17002KT 5SM 27/26 A2965 RMK T02700260 IEM_DS3505
ZGOW,1999-08-10 18:00,ZGOW 101800Z AUTO 22004KT 9SM 28/26 RMK SLP039 T02790255 57012 IEM_DS3505
ZGOW,1999-08-10 21:00,ZGOW 102100Z AUTO 14004KT 9SM 28/26 A2962 RMK SLP037 T02770256 57002 IEM_DS3505
ZGOW,1999-08-10 22:00,ZGOW 102200Z AUTO 17008KT 2 1/2SM 27/26 A2962 RMK T02700260 IEM_DS3505
ZGOW,1999-08-10 23:00,ZGOW 102300Z AUTO 29004KT 2SM 25/25 A2965 RMK T02500250 IEM_DS3505
ZGOW,1999-08-11 00:00,ZGOW 110000Z AUTO 27006KT 2SM 26/25 A2965 RMK SLP051 T02550249 52014 IEM_DS3505
ZGOW,1999-08-11 01:00,ZGOW 110100Z AUTO 21008KT 2 1/2SM 25/24 A2968 RMK T02500240 IEM_DS3505
ZGOW,1999-08-11 03:00,ZGOW 110300Z AUTO 32002KT 2 1/2SM 25/24 A2968 RMK SLP056 T02540245 52005 IEM_DS3505
ZGOW,1999-08-11 04:00,ZGOW 110400Z AUTO 00000KT 3SM 25/25 A2968 RMK T02500250 IEM_DS3505
ZGOW,1999-08-11 05:00,ZGOW 110500Z AUTO 08004KT 4SM 26/26 A2965 RMK T02600260 IEM_DS3505
ZGOW,1999-08-11 06:00,ZGOW 110600Z AUTO 11004KT 4SM 27/26 A2965 RMK SLP042 T02700255 57014 IEM_DS3505
ZGOW,1999-08-11 07:00,ZGOW 110700Z AUTO 13004KT 7SM 27/26 A2962 RMK T02700260 IEM_DS3505
ZGOW,1999-08-11 08:00,ZGOW 110800Z AUTO 13004KT 4SM 27/26 A2962 RMK T02700260 IEM_DS3505
ZGOW,1999-08-11 09:00,ZGOW 110900Z AUTO 18002KT 5SM 27/25 A2962 RMK SLP035 T02660248 57007 IEM_DS3505
ZGOW,1999-08-11 10:00,ZGOW 111000Z AUTO 19002KT 7SM 27/26 A2962 RMK T02700260 IEM_DS3505
ZGOW,1999-08-11 11:00,ZGOW 111100Z AUTO 17004KT 7SM 26/26 A2962 RMK T02600260 IEM_DS3505
ZGOW,1999-08-11 12:00,ZGOW 111200Z AUTO 18004KT 9SM 26/25 A2965 RMK SLP041 T02630253 52006 IEM_DS3505
ZGOW,1999-08-11 13:00,ZGOW 111300Z AUTO 20004KT 7SM 26/26 A2968 RMK T02600260 IEM_DS3505
ZGOW,1999-08-11 15:00,ZGOW 111500Z AUTO 18004KT 9SM 26/25 RMK SLP053 T02650246 52012 IEM_DS3505
ZGOW,1999-08-11 18:00,ZGOW 111800Z AUTO 16004KT 6SM 26/25 RMK SLP039 T02550249 57014 IEM_DS3505
ZGOW,1999-08-11 21:00,ZGOW 112100Z AUTO 14002KT 5SM 25/24 RMK SLP039 T02460239 54000 IEM_DS3505
ZGOW,1999-08-11 22:00,ZGOW 112200Z AUTO 12004KT 7SM 24/24 A2965 RMK T02400240 IEM_DS3505
ZGOW,1999-08-11 23:00,ZGOW 112300Z AUTO 13004KT 7SM 24/24 A2965 RMK T02400240 IEM_DS3505
ZGOW,1999-08-12 00:00,ZGOW 120000Z AUTO 00000KT 4SM 25/24 A2965 RMK SLP047 T02490245 52008 IEM_DS3505
ZGOW,1999-08-12 01:00,ZGOW 120100Z AUTO 09002KT 3SM 25/25 A2965 RMK T02500250 IEM_DS3505
ZGOW,1999-08-12 02:00,ZGOW 120200Z AUTO 18002KT 4SM 25/25 A2968 RMK T02500250 IEM_DS3505
ZGOW,1999-08-12 03:00,ZGOW 120300Z AUTO 25002KT 3SM 25/24 A2965 RMK SLP043 T02500244 57004 IEM_DS3505
ZGOW,1999-08-12 04:00,ZGOW 120400Z AUTO 13002KT 7SM 25/25 A2965 RMK T02500250 IEM_DS3505
ZGOW,1999-08-12 05:00,ZGOW 120500Z AUTO 20004KT 7SM 26/25 A2962 RMK T02600250 IEM_DS3505
ZGOW,1999-08-12 06:00,ZGOW 120600Z AUTO 22008KT 7SM 26/25 A2962 RMK SLP030 T02600247 57013 IEM_DS3505
ZGOW,1999-08-12 07:00,ZGOW 120700Z AUTO 19008KT 7SM 26/25 A2962 RMK T02600250 IEM_DS3505
ZGOW,1999-08-12 08:00,ZGOW 120800Z AUTO 19008KT 7SM 26/25 A2959 RMK T02600250 IEM_DS3505
ZGOW,1999-08-12 09:00,ZGOW 120900Z AUTO 22006KT 10SM 26/25 A2959 RMK SLP026 T02580248 57004 IEM_DS3505
ZGOW,1999-08-12 10:00,ZGOW 121000Z AUTO 20010KT 7SM 26/25 A2959 RMK T02600250 IEM_DS3505
ZGOW,1999-08-12 11:00,ZGOW 121100Z AUTO 22008KT 7SM 26/25 A2959 RMK T02600250 IEM_DS3505
ZGOW,1999-08-12 12:00,ZGOW 121200Z AUTO 20008KT 9SM 26/24 A2962 RMK SLP034 T02640245 52008 IEM_DS3505
ZGOW,1999-08-12 13:00,ZGOW 121300Z AUTO 23008KT 7SM 26/25 A2965 RMK T02600250 IEM_DS3505
ZGOW,1999-08-12 14:00,ZGOW 121400Z AUTO 23008KT 7SM 26/25 A2965 RMK T02600250 IEM_DS3505
ZGOW,1999-08-12 15:00,ZGOW 121500Z AUTO 20006KT 8SM 26/24 A2965 RMK SLP046 T02610242 52012 IEM_DS3505
ZGOW,1999-08-12 18:00,ZGOW 121800Z AUTO 00000KT 8SM 25/23 RMK SLP035 T02500234 57011 IEM_DS3505
ZGOW,1999-08-12 21:00,ZGOW 122100Z AUTO 04002KT 4SM 24/24 RMK SLP029 T02450239 57006 IEM_DS3505
ZGOW,1999-08-12 22:00,ZGOW 122200Z AUTO 16002KT 3SM 24/24 A2962 RMK T02400240 IEM_DS3505
ZGOW,1999-08-12 23:00,ZGOW 122300Z AUTO 23002KT 7SM 24/24 A2965 RMK T02400240 IEM_DS3505
ZGOW,1999-08-13 00:00,ZGOW 130000Z AUTO 22004KT 7SM 25/24 A2965 RMK SLP047 T02480236 52018 IEM_DS3505
ZGOW,1999-08-13 01:00,ZGOW 130100Z AUTO 22004KT 7SM 25/24 A2965 RMK T02500240 IEM_DS3505
ZGOW,1999-08-13 02:00,ZGOW 130200Z AUTO 17004KT 7SM 25/25 A2965 RMK T02500250 IEM_DS3505
ZGOW,1999-08-13 03:00,ZGOW 130300Z AUTO 22002KT 9SM 26/24 A2968 RMK SLP054 T02640245 52007 IEM_DS3505
ZGOW,1999-08-13 04:00,ZGOW 130400Z AUTO 17008KT 7SM 26/25 A2968 RMK T02600250 IEM_DS3505
ZGOW,1999-08-13 05:00,ZGOW 130500Z AUTO 22006KT 11SM 26/24 A2968 RMK SLP044 T02590245 57011 IEM_DS3505
ZGOW,1999-08-13 06:00,ZGOW 130600Z AUTO 18008KT 3SM 25/25 A2968 RMK T02500250 IEM_DS3505
ZGOW,1999-08-13 07:00,ZGOW 130700Z AUTO 17006KT 4SM 25/25 A2965 RMK T02500250 IEM_DS3505
ZGOW,1999-08-13 08:00,ZGOW 130800Z AUTO 19006KT 7SM 25/25 A2965 RMK T02500250 IEM_DS3505
ZGOW,1999-08-13 09:00,ZGOW 130900Z AUTO 22006KT 11SM 26/24 A2965 RMK SLP044 T02590245 57011 IEM_DS3505
ZGOW,1999-08-13 10:00,ZGOW 131000Z AUTO 22004KT 7SM 26/25 A2965 RMK T02600250 IEM_DS3505
ZGOW,1999-08-13 11:00,ZGOW 131100Z AUTO 19002KT 4SM 25/25 A2965 RMK T02500250 IEM_DS3505
ZGOW,1999-08-13 12:00,ZGOW 131200Z AUTO 18004KT 11SM 26/24 A2965 RMK SLP047 T02590245 52003 IEM_DS3505
ZGOW,1999-08-13 13:00,ZGOW 131300Z AUTO 00000KT 4SM 25/25 A2968 RMK T02500250 IEM_DS3505
ZGOW,1999-08-13 14:00,ZGOW 131400Z AUTO 12002KT 3SM 25/25 A2971 RMK T02500250 IEM_DS3505
ZGOW,1999-08-13 15:00,ZGOW 131500Z AUTO 00000KT 9SM 26/25 RMK SLP061 T02580248 52014 IEM_DS3505
ZGOW,1999-08-13 18:00,ZGOW 131800Z AUTO 11004KT 9SM 26/25 RMK SLP054 T02570247 57007 IEM_DS3505
ZGOW,1999-08-13 21:00,ZGOW 132100Z AUTO 20006KT 9SM 27/26 A2971 RMK SLP064 T02730259 52010 IEM_DS3505
ZGOW,1999-08-13 22:00,ZGOW 132200Z AUTO 19006KT 3SM 26/26 A2971 RMK T02600260 IEM_DS3505
ZGOW,1999-08-13 23:00,ZGOW 132300Z AUTO 20006KT 4SM 27/27 A2974 RMK T02700270 IEM_DS3505
ZGOW,1999-08-14 00:00,ZGOW 140000Z AUTO 20008KT 11SM 28/26 A2974 RMK SLP077 T02830259 52013 IEM_DS3505
ZGOW,1999-08-14 01:00,ZGOW 140100Z AUTO 19010KT 7SM 30/28 A2974 RMK T03000280 IEM_DS3505
ZGOW,1999-08-14 02:00,ZGOW 140200Z AUTO 19010KT 7SM 30/28 A2977 RMK T03000280 IEM_DS3505
ZGOW,1999-08-14 03:00,ZGOW 140300Z AUTO 00000KT 9SM 27/26 A2977 RMK SLP082 T02680258 52005 IEM_DS3505
ZGOW,1999-08-14 04:00,ZGOW 140400Z AUTO 21006KT 7SM 31/28 A2977 RMK T03100280 IEM_DS3505
ZGOW,1999-08-14 05:00,ZGOW 140500Z AUTO 16008KT 7SM 33/28 A2974 RMK T03300280 IEM_DS3505
ZGOW,1999-08-14 06:00,ZGOW 140600Z AUTO 16008KT 10SM 30/26 A2974 RMK SLP075 T03040261 57007 IEM_DS3505
ZGOW,1999-08-14 09:00,ZGOW 140900Z AUTO 18006KT 11SM 30/26 RMK SLP073 T02980260 57002 IEM_DS3505
ZGOW,1999-08-14 10:00,ZGOW 141000Z AUTO 18010KT 7SM 29/27 A2974 RMK T02900270 IEM_DS3505
ZGOW,1999-08-14 11:00,ZGOW 141100Z AUTO 16008KT 7SM 28/27 A2977 RMK T02800270 IEM_DS3505
ZGOW,1999-08-14 12:00,ZGOW 141200Z AUTO 18004KT 9SM 28/25 A2980 RMK SLP089 T02780253 52016 IEM_DS3505
ZGOW,1999-08-14 13:00,ZGOW 141300Z AUTO 16004KT 7SM 27/26 A2980 RMK T02700260 IEM_DS3505
ZGOW,1999-08-14 15:00,ZGOW 141500Z AUTO 16004KT 9SM 27/26 RMK SLP104 T02700256 52015 IEM_DS3505
ZGOW,1999-08-14 18:00,ZGOW 141800Z AUTO 18002KT 9SM 26/26 RMK SLP104 T02650257 54000 IEM_DS3505
ZGOW,1999-08-14 21:00,ZGOW 142100Z AUTO 00000KT 6SM 26/26 RMK SLP111 T02630257 52007 IEM_DS3505
ZGOW,1999-08-14 22:00,ZGOW 142200Z AUTO 00000KT 2 1/2SM 26/26 A2985 RMK T02600260 IEM_DS3505
ZGOW,1999-08-14 23:00,ZGOW 142300Z AUTO 00000KT 2 1/2SM 27/26 A2985 RMK T02700260 IEM_DS3505
ZGOW,1999-08-15 00:00,ZGOW 150000Z AUTO 00000KT 6SM 28/26 A2988 RMK SLP120 T02780258 52009 IEM_DS3505
ZGOW,1999-08-15 01:00,ZGOW 150100Z AUTO 35004KT 7SM 30/28 A2988 RMK T03000280 IEM_DS3505
ZGOW,1999-08-15 02:00,ZGOW 150200Z AUTO 32002KT 7SM 31/27 A2988 RMK T03100270 IEM_DS3505
ZGOW,1999-08-15 03:00,ZGOW 150300Z AUTO 29004KT 12SM 31/24 A2988 RMK SLP124 T03080244 52004 IEM_DS3505
ZGOW,1999-08-15 04:00,ZGOW 150400Z AUTO 16004KT 7SM 32/28 A2988 RMK T03200280 IEM_DS3505
ZGOW,1999-08-15 05:00,ZGOW 150500Z AUTO 14008KT 4SM 31/27 A2985 RMK T03100270 IEM_DS3505
ZGOW,1999-08-15 06:00,ZGOW 150600Z AUTO 18010KT 16SM 31/26 A2985 RMK SLP111 T03120258 57013 IEM_DS3505
ZGOW,1999-08-15 07:00,ZGOW 150700Z AUTO 16010KT 7SM 31/28 A2983 RMK T03100280 IEM_DS3505
ZGOW,1999-08-15 08:00,ZGOW 150800Z AUTO 17010KT 6SM 31/27 A2983 RMK T03100270 IEM_DS3505
ZGOW,1999-08-15 09:00,ZGOW 150900Z AUTO 18006KT 19SM 30/25 A2980 RMK SLP097 T03000249 57014 IEM_DS3505
ZGOW,1999-08-15 10:00,ZGOW 151000Z AUTO 20008KT 6SM 30/26 A2983 RMK T03000260 IEM_DS3505
ZGOW,1999-08-15 11:00,ZGOW 151100Z AUTO 19008KT 6SM 28/26 A2983 RMK T02800260 IEM_DS3505
ZGOW,1999-08-15 12:00,ZGOW 151200Z AUTO 18004KT 12SM 28/25 A2983 RMK SLP107 T02820252 52010 IEM_DS3505
ZGOW,1999-08-15 13:00,ZGOW 151300Z AUTO 21008KT 6SM 28/26 A2985 RMK T02800260 IEM_DS3505
ZGOW,1999-08-15 14:00,ZGOW 151400Z AUTO 20006KT 6SM 27/26 A2985 RMK T02700260 IEM_DS3505
ZGOW,1999-08-15 15:00,ZGOW 151500Z AUTO 22006KT 11SM 28/25 RMK SLP115 T02770247 52008 IEM_DS3505
ZGOW,1999-08-15 18:00,ZGOW 151800Z AUTO 22004KT 7SM 27/25 RMK SLP105 T02710248 57010 IEM_DS3505
ZGOW,1999-08-15 21:00,ZGOW 152100Z AUTO 25004KT 7SM 27/25 A2983 RMK SLP106 T02660247 52001 IEM_DS3505
ZGOW,1999-08-15 22:00,ZGOW 152200Z AUTO 31002KT 4SM 26/25 A2983 RMK T02600250 IEM_DS3505
ZGOW,1999-08-15 23:00,ZGOW 152300Z AUTO 33004KT 7SM 27/26 A2983 RMK T02700260 IEM_DS3505
ZGOW,1999-08-16 00:00,ZGOW 160000Z AUTO 18004KT 10SM 28/24 A2985 RMK SLP111 T02810245 52005 IEM_DS3505
ZGOW,1999-08-16 01:00,ZGOW 160100Z AUTO 20002KT 7SM 29/26 A2985 RMK T02900260 IEM_DS3505
ZGOW,1999-08-16 02:00,ZGOW 160200Z AUTO 28004KT 7SM 29/25 A2985 RMK T02900250 IEM_DS3505
ZGOW,1999-08-16 03:00,ZGOW 160300Z AUTO 22006KT 14SM 31/25 A2985 RMK SLP110 T03060247 57001 IEM_DS3505
ZGOW,1999-08-16 04:00,ZGOW 160400Z AUTO 18006KT 7SM 32/28 A2983 RMK T03200280 IEM_DS3505
ZGOW,1999-08-16 05:00,ZGOW 160500Z AUTO 20008KT 7SM 32/27 A2980 RMK T03200270 IEM_DS3505
ZGOW,1999-08-16 06:00,ZGOW 160600Z AUTO 22006KT 19SM 33/26 A2977 RMK SLP088 T03260256 57022 IEM_DS3505
ZGOW,1999-08-16 07:00,ZGOW 160700Z AUTO 19010KT 7SM 32/27 A2974 RMK T03200270 IEM_DS3505
ZGOW,1999-08-16 08:00,ZGOW 160800Z AUTO 19010KT 7SM 32/27 A2974 RMK T03200270 IEM_DS3505
ZGOW,1999-08-16 09:00,ZGOW 160900Z AUTO 18010KT 19SM 32/24 A2974 RMK SLP068 T03200242 57020 IEM_DS3505
ZGOW,1999-08-16 10:00,ZGOW 161000Z AUTO 18010KT 4SM 30/26 A2974 RMK T03000260 IEM_DS3505
ZGOW,1999-08-16 11:00,ZGOW 161100Z AUTO 19010KT 6SM 29/26 A2974 RMK T02900260 IEM_DS3505
ZGOW,1999-08-16 12:00,ZGOW 161200Z AUTO 22004KT 12SM 29/25 A2977 RMK SLP083 T02880251 52015 IEM_DS3505
ZGOW,1999-08-16 15:00,ZGOW 161500Z AUTO 22006KT 9SM 28/25 RMK SLP095 T02840247 52012 IEM_DS3505
ZGOW,1999-08-16 18:00,ZGOW 161800Z AUTO 22006KT 9SM 28/25 RMK SLP091 T02790246 57004 IEM_DS3505
ZGOW,1999-08-16 21:00,ZGOW 162100Z AUTO 29002KT 8SM 27/24 A2977 RMK SLP086 T02710245 57005 IEM_DS3505
ZGOW,1999-08-16 22:00,ZGOW 162200Z AUTO 32002KT 4SM 26/25 A2980 RMK T02600250 IEM_DS3505
ZGOW,1999-08-16 23:00,ZGOW 162300Z AUTO 31004KT 4SM 27/26 A2980 RMK T02700260 IEM_DS3505
ZGOW,1999-08-17 00:00,ZGOW 170000Z AUTO 27008KT 11SM 29/25 A2983 RMK SLP101 T02880248 52015 IEM_DS3505
ZGOW,1999-08-17 01:00,ZGOW 170100Z AUTO 28004KT 6SM 30/26 A2983 RMK T03000260 IEM_DS3505
ZGOW,1999-08-17 02:00,ZGOW 170200Z AUTO 26002KT 7SM 31/26 A2983 RMK T03100260 IEM_DS3505
ZGOW,1999-08-17 03:00,ZGOW 170300Z AUTO 25006KT 16SM 31/25 A2983 RMK SLP100 T03140246 57001 IEM_DS3505
ZGOW,1999-08-17 04:00,ZGOW 170400Z AUTO 22004KT 7SM 33/27 A2980 RMK T03300270 IEM_DS3505
ZGOW,1999-08-17 05:00,ZGOW 170500Z AUTO 23006KT 6SM 33/25 A2980 RMK T03300250 IEM_DS3505
ZGOW,1999-08-17 06:00,ZGOW 170600Z AUTO 27008KT 17SM 34/24 A2977 RMK SLP084 T03410239 57016 IEM_DS3505
ZGOW,1999-08-17 07:00,ZGOW 170700Z AUTO 19010KT 6SM 33/28 A2974 RMK T03300280 IEM_DS3505
ZGOW,1999-08-17 08:00,ZGOW 170800Z AUTO 18010KT 6SM 33/28 A2974 RMK T03300280 IEM_DS3505
ZGOW,1999-08-17 09:00,ZGOW 170900Z AUTO 22008KT 16SM 32/26 A2971 RMK SLP069 T03220255 57015 IEM_DS3505
ZGOW,1999-08-17 10:00,ZGOW 171000Z AUTO 20010KT 6SM 31/26 A2974 RMK T03100260 IEM_DS3505
ZGOW,1999-08-17 11:00,ZGOW 171100Z AUTO 20008KT 6SM 29/26 A2974 RMK T02900260 IEM_DS3505
ZGOW,1999-08-17 12:00,ZGOW 171200Z AUTO 18006KT 12SM 29/24 A2977 RMK SLP083 T02940244 52014 IEM_DS3505
ZGOW,1999-08-17 13:00,ZGOW 171300Z AUTO 21004KT 6SM 28/26 A2977 RMK T02800260 IEM_DS3505
ZGOW,1999-08-17 14:00,ZGOW 171400Z AUTO 25004KT 6SM 28/26 A2980 RMK T02800260 IEM_DS3505
ZGOW,1999-08-17 15:00,ZGOW 171500Z AUTO 22006KT 11SM 28/25 A2980 RMK SLP099 T02840247 52016 IEM_DS3505
ZGOW,1999-08-17 16:00,ZGOW 171600Z AUTO 24004KT 5SM 27/26 A2980 RMK T02700260 IEM_DS3505
ZGOW,1999-08-17 17:00,ZGOW 171700Z AUTO 25004KT 5SM 27/26 A2980 RMK T02700260 IEM_DS3505
ZGOW,1999-08-17 18:00,ZGOW 171800Z AUTO 27004KT 9SM 28/25 RMK SLP102 T02790249 52003 IEM_DS3505
ZGOW,1999-08-17 21:00,ZGOW 172100Z AUTO 29004KT 7SM 27/25 A2980 RMK SLP098 T02700249 57004 IEM_DS3505
ZGOW,1999-08-17 22:00,ZGOW 172200Z AUTO 30002KT 3SM 26/25 A2980 RMK T02600250 IEM_DS3505
ZGOW,1999-08-17 23:00,ZGOW 172300Z AUTO 33002KT 5SM 27/26 A2983 RMK T02700260 IEM_DS3505
ZGOW,1999-08-18 00:00,ZGOW 180000Z AUTO 27006KT 10SM 28/25 A2983 RMK SLP106 T02840247 52008 IEM_DS3505
ZGOW,1999-08-18 01:00,ZGOW 180100Z AUTO 30002KT 6SM 30/26 A2985 RMK T03000260 IEM_DS3505
ZGOW,1999-08-18 02:00,ZGOW 180200Z AUTO 32006KT 6SM 31/26 A2983 RMK T03100260 IEM_DS3505
ZGOW,1999-08-18 03:00,ZGOW 180300Z AUTO 27006KT 9SM 32/26 A2983 RMK SLP106 T03200256 54000 IEM_DS3505
ZGOW,1999-08-18 04:00,ZGOW 180400Z AUTO 28004KT 33/26 A2983 RMK T03300260 IEM_DS3505
ZGOW,1999-08-18 05:00,ZGOW 180500Z AUTO 18008KT 34/28 A2980 RMK T03400280 IEM_DS3505
ZGOW,1999-08-18 06:00,ZGOW 180600Z AUTO 22008KT 6SM 35/24 A2980 RMK SLP089 T03470235 57017 IEM_DS3505
ZGOW,1999-08-18 07:00,ZGOW 180700Z AUTO 15010KT 33/27 A2977 RMK T03300270 IEM_DS3505
ZGOW,1999-08-18 08:00,ZGOW 180800Z AUTO 16008KT 33/27 A2977 RMK T03300270 IEM_DS3505
ZGOW,1999-08-18 09:00,ZGOW 180900Z AUTO 18006KT 6SM 33/25 A2977 RMK SLP077 T03260246 57012 IEM_DS3505
ZGOW,1999-08-18 10:00,ZGOW 181000Z AUTO 17008KT 4SM 31/26 A2977 RMK T03100260 IEM_DS3505
ZGOW,1999-08-18 11:00,ZGOW 181100Z AUTO 20006KT 4SM 30/25 A2977 RMK T03000250 IEM_DS3505
ZGOW,1999-08-18 12:00,ZGOW 181200Z AUTO 22006KT 6SM 30/23 A2980 RMK SLP092 T03020227 52015 IEM_DS3505
ZGOW,1999-08-18 13:00,ZGOW 181300Z AUTO 19002KT 3SM 29/25 A2980 RMK T02900250 IEM_DS3505
ZGOW,1999-08-18 14:00,ZGOW 181400Z AUTO 05004KT 2 1/2SM 27/25 A2983 RMK T02700250 IEM_DS3505
ZGOW,1999-08-18 15:00,ZGOW 181500Z AUTO 29002KT 5SM 29/25 RMK SLP100 T02920250 52008 IEM_DS3505
ZGOW,1999-08-18 18:00,ZGOW 181800Z AUTO 04002KT 4SM 28/25 RMK SLP094 T02790254 57006 IEM_DS3505
ZGOW,1999-08-18 21:00,ZGOW 182100Z AUTO 04004KT 2 1/2SM 28/26 RMK SLP092 T02760258 57002 IEM_DS3505
ZGOW,1999-08-18 22:00,ZGOW 182200Z AUTO 13004KT 1SM 26/25 A2980 RMK T02600250 IEM_DS3505
ZGOW,1999-08-18 23:00,ZGOW 182300Z AUTO 08002KT 1 1/2SM 27/26 A2983 RMK T02700260 IEM_DS3505
ZGOW,1999-08-19 00:00,ZGOW 190000Z AUTO 04004KT 3SM 30/24 A2983 RMK SLP105 T02960239 52013 IEM_DS3505
ZGOW,1999-08-19 01:00,ZGOW 190100Z AUTO 10004KT 3SM 29/26 A2985 RMK T02900260 IEM_DS3505
ZGOW,1999-08-19 02:00,ZGOW 190200Z AUTO 12004KT 3SM 31/26 A2985 RMK T03100260 IEM_DS3505
ZGOW,1999-08-19 03:00,ZGOW 190300Z AUTO 18004KT 4SM 32/24 A2985 RMK SLP111 T03200245 52006 IEM_DS3505
ZGOW,1999-08-19 04:00,ZGOW 190400Z AUTO 16006KT 3SM 32/26 A2983 RMK T03200260 IEM_DS3505
ZGOW,1999-08-19 06:00,ZGOW 190600Z AUTO 20008KT 9SM 32/24 RMK SLP091 T03250235 57020 IEM_DS3505
ZGOW,1999-08-19 09:00,ZGOW 190900Z AUTO 18006KT 9SM 31/24 A2974 RMK SLP071 T03140243 57020 IEM_DS3505
ZGOW,1999-08-19 10:00,ZGOW 191000Z AUTO 17004KT 6SM 30/25 A2974 RMK T03000250 IEM_DS3505
ZGOW,1999-08-19 11:00,ZGOW 191100Z AUTO 16004KT 6SM 28/26 A2974 RMK T02800260 IEM_DS3505
ZGOW,1999-08-19 12:00,ZGOW 191200Z AUTO 18002KT 7SM 29/25 A2977 RMK SLP082 T02910249 52011 IEM_DS3505
ZGOW,1999-08-19 13:00,ZGOW 191300Z AUTO 00000KT 4SM 27/25 A2977 RMK T02700250 IEM_DS3505
ZGOW,1999-08-19 15:00,ZGOW 191500Z AUTO 00000KT 6SM 28/25 RMK SLP095 T02830252 52013 IEM_DS3505
ZGOW,1999-08-19 18:00,ZGOW 191800Z AUTO 04004KT 5SM 28/25 RMK SLP077 T02760253 57018 IEM_DS3505
ZGOW,1999-08-19 21:00,ZGOW 192100Z AUTO 04004KT 4SM 27/26 RMK SLP075 T02740257 57002 IEM_DS3505
ZGOW,1999-08-19 22:00,ZGOW 192200Z AUTO 04002KT 1SM 26/25 A2974 RMK T02600250 IEM_DS3505
ZGOW,1999-08-19 23:00,ZGOW 192300Z AUTO 04002KT 1 1/2SM 27/26 A2974 RMK T02700260 IEM_DS3505
ZGOW,1999-08-20 00:00,ZGOW 200000Z AUTO 04004KT 4SM 28/25 A2974 RMK SLP076 T02820252 52001 IEM_DS3505
ZGOW,1999-08-20 01:00,ZGOW 200100Z AUTO 01002KT 2 1/2SM 30/27 A2974 RMK T03000270 IEM_DS3505
ZGOW,1999-08-20 02:00,ZGOW 200200Z AUTO 33002KT 2 1/2SM 31/27 A2974 RMK T03100270 IEM_DS3505
ZGOW,1999-08-20 03:00,ZGOW 200300Z AUTO 27004KT 6SM 32/25 A2971 RMK SLP067 T03220251 57009 IEM_DS3505
ZGOW,1999-08-20 04:00,ZGOW 200400Z AUTO 11008KT 2 1/2SM 32/27 A2968 RMK T03200270 IEM_DS3505
ZGOW,1999-08-20 05:00,ZGOW 200500Z AUTO 12008KT 2 1/2SM 32/28 A2968 RMK T03200280 IEM_DS3505
ZGOW,1999-08-20 06:00,ZGOW 200600Z AUTO 14006KT 6SM 32/26 A2965 RMK SLP039 T03220257 57028 IEM_DS3505
ZGOW,1999-08-20 07:00,ZGOW 200700Z AUTO 14006KT 6SM 32/24 A2959 RMK SLP028 T03150243 57030 IEM_DS3505
ZGOW,1999-08-20 08:00,ZGOW 200800Z AUTO 13008KT 2 1/2SM 30/26 A2959 RMK T03000260 IEM_DS3505
ZGOW,1999-08-20 09:00,ZGOW 200900Z AUTO 16006KT 6SM 30/24 A2959 RMK SLP024 T03000242 57015 IEM_DS3505
ZGOW,1999-08-20 10:00,ZGOW 201000Z AUTO 12008KT 2SM 28/26 A2959 RMK T02800260 IEM_DS3505
ZGOW,1999-08-20 11:00,ZGOW 201100Z AUTO 15006KT 2SM 28/25 A2962 RMK T02800250 IEM_DS3505
ZGOW,1999-08-20 12:00,ZGOW 201200Z AUTO 16004KT 5SM 28/24 A2962 RMK SLP038 T02820242 52014 IEM_DS3505
ZGOW,1999-08-20 13:00,ZGOW 201300Z AUTO 16002KT 3SM 27/25 A2962 RMK T02700250 IEM_DS3505
ZGOW,1999-08-20 14:00,ZGOW 201400Z AUTO 00000KT 2 1/2SM 27/26 A2965 RMK T02700260 IEM_DS3505
ZGOW,1999-08-20 15:00,ZGOW 201500Z AUTO 32002KT 4SM 28/25 RMK SLP039 T02840249 52001 IEM_DS3505
ZGOW,1999-08-20 18:00,ZGOW 201800Z AUTO 29004KT 4SM 28/25 RMK SLP017 T02790251 57022 IEM_DS3505
ZGOW,1999-08-20 21:00,ZGOW 202100Z AUTO 04002KT 3SM 27/25 A2956 RMK SLP012 T02740253 57005 IEM_DS3505
ZGOW,1999-08-20 22:00,ZGOW 202200Z AUTO 07002KT 2SM 26/26 A2956 RMK T02600260 IEM_DS3505
ZGOW,1999-08-20 23:00,ZGOW 202300Z AUTO 05004KT 1SM 27/26 A2959 RMK T02700260 IEM_DS3505
ZGOW,1999-08-21 00:00,ZGOW 210000Z AUTO 04004KT 2SM 28/26 A2959 RMK SLP025 T02840259 52013 IEM_DS3505
ZGOW,1999-08-21 01:00,ZGOW 210100Z AUTO 01004KT 2SM 30/27 A2959 RMK T03000270 IEM_DS3505
ZGOW,1999-08-21 02:00,ZGOW 210200Z AUTO 07008KT 4SM 31/26 A2959 RMK T03100260 IEM_DS3505
ZGOW,1999-08-21 03:00,ZGOW 210300Z AUTO 04008KT 5SM 32/23 A2956 RMK SLP015 T03210229 57010 IEM_DS3505
ZGOW,1999-08-21 04:00,ZGOW 210400Z AUTO 08008KT 32/26 A2956 RMK T03200260 IEM_DS3505
ZGOW,1999-08-21 05:00,ZGOW 210500Z AUTO 10010KT 7SM 31/25 A2956 RMK T03100250 IEM_DS3505
ZGOW,1999-08-21 06:00,ZGOW 210600Z AUTO 09010KT 10SM 34/24 A2953 RMK SLP007 T03410239 57008 IEM_DS3505
ZGOW,1999-08-21 07:00,ZGOW 210700Z AUTO 08016KT 6SM 32/24 A2953 RMK T03200240 IEM_DS3505
ZGOW,1999-08-21 08:00,ZGOW 210800Z AUTO 12017G27KT 4SM 28/24 A2956 RMK T02800240 IEM_DS3505
ZGOW,1999-08-21 09:00,ZGOW 210900Z AUTO 09010KT 11SM 26/22 A2956 RMK SLP011 T02650218 52004 IEM_DS3505
ZGOW,1999-08-21 10:00,ZGOW 211000Z AUTO 06014KT 7SM 26/24 A2956 RMK T02600240 IEM_DS3505
ZGOW,1999-08-21 11:00,ZGOW 211100Z AUTO 07019G29KT 4SM 27/24 A2956 RMK T02700240 IEM_DS3505
ZGOW,1999-08-21 12:00,ZGOW 211200Z AUTO 04012KT 12SM 28/23 A2956 RMK SLP020 T02800232 52009 IEM_DS3505
ZGOW,1999-08-21 13:00,ZGOW 211300Z AUTO 08017G27KT 4SM 27/25 A2959 RMK T02700250 IEM_DS3505
ZGOW,1999-08-21 14:00,ZGOW 211400Z AUTO 07016KT 4SM 27/25 A2962 RMK T02700250 IEM_DS3505
ZGOW,1999-08-21 15:00,ZGOW 211500Z AUTO 09010KT 12SM 27/22 RMK SLP033 T02660223 52013 IEM_DS3505
ZGOW,1999-08-21 18:00,ZGOW 211800Z AUTO 09014KT 11SM 28/23 RMK SLP017 T02760233 57016 IEM_DS3505
ZGOW,1999-08-21 19:00,ZGOW 211900Z AUTO 09014KT 5SM 26/24 RMK SLP011 T02580238 57018 IEM_DS3505
ZGOW,1999-08-21 20:00,ZGOW 212000Z AUTO 07010KT 5SM 26/24 RMK SLP008 T02580239 57014 IEM_DS3505
ZGOW,1999-08-21 21:00,ZGOW 212100Z AUTO 09012KT 6SM 26/24 RMK SLP006 T02590239 57011 IEM_DS3505
ZGOW,1999-08-21 22:00,ZGOW 212200Z AUTO 07010KT 6SM 26/24 A2956 RMK SLP010 T02550239 57001 IEM_DS3505
ZGOW,1999-08-21 23:00,ZGOW 212300Z AUTO 07012KT 6SM 25/24 A2959 RMK SLP017 T02500238 52009 IEM_DS3505
ZGOW,1999-08-22 00:00,ZGOW 220000Z AUTO 07010KT 6SM 25/24 A2959 RMK SLP022 T02490240 52016 IEM_DS3505
ZGOW,1999-08-22 01:00,ZGOW 220100Z AUTO 09008G23KT 6SM 26/24 RMK SLP029 T02560245 52019 IEM_DS3505
ZGOW,1999-08-22 02:00,ZGOW 220200Z AUTO 11008KT 7SM 26/24 A2962 RMK SLP033 T02550239 52016 IEM_DS3505
ZGOW,1999-08-22 03:00,ZGOW 220300Z AUTO 11010G25KT 7SM 27/24 A2962 RMK SLP035 T02690239 52013 IEM_DS3505
ZGOW,1999-08-22 04:00,ZGOW 220400Z AUTO 16010G27KT 7SM 27/24 A2965 RMK SLP038 T02700240 52009 IEM_DS3505
ZGOW,1999-08-22 05:00,ZGOW 220500Z AUTO 16010G23KT 9SM 27/23 A2965 RMK SLP038 T02710230 52005 IEM_DS3505
ZGOW,1999-08-22 06:00,ZGOW 220600Z AUTO 14008KT 9SM 26/23 A2965 RMK SLP040 T02640234 52005 IEM_DS3505
ZGOW,1999-08-22 07:00,ZGOW 220700Z AUTO 16010KT 8SM 26/24 A2965 RMK SLP038 T02640243 54000 IEM_DS3505
ZGOW,1999-08-22 08:00,ZGOW 220800Z AUTO 15010KT 7SM 25/24 A2962 RMK T02500240 IEM_DS3505
ZGOW,1999-08-22 09:00,ZGOW 220900Z AUTO 16012KT 2 1/2SM 25/24 A2962 RMK SLP040 T02480239 54000 IEM_DS3505
ZGOW,1999-08-22 10:00,ZGOW 221000Z AUTO 15014G23KT 2 1/2SM 24/24 A2965 RMK T02400240 IEM_DS3505
ZGOW,1999-08-22 11:00,ZGOW 221100Z AUTO 19010KT 1 1/2SM 24/24 A2968 RMK T02400240 IEM_DS3505
ZGOW,1999-08-22 12:00,ZGOW 221200Z AUTO 18012G27KT 4SM 24/22 A2974 RMK SLP067 T02380225 52027 IEM_DS3505
ZGOW,1999-08-22 13:00,ZGOW 221300Z AUTO 17016KT 1 1/2SM 24/24 A2977 RMK T02400240 IEM_DS3505
ZGOW,1999-08-22 14:00,ZGOW 221400Z AUTO 12010KT 4SM 23/22 A2977 RMK T02300220 IEM_DS3505
ZGOW,1999-08-22 15:00,ZGOW 221500Z AUTO 09004KT 5SM 24/23 A2980 RMK SLP091 T02390226 52024 IEM_DS3505
ZGOW,1999-08-22 18:00,ZGOW 221800Z AUTO 16006KT 6SM 26/25 RMK SLP082 T02650251 57009 IEM_DS3505
ZGOW,1999-08-22 21:00,ZGOW 222100Z AUTO 16008KT 7SM 27/25 A2977 RMK SLP083 T02660247 52001 IEM_DS3505
ZGOW,1999-08-22 23:00,ZGOW 222300Z AUTO 13008KT 6SM 26/26 A2980 RMK T02600260 IEM_DS3505
ZGOW,1999-08-23 00:00,ZGOW 230000Z AUTO 09006KT 10SM 27/25 A2983 RMK SLP100 T02710251 52017 IEM_DS3505
ZGOW,1999-08-23 01:00,ZGOW 230100Z AUTO 13010KT 7SM 27/26 A2983 RMK T02700260 IEM_DS3505
ZGOW,1999-08-23 02:00,ZGOW 230200Z AUTO 14012KT 7SM 28/27 A2983 RMK T02800270 IEM_DS3505
ZGOW,1999-08-23 03:00,ZGOW 230300Z AUTO 16010KT 12SM 29/25 A2985 RMK SLP114 T02870253 52014 IEM_DS3505
ZGOW,1999-08-23 04:00,ZGOW 230400Z AUTO 16012G23KT 7SM 28/27 A2985 RMK T02800270 IEM_DS3505
ZGOW,1999-08-23 05:00,ZGOW 230500Z AUTO 15012G21KT 7SM 28/27 A2983 RMK T02800270 IEM_DS3505
ZGOW,1999-08-23 06:00,ZGOW 230600Z AUTO 18012G21KT 14SM 28/25 A2983 RMK SLP103 T02840254 57011 IEM_DS3505
ZGOW,1999-08-23 07:00,ZGOW 230700Z AUTO 16010G21KT 7SM 28/27 A2983 RMK T02800270 IEM_DS3505
ZGOW,1999-08-23 08:00,ZGOW 230800Z AUTO 16012G21KT 7SM 28/27 A2983 RMK T02800270 IEM_DS3505
ZGOW,1999-08-23 09:00,ZGOW 230900Z AUTO 18010KT 12SM 28/26 A2983 RMK SLP099 T02800255 57004 IEM_DS3505
ZGOW,1999-08-23 10:00,ZGOW 231000Z AUTO 15014KT 7SM 27/26 A2983 RMK T02700260 IEM_DS3505
ZGOW,1999-08-23 11:00,ZGOW 231100Z AUTO 15010KT 7SM 27/26 A2985 RMK T02700260 IEM_DS3505
ZGOW,1999-08-23 12:00,ZGOW 231200Z AUTO 25004KT 7SM 24/23 A2988 RMK SLP125 T02400230 52026 IEM_DS3505
ZGOW,1999-08-23 15:00,ZGOW 231500Z AUTO 18004KT 9SM 24/23 RMK SLP135 T02440229 52010 IEM_DS3505
ZGOW,1999-08-23 18:00,ZGOW 231800Z AUTO 18004KT 11SM 24/23 RMK SLP119 T02440232 57016 IEM_DS3505
ZGOW,1999-08-23 21:00,ZGOW 232100Z AUTO 14004KT 9SM 25/24 A2985 RMK SLP111 T02520239 57008 IEM_DS3505
ZGOW,1999-08-23 22:00,ZGOW 232200Z AUTO 14002KT 7SM 25/25 A2985 RMK T02500250 IEM_DS3505
ZGOW,1999-08-23 23:00,ZGOW 232300Z AUTO 15004KT 7SM 26/25 A2988 RMK T02600250 IEM_DS3505
ZGOW,1999-08-24 00:00,ZGOW 240000Z AUTO 14004KT 9SM 25/24 A2988 RMK SLP111 T02520239 57008 IEM_DS3505
ZGOW,1999-08-24 01:00,ZGOW 240100Z AUTO 15006KT 7SM 26/26 A2988 RMK T02600260 IEM_DS3505
ZGOW,1999-08-24 02:00,ZGOW 240200Z AUTO 15008KT 5SM 26/26 A2988 RMK T02600260 IEM_DS3505
ZGOW,1999-08-24 03:00,ZGOW 240300Z AUTO 27002KT 7SM 25/24 A2991 RMK SLP130 T02520236 52004 IEM_DS3505
ZGOW,1999-08-24 04:00,ZGOW 240400Z AUTO 24008KT 4SM 24/24 A2991 RMK T02400240 IEM_DS3505
ZGOW,1999-08-24 05:00,ZGOW 240500Z AUTO 20006KT 7SM 25/24 A2988 RMK T02500240 IEM_DS3505
ZGOW,1999-08-24 06:00,ZGOW 240600Z AUTO 22004KT 6SM 25/24 A2988 RMK SLP121 T02500237 57009 IEM_DS3505
ZGOW,1999-08-24 07:00,ZGOW 240700Z AUTO 20006KT 7SM 26/25 A2985 RMK T02600250 IEM_DS3505
ZGOW,1999-08-24 08:00,ZGOW 240800Z AUTO 20006KT 7SM 26/25 A2985 RMK T02600250 IEM_DS3505
ZGOW,1999-08-24 09:00,ZGOW 240900Z AUTO 22006KT 8SM 26/24 A2983 RMK SLP107 T02590240 57014 IEM_DS3505
ZGOW,1999-08-24 10:00,ZGOW 241000Z AUTO 20006KT 7SM 25/25 A2983 RMK T02500250 IEM_DS3505
ZGOW,1999-08-24 11:00,ZGOW 241100Z AUTO 19006KT 7SM 25/24 A2985 RMK T02500240 IEM_DS3505
ZGOW,1999-08-24 12:00,ZGOW 241200Z AUTO 14004KT 7SM 25/24 A2985 RMK SLP115 T02500235 52008 IEM_DS3505
ZGOW,1999-08-24 13:00,ZGOW 241300Z AUTO 18004KT 6SM 25/24 A2988 RMK T02500240 IEM_DS3505
ZGOW,1999-08-24 14:00,ZGOW 241400Z AUTO 18002KT 7SM 25/24 A2988 RMK T02500240 IEM_DS3505
ZGOW,1999-08-24 15:00,ZGOW 241500Z AUTO 18004KT 7SM 25/24 A2988 RMK SLP124 T02520240 52009 IEM_DS3505
ZGOW,1999-08-24 18:00,ZGOW 241800Z AUTO 18004KT 7SM 25/24 RMK SLP115 T02540245 57009 IEM_DS3505
ZGOW,1999-08-24 21:00,ZGOW 242100Z AUTO 16002KT 7SM 25/24 A2983 RMK SLP107 T02540244 57008 IEM_DS3505
ZGOW,1999-08-24 22:00,ZGOW 242200Z AUTO 11002KT 5SM 25/25 A2983 RMK T02500250 IEM_DS3505
ZGOW,1999-08-24 23:00,ZGOW 242300Z AUTO 00000KT 5SM 25/25 A2985 RMK T02500250 IEM_DS3505
ZGOW,1999-08-25 00:00,ZGOW 250000Z AUTO 27002KT 9SM 26/25 A2985 RMK SLP114 T02630246 52007 IEM_DS3505
ZGOW,1999-08-25 01:00,ZGOW 250100Z AUTO 18002KT 4SM 27/26 A2985 RMK T02700260 IEM_DS3505
ZGOW,1999-08-25 02:00,ZGOW 250200Z AUTO 18004KT 7SM 28/26 A2988 RMK T02800260 IEM_DS3505
ZGOW,1999-08-25 03:00,ZGOW 250300Z AUTO 25008KT 11SM 29/24 A2985 RMK SLP117 T02890240 52003 IEM_DS3505
ZGOW,1999-08-25 04:00,ZGOW 250400Z AUTO 19006KT 7SM 30/26 A2983 RMK T03000260 IEM_DS3505
ZGOW,1999-08-25 05:00,ZGOW 250500Z AUTO 20008KT 7SM 31/26 A2983 RMK T03100260 IEM_DS3505
ZGOW,1999-08-25 06:00,ZGOW 250600Z AUTO 22008KT 11SM 31/24 A2980 RMK SLP095 T03060237 57022 IEM_DS3505
ZGOW,1999-08-25 07:00,ZGOW 250700Z AUTO 18010KT 7SM 29/26 A2980 RMK T02900260 IEM_DS3505
ZGOW,1999-08-25 08:00,ZGOW 250800Z AUTO 19010KT 7SM 29/25 A2977 RMK T02900250 IEM_DS3505
ZGOW,1999-08-25 09:00,ZGOW 250900Z AUTO 22008KT 12SM 29/24 A2977 RMK SLP086 T02900240 57009 IEM_DS3505
ZGOW,1999-08-25 10:00,ZGOW 251000Z AUTO 20010KT 7SM 27/25 A2980 RMK T02700250 IEM_DS3505
ZGOW,1999-08-25 11:00,ZGOW 251100Z AUTO 20010KT 5SM 27/25 A2980 RMK T02700250 IEM_DS3505
ZGOW,1999-08-25 12:00,ZGOW 251200Z AUTO 22004KT 6SM 27/25 A2983 RMK SLP105 T02680251 52019 IEM_DS3505
ZGOW,1999-08-25 13:00,ZGOW 251300Z AUTO 20006KT 4SM 27/26 A2985 RMK T02700260 IEM_DS3505
ZGOW,1999-08-25 15:00,ZGOW 251500Z AUTO 18002KT 9SM 26/24 RMK SLP119 T02620236 52014 IEM_DS3505
ZGOW,1999-08-25 18:00,ZGOW 251800Z AUTO 18004KT 11SM 25/24 RMK SLP111 T02540240 57008 IEM_DS3505
ZGOW,1999-08-25 21:00,ZGOW 252100Z AUTO 00000KT 11SM 25/24 RMK SLP108 T02480238 57003 IEM_DS3505
ZGOW,1999-08-25 22:00,ZGOW 252200Z AUTO 30002KT 4SM 24/24 A2985 RMK T02400240 IEM_DS3505
ZGOW,1999-08-25 23:00,ZGOW 252300Z AUTO 30004KT 4SM 25/25 A2985 RMK T02500250 IEM_DS3505
ZGOW,1999-08-26 00:00,ZGOW 260000Z AUTO 32004KT 16SM 27/24 A2988 RMK SLP122 T02680239 52014 IEM_DS3505
ZGOW,1999-08-26 01:00,ZGOW 260100Z AUTO 33004KT 6SM 28/26 A2988 RMK T02800260 IEM_DS3505
ZGOW,1999-08-26 02:00,ZGOW 260200Z AUTO 17002KT 7SM 29/25 A2988 RMK T02900250 IEM_DS3505
ZGOW,1999-08-26 03:00,ZGOW 260300Z AUTO 14004KT 19SM 30/24 A2988 RMK SLP120 T03040240 57002 IEM_DS3505
ZGOW,1999-08-26 04:00,ZGOW 260400Z AUTO 18006KT 7SM 30/26 A2988 RMK T03000260 IEM_DS3505
ZGOW,1999-08-26 05:00,ZGOW 260500Z AUTO 18008KT 6SM 31/26 A2985 RMK T03100260 IEM_DS3505
ZGOW,1999-08-26 06:00,ZGOW 260600Z AUTO 16006KT 19SM 31/23 A2983 RMK SLP110 T03090233 57010 IEM_DS3505
ZGOW,1999-08-26 07:00,ZGOW 260700Z AUTO 17010KT 7SM 31/25 A2983 RMK T03100250 IEM_DS3505
ZGOW,1999-08-26 08:00,ZGOW 260800Z AUTO 16010KT 7SM 30/26 A2983 RMK T03000260 IEM_DS3505
ZGOW,1999-08-26 09:00,ZGOW 260900Z AUTO 18008KT 19SM 30/24 A2983 RMK SLP099 T02980241 57011 IEM_DS3505
ZGOW,1999-08-26 10:00,ZGOW 261000Z AUTO 17008KT 6SM 29/25 A2983 RMK T02900250 IEM_DS3505
ZGOW,1999-08-26 11:00,ZGOW 261100Z AUTO 20006KT 6SM 28/25 A2983 RMK T02800250 IEM_DS3505
ZGOW,1999-08-26 12:00,ZGOW 261200Z AUTO 18004KT 17SM 28/24 A2985 RMK SLP112 T02750245 52013 IEM_DS3505
ZGOW,1999-08-26 13:00,ZGOW 261300Z AUTO 16004KT 6SM 27/26 A2988 RMK T02700260 IEM_DS3505
ZGOW,1999-08-26 14:00,ZGOW 261400Z AUTO 17004KT 7SM 27/26 A2988 RMK T02700260 IEM_DS3505
ZGOW,1999-08-26 15:00,ZGOW 261500Z AUTO 18004KT 12SM 27/25 RMK SLP134 T02690249 52022 IEM_DS3505
ZGOW,1999-08-26 18:00,ZGOW 261800Z AUTO 22006KT 10SM 26/24 RMK SLP124 T02640245 57010 IEM_DS3505
ZGOW,1999-08-26 21:00,ZGOW 262100Z AUTO 00000KT 9SM 26/25 RMK SLP123 T02600247 57001 IEM_DS3505
ZGOW,1999-08-26 22:00,ZGOW 262200Z AUTO 31002KT 4SM 25/25 A2988 RMK T02500250 IEM_DS3505
ZGOW,1999-08-26 23:00,ZGOW 262300Z AUTO 33002KT 2 1/2SM 26/26 A2988 RMK T02600260 IEM_DS3505
ZGOW,1999-08-27 00:00,ZGOW 270000Z AUTO 36002KT 7SM 27/25 A2991 RMK SLP133 T02740247 52010 IEM_DS3505
ZGOW,1999-08-27 01:00,ZGOW 270100Z AUTO 32004KT 2SM 27/26 A2991 RMK T02700260 IEM_DS3505
ZGOW,1999-08-27 02:00,ZGOW 270200Z AUTO 24002KT 3SM 28/27 A2991 RMK T02800270 IEM_DS3505
ZGOW,1999-08-27 03:00,ZGOW 270300Z AUTO 27004KT 7SM 29/25 A2991 RMK SLP137 T02880247 52004 IEM_DS3505
ZGOW,1999-08-27 04:00,ZGOW 270400Z AUTO 17006KT 7SM 30/27 A2991 RMK T03000270 IEM_DS3505
ZGOW,1999-08-27 05:00,ZGOW 270500Z AUTO 19010KT 7SM 30/26 A2988 RMK T03000260 IEM_DS3505
ZGOW,1999-08-27 06:00,ZGOW 270600Z AUTO 25008KT 9SM 29/25 A2985 RMK SLP116 T02930249 57021 IEM_DS3505
ZGOW,1999-08-27 07:00,ZGOW 270700Z AUTO 20012KT 7SM 30/27 A2985 RMK T03000270 IEM_DS3505
ZGOW,1999-08-27 09:00,ZGOW 270900Z AUTO 20006KT 12SM 29/24 A2985 RMK SLP110 T02860245 57006 IEM_DS3505
ZGOW,1999-08-27 11:00,ZGOW 271100Z AUTO 19006KT 7SM 27/26 A2985 RMK T02700260 IEM_DS3505
ZGOW,1999-08-27 12:00,ZGOW 271200Z AUTO 20006KT 11SM 27/25 A2988 RMK SLP123 T02740253 52013 IEM_DS3505
ZGOW,1999-08-27 13:00,ZGOW 271300Z AUTO 19006KT 6SM 27/26 A2991 RMK T02700260 IEM_DS3505
ZGOW,1999-08-27 14:00,ZGOW 271400Z AUTO 17004KT 7SM 27/26 A2991 RMK T02700260 IEM_DS3505
ZGOW,1999-08-27 15:00,ZGOW 271500Z AUTO 20006KT 11SM 27/25 RMK SLP137 T02680254 52014 IEM_DS3505
ZGOW,1999-08-27 18:00,ZGOW 271800Z AUTO 20004KT 9SM 27/25 RMK SLP129 T02670254 57008 IEM_DS3505
ZGOW,1999-08-27 21:00,ZGOW 272100Z AUTO 25002KT 7SM 26/25 RMK SLP125 T02630253 57004 IEM_DS3505
ZGOW,1999-08-27 22:00,ZGOW 272200Z AUTO 16002KT 7SM 26/26 A2988 RMK T02600260 IEM_DS3505
ZGOW,1999-08-27 23:00,ZGOW 272300Z AUTO 19004KT 7SM 26/26 A2991 RMK T02600260 IEM_DS3505
ZGOW,1999-08-28 00:00,ZGOW 280000Z AUTO 22006KT 14SM 28/26 A2991 RMK SLP135 T02760258 52010 IEM_DS3505
ZGOW,1999-08-28 01:00,ZGOW 280100Z AUTO 18004KT 7SM 28/27 A2994 RMK T02800270 IEM_DS3505
ZGOW,1999-08-28 02:00,ZGOW 280200Z AUTO 15004KT 7SM 27/26 A2994 RMK T02700260 IEM_DS3505
ZGOW,1999-08-28 03:00,ZGOW 280300Z AUTO 20002KT 19SM 28/25 A2994 RMK SLP138 T02760253 52003 IEM_DS3505
ZGOW,1999-08-28 04:00,ZGOW 280400Z AUTO 17002KT 7SM 28/27 A2991 RMK T02800270 IEM_DS3505
ZGOW,1999-08-28 05:00,ZGOW 280500Z AUTO 17008KT 7SM 30/27 A2988 RMK T03000270 IEM_DS3505
ZGOW,1999-08-28 06:00,ZGOW 280600Z AUTO 16006KT 17SM 29/25 A2988 RMK SLP118 T02940253 57020 IEM_DS3505
ZGOW,1999-08-28 07:00,ZGOW 280700Z AUTO 17008KT 7SM 29/26 A2985 RMK T02900260 IEM_DS3505
ZGOW,1999-08-28 08:00,ZGOW 280800Z AUTO 19010KT 7SM 28/26 A2985 RMK T02800260 IEM_DS3505
ZGOW,1999-08-28 09:00,ZGOW 280900Z AUTO 18008KT 16SM 28/25 A2983 RMK SLP107 T02840252 57011 IEM_DS3505
ZGOW,1999-08-28 10:00,ZGOW 281000Z AUTO 19008KT 7SM 28/26 A2985 RMK T02800260 IEM_DS3505
ZGOW,1999-08-28 11:00,ZGOW 281100Z AUTO 19008KT 7SM 27/26 A2985 RMK T02700260 IEM_DS3505
ZGOW,1999-08-28 12:00,ZGOW 281200Z AUTO 18004KT 11SM 27/25 A2988 RMK SLP121 T02670254 52014 IEM_DS3505
ZGOW,1999-08-28 13:00,ZGOW 281300Z AUTO 22004KT 7SM 27/26 A2991 RMK T02700260 IEM_DS3505
ZGOW,1999-08-28 14:00,ZGOW 281400Z AUTO 00000KT 7SM 26/26 A2991 RMK T02600260 IEM_DS3505
ZGOW,1999-08-28 15:00,ZGOW 281500Z AUTO 00000KT 9SM 27/25 A2991 RMK SLP137 T02660250 52016 IEM_DS3505
ZGOW,1999-08-28 18:00,ZGOW 281800Z AUTO 22002KT 9SM 26/25 RMK SLP131 T02630250 57006 IEM_DS3505
ZGOW,1999-08-28 21:00,ZGOW 282100Z AUTO 00000KT 8SM 26/25 RMK SLP120 T02590249 57011 IEM_DS3505
ZGOW,1999-08-28 22:00,ZGOW 282200Z AUTO 10002KT 7SM 25/25 A2988 RMK T02500250 IEM_DS3505
ZGOW,1999-08-28 23:00,ZGOW 282300Z AUTO 18004KT 7SM 26/26 A2988 RMK T02600260 IEM_DS3505
ZGOW,1999-08-29 00:00,ZGOW 290000Z AUTO 25004KT 12SM 28/25 A2988 RMK SLP125 T02840254 52005 IEM_DS3505
ZGOW,1999-08-29 01:00,ZGOW 290100Z AUTO 22006KT 7SM 29/26 A2988 RMK T02900260 IEM_DS3505
ZGOW,1999-08-29 02:00,ZGOW 290200Z AUTO 21006KT 7SM 29/27 A2991 RMK T02900270 IEM_DS3505
ZGOW,1999-08-29 03:00,ZGOW 290300Z AUTO 22006KT 19SM 31/24 A2988 RMK SLP128 T03080244 52003 IEM_DS3505
ZGOW,1999-08-29 04:00,ZGOW 290400Z AUTO 18008KT 7SM 30/26 A2988 RMK T03000260 IEM_DS3505
ZGOW,1999-08-29 05:00,ZGOW 290500Z AUTO 19012KT 7SM 31/26 A2985 RMK T03100260 IEM_DS3505
ZGOW,1999-08-29 06:00,ZGOW 290600Z AUTO 18010KT 19SM 30/25 A2985 RMK SLP109 T02960251 57019 IEM_DS3505
ZGOW,1999-08-29 07:00,ZGOW 290700Z AUTO 19012KT 7SM 28/26 A2985 RMK T02800260 IEM_DS3505
ZGOW,1999-08-29 08:00,ZGOW 290800Z AUTO 20010KT 7SM 28/26 A2983 RMK T02800260 IEM_DS3505
ZGOW,1999-08-29 10:00,ZGOW 291000Z AUTO 20008KT 7SM 28/26 A2983 RMK T02800260 IEM_DS3505
ZGOW,1999-08-29 11:00,ZGOW 291100Z AUTO 20008KT 7SM 27/25 A2983 RMK T02700250 IEM_DS3505
ZGOW,1999-08-29 12:00,ZGOW 291200Z AUTO 20006KT 14SM 27/24 A2985 RMK SLP113 T02740244 52010 IEM_DS3505
ZGOW,1999-08-29 13:00,ZGOW 291300Z AUTO 21008KT 7SM 27/25 A2985 RMK T02700250 IEM_DS3505
ZGOW,1999-08-29 14:00,ZGOW 291400Z AUTO 21004KT 6SM 26/26 A2988 RMK T02600260 IEM_DS3505
ZGOW,1999-08-29 15:00,ZGOW 291500Z AUTO 22004KT 11SM 27/25 RMK SLP121 T02710248 52008 IEM_DS3505
ZGOW,1999-08-29 18:00,ZGOW 291800Z AUTO 20004KT 11SM 27/25 RMK SLP106 T02680250 57015 IEM_DS3505
ZGOW,1999-08-29 21:00,ZGOW 292100Z AUTO 20004KT 10SM 27/25 RMK SLP103 T02660252 57003 IEM_DS3505
ZGOW,1999-08-29 22:00,ZGOW 292200Z AUTO 19004KT 7SM 26/26 A2983 RMK T02600260 IEM_DS3505
ZGOW,1999-08-29 23:00,ZGOW 292300Z AUTO 20004KT 7SM 27/26 A2983 RMK T02700260 IEM_DS3505
ZGOW,1999-08-30 00:00,ZGOW 300000Z AUTO 22006KT 12SM 28/25 A2985 RMK SLP112 T02800249 52009 IEM_DS3505
ZGOW,1999-08-30 01:00,ZGOW 300100Z AUTO 20008KT 7SM 28/26 A2985 RMK T02800260 IEM_DS3505
ZGOW,1999-08-30 02:00,ZGOW 300200Z AUTO 20008KT 7SM RMK IEM_DS3505
ZGOW,1999-08-30 03:00,ZGOW 300300Z AUTO 22008KT 17SM 30/25 A2985 RMK SLP114 T02990247 52002 IEM_DS3505
ZGOW,1999-08-30 04:00,ZGOW 300400Z AUTO 19010KT 7SM 30/26 A2985 RMK T03000260 IEM_DS3505
ZGOW,1999-08-30 05:00,ZGOW 300500Z AUTO 19010KT 7SM 31/26 A2983 RMK T03100260 IEM_DS3505
ZGOW,1999-08-30 06:00,ZGOW 300600Z AUTO 20006KT 19SM 30/24 A2983 RMK SLP099 T02960240 57015 IEM_DS3505
ZGOW,1999-08-30 07:00,ZGOW 300700Z AUTO 20010KT 6SM 31/26 A2980 RMK T03100260 IEM_DS3505
ZGOW,1999-08-30 08:00,ZGOW 300800Z AUTO 20008KT 7SM 30/26 A2977 RMK T03000260 IEM_DS3505
ZGOW,1999-08-30 09:00,ZGOW 300900Z AUTO 20006KT 19SM 30/24 A2977 RMK SLP085 T02960240 57014 IEM_DS3505
ZGOW,1999-08-30 10:00,ZGOW 301000Z AUTO 20008KT 6SM 28/25 A2980 RMK T02800250 IEM_DS3505
ZGOW,1999-08-30 11:00,ZGOW 301100Z AUTO 19006KT 6SM 28/25 A2980 RMK T02800250 IEM_DS3505
ZGOW,1999-08-30 12:00,ZGOW 301200Z AUTO 22006KT 12SM 28/24 A2983 RMK SLP100 T02820243 52015 IEM_DS3505
ZGOW,1999-08-30 13:00,ZGOW 301300Z AUTO 20006KT 6SM 27/26 A2983 RMK T02700260 IEM_DS3505
ZGOW,1999-08-30 14:00,ZGOW 301400Z AUTO 00000KT 6SM 27/26 A2985 RMK T02700260 IEM_DS3505
ZGOW,1999-08-30 15:00,ZGOW 301500Z AUTO 22004KT 9SM 28/25 RMK SLP116 T02760246 52016 IEM_DS3505
ZGOW,1999-08-30 18:00,ZGOW 301800Z AUTO 22004KT 9SM 27/25 RMK SLP108 T02690248 57008 IEM_DS3505
ZGOW,1999-08-30 21:00,ZGOW 302100Z AUTO 00000KT 9SM 26/25 RMK SLP105 T02620246 57003 IEM_DS3505
ZGOW,1999-08-30 22:00,ZGOW 302200Z AUTO 00000KT 4SM 26/25 A2983 RMK T02600250 IEM_DS3505
ZGOW,1999-08-30 23:00,ZGOW 302300Z AUTO 00000KT 4SM 27/26 A2985 RMK T02700260 IEM_DS3505
ZGOW,1999-08-31 00:00,ZGOW 310000Z AUTO 29004KT 6SM 27/25 A2985 RMK SLP114 T02730246 52009 IEM_DS3505
ZGOW,1999-08-31 01:00,ZGOW 310100Z AUTO 24002KT 7SM 29/26 A2985 RMK T02900260 IEM_DS3505
ZGOW,1999-08-31 02:00,ZGOW 310200Z AUTO 29002KT 7SM 29/26 A2988 RMK T02900260 IEM_DS3505
ZGOW,1999-08-31 03:00,ZGOW 310300Z AUTO 32004KT 11SM 30/24 A2988 RMK SLP118 T03000235 52004 IEM_DS3505
ZGOW,1999-08-31 04:00,ZGOW 310400Z AUTO 13006KT 7SM 30/27 A2985 RMK T03000270 IEM_DS3505
ZGOW,1999-08-31 05:00,ZGOW 310500Z AUTO 17006KT 7SM 32/27 A2983 RMK T03200270 IEM_DS3505
ZGOW,1999-08-31 06:00,ZGOW 310600Z AUTO 20006KT 11SM 30/24 A2983 RMK SLP104 T03010244 57014 IEM_DS3505
ZGOW,1999-08-31 07:00,ZGOW 310700Z AUTO 16008KT 7SM 29/26 A2983 RMK T02900260 IEM_DS3505
ZGOW,1999-08-31 08:00,ZGOW 310800Z AUTO 17008KT 7SM 28/25 A2980 RMK T02800250 IEM_DS3505
ZGOW,1999-08-31 09:00,ZGOW 310900Z AUTO 16004KT 11SM 28/25 A2980 RMK SLP097 T02800247 57007 IEM_DS3505
ZGOW,1999-08-31 10:00,ZGOW 311000Z AUTO 18006KT 7SM 28/26 A2983 RMK T02800260 IEM_DS3505
ZGOW,1999-08-31 11:00,ZGOW 311100Z AUTO 18004KT 7SM 27/25 A2983 RMK T02700250 IEM_DS3505
ZGOW,1999-08-31 12:00,ZGOW 311200Z AUTO 18004KT 9SM 28/25 A2983 RMK SLP109 T02750248 52012 IEM_DS3505
ZGOW,1999-08-31 14:00,ZGOW 311400Z AUTO 18002KT 7SM 27/26 A2988 RMK T02700260 IEM_DS3505
ZGOW,1999-08-31 15:00,ZGOW 311500Z AUTO 22004KT 7SM 27/25 RMK SLP124 T02700252 52015 IEM_DS3505
ZGOW,1999-08-31 18:00,ZGOW 311800Z AUTO 22002KT 7SM 26/25 RMK SLP113 T02650249 57011 IEM_DS3505
ZGOW,1999-08-31 21:00,ZGOW 312100Z AUTO 29002KT 7SM 26/25 A2983 RMK SLP109 T02620249 57004 IEM_DS3505
ZGOW,1999-08-31 22:00,ZGOW 312200Z AUTO 30002KT 1 1/4SM 25/25 A2983 RMK T02500250 IEM_DS3505
ZGOW,1999-08-31 23:00,ZGOW 312300Z AUTO 32004KT 1SM 26/26 A2985 RMK T02600260 IEM_DS3505
ZGOW,1999-09-01 00:00,ZGOW 010000Z AUTO 34004KT 4SM 27/25 A2985 RMK SLP116 T02740251 52007 IEM_DS3505
ZGOW,1999-09-01 01:00,ZGOW 010100Z AUTO 32004KT 1 1/2SM 28/26 A2988 RMK T02800260 IEM_DS3505
ZGOW,1999-09-01 02:00,ZGOW 010200Z AUTO 33004KT 1 1/2SM 29/26 A2985 RMK T02900260 IEM_DS3505
ZGOW,1999-09-01 03:00,ZGOW 010300Z AUTO 04004KT 4SM 31/25 A2988 RMK SLP118 T03080246 52002 IEM_DS3505
ZGOW,1999-09-01 04:00,ZGOW 010400Z AUTO 14006KT 2SM 30/26 A2985 RMK T03000260 IEM_DS3505
ZGOW,1999-09-01 05:00,ZGOW 010500Z AUTO 13006KT 2SM 29/26 A2985 RMK T02900260 IEM_DS3505
ZGOW,1999-09-01 06:00,ZGOW 010600Z AUTO 18006KT 4SM 30/25 RMK SLP105 T03000252 57013 IEM_DS3505
ZGOW,1999-09-01 07:00,ZGOW 010700Z AUTO 17008KT 7SM 30/24 A2983 RMK T03000240 IEM_DS3505
ZGOW,1999-09-01 08:00,ZGOW 010800Z AUTO 18006KT 7SM 30/24 A2980 RMK T03000240 IEM_DS3505
ZGOW,1999-09-01 09:00,ZGOW 010900Z AUTO 27006KT 6SM 29/23 A2983 RMK SLP102 T02920227 57003 IEM_DS3505
ZGOW,1999-09-01 10:00,ZGOW 011000Z AUTO 28004KT 4SM 28/24 A2983 RMK T02800240 IEM_DS3505
ZGOW,1999-09-01 11:00,ZGOW 011100Z AUTO 00000KT 2 1/2SM 27/24 A2983 RMK T02700240 IEM_DS3505
ZGOW,1999-09-01 12:00,ZGOW 011200Z AUTO 04002KT 5SM 28/24 A2985 RMK SLP110 T02800240 52008 IEM_DS3505
ZGOW,1999-09-01 15:00,ZGOW 011500Z AUTO 02002KT 6SM 27/24 RMK SLP120 T02700238 52010 IEM_DS3505
ZGOW,1999-09-01 18:00,ZGOW 011800Z AUTO 07004KT 4SM 26/24 RMK SLP105 T02640237 57015 IEM_DS3505
ZGOW,1999-09-01 21:00,ZGOW 012100Z AUTO 02002KT 4SM 26/24 RMK SLP099 T02570238 57006 IEM_DS3505
ZGOW,1999-09-01 22:00,ZGOW 012200Z AUTO 36002KT 1 1/2SM 25/24 A2980 RMK T02500240 IEM_DS3505
ZGOW,1999-09-01 23:00,ZGOW 012300Z AUTO 03004KT 2 1/2SM 25/25 A2983 RMK T02500250 IEM_DS3505
ZGOW,1999-09-02 00:00,ZGOW 020000Z AUTO 04002KT 4SM 27/24 A2983 RMK SLP107 T02670241 52008 IEM_DS3505
ZGOW,1999-09-02 01:00,ZGOW 020100Z AUTO 09006KT 7SM 29/25 A2985 RMK T02900250 IEM_DS3505
ZGOW,1999-09-02 02:00,ZGOW 020200Z AUTO 06008KT 7SM 28/25 A2985 RMK T02800250 IEM_DS3505
ZGOW,1999-09-02 03:00,ZGOW 020300Z AUTO 07006KT 4SM 29/24 A2985 RMK SLP107 T02940238 54000 IEM_DS3505
ZGOW,1999-09-02 04:00,ZGOW 020400Z AUTO 08006KT 7SM 30/26 A2983 RMK T03000260 IEM_DS3505
ZGOW,1999-09-02 05:00,ZGOW 020500Z AUTO 09004KT 7SM 31/26 A2980 RMK T03100260 IEM_DS3505
ZGOW,1999-09-02 06:00,ZGOW 020600Z AUTO 09006KT 8SM 31/24 A2977 RMK SLP082 T03130245 57025 IEM_DS3505
ZGOW,1999-09-02 07:00,ZGOW 020700Z AUTO 13006KT 6SM 31/26 A2974 RMK T03100260 IEM_DS3505
ZGOW,1999-09-02 08:00,ZGOW 020800Z AUTO 12010KT 6SM 29/25 A2974 RMK T02900250 IEM_DS3505
ZGOW,1999-09-02 09:00,ZGOW 020900Z AUTO 07004KT 7SM 29/23 A2974 RMK SLP071 T02910227 57011 IEM_DS3505
ZGOW,1999-09-02 10:00,ZGOW 021000Z AUTO 13006KT 6SM 28/25 A2974 RMK T02800250 IEM_DS3505
ZGOW,1999-09-02 11:00,ZGOW 021100Z AUTO 11006KT 6SM 27/25 A2974 RMK T02700250 IEM_DS3505
ZGOW,1999-09-02 12:00,ZGOW 021200Z AUTO 04004KT 7SM 28/24 A2977 RMK SLP082 T02790243 52011 IEM_DS3505
ZGOW,1999-09-02 13:00,ZGOW 021300Z AUTO 07002KT 7SM 27/25 A2977 RMK T02700250 IEM_DS3505
ZGOW,1999-09-02 14:00,ZGOW 021400Z AUTO 01002KT 7SM 26/25 A2977 RMK T02600250 IEM_DS3505
ZGOW,1999-09-02 15:00,ZGOW 021500Z AUTO 36004KT 7SM 28/24 RMK SLP081 T02770241 57001 IEM_DS3505
ZGOW,1999-09-02 18:00,ZGOW 021800Z AUTO 02002KT 6SM 26/24 RMK SLP069 T02650245 57012 IEM_DS3505
ZGOW,1999-09-02 21:00,ZGOW 022100Z AUTO 00000KT 4SM 26/24 RMK SLP054 T02580242 57015 IEM_DS3505
ZGOW,1999-09-02 22:00,ZGOW 022200Z AUTO 32006KT 4SM 25/24 A2968 RMK T02500240 IEM_DS3505
ZGOW,1999-09-02 23:00,ZGOW 022300Z AUTO 33006KT 4SM 26/24 A2968 RMK T02600240 IEM_DS3505
ZGOW,1999-09-03 00:00,ZGOW 030000Z AUTO 04004KT 7SM 27/24 A2968 RMK SLP058 T02740235 52004 IEM_DS3505
ZGOW,1999-09-03 01:00,ZGOW 030100Z AUTO 33006KT 7SM 28/25 A2968 RMK T02800250 IEM_DS3505
ZGOW,1999-09-03 02:00,ZGOW 030200Z AUTO 35006KT 7SM 29/24 A2968 RMK T02900240 IEM_DS3505
ZGOW,1999-09-03 03:00,ZGOW 030300Z AUTO 04008KT 7SM 31/23 A2968 RMK SLP056 T03120230 57002 IEM_DS3505
ZGOW,1999-09-03 04:00,ZGOW 030400Z AUTO 03008KT 7SM 31/24 A2965 RMK T03100240 IEM_DS3505
ZGOW,1999-09-03 05:00,ZGOW 030500Z AUTO 04008KT 7SM 31/24 A2965 RMK T03100240 IEM_DS3505
ZGOW,1999-09-03 06:00,ZGOW 030600Z AUTO 07006KT 19SM 32/22 A2965 RMK SLP042 T03150215 57014 IEM_DS3505
ZGOW,1999-09-03 07:00,ZGOW 030700Z AUTO 05006KT 7SM 28/26 A2965 RMK T02800260 IEM_DS3505
ZGOW,1999-09-03 08:00,ZGOW 030800Z AUTO 04006KT 7SM 28/26 A2962 RMK T02800260 IEM_DS3505
ZGOW,1999-09-03 09:00,ZGOW 030900Z AUTO 07006KT 6SM 28/25 A2962 RMK SLP033 T02780254 57009 IEM_DS3505
ZGOW,1999-09-03 10:00,ZGOW 031000Z AUTO 08010KT 4SM 27/26 A2962 RMK T02700260 IEM_DS3505
ZGOW,1999-09-03 11:00,ZGOW 031100Z AUTO 02006KT 2 1/2SM 26/26 A2962 RMK T02600260 IEM_DS3505
ZGOW,1999-09-03 12:00,ZGOW 031200Z AUTO 07006KT 5SM 26/25 A2965 RMK SLP040 T02610254 52007 IEM_DS3505
ZGOW,1999-09-03 13:00,ZGOW 031300Z AUTO 07010KT 5SM 26/25 A2965 RMK SLP044 T02590249 52005 IEM_DS3505
ZGOW,1999-09-03 14:00,ZGOW 031400Z AUTO 07006G23KT 4SM 25/24 A2968 RMK SLP049 T02470241 52010 IEM_DS3505
ZGOW,1999-09-03 15:00,ZGOW 031500Z AUTO 04008KT 4SM 25/24 RMK SLP045 T02510245 52005 IEM_DS3505
ZGOW,1999-09-03 16:00,ZGOW 031600Z AUTO 07012KT 4SM 25/24 RMK SLP043 T02480242 57001 IEM_DS3505
ZGOW,1999-09-03 17:00,ZGOW 031700Z AUTO 07010KT 3SM 26/25 RMK SLP031 T02550248 57018 IEM_DS3505
ZGOW,1999-09-03 18:00,ZGOW 031800Z AUTO 07012KT 5SM 26/24 RMK SLP022 T02610245 57023 IEM_DS3505
ZGOW,1999-09-03 19:00,ZGOW 031900Z AUTO 04012KT 5SM 27/25 RMK SLP013 T02660248 57030 IEM_DS3505
ZGOW,1999-09-03 20:00,ZGOW 032000Z AUTO 09014KT 5SM 27/25 RMK SLP012 T02660246 57019 IEM_DS3505
ZGOW,1999-09-03 21:00,ZGOW 032100Z AUTO 11014G35KT 5SM 26/24 A2956 RMK SLP013 T02610245 57009 IEM_DS3505
ZGOW,1999-09-03 22:00,ZGOW 032200Z AUTO 11012G27KT 2SM 26/25 A2959 RMK SLP020 T02580251 52007 IEM_DS3505
ZGOW,1999-09-03 23:00,ZGOW 032300Z AUTO 16010G25KT 5SM 25/25 A2962 RMK SLP035 T02540247 52023 IEM_DS3505
ZGOW,1999-09-04 00:00,ZGOW 040000Z AUTO 16012KT 4SM 26/25 A2965 RMK SLP050 T02560249 52037 IEM_DS3505
ZGOW,1999-09-04 01:00,ZGOW 040100Z AUTO 16012KT 2 1/2SM 27/26 A2971 RMK T02700260 IEM_DS3505
ZGOW,1999-09-04 02:00,ZGOW 040200Z AUTO 16008KT 4SM 27/26 A2971 RMK T02700260 IEM_DS3505
ZGOW,1999-09-04 03:00,ZGOW 040300Z AUTO 18010KT 9SM 28/25 A2974 RMK SLP066 T02800253 52016 IEM_DS3505
ZGOW,1999-09-04 04:00,ZGOW 040400Z AUTO 15014KT 4SM 28/26 A2971 RMK T02800260 IEM_DS3505
ZGOW,1999-09-04 05:00,ZGOW 040500Z AUTO 16010KT 1 1/2SM 26/26 A2971 RMK T02600260 IEM_DS3505
ZGOW,1999-09-04 06:00,ZGOW 040600Z AUTO 16008KT 12SM 28/25 A2971 RMK SLP062 T02800252 57004 IEM_DS3505
ZGOW,1999-09-04 07:00,ZGOW 040700Z AUTO 15010KT 7SM 28/27 A2971 RMK T02800270 IEM_DS3505
ZGOW,1999-09-04 09:00,ZGOW 040900Z AUTO 14006KT 12SM 29/26 A2971 RMK SLP063 T02860259 52001 IEM_DS3505
ZGOW,1999-09-04 10:00,ZGOW 041000Z AUTO 11008KT 7SM 27/27 A2971 RMK T02700270 IEM_DS3505
ZGOW,1999-09-04 11:00,ZGOW 041100Z AUTO 12006KT 7SM 27/27 A2974 RMK T02700270 IEM_DS3505
ZGOW,1999-09-04 12:00,ZGOW 041200Z AUTO 11006KT 11SM 27/26 A2977 RMK SLP079 T02740261 52016 IEM_DS3505
ZGOW,1999-09-04 13:00,ZGOW 041300Z AUTO 11008KT 7SM 27/27 A2977 RMK T02700270 IEM_DS3505
ZGOW,1999-09-04 15:00,ZGOW 041500Z AUTO 14006KT 9SM 27/26 RMK SLP091 T02730260 52012 IEM_DS3505
ZGOW,1999-09-04 18:00,ZGOW 041800Z AUTO 11002KT 9SM 27/26 RMK SLP088 T02700259 57003 IEM_DS3505
ZGOW,1999-09-04 21:00,ZGOW 042100Z AUTO 18004KT 7SM 27/26 RMK SLP079 T02700259 57009 IEM_DS3505
ZGOW,1999-09-04 22:00,ZGOW 042200Z AUTO 12002KT 1 1/4SM 26/26 A2980 RMK T02600260 IEM_DS3505
ZGOW,1999-09-04 23:00,ZGOW 042300Z AUTO 13002KT 2SM 27/27 A2980 RMK T02700270 IEM_DS3505
ZGOW,1999-09-05 00:00,ZGOW 050000Z AUTO 11002KT 11SM 29/26 A2980 RMK SLP096 T02860258 52017 IEM_DS3505
ZGOW,1999-09-05 02:00,ZGOW 050200Z AUTO 12008KT 7SM 30/28 A2983 RMK T03000280 IEM_DS3505
ZGOW,1999-09-05 03:00,ZGOW 050300Z AUTO 18004KT 12SM 30/26 A2983 RMK SLP100 T02950260 52004 IEM_DS3505
ZGOW,1999-09-05 04:00,ZGOW 050400Z AUTO 13008KT 7SM 31/28 A2980 RMK T03100280 IEM_DS3505
ZGOW,1999-09-05 05:00,ZGOW 050500Z AUTO 14010KT 7SM 31/27 A2980 RMK T03100270 IEM_DS3505
ZGOW,1999-09-05 06:00,ZGOW 050600Z AUTO 16006KT 14SM 31/26 A2977 RMK SLP084 T03130257 57016 IEM_DS3505
ZGOW,1999-09-05 07:00,ZGOW 050700Z AUTO 13008KT 7SM 29/27 A2974 RMK T02900270 IEM_DS3505
ZGOW,1999-09-05 08:00,ZGOW 050800Z AUTO 13008KT 7SM 29/27 A2974 RMK T02900270 IEM_DS3505
ZGOW,1999-09-05 09:00,ZGOW 050900Z AUTO 11006KT 12SM 29/26 A2974 RMK SLP078 T02930260 57006 IEM_DS3505
ZGOW,1999-09-05 10:00,ZGOW 051000Z AUTO 12006KT 7SM 28/27 A2974 RMK T02800270 IEM_DS3505
ZGOW,1999-09-05 11:00,ZGOW 051100Z AUTO 11004KT 7SM 28/27 A2977 RMK T02800270 IEM_DS3505
ZGOW,1999-09-05 12:00,ZGOW 051200Z AUTO 07002KT 11SM 28/26 A2980 RMK SLP090 T02800258 52012 IEM_DS3505
ZGOW,1999-09-05 13:00,ZGOW 051300Z AUTO 11004KT 7SM 27/27 A2980 RMK T02700270 IEM_DS3505
ZGOW,1999-09-05 15:00,ZGOW 051500Z AUTO 11006KT 11SM 28/26 RMK SLP106 T02770256 52016 IEM_DS3505
ZGOW,1999-09-05 18:00,ZGOW 051800Z AUTO 11004KT 7SM 28/26 RMK SLP091 T02750260 57015 IEM_DS3505
ZGOW,1999-09-05 21:00,ZGOW 052100Z AUTO 09004KT 6SM 27/26 A2977 RMK SLP087 T02710260 57004 IEM_DS3505
ZGOW,1999-09-05 22:00,ZGOW 052200Z AUTO 10002KT 7SM 26/26 A2977 RMK T02600260 IEM_DS3505
ZGOW,1999-09-05 23:00,ZGOW 052300Z AUTO 03004KT 7SM 27/27 A2977 RMK T02700270 IEM_DS3505
ZGOW,1999-09-06 00:00,ZGOW 060000Z AUTO 09002KT 11SM 28/26 A2980 RMK SLP097 T02800259 52010 IEM_DS3505
ZGOW,1999-09-06 01:00,ZGOW 060100Z AUTO 07004KT 7SM 30/26 A2983 RMK T03000260 IEM_DS3505
ZGOW,1999-09-06 02:00,ZGOW 060200Z AUTO 12006KT 7SM 31/26 A2983 RMK T03100260 IEM_DS3505
ZGOW,1999-09-06 03:00,ZGOW 060300Z AUTO 11004KT 12SM 31/25 A2983 RMK SLP106 T03080250 52009 IEM_DS3505
ZGOW,1999-09-06 04:00,ZGOW 060400Z AUTO 12006KT 7SM 31/26 A2983 RMK T03100260 IEM_DS3505
ZGOW,1999-09-06 05:00,ZGOW 060500Z AUTO 11008KT 6SM 31/27 A2980 RMK T03100270 IEM_DS3505
ZGOW,1999-09-06 06:00,ZGOW 060600Z AUTO 14006KT 19SM 31/25 A2977 RMK SLP086 T03120246 57020 IEM_DS3505
ZGOW,1999-09-06 07:00,ZGOW 060700Z AUTO 14010KT 6SM 31/26 A2977 RMK T03100260 IEM_DS3505
ZGOW,1999-09-06 09:00,ZGOW 060900Z AUTO 18004KT 16SM 29/25 RMK SLP071 T02930254 57015 IEM_DS3505
ZGOW,1999-09-06 11:00,ZGOW 061100Z AUTO 14006KT 7SM 28/27 A2974 RMK T02800270 IEM_DS3505
ZGOW,1999-09-06 12:00,ZGOW 061200Z AUTO 18002KT 13SM 28/26 A2977 RMK SLP082 T02810256 52011 IEM_DS3505
ZGOW,1999-09-06 15:00,ZGOW 061500Z AUTO 20002KT 11SM 28/26 RMK SLP101 T02770256 52019 IEM_DS3505
ZGOW,1999-09-06 18:00,ZGOW 061800Z AUTO 22002KT 9SM 27/26 RMK SLP089 T02680257 57012 IEM_DS3505
ZGOW,1999-09-06 21:00,ZGOW 062100Z AUTO 04004KT 6SM 27/26 RMK SLP080 T02690256 57009 IEM_DS3505
ZGOW,1999-09-06 22:00,ZGOW 062200Z AUTO 35002KT 1 1/2SM 26/26 A2977 RMK T02600260 IEM_DS3505
ZGOW,1999-09-06 23:00,ZGOW 062300Z AUTO 01002KT 1 1/2SM 27/26 A2980 RMK T02700260 IEM_DS3505
ZGOW,1999-09-07 00:00,ZGOW 070000Z AUTO 04004KT 3SM 28/26 A2983 RMK SLP099 T02750255 52019 IEM_DS3505
ZGOW,1999-09-07 01:00,ZGOW 070100Z AUTO 34006KT 3SM 28/27 A2983 RMK T02800270 IEM_DS3505
ZGOW,1999-09-07 02:00,ZGOW 070200Z AUTO 32004KT 5SM 29/26 A2985 RMK T02900260 IEM_DS3505
ZGOW,1999-09-07 03:00,ZGOW 070300Z AUTO 29002KT 4SM 29/25 A2985 RMK SLP110 T02900249 52011 IEM_DS3505
ZGOW,1999-09-07 04:00,ZGOW 070400Z AUTO 17002KT 7SM 30/27 A2983 RMK T03000270 IEM_DS3505
ZGOW,1999-09-07 05:00,ZGOW 070500Z AUTO 13006KT 7SM 31/26 A2980 RMK T03100260 IEM_DS3505
ZGOW,1999-09-07 06:00,ZGOW 070600Z AUTO 14006KT 6SM 32/26 A2980 RMK SLP091 T03150258 57019 IEM_DS3505
ZGOW,1999-09-07 07:00,ZGOW 070700Z AUTO 14008KT 7SM 31/27 A2977 RMK T03100270 IEM_DS3505
ZGOW,1999-09-07 08:00,ZGOW 070800Z AUTO 17008KT 7SM 31/27 A2974 RMK T03100270 IEM_DS3505
ZGOW,1999-09-07 09:00,ZGOW 070900Z AUTO 20008KT 8SM 31/25 A2974 RMK SLP072 T03060251 57019 IEM_DS3505
ZGOW,1999-09-07 10:00,ZGOW 071000Z AUTO 16008KT 6SM 30/26 A2974 RMK T03000260 IEM_DS3505
ZGOW,1999-09-07 11:00,ZGOW 071100Z AUTO 16006KT 6SM 29/26 A2977 RMK T02900260 IEM_DS3505
ZGOW,1999-09-07 12:00,ZGOW 071200Z AUTO 20004KT 8SM 29/25 A2980 RMK SLP092 T02860251 52020 IEM_DS3505
ZGOW,1999-09-07 13:00,ZGOW 071300Z AUTO 19004KT 6SM 28/26 A2980 RMK T02800260 IEM_DS3505
ZGOW,1999-09-07 15:00,ZGOW 071500Z AUTO 22006KT 8SM 28/26 RMK SLP104 T02790255 52012 IEM_DS3505
ZGOW,1999-09-07 18:00,ZGOW 071800Z AUTO 00000KT 7SM 27/26 RMK SLP098 T02740257 57006 IEM_DS3505
ZGOW,1999-09-07 21:00,ZGOW 072100Z AUTO 00000KT 7SM 27/26 A2980 RMK SLP094 T02680255 57004 IEM_DS3505
ZGOW,1999-09-07 22:00,ZGOW 072200Z AUTO 32002KT 1SM 26/26 A2980 RMK T02600260 IEM_DS3505
ZGOW,1999-09-07 23:00,ZGOW 072300Z AUTO 33002KT 1SM 27/26 A2983 RMK T02700260 IEM_DS3505
ZGOW,1999-09-08 00:00,ZGOW 080000Z AUTO 02004KT 9SM 29/26 A2985 RMK SLP110 T02920263 52016 IEM_DS3505
ZGOW,1999-09-08 01:00,ZGOW 080100Z AUTO 34002KT 3SM 29/27 A2985 RMK T02900270 IEM_DS3505
ZGOW,1999-09-08 02:00,ZGOW 080200Z AUTO 18002KT 9SM 31/25 A2985 RMK T03100250 IEM_DS3505
ZGOW,1999-09-08 03:00,ZGOW 080300Z AUTO 25006KT 9SM 30/24 A2985 RMK SLP111 T03050241 52001 IEM_DS3505
ZGOW,1999-09-08 04:00,ZGOW 080400Z AUTO 20002KT 32/26 A2983 RMK T03200260 IEM_DS3505
ZGOW,1999-09-08 05:00,ZGOW 080500Z AUTO 17006KT 3SM 32/27 A2983 RMK T03200270 IEM_DS3505
ZGOW,1999-09-08 06:00,ZGOW 080600Z AUTO 22006KT 11SM 32/25 A2980 RMK SLP096 T03210254 57015 IEM_DS3505
ZGOW,1999-09-08 07:00,ZGOW 080700Z AUTO 17010KT 6SM 32/26 A2980 RMK T03200260 IEM_DS3505
ZGOW,1999-09-08 08:00,ZGOW 080800Z AUTO 16010KT 6SM 32/27 A2977 RMK T03200270 IEM_DS3505
ZGOW,1999-09-08 09:00,ZGOW 080900Z AUTO 16008KT 11SM 31/25 A2977 RMK SLP083 T03110249 57013 IEM_DS3505
ZGOW,1999-09-08 10:00,ZGOW 081000Z AUTO 19010KT 7SM 30/26 A2977 RMK T03000260 IEM_DS3505
ZGOW,1999-09-08 11:00,ZGOW 081100Z AUTO 17008KT 6SM 29/26 A2980 RMK T02900260 IEM_DS3505
ZGOW,1999-09-08 12:00,ZGOW 081200Z AUTO 20004KT 11SM 29/25 A2980 RMK SLP098 T02880253 52015 IEM_DS3505
ZGOW,1999-09-08 13:00,ZGOW 081300Z AUTO 20004KT 7SM 28/27 A2983 RMK T02800270 IEM_DS3505
ZGOW,1999-09-08 15:00,ZGOW 081500Z AUTO 25004KT 11SM 28/26 RMK SLP110 T02820255 52012 IEM_DS3505
ZGOW,1999-09-08 18:00,ZGOW 081800Z AUTO 22004KT 8SM 28/25 RMK SLP091 T02750252 57019 IEM_DS3505
ZGOW,1999-09-08 21:00,ZGOW 082100Z AUTO 29002KT 7SM 27/25 A2977 RMK SLP089 T02710251 57002 IEM_DS3505
ZGOW,1999-09-08 22:00,ZGOW 082200Z AUTO 35002KT 3SM 26/25 A2977 RMK T02600250 IEM_DS3505
ZGOW,1999-09-08 23:00,ZGOW 082300Z AUTO 32002KT 2SM 27/26 A2980 RMK T02700260 IEM_DS3505
ZGOW,1999-09-09 00:00,ZGOW 090000Z AUTO 36004KT 7SM 29/25 A2980 RMK SLP094 T02920250 52005 IEM_DS3505
ZGOW,1999-09-09 01:00,ZGOW 090100Z AUTO 01002KT 4SM 30/27 A2980 RMK T03000270 IEM_DS3505
ZGOW,1999-09-09 03:00,ZGOW 090300Z AUTO 22006KT 11SM 32/23 A2980 RMK SLP095 T03160231 52001 IEM_DS3505
ZGOW,1999-09-09 04:00,ZGOW 090400Z AUTO 18006KT 4SM 30/26 A2980 RMK T03000260 IEM_DS3505
ZGOW,1999-09-09 05:00,ZGOW 090500Z AUTO 16006KT 7SM 32/27 A2977 RMK T03200270 IEM_DS3505
ZGOW,1999-09-09 07:00,ZGOW 090700Z AUTO 17010KT 6SM 30/26 A2974 RMK T03000260 IEM_DS3505
ZGOW,1999-09-09 08:00,ZGOW 090800Z AUTO 17010KT 7SM 32/25 A2974 RMK T03200250 IEM_DS3505
ZGOW,1999-09-09 09:00,ZGOW 090900Z AUTO 20008KT 14SM 30/24 A2971 RMK SLP068 T03050239 57010 IEM_DS3505
ZGOW,1999-09-09 10:00,ZGOW 091000Z AUTO 19006KT 6SM 29/25 A2974 RMK T02900250 IEM_DS3505
ZGOW,1999-09-09 11:00,ZGOW 091100Z AUTO 17004KT 7SM 28/26 A2974 RMK T02800260 IEM_DS3505
ZGOW,1999-09-09 12:00,ZGOW 091200Z AUTO 18004KT 12SM 29/25 A2977 RMK SLP084 T02880250 52016 IEM_DS3505
ZGOW,1999-09-09 13:00,ZGOW 091300Z AUTO 21004KT 6SM 28/26 A2977 RMK T02800260 IEM_DS3505
ZGOW,1999-09-09 14:00,ZGOW 091400Z AUTO 19004KT 6SM 28/26 A2980 RMK T02800260 IEM_DS3505
ZGOW,1999-09-09 15:00,ZGOW 091500Z AUTO 22004KT 11SM 28/24 RMK SLP089 T02840244 52005 IEM_DS3505
ZGOW,1999-09-09 18:00,ZGOW 091800Z AUTO 25004KT 9SM 28/25 RMK SLP079 T02760249 57010 IEM_DS3505
ZGOW,1999-09-09 21:00,ZGOW 092100Z AUTO 04004KT 6SM 27/25 RMK SLP071 T02690249 57008 IEM_DS3505
ZGOW,1999-09-09 22:00,ZGOW 092200Z AUTO 35002KT 2SM 26/26 A2974 RMK T02600260 IEM_DS3505
ZGOW,1999-09-09 23:00,ZGOW 092300Z AUTO 35002KT 2 1/2SM 26/26 A2977 RMK T02600260 IEM_DS3505
ZGOW,1999-09-10 00:00,ZGOW 100000Z AUTO 04004KT 5SM 29/26 A2980 RMK SLP093 T02860261 52022 IEM_DS3505
ZGOW,1999-09-10 01:00,ZGOW 100100Z AUTO 28004KT 3SM 29/27 A2980 RMK T02900270 IEM_DS3505
ZGOW,1999-09-10 02:00,ZGOW 100200Z AUTO 27002KT 4SM 31/26 A2980 RMK T03100260 IEM_DS3505
ZGOW,1999-09-10 03:00,ZGOW 100300Z AUTO 27006KT 11SM 31/24 A2980 RMK SLP090 T03120236 57003 IEM_DS3505
ZGOW,1999-09-10 04:00,ZGOW 100400Z AUTO 13002KT 4SM 32/27 A2977 RMK T03200270 IEM_DS3505
ZGOW,1999-09-10 05:00,ZGOW 100500Z AUTO 18006KT 33/26 A2974 RMK T03300260 IEM_DS3505
ZGOW,1999-09-10 06:00,ZGOW 100600Z AUTO 22008KT 19SM 32/25 A2971 RMK SLP068 T03160250 57022 IEM_DS3505
ZGOW,1999-09-10 07:00,ZGOW 100700Z AUTO 17010KT 6SM 32/27 A2971 RMK T03200270 IEM_DS3505
ZGOW,1999-09-10 08:00,ZGOW 100800Z AUTO 17010KT 6SM 32/26 A2971 RMK T03200260 IEM_DS3505
ZGOW,1999-09-10 09:00,ZGOW 100900Z AUTO 20008KT 19SM 31/25 A2968 RMK SLP059 T03100254 57009 IEM_DS3505
ZGOW,1999-09-10 10:00,ZGOW 101000Z AUTO 17008KT 6SM 30/26 A2971 RMK T03000260 IEM_DS3505
ZGOW,1999-09-10 11:00,ZGOW 101100Z AUTO 17006KT 6SM 29/26 A2971 RMK T02900260 IEM_DS3505
ZGOW,1999-09-10 12:00,ZGOW 101200Z AUTO 18004KT 14SM 29/24 A2971 RMK SLP067 T02900240 52008 IEM_DS3505
ZGOW,1999-09-10 13:00,ZGOW 101300Z AUTO 19004KT 7SM 28/25 A2974 RMK T02800250 IEM_DS3505
ZGOW,1999-09-10 14:00,ZGOW 101400Z AUTO 21004KT 7SM 28/25 A2974 RMK T02800250 IEM_DS3505
ZGOW,1999-09-10 15:00,ZGOW 101500Z AUTO 25006KT 12SM 28/25 RMK SLP079 T02830249 52012 IEM_DS3505
ZGOW,1999-09-10 18:00,ZGOW 101800Z AUTO 27006KT 11SM 28/25 RMK SLP072 T02800249 57007 IEM_DS3505
ZGOW,1999-09-10 21:00,ZGOW 102100Z AUTO 29004KT 7SM 27/25 A2971 RMK SLP064 T02710251 57008 IEM_DS3505
ZGOW,1999-09-10 22:00,ZGOW 102200Z AUTO 32002KT 3SM 26/25 A2971 RMK T02600250 IEM_DS3505
ZGOW,1999-09-10 23:00,ZGOW 102300Z AUTO 31002KT 2 1/2SM 27/26 A2974 RMK T02700260 IEM_DS3505
ZGOW,1999-09-11 00:00,ZGOW 110000Z AUTO 00000KT 7SM 29/26 A2974 RMK SLP080 T02910255 52016 IEM_DS3505
ZGOW,1999-09-11 01:00,ZGOW 110100Z AUTO 32002KT 3SM 30/27 A2977 RMK T03000270 IEM_DS3505
ZGOW,1999-09-11 02:00,ZGOW 110200Z AUTO 26002KT 7SM 31/27 A2977 RMK T03100270 IEM_DS3505
ZGOW,1999-09-11 03:00,ZGOW 110300Z AUTO 25006KT 9SM 32/25 A2974 RMK SLP078 T03150252 57002 IEM_DS3505
ZGOW,1999-09-11 04:00,ZGOW 110400Z AUTO 14004KT 7SM 33/26 A2974 RMK T03300260 IEM_DS3505
ZGOW,1999-09-11 05:00,ZGOW 110500Z AUTO 21004KT 7SM 34/26 A2971 RMK T03400260 IEM_DS3505
ZGOW,1999-09-11 06:00,ZGOW 110600Z AUTO 27008KT 16SM 34/23 A2968 RMK SLP055 T03400227 57023 IEM_DS3505
ZGOW,1999-09-11 07:00,ZGOW 110700Z AUTO 17010KT 7SM 33/27 A2965 RMK T03300270 IEM_DS3505
ZGOW,1999-09-11 08:00,ZGOW 110800Z AUTO 16008KT 6SM 32/27 A2965 RMK T03200270 IEM_DS3505
ZGOW,1999-09-11 09:00,ZGOW 110900Z AUTO 20006KT 14SM 32/25 A2965 RMK SLP039 T03180254 57016 IEM_DS3505
ZGOW,1999-09-11 10:00,ZGOW 111000Z AUTO 16006KT 6SM 30/26 A2965 RMK T03000260 IEM_DS3505
ZGOW,1999-09-11 11:00,ZGOW 111100Z AUTO 17004KT 6SM 29/26 A2965 RMK T02900260 IEM_DS3505
ZGOW,1999-09-11 12:00,ZGOW 111200Z AUTO 20004KT 11SM 30/25 A2968 RMK SLP048 T02960254 52009 IEM_DS3505
ZGOW,1999-09-11 13:00,ZGOW 111300Z AUTO 16002KT 6SM 28/26 A2968 RMK T02800260 IEM_DS3505
ZGOW,1999-09-11 14:00,ZGOW 111400Z AUTO 20002KT 6SM 28/27 A2971 RMK T02800270 IEM_DS3505
ZGOW,1999-09-11 15:00,ZGOW 111500Z AUTO 25004KT 10SM 29/25 RMK SLP057 T02880254 52009 IEM_DS3505
ZGOW,1999-09-11 18:00,ZGOW 111800Z AUTO 27002KT 8SM 28/26 RMK SLP048 T02840260 57009 IEM_DS3505
ZGOW,1999-09-11 21:00,ZGOW 112100Z AUTO 04004KT 6SM 28/26 RMK SLP045 T02780258 57003 IEM_DS3505
ZGOW,1999-09-11 23:00,ZGOW 112300Z AUTO 00000KT 3SM 28/27 A2968 RMK T02800270 IEM_DS3505
ZGOW,1999-09-12 00:00,ZGOW 120000Z AUTO 04004KT 6SM 30/26 A2968 RMK SLP057 T02950257 52012 IEM_DS3505
ZGOW,1999-09-12 01:00,ZGOW 120100Z AUTO 05008KT 3SM 30/27 A2971 RMK T03000270 IEM_DS3505
ZGOW,1999-09-12 02:00,ZGOW 120200Z AUTO 08008KT 4SM 31/27 A2971 RMK T03100270 IEM_DS3505
ZGOW,1999-09-12 03:00,ZGOW 120300Z AUTO 04008KT 6SM 32/25 A2971 RMK SLP056 T03230249 57001 IEM_DS3505
ZGOW,1999-09-12 04:00,ZGOW 120400Z AUTO 13006KT 4SM 32/27 A2968 RMK T03200270 IEM_DS3505
ZGOW,1999-09-12 05:00,ZGOW 120500Z AUTO 13008KT 33/27 A2965 RMK T03300270 IEM_DS3505
ZGOW,1999-09-12 06:00,ZGOW 120600Z AUTO 16006KT 7SM 32/25 A2962 RMK SLP037 T03240254 57019 IEM_DS3505
ZGOW,1999-09-12 07:00,ZGOW 120700Z AUTO 12010KT 6SM 31/25 A2962 RMK T03100250 IEM_DS3505
ZGOW,1999-09-12 08:00,ZGOW 120800Z AUTO 13008KT 6SM 31/25 A2959 RMK T03100250 IEM_DS3505
ZGOW,1999-09-12 09:00,ZGOW 120900Z AUTO 16008KT 9SM 30/24 A2959 RMK SLP027 T03020244 57010 IEM_DS3505
ZGOW,1999-09-12 10:00,ZGOW 121000Z AUTO 12008KT 6SM 29/26 A2962 RMK T02900260 IEM_DS3505
ZGOW,1999-09-12 11:00,ZGOW 121100Z AUTO 10002KT 6SM 28/26 A2962 RMK T02800260 IEM_DS3505
ZGOW,1999-09-12 12:00,ZGOW 121200Z AUTO 09004KT 6SM 29/25 A2965 RMK SLP046 T02930246 52019 IEM_DS3505
ZGOW,1999-09-12 13:00,ZGOW 121300Z AUTO 10008KT 7SM 29/25 A2968 RMK T02900250 IEM_DS3505
ZGOW,1999-09-12 14:00,ZGOW 121400Z AUTO 04004KT 7SM 28/26 A2965 RMK T02800260 IEM_DS3505
ZGOW,1999-09-12 15:00,ZGOW 121500Z AUTO 04004KT 6SM 29/25 RMK SLP044 T02920253 57002 IEM_DS3505
ZGOW,1999-09-12 18:00,ZGOW 121800Z AUTO 32002KT 6SM 28/25 RMK SLP040 T02820252 57004 IEM_DS3505
ZGOW,1999-09-12 21:00,ZGOW 122100Z AUTO 02004KT 4SM 28/25 A2962 RMK SLP033 T02780253 57007 IEM_DS3505
ZGOW,1999-09-12 22:00,ZGOW 122200Z AUTO 33004KT 2SM 27/26 A2962 RMK T02700260 IEM_DS3505
ZGOW,1999-09-12 23:00,ZGOW 122300Z AUTO 31006KT 1 1/2SM 27/26 A2962 RMK T02700260 IEM_DS3505
ZGOW,1999-09-13 00:00,ZGOW 130000Z AUTO 34004KT 6SM 29/25 A2962 RMK SLP032 T02870252 57001 IEM_DS3505
ZGOW,1999-09-13 01:00,ZGOW 130100Z AUTO 34006KT 2 1/2SM 30/27 A2959 RMK T03000270 IEM_DS3505
ZGOW,1999-09-13 02:00,ZGOW 130200Z AUTO 01006KT 7SM 32/26 A2959 RMK T03200260 IEM_DS3505
ZGOW,1999-09-13 03:00,ZGOW 130300Z AUTO 02006KT 9SM 32/23 A2959 RMK SLP023 T03250230 57009 IEM_DS3505
ZGOW,1999-09-13 04:00,ZGOW 130400Z AUTO 08008KT 7SM 34/25 A2956 RMK T03400250 IEM_DS3505
ZGOW,1999-09-13 05:00,ZGOW 130500Z AUTO 09012KT 7SM 34/25 A2956 RMK T03400250 IEM_DS3505
ZGOW,1999-09-13 06:00,ZGOW 130600Z AUTO 11008KT 14SM 34/22 A2956 RMK SLP010 T03390224 57013 IEM_DS3505
ZGOW,1999-09-13 07:00,ZGOW 130700Z AUTO 12010KT 7SM 32/27 A2953 RMK T03200270 IEM_DS3505
ZGOW,1999-09-13 08:00,ZGOW 130800Z AUTO 10010KT 6SM 32/26 A2953 RMK T03200260 IEM_DS3505
ZGOW,1999-09-13 10:00,ZGOW 131000Z AUTO 08012KT 7SM 30/25 A2953 RMK T03000250 IEM_DS3505
ZGOW,1999-09-13 11:00,ZGOW 131100Z AUTO 08012KT 7SM 29/25 A2953 RMK T02900250 IEM_DS3505
ZGOW,1999-09-13 15:00,ZGOW 131500Z AUTO 04004KT 9SM 30/25 RMK SLP024 T02980249 52014 IEM_DS3505
ZGOW,1999-09-13 18:00,ZGOW 131800Z AUTO 09002KT 8SM 29/25 RMK SLP005 T02940246 57019 IEM_DS3505
ZGOW,1999-09-13 21:00,ZGOW 132100Z AUTO 09004KT 7SM 29/23 RMK SLP993 T02900226 57012 IEM_DS3505
ZGOW,1999-09-13 22:00,ZGOW 132200Z AUTO 03004KT 7SM 28/22 A2950 RMK T02800220 IEM_DS3505
ZGOW,1999-09-13 23:00,ZGOW 132300Z AUTO 01006KT 7SM 28/23 A2953 RMK T02800230 IEM_DS3505
ZGOW,1999-09-14 00:00,ZGOW 140000Z AUTO 04004KT 12SM 29/22 A2953 RMK SLP004 T02920217 52011 IEM_DS3505
ZGOW,1999-09-14 02:00,ZGOW 140200Z AUTO 04012KT 12SM 31/23 A2953 RMK SLP006 T03070229 52006 IEM_DS3505
ZGOW,1999-09-14 03:00,ZGOW 140300Z AUTO 07010KT 12SM 30/24 A2953 RMK SLP008 T03040237 52004 IEM_DS3505
ZGOW,1999-09-14 04:00,ZGOW 140400Z AUTO 05012KT 7SM 28/26 A2953 RMK T02800260 IEM_DS3505
ZGOW,1999-09-14 05:00,ZGOW 140500Z AUTO 05019KT 7SM 30/26 A2950 RMK T03000260 IEM_DS3505
ZGOW,1999-09-14 06:00,ZGOW 140600Z AUTO 04008KT 11SM 30/25 A2950 RMK SLP993 T02980250 57015 IEM_DS3505
ZGOW,1999-09-14 07:00,ZGOW 140700Z AUTO 06016KT 7SM 31/27 A2947 RMK T03100270 IEM_DS3505
ZGOW,1999-09-14 08:00,ZGOW 140800Z AUTO 06016KT 7SM 31/26 A2947 RMK T03100260 IEM_DS3505
ZGOW,1999-09-14 09:00,ZGOW 140900Z AUTO 09010KT 11SM 30/24 A2947 RMK SLP981 T03040237 57012 IEM_DS3505
ZGOW,1999-09-14 10:00,ZGOW 141000Z AUTO 07010KT 7SM 29/25 A2947 RMK T02900250 IEM_DS3505
ZGOW,1999-09-14 11:00,ZGOW 141100Z AUTO 06016KT 7SM 28/25 A2947 RMK T02800250 IEM_DS3505
ZGOW,1999-09-14 13:00,ZGOW 141300Z AUTO 05014KT 4SM 28/25 A2953 RMK T02800250 IEM_DS3505
ZGOW,1999-09-14 15:00,ZGOW 141500Z AUTO 04012KT 9SM 28/24 RMK SLP000 T02810238 52004 IEM_DS3505
ZGOW,1999-09-14 18:00,ZGOW 141800Z AUTO 07010KT 6SM 26/25 RMK 60008 SLP993 T02650248 57007 IEM_DS3505
ZGOW,1999-09-14 21:00,ZGOW 142100Z AUTO 09010KT 6SM 26/25 A2950 RMK 70056 SLP992 T02590251 57001 IEM_DS3505
ZGOW,1999-09-14 22:00,ZGOW 142200Z AUTO 07014KT 7SM 26/25 A2950 RMK T02600250 IEM_DS3505
ZGOW,1999-09-14 23:00,ZGOW 142300Z AUTO 08012G21KT 2 1/2SM 27/26 A2950 RMK T02700260 IEM_DS3505
ZGOW,1999-09-15 00:00,ZGOW 150000Z AUTO 07008KT 7SM 26/26 A2953 RMK 60079 SLP999 T02630257 52007 IEM_DS3505
ZGOW,1999-09-15 01:00,ZGOW 150100Z AUTO 07016KT 7SM 27/27 A2953 RMK T02700270 IEM_DS3505
ZGOW,1999-09-15 02:00,ZGOW 150200Z AUTO 08016KT 7SM 28/27 A2953 RMK T02800270 IEM_DS3505
ZGOW,1999-09-15 03:00,ZGOW 150300Z AUTO 07010KT 9SM 30/26 A2953 RMK SLP003 T03040255 52004 IEM_DS3505
ZGOW,1999-09-15 04:00,ZGOW 150400Z AUTO 07014KT 7SM 28/27 A2953 RMK T02800270 IEM_DS3505
ZGOW,1999-09-15 05:00,ZGOW 150500Z AUTO 09012KT 7SM 28/27 A2950 RMK T02800270 IEM_DS3505
ZGOW,1999-09-15 06:00,ZGOW 150600Z AUTO 07006KT 10SM 28/25 A2950 RMK SLP992 T02810247 57011 IEM_DS3505
ZGOW,1999-09-15 07:00,ZGOW 150700Z AUTO 08014KT 7SM 28/25 A2947 RMK T02800250 IEM_DS3505
ZGOW,1999-09-15 08:00,ZGOW 150800Z AUTO 07016KT 7SM 28/26 A2947 RMK T02800260 IEM_DS3505
ZGOW,1999-09-15 09:00,ZGOW 150900Z AUTO 07004KT 5SM 26/25 A2950 RMK SLP990 T02640251 57002 IEM_DS3505
ZGOW,1999-09-15 10:00,ZGOW 151000Z AUTO 08014KT 5SM 26/26 A2950 RMK T02600260 IEM_DS3505
ZGOW,1999-09-15 11:00,ZGOW 151100Z AUTO 07017KT 2 1/2SM 26/26 A2950 RMK T02600260 IEM_DS3505
ZGOW,1999-09-15 12:00,ZGOW 151200Z AUTO 04010G23KT 5SM 26/25 RMK SLP998 T02620251 52008 IEM_DS3505
ZGOW,1999-09-15 13:00,ZGOW 151300Z AUTO 08014KT 7SM 26/25 A2953 RMK T02600250 IEM_DS3505
ZGOW,1999-09-15 14:00,ZGOW 151400Z AUTO 08012KT 4SM 27/26 A2956 RMK T02700260 IEM_DS3505
ZGOW,1999-09-15 15:00,ZGOW 151500Z AUTO 04012KT 6SM 27/24 RMK SLP006 T02710244 52008 IEM_DS3505
ZGOW,1999-09-15 18:00,ZGOW 151800Z AUTO 09008KT 7SM 27/25 RMK SLP001 T02720248 57005 IEM_DS3505
ZGOW,1999-09-15 21:00,ZGOW 152100Z AUTO 09008KT 7SM 27/25 RMK SLP994 T02680250 57007 IEM_DS3505
ZGOW,1999-09-15 22:00,ZGOW 152200Z AUTO 10016G25KT 3SM 27/26 A2953 RMK T02700260 IEM_DS3505
ZGOW,1999-09-15 23:00,ZGOW 152300Z AUTO 10016G25KT 3SM RMK IEM_DS3505
ZGOW,1999-09-16 00:00,ZGOW 160000Z AUTO 16014G35KT 7SM 27/25 RMK SLP010 T02660250 52016 IEM_DS3505
ZGOW,1999-09-16 01:00,ZGOW 160100Z AUTO 13016G27KT 3SM 27/25 A2959 RMK T02700250 IEM_DS3505
ZGOW,1999-09-16 02:00,ZGOW 160200Z AUTO 11014G23KT 2 1/2SM RMK IEM_DS3505
ZGOW,1999-09-16 03:00,ZGOW 160300Z AUTO 11008G23KT 6SM 26/24 RMK SLP031 T02610245 52021 IEM_DS3505
ZGOW,1999-09-16 04:00,ZGOW 160400Z AUTO 12014KT 2 1/2SM 26/25 A2959 RMK T02600250 IEM_DS3505
ZGOW,1999-09-16 05:00,ZGOW 160500Z AUTO 12016G25KT 3SM 26/26 A2959 RMK T02600260 IEM_DS3505
ZGOW,1999-09-16 06:00,ZGOW 160600Z AUTO 09006G25KT 11SM 27/25 A2956 RMK SLP017 T02700252 57014 IEM_DS3505
ZGOW,1999-09-16 07:00,ZGOW 160700Z AUTO 10016KT 4SM 27/26 A2956 RMK T02700260 IEM_DS3505
ZGOW,1999-09-16 08:00,ZGOW 160800Z AUTO 11014G25KT 3SM 26/25 A2956 RMK T02600250 IEM_DS3505
ZGOW,1999-09-16 09:00,ZGOW 160900Z AUTO 11008KT 7SM 26/24 A2959 RMK SLP017 T02580245 54000 IEM_DS3505
ZGOW,1999-09-16 10:00,ZGOW 161000Z AUTO 11010KT 7SM 26/25 A2959 RMK T02600250 IEM_DS3505
ZGOW,1999-09-16 11:00,ZGOW 161100Z AUTO 11012KT 7SM 27/25 A2959 RMK T02700250 IEM_DS3505
ZGOW,1999-09-16 12:00,ZGOW 161200Z AUTO 09006KT 7SM 27/25 A2962 RMK SLP038 T02680248 52021 IEM_DS3505
ZGOW,1999-09-16 13:00,ZGOW 161300Z AUTO 10012KT 7SM 26/25 A2965 RMK T02600250 IEM_DS3505
ZGOW,1999-09-16 14:00,ZGOW 161400Z AUTO 11012KT 7SM 27/26 A2968 RMK T02700260 IEM_DS3505
ZGOW,1999-09-16 15:00,ZGOW 161500Z AUTO 11006KT 6SM 27/25 A2968 RMK SLP051 T02660250 52013 IEM_DS3505
ZGOW,1999-09-16 18:00,ZGOW 161800Z AUTO 16004KT 6SM 27/25 RMK 60002 SLP045 T02700252 57006 IEM_DS3505
ZGOW,1999-09-16 21:00,ZGOW 162100Z AUTO 11006KT 6SM 27/25 RMK 70094 SLP036 T02660252 57009 IEM_DS3505
ZGOW,1999-09-16 22:00,ZGOW 162200Z AUTO 15010KT 7SM 27/26 A2965 RMK T02700260 IEM_DS3505
ZGOW,1999-09-16 23:00,ZGOW 162300Z AUTO 16010KT 7SM 27/26 A2965 RMK T02700260 IEM_DS3505
ZGOW,1999-09-17 00:00,ZGOW 170000Z AUTO 18010KT 10SM 28/26 A2968 RMK 60004 SLP052 T02790261 52016 IEM_DS3505
ZGOW,1999-09-17 01:00,ZGOW 170100Z AUTO 15010KT 7SM 28/27 A2968 RMK T02800270 IEM_DS3505
ZGOW,1999-09-17 02:00,ZGOW 170200Z AUTO 15012KT 7SM 28/27 A2968 RMK T02800270 IEM_DS3505
ZGOW,1999-09-17 03:00,ZGOW 170300Z AUTO 20008KT 9SM 29/26 A2968 RMK SLP054 T02880262 52002 IEM_DS3505
ZGOW,1999-09-17 04:00,ZGOW 170400Z AUTO 16012KT 7SM 30/27 A2968 RMK T03000270 IEM_DS3505
ZGOW,1999-09-17 05:00,ZGOW 170500Z AUTO 15010KT 7SM 29/28 A2965 RMK T02900280 IEM_DS3505
ZGOW,1999-09-17 06:00,ZGOW 170600Z AUTO 18010G21KT 11SM 29/26 A2965 RMK SLP043 T02930260 57011 IEM_DS3505
ZGOW,1999-09-17 07:00,ZGOW 170700Z AUTO 15010KT 7SM 29/28 A2965 RMK T02900280 IEM_DS3505
ZGOW,1999-09-17 08:00,ZGOW 170800Z AUTO 15010KT 2 1/2SM 29/28 A2962 RMK T02900280 IEM_DS3505
ZGOW,1999-09-17 09:00,ZGOW 170900Z AUTO 18006G19KT 8SM 28/26 A2965 RMK SLP040 T02820264 57003 IEM_DS3505
ZGOW,1999-09-17 10:00,ZGOW 171000Z AUTO 17008KT 7SM 28/27 A2965 RMK T02800270 IEM_DS3505
ZGOW,1999-09-17 11:00,ZGOW 171100Z AUTO 14010KT 3SM 27/26 A2968 RMK T02700260 IEM_DS3505
ZGOW,1999-09-17 12:00,ZGOW 171200Z AUTO 16004KT 9SM 28/26 A2971 RMK 60012 SLP061 T02770263 52021 IEM_DS3505
ZGOW,1999-09-17 13:00,ZGOW 171300Z AUTO 14008KT 7SM 27/27 A2971 RMK T02700270 IEM_DS3505
ZGOW,1999-09-17 14:00,ZGOW 171400Z AUTO 14008KT 7SM 27/27 A2974 RMK T02700270 IEM_DS3505
ZGOW,1999-09-17 15:00,ZGOW 171500Z AUTO 16006KT 8SM 28/26 RMK SLP071 T02770262 52010 IEM_DS3505
ZGOW,1999-09-17 18:00,ZGOW 171800Z AUTO 00000KT 7SM 27/26 RMK 60003 SLP059 T02670257 57012 IEM_DS3505
ZGOW,1999-09-17 21:00,ZGOW 172100Z AUTO 04006KT 5SM 26/25 A2971 RMK SLP061 T02580249 52002 IEM_DS3505
ZGOW,1999-09-17 22:00,ZGOW 172200Z AUTO 26004KT 1 1/2SM 26/25 A2971 RMK T02600250 IEM_DS3505
ZGOW,1999-09-17 23:00,ZGOW 172300Z AUTO 07002KT 7SM 26/26 A2974 RMK T02600260 IEM_DS3505
ZGOW,1999-09-18 00:00,ZGOW 180000Z AUTO 07002KT 7SM 26/25 A2974 RMK SLP077 T02610250 52016 IEM_DS3505
ZGOW,1999-09-18 01:00,ZGOW 180100Z AUTO 05004KT 7SM 26/26 A2974 RMK T02600260 IEM_DS3505
ZGOW,1999-09-18 02:00,ZGOW 180200Z AUTO 05006KT 4SM 26/26 A2974 RMK T02600260 IEM_DS3505
ZGOW,1999-09-18 03:00,ZGOW 180300Z AUTO 09004KT 7SM 27/26 A2974 RMK SLP077 T02690255 54000 IEM_DS3505
ZGOW,1999-09-18 04:00,ZGOW 180400Z AUTO 08008KT 7SM 27/26 A2971 RMK T02700260 IEM_DS3505
ZGOW,1999-09-18 05:00,ZGOW 180500Z AUTO 08006KT 7SM 29/27 A2971 RMK T02900270 IEM_DS3505
ZGOW,1999-09-18 06:00,ZGOW 180600Z AUTO 07006KT 9SM 28/26 A2968 RMK SLP057 T02850257 57020 IEM_DS3505
ZGOW,1999-09-18 07:00,ZGOW 180700Z AUTO 09008KT 7SM 28/26 A2968 RMK T02800260 IEM_DS3505
ZGOW,1999-09-18 08:00,ZGOW 180800Z AUTO 10008KT 7SM 28/26 A2968 RMK T02800260 IEM_DS3505
ZGOW,1999-09-18 09:00,ZGOW 180900Z AUTO 09004KT 9SM 28/26 A2968 RMK SLP054 T02790257 57003 IEM_DS3505
ZGOW,1999-09-18 10:00,ZGOW 181000Z AUTO 01004KT 4SM 26/26 A2968 RMK T02600260 IEM_DS3505
ZGOW,1999-09-18 11:00,ZGOW 181100Z AUTO 03006KT 4SM 26/26 A2971 RMK T02600260 IEM_DS3505
ZGOW,1999-09-18 12:00,ZGOW 181200Z AUTO 04004KT 7SM 26/25 A2971 RMK SLP068 T02630249 52014 IEM_DS3505
ZGOW,1999-09-18 13:00,ZGOW 181300Z AUTO 03004KT 7SM 26/26 A2974 RMK T02600260 IEM_DS3505
ZGOW,1999-09-18 15:00,ZGOW 181500Z AUTO 09010KT 4SM 25/24 RMK SLP081 T02500243 52013 IEM_DS3505
ZGOW,1999-09-18 18:00,ZGOW 181800Z AUTO 00000KT 6SM 25/25 RMK SLP073 T02500247 57008 IEM_DS3505
ZGOW,1999-09-18 20:00,ZGOW 182000Z AUTO 6SM 24/24 RMK SLP064 T02450241 57009 IEM_DS3505
ZGOW,1999-09-18 21:00,ZGOW 182100Z AUTO 04002KT 6SM 24/24 RMK SLP064 T02450241 57009 IEM_DS3505
ZGOW,1999-09-18 22:00,ZGOW 182200Z AUTO 00000KT 2 1/2SM 24/24 A2971 RMK T02400240 IEM_DS3505
ZGOW,1999-09-18 23:00,ZGOW 182300Z AUTO 32002KT 2 1/2SM 25/24 A2974 RMK T02500240 IEM_DS3505
ZGOW,1999-09-19 00:00,ZGOW 190000Z AUTO 00000KT 6SM 26/25 A2974 RMK SLP080 T02620248 52016 IEM_DS3505
ZGOW,1999-09-19 01:00,ZGOW 190100Z AUTO 10002KT 7SM 28/26 A2977 RMK T02800260 IEM_DS3505
ZGOW,1999-09-19 02:00,ZGOW 190200Z AUTO 29002KT 7SM 29/26 A2977 RMK T02900260 IEM_DS3505
ZGOW,1999-09-19 03:00,ZGOW 190300Z AUTO 04004KT 6SM 30/25 A2977 RMK SLP078 T03000249 57002 IEM_DS3505
ZGOW,1999-09-19 04:00,ZGOW 190400Z AUTO 13004KT 7SM 30/26 A2974 RMK T03000260 IEM_DS3505
ZGOW,1999-09-19 05:00,ZGOW 190500Z AUTO 13006KT 7SM 31/28 A2971 RMK T03100280 IEM_DS3505
ZGOW,1999-09-19 06:00,ZGOW 190600Z AUTO 18006KT 7SM 31/25 A2968 RMK SLP055 T03090253 57023 IEM_DS3505
ZGOW,1999-09-19 07:00,ZGOW 190700Z AUTO 17006KT 7SM 31/27 A2968 RMK T03100270 IEM_DS3505
ZGOW,1999-09-19 08:00,ZGOW 190800Z AUTO 15008KT 7SM 30/26 A2968 RMK T03000260 IEM_DS3505
ZGOW,1999-09-19 09:00,ZGOW 190900Z AUTO 18006KT 11SM 29/25 A2971 RMK SLP060 T02930251 52005 IEM_DS3505
ZGOW,1999-09-19 10:00,ZGOW 191000Z AUTO 16006KT 7SM 28/26 A2971 RMK T02800260 IEM_DS3505
ZGOW,1999-09-19 11:00,ZGOW 191100Z AUTO 17006KT 7SM 28/26 A2974 RMK T02800260 IEM_DS3505
ZGOW,1999-09-19 12:00,ZGOW 191200Z AUTO 18004KT 9SM 28/25 A2977 RMK SLP079 T02800250 52019 IEM_DS3505
ZGOW,1999-09-19 13:00,ZGOW 191300Z AUTO 17004KT 7SM 27/26 A2977 RMK T02700260 IEM_DS3505
ZGOW,1999-09-19 15:00,ZGOW 191500Z AUTO 20002KT 9SM 27/25 RMK SLP086 T02720252 52007 IEM_DS3505
ZGOW,1999-09-19 18:00,ZGOW 191800Z AUTO 29002KT 6SM 27/26 RMK SLP074 T02690255 57012 IEM_DS3505
ZGOW,1999-09-19 21:00,ZGOW 192100Z AUTO 29002KT 4SM 26/25 A2974 RMK SLP072 T02610251 57002 IEM_DS3505
ZGOW,1999-09-19 22:00,ZGOW 192200Z AUTO 27002KT 1SM 26/26 A2974 RMK T02600260 IEM_DS3505
ZGOW,1999-09-19 23:00,ZGOW 192300Z AUTO 33002KT 1 1/4SM 26/26 A2974 RMK T02600260 IEM_DS3505
ZGOW,1999-09-20 00:00,ZGOW 200000Z AUTO 04002KT 4SM 27/26 A2977 RMK SLP080 T02730255 52008 IEM_DS3505
ZGOW,1999-09-20 01:00,ZGOW 200100Z AUTO 34004KT 3SM 28/26 A2977 RMK T02800260 IEM_DS3505
ZGOW,1999-09-20 02:00,ZGOW 200200Z AUTO 07004KT 4SM 30/27 A2977 RMK T03000270 IEM_DS3505
ZGOW,1999-09-20 03:00,ZGOW 200300Z AUTO 04004KT 6SM 31/25 A2977 RMK SLP086 T03080252 52006 IEM_DS3505
ZGOW,1999-09-20 04:00,ZGOW 200400Z AUTO 11006KT 7SM 30/27 A2977 RMK T03000270 IEM_DS3505
ZGOW,1999-09-20 05:00,ZGOW 200500Z AUTO 14004KT 7SM 30/27 A2974 RMK T03000270 IEM_DS3505
ZGOW,1999-09-20 06:00,ZGOW 200600Z AUTO 14006KT 6SM 30/25 A2971 RMK SLP063 T02990253 57023 IEM_DS3505
ZGOW,1999-09-20 07:00,ZGOW 200700Z AUTO 13008KT 6SM 31/27 A2968 RMK T03100270 IEM_DS3505
ZGOW,1999-09-20 08:00,ZGOW 200800Z AUTO 13008KT 7SM 30/26 A2971 RMK T03000260 IEM_DS3505
ZGOW,1999-09-20 09:00,ZGOW 200900Z AUTO 04004KT 6SM 30/24 RMK SLP065 T02970240 52002 IEM_DS3505
ZGOW,1999-09-20 10:00,ZGOW 201000Z AUTO 10002KT 7SM 28/25 A2974 RMK T02800250 IEM_DS3505
ZGOW,1999-09-20 11:00,ZGOW 201100Z AUTO 32004KT 3SM 27/25 A2974 RMK T02700250 IEM_DS3505
ZGOW,1999-09-20 12:00,ZGOW 201200Z AUTO 34006KT 3SM 26/25 A2977 RMK T02600250 IEM_DS3505
ZGOW,1999-09-20 13:00,ZGOW 201300Z AUTO 34006KT 2 1/2SM RMK IEM_DS3505
ZGOW,1999-09-20 14:00,ZGOW 201400Z AUTO 17004KT 3SM RMK IEM_DS3505
ZGOW,1999-09-20 15:00,ZGOW 201500Z AUTO 00000KT 5SM 25/24 RMK SLP094 T02510239 52003 IEM_DS3505
ZGOW,1999-09-20 18:00,ZGOW 201800Z AUTO 04004KT 4SM 25/24 RMK SLP088 T02530244 57006 IEM_DS3505
ZGOW,1999-09-20 21:00,ZGOW 202100Z AUTO 34002KT 5SM 25/24 A2977 RMK SLP082 T02500235 57006 IEM_DS3505
ZGOW,1999-09-20 22:00,ZGOW 202200Z AUTO 34004KT 7SM 24/24 A2977 RMK T02400240 IEM_DS3505
ZGOW,1999-09-20 23:00,ZGOW 202300Z AUTO 34004KT 7SM 25/24 A2977 RMK T02500240 IEM_DS3505
ZGOW,1999-09-21 00:00,ZGOW 210000Z AUTO 29006KT 9SM 26/23 A2980 RMK SLP093 T02620227 52011 IEM_DS3505
ZGOW,1999-09-21 01:00,ZGOW 210100Z AUTO 33008KT 7SM 27/24 A2980 RMK T02700240 IEM_DS3505
ZGOW,1999-09-21 02:00,ZGOW 210200Z AUTO 34008KT 7SM 28/24 A2980 RMK T02800240 IEM_DS3505
ZGOW,1999-09-21 03:00,ZGOW 210300Z AUTO 04006KT 11SM 29/23 A2980 RMK SLP097 T02890228 52004 IEM_DS3505
ZGOW,1999-09-21 04:00,ZGOW 210400Z AUTO 32008KT 7SM 29/24 A2980 RMK T02900240 IEM_DS3505
ZGOW,1999-09-21 05:00,ZGOW 210500Z AUTO 33008KT 7SM 29/24 A2977 RMK T02900240 IEM_DS3505
ZGOW,1999-09-21 06:00,ZGOW 210600Z AUTO 02006KT 14SM 30/22 A2974 RMK SLP078 T03000221 57019 IEM_DS3505
ZGOW,1999-09-21 07:00,ZGOW 210700Z AUTO 30008KT 7SM 31/24 A2974 RMK T03100240 IEM_DS3505
ZGOW,1999-09-21 08:00,ZGOW 210800Z AUTO 31008KT 7SM 31/24 A2974 RMK T03100240 IEM_DS3505
ZGOW,1999-09-21 09:00,ZGOW 210900Z AUTO 34006KT 12SM 30/20 A2974 RMK SLP072 T03030201 57006 IEM_DS3505
ZGOW,1999-09-21 10:00,ZGOW 211000Z AUTO 32008KT 7SM 28/22 A2974 RMK T02800220 IEM_DS3505
ZGOW,1999-09-21 11:00,ZGOW 211100Z AUTO 33008KT 7SM 27/21 A2977 RMK T02700210 IEM_DS3505
ZGOW,1999-09-21 12:00,ZGOW 211200Z AUTO 34006KT 11SM 26/19 A2977 RMK SLP089 T02650194 52017 IEM_DS3505
ZGOW,1999-09-21 15:00,ZGOW 211500Z AUTO 34006KT 11SM 25/18 RMK SLP096 T02500181 52007 IEM_DS3505
ZGOW,1999-09-21 18:00,ZGOW 211800Z AUTO 36006KT 11SM 24/17 RMK SLP090 T02380174 57006 IEM_DS3505
ZGOW,1999-09-21 21:00,ZGOW 212100Z AUTO 02002KT 11SM 23/17 A2977 RMK SLP087 T02340170 57003 IEM_DS3505
ZGOW,1999-09-21 22:00,ZGOW 212200Z AUTO 32006KT 4SM 22/18 A2980 RMK T02200180 IEM_DS3505
ZGOW,1999-09-21 23:00,ZGOW 212300Z AUTO 32006KT 5SM 22/19 A2980 RMK T02200190 IEM_DS3505
ZGOW,1999-09-22 00:00,ZGOW 220000Z AUTO 02006KT 9SM 23/17 A2983 RMK SLP101 T02300169 52014 IEM_DS3505
ZGOW,1999-09-22 01:00,ZGOW 220100Z AUTO 34008KT 4SM 24/19 A2983 RMK T02400190 IEM_DS3505
ZGOW,1999-09-22 02:00,ZGOW 220200Z AUTO 33010KT 5SM 25/19 A2983 RMK T02500190 IEM_DS3505
ZGOW,1999-09-22 03:00,ZGOW 220300Z AUTO 34006KT 9SM 27/18 A2983 RMK SLP103 T02700183 52002 IEM_DS3505
ZGOW,1999-09-22 04:00,ZGOW 220400Z AUTO 34006KT 5SM 28/21 A2980 RMK T02800210 IEM_DS3505
ZGOW,1999-09-22 05:00,ZGOW 220500Z AUTO 32008KT 6SM 29/21 A2977 RMK T02900210 IEM_DS3505
ZGOW,1999-09-22 06:00,ZGOW 220600Z AUTO 25008KT 11SM 29/17 A2974 RMK SLP080 T02900172 57023 IEM_DS3505
ZGOW,1999-09-22 07:00,ZGOW 220700Z AUTO 31006KT 7SM 29/20 A2974 RMK T02900200 IEM_DS3505
ZGOW,1999-09-22 08:00,ZGOW 220800Z AUTO 30006KT 7SM 29/21 A2974 RMK T02900210 IEM_DS3505
ZGOW,1999-09-22 09:00,ZGOW 220900Z AUTO 29008KT 9SM 29/18 A2974 RMK SLP074 T02890184 57006 IEM_DS3505
ZGOW,1999-09-22 10:00,ZGOW 221000Z AUTO 30006KT 7SM 27/20 A2974 RMK T02700200 IEM_DS3505
ZGOW,1999-09-22 11:00,ZGOW 221100Z AUTO 32004KT 26/20 A2977 RMK T02600200 IEM_DS3505
ZGOW,1999-09-22 12:00,ZGOW 221200Z AUTO 32002KT 7SM 26/19 A2980 RMK SLP093 T02600189 52019 IEM_DS3505
ZGOW,1999-09-22 13:00,ZGOW 221300Z AUTO 32006KT 3SM 24/20 A2980 RMK T02400200 IEM_DS3505
ZGOW,1999-09-22 15:00,ZGOW 221500Z AUTO 04004KT 7SM 25/17 RMK SLP103 T02470170 52010 IEM_DS3505
ZGOW,1999-09-22 18:00,ZGOW 221800Z AUTO 04004KT 7SM 23/16 RMK SLP103 T02340159 54000 IEM_DS3505
ZGOW,1999-09-22 21:00,ZGOW 222100Z AUTO 04004KT 7SM 22/16 RMK SLP101 T02180157 57002 IEM_DS3505
ZGOW,1999-09-22 22:00,ZGOW 222200Z AUTO 34006KT 4SM 21/17 A2983 RMK T02100170 IEM_DS3505
ZGOW,1999-09-22 23:00,ZGOW 222300Z AUTO 33006KT 4SM 21/17 A2983 RMK T02100170 IEM_DS3505
ZGOW,1999-09-23 00:00,ZGOW 230000Z AUTO 36004KT 12SM 24/16 A2985 RMK SLP117 T02360157 52016 IEM_DS3505
ZGOW,1999-09-23 01:00,ZGOW 230100Z AUTO 34008KT 6SM 24/18 A2985 RMK T02400180 IEM_DS3505
ZGOW,1999-09-23 02:00,ZGOW 230200Z AUTO 33008KT 6SM 26/19 A2985 RMK T02600190 IEM_DS3505
ZGOW,1999-09-23 03:00,ZGOW 230300Z AUTO 04006KT 11SM 28/17 A2985 RMK SLP116 T02750167 57001 IEM_DS3505
ZGOW,1999-09-23 04:00,ZGOW 230400Z AUTO 01004KT 6SM 28/18 A2985 RMK T02800180 IEM_DS3505
ZGOW,1999-09-23 05:00,ZGOW 230500Z AUTO 27002KT 6SM 29/18 A2980 RMK T02900180 IEM_DS3505
ZGOW,1999-09-23 06:00,ZGOW 230600Z AUTO 27004KT 9SM 29/18 A2980 RMK SLP091 T02910179 57025 IEM_DS3505
ZGOW,1999-09-23 07:00,ZGOW 230700Z AUTO 12006KT 6SM 29/18 A2977 RMK T02900180 IEM_DS3505
ZGOW,1999-09-23 08:00,ZGOW 230800Z AUTO 14006KT 6SM 28/19 A2977 RMK T02800190 IEM_DS3505
ZGOW,1999-09-23 09:00,ZGOW 230900Z AUTO 18006KT 8SM 28/18 A2980 RMK SLP090 T02810178 57001 IEM_DS3505
ZGOW,1999-09-23 10:00,ZGOW 231000Z AUTO 14006KT 26/20 A2980 RMK T02600200 IEM_DS3505
ZGOW,1999-09-23 11:00,ZGOW 231100Z AUTO 16004KT 4SM 25/20 A2983 RMK T02500200 IEM_DS3505
ZGOW,1999-09-23 12:00,ZGOW 231200Z AUTO 20004KT 7SM 26/19 A2985 RMK SLP113 T02550188 52023 IEM_DS3505
ZGOW,1999-09-23 13:00,ZGOW 231300Z AUTO 00000KT 4SM 24/20 A2985 RMK T02400200 IEM_DS3505
ZGOW,1999-09-23 14:00,ZGOW 231400Z AUTO 03002KT 4SM 23/21 A2985 RMK T02300210 IEM_DS3505
ZGOW,1999-09-23 15:00,ZGOW 231500Z AUTO 04004KT 6SM 24/20 RMK SLP120 T02410203 52007 IEM_DS3505
ZGOW,1999-09-23 18:00,ZGOW 231800Z AUTO 04002KT 5SM 23/20 RMK SLP120 T02300199 54000 IEM_DS3505
ZGOW,1999-09-23 21:00,ZGOW 232100Z AUTO 04004KT 6SM 22/16 RMK SLP116 T02170165 57004 IEM_DS3505
ZGOW,1999-09-23 22:00,ZGOW 232200Z AUTO 32004KT 2 1/2SM 20/18 A2988 RMK T02000180 IEM_DS3505
ZGOW,1999-09-23 23:00,ZGOW 232300Z AUTO 34004KT 3SM 21/18 A2988 RMK T02100180 IEM_DS3505
ZGOW,1999-09-24 00:00,ZGOW 240000Z AUTO 04006KT 9SM 22/16 RMK SLP130 T02230159 52014 IEM_DS3505
ZGOW,1999-09-24 01:00,ZGOW 240100Z AUTO 34004KT 4SM 24/20 A2991 RMK T02400200 IEM_DS3505
ZGOW,1999-09-24 02:00,ZGOW 240200Z AUTO 34004KT 26/20 A2991 RMK T02600200 IEM_DS3505
ZGOW,1999-09-24 03:00,ZGOW 240300Z AUTO 04006KT 9SM 28/18 A2991 RMK SLP134 T02790175 52004 IEM_DS3505
ZGOW,1999-09-24 04:00,ZGOW 240400Z AUTO 08012KT 6SM 28/19 A2991 RMK T02800190 IEM_DS3505
ZGOW,1999-09-24 05:00,ZGOW 240500Z AUTO 08010KT 6SM 29/21 A2988 RMK T02900210 IEM_DS3505
ZGOW,1999-09-24 06:00,ZGOW 240600Z AUTO 07006KT 11SM 30/18 A2988 RMK SLP118 T02950180 57016 IEM_DS3505
ZGOW,1999-09-24 07:00,ZGOW 240700Z AUTO 08010KT 6SM 28/21 A2985 RMK T02800210 IEM_DS3505
ZGOW,1999-09-24 08:00,ZGOW 240800Z AUTO 11008KT 6SM 28/21 A2983 RMK T02800210 IEM_DS3505
ZGOW,1999-09-24 09:00,ZGOW 240900Z AUTO 11006KT 9SM 27/20 A2985 RMK SLP112 T02730198 57006 IEM_DS3505
ZGOW,1999-09-24 10:00,ZGOW 241000Z AUTO 07004KT 6SM 26/21 A2985 RMK T02600210 IEM_DS3505
ZGOW,1999-09-24 11:00,ZGOW 241100Z AUTO 08006KT 3SM 25/22 A2988 RMK T02500220 IEM_DS3505
ZGOW,1999-09-24 12:00,ZGOW 241200Z AUTO 09006KT 7SM 26/20 A2988 RMK SLP121 T02630197 52009 IEM_DS3505
ZGOW,1999-09-24 13:00,ZGOW 241300Z AUTO 08010KT 4SM 26/21 A2991 RMK T02600210 IEM_DS3505
ZGOW,1999-09-24 14:00,ZGOW 241400Z AUTO 08010KT 4SM 26/21 A2991 RMK T02600210 IEM_DS3505
ZGOW,1999-09-24 15:00,ZGOW 241500Z AUTO 09006KT 8SM 26/20 A2991 RMK SLP133 T02610198 52012 IEM_DS3505
ZGOW,1999-09-24 16:00,ZGOW 241600Z AUTO 05010KT 3SM 25/22 A2991 RMK T02500220 IEM_DS3505
ZGOW,1999-09-24 17:00,ZGOW 241700Z AUTO 05008KT 3SM 25/22 A2988 RMK T02500220 IEM_DS3505
ZGOW,1999-09-24 18:00,ZGOW 241800Z AUTO 04006KT 6SM 25/20 A2985 RMK SLP116 T02510204 57017 IEM_DS3505
ZGOW,1999-09-24 19:00,ZGOW 241900Z AUTO 03006KT 3SM 24/22 A2985 RMK T02400220 IEM_DS3505
ZGOW,1999-09-24 20:00,ZGOW 242000Z AUTO 04008KT 2 1/2SM 23/21 A2985 RMK T02300210 IEM_DS3505
ZGOW,1999-09-24 21:00,ZGOW 242100Z AUTO 04006KT 6SM 24/20 A2985 RMK SLP115 T02420202 57001 IEM_DS3505
ZGOW,1999-09-24 22:00,ZGOW 242200Z AUTO 03008KT 3SM 23/21 A2985 RMK T02300210 IEM_DS3505
ZGOW,1999-09-24 23:00,ZGOW 242300Z AUTO 04008KT 3SM 23/21 A2988 RMK T02300210 IEM_DS3505
ZGOW,1999-09-25 00:00,ZGOW 250000Z AUTO 04008KT 6SM 23/20 A2991 RMK SLP132 T02310205 52017 IEM_DS3505
ZGOW,1999-09-25 01:00,ZGOW 250100Z AUTO 04010KT 4SM 23/21 A2991 RMK T02300210 IEM_DS3505
ZGOW,1999-09-25 02:00,ZGOW 250200Z AUTO 06016KT 7SM 25/20 A2991 RMK T02500200 IEM_DS3505
ZGOW,1999-09-25 03:00,ZGOW 250300Z AUTO 09012KT 9SM 26/19 A2991 RMK SLP138 T02560186 52006 IEM_DS3505
ZGOW,1999-09-25 04:00,ZGOW 250400Z AUTO 06019G29KT 7SM 25/20 A2991 RMK T02500200 IEM_DS3505
ZGOW,1999-09-25 05:00,ZGOW 250500Z AUTO 06017KT 7SM 25/20 A2988 RMK T02500200 IEM_DS3505
ZGOW,1999-09-25 06:00,ZGOW 250600Z AUTO 04012KT 7SM 25/18 A2988 RMK SLP122 T02530181 57016 IEM_DS3505
ZGOW,1999-09-25 07:00,ZGOW 250700Z AUTO 06016KT 3SM 23/20 A2985 RMK T02300200 IEM_DS3505
ZGOW,1999-09-25 08:00,ZGOW 250800Z AUTO 05012KT 2SM 22/20 A2985 RMK T02200200 IEM_DS3505
ZGOW,1999-09-25 09:00,ZGOW 250900Z AUTO 04006KT 4SM 22/20 A2985 RMK SLP118 T02160199 57004 IEM_DS3505
ZGOW,1999-09-25 10:00,ZGOW 251000Z AUTO 05012KT 1 1/2SM 21/20 A2988 RMK T02100200 IEM_DS3505
ZGOW,1999-09-25 11:00,ZGOW 251100Z AUTO 04014KT 2SM 20/20 A2988 RMK T02000200 IEM_DS3505
ZGOW,1999-09-25 12:00,ZGOW 251200Z AUTO 07012KT 4SM 21/19 A2988 RMK SLP126 T02080194 52008 IEM_DS3505
ZGOW,1999-09-25 13:00,ZGOW 251300Z AUTO 04008KT 4SM 21/20 RMK SLP130 T02070196 52009 IEM_DS3505
ZGOW,1999-09-25 14:00,ZGOW 251400Z AUTO 04008KT 4SM 21/20 RMK SLP133 T02080197 52010 IEM_DS3505
ZGOW,1999-09-25 15:00,ZGOW 251500Z AUTO 09008KT 4SM 21/19 RMK SLP132 T02080194 52006 IEM_DS3505
ZGOW,1999-09-25 16:00,ZGOW 251600Z AUTO 04004KT 5SM 21/19 RMK SLP132 T02090193 52002 IEM_DS3505
ZGOW,1999-09-25 17:00,ZGOW 251700Z AUTO 04004KT 5SM 21/19 RMK SLP123 T02080194 57010 IEM_DS3505
ZGOW,1999-09-25 18:00,ZGOW 251800Z AUTO 09006KT 4SM 21/19 RMK SLP117 T02130193 57015 IEM_DS3505
ZGOW,1999-09-25 19:00,ZGOW 251900Z AUTO 04006KT 4SM 22/19 RMK SLP112 T02160193 57020 IEM_DS3505
ZGOW,1999-09-25 20:00,ZGOW 252000Z AUTO 04006KT 4SM 22/19 RMK SLP110 T02160194 57013 IEM_DS3505
ZGOW,1999-09-25 21:00,ZGOW 252100Z AUTO 04006KT 4SM 22/20 A2985 RMK SLP109 T02200197 57008 IEM_DS3505
ZGOW,1999-09-25 22:00,ZGOW 252200Z AUTO 04008G27KT 4SM 22/20 A2985 RMK SLP112 T02170198 54000 IEM_DS3505
ZGOW,1999-09-25 23:00,ZGOW 252300Z AUTO 04006KT 3SM 21/20 A2988 RMK SLP121 T02130201 52011 IEM_DS3505
ZGOW,1999-09-26 00:00,ZGOW 260000Z AUTO 04008KT 3SM 22/20 A2991 RMK SLP129 T02150201 52020 IEM_DS3505
ZGOW,1999-09-26 01:00,ZGOW 260100Z AUTO 04006KT 2SM 22/21 A2994 RMK T02200210 IEM_DS3505
ZGOW,1999-09-26 02:00,ZGOW 260200Z AUTO 03010KT 2 1/2SM 22/21 A2994 RMK T02200210 IEM_DS3505
ZGOW,1999-09-26 03:00,ZGOW 260300Z AUTO 04006KT 4SM 23/21 A2994 RMK SLP149 T02280207 52020 IEM_DS3505
ZGOW,1999-09-26 04:00,ZGOW 260400Z AUTO 04008KT 2 1/2SM 23/22 A2991 RMK T02300220 IEM_DS3505
ZGOW,1999-09-26 05:00,ZGOW 260500Z AUTO 02006KT 2 1/2SM 24/23 A2988 RMK T02400230 IEM_DS3505
ZGOW,1999-09-26 06:00,ZGOW 260600Z AUTO 00000KT 4SM 24/22 A2988 RMK SLP128 T02420215 57021 IEM_DS3505
ZGOW,1999-09-26 07:00,ZGOW 260700Z AUTO 01004KT 2 1/2SM 24/23 A2988 RMK T02400230 IEM_DS3505
ZGOW,1999-09-26 08:00,ZGOW 260800Z AUTO 00000KT 2 1/2SM 24/23 A2988 RMK T02400230 IEM_DS3505
ZGOW,1999-09-26 09:00,ZGOW 260900Z AUTO 00000KT 4SM 26/22 A2988 RMK SLP123 T02580218 57005 IEM_DS3505
ZGOW,1999-09-26 10:00,ZGOW 261000Z AUTO 32002KT 2 1/2SM 24/23 A2988 RMK T02400230 IEM_DS3505
ZGOW,1999-09-26 11:00,ZGOW 261100Z AUTO 31002KT 2 1/2SM 24/23 A2988 RMK T02400230 IEM_DS3505
ZGOW,1999-09-26 12:00,ZGOW 261200Z AUTO 00000KT 3SM 24/22 A2988 RMK SLP129 T02360223 52006 IEM_DS3505
ZGOW,1999-09-26 13:00,ZGOW 261300Z AUTO 00000KT 1 1/2SM 23/23 A2991 RMK T02300230 IEM_DS3505
ZGOW,1999-09-26 14:00,ZGOW 261400Z AUTO 00000KT 1 1/2SM 24/23 A2991 RMK T02400230 IEM_DS3505
ZGOW,1999-09-26 15:00,ZGOW 261500Z AUTO 00000KT 2 1/2SM 24/23 RMK SLP136 T02380229 52007 IEM_DS3505
ZGOW,1999-09-26 18:00,ZGOW 261800Z AUTO 04004KT 2SM 23/22 RMK SLP131 T02320219 57005 IEM_DS3505
ZGOW,1999-09-26 21:00,ZGOW 262100Z AUTO 00000KT 1 1/4SM 23/22 A2988 RMK SLP128 T02270220 57003 IEM_DS3505
ZGOW,1999-09-26 22:00,ZGOW 262200Z AUTO 00000KT 1 1/4SM 23/22 A2991 RMK T02300220 IEM_DS3505
ZGOW,1999-09-26 23:00,ZGOW 262300Z AUTO 32004KT 1 1/2SM 23/23 A2991 RMK T02300230 IEM_DS3505
ZGOW,1999-09-27 00:00,ZGOW 270000Z AUTO 04004KT 5SM 26/23 A2991 RMK SLP140 T02550227 52012 IEM_DS3505
ZGOW,1999-09-27 01:00,ZGOW 270100Z AUTO 04010KT 6SM 27/24 A2994 RMK T02700240 IEM_DS3505
ZGOW,1999-09-27 02:00,ZGOW 270200Z AUTO 06010KT 6SM 29/25 A2994 RMK T02900250 IEM_DS3505
ZGOW,1999-09-27 03:00,ZGOW 270300Z AUTO 09010KT 11SM 30/23 A2994 RMK SLP138 T02960229 57002 IEM_DS3505
ZGOW,1999-09-27 04:00,ZGOW 270400Z AUTO 08016KT 7SM 30/25 A2991 RMK T03000250 IEM_DS3505
ZGOW,1999-09-27 05:00,ZGOW 270500Z AUTO 08014KT 7SM 31/26 A2988 RMK T03100260 IEM_DS3505
ZGOW,1999-09-27 06:00,ZGOW 270600Z AUTO 04010KT 14SM 31/24 A2988 RMK SLP118 T03080235 57020 IEM_DS3505
ZGOW,1999-09-27 07:00,ZGOW 270700Z AUTO 08012KT 6SM 30/26 A2985 RMK T03000260 IEM_DS3505
ZGOW,1999-09-27 08:00,ZGOW 270800Z AUTO 07012KT 6SM 30/25 A2985 RMK T03000250 IEM_DS3505
ZGOW,1999-09-27 09:00,ZGOW 270900Z AUTO 09008KT 16SM 29/23 A2985 RMK SLP118 T02940227 54000 IEM_DS3505
ZGOW,1999-09-27 10:00,ZGOW 271000Z AUTO 08010KT 7SM 27/24 A2988 RMK T02700240 IEM_DS3505
ZGOW,1999-09-27 11:00,ZGOW 271100Z AUTO 09012KT 6SM 26/24 A2988 RMK T02600240 IEM_DS3505
ZGOW,1999-09-27 12:00,ZGOW 271200Z AUTO 09004KT 9SM 27/24 A2991 RMK SLP137 T02700237 52019 IEM_DS3505
ZGOW,1999-09-27 13:00,ZGOW 271300Z AUTO 08012KT 6SM 27/25 A2994 RMK T02700250 IEM_DS3505
ZGOW,1999-09-27 15:00,ZGOW 271500Z AUTO 11006KT 9SM 27/24 A2997 RMK SLP150 T02670238 52013 IEM_DS3505
ZGOW,1999-09-27 16:00,ZGOW 271600Z AUTO 09012KT 2 1/2SM 26/25 A2997 RMK T02600250 IEM_DS3505
ZGOW,1999-09-27 17:00,ZGOW 271700Z AUTO 09010KT 2 1/2SM 26/25 A2997 RMK T02600250 IEM_DS3505
ZGOW,1999-09-27 18:00,ZGOW 271800Z AUTO 09008KT 9SM 26/24 A2994 RMK SLP145 T02640238 57005 IEM_DS3505
ZGOW,1999-09-27 19:00,ZGOW 271900Z AUTO 09010KT 3SM 26/25 A2994 RMK T02600250 IEM_DS3505
ZGOW,1999-09-27 21:00,ZGOW 272100Z AUTO 09008KT 9SM 26/24 RMK SLP139 T02620236 57006 IEM_DS3505
ZGOW,1999-09-27 22:00,ZGOW 272200Z AUTO 06010KT 6SM 26/24 A2994 RMK T02600240 IEM_DS3505
ZGOW,1999-09-27 23:00,ZGOW 272300Z AUTO 06012KT 6SM 26/24 A2994 RMK T02600240 IEM_DS3505
ZGOW,1999-09-28 00:00,ZGOW 280000Z AUTO 09008KT 16SM 28/23 A2997 RMK SLP158 T02810232 52019 IEM_DS3505
ZGOW,1999-09-28 01:00,ZGOW 280100Z AUTO 07012KT 6SM 29/25 A2997 RMK T02900250 IEM_DS3505
ZGOW,1999-09-28 02:00,ZGOW 280200Z AUTO 07012KT 7SM 30/25 A2997 RMK T03000250 IEM_DS3505
ZGOW,1999-09-28 03:00,ZGOW 280300Z AUTO 09010KT 19SM 31/23 A2997 RMK SLP158 T03090228 54000 IEM_DS3505
ZGOW,1999-09-28 04:00,ZGOW 280400Z AUTO 07012KT 7SM 31/25 A2997 RMK T03100250 IEM_DS3505
ZGOW,1999-09-28 05:00,ZGOW 280500Z AUTO 08012KT 7SM 32/25 A2994 RMK T03200250 IEM_DS3505
ZGOW,1999-09-28 06:00,ZGOW 280600Z AUTO 04008KT 19SM 32/23 A2991 RMK SLP135 T03180228 57023 IEM_DS3505
ZGOW,1999-09-28 07:00,ZGOW 280700Z AUTO 10008KT 7SM 32/25 A2991 RMK T03200250 IEM_DS3505
ZGOW,1999-09-28 08:00,ZGOW 280800Z AUTO 13006KT 7SM 31/26 A2991 RMK T03100260 IEM_DS3505
ZGOW,1999-09-28 09:00,ZGOW 280900Z AUTO 16004KT 19SM 30/24 A2991 RMK SLP128 T03020236 57007 IEM_DS3505
ZGOW,1999-09-28 10:00,ZGOW 281000Z AUTO 10006KT 7SM 27/25 A2991 RMK T02700250 IEM_DS3505
ZGOW,1999-09-28 11:00,ZGOW 281100Z AUTO 09008KT 6SM 27/24 A2994 RMK T02700240 IEM_DS3505
ZGOW,1999-09-28 12:00,ZGOW 281200Z AUTO 09004KT 12SM 28/23 A2994 RMK SLP146 T02790233 52018 IEM_DS3505
ZGOW,1999-09-28 15:00,ZGOW 281500Z AUTO 09004KT 11SM 27/24 RMK SLP152 T02730237 52006 IEM_DS3505
ZGOW,1999-09-28 18:00,ZGOW 281800Z AUTO 09004KT 10SM 27/24 RMK SLP138 T02680242 57014 IEM_DS3505
ZGOW,1999-09-28 21:00,ZGOW 282100Z AUTO 00000KT 9SM 25/23 A2991 RMK SLP131 T02520233 57007 IEM_DS3505
ZGOW,1999-09-28 22:00,ZGOW 282200Z AUTO 00000KT 6SM 24/24 A2991 RMK T02400240 IEM_DS3505
ZGOW,1999-09-28 23:00,ZGOW 282300Z AUTO 00000KT 6SM 25/24 A2991 RMK T02500240 IEM_DS3505
ZGOW,1999-09-29 00:00,ZGOW 290000Z AUTO 09002KT 9SM 28/24 A2994 RMK SLP145 T02750244 52014 IEM_DS3505
ZGOW,1999-09-29 01:00,ZGOW 290100Z AUTO 08004KT 7SM 29/25 A2994 RMK T02900250 IEM_DS3505
ZGOW,1999-09-29 02:00,ZGOW 290200Z AUTO 11004KT 7SM 30/25 A2994 RMK T03000250 IEM_DS3505
ZGOW,1999-09-29 03:00,ZGOW 290300Z AUTO 11004KT 11SM 30/23 A2994 RMK SLP139 T02960228 57006 IEM_DS3505
ZGOW,1999-09-29 04:00,ZGOW 290400Z AUTO 13006KT 7SM 30/25 A2991 RMK T03000250 IEM_DS3505
ZGOW,1999-09-29 05:00,ZGOW 290500Z AUTO 12010KT 7SM 30/23 A2991 RMK T03000230 IEM_DS3505
ZGOW,1999-09-29 07:00,ZGOW 290700Z AUTO 11010KT 7SM 29/24 A2988 RMK T02900240 IEM_DS3505
ZGOW,1999-09-29 08:00,ZGOW 290800Z AUTO 12010KT 6SM 28/23 A2988 RMK T02800230 IEM_DS3505
ZGOW,1999-09-29 09:00,ZGOW 290900Z AUTO 11008KT 11SM 28/22 A2988 RMK SLP125 T02810219 54000 IEM_DS3505
ZGOW,1999-09-29 10:00,ZGOW 291000Z AUTO 12006KT 6SM 26/24 A2988 RMK T02600240 IEM_DS3505
ZGOW,1999-09-29 11:00,ZGOW 291100Z AUTO 11004KT 7SM 25/23 A2991 RMK T02500230 IEM_DS3505
ZGOW,1999-09-29 12:00,ZGOW 291200Z AUTO 04006KT 9SM 26/22 A2991 RMK SLP135 T02640224 52010 IEM_DS3505
ZGOW,1999-09-29 13:00,ZGOW 291300Z AUTO 04004KT 6SM 24/23 A2994 RMK T02400230 IEM_DS3505
ZGOW,1999-09-29 15:00,ZGOW 291500Z AUTO 04002KT 9SM 25/23 RMK SLP147 T02530231 52012 IEM_DS3505
ZGOW,1999-09-29 18:00,ZGOW 291800Z AUTO 00000KT 6SM 24/23 RMK SLP140 T02440228 57007 IEM_DS3505
ZGOW,1999-09-29 21:00,ZGOW 292100Z AUTO 04002KT 5SM 24/22 RMK SLP129 T02380225 57011 IEM_DS3505
ZGOW,1999-09-29 22:00,ZGOW 292200Z AUTO 04004KT 3SM 22/22 A2991 RMK T02200220 IEM_DS3505
ZGOW,1999-09-29 23:00,ZGOW 292300Z AUTO 01002KT 5SM 23/22 A2991 RMK T02300220 IEM_DS3505
ZGOW,1999-09-30 00:00,ZGOW 300000Z AUTO 04004KT 4SM 26/23 A2994 RMK SLP145 T02580227 52016 IEM_DS3505
ZGOW,1999-09-30 01:00,ZGOW 300100Z AUTO 06004KT 6SM 27/23 A2994 RMK T02700230 IEM_DS3505
ZGOW,1999-09-30 02:00,ZGOW 300200Z AUTO 07004KT 6SM 28/22 A2994 RMK T02800220 IEM_DS3505
ZGOW,1999-09-30 03:00,ZGOW 300300Z AUTO 11006KT 11SM 30/21 A2994 RMK SLP139 T03020208 57006 IEM_DS3505
ZGOW,1999-09-30 04:00,ZGOW 300400Z AUTO 10006KT 6SM 30/23 A2991 RMK T03000230 IEM_DS3505
ZGOW,1999-09-30 05:00,ZGOW 300500Z AUTO 13006KT 6SM 30/22 A2988 RMK T03000220 IEM_DS3505
ZGOW,1999-09-30 06:00,ZGOW 300600Z AUTO 18008KT 12SM 30/21 A2988 RMK SLP119 T02960210 57020 IEM_DS3505
ZGOW,1999-09-30 07:00,ZGOW 300700Z AUTO 13010KT 6SM 29/24 A2985 RMK T02900240 IEM_DS3505
ZGOW,1999-09-30 08:00,ZGOW 300800Z AUTO 12012KT 6SM 28/24 A2985 RMK T02800240 IEM_DS3505
ZGOW,1999-09-30 09:00,ZGOW 300900Z AUTO 11010KT 10SM 28/22 A2985 RMK SLP115 T02800221 57004 IEM_DS3505
ZGOW,1999-09-30 10:00,ZGOW 301000Z AUTO 10008KT 4SM 27/23 A2985 RMK T02700230 IEM_DS3505
ZGOW,1999-09-30 11:00,ZGOW 301100Z AUTO 09004KT 4SM 26/23 A2988 RMK T02600230 IEM_DS3505
ZGOW,1999-09-30 12:00,ZGOW 301200Z AUTO 11006KT 8SM 27/22 A2991 RMK SLP135 T02720222 52020 IEM_DS3505
ZGOW,1999-09-30 13:00,ZGOW 301300Z AUTO 12002KT 6SM 26/23 A2994 RMK T02600230 IEM_DS3505
ZGOW,1999-09-30 14:00,ZGOW 301400Z AUTO 10006KT 6SM 26/23 A2994 RMK T02600230 IEM_DS3505
ZGOW,1999-09-30 18:00,ZGOW 301800Z AUTO 04002KT 7SM 26/23 RMK SLP131 T02570231 57011 IEM_DS3505
ZGOW,1999-09-30 21:00,ZGOW 302100Z AUTO 04002KT 5SM 25/23 RMK SLP121 T02480229 57010 IEM_DS3505
ZGOW,1999-09-30 22:00,ZGOW 302200Z AUTO 34002KT 2 1/2SM 24/23 A2988 RMK T02400230 IEM_DS3505
ZGOW,1999-09-30 23:00,ZGOW 302300Z AUTO 32006KT 2 1/2SM 24/24 A2991 RMK T02400240 IEM_DS3505
ZGOW,1999-10-01 00:00,ZGOW 010000Z AUTO 02002KT 6SM 27/23 A2991 RMK SLP137 T02660226 52016 IEM_DS3505
ZGOW,1999-10-01 01:00,ZGOW 010100Z AUTO 33002KT 3SM 28/24 A2991 RMK T02800240 IEM_DS3505
ZGOW,1999-10-01 02:00,ZGOW 010200Z AUTO 07006KT 7SM 30/24 A2994 RMK T03000240 IEM_DS3505
ZGOW,1999-10-01 03:00,ZGOW 010300Z AUTO 09008KT 7SM 30/22 A2991 RMK SLP137 T03020217 54000 IEM_DS3505
ZGOW,1999-10-01 04:00,ZGOW 010400Z AUTO 08012KT 7SM 31/23 A2991 RMK T03100230 IEM_DS3505
ZGOW,1999-10-01 05:00,ZGOW 010500Z AUTO 11008KT 7SM 31/25 A2988 RMK T03100250 IEM_DS3505
ZGOW,1999-10-01 06:00,ZGOW 010600Z AUTO 16004KT 9SM 31/23 A2985 RMK SLP117 T03090228 57020 IEM_DS3505
ZGOW,1999-10-01 07:00,ZGOW 010700Z AUTO 13010KT 6SM 30/25 A2985 RMK T03000250 IEM_DS3505
ZGOW,1999-10-01 08:00,ZGOW 010800Z AUTO 13010KT 6SM 29/25 A2985 RMK T02900250 IEM_DS3505
ZGOW,1999-10-01 09:00,ZGOW 010900Z AUTO 09006KT 8SM 30/23 A2985 RMK SLP116 T02950231 57001 IEM_DS3505
ZGOW,1999-10-01 10:00,ZGOW 011000Z AUTO 11008KT 4SM 27/25 A2985 RMK T02700250 IEM_DS3505
ZGOW,1999-10-01 11:00,ZGOW 011100Z AUTO 12006KT 5SM 27/25 A2988 RMK T02700250 IEM_DS3505
ZGOW,1999-10-01 12:00,ZGOW 011200Z AUTO 09004KT 7SM 27/24 A2991 RMK SLP132 T02720239 52016 IEM_DS3505
ZGOW,1999-10-01 13:00,ZGOW 011300Z AUTO 11006KT 4SM 26/25 A2991 RMK T02600250 IEM_DS3505
ZGOW,1999-10-01 15:00,ZGOW 011500Z AUTO 04004KT 9SM 27/24 RMK SLP139 T02690243 52007 IEM_DS3505
ZGOW,1999-10-01 18:00,ZGOW 011800Z AUTO 04004KT 9SM 26/24 RMK SLP128 T02640239 57011 IEM_DS3505
ZGOW,1999-10-01 21:00,ZGOW 012100Z AUTO 02002KT 6SM 25/24 A2988 RMK SLP124 T02520240 57004 IEM_DS3505
ZGOW,1999-10-01 22:00,ZGOW 012200Z AUTO 33002KT 2 1/2SM 24/24 A2991 RMK T02400240 IEM_DS3505
ZGOW,1999-10-01 23:00,ZGOW 012300Z AUTO 33002KT 2 1/2SM 25/24 A2991 RMK T02500240 IEM_DS3505
ZGOW,1999-10-02 00:00,ZGOW 020000Z AUTO 34004KT 11SM 28/24 A2991 RMK SLP139 T02780242 52015 IEM_DS3505
ZGOW,1999-10-02 01:00,ZGOW 020100Z AUTO 32006KT 7SM 28/25 A2994 RMK T02800250 IEM_DS3505
ZGOW,1999-10-02 02:00,ZGOW 020200Z AUTO 01006KT 7SM 30/24 A2991 RMK T03000240 IEM_DS3505
ZGOW,1999-10-02 03:00,ZGOW 020300Z AUTO 09006KT 19SM 31/23 A2991 RMK SLP138 T03120231 57001 IEM_DS3505
ZGOW,1999-10-02 04:00,ZGOW 020400Z AUTO 08006KT 7SM 32/24 A2988 RMK T03200240 IEM_DS3505
ZGOW,1999-10-02 05:00,ZGOW 020500Z AUTO 13008KT 7SM 31/24 A2988 RMK T03100240 IEM_DS3505
ZGOW,1999-10-02 06:00,ZGOW 020600Z AUTO 18008KT 17SM 31/22 A2985 RMK SLP114 T03090225 57024 IEM_DS3505
ZGOW,1999-10-02 07:00,ZGOW 020700Z AUTO 13010KT 6SM 30/25 A2985 RMK T03000250 IEM_DS3505
ZGOW,1999-10-02 08:00,ZGOW 020800Z AUTO 13012KT 6SM 29/24 A2983 RMK T02900240 IEM_DS3505
ZGOW,1999-10-02 09:00,ZGOW 020900Z AUTO 14008KT 16SM 29/23 A2985 RMK SLP111 T02890230 57003 IEM_DS3505
ZGOW,1999-10-02 10:00,ZGOW 021000Z AUTO 11006KT 6SM 27/25 A2985 RMK T02700250 IEM_DS3505
ZGOW,1999-10-02 11:00,ZGOW 021100Z AUTO 09004KT 6SM 27/25 A2988 RMK T02700250 IEM_DS3505
ZGOW,1999-10-02 12:00,ZGOW 021200Z AUTO 11006KT 11SM 28/23 A2991 RMK SLP130 T02760234 52019 IEM_DS3505
ZGOW,1999-10-02 13:00,ZGOW 021300Z AUTO 11004KT 6SM 27/25 A2991 RMK T02700250 IEM_DS3505
ZGOW,1999-10-02 14:00,ZGOW 021400Z AUTO 09004KT 7SM 26/25 A2994 RMK T02600250 IEM_DS3505
ZGOW,1999-10-02 15:00,ZGOW 021500Z AUTO 04004KT 9SM 27/24 RMK SLP144 T02700244 52014 IEM_DS3505
ZGOW,1999-10-02 18:00,ZGOW 021800Z AUTO 09004KT 7SM 26/24 RMK SLP130 T02650239 57014 IEM_DS3505
ZGOW,1999-10-02 21:00,ZGOW 022100Z AUTO 36002KT 6SM 26/24 RMK SLP131 T02550239 52001 IEM_DS3505
ZGOW,1999-10-02 22:00,ZGOW 022200Z AUTO 33002KT 3SM 25/24 A2991 RMK T02500240 IEM_DS3505
ZGOW,1999-10-02 23:00,ZGOW 022300Z AUTO 02004KT 3SM 26/24 A2994 RMK T02600240 IEM_DS3505
ZGOW,1999-10-03 00:00,ZGOW 030000Z AUTO 02002KT 6SM 26/24 A2997 RMK SLP154 T02640236 52023 IEM_DS3505
ZGOW,1999-10-03 01:00,ZGOW 030100Z AUTO 07008KT 7SM 26/25 A2997 RMK T02600250 IEM_DS3505
ZGOW,1999-10-03 02:00,ZGOW 030200Z AUTO 07014KT 7SM 26/24 A3000 RMK T02600240 IEM_DS3505
ZGOW,1999-10-03 03:00,ZGOW 030300Z AUTO 09010KT 6SM 27/23 A3000 RMK SLP160 T02690230 52006 IEM_DS3505
ZGOW,1999-10-03 04:00,ZGOW 030400Z AUTO 07016G25KT 7SM 29/24 A2997 RMK T02900240 IEM_DS3505
ZGOW,1999-10-03 05:00,ZGOW 030500Z AUTO 09014G23KT 7SM 28/24 A2994 RMK T02800240 IEM_DS3505
ZGOW,1999-10-03 06:00,ZGOW 030600Z AUTO 09010G27KT 10SM 29/22 A2991 RMK 60000 SLP135 T02870222 57025 IEM_DS3505
ZGOW,1999-10-03 07:00,ZGOW 030700Z AUTO 09017G27KT 7SM 28/24 A2991 RMK T02800240 IEM_DS3505
ZGOW,1999-10-03 08:00,ZGOW 030800Z AUTO 08017G27KT 7SM 27/23 A2991 RMK T02700230 IEM_DS3505
ZGOW,1999-10-03 09:00,ZGOW 030900Z AUTO 07010G27KT 11SM 27/22 A2994 RMK SLP144 T02720217 52009 IEM_DS3505
ZGOW,1999-10-03 10:00,ZGOW 031000Z AUTO 08019G29KT 6SM 26/22 A2997 RMK T02600220 IEM_DS3505
ZGOW,1999-10-03 11:00,ZGOW 031100Z AUTO 08017G31KT 7SM 25/22 A2997 RMK T02500220 IEM_DS3505
ZGOW,1999-10-03 12:00,ZGOW 031200Z AUTO 07012G27KT 14SM 26/20 A3000 RMK SLP164 T02570205 52020 IEM_DS3505
ZGOW,1999-10-03 13:00,ZGOW 031300Z AUTO 07016KT 7SM 25/21 A3003 RMK T02500210 IEM_DS3505
ZGOW,1999-10-03 14:00,ZGOW 031400Z AUTO 07016KT 7SM 25/21 A3003 RMK T02500210 IEM_DS3505
ZGOW,1999-10-03 15:00,ZGOW 031500Z AUTO 07010KT 12SM 25/20 A3003 RMK SLP176 T02520195 52012 IEM_DS3505
ZGOW,1999-10-03 18:00,ZGOW 031800Z AUTO 04006KT 9SM 24/19 RMK SLP164 T02450194 57012 IEM_DS3505
ZGOW,1999-10-03 21:00,ZGOW 032100Z AUTO 04006KT 9SM 24/18 A3000 RMK 70000 SLP160 T02430185 57004 IEM_DS3505
ZGOW,1999-10-03 22:00,ZGOW 032200Z AUTO 04008KT 7SM 24/19 A3000 RMK T02400190 IEM_DS3505
ZGOW,1999-10-03 23:00,ZGOW 032300Z AUTO 04008KT 7SM 24/20 A3000 RMK T02400200 IEM_DS3505
ZGOW,1999-10-04 00:00,ZGOW 040000Z AUTO 04008KT 11SM 25/19 A3003 RMK SLP171 T02540187 52011 IEM_DS3505
ZGOW,1999-10-04 01:00,ZGOW 040100Z AUTO 06014KT 7SM 26/20 A3003 RMK T02600200 IEM_DS3505
ZGOW,1999-10-04 02:00,ZGOW 040200Z AUTO 06012KT 7SM 26/20 A3003 RMK T02600200 IEM_DS3505
ZGOW,1999-10-04 03:00,ZGOW 040300Z AUTO 04012KT 16SM 27/17 A3003 RMK SLP172 T02710171 52001 IEM_DS3505
ZGOW,1999-10-04 04:00,ZGOW 040400Z AUTO 07014KT 7SM 28/20 A3000 RMK T02800200 IEM_DS3505
ZGOW,1999-10-04 05:00,ZGOW 040500Z AUTO 08010KT 6SM 28/20 A2997 RMK T02800200 IEM_DS3505
ZGOW,1999-10-04 06:00,ZGOW 040600Z AUTO 11008KT 16SM 28/18 A2994 RMK SLP148 T02780179 57024 IEM_DS3505
ZGOW,1999-10-04 07:00,ZGOW 040700Z AUTO 09012KT 6SM 27/20 A2994 RMK T02700200 IEM_DS3505
ZGOW,1999-10-04 08:00,ZGOW 040800Z AUTO 08010KT 6SM 27/21 A2991 RMK T02700210 IEM_DS3505
ZGOW,1999-10-04 09:00,ZGOW 040900Z AUTO 11004KT 11SM 27/18 A2994 RMK SLP139 T02700179 57009 IEM_DS3505
ZGOW,1999-10-04 10:00,ZGOW 041000Z AUTO 08006KT 4SM 25/20 A2994 RMK T02500200 IEM_DS3505
ZGOW,1999-10-04 11:00,ZGOW 041100Z AUTO 09006KT 4SM 25/21 A2997 RMK T02500210 IEM_DS3505
ZGOW,1999-10-04 12:00,ZGOW 041200Z AUTO 04008KT 9SM 26/19 A2997 RMK SLP156 T02570192 52017 IEM_DS3505
ZGOW,1999-10-04 14:00,ZGOW 041400Z AUTO 06010KT 4SM 25/20 A3000 RMK T02500200 IEM_DS3505
ZGOW,1999-10-04 15:00,ZGOW 041500Z AUTO 09008KT 9SM 25/18 RMK SLP162 T02520178 52006 IEM_DS3505
ZGOW,1999-10-04 18:00,ZGOW 041800Z AUTO 32002KT 7SM 24/19 RMK SLP139 T02390191 57023 IEM_DS3505
ZGOW,1999-10-04 21:00,ZGOW 042100Z AUTO 04004KT 6SM 24/20 RMK SLP132 T02380201 57007 IEM_DS3505
ZGOW,1999-10-04 22:00,ZGOW 042200Z AUTO 31004KT 2 1/2SM 23/22 A2991 RMK T02300220 IEM_DS3505
ZGOW,1999-10-04 23:00,ZGOW 042300Z AUTO 34002KT 2 1/2SM 24/21 A2991 RMK T02400210 IEM_DS3505
ZGOW,1999-10-05 00:00,ZGOW 050000Z AUTO 02004KT 4SM 25/21 A2994 RMK SLP142 T02500211 52010 IEM_DS3505
ZGOW,1999-10-05 01:00,ZGOW 050100Z AUTO 01002KT 7SM 26/22 A2994 RMK T02600220 IEM_DS3505
ZGOW,1999-10-05 02:00,ZGOW 050200Z AUTO 04010KT 7SM 27/21 A2997 RMK T02700210 IEM_DS3505
ZGOW,1999-10-05 03:00,ZGOW 050300Z AUTO 04008KT 7SM 28/18 A2994 RMK SLP147 T02800185 52005 IEM_DS3505
ZGOW,1999-10-05 04:00,ZGOW 050400Z AUTO 03012KT 6SM 28/21 A2991 RMK T02800210 IEM_DS3505
ZGOW,1999-10-05 05:00,ZGOW 050500Z AUTO 05010KT 7SM 28/21 A2988 RMK T02800210 IEM_DS3505
ZGOW,1999-10-05 06:00,ZGOW 050600Z AUTO 04010KT 19SM 29/19 A2988 RMK SLP119 T02880192 57028 IEM_DS3505
ZGOW,1999-10-05 07:00,ZGOW 050700Z AUTO 05008KT 7SM 28/21 A2985 RMK T02800210 IEM_DS3505
ZGOW,1999-10-05 08:00,ZGOW 050800Z AUTO 05006KT 7SM 28/21 A2985 RMK T02800210 IEM_DS3505
ZGOW,1999-10-05 09:00,ZGOW 050900Z AUTO 04006KT 12SM 28/20 A2985 RMK SLP115 T02820200 57004 IEM_DS3505
ZGOW,1999-10-05 10:00,ZGOW 051000Z AUTO 04006KT 27/21 A2985 RMK T02700210 IEM_DS3505
ZGOW,1999-10-05 11:00,ZGOW 051100Z AUTO 09004KT 4SM 26/22 A2988 RMK T02600220 IEM_DS3505
ZGOW,1999-10-05 12:00,ZGOW 051200Z AUTO 04002KT 9SM 26/21 A2988 RMK SLP122 T02650209 52007 IEM_DS3505
ZGOW,1999-10-05 13:00,ZGOW 051300Z AUTO 07004KT 4SM 25/22 A2988 RMK T02500220 IEM_DS3505
ZGOW,1999-10-05 14:00,ZGOW 051400Z AUTO 07002KT 4SM 25/22 A2988 RMK T02500220 IEM_DS3505
ZGOW,1999-10-05 15:00,ZGOW 051500Z AUTO 04004KT 9SM 26/21 A2988 RMK SLP129 T02600207 52007 IEM_DS3505
ZGOW,1999-10-05 18:00,ZGOW 051800Z AUTO 00000KT 9SM 25/21 RMK SLP110 T02520210 57019 IEM_DS3505
ZGOW,1999-10-05 21:00,ZGOW 052100Z AUTO 00000KT 8SM 24/21 A2983 RMK SLP107 T02440206 57003 IEM_DS3505
ZGOW,1999-10-05 22:00,ZGOW 052200Z AUTO 32004KT 4SM 23/21 A2985 RMK T02300210 IEM_DS3505
ZGOW,1999-10-05 23:00,ZGOW 052300Z AUTO 34004KT 4SM 24/21 A2985 RMK T02400210 IEM_DS3505
ZGOW,1999-10-06 00:00,ZGOW 060000Z AUTO 04004KT 9SM 25/20 RMK SLP120 T02510196 52013 IEM_DS3505
ZGOW,1999-10-06 01:00,ZGOW 060100Z AUTO 34006KT 4SM 27/22 A2988 RMK T02700220 IEM_DS3505
ZGOW,1999-10-06 02:00,ZGOW 060200Z AUTO 34006KT 6SM 28/22 A2985 RMK T02800220 IEM_DS3505
ZGOW,1999-10-06 03:00,ZGOW 060300Z AUTO 36004KT 9SM 29/20 A2985 RMK SLP113 T02920203 57007 IEM_DS3505
ZGOW,1999-10-06 04:00,ZGOW 060400Z AUTO 01006KT 6SM 30/23 A2983 RMK T03000230 IEM_DS3505
ZGOW,1999-10-06 05:00,ZGOW 060500Z AUTO 05006KT 6SM 31/23 A2980 RMK T03100230 IEM_DS3505
ZGOW,1999-10-06 06:00,ZGOW 060600Z AUTO 11004KT 9SM 31/22 A2980 RMK SLP094 T03120217 57019 IEM_DS3505
ZGOW,1999-10-06 07:00,ZGOW 060700Z AUTO 13008KT 7SM 29/25 A2980 RMK T02900250 IEM_DS3505
ZGOW,1999-10-06 08:00,ZGOW 060800Z AUTO 12010KT 7SM 29/25 A2980 RMK T02900250 IEM_DS3505
ZGOW,1999-10-06 09:00,ZGOW 060900Z AUTO 11008KT 9SM 28/23 A2980 RMK SLP093 T02760228 57001 IEM_DS3505
ZGOW,1999-10-06 10:00,ZGOW 061000Z AUTO 09004KT 7SM 27/24 A2980 RMK T02700240 IEM_DS3505
ZGOW,1999-10-06 11:00,ZGOW 061100Z AUTO 04010KT 7SM 26/24 A2980 RMK T02600240 IEM_DS3505
ZGOW,1999-10-06 12:00,ZGOW 061200Z AUTO 04008KT 7SM 27/23 A2983 RMK SLP100 T02700228 52007 IEM_DS3505
ZGOW,1999-10-06 13:00,ZGOW 061300Z AUTO 03008KT 6SM 25/24 A2983 RMK T02500240 IEM_DS3505
ZGOW,1999-10-06 15:00,ZGOW 061500Z AUTO 36004KT 7SM 26/23 A2980 RMK SLP096 T02560230 57004 IEM_DS3505
ZGOW,1999-10-06 18:00,ZGOW 061800Z AUTO 04002KT 6SM 25/23 RMK SLP081 T02490228 57015 IEM_DS3505
ZGOW,1999-10-06 21:00,ZGOW 062100Z AUTO 02004KT 6SM 25/22 RMK SLP069 T02460215 57012 IEM_DS3505
ZGOW,1999-10-06 22:00,ZGOW 062200Z AUTO 34006KT 3SM 24/22 A2974 RMK T02400220 IEM_DS3505
ZGOW,1999-10-06 23:00,ZGOW 062300Z AUTO 34006KT 3SM 24/22 A2974 RMK T02400220 IEM_DS3505
ZGOW,1999-10-07 00:00,ZGOW 070000Z AUTO 04008KT 7SM 26/21 A2977 RMK SLP076 T02550210 52007 IEM_DS3505
ZGOW,1999-10-07 01:00,ZGOW 070100Z AUTO 03012KT 6SM 26/22 A2977 RMK T02600220 IEM_DS3505
ZGOW,1999-10-07 02:00,ZGOW 070200Z AUTO 01008KT 6SM 27/22 A2977 RMK T02700220 IEM_DS3505
ZGOW,1999-10-07 03:00,ZGOW 070300Z AUTO 09006KT 7SM 28/21 A2977 RMK SLP081 T02820212 52005 IEM_DS3505
ZGOW,1999-10-07 04:00,ZGOW 070400Z AUTO 03008KT 6SM 28/23 A2974 RMK T02800230 IEM_DS3505
ZGOW,1999-10-07 05:00,ZGOW 070500Z AUTO 07008KT 6SM 28/24 A2971 RMK T02800240 IEM_DS3505
ZGOW,1999-10-07 06:00,ZGOW 070600Z AUTO 09010KT 7SM 29/22 A2968 RMK 60003 SLP055 T02870219 57026 IEM_DS3505
ZGOW,1999-10-07 07:00,ZGOW 070700Z AUTO 04012KT 6SM 29/24 A2965 RMK T02900240 IEM_DS3505
ZGOW,1999-10-07 08:00,ZGOW 070800Z AUTO 03010KT 6SM 29/23 A2962 RMK T02900230 IEM_DS3505
ZGOW,1999-10-07 09:00,ZGOW 070900Z AUTO 09006KT 7SM 29/22 A2962 RMK SLP039 T02920225 57016 IEM_DS3505
ZGOW,1999-10-07 10:00,ZGOW 071000Z AUTO 07008KT 3SM 28/24 A2965 RMK T02800240 IEM_DS3505
ZGOW,1999-10-07 11:00,ZGOW 071100Z AUTO 06008KT 3SM 27/23 A2965 RMK T02700230 IEM_DS3505
ZGOW,1999-10-07 12:00,ZGOW 071200Z AUTO 09006KT 7SM 28/22 A2965 RMK 60003 SLP046 T02810221 52007 IEM_DS3505
ZGOW,1999-10-07 13:00,ZGOW 071300Z AUTO 07008KT 4SM 27/23 A2965 RMK T02700230 IEM_DS3505
ZGOW,1999-10-07 15:00,ZGOW 071500Z AUTO 09006KT 7SM 27/22 A2965 RMK SLP047 T02720225 52001 IEM_DS3505
ZGOW,1999-10-07 17:00,ZGOW 071700Z AUTO 36010KT 3SM 27/23 A2959 RMK T02700230 IEM_DS3505
ZGOW,1999-10-07 18:00,ZGOW 071800Z AUTO 04002KT 6SM 26/22 A2959 RMK 60003 SLP025 T02590221 57022 IEM_DS3505
ZGOW,1999-10-07 19:00,ZGOW 071900Z AUTO 02010KT 4SM 27/22 A2959 RMK T02700220 IEM_DS3505
ZGOW,1999-10-07 21:00,ZGOW 072100Z AUTO 04006KT 6SM 26/21 RMK 70003 SLP030 T02620210 52005 IEM_DS3505
ZGOW,1999-10-07 22:00,ZGOW 072200Z AUTO 01010KT 3SM 26/22 A2962 RMK T02600220 IEM_DS3505
ZGOW,1999-10-07 23:00,ZGOW 072300Z AUTO 36012KT 7SM 27/21 A2962 RMK T02700210 IEM_DS3505
ZGOW,1999-10-08 00:00,ZGOW 080000Z AUTO 36006KT 9SM 26/21 A2962 RMK 60003 SLP038 T02580208 52008 IEM_DS3505
ZGOW,1999-10-08 01:00,ZGOW 080100Z AUTO 35008KT 7SM 27/22 A2962 RMK T02700220 IEM_DS3505
ZGOW,1999-10-08 02:00,ZGOW 080200Z AUTO 36014G25KT 7SM 28/21 A2962 RMK T02800210 IEM_DS3505
ZGOW,1999-10-08 03:00,ZGOW 080300Z AUTO 02006G25KT 10SM 26/22 A2962 RMK SLP035 T02650216 57003 IEM_DS3505
ZGOW,1999-10-08 04:00,ZGOW 080400Z AUTO 01012KT 7SM 26/22 A2962 RMK T02600220 IEM_DS3505
ZGOW,1999-10-08 05:00,ZGOW 080500Z AUTO 36012G21KT 7SM 26/22 A2959 RMK T02600220 IEM_DS3505
ZGOW,1999-10-08 06:00,ZGOW 080600Z AUTO 36006G25KT 10SM 27/21 A2956 RMK 60003 SLP013 T02670213 57022 IEM_DS3505
ZGOW,1999-10-08 07:00,ZGOW 080700Z AUTO 35016G25KT 7SM 28/22 A2953 RMK T02800220 IEM_DS3505
ZGOW,1999-10-08 08:00,ZGOW 080800Z AUTO 36014KT 7SM 29/22 A2953 RMK T02900220 IEM_DS3505
ZGOW,1999-10-08 09:00,ZGOW 080900Z AUTO 36006G21KT 11SM 28/21 A2953 RMK SLP007 T02810210 57006 IEM_DS3505
ZGOW,1999-10-08 10:00,ZGOW 081000Z AUTO 32008KT 7SM 26/23 A2956 RMK T02600230 IEM_DS3505
ZGOW,1999-10-08 11:00,ZGOW 081100Z AUTO 36006KT 7SM 26/23 A2959 RMK T02600230 IEM_DS3505
ZGOW,1999-10-08 12:00,ZGOW 081200Z AUTO 04004KT 7SM 26/22 A2959 RMK 60004 SLP026 T02610218 52019 IEM_DS3505
ZGOW,1999-10-08 13:00,ZGOW 081300Z AUTO 04004KT 7SM 27/21 A2959 RMK SLP029 T02680213 52019 IEM_DS3505
ZGOW,1999-10-08 14:00,ZGOW 081400Z AUTO 32006KT 10SM 28/20 A2959 RMK SLP028 T02780203 52005 IEM_DS3505
ZGOW,1999-10-08 15:00,ZGOW 081500Z AUTO 29010KT 10SM 28/20 RMK SLP021 T02750201 57005 IEM_DS3505
ZGOW,1999-10-08 16:00,ZGOW 081600Z AUTO 29006KT 10SM 26/21 RMK SLP020 T02640209 57009 IEM_DS3505
ZGOW,1999-10-08 17:00,ZGOW 081700Z AUTO 29008KT 7SM 27/20 RMK SLP021 T02680201 57007 IEM_DS3505
ZGOW,1999-10-08 18:00,ZGOW 081800Z AUTO 27008KT 8SM 26/20 RMK 60001 SLP019 T02650200 57002 IEM_DS3505
ZGOW,1999-10-08 19:00,ZGOW 081900Z AUTO 29014KT 9SM 26/21 RMK SLP016 T02550207 57004 IEM_DS3505
ZGOW,1999-10-08 20:00,ZGOW 082000Z AUTO 29017KT 7SM 24/21 RMK SLP013 T02410211 57008 IEM_DS3505
ZGOW,1999-10-08 21:00,ZGOW 082100Z AUTO 29017KT 7SM 24/21 A2953 RMK 70012 SLP017 T02380209 57002 IEM_DS3505
ZGOW,1999-10-08 22:00,ZGOW 082200Z AUTO 27012KT 7SM 24/21 A2956 RMK SLP024 T02420209 52008 IEM_DS3505
ZGOW,1999-10-08 23:00,ZGOW 082300Z AUTO 29016KT 6SM 24/21 RMK SLP034 T02430210 52021 IEM_DS3505
ZGOW,1999-10-09 00:00,ZGOW 090000Z AUTO 27014KT 6SM 24/21 A2965 RMK 60004 SLP045 T02420210 52028 IEM_DS3505
ZGOW,1999-10-09 01:00,ZGOW 090100Z AUTO 26016G25KT 4SM 25/22 A2965 RMK T02500220 IEM_DS3505
ZGOW,1999-10-09 02:00,ZGOW 090200Z AUTO 24012KT 7SM 25/22 A2965 RMK T02500220 IEM_DS3505
ZGOW,1999-10-09 03:00,ZGOW 090300Z AUTO 27012KT 9SM 26/20 A2968 RMK SLP055 T02640205 52010 IEM_DS3505
ZGOW,1999-10-09 05:00,ZGOW 090500Z AUTO 25010KT 7SM 27/23 A2965 RMK T02700230 IEM_DS3505
ZGOW,1999-10-09 06:00,ZGOW 090600Z AUTO 27010KT 9SM 28/22 A2965 RMK 60003 SLP046 T02840218 57009 IEM_DS3505
ZGOW,1999-10-09 07:00,ZGOW 090700Z AUTO 26008KT 6SM 31/24 A2965 RMK T03100240 IEM_DS3505
ZGOW,1999-10-09 08:00,ZGOW 090800Z AUTO 15004KT 7SM 30/25 A2968 RMK T03000250 IEM_DS3505
ZGOW,1999-10-09 09:00,ZGOW 090900Z AUTO 27008KT 9SM 31/24 A2968 RMK SLP059 T03060239 52013 IEM_DS3505
ZGOW,1999-10-09 11:00,ZGOW 091100Z AUTO 20008KT 3SM 27/24 A2974 RMK T02700240 IEM_DS3505
ZGOW,1999-10-09 13:00,ZGOW 091300Z AUTO 20006KT 1 1/2SM 26/25 A2980 RMK T02600250 IEM_DS3505
ZGOW,1999-10-09 14:00,ZGOW 091400Z AUTO 23008KT 2SM 26/24 A2980 RMK T02600240 IEM_DS3505
ZGOW,1999-10-09 15:00,ZGOW 091500Z AUTO 32006KT 6SM 26/24 RMK SLP102 T02610236 52021 IEM_DS3505
ZGOW,1999-10-09 18:00,ZGOW 091800Z AUTO 27004KT 4SM 25/24 RMK SLP104 T02540238 52002 IEM_DS3505
ZGOW,1999-10-09 21:00,ZGOW 092100Z AUTO 32002KT 2 1/2SM 25/24 A2983 RMK 70002 SLP108 T02460236 52004 IEM_DS3505
ZGOW,1999-10-09 22:00,ZGOW 092200Z AUTO 00000KT 1/2SM 23/23 A2985 RMK T02300230 IEM_DS3505
ZGOW,1999-10-09 23:00,ZGOW 092300Z AUTO 00000KT 1/2SM 23/23 A2988 RMK T02300230 IEM_DS3505
ZGOW,1999-10-10 00:00,ZGOW 100000Z AUTO 27002KT 5SM 27/23 A2991 RMK SLP131 T02670227 52023 IEM_DS3505
ZGOW,1999-10-10 01:00,ZGOW 100100Z AUTO 36002KT 3SM 28/24 A2991 RMK T02800240 IEM_DS3505
ZGOW,1999-10-10 02:00,ZGOW 100200Z AUTO 31002KT 3SM 29/23 A2994 RMK T02900230 IEM_DS3505
ZGOW,1999-10-10 03:00,ZGOW 100300Z AUTO 27006KT 5SM 30/23 A2991 RMK SLP136 T03000226 52005 IEM_DS3505
ZGOW,1999-10-10 04:00,ZGOW 100400Z AUTO 18006KT 2 1/2SM 30/25 A2991 RMK T03000250 IEM_DS3505
ZGOW,1999-10-10 05:00,ZGOW 100500Z AUTO 17004KT 3SM 32/25 A2988 RMK T03200250 IEM_DS3505
ZGOW,1999-10-10 06:00,ZGOW 100600Z AUTO 18006KT 5SM 31/24 A2985 RMK SLP113 T03090244 57023 IEM_DS3505
ZGOW,1999-10-10 07:00,ZGOW 100700Z AUTO 17010KT 3SM 31/26 A2985 RMK T03100260 IEM_DS3505
ZGOW,1999-10-10 08:00,ZGOW 100800Z AUTO 19010KT 3SM 30/25 A2983 RMK T03000250 IEM_DS3505
ZGOW,1999-10-10 09:00,ZGOW 100900Z AUTO 18006KT 4SM 29/24 A2985 RMK SLP112 T02920245 57001 IEM_DS3505
ZGOW,1999-10-10 10:00,ZGOW 101000Z AUTO 19006KT 2 1/2SM 28/25 A2985 RMK T02800250 IEM_DS3505
ZGOW,1999-10-10 11:00,ZGOW 101100Z AUTO 19006KT 2 1/2SM 27/25 A2985 RMK T02700250 IEM_DS3505
ZGOW,1999-10-10 12:00,ZGOW 101200Z AUTO 18002KT 3SM 27/24 A2988 RMK SLP125 T02710241 52013 IEM_DS3505
ZGOW,1999-10-10 15:00,ZGOW 101500Z AUTO 18002KT 3SM 27/24 A2991 RMK SLP139 T02660243 52014 IEM_DS3505
ZGOW,1999-10-10 18:00,ZGOW 101800Z AUTO 18002KT 2 1/2SM 26/24 RMK SLP134 T02600244 57005 IEM_DS3505
ZGOW,1999-10-10 21:00,ZGOW 102100Z AUTO 02002KT 1 1/4SM 25/25 A2991 RMK SLP133 T02530246 57001 IEM_DS3505
ZGOW,1999-10-11 00:00,ZGOW 110000Z AUTO 04006KT 1SM 26/25 RMK SLP145 T02630247 52012 IEM_DS3505
ZGOW,1999-10-11 01:00,ZGOW 110100Z AUTO 08002KT 2SM 27/26 A2994 RMK T02700260 IEM_DS3505
ZGOW,1999-10-11 02:00,ZGOW 110200Z AUTO 07004KT 2 1/2SM 29/26 A2994 RMK T02900260 IEM_DS3505
ZGOW,1999-10-11 03:00,ZGOW 110300Z AUTO 04006KT 4SM 30/24 A2994 RMK SLP145 T02950239 54000 IEM_DS3505
ZGOW,1999-10-11 04:00,ZGOW 110400Z AUTO 08008KT 3SM 30/26 A2994 RMK T03000260 IEM_DS3505
ZGOW,1999-10-11 05:00,ZGOW 110500Z AUTO 14006KT 3SM 30/26 A2991 RMK T03000260 IEM_DS3505
ZGOW,1999-10-11 06:00,ZGOW 110600Z AUTO 14006KT 4SM 30/25 A2988 RMK SLP125 T02960246 57020 IEM_DS3505
ZGOW,1999-10-11 07:00,ZGOW 110700Z AUTO 13010KT 3SM 29/26 A2988 RMK T02900260 IEM_DS3505
ZGOW,1999-10-11 08:00,ZGOW 110800Z AUTO 12010KT 3SM 28/25 A2988 RMK T02800250 IEM_DS3505
ZGOW,1999-10-11 09:00,ZGOW 110900Z AUTO 09004KT 4SM 28/24 A2988 RMK SLP119 T02820237 57006 IEM_DS3505
ZGOW,1999-10-11 10:00,ZGOW 111000Z AUTO 12004KT 2SM 26/25 A2988 RMK T02600250 IEM_DS3505
ZGOW,1999-10-11 11:00,ZGOW 111100Z AUTO 11006KT 2SM 26/25 A2991 RMK T02600250 IEM_DS3505
ZGOW,1999-10-11 12:00,ZGOW 111200Z AUTO 09004KT 4SM 27/24 A2994 RMK SLP145 T02660242 52026 IEM_DS3505
ZGOW,1999-10-11 13:00,ZGOW 111300Z AUTO 08004KT 2SM 25/25 A2997 RMK T02500250 IEM_DS3505
ZGOW,1999-10-11 14:00,ZGOW 111400Z AUTO 09006KT 2SM 25/25 A2997 RMK T02500250 IEM_DS3505
ZGOW,1999-10-11 15:00,ZGOW 111500Z AUTO 09006KT 3SM 26/23 A3000 RMK SLP160 T02610232 52015 IEM_DS3505
ZGOW,1999-10-11 18:00,ZGOW 111800Z AUTO 04006KT 6SM 26/23 RMK SLP156 T02560231 57004 IEM_DS3505
ZGOW,1999-10-11 21:00,ZGOW 112100Z AUTO 09008KT 5SM 26/23 A2997 RMK SLP154 T02560227 57002 IEM_DS3505
ZGOW,1999-10-11 22:00,ZGOW 112200Z AUTO 08008KT 6SM 25/23 A3000 RMK T02500230 IEM_DS3505
ZGOW,1999-10-11 23:00,ZGOW 112300Z AUTO 04006KT 7SM 25/23 A3000 RMK T02500230 IEM_DS3505
ZGOW,1999-10-12 00:00,ZGOW 120000Z AUTO 09008KT 11SM 27/22 A3003 RMK SLP171 T02670215 52017 IEM_DS3505
ZGOW,1999-10-12 01:00,ZGOW 120100Z AUTO 08014KT 6SM 27/23 A3003 RMK T02700230 IEM_DS3505
ZGOW,1999-10-12 02:00,ZGOW 120200Z AUTO 07010KT 6SM 29/23 A3003 RMK T02900230 IEM_DS3505
ZGOW,1999-10-12 03:00,ZGOW 120300Z AUTO 11010KT 10SM 29/21 A3003 RMK SLP170 T02900211 57001 IEM_DS3505
ZGOW,1999-10-12 04:00,ZGOW 120400Z AUTO 09010KT 6SM 29/24 A3000 RMK T02900240 IEM_DS3505
ZGOW,1999-10-12 05:00,ZGOW 120500Z AUTO 09008KT 6SM 30/23 A2997 RMK T03000230 IEM_DS3505
ZGOW,1999-10-12 06:00,ZGOW 120600Z AUTO 14004KT 9SM 30/22 A2994 RMK SLP141 T03000216 57029 IEM_DS3505
ZGOW,1999-10-12 07:00,ZGOW 120700Z AUTO 11006KT 6SM 30/25 A2991 RMK T03000250 IEM_DS3505
ZGOW,1999-10-12 08:00,ZGOW 120800Z AUTO 10006KT 6SM 29/24 A2991 RMK T02900240 IEM_DS3505
ZGOW,1999-10-12 09:00,ZGOW 120900Z AUTO 11004KT 8SM 29/23 A2994 RMK SLP137 T02870229 57004 IEM_DS3505
ZGOW,1999-10-12 10:00,ZGOW 121000Z AUTO 12006KT 3SM 26/24 A2994 RMK T02600240 IEM_DS3505
ZGOW,1999-10-12 12:00,ZGOW 121200Z AUTO 04004KT 4SM 26/23 A2997 RMK SLP153 T02650227 52016 IEM_DS3505
ZGOW,1999-10-12 13:00,ZGOW 121300Z AUTO 09006KT 5SM 25/24 A3000 RMK T02500240 IEM_DS3505
ZGOW,1999-10-12 15:00,ZGOW 121500Z AUTO 09004KT 6SM 26/22 RMK SLP167 T02590225 52014 IEM_DS3505
ZGOW,1999-10-12 18:00,ZGOW 121800Z AUTO 09004KT 6SM 25/21 RMK SLP160 T02530212 57007 IEM_DS3505
ZGOW,1999-10-12 21:00,ZGOW 122100Z AUTO 00000KT 6SM 24/22 A2997 RMK SLP158 T02430222 57002 IEM_DS3505
ZGOW,1999-10-12 22:00,ZGOW 122200Z AUTO 32002KT 2 1/2SM 23/23 A2997 RMK T02300230 IEM_DS3505
ZGOW,1999-10-12 23:00,ZGOW 122300Z AUTO 35002KT 2 1/2SM 24/23 A3000 RMK T02400230 IEM_DS3505
ZGOW,1999-10-13 00:00,ZGOW 130000Z AUTO 36004KT 7SM 27/23 A3000 RMK SLP166 T02670231 52008 IEM_DS3505
ZGOW,1999-10-13 01:00,ZGOW 130100Z AUTO 29002KT 4SM 28/24 A3003 RMK T02800240 IEM_DS3505
ZGOW,1999-10-13 02:00,ZGOW 130200Z AUTO 07006KT 7SM 29/23 A3003 RMK T02900230 IEM_DS3505
ZGOW,1999-10-13 03:00,ZGOW 130300Z AUTO 09006KT 7SM 30/22 A3003 RMK SLP168 T02990216 52002 IEM_DS3505
ZGOW,1999-10-13 04:00,ZGOW 130400Z AUTO 08010KT 6SM 31/23 A2997 RMK T03100230 IEM_DS3505
ZGOW,1999-10-13 05:00,ZGOW 130500Z AUTO 09010KT 6SM 30/24 A2997 RMK T03000240 IEM_DS3505
ZGOW,1999-10-13 06:00,ZGOW 130600Z AUTO 16006KT 9SM 31/23 RMK SLP144 T03060228 57024 IEM_DS3505
ZGOW,1999-10-13 07:00,ZGOW 130700Z AUTO 13008KT 6SM 30/25 A2994 RMK T03000250 IEM_DS3505
ZGOW,1999-10-13 08:00,ZGOW 130800Z AUTO 15010KT 6SM 29/25 A2991 RMK T02900250 IEM_DS3505
ZGOW,1999-10-13 09:00,ZGOW 130900Z AUTO 14006KT 9SM 29/23 A2994 RMK SLP141 T02860226 57003 IEM_DS3505
ZGOW,1999-10-13 10:00,ZGOW 131000Z AUTO 11004KT 6SM 26/24 A2994 RMK T02600240 IEM_DS3505
ZGOW,1999-10-13 11:00,ZGOW 131100Z AUTO 08004KT 6SM 26/24 A2997 RMK T02600240 IEM_DS3505
ZGOW,1999-10-13 12:00,ZGOW 131200Z AUTO 11004KT 9SM 27/23 A3000 RMK SLP159 T02690231 52018 IEM_DS3505
ZGOW,1999-10-13 13:00,ZGOW 131300Z AUTO 07006KT 6SM 26/24 A3000 RMK T02600240 IEM_DS3505
ZGOW,1999-10-13 14:00,ZGOW 131400Z AUTO 07006KT 6SM 26/24 A3000 RMK T02600240 IEM_DS3505
ZGOW,1999-10-13 15:00,ZGOW 131500Z AUTO 04008KT 8SM 26/23 RMK SLP169 T02640230 52010 IEM_DS3505
ZGOW,1999-10-13 18:00,ZGOW 131800Z AUTO 09004KT 7SM 26/23 RMK SLP162 T02580230 57007 IEM_DS3505
ZGOW,1999-10-13 21:00,ZGOW 132100Z AUTO 00000KT 4SM 25/23 RMK SLP156 T02500234 57006 IEM_DS3505
ZGOW,1999-10-13 22:00,ZGOW 132200Z AUTO 33004KT 2 1/2SM 24/24 A2997 RMK T02400240 IEM_DS3505
ZGOW,1999-10-13 23:00,ZGOW 132300Z AUTO 34004KT 2 1/2SM 25/24 A3000 RMK T02500240 IEM_DS3505
ZGOW,1999-10-14 00:00,ZGOW 140000Z AUTO 36002KT 4SM 27/24 A3000 RMK SLP169 T02680238 52013 IEM_DS3505
ZGOW,1999-10-14 01:00,ZGOW 140100Z AUTO 34004KT 4SM 28/25 A3000 RMK T02800250 IEM_DS3505
ZGOW,1999-10-14 02:00,ZGOW 140200Z AUTO 05006KT 7SM 30/24 A3000 RMK T03000240 IEM_DS3505
ZGOW,1999-10-14 03:00,ZGOW 140300Z AUTO 04008KT 7SM 31/22 A3000 RMK SLP165 T03080220 57004 IEM_DS3505
ZGOW,1999-10-14 04:00,ZGOW 140400Z AUTO 07008KT 7SM 31/25 A2997 RMK T03100250 IEM_DS3505
ZGOW,1999-10-14 05:00,ZGOW 140500Z AUTO 08010KT 7SM 31/24 A2997 RMK T03100240 IEM_DS3505
ZGOW,1999-10-14 06:00,ZGOW 140600Z AUTO 09008KT 16SM 30/22 A2994 RMK SLP144 T03050225 57021 IEM_DS3505
ZGOW,1999-10-14 07:00,ZGOW 140700Z AUTO 11010KT 6SM 30/25 A2994 RMK T03000250 IEM_DS3505
ZGOW,1999-10-14 08:00,ZGOW 140800Z AUTO 12010KT 6SM 29/25 A2994 RMK T02900250 IEM_DS3505
ZGOW,1999-10-14 09:00,ZGOW 140900Z AUTO 14006KT 9SM 29/24 RMK SLP139 T02900238 57005 IEM_DS3505
ZGOW,1999-10-14 10:00,ZGOW 141000Z AUTO 10004KT 6SM 27/25 A2994 RMK T02700250 IEM_DS3505
ZGOW,1999-10-14 11:00,ZGOW 141100Z AUTO 6SM 26/24 A2997 RMK T02600240 IEM_DS3505
ZGOW,1999-10-14 12:00,ZGOW 141200Z AUTO 09008KT 8SM 27/23 A2997 RMK SLP158 T02690233 52019 IEM_DS3505
ZGOW,1999-10-14 13:00,ZGOW 141300Z AUTO 08010KT 6SM 26/24 A3000 RMK T02600240 IEM_DS3505
ZGOW,1999-10-14 14:00,ZGOW 141400Z AUTO 09008KT 6SM 26/24 A3000 RMK T02600240 IEM_DS3505
ZGOW,1999-10-14 15:00,ZGOW 141500Z AUTO 09004KT 7SM 26/23 A3000 RMK SLP164 T02630229 52006 IEM_DS3505
ZGOW,1999-10-14 16:00,ZGOW 141600Z AUTO 08006KT 6SM 25/24 A3000 RMK T02500240 IEM_DS3505
ZGOW,1999-10-14 18:00,ZGOW 141800Z AUTO 04002KT 6SM 26/23 RMK SLP155 T02550232 57009 IEM_DS3505
ZGOW,1999-10-14 21:00,ZGOW 142100Z AUTO 36002KT 6SM 24/23 RMK SLP153 T02430227 57002 IEM_DS3505
ZGOW,1999-10-14 22:00,ZGOW 142200Z AUTO 00000KT 6SM 24/23 A2997 RMK T02400230 IEM_DS3505
ZGOW,1999-10-14 23:00,ZGOW 142300Z AUTO 04006KT 6SM 24/24 A2997 RMK T02400240 IEM_DS3505
ZGOW,1999-10-15 00:00,ZGOW 150000Z AUTO 09006KT 6SM 27/23 A3000 RMK SLP161 T02670231 52008 IEM_DS3505
ZGOW,1999-10-15 01:00,ZGOW 150100Z AUTO 08006KT 7SM 28/25 A3000 RMK T02800250 IEM_DS3505
ZGOW,1999-10-15 02:00,ZGOW 150200Z AUTO 10004KT 7SM 28/24 A3000 RMK T02800240 IEM_DS3505
ZGOW,1999-10-15 03:00,ZGOW 150300Z AUTO 09004KT 9SM 30/22 A3000 RMK SLP158 T02950218 57003 IEM_DS3505
ZGOW,1999-10-15 04:00,ZGOW 150400Z AUTO 09006KT 7SM 30/23 A2997 RMK T03000230 IEM_DS3505
ZGOW,1999-10-15 05:00,ZGOW 150500Z AUTO 09008KT 6SM 31/23 A2994 RMK T03100230 IEM_DS3505
ZGOW,1999-10-15 06:00,ZGOW 150600Z AUTO 04006KT 11SM 31/22 A2991 RMK SLP132 T03080220 57026 IEM_DS3505
ZGOW,1999-10-15 07:00,ZGOW 150700Z AUTO 13008KT 6SM 29/24 A2991 RMK T02900240 IEM_DS3505
ZGOW,1999-10-15 08:00,ZGOW 150800Z AUTO 12008KT 6SM 29/25 A2991 RMK T02900250 IEM_DS3505
ZGOW,1999-10-15 09:00,ZGOW 150900Z AUTO 11004KT 11SM 29/23 A2991 RMK SLP128 T02880232 57004 IEM_DS3505
ZGOW,1999-10-15 10:00,ZGOW 151000Z AUTO 08004KT 6SM 27/24 A2991 RMK T02700240 IEM_DS3505
ZGOW,1999-10-15 11:00,ZGOW 151100Z AUTO 08008KT 6SM 26/24 A2991 RMK T02600240 IEM_DS3505
ZGOW,1999-10-15 12:00,ZGOW 151200Z AUTO 04006KT 10SM 27/23 A2994 RMK SLP146 T02700229 52018 IEM_DS3505
ZGOW,1999-10-15 13:00,ZGOW 151300Z AUTO 08008KT 6SM 26/24 A2997 RMK T02600240 IEM_DS3505
ZGOW,1999-10-15 14:00,ZGOW 151400Z AUTO 08008KT 6SM 26/24 A2997 RMK T02600240 IEM_DS3505
ZGOW,1999-10-15 15:00,ZGOW 151500Z AUTO 09006KT 9SM 26/23 RMK SLP154 T02630234 52008 IEM_DS3505
ZGOW,1999-10-15 18:00,ZGOW 151800Z AUTO 09006KT 7SM 26/23 RMK SLP146 T02580232 57008 IEM_DS3505
ZGOW,1999-10-15 21:00,ZGOW 152100Z AUTO 36002KT 6SM 25/23 A2994 RMK SLP141 T02480232 57005 IEM_DS3505
ZGOW,1999-10-15 22:00,ZGOW 152200Z AUTO 01002KT 7SM 24/23 A2994 RMK T02400230 IEM_DS3505
ZGOW,1999-10-15 23:00,ZGOW 152300Z AUTO 05004KT 4SM 25/24 A2997 RMK T02500240 IEM_DS3505
ZGOW,1999-10-16 00:00,ZGOW 160000Z AUTO 04008KT 6SM 26/23 A2997 RMK SLP158 T02610226 52017 IEM_DS3505
ZGOW,1999-10-16 01:00,ZGOW 160100Z AUTO 04008KT 7SM 27/23 A3000 RMK T02700230 IEM_DS3505
ZGOW,1999-10-16 02:00,ZGOW 160200Z AUTO 08004KT 7SM 27/23 A3000 RMK T02700230 IEM_DS3505
ZGOW,1999-10-16 03:00,ZGOW 160300Z AUTO 09006KT 9SM 28/21 A3000 RMK SLP161 T02750211 52003 IEM_DS3505
ZGOW,1999-10-16 04:00,ZGOW 160400Z AUTO 08012KT 7SM 27/22 A2997 RMK T02700220 IEM_DS3505
ZGOW,1999-10-16 05:00,ZGOW 160500Z AUTO 08010KT 7SM 26/23 A2994 RMK T02600230 IEM_DS3505
ZGOW,1999-10-16 06:00,ZGOW 160600Z AUTO 09006KT 8SM 26/21 A2994 RMK 60003 SLP139 T02640208 57022 IEM_DS3505
ZGOW,1999-10-16 07:00,ZGOW 160700Z AUTO 08008KT 7SM 26/23 A2991 RMK T02600230 IEM_DS3505
ZGOW,1999-10-16 08:00,ZGOW 160800Z AUTO 08010KT 5SM 25/23 A2991 RMK T02500230 IEM_DS3505
ZGOW,1999-10-16 09:00,ZGOW 160900Z AUTO 09010KT 7SM 26/21 A2991 RMK SLP136 T02620206 57003 IEM_DS3505
ZGOW,1999-10-16 10:00,ZGOW 161000Z AUTO 07014G27KT 5SM 25/22 A2994 RMK T02500220 IEM_DS3505
ZGOW,1999-10-16 11:00,ZGOW 161100Z AUTO 08014KT 7SM 25/22 A2994 RMK T02500220 IEM_DS3505
ZGOW,1999-10-16 12:00,ZGOW 161200Z AUTO 09012KT 7SM 25/20 A2997 RMK 60003 SLP153 T02520200 52017 IEM_DS3505
ZGOW,1999-10-16 13:00,ZGOW 161300Z AUTO 07017KT 6SM 24/20 A3000 RMK T02400200 IEM_DS3505
ZGOW,1999-10-16 14:00,ZGOW 161400Z AUTO 07014KT 6SM 24/20 A3000 RMK T02400200 IEM_DS3505
ZGOW,1999-10-16 15:00,ZGOW 161500Z AUTO 09010KT 12SM 24/18 RMK SLP168 T02400180 52015 IEM_DS3505
ZGOW,1999-10-16 18:00,ZGOW 161800Z AUTO 04008KT 11SM 22/16 RMK 60003 SLP156 T02240162 57012 IEM_DS3505
ZGOW,1999-10-16 21:00,ZGOW 162100Z AUTO 09006KT 9SM 22/16 RMK 70003 SLP155 T02210158 57001 IEM_DS3505
ZGOW,1999-10-16 22:00,ZGOW 162200Z AUTO 07006KT 7SM 21/18 A3000 RMK T02100180 IEM_DS3505
ZGOW,1999-10-16 23:00,ZGOW 162300Z AUTO 07012KT 7SM 21/17 A3003 RMK T02100170 IEM_DS3505
ZGOW,1999-10-17 00:00,ZGOW 170000Z AUTO 36008KT 12SM 22/16 A3003 RMK SLP177 T02230164 52022 IEM_DS3505
ZGOW,1999-10-17 01:00,ZGOW 170100Z AUTO 04012KT 7SM 24/18 A3006 RMK T02400180 IEM_DS3505
ZGOW,1999-10-17 02:00,ZGOW 170200Z AUTO 04012KT 7SM 25/19 A3003 RMK T02500190 IEM_DS3505
ZGOW,1999-10-17 03:00,ZGOW 170300Z AUTO 04008KT 16SM 25/17 A3003 RMK SLP172 T02540167 57005 IEM_DS3505
ZGOW,1999-10-17 04:00,ZGOW 170400Z AUTO 07012KT 7SM 25/18 A3000 RMK T02500180 IEM_DS3505
ZGOW,1999-10-17 05:00,ZGOW 170500Z AUTO 08014KT 7SM 26/18 A2997 RMK T02600180 IEM_DS3505
ZGOW,1999-10-17 06:00,ZGOW 170600Z AUTO 09010G25KT 16SM 26/16 A2994 RMK SLP142 T02610161 57030 IEM_DS3505
ZGOW,1999-10-17 07:00,ZGOW 170700Z AUTO 08017G27KT 6SM 25/18 A2994 RMK T02500180 IEM_DS3505
ZGOW,1999-10-17 08:00,ZGOW 170800Z AUTO 08019KT 6SM 24/17 A2994 RMK T02400170 IEM_DS3505
ZGOW,1999-10-17 09:00,ZGOW 170900Z AUTO 07008KT 12SM 24/15 A2994 RMK SLP148 T02440151 52006 IEM_DS3505
ZGOW,1999-10-17 10:00,ZGOW 171000Z AUTO 08016G25KT 6SM 23/17 A2997 RMK T02300170 IEM_DS3505
ZGOW,1999-10-17 11:00,ZGOW 171100Z AUTO 08014KT 6SM 22/17 A3000 RMK T02200170 IEM_DS3505
ZGOW,1999-10-17 12:00,ZGOW 171200Z AUTO 04010KT 11SM 23/15 A3003 RMK SLP174 T02290150 52026 IEM_DS3505
ZGOW,1999-10-17 13:00,ZGOW 171300Z AUTO 07008KT 7SM 22/16 A3003 RMK T02200160 IEM_DS3505
ZGOW,1999-10-17 14:00,ZGOW 171400Z AUTO 06006KT 6SM 20/16 A3006 RMK T02000160 IEM_DS3505
ZGOW,1999-10-17 15:00,ZGOW 171500Z AUTO 04006KT 10SM 22/14 RMK SLP181 T02210143 52007 IEM_DS3505
ZGOW,1999-10-17 18:00,ZGOW 171800Z AUTO 04006KT 11SM 21/13 RMK SLP167 T02060131 57014 IEM_DS3505
ZGOW,1999-10-17 21:00,ZGOW 172100Z AUTO 09006KT 9SM 21/11 A3000 RMK SLP162 T02060114 57005 IEM_DS3505
ZGOW,1999-10-17 22:00,ZGOW 172200Z AUTO 04006KT 7SM 19/14 A3000 RMK T01900140 IEM_DS3505
ZGOW,1999-10-17 23:00,ZGOW 172300Z AUTO 04004KT 6SM 20/14 A3003 RMK T02000140 IEM_DS3505
ZGOW,1999-10-18 00:00,ZGOW 180000Z AUTO 04008KT 9SM 21/14 A3006 RMK SLP181 T02130135 52019 IEM_DS3505
ZGOW,1999-10-18 01:00,ZGOW 180100Z AUTO 04006KT 11SM 22/14 A3006 RMK SLP154 T02200140 57025 IEM_DS3505
ZGOW,1999-10-18 02:00,ZGOW 180200Z AUTO 04008KT 6SM 23/14 A3006 RMK T02300140 IEM_DS3505
ZGOW,1999-10-18 03:00,ZGOW 180300Z AUTO 04008KT 12SM 25/14 A3006 RMK SLP179 T02540137 57002 IEM_DS3505
ZGOW,1999-10-18 04:00,ZGOW 180400Z AUTO 06010KT 6SM 26/16 A3003 RMK T02600160 IEM_DS3505
ZGOW,1999-10-18 05:00,ZGOW 180500Z AUTO 06008KT 6SM 26/16 A3000 RMK T02600160 IEM_DS3505
ZGOW,1999-10-18 06:00,ZGOW 180600Z AUTO 04006KT 11SM 25/15 A2997 RMK SLP154 T02530147 57025 IEM_DS3505
ZGOW,1999-10-18 07:00,ZGOW 180700Z AUTO 07010KT 7SM 25/17 A2997 RMK T02500170 IEM_DS3505
ZGOW,1999-10-18 08:00,ZGOW 180800Z AUTO 08012KT 7SM 24/18 A2997 RMK T02400180 IEM_DS3505
ZGOW,1999-10-18 09:00,ZGOW 180900Z AUTO 09010KT 9SM 24/16 A2997 RMK SLP156 T02430160 52002 IEM_DS3505
ZGOW,1999-10-18 10:00,ZGOW 181000Z AUTO 07008KT 7SM 23/18 A2997 RMK T02300180 IEM_DS3505
ZGOW,1999-10-18 11:00,ZGOW 181100Z AUTO 08010KT 7SM 23/18 A3000 RMK T02300180 IEM_DS3505
ZGOW,1999-10-18 12:00,ZGOW 181200Z AUTO 09006KT 9SM 23/17 A3003 RMK SLP175 T02340171 52019 IEM_DS3505
ZGOW,1999-10-18 15:00,ZGOW 181500Z AUTO 09006KT 8SM 22/16 RMK SLP179 T02240163 52004 IEM_DS3505
ZGOW,1999-10-18 18:00,ZGOW 181800Z AUTO 14004KT 8SM 22/15 RMK 60003 SLP170 T02220152 57009 IEM_DS3505
ZGOW,1999-10-18 21:00,ZGOW 182100Z AUTO 04004KT 7SM 22/15 A3000 RMK 70003 SLP164 T02220150 57006 IEM_DS3505
ZGOW,1999-10-18 22:00,ZGOW 182200Z AUTO 07002KT 6SM 21/17 A3003 RMK T02100170 IEM_DS3505
ZGOW,1999-10-18 23:00,ZGOW 182300Z AUTO 09004KT 6SM 21/17 A3003 RMK T02100170 IEM_DS3505
ZGOW,1999-10-19 00:00,ZGOW 190000Z AUTO 04004KT 9SM 23/15 A3006 RMK SLP186 T02280151 52022 IEM_DS3505
ZGOW,1999-10-19 01:00,ZGOW 190100Z AUTO 06008KT 6SM 24/17 A3006 RMK T02400170 IEM_DS3505
ZGOW,1999-10-19 02:00,ZGOW 190200Z AUTO 04006KT 6SM 24/17 A3006 RMK T02400170 IEM_DS3505
ZGOW,1999-10-19 04:00,ZGOW 190400Z AUTO 08010KT 6SM 25/18 A3003 RMK T02500180 IEM_DS3505
ZGOW,1999-10-19 05:00,ZGOW 190500Z AUTO 09012KT 6SM 25/18 A3000 RMK T02500180 IEM_DS3505
ZGOW,1999-10-19 06:00,ZGOW 190600Z AUTO 11008KT 12SM 26/17 A2997 RMK SLP159 T02560168 57026 IEM_DS3505
ZGOW,1999-10-19 07:00,ZGOW 190700Z AUTO 08012KT 6SM 25/19 A2997 RMK T02500190 IEM_DS3505
ZGOW,1999-10-19 08:00,ZGOW 190800Z AUTO 08008KT 6SM 24/20 A3000 RMK T02400200 IEM_DS3505
ZGOW,1999-10-19 09:00,ZGOW 190900Z AUTO 09004KT 9SM 24/18 A3000 RMK SLP161 T02440175 52002 IEM_DS3505
ZGOW,1999-10-19 10:00,ZGOW 191000Z AUTO 08006KT 6SM 23/19 A3000 RMK T02300190 IEM_DS3505
ZGOW,1999-10-19 11:00,ZGOW 191100Z AUTO 06010KT 6SM 23/20 A3003 RMK T02300200 IEM_DS3505
ZGOW,1999-10-19 12:00,ZGOW 191200Z AUTO 09006KT 7SM 24/18 A3006 RMK SLP178 T02380184 52017 IEM_DS3505
ZGOW,1999-10-19 13:00,ZGOW 191300Z AUTO 07010KT 6SM 23/20 A3006 RMK T02300200 IEM_DS3505
ZGOW,1999-10-19 15:00,ZGOW 191500Z AUTO 09008KT 9SM 23/17 RMK SLP183 T02340169 52005 IEM_DS3505
ZGOW,1999-10-19 18:00,ZGOW 191800Z AUTO 09004KT 8SM 22/18 RMK SLP166 T02250179 57017 IEM_DS3505
ZGOW,1999-10-19 21:00,ZGOW 192100Z AUTO 04004KT 7SM 22/17 A3000 RMK SLP167 T02220168 52001 IEM_DS3505
ZGOW,1999-10-19 22:00,ZGOW 192200Z AUTO 05004KT 6SM 21/19 A3003 RMK T02100190 IEM_DS3505
ZGOW,1999-10-19 23:00,ZGOW 192300Z AUTO 05010KT 6SM 22/17 A3003 RMK T02200170 IEM_DS3505
ZGOW,1999-10-20 00:00,ZGOW 200000Z AUTO 09006KT 9SM 23/16 A3006 RMK SLP183 T02280161 52016 IEM_DS3505
ZGOW,1999-10-20 01:00,ZGOW 200100Z AUTO 06012KT 6SM 24/18 A3006 RMK T02400180 IEM_DS3505
ZGOW,1999-10-20 02:00,ZGOW 200200Z AUTO 07014KT 6SM 24/18 A3006 RMK T02400180 IEM_DS3505
ZGOW,1999-10-20 03:00,ZGOW 200300Z AUTO 09008KT 9SM 26/17 A3003 RMK SLP179 T02600169 57004 IEM_DS3505
ZGOW,1999-10-20 04:00,ZGOW 200400Z AUTO 08006KT 6SM 27/19 A3000 RMK T02700190 IEM_DS3505
ZGOW,1999-10-20 05:00,ZGOW 200500Z AUTO 08008KT 6SM 27/19 A3000 RMK T02700190 IEM_DS3505
ZGOW,1999-10-20 06:00,ZGOW 200600Z AUTO 09006KT 9SM 26/17 A2997 RMK SLP157 T02650173 57022 IEM_DS3505
ZGOW,1999-10-20 07:00,ZGOW 200700Z AUTO 13008KT 6SM 26/20 A2997 RMK T02600200 IEM_DS3505
ZGOW,1999-10-20 08:00,ZGOW 200800Z AUTO 09008KT 6SM 25/20 A2997 RMK T02500200 IEM_DS3505
ZGOW,1999-10-20 09:00,ZGOW 200900Z AUTO 09006KT 8SM 25/19 A2997 RMK SLP151 T02480190 57006 IEM_DS3505
ZGOW,1999-10-20 10:00,ZGOW 201000Z AUTO 08012KT 4SM 23/19 A2997 RMK T02300190 IEM_DS3505
ZGOW,1999-10-20 11:00,ZGOW 201100Z AUTO 08014KT 4SM 23/18 A3000 RMK T02300180 IEM_DS3505
ZGOW,1999-10-20 12:00,ZGOW 201200Z AUTO 09006KT 7SM 23/17 A3003 RMK 60003 SLP170 T02340171 52019 IEM_DS3505
ZGOW,1999-10-20 13:00,ZGOW 201300Z AUTO 07016KT 4SM 23/18 A3003 RMK T02300180 IEM_DS3505
ZGOW,1999-10-20 14:00,ZGOW 201400Z AUTO 07012KT 4SM 22/18 A3003 RMK T02200180 IEM_DS3505
ZGOW,1999-10-20 15:00,ZGOW 201500Z AUTO 04008KT 7SM 22/16 RMK SLP178 T02250164 52008 IEM_DS3505
ZGOW,1999-10-20 18:00,ZGOW 201800Z AUTO 09008KT 7SM 22/11 RMK 60003 SLP166 T02190111 57012 IEM_DS3505
ZGOW,1999-10-20 21:00,ZGOW 202100Z AUTO 09002KT 7SM 21/15 RMK 70003 SLP164 T02070146 57002 IEM_DS3505
ZGOW,1999-10-20 22:00,ZGOW 202200Z AUTO 36002KT 3SM 19/16 A3003 RMK T01900160 IEM_DS3505
ZGOW,1999-10-20 23:00,ZGOW 202300Z AUTO 00000KT 6SM 20/16 A3003 RMK T02000160 IEM_DS3505
ZGOW,1999-10-21 00:00,ZGOW 210000Z AUTO 04004KT 7SM 23/13 A3006 RMK SLP184 T02320134 52020 IEM_DS3505
ZGOW,1999-10-21 01:00,ZGOW 210100Z AUTO 04006KT 6SM 24/16 A3006 RMK T02400160 IEM_DS3505
ZGOW,1999-10-21 02:00,ZGOW 210200Z AUTO 07012KT 6SM 25/17 A3006 RMK T02500170 IEM_DS3505
ZGOW,1999-10-21 03:00,ZGOW 210300Z AUTO 11008KT 12SM 25/15 A3006 RMK SLP180 T02540154 57004 IEM_DS3505
ZGOW,1999-10-21 04:00,ZGOW 210400Z AUTO 08012KT 6SM 27/18 A3003 RMK T02700180 IEM_DS3505
ZGOW,1999-10-21 05:00,ZGOW 210500Z AUTO 09012KT 6SM 27/18 A3000 RMK T02700180 IEM_DS3505
ZGOW,1999-10-21 06:00,ZGOW 210600Z AUTO 04010KT 12SM 27/16 A2997 RMK SLP155 T02720159 57025 IEM_DS3505
ZGOW,1999-10-21 07:00,ZGOW 210700Z AUTO 09012KT 6SM 26/18 A2997 RMK T02600180 IEM_DS3505
ZGOW,1999-10-21 08:00,ZGOW 210800Z AUTO 13008KT 6SM 26/19 A2997 RMK T02600190 IEM_DS3505
ZGOW,1999-10-21 09:00,ZGOW 210900Z AUTO 14006KT 10SM 25/18 A2997 RMK SLP159 T02500179 52004 IEM_DS3505
ZGOW,1999-10-21 10:00,ZGOW 211000Z AUTO 09004KT 6SM 23/19 A3000 RMK T02300190 IEM_DS3505
ZGOW,1999-10-21 11:00,ZGOW 211100Z AUTO 04008KT 7SM 22/16 A3000 RMK SLP180 T02220165 57004 IEM_DS3505
ZGOW,1999-10-21 12:00,ZGOW 211200Z AUTO 07006KT 9SM 24/18 A3003 RMK SLP173 T02360182 52014 IEM_DS3505
ZGOW,1999-10-21 13:00,ZGOW 211300Z AUTO 08008KT 6SM 22/19 A3006 RMK T02200190 IEM_DS3505
ZGOW,1999-10-21 14:00,ZGOW 211400Z AUTO 07010KT 6SM 22/20 A3006 RMK T02200200 IEM_DS3505
ZGOW,1999-10-21 15:00,ZGOW 211500Z AUTO 07006KT 8SM 23/18 RMK SLP184 T02300181 52011 IEM_DS3505
ZGOW,1999-10-21 18:00,ZGOW 211800Z AUTO 04008KT 7SM 22/16 RMK SLP180 T02220165 57004 IEM_DS3505
ZGOW,1999-10-21 21:00,ZGOW 212100Z AUTO 09004KT 9SM 22/14 RMK SLP177 T02170142 57003 IEM_DS3505
ZGOW,1999-10-21 22:00,ZGOW 212200Z AUTO 05006KT 4SM 18/17 A3003 RMK T01800170 IEM_DS3505
ZGOW,1999-10-21 23:00,ZGOW 212300Z AUTO 04006KT 5SM 19/17 A3006 RMK T01900170 IEM_DS3505
ZGOW,1999-10-22 00:00,ZGOW 220000Z AUTO 04006KT 9SM 23/15 A3009 RMK SLP190 T02290152 52013 IEM_DS3505
ZGOW,1999-10-22 01:00,ZGOW 220100Z AUTO 03008G17KT 6SM 24/13 A3009 RMK T02400130 IEM_DS3505
ZGOW,1999-10-22 02:00,ZGOW 220200Z AUTO 06010KT 6SM 26/13 A3009 RMK T02600130 IEM_DS3505
ZGOW,1999-10-22 03:00,ZGOW 220300Z AUTO 04004KT 12SM 27/12 RMK SLP190 T02700124 54000 IEM_DS3505
ZGOW,1999-10-22 04:00,ZGOW 220400Z AUTO 08008KT 6SM 28/14 A3003 RMK T02800140 IEM_DS3505
ZGOW,1999-10-22 05:00,ZGOW 220500Z AUTO 10008KT 6SM 27/17 A3000 RMK T02700170 IEM_DS3505
ZGOW,1999-10-22 06:00,ZGOW 220600Z AUTO 16004KT 12SM 28/15 A3000 RMK SLP158 T02800147 57032 IEM_DS3505
ZGOW,1999-10-22 07:00,ZGOW 220700Z AUTO 13010KT 6SM 26/20 A2997 RMK T02600200 IEM_DS3505
ZGOW,1999-10-22 08:00,ZGOW 220800Z AUTO 12008KT 6SM 26/20 A2997 RMK T02600200 IEM_DS3505
ZGOW,1999-10-22 09:00,ZGOW 220900Z AUTO 14006KT 9SM 25/18 A3000 RMK SLP158 T02520181 54000 IEM_DS3505
ZGOW,1999-10-22 10:00,ZGOW 221000Z AUTO 09002KT 5SM 23/20 A3000 RMK T02300200 IEM_DS3505
ZGOW,1999-10-22 11:00,ZGOW 221100Z AUTO 08008KT 5SM 23/20 A3003 RMK T02300200 IEM_DS3505
ZGOW,1999-10-22 12:00,ZGOW 221200Z AUTO 04006KT 7SM 24/19 A3003 RMK SLP177 T02400192 52019 IEM_DS3505
ZGOW,1999-10-22 13:00,ZGOW 221300Z AUTO 08008KT 5SM 23/20 A3006 RMK T02300200 IEM_DS3505
ZGOW,1999-10-22 14:00,ZGOW 221400Z AUTO 08006KT 4SM 23/20 A3006 RMK T02300200 IEM_DS3505
ZGOW,1999-10-22 15:00,ZGOW 221500Z AUTO 04006KT 7SM 24/19 A3006 RMK SLP187 T02360186 52010 IEM_DS3505
ZGOW,1999-10-22 16:00,ZGOW 221600Z AUTO 08006KT 4SM 22/19 A3006 RMK T02200190 IEM_DS3505
ZGOW,1999-10-22 18:00,ZGOW 221800Z AUTO 09004KT 7SM 23/17 RMK SLP172 T02260171 57015 IEM_DS3505
ZGOW,1999-10-22 21:00,ZGOW 222100Z AUTO 04002KT 3SM 21/19 A3003 RMK SLP178 T02140192 52006 IEM_DS3505
ZGOW,1999-10-22 23:00,ZGOW 222300Z AUTO 14002KT 2SM 21/20 A3009 RMK T02100200 IEM_DS3505
ZGOW,1999-10-23 00:00,ZGOW 230000Z AUTO 07004KT 4SM 23/19 A3009 RMK SLP196 T02280192 52018 IEM_DS3505
ZGOW,1999-10-23 01:00,ZGOW 230100Z AUTO 06008KT 6SM 24/18 A3009 RMK T02400180 IEM_DS3505
ZGOW,1999-10-23 02:00,ZGOW 230200Z AUTO 07008KT 6SM 26/18 A3009 RMK T02600180 IEM_DS3505
ZGOW,1999-10-23 03:00,ZGOW 230300Z AUTO 09006KT 7SM 27/16 A3009 RMK SLP189 T02680163 57007 IEM_DS3505
ZGOW,1999-10-23 04:00,ZGOW 230400Z AUTO 08010KT 6SM 26/18 A3006 RMK T02600180 IEM_DS3505
ZGOW,1999-10-23 05:00,ZGOW 230500Z AUTO 08012KT 6SM 27/17 A3000 RMK T02700170 IEM_DS3505
ZGOW,1999-10-23 06:00,ZGOW 230600Z AUTO 09006KT 16SM 27/16 A3000 RMK SLP162 T02690157 57027 IEM_DS3505
ZGOW,1999-10-23 07:00,ZGOW 230700Z AUTO 08010KT 6SM 27/18 A2997 RMK T02700180 IEM_DS3505
ZGOW,1999-10-23 08:00,ZGOW 230800Z AUTO 08012KT 6SM 26/19 A2997 RMK T02600190 IEM_DS3505
ZGOW,1999-10-23 09:00,ZGOW 230900Z AUTO 14006KT 11SM 26/18 A2997 RMK SLP158 T02550181 57004 IEM_DS3505
ZGOW,1999-10-23 10:00,ZGOW 231000Z AUTO 08008KT 6SM 24/20 A3000 RMK T02400200 IEM_DS3505
ZGOW,1999-10-23 11:00,ZGOW 231100Z AUTO 08010KT 7SM 23/20 A3003 RMK T02300200 IEM_DS3505
ZGOW,1999-10-23 12:00,ZGOW 231200Z AUTO 04006KT 9SM 24/19 A3003 RMK SLP174 T02370192 52016 IEM_DS3505
ZGOW,1999-10-23 13:00,ZGOW 231300Z AUTO 07016KT 7SM 23/19 A3006 RMK T02300190 IEM_DS3505
ZGOW,1999-10-23 15:00,ZGOW 231500Z AUTO 04008KT 9SM 23/18 RMK SLP186 T02310175 52012 IEM_DS3505
ZGOW,1999-10-23 18:00,ZGOW 231800Z AUTO 14008KT 8SM 23/16 RMK SLP175 T02300163 57011 IEM_DS3505
ZGOW,1999-10-23 21:00,ZGOW 232100Z AUTO 07006KT 7SM 22/16 RMK SLP172 T02250157 57003 IEM_DS3505
ZGOW,1999-10-23 22:00,ZGOW 232200Z AUTO 05004KT 6SM 21/18 A3003 RMK T02100180 IEM_DS3505
ZGOW,1999-10-23 23:00,ZGOW 232300Z AUTO 05002KT 7SM 20/18 A3006 RMK T02000180 IEM_DS3505
ZGOW,1999-10-24 00:00,ZGOW 240000Z AUTO 09006KT 9SM 24/15 A3006 RMK SLP189 T02360147 52017 IEM_DS3505
ZGOW,1999-10-24 01:00,ZGOW 240100Z AUTO 06010KT 6SM 25/15 A3009 RMK T02500150 IEM_DS3505
ZGOW,1999-10-24 02:00,ZGOW 240200Z AUTO 07010KT 6SM 26/15 A3009 RMK T02600150 IEM_DS3505
ZGOW,1999-10-24 03:00,ZGOW 240300Z AUTO 09006KT 16SM 27/13 A3006 RMK SLP188 T02680133 57001 IEM_DS3505
ZGOW,1999-10-24 04:00,ZGOW 240400Z AUTO 08010KT 6SM 27/17 A3006 RMK T02700170 IEM_DS3505
ZGOW,1999-10-24 05:00,ZGOW 240500Z AUTO 09010KT 6SM 27/18 A3000 RMK T02700180 IEM_DS3505
ZGOW,1999-10-24 06:00,ZGOW 240600Z AUTO 09006KT 16SM 27/15 A3000 RMK SLP160 T02720153 57028 IEM_DS3505
ZGOW,1999-10-24 07:00,ZGOW 240700Z AUTO 13010KT 6SM 26/19 A2997 RMK T02600190 IEM_DS3505
ZGOW,1999-10-24 09:00,ZGOW 240900Z AUTO 09004KT 9SM 25/17 A2997 RMK SLP156 T02510169 57004 IEM_DS3505
ZGOW,1999-10-24 10:00,ZGOW 241000Z AUTO 09008KT 4SM 23/18 A3000 RMK T02300180 IEM_DS3505
ZGOW,1999-10-24 11:00,ZGOW 241100Z AUTO 09008KT 4SM 23/18 A3000 RMK T02300180 IEM_DS3505
ZGOW,1999-10-24 12:00,ZGOW 241200Z AUTO 07008KT 9SM 24/16 A3003 RMK SLP170 T02390164 52014 IEM_DS3505
ZGOW,1999-10-24 13:00,ZGOW 241300Z AUTO 08010KT 3SM 23/18 A3003 RMK T02300180 IEM_DS3505
ZGOW,1999-10-24 15:00,ZGOW 241500Z AUTO 09006KT 8SM 23/17 A3003 RMK SLP180 T02280166 52010 IEM_DS3505
ZGOW,1999-10-24 16:00,ZGOW 241600Z AUTO 09006KT 21/15 A3006 RMK T02100150 IEM_DS3505
ZGOW,1999-10-24 18:00,ZGOW 241800Z AUTO 04002KT 7SM 21/15 A3003 RMK SLP172 T02100153 57008 IEM_DS3505
ZGOW,1999-10-24 20:00,ZGOW 242000Z AUTO 06004KT 2 1/2SM 18/16 A3000 RMK T01800160 IEM_DS3505
ZGOW,1999-10-24 21:00,ZGOW 242100Z AUTO 04002KT 6SM 20/15 RMK SLP165 T01960150 57007 IEM_DS3505
ZGOW,1999-10-24 22:00,ZGOW 242200Z AUTO 12002KT 3SM 18/15 A3000 RMK T01800150 IEM_DS3505
ZGOW,1999-10-24 23:00,ZGOW 242300Z AUTO 03004KT 6SM 18/14 A3000 RMK T01800140 IEM_DS3505
ZGOW,1999-10-25 00:00,ZGOW 250000Z AUTO 04002KT 9SM 23/12 A3003 RMK SLP172 T02310118 52007 IEM_DS3505
ZGOW,1999-10-25 01:00,ZGOW 250100Z AUTO 07004KT 6SM 24/13 A3003 RMK T02400130 IEM_DS3505
ZGOW,1999-10-25 02:00,ZGOW 250200Z AUTO 09004KT 6SM 25/11 A3006 RMK T02500110 IEM_DS3505
ZGOW,1999-10-25 03:00,ZGOW 250300Z AUTO 09006KT 16SM 26/10 A3003 RMK SLP175 T02600095 52003 IEM_DS3505
ZGOW,1999-10-25 04:00,ZGOW 250400Z AUTO 08008KT 6SM 27/14 A3000 RMK T02700140 IEM_DS3505
ZGOW,1999-10-25 05:00,ZGOW 250500Z AUTO 10008KT 6SM 27/15 A2997 RMK T02700150 IEM_DS3505
ZGOW,1999-10-25 06:00,ZGOW 250600Z AUTO 04006KT 12SM 27/16 A2997 RMK SLP150 T02690155 57025 IEM_DS3505
ZGOW,1999-10-25 07:00,ZGOW 250700Z AUTO 12008KT 6SM 26/20 A2994 RMK T02600200 IEM_DS3505
ZGOW,1999-10-25 08:00,ZGOW 250800Z AUTO 13008KT 6SM 25/20 A2994 RMK T02500200 IEM_DS3505
ZGOW,1999-10-25 09:00,ZGOW 250900Z AUTO 14006KT 11SM 24/18 A2994 RMK SLP151 T02440179 52001 IEM_DS3505
ZGOW,1999-10-25 10:00,ZGOW 251000Z AUTO 07008KT 6SM 23/19 A2997 RMK T02300190 IEM_DS3505
ZGOW,1999-10-25 11:00,ZGOW 251100Z AUTO 07008KT 6SM 22/19 A3000 RMK T02200190 IEM_DS3505
ZGOW,1999-10-25 12:00,ZGOW 251200Z AUTO 09004KT 9SM 23/18 A3000 RMK SLP169 T02340182 52018 IEM_DS3505
ZGOW,1999-10-25 13:00,ZGOW 251300Z AUTO 08006KT 6SM 22/20 A3003 RMK T02200200 IEM_DS3505
ZGOW,1999-10-25 15:00,ZGOW 251500Z AUTO 07004KT 9SM 23/19 RMK SLP177 T02260190 52008 IEM_DS3505
ZGOW,1999-10-25 18:00,ZGOW 251800Z AUTO 09004KT 8SM 22/18 RMK SLP166 T02190179 57011 IEM_DS3505
ZGOW,1999-10-25 21:00,ZGOW 252100Z AUTO 00000KT 5SM 20/18 RMK SLP162 T02000184 57004 IEM_DS3505
ZGOW,1999-10-25 22:00,ZGOW 252200Z AUTO 33002KT 2 1/2SM 20/19 A3000 RMK T02000190 IEM_DS3505
ZGOW,1999-10-25 23:00,ZGOW 252300Z AUTO 03002KT 4SM 20/19 A3003 RMK T02000190 IEM_DS3505
ZGOW,1999-10-26 00:00,ZGOW 260000Z AUTO 00000KT 3SM 23/19 A3003 RMK SLP174 T02260192 52012 IEM_DS3505
ZGOW,1999-10-26 01:00,ZGOW 260100Z AUTO 33004KT 6SM 23/20 A3003 RMK T02300200 IEM_DS3505
ZGOW,1999-10-26 02:00,ZGOW 260200Z AUTO 09004KT 6SM 25/17 A3003 RMK T02500170 IEM_DS3505
ZGOW,1999-10-26 03:00,ZGOW 260300Z AUTO 09004KT 4SM 26/18 A3000 RMK SLP167 T02570182 57007 IEM_DS3505
ZGOW,1999-10-26 04:00,ZGOW 260400Z AUTO 09006KT 6SM 27/18 A2997 RMK T02700180 IEM_DS3505
ZGOW,1999-10-26 05:00,ZGOW 260500Z AUTO 09006KT 6SM 27/18 A2994 RMK T02700180 IEM_DS3505
ZGOW,1999-10-26 06:00,ZGOW 260600Z AUTO 18004KT 6SM 26/16 A2991 RMK SLP139 T02610162 57028 IEM_DS3505
ZGOW,1999-10-26 07:00,ZGOW 260700Z AUTO 14006KT 6SM 26/19 A2991 RMK T02600190 IEM_DS3505
ZGOW,1999-10-26 08:00,ZGOW 260800Z AUTO 12008KT 6SM 25/19 A2991 RMK T02500190 IEM_DS3505
ZGOW,1999-10-26 09:00,ZGOW 260900Z AUTO 09004KT 6SM 24/17 A2994 RMK SLP140 T02440174 52001 IEM_DS3505
ZGOW,1999-10-26 10:00,ZGOW 261000Z AUTO 13002KT 6SM 23/20 A2994 RMK T02300200 IEM_DS3505
ZGOW,1999-10-26 11:00,ZGOW 261100Z AUTO 13002KT 4SM 22/20 A2997 RMK T02200200 IEM_DS3505
ZGOW,1999-10-26 12:00,ZGOW 261200Z AUTO 11002KT 6SM 24/19 A2997 RMK SLP157 T02350188 52017 IEM_DS3505
ZGOW,1999-10-26 13:00,ZGOW 261300Z AUTO 00000KT 4SM 22/20 A3000 RMK T02200200 IEM_DS3505
ZGOW,1999-10-26 14:00,ZGOW 261400Z AUTO 05004KT 4SM 22/20 A3000 RMK T02200200 IEM_DS3505
ZGOW,1999-10-26 15:00,ZGOW 261500Z AUTO 04002KT 6SM 23/19 RMK SLP167 T02340189 52010 IEM_DS3505
ZGOW,1999-10-26 18:00,ZGOW 261800Z AUTO 09004KT 6SM 23/20 RMK SLP159 T02280202 57008 IEM_DS3505
ZGOW,1999-10-26 21:00,ZGOW 262100Z AUTO 04006KT 5SM 22/20 A2997 RMK SLP154 T02240198 57005 IEM_DS3505
ZGOW,1999-10-26 22:00,ZGOW 262200Z AUTO 04006KT 3SM 21/20 A3000 RMK T02100200 IEM_DS3505
ZGOW,1999-10-26 23:00,ZGOW 262300Z AUTO 03004KT 2 1/2SM 21/20 A3000 RMK T02100200 IEM_DS3505
ZGOW,1999-10-27 00:00,ZGOW 270000Z AUTO 04004KT 4SM 22/18 A3003 RMK SLP170 T02250179 52016 IEM_DS3505
ZGOW,1999-10-27 01:00,ZGOW 270100Z AUTO 07004KT 4SM 23/21 A3003 RMK T02300210 IEM_DS3505
ZGOW,1999-10-27 02:00,ZGOW 270200Z AUTO 07006KT 4SM 24/20 A3003 RMK T02400200 IEM_DS3505
ZGOW,1999-10-27 03:00,ZGOW 270300Z AUTO 04008KT 5SM 25/18 A3003 RMK SLP168 T02470177 57002 IEM_DS3505
ZGOW,1999-10-27 04:00,ZGOW 270400Z AUTO 08010KT 6SM 26/18 A3000 RMK T02600180 IEM_DS3505
ZGOW,1999-10-27 05:00,ZGOW 270500Z AUTO 08012KT 6SM 27/19 A2997 RMK T02700190 IEM_DS3505
ZGOW,1999-10-27 06:00,ZGOW 270600Z AUTO 11010KT 7SM 27/16 A2994 RMK SLP146 T02660161 57022 IEM_DS3505
ZGOW,1999-10-27 07:00,ZGOW 270700Z AUTO 12008KT 6SM 26/20 A2994 RMK T02600200 IEM_DS3505
ZGOW,1999-10-27 08:00,ZGOW 270800Z AUTO 11010KT 6SM 25/20 A2991 RMK T02500200 IEM_DS3505
ZGOW,1999-10-27 09:00,ZGOW 270900Z AUTO 14004KT 6SM 25/19 A2994 RMK SLP143 T02470188 57003 IEM_DS3505
ZGOW,1999-10-27 10:00,ZGOW 271000Z AUTO 08004KT 4SM 23/20 A2994 RMK T02300200 IEM_DS3505
ZGOW,1999-10-27 11:00,ZGOW 271100Z AUTO 08002KT 4SM 22/20 A2994 RMK T02200200 IEM_DS3505
ZGOW,1999-10-27 12:00,ZGOW 271200Z AUTO 11006KT 6SM 24/19 A2997 RMK SLP156 T02350188 52013 IEM_DS3505
ZGOW,1999-10-27 13:00,ZGOW 271300Z AUTO 06004KT 4SM 21/20 A3000 RMK T02100200 IEM_DS3505
ZGOW,1999-10-27 15:00,ZGOW 271500Z AUTO 04006KT 6SM 23/19 RMK SLP164 T02300188 52008 IEM_DS3505
ZGOW,1999-10-27 18:00,ZGOW 271800Z AUTO 04006KT 5SM 22/18 RMK SLP163 T02210183 57001 IEM_DS3505
ZGOW,1999-10-27 21:00,ZGOW 272100Z AUTO 04006KT 4SM 22/17 RMK SLP157 T02160171 57006 IEM_DS3505
ZGOW,1999-10-27 22:00,ZGOW 272200Z AUTO 02004KT 3SM 21/17 A2997 RMK T02100170 IEM_DS3505
ZGOW,1999-10-27 23:00,ZGOW 272300Z AUTO 03006KT 3SM 21/18 A3000 RMK T02100180 IEM_DS3505
ZGOW,1999-10-28 00:00,ZGOW 280000Z AUTO 00000KT 6SM 22/16 A3003 RMK SLP173 T02230162 52016 IEM_DS3505
ZGOW,1999-10-28 01:00,ZGOW 280100Z AUTO 04006KT 2 1/2SM 23/18 A3003 RMK T02300180 IEM_DS3505
ZGOW,1999-10-28 02:00,ZGOW 280200Z AUTO 03004KT 7SM 24/18 A3003 RMK T02400180 IEM_DS3505
ZGOW,1999-10-28 03:00,ZGOW 280300Z AUTO 09006KT 7SM 25/16 A3003 RMK SLP171 T02500158 57002 IEM_DS3505
ZGOW,1999-10-28 04:00,ZGOW 280400Z AUTO 08008KT 5SM 27/19 A2997 RMK T02700190 IEM_DS3505
ZGOW,1999-10-28 05:00,ZGOW 280500Z AUTO 08008KT 5SM 27/18 A2994 RMK T02700180 IEM_DS3505
ZGOW,1999-10-28 06:00,ZGOW 280600Z AUTO 16006KT 7SM 27/18 A2994 RMK SLP140 T02660180 57031 IEM_DS3505
ZGOW,1999-10-28 07:00,ZGOW 280700Z AUTO 12010KT 26/20 A2991 RMK T02600200 IEM_DS3505
ZGOW,1999-10-28 08:00,ZGOW 280800Z AUTO 13010KT 3SM 25/21 A2991 RMK T02500210 IEM_DS3505
ZGOW,1999-10-28 09:00,ZGOW 280900Z AUTO 11006KT 5SM 24/19 A2991 RMK SLP139 T02440193 57001 IEM_DS3505
ZGOW,1999-10-28 10:00,ZGOW 281000Z AUTO 12006KT 2SM 23/21 A2994 RMK T02300210 IEM_DS3505
ZGOW,1999-10-28 11:00,ZGOW 281100Z AUTO 11006KT 1 1/2SM RMK IEM_DS3505
ZGOW,1999-10-28 12:00,ZGOW 281200Z AUTO 11002KT 4SM 24/20 A2997 RMK SLP157 T02360204 52018 IEM_DS3505
ZGOW,1999-10-28 13:00,ZGOW 281300Z AUTO 07004KT 1 1/2SM 22/21 A3000 RMK T02200210 IEM_DS3505
ZGOW,1999-10-28 15:00,ZGOW 281500Z AUTO 09004KT 4SM 23/21 A3000 RMK SLP168 T02300206 52011 IEM_DS3505
ZGOW,1999-10-28 16:00,ZGOW 281600Z AUTO 03004KT 1 1/4SM 21/21 A3000 RMK T02100210 IEM_DS3505
ZGOW,1999-10-28 17:00,ZGOW 281700Z AUTO 03002KT 1SM 22/21 A3000 RMK T02200210 IEM_DS3505
ZGOW,1999-10-28 18:00,ZGOW 281800Z AUTO 04002KT 3SM 23/21 A2997 RMK SLP160 T02280207 57008 IEM_DS3505
ZGOW,1999-10-28 19:00,ZGOW 281900Z AUTO 01002KT 1 1/2SM 22/21 A2997 RMK T02200210 IEM_DS3505
ZGOW,1999-10-28 20:00,ZGOW 282000Z AUTO 01004KT 2SM 22/21 A2997 RMK T02200210 IEM_DS3505
ZGOW,1999-10-28 21:00,ZGOW 282100Z AUTO 00000KT 4SM 22/20 A2997 RMK SLP152 T02220199 57008 IEM_DS3505
ZGOW,1999-10-28 22:00,ZGOW 282200Z AUTO 36002KT 2SM 22/20 A2997 RMK T02200200 IEM_DS3505
ZGOW,1999-10-28 23:00,ZGOW 282300Z AUTO 02002KT 1 1/2SM 22/20 A3000 RMK T02200200 IEM_DS3505
ZGOW,1999-10-29 00:00,ZGOW 290000Z AUTO 04006KT 2 1/2SM 24/20 A3000 RMK SLP164 T02380198 52012 IEM_DS3505
ZGOW,1999-10-29 01:00,ZGOW 290100Z AUTO 04010KT 2 1/2SM 25/21 A3000 RMK T02500210 IEM_DS3505
ZGOW,1999-10-29 02:00,ZGOW 290200Z AUTO 05006KT 3SM 25/21 A3003 RMK T02500210 IEM_DS3505
ZGOW,1999-10-29 03:00,ZGOW 290300Z AUTO 04004KT 4SM 26/19 A3000 RMK SLP165 T02630194 52001 IEM_DS3505
ZGOW,1999-10-29 04:00,ZGOW 290400Z AUTO 07006KT 3SM 27/21 A2997 RMK T02700210 IEM_DS3505
ZGOW,1999-10-29 05:00,ZGOW 290500Z AUTO 10006KT 3SM 27/21 A2994 RMK T02700210 IEM_DS3505
ZGOW,1999-10-29 06:00,ZGOW 290600Z AUTO 36008KT 5SM 28/18 A2994 RMK SLP139 T02760183 57026 IEM_DS3505
ZGOW,1999-10-29 07:00,ZGOW 290700Z AUTO 15006KT 3SM 26/20 A2991 RMK T02600200 IEM_DS3505
ZGOW,1999-10-29 08:00,ZGOW 290800Z AUTO 14006KT 3SM 25/20 A2994 RMK T02500200 IEM_DS3505
ZGOW,1999-10-29 09:00,ZGOW 290900Z AUTO 14004KT 5SM 25/18 RMK SLP144 T02510178 52005 IEM_DS3505
ZGOW,1999-10-29 10:00,ZGOW 291000Z AUTO 12006KT 2 1/2SM 24/21 A2994 RMK T02400210 IEM_DS3505
ZGOW,1999-10-29 11:00,ZGOW 291100Z AUTO 09004KT 2 1/2SM 23/21 A2997 RMK T02300210 IEM_DS3505
ZGOW,1999-10-29 12:00,ZGOW 291200Z AUTO 07006KT 4SM 24/19 A3000 RMK SLP161 T02420192 52017 IEM_DS3505
ZGOW,1999-10-29 13:00,ZGOW 291300Z AUTO 08010KT 6SM 23/19 A3000 RMK T02300190 IEM_DS3505
ZGOW,1999-10-29 14:00,ZGOW 291400Z AUTO 07008KT 6SM 23/19 A3000 RMK T02300190 IEM_DS3505
ZGOW,1999-10-29 15:00,ZGOW 291500Z AUTO 09006KT 6SM 24/19 RMK SLP169 T02350186 52008 IEM_DS3505
ZGOW,1999-10-29 18:00,ZGOW 291800Z AUTO 09006KT 6SM 23/18 RMK 60003 SLP160 T02310184 57009 IEM_DS3505
ZGOW,1999-10-29 21:00,ZGOW 292100Z AUTO 00000KT 5SM 22/18 A3000 RMK 70003 SLP160 T02250184 54000 IEM_DS3505
ZGOW,1999-10-29 22:00,ZGOW 292200Z AUTO 09004KT 2 1/2SM 21/19 A3000 RMK T02100190 IEM_DS3505
ZGOW,1999-10-29 23:00,ZGOW 292300Z AUTO 07004KT 3SM 21/20 A3000 RMK T02100200 IEM_DS3505
ZGOW,1999-10-30 00:00,ZGOW 300000Z AUTO 09004KT 5SM 24/18 A3003 RMK SLP176 T02440184 52016 IEM_DS3505
ZGOW,1999-10-30 01:00,ZGOW 300100Z AUTO 07010G21KT 7SM 24/19 A3003 RMK T02400190 IEM_DS3505
ZGOW,1999-10-30 02:00,ZGOW 300200Z AUTO 08014KT 6SM 25/19 A3003 RMK T02500190 IEM_DS3505
ZGOW,1999-10-30 03:00,ZGOW 300300Z AUTO 09010KT 5SM 26/18 A3003 RMK SLP172 T02580177 57004 IEM_DS3505
ZGOW,1999-10-30 04:00,ZGOW 300400Z AUTO 08014KT 6SM 27/20 A3000 RMK T02700200 IEM_DS3505
ZGOW,1999-10-30 05:00,ZGOW 300500Z AUTO 09014KT 6SM 27/20 A2997 RMK T02700200 IEM_DS3505
ZGOW,1999-10-30 06:00,ZGOW 300600Z AUTO 04010KT 5SM 27/18 A2994 RMK SLP149 T02680178 57023 IEM_DS3505
ZGOW,1999-10-30 07:00,ZGOW 300700Z AUTO 07016G25KT 6SM 27/20 A2994 RMK T02700200 IEM_DS3505
ZGOW,1999-10-30 08:00,ZGOW 300800Z AUTO 07016KT 6SM 26/20 A2994 RMK T02600200 IEM_DS3505
ZGOW,1999-10-30 09:00,ZGOW 300900Z AUTO 09008KT 5SM 26/19 A2994 RMK SLP144 T02550186 57005 IEM_DS3505
ZGOW,1999-10-30 10:00,ZGOW 301000Z AUTO 07012KT 3SM 24/20 A2994 RMK T02400200 IEM_DS3505
ZGOW,1999-10-30 11:00,ZGOW 301100Z AUTO 08010KT 3SM 24/21 A2994 RMK T02400210 IEM_DS3505
ZGOW,1999-10-30 12:00,ZGOW 301200Z AUTO 04006KT 5SM 24/19 A2997 RMK SLP158 T02410193 52014 IEM_DS3505
ZGOW,1999-10-30 13:00,ZGOW 301300Z AUTO 09006KT 4SM 23/20 A3000 RMK T02300200 IEM_DS3505
ZGOW,1999-10-30 14:00,ZGOW 301400Z AUTO 10006KT 3SM 23/20 A3000 RMK T02300200 IEM_DS3505
ZGOW,1999-10-30 15:00,ZGOW 301500Z AUTO 09004KT 5SM 24/19 A3000 RMK SLP162 T02380190 52004 IEM_DS3505
ZGOW,1999-10-30 16:00,ZGOW 301600Z AUTO 08006KT 3SM 22/20 A2997 RMK T02200200 IEM_DS3505
ZGOW,1999-10-30 18:00,ZGOW 301800Z AUTO 09004KT 5SM 23/19 A2997 RMK SLP156 T02310187 57006 IEM_DS3505
ZGOW,1999-10-30 21:00,ZGOW 302100Z AUTO 36002KT 3SM 22/20 RMK SLP143 T02210201 57013 IEM_DS3505
ZGOW,1999-10-30 22:00,ZGOW 302200Z AUTO 34004KT 1 1/2SM 22/20 A2994 RMK T02200200 IEM_DS3505
ZGOW,1999-10-30 23:00,ZGOW 302300Z AUTO 34006KT 2SM 22/20 A2994 RMK T02200200 IEM_DS3505
ZGOW,1999-10-31 00:00,ZGOW 310000Z AUTO 02004KT 4SM 23/20 A2997 RMK SLP155 T02340197 52012 IEM_DS3505
ZGOW,1999-10-31 01:00,ZGOW 310100Z AUTO 34006KT 4SM 25/20 A2997 RMK T02500200 IEM_DS3505
ZGOW,1999-10-31 02:00,ZGOW 310200Z AUTO 35004KT 6SM 27/21 A2997 RMK T02700210 IEM_DS3505
ZGOW,1999-10-31 03:00,ZGOW 310300Z AUTO 07004KT 8SM 28/20 A2994 RMK SLP149 T02780196 57006 IEM_DS3505
ZGOW,1999-10-31 04:00,ZGOW 310400Z AUTO 09004KT 6SM 29/21 A2994 RMK T02900210 IEM_DS3505
ZGOW,1999-10-31 05:00,ZGOW 310500Z AUTO 13004KT 6SM 29/21 A2991 RMK T02900210 IEM_DS3505
ZGOW,1999-10-31 06:00,ZGOW 310600Z AUTO 11004KT 9SM 30/20 A2988 RMK SLP129 T03020205 57020 IEM_DS3505
ZGOW,1999-10-31 07:00,ZGOW 310700Z AUTO 13004KT 6SM 27/22 A2988 RMK T02700220 IEM_DS3505
ZGOW,1999-10-31 08:00,ZGOW 310800Z AUTO 12004KT 6SM 27/22 A2988 RMK T02700220 IEM_DS3505
ZGOW,1999-10-31 09:00,ZGOW 310900Z AUTO 16002KT 11SM 28/21 A2988 RMK SLP126 T02800213 57003 IEM_DS3505
ZGOW,1999-10-31 10:00,ZGOW 311000Z AUTO 13002KT 5SM 25/23 A2991 RMK T02500230 IEM_DS3505
ZGOW,1999-10-31 11:00,ZGOW 311100Z AUTO 12002KT 5SM 25/23 A2991 RMK T02500230 IEM_DS3505
ZGOW,1999-10-31 12:00,ZGOW 311200Z AUTO 00000KT 9SM 26/22 A2991 RMK SLP137 T02570215 52011 IEM_DS3505
ZGOW,1999-10-31 13:00,ZGOW 311300Z AUTO 15002KT 4SM 24/23 A2994 RMK T02400230 IEM_DS3505
ZGOW,1999-10-31 15:00,ZGOW 311500Z AUTO 00000KT 7SM 25/22 A2994 RMK SLP142 T02460222 52005 IEM_DS3505
ZGOW,1999-10-31 16:00,ZGOW 311600Z AUTO 00000KT 2 1/2SM 23/23 A2994 RMK T02300230 IEM_DS3505
ZGOW,1999-10-31 17:00,ZGOW 311700Z AUTO 00000KT 2 1/2SM 23/23 A2994 RMK T02300230 IEM_DS3505
ZGOW,1999-10-31 18:00,ZGOW 311800Z AUTO 00000KT 5SM 24/22 RMK SLP141 T02400216 57001 IEM_DS3505
ZGOW,1999-10-31 21:00,ZGOW 312100Z AUTO 04006KT 7SM 24/19 A2997 RMK SLP158 T02420191 52017 IEM_DS3505
ZGOW,1999-10-31 22:00,ZGOW 312200Z AUTO 34008KT 7SM 23/19 A3000 RMK T02300190 IEM_DS3505
ZGOW,1999-10-31 23:00,ZGOW 312300Z AUTO 33008KT 6SM 23/18 A3003 RMK T02300180 IEM_DS3505
ZGOW,1999-11-01 00:00,ZGOW 010000Z AUTO 36008KT 16SM 24/16 A3003 RMK SLP183 T02410159 52025 IEM_DS3505
ZGOW,1999-11-01 01:00,ZGOW 010100Z AUTO 34008KT 7SM 25/18 A3006 RMK T02500180 IEM_DS3505
ZGOW,1999-11-01 02:00,ZGOW 010200Z AUTO 34010KT 7SM 26/18 A3006 RMK T02600180 IEM_DS3505
ZGOW,1999-11-01 03:00,ZGOW 010300Z AUTO 07008KT 16SM 27/17 A3006 RMK SLP184 T02740167 52001 IEM_DS3505
ZGOW,1999-11-01 04:00,ZGOW 010400Z AUTO 32012KT 6SM 27/18 A3003 RMK T02700180 IEM_DS3505
ZGOW,1999-11-01 05:00,ZGOW 010500Z AUTO 33010KT 6SM 26/17 A3003 RMK T02600170 IEM_DS3505
ZGOW,1999-11-01 06:00,ZGOW 010600Z AUTO 34008KT 19SM 27/16 A3000 RMK SLP165 T02730156 57019 IEM_DS3505
ZGOW,1999-11-01 07:00,ZGOW 010700Z AUTO 34006KT 6SM 27/17 A3000 RMK T02700170 IEM_DS3505
ZGOW,1999-11-01 08:00,ZGOW 010800Z AUTO 07008KT 7SM 26/18 A3000 RMK T02600180 IEM_DS3505
ZGOW,1999-11-01 09:00,ZGOW 010900Z AUTO 04006KT 16SM 25/15 A3003 RMK SLP170 T02520147 52005 IEM_DS3505
ZGOW,1999-11-01 10:00,ZGOW 011000Z AUTO 36004KT 7SM 24/17 A3006 RMK T02400170 IEM_DS3505
ZGOW,1999-11-01 11:00,ZGOW 011100Z AUTO 34006KT 7SM 23/16 A3006 RMK T02300160 IEM_DS3505
ZGOW,1999-11-01 12:00,ZGOW 011200Z AUTO 04006KT 11SM 22/13 A3009 RMK SLP198 T02190134 52028 IEM_DS3505
ZGOW,1999-11-01 13:00,ZGOW 011300Z AUTO 33008KT 7SM 21/15 A3012 RMK T02100150 IEM_DS3505
ZGOW,1999-11-01 15:00,ZGOW 011500Z AUTO 07006KT 10SM 20/12 RMK SLP209 T01990122 52011 IEM_DS3505
ZGOW,1999-11-01 18:00,ZGOW 011800Z AUTO 36006KT 9SM 18/11 RMK SLP206 T01840108 57003 IEM_DS3505
ZGOW,1999-11-01 21:00,ZGOW 012100Z AUTO 04004KT 8SM 18/10 RMK SLP215 T01760103 52009 IEM_DS3505
ZGOW,1999-11-01 22:00,ZGOW 012200Z AUTO 34006KT 6SM 17/12 A3015 RMK T01700120 IEM_DS3505
ZGOW,1999-11-01 23:00,ZGOW 012300Z AUTO 34006KT 6SM 17/12 A3018 RMK T01700120 IEM_DS3505
ZGOW,1999-11-02 00:00,ZGOW 020000Z AUTO 02004KT 10SM 18/10 A3021 RMK SLP231 T01770102 52016 IEM_DS3505
ZGOW,1999-11-02 01:00,ZGOW 020100Z AUTO 33006KT 18/12 A3021 RMK T01800120 IEM_DS3505
ZGOW,1999-11-02 02:00,ZGOW 020200Z AUTO 34008KT 6SM 21/12 A3021 RMK T02100120 IEM_DS3505
ZGOW,1999-11-02 03:00,ZGOW 020300Z AUTO 02008KT 14SM 21/10 A3018 RMK SLP221 T02120104 57010 IEM_DS3505
ZGOW,1999-11-02 04:00,ZGOW 020400Z AUTO 03008KT 6SM 23/11 A3015 RMK T02300110 IEM_DS3505
ZGOW,1999-11-02 05:00,ZGOW 020500Z AUTO 07010KT 6SM 24/12 A3009 RMK T02400120 IEM_DS3505
ZGOW,1999-11-02 06:00,ZGOW 020600Z AUTO 07008KT 14SM 24/10 A3009 RMK SLP196 T02400098 57025 IEM_DS3505
ZGOW,1999-11-02 07:00,ZGOW 020700Z AUTO 06008KT 6SM 24/13 A3009 RMK T02400130 IEM_DS3505
ZGOW,1999-11-02 08:00,ZGOW 020800Z AUTO 08012KT 6SM 23/14 A3009 RMK T02300140 IEM_DS3505
ZGOW,1999-11-02 09:00,ZGOW 020900Z AUTO 07008KT 11SM 22/13 A3009 RMK SLP200 T02240128 52004 IEM_DS3505
ZGOW,1999-11-02 10:00,ZGOW 021000Z AUTO 08012KT 6SM 21/16 A3012 RMK T02100160 IEM_DS3505
ZGOW,1999-11-02 11:00,ZGOW 021100Z AUTO 08010KT 6SM 20/16 A3015 RMK T02000160 IEM_DS3505
ZGOW,1999-11-02 12:00,ZGOW 021200Z AUTO 07010KT 9SM 21/14 A3018 RMK SLP223 T02080141 52023 IEM_DS3505
ZGOW,1999-11-02 13:00,ZGOW 021300Z AUTO 07014KT 6SM 20/15 A3018 RMK T02000150 IEM_DS3505
ZGOW,1999-11-02 14:00,ZGOW 021400Z AUTO 07014KT 6SM 19/13 A3018 RMK T01900130 IEM_DS3505
ZGOW,1999-11-02 15:00,ZGOW 021500Z AUTO 07008KT 9SM 20/12 A3018 RMK SLP226 T01960119 52003 IEM_DS3505
ZGOW,1999-11-02 16:00,ZGOW 021600Z AUTO 06008KT 4SM 18/13 A3015 RMK T01800130 IEM_DS3505
ZGOW,1999-11-02 17:00,ZGOW 021700Z AUTO 04008KT 6SM 17/12 A3015 RMK T01700120 IEM_DS3505
ZGOW,1999-11-02 18:00,ZGOW 021800Z AUTO 07006KT 7SM 19/10 A3012 RMK SLP208 T01860097 57018 IEM_DS3505
ZGOW,1999-11-02 19:00,ZGOW 021900Z AUTO 04004KT 4SM 16/12 A3012 RMK T01600120 IEM_DS3505
ZGOW,1999-11-02 21:00,ZGOW 022100Z AUTO 02002KT 6SM 16/12 A3012 RMK SLP202 T01590119 57006 IEM_DS3505
ZGOW,1999-11-02 22:00,ZGOW 022200Z AUTO 32004KT 4SM 15/12 A3012 RMK T01500120 IEM_DS3505
ZGOW,1999-11-02 23:00,ZGOW 022300Z AUTO 32008KT 6SM 16/12 A3015 RMK T01600120 IEM_DS3505
ZGOW,1999-11-03 00:00,ZGOW 030000Z AUTO 09006KT 9SM 18/10 A3018 RMK SLP224 T01770104 52022 IEM_DS3505
ZGOW,1999-11-03 01:00,ZGOW 030100Z AUTO 32006KT 6SM 19/12 A3018 RMK T01900120 IEM_DS3505
ZGOW,1999-11-03 02:00,ZGOW 030200Z AUTO 04006KT 6SM 22/12 A3018 RMK T02200120 IEM_DS3505
ZGOW,1999-11-03 03:00,ZGOW 030300Z AUTO 09006KT 11SM 22/11 A3015 RMK SLP217 T02210109 57007 IEM_DS3505
ZGOW,1999-11-03 04:00,ZGOW 030400Z AUTO 06008KT 6SM 24/13 A3012 RMK T02400130 IEM_DS3505
ZGOW,1999-11-03 05:00,ZGOW 030500Z AUTO 08012KT 6SM 24/14 A3012 RMK T02400140 IEM_DS3505
ZGOW,1999-11-03 06:00,ZGOW 030600Z AUTO 07010KT 12SM 24/13 A3012 RMK SLP192 T02380127 57025 IEM_DS3505
ZGOW,1999-11-03 07:00,ZGOW 030700Z AUTO 09014KT 6SM 24/16 A3006 RMK T02400160 IEM_DS3505
ZGOW,1999-11-03 08:00,ZGOW 030800Z AUTO 08016KT 6SM 23/15 A3006 RMK T02300150 IEM_DS3505
ZGOW,1999-11-03 09:00,ZGOW 030900Z AUTO 04008KT 9SM 23/14 A3009 RMK SLP189 T02270144 57003 IEM_DS3505
ZGOW,1999-11-03 10:00,ZGOW 031000Z AUTO 08012KT 6SM 21/17 A3009 RMK T02100170 IEM_DS3505
ZGOW,1999-11-03 11:00,ZGOW 031100Z AUTO 08012KT 6SM 21/17 A3009 RMK T02100170 IEM_DS3505
ZGOW,1999-11-03 12:00,ZGOW 031200Z AUTO 07008KT 9SM 22/16 A3012 RMK SLP204 T02150155 52015 IEM_DS3505
ZGOW,1999-11-03 13:00,ZGOW 031300Z AUTO 07010KT 6SM 21/16 A3012 RMK T02100160 IEM_DS3505
ZGOW,1999-11-03 14:00,ZGOW 031400Z AUTO 07008KT 6SM 20/16 A3012 RMK T02000160 IEM_DS3505
ZGOW,1999-11-03 15:00,ZGOW 031500Z AUTO 07006KT 8SM 20/15 RMK SLP204 T02040148 54000 IEM_DS3505
ZGOW,1999-11-03 18:00,ZGOW 031800Z AUTO 07004KT 8SM 19/14 RMK SLP190 T01920140 57014 IEM_DS3505
ZGOW,1999-11-03 21:00,ZGOW 032100Z AUTO 04002KT 5SM 17/15 RMK SLP186 T01740148 57004 IEM_DS3505
ZGOW,1999-11-03 22:00,ZGOW 032200Z AUTO 09002KT 4SM 16/15 A3009 RMK T01600150 IEM_DS3505
ZGOW,1999-11-03 23:00,ZGOW 032300Z AUTO 07004KT 4SM 17/15 A3009 RMK T01700150 IEM_DS3505
ZGOW,1999-11-04 00:00,ZGOW 040000Z AUTO 07002KT 5SM 19/15 A3009 RMK SLP202 T01940150 52016 IEM_DS3505
ZGOW,1999-11-04 01:00,ZGOW 040100Z AUTO 04010KT 6SM 22/15 A3012 RMK T02200150 IEM_DS3505
ZGOW,1999-11-04 02:00,ZGOW 040200Z AUTO 06012KT 6SM 24/15 A3012 RMK T02400150 IEM_DS3505
ZGOW,1999-11-04 03:00,ZGOW 040300Z AUTO 09008KT 12SM 24/14 A3012 RMK SLP203 T02400136 52001 IEM_DS3505
ZGOW,1999-11-04 04:00,ZGOW 040400Z AUTO 08014KT 6SM 25/16 A3009 RMK T02500160 IEM_DS3505
ZGOW,1999-11-04 05:00,ZGOW 040500Z AUTO 05016KT 6SM 26/16 A3006 RMK T02600160 IEM_DS3505
ZGOW,1999-11-04 06:00,ZGOW 040600Z AUTO 04010KT 12SM 26/14 A3003 RMK SLP174 T02560142 57029 IEM_DS3505
ZGOW,1999-11-04 07:00,ZGOW 040700Z AUTO 08014KT 6SM 25/17 A3003 RMK T02500170 IEM_DS3505
ZGOW,1999-11-04 08:00,ZGOW 040800Z AUTO 08016KT 6SM 23/17 A3003 RMK T02300170 IEM_DS3505
ZGOW,1999-11-04 09:00,ZGOW 040900Z AUTO 09008KT 11SM 23/15 A3003 RMK SLP179 T02320150 52005 IEM_DS3505
ZGOW,1999-11-04 10:00,ZGOW 041000Z AUTO 08014KT 6SM 22/16 A3006 RMK T02200160 IEM_DS3505
ZGOW,1999-11-04 11:00,ZGOW 041100Z AUTO 07014KT 6SM 21/15 A3006 RMK T02100150 IEM_DS3505
ZGOW,1999-11-04 12:00,ZGOW 041200Z AUTO 09008KT 9SM 22/14 A3009 RMK SLP192 T02160145 52013 IEM_DS3505
ZGOW,1999-11-04 13:00,ZGOW 041300Z AUTO 05012KT 6SM 21/15 A3009 RMK T02100150 IEM_DS3505
ZGOW,1999-11-04 15:00,ZGOW 041500Z AUTO 04006KT 8SM 21/14 RMK SLP191 T02070140 57001 IEM_DS3505
ZGOW,1999-11-04 18:00,ZGOW 041800Z AUTO 04006KT 7SM 20/14 RMK SLP176 T01990136 57015 IEM_DS3505
ZGOW,1999-11-04 21:00,ZGOW 042100Z AUTO 02002KT 7SM 19/14 RMK SLP180 T01880145 52004 IEM_DS3505
ZGOW,1999-11-04 22:00,ZGOW 042200Z AUTO 34004KT 3SM 18/16 A3003 RMK T01800160 IEM_DS3505
ZGOW,1999-11-05 00:00,ZGOW 050000Z AUTO 36004KT 10SM 21/15 A3006 RMK SLP189 T02100149 52009 IEM_DS3505
ZGOW,1999-11-05 01:00,ZGOW 050100Z AUTO 02002KT 6SM 23/16 A3009 RMK T02300160 IEM_DS3505
ZGOW,1999-11-05 02:00,ZGOW 050200Z AUTO 07008KT 6SM 25/17 A3009 RMK T02500170 IEM_DS3505
ZGOW,1999-11-05 03:00,ZGOW 050300Z AUTO 09008KT 11SM 24/15 A3006 RMK SLP185 T02450154 57004 IEM_DS3505
ZGOW,1999-11-05 04:00,ZGOW 050400Z AUTO 07012KT 6SM 26/18 A3003 RMK T02600180 IEM_DS3505
ZGOW,1999-11-05 06:00,ZGOW 050600Z AUTO 09008KT 12SM 26/16 A2997 RMK SLP157 T02580159 57028 IEM_DS3505
ZGOW,1999-11-05 07:00,ZGOW 050700Z AUTO 08014KT 6SM 26/19 A2997 RMK T02600190 IEM_DS3505
ZGOW,1999-11-05 08:00,ZGOW 050800Z AUTO 08014KT 6SM 25/18 A2997 RMK T02500180 IEM_DS3505
ZGOW,1999-11-05 09:00,ZGOW 050900Z AUTO 07006KT 12SM 24/17 A2997 RMK SLP157 T02430171 54000 IEM_DS3505
ZGOW,1999-11-05 10:00,ZGOW 051000Z AUTO 08012KT 6SM 22/18 A3000 RMK T02200180 IEM_DS3505
ZGOW,1999-11-05 11:00,ZGOW 051100Z AUTO 08012KT 6SM 22/19 A3000 RMK T02200190 IEM_DS3505
ZGOW,1999-11-05 12:00,ZGOW 051200Z AUTO 04010KT 11SM 23/18 A3003 RMK SLP175 T02260176 52018 IEM_DS3505
ZGOW,1999-11-05 13:00,ZGOW 051300Z AUTO 07010KT 6SM 22/18 A3003 RMK T02200180 IEM_DS3505
ZGOW,1999-11-05 14:00,ZGOW 051400Z AUTO 06008KT 6SM 21/18 A3003 RMK T02100180 IEM_DS3505
ZGOW,1999-11-05 15:00,ZGOW 051500Z AUTO 04008KT 11SM 22/17 RMK SLP179 T02180167 52004 IEM_DS3505
ZGOW,1999-11-05 18:00,ZGOW 051800Z AUTO 00000KT 9SM 20/16 RMK SLP167 T01990164 57012 IEM_DS3505
ZGOW,1999-11-05 21:00,ZGOW 052100Z AUTO 04002KT 9SM 19/16 A3000 RMK SLP165 T01870164 57002 IEM_DS3505
ZGOW,1999-11-05 22:00,ZGOW 052200Z AUTO 33004KT 2SM 18/17 A3003 RMK T01800170 IEM_DS3505
ZGOW,1999-11-05 23:00,ZGOW 052300Z AUTO 33006KT 2SM 19/18 A3003 RMK T01900180 IEM_DS3505
ZGOW,1999-11-06 00:00,ZGOW 060000Z AUTO 04004KT 7SM 22/17 A3006 RMK SLP180 T02200166 52015 IEM_DS3505
ZGOW,1999-11-06 01:00,ZGOW 060100Z AUTO 36004KT 6SM 24/19 A3006 RMK T02400190 IEM_DS3505
ZGOW,1999-11-06 02:00,ZGOW 060200Z AUTO 06010KT 6SM 26/19 A3006 RMK T02600190 IEM_DS3505
ZGOW,1999-11-06 03:00,ZGOW 060300Z AUTO 09008KT 16SM 26/17 A3006 RMK SLP180 T02580172 54000 IEM_DS3505
ZGOW,1999-11-06 04:00,ZGOW 060400Z AUTO 09008KT 6SM 27/19 A3003 RMK T02700190 IEM_DS3505
ZGOW,1999-11-06 05:00,ZGOW 060500Z AUTO 10006KT 6SM 27/20 A3000 RMK T02700200 IEM_DS3505
ZGOW,1999-11-06 06:00,ZGOW 060600Z AUTO 14006KT 17SM 28/18 A2994 RMK SLP148 T02750179 57032 IEM_DS3505
ZGOW,1999-11-06 07:00,ZGOW 060700Z AUTO 12008KT 6SM 26/20 A2994 RMK T02600200 IEM_DS3505
ZGOW,1999-11-06 08:00,ZGOW 060800Z AUTO 11008KT 6SM 26/21 A2994 RMK T02600210 IEM_DS3505
ZGOW,1999-11-06 09:00,ZGOW 060900Z AUTO 09006KT 12SM 25/19 A2994 RMK SLP147 T02480190 57001 IEM_DS3505
ZGOW,1999-11-06 10:00,ZGOW 061000Z AUTO 10004KT 6SM 23/20 A2997 RMK T02300200 IEM_DS3505
ZGOW,1999-11-06 11:00,ZGOW 061100Z AUTO 08010KT 6SM 23/20 A2997 RMK T02300200 IEM_DS3505
ZGOW,1999-11-06 12:00,ZGOW 061200Z AUTO 09008KT 9SM 24/19 A3000 RMK SLP166 T02370188 52019 IEM_DS3505
ZGOW,1999-11-06 13:00,ZGOW 061300Z AUTO 09006KT 6SM 22/20 A3003 RMK T02200200 IEM_DS3505
ZGOW,1999-11-06 14:00,ZGOW 061400Z AUTO 08006KT 6SM 22/20 A3003 RMK T02200200 IEM_DS3505
ZGOW,1999-11-06 15:00,ZGOW 061500Z AUTO 09006KT 8SM 23/19 RMK SLP174 T02290190 52008 IEM_DS3505
ZGOW,1999-11-06 18:00,ZGOW 061800Z AUTO 09006KT 7SM 22/19 RMK SLP167 T02220186 57007 IEM_DS3505
ZGOW,1999-11-06 21:00,ZGOW 062100Z AUTO 36002KT 5SM 21/19 RMK SLP165 T02070186 57002 IEM_DS3505
ZGOW,1999-11-06 22:00,ZGOW 062200Z AUTO 34004KT 2 1/2SM 20/19 A3000 RMK T02000190 IEM_DS3505
ZGOW,1999-11-06 23:00,ZGOW 062300Z AUTO 33004KT 2 1/2SM 20/19 A3000 RMK T02000190 IEM_DS3505
ZGOW,1999-11-07 00:00,ZGOW 070000Z AUTO 02004KT 5SM 22/19 A3000 RMK SLP170 T02220192 52005 IEM_DS3505
ZGOW,1999-11-07 01:00,ZGOW 070100Z AUTO 34002KT 4SM 24/20 A3003 RMK T02400200 IEM_DS3505
ZGOW,1999-11-07 02:00,ZGOW 070200Z AUTO 08008KT 6SM 25/18 A3000 RMK T02500180 IEM_DS3505
ZGOW,1999-11-07 03:00,ZGOW 070300Z AUTO 04004KT 9SM 27/18 A3000 RMK SLP163 T02660178 57007 IEM_DS3505
ZGOW,1999-11-07 04:00,ZGOW 070400Z AUTO 07008KT 6SM 27/19 A2997 RMK T02700190 IEM_DS3505
ZGOW,1999-11-07 05:00,ZGOW 070500Z AUTO 10006KT 6SM 27/19 A2994 RMK T02700190 IEM_DS3505
ZGOW,1999-11-07 06:00,ZGOW 070600Z AUTO 14004KT 12SM 26/19 A2991 RMK SLP135 T02580186 57028 IEM_DS3505
ZGOW,1999-11-07 07:00,ZGOW 070700Z AUTO 13006KT 6SM 26/20 A2991 RMK T02600200 IEM_DS3505
ZGOW,1999-11-07 08:00,ZGOW 070800Z AUTO 11008KT 6SM 25/20 A2991 RMK T02500200 IEM_DS3505
ZGOW,1999-11-07 09:00,ZGOW 070900Z AUTO 09006KT 9SM 25/19 A2991 RMK SLP135 T02480187 54000 IEM_DS3505
ZGOW,1999-11-07 10:00,ZGOW 071000Z AUTO 13002KT 6SM 23/20 A2994 RMK T02300200 IEM_DS3505
ZGOW,1999-11-07 11:00,ZGOW 071100Z AUTO 09004KT 6SM 23/20 A2994 RMK T02300200 IEM_DS3505
ZGOW,1999-11-07 12:00,ZGOW 071200Z AUTO 09004KT 8SM 24/19 A2997 RMK SLP153 T02350193 52018 IEM_DS3505
ZGOW,1999-11-07 13:00,ZGOW 071300Z AUTO 08008KT 6SM 23/19 A2997 RMK T02300190 IEM_DS3505
ZGOW,1999-11-07 14:00,ZGOW 071400Z AUTO 07006KT 6SM 22/19 A2997 RMK T02200190 IEM_DS3505
ZGOW,1999-11-07 15:00,ZGOW 071500Z AUTO 04004KT 8SM 23/18 RMK SLP152 T02300182 57001 IEM_DS3505
ZGOW,1999-11-07 17:00,ZGOW 071700Z AUTO 07006KT 6SM 22/20 A2994 RMK T02200200 IEM_DS3505
ZGOW,1999-11-07 18:00,ZGOW 071800Z AUTO 04004KT 7SM 22/19 A2991 RMK SLP141 T02240191 57011 IEM_DS3505
ZGOW,1999-11-07 21:00,ZGOW 072100Z AUTO 04002KT 6SM 22/19 A2991 RMK SLP138 T02190187 57003 IEM_DS3505
ZGOW,1999-11-07 22:00,ZGOW 072200Z AUTO 02002KT 3SM 21/19 A2994 RMK T02100190 IEM_DS3505
ZGOW,1999-11-07 23:00,ZGOW 072300Z AUTO 01004KT 2 1/2SM 21/20 A2994 RMK T02100200 IEM_DS3505
ZGOW,1999-11-08 00:00,ZGOW 080000Z AUTO 04002KT 6SM 22/20 A2997 RMK SLP152 T02240196 52014 IEM_DS3505
ZGOW,1999-11-08 01:00,ZGOW 080100Z AUTO 35006KT 4SM 24/19 A2997 RMK T02400190 IEM_DS3505
ZGOW,1999-11-08 02:00,ZGOW 080200Z AUTO 33002KT 3SM 25/20 A2997 RMK T02500200 IEM_DS3505
ZGOW,1999-11-08 03:00,ZGOW 080300Z AUTO 14004KT 9SM 26/18 A2997 RMK SLP153 T02590179 52001 IEM_DS3505
ZGOW,1999-11-08 05:00,ZGOW 080500Z AUTO 08012KT 6SM 26/19 A2991 RMK T02600190 IEM_DS3505
ZGOW,1999-11-08 06:00,ZGOW 080600Z AUTO 14006KT 10SM 26/19 A2991 RMK SLP129 T02550186 57024 IEM_DS3505
ZGOW,1999-11-08 07:00,ZGOW 080700Z AUTO 08012KT 6SM 25/19 A2988 RMK T02500190 IEM_DS3505
ZGOW,1999-11-08 08:00,ZGOW 080800Z AUTO 08012KT 7SM 24/18 A2988 RMK T02400180 IEM_DS3505
ZGOW,1999-11-08 09:00,ZGOW 080900Z AUTO 09008KT 8SM 24/15 A2991 RMK SLP130 T02450153 52001 IEM_DS3505
ZGOW,1999-11-08 10:00,ZGOW 081000Z AUTO 08010KT 6SM 23/19 A2991 RMK T02300190 IEM_DS3505
ZGOW,1999-11-08 11:00,ZGOW 081100Z AUTO 06014KT 5SM 22/19 A2991 RMK T02200190 IEM_DS3505
ZGOW,1999-11-08 12:00,ZGOW 081200Z AUTO 04006KT 7SM 23/17 A2991 RMK 60003 SLP139 T02290167 52009 IEM_DS3505
ZGOW,1999-11-08 13:00,ZGOW 081300Z AUTO 06008KT 4SM 22/18 A2994 RMK T02200180 IEM_DS3505
ZGOW,1999-11-08 14:00,ZGOW 081400Z AUTO 02002KT 5SM 22/19 A2994 RMK T02200190 IEM_DS3505
ZGOW,1999-11-08 15:00,ZGOW 081500Z AUTO 07002KT 6SM 22/18 A2997 RMK SLP151 T02250177 52012 IEM_DS3505
ZGOW,1999-11-08 16:00,ZGOW 081600Z AUTO 09004KT 4SM 22/19 A2994 RMK T02200190 IEM_DS3505
ZGOW,1999-11-08 18:00,ZGOW 081800Z AUTO 09006KT 7SM 22/16 A2991 RMK 60003 SLP141 T02220159 57010 IEM_DS3505
ZGOW,1999-11-08 19:00,ZGOW 081900Z AUTO 07006KT 6SM 22/16 A2994 RMK T02200160 IEM_DS3505
ZGOW,1999-11-08 20:00,ZGOW 082000Z AUTO 06008KT 5SM 21/16 A2991 RMK T02100160 IEM_DS3505
ZGOW,1999-11-08 21:00,ZGOW 082100Z AUTO 09006KT 6SM 22/14 A2991 RMK 70003 SLP138 T02200142 57003 IEM_DS3505
ZGOW,1999-11-08 22:00,ZGOW 082200Z AUTO 30002KT 3SM 21/19 A2994 RMK T02100190 IEM_DS3505
ZGOW,1999-11-08 23:00,ZGOW 082300Z AUTO 00000KT 2SM 21/19 A2994 RMK T02100190 IEM_DS3505
ZGOW,1999-11-09 00:00,ZGOW 090000Z AUTO 34002KT 3SM 22/18 A2997 RMK 60000 SLP157 T02150178 52019 IEM_DS3505
ZGOW,1999-11-09 01:00,ZGOW 090100Z AUTO 07008KT 2 1/2SM 22/17 A3000 RMK T02200170 IEM_DS3505
ZGOW,1999-11-09 02:00,ZGOW 090200Z AUTO 07008KT 2 1/2SM 22/17 A3000 RMK T02200170 IEM_DS3505
ZGOW,1999-11-09 03:00,ZGOW 090300Z AUTO 09006KT 2 1/2SM 23/17 A2997 RMK SLP160 T02340168 52003 IEM_DS3505
ZGOW,1999-11-09 04:00,ZGOW 090400Z AUTO 08008KT 2 1/2SM 24/18 A2997 RMK T02400180 IEM_DS3505
ZGOW,1999-11-09 05:00,ZGOW 090500Z AUTO 08006KT 2 1/2SM 24/18 A2994 RMK T02400180 IEM_DS3505
ZGOW,1999-11-09 06:00,ZGOW 090600Z AUTO 09004KT 2 1/2SM 23/17 A2994 RMK SLP143 T02310166 57017 IEM_DS3505
ZGOW,1999-11-09 07:00,ZGOW 090700Z AUTO 04004KT 2 1/2SM 23/17 A2994 RMK T02300170 IEM_DS3505
ZGOW,1999-11-09 08:00,ZGOW 090800Z AUTO 05004KT 2 1/2SM 22/18 A2994 RMK T02200180 IEM_DS3505
ZGOW,1999-11-09 09:00,ZGOW 090900Z AUTO 29002KT 1 1/4SM 21/18 A2994 RMK SLP147 T02080184 52004 IEM_DS3505
ZGOW,1999-11-09 10:00,ZGOW 091000Z AUTO 07006KT 2SM 22/18 A2994 RMK T02200180 IEM_DS3505
ZGOW,1999-11-09 11:00,ZGOW 091100Z AUTO 10006KT 2 1/2SM 22/18 A2997 RMK T02200180 IEM_DS3505
ZGOW,1999-11-09 12:00,ZGOW 091200Z AUTO 04006KT 2 1/2SM 22/16 A3000 RMK 60003 SLP162 T02220163 52015 IEM_DS3505
ZGOW,1999-11-09 13:00,ZGOW 091300Z AUTO 08008KT 4SM 22/17 A3000 RMK T02200170 IEM_DS3505
ZGOW,1999-11-09 14:00,ZGOW 091400Z AUTO 07010KT 22/16 A3000 RMK T02200160 IEM_DS3505
ZGOW,1999-11-09 15:00,ZGOW 091500Z AUTO 09004KT 6SM 22/14 RMK SLP170 T02190142 52008 IEM_DS3505
ZGOW,1999-11-09 18:00,ZGOW 091800Z AUTO 07008KT 6SM 21/14 RMK SLP159 T02120142 57011 IEM_DS3505
ZGOW,1999-11-09 21:00,ZGOW 092100Z AUTO 09008KT 7SM 21/13 RMK 70003 SLP163 T02080133 52004 IEM_DS3505
ZGOW,1999-11-10 00:00,ZGOW 100000Z AUTO 04008KT 9SM 21/12 A3003 RMK SLP175 T02080125 52012 IEM_DS3505
ZGOW,1999-11-10 01:00,ZGOW 100100Z AUTO 06012KT 6SM 21/14 A3003 RMK T02100140 IEM_DS3505
ZGOW,1999-11-10 02:00,ZGOW 100200Z AUTO 08010KT 6SM 23/15 A3003 RMK T02300150 IEM_DS3505
ZGOW,1999-11-10 03:00,ZGOW 100300Z AUTO 04006KT 9SM 24/14 A3003 RMK SLP173 T02380142 57002 IEM_DS3505
ZGOW,1999-11-10 05:00,ZGOW 100500Z AUTO 09008KT 6SM 24/16 A2997 RMK T02400160 IEM_DS3505
ZGOW,1999-11-10 06:00,ZGOW 100600Z AUTO 18004KT 9SM 24/16 A2997 RMK SLP152 T02380156 57021 IEM_DS3505
ZGOW,1999-11-10 07:00,ZGOW 100700Z AUTO 11010KT 6SM 23/17 A2997 RMK T02300170 IEM_DS3505
ZGOW,1999-11-10 08:00,ZGOW 100800Z AUTO 11006KT 6SM 23/18 A2997 RMK T02300180 IEM_DS3505
ZGOW,1999-11-10 09:00,ZGOW 100900Z AUTO 09004KT 7SM 23/16 A2997 RMK SLP153 T02260164 52001 IEM_DS3505
ZGOW,1999-11-10 10:00,ZGOW 101000Z AUTO 11004KT 4SM 21/18 A2997 RMK T02100180 IEM_DS3505
ZGOW,1999-11-10 11:00,ZGOW 101100Z AUTO 10004KT 6SM 21/18 A2997 RMK T02100180 IEM_DS3505
ZGOW,1999-11-10 12:00,ZGOW 101200Z AUTO 09004KT 6SM 21/17 A3000 RMK SLP161 T02140170 52008 IEM_DS3505
ZGOW,1999-11-10 14:00,ZGOW 101400Z AUTO 07002KT 6SM 19/17 A3000 RMK T01900170 IEM_DS3505
ZGOW,1999-11-10 15:00,ZGOW 101500Z AUTO 04004KT 6SM 21/18 RMK SLP168 T02090177 52007 IEM_DS3505
ZGOW,1999-11-10 18:00,ZGOW 101800Z AUTO 02002KT 6SM 20/18 RMK SLP152 T02010177 57016 IEM_DS3505
ZGOW,1999-11-10 21:00,ZGOW 102100Z AUTO 07004KT 4SM 20/17 A2994 RMK SLP143 T01980172 57009 IEM_DS3505
ZGOW,1999-11-10 22:00,ZGOW 102200Z AUTO 03006KT 3SM 18/17 A2994 RMK T01800170 IEM_DS3505
ZGOW,1999-11-10 23:00,ZGOW 102300Z AUTO 03004KT 2 1/2SM 19/18 A2994 RMK T01900180 IEM_DS3505
ZGOW,1999-11-11 00:00,ZGOW 110000Z AUTO 29002KT 4SM 21/18 A2997 RMK SLP157 T02060175 52014 IEM_DS3505
ZGOW,1999-11-11 01:00,ZGOW 110100Z AUTO 05004KT 4SM 22/18 A3000 RMK T02200180 IEM_DS3505
ZGOW,1999-11-11 02:00,ZGOW 110200Z AUTO 01002KT 6SM 23/17 A3000 RMK T02300170 IEM_DS3505
ZGOW,1999-11-11 03:00,ZGOW 110300Z AUTO 07002KT 6SM 24/17 A2997 RMK SLP157 T02410168 54000 IEM_DS3505
ZGOW,1999-11-11 04:00,ZGOW 110400Z AUTO 22002KT 3SM 24/18 A2994 RMK T02400180 IEM_DS3505
ZGOW,1999-11-11 05:00,ZGOW 110500Z AUTO 15004KT 24/18 A2991 RMK T02400180 IEM_DS3505
ZGOW,1999-11-11 06:00,ZGOW 110600Z AUTO 02002KT 6SM 24/18 A2991 RMK 60003 SLP133 T02400180 57024 IEM_DS3505
ZGOW,1999-11-11 07:00,ZGOW 110700Z AUTO 09004KT 3SM 23/20 A2991 RMK T02300200 IEM_DS3505
ZGOW,1999-11-11 08:00,ZGOW 110800Z AUTO 09004KT 3SM 23/19 A2988 RMK T02300190 IEM_DS3505
ZGOW,1999-11-11 09:00,ZGOW 110900Z AUTO 34004KT 4SM 23/19 RMK SLP127 T02290193 57006 IEM_DS3505
ZGOW,1999-11-11 10:00,ZGOW 111000Z AUTO 09002KT 2 1/2SM 22/19 A2988 RMK T02200190 IEM_DS3505
ZGOW,1999-11-11 11:00,ZGOW 111100Z AUTO 00000KT 2 1/2SM 22/19 A2991 RMK T02200190 IEM_DS3505
ZGOW,1999-11-11 12:00,ZGOW 111200Z AUTO 00000KT 3SM 21/19 A2991 RMK 60003 SLP142 T02120192 52015 IEM_DS3505
ZGOW,1999-11-11 13:00,ZGOW 111300Z AUTO 02002KT 1 1/2SM 20/19 A2994 RMK T02000190 IEM_DS3505
ZGOW,1999-11-11 14:00,ZGOW 111400Z AUTO 29002KT 1 1/2SM 21/19 A2994 RMK T02100190 IEM_DS3505
ZGOW,1999-11-11 15:00,ZGOW 111500Z AUTO 00000KT 3SM 21/19 A2994 RMK SLP145 T02060189 52003 IEM_DS3505
ZGOW,1999-11-11 18:00,ZGOW 111800Z AUTO 04002KT 4SM 21/19 RMK SLP139 T02120187 57006 IEM_DS3505
ZGOW,1999-11-11 21:00,ZGOW 112100Z AUTO 02002KT 4SM 21/18 A2991 RMK 70003 SLP136 T02120182 57003 IEM_DS3505
ZGOW,1999-11-11 22:00,ZGOW 112200Z AUTO 01002KT 3SM 21/19 A2991 RMK T02100190 IEM_DS3505
ZGOW,1999-11-11 23:00,ZGOW 112300Z AUTO 35004KT 3SM 21/19 A2994 RMK T02100190 IEM_DS3505
ZGOW,1999-11-12 00:00,ZGOW 120000Z AUTO 36008KT 4SM 21/18 A2997 RMK SLP151 T02130179 52015 IEM_DS3505
ZGOW,1999-11-12 01:00,ZGOW 120100Z AUTO 32006KT 3SM 22/19 A3000 RMK T02200190 IEM_DS3505
ZGOW,1999-11-12 02:00,ZGOW 120200Z AUTO 32008KT 5SM 23/19 A3000 RMK T02300190 IEM_DS3505
ZGOW,1999-11-12 03:00,ZGOW 120300Z AUTO 04006KT 7SM 24/17 A2997 RMK SLP158 T02360173 52007 IEM_DS3505
ZGOW,1999-11-12 04:00,ZGOW 120400Z AUTO 29006KT 6SM 24/18 A2997 RMK T02400180 IEM_DS3505
ZGOW,1999-11-12 05:00,ZGOW 120500Z AUTO 30004KT 6SM 25/18 A2994 RMK T02500180 IEM_DS3505
ZGOW,1999-11-12 06:00,ZGOW 120600Z AUTO 09004KT 9SM 26/18 A2991 RMK SLP137 T02580176 57021 IEM_DS3505
ZGOW,1999-11-12 07:00,ZGOW 120700Z AUTO 11006KT 7SM 24/19 A2991 RMK T02400190 IEM_DS3505
ZGOW,1999-11-12 08:00,ZGOW 120800Z AUTO 08006KT 6SM 25/18 A2991 RMK T02500180 IEM_DS3505
ZGOW,1999-11-12 09:00,ZGOW 120900Z AUTO 04006KT 6SM 24/16 A2991 RMK SLP138 T02400164 52001 IEM_DS3505
ZGOW,1999-11-12 10:00,ZGOW 121000Z AUTO 08008KT 7SM 23/19 A2994 RMK T02300190 IEM_DS3505
ZGOW,1999-11-12 11:00,ZGOW 121100Z AUTO 09006KT 7SM 23/20 A2994 RMK T02300200 IEM_DS3505
ZGOW,1999-11-12 12:00,ZGOW 121200Z AUTO 04004KT 6SM 23/18 A2997 RMK SLP155 T02300182 52017 IEM_DS3505
ZGOW,1999-11-12 13:00,ZGOW 121300Z AUTO 09006KT 5SM 22/19 A2997 RMK T02200190 IEM_DS3505
ZGOW,1999-11-12 14:00,ZGOW 121400Z AUTO 08010KT 7SM 22/19 A2997 RMK T02200190 IEM_DS3505
ZGOW,1999-11-12 15:00,ZGOW 121500Z AUTO 09008KT 6SM 22/18 A2997 RMK SLP160 T02200182 52005 IEM_DS3505
ZGOW,1999-11-12 16:00,ZGOW 121600Z AUTO 08010KT 3SM 21/19 A3000 RMK T02100190 IEM_DS3505
ZGOW,1999-11-12 17:00,ZGOW 121700Z AUTO 08014KT 3SM 21/18 A2997 RMK T02100180 IEM_DS3505
ZGOW,1999-11-12 18:00,ZGOW 121800Z AUTO 09010KT 7SM 21/17 A2997 RMK SLP161 T02140170 52001 IEM_DS3505
ZGOW,1999-11-12 19:00,ZGOW 121900Z AUTO 07012KT 3SM 21/18 A2997 RMK T02100180 IEM_DS3505
ZGOW,1999-11-12 20:00,ZGOW 122000Z AUTO 06014KT 4SM 21/17 A2997 RMK T02100170 IEM_DS3505
ZGOW,1999-11-12 21:00,ZGOW 122100Z AUTO 09006KT 7SM 21/16 A2997 RMK SLP156 T02100159 57005 IEM_DS3505
ZGOW,1999-11-12 22:00,ZGOW 122200Z AUTO 07008KT 7SM 20/17 A3000 RMK T02000170 IEM_DS3505
ZGOW,1999-11-12 23:00,ZGOW 122300Z AUTO 07010KT 7SM 21/17 A3000 RMK T02100170 IEM_DS3505
ZGOW,1999-11-13 00:00,ZGOW 130000Z AUTO 09006KT 7SM 21/16 RMK SLP175 T02100158 52019 IEM_DS3505
ZGOW,1999-11-13 01:00,ZGOW 130100Z AUTO 07010KT 7SM 22/16 A3006 RMK T02200160 IEM_DS3505
ZGOW,1999-11-13 02:00,ZGOW 130200Z AUTO 07008KT 7SM 23/17 A3006 RMK T02300170 IEM_DS3505
ZGOW,1999-11-13 03:00,ZGOW 130300Z AUTO 04006KT 8SM 23/16 A3003 RMK SLP176 T02340156 52001 IEM_DS3505
ZGOW,1999-11-13 04:00,ZGOW 130400Z AUTO 09010KT 6SM 24/17 A3000 RMK T02400170 IEM_DS3505
ZGOW,1999-11-13 05:00,ZGOW 130500Z AUTO 09010KT 6SM 23/16 A2997 RMK T02300160 IEM_DS3505
ZGOW,1999-11-13 06:00,ZGOW 130600Z AUTO 04008KT 8SM 23/15 A2994 RMK SLP149 T02340147 57027 IEM_DS3505
ZGOW,1999-11-13 07:00,ZGOW 130700Z AUTO 07008KT 6SM 24/16 A2994 RMK T02400160 IEM_DS3505
ZGOW,1999-11-13 08:00,ZGOW 130800Z AUTO 09010KT 6SM 22/16 A2994 RMK T02200160 IEM_DS3505
ZGOW,1999-11-13 09:00,ZGOW 130900Z AUTO 04006KT 6SM 23/15 A2994 RMK SLP147 T02280149 57002 IEM_DS3505
ZGOW,1999-11-13 10:00,ZGOW 131000Z AUTO 09010KT 6SM 21/17 A2997 RMK T02100170 IEM_DS3505
ZGOW,1999-11-13 11:00,ZGOW 131100Z AUTO 08010KT 4SM 21/18 A2997 RMK T02100180 IEM_DS3505
ZGOW,1999-11-13 12:00,ZGOW 131200Z AUTO 11006KT 6SM 22/17 A2997 RMK SLP160 T02150169 52013 IEM_DS3505
ZGOW,1999-11-13 13:00,ZGOW 131300Z AUTO 08012KT 6SM 21/18 A3000 RMK T02100180 IEM_DS3505
ZGOW,1999-11-13 14:00,ZGOW 131400Z AUTO 08014KT 6SM 21/18 A3000 RMK T02100180 IEM_DS3505
ZGOW,1999-11-13 15:00,ZGOW 131500Z AUTO 04006KT 5SM 21/17 RMK SLP170 T02080169 52010 IEM_DS3505
ZGOW,1999-11-13 18:00,ZGOW 131800Z AUTO 07006KT 5SM 21/15 RMK SLP162 T02060152 57008 IEM_DS3505
ZGOW,1999-11-13 21:00,ZGOW 132100Z AUTO 04004KT 4SM 20/16 RMK SLP160 T01980158 57002 IEM_DS3505
ZGOW,1999-11-13 22:00,ZGOW 132200Z AUTO 04002KT 4SM 19/16 A3000 RMK T01900160 IEM_DS3505
ZGOW,1999-11-13 23:00,ZGOW 132300Z AUTO 05004KT 3SM 18/16 A3000 RMK T01800160 IEM_DS3505
ZGOW,1999-11-14 00:00,ZGOW 140000Z AUTO 04004KT 4SM 21/15 A3000 RMK SLP171 T02090150 52011 IEM_DS3505
ZGOW,1999-11-14 01:00,ZGOW 140100Z AUTO 10004KT 22/16 A3003 RMK T02200160 IEM_DS3505
ZGOW,1999-11-14 02:00,ZGOW 140200Z AUTO 06004KT 6SM 23/16 A3003 RMK T02300160 IEM_DS3505
ZGOW,1999-11-14 03:00,ZGOW 140300Z AUTO 04004KT 6SM 24/14 A3000 RMK SLP168 T02400140 57003 IEM_DS3505
ZGOW,1999-11-14 04:00,ZGOW 140400Z AUTO 08006KT 6SM 25/15 A2997 RMK T02500150 IEM_DS3505
ZGOW,1999-11-14 05:00,ZGOW 140500Z AUTO 09006KT 6SM 25/15 A2994 RMK T02500150 IEM_DS3505
ZGOW,1999-11-14 06:00,ZGOW 140600Z AUTO 14006KT 9SM 26/14 A2991 RMK SLP136 T02550145 57032 IEM_DS3505
ZGOW,1999-11-14 07:00,ZGOW 140700Z AUTO 13006KT 6SM 24/17 A2991 RMK T02400170 IEM_DS3505
ZGOW,1999-11-14 08:00,ZGOW 140800Z AUTO 13006KT 6SM 23/17 A2991 RMK T02300170 IEM_DS3505
ZGOW,1999-11-14 09:00,ZGOW 140900Z AUTO 14006KT 9SM 23/16 A2991 RMK SLP135 T02270158 57001 IEM_DS3505
ZGOW,1999-11-14 10:00,ZGOW 141000Z AUTO 11004KT 4SM 21/18 A2994 RMK T02100180 IEM_DS3505
ZGOW,1999-11-14 11:00,ZGOW 141100Z AUTO 10002KT 4SM 20/18 A2994 RMK T02000180 IEM_DS3505
ZGOW,1999-11-14 12:00,ZGOW 141200Z AUTO 11004KT 8SM 21/17 A2997 RMK SLP156 T02100174 52021 IEM_DS3505
ZGOW,1999-11-14 13:00,ZGOW 141300Z AUTO 01002KT 2 1/2SM 19/18 A3000 RMK T01900180 IEM_DS3505
ZGOW,1999-11-14 14:00,ZGOW 141400Z AUTO 35002KT 2 1/2SM 19/18 A3000 RMK T01900180 IEM_DS3505
ZGOW,1999-11-14 15:00,ZGOW 141500Z AUTO 00000KT 6SM 19/17 A3000 RMK SLP167 T01900172 52011 IEM_DS3505
ZGOW,1999-11-14 16:00,ZGOW 141600Z AUTO 02004KT 2SM 17/17 A3000 RMK T01700170 IEM_DS3505
ZGOW,1999-11-14 18:00,ZGOW 141800Z AUTO 04002KT 3SM 18/17 A3000 RMK SLP166 T01840169 57001 IEM_DS3505
ZGOW,1999-11-14 19:00,ZGOW 141900Z AUTO 32004KT 1SM 18/17 A2997 RMK T01800170 IEM_DS3505
ZGOW,1999-11-14 20:00,ZGOW 142000Z AUTO 33004KT 1SM 17/17 A2997 RMK T01700170 IEM_DS3505
ZGOW,1999-11-14 21:00,ZGOW 142100Z AUTO 04002KT 2 1/2SM 18/16 A2997 RMK SLP162 T01810164 57004 IEM_DS3505
ZGOW,1999-11-14 22:00,ZGOW 142200Z AUTO 36002KT 1 1/2SM 16/14 A3000 RMK T01600140 IEM_DS3505
ZGOW,1999-11-14 23:00,ZGOW 142300Z AUTO 00000KT 2 1/2SM 16/15 A3003 RMK T01600150 IEM_DS3505
ZGOW,1999-11-15 00:00,ZGOW 150000Z AUTO 36004KT 4SM 19/14 A3003 RMK SLP180 T01920138 52018 IEM_DS3505
ZGOW,1999-11-15 01:00,ZGOW 150100Z AUTO 36006KT 6SM 20/15 A3006 RMK T02000150 IEM_DS3505
ZGOW,1999-11-15 02:00,ZGOW 150200Z AUTO 34008KT 6SM 22/15 A3009 RMK T02200150 IEM_DS3505
ZGOW,1999-11-15 03:00,ZGOW 150300Z AUTO 02006KT 10SM 24/12 A3006 RMK SLP188 T02420122 52008 IEM_DS3505
ZGOW,1999-11-15 04:00,ZGOW 150400Z AUTO 07006KT 6SM 25/12 A3006 RMK T02500120 IEM_DS3505
ZGOW,1999-11-15 05:00,ZGOW 150500Z AUTO 12008KT 6SM 26/14 A3000 RMK T02600140 IEM_DS3505
ZGOW,1999-11-15 06:00,ZGOW 150600Z AUTO 18006KT 11SM 24/14 A3000 RMK SLP164 T02410135 57024 IEM_DS3505
ZGOW,1999-11-15 07:00,ZGOW 150700Z AUTO 12010KT 6SM 24/16 A3000 RMK T02400160 IEM_DS3505
ZGOW,1999-11-15 08:00,ZGOW 150800Z AUTO 12010KT 6SM 23/17 A3000 RMK T02300170 IEM_DS3505
ZGOW,1999-11-15 09:00,ZGOW 150900Z AUTO 09006KT 9SM 22/14 A3003 RMK SLP169 T02220142 52005 IEM_DS3505
ZGOW,1999-11-15 10:00,ZGOW 151000Z AUTO 09008KT 4SM 21/16 A3003 RMK T02100160 IEM_DS3505
ZGOW,1999-11-15 11:00,ZGOW 151100Z AUTO 08010KT 4SM 20/16 A3006 RMK T02000160 IEM_DS3505
ZGOW,1999-11-15 12:00,ZGOW 151200Z AUTO 09008KT 8SM 21/15 A3009 RMK SLP193 T02080152 52024 IEM_DS3505
ZGOW,1999-11-15 13:00,ZGOW 151300Z AUTO 07012KT 4SM 20/16 A3009 RMK T02000160 IEM_DS3505
ZGOW,1999-11-15 14:00,ZGOW 151400Z AUTO 06014KT 4SM 20/16 A3012 RMK T02000160 IEM_DS3505
ZGOW,1999-11-15 15:00,ZGOW 151500Z AUTO 04010KT 9SM 20/14 A3015 RMK SLP213 T02020138 52020 IEM_DS3505
ZGOW,1999-11-15 16:00,ZGOW 151600Z AUTO 05008KT 3SM 19/15 A3015 RMK T01900150 IEM_DS3505
ZGOW,1999-11-15 17:00,ZGOW 151700Z AUTO 03008KT 3SM 19/15 A3015 RMK T01900150 IEM_DS3505
ZGOW,1999-11-15 18:00,ZGOW 151800Z AUTO 04004KT 9SM 19/14 A3015 RMK SLP216 T01900140 52003 IEM_DS3505
ZGOW,1999-11-15 19:00,ZGOW 151900Z AUTO 03008KT 2 1/2SM 18/14 A3015 RMK T01800140 IEM_DS3505
ZGOW,1999-11-15 20:00,ZGOW 152000Z AUTO 06006KT 2SM 16/14 A3015 RMK T01600140 IEM_DS3505
ZGOW,1999-11-15 21:00,ZGOW 152100Z AUTO 07006KT 9SM 18/13 A3018 RMK SLP228 T01830130 52012 IEM_DS3505
ZGOW,1999-11-15 22:00,ZGOW 152200Z AUTO 06006KT 4SM 15/14 A3021 RMK T01500140 IEM_DS3505
ZGOW,1999-11-15 23:00,ZGOW 152300Z AUTO 04004KT 2 1/2SM 14/13 A3024 RMK T01400130 IEM_DS3505
ZGOW,1999-11-16 00:00,ZGOW 160000Z AUTO 04006KT 7SM 19/13 A3024 RMK SLP248 T01870126 52020 IEM_DS3505
ZGOW,1999-11-16 01:00,ZGOW 160100Z AUTO 05008KT 20/13 A3027 RMK T02000130 IEM_DS3505
ZGOW,1999-11-16 02:00,ZGOW 160200Z AUTO 07010KT 6SM 21/12 A3027 RMK T02100120 IEM_DS3505
ZGOW,1999-11-16 03:00,ZGOW 160300Z AUTO 04006KT 9SM 22/11 A3024 RMK SLP248 T02200114 54000 IEM_DS3505
ZGOW,1999-11-16 04:00,ZGOW 160400Z AUTO 09012KT 6SM 23/12 A3021 RMK T02300120 IEM_DS3505
ZGOW,1999-11-16 05:00,ZGOW 160500Z AUTO 09014KT 6SM 22/11 A3018 RMK T02200110 IEM_DS3505
ZGOW,1999-11-16 06:00,ZGOW 160600Z AUTO 09006KT 11SM 23/10 RMK SLP222 T02260104 57026 IEM_DS3505
ZGOW,1999-11-16 07:00,ZGOW 160700Z AUTO 08014KT 6SM 21/12 A3015 RMK T02100120 IEM_DS3505
ZGOW,1999-11-16 08:00,ZGOW 160800Z AUTO 08014KT 6SM 20/12 A3015 RMK T02000120 IEM_DS3505
ZGOW,1999-11-16 09:00,ZGOW 160900Z AUTO 07006KT 9SM 20/11 A3018 RMK SLP221 T02000106 57001 IEM_DS3505
ZGOW,1999-11-16 10:00,ZGOW 161000Z AUTO 08014KT 6SM 18/12 A3018 RMK T01800120 IEM_DS3505
ZGOW,1999-11-16 11:00,ZGOW 161100Z AUTO 08016KT 6SM 18/13 A3021 RMK T01800130 IEM_DS3505
ZGOW,1999-11-16 12:00,ZGOW 161200Z AUTO 07008KT 9SM 18/12 A3024 RMK SLP241 T01830118 52020 IEM_DS3505
ZGOW,1999-11-16 13:00,ZGOW 161300Z AUTO 07014KT 6SM 17/12 A3024 RMK T01700120 IEM_DS3505
ZGOW,1999-11-16 14:00,ZGOW 161400Z AUTO 06016KT 6SM 17/11 A3027 RMK T01700110 IEM_DS3505
ZGOW,1999-11-16 15:00,ZGOW 161500Z AUTO 04010KT 7SM 17/08 A3027 RMK SLP255 T01700081 52014 IEM_DS3505
ZGOW,1999-11-16 16:00,ZGOW 161600Z AUTO 06012KT 6SM 16/09 A3027 RMK T01600090 IEM_DS3505
ZGOW,1999-11-16 17:00,ZGOW 161700Z AUTO 04008KT 6SM 16/09 A3027 RMK T01600090 IEM_DS3505
ZGOW,1999-11-16 18:00,ZGOW 161800Z AUTO 04004KT 6SM 16/09 A3027 RMK SLP253 T01600088 57002 IEM_DS3505
ZGOW,1999-11-16 19:00,ZGOW 161900Z AUTO 34004KT 4SM 14/09 A3027 RMK T01400090 IEM_DS3505
ZGOW,1999-11-16 21:00,ZGOW 162100Z AUTO 04002KT 6SM 15/08 RMK SLP252 T01460080 57001 IEM_DS3505
ZGOW,1999-11-16 23:00,ZGOW 162300Z AUTO 33006KT 4SM 14/12 A3027 RMK T01400120 IEM_DS3505
ZGOW,1999-11-17 00:00,ZGOW 170000Z AUTO 02004KT 8SM 17/11 RMK SLP263 T01680112 52011 IEM_DS3505
ZGOW,1999-11-17 01:00,ZGOW 170100Z AUTO 34006KT 6SM 18/12 A3030 RMK T01800120 IEM_DS3505
ZGOW,1999-11-17 02:00,ZGOW 170200Z AUTO 02006KT 6SM 20/12 A3030 RMK T02000120 IEM_DS3505
ZGOW,1999-11-17 03:00,ZGOW 170300Z AUTO 02004KT 9SM 22/12 A3027 RMK SLP255 T02190117 57008 IEM_DS3505
ZGOW,1999-11-17 04:00,ZGOW 170400Z AUTO 05008KT 6SM 23/12 A3024 RMK T02300120 IEM_DS3505
ZGOW,1999-11-17 05:00,ZGOW 170500Z AUTO 09006KT 6SM 23/12 A3021 RMK T02300120 IEM_DS3505
ZGOW,1999-11-17 06:00,ZGOW 170600Z AUTO 36004KT 10SM 25/12 A3018 RMK SLP220 T02460118 57035 IEM_DS3505
ZGOW,1999-11-17 07:00,ZGOW 170700Z AUTO 13008KT 6SM 23/14 A3015 RMK T02300140 IEM_DS3505
ZGOW,1999-11-17 08:00,ZGOW 170800Z AUTO 13006KT 6SM 22/15 A3015 RMK T02200150 IEM_DS3505
ZGOW,1999-11-17 09:00,ZGOW 170900Z AUTO 09004KT 9SM 21/14 A3018 RMK SLP217 T02140140 57003 IEM_DS3505
ZGOW,1999-11-17 10:00,ZGOW 171000Z AUTO 08006KT 6SM 19/15 A3018 RMK T01900150 IEM_DS3505
ZGOW,1999-11-17 11:00,ZGOW 171100Z AUTO 09006KT 6SM 19/16 A3021 RMK T01900160 IEM_DS3505
ZGOW,1999-11-17 12:00,ZGOW 171200Z AUTO 09008KT 7SM 19/15 A3021 RMK SLP240 T01940150 52023 IEM_DS3505
ZGOW,1999-11-17 13:00,ZGOW 171300Z AUTO 04006KT 6SM 17/15 A3024 RMK T01700150 IEM_DS3505
ZGOW,1999-11-17 14:00,ZGOW 171400Z AUTO 04006KT 6SM 17/15 A3024 RMK T01700150 IEM_DS3505
ZGOW,1999-11-17 15:00,ZGOW 171500Z AUTO 04004KT 6SM 18/15 RMK SLP241 T01750147 52001 IEM_DS3505
ZGOW,1999-11-17 18:00,ZGOW 171800Z AUTO 02004KT 6SM 16/12 RMK SLP228 T01580115 57013 IEM_DS3505
ZGOW,1999-11-17 21:00,ZGOW 172100Z AUTO 02004KT 6SM 15/10 RMK SLP220 T01480098 57008 IEM_DS3505
ZGOW,1999-11-17 22:00,ZGOW 172200Z AUTO 33008KT 4SM 14/11 A3018 RMK T01400110 IEM_DS3505
ZGOW,1999-11-17 23:00,ZGOW 172300Z AUTO 33006KT 4SM 14/11 A3018 RMK T01400110 IEM_DS3505
ZGOW,1999-11-18 00:00,ZGOW 180000Z AUTO 04004KT 6SM 16/10 A3018 RMK SLP229 T01590100 52009 IEM_DS3505
ZGOW,1999-11-18 02:00,ZGOW 180200Z AUTO 34006KT 3SM 19/12 A3021 RMK T01900120 IEM_DS3505
ZGOW,1999-11-18 03:00,ZGOW 180300Z AUTO 09006KT 6SM 21/11 A3018 RMK SLP219 T02100110 57010 IEM_DS3505
ZGOW,1999-11-18 04:00,ZGOW 180400Z AUTO 07010KT 22/13 A3015 RMK T02200130 IEM_DS3505
ZGOW,1999-11-18 05:00,ZGOW 180500Z AUTO 08012KT 6SM 22/14 A3009 RMK T02200140 IEM_DS3505
ZGOW,1999-11-18 06:00,ZGOW 180600Z AUTO 11006KT 11SM 23/12 A3006 RMK SLP188 T02280125 57031 IEM_DS3505
ZGOW,1999-11-18 07:00,ZGOW 180700Z AUTO 09014KT 22/15 A3006 RMK T02200150 IEM_DS3505
ZGOW,1999-11-18 08:00,ZGOW 180800Z AUTO 08014KT 21/15 A3003 RMK T02100150 IEM_DS3505
ZGOW,1999-11-18 09:00,ZGOW 180900Z AUTO 09008KT 7SM 20/14 A3006 RMK SLP183 T02050138 57005 IEM_DS3505
ZGOW,1999-11-18 10:00,ZGOW 181000Z AUTO 08014KT 4SM 19/14 A3009 RMK T01900140 IEM_DS3505
ZGOW,1999-11-18 11:00,ZGOW 181100Z AUTO 09008KT 6SM 18/14 A3009 RMK T01800140 IEM_DS3505
ZGOW,1999-11-18 12:00,ZGOW 181200Z AUTO 07008KT 7SM 19/13 A3012 RMK SLP208 T01880130 52025 IEM_DS3505
ZGOW,1999-11-18 13:00,ZGOW 181300Z AUTO 08010KT 6SM 18/14 A3015 RMK T01800140 IEM_DS3505
ZGOW,1999-11-18 14:00,ZGOW 181400Z AUTO 07010KT 4SM 18/14 A3015 RMK T01800140 IEM_DS3505
ZGOW,1999-11-18 15:00,ZGOW 181500Z AUTO 07008KT 7SM 18/12 A3012 RMK SLP211 T01760124 52003 IEM_DS3505
ZGOW,1999-11-18 16:00,ZGOW 181600Z AUTO 06008KT 4SM 17/12 A3012 RMK T01700120 IEM_DS3505
ZGOW,1999-11-18 19:00,ZGOW 181900Z AUTO 34002KT 2 1/2SM 15/12 A3009 RMK T01500120 IEM_DS3505
ZGOW,1999-11-18 20:00,ZGOW 182000Z AUTO 34004KT 2SM 15/12 A3009 RMK T01500120 IEM_DS3505
ZGOW,1999-11-18 21:00,ZGOW 182100Z AUTO 04004KT 8SM 15/12 A3009 RMK SLP193 T01490119 57005 IEM_DS3505
ZGOW,1999-11-18 22:00,ZGOW 182200Z AUTO 33004KT 2SM 14/13 A3009 RMK T01400130 IEM_DS3505
ZGOW,1999-11-18 23:00,ZGOW 182300Z AUTO 33006KT 1 1/4SM 15/14 A3012 RMK T01500140 IEM_DS3505
ZGOW,1999-11-19 00:00,ZGOW 190000Z AUTO 02004KT 6SM 16/13 A3012 RMK SLP208 T01600129 52015 IEM_DS3505
ZGOW,1999-11-19 01:00,ZGOW 190100Z AUTO 34004KT 2 1/2SM 18/14 A3012 RMK T01800140 IEM_DS3505
ZGOW,1999-11-19 02:00,ZGOW 190200Z AUTO 02006KT 3SM 21/13 A3012 RMK T02100130 IEM_DS3505
ZGOW,1999-11-19 03:00,ZGOW 190300Z AUTO 09004KT 6SM 22/13 A3009 RMK SLP197 T02180133 57011 IEM_DS3505
ZGOW,1999-11-19 04:00,ZGOW 190400Z AUTO 07006KT 23/14 A3006 RMK T02300140 IEM_DS3505
ZGOW,1999-11-19 05:00,ZGOW 190500Z AUTO 08004KT 5SM 23/15 A3003 RMK T02300150 IEM_DS3505
ZGOW,1999-11-19 06:00,ZGOW 190600Z AUTO 14006KT 6SM 24/14 A3000 RMK SLP166 T02370145 57031 IEM_DS3505
ZGOW,1999-11-19 07:00,ZGOW 190700Z AUTO 13008KT 6SM 22/16 A3000 RMK T02200160 IEM_DS3505
ZGOW,1999-11-19 08:00,ZGOW 190800Z AUTO 12008KT 6SM 22/17 A3000 RMK T02200170 IEM_DS3505
ZGOW,1999-11-19 09:00,ZGOW 190900Z AUTO 09006KT 5SM 21/16 A3003 RMK SLP174 T02110158 52008 IEM_DS3505
ZGOW,1999-11-19 10:00,ZGOW 191000Z AUTO 09004KT 2 1/2SM 19/17 A3006 RMK T01900170 IEM_DS3505
ZGOW,1999-11-19 11:00,ZGOW 191100Z AUTO 08006KT 4SM 19/17 A3006 RMK T01900170 IEM_DS3505
ZGOW,1999-11-19 12:00,ZGOW 191200Z AUTO 04006KT 6SM 20/17 A3006 RMK SLP192 T01970167 52018 IEM_DS3505
ZGOW,1999-11-19 13:00,ZGOW 191300Z AUTO 06002KT 4SM 18/17 A3009 RMK T01800170 IEM_DS3505
ZGOW,1999-11-19 14:00,ZGOW 191400Z AUTO 05002KT 4SM 17/16 A3009 RMK T01700160 IEM_DS3505
ZGOW,1999-11-19 15:00,ZGOW 191500Z AUTO 04004KT 6SM 18/16 RMK SLP195 T01810161 52003 IEM_DS3505
ZGOW,1999-11-19 16:00,ZGOW 191600Z AUTO 00000KT 1SM 17/16 A3009 RMK T01700160 IEM_DS3505
ZGOW,1999-11-19 17:00,ZGOW 191700Z AUTO 00000KT 1SM 16/16 A3006 RMK T01600160 IEM_DS3505
ZGOW,1999-11-19 18:00,ZGOW 191800Z AUTO 04004KT 4SM 17/15 A3006 RMK SLP184 T01710154 57011 IEM_DS3505
ZGOW,1999-11-19 19:00,ZGOW 191900Z AUTO 32004KT 1SM 16/15 A3006 RMK T01600150 IEM_DS3505
ZGOW,1999-11-19 20:00,ZGOW 192000Z AUTO 33002KT 1SM 16/15 A3006 RMK T01600150 IEM_DS3505
ZGOW,1999-11-19 21:00,ZGOW 192100Z AUTO 04004KT 3SM 16/14 A3006 RMK SLP186 T01640145 52002 IEM_DS3505
ZGOW,1999-11-19 22:00,ZGOW 192200Z AUTO 31002KT 1 1/2SM 15/15 A3009 RMK T01500150 IEM_DS3505
ZGOW,1999-11-19 23:00,ZGOW 192300Z AUTO 32004KT 1 1/2SM 15/15 A3009 RMK T01500150 IEM_DS3505
ZGOW,1999-11-20 00:00,ZGOW 200000Z AUTO 02004KT 7SM 18/14 A3012 RMK SLP204 T01780140 52018 IEM_DS3505
ZGOW,1999-11-20 01:00,ZGOW 200100Z AUTO 30004KT 3SM 19/16 A3012 RMK T01900160 IEM_DS3505
ZGOW,1999-11-20 02:00,ZGOW 200200Z AUTO 34004KT 4SM 21/16 A3012 RMK T02100160 IEM_DS3505
ZGOW,1999-11-20 03:00,ZGOW 200300Z AUTO 04006KT 10SM 23/15 A3012 RMK SLP202 T02340152 57002 IEM_DS3505
ZGOW,1999-11-20 04:00,ZGOW 200400Z AUTO 08008KT 6SM 24/16 A3006 RMK T02400160 IEM_DS3505
ZGOW,1999-11-20 05:00,ZGOW 200500Z AUTO 08008KT 6SM 25/16 A3006 RMK T02500160 IEM_DS3505
ZGOW,1999-11-20 06:00,ZGOW 200600Z AUTO 09010KT 9SM 24/16 A3003 RMK SLP173 T02390160 57029 IEM_DS3505
ZGOW,1999-11-20 07:00,ZGOW 200700Z AUTO 09012KT 6SM 24/17 A3003 RMK T02400170 IEM_DS3505
ZGOW,1999-11-20 08:00,ZGOW 200800Z AUTO 08014KT 6SM 23/17 A3003 RMK T02300170 IEM_DS3505
ZGOW,1999-11-20 09:00,ZGOW 200900Z AUTO 09006KT 9SM 23/16 A3003 RMK SLP177 T02260162 52004 IEM_DS3505
ZGOW,1999-11-20 10:00,ZGOW 201000Z AUTO 08014KT 7SM 21/18 A3003 RMK T02100180 IEM_DS3505
ZGOW,1999-11-20 11:00,ZGOW 201100Z AUTO 08014KT 7SM 20/18 A3006 RMK T02000180 IEM_DS3505
ZGOW,1999-11-20 12:00,ZGOW 201200Z AUTO 04008KT 9SM 21/17 A3009 RMK SLP194 T02070169 52017 IEM_DS3505
ZGOW,1999-11-20 13:00,ZGOW 201300Z AUTO 08012KT 7SM 20/18 A3012 RMK T02000180 IEM_DS3505
ZGOW,1999-11-20 14:00,ZGOW 201400Z AUTO 08012KT 6SM 20/18 A3012 RMK T02000180 IEM_DS3505
ZGOW,1999-11-20 15:00,ZGOW 201500Z AUTO 04008KT 9SM 20/16 A3012 RMK SLP202 T02020164 52008 IEM_DS3505
ZGOW,1999-11-20 16:00,ZGOW 201600Z AUTO 03008KT 6SM 19/17 A3009 RMK T01900170 IEM_DS3505
ZGOW,1999-11-20 18:00,ZGOW 201800Z AUTO 00000KT 7SM 18/16 RMK SLP192 T01800162 57010 IEM_DS3505
ZGOW,1999-11-20 21:00,ZGOW 202100Z AUTO 02004KT 6SM 18/16 RMK SLP185 T01750162 57007 IEM_DS3505
ZGOW,1999-11-20 22:00,ZGOW 202200Z AUTO 32004KT 2 1/2SM 17/17 A3006 RMK T01700170 IEM_DS3505
ZGOW,1999-11-20 23:00,ZGOW 202300Z AUTO 33004KT 2 1/2SM 17/16 A3009 RMK T01700160 IEM_DS3505
ZGOW,1999-11-21 00:00,ZGOW 210000Z AUTO 04004KT 2 1/2SM 19/16 A3012 RMK SLP202 T01910163 52017 IEM_DS3505
ZGOW,1999-11-21 01:00,ZGOW 210100Z AUTO 09004KT 7SM 23/16 A3012 RMK SLP166 T02320165 IEM_DS3505
ZGOW,1999-11-21 02:00,ZGOW 210200Z AUTO 08010KT 6SM 23/16 A3012 RMK T02300160 IEM_DS3505
ZGOW,1999-11-21 03:00,ZGOW 210300Z AUTO 04008KT 7SM 24/16 A3012 RMK SLP203 T02380157 52001 IEM_DS3505
ZGOW,1999-11-21 04:00,ZGOW 210400Z AUTO 09014KT 6SM 24/17 A3009 RMK T02400170 IEM_DS3505
ZGOW,1999-11-21 05:00,ZGOW 210500Z AUTO 08014KT 6SM 24/17 A3003 RMK T02400170 IEM_DS3505
ZGOW,1999-11-21 06:00,ZGOW 210600Z AUTO 14004KT 7SM 25/16 A3000 RMK SLP167 T02490165 57036 IEM_DS3505
ZGOW,1999-11-21 07:00,ZGOW 210700Z AUTO 08010KT 6SM 25/17 A3000 RMK T02500170 IEM_DS3505
ZGOW,1999-11-21 08:00,ZGOW 210800Z AUTO 08012KT 6SM 23/17 A3000 RMK T02300170 IEM_DS3505
ZGOW,1999-11-21 09:00,ZGOW 210900Z AUTO 09004KT 7SM 23/16 A3000 RMK SLP166 T02320165 57001 IEM_DS3505
ZGOW,1999-11-21 10:00,ZGOW 211000Z AUTO 08010KT 6SM 21/18 A3003 RMK T02100180 IEM_DS3505
ZGOW,1999-11-21 11:00,ZGOW 211100Z AUTO 08012KT 6SM 21/18 A3006 RMK T02100180 IEM_DS3505
ZGOW,1999-11-21 12:00,ZGOW 211200Z AUTO 07006KT 6SM 21/17 A3006 RMK SLP188 T02140174 52022 IEM_DS3505
ZGOW,1999-11-21 13:00,ZGOW 211300Z AUTO 07008KT 6SM 20/19 A3006 RMK T02000190 IEM_DS3505
ZGOW,1999-11-21 14:00,ZGOW 211400Z AUTO 08010KT 6SM 20/19 A3009 RMK T02000190 IEM_DS3505
ZGOW,1999-11-21 15:00,ZGOW 211500Z AUTO 07010KT 6SM 21/18 RMK SLP196 T02080179 52008 IEM_DS3505
ZGOW,1999-11-21 18:00,ZGOW 211800Z AUTO 04004KT 6SM 20/18 RMK SLP182 T02040177 57014 IEM_DS3505
ZGOW,1999-11-21 21:00,ZGOW 212100Z AUTO 07004KT 6SM 20/18 A3003 RMK SLP179 T01950177 57003 IEM_DS3505
ZGOW,1999-11-21 22:00,ZGOW 212200Z AUTO 00000KT 1 1/2SM 19/18 A3006 RMK T01900180 IEM_DS3505
ZGOW,1999-11-21 23:00,ZGOW 212300Z AUTO 31002KT 1 1/4SM 19/18 A3006 RMK T01900180 IEM_DS3505
ZGOW,1999-11-22 00:00,ZGOW 220000Z AUTO 04004KT 2 1/2SM 21/18 A3009 RMK SLP197 T02090175 52018 IEM_DS3505
ZGOW,1999-11-22 02:00,ZGOW 220200Z AUTO 34004KT 2 1/2SM 23/18 A3012 RMK T02300180 IEM_DS3505
ZGOW,1999-11-22 03:00,ZGOW 220300Z AUTO 04006KT 5SM 25/18 A3009 RMK SLP197 T02500175 54000 IEM_DS3505
ZGOW,1999-11-22 04:00,ZGOW 220400Z AUTO 09008KT 25/18 A3006 RMK T02500180 IEM_DS3505
ZGOW,1999-11-22 05:00,ZGOW 220500Z AUTO 08008KT 6SM 26/19 A3003 RMK T02600190 IEM_DS3505
ZGOW,1999-11-22 06:00,ZGOW 220600Z AUTO 09006KT 8SM 25/17 A3000 RMK SLP170 T02500170 57027 IEM_DS3505
ZGOW,1999-11-22 07:00,ZGOW 220700Z AUTO 12006KT 25/19 A3000 RMK T02500190 IEM_DS3505
ZGOW,1999-11-22 08:00,ZGOW 220800Z AUTO 13006KT 4SM 24/19 A3000 RMK T02400190 IEM_DS3505
ZGOW,1999-11-22 09:00,ZGOW 220900Z AUTO 11006KT 8SM 23/18 A3000 RMK SLP164 T02280182 57006 IEM_DS3505
ZGOW,1999-11-22 10:00,ZGOW 221000Z AUTO 11006KT 3SM 21/19 A3000 RMK T02100190 IEM_DS3505
ZGOW,1999-11-22 11:00,ZGOW 221100Z AUTO 09002KT 4SM 20/19 A3003 RMK T02000190 IEM_DS3505
ZGOW,1999-11-22 12:00,ZGOW 221200Z AUTO 00000KT 7SM 21/18 A3003 RMK SLP180 T02130184 52016 IEM_DS3505
ZGOW,1999-11-22 13:00,ZGOW 221300Z AUTO 03004KT 2 1/2SM 20/19 A3006 RMK T02000190 IEM_DS3505
ZGOW,1999-11-22 14:00,ZGOW 221400Z AUTO 04004KT 2 1/2SM 20/19 A3006 RMK T02000190 IEM_DS3505
ZGOW,1999-11-22 15:00,ZGOW 221500Z AUTO 04004KT 7SM 21/19 A3006 RMK SLP183 T02080186 52003 IEM_DS3505
ZGOW,1999-11-22 16:00,ZGOW 221600Z AUTO 02004KT 2 1/2SM 19/19 A3003 RMK T01900190 IEM_DS3505
ZGOW,1999-11-22 17:00,ZGOW 221700Z AUTO 04004KT 2SM 19/19 A3003 RMK T01900190 IEM_DS3505
ZGOW,1999-11-22 18:00,ZGOW 221800Z AUTO 00000KT 5SM 20/18 A3003 RMK SLP170 T01980184 57013 IEM_DS3505
ZGOW,1999-11-22 19:00,ZGOW 221900Z AUTO 34004KT 1 1/4SM 19/18 A3000 RMK T01900180 IEM_DS3505
ZGOW,1999-11-22 20:00,ZGOW 222000Z AUTO 34004KT 1SM 19/18 A3000 RMK T01900180 IEM_DS3505
ZGOW,1999-11-22 21:00,ZGOW 222100Z AUTO 04002KT 1 1/4SM 18/18 A3000 RMK SLP166 T01850175 57004 IEM_DS3505
ZGOW,1999-11-22 22:00,ZGOW 222200Z AUTO 33002KT 1SM 18/18 A3000 RMK T01800180 IEM_DS3505
ZGOW,1999-11-22 23:00,ZGOW 222300Z AUTO 00000KT 3/8SM 18/18 A3003 RMK T01800180 IEM_DS3505
ZGOW,1999-11-23 00:00,ZGOW 230000Z AUTO 09004KT 2SM 20/18 A3003 RMK SLP182 T01970178 52016 IEM_DS3505
ZGOW,1999-11-23 01:00,ZGOW 230100Z AUTO 06006KT 2SM 21/20 A3006 RMK T02100200 IEM_DS3505
ZGOW,1999-11-23 03:00,ZGOW 230300Z AUTO 11004KT 5SM 24/19 A3006 RMK SLP185 T02430187 52003 IEM_DS3505
ZGOW,1999-11-23 04:00,ZGOW 230400Z AUTO 09006KT 5SM 25/19 A3003 RMK T02500190 IEM_DS3505
ZGOW,1999-11-23 05:00,ZGOW 230500Z AUTO 13006KT 4SM 25/20 A3000 RMK T02500200 IEM_DS3505
ZGOW,1999-11-23 06:00,ZGOW 230600Z AUTO 14006KT 6SM 25/19 A2997 RMK SLP155 T02500189 57030 IEM_DS3505
ZGOW,1999-11-23 07:00,ZGOW 230700Z AUTO 09006KT 25/19 A2997 RMK T02500190 IEM_DS3505
ZGOW,1999-11-23 08:00,ZGOW 230800Z AUTO 14004KT 6SM 24/19 A2994 RMK T02400190 IEM_DS3505
ZGOW,1999-11-23 09:00,ZGOW 230900Z AUTO 11004KT 6SM 23/19 A2994 RMK SLP149 T02320186 57006 IEM_DS3505
ZGOW,1999-11-23 10:00,ZGOW 231000Z AUTO 04002KT 6SM 21/19 A2997 RMK T02100190 IEM_DS3505
ZGOW,1999-11-23 11:00,ZGOW 231100Z AUTO 07008KT 6SM 21/18 A2997 RMK T02100180 IEM_DS3505
ZGOW,1999-11-23 12:00,ZGOW 231200Z AUTO 18004KT 6SM 21/18 A3000 RMK SLP166 T02110175 52017 IEM_DS3505
ZGOW,1999-11-23 13:00,ZGOW 231300Z AUTO 10004KT 6SM 20/17 A3000 RMK T02000170 IEM_DS3505
ZGOW,1999-11-23 14:00,ZGOW 231400Z AUTO 07004KT 6SM 20/18 A3000 RMK T02000180 IEM_DS3505
ZGOW,1999-11-23 15:00,ZGOW 231500Z AUTO 07002KT 6SM 20/17 A3000 RMK SLP169 T01980167 52003 IEM_DS3505
ZGOW,1999-11-23 16:00,ZGOW 231600Z AUTO 07002KT 6SM 20/18 A3000 RMK T02000180 IEM_DS3505
ZGOW,1999-11-23 17:00,ZGOW 231700Z AUTO 06010KT 6SM 20/19 A3000 RMK T02000190 IEM_DS3505
ZGOW,1999-11-23 18:00,ZGOW 231800Z AUTO 04004KT 6SM 20/18 A3000 RMK SLP169 T01980179 54000 IEM_DS3505
ZGOW,1999-11-23 19:00,ZGOW 231900Z AUTO 34004KT 2 1/2SM 18/18 A3000 RMK T01800180 IEM_DS3505
ZGOW,1999-11-23 20:00,ZGOW 232000Z AUTO 35004KT 1SM 18/17 A3000 RMK T01800170 IEM_DS3505
ZGOW,1999-11-23 21:00,ZGOW 232100Z AUTO 00000KT 4SM 18/17 A3000 RMK SLP171 T01840174 52002 IEM_DS3505
ZGOW,1999-11-23 22:00,ZGOW 232200Z AUTO 31002KT 1 1/4SM 18/17 A3003 RMK T01800170 IEM_DS3505
ZGOW,1999-11-23 23:00,ZGOW 232300Z AUTO 31004KT 1SM 17/17 A3006 RMK T01700170 IEM_DS3505
ZGOW,1999-11-24 00:00,ZGOW 240000Z AUTO 04002KT 2 1/2SM 20/18 A3006 RMK SLP185 T01980179 52014 IEM_DS3505
ZGOW,1999-11-24 01:00,ZGOW 240100Z AUTO 34004KT 1 1/2SM 20/19 A3006 RMK T02000190 IEM_DS3505
ZGOW,1999-11-24 02:00,ZGOW 240200Z AUTO 35006KT 2SM 22/19 A3006 RMK T02200190 IEM_DS3505
ZGOW,1999-11-24 03:00,ZGOW 240300Z AUTO 04006KT 3SM 24/16 A3003 RMK SLP181 T02430165 57004 IEM_DS3505
ZGOW,1999-11-24 04:00,ZGOW 240400Z AUTO 04006KT 5SM 25/18 A3000 RMK T02500180 IEM_DS3505
ZGOW,1999-11-24 05:00,ZGOW 240500Z AUTO 09004KT 6SM 26/17 A2997 RMK T02600170 IEM_DS3505
ZGOW,1999-11-24 06:00,ZGOW 240600Z AUTO 09006KT 8SM 26/17 A2994 RMK SLP146 T02600171 57035 IEM_DS3505
ZGOW,1999-11-24 07:00,ZGOW 240700Z AUTO 15006KT 6SM 25/19 A2994 RMK T02500190 IEM_DS3505
ZGOW,1999-11-24 08:00,ZGOW 240800Z AUTO 14008KT 6SM 23/19 A2994 RMK T02300190 IEM_DS3505
ZGOW,1999-11-24 09:00,ZGOW 240900Z AUTO 14006KT 8SM 23/18 A2994 RMK SLP142 T02260182 57004 IEM_DS3505
ZGOW,1999-11-24 10:00,ZGOW 241000Z AUTO 12004KT 4SM 20/19 A2994 RMK T02000190 IEM_DS3505
ZGOW,1999-11-24 11:00,ZGOW 241100Z AUTO 12002KT 3SM 20/19 A2994 RMK T02000190 IEM_DS3505
ZGOW,1999-11-24 12:00,ZGOW 241200Z AUTO 00000KT 7SM 21/18 A2997 RMK SLP153 T02090185 52011 IEM_DS3505
ZGOW,1999-11-24 13:00,ZGOW 241300Z AUTO 00000KT 2 1/2SM 20/19 A2997 RMK T02000190 IEM_DS3505
ZGOW,1999-11-24 14:00,ZGOW 241400Z AUTO 00000KT 1 1/4SM 20/19 A2997 RMK T02000190 IEM_DS3505
ZGOW,1999-11-24 15:00,ZGOW 241500Z AUTO 09002KT 6SM 20/18 A2997 RMK SLP158 T01960185 52005 IEM_DS3505
ZGOW,1999-11-24 16:00,ZGOW 241600Z AUTO 34004KT 1SM 19/19 A2997 RMK T01900190 IEM_DS3505
ZGOW,1999-11-24 18:00,ZGOW 241800Z AUTO 04002KT 2SM 19/18 A2994 RMK SLP153 T01900179 57005 IEM_DS3505
ZGOW,1999-11-24 19:00,ZGOW 241900Z AUTO 33002KT 3/8SM 18/18 A2994 RMK T01800180 IEM_DS3505
ZGOW,1999-11-24 20:00,ZGOW 242000Z AUTO 32002KT 3/8SM 18/18 A2994 RMK T01800180 IEM_DS3505
ZGOW,1999-11-24 21:00,ZGOW 242100Z AUTO 04004KT 1/2SM 19/18 A2994 RMK SLP150 T01860178 57003 IEM_DS3505
ZGOW,1999-11-24 22:00,ZGOW 242200Z AUTO 00000KT 1SM 17/17 A2997 RMK T01700170 IEM_DS3505
ZGOW,1999-11-24 23:00,ZGOW 242300Z AUTO 29002KT 1SM 17/17 A2997 RMK T01700170 IEM_DS3505
ZGOW,1999-11-25 00:00,ZGOW 250000Z AUTO 04002KT 3/8SM 20/18 A3000 RMK SLP162 T01950176 52012 IEM_DS3505
ZGOW,1999-11-25 01:00,ZGOW 250100Z AUTO 00000KT 1 1/4SM 20/19 A3000 RMK T02000190 IEM_DS3505
ZGOW,1999-11-25 02:00,ZGOW 250200Z AUTO 07002KT 2SM 22/19 A3000 RMK T02200190 IEM_DS3505
ZGOW,1999-11-25 03:00,ZGOW 250300Z AUTO 11002KT 2SM 24/18 A2997 RMK SLP160 T02440183 57002 IEM_DS3505
ZGOW,1999-11-25 04:00,ZGOW 250400Z AUTO 15004KT 4SM 25/20 A2997 RMK T02500200 IEM_DS3505
ZGOW,1999-11-25 05:00,ZGOW 250500Z AUTO 06004KT 6SM 26/18 A2994 RMK T02600180 IEM_DS3505
ZGOW,1999-11-25 06:00,ZGOW 250600Z AUTO 14006KT 4SM 26/19 A2991 RMK SLP137 T02650187 57023 IEM_DS3505
ZGOW,1999-11-25 07:00,ZGOW 250700Z AUTO 11006KT 6SM 24/20 A2991 RMK T02400200 IEM_DS3505
ZGOW,1999-11-25 08:00,ZGOW 250800Z AUTO 08010KT 6SM 23/18 A2991 RMK T02300180 IEM_DS3505
ZGOW,1999-11-25 09:00,ZGOW 250900Z AUTO 09004KT 5SM 23/16 A2991 RMK SLP139 T02280164 52002 IEM_DS3505
ZGOW,1999-11-25 10:00,ZGOW 251000Z AUTO 08012KT 6SM 21/18 A2994 RMK T02100180 IEM_DS3505
ZGOW,1999-11-25 11:00,ZGOW 251100Z AUTO 08010KT 6SM 20/18 A2994 RMK T02000180 IEM_DS3505
ZGOW,1999-11-25 12:00,ZGOW 251200Z AUTO 07008KT 5SM 21/17 A2994 RMK SLP151 T02090168 52012 IEM_DS3505
ZGOW,1999-11-25 13:00,ZGOW 251300Z AUTO 09012KT 6SM 21/18 A2997 RMK T02100180 IEM_DS3505
ZGOW,1999-11-25 15:00,ZGOW 251500Z AUTO 04008KT 5SM 21/17 RMK SLP154 T02060168 52003 IEM_DS3505
ZGOW,1999-11-25 18:00,ZGOW 251800Z AUTO 09008KT 2 1/2SM 20/16 RMK SLP152 T01990157 57002 IEM_DS3505
ZGOW,1999-11-25 21:00,ZGOW 252100Z AUTO 09008KT 4SM 19/15 A3000 RMK SLP159 T01920149 52007 IEM_DS3505
ZGOW,1999-11-25 22:00,ZGOW 252200Z AUTO 06010KT 2 1/2SM 18/16 A3000 RMK T01800160 IEM_DS3505
ZGOW,1999-11-25 23:00,ZGOW 252300Z AUTO 03004KT 1 1/2SM 17/15 A3003 RMK T01700150 IEM_DS3505
ZGOW,1999-11-26 00:00,ZGOW 260000Z AUTO 04002KT 4SM 19/15 A3003 RMK SLP176 T01910152 52017 IEM_DS3505
ZGOW,1999-11-26 01:00,ZGOW 260100Z AUTO 04006KT 4SM 21/16 A3006 RMK SLP156 T02120163 51001 IEM_DS3505
ZGOW,1999-11-26 02:00,ZGOW 260200Z AUTO 03010KT 2 1/2SM 22/16 A3006 RMK T02200160 IEM_DS3505
ZGOW,1999-11-26 03:00,ZGOW 260300Z AUTO 04008KT 4SM 23/14 A3006 RMK SLP183 T02290143 52007 IEM_DS3505
ZGOW,1999-11-26 04:00,ZGOW 260400Z AUTO 07010KT 24/16 A3003 RMK T02400160 IEM_DS3505
ZGOW,1999-11-26 06:00,ZGOW 260600Z AUTO 09006KT 5SM 24/15 A2997 RMK SLP157 T02390149 57026 IEM_DS3505
ZGOW,1999-11-26 07:00,ZGOW 260700Z AUTO 08014KT 23/17 A2997 RMK T02300170 IEM_DS3505
ZGOW,1999-11-26 08:00,ZGOW 260800Z AUTO 08012KT 5SM 22/17 A2997 RMK T02200170 IEM_DS3505
ZGOW,1999-11-26 09:00,ZGOW 260900Z AUTO 04006KT 4SM 21/16 A2997 RMK SLP156 T02120163 57001 IEM_DS3505
ZGOW,1999-11-26 10:00,ZGOW 261000Z AUTO 08012KT 5SM 20/17 A3000 RMK T02000170 IEM_DS3505
ZGOW,1999-11-26 11:00,ZGOW 261100Z AUTO 08014KT 5SM 20/17 A3003 RMK T02000170 IEM_DS3505
ZGOW,1999-11-26 12:00,ZGOW 261200Z AUTO 07006KT 4SM 20/16 A3003 RMK SLP181 T01990155 52025 IEM_DS3505
ZGOW,1999-11-26 14:00,ZGOW 261400Z AUTO 07019G29KT 6SM 19/16 A3003 RMK T01900160 IEM_DS3505
ZGOW,1999-11-26 15:00,ZGOW 261500Z AUTO 09010KT 4SM 19/15 A3003 RMK SLP182 T01880149 52001 IEM_DS3505
ZGOW,1999-11-26 16:00,ZGOW 261600Z AUTO 07016KT 5SM 18/15 A3003 RMK T01800150 IEM_DS3505
ZGOW,1999-11-26 17:00,ZGOW 261700Z AUTO 06012KT 6SM 18/15 A3006 RMK T01800150 IEM_DS3505
ZGOW,1999-11-26 18:00,ZGOW 261800Z AUTO 04008KT 5SM 18/14 A3003 RMK SLP178 T01840142 57004 IEM_DS3505
ZGOW,1999-11-26 19:00,ZGOW 261900Z AUTO 06010KT 6SM 18/15 A3003 RMK T01800150 IEM_DS3505
ZGOW,1999-11-26 20:00,ZGOW 262000Z AUTO 01004KT 4SM 17/15 A3003 RMK T01700150 IEM_DS3505
ZGOW,1999-11-26 21:00,ZGOW 262100Z AUTO 04002KT 6SM 17/15 RMK SLP179 T01700148 52001 IEM_DS3505
ZGOW,1999-11-26 23:00,ZGOW 262300Z AUTO 01002KT 6SM 16/14 A3006 RMK T01600140 IEM_DS3505
ZGOW,1999-11-27 00:00,ZGOW 270000Z AUTO 02002KT 6SM 18/15 A3006 RMK SLP194 T01820148 52015 IEM_DS3505
ZGOW,1999-11-27 01:00,ZGOW 270100Z AUTO 31004KT 2 1/2SM 19/16 A3009 RMK T01900160 IEM_DS3505
ZGOW,1999-11-27 02:00,ZGOW 270200Z AUTO 03004KT 7SM 22/15 A3009 RMK T02200150 IEM_DS3505
ZGOW,1999-11-27 03:00,ZGOW 270300Z AUTO 04006KT 7SM 23/14 A3009 RMK SLP194 T02310143 54000 IEM_DS3505
ZGOW,1999-11-27 04:00,ZGOW 270400Z AUTO 06006KT 23/16 A3006 RMK T02300160 IEM_DS3505
ZGOW,1999-11-27 05:00,ZGOW 270500Z AUTO 10006KT 5SM 24/16 A3003 RMK T02400160 IEM_DS3505
ZGOW,1999-11-27 06:00,ZGOW 270600Z AUTO 36006KT 7SM 25/15 A3000 RMK SLP165 T02470151 57029 IEM_DS3505
ZGOW,1999-11-27 07:00,ZGOW 270700Z AUTO 08006KT 3SM 24/17 A3000 RMK T02400170 IEM_DS3505
ZGOW,1999-11-27 08:00,ZGOW 270800Z AUTO 07006KT 3SM 24/17 A2997 RMK T02400170 IEM_DS3505
ZGOW,1999-11-27 09:00,ZGOW 270900Z AUTO 11006KT 7SM 22/17 A2997 RMK SLP156 T02200170 57009 IEM_DS3505
ZGOW,1999-11-27 10:00,ZGOW 271000Z AUTO 09004KT 2 1/2SM 20/18 A3000 RMK T02000180 IEM_DS3505
ZGOW,1999-11-27 11:00,ZGOW 271100Z AUTO 08010KT 6SM 20/18 A3003 RMK T02000180 IEM_DS3505
ZGOW,1999-11-27 12:00,ZGOW 271200Z AUTO 09006KT 7SM 20/18 A3006 RMK SLP183 T02030175 52027 IEM_DS3505
ZGOW,1999-11-27 13:00,ZGOW 271300Z AUTO 07008KT 6SM 20/18 A3009 RMK T02000180 IEM_DS3505
ZGOW,1999-11-27 14:00,ZGOW 271400Z AUTO 07010KT 6SM 20/19 A3009 RMK T02000190 IEM_DS3505
ZGOW,1999-11-27 15:00,ZGOW 271500Z AUTO 09006KT 7SM 20/18 RMK SLP198 T02010178 52015 IEM_DS3505
ZGOW,1999-11-27 18:00,ZGOW 271800Z AUTO 04006KT 6SM 18/14 RMK SLP205 T01830136 52007 IEM_DS3505
ZGOW,1999-11-27 21:00,ZGOW 272100Z AUTO 02008KT 7SM 16/10 RMK SLP207 T01550097 52002 IEM_DS3505
ZGOW,1999-11-27 22:00,ZGOW 272200Z AUTO 34012KT 7SM 15/10 A3012 RMK T01500100 IEM_DS3505
ZGOW,1999-11-27 23:00,ZGOW 272300Z AUTO 34012KT 7SM 15/09 A3015 RMK T01500090 IEM_DS3505
ZGOW,1999-11-28 00:00,ZGOW 280000Z AUTO 02006KT 11SM 15/08 A3018 RMK SLP223 T01520082 52016 IEM_DS3505
ZGOW,1999-11-28 01:00,ZGOW 280100Z AUTO 35008KT 7SM 16/10 A3018 RMK T01600100 IEM_DS3505
ZGOW,1999-11-28 02:00,ZGOW 280200Z AUTO 34010KT 7SM 17/10 A3018 RMK T01700100 IEM_DS3505
ZGOW,1999-11-28 03:00,ZGOW 280300Z AUTO 36008KT 9SM 19/10 A3018 RMK SLP221 T01920101 57002 IEM_DS3505
ZGOW,1999-11-28 04:00,ZGOW 280400Z AUTO 02006KT 7SM 21/12 A3015 RMK T02100120 IEM_DS3505
ZGOW,1999-11-28 05:00,ZGOW 280500Z AUTO 06010KT 21/13 A3012 RMK T02100130 IEM_DS3505
ZGOW,1999-11-28 06:00,ZGOW 280600Z AUTO 04008KT 8SM 21/12 A3009 RMK SLP199 T02090116 57022 IEM_DS3505
ZGOW,1999-11-28 07:00,ZGOW 280700Z AUTO 09012KT 4SM 20/15 A3009 RMK T02000150 IEM_DS3505
ZGOW,1999-11-28 08:00,ZGOW 280800Z AUTO 07010KT 6SM 20/15 A3009 RMK T02000150 IEM_DS3505
ZGOW,1999-11-28 09:00,ZGOW 280900Z AUTO 36006KT 7SM 19/09 A3012 RMK SLP206 T01860093 52007 IEM_DS3505
ZGOW,1999-11-28 10:00,ZGOW 281000Z AUTO 34008KT 17/10 A3015 RMK T01700100 IEM_DS3505
ZGOW,1999-11-28 11:00,ZGOW 281100Z AUTO 34006KT 5SM 17/09 A3015 RMK T01700090 IEM_DS3505
ZGOW,1999-11-28 12:00,ZGOW 281200Z AUTO 04008KT 6SM 16/08 A3018 RMK SLP226 T01560078 52020 IEM_DS3505
ZGOW,1999-11-28 13:00,ZGOW 281300Z AUTO 34008KT 7SM 15/09 A3021 RMK T01500090 IEM_DS3505
ZGOW,1999-11-28 14:00,ZGOW 281400Z AUTO 34008KT 7SM 14/08 A3021 RMK T01400080 IEM_DS3505
ZGOW,1999-11-28 15:00,ZGOW 281500Z AUTO 02006KT 6SM 14/07 RMK SLP240 T01380070 52014 IEM_DS3505
ZGOW,1999-11-28 16:00,ZGOW 281600Z AUTO 35006KT 5SM 14/08 A3021 RMK T01400080 IEM_DS3505
ZGOW,1999-11-28 17:00,ZGOW 281700Z AUTO 33008KT 5SM 13/08 A3021 RMK T01300080 IEM_DS3505
ZGOW,1999-11-28 18:00,ZGOW 281800Z AUTO 04006KT 6SM 12/06 A3021 RMK SLP231 T01250061 57009 IEM_DS3505
ZGOW,1999-11-28 19:00,ZGOW 281900Z AUTO 33008KT 4SM 12/07 A3018 RMK T01200070 IEM_DS3505
ZGOW,1999-11-28 20:00,ZGOW 282000Z AUTO 34006KT 4SM 11/07 A3018 RMK T01100070 IEM_DS3505
ZGOW,1999-11-28 21:00,ZGOW 282100Z AUTO 04004KT 7SM 11/06 A3021 RMK SLP230 T01120058 57001 IEM_DS3505
ZGOW,1999-11-28 22:00,ZGOW 282200Z AUTO 34008KT 6SM 11/06 A3021 RMK T01100060 IEM_DS3505
ZGOW,1999-11-28 23:00,ZGOW 282300Z AUTO 34008KT 6SM 11/06 A3024 RMK T01100060 IEM_DS3505
ZGOW,1999-11-29 00:00,ZGOW 290000Z AUTO 02008KT 8SM 11/05 A3024 RMK SLP243 T01110052 52013 IEM_DS3505
ZGOW,1999-11-29 01:00,ZGOW 290100Z AUTO 34008KT 7SM 13/07 A3024 RMK T01300070 IEM_DS3505
ZGOW,1999-11-29 02:00,ZGOW 290200Z AUTO 35008KT 7SM 15/07 A3024 RMK T01500070 IEM_DS3505
ZGOW,1999-11-29 03:00,ZGOW 290300Z AUTO 36006KT 5SM 16/05 A3021 RMK SLP233 T01620053 57010 IEM_DS3505
ZGOW,1999-11-29 04:00,ZGOW 290400Z AUTO 36004KT 7SM 19/09 A3018 RMK T01900090 IEM_DS3505
ZGOW,1999-11-29 05:00,ZGOW 290500Z AUTO 04012KT 6SM 20/09 A3012 RMK T02000090 IEM_DS3505
ZGOW,1999-11-29 06:00,ZGOW 290600Z AUTO 04006KT 7SM 20/08 A3009 RMK SLP199 T02030082 57034 IEM_DS3505
ZGOW,1999-11-29 07:00,ZGOW 290700Z AUTO 07010KT 6SM 20/10 A3009 RMK T02000100 IEM_DS3505
ZGOW,1999-11-29 08:00,ZGOW 290800Z AUTO 07012KT 6SM 19/11 A3009 RMK T01900110 IEM_DS3505
ZGOW,1999-11-29 09:00,ZGOW 290900Z AUTO 09006KT 6SM 19/10 A3009 RMK SLP198 T01880104 57001 IEM_DS3505
ZGOW,1999-11-29 10:00,ZGOW 291000Z AUTO 06012KT 6SM 17/11 A3012 RMK T01700110 IEM_DS3505
ZGOW,1999-11-29 11:00,ZGOW 291100Z AUTO 06010KT 6SM 17/11 A3015 RMK T01700110 IEM_DS3505
ZGOW,1999-11-29 12:00,ZGOW 291200Z AUTO 04004KT 6SM 17/11 A3018 RMK SLP221 T01690109 52023 IEM_DS3505
ZGOW,1999-11-29 13:00,ZGOW 291300Z AUTO 05004KT 6SM 15/11 A3018 RMK T01500110 IEM_DS3505
ZGOW,1999-11-29 14:00,ZGOW 291400Z AUTO 03006KT 6SM 16/11 A3018 RMK T01600110 IEM_DS3505
ZGOW,1999-11-29 15:00,ZGOW 291500Z AUTO 04004KT 6SM 16/10 RMK SLP225 T01580105 52004 IEM_DS3505
ZGOW,1999-11-29 18:00,ZGOW 291800Z AUTO 04004KT 6SM 14/09 RMK SLP220 T01400091 57005 IEM_DS3505
ZGOW,1999-11-29 21:00,ZGOW 292100Z AUTO 02004KT 8SM 13/08 A3012 RMK SLP211 T01280079 57009 IEM_DS3505
ZGOW,1999-11-29 22:00,ZGOW 292200Z AUTO 32004KT 6SM 13/09 A3015 RMK T01300090 IEM_DS3505
ZGOW,1999-11-29 23:00,ZGOW 292300Z AUTO 33004KT 6SM 13/09 A3018 RMK T01300090 IEM_DS3505
ZGOW,1999-11-30 00:00,ZGOW 300000Z AUTO 04004KT 11SM 14/08 A3018 RMK SLP228 T01390078 52017 IEM_DS3505
ZGOW,1999-11-30 01:00,ZGOW 300100Z AUTO 34004KT 16/10 A3018 RMK T01600100 IEM_DS3505
ZGOW,1999-11-30 02:00,ZGOW 300200Z AUTO 31002KT 9SM 17/11 A3018 RMK T01700110 IEM_DS3505
ZGOW,1999-11-30 03:00,ZGOW 300300Z AUTO 09002KT 9SM 19/11 A3018 RMK SLP225 T01880109 57003 IEM_DS3505
ZGOW,1999-11-30 04:00,ZGOW 300400Z AUTO 05012KT 6SM 21/13 A3015 RMK T02100130 IEM_DS3505
ZGOW,1999-11-30 05:00,ZGOW 300500Z AUTO 05016KT 6SM 22/14 A3009 RMK T02200140 IEM_DS3505
ZGOW,1999-11-30 06:00,ZGOW 300600Z AUTO 09008KT 9SM 23/13 A3006 RMK SLP188 T02260133 57037 IEM_DS3505
ZGOW,1999-11-30 07:00,ZGOW 300700Z AUTO 08012KT 6SM 21/15 A3006 RMK T02100150 IEM_DS3505
ZGOW,1999-11-30 08:00,ZGOW 300800Z AUTO 08012KT 6SM 22/15 A3006 RMK T02200150 IEM_DS3505
ZGOW,1999-11-30 09:00,ZGOW 300900Z AUTO 09010KT 9SM 20/14 A3009 RMK SLP195 T02020136 52007 IEM_DS3505
ZGOW,1999-11-30 10:00,ZGOW 301000Z AUTO 07014KT 6SM 20/15 A3009 RMK T02000150 IEM_DS3505
ZGOW,1999-11-30 11:00,ZGOW 301100Z AUTO 06008KT 6SM 20/15 A3012 RMK T02000150 IEM_DS3505
ZGOW,1999-11-30 12:00,ZGOW 301200Z AUTO 07006KT 9SM 20/13 RMK SLP215 T01970132 52020 IEM_DS3505
ZGOW,1999-11-30 14:00,ZGOW 301400Z AUTO 04004KT 6SM 19/14 A3015 RMK T01900140 IEM_DS3505
ZGOW,1999-11-30 15:00,ZGOW 301500Z AUTO 00000KT 9SM 19/15 RMK SLP218 T01860150 52003 IEM_DS3505
ZGOW,1999-11-30 18:00,ZGOW 301800Z AUTO 00000KT 6SM 18/15 RMK 60003 SLP214 T01810152 57004 IEM_DS3505
ZGOW,1999-11-30 21:00,ZGOW 302100Z AUTO 04002KT 6SM 16/13 A3009 RMK 70003 SLP199 T01640134 57015 IEM_DS3505
ZGOW,1999-11-30 22:00,ZGOW 302200Z AUTO 33004KT 6SM 16/14 A3012 RMK T01600140 IEM_DS3505
ZGOW,1999-11-30 23:00,ZGOW 302300Z AUTO 35006KT 6SM 16/13 A3012 RMK T01600130 IEM_DS3505
ZGOW,1999-12-01 00:00,ZGOW 010000Z AUTO 02006KT 6SM 18/12 A3015 RMK SLP214 T01750119 52015 IEM_DS3505
ZGOW,1999-12-01 01:00,ZGOW 010100Z AUTO 32010KT 6SM 18/13 A3015 RMK T01800130 IEM_DS3505
ZGOW,1999-12-01 02:00,ZGOW 010200Z AUTO 34006KT 6SM 21/14 A3018 RMK T02100140 IEM_DS3505
ZGOW,1999-12-01 03:00,ZGOW 010300Z AUTO 04004KT 7SM 23/13 A3015 RMK SLP216 T02310133 52002 IEM_DS3505
ZGOW,1999-12-01 04:00,ZGOW 010400Z AUTO 36004KT 6SM 24/15 A3012 RMK T02400150 IEM_DS3505
ZGOW,1999-12-01 05:00,ZGOW 010500Z AUTO 08006KT 6SM 25/16 A3009 RMK T02500160 IEM_DS3505
ZGOW,1999-12-01 06:00,ZGOW 010600Z AUTO 16004KT 9SM 25/15 A3006 RMK SLP182 T02540146 57034 IEM_DS3505
ZGOW,1999-12-01 07:00,ZGOW 010700Z AUTO 15008KT 6SM 24/17 A3003 RMK T02400170 IEM_DS3505
ZGOW,1999-12-01 08:00,ZGOW 010800Z AUTO 13008KT 6SM 23/17 A3006 RMK T02300170 IEM_DS3505
ZGOW,1999-12-01 09:00,ZGOW 010900Z AUTO 09004KT 9SM 22/17 A3006 RMK SLP187 T02180167 52005 IEM_DS3505
ZGOW,1999-12-01 10:00,ZGOW 011000Z AUTO 06006KT 6SM 20/17 A3009 RMK T02000170 IEM_DS3505
ZGOW,1999-12-01 11:00,ZGOW 011100Z AUTO 06010KT 6SM 19/18 A3009 RMK T01900180 IEM_DS3505
ZGOW,1999-12-01 12:00,ZGOW 011200Z AUTO 04006KT 7SM 20/17 A3012 RMK SLP209 T01970169 52022 IEM_DS3505
ZGOW,1999-12-01 13:00,ZGOW 011300Z AUTO 07012KT 6SM 19/17 A3015 RMK T01900170 IEM_DS3505
ZGOW,1999-12-01 14:00,ZGOW 011400Z AUTO 08010KT 6SM 18/17 A3015 RMK T01800170 IEM_DS3505
ZGOW,1999-12-01 15:00,ZGOW 011500Z AUTO 07008KT 7SM 18/16 A3015 RMK SLP214 T01850156 52005 IEM_DS3505
ZGOW,1999-12-01 18:00,ZGOW 011800Z AUTO 09008KT 6SM 18/14 RMK SLP208 T01760141 57006 IEM_DS3505
ZGOW,1999-12-01 21:00,ZGOW 012100Z AUTO 04006KT 6SM 17/13 RMK SLP224 T01700129 52016 IEM_DS3505
ZGOW,1999-12-01 22:00,ZGOW 012200Z AUTO 04004KT 2 1/2SM 15/14 A3021 RMK T01500140 IEM_DS3505
ZGOW,1999-12-01 23:00,ZGOW 012300Z AUTO 01006KT 2 1/2SM 15/13 A3021 RMK T01500130 IEM_DS3505
ZGOW,1999-12-02 00:00,ZGOW 020000Z AUTO 36002KT 6SM 15/11 A3024 RMK SLP244 T01540113 52020 IEM_DS3505
ZGOW,1999-12-02 01:00,ZGOW 020100Z AUTO 33006KT 4SM 18/13 A3024 RMK T01800130 IEM_DS3505
ZGOW,1999-12-02 02:00,ZGOW 020200Z AUTO 35006KT 6SM 20/13 A3027 RMK T02000130 IEM_DS3505
ZGOW,1999-12-02 03:00,ZGOW 020300Z AUTO 04006KT 6SM 20/10 A3024 RMK SLP247 T02010105 52003 IEM_DS3505
ZGOW,1999-12-02 04:00,ZGOW 020400Z AUTO 09008KT 6SM 21/10 A3024 RMK T02100100 IEM_DS3505
ZGOW,1999-12-02 05:00,ZGOW 020500Z AUTO 08010KT 6SM 21/11 A3021 RMK T02100110 IEM_DS3505
ZGOW,1999-12-02 06:00,ZGOW 020600Z AUTO 09006KT 14SM 22/09 A3018 RMK SLP223 T02250091 57024 IEM_DS3505
ZGOW,1999-12-02 07:00,ZGOW 020700Z AUTO 09012KT 6SM 22/12 A3015 RMK T02200120 IEM_DS3505
ZGOW,1999-12-02 08:00,ZGOW 020800Z AUTO 09012KT 6SM 22/11 A3018 RMK T02200110 IEM_DS3505
ZGOW,1999-12-02 09:00,ZGOW 020900Z AUTO 09006KT 12SM 21/08 A3018 RMK SLP224 T02090083 52001 IEM_DS3505
ZGOW,1999-12-02 10:00,ZGOW 021000Z AUTO 08012KT 6SM 19/13 A3021 RMK T01900130 IEM_DS3505
ZGOW,1999-12-02 11:00,ZGOW 021100Z AUTO 08014KT 6SM 19/14 A3024 RMK T01900140 IEM_DS3505
ZGOW,1999-12-02 12:00,ZGOW 021200Z AUTO 07008KT 9SM 19/12 A3024 RMK SLP250 T01900120 52026 IEM_DS3505
ZGOW,1999-12-02 13:00,ZGOW 021300Z AUTO 08017KT 6SM 18/13 A3027 RMK T01800130 IEM_DS3505
ZGOW,1999-12-02 15:00,ZGOW 021500Z AUTO 09010KT 9SM 18/09 RMK SLP252 T01820090 52002 IEM_DS3505
ZGOW,1999-12-02 18:00,ZGOW 021800Z AUTO 07006KT 9SM 17/09 RMK SLP249 T01700091 57003 IEM_DS3505
ZGOW,1999-12-02 21:00,ZGOW 022100Z AUTO 04004KT 6SM 15/11 A3024 RMK SLP242 T01530108 52002 IEM_DS3505
ZGOW,1999-12-02 22:00,ZGOW 022200Z AUTO 33002KT 6SM 15/10 A3027 RMK T01500100 IEM_DS3505
ZGOW,1999-12-02 23:00,ZGOW 022300Z AUTO 31002KT 4SM 15/11 A3030 RMK T01500110 IEM_DS3505
ZGOW,1999-12-03 00:00,ZGOW 030000Z AUTO 02002KT 5SM 17/11 A3030 RMK SLP264 T01660106 52013 IEM_DS3505
ZGOW,1999-12-03 01:00,ZGOW 030100Z AUTO 35004KT 6SM 17/11 A3030 RMK T01700110 IEM_DS3505
ZGOW,1999-12-03 02:00,ZGOW 030200Z AUTO 36004KT 6SM 19/11 A3030 RMK T01900110 IEM_DS3505
ZGOW,1999-12-03 03:00,ZGOW 030300Z AUTO 04008KT 7SM 22/11 A3027 RMK T02200110 IEM_DS3505
ZGOW,1999-12-03 04:00,ZGOW 030400Z AUTO 06014KT 6SM 23/13 A3024 RMK T02300130 IEM_DS3505
ZGOW,1999-12-03 05:00,ZGOW 030500Z AUTO 07014KT 6SM 23/12 A3021 RMK T02300120 IEM_DS3505
ZGOW,1999-12-03 06:00,ZGOW 030600Z AUTO 09006KT 9SM 23/11 A3018 RMK SLP225 T02280109 57033 IEM_DS3505
ZGOW,1999-12-03 07:00,ZGOW 030700Z AUTO 08012KT 6SM 22/13 A3018 RMK T02200130 IEM_DS3505
ZGOW,1999-12-03 08:00,ZGOW 030800Z AUTO 08012KT 6SM 22/15 A3018 RMK T02200150 IEM_DS3505
ZGOW,1999-12-03 09:00,ZGOW 030900Z AUTO 04008KT 7SM 21/13 A3018 RMK SLP225 T02120130 54000 IEM_DS3505
ZGOW,1999-12-03 10:00,ZGOW 031000Z AUTO 08012KT 6SM 20/15 A3018 RMK T02000150 IEM_DS3505
ZGOW,1999-12-03 11:00,ZGOW 031100Z AUTO 08014KT 6SM 20/15 A3021 RMK T02000150 IEM_DS3505
ZGOW,1999-12-03 12:00,ZGOW 031200Z AUTO 07010KT 7SM 20/13 A3021 RMK SLP237 T02020134 52012 IEM_DS3505
ZGOW,1999-12-03 13:00,ZGOW 031300Z AUTO 08012KT 6SM 20/15 A3021 RMK T02000150 IEM_DS3505
ZGOW,1999-12-03 14:00,ZGOW 031400Z AUTO 07008KT 6SM 20/14 A3024 RMK T02000140 IEM_DS3505
ZGOW,1999-12-03 15:00,ZGOW 031500Z AUTO 07006KT 9SM 20/13 A3021 RMK SLP240 T01990130 52003 IEM_DS3505
ZGOW,1999-12-03 16:00,ZGOW 031600Z AUTO 02006KT 6SM 19/14 A3021 RMK T01900140 IEM_DS3505
ZGOW,1999-12-03 18:00,ZGOW 031800Z AUTO 00000KT 7SM 19/14 RMK SLP228 T01890137 57012 IEM_DS3505
ZGOW,1999-12-03 20:00,ZGOW 032000Z AUTO 34004KT 3SM 18/14 A3018 RMK T01800140 IEM_DS3505
ZGOW,1999-12-03 21:00,ZGOW 032100Z AUTO 04002KT 7SM 18/12 A3018 RMK SLP225 T01850120 57003 IEM_DS3505
ZGOW,1999-12-03 22:00,ZGOW 032200Z AUTO 33004KT 6SM 18/13 A3018 RMK T01800130 IEM_DS3505
ZGOW,1999-12-03 23:00,ZGOW 032300Z AUTO 34004KT 7SM 18/13 A3018 RMK T01800130 IEM_DS3505
ZGOW,1999-12-04 00:00,ZGOW 040000Z AUTO 04004KT 6SM 19/12 A3018 RMK SLP233 T01880125 52008 IEM_DS3505
ZGOW,1999-12-04 01:00,ZGOW 040100Z AUTO 34006KT 3SM 19/14 A3024 RMK T01900140 IEM_DS3505
ZGOW,1999-12-04 02:00,ZGOW 040200Z AUTO 32006KT 1 1/4SM 18/15 A3024 RMK T01800150 IEM_DS3505
ZGOW,1999-12-04 03:00,ZGOW 040300Z AUTO 25002KT 2SM 19/15 A3024 RMK SLP247 T01910152 52014 IEM_DS3505
ZGOW,1999-12-04 04:00,ZGOW 040400Z AUTO 32004KT 1SM 19/16 A3021 RMK T01900160 IEM_DS3505
ZGOW,1999-12-04 05:00,ZGOW 040500Z AUTO 31006KT 1SM 20/16 A3018 RMK T02000160 IEM_DS3505
ZGOW,1999-12-04 06:00,ZGOW 040600Z AUTO 29006KT 2 1/2SM 20/15 A3018 RMK 60004 SLP219 T02030150 57028 IEM_DS3505
ZGOW,1999-12-04 07:00,ZGOW 040700Z AUTO 32006KT 1 1/4SM 19/16 A3015 RMK T01900160 IEM_DS3505
ZGOW,1999-12-04 08:00,ZGOW 040800Z AUTO 33002KT 2 1/2SM 20/17 A3015 RMK T02000170 IEM_DS3505
ZGOW,1999-12-04 09:00,ZGOW 040900Z AUTO 04004KT 7SM 20/14 A3015 RMK SLP214 T01980145 57005 IEM_DS3505
ZGOW,1999-12-04 10:00,ZGOW 041000Z AUTO 36002KT 2 1/2SM 19/15 A3015 RMK T01900150 IEM_DS3505
ZGOW,1999-12-04 11:00,ZGOW 041100Z AUTO 09004KT 2SM 18/16 A3018 RMK T01800160 IEM_DS3505
ZGOW,1999-12-04 12:00,ZGOW 041200Z AUTO 18004KT 6SM 19/16 RMK 60000 SLP222 T01880158 52008 IEM_DS3505
ZGOW,1999-12-04 13:00,ZGOW 041300Z AUTO 32004KT 4SM 18/16 A3018 RMK T01800160 IEM_DS3505
ZGOW,1999-12-04 14:00,ZGOW 041400Z AUTO 32004KT 1 1/2SM 18/16 A3018 RMK T01800160 IEM_DS3505
ZGOW,1999-12-04 15:00,ZGOW 041500Z AUTO 36002KT 4SM 18/15 A3018 RMK SLP229 T01820146 52007 IEM_DS3505
ZGOW,1999-12-04 16:00,ZGOW 041600Z AUTO 31002KT 4SM 18/15 A3018 RMK T01800150 IEM_DS3505
ZGOW,1999-12-04 17:00,ZGOW 041700Z AUTO 32006KT 3SM 17/15 A3015 RMK T01700150 IEM_DS3505
ZGOW,1999-12-04 18:00,ZGOW 041800Z AUTO 04004KT 7SM 18/14 A3015 RMK 60003 SLP210 T01790139 57019 IEM_DS3505
ZGOW,1999-12-04 19:00,ZGOW 041900Z AUTO 34004KT 3SM 17/15 A3012 RMK T01700150 IEM_DS3505
ZGOW,1999-12-04 20:00,ZGOW 042000Z AUTO 33006KT 3SM 17/15 A3009 RMK T01700150 IEM_DS3505
ZGOW,1999-12-04 21:00,ZGOW 042100Z AUTO 02006KT 7SM 17/14 A3009 RMK 70005 SLP199 T01740137 57011 IEM_DS3505
ZGOW,1999-12-04 22:00,ZGOW 042200Z AUTO 33006KT 4SM 17/14 A3012 RMK T01700140 IEM_DS3505
ZGOW,1999-12-04 23:00,ZGOW 042300Z AUTO 33008KT 4SM 17/14 A3012 RMK T01700140 IEM_DS3505
ZGOW,1999-12-05 00:00,ZGOW 050000Z AUTO 36006KT 9SM 18/13 A3015 RMK SLP216 T01780134 52017 IEM_DS3505
ZGOW,1999-12-05 01:00,ZGOW 050100Z AUTO 33010KT 4SM 19/15 A3018 RMK T01900150 IEM_DS3505
ZGOW,1999-12-05 02:00,ZGOW 050200Z AUTO 34010KT 4SM 20/15 A3018 RMK T02000150 IEM_DS3505
ZGOW,1999-12-05 03:00,ZGOW 050300Z AUTO 34008KT 9SM 22/14 A3015 RMK SLP219 T02170142 52003 IEM_DS3505
ZGOW,1999-12-05 04:00,ZGOW 050400Z AUTO 32012KT 22/15 A3015 RMK T02200150 IEM_DS3505
ZGOW,1999-12-05 05:00,ZGOW 050500Z AUTO 32012KT 6SM 22/15 A3012 RMK T02200150 IEM_DS3505
ZGOW,1999-12-05 06:00,ZGOW 050600Z AUTO 04008KT 9SM 22/14 A3009 RMK SLP200 T02210139 57019 IEM_DS3505
ZGOW,1999-12-05 07:00,ZGOW 050700Z AUTO 33014KT 5SM 21/14 A3009 RMK T02100140 IEM_DS3505
ZGOW,1999-12-05 08:00,ZGOW 050800Z AUTO 33010KT 20/14 A3009 RMK T02000140 IEM_DS3505
ZGOW,1999-12-05 09:00,ZGOW 050900Z AUTO 02008KT 8SM 19/12 A3012 RMK SLP206 T01870122 52006 IEM_DS3505
ZGOW,1999-12-05 10:00,ZGOW 051000Z AUTO 34008KT 4SM 18/13 A3012 RMK T01800130 IEM_DS3505
ZGOW,1999-12-05 11:00,ZGOW 051100Z AUTO 33008KT 4SM 17/13 A3015 RMK T01700130 IEM_DS3505
ZGOW,1999-12-05 12:00,ZGOW 051200Z AUTO 04006KT 6SM 17/12 A3018 RMK 60003 SLP224 T01700115 52018 IEM_DS3505
ZGOW,1999-12-05 13:00,ZGOW 051300Z AUTO 33008KT 7SM 17/12 A3018 RMK T01700120 IEM_DS3505
ZGOW,1999-12-05 14:00,ZGOW 051400Z AUTO 33008KT 7SM 17/13 A3018 RMK T01700130 IEM_DS3505
ZGOW,1999-12-05 15:00,ZGOW 051500Z AUTO 04004KT 6SM 17/11 A3021 RMK SLP231 T01680110 52007 IEM_DS3505
ZGOW,1999-12-05 16:00,ZGOW 051600Z AUTO 33008KT 5SM 16/12 A3021 RMK T01600120 IEM_DS3505
ZGOW,1999-12-05 17:00,ZGOW 051700Z AUTO 34008KT 5SM 16/12 A3018 RMK T01600120 IEM_DS3505
ZGOW,1999-12-05 18:00,ZGOW 051800Z AUTO 02004KT 7SM 16/11 A3018 RMK SLP223 T01620108 57008 IEM_DS3505
ZGOW,1999-12-05 19:00,ZGOW 051900Z AUTO 34006KT 4SM 16/11 A3018 RMK T01600110 IEM_DS3505
ZGOW,1999-12-05 20:00,ZGOW 052000Z AUTO 34006KT 4SM 15/11 A3018 RMK T01500110 IEM_DS3505
ZGOW,1999-12-05 21:00,ZGOW 052100Z AUTO 04008KT 7SM 16/10 A3018 RMK 70003 SLP226 T01550104 52003 IEM_DS3505
ZGOW,1999-12-05 22:00,ZGOW 052200Z AUTO 33010KT 2 1/2SM 15/12 A3021 RMK T01500120 IEM_DS3505
ZGOW,1999-12-05 23:00,ZGOW 052300Z AUTO 34008KT 2 1/2SM 14/11 A3021 RMK T01400110 IEM_DS3505
ZGOW,1999-12-06 00:00,ZGOW 060000Z AUTO 04006KT 6SM 14/10 A3024 RMK 60003 SLP247 T01430098 52021 IEM_DS3505
ZGOW,1999-12-06 01:00,ZGOW 060100Z AUTO 34008KT 2 1/2SM 15/11 A3027 RMK T01500110 IEM_DS3505
ZGOW,1999-12-06 02:00,ZGOW 060200Z AUTO 34008KT 2 1/2SM 16/10 A3027 RMK T01600100 IEM_DS3505
ZGOW,1999-12-06 03:00,ZGOW 060300Z AUTO 34006KT 6SM 16/09 A3024 RMK SLP253 T01650094 52006 IEM_DS3505
ZGOW,1999-12-06 04:00,ZGOW 060400Z AUTO 35006KT 3SM 18/12 A3021 RMK T01800120 IEM_DS3505
ZGOW,1999-12-06 05:00,ZGOW 060500Z AUTO 03006KT 3SM 19/12 A3018 RMK T01900120 IEM_DS3505
ZGOW,1999-12-06 06:00,ZGOW 060600Z AUTO 07006KT 5SM 20/10 A3015 RMK 60003 SLP215 T01950104 57038 IEM_DS3505
ZGOW,1999-12-06 07:00,ZGOW 060700Z AUTO 09006KT 3SM 19/13 A3015 RMK T01900130 IEM_DS3505
ZGOW,1999-12-06 08:00,ZGOW 060800Z AUTO 08008KT 3SM 19/15 A3015 RMK T01900150 IEM_DS3505
ZGOW,1999-12-06 09:00,ZGOW 060900Z AUTO 07006KT 3SM 18/14 A3015 RMK SLP217 T01840135 52002 IEM_DS3505
ZGOW,1999-12-06 11:00,ZGOW 061100Z AUTO 07010KT 2 1/2SM 17/14 A3018 RMK T01700140 IEM_DS3505
ZGOW,1999-12-06 12:00,ZGOW 061200Z AUTO 04004KT 3SM 17/11 A3021 RMK SLP236 T01730108 52019 IEM_DS3505
ZGOW,1999-12-06 13:00,ZGOW 061300Z AUTO 05008KT 16/10 A3024 RMK T01600100 IEM_DS3505
ZGOW,1999-12-06 14:00,ZGOW 061400Z AUTO 06008KT 16/10 A3024 RMK T01600100 IEM_DS3505
ZGOW,1999-12-06 15:00,ZGOW 061500Z AUTO 07006KT 3SM 16/09 RMK SLP247 T01650091 52011 IEM_DS3505
ZGOW,1999-12-06 18:00,ZGOW 061800Z AUTO 07008KT 3SM 15/10 RMK SLP250 T01530099 52003 IEM_DS3505
ZGOW,1999-12-06 19:00,ZGOW 061900Z AUTO 06012KT 2SM 14/10 A3024 RMK T01400100 IEM_DS3505
ZGOW,1999-12-06 21:00,ZGOW 062100Z AUTO 04006KT 3SM 14/09 A3027 RMK 70003 SLP251 T01370089 52001 IEM_DS3505
ZGOW,1999-12-06 22:00,ZGOW 062200Z AUTO 04008KT 4SM 13/09 A3027 RMK T01300090 IEM_DS3505
ZGOW,1999-12-06 23:00,ZGOW 062300Z AUTO 04006KT 2 1/2SM 13/09 A3027 RMK T01300090 IEM_DS3505
ZGOW,1999-12-07 00:00,ZGOW 070000Z AUTO 04004KT 4SM 14/08 A3030 RMK SLP269 T01380079 52018 IEM_DS3505
ZGOW,1999-12-07 01:00,ZGOW 070100Z AUTO 04006KT 15/08 A3033 RMK T01500080 IEM_DS3505
ZGOW,1999-12-07 02:00,ZGOW 070200Z AUTO 06010KT 17/08 A3030 RMK T01700080 IEM_DS3505
ZGOW,1999-12-07 03:00,ZGOW 070300Z AUTO 04006KT 5SM 17/06 A3030 RMK SLP270 T01740064 52001 IEM_DS3505
ZGOW,1999-12-07 04:00,ZGOW 070400Z AUTO 06010KT 19/07 A3027 RMK T01900070 IEM_DS3505
ZGOW,1999-12-07 05:00,ZGOW 070500Z AUTO 07008KT 19/08 A3024 RMK T01900080 IEM_DS3505
ZGOW,1999-12-07 06:00,ZGOW 070600Z AUTO 14006KT 7SM 19/07 A3024 RMK SLP239 T01890070 57031 IEM_DS3505
ZGOW,1999-12-07 07:00,ZGOW 070700Z AUTO 08008KT 19/09 A3021 RMK T01900090 IEM_DS3505
ZGOW,1999-12-07 08:00,ZGOW 070800Z AUTO 08012KT 18/10 A3018 RMK T01800100 IEM_DS3505
ZGOW,1999-12-07 09:00,ZGOW 070900Z AUTO 07006KT 7SM 18/09 A3018 RMK SLP230 T01770088 57009 IEM_DS3505
ZGOW,1999-12-07 10:00,ZGOW 071000Z AUTO 07010KT 17/10 A3021 RMK T01700100 IEM_DS3505
ZGOW,1999-12-07 11:00,ZGOW 071100Z AUTO 07012KT 17/11 A3024 RMK T01700110 IEM_DS3505
ZGOW,1999-12-07 12:00,ZGOW 071200Z AUTO 09008KT 6SM 17/09 A3024 RMK SLP249 T01680088 52019 IEM_DS3505
ZGOW,1999-12-07 13:00,ZGOW 071300Z AUTO 07008KT 16/09 A3027 RMK T01600090 IEM_DS3505
ZGOW,1999-12-07 14:00,ZGOW 071400Z AUTO 06008KT 6SM 15/09 A3027 RMK T01500090 IEM_DS3505
ZGOW,1999-12-07 15:00,ZGOW 071500Z AUTO 04002KT 9SM 15/09 A3027 RMK SLP252 T01480087 52003 IEM_DS3505
ZGOW,1999-12-07 16:00,ZGOW 071600Z AUTO 33004KT 3SM 14/09 A3027 RMK T01400090 IEM_DS3505
ZGOW,1999-12-07 17:00,ZGOW 071700Z AUTO 30002KT 3SM 13/09 A3027 RMK T01300090 IEM_DS3505
ZGOW,1999-12-07 18:00,ZGOW 071800Z AUTO 07002KT 5SM 14/10 A3024 RMK SLP243 T01370096 57009 IEM_DS3505
ZGOW,1999-12-07 19:00,ZGOW 071900Z AUTO 31004KT 2SM 12/10 A3024 RMK T01200100 IEM_DS3505
ZGOW,1999-12-07 20:00,ZGOW 072000Z AUTO 32006KT 3SM 12/09 A3021 RMK T01200090 IEM_DS3505
ZGOW,1999-12-07 21:00,ZGOW 072100Z AUTO 02004KT 6SM 13/07 A3021 RMK SLP236 T01330069 57007 IEM_DS3505
ZGOW,1999-12-07 22:00,ZGOW 072200Z AUTO 32006KT 4SM 13/08 A3021 RMK T01300080 IEM_DS3505
ZGOW,1999-12-07 23:00,ZGOW 072300Z AUTO 33004KT 3SM 13/09 A3024 RMK T01300090 IEM_DS3505
ZGOW,1999-12-08 00:00,ZGOW 080000Z AUTO 04006KT 8SM 14/06 A3024 RMK SLP246 T01400060 52010 IEM_DS3505
ZGOW,1999-12-08 01:00,ZGOW 080100Z AUTO 33008KT 14/08 A3024 RMK T01400080 IEM_DS3505
ZGOW,1999-12-08 02:00,ZGOW 080200Z AUTO 31004KT 9SM 17/09 A3024 RMK T01700090 IEM_DS3505
ZGOW,1999-12-08 03:00,ZGOW 080300Z AUTO 04006KT 9SM 20/08 A3024 RMK SLP242 T01960082 57004 IEM_DS3505
ZGOW,1999-12-08 04:00,ZGOW 080400Z AUTO 07006KT 6SM 21/11 A3021 RMK T02100110 IEM_DS3505
ZGOW,1999-12-08 05:00,ZGOW 080500Z AUTO 08006KT 6SM 22/11 A3018 RMK T02200110 IEM_DS3505
ZGOW,1999-12-08 06:00,ZGOW 080600Z AUTO 09006KT 14SM 21/10 A3015 RMK SLP210 T02130105 57032 IEM_DS3505
ZGOW,1999-12-08 07:00,ZGOW 080700Z AUTO 14008KT 6SM 21/14 A3012 RMK T02100140 IEM_DS3505
ZGOW,1999-12-08 08:00,ZGOW 080800Z AUTO 14006KT 6SM 20/14 A3012 RMK T02000140 IEM_DS3505
ZGOW,1999-12-08 09:00,ZGOW 080900Z AUTO 09006KT 9SM 20/13 A3012 RMK SLP205 T01960129 57005 IEM_DS3505
ZGOW,1999-12-08 10:00,ZGOW 081000Z AUTO 13002KT 3SM 18/15 A3012 RMK T01800150 IEM_DS3505
ZGOW,1999-12-08 11:00,ZGOW 081100Z AUTO 13002KT 3SM 17/14 A3015 RMK T01700140 IEM_DS3505
ZGOW,1999-12-08 12:00,ZGOW 081200Z AUTO 07004KT 7SM 18/13 A3018 RMK SLP224 T01800132 52019 IEM_DS3505
ZGOW,1999-12-08 13:00,ZGOW 081300Z AUTO 04006KT 4SM 15/14 A3018 RMK T01500140 IEM_DS3505
ZGOW,1999-12-08 14:00,ZGOW 081400Z AUTO 02002KT 3SM 16/14 A3018 RMK T01600140 IEM_DS3505
ZGOW,1999-12-08 15:00,ZGOW 081500Z AUTO 04002KT 4SM 15/13 A3018 RMK SLP231 T01540134 52007 IEM_DS3505
ZGOW,1999-12-08 16:00,ZGOW 081600Z AUTO 33006KT 1/8SM 16/13 A3018 RMK T01600130 IEM_DS3505
ZGOW,1999-12-08 17:00,ZGOW 081700Z AUTO 33006KT 16/10 A3015 RMK T01600100 IEM_DS3505
ZGOW,1999-12-08 18:00,ZGOW 081800Z AUTO 02004KT 6SM 15/08 A3015 RMK SLP219 T01460080 57012 IEM_DS3505
ZGOW,1999-12-08 19:00,ZGOW 081900Z AUTO 33008KT 15/09 A3012 RMK T01500090 IEM_DS3505
ZGOW,1999-12-08 20:00,ZGOW 082000Z AUTO 33006KT 6SM 14/09 A3012 RMK T01400090 IEM_DS3505
ZGOW,1999-12-08 21:00,ZGOW 082100Z AUTO 04004KT 7SM 14/06 A3012 RMK SLP209 T01420060 57010 IEM_DS3505
ZGOW,1999-12-08 22:00,ZGOW 082200Z AUTO 31004KT 7SM 13/08 A3015 RMK T01300080 IEM_DS3505
ZGOW,1999-12-08 23:00,ZGOW 082300Z AUTO 33006KT 6SM 13/08 A3015 RMK T01300080 IEM_DS3505
ZGOW,1999-12-09 00:00,ZGOW 090000Z AUTO 04006KT 7SM 15/04 A3018 RMK SLP221 T01540044 52012 IEM_DS3505
ZGOW,1999-12-09 01:00,ZGOW 090100Z AUTO 34008KT 6SM 16/07 A3018 RMK T01600070 IEM_DS3505
ZGOW,1999-12-09 02:00,ZGOW 090200Z AUTO 35006KT 7SM 18/07 A3018 RMK T01800070 IEM_DS3505
ZGOW,1999-12-09 03:00,ZGOW 090300Z AUTO 07006KT 6SM 20/06 A3018 RMK SLP223 T02000056 52002 IEM_DS3505
ZGOW,1999-12-09 04:00,ZGOW 090400Z AUTO 07006KT 6SM 20/08 A3015 RMK T02000080 IEM_DS3505
ZGOW,1999-12-09 05:00,ZGOW 090500Z AUTO 08010KT 6SM 21/10 A3012 RMK T02100100 IEM_DS3505
ZGOW,1999-12-09 06:00,ZGOW 090600Z AUTO 09008KT 9SM 22/09 A3009 RMK SLP195 T02150089 57028 IEM_DS3505
ZGOW,1999-12-09 07:00,ZGOW 090700Z AUTO 09010KT 6SM 21/11 A3009 RMK T02100110 IEM_DS3505
ZGOW,1999-12-09 08:00,ZGOW 090800Z AUTO 08010KT 6SM 20/10 A3009 RMK T02000100 IEM_DS3505
ZGOW,1999-12-09 09:00,ZGOW 090900Z AUTO 09006KT 6SM 19/11 A3009 RMK SLP188 T01920110 57007 IEM_DS3505
ZGOW,1999-12-09 10:00,ZGOW 091000Z AUTO 09008KT 6SM 17/12 A3009 RMK T01700120 IEM_DS3505
ZGOW,1999-12-09 11:00,ZGOW 091100Z AUTO 08010KT 6SM 17/12 A3009 RMK T01700120 IEM_DS3505
ZGOW,1999-12-09 12:00,ZGOW 091200Z AUTO 07006KT 6SM 17/11 A3009 RMK SLP200 T01730114 52012 IEM_DS3505
ZGOW,1999-12-09 13:00,ZGOW 091300Z AUTO 09004KT 6SM 16/12 A3012 RMK T01600120 IEM_DS3505
ZGOW,1999-12-09 15:00,ZGOW 091500Z AUTO 07004KT 6SM 16/11 RMK SLP206 T01640112 52006 IEM_DS3505
ZGOW,1999-12-09 18:00,ZGOW 091800Z AUTO 04004KT 6SM 14/10 RMK SLP202 T01400099 57004 IEM_DS3505
ZGOW,1999-12-09 21:00,ZGOW 092100Z AUTO 04002KT 5SM 13/11 A3012 RMK SLP203 T01260107 52001 IEM_DS3505
ZGOW,1999-12-09 22:00,ZGOW 092200Z AUTO 33004KT 2 1/2SM 12/11 A3012 RMK T01200110 IEM_DS3505
ZGOW,1999-12-09 23:00,ZGOW 092300Z AUTO 32002KT 2 1/2SM 12/11 A3015 RMK T01200110 IEM_DS3505
ZGOW,1999-12-10 00:00,ZGOW 100000Z AUTO 04004KT 5SM 13/09 A3015 RMK SLP219 T01320090 52016 IEM_DS3505
ZGOW,1999-12-10 01:00,ZGOW 100100Z AUTO 35004KT 2 1/2SM 14/11 A3018 RMK T01400110 IEM_DS3505
ZGOW,1999-12-10 02:00,ZGOW 100200Z AUTO 33002KT 3SM 16/11 A3015 RMK T01600110 IEM_DS3505
ZGOW,1999-12-10 04:00,ZGOW 100400Z AUTO 02006KT 5SM 21/10 A3009 RMK T02100100 IEM_DS3505
ZGOW,1999-12-10 05:00,ZGOW 100500Z AUTO 06006KT 6SM 21/11 A3006 RMK T02100110 IEM_DS3505
ZGOW,1999-12-10 06:00,ZGOW 100600Z AUTO 09006KT 6SM 22/10 A3003 RMK SLP177 T02190095 57035 IEM_DS3505
ZGOW,1999-12-10 07:00,ZGOW 100700Z AUTO 08010KT 6SM 22/11 A3003 RMK T02200110 IEM_DS3505
ZGOW,1999-12-10 08:00,ZGOW 100800Z AUTO 08008KT 6SM 21/12 A3003 RMK T02100120 IEM_DS3505
ZGOW,1999-12-10 09:00,ZGOW 100900Z AUTO 14004KT 5SM 20/12 A3003 RMK SLP173 T01980121 57004 IEM_DS3505
ZGOW,1999-12-10 10:00,ZGOW 101000Z AUTO 10004KT 1 1/2SM 18/14 A3003 RMK T01800140 IEM_DS3505
ZGOW,1999-12-10 11:00,ZGOW 101100Z AUTO 08006KT 4SM 17/13 A3006 RMK T01700130 IEM_DS3505
ZGOW,1999-12-10 12:00,ZGOW 101200Z AUTO 04006KT 6SM 18/11 A3009 RMK SLP194 T01780114 52021 IEM_DS3505
ZGOW,1999-12-10 13:00,ZGOW 101300Z AUTO 07006KT 5SM 16/14 A3009 RMK T01600140 IEM_DS3505
ZGOW,1999-12-10 14:00,ZGOW 101400Z AUTO 05006KT 3SM 15/13 A3009 RMK T01500130 IEM_DS3505
ZGOW,1999-12-10 15:00,ZGOW 101500Z AUTO 04006KT 6SM 17/12 A3012 RMK SLP201 T01660122 52007 IEM_DS3505
ZGOW,1999-12-10 16:00,ZGOW 101600Z AUTO 03002KT 2SM 14/12 A3009 RMK T01400120 IEM_DS3505
ZGOW,1999-12-10 17:00,ZGOW 101700Z AUTO 00000KT 1 1/2SM 14/12 A3012 RMK T01400120 IEM_DS3505
ZGOW,1999-12-10 18:00,ZGOW 101800Z AUTO 09002KT 4SM 14/12 A3009 RMK SLP200 T01450121 57001 IEM_DS3505
ZGOW,1999-12-10 19:00,ZGOW 101900Z AUTO 35002KT 2SM 13/12 A3009 RMK T01300120 IEM_DS3505
ZGOW,1999-12-10 20:00,ZGOW 102000Z AUTO 32002KT 2SM 14/12 A3009 RMK T01400120 IEM_DS3505
ZGOW,1999-12-10 21:00,ZGOW 102100Z AUTO 04004KT 3SM 14/11 A3012 RMK SLP199 T01360107 57001 IEM_DS3505
ZGOW,1999-12-10 22:00,ZGOW 102200Z AUTO 32002KT 2SM 12/11 A3012 RMK T01200110 IEM_DS3505
ZGOW,1999-12-10 23:00,ZGOW 102300Z AUTO 30002KT 2SM 13/10 A3015 RMK T01300100 IEM_DS3505
ZGOW,1999-12-11 00:00,ZGOW 110000Z AUTO 09004KT 3SM 15/09 A3018 RMK SLP220 T01460089 52021 IEM_DS3505
ZGOW,1999-12-11 01:00,ZGOW 110100Z AUTO 32004KT 17/11 A3018 RMK T01700110 IEM_DS3505
ZGOW,1999-12-11 02:00,ZGOW 110200Z AUTO 02004KT 5SM 19/11 A3018 RMK T01900110 IEM_DS3505
ZGOW,1999-12-11 03:00,ZGOW 110300Z AUTO 09006KT 5SM 20/09 A3018 RMK SLP219 T02040093 57001 IEM_DS3505
ZGOW,1999-12-11 04:00,ZGOW 110400Z AUTO 07010KT 6SM 22/09 A3015 RMK T02200090 IEM_DS3505
ZGOW,1999-12-11 05:00,ZGOW 110500Z AUTO 07012KT 6SM 23/08 A3012 RMK T02300080 IEM_DS3505
ZGOW,1999-12-11 06:00,ZGOW 110600Z AUTO 11006KT 9SM 22/05 A3009 RMK SLP200 T02190049 57019 IEM_DS3505
ZGOW,1999-12-11 07:00,ZGOW 110700Z AUTO 09014G23KT 6SM 22/05 A3009 RMK T02200050 IEM_DS3505
ZGOW,1999-12-11 08:00,ZGOW 110800Z AUTO 08016KT 6SM 21/07 A3009 RMK T02100070 IEM_DS3505
ZGOW,1999-12-11 09:00,ZGOW 110900Z AUTO 07008KT 10SM 20/06 A3009 RMK SLP200 T02010058 54000 IEM_DS3505
ZGOW,1999-12-11 10:00,ZGOW 111000Z AUTO 08012KT 6SM 18/08 A3012 RMK T01800080 IEM_DS3505
ZGOW,1999-12-11 11:00,ZGOW 111100Z AUTO 08012KT 6SM 18/08 A3012 RMK T01800080 IEM_DS3505
ZGOW,1999-12-11 12:00,ZGOW 111200Z AUTO 09006KT 9SM 18/06 A3015 RMK SLP216 T01840065 52016 IEM_DS3505
ZGOW,1999-12-11 13:00,ZGOW 111300Z AUTO 07012KT 6SM 18/06 A3015 RMK T01800060 IEM_DS3505
ZGOW,1999-12-11 14:00,ZGOW 111400Z AUTO 07010KT 6SM 18/08 A3015 RMK T01800080 IEM_DS3505
ZGOW,1999-12-11 15:00,ZGOW 111500Z AUTO 09006KT 9SM 18/05 A3015 RMK SLP216 T01820052 54000 IEM_DS3505
ZGOW,1999-12-11 16:00,ZGOW 111600Z AUTO 04006KT 6SM 16/07 A3015 RMK T01600070 IEM_DS3505
ZGOW,1999-12-11 17:00,ZGOW 111700Z AUTO 04002KT 6SM 16/06 A3012 RMK T01600060 IEM_DS3505
ZGOW,1999-12-11 18:00,ZGOW 111800Z AUTO 04002KT 9SM 17/06 A3012 RMK SLP207 T01680059 57009 IEM_DS3505
ZGOW,1999-12-11 19:00,ZGOW 111900Z AUTO 35002KT 6SM 17/07 A3012 RMK T01700070 IEM_DS3505
ZGOW,1999-12-11 20:00,ZGOW 112000Z AUTO 00000KT 16/09 A3009 RMK T01600090 IEM_DS3505
ZGOW,1999-12-11 21:00,ZGOW 112100Z AUTO 00000KT 7SM 16/07 A3012 RMK SLP202 T01580071 57005 IEM_DS3505
ZGOW,1999-12-11 22:00,ZGOW 112200Z AUTO 32002KT 15/09 A3012 RMK T01500090 IEM_DS3505
ZGOW,1999-12-11 23:00,ZGOW 112300Z AUTO 00000KT 2 1/2SM 15/10 A3015 RMK T01500100 IEM_DS3505
ZGOW,1999-12-12 00:00,ZGOW 120000Z AUTO 00000KT 4SM 17/09 A3018 RMK SLP221 T01690092 52019 IEM_DS3505
ZGOW,1999-12-12 01:00,ZGOW 120100Z AUTO 29002KT 2SM 18/11 A3018 RMK T01800110 IEM_DS3505
ZGOW,1999-12-12 02:00,ZGOW 120200Z AUTO 03002KT 3SM 20/08 A3018 RMK T02000080 IEM_DS3505
ZGOW,1999-12-12 03:00,ZGOW 120300Z AUTO 04006KT 4SM 20/08 A3015 RMK SLP219 T02000080 57002 IEM_DS3505
ZGOW,1999-12-12 04:00,ZGOW 120400Z AUTO 06012KT 6SM 20/12 A3015 RMK T02000120 IEM_DS3505
ZGOW,1999-12-12 05:00,ZGOW 120500Z AUTO 08012KT 6SM 21/12 A3012 RMK T02100120 IEM_DS3505
ZGOW,1999-12-12 06:00,ZGOW 120600Z AUTO 04006KT 6SM 21/11 A3009 RMK SLP197 T02110114 57022 IEM_DS3505
ZGOW,1999-12-12 07:00,ZGOW 120700Z AUTO 10010KT 6SM 20/14 A3009 RMK T02000140 IEM_DS3505
ZGOW,1999-12-12 08:00,ZGOW 120800Z AUTO 08010KT 6SM 20/14 A3009 RMK T02000140 IEM_DS3505
ZGOW,1999-12-12 09:00,ZGOW 120900Z AUTO 07006KT 5SM 20/13 RMK SLP196 T02000128 57001 IEM_DS3505
ZGOW,1999-12-12 10:00,ZGOW 121000Z AUTO 07010KT 6SM 19/14 A3009 RMK T01900140 IEM_DS3505
ZGOW,1999-12-12 11:00,ZGOW 121100Z AUTO 07008KT 6SM 18/15 A3012 RMK T01800150 IEM_DS3505
ZGOW,1999-12-12 12:00,ZGOW 121200Z AUTO 07006KT 5SM 19/13 A3012 RMK SLP204 T01860131 52008 IEM_DS3505
ZGOW,1999-12-12 13:00,ZGOW 121300Z AUTO 08006KT 6SM 18/15 A3012 RMK T01800150 IEM_DS3505
ZGOW,1999-12-12 14:00,ZGOW 121400Z AUTO 07008KT 6SM 18/14 A3012 RMK T01800140 IEM_DS3505
ZGOW,1999-12-12 15:00,ZGOW 121500Z AUTO 04006KT 5SM 18/13 RMK SLP206 T01780132 52002 IEM_DS3505
ZGOW,1999-12-12 18:00,ZGOW 121800Z AUTO 07006KT 4SM 17/13 RMK SLP193 T01740131 57013 IEM_DS3505
ZGOW,1999-12-12 21:00,ZGOW 122100Z AUTO 07004KT 5SM 17/13 A3009 RMK SLP195 T01720129 52002 IEM_DS3505
ZGOW,1999-12-12 22:00,ZGOW 122200Z AUTO 04004KT 6SM 16/14 A3009 RMK T01600140 IEM_DS3505
ZGOW,1999-12-12 23:00,ZGOW 122300Z AUTO 08002KT 4SM 16/14 A3012 RMK T01600140 IEM_DS3505
ZGOW,1999-12-13 00:00,ZGOW 130000Z AUTO 04004KT 6SM 17/13 A3012 RMK SLP208 T01730130 52013 IEM_DS3505
ZGOW,1999-12-13 01:00,ZGOW 130100Z AUTO 02002KT 4SM 18/14 A3015 RMK T01800140 IEM_DS3505
ZGOW,1999-12-13 02:00,ZGOW 130200Z AUTO 07004KT 4SM 19/14 A3015 RMK T01900140 IEM_DS3505
ZGOW,1999-12-13 03:00,ZGOW 130300Z AUTO 07002KT 6SM 20/13 A3012 RMK SLP210 T01980131 52002 IEM_DS3505
ZGOW,1999-12-13 04:00,ZGOW 130400Z AUTO 01004KT 3SM 21/14 A3012 RMK T02100140 IEM_DS3505
ZGOW,1999-12-13 05:00,ZGOW 130500Z AUTO 08006KT 22/14 A3009 RMK T02200140 IEM_DS3505
ZGOW,1999-12-13 06:00,ZGOW 130600Z AUTO 09004KT 7SM 22/13 RMK 60003 SLP181 T02150130 57029 IEM_DS3505
ZGOW,1999-12-13 08:00,ZGOW 130800Z AUTO 14004KT 4SM 20/16 A3003 RMK T02000160 IEM_DS3505
ZGOW,1999-12-13 09:00,ZGOW 130900Z AUTO 16002KT 7SM 19/14 A3003 RMK SLP177 T01940144 57004 IEM_DS3505
ZGOW,1999-12-13 10:00,ZGOW 131000Z AUTO 09008KT 4SM 18/14 A3006 RMK T01800140 IEM_DS3505
ZGOW,1999-12-13 11:00,ZGOW 131100Z AUTO 08012KT 6SM 18/14 A3006 RMK T01800140 IEM_DS3505
ZGOW,1999-12-13 12:00,ZGOW 131200Z AUTO 07008KT 7SM 18/11 A3006 RMK SLP192 T01790113 52015 IEM_DS3505
ZGOW,1999-12-13 13:00,ZGOW 131300Z AUTO 07012KT 6SM 17/12 A3009 RMK T01700120 IEM_DS3505
ZGOW,1999-12-13 15:00,ZGOW 131500Z AUTO 04008KT 6SM 18/12 A3009 RMK SLP197 T01770117 52005 IEM_DS3505
ZGOW,1999-12-13 16:00,ZGOW 131600Z AUTO 07012KT 6SM 17/13 A3009 RMK T01700130 IEM_DS3505
ZGOW,1999-12-13 17:00,ZGOW 131700Z AUTO 06008KT 6SM 17/12 A3009 RMK T01700120 IEM_DS3505
ZGOW,1999-12-13 18:00,ZGOW 131800Z AUTO 09004KT 6SM 17/12 A3009 RMK 60003 SLP193 T01700117 57004 IEM_DS3505
ZGOW,1999-12-13 19:00,ZGOW 131900Z AUTO 06008KT 6SM 17/12 A3006 RMK T01700120 IEM_DS3505
ZGOW,1999-12-13 20:00,ZGOW 132000Z AUTO 06006KT 6SM 17/12 A3006 RMK T01700120 IEM_DS3505
ZGOW,1999-12-13 21:00,ZGOW 132100Z AUTO 09004KT 7SM 17/11 A3006 RMK 70003 SLP190 T01700109 57003 IEM_DS3505
ZGOW,1999-12-13 22:00,ZGOW 132200Z AUTO 04004KT 5SM 17/12 A3009 RMK T01700120 IEM_DS3505
ZGOW,1999-12-13 23:00,ZGOW 132300Z AUTO 03004KT 4SM 16/12 A3012 RMK T01600120 IEM_DS3505
ZGOW,1999-12-14 00:00,ZGOW 140000Z AUTO 04004KT 7SM 17/12 A3012 RMK 60003 SLP205 T01700117 52015 IEM_DS3505
ZGOW,1999-12-14 01:00,ZGOW 140100Z AUTO 02006KT 3SM 18/12 A3012 RMK T01800120 IEM_DS3505
ZGOW,1999-12-14 02:00,ZGOW 140200Z AUTO 06008KT 18/12 A3012 RMK T01800120 IEM_DS3505
ZGOW,1999-12-14 03:00,ZGOW 140300Z AUTO 09006KT 5SM 19/11 A3009 RMK SLP200 T01910110 57005 IEM_DS3505
ZGOW,1999-12-14 04:00,ZGOW 140400Z AUTO 03006KT 3SM 20/13 A3009 RMK T02000130 IEM_DS3505
ZGOW,1999-12-14 05:00,ZGOW 140500Z AUTO 04006KT 3SM 20/13 A3006 RMK T02000130 IEM_DS3505
ZGOW,1999-12-14 06:00,ZGOW 140600Z AUTO 09002KT 4SM 21/12 A3003 RMK SLP176 T02110120 57024 IEM_DS3505
ZGOW,1999-12-14 07:00,ZGOW 140700Z AUTO 08006KT 20/12 A3003 RMK T02000120 IEM_DS3505
ZGOW,1999-12-14 08:00,ZGOW 140800Z AUTO 09006KT 5SM 20/11 A3000 RMK T02000110 IEM_DS3505
ZGOW,1999-12-14 09:00,ZGOW 140900Z AUTO 04004KT 3SM 20/11 A3003 RMK SLP174 T01950107 57002 IEM_DS3505
ZGOW,1999-12-14 10:00,ZGOW 141000Z AUTO 08008KT 5SM 18/13 A3003 RMK T01800130 IEM_DS3505
ZGOW,1999-12-14 11:00,ZGOW 141100Z AUTO 07008KT 6SM 18/12 A3006 RMK T01800120 IEM_DS3505
ZGOW,1999-12-14 12:00,ZGOW 141200Z AUTO 09004KT 3SM 18/11 A3006 RMK SLP190 T01790111 52016 IEM_DS3505
ZGOW,1999-12-14 13:00,ZGOW 141300Z AUTO 08010KT 6SM 17/13 A3009 RMK T01700130 IEM_DS3505
ZGOW,1999-12-14 14:00,ZGOW 141400Z AUTO 08010KT 6SM 17/13 A3009 RMK T01700130 IEM_DS3505
ZGOW,1999-12-14 15:00,ZGOW 141500Z AUTO 09008KT 3SM 17/10 A3009 RMK SLP198 T01720105 52008 IEM_DS3505
ZGOW,1999-12-14 16:00,ZGOW 141600Z AUTO 07008KT 6SM 17/12 A3009 RMK T01700120 IEM_DS3505
ZGOW,1999-12-14 17:00,ZGOW 141700Z AUTO 06010KT 6SM 17/11 A3009 RMK T01700110 IEM_DS3505
ZGOW,1999-12-14 18:00,ZGOW 141800Z AUTO 04004KT 4SM 16/11 A3009 RMK SLP194 T01590108 57004 IEM_DS3505
ZGOW,1999-12-14 19:00,ZGOW 141900Z AUTO 03004KT 6SM 16/12 A3006 RMK T01600120 IEM_DS3505
ZGOW,1999-12-14 20:00,ZGOW 142000Z AUTO 04004KT 6SM 16/11 A3006 RMK T01600110 IEM_DS3505
ZGOW,1999-12-14 21:00,ZGOW 142100Z AUTO 02002KT 4SM 16/11 A3006 RMK SLP188 T01580107 57006 IEM_DS3505
ZGOW,1999-12-14 22:00,ZGOW 142200Z AUTO 03006KT 6SM 16/11 A3009 RMK T01600110 IEM_DS3505
ZGOW,1999-12-14 23:00,ZGOW 142300Z AUTO 00000KT 3SM 16/12 A3009 RMK T01600120 IEM_DS3505
ZGOW,1999-12-15 00:00,ZGOW 150000Z AUTO 04004KT 4SM 16/10 A3009 RMK 60003 SLP200 T01630105 52012 IEM_DS3505
ZGOW,1999-12-15 01:00,ZGOW 150100Z AUTO 34006KT 3SM 17/11 A3012 RMK T01700110 IEM_DS3505
ZGOW,1999-12-15 02:00,ZGOW 150200Z AUTO 36004KT 3SM 18/11 A3012 RMK T01800110 IEM_DS3505
ZGOW,1999-12-15 03:00,ZGOW 150300Z AUTO 09006KT 5SM 20/10 A3012 RMK SLP200 T02000102 54000 IEM_DS3505
ZGOW,1999-12-15 04:00,ZGOW 150400Z AUTO 08012KT 6SM 20/11 A3009 RMK T02000110 IEM_DS3505
ZGOW,1999-12-15 05:00,ZGOW 150500Z AUTO 08016KT 6SM 21/10 A3006 RMK T02100100 IEM_DS3505
ZGOW,1999-12-15 06:00,ZGOW 150600Z AUTO 04010KT 5SM 20/07 A3003 RMK SLP177 T02050070 57023 IEM_DS3505
ZGOW,1999-12-15 07:00,ZGOW 150700Z AUTO 09014KT 6SM 20/08 A3000 RMK T02000080 IEM_DS3505
ZGOW,1999-12-15 08:00,ZGOW 150800Z AUTO 09012KT 6SM 20/08 A3000 RMK T02000080 IEM_DS3505
ZGOW,1999-12-15 09:00,ZGOW 150900Z AUTO 09008KT 6SM 19/07 A3003 RMK SLP176 T01940067 57001 IEM_DS3505
ZGOW,1999-12-15 10:00,ZGOW 151000Z AUTO 08014KT 6SM 19/09 A3003 RMK T01900090 IEM_DS3505
ZGOW,1999-12-15 11:00,ZGOW 151100Z AUTO 07016KT 6SM 18/08 A3006 RMK T01800080 IEM_DS3505
ZGOW,1999-12-15 12:00,ZGOW 151200Z AUTO 07010KT 6SM 18/06 A3006 RMK SLP193 T01800065 52017 IEM_DS3505
ZGOW,1999-12-15 13:00,ZGOW 151300Z AUTO 08016KT 6SM 17/07 A3009 RMK T01700070 IEM_DS3505
ZGOW,1999-12-15 15:00,ZGOW 151500Z AUTO 09006KT 6SM 18/05 RMK SLP194 T01760051 52001 IEM_DS3505
ZGOW,1999-12-15 18:00,ZGOW 151800Z AUTO 04002KT 6SM 17/08 RMK SLP185 T01710081 57009 IEM_DS3505
ZGOW,1999-12-15 21:00,ZGOW 152100Z AUTO 00000KT 6SM 17/11 A3003 RMK 70003 SLP179 T01690112 57006 IEM_DS3505
ZGOW,1999-12-15 22:00,ZGOW 152200Z AUTO 32004KT 17/11 A3006 RMK T01700110 IEM_DS3505
ZGOW,1999-12-15 23:00,ZGOW 152300Z AUTO 27002KT 2 1/2SM 17/11 A3006 RMK T01700110 IEM_DS3505
ZGOW,1999-12-16 00:00,ZGOW 160000Z AUTO 25002KT 2SM 16/13 RMK 60002 SLP197 T01570126 52018 IEM_DS3505
ZGOW,1999-12-16 02:00,ZGOW 160200Z AUTO 34008KT 1 1/4SM 15/13 A3012 RMK T01500130 IEM_DS3505
ZGOW,1999-12-16 03:00,ZGOW 160300Z AUTO 02004KT 2SM 14/13 A3009 RMK SLP199 T01440129 52002 IEM_DS3505
ZGOW,1999-12-16 04:00,ZGOW 160400Z AUTO 34006KT 1SM 15/15 A3006 RMK T01500150 IEM_DS3505
ZGOW,1999-12-16 05:00,ZGOW 160500Z AUTO 34006KT 1SM 15/15 A3006 RMK T01500150 IEM_DS3505
ZGOW,1999-12-16 06:00,ZGOW 160600Z AUTO 02004KT 2SM 15/14 A3003 RMK 60008 SLP171 T01520143 57028 IEM_DS3505
ZGOW,1999-12-16 07:00,ZGOW 160700Z AUTO 34004KT 1SM 16/15 A3000 RMK T01600150 IEM_DS3505
ZGOW,1999-12-16 08:00,ZGOW 160800Z AUTO 32004KT 1 1/4SM 16/16 A3000 RMK T01600160 IEM_DS3505
ZGOW,1999-12-16 09:00,ZGOW 160900Z AUTO 04002KT 2SM 16/15 A3003 RMK SLP172 T01620152 52001 IEM_DS3505
ZGOW,1999-12-16 10:00,ZGOW 161000Z AUTO 34002KT 1 1/4SM 16/16 A3003 RMK T01600160 IEM_DS3505
ZGOW,1999-12-16 11:00,ZGOW 161100Z AUTO 32002KT 1SM 16/16 A3006 RMK T01600160 IEM_DS3505
ZGOW,1999-12-16 12:00,ZGOW 161200Z AUTO 02002KT 2SM 16/16 A3006 RMK 60016 SLP185 T01610156 52013 IEM_DS3505
ZGOW,1999-12-16 13:00,ZGOW 161300Z AUTO 32004KT 1SM 16/16 A3006 RMK T01600160 IEM_DS3505
ZGOW,1999-12-16 15:00,ZGOW 161500Z AUTO 04004KT 2 1/2SM 16/15 RMK SLP182 T01580149 57003 IEM_DS3505
ZGOW,1999-12-16 16:00,ZGOW 161600Z AUTO 32004KT 3SM 16/16 A3003 RMK T01600160 IEM_DS3505
ZGOW,1999-12-16 17:00,ZGOW 161700Z AUTO 32004KT 2SM 16/16 A3003 RMK T01600160 IEM_DS3505
ZGOW,1999-12-16 18:00,ZGOW 161800Z AUTO 04004KT 2 1/2SM 16/15 A3000 RMK 60024 SLP168 T01630149 57014 IEM_DS3505
ZGOW,1999-12-16 19:00,ZGOW 161900Z AUTO 33004KT 4SM 16/16 A3000 RMK T01600160 IEM_DS3505
ZGOW,1999-12-16 20:00,ZGOW 162000Z AUTO 33004KT 6SM 16/16 A3000 RMK T01600160 IEM_DS3505
ZGOW,1999-12-16 21:00,ZGOW 162100Z AUTO 04002KT 2 1/2SM 16/15 A3000 RMK 70047 SLP162 T01630153 57006 IEM_DS3505
ZGOW,1999-12-16 22:00,ZGOW 162200Z AUTO 34004KT 3SM 16/16 A3000 RMK T01600160 IEM_DS3505
ZGOW,1999-12-16 23:00,ZGOW 162300Z AUTO 33004KT 2SM 16/16 A3003 RMK T01600160 IEM_DS3505
ZGOW,1999-12-17 00:00,ZGOW 170000Z AUTO 36006KT 4SM 16/15 A3003 RMK 60004 SLP180 T01600151 52018 IEM_DS3505
ZGOW,1999-12-17 01:00,ZGOW 170100Z AUTO 33006KT 2SM 16/16 A3006 RMK T01600160 IEM_DS3505
ZGOW,1999-12-17 02:00,ZGOW 170200Z AUTO 34006KT 2 1/2SM 16/16 A3006 RMK T01600160 IEM_DS3505
ZGOW,1999-12-17 03:00,ZGOW 170300Z AUTO 04004KT 4SM 17/16 A3006 RMK SLP190 T01720157 52010 IEM_DS3505
ZGOW,1999-12-17 04:00,ZGOW 170400Z AUTO 35002KT 2SM 17/16 A3006 RMK T01700160 IEM_DS3505
ZGOW,1999-12-17 05:00,ZGOW 170500Z AUTO 09010KT 1 1/2SM 16/16 A3003 RMK T01600160 IEM_DS3505
ZGOW,1999-12-17 06:00,ZGOW 170600Z AUTO 04006KT 4SM A3000 RMK 60008 SLP173 57017 IEM_DS3505
ZGOW,1999-12-17 07:00,ZGOW 170700Z AUTO 07012KT 4SM 16/14 A3000 RMK T01600140 IEM_DS3505
ZGOW,1999-12-17 08:00,ZGOW 170800Z AUTO 07016KT 4SM 15/14 A3000 RMK T01500140 IEM_DS3505
ZGOW,1999-12-17 09:00,ZGOW 170900Z AUTO 09006KT 4SM 15/13 A3003 RMK SLP176 T01490131 52003 IEM_DS3505
ZGOW,1999-12-17 10:00,ZGOW 171000Z AUTO 07016KT 5SM 15/13 A3006 RMK T01500130 IEM_DS3505
ZGOW,1999-12-17 11:00,ZGOW 171100Z AUTO 07014G23KT 4SM 15/13 A3009 RMK T01500130 IEM_DS3505
ZGOW,1999-12-17 12:00,ZGOW 171200Z AUTO 09006KT 4SM 15/13 A3009 RMK 60008 SLP196 T01510126 52020 IEM_DS3505
ZGOW,1999-12-17 13:00,ZGOW 171300Z AUTO 06004KT 7SM 15/13 A3012 RMK T01500130 IEM_DS3505
ZGOW,1999-12-17 14:00,ZGOW 171400Z AUTO 01002KT 6SM 15/14 A3012 RMK T01500140 IEM_DS3505
ZGOW,1999-12-17 15:00,ZGOW 171500Z AUTO 00000KT 5SM 15/13 A3012 RMK SLP207 T01510133 52011 IEM_DS3505
ZGOW,1999-12-17 16:00,ZGOW 171600Z AUTO 36004KT 4SM 15/14 A3012 RMK T01500140 IEM_DS3505
ZGOW,1999-12-17 18:00,ZGOW 171800Z AUTO 09004KT 5SM 15/13 RMK 60004 SLP206 T01490129 57001 IEM_DS3505
ZGOW,1999-12-17 21:00,ZGOW 172100Z AUTO 04004KT 5SM 15/13 RMK 70021 SLP198 T01460126 57008 IEM_DS3505
ZGOW,1999-12-17 22:00,ZGOW 172200Z AUTO 02004KT 4SM 15/13 A3012 RMK T01500130 IEM_DS3505
ZGOW,1999-12-17 23:00,ZGOW 172300Z AUTO 02004KT 4SM 14/13 A3015 RMK T01400130 IEM_DS3505
ZGOW,1999-12-18 00:00,ZGOW 180000Z AUTO 07004KT 6SM 15/13 A3018 RMK 60002 SLP224 T01470127 52026 IEM_DS3505
ZGOW,1999-12-18 01:00,ZGOW 180100Z AUTO 05012KT 7SM 15/13 A3018 RMK T01500130 IEM_DS3505
ZGOW,1999-12-18 02:00,ZGOW 180200Z AUTO 04010KT 7SM 15/13 A3021 RMK T01500130 IEM_DS3505
ZGOW,1999-12-18 03:00,ZGOW 180300Z AUTO 09006KT 6SM 15/12 A3018 RMK SLP228 T01520117 52004 IEM_DS3505
ZGOW,1999-12-18 04:00,ZGOW 180400Z AUTO 06014KT 7SM 15/13 A3018 RMK T01500130 IEM_DS3505
ZGOW,1999-12-18 05:00,ZGOW 180500Z AUTO 05014KT 7SM 15/13 A3015 RMK T01500130 IEM_DS3505
ZGOW,1999-12-18 06:00,ZGOW 180600Z AUTO 04008KT 6SM 15/12 RMK 60002 SLP202 T01500119 57026 IEM_DS3505
ZGOW,1999-12-18 07:00,ZGOW 180700Z AUTO 06012KT 7SM 15/13 A3009 RMK T01500130 IEM_DS3505
ZGOW,1999-12-18 08:00,ZGOW 180800Z AUTO 03012KT 7SM 15/13 A3012 RMK T01500130 IEM_DS3505
ZGOW,1999-12-18 09:00,ZGOW 180900Z AUTO 04006KT 6SM 15/12 A3012 RMK SLP205 T01490118 52003 IEM_DS3505
ZGOW,1999-12-18 10:00,ZGOW 181000Z AUTO 03006KT 7SM 14/13 A3012 RMK T01400130 IEM_DS3505
ZGOW,1999-12-18 11:00,ZGOW 181100Z AUTO 02004KT 7SM 14/13 A3015 RMK T01400130 IEM_DS3505
ZGOW,1999-12-18 12:00,ZGOW 181200Z AUTO 09004KT 6SM 14/13 A3018 RMK T01400130 IEM_DS3505
ZGOW,1999-12-18 13:00,ZGOW 181300Z AUTO 03004KT 7SM 14/13 A3018 RMK T01400130 IEM_DS3505
ZGOW,1999-12-18 14:00,ZGOW 181400Z AUTO 03008KT 7SM 14/13 A3018 RMK T01400130 IEM_DS3505
ZGOW,1999-12-18 15:00,ZGOW 181500Z AUTO 04004KT 6SM 14/12 A3021 RMK SLP236 T01380119 52014 IEM_DS3505
ZGOW,1999-12-18 16:00,ZGOW 181600Z AUTO 04008KT 6SM 13/12 A3018 RMK T01300120 IEM_DS3505
ZGOW,1999-12-18 18:00,ZGOW 181800Z AUTO 36004KT 7SM 13/12 A3021 RMK 60008 SLP231 T01310122 57005 IEM_DS3505
ZGOW,1999-12-18 21:00,ZGOW 182100Z AUTO 02004KT 7SM 12/11 A3018 RMK 70015 SLP235 T01250114 52004 IEM_DS3505
ZGOW,1999-12-18 22:00,ZGOW 182200Z AUTO 05004KT 7SM 13/12 A3018 RMK T01300120 IEM_DS3505
ZGOW,1999-12-18 23:00,ZGOW 182300Z AUTO 02006KT 7SM 13/12 A3021 RMK T01300120 IEM_DS3505
ZGOW,1999-12-19 00:00,ZGOW 190000Z AUTO 04006KT 7SM 13/11 A3021 RMK 60003 SLP237 T01280107 52002 IEM_DS3505
ZGOW,1999-12-19 01:00,ZGOW 190100Z AUTO 36004KT 7SM 13/11 A3024 RMK T01300110 IEM_DS3505
ZGOW,1999-12-19 02:00,ZGOW 190200Z AUTO 35004KT 7SM 13/11 A3024 RMK T01300110 IEM_DS3505
ZGOW,1999-12-19 03:00,ZGOW 190300Z AUTO 04008KT 9SM 14/11 A3024 RMK SLP239 T01450111 52002 IEM_DS3505
ZGOW,1999-12-19 04:00,ZGOW 190400Z AUTO 03008KT 7SM 15/11 A3024 RMK T01500110 IEM_DS3505
ZGOW,1999-12-19 05:00,ZGOW 190500Z AUTO 04010KT 7SM 16/12 A3018 RMK T01600120 IEM_DS3505
ZGOW,1999-12-19 06:00,ZGOW 190600Z AUTO 04008KT 11SM 16/08 A3015 RMK 60001 SLP214 T01610084 57025 IEM_DS3505
ZGOW,1999-12-19 07:00,ZGOW 190700Z AUTO 03012KT 7SM 17/10 A3015 RMK T01700100 IEM_DS3505
ZGOW,1999-12-19 08:00,ZGOW 190800Z AUTO 04012KT 7SM 16/09 A3015 RMK T01600090 IEM_DS3505
ZGOW,1999-12-19 09:00,ZGOW 190900Z AUTO 04006KT 12SM 16/09 A3018 RMK SLP222 T01580087 52008 IEM_DS3505
ZGOW,1999-12-19 10:00,ZGOW 191000Z AUTO 03006KT 7SM 16/09 A3018 RMK T01600090 IEM_DS3505
ZGOW,1999-12-19 11:00,ZGOW 191100Z AUTO 03006KT 7SM 15/09 A3018 RMK T01500090 IEM_DS3505
ZGOW,1999-12-19 12:00,ZGOW 191200Z AUTO 09006KT 12SM 15/08 A3021 RMK SLP236 T01520082 52014 IEM_DS3505
ZGOW,1999-12-19 13:00,ZGOW 191300Z AUTO 02006KT 6SM 15/09 A3024 RMK T01500090 IEM_DS3505
ZGOW,1999-12-19 14:00,ZGOW 191400Z AUTO 02010KT 6SM 15/08 A3024 RMK T01500080 IEM_DS3505
ZGOW,1999-12-19 15:00,ZGOW 191500Z AUTO 32002KT 11SM 14/09 A3024 RMK SLP249 T01400086 52013 IEM_DS3505
ZGOW,1999-12-19 16:00,ZGOW 191600Z AUTO 34006KT 6SM 13/09 A3024 RMK T01300090 IEM_DS3505
ZGOW,1999-12-19 17:00,ZGOW 191700Z AUTO 34006KT 6SM 13/08 A3024 RMK T01300080 IEM_DS3505
ZGOW,1999-12-19 18:00,ZGOW 191800Z AUTO 04004KT 11SM 12/06 A3024 RMK SLP247 T01200058 57002 IEM_DS3505
ZGOW,1999-12-19 19:00,ZGOW 191900Z AUTO 36004KT 6SM 12/06 A3024 RMK T01200060 IEM_DS3505
ZGOW,1999-12-19 20:00,ZGOW 192000Z AUTO 35006KT 6SM 11/05 A3027 RMK T01100050 IEM_DS3505
ZGOW,1999-12-19 21:00,ZGOW 192100Z AUTO 04004KT 10SM 10/03 A3027 RMK 70002 SLP257 T00970034 52010 IEM_DS3505
ZGOW,1999-12-19 22:00,ZGOW 192200Z AUTO 35008KT 6SM 09/04 A3027 RMK T00900040 IEM_DS3505
ZGOW,1999-12-19 23:00,ZGOW 192300Z AUTO 33006KT 4SM 09/04 A3030 RMK T00900040 IEM_DS3505
ZGOW,1999-12-20 00:00,ZGOW 200000Z AUTO 36006KT 10SM 09/02 A3030 RMK SLP277 T00910024 52020 IEM_DS3505
ZGOW,1999-12-20 01:00,ZGOW 200100Z AUTO 35008KT 6SM 10/04 A3036 RMK T01000040 IEM_DS3505
ZGOW,1999-12-20 02:00,ZGOW 200200Z AUTO 35006KT 6SM 11/04 A3036 RMK T01100040 IEM_DS3505
ZGOW,1999-12-20 03:00,ZGOW 200300Z AUTO 04006KT 12SM 14/03 A3033 RMK SLP279 T01350031 52002 IEM_DS3505
ZGOW,1999-12-20 04:00,ZGOW 200400Z AUTO 04008KT 6SM 14/04 A3033 RMK T01400040 IEM_DS3505
ZGOW,1999-12-20 05:00,ZGOW 200500Z AUTO 06008KT 6SM 15/03 A3027 RMK T01500030 IEM_DS3505
ZGOW,1999-12-20 06:00,ZGOW 200600Z AUTO 04006KT 12SM 16/03 A3024 RMK SLP239 T01580033 57040 IEM_DS3505
ZGOW,1999-12-20 07:00,ZGOW 200700Z AUTO 09008KT 5SM 14/06 A3021 RMK T01400060 IEM_DS3505
ZGOW,1999-12-20 08:00,ZGOW 200800Z AUTO 08012KT 14/07 A3024 RMK T01400070 IEM_DS3505
ZGOW,1999-12-20 09:00,ZGOW 200900Z AUTO 09008KT 9SM 13/06 A3024 RMK SLP244 T01340055 52005 IEM_DS3505
ZGOW,1999-12-20 10:00,ZGOW 201000Z AUTO 07012KT 4SM 12/08 A3024 RMK T01200080 IEM_DS3505
ZGOW,1999-12-20 11:00,ZGOW 201100Z AUTO 08012KT 4SM 12/08 A3027 RMK T01200080 IEM_DS3505
ZGOW,1999-12-20 12:00,ZGOW 201200Z AUTO 04006KT 7SM 12/07 RMK SLP271 T01150066 52027 IEM_DS3505
ZGOW,1999-12-20 13:00,ZGOW 201300Z AUTO 06010KT 4SM 10/07 A3033 RMK T01000070 IEM_DS3505
ZGOW,1999-12-20 14:00,ZGOW 201400Z AUTO 05010KT 4SM 10/05 A3036 RMK T01000050 IEM_DS3505
ZGOW,1999-12-20 15:00,ZGOW 201500Z AUTO 04008KT 6SM 10/03 A3036 RMK SLP285 T00970034 52014 IEM_DS3505
ZGOW,1999-12-20 16:00,ZGOW 201600Z AUTO 05006KT 3SM 08/06 A3036 RMK T00800060 IEM_DS3505
ZGOW,1999-12-20 17:00,ZGOW 201700Z AUTO 03008KT 4SM 08/05 A3036 RMK T00800050 IEM_DS3505
ZGOW,1999-12-20 18:00,ZGOW 201800Z AUTO 36002KT 7SM 07/00 A3036 RMK SLP287 T00700003 52002 IEM_DS3505
ZGOW,1999-12-20 19:00,ZGOW 201900Z AUTO 02006KT 6SM 07/00 A3036 RMK T00700000 IEM_DS3505
ZGOW,1999-12-20 20:00,ZGOW 202000Z AUTO 03008KT 6SM 06/00 A3036 RMK T00600000 IEM_DS3505
ZGOW,1999-12-20 21:00,ZGOW 202100Z AUTO 04004KT 7SM 06/M02 A3036 RMK SLP281 T00591015 57006 IEM_DS3505
ZGOW,1999-12-20 22:00,ZGOW 202200Z AUTO 01006KT 6SM 05/M01 A3036 RMK T00501010 IEM_DS3505
ZGOW,1999-12-20 23:00,ZGOW 202300Z AUTO 34006KT 6SM 05/M01 A3039 RMK T00501010 IEM_DS3505
ZGOW,1999-12-21 00:00,ZGOW 210000Z AUTO 36002KT 12SM 06/M03 A3039 RMK SLP302 T00581031 52021 IEM_DS3505
ZGOW,1999-12-21 01:00,ZGOW 210100Z AUTO 34008KT 6SM 07/M02 A3042 RMK T00701020 IEM_DS3505
ZGOW,1999-12-21 02:00,ZGOW 210200Z AUTO 34008KT 6SM 07/M02 A3042 RMK T00701020 IEM_DS3505
ZGOW,1999-12-21 03:00,ZGOW 210300Z AUTO 02006KT 12SM 12/M04 A3039 RMK SLP299 T01161038 57003 IEM_DS3505
ZGOW,1999-12-21 04:00,ZGOW 210400Z AUTO 35006KT 6SM 12/M01 A3036 RMK T01201010 IEM_DS3505
ZGOW,1999-12-21 05:00,ZGOW 210500Z AUTO 04012KT 6SM 14/M03 A3033 RMK T01401030 IEM_DS3505
ZGOW,1999-12-21 06:00,ZGOW 210600Z AUTO 07008KT 12SM 15/M04 A3030 RMK SLP263 T01511038 57036 IEM_DS3505
ZGOW,1999-12-21 07:00,ZGOW 210700Z AUTO 32006KT 6SM 15/M02 A3027 RMK T01501020 IEM_DS3505
ZGOW,1999-12-21 08:00,ZGOW 210800Z AUTO 32010KT 6SM 14/M04 A3027 RMK T01401040 IEM_DS3505
ZGOW,1999-12-21 11:00,ZGOW 211100Z AUTO 34008KT 6SM 11/M03 A3036 RMK T01101030 IEM_DS3505
ZGOW,1999-12-21 12:00,ZGOW 211200Z AUTO 04004KT 12SM 10/M06 A3039 RMK SLP298 T01021056 52030 IEM_DS3505
ZGOW,1999-12-21 13:00,ZGOW 211300Z AUTO 35006KT 6SM 09/M04 A3042 RMK T00901040 IEM_DS3505
ZGOW,1999-12-21 15:00,ZGOW 211500Z AUTO 02006KT 11SM 08/M08 RMK SLP321 T00781084 52023 IEM_DS3505
ZGOW,1999-12-21 21:00,ZGOW 212100Z AUTO 04004KT 16SM 05/M11 A3045 RMK SLP312 T00481114 57008 IEM_DS3505
ZGOW,1999-12-22 01:00,ZGOW 220100Z AUTO 6SM RMK IEM_DS3505
ZGOW,1999-12-22 02:00,ZGOW 220200Z AUTO 34010KT 6SM 07/M10 A3050 RMK T00701100 IEM_DS3505
ZGOW,1999-12-22 04:00,ZGOW 220400Z AUTO 33010KT 6SM 09/M09 A3045 RMK T00901090 IEM_DS3505
ZGOW,1999-12-22 05:00,ZGOW 220500Z AUTO 36008KT 6SM 10/M08 A3039 RMK T01001080 IEM_DS3505
ZGOW,1999-12-22 06:00,ZGOW 220600Z AUTO 29004KT 19SM 11/M11 A3036 RMK SLP288 T01061112 57041 IEM_DS3505
ZGOW,1999-12-22 07:00,ZGOW 220700Z AUTO 32008KT 6SM 11/M08 A3033 RMK T01101080 IEM_DS3505
ZGOW,1999-12-22 08:00,ZGOW 220800Z AUTO 32008KT 6SM 11/M09 A3030 RMK T01101090 IEM_DS3505
ZGOW,1999-12-22 09:00,ZGOW 220900Z AUTO 34004KT 19SM 10/M08 A3033 RMK SLP275 T01051084 57013 IEM_DS3505
ZGOW,1999-12-22 10:00,ZGOW 221000Z AUTO 08002KT 6SM 09/M05 A3033 RMK T00901050 IEM_DS3505
ZGOW,1999-12-22 11:00,ZGOW 221100Z AUTO 34006KT 6SM 08/M06 A3036 RMK T00801060 IEM_DS3505
ZGOW,1999-12-22 12:00,ZGOW 221200Z AUTO 36004KT 16SM 07/M06 A3039 RMK SLP290 T00701060 52015 IEM_DS3505
ZGOW,1999-12-22 13:00,ZGOW 221300Z AUTO 35004KT 6SM 07/M06 A3039 RMK T00701060 IEM_DS3505
ZGOW,1999-12-22 14:00,ZGOW 221400Z AUTO 34004KT 6SM 06/M05 A3039 RMK T00601050 IEM_DS3505
ZGOW,1999-12-22 15:00,ZGOW 221500Z AUTO 36002KT 16SM 05/M06 A3042 RMK SLP302 T00491056 52012 IEM_DS3505
ZGOW,1999-12-22 16:00,ZGOW 221600Z AUTO 33004KT 6SM 05/M06 A3042 RMK T00501060 IEM_DS3505
ZGOW,1999-12-22 17:00,ZGOW 221700Z AUTO 34004KT 6SM 04/M07 A3042 RMK T00401070 IEM_DS3505
ZGOW,1999-12-22 18:00,ZGOW 221800Z AUTO 04002KT 16SM 04/M07 A3042 RMK SLP303 T00351074 52001 IEM_DS3505
ZGOW,1999-12-22 19:00,ZGOW 221900Z AUTO 34006KT 6SM 04/M08 A3042 RMK T00401080 IEM_DS3505
ZGOW,1999-12-22 20:00,ZGOW 222000Z AUTO 34006KT 6SM 03/M09 A3039 RMK T00301090 IEM_DS3505
ZGOW,1999-12-22 21:00,ZGOW 222100Z AUTO 02004KT 16SM 02/M10 A3039 RMK SLP296 T00251097 57007 IEM_DS3505
ZGOW,1999-12-22 22:00,ZGOW 222200Z AUTO 34006KT 6SM 02/M08 A3039 RMK T00201080 IEM_DS3505
ZGOW,1999-12-22 23:00,ZGOW 222300Z AUTO 34006KT 6SM 02/M08 A3039 RMK T00201080 IEM_DS3505
ZGOW,1999-12-23 00:00,ZGOW 230000Z AUTO 34006KT 6SM 03/M08 A3042 RMK T00301080 IEM_DS3505
ZGOW,1999-12-23 01:00,ZGOW 230100Z AUTO 33008KT 6SM 04/M08 A3042 RMK T00401080 IEM_DS3505
ZGOW,1999-12-23 02:00,ZGOW 230200Z AUTO 34008KT 6SM 07/M08 A3045 RMK T00701080 IEM_DS3505
ZGOW,1999-12-23 03:00,ZGOW 230300Z AUTO 02006KT 17SM 10/M09 A3042 RMK SLP305 T00981090 57001 IEM_DS3505
ZGOW,1999-12-23 06:00,ZGOW 230600Z AUTO 07004KT 19SM 13/M09 RMK SLP265 T01271087 57040 IEM_DS3505
ZGOW,1999-12-23 07:00,ZGOW 230700Z AUTO 06004KT 6SM 12/M07 A3027 RMK T01201070 IEM_DS3505
ZGOW,1999-12-23 08:00,ZGOW 230800Z AUTO 07002KT 6SM 13/M06 A3027 RMK T01301060 IEM_DS3505
ZGOW,1999-12-23 09:00,ZGOW 230900Z AUTO 25004KT 16SM 12/M06 A3027 RMK SLP259 T01201061 57006 IEM_DS3505
ZGOW,1999-12-23 10:00,ZGOW 231000Z AUTO 08002KT 5SM 10/M01 A3027 RMK T01001010 IEM_DS3505
ZGOW,1999-12-23 11:00,ZGOW 231100Z AUTO 05002KT 3SM 08/01 A3027 RMK T00800010 IEM_DS3505
ZGOW,1999-12-23 12:00,ZGOW 231200Z AUTO 04002KT 9SM 07/00 A3030 RMK SLP264 T00660001 52005 IEM_DS3505
ZGOW,1999-12-23 13:00,ZGOW 231300Z AUTO 32004KT 2SM 07/03 A3030 RMK T00700030 IEM_DS3505
ZGOW,1999-12-23 14:00,ZGOW 231400Z AUTO 31002KT 2SM 07/02 A3033 RMK T00700020 IEM_DS3505
ZGOW,1999-12-23 15:00,ZGOW 231500Z AUTO 00000KT 7SM 04/M01 A3033 RMK SLP274 T00371013 52010 IEM_DS3505
ZGOW,1999-12-23 16:00,ZGOW 231600Z AUTO 00000KT 1SM 05/03 A3033 RMK T00500030 IEM_DS3505
ZGOW,1999-12-23 17:00,ZGOW 231700Z AUTO 32004KT 06/M01 A3033 RMK T00601010 IEM_DS3505
ZGOW,1999-12-23 21:00,ZGOW 232100Z AUTO 04004KT 6SM 04/M06 A3027 RMK SLP255 T00441059 57016 IEM_DS3505
ZGOW,1999-12-23 22:00,ZGOW 232200Z AUTO 33006KT 6SM 04/M04 A3027 RMK T00401040 IEM_DS3505
ZGOW,1999-12-23 23:00,ZGOW 232300Z AUTO 34006KT 6SM 04/M06 A3027 RMK T00401060 IEM_DS3505
ZGOW,1999-12-24 00:00,ZGOW 240000Z AUTO 04004KT 16SM 06/M09 A3027 RMK SLP262 T00621090 52007 IEM_DS3505
ZGOW,1999-12-24 01:00,ZGOW 240100Z AUTO 34006KT 6SM 08/M07 A3030 RMK T00801070 IEM_DS3505
ZGOW,1999-12-24 02:00,ZGOW 240200Z AUTO 32010KT 6SM 10/M07 A3027 RMK T01001070 IEM_DS3505
ZGOW,1999-12-24 03:00,ZGOW 240300Z AUTO 04006KT 16SM 14/M09 A3027 RMK SLP260 T01381088 57002 IEM_DS3505
ZGOW,1999-12-24 04:00,ZGOW 240400Z AUTO 35006KT 6SM 14/M08 A3024 RMK T01401080 IEM_DS3505
ZGOW,1999-12-24 05:00,ZGOW 240500Z AUTO 34004KT 6SM 15/M08 A3021 RMK T01501080 IEM_DS3505
ZGOW,1999-12-24 06:00,ZGOW 240600Z AUTO 07006KT 19SM 18/M06 A3018 RMK SLP223 T01811065 57037 IEM_DS3505
ZGOW,1999-12-24 07:00,ZGOW 240700Z AUTO 14004KT 6SM 16/M04 A3018 RMK T01601040 IEM_DS3505
ZGOW,1999-12-24 08:00,ZGOW 240800Z AUTO 12006KT 6SM 15/M02 A3018 RMK T01501020 IEM_DS3505
ZGOW,1999-12-24 09:00,ZGOW 240900Z AUTO 14004KT 12SM 14/M03 A3018 RMK SLP221 T01411031 57002 IEM_DS3505
ZGOW,1999-12-24 10:00,ZGOW 241000Z AUTO 00000KT 6SM 12/02 A3018 RMK T01200020 IEM_DS3505
ZGOW,1999-12-24 11:00,ZGOW 241100Z AUTO 03002KT 6SM 11/03 A3018 RMK T01100030 IEM_DS3505
ZGOW,1999-12-24 12:00,ZGOW 241200Z AUTO 00000KT 10SM 08/03 A3021 RMK SLP236 T00830028 52015 IEM_DS3505
ZGOW,1999-12-24 13:00,ZGOW 241300Z AUTO 36002KT 09/03 A3021 RMK T00900030 IEM_DS3505
ZGOW,1999-12-24 14:00,ZGOW 241400Z AUTO 05004KT 4SM 08/04 A3024 RMK T00800040 IEM_DS3505
ZGOW,1999-12-24 15:00,ZGOW 241500Z AUTO 00000KT 5SM 07/03 RMK SLP243 T00720026 52007 IEM_DS3505
ZGOW,1999-12-24 18:00,ZGOW 241800Z AUTO 04004KT 5SM 06/00 RMK SLP242 T00620005 57001 IEM_DS3505
ZGOW,1999-12-24 21:00,ZGOW 242100Z AUTO 04004KT 6SM 04/M01 A3021 RMK SLP234 T00441014 57008 IEM_DS3505
ZGOW,1999-12-24 22:00,ZGOW 242200Z AUTO 33004KT 6SM 05/M02 A3021 RMK T00501020 IEM_DS3505
ZGOW,1999-12-24 23:00,ZGOW 242300Z AUTO 34006KT 6SM 06/M04 A3021 RMK T00601040 IEM_DS3505
ZGOW,1999-12-25 00:00,ZGOW 250000Z AUTO 04004KT 7SM 07/M04 A3021 RMK SLP244 T00661037 52010 IEM_DS3505
ZGOW,1999-12-25 01:00,ZGOW 250100Z AUTO 32002KT 6SM 09/M04 A3024 RMK T00901040 IEM_DS3505
ZGOW,1999-12-25 02:00,ZGOW 250200Z AUTO 32006KT 6SM 10/M04 A3024 RMK T01001040 IEM_DS3505
ZGOW,1999-12-25 03:00,ZGOW 250300Z AUTO 04004KT 12SM 14/M04 A3024 RMK SLP238 T01391044 57006 IEM_DS3505
ZGOW,1999-12-25 04:00,ZGOW 250400Z AUTO 04006KT 6SM 14/M05 A3021 RMK T01401050 IEM_DS3505
ZGOW,1999-12-25 05:00,ZGOW 250500Z AUTO 08004KT 6SM 15/M06 A3015 RMK T01501060 IEM_DS3505
ZGOW,1999-12-25 06:00,ZGOW 250600Z AUTO 11004KT 12SM 17/M04 A3012 RMK SLP209 T01711039 57029 IEM_DS3505
ZGOW,1999-12-25 07:00,ZGOW 250700Z AUTO 11006KT 6SM 16/M03 A3012 RMK T01601030 IEM_DS3505
ZGOW,1999-12-25 08:00,ZGOW 250800Z AUTO 14006KT 6SM 15/00 A3012 RMK T01500000 IEM_DS3505
ZGOW,1999-12-25 09:00,ZGOW 250900Z AUTO 11004KT 8SM 15/00 A3015 RMK SLP212 T01470003 52003 IEM_DS3505
ZGOW,1999-12-25 10:00,ZGOW 251000Z AUTO 07006KT 6SM 13/04 A3015 RMK T01300040 IEM_DS3505
ZGOW,1999-12-25 11:00,ZGOW 251100Z AUTO 09006KT 6SM 12/04 A3018 RMK T01200040 IEM_DS3505
ZGOW,1999-12-25 12:00,ZGOW 251200Z AUTO 07004KT 6SM 12/04 A3021 RMK SLP232 T01240036 52020 IEM_DS3505
ZGOW,1999-12-25 13:00,ZGOW 251300Z AUTO 06008KT 6SM 11/05 A3021 RMK T01100050 IEM_DS3505
ZGOW,1999-12-25 15:00,ZGOW 251500Z AUTO 07008KT 7SM 11/03 A3021 RMK SLP239 T01080026 52007 IEM_DS3505
ZGOW,1999-12-25 16:00,ZGOW 251600Z AUTO 06002KT 6SM 08/03 A3021 RMK T00800030 IEM_DS3505
ZGOW,1999-12-25 17:00,ZGOW 251700Z AUTO 02002KT 6SM 08/02 A3021 RMK T00800020 IEM_DS3505
ZGOW,1999-12-25 18:00,ZGOW 251800Z AUTO 04004KT 6SM 08/02 A3021 RMK SLP235 T00810023 57004 IEM_DS3505
ZGOW,1999-12-25 19:00,ZGOW 251900Z AUTO 33006KT 4SM 07/04 A3018 RMK T00700040 IEM_DS3505
ZGOW,1999-12-25 20:00,ZGOW 252000Z AUTO 33006KT 5SM 07/03 A3018 RMK T00700030 IEM_DS3505
ZGOW,1999-12-25 21:00,ZGOW 252100Z AUTO 04004KT 6SM 07/01 A3018 RMK SLP226 T00720009 57009 IEM_DS3505
ZGOW,1999-12-25 22:00,ZGOW 252200Z AUTO 32006KT 4SM 06/03 A3018 RMK T00600030 IEM_DS3505
ZGOW,1999-12-25 23:00,ZGOW 252300Z AUTO 32008KT 5SM 06/02 A3018 RMK T00600020 IEM_DS3505
ZGOW,1999-12-26 00:00,ZGOW 260000Z AUTO 04004KT 9SM 07/00 A3021 RMK SLP238 T00730004 52012 IEM_DS3505
ZGOW,1999-12-26 01:00,ZGOW 260100Z AUTO 32006KT 09/02 A3024 RMK T00900020 IEM_DS3505
ZGOW,1999-12-26 02:00,ZGOW 260200Z AUTO 33004KT 11SM 12/02 A3024 RMK T01200020 IEM_DS3505
ZGOW,1999-12-26 03:00,ZGOW 260300Z AUTO 04002KT 11SM 15/M00 A3024 RMK SLP244 T01531005 52006 IEM_DS3505
ZGOW,1999-12-26 04:00,ZGOW 260400Z AUTO 05008KT 6SM 17/M01 A3021 RMK T01701010 IEM_DS3505
ZGOW,1999-12-26 05:00,ZGOW 260500Z AUTO 07010KT 6SM 18/04 A3018 RMK T01800040 IEM_DS3505
ZGOW,1999-12-26 06:00,ZGOW 260600Z AUTO 09008KT 12SM 18/03 A3015 RMK SLP216 T01770029 57028 IEM_DS3505
ZGOW,1999-12-26 07:00,ZGOW 260700Z AUTO 08014KT 6SM 17/06 A3015 RMK T01700060 IEM_DS3505
ZGOW,1999-12-26 08:00,ZGOW 260800Z AUTO 08014KT 6SM 16/07 A3012 RMK T01600070 IEM_DS3505
ZGOW,1999-12-26 09:00,ZGOW 260900Z AUTO 11008KT 11SM 16/05 A3015 RMK SLP217 T01600047 52001 IEM_DS3505
ZGOW,1999-12-26 10:00,ZGOW 261000Z AUTO 08010KT 6SM 15/08 A3018 RMK T01500080 IEM_DS3505
ZGOW,1999-12-26 11:00,ZGOW 261100Z AUTO 07010KT 6SM 15/08 A3021 RMK T01500080 IEM_DS3505
ZGOW,1999-12-26 12:00,ZGOW 261200Z AUTO 07006KT 10SM 15/06 A3021 RMK SLP238 T01480058 52021 IEM_DS3505
ZGOW,1999-12-26 13:00,ZGOW 261300Z AUTO 08016KT 6SM 15/08 A3021 RMK T01500080 IEM_DS3505
ZGOW,1999-12-26 14:00,ZGOW 261400Z AUTO 07014KT 6SM 15/08 A3021 RMK T01500080 IEM_DS3505
ZGOW,1999-12-26 15:00,ZGOW 261500Z AUTO 09006KT 12SM 14/06 A3024 RMK SLP246 T01450061 52008 IEM_DS3505
ZGOW,1999-12-26 16:00,ZGOW 261600Z AUTO 08004KT 6SM 14/08 A3024 RMK T01400080 IEM_DS3505
ZGOW,1999-12-26 17:00,ZGOW 261700Z AUTO 04004KT 6SM 13/07 A3024 RMK T01300070 IEM_DS3505
ZGOW,1999-12-26 18:00,ZGOW 261800Z AUTO 02002KT 10SM 13/07 A3024 RMK 60003 SLP245 T01310066 57001 IEM_DS3505
ZGOW,1999-12-26 19:00,ZGOW 261900Z AUTO 30002KT 2SM 12/08 A3021 RMK T01200080 IEM_DS3505
ZGOW,1999-12-26 20:00,ZGOW 262000Z AUTO 23002KT 2SM 12/09 A3021 RMK T01200090 IEM_DS3505
ZGOW,1999-12-26 22:00,ZGOW 262200Z AUTO 00000KT 2 1/2SM 12/09 A3021 RMK T01200090 IEM_DS3505
ZGOW,1999-12-26 23:00,ZGOW 262300Z AUTO 26006KT 2 1/2SM 12/08 A3024 RMK T01200080 IEM_DS3505
ZGOW,1999-12-27 00:00,ZGOW 270000Z AUTO 00000KT 4SM 12/08 A3027 RMK 60003 SLP253 T01230082 52016 IEM_DS3505
ZGOW,1999-12-27 01:00,ZGOW 270100Z AUTO 33004KT 2 1/2SM 13/08 A3027 RMK T01300080 IEM_DS3505
ZGOW,1999-12-27 03:00,ZGOW 270300Z AUTO 04006KT 4SM 14/07 A3024 RMK SLP251 T01440068 57002 IEM_DS3505
ZGOW,1999-12-27 04:00,ZGOW 270400Z AUTO 01004KT 2 1/2SM 17/09 A3024 RMK T01700090 IEM_DS3505
ZGOW,1999-12-27 05:00,ZGOW 270500Z AUTO 34002KT 3SM 18/10 A3021 RMK T01800100 IEM_DS3505
ZGOW,1999-12-27 06:00,ZGOW 270600Z AUTO 04004KT 4SM 18/09 A3018 RMK 60000 SLP226 T01780087 57025 IEM_DS3505
ZGOW,1999-12-27 07:00,ZGOW 270700Z AUTO 22004KT 18/11 A3018 RMK T01800110 IEM_DS3505
ZGOW,1999-12-27 08:00,ZGOW 270800Z AUTO 06002KT 18/11 A3018 RMK T01800110 IEM_DS3505
ZGOW,1999-12-27 09:00,ZGOW 270900Z AUTO 20004KT 2SM 15/12 A3021 RMK SLP234 T01460122 52008 IEM_DS3505
ZGOW,1999-12-27 10:00,ZGOW 271000Z AUTO 06004KT 1 1/2SM 14/14 A3021 RMK T01400140 IEM_DS3505
ZGOW,1999-12-27 11:00,ZGOW 271100Z AUTO 06004KT 4SM 15/14 A3021 RMK T01500140 IEM_DS3505
ZGOW,1999-12-27 12:00,ZGOW 271200Z AUTO 09006KT 4SM 15/13 A3021 RMK 60012 SLP245 T01490129 52011 IEM_DS3505
ZGOW,1999-12-27 13:00,ZGOW 271300Z AUTO 06008KT 4SM 15/14 A3021 RMK T01500140 IEM_DS3505
ZGOW,1999-12-27 14:00,ZGOW 271400Z AUTO 03004KT 4SM 15/14 A3021 RMK T01500140 IEM_DS3505
ZGOW,1999-12-27 15:00,ZGOW 271500Z AUTO 02002KT 4SM 15/14 RMK SLP242 T01500136 52004 IEM_DS3505
ZGOW,1999-12-27 18:00,ZGOW 271800Z AUTO 04002KT 2SM 14/12 RMK 60003 SLP230 T01380125 57012 IEM_DS3505
ZGOW,1999-12-27 21:00,ZGOW 272100Z AUTO 00000KT 1 1/4SM 14/13 A3018 RMK 70010 SLP223 T01360127 57007 IEM_DS3505
ZGOW,1999-12-27 22:00,ZGOW 272200Z AUTO 33002KT 1SM 14/13 A3018 RMK T01400130 IEM_DS3505
ZGOW,1999-12-27 23:00,ZGOW 272300Z AUTO 33002KT 1SM 14/13 A3018 RMK T01400130 IEM_DS3505
ZGOW,1999-12-28 00:00,ZGOW 280000Z AUTO 00000KT 2SM 14/12 A3021 RMK 60003 SLP235 T01380123 52012 IEM_DS3505
ZGOW,1999-12-28 01:00,ZGOW 280100Z AUTO 36002KT 1 1/4SM 16/13 A3021 RMK T01600130 IEM_DS3505
ZGOW,1999-12-28 02:00,ZGOW 280200Z AUTO 01002KT 1 1/2SM 18/14 A3021 RMK T01800140 IEM_DS3505
ZGOW,1999-12-28 03:00,ZGOW 280300Z AUTO 09006KT 4SM 20/13 A3021 RMK SLP233 T02020130 57002 IEM_DS3505
ZGOW,1999-12-28 04:00,ZGOW 280400Z AUTO 08008KT 6SM 20/14 A3018 RMK T02000140 IEM_DS3505
ZGOW,1999-12-28 05:00,ZGOW 280500Z AUTO 08008KT 6SM 21/14 A3015 RMK T02100140 IEM_DS3505
ZGOW,1999-12-28 06:00,ZGOW 280600Z AUTO 04008KT 11SM 22/13 A3009 RMK SLP201 T02160133 57032 IEM_DS3505
ZGOW,1999-12-28 07:00,ZGOW 280700Z AUTO 10008KT 6SM 21/15 A3009 RMK T02100150 IEM_DS3505
ZGOW,1999-12-28 08:00,ZGOW 280800Z AUTO 15006KT 6SM 20/15 A3009 RMK T02000150 IEM_DS3505
ZGOW,1999-12-28 09:00,ZGOW 280900Z AUTO 14002KT 7SM 19/14 A3009 RMK SLP196 T01910137 57005 IEM_DS3505
ZGOW,1999-12-28 10:00,ZGOW 281000Z AUTO 09010KT 6SM 18/14 A3012 RMK T01800140 IEM_DS3505
ZGOW,1999-12-28 11:00,ZGOW 281100Z AUTO 08012KT 6SM 17/13 A3012 RMK T01700130 IEM_DS3505
ZGOW,1999-12-28 12:00,ZGOW 281200Z AUTO 07006KT 7SM 17/12 A3012 RMK SLP210 T01680121 52014 IEM_DS3505
ZGOW,1999-12-28 13:00,ZGOW 281300Z AUTO 07012KT 6SM 16/13 A3012 RMK T01600130 IEM_DS3505
ZGOW,1999-12-28 14:00,ZGOW 281400Z AUTO 07010KT 6SM 15/13 A3012 RMK T01500130 IEM_DS3505
ZGOW,1999-12-28 15:00,ZGOW 281500Z AUTO 09004KT 7SM 16/12 A3012 RMK SLP208 T01570122 57002 IEM_DS3505
ZGOW,1999-12-28 16:00,ZGOW 281600Z AUTO 08004KT 6SM 15/13 A3012 RMK T01500130 IEM_DS3505
ZGOW,1999-12-28 17:00,ZGOW 281700Z AUTO 01002KT 4SM 14/13 A3009 RMK T01400130 IEM_DS3505
ZGOW,1999-12-28 18:00,ZGOW 281800Z AUTO 07002KT 6SM 14/12 A3009 RMK SLP199 T01380121 57009 IEM_DS3505
ZGOW,1999-12-28 19:00,ZGOW 281900Z AUTO 32004KT 1 1/4SM 13/13 A3009 RMK T01300130 IEM_DS3505
ZGOW,1999-12-28 20:00,ZGOW 282000Z AUTO 32004KT 1SM 13/13 A3009 RMK T01300130 IEM_DS3505
ZGOW,1999-12-28 21:00,ZGOW 282100Z AUTO 04002KT 5SM 13/12 A3009 RMK SLP192 T01260115 57007 IEM_DS3505
ZGOW,1999-12-28 22:00,ZGOW 282200Z AUTO 32004KT 2SM 13/12 A3009 RMK T01300120 IEM_DS3505
ZGOW,1999-12-28 23:00,ZGOW 282300Z AUTO 00000KT 1 1/4SM 12/12 A3009 RMK T01200120 IEM_DS3505
ZGOW,1999-12-29 00:00,ZGOW 290000Z AUTO 07002KT 4SM 14/11 A3012 RMK SLP203 T01360113 52011 IEM_DS3505
ZGOW,1999-12-29 01:00,ZGOW 290100Z AUTO 32006KT 2SM 14/12 A3012 RMK T01400120 IEM_DS3505
ZGOW,1999-12-29 02:00,ZGOW 290200Z AUTO 33004KT 3SM 16/12 A3012 RMK T01600120 IEM_DS3505
ZGOW,1999-12-29 03:00,ZGOW 290300Z AUTO 36004KT 3SM 18/12 A3012 RMK SLP202 T01850122 57001 IEM_DS3505
ZGOW,1999-12-29 04:00,ZGOW 290400Z AUTO 07004KT 6SM 20/14 A3006 RMK T02000140 IEM_DS3505
ZGOW,1999-12-29 05:00,ZGOW 290500Z AUTO 05004KT 6SM 21/14 A3003 RMK T02100140 IEM_DS3505
ZGOW,1999-12-29 06:00,ZGOW 290600Z AUTO 09004KT 6SM 22/12 A3000 RMK SLP165 T02190122 57037 IEM_DS3505
ZGOW,1999-12-29 07:00,ZGOW 290700Z AUTO 13006KT 6SM 20/14 A3000 RMK T02000140 IEM_DS3505
ZGOW,1999-12-29 08:00,ZGOW 290800Z AUTO 11004KT 4SM 19/15 A3000 RMK T01900150 IEM_DS3505
ZGOW,1999-12-29 09:00,ZGOW 290900Z AUTO 11004KT 6SM 19/13 A3000 RMK SLP159 T01920134 57006 IEM_DS3505
ZGOW,1999-12-29 10:00,ZGOW 291000Z AUTO 08004KT 4SM 18/14 A3000 RMK T01800140 IEM_DS3505
ZGOW,1999-12-29 11:00,ZGOW 291100Z AUTO 08006KT 6SM 17/14 A3000 RMK T01700140 IEM_DS3505
ZGOW,1999-12-29 12:00,ZGOW 291200Z AUTO 07006KT 6SM 18/12 A3003 RMK SLP171 T01750121 52012 IEM_DS3505
ZGOW,1999-12-29 13:00,ZGOW 291300Z AUTO 06006KT 6SM 16/13 A3003 RMK T01600130 IEM_DS3505
ZGOW,1999-12-29 14:00,ZGOW 291400Z AUTO 06002KT 4SM 15/13 A3003 RMK T01500130 IEM_DS3505
ZGOW,1999-12-29 15:00,ZGOW 291500Z AUTO 04004KT 9SM 16/12 A3003 RMK SLP174 T01580123 52003 IEM_DS3505
ZGOW,1999-12-29 16:00,ZGOW 291600Z AUTO 00000KT 4SM 14/13 A3003 RMK T01400130 IEM_DS3505
ZGOW,1999-12-29 17:00,ZGOW 291700Z AUTO 36002KT 4SM 15/13 A3003 RMK T01500130 IEM_DS3505
ZGOW,1999-12-29 18:00,ZGOW 291800Z AUTO 00000KT 7SM 15/13 A3003 RMK SLP174 T01460126 54000 IEM_DS3505
ZGOW,1999-12-29 19:00,ZGOW 291900Z AUTO 02002KT 2 1/2SM 14/13 A3000 RMK T01400130 IEM_DS3505
ZGOW,1999-12-29 20:00,ZGOW 292000Z AUTO 00000KT 1SM 14/13 A3000 RMK T01400130 IEM_DS3505
ZGOW,1999-12-29 21:00,ZGOW 292100Z AUTO 00000KT 6SM 13/12 A3000 RMK SLP169 T01320123 57005 IEM_DS3505
ZGOW,1999-12-29 22:00,ZGOW 292200Z AUTO 31004KT 1 1/4SM 14/13 A3003 RMK T01400130 IEM_DS3505
ZGOW,1999-12-29 23:00,ZGOW 292300Z AUTO 00000KT 1SM 13/12 A3003 RMK T01300120 IEM_DS3505
ZGOW,1999-12-30 00:00,ZGOW 300000Z AUTO 07004KT 3SM 14/12 A3006 RMK SLP184 T01440122 52015 IEM_DS3505
ZGOW,1999-12-30 01:00,ZGOW 300100Z AUTO 32004KT 2SM 16/13 A3006 RMK T01600130 IEM_DS3505
ZGOW,1999-12-30 02:00,ZGOW 300200Z AUTO 31002KT 2 1/2SM 18/13 A3009 RMK T01800130 IEM_DS3505
ZGOW,1999-12-30 03:00,ZGOW 300300Z AUTO 09006KT 6SM 21/12 A3006 RMK SLP184 T02110120 54000 IEM_DS3505
ZGOW,1999-12-30 04:00,ZGOW 300400Z AUTO 08010KT 6SM 22/14 A3003 RMK T02200140 IEM_DS3505
ZGOW,1999-12-30 05:00,ZGOW 300500Z AUTO 08010KT 6SM 22/13 A2997 RMK T02200130 IEM_DS3505
ZGOW,1999-12-30 06:00,ZGOW 300600Z AUTO 18006KT 6SM 22/12 A2994 RMK SLP151 T02180121 57033 IEM_DS3505
ZGOW,1999-12-30 07:00,ZGOW 300700Z AUTO 12008KT 6SM 21/13 A2994 RMK T02100130 IEM_DS3505
ZGOW,1999-12-30 08:00,ZGOW 300800Z AUTO 12008KT 6SM 20/14 A2994 RMK T02000140 IEM_DS3505
ZGOW,1999-12-30 09:00,ZGOW 300900Z AUTO 11004KT 6SM 19/12 A2997 RMK SLP149 T01920124 57002 IEM_DS3505
ZGOW,1999-12-30 10:00,ZGOW 301000Z AUTO 08006KT 6SM 18/12 A2997 RMK T01800120 IEM_DS3505
ZGOW,1999-12-30 11:00,ZGOW 301100Z AUTO 06010KT 6SM 17/13 A3000 RMK T01700130 IEM_DS3505
ZGOW,1999-12-30 12:00,ZGOW 301200Z AUTO 07004KT 6SM 17/12 A3000 RMK SLP170 T01690116 52021 IEM_DS3505
ZGOW,1999-12-30 13:00,ZGOW 301300Z AUTO 07006KT 6SM 15/13 A3003 RMK T01500130 IEM_DS3505
ZGOW,1999-12-30 14:00,ZGOW 301400Z AUTO 06012KT 6SM 15/13 A3003 RMK T01500130 IEM_DS3505
ZGOW,1999-12-30 15:00,ZGOW 301500Z AUTO 04004KT 6SM 16/12 RMK SLP184 T01570120 52014 IEM_DS3505
ZGOW,1999-12-30 16:00,ZGOW 301600Z AUTO 05006KT 2 1/2SM 15/13 A3006 RMK T01500130 IEM_DS3505
ZGOW,1999-12-30 17:00,ZGOW 301700Z AUTO 00000KT 2 1/2SM 14/13 A3006 RMK T01400130 IEM_DS3505
ZGOW,1999-12-30 18:00,ZGOW 301800Z AUTO 04002KT 4SM 12/11 A3003 RMK SLP179 T01240111 57005 IEM_DS3505
ZGOW,1999-12-30 21:00,ZGOW 302100Z AUTO 04004KT 3SM 12/11 RMK SLP178 T01170109 57001 IEM_DS3505
ZGOW,1999-12-30 22:00,ZGOW 302200Z AUTO 00000KT 1SM 12/11 A3006 RMK T01200110 IEM_DS3505
ZGOW,1999-12-30 23:00,ZGOW 302300Z AUTO 26002KT 1SM 11/11 A3006 RMK T01100110 IEM_DS3505
