station,valid,metar
ZGOW,2001-01-01 00:00,ZGOW 010000Z AUTO 04004KT 4SM 12/07 A3012 RMK SLP205 T01160072 52014 IEM_DS3505
ZGOW,2001-01-01 01:00,ZGOW 010100Z AUTO 04006KT 4SM 13/09 A3012 RMK T01300090 IEM_DS3505
ZGOW,2001-01-01 02:00,ZGOW 010200Z AUTO 04006KT 6SM 15/09 A3012 RMK T01500090 IEM_DS3505
ZGOW,2001-01-01 03:00,ZGOW 010300Z AUTO 34004KT 6SM 16/08 A3009 RMK SLP199 T01600076 57006 IEM_DS3505
ZGOW,2001-01-01 04:00,ZGOW 010400Z AUTO 06006KT 5SM 16/08 A3009 RMK T01600080 IEM_DS3505
ZGOW,2001-01-01 05:00,ZGOW 010500Z AUTO 09006KT 6SM 17/08 A3006 RMK T01700080 IEM_DS3505
ZGOW,2001-01-01 06:00,ZGOW 010600Z AUTO 11006KT 7SM 17/07 A3003 RMK SLP177 T01740072 57022 IEM_DS3505
ZGOW,2001-01-01 07:00,ZGOW 010700Z AUTO 05006KT 6SM 17/09 A3003 RMK T01700090 IEM_DS3505
ZGOW,2001-01-01 08:00,ZGOW 010800Z AUTO 09004KT 16/09 A3003 RMK T01600090 IEM_DS3505
ZGOW,2001-01-01 09:00,ZGOW 010900Z AUTO 11002KT 6SM 16/08 A3003 RMK SLP175 T01590082 57002 IEM_DS3505
ZGOW,2001-01-01 10:00,ZGOW 011000Z AUTO 09004KT 4SM 13/10 A3003 RMK T01300100 IEM_DS3505
ZGOW,2001-01-01 11:00,ZGOW 011100Z AUTO 08004KT 4SM 13/10 A3006 RMK T01300100 IEM_DS3505
ZGOW,2001-01-01 12:00,ZGOW 011200Z AUTO 00000KT 6SM 12/09 A3006 RMK SLP186 T01230091 52011 IEM_DS3505
ZGOW,2001-01-01 13:00,ZGOW 011300Z AUTO 03004KT 5SM 11/09 A3006 RMK T01100090 IEM_DS3505
ZGOW,2001-01-01 14:00,ZGOW 011400Z AUTO 05004KT 4SM 12/10 A3006 RMK T01200100 IEM_DS3505
ZGOW,2001-01-01 15:00,ZGOW 011500Z AUTO 04004KT 5SM 13/10 A3006 RMK SLP186 T01280099 54000 IEM_DS3505
ZGOW,2001-01-01 16:00,ZGOW 011600Z AUTO 04006KT 4SM 11/10 A3006 RMK T01100100 IEM_DS3505
ZGOW,2001-01-01 17:00,ZGOW 011700Z AUTO 01004KT 5SM 11/10 A3006 RMK T01100100 IEM_DS3505
ZGOW,2001-01-01 18:00,ZGOW 011800Z AUTO 07004KT 4SM 12/09 A3006 RMK SLP183 T01150087 57003 IEM_DS3505
ZGOW,2001-01-01 19:00,ZGOW 011900Z AUTO 33002KT 4SM 11/10 A3006 RMK T01100100 IEM_DS3505
ZGOW,2001-01-01 20:00,ZGOW 012000Z AUTO 33006KT 2SM 11/10 A3006 RMK T01100100 IEM_DS3505
ZGOW,2001-01-01 21:00,ZGOW 012100Z AUTO 07004KT 4SM 11/09 A3006 RMK SLP182 T01100086 57001 IEM_DS3505
ZGOW,2001-01-01 22:00,ZGOW 012200Z AUTO 33008KT 2 1/2SM 10/09 A3006 RMK T01000090 IEM_DS3505
ZGOW,2001-01-01 23:00,ZGOW 012300Z AUTO 32008KT 1 1/2SM 10/09 A3006 RMK T01000090 IEM_DS3505
ZGOW,2001-01-02 00:00,ZGOW 020000Z AUTO 02004KT 2 1/2SM 11/08 A3009 RMK SLP193 T01130085 52011 IEM_DS3505
ZGOW,2001-01-02 01:00,ZGOW 020100Z AUTO 33006KT 2 1/2SM 13/11 A3009 RMK T01300110 IEM_DS3505
ZGOW,2001-01-02 02:00,ZGOW 020200Z AUTO 31004KT 2 1/2SM 16/11 A3009 RMK T01600110 IEM_DS3505
ZGOW,2001-01-02 03:00,ZGOW 020300Z AUTO 07002KT 4SM 17/08 A3009 RMK SLP191 T01740080 57002 IEM_DS3505
ZGOW,2001-01-02 04:00,ZGOW 020400Z AUTO 06008KT 6SM 19/08 A3006 RMK T01900080 IEM_DS3505
ZGOW,2001-01-02 05:00,ZGOW 020500Z AUTO 11004KT 6SM 20/09 A3000 RMK T02000090 IEM_DS3505
ZGOW,2001-01-02 06:00,ZGOW 020600Z AUTO 07006KT 8SM 20/08 A3000 RMK SLP160 T02020081 57031 IEM_DS3505
ZGOW,2001-01-02 07:00,ZGOW 020700Z AUTO 10004KT 6SM 20/11 A2997 RMK T02000110 IEM_DS3505
ZGOW,2001-01-02 08:00,ZGOW 020800Z AUTO 14006KT 6SM 19/12 A2997 RMK T01900120 IEM_DS3505
ZGOW,2001-01-02 09:00,ZGOW 020900Z AUTO 16004KT 8SM 18/11 A2997 RMK SLP156 T01830107 57004 IEM_DS3505
ZGOW,2001-01-02 10:00,ZGOW 021000Z AUTO 14004KT 5SM 16/13 A3000 RMK T01600130 IEM_DS3505
ZGOW,2001-01-02 11:00,ZGOW 021100Z AUTO 13002KT 4SM 16/14 A3000 RMK T01600140 IEM_DS3505
ZGOW,2001-01-02 12:00,ZGOW 021200Z AUTO 11002KT 7SM 16/13 RMK SLP176 T01620132 52020 IEM_DS3505
ZGOW,2001-01-02 13:00,ZGOW 021300Z AUTO 00000KT 2 1/2SM 15/14 A3003 RMK T01500140 IEM_DS3505
ZGOW,2001-01-02 14:00,ZGOW 021400Z AUTO 06002KT 2 1/2SM 14/13 A3006 RMK T01400130 IEM_DS3505
ZGOW,2001-01-02 15:00,ZGOW 021500Z AUTO 04002KT 4SM 14/13 A3003 RMK SLP183 T01430128 52007 IEM_DS3505
ZGOW,2001-01-02 16:00,ZGOW 021600Z AUTO 07002KT 2SM 14/14 A3006 RMK T01400140 IEM_DS3505
ZGOW,2001-01-02 17:00,ZGOW 021700Z AUTO 07006KT 3SM 14/14 A3006 RMK T01400140 IEM_DS3505
ZGOW,2001-01-02 18:00,ZGOW 021800Z AUTO 36002KT 4SM 14/13 A3006 RMK SLP185 T01390130 52002 IEM_DS3505
ZGOW,2001-01-02 19:00,ZGOW 021900Z AUTO 01004KT 3SM 14/14 A3006 RMK T01400140 IEM_DS3505
ZGOW,2001-01-02 20:00,ZGOW 022000Z AUTO 04006KT 3SM 13/13 A3006 RMK T01300130 IEM_DS3505
ZGOW,2001-01-02 21:00,ZGOW 022100Z AUTO 07006KT 4SM 14/12 A3006 RMK SLP185 T01390124 IEM_DS3505
ZGOW,2001-01-02 22:00,ZGOW 022200Z AUTO 02006KT 7SM 13/12 A3006 RMK T01300120 IEM_DS3505
ZGOW,2001-01-02 23:00,ZGOW 022300Z AUTO 34002KT 3SM 12/12 A3009 RMK T01200120 IEM_DS3505
ZGOW,2001-01-03 00:00,ZGOW 030000Z AUTO 04004KT 5SM 14/11 A3009 RMK SLP199 T01360113 52014 IEM_DS3505
ZGOW,2001-01-03 01:00,ZGOW 030100Z AUTO 03006KT 4SM 16/14 A3012 RMK T01600140 IEM_DS3505
ZGOW,2001-01-03 02:00,ZGOW 030200Z AUTO 07012KT 6SM 17/14 A3012 RMK T01700140 IEM_DS3505
ZGOW,2001-01-03 03:00,ZGOW 030300Z AUTO 07008KT 7SM 18/12 A3012 RMK SLP201 T01840123 52002 IEM_DS3505
ZGOW,2001-01-03 04:00,ZGOW 030400Z AUTO 07012KT 5SM 19/14 A3009 RMK T01900140 IEM_DS3505
ZGOW,2001-01-03 05:00,ZGOW 030500Z AUTO 07010KT 5SM 20/14 A3006 RMK T02000140 IEM_DS3505
ZGOW,2001-01-03 06:00,ZGOW 030600Z AUTO 07004KT 9SM 20/12 A3003 RMK SLP172 T02010123 57029 IEM_DS3505
ZGOW,2001-01-03 07:00,ZGOW 030700Z AUTO 09006KT 5SM 20/14 A3000 RMK T02000140 IEM_DS3505
ZGOW,2001-01-03 08:00,ZGOW 030800Z AUTO 14004KT 5SM 20/15 A3000 RMK T02000150 IEM_DS3505
ZGOW,2001-01-03 09:00,ZGOW 030900Z AUTO 11004KT 7SM 19/13 A3000 RMK SLP169 T01860133 57003 IEM_DS3505
ZGOW,2001-01-03 10:00,ZGOW 031000Z AUTO 08006KT 4SM 17/14 A3003 RMK T01700140 IEM_DS3505
ZGOW,2001-01-03 11:00,ZGOW 031100Z AUTO 08012KT 4SM 17/14 A3006 RMK T01700140 IEM_DS3505
ZGOW,2001-01-03 12:00,ZGOW 031200Z AUTO 07008KT 6SM 17/14 A3006 RMK SLP188 T01700136 52019 IEM_DS3505
ZGOW,2001-01-03 13:01,ZGOW 031301Z AUTO 08012KT 4SM 16/14 A3009 RMK T01600140 IEM_DS3505
ZGOW,2001-01-03 14:00,ZGOW 031400Z AUTO 08010KT 3SM 16/14 A3009 RMK T01600140 IEM_DS3505
ZGOW,2001-01-03 15:00,ZGOW 031500Z AUTO 07008KT 6SM 16/13 A3009 RMK SLP198 T01610132 52010 IEM_DS3505
ZGOW,2001-01-03 16:00,ZGOW 031600Z AUTO 07012KT 5SM 16/14 A3009 RMK T01600140 IEM_DS3505
ZGOW,2001-01-03 17:00,ZGOW 031700Z AUTO 07012KT 4SM 16/14 A3009 RMK T01600140 IEM_DS3505
ZGOW,2001-01-03 18:00,ZGOW 031800Z AUTO 09006KT 6SM 16/13 A3009 RMK SLP197 T01590132 57001 IEM_DS3505
ZGOW,2001-01-03 19:01,ZGOW 031901Z AUTO 07008KT 5SM 16/14 A3009 RMK T01600140 IEM_DS3505
ZGOW,2001-01-03 20:00,ZGOW 032000Z AUTO 04006KT 4SM 15/14 A3009 RMK T01500140 IEM_DS3505
ZGOW,2001-01-03 21:00,ZGOW 032100Z AUTO 07004KT 6SM 16/13 RMK SLP197 T01560129 54000 IEM_DS3505
ZGOW,2001-01-03 21:01,ZGOW 032101Z AUTO 05006KT 4SM 15/13 A3009 RMK T01500130 IEM_DS3505
ZGOW,2001-01-03 22:00,ZGOW 032200Z AUTO 07002KT 3SM 14/13 A3012 RMK T01400130 IEM_DS3505
ZGOW,2001-01-03 23:00,ZGOW 032300Z AUTO 07006KT 3SM 14/13 A3015 RMK T01400130 IEM_DS3505
ZGOW,2001-01-04 00:00,ZGOW 040000Z AUTO 09006KT 6SM 16/13 A3015 RMK SLP214 T01570126 52017 IEM_DS3505
ZGOW,2001-01-04 01:00,ZGOW 040100Z AUTO 08010KT 7SM 16/14 A3018 RMK T01600140 IEM_DS3505
ZGOW,2001-01-04 02:00,ZGOW 040200Z AUTO 08012KT 7SM 17/14 A3018 RMK T01700140 IEM_DS3505
ZGOW,2001-01-04 03:00,ZGOW 040300Z AUTO 07006KT 7SM 17/12 A3018 RMK SLP222 T01710124 52008 IEM_DS3505
ZGOW,2001-01-04 04:00,ZGOW 040400Z AUTO 07010KT 7SM 19/15 A3015 RMK T01900150 IEM_DS3505
ZGOW,2001-01-04 05:00,ZGOW 040500Z AUTO 07008KT 7SM 20/15 A3012 RMK T02000150 IEM_DS3505
ZGOW,2001-01-04 06:00,ZGOW 040600Z AUTO 04008KT 6SM 20/13 A3009 RMK SLP194 T02000130 57028 IEM_DS3505
ZGOW,2001-01-04 07:00,ZGOW 040700Z AUTO 08012KT 7SM 19/15 A3006 RMK T01900150 IEM_DS3505
ZGOW,2001-01-04 08:00,ZGOW 040800Z AUTO 09010KT 7SM 18/14 A3006 RMK T01800140 IEM_DS3505
ZGOW,2001-01-04 09:00,ZGOW 040900Z AUTO 07006KT 6SM 18/13 A3009 RMK SLP193 T01830130 57001 IEM_DS3505
ZGOW,2001-01-04 10:00,ZGOW 041000Z AUTO 08010KT 7SM 17/14 A3009 RMK T01700140 IEM_DS3505
ZGOW,2001-01-04 11:00,ZGOW 041100Z AUTO 07010KT 6SM 17/14 A3012 RMK T01700140 IEM_DS3505
ZGOW,2001-01-04 12:00,ZGOW 041200Z AUTO 07008KT 7SM 17/13 A3015 RMK SLP212 T01690132 52019 IEM_DS3505
ZGOW,2001-01-04 13:00,ZGOW 041300Z AUTO 08010KT 6SM 16/14 A3015 RMK T01600140 IEM_DS3505
ZGOW,2001-01-04 14:00,ZGOW 041400Z AUTO 09008KT 6SM 16/14 A3015 RMK T01600140 IEM_DS3505
ZGOW,2001-01-04 15:00,ZGOW 041500Z AUTO 09006KT 7SM 16/12 A3015 RMK SLP216 T01640124 52004 IEM_DS3505
ZGOW,2001-01-04 16:00,ZGOW 041600Z AUTO 07010KT 6SM 16/13 A3015 RMK T01600130 IEM_DS3505
ZGOW,2001-01-04 17:01,ZGOW 041701Z AUTO 03008KT 6SM 15/13 A3015 RMK T01500130 IEM_DS3505
ZGOW,2001-01-04 18:00,ZGOW 041800Z AUTO 07002KT 5SM 15/12 A3015 RMK SLP210 T01470123 57006 IEM_DS3505
ZGOW,2001-01-04 19:00,ZGOW 041900Z AUTO 00000KT 3SM 14/12 A3012 RMK T01400120 IEM_DS3505
ZGOW,2001-01-04 20:00,ZGOW 042000Z AUTO 00000KT 2 1/2SM 13/12 A3012 RMK T01300120 IEM_DS3505
ZGOW,2001-01-04 21:00,ZGOW 042100Z AUTO 00000KT 6SM 12/12 A3012 RMK SLP206 T01240115 57004 IEM_DS3505
ZGOW,2001-01-04 23:00,ZGOW 042300Z AUTO 01002KT 1SM 13/12 A3015 RMK T01300120 IEM_DS3505
ZGOW,2001-01-05 00:00,ZGOW 050000Z AUTO 04002KT 4SM 14/13 A3015 RMK SLP218 T01440128 52012 IEM_DS3505
ZGOW,2001-01-05 01:00,ZGOW 050100Z AUTO 32002KT 1 1/2SM 16/15 A3018 RMK T01600150 IEM_DS3505
ZGOW,2001-01-05 02:00,ZGOW 050200Z AUTO 33002KT 2 1/2SM 19/15 A3018 RMK T01900150 IEM_DS3505
ZGOW,2001-01-05 03:00,ZGOW 050300Z AUTO 07006KT 5SM 21/13 A3018 RMK SLP221 T02090134 52003 IEM_DS3505
ZGOW,2001-01-05 04:00,ZGOW 050400Z AUTO 06006KT 6SM 22/14 A3015 RMK T02200140 IEM_DS3505
ZGOW,2001-01-05 05:00,ZGOW 050500Z AUTO 08006KT 6SM 22/15 A3009 RMK T02200150 IEM_DS3505
ZGOW,2001-01-05 06:00,ZGOW 050600Z AUTO 14006KT 9SM 22/14 A3006 RMK SLP186 T02220136 57035 IEM_DS3505
ZGOW,2001-01-05 07:00,ZGOW 050700Z AUTO 11006KT 6SM 22/16 A3006 RMK T02200160 IEM_DS3505
ZGOW,2001-01-05 08:00,ZGOW 050800Z AUTO 11006KT 6SM 21/16 A3006 RMK T02100160 IEM_DS3505
ZGOW,2001-01-05 09:00,ZGOW 050900Z AUTO 16006KT 9SM 20/15 A3006 RMK SLP183 T01990150 57003 IEM_DS3505
ZGOW,2001-01-05 10:00,ZGOW 051000Z AUTO 09004KT 6SM 18/16 A3006 RMK T01800160 IEM_DS3505
ZGOW,2001-01-05 11:00,ZGOW 051100Z AUTO 08008KT 6SM 17/16 A3009 RMK T01700160 IEM_DS3505
ZGOW,2001-01-05 12:00,ZGOW 051200Z AUTO 07006KT 7SM 18/15 A3009 RMK SLP194 T01810147 52011 IEM_DS3505
ZGOW,2001-01-05 13:00,ZGOW 051300Z AUTO 06006KT 6SM 17/16 A3009 RMK T01700160 IEM_DS3505
ZGOW,2001-01-05 14:00,ZGOW 051400Z AUTO 07014KT 6SM 17/16 A3009 RMK T01700160 IEM_DS3505
ZGOW,2001-01-05 15:00,ZGOW 051500Z AUTO 07006KT 7SM 18/15 A3012 RMK SLP203 T01750146 52009 IEM_DS3505
ZGOW,2001-01-05 16:00,ZGOW 051600Z AUTO 06002KT 6SM 16/15 A3012 RMK T01600150 IEM_DS3505
ZGOW,2001-01-05 17:00,ZGOW 051700Z AUTO 03004KT 6SM 15/15 A3009 RMK T01500150 IEM_DS3505
ZGOW,2001-01-05 18:00,ZGOW 051800Z AUTO 02002KT 7SM 16/15 A3009 RMK SLP194 T01620146 57009 IEM_DS3505
ZGOW,2001-01-05 19:00,ZGOW 051900Z AUTO 00000KT 2SM 15/14 A3006 RMK T01500140 IEM_DS3505
ZGOW,2001-01-05 20:00,ZGOW 052000Z AUTO 32002KT 1 1/4SM 15/15 A3006 RMK T01500150 IEM_DS3505
ZGOW,2001-01-05 21:00,ZGOW 052100Z AUTO 04004KT 4SM 15/14 A3006 RMK SLP185 T01530144 57009 IEM_DS3505
ZGOW,2001-01-05 22:00,ZGOW 052200Z AUTO 00000KT 1 1/4SM 15/15 A3006 RMK T01500150 IEM_DS3505
ZGOW,2001-01-05 23:00,ZGOW 052300Z AUTO 30002KT 1 1/4SM 15/15 A3009 RMK T01500150 IEM_DS3505
ZGOW,2001-01-06 00:00,ZGOW 060000Z AUTO 00000KT 2 1/2SM 16/15 A3009 RMK SLP198 T01610147 52013 IEM_DS3505
ZGOW,2001-01-06 01:00,ZGOW 060100Z AUTO 33004KT 2SM 17/16 A3012 RMK T01700160 IEM_DS3505
ZGOW,2001-01-06 02:00,ZGOW 060200Z AUTO 31004KT 3SM 19/16 A3012 RMK T01900160 IEM_DS3505
ZGOW,2001-01-06 03:00,ZGOW 060300Z AUTO 16004KT 6SM 20/14 A3009 RMK SLP195 T02030145 57003 IEM_DS3505
ZGOW,2001-01-06 04:00,ZGOW 060400Z AUTO 08006KT 7SM 22/16 A3006 RMK T02200160 IEM_DS3505
ZGOW,2001-01-06 05:00,ZGOW 060500Z AUTO 09006KT 7SM 21/16 A3003 RMK T02100160 IEM_DS3505
ZGOW,2001-01-06 06:00,ZGOW 060600Z AUTO 18006KT 9SM 21/15 A3000 RMK SLP167 T02120152 57028 IEM_DS3505
ZGOW,2001-01-06 07:00,ZGOW 060700Z AUTO 18004KT 6SM 22/16 A2997 RMK T02200160 IEM_DS3505
ZGOW,2001-01-06 08:00,ZGOW 060800Z AUTO 17002KT 6SM 22/16 A2997 RMK T02200160 IEM_DS3505
ZGOW,2001-01-06 09:00,ZGOW 060900Z AUTO 22004KT 11SM 21/15 A2997 RMK SLP156 T02090150 57011 IEM_DS3505
ZGOW,2001-01-06 10:00,ZGOW 061000Z AUTO 15006KT 6SM 18/16 A2997 RMK T01800160 IEM_DS3505
ZGOW,2001-01-06 11:00,ZGOW 061100Z AUTO 00000KT 6SM 17/16 A3000 RMK T01700160 IEM_DS3505
ZGOW,2001-01-06 12:00,ZGOW 061200Z AUTO 18002KT 9SM 18/15 A3000 RMK SLP163 T01780149 52007 IEM_DS3505
ZGOW,2001-01-06 13:00,ZGOW 061300Z AUTO 14002KT 5SM 16/16 A3000 RMK T01600160 IEM_DS3505
ZGOW,2001-01-06 14:00,ZGOW 061400Z AUTO 00000KT 6SM 16/15 A3000 RMK T01600150 IEM_DS3505
ZGOW,2001-01-06 15:00,ZGOW 061500Z AUTO 00000KT 6SM 16/14 A3003 RMK SLP171 T01590145 52008 IEM_DS3505
ZGOW,2001-01-06 16:00,ZGOW 061600Z AUTO 00000KT 2SM 16/15 A3000 RMK T01600150 IEM_DS3505
ZGOW,2001-01-06 17:00,ZGOW 061700Z AUTO 31002KT 1SM 16/15 A3000 RMK T01600150 IEM_DS3505
ZGOW,2001-01-06 18:00,ZGOW 061800Z AUTO 00000KT 3SM 14/14 A3000 RMK SLP161 T01450140 57010 IEM_DS3505
ZGOW,2001-01-06 19:00,ZGOW 061900Z AUTO 00000KT 1SM 15/14 A2997 RMK T01500140 IEM_DS3505
ZGOW,2001-01-06 20:00,ZGOW 062000Z AUTO 33004KT 1SM 15/15 A2997 RMK T01500150 IEM_DS3505
ZGOW,2001-01-06 21:00,ZGOW 062100Z AUTO 04004KT 2SM 14/14 A2994 RMK SLP150 T01430138 57011 IEM_DS3505
ZGOW,2001-01-06 22:00,ZGOW 062200Z AUTO 31004KT 1 1/2SM 14/14 A2994 RMK T01400140 IEM_DS3505
ZGOW,2001-01-06 23:00,ZGOW 062300Z AUTO 32004KT 1 1/4SM 14/14 A2997 RMK T01400140 IEM_DS3505
ZGOW,2001-01-07 00:00,ZGOW 070000Z AUTO 00000KT 1/2SM 15/14 A3000 RMK SLP160 T01470143 52010 IEM_DS3505
ZGOW,2001-01-07 01:00,ZGOW 070100Z AUTO 32004KT 1 1/4SM 16/16 A3000 RMK T01600160 IEM_DS3505
ZGOW,2001-01-07 02:00,ZGOW 070200Z AUTO 31006KT 4SM 19/16 A3000 RMK T01900160 IEM_DS3505
ZGOW,2001-01-07 03:00,ZGOW 070300Z AUTO 27004KT 4SM 22/15 A2997 RMK SLP159 T02180153 57001 IEM_DS3505
ZGOW,2001-01-07 04:00,ZGOW 070400Z AUTO 01002KT 5SM 24/17 A2994 RMK T02400170 IEM_DS3505
ZGOW,2001-01-07 05:00,ZGOW 070500Z AUTO 00000KT 6SM 25/17 A2991 RMK T02500170 IEM_DS3505
ZGOW,2001-01-07 06:00,ZGOW 070600Z AUTO 20002KT 5SM 25/15 A2988 RMK SLP128 T02500153 57031 IEM_DS3505
ZGOW,2001-01-07 07:00,ZGOW 070700Z AUTO 13008KT 4SM 22/17 A2988 RMK T02200170 IEM_DS3505
ZGOW,2001-01-07 08:00,ZGOW 070800Z AUTO 15008KT 4SM 21/17 A2988 RMK T02100170 IEM_DS3505
ZGOW,2001-01-07 09:00,ZGOW 070900Z AUTO 14004KT 4SM 21/16 A2988 RMK SLP120 T02140156 57008 IEM_DS3505
ZGOW,2001-01-07 10:00,ZGOW 071000Z AUTO 13006KT 2 1/2SM 18/17 A2988 RMK T01800170 IEM_DS3505
ZGOW,2001-01-07 11:00,ZGOW 071100Z AUTO 12004KT 2 1/2SM 17/17 A2991 RMK T01700170 IEM_DS3505
ZGOW,2001-01-07 12:00,ZGOW 071200Z AUTO 11002KT 5SM 18/16 A2991 RMK SLP138 T01850158 52018 IEM_DS3505
ZGOW,2001-01-07 13:00,ZGOW 071300Z AUTO 00000KT 2SM 17/16 A2994 RMK T01700160 IEM_DS3505
ZGOW,2001-01-07 14:00,ZGOW 071400Z AUTO 33002KT 1 1/4SM 16/16 A2994 RMK T01600160 IEM_DS3505
ZGOW,2001-01-07 15:00,ZGOW 071500Z AUTO 07002KT 4SM 17/16 A2994 RMK SLP149 T01720157 52011 IEM_DS3505
ZGOW,2001-01-07 16:00,ZGOW 071600Z AUTO 33002KT 1SM 16/16 A2994 RMK T01600160 IEM_DS3505
ZGOW,2001-01-07 17:00,ZGOW 071700Z AUTO 00000KT 1SM 16/15 A2994 RMK T01600150 IEM_DS3505
ZGOW,2001-01-07 18:00,ZGOW 071800Z AUTO 00000KT 3SM 16/15 A2994 RMK SLP149 T01550148 54000 IEM_DS3505
ZGOW,2001-01-07 19:00,ZGOW 071900Z AUTO 06002KT 4SM 15/15 A2994 RMK T01500150 IEM_DS3505
ZGOW,2001-01-07 20:00,ZGOW 072000Z AUTO 04004KT 6SM 15/14 A2994 RMK T01500140 IEM_DS3505
ZGOW,2001-01-07 21:00,ZGOW 072100Z AUTO 04004KT 4SM 15/14 A2994 RMK SLP144 T01460139 57005 IEM_DS3505
ZGOW,2001-01-07 22:00,ZGOW 072200Z AUTO 00000KT 2 1/2SM 15/14 A2994 RMK T01500140 IEM_DS3505
ZGOW,2001-01-07 23:00,ZGOW 072300Z AUTO 04006KT 4SM 15/14 A2997 RMK T01500140 IEM_DS3505
ZGOW,2001-01-08 00:00,ZGOW 080000Z AUTO 07006KT 7SM 17/14 A2997 RMK SLP160 T01730140 52016 IEM_DS3505
ZGOW,2001-01-08 01:00,ZGOW 080100Z AUTO 07012KT 6SM 19/15 A3000 RMK T01900150 IEM_DS3505
ZGOW,2001-01-08 02:00,ZGOW 080200Z AUTO 07017KT 6SM 20/15 A3000 RMK T02000150 IEM_DS3505
ZGOW,2001-01-08 03:00,ZGOW 080300Z AUTO 07012KT 7SM 20/13 A3000 RMK SLP165 T02010131 52005 IEM_DS3505
ZGOW,2001-01-08 04:00,ZGOW 080400Z AUTO 08019KT 6SM 21/15 A2997 RMK T02100150 IEM_DS3505
ZGOW,2001-01-08 05:00,ZGOW 080500Z AUTO 08016KT 6SM 21/15 A2994 RMK T02100150 IEM_DS3505
ZGOW,2001-01-08 06:00,ZGOW 080600Z AUTO 08012KT 6SM 22/15 A2991 RMK T02200150 IEM_DS3505
ZGOW,2001-01-08 07:00,ZGOW 080700Z AUTO 09010KT 6SM 22/16 A2991 RMK T02200160 IEM_DS3505
ZGOW,2001-01-08 08:00,ZGOW 080800Z AUTO 12008KT 6SM 21/15 A2988 RMK T02100150 IEM_DS3505
ZGOW,2001-01-08 09:00,ZGOW 080900Z AUTO 07002KT 7SM 20/14 A2991 RMK SLP142 T01980143 52004 IEM_DS3505
ZGOW,2001-01-08 10:00,ZGOW 081000Z AUTO 09006KT 6SM 18/14 A2991 RMK T01800140 IEM_DS3505
ZGOW,2001-01-08 11:00,ZGOW 081100Z AUTO 08004KT 6SM 17/15 A2994 RMK T01700150 IEM_DS3505
ZGOW,2001-01-08 12:00,ZGOW 081200Z AUTO 07008KT 6SM 18/13 A2994 RMK SLP150 T01810130 52008 IEM_DS3505
ZGOW,2001-01-08 13:00,ZGOW 081300Z AUTO 07010KT 6SM 17/15 A2997 RMK T01700150 IEM_DS3505
ZGOW,2001-01-08 14:00,ZGOW 081400Z AUTO 07010KT 7SM 17/15 A2997 RMK T01700150 IEM_DS3505
ZGOW,2001-01-08 15:00,ZGOW 081500Z AUTO 07008KT 6SM 18/14 A3000 RMK SLP160 T01790141 52010 IEM_DS3505
ZGOW,2001-01-08 16:00,ZGOW 081600Z AUTO 03004KT 6SM 17/15 A3000 RMK T01700150 IEM_DS3505
ZGOW,2001-01-08 17:00,ZGOW 081700Z AUTO 34002KT 5SM 16/14 A3000 RMK T01600140 IEM_DS3505
ZGOW,2001-01-08 18:00,ZGOW 081800Z AUTO 02002KT 6SM 17/14 A3000 RMK SLP163 T01710139 52003 IEM_DS3505
ZGOW,2001-01-08 19:00,ZGOW 081900Z AUTO 00000KT 2SM 16/15 A2997 RMK T01600150 IEM_DS3505
ZGOW,2001-01-08 20:00,ZGOW 082000Z AUTO 31002KT 2SM 15/14 A2997 RMK T01500140 IEM_DS3505
ZGOW,2001-01-08 21:00,ZGOW 082100Z AUTO 04004KT 4SM 16/14 A2997 RMK SLP154 T01580140 57009 IEM_DS3505
ZGOW,2001-01-08 22:00,ZGOW 082200Z AUTO 00000KT 1 1/2SM 16/15 A2997 RMK T01600150 IEM_DS3505
ZGOW,2001-01-08 23:00,ZGOW 082300Z AUTO 32004KT 1 1/4SM 15/14 A2997 RMK T01500140 IEM_DS3505
ZGOW,2001-01-09 00:00,ZGOW 090000Z AUTO 04006KT 2 1/2SM 16/14 A3000 RMK SLP165 T01600141 52011 IEM_DS3505
ZGOW,2001-01-09 01:00,ZGOW 090100Z AUTO 33006KT 2 1/2SM 17/15 A3000 RMK T01700150 IEM_DS3505
ZGOW,2001-01-09 02:00,ZGOW 090200Z AUTO 33006KT 3SM 19/16 A3003 RMK T01900160 IEM_DS3505
ZGOW,2001-01-09 03:00,ZGOW 090300Z AUTO 27004KT 5SM 22/15 A3000 RMK SLP168 T02190146 52003 IEM_DS3505
ZGOW,2001-01-09 04:00,ZGOW 090400Z AUTO 33008KT 23/16 A2997 RMK T02300160 IEM_DS3505
ZGOW,2001-01-09 05:00,ZGOW 090500Z AUTO 33008KT 24/16 A2994 RMK T02400160 IEM_DS3505
ZGOW,2001-01-09 06:00,ZGOW 090600Z AUTO 04008KT 5SM 24/15 A2991 RMK SLP135 T02400146 57033 IEM_DS3505
ZGOW,2001-01-09 07:00,ZGOW 090700Z AUTO 33010KT 23/15 A2991 RMK T02300150 IEM_DS3505
ZGOW,2001-01-09 08:00,ZGOW 090800Z AUTO 34010KT 6SM 22/14 A2991 RMK T02200140 IEM_DS3505
ZGOW,2001-01-09 09:00,ZGOW 090900Z AUTO 04008KT 5SM 21/12 A2991 RMK SLP141 T02060123 52006 IEM_DS3505
ZGOW,2001-01-09 10:00,ZGOW 091000Z AUTO 33012KT 6SM 18/12 A2994 RMK T01800120 IEM_DS3505
ZGOW,2001-01-09 11:00,ZGOW 091100Z AUTO 33014KT 6SM 16/10 A2997 RMK T01600100 IEM_DS3505
ZGOW,2001-01-09 12:00,ZGOW 091200Z AUTO 04006KT 9SM 15/08 A3000 RMK SLP167 T01480078 52026 IEM_DS3505
ZGOW,2001-01-09 13:00,ZGOW 091300Z AUTO 32012KT 7SM 15/09 A3003 RMK T01500090 IEM_DS3505
ZGOW,2001-01-09 14:00,ZGOW 091400Z AUTO 33012KT 7SM 14/08 A3006 RMK T01400080 IEM_DS3505
ZGOW,2001-01-09 15:00,ZGOW 091500Z AUTO 04008KT 9SM 13/06 A3006 RMK SLP187 T01330064 52020 IEM_DS3505
ZGOW,2001-01-09 18:00,ZGOW 091800Z AUTO 04006KT 8SM 13/06 RMK SLP185 T01270064 57002 IEM_DS3505
ZGOW,2001-01-09 21:00,ZGOW 092100Z AUTO 04004KT 7SM 12/07 A3003 RMK 70002 SLP179 T01180068 57006 IEM_DS3505
ZGOW,2001-01-09 22:00,ZGOW 092200Z AUTO 35006KT 7SM 12/08 A3003 RMK T01200080 IEM_DS3505
ZGOW,2001-01-09 23:00,ZGOW 092300Z AUTO 33002KT 7SM 12/08 A3003 RMK T01200080 IEM_DS3505
ZGOW,2001-01-10 00:00,ZGOW 100000Z AUTO 02006KT 9SM 12/07 A3003 RMK 60002 SLP179 T01200070 54000 IEM_DS3505
ZGOW,2001-01-10 01:00,ZGOW 100100Z AUTO 32008KT 7SM 12/08 A3006 RMK T01200080 IEM_DS3505
ZGOW,2001-01-10 02:00,ZGOW 100200Z AUTO 33008KT 7SM 13/09 A3006 RMK T01300090 IEM_DS3505
ZGOW,2001-01-10 03:00,ZGOW 100300Z AUTO 04006KT 8SM 13/07 A3006 RMK SLP187 T01330071 52008 IEM_DS3505
ZGOW,2001-01-10 04:00,ZGOW 100400Z AUTO 34008KT 7SM 14/09 A3003 RMK T01400090 IEM_DS3505
ZGOW,2001-01-10 05:00,ZGOW 100500Z AUTO 34008KT 7SM 14/10 A3000 RMK T01400100 IEM_DS3505
ZGOW,2001-01-10 06:00,ZGOW 100600Z AUTO 04006KT 7SM 16/10 A2997 RMK SLP153 T01600099 57034 IEM_DS3505
ZGOW,2001-01-10 07:00,ZGOW 100700Z AUTO 06004KT 7SM 16/11 A2994 RMK T01600110 IEM_DS3505
ZGOW,2001-01-10 08:00,ZGOW 100800Z AUTO 09004KT 7SM 16/12 A2994 RMK T01600120 IEM_DS3505
ZGOW,2001-01-10 09:00,ZGOW 100900Z AUTO 07004KT 6SM 15/11 A2994 RMK SLP148 T01540109 57005 IEM_DS3505
ZGOW,2001-01-10 10:00,ZGOW 101000Z AUTO 08004KT 4SM 15/12 A2997 RMK T01500120 IEM_DS3505
ZGOW,2001-01-10 11:00,ZGOW 101100Z AUTO 07002KT 4SM 15/12 A2997 RMK T01500120 IEM_DS3505
ZGOW,2001-01-10 12:00,ZGOW 101200Z AUTO 04002KT 6SM 15/11 A2997 RMK SLP161 T01510114 52013 IEM_DS3505
ZGOW,2001-01-10 13:00,ZGOW 101300Z AUTO 06004KT 6SM 15/13 A3000 RMK T01500130 IEM_DS3505
ZGOW,2001-01-10 14:00,ZGOW 101400Z AUTO 06006KT 6SM 15/13 A3000 RMK T01500130 IEM_DS3505
ZGOW,2001-01-10 15:00,ZGOW 101500Z AUTO 09004KT 6SM 15/12 A3000 RMK SLP167 T01540119 52006 IEM_DS3505
ZGOW,2001-01-10 16:00,ZGOW 101600Z AUTO 02006KT 5SM 15/13 A3000 RMK T01500130 IEM_DS3505
ZGOW,2001-01-10 17:00,ZGOW 101700Z AUTO 05006KT 6SM 14/13 A3000 RMK T01400130 IEM_DS3505
ZGOW,2001-01-10 18:00,ZGOW 101800Z AUTO 07004KT 4SM 15/12 A3000 RMK SLP161 T01460120 57006 IEM_DS3505
ZGOW,2001-01-10 19:00,ZGOW 101900Z AUTO 36004KT 4SM 14/12 A2997 RMK T01400120 IEM_DS3505
ZGOW,2001-01-10 20:00,ZGOW 102000Z AUTO 35008KT 4SM 13/12 A2997 RMK T01300120 IEM_DS3505
ZGOW,2001-01-10 21:00,ZGOW 102100Z AUTO 04004KT 5SM 13/11 A2997 RMK SLP159 T01300113 57002 IEM_DS3505
ZGOW,2001-01-10 23:00,ZGOW 102300Z AUTO 32006KT 4SM 13/11 A3000 RMK T01300110 IEM_DS3505
ZGOW,2001-01-11 00:00,ZGOW 110000Z AUTO 04004KT 6SM 14/11 A3000 RMK SLP171 T01350106 52012 IEM_DS3505
ZGOW,2001-01-11 01:00,ZGOW 110100Z AUTO 33004KT 4SM 14/11 A3003 RMK T01400110 IEM_DS3505
ZGOW,2001-01-11 02:00,ZGOW 110200Z AUTO 34004KT 5SM 15/12 A3003 RMK T01500120 IEM_DS3505
ZGOW,2001-01-11 03:00,ZGOW 110300Z AUTO 04004KT 6SM 16/11 A3003 RMK SLP173 T01620112 52002 IEM_DS3505
ZGOW,2001-01-11 04:00,ZGOW 110400Z AUTO 06002KT 5SM 17/13 A3000 RMK T01700130 IEM_DS3505
ZGOW,2001-01-11 05:00,ZGOW 110500Z AUTO 02002KT 5SM 19/14 A2997 RMK T01900140 IEM_DS3505
ZGOW,2001-01-11 06:00,ZGOW 110600Z AUTO 09004KT 7SM 19/12 A2994 RMK 60003 SLP145 T01890125 57028 IEM_DS3505
ZGOW,2001-01-11 07:00,ZGOW 110700Z AUTO 13006KT 5SM 19/14 A2994 RMK T01900140 IEM_DS3505
ZGOW,2001-01-11 08:00,ZGOW 110800Z AUTO 13006KT 5SM 18/14 A2994 RMK T01800140 IEM_DS3505
ZGOW,2001-01-11 09:00,ZGOW 110900Z AUTO 14006KT 7SM 17/13 A2994 RMK SLP145 T01730132 54000 IEM_DS3505
ZGOW,2001-01-11 10:00,ZGOW 111000Z AUTO 12006KT 5SM 16/15 A2994 RMK T01600150 IEM_DS3505
ZGOW,2001-01-11 11:00,ZGOW 111100Z AUTO 11006KT 5SM 16/14 A2997 RMK T01600140 IEM_DS3505
ZGOW,2001-01-11 12:00,ZGOW 111200Z AUTO 09006KT 6SM 17/13 A3000 RMK SLP164 T01660134 52019 IEM_DS3505
ZGOW,2001-01-11 13:00,ZGOW 111300Z AUTO 08008KT 7SM 16/14 A3000 RMK T01600140 IEM_DS3505
ZGOW,2001-01-11 14:00,ZGOW 111400Z AUTO 08008KT 6SM 16/14 A3003 RMK T01600140 IEM_DS3505
ZGOW,2001-01-11 15:00,ZGOW 111500Z AUTO 04006KT 6SM 16/13 A3003 RMK SLP172 T01610131 52008 IEM_DS3505
ZGOW,2001-01-11 16:00,ZGOW 111600Z AUTO 08010KT 6SM 16/14 A3003 RMK T01600140 IEM_DS3505
ZGOW,2001-01-11 17:00,ZGOW 111700Z AUTO 07012KT 6SM 15/13 A3003 RMK T01500130 IEM_DS3505
ZGOW,2001-01-11 18:00,ZGOW 111800Z AUTO 04006KT 7SM 16/11 A3003 RMK SLP179 T01570106 52007 IEM_DS3505
ZGOW,2001-01-11 19:00,ZGOW 111900Z AUTO 07010KT 6SM 15/11 A3003 RMK T01500110 IEM_DS3505
ZGOW,2001-01-11 20:00,ZGOW 112000Z AUTO 08008KT 6SM 15/10 A3003 RMK T01500100 IEM_DS3505
ZGOW,2001-01-11 21:00,ZGOW 112100Z AUTO 07002KT 7SM 16/08 A3003 RMK 70003 SLP179 T01560085 54000 IEM_DS3505
ZGOW,2001-01-11 22:00,ZGOW 112200Z AUTO 07008KT 6SM 15/12 A3003 RMK T01500120 IEM_DS3505
ZGOW,2001-01-11 23:00,ZGOW 112300Z AUTO 07010KT 7SM 15/10 A3006 RMK T01500100 IEM_DS3505
ZGOW,2001-01-12 00:00,ZGOW 120000Z AUTO 07008KT 11SM 16/09 A3006 RMK 70003 SLP183 T01560094 52004 IEM_DS3505
ZGOW,2001-01-12 01:00,ZGOW 120100Z AUTO 08012KT 6SM 17/12 A3006 RMK T01700120 IEM_DS3505
ZGOW,2001-01-12 02:00,ZGOW 120200Z AUTO 08014KT 6SM 18/13 A3003 RMK T01800130 IEM_DS3505
ZGOW,2001-01-12 03:00,ZGOW 120300Z AUTO 04006KT 11SM 18/12 A3009 RMK SLP190 T01850116 52007 IEM_DS3505
ZGOW,2001-01-12 04:00,ZGOW 120400Z AUTO 08012KT 7SM 19/13 A3006 RMK T01900130 IEM_DS3505
ZGOW,2001-01-12 05:00,ZGOW 120500Z AUTO 09010KT 6SM 19/14 A3003 RMK T01900140 IEM_DS3505
ZGOW,2001-01-12 06:00,ZGOW 120600Z AUTO 11008KT 11SM 20/12 A3000 RMK SLP163 T01960119 57027 IEM_DS3505
ZGOW,2001-01-12 07:00,ZGOW 120700Z AUTO 13006KT 6SM 19/14 A2997 RMK T01900140 IEM_DS3505
ZGOW,2001-01-12 08:00,ZGOW 120800Z AUTO 14006KT 6SM 19/14 A2997 RMK T01900140 IEM_DS3505
ZGOW,2001-01-12 09:00,ZGOW 120900Z AUTO 14004KT 10SM 18/13 A2997 RMK SLP155 T01780126 57008 IEM_DS3505
ZGOW,2001-01-12 10:00,ZGOW 121000Z AUTO 18002KT 6SM 17/13 A2997 RMK T01700130 IEM_DS3505
ZGOW,2001-01-12 11:00,ZGOW 121100Z AUTO 13004KT 6SM 16/14 A3000 RMK T01600140 IEM_DS3505
ZGOW,2001-01-12 12:00,ZGOW 121200Z AUTO 14004KT 9SM 16/13 A3000 RMK SLP168 T01650133 52013 IEM_DS3505
ZGOW,2001-01-12 13:00,ZGOW 121300Z AUTO 12002KT 6SM 16/14 A3003 RMK T01600140 IEM_DS3505
ZGOW,2001-01-12 14:00,ZGOW 121400Z AUTO 00000KT 6SM 16/15 A3003 RMK T01600150 IEM_DS3505
ZGOW,2001-01-12 15:00,ZGOW 121500Z AUTO 04004KT 7SM 16/14 A3003 RMK SLP177 T01600137 52009 IEM_DS3505
ZGOW,2001-01-12 18:00,ZGOW 121800Z AUTO 04004KT 6SM 16/14 RMK SLP182 T01590136 52005 IEM_DS3505
ZGOW,2001-01-12 21:00,ZGOW 122100Z AUTO 04006KT 6SM 16/12 A3003 RMK 70001 SLP178 T01580116 57004 IEM_DS3505
ZGOW,2001-01-12 22:00,ZGOW 122200Z AUTO 32006KT 7SM 15/12 A3003 RMK T01500120 IEM_DS3505
ZGOW,2001-01-12 23:00,ZGOW 122300Z AUTO 33006KT 6SM 14/11 A3003 RMK T01400110 IEM_DS3505
ZGOW,2001-01-13 00:00,ZGOW 130000Z AUTO 32004KT 9SM 15/10 A3006 RMK 60001 SLP183 T01480096 52005 IEM_DS3505
ZGOW,2001-01-13 01:00,ZGOW 130100Z AUTO 33010KT 6SM 14/11 A3006 RMK T01400110 IEM_DS3505
ZGOW,2001-01-13 02:00,ZGOW 130200Z AUTO 34008KT 6SM 16/10 A3006 RMK T01600100 IEM_DS3505
ZGOW,2001-01-13 03:00,ZGOW 130300Z AUTO 34004KT 12SM 18/10 A3006 RMK SLP183 T01810100 54000 IEM_DS3505
ZGOW,2001-01-13 04:00,ZGOW 130400Z AUTO 33008KT 6SM 18/11 A3003 RMK T01800110 IEM_DS3505
ZGOW,2001-01-13 05:00,ZGOW 130500Z AUTO 35004KT 6SM 20/12 A3000 RMK T02000120 IEM_DS3505
ZGOW,2001-01-13 06:00,ZGOW 130600Z AUTO 34002KT 16SM 21/10 A3000 RMK SLP161 T02070102 57022 IEM_DS3505
ZGOW,2001-01-13 07:00,ZGOW 130700Z AUTO 08006KT 7SM 21/13 A2997 RMK T02100130 IEM_DS3505
ZGOW,2001-01-13 08:00,ZGOW 130800Z AUTO 12008KT 6SM 19/14 A3000 RMK T01900140 IEM_DS3505
ZGOW,2001-01-13 09:00,ZGOW 130900Z AUTO 11004KT 16SM 19/13 A3000 RMK SLP162 T01870132 52001 IEM_DS3505
ZGOW,2001-01-13 10:00,ZGOW 131000Z AUTO 07004KT 6SM 16/14 A3003 RMK T01600140 IEM_DS3505
ZGOW,2001-01-13 11:00,ZGOW 131100Z AUTO 06008KT 6SM 16/14 A3003 RMK T01600140 IEM_DS3505
ZGOW,2001-01-13 12:00,ZGOW 131200Z AUTO 09004KT 7SM 16/13 A3006 RMK SLP184 T01630133 52022 IEM_DS3505
ZGOW,2001-01-13 14:00,ZGOW 131400Z AUTO 07014KT 6SM 15/14 A3009 RMK T01500140 IEM_DS3505
ZGOW,2001-01-13 15:00,ZGOW 131500Z AUTO 07010KT 7SM 16/11 A3012 RMK SLP201 T01570112 52017 IEM_DS3505
ZGOW,2001-01-13 16:00,ZGOW 131600Z AUTO 07016KT 6SM 15/11 A3012 RMK T01500110 IEM_DS3505
ZGOW,2001-01-13 17:00,ZGOW 131700Z AUTO 07016KT 6SM 15/10 A3015 RMK T01500100 IEM_DS3505
ZGOW,2001-01-13 18:00,ZGOW 131800Z AUTO 07006KT 7SM 15/09 A3015 RMK SLP214 T01480091 52013 IEM_DS3505
ZGOW,2001-01-13 19:00,ZGOW 131900Z AUTO 06010KT 6SM 14/10 A3015 RMK T01400100 IEM_DS3505
ZGOW,2001-01-13 20:00,ZGOW 132000Z AUTO 05008KT 6SM 13/10 A3015 RMK T01300100 IEM_DS3505
ZGOW,2001-01-13 21:00,ZGOW 132100Z AUTO 07004KT 6SM 13/08 A3018 RMK SLP219 T01310080 52005 IEM_DS3505
ZGOW,2001-01-13 22:00,ZGOW 132200Z AUTO 34004KT 4SM 11/09 A3018 RMK T01100090 IEM_DS3505
ZGOW,2001-01-13 23:00,ZGOW 132300Z AUTO 34004KT 5SM 12/09 A3021 RMK T01200090 IEM_DS3505
ZGOW,2001-01-14 00:00,ZGOW 140000Z AUTO 02002KT 7SM 12/08 A3021 RMK SLP238 T01210076 52019 IEM_DS3505
ZGOW,2001-01-14 01:00,ZGOW 140100Z AUTO 35004KT 5SM 13/09 A3024 RMK T01300090 IEM_DS3505
ZGOW,2001-01-14 02:00,ZGOW 140200Z AUTO 34006KT 7SM 14/10 A3024 RMK T01400100 IEM_DS3505
ZGOW,2001-01-14 03:00,ZGOW 140300Z AUTO 07006KT 9SM 16/08 A3024 RMK SLP246 T01590079 52008 IEM_DS3505
ZGOW,2001-01-14 04:00,ZGOW 140400Z AUTO 08006KT 7SM 17/09 A3021 RMK T01700090 IEM_DS3505
ZGOW,2001-01-14 05:00,ZGOW 140500Z AUTO 06008KT 7SM 17/09 A3018 RMK T01700090 IEM_DS3505
ZGOW,2001-01-14 06:00,ZGOW 140600Z AUTO 14006KT 9SM 18/08 A3015 RMK SLP211 T01770076 57035 IEM_DS3505
ZGOW,2001-01-14 07:00,ZGOW 140700Z AUTO 09010KT 6SM 18/07 A3012 RMK T01800070 IEM_DS3505
ZGOW,2001-01-14 08:00,ZGOW 140800Z AUTO 09010KT 6SM 17/08 A3015 RMK T01700080 IEM_DS3505
ZGOW,2001-01-14 09:00,ZGOW 140900Z AUTO 07006KT 7SM 17/06 A3015 RMK SLP215 T01680059 52004 IEM_DS3505
ZGOW,2001-01-14 10:00,ZGOW 141000Z AUTO 09010KT 6SM 15/10 A3015 RMK T01500100 IEM_DS3505
ZGOW,2001-01-14 11:00,ZGOW 141100Z AUTO 08012KT 6SM 14/10 A3018 RMK T01400100 IEM_DS3505
ZGOW,2001-01-14 12:00,ZGOW 141200Z AUTO 09006KT 7SM 15/09 A3021 RMK SLP232 T01480091 52017 IEM_DS3505
ZGOW,2001-01-14 13:00,ZGOW 141300Z AUTO 07012KT 6SM 14/10 A3021 RMK T01400100 IEM_DS3505
ZGOW,2001-01-14 14:00,ZGOW 141400Z AUTO 08012KT 6SM 14/10 A3024 RMK T01400100 IEM_DS3505
ZGOW,2001-01-14 15:00,ZGOW 141500Z AUTO 07008KT 7SM 14/09 A3024 RMK SLP245 T01400091 52013 IEM_DS3505
ZGOW,2001-01-14 16:00,ZGOW 141600Z AUTO 06010KT 6SM 13/09 A3027 RMK T01300090 IEM_DS3505
ZGOW,2001-01-14 17:00,ZGOW 141700Z AUTO 07010KT 6SM 12/08 A3027 RMK T01200080 IEM_DS3505
ZGOW,2001-01-14 18:00,ZGOW 141800Z AUTO 07006KT 7SM 13/06 A3027 RMK SLP256 T01260062 52011 IEM_DS3505
ZGOW,2001-01-14 19:00,ZGOW 141900Z AUTO 05006KT 4SM 10/07 A3027 RMK T01000070 IEM_DS3505
ZGOW,2001-01-14 20:00,ZGOW 142000Z AUTO 05006KT 3SM 09/08 A3027 RMK T00900080 IEM_DS3505
ZGOW,2001-01-14 21:00,ZGOW 142100Z AUTO 07006KT 6SM 11/07 A3024 RMK SLP241 T01120068 57015 IEM_DS3505
ZGOW,2001-01-14 22:00,ZGOW 142200Z AUTO 07012KT 4SM 11/07 A3024 RMK T01100070 IEM_DS3505
ZGOW,2001-01-14 23:00,ZGOW 142300Z AUTO 04006KT 4SM 09/07 A3027 RMK T00900070 IEM_DS3505
ZGOW,2001-01-15 00:00,ZGOW 150000Z AUTO 04008KT 5SM 11/06 A3030 RMK SLP266 T01100055 52025 IEM_DS3505
ZGOW,2001-01-15 01:00,ZGOW 150100Z AUTO 05010KT 4SM 12/07 A3033 RMK T01200070 IEM_DS3505
ZGOW,2001-01-15 02:00,ZGOW 150200Z AUTO 03006KT 5SM 13/07 A3036 RMK T01300070 IEM_DS3505
ZGOW,2001-01-15 03:00,ZGOW 150300Z AUTO 09006KT 5SM 14/05 A3033 RMK SLP274 T01430053 52008 IEM_DS3505
ZGOW,2001-01-15 04:00,ZGOW 150400Z AUTO 07010KT 15/06 A3030 RMK T01500060 IEM_DS3505
ZGOW,2001-01-15 05:00,ZGOW 150500Z AUTO 08008KT 14/07 A3030 RMK T01400070 IEM_DS3505
ZGOW,2001-01-15 06:00,ZGOW 150600Z AUTO 09004KT 5SM 15/04 A3027 RMK SLP252 T01480041 57022 IEM_DS3505
ZGOW,2001-01-15 07:00,ZGOW 150700Z AUTO 08012KT 5SM 16/07 A3024 RMK T01600070 IEM_DS3505
ZGOW,2001-01-15 08:00,ZGOW 150800Z AUTO 08014KT 5SM 15/07 A3027 RMK T01500070 IEM_DS3505
ZGOW,2001-01-15 09:00,ZGOW 150900Z AUTO 07012KT 5SM 14/06 A3027 RMK SLP251 T01420057 57001 IEM_DS3505
ZGOW,2001-01-15 10:00,ZGOW 151000Z AUTO 06016KT 6SM 13/08 A3027 RMK T01300080 IEM_DS3505
ZGOW,2001-01-15 11:00,ZGOW 151100Z AUTO 06012KT 6SM 13/08 A3030 RMK T01300080 IEM_DS3505
ZGOW,2001-01-15 12:00,ZGOW 151200Z AUTO 04008KT 5SM 13/07 A3033 RMK SLP271 T01310071 52020 IEM_DS3505
ZGOW,2001-01-15 13:00,ZGOW 151300Z AUTO 07010KT 6SM 13/08 A3033 RMK T01300080 IEM_DS3505
ZGOW,2001-01-15 14:00,ZGOW 151400Z AUTO 07010KT 6SM 13/08 A3033 RMK T01300080 IEM_DS3505
ZGOW,2001-01-15 15:00,ZGOW 151500Z AUTO 07006KT 6SM 13/06 A3033 RMK SLP279 T01260062 52008 IEM_DS3505
ZGOW,2001-01-15 16:00,ZGOW 151600Z AUTO 06010KT 6SM 12/08 A3033 RMK T01200080 IEM_DS3505
ZGOW,2001-01-15 17:00,ZGOW 151700Z AUTO 07008KT 6SM 12/07 A3033 RMK T01200070 IEM_DS3505
ZGOW,2001-01-15 18:00,ZGOW 151800Z AUTO 07008KT 6SM 12/06 A3033 RMK SLP272 T01200062 57007 IEM_DS3505
ZGOW,2001-01-15 19:01,ZGOW 151901Z AUTO 07010KT 4SM 12/08 A3033 RMK T01200080 IEM_DS3505
ZGOW,2001-01-15 20:00,ZGOW 152000Z AUTO 07010KT 4SM 11/07 A3033 RMK T01100070 IEM_DS3505
ZGOW,2001-01-15 21:00,ZGOW 152100Z AUTO 09010KT 6SM 12/06 A3033 RMK SLP270 T01150056 57002 IEM_DS3505
ZGOW,2001-01-15 22:00,ZGOW 152200Z AUTO 08010KT 6SM 11/07 A3033 RMK T01100070 IEM_DS3505
ZGOW,2001-01-15 23:00,ZGOW 152300Z AUTO 08012KT 4SM 11/07 A3033 RMK T01100070 IEM_DS3505
ZGOW,2001-01-16 00:00,ZGOW 160000Z AUTO 07006KT 6SM 11/05 A3036 RMK SLP280 T01120048 52010 IEM_DS3505
ZGOW,2001-01-16 01:00,ZGOW 160100Z AUTO 07008KT 6SM 12/06 A3036 RMK T01200060 IEM_DS3505
ZGOW,2001-01-16 02:00,ZGOW 160200Z AUTO 05008KT 6SM 12/06 A3039 RMK T01200060 IEM_DS3505
ZGOW,2001-01-16 03:00,ZGOW 160300Z AUTO 11006KT 6SM 14/04 A3036 RMK SLP282 T01350037 52002 IEM_DS3505
ZGOW,2001-01-16 04:00,ZGOW 160400Z AUTO 07010KT 6SM 13/04 A3033 RMK T01300040 IEM_DS3505
ZGOW,2001-01-16 05:00,ZGOW 160500Z AUTO 08010KT 6SM 13/05 A3030 RMK T01300050 IEM_DS3505
ZGOW,2001-01-16 06:00,ZGOW 160600Z AUTO 07010KT 7SM 14/03 A3027 RMK SLP257 T01390031 57025 IEM_DS3505
ZGOW,2001-01-16 07:00,ZGOW 160700Z AUTO 08012KT 6SM 14/07 A3024 RMK T01400070 IEM_DS3505
ZGOW,2001-01-16 08:00,ZGOW 160800Z AUTO 08012KT 6SM 15/08 A3024 RMK T01500080 IEM_DS3505
ZGOW,2001-01-16 09:00,ZGOW 160900Z AUTO 07006KT 7SM 14/06 A3024 RMK SLP251 T01420060 57006 IEM_DS3505
ZGOW,2001-01-16 11:00,ZGOW 161100Z AUTO 08010KT 6SM 13/08 A3027 RMK T01300080 IEM_DS3505
ZGOW,2001-01-16 12:00,ZGOW 161200Z AUTO 07010KT 7SM 13/07 A3030 RMK SLP262 T01290071 52011 IEM_DS3505
ZGOW,2001-01-16 13:00,ZGOW 161300Z AUTO 08012KT 6SM 12/08 A3030 RMK T01200080 IEM_DS3505
ZGOW,2001-01-16 14:00,ZGOW 161400Z AUTO 08012KT 6SM 12/07 A3033 RMK T01200070 IEM_DS3505
ZGOW,2001-01-16 15:00,ZGOW 161500Z AUTO 07010KT 9SM 13/05 A3033 RMK SLP272 T01290051 52010 IEM_DS3505
ZGOW,2001-01-16 16:00,ZGOW 161600Z AUTO 07012KT 6SM 12/06 A3033 RMK T01200060 IEM_DS3505
ZGOW,2001-01-16 17:00,ZGOW 161700Z AUTO 08012KT 6SM 12/06 A3033 RMK T01200060 IEM_DS3505
ZGOW,2001-01-16 18:00,ZGOW 161800Z AUTO 09008KT 11SM 12/05 A3030 RMK SLP270 T01220047 57002 IEM_DS3505
ZGOW,2001-01-16 19:00,ZGOW 161900Z AUTO 05004KT 6SM 10/06 A3030 RMK T01000060 IEM_DS3505
ZGOW,2001-01-16 20:00,ZGOW 162000Z AUTO 36004KT 6SM 11/06 A3030 RMK T01100060 IEM_DS3505
ZGOW,2001-01-16 21:00,ZGOW 162100Z AUTO 04004KT 7SM 10/06 A3030 RMK SLP262 T01000058 57008 IEM_DS3505
ZGOW,2001-01-16 22:00,ZGOW 162200Z AUTO 01002KT 6SM 10/06 A3030 RMK T01000060 IEM_DS3505
ZGOW,2001-01-16 23:00,ZGOW 162300Z AUTO 1 1/4SM 10/07 A3033 RMK T01000070 IEM_DS3505
ZGOW,2001-01-17 00:00,ZGOW 170000Z AUTO 04002KT 6SM 10/07 A3033 RMK SLP273 T01050069 52011 IEM_DS3505
ZGOW,2001-01-17 01:00,ZGOW 170100Z AUTO 04004KT 6SM 12/07 A3033 RMK T01200070 IEM_DS3505
ZGOW,2001-01-17 03:00,ZGOW 170300Z AUTO 11006KT 10SM 16/08 A3030 RMK SLP263 T01620081 57010 IEM_DS3505
ZGOW,2001-01-17 04:00,ZGOW 170400Z AUTO 07010KT 6SM 16/08 A3027 RMK T01600080 IEM_DS3505
ZGOW,2001-01-17 05:00,ZGOW 170500Z AUTO 08006KT 6SM 17/09 A3024 RMK T01700090 IEM_DS3505
ZGOW,2001-01-17 06:00,ZGOW 170600Z AUTO 11004KT 10SM 18/08 A3021 RMK SLP229 T01790081 57034 IEM_DS3505
ZGOW,2001-01-17 07:00,ZGOW 170700Z AUTO 16006KT 6SM 17/10 A3018 RMK T01700100 IEM_DS3505
ZGOW,2001-01-17 08:00,ZGOW 170800Z AUTO 12008KT 6SM 16/11 A3018 RMK T01600110 IEM_DS3505
ZGOW,2001-01-17 09:00,ZGOW 170900Z AUTO 11004KT 9SM 16/10 A3018 RMK SLP222 T01580103 57007 IEM_DS3505
ZGOW,2001-01-17 10:00,ZGOW 171000Z AUTO 12004KT 6SM 15/12 A3018 RMK T01500120 IEM_DS3505
ZGOW,2001-01-17 11:00,ZGOW 171100Z AUTO 00000KT 6SM 14/12 A3018 RMK T01400120 IEM_DS3505
ZGOW,2001-01-17 12:00,ZGOW 171200Z AUTO 14002KT 7SM 14/12 A3018 RMK SLP227 T01450115 52005 IEM_DS3505
ZGOW,2001-01-17 13:00,ZGOW 171300Z AUTO 08002KT 6SM 14/12 A3018 RMK T01400120 IEM_DS3505
ZGOW,2001-01-17 14:00,ZGOW 171400Z AUTO 00000KT 6SM 13/12 A3021 RMK T01300120 IEM_DS3505
ZGOW,2001-01-17 15:00,ZGOW 171500Z AUTO 07004KT 7SM 14/12 A3021 RMK SLP233 T01430121 52006 IEM_DS3505
ZGOW,2001-01-17 16:00,ZGOW 171600Z AUTO 06006KT 7SM 13/12 A3021 RMK T01300120 IEM_DS3505
ZGOW,2001-01-17 17:00,ZGOW 171700Z AUTO 36004KT 6SM 13/12 A3021 RMK T01300120 IEM_DS3505
ZGOW,2001-01-17 18:00,ZGOW 171800Z AUTO 04004KT 6SM 13/12 A3018 RMK SLP231 T01330116 57002 IEM_DS3505
ZGOW,2001-01-17 19:00,ZGOW 171900Z AUTO 33002KT 3SM 12/12 A3018 RMK T01200120 IEM_DS3505
ZGOW,2001-01-17 20:00,ZGOW 172000Z AUTO 34006KT 2SM 12/11 A3015 RMK T01200110 IEM_DS3505
ZGOW,2001-01-17 21:00,ZGOW 172100Z AUTO 35002KT 2SM 12/11 A3015 RMK T01200110 IEM_DS3505
ZGOW,2001-01-17 22:00,ZGOW 172200Z AUTO 34002KT 2 1/2SM 11/11 A3015 RMK T01100110 IEM_DS3505
ZGOW,2001-01-17 23:00,ZGOW 172300Z AUTO 00000KT 1 1/4SM 10/10 A3015 RMK T01000100 IEM_DS3505
ZGOW,2001-01-18 00:00,ZGOW 180000Z AUTO 02004KT 4SM 12/11 A3018 RMK SLP223 T01200106 52009 IEM_DS3505
ZGOW,2001-01-18 01:00,ZGOW 180100Z AUTO 32006KT 2SM 13/12 A3021 RMK T01300120 IEM_DS3505
ZGOW,2001-01-18 02:00,ZGOW 180200Z AUTO 33008KT 2SM 14/12 A3024 RMK T01400120 IEM_DS3505
ZGOW,2001-01-18 03:00,ZGOW 180300Z AUTO 04002KT 6SM 17/10 A3021 RMK SLP239 T01660102 52016 IEM_DS3505
ZGOW,2001-01-18 04:00,ZGOW 180400Z AUTO 09004KT 19/12 A3018 RMK T01900120 IEM_DS3505
ZGOW,2001-01-18 05:00,ZGOW 180500Z AUTO 03004KT 7SM 20/13 A3015 RMK T02000130 IEM_DS3505
ZGOW,2001-01-18 06:00,ZGOW 180600Z AUTO 04004KT 7SM 21/12 A3012 RMK SLP203 T02140115 57036 IEM_DS3505
ZGOW,2001-01-18 07:00,ZGOW 180700Z AUTO 07004KT 6SM 22/13 A3009 RMK T02200130 IEM_DS3505
ZGOW,2001-01-18 08:00,ZGOW 180800Z AUTO 09004KT 6SM 21/14 A3009 RMK T02100140 IEM_DS3505
ZGOW,2001-01-18 09:00,ZGOW 180900Z AUTO 16002KT 7SM 20/13 A3009 RMK SLP195 T02040126 57008 IEM_DS3505
ZGOW,2001-01-18 10:00,ZGOW 181000Z AUTO 06002KT 5SM 17/13 A3012 RMK T01700130 IEM_DS3505
ZGOW,2001-01-18 11:00,ZGOW 181100Z AUTO 00000KT 4SM 16/15 A3012 RMK T01600150 IEM_DS3505
ZGOW,2001-01-18 12:00,ZGOW 181200Z AUTO 11002KT 6SM 17/14 A3015 RMK SLP209 T01700140 52014 IEM_DS3505
ZGOW,2001-01-18 13:00,ZGOW 181300Z AUTO 14002KT 2 1/2SM 15/15 A3015 RMK T01500150 IEM_DS3505
ZGOW,2001-01-18 14:00,ZGOW 181400Z AUTO 00000KT 2 1/2SM 15/14 A3018 RMK T01500140 IEM_DS3505
ZGOW,2001-01-18 15:00,ZGOW 181500Z AUTO 04002KT 6SM 16/14 A3018 RMK SLP223 T01580137 52014 IEM_DS3505
ZGOW,2001-01-18 16:00,ZGOW 181600Z AUTO 00000KT 2 1/2SM 14/14 A3018 RMK T01400140 IEM_DS3505
ZGOW,2001-01-18 17:00,ZGOW 181700Z AUTO 02002KT 3SM 14/13 A3018 RMK T01400130 IEM_DS3505
ZGOW,2001-01-18 18:00,ZGOW 181800Z AUTO 04004KT 4SM 15/13 A3018 RMK SLP223 T01480130 54000 IEM_DS3505
ZGOW,2001-01-18 19:00,ZGOW 181900Z AUTO 36004KT 2SM 13/13 A3015 RMK T01300130 IEM_DS3505
ZGOW,2001-01-18 20:00,ZGOW 182000Z AUTO 01004KT 3SM 14/13 A3015 RMK T01400130 IEM_DS3505
ZGOW,2001-01-18 21:00,ZGOW 182100Z AUTO 07004KT 2 1/2SM 14/13 A3015 RMK SLP214 T01400127 57009 IEM_DS3505
ZGOW,2001-01-18 22:00,ZGOW 182200Z AUTO 01002KT 2SM 13/12 A3015 RMK T01300120 IEM_DS3505
ZGOW,2001-01-18 23:00,ZGOW 182300Z AUTO 36004KT 1 1/2SM 13/13 A3018 RMK T01300130 IEM_DS3505
ZGOW,2001-01-19 00:00,ZGOW 190000Z AUTO 14002KT 4SM 15/13 A3018 RMK SLP226 T01460133 52012 IEM_DS3505
ZGOW,2001-01-19 01:00,ZGOW 190100Z AUTO 08002KT 4SM 16/15 A3018 RMK T01600150 IEM_DS3505
ZGOW,2001-01-19 02:00,ZGOW 190200Z AUTO 06012KT 6SM 18/14 A3021 RMK T01800140 IEM_DS3505
ZGOW,2001-01-19 03:00,ZGOW 190300Z AUTO 04006KT 5SM 20/14 A3018 RMK SLP229 T01960135 52003 IEM_DS3505
ZGOW,2001-01-19 04:00,ZGOW 190400Z AUTO 05006KT 6SM 21/15 A3015 RMK T02100150 IEM_DS3505
ZGOW,2001-01-19 05:00,ZGOW 190500Z AUTO 08004KT 6SM 22/16 A3012 RMK T02200160 IEM_DS3505
ZGOW,2001-01-19 06:00,ZGOW 190600Z AUTO 14006KT 7SM 23/13 A3009 RMK SLP195 T02290134 57034 IEM_DS3505
ZGOW,2001-01-19 07:00,ZGOW 190700Z AUTO 10006KT 6SM 21/16 A3006 RMK T02100160 IEM_DS3505
ZGOW,2001-01-19 08:00,ZGOW 190800Z AUTO 13006KT 6SM 21/16 A3006 RMK T02100160 IEM_DS3505
ZGOW,2001-01-19 09:00,ZGOW 190900Z AUTO 14006KT 4SM 19/15 A3009 RMK T01900150 IEM_DS3505
ZGOW,2001-01-19 10:00,ZGOW 191000Z AUTO 14004KT 4SM 17/15 A3009 RMK T01700150 IEM_DS3505
ZGOW,2001-01-19 11:00,ZGOW 191100Z AUTO 14006KT 3SM 16/15 A3009 RMK T01600150 IEM_DS3505
ZGOW,2001-01-19 12:00,ZGOW 191200Z AUTO 11002KT 6SM 17/15 A3012 RMK SLP200 T01660147 52009 IEM_DS3505
ZGOW,2001-01-19 13:00,ZGOW 191300Z AUTO 00000KT 1 1/4SM 15/15 A3012 RMK T01500150 IEM_DS3505
ZGOW,2001-01-19 14:00,ZGOW 191400Z AUTO 00000KT 1 1/4SM 15/15 A3012 RMK T01500150 IEM_DS3505
ZGOW,2001-01-19 15:00,ZGOW 191500Z AUTO 00000KT 5SM 15/14 A3012 RMK SLP205 T01540142 52005 IEM_DS3505
ZGOW,2001-01-19 16:00,ZGOW 191600Z AUTO 00000KT 1 1/4SM 15/14 A3012 RMK T01500140 IEM_DS3505
ZGOW,2001-01-19 17:00,ZGOW 191700Z AUTO 00000KT 1SM 15/15 A3012 RMK T01500150 IEM_DS3505
ZGOW,2001-01-19 18:00,ZGOW 191800Z AUTO 00000KT 4SM 15/15 A3009 RMK SLP202 T01510146 57003 IEM_DS3505
ZGOW,2001-01-19 19:00,ZGOW 191900Z AUTO 32002KT 1SM 15/15 A3009 RMK T01500150 IEM_DS3505
ZGOW,2001-01-19 20:00,ZGOW 192000Z AUTO 34002KT 1 1/4SM 15/15 A3009 RMK T01500150 IEM_DS3505
ZGOW,2001-01-19 21:00,ZGOW 192100Z AUTO 07004KT 2 1/2SM 16/14 A3009 RMK SLP192 T01560144 57010 IEM_DS3505
ZGOW,2001-01-19 22:00,ZGOW 192200Z AUTO 29002KT 1 1/4SM 15/15 A3009 RMK T01500150 IEM_DS3505
ZGOW,2001-01-19 23:00,ZGOW 192300Z AUTO 00000KT 1SM 15/15 A3009 RMK T01500150 IEM_DS3505
ZGOW,2001-01-20 00:00,ZGOW 200000Z AUTO 25004KT 2 1/2SM 16/15 A3012 RMK SLP204 T01580149 52012 IEM_DS3505
ZGOW,2001-01-20 01:00,ZGOW 200100Z AUTO 31002KT 1 1/4SM 17/16 A3012 RMK T01700160 IEM_DS3505
ZGOW,2001-01-20 02:00,ZGOW 200200Z AUTO 33006KT 1 1/2SM 20/16 A3012 RMK T02000160 IEM_DS3505
ZGOW,2001-01-20 03:00,ZGOW 200300Z AUTO 00000KT 4SM 24/15 A3009 RMK SLP197 T02350146 57007 IEM_DS3505
ZGOW,2001-01-20 04:00,ZGOW 200400Z AUTO 02002KT 25/15 A3006 RMK T02500150 IEM_DS3505
ZGOW,2001-01-20 05:00,ZGOW 200500Z AUTO 26002KT 26/16 A3003 RMK T02600160 IEM_DS3505
ZGOW,2001-01-20 06:00,ZGOW 200600Z AUTO 27006KT 6SM 26/15 A3000 RMK SLP162 T02590150 57035 IEM_DS3505
ZGOW,2001-01-20 07:00,ZGOW 200700Z AUTO 16008KT 6SM 25/16 A2997 RMK T02500160 IEM_DS3505
ZGOW,2001-01-20 09:00,ZGOW 200900Z AUTO 16004KT 6SM 23/15 A2997 RMK SLP160 T02330149 57002 IEM_DS3505
ZGOW,2001-01-20 10:00,ZGOW 201000Z AUTO 16006KT 4SM 19/15 A3000 RMK T01900150 IEM_DS3505
ZGOW,2001-01-20 11:00,ZGOW 201100Z AUTO 14004KT 2 1/2SM 18/16 A3000 RMK T01800160 IEM_DS3505
ZGOW,2001-01-20 12:00,ZGOW 201200Z AUTO 00000KT 6SM 19/14 A3000 RMK SLP173 T01920142 52013 IEM_DS3505
ZGOW,2001-01-20 13:00,ZGOW 201300Z AUTO 12002KT 3SM 17/16 A3003 RMK T01700160 IEM_DS3505
ZGOW,2001-01-20 14:00,ZGOW 201400Z AUTO 00000KT 3SM 16/15 A3003 RMK T01600150 IEM_DS3505
ZGOW,2001-01-20 15:00,ZGOW 201500Z AUTO 07004KT 5SM 17/16 A3003 RMK SLP180 T01740155 52007 IEM_DS3505
ZGOW,2001-01-20 16:00,ZGOW 201600Z AUTO 07004KT 1 1/4SM 16/15 A3003 RMK T01600150 IEM_DS3505
ZGOW,2001-01-20 18:00,ZGOW 201800Z AUTO 09006KT 5SM 16/14 RMK SLP178 T01640145 57002 IEM_DS3505
ZGOW,2001-01-20 21:00,ZGOW 202100Z AUTO 09012KT 4SM 16/14 RMK SLP175 T01640136 57003 IEM_DS3505
ZGOW,2001-01-20 22:00,ZGOW 202200Z AUTO 08010KT 7SM 16/14 A3006 RMK T01600140 IEM_DS3505
ZGOW,2001-01-20 23:00,ZGOW 202300Z AUTO 08012KT 7SM RMK IEM_DS3505
ZGOW,2001-01-21 00:00,ZGOW 210000Z AUTO 09010KT 5SM 16/13 A3006 RMK SLP190 T01630131 52015 IEM_DS3505
ZGOW,2001-01-21 01:00,ZGOW 210100Z AUTO 08012KT 4SM 17/14 A3009 RMK T01700140 IEM_DS3505
ZGOW,2001-01-21 02:00,ZGOW 210200Z AUTO 08014KT 5SM 17/14 A3012 RMK T01700140 IEM_DS3505
ZGOW,2001-01-21 03:00,ZGOW 210300Z AUTO 09010KT 6SM 17/13 A3009 RMK SLP197 T01710128 52007 IEM_DS3505
ZGOW,2001-01-21 04:00,ZGOW 210400Z AUTO 07012KT 4SM 18/14 A3006 RMK T01800140 IEM_DS3505
ZGOW,2001-01-21 05:00,ZGOW 210500Z AUTO 07012KT 4SM 18/15 A3003 RMK T01800150 IEM_DS3505
ZGOW,2001-01-21 06:00,ZGOW 210600Z AUTO 09006KT 6SM 20/14 A3000 RMK SLP163 T01970136 57034 IEM_DS3505
ZGOW,2001-01-21 07:00,ZGOW 210700Z AUTO 08008KT 20/14 A2997 RMK T02000140 IEM_DS3505
ZGOW,2001-01-21 08:00,ZGOW 210800Z AUTO 07008KT 5SM 19/15 A2997 RMK T01900150 IEM_DS3505
ZGOW,2001-01-21 09:00,ZGOW 210900Z AUTO 16004KT 6SM 18/14 A2997 RMK SLP153 T01820138 57010 IEM_DS3505
ZGOW,2001-01-21 10:00,ZGOW 211000Z AUTO 15004KT 4SM 17/15 A2997 RMK T01700150 IEM_DS3505
ZGOW,2001-01-21 11:00,ZGOW 211100Z AUTO 04004KT 3SM 16/15 A3000 RMK T01600150 IEM_DS3505
ZGOW,2001-01-21 12:00,ZGOW 211200Z AUTO 09004KT 5SM 17/14 A3000 RMK SLP166 T01740135 52013 IEM_DS3505
ZGOW,2001-01-21 13:00,ZGOW 211300Z AUTO 09002KT 4SM 17/15 A3003 RMK T01700150 IEM_DS3505
ZGOW,2001-01-21 14:00,ZGOW 211400Z AUTO 01004KT 4SM 17/15 A3003 RMK T01700150 IEM_DS3505
ZGOW,2001-01-21 15:00,ZGOW 211500Z AUTO 07006KT 5SM 17/14 A3003 RMK SLP175 T01720139 52009 IEM_DS3505
ZGOW,2001-01-21 16:00,ZGOW 211600Z AUTO 06006KT 4SM 16/15 A3000 RMK T01600150 IEM_DS3505
ZGOW,2001-01-21 17:00,ZGOW 211700Z AUTO 05008KT 4SM 16/15 A3000 RMK T01600150 IEM_DS3505
ZGOW,2001-01-21 18:00,ZGOW 211800Z AUTO 04006KT 5SM 17/14 A3000 RMK SLP163 T01680140 57012 IEM_DS3505
ZGOW,2001-01-21 19:00,ZGOW 211900Z AUTO 05006KT 4SM 16/15 A2997 RMK T01600150 IEM_DS3505
ZGOW,2001-01-21 20:00,ZGOW 212000Z AUTO 06004KT 3SM 16/15 A2997 RMK T01600150 IEM_DS3505
ZGOW,2001-01-21 21:00,ZGOW 212100Z AUTO 07002KT 5SM 16/14 A2994 RMK SLP148 T01650142 57015 IEM_DS3505
ZGOW,2001-01-21 22:00,ZGOW 212200Z AUTO 08004KT 3SM 16/15 A2994 RMK T01600150 IEM_DS3505
ZGOW,2001-01-21 23:00,ZGOW 212300Z AUTO 04004KT 2SM 16/15 A2997 RMK T01600150 IEM_DS3505
ZGOW,2001-01-22 00:00,ZGOW 220000Z AUTO 00000KT 4SM 17/15 A2997 RMK 60000 SLP158 T01660149 52010 IEM_DS3505
ZGOW,2001-01-22 01:00,ZGOW 220100Z AUTO 02002KT 2SM 17/16 A3000 RMK T01700160 IEM_DS3505
ZGOW,2001-01-22 03:00,ZGOW 220300Z AUTO 29004KT 5SM 18/15 A3000 RMK SLP164 T01830154 52006 IEM_DS3505
ZGOW,2001-01-22 04:00,ZGOW 220400Z AUTO 34002KT 2 1/2SM 18/16 A2997 RMK T01800160 IEM_DS3505
ZGOW,2001-01-22 06:00,ZGOW 220600Z AUTO 02004KT 2 1/2SM 20/16 A2991 RMK 60000 SLP135 T02010163 57029 IEM_DS3505
ZGOW,2001-01-22 07:00,ZGOW 220700Z AUTO 00000KT 2 1/2SM 21/18 A2988 RMK T02100180 IEM_DS3505
ZGOW,2001-01-22 08:00,ZGOW 220800Z AUTO 15002KT 2SM 21/18 A2988 RMK T02100180 IEM_DS3505
ZGOW,2001-01-22 09:00,ZGOW 220900Z AUTO 16004KT 4SM 22/17 A2988 RMK SLP124 T02180171 57011 IEM_DS3505
ZGOW,2001-01-22 10:00,ZGOW 221000Z AUTO 14004KT 2 1/2SM 18/16 A2991 RMK T01800160 IEM_DS3505
ZGOW,2001-01-22 11:00,ZGOW 221100Z AUTO 12004KT 2 1/2SM 17/16 A2991 RMK T01700160 IEM_DS3505
ZGOW,2001-01-22 12:00,ZGOW 221200Z AUTO 14002KT 4SM 18/15 A2994 RMK SLP146 T01820150 52022 IEM_DS3505
ZGOW,2001-01-22 13:00,ZGOW 221300Z AUTO 10004KT 2SM 17/16 A2994 RMK T01700160 IEM_DS3505
ZGOW,2001-01-22 14:00,ZGOW 221400Z AUTO 09002KT 1 1/2SM 17/16 A2997 RMK T01700160 IEM_DS3505
ZGOW,2001-01-22 15:00,ZGOW 221500Z AUTO 04002KT 4SM 18/16 A2997 RMK SLP157 T01760157 52011 IEM_DS3505
ZGOW,2001-01-22 16:00,ZGOW 221600Z AUTO 01004KT 2SM 17/17 A2997 RMK T01700170 IEM_DS3505
ZGOW,2001-01-22 17:00,ZGOW 221700Z AUTO 32002KT 2SM 18/16 A2997 RMK T01800160 IEM_DS3505
ZGOW,2001-01-22 18:00,ZGOW 221800Z AUTO 00000KT 4SM 18/16 A2997 RMK SLP153 T01780161 57004 IEM_DS3505
ZGOW,2001-01-22 19:00,ZGOW 221900Z AUTO 30002KT 1 1/2SM 18/17 A2997 RMK T01800170 IEM_DS3505
ZGOW,2001-01-22 20:00,ZGOW 222000Z AUTO 07006KT 3SM 18/17 A2994 RMK T01800170 IEM_DS3505
ZGOW,2001-01-22 21:00,ZGOW 222100Z AUTO 07004KT 6SM 18/16 A2997 RMK 70002 SLP150 T01840157 57003 IEM_DS3505
ZGOW,2001-01-22 23:00,ZGOW 222300Z AUTO 07016KT 7SM 16/16 A3000 RMK T01600160 IEM_DS3505
ZGOW,2001-01-23 00:00,ZGOW 230000Z AUTO 07008KT 7SM 16/15 A3003 RMK 60003 SLP173 T01650148 52023 IEM_DS3505
ZGOW,2001-01-23 01:00,ZGOW 230100Z AUTO 07016KT 7SM 16/15 A3006 RMK T01600150 IEM_DS3505
ZGOW,2001-01-23 02:00,ZGOW 230200Z AUTO 07019KT 7SM 16/15 A3006 RMK T01600150 IEM_DS3505
ZGOW,2001-01-23 03:00,ZGOW 230300Z AUTO 07010KT 7SM 17/13 A3006 RMK SLP186 T01680134 52013 IEM_DS3505
ZGOW,2001-01-23 04:00,ZGOW 230400Z AUTO 08014KT 7SM 18/15 A3003 RMK T01800150 IEM_DS3505
ZGOW,2001-01-23 05:00,ZGOW 230500Z AUTO 07016KT 7SM 19/15 A3000 RMK T01900150 IEM_DS3505
ZGOW,2001-01-23 06:00,ZGOW 230600Z AUTO 07006KT 9SM 18/14 A3000 RMK SLP164 T01830138 57022 IEM_DS3505
ZGOW,2001-01-23 07:00,ZGOW 230700Z AUTO 08014KT 7SM 18/15 A2997 RMK T01800150 IEM_DS3505
ZGOW,2001-01-23 08:00,ZGOW 230800Z AUTO 07010KT 7SM 18/15 A2997 RMK T01800150 IEM_DS3505
ZGOW,2001-01-23 09:00,ZGOW 230900Z AUTO 18004KT 9SM 18/14 A2997 RMK SLP156 T01820144 57008 IEM_DS3505
ZGOW,2001-01-23 10:00,ZGOW 231000Z AUTO 08008KT 7SM 18/15 A2997 RMK T01800150 IEM_DS3505
ZGOW,2001-01-23 11:00,ZGOW 231100Z AUTO 06008KT 7SM 17/15 A2997 RMK T01700150 IEM_DS3505
ZGOW,2001-01-23 12:00,ZGOW 231200Z AUTO 09004KT 7SM 18/14 A3000 RMK SLP169 T01760141 52013 IEM_DS3505
ZGOW,2001-01-23 13:00,ZGOW 231300Z AUTO 07010KT 6SM 17/14 A3003 RMK T01700140 IEM_DS3505
ZGOW,2001-01-23 14:00,ZGOW 231400Z AUTO 07012KT 6SM 17/14 A3003 RMK T01700140 IEM_DS3505
ZGOW,2001-01-23 15:00,ZGOW 231500Z AUTO 07008KT 7SM 17/14 A3003 RMK SLP171 T01710136 52002 IEM_DS3505
ZGOW,2001-01-23 16:00,ZGOW 231600Z AUTO 07010KT 6SM 16/15 A3003 RMK T01600150 IEM_DS3505
ZGOW,2001-01-23 17:00,ZGOW 231700Z AUTO 08010KT 6SM 17/15 A3000 RMK T01700150 IEM_DS3505
ZGOW,2001-01-23 18:00,ZGOW 231800Z AUTO 07004KT 9SM 17/14 A3000 RMK 60002 SLP167 T01690139 57004 IEM_DS3505
ZGOW,2001-01-23 19:00,ZGOW 231900Z AUTO 07010KT 6SM 17/15 A2997 RMK T01700150 IEM_DS3505
ZGOW,2001-01-23 20:00,ZGOW 232000Z AUTO 06008KT 7SM 17/15 A2997 RMK T01700150 IEM_DS3505
ZGOW,2001-01-23 21:00,ZGOW 232100Z AUTO 04006KT 8SM 17/14 A2997 RMK 70002 SLP155 T01680145 57012 IEM_DS3505
ZGOW,2001-01-23 22:00,ZGOW 232200Z AUTO 09008KT 7SM 17/15 A2997 RMK T01700150 IEM_DS3505
ZGOW,2001-01-23 23:00,ZGOW 232300Z AUTO 07012KT 3SM 17/16 A2997 RMK T01700160 IEM_DS3505
ZGOW,2001-01-24 00:00,ZGOW 240000Z AUTO 07006KT 4SM 17/15 A3000 RMK 60003 SLP163 T01680153 52008 IEM_DS3505
ZGOW,2001-01-24 01:00,ZGOW 240100Z AUTO 07010KT 3SM 17/16 A3000 RMK T01700160 IEM_DS3505
ZGOW,2001-01-24 02:00,ZGOW 240200Z AUTO 05010KT 4SM 17/16 A3000 RMK T01700160 IEM_DS3505
ZGOW,2001-01-24 03:00,ZGOW 240300Z AUTO 04006KT 6SM 18/16 A2997 RMK SLP157 T01800155 57006 IEM_DS3505
ZGOW,2001-01-24 04:00,ZGOW 240400Z AUTO 05006KT 4SM 18/17 A2994 RMK T01800170 IEM_DS3505
ZGOW,2001-01-24 05:00,ZGOW 240500Z AUTO 08004KT 3SM 18/17 A2991 RMK T01800170 IEM_DS3505
ZGOW,2001-01-24 06:00,ZGOW 240600Z AUTO 11002KT 4SM 18/16 A2988 RMK 60000 SLP128 T01840164 57029 IEM_DS3505
ZGOW,2001-01-24 07:00,ZGOW 240700Z AUTO 06002KT 3SM 20/17 A2985 RMK T02000170 IEM_DS3505
ZGOW,2001-01-24 08:00,ZGOW 240800Z AUTO 05004KT 4SM 19/18 A2985 RMK T01900180 IEM_DS3505
ZGOW,2001-01-24 09:00,ZGOW 240900Z AUTO 29006KT 4SM 19/17 A2988 RMK SLP127 T01900172 57001 IEM_DS3505
ZGOW,2001-01-24 10:00,ZGOW 241000Z AUTO 31004KT 2SM 19/18 A2988 RMK T01900180 IEM_DS3505
ZGOW,2001-01-24 11:00,ZGOW 241100Z AUTO 00000KT 1 1/2SM 19/18 A2988 RMK T01900180 IEM_DS3505
ZGOW,2001-01-24 12:00,ZGOW 241200Z AUTO 00000KT 3SM 19/17 A2988 RMK SLP121 T01870174 57006 IEM_DS3505
ZGOW,2001-01-24 13:00,ZGOW 241300Z AUTO 00000KT 1SM 19/18 A2988 RMK T01900180 IEM_DS3505
ZGOW,2001-01-24 14:00,ZGOW 241400Z AUTO 00000KT 1 1/4SM 19/18 A2988 RMK T01900180 IEM_DS3505
ZGOW,2001-01-24 15:00,ZGOW 241500Z AUTO 00000KT 2 1/2SM 18/17 A2988 RMK SLP124 T01850174 52003 IEM_DS3505
ZGOW,2001-01-24 16:00,ZGOW 241600Z AUTO 00000KT 1 1/4SM 19/18 A2988 RMK T01900180 IEM_DS3505
ZGOW,2001-01-24 17:00,ZGOW 241700Z AUTO 32002KT 1SM 19/18 A2985 RMK T01900180 IEM_DS3505
ZGOW,2001-01-24 18:00,ZGOW 241800Z AUTO 00000KT 2 1/2SM 18/17 A2985 RMK 60003 SLP112 T01850174 57012 IEM_DS3505
ZGOW,2001-01-24 19:00,ZGOW 241900Z AUTO 19/18 A2983 RMK T01900180 IEM_DS3505
ZGOW,2001-01-24 20:00,ZGOW 242000Z AUTO 00000KT 1SM 19/18 A2980 RMK T01900180 IEM_DS3505
ZGOW,2001-01-24 21:00,ZGOW 242100Z AUTO 07002KT 1 1/4SM 19/18 A2977 RMK 70002 SLP084 T01860175 57028 IEM_DS3505
ZGOW,2001-01-24 22:00,ZGOW 242200Z AUTO 00000KT 2SM 18/18 A2977 RMK T01800180 IEM_DS3505
ZGOW,2001-01-24 23:00,ZGOW 242300Z AUTO 30002KT 1 1/4SM 18/18 A2983 RMK T01800180 IEM_DS3505
ZGOW,2001-01-25 00:00,ZGOW 250000Z AUTO 20002KT 1 1/4SM 19/18 A2983 RMK 60003 SLP108 T01870176 52024 IEM_DS3505
ZGOW,2001-01-25 01:00,ZGOW 250100Z AUTO 10004KT 2SM 19/19 A2983 RMK T01900190 IEM_DS3505
ZGOW,2001-01-25 02:00,ZGOW 250200Z AUTO 32004KT 1 1/2SM 19/19 A2985 RMK T01900190 IEM_DS3505
ZGOW,2001-01-25 03:00,ZGOW 250300Z AUTO 22002KT 1 1/4SM 20/18 A2983 RMK SLP108 T02020184 54000 IEM_DS3505
ZGOW,2001-01-25 04:00,ZGOW 250400Z AUTO 21002KT 2SM 20/19 A2983 RMK T02000190 IEM_DS3505
ZGOW,2001-01-25 05:00,ZGOW 250500Z AUTO 14004KT 1SM 20/19 A2977 RMK T02000190 IEM_DS3505
ZGOW,2001-01-25 06:00,ZGOW 250600Z AUTO 14002KT 1SM 20/19 A2974 RMK 60004 SLP080 T02040193 57028 IEM_DS3505
ZGOW,2001-01-25 08:00,ZGOW 250800Z AUTO 14004KT 1SM 20/20 A2974 RMK T02000200 IEM_DS3505
ZGOW,2001-01-25 09:00,ZGOW 250900Z AUTO 11002KT 1 1/4SM 20/20 A2977 RMK SLP080 T02000195 54000 IEM_DS3505
ZGOW,2001-01-25 10:00,ZGOW 251000Z AUTO 10006KT 1/4SM 19/19 A2974 RMK T01900190 IEM_DS3505
ZGOW,2001-01-25 11:00,ZGOW 251100Z AUTO 13004KT 1/4SM 19/19 A2977 RMK T01900190 IEM_DS3505
ZGOW,2001-01-25 12:00,ZGOW 251200Z AUTO 11004KT 1SM 18/18 A2977 RMK 60008 SLP091 T01850183 52011 IEM_DS3505
ZGOW,2001-01-25 13:00,ZGOW 251300Z AUTO 13002KT 1SM 18/18 A2980 RMK T01800180 IEM_DS3505
ZGOW,2001-01-25 14:00,ZGOW 251400Z AUTO 09002KT 1/2SM 18/18 A2980 RMK T01800180 IEM_DS3505
ZGOW,2001-01-25 15:00,ZGOW 251500Z AUTO 04006KT 1SM 18/18 A2983 RMK SLP105 T01810178 52014 IEM_DS3505
ZGOW,2001-01-25 16:00,ZGOW 251600Z AUTO 34010KT 6SM 15/15 A2985 RMK T01500150 IEM_DS3505
ZGOW,2001-01-25 17:00,ZGOW 251700Z AUTO 33010KT 7SM 15/14 A2983 RMK T01500140 IEM_DS3505
ZGOW,2001-01-25 18:00,ZGOW 251800Z AUTO 04006KT 7SM 15/13 A2985 RMK 60000 SLP114 T01540129 52009 IEM_DS3505
ZGOW,2001-01-25 19:00,ZGOW 251900Z AUTO 34012KT 6SM 14/12 A2985 RMK T01400120 IEM_DS3505
ZGOW,2001-01-25 20:00,ZGOW 252000Z AUTO 34012KT 6SM 13/12 A2985 RMK T01300120 IEM_DS3505
ZGOW,2001-01-25 21:00,ZGOW 252100Z AUTO 04008KT 8SM 12/10 A2985 RMK 70024 SLP115 T01240103 52001 IEM_DS3505
ZGOW,2001-01-25 22:00,ZGOW 252200Z AUTO 34010KT 4SM 11/10 A2985 RMK T01100100 IEM_DS3505
ZGOW,2001-01-25 23:00,ZGOW 252300Z AUTO 33016G25KT 7SM 11/10 A2991 RMK T01100100 IEM_DS3505
ZGOW,2001-01-26 00:00,ZGOW 260000Z AUTO 02006KT 9SM 11/08 A2991 RMK 60047 SLP142 T01080084 52027 IEM_DS3505
ZGOW,2001-01-26 01:00,ZGOW 260100Z AUTO 32012KT 4SM 11/09 A2997 RMK T01100090 IEM_DS3505
ZGOW,2001-01-26 02:00,ZGOW 260200Z AUTO 32008KT 7SM 11/09 A2997 RMK T01100090 IEM_DS3505
ZGOW,2001-01-26 03:00,ZGOW 260300Z AUTO 32004G21KT 9SM 11/08 A3003 RMK SLP171 T01070080 52029 IEM_DS3505
ZGOW,2001-01-26 04:00,ZGOW 260400Z AUTO 32012KT 4SM 10/08 A3000 RMK T01000080 IEM_DS3505
ZGOW,2001-01-26 05:00,ZGOW 260500Z AUTO 35008KT 7SM 10/09 A2991 RMK T01000090 IEM_DS3505
ZGOW,2001-01-26 06:00,ZGOW 260600Z AUTO 02004KT 12SM 11/08 A2994 RMK 60031 SLP146 T01060081 57025 IEM_DS3505
ZGOW,2001-01-26 07:00,ZGOW 260700Z AUTO 33006KT 7SM 11/09 A2994 RMK T01100090 IEM_DS3505
ZGOW,2001-01-26 08:00,ZGOW 260800Z AUTO 33010KT 7SM 12/09 A2994 RMK T01200090 IEM_DS3505
ZGOW,2001-01-26 09:00,ZGOW 260900Z AUTO 02006KT 19SM 13/08 A2997 RMK SLP157 T01320077 52011 IEM_DS3505
ZGOW,2001-01-26 10:00,ZGOW 261000Z AUTO 32012KT 7SM 12/08 A2997 RMK T01200080 IEM_DS3505
ZGOW,2001-01-26 11:00,ZGOW 261100Z AUTO 34006KT 7SM 12/08 A3000 RMK T01200080 IEM_DS3505
ZGOW,2001-01-26 12:00,ZGOW 261200Z AUTO 04008KT 15SM 11/06 A3000 RMK SLP169 T01130057 52012 IEM_DS3505
ZGOW,2001-01-26 13:00,ZGOW 261300Z AUTO 34006KT 6SM 11/08 A3003 RMK T01100080 IEM_DS3505
ZGOW,2001-01-26 14:00,ZGOW 261400Z AUTO 35010KT 6SM 11/06 A3003 RMK T01100060 IEM_DS3505
ZGOW,2001-01-26 15:00,ZGOW 261500Z AUTO 34006KT 12SM 10/06 A3003 RMK SLP183 T01050055 52014 IEM_DS3505
ZGOW,2001-01-26 16:00,ZGOW 261600Z AUTO 33006KT 6SM 10/06 A3006 RMK T01000060 IEM_DS3505
ZGOW,2001-01-26 17:00,ZGOW 261700Z AUTO 32006KT 6SM 10/06 A3006 RMK T01000060 IEM_DS3505
ZGOW,2001-01-26 18:00,ZGOW 261800Z AUTO 02004KT 12SM 10/04 A3003 RMK SLP181 T00970045 57002 IEM_DS3505
ZGOW,2001-01-26 19:00,ZGOW 261900Z AUTO 34006KT 6SM 09/05 A3003 RMK T00900050 IEM_DS3505
ZGOW,2001-01-26 20:00,ZGOW 262000Z AUTO 34006KT 6SM 09/05 A3003 RMK T00900050 IEM_DS3505
ZGOW,2001-01-26 21:00,ZGOW 262100Z AUTO 36002KT 11SM 09/04 A3006 RMK 70067 SLP186 T00900042 52005 IEM_DS3505
ZGOW,2001-01-26 22:00,ZGOW 262200Z AUTO 33006KT 6SM 08/05 A3009 RMK T00800050 IEM_DS3505
ZGOW,2001-01-26 23:00,ZGOW 262300Z AUTO 34004KT 6SM 08/05 A3009 RMK T00800050 IEM_DS3505
ZGOW,2001-01-27 00:00,ZGOW 270000Z AUTO 07004KT 12SM 09/03 A3012 RMK 70033 SLP203 T00900034 52017 IEM_DS3505
ZGOW,2001-01-27 01:00,ZGOW 270100Z AUTO 33006KT 6SM 10/06 A3012 RMK T01000060 IEM_DS3505
ZGOW,2001-01-27 02:00,ZGOW 270200Z AUTO 05008KT 6SM 13/07 A3012 RMK T01300070 IEM_DS3505
ZGOW,2001-01-27 03:00,ZGOW 270300Z AUTO 04008KT 16SM 14/04 A3012 RMK SLP200 T01390043 57003 IEM_DS3505
ZGOW,2001-01-27 04:00,ZGOW 270400Z AUTO 07012KT 7SM 14/07 A3009 RMK T01400070 IEM_DS3505
ZGOW,2001-01-27 05:00,ZGOW 270500Z AUTO 05006KT 7SM 14/07 A3006 RMK T01400070 IEM_DS3505
ZGOW,2001-01-27 06:00,ZGOW 270600Z AUTO 07006KT 19SM 14/06 A3006 RMK SLP180 T01380060 57020 IEM_DS3505
ZGOW,2001-01-27 07:00,ZGOW 270700Z AUTO 07012KT 7SM 14/09 A3000 RMK T01400090 IEM_DS3505
ZGOW,2001-01-27 08:00,ZGOW 270800Z AUTO 07012KT 7SM 14/08 A3003 RMK T01400080 IEM_DS3505
ZGOW,2001-01-27 09:00,ZGOW 270900Z AUTO 07006KT 16SM 13/08 A3003 RMK SLP183 T01260084 52003 IEM_DS3505
ZGOW,2001-01-27 10:00,ZGOW 271000Z AUTO 07008KT 7SM 12/09 A3006 RMK T01200090 IEM_DS3505
ZGOW,2001-01-27 11:00,ZGOW 271100Z AUTO 07012KT 7SM 13/09 A3006 RMK T01300090 IEM_DS3505
ZGOW,2001-01-27 12:00,ZGOW 271200Z AUTO 07008KT 11SM 13/07 A3006 RMK 60004 SLP187 T01310071 52004 IEM_DS3505
ZGOW,2001-01-27 13:00,ZGOW 271300Z AUTO 06012KT 7SM 13/08 A3009 RMK T01300080 IEM_DS3505
ZGOW,2001-01-27 14:00,ZGOW 271400Z AUTO 06014KT 7SM 11/09 A3009 RMK T01100090 IEM_DS3505
ZGOW,2001-01-27 15:00,ZGOW 271500Z AUTO 07008KT 7SM 11/08 A3012 RMK SLP201 T01100079 52014 IEM_DS3505
ZGOW,2001-01-27 16:00,ZGOW 271600Z AUTO 05008KT 3SM 10/09 A3012 RMK T01000090 IEM_DS3505
ZGOW,2001-01-27 17:01,ZGOW 271701Z AUTO 02006KT 2SM 10/10 A3012 RMK T01000100 IEM_DS3505
ZGOW,2001-01-27 18:00,ZGOW 271800Z AUTO 07006KT 6SM 10/09 A3012 RMK 60024 SLP204 T01010091 52003 IEM_DS3505
ZGOW,2001-01-27 19:01,ZGOW 271901Z AUTO 02008KT 5SM 10/10 A3012 RMK T01000100 IEM_DS3505
ZGOW,2001-01-27 20:00,ZGOW 272000Z AUTO 33008KT 4SM 10/10 A3012 RMK T01000100 IEM_DS3505
ZGOW,2001-01-27 21:00,ZGOW 272100Z AUTO 04004KT 7SM 10/09 A3012 RMK 70032 SLP205 T00970087 52001 IEM_DS3505
ZGOW,2001-01-27 22:00,ZGOW 272200Z AUTO 34006KT 7SM 10/09 A3012 RMK T01000090 IEM_DS3505
ZGOW,2001-01-27 23:00,ZGOW 272300Z AUTO 34006KT 7SM 10/09 A3015 RMK T01000090 IEM_DS3505
ZGOW,2001-01-28 00:00,ZGOW 280000Z AUTO 04002KT 8SM 10/08 A3015 RMK 60012 SLP221 T00990082 52016 IEM_DS3505
ZGOW,2001-01-28 01:00,ZGOW 280100Z AUTO 34006KT 7SM 10/09 A3018 RMK T01000090 IEM_DS3505
ZGOW,2001-01-28 02:00,ZGOW 280200Z AUTO 32006KT 7SM 10/09 A3018 RMK T01000090 IEM_DS3505
ZGOW,2001-01-28 03:00,ZGOW 280300Z AUTO 04004KT 7SM 10/09 A3018 RMK SLP226 T01050089 52005 IEM_DS3505
ZGOW,2001-01-28 04:00,ZGOW 280400Z AUTO 34006KT 7SM 11/11 A3015 RMK T01100110 IEM_DS3505
ZGOW,2001-01-28 05:00,ZGOW 280500Z AUTO 34006KT 7SM 12/10 A3012 RMK T01200100 IEM_DS3505
ZGOW,2001-01-28 06:00,ZGOW 280600Z AUTO 04004KT 11SM 13/09 A3009 RMK 60003 SLP201 T01270087 57025 IEM_DS3505
ZGOW,2001-01-28 07:00,ZGOW 280700Z AUTO 34006KT 7SM 13/09 A3009 RMK T01300090 IEM_DS3505
ZGOW,2001-01-28 08:00,ZGOW 280800Z AUTO 35004KT 7SM 13/10 A3009 RMK T01300100 IEM_DS3505
ZGOW,2001-01-28 09:00,ZGOW 280900Z AUTO 04004KT 11SM 12/09 A3012 RMK SLP205 T01250093 52004 IEM_DS3505
ZGOW,2001-01-28 10:00,ZGOW 281000Z AUTO 33002KT 7SM 12/11 A3012 RMK T01200110 IEM_DS3505
ZGOW,2001-01-28 11:00,ZGOW 281100Z AUTO 00000KT 7SM 12/11 A3015 RMK T01200110 IEM_DS3505
ZGOW,2001-01-28 12:00,ZGOW 281200Z AUTO 00000KT 8SM 12/11 A3015 RMK 60002 SLP219 T01210106 52014 IEM_DS3505
ZGOW,2001-01-28 13:00,ZGOW 281300Z AUTO 09002KT 7SM 12/11 A3018 RMK T01200110 IEM_DS3505
ZGOW,2001-01-28 14:00,ZGOW 281400Z AUTO 32004KT 7SM 12/11 A3018 RMK T01200110 IEM_DS3505
ZGOW,2001-01-28 15:00,ZGOW 281500Z AUTO 00000KT 8SM 12/10 A3018 RMK SLP227 T01240101 52008 IEM_DS3505
ZGOW,2001-01-28 16:01,ZGOW 281601Z AUTO 06008KT 6SM 12/07 A3021 RMK T01200070 IEM_DS3505
ZGOW,2001-01-28 17:01,ZGOW 281701Z AUTO 04006KT 6SM 12/07 A3018 RMK T01200070 IEM_DS3505
ZGOW,2001-01-28 18:00,ZGOW 281800Z AUTO 09004KT 9SM 12/06 A3018 RMK 60003 SLP227 T01230061 54000 IEM_DS3505
ZGOW,2001-01-28 19:00,ZGOW 281900Z AUTO 04006KT 6SM 12/07 A3018 RMK T01200070 IEM_DS3505
ZGOW,2001-01-28 20:00,ZGOW 282000Z AUTO 03004KT 6SM 12/07 A3018 RMK T01200070 IEM_DS3505
ZGOW,2001-01-28 21:00,ZGOW 282100Z AUTO 02002KT 7SM 12/08 A3018 RMK 70009 SLP221 T01180079 57006 IEM_DS3505
ZGOW,2001-01-28 22:00,ZGOW 282200Z AUTO 07002KT 6SM 11/08 A3018 RMK T01100080 IEM_DS3505
ZGOW,2001-01-29 00:00,ZGOW 290000Z AUTO 07008KT 11SM 12/06 A3021 RMK 70005 SLP233 T01200058 52012 IEM_DS3505
ZGOW,2001-01-29 01:00,ZGOW 290100Z AUTO 04008KT 6SM 13/08 A3024 RMK T01300080 IEM_DS3505
ZGOW,2001-01-29 02:00,ZGOW 290200Z AUTO 04008KT 6SM 14/08 A3024 RMK T01400080 IEM_DS3505
ZGOW,2001-01-29 03:00,ZGOW 290300Z AUTO 07006KT 11SM 14/06 A3021 RMK SLP239 T01420060 52006 IEM_DS3505
ZGOW,2001-01-29 04:00,ZGOW 290400Z AUTO 07004KT 6SM 15/08 A3018 RMK T01500080 IEM_DS3505
ZGOW,2001-01-29 05:00,ZGOW 290500Z AUTO 07004KT 6SM 15/09 A3015 RMK T01500090 IEM_DS3505
ZGOW,2001-01-29 06:00,ZGOW 290600Z AUTO 09004KT 11SM 15/07 A3012 RMK SLP207 T01530074 57032 IEM_DS3505
ZGOW,2001-01-29 07:00,ZGOW 290700Z AUTO 08006KT 6SM 15/08 A3012 RMK T01500080 IEM_DS3505
ZGOW,2001-01-29 08:00,ZGOW 290800Z AUTO 09006KT 6SM 15/07 A3012 RMK T01500070 IEM_DS3505
ZGOW,2001-01-29 09:00,ZGOW 290900Z AUTO 07004KT 10SM 15/07 A3012 RMK SLP202 T01480070 57005 IEM_DS3505
ZGOW,2001-01-29 10:00,ZGOW 291000Z AUTO 08008KT 6SM 14/07 A3012 RMK T01400070 IEM_DS3505
ZGOW,2001-01-29 12:00,ZGOW 291200Z AUTO 09006KT 7SM 14/07 A3015 RMK SLP214 T01370071 52012 IEM_DS3505
ZGOW,2001-01-29 13:00,ZGOW 291300Z AUTO 07010KT 6SM 13/09 A3015 RMK T01300090 IEM_DS3505
ZGOW,2001-01-29 14:00,ZGOW 291400Z AUTO 07014KT 6SM 13/10 A3015 RMK T01300100 IEM_DS3505
ZGOW,2001-01-29 15:00,ZGOW 291500Z AUTO 07008KT 7SM 13/08 A3015 RMK SLP220 T01320084 52006 IEM_DS3505
ZGOW,2001-01-29 16:00,ZGOW 291600Z AUTO 06012KT 6SM 13/09 A3018 RMK T01300090 IEM_DS3505
ZGOW,2001-01-29 17:00,ZGOW 291700Z AUTO 06010KT 6SM 13/09 A3015 RMK T01300090 IEM_DS3505
ZGOW,2001-01-29 18:00,ZGOW 291800Z AUTO 07004KT 7SM 13/08 A3015 RMK SLP220 T01270076 54000 IEM_DS3505
ZGOW,2001-01-29 19:00,ZGOW 291900Z AUTO 02006KT 6SM 12/09 A3015 RMK T01200090 IEM_DS3505
ZGOW,2001-01-29 20:00,ZGOW 292000Z AUTO 02006KT 6SM 12/09 A3015 RMK T01200090 IEM_DS3505
ZGOW,2001-01-29 21:00,ZGOW 292100Z AUTO 07004KT 7SM 12/08 A3015 RMK SLP213 T01220077 57007 IEM_DS3505
ZGOW,2001-01-29 22:00,ZGOW 292200Z AUTO 06002KT 6SM 11/09 A3015 RMK T01100090 IEM_DS3505
ZGOW,2001-01-29 23:00,ZGOW 292300Z AUTO 02002KT 6SM 11/09 A3015 RMK T01100090 IEM_DS3505
ZGOW,2001-01-30 00:00,ZGOW 300000Z AUTO 04002KT 9SM 12/08 A3015 RMK SLP219 T01210085 52006 IEM_DS3505
ZGOW,2001-01-30 01:00,ZGOW 300100Z AUTO 04006KT 6SM 15/10 A3018 RMK T01500100 IEM_DS3505
ZGOW,2001-01-30 02:00,ZGOW 300200Z AUTO 07012KT 6SM 16/10 A3015 RMK T01600100 IEM_DS3505
ZGOW,2001-01-30 03:00,ZGOW 300300Z AUTO 09008KT 9SM 16/09 A3012 RMK SLP205 T01630087 57014 IEM_DS3505
ZGOW,2001-01-30 04:00,ZGOW 300400Z AUTO 06006KT 6SM 17/11 A3009 RMK T01700110 IEM_DS3505
ZGOW,2001-01-30 05:00,ZGOW 300500Z AUTO 04004KT 6SM 18/11 A3006 RMK T01800110 IEM_DS3505
ZGOW,2001-01-30 06:00,ZGOW 300600Z AUTO 29004KT 12SM 20/11 A3003 RMK SLP174 T01970107 57031 IEM_DS3505
ZGOW,2001-01-30 07:00,ZGOW 300700Z AUTO 08004KT 6SM 19/12 A3000 RMK T01900120 IEM_DS3505
ZGOW,2001-01-30 08:00,ZGOW 300800Z AUTO 13008KT 6SM 18/12 A3000 RMK T01800120 IEM_DS3505
ZGOW,2001-01-30 09:00,ZGOW 300900Z AUTO 11006KT 9SM 17/10 A3000 RMK SLP162 T01670105 57012 IEM_DS3505
ZGOW,2001-01-30 10:00,ZGOW 301000Z AUTO 11004KT 6SM 15/13 A3000 RMK T01500130 IEM_DS3505
ZGOW,2001-01-30 11:00,ZGOW 301100Z AUTO 08008KT 6SM 14/12 A3000 RMK T01400120 IEM_DS3505
ZGOW,2001-01-30 12:00,ZGOW 301200Z AUTO 07006KT 9SM 15/11 A3003 RMK SLP174 T01460114 52012 IEM_DS3505
ZGOW,2001-01-30 13:00,ZGOW 301300Z AUTO 08010KT 6SM 14/13 A3003 RMK T01400130 IEM_DS3505
ZGOW,2001-01-30 14:00,ZGOW 301400Z AUTO 07010KT 6SM 14/13 A3003 RMK T01400130 IEM_DS3505
ZGOW,2001-01-30 15:00,ZGOW 301500Z AUTO 07006KT 8SM 14/12 A3006 RMK SLP185 T01410117 52011 IEM_DS3505
ZGOW,2001-01-30 16:00,ZGOW 301600Z AUTO 08012KT 6SM 14/12 A3003 RMK T01400120 IEM_DS3505
ZGOW,2001-01-30 17:00,ZGOW 301700Z AUTO 09010KT 6SM 14/12 A3006 RMK T01400120 IEM_DS3505
ZGOW,2001-01-30 18:00,ZGOW 301800Z AUTO 09006KT 8SM 14/11 A3003 RMK SLP178 T01410111 57007 IEM_DS3505
ZGOW,2001-01-30 20:00,ZGOW 302000Z AUTO 04008KT 6SM 14/12 A3003 RMK T01400120 IEM_DS3505
ZGOW,2001-01-30 21:00,ZGOW 302100Z AUTO 34002KT 7SM 14/11 RMK SLP173 T01360111 57005 IEM_DS3505
ZGOW,2001-01-30 22:00,ZGOW 302200Z AUTO 33002KT 6SM 13/12 A3003 RMK T01300120 IEM_DS3505
ZGOW,2001-01-30 23:00,ZGOW 302300Z AUTO 30004KT 6SM 13/12 A3003 RMK T01300120 IEM_DS3505
ZGOW,2001-01-31 00:00,ZGOW 310000Z AUTO 34002KT 7SM 14/12 A3006 RMK SLP183 T01390117 52010 IEM_DS3505
ZGOW,2001-01-31 01:00,ZGOW 310100Z AUTO 32006KT 4SM 15/13 A3006 RMK T01500130 IEM_DS3505
ZGOW,2001-01-31 02:00,ZGOW 310200Z AUTO 32006KT 4SM 16/14 A3006 RMK T01600140 IEM_DS3505
ZGOW,2001-01-31 03:00,ZGOW 310300Z AUTO 07004KT 10SM 18/12 A3003 RMK SLP175 T01750117 57008 IEM_DS3505
ZGOW,2001-01-31 04:00,ZGOW 310400Z AUTO 08004KT 6SM 19/13 A3000 RMK T01900130 IEM_DS3505
ZGOW,2001-01-31 05:00,ZGOW 310500Z AUTO 10006KT 6SM 20/13 A2994 RMK T02000130 IEM_DS3505
ZGOW,2001-01-31 06:00,ZGOW 310600Z AUTO 20006KT 12SM 20/12 A2991 RMK SLP138 T02040124 57037 IEM_DS3505
ZGOW,2001-01-31 07:00,ZGOW 310700Z AUTO 13006KT 6SM 20/14 A2988 RMK T02000140 IEM_DS3505
ZGOW,2001-01-31 08:00,ZGOW 310800Z AUTO 13006KT 6SM 19/14 A2988 RMK T01900140 IEM_DS3505
ZGOW,2001-01-31 09:00,ZGOW 310900Z AUTO 18006KT 9SM 18/12 A2991 RMK SLP130 T01850124 57008 IEM_DS3505
ZGOW,2001-01-31 10:00,ZGOW 311000Z AUTO 12006KT 6SM 16/14 A2991 RMK T01600140 IEM_DS3505
ZGOW,2001-01-31 11:00,ZGOW 311100Z AUTO 12004KT 6SM 16/14 A2994 RMK T01600140 IEM_DS3505
ZGOW,2001-01-31 12:00,ZGOW 311200Z AUTO 14004KT 9SM 16/13 A2994 RMK SLP145 T01640132 52015 IEM_DS3505
ZGOW,2001-01-31 13:00,ZGOW 311300Z AUTO 00000KT 6SM 15/14 A2994 RMK T01500140 IEM_DS3505
ZGOW,2001-01-31 14:00,ZGOW 311400Z AUTO 06006KT 6SM 16/15 A2994 RMK T01600150 IEM_DS3505
ZGOW,2001-01-31 15:00,ZGOW 311500Z AUTO 04004KT 8SM 16/13 A2994 RMK SLP150 T01620134 52005 IEM_DS3505
ZGOW,2001-01-31 16:00,ZGOW 311600Z AUTO 07008KT 6SM 16/14 A2994 RMK T01600140 IEM_DS3505
ZGOW,2001-01-31 17:00,ZGOW 311700Z AUTO 08008KT 6SM 16/14 A2994 RMK T01600140 IEM_DS3505
ZGOW,2001-01-31 18:00,ZGOW 311800Z AUTO 04006KT 8SM 16/13 A2994 RMK SLP141 T01600131 57009 IEM_DS3505
ZGOW,2001-01-31 19:00,ZGOW 311900Z AUTO 07008KT 6SM 16/14 A2991 RMK T01600140 IEM_DS3505
ZGOW,2001-01-31 20:00,ZGOW 312000Z AUTO 08006KT 6SM 16/14 A2991 RMK T01600140 IEM_DS3505
ZGOW,2001-01-31 21:00,ZGOW 312100Z AUTO 07004KT 7SM 16/13 RMK SLP142 T01600130 52001 IEM_DS3505
ZGOW,2001-01-31 21:01,ZGOW 312101Z AUTO 08006KT 6SM 15/14 A2991 RMK T01500140 IEM_DS3505
ZGOW,2001-01-31 22:00,ZGOW 312200Z AUTO 04004KT 6SM 15/14 A2994 RMK T01500140 IEM_DS3505
ZGOW,2001-01-31 23:00,ZGOW 312300Z AUTO 34002KT 4SM 15/14 A2997 RMK T01500140 IEM_DS3505
ZGOW,2001-02-01 00:00,ZGOW 010000Z AUTO 04004KT 6SM 16/14 A2997 RMK 60003 SLP148 T01590138 52006 IEM_DS3505
ZGOW,2001-02-01 01:00,ZGOW 010100Z AUTO 34004KT 4SM 17/15 A2997 RMK T01700150 IEM_DS3505
ZGOW,2001-02-01 02:00,ZGOW 010200Z AUTO 05006KT 7SM 19/15 A2997 RMK T01900150 IEM_DS3505
ZGOW,2001-02-01 03:00,ZGOW 010300Z AUTO 11006KT 7SM 19/13 RMK SLP157 T01890127 52009 IEM_DS3505
ZGOW,2001-02-01 04:00,ZGOW 010400Z AUTO 08014KT 7SM 18/12 A2994 RMK T01800120 IEM_DS3505
ZGOW,2001-02-01 05:00,ZGOW 010500Z AUTO 08014KT 7SM 19/13 A2991 RMK T01900130 IEM_DS3505
ZGOW,2001-02-01 06:00,ZGOW 010600Z AUTO 07004KT 8SM 18/11 A2991 RMK SLP131 T01770106 57026 IEM_DS3505
ZGOW,2001-02-01 07:00,ZGOW 010700Z AUTO 08010KT 7SM 16/12 A2991 RMK T01600120 IEM_DS3505
ZGOW,2001-02-01 08:00,ZGOW 010800Z AUTO 09010KT 7SM 16/12 A2991 RMK T01600120 IEM_DS3505
ZGOW,2001-02-01 09:00,ZGOW 010900Z AUTO 09010KT 7SM 16/10 A2994 RMK SLP147 T01570100 52016 IEM_DS3505
ZGOW,2001-02-01 10:00,ZGOW 011000Z AUTO 08014KT 7SM 15/11 A2997 RMK T01500110 IEM_DS3505
ZGOW,2001-02-01 11:00,ZGOW 011100Z AUTO 08012KT 7SM 14/11 A3000 RMK T01400110 IEM_DS3505
ZGOW,2001-02-01 12:00,ZGOW 011200Z AUTO 07010KT 7SM 14/09 A3000 RMK 60000 SLP168 T01380091 52021 IEM_DS3505
ZGOW,2001-02-01 13:00,ZGOW 011300Z AUTO 08016G25KT 7SM 13/09 A3003 RMK T01300090 IEM_DS3505
ZGOW,2001-02-01 14:00,ZGOW 011400Z AUTO 07017G27KT 7SM 13/09 A3003 RMK T01300090 IEM_DS3505
ZGOW,2001-02-01 15:00,ZGOW 011500Z AUTO 07012G29KT 8SM 13/06 A3003 RMK SLP180 T01310056 52012 IEM_DS3505
ZGOW,2001-02-01 16:00,ZGOW 011600Z AUTO 07014KT 6SM 13/07 A3003 RMK T01300070 IEM_DS3505
ZGOW,2001-02-01 17:00,ZGOW 011700Z AUTO 06016KT 6SM 12/07 A3003 RMK T01200070 IEM_DS3505
ZGOW,2001-02-01 18:00,ZGOW 011800Z AUTO 07008KT 8SM 12/05 A3003 RMK 60003 SLP174 T01230051 57006 IEM_DS3505
ZGOW,2001-02-01 19:00,ZGOW 011900Z AUTO 05012KT 6SM 11/08 A3003 RMK T01100080 IEM_DS3505
ZGOW,2001-02-01 20:00,ZGOW 012000Z AUTO 05008KT 6SM 11/08 A3003 RMK T01100080 IEM_DS3505
ZGOW,2001-02-01 21:00,ZGOW 012100Z AUTO 07004KT 6SM 11/08 A3003 RMK 70007 SLP180 T01060083 52006 IEM_DS3505
ZGOW,2001-02-01 22:00,ZGOW 012200Z AUTO 07008KT 7SM 10/09 A3006 RMK T01000090 IEM_DS3505
ZGOW,2001-02-01 23:00,ZGOW 012300Z AUTO 07010KT 7SM 11/09 A3009 RMK T01100090 IEM_DS3505
ZGOW,2001-02-02 00:00,ZGOW 020000Z AUTO 07006KT 9SM 11/08 A3009 RMK 60008 SLP197 T01100079 52017 IEM_DS3505
ZGOW,2001-02-02 01:00,ZGOW 020100Z AUTO 05010KT 7SM 11/10 A3012 RMK T01100100 IEM_DS3505
ZGOW,2001-02-02 02:00,ZGOW 020200Z AUTO 04008KT 7SM 11/10 A3009 RMK T01100100 IEM_DS3505
ZGOW,2001-02-02 03:00,ZGOW 020300Z AUTO 04008KT 9SM 12/09 A3009 RMK SLP191 T01220088 57006 IEM_DS3505
ZGOW,2001-02-02 05:00,ZGOW 020500Z AUTO 06006KT 7SM 13/10 A3003 RMK T01300100 IEM_DS3505
ZGOW,2001-02-02 06:00,ZGOW 020600Z AUTO 09004KT 9SM 13/09 A2997 RMK 60003 SLP160 T01310087 57031 IEM_DS3505
ZGOW,2001-02-02 07:00,ZGOW 020700Z AUTO 07012KT 7SM 13/10 A2997 RMK T01300100 IEM_DS3505
ZGOW,2001-02-02 08:00,ZGOW 020800Z AUTO 07012KT 7SM 13/10 A2997 RMK T01300100 IEM_DS3505
ZGOW,2001-02-02 09:00,ZGOW 020900Z AUTO 09006KT 7SM 13/09 A2997 RMK SLP156 T01300086 57004 IEM_DS3505
ZGOW,2001-02-02 10:00,ZGOW 021000Z AUTO 08012KT 7SM 13/10 A3000 RMK T01300100 IEM_DS3505
ZGOW,2001-02-02 11:00,ZGOW 021100Z AUTO 07010KT 7SM 13/10 A3000 RMK T01300100 IEM_DS3505
ZGOW,2001-02-02 12:00,ZGOW 021200Z AUTO 09008KT 7SM 13/08 A3000 RMK SLP169 T01290083 52013 IEM_DS3505
ZGOW,2001-02-02 13:00,ZGOW 021300Z AUTO 08012KT 7SM 12/10 A3003 RMK T01200100 IEM_DS3505
ZGOW,2001-02-02 14:00,ZGOW 021400Z AUTO 07012KT 7SM 12/10 A3003 RMK T01200100 IEM_DS3505
ZGOW,2001-02-02 15:00,ZGOW 021500Z AUTO 04010KT 7SM 13/09 A3003 RMK SLP172 T01270087 52003 IEM_DS3505
ZGOW,2001-02-02 16:00,ZGOW 021600Z AUTO 07012KT 4SM 12/10 A3000 RMK T01200100 IEM_DS3505
ZGOW,2001-02-02 17:00,ZGOW 021700Z AUTO 06014KT 6SM 12/10 A3000 RMK T01200100 IEM_DS3505
ZGOW,2001-02-02 18:00,ZGOW 021800Z AUTO 07006KT 6SM 12/10 A3000 RMK 60003 SLP162 T01150099 57010 IEM_DS3505
ZGOW,2001-02-02 19:00,ZGOW 021900Z AUTO 04008KT 3SM 11/11 A3000 RMK T01100110 IEM_DS3505
ZGOW,2001-02-02 20:00,ZGOW 022000Z AUTO 04006KT 3SM 11/11 A2997 RMK T01100110 IEM_DS3505
ZGOW,2001-02-02 21:00,ZGOW 022100Z AUTO 07006KT 7SM 12/10 A2997 RMK 70003 SLP157 T01170103 57005 IEM_DS3505
ZGOW,2001-02-02 22:00,ZGOW 022200Z AUTO 03006KT 5SM 12/11 A3000 RMK T01200110 IEM_DS3505
ZGOW,2001-02-02 23:00,ZGOW 022300Z AUTO 04006KT 7SM 12/11 A3000 RMK T01200110 IEM_DS3505
ZGOW,2001-02-03 00:00,ZGOW 030000Z AUTO 04004KT 9SM 12/11 A3003 RMK 60003 SLP173 T01250106 52016 IEM_DS3505
ZGOW,2001-02-03 01:00,ZGOW 030100Z AUTO 04008KT 7SM 13/11 A3003 RMK T01300110 IEM_DS3505
ZGOW,2001-02-03 02:00,ZGOW 030200Z AUTO 06010KT 7SM 14/12 A3003 RMK T01400120 IEM_DS3505
ZGOW,2001-02-03 03:00,ZGOW 030300Z AUTO 09004KT 9SM 14/11 A3003 RMK SLP178 T01420112 52005 IEM_DS3505
ZGOW,2001-02-03 04:00,ZGOW 030400Z AUTO 05008KT 7SM 15/12 A3000 RMK T01500120 IEM_DS3505
ZGOW,2001-02-03 05:00,ZGOW 030500Z AUTO 06010KT 7SM 15/12 A2997 RMK T01500120 IEM_DS3505
ZGOW,2001-02-03 06:00,ZGOW 030600Z AUTO 09004KT 9SM 15/11 A2994 RMK SLP152 T01510114 57026 IEM_DS3505
ZGOW,2001-02-03 07:00,ZGOW 030700Z AUTO 05006KT 7SM 15/13 A2994 RMK T01500130 IEM_DS3505
ZGOW,2001-02-03 08:00,ZGOW 030800Z AUTO 07008KT 7SM 15/13 A2994 RMK T01500130 IEM_DS3505
ZGOW,2001-02-03 09:00,ZGOW 030900Z AUTO 09004KT 9SM 15/12 A2994 RMK SLP149 T01530122 57003 IEM_DS3505
ZGOW,2001-02-03 10:00,ZGOW 031000Z AUTO 06004KT 7SM 15/13 A2997 RMK T01500130 IEM_DS3505
ZGOW,2001-02-03 11:00,ZGOW 031100Z AUTO 07004KT 7SM 15/13 A2997 RMK T01500130 IEM_DS3505
ZGOW,2001-02-03 12:00,ZGOW 031200Z AUTO 09006KT 7SM 15/12 A2997 RMK SLP157 T01500123 52008 IEM_DS3505
ZGOW,2001-02-03 13:00,ZGOW 031300Z AUTO 08004KT 7SM 15/13 A3000 RMK T01500130 IEM_DS3505
ZGOW,2001-02-03 14:00,ZGOW 031400Z AUTO 05010KT 7SM 15/13 A3000 RMK T01500130 IEM_DS3505
ZGOW,2001-02-03 15:00,ZGOW 031500Z AUTO 00000KT 7SM 15/13 RMK SLP162 T01500126 52005 IEM_DS3505
ZGOW,2001-02-03 17:00,ZGOW 031700Z AUTO 02002KT 6SM 15/13 A3000 RMK T01500130 IEM_DS3505
ZGOW,2001-02-03 18:00,ZGOW 031800Z AUTO 00000KT 6SM 15/13 A2997 RMK SLP162 T01490129 54000 IEM_DS3505
ZGOW,2001-02-03 19:00,ZGOW 031900Z AUTO 01002KT 4SM 15/14 A2997 RMK T01500140 IEM_DS3505
ZGOW,2001-02-03 20:01,ZGOW 032001Z AUTO 00000KT 3SM 15/14 A2997 RMK T01500140 IEM_DS3505
ZGOW,2001-02-03 21:00,ZGOW 032100Z AUTO 02002KT 3SM 15/14 A3000 RMK 70003 SLP162 T01470136 54000 IEM_DS3505
ZGOW,2001-02-03 22:00,ZGOW 032200Z AUTO 06002KT 1 1/4SM 14/14 A3000 RMK T01400140 IEM_DS3505
ZGOW,2001-02-03 23:00,ZGOW 032300Z AUTO 00000KT 1SM 14/14 A3003 RMK T01400140 IEM_DS3505
ZGOW,2001-02-04 00:00,ZGOW 040000Z AUTO 04004KT 1SM 15/14 A3003 RMK 60000 SLP182 T01470142 52020 IEM_DS3505
ZGOW,2001-02-04 01:00,ZGOW 040100Z AUTO 07002KT 1SM 15/14 A3006 RMK T01500140 IEM_DS3505
ZGOW,2001-02-04 02:00,ZGOW 040200Z AUTO 02002KT 2SM 15/15 A3006 RMK T01500150 IEM_DS3505
ZGOW,2001-02-04 03:00,ZGOW 040300Z AUTO 04004KT 6SM 17/14 A3006 RMK SLP187 T01710145 52005 IEM_DS3505
ZGOW,2001-02-04 04:00,ZGOW 040400Z AUTO 34002KT 1 1/2SM 17/16 A3003 RMK T01700160 IEM_DS3505
ZGOW,2001-02-04 05:00,ZGOW 040500Z AUTO 04004KT 1 1/2SM 18/16 A3000 RMK T01800160 IEM_DS3505
ZGOW,2001-02-04 06:00,ZGOW 040600Z AUTO 04004KT 5SM 20/15 A2997 RMK 60000 SLP154 T01990154 57033 IEM_DS3505
ZGOW,2001-02-04 07:00,ZGOW 040700Z AUTO 07006KT 7SM 19/16 A2994 RMK T01900160 IEM_DS3505
ZGOW,2001-02-04 09:00,ZGOW 040900Z AUTO 07004KT 5SM 18/15 A2994 RMK SLP147 T01780149 57007 IEM_DS3505
ZGOW,2001-02-04 10:00,ZGOW 041000Z AUTO 12004KT 7SM 17/15 A2997 RMK T01700150 IEM_DS3505
ZGOW,2001-02-04 11:00,ZGOW 041100Z AUTO 07008KT 7SM 16/15 A2997 RMK T01600150 IEM_DS3505
ZGOW,2001-02-04 12:00,ZGOW 041200Z AUTO 09004KT 4SM 16/14 A3000 RMK SLP166 T01630138 52019 IEM_DS3505
ZGOW,2001-02-04 13:00,ZGOW 041300Z AUTO 07010KT 7SM 16/14 A3000 RMK T01600140 IEM_DS3505
ZGOW,2001-02-04 14:00,ZGOW 041400Z AUTO 08010KT 7SM 16/14 A3003 RMK T01600140 IEM_DS3505
ZGOW,2001-02-04 15:00,ZGOW 041500Z AUTO 09008KT 9SM 16/13 A3003 RMK SLP173 T01580129 52007 IEM_DS3505
ZGOW,2001-02-04 16:01,ZGOW 041601Z AUTO 07014KT 6SM 15/13 A3003 RMK T01500130 IEM_DS3505
ZGOW,2001-02-04 17:00,ZGOW 041700Z AUTO 08012KT 6SM 15/13 A3003 RMK T01500130 IEM_DS3505
ZGOW,2001-02-04 18:00,ZGOW 041800Z AUTO 07008KT 9SM 16/12 A3003 RMK SLP173 T01560121 54000 IEM_DS3505
ZGOW,2001-02-04 19:00,ZGOW 041900Z AUTO 07010KT 6SM 15/13 A3000 RMK T01500130 IEM_DS3505
ZGOW,2001-02-04 20:00,ZGOW 042000Z AUTO 08010KT 6SM 16/13 A3000 RMK T01600130 IEM_DS3505
ZGOW,2001-02-04 21:00,ZGOW 042100Z AUTO 04008KT 9SM 15/11 A3000 RMK 70001 SLP170 T01530114 57003 IEM_DS3505
ZGOW,2001-02-04 22:00,ZGOW 042200Z AUTO 06006KT 6SM 15/13 A3003 RMK T01500130 IEM_DS3505
ZGOW,2001-02-04 23:00,ZGOW 042300Z AUTO 07010KT 6SM 15/13 A3006 RMK T01500130 IEM_DS3505
ZGOW,2001-02-05 00:00,ZGOW 050000Z AUTO 07006KT 10SM 15/12 A3006 RMK 70000 SLP187 T01530120 52017 IEM_DS3505
ZGOW,2001-02-05 01:00,ZGOW 050100Z AUTO 07010KT 7SM 17/14 A3009 RMK T01700140 IEM_DS3505
ZGOW,2001-02-05 02:00,ZGOW 050200Z AUTO 07010KT 7SM 18/14 A3009 RMK T01800140 IEM_DS3505
ZGOW,2001-02-05 03:00,ZGOW 050300Z AUTO 04008KT 12SM 19/13 A3006 RMK SLP185 T01880132 57002 IEM_DS3505
ZGOW,2001-02-05 04:00,ZGOW 050400Z AUTO 07010KT 7SM 19/15 A3003 RMK T01900150 IEM_DS3505
ZGOW,2001-02-05 05:00,ZGOW 050500Z AUTO 08008KT 6SM 20/15 A3000 RMK T02000150 IEM_DS3505
ZGOW,2001-02-05 06:00,ZGOW 050600Z AUTO 16006KT 16SM 21/14 A2997 RMK SLP153 T02100142 57032 IEM_DS3505
ZGOW,2001-02-05 07:00,ZGOW 050700Z AUTO 07006KT 6SM 21/15 A2994 RMK T02100150 IEM_DS3505
ZGOW,2001-02-05 08:00,ZGOW 050800Z AUTO 13006KT 6SM 20/16 A2991 RMK T02000160 IEM_DS3505
ZGOW,2001-02-05 09:00,ZGOW 050900Z AUTO 16004KT 9SM 19/14 A2994 RMK SLP140 T01940140 57013 IEM_DS3505
ZGOW,2001-02-05 10:00,ZGOW 051000Z AUTO 12006KT 6SM 16/15 A2994 RMK T01600150 IEM_DS3505
ZGOW,2001-02-05 11:00,ZGOW 051100Z AUTO 13004KT 6SM 16/15 A2994 RMK T01600150 IEM_DS3505
ZGOW,2001-02-05 12:00,ZGOW 051200Z AUTO 14004KT 7SM 16/14 A2994 RMK SLP146 T01610142 52006 IEM_DS3505
ZGOW,2001-02-05 13:00,ZGOW 051300Z AUTO 16002KT 6SM 15/15 A2997 RMK T01500150 IEM_DS3505
ZGOW,2001-02-05 14:00,ZGOW 051400Z AUTO 14002KT 7SM 15/15 A2997 RMK T01500150 IEM_DS3505
ZGOW,2001-02-05 15:00,ZGOW 051500Z AUTO 00000KT 7SM 16/14 A2997 RMK SLP153 T01590143 52007 IEM_DS3505
ZGOW,2001-02-05 16:00,ZGOW 051600Z AUTO 00000KT 5SM 15/15 A2994 RMK T01500150 IEM_DS3505
ZGOW,2001-02-05 17:00,ZGOW 051700Z AUTO 00000KT 2 1/2SM 15/14 A2994 RMK T01500140 IEM_DS3505
ZGOW,2001-02-05 18:00,ZGOW 051800Z AUTO 00000KT 6SM 15/13 A2991 RMK SLP140 T01470134 57013 IEM_DS3505
ZGOW,2001-02-05 19:00,ZGOW 051900Z AUTO 00000KT 2 1/2SM 15/14 A2991 RMK T01500140 IEM_DS3505
ZGOW,2001-02-05 20:00,ZGOW 052000Z AUTO 32004KT 2SM 15/15 A2991 RMK T01500150 IEM_DS3505
ZGOW,2001-02-05 21:00,ZGOW 052100Z AUTO 00000KT 4SM 16/14 A2994 RMK SLP143 T01560142 52003 IEM_DS3505
ZGOW,2001-02-05 22:00,ZGOW 052200Z AUTO 00000KT 1 1/2SM 15/15 A2994 RMK T01500150 IEM_DS3505
ZGOW,2001-02-05 23:00,ZGOW 052300Z AUTO 35002KT 1SM 15/15 A2997 RMK T01500150 IEM_DS3505
ZGOW,2001-02-06 00:00,ZGOW 060000Z AUTO 04002KT 2 1/2SM 16/15 RMK SLP162 T01610147 52019 IEM_DS3505
ZGOW,2001-02-06 01:00,ZGOW 060100Z AUTO 34002KT 1 1/4SM 16/16 A3000 RMK T01600160 IEM_DS3505
ZGOW,2001-02-06 02:00,ZGOW 060200Z AUTO 02004KT 2SM 18/16 A3000 RMK T01800160 IEM_DS3505
ZGOW,2001-02-06 03:00,ZGOW 060300Z AUTO 11006KT 4SM 20/15 A3000 RMK SLP162 T02050153 54000 IEM_DS3505
ZGOW,2001-02-06 04:00,ZGOW 060400Z AUTO 10006KT 4SM 20/16 A2997 RMK T02000160 IEM_DS3505
ZGOW,2001-02-06 05:00,ZGOW 060500Z AUTO 09006KT 4SM 21/17 A2991 RMK T02100170 IEM_DS3505
ZGOW,2001-02-06 06:00,ZGOW 060600Z AUTO 14008KT 4SM 22/17 A2988 RMK T02200170 IEM_DS3505
ZGOW,2001-02-06 07:00,ZGOW 060700Z AUTO 14008KT 4SM 20/17 A2988 RMK T02000170 IEM_DS3505
ZGOW,2001-02-06 08:00,ZGOW 060800Z AUTO 14008KT 4SM 20/16 A2985 RMK T02000160 IEM_DS3505
ZGOW,2001-02-06 09:00,ZGOW 060900Z AUTO 16004KT 6SM 20/16 A2985 RMK SLP117 T02050155 57010 IEM_DS3505
ZGOW,2001-02-06 10:00,ZGOW 061000Z AUTO 14004KT 3SM 18/16 A2985 RMK T01800160 IEM_DS3505
ZGOW,2001-02-06 11:00,ZGOW 061100Z AUTO 13004KT 3SM 17/16 A2988 RMK T01700160 IEM_DS3505
ZGOW,2001-02-06 12:00,ZGOW 061200Z AUTO 07004KT 6SM 18/16 A2988 RMK SLP127 T01800155 52010 IEM_DS3505
ZGOW,2001-02-06 13:00,ZGOW 061300Z AUTO 00000KT 2 1/2SM 17/16 A2991 RMK T01700160 IEM_DS3505
ZGOW,2001-02-06 14:00,ZGOW 061400Z AUTO 00000KT 2SM 17/16 A2991 RMK T01700160 IEM_DS3505
ZGOW,2001-02-06 15:00,ZGOW 061500Z AUTO 00000KT 3SM 16/15 A2991 RMK SLP137 T01630153 52010 IEM_DS3505
ZGOW,2001-02-06 16:01,ZGOW 061601Z AUTO 00000KT 1 1/4SM 17/16 A2991 RMK T01700160 IEM_DS3505
ZGOW,2001-02-06 17:01,ZGOW 061701Z AUTO 00000KT 1 1/2SM 17/17 A2994 RMK T01700170 IEM_DS3505
ZGOW,2001-02-06 18:00,ZGOW 061800Z AUTO 29004KT 2SM 18/16 A2994 RMK SLP140 T01750163 52003 IEM_DS3505
ZGOW,2001-02-06 19:00,ZGOW 061900Z AUTO 00000KT 1SM 17/16 A2991 RMK T01700160 IEM_DS3505
ZGOW,2001-02-06 20:01,ZGOW 062001Z AUTO 33002KT 1SM 17/16 A2991 RMK T01700160 IEM_DS3505
ZGOW,2001-02-06 21:00,ZGOW 062100Z AUTO 00000KT 1 1/4SM 16/16 A2991 RMK SLP139 T01640155 57001 IEM_DS3505
ZGOW,2001-02-06 22:00,ZGOW 062200Z AUTO 32002KT 1 1/4SM 16/16 A2994 RMK T01600160 IEM_DS3505
ZGOW,2001-02-06 23:00,ZGOW 062300Z AUTO 03002KT 1/2SM 16/16 A2997 RMK T01600160 IEM_DS3505
ZGOW,2001-02-07 00:00,ZGOW 070000Z AUTO 11004KT 1SM 18/16 A2997 RMK SLP159 T01760163 52020 IEM_DS3505
ZGOW,2001-02-07 01:00,ZGOW 070100Z AUTO 08004KT 1 1/2SM 18/18 A3000 RMK T01800180 IEM_DS3505
ZGOW,2001-02-07 02:00,ZGOW 070200Z AUTO 05006KT 1 1/2SM 18/17 A3003 RMK T01800170 IEM_DS3505
ZGOW,2001-02-07 03:00,ZGOW 070300Z AUTO 11006KT 3SM 20/17 A3003 RMK SLP170 T02020168 52011 IEM_DS3505
ZGOW,2001-02-07 04:00,ZGOW 070400Z AUTO 08010KT 3SM 20/17 A3000 RMK T02000170 IEM_DS3505
ZGOW,2001-02-07 05:00,ZGOW 070500Z AUTO 07012KT 4SM 21/17 A2997 RMK T02100170 IEM_DS3505
ZGOW,2001-02-07 06:00,ZGOW 070600Z AUTO 09006KT 6SM 21/16 A2997 RMK SLP150 T02080164 57020 IEM_DS3505
ZGOW,2001-02-07 07:00,ZGOW 070700Z AUTO 08012KT 7SM 20/17 A2994 RMK T02000170 IEM_DS3505
ZGOW,2001-02-07 08:00,ZGOW 070800Z AUTO 07012KT 7SM 17/15 A2997 RMK T01700150 IEM_DS3505
ZGOW,2001-02-07 09:00,ZGOW 070900Z AUTO 07008KT 6SM 18/14 A2997 RMK SLP157 T01750142 52007 IEM_DS3505
ZGOW,2001-02-07 10:00,ZGOW 071000Z AUTO 05008KT 7SM 16/15 A3000 RMK T01600150 IEM_DS3505
ZGOW,2001-02-07 11:00,ZGOW 071100Z AUTO 07006KT 7SM 16/15 A3003 RMK T01600150 IEM_DS3505
ZGOW,2001-02-07 12:00,ZGOW 071200Z AUTO 07008KT 5SM 16/14 A3006 RMK 60003 SLP187 T01580139 52030 IEM_DS3505
ZGOW,2001-02-07 13:00,ZGOW 071300Z AUTO 08014KT 6SM 15/14 A3009 RMK T01500140 IEM_DS3505
ZGOW,2001-02-07 14:01,ZGOW 071401Z AUTO 08014KT 4SM 14/13 A3009 RMK T01400130 IEM_DS3505
ZGOW,2001-02-07 15:00,ZGOW 071500Z AUTO 07010KT 6SM 14/12 A3012 RMK SLP205 T01420122 52018 IEM_DS3505
ZGOW,2001-02-07 16:00,ZGOW 071600Z AUTO 07014KT 4SM 14/12 A3012 RMK T01400120 IEM_DS3505
ZGOW,2001-02-07 17:00,ZGOW 071700Z AUTO 06010KT 4SM 14/13 A3012 RMK T01400130 IEM_DS3505
ZGOW,2001-02-07 18:00,ZGOW 071800Z AUTO 07004KT 6SM 14/12 A3012 RMK 60003 SLP208 T01430119 52003 IEM_DS3505
ZGOW,2001-02-07 19:00,ZGOW 071900Z AUTO 7SM RMK IEM_DS3505
ZGOW,2001-02-07 20:00,ZGOW 072000Z AUTO 06008KT 4SM 14/12 A3012 RMK T01400120 IEM_DS3505
ZGOW,2001-02-07 21:00,ZGOW 072100Z AUTO 04008KT 7SM 14/11 A3012 RMK 70003 SLP202 T01400108 57006 IEM_DS3505
ZGOW,2001-02-07 22:00,ZGOW 072200Z AUTO 04008KT 7SM 13/12 A3012 RMK T01300120 IEM_DS3505
ZGOW,2001-02-07 23:00,ZGOW 072300Z AUTO 05008KT 7SM 13/11 A3012 RMK T01300110 IEM_DS3505
ZGOW,2001-02-08 00:00,ZGOW 080000Z AUTO 09006KT 9SM 14/10 A3015 RMK 70003 SLP213 T01380097 52011 IEM_DS3505
ZGOW,2001-02-08 01:00,ZGOW 080100Z AUTO 08012KT 7SM 13/11 A3015 RMK T01300110 IEM_DS3505
ZGOW,2001-02-08 02:00,ZGOW 080200Z AUTO 08012KT 7SM 14/11 A3018 RMK T01400110 IEM_DS3505
ZGOW,2001-02-08 03:00,ZGOW 080300Z AUTO 07008KT 8SM 14/09 A3015 RMK SLP219 T01390087 52006 IEM_DS3505
ZGOW,2001-02-08 04:00,ZGOW 080400Z AUTO 08012KT 7SM 15/11 A3015 RMK T01500110 IEM_DS3505
ZGOW,2001-02-08 05:00,ZGOW 080500Z AUTO 08012KT 7SM 15/10 A3012 RMK T01500100 IEM_DS3505
ZGOW,2001-02-08 06:00,ZGOW 080600Z AUTO 04008KT 8SM 15/09 A3009 RMK SLP196 T01520087 57023 IEM_DS3505
ZGOW,2001-02-08 07:00,ZGOW 080700Z AUTO 08010KT 7SM 15/10 A3009 RMK T01500100 IEM_DS3505
ZGOW,2001-02-08 08:00,ZGOW 080800Z AUTO 09012KT 7SM 15/10 A3009 RMK T01500100 IEM_DS3505
ZGOW,2001-02-08 09:00,ZGOW 080900Z AUTO 07006KT 7SM 15/08 A3009 RMK SLP196 T01500085 54000 IEM_DS3505
ZGOW,2001-02-08 10:00,ZGOW 081000Z AUTO 09012KT 7SM 14/11 A3012 RMK T01400110 IEM_DS3505
ZGOW,2001-02-08 11:00,ZGOW 081100Z AUTO 09010KT 7SM 14/11 A3012 RMK T01400110 IEM_DS3505
ZGOW,2001-02-08 12:00,ZGOW 081200Z AUTO 09006KT 7SM 14/09 A3015 RMK SLP211 T01440091 52015 IEM_DS3505
ZGOW,2001-02-08 13:00,ZGOW 081300Z AUTO 08014KT 7SM 14/10 A3015 RMK T01400100 IEM_DS3505
ZGOW,2001-02-08 14:00,ZGOW 081400Z AUTO 08014KT 6SM 13/10 A3015 RMK T01300100 IEM_DS3505
ZGOW,2001-02-08 15:00,ZGOW 081500Z AUTO 07010KT 7SM 13/08 A3015 RMK SLP216 T01310083 52005 IEM_DS3505
ZGOW,2001-02-08 16:00,ZGOW 081600Z AUTO 07016KT 6SM 13/10 A3015 RMK T01300100 IEM_DS3505
ZGOW,2001-02-08 17:00,ZGOW 081700Z AUTO 07016KT 6SM 13/09 A3015 RMK T01300090 IEM_DS3505
ZGOW,2001-02-08 18:00,ZGOW 081800Z AUTO 07008KT 7SM 13/08 A3015 RMK SLP213 T01270082 57003 IEM_DS3505
ZGOW,2001-02-08 19:00,ZGOW 081900Z AUTO 07012KT 6SM 12/10 A3015 RMK T01200100 IEM_DS3505
ZGOW,2001-02-08 20:00,ZGOW 082000Z AUTO 05010KT 6SM 12/09 A3012 RMK T01200090 IEM_DS3505
ZGOW,2001-02-08 21:00,ZGOW 082100Z AUTO 04004KT 6SM 12/08 A3012 RMK SLP200 T01180081 57013 IEM_DS3505
ZGOW,2001-02-08 22:00,ZGOW 082200Z AUTO 03006KT 5SM 11/09 A3012 RMK T01100090 IEM_DS3505
ZGOW,2001-02-08 23:00,ZGOW 082300Z AUTO 09002KT 4SM 12/10 A3015 RMK T01200100 IEM_DS3505
ZGOW,2001-02-09 00:00,ZGOW 090000Z AUTO 04004KT 7SM 13/09 A3012 RMK SLP211 T01310087 52011 IEM_DS3505
ZGOW,2001-02-09 01:00,ZGOW 090100Z AUTO 07008KT 5SM 15/10 A3015 RMK T01500100 IEM_DS3505
ZGOW,2001-02-09 02:00,ZGOW 090200Z AUTO 06012KT 5SM 16/10 A3015 RMK T01600100 IEM_DS3505
ZGOW,2001-02-09 03:00,ZGOW 090300Z AUTO 09006KT 9SM 17/09 A3015 RMK SLP213 T01670094 52002 IEM_DS3505
ZGOW,2001-02-09 04:00,ZGOW 090400Z AUTO 08010KT 6SM 18/12 A3012 RMK T01800120 IEM_DS3505
ZGOW,2001-02-09 05:00,ZGOW 090500Z AUTO 08010KT 6SM 17/12 A3009 RMK T01700120 IEM_DS3505
ZGOW,2001-02-09 06:00,ZGOW 090600Z AUTO 16004KT 9SM 18/10 A3006 RMK SLP183 T01760101 57030 IEM_DS3505
ZGOW,2001-02-09 07:00,ZGOW 090700Z AUTO 09006KT 6SM 17/12 A3006 RMK T01700120 IEM_DS3505
ZGOW,2001-02-09 08:00,ZGOW 090800Z AUTO 09008KT 6SM 18/13 A3006 RMK T01800130 IEM_DS3505
ZGOW,2001-02-09 09:00,ZGOW 090900Z AUTO 11025KT 7SM 17/12 A3006 RMK SLP186 T01740115 52003 IEM_DS3505
ZGOW,2001-02-09 10:00,ZGOW 091000Z AUTO 07008KT 6SM 16/12 A3009 RMK T01600120 IEM_DS3505
ZGOW,2001-02-09 11:00,ZGOW 091100Z AUTO 07008KT 7SM 15/12 A3009 RMK T01500120 IEM_DS3505
ZGOW,2001-02-09 12:00,ZGOW 091200Z AUTO 09006KT 7SM 16/11 A3012 RMK SLP205 T01600107 52019 IEM_DS3505
ZGOW,2001-02-09 13:00,ZGOW 091300Z AUTO 08012KT 6SM 15/13 A3012 RMK T01500130 IEM_DS3505
ZGOW,2001-02-09 14:00,ZGOW 091400Z AUTO 07010KT 6SM 15/13 A3012 RMK T01500130 IEM_DS3505
ZGOW,2001-02-09 15:00,ZGOW 091500Z AUTO 09006KT 7SM 15/12 A3012 RMK SLP210 T01520115 52005 IEM_DS3505
ZGOW,2001-02-09 16:00,ZGOW 091600Z AUTO 07010KT 6SM 14/12 A3012 RMK T01400120 IEM_DS3505
ZGOW,2001-02-09 17:00,ZGOW 091700Z AUTO 07010KT 6SM 14/12 A3012 RMK T01400120 IEM_DS3505
ZGOW,2001-02-09 18:00,ZGOW 091800Z AUTO 04008KT 8SM 15/11 A3012 RMK SLP205 T01470111 57005 IEM_DS3505
ZGOW,2001-02-09 19:00,ZGOW 091900Z AUTO 06008KT 6SM 14/12 A3012 RMK T01400120 IEM_DS3505
ZGOW,2001-02-09 20:01,ZGOW 092001Z AUTO 06006KT 6SM 14/12 A3012 RMK T01400120 IEM_DS3505
ZGOW,2001-02-09 21:00,ZGOW 092100Z AUTO 07004KT 8SM 14/11 A3012 RMK SLP200 T01430111 57005 IEM_DS3505
ZGOW,2001-02-09 22:00,ZGOW 092200Z AUTO 02006KT 7SM 14/12 A3012 RMK T01400120 IEM_DS3505
ZGOW,2001-02-09 23:00,ZGOW 092300Z AUTO 01004KT 7SM 14/11 A3015 RMK T01400110 IEM_DS3505
ZGOW,2001-02-10 00:00,ZGOW 100000Z AUTO 04004KT 8SM 14/10 A3015 RMK SLP213 T01410103 52013 IEM_DS3505
ZGOW,2001-02-10 01:00,ZGOW 100100Z AUTO 03006KT 7SM RMK IEM_DS3505
ZGOW,2001-02-10 02:00,ZGOW 100200Z AUTO 36004KT 2 1/2SM 15/12 A3018 RMK T01500120 IEM_DS3505
ZGOW,2001-02-10 03:00,ZGOW 100300Z AUTO 02004KT 6SM 15/10 A3018 RMK SLP218 T01460104 52005 IEM_DS3505
ZGOW,2001-02-10 04:00,ZGOW 100400Z AUTO 02004KT 4SM 15/12 A3015 RMK T01500120 IEM_DS3505
ZGOW,2001-02-10 05:00,ZGOW 100500Z AUTO 08014KT 7SM 16/12 A3012 RMK T01600120 IEM_DS3505
ZGOW,2001-02-10 06:00,ZGOW 100600Z AUTO 07008KT 9SM 16/10 RMK SLP184 T01630102 57034 IEM_DS3505
ZGOW,2001-02-10 07:00,ZGOW 100700Z AUTO 07014KT 7SM 16/11 A3003 RMK T01600110 IEM_DS3505
ZGOW,2001-02-10 08:00,ZGOW 100800Z AUTO 07014KT 7SM 16/12 A3003 RMK T01600120 IEM_DS3505
ZGOW,2001-02-10 09:00,ZGOW 100900Z AUTO 11006KT 9SM 16/10 A3003 RMK SLP179 T01640097 57005 IEM_DS3505
ZGOW,2001-02-10 10:00,ZGOW 101000Z AUTO 07010KT 7SM 16/12 A3006 RMK T01600120 IEM_DS3505
ZGOW,2001-02-10 11:00,ZGOW 101100Z AUTO 07010KT 7SM 15/12 A3006 RMK T01500120 IEM_DS3505
ZGOW,2001-02-10 12:00,ZGOW 101200Z AUTO 07004KT 9SM 15/11 A3009 RMK SLP189 T01480108 52010 IEM_DS3505
ZGOW,2001-02-10 13:00,ZGOW 101300Z AUTO 13002KT 6SM 13/12 A3009 RMK T01300120 IEM_DS3505
ZGOW,2001-02-10 14:00,ZGOW 101400Z AUTO 08002KT 6SM 13/12 A3009 RMK T01300120 IEM_DS3505
ZGOW,2001-02-10 15:00,ZGOW 101500Z AUTO 04004KT 8SM 14/11 A3009 RMK SLP199 T01400112 52010 IEM_DS3505
ZGOW,2001-02-10 16:00,ZGOW 101600Z AUTO 00000KT 6SM 12/12 A3009 RMK T01200120 IEM_DS3505
ZGOW,2001-02-10 17:01,ZGOW 101701Z AUTO 00000KT 6SM 12/11 A3009 RMK T01200110 IEM_DS3505
ZGOW,2001-02-10 18:00,ZGOW 101800Z AUTO 04002KT 7SM 12/11 A3009 RMK SLP198 T01200106 57001 IEM_DS3505
ZGOW,2001-02-10 19:00,ZGOW 101900Z AUTO 00000KT 1 1/2SM 12/11 A3009 RMK T01200110 IEM_DS3505
ZGOW,2001-02-10 20:00,ZGOW 102000Z AUTO 00000KT 1SM 12/11 A3009 RMK T01200110 IEM_DS3505
ZGOW,2001-02-10 21:00,ZGOW 102100Z AUTO 00000KT 3SM 11/10 A3009 RMK SLP197 T01120102 57001 IEM_DS3505
ZGOW,2001-02-10 22:00,ZGOW 102200Z AUTO 30002KT 2SM 12/11 A3009 RMK T01200110 IEM_DS3505
ZGOW,2001-02-10 23:00,ZGOW 102300Z AUTO 32004KT 2SM 12/11 A3012 RMK T01200110 IEM_DS3505
ZGOW,2001-02-11 00:00,ZGOW 110000Z AUTO 04004KT 4SM 13/12 A3012 RMK SLP205 T01320115 52008 IEM_DS3505
ZGOW,2001-02-11 01:00,ZGOW 110100Z AUTO 32006KT 5SM 15/13 A3015 RMK T01500130 IEM_DS3505
ZGOW,2001-02-11 02:00,ZGOW 110200Z AUTO 33006KT 4SM 17/13 A3015 RMK T01700130 IEM_DS3505
ZGOW,2001-02-11 03:00,ZGOW 110300Z AUTO 04008KT 10SM 18/11 A3012 RMK SLP203 T01810113 57002 IEM_DS3505
ZGOW,2001-02-11 04:00,ZGOW 110400Z AUTO 06008KT 6SM 19/13 A3009 RMK T01900130 IEM_DS3505
ZGOW,2001-02-11 05:00,ZGOW 110500Z AUTO 07008KT 6SM 20/14 A3006 RMK T02000140 IEM_DS3505
ZGOW,2001-02-11 06:00,ZGOW 110600Z AUTO 07004KT 12SM 20/13 A3003 RMK SLP174 T01960129 57029 IEM_DS3505
ZGOW,2001-02-11 07:00,ZGOW 110700Z AUTO 10006KT 6SM 21/15 A3000 RMK T02100150 IEM_DS3505
ZGOW,2001-02-11 08:00,ZGOW 110800Z AUTO 14006KT 6SM 18/15 A3000 RMK T01800150 IEM_DS3505
ZGOW,2001-02-11 09:00,ZGOW 110900Z AUTO 11002KT 10SM 18/14 A3000 RMK SLP168 T01750138 57006 IEM_DS3505
ZGOW,2001-02-11 10:00,ZGOW 111000Z AUTO 12008KT 6SM 17/15 A3003 RMK T01700150 IEM_DS3505
ZGOW,2001-02-11 11:00,ZGOW 111100Z AUTO 10006KT 6SM 17/15 A3003 RMK T01700150 IEM_DS3505
ZGOW,2001-02-11 12:00,ZGOW 111200Z AUTO 07004KT 9SM 17/14 A3003 RMK SLP179 T01680136 52011 IEM_DS3505
ZGOW,2001-02-11 13:00,ZGOW 111300Z AUTO 03004KT 6SM 16/15 A3006 RMK T01600150 IEM_DS3505
ZGOW,2001-02-11 14:00,ZGOW 111400Z AUTO 05006KT 6SM 16/15 A3006 RMK T01600150 IEM_DS3505
ZGOW,2001-02-11 15:00,ZGOW 111500Z AUTO 04004KT 9SM 16/14 A3006 RMK SLP184 T01650140 52005 IEM_DS3505
ZGOW,2001-02-11 16:00,ZGOW 111600Z AUTO 03002KT 6SM 16/15 A3006 RMK T01600150 IEM_DS3505
ZGOW,2001-02-11 17:00,ZGOW 111700Z AUTO 00000KT 3SM 16/14 A3003 RMK T01600140 IEM_DS3505
ZGOW,2001-02-11 18:00,ZGOW 111800Z AUTO 00000KT 7SM 15/14 A3003 RMK SLP179 T01460135 57005 IEM_DS3505
ZGOW,2001-02-11 19:00,ZGOW 111900Z AUTO 00000KT 2 1/2SM 15/14 A3003 RMK T01500140 IEM_DS3505
ZGOW,2001-02-11 21:00,ZGOW 112100Z AUTO 00000KT 4SM 14/13 A3003 RMK SLP178 T01350130 57001 IEM_DS3505
ZGOW,2001-02-11 22:00,ZGOW 112200Z AUTO 31002KT 1 1/4SM 14/14 A3006 RMK T01400140 IEM_DS3505
ZGOW,2001-02-11 23:00,ZGOW 112300Z AUTO 00000KT 1SM 14/14 A3006 RMK T01400140 IEM_DS3505
ZGOW,2001-02-12 00:00,ZGOW 120000Z AUTO 00000KT 1 1/4SM 16/14 A3006 RMK SLP191 T01590145 52013 IEM_DS3505
ZGOW,2001-02-12 01:00,ZGOW 120100Z AUTO 33002KT 2SM 18/16 A3009 RMK T01800160 IEM_DS3505
ZGOW,2001-02-12 02:00,ZGOW 120200Z AUTO 04002KT 4SM 21/17 A3009 RMK T02100170 IEM_DS3505
ZGOW,2001-02-12 03:00,ZGOW 120300Z AUTO 18004KT 6SM 22/14 A3009 RMK SLP190 T02200145 57001 IEM_DS3505
ZGOW,2001-02-12 04:00,ZGOW 120400Z AUTO 11006KT 6SM 23/17 A3006 RMK T02300170 IEM_DS3505
ZGOW,2001-02-12 05:00,ZGOW 120500Z AUTO 14008KT 6SM 22/17 A3003 RMK T02200170 IEM_DS3505
ZGOW,2001-02-12 06:00,ZGOW 120600Z AUTO 16006KT 9SM 22/15 A3000 RMK SLP158 T02180153 57032 IEM_DS3505
ZGOW,2001-02-12 07:00,ZGOW 120700Z AUTO 12010KT 6SM 20/17 A2997 RMK T02000170 IEM_DS3505
ZGOW,2001-02-12 08:00,ZGOW 120800Z AUTO 12008KT 6SM 20/17 A2997 RMK T02000170 IEM_DS3505
ZGOW,2001-02-12 09:00,ZGOW 120900Z AUTO 16006KT 9SM 20/16 A2997 RMK SLP155 T01960156 57003 IEM_DS3505
ZGOW,2001-02-12 10:00,ZGOW 121000Z AUTO 07014KT 6SM 16/15 A3000 RMK T01600150 IEM_DS3505
ZGOW,2001-02-12 11:00,ZGOW 121100Z AUTO 08014KT 6SM 15/14 A3000 RMK T01500140 IEM_DS3505
ZGOW,2001-02-12 12:00,ZGOW 121200Z AUTO 04010KT 9SM 16/13 A3000 RMK SLP174 T01610129 52019 IEM_DS3505
ZGOW,2001-02-12 13:00,ZGOW 121300Z AUTO 07014KT 6SM 15/13 A3003 RMK T01500130 IEM_DS3505
ZGOW,2001-02-12 14:00,ZGOW 121400Z AUTO 07016KT 7SM 15/14 A3003 RMK T01500140 IEM_DS3505
ZGOW,2001-02-12 15:00,ZGOW 121500Z AUTO 07006KT 9SM 15/13 RMK SLP181 T01540127 52007 IEM_DS3505
ZGOW,2001-02-12 15:01,ZGOW 121501Z AUTO 07014KT 6SM 15/13 A3003 RMK T01500130 IEM_DS3505
ZGOW,2001-02-12 16:00,ZGOW 121600Z AUTO 08012KT 6SM 15/13 A3006 RMK T01500130 IEM_DS3505
ZGOW,2001-02-12 17:00,ZGOW 121700Z AUTO 08014KT 6SM 15/13 A3006 RMK T01500130 IEM_DS3505
ZGOW,2001-02-12 18:00,ZGOW 121800Z AUTO 07008KT 8SM 15/12 RMK SLP184 T01500121 52003 IEM_DS3505
ZGOW,2001-02-12 18:01,ZGOW 121801Z AUTO 07014KT 6SM 15/13 A3006 RMK T01500130 IEM_DS3505
ZGOW,2001-02-12 19:00,ZGOW 121900Z AUTO 07012KT 6SM 15/13 A3006 RMK T01500130 IEM_DS3505
ZGOW,2001-02-12 20:00,ZGOW 122000Z AUTO 07008KT 6SM 15/13 A3006 RMK T01500130 IEM_DS3505
ZGOW,2001-02-12 21:00,ZGOW 122100Z AUTO 07008KT 7SM 15/12 RMK SLP183 T01470121 57001 IEM_DS3505
ZGOW,2001-02-12 21:01,ZGOW 122101Z AUTO 07006KT 6SM 15/13 A3006 RMK T01500130 IEM_DS3505
ZGOW,2001-02-12 22:00,ZGOW 122200Z AUTO 08008KT 7SM 15/13 A3006 RMK T01500130 IEM_DS3505
ZGOW,2001-02-12 23:00,ZGOW 122300Z AUTO 08008KT 7SM 14/12 A3009 RMK T01400120 IEM_DS3505
ZGOW,2001-02-13 00:00,ZGOW 130000Z AUTO 09004KT 11SM 15/12 A3009 RMK SLP195 T01500115 52012 IEM_DS3505
ZGOW,2001-02-13 01:00,ZGOW 130100Z AUTO 07012KT 7SM 15/12 A3009 RMK T01500120 IEM_DS3505
ZGOW,2001-02-13 02:00,ZGOW 130200Z AUTO 08008KT 7SM 16/13 A3012 RMK T01600130 IEM_DS3505
ZGOW,2001-02-13 03:00,ZGOW 130300Z AUTO 09004KT 12SM 16/11 A3009 RMK SLP197 T01600114 52002 IEM_DS3505
ZGOW,2001-02-13 04:00,ZGOW 130400Z AUTO 08010KT 7SM 16/12 A3009 RMK T01600120 IEM_DS3505
ZGOW,2001-02-13 05:00,ZGOW 130500Z AUTO 07008KT 7SM 16/13 A3006 RMK T01600130 IEM_DS3505
ZGOW,2001-02-13 06:00,ZGOW 130600Z AUTO 04004KT 10SM 16/12 A3003 RMK SLP178 T01630117 57019 IEM_DS3505
ZGOW,2001-02-13 07:00,ZGOW 130700Z AUTO 08004KT 7SM 17/13 A3003 RMK T01700130 IEM_DS3505
ZGOW,2001-02-13 08:00,ZGOW 130800Z AUTO 08006KT 7SM 18/13 A3003 RMK T01800130 IEM_DS3505
ZGOW,2001-02-13 09:00,ZGOW 130900Z AUTO 11006KT 9SM 17/12 A3006 RMK SLP181 T01740124 52003 IEM_DS3505
ZGOW,2001-02-13 10:00,ZGOW 131000Z AUTO 07006KT 7SM 15/13 A3009 RMK T01500130 IEM_DS3505
ZGOW,2001-02-13 11:00,ZGOW 131100Z AUTO 05006KT 7SM 15/13 A3009 RMK T01500130 IEM_DS3505
ZGOW,2001-02-13 12:00,ZGOW 131200Z AUTO 34004KT 7SM 15/09 A3012 RMK SLP211 T01530086 52030 IEM_DS3505
ZGOW,2001-02-13 13:00,ZGOW 131300Z AUTO 32010KT 7SM 14/09 A3015 RMK T01400090 IEM_DS3505
ZGOW,2001-02-13 14:00,ZGOW 131400Z AUTO 33012KT 7SM 14/08 A3018 RMK T01400080 IEM_DS3505
ZGOW,2001-02-13 15:00,ZGOW 131500Z AUTO 04006KT 7SM 13/06 A3021 RMK SLP232 T01320062 52021 IEM_DS3505
ZGOW,2001-02-13 16:00,ZGOW 131600Z AUTO 33008KT 6SM 13/08 A3021 RMK T01300080 IEM_DS3505
ZGOW,2001-02-13 17:00,ZGOW 131700Z AUTO 33006KT 6SM 12/07 A3021 RMK T01200070 IEM_DS3505
ZGOW,2001-02-13 18:00,ZGOW 131800Z AUTO 34006KT 9SM 12/05 A3021 RMK SLP237 T01200053 52005 IEM_DS3505
ZGOW,2001-02-13 19:00,ZGOW 131900Z AUTO 34008KT 6SM 12/07 A3021 RMK T01200070 IEM_DS3505
ZGOW,2001-02-13 20:00,ZGOW 132000Z AUTO 34006KT 6SM 11/07 A3021 RMK T01100070 IEM_DS3505
ZGOW,2001-02-13 21:00,ZGOW 132100Z AUTO 36008KT 12SM 11/05 A3024 RMK SLP243 T01080048 52006 IEM_DS3505
ZGOW,2001-02-13 22:00,ZGOW 132200Z AUTO 33008KT 7SM 11/06 A3024 RMK T01100060 IEM_DS3505
ZGOW,2001-02-13 23:00,ZGOW 132300Z AUTO 34010KT 7SM 11/06 A3027 RMK T01100060 IEM_DS3505
ZGOW,2001-02-14 00:00,ZGOW 140000Z AUTO 34006KT 16SM 10/04 A3027 RMK SLP258 T01040040 52015 IEM_DS3505
ZGOW,2001-02-14 01:00,ZGOW 140100Z AUTO 34008KT 7SM 11/06 A3027 RMK T01100060 IEM_DS3505
ZGOW,2001-02-14 02:00,ZGOW 140200Z AUTO 33006KT 7SM 11/06 A3030 RMK T01100060 IEM_DS3505
ZGOW,2001-02-14 03:00,ZGOW 140300Z AUTO 02006KT 19SM 13/05 A3027 RMK SLP255 T01280047 57003 IEM_DS3505
ZGOW,2001-02-14 05:00,ZGOW 140500Z AUTO 32006KT 7SM 14/07 A3021 RMK T01400070 IEM_DS3505
ZGOW,2001-02-14 06:00,ZGOW 140600Z AUTO 04006KT 19SM 15/04 A3018 RMK SLP223 T01500044 57032 IEM_DS3505
ZGOW,2001-02-14 07:00,ZGOW 140700Z AUTO 03004KT 7SM 15/06 A3015 RMK T01500060 IEM_DS3505
ZGOW,2001-02-14 08:00,ZGOW 140800Z AUTO 12006KT 7SM 15/07 A3015 RMK T01500070 IEM_DS3505
ZGOW,2001-02-14 09:00,ZGOW 140900Z AUTO 14006KT 16SM 14/08 A3015 RMK SLP221 T01440075 57002 IEM_DS3505
ZGOW,2001-02-14 10:00,ZGOW 141000Z AUTO 11006KT 6SM 13/09 A3018 RMK T01300090 IEM_DS3505
ZGOW,2001-02-14 11:00,ZGOW 141100Z AUTO 08010KT 6SM 12/09 A3018 RMK T01200090 IEM_DS3505
ZGOW,2001-02-14 12:00,ZGOW 141200Z AUTO 09004KT 9SM 12/08 A3021 RMK SLP235 T01240079 52014 IEM_DS3505
ZGOW,2001-02-14 13:00,ZGOW 141300Z AUTO 08008KT 6SM 12/09 A3021 RMK T01200090 IEM_DS3505
ZGOW,2001-02-14 14:00,ZGOW 141400Z AUTO 09008KT 6SM 12/09 A3024 RMK T01200090 IEM_DS3505
ZGOW,2001-02-14 15:00,ZGOW 141500Z AUTO 09006KT 9SM 12/08 A3024 RMK SLP249 T01200077 52014 IEM_DS3505
ZGOW,2001-02-14 16:00,ZGOW 141600Z AUTO 08008KT 6SM 11/08 A3024 RMK T01100080 IEM_DS3505
ZGOW,2001-02-14 17:00,ZGOW 141700Z AUTO 08010KT 6SM 11/08 A3024 RMK T01100080 IEM_DS3505
ZGOW,2001-02-14 18:00,ZGOW 141800Z AUTO 07008KT 9SM 11/07 A3024 RMK SLP251 T01080068 52002 IEM_DS3505
ZGOW,2001-02-14 19:00,ZGOW 141900Z AUTO 03004KT 6SM 09/07 A3027 RMK T00900070 IEM_DS3505
ZGOW,2001-02-14 20:00,ZGOW 142000Z AUTO 03008KT 6SM 08/07 A3027 RMK T00800070 IEM_DS3505
ZGOW,2001-02-14 21:00,ZGOW 142100Z AUTO 04006KT 7SM 09/06 A3024 RMK SLP248 T00880062 57003 IEM_DS3505
ZGOW,2001-02-14 22:00,ZGOW 142200Z AUTO 03004KT 4SM 07/07 A3027 RMK T00700070 IEM_DS3505
ZGOW,2001-02-14 23:00,ZGOW 142300Z AUTO 05004KT 2 1/2SM 07/06 A3027 RMK T00700060 IEM_DS3505
ZGOW,2001-02-15 00:00,ZGOW 150000Z AUTO 36002KT 6SM 09/07 A3027 RMK SLP258 T00940068 52010 IEM_DS3505
ZGOW,2001-02-15 01:00,ZGOW 150100Z AUTO 04008KT 4SM 11/08 A3030 RMK T01100080 IEM_DS3505
ZGOW,2001-02-15 02:00,ZGOW 150200Z AUTO 03008KT 6SM 13/07 A3030 RMK T01300070 IEM_DS3505
ZGOW,2001-02-15 03:00,ZGOW 150300Z AUTO 02004KT 6SM 13/06 A3030 RMK SLP260 T01310056 52002 IEM_DS3505
ZGOW,2001-02-15 04:00,ZGOW 150400Z AUTO 09006KT 14/06 A3027 RMK T01400060 IEM_DS3505
ZGOW,2001-02-15 05:00,ZGOW 150500Z AUTO 04002KT 15/07 A3024 RMK T01500070 IEM_DS3505
ZGOW,2001-02-15 06:00,ZGOW 150600Z AUTO 09002KT 7SM 16/06 A3021 RMK SLP229 T01560055 57031 IEM_DS3505
ZGOW,2001-02-15 07:00,ZGOW 150700Z AUTO 11004KT 16/08 A3018 RMK T01600080 IEM_DS3505
ZGOW,2001-02-15 08:00,ZGOW 150800Z AUTO 14004KT 15/08 A3018 RMK T01500080 IEM_DS3505
ZGOW,2001-02-15 09:00,ZGOW 150900Z AUTO 14002KT 8SM 15/08 A3018 RMK SLP219 T01500075 57010 IEM_DS3505
ZGOW,2001-02-15 10:00,ZGOW 151000Z AUTO 10004KT 15/09 A3018 RMK T01500090 IEM_DS3505
ZGOW,2001-02-15 11:00,ZGOW 151100Z AUTO 08004KT 4SM 13/10 A3018 RMK T01300100 IEM_DS3505
ZGOW,2001-02-15 12:00,ZGOW 151200Z AUTO 09004KT 7SM 14/09 A3021 RMK SLP232 T01430092 52013 IEM_DS3505
ZGOW,2001-02-15 13:00,ZGOW 151300Z AUTO 08006KT 4SM 14/10 A3021 RMK T01400100 IEM_DS3505
ZGOW,2001-02-15 14:00,ZGOW 151400Z AUTO 09006KT 4SM 13/11 A3021 RMK T01300110 IEM_DS3505
ZGOW,2001-02-15 15:00,ZGOW 151500Z AUTO 07004KT 7SM 14/10 A3021 RMK SLP240 T01370096 52008 IEM_DS3505
ZGOW,2001-02-15 16:00,ZGOW 151600Z AUTO 08008KT 6SM 14/11 A3021 RMK T01400110 IEM_DS3505
ZGOW,2001-02-15 17:00,ZGOW 151700Z AUTO 06004KT 6SM 14/11 A3024 RMK T01400110 IEM_DS3505
ZGOW,2001-02-15 18:00,ZGOW 151800Z AUTO 04004KT 7SM 14/10 A3024 RMK SLP244 T01400099 52004 IEM_DS3505
ZGOW,2001-02-15 19:00,ZGOW 151900Z AUTO 32004KT 2SM 12/11 A3024 RMK T01200110 IEM_DS3505
ZGOW,2001-02-15 20:00,ZGOW 152000Z AUTO 32006KT 2SM 12/11 A3024 RMK T01200110 IEM_DS3505
ZGOW,2001-02-15 21:00,ZGOW 152100Z AUTO 36002KT 5SM 12/10 A3024 RMK SLP245 T01150097 52001 IEM_DS3505
ZGOW,2001-02-15 22:00,ZGOW 152200Z AUTO 33002KT 2 1/2SM 11/10 A3027 RMK T01100100 IEM_DS3505
ZGOW,2001-02-15 23:00,ZGOW 152300Z AUTO 30002KT 1 1/4SM 11/10 A3027 RMK T01100100 IEM_DS3505
ZGOW,2001-02-16 00:00,ZGOW 160000Z AUTO 07004KT 4SM 13/10 A3030 RMK SLP264 T01330096 52019 IEM_DS3505
ZGOW,2001-02-16 01:00,ZGOW 160100Z AUTO 03002KT 3SM 16/10 A3030 RMK T01600100 IEM_DS3505
ZGOW,2001-02-16 03:00,ZGOW 160300Z AUTO 11008KT 7SM 18/08 A3030 RMK SLP263 T01840080 57001 IEM_DS3505
ZGOW,2001-02-16 04:00,ZGOW 160400Z AUTO 08016KT 6SM 19/09 A3027 RMK T01900090 IEM_DS3505
ZGOW,2001-02-16 05:00,ZGOW 160500Z AUTO 09017KT 6SM 19/09 A3027 RMK T01900090 IEM_DS3505
ZGOW,2001-02-16 06:00,ZGOW 160600Z AUTO 09012G25KT 14SM 19/07 A3024 RMK SLP242 T01890070 57021 IEM_DS3505
ZGOW,2001-02-16 07:00,ZGOW 160700Z AUTO 08017G27KT 6SM 19/11 A3021 RMK T01900110 IEM_DS3505
ZGOW,2001-02-16 08:00,ZGOW 160800Z AUTO 09017G27KT 6SM 18/11 A3021 RMK T01800110 IEM_DS3505
ZGOW,2001-02-16 09:00,ZGOW 160900Z AUTO 09010G31KT 9SM 18/08 A3021 RMK SLP237 T01760082 57005 IEM_DS3505
ZGOW,2001-02-16 10:00,ZGOW 161000Z AUTO 08017KT 6SM 16/09 A3024 RMK T01600090 IEM_DS3505
ZGOW,2001-02-16 11:00,ZGOW 161100Z AUTO 09016G25KT 6SM 15/08 A3024 RMK T01500080 IEM_DS3505
ZGOW,2001-02-16 12:00,ZGOW 161200Z AUTO 09008KT 7SM 15/06 A3024 RMK SLP250 T01490056 52013 IEM_DS3505
ZGOW,2001-02-16 13:00,ZGOW 161300Z AUTO 07019G31KT 6SM 14/08 A3027 RMK T01400080 IEM_DS3505
ZGOW,2001-02-16 14:00,ZGOW 161400Z AUTO 07017KT 6SM 14/07 A3027 RMK T01400070 IEM_DS3505
ZGOW,2001-02-16 15:00,ZGOW 161500Z AUTO 07012G33KT 7SM 14/03 A3027 RMK SLP257 T01380033 52007 IEM_DS3505
ZGOW,2001-02-16 16:00,ZGOW 161600Z AUTO 06017KT 6SM 13/06 A3027 RMK T01300060 IEM_DS3505
ZGOW,2001-02-16 17:00,ZGOW 161700Z AUTO 06016KT 6SM 13/05 A3027 RMK T01300050 IEM_DS3505
ZGOW,2001-02-16 18:00,ZGOW 161800Z AUTO 07008KT 7SM 13/04 A3024 RMK SLP248 T01290037 57009 IEM_DS3505
ZGOW,2001-02-16 19:00,ZGOW 161900Z AUTO 04006KT 6SM 11/06 A3024 RMK T01100060 IEM_DS3505
ZGOW,2001-02-16 20:00,ZGOW 162000Z AUTO 05010KT 6SM 12/06 A3021 RMK T01200060 IEM_DS3505
ZGOW,2001-02-16 21:00,ZGOW 162100Z AUTO 07006KT 7SM 12/05 A3021 RMK SLP235 T01220047 57013 IEM_DS3505
ZGOW,2001-02-16 22:00,ZGOW 162200Z AUTO 03008KT 6SM 12/06 A3021 RMK T01200060 IEM_DS3505
ZGOW,2001-02-16 23:00,ZGOW 162300Z AUTO 02006KT 6SM 11/05 A3021 RMK T01100050 IEM_DS3505
ZGOW,2001-02-17 00:00,ZGOW 170000Z AUTO 02002KT 9SM 12/06 A3024 RMK SLP243 T01180065 52008 IEM_DS3505
ZGOW,2001-02-17 01:00,ZGOW 170100Z AUTO 04008KT 6SM 14/06 A3024 RMK T01400060 IEM_DS3505
ZGOW,2001-02-17 02:00,ZGOW 170200Z AUTO 08008KT 6SM 15/08 A3024 RMK T01500080 IEM_DS3505
ZGOW,2001-02-17 03:00,ZGOW 170300Z AUTO 16004KT 9SM 17/07 A3021 RMK SLP239 T01670068 57004 IEM_DS3505
ZGOW,2001-02-17 04:00,ZGOW 170400Z AUTO 08010KT 6SM 18/09 A3021 RMK T01800090 IEM_DS3505
ZGOW,2001-02-17 05:00,ZGOW 170500Z AUTO 08008KT 6SM 18/09 A3015 RMK T01800090 IEM_DS3505
ZGOW,2001-02-17 06:00,ZGOW 170600Z AUTO 11004KT 9SM 19/08 A3012 RMK SLP209 T01940077 57030 IEM_DS3505
ZGOW,2001-02-17 07:00,ZGOW 170700Z AUTO 11004KT 6SM 20/11 A3012 RMK T02000110 IEM_DS3505
ZGOW,2001-02-17 08:00,ZGOW 170800Z AUTO 13006KT 6SM 18/12 A3009 RMK T01800120 IEM_DS3505
ZGOW,2001-02-17 09:00,ZGOW 170900Z AUTO 16004KT 9SM 17/10 A3012 RMK SLP200 T01710099 57009 IEM_DS3505
ZGOW,2001-02-17 10:00,ZGOW 171000Z AUTO 14004KT 6SM 16/12 A3012 RMK T01600120 IEM_DS3505
ZGOW,2001-02-17 11:00,ZGOW 171100Z AUTO 07002KT 6SM 16/13 A3012 RMK T01600130 IEM_DS3505
ZGOW,2001-02-17 12:00,ZGOW 171200Z AUTO 07002KT 7SM 16/11 A3012 RMK SLP207 T01640106 52007 IEM_DS3505
ZGOW,2001-02-17 13:00,ZGOW 171300Z AUTO 06008KT 6SM 15/12 A3012 RMK T01500120 IEM_DS3505
ZGOW,2001-02-17 14:00,ZGOW 171400Z AUTO 10004KT 6SM 14/12 A3012 RMK T01400120 IEM_DS3505
ZGOW,2001-02-17 15:00,ZGOW 171500Z AUTO 00000KT 7SM 14/11 A3012 RMK SLP207 T01390113 54000 IEM_DS3505
ZGOW,2001-02-17 16:00,ZGOW 171600Z AUTO 04004KT 6SM 13/12 A3012 RMK T01300120 IEM_DS3505
ZGOW,2001-02-17 17:01,ZGOW 171701Z AUTO 07004KT 4SM 13/12 A3012 RMK T01300120 IEM_DS3505
ZGOW,2001-02-17 18:00,ZGOW 171800Z AUTO 07002KT 6SM 14/12 A3012 RMK SLP204 T01390117 57003 IEM_DS3505
ZGOW,2001-02-17 19:00,ZGOW 171900Z AUTO 01002KT 6SM 12/12 A3009 RMK T01200120 IEM_DS3505
ZGOW,2001-02-17 20:00,ZGOW 172000Z AUTO 34002KT 6SM 12/12 A3009 RMK T01200120 IEM_DS3505
ZGOW,2001-02-17 21:00,ZGOW 172100Z AUTO 00000KT 6SM 11/10 A3009 RMK SLP196 T01120102 57008 IEM_DS3505
ZGOW,2001-02-17 22:00,ZGOW 172200Z AUTO 34004KT 2 1/2SM 12/12 A3009 RMK T01200120 IEM_DS3505
ZGOW,2001-02-17 23:00,ZGOW 172300Z AUTO 00000KT 1 1/4SM 11/11 A3012 RMK T01100110 IEM_DS3505
ZGOW,2001-02-18 00:00,ZGOW 180000Z AUTO 07004KT 2 1/2SM 14/11 A3012 RMK SLP204 T01350114 52008 IEM_DS3505
ZGOW,2001-02-18 01:00,ZGOW 180100Z AUTO 34004KT 3SM 15/13 A3012 RMK T01500130 IEM_DS3505
ZGOW,2001-02-18 02:00,ZGOW 180200Z AUTO 06004KT 4SM 18/13 A3012 RMK T01800130 IEM_DS3505
ZGOW,2001-02-18 03:00,ZGOW 180300Z AUTO 11004KT 6SM 20/12 A3012 RMK SLP200 T01990120 57004 IEM_DS3505
ZGOW,2001-02-18 04:00,ZGOW 180400Z AUTO 09004KT 6SM 21/13 A3009 RMK T02100130 IEM_DS3505
ZGOW,2001-02-18 05:00,ZGOW 180500Z AUTO 11006KT 6SM 21/14 A3003 RMK T02100140 IEM_DS3505
ZGOW,2001-02-18 06:00,ZGOW 180600Z AUTO 16006KT 7SM 22/13 A3000 RMK SLP161 T02190128 57039 IEM_DS3505
ZGOW,2001-02-18 07:00,ZGOW 180700Z AUTO 14008KT 6SM 21/14 A2997 RMK T02100140 IEM_DS3505
ZGOW,2001-02-18 08:00,ZGOW 180800Z AUTO 13008KT 6SM 20/14 A2997 RMK T02000140 IEM_DS3505
ZGOW,2001-02-18 09:00,ZGOW 180900Z AUTO 16006KT 9SM 19/12 A2997 RMK SLP154 T01920124 57007 IEM_DS3505
ZGOW,2001-02-18 10:00,ZGOW 181000Z AUTO 13006KT 6SM 17/14 A2997 RMK T01700140 IEM_DS3505
ZGOW,2001-02-18 11:00,ZGOW 181100Z AUTO 14004KT 4SM 16/14 A3000 RMK T01600140 IEM_DS3505
ZGOW,2001-02-18 12:00,ZGOW 181200Z AUTO 00000KT 9SM 17/12 A3000 RMK SLP167 T01680125 52013 IEM_DS3505
ZGOW,2001-02-18 13:00,ZGOW 181300Z AUTO 00000KT 2 1/2SM 16/14 A3003 RMK T01600140 IEM_DS3505
ZGOW,2001-02-18 14:00,ZGOW 181400Z AUTO 00000KT 2 1/2SM 15/14 A3003 RMK T01500140 IEM_DS3505
ZGOW,2001-02-18 15:00,ZGOW 181500Z AUTO 00000KT 6SM 15/12 A3003 RMK SLP179 T01460124 52012 IEM_DS3505
ZGOW,2001-02-18 16:00,ZGOW 181600Z AUTO 00000KT 2SM 15/14 A3003 RMK T01500140 IEM_DS3505
ZGOW,2001-02-18 17:00,ZGOW 181700Z AUTO 00000KT 2SM 15/14 A3003 RMK T01500140 IEM_DS3505
ZGOW,2001-02-18 18:00,ZGOW 181800Z AUTO 00000KT 5SM 14/12 RMK SLP172 T01360123 57007 IEM_DS3505
ZGOW,2001-02-18 21:00,ZGOW 182100Z AUTO 00000KT 5SM 12/12 RMK SLP173 T01230117 52001 IEM_DS3505
ZGOW,2001-02-18 23:00,ZGOW 182300Z AUTO 33004KT 1SM 13/13 A3006 RMK T01300130 IEM_DS3505
ZGOW,2001-02-19 00:00,ZGOW 190000Z AUTO 04004KT 4SM 16/13 A3006 RMK SLP190 T01560129 52017 IEM_DS3505
ZGOW,2001-02-19 01:00,ZGOW 190100Z AUTO 05004KT 2SM 17/15 A3009 RMK T01700150 IEM_DS3505
ZGOW,2001-02-19 02:00,ZGOW 190200Z AUTO 08002KT 2 1/2SM 19/15 A3009 RMK T01900150 IEM_DS3505
ZGOW,2001-02-19 03:00,ZGOW 190300Z AUTO 07004KT 6SM 22/12 A3009 RMK SLP191 T02170119 52001 IEM_DS3505
ZGOW,2001-02-19 04:00,ZGOW 190400Z AUTO 07004KT 3SM 22/16 A3006 RMK T02200160 IEM_DS3505
ZGOW,2001-02-19 05:00,ZGOW 190500Z AUTO 07010KT 6SM 23/13 A3003 RMK T02300130 IEM_DS3505
ZGOW,2001-02-19 06:00,ZGOW 190600Z AUTO 11006KT 7SM 22/13 RMK SLP166 T02210131 57025 IEM_DS3505
ZGOW,2001-02-19 07:00,ZGOW 190700Z AUTO 13008KT 6SM 21/16 A3000 RMK T02100160 IEM_DS3505
ZGOW,2001-02-19 08:00,ZGOW 190800Z AUTO 12012KT 6SM 19/16 A3000 RMK T01900160 IEM_DS3505
ZGOW,2001-02-19 09:00,ZGOW 190900Z AUTO 16006KT 6SM 19/14 A3000 RMK SLP162 T01880145 57004 IEM_DS3505
ZGOW,2001-02-19 10:00,ZGOW 191000Z AUTO 12008KT 6SM 17/16 A3000 RMK T01700160 IEM_DS3505
ZGOW,2001-02-19 12:00,ZGOW 191200Z AUTO 07004KT 5SM 17/15 A3003 RMK SLP171 T01740148 52009 IEM_DS3505
ZGOW,2001-02-19 13:00,ZGOW 191300Z AUTO 08008KT 6SM 17/15 A3003 RMK T01700150 IEM_DS3505
ZGOW,2001-02-19 14:00,ZGOW 191400Z AUTO 08010KT 6SM 16/15 A3003 RMK T01600150 IEM_DS3505
ZGOW,2001-02-19 15:00,ZGOW 191500Z AUTO 07010KT 6SM 18/14 A3006 RMK SLP181 T01760136 52010 IEM_DS3505
ZGOW,2001-02-19 16:00,ZGOW 191600Z AUTO 04002KT 6SM 16/14 A3003 RMK T01600140 IEM_DS3505
ZGOW,2001-02-19 17:00,ZGOW 191700Z AUTO 00000KT 6SM 15/15 A3003 RMK T01500150 IEM_DS3505
ZGOW,2001-02-19 18:00,ZGOW 191800Z AUTO 00000KT 7SM 15/13 A3000 RMK SLP169 T01470134 57012 IEM_DS3505
ZGOW,2001-02-19 19:00,ZGOW 191900Z AUTO 32002KT 2SM 14/14 A3000 RMK T01400140 IEM_DS3505
ZGOW,2001-02-19 20:01,ZGOW 192001Z AUTO 31002KT 1 1/2SM 15/14 A3000 RMK T01500140 IEM_DS3505
ZGOW,2001-02-19 21:00,ZGOW 192100Z AUTO 00000KT 6SM 14/13 RMK SLP163 T01390132 57006 IEM_DS3505
ZGOW,2001-02-19 21:01,ZGOW 192101Z AUTO 32004KT 1SM 14/14 A3000 RMK T01400140 IEM_DS3505
ZGOW,2001-02-19 22:00,ZGOW 192200Z AUTO 31002KT 1SM 14/14 A3000 RMK T01400140 IEM_DS3505
ZGOW,2001-02-19 23:00,ZGOW 192300Z AUTO 00000KT 1SM 14/14 A3003 RMK T01400140 IEM_DS3505
ZGOW,2001-02-20 00:00,ZGOW 200000Z AUTO 00000KT 2SM 15/14 A3006 RMK SLP185 T01500145 52022 IEM_DS3505
ZGOW,2001-02-20 01:00,ZGOW 200100Z AUTO 32004KT 1 1/2SM 17/16 A3006 RMK T01700160 IEM_DS3505
ZGOW,2001-02-20 02:00,ZGOW 200200Z AUTO 08004KT 3SM 20/16 A3006 RMK T02000160 IEM_DS3505
ZGOW,2001-02-20 03:00,ZGOW 200300Z AUTO 07006KT 6SM 22/15 A3006 RMK SLP188 T02170150 52003 IEM_DS3505
ZGOW,2001-02-20 04:00,ZGOW 200400Z AUTO 08008KT 6SM 22/16 A3003 RMK T02200160 IEM_DS3505
ZGOW,2001-02-20 05:00,ZGOW 200500Z AUTO 08012KT 6SM 23/15 A3000 RMK T02300150 IEM_DS3505
ZGOW,2001-02-20 06:00,ZGOW 200600Z AUTO 14006KT 8SM 23/14 A2997 RMK SLP151 T02330140 57037 IEM_DS3505
ZGOW,2001-02-20 07:00,ZGOW 200700Z AUTO 12008KT 4SM 21/16 A2994 RMK T02100160 IEM_DS3505
ZGOW,2001-02-20 08:00,ZGOW 200800Z AUTO 11008KT 4SM 21/16 A2994 RMK T02100160 IEM_DS3505
ZGOW,2001-02-20 09:00,ZGOW 200900Z AUTO 16004KT 6SM 20/14 A2994 RMK SLP141 T02040140 57010 IEM_DS3505
ZGOW,2001-02-20 10:00,ZGOW 201000Z AUTO 11006KT 4SM 18/15 A2994 RMK T01800150 IEM_DS3505
ZGOW,2001-02-20 11:00,ZGOW 201100Z AUTO 14004KT 4SM 17/15 A2994 RMK T01700150 IEM_DS3505
ZGOW,2001-02-20 12:00,ZGOW 201200Z AUTO 14004KT 6SM 18/14 A2997 RMK SLP159 T01770142 52018 IEM_DS3505
ZGOW,2001-02-20 13:00,ZGOW 201300Z AUTO 10002KT 4SM 16/15 A3000 RMK T01600150 IEM_DS3505
ZGOW,2001-02-20 14:00,ZGOW 201400Z AUTO 07010KT 6SM 17/15 A3000 RMK T01700150 IEM_DS3505
ZGOW,2001-02-20 15:00,ZGOW 201500Z AUTO 07006KT 6SM 17/14 A3000 RMK SLP162 T01710141 52003 IEM_DS3505
ZGOW,2001-02-20 16:00,ZGOW 201600Z AUTO 05008KT 6SM 16/15 A2997 RMK T01600150 IEM_DS3505
ZGOW,2001-02-20 17:00,ZGOW 201700Z AUTO 04004KT 2 1/2SM 15/14 A2997 RMK T01500140 IEM_DS3505
ZGOW,2001-02-20 18:00,ZGOW 201800Z AUTO 04006KT 6SM 16/14 A2997 RMK SLP153 T01560138 57009 IEM_DS3505
ZGOW,2001-02-20 19:00,ZGOW 201900Z AUTO 03002KT 3SM 15/14 A2994 RMK T01500140 IEM_DS3505
ZGOW,2001-02-20 20:00,ZGOW 202000Z AUTO 00000KT 2 1/2SM 15/14 A2994 RMK T01500140 IEM_DS3505
ZGOW,2001-02-20 21:00,ZGOW 202100Z AUTO 04002KT 2 1/2SM 15/14 A2994 RMK SLP143 T01510140 57010 IEM_DS3505
ZGOW,2001-02-20 22:00,ZGOW 202200Z AUTO 29002KT 1SM 15/14 A2994 RMK T01500140 IEM_DS3505
ZGOW,2001-02-20 23:00,ZGOW 202300Z AUTO 00000KT 1SM 14/14 A2997 RMK T01400140 IEM_DS3505
ZGOW,2001-02-21 00:00,ZGOW 210000Z AUTO 04002KT 2SM 16/15 A2997 RMK SLP158 T01600148 52015 IEM_DS3505
ZGOW,2001-02-21 01:00,ZGOW 210100Z AUTO 33008KT 2SM 17/16 A3000 RMK T01700160 IEM_DS3505
ZGOW,2001-02-21 02:00,ZGOW 210200Z AUTO 33008KT 2 1/2SM 20/17 A2997 RMK T02000170 IEM_DS3505
ZGOW,2001-02-21 03:00,ZGOW 210300Z AUTO 34006KT 4SM 23/16 A2997 RMK SLP155 T02300159 57003 IEM_DS3505
ZGOW,2001-02-21 04:00,ZGOW 210400Z AUTO 08004KT 25/17 A2994 RMK T02500170 IEM_DS3505
ZGOW,2001-02-21 05:00,ZGOW 210500Z AUTO 08006KT 5SM 25/17 A2991 RMK T02500170 IEM_DS3505
ZGOW,2001-02-21 06:00,ZGOW 210600Z AUTO 20008KT 5SM 26/16 A2988 RMK SLP126 T02560158 57029 IEM_DS3505
ZGOW,2001-02-21 07:00,ZGOW 210700Z AUTO 14008KT 5SM 24/17 A2985 RMK T02400170 IEM_DS3505
ZGOW,2001-02-21 08:00,ZGOW 210800Z AUTO 14008KT 5SM 22/17 A2985 RMK T02200170 IEM_DS3505
ZGOW,2001-02-21 09:00,ZGOW 210900Z AUTO 20004KT 5SM 21/15 A2988 RMK SLP123 T02140152 57003 IEM_DS3505
ZGOW,2001-02-21 10:00,ZGOW 211000Z AUTO 14008KT 2 1/2SM 19/16 A2988 RMK T01900160 IEM_DS3505
ZGOW,2001-02-21 11:00,ZGOW 211100Z AUTO 15006KT 2SM 18/16 A2991 RMK T01800160 IEM_DS3505
ZGOW,2001-02-21 12:00,ZGOW 211200Z AUTO 16004KT 4SM 18/15 A2991 RMK SLP139 T01840152 52016 IEM_DS3505
ZGOW,2001-02-21 13:00,ZGOW 211300Z AUTO 00000KT 1 1/2SM 17/16 A2994 RMK T01700160 IEM_DS3505
ZGOW,2001-02-21 14:00,ZGOW 211400Z AUTO 00000KT 2SM 17/16 A2994 RMK T01700160 IEM_DS3505
ZGOW,2001-02-21 15:00,ZGOW 211500Z AUTO 00000KT 3SM 18/16 A2991 RMK SLP139 T01750155 54000 IEM_DS3505
ZGOW,2001-02-21 16:01,ZGOW 211601Z AUTO 00000KT 1 1/2SM 17/16 A2991 RMK T01700160 IEM_DS3505
ZGOW,2001-02-21 17:00,ZGOW 211700Z AUTO 00000KT 1 1/2SM 17/16 A2991 RMK T01700160 IEM_DS3505
ZGOW,2001-02-21 18:00,ZGOW 211800Z AUTO 00000KT 3SM 16/15 A2991 RMK SLP138 T01620152 57001 IEM_DS3505
ZGOW,2001-02-21 19:01,ZGOW 211901Z AUTO 06002KT 1SM 16/15 A2991 RMK T01600150 IEM_DS3505
ZGOW,2001-02-21 20:00,ZGOW 212000Z AUTO 00000KT 1SM 16/15 A2991 RMK T01600150 IEM_DS3505
ZGOW,2001-02-21 21:00,ZGOW 212100Z AUTO 04002KT 4SM 16/15 A2991 RMK SLP133 T01600151 57005 IEM_DS3505
ZGOW,2001-02-21 22:00,ZGOW 212200Z AUTO 00000KT 1/2SM 16/15 A2991 RMK T01600150 IEM_DS3505
ZGOW,2001-02-21 23:00,ZGOW 212300Z AUTO 04008KT 1SM 16/16 A2994 RMK T01600160 IEM_DS3505
ZGOW,2001-02-22 00:00,ZGOW 220000Z AUTO 07004KT 4SM 18/16 A2994 RMK SLP149 T01810159 52016 IEM_DS3505
ZGOW,2001-02-22 01:00,ZGOW 220100Z AUTO 07008KT 2 1/2SM 19/18 A2997 RMK T01900180 IEM_DS3505
ZGOW,2001-02-22 02:00,ZGOW 220200Z AUTO 06012KT 2 1/2SM 20/17 A2997 RMK T02000170 IEM_DS3505
ZGOW,2001-02-22 03:00,ZGOW 220300Z AUTO 07006KT 6SM 22/16 A2994 RMK SLP147 T02210164 57002 IEM_DS3505
ZGOW,2001-02-22 04:00,ZGOW 220400Z AUTO 08006KT 2 1/2SM 22/18 A2994 RMK T02200180 IEM_DS3505
ZGOW,2001-02-22 05:00,ZGOW 220500Z AUTO 14008KT 2 1/2SM 21/17 A2991 RMK T02100170 IEM_DS3505
ZGOW,2001-02-22 06:00,ZGOW 220600Z AUTO 18008KT 6SM 21/15 RMK SLP129 T02100151 57018 IEM_DS3505
ZGOW,2001-02-22 07:00,ZGOW 220700Z AUTO 13006KT 3SM 22/17 A2988 RMK T02200170 IEM_DS3505
ZGOW,2001-02-22 08:00,ZGOW 220800Z AUTO 13010KT 3SM 21/17 A2985 RMK T02100170 IEM_DS3505
ZGOW,2001-02-22 09:00,ZGOW 220900Z AUTO 16004KT 4SM 21/15 A2985 RMK SLP119 T02060154 57010 IEM_DS3505
ZGOW,2001-02-22 10:00,ZGOW 221000Z AUTO 14004KT 3SM 19/17 A2985 RMK T01900170 IEM_DS3505
ZGOW,2001-02-22 11:00,ZGOW 221100Z AUTO 16002KT 2 1/2SM 18/17 A2988 RMK T01800170 IEM_DS3505
ZGOW,2001-02-22 12:00,ZGOW 221200Z AUTO 14004KT 2 1/2SM 18/16 A2988 RMK T01800160 IEM_DS3505
ZGOW,2001-02-22 13:00,ZGOW 221300Z AUTO 00000KT 2 1/2SM 17/16 A2988 RMK T01700160 IEM_DS3505
ZGOW,2001-02-22 14:00,ZGOW 221400Z AUTO 07006KT 2 1/2SM 17/16 A2991 RMK T01700160 IEM_DS3505
ZGOW,2001-02-22 15:00,ZGOW 221500Z AUTO 00000KT 3SM 18/15 A2991 RMK SLP134 T01770153 52006 IEM_DS3505
ZGOW,2001-02-22 16:00,ZGOW 221600Z AUTO 00000KT 2SM 17/16 A2988 RMK T01700160 IEM_DS3505
ZGOW,2001-02-22 17:00,ZGOW 221700Z AUTO 01008KT 3SM 18/17 A2988 RMK T01800170 IEM_DS3505
ZGOW,2001-02-22 18:00,ZGOW 221800Z AUTO 27004KT 2 1/2SM 18/16 A2988 RMK SLP128 T01780160 57006 IEM_DS3505
ZGOW,2001-02-22 19:00,ZGOW 221900Z AUTO 33002KT 2SM 17/16 A2988 RMK T01700160 IEM_DS3505
ZGOW,2001-02-22 20:01,ZGOW 222001Z AUTO 32004KT 1 1/2SM 17/16 A2988 RMK T01700160 IEM_DS3505
ZGOW,2001-02-22 21:00,ZGOW 222100Z AUTO 00000KT 4SM 17/16 A2985 RMK SLP119 T01660156 57009 IEM_DS3505
ZGOW,2001-02-22 22:00,ZGOW 222200Z AUTO 31002KT 1 1/2SM 17/16 A2988 RMK T01700160 IEM_DS3505
ZGOW,2001-02-22 23:00,ZGOW 222300Z AUTO 00000KT 1SM 17/16 A2988 RMK T01700160 IEM_DS3505
ZGOW,2001-02-23 00:00,ZGOW 230000Z AUTO 29002KT 3SM 18/17 A2991 RMK SLP132 T01800167 52013 IEM_DS3505
ZGOW,2001-02-23 01:00,ZGOW 230100Z AUTO 32004KT 1SM 19/18 A2991 RMK T01900180 IEM_DS3505
ZGOW,2001-02-23 02:00,ZGOW 230200Z AUTO 30002KT 1 1/4SM 20/18 A2991 RMK T02000180 IEM_DS3505
ZGOW,2001-02-23 03:00,ZGOW 230300Z AUTO 27006KT 5SM 22/17 A2988 RMK SLP126 T02190172 57006 IEM_DS3505
ZGOW,2001-02-23 04:00,ZGOW 230400Z AUTO 24002KT 1 1/4SM 24/19 A2985 RMK T02400190 IEM_DS3505
ZGOW,2001-02-23 05:00,ZGOW 230500Z AUTO 20004KT 1 1/2SM 26/18 A2983 RMK T02600180 IEM_DS3505
ZGOW,2001-02-23 06:00,ZGOW 230600Z AUTO 18006KT 4SM 27/17 A2980 RMK SLP089 T02740171 57037 IEM_DS3505
ZGOW,2001-02-23 07:00,ZGOW 230700Z AUTO 16008KT 1 1/2SM 23/19 A2977 RMK T02300190 IEM_DS3505
ZGOW,2001-02-23 08:00,ZGOW 230800Z AUTO 17008KT 1 1/2SM 23/19 A2974 RMK T02300190 IEM_DS3505
ZGOW,2001-02-23 09:00,ZGOW 230900Z AUTO 18002KT 2 1/2SM 23/17 A2974 RMK SLP078 T02300172 57011 IEM_DS3505
ZGOW,2001-02-23 10:00,ZGOW 231000Z AUTO 12006KT 1 1/4SM 20/18 A2974 RMK T02000180 IEM_DS3505
ZGOW,2001-02-23 11:00,ZGOW 231100Z AUTO 13004KT 1SM 19/18 A2977 RMK T01900180 IEM_DS3505
ZGOW,2001-02-23 12:00,ZGOW 231200Z AUTO 18002KT 3SM 20/17 A2977 RMK SLP083 T02020174 52005 IEM_DS3505
ZGOW,2001-02-23 13:00,ZGOW 231300Z AUTO 13004KT 1/4SM 18/17 A2980 RMK T01800170 IEM_DS3505
ZGOW,2001-02-23 14:00,ZGOW 231400Z AUTO 05002KT 1/8SM 17/17 A2980 RMK T01700170 IEM_DS3505
ZGOW,2001-02-23 15:00,ZGOW 231500Z AUTO 04004KT 4SM 19/17 A2980 RMK SLP095 T01870174 52012 IEM_DS3505
ZGOW,2001-02-23 16:00,ZGOW 231600Z AUTO 00000KT 1/8SM 18/18 A2980 RMK T01800180 IEM_DS3505
ZGOW,2001-02-23 17:00,ZGOW 231700Z AUTO 00000KT 1/8SM 17/17 A2980 RMK T01700170 IEM_DS3505
ZGOW,2001-02-23 18:00,ZGOW 231800Z AUTO 04002KT 1 1/4SM 18/17 A2980 RMK SLP095 T01770172 54000 IEM_DS3505
ZGOW,2001-02-23 19:00,ZGOW 231900Z AUTO 00000KT 1/8SM 17/17 A2980 RMK T01700170 IEM_DS3505
ZGOW,2001-02-23 20:01,ZGOW 232001Z AUTO 00000KT 1/8SM 17/17 A2980 RMK T01700170 IEM_DS3505
ZGOW,2001-02-23 21:00,ZGOW 232100Z AUTO 02002KT 1 1/4SM 17/17 A2980 RMK SLP099 T01710166 52004 IEM_DS3505
ZGOW,2001-02-23 22:00,ZGOW 232200Z AUTO 29002KT 1/8SM 17/17 A2983 RMK T01700170 IEM_DS3505
ZGOW,2001-02-23 23:00,ZGOW 232300Z AUTO 32002KT 1/8SM 17/17 A2985 RMK T01700170 IEM_DS3505
ZGOW,2001-02-24 00:00,ZGOW 240000Z AUTO 00000KT 1/2SM 18/18 RMK SLP119 T01820177 52020 IEM_DS3505
ZGOW,2001-02-24 01:00,ZGOW 240100Z AUTO 00000KT 1SM 19/19 A2988 RMK T01900190 IEM_DS3505
ZGOW,2001-02-24 02:00,ZGOW 240200Z AUTO 02004KT 1 1/2SM 23/20 A2988 RMK T02300200 IEM_DS3505
ZGOW,2001-02-24 03:00,ZGOW 240300Z AUTO 02006KT 6SM 26/18 A2988 RMK SLP128 T02620179 52009 IEM_DS3505
ZGOW,2001-02-24 04:00,ZGOW 240400Z AUTO 34004KT 3SM 27/19 A2988 RMK T02700190 IEM_DS3505
ZGOW,2001-02-24 05:00,ZGOW 240500Z AUTO 08016KT 4SM 21/17 A2988 RMK T02100170 IEM_DS3505
ZGOW,2001-02-24 06:00,ZGOW 240600Z AUTO 09006KT 4SM 24/17 A2988 RMK SLP124 T02350169 57004 IEM_DS3505
ZGOW,2001-02-24 07:00,ZGOW 240700Z AUTO 09017KT 4SM 19/16 A2988 RMK T01900160 IEM_DS3505
ZGOW,2001-02-24 08:00,ZGOW 240800Z AUTO 08017G27KT 5SM 19/16 A2988 RMK T01900160 IEM_DS3505
ZGOW,2001-02-24 09:00,ZGOW 240900Z AUTO 07012KT 4SM 19/14 A2991 RMK SLP142 T01880141 52018 IEM_DS3505
ZGOW,2001-02-24 10:00,ZGOW 241000Z AUTO 08021G31KT 5SM 16/14 A2994 RMK T01600140 IEM_DS3505
ZGOW,2001-02-24 11:00,ZGOW 241100Z AUTO 08017G31KT 6SM 16/14 A2997 RMK T01600140 IEM_DS3505
ZGOW,2001-02-24 12:00,ZGOW 241200Z AUTO 07008G29KT 7SM 16/12 A3000 RMK SLP171 T01620124 52029 IEM_DS3505
ZGOW,2001-02-24 13:00,ZGOW 241300Z AUTO 08021KT 7SM 16/13 A3003 RMK T01600130 IEM_DS3505
ZGOW,2001-02-24 14:00,ZGOW 241400Z AUTO 07019G29KT 7SM 15/12 A3006 RMK T01500120 IEM_DS3505
ZGOW,2001-02-24 15:00,ZGOW 241500Z AUTO 07008KT 9SM 16/11 RMK SLP189 T01550114 52018 IEM_DS3505
ZGOW,2001-02-24 18:00,ZGOW 241800Z AUTO 09010KT 11SM 15/10 RMK SLP194 T01490101 40287//// 52005 IEM_DS3505
ZGOW,2001-02-24 21:00,ZGOW 242100Z AUTO 07010KT 10SM 14/09 RMK SLP198 T01400086 52004 IEM_DS3505
ZGOW,2001-02-24 22:00,ZGOW 242200Z AUTO 06016KT 7SM 14/10 A3009 RMK T01400100 IEM_DS3505
ZGOW,2001-02-24 23:00,ZGOW 242300Z AUTO 06012KT 7SM 13/10 A3012 RMK T01300100 IEM_DS3505
ZGOW,2001-02-25 00:00,ZGOW 250000Z AUTO 07010KT 8SM 14/08 A3015 RMK SLP216 T01370078 52018 IEM_DS3505
ZGOW,2001-02-25 01:00,ZGOW 250100Z AUTO 08016KT 7SM 14/09 A3015 RMK T01400090 IEM_DS3505
ZGOW,2001-02-25 02:00,ZGOW 250200Z AUTO 09017KT 7SM 14/08 A3015 RMK T01400080 IEM_DS3505
ZGOW,2001-02-25 03:00,ZGOW 250300Z AUTO 04010G29KT 9SM 14/05 A3015 RMK SLP216 T01390054 54000 IEM_DS3505
ZGOW,2001-02-25 04:00,ZGOW 250400Z AUTO 07021G31KT 6SM 14/07 A3015 RMK T01400070 IEM_DS3505
ZGOW,2001-02-25 05:00,ZGOW 250500Z AUTO 07019KT 6SM 13/07 A3012 RMK T01300070 IEM_DS3505
ZGOW,2001-02-25 06:00,ZGOW 250600Z AUTO 09008KT 6SM 14/06 A3012 RMK SLP206 T01380055 57010 IEM_DS3505
ZGOW,2001-02-25 07:00,ZGOW 250700Z AUTO 07016KT 6SM 14/07 A3009 RMK T01400070 IEM_DS3505
ZGOW,2001-02-25 08:00,ZGOW 250800Z AUTO 07016KT 7SM 13/07 A3009 RMK T01300070 IEM_DS3505
ZGOW,2001-02-25 09:00,ZGOW 250900Z AUTO 07010KT 5SM 13/06 A3012 RMK SLP205 T01340060 57001 IEM_DS3505
ZGOW,2001-02-25 10:00,ZGOW 251000Z AUTO 08014KT 7SM 13/07 A3012 RMK T01300070 IEM_DS3505
ZGOW,2001-02-25 11:00,ZGOW 251100Z AUTO 07017KT 7SM 12/09 A3012 RMK T01200090 IEM_DS3505
ZGOW,2001-02-25 12:00,ZGOW 251200Z AUTO 09010KT 6SM 12/07 A3015 RMK 60003 SLP214 T01200074 52009 IEM_DS3505
ZGOW,2001-02-25 13:00,ZGOW 251300Z AUTO 07021KT 7SM 12/08 A3015 RMK T01200080 IEM_DS3505
ZGOW,2001-02-25 14:00,ZGOW 251400Z AUTO 06017KT 7SM 11/09 A3018 RMK T01100090 IEM_DS3505
ZGOW,2001-02-25 15:00,ZGOW 251500Z AUTO 04008KT 7SM 11/08 A3021 RMK SLP232 T01130078 52018 IEM_DS3505
ZGOW,2001-02-25 16:01,ZGOW 251601Z AUTO 06010KT 3SM 11/10 A3021 RMK T01100100 IEM_DS3505
ZGOW,2001-02-25 17:00,ZGOW 251700Z AUTO 05008KT 2 1/2SM 11/10 A3018 RMK T01100100 IEM_DS3505
ZGOW,2001-02-25 18:00,ZGOW 251800Z AUTO 04008KT 6SM 11/09 A3018 RMK 60004 SLP224 T01100094 57008 IEM_DS3505
ZGOW,2001-02-25 19:00,ZGOW 251900Z AUTO 03006KT 3SM 10/10 A3018 RMK T01000100 IEM_DS3505
ZGOW,2001-02-25 20:00,ZGOW 252000Z AUTO 01006KT 4SM 11/10 A3015 RMK T01100100 IEM_DS3505
ZGOW,2001-02-25 21:00,ZGOW 252100Z AUTO 07006KT 7SM 11/09 A3015 RMK 70011 SLP214 T01130089 57010 IEM_DS3505
ZGOW,2001-02-25 22:00,ZGOW 252200Z AUTO 04006KT 6SM 11/10 A3015 RMK T01100100 IEM_DS3505
ZGOW,2001-02-25 23:00,ZGOW 252300Z AUTO 04006KT 7SM 11/10 A3015 RMK T01100100 IEM_DS3505
ZGOW,2001-02-26 00:00,ZGOW 260000Z AUTO 07006KT 9SM 13/09 A3018 RMK 60004 SLP222 T01260092 52008 IEM_DS3505
ZGOW,2001-02-26 01:00,ZGOW 260100Z AUTO 04010KT 6SM 13/11 A3018 RMK T01300110 IEM_DS3505
ZGOW,2001-02-26 02:00,ZGOW 260200Z AUTO 02008KT 7SM 14/11 A3018 RMK T01400110 IEM_DS3505
ZGOW,2001-02-26 03:00,ZGOW 260300Z AUTO 07006KT 11SM 15/10 A3018 RMK SLP223 T01480100 52001 IEM_DS3505
ZGOW,2001-02-26 04:00,ZGOW 260400Z AUTO 06008KT 7SM 15/11 A3015 RMK T01500110 IEM_DS3505
ZGOW,2001-02-26 05:00,ZGOW 260500Z AUTO 07014KT 7SM 15/11 A3012 RMK T01500110 IEM_DS3505
ZGOW,2001-02-26 06:00,ZGOW 260600Z AUTO 09008KT 16SM 17/11 A3009 RMK SLP198 T01710108 57025 IEM_DS3505
ZGOW,2001-02-26 07:00,ZGOW 260700Z AUTO 08014KT 7SM 16/12 A3009 RMK T01600120 IEM_DS3505
ZGOW,2001-02-26 08:00,ZGOW 260800Z AUTO 08012KT 7SM 15/12 A3006 RMK T01500120 IEM_DS3505
ZGOW,2001-02-26 09:00,ZGOW 260900Z AUTO 07006KT 10SM 15/12 A3009 RMK SLP192 T01520115 57006 IEM_DS3505
ZGOW,2001-02-26 10:00,ZGOW 261000Z AUTO 08010KT 7SM 15/12 A3009 RMK T01500120 IEM_DS3505
ZGOW,2001-02-26 11:00,ZGOW 261100Z AUTO 08010KT 7SM 15/12 A3009 RMK T01500120 IEM_DS3505
ZGOW,2001-02-26 12:00,ZGOW 261200Z AUTO 09008KT 10SM 16/11 A3012 RMK 60003 SLP203 T01550114 52011 IEM_DS3505
ZGOW,2001-02-26 13:00,ZGOW 261300Z AUTO 08012KT 7SM 15/13 A3012 RMK T01500130 IEM_DS3505
ZGOW,2001-02-26 14:00,ZGOW 261400Z AUTO 07012KT 7SM 15/13 A3012 RMK T01500130 IEM_DS3505
ZGOW,2001-02-26 15:00,ZGOW 261500Z AUTO 07008KT 9SM 15/12 A3012 RMK SLP210 T01540119 52007 IEM_DS3505
ZGOW,2001-02-26 16:00,ZGOW 261600Z AUTO 07012KT 5SM 15/13 A3012 RMK T01500130 IEM_DS3505
ZGOW,2001-02-26 17:00,ZGOW 261700Z AUTO 06010KT 6SM 15/13 A3012 RMK T01500130 IEM_DS3505
ZGOW,2001-02-26 18:00,ZGOW 261800Z AUTO 04004KT 8SM 16/12 A3012 RMK 60003 SLP212 T01560125 52002 IEM_DS3505
ZGOW,2001-02-26 19:00,ZGOW 261900Z AUTO 05008KT 3SM 15/14 A3012 RMK T01500140 IEM_DS3505
ZGOW,2001-02-26 20:00,ZGOW 262000Z AUTO 05004KT 4SM 15/14 A3012 RMK T01500140 IEM_DS3505
ZGOW,2001-02-26 21:00,ZGOW 262100Z AUTO 04002KT 6SM 15/13 A3009 RMK 70003 SLP200 T01530133 57012 IEM_DS3505
ZGOW,2001-02-26 22:00,ZGOW 262200Z AUTO 36002KT 4SM 15/14 A3012 RMK T01500140 IEM_DS3505
ZGOW,2001-02-26 23:00,ZGOW 262300Z AUTO 36002KT 4SM 15/14 A3012 RMK T01500140 IEM_DS3505
ZGOW,2001-02-27 00:00,ZGOW 270000Z AUTO 27002KT 3SM 16/14 A3015 RMK 60003 SLP211 T01570136 52011 IEM_DS3505
ZGOW,2001-02-27 01:00,ZGOW 270100Z AUTO 35004KT 3SM 16/15 A3015 RMK T01600150 IEM_DS3505
ZGOW,2001-02-27 02:00,ZGOW 270200Z AUTO 02004KT 4SM 19/15 A3015 RMK T01900150 IEM_DS3505
ZGOW,2001-02-27 03:00,ZGOW 270300Z AUTO 04004KT 6SM 20/15 A3012 RMK SLP211 T02040146 54000 IEM_DS3505
ZGOW,2001-02-27 04:00,ZGOW 270400Z AUTO 08008KT 6SM 21/15 A3009 RMK T02100150 IEM_DS3505
ZGOW,2001-02-27 05:00,ZGOW 270500Z AUTO 10002KT 6SM 21/16 A3009 RMK T02100160 IEM_DS3505
ZGOW,2001-02-27 06:00,ZGOW 270600Z AUTO 09006KT 9SM 24/16 A3006 RMK SLP182 T02360155 57029 IEM_DS3505
ZGOW,2001-02-27 07:00,ZGOW 270700Z AUTO 12006KT 6SM 22/16 A3003 RMK T02200160 IEM_DS3505
ZGOW,2001-02-27 08:00,ZGOW 270800Z AUTO 13006KT 6SM 21/16 A3003 RMK T02100160 IEM_DS3505
ZGOW,2001-02-27 09:00,ZGOW 270900Z AUTO 11004KT 7SM 20/14 A3003 RMK SLP177 T02030145 57005 IEM_DS3505
ZGOW,2001-02-27 10:00,ZGOW 271000Z AUTO 13004KT 4SM 18/16 A3003 RMK T01800160 IEM_DS3505
ZGOW,2001-02-27 11:00,ZGOW 271100Z AUTO 13004KT 4SM 17/16 A3006 RMK T01700160 IEM_DS3505
ZGOW,2001-02-27 12:00,ZGOW 271200Z AUTO 09002KT 6SM 18/15 A3006 RMK SLP189 T01850149 52012 IEM_DS3505
ZGOW,2001-02-27 13:00,ZGOW 271300Z AUTO 14004KT 4SM 18/16 A3009 RMK T01800160 IEM_DS3505
ZGOW,2001-02-27 14:00,ZGOW 271400Z AUTO 13002KT 4SM 17/16 A3009 RMK T01700160 IEM_DS3505
ZGOW,2001-02-27 15:00,ZGOW 271500Z AUTO 00000KT 6SM 18/15 A3006 RMK SLP190 T01810152 52001 IEM_DS3505
ZGOW,2001-02-27 16:00,ZGOW 271600Z AUTO 00000KT 3SM 18/16 A3006 RMK T01800160 IEM_DS3505
ZGOW,2001-02-27 17:00,ZGOW 271700Z AUTO 00000KT 3SM 18/16 A3006 RMK T01800160 IEM_DS3505
ZGOW,2001-02-27 18:00,ZGOW 271800Z AUTO 32002KT 6SM 18/16 A3003 RMK SLP178 T01850158 57012 IEM_DS3505
ZGOW,2001-02-27 19:00,ZGOW 271900Z AUTO 00000KT 2SM 18/17 A3003 RMK T01800170 IEM_DS3505
ZGOW,2001-02-27 20:00,ZGOW 272000Z AUTO 00000KT 2 1/2SM 18/17 A3000 RMK T01800170 IEM_DS3505
ZGOW,2001-02-27 21:00,ZGOW 272100Z AUTO 00000KT 4SM 19/17 A3000 RMK SLP169 T01870167 57009 IEM_DS3505
ZGOW,2001-02-27 22:00,ZGOW 272200Z AUTO 00000KT 2 1/2SM 19/17 A3000 RMK T01900170 IEM_DS3505
ZGOW,2001-02-27 23:00,ZGOW 272300Z AUTO 00000KT 2SM 19/17 A3003 RMK T01900170 IEM_DS3505
ZGOW,2001-02-28 00:00,ZGOW 280000Z AUTO 27004KT 2SM 20/17 A3003 RMK SLP177 T01960171 52008 IEM_DS3505
ZGOW,2001-02-28 01:00,ZGOW 280100Z AUTO 27002KT 1 1/2SM 21/18 A3006 RMK T02100180 IEM_DS3505
ZGOW,2001-02-28 02:00,ZGOW 280200Z AUTO 32004KT 1 1/2SM 22/19 A3006 RMK T02200190 IEM_DS3505
ZGOW,2001-02-28 03:00,ZGOW 280300Z AUTO 09004KT 2 1/2SM 23/18 A3003 RMK SLP178 T02340185 52001 IEM_DS3505
ZGOW,2001-02-28 04:00,ZGOW 280400Z AUTO 31008KT 2SM 24/20 A3000 RMK T02400200 IEM_DS3505
ZGOW,2001-02-28 05:00,ZGOW 280500Z AUTO 33010KT 5SM 23/20 A3000 RMK T02300200 IEM_DS3505
ZGOW,2001-02-28 06:00,ZGOW 280600Z AUTO 02004KT 7SM 25/18 A2997 RMK SLP154 T02540185 57024 IEM_DS3505
ZGOW,2001-02-28 07:00,ZGOW 280700Z AUTO 33006KT 6SM 26/20 A2994 RMK T02600200 IEM_DS3505
ZGOW,2001-02-28 08:00,ZGOW 280800Z AUTO 34008KT 6SM 26/19 A2994 RMK T02600190 IEM_DS3505
ZGOW,2001-02-28 09:00,ZGOW 280900Z AUTO 02006KT 9SM 24/17 A2994 RMK SLP142 T02390168 57012 IEM_DS3505
ZGOW,2001-02-28 10:00,ZGOW 281000Z AUTO 33010KT 7SM 22/17 A2997 RMK T02200170 IEM_DS3505
ZGOW,2001-02-28 11:00,ZGOW 281100Z AUTO 32008KT 7SM 22/16 A3000 RMK T02200160 IEM_DS3505
ZGOW,2001-02-28 12:00,ZGOW 281200Z AUTO 02004KT 9SM 20/14 A3003 RMK SLP173 T02040144 52031 IEM_DS3505
ZGOW,2001-02-28 15:00,ZGOW 281500Z AUTO 04006KT 9SM 18/13 RMK SLP190 T01750129 52017 IEM_DS3505
ZGOW,2001-02-28 18:00,ZGOW 281800Z AUTO 02002KT 9SM 16/11 RMK SLP189 T01620110 57001 IEM_DS3505
ZGOW,2001-02-28 21:00,ZGOW 282100Z AUTO 36006KT 9SM 15/09 RMK SLP196 T01460091 52007 IEM_DS3505
ZGOW,2001-02-28 22:00,ZGOW 282200Z AUTO 32008KT 7SM 14/11 A3012 RMK T01400110 IEM_DS3505
ZGOW,2001-02-28 23:00,ZGOW 282300Z AUTO 33010KT 6SM 14/10 A3012 RMK T01400100 IEM_DS3505
ZGOW,2001-03-01 00:00,ZGOW 010000Z AUTO 02006KT 10SM 14/08 A3015 RMK SLP214 T01380084 52018 IEM_DS3505
ZGOW,2001-03-01 01:00,ZGOW 010100Z AUTO 32010KT 6SM 16/10 A3015 RMK T01600100 IEM_DS3505
ZGOW,2001-03-01 02:00,ZGOW 010200Z AUTO 33008KT 7SM 18/11 A3015 RMK T01800110 IEM_DS3505
ZGOW,2001-03-01 03:00,ZGOW 010300Z AUTO 02004KT 12SM 19/09 A3015 RMK SLP211 T01860093 57003 IEM_DS3505
ZGOW,2001-03-01 04:00,ZGOW 010400Z AUTO 09008KT 7SM 20/13 A3012 RMK T02000130 IEM_DS3505
ZGOW,2001-03-01 05:00,ZGOW 010500Z AUTO 10008KT 7SM 21/14 A3009 RMK T02100140 IEM_DS3505
ZGOW,2001-03-01 06:00,ZGOW 010600Z AUTO 20006KT 12SM 20/13 A3009 RMK SLP191 T02040128 57020 IEM_DS3505
ZGOW,2001-03-01 07:00,ZGOW 010700Z AUTO 14010KT 5SM 18/14 A3009 RMK T01800140 IEM_DS3505
ZGOW,2001-03-01 08:00,ZGOW 010800Z AUTO 12010KT 6SM 18/13 A3009 RMK T01800130 IEM_DS3505
ZGOW,2001-03-01 09:00,ZGOW 010900Z AUTO 18006KT 12SM 19/11 A3009 RMK SLP193 T01860106 52002 IEM_DS3505
ZGOW,2001-03-01 10:00,ZGOW 011000Z AUTO 11008KT 6SM 17/13 A3009 RMK T01700130 IEM_DS3505
ZGOW,2001-03-01 11:00,ZGOW 011100Z AUTO 07012KT 6SM 16/09 A3012 RMK T01600090 IEM_DS3505
ZGOW,2001-03-01 12:00,ZGOW 011200Z AUTO 07008KT 10SM 16/09 A3012 RMK SLP210 T01620088 52017 IEM_DS3505
ZGOW,2001-03-01 13:00,ZGOW 011300Z AUTO 10008KT 6SM 15/10 A3015 RMK T01500100 IEM_DS3505
ZGOW,2001-03-01 14:00,ZGOW 011400Z AUTO 09008KT 6SM 15/10 A3015 RMK T01500100 IEM_DS3505
ZGOW,2001-03-01 15:00,ZGOW 011500Z AUTO 09004KT 9SM 16/07 A3015 RMK SLP220 T01570074 52010 IEM_DS3505
ZGOW,2001-03-01 16:00,ZGOW 011600Z AUTO 08012KT 6SM 15/07 A3015 RMK T01500070 IEM_DS3505
ZGOW,2001-03-01 17:00,ZGOW 011700Z AUTO 06008KT 6SM 14/08 A3015 RMK T01400080 IEM_DS3505
ZGOW,2001-03-01 18:00,ZGOW 011800Z AUTO 07006KT 9SM 15/07 A3015 RMK SLP218 T01470072 57002 IEM_DS3505
ZGOW,2001-03-01 19:00,ZGOW 011900Z AUTO 33002KT 6SM 13/09 A3015 RMK T01300090 IEM_DS3505
ZGOW,2001-03-01 20:00,ZGOW 012000Z AUTO 02002KT 6SM 12/10 A3015 RMK T01200100 IEM_DS3505
ZGOW,2001-03-01 21:00,ZGOW 012100Z AUTO 04004KT 7SM 12/09 A3015 RMK SLP217 T01230091 57001 IEM_DS3505
ZGOW,2001-03-01 22:00,ZGOW 012200Z AUTO 04002KT 6SM 12/09 A3015 RMK T01200090 IEM_DS3505
ZGOW,2001-03-01 23:00,ZGOW 012300Z AUTO 06002KT 6SM 11/09 A3015 RMK T01100090 IEM_DS3505
ZGOW,2001-03-02 00:00,ZGOW 020000Z AUTO 36002KT 7SM 14/10 A3018 RMK SLP228 T01360097 52011 IEM_DS3505
ZGOW,2001-03-02 01:00,ZGOW 020100Z AUTO 03008KT 6SM 17/07 A3021 RMK T01700070 IEM_DS3505
ZGOW,2001-03-02 02:00,ZGOW 020200Z AUTO 05010KT 6SM 19/06 A3018 RMK T01900060 IEM_DS3505
ZGOW,2001-03-02 03:00,ZGOW 020300Z AUTO 07010KT 9SM 19/05 A3018 RMK SLP224 T01940053 57004 IEM_DS3505
ZGOW,2001-03-02 05:00,ZGOW 020500Z AUTO 07016KT 7SM 20/09 A3012 RMK T02000090 IEM_DS3505
ZGOW,2001-03-02 06:00,ZGOW 020600Z AUTO 09008KT 9SM 20/08 A3009 RMK SLP192 T01960080 57032 IEM_DS3505
ZGOW,2001-03-02 07:00,ZGOW 020700Z AUTO 08008KT 7SM 19/11 A3006 RMK T01900110 IEM_DS3505
ZGOW,2001-03-02 08:00,ZGOW 020800Z AUTO 08006KT 7SM 19/10 A3006 RMK T01900100 IEM_DS3505
ZGOW,2001-03-02 09:00,ZGOW 020900Z AUTO 04004KT 7SM 19/11 A3006 RMK SLP185 T01870108 57007 IEM_DS3505
ZGOW,2001-03-02 10:00,ZGOW 021000Z AUTO 08010KT 4SM 17/12 A3006 RMK T01700120 IEM_DS3505
ZGOW,2001-03-02 11:00,ZGOW 021100Z AUTO 08008KT 4SM 17/12 A3006 RMK T01700120 IEM_DS3505
ZGOW,2001-03-02 12:00,ZGOW 021200Z AUTO 07008KT 6SM 18/10 A3009 RMK SLP193 T01770104 52008 IEM_DS3505
ZGOW,2001-03-02 13:00,ZGOW 021300Z AUTO 07012KT 7SM 17/12 A3009 RMK T01700120 IEM_DS3505
ZGOW,2001-03-02 14:00,ZGOW 021400Z AUTO 07012KT 7SM 16/12 A3012 RMK T01600120 IEM_DS3505
ZGOW,2001-03-02 15:00,ZGOW 021500Z AUTO 07008KT 6SM 17/11 A3012 RMK SLP206 T01670107 52013 IEM_DS3505
ZGOW,2001-03-02 16:00,ZGOW 021600Z AUTO 07010KT 6SM 16/12 A3012 RMK T01600120 IEM_DS3505
ZGOW,2001-03-02 17:00,ZGOW 021700Z AUTO 07006KT 6SM 16/12 A3012 RMK T01600120 IEM_DS3505
ZGOW,2001-03-02 18:00,ZGOW 021800Z AUTO 11002KT 6SM 16/11 A3009 RMK SLP198 T01650109 57008 IEM_DS3505
ZGOW,2001-03-02 19:00,ZGOW 021900Z AUTO 07006KT 6SM 16/13 A3009 RMK T01600130 IEM_DS3505
ZGOW,2001-03-02 20:00,ZGOW 022000Z AUTO 05004KT 4SM 16/13 A3009 RMK T01600130 IEM_DS3505
ZGOW,2001-03-02 21:00,ZGOW 022100Z AUTO 04002KT 6SM 16/12 A3009 RMK SLP200 T01640122 52002 IEM_DS3505
ZGOW,2001-03-02 22:00,ZGOW 022200Z AUTO 04002KT 4SM 16/14 A3012 RMK T01600140 IEM_DS3505
ZGOW,2001-03-02 23:00,ZGOW 022300Z AUTO 07002KT 4SM 16/13 A3012 RMK T01600130 IEM_DS3505
ZGOW,2001-03-03 00:00,ZGOW 030000Z AUTO 04004KT 6SM 17/12 A3015 RMK SLP213 T01690120 52013 IEM_DS3505
ZGOW,2001-03-03 01:00,ZGOW 030100Z AUTO 08004KT 4SM 18/13 A3015 RMK T01800130 IEM_DS3505
ZGOW,2001-03-03 02:00,ZGOW 030200Z AUTO 11002KT 6SM 19/13 A3012 RMK T01900130 IEM_DS3505
ZGOW,2001-03-03 03:00,ZGOW 030300Z AUTO 02002KT 6SM 21/13 A3012 RMK SLP205 T02100129 57008 IEM_DS3505
ZGOW,2001-03-03 04:00,ZGOW 030400Z AUTO 34004KT 3SM 21/14 A3009 RMK T02100140 IEM_DS3505
ZGOW,2001-03-03 05:00,ZGOW 030500Z AUTO 32004KT 3SM 22/15 A3006 RMK T02200150 IEM_DS3505
ZGOW,2001-03-03 06:00,ZGOW 030600Z AUTO 18002KT 2 1/2SM 24/15 A3003 RMK SLP170 T02430146 57035 IEM_DS3505
ZGOW,2001-03-03 07:00,ZGOW 030700Z AUTO 33010KT 2 1/2SM 22/16 A3003 RMK T02200160 IEM_DS3505
ZGOW,2001-03-03 08:00,ZGOW 030800Z AUTO 34008KT 2 1/2SM 20/16 A3003 RMK T02000160 IEM_DS3505
ZGOW,2001-03-03 09:00,ZGOW 030900Z AUTO 34006KT 3SM 21/14 A3003 RMK SLP173 T02060139 52003 IEM_DS3505
ZGOW,2001-03-03 10:00,ZGOW 031000Z AUTO 32008KT 2 1/2SM 20/15 A3003 RMK T02000150 IEM_DS3505
ZGOW,2001-03-03 11:00,ZGOW 031100Z AUTO 32008KT 20/14 A3006 RMK T02000140 IEM_DS3505
ZGOW,2001-03-03 12:00,ZGOW 031200Z AUTO 02006KT 5SM 20/12 A3009 RMK SLP194 T02020118 52021 IEM_DS3505
ZGOW,2001-03-03 13:00,ZGOW 031300Z AUTO 32008KT 5SM 20/13 A3012 RMK T02000130 IEM_DS3505
ZGOW,2001-03-03 14:00,ZGOW 031400Z AUTO 31006KT 5SM 19/12 A3012 RMK T01900120 IEM_DS3505
ZGOW,2001-03-03 15:00,ZGOW 031500Z AUTO 04006KT 7SM 19/10 A3012 RMK SLP211 T01860097 52017 IEM_DS3505
ZGOW,2001-03-03 16:01,ZGOW 031601Z AUTO 32012KT 6SM 18/10 A3015 RMK T01800100 IEM_DS3505
ZGOW,2001-03-03 17:01,ZGOW 031701Z AUTO 34006KT 6SM 18/10 A3015 RMK T01800100 IEM_DS3505
ZGOW,2001-03-03 18:00,ZGOW 031800Z AUTO 02006KT 7SM 17/07 A3015 RMK SLP210 T01720072 57001 IEM_DS3505
ZGOW,2001-03-03 19:00,ZGOW 031900Z AUTO 34004KT 6SM 16/09 A3015 RMK T01600090 IEM_DS3505
ZGOW,2001-03-03 20:00,ZGOW 032000Z AUTO 32004KT 6SM 15/09 A3015 RMK T01500090 IEM_DS3505
ZGOW,2001-03-03 21:00,ZGOW 032100Z AUTO 36004KT 7SM 15/06 A3015 RMK SLP216 T01480065 52006 IEM_DS3505
ZGOW,2001-03-03 22:00,ZGOW 032200Z AUTO 34006KT 6SM 14/08 A3018 RMK T01400080 IEM_DS3505
ZGOW,2001-03-03 23:00,ZGOW 032300Z AUTO 34002KT 6SM 14/07 A3018 RMK T01400070 IEM_DS3505
ZGOW,2001-03-04 00:00,ZGOW 040000Z AUTO 34004KT 7SM 16/06 A3021 RMK SLP231 T01600058 52015 IEM_DS3505
ZGOW,2001-03-04 01:00,ZGOW 040100Z AUTO 33002KT 6SM 18/06 A3021 RMK T01800060 IEM_DS3505
ZGOW,2001-03-04 02:00,ZGOW 040200Z AUTO 05006KT 6SM 21/04 A3021 RMK T02100040 IEM_DS3505
ZGOW,2001-03-04 03:00,ZGOW 040300Z AUTO 07008KT 10SM 23/M04 A3021 RMK SLP228 T02271037 57003 IEM_DS3505
ZGOW,2001-03-04 04:00,ZGOW 040400Z AUTO 08010KT 6SM 22/M02 A3018 RMK T02201020 IEM_DS3505
ZGOW,2001-03-04 05:00,ZGOW 040500Z AUTO 11008KT 6SM 23/01 A3015 RMK T02300010 IEM_DS3505
ZGOW,2001-03-04 06:00,ZGOW 040600Z AUTO 14006KT 9SM 22/01 A3012 RMK SLP200 T02190009 57028 IEM_DS3505
ZGOW,2001-03-04 07:00,ZGOW 040700Z AUTO 13010KT 6SM 21/06 A3009 RMK T02100060 IEM_DS3505
ZGOW,2001-03-04 08:00,ZGOW 040800Z AUTO 13010KT 6SM 20/08 A3006 RMK T02000080 IEM_DS3505
ZGOW,2001-03-04 09:00,ZGOW 040900Z AUTO 16006KT 9SM 19/06 A3006 RMK SLP184 T01920058 57016 IEM_DS3505
ZGOW,2001-03-04 10:00,ZGOW 041000Z AUTO 13006KT 6SM 17/11 A3006 RMK T01700110 IEM_DS3505
ZGOW,2001-03-04 11:00,ZGOW 041100Z AUTO 13004KT 6SM 16/11 A3006 RMK T01600110 IEM_DS3505
ZGOW,2001-03-04 12:00,ZGOW 041200Z AUTO 11004KT 9SM 17/08 A3009 RMK SLP192 T01670085 52008 IEM_DS3505
ZGOW,2001-03-04 13:00,ZGOW 041300Z AUTO 00000KT 6SM 14/10 A3009 RMK T01400100 IEM_DS3505
ZGOW,2001-03-04 14:00,ZGOW 041400Z AUTO 03004KT 6SM 14/09 A3009 RMK T01400090 IEM_DS3505
ZGOW,2001-03-04 15:00,ZGOW 041500Z AUTO 04004KT 9SM 14/09 RMK SLP202 T01430088 52010 IEM_DS3505
ZGOW,2001-03-04 15:01,ZGOW 041501Z AUTO 06004KT 4SM 12/10 A3012 RMK T01200100 IEM_DS3505
ZGOW,2001-03-04 16:00,ZGOW 041600Z AUTO 00000KT 6SM 14/10 A3012 RMK T01400100 IEM_DS3505
ZGOW,2001-03-04 17:01,ZGOW 041701Z AUTO 02002KT 6SM 13/10 A3012 RMK T01300100 IEM_DS3505
ZGOW,2001-03-04 18:00,ZGOW 041800Z AUTO 04004KT 7SM 13/09 A3012 RMK SLP202 T01340090 54000 IEM_DS3505
ZGOW,2001-03-04 19:01,ZGOW 041901Z AUTO 03004KT 6SM 12/07 A3012 RMK T01200070 IEM_DS3505
ZGOW,2001-03-04 20:00,ZGOW 042000Z AUTO 03006KT 6SM 11/07 A3012 RMK T01100070 IEM_DS3505
ZGOW,2001-03-04 21:00,ZGOW 042100Z AUTO 04004KT 9SM 13/07 A3012 RMK SLP199 T01300072 57003 IEM_DS3505
ZGOW,2001-03-04 22:00,ZGOW 042200Z AUTO 03006KT 6SM 11/06 A3012 RMK T01100060 IEM_DS3505
ZGOW,2001-03-04 23:00,ZGOW 042300Z AUTO 04006KT 6SM 10/07 A3012 RMK T01000070 IEM_DS3505
ZGOW,2001-03-05 00:00,ZGOW 050000Z AUTO 04004KT 9SM 15/07 A3012 RMK SLP212 T01480068 52013 IEM_DS3505
ZGOW,2001-03-05 01:00,ZGOW 050100Z AUTO 03008KT 6SM 17/06 A3015 RMK T01700060 IEM_DS3505
ZGOW,2001-03-05 02:00,ZGOW 050200Z AUTO 06010KT 7SM 18/06 A3015 RMK T01800060 IEM_DS3505
ZGOW,2001-03-05 03:00,ZGOW 050300Z AUTO 07010KT 11SM 21/03 A3012 RMK SLP209 T02080033 57003 IEM_DS3505
ZGOW,2001-03-05 04:00,ZGOW 050400Z AUTO 10010KT 7SM 21/06 A3012 RMK T02100060 IEM_DS3505
ZGOW,2001-03-05 05:00,ZGOW 050500Z AUTO 09006KT 7SM 21/06 A3009 RMK T02100060 IEM_DS3505
ZGOW,2001-03-05 06:00,ZGOW 050600Z AUTO 22004KT 11SM 22/07 A3006 RMK SLP179 T02150074 57030 IEM_DS3505
ZGOW,2001-03-05 07:00,ZGOW 050700Z AUTO 05004KT 6SM 22/07 A3003 RMK T02200070 IEM_DS3505
ZGOW,2001-03-05 08:00,ZGOW 050800Z AUTO 10004KT 6SM 22/09 RMK T02200090 IEM_DS3505
ZGOW,2001-03-05 09:00,ZGOW 050900Z AUTO 11004KT 10SM 21/08 A3000 RMK SLP164 T02070078 57015 IEM_DS3505
ZGOW,2001-03-05 10:00,ZGOW 051000Z AUTO 13006KT 7SM 18/11 A3000 RMK T01800110 IEM_DS3505
ZGOW,2001-03-05 12:00,ZGOW 051200Z AUTO 09002KT 7SM 18/09 A3003 RMK SLP177 T01810094 52013 IEM_DS3505
ZGOW,2001-03-05 13:00,ZGOW 051300Z AUTO 13002KT 7SM 17/13 A3006 RMK T01700130 IEM_DS3505
ZGOW,2001-03-05 14:00,ZGOW 051400Z AUTO 04002KT 6SM 16/13 A3006 RMK T01600130 IEM_DS3505
ZGOW,2001-03-05 15:00,ZGOW 051500Z AUTO 04004KT 7SM 18/10 RMK SLP184 T01790096 52007 IEM_DS3505
ZGOW,2001-03-05 18:00,ZGOW 051800Z AUTO 04004KT 7SM 18/11 RMK SLP180 T01760114 57004 IEM_DS3505
ZGOW,2001-03-05 19:00,ZGOW 051900Z AUTO 04002KT 5SM 17/13 A3003 RMK T01700130 IEM_DS3505
ZGOW,2001-03-05 20:00,ZGOW 052000Z AUTO 35002KT 6SM 17/12 A3003 RMK T01700120 IEM_DS3505
ZGOW,2001-03-05 21:00,ZGOW 052100Z AUTO 27002KT 7SM 18/11 A3003 RMK SLP174 T01760109 57006 IEM_DS3505
ZGOW,2001-03-05 22:00,ZGOW 052200Z AUTO 00000KT 4SM 17/12 A3003 RMK T01700120 IEM_DS3505
ZGOW,2001-03-05 23:00,ZGOW 052300Z AUTO 00000KT 3SM 17/13 A3006 RMK T01700130 IEM_DS3505
ZGOW,2001-03-06 00:00,ZGOW 060000Z AUTO 00000KT 6SM 18/12 A3006 RMK SLP187 T01780122 52013 IEM_DS3505
ZGOW,2001-03-06 01:00,ZGOW 060100Z AUTO 08004KT 3SM 19/13 A3006 RMK T01900130 IEM_DS3505
ZGOW,2001-03-06 02:00,ZGOW 060200Z AUTO 07008KT 6SM 21/14 A3009 RMK T02100140 IEM_DS3505
ZGOW,2001-03-06 03:00,ZGOW 060300Z AUTO 16004KT 5SM 23/12 A3006 RMK SLP187 T02290124 54000 IEM_DS3505
ZGOW,2001-03-06 04:00,ZGOW 060400Z AUTO 13006KT 6SM 22/14 A3003 RMK T02200140 IEM_DS3505
ZGOW,2001-03-06 05:00,ZGOW 060500Z AUTO 14006KT 6SM 23/16 A3000 RMK T02300160 IEM_DS3505
ZGOW,2001-03-06 06:00,ZGOW 060600Z AUTO 20004KT 7SM 24/15 A2997 RMK SLP158 T02380152 57029 IEM_DS3505
ZGOW,2001-03-06 07:00,ZGOW 060700Z AUTO 12004KT 6SM 23/16 A2997 RMK T02300160 IEM_DS3505
ZGOW,2001-03-06 08:00,ZGOW 060800Z AUTO 12006KT 6SM 23/16 A2994 RMK T02300160 IEM_DS3505
ZGOW,2001-03-06 09:00,ZGOW 060900Z AUTO 18004KT 7SM 23/15 A2994 RMK SLP143 T02310151 57015 IEM_DS3505
ZGOW,2001-03-06 10:00,ZGOW 061000Z AUTO 13004KT 6SM 21/16 A2994 RMK T02100160 IEM_DS3505
ZGOW,2001-03-06 11:00,ZGOW 061100Z AUTO 13002KT 6SM 20/16 A2994 RMK T02000160 IEM_DS3505
ZGOW,2001-03-06 12:00,ZGOW 061200Z AUTO 20002KT 7SM 20/16 A2997 RMK SLP157 T01990161 52014 IEM_DS3505
ZGOW,2001-03-06 13:00,ZGOW 061300Z AUTO 00000KT 6SM 19/16 A3000 RMK T01900160 IEM_DS3505
ZGOW,2001-03-06 14:00,ZGOW 061400Z AUTO 00000KT 6SM 19/16 A3000 RMK T01900160 IEM_DS3505
ZGOW,2001-03-06 15:00,ZGOW 061500Z AUTO 04002KT 7SM 19/16 A3003 RMK SLP170 T01920157 52013 IEM_DS3505
ZGOW,2001-03-06 16:00,ZGOW 061600Z AUTO 00000KT 1 1/2SM 19/17 A3000 RMK T01900170 IEM_DS3505
ZGOW,2001-03-06 17:00,ZGOW 061700Z AUTO 00000KT 2 1/2SM 18/16 A3000 RMK T01800160 IEM_DS3505
ZGOW,2001-03-06 18:00,ZGOW 061800Z AUTO 02002KT 6SM 18/16 A2997 RMK SLP160 T01820160 57010 IEM_DS3505
ZGOW,2001-03-06 19:00,ZGOW 061900Z AUTO 00000KT 1 1/2SM 17/16 A2997 RMK T01700160 IEM_DS3505
ZGOW,2001-03-06 20:00,ZGOW 062000Z AUTO 00000KT 1 1/2SM 17/16 A2994 RMK T01700160 IEM_DS3505
ZGOW,2001-03-06 21:00,ZGOW 062100Z AUTO 00000KT 5SM 17/16 A2994 RMK SLP147 T01690157 57013 IEM_DS3505
ZGOW,2001-03-06 22:00,ZGOW 062200Z AUTO 32004KT 1 1/2SM 18/17 A2997 RMK T01800170 IEM_DS3505
ZGOW,2001-03-06 23:00,ZGOW 062300Z AUTO 00000KT 1 1/2SM 17/17 A3000 RMK T01700170 IEM_DS3505
ZGOW,2001-03-07 00:00,ZGOW 070000Z AUTO 00000KT 5SM 19/17 A3000 RMK SLP169 T01920172 52022 IEM_DS3505
ZGOW,2001-03-07 01:00,ZGOW 070100Z AUTO 34002KT 2SM 20/18 A3003 RMK T02000180 IEM_DS3505
ZGOW,2001-03-07 02:00,ZGOW 070200Z AUTO 01004KT 2SM 22/19 A3006 RMK T02200190 IEM_DS3505
ZGOW,2001-03-07 03:00,ZGOW 070300Z AUTO 35002KT 2 1/2SM 23/19 A3006 RMK T02300190 IEM_DS3505
ZGOW,2001-03-07 04:00,ZGOW 070400Z AUTO 08012KT 2 1/2SM 19/16 A3006 RMK T01900160 IEM_DS3505
ZGOW,2001-03-07 05:00,ZGOW 070500Z AUTO 07016KT 2 1/2SM 20/16 A3003 RMK T02000160 IEM_DS3505
ZGOW,2001-03-07 06:00,ZGOW 070600Z AUTO 07008KT 4SM 20/14 A3003 RMK SLP174 T01960143 57008 IEM_DS3505
ZGOW,2001-03-07 07:00,ZGOW 070700Z AUTO 07023G33KT 4SM 17/14 A3000 RMK T01700140 IEM_DS3505
ZGOW,2001-03-07 08:00,ZGOW 070800Z AUTO 08025KT 4SM 16/13 A3000 RMK T01600130 IEM_DS3505
ZGOW,2001-03-07 09:00,ZGOW 070900Z AUTO 07014G39KT 6SM 16/12 A3003 RMK SLP179 T01600116 52005 IEM_DS3505
ZGOW,2001-03-07 10:00,ZGOW 071000Z AUTO 08025G37KT 7SM 15/12 A3006 RMK T01500120 IEM_DS3505
ZGOW,2001-03-07 11:00,ZGOW 071100Z AUTO 07021G33KT 7SM 15/12 A3006 RMK T01500120 IEM_DS3505
ZGOW,2001-03-07 12:00,ZGOW 071200Z AUTO 07010G33KT 4SM 14/12 A3009 RMK 60003 SLP204 T01380117 52025 IEM_DS3505
ZGOW,2001-03-07 13:00,ZGOW 071300Z AUTO 07023G33KT 7SM 14/11 A3012 RMK T01400110 IEM_DS3505
ZGOW,2001-03-07 14:00,ZGOW 071400Z AUTO 07017KT 6SM 14/11 A3015 RMK T01400110 IEM_DS3505
ZGOW,2001-03-07 15:00,ZGOW 071500Z AUTO 07010KT 6SM 15/09 A3015 RMK SLP219 T01460093 52015 IEM_DS3505
ZGOW,2001-03-07 16:00,ZGOW 071600Z AUTO 07016KT 6SM 15/10 A3015 RMK T01500100 IEM_DS3505
ZGOW,2001-03-07 17:00,ZGOW 071700Z AUTO 07014KT 6SM 15/10 A3015 RMK T01500100 IEM_DS3505
ZGOW,2001-03-07 18:00,ZGOW 071800Z AUTO 07010KT 9SM 14/09 A3015 RMK 60000 SLP212 T01430094 57007 IEM_DS3505
ZGOW,2001-03-07 19:00,ZGOW 071900Z AUTO 07014KT 6SM 13/10 A3012 RMK T01300100 IEM_DS3505
ZGOW,2001-03-07 20:00,ZGOW 072000Z AUTO 07012KT 6SM 14/10 A3015 RMK T01400100 IEM_DS3505
ZGOW,2001-03-07 21:00,ZGOW 072100Z AUTO 09006KT 9SM 14/09 A3015 RMK 70004 SLP217 T01390094 52005 IEM_DS3505
ZGOW,2001-03-07 22:00,ZGOW 072200Z AUTO 07012KT 7SM 14/11 A3018 RMK T01400110 IEM_DS3505
ZGOW,2001-03-07 23:00,ZGOW 072300Z AUTO 08010KT 7SM 14/11 A3021 RMK T01400110 IEM_DS3505
ZGOW,2001-03-08 00:00,ZGOW 080000Z AUTO 09006KT 8SM 14/10 A3024 RMK 60003 SLP243 T01400099 52026 IEM_DS3505
ZGOW,2001-03-08 01:00,ZGOW 080100Z AUTO 07014KT 7SM 13/11 A3027 RMK T01300110 IEM_DS3505
ZGOW,2001-03-08 02:00,ZGOW 080200Z AUTO 07012KT 4SM 13/12 A3030 RMK T01300120 IEM_DS3505
ZGOW,2001-03-08 03:00,ZGOW 080300Z AUTO 09006KT 7SM 13/11 A3030 RMK SLP269 T01340107 52026 IEM_DS3505
ZGOW,2001-03-08 04:00,ZGOW 080400Z AUTO 08010KT 7SM 14/12 A3027 RMK T01400120 IEM_DS3505
ZGOW,2001-03-08 05:00,ZGOW 080500Z AUTO 07012KT 7SM 15/12 A3024 RMK T01500120 IEM_DS3505
ZGOW,2001-03-08 06:00,ZGOW 080600Z AUTO 04006KT 11SM 16/11 A3021 RMK 60000 SLP236 T01550110 57033 IEM_DS3505
ZGOW,2001-03-08 07:00,ZGOW 080700Z AUTO 08010KT 6SM 15/12 A3018 RMK T01500120 IEM_DS3505
ZGOW,2001-03-08 08:00,ZGOW 080800Z AUTO 08010KT 7SM 15/12 A3021 RMK T01500120 IEM_DS3505
ZGOW,2001-03-08 09:00,ZGOW 080900Z AUTO 04006KT 8SM 15/10 A3021 RMK SLP229 T01510105 57007 IEM_DS3505
ZGOW,2001-03-08 10:00,ZGOW 081000Z AUTO 08010KT 7SM 14/11 A3021 RMK T01400110 IEM_DS3505
ZGOW,2001-03-08 11:00,ZGOW 081100Z AUTO 08010KT 6SM 14/10 A3021 RMK T01400100 IEM_DS3505
ZGOW,2001-03-08 12:00,ZGOW 081200Z AUTO 09006KT 8SM 14/09 A3024 RMK SLP247 T01400091 52018 IEM_DS3505
ZGOW,2001-03-08 13:00,ZGOW 081300Z AUTO 07010KT 6SM 13/10 A3027 RMK T01300100 IEM_DS3505
ZGOW,2001-03-08 14:00,ZGOW 081400Z AUTO 07012KT 6SM 13/10 A3027 RMK T01300100 IEM_DS3505
ZGOW,2001-03-08 15:00,ZGOW 081500Z AUTO 09002KT 8SM 13/10 RMK SLP250 T01320095 52003 IEM_DS3505
ZGOW,2001-03-08 18:00,ZGOW 081800Z AUTO 04004KT 7SM 13/09 RMK SLP247 T01290089 57003 IEM_DS3505
ZGOW,2001-03-08 21:00,ZGOW 082100Z AUTO 09006KT 7SM 13/08 RMK 70001 SLP236 T01260084 57011 IEM_DS3505
ZGOW,2001-03-09 00:00,ZGOW 090000Z AUTO 09008KT 7SM 13/07 A3027 RMK 70001 SLP250 T01280067 52014 IEM_DS3505
ZGOW,2001-03-09 01:00,ZGOW 090100Z AUTO 07017KT 6SM 14/07 A3027 RMK T01400070 IEM_DS3505
ZGOW,2001-03-09 02:00,ZGOW 090200Z AUTO 08017KT 6SM 14/07 A3027 RMK T01400070 IEM_DS3505
ZGOW,2001-03-09 03:00,ZGOW 090300Z AUTO 07012KT 8SM 16/05 A3027 RMK SLP249 T01550046 57001 IEM_DS3505
ZGOW,2001-03-09 04:00,ZGOW 090400Z AUTO 08016KT 6SM 16/06 A3024 RMK T01600060 IEM_DS3505
ZGOW,2001-03-09 05:00,ZGOW 090500Z AUTO 08014KT 6SM 16/07 A3021 RMK T01600070 IEM_DS3505
ZGOW,2001-03-09 06:00,ZGOW 090600Z AUTO 11006KT 7SM 17/05 A3018 RMK SLP227 T01660050 57022 IEM_DS3505
ZGOW,2001-03-09 07:00,ZGOW 090700Z AUTO 08012KT 6SM 17/07 A3015 RMK T01700070 IEM_DS3505
ZGOW,2001-03-09 08:00,ZGOW 090800Z AUTO 08010KT 6SM 17/08 A3015 RMK T01700080 IEM_DS3505
ZGOW,2001-03-09 09:00,ZGOW 090900Z AUTO 09004KT 8SM 17/07 A3015 RMK SLP214 T01660071 57013 IEM_DS3505
ZGOW,2001-03-09 10:00,ZGOW 091000Z AUTO 08010KT 6SM 15/09 A3015 RMK T01500090 IEM_DS3505
ZGOW,2001-03-09 11:00,ZGOW 091100Z AUTO 08008KT 6SM 15/10 A3015 RMK T01500100 IEM_DS3505
ZGOW,2001-03-09 12:00,ZGOW 091200Z AUTO 07006KT 8SM 15/09 A3018 RMK SLP226 T01520089 52012 IEM_DS3505
ZGOW,2001-03-09 13:00,ZGOW 091300Z AUTO 06010KT 7SM 15/10 A3018 RMK T01500100 IEM_DS3505
ZGOW,2001-03-09 14:00,ZGOW 091400Z AUTO 06012KT 7SM 15/11 A3021 RMK T01500110 IEM_DS3505
ZGOW,2001-03-09 15:00,ZGOW 091500Z AUTO 07008KT 8SM 15/10 A3021 RMK SLP232 T01500098 52006 IEM_DS3505
ZGOW,2001-03-09 16:00,ZGOW 091600Z AUTO 06012KT 4SM 14/11 A3018 RMK T01400110 IEM_DS3505
ZGOW,2001-03-09 17:00,ZGOW 091700Z AUTO 07008KT 4SM 14/11 A3018 RMK T01400110 IEM_DS3505
ZGOW,2001-03-09 18:00,ZGOW 091800Z AUTO 07006KT 7SM 15/10 A3015 RMK SLP216 T01470105 57016 IEM_DS3505
ZGOW,2001-03-09 19:00,ZGOW 091900Z AUTO 06008KT 3SM 14/11 A3015 RMK T01400110 IEM_DS3505
ZGOW,2001-03-09 20:00,ZGOW 092000Z AUTO 04006KT 3SM 14/11 A3015 RMK T01400110 IEM_DS3505
ZGOW,2001-03-09 21:00,ZGOW 092100Z AUTO 07004KT 6SM 14/10 A3015 RMK 70003 SLP210 T01430103 57006 IEM_DS3505
ZGOW,2001-03-09 22:00,ZGOW 092200Z AUTO 03004KT 4SM 14/11 A3015 RMK T01400110 IEM_DS3505
ZGOW,2001-03-09 23:00,ZGOW 092300Z AUTO 04004KT 3SM 14/11 A3015 RMK T01400110 IEM_DS3505
ZGOW,2001-03-10 00:00,ZGOW 100000Z AUTO 09004KT 3SM 15/09 A3018 RMK 60003 SLP224 T01480091 52014 IEM_DS3505
ZGOW,2001-03-10 01:00,ZGOW 100100Z AUTO 05006KT 4SM 15/11 A3018 RMK T01500110 IEM_DS3505
ZGOW,2001-03-10 02:00,ZGOW 100200Z AUTO 06008KT 7SM 15/10 A3018 RMK T01500100 IEM_DS3505
ZGOW,2001-03-10 03:00,ZGOW 100300Z AUTO 07008KT 5SM 16/08 A3015 RMK SLP219 T01570084 57005 IEM_DS3505
ZGOW,2001-03-10 04:00,ZGOW 100400Z AUTO 03008KT 7SM 16/10 A3018 RMK T01600100 IEM_DS3505
ZGOW,2001-03-10 05:00,ZGOW 100500Z AUTO 02008KT 16/09 A3015 RMK T01600090 IEM_DS3505
ZGOW,2001-03-10 06:00,ZGOW 100600Z AUTO 07004KT 6SM 16/10 A3012 RMK 60003 SLP202 T01590098 57017 IEM_DS3505
ZGOW,2001-03-10 07:00,ZGOW 100700Z AUTO 00000KT 4SM 16/11 A3009 RMK T01600110 IEM_DS3505
ZGOW,2001-03-10 08:00,ZGOW 100800Z AUTO 01002KT 2 1/2SM 16/12 A3009 RMK T01600120 IEM_DS3505
ZGOW,2001-03-10 09:00,ZGOW 100900Z AUTO 04004KT 4SM 16/11 A3009 RMK SLP197 T01640112 57005 IEM_DS3505
ZGOW,2001-03-10 10:00,ZGOW 101000Z AUTO 02002KT 2SM 16/12 A3009 RMK T01600120 IEM_DS3505
ZGOW,2001-03-10 11:00,ZGOW 101100Z AUTO 00000KT 1 1/2SM 15/13 A3009 RMK T01500130 IEM_DS3505
ZGOW,2001-03-10 12:00,ZGOW 101200Z AUTO 04002KT 3SM 16/12 A3012 RMK 60003 SLP199 T01600124 52002 IEM_DS3505
ZGOW,2001-03-10 13:00,ZGOW 101300Z AUTO 07002KT 2SM 15/13 A3012 RMK T01500130 IEM_DS3505
ZGOW,2001-03-10 14:00,ZGOW 101400Z AUTO 06002KT 2 1/2SM 15/13 A3012 RMK T01500130 IEM_DS3505
ZGOW,2001-03-10 15:00,ZGOW 101500Z AUTO 07004KT 6SM 15/11 A3012 RMK SLP207 T01540111 52008 IEM_DS3505
ZGOW,2001-03-10 16:00,ZGOW 101600Z AUTO 06010KT 3SM 15/13 A3012 RMK T01500130 IEM_DS3505
ZGOW,2001-03-10 17:00,ZGOW 101700Z AUTO 06006KT 2SM 14/13 A3009 RMK T01400130 IEM_DS3505
ZGOW,2001-03-10 18:00,ZGOW 101800Z AUTO 02004KT 7SM 15/12 A3009 RMK 60003 SLP202 T01500124 57005 IEM_DS3505
ZGOW,2001-03-10 19:00,ZGOW 101900Z AUTO 04004KT 1 1/2SM 14/13 A3009 RMK T01400130 IEM_DS3505
ZGOW,2001-03-10 20:00,ZGOW 102000Z AUTO 02004KT 1 1/2SM 14/13 A3009 RMK T01400130 IEM_DS3505
ZGOW,2001-03-10 21:00,ZGOW 102100Z AUTO 04002KT 4SM 15/12 A3009 RMK 70000 SLP197 T01480124 57005 IEM_DS3505
ZGOW,2001-03-10 22:00,ZGOW 102200Z AUTO 00000KT 2SM 14/14 A3009 RMK T01400140 IEM_DS3505
ZGOW,2001-03-10 23:00,ZGOW 102300Z AUTO 03002KT 1SM 14/14 A3009 RMK T01400140 IEM_DS3505
ZGOW,2001-03-11 00:00,ZGOW 110000Z AUTO 02002KT 3SM 15/13 A3012 RMK 60002 SLP208 T01510131 52011 IEM_DS3505
ZGOW,2001-03-11 01:00,ZGOW 110100Z AUTO 07002KT 2SM 15/14 A3012 RMK T01500140 IEM_DS3505
ZGOW,2001-03-11 02:00,ZGOW 110200Z AUTO 03004KT 2SM 16/14 A3015 RMK T01600140 IEM_DS3505
ZGOW,2001-03-11 03:00,ZGOW 110300Z AUTO 04004KT 3SM 17/14 A3012 RMK SLP213 T01700136 52005 IEM_DS3505
ZGOW,2001-03-11 04:00,ZGOW 110400Z AUTO 04004KT 2 1/2SM 17/15 A3012 RMK T01700150 IEM_DS3505
ZGOW,2001-03-11 05:00,ZGOW 110500Z AUTO 04006KT 2 1/2SM 18/15 A3006 RMK T01800150 IEM_DS3505
ZGOW,2001-03-11 06:00,ZGOW 110600Z AUTO 02004KT 2 1/2SM 20/15 A3006 RMK 60003 SLP179 T01960150 57034 IEM_DS3505
ZGOW,2001-03-11 07:00,ZGOW 110700Z AUTO 08004KT 2 1/2SM 18/15 A3003 RMK T01800150 IEM_DS3505
ZGOW,2001-03-11 09:00,ZGOW 110900Z AUTO 09006KT 3SM 17/14 A3003 RMK SLP179 T01720139 54000 IEM_DS3505
ZGOW,2001-03-11 10:00,ZGOW 111000Z AUTO 06008KT 2 1/2SM 16/15 A3006 RMK T01600150 IEM_DS3505
ZGOW,2001-03-11 11:00,ZGOW 111100Z AUTO 07006KT 2 1/2SM 16/14 A3006 RMK T01600140 IEM_DS3505
ZGOW,2001-03-11 12:00,ZGOW 111200Z AUTO 07004KT 2SM 16/14 A3009 RMK 60000 SLP190 T01620139 52011 IEM_DS3505
ZGOW,2001-03-11 13:00,ZGOW 111300Z AUTO 06006KT 2SM 16/15 A3009 RMK T01600150 IEM_DS3505
ZGOW,2001-03-11 14:00,ZGOW 111400Z AUTO 08006KT 1 1/2SM 15/15 A3012 RMK T01500150 IEM_DS3505
ZGOW,2001-03-11 15:00,ZGOW 111500Z AUTO 09002KT 2SM 16/14 A3012 RMK SLP204 T01560144 52014 IEM_DS3505
ZGOW,2001-03-11 16:00,ZGOW 111600Z AUTO 07006KT 1SM 15/15 A3012 RMK T01500150 IEM_DS3505
ZGOW,2001-03-11 17:01,ZGOW 111701Z AUTO 10006KT 1SM 15/15 A3012 RMK T01500150 IEM_DS3505
ZGOW,2001-03-11 18:00,ZGOW 111800Z AUTO 04002KT 2SM 16/14 A3012 RMK 60003 SLP205 T01570145 52001 IEM_DS3505
ZGOW,2001-03-11 19:00,ZGOW 111900Z AUTO 05004KT 1 1/2SM 15/14 A3012 RMK T01500140 IEM_DS3505
ZGOW,2001-03-11 20:00,ZGOW 112000Z AUTO 08006KT 1SM 15/14 A3009 RMK T01500140 IEM_DS3505
ZGOW,2001-03-11 21:00,ZGOW 112100Z AUTO 04006KT 4SM 15/13 A3012 RMK 70007 SLP200 T01520132 57005 IEM_DS3505
ZGOW,2001-03-11 22:00,ZGOW 112200Z AUTO 02004KT 2SM 15/14 A3012 RMK T01500140 IEM_DS3505
ZGOW,2001-03-11 23:00,ZGOW 112300Z AUTO 02004KT 1 1/4SM 15/14 A3015 RMK T01500140 IEM_DS3505
ZGOW,2001-03-12 00:00,ZGOW 120000Z AUTO 04004KT 4SM 16/14 A3015 RMK 60002 SLP218 T01550141 52018 IEM_DS3505
ZGOW,2001-03-12 01:00,ZGOW 120100Z AUTO 04006KT 1 1/4SM 16/15 A3015 RMK T01600150 IEM_DS3505
ZGOW,2001-03-12 02:00,ZGOW 120200Z AUTO 36002KT 2 1/2SM 18/16 A3018 RMK T01800160 IEM_DS3505
ZGOW,2001-03-12 03:00,ZGOW 120300Z AUTO 04006KT 6SM 19/15 A3018 RMK SLP223 T01870148 52005 IEM_DS3505
ZGOW,2001-03-12 04:00,ZGOW 120400Z AUTO 7SM RMK IEM_DS3505
ZGOW,2001-03-12 05:00,ZGOW 120500Z AUTO 08006KT 6SM 20/14 A3012 RMK T02000140 IEM_DS3505
ZGOW,2001-03-12 06:00,ZGOW 120600Z AUTO 09008KT 6SM 22/12 A3009 RMK SLP198 T02150121 57025 IEM_DS3505
ZGOW,2001-03-12 07:00,ZGOW 120700Z AUTO 09012KT 6SM 21/13 A3009 RMK T02100130 IEM_DS3505
ZGOW,2001-03-12 08:00,ZGOW 120800Z AUTO 08014KT 6SM 20/12 A3006 RMK T02000120 IEM_DS3505
ZGOW,2001-03-12 09:00,ZGOW 120900Z AUTO 09006KT 6SM 20/11 A3006 RMK SLP186 T02000113 57012 IEM_DS3505
ZGOW,2001-03-12 10:00,ZGOW 121000Z AUTO 08014KT 6SM 18/05 A3006 RMK T01800050 IEM_DS3505
ZGOW,2001-03-12 11:00,ZGOW 121100Z AUTO 08014KT 6SM 17/06 A3009 RMK T01700060 IEM_DS3505
ZGOW,2001-03-12 12:00,ZGOW 121200Z AUTO 09010KT 7SM 17/04 A3012 RMK SLP203 T01730035 52017 IEM_DS3505
ZGOW,2001-03-12 13:00,ZGOW 121300Z AUTO 07017KT 6SM 16/07 A3012 RMK T01600070 IEM_DS3505
ZGOW,2001-03-12 14:00,ZGOW 121400Z AUTO 08014KT 6SM 16/07 A3015 RMK T01600070 IEM_DS3505
ZGOW,2001-03-12 15:00,ZGOW 121500Z AUTO 07008KT 7SM 17/05 A3015 RMK SLP222 T01660048 52019 IEM_DS3505
ZGOW,2001-03-12 16:00,ZGOW 121600Z AUTO 09014KT 6SM 16/09 A3015 RMK T01600090 IEM_DS3505
ZGOW,2001-03-12 17:00,ZGOW 121700Z AUTO 08014KT 5SM 15/09 A3015 RMK T01500090 IEM_DS3505
ZGOW,2001-03-12 18:00,ZGOW 121800Z AUTO 07008KT 7SM 15/07 A3015 RMK SLP215 T01540066 57007 IEM_DS3505
ZGOW,2001-03-12 19:00,ZGOW 121900Z AUTO 07014KT 6SM 15/08 A3012 RMK T01500080 IEM_DS3505
ZGOW,2001-03-12 20:00,ZGOW 122000Z AUTO 07012KT 6SM 15/07 A3012 RMK T01500070 IEM_DS3505
ZGOW,2001-03-12 21:00,ZGOW 122100Z AUTO 07004KT 7SM 14/07 A3015 RMK 70000 SLP211 T01430069 57004 IEM_DS3505
ZGOW,2001-03-12 22:00,ZGOW 122200Z AUTO 04004KT 4SM 12/08 A3015 RMK T01200080 IEM_DS3505
ZGOW,2001-03-12 23:00,ZGOW 122300Z AUTO 00000KT 6SM 12/08 A3018 RMK T01200080 IEM_DS3505
ZGOW,2001-03-13 00:00,ZGOW 130000Z AUTO 07004KT 7SM 15/07 A3018 RMK SLP226 T01500070 52015 IEM_DS3505
ZGOW,2001-03-13 01:00,ZGOW 130100Z AUTO 04008KT 6SM 17/08 A3018 RMK T01700080 IEM_DS3505
ZGOW,2001-03-13 02:00,ZGOW 130200Z AUTO 06010KT 6SM 18/08 A3018 RMK T01800080 IEM_DS3505
ZGOW,2001-03-13 03:00,ZGOW 130300Z AUTO 09006KT 7SM 19/07 RMK SLP223 T01900066 57003 IEM_DS3505
ZGOW,2001-03-13 03:03,ZGOW 130303Z AUTO 07012KT 6SM 19/08 A3018 RMK T01900080 IEM_DS3505
ZGOW,2001-03-13 04:00,ZGOW 130400Z AUTO 07014KT 6SM 20/08 A3018 RMK T02000080 IEM_DS3505
ZGOW,2001-03-13 05:00,ZGOW 130500Z AUTO 09014KT 6SM 21/08 A3012 RMK T02100080 IEM_DS3505
ZGOW,2001-03-13 06:00,ZGOW 130600Z AUTO 11006KT 8SM 22/07 A3009 RMK SLP193 T02150074 57030 IEM_DS3505
ZGOW,2001-03-13 07:00,ZGOW 130700Z AUTO 08012KT 6SM 21/08 A3006 RMK T02100080 IEM_DS3505
ZGOW,2001-03-13 08:00,ZGOW 130800Z AUTO 08010KT 6SM 21/09 A3006 RMK T02100090 IEM_DS3505
ZGOW,2001-03-13 09:00,ZGOW 130900Z AUTO 18004KT 9SM 20/09 A3006 RMK SLP183 T01970093 57010 IEM_DS3505
ZGOW,2001-03-13 10:00,ZGOW 131000Z AUTO 12008KT 6SM 17/12 A3006 RMK T01700120 IEM_DS3505
ZGOW,2001-03-13 11:00,ZGOW 131100Z AUTO 11008KT 6SM 16/13 A3006 RMK T01600130 IEM_DS3505
ZGOW,2001-03-13 12:00,ZGOW 131200Z AUTO 11004KT 9SM 17/12 A3009 RMK SLP194 T01670118 52011 IEM_DS3505
ZGOW,2001-03-13 13:00,ZGOW 131300Z AUTO 04004KT 6SM 15/13 A3012 RMK T01500130 IEM_DS3505
ZGOW,2001-03-13 14:00,ZGOW 131400Z AUTO 00000KT 6SM 15/13 A3012 RMK T01500130 IEM_DS3505
ZGOW,2001-03-13 15:00,ZGOW 131500Z AUTO 07002KT 8SM 16/13 A3012 RMK SLP202 T01610127 52008 IEM_DS3505
ZGOW,2001-03-13 16:00,ZGOW 131600Z AUTO 02004KT 2SM 14/13 A3012 RMK T01400130 IEM_DS3505
ZGOW,2001-03-13 17:00,ZGOW 131700Z AUTO 03004KT 1 1/2SM 13/13 A3009 RMK T01300130 IEM_DS3505
ZGOW,2001-03-13 18:00,ZGOW 131800Z AUTO 09006KT 7SM 15/12 A3009 RMK SLP191 T01520125 57011 IEM_DS3505
ZGOW,2001-03-13 19:00,ZGOW 131900Z AUTO 03006KT 1 1/2SM 14/13 A3009 RMK T01400130 IEM_DS3505
ZGOW,2001-03-13 20:00,ZGOW 132000Z AUTO 36004KT 2SM 14/12 A3009 RMK T01400120 IEM_DS3505
ZGOW,2001-03-13 21:00,ZGOW 132100Z AUTO 02002KT 7SM 14/12 A3009 RMK SLP191 T01450115 54000 IEM_DS3505
ZGOW,2001-03-13 22:00,ZGOW 132200Z AUTO 35002KT 7SM 15/12 A3009 RMK T01500120 IEM_DS3505
ZGOW,2001-03-13 23:00,ZGOW 132300Z AUTO 29002KT 3SM 15/13 A3012 RMK T01500130 IEM_DS3505
ZGOW,2001-03-14 00:00,ZGOW 140000Z AUTO 29004KT 7SM 16/11 A3012 RMK SLP207 T01640112 52016 IEM_DS3505
ZGOW,2001-03-14 01:00,ZGOW 140100Z AUTO 34002KT 6SM 19/11 A3012 RMK T01900110 IEM_DS3505
ZGOW,2001-03-14 02:00,ZGOW 140200Z AUTO 33002KT 6SM 20/12 A3012 RMK T02000120 IEM_DS3505
ZGOW,2001-03-14 03:00,ZGOW 140300Z AUTO 27004KT 7SM 19/12 A3012 RMK SLP209 T01940120 52002 IEM_DS3505
ZGOW,2001-03-14 04:00,ZGOW 140400Z AUTO 02002KT 5SM 22/14 A3009 RMK T02200140 IEM_DS3505
ZGOW,2001-03-14 05:00,ZGOW 140500Z AUTO 12006KT 6SM 23/15 A3009 RMK T02300150 IEM_DS3505
ZGOW,2001-03-14 06:00,ZGOW 140600Z AUTO 20004KT 9SM 25/15 A3006 RMK SLP180 T02480146 57029 IEM_DS3505
ZGOW,2001-03-14 07:00,ZGOW 140700Z AUTO 12006KT 6SM 23/16 A3003 RMK T02300160 IEM_DS3505
ZGOW,2001-03-14 08:00,ZGOW 140800Z AUTO 13008KT 6SM 21/16 A3003 RMK T02100160 IEM_DS3505
ZGOW,2001-03-14 09:00,ZGOW 140900Z AUTO 16002KT 9SM 23/15 A3003 RMK SLP172 T02290147 57008 IEM_DS3505
ZGOW,2001-03-14 10:00,ZGOW 141000Z AUTO 16004KT 6SM 20/15 A3003 RMK T02000150 IEM_DS3505
ZGOW,2001-03-14 11:00,ZGOW 141100Z AUTO 13004KT 6SM 18/15 A3003 RMK T01800150 IEM_DS3505
ZGOW,2001-03-14 12:00,ZGOW 141200Z AUTO 16004KT 9SM 19/14 A3006 RMK SLP180 T01940140 52008 IEM_DS3505
ZGOW,2001-03-14 13:00,ZGOW 141300Z AUTO 00000KT 2 1/2SM 18/16 A3006 RMK T01800160 IEM_DS3505
ZGOW,2001-03-14 14:00,ZGOW 141400Z AUTO 00000KT 2SM 18/16 A3009 RMK T01800160 IEM_DS3505
ZGOW,2001-03-14 15:00,ZGOW 141500Z AUTO 00000KT 7SM 18/15 A3009 RMK SLP190 T01810147 52010 IEM_DS3505
ZGOW,2001-03-14 16:00,ZGOW 141600Z AUTO 00000KT 1 1/2SM 18/16 A3009 RMK T01800160 IEM_DS3505
ZGOW,2001-03-14 17:00,ZGOW 141700Z AUTO 00000KT 3SM 18/16 A3006 RMK T01800160 IEM_DS3505
ZGOW,2001-03-14 18:00,ZGOW 141800Z AUTO 27002KT 6SM 18/15 A3003 RMK SLP178 T01810154 57012 IEM_DS3505
ZGOW,2001-03-14 19:00,ZGOW 141900Z AUTO 11002KT 1 1/4SM 16/15 A3003 RMK T01600150 IEM_DS3505
ZGOW,2001-03-14 20:00,ZGOW 142000Z AUTO 00000KT 1SM 16/15 A3000 RMK T01600150 IEM_DS3505
ZGOW,2001-03-14 21:00,ZGOW 142100Z AUTO 00000KT 4SM 17/15 A3000 RMK SLP169 T01700153 57009 IEM_DS3505
ZGOW,2001-03-14 22:00,ZGOW 142200Z AUTO 33002KT 1 1/4SM 17/16 A3003 RMK T01700160 IEM_DS3505
ZGOW,2001-03-14 23:00,ZGOW 142300Z AUTO 00000KT 1SM 16/16 A3003 RMK T01600160 IEM_DS3505
ZGOW,2001-03-15 00:00,ZGOW 150000Z AUTO 04002KT 5SM 20/16 A3003 RMK SLP176 T01960156 52007 IEM_DS3505
ZGOW,2001-03-15 01:00,ZGOW 150100Z AUTO 30002KT 2 1/2SM 21/17 A3006 RMK T02100170 IEM_DS3505
ZGOW,2001-03-15 02:00,ZGOW 150200Z AUTO 29004KT 2 1/2SM 24/18 A3006 RMK T02400180 IEM_DS3505
ZGOW,2001-03-15 03:00,ZGOW 150300Z AUTO 32004KT 7SM 25/15 A3003 RMK SLP177 T02500151 IEM_DS3505
ZGOW,2001-03-15 04:00,ZGOW 150400Z AUTO 19006KT 26/18 A3000 RMK T02600180 IEM_DS3505
ZGOW,2001-03-15 05:00,ZGOW 150500Z AUTO 15008KT 27/19 A2997 RMK T02700190 IEM_DS3505
ZGOW,2001-03-15 06:00,ZGOW 150600Z AUTO 20006KT 11SM 27/16 A2994 RMK SLP148 T02710165 57029 IEM_DS3505
ZGOW,2001-03-15 07:00,ZGOW 150700Z AUTO 14008KT 6SM 27/16 A2994 RMK T02700160 IEM_DS3505
ZGOW,2001-03-15 08:00,ZGOW 150800Z AUTO 14010KT 6SM 26/15 A2994 RMK T02600150 IEM_DS3505
ZGOW,2001-03-15 09:00,ZGOW 150900Z AUTO 16006KT 16SM 26/14 A2991 RMK SLP139 T02570135 57009 IEM_DS3505
ZGOW,2001-03-15 10:00,ZGOW 151000Z AUTO 16006KT 6SM 23/16 A2991 RMK T02300160 IEM_DS3505
ZGOW,2001-03-15 11:00,ZGOW 151100Z AUTO 14006KT 4SM 21/18 A2994 RMK T02100180 IEM_DS3505
ZGOW,2001-03-15 12:00,ZGOW 151200Z AUTO 14004KT 10SM 22/16 A2997 RMK SLP148 T02200157 52009 IEM_DS3505
ZGOW,2001-03-15 13:00,ZGOW 151300Z AUTO 15002KT 4SM 20/19 A2997 RMK T02000190 IEM_DS3505
ZGOW,2001-03-15 14:00,ZGOW 151400Z AUTO 11002KT 5SM 20/16 A3000 RMK T02000160 IEM_DS3505
ZGOW,2001-03-15 15:00,ZGOW 151500Z AUTO 11004KT 9SM 21/18 A3000 RMK SLP163 T02080177 52015 IEM_DS3505
ZGOW,2001-03-15 16:00,ZGOW 151600Z AUTO 07010KT 1SM 18/17 A3000 RMK T01800170 IEM_DS3505
ZGOW,2001-03-15 17:00,ZGOW 151700Z AUTO 07010KT 1SM 17/16 A3000 RMK T01700160 IEM_DS3505
ZGOW,2001-03-15 18:00,ZGOW 151800Z AUTO 04006KT 7SM 18/16 RMK SLP162 T01800158 57001 IEM_DS3505
ZGOW,2001-03-15 18:01,ZGOW 151801Z AUTO 07012KT 1SM 16/16 A2997 RMK T01600160 IEM_DS3505
ZGOW,2001-03-15 19:01,ZGOW 151901Z AUTO 06010KT 1SM 16/16 A3000 RMK T01600160 IEM_DS3505
ZGOW,2001-03-15 20:00,ZGOW 152000Z AUTO 07008KT 1SM 16/16 A2997 RMK T01600160 IEM_DS3505
ZGOW,2001-03-15 21:00,ZGOW 152100Z AUTO 09004KT 5SM 17/15 A2997 RMK SLP155 T01710154 57007 IEM_DS3505
ZGOW,2001-03-15 22:00,ZGOW 152200Z AUTO 07010KT 2 1/2SM 17/16 A2997 RMK T01700160 IEM_DS3505
ZGOW,2001-03-15 23:00,ZGOW 152300Z AUTO 06012KT 1 1/2SM 17/16 A2997 RMK T01700160 IEM_DS3505
ZGOW,2001-03-16 00:00,ZGOW 160000Z AUTO 09006KT 4SM 17/16 A3000 RMK T01700160 IEM_DS3505
ZGOW,2001-03-16 01:00,ZGOW 160100Z AUTO 06010KT 2SM 18/16 A3000 RMK T01800160 IEM_DS3505
ZGOW,2001-03-16 02:00,ZGOW 160200Z AUTO 06008KT 2 1/2SM 19/17 A2997 RMK T01900170 IEM_DS3505
ZGOW,2001-03-16 03:00,ZGOW 160300Z AUTO 07004KT 6SM 19/15 A2997 RMK SLP155 T01930154 57006 IEM_DS3505
ZGOW,2001-03-16 04:00,ZGOW 160400Z AUTO 06008KT 4SM 21/17 A2994 RMK T02100170 IEM_DS3505
ZGOW,2001-03-16 05:00,ZGOW 160500Z AUTO 07006KT 4SM 22/17 A2991 RMK T02200170 IEM_DS3505
ZGOW,2001-03-16 06:00,ZGOW 160600Z AUTO 04006KT 5SM 22/17 A2988 RMK SLP125 T02200166 57030 IEM_DS3505
ZGOW,2001-03-16 07:00,ZGOW 160700Z AUTO 09006KT 4SM 21/17 A2985 RMK T02100170 IEM_DS3505
ZGOW,2001-03-16 08:00,ZGOW 160800Z AUTO 06008KT 4SM 21/17 A2985 RMK T02100170 IEM_DS3505
ZGOW,2001-03-16 09:00,ZGOW 160900Z AUTO 09006KT 4SM 21/16 A2983 RMK SLP110 T02100162 57015 IEM_DS3505
ZGOW,2001-03-16 10:00,ZGOW 161000Z AUTO 14002KT 3SM 19/17 A2983 RMK T01900170 IEM_DS3505
ZGOW,2001-03-16 11:00,ZGOW 161100Z AUTO 14002KT 3SM 19/17 A2983 RMK T01900170 IEM_DS3505
ZGOW,2001-03-16 12:00,ZGOW 161200Z AUTO 09002KT 4SM 20/16 A2985 RMK SLP117 T02010163 52007 IEM_DS3505
ZGOW,2001-03-16 13:00,ZGOW 161300Z AUTO 11004KT 3SM 19/17 A2985 RMK T01900170 IEM_DS3505
ZGOW,2001-03-16 14:00,ZGOW 161400Z AUTO 08002KT 4SM 18/16 A2988 RMK T01800160 IEM_DS3505
ZGOW,2001-03-16 15:00,ZGOW 161500Z AUTO 34002KT 6SM 20/16 A2988 RMK SLP131 T01950162 52014 IEM_DS3505
ZGOW,2001-03-16 16:00,ZGOW 161600Z AUTO 00000KT 4SM 19/18 A2988 RMK T01900180 IEM_DS3505
ZGOW,2001-03-16 17:00,ZGOW 161700Z AUTO 00000KT 6SM 19/18 A2988 RMK T01900180 IEM_DS3505
ZGOW,2001-03-16 18:00,ZGOW 161800Z AUTO 00000KT 5SM 19/16 A2988 RMK SLP125 T01930165 57006 IEM_DS3505
ZGOW,2001-03-16 19:00,ZGOW 161900Z AUTO 00000KT 3SM 18/17 A2985 RMK T01800170 IEM_DS3505
ZGOW,2001-03-16 20:00,ZGOW 162000Z AUTO 32002KT 2 1/2SM 19/18 A2985 RMK T01900180 IEM_DS3505
ZGOW,2001-03-16 21:00,ZGOW 162100Z AUTO 00000KT 4SM 20/17 A2985 RMK SLP119 T01950170 57006 IEM_DS3505
ZGOW,2001-03-16 22:00,ZGOW 162200Z AUTO 00000KT 2SM 19/18 A2985 RMK T01900180 IEM_DS3505
ZGOW,2001-03-16 23:00,ZGOW 162300Z AUTO 00000KT 1 1/2SM 20/18 A2988 RMK T02000180 IEM_DS3505
ZGOW,2001-03-17 00:00,ZGOW 170000Z AUTO 02002KT 6SM 22/18 A2988 RMK SLP131 T02240179 52012 IEM_DS3505
ZGOW,2001-03-17 01:00,ZGOW 170100Z AUTO 31004KT 2 1/2SM 23/20 A2991 RMK T02300200 IEM_DS3505
ZGOW,2001-03-17 02:00,ZGOW 170200Z AUTO 28004KT 4SM 25/20 A2991 RMK T02500200 IEM_DS3505
ZGOW,2001-03-17 03:00,ZGOW 170300Z AUTO 27006KT 6SM 26/19 A2991 RMK SLP134 T02630194 52003 IEM_DS3505
ZGOW,2001-03-17 04:00,ZGOW 170400Z AUTO 18006KT 27/21 A2988 RMK T02700210 IEM_DS3505
ZGOW,2001-03-17 05:00,ZGOW 170500Z AUTO 15008KT 2 1/2SM 27/21 A2985 RMK T02700210 IEM_DS3505
ZGOW,2001-03-17 06:00,ZGOW 170600Z AUTO 20006KT 7SM 28/20 RMK SLP104 T02830203 57030 IEM_DS3505
ZGOW,2001-03-17 07:00,ZGOW 170700Z AUTO 16010KT 27/21 A2980 RMK T02700210 IEM_DS3505
ZGOW,2001-03-17 08:00,ZGOW 170800Z AUTO 16010KT 6SM 27/21 A2980 RMK T02700210 IEM_DS3505
ZGOW,2001-03-17 09:00,ZGOW 170900Z AUTO 18006KT 9SM 26/20 A2980 RMK SLP098 T02620196 57006 IEM_DS3505
ZGOW,2001-03-17 10:00,ZGOW 171000Z AUTO 14006KT 2 1/2SM 24/21 A2980 RMK T02400210 IEM_DS3505
ZGOW,2001-03-17 11:00,ZGOW 171100Z AUTO 14004KT 2SM 23/20 A2983 RMK T02300200 IEM_DS3505
ZGOW,2001-03-17 12:00,ZGOW 171200Z AUTO 00000KT 6SM 24/20 A2985 RMK SLP111 T02380200 52013 IEM_DS3505
ZGOW,2001-03-17 13:00,ZGOW 171300Z AUTO 11004KT 2SM 21/21 A2985 RMK T02100210 IEM_DS3505
ZGOW,2001-03-17 14:00,ZGOW 171400Z AUTO 12004KT 1 1/4SM 21/20 A2988 RMK T02100200 IEM_DS3505
ZGOW,2001-03-17 15:00,ZGOW 171500Z AUTO 04002KT 4SM 22/20 RMK SLP126 T02240201 52015 IEM_DS3505
ZGOW,2001-03-17 16:00,ZGOW 171600Z AUTO 07002KT 1SM 21/20 A2988 RMK T02100200 IEM_DS3505
ZGOW,2001-03-17 17:00,ZGOW 171700Z AUTO 06002KT 1SM 20/20 A2988 RMK T02000200 IEM_DS3505
ZGOW,2001-03-17 18:00,ZGOW 171800Z AUTO 09004KT 2 1/2SM 22/20 A2988 RMK SLP125 T02210201 57001 IEM_DS3505
ZGOW,2001-03-17 19:00,ZGOW 171900Z AUTO 07016KT 1SM 19/19 A2988 RMK T01900190 IEM_DS3505
ZGOW,2001-03-17 20:00,ZGOW 172000Z AUTO 07016KT 1SM 18/17 A2991 RMK T01800170 IEM_DS3505
ZGOW,2001-03-17 21:00,ZGOW 172100Z AUTO 07010KT 4SM 18/17 A2994 RMK SLP143 T01850169 52018 IEM_DS3505
ZGOW,2001-03-17 22:00,ZGOW 172200Z AUTO 06016KT 2SM 18/17 A2997 RMK T01800170 IEM_DS3505
ZGOW,2001-03-17 23:00,ZGOW 172300Z AUTO 06016KT 2SM 18/17 A3000 RMK T01800170 IEM_DS3505
ZGOW,2001-03-18 00:00,ZGOW 180000Z AUTO 07008KT 4SM 18/16 A3003 RMK SLP171 T01830163 52028 IEM_DS3505
ZGOW,2001-03-18 01:00,ZGOW 180100Z AUTO 06016KT 4SM 18/17 A3003 RMK T01800170 IEM_DS3505
ZGOW,2001-03-18 02:00,ZGOW 180200Z AUTO 07016KT 6SM 18/17 A3006 RMK T01800170 IEM_DS3505
ZGOW,2001-03-18 03:00,ZGOW 180300Z AUTO 07006KT 5SM 19/16 A3006 RMK SLP178 T01920158 52007 IEM_DS3505
ZGOW,2001-03-18 04:00,ZGOW 180400Z AUTO 08014KT 7SM 19/17 A3003 RMK T01900170 IEM_DS3505
ZGOW,2001-03-18 05:00,ZGOW 180500Z AUTO 09010KT 7SM 20/17 A3003 RMK T02000170 IEM_DS3505
ZGOW,2001-03-18 06:00,ZGOW 180600Z AUTO 09008KT 5SM 21/16 A3000 RMK SLP162 T02100158 57016 IEM_DS3505
ZGOW,2001-03-18 07:00,ZGOW 180700Z AUTO 08012KT 7SM 22/17 A2997 RMK T02200170 IEM_DS3505
ZGOW,2001-03-18 08:00,ZGOW 180800Z AUTO 11008KT 7SM 21/17 A2997 RMK T02100170 IEM_DS3505
ZGOW,2001-03-18 09:00,ZGOW 180900Z AUTO 14004KT 6SM 20/16 A2997 RMK SLP155 T02020157 57007 IEM_DS3505
ZGOW,2001-03-18 10:00,ZGOW 181000Z AUTO 08008KT 4SM 19/16 A2997 RMK T01900160 IEM_DS3505
ZGOW,2001-03-18 11:00,ZGOW 181100Z AUTO 08012KT 5SM 18/16 A3000 RMK T01800160 IEM_DS3505
ZGOW,2001-03-18 12:00,ZGOW 181200Z AUTO 14004KT 7SM 19/16 A3000 RMK SLP164 T01870155 52009 IEM_DS3505
ZGOW,2001-03-18 13:00,ZGOW 181300Z AUTO 08012KT 6SM 17/15 A3003 RMK T01700150 IEM_DS3505
ZGOW,2001-03-18 14:00,ZGOW 181400Z AUTO 08014KT 6SM 17/15 A3003 RMK T01700150 IEM_DS3505
ZGOW,2001-03-18 15:00,ZGOW 181500Z AUTO 07008KT 6SM 18/14 A3006 RMK SLP179 T01780141 52015 IEM_DS3505
ZGOW,2001-03-18 16:00,ZGOW 181600Z AUTO 08012KT 3SM 17/15 A3003 RMK T01700150 IEM_DS3505
ZGOW,2001-03-18 18:00,ZGOW 181800Z AUTO 07006KT 6SM 17/14 A3003 RMK SLP168 T01740139 57011 IEM_DS3505
ZGOW,2001-03-18 19:00,ZGOW 181900Z AUTO 08008KT 3SM 17/14 A3000 RMK T01700140 IEM_DS3505
ZGOW,2001-03-18 20:00,ZGOW 182000Z AUTO 06008KT 2 1/2SM 17/15 A3000 RMK T01700150 IEM_DS3505
ZGOW,2001-03-18 21:00,ZGOW 182100Z AUTO 07004KT 6SM 17/14 A3000 RMK SLP165 T01740141 57003 IEM_DS3505
ZGOW,2001-03-18 22:00,ZGOW 182200Z AUTO 06006KT 2 1/2SM 17/15 A3000 RMK T01700150 IEM_DS3505
ZGOW,2001-03-18 23:00,ZGOW 182300Z AUTO 07004KT 2 1/2SM 17/15 A3000 RMK T01700150 IEM_DS3505
ZGOW,2001-03-19 00:00,ZGOW 190000Z AUTO 04004KT 6SM 18/15 A3003 RMK SLP171 T01830147 52006 IEM_DS3505
ZGOW,2001-03-19 01:00,ZGOW 190100Z AUTO 08006KT 2 1/2SM 19/16 A3003 RMK T01900160 IEM_DS3505
ZGOW,2001-03-19 02:00,ZGOW 190200Z AUTO 07008KT 2 1/2SM 20/15 A3003 RMK T02000150 IEM_DS3505
ZGOW,2001-03-19 03:00,ZGOW 190300Z AUTO 11006KT 6SM 21/14 A3003 RMK SLP170 T02080143 57001 IEM_DS3505
ZGOW,2001-03-19 04:00,ZGOW 190400Z AUTO 08006KT 22/16 A3000 RMK T02200160 IEM_DS3505
ZGOW,2001-03-19 05:00,ZGOW 190500Z AUTO 10004KT 4SM 21/16 A2997 RMK T02100160 IEM_DS3505
ZGOW,2001-03-19 06:00,ZGOW 190600Z AUTO 04004KT 5SM 22/15 A2994 RMK SLP149 T02220150 57021 IEM_DS3505
ZGOW,2001-03-19 07:00,ZGOW 190700Z AUTO 11002KT 23/17 A2991 RMK T02300170 IEM_DS3505
ZGOW,2001-03-19 08:00,ZGOW 190800Z AUTO 14006KT 5SM 23/17 A2991 RMK T02300170 IEM_DS3505
ZGOW,2001-03-19 09:00,ZGOW 190900Z AUTO 11006KT 4SM 24/16 A2991 RMK SLP132 T02370162 57017 IEM_DS3505
ZGOW,2001-03-19 10:00,ZGOW 191000Z AUTO 13006KT 3SM 20/17 A2991 RMK T02000170 IEM_DS3505
ZGOW,2001-03-19 11:00,ZGOW 191100Z AUTO 13004KT 3SM 19/16 A2991 RMK T01900160 IEM_DS3505
ZGOW,2001-03-19 12:00,ZGOW 191200Z AUTO 11004KT 6SM 20/15 A2994 RMK SLP144 T01970151 52012 IEM_DS3505
ZGOW,2001-03-19 13:00,ZGOW 191300Z AUTO 13004KT 2 1/2SM 18/17 A2994 RMK T01800170 IEM_DS3505
ZGOW,2001-03-19 14:00,ZGOW 191400Z AUTO 14002KT 2 1/2SM 18/17 A2997 RMK T01800170 IEM_DS3505
ZGOW,2001-03-19 15:00,ZGOW 191500Z AUTO 14002KT 5SM 19/17 A2997 RMK SLP153 T01940173 52009 IEM_DS3505
ZGOW,2001-03-19 16:00,ZGOW 191600Z AUTO 00000KT 2 1/2SM 18/18 A2997 RMK T01800180 IEM_DS3505
ZGOW,2001-03-19 17:00,ZGOW 191700Z AUTO 00000KT 1 1/2SM 18/17 A2994 RMK T01800170 IEM_DS3505
ZGOW,2001-03-19 18:00,ZGOW 191800Z AUTO 00000KT 5SM 19/17 A2994 RMK SLP145 T01880173 57008 IEM_DS3505
ZGOW,2001-03-19 19:00,ZGOW 191900Z AUTO 00000KT 2SM 18/17 A2991 RMK T01800170 IEM_DS3505
ZGOW,2001-03-19 20:00,ZGOW 192000Z AUTO 00000KT 1 1/2SM 18/17 A2991 RMK T01800170 IEM_DS3505
ZGOW,2001-03-19 21:00,ZGOW 192100Z AUTO 00000KT 4SM 18/16 A2991 RMK SLP134 T01800162 57011 IEM_DS3505
ZGOW,2001-03-19 22:00,ZGOW 192200Z AUTO 00000KT 1 1/4SM 17/17 A2991 RMK T01700170 IEM_DS3505
ZGOW,2001-03-19 23:00,ZGOW 192300Z AUTO 32002KT 1 1/4SM 18/17 A2991 RMK T01800170 IEM_DS3505
ZGOW,2001-03-20 00:00,ZGOW 200000Z AUTO 00000KT 3SM 20/16 A2991 RMK SLP140 T01950165 52006 IEM_DS3505
ZGOW,2001-03-20 01:00,ZGOW 200100Z AUTO 28002KT 1 1/2SM 20/19 A2991 RMK T02000190 IEM_DS3505
ZGOW,2001-03-20 02:00,ZGOW 200200Z AUTO 24004KT 2SM 22/19 A2991 RMK T02200190 IEM_DS3505
ZGOW,2001-03-20 03:00,ZGOW 200300Z AUTO 22008KT 4SM 24/19 A2988 RMK SLP134 T02360189 57006 IEM_DS3505
ZGOW,2001-03-20 04:00,ZGOW 200400Z AUTO 25006KT 4SM 24/20 A2988 RMK T02400200 IEM_DS3505
ZGOW,2001-03-20 05:00,ZGOW 200500Z AUTO 24008KT 4SM 25/21 A2985 RMK T02500210 IEM_DS3505
ZGOW,2001-03-20 06:00,ZGOW 200600Z AUTO 20006KT 4SM 25/19 A2983 RMK SLP111 T02510192 57023 IEM_DS3505
ZGOW,2001-03-20 07:00,ZGOW 200700Z AUTO 20006KT 2 1/2SM 26/21 A2980 RMK T02600210 IEM_DS3505
ZGOW,2001-03-20 08:00,ZGOW 200800Z AUTO 19006KT 6SM 26/21 A2980 RMK T02600210 IEM_DS3505
ZGOW,2001-03-20 09:00,ZGOW 200900Z AUTO 25004KT 7SM 27/20 A2980 RMK SLP099 T02660202 57012 IEM_DS3505
ZGOW,2001-03-20 10:00,ZGOW 201000Z AUTO 00000KT 7SM 25/21 A2983 RMK T02500210 IEM_DS3505
ZGOW,2001-03-20 11:00,ZGOW 201100Z AUTO 13002KT 4SM 23/21 A2980 RMK T02300210 IEM_DS3505
ZGOW,2001-03-20 12:00,ZGOW 201200Z AUTO 29002KT 5SM 24/21 A2983 RMK SLP112 T02390209 52013 IEM_DS3505
ZGOW,2001-03-20 13:00,ZGOW 201300Z AUTO 33002KT 2SM 23/21 A2985 RMK T02300210 IEM_DS3505
ZGOW,2001-03-20 14:00,ZGOW 201400Z AUTO 00000KT 2 1/2SM 23/21 A2985 RMK T02300210 IEM_DS3505
ZGOW,2001-03-20 15:00,ZGOW 201500Z AUTO 29002KT 6SM 22/19 A2983 RMK SLP113 T02250189 52001 IEM_DS3505
ZGOW,2001-03-20 16:00,ZGOW 201600Z AUTO 34002KT 2 1/2SM 22/21 A2983 RMK T02200210 IEM_DS3505
ZGOW,2001-03-20 17:00,ZGOW 201700Z AUTO 34006KT 2 1/2SM 21/20 A2983 RMK T02100200 IEM_DS3505
ZGOW,2001-03-20 18:00,ZGOW 201800Z AUTO 04002KT 5SM 21/19 A2983 RMK SLP111 T02130193 57002 IEM_DS3505
ZGOW,2001-03-20 19:00,ZGOW 201900Z AUTO 33008KT 4SM 20/18 A2983 RMK T02000180 IEM_DS3505
ZGOW,2001-03-20 20:00,ZGOW 202000Z AUTO 32008KT 5SM 19/17 A2983 RMK T01900170 IEM_DS3505
ZGOW,2001-03-20 21:00,ZGOW 202100Z AUTO 04004KT 7SM 20/16 A2983 RMK SLP115 T01950156 52004 IEM_DS3505
ZGOW,2001-03-20 22:00,ZGOW 202200Z AUTO 32006KT 4SM 19/16 A2985 RMK T01900160 IEM_DS3505
ZGOW,2001-03-20 23:00,ZGOW 202300Z AUTO 33004KT 4SM 18/16 A2985 RMK T01800160 IEM_DS3505
ZGOW,2001-03-21 00:00,ZGOW 210000Z AUTO 02006KT 12SM 20/13 A2988 RMK SLP132 T02050134 52017 IEM_DS3505
ZGOW,2001-03-21 01:00,ZGOW 210100Z AUTO 33006KT 6SM 21/15 A2991 RMK T02100150 IEM_DS3505
ZGOW,2001-03-21 02:00,ZGOW 210200Z AUTO 32006KT 6SM 22/16 A2991 RMK T02200160 IEM_DS3505
ZGOW,2001-03-21 03:00,ZGOW 210300Z AUTO 04006KT 16SM 26/12 A2991 RMK SLP136 T02550115 52004 IEM_DS3505
ZGOW,2001-03-21 04:00,ZGOW 210400Z AUTO 32006KT 6SM 26/14 A2988 RMK T02600140 IEM_DS3505
ZGOW,2001-03-21 05:00,ZGOW 210500Z AUTO 05004KT 6SM 28/12 A2985 RMK T02800120 IEM_DS3505
ZGOW,2001-03-21 06:00,ZGOW 210600Z AUTO 22006KT 12SM 28/12 A2980 RMK SLP105 T02830118 57031 IEM_DS3505
ZGOW,2001-03-21 07:00,ZGOW 210700Z AUTO 18010KT 6SM 28/15 A2980 RMK T02800150 IEM_DS3505
ZGOW,2001-03-21 08:00,ZGOW 210800Z AUTO 13010KT 6SM 27/13 A2980 RMK T02700130 IEM_DS3505
ZGOW,2001-03-21 09:00,ZGOW 210900Z AUTO 11008KT 12SM 25/13 A2980 RMK SLP104 T02460134 57001 IEM_DS3505
ZGOW,2001-03-21 10:00,ZGOW 211000Z AUTO 12010KT 6SM 22/18 A2983 RMK T02200180 IEM_DS3505
ZGOW,2001-03-21 11:00,ZGOW 211100Z AUTO 11008KT 1 1/4SM 20/19 A2983 RMK T02000190 IEM_DS3505
ZGOW,2001-03-21 12:00,ZGOW 211200Z AUTO 07004KT 9SM 20/18 A2985 RMK SLP120 T02050179 52016 IEM_DS3505
ZGOW,2001-03-21 13:00,ZGOW 211300Z AUTO 06004KT 1 1/4SM 18/18 A2988 RMK T01800180 IEM_DS3505
ZGOW,2001-03-21 14:00,ZGOW 211400Z AUTO 06004KT 1 1/2SM 18/17 A2988 RMK T01800170 IEM_DS3505
ZGOW,2001-03-21 15:00,ZGOW 211500Z AUTO 07002KT 6SM 19/17 A2988 RMK SLP125 T01920169 52005 IEM_DS3505
ZGOW,2001-03-21 16:00,ZGOW 211600Z AUTO 04004KT 1 1/4SM 17/17 A2988 RMK T01700170 IEM_DS3505
ZGOW,2001-03-21 17:00,ZGOW 211700Z AUTO 00000KT 1 1/4SM 18/17 A2985 RMK T01800170 IEM_DS3505
ZGOW,2001-03-21 18:00,ZGOW 211800Z AUTO 27004KT 6SM 19/17 A2985 RMK SLP117 T01900167 57008 IEM_DS3505
ZGOW,2001-03-21 19:00,ZGOW 211900Z AUTO 00000KT 1 1/2SM 18/18 A2983 RMK T01800180 IEM_DS3505
ZGOW,2001-03-21 20:00,ZGOW 212000Z AUTO 32002KT 2SM 18/17 A2983 RMK T01800170 IEM_DS3505
ZGOW,2001-03-21 21:00,ZGOW 212100Z AUTO 04004KT 5SM 18/16 A2985 RMK SLP116 T01850163 57001 IEM_DS3505
ZGOW,2001-03-21 22:00,ZGOW 212200Z AUTO 04002KT 1 1/2SM 17/17 A2985 RMK T01700170 IEM_DS3505
ZGOW,2001-03-21 23:00,ZGOW 212300Z AUTO 05004KT 1 1/2SM 18/17 A2988 RMK T01800170 IEM_DS3505
ZGOW,2001-03-22 00:00,ZGOW 220000Z AUTO 04004KT 5SM 20/17 A2988 RMK SLP129 T01960166 52013 IEM_DS3505
ZGOW,2001-03-22 01:00,ZGOW 220100Z AUTO 05006KT 2SM 20/18 A2991 RMK T02000180 IEM_DS3505
ZGOW,2001-03-22 02:00,ZGOW 220200Z AUTO 03004KT 6SM 22/17 A2991 RMK T02200170 IEM_DS3505
ZGOW,2001-03-22 03:00,ZGOW 220300Z AUTO 00000KT 6SM 24/16 A2991 RMK SLP135 T02420157 52006 IEM_DS3505
ZGOW,2001-03-22 04:00,ZGOW 220400Z AUTO 08004KT 6SM 25/17 A2988 RMK T02500170 IEM_DS3505
ZGOW,2001-03-22 05:00,ZGOW 220500Z AUTO 13008KT 6SM 26/17 A2985 RMK T02600170 IEM_DS3505
ZGOW,2001-03-22 06:00,ZGOW 220600Z AUTO 16004KT 9SM 25/16 A2983 RMK SLP107 T02500157 57028 IEM_DS3505
ZGOW,2001-03-22 07:00,ZGOW 220700Z AUTO 13010KT 6SM 24/14 A2980 RMK T02400140 IEM_DS3505
ZGOW,2001-03-22 08:00,ZGOW 220800Z AUTO 14010KT 6SM 23/13 A2980 RMK T02300130 IEM_DS3505
ZGOW,2001-03-22 09:00,ZGOW 220900Z AUTO 18008KT 9SM 23/15 A2980 RMK SLP097 T02320154 57010 IEM_DS3505
ZGOW,2001-03-22 10:00,ZGOW 221000Z AUTO 16008KT 6SM 21/18 A2980 RMK T02100180 IEM_DS3505
ZGOW,2001-03-22 11:00,ZGOW 221100Z AUTO 17004KT 4SM 21/19 A2983 RMK T02100190 IEM_DS3505
ZGOW,2001-03-22 12:00,ZGOW 221200Z AUTO 16004KT 9SM 21/18 A2983 RMK SLP108 T02120178 52011 IEM_DS3505
ZGOW,2001-03-22 13:00,ZGOW 221300Z AUTO 08004KT 3SM 20/19 A2983 RMK T02000190 IEM_DS3505
ZGOW,2001-03-22 14:00,ZGOW 221400Z AUTO 00000KT 2 1/2SM 20/19 A2983 RMK T02000190 IEM_DS3505
ZGOW,2001-03-22 15:00,ZGOW 221500Z AUTO 00000KT 8SM 20/19 A2985 RMK SLP117 T02040187 52009 IEM_DS3505
ZGOW,2001-03-22 16:00,ZGOW 221600Z AUTO 00000KT 1 1/2SM 20/20 A2985 RMK T02000200 IEM_DS3505
ZGOW,2001-03-22 17:00,ZGOW 221700Z AUTO 00000KT 1 1/2SM 20/19 A2985 RMK T02000190 IEM_DS3505
ZGOW,2001-03-22 18:00,ZGOW 221800Z AUTO 00000KT 6SM 20/19 A2985 RMK SLP115 T02000186 57002 IEM_DS3505
ZGOW,2001-03-22 19:00,ZGOW 221900Z AUTO 00000KT 1SM 19/19 A2983 RMK T01900190 IEM_DS3505
ZGOW,2001-03-22 20:00,ZGOW 222000Z AUTO 00000KT 1SM 19/18 A2983 RMK T01900180 IEM_DS3505
ZGOW,2001-03-22 21:00,ZGOW 222100Z AUTO 04004KT 4SM 20/18 A2983 RMK SLP111 T01960182 57004 IEM_DS3505
ZGOW,2001-03-22 22:00,ZGOW 222200Z AUTO 30002KT 1 1/2SM 19/18 A2983 RMK T01900180 IEM_DS3505
ZGOW,2001-03-22 23:00,ZGOW 222300Z AUTO 00000KT 1SM 20/19 A2985 RMK T02000190 IEM_DS3505
ZGOW,2001-03-23 00:00,ZGOW 230000Z AUTO 27004KT 4SM 22/19 A2985 RMK SLP123 T02180193 52012 IEM_DS3505
ZGOW,2001-03-23 01:00,ZGOW 230100Z AUTO 00000KT 1 1/4SM 23/21 A2988 RMK T02300210 IEM_DS3505
ZGOW,2001-03-23 02:00,ZGOW 230200Z AUTO 16002KT 2SM 25/21 A2988 RMK T02500210 IEM_DS3505
ZGOW,2001-03-23 03:00,ZGOW 230300Z AUTO 25006KT 6SM 27/20 A2985 RMK SLP123 T02680203 54000 IEM_DS3505
ZGOW,2001-03-23 04:00,ZGOW 230400Z AUTO 17008KT 3SM 26/22 A2985 RMK T02600220 IEM_DS3505
ZGOW,2001-03-23 05:00,ZGOW 230500Z AUTO 17006KT 4SM 27/22 A2983 RMK T02700220 IEM_DS3505
ZGOW,2001-03-23 06:00,ZGOW 230600Z AUTO 20006KT 5SM 28/20 A2977 RMK SLP092 T02820205 57031 IEM_DS3505
ZGOW,2001-03-23 07:00,ZGOW 230700Z AUTO 19010KT 28/22 A2977 RMK T02800220 IEM_DS3505
ZGOW,2001-03-23 08:00,ZGOW 230800Z AUTO 18010KT 6SM 28/22 A2974 RMK T02800220 IEM_DS3505
ZGOW,2001-03-23 09:00,ZGOW 230900Z AUTO 18008KT 6SM 26/21 A2974 RMK SLP077 T02640208 57015 IEM_DS3505
ZGOW,2001-03-23 10:00,ZGOW 231000Z AUTO 19010KT 4SM 25/22 A2974 RMK T02500220 IEM_DS3505
ZGOW,2001-03-23 11:00,ZGOW 231100Z AUTO 19008KT 4SM 25/22 A2977 RMK T02500220 IEM_DS3505
ZGOW,2001-03-23 12:00,ZGOW 231200Z AUTO 22004KT 7SM 25/20 A2977 RMK SLP090 T02470204 52013 IEM_DS3505
ZGOW,2001-03-23 13:00,ZGOW 231300Z AUTO 21006KT 4SM 24/21 A2980 RMK T02400210 IEM_DS3505
ZGOW,2001-03-23 14:00,ZGOW 231400Z AUTO 19006KT 4SM 23/22 A2980 RMK T02300220 IEM_DS3505
ZGOW,2001-03-23 15:00,ZGOW 231500Z AUTO 20008KT 7SM 24/21 A2980 RMK SLP106 T02360207 52016 IEM_DS3505
ZGOW,2001-03-23 16:00,ZGOW 231600Z AUTO 21006KT 2SM 23/21 A2980 RMK T02300210 IEM_DS3505
ZGOW,2001-03-23 17:01,ZGOW 231701Z AUTO 26004KT 2SM 23/21 A2980 RMK T02300210 IEM_DS3505
ZGOW,2001-03-23 18:00,ZGOW 231800Z AUTO 27004KT 6SM 23/21 A2980 RMK SLP098 T02270209 57008 IEM_DS3505
ZGOW,2001-03-23 19:00,ZGOW 231900Z AUTO 00000KT 2SM 22/21 A2980 RMK T02200210 IEM_DS3505
ZGOW,2001-03-23 20:00,ZGOW 232000Z AUTO 00000KT 2SM 21/21 A2977 RMK T02100210 IEM_DS3505
ZGOW,2001-03-23 21:00,ZGOW 232100Z AUTO 29002KT 5SM 22/21 A2980 RMK SLP095 T02160207 57003 IEM_DS3505
ZGOW,2001-03-23 22:00,ZGOW 232200Z AUTO 00000KT 2 1/2SM 20/20 A2980 RMK T02000200 IEM_DS3505
ZGOW,2001-03-23 23:00,ZGOW 232300Z AUTO 00000KT 2 1/2SM 21/20 A2980 RMK T02100200 IEM_DS3505
ZGOW,2001-03-24 00:00,ZGOW 240000Z AUTO 25004KT 6SM 24/21 A2983 RMK SLP106 T02380209 52011 IEM_DS3505
ZGOW,2001-03-24 01:00,ZGOW 240100Z AUTO 26004KT 6SM 26/22 A2983 RMK T02600220 IEM_DS3505
ZGOW,2001-03-24 02:00,ZGOW 240200Z AUTO 24008KT 6SM 28/22 A2983 RMK T02800220 IEM_DS3505
ZGOW,2001-03-24 03:00,ZGOW 240300Z AUTO 27006KT 11SM 29/20 A2980 RMK SLP099 T02900201 57007 IEM_DS3505
ZGOW,2001-03-24 04:00,ZGOW 240400Z AUTO 24008KT 7SM 29/22 A2980 RMK T02900220 IEM_DS3505
ZGOW,2001-03-24 05:00,ZGOW 240500Z AUTO 18008KT 7SM 29/23 A2977 RMK T02900230 IEM_DS3505
ZGOW,2001-03-24 06:00,ZGOW 240600Z AUTO 22010KT 12SM 31/20 A2971 RMK SLP067 T03070202 57032 IEM_DS3505
ZGOW,2001-03-24 07:00,ZGOW 240700Z AUTO 18014KT 6SM 29/23 A2968 RMK T02900230 IEM_DS3505
ZGOW,2001-03-24 08:00,ZGOW 240800Z AUTO 19014KT 6SM 28/23 A2965 RMK T02800230 IEM_DS3505
ZGOW,2001-03-24 09:00,ZGOW 240900Z AUTO 22008KT 12SM 28/22 A2965 RMK SLP051 T02770216 57016 IEM_DS3505
ZGOW,2001-03-24 10:00,ZGOW 241000Z AUTO 20012KT 6SM 26/23 A2968 RMK T02600230 IEM_DS3505
ZGOW,2001-03-24 11:00,ZGOW 241100Z AUTO 20014KT 6SM 25/22 A2968 RMK T02500220 IEM_DS3505
ZGOW,2001-03-24 12:00,ZGOW 241200Z AUTO 22008KT 9SM 25/21 A2971 RMK SLP069 T02500209 52018 IEM_DS3505
ZGOW,2001-03-24 13:00,ZGOW 241300Z AUTO 22008KT 6SM 24/22 A2974 RMK T02400220 IEM_DS3505
ZGOW,2001-03-24 14:00,ZGOW 241400Z AUTO 23006KT 6SM 24/22 A2974 RMK T02400220 IEM_DS3505
ZGOW,2001-03-24 15:00,ZGOW 241500Z AUTO 25006KT 9SM 24/21 A2974 RMK SLP081 T02440209 52012 IEM_DS3505
ZGOW,2001-03-24 16:00,ZGOW 241600Z AUTO 21006KT 6SM 24/22 A2974 RMK T02400220 IEM_DS3505
ZGOW,2001-03-24 17:00,ZGOW 241700Z AUTO 23010KT 6SM 24/22 A2974 RMK T02400220 IEM_DS3505
ZGOW,2001-03-24 18:00,ZGOW 241800Z AUTO 25006KT 9SM 24/21 A2974 RMK SLP075 T02430208 57006 IEM_DS3505
ZGOW,2001-03-24 19:00,ZGOW 241900Z AUTO 00000KT 6SM 23/22 A2971 RMK T02300220 IEM_DS3505
ZGOW,2001-03-24 20:00,ZGOW 242000Z AUTO 21002KT 6SM 23/22 A2968 RMK T02300220 IEM_DS3505
ZGOW,2001-03-24 21:00,ZGOW 242100Z AUTO 22004KT 8SM 24/21 A2968 RMK SLP059 T02360210 57016 IEM_DS3505
ZGOW,2001-03-24 22:00,ZGOW 242200Z AUTO 00000KT 6SM 22/21 A2971 RMK T02200210 IEM_DS3505
ZGOW,2001-03-24 23:00,ZGOW 242300Z AUTO 18002KT 6SM 23/22 A2971 RMK T02300220 IEM_DS3505
ZGOW,2001-03-25 00:00,ZGOW 250000Z AUTO 25004KT 7SM 24/22 A2974 RMK SLP078 T02440219 52019 IEM_DS3505
ZGOW,2001-03-25 01:00,ZGOW 250100Z AUTO 21006KT 7SM 25/23 A2974 RMK T02500230 IEM_DS3505
ZGOW,2001-03-25 02:00,ZGOW 250200Z AUTO 20008KT 7SM 25/23 A2974 RMK T02500230 IEM_DS3505
ZGOW,2001-03-25 03:00,ZGOW 250300Z AUTO 25006KT 6SM 27/22 A2971 RMK SLP069 T02680222 57009 IEM_DS3505
ZGOW,2001-03-25 04:00,ZGOW 250400Z AUTO 17006KT 7SM 27/24 A2971 RMK T02700240 IEM_DS3505
ZGOW,2001-03-25 05:00,ZGOW 250500Z AUTO 17012KT 7SM 26/24 A2968 RMK T02600240 IEM_DS3505
ZGOW,2001-03-25 06:00,ZGOW 250600Z AUTO 22010KT 7SM 26/22 A2965 RMK 60000 SLP058 T02570225 4////0231 57011 IEM_DS3505
ZGOW,2001-03-25 07:00,ZGOW 250700Z AUTO 28008KT 2 1/2SM 20/20 A2974 RMK T02000200 IEM_DS3505
ZGOW,2001-03-25 08:00,ZGOW 250800Z AUTO 00000KT 7SM 21/20 A2971 RMK T02100200 IEM_DS3505
ZGOW,2001-03-25 09:00,ZGOW 250900Z AUTO 16004KT 6SM 21/20 A2968 RMK SLP056 T02080205 57002 IEM_DS3505
ZGOW,2001-03-25 10:00,ZGOW 251000Z AUTO 12004KT 7SM 20/20 A2968 RMK T02000200 IEM_DS3505
ZGOW,2001-03-25 11:00,ZGOW 251100Z AUTO 00000KT 7SM 20/20 A2971 RMK T02000200 IEM_DS3505
ZGOW,2001-03-25 12:00,ZGOW 251200Z AUTO 11006KT 7SM 20/20 RMK 60150 SLP080 T02040201 52024 IEM_DS3505
ZGOW,2001-03-25 13:00,ZGOW 251300Z AUTO 08014KT 7SM 19/19 A2977 RMK T01900190 IEM_DS3505
ZGOW,2001-03-25 14:00,ZGOW 251400Z AUTO 07016KT 7SM 19/18 A2980 RMK T01900180 IEM_DS3505
ZGOW,2001-03-25 15:00,ZGOW 251500Z AUTO 07010KT 5SM 18/17 A2980 RMK SLP101 T01800173 52021 IEM_DS3505
ZGOW,2001-03-25 16:00,ZGOW 251600Z AUTO 07017KT 7SM 18/17 A2980 RMK T01800170 IEM_DS3505
ZGOW,2001-03-25 17:00,ZGOW 251700Z AUTO 06016KT 7SM 18/17 A2980 RMK T01800170 IEM_DS3505
ZGOW,2001-03-25 18:00,ZGOW 251800Z AUTO 09008KT 7SM 19/16 A2977 RMK 60002 SLP092 T01860164 57009 IEM_DS3505
ZGOW,2001-03-25 19:00,ZGOW 251900Z AUTO 07012KT 6SM 18/17 A2977 RMK T01800170 IEM_DS3505
ZGOW,2001-03-25 20:00,ZGOW 252000Z AUTO 07014KT 6SM 18/16 A2977 RMK T01800160 IEM_DS3505
ZGOW,2001-03-25 21:00,ZGOW 252100Z AUTO 07004KT 9SM 18/15 A2977 RMK 70151 SLP092 T01790152 54000 IEM_DS3505
ZGOW,2001-03-25 22:00,ZGOW 252200Z AUTO 08014KT 7SM 18/15 A2980 RMK T01800150 IEM_DS3505
ZGOW,2001-03-25 23:00,ZGOW 252300Z AUTO 07016KT 7SM 18/15 A2980 RMK T01800150 IEM_DS3505
ZGOW,2001-03-26 00:00,ZGOW 260000Z AUTO 09006KT 11SM 18/14 A2983 RMK 60003 SLP110 T01800138 52018 IEM_DS3505
ZGOW,2001-03-26 01:00,ZGOW 260100Z AUTO 07016KT 7SM 18/15 A2983 RMK T01800150 IEM_DS3505
ZGOW,2001-03-26 02:00,ZGOW 260200Z AUTO 07014KT 7SM 19/15 A2985 RMK T01900150 IEM_DS3505
ZGOW,2001-03-26 03:00,ZGOW 260300Z AUTO 09010KT 12SM 20/12 A2983 RMK SLP113 T02010123 52003 IEM_DS3505
ZGOW,2001-03-26 04:00,ZGOW 260400Z AUTO 06014KT 7SM 20/15 A2983 RMK T02000150 IEM_DS3505
ZGOW,2001-03-26 05:00,ZGOW 260500Z AUTO 06012KT 7SM 21/15 A2983 RMK T02100150 IEM_DS3505
ZGOW,2001-03-26 06:00,ZGOW 260600Z AUTO 07008KT 12SM 20/12 A2980 RMK SLP103 T02000122 57010 IEM_DS3505
ZGOW,2001-03-26 07:00,ZGOW 260700Z AUTO 07014KT 7SM 21/14 A2977 RMK T02100140 IEM_DS3505
ZGOW,2001-03-26 08:00,ZGOW 260800Z AUTO 07014KT 7SM 20/16 A2977 RMK T02000160 IEM_DS3505
ZGOW,2001-03-26 09:00,ZGOW 260900Z AUTO 04012KT 12SM 20/13 A2980 RMK SLP096 T01990133 57007 IEM_DS3505
ZGOW,2001-03-26 10:00,ZGOW 261000Z AUTO 07014KT 7SM 20/15 A2980 RMK T02000150 IEM_DS3505
ZGOW,2001-03-26 11:00,ZGOW 261100Z AUTO 08014KT 7SM 19/16 A2980 RMK T01900160 IEM_DS3505
ZGOW,2001-03-26 12:00,ZGOW 261200Z AUTO 07008KT 10SM 19/14 A2980 RMK SLP095 T01940141 57001 IEM_DS3505
ZGOW,2001-03-26 13:00,ZGOW 261300Z AUTO 08016G25KT 4SM 19/15 A2980 RMK T01900150 IEM_DS3505
ZGOW,2001-03-26 14:00,ZGOW 261400Z AUTO 08012KT 3SM 19/15 A2983 RMK T01900150 IEM_DS3505
ZGOW,2001-03-26 15:00,ZGOW 261500Z AUTO 07008KT 8SM 19/14 A2980 RMK SLP101 T01890143 52006 IEM_DS3505
ZGOW,2001-03-26 16:00,ZGOW 261600Z AUTO 08010KT 2SM 19/15 A2983 RMK T01900150 IEM_DS3505
ZGOW,2001-03-26 17:00,ZGOW 261700Z AUTO 08012KT 2SM 19/15 A2983 RMK T01900150 IEM_DS3505
ZGOW,2001-03-26 18:00,ZGOW 261800Z AUTO 07008KT 7SM 18/14 A2980 RMK 60000 SLP091 T01840141 57010 IEM_DS3505
ZGOW,2001-03-26 19:00,ZGOW 261900Z AUTO 08008KT 1 1/2SM 18/15 A2977 RMK T01800150 IEM_DS3505
ZGOW,2001-03-26 20:00,ZGOW 262000Z AUTO 08008KT 1 1/4SM 18/16 A2974 RMK T01800160 IEM_DS3505
ZGOW,2001-03-26 21:00,ZGOW 262100Z AUTO 00000KT 5SM 18/15 A2974 RMK 70003 SLP088 T01800151 57003 IEM_DS3505
ZGOW,2001-03-26 22:00,ZGOW 262200Z AUTO 06002KT 1 1/2SM 17/17 A2977 RMK T01700170 IEM_DS3505
ZGOW,2001-03-26 23:00,ZGOW 262300Z AUTO 10004KT 1SM 17/17 A2977 RMK T01700170 IEM_DS3505
ZGOW,2001-03-27 00:00,ZGOW 270000Z AUTO 04004KT 4SM 18/16 A2977 RMK 60016 SLP090 T01780163 52002 IEM_DS3505
ZGOW,2001-03-27 01:00,ZGOW 270100Z AUTO 02004KT 1 1/2SM 18/17 A2977 RMK T01800170 IEM_DS3505
ZGOW,2001-03-27 02:00,ZGOW 270200Z AUTO 04004KT 1 1/2SM 18/17 A2977 RMK T01800170 IEM_DS3505
ZGOW,2001-03-27 03:00,ZGOW 270300Z AUTO 04004KT 4SM 18/16 A2980 RMK SLP093 T01750163 52003 IEM_DS3505
ZGOW,2001-03-27 04:00,ZGOW 270400Z AUTO 35002KT 1SM 17/17 A2977 RMK T01700170 IEM_DS3505
ZGOW,2001-03-27 05:00,ZGOW 270500Z AUTO 34004KT 1 1/2SM 17/17 A2974 RMK T01700170 IEM_DS3505
ZGOW,2001-03-27 06:00,ZGOW 270600Z AUTO 00000KT 4SM 18/17 A2974 RMK 60075 SLP079 T01770169 57014 IEM_DS3505
ZGOW,2001-03-27 07:00,ZGOW 270700Z AUTO 02004KT 2 1/2SM 18/18 A2971 RMK T01800180 IEM_DS3505
ZGOW,2001-03-27 08:00,ZGOW 270800Z AUTO 02002KT 3SM 18/18 A2974 RMK T01800180 IEM_DS3505
ZGOW,2001-03-27 09:00,ZGOW 270900Z AUTO 04004KT 6SM 18/17 A2977 RMK SLP082 T01820171 52003 IEM_DS3505
ZGOW,2001-03-27 10:00,ZGOW 271000Z AUTO 35002KT 2 1/2SM 18/18 A2977 RMK T01800180 IEM_DS3505
ZGOW,2001-03-27 11:00,ZGOW 271100Z AUTO 00000KT 1 1/2SM 18/18 RMK T01800180 IEM_DS3505
ZGOW,2001-03-27 12:00,ZGOW 271200Z AUTO 09004KT 2SM 18/18 A2980 RMK T01800180 IEM_DS3505
ZGOW,2001-03-27 13:00,ZGOW 271300Z AUTO 06002KT 4SM 18/18 A2983 RMK T01800180 IEM_DS3505
ZGOW,2001-03-27 14:00,ZGOW 271400Z AUTO 06008KT 3SM 18/18 A2983 RMK T01800180 IEM_DS3505
ZGOW,2001-03-27 15:00,ZGOW 271500Z AUTO 07006KT 5SM 18/17 A2983 RMK SLP115 T01820174 52016 IEM_DS3505
ZGOW,2001-03-27 16:00,ZGOW 271600Z AUTO 00000KT 2SM 18/18 A2985 RMK T01800180 IEM_DS3505
ZGOW,2001-03-27 17:00,ZGOW 271700Z AUTO 06002KT 2SM 18/18 A2983 RMK T01800180 IEM_DS3505
ZGOW,2001-03-27 18:00,ZGOW 271800Z AUTO 00000KT 4SM 18/17 A2983 RMK 60004 SLP108 T01770170 57007 IEM_DS3505
ZGOW,2001-03-27 19:00,ZGOW 271900Z AUTO 00000KT 1SM 17/17 A2983 RMK T01700170 IEM_DS3505
ZGOW,2001-03-27 20:01,ZGOW 272001Z AUTO 00000KT 1/8SM 17/17 A2983 RMK T01700170 IEM_DS3505
ZGOW,2001-03-27 21:00,ZGOW 272100Z AUTO 04004KT 1SM 17/16 A2983 RMK 70111 SLP109 T01680165 52001 IEM_DS3505
ZGOW,2001-03-27 22:00,ZGOW 272200Z AUTO 31002KT 1 1/4SM 16/16 A2985 RMK T01600160 IEM_DS3505
ZGOW,2001-03-27 23:00,ZGOW 272300Z AUTO 00000KT 1 1/2SM 16/16 A2985 RMK T01600160 IEM_DS3505
ZGOW,2001-03-28 00:00,ZGOW 280000Z AUTO 07004KT 2 1/2SM 18/17 A2988 RMK 60000 SLP128 T01790171 52019 IEM_DS3505
ZGOW,2001-03-28 01:00,ZGOW 280100Z AUTO 36002KT 2 1/2SM 19/18 A2991 RMK T01900180 IEM_DS3505
ZGOW,2001-03-28 02:00,ZGOW 280200Z AUTO 08006KT 4SM 21/18 A2988 RMK T02100180 IEM_DS3505
ZGOW,2001-03-28 03:00,ZGOW 280300Z AUTO 07008KT 8SM 22/14 A2988 RMK SLP125 T02220138 57003 IEM_DS3505
ZGOW,2001-03-28 04:00,ZGOW 280400Z AUTO 08016KT 6SM 23/16 A2985 RMK T02300160 IEM_DS3505
ZGOW,2001-03-28 05:00,ZGOW 280500Z AUTO 08019KT 6SM 23/14 A2985 RMK T02300140 IEM_DS3505
ZGOW,2001-03-28 06:00,ZGOW 280600Z AUTO 09014G25KT 7SM 23/10 A2983 RMK SLP112 T02280103 57013 IEM_DS3505
ZGOW,2001-03-28 07:00,ZGOW 280700Z AUTO 08014G23KT 6SM 22/14 A2983 RMK T02200140 IEM_DS3505
ZGOW,2001-03-28 08:00,ZGOW 280800Z AUTO 08016G27KT 22/13 A2983 RMK T02200130 IEM_DS3505
ZGOW,2001-03-28 09:00,ZGOW 280900Z AUTO 09008KT 7SM 21/11 A2983 RMK SLP113 T02110112 52001 IEM_DS3505
ZGOW,2001-03-28 10:00,ZGOW 281000Z AUTO 09012KT 3SM 20/13 A2985 RMK T02000130 IEM_DS3505
ZGOW,2001-03-28 11:00,ZGOW 281100Z AUTO 08012KT 2 1/2SM 20/13 A2988 RMK T02000130 IEM_DS3505
ZGOW,2001-03-28 12:00,ZGOW 281200Z AUTO 07006KT 7SM 20/12 A2991 RMK SLP138 T01960123 52025 IEM_DS3505
ZGOW,2001-03-28 13:00,ZGOW 281300Z AUTO 08016KT 2 1/2SM 19/14 A2991 RMK T01900140 IEM_DS3505
ZGOW,2001-03-28 14:00,ZGOW 281400Z AUTO 08008KT 2 1/2SM 18/15 A2994 RMK T01800150 IEM_DS3505
ZGOW,2001-03-28 15:00,ZGOW 281500Z AUTO 07008KT 6SM 18/13 A2994 RMK SLP145 T01820133 52007 IEM_DS3505
ZGOW,2001-03-28 16:00,ZGOW 281600Z AUTO 08014KT 2 1/2SM 17/14 A2994 RMK T01700140 IEM_DS3505
ZGOW,2001-03-28 17:00,ZGOW 281700Z AUTO 07012KT 3SM 17/14 A2994 RMK T01700140 IEM_DS3505
ZGOW,2001-03-28 18:00,ZGOW 281800Z AUTO 07006KT 6SM 18/13 A2994 RMK SLP142 T01750127 57003 IEM_DS3505
ZGOW,2001-03-28 19:00,ZGOW 281900Z AUTO 36008KT 2SM 17/15 A2994 RMK T01700150 IEM_DS3505
ZGOW,2001-03-28 20:00,ZGOW 282000Z AUTO 36004KT 1SM 16/15 A2997 RMK T01600150 IEM_DS3505
ZGOW,2001-03-28 21:00,ZGOW 282100Z AUTO 02004KT 4SM 16/15 A2997 RMK SLP155 T01600146 52013 IEM_DS3505
ZGOW,2001-03-28 22:00,ZGOW 282200Z AUTO 03008KT 3SM 15/14 A3000 RMK T01500140 IEM_DS3505
ZGOW,2001-03-28 23:00,ZGOW 282300Z AUTO 08008KT 2 1/2SM 16/14 A3000 RMK T01600140 IEM_DS3505
ZGOW,2001-03-29 00:00,ZGOW 290000Z AUTO 07008KT 6SM 16/12 A3003 RMK 60003 SLP167 T01630125 52012 IEM_DS3505
ZGOW,2001-03-29 01:00,ZGOW 290100Z AUTO 05010KT 4SM 17/14 A3003 RMK T01700140 IEM_DS3505
ZGOW,2001-03-29 02:00,ZGOW 290200Z AUTO 05006KT 4SM 19/14 A3003 RMK T01900140 IEM_DS3505
ZGOW,2001-03-29 03:00,ZGOW 290300Z AUTO 09006KT 6SM 19/13 A3000 RMK SLP162 T01930126 57005 IEM_DS3505
ZGOW,2001-03-29 04:00,ZGOW 290400Z AUTO 08008KT 7SM 19/13 A3000 RMK T01900130 IEM_DS3505
ZGOW,2001-03-29 05:00,ZGOW 290500Z AUTO 09006KT 7SM 21/14 A2997 RMK T02100140 IEM_DS3505
ZGOW,2001-03-29 06:00,ZGOW 290600Z AUTO 18010KT 9SM 20/12 A2994 RMK SLP141 T02050122 57021 IEM_DS3505
ZGOW,2001-03-29 07:00,ZGOW 290700Z AUTO 12010KT 7SM 20/15 A2991 RMK T02000150 IEM_DS3505
ZGOW,2001-03-29 08:00,ZGOW 290800Z AUTO 11010KT 6SM 20/15 A2991 RMK T02000150 IEM_DS3505
ZGOW,2001-03-29 09:00,ZGOW 290900Z AUTO 09006KT 9SM 20/12 A2991 RMK SLP137 T01960125 57004 IEM_DS3505
ZGOW,2001-03-29 10:00,ZGOW 291000Z AUTO 08008KT 6SM 18/13 A2991 RMK T01800130 IEM_DS3505
ZGOW,2001-03-29 11:00,ZGOW 291100Z AUTO 08010KT 6SM 17/13 A2994 RMK T01700130 IEM_DS3505
ZGOW,2001-03-29 12:00,ZGOW 291200Z AUTO 07004KT 7SM 17/12 A2994 RMK SLP151 T01720117 52014 IEM_DS3505
ZGOW,2001-03-29 13:00,ZGOW 291300Z AUTO 08010KT 6SM 16/11 A2997 RMK T01600110 IEM_DS3505
ZGOW,2001-03-29 14:00,ZGOW 291400Z AUTO 08008KT 6SM 16/11 A2997 RMK T01600110 IEM_DS3505
ZGOW,2001-03-29 15:00,ZGOW 291500Z AUTO 07004KT 7SM 16/10 A3000 RMK SLP164 T01630098 52013 IEM_DS3505
ZGOW,2001-03-29 16:00,ZGOW 291600Z AUTO 08008KT 6SM 16/11 A3000 RMK T01600110 IEM_DS3505
ZGOW,2001-03-29 17:00,ZGOW 291700Z AUTO 03008KT 6SM 14/12 A2997 RMK T01400120 IEM_DS3505
ZGOW,2001-03-29 18:00,ZGOW 291800Z AUTO 04006KT 7SM 15/11 A2997 RMK SLP157 T01480112 57007 IEM_DS3505
ZGOW,2001-03-29 19:00,ZGOW 291900Z AUTO 04004KT 6SM 12/10 A2997 RMK T01200100 IEM_DS3505
ZGOW,2001-03-29 20:00,ZGOW 292000Z AUTO 03004KT 6SM 13/10 A2997 RMK T01300100 IEM_DS3505
ZGOW,2001-03-29 21:00,ZGOW 292100Z AUTO 04002KT 6SM 13/10 A2997 RMK 70003 SLP159 T01280103 52002 IEM_DS3505
ZGOW,2001-03-29 22:00,ZGOW 292200Z AUTO 01004KT 6SM 13/11 A3000 RMK T01300110 IEM_DS3505
ZGOW,2001-03-29 23:00,ZGOW 292300Z AUTO 35002KT 6SM 14/12 A3003 RMK T01400120 IEM_DS3505
ZGOW,2001-03-30 00:00,ZGOW 300000Z AUTO 04004KT 7SM 16/12 A3003 RMK SLP176 T01630119 52017 IEM_DS3505
ZGOW,2001-03-30 01:00,ZGOW 300100Z AUTO 36006KT 6SM 18/13 A3003 RMK T01800130 IEM_DS3505
ZGOW,2001-03-30 02:00,ZGOW 300200Z AUTO 05006KT 6SM 20/12 A3006 RMK T02000120 IEM_DS3505
ZGOW,2001-03-30 03:00,ZGOW 300300Z AUTO 07004KT 9SM 21/12 A3003 RMK SLP176 T02130116 54000 IEM_DS3505
ZGOW,2001-03-30 04:00,ZGOW 300400Z AUTO 05006KT 6SM 22/12 A3000 RMK T02200120 IEM_DS3505
ZGOW,2001-03-30 05:00,ZGOW 300500Z AUTO 12006KT 6SM 22/11 A3000 RMK T02200110 IEM_DS3505
ZGOW,2001-03-30 06:00,ZGOW 300600Z AUTO 16004KT 11SM 23/10 A2997 RMK SLP152 T02310102 57024 IEM_DS3505
ZGOW,2001-03-30 07:00,ZGOW 300700Z AUTO 13006KT 6SM 22/13 A2994 RMK T02200130 IEM_DS3505
ZGOW,2001-03-30 08:00,ZGOW 300800Z AUTO 12006KT 6SM 22/11 A2994 RMK T02200110 IEM_DS3505
ZGOW,2001-03-30 09:00,ZGOW 300900Z AUTO 14006KT 12SM 22/10 A2994 RMK SLP149 T02180098 57003 IEM_DS3505
ZGOW,2001-03-30 10:00,ZGOW 301000Z AUTO 13008KT 6SM 20/12 A2997 RMK T02000120 IEM_DS3505
ZGOW,2001-03-30 11:00,ZGOW 301100Z AUTO 12006KT 6SM 19/13 A2997 RMK T01900130 IEM_DS3505
ZGOW,2001-03-30 12:00,ZGOW 301200Z AUTO 11002KT 11SM 19/12 A3000 RMK SLP161 T01930117 52012 IEM_DS3505
ZGOW,2001-03-30 13:00,ZGOW 301300Z AUTO 08002KT 6SM 18/15 A3000 RMK T01800150 IEM_DS3505
ZGOW,2001-03-30 14:00,ZGOW 301400Z AUTO 07002KT 6SM 17/15 A3003 RMK T01700150 IEM_DS3505
ZGOW,2001-03-30 15:00,ZGOW 301500Z AUTO 04004KT 9SM 18/14 RMK SLP173 T01840142 52012 IEM_DS3505
ZGOW,2001-03-30 18:00,ZGOW 301800Z AUTO 04002KT 7SM 17/14 RMK SLP170 T01710138 57003 IEM_DS3505
ZGOW,2001-03-30 21:00,ZGOW 302100Z AUTO 04004KT 7SM 16/14 A3000 RMK SLP166 T01640138 57004 IEM_DS3505
ZGOW,2001-03-30 22:00,ZGOW 302200Z AUTO 32002KT 3SM 16/14 A3003 RMK T01600140 IEM_DS3505
ZGOW,2001-03-30 23:00,ZGOW 302300Z AUTO 00000KT 3SM 16/14 A3003 RMK T01600140 IEM_DS3505
ZGOW,2001-03-31 00:00,ZGOW 310000Z AUTO 02004KT 7SM 18/14 A3006 RMK SLP183 T01840135 52017 IEM_DS3505
ZGOW,2001-03-31 01:00,ZGOW 310100Z AUTO 32004KT 6SM 20/15 A3006 RMK T02000150 IEM_DS3505
ZGOW,2001-03-31 02:00,ZGOW 310200Z AUTO 34006KT 6SM 22/15 A3006 RMK T02200150 IEM_DS3505
ZGOW,2001-03-31 03:00,ZGOW 310300Z AUTO 14002KT 7SM 24/14 A3006 RMK SLP183 T02360139 54000 IEM_DS3505
ZGOW,2001-03-31 04:00,ZGOW 310400Z AUTO 32002KT 6SM 25/17 A3003 RMK T02500170 IEM_DS3505
ZGOW,2001-03-31 05:00,ZGOW 310500Z AUTO 31002KT 7SM 26/18 A3003 RMK T02600180 IEM_DS3505
ZGOW,2001-03-31 06:00,ZGOW 310600Z AUTO 25004KT 7SM 26/16 A3000 RMK SLP161 T02650156 57022 IEM_DS3505
ZGOW,2001-03-31 07:00,ZGOW 310700Z AUTO 13008KT 6SM 24/18 A3000 RMK T02400180 IEM_DS3505
ZGOW,2001-03-31 08:00,ZGOW 310800Z AUTO 14008KT 6SM 23/18 A3000 RMK T02300180 IEM_DS3505
ZGOW,2001-03-31 09:00,ZGOW 310900Z AUTO 11008KT 9SM 22/16 A3003 RMK SLP170 T02180160 52009 IEM_DS3505
ZGOW,2001-03-31 10:00,ZGOW 311000Z AUTO 08016KT 6SM 20/16 A3003 RMK T02000160 IEM_DS3505
ZGOW,2001-03-31 11:00,ZGOW 311100Z AUTO 08016KT 6SM 19/16 A3006 RMK T01900160 IEM_DS3505
ZGOW,2001-03-31 12:00,ZGOW 311200Z AUTO 07010KT 7SM 19/15 A3009 RMK SLP196 T01880152 52026 IEM_DS3505
ZGOW,2001-03-31 13:00,ZGOW 311300Z AUTO 08017KT 4SM 18/16 A3012 RMK T01800160 IEM_DS3505
ZGOW,2001-03-31 14:00,ZGOW 311400Z AUTO 07019KT 3SM 18/16 A3015 RMK T01800160 IEM_DS3505
ZGOW,2001-03-31 15:00,ZGOW 311500Z AUTO 07010KT 7SM 18/14 A3015 RMK SLP214 T01820138 52018 IEM_DS3505
ZGOW,2001-03-31 16:00,ZGOW 311600Z AUTO 08010KT 2 1/2SM 18/15 A3012 RMK T01800150 IEM_DS3505
ZGOW,2001-03-31 18:00,ZGOW 311800Z AUTO 09006KT 7SM 18/13 A3012 RMK 60003 SLP203 T01750131 57011 IEM_DS3505
ZGOW,2001-03-31 19:00,ZGOW 311900Z AUTO 07014KT 3SM 17/14 A3009 RMK T01700140 IEM_DS3505
ZGOW,2001-03-31 20:00,ZGOW 312000Z AUTO 07010KT 3SM 17/14 A3009 RMK T01700140 IEM_DS3505
ZGOW,2001-03-31 21:00,ZGOW 312100Z AUTO 07006KT 7SM 17/12 A3009 RMK 70003 SLP199 T01660124 57004 IEM_DS3505
ZGOW,2001-03-31 22:00,ZGOW 312200Z AUTO 08014KT 4SM 16/13 A3009 RMK T01600130 IEM_DS3505
ZGOW,2001-03-31 23:00,ZGOW 312300Z AUTO 06010KT 6SM 17/13 A3012 RMK T01700130 IEM_DS3505
ZGOW,2001-04-01 00:00,ZGOW 010000Z AUTO 04008KT 11SM 18/12 A3012 RMK 70003 SLP209 T01770121 52010 IEM_DS3505
ZGOW,2001-04-01 01:00,ZGOW 010100Z AUTO 08016KT 6SM 19/14 A3015 RMK T01900140 IEM_DS3505
ZGOW,2001-04-01 02:00,ZGOW 010200Z AUTO 08016KT 6SM 19/14 A3015 RMK T01900140 IEM_DS3505
ZGOW,2001-04-01 03:00,ZGOW 010300Z AUTO 07012KT 11SM 20/12 A3012 RMK SLP208 T02030117 57001 IEM_DS3505
ZGOW,2001-04-01 04:00,ZGOW 010400Z AUTO 09012KT 6SM 21/14 A3012 RMK T02100140 IEM_DS3505
ZGOW,2001-04-01 05:00,ZGOW 010500Z AUTO 09006KT 12SM 21/16 A3009 RMK SLP167 T02100160 57011 IEM_DS3505
ZGOW,2001-04-01 06:00,ZGOW 010600Z AUTO 16008KT 12SM 21/14 A3006 RMK SLP178 T02130139 57030 IEM_DS3505
ZGOW,2001-04-01 07:00,ZGOW 010700Z AUTO 11008KT 6SM 22/16 A3003 RMK T02200160 IEM_DS3505
ZGOW,2001-04-01 08:00,ZGOW 010800Z AUTO 11010KT 6SM 21/16 A3000 RMK T02100160 IEM_DS3505
ZGOW,2001-04-01 09:00,ZGOW 010900Z AUTO 09006KT 12SM 21/15 A3000 RMK SLP167 T02110148 57011 IEM_DS3505
ZGOW,2001-04-01 10:00,ZGOW 011000Z AUTO 08012KT 6SM 19/15 A3003 RMK T01900150 IEM_DS3505
ZGOW,2001-04-01 11:00,ZGOW 011100Z AUTO 07012KT 6SM 19/15 A3003 RMK T01900150 IEM_DS3505
ZGOW,2001-04-01 12:00,ZGOW 011200Z AUTO 07006KT 8SM 19/14 A3003 RMK SLP178 T01880145 52011 IEM_DS3505
ZGOW,2001-04-01 13:00,ZGOW 011300Z AUTO 08010KT 6SM 18/16 A3006 RMK T01800160 IEM_DS3505
ZGOW,2001-04-01 14:00,ZGOW 011400Z AUTO 06008KT 6SM 18/16 A3006 RMK T01800160 IEM_DS3505
ZGOW,2001-04-01 15:00,ZGOW 011500Z AUTO 07006KT 7SM 18/15 RMK SLP179 T01810152 52001 IEM_DS3505
ZGOW,2001-04-01 18:00,ZGOW 011800Z AUTO 04006KT 7SM 18/15 A2997 RMK SLP160 T01790150 57019 IEM_DS3505
ZGOW,2001-04-01 19:00,ZGOW 011900Z AUTO 06008KT 3SM 18/16 A2997 RMK T01800160 IEM_DS3505
ZGOW,2001-04-01 20:00,ZGOW 012000Z AUTO 01004KT 3SM 17/16 A2997 RMK T01700160 IEM_DS3505
ZGOW,2001-04-01 21:00,ZGOW 012100Z AUTO 04004KT 6SM 18/15 RMK SLP151 T01770150 57009 IEM_DS3505
ZGOW,2001-04-01 22:00,ZGOW 012200Z AUTO 03004KT 3SM 17/16 A2994 RMK T01700160 IEM_DS3505
ZGOW,2001-04-01 23:00,ZGOW 012300Z AUTO 34004KT 2 1/2SM 17/16 A2997 RMK T01700160 IEM_DS3505
ZGOW,2001-04-02 00:00,ZGOW 020000Z AUTO 29004KT 6SM 19/15 A2997 RMK SLP156 T01880151 52005 IEM_DS3505
ZGOW,2001-04-02 01:00,ZGOW 020100Z AUTO 00000KT 4SM 20/16 A2997 RMK T02000160 IEM_DS3505
ZGOW,2001-04-02 02:00,ZGOW 020200Z AUTO 32002KT 4SM 21/17 A2997 RMK T02100170 IEM_DS3505
ZGOW,2001-04-02 03:00,ZGOW 020300Z AUTO 29006KT 6SM 23/16 A2997 RMK SLP158 T02270158 52002 IEM_DS3505
ZGOW,2001-04-02 04:00,ZGOW 020400Z AUTO 31004KT 24/17 A2994 RMK T02400170 IEM_DS3505
ZGOW,2001-04-02 05:00,ZGOW 020500Z AUTO 13002KT 3SM 25/18 A2991 RMK T02500180 IEM_DS3505
ZGOW,2001-04-02 06:00,ZGOW 020600Z AUTO 25002KT 6SM 26/18 A2988 RMK SLP123 T02590177 57035 IEM_DS3505
ZGOW,2001-04-02 07:00,ZGOW 020700Z AUTO 13008KT 6SM 24/19 A2985 RMK T02400190 IEM_DS3505
ZGOW,2001-04-02 08:00,ZGOW 020800Z AUTO 12008KT 6SM 22/19 A2985 RMK T02200190 IEM_DS3505
ZGOW,2001-04-02 09:00,ZGOW 020900Z AUTO 16006KT 6SM 23/17 A2985 RMK SLP111 T02330174 57012 IEM_DS3505
ZGOW,2001-04-02 10:00,ZGOW 021000Z AUTO 12006KT 5SM 21/18 A2985 RMK T02100180 IEM_DS3505
ZGOW,2001-04-02 11:00,ZGOW 021100Z AUTO 12008KT 4SM 20/19 A2983 RMK T02000190 IEM_DS3505
ZGOW,2001-04-02 12:00,ZGOW 021200Z AUTO 09004KT 6SM 21/17 A2985 RMK SLP122 T02090173 52011 IEM_DS3505
ZGOW,2001-04-02 13:00,ZGOW 021300Z AUTO 00000KT 3SM 20/19 A2988 RMK T02000190 IEM_DS3505
ZGOW,2001-04-02 14:00,ZGOW 021400Z AUTO 03004KT 2 1/2SM 19/18 A2988 RMK T01900180 IEM_DS3505
ZGOW,2001-04-02 15:00,ZGOW 021500Z AUTO 07004KT 5SM 20/18 A2988 RMK SLP132 T02030176 52010 IEM_DS3505
ZGOW,2001-04-02 16:00,ZGOW 021600Z AUTO 00000KT 3SM 19/18 A2988 RMK T01900180 IEM_DS3505
ZGOW,2001-04-02 17:00,ZGOW 021700Z AUTO 05002KT 4SM 18/18 A2985 RMK T01800180 IEM_DS3505
ZGOW,2001-04-02 18:00,ZGOW 021800Z AUTO 00000KT 5SM 20/18 A2985 RMK SLP121 T01950176 57011 IEM_DS3505
ZGOW,2001-04-02 19:00,ZGOW 021900Z AUTO 31002KT 3SM 19/18 A2983 RMK T01900180 IEM_DS3505
ZGOW,2001-04-02 20:00,ZGOW 022000Z AUTO 00000KT 2SM 19/19 A2983 RMK T01900190 IEM_DS3505
ZGOW,2001-04-02 21:00,ZGOW 022100Z AUTO 27002KT 5SM 20/18 A2983 RMK SLP112 T02000182 57009 IEM_DS3505
ZGOW,2001-04-02 22:00,ZGOW 022200Z AUTO 31002KT 1 1/4SM 19/19 A2985 RMK T01900190 IEM_DS3505
ZGOW,2001-04-02 23:00,ZGOW 022300Z AUTO 00000KT 1SM 20/19 A2985 RMK T02000190 IEM_DS3505
ZGOW,2001-04-03 00:00,ZGOW 030000Z AUTO 25006KT 4SM 21/19 A2985 RMK SLP124 T02090188 52012 IEM_DS3505
ZGOW,2001-04-03 01:00,ZGOW 030100Z AUTO 22006KT 4SM 22/20 A2988 RMK T02200200 IEM_DS3505
ZGOW,2001-04-03 02:00,ZGOW 030200Z AUTO 29002KT 4SM 23/20 A2988 RMK T02300200 IEM_DS3505
ZGOW,2001-04-03 03:00,ZGOW 030300Z AUTO 27004KT 7SM 25/19 A2985 RMK SLP123 T02500186 57001 IEM_DS3505
ZGOW,2001-04-03 04:00,ZGOW 030400Z AUTO 13008KT 4SM 26/22 A2983 RMK T02600220 IEM_DS3505
ZGOW,2001-04-03 05:00,ZGOW 030500Z AUTO 14008KT 4SM 25/21 A2983 RMK T02500210 IEM_DS3505
ZGOW,2001-04-03 06:00,ZGOW 030600Z AUTO 14006KT 9SM 26/19 A2980 RMK SLP095 T02650193 57028 IEM_DS3505
ZGOW,2001-04-03 07:00,ZGOW 030700Z AUTO 13010KT 6SM 25/21 A2977 RMK T02500210 IEM_DS3505
ZGOW,2001-04-03 08:00,ZGOW 030800Z AUTO 14010KT 6SM 24/22 A2977 RMK T02400220 IEM_DS3505
ZGOW,2001-04-03 09:00,ZGOW 030900Z AUTO 16006KT 9SM 24/20 A2977 RMK SLP090 T02420197 57005 IEM_DS3505
ZGOW,2001-04-03 10:00,ZGOW 031000Z AUTO 13010KT 6SM 23/21 A2980 RMK T02300210 IEM_DS3505
ZGOW,2001-04-03 11:00,ZGOW 031100Z AUTO 11010KT 4SM 22/21 A2983 RMK T02200210 IEM_DS3505
ZGOW,2001-04-03 12:00,ZGOW 031200Z AUTO 11008KT 7SM 23/20 A2985 RMK SLP116 T02280203 52026 IEM_DS3505
ZGOW,2001-04-03 13:00,ZGOW 031300Z AUTO 07012KT 2 1/2SM 20/19 A2988 RMK T02000190 IEM_DS3505
ZGOW,2001-04-03 14:00,ZGOW 031400Z AUTO 08016KT 4SM 20/18 A2991 RMK T02000180 IEM_DS3505
ZGOW,2001-04-03 15:00,ZGOW 031500Z AUTO 07008KT 6SM 20/17 A2994 RMK SLP145 T01960168 52029 IEM_DS3505
ZGOW,2001-04-03 16:00,ZGOW 031600Z AUTO 07019KT 7SM 19/17 A2994 RMK T01900170 IEM_DS3505
ZGOW,2001-04-03 17:01,ZGOW 031701Z AUTO 07019KT 6SM 19/17 A2994 RMK T01900170 IEM_DS3505
ZGOW,2001-04-03 18:00,ZGOW 031800Z AUTO 07010KT 8SM 19/16 RMK 60003 SLP141 T01870162 57004 IEM_DS3505
ZGOW,2001-04-03 18:01,ZGOW 031801Z AUTO 07021KT 6SM 19/17 A2991 RMK T01900170 IEM_DS3505
ZGOW,2001-04-03 19:00,ZGOW 031900Z AUTO 07021KT 6SM 19/17 A2991 RMK T01900170 IEM_DS3505
ZGOW,2001-04-03 20:01,ZGOW 032001Z AUTO 07021KT 4SM 18/17 A2991 RMK T01800170 IEM_DS3505
ZGOW,2001-04-03 21:00,ZGOW 032100Z AUTO 09008KT 8SM 18/16 A2991 RMK 70022 SLP139 T01750158 57002 IEM_DS3505
ZGOW,2001-04-03 22:00,ZGOW 032200Z AUTO 08016KT 7SM 18/16 A2991 RMK T01800160 IEM_DS3505
ZGOW,2001-04-03 23:00,ZGOW 032300Z AUTO 07017KT 7SM 18/16 A2994 RMK T01800160 IEM_DS3505
ZGOW,2001-04-04 00:00,ZGOW 040000Z AUTO 07008KT 9SM 18/15 A2994 RMK 60024 SLP146 T01750147 52007 IEM_DS3505
ZGOW,2001-04-04 01:00,ZGOW 040100Z AUTO 07019KT 7SM 18/15 A2997 RMK T01800150 IEM_DS3505
ZGOW,2001-04-04 02:00,ZGOW 040200Z AUTO 07016KT 4SM 17/15 A2997 RMK T01700150 IEM_DS3505
ZGOW,2001-04-04 03:00,ZGOW 040300Z AUTO 07006KT 6SM 17/14 A3003 RMK SLP166 T01670144 52020 IEM_DS3505
ZGOW,2001-04-04 04:00,ZGOW 040400Z AUTO 07016KT 7SM 17/16 A2997 RMK T01700160 IEM_DS3505
ZGOW,2001-04-04 05:00,ZGOW 040500Z AUTO 08014KT 4SM 17/15 A2994 RMK T01700150 IEM_DS3505
ZGOW,2001-04-04 06:00,ZGOW 040600Z AUTO 07010KT 7SM 17/14 A2994 RMK 60020 SLP150 T01730142 57016 IEM_DS3505
ZGOW,2001-04-04 07:00,ZGOW 040700Z AUTO 05010KT 2 1/2SM 17/16 A2994 RMK T01700160 IEM_DS3505
ZGOW,2001-04-04 08:00,ZGOW 040800Z AUTO 04010KT 2 1/2SM 17/15 A2994 RMK T01700150 IEM_DS3505
ZGOW,2001-04-04 09:00,ZGOW 040900Z AUTO 09006KT 4SM 16/15 A2994 RMK SLP143 T01630149 57007 IEM_DS3505
ZGOW,2001-04-04 10:00,ZGOW 041000Z AUTO 05008KT 2SM 16/15 A2997 RMK T01600150 IEM_DS3505
ZGOW,2001-04-04 11:00,ZGOW 041100Z AUTO 05006KT 2SM 16/16 A2997 RMK T01600160 IEM_DS3505
ZGOW,2001-04-04 12:00,ZGOW 041200Z AUTO 09004KT 2 1/2SM 16/15 A3000 RMK 60035 SLP160 T01610154 52017 IEM_DS3505
ZGOW,2001-04-04 13:00,ZGOW 041300Z AUTO 09012KT 2SM 16/16 A2997 RMK T01600160 IEM_DS3505
ZGOW,2001-04-04 14:00,ZGOW 041400Z AUTO 08012KT 7SM 16/16 A3000 RMK T01600160 IEM_DS3505
ZGOW,2001-04-04 15:00,ZGOW 041500Z AUTO 07008KT 5SM 16/15 A3000 RMK SLP165 T01630146 52005 IEM_DS3505
ZGOW,2001-04-04 16:00,ZGOW 041600Z AUTO 06014KT 2 1/2SM 16/15 A3000 RMK T01600150 IEM_DS3505
ZGOW,2001-04-04 17:00,ZGOW 041700Z AUTO 06008KT 2 1/2SM 16/15 A2997 RMK T01600150 IEM_DS3505
ZGOW,2001-04-04 18:00,ZGOW 041800Z AUTO 07004KT 7SM 16/15 A2997 RMK 60012 SLP155 T01630146 57010 IEM_DS3505
ZGOW,2001-04-04 19:00,ZGOW 041900Z AUTO 05004KT 2 1/2SM 16/16 A2997 RMK T01600160 IEM_DS3505
ZGOW,2001-04-04 20:00,ZGOW 042000Z AUTO 06006KT 2 1/2SM 16/16 A2994 RMK T01600160 IEM_DS3505
ZGOW,2001-04-04 21:00,ZGOW 042100Z AUTO 04004KT 7SM 17/15 A2994 RMK 70068 SLP145 T01660149 57010 IEM_DS3505
ZGOW,2001-04-04 22:00,ZGOW 042200Z AUTO 35002KT 7SM 17/16 A2994 RMK T01700160 IEM_DS3505
ZGOW,2001-04-04 23:00,ZGOW 042300Z AUTO 36002KT 3SM 17/16 A2997 RMK T01700160 IEM_DS3505
ZGOW,2001-04-05 00:00,ZGOW 050000Z AUTO 04004KT 8SM 17/15 A3000 RMK 60003 SLP161 T01740154 52016 IEM_DS3505
ZGOW,2001-04-05 01:00,ZGOW 050100Z AUTO 03006KT 5SM 19/16 A3000 RMK T01900160 IEM_DS3505
ZGOW,2001-04-05 02:00,ZGOW 050200Z AUTO 00000KT 6SM 20/16 A3000 RMK T02000160 IEM_DS3505
ZGOW,2001-04-05 03:00,ZGOW 050300Z AUTO 04006KT 8SM 20/16 A3000 RMK SLP165 T02020159 52004 IEM_DS3505
ZGOW,2001-04-05 04:00,ZGOW 050400Z AUTO 33002KT 6SM 22/18 A3000 RMK T02200180 IEM_DS3505
ZGOW,2001-04-05 05:00,ZGOW 050500Z AUTO 08008KT 6SM 23/17 A2997 RMK T02300170 IEM_DS3505
ZGOW,2001-04-05 06:00,ZGOW 050600Z AUTO 14004KT 10SM 23/16 A2994 RMK SLP144 T02300157 57021 IEM_DS3505
ZGOW,2001-04-05 07:00,ZGOW 050700Z AUTO 13006KT 6SM 22/17 A2991 RMK T02200170 IEM_DS3505
ZGOW,2001-04-05 08:00,ZGOW 050800Z AUTO 13006KT 6SM 22/18 A2988 RMK T02200180 IEM_DS3505
ZGOW,2001-04-05 09:00,ZGOW 050900Z AUTO 16004KT 10SM 21/16 A2991 RMK SLP136 T02140159 57008 IEM_DS3505
ZGOW,2001-04-05 10:00,ZGOW 051000Z AUTO 13006KT 6SM 20/17 A2991 RMK T02000170 IEM_DS3505
ZGOW,2001-04-05 11:00,ZGOW 051100Z AUTO 12004KT 6SM 20/18 A2991 RMK T02000180 IEM_DS3505
ZGOW,2001-04-05 12:00,ZGOW 051200Z AUTO 11004KT 8SM 20/17 A2994 RMK SLP146 T01990168 52010 IEM_DS3505
ZGOW,2001-04-05 13:00,ZGOW 051300Z AUTO 07004KT 6SM 19/18 A2997 RMK T01900180 IEM_DS3505
ZGOW,2001-04-05 14:00,ZGOW 051400Z AUTO 09006KT 6SM 19/18 A2997 RMK T01900180 IEM_DS3505
ZGOW,2001-04-05 15:00,ZGOW 051500Z AUTO 11004KT 8SM 20/17 A2997 RMK SLP146 T01990168 52010 IEM_DS3505
ZGOW,2001-04-05 16:00,ZGOW 051600Z AUTO 07008KT 6SM 19/18 A2997 RMK T01900180 IEM_DS3505
ZGOW,2001-04-05 17:00,ZGOW 051700Z AUTO 07006KT 4SM 19/18 A2997 RMK T01900180 IEM_DS3505
ZGOW,2001-04-05 18:00,ZGOW 051800Z AUTO 09006KT 7SM 19/17 A2994 RMK SLP149 T01920169 57008 IEM_DS3505
ZGOW,2001-04-05 19:00,ZGOW 051900Z AUTO 07012KT 6SM 19/18 A2991 RMK T01900180 IEM_DS3505
ZGOW,2001-04-05 20:00,ZGOW 052000Z AUTO 09006KT 6SM 19/17 A2991 RMK T01900170 IEM_DS3505
ZGOW,2001-04-05 21:00,ZGOW 052100Z AUTO 04002KT 7SM 19/16 A2991 RMK SLP143 T01900165 57006 IEM_DS3505
ZGOW,2001-04-05 22:00,ZGOW 052200Z AUTO 08006KT 6SM 19/17 A2994 RMK T01900170 IEM_DS3505
ZGOW,2001-04-05 23:00,ZGOW 052300Z AUTO 09008KT 6SM 19/17 A2994 RMK T01900170 IEM_DS3505
ZGOW,2001-04-06 00:00,ZGOW 060000Z AUTO 07008KT 9SM 19/16 A2994 RMK 60002 SLP146 T01860164 52003 IEM_DS3505
ZGOW,2001-04-06 01:00,ZGOW 060100Z AUTO 06006KT 7SM 19/18 A3000 RMK T01900180 IEM_DS3505
ZGOW,2001-04-06 02:00,ZGOW 060200Z AUTO 03006KT 4SM 19/18 A3003 RMK T01900180 IEM_DS3505
ZGOW,2001-04-06 03:00,ZGOW 060300Z AUTO 04004KT 6SM 19/17 A3003 RMK SLP173 T01900170 52027 IEM_DS3505
ZGOW,2001-04-06 04:00,ZGOW 060400Z AUTO 35004KT 1 1/4SM 18/18 A3003 RMK T01800180 IEM_DS3505
ZGOW,2001-04-06 05:00,ZGOW 060500Z AUTO 07004KT 4SM 19/18 A3000 RMK T01900180 IEM_DS3505
ZGOW,2001-04-06 06:00,ZGOW 060600Z AUTO 14004KT 6SM 19/18 A2997 RMK 60043 SLP150 T01930175 57023 IEM_DS3505
ZGOW,2001-04-06 07:00,ZGOW 060700Z AUTO 09002KT 2 1/2SM 19/19 A2991 RMK T01900190 IEM_DS3505
ZGOW,2001-04-06 08:00,ZGOW 060800Z AUTO 09004KT 0SM RMK IEM_DS3505
ZGOW,2001-04-06 09:00,ZGOW 060900Z AUTO 04008KT 5SM 19/18 A2994 RMK SLP141 T01900179 57009 IEM_DS3505
ZGOW,2001-04-06 10:00,ZGOW 061000Z AUTO 06008KT 5SM 18/17 A2994 RMK T01800170 IEM_DS3505
ZGOW,2001-04-06 11:00,ZGOW 061100Z AUTO 06006KT 5SM 18/17 A2994 RMK T01800170 IEM_DS3505
ZGOW,2001-04-06 12:00,ZGOW 061200Z AUTO 07004KT 6SM 18/17 A2994 RMK 60004 SLP145 T01810169 52004 IEM_DS3505
ZGOW,2001-04-06 13:00,ZGOW 061300Z AUTO 05004KT 5SM 18/18 A2994 RMK T01800180 IEM_DS3505
ZGOW,2001-04-06 14:00,ZGOW 061400Z AUTO 01002KT 2SM 18/18 A2997 RMK T01800180 IEM_DS3505
ZGOW,2001-04-06 15:00,ZGOW 061500Z AUTO 04004KT 4SM 18/18 A2997 RMK SLP156 T01830175 52011 IEM_DS3505
ZGOW,2001-04-06 16:00,ZGOW 061600Z AUTO 05006KT 3SM 18/18 A2994 RMK T01800180 IEM_DS3505
ZGOW,2001-04-06 18:00,ZGOW 061800Z AUTO 07004KT 2 1/2SM 18/18 RMK 60004 SLP146 T01820177 57010 IEM_DS3505
ZGOW,2001-04-06 19:00,ZGOW 061900Z AUTO 05004KT 1SM 18/18 A2991 RMK T01800180 IEM_DS3505
ZGOW,2001-04-06 20:00,ZGOW 062000Z AUTO 07004KT 1SM 18/18 A2991 RMK T01800180 IEM_DS3505
ZGOW,2001-04-06 21:00,ZGOW 062100Z AUTO 14004KT 4SM 18/18 A2991 RMK 70056 SLP139 T01810176 57007 IEM_DS3505
ZGOW,2001-04-06 22:00,ZGOW 062200Z AUTO 09002KT 1 1/4SM 18/18 A2991 RMK T01800180 IEM_DS3505
ZGOW,2001-04-06 23:00,ZGOW 062300Z AUTO 00000KT 1 1/4SM 18/18 A2994 RMK T01800180 IEM_DS3505
ZGOW,2001-04-07 00:00,ZGOW 070000Z AUTO 04002KT 5SM 19/18 A2994 RMK 60004 SLP149 T01890179 52010 IEM_DS3505
ZGOW,2001-04-07 01:00,ZGOW 070100Z AUTO 05006KT 5SM 20/19 A2994 RMK T02000190 IEM_DS3505
ZGOW,2001-04-07 02:00,ZGOW 070200Z AUTO 01002KT 4SM 20/19 A2997 RMK T02000190 IEM_DS3505
ZGOW,2001-04-07 03:00,ZGOW 070300Z AUTO 11002KT 6SM 22/18 A2994 RMK SLP149 T02150183 54000 IEM_DS3505
ZGOW,2001-04-07 04:00,ZGOW 070400Z AUTO 09006KT 5SM 22/19 A2994 RMK T02200190 IEM_DS3505
ZGOW,2001-04-07 05:00,ZGOW 070500Z AUTO 11004KT 7SM 23/20 A2991 RMK T02300200 IEM_DS3505
ZGOW,2001-04-07 06:00,ZGOW 070600Z AUTO 16004KT 7SM 24/19 A2988 RMK SLP124 T02360189 57025 IEM_DS3505
ZGOW,2001-04-07 07:00,ZGOW 070700Z AUTO 14004KT 7SM 23/19 A2985 RMK T02300190 IEM_DS3505
ZGOW,2001-04-07 08:00,ZGOW 070800Z AUTO 13006KT 7SM 21/19 A2985 RMK T02100190 IEM_DS3505
ZGOW,2001-04-07 09:00,ZGOW 070900Z AUTO 00000KT 7SM 22/18 A2983 RMK SLP115 T02170180 57009 IEM_DS3505
ZGOW,2001-04-07 10:00,ZGOW 071000Z AUTO 13002KT 4SM 21/20 A2985 RMK T02100200 IEM_DS3505
ZGOW,2001-04-07 11:00,ZGOW 071100Z AUTO 00000KT 7SM 21/20 A2985 RMK T02100200 IEM_DS3505
ZGOW,2001-04-07 12:00,ZGOW 071200Z AUTO 00000KT 7SM 21/18 A2988 RMK SLP127 T02090182 52012 IEM_DS3505
ZGOW,2001-04-07 13:00,ZGOW 071300Z AUTO 12002KT 7SM 21/19 A2988 RMK T02100190 IEM_DS3505
ZGOW,2001-04-07 14:00,ZGOW 071400Z AUTO 10002KT 6SM 20/19 A2991 RMK T02000190 IEM_DS3505
ZGOW,2001-04-07 15:00,ZGOW 071500Z AUTO 07006KT 7SM 20/18 A2988 RMK SLP119 T02050183 57008 IEM_DS3505
ZGOW,2001-04-07 16:00,ZGOW 071600Z AUTO 08002KT 6SM 20/19 A2988 RMK T02000190 IEM_DS3505
ZGOW,2001-04-07 17:00,ZGOW 071700Z AUTO 07004KT 4SM 20/19 A2985 RMK T02000190 IEM_DS3505
ZGOW,2001-04-07 18:00,ZGOW 071800Z AUTO 07002KT 6SM 20/19 A2983 RMK SLP105 T02020189 57014 IEM_DS3505
ZGOW,2001-04-07 19:00,ZGOW 071900Z AUTO 06004KT 4SM 20/19 A2980 RMK T02000190 IEM_DS3505
ZGOW,2001-04-07 20:00,ZGOW 072000Z AUTO 06004KT 3SM 20/19 A2977 RMK T02000190 IEM_DS3505
ZGOW,2001-04-07 21:00,ZGOW 072100Z AUTO 07004KT 5SM 20/19 A2977 RMK 70003 SLP084 T02010192 57021 IEM_DS3505
ZGOW,2001-04-07 22:00,ZGOW 072200Z AUTO 07004KT 1 1/4SM 20/19 A2977 RMK T02000190 IEM_DS3505
ZGOW,2001-04-07 23:00,ZGOW 072300Z AUTO 11004KT 1 1/4SM 20/19 A2977 RMK T02000190 IEM_DS3505
ZGOW,2001-04-08 00:00,ZGOW 080000Z AUTO 07002KT 2SM 20/20 A2977 RMK 60003 SLP086 T02010195 52002 IEM_DS3505
ZGOW,2001-04-08 01:00,ZGOW 080100Z AUTO 06002KT 1 1/2SM 20/20 A2977 RMK T02000200 IEM_DS3505
ZGOW,2001-04-08 02:00,ZGOW 080200Z AUTO 05004KT 1 1/4SM 20/20 A2980 RMK T02000200 IEM_DS3505
ZGOW,2001-04-08 03:00,ZGOW 080300Z AUTO 07002KT 1 1/4SM 20/20 A2977 RMK SLP082 T02050197 57004 IEM_DS3505
ZGOW,2001-04-08 04:00,ZGOW 080400Z AUTO 34002KT 1 1/4SM 20/20 A2977 RMK T02000200 IEM_DS3505
ZGOW,2001-04-08 05:00,ZGOW 080500Z AUTO 14002KT 1SM 20/20 A2971 RMK T02000200 IEM_DS3505
ZGOW,2001-04-08 06:00,ZGOW 080600Z AUTO 07004KT 1 1/4SM 21/20 A2968 RMK 60003 SLP055 T02140202 57027 IEM_DS3505
ZGOW,2001-04-08 07:00,ZGOW 080700Z AUTO 09004KT 1 1/4SM 21/21 A2968 RMK T02100210 IEM_DS3505
ZGOW,2001-04-08 08:00,ZGOW 080800Z AUTO 10004KT 1SM 21/20 A2965 RMK T02100200 IEM_DS3505
ZGOW,2001-04-08 09:00,ZGOW 080900Z AUTO 04002KT 4SM 21/20 A2971 RMK SLP059 T02120203 52004 IEM_DS3505
ZGOW,2001-04-08 10:00,ZGOW 081000Z AUTO 09006KT 5SM 20/20 A2971 RMK T02000200 IEM_DS3505
ZGOW,2001-04-08 11:00,ZGOW 081100Z AUTO 11002KT 4SM 20/20 A2971 RMK T02000200 IEM_DS3505
ZGOW,2001-04-08 12:00,ZGOW 081200Z AUTO 09004KT 3SM 20/19 A2974 RMK 60024 SLP071 T01990194 52012 IEM_DS3505
ZGOW,2001-04-08 13:00,ZGOW 081300Z AUTO 08008KT 1 1/2SM 19/19 A2977 RMK T01900190 IEM_DS3505
ZGOW,2001-04-08 14:00,ZGOW 081400Z AUTO 07010KT 1 1/2SM 19/19 A2977 RMK T01900190 IEM_DS3505
ZGOW,2001-04-08 15:00,ZGOW 081500Z AUTO 09004KT 2 1/2SM 19/19 A2980 RMK SLP090 T01930190 52019 IEM_DS3505
ZGOW,2001-04-08 16:00,ZGOW 081600Z AUTO 09004KT 3SM 19/19 A2980 RMK T01900190 IEM_DS3505
ZGOW,2001-04-08 17:00,ZGOW 081700Z AUTO 05004KT 2SM 19/19 A2977 RMK T01900190 IEM_DS3505
ZGOW,2001-04-08 18:00,ZGOW 081800Z AUTO 04004KT 3SM 19/19 A2977 RMK 60008 SLP084 T01940191 57006 IEM_DS3505
ZGOW,2001-04-08 19:00,ZGOW 081900Z AUTO 04002KT 3SM 19/19 A2977 RMK T01900190 IEM_DS3505
ZGOW,2001-04-08 20:00,ZGOW 082000Z AUTO 03006KT 2 1/2SM 19/19 A2977 RMK T01900190 IEM_DS3505
ZGOW,2001-04-08 21:00,ZGOW 082100Z AUTO 04002KT 4SM 20/19 A2977 RMK 70032 SLP081 T01950190 57003 IEM_DS3505
ZGOW,2001-04-08 22:00,ZGOW 082200Z AUTO 03002KT 2SM 20/19 A2980 RMK T02000190 IEM_DS3505
ZGOW,2001-04-08 23:00,ZGOW 082300Z AUTO 00000KT 2SM 20/19 A2983 RMK T02000190 IEM_DS3505
ZGOW,2001-04-09 00:00,ZGOW 090000Z AUTO 07002KT 4SM 20/20 A2983 RMK 60003 SLP104 T02040195 52023 IEM_DS3505
ZGOW,2001-04-09 01:00,ZGOW 090100Z AUTO 03006KT 7SM 22/21 A2985 RMK T02200210 IEM_DS3505
ZGOW,2001-04-09 02:00,ZGOW 090200Z AUTO 08006KT 7SM 23/20 A2988 RMK T02300200 IEM_DS3505
ZGOW,2001-04-09 03:00,ZGOW 090300Z AUTO 09004KT 7SM 24/19 A2988 RMK SLP119 T02350190 52015 IEM_DS3505
ZGOW,2001-04-09 04:00,ZGOW 090400Z AUTO 08008KT 6SM 24/20 A2985 RMK T02400200 IEM_DS3505
ZGOW,2001-04-09 05:00,ZGOW 090500Z AUTO 09006KT 6SM 26/21 A2985 RMK T02600210 IEM_DS3505
ZGOW,2001-04-09 06:00,ZGOW 090600Z AUTO 07008KT 10SM 27/18 A2983 RMK SLP100 T02660185 57019 IEM_DS3505
ZGOW,2001-04-09 07:00,ZGOW 090700Z AUTO 08010KT 6SM 26/19 A2980 RMK T02600190 IEM_DS3505
ZGOW,2001-04-09 08:00,ZGOW 090800Z AUTO 08010KT 6SM 26/19 A2980 RMK T02600190 IEM_DS3505
ZGOW,2001-04-09 09:00,ZGOW 090900Z AUTO 16006KT 11SM 25/17 A2980 RMK SLP093 T02520172 57007 IEM_DS3505
ZGOW,2001-04-09 10:00,ZGOW 091000Z AUTO 08006KT 6SM 24/19 A2983 RMK T02400190 IEM_DS3505
ZGOW,2001-04-09 11:00,ZGOW 091100Z AUTO 09010KT 7SM 23/17 A2985 RMK T02300170 IEM_DS3505
ZGOW,2001-04-09 12:00,ZGOW 091200Z AUTO 07006KT 9SM 23/17 A2988 RMK SLP118 T02270167 52025 IEM_DS3505
ZGOW,2001-04-09 13:00,ZGOW 091300Z AUTO 07010KT 6SM 22/19 A2991 RMK T02200190 IEM_DS3505
ZGOW,2001-04-09 14:00,ZGOW 091400Z AUTO 06010KT 6SM 21/19 A2994 RMK T02100190 IEM_DS3505
ZGOW,2001-04-09 15:00,ZGOW 091500Z AUTO 07006KT 8SM 22/18 A2991 RMK SLP139 T02180178 52021 IEM_DS3505
ZGOW,2001-04-09 16:00,ZGOW 091600Z AUTO 08014KT 6SM 22/18 A2994 RMK T02200180 IEM_DS3505
ZGOW,2001-04-09 17:00,ZGOW 091700Z AUTO 08010KT 6SM 22/17 A2991 RMK T02200170 IEM_DS3505
ZGOW,2001-04-09 18:00,ZGOW 091800Z AUTO 07004KT 9SM 22/16 A2991 RMK SLP135 T02170157 57004 IEM_DS3505
ZGOW,2001-04-09 19:00,ZGOW 091900Z AUTO 09010KT 6SM 21/17 A2991 RMK T02100170 IEM_DS3505
ZGOW,2001-04-09 20:00,ZGOW 092000Z AUTO 08014KT 6SM 21/18 A2991 RMK T02100180 IEM_DS3505
ZGOW,2001-04-09 21:00,ZGOW 092100Z AUTO 07008KT 9SM 21/16 A2991 RMK SLP134 T02100159 57001 IEM_DS3505
ZGOW,2001-04-09 22:00,ZGOW 092200Z AUTO 08014KT 7SM 20/17 A2994 RMK T02000170 IEM_DS3505
ZGOW,2001-04-09 23:00,ZGOW 092300Z AUTO 09014KT 7SM 20/17 A2997 RMK T02000170 IEM_DS3505
ZGOW,2001-04-10 00:00,ZGOW 100000Z AUTO 07010KT 11SM 21/16 A3000 RMK SLP158 T02070159 52024 IEM_DS3505
ZGOW,2001-04-10 01:00,ZGOW 100100Z AUTO 08016KT 7SM 21/17 A3000 RMK T02100170 IEM_DS3505
ZGOW,2001-04-10 02:00,ZGOW 100200Z AUTO 08014KT 7SM 21/18 A3000 RMK T02100180 IEM_DS3505
ZGOW,2001-04-10 03:00,ZGOW 100300Z AUTO 07010KT 12SM 23/15 A3000 RMK SLP158 T02290152 54000 IEM_DS3505
ZGOW,2001-04-10 04:00,ZGOW 100400Z AUTO 08016KT 6SM 23/16 A2997 RMK T02300160 IEM_DS3505
ZGOW,2001-04-10 05:00,ZGOW 100500Z AUTO 07014KT 6SM 24/16 A2994 RMK T02400160 IEM_DS3505
ZGOW,2001-04-10 06:00,ZGOW 100600Z AUTO 16004KT 12SM 25/17 A2991 RMK SLP130 T02460171 57028 IEM_DS3505
ZGOW,2001-04-10 07:00,ZGOW 100700Z AUTO 07012KT 6SM 24/17 A2991 RMK T02400170 IEM_DS3505
ZGOW,2001-04-10 08:00,ZGOW 100800Z AUTO 14004KT 6SM 23/16 A2988 RMK T02300160 IEM_DS3505
ZGOW,2001-04-10 09:00,ZGOW 100900Z AUTO 11004KT 12SM 23/16 A2991 RMK SLP127 T02260157 57003 IEM_DS3505
ZGOW,2001-04-10 10:00,ZGOW 101000Z AUTO 08008KT 7SM 21/16 A2991 RMK T02100160 IEM_DS3505
ZGOW,2001-04-10 11:00,ZGOW 101100Z AUTO 08012KT 7SM 21/16 A2994 RMK T02100160 IEM_DS3505
ZGOW,2001-04-10 12:00,ZGOW 101200Z AUTO 09004KT 11SM 21/15 A2994 RMK SLP144 T02100151 52017 IEM_DS3505
ZGOW,2001-04-10 13:00,ZGOW 101300Z AUTO 08014KT 7SM 20/14 A2994 RMK T02000140 IEM_DS3505
ZGOW,2001-04-10 14:00,ZGOW 101400Z AUTO 08012KT 7SM 20/14 A2997 RMK T02000140 IEM_DS3505
ZGOW,2001-04-10 15:00,ZGOW 101500Z AUTO 07008KT 6SM 20/15 A3003 RMK SLP168 T01990148 52024 IEM_DS3505
ZGOW,2001-04-10 16:00,ZGOW 101600Z AUTO 07006KT 3SM 17/16 A3000 RMK T01700160 IEM_DS3505
ZGOW,2001-04-10 17:00,ZGOW 101700Z AUTO 05004KT 6SM 18/17 A3000 RMK T01800170 IEM_DS3505
ZGOW,2001-04-10 18:00,ZGOW 101800Z AUTO 07004KT 5SM 18/17 A2997 RMK 60031 SLP146 T01800168 57022 IEM_DS3505
ZGOW,2001-04-10 19:00,ZGOW 101900Z AUTO 00000KT 3SM 18/17 A2994 RMK T01800170 IEM_DS3505
ZGOW,2001-04-10 20:00,ZGOW 102000Z AUTO 35002KT 4SM 17/17 A2994 RMK T01700170 IEM_DS3505
ZGOW,2001-04-10 21:00,ZGOW 102100Z AUTO 00000KT 6SM 18/17 A2994 RMK 70043 SLP141 T01800167 57005 IEM_DS3505
ZGOW,2001-04-10 22:00,ZGOW 102200Z AUTO 30004KT 2 1/2SM 18/17 A2994 RMK T01800170 IEM_DS3505
ZGOW,2001-04-10 23:00,ZGOW 102300Z AUTO 33002KT 2 1/2SM 18/17 A2997 RMK T01800170 IEM_DS3505
ZGOW,2001-04-11 00:00,ZGOW 110000Z AUTO 29002KT 5SM 19/17 A3000 RMK 60012 SLP156 T01880168 52015 IEM_DS3505
ZGOW,2001-04-11 01:00,ZGOW 110100Z AUTO 32004KT 4SM 19/18 A3000 RMK T01900180 IEM_DS3505
ZGOW,2001-04-11 02:00,ZGOW 110200Z AUTO 31006KT 2 1/2SM 19/18 A3003 RMK T01900180 IEM_DS3505
ZGOW,2001-04-11 03:00,ZGOW 110300Z AUTO 07004KT 1SM 19/18 A3003 RMK SLP165 T01860180 52009 IEM_DS3505
ZGOW,2001-04-11 04:00,ZGOW 110400Z AUTO 33014KT 7SM 17/16 A3000 RMK T01700160 IEM_DS3505
ZGOW,2001-04-11 05:00,ZGOW 110500Z AUTO 33014KT 7SM 17/14 A3000 RMK T01700140 IEM_DS3505
ZGOW,2001-04-11 06:00,ZGOW 110600Z AUTO 34004KT 16SM 17/12 A2997 RMK 60002 SLP156 T01730122 57009 IEM_DS3505
ZGOW,2001-04-11 07:00,ZGOW 110700Z AUTO 33010KT 6SM 17/14 A2994 RMK T01700140 IEM_DS3505
ZGOW,2001-04-11 08:00,ZGOW 110800Z AUTO 32014KT 6SM 17/13 A2997 RMK T01700130 IEM_DS3505
ZGOW,2001-04-11 09:00,ZGOW 110900Z AUTO 02008G19KT 14SM 16/13 A2997 RMK SLP156 T01570132 54000 IEM_DS3505
ZGOW,2001-04-11 10:00,ZGOW 111000Z AUTO 32014G23KT 6SM 15/12 A3000 RMK T01500120 IEM_DS3505
ZGOW,2001-04-11 11:00,ZGOW 111100Z AUTO 32010KT 7SM 15/12 A3000 RMK T01500120 IEM_DS3505
ZGOW,2001-04-11 12:00,ZGOW 111200Z AUTO 04006KT 12SM 15/10 A3000 RMK 60000 SLP167 T01460100 52011 IEM_DS3505
ZGOW,2001-04-11 13:00,ZGOW 111300Z AUTO 34006KT 7SM 15/11 A3003 RMK T01500110 IEM_DS3505
ZGOW,2001-04-11 14:00,ZGOW 111400Z AUTO 34008KT 7SM 15/11 A3003 RMK T01500110 IEM_DS3505
ZGOW,2001-04-11 15:00,ZGOW 111500Z AUTO 07004KT 16SM 14/09 A3006 RMK SLP178 T01440093 52011 IEM_DS3505
ZGOW,2001-04-11 16:00,ZGOW 111600Z AUTO 33010KT 6SM 14/10 A3006 RMK T01400100 IEM_DS3505
ZGOW,2001-04-11 17:00,ZGOW 111700Z AUTO 34008KT 6SM 14/10 A3003 RMK T01400100 IEM_DS3505
ZGOW,2001-04-11 18:00,ZGOW 111800Z AUTO 34008KT 14SM 14/09 A3003 RMK SLP172 T01400086 57006 IEM_DS3505
ZGOW,2001-04-11 19:00,ZGOW 111900Z AUTO 34010KT 6SM 14/10 A3003 RMK T01400100 IEM_DS3505
ZGOW,2001-04-11 20:00,ZGOW 112000Z AUTO 33010KT 6SM 14/09 A3003 RMK T01400090 IEM_DS3505
ZGOW,2001-04-11 21:00,ZGOW 112100Z AUTO 04006KT 12SM 13/08 A3003 RMK 70002 SLP170 T01290078 57002 IEM_DS3505
ZGOW,2001-04-11 22:00,ZGOW 112200Z AUTO 33008KT 6SM 13/09 A3003 RMK T01300090 IEM_DS3505
ZGOW,2001-04-11 23:00,ZGOW 112300Z AUTO 33008KT 7SM 13/09 A3006 RMK T01300090 IEM_DS3505
ZGOW,2001-04-12 00:00,ZGOW 120000Z AUTO 02008KT 16SM 14/07 A3009 RMK 70002 SLP185 T01420073 52015 IEM_DS3505
ZGOW,2001-04-12 01:00,ZGOW 120100Z AUTO 34008KT 6SM 16/09 A3009 RMK T01600090 IEM_DS3505
ZGOW,2001-04-12 02:00,ZGOW 120200Z AUTO 35004KT 6SM 17/10 A3009 RMK T01700100 IEM_DS3505
ZGOW,2001-04-12 03:00,ZGOW 120300Z AUTO 07006KT 16SM 19/09 A3006 RMK SLP185 T01860086 54000 IEM_DS3505
ZGOW,2001-04-12 04:00,ZGOW 120400Z AUTO 04006KT 6SM 20/11 A3006 RMK T02000110 IEM_DS3505
ZGOW,2001-04-12 06:00,ZGOW 120600Z AUTO 11006KT 14SM 20/10 A3000 RMK SLP161 T02050104 57024 IEM_DS3505
ZGOW,2001-04-12 07:00,ZGOW 120700Z AUTO 09006KT 7SM 20/13 A2997 RMK T02000130 IEM_DS3505
ZGOW,2001-04-12 08:00,ZGOW 120800Z AUTO 13008KT 6SM 20/13 A2997 RMK T02000130 IEM_DS3505
ZGOW,2001-04-12 09:00,ZGOW 120900Z AUTO 11006KT 12SM 20/12 A2997 RMK SLP148 T01950118 57013 IEM_DS3505
ZGOW,2001-04-12 10:00,ZGOW 121000Z AUTO 08008KT 6SM 18/13 A2997 RMK T01800130 IEM_DS3505
ZGOW,2001-04-12 11:00,ZGOW 121100Z AUTO 08008KT 6SM 17/13 A3000 RMK T01700130 IEM_DS3505
ZGOW,2001-04-12 12:00,ZGOW 121200Z AUTO 07006KT 11SM 17/12 A3003 RMK SLP170 T01740124 52022 IEM_DS3505
ZGOW,2001-04-12 13:00,ZGOW 121300Z AUTO 08008KT 6SM 17/13 A3006 RMK T01700130 IEM_DS3505
ZGOW,2001-04-12 14:00,ZGOW 121400Z AUTO 07008KT 6SM 17/12 A3006 RMK T01700120 IEM_DS3505
ZGOW,2001-04-12 15:00,ZGOW 121500Z AUTO 07006KT 11SM 17/12 A3006 RMK SLP180 T01680115 52010 IEM_DS3505
ZGOW,2001-04-12 16:00,ZGOW 121600Z AUTO 05006KT 6SM 15/12 A3006 RMK T01500120 IEM_DS3505
ZGOW,2001-04-12 17:01,ZGOW 121701Z AUTO 04006KT 4SM 14/12 A3003 RMK T01400120 IEM_DS3505
ZGOW,2001-04-12 18:00,ZGOW 121800Z AUTO 04004KT 10SM 15/11 RMK SLP170 T01480112 57010 IEM_DS3505
ZGOW,2001-04-12 18:01,ZGOW 121801Z AUTO 36004KT 4SM 14/11 A3003 RMK T01400110 IEM_DS3505
ZGOW,2001-04-12 19:00,ZGOW 121900Z AUTO 34002KT 4SM 14/11 A3000 RMK T01400110 IEM_DS3505
ZGOW,2001-04-12 20:00,ZGOW 122000Z AUTO 32002KT 6SM 14/12 A3000 RMK T01400120 IEM_DS3505
ZGOW,2001-04-12 21:00,ZGOW 122100Z AUTO 07002KT 9SM 15/11 RMK SLP168 T01480112 57002 IEM_DS3505
ZGOW,2001-04-12 21:01,ZGOW 122101Z AUTO 32002KT 3SM 15/12 A3003 RMK T01500120 IEM_DS3505
ZGOW,2001-04-12 22:00,ZGOW 122200Z AUTO 34002KT 4SM 15/12 A3003 RMK T01500120 IEM_DS3505
ZGOW,2001-04-12 23:00,ZGOW 122300Z AUTO 34004KT 4SM 15/13 A3006 RMK T01500130 IEM_DS3505
ZGOW,2001-04-13 00:00,ZGOW 130000Z AUTO 07006KT 7SM 16/13 A3006 RMK SLP188 T01610127 52020 IEM_DS3505
ZGOW,2001-04-13 01:00,ZGOW 130100Z AUTO 36002KT 6SM 18/12 A3006 RMK T01800120 IEM_DS3505
ZGOW,2001-04-13 02:00,ZGOW 130200Z AUTO 06008KT 6SM 20/10 A3006 RMK T02000100 IEM_DS3505
ZGOW,2001-04-13 03:00,ZGOW 130300Z AUTO 07006KT 7SM 20/08 A3006 RMK SLP186 T02000075 57002 IEM_DS3505
ZGOW,2001-04-13 04:00,ZGOW 130400Z AUTO 07008KT 6SM 21/09 A3006 RMK T02100090 IEM_DS3505
ZGOW,2001-04-13 05:00,ZGOW 130500Z AUTO 08010KT 6SM 22/08 A3003 RMK T02200080 IEM_DS3505
ZGOW,2001-04-13 06:00,ZGOW 130600Z AUTO 04004KT 9SM 22/08 RMK SLP164 T02210078 57022 IEM_DS3505
ZGOW,2001-04-13 07:00,ZGOW 130700Z AUTO 13004KT 6SM 22/11 A3000 RMK T02200110 IEM_DS3505
ZGOW,2001-04-13 08:00,ZGOW 130800Z AUTO 14004KT 6SM 21/12 A3000 RMK T02100120 IEM_DS3505
ZGOW,2001-04-13 09:00,ZGOW 130900Z AUTO 11004KT 8SM 21/11 A3000 RMK SLP155 T02090114 57009 IEM_DS3505
ZGOW,2001-04-13 10:00,ZGOW 131000Z AUTO 12004KT 6SM 20/14 A3000 RMK T02000140 IEM_DS3505
ZGOW,2001-04-13 11:00,ZGOW 131100Z AUTO 10002KT 4SM 19/15 A3000 RMK T01900150 IEM_DS3505
ZGOW,2001-04-13 12:00,ZGOW 131200Z AUTO 07004KT 8SM 20/13 A3003 RMK SLP172 T01960133 52017 IEM_DS3505
ZGOW,2001-04-13 13:00,ZGOW 131300Z AUTO 07006KT 6SM 19/15 A3003 RMK T01900150 IEM_DS3505
ZGOW,2001-04-13 14:00,ZGOW 131400Z AUTO 07006KT 6SM 19/15 A3006 RMK T01900150 IEM_DS3505
ZGOW,2001-04-13 15:00,ZGOW 131500Z AUTO 07006KT 7SM 19/14 A3006 RMK SLP187 T01940140 52015 IEM_DS3505
ZGOW,2001-04-13 16:00,ZGOW 131600Z AUTO 06008KT 2 1/2SM 19/16 A3009 RMK T01900160 IEM_DS3505
ZGOW,2001-04-13 18:00,ZGOW 131800Z AUTO 07004KT 7SM 19/16 RMK SLP183 T01900158 57004 IEM_DS3505
ZGOW,2001-04-13 21:00,ZGOW 132100Z AUTO 02004KT 7SM 19/14 RMK SLP187 T01860143 52004 IEM_DS3505
ZGOW,2001-04-14 00:00,ZGOW 140000Z AUTO 04004KT 6SM 19/15 RMK SLP205 T01910148 52018 IEM_DS3505
ZGOW,2001-04-14 01:00,ZGOW 140100Z AUTO 32004KT 2 1/2SM 19/16 A3015 RMK T01900160 IEM_DS3505
ZGOW,2001-04-14 02:00,ZGOW 140200Z AUTO 32006KT 2 1/2SM 20/16 A3015 RMK T02000160 IEM_DS3505
ZGOW,2001-04-14 03:00,ZGOW 140300Z AUTO 20002KT 7SM 21/15 A3012 RMK SLP208 T02100147 52003 IEM_DS3505
ZGOW,2001-04-14 04:00,ZGOW 140400Z AUTO 28002KT 3SM 21/16 A3012 RMK T02100160 IEM_DS3505
ZGOW,2001-04-14 05:00,ZGOW 140500Z AUTO 17004KT 3SM 22/15 A3009 RMK T02200150 IEM_DS3505
ZGOW,2001-04-14 06:00,ZGOW 140600Z AUTO 29006KT 5SM 23/15 A3006 RMK SLP186 T02300150 57022 IEM_DS3505
ZGOW,2001-04-14 07:00,ZGOW 140700Z AUTO 00000KT 24/16 A3003 RMK T02400160 IEM_DS3505
ZGOW,2001-04-14 08:00,ZGOW 140800Z AUTO 6SM 24/16 A3003 RMK T02400160 IEM_DS3505
ZGOW,2001-04-14 09:00,ZGOW 140900Z AUTO 16006KT 5SM 24/15 A3003 RMK SLP173 T02370148 57013 IEM_DS3505
ZGOW,2001-04-14 10:00,ZGOW 141000Z AUTO 13008KT 6SM 21/17 A3003 RMK T02100170 IEM_DS3505
ZGOW,2001-04-14 11:00,ZGOW 141100Z AUTO 11004KT 5SM 21/17 A3003 RMK T02100170 IEM_DS3505
ZGOW,2001-04-14 12:00,ZGOW 141200Z AUTO 11004KT 6SM 21/16 A3006 RMK SLP179 T02100158 52006 IEM_DS3505
ZGOW,2001-04-14 13:00,ZGOW 141300Z AUTO 06002KT 4SM 20/17 A3009 RMK T02000170 IEM_DS3505
ZGOW,2001-04-14 14:00,ZGOW 141400Z AUTO 08004KT 4SM 19/16 A3009 RMK T01900160 IEM_DS3505
ZGOW,2001-04-14 15:00,ZGOW 141500Z AUTO 07004KT 5SM 20/15 A3009 RMK SLP192 T02020148 52013 IEM_DS3505
ZGOW,2001-04-14 16:00,ZGOW 141600Z AUTO 08002KT 3SM 20/17 A3012 RMK T02000170 IEM_DS3505
ZGOW,2001-04-14 17:00,ZGOW 141700Z AUTO 09004KT 3SM 20/17 A3009 RMK T02000170 IEM_DS3505
ZGOW,2001-04-14 18:00,ZGOW 141800Z AUTO 07006KT 7SM 20/14 A3009 RMK SLP189 T02050143 57003 IEM_DS3505
ZGOW,2001-04-14 19:00,ZGOW 141900Z AUTO 05004KT 3SM 20/17 A3006 RMK T02000170 IEM_DS3505
ZGOW,2001-04-14 20:00,ZGOW 142000Z AUTO 08008KT 4SM 20/16 A3006 RMK T02000160 IEM_DS3505
ZGOW,2001-04-14 21:00,ZGOW 142100Z AUTO 07006KT 7SM 20/15 A3006 RMK SLP181 T02000153 57008 IEM_DS3505
ZGOW,2001-04-14 22:00,ZGOW 142200Z AUTO 36002KT 2 1/2SM 19/16 A3009 RMK T01900160 IEM_DS3505
ZGOW,2001-04-14 23:00,ZGOW 142300Z AUTO 03002KT 3SM 20/16 A3009 RMK T02000160 IEM_DS3505
ZGOW,2001-04-15 00:00,ZGOW 150000Z AUTO 07004KT 6SM 22/15 A3009 RMK SLP192 T02160154 52011 IEM_DS3505
ZGOW,2001-04-15 01:00,ZGOW 150100Z AUTO 06008KT 6SM 23/16 A3012 RMK T02300160 IEM_DS3505
ZGOW,2001-04-15 02:00,ZGOW 150200Z AUTO 08010KT 6SM 23/16 A3009 RMK T02300160 IEM_DS3505
ZGOW,2001-04-15 03:00,ZGOW 150300Z AUTO 07008KT 9SM 25/14 RMK SLP181 T02500138 57011 IEM_DS3505
ZGOW,2001-04-15 04:00,ZGOW 150400Z AUTO 07010KT 6SM 25/16 A3006 RMK T02500160 IEM_DS3505
ZGOW,2001-04-15 05:00,ZGOW 150500Z AUTO 08008KT 6SM 25/15 A3003 RMK T02500150 IEM_DS3505
ZGOW,2001-04-15 06:00,ZGOW 150600Z AUTO 11006KT 9SM 25/14 A3003 RMK SLP164 T02500141 57017 IEM_DS3505
ZGOW,2001-04-15 07:00,ZGOW 150700Z AUTO 13012KT 6SM 23/17 A3000 RMK T02300170 IEM_DS3505
ZGOW,2001-04-15 08:00,ZGOW 150800Z AUTO 11012KT 5SM 23/17 A2997 RMK T02300170 IEM_DS3505
ZGOW,2001-04-15 09:00,ZGOW 150900Z AUTO 11008KT 8SM 22/16 A2997 RMK SLP153 T02240156 57011 IEM_DS3505
ZGOW,2001-04-15 10:00,ZGOW 151000Z AUTO 09006KT 5SM 22/18 A3000 RMK T02200180 IEM_DS3505
ZGOW,2001-04-15 11:00,ZGOW 151100Z AUTO 07010KT 5SM 20/17 A3000 RMK T02000170 IEM_DS3505
ZGOW,2001-04-15 12:00,ZGOW 151200Z AUTO 07004KT 7SM 21/16 A3000 RMK SLP161 T02060156 52008 IEM_DS3505
ZGOW,2001-04-15 13:00,ZGOW 151300Z AUTO 07010KT 6SM 20/15 A3003 RMK T02000150 IEM_DS3505
ZGOW,2001-04-15 14:00,ZGOW 151400Z AUTO 08010KT 6SM 20/15 A3003 RMK T02000150 IEM_DS3505
ZGOW,2001-04-15 15:00,ZGOW 151500Z AUTO 11004KT 7SM 20/13 A3003 RMK SLP172 T02050126 52011 IEM_DS3505
ZGOW,2001-04-15 16:00,ZGOW 151600Z AUTO 09010KT 6SM 20/13 A3003 RMK T02000130 IEM_DS3505
ZGOW,2001-04-15 17:01,ZGOW 151701Z AUTO 08010KT 6SM 20/14 A3000 RMK T02000140 IEM_DS3505
ZGOW,2001-04-15 18:00,ZGOW 151800Z AUTO 07004KT 7SM 20/12 A3000 RMK SLP159 T01980125 57013 IEM_DS3505
ZGOW,2001-04-15 19:00,ZGOW 151900Z AUTO 04004KT 5SM 19/14 A2997 RMK T01900140 IEM_DS3505
ZGOW,2001-04-15 20:01,ZGOW 152001Z AUTO 01004KT 5SM 19/14 A2997 RMK T01900140 IEM_DS3505
ZGOW,2001-04-15 21:00,ZGOW 152100Z AUTO 07002KT 7SM 19/13 A2997 RMK SLP151 T01930134 57008 IEM_DS3505
ZGOW,2001-04-15 22:00,ZGOW 152200Z AUTO 32002KT 6SM 19/14 A2997 RMK T01900140 IEM_DS3505
ZGOW,2001-04-15 23:00,ZGOW 152300Z AUTO 34002KT 6SM 19/15 A3000 RMK T01900150 IEM_DS3505
ZGOW,2001-04-16 00:00,ZGOW 160000Z AUTO 04004KT 7SM 21/14 A3000 RMK SLP161 T02080139 52010 IEM_DS3505
ZGOW,2001-04-16 01:00,ZGOW 160100Z AUTO 02002KT 4SM 21/16 A3000 RMK T02100160 IEM_DS3505
ZGOW,2001-04-16 02:00,ZGOW 160200Z AUTO 32002KT 6SM 23/16 A3000 RMK T02300160 IEM_DS3505
ZGOW,2001-04-16 03:00,ZGOW 160300Z AUTO 20002KT 6SM 23/16 A2997 RMK SLP153 T02340155 57008 IEM_DS3505
ZGOW,2001-04-16 04:00,ZGOW 160400Z AUTO 08004KT 7SM 25/16 A2994 RMK T02500160 IEM_DS3505
ZGOW,2001-04-16 05:00,ZGOW 160500Z AUTO 10006KT 7SM 26/17 A2991 RMK T02600170 IEM_DS3505
ZGOW,2001-04-16 06:00,ZGOW 160600Z AUTO 07006KT 5SM 26/16 A2988 RMK SLP125 T02640159 57028 IEM_DS3505
ZGOW,2001-04-16 07:00,ZGOW 160700Z AUTO 12008KT 6SM 24/18 A2988 RMK T02400180 IEM_DS3505
ZGOW,2001-04-16 08:00,ZGOW 160800Z AUTO 13008KT 6SM 23/19 A2985 RMK T02300190 IEM_DS3505
ZGOW,2001-04-16 09:00,ZGOW 160900Z AUTO 16004KT 6SM 23/17 A2985 RMK SLP113 T02320174 57012 IEM_DS3505
ZGOW,2001-04-16 10:00,ZGOW 161000Z AUTO 12008KT 6SM 22/19 A2985 RMK T02200190 IEM_DS3505
ZGOW,2001-04-16 11:00,ZGOW 161100Z AUTO 13004KT 6SM 21/19 A2985 RMK T02100190 IEM_DS3505
ZGOW,2001-04-16 12:00,ZGOW 161200Z AUTO 16004KT 7SM 21/18 A2988 RMK SLP121 T02120182 52008 IEM_DS3505
ZGOW,2001-04-16 13:00,ZGOW 161300Z AUTO 12004KT 6SM 21/19 A2988 RMK T02100190 IEM_DS3505
ZGOW,2001-04-16 14:00,ZGOW 161400Z AUTO 05006KT 6SM 20/19 A2991 RMK T02000190 IEM_DS3505
ZGOW,2001-04-16 15:00,ZGOW 161500Z AUTO 07004KT 6SM 21/18 A2991 RMK SLP131 T02090182 52010 IEM_DS3505
ZGOW,2001-04-16 16:00,ZGOW 161600Z AUTO 05006KT 3SM 20/19 A2988 RMK T02000190 IEM_DS3505
ZGOW,2001-04-16 17:00,ZGOW 161700Z AUTO 08004KT 2 1/2SM 20/19 A2988 RMK T02000190 IEM_DS3505
ZGOW,2001-04-16 18:00,ZGOW 161800Z AUTO 00000KT 6SM 21/19 A2988 RMK SLP118 T02060187 57013 IEM_DS3505
ZGOW,2001-04-16 19:00,ZGOW 161900Z AUTO 05004KT 2SM 20/19 A2985 RMK T02000190 IEM_DS3505
ZGOW,2001-04-16 20:00,ZGOW 162000Z AUTO 05002KT 3SM 20/19 A2985 RMK T02000190 IEM_DS3505
ZGOW,2001-04-16 21:00,ZGOW 162100Z AUTO 36002KT 7SM 20/18 A2985 RMK SLP113 T02050184 57005 IEM_DS3505
ZGOW,2001-04-16 22:00,ZGOW 162200Z AUTO 00000KT 2 1/2SM 20/19 A2985 RMK T02000190 IEM_DS3505
ZGOW,2001-04-16 23:00,ZGOW 162300Z AUTO 00000KT 2 1/2SM 20/19 A2988 RMK T02000190 IEM_DS3505
ZGOW,2001-04-17 00:00,ZGOW 170000Z AUTO 34002KT 7SM 21/18 A2988 RMK 60002 SLP124 T02130183 52011 IEM_DS3505
ZGOW,2001-04-17 01:00,ZGOW 170100Z AUTO 36002KT 3SM 22/20 A2988 RMK T02200200 IEM_DS3505
ZGOW,2001-04-17 02:00,ZGOW 170200Z AUTO 02002KT 4SM 23/20 A2988 RMK T02300200 IEM_DS3505
ZGOW,2001-04-17 03:00,ZGOW 170300Z AUTO 25002KT 6SM 25/19 A2988 RMK SLP118 T02480187 57006 IEM_DS3505
ZGOW,2001-04-17 04:00,ZGOW 170400Z AUTO 08004KT 3SM 25/21 A2985 RMK T02500210 IEM_DS3505
ZGOW,2001-04-17 05:00,ZGOW 170500Z AUTO 12006KT 3SM 26/21 A2983 RMK T02600210 IEM_DS3505
ZGOW,2001-04-17 06:00,ZGOW 170600Z AUTO 16004KT 7SM 26/19 A2980 RMK SLP094 T02640192 57024 IEM_DS3505
ZGOW,2001-04-17 07:00,ZGOW 170700Z AUTO 13008KT 6SM 25/20 A2980 RMK T02500200 IEM_DS3505
ZGOW,2001-04-17 08:00,ZGOW 170800Z AUTO 15008KT 6SM 24/20 A2980 RMK T02400200 IEM_DS3505
ZGOW,2001-04-17 09:00,ZGOW 170900Z AUTO 18004KT 9SM 25/18 A2980 RMK SLP088 T02460180 57006 IEM_DS3505
ZGOW,2001-04-17 10:00,ZGOW 171000Z AUTO 14008KT 6SM 22/20 A2980 RMK T02200200 IEM_DS3505
ZGOW,2001-04-17 11:00,ZGOW 171100Z AUTO 14008KT 3SM 22/20 A2980 RMK T02200200 IEM_DS3505
ZGOW,2001-04-17 12:00,ZGOW 171200Z AUTO 16006KT 7SM 22/20 A2983 RMK SLP102 T02230197 52014 IEM_DS3505
ZGOW,2001-04-17 13:00,ZGOW 171300Z AUTO 10004KT 2 1/2SM 22/21 A2985 RMK T02200210 IEM_DS3505
ZGOW,2001-04-17 14:00,ZGOW 171400Z AUTO 12006KT 3SM 22/20 A2983 RMK T02200200 IEM_DS3505
ZGOW,2001-04-17 15:00,ZGOW 171500Z AUTO 11004KT 7SM 22/19 A2985 RMK SLP109 T02220194 52007 IEM_DS3505
ZGOW,2001-04-17 16:00,ZGOW 171600Z AUTO 09004KT 2SM 22/21 A2983 RMK T02200210 IEM_DS3505
ZGOW,2001-04-17 17:00,ZGOW 171700Z AUTO 10002KT 2SM 22/20 A2983 RMK T02200200 IEM_DS3505
ZGOW,2001-04-17 18:00,ZGOW 171800Z AUTO 11006KT 7SM 22/18 A2980 RMK SLP097 T02180183 57012 IEM_DS3505
ZGOW,2001-04-17 19:00,ZGOW 171900Z AUTO 11006KT 3SM 22/20 A2980 RMK T02200200 IEM_DS3505
ZGOW,2001-04-17 20:00,ZGOW 172000Z AUTO 14004KT 2 1/2SM 21/20 A2980 RMK T02100200 IEM_DS3505
ZGOW,2001-04-17 21:00,ZGOW 172100Z AUTO 11006KT 9SM 22/20 A2980 RMK 70002 SLP097 T02150196 54000 IEM_DS3505
ZGOW,2001-04-17 22:00,ZGOW 172200Z AUTO 06014KT 5SM 21/19 A2985 RMK T02100190 IEM_DS3505
ZGOW,2001-04-17 23:00,ZGOW 172300Z AUTO 07010KT 4SM 20/19 A2985 RMK T02000190 IEM_DS3505
ZGOW,2001-04-18 00:00,ZGOW 180000Z AUTO 11004KT 7SM 20/19 A2985 RMK 60003 SLP118 T02050191 52021 IEM_DS3505
ZGOW,2001-04-18 01:00,ZGOW 180100Z AUTO 06008KT 5SM 21/20 A2988 RMK T02100200 IEM_DS3505
ZGOW,2001-04-18 02:00,ZGOW 180200Z AUTO 07008KT 7SM 21/20 A2988 RMK T02100200 IEM_DS3505
ZGOW,2001-04-18 03:00,ZGOW 180300Z AUTO 07006KT 9SM 21/19 A2988 RMK SLP115 T02110191 57003 IEM_DS3505
ZGOW,2001-04-18 04:00,ZGOW 180400Z AUTO 06012KT 7SM 21/19 A2988 RMK T02100190 IEM_DS3505
ZGOW,2001-04-18 05:00,ZGOW 180500Z AUTO 07010KT 7SM 20/20 A2985 RMK T02000200 IEM_DS3505
ZGOW,2001-04-18 06:00,ZGOW 180600Z AUTO 07004KT 7SM 21/19 A2985 RMK 60004 SLP108 T02100190 57007 IEM_DS3505
ZGOW,2001-04-18 07:00,ZGOW 180700Z AUTO 07008KT 3SM 21/20 A2983 RMK T02100200 IEM_DS3505
ZGOW,2001-04-18 08:00,ZGOW 180800Z AUTO 12004KT 7SM 21/20 A2980 RMK T02100200 IEM_DS3505
ZGOW,2001-04-18 09:00,ZGOW 180900Z AUTO 07004KT 7SM 21/19 A2983 RMK SLP096 T02100190 57012 IEM_DS3505
ZGOW,2001-04-18 10:00,ZGOW 181000Z AUTO 08008KT 7SM 20/19 A2983 RMK T02000190 IEM_DS3505
ZGOW,2001-04-18 11:00,ZGOW 181100Z AUTO 10008KT 7SM 21/19 A2983 RMK T02100190 IEM_DS3505
ZGOW,2001-04-18 12:00,ZGOW 181200Z AUTO 07004KT 9SM 21/18 A2983 RMK 60000 SLP107 T02060184 52011 IEM_DS3505
ZGOW,2001-04-18 13:00,ZGOW 181300Z AUTO 08008KT 7SM 20/19 A2985 RMK T02000190 IEM_DS3505
ZGOW,2001-04-18 14:00,ZGOW 181400Z AUTO 08006KT 6SM 20/19 A2985 RMK T02000190 IEM_DS3505
ZGOW,2001-04-18 15:00,ZGOW 181500Z AUTO 07004KT 8SM 20/18 A2985 RMK SLP111 T02020184 52004 IEM_DS3505
ZGOW,2001-04-18 16:00,ZGOW 181600Z AUTO 08008KT 6SM 20/19 A2985 RMK T02000190 IEM_DS3505
ZGOW,2001-04-18 17:00,ZGOW 181700Z AUTO 06006KT 3SM 20/19 A2985 RMK T02000190 IEM_DS3505
ZGOW,2001-04-18 18:00,ZGOW 181800Z AUTO 07004KT 9SM 20/18 A2983 RMK SLP106 T02010180 57005 IEM_DS3505
ZGOW,2001-04-18 19:00,ZGOW 181900Z AUTO 10004KT 3SM 20/19 A2983 RMK T02000190 IEM_DS3505
ZGOW,2001-04-18 20:00,ZGOW 182000Z AUTO 00000KT 3SM 20/19 A2983 RMK T02000190 IEM_DS3505
ZGOW,2001-04-18 21:00,ZGOW 182100Z AUTO 07002KT 8SM 20/18 A2983 RMK 70007 SLP102 T02040185 57004 IEM_DS3505
ZGOW,2001-04-18 22:00,ZGOW 182200Z AUTO 04006KT 7SM 20/19 A2983 RMK T02000190 IEM_DS3505
ZGOW,2001-04-18 23:00,ZGOW 182300Z AUTO 07010KT 7SM 20/19 A2983 RMK T02000190 IEM_DS3505
ZGOW,2001-04-19 00:00,ZGOW 190000Z AUTO 07006KT 9SM 21/18 A2985 RMK 70005 SLP111 T02090185 52009 IEM_DS3505
ZGOW,2001-04-19 01:00,ZGOW 190100Z AUTO 07006KT 7SM 22/20 A2985 RMK T02200200 IEM_DS3505
ZGOW,2001-04-19 02:00,ZGOW 190200Z AUTO 07010KT 4SM 22/20 A2985 RMK T02200200 IEM_DS3505
ZGOW,2001-04-19 03:00,ZGOW 190300Z AUTO 09004KT 9SM 24/19 A2985 RMK SLP106 T02360194 57005 IEM_DS3505
ZGOW,2001-04-19 04:00,ZGOW 190400Z AUTO 05006KT 7SM 23/20 A2983 RMK T02300200 IEM_DS3505
ZGOW,2001-04-19 05:00,ZGOW 190500Z AUTO 08008KT 7SM 24/20 A2983 RMK T02400200 IEM_DS3505
ZGOW,2001-04-19 06:00,ZGOW 190600Z AUTO 07004KT 9SM 24/19 A2980 RMK SLP089 T02440191 57017 IEM_DS3505
ZGOW,2001-04-19 07:00,ZGOW 190700Z AUTO 05006KT 7SM 24/20 A2977 RMK T02400200 IEM_DS3505
ZGOW,2001-04-19 08:00,ZGOW 190800Z AUTO 07008KT 7SM 24/20 A2977 RMK T02400200 IEM_DS3505
ZGOW,2001-04-19 09:00,ZGOW 190900Z AUTO 07006KT 9SM 24/20 A2977 RMK SLP076 T02360196 57013 IEM_DS3505
ZGOW,2001-04-19 10:00,ZGOW 191000Z AUTO 09004KT 7SM 23/20 A2977 RMK T02300200 IEM_DS3505
ZGOW,2001-04-19 11:00,ZGOW 191100Z AUTO 07004KT 7SM 22/20 A2974 RMK T02200200 IEM_DS3505
ZGOW,2001-04-19 12:00,ZGOW 191200Z AUTO 20002KT 7SM 22/20 A2977 RMK SLP089 T02250200 52013 IEM_DS3505
ZGOW,2001-04-19 13:00,ZGOW 191300Z AUTO 00000KT 7SM 22/21 A2980 RMK T02200210 IEM_DS3505
ZGOW,2001-04-19 14:00,ZGOW 191400Z AUTO 36002KT 7SM 22/21 A2983 RMK T02200210 IEM_DS3505
ZGOW,2001-04-19 15:00,ZGOW 191500Z AUTO 09004KT 7SM 22/20 A2980 RMK SLP095 T02240196 52006 IEM_DS3505
ZGOW,2001-04-19 16:00,ZGOW 191600Z AUTO 10004KT 3SM 22/20 A2980 RMK T02200200 IEM_DS3505
ZGOW,2001-04-19 17:00,ZGOW 191700Z AUTO 05004KT 1 1/2SM 21/20 A2977 RMK T02100200 IEM_DS3505
ZGOW,2001-04-19 18:00,ZGOW 191800Z AUTO 07004KT 6SM 22/20 A2974 RMK SLP075 T02170198 57020 IEM_DS3505
ZGOW,2001-04-19 19:00,ZGOW 191900Z AUTO 07002KT 1 1/2SM 21/21 A2974 RMK T02100210 IEM_DS3505
ZGOW,2001-04-19 20:00,ZGOW 192000Z AUTO 00000KT 1SM 21/21 A2971 RMK T02100210 IEM_DS3505
ZGOW,2001-04-19 21:00,ZGOW 192100Z AUTO 00000KT 1SM 21/21 A2974 RMK T02100210 IEM_DS3505
ZGOW,2001-04-19 22:00,ZGOW 192200Z AUTO 00000KT 3/8SM 21/21 A2974 RMK T02100210 IEM_DS3505
ZGOW,2001-04-19 23:00,ZGOW 192300Z AUTO 00000KT 3/8SM 21/21 A2974 RMK T02100210 IEM_DS3505
ZGOW,2001-04-20 00:00,ZGOW 200000Z AUTO 09002KT 1SM 22/21 A2974 RMK SLP073 T02240213 52004 IEM_DS3505
ZGOW,2001-04-20 01:00,ZGOW 200100Z AUTO 16004KT 2SM 23/23 A2974 RMK T02300230 IEM_DS3505
ZGOW,2001-04-20 02:00,ZGOW 200200Z AUTO 15004KT 2SM 24/23 A2974 RMK T02400230 IEM_DS3505
ZGOW,2001-04-20 03:00,ZGOW 200300Z AUTO 20002KT 2SM 26/23 A2974 RMK SLP067 T02570229 57006 IEM_DS3505
ZGOW,2001-04-20 04:00,ZGOW 200400Z AUTO 16012KT 3SM 28/25 A2971 RMK T02800250 IEM_DS3505
ZGOW,2001-04-20 06:00,ZGOW 200600Z AUTO 20012KT 7SM 29/24 A2965 RMK 60003 SLP039 T02900235 57028 IEM_DS3505
ZGOW,2001-04-20 07:00,ZGOW 200700Z AUTO 19016KT 7SM 29/25 A2962 RMK T02900250 IEM_DS3505
ZGOW,2001-04-20 08:00,ZGOW 200800Z AUTO 19010KT 7SM 28/25 A2962 RMK T02800250 IEM_DS3505
ZGOW,2001-04-20 09:00,ZGOW 200900Z AUTO 25008KT 9SM 28/24 A2962 RMK SLP028 T02820236 57011 IEM_DS3505
ZGOW,2001-04-20 10:00,ZGOW 201000Z AUTO 21006KT 7SM 27/25 A2965 RMK T02700250 IEM_DS3505
ZGOW,2001-04-20 11:00,ZGOW 201100Z AUTO 31004KT 7SM 25/21 A2968 RMK T02500210 IEM_DS3505
ZGOW,2001-04-20 12:00,ZGOW 201200Z AUTO 04008KT 9SM 25/20 A2968 RMK SLP055 T02480202 52027 IEM_DS3505
ZGOW,2001-04-20 13:00,ZGOW 201300Z AUTO 06004KT 4SM 23/22 A2968 RMK T02300220 IEM_DS3505
ZGOW,2001-04-20 14:00,ZGOW 201400Z AUTO 08002KT 7SM 23/22 A2971 RMK T02300220 IEM_DS3505
ZGOW,2001-04-20 15:00,ZGOW 201500Z AUTO 07004KT 8SM 24/21 A2971 RMK SLP057 T02410214 52002 IEM_DS3505
ZGOW,2001-04-20 16:00,ZGOW 201600Z AUTO 09002KT 6SM 24/23 A2968 RMK T02400230 IEM_DS3505
ZGOW,2001-04-20 17:00,ZGOW 201700Z AUTO 00000KT 2 1/2SM 24/23 A2968 RMK T02400230 IEM_DS3505
ZGOW,2001-04-20 18:00,ZGOW 201800Z AUTO 20008KT 7SM 26/24 A2965 RMK SLP044 T02560242 57013 IEM_DS3505
ZGOW,2001-04-20 19:00,ZGOW 201900Z AUTO 22006KT 2 1/2SM 25/25 A2965 RMK T02500250 IEM_DS3505
ZGOW,2001-04-20 20:00,ZGOW 202000Z AUTO 20006KT 2 1/2SM 25/25 A2965 RMK T02500250 IEM_DS3505
ZGOW,2001-04-20 21:00,ZGOW 202100Z AUTO 20008KT 7SM 25/24 A2965 RMK 70003 SLP038 T02540240 57006 IEM_DS3505
ZGOW,2001-04-20 22:00,ZGOW 202200Z AUTO 21012KT 1 1/2SM 25/25 A2965 RMK T02500250 IEM_DS3505
ZGOW,2001-04-20 23:00,ZGOW 202300Z AUTO 33016G29KT 2SM 24/23 A2971 RMK T02400230 IEM_DS3505
ZGOW,2001-04-21 00:00,ZGOW 210000Z AUTO 04004KT 6SM 21/20 A2971 RMK 60087 SLP056 T02110203 52018 IEM_DS3505
ZGOW,2001-04-21 01:00,ZGOW 210100Z AUTO 15004KT 1SM 21/21 A2974 RMK T02100210 IEM_DS3505
ZGOW,2001-04-21 02:00,ZGOW 210200Z AUTO 09004KT 1 1/4SM 21/21 A2974 RMK T02100210 IEM_DS3505
ZGOW,2001-04-21 03:00,ZGOW 210300Z AUTO 34004KT 2SM 21/21 A2977 RMK SLP080 T02140211 52024 IEM_DS3505
ZGOW,2001-04-21 04:00,ZGOW 210400Z AUTO 36002KT 1SM 21/21 A2974 RMK T02100210 IEM_DS3505
ZGOW,2001-04-21 05:00,ZGOW 210500Z AUTO 16004KT 1 1/2SM 22/22 A2974 RMK T02200220 IEM_DS3505
ZGOW,2001-04-21 06:00,ZGOW 210600Z AUTO 14004KT 6SM 22/21 A2974 RMK 60228 SLP067 T02200214 57013 IEM_DS3505
ZGOW,2001-04-21 07:00,ZGOW 210700Z AUTO 17006KT 7SM 22/22 A2974 RMK T02200220 IEM_DS3505
ZGOW,2001-04-21 08:00,ZGOW 210800Z AUTO 17006KT 7SM 22/22 A2974 RMK T02200220 IEM_DS3505
ZGOW,2001-04-21 09:00,ZGOW 210900Z AUTO 20004KT 9SM 22/21 A2974 RMK SLP071 T02220211 52004 IEM_DS3505
ZGOW,2001-04-21 10:00,ZGOW 211000Z AUTO 17002KT 7SM 22/22 A2974 RMK T02200220 IEM_DS3505
ZGOW,2001-04-21 11:00,ZGOW 211100Z AUTO 00000KT 3SM 22/22 A2977 RMK T02200220 IEM_DS3505
ZGOW,2001-04-21 12:00,ZGOW 211200Z AUTO 04002KT 4SM 22/21 A2980 RMK 60035 SLP085 T02190214 52014 IEM_DS3505
ZGOW,2001-04-21 13:00,ZGOW 211300Z AUTO 01002KT 1 1/4SM 22/22 A2980 RMK T02200220 IEM_DS3505
ZGOW,2001-04-21 14:00,ZGOW 211400Z AUTO 05004KT 2 1/2SM 22/22 A2983 RMK T02200220 IEM_DS3505
ZGOW,2001-04-21 15:00,ZGOW 211500Z AUTO 07006KT 5SM 22/21 A2983 RMK SLP102 T02180213 52017 IEM_DS3505
ZGOW,2001-04-21 16:00,ZGOW 211600Z AUTO 07017G27KT 7SM 20/20 A2983 RMK T02000200 IEM_DS3505
ZGOW,2001-04-21 17:00,ZGOW 211700Z AUTO 08019G29KT 5SM 19/19 A2983 RMK T01900190 IEM_DS3505
ZGOW,2001-04-21 18:00,ZGOW 211800Z AUTO 07008KT 7SM 19/18 A2983 RMK 60079 SLP104 T01920184 52002 IEM_DS3505
ZGOW,2001-04-21 19:00,ZGOW 211900Z AUTO 07019KT 3SM 19/18 A2983 RMK T01900180 IEM_DS3505
ZGOW,2001-04-21 20:00,ZGOW 212000Z AUTO 07019KT 1SM 19/18 A2985 RMK T01900180 IEM_DS3505
ZGOW,2001-04-21 21:00,ZGOW 212100Z AUTO 07008KT 7SM 19/17 A2983 RMK 70438 SLP105 T01860173 52001 IEM_DS3505
ZGOW,2001-04-21 22:00,ZGOW 212200Z AUTO 06019KT 2 1/2SM 18/18 A2985 RMK T01800180 IEM_DS3505
ZGOW,2001-04-21 23:00,ZGOW 212300Z AUTO 08017KT 1 1/2SM 18/17 A2988 RMK T01800170 IEM_DS3505
ZGOW,2001-04-22 00:00,ZGOW 220000Z AUTO 07010KT 7SM 18/17 A2991 RMK 60059 SLP135 T01800170 52030 IEM_DS3505
ZGOW,2001-04-22 01:00,ZGOW 220100Z AUTO 06017KT 1 1/2SM 18/17 A2994 RMK T01800170 IEM_DS3505
ZGOW,2001-04-22 02:00,ZGOW 220200Z AUTO 07017KT 4SM 18/18 A2997 RMK T01800180 IEM_DS3505
ZGOW,2001-04-22 03:00,ZGOW 220300Z AUTO 07012KT 11SM 19/16 A2994 RMK SLP146 T01870164 52011 IEM_DS3505
ZGOW,2001-04-22 04:00,ZGOW 220400Z AUTO 07021KT 7SM 19/17 A2994 RMK T01900170 IEM_DS3505
ZGOW,2001-04-22 05:00,ZGOW 220500Z AUTO 07021KT 7SM 19/17 A2994 RMK T01900170 IEM_DS3505
ZGOW,2001-04-22 06:00,ZGOW 220600Z AUTO 07012KT 9SM 19/16 A2991 RMK 60031 SLP129 T01910159 57017 IEM_DS3505
ZGOW,2001-04-22 07:00,ZGOW 220700Z AUTO 06014KT 7SM 19/17 A2991 RMK T01900170 IEM_DS3505
ZGOW,2001-04-22 08:00,ZGOW 220800Z AUTO 07008KT 7SM 18/17 A2988 RMK T01800170 IEM_DS3505
ZGOW,2001-04-22 09:00,ZGOW 220900Z AUTO 07006KT 10SM 19/16 A2988 RMK SLP122 T01860163 57007 IEM_DS3505
ZGOW,2001-04-22 10:00,ZGOW 221000Z AUTO 08017KT 7SM 18/16 A2991 RMK T01800160 IEM_DS3505
ZGOW,2001-04-22 11:00,ZGOW 221100Z AUTO 07017KT 7SM 18/16 A2994 RMK T01800160 IEM_DS3505
ZGOW,2001-04-22 12:00,ZGOW 221200Z AUTO 07010KT 7SM 18/15 A2994 RMK 60000 SLP146 T01830154 52024 IEM_DS3505
ZGOW,2001-04-22 13:00,ZGOW 221300Z AUTO 07017KT 7SM 18/16 A2997 RMK T01800160 IEM_DS3505
ZGOW,2001-04-22 14:00,ZGOW 221400Z AUTO 08017KT 7SM 18/16 A2997 RMK T01800160 IEM_DS3505
ZGOW,2001-04-22 15:00,ZGOW 221500Z AUTO 07008KT 6SM 18/15 A2997 RMK SLP158 T01770150 52012 IEM_DS3505
ZGOW,2001-04-22 16:00,ZGOW 221600Z AUTO 06014KT 1 1/4SM 17/16 A2997 RMK T01700160 IEM_DS3505
ZGOW,2001-04-22 17:00,ZGOW 221700Z AUTO 06012KT 1 1/2SM 17/16 A2997 RMK T01700160 IEM_DS3505
ZGOW,2001-04-22 18:00,ZGOW 221800Z AUTO 07006KT 7SM 17/15 A2997 RMK 60004 SLP150 T01690154 57008 IEM_DS3505
ZGOW,2001-04-22 19:00,ZGOW 221900Z AUTO 05004KT 1 1/4SM 17/16 A2994 RMK T01700160 IEM_DS3505
ZGOW,2001-04-22 20:00,ZGOW 222000Z AUTO 06006KT 1 1/2SM 17/16 A2994 RMK T01700160 IEM_DS3505
ZGOW,2001-04-22 21:00,ZGOW 222100Z AUTO 04004KT 6SM 17/16 A2994 RMK 70088 SLP144 T01690161 57006 IEM_DS3505
ZGOW,2001-04-22 22:00,ZGOW 222200Z AUTO 06004KT 1 1/2SM A2994 RMK IEM_DS3505
ZGOW,2001-04-22 23:00,ZGOW 222300Z AUTO 04006KT 7SM 17/16 A2997 RMK T01700160 IEM_DS3505
ZGOW,2001-04-23 00:00,ZGOW 230000Z AUTO 04004KT 4SM 18/16 A2997 RMK 60024 SLP153 T01770165 52009 IEM_DS3505
ZGOW,2001-04-23 01:00,ZGOW 230100Z AUTO 02006KT 7SM 19/17 A3000 RMK T01900170 IEM_DS3505
ZGOW,2001-04-23 02:00,ZGOW 230200Z AUTO 03004KT 7SM 20/18 A2997 RMK T02000180 IEM_DS3505
ZGOW,2001-04-23 03:00,ZGOW 230300Z AUTO 07006KT 6SM 21/16 A2997 RMK SLP150 T02140165 57003 IEM_DS3505
ZGOW,2001-04-23 04:00,ZGOW 230400Z AUTO 06006KT 7SM 22/18 A2994 RMK T02200180 IEM_DS3505
ZGOW,2001-04-23 05:00,ZGOW 230500Z AUTO 05004KT 7SM 23/19 A2991 RMK T02300190 IEM_DS3505
ZGOW,2001-04-23 06:00,ZGOW 230600Z AUTO 09004KT 9SM 23/18 A2988 RMK SLP122 T02320183 57028 IEM_DS3505
ZGOW,2001-04-23 07:00,ZGOW 230700Z AUTO 12004KT 7SM 22/18 A2988 RMK T02200180 IEM_DS3505
ZGOW,2001-04-23 08:00,ZGOW 230800Z AUTO 14006KT 7SM 22/18 A2988 RMK T02200180 IEM_DS3505
ZGOW,2001-04-23 09:00,ZGOW 230900Z AUTO 09002KT 7SM 21/18 A2988 RMK SLP118 T02140175 57004 IEM_DS3505
ZGOW,2001-04-23 10:00,ZGOW 231000Z AUTO 13004KT 7SM 21/18 A2988 RMK T02100180 IEM_DS3505
ZGOW,2001-04-23 11:00,ZGOW 231100Z AUTO 09002KT 5SM 21/19 A2991 RMK T02100190 IEM_DS3505
ZGOW,2001-04-23 12:00,ZGOW 231200Z AUTO 07004KT 7SM 21/18 A2991 RMK SLP128 T02090177 52010 IEM_DS3505
ZGOW,2001-04-23 13:00,ZGOW 231300Z AUTO 07004KT 7SM 20/19 A2991 RMK T02000190 IEM_DS3505
ZGOW,2001-04-23 14:00,ZGOW 231400Z AUTO 07002KT 7SM 21/19 A2994 RMK T02100190 IEM_DS3505
ZGOW,2001-04-23 15:00,ZGOW 231500Z AUTO 04002KT 6SM 21/18 A2994 RMK SLP138 T02060185 52010 IEM_DS3505
ZGOW,2001-04-23 16:00,ZGOW 231600Z AUTO 34002KT 4SM 20/19 A2994 RMK T02000190 IEM_DS3505
ZGOW,2001-04-23 17:00,ZGOW 231700Z AUTO 35002KT 4SM 20/19 A2991 RMK T02000190 IEM_DS3505
ZGOW,2001-04-23 18:00,ZGOW 231800Z AUTO 02002KT 6SM 20/19 A2991 RMK SLP129 T02050186 57009 IEM_DS3505
ZGOW,2001-04-23 19:00,ZGOW 231900Z AUTO 34002KT 3SM 20/19 A2991 RMK T02000190 IEM_DS3505
ZGOW,2001-04-23 20:00,ZGOW 232000Z AUTO 00000KT 3SM 20/19 A2988 RMK T02000190 IEM_DS3505
ZGOW,2001-04-23 21:00,ZGOW 232100Z AUTO 00000KT 5SM 20/19 A2988 RMK 70020 SLP120 T02020186 57009 IEM_DS3505
ZGOW,2001-04-23 22:00,ZGOW 232200Z AUTO 00000KT 2 1/2SM 20/19 A2988 RMK T02000190 IEM_DS3505
ZGOW,2001-04-23 23:00,ZGOW 232300Z AUTO 33002KT 1 1/2SM 21/20 A2991 RMK T02100200 IEM_DS3505
ZGOW,2001-04-24 00:00,ZGOW 240000Z AUTO 00000KT 2 1/2SM 22/19 A2991 RMK SLP133 T02190189 52013 IEM_DS3505
ZGOW,2001-04-24 01:00,ZGOW 240100Z AUTO 29002KT 4SM 22/20 A2994 RMK T02200200 IEM_DS3505
ZGOW,2001-04-24 02:00,ZGOW 240200Z AUTO 00000KT 3SM 23/20 A2994 RMK T02300200 IEM_DS3505
ZGOW,2001-04-24 03:00,ZGOW 240300Z AUTO 34002KT 2 1/2SM 24/20 A2994 RMK SLP137 T02440198 52004 IEM_DS3505
ZGOW,2001-04-24 04:00,ZGOW 240400Z AUTO 31004KT 2SM 25/21 A2991 RMK T02500210 IEM_DS3505
ZGOW,2001-04-24 05:00,ZGOW 240500Z AUTO 36004KT 2SM 24/21 A2988 RMK T02400210 IEM_DS3505
ZGOW,2001-04-24 06:00,ZGOW 240600Z AUTO 07002KT 2SM 24/21 RMK 60003 SLP113 T02410211 57024 IEM_DS3505
ZGOW,2001-04-24 07:00,ZGOW 240700Z AUTO 32004KT 2SM 24/22 A2985 RMK T02400220 IEM_DS3505
ZGOW,2001-04-24 08:00,ZGOW 240800Z AUTO 32004KT 2SM 24/22 A2985 RMK T02400220 IEM_DS3505
ZGOW,2001-04-24 09:00,ZGOW 240900Z AUTO 29002KT 2SM 24/21 A2985 RMK SLP110 T02410214 57003 IEM_DS3505
ZGOW,2001-04-24 10:00,ZGOW 241000Z AUTO 02002KT 1 1/2SM 24/22 A2985 RMK T02400220 IEM_DS3505
ZGOW,2001-04-24 11:00,ZGOW 241100Z AUTO 00000KT 1 1/2SM 24/22 A2985 RMK T02400220 IEM_DS3505
ZGOW,2001-04-24 12:00,ZGOW 241200Z AUTO 27004KT 3SM 23/21 A2988 RMK 60003 SLP121 T02280214 52011 IEM_DS3505
ZGOW,2001-04-24 13:00,ZGOW 241300Z AUTO 00000KT 1SM 23/22 A2991 RMK T02300220 IEM_DS3505
ZGOW,2001-04-24 14:00,ZGOW 241400Z AUTO 04004KT 1 1/2SM 23/22 A2991 RMK T02300220 IEM_DS3505
ZGOW,2001-04-24 15:00,ZGOW 241500Z AUTO 07006KT 3SM 22/21 A2994 RMK SLP138 T02250210 52017 IEM_DS3505
ZGOW,2001-04-24 16:00,ZGOW 241600Z AUTO 07012KT 1 1/2SM 21/20 A2994 RMK T02100200 IEM_DS3505
ZGOW,2001-04-24 17:00,ZGOW 241700Z AUTO 07010KT 2SM 21/20 A2994 RMK T02100200 IEM_DS3505
ZGOW,2001-04-24 18:00,ZGOW 241800Z AUTO 07008KT 6SM 21/18 A2991 RMK SLP132 T02100185 57006 IEM_DS3505
ZGOW,2001-04-24 19:00,ZGOW 241900Z AUTO 08010KT 3SM 21/19 A2991 RMK T02100190 IEM_DS3505
ZGOW,2001-04-24 20:00,ZGOW 242000Z AUTO 07012KT 2 1/2SM 21/19 A2988 RMK T02100190 IEM_DS3505
ZGOW,2001-04-24 21:00,ZGOW 242100Z AUTO 07008KT 6SM 21/18 A2991 RMK 70003 SLP127 T02070185 57005 IEM_DS3505
ZGOW,2001-04-24 22:00,ZGOW 242200Z AUTO 07012KT 2 1/2SM 20/19 A2991 RMK T02000190 IEM_DS3505
ZGOW,2001-04-24 23:00,ZGOW 242300Z AUTO 08010KT 2 1/2SM 20/19 A2994 RMK T02000190 IEM_DS3505
ZGOW,2001-04-25 00:00,ZGOW 250000Z AUTO 07006KT 6SM 20/18 A2994 RMK 70003 SLP138 T02010180 52011 IEM_DS3505
ZGOW,2001-04-25 01:00,ZGOW 250100Z AUTO 08017KT 7SM 20/18 A2994 RMK T02000180 IEM_DS3505
ZGOW,2001-04-25 02:00,ZGOW 250200Z AUTO 07016KT 7SM 20/18 A2997 RMK T02000180 IEM_DS3505
ZGOW,2001-04-25 03:00,ZGOW 250300Z AUTO 09010KT 9SM 20/17 A3000 RMK SLP158 T02010172 52020 IEM_DS3505
ZGOW,2001-04-25 04:00,ZGOW 250400Z AUTO 07014KT 7SM 20/18 A2997 RMK T02000180 IEM_DS3505
ZGOW,2001-04-25 05:00,ZGOW 250500Z AUTO 08012KT 7SM 21/18 A2997 RMK T02100180 IEM_DS3505
ZGOW,2001-04-25 06:00,ZGOW 250600Z AUTO 07006KT 8SM 20/17 A2994 RMK SLP144 T02050173 57014 IEM_DS3505
ZGOW,2001-04-25 07:00,ZGOW 250700Z AUTO 06012KT 7SM 21/18 A2994 RMK T02100180 IEM_DS3505
ZGOW,2001-04-25 08:00,ZGOW 250800Z AUTO 06010KT 7SM 21/18 A2994 RMK T02100180 IEM_DS3505
ZGOW,2001-04-25 09:00,ZGOW 250900Z AUTO 07006KT 7SM 20/18 A2994 RMK SLP143 T02010178 57001 IEM_DS3505
ZGOW,2001-04-25 10:00,ZGOW 251000Z AUTO 08006KT 7SM 20/18 A2994 RMK T02000180 IEM_DS3505
ZGOW,2001-04-25 11:00,ZGOW 251100Z AUTO 07004KT 2 1/2SM 19/18 A2997 RMK T01900180 IEM_DS3505
ZGOW,2001-04-25 12:00,ZGOW 251200Z AUTO 07006KT 6SM 19/17 A2997 RMK 60004 SLP151 T01940174 52008 IEM_DS3505
ZGOW,2001-04-25 13:00,ZGOW 251300Z AUTO 08012KT 4SM 19/18 A2997 RMK T01900180 IEM_DS3505
ZGOW,2001-04-25 14:00,ZGOW 251400Z AUTO 07014KT 2 1/2SM 18/17 A3000 RMK T01800170 IEM_DS3505
ZGOW,2001-04-25 15:00,ZGOW 251500Z AUTO 07010KT 7SM 19/16 A3000 RMK SLP164 T01870164 52013 IEM_DS3505
ZGOW,2001-04-25 16:00,ZGOW 251600Z AUTO 07012KT 2 1/2SM 18/17 A3000 RMK T01800170 IEM_DS3505
ZGOW,2001-04-25 17:00,ZGOW 251700Z AUTO 07012KT 3SM 18/16 A3000 RMK T01800160 IEM_DS3505
ZGOW,2001-04-25 18:00,ZGOW 251800Z AUTO 07008KT 7SM 18/16 A3000 RMK 60003 SLP157 T01810156 57007 IEM_DS3505
ZGOW,2001-04-25 19:00,ZGOW 251900Z AUTO 06014KT 3SM 18/15 A2997 RMK T01800150 IEM_DS3505
ZGOW,2001-04-25 20:00,ZGOW 252000Z AUTO 05010KT 2 1/2SM 18/16 A2997 RMK T01800160 IEM_DS3505
ZGOW,2001-04-25 21:00,ZGOW 252100Z AUTO 04004KT 7SM 18/15 A3000 RMK 70004 SLP159 T01770151 52002 IEM_DS3505
ZGOW,2001-04-25 22:00,ZGOW 252200Z AUTO 09002KT 4SM 18/16 A3000 RMK T01800160 IEM_DS3505
ZGOW,2001-04-25 23:00,ZGOW 252300Z AUTO 06002KT 7SM 18/16 A3003 RMK T01800160 IEM_DS3505
ZGOW,2001-04-26 00:00,ZGOW 260000Z AUTO 07004KT 8SM 19/15 A3003 RMK 70004 SLP174 T01900149 52015 IEM_DS3505
ZGOW,2001-04-26 01:00,ZGOW 260100Z AUTO 08014KT 7SM 21/16 A3003 RMK T02100160 IEM_DS3505
ZGOW,2001-04-26 02:00,ZGOW 260200Z AUTO 08012KT 7SM 21/16 A3006 RMK T02100160 IEM_DS3505
ZGOW,2001-04-26 03:00,ZGOW 260300Z AUTO 07006KT 11SM 22/15 A3006 RMK SLP180 T02200149 52006 IEM_DS3505
ZGOW,2001-04-26 04:00,ZGOW 260400Z AUTO 08010KT 6SM 23/17 A3003 RMK T02300170 IEM_DS3505
ZGOW,2001-04-26 05:00,ZGOW 260500Z AUTO 07008KT 6SM 23/17 A3003 RMK T02300170 IEM_DS3505
ZGOW,2001-04-26 06:00,ZGOW 260600Z AUTO 16008KT 12SM 23/16 A3000 RMK SLP155 T02340162 57025 IEM_DS3505
ZGOW,2001-04-26 07:00,ZGOW 260700Z AUTO 07010KT 6SM 24/17 A2997 RMK T02400170 IEM_DS3505
ZGOW,2001-04-26 08:00,ZGOW 260800Z AUTO 08014KT 7SM 22/16 A2994 RMK T02200160 IEM_DS3505
ZGOW,2001-04-26 09:00,ZGOW 260900Z AUTO 11006KT 12SM 22/16 A2994 RMK SLP139 T02240160 57016 IEM_DS3505
ZGOW,2001-04-26 10:00,ZGOW 261000Z AUTO 09008KT 6SM 21/17 A2994 RMK T02100170 IEM_DS3505
ZGOW,2001-04-26 11:00,ZGOW 261100Z AUTO 08010KT 6SM 20/16 A2997 RMK T02000160 IEM_DS3505
ZGOW,2001-04-26 12:00,ZGOW 261200Z AUTO 07004KT 10SM 20/16 A2997 RMK SLP148 T02040161 52009 IEM_DS3505
ZGOW,2001-04-26 13:00,ZGOW 261300Z AUTO 07010KT 6SM 19/17 A3000 RMK T01900170 IEM_DS3505
ZGOW,2001-04-26 14:00,ZGOW 261400Z AUTO 07008KT 6SM 19/17 A3000 RMK T01900170 IEM_DS3505
ZGOW,2001-04-26 15:00,ZGOW 261500Z AUTO 07008KT 9SM 20/16 A3000 RMK SLP158 T01970157 52010 IEM_DS3505
ZGOW,2001-04-26 16:00,ZGOW 261600Z AUTO 06008KT 3SM 19/17 A3000 RMK T01900170 IEM_DS3505
ZGOW,2001-04-26 17:00,ZGOW 261700Z AUTO 04006KT 3SM 18/16 A3000 RMK T01800160 IEM_DS3505
ZGOW,2001-04-26 18:00,ZGOW 261800Z AUTO 04004KT 7SM 18/16 A2997 RMK SLP150 T01840164 57008 IEM_DS3505
ZGOW,2001-04-26 19:00,ZGOW 261900Z AUTO 01002KT 3SM 18/16 A2997 RMK T01800160 IEM_DS3505
ZGOW,2001-04-26 20:00,ZGOW 262000Z AUTO 02004KT 3SM 18/16 A2994 RMK T01800160 IEM_DS3505
ZGOW,2001-04-26 21:00,ZGOW 262100Z AUTO 07002KT 6SM 18/16 A2997 RMK SLP147 T01800156 57003 IEM_DS3505
ZGOW,2001-04-26 22:00,ZGOW 262200Z AUTO 00000KT 4SM 17/16 A2997 RMK T01700160 IEM_DS3505
ZGOW,2001-04-26 23:00,ZGOW 262300Z AUTO 00000KT 5SM 19/17 A2997 RMK T01900170 IEM_DS3505
ZGOW,2001-04-27 00:00,ZGOW 270000Z AUTO 16004KT 7SM 21/15 A2997 RMK SLP153 T02060147 52006 IEM_DS3505
ZGOW,2001-04-27 01:00,ZGOW 270100Z AUTO 08012KT 6SM 22/16 A2997 RMK T02200160 IEM_DS3505
ZGOW,2001-04-27 02:00,ZGOW 270200Z AUTO 07014KT 7SM 23/17 A2997 RMK T02300170 IEM_DS3505
ZGOW,2001-04-27 03:00,ZGOW 270300Z AUTO 07010KT 11SM 24/15 A2994 RMK SLP145 T02370154 57008 IEM_DS3505
ZGOW,2001-04-27 04:00,ZGOW 270400Z AUTO 07008KT 6SM 24/18 A2994 RMK T02400180 IEM_DS3505
ZGOW,2001-04-27 05:00,ZGOW 270500Z AUTO 07008KT 6SM 25/18 A2991 RMK T02500180 IEM_DS3505
ZGOW,2001-04-27 06:00,ZGOW 270600Z AUTO 09004KT 14SM 26/17 A2988 RMK SLP120 T02600171 57025 IEM_DS3505
ZGOW,2001-04-27 07:00,ZGOW 270700Z AUTO 10006KT 6SM 25/19 A2985 RMK T02500190 IEM_DS3505
ZGOW,2001-04-27 08:00,ZGOW 270800Z AUTO 11004KT 7SM 25/20 A2985 RMK T02500200 IEM_DS3505
ZGOW,2001-04-27 09:00,ZGOW 270900Z AUTO 16004KT 12SM 24/18 A2985 RMK SLP111 T02410177 57009 IEM_DS3505
ZGOW,2001-04-27 10:00,ZGOW 271000Z AUTO 14004KT 6SM 23/19 A2985 RMK T02300190 IEM_DS3505
ZGOW,2001-04-27 11:00,ZGOW 271100Z AUTO 14004KT 6SM 22/19 A2985 RMK T02200190 IEM_DS3505
ZGOW,2001-04-27 12:00,ZGOW 271200Z AUTO 07002KT 9SM 22/19 A2985 RMK SLP114 T02220186 52003 IEM_DS3505
ZGOW,2001-04-27 13:00,ZGOW 271300Z AUTO 15004KT 3SM 22/20 A2988 RMK T02200200 IEM_DS3505
ZGOW,2001-04-27 14:00,ZGOW 271400Z AUTO 13004KT 4SM 22/20 A2991 RMK T02200200 IEM_DS3505
ZGOW,2001-04-27 15:00,ZGOW 271500Z AUTO 04004KT 8SM 22/19 A2991 RMK SLP131 T02240189 52017 IEM_DS3505
ZGOW,2001-04-27 16:00,ZGOW 271600Z AUTO 06002KT 2 1/2SM 22/20 A2988 RMK T02200200 IEM_DS3505
ZGOW,2001-04-27 17:00,ZGOW 271700Z AUTO 00000KT 2 1/2SM 22/20 A2988 RMK T02200200 IEM_DS3505
ZGOW,2001-04-27 18:00,ZGOW 271800Z AUTO 04004KT 7SM 22/19 A2985 RMK SLP115 T02230187 57016 IEM_DS3505
ZGOW,2001-04-27 20:00,ZGOW 272000Z AUTO 08002KT 2SM 22/21 A2985 RMK T02200210 IEM_DS3505
ZGOW,2001-04-27 21:00,ZGOW 272100Z AUTO 07004KT 6SM 22/19 A2985 RMK 70003 SLP106 T02230193 57009 IEM_DS3505
ZGOW,2001-04-27 22:00,ZGOW 272200Z AUTO 00000KT 2 1/2SM 22/21 A2985 RMK T02200210 IEM_DS3505
ZGOW,2001-04-27 23:00,ZGOW 272300Z AUTO 00000KT 1 1/2SM 22/21 A2985 RMK T02200210 IEM_DS3505
ZGOW,2001-04-28 00:00,ZGOW 280000Z AUTO 07004KT 3SM 24/20 A2985 RMK 60003 SLP114 T02360199 52008 IEM_DS3505
ZGOW,2001-04-28 01:00,ZGOW 280100Z AUTO 06004KT 4SM 25/21 A2988 RMK T02500210 IEM_DS3505
ZGOW,2001-04-28 02:00,ZGOW 280200Z AUTO 08006KT 5SM 25/20 A2988 RMK T02500200 IEM_DS3505
ZGOW,2001-04-28 03:00,ZGOW 280300Z AUTO 11004KT 4SM 26/20 A2988 RMK SLP115 T02640203 52001 IEM_DS3505
ZGOW,2001-04-28 04:00,ZGOW 280400Z AUTO 12004KT 7SM 27/22 A2985 RMK T02700220 IEM_DS3505
ZGOW,2001-04-28 05:00,ZGOW 280500Z AUTO 14006KT 7SM 27/23 A2985 RMK T02700230 IEM_DS3505
ZGOW,2001-04-28 06:00,ZGOW 280600Z AUTO 11004KT 6SM 28/22 RMK SLP097 T02830220 57018 IEM_DS3505
ZGOW,2001-04-28 07:00,ZGOW 280700Z AUTO 13008KT 6SM 27/24 A2980 RMK T02700240 IEM_DS3505
ZGOW,2001-04-28 08:00,ZGOW 280800Z AUTO 14008KT 6SM 27/25 A2980 RMK T02700250 IEM_DS3505
ZGOW,2001-04-28 09:00,ZGOW 280900Z AUTO 18010KT 6SM 27/23 A2977 RMK SLP080 T02680232 57017 IEM_DS3505
ZGOW,2001-04-28 10:00,ZGOW 281000Z AUTO 16006KT 7SM 25/24 A2977 RMK T02500240 IEM_DS3505
ZGOW,2001-04-28 11:00,ZGOW 281100Z AUTO 11006KT 2 1/2SM 24/24 A2980 RMK T02400240 IEM_DS3505
ZGOW,2001-04-28 12:00,ZGOW 281200Z AUTO 18006KT 7SM 24/23 A2980 RMK SLP091 T02450230 52011 IEM_DS3505
ZGOW,2001-04-28 13:00,ZGOW 281300Z AUTO 16004KT 2 1/2SM 24/23 A2980 RMK T02400230 IEM_DS3505
ZGOW,2001-04-28 14:00,ZGOW 281400Z AUTO 15004KT 1 1/2SM 24/23 A2983 RMK T02400230 IEM_DS3505
ZGOW,2001-04-28 15:00,ZGOW 281500Z AUTO 00000KT 6SM 24/23 A2983 RMK SLP099 T02410229 52008 IEM_DS3505
ZGOW,2001-04-28 16:00,ZGOW 281600Z AUTO 12002KT 1 1/4SM 23/23 A2980 RMK T02300230 IEM_DS3505
ZGOW,2001-04-28 17:00,ZGOW 281700Z AUTO 14002KT 1SM 23/23 A2980 RMK T02300230 IEM_DS3505
ZGOW,2001-04-28 18:00,ZGOW 281800Z AUTO 02002KT 4SM 24/23 A2980 RMK SLP091 T02360229 57008 IEM_DS3505
ZGOW,2001-04-28 19:00,ZGOW 281900Z AUTO 02002KT 1/8SM 23/23 A2980 RMK T02300230 IEM_DS3505
ZGOW,2001-04-28 21:00,ZGOW 282100Z AUTO 18004KT 3SM 24/23 A2980 RMK SLP093 T02370231 52002 IEM_DS3505
ZGOW,2001-04-28 22:00,ZGOW 282200Z AUTO 04002KT 1/2SM 23/23 A2980 RMK T02300230 IEM_DS3505
ZGOW,2001-04-28 23:00,ZGOW 282300Z AUTO 00000KT 1 1/4SM 24/24 A2983 RMK T02400240 IEM_DS3505
ZGOW,2001-04-29 00:00,ZGOW 290000Z AUTO 11004KT 2 1/2SM 25/24 A2985 RMK SLP111 T02510236 52018 IEM_DS3505
ZGOW,2001-04-29 01:00,ZGOW 290100Z AUTO 15002KT 2SM 27/25 A2985 RMK T02700250 IEM_DS3505
ZGOW,2001-04-29 02:00,ZGOW 290200Z AUTO 16004KT 4SM 28/25 A2985 RMK T02800250 IEM_DS3505
ZGOW,2001-04-29 03:00,ZGOW 290300Z AUTO 25008KT 9SM 30/23 A2985 RMK SLP114 T02960231 52003 IEM_DS3505
ZGOW,2001-04-29 04:00,ZGOW 290400Z AUTO 18010KT 7SM 30/26 A2985 RMK T03000260 IEM_DS3505
ZGOW,2001-04-29 05:00,ZGOW 290500Z AUTO 19010KT 7SM 31/26 A2983 RMK T03100260 IEM_DS3505
ZGOW,2001-04-29 06:00,ZGOW 290600Z AUTO 18006KT 19SM 30/25 A2980 RMK SLP091 T03030246 57023 IEM_DS3505
ZGOW,2001-04-29 07:00,ZGOW 290700Z AUTO 20012KT 6SM 31/25 A2977 RMK T03100250 IEM_DS3505
ZGOW,2001-04-29 08:00,ZGOW 290800Z AUTO 19012KT 6SM 30/25 A2977 RMK T03000250 IEM_DS3505
ZGOW,2001-04-29 09:00,ZGOW 290900Z AUTO 20014KT 19SM 30/24 A2977 RMK SLP082 T02960242 57009 IEM_DS3505
ZGOW,2001-04-29 10:00,ZGOW 291000Z AUTO 20014KT 6SM 28/25 A2977 RMK T02800250 IEM_DS3505
ZGOW,2001-04-29 11:00,ZGOW 291100Z AUTO 17002KT 7SM 27/25 A2980 RMK T02700250 IEM_DS3505
ZGOW,2001-04-29 12:00,ZGOW 291200Z AUTO 20006KT 14SM 27/24 A2980 RMK SLP093 T02710239 52011 IEM_DS3505
ZGOW,2001-04-29 13:00,ZGOW 291300Z AUTO 19006KT 7SM 27/25 A2983 RMK T02700250 IEM_DS3505
ZGOW,2001-04-29 14:00,ZGOW 291400Z AUTO 20004KT 7SM 27/25 A2985 RMK T02700250 IEM_DS3505
ZGOW,2001-04-29 15:00,ZGOW 291500Z AUTO 20006KT 10SM 27/24 A2985 RMK SLP110 T02670243 52017 IEM_DS3505
ZGOW,2001-04-29 16:00,ZGOW 291600Z AUTO 20002KT 2 1/2SM 26/25 A2985 RMK T02600250 IEM_DS3505
ZGOW,2001-04-29 17:00,ZGOW 291700Z AUTO 00000KT 2 1/2SM 26/25 A2985 RMK T02600250 IEM_DS3505
ZGOW,2001-04-29 18:00,ZGOW 291800Z AUTO 25002KT 9SM 26/24 A2985 RMK 60003 SLP105 T02620240 57005 IEM_DS3505
ZGOW,2001-04-29 19:00,ZGOW 291900Z AUTO 06002KT 1 1/2SM 24/24 A2983 RMK T02400240 IEM_DS3505
ZGOW,2001-04-29 20:00,ZGOW 292000Z AUTO 00000KT 2SM 25/25 A2985 RMK T02500250 IEM_DS3505
ZGOW,2001-04-29 21:00,ZGOW 292100Z AUTO 29002KT 7SM 25/24 A2985 RMK 70003 SLP107 T02530240 52002 IEM_DS3505
ZGOW,2001-04-29 23:00,ZGOW 292300Z AUTO 00000KT 2SM 26/26 A2988 RMK T02600260 IEM_DS3505
ZGOW,2001-04-30 00:00,ZGOW 300000Z AUTO 27004KT 7SM 27/24 A2988 RMK 70003 SLP119 T02730240 52012 IEM_DS3505
ZGOW,2001-04-30 01:00,ZGOW 300100Z AUTO 25002KT 7SM 29/25 A2988 RMK T02900250 IEM_DS3505
ZGOW,2001-04-30 02:00,ZGOW 300200Z AUTO 26006KT 7SM 30/25 A2991 RMK T03000250 IEM_DS3505
ZGOW,2001-04-30 03:00,ZGOW 300300Z AUTO 25004KT 9SM 31/24 A2988 RMK SLP117 T03060242 57002 IEM_DS3505
ZGOW,2001-04-30 04:00,ZGOW 300400Z AUTO 25008KT 7SM 32/25 A2988 RMK T03200250 IEM_DS3505
ZGOW,2001-04-30 05:00,ZGOW 300500Z AUTO 22004KT 7SM 32/26 A2985 RMK T03200260 IEM_DS3505
ZGOW,2001-04-30 06:00,ZGOW 300600Z AUTO 22008KT 11SM 32/25 A2983 RMK SLP097 T03190247 57020 IEM_DS3505
ZGOW,2001-04-30 07:00,ZGOW 300700Z AUTO 20014KT 7SM 30/27 A2980 RMK T03000270 IEM_DS3505
ZGOW,2001-04-30 08:00,ZGOW 300800Z AUTO 19006KT 7SM 30/23 A2980 RMK T03000230 IEM_DS3505
ZGOW,2001-04-30 09:00,ZGOW 300900Z AUTO 22008KT 14SM 29/24 A2980 RMK SLP087 T02930240 57010 IEM_DS3505
ZGOW,2001-04-30 10:00,ZGOW 301000Z AUTO 20006KT 7SM 28/26 A2980 RMK T02800260 IEM_DS3505
ZGOW,2001-04-30 11:00,ZGOW 301100Z AUTO 20004KT 5SM 28/26 A2980 RMK T02800260 IEM_DS3505
ZGOW,2001-04-30 12:00,ZGOW 301200Z AUTO 22006KT 10SM 28/25 A2983 RMK 60003 SLP098 T02810247 52011 IEM_DS3505
ZGOW,2001-04-30 13:00,ZGOW 301300Z AUTO 18002KT 4SM 27/26 A2983 RMK T02700260 IEM_DS3505
ZGOW,2001-04-30 14:00,ZGOW 301400Z AUTO 00000KT 4SM 27/26 A2985 RMK T02700260 IEM_DS3505
ZGOW,2001-04-30 15:00,ZGOW 301500Z AUTO 25006KT 9SM 27/25 A2988 RMK SLP115 T02730249 52017 IEM_DS3505
ZGOW,2001-04-30 16:00,ZGOW 301600Z AUTO 00000KT 2SM 25/25 A2985 RMK T02500250 IEM_DS3505
ZGOW,2001-04-30 17:00,ZGOW 301700Z AUTO 24004KT 2SM 26/26 A2985 RMK T02600260 IEM_DS3505
ZGOW,2001-04-30 18:00,ZGOW 301800Z AUTO 29006KT 8SM 27/24 A2985 RMK SLP109 T02700241 57006 IEM_DS3505
ZGOW,2001-04-30 19:00,ZGOW 301900Z AUTO 27008KT 4SM 22/21 A2985 RMK T02200210 IEM_DS3505
ZGOW,2001-04-30 20:00,ZGOW 302000Z AUTO 25002KT 7SM 22/22 A2985 RMK T02200220 IEM_DS3505
ZGOW,2001-04-30 21:00,ZGOW 302100Z AUTO 34002KT 7SM 23/21 RMK 70056 SLP108 T02280213 57001 IEM_DS3505
ZGOW,2001-04-30 22:00,ZGOW 302200Z AUTO 00000KT 7SM 22/22 A2985 RMK T02200220 IEM_DS3505
ZGOW,2001-04-30 23:00,ZGOW 302300Z AUTO 06004KT 4SM 23/23 A2988 RMK T02300230 IEM_DS3505
ZGOW,2001-05-01 00:00,ZGOW 010000Z AUTO 07004KT 9SM 24/22 A2991 RMK 60055 SLP129 T02380219 52021 IEM_DS3505
ZGOW,2001-05-01 01:00,ZGOW 010100Z AUTO 09006KT 4SM 24/23 A2991 RMK T02400230 IEM_DS3505
ZGOW,2001-05-01 02:00,ZGOW 010200Z AUTO 07008KT 4SM 26/23 A2991 RMK T02600230 IEM_DS3505
ZGOW,2001-05-01 03:00,ZGOW 010300Z AUTO 11004KT 11SM 26/22 A2991 RMK SLP129 T02620219 54000 IEM_DS3505
ZGOW,2001-05-01 04:00,ZGOW 010400Z AUTO 12002KT 7SM 26/23 A2988 RMK T02600230 IEM_DS3505
ZGOW,2001-05-01 05:00,ZGOW 010500Z AUTO 15006KT 4SM 26/24 A2985 RMK T02600240 IEM_DS3505
ZGOW,2001-05-01 06:00,ZGOW 010600Z AUTO 14004KT 9SM 26/22 A2985 RMK SLP106 T02600222 57023 IEM_DS3505
ZGOW,2001-05-01 07:00,ZGOW 010700Z AUTO 13008KT 3SM 26/24 A2983 RMK T02600240 IEM_DS3505
ZGOW,2001-05-01 08:00,ZGOW 010800Z AUTO 13008KT 2 1/2SM 25/23 A2980 RMK T02500230 IEM_DS3505
ZGOW,2001-05-01 09:00,ZGOW 010900Z AUTO 11006KT 7SM 26/22 A2983 RMK SLP091 T02560224 57015 IEM_DS3505
ZGOW,2001-05-01 10:00,ZGOW 011000Z AUTO 13006KT 2 1/2SM 24/23 A2983 RMK T02400230 IEM_DS3505
ZGOW,2001-05-01 11:00,ZGOW 011100Z AUTO 13002KT 2SM 24/23 A2983 RMK T02400230 IEM_DS3505
ZGOW,2001-05-01 12:00,ZGOW 011200Z AUTO 09002KT 6SM 24/22 A2983 RMK SLP102 T02410220 52011 IEM_DS3505
ZGOW,2001-05-01 13:00,ZGOW 011300Z AUTO 09004KT 3SM 24/22 A2985 RMK T02400220 IEM_DS3505
ZGOW,2001-05-01 14:00,ZGOW 011400Z AUTO 07006KT 3SM 23/22 A2985 RMK T02300220 IEM_DS3505
ZGOW,2001-05-01 15:00,ZGOW 011500Z AUTO 07004KT 6SM 24/22 A2985 RMK SLP110 T02390218 52008 IEM_DS3505
ZGOW,2001-05-01 16:00,ZGOW 011600Z AUTO 08006KT 1 1/2SM 23/22 A2985 RMK T02300220 IEM_DS3505
ZGOW,2001-05-01 17:00,ZGOW 011700Z AUTO 07008KT 1SM 23/22 A2983 RMK T02300220 IEM_DS3505
ZGOW,2001-05-01 18:00,ZGOW 011800Z AUTO 07006KT 5SM 23/21 A2983 RMK SLP099 T02280211 57011 IEM_DS3505
ZGOW,2001-05-01 19:00,ZGOW 011900Z AUTO 07008KT 1 1/4SM 22/22 A2980 RMK T02200220 IEM_DS3505
ZGOW,2001-05-01 20:00,ZGOW 012000Z AUTO 07006KT 1 1/2SM 22/21 A2980 RMK T02200210 IEM_DS3505
ZGOW,2001-05-01 21:00,ZGOW 012100Z AUTO 07006KT 5SM 23/21 A2983 RMK SLP099 T02280210 54000 IEM_DS3505
ZGOW,2001-05-01 22:00,ZGOW 012200Z AUTO 06008KT 2SM 22/21 A2983 RMK T02200210 IEM_DS3505
ZGOW,2001-05-01 23:00,ZGOW 012300Z AUTO 07008KT 3SM 22/21 A2983 RMK T02200210 IEM_DS3505
ZGOW,2001-05-02 00:00,ZGOW 020000Z AUTO 07004KT 5SM 23/21 A2985 RMK SLP110 T02320206 52011 IEM_DS3505
ZGOW,2001-05-02 01:00,ZGOW 020100Z AUTO 12004KT 4SM 24/22 A2985 RMK T02400220 IEM_DS3505
ZGOW,2001-05-02 02:00,ZGOW 020200Z AUTO 15002KT 4SM 23/22 A2988 RMK T02300220 IEM_DS3505
ZGOW,2001-05-02 03:00,ZGOW 020300Z AUTO 07002KT 6SM 24/21 A2988 RMK SLP122 T02390210 52012 IEM_DS3505
ZGOW,2001-05-02 04:00,ZGOW 020400Z AUTO 08002KT 4SM 24/22 A2985 RMK T02400220 IEM_DS3505
ZGOW,2001-05-02 05:00,ZGOW 020500Z AUTO 06006KT 7SM 24/22 A2985 RMK T02400220 IEM_DS3505
ZGOW,2001-05-02 06:00,ZGOW 020600Z AUTO 16004KT 7SM 24/21 A2983 RMK 60000 SLP109 T02390210 57013 IEM_DS3505
ZGOW,2001-05-02 07:00,ZGOW 020700Z AUTO 11002KT 5SM 24/22 A2983 RMK T02400220 IEM_DS3505
ZGOW,2001-05-02 08:00,ZGOW 020800Z AUTO 08008KT 7SM 23/22 A2983 RMK T02300220 IEM_DS3505
ZGOW,2001-05-02 09:00,ZGOW 020900Z AUTO 07006KT 7SM 23/20 A2983 RMK SLP100 T02330201 57009 IEM_DS3505
ZGOW,2001-05-02 10:00,ZGOW 021000Z AUTO 07010KT 7SM 22/20 A2983 RMK T02200200 IEM_DS3505
ZGOW,2001-05-02 11:00,ZGOW 021100Z AUTO 07010KT 7SM 22/20 A2983 RMK T02200200 IEM_DS3505
ZGOW,2001-05-02 12:00,ZGOW 021200Z AUTO 07008KT 7SM 23/19 A2985 RMK 60003 SLP108 T02280189 52008 IEM_DS3505
ZGOW,2001-05-02 13:00,ZGOW 021300Z AUTO 08010KT 7SM 23/20 A2985 RMK T02300200 IEM_DS3505
ZGOW,2001-05-02 14:00,ZGOW 021400Z AUTO 07010KT 7SM 23/20 A2988 RMK T02300200 IEM_DS3505
ZGOW,2001-05-02 15:00,ZGOW 021500Z AUTO 07004KT 6SM 22/20 A2988 RMK SLP120 T02250195 52012 IEM_DS3505
ZGOW,2001-05-02 16:00,ZGOW 021600Z AUTO 07012KT 2SM 22/20 A2988 RMK T02200200 IEM_DS3505
ZGOW,2001-05-02 17:00,ZGOW 021700Z AUTO 08006KT 2SM 22/20 A2988 RMK T02200200 IEM_DS3505
ZGOW,2001-05-02 18:00,ZGOW 021800Z AUTO 07008KT 6SM 22/19 A2985 RMK 60003 SLP113 T02210188 57007 IEM_DS3505
ZGOW,2001-05-02 19:00,ZGOW 021900Z AUTO 05008KT 1 1/2SM 22/19 A2985 RMK T02200190 IEM_DS3505
ZGOW,2001-05-02 20:00,ZGOW 022000Z AUTO 06008KT 2SM 21/19 A2985 RMK T02100190 IEM_DS3505
ZGOW,2001-05-02 21:00,ZGOW 022100Z AUTO 07004KT 6SM 21/17 A2985 RMK 70005 SLP112 T02060170 57001 IEM_DS3505
ZGOW,2001-05-02 22:00,ZGOW 022200Z AUTO 06008KT 3SM 19/18 A2988 RMK T01900180 IEM_DS3505
ZGOW,2001-05-02 23:00,ZGOW 022300Z AUTO 05008KT 2 1/2SM 19/18 A2991 RMK T01900180 IEM_DS3505
ZGOW,2001-05-03 00:00,ZGOW 030000Z AUTO 07004KT 4SM 20/18 A2994 RMK 60024 SLP136 T01980180 52024 IEM_DS3505
ZGOW,2001-05-03 01:00,ZGOW 030100Z AUTO 06010KT 4SM 21/19 A2994 RMK T02100190 IEM_DS3505
ZGOW,2001-05-03 02:00,ZGOW 030200Z AUTO 06010KT 7SM 22/18 A2994 RMK T02200180 IEM_DS3505
ZGOW,2001-05-03 03:00,ZGOW 030300Z AUTO 11006KT 6SM 23/16 A2994 RMK SLP142 T02320163 52006 IEM_DS3505
ZGOW,2001-05-03 04:00,ZGOW 030400Z AUTO 08008KT 4SM 23/18 A2994 RMK T02300180 IEM_DS3505
ZGOW,2001-05-03 05:00,ZGOW 030500Z AUTO 08010KT 4SM 24/19 A2991 RMK T02400190 IEM_DS3505
ZGOW,2001-05-03 06:00,ZGOW 030600Z AUTO 07008KT 7SM 24/18 A2991 RMK SLP132 T02370178 57010 IEM_DS3505
ZGOW,2001-05-03 07:00,ZGOW 030700Z AUTO 08008KT 2 1/2SM 23/20 A2991 RMK T02300200 IEM_DS3505
ZGOW,2001-05-03 08:00,ZGOW 030800Z AUTO 09010KT 2 1/2SM 23/20 A2988 RMK T02300200 IEM_DS3505
ZGOW,2001-05-03 09:00,ZGOW 030900Z AUTO 04004KT 4SM 23/18 A2988 RMK SLP123 T02340184 57009 IEM_DS3505
ZGOW,2001-05-03 10:00,ZGOW 031000Z AUTO 07008KT 2 1/2SM 22/19 A2988 RMK T02200190 IEM_DS3505
ZGOW,2001-05-03 11:00,ZGOW 031100Z AUTO 08004KT 2 1/2SM 22/20 A2991 RMK T02200200 IEM_DS3505
ZGOW,2001-05-03 12:00,ZGOW 031200Z AUTO 04004KT 4SM 22/19 A2994 RMK 60003 SLP135 T02250189 52012 IEM_DS3505
ZGOW,2001-05-03 13:00,ZGOW 031300Z AUTO 08002KT 2 1/2SM 22/20 A2994 RMK T02200200 IEM_DS3505
ZGOW,2001-05-03 14:00,ZGOW 031400Z AUTO 04004KT 2 1/2SM 21/20 A2997 RMK T02100200 IEM_DS3505
ZGOW,2001-05-03 15:00,ZGOW 031500Z AUTO 04004KT 4SM 22/20 A2997 RMK SLP145 T02210195 52010 IEM_DS3505
ZGOW,2001-05-03 16:00,ZGOW 031600Z AUTO 03002KT 2 1/2SM 21/20 A2994 RMK T02100200 IEM_DS3505
ZGOW,2001-05-03 17:00,ZGOW 031700Z AUTO 01002KT 2SM 21/20 A2994 RMK T02100200 IEM_DS3505
ZGOW,2001-05-03 18:00,ZGOW 031800Z AUTO 07004KT 4SM 22/19 A2991 RMK SLP133 T02170189 57012 IEM_DS3505
ZGOW,2001-05-03 19:00,ZGOW 031900Z AUTO 03004KT 1 1/2SM 20/20 A2991 RMK T02000200 IEM_DS3505
ZGOW,2001-05-03 20:00,ZGOW 032000Z AUTO 05002KT 1 1/2SM 20/19 A2991 RMK T02000190 IEM_DS3505
ZGOW,2001-05-03 21:00,ZGOW 032100Z AUTO 07004KT 4SM 21/19 A2991 RMK 70021 SLP130 T02140189 57003 IEM_DS3505
ZGOW,2001-05-03 22:00,ZGOW 032200Z AUTO 36002KT 2 1/2SM 21/19 A2994 RMK T02100190 IEM_DS3505
ZGOW,2001-05-03 23:00,ZGOW 032300Z AUTO 05002KT 2 1/2SM 21/20 A2994 RMK T02100200 IEM_DS3505
ZGOW,2001-05-04 00:00,ZGOW 040000Z AUTO 07004KT 6SM 23/19 A2994 RMK 70003 SLP146 T02270193 52016 IEM_DS3505
ZGOW,2001-05-04 01:00,ZGOW 040100Z AUTO 07008KT 4SM 24/21 A2997 RMK T02400210 IEM_DS3505
ZGOW,2001-05-04 02:00,ZGOW 040200Z AUTO 07006KT 5SM 25/21 A2997 RMK T02500210 IEM_DS3505
ZGOW,2001-05-04 03:00,ZGOW 040300Z AUTO 22002KT 7SM 26/20 A2997 RMK SLP149 T02590196 52003 IEM_DS3505
ZGOW,2001-05-04 04:00,ZGOW 040400Z AUTO 14004KT 7SM 26/21 A2994 RMK T02600210 IEM_DS3505
ZGOW,2001-05-04 06:00,ZGOW 040600Z AUTO 16004KT 7SM 27/16 A2991 RMK SLP127 T02720165 57022 IEM_DS3505
ZGOW,2001-05-04 07:00,ZGOW 040700Z AUTO 14004KT 7SM 27/19 A2988 RMK T02700190 IEM_DS3505
ZGOW,2001-05-04 08:00,ZGOW 040800Z AUTO 12004KT 7SM 27/19 A2988 RMK T02700190 IEM_DS3505
ZGOW,2001-05-04 09:00,ZGOW 040900Z AUTO 16004KT 7SM 26/18 A2988 RMK SLP116 T02640183 57011 IEM_DS3505
ZGOW,2001-05-04 10:00,ZGOW 041000Z AUTO 14004KT 4SM 24/21 A2988 RMK T02400210 IEM_DS3505
ZGOW,2001-05-04 11:00,ZGOW 041100Z AUTO 14004KT 4SM 24/22 A2991 RMK T02400220 IEM_DS3505
ZGOW,2001-05-04 12:00,ZGOW 041200Z AUTO 20002KT 7SM 24/20 A2991 RMK SLP133 T02440196 52017 IEM_DS3505
ZGOW,2001-05-04 13:00,ZGOW 041300Z AUTO 13002KT 4SM 24/23 A2991 RMK T02400230 IEM_DS3505
ZGOW,2001-05-04 14:00,ZGOW 041400Z AUTO 11004KT 4SM 23/23 A2994 RMK T02300230 IEM_DS3505
ZGOW,2001-05-04 15:00,ZGOW 041500Z AUTO 11004KT 6SM 24/22 A2991 RMK SLP132 T02380217 57001 IEM_DS3505
ZGOW,2001-05-04 16:01,ZGOW 041601Z AUTO 10002KT 1 1/2SM 23/22 A2988 RMK T02300220 IEM_DS3505
ZGOW,2001-05-04 17:00,ZGOW 041700Z AUTO 00000KT 1 1/2SM 23/22 A2988 RMK T02300220 IEM_DS3505
ZGOW,2001-05-04 18:00,ZGOW 041800Z AUTO 11002KT 5SM 24/22 RMK SLP115 T02370219 57017 IEM_DS3505
ZGOW,2001-05-04 18:01,ZGOW 041801Z AUTO 09002KT 1 1/2SM 23/22 A2985 RMK T02300220 IEM_DS3505
ZGOW,2001-05-04 19:00,ZGOW 041900Z AUTO 00000KT 1 1/2SM 23/22 A2985 RMK T02300220 IEM_DS3505
ZGOW,2001-05-04 20:01,ZGOW 042001Z AUTO 36002KT 1 1/2SM 23/22 A2985 RMK T02300220 IEM_DS3505
ZGOW,2001-05-04 21:00,ZGOW 042100Z AUTO 04002KT 4SM 23/21 A2985 RMK SLP114 T02320214 57001 IEM_DS3505
ZGOW,2001-05-04 22:00,ZGOW 042200Z AUTO 00000KT 2 1/2SM 23/22 A2988 RMK T02300220 IEM_DS3505
ZGOW,2001-05-04 23:00,ZGOW 042300Z AUTO 00000KT 1 1/4SM 23/22 A2988 RMK T02300220 IEM_DS3505
ZGOW,2001-05-05 00:00,ZGOW 050000Z AUTO 00000KT 3SM 24/22 A2988 RMK 60003 SLP124 T02400219 52010 IEM_DS3505
ZGOW,2001-05-05 01:00,ZGOW 050100Z AUTO 30002KT 2 1/2SM 25/22 A2991 RMK T02500220 IEM_DS3505
ZGOW,2001-05-05 02:00,ZGOW 050200Z AUTO 32002KT 2 1/2SM 27/24 A2991 RMK T02700240 IEM_DS3505
ZGOW,2001-05-05 03:00,ZGOW 050300Z AUTO 28002KT 1 1/2SM 27/24 A2988 RMK T02700240 IEM_DS3505
ZGOW,2001-05-05 04:00,ZGOW 050400Z AUTO 16004KT 2 1/2SM 29/25 A2985 RMK T02900250 IEM_DS3505
ZGOW,2001-05-05 05:00,ZGOW 050500Z AUTO 17008KT 2 1/2SM 28/26 A2985 RMK T02800260 IEM_DS3505
ZGOW,2001-05-05 06:00,ZGOW 050600Z AUTO 20006KT 9SM 29/24 A2983 RMK SLP102 T02920242 57021 IEM_DS3505
ZGOW,2001-05-05 07:00,ZGOW 050700Z AUTO 19010KT 7SM 29/26 A2980 RMK T02900260 IEM_DS3505
ZGOW,2001-05-05 08:00,ZGOW 050800Z AUTO 19012KT 7SM 29/26 A2977 RMK T02900260 IEM_DS3505
ZGOW,2001-05-05 09:00,ZGOW 050900Z AUTO 20008KT 9SM 29/24 A2977 RMK SLP081 T02870241 57021 IEM_DS3505
ZGOW,2001-05-05 10:00,ZGOW 051000Z AUTO 19010KT 5SM 28/25 A2977 RMK T02800250 IEM_DS3505
ZGOW,2001-05-05 11:00,ZGOW 051100Z AUTO 19008KT 4SM 26/25 A2980 RMK T02600250 IEM_DS3505
ZGOW,2001-05-05 12:00,ZGOW 051200Z AUTO 22006KT 9SM 26/24 A2980 RMK SLP092 T02610238 52011 IEM_DS3505
ZGOW,2001-05-05 13:00,ZGOW 051300Z AUTO 18006KT 3SM 26/25 A2983 RMK T02600250 IEM_DS3505
ZGOW,2001-05-05 14:00,ZGOW 051400Z AUTO 17006KT 1 1/4SM 25/25 A2983 RMK T02500250 IEM_DS3505
ZGOW,2001-05-05 15:00,ZGOW 051500Z AUTO 22004KT 8SM 25/23 A2983 RMK SLP100 T02530234 52008 IEM_DS3505
ZGOW,2001-05-05 16:00,ZGOW 051600Z AUTO 16002KT 1 1/2SM 25/24 A2983 RMK T02500240 IEM_DS3505
ZGOW,2001-05-05 17:00,ZGOW 051700Z AUTO 12002KT 1 1/4SM 24/23 A2980 RMK T02400230 IEM_DS3505
ZGOW,2001-05-05 18:00,ZGOW 051800Z AUTO 20004KT 7SM 25/23 A2980 RMK SLP090 T02520227 57010 IEM_DS3505
ZGOW,2001-05-05 19:00,ZGOW 051900Z AUTO 00000KT 1 1/4SM 24/24 A2980 RMK T02400240 IEM_DS3505
ZGOW,2001-05-05 20:00,ZGOW 052000Z AUTO 00000KT 1SM 24/23 A2980 RMK T02400230 IEM_DS3505
ZGOW,2001-05-05 21:00,ZGOW 052100Z AUTO 00000KT 7SM 25/23 A2980 RMK 70003 SLP089 T02470228 57001 IEM_DS3505
ZGOW,2001-05-05 22:00,ZGOW 052200Z AUTO 00000KT 1 1/2SM 24/23 A2980 RMK T02400230 IEM_DS3505
ZGOW,2001-05-05 23:00,ZGOW 052300Z AUTO 00000KT 1 1/4SM 24/24 A2983 RMK T02400240 IEM_DS3505
ZGOW,2001-05-06 00:00,ZGOW 060000Z AUTO 27002KT 9SM 27/24 A2983 RMK SLP102 T02730237 52013 IEM_DS3505
ZGOW,2001-05-06 01:00,ZGOW 060100Z AUTO 25002KT 4SM 28/25 A2983 RMK T02800250 IEM_DS3505
ZGOW,2001-05-06 02:00,ZGOW 060200Z AUTO 25006KT 7SM 29/24 A2983 RMK T02900240 IEM_DS3505
ZGOW,2001-05-06 03:00,ZGOW 060300Z AUTO 25006KT 11SM 30/23 A2980 RMK SLP098 T03010229 57004 IEM_DS3505
ZGOW,2001-05-06 04:00,ZGOW 060400Z AUTO 24010KT 7SM 32/25 A2980 RMK T03200250 IEM_DS3505
ZGOW,2001-05-06 05:00,ZGOW 060500Z AUTO 21006KT 7SM 32/27 A2977 RMK T03200270 IEM_DS3505
ZGOW,2001-05-06 06:00,ZGOW 060600Z AUTO 25006KT 16SM 33/24 A2974 RMK SLP067 T03280237 57031 IEM_DS3505
ZGOW,2001-05-06 07:00,ZGOW 060700Z AUTO 19012KT 6SM 31/27 A2971 RMK T03100270 IEM_DS3505
ZGOW,2001-05-06 08:00,ZGOW 060800Z AUTO 20010KT 6SM 31/27 A2971 RMK T03100270 IEM_DS3505
ZGOW,2001-05-06 09:00,ZGOW 060900Z AUTO 20012KT 16SM 30/24 A2971 RMK SLP053 T03000245 57014 IEM_DS3505
ZGOW,2001-05-06 10:00,ZGOW 061000Z AUTO 19010KT 6SM 28/26 A2968 RMK T02800260 IEM_DS3505
ZGOW,2001-05-06 11:00,ZGOW 061100Z AUTO 21010KT 7SM 28/26 A2971 RMK T02800260 IEM_DS3505
ZGOW,2001-05-06 12:00,ZGOW 061200Z AUTO 25010KT 11SM 28/24 A2974 RMK SLP064 T02770241 52011 IEM_DS3505
ZGOW,2001-05-06 13:00,ZGOW 061300Z AUTO 23004KT 6SM 27/25 A2974 RMK T02700250 IEM_DS3505
ZGOW,2001-05-06 14:00,ZGOW 061400Z AUTO 23008KT 6SM 27/25 A2974 RMK T02700250 IEM_DS3505
ZGOW,2001-05-06 15:00,ZGOW 061500Z AUTO 25006KT 10SM 27/24 A2977 RMK SLP078 T02720243 52014 IEM_DS3505
ZGOW,2001-05-06 16:00,ZGOW 061600Z AUTO 00000KT 7SM 26/25 A2977 RMK T02600250 IEM_DS3505
ZGOW,2001-05-06 17:00,ZGOW 061700Z AUTO 18002KT 7SM 26/25 A2977 RMK T02600250 IEM_DS3505
ZGOW,2001-05-06 18:00,ZGOW 061800Z AUTO 25006KT 8SM 27/24 A2977 RMK SLP077 T02700244 57001 IEM_DS3505
ZGOW,2001-05-06 19:00,ZGOW 061900Z AUTO 00000KT 2SM 26/25 A2974 RMK T02600250 IEM_DS3505
ZGOW,2001-05-06 20:00,ZGOW 062000Z AUTO 00000KT 2SM 25/25 A2974 RMK T02500250 IEM_DS3505
ZGOW,2001-05-06 21:00,ZGOW 062100Z AUTO 20002KT 7SM 26/24 A2974 RMK SLP070 T02630244 57007 IEM_DS3505
ZGOW,2001-05-06 22:00,ZGOW 062200Z AUTO 23002KT 3SM 26/25 A2974 RMK T02600250 IEM_DS3505
ZGOW,2001-05-06 23:00,ZGOW 062300Z AUTO 00000KT 3SM 27/27 A2974 RMK T02700270 IEM_DS3505
ZGOW,2001-05-07 00:00,ZGOW 070000Z AUTO 27008KT 12SM 29/25 A2977 RMK SLP078 T02860248 52008 IEM_DS3505
ZGOW,2001-05-07 01:00,ZGOW 070100Z AUTO 24008KT 7SM 30/26 A2977 RMK T03000260 IEM_DS3505
ZGOW,2001-05-07 02:00,ZGOW 070200Z AUTO 24008KT 7SM 30/26 A2977 RMK T03000260 IEM_DS3505
ZGOW,2001-05-07 03:00,ZGOW 070300Z AUTO 25006KT 14SM 31/25 A2974 RMK SLP073 T03140248 57005 IEM_DS3505
ZGOW,2001-05-07 04:00,ZGOW 070400Z AUTO 24010KT 7SM 32/26 A2974 RMK T03200260 IEM_DS3505
ZGOW,2001-05-07 05:00,ZGOW 070500Z AUTO 23010KT 7SM 33/27 A2968 RMK T03300270 IEM_DS3505
ZGOW,2001-05-07 06:00,ZGOW 070600Z AUTO 27012KT 16SM 34/24 A2965 RMK SLP047 T03420244 57026 IEM_DS3505
ZGOW,2001-05-07 07:00,ZGOW 070700Z AUTO 23012KT 7SM 34/27 A2965 RMK T03400270 IEM_DS3505
ZGOW,2001-05-07 08:00,ZGOW 070800Z AUTO 21016KT 7SM 32/27 A2959 RMK T03200270 IEM_DS3505
ZGOW,2001-05-07 09:00,ZGOW 070900Z AUTO 25016KT 12SM 31/25 A2959 RMK SLP022 T03140251 57025 IEM_DS3505
ZGOW,2001-05-07 10:00,ZGOW 071000Z AUTO 23012KT 7SM 31/26 A2962 RMK T03100260 IEM_DS3505
ZGOW,2001-05-07 11:00,ZGOW 071100Z AUTO 22014KT 6SM 29/26 A2962 RMK T02900260 IEM_DS3505
ZGOW,2001-05-07 12:00,ZGOW 071200Z AUTO 22010KT 11SM 29/25 A2965 RMK SLP040 T02870247 52018 IEM_DS3505
ZGOW,2001-05-07 13:00,ZGOW 071300Z AUTO 20004KT 6SM 29/26 A2968 RMK T02900260 IEM_DS3505
ZGOW,2001-05-07 14:00,ZGOW 071400Z AUTO 24010KT 6SM 29/26 A2968 RMK T02900260 IEM_DS3505
ZGOW,2001-05-07 15:00,ZGOW 071500Z AUTO 29006KT 9SM 28/24 RMK SLP061 T02850241 52021 IEM_DS3505
ZGOW,2001-05-07 16:00,ZGOW 071600Z AUTO 30004KT 25/24 A2971 RMK T02500240 IEM_DS3505
ZGOW,2001-05-07 17:00,ZGOW 071700Z AUTO 29002KT 24/24 A2968 RMK T02400240 IEM_DS3505
ZGOW,2001-05-07 18:00,ZGOW 071800Z AUTO 00000KT 9SM 25/23 A2965 RMK 60016 SLP043 T02530234 57018 IEM_DS3505
ZGOW,2001-05-07 19:00,ZGOW 071900Z AUTO 25/24 A2965 RMK T02500240 IEM_DS3505
ZGOW,2001-05-07 20:00,ZGOW 072000Z AUTO 24/24 A2965 RMK T02400240 IEM_DS3505
ZGOW,2001-05-07 21:00,ZGOW 072100Z AUTO 29006KT 7SM 24/22 A2968 RMK 70043 SLP052 T02400225 52009 IEM_DS3505
ZGOW,2001-05-07 22:00,ZGOW 072200Z AUTO 10SM 24/23 A2968 RMK T02400230 IEM_DS3505
ZGOW,2001-05-07 23:00,ZGOW 072300Z AUTO 28002KT 6SM 25/24 A2971 RMK T02500240 IEM_DS3505
ZGOW,2001-05-08 00:00,ZGOW 080000Z AUTO 00000KT 11SM 25/23 RMK 60028 SLP067 T02520232 52015 IEM_DS3505
ZGOW,2001-05-08 01:00,ZGOW 080100Z AUTO 30002KT 25/24 A2974 RMK T02500240 IEM_DS3505
ZGOW,2001-05-08 02:00,ZGOW 080200Z AUTO 28004KT RMK IEM_DS3505
ZGOW,2001-05-08 03:00,ZGOW 080300Z AUTO 29006KT 11SM 27/24 RMK SLP068 T02740235 52001 IEM_DS3505
ZGOW,2001-05-08 04:00,ZGOW 080400Z AUTO 32006KT 6SM RMK IEM_DS3505
ZGOW,2001-05-08 05:00,ZGOW 080500Z AUTO 33006KT 6SM RMK IEM_DS3505
ZGOW,2001-05-08 06:00,ZGOW 080600Z AUTO 29006KT 14SM 30/24 RMK 60008 SLP048 T03040240 57020 IEM_DS3505
ZGOW,2001-05-08 07:00,ZGOW 080700Z AUTO 14006KT 6SM RMK IEM_DS3505
ZGOW,2001-05-08 08:00,ZGOW 080800Z AUTO 14006KT 6SM RMK IEM_DS3505
ZGOW,2001-05-08 09:00,ZGOW 080900Z AUTO 18006KT 11SM 28/24 RMK SLP034 T02810239 57014 IEM_DS3505
ZGOW,2001-05-08 10:00,ZGOW 081000Z AUTO 16008KT RMK IEM_DS3505
ZGOW,2001-05-08 11:00,ZGOW 081100Z AUTO 15004KT 6SM 26/25 A2965 RMK T02600250 IEM_DS3505
ZGOW,2001-05-08 12:00,ZGOW 081200Z AUTO 18004KT 7SM 27/24 A2968 RMK SLP052 T02660242 52018 IEM_DS3505
ZGOW,2001-05-08 13:00,ZGOW 081300Z AUTO 14004KT 6SM 26/25 A2971 RMK T02600250 IEM_DS3505
ZGOW,2001-05-08 14:00,ZGOW 081400Z AUTO 17002KT 6SM 25/24 A2971 RMK T02500240 IEM_DS3505
ZGOW,2001-05-08 15:00,ZGOW 081500Z AUTO 00000KT 7SM 25/23 A2971 RMK SLP065 T02460228 52013 IEM_DS3505
ZGOW,2001-05-08 16:00,ZGOW 081600Z AUTO 24/24 A2971 RMK T02400240 IEM_DS3505
ZGOW,2001-05-08 17:01,ZGOW 081701Z AUTO 24/24 A2971 RMK T02400240 IEM_DS3505
ZGOW,2001-05-08 18:00,ZGOW 081800Z AUTO 00000KT 8SM 25/23 A2971 RMK 60016 SLP059 T02460228 57006 IEM_DS3505
ZGOW,2001-05-08 19:00,ZGOW 081900Z AUTO 04004KT 24/24 A2971 RMK T02400240 IEM_DS3505
ZGOW,2001-05-08 20:00,ZGOW 082000Z AUTO 08006KT 24/23 A2971 RMK T02400230 IEM_DS3505
ZGOW,2001-05-08 21:00,ZGOW 082100Z AUTO 07004KT 7SM 24/23 RMK 70022 SLP062 T02440229 52003 IEM_DS3505
ZGOW,2001-05-08 22:00,ZGOW 082200Z AUTO 07008KT RMK IEM_DS3505
ZGOW,2001-05-08 23:00,ZGOW 082300Z AUTO 08006KT 23/23 A2974 RMK T02300230 IEM_DS3505
ZGOW,2001-05-09 00:00,ZGOW 090000Z AUTO 07004KT 9SM 24/22 A2974 RMK 60003 SLP070 T02410225 52008 IEM_DS3505
ZGOW,2001-05-09 01:00,ZGOW 090100Z AUTO 07010KT RMK IEM_DS3505
ZGOW,2001-05-09 02:00,ZGOW 090200Z AUTO 08010KT 6SM RMK IEM_DS3505
ZGOW,2001-05-09 03:00,ZGOW 090300Z AUTO 07006KT 8SM 24/23 RMK SLP072 T02380226 52002 IEM_DS3505
ZGOW,2001-05-09 04:00,ZGOW 090400Z AUTO 08008KT 6SM RMK IEM_DS3505
ZGOW,2001-05-09 05:00,ZGOW 090500Z AUTO 07008KT 6SM RMK IEM_DS3505
ZGOW,2001-05-09 06:00,ZGOW 090600Z AUTO 07006KT 11SM 24/23 RMK 60002 SLP059 T02450226 57013 IEM_DS3505
ZGOW,2001-05-09 07:00,ZGOW 090700Z AUTO 07006KT 6SM RMK IEM_DS3505
ZGOW,2001-05-09 08:00,ZGOW 090800Z AUTO 10004KT 10SM 24/23 A2968 RMK T02400230 IEM_DS3505
ZGOW,2001-05-09 09:00,ZGOW 090900Z AUTO 16004KT 8SM 24/23 A2971 RMK SLP056 T02450226 57003 IEM_DS3505
ZGOW,2001-05-09 10:00,ZGOW 091000Z AUTO 05004KT 6SM RMK IEM_DS3505
ZGOW,2001-05-09 11:00,ZGOW 091100Z AUTO 06004KT 6SM 23/23 A2974 RMK T02300230 IEM_DS3505
ZGOW,2001-05-09 12:00,ZGOW 091200Z AUTO 00000KT 7SM 24/23 RMK 60024 SLP068 T02400230 52012 IEM_DS3505
ZGOW,2001-05-09 13:00,ZGOW 091300Z AUTO 06006KT 6SM 23/23 A2977 RMK T02300230 IEM_DS3505
ZGOW,2001-05-09 14:00,ZGOW 091400Z AUTO 23/23 A2980 RMK T02300230 IEM_DS3505
ZGOW,2001-05-09 15:00,ZGOW 091500Z AUTO 07004KT 5SM 24/23 A2980 RMK SLP089 T02350229 52021 IEM_DS3505
ZGOW,2001-05-09 16:00,ZGOW 091600Z AUTO 05008KT 23/23 A2977 RMK T02300230 IEM_DS3505
ZGOW,2001-05-09 17:00,ZGOW 091700Z AUTO 06008KT 23/23 A2977 RMK T02300230 IEM_DS3505
ZGOW,2001-05-09 18:00,ZGOW 091800Z AUTO 07006KT 5SM 23/22 RMK 60024 SLP078 T02270218 57011 IEM_DS3505
ZGOW,2001-05-09 21:00,ZGOW 092100Z AUTO 07008KT 6SM 22/21 RMK 70073 SLP090 T02200212 52012 IEM_DS3505
ZGOW,2001-05-09 22:00,ZGOW 092200Z AUTO 08010KT 6SM 21/21 A2980 RMK T02100210 IEM_DS3505
ZGOW,2001-05-09 23:00,ZGOW 092300Z AUTO 07014KT 21/21 A2983 RMK T02100210 IEM_DS3505
ZGOW,2001-05-10 00:00,ZGOW 100000Z AUTO 07008KT 9SM 22/20 A2985 RMK 60020 SLP110 T02160202 52020 IEM_DS3505
ZGOW,2001-05-10 01:00,ZGOW 100100Z AUTO 07016KT RMK IEM_DS3505
ZGOW,2001-05-10 02:00,ZGOW 100200Z AUTO 07017KT 6SM 21/20 A2988 RMK T02100200 IEM_DS3505
ZGOW,2001-05-10 03:00,ZGOW 100300Z AUTO 07010KT 9SM 22/19 RMK SLP121 T02190191 52011 IEM_DS3505
ZGOW,2001-05-10 04:00,ZGOW 100400Z AUTO 06016KT RMK IEM_DS3505
ZGOW,2001-05-10 05:00,ZGOW 100500Z AUTO 07017KT 6SM RMK IEM_DS3505
ZGOW,2001-05-10 06:00,ZGOW 100600Z AUTO 07008KT 9SM 22/19 RMK 60000 SLP114 T02150190 57007 IEM_DS3505
ZGOW,2001-05-10 07:00,ZGOW 100700Z AUTO 06012KT 6SM RMK IEM_DS3505
ZGOW,2001-05-10 08:00,ZGOW 100800Z AUTO 08008KT 6SM 22/20 A2985 RMK T02200200 IEM_DS3505
ZGOW,2001-05-10 09:00,ZGOW 100900Z AUTO 07008KT 11SM 22/18 RMK SLP106 T02230183 57008 IEM_DS3505
ZGOW,2001-05-10 10:00,ZGOW 101000Z AUTO 07010KT 6SM 22/20 A2985 RMK T02200200 IEM_DS3505
ZGOW,2001-05-10 11:00,ZGOW 101100Z AUTO 07006KT 6SM 22/20 A2985 RMK T02200200 IEM_DS3505
ZGOW,2001-05-10 12:00,ZGOW 101200Z AUTO 07004KT 10SM 22/19 A2988 RMK 60004 SLP121 T02200189 52015 IEM_DS3505
ZGOW,2001-05-10 13:00,ZGOW 101300Z AUTO 08004KT 6SM 22/20 A2991 RMK T02200200 IEM_DS3505
ZGOW,2001-05-10 14:00,ZGOW 101400Z AUTO 08004KT 6SM 22/20 A2991 RMK T02200200 IEM_DS3505
ZGOW,2001-05-10 15:00,ZGOW 101500Z AUTO 07004KT 9SM 22/18 A2991 RMK SLP131 T02200185 52010 IEM_DS3505
ZGOW,2001-05-10 16:00,ZGOW 101600Z AUTO 06008KT 22/20 A2991 RMK T02200200 IEM_DS3505
ZGOW,2001-05-10 17:00,ZGOW 101700Z AUTO 07008KT 21/19 A2988 RMK T02100190 IEM_DS3505
ZGOW,2001-05-10 18:00,ZGOW 101800Z AUTO 07004KT 9SM 21/18 A2988 RMK SLP118 T02120182 57013 IEM_DS3505
ZGOW,2001-05-10 19:00,ZGOW 101900Z AUTO 06004KT 20/18 A2988 RMK T02000180 IEM_DS3505
ZGOW,2001-05-10 20:00,ZGOW 102000Z AUTO 20/19 A2988 RMK T02000190 IEM_DS3505
ZGOW,2001-05-10 21:00,ZGOW 102100Z AUTO 00000KT 6SM 20/19 A2988 RMK 70006 SLP119 T02020188 52001 IEM_DS3505
ZGOW,2001-05-10 22:00,ZGOW 102200Z AUTO 02002KT 20/20 A2988 RMK T02000200 IEM_DS3505
ZGOW,2001-05-10 23:00,ZGOW 102300Z AUTO 04004KT 6SM 21/20 A2988 RMK T02100200 IEM_DS3505
ZGOW,2001-05-11 00:00,ZGOW 110000Z AUTO 06006KT 6SM 23/20 A2991 RMK T02300200 IEM_DS3505
ZGOW,2001-05-11 01:00,ZGOW 110100Z AUTO 04008KT 6SM 25/20 A2991 RMK T02500200 IEM_DS3505
ZGOW,2001-05-11 02:00,ZGOW 110200Z AUTO 06008KT 6SM 25/19 A2988 RMK T02500190 IEM_DS3505
ZGOW,2001-05-11 03:00,ZGOW 110300Z AUTO 07006KT 16SM 26/17 A2988 RMK SLP122 T02580168 57007 IEM_DS3505
ZGOW,2001-05-11 04:00,ZGOW 110400Z AUTO 09010KT 6SM 26/20 A2988 RMK T02600200 IEM_DS3505
ZGOW,2001-05-11 05:00,ZGOW 110500Z AUTO 09012KT 6SM 26/19 A2985 RMK T02600190 IEM_DS3505
ZGOW,2001-05-11 06:00,ZGOW 110600Z AUTO 07006KT 19SM 27/17 A2983 RMK SLP104 T02680166 57018 IEM_DS3505
ZGOW,2001-05-11 07:00,ZGOW 110700Z AUTO 12008KT 6SM 27/19 A2983 RMK T02700190 IEM_DS3505
ZGOW,2001-05-11 08:00,ZGOW 110800Z AUTO 12008KT 6SM 25/20 A2983 RMK T02500200 IEM_DS3505
ZGOW,2001-05-11 09:00,ZGOW 110900Z AUTO 07006KT 16SM 26/18 A2983 RMK SLP098 T02550178 57006 IEM_DS3505
ZGOW,2001-05-11 10:00,ZGOW 111000Z AUTO 08014KT 6SM 24/18 A2983 RMK T02400180 IEM_DS3505
ZGOW,2001-05-11 11:00,ZGOW 111100Z AUTO 08008KT 6SM 23/18 A2983 RMK T02300180 IEM_DS3505
ZGOW,2001-05-11 12:00,ZGOW 111200Z AUTO 07006KT 10SM 23/16 A2983 RMK SLP105 T02330163 52007 IEM_DS3505
ZGOW,2001-05-11 13:00,ZGOW 111300Z AUTO 08010KT 6SM 22/17 A2985 RMK T02200170 IEM_DS3505
ZGOW,2001-05-11 14:00,ZGOW 111400Z AUTO 08010KT 6SM 22/17 A2985 RMK T02200170 IEM_DS3505
ZGOW,2001-05-11 15:00,ZGOW 111500Z AUTO 09004KT 9SM 23/15 A2985 RMK SLP115 T02260153 52010 IEM_DS3505
ZGOW,2001-05-11 16:00,ZGOW 111600Z AUTO 04006KT 20/17 A2985 RMK T02000170 IEM_DS3505
ZGOW,2001-05-11 17:00,ZGOW 111700Z AUTO 05004KT 20/17 A2983 RMK T02000170 IEM_DS3505
ZGOW,2001-05-11 18:00,ZGOW 111800Z AUTO 00000KT 9SM 20/17 A2983 RMK SLP100 T02030169 57015 IEM_DS3505
ZGOW,2001-05-11 19:00,ZGOW 111900Z AUTO 31004KT 20/18 A2980 RMK T02000180 IEM_DS3505
ZGOW,2001-05-11 20:00,ZGOW 112000Z AUTO 20/18 A2980 RMK T02000180 IEM_DS3505
ZGOW,2001-05-11 21:00,ZGOW 112100Z AUTO 29002KT 6SM 20/17 A2980 RMK SLP093 T01980174 57007 IEM_DS3505
ZGOW,2001-05-11 22:00,ZGOW 112200Z AUTO 20/19 A2983 RMK T02000190 IEM_DS3505
ZGOW,2001-05-11 23:00,ZGOW 112300Z AUTO 34004KT 6SM 22/20 A2983 RMK T02200200 IEM_DS3505
ZGOW,2001-05-12 00:00,ZGOW 120000Z AUTO 07002KT 6SM 25/19 A2983 RMK SLP099 T02460188 52006 IEM_DS3505
ZGOW,2001-05-12 01:00,ZGOW 120100Z AUTO 06002KT 6SM 26/18 A2983 RMK T02600180 IEM_DS3505
ZGOW,2001-05-12 02:00,ZGOW 120200Z AUTO 07008KT 6SM 27/19 A2980 RMK T02700190 IEM_DS3505
ZGOW,2001-05-12 03:00,ZGOW 120300Z AUTO 09006KT 19SM 28/16 A2980 RMK SLP091 T02840164 57008 IEM_DS3505
ZGOW,2001-05-12 04:00,ZGOW 120400Z AUTO 09010KT 6SM 28/20 A2977 RMK T02800200 IEM_DS3505
ZGOW,2001-05-12 05:00,ZGOW 120500Z AUTO 08014KT 6SM 28/20 A2977 RMK T02800200 IEM_DS3505
ZGOW,2001-05-12 06:00,ZGOW 120600Z AUTO 11008KT 19SM 29/18 A2974 RMK SLP070 T02940181 57021 IEM_DS3505
ZGOW,2001-05-12 07:00,ZGOW 120700Z AUTO 09014KT 6SM 29/18 A2971 RMK T02900180 IEM_DS3505
ZGOW,2001-05-12 08:00,ZGOW 120800Z AUTO 09014KT 6SM 29/18 A2971 RMK T02900180 IEM_DS3505
ZGOW,2001-05-12 09:00,ZGOW 120900Z AUTO 07008KT 19SM 28/16 A2971 RMK SLP060 T02840157 57010 IEM_DS3505
ZGOW,2001-05-12 10:00,ZGOW 121000Z AUTO 09014KT 6SM 26/17 A2971 RMK T02600170 IEM_DS3505
ZGOW,2001-05-12 11:00,ZGOW 121100Z AUTO 08012KT 6SM 25/19 A2974 RMK T02500190 IEM_DS3505
ZGOW,2001-05-12 12:00,ZGOW 121200Z AUTO 07004KT 12SM 26/17 RMK SLP080 T02560168 52020 IEM_DS3505
ZGOW,2001-05-12 13:00,ZGOW 121300Z AUTO 08008KT 6SM 25/19 A2977 RMK T02500190 IEM_DS3505
ZGOW,2001-05-12 14:00,ZGOW 121400Z AUTO 08006KT 6SM 23/19 A2977 RMK T02300190 IEM_DS3505
ZGOW,2001-05-12 15:00,ZGOW 121500Z AUTO 04004KT 10SM 24/18 A2977 RMK SLP086 T02430178 52006 IEM_DS3505
ZGOW,2001-05-12 16:00,ZGOW 121600Z AUTO 32002KT 22/19 A2977 RMK T02200190 IEM_DS3505
ZGOW,2001-05-12 17:00,ZGOW 121700Z AUTO 11002KT 21/19 A2977 RMK T02100190 IEM_DS3505
ZGOW,2001-05-12 18:00,ZGOW 121800Z AUTO 29002KT 7SM 22/19 A2974 RMK SLP074 T02220189 57012 IEM_DS3505
ZGOW,2001-05-12 19:00,ZGOW 121900Z AUTO 22/20 A2974 RMK T02200200 IEM_DS3505
ZGOW,2001-05-12 20:00,ZGOW 122000Z AUTO 32004KT 22/20 A2974 RMK T02200200 IEM_DS3505
ZGOW,2001-05-12 21:00,ZGOW 122100Z AUTO 04002KT 7SM 21/19 A2974 RMK SLP069 T02140187 57005 IEM_DS3505
ZGOW,2001-05-12 22:00,ZGOW 122200Z AUTO 32002KT 6SM 21/20 A2974 RMK T02100200 IEM_DS3505
ZGOW,2001-05-12 23:00,ZGOW 122300Z AUTO 32006KT 6SM 23/20 A2974 RMK T02300200 IEM_DS3505
ZGOW,2001-05-13 00:00,ZGOW 130000Z AUTO 34002KT 10SM 26/19 A2977 RMK SLP077 T02570191 52008 IEM_DS3505
ZGOW,2001-05-13 01:00,ZGOW 130100Z AUTO 31004KT 6SM 26/19 A2977 RMK T02600190 IEM_DS3505
ZGOW,2001-05-13 02:00,ZGOW 130200Z AUTO 02002KT 6SM 29/18 A2977 RMK T02900180 IEM_DS3505
ZGOW,2001-05-13 03:00,ZGOW 130300Z AUTO 11004KT 11SM 30/15 A2974 RMK SLP070 T03010146 57007 IEM_DS3505
ZGOW,2001-05-13 04:00,ZGOW 130400Z AUTO 09004KT 6SM 30/18 A2974 RMK T03000180 IEM_DS3505
ZGOW,2001-05-13 05:00,ZGOW 130500Z AUTO 08006KT 6SM 30/19 A2971 RMK T03000190 IEM_DS3505
ZGOW,2001-05-13 06:00,ZGOW 130600Z AUTO 20006KT 16SM 30/16 A2971 RMK SLP060 T03050158 57010 IEM_DS3505
ZGOW,2001-05-13 07:00,ZGOW 130700Z AUTO 13008KT 6SM 30/20 A2968 RMK T03000200 IEM_DS3505
ZGOW,2001-05-13 08:00,ZGOW 130800Z AUTO 14006KT 6SM 30/21 A2968 RMK T03000210 IEM_DS3505
ZGOW,2001-05-13 09:00,ZGOW 130900Z AUTO 20008KT 16SM 29/19 A2968 RMK SLP051 T02930189 57009 IEM_DS3505
ZGOW,2001-05-13 10:00,ZGOW 131000Z AUTO 16006KT 6SM 28/21 A2968 RMK T02800210 IEM_DS3505
ZGOW,2001-05-13 11:00,ZGOW 131100Z AUTO 16004KT 6SM 26/21 A2971 RMK T02600210 IEM_DS3505
ZGOW,2001-05-13 12:00,ZGOW 131200Z AUTO 20006KT 11SM 26/20 A2974 RMK SLP068 T02650205 52017 IEM_DS3505
ZGOW,2001-05-13 13:00,ZGOW 131300Z AUTO 19004KT 6SM 26/21 A2974 RMK T02600210 IEM_DS3505
ZGOW,2001-05-13 14:00,ZGOW 131400Z AUTO 20004KT 6SM 25/21 A2977 RMK T02500210 IEM_DS3505
ZGOW,2001-05-13 15:00,ZGOW 131500Z AUTO 20004KT 11SM 26/19 A2977 RMK SLP086 T02580190 52018 IEM_DS3505
ZGOW,2001-05-13 16:00,ZGOW 131600Z AUTO 26/21 A2977 RMK T02600210 IEM_DS3505
ZGOW,2001-05-13 17:00,ZGOW 131700Z AUTO 25/21 A2977 RMK T02500210 IEM_DS3505
ZGOW,2001-05-13 18:00,ZGOW 131800Z AUTO 25006KT 9SM 25/20 A2974 RMK SLP078 T02470201 57008 IEM_DS3505
ZGOW,2001-05-13 19:00,ZGOW 131900Z AUTO 27002KT 24/21 A2977 RMK T02400210 IEM_DS3505
ZGOW,2001-05-13 20:00,ZGOW 132000Z AUTO 24002KT 24/21 A2977 RMK T02400210 IEM_DS3505
ZGOW,2001-05-14 00:00,ZGOW 140000Z AUTO 07002KT 6SM 26/21 A2980 RMK SLP098 T02640208 52012 IEM_DS3505
ZGOW,2001-05-14 01:00,ZGOW 140100Z AUTO 32002KT 6SM 27/22 A2983 RMK T02700220 IEM_DS3505
ZGOW,2001-05-14 02:00,ZGOW 140200Z AUTO 6SM 29/22 A2983 RMK T02900220 IEM_DS3505
ZGOW,2001-05-14 03:00,ZGOW 140300Z AUTO 25004KT 7SM 29/20 A2983 RMK SLP102 T02870201 52004 IEM_DS3505
ZGOW,2001-05-14 04:00,ZGOW 140400Z AUTO 16008KT 6SM 29/24 A2983 RMK T02900240 IEM_DS3505
ZGOW,2001-05-14 05:00,ZGOW 140500Z AUTO 15008KT 6SM 29/24 A2983 RMK T02900240 IEM_DS3505
ZGOW,2001-05-14 06:00,ZGOW 140600Z AUTO 18008KT 7SM 30/21 A2980 RMK SLP088 T02980212 57014 IEM_DS3505
ZGOW,2001-05-14 07:00,ZGOW 140700Z AUTO 13012KT 6SM 28/24 A2980 RMK T02800240 IEM_DS3505
ZGOW,2001-05-14 08:00,ZGOW 140800Z AUTO 13010KT 6SM 27/24 A2980 RMK T02700240 IEM_DS3505
ZGOW,2001-05-14 09:00,ZGOW 140900Z AUTO 16006KT 9SM 27/21 RMK SLP084 T02670208 57004 IEM_DS3505
ZGOW,2001-05-14 11:00,ZGOW 141100Z AUTO 07006KT 9SM 24/21 A2980 RMK SLP115 T02450209 54000 IEM_DS3505
ZGOW,2001-05-14 12:00,ZGOW 141200Z AUTO 07008KT 9SM 25/22 A2983 RMK SLP099 T02490215 52015 IEM_DS3505
ZGOW,2001-05-14 13:00,ZGOW 141300Z AUTO 08008KT 6SM 23/22 A2985 RMK T02300220 IEM_DS3505
ZGOW,2001-05-14 14:00,ZGOW 141400Z AUTO 08010KT 6SM 23/22 A2985 RMK T02300220 IEM_DS3505
ZGOW,2001-05-14 15:00,ZGOW 141500Z AUTO 11004KT 9SM 24/21 A2988 RMK SLP115 T02380208 52016 IEM_DS3505
ZGOW,2001-05-14 16:00,ZGOW 141600Z AUTO 09010KT 24/22 A2988 RMK T02400220 IEM_DS3505
ZGOW,2001-05-14 18:00,ZGOW 141800Z AUTO 07006KT 9SM 24/21 RMK SLP115 T02450209 54000 IEM_DS3505
ZGOW,2001-05-14 20:00,ZGOW 142000Z AUTO 09006KT 24/22 A2988 RMK T02400220 IEM_DS3505
ZGOW,2001-05-14 21:00,ZGOW 142100Z AUTO 07006KT 9SM 25/20 A2988 RMK SLP116 T02470204 52001 IEM_DS3505
ZGOW,2001-05-14 22:00,ZGOW 142200Z AUTO 08004KT 6SM 24/22 A2988 RMK T02400220 IEM_DS3505
ZGOW,2001-05-14 23:00,ZGOW 142300Z AUTO 06008KT 6SM 25/23 A2988 RMK T02500230 IEM_DS3505
ZGOW,2001-05-15 00:00,ZGOW 150000Z AUTO 07004KT 12SM 25/21 A2991 RMK SLP132 T02510212 52016 IEM_DS3505
ZGOW,2001-05-15 01:00,ZGOW 150100Z AUTO 04004KT 6SM 27/24 A2991 RMK T02700240 IEM_DS3505
ZGOW,2001-05-15 02:00,ZGOW 150200Z AUTO 08006KT 6SM 27/23 A2991 RMK T02700230 IEM_DS3505
ZGOW,2001-05-15 03:00,ZGOW 150300Z AUTO 11006KT 10SM 28/21 A2991 RMK SLP130 T02780211 57002 IEM_DS3505
ZGOW,2001-05-15 04:00,ZGOW 150400Z AUTO 14008KT 28/24 A2988 RMK T02800240 IEM_DS3505
ZGOW,2001-05-15 05:00,ZGOW 150500Z AUTO 13008KT 6SM 28/23 A2988 RMK T02800230 IEM_DS3505
ZGOW,2001-05-15 06:00,ZGOW 150600Z AUTO 11006KT 10SM 28/22 A2985 RMK SLP110 T02830216 57020 IEM_DS3505
ZGOW,2001-05-15 07:00,ZGOW 150700Z AUTO 14008KT 6SM 27/23 A2983 RMK T02700230 IEM_DS3505
ZGOW,2001-05-15 08:00,ZGOW 150800Z AUTO 13008KT 6SM 27/23 A2983 RMK T02700230 IEM_DS3505
ZGOW,2001-05-15 09:00,ZGOW 150900Z AUTO 11004KT 11SM 27/21 A2983 RMK SLP103 T02730209 57007 IEM_DS3505
ZGOW,2001-05-15 10:00,ZGOW 151000Z AUTO 13008KT 6SM 25/23 A2985 RMK T02500230 IEM_DS3505
ZGOW,2001-05-15 11:00,ZGOW 151100Z AUTO 13006KT 6SM 25/23 A2988 RMK T02500230 IEM_DS3505
ZGOW,2001-05-15 12:00,ZGOW 151200Z AUTO 20006KT 9SM 25/22 A2988 RMK SLP125 T02540217 52022 IEM_DS3505
ZGOW,2001-05-15 13:00,ZGOW 151300Z AUTO 13004KT 6SM 25/23 A2991 RMK T02500230 IEM_DS3505
ZGOW,2001-05-15 14:00,ZGOW 151400Z AUTO 6SM 25/23 A2994 RMK T02500230 IEM_DS3505
ZGOW,2001-05-15 15:00,ZGOW 151500Z AUTO 00000KT 9SM 25/22 A2991 RMK SLP136 T02500225 52011 IEM_DS3505
ZGOW,2001-05-15 16:00,ZGOW 151600Z AUTO 24/23 A2991 RMK T02400230 IEM_DS3505
ZGOW,2001-05-15 17:00,ZGOW 151700Z AUTO 24/23 A2988 RMK T02400230 IEM_DS3505
ZGOW,2001-05-15 20:00,ZGOW 152000Z AUTO 07002KT 24/24 A2988 RMK T02400240 IEM_DS3505
ZGOW,2001-05-15 21:00,ZGOW 152100Z AUTO 04002KT 8SM 25/23 RMK SLP124 T02500229 52003 IEM_DS3505
ZGOW,2001-05-15 22:00,ZGOW 152200Z AUTO 10004KT 10SM 24/24 A2991 RMK T02400240 IEM_DS3505
ZGOW,2001-05-15 23:00,ZGOW 152300Z AUTO 08004KT 6SM 24/24 A2994 RMK T02400240 IEM_DS3505
ZGOW,2001-05-16 00:00,ZGOW 160000Z AUTO 04006KT 7SM 25/23 A2994 RMK 60002 SLP141 T02510226 52017 IEM_DS3505
ZGOW,2001-05-16 01:00,ZGOW 160100Z AUTO 06006KT 25/24 A2994 RMK T02500240 IEM_DS3505
ZGOW,2001-05-16 02:00,ZGOW 160200Z AUTO 05004KT 6SM 24/24 A2997 RMK T02400240 IEM_DS3505
ZGOW,2001-05-16 03:00,ZGOW 160300Z AUTO 04004KT 5SM 25/23 A2994 RMK SLP141 T02510229 54000 IEM_DS3505
ZGOW,2001-05-16 04:00,ZGOW 160400Z AUTO 08004KT 12SM 25/24 A2994 RMK T02500240 IEM_DS3505
ZGOW,2001-05-16 05:00,ZGOW 160500Z AUTO 08006KT 6SM 25/24 A2994 RMK T02500240 IEM_DS3505
ZGOW,2001-05-16 06:00,ZGOW 160600Z AUTO 11006KT 5SM 25/21 A2991 RMK 60016 SLP126 T02530214 57015 IEM_DS3505
ZGOW,2001-05-16 07:00,ZGOW 160700Z AUTO 24/23 A2991 RMK T02400230 IEM_DS3505
ZGOW,2001-05-16 08:00,ZGOW 160800Z AUTO 18004KT 7SM RMK IEM_DS3505
ZGOW,2001-05-16 09:00,ZGOW 160900Z AUTO 00000KT 6SM 24/22 RMK SLP120 T02440217 57006 IEM_DS3505
ZGOW,2001-05-16 10:00,ZGOW 161000Z AUTO 13002KT 6SM 24/23 A2988 RMK T02400230 IEM_DS3505
ZGOW,2001-05-16 11:00,ZGOW 161100Z AUTO 6SM 24/23 A2991 RMK T02400230 IEM_DS3505
ZGOW,2001-05-16 12:00,ZGOW 161200Z AUTO 00000KT 6SM 24/22 A2991 RMK 60016 SLP131 T02390224 52011 IEM_DS3505
ZGOW,2001-05-16 13:00,ZGOW 161300Z AUTO 36002KT 6SM 23/22 A2994 RMK T02300220 IEM_DS3505
ZGOW,2001-05-16 14:00,ZGOW 161400Z AUTO 34004KT 6SM 23/22 A2997 RMK T02300220 IEM_DS3505
ZGOW,2001-05-16 15:00,ZGOW 161500Z AUTO 07004KT 6SM 23/21 A2994 RMK SLP142 T02330212 52011 IEM_DS3505
ZGOW,2001-05-16 16:00,ZGOW 161600Z AUTO 04004KT 22/21 A2994 RMK T02200210 IEM_DS3505
ZGOW,2001-05-16 17:00,ZGOW 161700Z AUTO 02002KT 22/21 A2991 RMK T02200210 IEM_DS3505
ZGOW,2001-05-16 18:00,ZGOW 161800Z AUTO 04002KT 6SM 22/20 A2991 RMK 60003 SLP128 T02200203 57014 IEM_DS3505
ZGOW,2001-05-16 19:00,ZGOW 161900Z AUTO 05004KT 21/21 A2988 RMK T02100210 IEM_DS3505
ZGOW,2001-05-16 20:00,ZGOW 162000Z AUTO 01004KT 22/20 A2988 RMK T02200200 IEM_DS3505
ZGOW,2001-05-16 21:00,ZGOW 162100Z AUTO 00000KT 6SM 22/20 A2988 RMK 70035 SLP121 T02160201 57007 IEM_DS3505
ZGOW,2001-05-16 22:00,ZGOW 162200Z AUTO 35002KT 6SM 22/21 A2988 RMK T02200210 IEM_DS3505
ZGOW,2001-05-16 23:00,ZGOW 162300Z AUTO 36002KT 6SM 23/21 A2991 RMK T02300210 IEM_DS3505
ZGOW,2001-05-17 00:00,ZGOW 170000Z AUTO 07004KT 7SM 25/20 A2991 RMK 70033 SLP132 T02460200 52011 IEM_DS3505
ZGOW,2001-05-17 01:00,ZGOW 170100Z AUTO 06004KT 6SM 25/21 A2991 RMK T02500210 IEM_DS3505
ZGOW,2001-05-17 02:00,ZGOW 170200Z AUTO 04002KT 6SM 26/21 A2991 RMK T02600210 IEM_DS3505
ZGOW,2001-05-17 03:00,ZGOW 170300Z AUTO 34002KT 7SM 27/20 A2991 RMK SLP133 T02720202 52001 IEM_DS3505
ZGOW,2001-05-17 04:00,ZGOW 170400Z AUTO 14004KT 6SM 28/22 A2991 RMK T02800220 IEM_DS3505
ZGOW,2001-05-17 05:00,ZGOW 170500Z AUTO 16006KT 6SM 27/22 A2988 RMK T02700220 IEM_DS3505
ZGOW,2001-05-17 06:00,ZGOW 170600Z AUTO 18004KT 7SM 28/21 A2985 RMK SLP105 T02770210 57028 IEM_DS3505
ZGOW,2001-05-17 07:00,ZGOW 170700Z AUTO 12006KT 6SM 27/22 A2983 RMK T02700220 IEM_DS3505
ZGOW,2001-05-17 08:00,ZGOW 170800Z AUTO 13006KT 6SM 26/23 A2983 RMK T02600230 IEM_DS3505
ZGOW,2001-05-17 09:00,ZGOW 170900Z AUTO 16002KT 8SM 27/20 A2983 RMK SLP096 T02680205 57009 IEM_DS3505
ZGOW,2001-05-17 10:00,ZGOW 171000Z AUTO 12004KT 6SM 26/22 A2983 RMK T02600220 IEM_DS3505
ZGOW,2001-05-17 11:00,ZGOW 171100Z AUTO 13002KT 6SM 25/22 A2985 RMK T02500220 IEM_DS3505
ZGOW,2001-05-17 12:00,ZGOW 171200Z AUTO 11004KT 7SM 26/21 A2985 RMK SLP113 T02590211 52017 IEM_DS3505
ZGOW,2001-05-17 13:00,ZGOW 171300Z AUTO 10004KT 6SM RMK IEM_DS3505
ZGOW,2001-05-17 14:00,ZGOW 171400Z AUTO 09002KT 6SM 24/23 A2988 RMK T02400230 IEM_DS3505
ZGOW,2001-05-17 15:00,ZGOW 171500Z AUTO 07004KT 5SM 25/23 A2985 RMK SLP114 T02530228 52001 IEM_DS3505
ZGOW,2001-05-17 16:00,ZGOW 171600Z AUTO 10002KT 6SM 24/24 A2985 RMK T02400240 IEM_DS3505
ZGOW,2001-05-17 17:00,ZGOW 171700Z AUTO 11004KT 37SM 24/24 A2983 RMK T02400240 IEM_DS3505
ZGOW,2001-05-17 18:00,ZGOW 171800Z AUTO 08004KT 6SM 24/24 A2980 RMK T02400240 IEM_DS3505
ZGOW,2001-05-17 21:00,ZGOW 172100Z AUTO 16004KT 2SM 25/24 A2977 RMK 70006 SLP079 T02500243 57015 IEM_DS3505
ZGOW,2001-05-17 22:00,ZGOW 172200Z AUTO 12006KT 25/25 A2977 RMK T02500250 IEM_DS3505
ZGOW,2001-05-18 00:00,ZGOW 180000Z AUTO 16004KT 2 1/2SM 26/25 A2980 RMK 60024 SLP089 T02600249 52010 IEM_DS3505
ZGOW,2001-05-18 01:00,ZGOW 180100Z AUTO 13006KT 6SM 25/25 A2980 RMK T02500250 IEM_DS3505
ZGOW,2001-05-18 02:00,ZGOW 180200Z AUTO 15004KT 6SM 26/26 A2980 RMK T02600260 IEM_DS3505
ZGOW,2001-05-18 03:00,ZGOW 180300Z AUTO 20002KT 3SM 26/25 RMK SLP088 T02560247 57001 IEM_DS3505
ZGOW,2001-05-18 04:00,ZGOW 180400Z AUTO 10002KT 6SM 26/26 A2977 RMK T02600260 IEM_DS3505
ZGOW,2001-05-18 05:00,ZGOW 180500Z AUTO 11002KT 26/26 A2974 RMK T02600260 IEM_DS3505
ZGOW,2001-05-18 06:00,ZGOW 180600Z AUTO 18006KT 3SM 26/25 A2971 RMK 60059 SLP064 T02610254 57024 IEM_DS3505
ZGOW,2001-05-18 07:00,ZGOW 180700Z AUTO 23004KT 6SM 25/25 A2971 RMK T02500250 IEM_DS3505
ZGOW,2001-05-18 08:00,ZGOW 180800Z AUTO 35004KT 9SM 25/25 A2971 RMK T02500250 IEM_DS3505
ZGOW,2001-05-18 09:00,ZGOW 180900Z AUTO 20010KT 1 1/4SM 24/23 A2971 RMK SLP061 T02440231 57003 IEM_DS3505
ZGOW,2001-05-18 10:00,ZGOW 181000Z AUTO 6SM 24/24 A2971 RMK T02400240 IEM_DS3505
ZGOW,2001-05-18 11:00,ZGOW 181100Z AUTO 12002KT 8SM 24/24 A2971 RMK T02400240 IEM_DS3505
ZGOW,2001-05-18 12:00,ZGOW 181200Z AUTO 18004KT 7SM 24/24 A2974 RMK 60299 SLP068 T02440238 52007 IEM_DS3505
ZGOW,2001-05-18 13:00,ZGOW 181300Z AUTO 13002KT 24/24 A2974 RMK T02400240 IEM_DS3505
ZGOW,2001-05-18 14:00,ZGOW 181400Z AUTO 14004KT RMK IEM_DS3505
ZGOW,2001-05-18 15:00,ZGOW 181500Z AUTO 16004KT 9SM 25/24 RMK SLP071 T02460240 52003 IEM_DS3505
ZGOW,2001-05-18 18:00,ZGOW 181800Z AUTO 25004KT 7SM 25/24 RMK 60008 SLP057 T02470244 57014 IEM_DS3505
ZGOW,2001-05-18 21:00,ZGOW 182100Z AUTO 00000KT 6SM 24/24 A2968 RMK 70417 SLP049 T02450242 57008 IEM_DS3505
ZGOW,2001-05-18 22:00,ZGOW 182200Z AUTO 6SM 25/25 A2968 RMK T02500250 IEM_DS3505
ZGOW,2001-05-18 23:00,ZGOW 182300Z AUTO 6SM 25/25 A2968 RMK T02500250 IEM_DS3505
ZGOW,2001-05-19 00:00,ZGOW 190000Z AUTO 00000KT 7SM 26/24 A2971 RMK 60035 SLP062 T02600243 52013 IEM_DS3505
ZGOW,2001-05-19 01:00,ZGOW 190100Z AUTO 6SM RMK IEM_DS3505
ZGOW,2001-05-19 02:00,ZGOW 190200Z AUTO 21004KT RMK IEM_DS3505
ZGOW,2001-05-19 03:00,ZGOW 190300Z AUTO 16006KT 14SM 28/25 RMK SLP059 T02810253 57002 IEM_DS3505
ZGOW,2001-05-19 04:00,ZGOW 190400Z AUTO 21004KT 6SM RMK IEM_DS3505
ZGOW,2001-05-19 05:00,ZGOW 190500Z AUTO 19002KT 6SM 26/26 A2965 RMK T02600260 IEM_DS3505
ZGOW,2001-05-19 06:00,ZGOW 190600Z AUTO 18006KT 11SM 27/25 A2965 RMK 60055 SLP039 T02660253 57020 IEM_DS3505
ZGOW,2001-05-19 07:00,ZGOW 190700Z AUTO 18008KT 7SM 26/26 A2962 RMK T02600260 IEM_DS3505
ZGOW,2001-05-19 08:00,ZGOW 190800Z AUTO 21006KT 6SM 27/26 A2962 RMK T02700260 IEM_DS3505
ZGOW,2001-05-19 09:00,ZGOW 190900Z AUTO 18004KT 9SM 26/25 A2959 RMK SLP022 T02650254 57017 IEM_DS3505
ZGOW,2001-05-19 10:00,ZGOW 191000Z AUTO 18006KT 6SM RMK IEM_DS3505
ZGOW,2001-05-19 11:00,ZGOW 191100Z AUTO 17004KT RMK IEM_DS3505
ZGOW,2001-05-19 12:00,ZGOW 191200Z AUTO 20004KT 9SM 26/25 RMK 60002 SLP035 T02600250 52013 IEM_DS3505
ZGOW,2001-05-19 13:00,ZGOW 191300Z AUTO 13002KT 6SM RMK IEM_DS3505
ZGOW,2001-05-19 14:00,ZGOW 191400Z AUTO 6SM 26/26 A2965 RMK T02600260 IEM_DS3505
ZGOW,2001-05-19 15:00,ZGOW 191500Z AUTO 27002KT 7SM 26/25 A2965 RMK SLP045 T02570250 52010 IEM_DS3505
ZGOW,2001-05-19 16:00,ZGOW 191600Z AUTO 25/25 A2965 RMK T02500250 IEM_DS3505
ZGOW,2001-05-19 17:00,ZGOW 191700Z AUTO 25/25 A2965 RMK T02500250 IEM_DS3505
ZGOW,2001-05-19 18:00,ZGOW 191800Z AUTO 22004KT 6SM 26/25 A2962 RMK SLP034 T02560249 57011 IEM_DS3505
ZGOW,2001-05-19 19:00,ZGOW 191900Z AUTO 25/25 A2962 RMK T02500250 IEM_DS3505
ZGOW,2001-05-19 20:00,ZGOW 192000Z AUTO 23002KT 25/25 A2962 RMK T02500250 IEM_DS3505
ZGOW,2001-05-19 21:00,ZGOW 192100Z AUTO 00000KT 4SM 26/25 A2962 RMK 70057 SLP036 T02550249 52002 IEM_DS3505
ZGOW,2001-05-19 22:00,ZGOW 192200Z AUTO 6SM 25/25 A2965 RMK T02500250 IEM_DS3505
ZGOW,2001-05-19 23:00,ZGOW 192300Z AUTO 6SM 26/26 A2965 RMK T02600260 IEM_DS3505
ZGOW,2001-05-20 00:00,ZGOW 200000Z AUTO 00000KT 4SM 26/25 A2965 RMK 70057 SLP048 T02650252 52012 IEM_DS3505
ZGOW,2001-05-20 02:00,ZGOW 200200Z AUTO 11004KT 27/26 A2968 RMK T02700260 IEM_DS3505
ZGOW,2001-05-20 03:00,ZGOW 200300Z AUTO 16004KT 6SM 29/26 A2968 RMK SLP046 T02880259 57002 IEM_DS3505
ZGOW,2001-05-20 04:00,ZGOW 200400Z AUTO 13006KT 6SM 29/27 A2965 RMK T02900270 IEM_DS3505
ZGOW,2001-05-20 05:00,ZGOW 200500Z AUTO 13008KT 29/27 A2965 RMK T02900270 IEM_DS3505
ZGOW,2001-05-20 06:00,ZGOW 200600Z AUTO 18006KT 11SM 30/25 A2962 RMK SLP029 T02960254 57017 IEM_DS3505
ZGOW,2001-05-20 07:00,ZGOW 200700Z AUTO 15008KT 6SM 28/27 RMK T02800270 IEM_DS3505
ZGOW,2001-05-20 08:00,ZGOW 200800Z AUTO 15008KT 6SM 27/27 A2959 RMK T02700270 IEM_DS3505
ZGOW,2001-05-20 09:00,ZGOW 200900Z AUTO 20006KT 6SM 29/26 A2959 RMK SLP016 T02870261 57013 IEM_DS3505
ZGOW,2001-05-20 10:00,ZGOW 201000Z AUTO 17006KT 8SM 28/27 A2959 RMK T02800270 IEM_DS3505
ZGOW,2001-05-20 11:00,ZGOW 201100Z AUTO 18004KT 28/27 A2959 RMK T02800270 IEM_DS3505
ZGOW,2001-05-20 12:00,ZGOW 201200Z AUTO 18004KT 6SM 28/26 A2962 RMK SLP028 T02750255 52012 IEM_DS3505
ZGOW,2001-05-20 13:00,ZGOW 201300Z AUTO 18002KT 6SM 27/26 A2965 RMK T02700260 IEM_DS3505
ZGOW,2001-05-20 14:00,ZGOW 201400Z AUTO 16004KT 6SM 27/26 A2965 RMK T02700260 IEM_DS3505
ZGOW,2001-05-20 15:00,ZGOW 201500Z AUTO 18004KT 5SM 27/25 A2965 RMK SLP043 T02690251 52015 IEM_DS3505
ZGOW,2001-05-20 16:00,ZGOW 201600Z AUTO 19002KT 26/26 A2965 RMK T02600260 IEM_DS3505
ZGOW,2001-05-20 17:00,ZGOW 201700Z AUTO 18004KT 26/26 A2962 RMK T02600260 IEM_DS3505
ZGOW,2001-05-20 18:00,ZGOW 201800Z AUTO 22002KT 4SM 27/25 A2962 RMK SLP035 T02660249 57008 IEM_DS3505
ZGOW,2001-05-20 19:00,ZGOW 201900Z AUTO 23004KT 26/26 A2962 RMK T02600260 IEM_DS3505
ZGOW,2001-05-20 20:00,ZGOW 202000Z AUTO 21004KT 26/25 A2962 RMK T02600250 IEM_DS3505
ZGOW,2001-05-20 21:00,ZGOW 202100Z AUTO 22006KT 5SM 26/24 A2962 RMK SLP032 T02650244 57003 IEM_DS3505
ZGOW,2001-05-20 22:00,ZGOW 202200Z AUTO 19002KT 16SM 26/25 A2962 RMK T02600250 IEM_DS3505
ZGOW,2001-05-20 23:00,ZGOW 202300Z AUTO 23002KT 6SM 27/25 A2962 RMK T02700250 IEM_DS3505
ZGOW,2001-05-21 00:00,ZGOW 210000Z AUTO 22004KT 7SM 28/24 A2962 RMK SLP035 T02780239 52003 IEM_DS3505
ZGOW,2001-05-21 01:00,ZGOW 210100Z AUTO 6SM 28/26 A2965 RMK T02800260 IEM_DS3505
ZGOW,2001-05-21 02:00,ZGOW 210200Z AUTO 31002KT RMK IEM_DS3505
ZGOW,2001-05-21 03:00,ZGOW 210300Z AUTO 27004KT 7SM 29/24 A2965 RMK SLP043 T02930245 52008 IEM_DS3505
ZGOW,2001-05-21 04:00,ZGOW 210400Z AUTO 31002KT 29/26 A2965 RMK T02900260 IEM_DS3505
ZGOW,2001-05-21 05:00,ZGOW 210500Z AUTO 4SM RMK IEM_DS3505
ZGOW,2001-05-21 06:00,ZGOW 210600Z AUTO 27006KT 6SM 29/25 A2962 RMK 60003 SLP030 T02900248 57013 IEM_DS3505
ZGOW,2001-05-21 07:00,ZGOW 210700Z AUTO 15002KT 6SM 25/25 A2962 RMK T02500250 IEM_DS3505
ZGOW,2001-05-21 08:00,ZGOW 210800Z AUTO 27002KT 26/25 A2959 RMK T02600250 IEM_DS3505
ZGOW,2001-05-21 09:00,ZGOW 210900Z AUTO 22004KT 6SM 26/24 A2959 RMK SLP018 T02650245 57012 IEM_DS3505
ZGOW,2001-05-21 10:00,ZGOW 211000Z AUTO 22004KT 6SM 26/26 A2959 RMK T02600260 IEM_DS3505
ZGOW,2001-05-21 11:00,ZGOW 211100Z AUTO 22002KT 26/25 A2959 RMK T02600250 IEM_DS3505
ZGOW,2001-05-21 12:00,ZGOW 211200Z AUTO 00000KT 6SM 25/24 A2959 RMK 60075 SLP025 T02540243 52007 IEM_DS3505
ZGOW,2001-05-21 13:00,ZGOW 211300Z AUTO 6SM 25/25 A2962 RMK T02500250 IEM_DS3505
ZGOW,2001-05-21 14:00,ZGOW 211400Z AUTO 6SM 25/25 A2965 RMK T02500250 IEM_DS3505
ZGOW,2001-05-21 15:00,ZGOW 211500Z AUTO 04004KT 5SM 26/25 A2962 RMK SLP034 T02560249 52009 IEM_DS3505
ZGOW,2001-05-21 16:00,ZGOW 211600Z AUTO 02002KT 25/25 A2959 RMK T02500250 IEM_DS3505
ZGOW,2001-05-21 17:00,ZGOW 211700Z AUTO 29004KT 25/25 A2959 RMK T02500250 IEM_DS3505
ZGOW,2001-05-21 18:00,ZGOW 211800Z AUTO 27004KT 4SM 25/24 A2959 RMK 60016 SLP022 T02510242 57012 IEM_DS3505
ZGOW,2001-05-21 19:00,ZGOW 211900Z AUTO 26002KT 25/25 A2959 RMK T02500250 IEM_DS3505
ZGOW,2001-05-21 20:00,ZGOW 212000Z AUTO 25/25 A2959 RMK T02500250 IEM_DS3505
ZGOW,2001-05-21 21:00,ZGOW 212100Z AUTO 27004KT 5SM 25/24 RMK 70091 SLP021 T02490240 57001 IEM_DS3505
ZGOW,2001-05-21 23:00,ZGOW 212300Z AUTO 10SM 25/25 A2962 RMK T02500250 IEM_DS3505
ZGOW,2001-05-22 00:00,ZGOW 220000Z AUTO 32002KT 5SM 25/24 RMK 60051 SLP036 T02460242 52015 IEM_DS3505
ZGOW,2001-05-22 01:00,ZGOW 220100Z AUTO 28002KT 12SM 24/24 A2965 RMK T02400240 IEM_DS3505
ZGOW,2001-05-22 02:00,ZGOW 220200Z AUTO 6SM 24/24 A2965 RMK T02400240 IEM_DS3505
ZGOW,2001-05-22 03:00,ZGOW 220300Z AUTO 29004KT 6SM 26/24 RMK SLP041 T02550239 52005 IEM_DS3505
ZGOW,2001-05-22 04:00,ZGOW 220400Z AUTO 26004KT 6SM 24/24 A2962 RMK T02400240 IEM_DS3505
ZGOW,2001-05-22 06:00,ZGOW 220600Z AUTO 27008KT 11SM 27/24 RMK 60075 SLP026 T02720240 57015 IEM_DS3505
ZGOW,2001-05-22 08:00,ZGOW 220800Z AUTO 6SM RMK IEM_DS3505
ZGOW,2001-05-22 09:00,ZGOW 220900Z AUTO 27004KT 14SM 29/24 RMK SLP011 T02880241 57015 IEM_DS3505
ZGOW,2001-05-22 10:00,ZGOW 221000Z AUTO 12006KT 12SM 28/26 A2959 RMK T02800260 IEM_DS3505
ZGOW,2001-05-22 11:00,ZGOW 221100Z AUTO 17006KT 26/26 A2962 RMK T02600260 IEM_DS3505
ZGOW,2001-05-22 12:00,ZGOW 221200Z AUTO 14002KT 11SM 26/25 A2965 RMK 60003 SLP037 T02630249 52026 IEM_DS3505
ZGOW,2001-05-22 13:00,ZGOW 221300Z AUTO 06008KT 6SM RMK IEM_DS3505
ZGOW,2001-05-22 14:00,ZGOW 221400Z AUTO 07006KT 6SM 25/24 A2968 RMK T02500240 IEM_DS3505
ZGOW,2001-05-22 15:00,ZGOW 221500Z AUTO 09004KT 9SM 25/23 A2968 RMK SLP054 T02520230 52017 IEM_DS3505
ZGOW,2001-05-22 16:00,ZGOW 221600Z AUTO 08006KT 24/23 A2968 RMK T02400230 IEM_DS3505
ZGOW,2001-05-22 17:00,ZGOW 221700Z AUTO 08010KT 24/23 A2968 RMK T02400230 IEM_DS3505
ZGOW,2001-05-22 18:00,ZGOW 221800Z AUTO 04006KT 7SM 24/22 A2968 RMK SLP051 T02430215 57003 IEM_DS3505
ZGOW,2001-05-22 19:00,ZGOW 221900Z AUTO 06008KT 24/22 A2968 RMK T02400220 IEM_DS3505
ZGOW,2001-05-22 20:00,ZGOW 222000Z AUTO 06008KT 24/22 A2968 RMK T02400220 IEM_DS3505
ZGOW,2001-05-22 21:00,ZGOW 222100Z AUTO 07004KT 8SM 24/21 A2968 RMK 70125 SLP047 T02400211 57004 IEM_DS3505
ZGOW,2001-05-22 22:00,ZGOW 222200Z AUTO 06006KT RMK IEM_DS3505
ZGOW,2001-05-22 23:00,ZGOW 222300Z AUTO 07006KT 6SM 24/23 A2968 RMK T02400230 IEM_DS3505
ZGOW,2001-05-23 00:00,ZGOW 230000Z AUTO 04006KT 9SM 26/21 A2971 RMK 70073 SLP057 T02570212 52010 IEM_DS3505
ZGOW,2001-05-23 01:00,ZGOW 230100Z AUTO 09004KT 27/23 A2971 RMK T02700230 IEM_DS3505
ZGOW,2001-05-23 02:00,ZGOW 230200Z AUTO 09006KT 6SM 27/22 A2971 RMK T02700220 IEM_DS3505
ZGOW,2001-05-23 03:00,ZGOW 230300Z AUTO 14006KT 10SM 28/21 A2971 RMK SLP058 T02750208 52001 IEM_DS3505
ZGOW,2001-05-23 04:00,ZGOW 230400Z AUTO 13008KT 6SM 28/24 A2968 RMK T02800240 IEM_DS3505
ZGOW,2001-05-23 05:00,ZGOW 230500Z AUTO 12008KT 6SM 28/24 A2968 RMK T02800240 IEM_DS3505
ZGOW,2001-05-23 06:00,ZGOW 230600Z AUTO 18004KT 12SM 28/22 A2965 RMK SLP036 T02810218 57022 IEM_DS3505
ZGOW,2001-05-23 07:00,ZGOW 230700Z AUTO 13006KT 6SM 28/23 A2962 RMK T02800230 IEM_DS3505
ZGOW,2001-05-23 08:00,ZGOW 230800Z AUTO 14008KT 6SM 27/23 A2962 RMK T02700230 IEM_DS3505
ZGOW,2001-05-23 09:00,ZGOW 230900Z AUTO 14006KT 12SM 28/21 A2962 RMK SLP028 T02760214 57008 IEM_DS3505
ZGOW,2001-05-23 10:00,ZGOW 231000Z AUTO 16006KT 6SM 26/22 A2962 RMK T02600220 IEM_DS3505
ZGOW,2001-05-23 12:00,ZGOW 231200Z AUTO 16004KT 8SM 25/22 RMK SLP045 T02510218 52017 IEM_DS3505
ZGOW,2001-05-23 13:00,ZGOW 231300Z AUTO 17004KT RMK IEM_DS3505
ZGOW,2001-05-23 15:00,ZGOW 231500Z AUTO 25002KT 7SM 24/23 RMK SLP059 T02420229 52014 IEM_DS3505
ZGOW,2001-05-23 18:00,ZGOW 231800Z AUTO 00000KT 5SM 24/23 RMK SLP048 T02390229 57011 IEM_DS3505
ZGOW,2001-05-23 21:00,ZGOW 232100Z AUTO 04004KT 4SM 23/22 RMK SLP050 T02280222 52002 IEM_DS3505
ZGOW,2001-05-24 00:00,ZGOW 240000Z AUTO 07002KT 2 1/2SM 26/22 RMK SLP059 T02560225 52009 IEM_DS3505
ZGOW,2001-05-24 03:00,ZGOW 240300Z AUTO 16004KT 7SM 28/23 RMK SLP066 T02760229 52007 IEM_DS3505
ZGOW,2001-05-24 04:00,ZGOW 240400Z AUTO 10006KT RMK IEM_DS3505
ZGOW,2001-05-24 05:00,ZGOW 240500Z AUTO 13006KT 28/25 A2968 RMK T02800250 IEM_DS3505
ZGOW,2001-05-24 06:00,ZGOW 240600Z AUTO 16006KT 9SM 29/23 A2968 RMK SLP047 T02900232 57019 IEM_DS3505
ZGOW,2001-05-24 07:00,ZGOW 240700Z AUTO 14006KT 6SM 29/24 A2965 RMK T02900240 IEM_DS3505
ZGOW,2001-05-24 08:00,ZGOW 240800Z AUTO 14008KT 6SM 28/23 A2962 RMK T02800230 IEM_DS3505
ZGOW,2001-05-24 09:00,ZGOW 240900Z AUTO 16006KT 11SM 28/19 A2962 RMK SLP037 T02850194 57010 IEM_DS3505
ZGOW,2001-05-24 10:00,ZGOW 241000Z AUTO 14006KT 6SM 26/24 A2965 RMK T02600240 IEM_DS3505
ZGOW,2001-05-24 11:00,ZGOW 241100Z AUTO 14004KT 6SM 25/24 A2968 RMK T02500240 IEM_DS3505
ZGOW,2001-05-24 12:00,ZGOW 241200Z AUTO 20004KT 10SM 26/22 A2971 RMK SLP055 T02600225 52018 IEM_DS3505
ZGOW,2001-05-24 13:00,ZGOW 241300Z AUTO 6SM 25/24 A2971 RMK T02500240 IEM_DS3505
ZGOW,2001-05-24 14:00,ZGOW 241400Z AUTO 09002KT 6SM 24/24 A2971 RMK T02400240 IEM_DS3505
ZGOW,2001-05-24 15:00,ZGOW 241500Z AUTO 16004KT 10SM 25/23 A2974 RMK SLP067 T02520230 52012 IEM_DS3505
ZGOW,2001-05-24 16:00,ZGOW 241600Z AUTO 08002KT 24/24 A2971 RMK T02400240 IEM_DS3505
ZGOW,2001-05-24 17:00,ZGOW 241700Z AUTO 24/24 A2971 RMK T02400240 IEM_DS3505
ZGOW,2001-05-24 18:00,ZGOW 241800Z AUTO 00000KT 7SM 25/24 A2971 RMK SLP056 T02490237 57011 IEM_DS3505
ZGOW,2001-05-24 19:00,ZGOW 241900Z AUTO 06004KT 24/24 A2968 RMK T02400240 IEM_DS3505
ZGOW,2001-05-24 20:00,ZGOW 242000Z AUTO 24/24 A2971 RMK T02400240 IEM_DS3505
ZGOW,2001-05-24 21:00,ZGOW 242100Z AUTO 07004KT 4SM 24/23 A2971 RMK SLP060 T02430230 52004 IEM_DS3505
ZGOW,2001-05-24 22:00,ZGOW 242200Z AUTO 33002KT 6SM 24/24 A2971 RMK T02400240 IEM_DS3505
ZGOW,2001-05-24 23:00,ZGOW 242300Z AUTO 6SM 24/24 A2974 RMK T02400240 IEM_DS3505
ZGOW,2001-05-25 00:00,ZGOW 250000Z AUTO 04004KT 4SM 26/23 A2974 RMK SLP076 T02600229 52016 IEM_DS3505
ZGOW,2001-05-25 01:00,ZGOW 250100Z AUTO 05004KT 9SM RMK IEM_DS3505
ZGOW,2001-05-25 02:00,ZGOW 250200Z AUTO 07006KT 6SM RMK IEM_DS3505
ZGOW,2001-05-25 03:00,ZGOW 250300Z AUTO 20004KT 6SM 28/22 RMK SLP078 T02840224 52002 IEM_DS3505
ZGOW,2001-05-25 04:00,ZGOW 250400Z AUTO 08004KT 28/25 A2977 RMK T02800250 IEM_DS3505
ZGOW,2001-05-25 05:00,ZGOW 250500Z AUTO 14006KT 30/25 A2974 RMK T03000250 IEM_DS3505
ZGOW,2001-05-25 06:00,ZGOW 250600Z AUTO 16004KT 9SM 30/23 A2974 RMK SLP067 T02990226 57011 IEM_DS3505
ZGOW,2001-05-25 07:00,ZGOW 250700Z AUTO 13008KT 29/25 A2971 RMK T02900250 IEM_DS3505
ZGOW,2001-05-25 08:00,ZGOW 250800Z AUTO 12006KT 6SM 29/25 A2971 RMK T02900250 IEM_DS3505
ZGOW,2001-05-25 09:00,ZGOW 250900Z AUTO 18004KT 9SM 29/23 A2971 RMK SLP056 T02860229 57011 IEM_DS3505
ZGOW,2001-05-25 10:00,ZGOW 251000Z AUTO 12006KT 6SM 27/25 A2971 RMK T02700250 IEM_DS3505
ZGOW,2001-05-25 11:00,ZGOW 251100Z AUTO 13004KT 7SM 26/25 A2974 RMK T02600250 IEM_DS3505
ZGOW,2001-05-25 12:00,ZGOW 251200Z AUTO 16004KT 7SM 26/23 A2977 RMK SLP077 T02620234 52021 IEM_DS3505
ZGOW,2001-05-25 13:00,ZGOW 251300Z AUTO 13002KT 6SM 25/24 A2977 RMK T02500240 IEM_DS3505
ZGOW,2001-05-25 14:00,ZGOW 251400Z AUTO 6SM 25/24 A2980 RMK T02500240 IEM_DS3505
ZGOW,2001-05-25 15:00,ZGOW 251500Z AUTO 18004KT 6SM 25/23 RMK SLP093 T02540234 52016 IEM_DS3505
ZGOW,2001-05-25 17:00,ZGOW 251700Z AUTO 24/24 A2980 RMK T02400240 IEM_DS3505
ZGOW,2001-05-25 18:00,ZGOW 251800Z AUTO 04002KT 6SM 25/24 A2977 RMK SLP085 T02530237 57008 IEM_DS3505
ZGOW,2001-05-25 19:00,ZGOW 251900Z AUTO 07004KT 25/24 A2977 RMK T02500240 IEM_DS3505
ZGOW,2001-05-25 20:00,ZGOW 252000Z AUTO 06004KT 24/23 A2977 RMK T02400230 IEM_DS3505
ZGOW,2001-05-25 21:00,ZGOW 252100Z AUTO 02004KT 5SM 25/24 A2977 RMK SLP084 T02480235 57001 IEM_DS3505
ZGOW,2001-05-25 22:00,ZGOW 252200Z AUTO 02002KT 24/24 A2980 RMK T02400240 IEM_DS3505
ZGOW,2001-05-25 23:00,ZGOW 252300Z AUTO 05004KT 6SM 25/25 A2980 RMK T02500250 IEM_DS3505
ZGOW,2001-05-26 00:00,ZGOW 260000Z AUTO 02002KT 4SM 26/23 A2980 RMK SLP091 T02620233 52007 IEM_DS3505
ZGOW,2001-05-26 01:00,ZGOW 260100Z AUTO 05004KT 28/24 A2980 RMK T02800240 IEM_DS3505
ZGOW,2001-05-26 02:00,ZGOW 260200Z AUTO 35004KT 6SM RMK IEM_DS3505
ZGOW,2001-05-26 03:00,ZGOW 260300Z AUTO 04004KT 6SM 29/22 RMK SLP091 T02880224 54000 IEM_DS3505
ZGOW,2001-05-26 04:00,ZGOW 260400Z AUTO 09004KT RMK IEM_DS3505
ZGOW,2001-05-26 05:00,ZGOW 260500Z AUTO 12008KT RMK IEM_DS3505
ZGOW,2001-05-26 06:00,ZGOW 260600Z AUTO 16006KT 9SM 30/24 RMK SLP084 T03040244 57007 IEM_DS3505
ZGOW,2001-05-26 07:00,ZGOW 260700Z AUTO 11008KT RMK IEM_DS3505
ZGOW,2001-05-26 08:00,ZGOW 260800Z AUTO 12006KT 28/25 A2974 RMK T02800250 IEM_DS3505
ZGOW,2001-05-26 09:00,ZGOW 260900Z AUTO 18004KT 7SM 28/23 A2974 RMK SLP075 T02840232 57009 IEM_DS3505
ZGOW,2001-05-26 10:00,ZGOW 261000Z AUTO 14008KT RMK IEM_DS3505
ZGOW,2001-05-26 11:00,ZGOW 261100Z AUTO 12006KT 6SM 26/25 A2977 RMK T02600250 IEM_DS3505
ZGOW,2001-05-26 12:00,ZGOW 261200Z AUTO 09004KT 7SM 27/24 A2980 RMK SLP085 T02670235 52010 IEM_DS3505
ZGOW,2001-05-26 13:00,ZGOW 261300Z AUTO 6SM 25/25 A2983 RMK T02500250 IEM_DS3505
ZGOW,2001-05-26 14:00,ZGOW 261400Z AUTO 13004KT 6SM 26/25 A2983 RMK T02600250 IEM_DS3505
ZGOW,2001-05-26 15:00,ZGOW 261500Z AUTO 07002KT 6SM 26/24 RMK SLP102 T02630238 52017 IEM_DS3505
ZGOW,2001-05-26 18:00,ZGOW 261800Z AUTO 04004KT 6SM 25/24 RMK SLP093 T02540240 57009 IEM_DS3505
ZGOW,2001-05-26 21:00,ZGOW 262100Z AUTO 04004KT 5SM 24/23 RMK SLP085 T02430233 57008 IEM_DS3505
ZGOW,2001-05-26 22:00,ZGOW 262200Z AUTO 35002KT 6SM 24/23 A2977 RMK T02400230 IEM_DS3505
ZGOW,2001-05-26 23:00,ZGOW 262300Z AUTO 34002KT 6SM 25/24 A2980 RMK T02500240 IEM_DS3505
ZGOW,2001-05-27 00:00,ZGOW 270000Z AUTO 34004KT 6SM 26/23 A2980 RMK SLP091 T02650233 52006 IEM_DS3505
ZGOW,2001-05-27 01:00,ZGOW 270100Z AUTO 08004KT 11SM 29/24 A2980 RMK T02900240 IEM_DS3505
ZGOW,2001-05-27 02:00,ZGOW 270200Z AUTO 09006KT 6SM 30/23 A2980 RMK T03000230 IEM_DS3505
ZGOW,2001-05-27 03:00,ZGOW 270300Z AUTO 07006KT 7SM 31/20 A2980 RMK SLP092 T03110205 52001 IEM_DS3505
ZGOW,2001-05-27 04:00,ZGOW 270400Z AUTO 12006KT 6SM 31/23 A2980 RMK T03100230 IEM_DS3505
ZGOW,2001-05-27 05:00,ZGOW 270500Z AUTO 12008KT 6SM 31/23 A2977 RMK T03100230 IEM_DS3505
ZGOW,2001-05-27 06:00,ZGOW 270600Z AUTO 16006KT 11SM 31/20 A2977 RMK SLP075 T03060197 57017 IEM_DS3505
ZGOW,2001-05-27 07:00,ZGOW 270700Z AUTO 12008KT 6SM 30/24 A2974 RMK T03000240 IEM_DS3505
ZGOW,2001-05-27 08:00,ZGOW 270800Z AUTO 12010KT 6SM 29/25 A2974 RMK T02900250 IEM_DS3505
ZGOW,2001-05-27 09:00,ZGOW 270900Z AUTO 11006KT 9SM 29/23 A2971 RMK SLP061 T02880230 57014 IEM_DS3505
ZGOW,2001-05-27 10:00,ZGOW 271000Z AUTO 09008KT 6SM 28/23 A2974 RMK T02800230 IEM_DS3505
ZGOW,2001-05-27 11:00,ZGOW 271100Z AUTO 08010KT 6SM 27/24 A2977 RMK T02700240 IEM_DS3505
ZGOW,2001-05-27 12:00,ZGOW 271200Z AUTO 11006KT 8SM 27/23 RMK SLP084 T02730232 52023 IEM_DS3505
ZGOW,2001-05-27 13:00,ZGOW 271300Z AUTO 08012KT RMK IEM_DS3505
ZGOW,2001-05-27 14:00,ZGOW 271400Z AUTO 08010KT RMK IEM_DS3505
ZGOW,2001-05-27 15:00,ZGOW 271500Z AUTO 11008KT 7SM 27/24 A2980 RMK SLP094 T02670235 52010 IEM_DS3505
ZGOW,2001-05-27 16:00,ZGOW 271600Z AUTO 08006KT 25/24 A2980 RMK T02500240 IEM_DS3505
ZGOW,2001-05-27 17:00,ZGOW 271700Z AUTO 08010KT 25/24 A2977 RMK T02500240 IEM_DS3505
ZGOW,2001-05-27 18:00,ZGOW 271800Z AUTO 07008KT 6SM 25/24 A2977 RMK 60000 SLP083 T02460236 57011 IEM_DS3505
ZGOW,2001-05-27 19:00,ZGOW 271900Z AUTO 08012KT 24/23 A2977 RMK T02400230 IEM_DS3505
ZGOW,2001-05-27 20:00,ZGOW 272000Z AUTO 06014KT 23/23 A2977 RMK T02300230 IEM_DS3505
ZGOW,2001-05-27 21:00,ZGOW 272100Z AUTO 07008KT 6SM 23/22 A2977 RMK 70001 SLP083 T02320215 54000 IEM_DS3505
ZGOW,2001-05-27 22:00,ZGOW 272200Z AUTO 04008KT 6SM 23/22 A2977 RMK T02300220 IEM_DS3505
ZGOW,2001-05-27 23:00,ZGOW 272300Z AUTO 04006KT 6SM 23/22 A2977 RMK T02300220 IEM_DS3505
ZGOW,2001-05-28 00:00,ZGOW 280000Z AUTO 07004KT 6SM 25/21 A2977 RMK 60003 SLP084 T02490210 52001 IEM_DS3505
ZGOW,2001-05-28 01:00,ZGOW 280100Z AUTO 06014KT 6SM 26/22 A2977 RMK T02600220 IEM_DS3505
ZGOW,2001-05-28 02:00,ZGOW 280200Z AUTO 07014KT 6SM RMK IEM_DS3505
ZGOW,2001-05-28 03:00,ZGOW 280300Z AUTO 07010KT 7SM 28/21 A2977 RMK SLP080 T02810211 57004 IEM_DS3505
ZGOW,2001-05-28 04:00,ZGOW 280400Z AUTO 08012KT 6SM 27/23 A2977 RMK T02700230 IEM_DS3505
ZGOW,2001-05-28 05:00,ZGOW 280500Z AUTO 07010KT 5SM 29/24 A2974 RMK T02900240 IEM_DS3505
ZGOW,2001-05-28 06:00,ZGOW 280600Z AUTO 07006KT 6SM 29/21 A2971 RMK SLP061 T02860212 57019 IEM_DS3505
ZGOW,2001-05-28 07:00,ZGOW 280700Z AUTO 09008KT 28/23 A2971 RMK T02800230 IEM_DS3505
ZGOW,2001-05-28 08:00,ZGOW 280800Z AUTO 11010KT 6SM 28/24 A2971 RMK T02800240 IEM_DS3505
ZGOW,2001-05-28 09:00,ZGOW 280900Z AUTO 11006KT 6SM 28/22 RMK SLP051 T02750221 57010 IEM_DS3505
ZGOW,2001-05-28 10:00,ZGOW 281000Z AUTO 09012KT 6SM RMK IEM_DS3505
ZGOW,2001-05-28 11:00,ZGOW 281100Z AUTO 09012KT 6SM 26/23 A2971 RMK T02600230 IEM_DS3505
ZGOW,2001-05-28 12:00,ZGOW 281200Z AUTO 07008KT 5SM 26/22 A2974 RMK SLP067 T02610221 52016 IEM_DS3505
ZGOW,2001-05-28 13:00,ZGOW 281300Z AUTO 08014KT 1 1/2SM 25/23 A2974 RMK T02500230 IEM_DS3505
ZGOW,2001-05-28 14:00,ZGOW 281400Z AUTO 08014KT 25/23 A2977 RMK T02500230 IEM_DS3505
ZGOW,2001-05-28 15:00,ZGOW 281500Z AUTO 07010KT 6SM 25/22 RMK SLP075 T02520218 52008 IEM_DS3505
ZGOW,2001-05-28 16:00,ZGOW 281600Z AUTO 07016KT 25/23 A2974 RMK T02500230 IEM_DS3505
ZGOW,2001-05-28 17:00,ZGOW 281700Z AUTO 07014KT 25/23 A2974 RMK T02500230 IEM_DS3505
ZGOW,2001-05-28 18:00,ZGOW 281800Z AUTO 09008KT 6SM 25/21 A2974 RMK SLP068 T02480214 57007 IEM_DS3505
ZGOW,2001-05-28 19:00,ZGOW 281900Z AUTO 08012KT 24/22 A2971 RMK T02400220 IEM_DS3505
ZGOW,2001-05-28 20:00,ZGOW 282000Z AUTO 07012KT 24/22 A2971 RMK T02400220 IEM_DS3505
ZGOW,2001-05-28 21:00,ZGOW 282100Z AUTO 07008KT 6SM 24/21 A2971 RMK SLP064 T02430208 57004 IEM_DS3505
ZGOW,2001-05-28 22:00,ZGOW 282200Z AUTO 08014KT RMK IEM_DS3505
ZGOW,2001-05-28 23:00,ZGOW 282300Z AUTO 08012KT 6SM RMK IEM_DS3505
ZGOW,2001-05-29 00:00,ZGOW 290000Z AUTO 07012KT 8SM 26/20 A2971 RMK SLP065 T02550200 52001 IEM_DS3505
ZGOW,2001-05-29 01:00,ZGOW 290100Z AUTO 08012KT 27/23 A2971 RMK T02700230 IEM_DS3505
ZGOW,2001-05-29 02:00,ZGOW 290200Z AUTO 08014KT 27/23 A2971 RMK T02700230 IEM_DS3505
ZGOW,2001-05-29 03:00,ZGOW 290300Z AUTO 07010KT 9SM 27/20 A2971 RMK SLP065 T02700205 54000 IEM_DS3505
ZGOW,2001-05-29 04:00,ZGOW 290400Z AUTO 08014KT 28/23 A2971 RMK T02800230 IEM_DS3505
ZGOW,2001-05-29 05:00,ZGOW 290500Z AUTO 08012KT 6SM 29/24 A2971 RMK T02900240 IEM_DS3505
ZGOW,2001-05-29 06:00,ZGOW 290600Z AUTO 11008KT 11SM 28/22 A2968 RMK SLP055 T02840216 57010 IEM_DS3505
ZGOW,2001-05-29 07:00,ZGOW 290700Z AUTO 09010KT 16SM 29/24 A2965 RMK T02900240 IEM_DS3505
ZGOW,2001-05-29 08:00,ZGOW 290800Z AUTO 09008KT 6SM 29/24 A2965 RMK T02900240 IEM_DS3505
ZGOW,2001-05-29 09:00,ZGOW 290900Z AUTO 16004KT 9SM 28/23 A2962 RMK SLP035 T02810227 57020 IEM_DS3505
ZGOW,2001-05-29 10:00,ZGOW 291000Z AUTO 13008KT 6SM 27/24 A2965 RMK T02700240 IEM_DS3505
ZGOW,2001-05-29 11:00,ZGOW 291100Z AUTO 11004KT 2 1/2SM RMK IEM_DS3505
ZGOW,2001-05-29 12:00,ZGOW 291200Z AUTO 11004KT 7SM 26/23 RMK SLP051 T02590228 52016 IEM_DS3505
ZGOW,2001-05-29 13:00,ZGOW 291300Z AUTO 06004KT 6SM RMK IEM_DS3505
ZGOW,2001-05-29 14:00,ZGOW 291400Z AUTO 07010KT 6SM RMK IEM_DS3505
ZGOW,2001-05-29 15:00,ZGOW 291500Z AUTO 07006KT 6SM 25/23 A2971 RMK SLP059 T02540226 52008 IEM_DS3505
ZGOW,2001-05-29 16:00,ZGOW 291600Z AUTO 07008KT 24/23 A2968 RMK T02400230 IEM_DS3505
ZGOW,2001-05-29 17:00,ZGOW 291700Z AUTO 07006KT 24/23 A2968 RMK T02400230 IEM_DS3505
ZGOW,2001-05-29 18:00,ZGOW 291800Z AUTO 07004KT 6SM 25/23 A2965 RMK SLP047 T02490227 57012 IEM_DS3505
ZGOW,2001-05-29 19:00,ZGOW 291900Z AUTO 08004KT 24/23 A2965 RMK T02400230 IEM_DS3505
ZGOW,2001-05-29 20:00,ZGOW 292000Z AUTO 10004KT 25/24 A2965 RMK T02500240 IEM_DS3505
ZGOW,2001-05-29 21:00,ZGOW 292100Z AUTO 16004KT 6SM 25/22 RMK SLP042 T02510223 57005 IEM_DS3505
ZGOW,2001-05-29 22:00,ZGOW 292200Z AUTO 07002KT RMK IEM_DS3505
ZGOW,2001-05-29 23:00,ZGOW 292300Z AUTO 06004KT RMK IEM_DS3505
ZGOW,2001-05-30 00:00,ZGOW 300000Z AUTO 09004KT 9SM 27/22 A2968 RMK SLP057 T02700223 52015 IEM_DS3505
ZGOW,2001-05-30 01:00,ZGOW 300100Z AUTO 08004KT RMK IEM_DS3505
ZGOW,2001-05-30 02:00,ZGOW 300200Z AUTO 04004KT 6SM RMK IEM_DS3505
ZGOW,2001-05-30 03:00,ZGOW 300300Z AUTO 07002KT 9SM 29/23 RMK SLP055 T02910226 57002 IEM_DS3505
ZGOW,2001-05-30 04:00,ZGOW 300400Z AUTO 11006KT 6SM 29/25 A2968 RMK T02900250 IEM_DS3505
ZGOW,2001-05-30 05:00,ZGOW 300500Z AUTO 14006KT 6SM 30/26 A2968 RMK T03000260 IEM_DS3505
ZGOW,2001-05-30 06:00,ZGOW 300600Z AUTO 14004KT 9SM 31/24 A2965 RMK SLP039 T03060238 57016 IEM_DS3505
ZGOW,2001-05-30 07:00,ZGOW 300700Z AUTO 14006KT 6SM 30/26 A2965 RMK T03000260 IEM_DS3505
ZGOW,2001-05-30 08:00,ZGOW 300800Z AUTO 13006KT 28/25 A2965 RMK T02800250 IEM_DS3505
ZGOW,2001-05-30 09:00,ZGOW 300900Z AUTO 16004KT 9SM 28/23 A2965 RMK SLP037 T02850228 57002 IEM_DS3505
ZGOW,2001-05-30 10:00,ZGOW 301000Z AUTO 14004KT 6SM 28/25 A2968 RMK T02800250 IEM_DS3505
ZGOW,2001-05-30 11:00,ZGOW 301100Z AUTO 09004KT 6SM 27/25 A2971 RMK T02700250 IEM_DS3505
ZGOW,2001-05-30 12:00,ZGOW 301200Z AUTO 16002KT 7SM 28/24 A2971 RMK 60003 SLP059 T02750235 52022 IEM_DS3505
ZGOW,2001-05-30 13:00,ZGOW 301300Z AUTO 6SM RMK IEM_DS3505
ZGOW,2001-05-30 14:00,ZGOW 301400Z AUTO 32004KT 26/24 A2974 RMK T02600240 IEM_DS3505
ZGOW,2001-05-30 15:00,ZGOW 301500Z AUTO 04002KT 7SM 27/22 A2974 RMK SLP074 T02690217 52015 IEM_DS3505
ZGOW,2001-05-30 16:00,ZGOW 301600Z AUTO 31006KT 26/23 A2974 RMK T02600230 IEM_DS3505
ZGOW,2001-05-30 18:00,ZGOW 301800Z AUTO 02004KT 7SM 26/21 A2971 RMK SLP065 T02560214 57009 IEM_DS3505
ZGOW,2001-05-30 19:00,ZGOW 301900Z AUTO 36004KT 25/23 A2974 RMK T02500230 IEM_DS3505
ZGOW,2001-05-30 20:00,ZGOW 302000Z AUTO 34002KT 26/22 A2974 RMK T02600220 IEM_DS3505
ZGOW,2001-05-30 21:00,ZGOW 302100Z AUTO 04004KT 6SM 26/22 A2977 RMK 70003 SLP077 T02580218 52012 IEM_DS3505
ZGOW,2001-05-30 22:00,ZGOW 302200Z AUTO 06006KT 6SM RMK IEM_DS3505
ZGOW,2001-05-30 23:00,ZGOW 302300Z AUTO 04006KT 6SM 24/24 A2980 RMK T02400240 IEM_DS3505
ZGOW,2001-05-31 00:00,ZGOW 310000Z AUTO 07004KT 6SM 25/22 A2980 RMK 60002 SLP097 T02470222 52020 IEM_DS3505
ZGOW,2001-05-31 01:00,ZGOW 310100Z AUTO 07008KT 6SM 24/24 A2983 RMK T02400240 IEM_DS3505
ZGOW,2001-05-31 02:00,ZGOW 310200Z AUTO 07010KT RMK IEM_DS3505
ZGOW,2001-05-31 03:00,ZGOW 310300Z AUTO 07008KT 4SM 24/23 RMK SLP106 T02410228 52009 IEM_DS3505
ZGOW,2001-05-31 04:00,ZGOW 310400Z AUTO 08008KT 6SM 25/23 A2985 RMK T02500230 IEM_DS3505
ZGOW,2001-05-31 05:00,ZGOW 310500Z AUTO 08010KT 6SM RMK IEM_DS3505
ZGOW,2001-05-31 06:00,ZGOW 310600Z AUTO 07008KT 5SM 25/22 A2983 RMK 60008 SLP101 T02480218 57005 IEM_DS3505
ZGOW,2001-05-31 07:00,ZGOW 310700Z AUTO 08010KT 6SM 25/23 A2983 RMK T02500230 IEM_DS3505
ZGOW,2001-05-31 08:00,ZGOW 310800Z AUTO 08010KT RMK IEM_DS3505
ZGOW,2001-05-31 09:00,ZGOW 310900Z AUTO 07010KT 4SM 24/22 A2983 RMK SLP101 T02370216 54000 IEM_DS3505
ZGOW,2001-05-31 10:00,ZGOW 311000Z AUTO 09010KT 6SM 23/22 A2985 RMK T02300220 IEM_DS3505
ZGOW,2001-05-31 12:00,ZGOW 311200Z AUTO 07006KT 6SM 24/22 RMK 60002 SLP117 T02400216 52016 IEM_DS3505
ZGOW,2001-05-31 13:00,ZGOW 311300Z AUTO 06004KT 3SM 24/22 A2991 RMK T02400220 IEM_DS3505
ZGOW,2001-05-31 14:00,ZGOW 311400Z AUTO 05004KT 6SM 24/22 A2991 RMK T02400220 IEM_DS3505
ZGOW,2001-05-31 15:00,ZGOW 311500Z AUTO 09004KT 6SM 24/22 A2991 RMK SLP128 T02420215 52011 IEM_DS3505
ZGOW,2001-05-31 16:00,ZGOW 311600Z AUTO 36002KT 24/23 A2988 RMK T02400230 IEM_DS3505
ZGOW,2001-05-31 17:00,ZGOW 311700Z AUTO 24/23 A2988 RMK T02400230 IEM_DS3505
ZGOW,2001-05-31 18:00,ZGOW 311800Z AUTO 00000KT 6SM 24/22 A2985 RMK 60003 SLP114 T02370216 57014 IEM_DS3505
ZGOW,2001-05-31 19:00,ZGOW 311900Z AUTO 36002KT 23/23 A2985 RMK T02300230 IEM_DS3505
ZGOW,2001-05-31 20:00,ZGOW 312000Z AUTO 23/23 A2985 RMK T02300230 IEM_DS3505
ZGOW,2001-05-31 21:00,ZGOW 312100Z AUTO 04002KT 6SM 23/22 A2985 RMK 70010 SLP108 T02330218 57006 IEM_DS3505
ZGOW,2001-05-31 22:00,ZGOW 312200Z AUTO 23/22 A2985 RMK T02300220 IEM_DS3505
ZGOW,2001-05-31 23:00,ZGOW 312300Z AUTO 08002KT 24/22 A2988 RMK T02400220 IEM_DS3505
ZGOW,2001-06-01 00:00,ZGOW 010000Z AUTO 09004KT 9SM 26/18 A2991 RMK 70008 SLP126 T02550176 52018 IEM_DS3505
ZGOW,2001-06-01 01:00,ZGOW 010100Z AUTO 07002KT 6SM 26/19 A2991 RMK T02600190 IEM_DS3505
ZGOW,2001-06-01 02:00,ZGOW 010200Z AUTO 06006KT 6SM 27/18 A2991 RMK T02700180 IEM_DS3505
ZGOW,2001-06-01 03:00,ZGOW 010300Z AUTO 07006KT 11SM 28/15 A2991 RMK SLP132 T02780153 52006 IEM_DS3505
ZGOW,2001-06-01 04:00,ZGOW 010400Z AUTO 09012KT 6SM 28/19 A2991 RMK T02800190 IEM_DS3505
ZGOW,2001-06-01 05:00,ZGOW 010500Z AUTO 09012KT 6SM 28/16 A2988 RMK T02800160 IEM_DS3505
ZGOW,2001-06-01 06:00,ZGOW 010600Z AUTO 11008KT 12SM 29/16 A2988 RMK SLP118 T02900158 57014 IEM_DS3505
ZGOW,2001-06-01 07:00,ZGOW 010700Z AUTO 12010KT 6SM 28/21 A2985 RMK T02800210 IEM_DS3505
ZGOW,2001-06-01 08:00,ZGOW 010800Z AUTO 12010KT 6SM 28/21 A2985 RMK T02800210 IEM_DS3505
ZGOW,2001-06-01 09:00,ZGOW 010900Z AUTO 11008KT 11SM 28/16 A2985 RMK SLP109 T02770165 57009 IEM_DS3505
ZGOW,2001-06-01 10:00,ZGOW 011000Z AUTO 09006KT 6SM 26/20 A2985 RMK T02600200 IEM_DS3505
ZGOW,2001-06-01 11:00,ZGOW 011100Z AUTO 08008KT 6SM 26/19 A2985 RMK T02600190 IEM_DS3505
ZGOW,2001-06-01 12:00,ZGOW 011200Z AUTO 07006KT 10SM 26/17 RMK SLP119 T02600173 52010 IEM_DS3505
ZGOW,2001-06-01 13:00,ZGOW 011300Z AUTO 09010KT 6SM 25/21 A2988 RMK T02500210 IEM_DS3505
ZGOW,2001-06-01 14:00,ZGOW 011400Z AUTO 08008KT 6SM 24/21 A2991 RMK T02400210 IEM_DS3505
ZGOW,2001-06-01 15:00,ZGOW 011500Z AUTO 07006KT 9SM 25/20 RMK SLP131 T02500203 52012 IEM_DS3505
ZGOW,2001-06-01 16:00,ZGOW 011600Z AUTO 05006KT 24/22 A2991 RMK T02400220 IEM_DS3505
ZGOW,2001-06-01 17:00,ZGOW 011700Z AUTO 08006KT 24/22 A2988 RMK T02400220 IEM_DS3505
ZGOW,2001-06-01 18:00,ZGOW 011800Z AUTO 07006KT 7SM 25/20 A2988 RMK SLP119 T02480204 57012 IEM_DS3505
ZGOW,2001-06-01 19:00,ZGOW 011900Z AUTO 05006KT 24/21 A2988 RMK T02400210 IEM_DS3505
ZGOW,2001-06-01 20:00,ZGOW 012000Z AUTO 01004KT 24/21 A2988 RMK T02400210 IEM_DS3505
ZGOW,2001-06-01 21:00,ZGOW 012100Z AUTO 04004KT 7SM 24/19 A2985 RMK SLP117 T02420194 57002 IEM_DS3505
ZGOW,2001-06-01 22:00,ZGOW 012200Z AUTO 24/21 A2988 RMK T02400210 IEM_DS3505
ZGOW,2001-06-01 23:00,ZGOW 012300Z AUTO 07006KT 6SM 25/21 A2988 RMK T02500210 IEM_DS3505
ZGOW,2001-06-02 00:00,ZGOW 020000Z AUTO 07008KT 9SM 26/18 RMK SLP131 T02630180 52014 IEM_DS3505
ZGOW,2001-06-02 01:00,ZGOW 020100Z AUTO 08012KT 6SM 26/19 A2994 RMK T02600190 IEM_DS3505
ZGOW,2001-06-02 02:00,ZGOW 020200Z AUTO 07012KT 26/20 A2997 RMK T02600200 IEM_DS3505
ZGOW,2001-06-02 04:00,ZGOW 020400Z AUTO 07014KT 6SM 25/22 A2994 RMK T02500220 IEM_DS3505
ZGOW,2001-06-02 05:00,ZGOW 020500Z AUTO 07014KT 25/22 A2994 RMK T02500220 IEM_DS3505
ZGOW,2001-06-02 06:00,ZGOW 020600Z AUTO 07008KT 5SM 24/21 A2991 RMK 60003 SLP129 T02380209 57015 IEM_DS3505
ZGOW,2001-06-02 07:00,ZGOW 020700Z AUTO 07014KT 6SM 23/22 A2988 RMK T02300220 IEM_DS3505
ZGOW,2001-06-02 08:00,ZGOW 020800Z AUTO 06012KT 6SM 23/22 A2988 RMK T02300220 IEM_DS3505
ZGOW,2001-06-02 09:00,ZGOW 020900Z AUTO 07006KT 4SM 23/21 A2988 RMK SLP117 T02330210 57012 IEM_DS3505
ZGOW,2001-06-02 10:00,ZGOW 021000Z AUTO 05008KT 23/22 A2988 RMK T02300220 IEM_DS3505
ZGOW,2001-06-02 11:00,ZGOW 021100Z AUTO 05008KT 23/22 A2991 RMK T02300220 IEM_DS3505
ZGOW,2001-06-02 12:00,ZGOW 021200Z AUTO 07010KT 6SM 24/20 RMK 60000 SLP131 T02390197 52014 IEM_DS3505
ZGOW,2001-06-02 13:00,ZGOW 021300Z AUTO 06012KT 6SM 23/21 A2991 RMK T02300210 IEM_DS3505
ZGOW,2001-06-02 14:00,ZGOW 021400Z AUTO 07012KT 6SM 24/21 A2994 RMK T02400210 IEM_DS3505
ZGOW,2001-06-02 15:00,ZGOW 021500Z AUTO 07006KT 5SM 24/19 A2994 RMK SLP139 T02410190 52008 IEM_DS3505
ZGOW,2001-06-02 16:00,ZGOW 021600Z AUTO 06012KT 24/21 A2994 RMK T02400210 IEM_DS3505
ZGOW,2001-06-02 17:00,ZGOW 021700Z AUTO 07012KT 24/21 A2991 RMK T02400210 IEM_DS3505
ZGOW,2001-06-02 18:00,ZGOW 021800Z AUTO 07006KT 5SM 23/21 A2991 RMK 60000 SLP127 T02330212 57012 IEM_DS3505
ZGOW,2001-06-02 19:00,ZGOW 021900Z AUTO 07010KT 24/23 A2988 RMK T02400230 IEM_DS3505
ZGOW,2001-06-02 20:00,ZGOW 022000Z AUTO 06008KT 23/22 A2988 RMK T02300220 IEM_DS3505
ZGOW,2001-06-02 21:00,ZGOW 022100Z AUTO 07006KT 5SM 24/21 A2988 RMK 70004 SLP123 T02350212 57004 IEM_DS3505
ZGOW,2001-06-02 22:00,ZGOW 022200Z AUTO 36004KT 6SM 22/22 A2988 RMK T02200220 IEM_DS3505
ZGOW,2001-06-02 23:00,ZGOW 022300Z AUTO 34002KT 22/22 A2988 RMK T02200220 IEM_DS3505
ZGOW,2001-06-03 00:00,ZGOW 030000Z AUTO 07002KT 3SM 23/21 A2991 RMK 60008 SLP128 T02340213 52005 IEM_DS3505
ZGOW,2001-06-03 01:00,ZGOW 030100Z AUTO 05004KT 6SM 25/23 A2991 RMK T02500230 IEM_DS3505
ZGOW,2001-06-03 02:00,ZGOW 030200Z AUTO 07008KT 6SM 26/24 A2991 RMK T02600240 IEM_DS3505
ZGOW,2001-06-03 03:00,ZGOW 030300Z AUTO 04002KT 4SM 26/22 A2991 RMK SLP128 T02630222 54000 IEM_DS3505
ZGOW,2001-06-03 04:00,ZGOW 030400Z AUTO 07004KT RMK IEM_DS3505
ZGOW,2001-06-03 05:00,ZGOW 030500Z AUTO 07006KT RMK IEM_DS3505
ZGOW,2001-06-03 06:00,ZGOW 030600Z AUTO 11002KT 4SM 26/22 RMK SLP113 T02650225 57015 IEM_DS3505
ZGOW,2001-06-03 07:00,ZGOW 030700Z AUTO 11004KT 6SM RMK IEM_DS3505
ZGOW,2001-06-03 08:00,ZGOW 030800Z AUTO 14004KT 6SM 26/24 A2983 RMK T02600240 IEM_DS3505
ZGOW,2001-06-03 09:00,ZGOW 030900Z AUTO 11004KT 5SM 26/23 A2983 RMK SLP100 T02600229 57013 IEM_DS3505
ZGOW,2001-06-03 10:00,ZGOW 031000Z AUTO 11002KT 6SM 26/24 A2983 RMK T02600240 IEM_DS3505
ZGOW,2001-06-03 11:00,ZGOW 031100Z AUTO 12002KT 25/24 A2983 RMK T02500240 IEM_DS3505
ZGOW,2001-06-03 12:00,ZGOW 031200Z AUTO 14004KT 6SM 25/23 A2983 RMK 60003 SLP103 T02530228 52003 IEM_DS3505
ZGOW,2001-06-03 13:00,ZGOW 031300Z AUTO 13002KT 25/24 A2983 RMK T02500240 IEM_DS3505
ZGOW,2001-06-03 14:00,ZGOW 031400Z AUTO 12004KT 6SM 25/24 A2983 RMK T02500240 IEM_DS3505
ZGOW,2001-06-03 15:00,ZGOW 031500Z AUTO 20002KT 6SM 25/24 A2983 RMK SLP107 T02510236 52004 IEM_DS3505
ZGOW,2001-06-03 16:00,ZGOW 031600Z AUTO 15002KT 25/24 A2983 RMK T02500240 IEM_DS3505
ZGOW,2001-06-03 17:00,ZGOW 031700Z AUTO 16002KT 25/24 A2983 RMK T02500240 IEM_DS3505
ZGOW,2001-06-03 18:00,ZGOW 031800Z AUTO 16002KT 5SM 25/24 A2980 RMK SLP089 T02470237 57018 IEM_DS3505
ZGOW,2001-06-03 19:00,ZGOW 031900Z AUTO 17002KT 24/24 A2977 RMK T02400240 IEM_DS3505
ZGOW,2001-06-03 20:00,ZGOW 032000Z AUTO 24/24 A2977 RMK T02400240 IEM_DS3505
ZGOW,2001-06-03 21:00,ZGOW 032100Z AUTO 00000KT 5SM 25/24 A2977 RMK 70006 SLP078 T02480239 57011 IEM_DS3505
ZGOW,2001-06-03 22:00,ZGOW 032200Z AUTO 24/24 A2977 RMK T02400240 IEM_DS3505
ZGOW,2001-06-03 23:00,ZGOW 032300Z AUTO 13004KT 6SM 25/25 A2977 RMK T02500250 IEM_DS3505
ZGOW,2001-06-04 00:00,ZGOW 040000Z AUTO 20002KT 6SM 26/25 A2977 RMK 60000 SLP084 T02620249 52006 IEM_DS3505
ZGOW,2001-06-04 01:00,ZGOW 040100Z AUTO 19006KT 34SM RMK IEM_DS3505
ZGOW,2001-06-04 02:00,ZGOW 040200Z AUTO 19008KT RMK IEM_DS3505
ZGOW,2001-06-04 03:00,ZGOW 040300Z AUTO 20008KT 11SM 29/25 RMK SLP079 T02910247 57005 IEM_DS3505
ZGOW,2001-06-04 04:00,ZGOW 040400Z AUTO 20010KT 6SM RMK IEM_DS3505
ZGOW,2001-06-04 06:00,ZGOW 040600Z AUTO 20008KT 16SM 31/24 RMK SLP059 T03100245 57020 IEM_DS3505
ZGOW,2001-06-04 07:00,ZGOW 040700Z AUTO 20014KT 16SM 31/27 A2968 RMK T03100270 IEM_DS3505
ZGOW,2001-06-04 08:00,ZGOW 040800Z AUTO 20014KT 6SM 29/26 A2968 RMK T02900260 IEM_DS3505
ZGOW,2001-06-04 09:00,ZGOW 040900Z AUTO 20008KT 12SM 29/25 RMK SLP052 T02900248 57007 IEM_DS3505
ZGOW,2001-06-04 10:00,ZGOW 041000Z AUTO 23010KT 28/26 A2968 RMK T02800260 IEM_DS3505
ZGOW,2001-06-04 11:00,ZGOW 041100Z AUTO 23008KT 8SM 28/26 A2968 RMK T02800260 IEM_DS3505
ZGOW,2001-06-04 12:00,ZGOW 041200Z AUTO 22006KT 10SM 28/24 A2971 RMK 60004 SLP057 T02760242 52005 IEM_DS3505
ZGOW,2001-06-04 13:00,ZGOW 041300Z AUTO 19004KT 31SM 27/26 A2971 RMK T02700260 IEM_DS3505
ZGOW,2001-06-04 14:00,ZGOW 041400Z AUTO 20004KT 6SM 27/26 A2971 RMK T02700260 IEM_DS3505
ZGOW,2001-06-04 15:00,ZGOW 041500Z AUTO 20004KT 9SM 27/25 A2974 RMK SLP065 T02700247 52008 IEM_DS3505
ZGOW,2001-06-04 16:00,ZGOW 041600Z AUTO 26/26 A2971 RMK T02600260 IEM_DS3505
ZGOW,2001-06-04 17:00,ZGOW 041700Z AUTO 32002KT 25/24 A2971 RMK T02500240 IEM_DS3505
ZGOW,2001-06-04 18:00,ZGOW 041800Z AUTO 04004KT 8SM 25/23 A2968 RMK SLP056 T02520232 57009 IEM_DS3505
ZGOW,2001-06-04 19:00,ZGOW 041900Z AUTO 24/24 A2968 RMK T02400240 IEM_DS3505
ZGOW,2001-06-04 20:00,ZGOW 042000Z AUTO 25/24 A2968 RMK T02500240 IEM_DS3505
ZGOW,2001-06-04 21:00,ZGOW 042100Z AUTO 20006KT 7SM 26/24 A2968 RMK 70007 SLP054 T02580245 57002 IEM_DS3505
ZGOW,2001-06-04 22:00,ZGOW 042200Z AUTO 23004KT 6SM 26/26 A2971 RMK T02600260 IEM_DS3505
ZGOW,2001-06-04 23:00,ZGOW 042300Z AUTO 25006KT 6SM 26/25 A2971 RMK T02600250 IEM_DS3505
ZGOW,2001-06-05 00:00,ZGOW 050000Z AUTO 27006KT 8SM 25/24 A2971 RMK 60024 SLP064 T02510239 52010 IEM_DS3505
ZGOW,2001-06-05 01:00,ZGOW 050100Z AUTO 22004KT 6SM RMK IEM_DS3505
ZGOW,2001-06-05 02:00,ZGOW 050200Z AUTO 27004KT RMK IEM_DS3505
ZGOW,2001-06-05 03:00,ZGOW 050300Z AUTO 25008KT 11SM 28/25 A2971 RMK SLP065 T02760253 52001 IEM_DS3505
ZGOW,2001-06-05 04:00,ZGOW 050400Z AUTO 24004KT 6SM 28/27 A2971 RMK T02800270 IEM_DS3505
ZGOW,2001-06-05 05:00,ZGOW 050500Z AUTO 28004KT 27/27 A2971 RMK T02700270 IEM_DS3505
ZGOW,2001-06-05 06:00,ZGOW 050600Z AUTO 27008KT 9SM 26/24 A2968 RMK 60008 SLP056 T02550242 57009 IEM_DS3505
ZGOW,2001-06-05 07:00,ZGOW 050700Z AUTO 25004KT 26/25 A2968 RMK T02600250 IEM_DS3505
ZGOW,2001-06-05 08:00,ZGOW 050800Z AUTO 28004KT 25/25 A2968 RMK T02500250 IEM_DS3505
ZGOW,2001-06-05 09:00,ZGOW 050900Z AUTO 29002KT 9SM 26/24 A2968 RMK SLP049 T02570243 57007 IEM_DS3505
ZGOW,2001-06-05 10:00,ZGOW 051000Z AUTO 26/25 A2968 RMK T02600250 IEM_DS3505
ZGOW,2001-06-05 11:00,ZGOW 051100Z AUTO 6SM RMK IEM_DS3505
ZGOW,2001-06-05 12:00,ZGOW 051200Z AUTO 00000KT 7SM 25/24 A2971 RMK 60012 SLP064 T02520242 52015 IEM_DS3505
ZGOW,2001-06-05 13:00,ZGOW 051300Z AUTO 6SM 25/25 A2971 RMK T02500250 IEM_DS3505
ZGOW,2001-06-05 14:00,ZGOW 051400Z AUTO 28002KT 6SM 25/25 A2974 RMK T02500250 IEM_DS3505
ZGOW,2001-06-05 15:00,ZGOW 051500Z AUTO 35002KT 25/25 A2971 RMK T02500250 IEM_DS3505
ZGOW,2001-06-05 16:00,ZGOW 051600Z AUTO 05004KT 25/25 A2971 RMK T02500250 IEM_DS3505
ZGOW,2001-06-05 17:00,ZGOW 051700Z AUTO 25/25 A2971 RMK T02500250 IEM_DS3505
ZGOW,2001-06-05 18:00,ZGOW 051800Z AUTO 00000KT 6SM 25/24 A2971 RMK 60002 SLP059 T02480242 57006 IEM_DS3505
ZGOW,2001-06-05 19:00,ZGOW 051900Z AUTO 24/24 A2971 RMK T02400240 IEM_DS3505
ZGOW,2001-06-05 20:00,ZGOW 052000Z AUTO 24/24 A2971 RMK T02400240 IEM_DS3505
ZGOW,2001-06-05 21:00,ZGOW 052100Z AUTO 04004KT 5SM 25/24 A2971 RMK 70047 SLP063 T02460240 52004 IEM_DS3505
ZGOW,2001-06-05 22:00,ZGOW 052200Z AUTO 25/25 A2971 RMK T02500250 IEM_DS3505
ZGOW,2001-06-05 23:00,ZGOW 052300Z AUTO 08002KT 25/25 A2974 RMK T02500250 IEM_DS3505
ZGOW,2001-06-06 00:00,ZGOW 060000Z AUTO 18002KT 6SM 27/25 RMK 60000 SLP075 T02680248 52012 IEM_DS3505
ZGOW,2001-06-06 01:00,ZGOW 060100Z AUTO 27/26 A2977 RMK T02700260 IEM_DS3505
ZGOW,2001-06-06 02:00,ZGOW 060200Z AUTO 18002KT 6SM RMK IEM_DS3505
ZGOW,2001-06-06 03:00,ZGOW 060300Z AUTO 25006KT 7SM 28/24 RMK SLP081 T02780244 52006 IEM_DS3505
ZGOW,2001-06-06 04:00,ZGOW 060400Z AUTO 31004KT 6SM RMK IEM_DS3505
ZGOW,2001-06-06 05:00,ZGOW 060500Z AUTO 32004KT 28/26 A2977 RMK SLP084 T02800260 IEM_DS3505
ZGOW,2001-06-06 06:00,ZGOW 060600Z AUTO 22008KT 7SM 26/24 A2977 RMK 60020 SLP079 T02630243 57002 IEM_DS3505
ZGOW,2001-06-06 07:00,ZGOW 060700Z AUTO 17002KT 15SM 25/25 A2974 RMK SLP074 T02500250 IEM_DS3505
ZGOW,2001-06-06 08:00,ZGOW 060800Z AUTO 16006KT 6SM 26/26 A2974 RMK SLP074 T02600260 IEM_DS3505
ZGOW,2001-06-06 09:00,ZGOW 060900Z AUTO 22006KT 9SM 26/24 A2974 RMK SLP069 T02580239 57010 IEM_DS3505
ZGOW,2001-06-06 10:00,ZGOW 061000Z AUTO 7SM 26/25 A2974 RMK SLP074 T02600250 IEM_DS3505
ZGOW,2001-06-06 11:00,ZGOW 061100Z AUTO 18004KT 6SM 25/25 A2974 RMK SLP074 T02500250 IEM_DS3505
ZGOW,2001-06-06 12:00,ZGOW 061200Z AUTO 22004KT 9SM 25/24 A2977 RMK 60020 SLP080 T02540241 52011 IEM_DS3505
ZGOW,2001-06-06 13:00,ZGOW 061300Z AUTO 12002KT 6SM 25/25 A2977 RMK SLP084 T02500250 IEM_DS3505
ZGOW,2001-06-06 14:00,ZGOW 061400Z AUTO 25/24 A2980 RMK SLP094 T02500240 IEM_DS3505
ZGOW,2001-06-06 15:00,ZGOW 061500Z AUTO 00000KT 9SM 25/24 A2980 RMK SLP087 T02490240 52007 IEM_DS3505
ZGOW,2001-06-06 16:00,ZGOW 061600Z AUTO 25/25 A2977 RMK SLP084 T02500250 IEM_DS3505
ZGOW,2001-06-06 18:00,ZGOW 061800Z AUTO 00000KT 8SM 25/24 A2975 RMK SLP077 T02510242 57010 IEM_DS3505
ZGOW,2001-06-06 21:00,ZGOW 062100Z AUTO 00000KT 7SM 25/24 A2974 RMK 70039 SLP075 T02500243 57002 IEM_DS3505
ZGOW,2001-06-06 22:00,ZGOW 062200Z AUTO 6SM 25/25 A2977 RMK SLP084 T02500250 IEM_DS3505
ZGOW,2001-06-06 23:00,ZGOW 062300Z AUTO 35002KT 25/25 A2977 RMK SLP084 T02500250 IEM_DS3505
ZGOW,2001-06-07 00:00,ZGOW 070000Z AUTO 07004KT 4SM 25/24 A2980 RMK 60039 SLP085 T02480242 52010 IEM_DS3505
ZGOW,2001-06-07 01:00,ZGOW 070100Z AUTO 30004KT 6SM 25/25 A2980 RMK SLP094 T02500250 IEM_DS3505
ZGOW,2001-06-07 02:00,ZGOW 070200Z AUTO 35004KT 25/25 A2980 RMK SLP094 T02500250 IEM_DS3505
ZGOW,2001-06-07 03:00,ZGOW 070300Z AUTO 20002KT 6SM 25/24 A2980 RMK SLP082 T02530241 57003 IEM_DS3505
ZGOW,2001-06-07 04:00,ZGOW 070400Z AUTO 6SM 26/26 A2977 RMK SLP084 T02600260 IEM_DS3505
ZGOW,2001-06-07 05:00,ZGOW 070500Z AUTO 27/26 A2977 RMK SLP084 T02700260 IEM_DS3505
ZGOW,2001-06-07 06:00,ZGOW 070600Z AUTO 25004KT 5SM 27/25 A2974 RMK 60067 SLP074 T02680252 57008 IEM_DS3505
ZGOW,2001-06-07 07:00,ZGOW 070700Z AUTO 18006KT 6SM 26/26 A2974 RMK SLP074 T02600260 IEM_DS3505
ZGOW,2001-06-07 08:00,ZGOW 070800Z AUTO 22008KT 6SM 25/24 A2974 RMK SLP074 T02500240 IEM_DS3505
ZGOW,2001-06-07 09:00,ZGOW 070900Z AUTO 25006KT 11SM 25/23 A2974 RMK SLP068 T02460231 57006 IEM_DS3505
ZGOW,2001-06-07 10:00,ZGOW 071000Z AUTO 28002KT 16SM 25/24 A2971 RMK SLP064 T02500240 IEM_DS3505
ZGOW,2001-06-07 11:00,ZGOW 071100Z AUTO 28002KT 6SM 25/24 A2974 RMK SLP074 T02500240 IEM_DS3505
ZGOW,2001-06-07 12:00,ZGOW 071200Z AUTO 00000KT 9SM 24/24 A2973 RMK 60094 SLP071 T02410235 52003 IEM_DS3505
ZGOW,2001-06-07 13:00,ZGOW 071300Z AUTO 14002KT 6SM 24/24 A2977 RMK SLP084 T02400240 IEM_DS3505
ZGOW,2001-06-07 14:00,ZGOW 071400Z AUTO 6SM 24/24 A2980 RMK SLP094 T02400240 IEM_DS3505
ZGOW,2001-06-07 15:00,ZGOW 071500Z AUTO 00000KT 7SM 24/23 A2977 RMK SLP085 T02430234 52014 IEM_DS3505
ZGOW,2001-06-07 15:01,ZGOW 071501Z AUTO 12002KT 24/24 A2977 RMK SLP084 T02400240 IEM_DS3505
ZGOW,2001-06-07 16:00,ZGOW 071600Z AUTO 24/24 A2977 RMK SLP084 T02400240 IEM_DS3505
ZGOW,2001-06-07 17:00,ZGOW 071700Z AUTO 10004KT 24/24 A2977 RMK SLP084 T02400240 IEM_DS3505
ZGOW,2001-06-07 18:00,ZGOW 071800Z AUTO 00000KT 7SM 24/24 A2974 RMK SLP070 T02440238 57015 IEM_DS3505
ZGOW,2001-06-07 19:00,ZGOW 071900Z AUTO 11002KT 24/24 A2974 RMK SLP074 T02400240 IEM_DS3505
ZGOW,2001-06-07 20:00,ZGOW 072000Z AUTO 24/24 A2971 RMK SLP064 T02400240 IEM_DS3505
ZGOW,2001-06-07 21:00,ZGOW 072100Z AUTO 00000KT 8SM 25/24 A2971 RMK 70202 SLP063 T02460240 57007 IEM_DS3505
ZGOW,2001-06-07 22:00,ZGOW 072200Z AUTO 34002KT 9SM 24/24 A2971 RMK SLP064 T02400240 IEM_DS3505
ZGOW,2001-06-07 23:00,ZGOW 072300Z AUTO 08002KT 25/25 A2974 RMK SLP074 T02500250 IEM_DS3505
ZGOW,2001-06-08 00:00,ZGOW 080000Z AUTO 04004KT 7SM 25/25 A2974 RMK 60016 SLP073 T02540248 52010 IEM_DS3505
ZGOW,2001-06-08 01:00,ZGOW 080100Z AUTO 6SM 26/26 A2977 RMK SLP084 T02600260 IEM_DS3505
ZGOW,2001-06-08 02:00,ZGOW 080200Z AUTO 25006KT 6SM 25/25 A2977 RMK SLP084 T02500250 IEM_DS3505
ZGOW,2001-06-08 03:00,ZGOW 080300Z AUTO 29004KT 4SM 26/25 A2977 RMK SLP082 T02640254 52009 IEM_DS3505
ZGOW,2001-06-08 04:00,ZGOW 080400Z AUTO 31006KT 6SM 26/25 A2977 RMK SLP084 T02600250 IEM_DS3505
ZGOW,2001-06-08 05:00,ZGOW 080500Z AUTO 21004KT 16SM 25/25 A2977 RMK SLP084 T02500250 IEM_DS3505
ZGOW,2001-06-08 06:00,ZGOW 080600Z AUTO 25004KT 4SM 23/23 A2977 RMK 60280 SLP074 T02340230 57008 IEM_DS3505
ZGOW,2001-06-08 07:00,ZGOW 080700Z AUTO 6SM 24/24 A2974 RMK SLP074 T02400240 IEM_DS3505
ZGOW,2001-06-08 08:00,ZGOW 080800Z AUTO 25/25 A2971 RMK SLP064 T02500250 IEM_DS3505
ZGOW,2001-06-08 09:00,ZGOW 080900Z AUTO 00000KT 8SM 26/24 A2971 RMK SLP062 T02550239 57012 IEM_DS3505
ZGOW,2001-06-08 10:00,ZGOW 081000Z AUTO 16002KT 26/25 A2974 RMK SLP074 T02600250 IEM_DS3505
ZGOW,2001-06-08 11:00,ZGOW 081100Z AUTO 12004KT RMK IEM_DS3505
ZGOW,2001-06-08 12:00,ZGOW 081200Z AUTO 16002KT 12SM 25/24 A2973 RMK 60016 SLP071 T02520243 52009 IEM_DS3505
ZGOW,2001-06-08 13:00,ZGOW 081300Z AUTO 08002KT 25/24 A2977 RMK SLP084 T02500240 IEM_DS3505
ZGOW,2001-06-08 14:00,ZGOW 081400Z AUTO 08002KT 6SM 25/24 A2977 RMK SLP084 T02500240 IEM_DS3505
ZGOW,2001-06-08 15:00,ZGOW 081500Z AUTO 04004KT 11SM 25/24 A2977 RMK SLP078 T02460240 52007 IEM_DS3505
ZGOW,2001-06-08 16:00,ZGOW 081600Z AUTO 6SM 24/24 A2977 RMK SLP084 T02400240 IEM_DS3505
ZGOW,2001-06-08 17:00,ZGOW 081700Z AUTO 12002KT 24/24 A2974 RMK SLP074 T02400240 IEM_DS3505
ZGOW,2001-06-08 18:00,ZGOW 081800Z AUTO 00000KT 8SM 24/24 A2974 RMK 60000 SLP071 T02440241 57007 IEM_DS3505
ZGOW,2001-06-08 19:00,ZGOW 081900Z AUTO 08002KT 24/24 A2974 RMK SLP074 T02400240 IEM_DS3505
ZGOW,2001-06-08 20:00,ZGOW 082000Z AUTO 07004KT 24/24 A2974 RMK SLP074 T02400240 IEM_DS3505
ZGOW,2001-06-08 21:00,ZGOW 082100Z AUTO 04004KT 8SM 24/24 A2972 RMK 70306 SLP067 T02450239 57004 IEM_DS3505
ZGOW,2001-06-08 22:00,ZGOW 082200Z AUTO 24/24 A2974 RMK SLP074 T02400240 IEM_DS3505
ZGOW,2001-06-08 23:00,ZGOW 082300Z AUTO 05002KT 6SM 26/26 A2974 RMK SLP074 T02600260 IEM_DS3505
ZGOW,2001-06-09 00:00,ZGOW 090000Z AUTO 07002KT 7SM 26/25 A2977 RMK 60004 SLP080 T02560247 52013 IEM_DS3505
ZGOW,2001-06-09 03:00,ZGOW 090300Z AUTO 20004KT 7SM 28/26 A2977 RMK SLP084 T02820255 52004 IEM_DS3505
ZGOW,2001-06-09 04:00,ZGOW 090400Z AUTO 17006KT 6SM RMK IEM_DS3505
ZGOW,2001-06-09 05:00,ZGOW 090500Z AUTO 27010KT 6SM 26/25 A2977 RMK SLP084 T02600250 IEM_DS3505
ZGOW,2001-06-09 06:00,ZGOW 090600Z AUTO 27004KT 7SM 25/24 A2977 RMK 60031 SLP076 T02520240 57008 IEM_DS3505
ZGOW,2001-06-09 07:00,ZGOW 090700Z AUTO 27004KT 26/25 A2974 RMK SLP074 T02600250 IEM_DS3505
ZGOW,2001-06-09 08:00,ZGOW 090800Z AUTO 19006KT 25/24 A2974 RMK SLP074 T02500240 IEM_DS3505
ZGOW,2001-06-09 09:00,ZGOW 090900Z AUTO 18004KT 9SM 25/24 A2974 RMK SLP067 T02510239 57009 IEM_DS3505
ZGOW,2001-06-09 10:00,ZGOW 091000Z AUTO 16004KT 6SM 25/25 A2971 RMK SLP064 T02500250 IEM_DS3505
ZGOW,2001-06-09 12:00,ZGOW 091200Z AUTO 00000KT 9SM 25/24 A2971 RMK 60031 SLP063 T02470241 57004 IEM_DS3505
ZGOW,2001-06-09 13:00,ZGOW 091300Z AUTO 13002KT 19SM 24/24 A2974 RMK SLP074 T02400240 IEM_DS3505
ZGOW,2001-06-09 14:02,ZGOW 091402Z AUTO 11002KT 24/24 A2977 RMK SLP084 T02400240 IEM_DS3505
ZGOW,2001-06-09 15:00,ZGOW 091500Z AUTO 04002KT 5SM 24/24 A2977 RMK SLP083 T02450242 52020 IEM_DS3505
ZGOW,2001-06-09 16:00,ZGOW 091600Z AUTO 24/24 A2977 RMK SLP084 T02400240 IEM_DS3505
ZGOW,2001-06-09 17:00,ZGOW 091700Z AUTO 24/24 A2974 RMK SLP074 T02400240 IEM_DS3505
ZGOW,2001-06-09 18:00,ZGOW 091800Z AUTO 00000KT 5SM 24/24 A2974 RMK SLP069 T02450242 57014 IEM_DS3505
ZGOW,2001-06-09 19:00,ZGOW 091900Z AUTO 07002KT 25/25 A2971 RMK SLP064 T02500250 IEM_DS3505
ZGOW,2001-06-09 20:00,ZGOW 092000Z AUTO 25/25 A2971 RMK SLP064 T02500250 IEM_DS3505
ZGOW,2001-06-09 21:00,ZGOW 092100Z AUTO 00000KT 4SM 25/24 A2971 RMK 70065 SLP064 T02470243 57005 IEM_DS3505
ZGOW,2001-06-09 22:00,ZGOW 092200Z AUTO 04002KT 6SM 25/25 A2974 RMK SLP074 T02500250 IEM_DS3505
ZGOW,2001-06-09 23:00,ZGOW 092300Z AUTO 20002KT 25/25 A2974 RMK SLP074 T02500250 IEM_DS3505
ZGOW,2001-06-10 00:00,ZGOW 100000Z AUTO 00000KT 5SM 25/25 A2974 RMK 60031 SLP073 T02540248 52009 IEM_DS3505
ZGOW,2001-06-10 01:00,ZGOW 100100Z AUTO 19SM 26/26 A2977 RMK SLP084 T02600260 IEM_DS3505
ZGOW,2001-06-10 02:00,ZGOW 100200Z AUTO 19008KT 29/27 A2974 RMK SLP074 T02900270 IEM_DS3505
ZGOW,2001-06-10 03:00,ZGOW 100300Z AUTO 22008KT 16SM 30/26 A2974 RMK SLP067 T02960257 57006 IEM_DS3505
ZGOW,2001-06-10 04:00,ZGOW 100400Z AUTO 24006KT 6SM 24/24 A2977 RMK SLP084 T02400240 IEM_DS3505
ZGOW,2001-06-10 05:00,ZGOW 100500Z AUTO 6SM 25/25 A2974 RMK SLP074 T02500250 IEM_DS3505
ZGOW,2001-06-10 06:00,ZGOW 100600Z AUTO 00000KT 10SM 25/24 A2972 RMK 60035 SLP069 T02530241 52002 IEM_DS3505
ZGOW,2001-06-10 08:00,ZGOW 100800Z AUTO 15SM 26/25 A2968 RMK SLP054 T02600250 IEM_DS3505
ZGOW,2001-06-10 09:00,ZGOW 100900Z AUTO 32002KT 11SM 27/24 A2968 RMK SLP055 T02670238 57014 IEM_DS3505
ZGOW,2001-06-10 10:00,ZGOW 101000Z AUTO 12004KT 12SM 26/25 A2968 RMK SLP054 T02600250 IEM_DS3505
ZGOW,2001-06-10 11:00,ZGOW 101100Z AUTO 26/25 A2968 RMK SLP054 T02600250 IEM_DS3505
ZGOW,2001-06-10 12:00,ZGOW 101200Z AUTO 09002KT 9SM 26/25 A2971 RMK 60000 SLP059 T02600247 52004 IEM_DS3505
ZGOW,2001-06-10 13:00,ZGOW 101300Z AUTO 17002KT 6SM 25/25 A2971 RMK SLP064 T02500250 IEM_DS3505
ZGOW,2001-06-10 14:00,ZGOW 101400Z AUTO 6SM 25/24 A2974 RMK SLP074 T02500240 IEM_DS3505
ZGOW,2001-06-10 15:00,ZGOW 101500Z AUTO 00000KT 7SM 25/24 A2974 RMK SLP070 T02510245 52011 IEM_DS3505
ZGOW,2001-06-10 16:00,ZGOW 101600Z AUTO 24/24 A2974 RMK SLP074 T02400240 IEM_DS3505
ZGOW,2001-06-10 17:00,ZGOW 101700Z AUTO 24/24 A2974 RMK SLP074 T02400240 IEM_DS3505
ZGOW,2001-06-10 18:00,ZGOW 101800Z AUTO 00000KT 2 1/2SM 25/24 A2971 RMK SLP060 T02460243 57010 IEM_DS3505
ZGOW,2001-06-10 19:00,ZGOW 101900Z AUTO 24/24 A2971 RMK SLP064 T02400240 IEM_DS3505
ZGOW,2001-06-10 20:00,ZGOW 102000Z AUTO 24/24 A2971 RMK SLP064 T02400240 IEM_DS3505
ZGOW,2001-06-10 21:00,ZGOW 102100Z AUTO 00000KT 1 1/4SM 25/24 A2971 RMK 70067 SLP060 T02460243 54000 IEM_DS3505
ZGOW,2001-06-10 22:00,ZGOW 102200Z AUTO 20SM 24/24 A2971 RMK SLP064 T02400240 IEM_DS3505
ZGOW,2001-06-10 23:00,ZGOW 102300Z AUTO 7SM 26/26 A2974 RMK SLP074 T02600260 IEM_DS3505
ZGOW,2001-06-11 00:00,ZGOW 110000Z AUTO 00000KT 1 1/4SM 26/25 A2975 RMK 60008 SLP076 T02600253 52016 IEM_DS3505
ZGOW,2001-06-11 01:00,ZGOW 110100Z AUTO 29002KT 6SM 26/26 A2974 RMK SLP074 T02600260 IEM_DS3505
ZGOW,2001-06-11 02:00,ZGOW 110200Z AUTO 32002KT 7SM 27/26 A2974 RMK SLP074 T02700260 IEM_DS3505
ZGOW,2001-06-11 03:00,ZGOW 110300Z AUTO 22006KT 6SM 27/25 A2974 RMK SLP075 T02720248 57001 IEM_DS3505
ZGOW,2001-06-11 04:00,ZGOW 110400Z AUTO 25008KT 6SM RMK IEM_DS3505
ZGOW,2001-06-11 06:00,ZGOW 110600Z AUTO 22010KT 11SM 30/25 A2971 RMK 60012 SLP064 T02960252 57011 IEM_DS3505
ZGOW,2001-06-11 07:00,ZGOW 110700Z AUTO 24008KT 6SM RMK IEM_DS3505
ZGOW,2001-06-11 08:00,ZGOW 110800Z AUTO 24010KT 6SM RMK IEM_DS3505
ZGOW,2001-06-11 09:00,ZGOW 110900Z AUTO 18006KT 12SM 29/24 A2965 RMK SLP047 T02920244 57017 IEM_DS3505
ZGOW,2001-06-11 10:00,ZGOW 111000Z AUTO 21004KT 5SM 29/26 A2968 RMK SLP054 T02900260 IEM_DS3505
ZGOW,2001-06-11 11:00,ZGOW 111100Z AUTO 19006KT 6SM 28/26 A2971 RMK SLP064 T02800260 IEM_DS3505
ZGOW,2001-06-11 12:00,ZGOW 111200Z AUTO 22002KT 11SM 27/25 A2971 RMK SLP064 T02730246 52017 IEM_DS3505
ZGOW,2001-06-11 13:00,ZGOW 111300Z AUTO 6SM 26/25 A2974 RMK SLP074 T02600250 IEM_DS3505
ZGOW,2001-06-11 14:00,ZGOW 111400Z AUTO 17004KT 6SM 26/25 A2974 RMK SLP074 T02600250 IEM_DS3505
ZGOW,2001-06-11 15:00,ZGOW 111500Z AUTO 18004KT 10SM 26/24 A2974 RMK SLP073 T02610239 52009 IEM_DS3505
ZGOW,2001-06-11 16:00,ZGOW 111600Z AUTO 25/25 A2974 RMK SLP074 T02500250 IEM_DS3505
ZGOW,2001-06-11 17:00,ZGOW 111700Z AUTO 25/25 A2974 RMK SLP074 T02500250 IEM_DS3505
ZGOW,2001-06-11 18:00,ZGOW 111800Z AUTO 27002KT 9SM 25/24 A2974 RMK SLP070 T02520238 57003 IEM_DS3505
ZGOW,2001-06-11 19:00,ZGOW 111900Z AUTO 24/24 A2974 RMK SLP074 T02400240 IEM_DS3505
ZGOW,2001-06-11 20:00,ZGOW 112000Z AUTO 25/24 A2971 RMK SLP064 T02500240 IEM_DS3505
ZGOW,2001-06-11 21:00,ZGOW 112100Z AUTO 22002KT 9SM 25/24 A2971 RMK 70013 SLP068 T02480236 57002 IEM_DS3505
ZGOW,2001-06-11 22:00,ZGOW 112200Z AUTO 29002KT 6SM 25/25 A2974 RMK SLP074 T02500250 IEM_DS3505
ZGOW,2001-06-11 23:00,ZGOW 112300Z AUTO 6SM RMK IEM_DS3505
ZGOW,2001-06-12 00:00,ZGOW 120000Z AUTO 22006KT 12SM 27/24 A2973 RMK 70013 SLP072 T02700244 52004 IEM_DS3505
ZGOW,2001-06-12 01:00,ZGOW 120100Z AUTO 23008KT RMK IEM_DS3505
ZGOW,2001-06-12 02:00,ZGOW 120200Z AUTO 25008KT 6SM 29/26 A2974 RMK SLP074 T02900260 IEM_DS3505
ZGOW,2001-06-12 03:00,ZGOW 120300Z AUTO 22016KT 16SM 30/24 A2972 RMK SLP067 T02990242 57005 IEM_DS3505
ZGOW,2001-06-12 04:00,ZGOW 120400Z AUTO 24014KT 20SM 29/25 A2971 RMK SLP064 T02900250 IEM_DS3505
ZGOW,2001-06-12 05:00,ZGOW 120500Z AUTO 24014KT 30/25 A2971 RMK SLP064 T03000250 IEM_DS3505
ZGOW,2001-06-12 06:00,ZGOW 120600Z AUTO 22008KT 17SM 29/24 A2968 RMK SLP049 T02930243 57018 IEM_DS3505
ZGOW,2001-06-12 07:00,ZGOW 120700Z AUTO 24010KT 31/26 A2965 RMK SLP044 T03100260 IEM_DS3505
ZGOW,2001-06-12 08:00,ZGOW 120800Z AUTO 23012KT 6SM 30/25 A2965 RMK SLP044 T03000250 IEM_DS3505
ZGOW,2001-06-12 09:00,ZGOW 120900Z AUTO 22010KT 17SM 29/24 A2964 RMK SLP039 T02910244 57010 IEM_DS3505
ZGOW,2001-06-12 10:00,ZGOW 121000Z AUTO 20008KT 29/26 A2965 RMK SLP044 T02900260 IEM_DS3505
ZGOW,2001-06-12 11:00,ZGOW 121100Z AUTO 19008KT 6SM 28/26 A2965 RMK SLP044 T02800260 IEM_DS3505
ZGOW,2001-06-12 12:00,ZGOW 121200Z AUTO 22004KT 14SM 28/25 A2965 RMK SLP046 T02780248 52007 IEM_DS3505
ZGOW,2001-06-12 13:00,ZGOW 121300Z AUTO 20006KT 6SM RMK IEM_DS3505
ZGOW,2001-06-12 14:00,ZGOW 121400Z AUTO 22006KT 6SM 27/26 A2968 RMK SLP054 T02700260 IEM_DS3505
ZGOW,2001-06-12 15:00,ZGOW 121500Z AUTO 18006KT 12SM 27/24 A2968 RMK SLP055 T02680244 52009 IEM_DS3505
ZGOW,2001-06-12 16:00,ZGOW 121600Z AUTO 20006KT 26/25 A2968 RMK SLP054 T02600250 IEM_DS3505
ZGOW,2001-06-12 17:00,ZGOW 121700Z AUTO 18004KT 26/25 A2968 RMK SLP054 T02600250 IEM_DS3505
ZGOW,2001-06-12 18:00,ZGOW 121800Z AUTO 22006KT 11SM 26/25 A2965 RMK 60000 SLP042 T02650248 57013 IEM_DS3505
ZGOW,2001-06-12 19:00,ZGOW 121900Z AUTO 18004KT 26/26 A2965 RMK SLP044 T02600260 IEM_DS3505
ZGOW,2001-06-12 20:00,ZGOW 122000Z AUTO 22010KT 27/25 A2962 RMK SLP034 T02700250 IEM_DS3505
ZGOW,2001-06-12 21:00,ZGOW 122100Z AUTO 22010KT 9SM 26/24 A2962 RMK 70005 SLP033 T02580245 57009 IEM_DS3505
ZGOW,2001-06-12 22:00,ZGOW 122200Z AUTO 25006KT 6SM RMK IEM_DS3505
ZGOW,2001-06-12 23:00,ZGOW 122300Z AUTO 26004KT 15SM 26/26 A2965 RMK SLP044 T02600260 IEM_DS3505
ZGOW,2001-06-13 00:00,ZGOW 130000Z AUTO 22012KT 9SM 25/24 A2965 RMK 60094 SLP040 T02540245 52007 IEM_DS3505
ZGOW,2001-06-13 01:00,ZGOW 130100Z AUTO 19004KT 6SM 27/26 A2965 RMK SLP044 T02700260 IEM_DS3505
ZGOW,2001-06-13 02:00,ZGOW 130200Z AUTO 21008KT 30/28 A2962 RMK SLP034 T03000280 IEM_DS3505
ZGOW,2001-06-13 03:00,ZGOW 130300Z AUTO 27008KT 12SM 26/25 A2962 RMK SLP033 T02610251 57007 IEM_DS3505
ZGOW,2001-06-13 04:00,ZGOW 130400Z AUTO 22006KT 27/25 A2962 RMK SLP034 T02700250 IEM_DS3505
ZGOW,2001-06-13 05:00,ZGOW 130500Z AUTO 24012KT 6SM RMK IEM_DS3505
ZGOW,2001-06-13 06:00,ZGOW 130600Z AUTO 27008KT 12SM 27/25 A2959 RMK 60039 SLP020 T02720251 57013 IEM_DS3505
ZGOW,2001-06-13 07:00,ZGOW 130700Z AUTO 25006KT 6SM 27/26 A2956 RMK SLP013 T02700260 IEM_DS3505
ZGOW,2001-06-13 08:00,ZGOW 130800Z AUTO 23012KT 6SM 27/25 A2956 RMK SLP013 T02700250 IEM_DS3505
ZGOW,2001-06-13 09:00,ZGOW 130900Z AUTO 22014KT 11SM 27/24 A2955 RMK SLP011 T02720241 57009 IEM_DS3505
ZGOW,2001-06-13 10:00,ZGOW 131000Z AUTO 22006KT 31SM 27/25 A2956 RMK SLP013 T02700250 IEM_DS3505
ZGOW,2001-06-13 11:00,ZGOW 131100Z AUTO 20004KT 6SM 27/26 A2956 RMK SLP013 T02700260 IEM_DS3505
ZGOW,2001-06-13 12:00,ZGOW 131200Z AUTO 22010KT 9SM 28/24 A2956 RMK 60004 SLP015 T02750244 52004 IEM_DS3505
ZGOW,2001-06-13 13:00,ZGOW 131300Z AUTO 28004KT 6SM RMK IEM_DS3505
ZGOW,2001-06-13 14:00,ZGOW 131400Z AUTO 30008KT 25/24 A2962 RMK SLP034 T02500240 IEM_DS3505
ZGOW,2001-06-13 15:00,ZGOW 131500Z AUTO 04006KT 6SM 24/23 A2962 RMK SLP024 T02380232 52009 IEM_DS3505
ZGOW,2001-06-13 16:00,ZGOW 131600Z AUTO 12SM 23/23 A2959 RMK SLP023 T02300230 IEM_DS3505
ZGOW,2001-06-13 17:00,ZGOW 131700Z AUTO 06004KT 6SM 23/23 A2959 RMK SLP023 T02300230 IEM_DS3505
ZGOW,2001-06-13 18:00,ZGOW 131800Z AUTO 04004KT 6SM 24/23 A2956 RMK 60106 SLP012 T02370231 57012 IEM_DS3505
ZGOW,2001-06-13 19:00,ZGOW 131900Z AUTO 6SM RMK IEM_DS3505
ZGOW,2001-06-13 20:00,ZGOW 132000Z AUTO 34004KT 23/22 A2956 RMK SLP013 T02300220 IEM_DS3505
ZGOW,2001-06-13 21:00,ZGOW 132100Z AUTO 36004KT 7SM 22/21 A2956 RMK 70241 SLP015 T02250213 52003 IEM_DS3505
ZGOW,2001-06-13 22:00,ZGOW 132200Z AUTO 32006KT 7SM RMK IEM_DS3505
ZGOW,2001-06-13 23:00,ZGOW 132300Z AUTO 32008KT 6SM RMK IEM_DS3505
ZGOW,2001-06-14 00:00,ZGOW 140000Z AUTO 27004KT 7SM 23/22 A2962 RMK 60000 SLP032 T02280218 52017 IEM_DS3505
ZGOW,2001-06-14 01:00,ZGOW 140100Z AUTO 28004KT RMK IEM_DS3505
ZGOW,2001-06-14 02:00,ZGOW 140200Z AUTO 29004KT 6SM 25/23 A2962 RMK SLP034 T02500230 IEM_DS3505
ZGOW,2001-06-14 03:00,ZGOW 140300Z AUTO 22006KT 16SM 25/22 A2965 RMK SLP039 T02490218 52007 IEM_DS3505
ZGOW,2001-06-14 04:00,ZGOW 140400Z AUTO 24004KT 6SM 26/24 A2962 RMK SLP034 T02600240 IEM_DS3505
ZGOW,2001-06-14 05:00,ZGOW 140500Z AUTO 21002KT 3SM 27/24 A2962 RMK SLP034 T02700240 IEM_DS3505
ZGOW,2001-06-14 06:00,ZGOW 140600Z AUTO 22004KT 19SM 28/22 A2962 RMK 60000 SLP030 T02780222 57009 IEM_DS3505
ZGOW,2001-06-14 07:00,ZGOW 140700Z AUTO 22004KT 6SM 29/24 A2962 RMK SLP034 T02900240 IEM_DS3505
ZGOW,2001-06-14 08:00,ZGOW 140800Z AUTO 16008KT 6SM 28/25 A2962 RMK SLP034 T02800250 IEM_DS3505
ZGOW,2001-06-14 09:00,ZGOW 140900Z AUTO 18006KT 17SM 27/23 A2962 RMK SLP033 T02740229 52003 IEM_DS3505
ZGOW,2001-06-14 10:00,ZGOW 141000Z AUTO 19006KT 6SM 27/25 A2962 RMK SLP034 T02700250 IEM_DS3505
ZGOW,2001-06-14 11:00,ZGOW 141100Z AUTO 14002KT 6SM 26/24 A2965 RMK SLP044 T02600240 IEM_DS3505
ZGOW,2001-06-14 12:00,ZGOW 141200Z AUTO 18004KT 14SM 26/24 A2965 RMK SLP043 T02580235 52010 IEM_DS3505
ZGOW,2001-06-14 13:00,ZGOW 141300Z AUTO 17002KT 6SM 25/24 A2965 RMK SLP044 T02500240 IEM_DS3505
ZGOW,2001-06-14 14:00,ZGOW 141400Z AUTO 6SM 25/24 A2968 RMK SLP054 T02500240 IEM_DS3505
ZGOW,2001-06-14 15:00,ZGOW 141500Z AUTO 00000KT 12SM 25/23 A2968 RMK SLP054 T02490231 52011 IEM_DS3505
ZGOW,2001-06-14 16:00,ZGOW 141600Z AUTO 18002KT 25/24 A2968 RMK SLP054 T02500240 IEM_DS3505
ZGOW,2001-06-14 17:00,ZGOW 141700Z AUTO 19002KT 24/24 A2968 RMK SLP054 T02400240 IEM_DS3505
ZGOW,2001-06-14 18:00,ZGOW 141800Z AUTO 27004KT 9SM 25/23 A2968 RMK SLP048 T02460233 57006 IEM_DS3505
ZGOW,2001-06-14 19:00,ZGOW 141900Z AUTO 32004KT 24/24 A2968 RMK SLP054 T02400240 IEM_DS3505
ZGOW,2001-06-14 20:00,ZGOW 142000Z AUTO 33004KT 24/24 A2968 RMK SLP054 T02400240 IEM_DS3505
ZGOW,2001-06-14 21:00,ZGOW 142100Z AUTO 00000KT 5SM 24/23 A2968 RMK 70001 SLP055 T02360230 52007 IEM_DS3505
ZGOW,2001-06-14 22:00,ZGOW 142200Z AUTO 6SM 24/24 A2968 RMK SLP054 T02400240 IEM_DS3505
ZGOW,2001-06-14 23:00,ZGOW 142300Z AUTO 22SM 25/25 A2971 RMK SLP064 T02500250 IEM_DS3505
ZGOW,2001-06-15 00:00,ZGOW 150000Z AUTO 36004KT 5SM 26/24 A2971 RMK 70001 SLP067 T02610239 52012 IEM_DS3505
ZGOW,2001-06-15 01:00,ZGOW 150100Z AUTO 6SM 27/25 A2974 RMK SLP074 T02700250 IEM_DS3505
ZGOW,2001-06-15 02:00,ZGOW 150200Z AUTO 20002KT 4SM 29/26 A2971 RMK SLP064 T02900260 IEM_DS3505
ZGOW,2001-06-15 03:00,ZGOW 150300Z AUTO 27006KT 6SM 29/24 A2974 RMK SLP066 T02940238 57001 IEM_DS3505
ZGOW,2001-06-15 04:00,ZGOW 150400Z AUTO 15008KT 28/26 A2971 RMK SLP064 T02800260 IEM_DS3505
ZGOW,2001-06-15 05:00,ZGOW 150500Z AUTO 16008KT RMK IEM_DS3505
ZGOW,2001-06-15 06:00,ZGOW 150600Z AUTO 18006KT 9SM 28/25 A2969 RMK 60003 SLP058 T02790246 57008 IEM_DS3505
ZGOW,2001-06-15 07:00,ZGOW 150700Z AUTO 15006KT 6SM 28/26 A2968 RMK SLP054 T02800260 IEM_DS3505
ZGOW,2001-06-15 08:00,ZGOW 150800Z AUTO 14006KT 6SM 29/27 A2968 RMK SLP054 T02900270 IEM_DS3505
ZGOW,2001-06-15 09:00,ZGOW 150900Z AUTO 14006KT 11SM 28/25 A2965 RMK SLP044 T02820251 57014 IEM_DS3505
ZGOW,2001-06-15 10:00,ZGOW 151000Z AUTO 15006KT 6SM 28/26 A2968 RMK SLP054 T02800260 IEM_DS3505
ZGOW,2001-06-15 11:00,ZGOW 151100Z AUTO 13004KT 6SM 27/26 A2968 RMK SLP054 T02700260 IEM_DS3505
ZGOW,2001-06-15 12:00,ZGOW 151200Z AUTO 18004KT 9SM 27/25 A2969 RMK 60003 SLP057 T02720246 52013 IEM_DS3505
ZGOW,2001-06-15 14:00,ZGOW 151400Z AUTO 13006KT 6SM 26/26 A2974 RMK SLP074 T02600260 IEM_DS3505
ZGOW,2001-06-15 15:00,ZGOW 151500Z AUTO 18004KT 7SM 27/26 A2972 RMK SLP068 T02710258 52011 IEM_DS3505
ZGOW,2001-06-15 16:00,ZGOW 151600Z AUTO 17006KT 27/27 A2974 RMK SLP074 T02700270 IEM_DS3505
ZGOW,2001-06-15 17:00,ZGOW 151700Z AUTO 16004KT 27/27 A2971 RMK SLP064 T02700270 IEM_DS3505
ZGOW,2001-06-15 18:00,ZGOW 151800Z AUTO 18006KT 7SM 27/26 A2968 RMK 60012 SLP054 T02700257 57014 IEM_DS3505
ZGOW,2001-06-15 19:00,ZGOW 151900Z AUTO 19008KT 27/26 A2968 RMK SLP054 T02700260 IEM_DS3505
ZGOW,2001-06-15 20:00,ZGOW 152000Z AUTO 20002KT 27/26 A2968 RMK SLP054 T02700260 IEM_DS3505
ZGOW,2001-06-15 21:00,ZGOW 152100Z AUTO 18004KT 9SM 27/26 A2971 RMK 70011 SLP056 T02670257 52002 IEM_DS3505
ZGOW,2001-06-15 22:00,ZGOW 152200Z AUTO 17004KT 6SM 27/26 A2971 RMK SLP064 T02700260 IEM_DS3505
ZGOW,2001-06-15 23:00,ZGOW 152300Z AUTO 17006KT 6SM 27/27 A2971 RMK SLP064 T02700270 IEM_DS3505
ZGOW,2001-06-16 00:00,ZGOW 160000Z AUTO 22006KT 11SM 29/26 A2972 RMK 60000 SLP066 T02860258 52010 IEM_DS3505
ZGOW,2001-06-16 01:00,ZGOW 160100Z AUTO 20008KT 6SM RMK IEM_DS3505
ZGOW,2001-06-16 02:00,ZGOW 160200Z AUTO 19008KT 6SM RMK IEM_DS3505
ZGOW,2001-06-16 03:00,ZGOW 160300Z AUTO 18006KT 10SM 29/26 A2974 RMK SLP073 T02930265 52007 IEM_DS3505
ZGOW,2001-06-16 04:00,ZGOW 160400Z AUTO 15010KT 6SM 30/27 A2974 RMK SLP074 T03000270 IEM_DS3505
ZGOW,2001-06-16 05:00,ZGOW 160500Z AUTO 16010KT 6SM 30/28 A2971 RMK SLP064 T03000280 IEM_DS3505
ZGOW,2001-06-16 06:00,ZGOW 160600Z AUTO 16012KT 12SM 30/28 A2971 RMK SLP064 T03000280 IEM_DS3505
ZGOW,2001-06-16 07:00,ZGOW 160700Z AUTO 16012KT 15SM 29/28 A2968 RMK SLP054 T02900280 IEM_DS3505
ZGOW,2001-06-16 08:00,ZGOW 160800Z AUTO 17010KT 6SM 29/28 A2968 RMK SLP054 T02900280 IEM_DS3505
ZGOW,2001-06-16 09:00,ZGOW 160900Z AUTO 14006KT 19SM 29/26 A2968 RMK SLP053 T02920264 57008 IEM_DS3505
ZGOW,2001-06-16 10:00,ZGOW 161000Z AUTO 16006KT 6SM RMK IEM_DS3505
ZGOW,2001-06-16 11:00,ZGOW 161100Z AUTO 15006KT 6SM RMK IEM_DS3505
ZGOW,2001-06-16 12:00,ZGOW 161200Z AUTO 18006KT 12SM 28/26 A2971 RMK SLP064 T02800258 52011 IEM_DS3505
ZGOW,2001-06-16 13:00,ZGOW 161300Z AUTO 16002KT 6SM RMK IEM_DS3505
ZGOW,2001-06-16 14:00,ZGOW 161400Z AUTO 16004KT 28/27 A2977 RMK SLP084 T02800270 IEM_DS3505
ZGOW,2001-06-16 15:00,ZGOW 161500Z AUTO 14008KT 10SM 28/26 A2974 RMK SLP075 T02780263 52011 IEM_DS3505
ZGOW,2001-06-16 16:00,ZGOW 161600Z AUTO 15002KT 27/27 A2974 RMK SLP074 T02700270 IEM_DS3505
ZGOW,2001-06-16 17:00,ZGOW 161700Z AUTO 15004KT 27/27 A2974 RMK SLP074 T02700270 IEM_DS3505
ZGOW,2001-06-16 18:00,ZGOW 161800Z AUTO 18006KT 9SM 28/26 A2971 RMK 60003 SLP063 T02750260 57012 IEM_DS3505
ZGOW,2001-06-16 20:00,ZGOW 162000Z AUTO 19002KT 27/27 A2971 RMK SLP064 T02700270 IEM_DS3505
ZGOW,2001-06-16 21:00,ZGOW 162100Z AUTO 18004KT 8SM 27/26 A2974 RMK 70003 SLP067 T02690255 52004 IEM_DS3505
ZGOW,2001-06-16 22:00,ZGOW 162200Z AUTO 19002KT RMK IEM_DS3505
ZGOW,2001-06-16 23:00,ZGOW 162300Z AUTO 20002KT 6SM RMK IEM_DS3505
ZGOW,2001-06-17 00:00,ZGOW 170000Z AUTO 22006KT 12SM 28/25 A2977 RMK 70003 SLP085 T02850254 52018 IEM_DS3505
ZGOW,2001-06-17 01:00,ZGOW 170100Z AUTO 17006KT 6SM RMK IEM_DS3505
ZGOW,2001-06-17 02:00,ZGOW 170200Z AUTO 17008KT RMK IEM_DS3505
ZGOW,2001-06-17 03:00,ZGOW 170300Z AUTO 14006KT 19SM 31/25 A2977 RMK SLP084 T03100254 57001 IEM_DS3505
ZGOW,2001-06-17 04:00,ZGOW 170400Z AUTO 18010KT 31/27 A2974 RMK SLP074 T03100270 IEM_DS3505
ZGOW,2001-06-17 05:00,ZGOW 170500Z AUTO 18010KT RMK IEM_DS3505
ZGOW,2001-06-17 06:00,ZGOW 170600Z AUTO 18008KT 19SM 32/25 A2970 RMK 60003 SLP061 T03150252 57023 IEM_DS3505
ZGOW,2001-06-17 07:00,ZGOW 170700Z AUTO 18012KT 4SM 32/27 A2971 RMK SLP064 T03200270 IEM_DS3505
ZGOW,2001-06-17 08:00,ZGOW 170800Z AUTO 17010KT 6SM RMK IEM_DS3505
ZGOW,2001-06-17 09:00,ZGOW 170900Z AUTO 18006KT 19SM 31/25 A2967 RMK SLP049 T03060251 57012 IEM_DS3505
ZGOW,2001-06-17 10:00,ZGOW 171000Z AUTO 17010KT 19SM RMK IEM_DS3505
ZGOW,2001-06-17 11:00,ZGOW 171100Z AUTO 18008KT 6SM RMK IEM_DS3505
ZGOW,2001-06-17 12:00,ZGOW 171200Z AUTO 18004KT 16SM 28/26 A2972 RMK SLP067 T02830261 52018 IEM_DS3505
ZGOW,2001-06-17 13:00,ZGOW 171300Z AUTO 13004KT 37SM 28/27 A2974 RMK SLP074 T02800270 IEM_DS3505
ZGOW,2001-06-17 14:00,ZGOW 171400Z AUTO 16004KT 27/27 A2974 RMK SLP074 T02700270 IEM_DS3505
ZGOW,2001-06-17 15:00,ZGOW 171500Z AUTO 14006KT 11SM 28/26 A2974 RMK SLP074 T02790261 52007 IEM_DS3505
ZGOW,2001-06-17 16:00,ZGOW 171600Z AUTO 27/27 A2974 RMK SLP074 T02700270 IEM_DS3505
ZGOW,2001-06-17 17:00,ZGOW 171700Z AUTO 07002KT A2971 RMK IEM_DS3505
ZGOW,2001-06-17 18:00,ZGOW 171800Z AUTO 18002KT 10SM 27/26 A2968 RMK SLP056 T02730258 57018 IEM_DS3505
ZGOW,2001-06-17 19:00,ZGOW 171900Z AUTO 13002KT 26/26 A2968 RMK SLP054 T02600260 IEM_DS3505
ZGOW,2001-06-17 21:00,ZGOW 172100Z AUTO 14002KT 10SM 27/26 A2968 RMK 70003 SLP053 T02670256 57003 IEM_DS3505
ZGOW,2001-06-17 22:00,ZGOW 172200Z AUTO 6SM 26/26 A2968 RMK SLP054 T02600260 IEM_DS3505
ZGOW,2001-06-17 23:00,ZGOW 172300Z AUTO 19004KT 6SM 28/27 A2971 RMK SLP064 T02800270 IEM_DS3505
ZGOW,2001-06-18 00:00,ZGOW 180000Z AUTO 27006KT 12SM 28/26 A2970 RMK 70003 SLP059 T02820255 52006 IEM_DS3505
ZGOW,2001-06-18 01:00,ZGOW 180100Z AUTO 26006KT 6SM RMK IEM_DS3505
ZGOW,2001-06-18 02:00,ZGOW 180200Z AUTO 21004KT 6SM 30/26 A2971 RMK SLP064 T03000260 IEM_DS3505
ZGOW,2001-06-18 03:00,ZGOW 180300Z AUTO 27008KT 16SM 31/24 A2971 RMK SLP058 T03120239 57001 IEM_DS3505
ZGOW,2001-06-18 04:00,ZGOW 180400Z AUTO 20008KT 6SM 32/26 A2968 RMK SLP054 T03200260 IEM_DS3505
ZGOW,2001-06-18 06:00,ZGOW 180600Z AUTO 18008KT 19SM 32/24 A2965 RMK SLP039 T03170242 57019 IEM_DS3505
ZGOW,2001-06-18 07:00,ZGOW 180700Z AUTO 18010KT 32/26 A2962 RMK SLP034 T03200260 IEM_DS3505
ZGOW,2001-06-18 08:00,ZGOW 180800Z AUTO 19010KT 32/26 A2959 RMK SLP023 T03200260 IEM_DS3505
ZGOW,2001-06-18 09:00,ZGOW 180900Z AUTO 18010KT 19SM 32/23 A2959 RMK SLP019 T03200231 57020 IEM_DS3505
ZGOW,2001-06-18 10:00,ZGOW 181000Z AUTO 21008KT 6SM 32/24 A2959 RMK SLP023 T03200240 IEM_DS3505
ZGOW,2001-06-18 11:00,ZGOW 181100Z AUTO 20006KT 6SM 30/25 A2959 RMK SLP023 T03000250 IEM_DS3505
ZGOW,2001-06-18 12:00,ZGOW 181200Z AUTO 22006KT 19SM 30/22 A2962 RMK SLP029 T02970223 52010 IEM_DS3505
ZGOW,2001-06-18 13:00,ZGOW 181300Z AUTO 19004KT 6SM 28/25 A2962 RMK SLP034 T02800250 IEM_DS3505
ZGOW,2001-06-18 14:00,ZGOW 181400Z AUTO 16004KT 6SM 28/25 A2962 RMK SLP034 T02800250 IEM_DS3505
ZGOW,2001-06-18 15:00,ZGOW 181500Z AUTO 22004KT 16SM 28/23 A2962 RMK SLP033 T02800234 52004 IEM_DS3505
ZGOW,2001-06-18 16:00,ZGOW 181600Z AUTO 27/25 A2962 RMK SLP034 T02700250 IEM_DS3505
ZGOW,2001-06-18 17:00,ZGOW 181700Z AUTO 29002KT 27/25 A2959 RMK SLP023 T02700250 IEM_DS3505
ZGOW,2001-06-18 18:00,ZGOW 181800Z AUTO 22002KT 14SM 27/24 A2957 RMK SLP015 T02670238 57018 IEM_DS3505
ZGOW,2001-06-18 19:00,ZGOW 181900Z AUTO 28002KT 27/25 A2956 RMK SLP013 T02700250 IEM_DS3505
ZGOW,2001-06-18 20:00,ZGOW 182000Z AUTO 26/25 A2956 RMK SLP013 T02600250 IEM_DS3505
ZGOW,2001-06-18 21:00,ZGOW 182100Z AUTO 27002KT 12SM 26/24 A2956 RMK SLP014 T02610238 57001 IEM_DS3505
ZGOW,2001-06-18 22:00,ZGOW 182200Z AUTO 30002KT 6SM 26/25 A2956 RMK SLP013 T02600250 IEM_DS3505
ZGOW,2001-06-18 23:00,ZGOW 182300Z AUTO 31004KT 6SM 27/25 A2959 RMK SLP023 T02700250 IEM_DS3505
ZGOW,2001-06-19 00:00,ZGOW 190000Z AUTO 27006KT 19SM 29/24 A2956 RMK SLP020 T02900239 52006 IEM_DS3505
ZGOW,2001-06-19 01:00,ZGOW 190100Z AUTO 29004KT 6SM 31/26 A2959 RMK SLP023 T03100260 IEM_DS3505
ZGOW,2001-06-19 02:00,ZGOW 190200Z AUTO 18002KT 6SM 32/26 A2959 RMK SLP023 T03200260 IEM_DS3505
ZGOW,2001-06-19 03:00,ZGOW 190300Z AUTO 22004KT 19SM 31/24 A2959 RMK SLP022 T03140235 52002 IEM_DS3505
ZGOW,2001-06-19 04:00,ZGOW 190400Z AUTO 15008KT 6SM 32/26 A2956 RMK SLP013 T03200260 IEM_DS3505
ZGOW,2001-06-19 05:00,ZGOW 190500Z AUTO 16008KT 6SM 32/27 A2953 RMK SLP003 T03200270 IEM_DS3505
ZGOW,2001-06-19 06:00,ZGOW 190600Z AUTO 18008KT 19SM 33/25 A2953 RMK SLP996 T03270252 57026 IEM_DS3505
ZGOW,2001-06-19 07:00,ZGOW 190700Z AUTO 16012KT 6SM 32/28 A2950 RMK SLP993 T03200280 IEM_DS3505
ZGOW,2001-06-19 08:00,ZGOW 190800Z AUTO 16012KT 6SM 32/28 A2950 RMK SLP993 T03200280 IEM_DS3505
ZGOW,2001-06-19 09:00,ZGOW 190900Z AUTO 18008KT 19SM 32/25 A2947 RMK SLP983 T03210253 57013 IEM_DS3505
ZGOW,2001-06-19 10:00,ZGOW 191000Z AUTO 19008KT 6SM 31/27 A2950 RMK SLP993 T03100270 IEM_DS3505
ZGOW,2001-06-19 11:00,ZGOW 191100Z AUTO 20008KT 6SM 30/27 A2950 RMK SLP993 T03000270 IEM_DS3505
ZGOW,2001-06-19 12:00,ZGOW 191200Z AUTO 22008KT 19SM 30/25 A2953 RMK SLP002 T02970248 52019 IEM_DS3505
ZGOW,2001-06-19 13:00,ZGOW 191300Z AUTO 29/26 A2956 RMK SLP013 T02900260 IEM_DS3505
ZGOW,2001-06-19 14:00,ZGOW 191400Z AUTO 31004KT 28/27 A2956 RMK SLP013 T02800270 IEM_DS3505
ZGOW,2001-06-19 15:00,ZGOW 191500Z AUTO 36004KT 12SM 28/25 A2959 RMK SLP021 T02830252 52019 IEM_DS3505
ZGOW,2001-06-19 16:00,ZGOW 191600Z AUTO 20002KT 27/27 A2959 RMK SLP023 T02700270 IEM_DS3505
ZGOW,2001-06-19 17:00,ZGOW 191700Z AUTO 24002KT 28/27 A2956 RMK SLP013 T02800270 IEM_DS3505
ZGOW,2001-06-19 18:00,ZGOW 191800Z AUTO 27004KT 9SM 28/26 A2956 RMK SLP013 T02810260 57008 IEM_DS3505
ZGOW,2001-06-19 19:00,ZGOW 191900Z AUTO 28/27 A2956 RMK SLP013 T02800270 IEM_DS3505
ZGOW,2001-06-19 20:00,ZGOW 192000Z AUTO 27/27 A2956 RMK SLP013 T02700270 IEM_DS3505
ZGOW,2001-06-19 21:00,ZGOW 192100Z AUTO 18004KT 9SM 28/25 A2957 RMK SLP015 T02820254 52002 IEM_DS3505
ZGOW,2001-06-19 23:00,ZGOW 192300Z AUTO 28/27 A2959 RMK SLP023 T02800270 IEM_DS3505
ZGOW,2001-06-20 00:00,ZGOW 200000Z AUTO 27004KT 9SM 29/26 A2960 RMK SLP028 T02900258 52013 IEM_DS3505
ZGOW,2001-06-20 01:00,ZGOW 200100Z AUTO 15004KT 6SM RMK IEM_DS3505
ZGOW,2001-06-20 02:00,ZGOW 200200Z AUTO 6SM RMK IEM_DS3505
ZGOW,2001-06-20 03:00,ZGOW 200300Z AUTO 18004KT 12SM 32/25 A2962 RMK SLP027 T03160253 57001 IEM_DS3505
ZGOW,2001-06-20 04:00,ZGOW 200400Z AUTO 19012KT 6SM 30/28 A2959 RMK SLP023 T03000280 IEM_DS3505
ZGOW,2001-06-20 06:00,ZGOW 200600Z AUTO 18008KT 16SM 31/26 A2957 RMK 60193 SLP016 T03090263 57011 IEM_DS3505
ZGOW,2001-06-20 07:00,ZGOW 200700Z AUTO 19010KT 15SM RMK IEM_DS3505
ZGOW,2001-06-20 08:00,ZGOW 200800Z AUTO 19012KT 17SM 29/27 A2956 RMK SLP013 T02900270 IEM_DS3505
ZGOW,2001-06-20 09:00,ZGOW 200900Z AUTO 18004KT 12SM 29/26 A2956 RMK SLP014 T02930255 57002 IEM_DS3505
ZGOW,2001-06-20 10:00,ZGOW 201000Z AUTO 19008KT 29/27 A2959 RMK SLP023 T02900270 IEM_DS3505
ZGOW,2001-06-20 11:00,ZGOW 201100Z AUTO 19006KT 6SM 29/27 A2959 RMK SLP023 T02900270 IEM_DS3505
ZGOW,2001-06-20 12:00,ZGOW 201200Z AUTO 22004KT 9SM 28/26 A2962 RMK 60003 SLP034 T02830256 52020 IEM_DS3505
ZGOW,2001-06-20 13:00,ZGOW 201300Z AUTO 18004KT 6SM 28/27 A2962 RMK SLP034 T02800270 IEM_DS3505
ZGOW,2001-06-20 14:00,ZGOW 201400Z AUTO 18004KT 27/27 A2965 RMK SLP044 T02700270 IEM_DS3505
ZGOW,2001-06-20 15:00,ZGOW 201500Z AUTO 18004KT 7SM 28/26 A2968 RMK SLP047 T02770256 52013 IEM_DS3505
ZGOW,2001-06-20 16:00,ZGOW 201600Z AUTO 13002KT 27/26 A2965 RMK SLP044 T02700260 IEM_DS3505
ZGOW,2001-06-20 17:00,ZGOW 201700Z AUTO 13002KT 26/26 A2965 RMK SLP044 T02600260 IEM_DS3505
ZGOW,2001-06-20 18:00,ZGOW 201800Z AUTO 18002KT 7SM 27/26 A2965 RMK SLP039 T02690256 57008 IEM_DS3505
ZGOW,2001-06-20 19:00,ZGOW 201900Z AUTO 15002KT 26/26 A2965 RMK SLP044 T02600260 IEM_DS3505
ZGOW,2001-06-20 20:00,ZGOW 202000Z AUTO 13002KT 26/26 A2965 RMK SLP044 T02600260 IEM_DS3505
ZGOW,2001-06-20 21:00,ZGOW 202100Z AUTO 00000KT 7SM 26/25 A2965 RMK 70192 SLP043 T02640253 52004 IEM_DS3505
ZGOW,2001-06-20 22:00,ZGOW 202200Z AUTO 08002KT 26/26 A2965 RMK SLP044 T02600260 IEM_DS3505
ZGOW,2001-06-20 23:00,ZGOW 202300Z AUTO 6SM 27/27 A2965 RMK SLP044 T02700270 IEM_DS3505
ZGOW,2001-06-21 00:00,ZGOW 210000Z AUTO 00000KT 6SM 30/26 A2965 RMK 70192 SLP043 T02960263 54000 IEM_DS3505
ZGOW,2001-06-21 01:00,ZGOW 210100Z AUTO 6SM 31/26 A2968 RMK SLP054 T03100260 IEM_DS3505
ZGOW,2001-06-21 02:00,ZGOW 210200Z AUTO 08004KT 6SM 30/27 A2968 RMK SLP054 T03000270 IEM_DS3505
ZGOW,2001-06-21 03:00,ZGOW 210300Z AUTO 14006KT 7SM 30/25 A2968 RMK SLP048 T03040248 52005 IEM_DS3505
ZGOW,2001-06-21 04:00,ZGOW 210400Z AUTO 13008KT 10SM 32/27 A2968 RMK SLP054 T03200270 IEM_DS3505
ZGOW,2001-06-21 05:00,ZGOW 210500Z AUTO 14008KT 6SM 31/27 A2965 RMK SLP044 T03100270 IEM_DS3505
ZGOW,2001-06-21 06:00,ZGOW 210600Z AUTO 09008KT 19SM 31/25 A2965 RMK SLP039 T03130254 57009 IEM_DS3505
ZGOW,2001-06-21 07:00,ZGOW 210700Z AUTO 14010KT 31/28 A2965 RMK SLP044 T03100280 IEM_DS3505
ZGOW,2001-06-21 08:00,ZGOW 210800Z AUTO 15010KT 6SM 31/28 A2962 RMK SLP034 T03100280 IEM_DS3505
ZGOW,2001-06-21 09:00,ZGOW 210900Z AUTO 18004KT 19SM 30/25 A2962 RMK SLP032 T03050250 57007 IEM_DS3505
ZGOW,2001-06-21 10:00,ZGOW 211000Z AUTO 13006KT 6SM 30/27 A2962 RMK SLP034 T03000270 IEM_DS3505
ZGOW,2001-06-21 11:00,ZGOW 211100Z AUTO 15006KT 6SM 28/26 A2965 RMK SLP044 T02800260 IEM_DS3505
ZGOW,2001-06-21 12:00,ZGOW 211200Z AUTO 18002KT 14SM 29/25 A2965 RMK SLP044 T02860246 52012 IEM_DS3505
ZGOW,2001-06-21 13:00,ZGOW 211300Z AUTO 14002KT 6SM 27/26 A2968 RMK SLP054 T02700260 IEM_DS3505
ZGOW,2001-06-21 14:00,ZGOW 211400Z AUTO 11002KT 6SM 27/27 A2971 RMK SLP064 T02700270 IEM_DS3505
ZGOW,2001-06-21 15:00,ZGOW 211500Z AUTO 18002KT 12SM 28/25 A2971 RMK SLP060 T02780253 52016 IEM_DS3505
ZGOW,2001-06-21 16:00,ZGOW 211600Z AUTO 27/26 A2971 RMK SLP064 T02700260 IEM_DS3505
ZGOW,2001-06-21 18:00,ZGOW 211800Z AUTO 04002KT 9SM 28/26 A2967 RMK SLP050 T02770262 57010 IEM_DS3505
ZGOW,2001-06-21 21:00,ZGOW 212100Z AUTO 04004KT 8SM 27/26 A2966 RMK SLP048 T02680255 57002 IEM_DS3505
ZGOW,2001-06-21 22:00,ZGOW 212200Z AUTO 03004KT RMK IEM_DS3505
ZGOW,2001-06-21 23:00,ZGOW 212300Z AUTO 05004KT 28/27 A2965 RMK SLP044 T02800270 IEM_DS3505
ZGOW,2001-06-22 00:00,ZGOW 220000Z AUTO 04004KT 11SM 29/25 A2967 RMK SLP052 T02910253 52004 IEM_DS3505
ZGOW,2001-06-22 01:00,ZGOW 220100Z AUTO 06008KT RMK IEM_DS3505
ZGOW,2001-06-22 02:00,ZGOW 220200Z AUTO 08008KT 31/27 A2968 RMK SLP054 T03100270 IEM_DS3505
ZGOW,2001-06-22 04:00,ZGOW 220400Z AUTO 08008KT 6SM RMK IEM_DS3505
ZGOW,2001-06-22 05:00,ZGOW 220500Z AUTO 15006KT 6SM RMK IEM_DS3505
ZGOW,2001-06-22 06:00,ZGOW 220600Z AUTO 14004KT 19SM 32/25 A2961 RMK SLP030 T03230252 57019 IEM_DS3505
ZGOW,2001-06-22 07:00,ZGOW 220700Z AUTO 13004KT 6SM 31/27 A2962 RMK SLP034 T03100270 IEM_DS3505
ZGOW,2001-06-22 08:00,ZGOW 220800Z AUTO 13010KT 6SM 30/27 A2959 RMK SLP023 T03000270 IEM_DS3505
ZGOW,2001-06-22 09:00,ZGOW 220900Z AUTO 14006KT 19SM 30/25 A2959 RMK SLP017 T03010246 57013 IEM_DS3505
ZGOW,2001-06-22 10:00,ZGOW 221000Z AUTO 12010KT 6SM 29/27 A2959 RMK SLP023 T02900270 IEM_DS3505
ZGOW,2001-06-22 11:00,ZGOW 221100Z AUTO 12006KT 6SM 27/26 A2959 RMK SLP023 T02700260 IEM_DS3505
ZGOW,2001-06-22 12:00,ZGOW 221200Z AUTO 09002KT 16SM 28/24 A2962 RMK SLP026 T02810243 52009 IEM_DS3505
ZGOW,2001-06-22 13:00,ZGOW 221300Z AUTO 13002KT 7SM 27/26 A2962 RMK SLP034 T02700260 IEM_DS3505
ZGOW,2001-06-22 14:00,ZGOW 221400Z AUTO 23002KT 6SM RMK IEM_DS3505
ZGOW,2001-06-22 15:00,ZGOW 221500Z AUTO 00000KT 11SM 28/25 A2962 RMK SLP025 T02760251 57001 IEM_DS3505
ZGOW,2001-06-22 16:00,ZGOW 221600Z AUTO 27/26 A2959 RMK SLP023 T02700260 IEM_DS3505
ZGOW,2001-06-22 17:00,ZGOW 221700Z AUTO 28/26 A2959 RMK SLP023 T02800260 IEM_DS3505
ZGOW,2001-06-22 18:00,ZGOW 221800Z AUTO 25006KT 10SM 28/26 A2956 RMK SLP015 T02760255 57010 IEM_DS3505
ZGOW,2001-06-22 19:00,ZGOW 221900Z AUTO 29004KT 27/26 A2956 RMK SLP013 T02700260 IEM_DS3505
ZGOW,2001-06-22 20:00,ZGOW 222000Z AUTO 31002KT 27/26 A2953 RMK SLP003 T02700260 IEM_DS3505
ZGOW,2001-06-22 21:00,ZGOW 222100Z AUTO 27006KT 9SM 27/25 A2953 RMK SLP010 T02710250 57005 IEM_DS3505
ZGOW,2001-06-22 22:00,ZGOW 222200Z AUTO 6SM RMK IEM_DS3505
ZGOW,2001-06-22 23:00,ZGOW 222300Z AUTO 30006KT 6SM 28/27 A2953 RMK SLP003 T02800270 IEM_DS3505
ZGOW,2001-06-23 00:00,ZGOW 230000Z AUTO 32004KT 9SM 29/26 A2953 RMK SLP003 T02920257 57007 IEM_DS3505
ZGOW,2001-06-23 01:00,ZGOW 230100Z AUTO 35006KT 6SM 30/27 A2953 RMK SLP003 T03000270 IEM_DS3505
ZGOW,2001-06-23 02:00,ZGOW 230200Z AUTO 32006KT 6SM 31/27 A2950 RMK SLP993 T03100270 IEM_DS3505
ZGOW,2001-06-23 03:00,ZGOW 230300Z AUTO 27006KT 12SM 34/24 A2950 RMK SLP991 T03350242 57012 IEM_DS3505
ZGOW,2001-06-23 04:00,ZGOW 230400Z AUTO 31012KT 6SM 33/27 A2947 RMK SLP983 T03300270 IEM_DS3505
ZGOW,2001-06-23 05:00,ZGOW 230500Z AUTO 29006KT RMK IEM_DS3505
ZGOW,2001-06-23 06:00,ZGOW 230600Z AUTO 27008KT 12SM 34/25 A2946 RMK SLP981 T03410247 57010 IEM_DS3505
ZGOW,2001-06-23 07:00,ZGOW 230700Z AUTO 26008KT 6SM RMK IEM_DS3505
ZGOW,2001-06-23 08:00,ZGOW 230800Z AUTO 27006KT 6SM 35/27 A2944 RMK SLP973 T03500270 IEM_DS3505
ZGOW,2001-06-23 09:00,ZGOW 230900Z AUTO 27010KT 12SM 35/25 A2944 RMK SLP972 T03460248 57009 IEM_DS3505
ZGOW,2001-06-23 10:00,ZGOW 231000Z AUTO 28010KT 34/26 A2944 RMK SLP973 T03400260 IEM_DS3505
ZGOW,2001-06-23 11:00,ZGOW 231100Z AUTO 28008KT 6SM 33/26 A2947 RMK SLP983 T03300260 IEM_DS3505
ZGOW,2001-06-23 12:00,ZGOW 231200Z AUTO 22008KT 9SM 32/25 A2953 RMK SLP997 T03190252 52025 IEM_DS3505
ZGOW,2001-06-23 13:00,ZGOW 231300Z AUTO 06010KT 6SM 27/26 A2956 RMK SLP013 T02700260 IEM_DS3505
ZGOW,2001-06-23 14:00,ZGOW 231400Z AUTO 10014KT 6SM RMK IEM_DS3505
ZGOW,2001-06-23 15:00,ZGOW 231500Z AUTO 11008KT 9SM 28/25 A2962 RMK SLP029 T02780247 52032 IEM_DS3505
ZGOW,2001-06-23 16:00,ZGOW 231600Z AUTO 17008KT 26/26 A2962 RMK SLP034 T02600260 IEM_DS3505
ZGOW,2001-06-23 17:00,ZGOW 231700Z AUTO 19008KT 26/26 A2962 RMK SLP034 T02600260 IEM_DS3505
ZGOW,2001-06-23 18:00,ZGOW 231800Z AUTO 22008KT 7SM 27/25 A2962 RMK 60003 SLP034 T02730250 52005 IEM_DS3505
ZGOW,2001-06-23 19:00,ZGOW 231900Z AUTO 19016KT 26/25 A2962 RMK SLP034 T02600250 IEM_DS3505
ZGOW,2001-06-23 20:00,ZGOW 232000Z AUTO 21014KT 25/24 A2965 RMK SLP044 T02500240 IEM_DS3505
ZGOW,2001-06-23 21:00,ZGOW 232100Z AUTO 20008KT 9SM 26/23 A2965 RMK 70004 SLP043 T02620230 52009 IEM_DS3505
ZGOW,2001-06-23 22:00,ZGOW 232200Z AUTO 24008KT 6SM 26/24 A2965 RMK SLP044 T02600240 IEM_DS3505
ZGOW,2001-06-23 23:00,ZGOW 232300Z AUTO 26008KT 6SM 26/24 A2971 RMK SLP064 T02600240 IEM_DS3505
ZGOW,2001-06-24 00:00,ZGOW 240000Z AUTO 34002KT 16SM 27/22 A2971 RMK 60004 SLP056 T02700225 52013 IEM_DS3505
ZGOW,2001-06-24 01:00,ZGOW 240100Z AUTO 31004KT 6SM 27/25 A2971 RMK SLP064 T02700250 IEM_DS3505
ZGOW,2001-06-24 02:00,ZGOW 240200Z AUTO 32002KT 6SM 28/26 A2971 RMK SLP064 T02800260 IEM_DS3505
ZGOW,2001-06-24 03:00,ZGOW 240300Z AUTO 00000KT 16SM 30/23 A2971 RMK SLP054 T02950233 57002 IEM_DS3505
ZGOW,2001-06-24 04:00,ZGOW 240400Z AUTO 12008KT 6SM 28/25 A2971 RMK SLP064 T02800250 IEM_DS3505
ZGOW,2001-06-24 05:00,ZGOW 240500Z AUTO 11006KT 6SM 28/26 A2971 RMK SLP064 T02800260 IEM_DS3505
ZGOW,2001-06-24 06:00,ZGOW 240600Z AUTO 11006KT 12SM 29/23 A2968 RMK SLP054 T02920231 54000 IEM_DS3505
ZGOW,2001-06-24 07:00,ZGOW 240700Z AUTO 13012KT 29/26 A2968 RMK SLP054 T02900260 IEM_DS3505
ZGOW,2001-06-24 08:00,ZGOW 240800Z AUTO 12012KT 6SM 28/26 A2968 RMK SLP054 T02800260 IEM_DS3505
ZGOW,2001-06-24 09:00,ZGOW 240900Z AUTO 16006KT 17SM 28/25 A2971 RMK SLP054 T02790249 54000 IEM_DS3505
ZGOW,2001-06-24 10:00,ZGOW 241000Z AUTO 13010KT 6SM 26/25 A2971 RMK SLP064 T02600250 IEM_DS3505
ZGOW,2001-06-24 11:00,ZGOW 241100Z AUTO 13008KT 6SM RMK IEM_DS3505
ZGOW,2001-06-24 12:00,ZGOW 241200Z AUTO 14006KT 12SM 27/24 A2972 RMK SLP069 T02660243 52015 IEM_DS3505
ZGOW,2001-06-24 13:00,ZGOW 241300Z AUTO 12004KT 6SM 26/26 A2974 RMK SLP074 T02600260 IEM_DS3505
ZGOW,2001-06-24 14:00,ZGOW 241400Z AUTO 13008KT 6SM 26/26 A2977 RMK SLP084 T02600260 IEM_DS3505
ZGOW,2001-06-24 15:00,ZGOW 241500Z AUTO 16006KT 11SM 26/24 A2977 RMK SLP080 T02600244 52011 IEM_DS3505
ZGOW,2001-06-24 16:00,ZGOW 241600Z AUTO 09004KT 25/25 A2977 RMK SLP084 T02500250 IEM_DS3505
ZGOW,2001-06-24 17:00,ZGOW 241700Z AUTO 09002KT 25/25 A2977 RMK SLP084 T02500250 IEM_DS3505
ZGOW,2001-06-24 18:00,ZGOW 241800Z AUTO 07004KT 10SM 26/24 A2974 RMK 60008 SLP072 T02570243 57008 IEM_DS3505
ZGOW,2001-06-24 19:00,ZGOW 241900Z AUTO 09004KT 25/25 A2974 RMK SLP074 T02500250 IEM_DS3505
ZGOW,2001-06-24 20:00,ZGOW 242000Z AUTO 09006KT 25/25 A2974 RMK SLP074 T02500250 IEM_DS3505
ZGOW,2001-06-24 21:00,ZGOW 242100Z AUTO 18008KT 8SM 24/23 A2974 RMK 70067 SLP074 T02430234 52002 IEM_DS3505
ZGOW,2001-06-24 22:00,ZGOW 242200Z AUTO 11006KT 24/24 A2974 RMK SLP074 T02400240 IEM_DS3505
ZGOW,2001-06-24 23:00,ZGOW 242300Z AUTO 11002KT 6SM 24/24 A2974 RMK SLP074 T02400240 IEM_DS3505
ZGOW,2001-06-25 00:00,ZGOW 250000Z AUTO 00000KT 10SM 25/24 A2977 RMK 60071 SLP076 T02520242 52002 IEM_DS3505
ZGOW,2001-06-25 01:00,ZGOW 250100Z AUTO 08002KT RMK IEM_DS3505
ZGOW,2001-06-25 02:00,ZGOW 250200Z AUTO 15004KT 6SM RMK IEM_DS3505
ZGOW,2001-06-25 03:00,ZGOW 250300Z AUTO 20008KT 16SM 28/25 A2974 RMK SLP076 T02770249 54000 IEM_DS3505
ZGOW,2001-06-25 05:00,ZGOW 250500Z AUTO 15004KT 6SM 25/25 A2974 RMK SLP074 T02500250 IEM_DS3505
ZGOW,2001-06-25 06:00,ZGOW 250600Z AUTO 16004KT 6SM 25/24 A2974 RMK 60110 SLP069 T02540245 57007 IEM_DS3505
ZGOW,2001-06-25 07:00,ZGOW 250700Z AUTO 16004KT 6SM 25/25 A2974 RMK SLP074 T02500250 IEM_DS3505
ZGOW,2001-06-25 08:00,ZGOW 250800Z AUTO 11002KT 6SM 25/25 A2974 RMK SLP074 T02500250 IEM_DS3505
ZGOW,2001-06-25 09:00,ZGOW 250900Z AUTO 11004KT 7SM 25/24 A2974 RMK SLP065 T02530243 57004 IEM_DS3505
ZGOW,2001-06-25 10:00,ZGOW 251000Z AUTO 09004KT 6SM 25/25 A2974 RMK SLP074 T02500250 IEM_DS3505
ZGOW,2001-06-25 11:00,ZGOW 251100Z AUTO 09006KT 6SM 25/25 A2974 RMK SLP074 T02500250 IEM_DS3505
ZGOW,2001-06-25 12:00,ZGOW 251200Z AUTO 09004KT 7SM 25/24 A2977 RMK 60028 SLP073 T02520240 52008 IEM_DS3505
ZGOW,2001-06-25 13:00,ZGOW 251300Z AUTO 10006KT 6SM RMK IEM_DS3505
ZGOW,2001-06-25 14:00,ZGOW 251400Z AUTO 09004KT 6SM RMK IEM_DS3505
ZGOW,2001-06-25 15:00,ZGOW 251500Z AUTO 07004KT 7SM 25/24 A2977 RMK SLP076 T02480238 52003 IEM_DS3505
ZGOW,2001-06-25 16:00,ZGOW 251600Z AUTO 07004KT 25/25 A2974 RMK SLP074 T02500250 IEM_DS3505
ZGOW,2001-06-25 17:00,ZGOW 251700Z AUTO 09004KT 25/25 A2974 RMK SLP074 T02500250 IEM_DS3505
ZGOW,2001-06-25 18:00,ZGOW 251800Z AUTO 11004KT 7SM 25/24 A2974 RMK 60004 SLP065 T02530244 57011 IEM_DS3505
ZGOW,2001-06-25 19:00,ZGOW 251900Z AUTO 10006KT 25/25 A2971 RMK SLP064 T02500250 IEM_DS3505
ZGOW,2001-06-25 20:00,ZGOW 252000Z AUTO 09004KT 25/25 A2968 RMK SLP054 T02500250 IEM_DS3505
ZGOW,2001-06-25 21:00,ZGOW 252100Z AUTO 07004KT 6SM 25/24 A2968 RMK 70156 SLP057 T02540245 57008 IEM_DS3505
ZGOW,2001-06-25 22:00,ZGOW 252200Z AUTO 16004KT 6SM 26/25 A2971 RMK SLP064 T02600250 IEM_DS3505
ZGOW,2001-06-25 23:00,ZGOW 252300Z AUTO 14002KT 6SM RMK IEM_DS3505
ZGOW,2001-06-26 00:00,ZGOW 260000Z AUTO 14002KT 9SM 27/25 A2972 RMK 60004 SLP069 T02690251 52012 IEM_DS3505
ZGOW,2001-06-26 01:00,ZGOW 260100Z AUTO 12006KT 6SM 27/27 A2974 RMK SLP074 T02700270 IEM_DS3505
ZGOW,2001-06-26 02:00,ZGOW 260200Z AUTO 11006KT 6SM 28/27 A2974 RMK SLP074 T02800270 IEM_DS3505
ZGOW,2001-06-26 03:00,ZGOW 260300Z AUTO 16004KT 7SM 26/25 A2974 RMK SLP074 T02560247 52005 IEM_DS3505
ZGOW,2001-06-26 04:00,ZGOW 260400Z AUTO 15004KT 6SM 25/25 A2974 RMK SLP074 T02500250 IEM_DS3505
ZGOW,2001-06-26 06:00,ZGOW 260600Z AUTO 07002KT 7SM 25/24 A2974 RMK 60051 SLP066 T02470241 57008 IEM_DS3505
ZGOW,2001-06-26 07:00,ZGOW 260700Z AUTO 08006KT 25/25 A2971 RMK SLP064 T02500250 IEM_DS3505
ZGOW,2001-06-26 08:00,ZGOW 260800Z AUTO 10006KT 10SM 25/25 A2971 RMK SLP064 T02500250 IEM_DS3505
ZGOW,2001-06-26 09:00,ZGOW 260900Z AUTO 11002KT 7SM 26/25 A2971 RMK SLP060 T02560249 57006 IEM_DS3505
ZGOW,2001-06-26 10:00,ZGOW 261000Z AUTO 16008KT 6SM 24/24 A2974 RMK SLP074 T02400240 IEM_DS3505
ZGOW,2001-06-26 11:00,ZGOW 261100Z AUTO 16004KT 10SM 24/24 A2974 RMK SLP074 T02400240 IEM_DS3505
ZGOW,2001-06-26 12:00,ZGOW 261200Z AUTO 1 1/2SM 24/24 A2977 RMK SLP084 T02400240 IEM_DS3505
ZGOW,2001-06-26 13:00,ZGOW 261300Z AUTO 06002KT 6SM 24/24 A2977 RMK SLP084 T02400240 IEM_DS3505
ZGOW,2001-06-26 14:00,ZGOW 261400Z AUTO 02002KT 16SM 24/24 A2977 RMK SLP084 T02400240 IEM_DS3505
ZGOW,2001-06-26 15:00,ZGOW 261500Z AUTO 07004KT 9SM 25/24 A2976 RMK SLP081 T02460240 52004 IEM_DS3505
ZGOW,2001-06-26 16:00,ZGOW 261600Z AUTO 07002KT 24/24 A2977 RMK SLP084 T02400240 IEM_DS3505
ZGOW,2001-06-26 17:00,ZGOW 261700Z AUTO 04002KT 24/24 A2977 RMK SLP084 T02400240 IEM_DS3505
ZGOW,2001-06-26 18:00,ZGOW 261800Z AUTO 07002KT 6SM 24/24 A2974 RMK 60001 SLP074 T02450238 57007 IEM_DS3505
ZGOW,2001-06-26 19:00,ZGOW 261900Z AUTO 06002KT 25/25 A2974 RMK SLP074 T02500250 IEM_DS3505
ZGOW,2001-06-26 20:00,ZGOW 262000Z AUTO 07004KT 25/25 A2974 RMK SLP074 T02500250 IEM_DS3505
ZGOW,2001-06-26 21:00,ZGOW 262100Z AUTO 04004KT 6SM 25/24 RMK 70082 T02470241 52101 IEM_DS3505
ZGOW,2001-06-26 22:00,ZGOW 262200Z AUTO 06006KT 6SM 25/25 A2974 RMK SLP074 T02500250 IEM_DS3505
ZGOW,2001-06-26 23:00,ZGOW 262300Z AUTO 07008KT 6SM 26/26 A2974 RMK SLP074 T02600260 IEM_DS3505
ZGOW,2001-06-27 00:00,ZGOW 270000Z AUTO 07004KT 5SM 26/25 A2976 RMK 60002 SLP081 T02640253 52016 IEM_DS3505
ZGOW,2001-06-27 01:00,ZGOW 270100Z AUTO 08008KT 6SM RMK IEM_DS3505
ZGOW,2001-06-27 02:00,ZGOW 270200Z AUTO 09008KT RMK IEM_DS3505
ZGOW,2001-06-27 03:00,ZGOW 270300Z AUTO 11006KT 12SM 30/26 A2976 RMK SLP082 T02980265 52001 IEM_DS3505
ZGOW,2001-06-27 04:00,ZGOW 270400Z AUTO 11010KT 6SM 28/27 A2977 RMK SLP084 T02800270 IEM_DS3505
ZGOW,2001-06-27 05:00,ZGOW 270500Z AUTO 12008KT 28/27 A2977 RMK SLP084 T02800270 IEM_DS3505
ZGOW,2001-06-27 06:00,ZGOW 270600Z AUTO 11006KT 14SM 28/25 A2977 RMK 60003 SLP079 T02840250 57003 IEM_DS3505
ZGOW,2001-06-27 07:00,ZGOW 270700Z AUTO 07004KT 22SM 27/27 A2977 RMK SLP084 T02700270 IEM_DS3505
ZGOW,2001-06-27 08:00,ZGOW 270800Z AUTO 10006KT 28/27 A2977 RMK SLP084 T02800270 IEM_DS3505
ZGOW,2001-06-27 09:00,ZGOW 270900Z AUTO 16004KT 11SM 28/26 A2974 RMK SLP075 T02800260 57004 IEM_DS3505
ZGOW,2001-06-27 10:00,ZGOW 271000Z AUTO 08004KT 6SM 28/27 A2977 RMK SLP084 T02800270 IEM_DS3505
ZGOW,2001-06-27 11:00,ZGOW 271100Z AUTO 09002KT 6SM RMK IEM_DS3505
ZGOW,2001-06-27 12:00,ZGOW 271200Z AUTO 07002KT 9SM 27/26 A2977 RMK 60003 SLP078 T02710258 52003 IEM_DS3505
ZGOW,2001-06-27 13:00,ZGOW 271300Z AUTO 09002KT 6SM 26/26 A2977 RMK SLP084 T02600260 IEM_DS3505
ZGOW,2001-06-27 14:00,ZGOW 271400Z AUTO 08002KT 6SM 26/26 A2980 RMK SLP094 T02600260 IEM_DS3505
ZGOW,2001-06-27 15:00,ZGOW 271500Z AUTO 07002KT 8SM 27/25 A2979 RMK SLP091 T02670254 52013 IEM_DS3505
ZGOW,2001-06-27 16:00,ZGOW 271600Z AUTO 09002KT 26/26 A2980 RMK SLP094 T02600260 IEM_DS3505
ZGOW,2001-06-27 17:00,ZGOW 271700Z AUTO 08004KT 26/26 A2977 RMK SLP084 T02600260 IEM_DS3505
ZGOW,2001-06-27 18:00,ZGOW 271800Z AUTO 04004KT 8SM 27/26 A2977 RMK SLP077 T02660259 57014 IEM_DS3505
ZGOW,2001-06-27 19:00,ZGOW 271900Z AUTO 10004KT 26/26 A2974 RMK SLP074 T02600260 IEM_DS3505
ZGOW,2001-06-27 20:00,ZGOW 272000Z AUTO 11004KT 26/26 A2974 RMK SLP074 T02600260 IEM_DS3505
ZGOW,2001-06-27 21:00,ZGOW 272100Z AUTO 11002KT 8SM 26/26 A2977 RMK 70004 SLP078 T02650258 52001 IEM_DS3505
ZGOW,2001-06-27 22:00,ZGOW 272200Z AUTO 10004KT 17SM 26/26 A2977 RMK SLP084 T02600260 IEM_DS3505
ZGOW,2001-06-27 23:00,ZGOW 272300Z AUTO 08004KT 6SM 27/27 A2977 RMK SLP084 T02700270 IEM_DS3505
ZGOW,2001-06-28 00:00,ZGOW 280000Z AUTO 09004KT 10SM 28/26 A2980 RMK 70003 SLP090 T02770262 52012 IEM_DS3505
ZGOW,2001-06-28 01:00,ZGOW 280100Z AUTO 11006KT 6SM RMK IEM_DS3505
ZGOW,2001-06-28 02:00,ZGOW 280200Z AUTO 12008KT 6SM RMK IEM_DS3505
ZGOW,2001-06-28 03:00,ZGOW 280300Z AUTO 18006KT 16SM 29/26 A2978 RMK SLP087 T02900259 57003 IEM_DS3505
ZGOW,2001-06-28 04:00,ZGOW 280400Z AUTO 13008KT 6SM RMK IEM_DS3505
ZGOW,2001-06-28 05:00,ZGOW 280500Z AUTO 13008KT 6SM RMK IEM_DS3505
ZGOW,2001-06-28 06:00,ZGOW 280600Z AUTO 16006KT 19SM 31/26 A2978 RMK 60003 SLP087 T03060256 54000 IEM_DS3505
ZGOW,2001-06-28 07:00,ZGOW 280700Z AUTO 14008KT 6SM RMK IEM_DS3505
ZGOW,2001-06-28 08:00,ZGOW 280800Z AUTO 11008KT RMK IEM_DS3505
ZGOW,2001-06-28 09:00,ZGOW 280900Z AUTO 09006KT 19SM 30/25 A2975 RMK SLP077 T03020250 57010 IEM_DS3505
ZGOW,2001-06-28 10:00,ZGOW 281000Z AUTO 12006KT 6SM RMK IEM_DS3505
ZGOW,2001-06-28 11:00,ZGOW 281100Z AUTO 11004KT 6SM RMK IEM_DS3505
ZGOW,2001-06-28 12:00,ZGOW 281200Z AUTO 09004KT 12SM 28/26 A2977 RMK SLP086 T02840260 52009 IEM_DS3505
ZGOW,2001-06-28 13:00,ZGOW 281300Z AUTO 09004KT 6SM 27/27 A2980 RMK SLP094 T02700270 IEM_DS3505
ZGOW,2001-06-28 14:00,ZGOW 281400Z AUTO 07004KT 6SM 27/27 A2980 RMK SLP094 T02700270 IEM_DS3505
ZGOW,2001-06-28 15:00,ZGOW 281500Z AUTO 04004KT 8SM 28/26 A2980 RMK SLP094 T02760258 52008 IEM_DS3505
ZGOW,2001-06-28 15:01,ZGOW 281501Z AUTO 08004KT 26/26 A2980 RMK SLP094 T02600260 IEM_DS3505
ZGOW,2001-06-28 16:00,ZGOW 281600Z AUTO 05004KT 26/26 A2980 RMK SLP094 T02600260 IEM_DS3505
ZGOW,2001-06-28 17:00,ZGOW 281700Z AUTO 05002KT 27/26 A2977 RMK SLP084 T02700260 IEM_DS3505
ZGOW,2001-06-28 18:00,ZGOW 281800Z AUTO 34002KT 7SM 27/26 A2977 RMK SLP082 T02720259 57012 IEM_DS3505
ZGOW,2001-06-28 19:00,ZGOW 281900Z AUTO 05004KT 26/26 A2977 RMK SLP084 T02600260 IEM_DS3505
ZGOW,2001-06-28 20:01,ZGOW 282001Z AUTO 04004KT 26/25 A2974 RMK SLP074 T02600250 IEM_DS3505
ZGOW,2001-06-28 21:00,ZGOW 282100Z AUTO 04006KT 6SM 26/25 A2974 RMK 70003 SLP077 T02650254 57005 IEM_DS3505
ZGOW,2001-06-28 22:00,ZGOW 282200Z AUTO 06004KT 3SM RMK IEM_DS3505
ZGOW,2001-06-28 23:00,ZGOW 282300Z AUTO 04006KT 6SM 28/ A2977 RMK SLP084 IEM_DS3505
ZGOW,2001-06-29 00:00,ZGOW 290000Z AUTO 07004KT 11SM 29/25 A2980 RMK 70003 SLP093 T02860254 52016 IEM_DS3505
ZGOW,2001-06-29 01:00,ZGOW 290100Z AUTO 09006KT 6SM RMK IEM_DS3505
ZGOW,2001-06-29 02:00,ZGOW 290200Z AUTO 12008KT 6SM RMK IEM_DS3505
ZGOW,2001-06-29 03:00,ZGOW 290300Z AUTO 11006KT 17SM 30/24 A2981 RMK SLP097 T03020245 52004 IEM_DS3505
ZGOW,2001-06-29 04:00,ZGOW 290400Z AUTO 10008KT 6SM RMK IEM_DS3505
ZGOW,2001-06-29 05:00,ZGOW 290500Z AUTO 10008KT 32/27 A2980 RMK SLP094 T03200270 IEM_DS3505
ZGOW,2001-06-29 06:00,ZGOW 290600Z AUTO 16008KT 19SM 32/24 A2980 RMK SLP085 T03150244 57012 IEM_DS3505
ZGOW,2001-06-29 07:00,ZGOW 290700Z AUTO 11008KT 9SM 31/26 A2977 RMK SLP084 T03100260 IEM_DS3505
ZGOW,2001-06-29 08:00,ZGOW 290800Z AUTO 10008KT 6SM 31/26 A2977 RMK SLP084 T03100260 IEM_DS3505
ZGOW,2001-06-29 09:00,ZGOW 290900Z AUTO 11004KT 17SM 31/24 A2974 RMK SLP070 T03090241 57015 IEM_DS3505
ZGOW,2001-06-29 10:00,ZGOW 291000Z AUTO 10008KT 6SM 30/25 A2974 RMK SLP074 T03000250 IEM_DS3505
ZGOW,2001-06-29 11:00,ZGOW 291100Z AUTO 10004KT 6SM 29/25 A2977 RMK SLP084 T02900250 IEM_DS3505
ZGOW,2001-06-29 12:00,ZGOW 291200Z AUTO 11006KT 12SM 29/24 A2976 RMK SLP080 T02900240 52010 IEM_DS3505
ZGOW,2001-06-29 13:00,ZGOW 291300Z AUTO 08004KT 6SM 27/25 A2977 RMK SLP084 T02700250 IEM_DS3505
ZGOW,2001-06-29 14:00,ZGOW 291400Z AUTO 09002KT 6SM 27/25 A2980 RMK SLP094 T02700250 IEM_DS3505
ZGOW,2001-06-29 15:00,ZGOW 291500Z AUTO 04004KT 7SM 28/24 A2980 RMK SLP087 T02830245 52007 IEM_DS3505
ZGOW,2001-06-29 16:00,ZGOW 291600Z AUTO 08002KT 27/25 A2977 RMK SLP084 T02700250 IEM_DS3505
ZGOW,2001-06-29 17:00,ZGOW 291700Z AUTO 05004KT 26/25 A2977 RMK SLP084 T02600250 IEM_DS3505
ZGOW,2001-06-29 18:00,ZGOW 291800Z AUTO 04004KT 6SM 28/25 A2974 RMK SLP074 T02800249 57013 IEM_DS3505
ZGOW,2001-06-29 19:00,ZGOW 291900Z AUTO 05004KT 27/25 A2974 RMK SLP074 T02700250 IEM_DS3505
ZGOW,2001-06-29 20:00,ZGOW 292000Z AUTO 05006KT 27/26 A2974 RMK SLP074 T02700260 IEM_DS3505
ZGOW,2001-06-29 21:00,ZGOW 292100Z AUTO 07006KT 6SM 28/25 A2974 RMK SLP068 T02800249 57006 IEM_DS3505
ZGOW,2001-06-29 22:00,ZGOW 292200Z AUTO 06004KT 6SM RMK IEM_DS3505
ZGOW,2001-06-29 23:00,ZGOW 292300Z AUTO 06006KT 6SM RMK IEM_DS3505
ZGOW,2001-06-30 00:00,ZGOW 300000Z AUTO 09006KT 12SM 29/26 A2974 RMK 60003 SLP073 T02910256 52005 IEM_DS3505
ZGOW,2001-06-30 01:00,ZGOW 300100Z AUTO 07010KT 6SM RMK IEM_DS3505
ZGOW,2001-06-30 02:00,ZGOW 300200Z AUTO 08010KT 6SM RMK IEM_DS3505
ZGOW,2001-06-30 03:00,ZGOW 300300Z AUTO 11008KT 16SM 30/26 A2973 RMK SLP072 T03010258 57001 IEM_DS3505
ZGOW,2001-06-30 04:00,ZGOW 300400Z AUTO 09012KT 6SM RMK IEM_DS3505
ZGOW,2001-06-30 06:00,ZGOW 300600Z AUTO 11010KT 19SM 32/25 A2971 RMK 60008 SLP060 T03160252 57012 IEM_DS3505
ZGOW,2001-06-30 07:00,ZGOW 300700Z AUTO 10014KT 6SM 31/27 A2971 RMK SLP064 T03100270 IEM_DS3505
ZGOW,2001-06-30 08:00,ZGOW 300800Z AUTO 10014KT 6SM 31/27 A2968 RMK SLP054 T03100270 IEM_DS3505
ZGOW,2001-06-30 09:00,ZGOW 300900Z AUTO 11006KT 12SM 30/25 A2971 RMK SLP057 T02980250 57003 IEM_DS3505
ZGOW,2001-06-30 10:00,ZGOW 301000Z AUTO 09010KT 6SM RMK IEM_DS3505
ZGOW,2001-06-30 11:00,ZGOW 301100Z AUTO 08008KT 6SM 28/26 A2971 RMK SLP064 T02800260 IEM_DS3505
ZGOW,2001-06-30 12:00,ZGOW 301200Z AUTO 07008KT 10SM 29/25 A2969 RMK SLP058 T02880251 52001 IEM_DS3505
ZGOW,2001-06-30 14:00,ZGOW 301400Z AUTO 09006KT 14SM RMK IEM_DS3505
ZGOW,2001-06-30 15:00,ZGOW 301500Z AUTO 07004KT 9SM 27/25 A2974 RMK SLP072 T02700253 52014 IEM_DS3505
ZGOW,2001-06-30 16:00,ZGOW 301600Z AUTO 09008KT 27/26 A2974 RMK SLP074 T02700260 IEM_DS3505
ZGOW,2001-06-30 17:00,ZGOW 301700Z AUTO 09010KT 28/27 A2971 RMK SLP064 T02800270 IEM_DS3505
ZGOW,2001-06-30 18:00,ZGOW 301800Z AUTO 09008KT 7SM 28/26 A2971 RMK 60028 SLP058 T02800262 57014 IEM_DS3505
ZGOW,2001-06-30 19:00,ZGOW 301900Z AUTO 09010KT 28/27 A2968 RMK SLP054 T02800270 IEM_DS3505
ZGOW,2001-06-30 20:00,ZGOW 302000Z AUTO 10008KT 28/27 A2968 RMK SLP054 T02800270 IEM_DS3505
ZGOW,2001-06-30 21:00,ZGOW 302100Z AUTO 09004KT 7SM 28/26 A2971 RMK 70039 SLP056 T02790261 57002 IEM_DS3505
ZGOW,2001-07-01 00:00,ZGOW 010000Z AUTO 11008KT 14SM 29/26 RMK 70037 SLP067 T02890257 52011 IEM_DS3505
ZGOW,2001-07-01 01:00,ZGOW 010100Z AUTO 11012KT 6SM RMK IEM_DS3505
ZGOW,2001-07-01 02:00,ZGOW 010200Z AUTO 11014KT 29/28 A2974 RMK T02900280 IEM_DS3505
ZGOW,2001-07-01 03:00,ZGOW 010300Z AUTO 14010KT 17SM 30/25 A2974 RMK SLP070 T03050252 52003 IEM_DS3505
ZGOW,2001-07-01 04:00,ZGOW 010400Z AUTO 10016KT 6SM RMK IEM_DS3505
ZGOW,2001-07-01 05:00,ZGOW 010500Z AUTO 10012KT 13SM 30/28 A2971 RMK T03000280 IEM_DS3505
ZGOW,2001-07-01 06:00,ZGOW 010600Z AUTO 11008KT 19SM 30/26 A2971 RMK 60003 SLP062 T03040255 57008 IEM_DS3505
ZGOW,2001-07-01 07:00,ZGOW 010700Z AUTO 11014G23KT 6SM 27/26 A2971 RMK T02700260 IEM_DS3505
ZGOW,2001-07-01 08:00,ZGOW 010800Z AUTO 10010KT RMK IEM_DS3505
ZGOW,2001-07-01 09:00,ZGOW 010900Z AUTO 11006KT 19SM 29/25 RMK SLP059 T02910250 57003 IEM_DS3505
ZGOW,2001-07-01 10:00,ZGOW 011000Z AUTO 10014KT 6SM RMK IEM_DS3505
ZGOW,2001-07-01 11:00,ZGOW 011100Z AUTO 11012KT RMK IEM_DS3505
ZGOW,2001-07-01 12:00,ZGOW 011200Z AUTO 09006KT 12SM 28/24 A2974 RMK 60003 SLP068 T02770243 52009 IEM_DS3505
ZGOW,2001-07-01 13:00,ZGOW 011300Z AUTO 09008KT 6SM RMK IEM_DS3505
ZGOW,2001-07-01 14:00,ZGOW 011400Z AUTO 10008KT 12SM RMK IEM_DS3505
ZGOW,2001-07-01 15:00,ZGOW 011500Z AUTO 11006KT 10SM 28/26 A2977 RMK SLP080 T02840257 52012 IEM_DS3505
ZGOW,2001-07-01 16:00,ZGOW 011600Z AUTO 10010KT 27/27 A2977 RMK T02700270 IEM_DS3505
ZGOW,2001-07-01 17:00,ZGOW 011700Z AUTO 12008KT 27/27 A2977 RMK T02700270 IEM_DS3505
ZGOW,2001-07-01 18:00,ZGOW 011800Z AUTO 14008KT 10SM 28/26 A2974 RMK 60002 SLP066 T02800255 57014 IEM_DS3505
ZGOW,2001-07-01 20:00,ZGOW 012000Z AUTO 11010KT 27/27 A2971 RMK T02700270 IEM_DS3505
ZGOW,2001-07-01 21:00,ZGOW 012100Z AUTO 11008KT 9SM 28/25 A2974 RMK 70003 SLP066 T02790252 54000 IEM_DS3505
ZGOW,2001-07-01 22:00,ZGOW 012200Z AUTO 11008KT 6SM 27/27 A2974 RMK T02700270 IEM_DS3505
ZGOW,2001-07-01 23:00,ZGOW 012300Z AUTO 11006KT 6SM RMK IEM_DS3505
ZGOW,2001-07-02 00:00,ZGOW 020000Z AUTO 11010KT 11SM 29/26 A2977 RMK 60000 SLP078 T02890257 52012 IEM_DS3505
ZGOW,2001-07-02 01:00,ZGOW 020100Z AUTO 12014KT 6SM RMK IEM_DS3505
ZGOW,2001-07-02 02:00,ZGOW 020200Z AUTO 12016KT 6SM 31/28 A2977 RMK T03100280 IEM_DS3505
ZGOW,2001-07-02 03:00,ZGOW 020300Z AUTO 14006KT 12SM 30/26 A2977 RMK SLP084 T03030255 52006 IEM_DS3505
ZGOW,2001-07-02 04:00,ZGOW 020400Z AUTO 12014KT 6SM RMK IEM_DS3505
ZGOW,2001-07-02 05:00,ZGOW 020500Z AUTO 12014KT 40SM 31/28 A2977 RMK T03100280 IEM_DS3505
ZGOW,2001-07-02 06:00,ZGOW 020600Z AUTO 16008KT 16SM 30/25 RMK 60028 SLP081 T03030251 57003 IEM_DS3505
ZGOW,2001-07-02 07:00,ZGOW 020700Z AUTO 12014KT 6SM RMK IEM_DS3505
ZGOW,2001-07-02 08:00,ZGOW 020800Z AUTO 12012KT 6SM RMK IEM_DS3505
ZGOW,2001-07-02 09:00,ZGOW 020900Z AUTO 11008KT 16SM 29/25 RMK SLP070 T02940247 57011 IEM_DS3505
ZGOW,2001-07-02 10:00,ZGOW 021000Z AUTO 10008KT RMK IEM_DS3505
ZGOW,2001-07-02 11:00,ZGOW 021100Z AUTO 11006KT 6SM 28/27 A2977 RMK T02800270 IEM_DS3505
ZGOW,2001-07-02 12:00,ZGOW 021200Z AUTO 11008KT 11SM 28/25 RMK 60000 SLP082 T02850251 52012 IEM_DS3505
ZGOW,2001-07-02 13:00,ZGOW 021300Z AUTO 10006KT 6SM RMK IEM_DS3505
ZGOW,2001-07-02 14:00,ZGOW 021400Z AUTO 10004KT 6SM RMK IEM_DS3505
ZGOW,2001-07-02 15:00,ZGOW 021500Z AUTO 07006KT 10SM 28/25 A2980 RMK SLP090 T02810251 52008 IEM_DS3505
ZGOW,2001-07-02 16:00,ZGOW 021600Z AUTO 08004KT 27/26 A2980 RMK T02700260 IEM_DS3505
ZGOW,2001-07-02 18:00,ZGOW 021800Z AUTO 09004KT 9SM 27/25 A2974 RMK SLP075 T02710253 57015 IEM_DS3505
ZGOW,2001-07-02 19:00,ZGOW 021900Z AUTO 05004KT 26/26 A2974 RMK T02600260 IEM_DS3505
ZGOW,2001-07-02 21:00,ZGOW 022100Z AUTO 04004KT 6SM 26/25 RMK 70030 SLP070 T02640250 57005 IEM_DS3505
ZGOW,2001-07-02 21:01,ZGOW 022101Z AUTO 04004KT 25/25 A2974 RMK T02500250 IEM_DS3505
ZGOW,2001-07-02 22:00,ZGOW 022200Z AUTO 05004KT 14SM 25/25 A2974 RMK T02500250 IEM_DS3505
ZGOW,2001-07-02 23:00,ZGOW 022300Z AUTO 06004KT 27/26 A2974 RMK T02700260 IEM_DS3505
ZGOW,2001-07-03 00:00,ZGOW 030000Z AUTO 07006KT 11SM 29/25 A2974 RMK 60000 SLP075 T02890251 52005 IEM_DS3505
ZGOW,2001-07-03 01:00,ZGOW 030100Z AUTO 09006KT 7SM RMK IEM_DS3505
ZGOW,2001-07-03 02:00,ZGOW 030200Z AUTO 08006KT RMK IEM_DS3505
ZGOW,2001-07-03 03:00,ZGOW 030300Z AUTO 14006KT 12SM 31/23 RMK SLP076 T03080233 52001 IEM_DS3505
ZGOW,2001-07-03 04:00,ZGOW 030400Z AUTO 06006KT 6SM RMK IEM_DS3505
ZGOW,2001-07-03 05:00,ZGOW 030500Z AUTO 09006KT RMK IEM_DS3505
ZGOW,2001-07-03 06:00,ZGOW 030600Z AUTO 07006KT 16SM 32/23 A2968 RMK SLP049 T03230230 57027 IEM_DS3505
ZGOW,2001-07-03 07:00,ZGOW 030700Z AUTO 09004KT 33/27 A2965 RMK T03300270 IEM_DS3505
ZGOW,2001-07-03 08:00,ZGOW 030800Z AUTO 14004KT 33/27 A2965 RMK T03300270 IEM_DS3505
ZGOW,2001-07-03 09:00,ZGOW 030900Z AUTO 16006KT 12SM 32/24 A2965 RMK SLP040 T03220240 57009 IEM_DS3505
ZGOW,2001-07-03 10:00,ZGOW 031000Z AUTO 16008KT 6SM 30/26 A2965 RMK T03000260 IEM_DS3505
ZGOW,2001-07-03 11:00,ZGOW 031100Z AUTO 13006KT 6SM 28/26 A2968 RMK T02800260 IEM_DS3505
ZGOW,2001-07-03 12:00,ZGOW 031200Z AUTO 11006KT 10SM 29/24 A2968 RMK SLP052 T02900245 52012 IEM_DS3505
ZGOW,2001-07-03 13:00,ZGOW 031300Z AUTO 08004KT 28/26 A2968 RMK T02800260 IEM_DS3505
ZGOW,2001-07-03 14:00,ZGOW 031400Z AUTO 27/26 A2971 RMK T02700260 IEM_DS3505
ZGOW,2001-07-03 15:00,ZGOW 031500Z AUTO 36002KT 9SM 28/25 A2968 RMK SLP053 T02830251 52001 IEM_DS3505
ZGOW,2001-07-03 16:00,ZGOW 031600Z AUTO 34002KT 27/26 A2968 RMK T02700260 IEM_DS3505
ZGOW,2001-07-03 17:00,ZGOW 031700Z AUTO 31004KT 27/26 A2965 RMK T02700260 IEM_DS3505
ZGOW,2001-07-03 18:00,ZGOW 031800Z AUTO 29004KT 8SM 27/25 A2959 RMK SLP026 T02740248 57027 IEM_DS3505
ZGOW,2001-07-03 19:00,ZGOW 031900Z AUTO 32004KT 27/26 A2959 RMK T02700260 IEM_DS3505
ZGOW,2001-07-03 20:00,ZGOW 032000Z AUTO 34002KT 26/25 A2959 RMK T02600250 IEM_DS3505
ZGOW,2001-07-03 21:00,ZGOW 032100Z AUTO 34002KT 8SM 26/24 RMK SLP015 T02630243 57011 IEM_DS3505
ZGOW,2001-07-03 23:00,ZGOW 032300Z AUTO 32004KT 27/25 A2956 RMK T02700250 IEM_DS3505
ZGOW,2001-07-04 00:00,ZGOW 040000Z AUTO 04004KT 9SM 29/24 A2953 RMK SLP004 T02880241 57011 IEM_DS3505
ZGOW,2001-07-04 01:00,ZGOW 040100Z AUTO 31006KT 6SM 29/26 A2950 RMK T02900260 IEM_DS3505
ZGOW,2001-07-04 02:00,ZGOW 040200Z AUTO 35006KT 6SM 31/26 A2950 RMK T03100260 IEM_DS3505
ZGOW,2001-07-04 03:00,ZGOW 040300Z AUTO 04006KT 12SM 33/22 A2950 RMK SLP990 T03300225 57014 IEM_DS3505
ZGOW,2001-07-04 04:00,ZGOW 040400Z AUTO 34010KT 6SM 33/24 A2947 RMK T03300240 IEM_DS3505
ZGOW,2001-07-04 05:00,ZGOW 040500Z AUTO 03010KT 6SM 34/25 A2944 RMK T03400250 IEM_DS3505
ZGOW,2001-07-04 06:00,ZGOW 040600Z AUTO 07008KT 16SM 36/22 A2938 RMK SLP954 T03550223 57036 IEM_DS3505
ZGOW,2001-07-04 07:00,ZGOW 040700Z AUTO 30006KT 6SM 35/25 A2935 RMK T03500250 IEM_DS3505
ZGOW,2001-07-04 08:00,ZGOW 040800Z AUTO 31008KT 6SM 35/24 A2935 RMK T03500240 IEM_DS3505
ZGOW,2001-07-04 09:00,ZGOW 040900Z AUTO 02006KT 14SM 35/22 A2935 RMK SLP933 T03480221 57021 IEM_DS3505
ZGOW,2001-07-04 10:00,ZGOW 041000Z AUTO 34004KT 6SM 34/25 A2932 RMK T03400250 IEM_DS3505
ZGOW,2001-07-04 11:00,ZGOW 041100Z AUTO 35004KT 6SM 33/25 A2932 RMK T03300250 IEM_DS3505
ZGOW,2001-07-04 12:00,ZGOW 041200Z AUTO 02002KT 11SM 32/25 A2932 RMK SLP933 T03240247 54000 IEM_DS3505
ZGOW,2001-07-04 13:00,ZGOW 041300Z AUTO 6SM 31/26 A2932 RMK T03100260 IEM_DS3505
ZGOW,2001-07-04 14:00,ZGOW 041400Z AUTO 02004KT 31/25 A2932 RMK T03100250 IEM_DS3505
ZGOW,2001-07-04 15:00,ZGOW 041500Z AUTO 07002KT 7SM 31/25 A2932 RMK SLP934 T03130250 52001 IEM_DS3505
ZGOW,2001-07-04 16:00,ZGOW 041600Z AUTO 04006KT 31/25 A2929 RMK T03100250 IEM_DS3505
ZGOW,2001-07-04 17:00,ZGOW 041700Z AUTO 32002KT 30/25 A2926 RMK T03000250 IEM_DS3505
ZGOW,2001-07-04 18:00,ZGOW 041800Z AUTO 07004KT 7SM 31/23 A2923 RMK SLP907 T03070233 57027 IEM_DS3505
ZGOW,2001-07-04 19:00,ZGOW 041900Z AUTO 33006KT 29/25 A2921 RMK T02900250 IEM_DS3505
ZGOW,2001-07-04 20:00,ZGOW 042000Z AUTO 33004KT 29/25 A2921 RMK T02900250 IEM_DS3505
ZGOW,2001-07-04 21:00,ZGOW 042100Z AUTO 02004KT 7SM 30/23 A2921 RMK SLP893 T02960228 57014 IEM_DS3505
ZGOW,2001-07-04 22:00,ZGOW 042200Z AUTO 01006KT 6SM 29/24 A2923 RMK T02900240 IEM_DS3505
ZGOW,2001-07-04 23:00,ZGOW 042300Z AUTO 06006KT 6SM 29/25 A2923 RMK T02900250 IEM_DS3505
ZGOW,2001-07-05 00:00,ZGOW 050000Z AUTO 04006KT 12SM 31/24 RMK SLP912 T03100236 52019 IEM_DS3505
ZGOW,2001-07-05 01:00,ZGOW 050100Z AUTO 09016KT RMK IEM_DS3505
ZGOW,2001-07-05 02:00,ZGOW 050200Z AUTO 06012KT 6SM RMK IEM_DS3505
ZGOW,2001-07-05 03:00,ZGOW 050300Z AUTO 07012KT 9SM 32/24 A2926 RMK SLP912 T03250243 54000 IEM_DS3505
ZGOW,2001-07-05 04:00,ZGOW 050400Z AUTO 07019G31KT 6SM RMK IEM_DS3505
ZGOW,2001-07-05 05:00,ZGOW 050500Z AUTO 06023G37KT 6SM RMK IEM_DS3505
ZGOW,2001-07-05 06:00,ZGOW 050600Z AUTO 07014KT 16SM 32/23 RMK 60000 SLP907 T03210226 4////0287 57005 IEM_DS3505
ZGOW,2001-07-05 07:00,ZGOW 050700Z AUTO 07023G41KT RMK IEM_DS3505
ZGOW,2001-07-05 08:00,ZGOW 050800Z AUTO 07025G41KT 6SM 30/25 A2923 RMK T03000250 IEM_DS3505
ZGOW,2001-07-05 09:00,ZGOW 050900Z AUTO 07010KT 12SM 28/24 A2923 RMK SLP898 T02800239 57009 IEM_DS3505
ZGOW,2001-07-05 10:00,ZGOW 051000Z AUTO 07012G37KT 6SM 27/24 RMK SLP905 T02700236 52001 IEM_DS3505
ZGOW,2001-07-05 11:00,ZGOW 051100Z AUTO 07016G37KT 6SM 26/24 A2923 RMK SLP899 T02620241 52003 IEM_DS3505
ZGOW,2001-07-05 12:00,ZGOW 051200Z AUTO 07016KT 6SM 27/24 A2923 RMK 60012 SLP899 T02690236 52001 IEM_DS3505
ZGOW,2001-07-05 13:00,ZGOW 051300Z AUTO 07017KT 5SM 27/24 A2921 RMK SLP895 T02670238 57010 IEM_DS3505
ZGOW,2001-07-05 14:00,ZGOW 051400Z AUTO 07014KT 4SM 25/24 A2921 RMK SLP891 T02540244 57008 IEM_DS3505
ZGOW,2001-07-05 15:00,ZGOW 051500Z AUTO 07014KT 4SM 26/24 A2921 RMK SLP886 T02590245 57013 IEM_DS3505
ZGOW,2001-07-05 16:00,ZGOW 051600Z AUTO 07016KT 4SM 26/24 A2915 RMK SLP871 T02620243 57024 IEM_DS3505
ZGOW,2001-07-05 17:00,ZGOW 051700Z AUTO 07017KT 4SM 26/25 A2915 RMK SLP867 T02620246 57024 IEM_DS3505
ZGOW,2001-07-05 18:00,ZGOW 051800Z AUTO 07016KT 6SM 26/25 A2912 RMK 60079 SLP858 T02650248 40332//// 57028 IEM_DS3505
ZGOW,2001-07-05 19:00,ZGOW 051900Z AUTO 07021KT 4SM 26/24 A2906 RMK SLP837 T02630245 57034 IEM_DS3505
ZGOW,2001-07-05 20:00,ZGOW 052000Z AUTO 11017KT 2SM 25/25 A2903 RMK SLP822 T02490246 57045 IEM_DS3505
ZGOW,2001-07-05 23:00,ZGOW 052300Z AUTO 12023G35KT 6SM 26/26 A2923 RMK T02600260 IEM_DS3505
ZGOW,2001-07-06 00:00,ZGOW 060000Z AUTO 11012G33KT 2 1/2SM 26/25 A2926 RMK 60295 SLP908 T02620246 52066 IEM_DS3505
ZGOW,2001-07-06 01:00,ZGOW 060100Z AUTO 11010G29KT 2 1/2SM 26/25 RMK SLP918 T02650247 52048 IEM_DS3505
ZGOW,2001-07-06 02:00,ZGOW 060200Z AUTO 14021G35KT 6SM RMK IEM_DS3505
ZGOW,2001-07-06 03:00,ZGOW 060300Z AUTO 16014G33KT 4SM 27/25 RMK SLP937 T02670249 52029 IEM_DS3505
ZGOW,2001-07-06 04:00,ZGOW 060400Z AUTO 14017G31KT 6SM RMK IEM_DS3505
ZGOW,2001-07-06 05:00,ZGOW 060500Z AUTO 15021G31KT 6SM 27/26 A2938 RMK T02700260 IEM_DS3505
ZGOW,2001-07-06 06:00,ZGOW 060600Z AUTO 16012G27KT 6SM 27/24 RMK 60043 SLP958 T02710241 4////0245 52021 IEM_DS3505
ZGOW,2001-07-06 07:00,ZGOW 060700Z AUTO 13017G27KT 6SM 26/26 A2941 RMK T02600260 IEM_DS3505
ZGOW,2001-07-06 08:00,ZGOW 060800Z AUTO 14017G29KT 6SM 27/26 A2941 RMK T02700260 IEM_DS3505
ZGOW,2001-07-06 09:00,ZGOW 060900Z AUTO 14010G31KT 5SM 27/25 A2941 RMK SLP958 T02690254 54000 IEM_DS3505
ZGOW,2001-07-06 10:00,ZGOW 061000Z AUTO 16023G35KT 6SM 25/25 A2947 RMK T02500250 IEM_DS3505
ZGOW,2001-07-06 11:00,ZGOW 061100Z AUTO 16019G31KT 6SM 26/25 A2950 RMK T02600250 IEM_DS3505
ZGOW,2001-07-06 12:00,ZGOW 061200Z AUTO 16012G31KT 7SM 26/24 A2950 RMK 60031 SLP996 T02620239 52038 IEM_DS3505
ZGOW,2001-07-06 13:00,ZGOW 061300Z AUTO 16012KT 6SM RMK IEM_DS3505
ZGOW,2001-07-06 14:00,ZGOW 061400Z AUTO 15012KT 6SM RMK IEM_DS3505
ZGOW,2001-07-06 15:00,ZGOW 061500Z AUTO 16010KT 7SM 26/25 A2959 RMK SLP023 T02650246 52027 IEM_DS3505
ZGOW,2001-07-06 16:00,ZGOW 061600Z AUTO 15014G31KT 6SM 26/26 A2959 RMK T02600260 IEM_DS3505
ZGOW,2001-07-06 18:00,ZGOW 061800Z AUTO 16010KT 7SM 27/25 RMK 60020 SLP024 T02710254 52001 IEM_DS3505
ZGOW,2001-07-06 20:00,ZGOW 062000Z AUTO 15010KT 27/26 A2962 RMK T02700260 IEM_DS3505
ZGOW,2001-07-06 21:00,ZGOW 062100Z AUTO 20010KT 8SM 27/25 RMK 70222 SLP038 T02710254 52014 IEM_DS3505
ZGOW,2001-07-06 22:00,ZGOW 062200Z AUTO 14010KT 6SM 27/26 A2965 RMK T02700260 IEM_DS3505
ZGOW,2001-07-06 23:00,ZGOW 062300Z AUTO 14012KT 6SM 27/26 A2968 RMK T02700260 IEM_DS3505
ZGOW,2001-07-07 00:00,ZGOW 070000Z AUTO 18010KT 9SM 27/26 A2968 RMK 70091 SLP056 T02740256 52018 IEM_DS3505
ZGOW,2001-07-07 01:00,ZGOW 070100Z AUTO 14010KT 6SM 28/27 A2971 RMK T02800270 IEM_DS3505
ZGOW,2001-07-07 02:00,ZGOW 070200Z AUTO 14010KT 27/27 A2971 RMK T02700270 IEM_DS3505
ZGOW,2001-07-07 03:00,ZGOW 070300Z AUTO 16008KT 9SM 28/26 A2974 RMK SLP068 T02790258 52012 IEM_DS3505
ZGOW,2001-07-07 04:00,ZGOW 070400Z AUTO 14012KT 6SM RMK IEM_DS3505
ZGOW,2001-07-07 05:00,ZGOW 070500Z AUTO 15012KT RMK IEM_DS3505
ZGOW,2001-07-07 06:00,ZGOW 070600Z AUTO 18008KT 16SM 29/26 RMK SLP068 T02940263 54000 IEM_DS3505
ZGOW,2001-07-07 07:00,ZGOW 070700Z AUTO 15012KT 6SM RMK IEM_DS3505
ZGOW,2001-07-07 08:00,ZGOW 070800Z AUTO 13010KT 6SM 28/27 A2974 RMK T02800270 IEM_DS3505
ZGOW,2001-07-07 09:00,ZGOW 070900Z AUTO 11004KT 16SM 29/26 A2974 RMK SLP066 T02860264 57002 IEM_DS3505
ZGOW,2001-07-07 10:00,ZGOW 071000Z AUTO 13008KT 28/27 A2974 RMK T02800270 IEM_DS3505
ZGOW,2001-07-07 11:00,ZGOW 071100Z AUTO 13006KT 6SM 27/27 A2974 RMK T02700270 IEM_DS3505
ZGOW,2001-07-07 12:00,ZGOW 071200Z AUTO 16002KT 12SM 27/26 A2977 RMK SLP079 T02740257 52013 IEM_DS3505
ZGOW,2001-07-07 13:00,ZGOW 071300Z AUTO 11004KT 19SM 27/27 A2977 RMK T02700270 IEM_DS3505
ZGOW,2001-07-07 14:00,ZGOW 071400Z AUTO 09004KT 14SM 27/27 A2980 RMK T02700270 IEM_DS3505
ZGOW,2001-07-07 15:00,ZGOW 071500Z AUTO 11004KT 11SM 27/26 RMK SLP097 T02730259 52018 IEM_DS3505
ZGOW,2001-07-07 16:00,ZGOW 071600Z AUTO 11006KT 6SM RMK IEM_DS3505
ZGOW,2001-07-07 17:00,ZGOW 071700Z AUTO 10004KT 6SM RMK IEM_DS3505
ZGOW,2001-07-07 18:00,ZGOW 071800Z AUTO 11004KT 10SM 27/26 RMK 60071 SLP087 T02690258 57010 IEM_DS3505
ZGOW,2001-07-07 19:00,ZGOW 071900Z AUTO 10002KT 6SM RMK IEM_DS3505
ZGOW,2001-07-07 20:00,ZGOW 072000Z AUTO 11004KT 26/26 A2980 RMK T02600260 IEM_DS3505
ZGOW,2001-07-07 21:00,ZGOW 072100Z AUTO 09004KT 9SM 27/26 A2980 RMK 70070 SLP096 T02670256 52009 IEM_DS3505
ZGOW,2001-07-07 22:00,ZGOW 072200Z AUTO 11004KT 6SM RMK IEM_DS3505
ZGOW,2001-07-07 23:00,ZGOW 072300Z AUTO 13006KT 6SM RMK IEM_DS3505
ZGOW,2001-07-08 00:00,ZGOW 080000Z AUTO 11004KT 11SM 28/26 RMK 70070 SLP103 T02820255 52007 IEM_DS3505
ZGOW,2001-07-08 01:00,ZGOW 080100Z AUTO 12006KT 6SM RMK IEM_DS3505
ZGOW,2001-07-08 02:00,ZGOW 080200Z AUTO 11006KT 6SM RMK IEM_DS3505
ZGOW,2001-07-08 03:00,ZGOW 080300Z AUTO 07004KT 14SM 30/25 RMK SLP105 T02960252 52002 IEM_DS3505
ZGOW,2001-07-08 04:00,ZGOW 080400Z AUTO 12006KT RMK IEM_DS3505
ZGOW,2001-07-08 05:00,ZGOW 080500Z AUTO 13006KT 4SM 31/27 A2983 RMK T03100270 IEM_DS3505
ZGOW,2001-07-08 06:00,ZGOW 080600Z AUTO 16004KT 19SM 31/25 A2983 RMK SLP093 T03090253 57012 IEM_DS3505
ZGOW,2001-07-08 07:00,ZGOW 080700Z AUTO 13008KT 6SM 31/28 A2980 RMK T03100280 IEM_DS3505
ZGOW,2001-07-08 08:00,ZGOW 080800Z AUTO 12008KT 6SM RMK IEM_DS3505
ZGOW,2001-07-08 09:00,ZGOW 080900Z AUTO 16006KT 19SM 30/25 A2977 RMK SLP084 T03020251 57009 IEM_DS3505
ZGOW,2001-07-08 10:00,ZGOW 081000Z AUTO 16008KT 6SM 29/27 A2977 RMK T02900270 IEM_DS3505
ZGOW,2001-07-08 11:00,ZGOW 081100Z AUTO 16006KT 6SM 28/27 A2980 RMK T02800270 IEM_DS3505
ZGOW,2001-07-08 12:00,ZGOW 081200Z AUTO 20004KT 17SM 28/25 A2980 RMK SLP093 T02810248 52009 IEM_DS3505
ZGOW,2001-07-08 13:00,ZGOW 081300Z AUTO 17004KT 6SM RMK IEM_DS3505
ZGOW,2001-07-08 14:00,ZGOW 081400Z AUTO 17004KT 6SM 27/27 A2983 RMK T02700270 IEM_DS3505
ZGOW,2001-07-08 15:00,ZGOW 081500Z AUTO 16002KT 12SM 27/26 A2983 RMK SLP102 T02730255 52009 IEM_DS3505
ZGOW,2001-07-08 16:00,ZGOW 081600Z AUTO 27/26 A2980 RMK T02700260 IEM_DS3505
ZGOW,2001-07-08 17:00,ZGOW 081700Z AUTO 27/26 A2980 RMK T02700260 IEM_DS3505
ZGOW,2001-07-08 18:00,ZGOW 081800Z AUTO 29002KT 11SM 27/25 A2977 RMK SLP083 T02670251 57019 IEM_DS3505
ZGOW,2001-07-08 19:00,ZGOW 081900Z AUTO 28002KT 26/26 A2977 RMK T02600260 IEM_DS3505
ZGOW,2001-07-08 20:00,ZGOW 082000Z AUTO 26/26 A2977 RMK T02600260 IEM_DS3505
ZGOW,2001-07-08 21:00,ZGOW 082100Z AUTO 00000KT 9SM 26/25 RMK SLP082 T02560249 57001 IEM_DS3505
ZGOW,2001-07-08 22:00,ZGOW 082200Z AUTO 6SM 26/26 A2980 RMK T02600260 IEM_DS3505
ZGOW,2001-07-08 23:00,ZGOW 082300Z AUTO 6SM 27/27 A2980 RMK T02700270 IEM_DS3505
ZGOW,2001-07-09 00:00,ZGOW 090000Z AUTO 25006KT 8SM 27/25 A2983 RMK SLP097 T02710254 52015 IEM_DS3505
ZGOW,2001-07-09 01:00,ZGOW 090100Z AUTO 26002KT 6SM 29/27 A2983 RMK T02900270 IEM_DS3505
ZGOW,2001-07-09 02:00,ZGOW 090200Z AUTO 25004KT 5SM 30/27 A2983 RMK T03000270 IEM_DS3505
ZGOW,2001-07-09 03:00,ZGOW 090300Z AUTO 29006KT 16SM 30/25 A2983 RMK SLP099 T03050247 52002 IEM_DS3505
ZGOW,2001-07-09 04:00,ZGOW 090400Z AUTO 22002KT 6SM 33/26 A2980 RMK T03300260 IEM_DS3505
ZGOW,2001-07-09 05:00,ZGOW 090500Z AUTO 20006KT 32/27 A2980 RMK T03200270 IEM_DS3505
ZGOW,2001-07-09 06:00,ZGOW 090600Z AUTO 29006KT 19SM 33/24 A2977 RMK SLP082 T03280243 57017 IEM_DS3505
ZGOW,2001-07-09 07:00,ZGOW 090700Z AUTO 23006KT 6SM 34/27 A2974 RMK T03400270 IEM_DS3505
ZGOW,2001-07-09 08:00,ZGOW 090800Z AUTO 23008KT 6SM 34/27 A2971 RMK T03400270 IEM_DS3505
ZGOW,2001-07-09 09:00,ZGOW 090900Z AUTO 20008KT 19SM 33/27 A2971 RMK SLP063 T03280268 57019 IEM_DS3505
ZGOW,2001-07-09 10:00,ZGOW 091000Z AUTO 18008KT 6SM 31/28 A2971 RMK T03100280 IEM_DS3505
ZGOW,2001-07-09 11:00,ZGOW 091100Z AUTO 20006KT 6SM 30/28 A2974 RMK T03000280 IEM_DS3505
ZGOW,2001-07-09 12:00,ZGOW 091200Z AUTO 22004KT 11SM 30/26 A2974 RMK SLP066 T02980265 52003 IEM_DS3505
ZGOW,2001-07-09 13:00,ZGOW 091300Z AUTO 17002KT 6SM 29/28 A2974 RMK T02900280 IEM_DS3505
ZGOW,2001-07-09 14:00,ZGOW 091400Z AUTO 19004KT 6SM 28/27 A2974 RMK T02800270 IEM_DS3505
ZGOW,2001-07-09 15:00,ZGOW 091500Z AUTO 20004KT 8SM 29/26 A2974 RMK SLP076 T02870261 52010 IEM_DS3505
ZGOW,2001-07-09 16:00,ZGOW 091600Z AUTO 26004KT 28/27 A2974 RMK T02800270 IEM_DS3505
ZGOW,2001-07-09 17:00,ZGOW 091700Z AUTO 28002KT 28/27 A2971 RMK T02800270 IEM_DS3505
ZGOW,2001-07-09 18:00,ZGOW 091800Z AUTO 29006KT 7SM 28/26 A2971 RMK SLP064 T02830261 57012 IEM_DS3505
ZGOW,2001-07-09 19:00,ZGOW 091900Z AUTO 32004KT 28/27 A2971 RMK T02800270 IEM_DS3505
ZGOW,2001-07-09 20:00,ZGOW 092000Z AUTO 29002KT 27/27 A2971 RMK T02700270 IEM_DS3505
ZGOW,2001-07-09 21:00,ZGOW 092100Z AUTO 25004KT 7SM 28/26 A2971 RMK SLP061 T02760259 57003 IEM_DS3505
ZGOW,2001-07-09 22:00,ZGOW 092200Z AUTO 25002KT 6SM 27/27 A2971 RMK T02700270 IEM_DS3505
ZGOW,2001-07-09 23:00,ZGOW 092300Z AUTO 28/27 A2974 RMK T02800270 IEM_DS3505
ZGOW,2001-07-10 00:00,ZGOW 100000Z AUTO 25006KT 10SM 29/26 A2974 RMK SLP069 T02910257 52008 IEM_DS3505
ZGOW,2001-07-10 01:00,ZGOW 100100Z AUTO 30004KT 6SM 31/28 A2974 RMK T03100280 IEM_DS3505
ZGOW,2001-07-10 02:00,ZGOW 100200Z AUTO 31004KT 6SM 32/28 A2971 RMK T03200280 IEM_DS3505
ZGOW,2001-07-10 03:00,ZGOW 100300Z AUTO 25008KT 16SM 32/26 A2971 RMK SLP062 T03230265 57007 IEM_DS3505
ZGOW,2001-07-10 04:00,ZGOW 100400Z AUTO 21004KT 6SM RMK IEM_DS3505
ZGOW,2001-07-10 06:00,ZGOW 100600Z AUTO 18008KT 19SM 34/27 A2965 RMK SLP042 T03400269 57020 IEM_DS3505
ZGOW,2001-07-10 07:00,ZGOW 100700Z AUTO 19010KT 6SM 34/28 A2965 RMK T03400280 IEM_DS3505
ZGOW,2001-07-10 08:00,ZGOW 100800Z AUTO 19010KT 6SM 34/29 A2962 RMK T03400290 IEM_DS3505
ZGOW,2001-07-10 09:00,ZGOW 100900Z AUTO 16008KT 16SM 34/27 A2962 RMK SLP030 T03360271 57012 IEM_DS3505
ZGOW,2001-07-10 10:00,ZGOW 101000Z AUTO 18008KT 32/28 A2965 RMK T03200280 IEM_DS3505
ZGOW,2001-07-10 12:00,ZGOW 101200Z AUTO 25006KT 11SM 31/26 A2965 RMK SLP044 T03080262 52014 IEM_DS3505
ZGOW,2001-07-10 13:00,ZGOW 101300Z AUTO 08002KT 6SM 29/28 A2968 RMK T02900280 IEM_DS3505
ZGOW,2001-07-10 14:00,ZGOW 101400Z AUTO 29/28 A2968 RMK T02900280 IEM_DS3505
ZGOW,2001-07-10 15:00,ZGOW 101500Z AUTO 00000KT 6SM 29/26 RMK SLP053 T02940255 52009 IEM_DS3505
ZGOW,2001-07-10 15:01,ZGOW 101501Z AUTO 29/28 A2968 RMK T02900280 IEM_DS3505
ZGOW,2001-07-10 16:00,ZGOW 101600Z AUTO 28/28 A2965 RMK T02800280 IEM_DS3505
ZGOW,2001-07-10 17:00,ZGOW 101700Z AUTO 35002KT 28/28 A2965 RMK T02800280 IEM_DS3505
ZGOW,2001-07-10 18:00,ZGOW 101800Z AUTO 32004KT 6SM 29/27 A2965 RMK SLP035 T02900269 57018 IEM_DS3505
ZGOW,2001-07-10 19:00,ZGOW 101900Z AUTO 35002KT 28/27 A2962 RMK T02800270 IEM_DS3505
ZGOW,2001-07-10 20:00,ZGOW 102000Z AUTO 28/27 A2965 RMK T02800270 IEM_DS3505
ZGOW,2001-07-10 21:00,ZGOW 102100Z AUTO 25006KT 6SM 28/27 A2962 RMK SLP038 T02850266 52003 IEM_DS3505
ZGOW,2001-07-10 22:00,ZGOW 102200Z AUTO 12002KT 27/27 A2965 RMK T02700270 IEM_DS3505
ZGOW,2001-07-10 23:00,ZGOW 102300Z AUTO 6SM 28/28 A2965 RMK T02800280 IEM_DS3505
ZGOW,2001-07-11 00:00,ZGOW 110000Z AUTO 00000KT 4SM 30/27 A2965 RMK SLP043 T03000270 52005 IEM_DS3505
ZGOW,2001-07-11 01:00,ZGOW 110100Z AUTO 27002KT 6SM 31/28 A2965 RMK T03100280 IEM_DS3505
ZGOW,2001-07-11 02:00,ZGOW 110200Z AUTO 27004KT 31/28 A2962 RMK T03100280 IEM_DS3505
ZGOW,2001-07-11 03:00,ZGOW 110300Z AUTO 25004KT 6SM 33/27 A2962 RMK SLP036 T03270268 57007 IEM_DS3505
ZGOW,2001-07-11 04:00,ZGOW 110400Z AUTO 19006KT 12SM 34/29 A2962 RMK T03400290 IEM_DS3505
ZGOW,2001-07-11 05:00,ZGOW 110500Z AUTO 19010KT 34/29 A2959 RMK T03400290 IEM_DS3505
ZGOW,2001-07-11 06:00,ZGOW 110600Z AUTO 25008KT 6SM 35/26 A2956 RMK SLP013 T03480263 57023 IEM_DS3505
ZGOW,2001-07-11 07:00,ZGOW 110700Z AUTO 19008KT 6SM 34/29 A2956 RMK T03400290 IEM_DS3505
ZGOW,2001-07-11 08:00,ZGOW 110800Z AUTO 20008KT 6SM 33/29 A2953 RMK T03300290 IEM_DS3505
ZGOW,2001-07-11 09:00,ZGOW 110900Z AUTO 29004KT 6SM 28/25 A2956 RMK SLP009 T02810254 57004 IEM_DS3505
ZGOW,2001-07-11 10:00,ZGOW 111000Z AUTO 16004KT 25SM 27/26 A2956 RMK T02700260 IEM_DS3505
ZGOW,2001-07-11 11:00,ZGOW 111100Z AUTO 6SM 27/26 A2956 RMK T02700260 IEM_DS3505
ZGOW,2001-07-11 12:00,ZGOW 111200Z AUTO 04004KT 9SM 29/26 A2959 RMK 60028 SLP023 T02860258 52014 IEM_DS3505
ZGOW,2001-07-11 13:00,ZGOW 111300Z AUTO 06006KT 6SM RMK IEM_DS3505
ZGOW,2001-07-11 14:00,ZGOW 111400Z AUTO 19012KT 25/25 A2962 RMK T02500250 IEM_DS3505
ZGOW,2001-07-11 15:00,ZGOW 111500Z AUTO 32002KT 6SM 27/25 RMK SLP017 T02660246 57006 IEM_DS3505
ZGOW,2001-07-11 17:00,ZGOW 111700Z AUTO 31002KT 26/25 A2956 RMK T02600250 IEM_DS3505
ZGOW,2001-07-11 18:00,ZGOW 111800Z AUTO 00000KT 7SM 27/25 A2953 RMK 60035 SLP009 T02670249 57008 IEM_DS3505
ZGOW,2001-07-11 19:00,ZGOW 111900Z AUTO 26/26 A2956 RMK T02600260 IEM_DS3505
ZGOW,2001-07-11 20:00,ZGOW 112000Z AUTO 14002KT 26/26 A2956 RMK T02600260 IEM_DS3505
ZGOW,2001-07-11 21:00,ZGOW 112100Z AUTO 00000KT 6SM 28/26 A2953 RMK 70062 SLP005 T02750255 57004 IEM_DS3505
ZGOW,2001-07-11 22:00,ZGOW 112200Z AUTO 03002KT 6SM 26/26 A2956 RMK T02600260 IEM_DS3505
ZGOW,2001-07-11 23:00,ZGOW 112300Z AUTO 07002KT 6SM 27/27 A2956 RMK T02700270 IEM_DS3505
ZGOW,2001-07-12 00:00,ZGOW 120000Z AUTO 29002KT 2 1/2SM 29/27 A2956 RMK 70062 SLP016 T02880267 52011 IEM_DS3505
ZGOW,2001-07-12 01:00,ZGOW 120100Z AUTO 31002KT 29/28 A2956 RMK T02900280 IEM_DS3505
ZGOW,2001-07-12 02:00,ZGOW 120200Z AUTO 6SM 28/27 A2956 RMK T02800270 IEM_DS3505
ZGOW,2001-07-12 03:00,ZGOW 120300Z AUTO 29006KT 2SM 30/27 A2956 RMK SLP009 T03040271 57007 IEM_DS3505
ZGOW,2001-07-12 04:00,ZGOW 120400Z AUTO 06006KT 6SM 28/28 A2956 RMK T02800280 IEM_DS3505
ZGOW,2001-07-12 05:00,ZGOW 120500Z AUTO 11006KT 6SM RMK IEM_DS3505
ZGOW,2001-07-12 06:00,ZGOW 120600Z AUTO 16002KT 2SM 28/27 A2956 RMK 60016 SLP005 T02780268 57004 IEM_DS3505
ZGOW,2001-07-12 07:00,ZGOW 120700Z AUTO 19012KT 28/28 A2953 RMK T02800280 IEM_DS3505
ZGOW,2001-07-12 08:00,ZGOW 120800Z AUTO 22010KT 4SM 28/27 A2956 RMK T02800270 IEM_DS3505
ZGOW,2001-07-12 09:00,ZGOW 120900Z AUTO 25008KT 2SM 28/27 A2956 RMK SLP009 T02780267 52004 IEM_DS3505
ZGOW,2001-07-12 10:00,ZGOW 121000Z AUTO 00000KT 5SM RMK 60067 SLP025 52016 IEM_DS3505
ZGOW,2001-07-12 11:00,ZGOW 121100Z AUTO 05006KT 9SM 25/24 A2959 RMK T02500240 IEM_DS3505
ZGOW,2001-07-12 12:00,ZGOW 121200Z AUTO 00000KT 5SM 25/24 A2959 RMK 60067 SLP025 T02500236 52016 IEM_DS3505
ZGOW,2001-07-12 13:00,ZGOW 121300Z AUTO 28004KT 6SM 25/25 A2959 RMK T02500250 IEM_DS3505
ZGOW,2001-07-12 14:00,ZGOW 121400Z AUTO 29004KT 6SM 25/25 A2959 RMK T02500250 IEM_DS3505
ZGOW,2001-07-12 15:00,ZGOW 121500Z AUTO 27006KT 5SM 26/23 A2962 RMK SLP031 T02550233 52006 IEM_DS3505
ZGOW,2001-07-12 16:00,ZGOW 121600Z AUTO 30002KT 25/24 A2959 RMK T02500240 IEM_DS3505
ZGOW,2001-07-12 17:00,ZGOW 121700Z AUTO 17004KT 25/24 A2959 RMK T02500240 IEM_DS3505
ZGOW,2001-07-12 18:00,ZGOW 121800Z AUTO 22002KT 5SM 25/23 A2959 RMK 60000 SLP018 T02540234 57013 IEM_DS3505
ZGOW,2001-07-12 19:00,ZGOW 121900Z AUTO 19006KT 25/24 A2959 RMK T02500240 IEM_DS3505
ZGOW,2001-07-12 20:00,ZGOW 122000Z AUTO 17004KT 25/24 A2956 RMK T02500240 IEM_DS3505
ZGOW,2001-07-12 21:00,ZGOW 122100Z AUTO 00000KT 5SM 25/24 A2956 RMK 70083 SLP013 T02520242 57005 IEM_DS3505
ZGOW,2001-07-12 22:00,ZGOW 122200Z AUTO 18002KT 25/25 A2959 RMK T02500250 IEM_DS3505
ZGOW,2001-07-12 23:00,ZGOW 122300Z AUTO 6SM 26/25 A2962 RMK T02600250 IEM_DS3505
ZGOW,2001-07-13 00:00,ZGOW 130000Z AUTO 27002KT 9SM 26/24 A2962 RMK 70083 SLP036 T02650244 52023 IEM_DS3505
ZGOW,2001-07-13 01:00,ZGOW 130100Z AUTO 29004KT 12SM RMK IEM_DS3505
ZGOW,2001-07-13 02:00,ZGOW 130200Z AUTO 33002KT 6SM 29/27 A2965 RMK T02900270 IEM_DS3505
ZGOW,2001-07-13 03:00,ZGOW 130300Z AUTO 27004KT 9SM 29/24 A2965 RMK SLP042 T02860237 52006 IEM_DS3505
ZGOW,2001-07-13 04:00,ZGOW 130400Z AUTO 16006KT 10SM 28/26 A2965 RMK T02800260 IEM_DS3505
ZGOW,2001-07-13 05:00,ZGOW 130500Z AUTO 23012KT 6SM 24/24 A2968 RMK T02400240 IEM_DS3505
ZGOW,2001-07-13 06:00,ZGOW 130600Z AUTO 27006KT 6SM 25/24 A2965 RMK 60063 SLP044 T02490236 52002 IEM_DS3505
ZGOW,2001-07-13 07:00,ZGOW 130700Z AUTO 26/25 A2962 RMK T02600250 IEM_DS3505
ZGOW,2001-07-13 08:00,ZGOW 130800Z AUTO 13002KT 6SM 27/25 A2962 RMK T02700250 IEM_DS3505
ZGOW,2001-07-13 09:00,ZGOW 130900Z AUTO 22002KT 11SM 27/23 A2965 RMK SLP042 T02730232 57002 IEM_DS3505
ZGOW,2001-07-13 10:00,ZGOW 131000Z AUTO 15006KT 6SM RMK IEM_DS3505
ZGOW,2001-07-13 11:00,ZGOW 131100Z AUTO 14004KT 37SM 26/25 A2965 RMK T02600250 IEM_DS3505
ZGOW,2001-07-13 12:00,ZGOW 131200Z AUTO 16006KT 11SM 26/24 RMK 60002 SLP049 T02570237 52007 IEM_DS3505
ZGOW,2001-07-13 13:00,ZGOW 131300Z AUTO 13002KT 6SM 25/24 A2968 RMK T02500240 IEM_DS3505
ZGOW,2001-07-13 14:00,ZGOW 131400Z AUTO 16002KT RMK IEM_DS3505
ZGOW,2001-07-13 15:00,ZGOW 131500Z AUTO 16004KT 11SM 26/24 A2971 RMK SLP062 T02550242 52013 IEM_DS3505
ZGOW,2001-07-13 16:00,ZGOW 131600Z AUTO 25/25 A2971 RMK T02500250 IEM_DS3505
ZGOW,2001-07-13 17:00,ZGOW 131700Z AUTO 25/25 A2968 RMK T02500250 IEM_DS3505
ZGOW,2001-07-13 18:00,ZGOW 131800Z AUTO 00000KT 9SM 25/24 A2968 RMK SLP056 T02520245 57006 IEM_DS3505
ZGOW,2001-07-13 19:00,ZGOW 131900Z AUTO 24/24 A2968 RMK T02400240 IEM_DS3505
ZGOW,2001-07-13 20:00,ZGOW 132000Z AUTO 13002KT 24/24 A2968 RMK T02400240 IEM_DS3505
ZGOW,2001-07-13 21:00,ZGOW 132100Z AUTO 34002KT 7SM 25/24 A2968 RMK 70065 SLP056 T02500244 54000 IEM_DS3505
ZGOW,2001-07-13 22:00,ZGOW 132200Z AUTO 6SM 25/25 A2971 RMK T02500250 IEM_DS3505
ZGOW,2001-07-13 23:00,ZGOW 132300Z AUTO 25/25 A2974 RMK T02500250 IEM_DS3505
ZGOW,2001-07-14 00:00,ZGOW 140000Z AUTO 16004KT 6SM 27/24 A2974 RMK 70065 SLP074 T02690245 52018 IEM_DS3505
ZGOW,2001-07-14 01:00,ZGOW 140100Z AUTO 13002KT 28/26 A2977 RMK T02800260 IEM_DS3505
ZGOW,2001-07-14 02:00,ZGOW 140200Z AUTO 23002KT 30/26 A2974 RMK T03000260 IEM_DS3505
ZGOW,2001-07-14 03:00,ZGOW 140300Z AUTO 29006KT 11SM 30/24 RMK SLP071 T03040238 57003 IEM_DS3505
ZGOW,2001-07-14 04:00,ZGOW 140400Z AUTO 15008KT 6SM 29/27 A2977 RMK T02900270 IEM_DS3505
ZGOW,2001-07-14 05:00,ZGOW 140500Z AUTO 16010KT 6SM RMK IEM_DS3505
ZGOW,2001-07-14 06:00,ZGOW 140600Z AUTO 16008KT 12SM 30/25 RMK 60000 SLP069 T02950254 57002 IEM_DS3505
ZGOW,2001-07-14 07:00,ZGOW 140700Z AUTO 16010KT 9SM RMK IEM_DS3505
ZGOW,2001-07-14 08:00,ZGOW 140800Z AUTO 17010KT 6SM 29/28 A2971 RMK T02900280 IEM_DS3505
ZGOW,2001-07-14 09:00,ZGOW 140900Z AUTO 16010KT 12SM 29/26 A2971 RMK SLP065 T02910257 57004 IEM_DS3505
ZGOW,2001-07-14 10:00,ZGOW 141000Z AUTO 18008KT 29/27 A2974 RMK T02900270 IEM_DS3505
ZGOW,2001-07-14 11:00,ZGOW 141100Z AUTO 19010KT 6SM RMK IEM_DS3505
ZGOW,2001-07-14 12:00,ZGOW 141200Z AUTO 20006KT 9SM 28/26 RMK SLP080 T02820260 52015 IEM_DS3505
ZGOW,2001-07-14 13:00,ZGOW 141300Z AUTO 19004KT 6SM RMK IEM_DS3505
ZGOW,2001-07-14 14:00,ZGOW 141400Z AUTO 18004KT 6SM RMK IEM_DS3505
ZGOW,2001-07-14 15:00,ZGOW 141500Z AUTO 20004KT 7SM 28/26 A2980 RMK SLP090 T02780263 52010 IEM_DS3505
ZGOW,2001-07-14 16:00,ZGOW 141600Z AUTO 19006KT 28/27 A2980 RMK T02800270 IEM_DS3505
ZGOW,2001-07-14 17:00,ZGOW 141700Z AUTO 19004KT 28/27 A2977 RMK T02800270 IEM_DS3505
ZGOW,2001-07-14 18:00,ZGOW 141800Z AUTO 22002KT 7SM 27/26 A2977 RMK SLP084 T02730259 57006 IEM_DS3505
ZGOW,2001-07-14 19:00,ZGOW 141900Z AUTO 18004KT 27/27 A2974 RMK T02700270 IEM_DS3505
ZGOW,2001-07-14 20:00,ZGOW 142000Z AUTO 15002KT 27/27 A2974 RMK T02700270 IEM_DS3505
ZGOW,2001-07-14 21:00,ZGOW 142100Z AUTO 20006KT 7SM 27/26 A2974 RMK 70005 SLP075 T02720259 57009 IEM_DS3505
ZGOW,2001-07-14 22:00,ZGOW 142200Z AUTO 15004KT 6SM 27/27 A2977 RMK T02700270 IEM_DS3505
ZGOW,2001-07-14 23:00,ZGOW 142300Z AUTO 18004KT 6SM 28/27 A2977 RMK T02800270 IEM_DS3505
ZGOW,2001-07-15 00:00,ZGOW 150000Z AUTO 20004KT 9SM 28/26 RMK 60004 SLP080 T02830264 52005 IEM_DS3505
ZGOW,2001-07-15 01:00,ZGOW 150100Z AUTO 20008KT 12SM RMK IEM_DS3505
ZGOW,2001-07-15 02:00,ZGOW 150200Z AUTO 17012KT RMK IEM_DS3505
ZGOW,2001-07-15 03:00,ZGOW 150300Z AUTO 20010KT 12SM 30/26 RMK SLP079 T03010262 57001 IEM_DS3505
ZGOW,2001-07-15 04:00,ZGOW 150400Z AUTO 19012G21KT 6SM RMK IEM_DS3505
ZGOW,2001-07-15 05:00,ZGOW 150500Z AUTO 28014KT RMK IEM_DS3505
ZGOW,2001-07-15 06:00,ZGOW 150600Z AUTO 00000KT 12SM 25/24 RMK 60118 SLP070 T02540243 57009 IEM_DS3505
ZGOW,2001-07-15 07:00,ZGOW 150700Z AUTO 26004KT 6SM 26/25 A2974 RMK T02600250 IEM_DS3505
ZGOW,2001-07-15 08:00,ZGOW 150800Z AUTO 26002KT 6SM 27/25 A2974 RMK T02700250 IEM_DS3505
ZGOW,2001-07-15 09:00,ZGOW 150900Z AUTO 27006KT 14SM 27/24 A2971 RMK SLP065 T02700237 57005 IEM_DS3505
ZGOW,2001-07-15 10:00,ZGOW 151000Z AUTO 25004KT 6SM 28/25 A2974 RMK T02800250 IEM_DS3505
ZGOW,2001-07-15 11:00,ZGOW 151100Z AUTO 27002KT 6SM 27/25 A2974 RMK T02700250 IEM_DS3505
ZGOW,2001-07-15 12:00,ZGOW 151200Z AUTO 00000KT 10SM 26/25 A2977 RMK SLP082 T02650246 52017 IEM_DS3505
ZGOW,2001-07-15 13:00,ZGOW 151300Z AUTO 02002KT 12SM RMK IEM_DS3505
ZGOW,2001-07-15 14:00,ZGOW 151400Z AUTO 6SM 26/25 A2980 RMK T02600250 IEM_DS3505
ZGOW,2001-07-15 15:00,ZGOW 151500Z AUTO 00000KT 7SM 26/25 A2980 RMK SLP090 T02640250 52008 IEM_DS3505
ZGOW,2001-07-15 16:00,ZGOW 151600Z AUTO 25/25 A2977 RMK T02500250 IEM_DS3505
ZGOW,2001-07-15 17:00,ZGOW 151700Z AUTO 25/25 A2977 RMK T02500250 IEM_DS3505
ZGOW,2001-07-15 18:00,ZGOW 151800Z AUTO 07004KT 7SM 26/25 A2977 RMK SLP077 T02580248 57013 IEM_DS3505
ZGOW,2001-07-15 19:00,ZGOW 151900Z AUTO 25/25 A2974 RMK T02500250 IEM_DS3505
ZGOW,2001-07-15 20:00,ZGOW 152000Z AUTO 25/25 A2974 RMK T02500250 IEM_DS3505
ZGOW,2001-07-15 21:00,ZGOW 152100Z AUTO 22002KT 7SM 26/24 A2974 RMK 70120 SLP075 T02550241 57002 IEM_DS3505
ZGOW,2001-07-15 22:00,ZGOW 152200Z AUTO 20002KT 25/25 A2974 RMK T02500250 IEM_DS3505
ZGOW,2001-07-15 23:00,ZGOW 152300Z AUTO 6SM 26/26 A2977 RMK T02600260 IEM_DS3505
ZGOW,2001-07-16 00:00,ZGOW 160000Z AUTO 00000KT 11SM 28/24 A2974 RMK 70119 SLP077 T02800238 52002 IEM_DS3505
ZGOW,2001-07-16 01:00,ZGOW 160100Z AUTO 20006KT 6SM RMK IEM_DS3505
ZGOW,2001-07-16 02:00,ZGOW 160200Z AUTO 19004KT 6SM RMK IEM_DS3505
ZGOW,2001-07-16 03:00,ZGOW 160300Z AUTO 25006KT 11SM 30/24 RMK SLP077 T02980244 54000 IEM_DS3505
ZGOW,2001-07-16 04:00,ZGOW 160400Z AUTO 18006KT 6SM 29/27 A2974 RMK T02900270 IEM_DS3505
ZGOW,2001-07-16 05:00,ZGOW 160500Z AUTO 20006KT 31SM 24/24 A2974 RMK T02400240 IEM_DS3505
ZGOW,2001-07-16 06:00,ZGOW 160600Z AUTO 20008KT 16SM 25/24 RMK 60075 SLP060 T02540241 57017 IEM_DS3505
ZGOW,2001-07-16 07:00,ZGOW 160700Z AUTO 17006KT 6SM 26/25 A2968 RMK T02600250 IEM_DS3505
ZGOW,2001-07-16 08:00,ZGOW 160800Z AUTO 22006KT 6SM 27/26 A2968 RMK T02700260 IEM_DS3505
ZGOW,2001-07-16 09:00,ZGOW 160900Z AUTO 20004KT 12SM 27/24 A2965 RMK SLP046 T02680245 57014 IEM_DS3505
ZGOW,2001-07-16 10:00,ZGOW 161000Z AUTO 15002KT 6SM 27/26 A2968 RMK T02700260 IEM_DS3505
ZGOW,2001-07-16 11:00,ZGOW 161100Z AUTO 16002KT 16SM RMK IEM_DS3505
ZGOW,2001-07-16 12:00,ZGOW 161200Z AUTO 04002KT 7SM 26/25 RMK SLP058 T02610248 52012 IEM_DS3505
ZGOW,2001-07-16 13:00,ZGOW 161300Z AUTO 33002KT 6SM RMK IEM_DS3505
ZGOW,2001-07-16 14:00,ZGOW 161400Z AUTO 32004KT 9SM 25/25 A2971 RMK T02500250 IEM_DS3505
ZGOW,2001-07-16 15:00,ZGOW 161500Z AUTO 00000KT 9SM 25/24 RMK SLP061 T02490237 52003 IEM_DS3505
ZGOW,2001-07-16 16:00,ZGOW 161600Z AUTO 33002KT 6SM 24/24 A2971 RMK T02400240 IEM_DS3505
ZGOW,2001-07-16 17:00,ZGOW 161700Z AUTO 24/24 A2968 RMK T02400240 IEM_DS3505
ZGOW,2001-07-16 18:00,ZGOW 161800Z AUTO 04004KT 9SM 24/23 A2965 RMK 60004 SLP044 T02440232 57017 IEM_DS3505
ZGOW,2001-07-16 19:00,ZGOW 161900Z AUTO 24/24 A2965 RMK T02400240 IEM_DS3505
ZGOW,2001-07-16 20:00,ZGOW 162000Z AUTO 24/24 A2965 RMK T02400240 IEM_DS3505
ZGOW,2001-07-16 21:00,ZGOW 162100Z AUTO 27004KT 6SM 24/23 A2965 RMK 70098 SLP044 T02410231 54000 IEM_DS3505
ZGOW,2001-07-16 22:00,ZGOW 162200Z AUTO 6SM 24/24 A2965 RMK T02400240 IEM_DS3505
ZGOW,2001-07-16 23:00,ZGOW 162300Z AUTO 13002KT 6SM 24/24 A2968 RMK T02400240 IEM_DS3505
ZGOW,2001-07-17 00:00,ZGOW 170000Z AUTO 16004KT 6SM 24/24 A2971 RMK 60071 SLP057 T02450239 52013 IEM_DS3505
ZGOW,2001-07-17 01:00,ZGOW 170100Z AUTO 13004KT 6SM 24/24 A2971 RMK T02400240 IEM_DS3505
ZGOW,2001-07-17 02:00,ZGOW 170200Z AUTO 20004KT 6SM 25/25 A2971 RMK T02500250 IEM_DS3505
ZGOW,2001-07-17 03:00,ZGOW 170300Z AUTO 20006KT 8SM 26/25 A2971 RMK SLP062 T02650249 52005 IEM_DS3505
ZGOW,2001-07-17 04:00,ZGOW 170400Z AUTO 19004KT 6SM RMK IEM_DS3505
ZGOW,2001-07-17 05:00,ZGOW 170500Z AUTO 18002KT 6SM RMK IEM_DS3505
ZGOW,2001-07-17 06:00,ZGOW 170600Z AUTO 20004KT 11SM 29/24 RMK 60004 SLP040 T02860236 57022 IEM_DS3505
ZGOW,2001-07-17 07:00,ZGOW 170700Z AUTO 16008KT 6SM 27/26 A2965 RMK T02700260 IEM_DS3505
ZGOW,2001-07-17 08:00,ZGOW 170800Z AUTO 15004KT 12SM RMK IEM_DS3505
ZGOW,2001-07-17 09:00,ZGOW 170900Z AUTO 16006KT 11SM 27/24 A2962 RMK SLP036 T02740243 57004 IEM_DS3505
ZGOW,2001-07-17 10:00,ZGOW 171000Z AUTO 17006KT 6SM 26/25 A2962 RMK T02600250 IEM_DS3505
ZGOW,2001-07-17 11:00,ZGOW 171100Z AUTO 16004KT 6SM RMK IEM_DS3505
ZGOW,2001-07-17 12:00,ZGOW 171200Z AUTO 11004KT 9SM 26/24 A2965 RMK 60002 SLP048 T02610245 52012 IEM_DS3505
ZGOW,2001-07-17 13:00,ZGOW 171300Z AUTO 12004KT 6SM 26/25 A2968 RMK T02600250 IEM_DS3505
ZGOW,2001-07-17 14:00,ZGOW 171400Z AUTO 11006KT 6SM 26/26 A2968 RMK T02600260 IEM_DS3505
ZGOW,2001-07-17 15:00,ZGOW 171500Z AUTO 18002KT 9SM 26/25 A2968 RMK SLP054 T02620249 52006 IEM_DS3505
ZGOW,2001-07-17 18:00,ZGOW 171800Z AUTO 16004KT 7SM 27/26 RMK 60016 SLP023 T02660256 57031 IEM_DS3505
ZGOW,2001-07-17 21:00,ZGOW 172100Z AUTO 29004KT 5SM 24/24 A2959 RMK 70142 SLP026 T02420239 52003 IEM_DS3505
ZGOW,2001-07-17 22:00,ZGOW 172200Z AUTO 23002KT 6SM 24/24 A2962 RMK T02400240 IEM_DS3505
ZGOW,2001-07-17 23:00,ZGOW 172300Z AUTO 6SM 24/24 A2962 RMK T02400240 IEM_DS3505
ZGOW,2001-07-18 00:00,ZGOW 180000Z AUTO 00000KT 7SM 25/24 A2965 RMK 60142 SLP039 T02460240 52013 IEM_DS3505
ZGOW,2001-07-18 01:00,ZGOW 180100Z AUTO 17002KT 6SM 25/25 A2968 RMK T02500250 IEM_DS3505
ZGOW,2001-07-18 02:00,ZGOW 180200Z AUTO 16002KT 2 1/2SM 25/25 A2968 RMK T02500250 IEM_DS3505
ZGOW,2001-07-18 03:00,ZGOW 180300Z AUTO 20004KT 7SM 26/25 A2968 RMK SLP044 T02570246 52005 IEM_DS3505
ZGOW,2001-07-18 04:00,ZGOW 180400Z AUTO 19004KT 6SM 26/25 A2968 RMK T02600250 IEM_DS3505
ZGOW,2001-07-18 05:00,ZGOW 180500Z AUTO 24002KT 6SM 26/26 A2968 RMK T02600260 IEM_DS3505
ZGOW,2001-07-18 06:00,ZGOW 180600Z AUTO 27006KT 8SM 26/25 RMK 60024 SLP044 T02630246 54000 IEM_DS3505
ZGOW,2001-07-18 08:00,ZGOW 180800Z AUTO 6SM RMK IEM_DS3505
ZGOW,2001-07-18 09:00,ZGOW 180900Z AUTO 22004KT 9SM 26/24 RMK SLP039 T02620243 57005 IEM_DS3505
ZGOW,2001-07-18 10:00,ZGOW 181000Z AUTO 12002KT 6SM RMK IEM_DS3505
ZGOW,2001-07-18 11:00,ZGOW 181100Z AUTO 09002KT 6SM RMK IEM_DS3505
ZGOW,2001-07-18 12:00,ZGOW 181200Z AUTO 07004KT 9SM 26/25 RMK 60008 SLP047 T02620249 52008 IEM_DS3505
ZGOW,2001-07-18 13:00,ZGOW 181300Z AUTO 09004KT RMK IEM_DS3505
ZGOW,2001-07-18 14:00,ZGOW 181400Z AUTO 11004KT 26/25 A2971 RMK T02600250 IEM_DS3505
ZGOW,2001-07-18 15:00,ZGOW 181500Z AUTO 20002KT 7SM 26/25 A2971 RMK SLP058 T02640253 52011 IEM_DS3505
ZGOW,2001-07-18 16:00,ZGOW 181600Z AUTO 13006KT 26/26 A2971 RMK T02600260 IEM_DS3505
ZGOW,2001-07-18 17:00,ZGOW 181700Z AUTO 11004KT 26/26 A2968 RMK T02600260 IEM_DS3505
ZGOW,2001-07-18 18:00,ZGOW 181800Z AUTO 16004KT 7SM 27/26 A2968 RMK 60000 SLP054 T02680260 57004 IEM_DS3505
ZGOW,2001-07-18 20:00,ZGOW 182000Z AUTO 15004KT 26/26 A2968 RMK T02600260 IEM_DS3505
ZGOW,2001-07-18 21:00,ZGOW 182100Z AUTO 20004KT 6SM 27/26 A2968 RMK 70101 SLP049 T02690261 57005 IEM_DS3505
ZGOW,2001-07-18 22:00,ZGOW 182200Z AUTO 19SM 26/26 A2968 RMK T02600260 IEM_DS3505
ZGOW,2001-07-18 23:00,ZGOW 182300Z AUTO 6SM RMK IEM_DS3505
ZGOW,2001-07-19 00:00,ZGOW 190000Z AUTO 20004KT 8SM 28/26 RMK 70031 SLP059 T02760262 52010 IEM_DS3505
ZGOW,2001-07-19 01:00,ZGOW 190100Z AUTO 15006KT 6SM RMK IEM_DS3505
ZGOW,2001-07-19 02:00,ZGOW 190200Z AUTO 15008KT 15SM RMK IEM_DS3505
ZGOW,2001-07-19 03:00,ZGOW 190300Z AUTO 20008KT 14SM 30/26 RMK SLP061 T03030261 52002 IEM_DS3505
ZGOW,2001-07-19 04:00,ZGOW 190400Z AUTO 14010KT RMK IEM_DS3505
ZGOW,2001-07-19 05:00,ZGOW 190500Z AUTO 16010KT 6SM RMK IEM_DS3505
ZGOW,2001-07-19 06:00,ZGOW 190600Z AUTO 20004KT 12SM 29/26 RMK 60003 SLP055 T02860258 57006 IEM_DS3505
ZGOW,2001-07-19 07:00,ZGOW 190700Z AUTO 14008KT 19SM RMK IEM_DS3505
ZGOW,2001-07-19 08:00,ZGOW 190800Z AUTO 13010KT 6SM RMK IEM_DS3505
ZGOW,2001-07-19 09:00,ZGOW 190900Z AUTO 27004KT 12SM 27/26 RMK SLP050 T02660255 57005 IEM_DS3505
ZGOW,2001-07-19 10:00,ZGOW 191000Z AUTO 12004KT 6SM RMK IEM_DS3505
ZGOW,2001-07-19 11:00,ZGOW 191100Z AUTO 6SM RMK IEM_DS3505
ZGOW,2001-07-19 12:00,ZGOW 191200Z AUTO 00000KT 7SM 26/25 RMK 60102 SLP061 T02620254 52011 IEM_DS3505
ZGOW,2001-07-19 13:00,ZGOW 191300Z AUTO 26002KT 6SM RMK IEM_DS3505
ZGOW,2001-07-19 14:00,ZGOW 191400Z AUTO 30002KT 6SM RMK IEM_DS3505
ZGOW,2001-07-19 15:00,ZGOW 191500Z AUTO 25002KT 6SM 26/25 RMK SLP070 T02610254 52009 IEM_DS3505
ZGOW,2001-07-19 16:00,ZGOW 191600Z AUTO 26/26 A2971 RMK T02600260 IEM_DS3505
ZGOW,2001-07-19 17:00,ZGOW 191700Z AUTO 26/26 A2968 RMK T02600260 IEM_DS3505
ZGOW,2001-07-19 18:00,ZGOW 191800Z AUTO 00000KT 6SM 26/26 A2968 RMK 60000 SLP052 T02590256 57018 IEM_DS3505
ZGOW,2001-07-19 20:00,ZGOW 192000Z AUTO 09002KT 26/ A2968 RMK IEM_DS3505
ZGOW,2001-07-19 21:00,ZGOW 192100Z AUTO 00000KT 4SM 26/26 A2968 RMK 70103 SLP055 T02600257 52003 IEM_DS3505
ZGOW,2001-07-19 22:00,ZGOW 192200Z AUTO 06002KT 6SM 26/26 A2968 RMK T02600260 IEM_DS3505
ZGOW,2001-07-19 23:00,ZGOW 192300Z AUTO 05004KT 6SM 27/26 A2971 RMK T02700260 IEM_DS3505
ZGOW,2001-07-20 00:00,ZGOW 200000Z AUTO 25002KT 4SM 27/26 RMK 60001 SLP065 T02670260 52010 IEM_DS3505
ZGOW,2001-07-20 01:00,ZGOW 200100Z AUTO 11008KT 6SM RMK IEM_DS3505
ZGOW,2001-07-20 02:00,ZGOW 200200Z AUTO 10008KT 6SM RMK IEM_DS3505
ZGOW,2001-07-20 03:00,ZGOW 200300Z AUTO 09006KT 9SM 30/26 RMK SLP066 T02970256 52001 IEM_DS3505
ZGOW,2001-07-20 04:00,ZGOW 200400Z AUTO 13008KT 6SM RMK IEM_DS3505
ZGOW,2001-07-20 05:00,ZGOW 200500Z AUTO 12006KT 5SM 31/27 A2968 RMK T03100270 IEM_DS3505
ZGOW,2001-07-20 06:00,ZGOW 200600Z AUTO 14004KT 17SM 31/24 A2968 RMK 60000 SLP054 T03130245 57012 IEM_DS3505
ZGOW,2001-07-20 07:00,ZGOW 200700Z AUTO 13008KT 6SM RMK IEM_DS3505
ZGOW,2001-07-20 08:00,ZGOW 200800Z AUTO 14008KT 6SM 31/26 A2968 RMK T03100260 IEM_DS3505
ZGOW,2001-07-20 09:00,ZGOW 200900Z AUTO 11006KT 19SM 30/25 A2965 RMK SLP041 T02990250 57013 IEM_DS3505
ZGOW,2001-07-20 10:00,ZGOW 201000Z AUTO 09006KT 6SM 29/26 A2962 RMK T02900260 IEM_DS3505
ZGOW,2001-07-20 11:00,ZGOW 201100Z AUTO 14008KT 6SM 28/26 A2965 RMK T02800260 IEM_DS3505
ZGOW,2001-07-20 12:00,ZGOW 201200Z AUTO 16006KT 12SM 28/24 A2968 RMK SLP050 T02770244 52009 IEM_DS3505
ZGOW,2001-07-20 13:00,ZGOW 201300Z AUTO 14006KT 6SM 27/26 A2968 RMK T02700260 IEM_DS3505
ZGOW,2001-07-20 14:00,ZGOW 201400Z AUTO 11004KT 6SM 27/26 A2971 RMK T02700260 IEM_DS3505
ZGOW,2001-07-20 15:00,ZGOW 201500Z AUTO 11002KT 10SM 28/25 A2971 RMK SLP062 T02760248 52012 IEM_DS3505
ZGOW,2001-07-20 17:00,ZGOW 201700Z AUTO 05004KT 26/ A2968 RMK IEM_DS3505
ZGOW,2001-07-20 18:00,ZGOW 201800Z AUTO 07004KT 8SM 27/25 A2971 RMK SLP055 T02660249 57007 IEM_DS3505
ZGOW,2001-07-20 19:00,ZGOW 201900Z AUTO 07004KT 26/00 A2968 RMK T02600000 IEM_DS3505
ZGOW,2001-07-20 20:00,ZGOW 202000Z AUTO 06008KT 26/00 A2968 RMK T02600000 IEM_DS3505
ZGOW,2001-07-20 21:00,ZGOW 202100Z AUTO 04006KT 7SM 27/25 RMK 70002 SLP052 T02680252 57003 IEM_DS3505
ZGOW,2001-07-20 22:00,ZGOW 202200Z AUTO 06010KT 6SM RMK IEM_DS3505
ZGOW,2001-07-20 23:00,ZGOW 202300Z AUTO 07010KT 6SM RMK IEM_DS3505
ZGOW,2001-07-21 00:00,ZGOW 210000Z AUTO 07008KT 9SM 29/25 RMK 70000 SLP069 T02890249 52017 IEM_DS3505
ZGOW,2001-07-21 01:00,ZGOW 210100Z AUTO 10014KT 6SM RMK IEM_DS3505
ZGOW,2001-07-21 02:00,ZGOW 210200Z AUTO 11014KT 6SM 30/27 A2977 RMK T03000270 IEM_DS3505
ZGOW,2001-07-21 03:00,ZGOW 210300Z AUTO 11006KT 9SM 29/26 RMK SLP079 T02860262 52010 IEM_DS3505
ZGOW,2001-07-21 04:00,ZGOW 210400Z AUTO 11012KT 19SM RMK IEM_DS3505
ZGOW,2001-07-21 05:00,ZGOW 210500Z AUTO 10012KT RMK IEM_DS3505
ZGOW,2001-07-21 06:00,ZGOW 210600Z AUTO 16008KT 14SM 30/25 A2974 RMK 60003 SLP075 T02990248 57004 IEM_DS3505
ZGOW,2001-07-21 07:00,ZGOW 210700Z 10005MPS 9999 FEW018 FEW024TCU 31/27 Q1007 NOSIG
ZGOW,2001-07-21 08:00,ZGOW 210800Z 12006MPS 9999 SCT016 FEW030CB BKN070 30/27 Q1006 NOSIG
ZGOW,2001-07-21 09:00,ZGOW 210900Z 10004MPS 9999 SCT018 FEW028CB BKN036 28/26 Q1007 NOSIG
ZGOW,2001-07-21 10:00,ZGOW 211000Z 10004MPS 9999 FEW016 FEW030CB SCT230 28/26 Q1007 NOSIG
ZGOW,2001-07-21 11:00,ZGOW 211100Z 11003MPS 9999 FEW018 27/26 Q1007 NOSIG
ZGOW,2001-07-21 12:00,ZGOW 211200Z 10003MPS 9999 FEW018 27/26 Q1008 NOSIG
ZGOW,2001-07-21 13:00,ZGOW 211300Z AUTO 10006KT 27/26 A2980 RMK T02700260 IEM_DS3505
ZGOW,2001-07-21 14:00,ZGOW 211400Z AUTO 10006KT 6SM 27/26 A2980 RMK T02700260 IEM_DS3505
ZGOW,2001-07-21 15:00,ZGOW 211500Z AUTO 11004KT 10SM 27/26 A2980 RMK SLP093 T02740260 52013 IEM_DS3505
ZGOW,2001-07-21 16:00,ZGOW 211600Z AUTO 10004KT 27/00 A2980 RMK T02700000 IEM_DS3505
ZGOW,2001-07-21 17:00,ZGOW 211700Z AUTO 08004KT 27/00 A2980 RMK T02700000 IEM_DS3505
ZGOW,2001-07-21 18:00,ZGOW 211800Z AUTO 07004KT 9SM 27/ A2980 RMK SLP088 57005 IEM_DS3505
ZGOW,2001-07-21 19:00,ZGOW 211900Z AUTO 10002KT 26/00 A2980 RMK T02600000 IEM_DS3505
ZGOW,2001-07-21 20:00,ZGOW 212000Z AUTO 07004KT 26/00 A2980 RMK T02600000 IEM_DS3505
ZGOW,2001-07-21 21:00,ZGOW 212100Z AUTO 07004KT 9SM 27/26 A2980 RMK 70013 SLP087 T02710260 57001 IEM_DS3505
ZGOW,2001-07-21 22:00,ZGOW 212200Z AUTO 09004KT 6SM 27/26 A2980 RMK T02700260 IEM_DS3505
ZGOW,2001-07-21 23:00,ZGOW 212300Z AUTO 08006KT 6SM 27/27 A2980 RMK T02700270 IEM_DS3505
ZGOW,2001-07-22 00:00,ZGOW 220000Z AUTO 09006KT 15SM 29/25 A2980 RMK 70013 SLP092 T02860252 52005 IEM_DS3505
ZGOW,2001-07-22 01:00,ZGOW 220100Z AUTO 11008KT RMK IEM_DS3505
ZGOW,2001-07-22 02:00,ZGOW 220200Z AUTO 11010KT 6SM RMK IEM_DS3505
ZGOW,2001-07-22 03:00,ZGOW 220300Z AUTO 16004KT 19SM 30/25 RMK SLP101 T03010247 52009 IEM_DS3505
ZGOW,2001-07-22 04:00,ZGOW 220400Z AUTO 11010KT 6SM RMK IEM_DS3505
ZGOW,2001-07-22 05:00,ZGOW 220500Z AUTO 13008KT 6SM RMK IEM_DS3505
ZGOW,2001-07-22 06:00,ZGOW 220600Z AUTO 20002KT 19SM 30/25 RMK SLP096 T03040251 57005 IEM_DS3505
ZGOW,2001-07-22 07:00,ZGOW 220700Z AUTO 14010KT 6SM RMK IEM_DS3505
ZGOW,2001-07-22 08:00,ZGOW 220800Z AUTO 14008KT 6SM 31/25 A2980 RMK T03100250 IEM_DS3505
ZGOW,2001-07-22 09:00,ZGOW 220900Z AUTO 16006KT 19SM 31/25 A2980 RMK SLP083 T03060250 57013 IEM_DS3505
ZGOW,2001-07-22 10:00,ZGOW 221000Z AUTO 15006KT 6SM 29/25 A2977 RMK T02900250 IEM_DS3505
ZGOW,2001-07-22 11:00,ZGOW 221100Z AUTO 13006KT 28/26 A2980 RMK T02800260 IEM_DS3505
ZGOW,2001-07-22 12:00,ZGOW 221200Z AUTO 16004KT 16SM 28/25 A2980 RMK SLP094 T02810254 52011 IEM_DS3505
ZGOW,2001-07-22 13:00,ZGOW 221300Z AUTO 17002KT 6SM 27/26 A2980 RMK T02700260 IEM_DS3505
ZGOW,2001-07-22 14:00,ZGOW 221400Z AUTO 15002KT 27/26 A2983 RMK T02700260 IEM_DS3505
ZGOW,2001-07-22 15:00,ZGOW 221500Z AUTO 20002KT 12SM 27/25 A2983 RMK SLP101 T02740251 52007 IEM_DS3505
ZGOW,2001-07-22 16:00,ZGOW 221600Z AUTO 6SM 27/26 A2983 RMK T02700260 IEM_DS3505
ZGOW,2001-07-22 17:00,ZGOW 221700Z AUTO 6SM 27/25 A2983 RMK T02700250 IEM_DS3505
ZGOW,2001-07-22 18:00,ZGOW 221800Z AUTO 00000KT 11SM 27/25 RMK SLP096 T02680254 57005 IEM_DS3505
ZGOW,2001-07-22 18:01,ZGOW 221801Z AUTO 31002KT 26/05 A2980 RMK T02600050 IEM_DS3505
ZGOW,2001-07-22 19:01,ZGOW 221901Z AUTO 31002KT 26/06 A2977 RMK T02600060 IEM_DS3505
ZGOW,2001-07-22 20:00,ZGOW 222000Z AUTO 34002KT 26/08 A2977 RMK T02600080 IEM_DS3505
ZGOW,2001-07-22 21:00,ZGOW 222100Z AUTO 36002KT 10SM 26/25 A2977 RMK 70003 SLP082 T02590249 57014 IEM_DS3505
ZGOW,2001-07-22 22:00,ZGOW 222200Z AUTO 32002KT 31SM 26/25 A2977 RMK T02600250 IEM_DS3505
ZGOW,2001-07-22 23:00,ZGOW 222300Z AUTO 30004KT 12SM 26/26 A2977 RMK T02600260 IEM_DS3505
ZGOW,2001-07-23 00:00,ZGOW 230000Z AUTO 29002KT 10SM 28/25 A2977 RMK 70003 SLP079 T02800252 57003 IEM_DS3505
ZGOW,2001-07-23 01:00,ZGOW 230100Z AUTO 29006KT 6SM 29/27 A2977 RMK T02900270 IEM_DS3505
ZGOW,2001-07-23 02:00,ZGOW 230200Z AUTO 27006KT 6SM 31/27 A2974 RMK T03100270 IEM_DS3505
ZGOW,2001-07-23 03:00,ZGOW 230300Z AUTO 29008KT 12SM 31/24 A2974 RMK SLP071 T03120244 57008 IEM_DS3505
ZGOW,2001-07-23 04:00,ZGOW 230400Z AUTO 35004KT 6SM RMK IEM_DS3505
ZGOW,2001-07-23 05:00,ZGOW 230500Z AUTO 11008KT 13SM 34/28 A2971 RMK T03400280 IEM_DS3505
ZGOW,2001-07-23 06:00,ZGOW 230600Z AUTO 18004KT 19SM 34/24 A2968 RMK SLP059 T03400243 57012 IEM_DS3505
ZGOW,2001-07-23 07:00,ZGOW 230700Z AUTO 12008KT 34/26 A2968 RMK T03400260 IEM_DS3505
ZGOW,2001-07-23 08:00,ZGOW 230800Z AUTO 14010KT 6SM 33/27 A2968 RMK T03300270 IEM_DS3505
ZGOW,2001-07-23 09:00,ZGOW 230900Z AUTO 16006KT 16SM 32/23 A2968 RMK SLP050 T03240229 57009 IEM_DS3505
ZGOW,2001-07-23 10:00,ZGOW 231000Z AUTO 14008KT 6SM RMK IEM_DS3505
ZGOW,2001-07-23 11:00,ZGOW 231100Z AUTO 14004KT 29/26 A2965 RMK T02900260 IEM_DS3505
ZGOW,2001-07-23 12:00,ZGOW 231200Z AUTO 11006KT 11SM 30/23 RMK SLP049 T02970229 57001 IEM_DS3505
ZGOW,2001-07-23 13:00,ZGOW 231300Z AUTO 12004KT 6SM 28/26 A2968 RMK T02800260 IEM_DS3505
ZGOW,2001-07-23 14:00,ZGOW 231400Z AUTO 15002KT 6SM 28/26 A2968 RMK T02800260 IEM_DS3505
ZGOW,2001-07-23 15:00,ZGOW 231500Z AUTO 02002KT 11SM 29/24 A2968 RMK SLP053 T02860243 52004 IEM_DS3505
ZGOW,2001-07-23 16:00,ZGOW 231600Z AUTO 6SM RMK IEM_DS3505
ZGOW,2001-07-23 17:00,ZGOW 231700Z AUTO 30002KT 6SM RMK IEM_DS3505
ZGOW,2001-07-23 18:00,ZGOW 231800Z AUTO 27006KT 10SM 28/24 A2965 RMK SLP037 T02790242 57016 IEM_DS3505
ZGOW,2001-07-23 19:00,ZGOW 231900Z AUTO 33002KT 27/05 A2965 RMK T02700050 IEM_DS3505
ZGOW,2001-07-23 20:00,ZGOW 232000Z AUTO 32002KT 27/05 A2965 RMK T02700050 IEM_DS3505
ZGOW,2001-07-23 21:00,ZGOW 232100Z AUTO 00000KT 6SM 28/24 A2965 RMK SLP040 T02760242 52003 IEM_DS3505
ZGOW,2001-07-23 22:00,ZGOW 232200Z AUTO 31002KT 6SM 27/26 A2965 RMK T02700260 IEM_DS3505
ZGOW,2001-07-23 23:00,ZGOW 232300Z AUTO 34004KT 6SM 28/26 A2965 RMK T02800260 IEM_DS3505
ZGOW,2001-07-24 00:00,ZGOW 240000Z AUTO 07002KT 6SM 29/24 A2965 RMK SLP048 T02900245 52008 IEM_DS3505
ZGOW,2001-07-24 01:00,ZGOW 240100Z AUTO 04002KT 7SM 31/26 A2968 RMK T03100260 IEM_DS3505
ZGOW,2001-07-24 02:00,ZGOW 240200Z AUTO 08006KT 6SM 32/26 A2968 RMK T03200260 IEM_DS3505
ZGOW,2001-07-24 03:00,ZGOW 240300Z AUTO 07006KT 7SM 33/24 A2968 RMK SLP047 T03280235 57001 IEM_DS3505
ZGOW,2001-07-24 04:00,ZGOW 240400Z AUTO 08014KT 6SM 32/26 A2968 RMK T03200260 IEM_DS3505
ZGOW,2001-07-24 05:00,ZGOW 240500Z AUTO 07016KT 32/26 RMK T03200260 IEM_DS3505
ZGOW,2001-07-24 06:00,ZGOW 240600Z AUTO 07008KT 12SM 32/23 A2968 RMK SLP045 T03230231 57002 IEM_DS3505
ZGOW,2001-07-24 07:00,ZGOW 240700Z AUTO 11016KT 7SM 32/26 A2965 RMK T03200260 IEM_DS3505
ZGOW,2001-07-24 08:00,ZGOW 240800Z AUTO 10014KT 6SM 31/26 A2965 RMK T03100260 IEM_DS3505
ZGOW,2001-07-24 09:00,ZGOW 240900Z AUTO 07012KT 11SM 30/24 A2965 RMK SLP042 T03030237 57003 IEM_DS3505
ZGOW,2001-07-24 10:00,ZGOW 241000Z AUTO 09008KT 6SM 29/26 A2968 RMK T02900260 IEM_DS3505
ZGOW,2001-07-24 11:00,ZGOW 241100Z AUTO 09008KT 6SM 29/26 A2968 RMK T02900260 IEM_DS3505
ZGOW,2001-07-24 12:00,ZGOW 241200Z AUTO 07006KT 9SM 29/24 A2968 RMK SLP056 T02880244 52014 IEM_DS3505
ZGOW,2001-07-24 13:00,ZGOW 241300Z AUTO 08008KT 6SM 28/26 A2971 RMK T02800260 IEM_DS3505
ZGOW,2001-07-24 14:00,ZGOW 241400Z AUTO 09008KT 6SM 28/26 A2971 RMK T02800260 IEM_DS3505
ZGOW,2001-07-24 15:00,ZGOW 241500Z AUTO 07008KT 7SM 28/25 A2971 RMK SLP060 T02810248 52004 IEM_DS3505
ZGOW,2001-07-24 16:00,ZGOW 241600Z AUTO 09008KT 6SM 28/25 A2971 RMK T02800250 IEM_DS3505
ZGOW,2001-07-24 17:00,ZGOW 241700Z AUTO 09008KT 6SM 27/25 A2971 RMK T02700250 IEM_DS3505
ZGOW,2001-07-24 18:00,ZGOW 241800Z AUTO 07006KT 7SM 28/25 RMK SLP056 T02780247 57004 IEM_DS3505
ZGOW,2001-07-24 21:00,ZGOW 242100Z AUTO 07004KT 7SM 28/25 RMK SLP051 T02780247 57005 IEM_DS3505
ZGOW,2001-07-24 23:00,ZGOW 242300Z AUTO 11006KT RMK IEM_DS3505
ZGOW,2001-07-25 00:00,ZGOW 250000Z AUTO 11008KT 11SM 28/25 A2971 RMK 60003 SLP062 T02830253 52011 IEM_DS3505
ZGOW,2001-07-25 01:00,ZGOW 250100Z AUTO 12012KT 6SM 29/27 A2971 RMK T02900270 IEM_DS3505
ZGOW,2001-07-25 02:00,ZGOW 250200Z AUTO 11014KT 6SM 30/27 A2971 RMK T03000270 IEM_DS3505
ZGOW,2001-07-25 03:00,ZGOW 250300Z AUTO 11008KT 16SM 30/25 RMK SLP069 T03010249 52007 IEM_DS3505
ZGOW,2001-07-25 04:00,ZGOW 250400Z AUTO 14012KT 26/26 A2974 RMK T02600260 IEM_DS3505
ZGOW,2001-07-25 05:00,ZGOW 250500Z AUTO 13012KT 6SM 29/26 A2974 RMK T02900260 IEM_DS3505
ZGOW,2001-07-25 06:00,ZGOW 250600Z AUTO 16008KT 8SM 26/24 A2974 RMK 60012 SLP066 T02650245 57003 IEM_DS3505
ZGOW,2001-07-25 07:00,ZGOW 250700Z AUTO 12008KT 6SM RMK IEM_DS3505
ZGOW,2001-07-25 08:00,ZGOW 250800Z AUTO 13012KT 6SM 30/27 A2971 RMK T03000270 IEM_DS3505
ZGOW,2001-07-25 09:00,ZGOW 250900Z AUTO 11006KT 16SM 29/25 RMK SLP063 T02910250 57003 IEM_DS3505
ZGOW,2001-07-25 10:00,ZGOW 251000Z AUTO 13012KT RMK IEM_DS3505
ZGOW,2001-07-25 11:00,ZGOW 251100Z AUTO 12010KT 6SM RMK IEM_DS3505
ZGOW,2001-07-25 12:00,ZGOW 251200Z AUTO 16008KT 11SM 28/25 A2974 RMK 60004 SLP076 T02780253 52013 IEM_DS3505
ZGOW,2001-07-25 13:00,ZGOW 251300Z AUTO 09006KT 6SM RMK IEM_DS3505
ZGOW,2001-07-25 14:00,ZGOW 251400Z AUTO 09006KT 27/26 A2977 RMK T02700260 IEM_DS3505
ZGOW,2001-07-25 15:00,ZGOW 251500Z AUTO 11004KT 11SM 28/25 A2977 RMK SLP081 T02760248 52005 IEM_DS3505
ZGOW,2001-07-25 16:00,ZGOW 251600Z AUTO 09006KT 27/26 A2977 RMK T02700260 IEM_DS3505
ZGOW,2001-07-25 17:00,ZGOW 251700Z AUTO 09004KT 27/26 A2977 RMK T02700260 IEM_DS3505
ZGOW,2001-07-25 18:00,ZGOW 251800Z AUTO 11004KT 11SM 27/25 A2974 RMK 60002 SLP075 T02700253 57006 IEM_DS3505
ZGOW,2001-07-25 19:00,ZGOW 251900Z AUTO 10004KT 26/26 A2974 RMK T02600260 IEM_DS3505
ZGOW,2001-07-25 20:00,ZGOW 252000Z AUTO 09004KT 26/26 A2974 RMK T02600260 IEM_DS3505
ZGOW,2001-07-25 21:00,ZGOW 252100Z AUTO 07004KT 11SM 27/25 A2974 RMK 70019 SLP074 T02720252 57001 IEM_DS3505
ZGOW,2001-07-25 22:00,ZGOW 252200Z AUTO 09004KT 6SM 27/26 A2977 RMK T02700260 IEM_DS3505
ZGOW,2001-07-25 23:00,ZGOW 252300Z AUTO 09006KT 6SM 27/27 A2977 RMK T02700270 IEM_DS3505
ZGOW,2001-07-26 00:00,ZGOW 260000Z AUTO 16006KT 11SM 28/26 RMK 60008 SLP082 T02830259 52008 IEM_DS3505
ZGOW,2001-07-26 01:00,ZGOW 260100Z AUTO 15008KT 12SM RMK IEM_DS3505
ZGOW,2001-07-26 02:00,ZGOW 260200Z AUTO 13010KT 6SM RMK IEM_DS3505
ZGOW,2001-07-26 03:00,ZGOW 260300Z AUTO 20004KT 10SM 28/26 RMK SLP086 T02850257 52004 IEM_DS3505
ZGOW,2001-07-26 04:00,ZGOW 260400Z AUTO 15010KT 6SM RMK IEM_DS3505
ZGOW,2001-07-26 05:00,ZGOW 260500Z AUTO 15012KT 12SM RMK IEM_DS3505
ZGOW,2001-07-26 06:00,ZGOW 260600Z AUTO 16008KT 19SM 31/25 RMK 60004 SLP079 T03100248 57007 IEM_DS3505
ZGOW,2001-07-26 07:00,ZGOW 260700Z AUTO 16010KT 6SM RMK IEM_DS3505
ZGOW,2001-07-26 08:00,ZGOW 260800Z AUTO 15010KT 5SM RMK IEM_DS3505
ZGOW,2001-07-26 09:00,ZGOW 260900Z AUTO 16008KT 16SM 30/24 RMK SLP066 T02960243 57013 IEM_DS3505
ZGOW,2001-07-26 10:00,ZGOW 261000Z AUTO 16008KT 10SM 29/24 A2974 RMK T02900240 IEM_DS3505
ZGOW,2001-07-26 11:00,ZGOW 261100Z AUTO 15006KT 6SM RMK IEM_DS3505
ZGOW,2001-07-26 12:00,ZGOW 261200Z AUTO 18004KT 11SM 28/25 A2977 RMK SLP075 T02820252 52009 IEM_DS3505
ZGOW,2001-07-26 13:00,ZGOW 261300Z AUTO 13004KT 6SM 28/25 A2980 RMK T02800250 IEM_DS3505
ZGOW,2001-07-26 14:00,ZGOW 261400Z AUTO 15002KT 6SM 27/26 A2980 RMK T02700260 IEM_DS3505
ZGOW,2001-07-26 15:00,ZGOW 261500Z AUTO 18004KT 11SM 28/25 A2980 RMK SLP091 T02800253 52016 IEM_DS3505
ZGOW,2001-07-26 16:00,ZGOW 261600Z AUTO 27/26 A2980 RMK T02700260 IEM_DS3505
ZGOW,2001-07-26 17:00,ZGOW 261700Z AUTO 27/26 A2980 RMK T02700260 IEM_DS3505
ZGOW,2001-07-26 18:00,ZGOW 261800Z AUTO 16004KT 11SM 28/25 A2977 RMK SLP082 T02750252 57009 IEM_DS3505
ZGOW,2001-07-26 19:00,ZGOW 261900Z AUTO 26/26 A2977 RMK T02600260 IEM_DS3505
ZGOW,2001-07-26 20:01,ZGOW 262001Z AUTO 26/26 A2974 RMK T02600260 IEM_DS3505
ZGOW,2001-07-26 21:00,ZGOW 262100Z AUTO 16002KT 9SM 27/25 A2974 RMK 70012 SLP073 T02690251 57009 IEM_DS3505
ZGOW,2001-07-26 22:00,ZGOW 262200Z AUTO 6SM 26/25 A2974 RMK T02600250 IEM_DS3505
ZGOW,2001-07-26 23:00,ZGOW 262300Z AUTO 6SM 28/26 A2974 RMK T02800260 IEM_DS3505
ZGOW,2001-07-27 00:00,ZGOW 270000Z AUTO 18006KT 12SM 29/25 RMK 70004 SLP078 T02910246 52005 IEM_DS3505
ZGOW,2001-07-27 01:00,ZGOW 270100Z AUTO 11006KT 6SM RMK IEM_DS3505
ZGOW,2001-07-27 02:00,ZGOW 270200Z AUTO 12006KT 6SM 30/27 A2977 RMK T03000270 IEM_DS3505
ZGOW,2001-07-27 03:00,ZGOW 270300Z AUTO 16004KT 19SM 31/25 RMK SLP077 T03100246 57001 IEM_DS3505
ZGOW,2001-07-27 05:00,ZGOW 270500Z AUTO 14008KT RMK IEM_DS3505
ZGOW,2001-07-27 06:00,ZGOW 270600Z AUTO 16006KT 19SM 31/24 RMK 60003 SLP069 T03100242 57008 IEM_DS3505
ZGOW,2001-07-27 07:00,ZGOW 270700Z AUTO 13008KT RMK IEM_DS3505
ZGOW,2001-07-27 08:00,ZGOW 270800Z AUTO 16008KT 6SM 31/26 A2971 RMK T03100260 IEM_DS3505
ZGOW,2001-07-27 09:00,ZGOW 270900Z AUTO 25006KT 16SM 30/24 A2971 RMK SLP059 T03040235 57010 IEM_DS3505
ZGOW,2001-07-27 10:00,ZGOW 271000Z AUTO 16006KT 6SM 30/26 A2971 RMK T03000260 IEM_DS3505
ZGOW,2001-07-27 11:00,ZGOW 271100Z AUTO 16008KT 6SM 29/25 A2971 RMK T02900250 IEM_DS3505
ZGOW,2001-07-27 12:00,ZGOW 271200Z AUTO 20006KT 11SM 28/24 A2974 RMK SLP068 T02850245 52009 IEM_DS3505
ZGOW,2001-07-27 13:00,ZGOW 271300Z AUTO 19004KT 6SM 28/25 A2974 RMK T02800250 IEM_DS3505
ZGOW,2001-07-27 14:00,ZGOW 271400Z AUTO 20006KT 6SM 28/26 A2977 RMK T02800260 IEM_DS3505
ZGOW,2001-07-27 15:00,ZGOW 271500Z AUTO 22004KT 9SM 28/25 A2977 RMK SLP080 T02800249 52012 IEM_DS3505
ZGOW,2001-07-27 16:00,ZGOW 271600Z AUTO 20004KT 6SM 28/26 A2974 RMK T02800260 IEM_DS3505
ZGOW,2001-07-27 17:00,ZGOW 271700Z AUTO 18002KT 6SM 27/26 A2974 RMK T02700260 IEM_DS3505
ZGOW,2001-07-27 18:00,ZGOW 271800Z AUTO 25002KT 9SM 27/25 A2971 RMK SLP063 T02710251 57017 IEM_DS3505
ZGOW,2001-07-27 19:00,ZGOW 271900Z AUTO 27/26 A2971 RMK T02700260 IEM_DS3505
ZGOW,2001-07-27 20:00,ZGOW 272000Z AUTO 33002KT 26/26 A2968 RMK T02600260 IEM_DS3505
ZGOW,2001-07-27 21:00,ZGOW 272100Z AUTO 29004KT 6SM 27/25 A2968 RMK 70003 SLP056 T02660248 57007 IEM_DS3505
ZGOW,2001-07-27 22:00,ZGOW 272200Z AUTO 32002KT 6SM 26/26 A2971 RMK T02600260 IEM_DS3505
ZGOW,2001-07-27 23:00,ZGOW 272300Z AUTO 31004KT 6SM 27/26 A2971 RMK T02700260 IEM_DS3505
ZGOW,2001-07-28 00:00,ZGOW 280000Z AUTO 29006KT 6SM 28/25 A2971 RMK 70003 SLP066 T02790254 52010 IEM_DS3505
ZGOW,2001-07-28 01:00,ZGOW 280100Z AUTO 32004KT 6SM RMK IEM_DS3505
ZGOW,2001-07-28 02:00,ZGOW 280200Z AUTO 26002KT 6SM RMK IEM_DS3505
ZGOW,2001-07-28 03:00,ZGOW 280300Z AUTO 25008KT 9SM 31/24 RMK SLP069 T03120244 52003 IEM_DS3505
ZGOW,2001-07-28 04:00,ZGOW 280400Z AUTO 17008KT 33/26 A2971 RMK T03300260 IEM_DS3505
ZGOW,2001-07-28 05:00,ZGOW 280500Z AUTO 18010KT 33/27 A2971 RMK T03300270 IEM_DS3505
ZGOW,2001-07-28 06:00,ZGOW 280600Z AUTO 22008KT 16SM 32/26 A2968 RMK SLP052 T03190256 57017 IEM_DS3505
ZGOW,2001-07-28 07:00,ZGOW 280700Z AUTO 18008KT 31/26 A2968 RMK T03100260 IEM_DS3505
ZGOW,2001-07-28 08:00,ZGOW 280800Z AUTO 18008KT 6SM 31/27 A2965 RMK T03100270 IEM_DS3505
ZGOW,2001-07-28 09:00,ZGOW 280900Z AUTO 20006KT 9SM 31/26 A2965 RMK SLP043 T03080259 57009 IEM_DS3505
ZGOW,2001-07-28 10:00,ZGOW 281000Z AUTO 19006KT 6SM RMK IEM_DS3505
ZGOW,2001-07-28 11:00,ZGOW 281100Z AUTO 15004KT 17SM 29/27 A2965 RMK T02900270 IEM_DS3505
ZGOW,2001-07-28 12:00,ZGOW 281200Z AUTO 25004KT 4SM 29/25 A2968 RMK SLP046 T02940253 52003 IEM_DS3505
ZGOW,2001-07-28 13:00,ZGOW 281300Z AUTO 6SM 29/27 A2968 RMK T02900270 IEM_DS3505
ZGOW,2001-07-28 14:00,ZGOW 281400Z AUTO 28/26 A2968 RMK T02800260 IEM_DS3505
ZGOW,2001-07-28 15:00,ZGOW 281500Z AUTO 25004KT 4SM 29/25 A2968 RMK SLP059 T02860252 52013 IEM_DS3505
ZGOW,2001-07-28 16:00,ZGOW 281600Z AUTO 28/27 A2968 RMK T02800270 IEM_DS3505
ZGOW,2001-07-28 17:00,ZGOW 281700Z AUTO 28002KT 28/27 A2968 RMK T02800270 IEM_DS3505
ZGOW,2001-07-28 18:00,ZGOW 281800Z AUTO 29002KT 5SM 28/26 A2965 RMK SLP047 T02810257 57012 IEM_DS3505
ZGOW,2001-07-28 19:00,ZGOW 281900Z AUTO 31004KT 27/27 A2968 RMK T02700270 IEM_DS3505
ZGOW,2001-07-28 20:00,ZGOW 282000Z AUTO 35002KT 27/27 A2968 RMK T02700270 IEM_DS3505
ZGOW,2001-07-28 21:00,ZGOW 282100Z AUTO 07004KT 4SM 28/26 A2968 RMK SLP049 T02760261 52002 IEM_DS3505
ZGOW,2001-07-28 22:00,ZGOW 282200Z AUTO 6SM 27/27 A2968 RMK T02700270 IEM_DS3505
ZGOW,2001-07-28 23:00,ZGOW 282300Z AUTO 01002KT 6SM 28/27 A2971 RMK T02800270 IEM_DS3505
ZGOW,2001-07-29 00:00,ZGOW 290000Z AUTO 32002KT 5SM 29/26 A2971 RMK SLP060 T02900256 52011 IEM_DS3505
ZGOW,2001-07-29 01:00,ZGOW 290100Z AUTO 33004KT 6SM 30/28 A2971 RMK T03000280 IEM_DS3505
ZGOW,2001-07-29 02:00,ZGOW 290200Z AUTO 6SM 31/27 A2971 RMK T03100270 IEM_DS3505
ZGOW,2001-07-29 03:00,ZGOW 290300Z AUTO 27006KT 6SM 31/26 A2971 RMK SLP059 T03100263 57001 IEM_DS3505
ZGOW,2001-07-29 04:00,ZGOW 290400Z AUTO 15008KT 6SM 33/26 A2968 RMK T03300260 IEM_DS3505
ZGOW,2001-07-29 05:00,ZGOW 290500Z AUTO 16008KT 6SM 33/27 A2968 RMK T03300270 IEM_DS3505
ZGOW,2001-07-29 06:00,ZGOW 290600Z AUTO 18008KT 7SM 32/27 A2965 RMK SLP043 T03220267 57016 IEM_DS3505
ZGOW,2001-07-29 07:00,ZGOW 290700Z AUTO 16012KT 6SM 32/27 A2965 RMK T03200270 IEM_DS3505
ZGOW,2001-07-29 08:00,ZGOW 290800Z AUTO 16012KT 6SM 32/27 A2962 RMK T03200270 IEM_DS3505
ZGOW,2001-07-29 09:00,ZGOW 290900Z AUTO 25010KT 7SM 31/25 A2962 RMK SLP035 T03100251 57008 IEM_DS3505
ZGOW,2001-07-29 10:00,ZGOW 291000Z AUTO 21006KT 6SM 30/26 A2962 RMK T03000260 IEM_DS3505
ZGOW,2001-07-29 11:00,ZGOW 291100Z AUTO 27004KT 25SM 29/25 A2965 RMK T02900250 IEM_DS3505
ZGOW,2001-07-29 12:00,ZGOW 291200Z AUTO 25004KT 4SM 29/24 A2965 RMK SLP041 T02900238 52006 IEM_DS3505
ZGOW,2001-07-29 13:00,ZGOW 291300Z AUTO 6SM 29/24 A2968 RMK T02900240 IEM_DS3505
ZGOW,2001-07-29 14:00,ZGOW 291400Z AUTO 29/26 A2968 RMK T02900260 IEM_DS3505
ZGOW,2001-07-29 15:00,ZGOW 291500Z AUTO 27002KT 4SM 29/25 A2968 RMK SLP052 T02880247 52011 IEM_DS3505
ZGOW,2001-07-29 18:00,ZGOW 291800Z AUTO 29002KT 2 1/2SM 28/25 RMK SLP045 T02780251 57007 IEM_DS3505
ZGOW,2001-07-29 21:00,ZGOW 292100Z AUTO 29004KT 4SM 27/25 A2965 RMK SLP044 T02720252 57001 IEM_DS3505
ZGOW,2001-07-29 22:00,ZGOW 292200Z AUTO 6SM 27/26 A2965 RMK T02700260 IEM_DS3505
ZGOW,2001-07-29 23:00,ZGOW 292300Z AUTO 26002KT 6SM 28/26 A2965 RMK T02800260 IEM_DS3505
ZGOW,2001-07-30 00:00,ZGOW 300000Z AUTO 25006KT 3SM 28/26 A2968 RMK SLP049 T02790258 52005 IEM_DS3505
ZGOW,2001-07-30 01:00,ZGOW 300100Z AUTO 26008KT 6SM 30/27 A2968 RMK T03000270 IEM_DS3505
ZGOW,2001-07-30 02:00,ZGOW 300200Z AUTO 26008KT 6SM 31/28 A2968 RMK T03100280 IEM_DS3505
ZGOW,2001-07-30 03:00,ZGOW 300300Z AUTO 25006KT 4SM 32/26 A2968 RMK SLP049 T03150255 54000 IEM_DS3505
ZGOW,2001-07-30 04:00,ZGOW 300400Z AUTO 24008KT 6SM 33/27 A2965 RMK T03300270 IEM_DS3505
ZGOW,2001-07-30 05:00,ZGOW 300500Z AUTO 25008KT 6SM 34/27 A2962 RMK T03400270 IEM_DS3505
ZGOW,2001-07-30 06:00,ZGOW 300600Z AUTO 25010KT 5SM 35/23 A2962 RMK SLP030 T03460229 57019 IEM_DS3505
ZGOW,2001-07-30 07:00,ZGOW 300700Z AUTO 21012KT 6SM 34/28 A2959 RMK T03400280 IEM_DS3505
ZGOW,2001-07-30 08:00,ZGOW 300800Z AUTO 21012KT 6SM RMK IEM_DS3505
ZGOW,2001-07-30 09:00,ZGOW 300900Z AUTO 25014KT 5SM 33/26 RMK SLP016 T03280256 57014 IEM_DS3505
ZGOW,2001-07-30 10:00,ZGOW 301000Z AUTO 23014KT 6SM RMK IEM_DS3505
ZGOW,2001-07-30 11:00,ZGOW 301100Z AUTO 24014KT 6SM 31/26 A2959 RMK T03100260 IEM_DS3505
ZGOW,2001-07-30 12:00,ZGOW 301200Z AUTO 25010KT 6SM 30/25 A2962 RMK SLP036 T03000252 52020 IEM_DS3505
ZGOW,2001-07-30 13:00,ZGOW 301300Z AUTO 24008KT 6SM 30/26 A2968 RMK T03000260 IEM_DS3505
ZGOW,2001-07-30 14:00,ZGOW 301400Z AUTO 24012KT 6SM 29/26 A2965 RMK T02900260 IEM_DS3505
ZGOW,2001-07-30 15:00,ZGOW 301500Z AUTO 25010KT 7SM 29/25 A2968 RMK SLP053 T02910252 52017 IEM_DS3505
ZGOW,2001-07-30 16:00,ZGOW 301600Z AUTO 25008KT 6SM 29/26 A2965 RMK T02900260 IEM_DS3505
ZGOW,2001-07-30 17:01,ZGOW 301701Z AUTO 25010KT 6SM 29/26 A2965 RMK T02900260 IEM_DS3505
ZGOW,2001-07-30 18:00,ZGOW 301800Z AUTO 25006KT 7SM 29/25 A2965 RMK SLP042 T02880254 57011 IEM_DS3505
ZGOW,2001-07-30 19:00,ZGOW 301900Z AUTO 24006KT 4SM 28/26 A2965 RMK T02800260 IEM_DS3505
ZGOW,2001-07-30 20:00,ZGOW 302000Z AUTO 23006KT 4SM 28/26 A2965 RMK T02800260 IEM_DS3505
ZGOW,2001-07-30 21:00,ZGOW 302100Z AUTO 25010KT 7SM 28/26 A2965 RMK SLP042 T02850257 54000 IEM_DS3505
ZGOW,2001-07-30 22:00,ZGOW 302200Z AUTO 23008KT 4SM 28/26 A2965 RMK T02800260 IEM_DS3505
ZGOW,2001-07-30 23:00,ZGOW 302300Z AUTO 25006KT 5SM 29/27 A2968 RMK T02900270 IEM_DS3505
ZGOW,2001-07-31 00:00,ZGOW 310000Z AUTO 25008KT 8SM 30/26 A2968 RMK SLP053 T02950260 52011 IEM_DS3505
ZGOW,2001-07-31 01:00,ZGOW 310100Z AUTO 25010KT 4SM 30/27 A2968 RMK T03000270 IEM_DS3505
ZGOW,2001-07-31 02:00,ZGOW 310200Z AUTO 24006KT 4SM 31/27 A2968 RMK T03100270 IEM_DS3505
ZGOW,2001-07-31 03:00,ZGOW 310300Z AUTO 22008KT 8SM 32/26 A2968 RMK SLP052 T03180258 57001 IEM_DS3505
ZGOW,2001-07-31 04:00,ZGOW 310400Z AUTO 25008KT 6SM 33/28 A2965 RMK T03300280 IEM_DS3505
ZGOW,2001-07-31 05:00,ZGOW 310500Z AUTO 23008KT 7SM 34/27 A2965 RMK T03400270 IEM_DS3505
ZGOW,2001-07-31 06:00,ZGOW 310600Z AUTO 22004KT 9SM 31/27 A2962 RMK 60012 SLP030 T03110274 57022 IEM_DS3505
ZGOW,2001-07-31 07:00,ZGOW 310700Z AUTO 18010KT 7SM 32/28 A2959 RMK T03200280 IEM_DS3505
ZGOW,2001-07-31 08:00,ZGOW 310800Z AUTO 19014KT 7SM 32/27 A2959 RMK T03200270 IEM_DS3505
ZGOW,2001-07-31 09:00,ZGOW 310900Z AUTO 27006KT 7SM 31/24 A2959 RMK SLP025 T03060242 57005 IEM_DS3505
ZGOW,2001-07-31 10:00,ZGOW 311000Z AUTO 19010KT 7SM 30/27 A2959 RMK T03000270 IEM_DS3505
ZGOW,2001-07-31 11:00,ZGOW 311100Z AUTO 20008KT 7SM 29/27 A2962 RMK T02900270 IEM_DS3505
ZGOW,2001-07-31 12:00,ZGOW 311200Z AUTO 22008KT 9SM 29/25 A2962 RMK SLP036 T02920254 52011 IEM_DS3505
ZGOW,2001-07-31 13:00,ZGOW 311300Z AUTO 20004KT 7SM 29/26 A2968 RMK T02900260 IEM_DS3505
ZGOW,2001-07-31 14:00,ZGOW 311400Z AUTO 19004KT 7SM 29/26 A2968 RMK T02900260 IEM_DS3505
ZGOW,2001-07-31 15:00,ZGOW 311500Z AUTO 22004KT 7SM 29/26 A2968 RMK SLP054 T02860258 52018 IEM_DS3505
ZGOW,2001-07-31 16:00,ZGOW 311600Z AUTO 19004KT 6SM 28/27 A2968 RMK T02800270 IEM_DS3505
ZGOW,2001-07-31 17:00,ZGOW 311700Z AUTO 36012KT 6SM 26/24 A2968 RMK T02600240 IEM_DS3505
ZGOW,2001-07-31 18:00,ZGOW 311800Z AUTO 04006KT 3SM 25/24 A2965 RMK 60091 SLP047 T02470243 57007 IEM_DS3505
ZGOW,2001-07-31 19:00,ZGOW 311900Z AUTO 09006KT 3SM 24/24 A2965 RMK T02400240 IEM_DS3505
ZGOW,2001-07-31 20:00,ZGOW 312000Z AUTO 12002KT 3SM 24/24 A2965 RMK T02400240 IEM_DS3505
ZGOW,2001-07-31 21:00,ZGOW 312100Z AUTO 20004KT 4SM 24/24 A2968 RMK 70272 SLP048 T02440235 52001 IEM_DS3505
ZGOW,2001-07-31 22:00,ZGOW 312200Z AUTO 30002KT 3SM 24/24 A2965 RMK T02400240 IEM_DS3505
ZGOW,2001-07-31 23:00,ZGOW 312300Z AUTO 35002KT 4SM 25/25 A2965 RMK T02500250 IEM_DS3505
ZGOW,2001-08-01 00:00,ZGOW 010000Z AUTO 00000KT 11SM 27/24 A2965 RMK 60185 SLP044 T02660243 57004 IEM_DS3505
ZGOW,2001-08-01 01:00,ZGOW 010100Z AUTO 33004KT 7SM 27/26 A2968 RMK T02700260 IEM_DS3505
ZGOW,2001-08-01 02:00,ZGOW 010200Z AUTO 31002KT 7SM 27/26 A2968 RMK T02700260 IEM_DS3505
ZGOW,2001-08-01 03:00,ZGOW 010300Z AUTO 14002KT 12SM 28/24 A2968 RMK SLP051 T02840244 52007 IEM_DS3505
ZGOW,2001-08-01 04:00,ZGOW 010400Z AUTO 15006KT 7SM 28/26 A2968 RMK T02800260 IEM_DS3505
ZGOW,2001-08-01 05:00,ZGOW 010500Z AUTO 15004KT 7SM 28/26 A2968 RMK T02800260 IEM_DS3505
ZGOW,2001-08-01 06:00,ZGOW 010600Z AUTO 18006KT 17SM 31/25 A2965 RMK SLP044 T03080250 57007 IEM_DS3505
ZGOW,2001-08-01 07:00,ZGOW 010700Z AUTO 15010KT 6SM 29/26 A2965 RMK T02900260 IEM_DS3505
ZGOW,2001-08-01 08:00,ZGOW 010800Z AUTO 15008KT 6SM 28/25 A2962 RMK T02800250 IEM_DS3505
ZGOW,2001-08-01 09:00,ZGOW 010900Z AUTO 27004KT 12SM 29/25 A2962 RMK SLP032 T02880248 57012 IEM_DS3505
ZGOW,2001-08-01 10:00,ZGOW 011000Z AUTO 04006KT 7SM 27/25 A2965 RMK T02700250 IEM_DS3505
ZGOW,2001-08-01 11:00,ZGOW 011100Z AUTO 13006KT 7SM 26/25 A2968 RMK T02600250 IEM_DS3505
ZGOW,2001-08-01 12:00,ZGOW 011200Z AUTO 00000KT 10SM 27/25 A2968 RMK SLP051 T02710250 52019 IEM_DS3505
ZGOW,2001-08-01 13:00,ZGOW 011300Z AUTO 7SM 26/26 A2971 RMK T02600260 IEM_DS3505
ZGOW,2001-08-01 14:00,ZGOW 011400Z AUTO 10002KT 7SM 26/26 A2971 RMK T02600260 IEM_DS3505
ZGOW,2001-08-01 15:00,ZGOW 011500Z AUTO 36004KT 7SM 27/25 A2971 RMK SLP062 T02710251 52011 IEM_DS3505
ZGOW,2001-08-01 16:00,ZGOW 011600Z AUTO 7SM 26/25 A2971 RMK T02600250 IEM_DS3505
ZGOW,2001-08-01 17:00,ZGOW 011700Z AUTO 33002KT 4SM 26/25 A2968 RMK T02600250 IEM_DS3505
ZGOW,2001-08-01 18:00,ZGOW 011800Z AUTO 04004KT 7SM 26/24 A2968 RMK SLP056 T02600237 57006 IEM_DS3505
ZGOW,2001-08-01 19:00,ZGOW 011900Z AUTO 36002KT 3SM 26/25 A2968 RMK T02600250 IEM_DS3505
ZGOW,2001-08-01 20:00,ZGOW 012000Z AUTO 03002KT 2SM 26/25 A2968 RMK T02600250 IEM_DS3505
ZGOW,2001-08-01 21:00,ZGOW 012100Z AUTO 04004KT 7SM 26/24 A2968 RMK 70015 SLP055 T02580244 57001 IEM_DS3505
ZGOW,2001-08-01 22:00,ZGOW 012200Z AUTO 04002KT 7SM 26/25 A2971 RMK T02600250 IEM_DS3505
ZGOW,2001-08-01 23:00,ZGOW 012300Z AUTO 28004KT 4SM 26/25 A2971 RMK T02600250 IEM_DS3505
ZGOW,2001-08-02 00:00,ZGOW 020000Z AUTO 00000KT 7SM 25/25 A2974 RMK 60130 SLP071 T02530246 52016 IEM_DS3505
ZGOW,2001-08-02 01:00,ZGOW 020100Z AUTO 12004KT 7SM 25/25 A2974 RMK T02500250 IEM_DS3505
ZGOW,2001-08-02 02:00,ZGOW 020200Z AUTO 08004KT 7SM 25/24 A2974 RMK T02500240 IEM_DS3505
ZGOW,2001-08-02 03:00,ZGOW 020300Z AUTO 18004KT 12SM 27/25 A2974 RMK SLP075 T02700246 52004 IEM_DS3505
ZGOW,2001-08-02 04:00,ZGOW 020400Z AUTO 7SM 28/26 A2974 RMK T02800260 IEM_DS3505
ZGOW,2001-08-02 05:00,ZGOW 020500Z AUTO 14004KT 7SM 31/27 A2974 RMK T03100270 IEM_DS3505
ZGOW,2001-08-02 06:00,ZGOW 020600Z AUTO 14006KT 16SM 30/25 A2971 RMK 60002 SLP061 T03040246 57014 IEM_DS3505
ZGOW,2001-08-02 07:00,ZGOW 020700Z AUTO 14006KT 7SM 31/26 A2971 RMK T03100260 IEM_DS3505
ZGOW,2001-08-02 08:00,ZGOW 020800Z AUTO 13006KT 7SM 30/26 A2971 RMK T03000260 IEM_DS3505
ZGOW,2001-08-02 09:00,ZGOW 020900Z AUTO 14004KT 16SM 29/25 A2971 RMK SLP063 T02940246 52002 IEM_DS3505
ZGOW,2001-08-02 10:00,ZGOW 021000Z AUTO 14006KT 7SM 28/26 A2974 RMK T02800260 IEM_DS3505
ZGOW,2001-08-02 11:00,ZGOW 021100Z AUTO 15002KT 7SM 27/25 A2977 RMK T02700250 IEM_DS3505
ZGOW,2001-08-02 12:00,ZGOW 021200Z AUTO 18002KT 12SM 28/25 A2980 RMK SLP085 T02800249 52022 IEM_DS3505
ZGOW,2001-08-02 13:00,ZGOW 021300Z AUTO 6SM 27/26 A2980 RMK T02700260 IEM_DS3505
ZGOW,2001-08-02 14:00,ZGOW 021400Z AUTO 05002KT 6SM 26/26 A2983 RMK T02600260 IEM_DS3505
ZGOW,2001-08-02 15:00,ZGOW 021500Z AUTO 04004KT 10SM 27/25 A2983 RMK SLP098 T02720252 52013 IEM_DS3505
ZGOW,2001-08-02 16:00,ZGOW 021600Z AUTO 5SM 27/26 A2983 RMK T02700260 IEM_DS3505
ZGOW,2001-08-02 17:00,ZGOW 021700Z AUTO 4SM 27/26 A2983 RMK T02700260 IEM_DS3505
ZGOW,2001-08-02 18:00,ZGOW 021800Z AUTO 04004KT 7SM 27/25 A2980 RMK SLP091 T02660250 57007 IEM_DS3505
ZGOW,2001-08-02 19:00,ZGOW 021900Z AUTO 36002KT 3SM 26/26 A2980 RMK T02600260 IEM_DS3505
ZGOW,2001-08-02 20:00,ZGOW 022000Z AUTO 01002KT 3SM 26/25 A2980 RMK T02600250 IEM_DS3505
ZGOW,2001-08-02 21:00,ZGOW 022100Z AUTO 04004KT 6SM 26/25 A2980 RMK 70133 SLP090 T02590248 57001 IEM_DS3505
ZGOW,2001-08-02 22:00,ZGOW 022200Z AUTO 06004KT 7SM 25/25 A2980 RMK T02500250 IEM_DS3505
ZGOW,2001-08-02 23:00,ZGOW 022300Z AUTO 05002KT 6SM 27/26 A2983 RMK T02700260 IEM_DS3505
ZGOW,2001-08-03 00:00,ZGOW 030000Z AUTO 04004KT 9SM 28/25 A2983 RMK 70002 SLP100 T02820252 52010 IEM_DS3505
ZGOW,2001-08-03 01:00,ZGOW 030100Z AUTO 32004KT 7SM 29/26 A2983 RMK T02900260 IEM_DS3505
ZGOW,2001-08-03 02:00,ZGOW 030200Z AUTO 07006KT 7SM 30/26 A2983 RMK T03000260 IEM_DS3505
ZGOW,2001-08-03 03:00,ZGOW 030300Z AUTO 07008KT 11SM 31/24 A2985 RMK SLP104 T03140243 52004 IEM_DS3505
ZGOW,2001-08-03 04:00,ZGOW 030400Z AUTO 13008KT 7SM 31/27 A2985 RMK T03100270 IEM_DS3505
ZGOW,2001-08-03 05:00,ZGOW 030500Z AUTO 12008KT 7SM 32/27 A2985 RMK T03200270 IEM_DS3505
ZGOW,2001-08-03 06:00,ZGOW 030600Z AUTO 14006KT 12SM 32/24 A2983 RMK SLP101 T03180243 57003 IEM_DS3505
ZGOW,2001-08-03 07:00,ZGOW 030700Z AUTO 12012KT 7SM 31/26 A2983 RMK T03100260 IEM_DS3505
ZGOW,2001-08-03 08:00,ZGOW 030800Z AUTO 08012KT 7SM 31/26 A2980 RMK T03100260 IEM_DS3505
ZGOW,2001-08-03 09:00,ZGOW 030900Z AUTO 07008KT 12SM 31/23 A2983 RMK SLP098 T03140229 57003 IEM_DS3505
ZGOW,2001-08-03 10:00,ZGOW 031000Z AUTO 06010KT 7SM 29/24 A2983 RMK T02900240 IEM_DS3505
ZGOW,2001-08-03 11:00,ZGOW 031100Z AUTO 09006KT 7SM 29/24 A2983 RMK T02900240 IEM_DS3505
ZGOW,2001-08-03 12:00,ZGOW 031200Z AUTO 09004KT 12SM 29/23 A2985 RMK SLP108 T02920231 52010 IEM_DS3505
ZGOW,2001-08-03 13:00,ZGOW 031300Z AUTO 10002KT 6SM 28/25 A2985 RMK T02800250 IEM_DS3505
ZGOW,2001-08-03 14:00,ZGOW 031400Z AUTO 08002KT 6SM 27/25 A2988 RMK T02700250 IEM_DS3505
ZGOW,2001-08-03 15:00,ZGOW 031500Z AUTO 07004KT 9SM 28/24 A2988 RMK SLP117 T02810245 52009 IEM_DS3505
ZGOW,2001-08-03 16:00,ZGOW 031600Z AUTO 32002KT 4SM 27/25 A2985 RMK T02700250 IEM_DS3505
ZGOW,2001-08-03 17:00,ZGOW 031700Z AUTO 32006KT 4SM 27/25 A2985 RMK T02700250 IEM_DS3505
ZGOW,2001-08-03 18:00,ZGOW 031800Z AUTO 27004KT 8SM 28/25 A2985 RMK SLP107 T02760246 57010 IEM_DS3505
ZGOW,2001-08-03 19:00,ZGOW 031900Z AUTO 32004KT 3SM 26/25 A2983 RMK T02600250 IEM_DS3505
ZGOW,2001-08-03 20:00,ZGOW 032000Z AUTO 35002KT 4SM 26/25 A2985 RMK T02600250 IEM_DS3505
ZGOW,2001-08-03 21:00,ZGOW 032100Z AUTO 07004KT 7SM 26/25 A2985 RMK SLP109 T02650246 52002 IEM_DS3505
ZGOW,2001-08-03 22:00,ZGOW 032200Z AUTO 33002KT 6SM 26/25 A2985 RMK T02600250 IEM_DS3505
ZGOW,2001-08-03 23:00,ZGOW 032300Z AUTO 34002KT 6SM 26/25 A2985 RMK T02600250 IEM_DS3505
ZGOW,2001-08-04 00:00,ZGOW 040000Z AUTO 07004KT 7SM 28/24 A2985 RMK SLP117 T02810244 52008 IEM_DS3505
ZGOW,2001-08-04 01:00,ZGOW 040100Z AUTO 12006KT 7SM 29/26 A2988 RMK T02900260 IEM_DS3505
ZGOW,2001-08-04 02:00,ZGOW 040200Z AUTO 07006KT 7SM 30/26 A2988 RMK T03000260 IEM_DS3505
ZGOW,2001-08-04 03:00,ZGOW 040300Z AUTO 04006KT 11SM 31/24 A2988 RMK SLP119 T03120241 52002 IEM_DS3505
ZGOW,2001-08-04 04:00,ZGOW 040400Z AUTO 10010KT 6SM 32/26 A2988 RMK T03200260 IEM_DS3505
ZGOW,2001-08-04 05:00,ZGOW 040500Z AUTO 13006KT 7SM 32/27 A2988 RMK T03200270 IEM_DS3505
ZGOW,2001-08-04 06:00,ZGOW 040600Z AUTO 11004KT 19SM 32/24 A2985 RMK SLP110 T03220240 57009 IEM_DS3505
ZGOW,2001-08-04 07:00,ZGOW 040700Z AUTO 13008KT 6SM 31/27 A2985 RMK T03100270 IEM_DS3505
ZGOW,2001-08-04 08:00,ZGOW 040800Z AUTO 13010KT 6SM 31/27 A2983 RMK T03100270 IEM_DS3505
ZGOW,2001-08-04 09:00,ZGOW 040900Z AUTO 16006KT 19SM 30/25 A2983 RMK SLP103 T03030252 57007 IEM_DS3505
ZGOW,2001-08-04 10:00,ZGOW 041000Z AUTO 13008KT 6SM 29/27 A2983 RMK T02900270 IEM_DS3505
ZGOW,2001-08-04 11:00,ZGOW 041100Z AUTO 14006KT 6SM 28/27 A2985 RMK T02800270 IEM_DS3505
ZGOW,2001-08-04 12:00,ZGOW 041200Z AUTO 16002KT 12SM 28/26 A2985 RMK SLP111 T02850258 52008 IEM_DS3505
ZGOW,2001-08-04 13:00,ZGOW 041300Z AUTO 10002KT 6SM 27/27 A2988 RMK T02700270 IEM_DS3505
ZGOW,2001-08-04 14:00,ZGOW 041400Z AUTO 12002KT 6SM 27/27 A2988 RMK T02700270 IEM_DS3505
ZGOW,2001-08-04 15:00,ZGOW 041500Z AUTO 07004KT 9SM 28/26 A2988 RMK SLP125 T02820260 52014 IEM_DS3505
ZGOW,2001-08-04 16:00,ZGOW 041600Z AUTO 03002KT 3SM 27/26 A2988 RMK T02700260 IEM_DS3505
ZGOW,2001-08-04 17:00,ZGOW 041700Z AUTO 05004KT 1 1/2SM 27/26 A2988 RMK T02700260 IEM_DS3505
ZGOW,2001-08-04 18:00,ZGOW 041800Z AUTO 07004KT 7SM 28/26 A2985 RMK SLP115 T02760259 57010 IEM_DS3505
ZGOW,2001-08-04 19:00,ZGOW 041900Z AUTO 36002KT 3SM 26/26 A2985 RMK T02600260 IEM_DS3505
ZGOW,2001-08-04 20:00,ZGOW 042000Z AUTO 33002KT 2SM 27/26 A2985 RMK T02700260 IEM_DS3505
ZGOW,2001-08-04 21:00,ZGOW 042100Z AUTO 04004KT 6SM 27/25 A2985 RMK SLP110 T02700254 57005 IEM_DS3505
ZGOW,2001-08-04 22:00,ZGOW 042200Z AUTO 33004KT 5SM 26/25 A2985 RMK T02600250 IEM_DS3505
ZGOW,2001-08-04 23:00,ZGOW 042300Z AUTO 31004KT 4SM 27/26 A2985 RMK T02700260 IEM_DS3505
ZGOW,2001-08-05 00:00,ZGOW 050000Z AUTO 07004KT 10SM 30/25 A2988 RMK SLP119 T02950247 52009 IEM_DS3505
ZGOW,2001-08-05 01:00,ZGOW 050100Z AUTO 32006KT 5SM 30/26 A2988 RMK T03000260 IEM_DS3505
ZGOW,2001-08-05 02:00,ZGOW 050200Z AUTO 31004KT 7SM 31/26 A2988 RMK T03100260 IEM_DS3505
ZGOW,2001-08-05 03:00,ZGOW 050300Z AUTO 00000KT 14SM 32/25 A2988 RMK SLP119 T03180252 54000 IEM_DS3505
ZGOW,2001-08-05 04:00,ZGOW 050400Z AUTO 18002KT 7SM 33/27 A2988 RMK T03300270 IEM_DS3505
ZGOW,2001-08-05 05:00,ZGOW 050500Z AUTO 17006KT 7SM 33/28 A2985 RMK T03300280 IEM_DS3505
ZGOW,2001-08-05 06:00,ZGOW 050600Z AUTO 20006KT 16SM 33/24 A2983 RMK SLP100 T03310242 57019 IEM_DS3505
ZGOW,2001-08-05 07:00,ZGOW 050700Z AUTO 17010KT 7SM 33/27 A2983 RMK T03300270 IEM_DS3505
ZGOW,2001-08-05 08:00,ZGOW 050800Z AUTO 17010KT 6SM 32/27 A2980 RMK T03200270 IEM_DS3505
ZGOW,2001-08-05 09:00,ZGOW 050900Z AUTO 20006KT 17SM 32/25 A2980 RMK SLP085 T03180251 57015 IEM_DS3505
ZGOW,2001-08-05 10:00,ZGOW 051000Z AUTO 17008KT 6SM 30/27 A2980 RMK T03000270 IEM_DS3505
ZGOW,2001-08-05 11:00,ZGOW 051100Z AUTO 17008KT 7SM 29/27 A2980 RMK T02900270 IEM_DS3505
ZGOW,2001-08-05 12:00,ZGOW 051200Z AUTO 20006KT 12SM 29/26 A2983 RMK SLP098 T02900258 52013 IEM_DS3505
ZGOW,2001-08-05 13:00,ZGOW 051300Z AUTO 19006KT 7SM 29/27 A2983 RMK T02900270 IEM_DS3505
ZGOW,2001-08-05 14:00,ZGOW 051400Z AUTO 19004KT 7SM 28/26 A2985 RMK T02800260 IEM_DS3505
ZGOW,2001-08-05 15:00,ZGOW 051500Z AUTO 25008KT 11SM 28/26 A2985 RMK SLP108 T02840256 52010 IEM_DS3505
ZGOW,2001-08-05 16:00,ZGOW 051600Z AUTO 21004KT 6SM 28/26 A2983 RMK T02800260 IEM_DS3505
ZGOW,2001-08-05 17:00,ZGOW 051700Z AUTO 24004KT 6SM 28/26 A2983 RMK T02800260 IEM_DS3505
ZGOW,2001-08-05 18:00,ZGOW 051800Z AUTO 25006KT 10SM 28/26 A2980 RMK SLP092 T02800255 57016 IEM_DS3505
ZGOW,2001-08-05 19:00,ZGOW 051900Z AUTO 28002KT 6SM 27/26 A2980 RMK T02700260 IEM_DS3505
ZGOW,2001-08-05 20:00,ZGOW 052000Z AUTO 28002KT 4SM 27/26 A2980 RMK T02700260 IEM_DS3505
ZGOW,2001-08-05 21:00,ZGOW 052100Z AUTO 29002KT 9SM 27/26 A2980 RMK SLP087 T02730255 57005 IEM_DS3505
ZGOW,2001-08-05 22:00,ZGOW 052200Z AUTO 30002KT 6SM 27/26 A2980 RMK T02700260 IEM_DS3505
ZGOW,2001-08-05 23:00,ZGOW 052300Z AUTO 30002KT 3SM 28/27 A2980 RMK T02800270 IEM_DS3505
ZGOW,2001-08-06 00:00,ZGOW 060000Z AUTO 29006KT 11SM 29/25 A2980 RMK SLP095 T02880248 52008 IEM_DS3505
ZGOW,2001-08-06 01:00,ZGOW 060100Z AUTO 26004KT 7SM 30/26 A2980 RMK T03000260 IEM_DS3505
ZGOW,2001-08-06 02:00,ZGOW 060200Z AUTO 25004KT 7SM 31/26 A2980 RMK T03100260 IEM_DS3505
ZGOW,2001-08-06 03:00,ZGOW 060300Z AUTO 29006KT 14SM 32/24 A2980 RMK SLP091 T03170242 57004 IEM_DS3505
ZGOW,2001-08-06 04:00,ZGOW 060400Z AUTO 24006KT 7SM 33/26 A2977 RMK T03300260 IEM_DS3505
ZGOW,2001-08-06 05:00,ZGOW 060500Z AUTO 26006KT 7SM 34/26 A2977 RMK T03400260 IEM_DS3505
ZGOW,2001-08-06 06:00,ZGOW 060600Z AUTO 25008KT 19SM 35/23 A2974 RMK SLP069 T03480234 57022 IEM_DS3505
ZGOW,2001-08-06 07:00,ZGOW 060700Z AUTO 18010KT 6SM 34/29 A2971 RMK T03400290 IEM_DS3505
ZGOW,2001-08-06 08:00,ZGOW 060800Z AUTO 17012KT 6SM 31/27 A2968 RMK T03100270 IEM_DS3505
ZGOW,2001-08-06 09:00,ZGOW 060900Z AUTO 20008KT 19SM 31/26 A2968 RMK SLP052 T03110255 57017 IEM_DS3505
ZGOW,2001-08-06 10:00,ZGOW 061000Z AUTO 20012KT 6SM 30/27 A2968 RMK T03000270 IEM_DS3505
ZGOW,2001-08-06 11:00,ZGOW 061100Z AUTO 19010KT 6SM 29/26 A2968 RMK T02900260 IEM_DS3505
ZGOW,2001-08-06 12:00,ZGOW 061200Z AUTO 20008KT 16SM 29/25 A2971 RMK SLP059 T02920254 52007 IEM_DS3505
ZGOW,2001-08-06 13:00,ZGOW 061300Z AUTO 21008KT 6SM 29/27 A2971 RMK T02900270 IEM_DS3505
ZGOW,2001-08-06 14:00,ZGOW 061400Z AUTO 21006KT 6SM 29/27 A2971 RMK T02900270 IEM_DS3505
ZGOW,2001-08-06 15:00,ZGOW 061500Z AUTO 25006KT 12SM 29/26 A2974 RMK SLP068 T02880260 52009 IEM_DS3505
ZGOW,2001-08-06 16:00,ZGOW 061600Z AUTO 24004KT 6SM 28/27 A2971 RMK T02800270 IEM_DS3505
ZGOW,2001-08-06 17:00,ZGOW 061700Z AUTO 6SM 28/27 A2971 RMK T02800270 IEM_DS3505
ZGOW,2001-08-06 18:00,ZGOW 061800Z AUTO 25004KT 10SM 28/26 A2968 RMK SLP053 T02830255 57015 IEM_DS3505
ZGOW,2001-08-06 19:00,ZGOW 061900Z AUTO 25004KT 4SM 28/26 A2968 RMK T02800260 IEM_DS3505
ZGOW,2001-08-06 21:00,ZGOW 062100Z AUTO 29004KT 9SM 28/26 A2968 RMK SLP056 T02800258 52003 IEM_DS3505
ZGOW,2001-08-06 22:00,ZGOW 062200Z AUTO 29002KT 7SM 28/26 A2971 RMK T02800260 IEM_DS3505
ZGOW,2001-08-06 23:00,ZGOW 062300Z AUTO 4SM 28/27 A2971 RMK T02800270 IEM_DS3505
ZGOW,2001-08-07 00:00,ZGOW 070000Z AUTO 29004KT 11SM 29/26 A2971 RMK SLP063 T02900258 52007 IEM_DS3505
ZGOW,2001-08-07 01:00,ZGOW 070100Z AUTO 25004KT 7SM 31/26 A2971 RMK T03100260 IEM_DS3505
ZGOW,2001-08-07 02:00,ZGOW 070200Z AUTO 26006KT 7SM 31/27 A2971 RMK T03100270 IEM_DS3505
ZGOW,2001-08-07 03:00,ZGOW 070300Z AUTO 25006KT 12SM 31/26 A2971 RMK SLP057 T03100257 57006 IEM_DS3505
ZGOW,2001-08-07 04:00,ZGOW 070400Z AUTO 25002KT 7SM 33/27 A2968 RMK T03300270 IEM_DS3505
ZGOW,2001-08-07 05:00,ZGOW 070500Z AUTO 18004KT 7SM 34/29 A2968 RMK T03400290 IEM_DS3505
ZGOW,2001-08-07 06:00,ZGOW 070600Z AUTO 18006KT 12SM 34/26 A2965 RMK SLP041 T03380256 57016 IEM_DS3505
ZGOW,2001-08-07 07:00,ZGOW 070700Z AUTO 18012KT 6SM 33/28 A2962 RMK T03300280 IEM_DS3505
ZGOW,2001-08-07 09:00,ZGOW 070900Z AUTO 20008KT 9SM 32/26 A2962 RMK SLP031 T03250260 57010 IEM_DS3505
ZGOW,2001-08-07 10:00,ZGOW 071000Z AUTO 17008KT 6SM 31/27 A2962 RMK T03100270 IEM_DS3505
ZGOW,2001-08-07 11:00,ZGOW 071100Z AUTO 19008KT 6SM 30/27 A2962 RMK T03000270 IEM_DS3505
ZGOW,2001-08-07 12:00,ZGOW 071200Z AUTO 20004KT 9SM 30/25 A2965 RMK SLP041 T03000251 52010 IEM_DS3505
ZGOW,2001-08-07 13:00,ZGOW 071300Z AUTO 14004KT 4SM 29/26 A2965 RMK T02900260 IEM_DS3505
ZGOW,2001-08-07 14:00,ZGOW 071400Z AUTO 11002KT 4SM 28/27 A2968 RMK T02800270 IEM_DS3505
ZGOW,2001-08-07 15:00,ZGOW 071500Z AUTO 20002KT 7SM 29/26 A2968 RMK SLP052 T02910262 52011 IEM_DS3505
ZGOW,2001-08-07 16:00,ZGOW 071600Z AUTO 15004KT 4SM 28/27 A2968 RMK T02800270 IEM_DS3505
ZGOW,2001-08-07 17:00,ZGOW 071700Z AUTO 19006KT 4SM 28/27 A2968 RMK T02800270 IEM_DS3505
ZGOW,2001-08-07 18:00,ZGOW 071800Z AUTO 25006KT 7SM 28/26 A2968 RMK SLP053 T02850261 52001 IEM_DS3505
ZGOW,2001-08-07 19:00,ZGOW 071900Z AUTO 23002KT 2 1/2SM 28/27 A2968 RMK T02800270 IEM_DS3505
ZGOW,2001-08-07 20:00,ZGOW 072000Z AUTO 23002KT 2 1/2SM 28/27 A2968 RMK T02800270 IEM_DS3505
ZGOW,2001-08-07 21:00,ZGOW 072100Z AUTO 27004KT 6SM 28/26 A2971 RMK SLP059 T02850257 52006 IEM_DS3505
ZGOW,2001-08-07 22:00,ZGOW 072200Z AUTO 16002KT 1 1/2SM 27/27 A2971 RMK T02700270 IEM_DS3505
ZGOW,2001-08-07 23:00,ZGOW 072300Z AUTO 2 1/2SM 27/27 A2971 RMK T02700270 IEM_DS3505
ZGOW,2001-08-08 00:00,ZGOW 080000Z AUTO 27004KT 9SM 29/26 A2971 RMK SLP068 T02920261 52009 IEM_DS3505
ZGOW,2001-08-08 01:00,ZGOW 080100Z AUTO 16004KT 3SM 30/28 A2974 RMK T03000280 IEM_DS3505
ZGOW,2001-08-08 02:00,ZGOW 080200Z AUTO 18008KT 7SM 31/27 A2974 RMK T03100270 IEM_DS3505
ZGOW,2001-08-08 03:00,ZGOW 080300Z AUTO 18006KT 8SM 32/27 A2974 RMK SLP072 T03240268 52004 IEM_DS3505
ZGOW,2001-08-08 04:00,ZGOW 080400Z AUTO 15010KT 7SM 32/28 A2974 RMK T03200280 IEM_DS3505
ZGOW,2001-08-08 05:00,ZGOW 080500Z AUTO 17012KT 7SM 32/26 A2971 RMK T03200260 IEM_DS3505
ZGOW,2001-08-08 06:00,ZGOW 080600Z AUTO 18010KT 19SM 33/24 A2971 RMK SLP061 T03260244 57011 IEM_DS3505
ZGOW,2001-08-08 07:00,ZGOW 080700Z AUTO 16008KT 7SM 33/27 A2968 RMK T03300270 IEM_DS3505
ZGOW,2001-08-08 08:00,ZGOW 080800Z AUTO 15008KT 6SM 32/28 A2968 RMK T03200280 IEM_DS3505
ZGOW,2001-08-08 09:00,ZGOW 080900Z AUTO 16006KT 17SM 31/25 A2968 RMK SLP052 T03100254 57009 IEM_DS3505
ZGOW,2001-08-08 10:00,ZGOW 081000Z AUTO 16008KT 6SM 30/26 A2968 RMK T03000260 IEM_DS3505
ZGOW,2001-08-08 11:00,ZGOW 081100Z AUTO 16008KT 6SM 29/26 A2971 RMK T02900260 IEM_DS3505
ZGOW,2001-08-08 12:00,ZGOW 081200Z AUTO 16004KT 12SM 29/25 A2974 RMK SLP071 T02900253 52019 IEM_DS3505
ZGOW,2001-08-08 13:00,ZGOW 081300Z AUTO 14004KT 6SM 28/26 A2977 RMK T02800260 IEM_DS3505
ZGOW,2001-08-08 14:00,ZGOW 081400Z AUTO 14004KT 6SM 28/27 A2977 RMK T02800270 IEM_DS3505
ZGOW,2001-08-08 15:00,ZGOW 081500Z AUTO 18002KT 10SM 29/25 A2977 RMK SLP083 T02860252 52012 IEM_DS3505
ZGOW,2001-08-08 16:00,ZGOW 081600Z AUTO 6SM 27/27 A2980 RMK T02700270 IEM_DS3505
ZGOW,2001-08-08 17:00,ZGOW 081700Z AUTO 6SM 27/26 A2977 RMK T02700260 IEM_DS3505
ZGOW,2001-08-08 18:00,ZGOW 081800Z AUTO 16004KT 9SM 28/26 A2977 RMK SLP084 T02820255 52001 IEM_DS3505
ZGOW,2001-08-08 19:00,ZGOW 081900Z AUTO 6SM 27/26 A2977 RMK T02700260 IEM_DS3505
ZGOW,2001-08-08 20:00,ZGOW 082000Z AUTO 05002KT 6SM 26/26 A2977 RMK T02600260 IEM_DS3505
ZGOW,2001-08-08 21:00,ZGOW 082100Z AUTO 04004KT 9SM 28/26 A2977 RMK SLP085 T02770257 52001 IEM_DS3505
ZGOW,2001-08-08 22:00,ZGOW 082200Z AUTO 07004KT 3SM 27/26 A2980 RMK T02700260 IEM_DS3505
ZGOW,2001-08-08 23:00,ZGOW 082300Z AUTO 04004KT 3SM 28/27 A2980 RMK T02800270 IEM_DS3505
ZGOW,2001-08-09 00:00,ZGOW 090000Z AUTO 04004KT 9SM 29/26 A2980 RMK SLP092 T02860258 52007 IEM_DS3505
ZGOW,2001-08-09 01:00,ZGOW 090100Z AUTO 05006KT 7SM 30/27 A2980 RMK T03000270 IEM_DS3505
ZGOW,2001-08-09 02:00,ZGOW 090200Z AUTO 08006KT 7SM 31/27 A2980 RMK T03100270 IEM_DS3505
ZGOW,2001-08-09 03:00,ZGOW 090300Z AUTO 16004KT 11SM 32/24 A2980 RMK SLP092 T03190244 54000 IEM_DS3505
ZGOW,2001-08-09 04:00,ZGOW 090400Z AUTO 12008KT 7SM 32/27 A2980 RMK T03200270 IEM_DS3505
ZGOW,2001-08-09 05:00,ZGOW 090500Z AUTO 14006KT 7SM 32/26 A2980 RMK T03200260 IEM_DS3505
ZGOW,2001-08-09 06:00,ZGOW 090600Z AUTO 16004KT 17SM 33/24 A2977 RMK SLP079 T03260244 57013 IEM_DS3505
ZGOW,2001-08-09 08:00,ZGOW 090800Z AUTO 13010KT 7SM 32/26 A2977 RMK T03200260 IEM_DS3505
ZGOW,2001-08-09 09:00,ZGOW 090900Z AUTO 13010KT 7SM 30/26 A2974 RMK T03000260 IEM_DS3505
ZGOW,2001-08-09 10:00,ZGOW 091000Z AUTO 11008KT 7SM 30/26 A2974 RMK T03000260 IEM_DS3505
ZGOW,2001-08-09 11:00,ZGOW 091100Z AUTO 13008KT 7SM 29/26 A2977 RMK T02900260 IEM_DS3505
ZGOW,2001-08-09 12:00,ZGOW 091200Z AUTO 14006KT 11SM 29/26 A2980 RMK SLP087 T02910260 52015 IEM_DS3505
ZGOW,2001-08-09 13:00,ZGOW 091300Z AUTO 09004KT 6SM 28/27 A2980 RMK T02800270 IEM_DS3505
ZGOW,2001-08-09 14:00,ZGOW 091400Z AUTO 11004KT 6SM 28/27 A2983 RMK T02800270 IEM_DS3505
ZGOW,2001-08-09 15:00,ZGOW 091500Z AUTO 09004KT 11SM 29/27 A2983 RMK SLP098 T02910266 52011 IEM_DS3505
ZGOW,2001-08-09 16:00,ZGOW 091600Z AUTO 08004KT 3SM 28/27 A2983 RMK T02800270 IEM_DS3505
ZGOW,2001-08-09 17:00,ZGOW 091700Z AUTO 08002KT 6SM 28/27 A2980 RMK T02800270 IEM_DS3505
ZGOW,2001-08-09 18:00,ZGOW 091800Z AUTO 07006KT 9SM 29/26 A2980 RMK SLP090 T02860265 57008 IEM_DS3505
ZGOW,2001-08-09 19:00,ZGOW 091900Z AUTO 06004KT 4SM 27/27 A2977 RMK T02700270 IEM_DS3505
ZGOW,2001-08-09 20:00,ZGOW 092000Z AUTO 08004KT 6SM 27/27 A2977 RMK T02700270 IEM_DS3505
ZGOW,2001-08-09 21:00,ZGOW 092100Z AUTO 07004KT 9SM 28/26 A2980 RMK SLP085 T02820261 57005 IEM_DS3505
ZGOW,2001-08-09 22:00,ZGOW 092200Z AUTO 07004KT 3SM 27/27 A2977 RMK T02700270 IEM_DS3505
ZGOW,2001-08-09 23:00,ZGOW 092300Z AUTO 07004KT 7SM 28/27 A2980 RMK T02800270 IEM_DS3505
ZGOW,2001-08-10 00:00,ZGOW 100000Z AUTO 07008KT 11SM 29/26 A2980 RMK SLP092 T02870263 52007 IEM_DS3505
ZGOW,2001-08-10 01:00,ZGOW 100100Z AUTO 08008KT 7SM 30/28 A2980 RMK T03000280 IEM_DS3505
ZGOW,2001-08-10 02:00,ZGOW 100200Z AUTO 11008KT 7SM 31/28 A2983 RMK T03100280 IEM_DS3505
ZGOW,2001-08-10 03:00,ZGOW 100300Z AUTO 16006KT 12SM 31/26 A2983 RMK SLP099 T03140260 52007 IEM_DS3505
ZGOW,2001-08-10 04:00,ZGOW 100400Z AUTO 13010KT 7SM 32/28 A2983 RMK T03200280 IEM_DS3505
ZGOW,2001-08-10 05:00,ZGOW 100500Z AUTO 13008KT 7SM 32/28 A2983 RMK T03200280 IEM_DS3505
ZGOW,2001-08-10 06:00,ZGOW 100600Z AUTO 16008KT 14SM 32/26 A2980 RMK SLP087 T03220258 57012 IEM_DS3505
ZGOW,2001-08-10 07:00,ZGOW 100700Z AUTO 14008KT 7SM 32/28 A2980 RMK T03200280 IEM_DS3505
ZGOW,2001-08-10 08:00,ZGOW 100800Z AUTO 11008KT 7SM 32/28 A2977 RMK T03200280 IEM_DS3505
ZGOW,2001-08-10 09:00,ZGOW 100900Z AUTO 16008KT 14SM 31/26 A2977 RMK SLP078 T03140257 IEM_DS3505
ZGOW,2001-08-10 10:00,ZGOW 101000Z AUTO 12002KT 7SM 29/27 A2977 RMK T02900270 IEM_DS3505
ZGOW,2001-08-10 11:00,ZGOW 101100Z AUTO 11006KT 7SM 28/27 A2980 RMK T02800270 IEM_DS3505
ZGOW,2001-08-10 12:00,ZGOW 101200Z AUTO 11006KT 11SM 29/26 A2983 RMK 60003 SLP097 T02920261 52019 IEM_DS3505
ZGOW,2001-08-10 13:00,ZGOW 101300Z AUTO 09006KT 7SM 27/25 RMK T02700250 IEM_DS3505
ZGOW,2001-08-10 14:00,ZGOW 101400Z AUTO 06004KT 7SM 27/26 A2985 RMK T02700260 IEM_DS3505
ZGOW,2001-08-10 15:00,ZGOW 101500Z AUTO 11002KT 9SM 28/25 A2985 RMK SLP116 T02800249 52019 IEM_DS3505
ZGOW,2001-08-10 16:00,ZGOW 101600Z AUTO 06004KT 7SM 27/26 A2985 RMK T02700260 IEM_DS3505
ZGOW,2001-08-10 17:00,ZGOW 101700Z AUTO 03002KT 7SM 27/26 A2985 RMK T02700260 IEM_DS3505
ZGOW,2001-08-10 18:00,ZGOW 101800Z AUTO 07004KT 9SM 28/25 A2983 RMK 60000 SLP104 T02780253 57012 IEM_DS3505
ZGOW,2001-08-10 19:00,ZGOW 101900Z AUTO 07004KT 7SM 27/27 A2983 RMK T02700270 IEM_DS3505
ZGOW,2001-08-10 20:00,ZGOW 102000Z AUTO 05006KT 7SM 27/27 A2983 RMK T02700270 IEM_DS3505
ZGOW,2001-08-10 21:00,ZGOW 102100Z AUTO 07004KT 7SM 28/26 A2983 RMK 70000 SLP096 T02820263 57008 IEM_DS3505
ZGOW,2001-08-10 22:00,ZGOW 102200Z AUTO 08004KT 7SM 27/27 A2983 RMK T02700270 IEM_DS3505
ZGOW,2001-08-10 23:00,ZGOW 102300Z AUTO 08004KT 1 1/2SM 28/27 A2983 RMK T02800270 IEM_DS3505
ZGOW,2001-08-11 00:00,ZGOW 110000Z AUTO 11004KT 12SM 30/26 A2983 RMK 70000 SLP107 T03010261 52011 IEM_DS3505
ZGOW,2001-08-11 01:00,ZGOW 110100Z AUTO 11004KT 7SM 30/28 A2985 RMK T03000280 IEM_DS3505
ZGOW,2001-08-11 02:00,ZGOW 110200Z AUTO 14006KT 7SM 30/27 A2985 RMK T03000270 IEM_DS3505
ZGOW,2001-08-11 03:00,ZGOW 110300Z AUTO 20004KT 12SM 29/27 A2985 RMK SLP106 T02940269 57001 IEM_DS3505
ZGOW,2001-08-11 04:00,ZGOW 110400Z AUTO 15004KT 7SM 31/28 A2985 RMK T03100280 IEM_DS3505
ZGOW,2001-08-11 05:00,ZGOW 110500Z AUTO 17006KT 7SM 32/27 A2983 RMK T03200270 IEM_DS3505
ZGOW,2001-08-11 06:00,ZGOW 110600Z AUTO 15006KT 7SM 31/28 A2983 RMK T03100280 IEM_DS3505
ZGOW,2001-08-11 07:00,ZGOW 110700Z AUTO 18006KT 7SM 30/26 A2980 RMK T03000260 IEM_DS3505
ZGOW,2001-08-11 12:00,ZGOW 111200Z AUTO 00000KT 9SM 28/25 A2983 RMK SLP099 T02820248 52019 IEM_DS3505
ZGOW,2001-08-11 13:00,ZGOW 111300Z AUTO 30004KT 7SM 28/26 A2983 RMK T02800260 IEM_DS3505
ZGOW,2001-08-11 15:00,ZGOW 111500Z AUTO 34004KT 7SM 27/26 A2985 RMK T02700260 IEM_DS3505
ZGOW,2001-08-11 16:00,ZGOW 111600Z AUTO 33004KT 7SM 27/26 A2983 RMK T02700260 IEM_DS3505
ZGOW,2001-08-11 17:00,ZGOW 111700Z AUTO 31004KT 6SM 27/25 A2983 RMK T02700250 IEM_DS3505
ZGOW,2001-08-11 18:00,ZGOW 111800Z AUTO 27006KT 14SM 31/26 A2980 RMK 60024 SLP094 T03070255 57012 IEM_DS3505
ZGOW,2001-08-11 19:01,ZGOW 111901Z AUTO 31004KT 6SM 27/26 A2980 RMK T02700260 IEM_DS3505
ZGOW,2001-08-11 20:00,ZGOW 112000Z AUTO 36002KT 6SM 26/25 A2980 RMK T02600250 IEM_DS3505
ZGOW,2001-08-11 21:00,ZGOW 112100Z AUTO 04004KT 7SM 27/24 A2977 RMK 70022 SLP085 T02690245 57012 IEM_DS3505
ZGOW,2001-08-11 22:00,ZGOW 112200Z AUTO 7SM 26/25 A2980 RMK T02600250 IEM_DS3505
ZGOW,2001-08-11 23:00,ZGOW 112300Z AUTO 34004KT 6SM 26/24 A2980 RMK T02600240 IEM_DS3505
ZGOW,2001-08-12 00:00,ZGOW 120000Z AUTO 04004KT 11SM 27/24 A2983 RMK 70022 SLP099 T02740240 52014 IEM_DS3505
ZGOW,2001-08-12 01:00,ZGOW 120100Z AUTO 33004KT 6SM 28/26 A2983 RMK T02800260 IEM_DS3505
ZGOW,2001-08-12 02:00,ZGOW 120200Z AUTO 32002KT 6SM 30/27 A2983 RMK T03000270 IEM_DS3505
ZGOW,2001-08-12 03:00,ZGOW 120300Z AUTO 36004KT 12SM 31/24 A2983 RMK SLP096 T03070245 57003 IEM_DS3505
ZGOW,2001-08-12 04:00,ZGOW 120400Z AUTO 35004KT 7SM 31/27 A2980 RMK T03100270 IEM_DS3505
ZGOW,2001-08-12 05:00,ZGOW 120500Z AUTO 30004KT 7SM 31/25 A2977 RMK T03100250 IEM_DS3505
ZGOW,2001-08-12 06:00,ZGOW 120600Z AUTO 07006KT 19SM 33/24 A2974 RMK SLP076 T03260244 57020 IEM_DS3505
ZGOW,2001-08-12 07:00,ZGOW 120700Z AUTO 30004KT 7SM 32/25 A2974 RMK T03200250 IEM_DS3505
ZGOW,2001-08-12 08:00,ZGOW 120800Z AUTO 15004KT 7SM 31/26 A2971 RMK T03100260 IEM_DS3505
ZGOW,2001-08-12 09:00,ZGOW 120900Z AUTO 04004KT 19SM 32/24 A2971 RMK SLP064 T03230238 57012 IEM_DS3505
ZGOW,2001-08-12 11:00,ZGOW 121100Z AUTO 16004KT 7SM 29/26 A2974 RMK T02900260 IEM_DS3505
ZGOW,2001-08-12 13:00,ZGOW 121300Z AUTO 15002KT 7SM 28/27 A2980 RMK T02800270 IEM_DS3505
ZGOW,2001-08-12 14:00,ZGOW 121400Z AUTO 15002KT 7SM 28/26 A2980 RMK T02800260 IEM_DS3505
ZGOW,2001-08-12 15:00,ZGOW 121500Z AUTO 16004KT 12SM 29/25 A2980 RMK SLP078 T02930254 52014 IEM_DS3505
ZGOW,2001-08-12 16:00,ZGOW 121600Z AUTO 6SM 28/25 A2980 RMK T02800250 IEM_DS3505
ZGOW,2001-08-12 17:00,ZGOW 121700Z AUTO 35002KT 6SM 28/25 A2977 RMK T02800250 IEM_DS3505
ZGOW,2001-08-12 18:00,ZGOW 121800Z AUTO 36002KT 9SM 28/25 A2977 RMK 60004 SLP081 T02770249 57012 IEM_DS3505
ZGOW,2001-08-12 19:00,ZGOW 121900Z AUTO 31002KT 6SM 26/24 A2977 RMK T02600240 IEM_DS3505
ZGOW,2001-08-12 20:00,ZGOW 122000Z AUTO 32002KT 6SM 26/24 A2977 RMK T02600240 IEM_DS3505
ZGOW,2001-08-12 21:00,ZGOW 122100Z AUTO 04004KT 7SM 27/24 A2977 RMK 70005 SLP079 T02660237 57002 IEM_DS3505
ZGOW,2001-08-12 22:00,ZGOW 122200Z AUTO 35002KT 6SM 26/25 A2977 RMK T02600250 IEM_DS3505
ZGOW,2001-08-12 23:00,ZGOW 122300Z AUTO 04004KT 4SM 27/26 A2977 RMK T02700260 IEM_DS3505
ZGOW,2001-08-13 00:00,ZGOW 130000Z AUTO 07006KT 9SM 29/26 A2977 RMK 70005 SLP087 T02910256 52008 IEM_DS3505
ZGOW,2001-08-13 01:00,ZGOW 130100Z AUTO 06010KT 6SM 30/26 A2980 RMK T03000260 IEM_DS3505
ZGOW,2001-08-13 02:00,ZGOW 130200Z AUTO 07010KT 6SM 31/26 A2980 RMK T03100260 IEM_DS3505
ZGOW,2001-08-13 03:00,ZGOW 130300Z AUTO 07006KT 11SM 32/24 RMK SLP087 T03200237 54000 IEM_DS3505
ZGOW,2001-08-13 04:00,ZGOW 130400Z AUTO 11006KT 6SM 32/27 A2980 RMK T03200270 IEM_DS3505
ZGOW,2001-08-13 05:00,ZGOW 130500Z AUTO 12010KT 6SM 32/27 A2977 RMK T03200270 IEM_DS3505
ZGOW,2001-08-13 06:00,ZGOW 130600Z AUTO 09008KT 12SM 32/24 A2974 RMK SLP067 T03190238 57020 IEM_DS3505
ZGOW,2001-08-13 07:00,ZGOW 130700Z AUTO 12010KT 6SM 32/26 A2971 RMK T03200260 IEM_DS3505
ZGOW,2001-08-13 08:00,ZGOW 130800Z AUTO 12010KT 7SM 30/26 A2971 RMK T03000260 IEM_DS3505
ZGOW,2001-08-13 09:00,ZGOW 130900Z AUTO 11004KT 12SM 30/24 A2974 RMK SLP071 T03020238 52004 IEM_DS3505
ZGOW,2001-08-13 10:00,ZGOW 131000Z AUTO 11006KT 7SM 29/26 A2974 RMK T02900260 IEM_DS3505
ZGOW,2001-08-13 11:00,ZGOW 131100Z AUTO 08006KT 7SM 28/26 A2977 RMK T02800260 IEM_DS3505
ZGOW,2001-08-13 12:00,ZGOW 131200Z AUTO 07004KT 9SM 29/25 A2980 RMK SLP087 T02890246 52016 IEM_DS3505
ZGOW,2001-08-13 13:00,ZGOW 131300Z AUTO 04006KT 7SM 27/25 A2980 RMK T02700250 IEM_DS3505
ZGOW,2001-08-13 14:00,ZGOW 131400Z AUTO 07002KT 7SM 28/25 A2983 RMK T02800250 IEM_DS3505
ZGOW,2001-08-13 15:00,ZGOW 131500Z AUTO 36002KT 8SM 28/25 A2983 RMK SLP104 T02770247 52017 IEM_DS3505
ZGOW,2001-08-13 16:00,ZGOW 131600Z AUTO 36004KT 6SM 27/25 A2983 RMK T02700250 IEM_DS3505
ZGOW,2001-08-13 17:00,ZGOW 131700Z AUTO 34002KT 6SM 26/24 A2980 RMK T02600240 IEM_DS3505
ZGOW,2001-08-13 18:00,ZGOW 131800Z AUTO 04002KT 7SM 27/25 A2980 RMK SLP087 T02680247 57017 IEM_DS3505
ZGOW,2001-08-13 19:00,ZGOW 131900Z AUTO 32004KT 6SM 26/25 A2977 RMK T02600250 IEM_DS3505
ZGOW,2001-08-13 20:00,ZGOW 132000Z AUTO 34002KT 6SM 26/25 A2977 RMK T02600250 IEM_DS3505
ZGOW,2001-08-13 21:00,ZGOW 132100Z AUTO 35002KT 6SM 26/25 A2980 RMK T02600250 IEM_DS3505
ZGOW,2001-08-13 22:00,ZGOW 132200Z AUTO 34004KT 6SM 26/24 A2980 RMK T02600240 IEM_DS3505
ZGOW,2001-08-13 23:00,ZGOW 132300Z AUTO 34004KT 6SM 26/24 A2980 RMK T02600240 IEM_DS3505
ZGOW,2001-08-14 00:00,ZGOW 140000Z AUTO 04004KT 9SM 28/24 A2980 RMK SLP093 T02840243 52007 IEM_DS3505
ZGOW,2001-08-14 01:00,ZGOW 140100Z AUTO 36002KT 6SM 30/26 A2983 RMK T03000260 IEM_DS3505
ZGOW,2001-08-14 02:00,ZGOW 140200Z AUTO 03004KT 6SM 31/26 A2983 RMK T03100260 IEM_DS3505
ZGOW,2001-08-14 03:00,ZGOW 140300Z AUTO 07006KT 9SM 32/22 A2980 RMK SLP093 T03230221 54000 IEM_DS3505
ZGOW,2001-08-14 04:00,ZGOW 140400Z AUTO 09006KT 6SM 33/26 A2980 RMK T03300260 IEM_DS3505
ZGOW,2001-08-14 05:00,ZGOW 140500Z AUTO 11006KT 6SM 33/25 A2977 RMK T03300250 IEM_DS3505
ZGOW,2001-08-14 06:00,ZGOW 140600Z AUTO 16006KT 16SM 33/24 A2974 RMK SLP072 T03280237 57021 IEM_DS3505
ZGOW,2001-08-14 07:00,ZGOW 140700Z AUTO 15008KT 6SM 32/25 A2974 RMK T03200250 IEM_DS3505
ZGOW,2001-08-14 08:00,ZGOW 140800Z AUTO 12010KT 7SM 32/25 A2971 RMK T03200250 IEM_DS3505
ZGOW,2001-08-14 09:00,ZGOW 140900Z AUTO 14004KT 14SM 32/23 A2971 RMK SLP062 T03160234 57010 IEM_DS3505
ZGOW,2001-08-14 10:00,ZGOW 141000Z AUTO 11008KT 7SM 30/26 A2971 RMK T03000260 IEM_DS3505
ZGOW,2001-08-14 11:00,ZGOW 141100Z AUTO 09008KT 7SM 29/26 A2974 RMK T02900260 IEM_DS3505
ZGOW,2001-08-14 12:00,ZGOW 141200Z AUTO 07008KT 10SM 29/24 A2977 RMK SLP078 T02940243 52016 IEM_DS3505
ZGOW,2001-08-14 13:00,ZGOW 141300Z AUTO 08010KT 7SM 28/25 A2980 RMK T02800250 IEM_DS3505
ZGOW,2001-08-14 15:00,ZGOW 141500Z AUTO 07006KT 9SM 29/24 A2980 RMK SLP093 T02860242 52015 IEM_DS3505
ZGOW,2001-08-14 16:00,ZGOW 141600Z AUTO 08008KT 7SM 28/25 A2980 RMK T02800250 IEM_DS3505
ZGOW,2001-08-14 17:00,ZGOW 141700Z AUTO 08008KT 7SM 28/26 A2977 RMK T02800260 IEM_DS3505
ZGOW,2001-08-14 18:00,ZGOW 141800Z AUTO 07006KT 8SM 28/25 A2977 RMK SLP085 T02810250 57008 IEM_DS3505
ZGOW,2001-08-14 19:00,ZGOW 141900Z AUTO 08004KT 7SM 27/26 A2977 RMK T02700260 IEM_DS3505
ZGOW,2001-08-14 20:00,ZGOW 142000Z AUTO 09006KT 4SM 27/26 A2974 RMK T02700260 IEM_DS3505
ZGOW,2001-08-14 21:00,ZGOW 142100Z AUTO 04004KT 4SM 26/25 A2974 RMK T02600250 IEM_DS3505
ZGOW,2001-08-14 22:00,ZGOW 142200Z AUTO 33002KT 2 1/2SM 26/25 A2974 RMK T02600250 IEM_DS3505
ZGOW,2001-08-14 23:00,ZGOW 142300Z AUTO 34006KT 4SM 27/26 A2974 RMK T02700260 IEM_DS3505
ZGOW,2001-08-15 00:00,ZGOW 150000Z AUTO 02004KT 8SM 28/25 A2974 RMK SLP079 T02840247 52008 IEM_DS3505
ZGOW,2001-08-15 01:00,ZGOW 150100Z AUTO 07004KT 7SM 30/25 A2977 RMK T03000250 IEM_DS3505
ZGOW,2001-08-15 02:00,ZGOW 150200Z AUTO 08004KT 7SM 31/25 A2977 RMK T03100250 IEM_DS3505
ZGOW,2001-08-15 03:00,ZGOW 150300Z AUTO 07008KT 11SM 32/23 A2974 RMK SLP076 T03190227 57003 IEM_DS3505
ZGOW,2001-08-15 04:00,ZGOW 150400Z AUTO 09010KT 7SM 32/24 A2974 RMK T03200240 IEM_DS3505
ZGOW,2001-08-15 05:00,ZGOW 150500Z AUTO 10008KT 7SM 33/26 A2971 RMK T03300260 IEM_DS3505
ZGOW,2001-08-15 06:00,ZGOW 150600Z AUTO 14004KT 16SM 33/24 A2968 RMK SLP052 T03280239 57024 IEM_DS3505
ZGOW,2001-08-15 07:00,ZGOW 150700Z AUTO 11006KT 7SM 33/26 A2965 RMK T03300260 IEM_DS3505
ZGOW,2001-08-15 08:00,ZGOW 150800Z AUTO 13006KT 7SM 32/26 A2965 RMK T03200260 IEM_DS3505
ZGOW,2001-08-15 09:00,ZGOW 150900Z AUTO 16004KT 12SM 31/24 A2965 RMK SLP037 T03100240 57015 IEM_DS3505
ZGOW,2001-08-15 10:00,ZGOW 151000Z AUTO 10008KT 7SM 30/26 A2965 RMK T03000260 IEM_DS3505
ZGOW,2001-08-15 11:00,ZGOW 151100Z AUTO 11004KT 6SM 29/26 A2965 RMK T02900260 IEM_DS3505
ZGOW,2001-08-15 12:00,ZGOW 151200Z AUTO 07006KT 11SM 30/24 A2968 RMK SLP053 T02980238 52016 IEM_DS3505
ZGOW,2001-08-15 13:00,ZGOW 151300Z AUTO 08008KT 6SM 28/25 A2971 RMK T02800250 IEM_DS3505
ZGOW,2001-08-15 14:00,ZGOW 151400Z AUTO 08010KT 7SM 28/26 A2971 RMK T02800260 IEM_DS3505
ZGOW,2001-08-15 15:00,ZGOW 151500Z AUTO 07008KT 9SM 29/25 A2971 RMK SLP063 T02900246 52010 IEM_DS3505
ZGOW,2001-08-15 16:00,ZGOW 151600Z AUTO 09008KT 4SM 28/26 A2971 RMK T02800260 IEM_DS3505
ZGOW,2001-08-15 17:00,ZGOW 151700Z AUTO 08006KT 3SM 28/26 A2968 RMK T02800260 IEM_DS3505
ZGOW,2001-08-15 18:00,ZGOW 151800Z AUTO 04004KT 9SM 28/25 A2965 RMK SLP045 T02820251 57018 IEM_DS3505
ZGOW,2001-08-15 19:00,ZGOW 151900Z AUTO 3SM 26/26 A2965 RMK T02600260 IEM_DS3505
ZGOW,2001-08-15 20:01,ZGOW 152001Z AUTO 34002KT 3SM 27/26 A2965 RMK T02700260 IEM_DS3505
ZGOW,2001-08-15 21:00,ZGOW 152100Z AUTO 29004KT 6SM 27/26 A2965 RMK SLP040 T02710256 57005 IEM_DS3505
ZGOW,2001-08-15 22:00,ZGOW 152200Z AUTO 33002KT 3SM 26/25 A2965 RMK T02600250 IEM_DS3505
ZGOW,2001-08-15 23:00,ZGOW 152300Z AUTO 32002KT 4SM 27/26 A2965 RMK T02700260 IEM_DS3505
ZGOW,2001-08-16 00:00,ZGOW 160000Z AUTO 34004KT 8SM 30/26 A2965 RMK SLP049 T02980255 52009 IEM_DS3505
ZGOW,2001-08-16 01:00,ZGOW 160100Z AUTO 33006KT 7SM 30/27 A2968 RMK T03000270 IEM_DS3505
ZGOW,2001-08-16 02:00,ZGOW 160200Z AUTO 35006KT 7SM 31/26 A2968 RMK T03100260 IEM_DS3505
ZGOW,2001-08-16 03:00,ZGOW 160300Z AUTO 34002KT 11SM 32/24 A2965 RMK SLP048 T03240239 57001 IEM_DS3505
ZGOW,2001-08-16 04:00,ZGOW 160400Z AUTO 07006KT 7SM 33/26 A2965 RMK T03300260 IEM_DS3505
ZGOW,2001-08-16 05:00,ZGOW 160500Z AUTO 06004KT 7SM 33/26 A2962 RMK T03300260 IEM_DS3505
ZGOW,2001-08-16 06:00,ZGOW 160600Z AUTO 07002KT 11SM 35/23 A2959 RMK SLP025 T03470230 57023 IEM_DS3505
ZGOW,2001-08-16 07:00,ZGOW 160700Z AUTO 14008KT 7SM 33/27 A2956 RMK T03300270 IEM_DS3505
ZGOW,2001-08-16 08:00,ZGOW 160800Z AUTO 13010KT 6SM 32/26 A2956 RMK T03200260 IEM_DS3505
ZGOW,2001-08-16 09:00,ZGOW 160900Z AUTO 14008KT 10SM 32/24 A2956 RMK SLP009 T03220235 57016 IEM_DS3505
ZGOW,2001-08-16 10:00,ZGOW 161000Z AUTO 10010KT 7SM 30/26 A2959 RMK T03000260 IEM_DS3505
ZGOW,2001-08-16 11:00,ZGOW 161100Z AUTO 09014KT 7SM 29/25 A2959 RMK T02900250 IEM_DS3505
ZGOW,2001-08-16 12:00,ZGOW 161200Z AUTO 07008KT 9SM 30/24 A2962 RMK SLP028 T02990238 52019 IEM_DS3505
ZGOW,2001-08-16 13:00,ZGOW 161300Z AUTO 09014KT 7SM 29/25 A2962 RMK T02900250 IEM_DS3505
ZGOW,2001-08-16 14:00,ZGOW 161400Z AUTO 06008KT 7SM 28/26 A2965 RMK T02800260 IEM_DS3505
ZGOW,2001-08-16 15:00,ZGOW 161500Z AUTO 07004KT 9SM 29/25 A2968 RMK SLP048 T02910247 52020 IEM_DS3505
ZGOW,2001-08-16 16:00,ZGOW 161600Z AUTO 06004KT 7SM 28/26 A2965 RMK T02800260 IEM_DS3505
ZGOW,2001-08-16 17:00,ZGOW 161700Z AUTO 34006KT 7SM 28/24 A2962 RMK T02800240 IEM_DS3505
ZGOW,2001-08-16 18:00,ZGOW 161800Z AUTO 04004KT 8SM 27/24 A2962 RMK SLP033 T02720239 57015 IEM_DS3505
ZGOW,2001-08-16 19:00,ZGOW 161900Z AUTO 32004KT 7SM 27/24 A2962 RMK T02700240 IEM_DS3505
ZGOW,2001-08-16 20:00,ZGOW 162000Z AUTO 31002KT 4SM 26/24 A2962 RMK T02600240 IEM_DS3505
ZGOW,2001-08-16 21:00,ZGOW 162100Z AUTO 36002KT 6SM 27/24 A2962 RMK SLP030 T02660243 57003 IEM_DS3505
ZGOW,2001-08-16 22:00,ZGOW 162200Z AUTO 34004KT 4SM 26/24 A2962 RMK T02600240 IEM_DS3505
ZGOW,2001-08-17 00:00,ZGOW 170000Z AUTO 32006KT 7SM 27/24 A2965 RMK T02700240 IEM_DS3505
ZGOW,2001-08-17 01:00,ZGOW 170100Z AUTO 33004KT 4SM 28/25 A2965 RMK T02800250 IEM_DS3505
ZGOW,2001-08-17 02:00,ZGOW 170200Z AUTO 35004KT 6SM 31/26 A2965 RMK T03100260 IEM_DS3505
ZGOW,2001-08-17 03:00,ZGOW 170300Z AUTO 07006KT 7SM 32/24 A2965 RMK SLP041 T03160236 52002 IEM_DS3505
ZGOW,2001-08-17 04:00,ZGOW 170400Z AUTO 08006KT 6SM 33/25 A2965 RMK T03300250 IEM_DS3505
ZGOW,2001-08-17 05:00,ZGOW 170500Z AUTO 08008KT 6SM 33/24 A2962 RMK T03300240 IEM_DS3505
ZGOW,2001-08-17 06:00,ZGOW 170600Z AUTO 04004KT 11SM 33/23 A2962 RMK T03320234 IEM_DS3505
ZGOW,2001-08-17 07:00,ZGOW 170700Z AUTO 12008KT 6SM 32/26 A2959 RMK T03200260 IEM_DS3505
ZGOW,2001-08-17 08:00,ZGOW 170800Z AUTO 08012KT 6SM 32/25 A2959 RMK T03200250 IEM_DS3505
ZGOW,2001-08-17 09:00,ZGOW 170900Z AUTO 11006KT 12SM 32/24 A2956 RMK SLP017 T03190240 57011 IEM_DS3505
ZGOW,2001-08-17 10:00,ZGOW 171000Z AUTO 08010KT 6SM 30/25 A2959 RMK T03000250 IEM_DS3505
ZGOW,2001-08-17 11:00,ZGOW 171100Z AUTO 09008KT 6SM 29/25 A2959 RMK T02900250 IEM_DS3505
ZGOW,2001-08-17 12:00,ZGOW 171200Z AUTO 07004KT 10SM 30/23 A2962 RMK SLP033 T02980232 52016 IEM_DS3505
ZGOW,2001-08-17 13:00,ZGOW 171300Z AUTO 06008KT 6SM 29/25 A2965 RMK T02900250 IEM_DS3505
ZGOW,2001-08-17 14:00,ZGOW 171400Z AUTO 07004KT 3SM 28/25 A2965 RMK T02800250 IEM_DS3505
ZGOW,2001-08-17 15:00,ZGOW 171500Z AUTO 04004KT 10SM 29/25 A2968 RMK SLP048 T02860246 52015 IEM_DS3505
ZGOW,2001-08-17 16:00,ZGOW 171600Z AUTO 34004KT 3SM 28/25 A2965 RMK T02800250 IEM_DS3505
ZGOW,2001-08-17 17:00,ZGOW 171700Z AUTO 34004KT 2 1/2SM 27/26 A2965 RMK T02700260 IEM_DS3505
ZGOW,2001-08-17 18:00,ZGOW 171800Z AUTO 02002KT 9SM 28/24 A2962 RMK SLP037 T02750245 57011 IEM_DS3505
ZGOW,2001-08-17 19:00,ZGOW 171900Z AUTO 33004KT 3SM 27/26 A2962 RMK T02700260 IEM_DS3505
ZGOW,2001-08-17 20:00,ZGOW 172000Z AUTO 32004KT 4SM 26/25 A2962 RMK T02600250 IEM_DS3505
ZGOW,2001-08-17 21:00,ZGOW 172100Z AUTO 02004KT 8SM 26/24 A2962 RMK SLP030 T02610236 57007 IEM_DS3505
ZGOW,2001-08-17 22:00,ZGOW 172200Z AUTO 31002KT 7SM 26/24 A2962 RMK T02600240 IEM_DS3505
ZGOW,2001-08-17 23:00,ZGOW 172300Z AUTO 33004KT 7SM 27/24 A2965 RMK T02700240 IEM_DS3505
ZGOW,2001-08-18 00:00,ZGOW 180000Z AUTO 02004KT 11SM 28/23 A2965 RMK SLP042 T02780233 52012 IEM_DS3505
ZGOW,2001-08-18 02:00,ZGOW 180200Z AUTO 05012KT 6SM 32/24 A2965 RMK T03200240 IEM_DS3505
ZGOW,2001-08-18 03:00,ZGOW 180300Z AUTO 02004KT 11SM 28/23 RMK SLP042 T02780233 52012 IEM_DS3505
ZGOW,2001-08-18 04:00,ZGOW 180400Z AUTO 09010KT 6SM 34/24 A2965 RMK T03400240 IEM_DS3505
ZGOW,2001-08-18 05:00,ZGOW 180500Z AUTO 08012KT 6SM 34/24 A2962 RMK T03400240 IEM_DS3505
ZGOW,2001-08-18 06:00,ZGOW 180600Z AUTO 16006KT 12SM 33/24 A2962 RMK SLP035 T03300236 57013 IEM_DS3505
ZGOW,2001-08-18 07:00,ZGOW 180700Z AUTO 12010KT 6SM 32/26 A2962 RMK T03200260 IEM_DS3505
ZGOW,2001-08-18 08:00,ZGOW 180800Z AUTO 08012KT 6SM 32/25 A2959 RMK T03200250 IEM_DS3505
ZGOW,2001-08-18 09:00,ZGOW 180900Z AUTO 09008KT 10SM 32/23 A2956 RMK SLP019 T03180232 57016 IEM_DS3505
ZGOW,2001-08-18 10:00,ZGOW 181000Z AUTO 10010KT 7SM 30/25 A2959 RMK T03000250 IEM_DS3505
ZGOW,2001-08-18 11:00,ZGOW 181100Z AUTO 09012KT 7SM 30/25 A2959 RMK T03000250 IEM_DS3505
ZGOW,2001-08-18 12:00,ZGOW 181200Z AUTO 07008KT 9SM 30/23 RMK SLP030 T03000231 52011 IEM_DS3505
ZGOW,2001-08-18 12:01,ZGOW 181201Z AUTO 08010KT 3SM 29/25 A2962 RMK T02900250 IEM_DS3505
ZGOW,2001-08-18 13:00,ZGOW 181300Z AUTO 07008KT 6SM 29/25 A2962 RMK T02900250 IEM_DS3505
ZGOW,2001-08-18 14:00,ZGOW 181400Z AUTO 08006KT 6SM 28/26 A2965 RMK T02800260 IEM_DS3505
ZGOW,2001-08-18 15:00,ZGOW 181500Z AUTO 09008KT 7SM 29/23 A2965 RMK SLP046 T02930234 52016 IEM_DS3505
ZGOW,2001-08-18 16:00,ZGOW 181600Z AUTO 08002KT 6SM 28/25 A2965 RMK T02800250 IEM_DS3505
ZGOW,2001-08-18 17:00,ZGOW 181700Z AUTO 36002KT 7SM 27/25 A2965 RMK T02700250 IEM_DS3505
ZGOW,2001-08-18 18:00,ZGOW 181800Z AUTO 00000KT 6SM 28/25 A2962 RMK SLP038 T02750247 57008 IEM_DS3505
ZGOW,2001-08-18 19:00,ZGOW 181900Z AUTO 35002KT 2SM 27/26 A2962 RMK T02700260 IEM_DS3505
ZGOW,2001-08-18 20:00,ZGOW 182000Z AUTO 2SM 27/26 A2962 RMK T02700260 IEM_DS3505
ZGOW,2001-08-18 21:00,ZGOW 182100Z AUTO 07004KT 5SM 27/25 A2962 RMK SLP038 T02690248 54000 IEM_DS3505
ZGOW,2001-08-18 22:00,ZGOW 182200Z AUTO 32004KT 2SM 27/26 A2962 RMK T02700260 IEM_DS3505
ZGOW,2001-08-18 23:00,ZGOW 182300Z AUTO 33004KT 2SM 27/26 A2965 RMK T02700260 IEM_DS3505
ZGOW,2001-08-19 00:00,ZGOW 190000Z AUTO 04004KT 7SM 29/24 A2965 RMK SLP046 T02940244 52008 IEM_DS3505
ZGOW,2001-08-19 01:00,ZGOW 190100Z AUTO 01004KT 31/23 A2965 RMK T03100230 IEM_DS3505
ZGOW,2001-08-19 02:00,ZGOW 190200Z AUTO 08006KT 6SM 32/24 A2968 RMK T03200240 IEM_DS3505
ZGOW,2001-08-19 03:00,ZGOW 190300Z AUTO 34002KT 10SM 32/22 A2965 RMK SLP049 T03230221 52003 IEM_DS3505
ZGOW,2001-08-19 04:00,ZGOW 190400Z AUTO 06010KT 7SM 34/22 A2965 RMK T03400220 IEM_DS3505
ZGOW,2001-08-19 05:00,ZGOW 190500Z AUTO 07010KT 7SM 34/22 A2965 RMK T03400220 IEM_DS3505
ZGOW,2001-08-19 06:00,ZGOW 190600Z AUTO 02002KT 11SM 34/20 A2962 RMK SLP037 T03390199 57012 IEM_DS3505
ZGOW,2001-08-19 07:00,ZGOW 190700Z AUTO 13008KT 7SM 33/24 A2962 RMK T03300240 IEM_DS3505
ZGOW,2001-08-19 08:00,ZGOW 190800Z AUTO 13010KT 7SM 33/26 A2962 RMK T03300260 IEM_DS3505
ZGOW,2001-08-19 09:00,ZGOW 190900Z AUTO 11006KT 9SM 32/23 A2962 RMK SLP028 T03220232 57009 IEM_DS3505
ZGOW,2001-08-19 10:00,ZGOW 191000Z AUTO 09010KT 7SM 31/25 A2962 RMK T03100250 IEM_DS3505
ZGOW,2001-08-19 11:00,ZGOW 191100Z AUTO 09006KT 7SM 29/25 A2962 RMK T02900250 IEM_DS3505
ZGOW,2001-08-19 12:00,ZGOW 191200Z AUTO 09006KT 7SM 30/24 A2965 RMK SLP042 T02960239 52014 IEM_DS3505
ZGOW,2001-08-19 13:00,ZGOW 191300Z AUTO 09008KT 7SM 29/25 A2968 RMK T02900250 IEM_DS3505
ZGOW,2001-08-19 14:00,ZGOW 191400Z AUTO 08006KT 6SM 29/25 A2971 RMK T02900250 IEM_DS3505
ZGOW,2001-08-19 15:00,ZGOW 191500Z AUTO 07004KT 6SM 29/24 A2971 RMK SLP060 T02900245 52018 IEM_DS3505
ZGOW,2001-08-19 16:00,ZGOW 191600Z AUTO 2 1/2SM 28/25 A2971 RMK T02800250 IEM_DS3505
ZGOW,2001-08-19 17:00,ZGOW 191700Z AUTO 2 1/2SM 27/25 A2968 RMK T02700250 IEM_DS3505
ZGOW,2001-08-19 18:00,ZGOW 191800Z AUTO 02002KT 6SM 28/25 RMK SLP056 T02790248 57004 IEM_DS3505
ZGOW,2001-08-19 18:01,ZGOW 191801Z AUTO 2SM 27/25 A2968 RMK T02700250 IEM_DS3505
ZGOW,2001-08-19 19:00,ZGOW 191900Z AUTO 32004KT 1 1/2SM 27/26 A2968 RMK T02700260 IEM_DS3505
ZGOW,2001-08-19 20:00,ZGOW 192000Z AUTO 32004KT 1 1/4SM 27/26 A2968 RMK T02700260 IEM_DS3505
ZGOW,2001-08-19 21:00,ZGOW 192100Z AUTO 00000KT 5SM 26/24 A2968 RMK SLP053 T02650245 57003 IEM_DS3505
ZGOW,2001-08-19 22:00,ZGOW 192200Z AUTO 32004KT 2SM 27/26 A2968 RMK T02700260 IEM_DS3505
ZGOW,2001-08-19 23:00,ZGOW 192300Z AUTO 31004KT 2SM 27/26 A2968 RMK T02700260 IEM_DS3505
ZGOW,2001-08-20 00:00,ZGOW 200000Z AUTO 29002KT 6SM 29/25 A2971 RMK SLP059 T02900249 52006 IEM_DS3505
ZGOW,2001-08-20 01:00,ZGOW 200100Z AUTO 31006KT 4SM 30/26 A2971 RMK T03000260 IEM_DS3505
ZGOW,2001-08-20 02:00,ZGOW 200200Z AUTO 02004KT 7SM 33/25 A2971 RMK T03300250 IEM_DS3505
ZGOW,2001-08-20 03:00,ZGOW 200300Z AUTO 04008KT 7SM 34/22 A2971 RMK SLP060 T03360218 52001 IEM_DS3505
ZGOW,2001-08-20 04:00,ZGOW 200400Z AUTO 08008KT 6SM 34/24 A2971 RMK T03400240 IEM_DS3505
ZGOW,2001-08-20 05:00,ZGOW 200500Z AUTO 14006KT 6SM 34/26 A2968 RMK T03400260 IEM_DS3505
ZGOW,2001-08-20 06:00,ZGOW 200600Z AUTO 16006KT 9SM 34/23 A2968 RMK SLP046 T03370226 57014 IEM_DS3505
ZGOW,2001-08-20 07:00,ZGOW 200700Z AUTO 12008KT 6SM 33/25 A2965 RMK T03300250 IEM_DS3505
ZGOW,2001-08-20 08:00,ZGOW 200800Z AUTO 13010KT 6SM 32/27 A2965 RMK T03200270 IEM_DS3505
ZGOW,2001-08-20 09:00,ZGOW 200900Z AUTO 11008KT 9SM 32/24 A2965 RMK SLP040 T03160242 57006 IEM_DS3505
ZGOW,2001-08-20 10:00,ZGOW 201000Z AUTO 13010KT 6SM 30/26 A2968 RMK T03000260 IEM_DS3505
ZGOW,2001-08-20 11:00,ZGOW 201100Z AUTO 12008KT 6SM 29/26 A2968 RMK T02900260 IEM_DS3505
ZGOW,2001-08-20 12:00,ZGOW 201200Z AUTO 11004KT 9SM 29/24 A2968 RMK SLP054 T02940241 52014 IEM_DS3505
ZGOW,2001-08-20 13:00,ZGOW 201300Z AUTO 11006KT 6SM 29/25 A2971 RMK T02900250 IEM_DS3505
ZGOW,2001-08-20 14:00,ZGOW 201400Z AUTO 07006KT 5SM 28/26 A2971 RMK T02800260 IEM_DS3505
ZGOW,2001-08-20 15:00,ZGOW 201500Z AUTO 07004KT 7SM 29/25 A2974 RMK SLP068 T02880248 52014 IEM_DS3505
ZGOW,2001-08-20 17:00,ZGOW 201700Z AUTO 10004KT 5SM 28/25 A2971 RMK T02800250 IEM_DS3505
ZGOW,2001-08-20 18:00,ZGOW 201800Z AUTO 16004KT 7SM 28/25 A2971 RMK SLP064 T02820249 57004 IEM_DS3505
ZGOW,2001-08-20 19:00,ZGOW 201900Z AUTO 06002KT 2SM 27/26 A2971 RMK T02700260 IEM_DS3505
ZGOW,2001-08-20 20:00,ZGOW 202000Z AUTO 04004KT 2SM 26/25 A2971 RMK T02600250 IEM_DS3505
ZGOW,2001-08-20 21:00,ZGOW 202100Z AUTO 07002KT 6SM 27/25 A2971 RMK SLP061 T02740251 57003 IEM_DS3505
ZGOW,2001-08-20 22:00,ZGOW 202200Z AUTO 02004KT 3SM 26/26 A2971 RMK T02600260 IEM_DS3505
ZGOW,2001-08-20 23:00,ZGOW 202300Z AUTO 35002KT 4SM 28/26 A2971 RMK T02800260 IEM_DS3505
ZGOW,2001-08-21 00:00,ZGOW 210000Z AUTO 34004KT 10SM 30/25 A2971 RMK SLP064 T02970246 52003 IEM_DS3505
ZGOW,2001-08-21 01:00,ZGOW 210100Z AUTO 07004KT 7SM 31/25 A2971 RMK T03100250 IEM_DS3505
ZGOW,2001-08-21 02:00,ZGOW 210200Z AUTO 09004KT 7SM 32/24 A2971 RMK T03200240 IEM_DS3505
ZGOW,2001-08-21 03:00,ZGOW 210300Z AUTO 27004KT 11SM 32/23 A2971 RMK SLP063 T03200229 57001 IEM_DS3505
ZGOW,2001-08-21 04:00,ZGOW 210400Z AUTO 12004KT 6SM 33/25 A2971 RMK T03300250 IEM_DS3505
ZGOW,2001-08-21 05:00,ZGOW 210500Z AUTO 14006KT 6SM 33/26 A2968 RMK T03300260 IEM_DS3505
ZGOW,2001-08-21 06:00,ZGOW 210600Z AUTO 20006KT 19SM 33/23 A2965 RMK SLP043 T03310231 57020 IEM_DS3505
ZGOW,2001-08-21 07:00,ZGOW 210700Z AUTO 13008KT 6SM 32/26 A2962 RMK T03200260 IEM_DS3505
ZGOW,2001-08-21 08:00,ZGOW 210800Z AUTO 15010KT 6SM 32/26 A2962 RMK T03200260 IEM_DS3505
ZGOW,2001-08-21 09:00,ZGOW 210900Z AUTO 11004KT 16SM 32/24 A2962 RMK SLP030 T03180240 57013 IEM_DS3505
ZGOW,2001-08-21 10:00,ZGOW 211000Z AUTO 15010KT 6SM 30/26 A2962 RMK T03000260 IEM_DS3505
ZGOW,2001-08-21 11:00,ZGOW 211100Z AUTO 15006KT 6SM 29/26 A2962 RMK T02900260 IEM_DS3505
ZGOW,2001-08-21 12:00,ZGOW 211200Z AUTO 20006KT 11SM 29/24 A2965 RMK SLP039 T02920244 52009 IEM_DS3505
ZGOW,2001-08-21 13:00,ZGOW 211300Z AUTO 16004KT 6SM 29/26 A2965 RMK T02900260 IEM_DS3505
ZGOW,2001-08-21 14:00,ZGOW 211400Z AUTO 19004KT 6SM 29/26 A2968 RMK T02900260 IEM_DS3505
ZGOW,2001-08-21 15:00,ZGOW 211500Z AUTO 20004KT 7SM 28/26 A2965 RMK SLP049 T02840259 52010 IEM_DS3505
ZGOW,2001-08-21 16:00,ZGOW 211600Z AUTO 19004KT 6SM 29/26 A2965 RMK T02900260 IEM_DS3505
ZGOW,2001-08-21 17:00,ZGOW 211700Z AUTO 20004KT 6SM 28/26 A2965 RMK T02800260 IEM_DS3505
ZGOW,2001-08-21 18:00,ZGOW 211800Z AUTO 25004KT 7SM 28/25 RMK SLP041 T02790254 57008 IEM_DS3505
ZGOW,2001-08-21 19:00,ZGOW 211900Z AUTO 2SM 28/26 A2962 RMK T02800260 IEM_DS3505
ZGOW,2001-08-21 20:00,ZGOW 212000Z AUTO 28002KT 2SM 28/26 A2965 RMK T02800260 IEM_DS3505
ZGOW,2001-08-21 21:00,ZGOW 212100Z AUTO 29004KT 6SM 28/25 RMK SLP037 T02760251 57004 IEM_DS3505
ZGOW,2001-08-21 23:00,ZGOW 212300Z AUTO 31002KT 2 1/2SM 27/27 A2965 RMK T02700270 IEM_DS3505
ZGOW,2001-08-22 00:00,ZGOW 220000Z AUTO 29002KT 5SM 29/26 A2965 RMK SLP044 T02900256 52007 IEM_DS3505
ZGOW,2001-08-22 02:00,ZGOW 220200Z AUTO 29004KT 9SM 32/26 A2965 RMK T03200260 IEM_DS3505
ZGOW,2001-08-22 03:00,ZGOW 220300Z AUTO 25006KT 9SM 32/23 A2965 RMK SLP041 T03210227 57003 IEM_DS3505
ZGOW,2001-08-22 04:00,ZGOW 220400Z AUTO 17008KT 33/27 A2962 RMK T03300270 IEM_DS3505
ZGOW,2001-08-22 05:00,ZGOW 220500Z AUTO 15010KT 33/27 A2962 RMK T03300270 IEM_DS3505
ZGOW,2001-08-22 06:00,ZGOW 220600Z AUTO 18006KT 11SM 34/25 A2959 RMK SLP019 T03430250 57022 IEM_DS3505
ZGOW,2001-08-22 07:00,ZGOW 220700Z AUTO 16010KT 6SM 32/26 A2956 RMK T03200260 IEM_DS3505
ZGOW,2001-08-22 08:00,ZGOW 220800Z AUTO 17010KT 6SM 33/26 A2956 RMK T03300260 IEM_DS3505
ZGOW,2001-08-22 09:00,ZGOW 220900Z AUTO 18006KT 11SM 32/22 A2953 RMK SLP008 T03230220 57011 IEM_DS3505
ZGOW,2001-08-22 10:00,ZGOW 221000Z AUTO 17008KT 6SM 31/25 A2956 RMK T03100250 IEM_DS3505
ZGOW,2001-08-22 11:00,ZGOW 221100Z AUTO 17008KT 6SM 30/26 A2959 RMK T03000260 IEM_DS3505
ZGOW,2001-08-22 12:00,ZGOW 221200Z AUTO 20004KT 9SM 30/25 A2959 RMK SLP028 T02960248 52020 IEM_DS3505
ZGOW,2001-08-22 13:00,ZGOW 221300Z AUTO 17004KT 6SM 29/27 A2962 RMK T02900270 IEM_DS3505
ZGOW,2001-08-22 14:01,ZGOW 221401Z AUTO 17004KT 7SM 29/27 A2962 RMK T02900270 IEM_DS3505
ZGOW,2001-08-22 15:00,ZGOW 221500Z AUTO 18004KT 7SM 29/26 A2962 RMK SLP030 T02910259 52002 IEM_DS3505
ZGOW,2001-08-22 18:00,ZGOW 221800Z AUTO 16002KT 7SM 28/25 RMK SLP019 T02840253 57011 IEM_DS3505
ZGOW,2001-08-22 21:00,ZGOW 222100Z AUTO 25004KT 6SM 28/25 RMK SLP024 T02810254 52005 IEM_DS3505
ZGOW,2001-08-22 22:00,ZGOW 222200Z AUTO 29002KT 3SM 28/27 A2959 RMK T02800270 IEM_DS3505
ZGOW,2001-08-22 23:00,ZGOW 222300Z AUTO 31004KT 2 1/2SM 28/28 A2959 RMK T02800280 IEM_DS3505
ZGOW,2001-08-23 00:00,ZGOW 230000Z AUTO 07004KT 7SM 30/26 A2962 RMK SLP030 T02950260 52006 IEM_DS3505
ZGOW,2001-08-23 01:00,ZGOW 230100Z AUTO 13006KT 4SM 31/27 A2962 RMK T03100270 IEM_DS3505
ZGOW,2001-08-23 02:00,ZGOW 230200Z AUTO 30004KT 6SM 32/27 A2959 RMK T03200270 IEM_DS3505
ZGOW,2001-08-23 03:00,ZGOW 230300Z AUTO 25006KT 7SM 32/26 A2959 RMK SLP021 T03250263 57009 IEM_DS3505
ZGOW,2001-08-23 04:00,ZGOW 230400Z AUTO 12008KT 3SM 34/29 A2956 RMK T03400290 IEM_DS3505
ZGOW,2001-08-23 05:00,ZGOW 230500Z AUTO 17008KT 2 1/2SM 34/29 A2956 RMK T03400290 IEM_DS3505
ZGOW,2001-08-23 06:00,ZGOW 230600Z AUTO 16008KT 7SM 34/26 A2953 RMK SLP006 T03370264 57015 IEM_DS3505
ZGOW,2001-08-23 07:00,ZGOW 230700Z AUTO 16010KT 3SM 32/27 A2953 RMK T03200270 IEM_DS3505
ZGOW,2001-08-23 08:00,ZGOW 230800Z AUTO 18010KT 3SM 31/28 A2950 RMK T03100280 IEM_DS3505
ZGOW,2001-08-23 09:00,ZGOW 230900Z AUTO 22008KT 7SM 31/27 A2953 RMK SLP000 T03140267 57006 IEM_DS3505
ZGOW,2001-08-23 10:00,ZGOW 231000Z AUTO 17006KT 2 1/2SM 31/28 A2953 RMK T03100280 IEM_DS3505
ZGOW,2001-08-23 11:00,ZGOW 231100Z AUTO 16006KT 2 1/2SM 30/29 A2956 RMK T03000290 IEM_DS3505
ZGOW,2001-08-23 12:00,ZGOW 231200Z AUTO 20002KT 6SM 30/28 A2959 RMK SLP018 T03030279 52018 IEM_DS3505
ZGOW,2001-08-23 13:00,ZGOW 231300Z AUTO 15004KT 1 1/4SM 30/29 A2959 RMK T03000290 IEM_DS3505
ZGOW,2001-08-23 14:00,ZGOW 231400Z AUTO 14004KT 1 1/4SM 30/29 A2959 RMK T03000290 IEM_DS3505
ZGOW,2001-08-23 15:00,ZGOW 231500Z AUTO 00000KT 5SM 30/28 A2959 RMK SLP022 T02980278 52004 IEM_DS3505
ZGOW,2001-08-23 16:00,ZGOW 231600Z AUTO 14004KT 1SM 29/29 A2956 RMK T02900290 IEM_DS3505
ZGOW,2001-08-23 17:00,ZGOW 231700Z AUTO 17002KT 1SM 29/29 A2956 RMK T02900290 IEM_DS3505
ZGOW,2001-08-23 18:00,ZGOW 231800Z AUTO 25004KT 4SM 30/27 A2956 RMK SLP015 T02960273 57007 IEM_DS3505
ZGOW,2001-08-23 19:00,ZGOW 231900Z AUTO 14002KT 1SM 29/28 A2956 RMK T02900280 IEM_DS3505
ZGOW,2001-08-23 20:00,ZGOW 232000Z AUTO 16002KT 1SM 29/28 A2959 RMK T02900280 IEM_DS3505
ZGOW,2001-08-23 21:00,ZGOW 232100Z AUTO 20004KT 3SM 29/28 A2959 RMK SLP020 T02930277 52005 IEM_DS3505
ZGOW,2001-08-23 22:00,ZGOW 232200Z AUTO 17004KT 1SM 29/28 A2959 RMK T02900280 IEM_DS3505
ZGOW,2001-08-23 23:00,ZGOW 232300Z AUTO 16002KT 1SM 29/28 A2959 RMK T02900280 IEM_DS3505
ZGOW,2001-08-24 00:00,ZGOW 240000Z AUTO 22006KT 4SM 30/28 A2959 RMK SLP024 T02980276 52004 IEM_DS3505
ZGOW,2001-08-24 01:00,ZGOW 240100Z AUTO 20004KT 2SM 32/28 A2959 RMK T03200280 IEM_DS3505
ZGOW,2001-08-24 02:00,ZGOW 240200Z AUTO 17008KT 2 1/2SM 33/29 A2962 RMK T03300290 IEM_DS3505
ZGOW,2001-08-24 03:00,ZGOW 240300Z AUTO 07006KT 4SM 30/26 RMK SLP032 T03020263 52008 IEM_DS3505
ZGOW,2001-08-24 04:00,ZGOW 240400Z AUTO 24002KT 2 1/2SM 28/26 A2959 RMK T02800260 IEM_DS3505
ZGOW,2001-08-24 05:00,ZGOW 240500Z AUTO 11004KT 2SM 30/28 A2956 RMK T03000280 IEM_DS3505
ZGOW,2001-08-24 06:00,ZGOW 240600Z AUTO 34002KT 6SM 31/27 A2956 RMK 60134 SLP017 T03070273 57015 IEM_DS3505
ZGOW,2001-08-24 07:00,ZGOW 240700Z AUTO 16008KT 4SM 32/28 A2956 RMK T03200280 IEM_DS3505
ZGOW,2001-08-24 08:00,ZGOW 240800Z AUTO 16008KT 3SM 31/28 A2956 RMK T03100280 IEM_DS3505
ZGOW,2001-08-24 09:00,ZGOW 240900Z AUTO 20004KT 9SM 31/26 A2959 RMK SLP017 T03080258 54000 IEM_DS3505
ZGOW,2001-08-24 10:00,ZGOW 241000Z AUTO 18002KT 2 1/2SM 30/28 A2956 RMK T03000280 IEM_DS3505
ZGOW,2001-08-24 11:00,ZGOW 241100Z AUTO 35004KT 2SM 28/26 A2959 RMK T02800260 IEM_DS3505
ZGOW,2001-08-24 12:00,ZGOW 241200Z AUTO 07004KT 6SM 28/26 A2959 RMK SLP018 T02850258 52001 IEM_DS3505
ZGOW,2001-08-24 13:00,ZGOW 241300Z AUTO 30002KT 2SM 27/26 A2959 RMK T02700260 IEM_DS3505
ZGOW,2001-08-24 14:00,ZGOW 241400Z AUTO 32004KT 2 1/2SM 27/26 A2962 RMK T02700260 IEM_DS3505
ZGOW,2001-08-24 15:00,ZGOW 241500Z AUTO 02002KT 5SM 27/25 A2962 RMK SLP036 T02730250 52018 IEM_DS3505
ZGOW,2001-08-24 16:00,ZGOW 241600Z AUTO 33002KT 1 1/2SM 27/26 A2962 RMK T02700260 IEM_DS3505
ZGOW,2001-08-24 17:00,ZGOW 241700Z AUTO 1 1/2SM 27/26 A2962 RMK T02700260 IEM_DS3505
ZGOW,2001-08-24 18:00,ZGOW 241800Z AUTO 36002KT 5SM 27/25 A2962 RMK SLP032 T02710248 57004 IEM_DS3505
ZGOW,2001-08-24 19:00,ZGOW 241900Z AUTO 1SM 26/26 A2962 RMK T02600260 IEM_DS3505
ZGOW,2001-08-24 20:00,ZGOW 242000Z AUTO 35002KT 1SM 27/26 A2962 RMK T02700260 IEM_DS3505
ZGOW,2001-08-24 21:00,ZGOW 242100Z AUTO 00000KT 4SM 26/25 A2962 RMK 70135 SLP032 T02650251 54000 IEM_DS3505
ZGOW,2001-08-24 22:00,ZGOW 242200Z AUTO 33002KT 1SM 26/26 A2962 RMK T02600260 IEM_DS3505
ZGOW,2001-08-24 23:00,ZGOW 242300Z AUTO 32004KT 1SM 27/26 A2965 RMK T02700260 IEM_DS3505
ZGOW,2001-08-25 00:00,ZGOW 250000Z AUTO 36002KT 5SM 27/25 A2965 RMK SLP032 T02710248 57004 IEM_DS3505
ZGOW,2001-08-25 01:00,ZGOW 250100Z AUTO 32004KT 2SM 31/27 A2965 RMK T03100270 IEM_DS3505
ZGOW,2001-08-25 02:00,ZGOW 250200Z AUTO 15004KT 3SM 32/27 A2965 RMK T03200270 IEM_DS3505
ZGOW,2001-08-25 03:00,ZGOW 250300Z AUTO 16004KT 5SM 32/26 A2965 RMK SLP044 T03250259 54000 IEM_DS3505
ZGOW,2001-08-25 04:00,ZGOW 250400Z AUTO 15008KT 7SM 33/27 A2965 RMK T03300270 IEM_DS3505
ZGOW,2001-08-25 05:00,ZGOW 250500Z AUTO 15010KT 7SM 33/26 A2962 RMK T03300260 IEM_DS3505
ZGOW,2001-08-25 06:00,ZGOW 250600Z AUTO 11006KT 9SM 32/26 A2962 RMK SLP027 T03250259 57017 IEM_DS3505
ZGOW,2001-08-25 07:00,ZGOW 250700Z AUTO 15008KT 6SM 33/27 A2959 RMK T03300270 IEM_DS3505
ZGOW,2001-08-25 08:00,ZGOW 250800Z AUTO 15010KT 6SM 32/27 A2959 RMK T03200270 IEM_DS3505
ZGOW,2001-08-25 09:00,ZGOW 250900Z AUTO 18006KT 10SM 31/26 A2959 RMK SLP017 T03120255 57010 IEM_DS3505
ZGOW,2001-08-25 10:00,ZGOW 251000Z AUTO 17006KT 7SM 30/27 A2959 RMK T03000270 IEM_DS3505
ZGOW,2001-08-25 11:00,ZGOW 251100Z AUTO 16004KT 6SM 30/27 A2962 RMK T03000270 IEM_DS3505
ZGOW,2001-08-25 12:00,ZGOW 251200Z AUTO 18004KT 9SM 29/26 A2962 RMK SLP031 T02930258 52014 IEM_DS3505
ZGOW,2001-08-25 13:00,ZGOW 251300Z AUTO 16004KT 6SM 29/27 A2965 RMK T02900270 IEM_DS3505
ZGOW,2001-08-25 14:00,ZGOW 251400Z AUTO 15002KT 6SM 29/27 A2965 RMK T02900270 IEM_DS3505
ZGOW,2001-08-25 15:00,ZGOW 251500Z AUTO 00000KT 9SM 29/26 A2965 RMK SLP043 T02860262 52012 IEM_DS3505
ZGOW,2001-08-25 16:00,ZGOW 251600Z AUTO 12002KT 6SM 29/27 A2965 RMK T02900270 IEM_DS3505
ZGOW,2001-08-25 18:00,ZGOW 251800Z AUTO 32002KT 7SM 28/26 A2962 RMK SLP034 T02840263 57009 IEM_DS3505
ZGOW,2001-08-25 19:00,ZGOW 251900Z AUTO 2 1/2SM 28/27 A2962 RMK T02800270 IEM_DS3505
ZGOW,2001-08-25 20:00,ZGOW 252000Z AUTO 2SM 28/27 A2962 RMK T02800270 IEM_DS3505
ZGOW,2001-08-25 21:00,ZGOW 252100Z AUTO 04004KT 6SM 28/26 A2962 RMK SLP033 T02780263 57001 IEM_DS3505
ZGOW,2001-08-25 22:00,ZGOW 252200Z AUTO 34004KT 1 1/2SM 27/27 A2962 RMK T02700270 IEM_DS3505
ZGOW,2001-08-25 23:00,ZGOW 252300Z AUTO 33004KT 1 1/2SM 28/27 A2962 RMK T02800270 IEM_DS3505
ZGOW,2001-08-26 00:00,ZGOW 260000Z AUTO 07004KT 7SM 29/26 A2962 RMK SLP040 T02940261 52007 IEM_DS3505
ZGOW,2001-08-26 01:00,ZGOW 260100Z AUTO 35002KT 4SM 31/27 A2965 RMK T03100270 IEM_DS3505
ZGOW,2001-08-26 02:00,ZGOW 260200Z AUTO 06004KT 7SM 33/26 A2962 RMK T03300260 IEM_DS3505
ZGOW,2001-08-26 03:00,ZGOW 260300Z AUTO 34002KT 7SM 33/25 A2962 RMK SLP035 T03280250 57005 IEM_DS3505
ZGOW,2001-08-26 04:00,ZGOW 260400Z AUTO 13006KT 6SM 34/27 A2962 RMK T03400270 IEM_DS3505
ZGOW,2001-08-26 05:00,ZGOW 260500Z AUTO 13006KT 6SM 34/26 A2959 RMK T03400260 IEM_DS3505
ZGOW,2001-08-26 06:00,ZGOW 260600Z AUTO 16008KT 9SM 34/24 A2959 RMK SLP018 T03370243 57017 IEM_DS3505
ZGOW,2001-08-26 07:00,ZGOW 260700Z AUTO 16008KT 6SM 34/26 A2956 RMK T03400260 IEM_DS3505
ZGOW,2001-08-26 08:00,ZGOW 260800Z AUTO 15010KT 6SM 33/25 A2956 RMK T03300250 IEM_DS3505
ZGOW,2001-08-26 09:00,ZGOW 260900Z AUTO 18006KT 8SM 32/23 A2956 RMK SLP006 T03240233 57012 IEM_DS3505
ZGOW,2001-08-26 10:00,ZGOW 261000Z AUTO 12004KT 7SM 31/25 A2959 RMK T03100250 IEM_DS3505
ZGOW,2001-08-26 11:00,ZGOW 261100Z AUTO 32008KT 7SM 29/25 A2962 RMK T02900250 IEM_DS3505
ZGOW,2001-08-26 12:00,ZGOW 261200Z AUTO 04004KT 8SM 30/24 A2962 RMK SLP030 T02950245 52024 IEM_DS3505
ZGOW,2001-08-26 13:00,ZGOW 261300Z AUTO 05002KT 7SM 28/26 A2962 RMK T02800260 IEM_DS3505
ZGOW,2001-08-26 14:00,ZGOW 261400Z AUTO 33004KT 7SM 28/26 A2965 RMK T02800260 IEM_DS3505
ZGOW,2001-08-26 15:00,ZGOW 261500Z AUTO 02002KT 7SM 28/26 A2965 RMK SLP046 T02770259 52016 IEM_DS3505
ZGOW,2001-08-26 16:00,ZGOW 261600Z AUTO 36004KT 2 1/2SM 27/26 A2965 RMK T02700260 IEM_DS3505
ZGOW,2001-08-26 17:00,ZGOW 261700Z AUTO 06008KT 2 1/2SM 26/26 A2965 RMK T02600260 IEM_DS3505
ZGOW,2001-08-26 18:00,ZGOW 261800Z AUTO 07006KT 7SM 26/25 A2965 RMK 60031 SLP038 T02620249 57008 IEM_DS3505
ZGOW,2001-08-26 19:00,ZGOW 261900Z AUTO 35006KT 3SM 26/25 A2962 RMK T02600250 IEM_DS3505
ZGOW,2001-08-26 20:00,ZGOW 262000Z AUTO 33008KT 2 1/2SM 26/26 A2956 RMK T02600260 IEM_DS3505
ZGOW,2001-08-26 21:00,ZGOW 262100Z AUTO 02004KT 7SM 26/25 A2959 RMK 70033 SLP039 T02620248 52001 IEM_DS3505
ZGOW,2001-08-26 22:00,ZGOW 262200Z AUTO 28002KT 7SM 26/25 A2959 RMK T02600250 IEM_DS3505
ZGOW,2001-08-26 23:00,ZGOW 262300Z AUTO 34002KT 7SM 26/26 A2959 RMK T02600260 IEM_DS3505
ZGOW,2001-08-27 00:00,ZGOW 270000Z AUTO 07004KT 9SM 27/25 A2959 RMK 60003 SLP024 T02730247 57007 IEM_DS3505
ZGOW,2001-08-27 01:00,ZGOW 270100Z AUTO 04006KT 6SM 29/26 A2959 RMK T02900260 IEM_DS3505
ZGOW,2001-08-27 02:00,ZGOW 270200Z AUTO 06006KT 6SM 30/25 A2959 RMK T03000250 IEM_DS3505
ZGOW,2001-08-27 03:00,ZGOW 270300Z AUTO 07008KT 10SM 30/24 A2962 RMK SLP029 T03050240 52005 IEM_DS3505
ZGOW,2001-08-27 04:00,ZGOW 270400Z AUTO 08014KT 6SM 32/26 A2959 RMK T03200260 IEM_DS3505
ZGOW,2001-08-27 05:00,ZGOW 270500Z AUTO 08012KT 6SM 33/27 A2959 RMK T03300270 IEM_DS3505
ZGOW,2001-08-27 06:00,ZGOW 270600Z AUTO 07010KT 12SM 32/25 A2956 RMK SLP007 T03250246 57022 IEM_DS3505
ZGOW,2001-08-27 07:00,ZGOW 270700Z AUTO 08016KT 7SM 33/26 A2953 RMK T03300260 IEM_DS3505
ZGOW,2001-08-27 08:00,ZGOW 270800Z AUTO 08016KT 7SM 32/26 A2953 RMK T03200260 IEM_DS3505
ZGOW,2001-08-27 09:00,ZGOW 270900Z AUTO 09008KT 12SM 31/25 A2953 RMK SLP996 T03110248 57011 IEM_DS3505
ZGOW,2001-08-27 10:00,ZGOW 271000Z AUTO 09014KT 6SM 30/26 A2953 RMK T03000260 IEM_DS3505
ZGOW,2001-08-27 11:00,ZGOW 271100Z AUTO 09012KT 6SM 29/26 A2956 RMK T02900260 IEM_DS3505
ZGOW,2001-08-27 12:00,ZGOW 271200Z AUTO 09006KT 9SM 30/25 A2959 RMK SLP021 T02950250 52025 IEM_DS3505
ZGOW,2001-08-27 13:00,ZGOW 271300Z AUTO 08014KT 6SM 29/26 A2959 RMK T02900260 IEM_DS3505
ZGOW,2001-08-27 14:00,ZGOW 271400Z AUTO 07012KT 6SM 29/26 A2959 RMK T02900260 IEM_DS3505
ZGOW,2001-08-27 15:00,ZGOW 271500Z AUTO 07006KT 7SM 29/25 A2959 RMK SLP023 T02890252 52002 IEM_DS3505
ZGOW,2001-08-27 16:00,ZGOW 271600Z AUTO 07004KT 6SM 28/26 A2959 RMK T02800260 IEM_DS3505
ZGOW,2001-08-27 17:00,ZGOW 271700Z AUTO 6SM 28/26 A2956 RMK T02800260 IEM_DS3505
ZGOW,2001-08-27 18:00,ZGOW 271800Z AUTO 07004KT 7SM 28/25 A2956 RMK 60003 SLP016 T02840253 57007 IEM_DS3505
ZGOW,2001-08-27 19:00,ZGOW 271900Z AUTO 04008KT 6SM 28/25 A2956 RMK T02800250 IEM_DS3505
ZGOW,2001-08-27 20:00,ZGOW 272000Z AUTO 03008KT 6SM 28/25 A2953 RMK T02800250 IEM_DS3505
ZGOW,2001-08-27 21:00,ZGOW 272100Z AUTO 04006KT 7SM 28/24 A2953 RMK 70003 SLP007 T02840235 57009 IEM_DS3505
ZGOW,2001-08-27 22:00,ZGOW 272200Z AUTO 04010KT 6SM 28/24 A2956 RMK T02800240 IEM_DS3505
ZGOW,2001-08-27 23:00,ZGOW 272300Z AUTO 05010KT 7SM 28/24 A2956 RMK T02800240 IEM_DS3505
ZGOW,2001-08-28 00:00,ZGOW 280000Z AUTO 07006KT 6SM 26/24 A2959 RMK 60016 SLP023 T02640244 52016 IEM_DS3505
ZGOW,2001-08-28 01:00,ZGOW 280100Z AUTO 08010KT 4SM 26/26 A2962 RMK T02600260 IEM_DS3505
ZGOW,2001-08-28 02:00,ZGOW 280200Z AUTO 07012KT 6SM 26/26 A2962 RMK T02600260 IEM_DS3505
ZGOW,2001-08-28 03:00,ZGOW 280300Z AUTO 07008KT 4SM 26/25 A2962 RMK SLP031 T02610251 52008 IEM_DS3505
ZGOW,2001-08-28 04:00,ZGOW 280400Z AUTO 07010KT 3SM 26/26 A2962 RMK T02600260 IEM_DS3505
ZGOW,2001-08-28 05:00,ZGOW 280500Z AUTO 07014KT 7SM 27/26 A2959 RMK T02700260 IEM_DS3505
ZGOW,2001-08-28 06:00,ZGOW 280600Z AUTO 07008KT 11SM 28/26 A2959 RMK 60134 SLP021 T02760258 57010 IEM_DS3505
ZGOW,2001-08-28 07:00,ZGOW 280700Z AUTO 07017KT 7SM 28/27 A2956 RMK T02800270 IEM_DS3505
ZGOW,2001-08-28 08:00,ZGOW 280800Z AUTO 07014KT 7SM 27/26 A2956 RMK T02700260 IEM_DS3505
ZGOW,2001-08-28 09:00,ZGOW 280900Z AUTO 07008KT 9SM 27/25 A2956 RMK SLP017 T02740254 57004 IEM_DS3505
ZGOW,2001-08-28 10:00,ZGOW 281000Z AUTO 08012KT 7SM 27/27 A2956 RMK T02700270 IEM_DS3505
ZGOW,2001-08-28 11:00,ZGOW 281100Z AUTO 08010KT 7SM 27/26 A2959 RMK T02700260 IEM_DS3505
ZGOW,2001-08-28 12:00,ZGOW 281200Z AUTO 07008KT 9SM 27/25 A2962 RMK 60001 SLP031 T02720252 52014 IEM_DS3505
ZGOW,2001-08-28 13:00,ZGOW 281300Z AUTO 07012KT 7SM 27/26 A2962 RMK T02700260 IEM_DS3505
ZGOW,2001-08-28 14:00,ZGOW 281400Z AUTO 07014KT 7SM 27/26 A2962 RMK T02700260 IEM_DS3505
ZGOW,2001-08-28 15:00,ZGOW 281500Z AUTO 07008KT 8SM 27/25 A2962 RMK SLP035 T02710253 52004 IEM_DS3505
ZGOW,2001-08-28 16:00,ZGOW 281600Z AUTO 08012KT 6SM 27/26 A2962 RMK T02700260 IEM_DS3505
ZGOW,2001-08-28 17:00,ZGOW 281700Z AUTO 07012KT 6SM 27/26 A2959 RMK T02700260 IEM_DS3505
ZGOW,2001-08-28 18:00,ZGOW 281800Z AUTO 07008KT 7SM 27/26 A2959 RMK SLP022 T02720258 57013 IEM_DS3505
ZGOW,2001-08-28 19:00,ZGOW 281900Z AUTO 08012KT 6SM 27/26 A2956 RMK T02700260 IEM_DS3505
ZGOW,2001-08-28 20:00,ZGOW 282000Z AUTO 07012KT 7SM 27/26 A2956 RMK T02700260 IEM_DS3505
ZGOW,2001-08-28 21:00,ZGOW 282100Z AUTO 07006KT 6SM 26/25 A2956 RMK 70167 SLP018 T02640253 57004 IEM_DS3505
ZGOW,2001-08-28 22:00,ZGOW 282200Z AUTO 12010KT 2SM 25/25 A2959 RMK T02500250 IEM_DS3505
ZGOW,2001-08-28 23:00,ZGOW 282300Z AUTO 08004KT 7SM 25/25 A2959 RMK T02500250 IEM_DS3505
ZGOW,2001-08-29 00:00,ZGOW 290000Z AUTO 07004KT 9SM 27/25 A2962 RMK 60028 SLP036 T02670253 52018 IEM_DS3505
ZGOW,2001-08-29 01:00,ZGOW 290100Z AUTO 06010KT 4SM 27/26 A2962 RMK T02700260 IEM_DS3505
ZGOW,2001-08-29 02:00,ZGOW 290200Z AUTO 07014KT 7SM 28/27 A2965 RMK T02800270 IEM_DS3505
ZGOW,2001-08-29 03:00,ZGOW 290300Z AUTO 07004KT 9SM 26/25 A2965 RMK SLP041 T02620254 52005 IEM_DS3505
ZGOW,2001-08-29 04:00,ZGOW 290400Z AUTO 09008KT 7SM 28/27 A2962 RMK T02800270 IEM_DS3505
ZGOW,2001-08-29 05:00,ZGOW 290500Z AUTO 08008KT 7SM RMK IEM_DS3505
ZGOW,2001-08-29 06:00,ZGOW 290600Z AUTO 07002KT 12SM 26/25 A2959 RMK 60110 SLP028 T02630250 57013 IEM_DS3505
ZGOW,2001-08-29 07:00,ZGOW 290700Z AUTO 15008KT 7SM 28/27 A2959 RMK T02800270 IEM_DS3505
ZGOW,2001-08-29 08:00,ZGOW 290800Z AUTO 17008KT 7SM 28/26 A2959 RMK T02800260 IEM_DS3505
ZGOW,2001-08-29 09:00,ZGOW 290900Z AUTO 16004KT 12SM 27/25 A2959 RMK SLP024 T02710254 57004 IEM_DS3505
ZGOW,2001-08-29 10:00,ZGOW 291000Z AUTO 12008KT 7SM 27/26 A2959 RMK T02700260 IEM_DS3505
ZGOW,2001-08-29 11:00,ZGOW 291100Z AUTO 12008KT 7SM 27/26 A2959 RMK T02700260 IEM_DS3505
ZGOW,2001-08-29 12:00,ZGOW 291200Z AUTO 07004KT 11SM 27/25 A2962 RMK 60001 SLP033 T02680248 52009 IEM_DS3505
ZGOW,2001-08-29 13:00,ZGOW 291300Z AUTO 08006KT 6SM 26/25 A2965 RMK T02600250 IEM_DS3505
ZGOW,2001-08-29 14:00,ZGOW 291400Z AUTO 08006KT 6SM 27/26 A2965 RMK T02700260 IEM_DS3505
ZGOW,2001-08-29 15:00,ZGOW 291500Z AUTO 07006KT 10SM 27/25 A2965 RMK SLP043 T02680251 52010 IEM_DS3505
ZGOW,2001-08-29 16:00,ZGOW 291600Z AUTO 07004KT 6SM 26/26 A2965 RMK T02600260 IEM_DS3505
ZGOW,2001-08-29 17:00,ZGOW 291700Z AUTO 06006KT 6SM 26/26 A2962 RMK T02600260 IEM_DS3505
ZGOW,2001-08-29 18:00,ZGOW 291800Z AUTO 04004KT 5SM 26/25 A2962 RMK 60028 SLP028 T02600254 57015 IEM_DS3505
ZGOW,2001-08-29 19:00,ZGOW 291900Z AUTO 17002KT 6SM 25/25 A2962 RMK T02500250 IEM_DS3505
ZGOW,2001-08-29 20:00,ZGOW 292000Z AUTO 06006KT 6SM 25/25 A2959 RMK T02500250 IEM_DS3505
ZGOW,2001-08-29 21:00,ZGOW 292100Z AUTO 04006KT 4SM 25/24 A2959 RMK 70217 SLP027 T02490245 57001 IEM_DS3505
ZGOW,2001-08-29 22:00,ZGOW 292200Z AUTO 15008KT 3SM 25/25 A2962 RMK T02500250 IEM_DS3505
ZGOW,2001-08-29 23:00,ZGOW 292300Z AUTO 06004KT 4SM 25/25 A2962 RMK T02500250 IEM_DS3505
ZGOW,2001-08-30 00:00,ZGOW 300000Z AUTO 07006KT 7SM 25/25 A2965 RMK 60173 SLP046 T02530246 52019 IEM_DS3505
ZGOW,2001-08-30 01:00,ZGOW 300100Z AUTO 11008KT 7SM 25/25 A2968 RMK T02500250 IEM_DS3505
ZGOW,2001-08-30 02:00,ZGOW 300200Z AUTO 11006KT 7SM 26/26 A2968 RMK T02600260 IEM_DS3505
ZGOW,2001-08-30 03:00,ZGOW 300300Z AUTO 16006KT 7SM 26/25 A2968 RMK SLP049 T02580252 52003 IEM_DS3505
ZGOW,2001-08-30 04:00,ZGOW 300400Z AUTO 15006KT 7SM 26/26 A2968 RMK T02600260 IEM_DS3505
ZGOW,2001-08-30 05:00,ZGOW 300500Z AUTO 13004KT 7SM 26/26 A2965 RMK T02600260 IEM_DS3505
ZGOW,2001-08-30 06:00,ZGOW 300600Z AUTO 16004KT 6SM 26/25 A2965 RMK 60063 SLP039 T02600249 57010 IEM_DS3505
ZGOW,2001-08-30 07:00,ZGOW 300700Z AUTO 13002KT 7SM 25/25 A2965 RMK T02500250 IEM_DS3505
ZGOW,2001-08-30 08:00,ZGOW 300800Z AUTO 10004KT 7SM 26/25 A2962 RMK T02600250 IEM_DS3505
ZGOW,2001-08-30 09:00,ZGOW 300900Z AUTO 04004KT 6SM 26/25 A2965 RMK SLP036 T02620251 57003 IEM_DS3505
ZGOW,2001-08-30 10:00,ZGOW 301000Z AUTO 08002KT 7SM 26/26 A2965 RMK T02600260 IEM_DS3505
ZGOW,2001-08-30 11:00,ZGOW 301100Z AUTO 7SM 26/25 A2968 RMK T02600250 IEM_DS3505
ZGOW,2001-08-30 12:00,ZGOW 301200Z AUTO 07002KT 7SM 26/25 A2968 RMK 60008 SLP055 T02600251 52019 IEM_DS3505
ZGOW,2001-08-30 13:00,ZGOW 301300Z AUTO 08002KT 7SM 26/25 A2971 RMK T02600250 IEM_DS3505
ZGOW,2001-08-30 14:00,ZGOW 301400Z AUTO 07002KT 7SM 26/26 A2971 RMK T02600260 IEM_DS3505
ZGOW,2001-08-30 15:00,ZGOW 301500Z AUTO 07004KT 8SM 26/25 A2971 RMK SLP064 T02590252 52009 IEM_DS3505
ZGOW,2001-08-30 16:00,ZGOW 301600Z AUTO 08004KT 6SM 26/26 A2971 RMK T02600260 IEM_DS3505
ZGOW,2001-08-30 17:00,ZGOW 301700Z AUTO 08004KT 6SM 26/26 A2968 RMK T02600260 IEM_DS3505
ZGOW,2001-08-30 18:00,ZGOW 301800Z AUTO 07006KT 7SM 26/25 A2968 RMK 60047 SLP051 T02560252 57013 IEM_DS3505
ZGOW,2001-08-30 19:00,ZGOW 301900Z AUTO 14006KT 1/2SM 26/26 A2968 RMK T02600260 IEM_DS3505
ZGOW,2001-08-30 20:00,ZGOW 302000Z AUTO 4SM 25/25 A2968 RMK T02500250 IEM_DS3505
ZGOW,2001-08-30 21:00,ZGOW 302100Z AUTO 07004KT 4SM 25/25 A2968 RMK 70441 SLP047 T02540251 57004 IEM_DS3505
ZGOW,2001-08-30 22:00,ZGOW 302200Z AUTO 07004KT 4SM 25/25 A2968 RMK T02500250 IEM_DS3505
ZGOW,2001-08-30 23:00,ZGOW 302300Z AUTO 10006KT 7SM A2968 RMK IEM_DS3505
ZGOW,2001-08-31 00:00,ZGOW 310000Z AUTO 07004KT 6SM 26/25 A2971 RMK 60240 SLP059 T02560252 52012 IEM_DS3505
ZGOW,2001-08-31 01:00,ZGOW 310100Z AUTO 08006KT 4SM 26/25 A2971 RMK T02600250 IEM_DS3505
ZGOW,2001-08-31 02:00,ZGOW 310200Z AUTO 05004KT 7SM 26/26 A2971 RMK T02600260 IEM_DS3505
ZGOW,2001-08-31 03:00,ZGOW 310300Z AUTO 07006KT 6SM 26/26 A2971 RMK SLP063 T02630255 52004 IEM_DS3505
ZGOW,2001-08-31 04:00,ZGOW 310400Z AUTO 13006KT 1SM 26/26 A2971 RMK T02600260 IEM_DS3505
ZGOW,2001-08-31 05:00,ZGOW 310500Z AUTO 12004KT 1 1/4SM 26/26 A2971 RMK T02600260 IEM_DS3505
ZGOW,2001-08-31 06:00,ZGOW 310600Z AUTO 07006KT 9SM 26/25 A2965 RMK 60087 SLP047 T02600254 57016 IEM_DS3505
ZGOW,2001-08-31 07:00,ZGOW 310700Z AUTO 08004KT 4SM 27/26 A2965 RMK T02700260 IEM_DS3505
ZGOW,2001-08-31 08:00,ZGOW 310800Z AUTO 09006KT 7SM 27/26 A2965 RMK T02700260 IEM_DS3505
ZGOW,2001-08-31 09:00,ZGOW 310900Z AUTO 04004KT 12SM 27/26 A2965 RMK SLP044 T02700256 57003 IEM_DS3505
ZGOW,2001-08-31 10:00,ZGOW 311000Z AUTO 11004KT 7SM 27/26 A2968 RMK T02700260 IEM_DS3505
ZGOW,2001-08-31 11:00,ZGOW 311100Z AUTO 09004KT 7SM 27/26 A2968 RMK T02700260 IEM_DS3505
ZGOW,2001-08-31 12:00,ZGOW 311200Z AUTO 09004KT 10SM 26/26 A2971 RMK 60002 SLP059 T02650257 52019 IEM_DS3505
ZGOW,2001-08-31 14:00,ZGOW 311400Z AUTO 07002KT 7SM 27/26 A2971 RMK T02700260 IEM_DS3505
ZGOW,2001-08-31 15:00,ZGOW 311500Z AUTO 07004KT 6SM 27/26 A2971 RMK SLP061 T02660260 52002 IEM_DS3505
ZGOW,2001-08-31 16:00,ZGOW 311600Z AUTO 02004KT 6SM 26/26 A2971 RMK T02600260 IEM_DS3505
ZGOW,2001-08-31 17:01,ZGOW 311701Z AUTO 04004KT 4SM 26/26 A2968 RMK T02600260 IEM_DS3505
ZGOW,2001-08-31 18:00,ZGOW 311800Z AUTO 04004KT 6SM 26/26 A2968 RMK 60002 SLP053 T02630259 57008 IEM_DS3505
ZGOW,2001-08-31 19:00,ZGOW 311900Z AUTO 04004KT 6SM 26/26 A2965 RMK T02600260 IEM_DS3505
ZGOW,2001-08-31 20:00,ZGOW 312000Z AUTO 02002KT 4SM 26/26 A2965 RMK T02600260 IEM_DS3505
ZGOW,2001-08-31 21:00,ZGOW 312100Z AUTO 00000KT 6SM 26/25 A2965 RMK 70108 SLP042 T02580254 57011 IEM_DS3505
ZGOW,2001-08-31 22:00,ZGOW 312200Z AUTO 2 1/2SM 26/26 A2965 RMK T02600260 IEM_DS3505
ZGOW,2001-08-31 23:00,ZGOW 312300Z AUTO 04002KT 4SM 26/26 A2968 RMK T02600260 IEM_DS3505
ZGOW,2001-09-01 00:00,ZGOW 010000Z AUTO 04004KT 5SM 26/26 A2971 RMK 60035 SLP058 T02600256 52016 IEM_DS3505
ZGOW,2001-09-01 01:00,ZGOW 010100Z AUTO 06004KT 3SM 26/25 A2971 RMK T02600250 IEM_DS3505
ZGOW,2001-09-01 02:00,ZGOW 010200Z AUTO 08002KT 3SM 26/23 A2971 RMK T02600230 IEM_DS3505
ZGOW,2001-09-01 03:00,ZGOW 010300Z AUTO 14002KT 6SM 26/25 A2971 RMK SLP061 T02620252 52003 IEM_DS3505
ZGOW,2001-09-01 04:00,ZGOW 010400Z AUTO 06002KT 2 1/2SM 26/26 A2971 RMK T02600260 IEM_DS3505
ZGOW,2001-09-01 05:00,ZGOW 010500Z AUTO 4SM 26/26 A2968 RMK T02600260 IEM_DS3505
ZGOW,2001-09-01 06:00,ZGOW 010600Z AUTO 18002KT 7SM 27/25 A2965 RMK 60024 SLP046 T02690251 57015 IEM_DS3505
ZGOW,2001-09-01 07:00,ZGOW 010700Z AUTO 10006KT 7SM 27/26 A2965 RMK T02700260 IEM_DS3505
ZGOW,2001-09-01 08:00,ZGOW 010800Z AUTO 11002KT 7SM 27/25 A2965 RMK T02700250 IEM_DS3505
ZGOW,2001-09-01 09:00,ZGOW 010900Z AUTO 22004KT 9SM 27/25 A2962 RMK SLP039 T02740254 57007 IEM_DS3505
ZGOW,2001-09-01 10:00,ZGOW 011000Z AUTO 16002KT 7SM 27/26 A2965 RMK T02700260 IEM_DS3505
ZGOW,2001-09-01 11:00,ZGOW 011100Z AUTO 11002KT 7SM 26/24 A2965 RMK T02600240 IEM_DS3505
ZGOW,2001-09-01 12:00,ZGOW 011200Z AUTO 07002KT 9SM 26/25 A2968 RMK 60000 SLP050 T02650252 52011 IEM_DS3505
ZGOW,2001-09-01 13:00,ZGOW 011300Z AUTO 09002KT 7SM 26/25 A2968 RMK T02600250 IEM_DS3505
ZGOW,2001-09-01 14:00,ZGOW 011400Z AUTO 7SM 26/24 A2968 RMK T02600240 IEM_DS3505
ZGOW,2001-09-01 15:00,ZGOW 011500Z AUTO 07004KT 7SM 26/25 A2971 RMK SLP057 T02620251 52007 IEM_DS3505
ZGOW,2001-09-01 16:00,ZGOW 011600Z AUTO 7SM 26/25 A2971 RMK T02600250 IEM_DS3505
ZGOW,2001-09-01 17:00,ZGOW 011700Z AUTO 06002KT 6SM 26/25 A2968 RMK T02600250 IEM_DS3505
ZGOW,2001-09-01 18:00,ZGOW 011800Z AUTO 04004KT 7SM 26/25 A2965 RMK SLP044 T02590252 57013 IEM_DS3505
ZGOW,2001-09-01 19:00,ZGOW 011900Z AUTO 07008KT 6SM 26/ A2965 RMK IEM_DS3505
ZGOW,2001-09-01 20:00,ZGOW 012000Z AUTO 07012KT 6SM 26/ A2962 RMK IEM_DS3505
ZGOW,2001-09-01 21:00,ZGOW 012100Z AUTO 09008KT 9SM 26/24 A2965 RMK 70059 SLP038 T02600237 57006 IEM_DS3505
ZGOW,2001-09-01 22:00,ZGOW 012200Z AUTO 08008KT 7SM 25/20 A2965 RMK T02500200 IEM_DS3505
ZGOW,2001-09-01 23:00,ZGOW 012300Z AUTO 07012KT 7SM 26/23 A2968 RMK T02600230 IEM_DS3505
ZGOW,2001-09-02 00:00,ZGOW 020000Z AUTO 07008KT 6SM 25/24 A2968 RMK 60004 SLP057 T02500235 52019 IEM_DS3505
ZGOW,2001-09-02 01:00,ZGOW 020100Z AUTO 06010KT 4SM 25/24 A2971 RMK T02500240 IEM_DS3505
ZGOW,2001-09-02 02:00,ZGOW 020200Z AUTO 07010KT 5SM 26/25 A2971 RMK T02600250 IEM_DS3505
ZGOW,2001-09-02 03:00,ZGOW 020300Z AUTO 07010KT 9SM 27/24 A2971 RMK SLP061 T02740240 52004 IEM_DS3505
ZGOW,2001-09-02 04:00,ZGOW 020400Z AUTO 08014KT 7SM 27/25 A2971 RMK T02700250 IEM_DS3505
ZGOW,2001-09-02 05:00,ZGOW 020500Z AUTO 07016KT 7SM 28/25 A2968 RMK T02800250 IEM_DS3505
ZGOW,2001-09-02 06:00,ZGOW 020600Z AUTO 07010KT 12SM 28/24 A2968 RMK 60001 SLP052 T02790242 57009 IEM_DS3505
ZGOW,2001-09-02 07:00,ZGOW 020700Z AUTO 08014KT 7SM 28/25 A2968 RMK T02800250 IEM_DS3505
ZGOW,2001-09-02 08:00,ZGOW 020800Z AUTO 08014KT 7SM 27/25 A2968 RMK T02700250 IEM_DS3505
ZGOW,2001-09-02 09:00,ZGOW 020900Z AUTO 07010KT 11SM 27/24 A2968 RMK SLP052 T02720236 54000 IEM_DS3505
ZGOW,2001-09-02 10:00,ZGOW 021000Z AUTO 08014KT 7SM 27/23 A2968 RMK T02700230 IEM_DS3505
ZGOW,2001-09-02 11:00,ZGOW 021100Z AUTO 08012KT 7SM 26/24 A2971 RMK T02600240 IEM_DS3505
ZGOW,2001-09-02 12:00,ZGOW 021200Z AUTO 07010KT 11SM 26/23 A2971 RMK SLP064 T02630231 52012 IEM_DS3505
ZGOW,2001-09-02 13:00,ZGOW 021300Z AUTO 07012KT 7SM 26/24 A2974 RMK T02600240 IEM_DS3505
ZGOW,2001-09-02 14:00,ZGOW 021400Z AUTO 08014KT 7SM 26/24 A2974 RMK T02600240 IEM_DS3505
ZGOW,2001-09-02 15:00,ZGOW 021500Z AUTO 07008KT 10SM 26/22 A2974 RMK SLP075 T02650225 52011 IEM_DS3505
ZGOW,2001-09-02 16:00,ZGOW 021600Z AUTO 08008KT 7SM 26/23 A2974 RMK T02600230 IEM_DS3505
ZGOW,2001-09-02 17:00,ZGOW 021700Z AUTO 08012KT 7SM 27/22 A2974 RMK T02700220 IEM_DS3505
ZGOW,2001-09-02 18:00,ZGOW 021800Z AUTO 09006KT 9SM 26/22 A2974 RMK SLP073 T02640223 57002 IEM_DS3505
ZGOW,2001-09-02 19:00,ZGOW 021900Z AUTO 08010KT 7SM 26/22 A2974 RMK T02600220 IEM_DS3505
ZGOW,2001-09-02 20:00,ZGOW 022000Z AUTO 06006KT 6SM 26/22 A2971 RMK T02600220 IEM_DS3505
ZGOW,2001-09-02 21:00,ZGOW 022100Z AUTO 07006KT 8SM 26/23 A2974 RMK 70005 SLP066 T02580226 57007 IEM_DS3505
ZGOW,2001-09-02 22:00,ZGOW 022200Z AUTO 03006KT 7SM 25/22 A2974 RMK T02500220 IEM_DS3505
ZGOW,2001-09-02 23:00,ZGOW 022300Z AUTO 05004KT 6SM 26/23 A2974 RMK T02600230 IEM_DS3505
ZGOW,2001-09-03 00:00,ZGOW 030000Z AUTO 07004KT 10SM 26/23 A2977 RMK 60003 SLP082 T02630229 52016 IEM_DS3505
ZGOW,2001-09-03 01:00,ZGOW 030100Z AUTO 06006KT 7SM 26/22 A2977 RMK T02600220 IEM_DS3505
ZGOW,2001-09-03 02:00,ZGOW 030200Z AUTO 03006KT 7SM 27/23 A2980 RMK T02700230 IEM_DS3505
ZGOW,2001-09-03 03:00,ZGOW 030300Z AUTO 04006KT 11SM 27/23 A2980 RMK SLP089 T02720231 52007 IEM_DS3505
ZGOW,2001-09-03 04:00,ZGOW 030400Z AUTO 02008KT 7SM 27/23 A2977 RMK T02700230 IEM_DS3505
ZGOW,2001-09-03 05:00,ZGOW 030500Z AUTO 03010KT 7SM 28/23 A2977 RMK T02800230 IEM_DS3505
ZGOW,2001-09-03 06:00,ZGOW 030600Z AUTO 04008KT 12SM 28/23 RMK 60003 SLP081 T02770227 57008 IEM_DS3505
ZGOW,2001-09-03 07:00,ZGOW 030700Z AUTO 04006KT 7SM 27/23 A2974 RMK T02700230 IEM_DS3505
ZGOW,2001-09-03 08:00,ZGOW 030800Z AUTO 35004KT 7SM 26/23 A2974 RMK T02600230 IEM_DS3505
ZGOW,2001-09-03 09:00,ZGOW 030900Z AUTO 00000KT 8SM 26/24 A2974 RMK SLP075 T02560239 57006 IEM_DS3505
ZGOW,2001-09-03 10:00,ZGOW 031000Z AUTO 34002KT 7SM 25/24 A2977 RMK T02500240 IEM_DS3505
ZGOW,2001-09-03 11:00,ZGOW 031100Z AUTO 35002KT 7SM 25/24 A2977 RMK T02500240 IEM_DS3505
ZGOW,2001-09-03 12:00,ZGOW 031200Z AUTO 02004KT 6SM 25/24 A2980 RMK 60004 SLP086 T02490237 52011 IEM_DS3505
ZGOW,2001-09-03 13:00,ZGOW 031300Z AUTO 35002KT 7SM 25/24 A2980 RMK T02500240 IEM_DS3505
ZGOW,2001-09-03 14:00,ZGOW 031400Z AUTO 36002KT 7SM 25/24 A2983 RMK T02500240 IEM_DS3505
ZGOW,2001-09-03 15:00,ZGOW 031500Z AUTO 07004KT 6SM 25/24 A2980 RMK SLP094 T02480239 52008 IEM_DS3505
ZGOW,2001-09-03 16:00,ZGOW 031600Z AUTO 01002KT 3SM 24/23 A2980 RMK T02400230 IEM_DS3505
ZGOW,2001-09-03 17:00,ZGOW 031700Z AUTO 03006KT 6SM 24/22 A2977 RMK T02400220 IEM_DS3505
ZGOW,2001-09-03 18:00,ZGOW 031800Z AUTO 07004KT 7SM 24/23 A2977 RMK 60002 SLP078 T02400227 57016 IEM_DS3505
ZGOW,2001-09-03 19:00,ZGOW 031900Z AUTO 4SM 24/23 A2974 RMK T02400230 IEM_DS3505
ZGOW,2001-09-03 20:00,ZGOW 032000Z AUTO 6SM 24/23 A2974 RMK T02400230 IEM_DS3505
ZGOW,2001-09-03 21:00,ZGOW 032100Z AUTO 07002KT 9SM 24/23 A2974 RMK 70007 SLP077 T02420226 57001 IEM_DS3505
ZGOW,2001-09-03 22:00,ZGOW 032200Z AUTO 33002KT 7SM 24/23 A2974 RMK T02400230 IEM_DS3505
ZGOW,2001-09-03 23:00,ZGOW 032300Z AUTO 32002KT 7SM 24/23 A2974 RMK T02400230 IEM_DS3505
ZGOW,2001-09-04 00:00,ZGOW 040000Z AUTO 35002KT 7SM 25/23 A2977 RMK T02500230 IEM_DS3505
ZGOW,2001-09-04 01:00,ZGOW 040100Z AUTO 13004KT 7SM 26/22 A2977 RMK T02600220 IEM_DS3505
ZGOW,2001-09-04 02:00,ZGOW 040200Z AUTO 03004KT 7SM 26/22 A2977 RMK T02600220 IEM_DS3505
ZGOW,2001-09-04 03:00,ZGOW 040300Z AUTO 07006KT 10SM 26/22 A2977 RMK SLP081 T02620225 52004 IEM_DS3505
ZGOW,2001-09-04 04:00,ZGOW 040400Z AUTO 04008KT 7SM 28/23 A2974 RMK T02800230 IEM_DS3505
ZGOW,2001-09-04 05:00,ZGOW 040500Z AUTO 06012KT 7SM 29/23 A2974 RMK T02900230 IEM_DS3505
ZGOW,2001-09-04 06:00,ZGOW 040600Z AUTO 04008KT 12SM 29/23 A2971 RMK 60000 SLP062 T02930234 57019 IEM_DS3505
ZGOW,2001-09-04 07:00,ZGOW 040700Z AUTO 06006KT 7SM 27/25 A2971 RMK T02700250 IEM_DS3505
ZGOW,2001-09-04 08:00,ZGOW 040800Z AUTO 09008KT 7SM 26/24 A2971 RMK T02600240 IEM_DS3505
ZGOW,2001-09-04 09:00,ZGOW 040900Z AUTO 07006KT 4SM 25/24 A2971 RMK SLP058 T02510244 57004 IEM_DS3505
ZGOW,2001-09-04 10:00,ZGOW 041000Z AUTO 05002KT 3SM 25/24 A2971 RMK T02500240 IEM_DS3505
ZGOW,2001-09-04 11:00,ZGOW 041100Z AUTO 04004KT 7SM 25/24 A2971 RMK T02500240 IEM_DS3505
ZGOW,2001-09-04 12:00,ZGOW 041200Z AUTO 04002KT 5SM 26/24 A2974 RMK 60035 SLP065 T02550242 52007 IEM_DS3505
ZGOW,2001-09-04 13:00,ZGOW 041300Z AUTO 35002KT 7SM 25/24 A2974 RMK T02500240 IEM_DS3505
ZGOW,2001-09-04 14:00,ZGOW 041400Z AUTO 7SM 25/24 A2974 RMK T02500240 IEM_DS3505
ZGOW,2001-09-04 15:00,ZGOW 041500Z AUTO 04004KT 5SM 25/24 A2974 RMK SLP071 T02470238 52006 IEM_DS3505
ZGOW,2001-09-04 16:00,ZGOW 041600Z AUTO 05002KT 3SM 24/24 A2974 RMK T02400240 IEM_DS3505
ZGOW,2001-09-04 17:00,ZGOW 041700Z AUTO 12002KT 3SM 23/23 A2971 RMK T02300230 IEM_DS3505
ZGOW,2001-09-04 18:00,ZGOW 041800Z AUTO 04004KT 5SM 24/24 A2971 RMK 60098 SLP064 T02410237 57007 IEM_DS3505
ZGOW,2001-09-04 19:00,ZGOW 041900Z AUTO 4SM 24/23 A2971 RMK T02400230 IEM_DS3505
ZGOW,2001-09-04 20:00,ZGOW 042000Z AUTO 6SM 24/23 A2971 RMK T02400230 IEM_DS3505
ZGOW,2001-09-04 21:00,ZGOW 042100Z AUTO 00000KT 5SM 24/24 A2971 RMK 70167 SLP065 T02440238 52001 IEM_DS3505
ZGOW,2001-09-04 22:00,ZGOW 042200Z AUTO 7SM 24/24 A2971 RMK T02400240 IEM_DS3505
ZGOW,2001-09-05 00:00,ZGOW 050000Z AUTO 04004KT 6SM 25/24 RMK 60031 SLP077 T02500243 52012 IEM_DS3505
ZGOW,2001-09-05 01:00,ZGOW 050100Z AUTO 35002KT 2 1/2SM 26/25 A2977 RMK T02600250 IEM_DS3505
ZGOW,2001-09-05 02:00,ZGOW 050200Z AUTO 35002KT 3SM 26/25 A2977 RMK T02600250 IEM_DS3505
ZGOW,2001-09-05 03:00,ZGOW 050300Z AUTO 09002KT 8SM 27/25 A2977 RMK SLP080 T02740247 52003 IEM_DS3505
ZGOW,2001-09-05 04:00,ZGOW 050400Z AUTO 16002KT 4SM 28/24 A2974 RMK T02800240 IEM_DS3505
ZGOW,2001-09-05 05:00,ZGOW 050500Z AUTO 10004KT 5SM 29/25 A2971 RMK T02900250 IEM_DS3505
ZGOW,2001-09-05 06:00,ZGOW 050600Z AUTO 20006KT 8SM 28/25 A2971 RMK 60000 SLP058 T02810253 57022 IEM_DS3505
ZGOW,2001-09-05 07:00,ZGOW 050700Z AUTO 13006KT 7SM 28/25 A2968 RMK T02800250 IEM_DS3505
ZGOW,2001-09-05 08:00,ZGOW 050800Z AUTO 16006KT 5SM 27/25 A2968 RMK T02700250 IEM_DS3505
ZGOW,2001-09-05 09:00,ZGOW 050900Z AUTO 22004KT 7SM 26/25 A2968 RMK SLP054 T02610250 57004 IEM_DS3505
ZGOW,2001-09-05 10:00,ZGOW 051000Z AUTO 7SM 26/25 A2971 RMK T02600250 IEM_DS3505
ZGOW,2001-09-05 11:00,ZGOW 051100Z AUTO 23004KT 7SM 26/25 A2971 RMK T02600250 IEM_DS3505
ZGOW,2001-09-05 12:00,ZGOW 051200Z AUTO 27004KT 7SM 26/25 A2971 RMK 60031 SLP063 T02600249 52009 IEM_DS3505
ZGOW,2001-09-05 13:00,ZGOW 051300Z AUTO 36002KT 4SM 26/25 A2974 RMK T02600250 IEM_DS3505
ZGOW,2001-09-05 14:00,ZGOW 051400Z AUTO 33002KT 4SM 26/25 A2974 RMK T02600250 IEM_DS3505
ZGOW,2001-09-05 15:00,ZGOW 051500Z AUTO 29004KT 6SM 26/24 A2974 RMK SLP068 T02560245 52005 IEM_DS3505
ZGOW,2001-09-05 16:00,ZGOW 051600Z AUTO 31002KT 6SM 25/25 A2974 RMK T02500250 IEM_DS3505
ZGOW,2001-09-05 17:00,ZGOW 051700Z AUTO 4SM 25/24 A2974 RMK T02500240 IEM_DS3505
ZGOW,2001-09-05 18:00,ZGOW 051800Z AUTO 00000KT 6SM 25/24 A2971 RMK 60000 SLP067 T02540245 57001 IEM_DS3505
ZGOW,2001-09-05 19:00,ZGOW 051900Z AUTO 26002KT 2SM 25/25 A2971 RMK T02500250 IEM_DS3505
ZGOW,2001-09-05 20:00,ZGOW 052000Z AUTO 32002KT 3SM 25/25 A2971 RMK T02500250 IEM_DS3505
ZGOW,2001-09-05 21:00,ZGOW 052100Z AUTO 00000KT 5SM 25/24 A2971 RMK 70040 SLP061 T02510245 57006 IEM_DS3505
ZGOW,2001-09-05 22:00,ZGOW 052200Z AUTO 2SM 25/25 A2971 RMK T02500250 IEM_DS3505
ZGOW,2001-09-05 23:00,ZGOW 052300Z AUTO 1 1/2SM 26/25 A2971 RMK T02600250 IEM_DS3505
ZGOW,2001-09-06 00:00,ZGOW 060000Z AUTO 29004KT 7SM 26/25 A2974 RMK 60004 SLP070 T02620249 52009 IEM_DS3505
ZGOW,2001-09-06 01:00,ZGOW 060100Z AUTO 32004KT 3SM 27/25 A2974 RMK T02700250 IEM_DS3505
ZGOW,2001-09-06 02:00,ZGOW 060200Z AUTO 29004KT 7SM 28/25 A2974 RMK T02800250 IEM_DS3505
ZGOW,2001-09-06 03:00,ZGOW 060300Z AUTO 27006KT 9SM 28/24 A2974 RMK SLP074 T02830245 52004 IEM_DS3505
ZGOW,2001-09-06 04:00,ZGOW 060400Z AUTO 31006KT 7SM 30/25 A2971 RMK T03000250 IEM_DS3505
ZGOW,2001-09-06 05:00,ZGOW 060500Z AUTO 35004KT 7SM 31/26 A2971 RMK T03100260 IEM_DS3505
ZGOW,2001-09-06 06:00,ZGOW 060600Z AUTO 27006KT 11SM 31/24 A2968 RMK SLP050 T03110240 57024 IEM_DS3505
ZGOW,2001-09-06 07:00,ZGOW 060700Z AUTO 17008KT 7SM 30/25 A2968 RMK T03000250 IEM_DS3505
ZGOW,2001-09-06 08:00,ZGOW 060800Z AUTO 20010KT 7SM 30/25 A2968 RMK T03000250 IEM_DS3505
ZGOW,2001-09-06 09:00,ZGOW 060900Z AUTO 20006KT 10SM 29/25 RMK SLP048 T02930252 57002 IEM_DS3505
ZGOW,2001-09-06 10:00,ZGOW 061000Z AUTO 20006KT 7SM 29/25 A2968 RMK T02900250 IEM_DS3505
ZGOW,2001-09-06 11:00,ZGOW 061100Z AUTO 22002KT 7SM 28/25 A2971 RMK T02800250 IEM_DS3505
ZGOW,2001-09-06 12:00,ZGOW 061200Z AUTO 04008KT 9SM 28/25 A2977 RMK 60003 SLP080 T02840252 52032 IEM_DS3505
ZGOW,2001-09-06 13:00,ZGOW 061300Z AUTO 35004KT 7SM 25/24 A2977 RMK T02500240 IEM_DS3505
ZGOW,2001-09-06 14:00,ZGOW 061400Z AUTO 03006KT 6SM 25/24 A2977 RMK T02500240 IEM_DS3505
ZGOW,2001-09-06 15:00,ZGOW 061500Z AUTO 04004KT 6SM 25/24 A2977 RMK SLP080 T02530241 54000 IEM_DS3505
ZGOW,2001-09-06 16:00,ZGOW 061600Z AUTO 36002KT 6SM 26/25 A2977 RMK T02600250 IEM_DS3505
ZGOW,2001-09-06 17:00,ZGOW 061700Z AUTO 06008KT 6SM 26/25 A2974 RMK T02600250 IEM_DS3505
ZGOW,2001-09-06 18:00,ZGOW 061800Z AUTO 07008KT 7SM 26/24 A2974 RMK 60035 SLP076 T02570241 57004 IEM_DS3505
ZGOW,2001-09-06 19:00,ZGOW 061900Z AUTO 05004KT 6SM 25/24 A2974 RMK T02500240 IEM_DS3505
ZGOW,2001-09-06 20:00,ZGOW 062000Z AUTO 4SM 25/24 A2974 RMK T02500240 IEM_DS3505
ZGOW,2001-09-06 21:00,ZGOW 062100Z AUTO 04002KT 7SM 25/24 A2974 RMK 70033 SLP078 T02540241 52002 IEM_DS3505
ZGOW,2001-09-06 22:00,ZGOW 062200Z AUTO 4SM 25/24 A2977 RMK T02500240 IEM_DS3505
ZGOW,2001-09-06 23:00,ZGOW 062300Z AUTO 4SM 26/24 A2980 RMK T02600240 IEM_DS3505
ZGOW,2001-09-07 00:00,ZGOW 070000Z AUTO 07002KT 7SM 26/25 A2980 RMK 70033 SLP094 T02620248 52016 IEM_DS3505
ZGOW,2001-09-07 01:00,ZGOW 070100Z AUTO 05004KT 6SM 28/23 A2980 RMK T02800230 IEM_DS3505
ZGOW,2001-09-07 02:00,ZGOW 070200Z AUTO 05008KT 6SM 29/23 A2980 RMK T02900230 IEM_DS3505
ZGOW,2001-09-07 03:00,ZGOW 070300Z AUTO 07008KT 9SM 30/21 A2980 RMK SLP094 T03000208 54000 IEM_DS3505
ZGOW,2001-09-07 04:00,ZGOW 070400Z AUTO 09010KT 6SM 31/23 A2980 RMK T03100230 IEM_DS3505
ZGOW,2001-09-07 05:00,ZGOW 070500Z AUTO 08010KT 31/24 A2977 RMK T03100240 IEM_DS3505
ZGOW,2001-09-07 06:00,ZGOW 070600Z AUTO 07008KT 9SM 31/22 A2974 RMK SLP080 T03060221 57014 IEM_DS3505
ZGOW,2001-09-07 07:00,ZGOW 070700Z AUTO 13010KT 30/24 A2974 RMK T03000240 IEM_DS3505
ZGOW,2001-09-07 08:00,ZGOW 070800Z AUTO 10012KT 2 1/2SM 29/24 A2974 RMK T02900240 IEM_DS3505
ZGOW,2001-09-07 09:00,ZGOW 070900Z AUTO 11006KT 7SM 29/24 A2974 RMK SLP072 T02900238 57008 IEM_DS3505
ZGOW,2001-09-07 11:00,ZGOW 071100Z AUTO 11004KT 3SM 27/23 A2977 RMK T02700230 IEM_DS3505
ZGOW,2001-09-07 12:00,ZGOW 071200Z AUTO 09004KT 7SM 27/22 A2977 RMK SLP085 T02730225 52013 IEM_DS3505
ZGOW,2001-09-07 13:00,ZGOW 071300Z AUTO 10004KT 6SM 26/23 A2980 RMK T02600230 IEM_DS3505
ZGOW,2001-09-07 14:00,ZGOW 071400Z AUTO 10002KT 6SM 26/23 A2980 RMK T02600230 IEM_DS3505
ZGOW,2001-09-07 15:00,ZGOW 071500Z AUTO 07004KT 6SM 27/22 A2980 RMK SLP094 T02660222 52009 IEM_DS3505
ZGOW,2001-09-07 16:00,ZGOW 071600Z AUTO 6SM 26/22 A2980 RMK T02600220 IEM_DS3505
ZGOW,2001-09-07 17:00,ZGOW 071700Z AUTO 07004KT 5SM 25/23 A2977 RMK T02500230 IEM_DS3505
ZGOW,2001-09-07 18:00,ZGOW 071800Z AUTO 04004KT 5SM 25/23 A2977 RMK SLP081 T02520227 57013 IEM_DS3505
ZGOW,2001-09-07 19:00,ZGOW 071900Z AUTO 31002KT 4SM 25/23 A2977 RMK T02500230 IEM_DS3505
ZGOW,2001-09-07 20:00,ZGOW 072000Z AUTO 2 1/2SM 24/23 A2977 RMK T02400230 IEM_DS3505
ZGOW,2001-09-07 21:00,ZGOW 072100Z AUTO 07002KT 5SM 24/23 A2977 RMK SLP075 T02410228 57006 IEM_DS3505
ZGOW,2001-09-07 22:00,ZGOW 072200Z AUTO 3SM 24/22 A2977 RMK T02400220 IEM_DS3505
ZGOW,2001-09-07 23:00,ZGOW 072300Z AUTO 1 1/2SM 25/23 A2977 RMK T02500230 IEM_DS3505
ZGOW,2001-09-08 00:00,ZGOW 080000Z AUTO 07004KT 4SM 26/23 A2980 RMK SLP087 T02600231 52012 IEM_DS3505
ZGOW,2001-09-08 01:00,ZGOW 080100Z AUTO 2 1/2SM 26/24 A2980 RMK T02600240 IEM_DS3505
ZGOW,2001-09-08 02:00,ZGOW 080200Z AUTO 02002KT 2 1/2SM 27/23 A2980 RMK T02700230 IEM_DS3505
ZGOW,2001-09-08 03:00,ZGOW 080300Z AUTO 07004KT 4SM 28/21 A2980 RMK SLP084 T02800211 57003 IEM_DS3505
ZGOW,2001-09-08 04:00,ZGOW 080400Z AUTO 08004KT 29/22 A2977 RMK T02900220 IEM_DS3505
ZGOW,2001-09-08 05:00,ZGOW 080500Z AUTO 07006KT 29/20 A2974 RMK T02900200 IEM_DS3505
ZGOW,2001-09-08 06:00,ZGOW 080600Z AUTO 11008KT 8SM 31/20 A2974 RMK SLP070 T03060203 57014 IEM_DS3505
ZGOW,2001-09-08 07:00,ZGOW 080700Z AUTO 14006KT 6SM 29/20 A2971 RMK T02900200 IEM_DS3505
ZGOW,2001-09-08 08:00,ZGOW 080800Z AUTO 12008KT 6SM 29/23 A2971 RMK T02900230 IEM_DS3505
ZGOW,2001-09-08 09:00,ZGOW 080900Z AUTO 11006KT 9SM 28/22 A2971 RMK SLP059 T02830218 57011 IEM_DS3505
ZGOW,2001-09-08 10:00,ZGOW 081000Z AUTO 12006KT 6SM 27/22 A2971 RMK T02700220 IEM_DS3505
ZGOW,2001-09-08 11:00,ZGOW 081100Z AUTO 13004KT 6SM 26/22 A2974 RMK T02600220 IEM_DS3505
ZGOW,2001-09-08 12:00,ZGOW 081200Z AUTO 07004KT 9SM 27/22 A2974 RMK SLP072 T02670220 52013 IEM_DS3505
ZGOW,2001-09-08 13:00,ZGOW 081300Z AUTO 15002KT 6SM 26/23 A2977 RMK T02600230 IEM_DS3505
ZGOW,2001-09-08 14:00,ZGOW 081400Z AUTO 10004KT 6SM 26/23 A2977 RMK T02600230 IEM_DS3505
ZGOW,2001-09-08 15:00,ZGOW 081500Z AUTO 14004KT 7SM 27/23 A2977 RMK SLP083 T02660230 52011 IEM_DS3505
ZGOW,2001-09-08 17:00,ZGOW 081700Z AUTO 4SM 26/23 A2977 RMK T02600230 IEM_DS3505
ZGOW,2001-09-08 18:00,ZGOW 081800Z AUTO 00000KT 6SM 26/24 A2977 RMK SLP078 T02650235 57005 IEM_DS3505
ZGOW,2001-09-08 19:00,ZGOW 081900Z AUTO 33002KT 2 1/2SM 26/24 A2974 RMK T02600240 IEM_DS3505
ZGOW,2001-09-08 20:00,ZGOW 082000Z AUTO 35002KT 2SM 26/24 A2974 RMK T02600240 IEM_DS3505
ZGOW,2001-09-08 21:00,ZGOW 082100Z AUTO 04004KT 5SM 26/23 A2974 RMK 70003 SLP073 T02590234 57005 IEM_DS3505
ZGOW,2001-09-08 22:00,ZGOW 082200Z AUTO 34002KT 2SM 25/24 A2977 RMK T02500240 IEM_DS3505
ZGOW,2001-09-08 23:00,ZGOW 082300Z AUTO 2SM 25/24 A2977 RMK T02500240 IEM_DS3505
ZGOW,2001-09-09 00:00,ZGOW 090000Z AUTO 04004KT 4SM 27/24 A2977 RMK 60003 SLP086 T02660239 52013 IEM_DS3505
ZGOW,2001-09-09 01:00,ZGOW 090100Z AUTO 33002KT 2 1/2SM 28/23 A2977 RMK T02800230 IEM_DS3505
ZGOW,2001-09-09 02:00,ZGOW 090200Z AUTO 33002KT 9SM 29/22 A2977 RMK T02900220 IEM_DS3505
ZGOW,2001-09-09 03:00,ZGOW 090300Z AUTO 11004KT 9SM 30/20 A2977 RMK SLP084 T03010204 57002 IEM_DS3505
ZGOW,2001-09-09 04:00,ZGOW 090400Z AUTO 10006KT 7SM 31/20 A2977 RMK T03100200 IEM_DS3505
ZGOW,2001-09-09 05:00,ZGOW 090500Z AUTO 13006KT 7SM 30/18 A2974 RMK T03000180 IEM_DS3505
ZGOW,2001-09-09 06:00,ZGOW 090600Z AUTO 16004KT 9SM 31/19 A2971 RMK SLP062 T03060189 57022 IEM_DS3505
ZGOW,2001-09-09 07:00,ZGOW 090700Z AUTO 14008KT 7SM 30/18 A2971 RMK T03000180 IEM_DS3505
ZGOW,2001-09-09 08:00,ZGOW 090800Z AUTO 14008KT 6SM 29/18 A2968 RMK T02900180 IEM_DS3505
ZGOW,2001-09-09 09:00,ZGOW 090900Z AUTO 18008KT 9SM 29/16 A2971 RMK SLP056 T02900163 57006 IEM_DS3505
ZGOW,2001-09-09 10:00,ZGOW 091000Z AUTO 15004KT 7SM 28/20 A2971 RMK T02800200 IEM_DS3505
ZGOW,2001-09-09 11:00,ZGOW 091100Z AUTO 16004KT 7SM 27/21 A2974 RMK T02700210 IEM_DS3505
ZGOW,2001-09-09 12:00,ZGOW 091200Z AUTO 20004KT 9SM 27/21 A2977 RMK SLP076 T02720209 52020 IEM_DS3505
ZGOW,2001-09-09 13:00,ZGOW 091300Z AUTO 18002KT 7SM 27/22 A2980 RMK T02700220 IEM_DS3505
ZGOW,2001-09-09 14:00,ZGOW 091400Z AUTO 20004KT 6SM 27/22 A2980 RMK T02700220 IEM_DS3505
ZGOW,2001-09-09 15:00,ZGOW 091500Z AUTO 16004KT 9SM 27/22 A2980 RMK SLP089 T02710218 52013 IEM_DS3505
ZGOW,2001-09-09 16:00,ZGOW 091600Z AUTO 6SM 26/22 A2980 RMK T02600220 IEM_DS3505
ZGOW,2001-09-09 18:00,ZGOW 091800Z AUTO 07004KT 7SM 26/22 A2977 RMK SLP083 T02560225 57006 IEM_DS3505
ZGOW,2001-09-09 19:00,ZGOW 091900Z AUTO 31002KT 2 1/2SM 24/23 A2977 RMK T02400230 IEM_DS3505
ZGOW,2001-09-09 20:00,ZGOW 092000Z AUTO 32004KT 3SM 24/22 A2974 RMK T02400220 IEM_DS3505
ZGOW,2001-09-09 21:00,ZGOW 092100Z AUTO 07002KT 7SM 24/22 A2977 RMK SLP079 T02410216 57004 IEM_DS3505
ZGOW,2001-09-09 22:00,ZGOW 092200Z AUTO 31004KT 4SM 23/21 A2977 RMK T02300210 IEM_DS3505
ZGOW,2001-09-09 23:00,ZGOW 092300Z AUTO 32004KT 3SM 24/21 A2980 RMK T02400210 IEM_DS3505
ZGOW,2001-09-10 00:00,ZGOW 100000Z AUTO 07004KT 7SM 26/21 A2980 RMK SLP095 T02580213 52016 IEM_DS3505
ZGOW,2001-09-10 01:00,ZGOW 100100Z AUTO 31008KT 6SM 26/21 A2980 RMK T02600210 IEM_DS3505
ZGOW,2001-09-10 02:00,ZGOW 100200Z AUTO 32006KT 6SM 28/22 A2980 RMK T02800220 IEM_DS3505
ZGOW,2001-09-10 03:00,ZGOW 100300Z AUTO 29006KT 6SM 30/20 A2980 RMK SLP093 T02970202 57002 IEM_DS3505
ZGOW,2001-09-10 04:00,ZGOW 100400Z AUTO 04002KT 6SM 31/19 A2980 RMK T03100190 IEM_DS3505
ZGOW,2001-09-10 05:00,ZGOW 100500Z AUTO 08004KT 6SM 31/21 A2977 RMK T03100210 IEM_DS3505
ZGOW,2001-09-10 06:00,ZGOW 100600Z AUTO 25006KT 9SM 32/19 A2977 RMK SLP079 T03150191 57014 IEM_DS3505
ZGOW,2001-09-10 07:00,ZGOW 100700Z AUTO 14008KT 6SM 31/19 A2977 RMK T03100190 IEM_DS3505
ZGOW,2001-09-10 08:00,ZGOW 100800Z AUTO 13006KT 6SM 30/18 A2974 RMK T03000180 IEM_DS3505
ZGOW,2001-09-10 09:00,ZGOW 100900Z AUTO 20010KT 7SM 30/18 A2974 RMK SLP075 T03000183 57004 IEM_DS3505
ZGOW,2001-09-10 10:00,ZGOW 101000Z AUTO 17006KT 6SM 28/20 A2977 RMK T02800200 IEM_DS3505
ZGOW,2001-09-10 11:00,ZGOW 101100Z AUTO 19004KT 6SM 28/21 A2977 RMK T02800210 IEM_DS3505
ZGOW,2001-09-10 12:00,ZGOW 101200Z AUTO 22004KT 9SM 27/21 A2980 RMK SLP087 T02710208 52012 IEM_DS3505
ZGOW,2001-09-10 13:00,ZGOW 101300Z AUTO 20002KT 6SM 27/22 A2980 RMK T02700220 IEM_DS3505
ZGOW,2001-09-10 14:00,ZGOW 101400Z AUTO 17002KT 6SM 26/22 A2980 RMK T02600220 IEM_DS3505
ZGOW,2001-09-10 15:00,ZGOW 101500Z AUTO 00000KT 7SM 26/22 A2980 RMK SLP094 T02560220 52007 IEM_DS3505
ZGOW,2001-09-10 18:00,ZGOW 101800Z AUTO 27002KT 7SM 25/23 RMK SLP085 T02540226 57009 IEM_DS3505
ZGOW,2001-09-10 19:00,ZGOW 101900Z AUTO 32004KT 2SM 24/23 A2977 RMK T02400230 IEM_DS3505
ZGOW,2001-09-10 20:00,ZGOW 102000Z AUTO 32004KT 6SM 24/21 A2977 RMK T02400210 IEM_DS3505
ZGOW,2001-09-10 21:00,ZGOW 102100Z AUTO 04004KT 5SM 24/21 A2980 RMK SLP085 T02440208 54000 IEM_DS3505
ZGOW,2001-09-10 23:00,ZGOW 102300Z AUTO 30002KT 3SM 24/21 A2983 RMK T02400210 IEM_DS3505
ZGOW,2001-09-11 00:00,ZGOW 110000Z AUTO 02004KT 6SM 27/21 A2983 RMK SLP098 T02700207 52013 IEM_DS3505
ZGOW,2001-09-11 01:00,ZGOW 110100Z AUTO 01002KT 2 1/2SM 28/22 A2983 RMK T02800220 IEM_DS3505
ZGOW,2001-09-11 02:00,ZGOW 110200Z AUTO 07004KT 9SM 29/22 A2983 RMK T02900220 IEM_DS3505
ZGOW,2001-09-11 03:00,ZGOW 110300Z AUTO 20004KT 9SM 30/20 A2983 RMK SLP098 T03050200 54000 IEM_DS3505
ZGOW,2001-09-11 04:00,ZGOW 110400Z AUTO 13006KT 6SM 30/20 A2980 RMK T03000200 IEM_DS3505
ZGOW,2001-09-11 05:00,ZGOW 110500Z AUTO 13006KT 6SM 30/22 A2980 RMK T03000220 IEM_DS3505
ZGOW,2001-09-11 06:00,ZGOW 110600Z AUTO 16006KT 9SM 31/22 A2977 RMK SLP079 T03110219 57019 IEM_DS3505
ZGOW,2001-09-11 07:00,ZGOW 110700Z AUTO 13008KT 6SM 30/22 A2977 RMK T03000220 IEM_DS3505
ZGOW,2001-09-11 08:00,ZGOW 110800Z AUTO 14008KT 6SM 29/22 A2974 RMK T02900220 IEM_DS3505
ZGOW,2001-09-11 09:00,ZGOW 110900Z AUTO 16006KT 8SM 29/22 A2977 RMK SLP076 T02920223 57003 IEM_DS3505
ZGOW,2001-09-11 10:00,ZGOW 111000Z AUTO 16006KT 6SM 28/23 A2977 RMK T02800230 IEM_DS3505
ZGOW,2001-09-11 11:00,ZGOW 111100Z AUTO 15004KT 6SM 28/23 A2980 RMK T02800230 IEM_DS3505
ZGOW,2001-09-11 12:00,ZGOW 111200Z AUTO 16004KT 7SM 28/22 A2980 RMK SLP090 T02800215 52014 IEM_DS3505
ZGOW,2001-09-11 13:00,ZGOW 111300Z AUTO 10002KT 6SM 28/20 A2983 RMK T02800200 IEM_DS3505
ZGOW,2001-09-11 14:00,ZGOW 111400Z AUTO 6SM 27/21 A2983 RMK T02700210 IEM_DS3505
ZGOW,2001-09-11 15:00,ZGOW 111500Z AUTO 20004KT 7SM 26/22 A2983 RMK SLP099 T02650218 52009 IEM_DS3505
ZGOW,2001-09-11 16:00,ZGOW 111600Z AUTO 10002KT 5SM 27/23 A2983 RMK T02700230 IEM_DS3505
ZGOW,2001-09-11 17:00,ZGOW 111700Z AUTO 6SM 26/22 A2980 RMK T02600220 IEM_DS3505
ZGOW,2001-09-11 18:00,ZGOW 111800Z AUTO 00000KT 7SM 26/23 A2980 RMK SLP087 T02570228 57012 IEM_DS3505
ZGOW,2001-09-11 19:00,ZGOW 111900Z AUTO 35002KT 2SM 25/23 A2977 RMK T02500230 IEM_DS3505
ZGOW,2001-09-11 20:00,ZGOW 112000Z AUTO 32002KT 2SM 25/23 A2980 RMK T02500230 IEM_DS3505
ZGOW,2001-09-11 21:00,ZGOW 112100Z AUTO 02002KT 5SM 25/23 A2980 RMK SLP090 T02490230 52003 IEM_DS3505
ZGOW,2001-09-11 22:00,ZGOW 112200Z AUTO 01002KT 1 1/2SM 25/23 A2983 RMK T02500230 IEM_DS3505
ZGOW,2001-09-11 23:00,ZGOW 112300Z AUTO 31002KT 1 1/2SM 25/24 A2983 RMK T02500240 IEM_DS3505
ZGOW,2001-09-12 00:00,ZGOW 120000Z AUTO 04006KT 5SM 27/23 A2985 RMK SLP105 T02680230 52015 IEM_DS3505
ZGOW,2001-09-12 01:00,ZGOW 120100Z AUTO 06002KT 2 1/2SM 29/23 A2983 RMK T02900230 IEM_DS3505
ZGOW,2001-09-12 02:00,ZGOW 120200Z AUTO 36004KT 2 1/2SM 30/22 A2983 RMK T03000220 IEM_DS3505
ZGOW,2001-09-12 03:00,ZGOW 120300Z AUTO 04004KT 6SM 31/22 A2983 RMK SLP104 T03080219 57001 IEM_DS3505
ZGOW,2001-09-12 04:00,ZGOW 120400Z AUTO 07004KT 2 1/2SM 31/24 A2983 RMK T03100240 IEM_DS3505
ZGOW,2001-09-12 06:00,ZGOW 120600Z AUTO 11006KT 7SM 32/22 A2977 RMK SLP081 T03170218 57023 IEM_DS3505
ZGOW,2001-09-12 07:00,ZGOW 120700Z AUTO 13008KT 30/24 A2977 RMK T03000240 IEM_DS3505
ZGOW,2001-09-12 08:00,ZGOW 120800Z AUTO 16008KT 2 1/2SM 30/25 A2974 RMK T03000250 IEM_DS3505
ZGOW,2001-09-12 09:00,ZGOW 120900Z AUTO 22006KT 7SM 30/24 A2977 RMK SLP074 T03020236 57007 IEM_DS3505
ZGOW,2001-09-12 10:00,ZGOW 121000Z AUTO 14006KT 29/23 A2977 RMK T02900230 IEM_DS3505
ZGOW,2001-09-12 11:00,ZGOW 121100Z AUTO 16006KT 4SM 28/23 A2977 RMK T02800230 IEM_DS3505
ZGOW,2001-09-12 12:00,ZGOW 121200Z AUTO 16004KT 7SM 28/22 A2980 RMK SLP089 T02810225 52015 IEM_DS3505
ZGOW,2001-09-12 13:00,ZGOW 121300Z AUTO 2 1/2SM 28/24 A2980 RMK T02800240 IEM_DS3505
ZGOW,2001-09-12 14:00,ZGOW 121400Z AUTO 11002KT 2 1/2SM 28/25 A2983 RMK T02800250 IEM_DS3505
ZGOW,2001-09-12 15:00,ZGOW 121500Z AUTO 18002KT 6SM 28/24 A2980 RMK SLP094 T02810238 52005 IEM_DS3505
ZGOW,2001-09-12 16:00,ZGOW 121600Z AUTO 10004KT 5SM 27/23 A2980 RMK T02700230 IEM_DS3505
ZGOW,2001-09-12 17:00,ZGOW 121700Z AUTO 12002KT 6SM 27/22 A2980 RMK T02700220 IEM_DS3505
ZGOW,2001-09-12 18:00,ZGOW 121800Z AUTO 14002KT 6SM 28/22 A2977 RMK SLP087 T02750225 57007 IEM_DS3505
ZGOW,2001-09-12 19:00,ZGOW 121900Z AUTO 10002KT 4SM 26/24 A2977 RMK T02600240 IEM_DS3505
ZGOW,2001-09-12 20:00,ZGOW 122000Z AUTO 04004KT 2SM 25/23 A2977 RMK T02500230 IEM_DS3505
ZGOW,2001-09-12 21:00,ZGOW 122100Z AUTO 04004KT 6SM 27/24 A2977 RMK SLP087 T02660237 54000 IEM_DS3505
ZGOW,2001-09-12 22:00,ZGOW 122200Z AUTO 05004KT 3SM 25/23 A2980 RMK T02500230 IEM_DS3505
ZGOW,2001-09-12 23:00,ZGOW 122300Z AUTO 04004KT 2 1/2SM 26/24 A2980 RMK T02600240 IEM_DS3505
ZGOW,2001-09-13 00:00,ZGOW 130000Z AUTO 04004KT 5SM 27/23 A2983 RMK SLP097 T02710229 52010 IEM_DS3505
ZGOW,2001-09-13 01:00,ZGOW 130100Z AUTO 05004KT 6SM 28/23 A2983 RMK T02800230 IEM_DS3505
ZGOW,2001-09-13 02:00,ZGOW 130200Z AUTO 09006KT 6SM 29/22 A2983 RMK T02900220 IEM_DS3505
ZGOW,2001-09-13 03:00,ZGOW 130300Z AUTO 34002KT 7SM 30/22 A2980 RMK SLP090 T03040216 57007 IEM_DS3505
ZGOW,2001-09-13 04:00,ZGOW 130400Z AUTO 07002KT 6SM 31/22 A2977 RMK T03100220 IEM_DS3505
ZGOW,2001-09-13 05:00,ZGOW 130500Z AUTO 14006KT 6SM 31/21 A2974 RMK T03100210 IEM_DS3505
ZGOW,2001-09-13 06:00,ZGOW 130600Z AUTO 14004KT 9SM 31/21 A2971 RMK SLP065 T03080214 57025 IEM_DS3505
ZGOW,2001-09-13 07:00,ZGOW 130700Z AUTO 15006KT 6SM 31/21 A2971 RMK T03100210 IEM_DS3505
ZGOW,2001-09-13 08:00,ZGOW 130800Z AUTO 16008KT 6SM 30/22 A2971 RMK T03000220 IEM_DS3505
ZGOW,2001-09-13 09:00,ZGOW 130900Z AUTO 20006KT 8SM 29/22 A2971 RMK SLP059 T02870223 57006 IEM_DS3505
ZGOW,2001-09-13 10:00,ZGOW 131000Z AUTO 16006KT 7SM 28/22 A2971 RMK T02800220 IEM_DS3505
ZGOW,2001-09-13 11:00,ZGOW 131100Z AUTO 17006KT 6SM 28/22 A2974 RMK T02800220 IEM_DS3505
ZGOW,2001-09-13 12:00,ZGOW 131200Z AUTO 20004KT 7SM 28/23 A2974 RMK SLP076 T02760231 52017 IEM_DS3505
ZGOW,2001-09-13 13:00,ZGOW 131300Z AUTO 17004KT 6SM 27/24 A2977 RMK T02700240 IEM_DS3505
ZGOW,2001-09-13 14:00,ZGOW 131400Z AUTO 6SM 27/24 A2977 RMK T02700240 IEM_DS3505
ZGOW,2001-09-13 15:00,ZGOW 131500Z AUTO 20006KT 6SM 27/24 RMK SLP087 T02710238 52011 IEM_DS3505
ZGOW,2001-09-13 18:00,ZGOW 131800Z AUTO 04008KT 6SM 25/23 RMK 60000 SLP081 T02490230 57006 IEM_DS3505
ZGOW,2001-09-13 21:00,ZGOW 132100Z AUTO 04004KT 6SM 25/24 A2977 RMK 70014 SLP080 T02520235 57001 IEM_DS3505
ZGOW,2001-09-13 22:00,ZGOW 132200Z AUTO 2 1/2SM 25/24 A2977 RMK T02500240 IEM_DS3505
ZGOW,2001-09-14 00:00,ZGOW 140000Z AUTO 04004KT 4SM 26/24 A2980 RMK 60043 SLP096 T02600243 52016 IEM_DS3505
ZGOW,2001-09-14 01:00,ZGOW 140100Z AUTO 08002KT 4SM 28/25 A2983 RMK T02800250 IEM_DS3505
ZGOW,2001-09-14 02:00,ZGOW 140200Z AUTO 10004KT 5SM 29/25 A2983 RMK T02900250 IEM_DS3505
ZGOW,2001-09-14 03:00,ZGOW 140300Z AUTO 16002KT 5SM 29/24 A2983 RMK SLP096 T02860240 54000 IEM_DS3505
ZGOW,2001-09-14 04:00,ZGOW 140400Z AUTO 10004KT 7SM 30/24 A2980 RMK T03000240 IEM_DS3505
ZGOW,2001-09-14 05:00,ZGOW 140500Z AUTO 14006KT 7SM 30/24 A2977 RMK T03000240 IEM_DS3505
ZGOW,2001-09-14 06:00,ZGOW 140600Z AUTO 16004KT 6SM 31/24 A2974 RMK SLP073 T03080238 57023 IEM_DS3505
ZGOW,2001-09-14 07:00,ZGOW 140700Z AUTO 16008KT 7SM 30/23 A2974 RMK T03000230 IEM_DS3505
ZGOW,2001-09-14 08:00,ZGOW 140800Z AUTO 15008KT 7SM 29/23 A2971 RMK T02900230 IEM_DS3505
ZGOW,2001-09-14 09:00,ZGOW 140900Z AUTO 20004KT 9SM 29/24 A2971 RMK SLP062 T02900237 57011 IEM_DS3505
ZGOW,2001-09-14 10:00,ZGOW 141000Z AUTO 15006KT 6SM 28/23 A2971 RMK T02800230 IEM_DS3505
ZGOW,2001-09-14 11:00,ZGOW 141100Z AUTO 15004KT 5SM 27/24 A2974 RMK T02700240 IEM_DS3505
ZGOW,2001-09-14 12:00,ZGOW 141200Z AUTO 11002KT 7SM 28/24 A2974 RMK SLP072 T02770241 52010 IEM_DS3505
ZGOW,2001-09-14 13:00,ZGOW 141300Z AUTO 17004KT 5SM 27/24 A2977 RMK T02700240 IEM_DS3505
ZGOW,2001-09-14 14:00,ZGOW 141400Z AUTO 13002KT 5SM 27/24 A2977 RMK T02700240 IEM_DS3505
ZGOW,2001-09-14 15:00,ZGOW 141500Z AUTO 00000KT 5SM 27/24 A2977 RMK SLP083 T02710244 52011 IEM_DS3505
ZGOW,2001-09-14 16:00,ZGOW 141600Z AUTO 3SM 27/25 A2977 RMK T02700250 IEM_DS3505
ZGOW,2001-09-14 17:00,ZGOW 141700Z AUTO 29002KT 2SM 26/25 A2974 RMK T02600250 IEM_DS3505
ZGOW,2001-09-14 18:00,ZGOW 141800Z AUTO 29006KT 5SM 26/25 A2974 RMK SLP073 T02640251 57010 IEM_DS3505
ZGOW,2001-09-14 19:00,ZGOW 141900Z AUTO 33002KT 1 1/2SM 26/24 A2974 RMK T02600240 IEM_DS3505
ZGOW,2001-09-14 20:00,ZGOW 142000Z AUTO 32004KT 1 1/2SM 25/24 A2974 RMK T02500240 IEM_DS3505
ZGOW,2001-09-14 21:00,ZGOW 142100Z AUTO 00000KT 4SM 25/24 A2974 RMK 70028 SLP069 T02470240 57004 IEM_DS3505
ZGOW,2001-09-14 22:00,ZGOW 142200Z AUTO 1 1/2SM 25/24 A2974 RMK T02500240 IEM_DS3505
ZGOW,2001-09-14 23:00,ZGOW 142300Z AUTO 29002KT 1 1/4SM 25/24 A2974 RMK T02500240 IEM_DS3505
ZGOW,2001-09-15 00:00,ZGOW 150000Z AUTO 29004KT 5SM 27/24 A2977 RMK SLP083 T02680242 52014 IEM_DS3505
ZGOW,2001-09-15 01:00,ZGOW 150100Z AUTO 32006KT 4SM 28/23 A2977 RMK T02800230 IEM_DS3505
ZGOW,2001-09-15 02:00,ZGOW 150200Z AUTO 34008KT 7SM 29/21 A2977 RMK T02900210 IEM_DS3505
ZGOW,2001-09-15 03:00,ZGOW 150300Z AUTO 02004KT 7SM 31/22 A2977 RMK SLP081 T03140222 57002 IEM_DS3505
ZGOW,2001-09-15 04:00,ZGOW 150400Z AUTO 35004KT 6SM 32/21 A2974 RMK T03200210 IEM_DS3505
ZGOW,2001-09-15 05:00,ZGOW 150500Z AUTO 08004KT 6SM 32/24 A2974 RMK T03200240 IEM_DS3505
ZGOW,2001-09-15 06:00,ZGOW 150600Z AUTO 11004KT 9SM 33/22 A2971 RMK SLP062 T03270218 57019 IEM_DS3505
ZGOW,2001-09-15 07:00,ZGOW 150700Z AUTO 12006KT 6SM 31/23 A2968 RMK T03100230 IEM_DS3505
ZGOW,2001-09-15 08:00,ZGOW 150800Z AUTO 12008KT 6SM 30/25 A2968 RMK T03000250 IEM_DS3505
ZGOW,2001-09-15 09:00,ZGOW 150900Z AUTO 11006KT 7SM 30/24 A2971 RMK SLP058 T03050238 57004 IEM_DS3505
ZGOW,2001-09-15 10:00,ZGOW 151000Z AUTO 13006KT 3SM 29/25 A2971 RMK T02900250 IEM_DS3505
ZGOW,2001-09-15 11:00,ZGOW 151100Z AUTO 12004KT 3SM 28/25 A2971 RMK T02800250 IEM_DS3505
ZGOW,2001-09-15 12:00,ZGOW 151200Z AUTO 11002KT 6SM 28/25 A2974 RMK SLP072 T02840250 52014 IEM_DS3505
ZGOW,2001-09-15 13:00,ZGOW 151300Z AUTO 2SM 27/26 A2974 RMK T02700260 IEM_DS3505
ZGOW,2001-09-15 14:00,ZGOW 151400Z AUTO 2SM 28/25 A2977 RMK T02800250 IEM_DS3505
ZGOW,2001-09-15 15:00,ZGOW 151500Z AUTO 00000KT 5SM 27/25 A2977 RMK SLP075 T02710253 52003 IEM_DS3505
ZGOW,2001-09-15 16:00,ZGOW 151600Z AUTO 2SM 27/26 A2977 RMK T02700260 IEM_DS3505
ZGOW,2001-09-15 17:00,ZGOW 151700Z AUTO 35002KT 1SM 27/26 A2977 RMK T02700260 IEM_DS3505
ZGOW,2001-09-15 18:00,ZGOW 151800Z AUTO 36002KT 4SM 27/26 A2974 RMK SLP076 T02710256 52001 IEM_DS3505
ZGOW,2001-09-15 19:00,ZGOW 151900Z AUTO 31002KT 2 1/2SM 26/24 A2974 RMK T02600240 IEM_DS3505
ZGOW,2001-09-15 20:00,ZGOW 152000Z AUTO 32004KT 1 1/4SM 26/25 A2974 RMK T02600250 IEM_DS3505
ZGOW,2001-09-15 21:00,ZGOW 152100Z AUTO 04004KT 4SM 26/24 A2974 RMK SLP075 T02620243 57001 IEM_DS3505
ZGOW,2001-09-15 22:00,ZGOW 152200Z AUTO 34002KT 2SM 25/23 A2977 RMK T02500230 IEM_DS3505
ZGOW,2001-09-15 23:00,ZGOW 152300Z AUTO 32004KT 2SM 25/24 A2977 RMK T02500240 IEM_DS3505
ZGOW,2001-09-16 00:00,ZGOW 160000Z AUTO 02004KT 6SM 28/23 A2980 RMK SLP090 T02750233 52015 IEM_DS3505
ZGOW,2001-09-16 01:00,ZGOW 160100Z AUTO 32008KT 2 1/2SM 28/23 A2980 RMK T02800230 IEM_DS3505
ZGOW,2001-09-16 02:00,ZGOW 160200Z AUTO 29006KT 6SM 30/24 A2980 RMK T03000240 IEM_DS3505
ZGOW,2001-09-16 03:00,ZGOW 160300Z AUTO 07004KT 6SM 31/23 A2977 RMK SLP086 T03140226 57004 IEM_DS3505
ZGOW,2001-09-16 04:00,ZGOW 160400Z AUTO 29004KT 5SM 32/21 A2977 RMK T03200210 IEM_DS3505
ZGOW,2001-09-16 05:00,ZGOW 160500Z AUTO 30004KT 6SM 33/21 A2971 RMK T03300210 IEM_DS3505
ZGOW,2001-09-16 06:00,ZGOW 160600Z AUTO 27008KT 7SM 33/23 A2971 RMK SLP062 T03290228 57024 IEM_DS3505
ZGOW,2001-09-16 07:00,ZGOW 160700Z AUTO 17008KT 32/23 A2968 RMK T03200230 IEM_DS3505
ZGOW,2001-09-16 08:00,ZGOW 160800Z AUTO 16010KT 31/23 A2968 RMK T03100230 IEM_DS3505
ZGOW,2001-09-16 09:00,ZGOW 160900Z AUTO 16008KT 6SM 31/23 A2968 RMK SLP051 T03100229 57011 IEM_DS3505
ZGOW,2001-09-16 10:00,ZGOW 161000Z AUTO 17008KT 30/23 A2968 RMK T03000230 IEM_DS3505
ZGOW,2001-09-16 11:00,ZGOW 161100Z AUTO 11004KT 4SM 29/24 A2971 RMK T02900240 IEM_DS3505
ZGOW,2001-09-16 12:00,ZGOW 161200Z AUTO 18004KT 5SM 29/24 A2971 RMK 60003 SLP064 T02940237 52013 IEM_DS3505
ZGOW,2001-09-16 13:00,ZGOW 161300Z AUTO 18008KT 4SM 29/25 A2974 RMK T02900250 IEM_DS3505
ZGOW,2001-09-16 14:00,ZGOW 161400Z AUTO 14004KT 3SM 28/25 A2974 RMK T02800250 IEM_DS3505
ZGOW,2001-09-16 15:00,ZGOW 161500Z AUTO 07010KT 5SM 29/25 A2977 RMK SLP076 T02880248 52012 IEM_DS3505
ZGOW,2001-09-16 16:00,ZGOW 161600Z AUTO 17006KT 6SM 24/23 A2974 RMK T02400230 IEM_DS3505
ZGOW,2001-09-16 17:00,ZGOW 161700Z AUTO 6SM 24/23 A2974 RMK T02400230 IEM_DS3505
ZGOW,2001-09-16 18:00,ZGOW 161800Z AUTO 04004KT 6SM 25/24 A2974 RMK 60118 SLP065 T02520238 57011 IEM_DS3505
ZGOW,2001-09-16 19:00,ZGOW 161900Z AUTO 30002KT 4SM 25/24 A2971 RMK T02500240 IEM_DS3505
ZGOW,2001-09-16 20:00,ZGOW 162000Z AUTO 33002KT 5SM 25/24 A2971 RMK T02500240 IEM_DS3505
ZGOW,2001-09-16 21:00,ZGOW 162100Z AUTO 04002KT 6SM 25/24 A2971 RMK 70131 SLP062 T02510241 57003 IEM_DS3505
ZGOW,2001-09-16 22:00,ZGOW 162200Z AUTO 2 1/2SM 25/25 A2971 RMK T02500250 IEM_DS3505
ZGOW,2001-09-16 23:00,ZGOW 162300Z AUTO 2SM 25/25 A2971 RMK T02500250 IEM_DS3505
ZGOW,2001-09-17 00:00,ZGOW 170000Z AUTO 00000KT 4SM 27/25 A2974 RMK 60012 SLP069 T02700246 52007 IEM_DS3505
ZGOW,2001-09-17 01:00,ZGOW 170100Z AUTO 35004KT 2 1/2SM 28/25 A2974 RMK T02800250 IEM_DS3505
ZGOW,2001-09-17 02:00,ZGOW 170200Z AUTO 32006KT 3SM 30/26 A2974 RMK T03000260 IEM_DS3505
ZGOW,2001-09-17 03:00,ZGOW 170300Z AUTO 27006KT 6SM 32/25 A2971 RMK SLP064 T03170251 57005 IEM_DS3505
ZGOW,2001-09-17 04:00,ZGOW 170400Z AUTO 11004KT 6SM 33/25 A2971 RMK T03300250 IEM_DS3505
ZGOW,2001-09-17 05:00,ZGOW 170500Z AUTO 14006KT 6SM 32/25 A2968 RMK T03200250 IEM_DS3505
ZGOW,2001-09-17 06:00,ZGOW 170600Z AUTO 20004KT 7SM 33/24 A2965 RMK SLP044 T03330238 57020 IEM_DS3505
ZGOW,2001-09-17 07:00,ZGOW 170700Z AUTO 14008KT 6SM 32/23 A2965 RMK T03200230 IEM_DS3505
ZGOW,2001-09-17 08:00,ZGOW 170800Z AUTO 13008KT 6SM 31/22 A2965 RMK T03100220 IEM_DS3505
ZGOW,2001-09-17 09:00,ZGOW 170900Z AUTO 16006KT 11SM 31/23 A2965 RMK SLP037 T03140226 57007 IEM_DS3505
ZGOW,2001-09-17 10:00,ZGOW 171000Z AUTO 14006KT 6SM 30/24 A2965 RMK T03000240 IEM_DS3505
ZGOW,2001-09-17 11:00,ZGOW 171100Z AUTO 11006KT 6SM 29/25 A2968 RMK T02900250 IEM_DS3505
ZGOW,2001-09-17 12:00,ZGOW 171200Z AUTO 16004KT 8SM 29/25 A2971 RMK SLP063 T02940249 52026 IEM_DS3505
ZGOW,2001-09-17 13:00,ZGOW 171300Z AUTO 08004KT 6SM 28/24 A2974 RMK T02800240 IEM_DS3505
ZGOW,2001-09-17 14:00,ZGOW 171400Z AUTO 13004KT 6SM 28/24 A2974 RMK T02800240 IEM_DS3505
ZGOW,2001-09-17 15:00,ZGOW 171500Z AUTO 18002KT 6SM 28/24 A2974 RMK SLP073 T02770240 52010 IEM_DS3505
ZGOW,2001-09-17 16:00,ZGOW 171600Z AUTO 6SM 27/24 A2974 RMK T02700240 IEM_DS3505
ZGOW,2001-09-17 17:00,ZGOW 171700Z AUTO 13002KT 6SM 27/25 A2971 RMK T02700250 IEM_DS3505
ZGOW,2001-09-17 18:00,ZGOW 171800Z AUTO 11002KT 6SM 28/24 A2971 RMK 60004 SLP064 T02800240 57009 IEM_DS3505
ZGOW,2001-09-17 19:00,ZGOW 171900Z AUTO 09006KT 6SM 26/25 A2971 RMK T02600250 IEM_DS3505
ZGOW,2001-09-17 20:00,ZGOW 172000Z AUTO 10002KT 6SM 26/24 A2968 RMK T02600240 IEM_DS3505
ZGOW,2001-09-17 21:00,ZGOW 172100Z AUTO 14002KT 6SM 27/25 A2971 RMK 70004 SLP059 T02680248 57005 IEM_DS3505
ZGOW,2001-09-17 22:00,ZGOW 172200Z AUTO 7SM 26/24 A2971 RMK T02600240 IEM_DS3505
ZGOW,2001-09-17 23:00,ZGOW 172300Z AUTO 7SM 27/24 A2974 RMK T02700240 IEM_DS3505
ZGOW,2001-09-18 00:00,ZGOW 180000Z AUTO 36002KT 11SM 27/25 A2974 RMK 70004 SLP076 T02740246 52017 IEM_DS3505
ZGOW,2001-09-18 01:00,ZGOW 180100Z AUTO 32002KT 6SM 28/25 A2974 RMK T02800250 IEM_DS3505
ZGOW,2001-09-18 02:00,ZGOW 180200Z AUTO 33002KT 3SM 29/25 A2974 RMK T02900250 IEM_DS3505
ZGOW,2001-09-18 03:00,ZGOW 180300Z AUTO 29004KT 11SM 30/25 A2974 RMK SLP075 T03040249 57001 IEM_DS3505
ZGOW,2001-09-18 04:00,ZGOW 180400Z AUTO 22004KT 4SM 31/26 A2974 RMK T03100260 IEM_DS3505
ZGOW,2001-09-18 05:00,ZGOW 180500Z AUTO 17006KT 6SM 31/26 A2971 RMK T03100260 IEM_DS3505
ZGOW,2001-09-18 06:00,ZGOW 180600Z AUTO 04004KT 7SM 34/24 A2968 RMK SLP046 T03380236 57029 IEM_DS3505
ZGOW,2001-09-18 07:00,ZGOW 180700Z AUTO 13008KT 6SM 32/26 A2965 RMK T03200260 IEM_DS3505
ZGOW,2001-09-18 08:00,ZGOW 180800Z AUTO 12008KT 6SM 31/27 A2965 RMK T03100270 IEM_DS3505
ZGOW,2001-09-18 09:00,ZGOW 180900Z AUTO 16004KT 7SM 31/25 A2965 RMK SLP039 T03130250 57007 IEM_DS3505
ZGOW,2001-09-18 10:00,ZGOW 181000Z AUTO 12006KT 6SM 29/25 A2965 RMK T02900250 IEM_DS3505
ZGOW,2001-09-18 11:00,ZGOW 181100Z AUTO 14004KT 6SM 29/25 A2968 RMK T02900250 IEM_DS3505
ZGOW,2001-09-18 12:00,ZGOW 181200Z AUTO 16002KT 7SM 29/25 A2968 RMK SLP051 T02890249 52012 IEM_DS3505
ZGOW,2001-09-18 13:00,ZGOW 181300Z AUTO 10002KT 6SM 28/25 A2971 RMK T02800250 IEM_DS3505
ZGOW,2001-09-18 14:00,ZGOW 181400Z AUTO 09006KT 6SM 28/26 A2971 RMK T02800260 IEM_DS3505
ZGOW,2001-09-18 15:00,ZGOW 181500Z AUTO 11004KT 6SM 29/25 A2971 RMK SLP062 T02870253 52011 IEM_DS3505
ZGOW,2001-09-18 16:00,ZGOW 181600Z AUTO 07008KT 6SM 26/24 A2968 RMK T02600240 IEM_DS3505
ZGOW,2001-09-18 17:00,ZGOW 181700Z AUTO 06010KT 6SM 27/25 A2968 RMK T02700250 IEM_DS3505
ZGOW,2001-09-18 18:00,ZGOW 181800Z AUTO 07006KT 7SM 27/24 A2968 RMK 60000 SLP054 T02690243 57008 IEM_DS3505
ZGOW,2001-09-18 19:00,ZGOW 181900Z AUTO 6SM 26/24 A2968 RMK T02600240 IEM_DS3505
ZGOW,2001-09-18 20:00,ZGOW 182000Z AUTO 35002KT 6SM 26/24 A2968 RMK T02600240 IEM_DS3505
ZGOW,2001-09-18 21:00,ZGOW 182100Z AUTO 00000KT 6SM 26/24 A2968 RMK 70009 SLP050 T02630244 57004 IEM_DS3505
ZGOW,2001-09-18 22:00,ZGOW 182200Z AUTO 28004KT 4SM 26/25 A2968 RMK T02600250 IEM_DS3505
ZGOW,2001-09-18 23:00,ZGOW 182300Z AUTO 32004KT 4SM 26/25 A2971 RMK T02600250 IEM_DS3505
ZGOW,2001-09-19 00:00,ZGOW 190000Z AUTO 29004KT 6SM 27/25 A2971 RMK 60008 SLP060 T02740246 52010 IEM_DS3505
ZGOW,2001-09-19 01:00,ZGOW 190100Z AUTO 31008KT 2 1/2SM 29/26 A2971 RMK T02900260 IEM_DS3505
ZGOW,2001-09-19 02:00,ZGOW 190200Z AUTO 32010KT 3SM 30/25 A2971 RMK T03000250 IEM_DS3505
ZGOW,2001-09-19 03:00,ZGOW 190300Z AUTO 29004KT 7SM 32/23 A2968 RMK SLP055 T03220227 57005 IEM_DS3505
ZGOW,2001-09-19 04:00,ZGOW 190400Z AUTO 29008KT 6SM 32/23 A2968 RMK T03200230 IEM_DS3505
ZGOW,2001-09-19 05:00,ZGOW 190500Z AUTO 32008KT 7SM 33/23 A2965 RMK T03300230 IEM_DS3505
ZGOW,2001-09-19 06:00,ZGOW 190600Z AUTO 34006KT 14SM 35/22 A2962 RMK SLP037 T03460222 57018 IEM_DS3505
ZGOW,2001-09-19 07:00,ZGOW 190700Z AUTO 35008G17KT 3SM 28/24 A2962 RMK T02800240 IEM_DS3505
ZGOW,2001-09-19 08:00,ZGOW 190800Z AUTO 23004KT 7SM 29/25 A2962 RMK T02900250 IEM_DS3505
ZGOW,2001-09-19 09:00,ZGOW 190900Z AUTO 11008KT 11SM 30/24 A2962 RMK SLP039 T02950238 52002 IEM_DS3505
ZGOW,2001-09-19 10:00,ZGOW 191000Z AUTO 07012KT 6SM 27/24 A2965 RMK T02700240 IEM_DS3505
ZGOW,2001-09-19 11:00,ZGOW 191100Z AUTO 07012KT 7SM 27/23 A2965 RMK T02700230 IEM_DS3505
ZGOW,2001-09-19 12:00,ZGOW 191200Z AUTO 07006KT 9SM 28/23 A2968 RMK 60001 SLP052 T02760228 52013 IEM_DS3505
ZGOW,2001-09-19 13:00,ZGOW 191300Z AUTO 06006KT 7SM 26/24 A2971 RMK T02600240 IEM_DS3505
ZGOW,2001-09-19 14:00,ZGOW 191400Z AUTO 04010KT 6SM 25/24 A2971 RMK T02500240 IEM_DS3505
ZGOW,2001-09-19 15:00,ZGOW 191500Z AUTO 04004KT 7SM 26/24 A2968 RMK SLP057 T02580236 52005 IEM_DS3505
ZGOW,2001-09-19 16:00,ZGOW 191600Z AUTO 33006KT 6SM 26/23 A2968 RMK T02600230 IEM_DS3505
ZGOW,2001-09-19 17:00,ZGOW 191700Z AUTO 34006KT 6SM 26/23 A2968 RMK T02600230 IEM_DS3505
ZGOW,2001-09-19 18:00,ZGOW 191800Z AUTO 02006KT 9SM 27/23 A2968 RMK 60004 SLP050 T02660230 57007 IEM_DS3505
ZGOW,2001-09-19 19:00,ZGOW 191900Z AUTO 34008KT 6SM 26/24 A2965 RMK T02600240 IEM_DS3505
ZGOW,2001-09-19 20:00,ZGOW 192000Z AUTO 03008KT 6SM 24/23 A2965 RMK T02400230 IEM_DS3505
ZGOW,2001-09-19 21:00,ZGOW 192100Z AUTO 02006KT 6SM 24/23 A2965 RMK 70024 SLP039 T02450232 57011 IEM_DS3505
ZGOW,2001-09-19 22:00,ZGOW 192200Z AUTO 01017KT 4SM 24/23 A2962 RMK T02400230 IEM_DS3505
ZGOW,2001-09-19 23:00,ZGOW 192300Z AUTO 02023G35KT 7SM 24/23 A2959 RMK T02400230 IEM_DS3505
ZGOW,2001-09-20 00:00,ZGOW 200000Z AUTO 04019KT 3SM 24/23 A2953 RMK 60079 SLP002 T02440229 57037 IEM_DS3505
ZGOW,2001-09-20 01:00,ZGOW 200100Z AUTO 08035G56KT 1 1/2SM 25/24 A2953 RMK T02500240 IEM_DS3505
ZGOW,2001-09-20 02:00,ZGOW 200200Z AUTO 11014G39KT 7SM 25/24 RMK SLP018 T02530237 57001 IEM_DS3505
ZGOW,2001-09-20 03:00,ZGOW 200300Z AUTO 11014KT 7SM 26/24 A2968 RMK SLP037 T02560239 52035 IEM_DS3505
ZGOW,2001-09-20 04:00,ZGOW 200400Z AUTO 11012G29KT 6SM 25/24 A2968 RMK SLP051 T02530241 52059 IEM_DS3505
ZGOW,2001-09-20 05:00,ZGOW 200500Z AUTO 11010KT 7SM 27/26 A2971 RMK SLP058 T02660255 52040 IEM_DS3505
ZGOW,2001-09-20 06:00,ZGOW 200600Z AUTO 16010KT 8SM 27/24 A2971 RMK 60071 SLP064 T02710242 4////0237 52027 IEM_DS3505
ZGOW,2001-09-20 07:00,ZGOW 200700Z AUTO 14010KT 7SM 27/24 A2971 RMK SLP064 T02690245 52013 IEM_DS3505
ZGOW,2001-09-20 08:00,ZGOW 200800Z AUTO 11008KT 7SM 27/24 A2974 RMK SLP065 T02710245 52007 IEM_DS3505
ZGOW,2001-09-20 09:00,ZGOW 200900Z AUTO 11006KT 7SM 27/24 A2974 RMK SLP072 T02660240 52008 IEM_DS3505
ZGOW,2001-09-20 10:00,ZGOW 201000Z AUTO 09016KT 4SM 26/25 A2974 RMK T02600250 IEM_DS3505
ZGOW,2001-09-20 11:00,ZGOW 201100Z AUTO 09012KT 7SM 26/25 A2977 RMK T02600250 IEM_DS3505
ZGOW,2001-09-20 12:00,ZGOW 201200Z AUTO 09006KT 7SM 27/25 A2980 RMK 60047 SLP090 T02660250 52018 IEM_DS3505
ZGOW,2001-09-20 13:00,ZGOW 201300Z AUTO 07017KT 7SM 26/24 A2983 RMK T02600240 IEM_DS3505
ZGOW,2001-09-20 14:00,ZGOW 201400Z AUTO 07016KT 6SM 25/23 A2985 RMK T02500230 IEM_DS3505
ZGOW,2001-09-20 15:00,ZGOW 201500Z AUTO 07008KT 9SM 26/23 A2985 RMK SLP113 T02550226 52023 IEM_DS3505
ZGOW,2001-09-20 16:00,ZGOW 201600Z AUTO 07016KT 6SM 26/22 A2985 RMK T02600220 IEM_DS3505
ZGOW,2001-09-20 17:00,ZGOW 201700Z AUTO 07017KT 6SM 26/23 A2985 RMK T02600230 IEM_DS3505
ZGOW,2001-09-20 18:00,ZGOW 201800Z AUTO 07008KT 9SM 26/23 A2983 RMK SLP105 T02580227 57008 IEM_DS3505
ZGOW,2001-09-20 19:00,ZGOW 201900Z AUTO 06014KT 6SM 26/23 A2983 RMK T02600230 IEM_DS3505
ZGOW,2001-09-20 20:00,ZGOW 202000Z AUTO 05012KT 6SM 26/23 A2983 RMK T02600230 IEM_DS3505
ZGOW,2001-09-20 21:00,ZGOW 202100Z AUTO 07008KT 9SM 26/23 A2983 RMK 70176 SLP105 T02580233 54000 IEM_DS3505
ZGOW,2001-09-20 22:00,ZGOW 202200Z AUTO 05008KT 7SM 25/23 A2983 RMK T02500230 IEM_DS3505
ZGOW,2001-09-20 23:00,ZGOW 202300Z AUTO 06008KT 6SM 26/23 A2985 RMK T02600230 IEM_DS3505
ZGOW,2001-09-21 00:00,ZGOW 210000Z AUTO 07006KT 11SM 28/24 A2985 RMK 70117 SLP114 T02780235 52009 IEM_DS3505
ZGOW,2001-09-21 01:00,ZGOW 210100Z AUTO 05010KT 7SM 29/23 A2988 RMK T02900230 IEM_DS3505
ZGOW,2001-09-21 02:00,ZGOW 210200Z AUTO 06012KT 6SM 30/23 A2988 RMK T03000230 IEM_DS3505
ZGOW,2001-09-21 03:00,ZGOW 210300Z AUTO 07008KT 14SM 31/24 A2988 RMK SLP122 T03070237 52008 IEM_DS3505
ZGOW,2001-09-21 04:00,ZGOW 210400Z AUTO 07016KT 6SM 31/24 A2988 RMK T03100240 IEM_DS3505
ZGOW,2001-09-21 05:00,ZGOW 210500Z AUTO 08014KT 6SM 31/24 A2985 RMK T03100240 IEM_DS3505
ZGOW,2001-09-21 06:00,ZGOW 210600Z AUTO 07012KT 16SM 31/23 A2983 RMK SLP106 T03090228 57016 IEM_DS3505
ZGOW,2001-09-21 07:00,ZGOW 210700Z AUTO 08016KT 6SM 30/23 A2983 RMK T03000230 IEM_DS3505
ZGOW,2001-09-21 08:00,ZGOW 210800Z AUTO 09016KT 6SM 29/23 A2983 RMK T02900230 IEM_DS3505
ZGOW,2001-09-21 09:00,ZGOW 210900Z AUTO 11008KT 14SM 30/22 A2983 RMK SLP100 T02960221 57006 IEM_DS3505
ZGOW,2001-09-21 10:00,ZGOW 211000Z AUTO 09010KT 6SM 28/23 A2983 RMK T02800230 IEM_DS3505
ZGOW,2001-09-21 11:00,ZGOW 211100Z AUTO 08010KT 6SM 28/23 A2985 RMK T02800230 IEM_DS3505
ZGOW,2001-09-21 12:00,ZGOW 211200Z AUTO 07006KT 11SM 28/22 A2985 RMK SLP117 T02780225 52017 IEM_DS3505
ZGOW,2001-09-21 13:00,ZGOW 211300Z AUTO 08006KT 6SM 26/23 A2988 RMK T02600230 IEM_DS3505
ZGOW,2001-09-21 14:00,ZGOW 211400Z AUTO 07006KT 6SM 26/22 A2991 RMK T02600220 IEM_DS3505
ZGOW,2001-09-21 15:00,ZGOW 211500Z AUTO 07004KT 10SM 26/22 A2991 RMK SLP125 T02640220 52008 IEM_DS3505
ZGOW,2001-09-21 16:00,ZGOW 211600Z AUTO 07010KT 6SM 26/21 A2988 RMK T02600210 IEM_DS3505
ZGOW,2001-09-21 17:00,ZGOW 211700Z AUTO 07008KT 6SM 25/21 A2988 RMK T02500210 IEM_DS3505
ZGOW,2001-09-21 18:00,ZGOW 211800Z AUTO 07006KT 10SM 26/20 A2988 RMK SLP116 T02550195 57009 IEM_DS3505
ZGOW,2001-09-21 19:00,ZGOW 211900Z AUTO 08014KT 6SM 25/19 A2985 RMK T02500190 IEM_DS3505
ZGOW,2001-09-21 20:00,ZGOW 212000Z AUTO 08008KT 6SM 24/19 A2988 RMK T02400190 IEM_DS3505
ZGOW,2001-09-21 21:00,ZGOW 212100Z AUTO 07004KT 9SM 25/19 RMK SLP117 T02470189 52001 IEM_DS3505
ZGOW,2001-09-21 22:00,ZGOW 212200Z AUTO 04008KT 6SM 23/19 A2988 RMK T02300190 IEM_DS3505
ZGOW,2001-09-21 23:00,ZGOW 212300Z AUTO 05008KT 6SM 24/19 A2988 RMK T02400190 IEM_DS3505
ZGOW,2001-09-22 00:00,ZGOW 220000Z AUTO 07006KT 9SM 26/19 A2991 RMK SLP129 T02640186 52012 IEM_DS3505
ZGOW,2001-09-22 01:00,ZGOW 220100Z AUTO 05008KT 6SM 27/19 A2991 RMK T02700190 IEM_DS3505
ZGOW,2001-09-22 02:00,ZGOW 220200Z AUTO 03006KT 6SM 28/19 A2991 RMK T02800190 IEM_DS3505
ZGOW,2001-09-22 03:00,ZGOW 220300Z AUTO 07006KT 11SM 29/19 A2991 RMK SLP127 T02930192 57002 IEM_DS3505
ZGOW,2001-09-22 04:00,ZGOW 220400Z AUTO 05006KT 6SM 30/18 A2988 RMK T03000180 IEM_DS3505
ZGOW,2001-09-22 05:00,ZGOW 220500Z AUTO 05008KT 6SM 31/18 A2985 RMK T03100180 IEM_DS3505
ZGOW,2001-09-22 06:00,ZGOW 220600Z AUTO 07010KT 12SM 32/18 A2983 RMK SLP102 T03150185 57025 IEM_DS3505
ZGOW,2001-09-22 07:00,ZGOW 220700Z AUTO 09008KT 6SM 30/21 A2983 RMK T03000210 IEM_DS3505
ZGOW,2001-09-22 09:00,ZGOW 220900Z AUTO 07008KT 12SM 30/20 A2983 RMK SLP095 T02960199 57007 IEM_DS3505
ZGOW,2001-09-22 10:00,ZGOW 221000Z AUTO 08012KT 6SM 28/22 A2983 RMK T02800220 IEM_DS3505
ZGOW,2001-09-22 11:00,ZGOW 221100Z AUTO 08014KT 6SM 27/21 A2983 RMK T02700210 IEM_DS3505
ZGOW,2001-09-22 12:00,ZGOW 221200Z AUTO 07010KT 11SM 27/21 A2985 RMK SLP108 T02730209 52013 IEM_DS3505
ZGOW,2001-09-22 13:00,ZGOW 221300Z AUTO 08016KT 6SM 27/19 A2985 RMK T02700190 IEM_DS3505
ZGOW,2001-09-22 14:00,ZGOW 221400Z AUTO 07014KT 6SM 26/18 A2988 RMK T02600180 IEM_DS3505
ZGOW,2001-09-22 15:00,ZGOW 221500Z AUTO 07008KT 12SM 26/18 A2988 RMK SLP116 T02600185 52008 IEM_DS3505
ZGOW,2001-09-22 16:00,ZGOW 221600Z AUTO 05012KT 6SM 25/18 A2985 RMK T02500180 IEM_DS3505
ZGOW,2001-09-22 17:00,ZGOW 221700Z AUTO 04008KT 6SM 24/18 A2985 RMK T02400180 IEM_DS3505
ZGOW,2001-09-22 18:00,ZGOW 221800Z AUTO 04004KT 10SM 24/19 A2983 RMK SLP106 T02420187 57010 IEM_DS3505
ZGOW,2001-09-22 19:00,ZGOW 221900Z AUTO 06006KT 6SM 22/19 A2983 RMK T02200190 IEM_DS3505
ZGOW,2001-09-22 20:00,ZGOW 222000Z AUTO 08004KT 6SM 23/19 A2983 RMK T02300190 IEM_DS3505
ZGOW,2001-09-22 21:00,ZGOW 222100Z AUTO 02004KT 9SM 23/20 A2983 RMK SLP102 T02290198 57004 IEM_DS3505
ZGOW,2001-09-22 22:00,ZGOW 222200Z AUTO 31004KT 6SM 22/20 A2983 RMK T02200200 IEM_DS3505
ZGOW,2001-09-22 23:00,ZGOW 222300Z AUTO 32004KT 6SM 23/20 A2985 RMK T02300200 IEM_DS3505
ZGOW,2001-09-23 00:00,ZGOW 230000Z AUTO 07004KT 10SM 26/20 A2985 RMK SLP113 T02630204 52011 IEM_DS3505
ZGOW,2001-09-23 01:00,ZGOW 230100Z AUTO 01008KT 6SM 27/18 A2985 RMK T02700180 IEM_DS3505
ZGOW,2001-09-23 02:00,ZGOW 230200Z AUTO 01008KT 7SM 28/18 A2985 RMK T02800180 IEM_DS3505
ZGOW,2001-09-23 03:00,ZGOW 230300Z AUTO 07006KT 12SM 29/18 A2983 RMK SLP106 T02940181 57007 IEM_DS3505
ZGOW,2001-09-23 04:00,ZGOW 230400Z AUTO 03010KT 6SM 30/20 A2980 RMK T03000200 IEM_DS3505
ZGOW,2001-09-23 05:00,ZGOW 230500Z AUTO 05008KT 6SM 31/20 A2977 RMK T03100200 IEM_DS3505
ZGOW,2001-09-23 06:00,ZGOW 230600Z AUTO 02006KT 19SM 32/20 A2974 RMK SLP075 T03160201 57031 IEM_DS3505
ZGOW,2001-09-23 07:00,ZGOW 230700Z AUTO 09006KT 7SM 30/21 A2974 RMK T03000210 IEM_DS3505
ZGOW,2001-09-23 08:00,ZGOW 230800Z AUTO 09004KT 7SM 29/21 A2974 RMK T02900210 IEM_DS3505
ZGOW,2001-09-23 09:00,ZGOW 230900Z AUTO 07002KT 10SM 30/20 A2974 RMK SLP068 T02980205 57007 IEM_DS3505
ZGOW,2001-09-23 10:00,ZGOW 231000Z AUTO 7SM 28/22 A2974 RMK T02800220 IEM_DS3505
ZGOW,2001-09-23 11:00,ZGOW 231100Z AUTO 10004KT 6SM 28/23 A2974 RMK T02800230 IEM_DS3505
ZGOW,2001-09-23 12:00,ZGOW 231200Z AUTO 09002KT 8SM 29/22 A2977 RMK SLP074 T02860220 52006 IEM_DS3505
ZGOW,2001-09-23 13:00,ZGOW 231300Z AUTO 07004KT 7SM 26/23 A2977 RMK T02600230 IEM_DS3505
ZGOW,2001-09-23 14:00,ZGOW 231400Z AUTO 01006KT 7SM 28/21 A2980 RMK T02800210 IEM_DS3505
ZGOW,2001-09-23 15:00,ZGOW 231500Z AUTO 02004KT 8SM 28/21 A2977 RMK SLP081 T02820214 52007 IEM_DS3505
ZGOW,2001-09-23 16:00,ZGOW 231600Z AUTO 35004KT 6SM 28/20 A2977 RMK T02800200 IEM_DS3505
ZGOW,2001-09-23 17:00,ZGOW 231700Z AUTO 31004KT 6SM 27/21 A2974 RMK T02700210 IEM_DS3505
ZGOW,2001-09-23 18:00,ZGOW 231800Z AUTO 34004KT 8SM 27/20 A2974 RMK SLP072 T02700200 57009 IEM_DS3505
ZGOW,2001-09-23 19:00,ZGOW 231900Z AUTO 32006KT 6SM 26/21 A2974 RMK T02600210 IEM_DS3505
ZGOW,2001-09-23 20:00,ZGOW 232000Z AUTO 33006KT 6SM 26/20 A2974 RMK T02600200 IEM_DS3505
ZGOW,2001-09-23 21:00,ZGOW 232100Z AUTO 04002KT 8SM 26/19 A2974 RMK SLP071 T02650191 57001 IEM_DS3505
ZGOW,2001-09-23 22:00,ZGOW 232200Z AUTO 32006KT 6SM 26/20 A2974 RMK T02600200 IEM_DS3505
ZGOW,2001-09-23 23:00,ZGOW 232300Z AUTO 33006KT 7SM 26/20 A2977 RMK T02600200 IEM_DS3505
ZGOW,2001-09-24 00:00,ZGOW 240000Z AUTO 34006KT 12SM 27/19 A2977 RMK SLP081 T02670192 52010 IEM_DS3505
ZGOW,2001-09-24 01:00,ZGOW 240100Z AUTO 33008KT 27/20 A2977 RMK T02700200 IEM_DS3505
ZGOW,2001-09-24 02:00,ZGOW 240200Z AUTO 33010KT 6SM 29/21 A2977 RMK T02900210 IEM_DS3505
ZGOW,2001-09-24 03:00,ZGOW 240300Z AUTO 34006KT 12SM 31/20 A2974 RMK SLP076 T03090203 57005 IEM_DS3505
ZGOW,2001-09-24 04:00,ZGOW 240400Z AUTO 35008KT 6SM 31/20 A2971 RMK T03100200 IEM_DS3505
ZGOW,2001-09-24 05:00,ZGOW 240500Z AUTO 01010KT 6SM 32/22 A2968 RMK T03200220 IEM_DS3505
ZGOW,2001-09-24 06:00,ZGOW 240600Z AUTO 34004KT 16SM 34/20 A2965 RMK SLP045 T03350203 57031 IEM_DS3505
ZGOW,2001-09-24 07:00,ZGOW 240700Z AUTO 35006KT 7SM 32/20 A2965 RMK T03200200 IEM_DS3505
ZGOW,2001-09-24 08:00,ZGOW 240800Z AUTO 15004KT 7SM 31/22 A2965 RMK T03100220 IEM_DS3505
ZGOW,2001-09-24 09:00,ZGOW 240900Z AUTO 16006KT 12SM 31/22 A2965 RMK SLP041 T03060218 57004 IEM_DS3505
ZGOW,2001-09-24 10:00,ZGOW 241000Z AUTO 15006KT 7SM 28/24 A2968 RMK T02800240 IEM_DS3505
ZGOW,2001-09-24 11:00,ZGOW 241100Z AUTO 11004KT 7SM 28/24 A2968 RMK T02800240 IEM_DS3505
ZGOW,2001-09-24 12:00,ZGOW 241200Z AUTO 18004KT 10SM 28/24 A2968 RMK SLP056 T02850239 52015 IEM_DS3505
ZGOW,2001-09-24 13:00,ZGOW 241300Z AUTO 04002KT 5SM 27/24 A2971 RMK T02700240 IEM_DS3505
ZGOW,2001-09-24 14:00,ZGOW 241400Z AUTO 36002KT 6SM 27/24 A2971 RMK T02700240 IEM_DS3505
ZGOW,2001-09-24 15:00,ZGOW 241500Z AUTO 27002KT 8SM 27/24 A2971 RMK SLP061 T02730243 52005 IEM_DS3505
ZGOW,2001-09-24 18:00,ZGOW 241800Z AUTO 02004KT 9SM 28/19 RMK SLP049 T02770189 57012 IEM_DS3505
ZGOW,2001-09-24 21:00,ZGOW 242100Z AUTO 02004KT 9SM 26/18 RMK SLP044 T02650184 57005 IEM_DS3505
ZGOW,2001-09-24 22:00,ZGOW 242200Z AUTO 32010KT 6SM 25/19 A2965 RMK T02500190 IEM_DS3505
ZGOW,2001-09-24 23:00,ZGOW 242300Z AUTO 32010KT 6SM 26/19 A2965 RMK T02600190 IEM_DS3505
ZGOW,2001-09-25 00:00,ZGOW 250000Z AUTO 02008KT 16SM 28/18 A2968 RMK SLP053 T02820179 52009 IEM_DS3505
ZGOW,2001-09-25 01:00,ZGOW 250100Z AUTO 31010KT 6SM 28/20 A2968 RMK T02800200 IEM_DS3505
ZGOW,2001-09-25 02:00,ZGOW 250200Z AUTO 32010KT 6SM 30/20 A2968 RMK T03000200 IEM_DS3505
ZGOW,2001-09-25 03:00,ZGOW 250300Z AUTO 02006KT 19SM 32/20 A2965 RMK SLP049 T03200195 57004 IEM_DS3505
ZGOW,2001-09-25 04:00,ZGOW 250400Z AUTO 36008KT 6SM 33/22 A2965 RMK T03300220 IEM_DS3505
ZGOW,2001-09-25 05:00,ZGOW 250500Z AUTO 03012KT 6SM 33/22 A2962 RMK T03300220 IEM_DS3505
ZGOW,2001-09-25 06:00,ZGOW 250600Z AUTO 04006KT 19SM 33/21 A2959 RMK SLP028 T03340214 57021 IEM_DS3505
ZGOW,2001-09-25 07:00,ZGOW 250700Z AUTO 36008KT 6SM 32/21 A2959 RMK T03200210 IEM_DS3505
ZGOW,2001-09-25 08:00,ZGOW 250800Z AUTO 35006KT 6SM 31/22 A2959 RMK T03100220 IEM_DS3505
ZGOW,2001-09-25 09:00,ZGOW 250900Z AUTO 34008KT 16SM 30/21 A2962 RMK SLP029 T02980209 52001 IEM_DS3505
ZGOW,2001-09-25 10:00,ZGOW 251000Z AUTO 35006KT 6SM 30/21 A2962 RMK T03000210 IEM_DS3505
ZGOW,2001-09-25 11:00,ZGOW 251100Z AUTO 34006KT 6SM 30/21 A2965 RMK T03000210 IEM_DS3505
ZGOW,2001-09-25 12:00,ZGOW 251200Z AUTO 02006KT 11SM 29/20 A2965 RMK SLP045 T02900205 52016 IEM_DS3505
ZGOW,2001-09-25 13:00,ZGOW 251300Z AUTO 34006KT 7SM 29/21 A2968 RMK T02900210 IEM_DS3505
ZGOW,2001-09-25 14:00,ZGOW 251400Z AUTO 36006KT 7SM 29/20 A2968 RMK T02900200 IEM_DS3505
ZGOW,2001-09-25 15:00,ZGOW 251500Z AUTO 02004KT 9SM 28/21 A2965 RMK SLP048 T02820211 52003 IEM_DS3505
ZGOW,2001-09-25 16:00,ZGOW 251600Z AUTO 35004KT 7SM 28/20 A2965 RMK T02800200 IEM_DS3505
ZGOW,2001-09-25 17:00,ZGOW 251700Z AUTO 33006KT 6SM 27/20 A2962 RMK T02700200 IEM_DS3505
ZGOW,2001-09-25 18:00,ZGOW 251800Z AUTO 04004KT 9SM 28/19 RMK SLP027 T02750192 57021 IEM_DS3505
ZGOW,2001-09-25 21:00,ZGOW 252100Z AUTO 34004KT 9SM 27/18 A2959 RMK SLP027 T02700185 54000 IEM_DS3505
ZGOW,2001-09-25 22:00,ZGOW 252200Z AUTO 31008KT 6SM 26/19 A2962 RMK T02600190 IEM_DS3505
ZGOW,2001-09-25 23:00,ZGOW 252300Z AUTO 31008KT 6SM 26/19 A2962 RMK T02600190 IEM_DS3505
ZGOW,2001-09-26 00:00,ZGOW 260000Z AUTO 34006KT 12SM 27/18 A2965 RMK SLP039 T02740181 52012 IEM_DS3505
ZGOW,2001-09-26 01:00,ZGOW 260100Z AUTO 32010KT 6SM 28/20 A2965 RMK T02800200 IEM_DS3505
ZGOW,2001-09-26 02:00,ZGOW 260200Z AUTO 32012KT 6SM 28/19 A2965 RMK T02800190 IEM_DS3505
ZGOW,2001-09-26 03:00,ZGOW 260300Z AUTO 34006KT 16SM 29/18 A2962 RMK SLP038 T02910181 57001 IEM_DS3505
ZGOW,2001-09-26 04:00,ZGOW 260400Z AUTO 32014KT 6SM 30/19 A2962 RMK T03000190 IEM_DS3505
ZGOW,2001-09-26 05:00,ZGOW 260500Z AUTO 32012KT 6SM 31/19 A2956 RMK T03100190 IEM_DS3505
ZGOW,2001-09-26 06:00,ZGOW 260600Z AUTO 02006KT 16SM 32/19 A2953 RMK SLP007 T03150191 57031 IEM_DS3505
ZGOW,2001-09-26 07:00,ZGOW 260700Z AUTO 32012KT 6SM 31/20 A2953 RMK T03100200 IEM_DS3505
ZGOW,2001-09-26 08:00,ZGOW 260800Z AUTO 32010KT 6SM 30/20 A2953 RMK T03000200 IEM_DS3505
ZGOW,2001-09-26 09:00,ZGOW 260900Z AUTO 02006KT 12SM 31/19 A2956 RMK SLP011 T03090187 52004 IEM_DS3505
ZGOW,2001-09-26 10:00,ZGOW 261000Z AUTO 32008KT 6SM 30/20 A2956 RMK T03000200 IEM_DS3505
ZGOW,2001-09-26 11:00,ZGOW 261100Z AUTO 32006KT 6SM 29/20 A2959 RMK T02900200 IEM_DS3505
ZGOW,2001-09-26 12:00,ZGOW 261200Z AUTO 07004KT 9SM 30/19 A2959 RMK SLP022 T02970194 52011 IEM_DS3505
ZGOW,2001-09-26 13:00,ZGOW 261300Z AUTO 32008KT 6SM 29/20 A2959 RMK T02900200 IEM_DS3505
ZGOW,2001-09-26 14:00,ZGOW 261400Z AUTO 32012KT 6SM 28/19 A2962 RMK T02800190 IEM_DS3505
ZGOW,2001-09-26 15:00,ZGOW 261500Z AUTO 02004KT 8SM 29/19 A2962 RMK SLP031 T02870187 52009 IEM_DS3505
ZGOW,2001-09-26 16:00,ZGOW 261600Z AUTO 31010KT 6SM 27/19 A2959 RMK T02700190 IEM_DS3505
ZGOW,2001-09-26 18:00,ZGOW 261800Z AUTO 29006KT 7SM 28/19 RMK SLP031 T02760187 54000 IEM_DS3505
ZGOW,2001-09-26 21:00,ZGOW 262100Z AUTO 29006KT 7SM 26/19 RMK SLP031 T02650188 54000 IEM_DS3505
ZGOW,2001-09-26 22:00,ZGOW 262200Z AUTO 31010KT 6SM 26/19 A2962 RMK T02600190 IEM_DS3505
ZGOW,2001-09-26 23:00,ZGOW 262300Z AUTO 31010KT 6SM 26/19 A2962 RMK T02600190 IEM_DS3505
ZGOW,2001-09-27 00:00,ZGOW 270000Z AUTO 29006KT 12SM 27/18 A2965 RMK SLP046 T02730185 52015 IEM_DS3505
ZGOW,2001-09-27 01:00,ZGOW 270100Z AUTO 31012KT 6SM 28/20 A2965 RMK T02800200 IEM_DS3505
ZGOW,2001-09-27 02:00,ZGOW 270200Z AUTO 31010KT 6SM 28/20 A2965 RMK T02800200 IEM_DS3505
ZGOW,2001-09-27 03:00,ZGOW 270300Z AUTO 34004KT 12SM 30/19 A2965 RMK SLP046 T03020193 54000 IEM_DS3505
ZGOW,2001-09-27 04:00,ZGOW 270400Z AUTO 31014KT 6SM 32/20 A2962 RMK T03200200 IEM_DS3505
ZGOW,2001-09-27 05:00,ZGOW 270500Z AUTO 33012KT 6SM 32/22 A2962 RMK T03200220 IEM_DS3505
ZGOW,2001-09-27 06:00,ZGOW 270600Z AUTO 02006KT 16SM 32/20 A2959 RMK SLP027 T03230204 57019 IEM_DS3505
ZGOW,2001-09-27 07:00,ZGOW 270700Z AUTO 33008KT 6SM 31/21 A2959 RMK T03100210 IEM_DS3505
ZGOW,2001-09-27 08:00,ZGOW 270800Z AUTO 32004KT 6SM 31/21 A2959 RMK T03100210 IEM_DS3505
ZGOW,2001-09-27 09:00,ZGOW 270900Z AUTO 02006KT 12SM 31/21 A2962 RMK SLP029 T03120208 52002 IEM_DS3505
ZGOW,2001-09-27 10:00,ZGOW 271000Z AUTO 32010KT 6SM 30/20 A2962 RMK T03000200 IEM_DS3505
ZGOW,2001-09-27 11:00,ZGOW 271100Z AUTO 32010KT 6SM 29/20 A2965 RMK T02900200 IEM_DS3505
ZGOW,2001-09-27 12:00,ZGOW 271200Z AUTO 02006KT 11SM 29/20 A2968 RMK SLP051 T02910197 52022 IEM_DS3505
ZGOW,2001-09-27 13:00,ZGOW 271300Z AUTO 32010KT 6SM 28/20 A2971 RMK T02800200 IEM_DS3505
ZGOW,2001-09-27 14:00,ZGOW 271400Z AUTO 32010KT 6SM 28/19 A2971 RMK T02800190 IEM_DS3505
ZGOW,2001-09-27 15:00,ZGOW 271500Z AUTO 25004KT 10SM 28/20 A2971 RMK SLP065 T02820195 52014 IEM_DS3505
ZGOW,2001-09-27 16:00,ZGOW 271600Z AUTO 32010KT 6SM 27/20 A2971 RMK T02700200 IEM_DS3505
ZGOW,2001-09-27 17:00,ZGOW 271700Z AUTO 32010KT 6SM 27/20 A2971 RMK T02700200 IEM_DS3505
ZGOW,2001-09-27 18:00,ZGOW 271800Z AUTO 34006KT 9SM 27/19 A2968 RMK 60003 SLP059 T02740186 57006 IEM_DS3505
ZGOW,2001-09-27 19:00,ZGOW 271900Z AUTO 31010KT 6SM 26/19 A2968 RMK T02600190 IEM_DS3505
ZGOW,2001-09-27 20:00,ZGOW 272000Z AUTO 32010KT 6SM 26/19 A2968 RMK T02600190 IEM_DS3505
ZGOW,2001-09-27 21:00,ZGOW 272100Z AUTO 34006KT 9SM 27/19 A2968 RMK 70003 SLP059 T02670188 54000 IEM_DS3505
ZGOW,2001-09-27 22:00,ZGOW 272200Z AUTO 32010KT 6SM 26/19 A2971 RMK T02600190 IEM_DS3505
ZGOW,2001-09-28 00:00,ZGOW 280000Z AUTO 34006KT 12SM 27/19 A2974 RMK 70003 SLP077 T02720190 52018 IEM_DS3505
ZGOW,2001-09-28 01:00,ZGOW 280100Z AUTO 31010KT 6SM 27/20 A2977 RMK T02700200 IEM_DS3505
ZGOW,2001-09-28 02:00,ZGOW 280200Z AUTO 31010KT 12SM 28/20 A2977 RMK T02800200 IEM_DS3505
ZGOW,2001-09-28 03:00,ZGOW 280300Z AUTO 34008KT 12SM 29/20 A2977 RMK SLP081 T02890196 52004 IEM_DS3505
ZGOW,2001-09-28 04:00,ZGOW 280400Z AUTO 32014KT 6SM 29/20 A2974 RMK T02900200 IEM_DS3505
ZGOW,2001-09-28 05:00,ZGOW 280500Z AUTO 32014KT 6SM 29/20 A2974 RMK T02900200 IEM_DS3505
ZGOW,2001-09-28 06:00,ZGOW 280600Z AUTO 29008KT 12SM 31/20 A2971 RMK 60003 SLP061 T03060199 57020 IEM_DS3505
ZGOW,2001-09-28 07:00,ZGOW 280700Z AUTO 32012KT 6SM 30/21 A2968 RMK T03000210 IEM_DS3505
ZGOW,2001-09-28 08:00,ZGOW 280800Z AUTO 31010KT 6SM 29/21 A2968 RMK T02900210 IEM_DS3505
ZGOW,2001-09-28 09:00,ZGOW 280900Z AUTO 34006KT 12SM 31/20 A2968 RMK SLP054 T03110204 57007 IEM_DS3505
ZGOW,2001-09-28 10:00,ZGOW 281000Z AUTO 32006KT 29/21 A2968 RMK T02900210 IEM_DS3505
ZGOW,2001-09-28 11:00,ZGOW 281100Z AUTO 31004KT 28/21 A2971 RMK T02800210 IEM_DS3505
ZGOW,2001-09-28 12:00,ZGOW 281200Z AUTO 29004KT 11SM 29/20 A2971 RMK SLP067 T02900205 52013 IEM_DS3505
ZGOW,2001-09-28 13:00,ZGOW 281300Z AUTO 32006KT 6SM 28/21 A2974 RMK T02800210 IEM_DS3505
ZGOW,2001-09-28 14:00,ZGOW 281400Z AUTO 31008KT 6SM 27/20 A2974 RMK T02700200 IEM_DS3505
ZGOW,2001-09-28 15:00,ZGOW 281500Z AUTO 29004KT 11SM 28/20 A2974 RMK SLP073 T02760197 52006 IEM_DS3505
ZGOW,2001-09-28 16:00,ZGOW 281600Z AUTO 31008KT 6SM 27/20 A2974 RMK T02700200 IEM_DS3505
ZGOW,2001-09-28 17:00,ZGOW 281700Z AUTO 30006KT 6SM 26/20 A2974 RMK T02600200 IEM_DS3505
ZGOW,2001-09-28 18:00,ZGOW 281800Z AUTO 32004KT 10SM 26/20 A2971 RMK SLP065 T02620198 57008 IEM_DS3505
ZGOW,2001-09-28 19:00,ZGOW 281900Z AUTO 30008KT 6SM 26/20 A2971 RMK T02600200 IEM_DS3505
ZGOW,2001-09-28 20:00,ZGOW 282000Z AUTO 30008KT 6SM 26/20 A2971 RMK T02600200 IEM_DS3505
ZGOW,2001-09-28 21:00,ZGOW 282100Z AUTO 29004KT 9SM 26/19 A2974 RMK 70003 SLP068 T02630191 52003 IEM_DS3505
ZGOW,2001-09-28 22:00,ZGOW 282200Z AUTO 31010KT 6SM 25/19 A2974 RMK T02500190 IEM_DS3505
ZGOW,2001-09-28 23:00,ZGOW 282300Z AUTO 31008KT 4SM 25/20 A2974 RMK T02500200 IEM_DS3505
ZGOW,2001-09-29 00:00,ZGOW 290000Z AUTO 29006KT 7SM 26/20 A2977 RMK 60003 SLP083 T02580197 52015 IEM_DS3505
ZGOW,2001-09-29 01:00,ZGOW 290100Z AUTO 31008KT 6SM 26/20 A2977 RMK T02600200 IEM_DS3505
ZGOW,2001-09-29 02:00,ZGOW 290200Z AUTO 31010KT 6SM 28/20 A2977 RMK T02800200 IEM_DS3505
ZGOW,2001-09-29 03:00,ZGOW 290300Z AUTO 29008KT 9SM 30/20 A2977 RMK SLP080 T02990205 57003 IEM_DS3505
ZGOW,2001-09-29 04:00,ZGOW 290400Z AUTO 31012KT 6SM 30/21 A2974 RMK T03000210 IEM_DS3505
ZGOW,2001-09-29 05:00,ZGOW 290500Z AUTO 31010KT 6SM 31/21 A2974 RMK T03100210 IEM_DS3505
ZGOW,2001-09-29 06:00,ZGOW 290600Z AUTO 27012KT 9SM 32/20 A2971 RMK 60003 SLP059 T03230204 57021 IEM_DS3505
ZGOW,2001-09-29 07:00,ZGOW 290700Z AUTO 30008KT 6SM 32/22 A2968 RMK T03200220 IEM_DS3505
ZGOW,2001-09-29 08:00,ZGOW 290800Z AUTO 34006KT 6SM 31/22 A2968 RMK T03100220 IEM_DS3505
ZGOW,2001-09-29 09:00,ZGOW 290900Z AUTO 32004KT 9SM 32/21 A2971 RMK SLP056 T03220212 57003 IEM_DS3505
ZGOW,2001-09-29 10:00,ZGOW 291000Z AUTO 34006KT 6SM 31/21 A2971 RMK T03100210 IEM_DS3505
ZGOW,2001-09-29 11:00,ZGOW 291100Z AUTO 32010KT 6SM 30/21 A2971 RMK T03000210 IEM_DS3505
ZGOW,2001-09-29 12:00,ZGOW 291200Z AUTO 04006KT 9SM 29/20 A2974 RMK SLP072 T02930205 52016 IEM_DS3505
ZGOW,2001-09-29 13:00,ZGOW 291300Z AUTO 35004KT 6SM 28/21 A2977 RMK T02800210 IEM_DS3505
ZGOW,2001-09-29 14:00,ZGOW 291400Z AUTO 32006KT 6SM 27/21 A2977 RMK T02700210 IEM_DS3505
ZGOW,2001-09-29 15:00,ZGOW 291500Z AUTO 02004KT 9SM 28/20 A2977 RMK SLP084 T02770200 52012 IEM_DS3505
ZGOW,2001-09-29 16:01,ZGOW 291601Z AUTO 31006KT 6SM 26/20 A2977 RMK T02600200 IEM_DS3505
ZGOW,2001-09-29 17:01,ZGOW 291701Z AUTO 31006KT 6SM 26/20 A2977 RMK T02600200 IEM_DS3505
ZGOW,2001-09-29 18:00,ZGOW 291800Z AUTO 27004KT 8SM 26/21 A2974 RMK SLP079 T02560209 57005 IEM_DS3505
ZGOW,2001-09-29 19:00,ZGOW 291900Z AUTO 30006KT 6SM 25/20 A2974 RMK T02500200 IEM_DS3505
ZGOW,2001-09-29 20:00,ZGOW 292000Z AUTO 30006KT 6SM 25/20 A2977 RMK T02500200 IEM_DS3505
ZGOW,2001-09-29 21:00,ZGOW 292100Z AUTO 25004KT 7SM 25/20 A2977 RMK 70003 SLP082 T02490202 52003 IEM_DS3505
ZGOW,2001-09-29 22:00,ZGOW 292200Z AUTO 33004KT 6SM 25/20 A2977 RMK T02500200 IEM_DS3505
ZGOW,2001-09-29 23:00,ZGOW 292300Z AUTO 33006KT 6SM 25/20 A2980 RMK T02500200 IEM_DS3505
ZGOW,2001-09-30 00:00,ZGOW 300000Z AUTO 02004KT 9SM 27/20 A2983 RMK 70003 SLP101 T02740203 52019 IEM_DS3505
ZGOW,2001-09-30 01:00,ZGOW 300100Z AUTO 35006KT 6SM 28/21 A2985 RMK T02800210 IEM_DS3505
ZGOW,2001-09-30 02:00,ZGOW 300200Z AUTO 33006KT 6SM 30/21 A2983 RMK T03000210 IEM_DS3505
ZGOW,2001-09-30 03:00,ZGOW 300300Z AUTO 02004KT 16SM 32/21 A2983 RMK SLP104 T03180214 52003 IEM_DS3505
ZGOW,2001-09-30 04:00,ZGOW 300400Z AUTO 34006KT 6SM 32/22 A2983 RMK T03200220 IEM_DS3505
ZGOW,2001-09-30 05:00,ZGOW 300500Z AUTO 32004KT 6SM 33/21 A2977 RMK T03300210 IEM_DS3505
ZGOW,2001-09-30 06:00,ZGOW 300600Z AUTO 04004KT 17SM 33/20 A2977 RMK SLP078 T03300204 57026 IEM_DS3505
ZGOW,2001-09-30 07:00,ZGOW 300700Z AUTO 13006KT 6SM 32/22 A2974 RMK T03200220 IEM_DS3505
ZGOW,2001-09-30 08:00,ZGOW 300800Z AUTO 17006KT 6SM 31/23 A2974 RMK T03100230 IEM_DS3505
ZGOW,2001-09-30 09:00,ZGOW 300900Z AUTO 16004KT 12SM 31/22 A2977 RMK SLP076 T03140221 57002 IEM_DS3505
ZGOW,2001-09-30 10:00,ZGOW 301000Z AUTO 17006KT 7SM 29/23 A2977 RMK T02900230 IEM_DS3505
ZGOW,2001-09-30 11:00,ZGOW 301100Z AUTO 16004KT 6SM 29/23 A2980 RMK T02900230 IEM_DS3505
ZGOW,2001-09-30 12:00,ZGOW 301200Z AUTO 16002KT 9SM 29/23 A2983 RMK SLP094 T02890230 52018 IEM_DS3505
ZGOW,2001-09-30 13:00,ZGOW 301300Z AUTO 4SM 27/25 A2985 RMK T02700250 IEM_DS3505
ZGOW,2001-09-30 14:00,ZGOW 301400Z AUTO 13004KT 4SM 27/25 A2985 RMK T02700250 IEM_DS3505
ZGOW,2001-09-30 15:00,ZGOW 301500Z AUTO 07002KT 9SM 27/22 A2985 RMK SLP109 T02740218 52015 IEM_DS3505
ZGOW,2001-09-30 16:00,ZGOW 301600Z AUTO 6SM 27/24 A2985 RMK T02700240 IEM_DS3505
ZGOW,2001-09-30 17:00,ZGOW 301700Z AUTO 3SM 26/24 A2985 RMK T02600240 IEM_DS3505
ZGOW,2001-09-30 18:00,ZGOW 301800Z AUTO 04004KT 7SM 27/24 A2985 RMK SLP108 T02690237 57001 IEM_DS3505
ZGOW,2001-09-30 19:00,ZGOW 301900Z AUTO 02002KT 6SM 26/23 A2985 RMK T02600230 IEM_DS3505
ZGOW,2001-09-30 20:00,ZGOW 302000Z AUTO 04002KT 6SM 26/23 A2985 RMK T02600230 IEM_DS3505
ZGOW,2001-09-30 21:00,ZGOW 302100Z AUTO 04004KT 7SM 26/22 A2988 RMK SLP116 T02650224 52008 IEM_DS3505
ZGOW,2001-09-30 22:00,ZGOW 302200Z AUTO 04004KT 7SM 26/22 A2988 RMK T02600220 IEM_DS3505
ZGOW,2001-09-30 23:00,ZGOW 302300Z AUTO 04004KT 7SM 26/22 A2988 RMK T02600220 IEM_DS3505
ZGOW,2001-10-01 00:00,ZGOW 010000Z AUTO 07008KT 7SM 28/24 A2994 RMK SLP138 T02750236 52022 IEM_DS3505
ZGOW,2001-10-01 01:00,ZGOW 010100Z AUTO 07012KT 7SM 27/24 A2994 RMK T02700240 IEM_DS3505
ZGOW,2001-10-01 02:00,ZGOW 010200Z AUTO 08012KT 7SM 28/24 A2994 RMK T02800240 IEM_DS3505
ZGOW,2001-10-01 03:00,ZGOW 010300Z AUTO 07008KT 12SM 28/22 A2997 RMK SLP146 T02830221 52008 IEM_DS3505
ZGOW,2001-10-01 04:00,ZGOW 010400Z AUTO 08014KT 7SM 28/23 A2994 RMK T02800230 IEM_DS3505
ZGOW,2001-10-01 05:00,ZGOW 010500Z AUTO 08014KT 7SM 28/23 A2994 RMK T02800230 IEM_DS3505
ZGOW,2001-10-01 06:00,ZGOW 010600Z AUTO 07010KT 12SM 29/22 A2991 RMK SLP125 T02860225 57021 IEM_DS3505
ZGOW,2001-10-01 07:00,ZGOW 010700Z AUTO 08016KT 7SM 28/21 A2991 RMK T02800210 IEM_DS3505
ZGOW,2001-10-01 08:00,ZGOW 010800Z AUTO 09016KT 7SM 27/21 A2991 RMK T02700210 IEM_DS3505
ZGOW,2001-10-01 09:00,ZGOW 010900Z AUTO 07010KT 11SM 27/21 A2988 RMK SLP123 T02720209 57002 IEM_DS3505
ZGOW,2001-10-01 10:00,ZGOW 011000Z AUTO 08010KT 6SM 26/22 A2991 RMK T02600220 IEM_DS3505
ZGOW,2001-10-01 11:00,ZGOW 011100Z AUTO 08012KT 7SM 26/21 A2991 RMK T02600210 IEM_DS3505
ZGOW,2001-10-01 12:00,ZGOW 011200Z AUTO 07008KT 8SM 26/20 A2994 RMK SLP145 T02630204 52022 IEM_DS3505
ZGOW,2001-10-01 13:00,ZGOW 011300Z AUTO 08010KT 7SM 26/20 A2997 RMK T02600200 IEM_DS3505
ZGOW,2001-10-01 14:00,ZGOW 011400Z AUTO 08012KT 6SM 25/20 A2997 RMK T02500200 IEM_DS3505
ZGOW,2001-10-01 15:00,ZGOW 011500Z AUTO 07008KT 8SM 26/20 A2997 RMK SLP151 T02570195 52006 IEM_DS3505
ZGOW,2001-10-01 16:00,ZGOW 011600Z AUTO 07010KT 6SM 25/20 A2997 RMK T02500200 IEM_DS3505
ZGOW,2001-10-01 17:00,ZGOW 011700Z AUTO 07010KT 6SM 25/19 A2997 RMK T02500190 IEM_DS3505
ZGOW,2001-10-01 18:00,ZGOW 011800Z AUTO 07008KT 8SM 25/17 A2997 RMK SLP146 T02540173 57005 IEM_DS3505
ZGOW,2001-10-01 19:00,ZGOW 011900Z AUTO 08008KT 6SM 25/17 A2997 RMK T02500170 IEM_DS3505
ZGOW,2001-10-01 20:00,ZGOW 012000Z AUTO 09006KT 6SM 24/16 A2994 RMK T02400160 IEM_DS3505
ZGOW,2001-10-01 21:00,ZGOW 012100Z AUTO 07004KT 7SM 25/16 A2997 RMK SLP148 T02490163 52002 IEM_DS3505
ZGOW,2001-10-01 22:00,ZGOW 012200Z AUTO 04004KT 6SM 23/18 A2997 RMK T02300180 IEM_DS3505
ZGOW,2001-10-01 23:00,ZGOW 012300Z AUTO 06004KT 6SM 23/19 A3000 RMK T02300190 IEM_DS3505
ZGOW,2001-10-02 00:00,ZGOW 020000Z AUTO 02002KT 9SM 25/19 A3003 RMK SLP167 T02510190 52019 IEM_DS3505
ZGOW,2001-10-02 01:00,ZGOW 020100Z AUTO 03008KT 6SM 27/17 A3003 RMK T02700170 IEM_DS3505
ZGOW,2001-10-02 02:00,ZGOW 020200Z AUTO 05010KT 6SM 28/16 A3003 RMK T02800160 IEM_DS3505
ZGOW,2001-10-02 03:00,ZGOW 020300Z AUTO 07008KT 14SM 29/16 A3000 RMK SLP164 T02870158 57003 IEM_DS3505
ZGOW,2001-10-02 04:00,ZGOW 020400Z AUTO 09012KT 6SM 28/17 A3000 RMK T02800170 IEM_DS3505
ZGOW,2001-10-02 05:00,ZGOW 020500Z AUTO 10014KT 6SM 28/18 A2997 RMK T02800180 IEM_DS3505
ZGOW,2001-10-02 06:00,ZGOW 020600Z AUTO 07010KT 12SM 29/17 A2994 RMK SLP135 T02920169 57029 IEM_DS3505
ZGOW,2001-10-02 07:00,ZGOW 020700Z AUTO 08012KT 6SM 28/19 A2991 RMK T02800190 IEM_DS3505
ZGOW,2001-10-02 08:00,ZGOW 020800Z AUTO 08010KT 6SM 28/21 A2991 RMK T02800210 IEM_DS3505
ZGOW,2001-10-02 09:00,ZGOW 020900Z AUTO 11006KT 11SM 28/20 A2991 RMK SLP131 T02800205 57004 IEM_DS3505
ZGOW,2001-10-02 10:00,ZGOW 021000Z AUTO 08010KT 6SM 25/20 A2994 RMK T02500200 IEM_DS3505
ZGOW,2001-10-02 11:00,ZGOW 021100Z AUTO 08010KT 6SM 25/21 A2994 RMK T02500210 IEM_DS3505
ZGOW,2001-10-02 12:00,ZGOW 021200Z AUTO 09006KT 7SM 26/20 A2997 RMK SLP147 T02570201 52016 IEM_DS3505
ZGOW,2001-10-02 13:00,ZGOW 021300Z AUTO 08010KT 6SM 25/20 A2997 RMK T02500200 IEM_DS3505
ZGOW,2001-10-02 14:00,ZGOW 021400Z AUTO 07012KT 6SM 25/20 A2997 RMK T02500200 IEM_DS3505
ZGOW,2001-10-02 15:00,ZGOW 021500Z AUTO 07008KT 6SM 25/20 A3000 RMK SLP157 T02510196 52010 IEM_DS3505
ZGOW,2001-10-02 16:00,ZGOW 021600Z AUTO 07012KT 6SM 24/20 A3000 RMK T02400200 IEM_DS3505
ZGOW,2001-10-02 17:00,ZGOW 021700Z AUTO 06010KT 6SM 24/20 A2997 RMK T02400200 IEM_DS3505
ZGOW,2001-10-02 18:00,ZGOW 021800Z AUTO 07006KT 7SM 24/20 A2997 RMK SLP143 T02410198 57014 IEM_DS3505
ZGOW,2001-10-02 19:00,ZGOW 021900Z AUTO 06010KT 6SM 23/20 A2994 RMK T02300200 IEM_DS3505
ZGOW,2001-10-02 20:00,ZGOW 022000Z AUTO 03006KT 6SM 22/19 A2994 RMK T02200190 IEM_DS3505
ZGOW,2001-10-02 21:00,ZGOW 022100Z AUTO 07004KT 6SM 23/19 A2997 RMK SLP145 T02300189 52002 IEM_DS3505
ZGOW,2001-10-02 23:00,ZGOW 022300Z AUTO 03006KT 6SM 23/19 A2997 RMK T02300190 IEM_DS3505
ZGOW,2001-10-03 00:00,ZGOW 030000Z AUTO 04006KT 6SM 25/19 RMK SLP159 T02500188 52014 IEM_DS3505
ZGOW,2001-10-03 01:00,ZGOW 030100Z AUTO 05008KT 6SM 25/19 A3003 RMK T02500190 IEM_DS3505
ZGOW,2001-10-03 03:00,ZGOW 030300Z AUTO 07006KT 7SM 28/18 A3000 RMK SLP163 T02780183 52004 IEM_DS3505
ZGOW,2001-10-03 04:00,ZGOW 030400Z AUTO 07008KT 6SM 28/18 A2997 RMK T02800180 IEM_DS3505
ZGOW,2001-10-03 05:00,ZGOW 030500Z AUTO 08008KT 6SM 28/18 A2994 RMK T02800180 IEM_DS3505
ZGOW,2001-10-03 06:00,ZGOW 030600Z AUTO 07004KT 8SM 29/18 A2991 RMK SLP131 T02930185 IEM_DS3505
ZGOW,2001-10-03 07:00,ZGOW 030700Z AUTO 15006KT 6SM 28/20 A2991 RMK T02800200 IEM_DS3505
ZGOW,2001-10-03 08:00,ZGOW 030800Z AUTO 13006KT 6SM 27/19 A2988 RMK T02700190 IEM_DS3505
ZGOW,2001-10-03 09:00,ZGOW 030900Z AUTO 11006KT 7SM 27/19 A2988 RMK SLP121 T02720189 57010 IEM_DS3505
ZGOW,2001-10-03 10:00,ZGOW 031000Z AUTO 11006KT 6SM 26/20 A2988 RMK T02600200 IEM_DS3505
ZGOW,2001-10-03 11:00,ZGOW 031100Z AUTO 12006KT 6SM 25/21 A2991 RMK T02500210 IEM_DS3505
ZGOW,2001-10-03 12:00,ZGOW 031200Z AUTO 11006KT 7SM 26/20 A2994 RMK SLP135 T02580205 52014 IEM_DS3505
ZGOW,2001-10-03 13:00,ZGOW 031300Z AUTO 09004KT 6SM 24/22 A2997 RMK T02400220 IEM_DS3505
ZGOW,2001-10-03 14:00,ZGOW 031400Z AUTO 06004KT 6SM 24/21 A2997 RMK T02400210 IEM_DS3505
ZGOW,2001-10-03 15:00,ZGOW 031500Z AUTO 07004KT 7SM 25/21 A2997 RMK SLP150 T02510209 52015 IEM_DS3505
ZGOW,2001-10-03 16:00,ZGOW 031600Z AUTO 04004KT 6SM 23/21 A2997 RMK T02300210 IEM_DS3505
ZGOW,2001-10-03 17:01,ZGOW 031701Z AUTO 04004KT 6SM 23/21 A2997 RMK T02300210 IEM_DS3505
ZGOW,2001-10-03 18:00,ZGOW 031800Z AUTO 07002KT 6SM 24/21 A2994 RMK SLP142 T02370214 57008 IEM_DS3505
ZGOW,2001-10-03 19:00,ZGOW 031900Z AUTO 32004KT 6SM 23/21 A2994 RMK T02300210 IEM_DS3505
ZGOW,2001-10-03 20:00,ZGOW 032000Z AUTO 6SM 23/21 A2994 RMK T02300210 IEM_DS3505
ZGOW,2001-10-03 21:00,ZGOW 032100Z AUTO 02002KT 6SM 23/21 A2994 RMK SLP136 T02310211 57006 IEM_DS3505
ZGOW,2001-10-03 22:00,ZGOW 032200Z AUTO 4SM 23/21 A2994 RMK T02300210 IEM_DS3505
ZGOW,2001-10-03 23:00,ZGOW 032300Z AUTO 33004KT 3SM 23/21 A2997 RMK T02300210 IEM_DS3505
ZGOW,2001-10-04 00:00,ZGOW 040000Z AUTO 00000KT 5SM 25/21 A2997 RMK SLP153 T02480209 52017 IEM_DS3505
ZGOW,2001-10-04 01:00,ZGOW 040100Z AUTO 09004KT 4SM 26/21 A3000 RMK T02600210 IEM_DS3505
ZGOW,2001-10-04 02:00,ZGOW 040200Z AUTO 07006KT 5SM 27/19 A3000 RMK T02700190 IEM_DS3505
ZGOW,2001-10-04 03:00,ZGOW 040300Z AUTO 07006KT 6SM 28/20 A3000 RMK SLP152 T02800198 57001 IEM_DS3505
ZGOW,2001-10-04 04:00,ZGOW 040400Z AUTO 05006KT 6SM 28/20 A2997 RMK T02800200 IEM_DS3505
ZGOW,2001-10-04 05:00,ZGOW 040500Z AUTO 08006KT 5SM 29/20 A2994 RMK T02900200 IEM_DS3505
ZGOW,2001-10-04 06:00,ZGOW 040600Z AUTO 14006KT 8SM 29/20 A2994 RMK SLP142 T02930196 57010 IEM_DS3505
ZGOW,2001-10-04 07:00,ZGOW 040700Z AUTO 11008KT 7SM 28/21 A2994 RMK T02800210 IEM_DS3505
ZGOW,2001-10-04 08:00,ZGOW 040800Z AUTO 09006KT 7SM 27/21 A2994 RMK T02700210 IEM_DS3505
ZGOW,2001-10-04 09:00,ZGOW 040900Z AUTO 07006KT 8SM 27/20 A2994 RMK SLP138 T02710205 57004 IEM_DS3505
ZGOW,2001-10-04 10:00,ZGOW 041000Z AUTO 07010KT 5SM 26/22 A2994 RMK T02600220 IEM_DS3505
ZGOW,2001-10-04 11:00,ZGOW 041100Z AUTO 2 1/2SM 24/23 A2997 RMK T02400230 IEM_DS3505
ZGOW,2001-10-04 12:00,ZGOW 041200Z AUTO 07004KT 4SM 24/22 A3000 RMK 60047 SLP157 T02380223 52019 IEM_DS3505
ZGOW,2001-10-04 13:00,ZGOW 041300Z AUTO 33006KT 3SM 24/22 A3000 RMK T02400220 IEM_DS3505
ZGOW,2001-10-04 14:00,ZGOW 041400Z AUTO 4SM 24/22 A3000 RMK T02400220 IEM_DS3505
ZGOW,2001-10-04 15:00,ZGOW 041500Z AUTO 02004KT 6SM 23/21 A3000 RMK SLP157 T02310210 54000 IEM_DS3505
ZGOW,2001-10-04 16:00,ZGOW 041600Z AUTO 33004KT 6SM 23/21 A3000 RMK T02300210 IEM_DS3505
ZGOW,2001-10-04 17:00,ZGOW 041700Z AUTO 34002KT 6SM 23/20 A2997 RMK T02300200 IEM_DS3505
ZGOW,2001-10-04 18:00,ZGOW 041800Z AUTO 00000KT 6SM 22/21 A2997 RMK 60020 SLP150 T02240207 57007 IEM_DS3505
ZGOW,2001-10-04 19:00,ZGOW 041900Z AUTO 07004KT 6SM 22/20 A2994 RMK T02200200 IEM_DS3505
ZGOW,2001-10-04 20:00,ZGOW 042000Z AUTO 6SM 22/20 A2994 RMK T02200200 IEM_DS3505
ZGOW,2001-10-04 21:00,ZGOW 042100Z AUTO 07002KT 6SM 22/21 A2994 RMK 70069 SLP145 T02230206 57005 IEM_DS3505
ZGOW,2001-10-04 22:00,ZGOW 042200Z AUTO 3SM 22/19 A2997 RMK T02200190 IEM_DS3505
ZGOW,2001-10-04 23:00,ZGOW 042300Z AUTO 4SM 23/19 A2997 RMK T02300190 IEM_DS3505
ZGOW,2001-10-05 00:00,ZGOW 050000Z AUTO 07004KT 7SM 23/21 A3000 RMK 70069 SLP158 T02340207 52013 IEM_DS3505
ZGOW,2001-10-05 01:00,ZGOW 050100Z AUTO 07004KT 4SM 25/20 A3000 RMK T02500200 IEM_DS3505
ZGOW,2001-10-05 02:00,ZGOW 050200Z AUTO 06008KT 8SM 26/20 A3000 RMK T02600200 IEM_DS3505
ZGOW,2001-10-05 03:00,ZGOW 050300Z AUTO 07010KT 8SM 27/19 A2997 RMK SLP154 T02740193 57004 IEM_DS3505
ZGOW,2001-10-05 04:00,ZGOW 050400Z AUTO 07012KT 28/20 A2997 RMK T02800200 IEM_DS3505
ZGOW,2001-10-05 05:00,ZGOW 050500Z AUTO 08014KT 28/19 A2994 RMK T02800190 IEM_DS3505
ZGOW,2001-10-05 06:00,ZGOW 050600Z AUTO 07010KT 6SM 27/19 A2994 RMK SLP135 T02740193 57019 IEM_DS3505
ZGOW,2001-10-05 07:00,ZGOW 050700Z AUTO 08012KT 27/20 A2991 RMK T02700200 IEM_DS3505
ZGOW,2001-10-05 08:00,ZGOW 050800Z AUTO 08012KT 27/20 A2991 RMK T02700200 IEM_DS3505
ZGOW,2001-10-05 09:00,ZGOW 050900Z AUTO 07008KT 5SM 26/20 A2994 RMK SLP132 T02650196 57003 IEM_DS3505
ZGOW,2001-10-05 10:00,ZGOW 051000Z AUTO 09012KT 4SM 25/20 A2994 RMK T02500200 IEM_DS3505
ZGOW,2001-10-05 11:00,ZGOW 051100Z AUTO 4SM 25/20 A2994 RMK T02500200 IEM_DS3505
ZGOW,2001-10-05 12:00,ZGOW 051200Z AUTO 07008KT 4SM 25/20 A2997 RMK SLP148 T02500203 52016 IEM_DS3505
ZGOW,2001-10-05 13:00,ZGOW 051300Z AUTO 08012KT 6SM 25/20 A2997 RMK T02500200 IEM_DS3505
ZGOW,2001-10-05 14:00,ZGOW 051400Z AUTO 08010KT 6SM 24/20 A2997 RMK T02400200 IEM_DS3505
ZGOW,2001-10-05 15:00,ZGOW 051500Z AUTO 07006KT 4SM 25/20 A2997 RMK SLP152 T02460197 52004 IEM_DS3505
ZGOW,2001-10-05 16:00,ZGOW 051600Z AUTO 08006KT 6SM 24/20 A2997 RMK T02400200 IEM_DS3505
ZGOW,2001-10-05 17:00,ZGOW 051700Z AUTO 07008KT 6SM 24/19 A2997 RMK T02400190 IEM_DS3505
ZGOW,2001-10-05 18:00,ZGOW 051800Z AUTO 07004KT 6SM 24/19 A2994 RMK SLP145 T02400192 57007 IEM_DS3505
ZGOW,2001-10-05 19:00,ZGOW 051900Z AUTO 35002KT 6SM 23/20 A2994 RMK T02300200 IEM_DS3505
ZGOW,2001-10-05 20:00,ZGOW 052000Z AUTO 3SM 23/20 A2994 RMK T02300200 IEM_DS3505
ZGOW,2001-10-05 21:00,ZGOW 052100Z AUTO 02002KT 6SM 22/20 A2994 RMK SLP144 T02240202 57001 IEM_DS3505
ZGOW,2001-10-05 22:00,ZGOW 052200Z AUTO 2 1/2SM 22/20 A2994 RMK T02200200 IEM_DS3505
ZGOW,2001-10-05 23:00,ZGOW 052300Z AUTO 2SM 23/20 A2997 RMK T02300200 IEM_DS3505
ZGOW,2001-10-06 00:00,ZGOW 060000Z AUTO 04004KT 5SM 24/21 A2997 RMK SLP150 T02440211 52006 IEM_DS3505
ZGOW,2001-10-06 01:00,ZGOW 060100Z AUTO 06008KT 6SM 27/20 A2997 RMK T02700200 IEM_DS3505
ZGOW,2001-10-06 02:00,ZGOW 060200Z AUTO 08006KT 6SM 27/20 A2997 RMK T02700200 IEM_DS3505
ZGOW,2001-10-06 03:00,ZGOW 060300Z AUTO 07008KT 8SM 28/20 A2997 RMK SLP148 T02840197 57002 IEM_DS3505
ZGOW,2001-10-06 04:00,ZGOW 060400Z AUTO 08012KT 6SM 28/21 A2994 RMK T02800210 IEM_DS3505
ZGOW,2001-10-06 05:00,ZGOW 060500Z AUTO 09012KT 6SM 29/21 A2991 RMK T02900210 IEM_DS3505
ZGOW,2001-10-06 06:00,ZGOW 060600Z AUTO 11006KT 9SM 29/21 A2991 RMK SLP128 T02890212 57020 IEM_DS3505
ZGOW,2001-10-06 07:00,ZGOW 060700Z AUTO 10010KT 6SM 29/21 A2988 RMK T02900210 IEM_DS3505
ZGOW,2001-10-06 08:00,ZGOW 060800Z AUTO 11010KT 6SM 28/22 A2988 RMK T02800220 IEM_DS3505
ZGOW,2001-10-06 09:00,ZGOW 060900Z AUTO 07006KT 9SM 27/21 A2991 RMK SLP127 T02670212 57001 IEM_DS3505
ZGOW,2001-10-06 10:00,ZGOW 061000Z AUTO 09004KT 7SM 26/21 A2991 RMK T02600210 IEM_DS3505
ZGOW,2001-10-06 11:00,ZGOW 061100Z AUTO 08006KT 7SM 25/21 A2991 RMK T02500210 IEM_DS3505
ZGOW,2001-10-06 12:00,ZGOW 061200Z AUTO 11004KT 9SM 25/21 A2994 RMK SLP136 T02540210 52009 IEM_DS3505
ZGOW,2001-10-06 13:00,ZGOW 061300Z AUTO 08006KT 7SM 25/21 A2994 RMK T02500210 IEM_DS3505
ZGOW,2001-10-06 15:00,ZGOW 061500Z AUTO 07006KT 9SM 25/21 A2994 RMK SLP140 T02490208 52004 IEM_DS3505
ZGOW,2001-10-06 16:00,ZGOW 061600Z AUTO 08008KT 6SM 24/21 A2994 RMK T02400210 IEM_DS3505
ZGOW,2001-10-06 17:00,ZGOW 061700Z AUTO 08010KT 6SM 24/21 A2991 RMK T02400210 IEM_DS3505
ZGOW,2001-10-06 18:00,ZGOW 061800Z AUTO 07006KT 7SM 24/20 A2991 RMK SLP129 T02420202 57011 IEM_DS3505
ZGOW,2001-10-06 19:00,ZGOW 061900Z AUTO 07006KT 6SM 23/20 A2991 RMK T02300200 IEM_DS3505
ZGOW,2001-10-06 20:00,ZGOW 062000Z AUTO 07004KT 6SM 22/20 A2991 RMK T02200200 IEM_DS3505
ZGOW,2001-10-06 21:00,ZGOW 062100Z AUTO 07006KT 7SM 23/20 A2991 RMK SLP132 T02340200 52003 IEM_DS3505
ZGOW,2001-10-06 23:00,ZGOW 062300Z AUTO 03006KT 6SM 23/20 A2994 RMK T02300200 IEM_DS3505
ZGOW,2001-10-07 00:00,ZGOW 070000Z AUTO 04004KT 9SM 25/20 A2997 RMK SLP151 T02530198 52019 IEM_DS3505
ZGOW,2001-10-07 01:00,ZGOW 070100Z AUTO 05006KT 6SM 26/20 A2997 RMK T02600200 IEM_DS3505
ZGOW,2001-10-07 02:00,ZGOW 070200Z AUTO 09006KT 6SM 27/21 A2997 RMK T02700210 IEM_DS3505
ZGOW,2001-10-07 03:00,ZGOW 070300Z AUTO 07006KT 12SM 27/20 RMK SLP149 T02730202 57002 IEM_DS3505
ZGOW,2001-10-07 04:00,ZGOW 070400Z AUTO 09008KT 6SM 28/21 A2994 RMK T02800210 IEM_DS3505
ZGOW,2001-10-07 05:00,ZGOW 070500Z AUTO 16004KT 6SM 28/21 A2991 RMK T02800210 IEM_DS3505
ZGOW,2001-10-07 06:00,ZGOW 070600Z AUTO 16004KT 12SM 28/20 A2988 RMK SLP116 T02840204 57033 IEM_DS3505
ZGOW,2001-10-07 07:00,ZGOW 070700Z AUTO 14006KT 6SM 28/21 A2985 RMK T02800210 IEM_DS3505
ZGOW,2001-10-07 08:00,ZGOW 070800Z AUTO 13008KT 6SM 27/22 A2985 RMK T02700220 IEM_DS3505
ZGOW,2001-10-07 09:00,ZGOW 070900Z AUTO 16006KT 11SM 27/21 A2985 RMK SLP113 T02730212 57003 IEM_DS3505
ZGOW,2001-10-07 10:00,ZGOW 071000Z AUTO 11006KT 6SM 25/22 A2985 RMK T02500220 IEM_DS3505
ZGOW,2001-10-07 12:00,ZGOW 071200Z AUTO 11006KT 9SM 26/22 A2991 RMK SLP127 T02550219 52014 IEM_DS3505
ZGOW,2001-10-07 13:00,ZGOW 071300Z AUTO 10004KT 6SM 25/22 A2991 RMK T02500220 IEM_DS3505
ZGOW,2001-10-07 14:00,ZGOW 071400Z AUTO 11004KT 6SM 25/22 A2991 RMK T02500220 IEM_DS3505
ZGOW,2001-10-07 15:00,ZGOW 071500Z AUTO 07002KT 9SM 25/22 RMK SLP134 T02510223 52007 IEM_DS3505
ZGOW,2001-10-07 16:00,ZGOW 071600Z AUTO 6SM 24/22 A2991 RMK T02400220 IEM_DS3505
ZGOW,2001-10-07 17:00,ZGOW 071700Z AUTO 6SM 24/22 A2991 RMK T02400220 IEM_DS3505
ZGOW,2001-10-07 18:00,ZGOW 071800Z AUTO 07004KT 9SM 25/22 A2988 RMK SLP125 T02520218 57009 IEM_DS3505
ZGOW,2001-10-07 19:00,ZGOW 071900Z AUTO 05004KT 6SM 24/22 A2988 RMK T02400220 IEM_DS3505
ZGOW,2001-10-07 20:00,ZGOW 072000Z AUTO 04004KT 6SM 24/22 A2988 RMK T02400220 IEM_DS3505
ZGOW,2001-10-07 21:00,ZGOW 072100Z AUTO 07004KT 7SM 25/22 A2988 RMK SLP120 T02490221 57005 IEM_DS3505
ZGOW,2001-10-07 22:00,ZGOW 072200Z AUTO 05004KT 7SM 24/22 A2988 RMK T02400220 IEM_DS3505
ZGOW,2001-10-07 23:00,ZGOW 072300Z AUTO 05002KT 4SM 24/22 A2991 RMK T02400220 IEM_DS3505
ZGOW,2001-10-08 00:00,ZGOW 080000Z AUTO 07004KT 7SM 25/22 A2991 RMK SLP132 T02520222 52012 IEM_DS3505
ZGOW,2001-10-08 01:00,ZGOW 080100Z AUTO 08002KT 4SM 25/22 A2994 RMK T02500220 IEM_DS3505
ZGOW,2001-10-08 02:00,ZGOW 080200Z AUTO 3SM 27/22 A2991 RMK T02700220 IEM_DS3505
ZGOW,2001-10-08 03:00,ZGOW 080300Z AUTO 29004KT 9SM 27/22 A2991 RMK SLP130 T02740224 57002 IEM_DS3505
ZGOW,2001-10-08 04:00,ZGOW 080400Z AUTO 30006KT 4SM 28/23 A2988 RMK T02800230 IEM_DS3505
ZGOW,2001-10-08 05:00,ZGOW 080500Z AUTO 32004KT 29/22 A2985 RMK T02900220 IEM_DS3505
ZGOW,2001-10-08 06:00,ZGOW 080600Z AUTO 25010KT 9SM 30/22 A2983 RMK SLP102 T03000218 57028 IEM_DS3505
ZGOW,2001-10-08 07:00,ZGOW 080700Z AUTO 25006KT 30/23 A2983 RMK T03000230 IEM_DS3505
ZGOW,2001-10-08 09:00,ZGOW 080900Z AUTO 20006KT 8SM 29/23 A2980 RMK SLP093 T02860233 57009 IEM_DS3505
ZGOW,2001-10-08 10:00,ZGOW 081000Z AUTO 18006KT 4SM 27/23 A2983 RMK T02700230 IEM_DS3505
ZGOW,2001-10-08 11:00,ZGOW 081100Z AUTO 18004KT 4SM 26/23 A2983 RMK T02600230 IEM_DS3505
ZGOW,2001-10-08 12:00,ZGOW 081200Z AUTO 20006KT 6SM 26/23 A2985 RMK SLP107 T02620231 52014 IEM_DS3505
ZGOW,2001-10-08 13:00,ZGOW 081300Z AUTO 20004KT 5SM 26/23 A2985 RMK T02600230 IEM_DS3505
ZGOW,2001-10-08 14:00,ZGOW 081400Z AUTO 20002KT 6SM 26/23 A2985 RMK T02600230 IEM_DS3505
ZGOW,2001-10-08 15:00,ZGOW 081500Z AUTO 29002KT 5SM 26/23 A2985 RMK SLP115 T02590234 52008 IEM_DS3505
ZGOW,2001-10-08 16:00,ZGOW 081600Z AUTO 6SM 26/24 A2988 RMK T02600240 IEM_DS3505
ZGOW,2001-10-08 17:00,ZGOW 081700Z AUTO 33002KT 3SM 26/24 A2985 RMK T02600240 IEM_DS3505
ZGOW,2001-10-08 18:00,ZGOW 081800Z AUTO 02004KT 5SM 26/24 A2985 RMK SLP107 T02600235 57008 IEM_DS3505
ZGOW,2001-10-08 19:00,ZGOW 081900Z AUTO 31004KT 6SM 25/23 A2985 RMK T02500230 IEM_DS3505
ZGOW,2001-10-08 20:00,ZGOW 082000Z AUTO 33008KT 6SM 25/21 A2985 RMK T02500210 IEM_DS3505
ZGOW,2001-10-08 21:00,ZGOW 082100Z AUTO 04004KT 6SM 25/20 A2985 RMK SLP108 T02490203 52001 IEM_DS3505
ZGOW,2001-10-08 22:00,ZGOW 082200Z AUTO 32010KT 6SM 24/20 A2985 RMK T02400200 IEM_DS3505
ZGOW,2001-10-08 23:00,ZGOW 082300Z AUTO 32010KT 6SM 24/20 A2988 RMK T02400200 IEM_DS3505
ZGOW,2001-10-09 00:00,ZGOW 090000Z AUTO 07006KT 10SM 25/19 A2988 RMK SLP126 T02480192 52018 IEM_DS3505
ZGOW,2001-10-09 01:00,ZGOW 090100Z AUTO 33012KT 6SM 25/19 A2991 RMK T02500190 IEM_DS3505
ZGOW,2001-10-09 02:00,ZGOW 090200Z AUTO 32010KT 7SM 25/19 A2991 RMK T02500190 IEM_DS3505
ZGOW,2001-10-09 03:00,ZGOW 090300Z AUTO 07006KT 10SM 26/19 A2991 RMK SLP131 T02570187 52005 IEM_DS3505
ZGOW,2001-10-09 04:00,ZGOW 090400Z AUTO 35006KT 6SM 27/20 A2988 RMK T02700200 IEM_DS3505
ZGOW,2001-10-09 05:00,ZGOW 090500Z AUTO 35006KT 6SM 27/19 A2988 RMK T02700190 IEM_DS3505
ZGOW,2001-10-09 06:00,ZGOW 090600Z AUTO 34004KT 14SM 29/19 A2985 RMK SLP111 T02920193 57020 IEM_DS3505
ZGOW,2001-10-09 07:00,ZGOW 090700Z AUTO 07002KT 7SM 28/20 A2985 RMK T02800200 IEM_DS3505
ZGOW,2001-10-09 08:00,ZGOW 090800Z AUTO 09004KT 7SM 27/21 A2985 RMK T02700210 IEM_DS3505
ZGOW,2001-10-09 09:00,ZGOW 090900Z AUTO 11004KT 9SM 28/20 A2985 RMK SLP114 T02760205 52003 IEM_DS3505
ZGOW,2001-10-09 10:00,ZGOW 091000Z AUTO 07004KT 7SM 26/23 A2988 RMK T02600230 IEM_DS3505
ZGOW,2001-10-09 11:00,ZGOW 091100Z AUTO 08008KT 7SM 25/22 A2991 RMK T02500220 IEM_DS3505
ZGOW,2001-10-09 12:00,ZGOW 091200Z AUTO 07006KT 7SM 26/22 A2991 RMK SLP132 T02590220 52018 IEM_DS3505
ZGOW,2001-10-09 13:00,ZGOW 091300Z AUTO 08004KT 7SM 24/22 A2994 RMK T02400220 IEM_DS3505
ZGOW,2001-10-09 14:00,ZGOW 091400Z AUTO 08002KT 7SM 25/22 A2994 RMK T02500220 IEM_DS3505
ZGOW,2001-10-09 15:00,ZGOW 091500Z AUTO 29004KT 7SM 25/19 A2994 RMK SLP143 T02490186 52011 IEM_DS3505
ZGOW,2001-10-09 16:00,ZGOW 091600Z AUTO 35004KT 6SM 25/19 A2994 RMK T02500190 IEM_DS3505
ZGOW,2001-10-09 17:00,ZGOW 091700Z AUTO 33004KT 6SM 24/18 A2994 RMK T02400180 IEM_DS3505
ZGOW,2001-10-09 18:00,ZGOW 091800Z AUTO 04004KT 9SM 24/18 A2994 RMK SLP139 T02450175 57004 IEM_DS3505
ZGOW,2001-10-09 19:00,ZGOW 091900Z AUTO 06004KT 6SM 24/19 A2994 RMK T02400190 IEM_DS3505
ZGOW,2001-10-09 20:00,ZGOW 092000Z AUTO 01004KT 6SM 24/18 A2994 RMK T02400180 IEM_DS3505
ZGOW,2001-10-09 21:00,ZGOW 092100Z AUTO 07004KT 9SM 24/18 A2994 RMK SLP140 T02380183 52001 IEM_DS3505
ZGOW,2001-10-09 22:00,ZGOW 092200Z AUTO 04002KT 6SM 23/17 A2994 RMK T02300170 IEM_DS3505
ZGOW,2001-10-09 23:00,ZGOW 092300Z AUTO 04002KT 6SM 23/17 A2994 RMK T02300170 IEM_DS3505
ZGOW,2001-10-10 00:00,ZGOW 100000Z AUTO 02006KT 11SM 25/18 A2997 RMK SLP157 T02460176 52017 IEM_DS3505
ZGOW,2001-10-10 01:00,ZGOW 100100Z AUTO 02004KT 6SM 25/17 A3000 RMK T02500170 IEM_DS3505
ZGOW,2001-10-10 02:00,ZGOW 100200Z AUTO 06008KT 6SM 27/17 A3003 RMK T02700170 IEM_DS3505
ZGOW,2001-10-10 03:00,ZGOW 100300Z AUTO 07008KT 12SM 28/15 A3000 RMK SLP160 T02800153 52003 IEM_DS3505
ZGOW,2001-10-10 04:00,ZGOW 100400Z AUTO 07008KT 6SM 28/18 A3000 RMK T02800180 IEM_DS3505
ZGOW,2001-10-10 05:00,ZGOW 100500Z AUTO 09010KT 6SM 29/19 A2997 RMK T02900190 IEM_DS3505
ZGOW,2001-10-10 06:00,ZGOW 100600Z AUTO 11006KT 16SM 29/17 A2994 RMK SLP139 T02880171 57021 IEM_DS3505
ZGOW,2001-10-10 08:00,ZGOW 100800Z AUTO 12010KT 6SM 27/20 A2991 RMK T02700200 IEM_DS3505
ZGOW,2001-10-10 09:00,ZGOW 100900Z AUTO 11008KT 14SM 27/20 A2994 RMK SLP135 T02700197 57004 IEM_DS3505
ZGOW,2001-10-10 10:00,ZGOW 101000Z AUTO 09006KT 6SM 25/20 A2994 RMK T02500200 IEM_DS3505
ZGOW,2001-10-10 11:00,ZGOW 101100Z AUTO 09004KT 6SM 24/20 A2994 RMK T02400200 IEM_DS3505
ZGOW,2001-10-10 12:00,ZGOW 101200Z AUTO 07004KT 11SM 25/20 A2997 RMK SLP152 T02520198 52017 IEM_DS3505
ZGOW,2001-10-10 13:00,ZGOW 101300Z AUTO 11006KT 6SM 24/20 A3000 RMK T02400200 IEM_DS3505
ZGOW,2001-10-10 15:00,ZGOW 101500Z AUTO 07006KT 10SM 24/19 A3000 RMK SLP165 T02450194 52013 IEM_DS3505
ZGOW,2001-10-10 16:00,ZGOW 101600Z AUTO 08008KT 6SM 24/20 A3000 RMK T02400200 IEM_DS3505
ZGOW,2001-10-10 17:00,ZGOW 101700Z AUTO 04008KT 6SM 22/20 A3000 RMK T02200200 IEM_DS3505
ZGOW,2001-10-10 18:00,ZGOW 101800Z AUTO 07008KT 9SM 23/19 A2997 RMK SLP155 T02330193 57010 IEM_DS3505
ZGOW,2001-10-10 19:00,ZGOW 101900Z AUTO 04008KT 6SM 22/19 A2997 RMK T02200190 IEM_DS3505
ZGOW,2001-10-10 20:00,ZGOW 102000Z AUTO 04006KT 6SM 21/19 A2997 RMK T02100190 IEM_DS3505
ZGOW,2001-10-10 21:00,ZGOW 102100Z AUTO 07004KT 7SM 22/19 A3000 RMK SLP157 T02160186 52002 IEM_DS3505
ZGOW,2001-10-10 22:00,ZGOW 102200Z AUTO 03006KT 6SM 20/17 A3003 RMK T02000170 IEM_DS3505
ZGOW,2001-10-10 23:00,ZGOW 102300Z AUTO 04006KT 6SM 21/18 A3003 RMK T02100180 IEM_DS3505
ZGOW,2001-10-11 00:00,ZGOW 110000Z AUTO 07006KT 9SM 24/17 A3003 RMK SLP173 T02400169 52016 IEM_DS3505
ZGOW,2001-10-11 01:00,ZGOW 110100Z AUTO 03012KT 6SM 25/16 A3006 RMK T02500160 IEM_DS3505
ZGOW,2001-10-11 02:00,ZGOW 110200Z AUTO 05012KT 6SM 26/16 A3003 RMK T02600160 IEM_DS3505
ZGOW,2001-10-11 03:00,ZGOW 110300Z AUTO 07010KT 11SM 28/14 A3003 RMK SLP169 T02810142 57004 IEM_DS3505
ZGOW,2001-10-11 04:00,ZGOW 110400Z AUTO 08008KT 6SM 28/15 A3000 RMK T02800150 IEM_DS3505
ZGOW,2001-10-11 05:00,ZGOW 110500Z AUTO 08010KT 6SM 28/16 A2997 RMK T02800160 IEM_DS3505
ZGOW,2001-10-11 06:00,ZGOW 110600Z AUTO 11006KT 16SM 28/15 A2994 RMK SLP145 T02850149 57024 IEM_DS3505
ZGOW,2001-10-11 07:00,ZGOW 110700Z AUTO 09010KT 6SM 29/17 A2994 RMK T02900170 IEM_DS3505
ZGOW,2001-10-11 08:00,ZGOW 110800Z AUTO 09008KT 6SM 27/18 A2994 RMK T02700180 IEM_DS3505
ZGOW,2001-10-11 09:00,ZGOW 110900Z AUTO 11006KT 9SM 27/18 A2994 RMK SLP144 T02660185 57001 IEM_DS3505
ZGOW,2001-10-11 11:00,ZGOW 111100Z AUTO 08010KT 6SM 24/19 A2997 RMK T02400190 IEM_DS3505
ZGOW,2001-10-11 12:00,ZGOW 111200Z AUTO 07010KT 7SM 25/19 A3000 RMK SLP161 T02490190 52017 IEM_DS3505
ZGOW,2001-10-11 13:00,ZGOW 111300Z AUTO 08016KT 6SM 24/19 A3003 RMK T02400190 IEM_DS3505
ZGOW,2001-10-11 14:00,ZGOW 111400Z AUTO 07016KT 6SM 24/19 A3003 RMK T02400190 IEM_DS3505
ZGOW,2001-10-11 15:00,ZGOW 111500Z AUTO 07010KT 7SM 24/17 A3003 RMK SLP166 T02400173 52005 IEM_DS3505
ZGOW,2001-10-11 16:00,ZGOW 111600Z AUTO 06012KT 6SM 23/16 A3000 RMK T02300160 IEM_DS3505
ZGOW,2001-10-11 17:01,ZGOW 111701Z AUTO 06006KT 6SM 21/16 A3000 RMK T02100160 IEM_DS3505
ZGOW,2001-10-11 18:00,ZGOW 111800Z AUTO 07004KT 7SM 22/16 RMK SLP155 T02240165 57011 IEM_DS3505
ZGOW,2001-10-11 18:01,ZGOW 111801Z AUTO 05004KT 6SM 21/18 A2997 RMK T02100180 IEM_DS3505
ZGOW,2001-10-11 19:00,ZGOW 111900Z AUTO 04004KT 6SM 19/17 A2997 RMK T01900170 IEM_DS3505
ZGOW,2001-10-11 20:00,ZGOW 112000Z AUTO 08004KT 6SM 20/18 A2997 RMK T02000180 IEM_DS3505
ZGOW,2001-10-11 21:00,ZGOW 112100Z AUTO 02002KT 7SM 21/18 A2997 RMK SLP153 T02140179 57002 IEM_DS3505
ZGOW,2001-10-11 22:00,ZGOW 112200Z AUTO 06002KT 2 1/2SM 19/17 A3000 RMK T01900170 IEM_DS3505
ZGOW,2001-10-11 23:00,ZGOW 112300Z AUTO 34002KT 4SM 20/18 A3000 RMK T02000180 IEM_DS3505
ZGOW,2001-10-12 00:00,ZGOW 120000Z AUTO 09004KT 6SM 23/19 A3003 RMK SLP169 T02300191 52016 IEM_DS3505
ZGOW,2001-10-12 01:00,ZGOW 120100Z AUTO 05008KT 6SM 25/16 A3003 RMK T02500160 IEM_DS3505
ZGOW,2001-10-12 02:00,ZGOW 120200Z AUTO 07010KT 6SM 26/15 A3003 RMK T02600150 IEM_DS3505
ZGOW,2001-10-12 03:00,ZGOW 120300Z AUTO 07008KT 11SM 27/15 A3003 RMK SLP165 T02720147 57004 IEM_DS3505
ZGOW,2001-10-12 04:00,ZGOW 120400Z AUTO 09012KT 6SM 27/16 A3000 RMK T02700160 IEM_DS3505
ZGOW,2001-10-12 05:00,ZGOW 120500Z AUTO 09014KT 6SM 28/16 A2997 RMK T02800160 IEM_DS3505
ZGOW,2001-10-12 06:00,ZGOW 120600Z AUTO 07008KT 12SM 28/16 A2994 RMK SLP137 T02830159 57028 IEM_DS3505
ZGOW,2001-10-12 07:00,ZGOW 120700Z AUTO 08014KT 6SM 28/17 A2991 RMK T02800170 IEM_DS3505
ZGOW,2001-10-12 08:00,ZGOW 120800Z AUTO 09010KT 6SM 27/17 A2991 RMK T02700170 IEM_DS3505
ZGOW,2001-10-12 09:00,ZGOW 120900Z AUTO 11006KT 12SM 27/19 A2991 RMK SLP131 T02670188 57006 IEM_DS3505
ZGOW,2001-10-12 10:00,ZGOW 121000Z AUTO 08008KT 6SM 24/19 A2994 RMK T02400190 IEM_DS3505
ZGOW,2001-10-12 11:00,ZGOW 121100Z AUTO 07008KT 6SM 24/19 A2994 RMK T02400190 IEM_DS3505
ZGOW,2001-10-12 12:00,ZGOW 121200Z AUTO 07006KT 11SM 25/19 A2994 RMK SLP142 T02460192 52011 IEM_DS3505
ZGOW,2001-10-12 13:00,ZGOW 121300Z AUTO 08010KT 6SM 24/19 A2997 RMK T02400190 IEM_DS3505
ZGOW,2001-10-12 14:00,ZGOW 121400Z AUTO 08012KT 6SM 24/19 A2997 RMK T02400190 IEM_DS3505
ZGOW,2001-10-12 15:00,ZGOW 121500Z AUTO 07008KT 10SM 24/19 A2997 RMK SLP148 T02390186 52006 IEM_DS3505
ZGOW,2001-10-12 16:00,ZGOW 121600Z AUTO 08012KT 6SM 23/15 A2997 RMK T02300150 IEM_DS3505
ZGOW,2001-10-12 17:00,ZGOW 121700Z AUTO 08010KT 6SM 22/15 A2994 RMK T02200150 IEM_DS3505
ZGOW,2001-10-12 18:00,ZGOW 121800Z AUTO 07006KT 9SM 23/14 A2994 RMK SLP137 T02290137 57011 IEM_DS3505
ZGOW,2001-10-12 19:00,ZGOW 121900Z AUTO 08002KT 6SM 20/16 A2991 RMK T02000160 IEM_DS3505
ZGOW,2001-10-12 20:00,ZGOW 122000Z AUTO 6SM 20/18 A2991 RMK T02000180 IEM_DS3505
ZGOW,2001-10-12 21:00,ZGOW 122100Z AUTO 04004KT 8SM 20/18 A2991 RMK SLP136 T02030182 57001 IEM_DS3505
ZGOW,2001-10-12 22:00,ZGOW 122200Z AUTO 01004KT 4SM 19/17 A2994 RMK T01900170 IEM_DS3505
ZGOW,2001-10-12 23:00,ZGOW 122300Z AUTO 32002KT 4SM 21/18 A2994 RMK T02100180 IEM_DS3505
ZGOW,2001-10-13 00:00,ZGOW 130000Z AUTO 07002KT 7SM 23/18 A2997 RMK SLP149 T02300177 52013 IEM_DS3505
ZGOW,2001-10-13 01:00,ZGOW 130100Z AUTO 07004KT 6SM 25/16 A2997 RMK T02500160 IEM_DS3505
ZGOW,2001-10-13 02:00,ZGOW 130200Z AUTO 07008KT 6SM 26/15 A2997 RMK T02600150 IEM_DS3505
ZGOW,2001-10-13 03:00,ZGOW 130300Z AUTO 07010KT 14SM 27/16 A2994 RMK SLP143 T02720157 57006 IEM_DS3505
ZGOW,2001-10-13 04:00,ZGOW 130400Z AUTO 09014KT 6SM 27/17 A2991 RMK T02700170 IEM_DS3505
ZGOW,2001-10-13 05:00,ZGOW 130500Z AUTO 09014KT 6SM 28/17 A2988 RMK T02800170 IEM_DS3505
ZGOW,2001-10-13 06:00,ZGOW 130600Z AUTO 11006KT 16SM 28/16 A2988 RMK SLP117 T02770163 57026 IEM_DS3505
ZGOW,2001-10-13 07:00,ZGOW 130700Z AUTO 08012KT 6SM 28/16 A2985 RMK T02800160 IEM_DS3505
ZGOW,2001-10-13 08:00,ZGOW 130800Z AUTO 07010KT 6SM 27/17 A2985 RMK T02700170 IEM_DS3505
ZGOW,2001-10-13 09:00,ZGOW 130900Z AUTO 11006KT 12SM 26/18 A2985 RMK SLP109 T02620177 57008 IEM_DS3505
ZGOW,2001-10-13 10:00,ZGOW 131000Z AUTO 08006KT 6SM 24/18 A2985 RMK T02400180 IEM_DS3505
ZGOW,2001-10-13 11:00,ZGOW 131100Z AUTO 09006KT 6SM 24/18 A2988 RMK T02400180 IEM_DS3505
ZGOW,2001-10-13 12:00,ZGOW 131200Z AUTO 07006KT 10SM 25/18 A2988 RMK SLP122 T02470183 52013 IEM_DS3505
ZGOW,2001-10-13 14:00,ZGOW 131400Z AUTO 07014KT 6SM 24/18 A2991 RMK T02400180 IEM_DS3505
ZGOW,2001-10-13 15:00,ZGOW 131500Z AUTO 07008KT 9SM 24/18 A2991 RMK SLP134 T02390182 52012 IEM_DS3505
ZGOW,2001-10-13 16:00,ZGOW 131600Z AUTO 07014KT 6SM 23/17 A2991 RMK T02300170 IEM_DS3505
ZGOW,2001-10-13 17:00,ZGOW 131700Z AUTO 06010KT 6SM 22/17 A2991 RMK T02200170 IEM_DS3505
ZGOW,2001-10-13 18:00,ZGOW 131800Z AUTO 07006KT 12SM 23/16 A2988 RMK SLP125 T02300165 57009 IEM_DS3505
ZGOW,2001-10-13 19:00,ZGOW 131900Z AUTO 03008KT 6SM 21/17 A2988 RMK T02100170 IEM_DS3505
ZGOW,2001-10-13 20:00,ZGOW 132000Z AUTO 6SM 21/17 A2988 RMK T02100170 IEM_DS3505
ZGOW,2001-10-13 21:00,ZGOW 132100Z AUTO 04004KT 9SM 21/18 A2988 RMK SLP124 T02070183 57001 IEM_DS3505
ZGOW,2001-10-13 22:00,ZGOW 132200Z AUTO 33002KT 6SM 20/16 A2991 RMK T02000160 IEM_DS3505
ZGOW,2001-10-13 23:00,ZGOW 132300Z AUTO 04004KT 6SM 20/17 A2991 RMK T02000170 IEM_DS3505
ZGOW,2001-10-14 00:00,ZGOW 140000Z AUTO 04004KT 7SM 23/18 A2991 RMK SLP134 T02280175 52010 IEM_DS3505
ZGOW,2001-10-14 01:00,ZGOW 140100Z AUTO 35002KT 6SM 23/17 A2991 RMK T02300170 IEM_DS3505
ZGOW,2001-10-14 02:00,ZGOW 140200Z AUTO 06008KT 6SM 25/16 A2994 RMK T02500160 IEM_DS3505
ZGOW,2001-10-14 03:00,ZGOW 140300Z AUTO 04010KT 14SM 26/15 A2991 RMK SLP129 T02650154 57005 IEM_DS3505
ZGOW,2001-10-14 04:00,ZGOW 140400Z AUTO 09014KT 6SM 27/17 A2988 RMK T02700170 IEM_DS3505
ZGOW,2001-10-14 05:00,ZGOW 140500Z AUTO 09014KT 6SM 27/17 A2985 RMK T02700170 IEM_DS3505
ZGOW,2001-10-14 06:00,ZGOW 140600Z AUTO 16004KT 16SM 27/16 A2983 RMK SLP105 T02740161 57024 IEM_DS3505
ZGOW,2001-10-14 07:00,ZGOW 140700Z AUTO 10008KT 6SM 27/18 A2983 RMK T02700180 IEM_DS3505
ZGOW,2001-10-14 08:00,ZGOW 140800Z AUTO 10008KT 6SM 27/18 A2983 RMK T02700180 IEM_DS3505
ZGOW,2001-10-14 09:00,ZGOW 140900Z AUTO 11006KT 12SM 26/18 A2983 RMK SLP103 T02610181 57002 IEM_DS3505
ZGOW,2001-10-14 10:00,ZGOW 141000Z AUTO 08006KT 6SM 24/19 A2985 RMK T02400190 IEM_DS3505
ZGOW,2001-10-14 11:00,ZGOW 141100Z AUTO 09008KT 6SM 24/19 A2985 RMK T02400190 IEM_DS3505
ZGOW,2001-10-14 12:00,ZGOW 141200Z AUTO 07006KT 10SM 24/18 A2988 RMK SLP121 T02450184 52018 IEM_DS3505
ZGOW,2001-10-14 13:00,ZGOW 141300Z AUTO 08010KT 6SM 24/19 A2991 RMK T02400190 IEM_DS3505
ZGOW,2001-10-14 14:00,ZGOW 141400Z AUTO 08010KT 6SM 24/19 A2991 RMK T02400190 IEM_DS3505
ZGOW,2001-10-14 15:00,ZGOW 141500Z AUTO 07006KT 9SM 24/18 A2991 RMK SLP127 T02380185 52006 IEM_DS3505
ZGOW,2001-10-14 16:00,ZGOW 141600Z AUTO 6SM 22/18 A2991 RMK T02200180 IEM_DS3505
ZGOW,2001-10-14 17:00,ZGOW 141700Z AUTO 33004KT 6SM 22/18 A2988 RMK T02200180 IEM_DS3505
ZGOW,2001-10-14 18:00,ZGOW 141800Z AUTO 00000KT 7SM 21/18 A2988 RMK SLP120 T02070181 57007 IEM_DS3505
ZGOW,2001-10-14 19:00,ZGOW 141900Z AUTO 6SM 20/18 A2988 RMK T02000180 IEM_DS3505
ZGOW,2001-10-14 20:00,ZGOW 142000Z AUTO 36002KT 6SM 21/18 A2988 RMK T02100180 IEM_DS3505
ZGOW,2001-10-14 21:00,ZGOW 142100Z AUTO 04004KT 7SM 21/19 A2988 RMK SLP119 T02060189 57001 IEM_DS3505
ZGOW,2001-10-14 22:00,ZGOW 142200Z AUTO 2 1/2SM 19/18 A2988 RMK T01900180 IEM_DS3505
ZGOW,2001-10-14 23:00,ZGOW 142300Z AUTO 2 1/2SM 20/19 A2991 RMK T02000190 IEM_DS3505
ZGOW,2001-10-15 00:00,ZGOW 150000Z AUTO 07002KT 6SM 23/19 A2991 RMK SLP135 T02270193 52016 IEM_DS3505
ZGOW,2001-10-15 01:00,ZGOW 150100Z AUTO 36002KT 3SM 24/19 A2991 RMK T02400190 IEM_DS3505
ZGOW,2001-10-15 02:00,ZGOW 150200Z AUTO 01002KT 6SM 26/18 A2991 RMK T02600180 IEM_DS3505
ZGOW,2001-10-15 03:00,ZGOW 150300Z AUTO 02002KT 9SM 28/17 A2991 RMK SLP132 T02770173 57003 IEM_DS3505
ZGOW,2001-10-15 04:00,ZGOW 150400Z AUTO 10006KT 6SM 29/14 A2988 RMK T02900140 IEM_DS3505
ZGOW,2001-10-15 05:00,ZGOW 150500Z AUTO 13006KT 6SM 28/14 A2985 RMK T02800140 IEM_DS3505
ZGOW,2001-10-15 06:00,ZGOW 150600Z AUTO 11006KT 11SM 28/16 A2983 RMK SLP097 T02830155 57035 IEM_DS3505
ZGOW,2001-10-15 07:00,ZGOW 150700Z AUTO 13006KT 6SM 28/17 A2983 RMK T02800170 IEM_DS3505
ZGOW,2001-10-15 08:00,ZGOW 150800Z AUTO 12006KT 6SM 27/18 A2980 RMK T02700180 IEM_DS3505
ZGOW,2001-10-15 09:00,ZGOW 150900Z AUTO 09004KT 9SM 27/18 A2983 RMK SLP096 T02660178 57001 IEM_DS3505
ZGOW,2001-10-15 10:00,ZGOW 151000Z AUTO 12004KT 25/19 A2983 RMK T02500190 IEM_DS3505
ZGOW,2001-10-15 11:00,ZGOW 151100Z AUTO 08002KT 6SM 24/19 A2985 RMK T02400190 IEM_DS3505
ZGOW,2001-10-15 12:00,ZGOW 151200Z AUTO 00000KT 9SM 25/19 A2985 RMK SLP112 T02470191 52016 IEM_DS3505
ZGOW,2001-10-15 13:00,ZGOW 151300Z AUTO 6SM 23/20 A2988 RMK T02300200 IEM_DS3505
ZGOW,2001-10-15 14:00,ZGOW 151400Z AUTO 6SM 23/20 A2988 RMK T02300200 IEM_DS3505
ZGOW,2001-10-15 15:00,ZGOW 151500Z AUTO 6SM 23/20 A2988 RMK T02300200 IEM_DS3505
ZGOW,2001-10-15 16:00,ZGOW 151600Z AUTO 4SM 23/20 A2985 RMK T02300200 IEM_DS3505
ZGOW,2001-10-15 17:00,ZGOW 151700Z AUTO 33002KT 5SM 23/20 A2985 RMK T02300200 IEM_DS3505
ZGOW,2001-10-15 18:00,ZGOW 151800Z AUTO 25004KT 7SM 21/20 A2983 RMK SLP107 T02130196 57008 IEM_DS3505
ZGOW,2001-10-15 19:00,ZGOW 151900Z AUTO 32006KT 2SM 22/19 A2983 RMK T02200190 IEM_DS3505
ZGOW,2001-10-15 20:00,ZGOW 152000Z AUTO 32008KT 3SM 21/19 A2980 RMK T02100190 IEM_DS3505
ZGOW,2001-10-15 21:00,ZGOW 152100Z AUTO 29004KT 6SM 22/19 A2980 RMK SLP094 T02240190 57013 IEM_DS3505
ZGOW,2001-10-15 22:00,ZGOW 152200Z AUTO 31004KT 3SM 21/19 A2980 RMK T02100190 IEM_DS3505
ZGOW,2001-10-15 23:00,ZGOW 152300Z AUTO 34002KT 3SM 22/19 A2983 RMK T02200190 IEM_DS3505
ZGOW,2001-10-16 00:00,ZGOW 160000Z AUTO 27004KT 6SM 23/19 A2983 RMK SLP105 T02320188 52011 IEM_DS3505
ZGOW,2001-10-16 01:00,ZGOW 160100Z AUTO 32008KT 24/18 A2983 RMK T02400180 IEM_DS3505
ZGOW,2001-10-16 02:00,ZGOW 160200Z AUTO 32008KT 9SM 27/18 A2983 RMK T02700180 IEM_DS3505
ZGOW,2001-10-16 03:00,ZGOW 160300Z AUTO 02004KT 9SM 30/17 A2980 RMK SLP091 T02980173 57014 IEM_DS3505
ZGOW,2001-10-16 04:00,ZGOW 160400Z AUTO 30010KT 6SM 31/16 A2977 RMK T03100160 IEM_DS3505
ZGOW,2001-10-16 05:00,ZGOW 160500Z AUTO 32010KT 6SM 32/17 A2971 RMK T03200170 IEM_DS3505
ZGOW,2001-10-16 06:00,ZGOW 160600Z AUTO 27008KT 12SM 32/17 A2968 RMK SLP058 T03160171 57033 IEM_DS3505
ZGOW,2001-10-16 07:00,ZGOW 160700Z AUTO 29008KT 6SM 32/17 A2968 RMK T03200170 IEM_DS3505
ZGOW,2001-10-16 08:00,ZGOW 160800Z AUTO 29008KT 6SM 33/17 A2968 RMK T03300170 IEM_DS3505
ZGOW,2001-10-16 09:00,ZGOW 160900Z AUTO 29008KT 10SM 31/20 A2971 RMK SLP063 T03090196 52005 IEM_DS3505
ZGOW,2001-10-16 10:00,ZGOW 161000Z AUTO 27006KT 5SM 30/18 A2971 RMK T03000180 IEM_DS3505
ZGOW,2001-10-16 11:00,ZGOW 161100Z AUTO 28006KT 29/17 A2974 RMK T02900170 IEM_DS3505
ZGOW,2001-10-16 12:00,ZGOW 161200Z AUTO 29004KT 9SM 28/17 A2977 RMK SLP080 T02750174 52017 IEM_DS3505
ZGOW,2001-10-16 13:00,ZGOW 161300Z AUTO 32010KT 6SM 27/17 A2980 RMK T02700170 IEM_DS3505
ZGOW,2001-10-16 14:00,ZGOW 161400Z AUTO 32008KT 6SM 27/16 A2980 RMK T02700160 IEM_DS3505
ZGOW,2001-10-16 15:00,ZGOW 161500Z AUTO 34006KT 9SM 27/15 A2980 RMK SLP098 T02710150 52018 IEM_DS3505
ZGOW,2001-10-16 16:00,ZGOW 161600Z AUTO 34004KT 6SM 25/16 A2983 RMK T02500160 IEM_DS3505
ZGOW,2001-10-16 17:00,ZGOW 161700Z AUTO 34004KT 6SM 25/16 A2983 RMK T02500160 IEM_DS3505
ZGOW,2001-10-16 18:00,ZGOW 161800Z AUTO 02002KT 7SM 24/16 A2983 RMK SLP097 T02420164 57001 IEM_DS3505
ZGOW,2001-10-16 19:00,ZGOW 161900Z AUTO 33006KT 6SM 24/16 A2983 RMK T02400160 IEM_DS3505
ZGOW,2001-10-16 20:00,ZGOW 162000Z AUTO 32004KT 6SM 23/17 A2983 RMK T02300170 IEM_DS3505
ZGOW,2001-10-16 21:00,ZGOW 162100Z AUTO 34004KT 7SM 24/16 A2983 RMK SLP103 T02360165 52006 IEM_DS3505
ZGOW,2001-10-16 22:00,ZGOW 162200Z AUTO 32008KT 23/17 A2985 RMK T02300170 IEM_DS3505
ZGOW,2001-10-16 23:00,ZGOW 162300Z AUTO 32008KT 3SM 23/17 A2988 RMK T02300170 IEM_DS3505
ZGOW,2001-10-17 00:00,ZGOW 170000Z AUTO 02006KT 6SM 25/16 A2988 RMK SLP125 T02460165 52022 IEM_DS3505
ZGOW,2001-10-17 01:00,ZGOW 170100Z AUTO 33008KT 2 1/2SM 25/18 A2991 RMK T02500180 IEM_DS3505
ZGOW,2001-10-17 02:00,ZGOW 170200Z AUTO 32008KT 3SM 27/17 A2991 RMK T02700170 IEM_DS3505
ZGOW,2001-10-17 03:00,ZGOW 170300Z AUTO 02004KT 6SM 29/17 A2991 RMK SLP124 T02880171 57001 IEM_DS3505
ZGOW,2001-10-17 04:00,ZGOW 170400Z AUTO 31004KT 3SM 29/17 A2988 RMK T02900170 IEM_DS3505
ZGOW,2001-10-17 05:00,ZGOW 170500Z AUTO 09004KT 5SM 30/16 A2985 RMK T03000160 IEM_DS3505
ZGOW,2001-10-17 06:00,ZGOW 170600Z AUTO 18004KT 6SM 30/18 A2983 RMK SLP099 T03000175 57025 IEM_DS3505
ZGOW,2001-10-17 07:00,ZGOW 170700Z AUTO 13008KT 6SM 29/18 A2983 RMK T02900180 IEM_DS3505
ZGOW,2001-10-17 08:00,ZGOW 170800Z AUTO 13010KT 6SM 27/19 A2983 RMK T02700190 IEM_DS3505
ZGOW,2001-10-17 09:00,ZGOW 170900Z AUTO 11006KT 6SM 27/20 A2985 RMK SLP105 T02670195 52006 IEM_DS3505
ZGOW,2001-10-17 10:00,ZGOW 171000Z AUTO 08006KT 6SM 25/18 A2985 RMK T02500180 IEM_DS3505
ZGOW,2001-10-17 11:00,ZGOW 171100Z AUTO 08008KT 6SM 24/19 A2988 RMK T02400190 IEM_DS3505
ZGOW,2001-10-17 12:00,ZGOW 171200Z AUTO 07004KT 6SM 25/19 A2991 RMK SLP132 T02520186 52027 IEM_DS3505
ZGOW,2001-10-17 13:00,ZGOW 171300Z AUTO 08012KT 6SM 24/17 A2994 RMK T02400170 IEM_DS3505
ZGOW,2001-10-17 14:00,ZGOW 171400Z AUTO 08012KT 6SM 24/18 A2994 RMK T02400180 IEM_DS3505
ZGOW,2001-10-17 15:00,ZGOW 171500Z AUTO 07006KT 7SM 24/18 A2997 RMK SLP146 T02440183 52014 IEM_DS3505
ZGOW,2001-10-17 16:00,ZGOW 171600Z AUTO 08012KT 6SM 24/19 A2994 RMK T02400190 IEM_DS3505
ZGOW,2001-10-17 17:00,ZGOW 171700Z AUTO 07010KT 6SM 23/19 A2994 RMK T02300190 IEM_DS3505
ZGOW,2001-10-17 18:00,ZGOW 171800Z AUTO 07008KT 7SM 24/18 A2994 RMK SLP144 T02390180 57002 IEM_DS3505
ZGOW,2001-10-17 19:00,ZGOW 171900Z AUTO 05008KT 6SM 23/18 A2994 RMK T02300180 IEM_DS3505
ZGOW,2001-10-17 20:00,ZGOW 172000Z AUTO 05006KT 6SM 23/17 A2994 RMK T02300170 IEM_DS3505
ZGOW,2001-10-17 21:00,ZGOW 172100Z AUTO 07008KT 7SM 23/17 A2997 RMK SLP147 T02340168 52003 IEM_DS3505
ZGOW,2001-10-17 22:00,ZGOW 172200Z AUTO 04004KT 6SM 21/17 A3000 RMK T02100170 IEM_DS3505
ZGOW,2001-10-17 23:00,ZGOW 172300Z AUTO 06002KT 6SM 21/18 A3000 RMK T02100180 IEM_DS3505
ZGOW,2001-10-18 00:00,ZGOW 180000Z AUTO 04004KT 7SM 24/17 A3003 RMK SLP170 T02390166 52023 IEM_DS3505
ZGOW,2001-10-18 01:00,ZGOW 180100Z AUTO 05008KT 7SM 24/17 A3006 RMK T02400170 IEM_DS3505
ZGOW,2001-10-18 02:00,ZGOW 180200Z AUTO 06010KT 6SM 25/17 A3006 RMK T02500170 IEM_DS3505
ZGOW,2001-10-18 03:00,ZGOW 180300Z AUTO 07008KT 7SM 26/17 A3006 RMK SLP176 T02620171 52006 IEM_DS3505
ZGOW,2001-10-18 04:00,ZGOW 180400Z AUTO 07008KT 6SM 26/17 A3003 RMK T02600170 IEM_DS3505
ZGOW,2001-10-18 05:00,ZGOW 180500Z AUTO 09008KT 6SM 27/17 A3003 RMK T02700170 IEM_DS3505
ZGOW,2001-10-18 06:00,ZGOW 180600Z AUTO 11008KT 9SM 27/17 A3000 RMK SLP155 T02660174 57021 IEM_DS3505
ZGOW,2001-10-18 07:00,ZGOW 180700Z AUTO 12012KT 7SM 26/18 A2997 RMK T02600180 IEM_DS3505
ZGOW,2001-10-18 08:00,ZGOW 180800Z AUTO 08014KT 6SM 25/17 A3000 RMK T02500170 IEM_DS3505
ZGOW,2001-10-18 09:00,ZGOW 180900Z AUTO 11008KT 9SM 24/17 A3000 RMK SLP160 T02440170 52005 IEM_DS3505
ZGOW,2001-10-18 10:00,ZGOW 181000Z AUTO 09012KT 6SM 23/17 A3000 RMK T02300170 IEM_DS3505
ZGOW,2001-10-18 11:00,ZGOW 181100Z AUTO 09012KT 6SM 23/17 A3003 RMK T02300170 IEM_DS3505
ZGOW,2001-10-18 12:00,ZGOW 181200Z AUTO 07008KT 8SM 23/17 RMK SLP177 T02320169 52017 IEM_DS3505
ZGOW,2001-10-18 13:00,ZGOW 181300Z AUTO 08012KT 6SM 23/17 A3006 RMK T02300170 IEM_DS3505
ZGOW,2001-10-18 14:00,ZGOW 181400Z AUTO 08014KT 6SM 22/16 A3009 RMK T02200160 IEM_DS3505
ZGOW,2001-10-18 15:00,ZGOW 181500Z AUTO 09008KT 8SM 23/15 A3009 RMK SLP187 T02260151 52010 IEM_DS3505
ZGOW,2001-10-18 16:00,ZGOW 181600Z AUTO 07014KT 6SM 22/14 A3009 RMK T02200140 IEM_DS3505
ZGOW,2001-10-18 17:00,ZGOW 181700Z AUTO 07012KT 6SM 22/11 A3009 RMK T02200110 IEM_DS3505
ZGOW,2001-10-18 18:00,ZGOW 181800Z AUTO 07008KT 8SM 22/12 A3009 RMK SLP189 T02210118 52002 IEM_DS3505
ZGOW,2001-10-18 19:00,ZGOW 181900Z AUTO 06008KT 6SM 21/13 A3009 RMK T02100130 IEM_DS3505
ZGOW,2001-10-18 20:00,ZGOW 182000Z AUTO 06006KT 6SM 21/13 A3009 RMK T02100130 IEM_DS3505
ZGOW,2001-10-18 21:00,ZGOW 182100Z AUTO 07004KT 8SM 22/12 A3009 RMK SLP194 T02160122 52005 IEM_DS3505
ZGOW,2001-10-18 22:00,ZGOW 182200Z AUTO 04006KT 6SM 19/13 A3012 RMK T01900130 IEM_DS3505
ZGOW,2001-10-18 23:00,ZGOW 182300Z AUTO 05006KT 6SM 21/13 A3015 RMK T02100130 IEM_DS3505
ZGOW,2001-10-19 00:00,ZGOW 190000Z AUTO 07008KT 10SM 23/13 A3015 RMK SLP217 T02300127 52023 IEM_DS3505
ZGOW,2001-10-19 01:00,ZGOW 190100Z AUTO 05010KT 6SM 24/14 A3018 RMK T02400140 IEM_DS3505
ZGOW,2001-10-19 02:00,ZGOW 190200Z AUTO 06010KT 6SM 24/14 A3018 RMK T02400140 IEM_DS3505
ZGOW,2001-10-19 03:00,ZGOW 190300Z AUTO 11006KT 17SM 25/14 A3015 RMK SLP212 T02500142 57005 IEM_DS3505
ZGOW,2001-10-19 04:00,ZGOW 190400Z AUTO 07012KT 6SM 26/15 A3012 RMK T02600150 IEM_DS3505
ZGOW,2001-10-19 05:00,ZGOW 190500Z AUTO 08012KT 6SM 26/16 A3009 RMK T02600160 IEM_DS3505
ZGOW,2001-10-19 06:00,ZGOW 190600Z AUTO 11004KT 17SM 26/15 A3006 RMK SLP181 T02650146 57031 IEM_DS3505
ZGOW,2001-10-19 07:00,ZGOW 190700Z AUTO 12010KT 6SM 26/18 A3006 RMK T02600180 IEM_DS3505
ZGOW,2001-10-19 08:00,ZGOW 190800Z AUTO 12008KT 6SM 25/18 A3003 RMK T02500180 IEM_DS3505
ZGOW,2001-10-19 09:00,ZGOW 190900Z AUTO 11006KT 16SM 25/18 A3003 RMK SLP170 T02470175 57011 IEM_DS3505
ZGOW,2001-10-19 10:00,ZGOW 191000Z AUTO 09010KT 6SM 23/18 A3003 RMK T02300180 IEM_DS3505
ZGOW,2001-10-19 11:00,ZGOW 191100Z AUTO 08010KT 6SM 23/17 A3006 RMK T02300170 IEM_DS3505
ZGOW,2001-10-19 12:00,ZGOW 191200Z AUTO 07008KT 12SM 23/17 A3009 RMK SLP189 T02330170 52019 IEM_DS3505
ZGOW,2001-10-19 13:00,ZGOW 191300Z AUTO 07014KT 6SM 23/18 A3009 RMK T02300180 IEM_DS3505
ZGOW,2001-10-19 14:00,ZGOW 191400Z AUTO 08014KT 6SM RMK IEM_DS3505
ZGOW,2001-10-19 15:00,ZGOW 191500Z AUTO 07008KT 10SM 22/16 A3012 RMK SLP201 T02250157 52012 IEM_DS3505
ZGOW,2001-10-19 16:00,ZGOW 191600Z AUTO 07014KT 6SM 22/14 A3012 RMK T02200140 IEM_DS3505
ZGOW,2001-10-19 18:00,ZGOW 191800Z AUTO 07004KT 8SM 21/15 RMK SLP195 T02120146 57006 IEM_DS3505
ZGOW,2001-10-19 21:00,ZGOW 192100Z AUTO 09004KT 10SM 20/13 A3009 RMK SLP187 T02050134 57008 IEM_DS3505
ZGOW,2001-10-19 22:00,ZGOW 192200Z AUTO 02004KT 6SM 19/13 A3009 RMK T01900130 IEM_DS3505
ZGOW,2001-10-19 23:00,ZGOW 192300Z AUTO 6SM 19/14 A3009 RMK T01900140 IEM_DS3505
ZGOW,2001-10-20 00:00,ZGOW 200000Z AUTO 04006KT 10SM 22/16 A3009 RMK SLP192 T02230158 52005 IEM_DS3505
ZGOW,2001-10-20 01:00,ZGOW 200100Z AUTO 36004KT 6SM 23/14 A3009 RMK T02300140 IEM_DS3505
ZGOW,2001-10-20 02:00,ZGOW 200200Z AUTO 04008KT 6SM 25/15 A3009 RMK T02500150 IEM_DS3505
ZGOW,2001-10-20 03:00,ZGOW 200300Z AUTO 11006KT 12SM 26/14 A3006 RMK SLP183 T02580143 57009 IEM_DS3505
ZGOW,2001-10-20 04:00,ZGOW 200400Z AUTO 09008KT 6SM 26/15 A3006 RMK T02600150 IEM_DS3505
ZGOW,2001-10-20 05:00,ZGOW 200500Z AUTO 10008KT 6SM 27/15 A3003 RMK T02700150 IEM_DS3505
ZGOW,2001-10-20 06:00,ZGOW 200600Z AUTO 09006KT 16SM 26/17 A3000 RMK SLP162 T02640174 57021 IEM_DS3505
ZGOW,2001-10-20 07:00,ZGOW 200700Z AUTO 08010KT 6SM 27/18 A2997 RMK T02700180 IEM_DS3505
ZGOW,2001-10-20 08:00,ZGOW 200800Z AUTO 11012KT 6SM 25/18 A2997 RMK T02500180 IEM_DS3505
ZGOW,2001-10-20 09:00,ZGOW 200900Z AUTO 11006KT 12SM 25/18 A3000 RMK SLP160 T02510183 57002 IEM_DS3505
ZGOW,2001-10-20 11:00,ZGOW 201100Z AUTO 08008KT 6SM 23/18 A3003 RMK T02300180 IEM_DS3505
ZGOW,2001-10-20 12:00,ZGOW 201200Z AUTO 07004KT 10SM 24/19 A3006 RMK SLP178 T02360189 52018 IEM_DS3505
ZGOW,2001-10-20 13:00,ZGOW 201300Z AUTO 08006KT 6SM 23/19 A3006 RMK T02300190 IEM_DS3505
ZGOW,2001-10-20 14:00,ZGOW 201400Z AUTO 09006KT 7SM 23/20 A3009 RMK T02300200 IEM_DS3505
ZGOW,2001-10-20 15:00,ZGOW 201500Z AUTO 07006KT 9SM 23/19 A3009 RMK SLP189 T02320193 52011 IEM_DS3505
ZGOW,2001-10-20 16:00,ZGOW 201600Z AUTO 06008KT 7SM 22/20 A3006 RMK T02200200 IEM_DS3505
ZGOW,2001-10-20 17:00,ZGOW 201700Z AUTO 04006KT 6SM 21/19 A3003 RMK T02100190 IEM_DS3505
ZGOW,2001-10-20 18:00,ZGOW 201800Z AUTO 07006KT 9SM 22/18 A3003 RMK SLP168 T02200185 57021 IEM_DS3505
ZGOW,2001-10-20 19:00,ZGOW 201900Z AUTO 36004KT 6SM 21/18 A3000 RMK T02100180 IEM_DS3505
ZGOW,2001-10-20 20:00,ZGOW 202000Z AUTO 33004KT 6SM 20/18 A3000 RMK T02000180 IEM_DS3505
ZGOW,2001-10-20 21:00,ZGOW 202100Z AUTO 07002KT 8SM 20/18 A3000 RMK SLP161 T02030182 57007 IEM_DS3505
ZGOW,2001-10-20 22:00,ZGOW 202200Z AUTO 32002KT 6SM 20/18 A3000 RMK T02000180 IEM_DS3505
ZGOW,2001-10-20 23:00,ZGOW 202300Z AUTO 4SM 20/18 A3003 RMK T02000180 IEM_DS3505
ZGOW,2001-10-21 00:00,ZGOW 210000Z AUTO 07004KT 7SM 22/18 A3003 RMK SLP171 T02240184 52010 IEM_DS3505
ZGOW,2001-10-21 01:00,ZGOW 210100Z AUTO 04004KT 6SM 24/18 A3003 RMK T02400180 IEM_DS3505
ZGOW,2001-10-21 02:00,ZGOW 210200Z AUTO 07006KT 6SM 26/18 A3003 RMK T02600180 IEM_DS3505
ZGOW,2001-10-21 03:00,ZGOW 210300Z AUTO 07008KT 11SM 27/17 A3003 RMK SLP170 T02710171 57001 IEM_DS3505
ZGOW,2001-10-21 04:00,ZGOW 210400Z AUTO 07008KT 6SM 28/19 A3000 RMK T02800190 IEM_DS3505
ZGOW,2001-10-21 05:00,ZGOW 210500Z AUTO 08014KT 6SM 28/19 A2997 RMK T02800190 IEM_DS3505
ZGOW,2001-10-21 06:00,ZGOW 210600Z AUTO 11008KT 12SM 28/19 A2994 RMK SLP142 T02810192 57028 IEM_DS3505
ZGOW,2001-10-21 07:00,ZGOW 210700Z AUTO 09012KT 6SM 28/19 A2994 RMK T02800190 IEM_DS3505
ZGOW,2001-10-21 08:00,ZGOW 210800Z AUTO 10010KT 6SM 27/20 A2994 RMK T02700200 IEM_DS3505
ZGOW,2001-10-21 09:00,ZGOW 210900Z AUTO 04006KT 12SM 27/20 A2997 RMK SLP145 T02660195 52003 IEM_DS3505
ZGOW,2001-10-21 10:00,ZGOW 211000Z AUTO 08004KT 6SM 24/20 A2997 RMK T02400200 IEM_DS3505
ZGOW,2001-10-21 11:00,ZGOW 211100Z AUTO 08004KT 6SM 24/20 A2997 RMK T02400200 IEM_DS3505
ZGOW,2001-10-21 12:00,ZGOW 211200Z AUTO 07008KT 10SM 24/21 A3000 RMK SLP159 T02420207 52014 IEM_DS3505
ZGOW,2001-10-21 13:00,ZGOW 211300Z AUTO 07012KT 6SM 23/21 A3000 RMK T02300210 IEM_DS3505
ZGOW,2001-10-21 14:00,ZGOW 211400Z AUTO 04006KT 6SM 22/21 A3000 RMK T02200210 IEM_DS3505
ZGOW,2001-10-21 15:00,ZGOW 211500Z AUTO 07004KT 10SM 23/20 A3000 RMK SLP160 T02310205 52001 IEM_DS3505
ZGOW,2001-10-21 16:00,ZGOW 211600Z AUTO 07006KT 6SM 22/20 A3000 RMK T02200200 IEM_DS3505
ZGOW,2001-10-21 17:00,ZGOW 211700Z AUTO 07004KT 6SM 21/19 A3000 RMK T02100190 IEM_DS3505
ZGOW,2001-10-21 18:00,ZGOW 211800Z AUTO 07004KT 9SM 22/19 A3000 RMK SLP159 T02250192 57001 IEM_DS3505
ZGOW,2001-10-21 19:00,ZGOW 211900Z AUTO 03004KT 6SM 20/18 A3000 RMK T02000180 IEM_DS3505
ZGOW,2001-10-21 20:00,ZGOW 212000Z AUTO 03004KT 6SM 19/18 A3000 RMK T01900180 IEM_DS3505
ZGOW,2001-10-21 21:00,ZGOW 212100Z AUTO 04002KT 7SM 20/19 A3000 RMK SLP162 T02030189 52003 IEM_DS3505
ZGOW,2001-10-21 22:00,ZGOW 212200Z AUTO 01002KT 4SM 20/19 A3000 RMK T02000190 IEM_DS3505
ZGOW,2001-10-21 23:00,ZGOW 212300Z AUTO 01002KT 3SM 21/19 A3003 RMK T02100190 IEM_DS3505
ZGOW,2001-10-22 00:00,ZGOW 220000Z AUTO 34002KT 6SM 23/20 A3006 RMK SLP176 T02290200 52014 IEM_DS3505
ZGOW,2001-10-22 01:00,ZGOW 220100Z AUTO 05006KT 6SM 24/19 A3006 RMK T02400190 IEM_DS3505
ZGOW,2001-10-22 02:00,ZGOW 220200Z AUTO 07006KT 6SM 26/19 A3006 RMK T02600190 IEM_DS3505
ZGOW,2001-10-22 03:00,ZGOW 220300Z AUTO 04008KT 11SM 28/15 A3006 RMK SLP172 T02820151 57004 IEM_DS3505
ZGOW,2001-10-22 04:00,ZGOW 220400Z AUTO 07008KT 6SM 28/17 A3003 RMK T02800170 IEM_DS3505
ZGOW,2001-10-22 06:00,ZGOW 220600Z AUTO 07006KT 12SM 28/17 A2997 RMK SLP151 T02810166 57021 IEM_DS3505
ZGOW,2001-10-22 07:00,ZGOW 220700Z AUTO 13010KT 6SM 27/20 A2997 RMK T02700200 IEM_DS3505
ZGOW,2001-10-22 08:00,ZGOW 220800Z AUTO 11008KT 6SM 26/20 A2997 RMK T02600200 IEM_DS3505
ZGOW,2001-10-22 09:00,ZGOW 220900Z AUTO 09006KT 11SM 26/20 A3000 RMK SLP156 T02550197 52005 IEM_DS3505
ZGOW,2001-10-22 11:00,ZGOW 221100Z AUTO 09012KT 6SM 24/19 A3000 RMK T02400190 IEM_DS3505
ZGOW,2001-10-22 12:00,ZGOW 221200Z AUTO 07008KT 10SM 24/19 A3003 RMK SLP169 T02420191 52013 IEM_DS3505
ZGOW,2001-10-22 13:00,ZGOW 221300Z AUTO 09008KT 6SM 23/20 A3006 RMK T02300200 IEM_DS3505
ZGOW,2001-10-22 14:00,ZGOW 221400Z AUTO 09012KT 6SM 23/20 A3006 RMK T02300200 IEM_DS3505
ZGOW,2001-10-22 15:00,ZGOW 221500Z AUTO 07008KT 10SM 24/19 RMK SLP180 T02350193 52011 IEM_DS3505
ZGOW,2001-10-22 16:00,ZGOW 221600Z AUTO 06010KT 6SM 23/19 A3006 RMK T02300190 IEM_DS3505
ZGOW,2001-10-22 17:00,ZGOW 221700Z AUTO 05006KT 6SM 21/18 A3003 RMK T02100180 IEM_DS3505
ZGOW,2001-10-22 18:00,ZGOW 221800Z AUTO 04004KT 9SM 22/18 A3003 RMK SLP164 T02230185 57016 IEM_DS3505
ZGOW,2001-10-22 19:00,ZGOW 221900Z AUTO 03004KT 6SM 21/18 A3000 RMK T02100180 IEM_DS3505
ZGOW,2001-10-22 20:00,ZGOW 222000Z AUTO 6SM 22/17 A3000 RMK T02200170 IEM_DS3505
ZGOW,2001-10-22 21:00,ZGOW 222100Z AUTO 07004KT 6SM 22/18 A3003 RMK SLP165 T02170180 52001 IEM_DS3505
ZGOW,2001-10-22 22:00,ZGOW 222200Z AUTO 05006KT 6SM 20/17 A3003 RMK T02000170 IEM_DS3505
ZGOW,2001-10-22 23:00,ZGOW 222300Z AUTO 03006KT 6SM 21/18 A3006 RMK T02100180 IEM_DS3505
ZGOW,2001-10-23 00:00,ZGOW 230000Z AUTO 07006KT 5SM 24/18 A3006 RMK SLP182 T02400185 52017 IEM_DS3505
ZGOW,2001-10-23 01:00,ZGOW 230100Z AUTO 03010KT 6SM 25/18 A3009 RMK T02500180 IEM_DS3505
ZGOW,2001-10-23 02:00,ZGOW 230200Z AUTO 03010KT 6SM 27/17 A3009 RMK T02700170 IEM_DS3505
ZGOW,2001-10-23 03:00,ZGOW 230300Z AUTO 04006KT 7SM 28/18 A3006 RMK SLP183 T02750181 52001 IEM_DS3505
ZGOW,2001-10-23 04:00,ZGOW 230400Z AUTO 08012KT 6SM 28/19 A3006 RMK T02800190 IEM_DS3505
ZGOW,2001-10-23 05:00,ZGOW 230500Z AUTO 09010KT 6SM 29/20 A3003 RMK T02900200 IEM_DS3505
ZGOW,2001-10-23 06:00,ZGOW 230600Z AUTO 09006KT 11SM 29/18 A3000 RMK SLP162 T02900185 57021 IEM_DS3505
ZGOW,2001-10-23 07:00,ZGOW 230700Z AUTO 14008KT 6SM 28/20 A3000 RMK T02800200 IEM_DS3505
ZGOW,2001-10-23 08:00,ZGOW 230800Z AUTO 12008KT 6SM 28/20 A2997 RMK T02800200 IEM_DS3505
ZGOW,2001-10-23 09:00,ZGOW 230900Z AUTO 07006KT 7SM 27/20 A3000 RMK SLP157 T02710198 57005 IEM_DS3505
ZGOW,2001-10-23 10:00,ZGOW 231000Z AUTO 12002KT 4SM 25/20 A3000 RMK T02500200 IEM_DS3505
ZGOW,2001-10-23 11:00,ZGOW 231100Z AUTO 07006KT 4SM 24/20 A3003 RMK T02400200 IEM_DS3505
ZGOW,2001-10-23 12:00,ZGOW 231200Z AUTO 07004KT 7SM 25/20 A3003 RMK SLP173 T02510200 52016 IEM_DS3505
ZGOW,2001-10-23 13:00,ZGOW 231300Z AUTO 07008KT 6SM 24/21 A3003 RMK T02400210 IEM_DS3505
ZGOW,2001-10-23 14:00,ZGOW 231400Z AUTO 07006KT 6SM 23/21 A3006 RMK T02300210 IEM_DS3505
ZGOW,2001-10-23 15:00,ZGOW 231500Z AUTO 07004KT 7SM 24/21 A3006 RMK SLP176 T02400208 52003 IEM_DS3505
ZGOW,2001-10-23 16:00,ZGOW 231600Z AUTO 07004KT 6SM 23/20 A3003 RMK T02300200 IEM_DS3505
ZGOW,2001-10-23 18:00,ZGOW 231800Z AUTO 07004KT 7SM 23/20 RMK SLP164 T02320203 57012 IEM_DS3505
ZGOW,2001-10-23 21:00,ZGOW 232100Z AUTO 04004KT 5SM 22/20 A3000 RMK SLP164 T02190202 54000 IEM_DS3505
ZGOW,2001-10-23 22:00,ZGOW 232200Z AUTO 1 1/4SM 21/20 A3000 RMK T02100200 IEM_DS3505
ZGOW,2001-10-23 23:00,ZGOW 232300Z AUTO 1 1/2SM 21/20 A3003 RMK T02100200 IEM_DS3505
ZGOW,2001-10-24 00:00,ZGOW 240000Z AUTO 02002KT 2 1/2SM 23/20 A3003 RMK SLP171 T02330205 52007 IEM_DS3505
ZGOW,2001-10-24 01:00,ZGOW 240100Z AUTO 06004KT 2 1/2SM 25/20 A3003 RMK T02500200 IEM_DS3505
ZGOW,2001-10-24 02:00,ZGOW 240200Z AUTO 09004KT 3SM 27/19 A3003 RMK T02700190 IEM_DS3505
ZGOW,2001-10-24 03:00,ZGOW 240300Z AUTO 07008KT 6SM 28/17 A3000 RMK SLP163 T02770174 57008 IEM_DS3505
ZGOW,2001-10-24 04:00,ZGOW 240400Z AUTO 09008KT 28/19 A3000 RMK T02800190 IEM_DS3505
ZGOW,2001-10-24 05:00,ZGOW 240500Z AUTO 12008KT 28/20 A2997 RMK T02800200 IEM_DS3505
ZGOW,2001-10-24 06:00,ZGOW 240600Z AUTO 16008KT 7SM 27/19 A2994 RMK SLP140 T02740194 57023 IEM_DS3505
ZGOW,2001-10-24 07:00,ZGOW 240700Z AUTO 12014KT 26/20 A2994 RMK T02600200 IEM_DS3505
ZGOW,2001-10-24 08:00,ZGOW 240800Z AUTO 10010KT 26/20 A2994 RMK T02600200 IEM_DS3505
ZGOW,2001-10-24 09:00,ZGOW 240900Z AUTO 11008KT 6SM 25/20 A2994 RMK SLP145 T02540196 52005 IEM_DS3505
ZGOW,2001-10-24 10:00,ZGOW 241000Z AUTO 08006KT 4SM 24/20 A2997 RMK T02400200 IEM_DS3505
ZGOW,2001-10-24 11:00,ZGOW 241100Z AUTO 08010KT 5SM 24/20 A2997 RMK T02400200 IEM_DS3505
ZGOW,2001-10-24 12:00,ZGOW 241200Z AUTO 07008KT 6SM 24/20 A3000 RMK SLP161 T02400198 52016 IEM_DS3505
ZGOW,2001-10-24 13:00,ZGOW 241300Z AUTO 09010KT 4SM 23/20 A3003 RMK T02300200 IEM_DS3505
ZGOW,2001-10-24 14:00,ZGOW 241400Z AUTO 08010KT 6SM 23/20 A3000 RMK T02300200 IEM_DS3505
ZGOW,2001-10-24 15:00,ZGOW 241500Z AUTO 07006KT 5SM 23/20 A3003 RMK SLP164 T02340200 52003 IEM_DS3505
ZGOW,2001-10-24 16:00,ZGOW 241600Z AUTO 08010KT 6SM 23/20 A3000 RMK T02300200 IEM_DS3505
ZGOW,2001-10-24 17:00,ZGOW 241700Z AUTO 08006KT 6SM 22/19 A3000 RMK T02200190 IEM_DS3505
ZGOW,2001-10-24 18:00,ZGOW 241800Z AUTO 07006KT 4SM 23/19 A3000 RMK SLP158 T02280190 57006 IEM_DS3505
ZGOW,2001-10-24 19:00,ZGOW 241900Z AUTO 05004KT 3SM 20/18 A3000 RMK T02000180 IEM_DS3505
ZGOW,2001-10-24 20:00,ZGOW 242000Z AUTO 05002KT 4SM 21/18 A2997 RMK T02100180 IEM_DS3505
ZGOW,2001-10-24 21:00,ZGOW 242100Z AUTO 00000KT 4SM 22/19 A2997 RMK SLP153 T02150188 57005 IEM_DS3505
ZGOW,2001-10-24 22:00,ZGOW 242200Z AUTO 01002KT 2 1/2SM 20/19 A2997 RMK T02000190 IEM_DS3505
ZGOW,2001-10-24 23:00,ZGOW 242300Z AUTO 32002KT 1 1/2SM 20/19 A3000 RMK T02000190 IEM_DS3505
ZGOW,2001-10-25 00:00,ZGOW 250000Z AUTO 02002KT 2 1/2SM 22/20 A3000 RMK SLP168 T02250199 52015 IEM_DS3505
ZGOW,2001-10-25 01:00,ZGOW 250100Z AUTO 07014KT 6SM 25/17 A3003 RMK T02500170 IEM_DS3505
ZGOW,2001-10-25 02:00,ZGOW 250200Z AUTO 09016KT 6SM 26/16 A3003 RMK T02600160 IEM_DS3505
ZGOW,2001-10-25 03:00,ZGOW 250300Z AUTO 07006KT 8SM 26/15 A3003 RMK SLP168 T02600153 54000 IEM_DS3505
ZGOW,2001-10-25 04:00,ZGOW 250400Z AUTO 08012KT 6SM 27/16 A3000 RMK T02700160 IEM_DS3505
ZGOW,2001-10-25 05:00,ZGOW 250500Z AUTO 09012KT 6SM 28/16 A2997 RMK T02800160 IEM_DS3505
ZGOW,2001-10-25 06:00,ZGOW 250600Z AUTO 09004KT 9SM 28/17 A2994 RMK SLP140 T02750168 57028 IEM_DS3505
ZGOW,2001-10-25 07:00,ZGOW 250700Z AUTO 12012KT 6SM 27/19 A2994 RMK T02700190 IEM_DS3505
ZGOW,2001-10-25 08:00,ZGOW 250800Z AUTO 11010KT 6SM 26/19 A2994 RMK T02600190 IEM_DS3505
ZGOW,2001-10-25 09:00,ZGOW 250900Z AUTO 11006KT 9SM 26/19 A2994 RMK SLP141 T02560186 52001 IEM_DS3505
ZGOW,2001-10-25 10:00,ZGOW 251000Z AUTO 10006KT 4SM 23/20 A2997 RMK T02300200 IEM_DS3505
ZGOW,2001-10-25 11:00,ZGOW 251100Z AUTO 08006KT 6SM 22/19 A2997 RMK T02200190 IEM_DS3505
ZGOW,2001-10-25 12:00,ZGOW 251200Z AUTO 07004KT 7SM 23/20 A2997 RMK SLP155 T02330197 52014 IEM_DS3505
ZGOW,2001-10-25 13:00,ZGOW 251300Z AUTO 08008KT 7SM 23/20 A3000 RMK T02300200 IEM_DS3505
ZGOW,2001-10-25 14:00,ZGOW 251400Z AUTO 08008KT 7SM 23/20 A3000 RMK T02300200 IEM_DS3505
ZGOW,2001-10-25 15:00,ZGOW 251500Z AUTO 07008KT 7SM 23/20 A3000 RMK SLP162 T02310199 52007 IEM_DS3505
ZGOW,2001-10-25 16:00,ZGOW 251600Z AUTO 06008KT 7SM 22/20 A3000 RMK T02200200 IEM_DS3505
ZGOW,2001-10-25 17:00,ZGOW 251700Z AUTO 06008KT 6SM 22/20 A2997 RMK T02200200 IEM_DS3505
ZGOW,2001-10-25 18:00,ZGOW 251800Z AUTO 07004KT 6SM 22/20 A2997 RMK SLP152 T02190199 57010 IEM_DS3505
ZGOW,2001-10-25 19:00,ZGOW 251900Z AUTO 01002KT 4SM 21/19 A2997 RMK T02100190 IEM_DS3505
ZGOW,2001-10-25 20:00,ZGOW 252000Z AUTO 01002KT 6SM 20/18 A2997 RMK T02000180 IEM_DS3505
ZGOW,2001-10-25 21:00,ZGOW 252100Z AUTO 07004KT 4SM 21/19 A2994 RMK SLP144 T02060190 57008 IEM_DS3505
ZGOW,2001-10-25 22:00,ZGOW 252200Z AUTO 31002KT 3SM 20/18 A2997 RMK T02000180 IEM_DS3505
ZGOW,2001-10-25 23:00,ZGOW 252300Z AUTO 31004KT 2 1/2SM 20/19 A2997 RMK T02000190 IEM_DS3505
ZGOW,2001-10-26 00:00,ZGOW 260000Z AUTO 07004KT 5SM 23/19 A3000 RMK SLP161 T02280192 52017 IEM_DS3505
ZGOW,2001-10-26 01:00,ZGOW 260100Z AUTO 33004KT 2 1/2SM 24/19 A3000 RMK T02400190 IEM_DS3505
ZGOW,2001-10-26 02:00,ZGOW 260200Z AUTO 04008KT 6SM 27/18 A3003 RMK T02700180 IEM_DS3505
ZGOW,2001-10-26 03:00,ZGOW 260300Z AUTO 07008KT 9SM 28/19 RMK SLP159 T02780187 57002 IEM_DS3505
ZGOW,2001-10-26 04:00,ZGOW 260400Z AUTO 05010KT 6SM 28/19 A2997 RMK T02800190 IEM_DS3505
ZGOW,2001-10-26 05:00,ZGOW 260500Z AUTO 08010KT 6SM 29/19 A2994 RMK T02900190 IEM_DS3505
ZGOW,2001-10-26 06:00,ZGOW 260600Z AUTO 11006KT 11SM 29/19 A2994 RMK SLP136 T02900192 57023 IEM_DS3505
ZGOW,2001-10-26 07:00,ZGOW 260700Z AUTO 16006KT 6SM 28/20 A2991 RMK T02800200 IEM_DS3505
ZGOW,2001-10-26 08:00,ZGOW 260800Z AUTO 13008KT 6SM 27/21 A2991 RMK T02700210 IEM_DS3505
ZGOW,2001-10-26 09:00,ZGOW 260900Z AUTO 22004KT 10SM 26/20 A2994 RMK SLP133 T02630202 57003 IEM_DS3505
ZGOW,2001-10-26 10:00,ZGOW 261000Z AUTO 13006KT 3SM 24/21 A2994 RMK T02400210 IEM_DS3505
ZGOW,2001-10-26 11:00,ZGOW 261100Z AUTO 13004KT 6SM 24/21 A2994 RMK T02400210 IEM_DS3505
ZGOW,2001-10-26 12:00,ZGOW 261200Z AUTO 11004KT 7SM 24/21 A2997 RMK SLP151 T02440212 52018 IEM_DS3505
ZGOW,2001-10-26 13:00,ZGOW 261300Z AUTO 08002KT 6SM 23/21 A3000 RMK T02300210 IEM_DS3505
ZGOW,2001-10-26 14:00,ZGOW 261400Z AUTO 08004KT 6SM 23/21 A3000 RMK T02300210 IEM_DS3505
ZGOW,2001-10-26 15:00,ZGOW 261500Z AUTO 04004KT 6SM 24/22 A3000 RMK SLP155 T02360215 52004 IEM_DS3505
ZGOW,2001-10-26 16:00,ZGOW 261600Z AUTO 05002KT 3SM 22/21 A2997 RMK T02200210 IEM_DS3505
ZGOW,2001-10-26 17:00,ZGOW 261700Z AUTO 5SM 22/21 A2997 RMK T02200210 IEM_DS3505
ZGOW,2001-10-26 18:00,ZGOW 261800Z AUTO 04004KT 4SM 23/21 A2994 RMK SLP145 T02270213 57010 IEM_DS3505
ZGOW,2001-10-26 19:00,ZGOW 261900Z AUTO 32002KT 4SM 22/21 A2994 RMK T02200210 IEM_DS3505
ZGOW,2001-10-26 20:00,ZGOW 262000Z AUTO 31002KT 6SM 22/21 A2994 RMK T02200210 IEM_DS3505
ZGOW,2001-10-26 21:00,ZGOW 262100Z AUTO 34002KT 4SM 22/21 RMK SLP140 T02220208 57005 IEM_DS3505
ZGOW,2001-10-27 00:00,ZGOW 270000Z AUTO 00000KT 3SM 23/21 A2997 RMK SLP155 T02300213 52015 IEM_DS3505
ZGOW,2001-10-27 01:00,ZGOW 270100Z AUTO 01002KT 7SM 25/22 A3000 RMK T02500220 IEM_DS3505
ZGOW,2001-10-27 02:00,ZGOW 270200Z AUTO 24002KT 4SM 26/22 A3000 RMK T02600220 IEM_DS3505
ZGOW,2001-10-27 03:00,ZGOW 270300Z AUTO 25006KT 6SM 27/21 RMK SLP153 T02680213 57002 IEM_DS3505
ZGOW,2001-10-27 04:00,ZGOW 270400Z AUTO 28002KT 28/21 A2997 RMK T02800210 IEM_DS3505
ZGOW,2001-10-27 05:00,ZGOW 270500Z AUTO 03002KT 30/21 A2991 RMK T03000210 IEM_DS3505
ZGOW,2001-10-27 06:00,ZGOW 270600Z AUTO 22006KT 6SM 31/20 RMK SLP121 T03060199 57032 IEM_DS3505
ZGOW,2001-10-27 07:00,ZGOW 270700Z AUTO 14008KT 28/21 A2988 RMK T02800210 IEM_DS3505
ZGOW,2001-10-27 08:00,ZGOW 270800Z AUTO 15010KT 6SM 27/21 A2988 RMK T02700210 IEM_DS3505
ZGOW,2001-10-27 09:00,ZGOW 270900Z AUTO 16004KT 7SM 27/21 A2988 RMK SLP119 T02690212 57002 IEM_DS3505
ZGOW,2001-10-27 10:00,ZGOW 271000Z AUTO 16008KT 6SM 25/22 A2988 RMK T02500220 IEM_DS3505
ZGOW,2001-10-27 11:00,ZGOW 271100Z AUTO 16006KT 6SM 25/22 A2991 RMK T02500220 IEM_DS3505
ZGOW,2001-10-27 12:00,ZGOW 271200Z AUTO 16004KT 7SM 25/22 A2994 RMK SLP140 T02480220 52021 IEM_DS3505
ZGOW,2001-10-27 14:00,ZGOW 271400Z AUTO 4SM 24/22 A2997 RMK T02400220 IEM_DS3505
ZGOW,2001-10-27 15:00,ZGOW 271500Z AUTO 20002KT 6SM 25/22 A2994 RMK SLP144 T02460221 52004 IEM_DS3505
ZGOW,2001-10-27 17:00,ZGOW 271700Z AUTO 3SM 23/22 A2994 RMK T02300220 IEM_DS3505
ZGOW,2001-10-27 18:00,ZGOW 271800Z AUTO 00000KT 6SM 24/22 A2994 RMK SLP136 T02350222 57008 IEM_DS3505
ZGOW,2001-10-27 19:00,ZGOW 271900Z AUTO 2SM 23/22 A2991 RMK T02300220 IEM_DS3505
ZGOW,2001-10-27 20:00,ZGOW 272000Z AUTO 1 1/4SM 23/22 A2991 RMK T02300220 IEM_DS3505
ZGOW,2001-10-27 21:00,ZGOW 272100Z AUTO 34002KT 4SM 23/22 A2991 RMK SLP136 T02320220 54000 IEM_DS3505
ZGOW,2001-10-27 22:00,ZGOW 272200Z AUTO 1 1/4SM 23/22 A2994 RMK T02300220 IEM_DS3505
ZGOW,2001-10-27 23:00,ZGOW 272300Z AUTO 1 1/4SM 23/22 A2994 RMK T02300220 IEM_DS3505
ZGOW,2001-10-28 00:00,ZGOW 280000Z AUTO 02002KT 3SM 25/22 A2997 RMK SLP150 T02460222 52014 IEM_DS3505
ZGOW,2001-10-28 01:00,ZGOW 280100Z AUTO 34006KT 2SM 25/22 A3000 RMK T02500220 IEM_DS3505
ZGOW,2001-10-28 02:00,ZGOW 280200Z AUTO 33008KT 3SM 27/21 A3000 RMK T02700210 IEM_DS3505
ZGOW,2001-10-28 03:00,ZGOW 280300Z AUTO 34004KT 5SM 28/20 A3000 RMK SLP152 T02840202 52002 IEM_DS3505
ZGOW,2001-10-28 04:00,ZGOW 280400Z AUTO 34004KT 29/21 A2997 RMK T02900210 IEM_DS3505
ZGOW,2001-10-28 05:00,ZGOW 280500Z AUTO 08006KT 30/21 A2994 RMK T03000210 IEM_DS3505
ZGOW,2001-10-28 06:00,ZGOW 280600Z AUTO 07008KT 6SM 29/20 A2994 RMK SLP137 T02920195 57015 IEM_DS3505
ZGOW,2001-10-28 07:00,ZGOW 280700Z AUTO 08008KT 5SM 28/21 A2991 RMK T02800210 IEM_DS3505
ZGOW,2001-10-28 08:00,ZGOW 280800Z AUTO 08004KT 3SM 27/22 A2994 RMK T02700220 IEM_DS3505
ZGOW,2001-10-28 09:00,ZGOW 280900Z AUTO 04004KT 7SM 25/22 A2994 RMK SLP142 T02500216 52005 IEM_DS3505
ZGOW,2001-10-28 10:00,ZGOW 281000Z AUTO 04008KT 4SM 23/21 A2997 RMK T02300210 IEM_DS3505
ZGOW,2001-10-28 11:00,ZGOW 281100Z AUTO 08012KT 7SM 23/21 A3000 RMK T02300210 IEM_DS3505
ZGOW,2001-10-28 12:00,ZGOW 281200Z AUTO 07008KT 5SM 23/21 A3003 RMK 60075 SLP166 T02260214 52024 IEM_DS3505
ZGOW,2001-10-28 13:00,ZGOW 281300Z AUTO 05012KT 3SM 22/21 A3003 RMK T02200210 IEM_DS3505
ZGOW,2001-10-28 14:00,ZGOW 281400Z AUTO 06008KT 4SM 22/21 A3003 RMK T02200210 IEM_DS3505
ZGOW,2001-10-28 15:00,ZGOW 281500Z AUTO 07004KT 5SM 22/21 A3006 RMK SLP175 T02210209 52009 IEM_DS3505
ZGOW,2001-10-28 16:00,ZGOW 281600Z AUTO 06006KT 3SM 21/21 A3006 RMK T02100210 IEM_DS3505
ZGOW,2001-10-28 17:00,ZGOW 281700Z AUTO 07004KT 3SM 21/20 A3003 RMK T02100200 IEM_DS3505
ZGOW,2001-10-28 18:00,ZGOW 281800Z AUTO 07004KT 3SM 21/20 A3003 RMK 60028 SLP167 T02110203 57008 IEM_DS3505
ZGOW,2001-10-28 19:00,ZGOW 281900Z AUTO 35004KT 4SM 21/20 A3000 RMK T02100200 IEM_DS3505
ZGOW,2001-10-28 20:00,ZGOW 282000Z AUTO 33004KT 4SM 21/20 A3003 RMK T02100200 IEM_DS3505
ZGOW,2001-10-28 21:00,ZGOW 282100Z AUTO 07004KT 7SM 21/20 A3003 RMK 70101 SLP167 T02140200 54000 IEM_DS3505
ZGOW,2001-10-28 22:00,ZGOW 282200Z AUTO 01004KT 4SM 22/19 A3003 RMK T02200190 IEM_DS3505
ZGOW,2001-10-28 23:00,ZGOW 282300Z AUTO 4SM 22/20 A3006 RMK T02200200 IEM_DS3505
ZGOW,2001-10-29 00:00,ZGOW 290000Z AUTO 32006KT 5SM 22/20 A3006 RMK 60000 SLP182 T02150195 52015 IEM_DS3505
ZGOW,2001-10-29 01:00,ZGOW 290100Z AUTO 36004KT 5SM 22/19 A3009 RMK T02200190 IEM_DS3505
ZGOW,2001-10-29 02:00,ZGOW 290200Z AUTO 02010KT 7SM 23/18 A3009 RMK T02300180 IEM_DS3505
ZGOW,2001-10-29 03:00,ZGOW 290300Z AUTO 04008KT 6SM 23/18 A3009 RMK SLP190 T02330175 52008 IEM_DS3505
ZGOW,2001-10-29 04:00,ZGOW 290400Z AUTO 05008KT 7SM 24/17 A3006 RMK T02400170 IEM_DS3505
ZGOW,2001-10-29 05:00,ZGOW 290500Z AUTO 02006KT 7SM 25/18 A3006 RMK T02500180 IEM_DS3505
ZGOW,2001-10-29 06:00,ZGOW 290600Z AUTO 04008KT 7SM 24/17 A3003 RMK SLP174 T02410172 57016 IEM_DS3505
ZGOW,2001-10-29 07:00,ZGOW 290700Z AUTO 01008KT 7SM 24/18 A3003 RMK T02400180 IEM_DS3505
ZGOW,2001-10-29 08:00,ZGOW 290800Z AUTO 03008KT 7SM 24/17 A3003 RMK T02400170 IEM_DS3505
ZGOW,2001-10-29 09:00,ZGOW 290900Z AUTO 04008KT 9SM 23/19 A3006 RMK SLP176 T02280187 52002 IEM_DS3505
ZGOW,2001-10-29 10:00,ZGOW 291000Z AUTO 03008KT 7SM 22/17 A3006 RMK T02200170 IEM_DS3505
ZGOW,2001-10-29 11:00,ZGOW 291100Z AUTO 03008KT 7SM 22/18 A3006 RMK T02200180 IEM_DS3505
ZGOW,2001-10-29 12:00,ZGOW 291200Z AUTO 04006KT 7SM 22/18 A3009 RMK SLP188 T02200175 52012 IEM_DS3505
ZGOW,2001-10-29 13:00,ZGOW 291300Z AUTO 02006KT 7SM 22/17 A3009 RMK T02200170 IEM_DS3505
ZGOW,2001-10-29 14:00,ZGOW 291400Z AUTO 01002KT 7SM 21/17 A3009 RMK T02100170 IEM_DS3505
ZGOW,2001-10-29 15:00,ZGOW 291500Z AUTO 34002KT 7SM 21/18 A3009 RMK SLP187 T02140180 57001 IEM_DS3505
ZGOW,2001-10-29 16:00,ZGOW 291600Z AUTO 33002KT 6SM 21/18 A3009 RMK T02100180 IEM_DS3505
ZGOW,2001-10-29 17:00,ZGOW 291700Z AUTO 35002KT 6SM 21/18 A3006 RMK T02100180 IEM_DS3505
ZGOW,2001-10-29 18:00,ZGOW 291800Z AUTO 07002KT 8SM 21/18 A3006 RMK SLP183 T02090183 57004 IEM_DS3505
ZGOW,2001-10-29 19:00,ZGOW 291900Z AUTO 07002KT 6SM 20/18 A3006 RMK T02000180 IEM_DS3505
ZGOW,2001-10-29 20:00,ZGOW 292000Z AUTO 6SM 20/18 A3006 RMK T02000180 IEM_DS3505
ZGOW,2001-10-29 21:00,ZGOW 292100Z AUTO 07004KT 7SM 20/18 A3006 RMK SLP177 T02040185 57006 IEM_DS3505
ZGOW,2001-10-29 22:00,ZGOW 292200Z AUTO 02004KT 4SM 19/18 A3006 RMK T01900180 IEM_DS3505
ZGOW,2001-10-29 23:00,ZGOW 292300Z AUTO 08002KT 4SM 20/18 A3009 RMK T02000180 IEM_DS3505
ZGOW,2001-10-30 00:00,ZGOW 300000Z AUTO 07004KT 9SM 21/18 A3009 RMK SLP194 T02120177 52017 IEM_DS3505
ZGOW,2001-10-30 01:00,ZGOW 300100Z AUTO 04008KT 4SM 22/17 A3012 RMK T02200170 IEM_DS3505
ZGOW,2001-10-30 02:00,ZGOW 300200Z AUTO 05008KT 7SM 24/16 A3012 RMK T02400160 IEM_DS3505
ZGOW,2001-10-30 03:00,ZGOW 300300Z AUTO 07008KT 7SM 24/15 A3009 RMK SLP196 T02410147 52002 IEM_DS3505
ZGOW,2001-10-30 04:00,ZGOW 300400Z AUTO 07010KT 24/15 A3009 RMK T02400150 IEM_DS3505
ZGOW,2001-10-30 05:00,ZGOW 300500Z AUTO 08010KT 24/17 A3006 RMK T02400170 IEM_DS3505
ZGOW,2001-10-30 06:00,ZGOW 300600Z AUTO 07004KT 7SM 25/16 A3003 RMK SLP169 T02460165 57027 IEM_DS3505
ZGOW,2001-10-30 07:00,ZGOW 300700Z AUTO 10010KT 24/17 A3003 RMK T02400170 IEM_DS3505
ZGOW,2001-10-30 08:00,ZGOW 300800Z AUTO 09008KT 24/18 A3003 RMK T02400180 IEM_DS3505
ZGOW,2001-10-30 09:00,ZGOW 300900Z AUTO 07004KT 7SM 24/17 A3003 RMK SLP170 T02380167 52001 IEM_DS3505
ZGOW,2001-10-30 10:00,ZGOW 301000Z AUTO 09006KT 23/17 A3006 RMK T02300170 IEM_DS3505
ZGOW,2001-10-30 11:00,ZGOW 301100Z AUTO 09008KT 6SM 22/ A3006 RMK IEM_DS3505
ZGOW,2001-10-30 12:00,ZGOW 301200Z AUTO 09004KT 6SM 23/18 A3009 RMK SLP186 T02270176 52016 IEM_DS3505
ZGOW,2001-10-30 13:00,ZGOW 301300Z AUTO 08008KT 6SM 22/17 A3009 RMK T02200170 IEM_DS3505
ZGOW,2001-10-30 14:00,ZGOW 301400Z AUTO 08008KT 6SM 22/17 A3009 RMK T02200170 IEM_DS3505
ZGOW,2001-10-30 15:00,ZGOW 301500Z AUTO 07006KT 6SM 22/17 A3009 RMK SLP189 T02190167 52003 IEM_DS3505
ZGOW,2001-10-30 16:00,ZGOW 301600Z AUTO 05008KT 6SM 21/17 A3006 RMK T02100170 IEM_DS3505
ZGOW,2001-10-30 17:00,ZGOW 301700Z AUTO 08008KT 6SM 21/17 A3006 RMK T02100170 IEM_DS3505
ZGOW,2001-10-30 18:00,ZGOW 301800Z AUTO 07006KT 6SM 22/17 A3003 RMK SLP173 T02150168 57016 IEM_DS3505
ZGOW,2001-10-30 19:01,ZGOW 301901Z AUTO 06006KT 6SM 21/17 A3003 RMK T02100170 IEM_DS3505
ZGOW,2001-10-30 20:00,ZGOW 302000Z AUTO 03006KT 4SM 21/17 A3003 RMK T02100170 IEM_DS3505
ZGOW,2001-10-30 21:00,ZGOW 302100Z AUTO 04006KT 6SM 21/17 A3003 RMK T02100170 IEM_DS3505
ZGOW,2001-10-30 22:00,ZGOW 302200Z AUTO 05004KT 6SM 21/17 A3006 RMK T02100170 IEM_DS3505
ZGOW,2001-10-30 23:00,ZGOW 302300Z AUTO 04006KT 4SM 21/17 A3009 RMK T02100170 IEM_DS3505
ZGOW,2001-10-31 00:00,ZGOW 310000Z AUTO 04004KT 6SM 22/18 RMK SLP190 T02190177 52018 IEM_DS3505
ZGOW,2001-10-31 01:00,ZGOW 310100Z AUTO 36004KT 3SM 23/17 A3012 RMK T02300170 IEM_DS3505
ZGOW,2001-10-31 02:00,ZGOW 310200Z AUTO 01004KT 24/18 A3012 RMK T02400180 IEM_DS3505
ZGOW,2001-10-31 03:00,ZGOW 310300Z AUTO 09006KT 6SM 24/18 A3009 RMK SLP191 T02450178 52001 IEM_DS3505
ZGOW,2001-10-31 04:00,ZGOW 310400Z AUTO 08006KT 5SM 24/19 A3009 RMK T02400190 IEM_DS3505
ZGOW,2001-10-31 05:00,ZGOW 310500Z AUTO 06006KT 5SM 25/20 A3006 RMK T02500200 IEM_DS3505
ZGOW,2001-10-31 06:00,ZGOW 310600Z AUTO 04006KT 7SM 27/18 A3003 RMK 60003 SLP166 T02700183 57025 IEM_DS3505
ZGOW,2001-10-31 08:00,ZGOW 310800Z AUTO 07006KT 6SM 25/19 A3000 RMK T02500190 IEM_DS3505
ZGOW,2001-10-31 09:00,ZGOW 310900Z AUTO 04006KT 7SM 25/19 A3000 RMK SLP162 T02530193 57004 IEM_DS3505
ZGOW,2001-10-31 10:00,ZGOW 311000Z AUTO 09004KT 6SM 23/20 A3003 RMK T02300200 IEM_DS3505
ZGOW,2001-10-31 11:00,ZGOW 311100Z AUTO 11002KT 5SM 23/20 A3003 RMK T02300200 IEM_DS3505
ZGOW,2001-10-31 12:00,ZGOW 311200Z AUTO 04002KT 6SM 24/20 A3006 RMK SLP179 T02400200 52017 IEM_DS3505
ZGOW,2001-10-31 13:00,ZGOW 311300Z AUTO 04002KT 4SM 22/20 A3006 RMK T02200200 IEM_DS3505
ZGOW,2001-10-31 14:00,ZGOW 311400Z AUTO 07002KT 4SM 22/21 A3006 RMK T02200210 IEM_DS3505
ZGOW,2001-10-31 15:00,ZGOW 311500Z AUTO 07004KT 5SM 23/20 A3006 RMK SLP184 T02310205 52005 IEM_DS3505
ZGOW,2001-10-31 16:00,ZGOW 311600Z AUTO 4SM 22/21 A3006 RMK T02200210 IEM_DS3505
ZGOW,2001-10-31 17:00,ZGOW 311700Z AUTO 2 1/2SM 22/21 A3006 RMK T02200210 IEM_DS3505
ZGOW,2001-10-31 18:00,ZGOW 311800Z AUTO 00000KT 4SM 22/20 A3006 RMK SLP175 T02190205 57009 IEM_DS3505
ZGOW,2001-10-31 19:00,ZGOW 311900Z AUTO 05002KT 2 1/2SM 21/20 A3003 RMK T02100200 IEM_DS3505
ZGOW,2001-10-31 20:00,ZGOW 312000Z AUTO 36004KT 2SM 22/20 A3003 RMK T02200200 IEM_DS3505
ZGOW,2001-10-31 21:00,ZGOW 312100Z AUTO 04002KT 5SM 22/20 A3003 RMK 70003 SLP169 T02170205 57006 IEM_DS3505
ZGOW,2001-10-31 22:00,ZGOW 312200Z AUTO 02004KT 2SM 21/20 A3003 RMK T02100200 IEM_DS3505
ZGOW,2001-10-31 23:00,ZGOW 312300Z AUTO 34002KT 1 1/2SM 22/21 A3006 RMK T02200210 IEM_DS3505
ZGOW,2001-11-01 00:00,ZGOW 010000Z AUTO 07004KT 4SM 23/21 A3009 RMK 70003 SLP188 T02290208 52019 IEM_DS3505
ZGOW,2001-11-01 01:00,ZGOW 010100Z AUTO 06006KT 2 1/2SM 25/21 A3009 RMK T02500210 IEM_DS3505
ZGOW,2001-11-01 02:00,ZGOW 010200Z AUTO 07004KT 4SM 26/21 A3009 RMK T02600210 IEM_DS3505
ZGOW,2001-11-01 03:00,ZGOW 010300Z AUTO 07004KT 6SM 28/20 A3006 RMK SLP182 T02770205 57006 IEM_DS3505
ZGOW,2001-11-01 04:00,ZGOW 010400Z AUTO 12006KT 6SM 27/22 A3003 RMK T02700220 IEM_DS3505
ZGOW,2001-11-01 05:00,ZGOW 010500Z AUTO 15006KT 6SM 28/21 A3000 RMK T02800210 IEM_DS3505
ZGOW,2001-11-01 06:00,ZGOW 010600Z AUTO 20004KT 7SM 29/20 A3000 RMK SLP153 T02860205 57029 IEM_DS3505
ZGOW,2001-11-01 07:00,ZGOW 010700Z AUTO 14008KT 6SM 28/21 A2997 RMK T02800210 IEM_DS3505
ZGOW,2001-11-01 08:00,ZGOW 010800Z AUTO 13008KT 6SM 26/21 A2997 RMK T02600210 IEM_DS3505
ZGOW,2001-11-01 09:00,ZGOW 010900Z AUTO 11004KT 6SM 26/21 A3000 RMK SLP154 T02590213 52001 IEM_DS3505
ZGOW,2001-11-01 10:00,ZGOW 011000Z AUTO 10008KT 3SM 24/22 A3000 RMK T02400220 IEM_DS3505
ZGOW,2001-11-01 11:00,ZGOW 011100Z AUTO 07006KT 7SM 24/22 A3003 RMK T02400220 IEM_DS3505
ZGOW,2001-11-01 12:00,ZGOW 011200Z AUTO 07006KT 6SM 24/22 A3003 RMK SLP171 T02420218 52017 IEM_DS3505
ZGOW,2001-11-01 13:00,ZGOW 011300Z AUTO 07012KT 7SM 24/22 A3006 RMK T02400220 IEM_DS3505
ZGOW,2001-11-01 14:00,ZGOW 011400Z AUTO 07012KT 7SM 23/21 A3006 RMK T02300210 IEM_DS3505
ZGOW,2001-11-01 15:00,ZGOW 011500Z AUTO 07008KT 7SM 24/21 A3006 RMK SLP178 T02370207 52007 IEM_DS3505
ZGOW,2001-11-01 16:00,ZGOW 011600Z AUTO 07012KT 6SM 23/21 A3006 RMK T02300210 IEM_DS3505
ZGOW,2001-11-01 17:00,ZGOW 011700Z AUTO 07012KT 6SM 23/21 A3003 RMK T02300210 IEM_DS3505
ZGOW,2001-11-01 18:00,ZGOW 011800Z AUTO 07008KT 8SM 23/20 A3003 RMK SLP171 T02330205 57007 IEM_DS3505
ZGOW,2001-11-01 19:00,ZGOW 011900Z AUTO 07010KT 6SM 23/21 A3003 RMK T02300210 IEM_DS3505
ZGOW,2001-11-01 20:00,ZGOW 012000Z AUTO 08010KT 6SM 23/20 A3003 RMK T02300200 IEM_DS3505
ZGOW,2001-11-01 21:00,ZGOW 012100Z AUTO 07006KT 7SM 23/20 A3000 RMK SLP165 T02320203 57006 IEM_DS3505
ZGOW,2001-11-01 22:00,ZGOW 012200Z AUTO 07010KT 4SM 23/20 A3003 RMK T02300200 IEM_DS3505
ZGOW,2001-11-01 23:00,ZGOW 012300Z AUTO 07010KT 2 1/2SM 23/20 A3003 RMK T02300200 IEM_DS3505
ZGOW,2001-11-02 00:00,ZGOW 020000Z AUTO 07006KT 6SM 23/20 A3006 RMK SLP177 T02340203 52012 IEM_DS3505
ZGOW,2001-11-02 01:00,ZGOW 020100Z AUTO 06008KT 3SM 25/21 A3006 RMK T02500210 IEM_DS3505
ZGOW,2001-11-02 02:00,ZGOW 020200Z AUTO 07010KT 4SM 26/21 A3006 RMK T02600210 IEM_DS3505
ZGOW,2001-11-02 03:00,ZGOW 020300Z AUTO 11004KT 6SM 27/20 A3003 RMK SLP168 T02660199 57009 IEM_DS3505
ZGOW,2001-11-02 04:00,ZGOW 020400Z AUTO 08006KT 27/21 A3000 RMK T02700210 IEM_DS3505
ZGOW,2001-11-02 05:00,ZGOW 020500Z AUTO 09004KT 26/20 A2997 RMK T02600200 IEM_DS3505
ZGOW,2001-11-02 06:00,ZGOW 020600Z AUTO 04004KT 7SM 28/20 A2994 RMK SLP144 T02750201 57024 IEM_DS3505
ZGOW,2001-11-02 07:00,ZGOW 020700Z AUTO 12006KT 3SM 26/21 A2994 RMK T02600210 IEM_DS3505
ZGOW,2001-11-02 08:00,ZGOW 020800Z AUTO 12006KT 3SM 26/21 A2994 RMK T02600210 IEM_DS3505
ZGOW,2001-11-02 09:00,ZGOW 020900Z AUTO 18004KT 6SM 25/21 A2994 RMK SLP140 T02530208 57004 IEM_DS3505
ZGOW,2001-11-02 10:00,ZGOW 021000Z AUTO 12006KT 3SM 24/21 A2994 RMK T02400210 IEM_DS3505
ZGOW,2001-11-02 11:00,ZGOW 021100Z AUTO 12006KT 3SM 23/21 A2997 RMK T02300210 IEM_DS3505
ZGOW,2001-11-02 12:00,ZGOW 021200Z AUTO 11004KT 6SM 24/21 A2997 RMK SLP149 T02390210 52009 IEM_DS3505
ZGOW,2001-11-02 13:00,ZGOW 021300Z AUTO 10004KT 4SM 23/21 A3000 RMK T02300210 IEM_DS3505
ZGOW,2001-11-02 14:00,ZGOW 021400Z AUTO 13004KT 3SM 23/21 A2997 RMK T02300210 IEM_DS3505
ZGOW,2001-11-02 15:00,ZGOW 021500Z AUTO 09006KT 5SM 24/21 A2997 RMK SLP152 T02380212 52003 IEM_DS3505
ZGOW,2001-11-02 16:00,ZGOW 021600Z AUTO 4SM 23/21 A2997 RMK T02300210 IEM_DS3505
ZGOW,2001-11-02 17:00,ZGOW 021700Z AUTO 05004KT 2 1/2SM 22/21 A2997 RMK T02200210 IEM_DS3505
ZGOW,2001-11-02 18:00,ZGOW 021800Z AUTO 04004KT 4SM 23/21 A2997 RMK SLP146 T02290214 57006 IEM_DS3505
ZGOW,2001-11-02 19:00,ZGOW 021900Z AUTO 2SM 22/21 A2997 RMK T02200210 IEM_DS3505
ZGOW,2001-11-02 20:00,ZGOW 022000Z AUTO 1 1/4SM 22/21 A2997 RMK T02200210 IEM_DS3505
ZGOW,2001-11-02 21:00,ZGOW 022100Z AUTO 04002KT 3SM 23/21 A2997 RMK SLP150 T02260208 52004 IEM_DS3505
ZGOW,2001-11-02 22:00,ZGOW 022200Z AUTO 1 1/4SM 22/21 A2997 RMK T02200210 IEM_DS3505
ZGOW,2001-11-02 23:00,ZGOW 022300Z AUTO 15002KT 1SM 21/20 A3000 RMK T02100200 IEM_DS3505
ZGOW,2001-11-03 00:00,ZGOW 030000Z AUTO 34002KT 4SM 24/21 A3000 RMK SLP163 T02400207 52013 IEM_DS3505
ZGOW,2001-11-03 01:00,ZGOW 030100Z AUTO 05004KT 2SM 25/21 A3003 RMK T02500210 IEM_DS3505
ZGOW,2001-11-03 02:00,ZGOW 030200Z AUTO 2SM 27/22 A3003 RMK T02700220 IEM_DS3505
ZGOW,2001-11-03 03:00,ZGOW 030300Z AUTO 07004KT 3SM 28/22 A3000 RMK SLP156 T02800215 57007 IEM_DS3505
ZGOW,2001-11-03 04:00,ZGOW 030400Z AUTO 11004KT 2SM 28/22 A2997 RMK T02800220 IEM_DS3505
ZGOW,2001-11-03 05:00,ZGOW 030500Z AUTO 12006KT 2 1/2SM 28/23 A2994 RMK T02800230 IEM_DS3505
ZGOW,2001-11-03 06:00,ZGOW 030600Z AUTO 11006KT 4SM 29/22 A2991 RMK SLP129 T02870219 57027 IEM_DS3505
ZGOW,2001-11-03 07:00,ZGOW 030700Z AUTO 12010KT 2 1/2SM 27/22 A2991 RMK T02700220 IEM_DS3505
ZGOW,2001-11-03 08:00,ZGOW 030800Z AUTO 12010KT 3SM 25/22 A2991 RMK T02500220 IEM_DS3505
ZGOW,2001-11-03 09:00,ZGOW 030900Z AUTO 14006KT 4SM 26/22 A2991 RMK SLP130 T02550218 52001 IEM_DS3505
ZGOW,2001-11-03 10:00,ZGOW 031000Z AUTO 09002KT 6SM 25/23 A2994 RMK T02500230 IEM_DS3505
ZGOW,2001-11-03 11:00,ZGOW 031100Z AUTO 6SM 25/23 A2994 RMK T02500230 IEM_DS3505
ZGOW,2001-11-03 12:00,ZGOW 031200Z AUTO 07004KT 5SM 25/22 A2997 RMK SLP151 T02510221 52021 IEM_DS3505
ZGOW,2001-11-03 13:00,ZGOW 031300Z AUTO 07008KT 5SM 25/22 A3000 RMK T02500220 IEM_DS3505
ZGOW,2001-11-03 14:00,ZGOW 031400Z AUTO 08014KT 7SM 25/21 A3000 RMK T02500210 IEM_DS3505
ZGOW,2001-11-03 15:00,ZGOW 031500Z AUTO 07008KT 6SM 24/20 A3003 RMK SLP165 T02450202 52014 IEM_DS3505
ZGOW,2001-11-03 16:00,ZGOW 031600Z AUTO 08019KT 6SM 24/20 A3003 RMK T02400200 IEM_DS3505
ZGOW,2001-11-03 17:00,ZGOW 031700Z AUTO 08017KT 6SM 23/20 A3003 RMK T02300200 IEM_DS3505
ZGOW,2001-11-03 18:00,ZGOW 031800Z AUTO 07012KT 9SM 23/19 A3003 RMK SLP169 T02340190 52004 IEM_DS3505
ZGOW,2001-11-03 19:00,ZGOW 031900Z AUTO 08019KT 6SM 23/19 A3003 RMK T02300190 IEM_DS3505
ZGOW,2001-11-03 20:00,ZGOW 032000Z AUTO 07019KT 6SM 23/19 A3003 RMK T02300190 IEM_DS3505
ZGOW,2001-11-03 21:00,ZGOW 032100Z AUTO 07010G29KT 7SM 22/18 A3003 RMK SLP170 T02250182 52001 IEM_DS3505
ZGOW,2001-11-03 22:00,ZGOW 032200Z AUTO 07017KT 6SM 22/17 A3003 RMK T02200170 IEM_DS3505
ZGOW,2001-11-03 23:00,ZGOW 032300Z AUTO 06019KT 6SM 22/17 A3003 RMK T02200170 IEM_DS3505
ZGOW,2001-11-04 00:00,ZGOW 040000Z AUTO 07014G29KT 12SM 23/16 A3006 RMK SLP179 T02290165 52009 IEM_DS3505
ZGOW,2001-11-04 01:00,ZGOW 040100Z AUTO 07017KT 6SM 24/17 A3006 RMK T02400170 IEM_DS3505
ZGOW,2001-11-04 02:00,ZGOW 040200Z AUTO 07017KT 6SM 24/17 A3009 RMK T02400170 IEM_DS3505
ZGOW,2001-11-04 03:00,ZGOW 040300Z AUTO 07010KT 12SM 25/17 A3006 RMK SLP178 T02460169 57001 IEM_DS3505
ZGOW,2001-11-04 04:00,ZGOW 040400Z AUTO 08016KT 6SM 24/17 A3003 RMK T02400170 IEM_DS3505
ZGOW,2001-11-04 05:00,ZGOW 040500Z AUTO 08014KT 6SM 25/18 A3000 RMK T02500180 IEM_DS3505
ZGOW,2001-11-04 06:00,ZGOW 040600Z AUTO 07008KT 11SM 24/17 A3000 RMK SLP159 T02440168 57019 IEM_DS3505
ZGOW,2001-11-04 07:00,ZGOW 040700Z AUTO 08010KT 6SM 24/17 A3000 RMK T02400170 IEM_DS3505
ZGOW,2001-11-04 08:00,ZGOW 040800Z AUTO 08008KT 7SM 24/18 A3000 RMK T02400180 IEM_DS3505
ZGOW,2001-11-04 09:00,ZGOW 040900Z AUTO 07008KT 10SM 24/18 A3000 RMK SLP160 T02380176 52001 IEM_DS3505
ZGOW,2001-11-04 10:00,ZGOW 041000Z AUTO 08010KT 6SM 23/18 A3003 RMK T02300180 IEM_DS3505
ZGOW,2001-11-04 11:00,ZGOW 041100Z AUTO 07008KT 6SM 23/18 A3003 RMK T02300180 IEM_DS3505
ZGOW,2001-11-04 12:00,ZGOW 041200Z AUTO 07006KT 8SM 23/18 A3006 RMK SLP177 T02320181 52017 IEM_DS3505
ZGOW,2001-11-04 13:00,ZGOW 041300Z AUTO 07010KT 6SM 23/18 A3006 RMK T02300180 IEM_DS3505
ZGOW,2001-11-04 14:00,ZGOW 041400Z AUTO 07008KT 6SM 23/19 A3006 RMK T02300190 IEM_DS3505
ZGOW,2001-11-04 15:00,ZGOW 041500Z AUTO 07006KT 8SM 23/18 A3009 RMK SLP184 T02310185 52007 IEM_DS3505
ZGOW,2001-11-04 16:00,ZGOW 041600Z AUTO 08008KT 6SM 23/18 A3009 RMK T02300180 IEM_DS3505
ZGOW,2001-11-04 17:00,ZGOW 041700Z AUTO 07006KT 6SM 22/18 A3006 RMK T02200180 IEM_DS3505
ZGOW,2001-11-04 18:00,ZGOW 041800Z AUTO 11004KT 9SM 23/18 A3006 RMK SLP179 T02280180 57005 IEM_DS3505
ZGOW,2001-11-04 19:00,ZGOW 041900Z AUTO 03004KT 6SM 22/18 A3006 RMK T02200180 IEM_DS3505
ZGOW,2001-11-04 20:00,ZGOW 042000Z AUTO 01006KT 6SM 22/18 A3006 RMK T02200180 IEM_DS3505
ZGOW,2001-11-04 21:00,ZGOW 042100Z AUTO 34002KT 7SM 21/20 A3006 RMK 70003 SLP183 T02140195 52004 IEM_DS3505
ZGOW,2001-11-04 22:00,ZGOW 042200Z AUTO 35002KT 4SM 21/19 A3006 RMK T02100190 IEM_DS3505
ZGOW,2001-11-04 23:00,ZGOW 042300Z AUTO 4SM 22/19 A3009 RMK T02200190 IEM_DS3505
ZGOW,2001-11-05 00:00,ZGOW 050000Z AUTO 04004KT 7SM 23/20 A3012 RMK 60003 SLP196 T02320201 52013 IEM_DS3505
ZGOW,2001-11-05 02:00,ZGOW 050200Z AUTO 03006KT 6SM 26/19 A3012 RMK T02600190 IEM_DS3505
ZGOW,2001-11-05 03:00,ZGOW 050300Z AUTO 07006KT 9SM 27/19 A3012 RMK SLP199 T02680191 52003 IEM_DS3505
ZGOW,2001-11-05 04:00,ZGOW 050400Z AUTO 08006KT 6SM 28/19 A3009 RMK T02800190 IEM_DS3505
ZGOW,2001-11-05 05:00,ZGOW 050500Z AUTO 07004KT 6SM 27/20 A3006 RMK T02700200 IEM_DS3505
ZGOW,2001-11-05 06:00,ZGOW 050600Z AUTO 20006KT 11SM 29/20 A3003 RMK SLP170 T02890203 57029 IEM_DS3505
ZGOW,2001-11-05 07:00,ZGOW 050700Z AUTO 13006KT 6SM 27/20 A3003 RMK T02700200 IEM_DS3505
ZGOW,2001-11-05 08:00,ZGOW 050800Z AUTO 13006KT 6SM 26/21 A3003 RMK T02600210 IEM_DS3505
ZGOW,2001-11-05 09:00,ZGOW 050900Z AUTO 07004KT 8SM 27/21 A3003 RMK SLP174 T02690206 52004 IEM_DS3505
ZGOW,2001-11-05 10:00,ZGOW 051000Z AUTO 34008KT 6SM 25/19 A3006 RMK T02500190 IEM_DS3505
ZGOW,2001-11-05 11:00,ZGOW 051100Z AUTO 32012KT 6SM 24/19 A3009 RMK T02400190 IEM_DS3505
ZGOW,2001-11-05 12:00,ZGOW 051200Z AUTO 04008KT 7SM 24/18 A3009 RMK SLP192 T02390179 52018 IEM_DS3505
ZGOW,2001-11-05 13:00,ZGOW 051300Z AUTO 33010G19KT 6SM 23/17 A3012 RMK T02300170 IEM_DS3505
ZGOW,2001-11-05 14:00,ZGOW 051400Z AUTO 34008KT 6SM 22/16 A3012 RMK T02200160 IEM_DS3505
ZGOW,2001-11-05 15:00,ZGOW 051500Z AUTO 02006KT 7SM 21/15 A3012 RMK SLP200 T02130154 52008 IEM_DS3505
ZGOW,2001-11-05 16:00,ZGOW 051600Z AUTO 34008KT 6SM 21/15 A3012 RMK T02100150 IEM_DS3505
ZGOW,2001-11-05 17:00,ZGOW 051700Z AUTO 33008KT 6SM 21/15 A3012 RMK T02100150 IEM_DS3505
ZGOW,2001-11-05 18:00,ZGOW 051800Z AUTO 02006KT 7SM 20/14 A3012 RMK SLP202 T02040144 52002 IEM_DS3505
ZGOW,2001-11-05 19:00,ZGOW 051900Z AUTO 34008KT 6SM 20/14 A3012 RMK T02000140 IEM_DS3505
ZGOW,2001-11-05 20:00,ZGOW 052000Z AUTO 35008KT 6SM 20/14 A3012 RMK T02000140 IEM_DS3505
ZGOW,2001-11-05 21:00,ZGOW 052100Z AUTO 07006KT 9SM 20/14 A3012 RMK SLP206 T01950136 52004 IEM_DS3505
ZGOW,2001-11-05 22:00,ZGOW 052200Z AUTO 34006KT 6SM 20/14 A3015 RMK T02000140 IEM_DS3505
ZGOW,2001-11-05 23:00,ZGOW 052300Z AUTO 34008KT 6SM 19/14 A3018 RMK T01900140 IEM_DS3505
ZGOW,2001-11-06 00:00,ZGOW 060000Z AUTO 02004KT 12SM 20/14 A3021 RMK SLP230 T01970138 52024 IEM_DS3505
ZGOW,2001-11-06 01:00,ZGOW 060100Z AUTO 35006KT 6SM 22/15 A3021 RMK T02200150 IEM_DS3505
ZGOW,2001-11-06 02:00,ZGOW 060200Z AUTO 01006KT 6SM 22/14 A3024 RMK T02200140 IEM_DS3505
ZGOW,2001-11-06 03:00,ZGOW 060300Z AUTO 07008KT 16SM 24/14 A3021 RMK SLP230 T02380145 54000 IEM_DS3505
ZGOW,2001-11-06 04:00,ZGOW 060400Z AUTO 08014KT 7SM 24/16 A3018 RMK T02400160 IEM_DS3505
ZGOW,2001-11-06 05:00,ZGOW 060500Z AUTO 08016KT 6SM 24/16 A3015 RMK T02400160 IEM_DS3505
ZGOW,2001-11-06 06:00,ZGOW 060600Z AUTO 11008KT 16SM 24/15 A3012 RMK SLP201 T02390149 57029 IEM_DS3505
ZGOW,2001-11-06 07:00,ZGOW 060700Z AUTO 08016KT 6SM 24/15 A3012 RMK T02400150 IEM_DS3505
ZGOW,2001-11-06 08:00,ZGOW 060800Z AUTO 06016KT 6SM 23/14 A3012 RMK T02300140 IEM_DS3505
ZGOW,2001-11-06 09:00,ZGOW 060900Z AUTO 07008KT 12SM 23/14 A3012 RMK SLP203 T02290141 52002 IEM_DS3505
ZGOW,2001-11-06 10:00,ZGOW 061000Z AUTO 07010KT 7SM 22/14 A3015 RMK T02200140 IEM_DS3505
ZGOW,2001-11-06 11:00,ZGOW 061100Z AUTO 08014KT 6SM 21/14 A3015 RMK T02100140 IEM_DS3505
ZGOW,2001-11-06 12:00,ZGOW 061200Z AUTO 07008KT 7SM 21/14 A3015 RMK SLP212 T02100143 52009 IEM_DS3505
ZGOW,2001-11-06 13:00,ZGOW 061300Z AUTO 08014KT 6SM 20/14 A3018 RMK T02000140 IEM_DS3505
ZGOW,2001-11-06 14:00,ZGOW 061400Z AUTO 07014KT 6SM 19/12 A3018 RMK T01900120 IEM_DS3505
ZGOW,2001-11-06 15:00,ZGOW 061500Z AUTO 07006KT 7SM 20/13 A3018 RMK SLP219 T01950126 52007 IEM_DS3505
ZGOW,2001-11-06 16:00,ZGOW 061600Z AUTO 07010KT 6SM 18/11 A3018 RMK T01800110 IEM_DS3505
ZGOW,2001-11-06 17:00,ZGOW 061700Z AUTO 07012KT 6SM 18/09 A3015 RMK T01800090 IEM_DS3505
ZGOW,2001-11-06 18:00,ZGOW 061800Z AUTO 07008KT 6SM 19/09 A3015 RMK SLP208 T01860088 57011 IEM_DS3505
ZGOW,2001-11-06 19:00,ZGOW 061900Z AUTO 03006KT 6SM 16/08 A3012 RMK T01600080 IEM_DS3505
ZGOW,2001-11-06 20:00,ZGOW 062000Z AUTO 02002KT 6SM 17/10 A3012 RMK T01700100 IEM_DS3505
ZGOW,2001-11-06 21:00,ZGOW 062100Z AUTO 04004KT 6SM 16/11 A3012 RMK SLP206 T01640110 57002 IEM_DS3505
ZGOW,2001-11-06 23:00,ZGOW 062300Z AUTO 36006KT 6SM 17/10 A3018 RMK T01700100 IEM_DS3505
ZGOW,2001-11-07 00:00,ZGOW 070000Z AUTO 02002KT 7SM 19/12 A3018 RMK SLP220 T01910119 52014 IEM_DS3505
ZGOW,2001-11-07 01:00,ZGOW 070100Z AUTO 02008KT 6SM 21/10 A3018 RMK T02100100 IEM_DS3505
ZGOW,2001-11-07 02:00,ZGOW 070200Z AUTO 03010KT 6SM 22/11 A3018 RMK T02200110 IEM_DS3505
ZGOW,2001-11-07 03:00,ZGOW 070300Z AUTO 07008KT 9SM 23/11 A3015 RMK SLP209 T02280114 57011 IEM_DS3505
ZGOW,2001-11-07 04:00,ZGOW 070400Z AUTO 07010KT 6SM 23/12 A3012 RMK T02300120 IEM_DS3505
ZGOW,2001-11-07 05:00,ZGOW 070500Z AUTO 09010KT 6SM 24/12 A3006 RMK T02400120 IEM_DS3505
ZGOW,2001-11-07 06:00,ZGOW 070600Z AUTO 07008KT 12SM 24/12 A3003 RMK SLP173 T02400125 57036 IEM_DS3505
ZGOW,2001-11-07 07:00,ZGOW 070700Z AUTO 09012KT 6SM 24/13 A3003 RMK T02400130 IEM_DS3505
ZGOW,2001-11-07 08:00,ZGOW 070800Z AUTO 08014KT 6SM 23/14 A3003 RMK T02300140 IEM_DS3505
ZGOW,2001-11-07 09:00,ZGOW 070900Z AUTO 09008KT 12SM 23/14 A3003 RMK SLP168 T02260139 57005 IEM_DS3505
ZGOW,2001-11-07 10:00,ZGOW 071000Z AUTO 08014KT 6SM 21/15 A3003 RMK T02100150 IEM_DS3505
ZGOW,2001-11-07 11:00,ZGOW 071100Z AUTO 08014KT 6SM 21/15 A3006 RMK T02100150 IEM_DS3505
ZGOW,2001-11-07 12:00,ZGOW 071200Z AUTO 07010KT 11SM 21/15 A3009 RMK SLP184 T02080153 52016 IEM_DS3505
ZGOW,2001-11-07 13:00,ZGOW 071300Z AUTO 06012KT 6SM 20/15 A3009 RMK T02000150 IEM_DS3505
ZGOW,2001-11-07 14:00,ZGOW 071400Z AUTO 07014KT 6SM 20/14 A3009 RMK T02000140 IEM_DS3505
ZGOW,2001-11-07 15:00,ZGOW 071500Z AUTO 04006KT 10SM 20/13 A3009 RMK SLP194 T01970134 52010 IEM_DS3505
ZGOW,2001-11-07 16:00,ZGOW 071600Z AUTO 05006KT 6SM 17/13 A3009 RMK T01700130 IEM_DS3505
ZGOW,2001-11-07 17:00,ZGOW 071700Z AUTO 03006KT 6SM 16/13 A3006 RMK T01600130 IEM_DS3505
ZGOW,2001-11-07 18:00,ZGOW 071800Z AUTO 04006KT 9SM 18/14 A3006 RMK SLP180 T01750136 57014 IEM_DS3505
ZGOW,2001-11-07 19:00,ZGOW 071900Z AUTO 6SM 17/13 A3003 RMK T01700130 IEM_DS3505
ZGOW,2001-11-07 20:00,ZGOW 072000Z AUTO 6SM 16/13 A3003 RMK T01600130 IEM_DS3505
ZGOW,2001-11-07 21:00,ZGOW 072100Z AUTO 02002KT 9SM 17/14 A3003 RMK SLP175 T01660140 57005 IEM_DS3505
ZGOW,2001-11-07 22:00,ZGOW 072200Z AUTO 32004KT 6SM 16/13 A3006 RMK T01600130 IEM_DS3505
ZGOW,2001-11-07 23:00,ZGOW 072300Z AUTO 6SM 16/13 A3006 RMK T01600130 IEM_DS3505
ZGOW,2001-11-08 00:00,ZGOW 080000Z AUTO 04004KT 8SM 18/14 A3009 RMK SLP188 T01850140 52013 IEM_DS3505
ZGOW,2001-11-08 01:00,ZGOW 080100Z AUTO 31004KT 6SM 20/13 A3009 RMK T02000130 IEM_DS3505
ZGOW,2001-11-08 02:00,ZGOW 080200Z AUTO 08004KT 6SM 23/14 A3009 RMK T02300140 IEM_DS3505
ZGOW,2001-11-08 03:00,ZGOW 080300Z AUTO 07008KT 9SM 24/14 A3006 RMK SLP179 T02350136 57009 IEM_DS3505
ZGOW,2001-11-08 04:00,ZGOW 080400Z AUTO 08008KT 6SM 25/15 A3003 RMK T02500150 IEM_DS3505
ZGOW,2001-11-08 05:00,ZGOW 080500Z AUTO 10010KT 6SM 25/16 A3000 RMK T02500160 IEM_DS3505
ZGOW,2001-11-08 06:00,ZGOW 080600Z AUTO 07008KT 16SM 25/14 A2997 RMK SLP149 T02520143 57030 IEM_DS3505
ZGOW,2001-11-08 07:00,ZGOW 080700Z AUTO 08010KT 6SM 25/15 A2994 RMK T02500150 IEM_DS3505
ZGOW,2001-11-08 08:00,ZGOW 080800Z AUTO 12006KT 6SM 24/18 A2994 RMK T02400180 IEM_DS3505
ZGOW,2001-11-08 09:00,ZGOW 080900Z AUTO 11006KT 12SM 24/17 A2997 RMK SLP148 T02380170 57001 IEM_DS3505
ZGOW,2001-11-08 10:00,ZGOW 081000Z AUTO 07008KT 6SM 22/17 A2997 RMK T02200170 IEM_DS3505
ZGOW,2001-11-08 11:00,ZGOW 081100Z AUTO 08012KT 6SM 22/18 A3000 RMK T02200180 IEM_DS3505
ZGOW,2001-11-08 12:00,ZGOW 081200Z AUTO 07006KT 10SM 22/18 A3000 RMK SLP162 T02210181 52014 IEM_DS3505
ZGOW,2001-11-08 13:00,ZGOW 081300Z AUTO 05008KT 6SM 20/18 A3000 RMK T02000180 IEM_DS3505
ZGOW,2001-11-08 14:00,ZGOW 081400Z AUTO 07008KT 6SM 21/17 A3003 RMK T02100170 IEM_DS3505
ZGOW,2001-11-08 15:00,ZGOW 081500Z AUTO 07004KT 9SM 21/17 A3003 RMK SLP170 T02100174 52008 IEM_DS3505
ZGOW,2001-11-08 16:00,ZGOW 081600Z AUTO 03004KT 6SM 19/16 A3003 RMK T01900160 IEM_DS3505
ZGOW,2001-11-08 17:00,ZGOW 081700Z AUTO 36004KT 6SM 19/17 A3000 RMK T01900170 IEM_DS3505
ZGOW,2001-11-08 18:00,ZGOW 081800Z AUTO 02002KT 7SM 19/17 A3000 RMK SLP158 T01930173 57012 IEM_DS3505
ZGOW,2001-11-08 19:00,ZGOW 081900Z AUTO 35002KT 4SM 18/17 A2997 RMK T01800170 IEM_DS3505
ZGOW,2001-11-08 20:00,ZGOW 082000Z AUTO 3SM 18/16 A2997 RMK T01800160 IEM_DS3505
ZGOW,2001-11-08 21:00,ZGOW 082100Z AUTO 00000KT 7SM 18/16 A2997 RMK SLP155 T01760163 57003 IEM_DS3505
ZGOW,2001-11-08 22:00,ZGOW 082200Z AUTO 31004KT 3SM 17/16 A3000 RMK T01700160 IEM_DS3505
ZGOW,2001-11-08 23:00,ZGOW 082300Z AUTO 33002KT 4SM 18/15 A3003 RMK T01800150 IEM_DS3505
ZGOW,2001-11-09 00:00,ZGOW 090000Z AUTO 34004KT 8SM 19/14 A3006 RMK SLP180 T01900140 52025 IEM_DS3505
ZGOW,2001-11-09 01:00,ZGOW 090100Z AUTO 32006KT 6SM 20/14 A3006 RMK T02000140 IEM_DS3505
ZGOW,2001-11-09 02:00,ZGOW 090200Z AUTO 34004KT 6SM 23/15 A3006 RMK T02300150 IEM_DS3505
ZGOW,2001-11-09 03:00,ZGOW 090300Z AUTO 07004KT 10SM 25/14 A3003 RMK SLP173 T02490145 57007 IEM_DS3505
ZGOW,2001-11-09 04:00,ZGOW 090400Z AUTO 04006KT 6SM 25/13 A3003 RMK T02500130 IEM_DS3505
ZGOW,2001-11-09 05:00,ZGOW 090500Z AUTO 07008KT 6SM 26/13 A3000 RMK T02600130 IEM_DS3505
ZGOW,2001-11-09 06:00,ZGOW 090600Z AUTO 07004KT 12SM 26/14 A2997 RMK SLP143 T02640144 57030 IEM_DS3505
ZGOW,2001-11-09 07:00,ZGOW 090700Z AUTO 08006KT 6SM 25/15 A2994 RMK T02500150 IEM_DS3505
ZGOW,2001-11-09 08:00,ZGOW 090800Z AUTO 13006KT 6SM 24/17 A2994 RMK T02400170 IEM_DS3505
ZGOW,2001-11-09 09:00,ZGOW 090900Z AUTO 07004KT 11SM 24/15 A2997 RMK SLP143 T02370154 54000 IEM_DS3505
ZGOW,2001-11-09 10:00,ZGOW 091000Z AUTO 08012KT 6SM 22/16 A2997 RMK T02200160 IEM_DS3505
ZGOW,2001-11-09 11:00,ZGOW 091100Z AUTO 08014KT 6SM 22/16 A2997 RMK T02200160 IEM_DS3505
ZGOW,2001-11-09 12:00,ZGOW 091200Z AUTO 07008KT 9SM 22/16 A3000 RMK SLP164 T02180158 52021 IEM_DS3505
ZGOW,2001-11-09 13:00,ZGOW 091300Z AUTO 07019G29KT 6SM 21/14 A3003 RMK T02100140 IEM_DS3505
ZGOW,2001-11-09 14:00,ZGOW 091400Z AUTO 06014KT 6SM 21/14 A3003 RMK T02100140 IEM_DS3505
ZGOW,2001-11-09 15:00,ZGOW 091500Z AUTO 07006KT 10SM 21/13 A3003 RMK SLP172 T02100134 52008 IEM_DS3505
ZGOW,2001-11-09 16:00,ZGOW 091600Z AUTO 08006KT 6SM 19/14 A3003 RMK T01900140 IEM_DS3505
ZGOW,2001-11-09 17:00,ZGOW 091700Z AUTO 08002KT 3SM 18/14 A3003 RMK T01800140 IEM_DS3505
ZGOW,2001-11-09 18:00,ZGOW 091800Z AUTO 07004KT 9SM 20/13 A3003 RMK SLP166 T01970134 57006 IEM_DS3505
ZGOW,2001-11-09 19:00,ZGOW 091900Z AUTO 03004KT 6SM 17/14 A3000 RMK T01700140 IEM_DS3505
ZGOW,2001-11-09 20:00,ZGOW 092000Z AUTO 03006KT 6SM 16/13 A3000 RMK T01600130 IEM_DS3505
ZGOW,2001-11-09 21:00,ZGOW 092100Z AUTO 04004KT 9SM 18/14 A3000 RMK SLP166 T01770137 54000 IEM_DS3505
ZGOW,2001-11-09 22:00,ZGOW 092200Z AUTO 01006KT 6SM 17/13 A3003 RMK T01700130 IEM_DS3505
ZGOW,2001-11-09 23:00,ZGOW 092300Z AUTO 34004KT 6SM 17/13 A3003 RMK T01700130 IEM_DS3505
ZGOW,2001-11-10 00:00,ZGOW 100000Z AUTO 04002KT 5SM 18/14 A3003 RMK SLP175 T01780138 52009 IEM_DS3505
ZGOW,2001-11-10 01:00,ZGOW 100100Z AUTO 33004KT 6SM 19/14 A3006 RMK T01900140 IEM_DS3505
ZGOW,2001-11-10 02:00,ZGOW 100200Z AUTO 35006KT 6SM 21/13 A3006 RMK T02100130 IEM_DS3505
ZGOW,2001-11-10 03:00,ZGOW 100300Z AUTO 07004KT 6SM 24/13 A3003 RMK SLP173 T02360127 57002 IEM_DS3505
ZGOW,2001-11-10 04:00,ZGOW 100400Z AUTO 08010KT 6SM 24/13 A3003 RMK T02400130 IEM_DS3505
ZGOW,2001-11-10 05:00,ZGOW 100500Z AUTO 09012KT 6SM A2997 RMK IEM_DS3505
ZGOW,2001-11-10 06:00,ZGOW 100600Z AUTO 04010KT 9SM 24/14 A2997 RMK SLP151 T02410135 57022 IEM_DS3505
ZGOW,2001-11-10 07:00,ZGOW 100700Z AUTO 08016KT 24/15 A2994 RMK T02400150 IEM_DS3505
ZGOW,2001-11-10 08:00,ZGOW 100800Z AUTO 08012KT 6SM 23/15 A2994 RMK T02300150 IEM_DS3505
ZGOW,2001-11-10 09:00,ZGOW 100900Z AUTO 07008KT 8SM 23/14 A2997 RMK SLP152 T02260145 52001 IEM_DS3505
ZGOW,2001-11-10 10:00,ZGOW 101000Z AUTO 08014KT 6SM 21/15 A2997 RMK T02100150 IEM_DS3505
ZGOW,2001-11-10 11:00,ZGOW 101100Z AUTO 07014KT 6SM 21/15 A3000 RMK T02100150 IEM_DS3505
ZGOW,2001-11-10 12:00,ZGOW 101200Z AUTO 07010KT 7SM 21/15 A3000 RMK SLP164 T02120150 52012 IEM_DS3505
ZGOW,2001-11-10 13:00,ZGOW 101300Z AUTO 07016KT 6SM 21/15 A3003 RMK T02100150 IEM_DS3505
ZGOW,2001-11-10 14:00,ZGOW 101400Z AUTO 07012KT 6SM 20/15 A3003 RMK T02000150 IEM_DS3505
ZGOW,2001-11-10 15:00,ZGOW 101500Z AUTO 07006KT 7SM 20/15 A3003 RMK SLP170 T02010148 52006 IEM_DS3505
ZGOW,2001-11-10 16:00,ZGOW 101600Z AUTO 07010KT 6SM 19/14 A3003 RMK T01900140 IEM_DS3505
ZGOW,2001-11-10 17:00,ZGOW 101700Z AUTO 06006KT 6SM 18/14 A3003 RMK T01800140 IEM_DS3505
ZGOW,2001-11-10 18:00,ZGOW 101800Z AUTO 04004KT 7SM 19/15 A3003 RMK SLP169 T01890148 57001 IEM_DS3505
ZGOW,2001-11-10 19:00,ZGOW 101900Z AUTO 01004KT 6SM 18/14 A3003 RMK T01800140 IEM_DS3505
ZGOW,2001-11-10 20:01,ZGOW 102001Z AUTO 33004KT 6SM 18/14 A3000 RMK T01800140 IEM_DS3505
ZGOW,2001-11-10 21:00,ZGOW 102100Z AUTO 02004KT 7SM 18/15 A3000 RMK SLP160 T01760147 57009 IEM_DS3505
ZGOW,2001-11-10 22:00,ZGOW 102200Z AUTO 33006KT 4SM 17/13 A3003 RMK T01700130 IEM_DS3505
ZGOW,2001-11-10 23:00,ZGOW 102300Z AUTO 34004KT 4SM 17/13 A3003 RMK T01700130 IEM_DS3505
ZGOW,2001-11-11 00:00,ZGOW 110000Z AUTO 34004KT 9SM 19/13 A3003 RMK SLP177 T01880130 52017 IEM_DS3505
ZGOW,2001-11-11 01:00,ZGOW 110100Z AUTO 36006KT 20/13 A3006 RMK T02000130 IEM_DS3505
ZGOW,2001-11-11 02:00,ZGOW 110200Z AUTO 01004KT 6SM 23/14 A3006 RMK T02300140 IEM_DS3505
ZGOW,2001-11-11 03:00,ZGOW 110300Z AUTO 07008KT 9SM 24/13 A3006 RMK SLP178 T02380127 52001 IEM_DS3505
ZGOW,2001-11-11 04:00,ZGOW 110400Z AUTO 10008KT 6SM 24/14 A3003 RMK T02400140 IEM_DS3505
ZGOW,2001-11-11 05:00,ZGOW 110500Z AUTO 08008KT 6SM 24/12 A3000 RMK T02400120 IEM_DS3505
ZGOW,2001-11-11 06:00,ZGOW 110600Z AUTO 09006KT 6SM 24/12 A2997 RMK T02400120 IEM_DS3505
ZGOW,2001-11-11 07:00,ZGOW 110700Z AUTO 08006KT 6SM 24/12 A2997 RMK T02400120 IEM_DS3505
ZGOW,2001-11-11 08:00,ZGOW 110800Z AUTO 08012KT 6SM 23/13 A2997 RMK T02300130 IEM_DS3505
ZGOW,2001-11-11 09:00,ZGOW 110900Z AUTO 11004KT 9SM 23/14 A2997 RMK SLP151 T02290143 52003 IEM_DS3505
ZGOW,2001-11-11 10:00,ZGOW 111000Z AUTO 08010KT 6SM 21/14 A3000 RMK T02100140 IEM_DS3505
ZGOW,2001-11-11 11:00,ZGOW 111100Z AUTO 07010KT 6SM 21/15 A3000 RMK T02100150 IEM_DS3505
ZGOW,2001-11-11 12:00,ZGOW 111200Z AUTO 07008KT 7SM 21/15 A3003 RMK SLP172 T02120150 52021 IEM_DS3505
ZGOW,2001-11-11 13:00,ZGOW 111300Z AUTO 06012KT 6SM 20/16 A3006 RMK T02000160 IEM_DS3505
ZGOW,2001-11-11 14:00,ZGOW 111400Z AUTO 07010KT 6SM 20/15 A3006 RMK T02000150 IEM_DS3505
ZGOW,2001-11-11 15:00,ZGOW 111500Z AUTO 07008KT 7SM 20/15 A3006 RMK SLP181 T02020149 52009 IEM_DS3505
ZGOW,2001-11-11 16:00,ZGOW 111600Z AUTO 07008KT 6SM 19/13 A3006 RMK T01900130 IEM_DS3505
ZGOW,2001-11-11 17:00,ZGOW 111700Z AUTO 04006KT 6SM 17/14 A3006 RMK T01700140 IEM_DS3505
ZGOW,2001-11-11 18:00,ZGOW 111800Z AUTO 07004KT 6SM 19/14 A3003 RMK SLP174 T01880143 57007 IEM_DS3505
ZGOW,2001-11-11 19:00,ZGOW 111900Z AUTO 04004KT 3SM 16/14 A3003 RMK T01600140 IEM_DS3505
ZGOW,2001-11-11 20:00,ZGOW 112000Z AUTO 03006KT 3SM 15/13 A3003 RMK T01500130 IEM_DS3505
ZGOW,2001-11-11 21:00,ZGOW 112100Z AUTO 04004KT 6SM 17/15 A3003 RMK SLP173 T01660147 57001 IEM_DS3505
ZGOW,2001-11-11 22:00,ZGOW 112200Z AUTO 04004KT 4SM 15/12 A3006 RMK T01500120 IEM_DS3505
ZGOW,2001-11-11 23:00,ZGOW 112300Z AUTO 04006KT 3SM 15/13 A3009 RMK T01500130 IEM_DS3505
ZGOW,2001-11-12 00:00,ZGOW 120000Z AUTO 04004KT 6SM 18/13 A3009 RMK SLP191 T01800126 52018 IEM_DS3505
ZGOW,2001-11-12 01:00,ZGOW 120100Z AUTO 04008KT 3SM 20/12 A3012 RMK T02000120 IEM_DS3505
ZGOW,2001-11-12 02:00,ZGOW 120200Z AUTO 04010KT 6SM 22/11 A3009 RMK T02200110 IEM_DS3505
ZGOW,2001-11-12 03:00,ZGOW 120300Z AUTO 07010KT 7SM 23/09 A3009 RMK SLP187 T02260092 57004 IEM_DS3505
ZGOW,2001-11-12 04:00,ZGOW 120400Z AUTO 08014KT 6SM 23/10 A3006 RMK T02300100 IEM_DS3505
ZGOW,2001-11-12 05:00,ZGOW 120500Z AUTO 08016KT 6SM 24/09 A3003 RMK T02400090 IEM_DS3505
ZGOW,2001-11-12 06:00,ZGOW 120600Z AUTO 07006KT 9SM 24/09 A3000 RMK T02410087 IEM_DS3505
ZGOW,2001-11-12 07:00,ZGOW 120700Z AUTO 08016KT 6SM 23/10 A3000 RMK T02300100 IEM_DS3505
ZGOW,2001-11-12 09:00,ZGOW 120900Z AUTO 07008KT 9SM 22/12 A3003 RMK SLP164 T02170119 52003 IEM_DS3505
ZGOW,2001-11-12 10:00,ZGOW 121000Z AUTO 07012KT 6SM 21/13 A3003 RMK T02100130 IEM_DS3505
ZGOW,2001-11-12 11:00,ZGOW 121100Z AUTO 07012KT 6SM 20/13 A3003 RMK T02000130 IEM_DS3505
ZGOW,2001-11-12 12:00,ZGOW 121200Z AUTO 07008KT 8SM 21/13 A3006 RMK SLP182 T02090132 52018 IEM_DS3505
ZGOW,2001-11-12 13:00,ZGOW 121300Z AUTO 08014KT 6SM 20/13 A3009 RMK T02000130 IEM_DS3505
ZGOW,2001-11-12 14:00,ZGOW 121400Z AUTO 08016KT 6SM 20/10 A3009 RMK T02000100 IEM_DS3505
ZGOW,2001-11-12 15:00,ZGOW 121500Z AUTO 07010KT 8SM 20/09 A3009 RMK SLP192 T02010087 52010 IEM_DS3505
ZGOW,2001-11-12 16:00,ZGOW 121600Z AUTO 07014KT 6SM 20/08 A3009 RMK T02000080 IEM_DS3505
ZGOW,2001-11-12 17:00,ZGOW 121700Z AUTO 06010KT 6SM 19/09 A3009 RMK T01900090 IEM_DS3505
ZGOW,2001-11-12 18:00,ZGOW 121800Z AUTO 07006KT 8SM 19/10 A3006 RMK 60003 SLP183 T01920103 57009 IEM_DS3505
ZGOW,2001-11-12 19:00,ZGOW 121900Z AUTO 07012KT 6SM 19/09 A3006 RMK T01900090 IEM_DS3505
ZGOW,2001-11-12 20:00,ZGOW 122000Z AUTO 03008KT 6SM 17/10 A3006 RMK T01700100 IEM_DS3505
ZGOW,2001-11-12 21:00,ZGOW 122100Z AUTO 09006KT 6SM 18/09 A3006 RMK 70001 SLP183 T01770093 54000 IEM_DS3505
ZGOW,2001-11-12 22:00,ZGOW 122200Z AUTO 04004KT 6SM 18/09 A3009 RMK T01800090 IEM_DS3505
ZGOW,2001-11-12 23:00,ZGOW 122300Z AUTO 34006KT 7SM 18/09 A3012 RMK T01800090 IEM_DS3505
ZGOW,2001-11-13 00:00,ZGOW 130000Z AUTO 07004KT 7SM 19/09 A3012 RMK 60000 SLP204 T01880091 52021 IEM_DS3505
ZGOW,2001-11-13 01:00,ZGOW 130100Z AUTO 31004KT 18/12 A3015 RMK T01800120 IEM_DS3505
ZGOW,2001-11-13 02:00,ZGOW 130200Z AUTO 20002KT 7SM 18/11 A3015 RMK T01800110 IEM_DS3505
ZGOW,2001-11-13 03:00,ZGOW 130300Z AUTO 29002KT 7SM 18/11 A3012 RMK SLP203 T01850107 57001 IEM_DS3505
ZGOW,2001-11-13 04:00,ZGOW 130400Z AUTO 29002KT 2 1/2SM 19/11 A3009 RMK T01900110 IEM_DS3505
ZGOW,2001-11-13 05:00,ZGOW 130500Z AUTO 25004KT 2 1/2SM 19/12 A3006 RMK T01900120 IEM_DS3505
ZGOW,2001-11-13 06:00,ZGOW 130600Z AUTO 25006KT 7SM 19/14 A3003 RMK 60003 SLP167 T01940137 57036 IEM_DS3505
ZGOW,2001-11-13 07:00,ZGOW 130700Z AUTO 08004KT 6SM 21/10 A3000 RMK T02100100 IEM_DS3505
ZGOW,2001-11-13 08:00,ZGOW 130800Z AUTO 14002KT 6SM 20/11 A3000 RMK T02000110 IEM_DS3505
ZGOW,2001-11-13 09:00,ZGOW 130900Z AUTO 20004KT 7SM 20/14 A3003 RMK SLP165 T01960139 57002 IEM_DS3505
ZGOW,2001-11-13 10:00,ZGOW 131000Z AUTO 20/11 A3003 RMK T02000110 IEM_DS3505
ZGOW,2001-11-13 11:00,ZGOW 131100Z AUTO 20/13 A3006 RMK T02000130 IEM_DS3505
ZGOW,2001-11-13 12:00,ZGOW 131200Z AUTO 00000KT 5SM 19/14 A3009 RMK SLP185 T01930139 52020 IEM_DS3505
ZGOW,2001-11-13 13:00,ZGOW 131300Z AUTO 32002KT 2 1/2SM 19/14 A3009 RMK T01900140 IEM_DS3505
ZGOW,2001-11-13 14:00,ZGOW 131400Z AUTO 32002KT 20/13 A3012 RMK T02000130 IEM_DS3505
ZGOW,2001-11-13 15:00,ZGOW 131500Z AUTO 02002KT 5SM 19/14 A3012 RMK SLP203 T01940138 52018 IEM_DS3505
ZGOW,2001-11-13 16:00,ZGOW 131600Z AUTO 35002KT 19/13 A3012 RMK T01900130 IEM_DS3505
ZGOW,2001-11-13 17:00,ZGOW 131700Z AUTO 3SM 19/14 A3012 RMK T01900140 IEM_DS3505
ZGOW,2001-11-13 18:00,ZGOW 131800Z AUTO 02002KT 5SM 19/15 A3012 RMK 60003 SLP195 T01860146 57008 IEM_DS3505
ZGOW,2001-11-13 19:00,ZGOW 131900Z AUTO 34004KT 3SM 19/14 A3009 RMK T01900140 IEM_DS3505
ZGOW,2001-11-13 20:00,ZGOW 132000Z AUTO 35004KT 6SM 19/12 A3009 RMK T01900120 IEM_DS3505
ZGOW,2001-11-13 21:00,ZGOW 132100Z AUTO 02004KT 6SM 18/11 A3009 RMK 70003 SLP196 T01850112 52001 IEM_DS3505
ZGOW,2001-11-13 22:00,ZGOW 132200Z AUTO 34006KT 19/09 A3012 RMK T01900090 IEM_DS3505
ZGOW,2001-11-13 23:00,ZGOW 132300Z AUTO 32006KT 18/09 A3015 RMK T01800090 IEM_DS3505
ZGOW,2001-11-14 00:00,ZGOW 140000Z AUTO 36006KT 6SM 18/09 A3015 RMK 60003 SLP217 T01790093 52021 IEM_DS3505
ZGOW,2001-11-14 01:00,ZGOW 140100Z AUTO 34008KT 2 1/2SM 17/11 A3018 RMK T01700110 IEM_DS3505
ZGOW,2001-11-14 02:00,ZGOW 140200Z AUTO 33006KT 2 1/2SM 18/11 A3018 RMK T01800110 IEM_DS3505
ZGOW,2001-11-14 03:00,ZGOW 140300Z AUTO 04006KT 6SM 19/09 A3018 RMK SLP221 T01870094 52004 IEM_DS3505
ZGOW,2001-11-14 04:00,ZGOW 140400Z AUTO 35010KT 2 1/2SM 17/10 A3015 RMK T01700100 IEM_DS3505
ZGOW,2001-11-14 05:00,ZGOW 140500Z AUTO 34006KT 2 1/2SM 19/11 A3015 RMK T01900110 IEM_DS3505
ZGOW,2001-11-14 06:00,ZGOW 140600Z AUTO 07006KT 5SM 18/11 A3012 RMK 60003 SLP197 T01830107 57024 IEM_DS3505
ZGOW,2001-11-14 07:00,ZGOW 140700Z AUTO 34008KT 2SM 18/11 A3009 RMK T01800110 IEM_DS3505
ZGOW,2001-11-14 08:00,ZGOW 140800Z AUTO 33006KT 2SM 17/12 A3012 RMK T01700120 IEM_DS3505
ZGOW,2001-11-14 09:00,ZGOW 140900Z AUTO 02006KT 3SM 16/12 A3015 RMK SLP206 T01560115 52009 IEM_DS3505
ZGOW,2001-11-14 10:00,ZGOW 141000Z AUTO 35006KT 2SM 15/12 A3015 RMK T01500120 IEM_DS3505
ZGOW,2001-11-14 11:00,ZGOW 141100Z AUTO 35006KT 2SM 15/11 A3018 RMK T01500110 IEM_DS3505
ZGOW,2001-11-14 12:00,ZGOW 141200Z AUTO 32004KT 4SM 14/11 A3018 RMK 60004 SLP223 T01430113 52017 IEM_DS3505
ZGOW,2001-11-14 13:00,ZGOW 141300Z AUTO 32006KT 2SM 14/12 A3024 RMK T01400120 IEM_DS3505
ZGOW,2001-11-14 14:00,ZGOW 141400Z AUTO 34006KT 3SM 14/10 A3024 RMK T01400100 IEM_DS3505
ZGOW,2001-11-14 15:00,ZGOW 141500Z AUTO 02006KT 4SM 13/09 A3024 RMK SLP247 T01340088 52024 IEM_DS3505
ZGOW,2001-11-14 16:00,ZGOW 141600Z AUTO 34004KT 6SM 13/09 A3024 RMK T01300090 IEM_DS3505
ZGOW,2001-11-14 17:00,ZGOW 141700Z AUTO 35006KT 6SM 13/09 A3024 RMK T01300090 IEM_DS3505
ZGOW,2001-11-14 18:00,ZGOW 141800Z AUTO 02004KT 6SM 12/09 A3024 RMK 60004 SLP242 T01230087 57005 IEM_DS3505
ZGOW,2001-11-14 19:00,ZGOW 141900Z AUTO 34004KT 6SM 12/10 A3021 RMK T01200100 IEM_DS3505
ZGOW,2001-11-14 20:00,ZGOW 142000Z AUTO 34008KT 6SM 12/09 A3021 RMK T01200090 IEM_DS3505
ZGOW,2001-11-14 21:00,ZGOW 142100Z AUTO 00000KT 7SM 12/09 A3018 RMK 70012 SLP220 T01200088 57022 IEM_DS3505
ZGOW,2001-11-14 22:00,ZGOW 142200Z AUTO 34006KT 7SM 12/08 A3018 RMK T01200080 IEM_DS3505
ZGOW,2001-11-14 23:00,ZGOW 142300Z AUTO 30004KT 3SM 12/09 A3018 RMK T01200090 IEM_DS3505
ZGOW,2001-11-15 00:00,ZGOW 150000Z AUTO 04002KT 8SM 13/06 A3024 RMK 60003 SLP236 T01320065 52016 IEM_DS3505
ZGOW,2001-11-15 01:00,ZGOW 150100Z AUTO 32008KT 7SM 14/07 A3024 RMK T01400070 IEM_DS3505
ZGOW,2001-11-15 02:00,ZGOW 150200Z AUTO 32008KT 7SM 15/07 A3024 RMK T01500070 IEM_DS3505
ZGOW,2001-11-15 03:00,ZGOW 150300Z AUTO 02006KT 9SM 16/06 A3021 RMK SLP230 T01640056 57006 IEM_DS3505
ZGOW,2001-11-15 04:00,ZGOW 150400Z AUTO 33010KT 7SM 17/06 A3018 RMK T01700060 IEM_DS3505
ZGOW,2001-11-15 05:00,ZGOW 150500Z AUTO 34006KT 7SM 18/06 A3015 RMK T01800060 IEM_DS3505
ZGOW,2001-11-15 06:00,ZGOW 150600Z AUTO 04006KT 9SM 19/05 A3012 RMK SLP204 T01890054 57026 IEM_DS3505
ZGOW,2001-11-15 07:00,ZGOW 150700Z AUTO 34006KT 6SM 18/05 A3012 RMK T01800050 IEM_DS3505
ZGOW,2001-11-15 08:00,ZGOW 150800Z AUTO 33006KT 6SM 18/05 A3012 RMK T01800050 IEM_DS3505
ZGOW,2001-11-15 09:00,ZGOW 150900Z AUTO 02004KT 9SM 18/05 A3012 RMK SLP201 T01760046 57003 IEM_DS3505
ZGOW,2001-11-15 10:00,ZGOW 151000Z AUTO 34004KT 6SM 17/05 A3015 RMK T01700050 IEM_DS3505
ZGOW,2001-11-15 11:00,ZGOW 151100Z AUTO 35004KT 6SM 16/06 A3015 RMK T01600060 IEM_DS3505
ZGOW,2001-11-15 12:00,ZGOW 151200Z AUTO 04002KT 7SM 16/07 A3018 RMK SLP220 T01590067 52019 IEM_DS3505
ZGOW,2001-11-15 13:00,ZGOW 151300Z AUTO 35004KT 6SM 15/07 A3021 RMK T01500070 IEM_DS3505
ZGOW,2001-11-15 14:00,ZGOW 151400Z AUTO 33004KT 6SM 15/07 A3021 RMK T01500070 IEM_DS3505
ZGOW,2001-11-15 15:00,ZGOW 151500Z AUTO 02004KT 7SM 15/06 A3024 RMK SLP233 T01500063 52013 IEM_DS3505
ZGOW,2001-11-15 16:00,ZGOW 151600Z AUTO 34004KT 6SM 14/06 A3021 RMK T01400060 IEM_DS3505
ZGOW,2001-11-15 17:00,ZGOW 151700Z AUTO 36002KT 6SM 14/06 A3021 RMK T01400060 IEM_DS3505
ZGOW,2001-11-15 18:00,ZGOW 151800Z AUTO 34002KT 7SM 14/06 A3021 RMK SLP232 T01370061 57001 IEM_DS3505
ZGOW,2001-11-15 19:00,ZGOW 151900Z AUTO 35004KT 6SM 13/06 A3018 RMK T01300060 IEM_DS3505
ZGOW,2001-11-15 20:00,ZGOW 152000Z AUTO 35002KT 6SM 12/05 A3018 RMK T01200050 IEM_DS3505
ZGOW,2001-11-15 21:00,ZGOW 152100Z AUTO 04004KT 9SM 12/05 A3018 RMK 70003 SLP220 T01180050 57012 IEM_DS3505
ZGOW,2001-11-15 22:00,ZGOW 152200Z AUTO 6SM 10/05 A3018 RMK T01000050 IEM_DS3505
ZGOW,2001-11-15 23:00,ZGOW 152300Z AUTO 34004KT 6SM 10/05 A3021 RMK T01000050 IEM_DS3505
ZGOW,2001-11-16 00:00,ZGOW 160000Z AUTO 04006KT 9SM 13/05 A3021 RMK SLP231 T01340047 52011 IEM_DS3505
ZGOW,2001-11-16 01:00,ZGOW 160100Z AUTO 35004KT 6SM 16/04 A3021 RMK T01600040 IEM_DS3505
ZGOW,2001-11-16 02:00,ZGOW 160200Z AUTO 04008KT 6SM 18/02 A3021 RMK T01800020 IEM_DS3505
ZGOW,2001-11-16 03:00,ZGOW 160300Z AUTO 07006KT 9SM 20/04 A3021 RMK SLP226 T01960035 57005 IEM_DS3505
ZGOW,2001-11-16 04:00,ZGOW 160400Z AUTO 07010KT 6SM 20/01 A3018 RMK T02000010 IEM_DS3505
ZGOW,2001-11-16 05:00,ZGOW 160500Z AUTO 08010KT 6SM 21/01 A3015 RMK T02100010 IEM_DS3505
ZGOW,2001-11-16 06:00,ZGOW 160600Z AUTO 09006KT 11SM 21/02 A3012 RMK SLP199 T02080017 57027 IEM_DS3505
ZGOW,2001-11-16 07:00,ZGOW 160700Z AUTO 09010KT 6SM 21/02 A3012 RMK T02100020 IEM_DS3505
ZGOW,2001-11-16 08:00,ZGOW 160800Z AUTO 09010KT 6SM 21/03 A3012 RMK T02100030 IEM_DS3505
ZGOW,2001-11-16 09:00,ZGOW 160900Z AUTO 07006KT 10SM 20/03 A3012 RMK SLP201 T02000033 52002 IEM_DS3505
ZGOW,2001-11-16 10:00,ZGOW 161000Z AUTO 06008KT 6SM 17/09 A3012 RMK T01700090 IEM_DS3505
ZGOW,2001-11-16 11:00,ZGOW 161100Z AUTO 07008KT 6SM 16/10 A3015 RMK T01600100 IEM_DS3505
ZGOW,2001-11-16 12:00,ZGOW 161200Z AUTO 34002KT 9SM 17/10 A3018 RMK SLP214 T01680104 52013 IEM_DS3505
ZGOW,2001-11-16 13:00,ZGOW 161300Z AUTO 06008KT 6SM 16/11 A3018 RMK T01600110 IEM_DS3505
ZGOW,2001-11-16 15:00,ZGOW 161500Z AUTO 07006KT 8SM 16/11 A3018 RMK SLP225 T01640108 52011 IEM_DS3505
ZGOW,2001-11-16 16:00,ZGOW 161600Z AUTO 05006KT 3SM 12/09 A3018 RMK T01200090 IEM_DS3505
ZGOW,2001-11-16 17:00,ZGOW 161700Z AUTO 36002KT 6SM 14/08 A3018 RMK T01400080 IEM_DS3505
ZGOW,2001-11-16 18:00,ZGOW 161800Z AUTO 04004KT 7SM 13/09 A3018 RMK SLP220 T01260090 57005 IEM_DS3505
ZGOW,2001-11-16 19:00,ZGOW 161900Z AUTO 32004KT 5SM 12/09 A3018 RMK T01200090 IEM_DS3505
ZGOW,2001-11-16 20:00,ZGOW 162000Z AUTO 30002KT 6SM 12/09 A3018 RMK T01200090 IEM_DS3505
ZGOW,2001-11-16 21:00,ZGOW 162100Z AUTO 02004KT 7SM 11/06 A3018 RMK SLP218 T01120065 57002 IEM_DS3505
ZGOW,2001-11-16 22:00,ZGOW 162200Z AUTO 32002KT 6SM 10/07 A3018 RMK T01000070 IEM_DS3505
ZGOW,2001-11-16 23:00,ZGOW 162300Z AUTO 6SM 10/06 A3021 RMK T01000060 IEM_DS3505
ZGOW,2001-11-17 00:00,ZGOW 170000Z AUTO 04004KT 9SM 13/06 A3021 RMK SLP237 T01330064 52019 IEM_DS3505
ZGOW,2001-11-17 01:00,ZGOW 170100Z AUTO 04002KT 6SM 16/05 A3024 RMK T01600050 IEM_DS3505
ZGOW,2001-11-17 02:00,ZGOW 170200Z AUTO 08004KT 6SM 18/05 A3024 RMK T01800050 IEM_DS3505
ZGOW,2001-11-17 03:00,ZGOW 170300Z AUTO 04010KT 9SM 20/03 A3021 RMK SLP233 T02010031 57004 IEM_DS3505
ZGOW,2001-11-17 04:00,ZGOW 170400Z AUTO 07008KT 6SM 21/04 A3018 RMK T02100040 IEM_DS3505
ZGOW,2001-11-17 05:00,ZGOW 170500Z AUTO 10010KT 6SM 22/05 A3015 RMK T02200050 IEM_DS3505
ZGOW,2001-11-17 06:00,ZGOW 170600Z AUTO 04002KT 9SM 22/04 RMK SLP200 T02190040 57033 IEM_DS3505
ZGOW,2001-11-17 07:00,ZGOW 170700Z AUTO 08010KT 6SM 22/04 A3012 RMK T02200040 IEM_DS3505
ZGOW,2001-11-17 08:00,ZGOW 170800Z AUTO 08012KT 6SM 21/06 A3012 RMK T02100060 IEM_DS3505
ZGOW,2001-11-17 09:00,ZGOW 170900Z AUTO 07008KT 9SM 20/06 A3012 RMK SLP192 T02000062 57008 IEM_DS3505
ZGOW,2001-11-17 10:00,ZGOW 171000Z AUTO 08008KT 6SM 18/10 A3012 RMK T01800100 IEM_DS3505
ZGOW,2001-11-17 11:00,ZGOW 171100Z AUTO 08010KT 6SM 18/10 A3015 RMK T01800100 IEM_DS3505
ZGOW,2001-11-17 12:00,ZGOW 171200Z AUTO 07006KT 9SM 18/10 A3018 RMK SLP219 T01800097 52027 IEM_DS3505
ZGOW,2001-11-17 13:00,ZGOW 171300Z AUTO 09010KT 6SM 17/10 A3018 RMK T01700100 IEM_DS3505
ZGOW,2001-11-17 14:00,ZGOW 171400Z AUTO 08008KT 6SM 16/09 A3018 RMK T01600090 IEM_DS3505
ZGOW,2001-11-17 15:00,ZGOW 171500Z AUTO 07006KT 9SM 17/09 A3021 RMK SLP227 T01670092 52008 IEM_DS3505
ZGOW,2001-11-17 16:01,ZGOW 171601Z AUTO 03008KT 6SM 13/08 A3021 RMK T01300080 IEM_DS3505
ZGOW,2001-11-17 17:00,ZGOW 171700Z AUTO 32004KT 5SM 13/09 A3021 RMK T01300090 IEM_DS3505
ZGOW,2001-11-17 18:00,ZGOW 171800Z AUTO 30002KT 2 1/2SM 13/10 A3021 RMK T01300100 IEM_DS3505
ZGOW,2001-11-17 19:00,ZGOW 171900Z AUTO 31004KT 2SM 12/09 A3018 RMK T01200090 IEM_DS3505
ZGOW,2001-11-17 20:00,ZGOW 172000Z AUTO 32004KT 3SM 12/09 A3018 RMK T01200090 IEM_DS3505
ZGOW,2001-11-17 21:00,ZGOW 172100Z AUTO 04002KT 6SM 12/09 RMK SLP223 T01190093 57007 IEM_DS3505
ZGOW,2001-11-17 21:01,ZGOW 172101Z AUTO 30002KT 3SM 12/10 A3018 RMK T01200100 IEM_DS3505
ZGOW,2001-11-17 22:00,ZGOW 172200Z AUTO 33004KT 3SM 11/09 A3018 RMK T01100090 IEM_DS3505
ZGOW,2001-11-17 23:00,ZGOW 172300Z AUTO 31002KT 2 1/2SM 11/09 A3021 RMK T01100090 IEM_DS3505
ZGOW,2001-11-18 00:00,ZGOW 180000Z AUTO 07004KT 7SM 14/08 A3021 RMK SLP235 T01430083 52012 IEM_DS3505
ZGOW,2001-11-18 01:00,ZGOW 180100Z AUTO 33002KT 3SM 15/10 A3024 RMK T01500100 IEM_DS3505
ZGOW,2001-11-18 02:00,ZGOW 180200Z AUTO 07004KT 7SM 19/08 A3024 RMK T01900080 IEM_DS3505
ZGOW,2001-11-18 03:00,ZGOW 180300Z AUTO 07006KT 7SM 20/06 A3021 RMK SLP230 T02000062 57005 IEM_DS3505
ZGOW,2001-11-18 04:00,ZGOW 180400Z AUTO 07008KT 6SM 21/05 A3018 RMK T02100050 IEM_DS3505
ZGOW,2001-11-18 05:00,ZGOW 180500Z AUTO 09006KT 6SM 21/06 A3015 RMK T02100060 IEM_DS3505
ZGOW,2001-11-18 06:00,ZGOW 180600Z AUTO 18004KT 11SM 22/07 A3012 RMK SLP202 T02160067 57028 IEM_DS3505
ZGOW,2001-11-18 07:00,ZGOW 180700Z AUTO 12008KT 6SM 21/08 A3012 RMK T02100080 IEM_DS3505
ZGOW,2001-11-18 08:00,ZGOW 180800Z AUTO 13008KT 6SM 21/11 A3012 RMK T02100110 IEM_DS3505
ZGOW,2001-11-18 09:00,ZGOW 180900Z AUTO 11006KT 9SM 20/11 A3015 RMK SLP204 T01990109 52002 IEM_DS3505
ZGOW,2001-11-18 10:00,ZGOW 181000Z AUTO 07006KT 3SM 17/12 A3015 RMK T01700120 IEM_DS3505
ZGOW,2001-11-18 11:00,ZGOW 181100Z AUTO 08008KT 4SM 17/12 A3018 RMK T01700120 IEM_DS3505
ZGOW,2001-11-18 12:00,ZGOW 181200Z AUTO 07004KT 7SM 18/12 A3018 RMK SLP221 T01790123 52017 IEM_DS3505
ZGOW,2001-11-18 13:00,ZGOW 181300Z AUTO 07010KT 6SM 17/12 A3021 RMK T01700120 IEM_DS3505
ZGOW,2001-11-18 15:00,ZGOW 181500Z AUTO 04006KT 7SM 17/11 A3021 RMK SLP228 T01670109 52007 IEM_DS3505
ZGOW,2001-11-18 16:00,ZGOW 181600Z AUTO 06004KT 6SM 13/10 A3021 RMK T01300100 IEM_DS3505
ZGOW,2001-11-18 17:00,ZGOW 181700Z AUTO 06006KT 3SM 13/09 A3018 RMK T01300090 IEM_DS3505
ZGOW,2001-11-18 18:00,ZGOW 181800Z AUTO 04004KT 6SM 15/10 A3018 RMK SLP224 T01480100 57004 IEM_DS3505
ZGOW,2001-11-18 19:00,ZGOW 181900Z AUTO 36002KT 3SM 13/09 A3018 RMK T01300090 IEM_DS3505
ZGOW,2001-11-18 20:00,ZGOW 182000Z AUTO 02004KT 4SM 12/08 A3018 RMK T01200080 IEM_DS3505
ZGOW,2001-11-18 21:00,ZGOW 182100Z AUTO 07004KT 6SM 13/09 RMK SLP217 T01290093 57007 IEM_DS3505
ZGOW,2001-11-18 23:00,ZGOW 182300Z AUTO 33002KT 2 1/2SM 12/09 A3021 RMK T01200090 IEM_DS3505
ZGOW,2001-11-19 00:00,ZGOW 190000Z AUTO 04002KT 5SM 14/10 RMK SLP234 T01410098 52017 IEM_DS3505
ZGOW,2001-11-19 01:00,ZGOW 190100Z AUTO 02006KT 17/06 A3021 RMK T01700060 IEM_DS3505
ZGOW,2001-11-19 02:00,ZGOW 190200Z AUTO 04010KT 6SM 19/05 A3024 RMK T01900050 IEM_DS3505
ZGOW,2001-11-19 03:00,ZGOW 190300Z AUTO 07008KT 6SM 20/05 RMK SLP229 T02030049 57005 IEM_DS3505
ZGOW,2001-11-19 04:00,ZGOW 190400Z AUTO 06010KT 6SM 21/03 A3018 RMK T02100030 IEM_DS3505
ZGOW,2001-11-19 05:00,ZGOW 190500Z AUTO 09010KT 6SM 21/05 A3015 RMK T02100050 IEM_DS3505
ZGOW,2001-11-19 06:00,ZGOW 190600Z AUTO 07006KT 7SM 21/06 A3015 RMK SLP198 T02130060 57031 IEM_DS3505
ZGOW,2001-11-19 07:00,ZGOW 190700Z AUTO 10006KT 6SM 22/05 A3012 RMK T02200050 IEM_DS3505
ZGOW,2001-11-19 08:00,ZGOW 190800Z AUTO 12006KT 6SM 21/06 A3012 RMK T02100060 IEM_DS3505
ZGOW,2001-11-19 09:00,ZGOW 190900Z AUTO 07006KT 7SM 20/09 A3012 RMK SLP199 T01960090 52001 IEM_DS3505
ZGOW,2001-11-19 10:00,ZGOW 191000Z AUTO 09004KT 6SM 17/09 A3015 RMK T01700090 IEM_DS3505
ZGOW,2001-11-19 11:00,ZGOW 191100Z AUTO 08006KT 6SM 16/10 A3015 RMK T01600100 IEM_DS3505
ZGOW,2001-11-19 12:00,ZGOW 191200Z AUTO 07004KT 6SM 18/10 A3018 RMK SLP217 T01770100 52018 IEM_DS3505
ZGOW,2001-11-19 13:00,ZGOW 191300Z AUTO 05006KT 6SM 14/10 A3018 RMK T01400100 IEM_DS3505
ZGOW,2001-11-19 14:00,ZGOW 191400Z AUTO 04010KT 6SM 14/11 A3021 RMK T01400110 IEM_DS3505
ZGOW,2001-11-19 15:00,ZGOW 191500Z AUTO 07006KT 4SM 16/11 A3021 RMK SLP231 T01650107 52014 IEM_DS3505
ZGOW,2001-11-19 16:00,ZGOW 191600Z AUTO 35002KT 6SM 15/11 A3021 RMK T01500110 IEM_DS3505
ZGOW,2001-11-19 17:00,ZGOW 191700Z AUTO 29002KT 6SM 14/10 A3021 RMK T01400100 IEM_DS3505
ZGOW,2001-11-19 18:00,ZGOW 191800Z AUTO 02004KT 5SM 14/10 A3018 RMK SLP223 T01370096 57008 IEM_DS3505
ZGOW,2001-11-19 19:00,ZGOW 191900Z AUTO 33002KT 2 1/2SM 12/10 A3018 RMK T01200100 IEM_DS3505
ZGOW,2001-11-19 20:00,ZGOW 192000Z AUTO 36002KT 3SM 12/09 A3018 RMK T01200090 IEM_DS3505
ZGOW,2001-11-19 21:00,ZGOW 192100Z AUTO 07006KT 5SM 13/08 A3018 RMK SLP221 T01280079 57002 IEM_DS3505
ZGOW,2001-11-19 22:00,ZGOW 192200Z AUTO 33004KT 3SM 11/09 A3018 RMK T01100090 IEM_DS3505
ZGOW,2001-11-19 23:00,ZGOW 192300Z AUTO 3SM 11/08 A3021 RMK T01100080 IEM_DS3505
ZGOW,2001-11-20 00:00,ZGOW 200000Z AUTO 04004KT 5SM 14/08 A3021 RMK SLP233 T01360075 52012 IEM_DS3505
ZGOW,2001-11-20 01:00,ZGOW 200100Z AUTO 31004KT 15/08 A3021 RMK T01500080 IEM_DS3505
ZGOW,2001-11-20 02:00,ZGOW 200200Z AUTO 34004KT 9SM 18/07 A3021 RMK T01800070 IEM_DS3505
ZGOW,2001-11-20 03:00,ZGOW 200300Z AUTO 07004KT 9SM 20/04 A3021 RMK SLP227 T01980035 57006 IEM_DS3505
ZGOW,2001-11-20 04:00,ZGOW 200400Z AUTO 06012KT 22/03 A3018 RMK T02200030 IEM_DS3505
ZGOW,2001-11-20 05:00,ZGOW 200500Z AUTO 08008KT 22/05 A3015 RMK T02200050 IEM_DS3505
ZGOW,2001-11-20 06:00,ZGOW 200600Z AUTO 11008KT 9SM 22/04 A3012 RMK SLP200 T02220036 57027 IEM_DS3505
ZGOW,2001-11-20 09:00,ZGOW 200900Z AUTO 09004KT 8SM 20/08 RMK SLP203 T02030077 52003 IEM_DS3505
ZGOW,2001-11-20 12:00,ZGOW 201200Z AUTO 07004KT 7SM 18/10 A3018 RMK SLP218 T01770102 52015 IEM_DS3505
ZGOW,2001-11-20 13:00,ZGOW 201300Z AUTO 11004KT 6SM 16/09 A3018 RMK T01600090 IEM_DS3505
ZGOW,2001-11-20 14:00,ZGOW 201400Z AUTO 12002KT 6SM 15/10 A3021 RMK T01500100 IEM_DS3505
ZGOW,2001-11-20 15:00,ZGOW 201500Z AUTO 07004KT 7SM 16/10 A3021 RMK SLP230 T01630096 52012 IEM_DS3505
ZGOW,2001-11-20 16:00,ZGOW 201600Z AUTO 02008KT 6SM 14/08 A3021 RMK T01400080 IEM_DS3505
ZGOW,2001-11-20 17:00,ZGOW 201700Z AUTO 01002KT 6SM 14/06 A3018 RMK T01400060 IEM_DS3505
ZGOW,2001-11-20 18:00,ZGOW 201800Z AUTO 04004KT 7SM 14/09 A3018 RMK SLP218 T01380086 57012 IEM_DS3505
ZGOW,2001-11-20 19:00,ZGOW 201900Z AUTO 32006KT 3SM 12/09 A3015 RMK T01200090 IEM_DS3505
ZGOW,2001-11-20 20:00,ZGOW 202000Z AUTO 32008KT 4SM 12/09 A3015 RMK T01200090 IEM_DS3505
ZGOW,2001-11-20 21:00,ZGOW 202100Z AUTO 07002KT 7SM 12/07 A3015 RMK SLP212 T01200070 57006 IEM_DS3505
ZGOW,2001-11-20 22:00,ZGOW 202200Z AUTO 32004KT 4SM 11/08 A3018 RMK T01100080 IEM_DS3505
ZGOW,2001-11-20 23:00,ZGOW 202300Z AUTO 30002KT 3SM 11/08 A3018 RMK T01100080 IEM_DS3505
ZGOW,2001-11-21 00:00,ZGOW 210000Z AUTO 07004KT 9SM 14/06 A3018 RMK SLP228 T01440060 52016 IEM_DS3505
ZGOW,2001-11-21 01:00,ZGOW 210100Z AUTO 33004KT 15/08 A3021 RMK T01500080 IEM_DS3505
ZGOW,2001-11-21 02:00,ZGOW 210200Z AUTO 02010KT 9SM 20/04 A3021 RMK T02000040 IEM_DS3505
ZGOW,2001-11-21 03:00,ZGOW 210300Z AUTO 07008KT 9SM 20/06 A3018 RMK SLP222 T02030055 57006 IEM_DS3505
ZGOW,2001-11-21 04:00,ZGOW 210400Z AUTO 04010KT 5SM 22/04 A3015 RMK T02200040 IEM_DS3505
ZGOW,2001-11-21 05:00,ZGOW 210500Z AUTO 06008KT 22/04 A3012 RMK T02200040 IEM_DS3505
ZGOW,2001-11-21 06:00,ZGOW 210600Z AUTO 11004KT 9SM 23/05 A3009 RMK SLP189 T02260046 57033 IEM_DS3505
ZGOW,2001-11-21 07:00,ZGOW 210700Z AUTO 09010KT 6SM 22/08 A3009 RMK T02200080 IEM_DS3505
ZGOW,2001-11-21 08:00,ZGOW 210800Z AUTO 09010KT 6SM 21/08 A3009 RMK T02100080 IEM_DS3505
ZGOW,2001-11-21 09:00,ZGOW 210900Z AUTO 09004KT 9SM 20/10 A3009 RMK SLP194 T02030099 52005 IEM_DS3505
ZGOW,2001-11-21 10:00,ZGOW 211000Z AUTO 08002KT 6SM 17/09 A3012 RMK T01700090 IEM_DS3505
ZGOW,2001-11-21 11:00,ZGOW 211100Z AUTO 08008KT 6SM 17/10 A3015 RMK T01700100 IEM_DS3505
ZGOW,2001-11-21 12:00,ZGOW 211200Z AUTO 07008KT 7SM 18/09 A3015 RMK SLP214 T01810091 52020 IEM_DS3505
ZGOW,2001-11-21 13:00,ZGOW 211300Z AUTO 07012KT 6SM 17/10 A3018 RMK T01700100 IEM_DS3505
ZGOW,2001-11-21 14:00,ZGOW 211400Z AUTO 07010KT 6SM 17/08 A3018 RMK T01700080 IEM_DS3505
ZGOW,2001-11-21 15:00,ZGOW 211500Z AUTO 07006KT 7SM 17/07 A3018 RMK SLP225 T01690068 52011 IEM_DS3505
ZGOW,2001-11-21 18:00,ZGOW 211800Z AUTO 07004KT 6SM 14/09 A3015 RMK SLP214 T01370090 57011 IEM_DS3505
ZGOW,2001-11-21 19:00,ZGOW 211900Z AUTO 32006KT 3SM 13/09 A3015 RMK T01300090 IEM_DS3505
ZGOW,2001-11-21 20:00,ZGOW 212000Z AUTO 32006KT 3SM 12/08 A3015 RMK T01200080 IEM_DS3505
ZGOW,2001-11-21 21:00,ZGOW 212100Z AUTO 04004KT 6SM 12/08 A3015 RMK SLP210 T01230076 57004 IEM_DS3505
ZGOW,2001-11-21 22:00,ZGOW 212200Z AUTO 33008KT 4SM 12/08 A3015 RMK T01200080 IEM_DS3505
ZGOW,2001-11-21 23:00,ZGOW 212300Z AUTO 32008KT 3SM 12/07 A3015 RMK T01200070 IEM_DS3505
ZGOW,2001-11-22 00:00,ZGOW 220000Z AUTO 07004KT 7SM 13/07 A3018 RMK SLP219 T01330069 52009 IEM_DS3505
ZGOW,2001-11-22 01:00,ZGOW 220100Z AUTO 32006KT 2 1/2SM 16/07 A3018 RMK T01600070 IEM_DS3505
ZGOW,2001-11-22 02:00,ZGOW 220200Z AUTO 34006KT 3SM 19/07 A3018 RMK T01900070 IEM_DS3505
ZGOW,2001-11-22 03:00,ZGOW 220300Z AUTO 04006KT 8SM 21/06 A3015 RMK SLP214 T02090065 57005 IEM_DS3505
ZGOW,2001-11-22 04:00,ZGOW 220400Z AUTO 05010KT 5SM 23/08 A3012 RMK T02300080 IEM_DS3505
ZGOW,2001-11-22 05:00,ZGOW 220500Z AUTO 08010KT 6SM 23/10 A3009 RMK T02300100 IEM_DS3505
ZGOW,2001-11-22 06:00,ZGOW 220600Z AUTO 09006KT 7SM 23/09 A3006 RMK SLP183 T02300091 57031 IEM_DS3505
ZGOW,2001-11-22 07:00,ZGOW 220700Z AUTO 09012KT 6SM 22/10 A3006 RMK T02200100 IEM_DS3505
ZGOW,2001-11-22 08:00,ZGOW 220800Z AUTO 09010KT 22/11 A3006 RMK T02200110 IEM_DS3505
ZGOW,2001-11-22 09:00,ZGOW 220900Z AUTO 07004KT 6SM 21/13 A3006 RMK SLP181 T02060127 57002 IEM_DS3505
ZGOW,2001-11-22 10:00,ZGOW 221000Z AUTO 08006KT 4SM 18/13 A3009 RMK T01800130 IEM_DS3505
ZGOW,2001-11-22 11:00,ZGOW 221100Z AUTO 07008KT 4SM 18/14 A3009 RMK T01800140 IEM_DS3505
ZGOW,2001-11-22 12:00,ZGOW 221200Z AUTO 07006KT 6SM 19/13 A3012 RMK SLP196 T01870132 52015 IEM_DS3505
ZGOW,2001-11-22 13:00,ZGOW 221300Z AUTO 07010KT 4SM 18/13 A3012 RMK T01800130 IEM_DS3505
ZGOW,2001-11-22 14:00,ZGOW 221400Z AUTO 08010KT 4SM 18/13 A3012 RMK T01800130 IEM_DS3505
ZGOW,2001-11-22 15:00,ZGOW 221500Z AUTO 07006KT 5SM 18/13 A3012 RMK SLP201 T01770129 52005 IEM_DS3505
ZGOW,2001-11-22 16:00,ZGOW 221600Z AUTO 06006KT 2SM 14/11 A3012 RMK T01400110 IEM_DS3505
ZGOW,2001-11-22 17:00,ZGOW 221700Z AUTO 32004KT 1 1/2SM 15/12 A3012 RMK T01500120 IEM_DS3505
ZGOW,2001-11-22 18:00,ZGOW 221800Z AUTO 07004KT 4SM 15/12 A3009 RMK SLP196 T01460120 57005 IEM_DS3505
ZGOW,2001-11-22 19:00,ZGOW 221900Z AUTO 31002KT 1 1/2SM 13/11 A3009 RMK T01300110 IEM_DS3505
ZGOW,2001-11-22 21:00,ZGOW 222100Z AUTO 04004KT 4SM 13/10 A3009 RMK SLP191 T01320103 57005 IEM_DS3505
ZGOW,2001-11-22 22:00,ZGOW 222200Z AUTO 32006KT 1 1/2SM 12/10 A3009 RMK T01200100 IEM_DS3505
ZGOW,2001-11-22 23:00,ZGOW 222300Z AUTO 1 1/2SM 12/10 A3012 RMK T01200100 IEM_DS3505
ZGOW,2001-11-23 00:00,ZGOW 230000Z AUTO 07004KT 6SM 15/10 A3012 RMK SLP202 T01470095 52011 IEM_DS3505
ZGOW,2001-11-23 01:00,ZGOW 230100Z AUTO 31006KT 2SM 16/11 A3012 RMK T01600110 IEM_DS3505
ZGOW,2001-11-23 02:00,ZGOW 230200Z AUTO 34002KT 3SM 18/10 A3012 RMK T01800100 IEM_DS3505
ZGOW,2001-11-23 03:00,ZGOW 230300Z AUTO 07008KT 7SM 20/09 A3012 RMK SLP201 T02000090 57001 IEM_DS3505
ZGOW,2001-11-23 04:00,ZGOW 230400Z AUTO 08006KT 21/10 A3009 RMK T02100100 IEM_DS3505
ZGOW,2001-11-23 05:00,ZGOW 230500Z AUTO 10010KT 22/10 A3006 RMK T02200100 IEM_DS3505
ZGOW,2001-11-23 06:00,ZGOW 230600Z AUTO 04008KT 10SM 22/10 A3003 RMK SLP168 T02200099 57033 IEM_DS3505
ZGOW,2001-11-23 07:00,ZGOW 230700Z AUTO 13006KT 22/12 A3000 RMK T02200120 IEM_DS3505
ZGOW,2001-11-23 08:00,ZGOW 230800Z AUTO 14006KT 21/13 A3000 RMK T02100130 IEM_DS3505
ZGOW,2001-11-23 09:00,ZGOW 230900Z AUTO 11004KT 7SM 20/13 A3000 RMK SLP164 T02020132 57004 IEM_DS3505
ZGOW,2001-11-23 10:00,ZGOW 231000Z AUTO 13004KT 3SM 18/14 A3003 RMK T01800140 IEM_DS3505
ZGOW,2001-11-23 11:00,ZGOW 231100Z AUTO 06004KT 4SM 17/13 A3003 RMK T01700130 IEM_DS3505
ZGOW,2001-11-23 12:00,ZGOW 231200Z AUTO 00000KT 7SM 18/14 A3006 RMK SLP176 T01830138 52012 IEM_DS3505
ZGOW,2001-11-23 13:00,ZGOW 231300Z AUTO 07004KT 4SM 16/14 A3006 RMK T01600140 IEM_DS3505
ZGOW,2001-11-23 14:00,ZGOW 231400Z AUTO 05008KT 4SM 16/13 A3006 RMK T01600130 IEM_DS3505
ZGOW,2001-11-23 15:00,ZGOW 231500Z AUTO 07004KT 7SM 17/14 A3006 RMK SLP182 T01730142 52006 IEM_DS3505
ZGOW,2001-11-23 16:00,ZGOW 231600Z AUTO 36004KT 2 1/2SM 15/14 A3006 RMK T01500140 IEM_DS3505
ZGOW,2001-11-23 17:00,ZGOW 231700Z AUTO 31002KT 1 1/4SM 14/13 A3006 RMK T01400130 IEM_DS3505
ZGOW,2001-11-23 18:00,ZGOW 231800Z AUTO 00000KT 4SM 14/12 A3003 RMK SLP177 T01400125 57005 IEM_DS3505
ZGOW,2001-11-23 19:00,ZGOW 231900Z AUTO 31006KT 1SM 14/12 A3003 RMK T01400120 IEM_DS3505
ZGOW,2001-11-23 20:00,ZGOW 232000Z AUTO 32004KT 1SM 13/12 A3003 RMK T01300120 IEM_DS3505
ZGOW,2001-11-23 21:00,ZGOW 232100Z AUTO 07004KT 4SM 13/12 A3003 RMK SLP168 T01330120 57009 IEM_DS3505
ZGOW,2001-11-23 22:00,ZGOW 232200Z AUTO 34004KT 1 1/2SM 12/11 A3003 RMK T01200110 IEM_DS3505
ZGOW,2001-11-23 23:00,ZGOW 232300Z AUTO 33004KT 1 1/2SM 13/11 A3003 RMK T01300110 IEM_DS3505
ZGOW,2001-11-24 00:00,ZGOW 240000Z AUTO 07004KT 3SM 15/11 A3006 RMK SLP177 T01460110 52009 IEM_DS3505
ZGOW,2001-11-24 01:00,ZGOW 240100Z AUTO 32006KT 2SM 16/11 A3006 RMK T01600110 IEM_DS3505
ZGOW,2001-11-24 02:00,ZGOW 240200Z AUTO 34006KT 2 1/2SM 19/12 A3006 RMK T01900120 IEM_DS3505
ZGOW,2001-11-24 03:00,ZGOW 240300Z AUTO 07004KT 6SM 22/10 A3003 RMK SLP170 T02180098 57007 IEM_DS3505
ZGOW,2001-11-24 04:00,ZGOW 240400Z AUTO 08004KT 6SM 22/07 A3000 RMK T02200070 IEM_DS3505
ZGOW,2001-11-24 05:00,ZGOW 240500Z AUTO 13006KT 6SM 23/08 A2997 RMK T02300080 IEM_DS3505
ZGOW,2001-11-24 06:00,ZGOW 240600Z AUTO 18004KT 5SM 23/07 A2994 RMK SLP143 T02300070 57027 IEM_DS3505
ZGOW,2001-11-24 07:00,ZGOW 240700Z AUTO 14008KT 6SM 22/10 A2994 RMK T02200100 IEM_DS3505
ZGOW,2001-11-24 08:00,ZGOW 240800Z AUTO 12010KT 6SM 21/11 A2991 RMK T02100110 IEM_DS3505
ZGOW,2001-11-24 09:00,ZGOW 240900Z AUTO 11004KT 6SM 20/11 A2994 RMK SLP139 T02020109 57004 IEM_DS3505
ZGOW,2001-11-24 10:00,ZGOW 241000Z AUTO 12002KT 5SM 18/14 A2994 RMK T01800140 IEM_DS3505
ZGOW,2001-11-24 11:00,ZGOW 241100Z AUTO 04002KT 6SM 17/13 A2997 RMK T01700130 IEM_DS3505
ZGOW,2001-11-24 12:00,ZGOW 241200Z AUTO 07004KT 6SM 18/13 A2997 RMK SLP153 T01770127 52014 IEM_DS3505
ZGOW,2001-11-24 13:00,ZGOW 241300Z AUTO 08004KT 6SM 16/14 A3000 RMK T01600140 IEM_DS3505
ZGOW,2001-11-24 14:00,ZGOW 241400Z AUTO 07002KT 6SM 15/14 A3000 RMK T01500140 IEM_DS3505
ZGOW,2001-11-24 15:00,ZGOW 241500Z AUTO 04004KT 4SM 16/14 A3000 RMK SLP161 T01550139 52008 IEM_DS3505
ZGOW,2001-11-24 16:00,ZGOW 241600Z AUTO 2 1/2SM 15/14 A3000 RMK T01500140 IEM_DS3505
ZGOW,2001-11-24 17:00,ZGOW 241700Z AUTO 32004KT 2SM 14/12 A3000 RMK T01400120 IEM_DS3505
ZGOW,2001-11-24 18:00,ZGOW 241800Z AUTO 07004KT 4SM 14/12 A3000 RMK SLP158 T01380125 57003 IEM_DS3505
ZGOW,2001-11-24 19:00,ZGOW 241900Z AUTO 31004KT 2SM 13/11 A2997 RMK T01300110 IEM_DS3505
ZGOW,2001-11-24 20:00,ZGOW 242000Z AUTO 32006KT 2 1/2SM 13/11 A2997 RMK T01300110 IEM_DS3505
ZGOW,2001-11-24 21:00,ZGOW 242100Z AUTO 04004KT 4SM 14/11 A2994 RMK SLP146 T01360109 57012 IEM_DS3505
ZGOW,2001-11-24 22:00,ZGOW 242200Z AUTO 31008KT 1 1/2SM 13/11 A2997 RMK T01300110 IEM_DS3505
ZGOW,2001-11-24 23:00,ZGOW 242300Z AUTO 33006KT 2SM 13/10 A3000 RMK T01300100 IEM_DS3505
ZGOW,2001-11-25 00:00,ZGOW 250000Z AUTO 04004KT 4SM 14/12 A3000 RMK SLP162 T01430117 52016 IEM_DS3505
ZGOW,2001-11-25 01:00,ZGOW 250100Z AUTO 32008KT 2SM 16/11 A3003 RMK T01600110 IEM_DS3505
ZGOW,2001-11-25 02:00,ZGOW 250200Z AUTO 32008KT 2SM 19/10 A3003 RMK T01900100 IEM_DS3505
ZGOW,2001-11-25 03:00,ZGOW 250300Z AUTO 25002KT 5SM 21/12 A3000 RMK SLP166 T02120124 52004 IEM_DS3505
ZGOW,2001-11-25 04:00,ZGOW 250400Z AUTO 09006KT 6SM 23/04 A3000 RMK T02300040 IEM_DS3505
ZGOW,2001-11-25 05:00,ZGOW 250500Z AUTO 09008KT 6SM 23/06 A2997 RMK T02300060 IEM_DS3505
ZGOW,2001-11-25 06:00,ZGOW 250600Z AUTO 18004KT 6SM 23/07 A2997 RMK SLP148 T02290069 57018 IEM_DS3505
ZGOW,2001-11-25 07:00,ZGOW 250700Z AUTO 14006KT 6SM 23/07 A2997 RMK T02300070 IEM_DS3505
ZGOW,2001-11-25 08:00,ZGOW 250800Z AUTO 11008KT 6SM 22/10 A2997 RMK T02200100 IEM_DS3505
ZGOW,2001-11-25 09:00,ZGOW 250900Z AUTO 11004KT 8SM 21/09 A3000 RMK SLP157 T02130091 52009 IEM_DS3505
ZGOW,2001-11-25 10:00,ZGOW 251000Z AUTO 08004KT 6SM 18/12 A3003 RMK T01800120 IEM_DS3505
ZGOW,2001-11-25 11:00,ZGOW 251100Z AUTO 07006KT 6SM 18/13 A3003 RMK T01800130 IEM_DS3505
ZGOW,2001-11-25 12:00,ZGOW 251200Z AUTO 07006KT 7SM 18/12 A3006 RMK SLP182 T01830122 52025 IEM_DS3505
ZGOW,2001-11-25 13:00,ZGOW 251300Z AUTO 06010KT 6SM 18/12 A3009 RMK T01800120 IEM_DS3505
ZGOW,2001-11-25 14:00,ZGOW 251400Z AUTO 08010KT 6SM 18/09 A3009 RMK T01800090 IEM_DS3505
ZGOW,2001-11-25 15:00,ZGOW 251500Z AUTO 04004KT 6SM 15/11 A3012 RMK SLP200 T01530112 52018 IEM_DS3505
ZGOW,2001-11-25 16:00,ZGOW 251600Z AUTO 04006KT 6SM 15/09 A3012 RMK T01500090 IEM_DS3505
ZGOW,2001-11-25 17:00,ZGOW 251700Z AUTO 36004KT 6SM 15/09 A3012 RMK T01500090 IEM_DS3505
ZGOW,2001-11-25 18:00,ZGOW 251800Z AUTO 07004KT 5SM 14/10 A3012 RMK SLP200 T01440100 54000 IEM_DS3505
ZGOW,2001-11-25 19:00,ZGOW 251900Z AUTO 31002KT 1 1/2SM 14/11 A3012 RMK T01400110 IEM_DS3505
ZGOW,2001-11-25 20:00,ZGOW 252000Z AUTO 2SM 13/11 A3012 RMK T01300110 IEM_DS3505
ZGOW,2001-11-25 21:00,ZGOW 252100Z AUTO 04004KT 3SM 14/10 A3012 RMK SLP202 T01380099 52002 IEM_DS3505
ZGOW,2001-11-25 22:00,ZGOW 252200Z AUTO 2 1/2SM 12/10 A3015 RMK T01200100 IEM_DS3505
ZGOW,2001-11-25 23:00,ZGOW 252300Z AUTO 32004KT 2SM 12/09 A3015 RMK T01200090 IEM_DS3505
ZGOW,2001-11-26 00:00,ZGOW 260000Z AUTO 04004KT 2 1/2SM 15/09 A3018 RMK SLP221 T01490088 52019 IEM_DS3505
ZGOW,2001-11-26 01:00,ZGOW 260100Z AUTO 32004KT 1 1/2SM 16/11 A3021 RMK T01600110 IEM_DS3505
ZGOW,2001-11-26 02:00,ZGOW 260200Z AUTO 32002KT 2SM 19/10 A3021 RMK T01900100 IEM_DS3505
ZGOW,2001-11-26 03:00,ZGOW 260300Z AUTO 07004KT 4SM 21/11 A3018 RMK SLP220 T02120106 57001 IEM_DS3505
ZGOW,2001-11-26 04:00,ZGOW 260400Z AUTO 07012KT 22/11 A3018 RMK T02200110 IEM_DS3505
ZGOW,2001-11-26 05:00,ZGOW 260500Z AUTO 08016KT 22/12 A3015 RMK T02200120 IEM_DS3505
ZGOW,2001-11-26 06:00,ZGOW 260600Z AUTO 07010KT 6SM 23/12 A3012 RMK SLP198 T02270117 57022 IEM_DS3505
ZGOW,2001-11-26 07:00,ZGOW 260700Z AUTO 10014KT 22/13 A3009 RMK T02200130 IEM_DS3505
ZGOW,2001-11-26 08:00,ZGOW 260800Z AUTO 09008KT 22/13 A3009 RMK T02200130 IEM_DS3505
ZGOW,2001-11-26 09:00,ZGOW 260900Z AUTO 09008KT 7SM 20/14 A3012 RMK SLP199 T02050139 52001 IEM_DS3505
ZGOW,2001-11-26 10:00,ZGOW 261000Z AUTO 07010KT 4SM 18/13 A3012 RMK T01800130 IEM_DS3505
ZGOW,2001-11-26 11:00,ZGOW 261100Z AUTO 07010KT 4SM 18/14 A3015 RMK T01800140 IEM_DS3505
ZGOW,2001-11-26 12:00,ZGOW 261200Z AUTO 07006KT 6SM 18/14 A3018 RMK SLP219 T01840140 52020 IEM_DS3505
ZGOW,2001-11-26 13:00,ZGOW 261300Z AUTO 08010KT 6SM 17/14 A3018 RMK T01700140 IEM_DS3505
ZGOW,2001-11-26 14:00,ZGOW 261400Z 08004MPS CAVOK 17/14 Q1023 NOSIG
ZGOW,2001-11-26 15:00,ZGOW 261500Z AUTO 08005MPS 9000 // ////// 17/14 Q1023 NOSIG
ZGOW,2001-11-26 16:00,ZGOW 261600Z AUTO 06004KT 6SM 15/13 A3021 RMK T01500130 IEM_DS3505
ZGOW,2001-11-26 17:00,ZGOW 261700Z AUTO 09008KT 6SM 16/13 A3021 RMK T01600130 IEM_DS3505
ZGOW,2001-11-26 18:00,ZGOW 261800Z AUTO 07006KT 6SM 17/13 A3018 RMK SLP222 T01680127 57009 IEM_DS3505
ZGOW,2001-11-26 19:00,ZGOW 261900Z AUTO 05004KT 5SM 14/11 A3018 RMK T01400110 IEM_DS3505
ZGOW,2001-11-26 20:00,ZGOW 262000Z AUTO 31002KT 2 1/2SM 14/12 A3018 RMK T01400120 IEM_DS3505
ZGOW,2001-11-26 21:00,ZGOW 262100Z AUTO 04004KT 5SM 14/12 A3018 RMK SLP217 T01400125 57005 IEM_DS3505
ZGOW,2001-11-26 22:00,ZGOW 262200Z AUTO 32006KT 2 1/2SM 13/12 A3018 RMK T01300120 IEM_DS3505
ZGOW,2001-11-26 23:00,ZGOW 262300Z AUTO 32004KT 2SM 13/12 A3021 RMK T01300120 IEM_DS3505
ZGOW,2001-11-27 00:00,ZGOW 270000Z AUTO 07002KT 4SM 15/12 A3021 RMK SLP235 T01520123 52018 IEM_DS3505
ZGOW,2001-11-27 01:00,ZGOW 270100Z AUTO 31002KT 2 1/2SM 15/13 A3021 RMK T01500130 IEM_DS3505
ZGOW,2001-11-27 02:00,ZGOW 270200Z AUTO 04008KT 5SM 20/12 A3024 RMK T02000120 IEM_DS3505
ZGOW,2001-11-27 03:00,ZGOW 270300Z AUTO 09008KT 5SM 21/12 A3021 RMK SLP230 T02110116 57005 IEM_DS3505
ZGOW,2001-11-27 04:00,ZGOW 270400Z AUTO 08012KT 22/13 A3018 RMK T02200130 IEM_DS3505
ZGOW,2001-11-27 05:00,ZGOW 270500Z AUTO 07012KT 23/13 A3015 RMK T02300130 IEM_DS3505
ZGOW,2001-11-27 06:00,ZGOW 270600Z AUTO 07006KT 7SM 23/11 A3012 RMK SLP198 T02280114 57032 IEM_DS3505
ZGOW,2001-11-27 07:00,ZGOW 270700Z AUTO 08008KT 23/12 A3012 RMK T02300120 IEM_DS3505
ZGOW,2001-11-27 08:00,ZGOW 270800Z AUTO 13006KT 3SM 22/14 A3012 RMK T02200140 IEM_DS3505
ZGOW,2001-11-27 09:00,ZGOW 270900Z AUTO 11006KT 6SM 21/14 A3012 RMK SLP195 T02060137 57003 IEM_DS3505
ZGOW,2001-11-27 10:00,ZGOW 271000Z AUTO 09004KT 2 1/2SM 18/14 A3012 RMK T01800140 IEM_DS3505
ZGOW,2001-11-27 11:00,ZGOW 271100Z AUTO 08010KT 5SM 18/14 A3012 RMK T01800140 IEM_DS3505
ZGOW,2001-11-27 12:00,ZGOW 271200Z AUTO 07004KT 6SM 19/14 A3015 RMK SLP206 T01870144 52011 IEM_DS3505
ZGOW,2001-11-27 13:00,ZGOW 271300Z AUTO 08012KT 4SM 18/15 A3015 RMK T01800150 IEM_DS3505
ZGOW,2001-11-27 14:00,ZGOW 271400Z AUTO 07010KT 4SM 18/15 A3015 RMK T01800150 IEM_DS3505
ZGOW,2001-11-27 15:00,ZGOW 271500Z AUTO 07008KT 5SM 18/16 A3015 RMK SLP208 T01780156 52002 IEM_DS3505
ZGOW,2001-11-27 16:00,ZGOW 271600Z AUTO 07012KT 3SM 17/15 A3012 RMK T01700150 IEM_DS3505
ZGOW,2001-11-27 17:00,ZGOW 271700Z AUTO 08014KT 3SM 17/15 A3009 RMK T01700150 IEM_DS3505
ZGOW,2001-11-27 18:00,ZGOW 271800Z AUTO 07006KT 5SM 17/14 A3009 RMK SLP191 T01720142 57017 IEM_DS3505
ZGOW,2001-11-27 19:00,ZGOW 271900Z AUTO 06010KT 4SM 17/14 A3006 RMK T01700140 IEM_DS3505
ZGOW,2001-11-27 20:00,ZGOW 272000Z AUTO 35004KT 2 1/2SM 16/13 A3006 RMK T01600130 IEM_DS3505
ZGOW,2001-11-27 21:00,ZGOW 272100Z AUTO 36002KT 4SM 15/13 RMK SLP186 T01480132 57005 IEM_DS3505
ZGOW,2001-11-27 21:01,ZGOW 272101Z AUTO 33002KT 2SM 14/13 A3006 RMK T01400130 IEM_DS3505
ZGOW,2001-11-27 22:00,ZGOW 272200Z AUTO 33002KT 1 1/2SM 14/13 A3009 RMK T01400130 IEM_DS3505
ZGOW,2001-11-27 23:00,ZGOW 272300Z AUTO 36002KT 1 1/2SM 14/13 A3009 RMK T01400130 IEM_DS3505
ZGOW,2001-11-28 00:00,ZGOW 280000Z AUTO 02004KT 2SM 15/13 A3009 RMK SLP196 T01510131 52010 IEM_DS3505
ZGOW,2001-11-28 01:00,ZGOW 280100Z AUTO 07004KT 1 1/2SM 17/14 A3012 RMK T01700140 IEM_DS3505
ZGOW,2001-11-28 02:00,ZGOW 280200Z AUTO 07012KT 2 1/2SM 20/14 A3009 RMK T02000140 IEM_DS3505
ZGOW,2001-11-28 03:00,ZGOW 280300Z AUTO 07008KT 5SM 20/14 A3009 RMK SLP190 T01970140 57006 IEM_DS3505
ZGOW,2001-11-28 04:00,ZGOW 280400Z AUTO 06012KT 2 1/2SM 21/14 A3006 RMK T02100140 IEM_DS3505
ZGOW,2001-11-28 05:00,ZGOW 280500Z AUTO 07012KT 2 1/2SM 22/14 A3003 RMK T02200140 IEM_DS3505
ZGOW,2001-11-28 06:00,ZGOW 280600Z AUTO 07008KT 4SM 22/14 RMK SLP159 T02160141 57031 IEM_DS3505
ZGOW,2001-11-28 07:00,ZGOW 280700Z AUTO 08010KT 3SM 22/15 A3000 RMK T02200150 IEM_DS3505
ZGOW,2001-11-28 08:00,ZGOW 280800Z AUTO 07010KT 2SM 22/15 A2997 RMK T02200150 IEM_DS3505
ZGOW,2001-11-28 09:00,ZGOW 280900Z AUTO 07004KT 5SM 21/14 A2997 RMK SLP157 T02130141 57002 IEM_DS3505
ZGOW,2001-11-28 10:00,ZGOW 281000Z AUTO 07004KT 2 1/2SM 20/15 A3000 RMK T02000150 IEM_DS3505
ZGOW,2001-11-28 11:00,ZGOW 281100Z AUTO 06006KT 3SM 19/15 A3000 RMK T01900150 IEM_DS3505
ZGOW,2001-11-28 12:00,ZGOW 281200Z AUTO 07004KT 5SM 20/15 A3000 RMK SLP160 T01960152 52003 IEM_DS3505
ZGOW,2001-11-28 13:00,ZGOW 281300Z AUTO 06004KT 6SM 18/15 A3000 RMK T01800150 IEM_DS3505
ZGOW,2001-11-28 14:00,ZGOW 281400Z AUTO 07004KT 7SM 18/17 A3000 RMK T01800170 IEM_DS3505
ZGOW,2001-11-28 15:00,ZGOW 281500Z AUTO 07002KT 4SM 19/16 A3003 RMK SLP165 T01920164 52005 IEM_DS3505
ZGOW,2001-11-28 16:00,ZGOW 281600Z AUTO 06004KT 3SM 19/15 A3000 RMK T01900150 IEM_DS3505
ZGOW,2001-11-28 17:00,ZGOW 281700Z AUTO 06004KT 3SM 19/15 A3000 RMK T01900150 IEM_DS3505
ZGOW,2001-11-28 18:00,ZGOW 281800Z AUTO 04002KT 4SM 19/16 A3000 RMK SLP160 T01910156 57005 IEM_DS3505
ZGOW,2001-11-28 19:00,ZGOW 281900Z AUTO 04004KT 2 1/2SM 19/16 A2997 RMK T01900160 IEM_DS3505
ZGOW,2001-11-28 20:00,ZGOW 282000Z AUTO 04006KT 3SM 18/16 A2997 RMK T01800160 IEM_DS3505
ZGOW,2001-11-28 21:00,ZGOW 282100Z AUTO 04002KT 4SM 18/16 A3000 RMK 70001 SLP157 T01820157 57003 IEM_DS3505
ZGOW,2001-11-28 22:00,ZGOW 282200Z AUTO 05006KT 7SM 18/15 A3000 RMK T01800150 IEM_DS3505
ZGOW,2001-11-28 23:00,ZGOW 282300Z AUTO 06006KT 2 1/2SM 18/15 A3000 RMK T01800150 IEM_DS3505
ZGOW,2001-11-29 00:00,ZGOW 290000Z AUTO 07004KT 3SM 19/15 A3003 RMK 60000 SLP167 T01940146 52010 IEM_DS3505
ZGOW,2001-11-29 01:00,ZGOW 290100Z AUTO 05006KT 21/14 A3003 RMK T02100140 IEM_DS3505
ZGOW,2001-11-29 02:00,ZGOW 290200Z AUTO 03006KT 7SM 22/13 A3003 RMK T02200130 IEM_DS3505
ZGOW,2001-11-29 03:00,ZGOW 290300Z AUTO 07006KT 5SM 23/13 A3003 RMK SLP169 T02300134 52002 IEM_DS3505
ZGOW,2001-11-29 04:00,ZGOW 290400Z AUTO 07010KT 7SM 24/13 A3000 RMK T02400130 IEM_DS3505
ZGOW,2001-11-29 05:00,ZGOW 290500Z AUTO 07008KT 5SM 25/14 A2997 RMK T02500140 IEM_DS3505
ZGOW,2001-11-29 06:00,ZGOW 290600Z AUTO 16004KT 7SM 25/15 A2994 RMK SLP144 T02480154 57025 IEM_DS3505
ZGOW,2001-11-29 07:00,ZGOW 290700Z AUTO 10004KT 7SM 24/15 A2994 RMK T02400150 IEM_DS3505
ZGOW,2001-11-29 08:00,ZGOW 290800Z AUTO 12004KT 7SM 24/15 A2994 RMK T02400150 IEM_DS3505
ZGOW,2001-11-29 09:00,ZGOW 290900Z AUTO 16004KT 9SM 24/13 A2994 RMK SLP140 T02350128 57004 IEM_DS3505
ZGOW,2001-11-29 10:00,ZGOW 291000Z AUTO 01002KT 2 1/2SM 20/13 A2994 RMK T02000130 IEM_DS3505
ZGOW,2001-11-29 11:00,ZGOW 291100Z AUTO 03002KT 20/12 A2994 RMK T02000120 IEM_DS3505
ZGOW,2001-11-29 12:00,ZGOW 291200Z AUTO 07002KT 6SM 20/14 A2997 RMK SLP153 T02010135 52013 IEM_DS3505
ZGOW,2001-11-29 13:00,ZGOW 291300Z AUTO 3SM 19/14 A2997 RMK T01900140 IEM_DS3505
ZGOW,2001-11-29 14:00,ZGOW 291400Z AUTO 20/14 A3000 RMK T02000140 IEM_DS3505
ZGOW,2001-11-29 15:00,ZGOW 291500Z AUTO 00000KT 6SM 20/14 A3000 RMK SLP157 T02020138 52004 IEM_DS3505
ZGOW,2001-11-29 16:00,ZGOW 291600Z AUTO 20/14 A3000 RMK T02000140 IEM_DS3505
ZGOW,2001-11-29 17:00,ZGOW 291700Z AUTO 2SM 19/15 A2997 RMK T01900150 IEM_DS3505
ZGOW,2001-11-29 18:00,ZGOW 291800Z AUTO 00000KT 6SM 18/15 A2997 RMK SLP154 T01820151 57003 IEM_DS3505
ZGOW,2001-11-29 19:00,ZGOW 291900Z AUTO 31002KT 2SM 19/14 A2997 RMK T01900140 IEM_DS3505
ZGOW,2001-11-29 20:00,ZGOW 292000Z AUTO 1 1/2SM 18/15 A2997 RMK T01800150 IEM_DS3505
ZGOW,2001-11-29 21:00,ZGOW 292100Z AUTO 00000KT 2 1/2SM 18/16 A2997 RMK SLP155 T01800165 52001 IEM_DS3505
ZGOW,2001-11-29 22:00,ZGOW 292200Z AUTO 1 1/4SM 18/15 A3000 RMK T01800150 IEM_DS3505
ZGOW,2001-11-29 23:00,ZGOW 292300Z AUTO 1SM 17/15 A3000 RMK T01700150 IEM_DS3505
ZGOW,2001-11-30 00:00,ZGOW 300000Z AUTO 04004KT 3SM 20/17 A3003 RMK SLP168 T01980167 52013 IEM_DS3505
ZGOW,2001-11-30 01:00,ZGOW 300100Z AUTO 32004KT 1 1/4SM 22/17 A3003 RMK T02200170 IEM_DS3505
ZGOW,2001-11-30 02:00,ZGOW 300200Z AUTO 33004KT 2SM 24/18 A3003 RMK T02400180 IEM_DS3505
ZGOW,2001-11-30 03:00,ZGOW 300300Z AUTO 36002KT 4SM 25/18 A3000 RMK SLP157 T02520176 57011 IEM_DS3505
ZGOW,2001-11-30 04:00,ZGOW 300400Z AUTO 07004KT 3SM 27/18 A2997 RMK T02700180 IEM_DS3505
ZGOW,2001-11-30 05:00,ZGOW 300500Z AUTO 12008KT 2 1/2SM 26/19 A2994 RMK T02600190 IEM_DS3505
ZGOW,2001-11-30 06:00,ZGOW 300600Z AUTO 16006KT 5SM 26/18 A2991 RMK SLP132 T02620182 57025 IEM_DS3505
ZGOW,2001-11-30 07:00,ZGOW 300700Z AUTO 13012KT 3SM 23/18 A2991 RMK T02300180 IEM_DS3505
ZGOW,2001-11-30 08:00,ZGOW 300800Z AUTO 10014KT 2 1/2SM 23/18 A2991 RMK T02300180 IEM_DS3505
ZGOW,2001-11-30 09:00,ZGOW 300900Z AUTO 11006KT 5SM 22/18 A2994 RMK SLP134 T02200182 52002 IEM_DS3505
ZGOW,2001-11-30 10:00,ZGOW 301000Z AUTO 07012KT 2 1/2SM 20/18 A2994 RMK T02000180 IEM_DS3505
ZGOW,2001-11-30 11:00,ZGOW 301100Z AUTO 08012KT 4SM 20/18 A2997 RMK T02000180 IEM_DS3505
ZGOW,2001-11-30 12:00,ZGOW 301200Z AUTO 07006KT 5SM 20/18 A3000 RMK SLP155 T02020178 52021 IEM_DS3505
ZGOW,2001-11-30 13:00,ZGOW 301300Z AUTO 08014KT 5SM 19/17 A3000 RMK T01900170 IEM_DS3505
ZGOW,2001-11-30 14:00,ZGOW 301400Z AUTO 08012KT 5SM 19/17 A3000 RMK T01900170 IEM_DS3505
ZGOW,2001-11-30 15:00,ZGOW 301500Z AUTO 07010KT 5SM 20/17 A3000 RMK SLP163 T01970173 52008 IEM_DS3505
ZGOW,2001-11-30 16:00,ZGOW 301600Z AUTO 08012KT 3SM 19/17 A3003 RMK T01900170 IEM_DS3505
ZGOW,2001-11-30 17:00,ZGOW 301700Z AUTO 08014KT 2SM 19/17 A3003 RMK T01900170 IEM_DS3505
ZGOW,2001-11-30 18:00,ZGOW 301800Z AUTO 07006KT 4SM 19/17 A3000 RMK SLP165 T01920169 52002 IEM_DS3505
ZGOW,2001-11-30 19:00,ZGOW 301900Z AUTO 06012KT 2SM 18/17 A3000 RMK T01800170 IEM_DS3505
ZGOW,2001-11-30 20:00,ZGOW 302000Z AUTO 06010KT 1 1/2SM 18/17 A3000 RMK T01800170 IEM_DS3505
ZGOW,2001-11-30 21:00,ZGOW 302100Z AUTO 04004KT 4SM 18/17 A3000 RMK SLP164 T01850167 57001 IEM_DS3505
ZGOW,2001-11-30 22:00,ZGOW 302200Z AUTO 04004KT 1 1/4SM 17/16 A3000 RMK T01700160 IEM_DS3505
ZGOW,2001-11-30 23:00,ZGOW 302300Z AUTO 05004KT 1SM 16/16 A3003 RMK T01600160 IEM_DS3505
ZGOW,2001-12-01 00:00,ZGOW 010000Z AUTO 04004KT 5SM 19/17 A3003 RMK SLP173 T01930170 52009 IEM_DS3505
ZGOW,2001-12-01 01:00,ZGOW 010100Z AUTO 07006KT 1 1/2SM 21/17 A3006 RMK T02100170 IEM_DS3505
ZGOW,2001-12-01 02:00,ZGOW 010200Z AUTO 06008KT 2SM 22/17 A3006 RMK T02200170 IEM_DS3505
ZGOW,2001-12-01 03:00,ZGOW 010300Z AUTO 09006KT 6SM 23/16 A3003 RMK SLP171 T02300157 57002 IEM_DS3505
ZGOW,2001-12-01 04:00,ZGOW 010400Z AUTO 13010KT 2 1/2SM 23/17 A3000 RMK T02300170 IEM_DS3505
ZGOW,2001-12-01 05:00,ZGOW 010500Z AUTO 13006KT 2 1/2SM 24/17 A2997 RMK T02400170 IEM_DS3505
ZGOW,2001-12-01 06:00,ZGOW 010600Z AUTO 20006KT 7SM 23/17 A2997 RMK SLP149 T02320171 57022 IEM_DS3505
ZGOW,2001-12-01 07:00,ZGOW 010700Z AUTO 14008KT 2SM 22/17 A2997 RMK T02200170 IEM_DS3505
ZGOW,2001-12-01 08:00,ZGOW 010800Z AUTO 13006KT 2SM 22/18 A2997 RMK T02200180 IEM_DS3505
ZGOW,2001-12-01 09:00,ZGOW 010900Z AUTO 11004KT 6SM 21/18 A2997 RMK SLP147 T02110177 57002 IEM_DS3505
ZGOW,2001-12-01 10:00,ZGOW 011000Z AUTO 10004KT 1 1/2SM 20/18 A2997 RMK T02000180 IEM_DS3505
ZGOW,2001-12-01 11:00,ZGOW 011100Z AUTO 05004KT 1 1/2SM 19/17 A3000 RMK T01900170 IEM_DS3505
ZGOW,2001-12-01 12:00,ZGOW 011200Z AUTO 07004KT 5SM 20/18 A3000 RMK SLP162 T02020176 52015 IEM_DS3505
ZGOW,2001-12-01 13:00,ZGOW 011300Z AUTO 04006KT 2 1/2SM 18/17 A3000 RMK T01800170 IEM_DS3505
ZGOW,2001-12-01 14:00,ZGOW 011400Z AUTO 04006KT 2 1/2SM 18/17 A3000 RMK T01800170 IEM_DS3505
ZGOW,2001-12-01 15:00,ZGOW 011500Z AUTO 07004KT 4SM 20/17 A3000 RMK SLP164 T01950174 52002 IEM_DS3505
ZGOW,2001-12-01 16:00,ZGOW 011600Z AUTO 07008KT 2SM 19/17 A3000 RMK T01900170 IEM_DS3505
ZGOW,2001-12-01 17:00,ZGOW 011700Z AUTO 07006KT 1 1/2SM 18/17 A3003 RMK T01800170 IEM_DS3505
ZGOW,2001-12-01 18:00,ZGOW 011800Z AUTO 07004KT 4SM 19/18 A3003 RMK SLP166 T01890176 52002 IEM_DS3505
ZGOW,2001-12-01 19:00,ZGOW 011900Z AUTO 07012KT 2SM 19/18 A3000 RMK T01900180 IEM_DS3505
ZGOW,2001-12-01 20:00,ZGOW 012000Z AUTO 07010KT 2 1/2SM 19/17 A3000 RMK T01900170 IEM_DS3505
ZGOW,2001-12-01 21:00,ZGOW 012100Z AUTO 07004KT 4SM 19/17 A3000 RMK SLP164 T01920174 57002 IEM_DS3505
ZGOW,2001-12-01 22:00,ZGOW 012200Z AUTO 06006KT 2 1/2SM 19/18 A3003 RMK T01900180 IEM_DS3505
ZGOW,2001-12-01 23:00,ZGOW 012300Z AUTO 03006KT 1 1/2SM 19/18 A3003 RMK T01900180 IEM_DS3505
ZGOW,2001-12-02 00:00,ZGOW 020000Z AUTO 07006KT 3SM 20/18 A3006 RMK SLP176 T01960177 52012 IEM_DS3505
ZGOW,2001-12-02 01:00,ZGOW 020100Z AUTO 07004KT 1 1/2SM 20/18 A3006 RMK T02000180 IEM_DS3505
ZGOW,2001-12-02 02:00,ZGOW 020200Z AUTO 08014KT 3SM 22/17 A3009 RMK T02200170 IEM_DS3505
ZGOW,2001-12-02 03:00,ZGOW 020300Z AUTO 07012KT 4SM 23/16 A3006 RMK SLP181 T02300165 52005 IEM_DS3505
ZGOW,2001-12-02 04:00,ZGOW 020400Z AUTO 09014KT 5SM 25/17 A3003 RMK T02500170 IEM_DS3505
ZGOW,2001-12-02 05:00,ZGOW 020500Z AUTO 09014KT 3SM 24/17 A3000 RMK T02400170 IEM_DS3505
ZGOW,2001-12-02 06:00,ZGOW 020600Z AUTO 07014KT 7SM 24/16 A3000 RMK SLP158 T02440163 57023 IEM_DS3505
ZGOW,2001-12-02 07:00,ZGOW 020700Z AUTO 09014KT 23/17 A3000 RMK T02300170 IEM_DS3505
ZGOW,2001-12-02 08:00,ZGOW 020800Z AUTO 10012KT 6SM 22/17 A2997 RMK T02200170 IEM_DS3505
ZGOW,2001-12-02 09:00,ZGOW 020900Z AUTO 11006KT 9SM 22/17 A3000 RMK SLP157 T02240169 57001 IEM_DS3505
ZGOW,2001-12-02 10:00,ZGOW 021000Z AUTO 10012KT 6SM 20/17 A3000 RMK T02000170 IEM_DS3505
ZGOW,2001-12-02 11:00,ZGOW 021100Z AUTO 07010KT 6SM 20/17 A3003 RMK T02000170 IEM_DS3505
ZGOW,2001-12-02 12:00,ZGOW 021200Z AUTO 07004KT 6SM 20/17 A3006 RMK SLP176 T02010173 52019 IEM_DS3505
ZGOW,2001-12-02 13:00,ZGOW 021300Z AUTO 08010KT 6SM 19/17 A3006 RMK T01900170 IEM_DS3505
ZGOW,2001-12-02 14:00,ZGOW 021400Z AUTO 08008KT 6SM 19/17 A3006 RMK T01900170 IEM_DS3505
ZGOW,2001-12-02 15:00,ZGOW 021500Z AUTO 07008KT 7SM 20/17 A3006 RMK SLP182 T01970169 52006 IEM_DS3505
ZGOW,2001-12-02 16:00,ZGOW 021600Z AUTO 08004KT 5SM 19/17 A3006 RMK T01900170 IEM_DS3505
ZGOW,2001-12-02 17:00,ZGOW 021700Z AUTO 08006KT 3SM 19/17 A3006 RMK T01900170 IEM_DS3505
ZGOW,2001-12-02 18:00,ZGOW 021800Z AUTO 07004KT 6SM 20/17 A3003 RMK SLP176 T01950169 57006 IEM_DS3505
ZGOW,2001-12-02 19:00,ZGOW 021900Z AUTO 33002KT 3SM 18/17 A3003 RMK T01800170 IEM_DS3505
ZGOW,2001-12-02 20:00,ZGOW 022000Z AUTO 34004KT 3SM 18/16 A3003 RMK T01800160 IEM_DS3505
ZGOW,2001-12-02 21:00,ZGOW 022100Z AUTO 07002KT 6SM 18/17 A3003 RMK SLP171 T01840171 57005 IEM_DS3505
ZGOW,2001-12-02 22:00,ZGOW 022200Z AUTO 33002KT 1 1/4SM 17/16 A3003 RMK T01700160 IEM_DS3505
ZGOW,2001-12-02 23:00,ZGOW 022300Z AUTO 1SM 17/16 A3006 RMK T01700160 IEM_DS3505
ZGOW,2001-12-03 00:00,ZGOW 030000Z AUTO 07004KT 5SM 19/17 A3009 RMK SLP184 T01900169 52013 IEM_DS3505
ZGOW,2001-12-03 01:00,ZGOW 030100Z AUTO 35004KT 2SM 21/18 A3009 RMK T02100180 IEM_DS3505
ZGOW,2001-12-03 02:00,ZGOW 030200Z AUTO 03006KT 6SM 23/17 A3009 RMK T02300170 IEM_DS3505
ZGOW,2001-12-03 03:00,ZGOW 030300Z AUTO 07008KT 6SM 24/17 A3006 RMK SLP182 T02410172 57002 IEM_DS3505
ZGOW,2001-12-03 04:00,ZGOW 030400Z AUTO 09008KT 6SM 24/18 A3003 RMK T02400180 IEM_DS3505
ZGOW,2001-12-03 05:00,ZGOW 030500Z AUTO 08006KT 6SM 25/17 A3000 RMK T02500170 IEM_DS3505
ZGOW,2001-12-03 06:00,ZGOW 030600Z AUTO 18006KT 7SM 25/18 A2997 RMK SLP151 T02490176 57031 IEM_DS3505
ZGOW,2001-12-03 07:00,ZGOW 030700Z AUTO 14008KT 6SM 24/18 A2997 RMK T02400180 IEM_DS3505
ZGOW,2001-12-03 08:00,ZGOW 030800Z AUTO 13008KT 6SM 23/18 A2997 RMK T02300180 IEM_DS3505
ZGOW,2001-12-03 09:00,ZGOW 030900Z AUTO 18004KT 6SM 23/18 A2997 RMK SLP142 T02260178 57009 IEM_DS3505
ZGOW,2001-12-03 10:00,ZGOW 031000Z AUTO 13004KT 4SM 20/18 A2997 RMK T02000180 IEM_DS3505
ZGOW,2001-12-03 11:00,ZGOW 031100Z AUTO 13004KT 6SM RMK IEM_DS3505
ZGOW,2001-12-03 12:00,ZGOW 031200Z AUTO 00000KT 6SM 21/18 RMK SLP158 T02060182 52016 IEM_DS3505
ZGOW,2001-12-03 13:00,ZGOW 031300Z AUTO 3SM 19/18 A3000 RMK T01900180 IEM_DS3505
ZGOW,2001-12-03 14:00,ZGOW 031400Z AUTO 1 1/2SM 19/18 A3000 RMK T01900180 IEM_DS3505
ZGOW,2001-12-03 15:00,ZGOW 031500Z AUTO 04004KT 5SM 19/18 A3000 RMK SLP164 T01940178 52006 IEM_DS3505
ZGOW,2001-12-03 16:00,ZGOW 031600Z AUTO 1SM 19/18 A3000 RMK T01900180 IEM_DS3505
ZGOW,2001-12-03 17:00,ZGOW 031700Z AUTO 33004KT 1SM 19/18 A3000 RMK T01900180 IEM_DS3505
ZGOW,2001-12-03 18:00,ZGOW 031800Z AUTO 02004KT 4SM 18/17 A3000 RMK SLP157 T01810174 57007 IEM_DS3505
ZGOW,2001-12-03 19:00,ZGOW 031900Z AUTO 1/2SM 18/18 A2997 RMK T01800180 IEM_DS3505
ZGOW,2001-12-03 20:00,ZGOW 032000Z AUTO 32002KT 1/2SM 18/17 A2997 RMK T01800170 IEM_DS3505
ZGOW,2001-12-03 21:00,ZGOW 032100Z AUTO 07004KT 1 1/4SM 17/17 A2997 RMK SLP155 T01740167 57002 IEM_DS3505
ZGOW,2001-12-03 22:00,ZGOW 032200Z AUTO 1 1/4SM 17/17 A3000 RMK T01700170 IEM_DS3505
ZGOW,2001-12-03 23:00,ZGOW 032300Z AUTO 32004KT 1SM 18/17 A3000 RMK T01800170 IEM_DS3505
ZGOW,2001-12-04 00:00,ZGOW 040000Z AUTO 07004KT 1SM 19/18 A3000 RMK SLP165 T01930175 52010 IEM_DS3505
ZGOW,2001-12-04 01:00,ZGOW 040100Z AUTO 33006KT 2 1/2SM 21/18 A3003 RMK T02100180 IEM_DS3505
ZGOW,2001-12-04 02:00,ZGOW 040200Z AUTO 33004KT 2 1/2SM 23/18 A3000 RMK T02300180 IEM_DS3505
ZGOW,2001-12-04 03:00,ZGOW 040300Z AUTO 07006KT 5SM 26/16 A3000 RMK SLP160 T02580163 57005 IEM_DS3505
ZGOW,2001-12-04 04:00,ZGOW 040400Z AUTO 09004KT 3SM 26/18 A2994 RMK T02600180 IEM_DS3505
ZGOW,2001-12-04 05:00,ZGOW 040500Z AUTO 12006KT 27/18 A2991 RMK T02700180 IEM_DS3505
ZGOW,2001-12-04 06:00,ZGOW 040600Z AUTO 16006KT 7SM 27/17 RMK SLP125 T02680167 57035 IEM_DS3505
ZGOW,2001-12-04 07:00,ZGOW 040700Z AUTO 13010KT 4SM 23/19 A2988 RMK T02300190 IEM_DS3505
ZGOW,2001-12-04 08:00,ZGOW 040800Z AUTO 11010KT 2 1/2SM 23/19 A2991 RMK T02300190 IEM_DS3505
ZGOW,2001-12-04 09:00,ZGOW 040900Z AUTO 11008KT 5SM 22/18 A2991 RMK SLP133 T02200185 52008 IEM_DS3505
ZGOW,2001-12-04 10:00,ZGOW 041000Z AUTO 07016KT 4SM 20/18 A2994 RMK T02000180 IEM_DS3505
ZGOW,2001-12-04 11:00,ZGOW 041100Z AUTO 07016KT 7SM 20/18 A2997 RMK T02000180 IEM_DS3505
ZGOW,2001-12-04 12:00,ZGOW 041200Z AUTO 07010KT 5SM 20/18 A2997 RMK SLP153 T02050179 52020 IEM_DS3505
ZGOW,2001-12-04 13:00,ZGOW 041300Z AUTO 08014KT 6SM 20/17 A3000 RMK T02000170 IEM_DS3505
ZGOW,2001-12-04 14:00,ZGOW 041400Z AUTO 08012KT 6SM 20/17 A3000 RMK T02000170 IEM_DS3505
ZGOW,2001-12-04 17:00,ZGOW 041700Z AUTO 09012KT 6SM 19/17 A3003 RMK T01900170 IEM_DS3505
ZGOW,2001-12-04 18:00,ZGOW 041800Z AUTO 09006KT 6SM 19/17 A3000 RMK SLP163 T01940166 57002 IEM_DS3505
ZGOW,2001-12-04 19:00,ZGOW 041900Z AUTO 06006KT 6SM 18/17 A3000 RMK T01800170 IEM_DS3505
ZGOW,2001-12-04 20:00,ZGOW 042000Z AUTO 02004KT 3SM 18/17 A3000 RMK T01800170 IEM_DS3505
ZGOW,2001-12-04 21:00,ZGOW 042100Z AUTO 02004KT 7SM 18/17 A3000 RMK SLP163 T01840167 54000 IEM_DS3505
ZGOW,2001-12-04 22:00,ZGOW 042200Z AUTO 01004KT 4SM 18/16 A3003 RMK T01800160 IEM_DS3505
ZGOW,2001-12-04 23:00,ZGOW 042300Z AUTO 2 1/2SM 18/16 A3003 RMK T01800160 IEM_DS3505
ZGOW,2001-12-05 00:00,ZGOW 050000Z AUTO 00000KT 5SM 20/17 A3006 RMK SLP178 T01980172 52015 IEM_DS3505
ZGOW,2001-12-05 01:00,ZGOW 050100Z AUTO 06006KT 2 1/2SM 22/17 A3006 RMK T02200170 IEM_DS3505
ZGOW,2001-12-05 02:00,ZGOW 050200Z AUTO 08012KT 4SM 22/17 A3006 RMK T02200170 IEM_DS3505
ZGOW,2001-12-05 03:00,ZGOW 050300Z AUTO 07010KT 7SM 23/17 A3003 RMK SLP168 T02280166 57010 IEM_DS3505
ZGOW,2001-12-05 04:00,ZGOW 050400Z AUTO 07017KT 6SM 24/17 A3000 RMK T02400170 IEM_DS3505
ZGOW,2001-12-05 05:00,ZGOW 050500Z AUTO 08016KT 6SM 24/17 A2997 RMK T02400170 IEM_DS3505
ZGOW,2001-12-05 06:00,ZGOW 050600Z AUTO 20006KT 11SM 25/17 A2994 RMK SLP141 T02520174 57027 IEM_DS3505
ZGOW,2001-12-05 08:00,ZGOW 050800Z AUTO 10006KT 7SM 23/18 A2994 RMK T02300180 IEM_DS3505
ZGOW,2001-12-05 09:00,ZGOW 050900Z AUTO 18004KT 7SM 22/18 A2994 RMK SLP145 T02240179 52004 IEM_DS3505
ZGOW,2001-12-05 10:00,ZGOW 051000Z AUTO 14004KT 4SM 21/18 A2997 RMK T02100180 IEM_DS3505
ZGOW,2001-12-05 11:00,ZGOW 051100Z AUTO 08002KT 4SM 20/18 A2997 RMK T02000180 IEM_DS3505
ZGOW,2001-12-05 12:00,ZGOW 051200Z AUTO 09004KT 7SM 21/18 A3000 RMK SLP162 T02070180 52017 IEM_DS3505
ZGOW,2001-12-05 13:00,ZGOW 051300Z AUTO 08004KT 4SM 19/18 A3003 RMK T01900180 IEM_DS3505
ZGOW,2001-12-05 14:00,ZGOW 051400Z AUTO 09004KT 6SM 19/18 A3003 RMK T01900180 IEM_DS3505
ZGOW,2001-12-05 15:00,ZGOW 051500Z AUTO 04004KT 5SM 21/18 A3003 RMK SLP173 T02060182 52011 IEM_DS3505
ZGOW,2001-12-05 16:00,ZGOW 051600Z AUTO 06008KT 6SM 20/18 A3003 RMK T02000180 IEM_DS3505
ZGOW,2001-12-05 17:00,ZGOW 051700Z AUTO 04006KT 4SM 20/18 A3003 RMK T02000180 IEM_DS3505
ZGOW,2001-12-05 18:00,ZGOW 051800Z AUTO 07006KT 5SM 20/18 A3003 RMK SLP171 T02010180 57002 IEM_DS3505
ZGOW,2001-12-05 19:00,ZGOW 051900Z AUTO 05006KT 3SM 20/18 A3003 RMK T02000180 IEM_DS3505
ZGOW,2001-12-05 20:00,ZGOW 052000Z AUTO 04004KT 3SM 18/17 A3003 RMK T01800170 IEM_DS3505
ZGOW,2001-12-05 21:00,ZGOW 052100Z AUTO 07004KT 6SM 20/18 A3003 RMK SLP169 T01960180 57002 IEM_DS3505
ZGOW,2001-12-05 22:00,ZGOW 052200Z AUTO 03004KT 1 1/2SM 18/17 A3006 RMK T01800170 IEM_DS3505
ZGOW,2001-12-05 23:00,ZGOW 052300Z AUTO 03004KT 1 1/2SM 19/18 A3006 RMK T01900180 IEM_DS3505
ZGOW,2001-12-06 00:00,ZGOW 060000Z AUTO 07004KT 4SM 20/18 A3009 RMK SLP189 T01980180 52020 IEM_DS3505
ZGOW,2001-12-06 01:00,ZGOW 060100Z AUTO 05006KT 2 1/2SM 20/18 A3012 RMK T02000180 IEM_DS3505
ZGOW,2001-12-06 02:00,ZGOW 060200Z AUTO 04006KT 3SM 21/18 A3012 RMK T02100180 IEM_DS3505
ZGOW,2001-12-06 03:00,ZGOW 060300Z AUTO 04008KT 3SM 21/17 A3009 RMK SLP190 T02130171 52001 IEM_DS3505
ZGOW,2001-12-06 04:00,ZGOW 060400Z AUTO 32008KT 3SM 21/16 A3006 RMK T02100160 IEM_DS3505
ZGOW,2001-12-06 05:00,ZGOW 060500Z AUTO 34008KT 21/15 A3003 RMK T02100150 IEM_DS3505
ZGOW,2001-12-06 06:00,ZGOW 060600Z AUTO 02004KT 6SM 21/14 A3003 RMK SLP167 T02100142 57023 IEM_DS3505
ZGOW,2001-12-06 07:00,ZGOW 060700Z AUTO 33010KT 21/14 A3003 RMK T02100140 IEM_DS3505
ZGOW,2001-12-06 08:00,ZGOW 060800Z AUTO 05004KT 1 1/2SM 18/16 A3003 RMK T01800160 IEM_DS3505
ZGOW,2001-12-06 09:00,ZGOW 060900Z AUTO 07006KT 4SM 18/16 A3006 RMK SLP178 T01780161 52011 IEM_DS3505
ZGOW,2001-12-06 10:00,ZGOW 061000Z AUTO 04006KT 1 1/2SM 17/16 A3009 RMK T01700160 IEM_DS3505
ZGOW,2001-12-06 11:00,ZGOW 061100Z AUTO 35006KT 1 1/2SM 16/15 A3012 RMK T01600150 IEM_DS3505
ZGOW,2001-12-06 12:00,ZGOW 061200Z AUTO 07006KT 3SM 17/14 A3015 RMK 60002 SLP205 T01660140 52027 IEM_DS3505
ZGOW,2001-12-06 13:00,ZGOW 061300Z AUTO 36004KT 7SM 16/15 A3015 RMK T01600150 IEM_DS3505
ZGOW,2001-12-06 14:00,ZGOW 061400Z AUTO 36004KT 7SM 16/14 A3015 RMK T01600140 IEM_DS3505
ZGOW,2001-12-06 15:00,ZGOW 061500Z AUTO 02006KT 7SM 16/13 A3015 RMK SLP208 T01640128 52003 IEM_DS3505
ZGOW,2001-12-06 16:00,ZGOW 061600Z AUTO 34006KT 6SM 16/12 A3015 RMK T01600120 IEM_DS3505
ZGOW,2001-12-06 17:00,ZGOW 061700Z AUTO 34006KT 6SM 16/12 A3015 RMK T01600120 IEM_DS3505
ZGOW,2001-12-06 18:00,ZGOW 061800Z AUTO 04006KT 8SM 16/11 A3012 RMK 60003 SLP203 T01570110 57005 IEM_DS3505
ZGOW,2001-12-06 19:00,ZGOW 061900Z AUTO 35006KT 6SM 15/11 A3012 RMK T01500110 IEM_DS3505
ZGOW,2001-12-06 20:00,ZGOW 062000Z AUTO 34006KT 6SM 15/11 A3012 RMK T01500110 IEM_DS3505
ZGOW,2001-12-06 21:00,ZGOW 062100Z AUTO 02004KT 7SM 15/11 A3012 RMK 70002 SLP198 T01510108 57005 IEM_DS3505
ZGOW,2001-12-06 22:00,ZGOW 062200Z AUTO 34004KT 6SM 15/11 A3012 RMK T01500110 IEM_DS3505
ZGOW,2001-12-06 23:00,ZGOW 062300Z AUTO 34004KT 6SM 15/12 A3012 RMK T01500120 IEM_DS3505
ZGOW,2001-12-07 00:00,ZGOW 070000Z AUTO 04006KT 9SM 16/11 A3015 RMK 70002 SLP206 T01550112 52008 IEM_DS3505
ZGOW,2001-12-07 01:00,ZGOW 070100Z AUTO 35006KT 4SM 16/12 A3015 RMK T01600120 IEM_DS3505
ZGOW,2001-12-07 02:00,ZGOW 070200Z AUTO 35002KT 6SM 18/13 A3015 RMK T01800130 IEM_DS3505
ZGOW,2001-12-07 03:00,ZGOW 070300Z AUTO 07004KT 9SM 18/13 A3015 RMK SLP209 T01850126 52003 IEM_DS3505
ZGOW,2001-12-07 04:00,ZGOW 070400Z AUTO 08016KT 6SM 20/13 A3012 RMK T02000130 IEM_DS3505
ZGOW,2001-12-07 05:00,ZGOW 070500Z AUTO 08012KT 6SM 21/14 A3009 RMK T02100140 IEM_DS3505
ZGOW,2001-12-07 06:00,ZGOW 070600Z AUTO 11008KT 11SM 22/14 A3006 RMK SLP174 T02190138 57035 IEM_DS3505
ZGOW,2001-12-07 07:00,ZGOW 070700Z AUTO 08014KT 6SM 22/14 A3003 RMK T02200140 IEM_DS3505
ZGOW,2001-12-07 08:00,ZGOW 070800Z AUTO 09012KT 6SM 21/14 A3003 RMK T02100140 IEM_DS3505
ZGOW,2001-12-07 09:00,ZGOW 070900Z AUTO 09006KT 11SM 20/15 A3003 RMK SLP175 T02040150 52001 IEM_DS3505
ZGOW,2001-12-07 10:00,ZGOW 071000Z AUTO 07012KT 6SM 19/15 A3006 RMK T01900150 IEM_DS3505
ZGOW,2001-12-07 11:00,ZGOW 071100Z AUTO 06012KT 6SM 19/15 A3009 RMK T01900150 IEM_DS3505
ZGOW,2001-12-07 12:00,ZGOW 071200Z AUTO 07008KT 7SM 19/15 A3009 RMK SLP188 T01930154 52013 IEM_DS3505
ZGOW,2001-12-07 13:00,ZGOW 071300Z AUTO 07008KT 6SM 19/16 A3009 RMK T01900160 IEM_DS3505
ZGOW,2001-12-07 14:00,ZGOW 071400Z AUTO 03006KT 6SM 17/15 A3009 RMK T01700150 IEM_DS3505
ZGOW,2001-12-07 15:00,ZGOW 071500Z AUTO 07004KT 7SM 18/16 A3009 RMK SLP193 T01810156 52005 IEM_DS3505
ZGOW,2001-12-07 16:00,ZGOW 071600Z AUTO 06002KT 6SM 17/14 A3009 RMK T01700140 IEM_DS3505
ZGOW,2001-12-07 17:00,ZGOW 071700Z AUTO 6SM 17/14 A3009 RMK T01700140 IEM_DS3505
ZGOW,2001-12-07 18:00,ZGOW 071800Z AUTO 07004KT 6SM 17/15 A3009 RMK SLP191 T01700149 57002 IEM_DS3505
ZGOW,2001-12-07 19:00,ZGOW 071900Z AUTO 2 1/2SM 17/15 A3009 RMK T01700150 IEM_DS3505
ZGOW,2001-12-07 20:00,ZGOW 072000Z AUTO 34002KT 4SM 17/15 A3006 RMK T01700150 IEM_DS3505
ZGOW,2001-12-07 21:00,ZGOW 072100Z AUTO 02004KT 6SM 17/15 A3006 RMK SLP182 T01710147 57009 IEM_DS3505
ZGOW,2001-12-07 22:00,ZGOW 072200Z AUTO 28002KT 7SM 17/15 A3009 RMK T01700150 IEM_DS3505
ZGOW,2001-12-07 23:00,ZGOW 072300Z AUTO 27002KT 2 1/2SM 17/15 A3009 RMK T01700150 IEM_DS3505
ZGOW,2001-12-08 00:00,ZGOW 080000Z AUTO 04002KT 6SM 18/14 A3009 RMK SLP195 T01780141 52013 IEM_DS3505
ZGOW,2001-12-08 01:00,ZGOW 080100Z AUTO 33002KT 2 1/2SM 18/15 A3012 RMK T01800150 IEM_DS3505
ZGOW,2001-12-08 02:00,ZGOW 080200Z AUTO 33002KT 1 1/2SM 19/15 A3012 RMK T01900150 IEM_DS3505
ZGOW,2001-12-08 03:00,ZGOW 080300Z AUTO 34004KT 6SM 20/16 A3015 RMK SLP207 T02010156 52012 IEM_DS3505
ZGOW,2001-12-08 04:00,ZGOW 080400Z AUTO 1 1/2SM 20/17 A3012 RMK T02000170 IEM_DS3505
ZGOW,2001-12-08 05:00,ZGOW 080500Z AUTO 08006KT 4SM 21/18 A3009 RMK T02100180 IEM_DS3505
ZGOW,2001-12-08 06:00,ZGOW 080600Z AUTO 07002KT 6SM 21/19 A3006 RMK 60000 SLP185 T02110186 57022 IEM_DS3505
ZGOW,2001-12-08 07:00,ZGOW 080700Z AUTO 09004KT 3SM 21/18 A3006 RMK T02100180 IEM_DS3505
ZGOW,2001-12-08 08:00,ZGOW 080800Z AUTO 08004KT 2 1/2SM 21/18 A3006 RMK T02100180 IEM_DS3505
ZGOW,2001-12-08 09:00,ZGOW 080900Z AUTO 07004KT 4SM 20/19 A3009 RMK SLP186 T01990188 52001 IEM_DS3505
ZGOW,2001-12-08 10:00,ZGOW 081000Z AUTO 4SM 20/19 A3009 RMK T02000190 IEM_DS3505
ZGOW,2001-12-08 11:00,ZGOW 081100Z AUTO 2 1/2SM 20/19 A3012 RMK T02000190 IEM_DS3505
ZGOW,2001-12-08 12:00,ZGOW 081200Z AUTO 07004KT 2 1/2SM 20/19 A3015 RMK 60012 SLP206 T01980188 52020 IEM_DS3505
ZGOW,2001-12-08 13:00,ZGOW 081300Z AUTO 08010KT 4SM 20/19 A3015 RMK T02000190 IEM_DS3505
ZGOW,2001-12-08 14:00,ZGOW 081400Z AUTO 08010KT 4SM 20/19 A3015 RMK T02000190 IEM_DS3505
ZGOW,2001-12-08 15:00,ZGOW 081500Z AUTO 07010KT 3SM 19/19 A3015 RMK SLP207 T01940186 52001 IEM_DS3505
ZGOW,2001-12-08 16:00,ZGOW 081600Z AUTO 06012KT 1 1/2SM 20/19 A3012 RMK T02000190 IEM_DS3505
ZGOW,2001-12-08 18:00,ZGOW 081800Z AUTO 04004KT 5SM 19/19 RMK 60012 SLP186 T01940188 57021 IEM_DS3505
ZGOW,2001-12-08 21:00,ZGOW 082100Z AUTO 00000KT 5SM 19/19 RMK 70022 SLP193 T01920186 52007 IEM_DS3505
ZGOW,2001-12-09 00:00,ZGOW 090000Z AUTO 04004KT 6SM 20/18 RMK 60000 SLP204 T01970184 52011 IEM_DS3505
ZGOW,2001-12-09 01:00,ZGOW 090100Z AUTO 2SM 20/19 A3015 RMK T02000190 IEM_DS3505
ZGOW,2001-12-09 02:00,ZGOW 090200Z AUTO 3SM 21/19 A3015 RMK T02100190 IEM_DS3505
ZGOW,2001-12-09 03:00,ZGOW 090300Z AUTO 04004KT 7SM 23/19 A3015 RMK SLP206 T02280194 52002 IEM_DS3505
ZGOW,2001-12-09 04:00,ZGOW 090400Z AUTO 07006KT 6SM 24/20 A3012 RMK T02400200 IEM_DS3505
ZGOW,2001-12-09 05:00,ZGOW 090500Z AUTO 08006KT 6SM 25/19 A3009 RMK T02500190 IEM_DS3505
ZGOW,2001-12-09 06:00,ZGOW 090600Z AUTO 04006KT 10SM 25/19 A3006 RMK 60003 SLP175 T02510187 57031 IEM_DS3505
ZGOW,2001-12-09 07:00,ZGOW 090700Z AUTO 34004KT 6SM 25/19 A3006 RMK T02500190 IEM_DS3505
ZGOW,2001-12-09 08:00,ZGOW 090800Z AUTO 32004KT 6SM 25/19 A3006 RMK T02500190 IEM_DS3505
ZGOW,2001-12-09 09:00,ZGOW 090900Z AUTO 02006KT 9SM 24/19 A3006 RMK SLP180 T02360189 52005 IEM_DS3505
ZGOW,2001-12-09 10:00,ZGOW 091000Z AUTO 35004KT 4SM 22/19 A3006 RMK T02200190 IEM_DS3505
ZGOW,2001-12-09 11:00,ZGOW 091100Z AUTO 34004KT 6SM 22/18 A3009 RMK T02200180 IEM_DS3505
ZGOW,2001-12-09 12:00,ZGOW 091200Z AUTO 00000KT 6SM 22/19 A3009 RMK SLP196 T02170189 52016 IEM_DS3505
ZGOW,2001-12-09 13:00,ZGOW 091300Z AUTO 35004KT 4SM 21/19 A3012 RMK T02100190 IEM_DS3505
ZGOW,2001-12-09 14:00,ZGOW 091400Z AUTO 4SM 20/19 A3012 RMK T02000190 IEM_DS3505
ZGOW,2001-12-09 15:00,ZGOW 091500Z AUTO 07004KT 5SM 20/19 A3012 RMK SLP199 T02010187 52003 IEM_DS3505
ZGOW,2001-12-09 16:00,ZGOW 091600Z AUTO 33006KT 2 1/2SM 20/19 A3012 RMK T02000190 IEM_DS3505
ZGOW,2001-12-09 17:00,ZGOW 091700Z AUTO 31002KT 2 1/2SM 19/18 A3009 RMK T01900180 IEM_DS3505
ZGOW,2001-12-09 18:00,ZGOW 091800Z AUTO 04004KT 6SM 20/18 A3009 RMK 60008 SLP188 T01950182 57011 IEM_DS3505
ZGOW,2001-12-09 19:00,ZGOW 091900Z AUTO 32006KT 2SM 19/18 A3009 RMK T01900180 IEM_DS3505
ZGOW,2001-12-09 20:00,ZGOW 092000Z AUTO 34006KT 2 1/2SM 19/18 A3009 RMK T01900180 IEM_DS3505
ZGOW,2001-12-09 21:00,ZGOW 092100Z AUTO 02004KT 5SM 19/18 A3009 RMK 70009 SLP190 T01900179 52002 IEM_DS3505
ZGOW,2001-12-09 22:00,ZGOW 092200Z AUTO 32008KT 4SM 18/17 A3009 RMK T01800170 IEM_DS3505
ZGOW,2001-12-09 23:00,ZGOW 092300Z AUTO 32008KT 2 1/2SM 18/17 A3012 RMK T01800170 IEM_DS3505
ZGOW,2001-12-10 00:00,ZGOW 100000Z AUTO 04006KT 7SM 18/17 A3012 RMK 60003 SLP202 T01840171 52012 IEM_DS3505
ZGOW,2001-12-10 01:00,ZGOW 100100Z AUTO 32004KT 4SM 19/17 A3012 RMK T01900170 IEM_DS3505
ZGOW,2001-12-10 02:00,ZGOW 100200Z AUTO 33010KT 6SM 20/17 A3015 RMK T02000170 IEM_DS3505
ZGOW,2001-12-10 03:00,ZGOW 100300Z AUTO 04004KT 11SM 22/17 A3012 RMK SLP204 T02190170 52002 IEM_DS3505
ZGOW,2001-12-10 04:00,ZGOW 100400Z AUTO 34006KT 6SM 23/18 A3009 RMK T02300180 IEM_DS3505
ZGOW,2001-12-10 05:00,ZGOW 100500Z AUTO 35006KT 6SM 23/18 A3006 RMK T02300180 IEM_DS3505
ZGOW,2001-12-10 06:00,ZGOW 100600Z AUTO 04008KT 11SM 26/18 A3003 RMK 60000 SLP169 T02560180 57035 IEM_DS3505
ZGOW,2001-12-10 07:00,ZGOW 100700Z AUTO 32010KT 7SM 23/17 A3003 RMK T02300170 IEM_DS3505
ZGOW,2001-12-10 08:00,ZGOW 100800Z AUTO 34006KT 7SM 23/17 A3003 RMK T02300170 IEM_DS3505
ZGOW,2001-12-10 09:00,ZGOW 100900Z AUTO 07006KT 11SM 22/17 A3006 RMK SLP178 T02200168 52009 IEM_DS3505
ZGOW,2001-12-10 10:00,ZGOW 101000Z AUTO 01006KT 7SM 21/17 A3009 RMK T02100170 IEM_DS3505
ZGOW,2001-12-10 11:00,ZGOW 101100Z AUTO 07012G21KT 7SM 20/18 A3012 RMK T02000180 IEM_DS3505
ZGOW,2001-12-10 12:00,ZGOW 101200Z AUTO 04006KT 7SM 20/16 A3012 RMK 60003 SLP204 T02000158 52026 IEM_DS3505
ZGOW,2001-12-10 13:00,ZGOW 101300Z AUTO 08014KT 7SM 20/17 A3012 RMK T02000170 IEM_DS3505
ZGOW,2001-12-10 14:00,ZGOW 101400Z AUTO 07014KT 7SM 19/17 A3015 RMK T01900170 IEM_DS3505
ZGOW,2001-12-10 15:00,ZGOW 101500Z AUTO 07008KT 6SM 19/17 A3015 RMK SLP209 T01910168 52005 IEM_DS3505
ZGOW,2001-12-10 16:00,ZGOW 101600Z AUTO 07014KT 7SM 19/16 A3015 RMK T01900160 IEM_DS3505
ZGOW,2001-12-10 17:00,ZGOW 101700Z AUTO 07016KT 4SM 19/16 A3015 RMK T01900160 IEM_DS3505
ZGOW,2001-12-10 18:00,ZGOW 101800Z AUTO 07006KT 7SM 18/16 A3015 RMK 60003 SLP207 T01770157 57002 IEM_DS3505
ZGOW,2001-12-10 19:00,ZGOW 101900Z AUTO 33006KT 1 1/4SM 17/16 A3012 RMK T01700160 IEM_DS3505
ZGOW,2001-12-10 20:00,ZGOW 102000Z AUTO 32006KT 1SM 17/16 A3012 RMK T01700160 IEM_DS3505
ZGOW,2001-12-10 21:00,ZGOW 102100Z AUTO 04006KT 5SM 17/15 A3012 RMK 70002 SLP199 T01660154 57008 IEM_DS3505
ZGOW,2001-12-10 22:00,ZGOW 102200Z AUTO 04004KT 7SM 17/16 A3012 RMK T01700160 IEM_DS3505
ZGOW,2001-12-10 23:00,ZGOW 102300Z AUTO 03008KT 7SM 17/16 A3012 RMK T01700160 IEM_DS3505
ZGOW,2001-12-11 00:00,ZGOW 110000Z AUTO 04008KT 6SM 18/16 A3012 RMK 60003 SLP203 T01780159 52004 IEM_DS3505
ZGOW,2001-12-11 01:00,ZGOW 110100Z AUTO 02006KT 7SM 19/16 A3015 RMK T01900160 IEM_DS3505
ZGOW,2001-12-11 02:00,ZGOW 110200Z AUTO 05008KT 7SM 20/16 A3015 RMK T02000160 IEM_DS3505
ZGOW,2001-12-11 03:00,ZGOW 110300Z AUTO 09006KT 8SM 20/15 A3015 RMK SLP208 T01990152 52005 IEM_DS3505
ZGOW,2001-12-11 04:00,ZGOW 110400Z AUTO 08014KT 6SM 22/16 A3012 RMK T02200160 IEM_DS3505
ZGOW,2001-12-11 05:00,ZGOW 110500Z AUTO 08014KT 6SM 22/16 A3009 RMK T02200160 IEM_DS3505
ZGOW,2001-12-11 06:00,ZGOW 110600Z AUTO 11010KT 12SM 22/16 A3006 RMK SLP178 T02220159 57030 IEM_DS3505
ZGOW,2001-12-11 07:00,ZGOW 110700Z AUTO 08014KT 6SM 22/16 A3003 RMK T02200160 IEM_DS3505
ZGOW,2001-12-11 08:00,ZGOW 110800Z AUTO 09014KT 6SM 21/16 A3003 RMK T02100160 IEM_DS3505
ZGOW,2001-12-11 09:00,ZGOW 110900Z AUTO 07008KT 11SM 21/15 A3006 RMK SLP174 T02060152 57004 IEM_DS3505
ZGOW,2001-12-11 10:00,ZGOW 111000Z AUTO 08010KT 7SM 19/16 A3006 RMK T01900160 IEM_DS3505
ZGOW,2001-12-11 11:00,ZGOW 111100Z AUTO 09012KT 7SM 19/16 A3009 RMK T01900160 IEM_DS3505
ZGOW,2001-12-11 12:00,ZGOW 111200Z AUTO 09006KT 8SM 19/16 A3009 RMK SLP193 T01940157 52019 IEM_DS3505
ZGOW,2001-12-11 13:00,ZGOW 111300Z AUTO 07008KT 7SM 19/16 A3012 RMK T01900160 IEM_DS3505
ZGOW,2001-12-11 14:00,ZGOW 111400Z AUTO 07006KT 7SM 19/16 A3012 RMK T01900160 IEM_DS3505
ZGOW,2001-12-11 15:00,ZGOW 111500Z AUTO 07004KT 7SM 20/16 A3012 RMK SLP202 T01960165 52009 IEM_DS3505
ZGOW,2001-12-11 16:00,ZGOW 111600Z AUTO 08010KT 3SM 19/16 A3012 RMK T01900160 IEM_DS3505
ZGOW,2001-12-11 18:00,ZGOW 111800Z AUTO 07008KT 7SM 19/16 RMK SLP193 T01890162 57009 IEM_DS3505
ZGOW,2001-12-11 21:00,ZGOW 112100Z AUTO 04006KT 6SM 18/16 RMK SLP190 T01850165 57003 IEM_DS3505
ZGOW,2001-12-12 00:00,ZGOW 120000Z AUTO 04004KT 4SM 19/17 RMK SLP203 T01860168 52013 IEM_DS3505
ZGOW,2001-12-12 02:00,ZGOW 120200Z AUTO 08006KT 7SM 22/17 A3015 RMK T02200170 IEM_DS3505
ZGOW,2001-12-12 03:00,ZGOW 120300Z AUTO 07006KT 6SM 23/17 A3012 RMK SLP202 T02340173 57001 IEM_DS3505
ZGOW,2001-12-12 04:00,ZGOW 120400Z AUTO 07006KT 7SM 23/17 A3012 RMK T02300170 IEM_DS3505
ZGOW,2001-12-12 05:00,ZGOW 120500Z AUTO 06006KT 6SM 23/18 A3009 RMK T02300180 IEM_DS3505
ZGOW,2001-12-12 06:00,ZGOW 120600Z AUTO 11006KT 9SM 24/17 A3006 RMK SLP180 T02360173 57022 IEM_DS3505
ZGOW,2001-12-12 07:00,ZGOW 120700Z AUTO 11004KT 6SM 23/18 A3006 RMK T02300180 IEM_DS3505
ZGOW,2001-12-12 08:00,ZGOW 120800Z AUTO 13004KT 6SM 22/18 A3006 RMK T02200180 IEM_DS3505
ZGOW,2001-12-12 09:00,ZGOW 120900Z AUTO 20006KT 7SM 21/17 A3006 RMK SLP179 T02130172 57001 IEM_DS3505
ZGOW,2001-12-12 10:00,ZGOW 121000Z AUTO 11002KT 6SM 20/17 A3009 RMK T02000170 IEM_DS3505
ZGOW,2001-12-12 11:00,ZGOW 121100Z AUTO 04004KT 6SM 19/17 A3009 RMK T01900170 IEM_DS3505
ZGOW,2001-12-12 12:00,ZGOW 121200Z AUTO 04004KT 7SM 20/18 A3012 RMK SLP193 T02020176 52014 IEM_DS3505
ZGOW,2001-12-12 14:00,ZGOW 121400Z AUTO 07004KT 6SM 19/17 A3012 RMK T01900170 IEM_DS3505
ZGOW,2001-12-12 15:00,ZGOW 121500Z AUTO 09004KT 7SM 19/17 A3012 RMK SLP203 T01940173 52010 IEM_DS3505
ZGOW,2001-12-12 16:00,ZGOW 121600Z AUTO 36002KT 6SM 18/17 A3012 RMK T01800170 IEM_DS3505
ZGOW,2001-12-12 17:00,ZGOW 121700Z AUTO 36002KT 3SM 19/18 A3012 RMK T01900180 IEM_DS3505
ZGOW,2001-12-12 18:00,ZGOW 121800Z AUTO 7SM 19/18 A3012 RMK SLP199 T01920177 57004 IEM_DS3505
ZGOW,2001-12-12 19:00,ZGOW 121900Z AUTO 2SM 19/18 A3012 RMK T01900180 IEM_DS3505
ZGOW,2001-12-12 20:00,ZGOW 122000Z AUTO 1 1/2SM 19/18 A3009 RMK T01900180 IEM_DS3505
ZGOW,2001-12-12 21:00,ZGOW 122100Z AUTO 25002KT 5SM 19/17 A3009 RMK SLP195 T01890174 57004 IEM_DS3505
ZGOW,2001-12-12 22:00,ZGOW 122200Z AUTO 33006KT 6SM 19/15 A3012 RMK T01900150 IEM_DS3505
ZGOW,2001-12-12 23:00,ZGOW 122300Z AUTO 34008KT 7SM 18/15 A3015 RMK T01800150 IEM_DS3505
ZGOW,2001-12-13 00:00,ZGOW 130000Z AUTO 02008KT 7SM 18/14 A3018 RMK SLP222 T01780138 52027 IEM_DS3505
ZGOW,2001-12-13 01:00,ZGOW 130100Z AUTO 33010KT 7SM 18/13 A3021 RMK T01800130 IEM_DS3505
ZGOW,2001-12-13 02:00,ZGOW 130200Z AUTO 33012KT 7SM 17/12 A3024 RMK T01700120 IEM_DS3505
ZGOW,2001-12-13 03:00,ZGOW 130300Z AUTO 04008KT 9SM 17/12 A3024 RMK SLP243 T01690120 52021 IEM_DS3505
ZGOW,2001-12-13 04:00,ZGOW 130400Z AUTO 34012KT 7SM 17/11 A3024 RMK T01700110 IEM_DS3505
ZGOW,2001-12-13 05:00,ZGOW 130500Z AUTO 34010KT 7SM 16/11 A3024 RMK T01600110 IEM_DS3505
ZGOW,2001-12-13 06:00,ZGOW 130600Z AUTO 34008KT 11SM 16/11 A3021 RMK SLP228 T01560107 57015 IEM_DS3505
ZGOW,2001-12-13 07:00,ZGOW 130700Z AUTO 34008KT 7SM 16/11 A3021 RMK T01600110 IEM_DS3505
ZGOW,2001-12-13 08:00,ZGOW 130800Z AUTO 35008KT 7SM 15/10 A3024 RMK T01500100 IEM_DS3505
ZGOW,2001-12-13 09:00,ZGOW 130900Z AUTO 07004KT 9SM 15/11 A3027 RMK SLP243 T01470107 52015 IEM_DS3505
ZGOW,2001-12-13 10:00,ZGOW 131000Z AUTO 35006KT 2 1/2SM 14/12 A3027 RMK T01400120 IEM_DS3505
ZGOW,2001-12-13 11:00,ZGOW 131100Z AUTO 34006KT 7SM 14/11 A3030 RMK T01400110 IEM_DS3505
ZGOW,2001-12-13 12:00,ZGOW 131200Z AUTO 02004KT 9SM 15/10 A3033 RMK 60003 SLP264 T01470099 52021 IEM_DS3505
ZGOW,2001-12-13 13:00,ZGOW 131300Z AUTO 34008KT 7SM 14/10 A3033 RMK T01400100 IEM_DS3505
ZGOW,2001-12-13 14:00,ZGOW 131400Z AUTO 34008KT 7SM 14/09 A3036 RMK T01400090 IEM_DS3505
ZGOW,2001-12-13 15:00,ZGOW 131500Z AUTO 02008KT 9SM 13/09 A3036 RMK SLP283 T01310093 52019 IEM_DS3505
ZGOW,2001-12-13 16:00,ZGOW 131600Z AUTO 34006KT 6SM 13/09 A3036 RMK T01300090 IEM_DS3505
ZGOW,2001-12-13 17:00,ZGOW 131700Z AUTO 34010KT 6SM 13/08 A3036 RMK T01300080 IEM_DS3505
ZGOW,2001-12-13 18:00,ZGOW 131800Z AUTO 07004KT 10SM 12/08 A3036 RMK 60003 SLP282 T01210080 57001 IEM_DS3505
ZGOW,2001-12-13 19:00,ZGOW 131900Z AUTO 34008KT 6SM 12/08 A3036 RMK T01200080 IEM_DS3505
ZGOW,2001-12-13 20:00,ZGOW 132000Z AUTO 34008KT 6SM 12/08 A3036 RMK T01200080 IEM_DS3505
ZGOW,2001-12-13 21:00,ZGOW 132100Z AUTO 34006KT 10SM 12/07 A3036 RMK 70003 SLP279 T01190073 57003 IEM_DS3505
ZGOW,2001-12-13 22:00,ZGOW 132200Z AUTO 34008KT 7SM 12/07 A3036 RMK T01200070 IEM_DS3505
ZGOW,2001-12-13 23:00,ZGOW 132300Z AUTO 34008KT 7SM 12/07 A3039 RMK T01200070 IEM_DS3505
ZGOW,2001-12-14 00:00,ZGOW 140000Z AUTO 04004KT 10SM 12/07 A3039 RMK 70003 SLP295 T01170066 52016 IEM_DS3505
ZGOW,2001-12-14 01:00,ZGOW 140100Z AUTO 34006KT 7SM 12/08 A3042 RMK T01200080 IEM_DS3505
ZGOW,2001-12-14 02:00,ZGOW 140200Z AUTO 34006KT 7SM 13/07 A3042 RMK T01300070 IEM_DS3505
ZGOW,2001-12-14 03:00,ZGOW 140300Z AUTO 04006KT 10SM 14/08 A3042 RMK SLP281 T01440075 57014 IEM_DS3505
ZGOW,2001-12-14 04:00,ZGOW 140400Z AUTO 02004KT 7SM 15/09 A3039 RMK T01500090 IEM_DS3505
ZGOW,2001-12-14 05:00,ZGOW 140500Z AUTO 04004KT 7SM 16/09 A3033 RMK T01600090 IEM_DS3505
ZGOW,2001-12-14 06:00,ZGOW 140600Z AUTO 07006KT 10SM 18/10 A3030 RMK SLP260 T01760096 57038 IEM_DS3505
ZGOW,2001-12-14 07:00,ZGOW 140700Z AUTO 07008KT 6SM 17/10 A3027 RMK T01700100 IEM_DS3505
ZGOW,2001-12-14 08:00,ZGOW 140800Z AUTO 09008KT 6SM 17/10 A3027 RMK T01700100 IEM_DS3505
ZGOW,2001-12-14 09:00,ZGOW 140900Z AUTO 11004KT 8SM 16/10 A3030 RMK SLP256 T01630096 57004 IEM_DS3505
ZGOW,2001-12-14 10:00,ZGOW 141000Z AUTO 09010KT 6SM 15/09 A3030 RMK T01500090 IEM_DS3505
ZGOW,2001-12-14 11:00,ZGOW 141100Z AUTO 08012KT 7SM 16/10 A3033 RMK T01600100 IEM_DS3505
ZGOW,2001-12-14 12:00,ZGOW 141200Z AUTO 07006KT 7SM 16/09 A3033 RMK SLP274 T01560094 52018 IEM_DS3505
ZGOW,2001-12-14 13:00,ZGOW 141300Z AUTO 07014KT 6SM 15/08 A3036 RMK T01500080 IEM_DS3505
ZGOW,2001-12-14 14:00,ZGOW 141400Z AUTO 07016KT 6SM 14/07 A3036 RMK T01400070 IEM_DS3505
ZGOW,2001-12-14 15:00,ZGOW 141500Z AUTO 07008KT 7SM 14/07 A3036 RMK SLP284 T01410069 52010 IEM_DS3505
ZGOW,2001-12-14 16:00,ZGOW 141600Z AUTO 06012KT 6SM 13/03 A3036 RMK T01300030 IEM_DS3505
ZGOW,2001-12-14 17:00,ZGOW 141700Z AUTO 06012KT 6SM 13/01 A3036 RMK T01300010 IEM_DS3505
ZGOW,2001-12-14 18:00,ZGOW 141800Z AUTO 09006KT 10SM 13/01 A3036 RMK SLP279 T01290010 57005 IEM_DS3505
ZGOW,2001-12-14 19:00,ZGOW 141900Z AUTO 04008KT 6SM 11/02 A3033 RMK T01100020 IEM_DS3505
ZGOW,2001-12-14 20:00,ZGOW 142000Z AUTO 04006KT 6SM 11/03 A3033 RMK T01100030 IEM_DS3505
ZGOW,2001-12-14 21:00,ZGOW 142100Z AUTO 07004KT 10SM 12/02 A3033 RMK SLP267 T01220025 57012 IEM_DS3505
ZGOW,2001-12-14 22:00,ZGOW 142200Z AUTO 05004KT 6SM 10/04 A3033 RMK T01000040 IEM_DS3505
ZGOW,2001-12-14 23:00,ZGOW 142300Z AUTO 04004KT 6SM 10/05 A3036 RMK T01000050 IEM_DS3505
ZGOW,2001-12-15 00:00,ZGOW 150000Z AUTO 07008KT 12SM 13/04 A3036 RMK SLP283 T01340041 52016 IEM_DS3505
ZGOW,2001-12-15 01:00,ZGOW 150100Z AUTO 06010KT 6SM 15/05 A3039 RMK T01500050 IEM_DS3505
ZGOW,2001-12-15 02:00,ZGOW 150200Z AUTO 07016KT 6SM 16/06 A3039 RMK T01600060 IEM_DS3505
ZGOW,2001-12-15 03:00,ZGOW 150300Z AUTO 07010KT 12SM 17/07 A3036 RMK SLP278 T01670072 57005 IEM_DS3505
ZGOW,2001-12-15 04:00,ZGOW 150400Z AUTO 08014KT 6SM 18/09 A3033 RMK T01800090 IEM_DS3505
ZGOW,2001-12-15 05:00,ZGOW 150500Z AUTO 08017KT 6SM 18/09 A3030 RMK T01800090 IEM_DS3505
ZGOW,2001-12-15 06:00,ZGOW 150600Z AUTO 07010KT 12SM 18/09 A3024 RMK SLP245 T01830091 57033 IEM_DS3505
ZGOW,2001-12-15 07:00,ZGOW 150700Z AUTO 09016KT 6SM 18/10 A3024 RMK T01800100 IEM_DS3505
ZGOW,2001-12-15 08:00,ZGOW 150800Z AUTO 09016KT 6SM 17/11 A3024 RMK T01700110 IEM_DS3505
ZGOW,2001-12-15 09:00,ZGOW 150900Z AUTO 07004KT 11SM 17/10 A3024 RMK SLP237 T01720100 57008 IEM_DS3505
ZGOW,2001-12-15 10:00,ZGOW 151000Z AUTO 08017KT 6SM 16/11 A3024 RMK T01600110 IEM_DS3505
ZGOW,2001-12-15 11:00,ZGOW 151100Z AUTO 08012KT 6SM 16/11 A3027 RMK T01600110 IEM_DS3505
ZGOW,2001-12-15 12:00,ZGOW 151200Z AUTO 07008KT 9SM 16/11 A3027 RMK SLP250 T01600107 52013 IEM_DS3505
ZGOW,2001-12-15 13:00,ZGOW 151300Z AUTO 07017KT 6SM 16/11 A3027 RMK T01600110 IEM_DS3505
ZGOW,2001-12-15 14:00,ZGOW 151400Z AUTO 06012KT 6SM 16/10 A3027 RMK T01600100 IEM_DS3505
ZGOW,2001-12-15 15:00,ZGOW 151500Z AUTO 07008KT 8SM 16/11 A3027 RMK SLP254 T01610106 52004 IEM_DS3505
ZGOW,2001-12-15 16:00,ZGOW 151600Z AUTO 06012KT 6SM 16/10 A3027 RMK T01600100 IEM_DS3505
ZGOW,2001-12-15 17:00,ZGOW 151700Z AUTO 06012KT 6SM 15/10 A3027 RMK T01500100 IEM_DS3505
ZGOW,2001-12-15 18:00,ZGOW 151800Z AUTO 04006KT 7SM 16/11 RMK SLP242 T01550106 57012 IEM_DS3505
ZGOW,2001-12-15 18:01,ZGOW 151801Z AUTO 06008KT 6SM 15/11 A3024 RMK T01500110 IEM_DS3505
ZGOW,2001-12-15 19:00,ZGOW 151900Z AUTO 06010KT 6SM 16/11 A3024 RMK T01600110 IEM_DS3505
ZGOW,2001-12-15 20:00,ZGOW 152000Z AUTO 04008KT 6SM 15/11 A3021 RMK T01500110 IEM_DS3505
ZGOW,2001-12-15 21:00,ZGOW 152100Z AUTO 04004KT 7SM 15/11 RMK SLP232 T01530112 57010 IEM_DS3505
ZGOW,2001-12-15 21:01,ZGOW 152101Z AUTO 03006KT 6SM 15/11 A3021 RMK T01500110 IEM_DS3505
ZGOW,2001-12-15 22:00,ZGOW 152200Z AUTO 05006KT 6SM 15/11 A3021 RMK T01500110 IEM_DS3505
ZGOW,2001-12-15 23:00,ZGOW 152300Z AUTO 05006KT 6SM 15/11 A3024 RMK T01500110 IEM_DS3505
ZGOW,2001-12-16 00:00,ZGOW 160000Z AUTO 02004KT 6SM 16/11 A3024 RMK SLP245 T01570112 52013 IEM_DS3505
ZGOW,2001-12-16 01:00,ZGOW 160100Z AUTO 34004KT 7SM 16/11 A3027 RMK T01600110 IEM_DS3505
ZGOW,2001-12-16 02:00,ZGOW 160200Z AUTO 05006KT 6SM 18/11 A3027 RMK T01800110 IEM_DS3505
ZGOW,2001-12-16 03:00,ZGOW 160300Z AUTO 07006KT 6SM 19/12 A3024 RMK SLP245 T01870122 54000 IEM_DS3505
ZGOW,2001-12-16 04:00,ZGOW 160400Z AUTO 05008KT 6SM 20/13 A3021 RMK T02000130 IEM_DS3505
ZGOW,2001-12-16 05:00,ZGOW 160500Z AUTO 07010KT 6SM 20/13 A3018 RMK T02000130 IEM_DS3505
ZGOW,2001-12-16 06:00,ZGOW 160600Z AUTO 07004KT 7SM 21/14 A3015 RMK 60003 SLP206 T02060135 57039 IEM_DS3505
ZGOW,2001-12-16 07:00,ZGOW 160700Z AUTO 08010KT 6SM 21/14 A3015 RMK T02100140 IEM_DS3505
ZGOW,2001-12-16 08:00,ZGOW 160800Z AUTO 12004KT 6SM 20/14 A3012 RMK T02000140 IEM_DS3505
ZGOW,2001-12-16 09:00,ZGOW 160900Z AUTO 07004KT 7SM 20/15 A3015 RMK SLP207 T02010146 52001 IEM_DS3505
ZGOW,2001-12-16 10:00,ZGOW 161000Z AUTO 14002KT 6SM 18/ A3015 RMK IEM_DS3505
ZGOW,2001-12-16 11:00,ZGOW 161100Z AUTO 13002KT 6SM 18/16 A3018 RMK T01800160 IEM_DS3505
ZGOW,2001-12-16 12:00,ZGOW 161200Z AUTO 04002KT 7SM 19/16 A3018 RMK SLP221 T01870158 52014 IEM_DS3505
ZGOW,2001-12-16 13:00,ZGOW 161300Z AUTO 05004KT 6SM 18/16 A3018 RMK T01800160 IEM_DS3505
ZGOW,2001-12-16 14:00,ZGOW 161400Z AUTO 03004KT 7SM 18/16 A3018 RMK T01800160 IEM_DS3505
ZGOW,2001-12-16 15:00,ZGOW 161500Z AUTO 04002KT 6SM 18/16 A3018 RMK SLP216 T01840157 57005 IEM_DS3505
ZGOW,2001-12-16 16:00,ZGOW 161600Z AUTO 33002KT 2 1/2SM 18/15 A3018 RMK T01800150 IEM_DS3505
ZGOW,2001-12-16 17:00,ZGOW 161700Z AUTO 2 1/2SM 18/15 A3015 RMK T01800150 IEM_DS3505
ZGOW,2001-12-16 18:00,ZGOW 161800Z AUTO 00000KT 6SM 18/16 A3015 RMK SLP209 T01830161 57007 IEM_DS3505
ZGOW,2001-12-16 19:00,ZGOW 161900Z AUTO 2 1/2SM 18/15 A3015 RMK T01800150 IEM_DS3505
ZGOW,2001-12-16 20:00,ZGOW 162000Z AUTO 01002KT 1 1/2SM 18/15 A3015 RMK T01800150 IEM_DS3505
ZGOW,2001-12-16 21:00,ZGOW 162100Z AUTO 00000KT 5SM 18/16 A3015 RMK 70003 SLP208 T01820155 57001 IEM_DS3505
ZGOW,2001-12-16 22:00,ZGOW 162200Z AUTO 03002KT 2 1/2SM 18/16 A3015 RMK T01800160 IEM_DS3505
ZGOW,2001-12-16 23:00,ZGOW 162300Z AUTO 04004KT 1 1/2SM 18/16 A3018 RMK T01800160 IEM_DS3505
ZGOW,2001-12-17 00:00,ZGOW 170000Z AUTO 02002KT 2 1/2SM 18/16 A3018 RMK 70003 SLP222 T01840157 52014 IEM_DS3505
ZGOW,2001-12-17 01:00,ZGOW 170100Z AUTO 04004KT 2SM 19/16 A3021 RMK T01900160 IEM_DS3505
ZGOW,2001-12-17 02:00,ZGOW 170200Z AUTO 02004KT 2 1/2SM 22/16 A3021 RMK T02200160 IEM_DS3505
ZGOW,2001-12-17 03:00,ZGOW 170300Z AUTO 07006KT 3SM 22/15 A3018 RMK SLP217 T02210154 57005 IEM_DS3505
ZGOW,2001-12-17 04:00,ZGOW 170400Z AUTO 04004KT 24/16 A3015 RMK T02400160 IEM_DS3505
ZGOW,2001-12-17 05:00,ZGOW 170500Z AUTO 06004KT 7SM 23/16 A3012 RMK T02300160 IEM_DS3505
ZGOW,2001-12-17 06:00,ZGOW 170600Z AUTO 07004KT 5SM 24/17 A3009 RMK SLP193 T02380167 57024 IEM_DS3505
ZGOW,2001-12-17 07:00,ZGOW 170700Z AUTO 10004KT 2 1/2SM 21/16 A3009 RMK T02100160 IEM_DS3505
ZGOW,2001-12-17 08:00,ZGOW 170800Z AUTO 13004KT 2 1/2SM 21/17 A3009 RMK T02100170 IEM_DS3505
ZGOW,2001-12-17 09:00,ZGOW 170900Z AUTO 11004KT 5SM 21/17 A3009 RMK SLP195 T02100166 52002 IEM_DS3505
ZGOW,2001-12-17 10:00,ZGOW 171000Z AUTO 07006KT 3SM 20/16 A3012 RMK T02000160 IEM_DS3505
ZGOW,2001-12-17 11:00,ZGOW 171100Z AUTO 07008KT 4SM 19/17 A3015 RMK T01900170 IEM_DS3505
ZGOW,2001-12-17 12:00,ZGOW 171200Z AUTO 07004KT 4SM 19/17 RMK 60004 SLP210 T01910170 52015 IEM_DS3505
ZGOW,2001-12-17 13:00,ZGOW 171300Z AUTO 08008KT 7SM 18/17 A3015 RMK T01800170 IEM_DS3505
ZGOW,2001-12-17 14:00,ZGOW 171400Z AUTO 07010KT 7SM 18/17 A3018 RMK T01800170 IEM_DS3505
ZGOW,2001-12-17 15:00,ZGOW 171500Z AUTO 11004KT 5SM 19/17 A3018 RMK SLP218 T01860168 52008 IEM_DS3505
ZGOW,2001-12-17 16:00,ZGOW 171600Z AUTO 07010KT 2 1/2SM 18/17 A3018 RMK T01800170 IEM_DS3505
ZGOW,2001-12-17 17:00,ZGOW 171700Z AUTO 06010KT 1 1/2SM 18/17 A3018 RMK T01800170 IEM_DS3505
ZGOW,2001-12-17 18:00,ZGOW 171800Z AUTO 07008KT 5SM 18/17 A3018 RMK 60008 SLP214 T01760168 57004 IEM_DS3505
ZGOW,2001-12-17 19:00,ZGOW 171900Z AUTO 07014KT 2SM 17/16 A3015 RMK T01700160 IEM_DS3505
ZGOW,2001-12-17 20:00,ZGOW 172000Z AUTO 07012KT 3SM 17/16 A3018 RMK T01700160 IEM_DS3505
ZGOW,2001-12-17 21:00,ZGOW 172100Z AUTO 07010KT 6SM 17/16 A3018 RMK 70018 SLP219 T01710161 52005 IEM_DS3505
ZGOW,2001-12-17 22:00,ZGOW 172200Z AUTO 07010KT 7SM RMK IEM_DS3505
ZGOW,2001-12-17 23:00,ZGOW 172300Z AUTO 06012KT 7SM 17/16 A3021 RMK T01700160 IEM_DS3505
ZGOW,2001-12-18 00:00,ZGOW 180000Z AUTO 02006KT 4SM 16/15 A3024 RMK 60012 SLP236 T01550148 52017 IEM_DS3505
ZGOW,2001-12-18 01:00,ZGOW 180100Z AUTO 33010KT 2 1/2SM 14/13 A3027 RMK T01400130 IEM_DS3505
ZGOW,2001-12-18 02:00,ZGOW 180200Z AUTO 32006KT 2 1/2SM 15/14 A3027 RMK T01500140 IEM_DS3505
ZGOW,2001-12-18 03:00,ZGOW 180300Z AUTO 04004KT 7SM 15/14 A3027 RMK SLP248 T01490138 52012 IEM_DS3505
ZGOW,2001-12-18 04:00,ZGOW 180400Z AUTO 34008KT 3SM 15/13 A3024 RMK T01500130 IEM_DS3505
ZGOW,2001-12-18 05:00,ZGOW 180500Z AUTO 33006KT 3SM 15/13 A3021 RMK T01500130 IEM_DS3505
ZGOW,2001-12-18 06:00,ZGOW 180600Z AUTO 11002KT 9SM 15/13 A3021 RMK 60012 SLP225 T01480134 57023 IEM_DS3505
ZGOW,2001-12-18 07:00,ZGOW 180700Z AUTO 32006KT 2 1/2SM 14/13 A3018 RMK T01400130 IEM_DS3505
ZGOW,2001-12-18 08:00,ZGOW 180800Z AUTO 32008KT 2SM 14/13 A3021 RMK T01400130 IEM_DS3505
ZGOW,2001-12-18 09:00,ZGOW 180900Z AUTO 04004KT 4SM 14/13 A3021 RMK SLP234 T01380131 52009 IEM_DS3505
ZGOW,2001-12-18 10:00,ZGOW 181000Z AUTO 33006KT 1 1/2SM 14/13 A3024 RMK T01400130 IEM_DS3505
ZGOW,2001-12-18 11:00,ZGOW 181100Z AUTO 33006KT 2SM 14/13 RMK T01400130 IEM_DS3505
ZGOW,2001-12-18 12:00,ZGOW 181200Z AUTO 04004KT 6SM 14/13 A3027 RMK 60002 SLP247 T01400129 52013 IEM_DS3505
ZGOW,2001-12-18 13:00,ZGOW 181300Z AUTO 33004KT 5SM 14/13 A3024 RMK T01400130 IEM_DS3505
ZGOW,2001-12-18 14:00,ZGOW 181400Z AUTO 30004KT 5SM 14/13 A3027 RMK T01400130 IEM_DS3505
ZGOW,2001-12-18 15:00,ZGOW 181500Z AUTO 04004KT 9SM 14/13 A3027 RMK SLP251 T01440126 52004 IEM_DS3505
ZGOW,2001-12-18 16:00,ZGOW 181600Z AUTO 32006KT 4SM 14/12 A3027 RMK T01400120 IEM_DS3505
ZGOW,2001-12-18 17:00,ZGOW 181700Z AUTO 33006KT 6SM 14/12 A3027 RMK T01400120 IEM_DS3505
ZGOW,2001-12-18 18:00,ZGOW 181800Z AUTO 02004KT 10SM 14/12 A3024 RMK 60003 SLP245 T01410123 57006 IEM_DS3505
ZGOW,2001-12-18 19:00,ZGOW 181900Z AUTO 33008KT 2 1/2SM 13/12 A3024 RMK T01300120 IEM_DS3505
ZGOW,2001-12-18 20:00,ZGOW 182000Z AUTO 32008KT 3SM 14/12 A3027 RMK T01400120 IEM_DS3505
ZGOW,2001-12-18 21:00,ZGOW 182100Z AUTO 34004KT 9SM 14/12 A3027 RMK 70020 SLP248 T01390120 52003 IEM_DS3505
ZGOW,2001-12-18 22:00,ZGOW 182200Z AUTO 34004KT 7SM 14/12 A3027 RMK T01400120 IEM_DS3505
ZGOW,2001-12-18 23:00,ZGOW 182300Z AUTO 34004KT 7SM 14/12 A3030 RMK T01400120 IEM_DS3505
ZGOW,2001-12-19 00:00,ZGOW 190000Z AUTO 34006KT 11SM 14/12 A3030 RMK 60000 SLP262 T01380115 52014 IEM_DS3505
ZGOW,2001-12-19 01:00,ZGOW 190100Z AUTO 34006KT 6SM 15/12 A3030 RMK T01500120 IEM_DS3505
ZGOW,2001-12-19 02:00,ZGOW 190200Z AUTO 36004KT 6SM 17/13 A3033 RMK T01700130 IEM_DS3505
ZGOW,2001-12-19 03:00,ZGOW 190300Z AUTO 34004KT 12SM 19/14 A3030 RMK SLP262 T01910135 54000 IEM_DS3505
ZGOW,2001-12-19 04:00,ZGOW 190400Z AUTO 02002KT 7SM 19/14 A3027 RMK T01900140 IEM_DS3505
ZGOW,2001-12-19 05:00,ZGOW 190500Z AUTO 34004KT 7SM 20/14 A3027 RMK T02000140 IEM_DS3505
ZGOW,2001-12-19 06:00,ZGOW 190600Z AUTO 04006KT 11SM 21/14 A3021 RMK SLP232 T02080145 57030 IEM_DS3505
ZGOW,2001-12-19 07:00,ZGOW 190700Z AUTO 09010KT 7SM 20/15 A3021 RMK T02000150 IEM_DS3505
ZGOW,2001-12-19 08:00,ZGOW 190800Z AUTO 08012KT 6SM 20/14 A3021 RMK T02000140 IEM_DS3505
ZGOW,2001-12-19 09:00,ZGOW 190900Z AUTO 07008KT 11SM 19/14 A3024 RMK SLP232 T01880143 54000 IEM_DS3505
ZGOW,2001-12-19 10:00,ZGOW 191000Z AUTO 08010KT 7SM 18/14 A3024 RMK T01800140 IEM_DS3505
ZGOW,2001-12-19 11:00,ZGOW 191100Z AUTO 08008KT 7SM 17/14 A3024 RMK T01700140 IEM_DS3505
ZGOW,2001-12-19 12:00,ZGOW 191200Z AUTO 07008KT 9SM 18/14 A3027 RMK SLP247 T01760141 52015 IEM_DS3505
ZGOW,2001-12-19 13:00,ZGOW 191300Z AUTO 08014KT 6SM 17/14 A3027 RMK T01700140 IEM_DS3505
ZGOW,2001-12-19 14:00,ZGOW 191400Z AUTO 08014KT 7SM 17/14 A3027 RMK T01700140 IEM_DS3505
ZGOW,2001-12-19 15:00,ZGOW 191500Z AUTO 09010KT 9SM 17/13 A3027 RMK SLP255 T01700134 52008 IEM_DS3505
ZGOW,2001-12-19 16:00,ZGOW 191600Z AUTO 07012KT 6SM 17/13 A3027 RMK T01700130 IEM_DS3505
ZGOW,2001-12-19 17:00,ZGOW 191700Z AUTO 07012KT 6SM 17/13 A3027 RMK T01700130 IEM_DS3505
ZGOW,2001-12-19 18:00,ZGOW 191800Z AUTO 07006KT 9SM 17/13 A3027 RMK SLP251 T01690128 57004 IEM_DS3505
ZGOW,2001-12-19 19:00,ZGOW 191900Z AUTO 07010KT 6SM 16/13 A3027 RMK T01600130 IEM_DS3505
ZGOW,2001-12-19 20:00,ZGOW 192000Z AUTO 07006KT 6SM 15/12 A3024 RMK T01500120 IEM_DS3505
ZGOW,2001-12-19 21:00,ZGOW 192100Z AUTO 07004KT 9SM 16/13 A3024 RMK 70001 SLP245 T01550130 57006 IEM_DS3505
ZGOW,2001-12-19 22:00,ZGOW 192200Z AUTO 4SM 14/12 A3027 RMK T01400120 IEM_DS3505
ZGOW,2001-12-19 23:00,ZGOW 192300Z AUTO 32002KT 4SM 14/13 A3027 RMK T01400130 IEM_DS3505
ZGOW,2001-12-20 00:00,ZGOW 200000Z AUTO 07002KT 5SM 16/14 A3030 RMK SLP258 T01550139 52013 IEM_DS3505
ZGOW,2001-12-20 01:00,ZGOW 200100Z AUTO 29002KT 4SM 17/14 A3030 RMK T01700140 IEM_DS3505
ZGOW,2001-12-20 02:00,ZGOW 200200Z AUTO 28002KT 4SM 18/14 A3030 RMK T01800140 IEM_DS3505
ZGOW,2001-12-20 03:00,ZGOW 200300Z AUTO 07004KT 7SM 20/14 A3030 RMK SLP261 T01950139 52003 IEM_DS3505
ZGOW,2001-12-20 04:00,ZGOW 200400Z AUTO 08012KT 7SM 21/14 A3027 RMK T02100140 IEM_DS3505
ZGOW,2001-12-20 05:00,ZGOW 200500Z AUTO 06010KT 7SM 21/14 A3024 RMK T02100140 IEM_DS3505
ZGOW,2001-12-20 06:00,ZGOW 200600Z AUTO 07004KT 9SM 21/14 A3021 RMK SLP228 T02140144 57033 IEM_DS3505
ZGOW,2001-12-20 07:00,ZGOW 200700Z AUTO 07006KT 6SM 22/14 A3018 RMK T02200140 IEM_DS3505
ZGOW,2001-12-20 08:00,ZGOW 200800Z AUTO 13006KT 6SM 20/15 A3018 RMK T02000150 IEM_DS3505
ZGOW,2001-12-20 09:00,ZGOW 200900Z AUTO 11004KT 9SM 20/14 A3018 RMK SLP224 T01950145 57004 IEM_DS3505
ZGOW,2001-12-20 10:00,ZGOW 201000Z AUTO 09004KT 6SM 18/15 A3021 RMK T01800150 IEM_DS3505
ZGOW,2001-12-20 11:00,ZGOW 201100Z AUTO 08008KT 6SM 18/14 A3021 RMK T01800140 IEM_DS3505
ZGOW,2001-12-20 12:00,ZGOW 201200Z AUTO 07004KT 8SM 18/15 A3024 RMK SLP239 T01830147 52015 IEM_DS3505
ZGOW,2001-12-20 13:00,ZGOW 201300Z AUTO 06010KT 6SM 18/14 A3024 RMK T01800140 IEM_DS3505
ZGOW,2001-12-20 14:00,ZGOW 201400Z AUTO 05006KT 7SM 18/15 A3027 RMK T01800150 IEM_DS3505
ZGOW,2001-12-20 15:00,ZGOW 201500Z AUTO 27002KT 7SM 18/14 A3027 RMK SLP256 T01790139 52017 IEM_DS3505
ZGOW,2001-12-20 16:00,ZGOW 201600Z AUTO 32014KT 6SM 17/12 A3027 RMK T01700120 IEM_DS3505
ZGOW,2001-12-20 17:00,ZGOW 201700Z AUTO 33014KT 6SM 15/11 A3027 RMK T01500110 IEM_DS3505
ZGOW,2001-12-20 18:00,ZGOW 201800Z AUTO 29008KT 9SM 14/09 A3027 RMK SLP257 T01450094 52001 IEM_DS3505
ZGOW,2001-12-20 19:00,ZGOW 201900Z AUTO 33014KT 6SM 14/09 A3027 RMK T01400090 IEM_DS3505
ZGOW,2001-12-20 20:00,ZGOW 202000Z AUTO 33012KT 6SM 13/08 A3027 RMK T01300080 IEM_DS3505
ZGOW,2001-12-20 21:00,ZGOW 202100Z AUTO 34008KT 11SM 13/06 A3027 RMK SLP252 T01320065 57005 IEM_DS3505
ZGOW,2001-12-20 22:00,ZGOW 202200Z AUTO 33010KT 6SM 13/07 A3030 RMK T01300070 IEM_DS3505
ZGOW,2001-12-20 23:00,ZGOW 202300Z AUTO 32012KT 6SM 12/07 A3030 RMK T01200070 IEM_DS3505
ZGOW,2001-12-21 00:00,ZGOW 210000Z AUTO 02008G23KT 16SM 12/05 A3033 RMK 60000 SLP269 T01210049 52017 IEM_DS3505
ZGOW,2001-12-21 01:00,ZGOW 210100Z AUTO 33012G21KT 6SM 12/06 A3036 RMK T01200060 IEM_DS3505
ZGOW,2001-12-21 02:00,ZGOW 210200Z AUTO 33014KT 6SM 13/05 A3036 RMK T01300050 IEM_DS3505
ZGOW,2001-12-21 03:00,ZGOW 210300Z AUTO 36010KT 19SM 15/04 A3036 RMK SLP276 T01460041 52007 IEM_DS3505
ZGOW,2001-12-21 04:00,ZGOW 210400Z AUTO 32016KT 6SM 15/05 A3030 RMK T01500050 IEM_DS3505
ZGOW,2001-12-21 05:00,ZGOW 210500Z AUTO 32014G23KT 6SM 17/05 A3030 RMK T01700050 IEM_DS3505
ZGOW,2001-12-21 06:00,ZGOW 210600Z AUTO 34010G25KT 19SM 17/04 A3027 RMK SLP251 T01680039 57025 IEM_DS3505
ZGOW,2001-12-21 07:00,ZGOW 210700Z AUTO 33016G25KT 6SM 16/04 A3024 RMK T01600040 IEM_DS3505
ZGOW,2001-12-21 08:00,ZGOW 210800Z AUTO 32016KT 6SM 14/03 A3027 RMK T01400030 IEM_DS3505
ZGOW,2001-12-21 09:00,ZGOW 210900Z AUTO 34008KT 17SM 13/03 A3027 RMK SLP254 T01300027 52003 IEM_DS3505
ZGOW,2001-12-21 10:00,ZGOW 211000Z AUTO 34008KT 6SM 12/02 A3030 RMK T01200020 IEM_DS3505
ZGOW,2001-12-21 11:00,ZGOW 211100Z AUTO 34010KT 6SM 11/03 A3030 RMK T01100030 IEM_DS3505
ZGOW,2001-12-21 12:00,ZGOW 211200Z AUTO 02008KT 12SM 11/01 A3033 RMK SLP271 T01060014 52017 IEM_DS3505
ZGOW,2001-12-21 13:00,ZGOW 211300Z AUTO 34010KT 6SM 10/02 A3036 RMK T01000020 IEM_DS3505
ZGOW,2001-12-21 14:00,ZGOW 211400Z AUTO 34010KT 6SM 10/01 A3036 RMK T01000010 IEM_DS3505
ZGOW,2001-12-21 15:00,ZGOW 211500Z AUTO 36008KT 11SM 09/M01 A3036 RMK SLP285 T00871006 52014 IEM_DS3505
ZGOW,2001-12-21 16:00,ZGOW 211600Z AUTO 35008KT 6SM 08/00 A3036 RMK T00800000 IEM_DS3505
ZGOW,2001-12-21 17:00,ZGOW 211700Z AUTO 34008KT 6SM 08/M01 A3036 RMK T00801010 IEM_DS3505
ZGOW,2001-12-21 18:00,ZGOW 211800Z AUTO 07008KT 11SM 07/M02 A3036 RMK SLP286 T00721021 52001 IEM_DS3505
ZGOW,2001-12-21 21:00,ZGOW 212100Z AUTO 07008KT 10SM 06/M02 RMK 70000 SLP282 T00581023 57004 IEM_DS3505
ZGOW,2001-12-21 22:00,ZGOW 212200Z AUTO 33014KT 6SM 06/M02 A3036 RMK T00601020 IEM_DS3505
ZGOW,2001-12-21 23:00,ZGOW 212300Z AUTO 33008KT 6SM 05/M02 A3039 RMK T00501020 IEM_DS3505
ZGOW,2001-12-22 00:00,ZGOW 220000Z AUTO 04006KT 9SM 06/M02 A3039 RMK SLP296 T00571021 52014 IEM_DS3505
ZGOW,2001-12-22 01:00,ZGOW 220100Z AUTO 33010KT 6SM 08/M01 A3042 RMK T00801010 IEM_DS3505
ZGOW,2001-12-22 02:00,ZGOW 220200Z AUTO 34008KT 6SM 10/M01 A3042 RMK T01001010 IEM_DS3505
ZGOW,2001-12-22 03:00,ZGOW 220300Z AUTO 34004KT 9SM 12/M00 A3039 RMK SLP290 T01171005 57006 IEM_DS3505
ZGOW,2001-12-22 04:00,ZGOW 220400Z AUTO 02006KT 6SM 13/M01 A3033 RMK T01301010 IEM_DS3505
ZGOW,2001-12-22 05:00,ZGOW 220500Z AUTO 32004KT 6SM 14/M01 A3030 RMK T01401010 IEM_DS3505
ZGOW,2001-12-22 06:00,ZGOW 220600Z AUTO 04006KT 11SM 14/M01 A3027 RMK SLP248 T01441007 57042 IEM_DS3505
ZGOW,2001-12-22 07:00,ZGOW 220700Z AUTO 11004KT 6SM 14/M01 A3024 RMK T01401010 IEM_DS3505
ZGOW,2001-12-22 08:00,ZGOW 220800Z AUTO 10004KT 6SM 14/M01 A3024 RMK T01401010 IEM_DS3505
ZGOW,2001-12-22 09:00,ZGOW 220900Z AUTO 11004KT 11SM 14/M00 A3027 RMK SLP244 T01351004 57004 IEM_DS3505
ZGOW,2001-12-22 10:00,ZGOW 221000Z AUTO 21002KT 6SM 12/02 A3030 RMK T01200020 IEM_DS3505
ZGOW,2001-12-22 11:00,ZGOW 221100Z AUTO 6SM 10/04 A3030 RMK T01000040 IEM_DS3505
ZGOW,2001-12-22 12:00,ZGOW 221200Z AUTO 00000KT 9SM 10/04 A3033 RMK SLP267 T01020041 52023 IEM_DS3505
ZGOW,2001-12-22 13:00,ZGOW 221300Z AUTO 02002KT 10/04 A3033 RMK T01000040 IEM_DS3505
ZGOW,2001-12-22 14:00,ZGOW 221400Z AUTO 02004KT 4SM 09/04 A3030 RMK T00900040 IEM_DS3505
ZGOW,2001-12-22 15:00,ZGOW 221500Z AUTO 04002KT 7SM 07/05 A3033 RMK SLP269 T00720049 52002 IEM_DS3505
ZGOW,2001-12-22 17:00,ZGOW 221700Z AUTO 36002KT 6SM 08/03 A3030 RMK T00800030 IEM_DS3505
ZGOW,2001-12-22 18:00,ZGOW 221800Z AUTO 04004KT 7SM 08/03 A3030 RMK SLP261 T00790026 57008 IEM_DS3505
ZGOW,2001-12-22 21:00,ZGOW 222100Z AUTO 07004KT 7SM 07/00 A3027 RMK SLP256 T00730004 57005 IEM_DS3505
ZGOW,2001-12-22 23:00,ZGOW 222300Z AUTO 35002KT 6SM 06/00 A3030 RMK T00600000 IEM_DS3505
ZGOW,2001-12-23 00:00,ZGOW 230000Z AUTO 04004KT 9SM 08/M00 A3033 RMK SLP275 T00771004 52019 IEM_DS3505
ZGOW,2001-12-23 01:00,ZGOW 230100Z AUTO 34004KT 6SM 09/00 A3033 RMK T00900000 IEM_DS3505
ZGOW,2001-12-23 02:00,ZGOW 230200Z AUTO 34004KT 6SM 12/00 A3033 RMK T01200000 IEM_DS3505
ZGOW,2001-12-23 03:00,ZGOW 230300Z AUTO 04006KT 14SM 13/M01 A3033 RMK SLP268 T01301013 57007 IEM_DS3505
ZGOW,2001-12-23 04:00,ZGOW 230400Z AUTO 04006KT 6SM 15/M02 A3027 RMK T01501020 IEM_DS3505
ZGOW,2001-12-23 05:00,ZGOW 230500Z AUTO 05002KT 6SM 15/M02 A3024 RMK T01501020 IEM_DS3505
ZGOW,2001-12-23 06:00,ZGOW 230600Z AUTO 07002KT 14SM 17/M01 A3021 RMK SLP232 T01711010 57036 IEM_DS3505
ZGOW,2001-12-23 07:00,ZGOW 230700Z AUTO 13006KT 6SM 16/00 A3021 RMK T01600000 IEM_DS3505
ZGOW,2001-12-23 08:00,ZGOW 230800Z AUTO 14008KT 6SM 15/02 A3024 RMK T01500020 IEM_DS3505
ZGOW,2001-12-23 09:00,ZGOW 230900Z AUTO 16004KT 12SM 14/03 A3024 RMK SLP239 T01440033 52007 IEM_DS3505
ZGOW,2001-12-23 10:00,ZGOW 231000Z AUTO 6SM 13/03 A3027 RMK T01300030 IEM_DS3505
ZGOW,2001-12-23 11:00,ZGOW 231100Z AUTO 05004KT 6SM 11/05 A3027 RMK T01100050 IEM_DS3505
ZGOW,2001-12-23 12:00,ZGOW 231200Z AUTO 04002KT 9SM 12/05 A3030 RMK SLP256 T01180053 52017 IEM_DS3505
ZGOW,2001-12-23 14:00,ZGOW 231400Z AUTO 02004KT 6SM 09/04 A3030 RMK T00900040 IEM_DS3505
ZGOW,2001-12-23 15:00,ZGOW 231500Z AUTO 07004KT 6SM 10/05 A3033 RMK SLP265 T01040053 52009 IEM_DS3505
ZGOW,2001-12-23 16:00,ZGOW 231600Z AUTO 08002KT 6SM 09/04 A3030 RMK T00900040 IEM_DS3505
ZGOW,2001-12-23 17:00,ZGOW 231700Z AUTO 36002KT 6SM 09/05 A3030 RMK T00900050 IEM_DS3505
ZGOW,2001-12-23 18:00,ZGOW 231800Z AUTO 04004KT 6SM 09/04 A3030 RMK SLP256 T00860045 57009 IEM_DS3505
ZGOW,2001-12-23 19:00,ZGOW 231900Z AUTO 29002KT 6SM 07/05 A3027 RMK T00700050 IEM_DS3505
ZGOW,2001-12-23 20:00,ZGOW 232000Z AUTO 27004KT 6SM 06/04 A3027 RMK T00600040 IEM_DS3505
ZGOW,2001-12-23 21:00,ZGOW 232100Z AUTO 04004KT 6SM 07/02 A3027 RMK SLP253 T00710019 57003 IEM_DS3505
ZGOW,2001-12-23 22:00,ZGOW 232200Z AUTO 32006KT 6SM 06/03 A3027 RMK T00600030 IEM_DS3505
ZGOW,2001-12-23 23:00,ZGOW 232300Z AUTO 32006KT 6SM 06/03 A3030 RMK T00600030 IEM_DS3505
ZGOW,2001-12-24 00:00,ZGOW 240000Z AUTO 04006KT 10SM 08/01 A3033 RMK SLP274 T00780010 52021 IEM_DS3505
ZGOW,2001-12-24 01:00,ZGOW 240100Z AUTO 33004KT 6SM 10/04 A3036 RMK T01000040 IEM_DS3505
ZGOW,2001-12-24 02:00,ZGOW 240200Z AUTO 01006KT 6SM 13/02 A3033 RMK T01300020 IEM_DS3505
ZGOW,2001-12-24 03:00,ZGOW 240300Z AUTO 07004KT 10SM 15/02 A3030 RMK SLP265 T01470019 57009 IEM_DS3505
ZGOW,2001-12-24 04:00,ZGOW 240400Z AUTO 06006KT 6SM 17/M01 A3027 RMK T01701010 IEM_DS3505
ZGOW,2001-12-24 05:00,ZGOW 240500Z AUTO 08008KT 6SM 18/00 A3027 RMK T01800000 IEM_DS3505
ZGOW,2001-12-24 06:00,ZGOW 240600Z AUTO 07006KT 10SM 18/01 A3021 RMK SLP232 T01850009 57033 IEM_DS3505
ZGOW,2001-12-24 07:00,ZGOW 240700Z AUTO 09008KT 6SM 18/04 A3021 RMK T01800040 IEM_DS3505
ZGOW,2001-12-24 08:00,ZGOW 240800Z AUTO 12006KT 6SM 18/02 A3021 RMK T01800020 IEM_DS3505
ZGOW,2001-12-24 09:00,ZGOW 240900Z AUTO 18004KT 10SM 17/04 A3024 RMK SLP235 T01700042 52003 IEM_DS3505
ZGOW,2001-12-24 10:00,ZGOW 241000Z AUTO 11004KT 6SM 14/08 A3024 RMK T01400080 IEM_DS3505
ZGOW,2001-12-24 11:00,ZGOW 241100Z AUTO 04006KT 6SM 11/07 A3027 RMK T01100070 IEM_DS3505
ZGOW,2001-12-24 12:00,ZGOW 241200Z AUTO 07006KT 8SM 14/08 A3027 RMK SLP253 T01390083 52018 IEM_DS3505
ZGOW,2001-12-24 13:00,ZGOW 241300Z AUTO 07008KT 6SM 13/09 A3030 RMK T01300090 IEM_DS3505
ZGOW,2001-12-24 14:00,ZGOW 241400Z AUTO 06008KT 6SM 12/08 A3030 RMK T01200080 IEM_DS3505
ZGOW,2001-12-24 15:00,ZGOW 241500Z AUTO 04004KT 9SM 11/09 A3030 RMK SLP266 T01060086 52013 IEM_DS3505
ZGOW,2001-12-24 16:00,ZGOW 241600Z AUTO 07004KT 6SM 11/08 A3030 RMK T01100080 IEM_DS3505
ZGOW,2001-12-24 17:00,ZGOW 241700Z AUTO 05002KT 6SM 09/07 A3030 RMK T00900070 IEM_DS3505
ZGOW,2001-12-24 18:00,ZGOW 241800Z AUTO 04006KT 7SM 10/07 A3030 RMK SLP260 T00970071 57006 IEM_DS3505
ZGOW,2001-12-24 19:00,ZGOW 241900Z AUTO 32006KT 6SM 09/07 A3030 RMK T00900070 IEM_DS3505
ZGOW,2001-12-24 20:00,ZGOW 242000Z AUTO 32004KT 6SM 08/06 A3030 RMK T00800060 IEM_DS3505
ZGOW,2001-12-24 21:00,ZGOW 242100Z AUTO 04004KT 7SM 09/06 A3033 RMK SLP269 T00880055 52009 IEM_DS3505
ZGOW,2001-12-24 22:00,ZGOW 242200Z AUTO 32002KT 6SM 07/05 A3033 RMK T00700050 IEM_DS3505
ZGOW,2001-12-24 23:00,ZGOW 242300Z AUTO 33002KT 2 1/2SM 07/05 A3036 RMK T00700050 IEM_DS3505
ZGOW,2001-12-25 00:00,ZGOW 250000Z AUTO 04004KT 6SM 09/05 A3039 RMK SLP296 T00930053 52027 IEM_DS3505
ZGOW,2001-12-25 01:00,ZGOW 250100Z AUTO 32004KT 3SM 11/06 A3042 RMK T01100060 IEM_DS3505
ZGOW,2001-12-25 02:00,ZGOW 250200Z AUTO 35004KT 9SM 14/06 A3042 RMK T01400060 IEM_DS3505
ZGOW,2001-12-25 03:00,ZGOW 250300Z AUTO 07006KT 9SM 16/06 A3042 RMK SLP298 T01590056 52002 IEM_DS3505
ZGOW,2001-12-25 04:00,ZGOW 250400Z AUTO 07012KT 6SM 18/05 A3039 RMK T01800050 IEM_DS3505
ZGOW,2001-12-25 05:00,ZGOW 250500Z AUTO 09012KT 6SM 18/05 A3036 RMK T01800050 IEM_DS3505
ZGOW,2001-12-25 06:00,ZGOW 250600Z AUTO 07006KT 11SM 18/04 A3033 RMK SLP267 T01790035 57031 IEM_DS3505
ZGOW,2001-12-25 07:00,ZGOW 250700Z AUTO 09012KT 6SM 18/06 A3033 RMK T01800060 IEM_DS3505
ZGOW,2001-12-25 08:00,ZGOW 250800Z AUTO 08014KT 6SM 16/07 A3033 RMK T01600070 IEM_DS3505
ZGOW,2001-12-25 09:00,ZGOW 250900Z AUTO 07008KT 10SM 16/08 A3033 RMK SLP270 T01600076 52003 IEM_DS3505
ZGOW,2001-12-25 10:00,ZGOW 251000Z AUTO 08014KT 6SM 14/09 A3036 RMK T01400090 IEM_DS3505
ZGOW,2001-12-25 12:00,ZGOW 251200Z AUTO 07008KT 8SM 14/09 A3039 RMK SLP288 T01390094 52018 IEM_DS3505
ZGOW,2001-12-25 13:00,ZGOW 251300Z AUTO 07016G25KT 6SM 13/09 A3039 RMK T01300090 IEM_DS3505
ZGOW,2001-12-25 14:00,ZGOW 251400Z AUTO 07017G29KT 6SM 13/09 A3039 RMK T01300090 IEM_DS3505
ZGOW,2001-12-25 15:00,ZGOW 251500Z AUTO 07010KT 7SM 13/08 A3039 RMK SLP296 T01260077 52008 IEM_DS3505
ZGOW,2001-12-25 17:00,ZGOW 251700Z AUTO 07012KT 6SM 11/06 A3042 RMK T01100060 IEM_DS3505
ZGOW,2001-12-25 21:00,ZGOW 252100Z AUTO 07006KT 9SM 10/04 A3042 RMK SLP297 T01000038 52002 IEM_DS3505
ZGOW,2001-12-25 22:00,ZGOW 252200Z AUTO 06012KT 7SM 10/04 A3042 RMK T01000040 IEM_DS3505
ZGOW,2001-12-25 23:00,ZGOW 252300Z AUTO 05010KT 6SM 09/03 A3042 RMK T00900030 IEM_DS3505
ZGOW,2001-12-26 00:00,ZGOW 260000Z AUTO 07008KT 11SM 10/03 A3045 RMK SLP311 T01000032 52014 IEM_DS3505
ZGOW,2001-12-26 01:00,ZGOW 260100Z AUTO 06010KT 6SM 11/04 A3045 RMK T01100040 IEM_DS3505
ZGOW,2001-12-26 02:00,ZGOW 260200Z AUTO 07010KT 6SM 12/03 A3045 RMK T01200030 IEM_DS3505
ZGOW,2001-12-26 03:00,ZGOW 260300Z AUTO 07006KT 9SM 13/04 A3042 RMK SLP305 T01340035 57006 IEM_DS3505
ZGOW,2001-12-26 04:00,ZGOW 260400Z AUTO 07010KT 6SM 15/03 A3039 RMK T01500030 IEM_DS3505
ZGOW,2001-12-26 05:00,ZGOW 260500Z AUTO 06008KT 6SM 15/03 A3036 RMK T01500030 IEM_DS3505
ZGOW,2001-12-26 06:00,ZGOW 260600Z AUTO 07006KT 11SM 16/05 A3033 RMK SLP268 T01560050 57037 IEM_DS3505
ZGOW,2001-12-26 07:00,ZGOW 260700Z AUTO 09008KT 6SM 16/05 A3030 RMK T01600050 IEM_DS3505
ZGOW,2001-12-26 08:00,ZGOW 260800Z AUTO 13006KT 6SM 16/04 A3030 RMK T01600040 IEM_DS3505
ZGOW,2001-12-26 09:00,ZGOW 260900Z AUTO 11006KT 11SM 14/07 A3033 RMK SLP265 T01450069 57003 IEM_DS3505
ZGOW,2001-12-26 10:00,ZGOW 261000Z AUTO 08002KT 4SM 12/07 A3033 RMK T01200070 IEM_DS3505
ZGOW,2001-12-26 11:00,ZGOW 261100Z AUTO 09006KT 6SM 13/08 A3036 RMK T01300080 IEM_DS3505
ZGOW,2001-12-26 12:00,ZGOW 261200Z AUTO 07004KT 8SM 13/08 A3036 RMK SLP282 T01320079 52017 IEM_DS3505
ZGOW,2001-12-26 13:00,ZGOW 261300Z AUTO 05004KT 4SM 10/08 A3036 RMK T01000080 IEM_DS3505
ZGOW,2001-12-26 14:00,ZGOW 261400Z AUTO 05006KT 5SM 10/08 A3036 RMK T01000080 IEM_DS3505
ZGOW,2001-12-26 15:00,ZGOW 261500Z AUTO 07006KT 7SM 12/09 A3039 RMK SLP287 T01240088 52005 IEM_DS3505
ZGOW,2001-12-26 16:00,ZGOW 261600Z AUTO 04004KT 2 1/2SM 10/08 A3039 RMK T01000080 IEM_DS3505
ZGOW,2001-12-26 17:00,ZGOW 261700Z AUTO 06008KT 3SM 11/09 A3036 RMK T01100090 IEM_DS3505
ZGOW,2001-12-26 18:00,ZGOW 261800Z AUTO 07006KT 7SM 12/08 A3036 RMK SLP282 T01200079 57005 IEM_DS3505
ZGOW,2001-12-26 19:00,ZGOW 261900Z AUTO 04002KT 3SM 10/07 A3036 RMK T01000070 IEM_DS3505
ZGOW,2001-12-26 20:00,ZGOW 262000Z AUTO 05004KT 3SM 08/06 A3036 RMK T00800060 IEM_DS3505
ZGOW,2001-12-26 21:00,ZGOW 262100Z AUTO 02002KT 7SM 09/07 A3036 RMK SLP278 T00940073 57004 IEM_DS3505
ZGOW,2001-12-26 23:00,ZGOW 262300Z AUTO 32006KT 2SM 08/07 A3039 RMK T00800070 IEM_DS3505
ZGOW,2001-12-27 00:00,ZGOW 270000Z AUTO 07002KT 7SM 10/07 A3039 RMK SLP296 T01000070 52018 IEM_DS3505
ZGOW,2001-12-27 01:00,ZGOW 270100Z AUTO 32008KT 2 1/2SM 11/07 A3042 RMK T01100070 IEM_DS3505
ZGOW,2001-12-27 02:00,ZGOW 270200Z AUTO 33006KT 6SM 14/07 A3042 RMK T01400070 IEM_DS3505
ZGOW,2001-12-27 03:00,ZGOW 270300Z AUTO 04004KT 6SM 16/07 RMK SLP291 T01620068 57005 IEM_DS3505
ZGOW,2001-12-27 04:00,ZGOW 270400Z AUTO 03006KT 6SM 17/06 A3036 RMK T01700060 IEM_DS3505
ZGOW,2001-12-27 06:00,ZGOW 270600Z AUTO 11004KT 10SM 19/06 RMK SLP259 T01880055 57032 IEM_DS3505
ZGOW,2001-12-27 07:00,ZGOW 270700Z AUTO 08006KT 6SM 18/06 A3027 RMK T01800060 IEM_DS3505
ZGOW,2001-12-27 08:00,ZGOW 270800Z AUTO 09008KT 6SM 18/07 A3027 RMK T01800070 IEM_DS3505
ZGOW,2001-12-27 09:00,ZGOW 270900Z AUTO 07004KT 9SM 17/06 A3030 RMK SLP257 T01720064 57002 IEM_DS3505
ZGOW,2001-12-27 10:00,ZGOW 271000Z AUTO 08002KT 15/07 A3030 RMK T01500070 IEM_DS3505
ZGOW,2001-12-27 11:00,ZGOW 271100Z AUTO 08006KT 4SM 13/09 A3033 RMK T01300090 IEM_DS3505
ZGOW,2001-12-27 12:00,ZGOW 271200Z AUTO 07006KT 9SM 15/09 A3033 RMK SLP269 T01470092 52012 IEM_DS3505
ZGOW,2001-12-27 13:00,ZGOW 271300Z AUTO 07006KT 4SM 13/10 A3033 RMK T01300100 IEM_DS3505
ZGOW,2001-12-27 14:00,ZGOW 271400Z AUTO 07004KT 4SM 11/10 A3033 RMK T01100100 IEM_DS3505
ZGOW,2001-12-27 15:00,ZGOW 271500Z AUTO 04004KT 7SM 13/11 A3036 RMK SLP278 T01310110 52009 IEM_DS3505
ZGOW,2001-12-27 16:00,ZGOW 271600Z AUTO 05008KT 2SM 11/10 A3036 RMK T01100100 IEM_DS3505
ZGOW,2001-12-27 17:00,ZGOW 271700Z AUTO 02004KT 2 1/2SM 11/10 A3036 RMK T01100100 IEM_DS3505
ZGOW,2001-12-27 18:00,ZGOW 271800Z AUTO 07004KT 6SM 12/10 A3036 RMK SLP276 T01150095 57002 IEM_DS3505
ZGOW,2001-12-27 19:00,ZGOW 271900Z AUTO 32006KT 1 1/2SM 10/09 A3033 RMK T01000090 IEM_DS3505
ZGOW,2001-12-27 20:00,ZGOW 272000Z AUTO 31004KT 2SM 09/07 A3033 RMK T00900070 IEM_DS3505
ZGOW,2001-12-27 21:00,ZGOW 272100Z AUTO 04006KT 6SM 10/06 A3033 RMK SLP274 T01000056 57002 IEM_DS3505
ZGOW,2001-12-27 22:00,ZGOW 272200Z AUTO 3SM 08/07 A3036 RMK T00800070 IEM_DS3505
ZGOW,2001-12-27 23:00,ZGOW 272300Z AUTO 31004KT 2 1/2SM 08/06 A3036 RMK T00800060 IEM_DS3505
ZGOW,2001-12-28 00:00,ZGOW 280000Z AUTO 36002KT 4SM 10/05 A3039 RMK SLP290 T00980051 52016 IEM_DS3505
ZGOW,2001-12-28 01:00,ZGOW 280100Z AUTO 33006KT 11/05 A3039 RMK T01100050 IEM_DS3505
ZGOW,2001-12-28 02:00,ZGOW 280200Z AUTO 32006KT 6SM 14/06 A3039 RMK T01400060 IEM_DS3505
ZGOW,2001-12-28 03:00,ZGOW 280300Z AUTO 04006KT 6SM 17/06 A3036 RMK SLP284 T01680061 57006 IEM_DS3505
ZGOW,2001-12-28 04:00,ZGOW 280400Z AUTO 03006KT 17/06 A3033 RMK T01700060 IEM_DS3505
ZGOW,2001-12-28 05:00,ZGOW 280500Z AUTO 11004KT 17/05 A3030 RMK T01700050 IEM_DS3505
ZGOW,2001-12-28 06:00,ZGOW 280600Z AUTO 02002KT 6SM 18/06 A3027 RMK SLP244 T01780059 57040 IEM_DS3505
ZGOW,2001-12-28 07:00,ZGOW 280700Z AUTO 08004KT 6SM 18/02 A3024 RMK T01800020 IEM_DS3505
ZGOW,2001-12-28 08:00,ZGOW 280800Z AUTO 14006KT 6SM 18/06 A3027 RMK T01800060 IEM_DS3505
ZGOW,2001-12-28 09:00,ZGOW 280900Z AUTO 14004KT 7SM 16/07 A3027 RMK SLP253 T01640071 52009 IEM_DS3505
ZGOW,2001-12-28 10:00,ZGOW 281000Z AUTO 08004KT 2 1/2SM 14/09 A3030 RMK T01400090 IEM_DS3505
ZGOW,2001-12-28 11:00,ZGOW 281100Z AUTO 08006KT 6SM 13/10 A3030 RMK T01300100 IEM_DS3505
ZGOW,2001-12-28 12:00,ZGOW 281200Z AUTO 07004KT 6SM 14/10 A3030 RMK SLP264 T01390102 52011 IEM_DS3505
ZGOW,2001-12-28 13:00,ZGOW 281300Z AUTO 05008KT 4SM 12/09 A3030 RMK T01200090 IEM_DS3505
ZGOW,2001-12-28 14:00,ZGOW 281400Z AUTO 06004KT 4SM 10/09 A3030 RMK T01000090 IEM_DS3505
ZGOW,2001-12-28 15:00,ZGOW 281500Z AUTO 04002KT 4SM 12/10 A3033 RMK SLP269 T01240103 52005 IEM_DS3505
ZGOW,2001-12-28 16:00,ZGOW 281600Z AUTO 35004KT 2SM 11/10 A3030 RMK T01100100 IEM_DS3505
ZGOW,2001-12-28 18:00,ZGOW 281800Z AUTO 02004KT 4SM 11/07 A3030 RMK SLP260 T01070066 57009 IEM_DS3505
ZGOW,2001-12-28 19:00,ZGOW 281900Z AUTO 31004KT 10/04 A3030 RMK T01000040 IEM_DS3505
ZGOW,2001-12-28 20:00,ZGOW 282000Z AUTO 30004KT 3SM 09/05 A3027 RMK T00900050 IEM_DS3505
ZGOW,2001-12-28 21:00,ZGOW 282100Z AUTO 04006KT 6SM 10/01 A3027 RMK SLP256 T01010007 57004 IEM_DS3505
ZGOW,2001-12-28 22:00,ZGOW 282200Z AUTO 4SM 09/04 A3030 RMK T00900040 IEM_DS3505
ZGOW,2001-12-28 23:00,ZGOW 282300Z AUTO 33004KT 2SM 08/03 A3030 RMK T00800030 IEM_DS3505
ZGOW,2001-12-29 00:00,ZGOW 290000Z AUTO 04004KT 5SM 10/02 A3033 RMK SLP270 T01000021 52014 IEM_DS3505
ZGOW,2001-12-29 01:00,ZGOW 290100Z AUTO 34004KT 11/04 A3033 RMK T01100040 IEM_DS3505
ZGOW,2001-12-29 02:00,ZGOW 290200Z AUTO 33006KT 7SM 13/03 A3033 RMK T01300030 IEM_DS3505
ZGOW,2001-12-29 03:00,ZGOW 290300Z AUTO 04006KT 7SM 15/03 A3033 RMK SLP266 T01520026 57004 IEM_DS3505
ZGOW,2001-12-29 04:00,ZGOW 290400Z AUTO 36004KT 16/04 A3027 RMK T01600040 IEM_DS3505
ZGOW,2001-12-29 05:00,ZGOW 290500Z AUTO 07002KT 17/03 A3024 RMK T01700030 IEM_DS3505
ZGOW,2001-12-29 06:00,ZGOW 290600Z AUTO 16002KT 5SM 18/05 A3021 RMK SLP230 T01780048 57036 IEM_DS3505
ZGOW,2001-12-29 07:00,ZGOW 290700Z AUTO 13008KT 17/05 A3018 RMK T01700050 IEM_DS3505
ZGOW,2001-12-29 08:00,ZGOW 290800Z AUTO 14006KT 16/06 A3018 RMK T01600060 IEM_DS3505
ZGOW,2001-12-29 09:00,ZGOW 290900Z AUTO 14004KT 4SM 16/06 A3021 RMK SLP226 T01550064 57004 IEM_DS3505
ZGOW,2001-12-29 10:00,ZGOW 291000Z AUTO 13002KT 2 1/2SM 14/08 A3021 RMK T01400080 IEM_DS3505
ZGOW,2001-12-29 11:00,ZGOW 291100Z AUTO 07004KT 5SM 12/08 A3021 RMK SLP231 T01200080 52005 IEM_DS3505
ZGOW,2001-12-29 12:00,ZGOW 291200Z AUTO 07004KT 5SM 13/09 A3021 RMK SLP231 T01340086 52005 IEM_DS3505
ZGOW,2001-12-29 13:00,ZGOW 291300Z AUTO 02002KT 3SM 11/08 A3021 RMK T01100080 IEM_DS3505
ZGOW,2001-12-29 14:00,ZGOW 291400Z AUTO 33002KT 2 1/2SM 12/09 A3021 RMK T01200090 IEM_DS3505
ZGOW,2001-12-29 15:00,ZGOW 291500Z AUTO 04004KT 2 1/2SM 11/08 A3021 RMK SLP234 T01060083 52003 IEM_DS3505
ZGOW,2001-12-29 16:00,ZGOW 291600Z AUTO 1SM 10/08 A3021 RMK T01000080 IEM_DS3505
ZGOW,2001-12-29 17:00,ZGOW 291700Z AUTO 32004KT 1 1/4SM 09/08 A3021 RMK T00900080 IEM_DS3505
ZGOW,2001-12-29 18:00,ZGOW 291800Z AUTO 07004KT 4SM 10/06 A3021 RMK SLP231 T01030064 57003 IEM_DS3505
ZGOW,2001-12-29 19:00,ZGOW 291900Z AUTO 31004KT 2SM 08/06 A3021 RMK T00800060 IEM_DS3505
ZGOW,2001-12-29 20:00,ZGOW 292000Z AUTO 32006KT 2SM 08/05 A3018 RMK T00800050 IEM_DS3505
ZGOW,2001-12-29 21:00,ZGOW 292100Z AUTO 04004KT 6SM 08/02 A3018 RMK SLP226 T00850025 57005 IEM_DS3505
ZGOW,2001-12-29 22:00,ZGOW 292200Z AUTO 33004KT 4SM 07/03 A3021 RMK T00700030 IEM_DS3505
ZGOW,2001-12-29 23:00,ZGOW 292300Z AUTO 34004KT 2 1/2SM 07/03 A3021 RMK T00700030 IEM_DS3505
ZGOW,2001-12-30 00:00,ZGOW 300000Z AUTO 04004KT 7SM 09/02 A3024 RMK SLP240 T00880020 52014 IEM_DS3505
ZGOW,2001-12-30 01:00,ZGOW 300100Z AUTO 32006KT 10/04 A3024 RMK T01000040 IEM_DS3505
ZGOW,2001-12-30 03:00,ZGOW 300300Z AUTO 04002KT 9SM 15/02 A3024 RMK SLP238 T01520017 57002 IEM_DS3505
ZGOW,2001-12-30 04:00,ZGOW 300400Z AUTO 07004KT 6SM 17/01 A3018 RMK T01700010 IEM_DS3505
ZGOW,2001-12-30 05:00,ZGOW 300500Z AUTO 09006KT 6SM 18/01 A3015 RMK T01800010 IEM_DS3505
ZGOW,2001-12-30 06:00,ZGOW 300600Z AUTO 11006KT 9SM 19/03 A3012 RMK SLP197 T01860028 57041 IEM_DS3505
ZGOW,2001-12-30 07:00,ZGOW 300700Z AUTO 08006KT 6SM 18/01 A3012 RMK T01800010 IEM_DS3505
ZGOW,2001-12-30 08:00,ZGOW 300800Z AUTO 14006KT 6SM 18/05 A3012 RMK T01800050 IEM_DS3505
ZGOW,2001-12-30 09:00,ZGOW 300900Z AUTO 11006KT 9SM 17/08 A3012 RMK SLP195 T01670078 57002 IEM_DS3505
ZGOW,2001-12-30 10:00,ZGOW 301000Z AUTO 08002KT 14/07 A3015 RMK T01400070 IEM_DS3505
ZGOW,2001-12-30 11:00,ZGOW 301100Z AUTO 08006KT 6SM 14/08 A3015 RMK T01400080 IEM_DS3505
ZGOW,2001-12-30 12:00,ZGOW 301200Z AUTO 07004KT 9SM 14/09 A3015 RMK SLP211 T01400089 52016 IEM_DS3505
ZGOW,2001-12-30 13:00,ZGOW 301300Z AUTO 07008KT 6SM 14/07 A3015 RMK T01400070 IEM_DS3505
ZGOW,2001-12-30 14:00,ZGOW 301400Z AUTO 06006KT 6SM 13/09 A3015 RMK T01300090 IEM_DS3505
ZGOW,2001-12-30 15:00,ZGOW 301500Z AUTO 07004KT 9SM 14/09 A3015 RMK SLP208 T01410092 57003 IEM_DS3505
ZGOW,2001-12-30 16:00,ZGOW 301600Z AUTO 07012KT 5SM 14/08 A3015 RMK T01400080 IEM_DS3505
ZGOW,2001-12-30 17:00,ZGOW 301700Z AUTO 02006KT 13/07 A3015 RMK T01300070 IEM_DS3505
ZGOW,2001-12-30 18:00,ZGOW 301800Z AUTO 02002KT 8SM 13/08 A3015 RMK SLP211 T01310076 52003 IEM_DS3505
ZGOW,2001-12-30 19:00,ZGOW 301900Z AUTO 34006KT 13/07 A3012 RMK T01300070 IEM_DS3505
ZGOW,2001-12-30 20:00,ZGOW 302000Z AUTO 34006KT 13/07 A3012 RMK T01300070 IEM_DS3505
ZGOW,2001-12-30 21:00,ZGOW 302100Z AUTO 04002KT 8SM 12/07 A3012 RMK SLP206 T01230073 57005 IEM_DS3505
ZGOW,2001-12-30 22:00,ZGOW 302200Z AUTO 33004KT 3SM 12/07 A3015 RMK T01200070 IEM_DS3505
ZGOW,2001-12-30 23:00,ZGOW 302300Z AUTO 33004KT 2 1/2SM 11/07 A3015 RMK T01100070 IEM_DS3505
