station,valid,metar
ZGOW,2011-01-01 00:00,ZGOW 010000Z 05003MPS 6000 SKC 09/06 Q1022 NOSIG
ZGOW,2011-01-01 01:00,ZGOW 010100Z 06004MPS CAVOK 11/03 Q1023 NOSIG
ZGOW,2011-01-01 02:00,ZGOW 010200Z 07005MPS CAVOK 13/01 Q1023 NOSIG
ZGOW,2011-01-01 03:00,ZGOW 010300Z 07006MPS CAVOK 14/M00 Q1022 NOSIG
ZGOW,2011-01-01 04:00,ZGOW 010400Z 08008MPS CAVOK 15/M02 Q1021 NOSIG
ZGOW,2011-01-01 05:00,ZGOW 010500Z 07008MPS CAVOK 15/M01 Q1020 NOSIG
ZGOW,2011-01-01 06:00,ZGOW 010600Z 08008MPS CAVOK 15/02 Q1020 NOSIG
ZGOW,2011-01-01 07:00,ZGOW 010700Z 08007MPS CAVOK 15/03 Q1019 NOSIG
ZGOW,2011-01-01 08:00,ZGOW 010800Z 08007MPS CAVOK 14/05 Q1019 NOSIG
ZGOW,2011-01-01 09:00,ZGOW 010900Z 09007MPS CAVOK 14/05 Q1020 NOSIG
ZGOW,2011-01-01 10:00,ZGOW 011000Z 09005MPS CAVOK 13/06 Q1020 NOSIG
ZGOW,2011-01-01 11:00,ZGOW 011100Z 08007MPS CAVOK 12/06 Q1021 NOSIG
ZGOW,2011-01-01 12:00,ZGOW 011200Z 07008MPS CAVOK 12/06 Q1021 NOSIG
ZGOW,2011-01-01 13:00,ZGOW 011300Z 08007MPS CAVOK 12/07 Q1022 NOSIG
ZGOW,2011-01-01 14:00,ZGOW 011400Z 07008G13MPS CAVOK 12/06 Q1023 NOSIG
ZGOW,2011-01-01 15:00,ZGOW 011500Z 07008G13MPS CAVOK 11/05 Q1023 NOSIG
ZGOW,2011-01-01 16:00,ZGOW 011600Z 07007G13MPS CAVOK 11/04 Q1023 NOSIG
ZGOW,2011-01-01 17:00,ZGOW 011700Z 07010MPS CAVOK 10/03 Q1023 NOSIG
ZGOW,2011-01-01 18:00,ZGOW 011800Z AUTO 06010MPS 9999 ////// 10/02 Q1023
ZGOW,2011-01-01 19:00,ZGOW 011900Z AUTO 06008MPS CAVOK 10/02 Q1023
ZGOW,2011-01-01 20:00,ZGOW 012000Z 04004MPS CAVOK 09/03 Q1023 NOSIG
ZGOW,2011-01-01 21:00,ZGOW 012100Z 03006MPS CAVOK 09/02 Q1023 NOSIG
ZGOW,2011-01-01 22:00,ZGOW 012200Z 02005MPS CAVOK 09/02 Q1023 NOSIG
ZGOW,2011-01-01 23:00,ZGOW 012300Z 02005MPS 9999 BKN050 10/01 Q1023 NOSIG
ZGOW,2011-01-02 00:00,ZGOW 020000Z 03004MPS 9999 BKN046 10/01 Q1024 NOSIG
ZGOW,2011-01-02 01:00,ZGOW 020100Z 04004MPS 9999 BKN046 11/01 Q1024 NOSIG
ZGOW,2011-01-02 02:00,ZGOW 020200Z 03005MPS CAVOK 11/01 Q1024 NOSIG
ZGOW,2011-01-02 03:00,ZGOW 020300Z 04004MPS 9999 BKN046 12/01 Q1024 NOSIG
ZGOW,2011-01-02 04:00,ZGOW 020400Z 05004MPS 9999 BKN043 13/02 Q1023 NOSIG
ZGOW,2011-01-02 05:00,ZGOW 020500Z 03005MPS CAVOK 14/03 Q1022 NOSIG
ZGOW,2011-01-02 07:00,ZGOW 020700Z 03005MPS 9999 BKN046 15/03 Q1021 NOSIG
ZGOW,2011-01-02 08:00,ZGOW 020800Z 04004MPS 9999 BKN043 14/04 Q1021 NOSIG
ZGOW,2011-01-02 09:00,ZGOW 020900Z 04003MPS 9999 BKN043 14/04 Q1021 NOSIG
ZGOW,2011-01-02 10:00,ZGOW 021000Z 06003MPS 7000 BKN050 13/05 Q1021 NOSIG
ZGOW,2011-01-02 11:00,ZGOW 021100Z 08006MPS CAVOK 13/06 Q1021 NOSIG
ZGOW,2011-01-02 12:00,ZGOW 021200Z 08004MPS CAVOK 13/08 Q1021 NOSIG
ZGOW,2011-01-02 13:00,ZGOW 021300Z 06008MPS CAVOK 13/08 Q1022 NOSIG
ZGOW,2011-01-02 14:00,ZGOW 021400Z 06006MPS CAVOK 12/08 Q1022 NOSIG
ZGOW,2011-01-02 15:00,ZGOW 021500Z 05005MPS CAVOK 12/07 Q1022 NOSIG
ZGOW,2011-01-02 16:00,ZGOW 021600Z 03003MPS CAVOK 12/06 Q1022 NOSIG
ZGOW,2011-01-02 17:00,ZGOW 021700Z AUTO 36003MPS 5000 ////// 12/05 Q1021
ZGOW,2011-01-02 20:00,ZGOW 022000Z 32003MPS 7000 NSC 11/05 Q1021 NOSIG
ZGOW,2011-01-02 21:00,ZGOW 022100Z 33003MPS 7000 NSC 11/05 Q1021 NOSIG
ZGOW,2011-01-02 22:00,ZGOW 022200Z 34004MPS 6000 SCT050 12/05 Q1021 NOSIG
ZGOW,2011-01-02 23:00,ZGOW 022300Z 32005MPS 6000 BKN040 11/04 Q1023 NOSIG
ZGOW,2011-01-03 00:00,ZGOW 030000Z 34005G10MPS 6000 BKN036 11/04 Q1023 NOSIG
ZGOW,2011-01-03 01:00,ZGOW 030100Z 35004MPS 6000 BKN033 11/04 Q1023 NOSIG
ZGOW,2011-01-03 02:00,ZGOW 030200Z 34004MPS 7000 BKN033 11/04 Q1024 NOSIG
ZGOW,2011-01-03 03:00,ZGOW 030300Z 35003MPS 7000 BKN040 12/04 Q1023 NOSIG
ZGOW,2011-01-03 04:00,ZGOW 030400Z 34003MPS 7000 BKN033 12/05 Q1022 NOSIG
ZGOW,2011-01-03 05:00,ZGOW 030500Z 33004MPS 7000 BKN033 13/05 Q1021 NOSIG
ZGOW,2011-01-03 06:00,ZGOW 030600Z 31002MPS 7000 BKN033 13/05 Q1020 NOSIG
ZGOW,2011-01-03 07:00,ZGOW 030700Z 32004MPS 7000 BKN033 13/05 Q1019 NOSIG
ZGOW,2011-01-03 08:00,ZGOW 030800Z 35004MPS 7000 BKN046 12/05 Q1020 NOSIG
ZGOW,2011-01-03 09:00,ZGOW 030900Z 33002MPS 7000 BKN050 12/05 Q1020 NOSIG
ZGOW,2011-01-03 10:00,ZGOW 031000Z 35003MPS 5000 HZ BKN050 12/06 Q1021 NOSIG
ZGOW,2011-01-03 11:00,ZGOW 031100Z 35003MPS 5000 HZ BKN050 12/06 Q1021 NOSIG
ZGOW,2011-01-03 12:00,ZGOW 031200Z 34002MPS 6000 BKN050 11/05 Q1022 NOSIG
ZGOW,2011-01-03 13:00,ZGOW 031300Z 32003MPS 6000 SCT020 BKN050 11/05 Q1022 NOSIG
ZGOW,2011-01-03 14:00,ZGOW 031400Z 34004MPS 6000 NSC 11/05 Q1023 NOSIG
ZGOW,2011-01-03 15:00,ZGOW 031500Z 33003MPS 6000 NSC 10/05 Q1023 NOSIG
ZGOW,2011-01-03 16:00,ZGOW 031600Z 33003MPS 6000 BKN040 10/05 Q1023 NOSIG
ZGOW,2011-01-03 17:00,ZGOW 031700Z 34003MPS 6000 BKN050 10/05 Q1023 NOSIG
ZGOW,2011-01-03 18:00,ZGOW 031800Z AUTO 34003MPS 5000 ////// 09/06 Q1022
ZGOW,2011-01-03 19:00,ZGOW 031900Z AUTO 35002MPS 5000 ////// 09/06 Q1022
ZGOW,2011-01-03 20:00,ZGOW 032000Z AUTO 34003MPS 5000 ////// 09/06 Q1022
ZGOW,2011-01-03 21:00,ZGOW 032100Z 33003MPS 5000 BR BKN050 09/06 Q1022 NOSIG
ZGOW,2011-01-03 22:00,ZGOW 032200Z 32002MPS 5000 BR NSC 09/06 Q1023 NOSIG
ZGOW,2011-01-03 23:00,ZGOW 032300Z 32002MPS 5000 BR BKN050 09/05 Q1023 NOSIG
ZGOW,2011-01-04 00:00,ZGOW 040000Z 34003MPS 5000 BR BKN050 10/05 Q1024 NOSIG
ZGOW,2011-01-04 01:00,ZGOW 040100Z 33003MPS 5000 HZ NSC 11/06 Q1024 NOSIG
ZGOW,2011-01-04 02:00,ZGOW 040200Z 36003MPS 5000 HZ NSC 12/07 Q1025 NOSIG
ZGOW,2011-01-04 03:00,ZGOW 040300Z 03004MPS 5000 HZ NSC 14/07 Q1024 NOSIG
ZGOW,2011-01-04 04:00,ZGOW 040400Z 04005MPS 6000 NSC 15/07 Q1022 NOSIG
ZGOW,2011-01-04 05:00,ZGOW 040500Z 03005MPS 6000 NSC 15/07 Q1021 NOSIG
ZGOW,2011-01-04 06:00,ZGOW 040600Z 04004MPS 6000 NSC 16/07 Q1020 NOSIG
ZGOW,2011-01-04 07:00,ZGOW 040700Z 08003MPS 6000 -RA SCT024 BKN050 15/07 Q1020 NOSIG
ZGOW,2011-01-04 08:00,ZGOW 040800Z 08003MPS 6000 SCT040 14/08 Q1020 NOSIG
ZGOW,2011-01-04 09:00,ZGOW 040900Z 07004MPS 5000 -RA HZ BKN040 13/09 Q1020 NOSIG
ZGOW,2011-01-04 10:00,ZGOW 041000Z 07005MPS 5000 HZ SCT040 13/09 Q1020 NOSIG
ZGOW,2011-01-04 11:00,ZGOW 041100Z 07006MPS 5000 -RA BR SCT024 BKN050 13/09 Q1021 NOSIG
ZGOW,2011-01-04 12:00,ZGOW 041200Z 07006MPS 5000 BR SCT040 12/09 Q1021 NOSIG
ZGOW,2011-01-04 13:00,ZGOW 041300Z 06007MPS 5000 -RA BR BKN040 13/09 Q1022 NOSIG
ZGOW,2011-01-04 14:00,ZGOW 041400Z 06005MPS 5000 -RA BR BKN040 12/09 Q1022 NOSIG
ZGOW,2011-01-04 15:00,ZGOW 041500Z 06005MPS 5000 BR SCT040 12/08 Q1022 NOSIG
ZGOW,2011-01-04 16:00,ZGOW 041600Z 07008MPS 5000 BR SCT040 12/08 Q1022 NOSIG
ZGOW,2011-01-04 17:00,ZGOW 041700Z 05005MPS 5000 BR SCT046 11/08 Q1022 NOSIG
ZGOW,2011-01-04 18:00,ZGOW 041800Z AUTO 04003MPS 4700 // ////// 11/08 Q1022
ZGOW,2011-01-04 19:00,ZGOW 041900Z AUTO 33003MPS 2600 // ////// 11/09 Q1022
ZGOW,2011-01-04 20:00,ZGOW 042000Z 36002MPS 5000 BR SCT033 11/08 Q1022 NOSIG
ZGOW,2011-01-04 21:00,ZGOW 042100Z 36002MPS 4000 BR SCT040 11/08 Q1021 NOSIG
ZGOW,2011-01-04 22:00,ZGOW 042200Z 34002MPS 4000 BR BKN040 10/08 Q1021 NOSIG
ZGOW,2011-01-04 23:00,ZGOW 042300Z 36001MPS 3500 BR FEW040 10/08 Q1022 NOSIG
ZGOW,2011-01-05 00:00,ZGOW 050000Z 01003MPS 3500 BR FEW050 11/09 Q1022 NOSIG
ZGOW,2011-01-05 01:00,ZGOW 050100Z 02004MPS 5000 HZ FEW050 13/08 Q1022 NOSIG
ZGOW,2011-01-05 02:00,ZGOW 050200Z 06005MPS 4000 HZ SKC 15/09 Q1022 NOSIG
ZGOW,2011-01-05 03:00,ZGOW 050300Z 07006MPS 5000 HZ SKC 16/09 Q1021 NOSIG
ZGOW,2011-01-05 04:00,ZGOW 050400Z 05005MPS 5000 HZ SKC 17/10 Q1020 NOSIG
ZGOW,2011-01-05 05:00,ZGOW 050500Z 08003MPS 4500 HZ SKC 17/10 Q1019 NOSIG
ZGOW,2011-01-05 06:00,ZGOW 050600Z 07002MPS 4000 HZ SKC 18/10 Q1017 NOSIG
ZGOW,2011-01-05 07:00,ZGOW 050700Z 10003MPS 4000 HZ SKC 18/10 Q1017 NOSIG
ZGOW,2011-01-05 08:00,ZGOW 050800Z 13003MPS 090V160 4000 HZ BKN033 17/11 Q1017 NOSIG
ZGOW,2011-01-05 09:00,ZGOW 050900Z 12003MPS 3500 BR BKN033 16/12 Q1018 NOSIG
ZGOW,2011-01-05 10:00,ZGOW 051000Z 11003MPS 3200 BR BKN033 15/12 Q1018 TEMPO 2500 BR
ZGOW,2011-01-05 11:00,ZGOW 051100Z 08005MPS 4000 BR BKN040 15/11 Q1019 NOSIG
ZGOW,2011-01-05 12:00,ZGOW 051200Z 07004MPS 4000 BR BKN046 14/11 Q1019 NOSIG
ZGOW,2011-01-05 13:00,ZGOW 051300Z 07005MPS 3500 BR BKN050 14/11 Q1020 NOSIG
ZGOW,2011-01-05 14:00,ZGOW 051400Z 07005MPS 3500 BR NSC 14/12 Q1020 NOSIG
ZGOW,2011-01-05 15:00,ZGOW 051500Z 05002MPS 3200 BR NSC 12/10 Q1021 TEMPO 2000 BR
ZGOW,2011-01-05 16:00,ZGOW 051600Z 04002MPS 2500 BR SCT040 14/12 Q1021 NOSIG
ZGOW,2011-01-05 17:00,ZGOW 051700Z 09003MPS 3500 BR SCT040 14/11 Q1021 NOSIG
ZGOW,2011-01-05 18:00,ZGOW 051800Z AUTO 02002MPS 3500 // ////// 14/11 Q1021
ZGOW,2011-01-05 19:00,ZGOW 051900Z AUTO 06003MPS 2900 // ////// 14/11 Q1021
ZGOW,2011-01-05 20:00,ZGOW 052000Z 01002MPS 3500 BR SCT024 14/11 Q1021 NOSIG
ZGOW,2011-01-05 21:00,ZGOW 052100Z 34002MPS 3500 BR SCT028 14/11 Q1021 NOSIG
ZGOW,2011-01-05 22:00,ZGOW 052200Z 32004MPS 4000 BR SCT033 14/10 Q1022 NOSIG
ZGOW,2011-01-05 23:00,ZGOW 052300Z 32005MPS 5000 BR FEW020 BKN040 13/09 Q1023 NOSIG
ZGOW,2011-01-06 00:00,ZGOW 060000Z 33004MPS CAVOK 13/08 Q1023 NOSIG
ZGOW,2011-01-06 01:00,ZGOW 060100Z 33005MPS 7000 BKN050 13/08 Q1024 NOSIG
ZGOW,2011-01-06 02:00,ZGOW 060200Z 33004MPS 8000 BKN050 13/07 Q1024 NOSIG
ZGOW,2011-01-06 03:00,ZGOW 060300Z 33003MPS 8000 BKN050 13/07 Q1024 NOSIG
ZGOW,2011-01-06 04:00,ZGOW 060400Z 33004MPS 8000 SCT023 BKN050 13/07 Q1023 NOSIG
ZGOW,2011-01-06 05:00,ZGOW 060500Z 33004MPS 8000 SCT023 BKN050 13/06 Q1023 NOSIG
ZGOW,2011-01-06 06:00,ZGOW 060600Z 34004MPS 9999 SCT023 BKN050 13/06 Q1022 NOSIG
ZGOW,2011-01-06 07:00,ZGOW 060700Z 33004MPS 9999 SCT023 BKN050 13/06 Q1022 NOSIG
ZGOW,2011-01-06 08:00,ZGOW 060800Z 34003MPS 9999 SCT023 BKN050 13/06 Q1023 NOSIG
ZGOW,2011-01-06 09:00,ZGOW 060900Z 35004MPS 9999 SCT023 BKN050 12/05 Q1023 NOSIG
ZGOW,2011-01-06 10:00,ZGOW 061000Z 34004MPS 9999 BKN033 11/05 Q1024 NOSIG
ZGOW,2011-01-06 11:00,ZGOW 061100Z 34003MPS 9999 BKN033 11/04 Q1024 NOSIG
ZGOW,2011-01-06 12:00,ZGOW 061200Z 34003MPS 9999 BKN033 10/04 Q1025 NOSIG
ZGOW,2011-01-06 13:00,ZGOW 061300Z 35003MPS 9999 BKN026 10/04 Q1025 NOSIG
ZGOW,2011-01-06 14:00,ZGOW 061400Z 36003MPS 9999 BKN026 09/04 Q1026 NOSIG
ZGOW,2011-01-06 15:00,ZGOW 061500Z 34003MPS 9999 BKN026 09/04 Q1026 NOSIG
ZGOW,2011-01-06 16:00,ZGOW 061600Z 35004MPS 9999 BKN026 09/03 Q1026 NOSIG
ZGOW,2011-01-06 17:00,ZGOW 061700Z 35003MPS 9999 BKN026 08/04 Q1026 NOSIG
ZGOW,2011-01-06 18:00,ZGOW 061800Z AUTO 34003MPS 5000 ////// 07/04 Q1026
ZGOW,2011-01-06 19:00,ZGOW 061900Z AUTO 35004MPS 8000 ////// 08/04 Q1026
ZGOW,2011-01-06 20:00,ZGOW 062000Z 34004MPS 7000 BKN026 08/04 Q1026 NOSIG
ZGOW,2011-01-06 21:00,ZGOW 062100Z 34004MPS 7000 BKN026 08/04 Q1026 NOSIG
ZGOW,2011-01-06 22:00,ZGOW 062200Z 34003MPS 7000 BKN026 08/03 Q1027 NOSIG
ZGOW,2011-01-06 23:00,ZGOW 062300Z 34003MPS 6000 BKN026 08/03 Q1027 NOSIG
ZGOW,2011-01-07 00:00,ZGOW 070000Z 34003MPS 6000 SCT020 BKN026 08/03 Q1027 NOSIG
ZGOW,2011-01-07 01:00,ZGOW 070100Z 34003MPS 7000 SCT020 BKN033 08/03 Q1028 NOSIG
ZGOW,2011-01-07 02:00,ZGOW 070200Z 34003MPS 7000 SCT020 BKN040 09/03 Q1028 NOSIG
ZGOW,2011-01-07 03:00,ZGOW 070300Z 01003MPS 7000 SCT020 BKN040 10/04 Q1027 NOSIG
ZGOW,2011-01-07 04:00,ZGOW 070400Z 03004MPS 8000 BKN028 11/04 Q1026 NOSIG
ZGOW,2011-01-07 05:00,ZGOW 070500Z 03003MPS 9999 SCT030 13/05 Q1025 NOSIG
ZGOW,2011-01-07 06:00,ZGOW 070600Z 06004MPS 9999 FEW028 13/05 Q1024 NOSIG
ZGOW,2011-01-07 07:00,ZGOW 070700Z 08005MPS 9999 BKN036 13/05 Q1023 NOSIG
ZGOW,2011-01-07 08:00,ZGOW 070800Z 06005MPS 9999 SCT040 12/04 Q1023 NOSIG
ZGOW,2011-01-07 09:00,ZGOW 070900Z 07004MPS 9999 SCT040 12/05 Q1023 NOSIG
ZGOW,2011-01-07 10:00,ZGOW 071000Z 04004MPS 7000 BKN040 11/04 Q1024 NOSIG
ZGOW,2011-01-07 11:00,ZGOW 071100Z 01004MPS 9999 BKN036 11/03 Q1024 NOSIG
ZGOW,2011-01-07 12:00,ZGOW 071200Z 03003MPS 9999 BKN033 11/04 Q1024 NOSIG
ZGOW,2011-01-07 13:00,ZGOW 071300Z 05004MPS 9999 SCT030 10/04 Q1025 NOSIG
ZGOW,2011-01-07 14:00,ZGOW 071400Z 02004MPS 9999 SCT033 10/03 Q1025 NOSIG
ZGOW,2011-01-07 15:00,ZGOW 071500Z 35001MPS 7000 SCT033 09/03 Q1025 NOSIG
ZGOW,2011-01-07 16:00,ZGOW 071600Z 33002MPS 7000 FEW030 08/03 Q1025 NOSIG
ZGOW,2011-01-07 17:00,ZGOW 071700Z 33001MPS 6000 SCT030 08/03 Q1024 NOSIG
ZGOW,2011-01-07 20:00,ZGOW 072000Z 34002MPS 7000 SKC 07/02 Q1023 NOSIG
ZGOW,2011-01-07 21:00,ZGOW 072100Z 34003MPS 7000 SKC 07/02 Q1023 NOSIG
ZGOW,2011-01-07 22:00,ZGOW 072200Z 34002MPS 7000 SKC 07/02 Q1024 NOSIG
ZGOW,2011-01-07 23:00,ZGOW 072300Z 34002MPS 5000 HZ SCT028 07/02 Q1024 NOSIG
ZGOW,2011-01-08 00:00,ZGOW 080000Z 31003MPS 5000 HZ FEW028 07/03 Q1025 NOSIG
ZGOW,2011-01-08 01:00,ZGOW 080100Z 31003MPS 4000 HZ SKC 09/03 Q1025 NOSIG
ZGOW,2011-01-08 02:00,ZGOW 080200Z 31003MPS 5000 HZ SKC 11/04 Q1025 NOSIG
ZGOW,2011-01-08 03:00,ZGOW 080300Z 01002MPS 6000 SKC 13/04 Q1025 BECMG TL0400 07006MPS
ZGOW,2011-01-08 04:00,ZGOW 080400Z 06003MPS 6000 SKC 15/05 Q1023 NOSIG
ZGOW,2011-01-08 05:00,ZGOW 080500Z 06005MPS 7000 SKC 15/05 Q1022 NOSIG
ZGOW,2011-01-08 06:00,ZGOW 080600Z 08005MPS 8000 SKC 16/06 Q1020 NOSIG
ZGOW,2011-01-08 07:00,ZGOW 080700Z 06003MPS 7000 SKC 16/06 Q1020 NOSIG
ZGOW,2011-01-08 08:00,ZGOW 080800Z 08002MPS 8000 SKC 15/07 Q1019 NOSIG
ZGOW,2011-01-08 09:00,ZGOW 080900Z 07002MPS 7000 SKC 14/07 Q1019 NOSIG
ZGOW,2011-01-08 10:00,ZGOW 081000Z 07002MPS 5000 HZ SKC 12/08 Q1020 NOSIG
ZGOW,2011-01-08 11:00,ZGOW 081100Z 09002MPS 5000 BR SKC 13/09 Q1020 NOSIG
ZGOW,2011-01-08 12:00,ZGOW 081200Z 10003MPS 7000 SKC 13/08 Q1021 NOSIG
ZGOW,2011-01-08 13:00,ZGOW 081300Z 08002MPS 6000 SKC 12/09 Q1021 NOSIG
ZGOW,2011-01-08 14:00,ZGOW 081400Z 05003MPS 5000 BR FEW020 11/09 Q1021 NOSIG
ZGOW,2011-01-08 15:00,ZGOW 081500Z 05003MPS 5000 BR FEW026 12/09 Q1021 NOSIG
ZGOW,2011-01-08 16:00,ZGOW 081600Z 04002MPS 5000 BR NSC 12/09 Q1021 NOSIG
ZGOW,2011-01-08 17:00,ZGOW 081700Z 36002MPS 5000 BR NSC 12/09 Q1021 NOSIG
ZGOW,2011-01-08 18:00,ZGOW 081800Z AUTO 01003MPS 3900 // ////// 12/09 Q1021
ZGOW,2011-01-08 19:00,ZGOW 081900Z AUTO 33001MPS 2500 // ////// 12/09 Q1021
ZGOW,2011-01-08 20:00,ZGOW 082000Z 33002MPS 4000 BR NSC 12/09 Q1021 NOSIG
ZGOW,2011-01-08 21:00,ZGOW 082100Z 34002MPS 4000 BR NSC 11/08 Q1021 NOSIG
ZGOW,2011-01-08 22:00,ZGOW 082200Z 33001MPS 5000 BR NSC 11/06 Q1021 NOSIG
ZGOW,2011-01-08 23:00,ZGOW 082300Z 32002MPS 4000 BR NSC 10/06 Q1022 NOSIG
ZGOW,2011-01-09 00:00,ZGOW 090000Z 34002MPS 4000 BR NSC 11/06 Q1022 NOSIG
ZGOW,2011-01-09 01:00,ZGOW 090100Z 33003MPS 6000 NSC 13/06 Q1023 NOSIG
ZGOW,2011-01-09 02:00,ZGOW 090200Z 32003MPS 6000 NSC 14/05 Q1023 NOSIG
ZGOW,2011-01-09 03:00,ZGOW 090300Z 33002MPS 6000 NSC 15/06 Q1022 NOSIG
ZGOW,2011-01-09 04:00,ZGOW 090400Z 31003MPS 6000 NSC 17/06 Q1021 NOSIG
ZGOW,2011-01-09 05:00,ZGOW 090500Z 34002MPS 6000 NSC 18/06 Q1020 NOSIG
ZGOW,2011-01-09 06:00,ZGOW 090600Z 01002MPS 6000 NSC 19/06 Q1019 NOSIG
ZGOW,2011-01-09 07:00,ZGOW 090700Z 12003MPS 6000 NSC 18/07 Q1019 NOSIG
ZGOW,2011-01-09 08:00,ZGOW 090800Z 12003MPS 6000 NSC 17/09 Q1019 NOSIG
ZGOW,2011-01-09 09:00,ZGOW 090900Z 11003MPS 5000 HZ NSC 16/11 Q1020 TEMPO 09007MPS
ZGOW,2011-01-09 10:00,ZGOW 091000Z 00000MPS 5000 HZ NSC 16/10 Q1020 TEMPO 09007MPS
ZGOW,2011-01-09 11:00,ZGOW 091100Z 08005MPS 7000 NSC 14/10 Q1021 NOSIG
ZGOW,2011-01-09 12:00,ZGOW 091200Z 07005MPS CAVOK 14/10 Q1022 NOSIG
ZGOW,2011-01-09 13:00,ZGOW 091300Z 06004MPS 7000 BKN033 13/10 Q1022 NOSIG
ZGOW,2011-01-09 14:00,ZGOW 091400Z 06005MPS 7000 NSC 13/09 Q1022 NOSIG
ZGOW,2011-01-09 15:00,ZGOW 091500Z 33003MPS 5000 BR BKN026 13/04 Q1023 NOSIG
ZGOW,2011-01-09 16:00,ZGOW 091600Z 35003MPS 5000 HZ NSC 12/03 Q1022 NOSIG
ZGOW,2011-01-09 17:00,ZGOW 091700Z 34002MPS 5000 HZ NSC 12/04 Q1022 NOSIG
ZGOW,2011-01-09 18:00,ZGOW 091800Z 34003MPS 5000 HZ BKN040 11/03 Q1022 NOSIG
ZGOW,2011-01-09 19:00,ZGOW 091900Z 34003MPS 5000 HZ BKN030 11/02 Q1022 NOSIG
ZGOW,2011-01-09 20:00,ZGOW 092000Z 35003MPS 6000 BKN030 11/02 Q1022 NOSIG
ZGOW,2011-01-09 21:00,ZGOW 092100Z 34003MPS 5000 HZ BKN030 11/01 Q1022 NOSIG
ZGOW,2011-01-09 22:00,ZGOW 092200Z 35003MPS 5000 HZ BKN030 10/02 Q1022 NOSIG
ZGOW,2011-01-09 23:00,ZGOW 092300Z 34002MPS 5000 HZ BKN030 10/02 Q1023 NOSIG
ZGOW,2011-01-10 00:00,ZGOW 100000Z 33002MPS 5000 HZ BKN030 10/02 Q1023 NOSIG
ZGOW,2011-01-10 01:00,ZGOW 100100Z 34002MPS 5000 HZ BKN030 11/02 Q1024 NOSIG
ZGOW,2011-01-10 02:00,ZGOW 100200Z 33002MPS 4000 HZ BKN040 12/03 Q1024 NOSIG
ZGOW,2011-01-10 03:00,ZGOW 100300Z 33002MPS 4000 HZ NSC 13/04 Q1023 NOSIG
ZGOW,2011-01-10 04:00,ZGOW 100400Z 34001MPS 4000 HZ NSC 14/04 Q1021 BECMG TL0500 07006MPS 6000
ZGOW,2011-01-10 05:00,ZGOW 100500Z 08003MPS 3500 HZ NSC 14/05 Q1020 NOSIG
ZGOW,2011-01-10 06:00,ZGOW 100600Z 10003MPS 3500 HZ NSC 14/06 Q1019 NOSIG
ZGOW,2011-01-10 07:00,ZGOW 100700Z 08004MPS 3200 HZ NSC 14/06 Q1019 NOSIG
ZGOW,2011-01-10 08:00,ZGOW 100800Z 09005MPS 4000 HZ NSC 14/05 Q1018 NOSIG
ZGOW,2011-01-10 09:00,ZGOW 100900Z 08005MPS 4500 HZ NSC 13/05 Q1019 NOSIG
ZGOW,2011-01-10 10:00,ZGOW 101000Z 08005MPS 5000 HZ NSC 13/05 Q1020 NOSIG
ZGOW,2011-01-10 11:00,ZGOW 101100Z 08006MPS 5000 HZ NSC 12/06 Q1020 NOSIG
ZGOW,2011-01-10 12:00,ZGOW 101200Z 08007MPS 7000 NSC 12/06 Q1020 NOSIG
ZGOW,2011-01-10 13:00,ZGOW 101300Z 07007MPS 7000 NSC 12/06 Q1020 NOSIG
ZGOW,2011-01-10 14:00,ZGOW 101400Z 07006MPS 7000 NSC 12/06 Q1021 NOSIG
ZGOW,2011-01-10 15:00,ZGOW 101500Z 06005MPS 7000 NSC 12/06 Q1021 NOSIG
ZGOW,2011-01-10 16:00,ZGOW 101600Z 04004MPS 7000 NSC 12/06 Q1021 NOSIG
ZGOW,2011-01-10 17:00,ZGOW 101700Z 02003MPS 6000 NSC 12/05 Q1021 NOSIG
ZGOW,2011-01-10 18:00,ZGOW 101800Z 35001MPS 5000 HZ NSC 12/04 Q1020 NOSIG
ZGOW,2011-01-10 19:00,ZGOW 101900Z AUTO 01001MPS 3700 // ////// 11/05 Q1019
ZGOW,2011-01-10 20:00,ZGOW 102000Z 34001MPS 5000 HZ NSC 11/05 Q1019 NOSIG
ZGOW,2011-01-10 21:00,ZGOW 102100Z 01001MPS 4000 HZ NSC 11/05 Q1019 NOSIG
ZGOW,2011-01-10 22:00,ZGOW 102200Z 35002MPS 4000 HZ NSC 11/04 Q1019 NOSIG
ZGOW,2011-01-10 23:00,ZGOW 102300Z 34003MPS 3500 HZ NSC 11/04 Q1020 NOSIG
ZGOW,2011-01-11 00:00,ZGOW 110000Z 34003MPS 3500 HZ NSC 11/03 Q1020 NOSIG
ZGOW,2011-01-11 01:00,ZGOW 110100Z 34004MPS 3500 HZ NSC 11/02 Q1021 NOSIG
ZGOW,2011-01-11 02:00,ZGOW 110200Z 34003MPS 3500 HZ NSC 11/02 Q1021 NOSIG
ZGOW,2011-01-11 03:00,ZGOW 110300Z 34003MPS 3500 HZ SCT040 12/02 Q1021 NOSIG
ZGOW,2011-01-11 04:00,ZGOW 110400Z 32004MPS 3500 HZ NSC 12/03 Q1020 NOSIG
ZGOW,2011-01-11 05:00,ZGOW 110500Z 31005MPS 4000 HZ SCT040 11/03 Q1019 NOSIG
ZGOW,2011-01-11 06:00,ZGOW 110600Z 32005MPS 6000 NSC 10/04 Q1018 NOSIG
ZGOW,2011-01-11 07:00,ZGOW 110700Z 33005MPS 7000 SCT040 10/04 Q1018 NOSIG
ZGOW,2011-01-11 08:00,ZGOW 110800Z 33006G11MPS 8000 BKN050 09/03 Q1019 NOSIG
ZGOW,2011-01-11 09:00,ZGOW 110900Z 33004MPS 8000 -RA FEW020 BKN040 08/04 Q1019 NOSIG
ZGOW,2011-01-11 10:00,ZGOW 111000Z 33003MPS 7000 -RA BKN030 08/04 Q1020 NOSIG
ZGOW,2011-01-11 11:00,ZGOW 111100Z 34003MPS 8000 SCT030 08/04 Q1020 NOSIG
ZGOW,2011-01-11 12:00,ZGOW 111200Z 33003MPS 9999 SCT022 BKN050 08/04 Q1021 NOSIG
ZGOW,2011-01-11 13:00,ZGOW 111300Z 34004MPS 9999 SCT020 BKN040 08/03 Q1021 NOSIG
ZGOW,2011-01-11 14:00,ZGOW 111400Z 34004MPS 9999 SCT020 BKN040 07/03 Q1021 NOSIG
ZGOW,2011-01-11 15:00,ZGOW 111500Z 34003MPS 9999 SCT020 BKN043 07/03 Q1021 NOSIG
ZGOW,2011-01-11 16:00,ZGOW 111600Z 34003MPS 6000 -RA SCT020 OVC040 07/03 Q1021 NOSIG
ZGOW,2011-01-11 17:00,ZGOW 111700Z 33004MPS 6000 -RA SCT018 OVC033 06/04 Q1021 NOSIG
ZGOW,2011-01-11 18:00,ZGOW 111800Z AUTO 34002MPS 4400 // ////// 06/04 Q1020
ZGOW,2011-01-11 19:00,ZGOW 111900Z AUTO 33003MPS 5000 ////// 06/04 Q1020
ZGOW,2011-01-11 20:00,ZGOW 112000Z 34003MPS 7000 -RA SCT016 OVC033 06/04 Q1020 NOSIG
ZGOW,2011-01-11 21:00,ZGOW 112100Z 34003MPS 7000 -RA SCT016 OVC033 06/04 Q1020 NOSIG
ZGOW,2011-01-11 22:00,ZGOW 112200Z 34002MPS 9999 BKN040 06/04 Q1021 NOSIG
ZGOW,2011-01-11 23:00,ZGOW 112300Z 35002MPS 7000 -RA SCT016 OVC040 06/04 Q1021 NOSIG
ZGOW,2011-01-12 00:00,ZGOW 120000Z 34002MPS 7000 -RA SCT016 OVC040 07/05 Q1021 NOSIG
ZGOW,2011-01-12 01:00,ZGOW 120100Z 34002MPS 6000 SCT016 OVC040 07/05 Q1022 NOSIG
ZGOW,2011-01-12 02:00,ZGOW 120200Z 34002MPS 7000 SCT016 BKN040 08/05 Q1022 NOSIG
ZGOW,2011-01-12 03:00,ZGOW 120300Z 34002MPS 7000 SCT016 BKN040 08/05 Q1022 NOSIG
ZGOW,2011-01-12 04:00,ZGOW 120400Z 35002MPS 7000 -RA SCT016 BKN040 08/05 Q1021 NOSIG
ZGOW,2011-01-12 05:00,ZGOW 120500Z 33003MPS 6000 SCT016 BKN040 09/06 Q1020 NOSIG
ZGOW,2011-01-12 06:00,ZGOW 120600Z 32003MPS 7000 SCT016 BKN040 09/05 Q1019 NOSIG
ZGOW,2011-01-12 07:00,ZGOW 120700Z 35001MPS 7000 SCT016 BKN040 09/05 Q1019 NOSIG
ZGOW,2011-01-12 08:00,ZGOW 120800Z 35002MPS 7000 SCT016 BKN040 09/05 Q1019 NOSIG
ZGOW,2011-01-12 09:00,ZGOW 120900Z 34002MPS 5000 BR SCT016 BKN040 09/05 Q1019 NOSIG
ZGOW,2011-01-12 10:00,ZGOW 121000Z 34001MPS 5000 BR SCT016 BKN040 09/05 Q1020 NOSIG
ZGOW,2011-01-12 11:00,ZGOW 121100Z 01002MPS 7000 SCT016 BKN040 09/04 Q1020 NOSIG
ZGOW,2011-01-12 12:00,ZGOW 121200Z 02001MPS 5000 BR SCT016 BKN040 09/06 Q1021 NOSIG
ZGOW,2011-01-12 13:00,ZGOW 121300Z 05003MPS 6000 SCT016 BKN040 09/04 Q1021 NOSIG
ZGOW,2011-01-12 14:00,ZGOW 121400Z 03003MPS 7000 SCT016 BKN040 09/04 Q1021 NOSIG
ZGOW,2011-01-12 15:00,ZGOW 121500Z 03003MPS 8000 BKN040 10/04 Q1021 NOSIG
ZGOW,2011-01-12 16:00,ZGOW 121600Z 34001MPS 5000 BR BKN040 09/05 Q1021 NOSIG
ZGOW,2011-01-12 17:00,ZGOW 121700Z 33002MPS 5000 BR BKN040 09/05 Q1021 NOSIG
ZGOW,2011-01-12 18:00,ZGOW 121800Z 32002MPS 5000 BR BKN040 09/05 Q1021 NOSIG
ZGOW,2011-01-12 19:00,ZGOW 121900Z AUTO 34002MPS 7000 ////// 09/05 Q1021
ZGOW,2011-01-12 20:00,ZGOW 122000Z 32001MPS 6000 BKN040 09/05 Q1021 NOSIG
ZGOW,2011-01-12 21:00,ZGOW 122100Z 35001MPS 6000 NSC 09/05 Q1021 NOSIG
ZGOW,2011-01-12 22:00,ZGOW 122200Z 32002MPS 6000 NSC 09/05 Q1021 NOSIG
ZGOW,2011-01-12 23:00,ZGOW 122300Z 32002MPS 5000 BR BKN050 09/05 Q1021 NOSIG
ZGOW,2011-01-13 00:00,ZGOW 130000Z 35002MPS 5000 HZ BKN050 10/05 Q1021 NOSIG
ZGOW,2011-01-13 01:00,ZGOW 130100Z 31003MPS 6000 NSC 11/05 Q1022 NOSIG
ZGOW,2011-01-13 02:00,ZGOW 130200Z 36002MPS 7000 NSC 13/05 Q1022 BECMG TL0300 06006MPS
ZGOW,2011-01-13 03:00,ZGOW 130300Z 05004MPS 7000 SKC 14/05 Q1021 NOSIG
ZGOW,2011-01-13 04:00,ZGOW 130400Z 07004MPS 8000 NSC 15/05 Q1020 NOSIG
ZGOW,2011-01-13 05:00,ZGOW 130500Z 07004MPS 7000 NSC 16/05 Q1019 NOSIG
ZGOW,2011-01-13 06:00,ZGOW 130600Z 09006MPS 6000 NSC 16/06 Q1018 NOSIG
ZGOW,2011-01-13 07:00,ZGOW 130700Z 08006MPS 6000 NSC 16/07 Q1018 TEMPO 08008G13MPS
ZGOW,2011-01-13 08:00,ZGOW 130800Z 09006MPS 6000 NSC 15/08 Q1017 TEMPO 08008G13MPS
ZGOW,2011-01-13 09:00,ZGOW 130900Z 09004MPS 6000 NSC 15/08 Q1018 NOSIG
ZGOW,2011-01-13 10:00,ZGOW 131000Z 08004MPS 5000 HZ NSC 14/09 Q1018 NOSIG
ZGOW,2011-01-13 11:00,ZGOW 131100Z 08003MPS 5000 HZ NSC 13/09 Q1019 NOSIG
ZGOW,2011-01-13 12:00,ZGOW 131200Z 09005MPS 5000 HZ NSC 14/09 Q1020 NOSIG
ZGOW,2011-01-13 13:00,ZGOW 131300Z 08005MPS 6000 SCT033 13/09 Q1020 NOSIG
ZGOW,2011-01-13 14:00,ZGOW 131400Z 08006MPS 6000 SCT033 13/09 Q1020 NOSIG
ZGOW,2011-01-13 15:00,ZGOW 131500Z 07006MPS 5000 HZ SCT040 13/09 Q1020 NOSIG
ZGOW,2011-01-13 16:00,ZGOW 131600Z 06005MPS 6000 SCT040 13/09 Q1020 NOSIG
ZGOW,2011-01-13 17:00,ZGOW 131700Z 03002MPS 5000 HZ SCT040 13/08 Q1020 NOSIG
ZGOW,2011-01-13 18:00,ZGOW 131800Z AUTO 34001MPS 2900 // ////// 13/09 Q1020
ZGOW,2011-01-13 19:00,ZGOW 131900Z AUTO 32001MPS 3200 // ////// 13/09 Q1019
ZGOW,2011-01-13 20:00,ZGOW 132000Z 36001MPS 4000 HZ SCT040 12/09 Q1019 NOSIG
ZGOW,2011-01-13 21:00,ZGOW 132100Z 35001MPS 3500 BR SCT040 12/09 Q1019 NOSIG
ZGOW,2011-01-13 22:00,ZGOW 132200Z 00000MPS 3200 BR NSC 12/09 Q1019 NOSIG
ZGOW,2011-01-13 23:00,ZGOW 132300Z 11001MPS 1800 BR NSC 11/09 Q1019 NOSIG
ZGOW,2011-01-14 00:00,ZGOW 140000Z 36001MPS 2500 BR NSC 12/10 Q1019 BECMG TL0030 3000 BR
ZGOW,2011-01-14 01:00,ZGOW 140100Z 06003MPS 4000 HZ NSC 15/09 Q1020 NOSIG
ZGOW,2011-01-14 02:00,ZGOW 140200Z 07005MPS 6000 NSC 16/10 Q1020 NOSIG
ZGOW,2011-01-14 03:00,ZGOW 140300Z 08005MPS 8000 NSC 17/10 Q1019 NOSIG
ZGOW,2011-01-14 04:00,ZGOW 140400Z 07004MPS CAVOK 17/10 Q1018 NOSIG
ZGOW,2011-01-14 05:00,ZGOW 140500Z 06003MPS CAVOK 18/11 Q1016 NOSIG
ZGOW,2011-01-14 06:00,ZGOW 140600Z 10003MPS CAVOK 19/11 Q1015 NOSIG
ZGOW,2011-01-14 07:00,ZGOW 140700Z 13004MPS CAVOK 18/12 Q1015 NOSIG
ZGOW,2011-01-14 08:00,ZGOW 140800Z 12004MPS CAVOK 17/11 Q1015 NOSIG
ZGOW,2011-01-14 09:00,ZGOW 140900Z 11003MPS CAVOK 16/12 Q1015 NOSIG
ZGOW,2011-01-14 10:00,ZGOW 141000Z 11001MPS 7000 SKC 15/12 Q1016 NOSIG
ZGOW,2011-01-14 11:00,ZGOW 141100Z 09003MPS 6000 NSC 14/12 Q1017 NOSIG
ZGOW,2011-01-14 12:00,ZGOW 141200Z 09005MPS 7000 NSC 14/11 Q1018 NOSIG
ZGOW,2011-01-14 13:00,ZGOW 141300Z 08005MPS 8000 NSC 14/12 Q1019 NOSIG
ZGOW,2011-01-14 14:00,ZGOW 141400Z 07005MPS 8000 NSC 14/11 Q1019 NOSIG
ZGOW,2011-01-14 15:00,ZGOW 141500Z 06004MPS 7000 NSC 13/11 Q1019 NOSIG
ZGOW,2011-01-14 16:00,ZGOW 141600Z 05003MPS 6000 NSC 13/11 Q1019 NOSIG
ZGOW,2011-01-14 17:00,ZGOW 141700Z 02002MPS 6000 NSC 12/11 Q1019 NOSIG
ZGOW,2011-01-14 18:00,ZGOW 141800Z 06001MPS 4000 BR NSC 12/10 Q1019 NOSIG
ZGOW,2011-01-14 19:00,ZGOW 141900Z AUTO 02001MPS 3100 // NCD 12/11 Q1019
ZGOW,2011-01-14 20:00,ZGOW 142000Z 34001MPS 3000 BR SKC 12/10 Q1019 NOSIG
ZGOW,2011-01-14 21:00,ZGOW 142100Z 34003MPS 4000 BR SCT024 12/08 Q1020 NOSIG
ZGOW,2011-01-14 22:00,ZGOW 142200Z 35003MPS 4000 HZ SCT022 12/06 Q1021 NOSIG
ZGOW,2011-01-14 23:00,ZGOW 142300Z 34002MPS 5000 HZ SCT020 11/06 Q1021 NOSIG
ZGOW,2011-01-15 00:00,ZGOW 150000Z 34004MPS 6000 FEW024 11/06 Q1023 NOSIG
ZGOW,2011-01-15 01:00,ZGOW 150100Z 34004MPS 7000 SCT033 12/05 Q1024 NOSIG
ZGOW,2011-01-15 02:00,ZGOW 150200Z 33004MPS 7000 BKN033 13/05 Q1024 NOSIG
ZGOW,2011-01-15 03:00,ZGOW 150300Z 33004MPS 9999 BKN033 13/05 Q1024 NOSIG
ZGOW,2011-01-15 04:00,ZGOW 150400Z 34004MPS 9999 BKN033 15/05 Q1023 NOSIG
ZGOW,2011-01-15 05:00,ZGOW 150500Z 33006MPS 9999 BKN040 15/04 Q1022 NOSIG
ZGOW,2011-01-15 06:00,ZGOW 150600Z 32006MPS 9999 BKN040 14/04 Q1022 NOSIG
ZGOW,2011-01-15 07:00,ZGOW 150700Z 34005MPS 9999 BKN040 14/03 Q1021 NOSIG
ZGOW,2011-01-15 08:00,ZGOW 150800Z 34004MPS 9999 BKN040 13/03 Q1022 NOSIG
ZGOW,2011-01-15 09:00,ZGOW 150900Z 34003MPS 7000 BKN040 13/04 Q1022 NOSIG
ZGOW,2011-01-15 10:00,ZGOW 151000Z 35005MPS 7000 BKN040 12/03 Q1023 NOSIG
ZGOW,2011-01-15 11:00,ZGOW 151100Z 35004MPS 9999 BKN040 12/03 Q1024 NOSIG
ZGOW,2011-01-15 12:00,ZGOW 151200Z 35004MPS 9999 BKN040 11/02 Q1025 NOSIG
ZGOW,2011-01-15 13:00,ZGOW 151300Z 02003MPS 9999 BKN040 11/02 Q1025 NOSIG
ZGOW,2011-01-15 14:00,ZGOW 151400Z 02006MPS 9999 BKN040 11/01 Q1025 NOSIG
ZGOW,2011-01-15 15:00,ZGOW 151500Z 01005MPS 9999 BKN040 11/01 Q1026 NOSIG
ZGOW,2011-01-15 16:00,ZGOW 151600Z 01004MPS 9999 BKN040 10/01 Q1026 NOSIG
ZGOW,2011-01-15 17:00,ZGOW 151700Z 35002MPS 9999 BKN040 10/02 Q1026 NOSIG
ZGOW,2011-01-15 18:00,ZGOW 151800Z AUTO 35002MPS 8000 ////// 09/02 Q1026
ZGOW,2011-01-15 19:00,ZGOW 151900Z AUTO 35003MPS 8000 ////// 09/02 Q1025
ZGOW,2011-01-15 20:00,ZGOW 152000Z 35002MPS 7000 BKN040 08/02 Q1025 NOSIG
ZGOW,2011-01-15 21:00,ZGOW 152100Z 34002MPS 7000 NSC 07/01 Q1025 NOSIG
ZGOW,2011-01-15 22:00,ZGOW 152200Z 35002MPS 6000 NSC 07/01 Q1026 NOSIG
ZGOW,2011-01-15 23:00,ZGOW 152300Z 06001MPS 5000 HZ NSC 06/01 Q1027 NOSIG
ZGOW,2011-01-16 00:00,ZGOW 160000Z 04002MPS 6000 NSC 07/02 Q1027 NOSIG
ZGOW,2011-01-16 01:00,ZGOW 160100Z 04005MPS 7000 NSC 09/00 Q1028 NOSIG
ZGOW,2011-01-16 02:00,ZGOW 160200Z 06005MPS CAVOK 10/M00 Q1028 NOSIG
ZGOW,2011-01-16 03:00,ZGOW 160300Z 07005MPS CAVOK 10/M01 Q1027 NOSIG
ZGOW,2011-01-16 04:00,ZGOW 160400Z 08005MPS 9999 FEW020 11/M01 Q1027 NOSIG
ZGOW,2011-01-16 05:00,ZGOW 160500Z 09005MPS CAVOK 11/00 Q1025 NOSIG
ZGOW,2011-01-16 06:00,ZGOW 160600Z 09004MPS CAVOK 11/M01 Q1025 NOSIG
ZGOW,2011-01-16 07:00,ZGOW 160700Z 06004MPS CAVOK 12/M01 Q1024 NOSIG
ZGOW,2011-01-16 08:00,ZGOW 160800Z 08007MPS CAVOK 10/M00 Q1024 NOSIG
ZGOW,2011-01-16 09:00,ZGOW 160900Z 08007MPS CAVOK 10/00 Q1024 NOSIG
ZGOW,2011-01-16 10:00,ZGOW 161000Z 08008MPS CAVOK 09/M01 Q1024 NOSIG
ZGOW,2011-01-16 11:00,ZGOW 161100Z 08008G13MPS CAVOK 09/00 Q1025 NOSIG
ZGOW,2011-01-16 12:00,ZGOW 161200Z 07009MPS CAVOK 09/01 Q1026 NOSIG
ZGOW,2011-01-16 13:00,ZGOW 161300Z 07007G12MPS CAVOK 08/M02 Q1027 NOSIG
ZGOW,2011-01-16 14:00,ZGOW 161400Z 06009G14MPS CAVOK 08/M07 Q1027 NOSIG
ZGOW,2011-01-16 15:00,ZGOW 161500Z 06006G11MPS CAVOK 07/M08 Q1028 NOSIG
ZGOW,2011-01-16 16:00,ZGOW 161600Z 06007MPS CAVOK 07/M09 Q1028 NOSIG
ZGOW,2011-01-16 17:00,ZGOW 161700Z 03004MPS CAVOK 06/M06 Q1028 NOSIG
ZGOW,2011-01-16 18:00,ZGOW 161800Z AUTO 03004MPS CAVOK 05/M04 Q1027
ZGOW,2011-01-16 19:00,ZGOW 161900Z AUTO 04003MPS CAVOK 04/M05 Q1027
ZGOW,2011-01-16 20:00,ZGOW 162000Z 02003MPS CAVOK 05/M07 Q1027 NOSIG
ZGOW,2011-01-16 21:00,ZGOW 162100Z 36001MPS CAVOK 05/M06 Q1026 NOSIG
ZGOW,2011-01-16 23:00,ZGOW 162300Z 31002MPS CAVOK 05/M02 Q1027 NOSIG
ZGOW,2011-01-17 00:00,ZGOW 170000Z 00000MPS 7000 NSC 06/01 Q1027 NOSIG
ZGOW,2011-01-17 01:00,ZGOW 170100Z 04003MPS CAVOK 09/M02 Q1028 NOSIG
ZGOW,2011-01-17 02:00,ZGOW 170200Z 06005MPS CAVOK 11/00 Q1028 NOSIG
ZGOW,2011-01-17 03:00,ZGOW 170300Z 08007MPS CAVOK 12/03 Q1028 TEMPO 08008G13MPS
ZGOW,2011-01-17 04:00,ZGOW 170400Z 08007MPS CAVOK 12/02 Q1027 TEMPO 08008G13MPS
ZGOW,2011-01-17 05:00,ZGOW 170500Z 08006MPS CAVOK 13/03 Q1025 TEMPO 08008G13MPS
ZGOW,2011-01-17 06:00,ZGOW 170600Z 09005MPS CAVOK 13/03 Q1024 TEMPO 08008G13MPS
ZGOW,2011-01-17 07:00,ZGOW 170700Z 08005MPS CAVOK 14/04 Q1023 NOSIG
ZGOW,2011-01-17 08:00,ZGOW 170800Z 08005MPS CAVOK 13/05 Q1023 NOSIG
ZGOW,2011-01-17 09:00,ZGOW 170900Z 09005MPS CAVOK 12/06 Q1024 NOSIG
ZGOW,2011-01-17 10:00,ZGOW 171000Z 09005MPS CAVOK 11/06 Q1024 NOSIG
ZGOW,2011-01-17 11:00,ZGOW 171100Z 09004MPS CAVOK 11/06 Q1024 NOSIG
ZGOW,2011-01-17 12:00,ZGOW 171200Z 08006MPS CAVOK 11/06 Q1025 NOSIG
ZGOW,2011-01-17 13:00,ZGOW 171300Z 08009MPS CAVOK 11/05 Q1025 NOSIG
ZGOW,2011-01-17 14:00,ZGOW 171400Z 08007MPS CAVOK 11/05 Q1026 TEMPO 08008G13MPS
ZGOW,2011-01-17 15:00,ZGOW 171500Z 08007G12MPS CAVOK 11/06 Q1025 NOSIG
ZGOW,2011-01-17 16:00,ZGOW 171600Z 07009MPS CAVOK 11/05 Q1025 NOSIG
ZGOW,2011-01-17 17:00,ZGOW 171700Z 06008MPS CAVOK 11/06 Q1024 NOSIG
ZGOW,2011-01-17 18:00,ZGOW 171800Z AUTO 05006MPS 9999 ////// 10/05 Q1024
ZGOW,2011-01-17 19:00,ZGOW 171900Z AUTO 06004MPS 9999 ////// 10/06 Q1024
ZGOW,2011-01-17 20:00,ZGOW 172000Z 04003MPS CAVOK 09/05 Q1024 NOSIG
ZGOW,2011-01-17 21:00,ZGOW 172100Z 01002MPS CAVOK 08/05 Q1023 NOSIG
ZGOW,2011-01-17 22:00,ZGOW 172200Z 36001MPS 7000 NSC 09/05 Q1023 NOSIG
ZGOW,2011-01-17 23:00,ZGOW 172300Z 31001MPS 6000 NSC 09/05 Q1024 NOSIG
ZGOW,2011-01-18 00:00,ZGOW 180000Z 35001MPS 6000 NSC 10/05 Q1024 NOSIG
ZGOW,2011-01-18 01:00,ZGOW 180100Z 30002MPS 6000 NSC 11/06 Q1025 NOSIG
ZGOW,2011-01-18 02:00,ZGOW 180200Z 32003MPS 6000 NSC 12/06 Q1025 NOSIG
ZGOW,2011-01-18 03:00,ZGOW 180300Z 05004MPS CAVOK 15/06 Q1024 NOSIG
ZGOW,2011-01-18 04:00,ZGOW 180400Z 07004MPS CAVOK 16/07 Q1023 NOSIG
ZGOW,2011-01-18 05:00,ZGOW 180500Z 06004MPS CAVOK 16/08 Q1021 NOSIG
ZGOW,2011-01-18 06:00,ZGOW 180600Z 08004MPS CAVOK 17/08 Q1020 NOSIG
ZGOW,2011-01-18 07:00,ZGOW 180700Z 10005MPS CAVOK 17/09 Q1020 NOSIG
ZGOW,2011-01-18 08:00,ZGOW 180800Z 12003MPS CAVOK 16/09 Q1020 NOSIG
ZGOW,2011-01-18 09:00,ZGOW 180900Z 10003MPS 8000 NSC 15/09 Q1020 NOSIG
ZGOW,2011-01-18 10:00,ZGOW 181000Z 08004MPS 8000 NSC 14/09 Q1020 NOSIG
ZGOW,2011-01-18 11:00,ZGOW 181100Z 08005MPS 8000 NSC 13/10 Q1021 NOSIG
ZGOW,2011-01-18 12:00,ZGOW 181200Z 07005MPS 8000 NSC 13/10 Q1021 NOSIG
ZGOW,2011-01-18 13:00,ZGOW 181300Z 07005MPS 8000 NSC 13/10 Q1022 NOSIG
ZGOW,2011-01-18 14:00,ZGOW 181400Z 06004MPS 8000 NSC 13/10 Q1022 NOSIG
ZGOW,2011-01-18 15:00,ZGOW 181500Z 06004MPS 7000 NSC 13/10 Q1022 NOSIG
ZGOW,2011-01-18 16:00,ZGOW 181600Z 05004MPS 7000 NSC 13/10 Q1022 NOSIG
ZGOW,2011-01-18 17:00,ZGOW 181700Z 06002MPS 5000 BR NSC 13/10 Q1021 NOSIG
ZGOW,2011-01-18 18:00,ZGOW 181800Z AUTO 06003MPS 6000 NCD 12/10 Q1021
ZGOW,2011-01-18 19:00,ZGOW 181900Z AUTO 05002MPS 5000 NCD 12/10 Q1021
ZGOW,2011-01-18 20:00,ZGOW 182000Z 01002MPS 5000 BR NSC 12/10 Q1021 NOSIG
ZGOW,2011-01-18 21:00,ZGOW 182100Z 00000MPS 4000 BR NSC 11/09 Q1021 NOSIG
ZGOW,2011-01-18 22:00,ZGOW 182200Z 00000MPS 2500 BR NSC 10/08 Q1021 NOSIG
ZGOW,2011-01-18 23:00,ZGOW 182300Z 33002MPS 2200 BR NSC 11/08 Q1021 BECMG 4000 BR
ZGOW,2011-01-19 00:00,ZGOW 190000Z 29001MPS 2800 BR NSC 11/08 Q1021 BECMG 4000 BR
ZGOW,2011-01-19 01:00,ZGOW 190100Z 08003MPS 4000 BR FEW020 13/10 Q1021 NOSIG
ZGOW,2011-01-19 02:00,ZGOW 190200Z 05006MPS 9999 SCT020 16/10 Q1022 NOSIG
ZGOW,2011-01-19 03:00,ZGOW 190300Z 06005MPS 9999 SCT022 17/10 Q1021 NOSIG
ZGOW,2011-01-19 04:00,ZGOW 190400Z 06006MPS 9999 FEW022 18/11 Q1020 NOSIG
ZGOW,2011-01-19 05:00,ZGOW 190500Z 08006MPS CAVOK 18/11 Q1019 NOSIG
ZGOW,2011-01-19 06:00,ZGOW 190600Z 08007MPS CAVOK 18/11 Q1017 NOSIG
ZGOW,2011-01-19 07:00,ZGOW 190700Z 08007MPS CAVOK 18/11 Q1017 NOSIG
ZGOW,2011-01-19 08:00,ZGOW 190800Z 09006MPS CAVOK 17/10 Q1017 NOSIG
ZGOW,2011-01-19 09:00,ZGOW 190900Z 08005MPS CAVOK 16/11 Q1018 NOSIG
ZGOW,2011-01-19 10:00,ZGOW 191000Z 08006MPS CAVOK 15/11 Q1018 NOSIG
ZGOW,2011-01-19 11:00,ZGOW 191100Z 07006MPS CAVOK 14/10 Q1018 NOSIG
ZGOW,2011-01-19 12:00,ZGOW 191200Z 08007MPS CAVOK 14/11 Q1019 NOSIG
ZGOW,2011-01-19 13:00,ZGOW 191300Z 07008MPS CAVOK 13/11 Q1020 NOSIG
ZGOW,2011-01-19 14:00,ZGOW 191400Z 08008MPS 9999 SCT012 13/11 Q1020 NOSIG
ZGOW,2011-01-19 15:00,ZGOW 191500Z 07008G13MPS 9999 FEW012 13/10 Q1020 NOSIG
ZGOW,2011-01-19 16:00,ZGOW 191600Z 08006MPS 9999 FEW012 13/10 Q1020 NOSIG
ZGOW,2011-01-19 17:00,ZGOW 191700Z 07005MPS CAVOK 13/11 Q1020 NOSIG
ZGOW,2011-01-19 18:00,ZGOW 191800Z 05005MPS 9999 SCT040 13/10 Q1019 NOSIG
ZGOW,2011-01-19 19:00,ZGOW 191900Z AUTO 02003MPS 6000 ////// 12/10 Q1019
ZGOW,2011-01-19 20:00,ZGOW 192000Z 32001MPS 5000 BR FEW016 BKN040 12/10 Q1018 NOSIG
ZGOW,2011-01-19 21:00,ZGOW 192100Z 32002MPS 4000 BR FEW040 12/10 Q1018 NOSIG
ZGOW,2011-01-19 22:00,ZGOW 192200Z 30001MPS 3500 BR NSC 12/10 Q1019 NOSIG
ZGOW,2011-01-19 23:00,ZGOW 192300Z 00000MPS 2500 BR SCT033 13/11 Q1019 TEMPO 2100 BR
ZGOW,2011-01-20 00:00,ZGOW 200000Z 34002MPS 2000 -RA BR BKN033 13/11 Q1019 NOSIG
ZGOW,2011-01-20 01:00,ZGOW 200100Z 34001MPS 1600 -RA BR SCT020 BKN040 13/11 Q1020 TEMPO 1200 -RA BR
ZGOW,2011-01-20 02:00,ZGOW 200200Z 33003MPS 2200 -RA BR SCT026 BKN033 14/11 Q1020 NOSIG
ZGOW,2011-01-20 03:00,ZGOW 200300Z 33004MPS 2500 BR SCT022 BKN050 15/11 Q1020 NOSIG
ZGOW,2011-01-20 04:00,ZGOW 200400Z 34003MPS 2800 -RA BR SCT024 BKN040 14/10 Q1019 NOSIG
ZGOW,2011-01-20 05:00,ZGOW 200500Z 34001MPS 3200 BR SCT026 BKN040 15/11 Q1018 TEMPO 2100 -RA BR
ZGOW,2011-01-20 06:00,ZGOW 200600Z 09002MPS 3200 BR SCT026 BKN040 17/12 Q1017 NOSIG
ZGOW,2011-01-20 07:00,ZGOW 200700Z 08002MPS 2800 BR SCT026 BKN040 17/13 Q1016 NOSIG
ZGOW,2011-01-20 08:00,ZGOW 200800Z 06003MPS 4500 BR BKN040 16/12 Q1016 NOSIG
ZGOW,2011-01-20 09:00,ZGOW 200900Z 07003MPS 5000 BR BKN040 16/12 Q1017 NOSIG
ZGOW,2011-01-20 10:00,ZGOW 201000Z 03001MPS 3500 -RA BR BKN040 15/12 Q1017 NOSIG
ZGOW,2011-01-20 11:00,ZGOW 201100Z 02002MPS 3500 -RA BR SCT012 BKN040 14/13 Q1018 NOSIG
ZGOW,2011-01-20 12:00,ZGOW 201200Z 35002MPS 4000 BR SCT020 BKN040 14/10 Q1018 NOSIG
ZGOW,2011-01-20 13:00,ZGOW 201300Z 33003MPS 5000 HZ SCT014 BKN040 14/08 Q1019 NOSIG
ZGOW,2011-01-20 14:00,ZGOW 201400Z 32002MPS 5000 HZ SCT025 BKN050 13/08 Q1019 NOSIG
ZGOW,2011-01-20 15:00,ZGOW 201500Z 33003MPS 6000 SCT022 BKN040 13/08 Q1019 NOSIG
ZGOW,2011-01-20 16:00,ZGOW 201600Z 32003MPS 7000 SCT020 BKN040 12/07 Q1019 NOSIG
ZGOW,2011-01-20 17:00,ZGOW 201700Z 33005MPS 8000 SCT020 BKN050 12/07 Q1019 NOSIG
ZGOW,2011-01-20 18:00,ZGOW 201800Z 33004MPS 9000 SCT020 BKN050 12/06 Q1019 NOSIG
ZGOW,2011-01-20 19:00,ZGOW 201900Z 34004MPS 8000 SCT024 BKN050 11/06 Q1019 NOSIG
ZGOW,2011-01-20 20:00,ZGOW 202000Z 34004MPS 7000 SCT024 BKN050 10/06 Q1019 NOSIG
ZGOW,2011-01-20 21:00,ZGOW 202100Z 34005MPS 8000 SCT024 BKN050 10/05 Q1019 NOSIG
ZGOW,2011-01-20 22:00,ZGOW 202200Z 34003MPS 8000 SCT024 BKN050 10/05 Q1020 NOSIG
ZGOW,2011-01-20 23:00,ZGOW 202300Z 30003MPS 7000 SCT026 BKN050 10/05 Q1021 NOSIG
ZGOW,2011-01-21 00:00,ZGOW 210000Z 33005MPS 9999 SCT022 BKN050 10/05 Q1021 NOSIG
ZGOW,2011-01-21 01:00,ZGOW 210100Z 34005G11MPS 8000 SCT022 BKN050 10/05 Q1022 NOSIG
ZGOW,2011-01-21 02:00,ZGOW 210200Z 34004MPS 8000 SCT020 BKN050 10/05 Q1022 NOSIG
ZGOW,2011-01-21 03:00,ZGOW 210300Z 33003MPS 8000 SCT018 BKN050 11/05 Q1022 NOSIG
ZGOW,2011-01-21 04:00,ZGOW 210400Z 34002MPS 8000 SCT018 BKN050 12/05 Q1020 NOSIG
ZGOW,2011-01-21 05:00,ZGOW 210500Z 36003MPS 8000 SCT018 BKN050 13/06 Q1020 NOSIG
ZGOW,2011-01-21 06:00,ZGOW 210600Z 35003MPS 8000 SCT020 BKN050 14/06 Q1019 NOSIG
ZGOW,2011-01-21 07:00,ZGOW 210700Z 02002MPS 8000 SCT020 BKN050 15/06 Q1019 NOSIG
ZGOW,2011-01-21 08:00,ZGOW 210800Z 08003MPS 8000 BKN028 14/07 Q1019 NOSIG
ZGOW,2011-01-21 09:00,ZGOW 210900Z 06003MPS 8000 BKN030 13/07 Q1020 NOSIG
ZGOW,2011-01-21 10:00,ZGOW 211000Z 04005MPS 7000 BKN030 13/05 Q1020 NOSIG
ZGOW,2011-01-21 11:00,ZGOW 211100Z 04005MPS 7000 BKN030 13/05 Q1021 NOSIG
ZGOW,2011-01-21 12:00,ZGOW 211200Z 04003MPS 7000 BKN030 12/05 Q1021 NOSIG
ZGOW,2011-01-21 13:00,ZGOW 211300Z 05004MPS 7000 BKN026 12/06 Q1022 NOSIG
ZGOW,2011-01-21 14:00,ZGOW 211400Z 04003MPS 6000 SCT017 BKN026 12/06 Q1022 NOSIG
ZGOW,2011-01-21 15:00,ZGOW 211500Z 05002MPS 6000 SCT017 BKN033 11/08 Q1023 NOSIG
ZGOW,2011-01-21 16:00,ZGOW 211600Z 07001MPS 6000 BKN040 12/08 Q1022 NOSIG
ZGOW,2011-01-21 17:00,ZGOW 211700Z 06002MPS 6000 SCT017 BKN040 11/06 Q1022 NOSIG
ZGOW,2011-01-21 18:00,ZGOW 211800Z 34002MPS 7000 SCT017 BKN040 12/05 Q1022 NOSIG
ZGOW,2011-01-21 19:00,ZGOW 211900Z 35001MPS 7000 SCT017 BKN040 11/05 Q1022 NOSIG
ZGOW,2011-01-21 20:00,ZGOW 212000Z 02001MPS 6000 SCT017 BKN040 11/05 Q1022 NOSIG
ZGOW,2011-01-21 21:00,ZGOW 212100Z 04003MPS 6000 BKN040 11/05 Q1022 NOSIG
ZGOW,2011-01-21 22:00,ZGOW 212200Z 01001MPS 6000 BKN040 10/05 Q1023 NOSIG
ZGOW,2011-01-21 23:00,ZGOW 212300Z 36001MPS 6000 BKN030 10/05 Q1024 NOSIG
ZGOW,2011-01-22 00:00,ZGOW 220000Z 34001MPS 6000 BKN040 10/04 Q1024 NOSIG
ZGOW,2011-01-22 01:00,ZGOW 220100Z 35002MPS 6000 BKN033 11/05 Q1025 NOSIG
ZGOW,2011-01-22 02:00,ZGOW 220200Z 36002MPS 6000 BKN030 12/05 Q1025 NOSIG
ZGOW,2011-01-22 03:00,ZGOW 220300Z 35001MPS 5000 HZ BKN030 13/06 Q1024 NOSIG
ZGOW,2011-01-22 04:00,ZGOW 220400Z 06004MPS 6000 SCT018 BKN033 14/07 Q1023 NOSIG
ZGOW,2011-01-22 05:00,ZGOW 220500Z 08005MPS 7000 SCT018 BKN033 14/07 Q1022 NOSIG
ZGOW,2011-01-22 06:00,ZGOW 220600Z 07005MPS 8000 FEW018 BKN033 15/07 Q1021 NOSIG
ZGOW,2011-01-22 07:00,ZGOW 220700Z 04004MPS 8000 SCT028 15/07 Q1020 NOSIG
ZGOW,2011-01-22 08:00,ZGOW 220800Z 07004MPS 8000 SCT028 15/08 Q1020 NOSIG
ZGOW,2011-01-22 09:00,ZGOW 220900Z 08004MPS 8000 FEW028 14/07 Q1021 NOSIG
ZGOW,2011-01-22 10:00,ZGOW 221000Z 08004MPS 7000 BKN040 13/07 Q1021 NOSIG
ZGOW,2011-01-22 11:00,ZGOW 221100Z 08005MPS 6000 BKN036 13/08 Q1022 NOSIG
ZGOW,2011-01-22 12:00,ZGOW 221200Z 06006MPS 6000 BKN040 13/08 Q1022 NOSIG
ZGOW,2011-01-22 13:00,ZGOW 221300Z 06005MPS 6000 SCT040 13/08 Q1023 NOSIG
ZGOW,2011-01-22 14:00,ZGOW 221400Z 05005MPS 6000 SCT036 13/08 Q1024 NOSIG
ZGOW,2011-01-22 15:00,ZGOW 221500Z 05003MPS 6000 SCT033 13/08 Q1024 NOSIG
ZGOW,2011-01-22 16:00,ZGOW 221600Z 05003MPS 5000 HZ SCT033 13/08 Q1024 NOSIG
ZGOW,2011-01-22 17:00,ZGOW 221700Z 04002MPS 5000 HZ SCT040 13/08 Q1024 NOSIG
ZGOW,2011-01-22 19:00,ZGOW 221900Z AUTO 03001MPS 3100 // ////// 11/08 Q1023
ZGOW,2011-01-22 20:00,ZGOW 222000Z 02001MPS 3500 BR BKN040 11/08 Q1023 NOSIG
ZGOW,2011-01-22 21:00,ZGOW 222100Z 00000MPS 4000 BR NSC 11/07 Q1023 NOSIG
ZGOW,2011-01-22 22:00,ZGOW 222200Z 33001MPS 4000 BR NSC 10/06 Q1023 NOSIG
ZGOW,2011-01-22 23:00,ZGOW 222300Z 06001MPS 3000 BR NSC 09/07 Q1023 NOSIG
ZGOW,2011-01-23 00:00,ZGOW 230000Z 32002MPS 3500 BR SKC 11/07 Q1024 NOSIG
ZGOW,2011-01-23 01:00,ZGOW 230100Z 33003MPS 4500 HZ SKC 13/07 Q1024 NOSIG
ZGOW,2011-01-23 02:00,ZGOW 230200Z 32003MPS 6000 SKC 15/07 Q1024 NOSIG
ZGOW,2011-01-23 03:00,ZGOW 230300Z 36002MPS 6000 SKC 17/07 Q1023 NOSIG
ZGOW,2011-01-23 04:00,ZGOW 230400Z 02002MPS 5000 HZ SKC 18/07 Q1022 NOSIG
ZGOW,2011-01-23 05:00,ZGOW 230500Z 27002MPS 200V360 5000 HZ SKC 19/07 Q1021 NOSIG
ZGOW,2011-01-23 06:00,ZGOW 230600Z 13002MPS 5000 HZ SKC 20/09 Q1020 NOSIG
ZGOW,2011-01-23 07:00,ZGOW 230700Z 12005MPS 3500 HZ SKC 17/10 Q1020 NOSIG
ZGOW,2011-01-23 08:00,ZGOW 230800Z 12005MPS 4000 HZ SKC 16/11 Q1020 NOSIG
ZGOW,2011-01-23 09:00,ZGOW 230900Z 10003MPS 3500 BR SKC 15/11 Q1021 TEMPO 2500 BR
ZGOW,2011-01-23 10:00,ZGOW 231000Z 07003MPS 2800 BR SKC 14/10 Q1021 NOSIG
ZGOW,2011-01-23 11:00,ZGOW 231100Z 08004MPS 4500 BR SKC 14/10 Q1022 NOSIG
ZGOW,2011-01-23 12:00,ZGOW 231200Z 07007MPS 5000 BR SKC 13/10 Q1022 NOSIG
ZGOW,2011-01-23 13:00,ZGOW 231300Z 07006MPS 4000 BR SKC 13/10 Q1024 NOSIG
ZGOW,2011-01-23 14:00,ZGOW 231400Z 06006MPS 5000 BR SCT032 13/10 Q1024 NOSIG
ZGOW,2011-01-23 15:00,ZGOW 231500Z 06005MPS 5000 BR SCT050 13/09 Q1025 NOSIG
ZGOW,2011-01-23 16:00,ZGOW 231600Z 07004MPS 5000 BR BKN050 13/09 Q1025 NOSIG
ZGOW,2011-01-23 17:00,ZGOW 231700Z 06003MPS 7000 NSC 13/09 Q1025 NOSIG
ZGOW,2011-01-23 18:00,ZGOW 231800Z AUTO 07005MPS 3900 // NCD 13/09 Q1025
ZGOW,2011-01-23 19:00,ZGOW 231900Z AUTO 05003MPS 4100 // ////// 13/09 Q1024
ZGOW,2011-01-23 20:00,ZGOW 232000Z 04003MPS 6000 BKN050 12/06 Q1024 NOSIG
ZGOW,2011-01-23 21:00,ZGOW 232100Z 01002MPS 7000 SCT040 12/06 Q1024 NOSIG
ZGOW,2011-01-23 22:00,ZGOW 232200Z 36003MPS 6000 SCT020 11/06 Q1025 NOSIG
ZGOW,2011-01-23 23:00,ZGOW 232300Z 34002MPS 6000 BKN030 11/06 Q1025 NOSIG
ZGOW,2011-01-24 00:00,ZGOW 240000Z 34003MPS 6000 SCT022 11/05 Q1025 NOSIG
ZGOW,2011-01-24 01:00,ZGOW 240100Z 35002MPS 7000 SCT022 12/05 Q1025 NOSIG
ZGOW,2011-01-24 02:00,ZGOW 240200Z 34002MPS 6000 SCT020 BKN040 12/05 Q1026 NOSIG
ZGOW,2011-01-24 03:00,ZGOW 240300Z 34003MPS 6000 SCT020 BKN040 12/05 Q1026 NOSIG
ZGOW,2011-01-24 04:00,ZGOW 240400Z 34003MPS 5000 HZ SCT020 BKN040 12/05 Q1025 NOSIG
ZGOW,2011-01-24 05:00,ZGOW 240500Z 02002MPS 5000 HZ SCT020 BKN040 13/05 Q1024 NOSIG
ZGOW,2011-01-24 06:00,ZGOW 240600Z 04002MPS 5000 HZ NSC 13/06 Q1023 NOSIG
ZGOW,2011-01-24 07:00,ZGOW 240700Z 07002MPS 4000 HZ SCT020 13/07 Q1023 NOSIG
ZGOW,2011-01-24 08:00,ZGOW 240800Z 08003MPS 4000 HZ SCT020 13/07 Q1023 NOSIG
ZGOW,2011-01-24 09:00,ZGOW 240900Z 08004MPS 4000 HZ SCT020 13/07 Q1024 NOSIG
ZGOW,2011-01-24 10:00,ZGOW 241000Z 08004MPS 4000 HZ SCT020 12/06 Q1024 NOSIG
ZGOW,2011-01-24 11:00,ZGOW 241100Z 08004MPS 4000 HZ SCT020 12/06 Q1025 NOSIG
ZGOW,2011-01-24 12:00,ZGOW 241200Z 08003MPS 4000 HZ SCT033 12/07 Q1026 NOSIG
ZGOW,2011-01-24 13:00,ZGOW 241300Z 08004MPS 4000 HZ SCT033 12/07 Q1026 NOSIG
ZGOW,2011-01-24 14:00,ZGOW 241400Z 08005MPS 3200 HZ SCT033 12/07 Q1026 BECMG 2500 BR
ZGOW,2011-01-24 15:00,ZGOW 241500Z 07004MPS 3200 HZ SCT033 12/06 Q1027 BECMG 2500 BR
ZGOW,2011-01-24 16:00,ZGOW 241600Z 08005MPS 3200 HZ SCT033 11/05 Q1026 BECMG 2500 BR
ZGOW,2011-01-24 17:00,ZGOW 241700Z 06005MPS 3200 HZ SCT033 11/05 Q1026 BECMG 2500 BR
ZGOW,2011-01-24 18:00,ZGOW 241800Z AUTO 06005MPS 3100 // ////// 11/05 Q1027
ZGOW,2011-01-24 19:00,ZGOW 241900Z AUTO 04003MPS 3200 // NCD 11/05 Q1026
ZGOW,2011-01-24 20:00,ZGOW 242000Z 34001MPS 3500 HZ SCT033 11/06 Q1026 NOSIG
ZGOW,2011-01-24 21:00,ZGOW 242100Z 34001MPS 3500 HZ SCT033 11/06 Q1026 NOSIG
ZGOW,2011-01-24 22:00,ZGOW 242200Z 36001MPS 3500 HZ SCT033 10/06 Q1026 NOSIG
ZGOW,2011-01-24 23:00,ZGOW 242300Z 35001MPS 3200 HZ BKN050 10/06 Q1027 NOSIG
ZGOW,2011-01-25 00:00,ZGOW 250000Z 04002MPS 3500 BR NSC 11/07 Q1027 NOSIG
ZGOW,2011-01-25 01:00,ZGOW 250100Z 04003MPS 4000 HZ NSC 12/05 Q1027 NOSIG
ZGOW,2011-01-25 02:00,ZGOW 250200Z 07005MPS 4500 HZ NSC 14/05 Q1027 NOSIG
ZGOW,2011-01-25 03:00,ZGOW 250300Z 08005MPS 6000 NSC 14/04 Q1027 NOSIG
ZGOW,2011-01-25 04:00,ZGOW 250400Z 08005MPS 6000 NSC 15/06 Q1026 NOSIG
ZGOW,2011-01-25 05:00,ZGOW 250500Z 09005MPS 6000 NSC 16/07 Q1025 NOSIG
ZGOW,2011-01-25 06:00,ZGOW 250600Z 08004MPS 6000 SKC 16/07 Q1023 NOSIG
ZGOW,2011-01-25 07:00,ZGOW 250700Z 12004MPS 6000 SKC 15/09 Q1023 NOSIG
ZGOW,2011-01-25 08:00,ZGOW 250800Z 12003MPS 6000 SKC 15/08 Q1023 NOSIG
ZGOW,2011-01-25 09:00,ZGOW 250900Z 09004MPS 6000 SKC 14/08 Q1023 NOSIG
ZGOW,2011-01-25 10:00,ZGOW 251000Z 08005MPS 6000 SKC 13/08 Q1023 NOSIG
ZGOW,2011-01-25 11:00,ZGOW 251100Z 09004MPS 6000 SKC 12/08 Q1024 NOSIG
ZGOW,2011-01-25 12:00,ZGOW 251200Z 08004MPS 6000 SKC 12/08 Q1024 NOSIG
ZGOW,2011-01-25 13:00,ZGOW 251300Z 08004MPS 6000 NSC 12/08 Q1025 NOSIG
ZGOW,2011-01-25 14:00,ZGOW 251400Z 09004MPS 6000 SKC 12/08 Q1026 NOSIG
ZGOW,2011-01-25 15:00,ZGOW 251500Z 08005MPS 6000 SKC 12/08 Q1026 NOSIG
ZGOW,2011-01-25 16:00,ZGOW 251600Z 07005MPS 6000 SKC 12/08 Q1026 NOSIG
ZGOW,2011-01-25 17:00,ZGOW 251700Z 05003MPS 4000 BR SKC 10/07 Q1026 NOSIG
ZGOW,2011-01-25 20:00,ZGOW 252000Z 33002MPS 3200 BR SKC 10/07 Q1026 NOSIG
ZGOW,2011-01-25 21:00,ZGOW 252100Z 34002MPS 3500 BR SCT028 11/07 Q1026 NOSIG
ZGOW,2011-01-25 22:00,ZGOW 252200Z 34003MPS 3500 BR SCT026 11/07 Q1027 NOSIG
ZGOW,2011-01-25 23:00,ZGOW 252300Z 35001MPS 3500 BR BKN026 11/07 Q1027 NOSIG
ZGOW,2011-01-26 00:00,ZGOW 260000Z 00000MPS 3500 BR BKN028 11/07 Q1028 NOSIG
ZGOW,2011-01-26 01:00,ZGOW 260100Z 31001MPS 3200 BR BKN028 12/08 Q1028 NOSIG
ZGOW,2011-01-26 02:00,ZGOW 260200Z 32003MPS 3500 HZ BKN032 12/08 Q1028 NOSIG
ZGOW,2011-01-26 03:00,ZGOW 260300Z 06002MPS 3500 HZ BKN033 14/08 Q1027 NOSIG
ZGOW,2011-01-26 04:00,ZGOW 260400Z 08003MPS 4000 HZ BKN040 15/10 Q1026 NOSIG
ZGOW,2011-01-26 05:00,ZGOW 260500Z 07004MPS 5000 HZ BKN040 16/10 Q1025 NOSIG
ZGOW,2011-01-26 06:00,ZGOW 260600Z 07006MPS 6000 BKN040 16/09 Q1024 NOSIG
ZGOW,2011-01-26 07:00,ZGOW 260700Z 08006MPS 7000 BKN040 15/09 Q1023 NOSIG
ZGOW,2011-01-26 08:00,ZGOW 260800Z 08005MPS 7000 BKN040 16/09 Q1023 NOSIG
ZGOW,2011-01-26 09:00,ZGOW 260900Z 08004MPS 7000 NSC 15/09 Q1023 NOSIG
ZGOW,2011-01-26 10:00,ZGOW 261000Z 10003MPS 7000 NSC 14/09 Q1024 NOSIG
ZGOW,2011-01-26 11:00,ZGOW 261100Z 07009MPS CAVOK 13/09 Q1025 TEMPO 08010G15MPS
ZGOW,2011-01-26 12:00,ZGOW 261200Z 06008G13MPS CAVOK 13/09 Q1025 NOSIG
ZGOW,2011-01-26 13:00,ZGOW 261300Z 06007MPS CAVOK 13/09 Q1026 NOSIG
ZGOW,2011-01-26 14:00,ZGOW 261400Z 07005MPS CAVOK 14/09 Q1026 NOSIG
ZGOW,2011-01-26 15:00,ZGOW 261500Z 08006MPS CAVOK 14/09 Q1026 NOSIG
ZGOW,2011-01-26 16:00,ZGOW 261600Z 07007MPS CAVOK 13/09 Q1026 NOSIG
ZGOW,2011-01-26 17:00,ZGOW 261700Z 05004MPS CAVOK 13/09 Q1026 NOSIG
ZGOW,2011-01-26 18:00,ZGOW 261800Z AUTO 07001MPS 5000 ////// 13/09 Q1026
ZGOW,2011-01-26 19:00,ZGOW 261900Z AUTO 09001MPS 5000 ////// 13/09 Q1026
ZGOW,2011-01-26 20:00,ZGOW 262000Z 05002MPS 5000 BR NSC 13/10 Q1026 NOSIG
ZGOW,2011-01-26 21:00,ZGOW 262100Z 05001MPS 5000 BR NSC 13/10 Q1026 NOSIG
ZGOW,2011-01-26 22:00,ZGOW 262200Z 03001MPS 4000 BR NSC 13/10 Q1026 NOSIG
ZGOW,2011-01-26 23:00,ZGOW 262300Z 00000MPS 4000 BR NSC 13/10 Q1027 NOSIG
ZGOW,2011-01-27 00:00,ZGOW 270000Z 00000MPS 5000 BR NSC 13/10 Q1027 NOSIG
ZGOW,2011-01-27 01:00,ZGOW 270100Z 06004MPS CAVOK 15/10 Q1027 NOSIG
ZGOW,2011-01-27 02:00,ZGOW 270200Z 07006MPS CAVOK 17/10 Q1027 NOSIG
ZGOW,2011-01-27 03:00,ZGOW 270300Z 07006MPS CAVOK 17/10 Q1026 NOSIG
ZGOW,2011-01-27 04:00,ZGOW 270400Z 08006MPS CAVOK 18/10 Q1025 NOSIG
ZGOW,2011-01-27 05:00,ZGOW 270500Z 08007MPS CAVOK 18/10 Q1024 NOSIG
ZGOW,2011-01-27 06:00,ZGOW 270600Z 08007MPS CAVOK 19/11 Q1023 NOSIG
ZGOW,2011-01-27 07:00,ZGOW 270700Z 13004MPS CAVOK 17/11 Q1023 NOSIG
ZGOW,2011-01-27 08:00,ZGOW 270800Z 13004MPS CAVOK 17/11 Q1023 NOSIG
ZGOW,2011-01-27 09:00,ZGOW 270900Z 09006MPS CAVOK 16/10 Q1023 NOSIG
ZGOW,2011-01-27 10:00,ZGOW 271000Z 07007MPS CAVOK 15/10 Q1023 NOSIG
ZGOW,2011-01-27 11:00,ZGOW 271100Z 06008G13MPS CAVOK 15/10 Q1024 NOSIG
ZGOW,2011-01-27 12:00,ZGOW 271200Z 07007MPS CAVOK 15/10 Q1025 NOSIG
ZGOW,2011-01-27 13:00,ZGOW 271300Z 07006MPS CAVOK 14/10 Q1026 NOSIG
ZGOW,2011-01-27 14:00,ZGOW 271400Z 08006MPS CAVOK 14/10 Q1026 NOSIG
ZGOW,2011-01-27 15:00,ZGOW 271500Z 07005MPS CAVOK 14/10 Q1026 NOSIG
ZGOW,2011-01-27 16:00,ZGOW 271600Z 07003MPS CAVOK 14/10 Q1025 NOSIG
ZGOW,2011-01-27 17:00,ZGOW 271700Z 05002MPS CAVOK 14/10 Q1025 NOSIG
ZGOW,2011-01-27 18:00,ZGOW 271800Z AUTO 04002MPS 5000 ////// 14/10 Q1025
ZGOW,2011-01-27 19:00,ZGOW 271900Z AUTO 00000MPS 4700 // ////// 14/10 Q1024
ZGOW,2011-01-27 20:00,ZGOW 272000Z 30001MPS 5000 BR BKN033 14/10 Q1024 NOSIG
ZGOW,2011-01-27 21:00,ZGOW 272100Z 34001MPS 4000 BR NSC 14/10 Q1023 NOSIG
ZGOW,2011-01-27 22:00,ZGOW 272200Z 32002MPS 3500 BR NSC 14/11 Q1024 TEMPO 3000 BR
ZGOW,2011-01-27 23:00,ZGOW 272300Z 36001MPS 2800 BR NSC 14/11 Q1025 NOSIG
ZGOW,2011-01-28 00:00,ZGOW 280000Z 32003MPS 4000 HZ NSC 15/10 Q1026 NOSIG
ZGOW,2011-01-28 01:00,ZGOW 280100Z 34003MPS 6000 NSC 15/09 Q1026 NOSIG
ZGOW,2011-01-28 02:00,ZGOW 280200Z 32004MPS 6000 BKN033 16/09 Q1027 NOSIG
ZGOW,2011-01-28 03:00,ZGOW 280300Z 33004MPS 7000 FEW033 17/09 Q1026 NOSIG
ZGOW,2011-01-28 04:00,ZGOW 280400Z 34005MPS 7000 FEW033 16/08 Q1025 NOSIG
ZGOW,2011-01-28 05:00,ZGOW 280500Z 33005MPS 8000 NSC 17/08 Q1024 NOSIG
ZGOW,2011-01-28 06:00,ZGOW 280600Z 32004MPS CAVOK 18/09 Q1023 NOSIG
ZGOW,2011-01-28 07:00,ZGOW 280700Z 32003MPS CAVOK 18/08 Q1022 NOSIG
ZGOW,2011-01-28 08:00,ZGOW 280800Z 09003MPS CAVOK 17/11 Q1022 NOSIG
ZGOW,2011-01-28 09:00,ZGOW 280900Z 12002MPS CAVOK 15/11 Q1022 NOSIG
ZGOW,2011-01-28 10:00,ZGOW 281000Z 06003MPS CAVOK 14/10 Q1023 NOSIG
ZGOW,2011-01-28 11:00,ZGOW 281100Z 05003MPS CAVOK 13/10 Q1024 NOSIG
ZGOW,2011-01-28 12:00,ZGOW 281200Z 05003MPS 9999 BKN028 13/10 Q1025 NOSIG
ZGOW,2011-01-28 13:00,ZGOW 281300Z 04003MPS 9999 SCT020 BKN040 13/10 Q1025 NOSIG
ZGOW,2011-01-28 14:00,ZGOW 281400Z 33004MPS 9999 BKN033 13/05 Q1025 NOSIG
ZGOW,2011-01-28 15:00,ZGOW 281500Z 33004MPS 9999 BKN033 12/05 Q1026 NOSIG
ZGOW,2011-01-28 16:00,ZGOW 281600Z 34004MPS 9999 BKN033 12/05 Q1026 NOSIG
ZGOW,2011-01-28 17:00,ZGOW 281700Z 33005MPS 9999 BKN033 11/04 Q1026 NOSIG
ZGOW,2011-01-28 18:00,ZGOW 281800Z AUTO 34005MPS 5000 ////// 11/04 Q1026
ZGOW,2011-01-28 19:00,ZGOW 281900Z AUTO 34006MPS 5000 ////// 11/04 Q1026
ZGOW,2011-01-28 20:00,ZGOW 282000Z 34004MPS 9999 SCT040 10/04 Q1026 NOSIG
ZGOW,2011-01-28 21:00,ZGOW 282100Z 33006G11MPS 9999 SCT043 10/03 Q1026 NOSIG
ZGOW,2011-01-28 22:00,ZGOW 282200Z 34004MPS 9999 BKN043 09/03 Q1027 NOSIG
ZGOW,2011-01-28 23:00,ZGOW 282300Z 34004MPS 9999 BKN043 09/03 Q1027 NOSIG
ZGOW,2011-01-29 00:00,ZGOW 290000Z 34005G10MPS 9999 SCT043 09/02 Q1029 NOSIG
ZGOW,2011-01-29 01:00,ZGOW 290100Z 33004MPS 9999 SCT016 BKN030 10/02 Q1029 NOSIG
ZGOW,2011-01-29 02:00,ZGOW 290200Z 33003MPS 9999 SCT026 10/03 Q1029 NOSIG
ZGOW,2011-01-29 03:00,ZGOW 290300Z 34003MPS CAVOK 13/03 Q1028 NOSIG
ZGOW,2011-01-29 04:00,ZGOW 290400Z 32003MPS CAVOK 14/03 Q1027 NOSIG
ZGOW,2011-01-29 05:00,ZGOW 290500Z 32003MPS CAVOK 15/04 Q1026 NOSIG
ZGOW,2011-01-29 06:00,ZGOW 290600Z 08003MPS 9999 SCT040 15/05 Q1025 NOSIG
ZGOW,2011-01-29 07:00,ZGOW 290700Z 09004MPS CAVOK 15/04 Q1024 NOSIG
ZGOW,2011-01-29 08:00,ZGOW 290800Z 10004MPS CAVOK 14/08 Q1024 NOSIG
ZGOW,2011-01-29 09:00,ZGOW 290900Z 08006MPS CAVOK 13/07 Q1025 NOSIG
ZGOW,2011-01-29 10:00,ZGOW 291000Z 08005MPS 8000 NSC 12/07 Q1025 NOSIG
ZGOW,2011-01-29 11:00,ZGOW 291100Z 06007MPS 8000 NSC 12/07 Q1026 NOSIG
ZGOW,2011-01-29 12:00,ZGOW 291200Z 08007MPS 8000 NSC 11/06 Q1027 NOSIG
ZGOW,2011-01-29 13:00,ZGOW 291300Z 07005MPS 8000 SCT022 11/07 Q1028 NOSIG
ZGOW,2011-01-29 14:00,ZGOW 291400Z 05004MPS 8000 SCT024 10/03 Q1028 NOSIG
ZGOW,2011-01-29 15:00,ZGOW 291500Z 02003MPS 8000 BKN022 10/03 Q1029 NOSIG
ZGOW,2011-01-29 16:00,ZGOW 291600Z 34003MPS 8000 BKN026 09/02 Q1029 NOSIG
ZGOW,2011-01-29 17:00,ZGOW 291700Z 34003MPS 8000 BKN026 09/02 Q1029 NOSIG
ZGOW,2011-01-29 18:00,ZGOW 291800Z AUTO 34003MPS 5000 ////// 08/02 Q1029
ZGOW,2011-01-29 19:00,ZGOW 291900Z AUTO 35002MPS 5000 ////// 08/02 Q1028
ZGOW,2011-01-29 20:00,ZGOW 292000Z 35002MPS 8000 SCT020 08/02 Q1028 NOSIG
ZGOW,2011-01-29 21:00,ZGOW 292100Z 34003MPS 8000 NSC 08/02 Q1028 NOSIG
ZGOW,2011-01-29 22:00,ZGOW 292200Z 34003MPS 8000 NSC 08/01 Q1028 NOSIG
ZGOW,2011-01-29 23:00,ZGOW 292300Z 35003MPS 8000 NSC 08/02 Q1029 NOSIG
ZGOW,2011-01-30 00:00,ZGOW 300000Z 35003MPS 8000 -RA SCT022 08/02 Q1029 NOSIG
ZGOW,2011-01-30 01:00,ZGOW 300100Z 36003MPS CAVOK 10/02 Q1029 BECMG TL0200 06005MPS
ZGOW,2011-01-30 02:00,ZGOW 300200Z 04004MPS CAVOK 12/02 Q1029 NOSIG
ZGOW,2011-01-30 03:00,ZGOW 300300Z 07004MPS CAVOK 13/03 Q1029 NOSIG
ZGOW,2011-01-30 04:00,ZGOW 300400Z 06005MPS CAVOK 14/03 Q1028 NOSIG
ZGOW,2011-01-30 05:00,ZGOW 300500Z 07005MPS CAVOK 15/03 Q1026 NOSIG
ZGOW,2011-01-30 06:00,ZGOW 300600Z 08005MPS CAVOK 15/05 Q1026 NOSIG
ZGOW,2011-01-30 07:00,ZGOW 300700Z 08004MPS CAVOK 15/04 Q1025 NOSIG
ZGOW,2011-01-30 08:00,ZGOW 300800Z 08005MPS 7000 SKC 14/04 Q1025 NOSIG
ZGOW,2011-01-30 09:00,ZGOW 300900Z 09005MPS 5000 HZ SKC 13/05 Q1025 NOSIG
ZGOW,2011-01-30 10:00,ZGOW 301000Z 09005MPS 4000 HZ NSC 12/06 Q1026 NOSIG
ZGOW,2011-01-30 11:00,ZGOW 301100Z 08006MPS 4000 HZ NSC 11/06 Q1027 TEMPO 08007G12MPS
ZGOW,2011-01-30 12:00,ZGOW 301200Z 07010MPS 4000 HZ NSC 11/06 Q1027 TEMPO 08007G12MPS
ZGOW,2011-01-30 13:00,ZGOW 301300Z 07010MPS 4000 HZ NSC 11/06 Q1028 NOSIG
ZGOW,2011-01-30 14:00,ZGOW 301400Z 07008MPS 3500 HZ NSC 11/05 Q1028 NOSIG
ZGOW,2011-01-30 15:00,ZGOW 301500Z 06006MPS 3500 HZ NSC 10/05 Q1029 NOSIG
ZGOW,2011-01-30 16:00,ZGOW 301600Z 06003MPS 3500 HZ NSC 10/04 Q1029 NOSIG
ZGOW,2011-01-30 17:00,ZGOW 301700Z 06002MPS 3500 HZ NSC 10/04 Q1029 NOSIG
ZGOW,2011-01-30 18:00,ZGOW 301800Z 02002MPS 3500 HZ NSC 10/04 Q1029 NOSIG
ZGOW,2011-01-30 19:00,ZGOW 301900Z AUTO 36002MPS 2700 // ////// 10/04 Q1028
ZGOW,2011-01-30 20:00,ZGOW 302000Z 35002MPS 7000 NSC 10/02 Q1028 NOSIG
ZGOW,2011-01-30 21:00,ZGOW 302100Z 35001MPS 7000 NSC 09/02 Q1028 NOSIG
ZGOW,2011-01-30 23:00,ZGOW 302300Z 04003MPS 4000 HZ NSC 09/04 Q1028 NOSIG
ZGOW,2011-01-31 00:00,ZGOW 310000Z 05003MPS 4000 HZ NSC 10/03 Q1029 NOSIG
ZGOW,2011-01-31 01:00,ZGOW 310100Z 07003MPS 4000 HZ NSC 10/03 Q1029 NOSIG
ZGOW,2011-01-31 02:00,ZGOW 310200Z 07004MPS 4000 HZ NSC 11/03 Q1029 NOSIG
ZGOW,2011-01-31 03:00,ZGOW 310300Z 04003MPS 6000 NSC 12/02 Q1029 NOSIG
ZGOW,2011-01-31 04:00,ZGOW 310400Z 06006MPS 6000 NSC 14/02 Q1027 NOSIG
ZGOW,2011-01-31 05:00,ZGOW 310500Z 07005MPS 7000 NSC 14/02 Q1026 NOSIG
ZGOW,2011-01-31 06:00,ZGOW 310600Z 07004MPS 7000 NSC 15/02 Q1025 NOSIG
ZGOW,2011-01-31 07:00,ZGOW 310700Z 09006MPS 7000 NSC 14/02 Q1024 NOSIG
ZGOW,2011-01-31 08:00,ZGOW 310800Z 08007MPS CAVOK 14/03 Q1023 NOSIG
ZGOW,2011-01-31 09:00,ZGOW 310900Z 09006MPS CAVOK 12/04 Q1024 NOSIG
ZGOW,2011-01-31 10:00,ZGOW 311000Z 08006MPS CAVOK 11/05 Q1024 TEMPO 06007G12MPS
ZGOW,2011-01-31 11:00,ZGOW 311100Z 09006MPS CAVOK 11/06 Q1025 TEMPO 06007G12MPS
ZGOW,2011-01-31 12:00,ZGOW 311200Z 09005G10MPS CAVOK 11/06 Q1025 NOSIG
ZGOW,2011-01-31 13:00,ZGOW 311300Z 07008MPS CAVOK 11/06 Q1026 NOSIG
ZGOW,2011-01-31 14:00,ZGOW 311400Z 07007G12MPS CAVOK 11/06 Q1026 NOSIG
ZGOW,2011-01-31 15:00,ZGOW 311500Z 07007MPS CAVOK 10/05 Q1026 NOSIG
ZGOW,2011-01-31 16:00,ZGOW 311600Z 07007MPS CAVOK 10/05 Q1026 NOSIG
ZGOW,2011-01-31 17:00,ZGOW 311700Z 06006MPS CAVOK 10/05 Q1026 NOSIG
ZGOW,2011-01-31 19:00,ZGOW 311900Z AUTO 05005MPS 5000 ////// 10/04 Q1025
ZGOW,2011-01-31 20:00,ZGOW 312000Z 01002MPS 5000 HZ SKC 09/05 Q1021 NOSIG
ZGOW,2011-01-31 21:00,ZGOW 312100Z 03002MPS 5000 BR SKC 07/04 Q1021 NOSIG
ZGOW,2011-01-31 22:00,ZGOW 312200Z 34003MPS 7000 NSC 09/03 Q1024 NOSIG
ZGOW,2011-01-31 23:00,ZGOW 312300Z 33001MPS 5000 HZ NSC 08/04 Q1025 NOSIG
ZGOW,2011-02-01 00:00,ZGOW 010000Z 31003MPS 4000 HZ FEW050 09/05 Q1025 NOSIG
ZGOW,2011-02-01 01:00,ZGOW 010100Z 31002MPS 3500 HZ BKN040 11/05 Q1026 NOSIG
ZGOW,2011-02-01 02:00,ZGOW 010200Z 32002MPS 3500 HZ BKN050 12/05 Q1026 NOSIG
ZGOW,2011-02-01 03:00,ZGOW 010300Z 34003MPS 4000 HZ NSC 14/04 Q1025 NOSIG
ZGOW,2011-02-01 04:00,ZGOW 010400Z 02002MPS 5000 HZ NSC 16/05 Q1024 NOSIG
ZGOW,2011-02-01 05:00,ZGOW 010500Z 05001MPS 5000 HZ NSC 18/04 Q1023 NOSIG
ZGOW,2011-02-01 06:00,ZGOW 010600Z 06003MPS 7000 NSC 17/05 Q1021 NOSIG
ZGOW,2011-02-01 07:00,ZGOW 010700Z 13004MPS 8000 NSC 15/08 Q1020 NOSIG
ZGOW,2011-02-01 08:00,ZGOW 010800Z 13004MPS 8000 SKC 14/08 Q1020 NOSIG
ZGOW,2011-02-01 09:00,ZGOW 010900Z 11004MPS 7000 SKC 13/08 Q1021 NOSIG
ZGOW,2011-02-01 10:00,ZGOW 011000Z 11003MPS 5000 BR SKC 12/08 Q1022 NOSIG
ZGOW,2011-02-01 11:00,ZGOW 011100Z 08002MPS 5000 BR SKC 12/08 Q1022 NOSIG
ZGOW,2011-02-01 12:00,ZGOW 011200Z 08004MPS 5000 BR SKC 12/08 Q1023 NOSIG
ZGOW,2011-02-01 13:00,ZGOW 011300Z 07004MPS 5000 BR SKC 12/08 Q1023 NOSIG
ZGOW,2011-02-01 14:00,ZGOW 011400Z 07004MPS 4000 BR NSC 11/08 Q1023 NOSIG
ZGOW,2011-02-01 15:00,ZGOW 011500Z 06005MPS 4000 BR NSC 12/09 Q1024 NOSIG
ZGOW,2011-02-01 16:00,ZGOW 011600Z 06004MPS 4000 BR NSC 12/09 Q1024 NOSIG
ZGOW,2011-02-01 17:00,ZGOW 011700Z 04004MPS 3500 BR NSC 11/08 Q1023 NOSIG
ZGOW,2011-02-01 18:00,ZGOW 011800Z 04003MPS 3500 BR NSC 11/08 Q1023 NOSIG
ZGOW,2011-02-01 19:00,ZGOW 011900Z AUTO 32001MPS 2600 // ////// 12/08 Q1022
ZGOW,2011-02-01 20:00,ZGOW 012000Z 32001MPS 3500 BR NSC 11/08 Q1022 NOSIG
ZGOW,2011-02-01 21:00,ZGOW 012100Z 35001MPS 3500 BR NSC 11/08 Q1021 NOSIG
ZGOW,2011-02-01 22:00,ZGOW 012200Z 34001MPS 3500 BR NSC 11/07 Q1022 NOSIG
ZGOW,2011-02-01 23:00,ZGOW 012300Z 34002MPS 4000 HZ NSC 11/04 Q1022 NOSIG
ZGOW,2011-02-02 00:00,ZGOW 020000Z 34003MPS 3500 HZ NSC 11/05 Q1023 NOSIG
ZGOW,2011-02-02 01:00,ZGOW 020100Z 34003MPS 7000 NSC 13/05 Q1023 NOSIG
ZGOW,2011-02-02 02:00,ZGOW 020200Z 03002MPS 5000 HZ NSC 14/05 Q1024 NOSIG
ZGOW,2011-02-02 03:00,ZGOW 020300Z 08003MPS 5000 HZ NSC 15/06 Q1023 NOSIG
ZGOW,2011-02-02 04:00,ZGOW 020400Z 12003MPS 5000 HZ NSC 15/09 Q1023 NOSIG
ZGOW,2011-02-02 05:00,ZGOW 020500Z 14003MPS 5000 HZ NSC 16/09 Q1021 NOSIG
ZGOW,2011-02-02 06:00,ZGOW 020600Z 14003MPS 5000 HZ NSC 16/08 Q1020 NOSIG
ZGOW,2011-02-02 07:00,ZGOW 020700Z 14003MPS 5000 HZ SKC 16/08 Q1020 NOSIG
ZGOW,2011-02-02 08:00,ZGOW 020800Z 12004MPS 5000 HZ SKC 15/08 Q1020 NOSIG
ZGOW,2011-02-02 09:00,ZGOW 020900Z 13004MPS 5000 HZ SKC 14/09 Q1020 NOSIG
ZGOW,2011-02-02 10:00,ZGOW 021000Z 09002MPS 5000 BR SKC 13/09 Q1020 NOSIG
ZGOW,2011-02-02 11:00,ZGOW 021100Z 06006MPS 5000 BR SKC 12/08 Q1020 NOSIG
ZGOW,2011-02-02 12:00,ZGOW 021200Z 07006MPS 5000 BR SKC 12/08 Q1021 NOSIG
ZGOW,2011-02-02 13:00,ZGOW 021300Z AUTO 07004MPS 4800 // NCD 11/08 Q1022
ZGOW,2011-02-02 14:00,ZGOW 021400Z AUTO 08005MPS 5000 NCD 11/06 Q1023
ZGOW,2011-02-02 15:00,ZGOW 021500Z AUTO 08005MPS 5000 NCD 11/06 Q1023
ZGOW,2011-02-02 16:00,ZGOW 021600Z AUTO 09005MPS 5000 NCD 11/06 Q1023
ZGOW,2011-02-02 17:00,ZGOW 021700Z AUTO 07005MPS 4500 // NCD 11/07 Q1023
ZGOW,2011-02-02 18:00,ZGOW 021800Z AUTO 04003MPS 3000 // NCD 10/06 Q1022
ZGOW,2011-02-02 19:00,ZGOW 021900Z AUTO 32001MPS 3100 // NCD 10/06 Q1021
ZGOW,2011-02-02 20:00,ZGOW 022000Z 31002MPS 4000 BR SKC 09/06 Q1021 NOSIG
ZGOW,2011-02-02 21:00,ZGOW 022100Z 32003MPS 2800 BR SKC 10/07 Q1021 NOSIG
ZGOW,2011-02-02 22:00,ZGOW 022200Z 32003MPS 2500 BR SKC 09/07 Q1021 BECMG 3000 BR
ZGOW,2011-02-02 23:00,ZGOW 022300Z 30002MPS 2200 BR SKC 09/07 Q1022 BECMG 3000 BR
ZGOW,2011-02-03 00:00,ZGOW 030000Z 32003MPS 2500 BR SKC 10/08 Q1022 BECMG 3000 BR
ZGOW,2011-02-03 01:00,ZGOW 030100Z 33003MPS 2500 BR SKC 12/08 Q1023 BECMG 3500 BR
ZGOW,2011-02-03 02:00,ZGOW 030200Z 33003MPS 3000 HZ SKC 14/08 Q1023 NOSIG
ZGOW,2011-02-03 03:00,ZGOW 030300Z 01002MPS 4000 HZ SKC 17/08 Q1022 NOSIG
ZGOW,2011-02-03 04:00,ZGOW 030400Z 06002MPS 6000 SKC 18/08 Q1021 NOSIG
ZGOW,2011-02-03 05:00,ZGOW 030500Z 10003MPS 6000 SKC 18/09 Q1020 NOSIG
ZGOW,2011-02-03 06:00,ZGOW 030600Z 10003MPS 6000 SKC 19/08 Q1019 NOSIG
ZGOW,2011-02-03 07:00,ZGOW 030700Z 12004MPS 6000 SKC 18/10 Q1018 NOSIG
ZGOW,2011-02-03 08:00,ZGOW 030800Z 12005MPS 6000 SKC 16/10 Q1018 NOSIG
ZGOW,2011-02-03 09:00,ZGOW 030900Z 11004MPS 5000 HZ SKC 15/10 Q1018 NOSIG
ZGOW,2011-02-03 10:00,ZGOW 031000Z 12002MPS 3500 BR SKC 14/10 Q1019 NOSIG
ZGOW,2011-02-03 11:00,ZGOW 031100Z 00000MPS 3500 BR SKC 13/10 Q1019 TEMPO 2500 BR
ZGOW,2011-02-03 12:00,ZGOW 031200Z 00000MPS 3500 BR SKC 13/10 Q1020 TEMPO 2500 BR
ZGOW,2011-02-03 13:00,ZGOW 031300Z 06003MPS 3200 BR SKC 12/09 Q1021 NOSIG
ZGOW,2011-02-03 14:00,ZGOW 031400Z 06002MPS 3200 BR SKC 11/09 Q1021 TEMPO 2500 BR
ZGOW,2011-02-03 15:00,ZGOW 031500Z 04003MPS 3200 BR SKC 11/08 Q1021 TEMPO 2500 BR
ZGOW,2011-02-03 16:00,ZGOW 031600Z 04004MPS 3000 BR SKC 11/09 Q1021 NOSIG
ZGOW,2011-02-03 17:00,ZGOW 031700Z 04004MPS 3000 BR SKC 11/08 Q1020 NOSIG
ZGOW,2011-02-03 20:00,ZGOW 032000Z 32002MPS 2500 BR SKC 11/09 Q1019 NOSIG
ZGOW,2011-02-03 21:00,ZGOW 032100Z 32002MPS 2200 BR SKC 11/09 Q1018 TEMPO 1500 BR
ZGOW,2011-02-03 22:00,ZGOW 032200Z 32001MPS 1800 BR SKC 10/09 Q1019 TEMPO 1500 BR
ZGOW,2011-02-03 23:00,ZGOW 032300Z 32001MPS 1500 R04/1400N BR SKC 10/08 Q1019 NOSIG
ZGOW,2011-02-04 00:00,ZGOW 040000Z 31001MPS 2000 BR SKC 11/09 Q1019 TEMPO 3200 BR
ZGOW,2011-02-04 01:00,ZGOW 040100Z 32002MPS 3000 BR SKC 13/10 Q1020 NOSIG
ZGOW,2011-02-04 02:00,ZGOW 040200Z 33002MPS 4000 HZ SKC 15/10 Q1020 NOSIG
ZGOW,2011-02-04 03:00,ZGOW 040300Z 07001MPS 5000 HZ SKC 18/10 Q1019 NOSIG
ZGOW,2011-02-04 04:00,ZGOW 040400Z 11002MPS 6000 SKC 20/11 Q1018 NOSIG
ZGOW,2011-02-04 05:00,ZGOW 040500Z 10002MPS CAVOK 19/10 Q1017 NOSIG
ZGOW,2011-02-04 06:00,ZGOW 040600Z 15002MPS CAVOK 20/11 Q1016 NOSIG
ZGOW,2011-02-04 07:00,ZGOW 040700Z 14004MPS CAVOK 19/11 Q1015 NOSIG
ZGOW,2011-02-04 08:00,ZGOW 040800Z 14004MPS CAVOK 18/10 Q1015 NOSIG
ZGOW,2011-02-04 09:00,ZGOW 040900Z 13003MPS 7000 SKC 16/10 Q1015 NOSIG
ZGOW,2011-02-04 10:00,ZGOW 041000Z 14002MPS 6000 NSC 15/10 Q1016 NOSIG
ZGOW,2011-02-04 11:00,ZGOW 041100Z 11002MPS 4000 BR NSC 14/10 Q1017 NOSIG
ZGOW,2011-02-04 12:00,ZGOW 041200Z 00000MPS 4000 BR NSC 13/10 Q1018 NOSIG
ZGOW,2011-02-04 13:00,ZGOW 041300Z 00000MPS 3500 BR SKC 14/11 Q1018 NOSIG
ZGOW,2011-02-04 14:00,ZGOW 041400Z 00000MPS 3000 R04/1400V1600N BR FU NSC 13/10 Q1019 TEMPO 1800 BR FU
ZGOW,2011-02-04 15:00,ZGOW 041500Z 02001MPS 2500 R04/1400V1800D BR FU NSC 12/10 Q1019 TEMPO 1800 BR FU
ZGOW,2011-02-04 16:00,ZGOW 041600Z 02001MPS 3000 BR NSC 12/10 Q1019 NOSIG
ZGOW,2011-02-04 17:00,ZGOW 041700Z 05001MPS 3500 SKC 12/10 Q1020 NOSIG
ZGOW,2011-02-04 20:00,ZGOW 042000Z 02001MPS 3500 BR SKC 11/09 Q1019 NOSIG
ZGOW,2011-02-04 21:00,ZGOW 042100Z 35001MPS 3500 BR SKC 11/09 Q1019 NOSIG
ZGOW,2011-02-04 22:00,ZGOW 042200Z 33002MPS 3500 BR SKC 11/09 Q1019 NOSIG
ZGOW,2011-02-04 23:00,ZGOW 042300Z 34003MPS 2500 BR SKC 11/09 Q1019 NOSIG
ZGOW,2011-02-05 00:00,ZGOW 050000Z 33003MPS 2500 BR SKC 12/10 Q1020 BECMG TL0130 3200 BR
ZGOW,2011-02-05 01:00,ZGOW 050100Z 31003MPS 2800 BR SKC 13/10 Q1021 BECMG TL0130 3200 BR
ZGOW,2011-02-05 02:00,ZGOW 050200Z 35001MPS 4000 BR SKC 17/10 Q1021 NOSIG
ZGOW,2011-02-05 03:00,ZGOW 050300Z 09002MPS 5000 HZ SKC 19/09 Q1020 NOSIG
ZGOW,2011-02-05 04:00,ZGOW 050400Z 09004MPS 6000 SKC 20/09 Q1019 NOSIG
ZGOW,2011-02-05 05:00,ZGOW 050500Z 07006MPS 7000 SKC 21/09 Q1018 NOSIG
ZGOW,2011-02-05 06:00,ZGOW 050600Z 12003MPS 7000 SKC 21/10 Q1017 NOSIG
ZGOW,2011-02-05 07:00,ZGOW 050700Z 13004MPS 5000 HZ SKC 20/11 Q1016 NOSIG
ZGOW,2011-02-05 08:00,ZGOW 050800Z 09004MPS 7000 SKC 20/09 Q1016 NOSIG
ZGOW,2011-02-05 09:00,ZGOW 050900Z 09006MPS 7000 SKC 18/09 Q1016 NOSIG
ZGOW,2011-02-05 10:00,ZGOW 051000Z 08005MPS 7000 SKC 17/09 Q1016 NOSIG
ZGOW,2011-02-05 11:00,ZGOW 051100Z 08004MPS 5000 HZ SKC 16/09 Q1017 NOSIG
ZGOW,2011-02-05 12:00,ZGOW 051200Z 08005MPS 5000 HZ SKC 15/09 Q1018 NOSIG
ZGOW,2011-02-05 13:00,ZGOW 051300Z 08005MPS 5000 HZ SKC 15/09 Q1018 NOSIG
ZGOW,2011-02-05 14:00,ZGOW 051400Z 07006MPS 5000 HZ SKC 15/09 Q1018 NOSIG
ZGOW,2011-02-05 15:00,ZGOW 051500Z 08006MPS 5000 HZ SKC 14/08 Q1019 NOSIG
ZGOW,2011-02-05 16:00,ZGOW 051600Z 07007MPS 5000 HZ SKC 14/08 Q1018 NOSIG
ZGOW,2011-02-05 17:00,ZGOW 051700Z 06005MPS 4000 HZ SKC 14/08 Q1018 NOSIG
ZGOW,2011-02-05 20:00,ZGOW 052000Z 32002MPS 2500 BR SKC 12/09 Q1017 NOSIG
ZGOW,2011-02-05 21:00,ZGOW 052100Z 34001MPS 2500 BR SKC 12/09 Q1017 NOSIG
ZGOW,2011-02-05 22:00,ZGOW 052200Z 31001MPS 2500 BR SKC 11/09 Q1018 NOSIG
ZGOW,2011-02-05 23:00,ZGOW 052300Z 31002MPS 2000 BR SKC 11/09 Q1018 NOSIG
ZGOW,2011-02-06 00:00,ZGOW 060000Z 33001MPS 2800 BR SKC 12/10 Q1019 NOSIG
ZGOW,2011-02-06 01:00,ZGOW 060100Z 31002MPS 3500 BR SKC 14/10 Q1020 NOSIG
ZGOW,2011-02-06 02:00,ZGOW 060200Z 31002MPS 4000 HZ SKC 17/10 Q1020 NOSIG
ZGOW,2011-02-06 03:00,ZGOW 060300Z 07002MPS 6000 SKC 19/07 Q1019 NOSIG
ZGOW,2011-02-06 04:00,ZGOW 060400Z 09004MPS CAVOK 20/05 Q1018 NOSIG
ZGOW,2011-02-06 05:00,ZGOW 060500Z 10002MPS CAVOK 22/07 Q1017 NOSIG
ZGOW,2011-02-06 06:00,ZGOW 060600Z 14004MPS CAVOK 20/09 Q1016 NOSIG
ZGOW,2011-02-06 07:00,ZGOW 060700Z 12006MPS CAVOK 19/09 Q1015 NOSIG
ZGOW,2011-02-06 08:00,ZGOW 060800Z 13005MPS CAVOK 18/09 Q1015 NOSIG
ZGOW,2011-02-06 09:00,ZGOW 060900Z 12005MPS CAVOK 16/09 Q1015 NOSIG
ZGOW,2011-02-06 10:00,ZGOW 061000Z 12004MPS 7000 SKC 15/09 Q1015 NOSIG
ZGOW,2011-02-06 11:00,ZGOW 061100Z 00000MPS 7000 SKC 14/10 Q1015 NOSIG
ZGOW,2011-02-06 12:00,ZGOW 061200Z 07002MPS 6000 SKC 13/09 Q1016 NOSIG
ZGOW,2011-02-06 13:00,ZGOW 061300Z 03002MPS 5000 BR SKC 13/10 Q1017 NOSIG
ZGOW,2011-02-06 14:00,ZGOW 061400Z 04001MPS 5000 BR NSC 14/09 Q1017 NOSIG
ZGOW,2011-02-06 15:00,ZGOW 061500Z 03002MPS 5000 BR NSC 12/09 Q1017 NOSIG
ZGOW,2011-02-06 16:00,ZGOW 061600Z 35001MPS 4000 BR SKC 14/10 Q1017 NOSIG
ZGOW,2011-02-06 17:00,ZGOW 061700Z 02002MPS 4000 BR SKC 13/09 Q1017 NOSIG
ZGOW,2011-02-06 19:00,ZGOW 061900Z AUTO 30001MPS 2300 // NCD 12/10 Q1016
ZGOW,2011-02-06 20:00,ZGOW 062000Z 33002MPS 3000 BR SKC 12/09 Q1016 NOSIG
ZGOW,2011-02-06 21:00,ZGOW 062100Z 23001MPS 3000 BR SKC 11/09 Q1015 NOSIG
ZGOW,2011-02-06 22:00,ZGOW 062200Z 00000MPS 3000 BR SKC 11/09 Q1015 NOSIG
ZGOW,2011-02-06 23:00,ZGOW 062300Z 32003MPS 2500 R04/1400V1600N BR SKC 11/09 Q1015 BECMG 3500 BR
ZGOW,2011-02-07 00:00,ZGOW 070000Z 32002MPS 2200 R04/1400V1600N BR SKC 12/10 Q1016 BECMG 3500 BR
ZGOW,2011-02-07 01:00,ZGOW 070100Z 31003MPS 2500 BR SKC 14/10 Q1016 BECMG 3500 BR
ZGOW,2011-02-07 02:00,ZGOW 070200Z 32003MPS 3500 HZ NSC 17/10 Q1016 NOSIG
ZGOW,2011-02-07 03:00,ZGOW 070300Z 32002MPS 4000 HZ BKN050 19/10 Q1016 NOSIG
ZGOW,2011-02-07 04:00,ZGOW 070400Z 09002MPS 6000 BKN050 21/10 Q1014 NOSIG
ZGOW,2011-02-07 05:00,ZGOW 070500Z 08003MPS 7000 NSC 22/10 Q1013 NOSIG
ZGOW,2011-02-07 06:00,ZGOW 070600Z 14004MPS 7000 NSC 22/11 Q1011 NOSIG
ZGOW,2011-02-07 07:00,ZGOW 070700Z 13004MPS 7000 NSC 21/12 Q1011 NOSIG
ZGOW,2011-02-07 08:00,ZGOW 070800Z 12005MPS 6000 SCT050 20/12 Q1010 NOSIG
ZGOW,2011-02-07 09:00,ZGOW 070900Z 11004MPS 5000 HZ SCT050 18/11 Q1011 NOSIG
ZGOW,2011-02-07 10:00,ZGOW 071000Z 11002MPS 5000 HZ BKN050 17/12 Q1011 NOSIG
ZGOW,2011-02-07 11:00,ZGOW 071100Z 12002MPS 4000 HZ BKN050 17/11 Q1011 NOSIG
ZGOW,2011-02-07 12:00,ZGOW 071200Z 10003MPS 4000 HZ BKN050 16/11 Q1012 NOSIG
ZGOW,2011-02-07 13:00,ZGOW 071300Z 08003MPS 4000 HZ BKN050 16/11 Q1013 NOSIG
ZGOW,2011-02-07 14:00,ZGOW 071400Z 06003MPS 3500 BR NSC 15/10 Q1013 NOSIG
ZGOW,2011-02-07 15:00,ZGOW 071500Z 05003MPS 3500 BR NSC 14/10 Q1013 NOSIG
ZGOW,2011-02-07 16:00,ZGOW 071600Z 03003MPS 3200 BR NSC 14/11 Q1013 NOSIG
ZGOW,2011-02-07 17:00,ZGOW 071700Z 05002MPS 3000 BR NSC 13/10 Q1013 TEMPO 2200 BR
ZGOW,2011-02-07 18:00,ZGOW 071800Z AUTO 34002MPS 2600 // ////// 15/11 Q1012
ZGOW,2011-02-07 19:00,ZGOW 071900Z AUTO 32002MPS 2100 // ////// 15/11 Q1012
ZGOW,2011-02-07 20:00,ZGOW 072000Z 32001MPS 3200 BR NSC 14/11 Q1011 NOSIG
ZGOW,2011-02-07 21:00,ZGOW 072100Z 33001MPS 3000 BR NSC 14/11 Q1011 TEMPO 2200 BR
ZGOW,2011-02-07 22:00,ZGOW 072200Z 32001MPS 3000 BR NSC 14/11 Q1011 TEMPO 2200 BR
ZGOW,2011-02-07 23:00,ZGOW 072300Z 30002MPS 2200 BR NSC 14/11 Q1012 NOSIG
ZGOW,2011-02-08 00:00,ZGOW 080000Z 31002MPS 2500 BR SKC 14/11 Q1012 TEMPO 3200 BR
ZGOW,2011-02-08 01:00,ZGOW 080100Z 32002MPS 2800 BR SKC 16/11 Q1012 TEMPO 3200 BR
ZGOW,2011-02-08 02:00,ZGOW 080200Z 34002MPS 4000 BR SKC 19/11 Q1012 NOSIG
ZGOW,2011-02-08 03:00,ZGOW 080300Z 34001MPS 5000 HZ SKC 21/10 Q1011 NOSIG
ZGOW,2011-02-08 04:00,ZGOW 080400Z 34001MPS 5000 HZ SKC 23/11 Q1010 NOSIG
ZGOW,2011-02-08 05:00,ZGOW 080500Z 14003MPS 5000 HZ SKC 22/12 Q1009 NOSIG
ZGOW,2011-02-08 06:00,ZGOW 080600Z 14004MPS 5000 HZ SKC 22/11 Q1008 NOSIG
ZGOW,2011-02-08 07:00,ZGOW 080700Z 14005MPS 5000 HZ SKC 21/11 Q1008 NOSIG
ZGOW,2011-02-08 08:00,ZGOW 080800Z 12004MPS 5000 HZ SKC 20/11 Q1007 NOSIG
ZGOW,2011-02-08 09:00,ZGOW 080900Z 12004MPS 4000 HZ SKC 18/11 Q1008 NOSIG
ZGOW,2011-02-08 10:00,ZGOW 081000Z 13003MPS 2500 HZ SKC 17/12 Q1008 TEMPO 1300 BR
ZGOW,2011-02-08 11:00,ZGOW 081100Z 14001MPS 2500 BR SKC 16/12 Q1009 TEMPO 1300 BR
ZGOW,2011-02-08 12:00,ZGOW 081200Z 12001MPS 2500 BR SKC 15/12 Q1010 NOSIG
ZGOW,2011-02-08 13:00,ZGOW 081300Z 08001MPS 2000 BR SKC 15/12 Q1010 TEMPO 1300 BR
ZGOW,2011-02-08 14:00,ZGOW 081400Z 00000MPS 2000 BR SKC 15/12 Q1010 TEMPO 1300 BR
ZGOW,2011-02-08 15:00,ZGOW 081500Z 00000MPS 2000 BR SKC 15/12 Q1010 TEMPO 1300 BR
ZGOW,2011-02-08 16:00,ZGOW 081600Z 00000MPS 2000 BR SKC 14/12 Q1010 TEMPO 1300 BR
ZGOW,2011-02-08 17:00,ZGOW 081700Z 00000MPS 1600 BR SKC 14/12 Q1010 TEMPO 1000 BR
ZGOW,2011-02-08 20:00,ZGOW 082000Z 32002MPS 1800 BR SKC 14/12 Q1009 TEMPO 1200 BR
ZGOW,2011-02-08 21:00,ZGOW 082100Z 32003MPS 1800 BR SKC 14/12 Q1010 TEMPO 1200 BR
ZGOW,2011-02-08 22:00,ZGOW 082200Z 32002MPS 1800 BR SKC 14/12 Q1010 TEMPO 1200 BR
ZGOW,2011-02-08 23:00,ZGOW 082300Z 33001MPS 1800 BR SKC 14/12 Q1011 TEMPO 1200 BR
ZGOW,2011-02-09 00:00,ZGOW 090000Z 01001MPS 2000 BR NSC 16/12 Q1011 BECMG TL0100 3000 BR
ZGOW,2011-02-09 01:00,ZGOW 090100Z 30002MPS 3000 BR NSC 17/13 Q1012 NOSIG
ZGOW,2011-02-09 02:00,ZGOW 090200Z 31002MPS 4000 HZ NSC 20/13 Q1012 NOSIG
ZGOW,2011-02-09 03:00,ZGOW 090300Z 12005MPS 4000 HZ NSC 19/13 Q1012 NOSIG
ZGOW,2011-02-09 04:00,ZGOW 090400Z 10002MPS 4000 HZ NSC 21/13 Q1012 NOSIG
ZGOW,2011-02-09 05:00,ZGOW 090500Z 09006MPS 4000 HZ SKC 21/12 Q1012 NOSIG
ZGOW,2011-02-09 06:00,ZGOW 090600Z 08009MPS 4000 HZ SKC 20/12 Q1011 NOSIG
ZGOW,2011-02-09 07:00,ZGOW 090700Z 08008MPS 4000 HZ SKC 19/13 Q1011 NOSIG
ZGOW,2011-02-09 08:00,ZGOW 090800Z 08009G14MPS 2500 HZ NSC 19/13 Q1011 NOSIG
ZGOW,2011-02-09 09:00,ZGOW 090900Z 08008G13MPS 2000 R04/1400V1600N HZ SKC 18/12 Q1011 NOSIG
ZGOW,2011-02-09 10:00,ZGOW 091000Z 09007G12MPS 2000 HZ SKC 17/12 Q1012 NOSIG
ZGOW,2011-02-09 11:00,ZGOW 091100Z 08006G11MPS 2500 BR SKC 16/12 Q1012 NOSIG
ZGOW,2011-02-09 12:00,ZGOW 091200Z 08006MPS 2500 BR NSC 15/11 Q1013 NOSIG
ZGOW,2011-02-09 13:00,ZGOW 091300Z 08007G12MPS 2500 BR NSC 15/12 Q1014 NOSIG
ZGOW,2011-02-09 14:00,ZGOW 091400Z 09007G12MPS 2500 BR SKC 15/12 Q1014 NOSIG
ZGOW,2011-02-09 15:00,ZGOW 091500Z 09006G11MPS 2500 BR SKC 16/12 Q1014 NOSIG
ZGOW,2011-02-09 16:00,ZGOW 091600Z 08003MPS 2500 BR SKC 15/12 Q1014 NOSIG
ZGOW,2011-02-09 17:00,ZGOW 091700Z 06004MPS 2500 BR SKC 15/12 Q1014 NOSIG
ZGOW,2011-02-09 18:00,ZGOW 091800Z 05004MPS 2500 BR SKC 14/12 Q1013 NOSIG
ZGOW,2011-02-09 19:00,ZGOW 091900Z 04004MPS 2200 BR NSC 14/11 Q1013 NOSIG
ZGOW,2011-02-09 20:00,ZGOW 092000Z 04003MPS 2200 BR NSC 14/11 Q1013 NOSIG
ZGOW,2011-02-09 21:00,ZGOW 092100Z 07005MPS 2500 BR NSC 15/11 Q1013 NOSIG
ZGOW,2011-02-09 22:00,ZGOW 092200Z 07006MPS 2500 BR NSC 14/11 Q1014 NOSIG
ZGOW,2011-02-09 23:00,ZGOW 092300Z 08005MPS 2800 BR NSC 14/10 Q1015 BECMG 3000 BR
ZGOW,2011-02-10 00:00,ZGOW 100000Z 08005MPS 3500 BR SKC 14/11 Q1015 NOSIG
ZGOW,2011-02-10 01:00,ZGOW 100100Z 07005MPS 4000 HZ SKC 16/11 Q1016 NOSIG
ZGOW,2011-02-10 02:00,ZGOW 100200Z 06003MPS 4000 HZ NSC 17/11 Q1016 NOSIG
ZGOW,2011-02-10 03:00,ZGOW 100300Z 09002MPS 4000 HZ NSC 18/12 Q1015 NOSIG
ZGOW,2011-02-10 04:00,ZGOW 100400Z 02002MPS 4000 HZ SCT020 19/12 Q1015 NOSIG
ZGOW,2011-02-10 05:00,ZGOW 100500Z 16003MPS 4000 HZ FEW020 19/12 Q1014 NOSIG
ZGOW,2011-02-10 06:00,ZGOW 100600Z 16003MPS 4000 HZ SKC 19/12 Q1013 NOSIG
ZGOW,2011-02-10 07:00,ZGOW 100700Z 15004MPS 4000 HZ SKC 19/12 Q1012 NOSIG
ZGOW,2011-02-10 08:00,ZGOW 100800Z 14004MPS 4000 HZ SKC 18/12 Q1012 NOSIG
ZGOW,2011-02-10 09:00,ZGOW 100900Z 12004MPS 4000 HZ SKC 16/12 Q1012 NOSIG
ZGOW,2011-02-10 10:00,ZGOW 101000Z 12003MPS 3500 BR SKC 15/12 Q1013 BECMG 2500 BR
ZGOW,2011-02-10 11:00,ZGOW 101100Z 12002MPS 3500 BR SKC 15/12 Q1013 NOSIG
ZGOW,2011-02-10 12:00,ZGOW 101200Z 05001MPS 3500 BR SKC 14/12 Q1014 NOSIG
ZGOW,2011-02-10 13:00,ZGOW 101300Z 09002MPS 4000 BR SKC 14/12 Q1015 NOSIG
ZGOW,2011-02-10 14:00,ZGOW 101400Z 06001MPS 3500 BR SKC 14/11 Q1015 NOSIG
ZGOW,2011-02-10 15:00,ZGOW 101500Z 06005MPS 4000 BR SCT016 14/12 Q1016 NOSIG
ZGOW,2011-02-10 16:00,ZGOW 101600Z 07006MPS 3500 BR SCT016 14/12 Q1016 NOSIG
ZGOW,2011-02-10 17:00,ZGOW 101700Z 07006MPS 3500 BR SCT010 14/12 Q1016 NOSIG
ZGOW,2011-02-10 20:00,ZGOW 102000Z 07006MPS 4000 BR SCT014 14/11 Q1016 NOSIG
ZGOW,2011-02-10 21:00,ZGOW 102100Z 08004MPS 3200 BR SCT012 13/11 Q1017 NOSIG
ZGOW,2011-02-10 22:00,ZGOW 102200Z 08006MPS 3500 BR BKN008 13/11 Q1018 NOSIG
ZGOW,2011-02-10 23:00,ZGOW 102300Z 08006MPS 4000 BR SCT020 13/10 Q1018 NOSIG
ZGOW,2011-02-11 00:00,ZGOW 110000Z 08006MPS 5000 BR SCT014 13/10 Q1019 NOSIG
ZGOW,2011-02-11 01:00,ZGOW 110100Z 07006MPS 7000 SCT014 13/10 Q1020 NOSIG
ZGOW,2011-02-11 02:00,ZGOW 110200Z 08005MPS 7000 SCT014 14/10 Q1020 NOSIG
ZGOW,2011-02-11 03:00,ZGOW 110300Z 06004MPS 7000 SCT020 15/10 Q1020 NOSIG
ZGOW,2011-02-11 04:00,ZGOW 110400Z 08005MPS 7000 SCT020 14/10 Q1019 NOSIG
ZGOW,2011-02-11 05:00,ZGOW 110500Z 07004MPS 7000 SCT020 14/10 Q1018 NOSIG
ZGOW,2011-02-11 06:00,ZGOW 110600Z 08004MPS 7000 SCT020 14/10 Q1018 NOSIG
ZGOW,2011-02-11 07:00,ZGOW 110700Z 09004MPS 7000 SCT020 14/10 Q1018 NOSIG
ZGOW,2011-02-11 08:00,ZGOW 110800Z 08004MPS 7000 SCT020 14/10 Q1018 NOSIG
ZGOW,2011-02-11 09:00,ZGOW 110900Z 08004MPS 7000 SCT020 14/09 Q1019 NOSIG
ZGOW,2011-02-11 10:00,ZGOW 111000Z 08005MPS 7000 SCT020 13/09 Q1019 NOSIG
ZGOW,2011-02-11 11:00,ZGOW 111100Z 08005MPS 7000 SCT020 13/09 Q1020 NOSIG
ZGOW,2011-02-11 12:00,ZGOW 111200Z 08006MPS 7000 BKN040 13/09 Q1020 NOSIG
ZGOW,2011-02-11 13:00,ZGOW 111300Z 08005MPS 7000 BKN040 12/09 Q1021 NOSIG
ZGOW,2011-02-11 14:00,ZGOW 111400Z 07006MPS 7000 BKN033 12/09 Q1022 NOSIG
ZGOW,2011-02-11 15:00,ZGOW 111500Z 07007MPS 5000 BR BKN033 12/08 Q1022 NOSIG
ZGOW,2011-02-11 16:00,ZGOW 111600Z 08006MPS 5000 BR BKN033 12/08 Q1022 NOSIG
ZGOW,2011-02-11 17:00,ZGOW 111700Z 08007MPS 5000 BR BKN033 12/08 Q1022 NOSIG
ZGOW,2011-02-11 18:00,ZGOW 111800Z AUTO 08006MPS 3100 // ////// 11/08 Q1021
ZGOW,2011-02-11 19:00,ZGOW 111900Z AUTO 07004MPS 3200 // ////// 11/08 Q1021
ZGOW,2011-02-11 20:00,ZGOW 112000Z 06004MPS 4000 BR BKN033 11/07 Q1021 NOSIG
ZGOW,2011-02-11 21:00,ZGOW 112100Z 07004MPS 4000 BR BKN033 11/07 Q1022 NOSIG
ZGOW,2011-02-11 22:00,ZGOW 112200Z 06004MPS 4000 BR BKN033 11/07 Q1022 NOSIG
ZGOW,2011-02-11 23:00,ZGOW 112300Z 07004MPS 5000 BR BKN033 11/07 Q1023 NOSIG
ZGOW,2011-02-12 00:00,ZGOW 120000Z 07005MPS 7000 BKN033 12/07 Q1024 NOSIG
ZGOW,2011-02-12 01:00,ZGOW 120100Z 07006MPS 8000 SCT026 BKN050 12/06 Q1024 NOSIG
ZGOW,2011-02-12 02:00,ZGOW 120200Z 07005MPS 8000 BKN046 13/04 Q1024 NOSIG
ZGOW,2011-02-12 03:00,ZGOW 120300Z 09006MPS 9999 BKN050 13/03 Q1024 NOSIG
ZGOW,2011-02-12 04:00,ZGOW 120400Z 08007MPS CAVOK 15/04 Q1022 NOSIG
ZGOW,2011-02-12 05:00,ZGOW 120500Z 09008MPS CAVOK 15/04 Q1021 TEMPO 08009G14MPS
ZGOW,2011-02-12 06:00,ZGOW 120600Z 09008MPS CAVOK 15/04 Q1020 TEMPO 08009G14MPS
ZGOW,2011-02-12 07:00,ZGOW 120700Z 08009G14MPS 7000 NSC 14/05 Q1020 NOSIG
ZGOW,2011-02-12 08:00,ZGOW 120800Z 08009G14MPS CAVOK 13/05 Q1020 NOSIG
ZGOW,2011-02-12 09:00,ZGOW 120900Z 08009G14MPS 6000 NSC 12/06 Q1020 NOSIG
ZGOW,2011-02-12 10:00,ZGOW 121000Z 08009G14MPS 5000 HZ SCT050 11/06 Q1020 NOSIG
ZGOW,2011-02-12 11:00,ZGOW 121100Z 08008G13MPS 5000 HZ SCT050 11/06 Q1020 NOSIG
ZGOW,2011-02-12 12:00,ZGOW 121200Z 07009G14MPS 6000 SCT050 11/06 Q1021 NOSIG
ZGOW,2011-02-12 13:00,ZGOW 121300Z 08009G15MPS 5000 HZ NSC 11/06 Q1021 NOSIG
ZGOW,2011-02-12 14:00,ZGOW 121400Z 08009G14MPS 6000 NSC 11/06 Q1021 NOSIG
ZGOW,2011-02-12 15:00,ZGOW 121500Z 08007G12MPS 6000 NSC 11/06 Q1021 NOSIG
ZGOW,2011-02-12 16:00,ZGOW 121600Z 06007G12MPS 5000 HZ BKN050 11/05 Q1021 NOSIG
ZGOW,2011-02-12 17:00,ZGOW 121700Z 06007G12MPS 6000 BKN043 11/05 Q1020 NOSIG
ZGOW,2011-02-12 18:00,ZGOW 121800Z AUTO 06006MPS 2900 // ////// 11/06 Q1020
ZGOW,2011-02-12 19:00,ZGOW 121900Z AUTO 06005MPS 2900 // ////// 11/06 Q1019
ZGOW,2011-02-12 20:00,ZGOW 122000Z 06004MPS 4000 HZ BKN040 12/05 Q1019 NOSIG
ZGOW,2011-02-12 21:00,ZGOW 122100Z 05003MPS 4000 HZ BKN040 12/06 Q1018 NOSIG
ZGOW,2011-02-12 22:00,ZGOW 122200Z 07006MPS 4000 HZ BKN040 12/06 Q1018 NOSIG
ZGOW,2011-02-12 23:00,ZGOW 122300Z 07005MPS 3500 HZ BKN040 12/06 Q1018 NOSIG
ZGOW,2011-02-13 00:00,ZGOW 130000Z 06005MPS 4000 HZ BKN033 12/06 Q1019 NOSIG
ZGOW,2011-02-13 01:00,ZGOW 130100Z 06006MPS 4000 HZ BKN033 12/07 Q1019 NOSIG
ZGOW,2011-02-13 02:00,ZGOW 130200Z 36003MPS 4000 HZ BKN033 12/06 Q1020 NOSIG
ZGOW,2011-02-13 03:00,ZGOW 130300Z 05002MPS 4000 -RA HZ BKN033 13/07 Q1019 NOSIG
ZGOW,2011-02-13 04:00,ZGOW 130400Z 34002MPS 3500 -RA HZ FEW018 BKN033 12/07 Q1019 NOSIG
ZGOW,2011-02-13 05:00,ZGOW 130500Z 32003MPS 2200 R04/1400N -RA BR SCT012 BKN033 12/09 Q1019 NOSIG
ZGOW,2011-02-13 06:00,ZGOW 130600Z 33004MPS 2800 -RA BR SCT010 BKN030 11/09 Q1018 NOSIG
ZGOW,2011-02-13 07:00,ZGOW 130700Z 34002MPS 3500 -RA BR SCT012 OVC033 11/09 Q1018 NOSIG
ZGOW,2011-02-13 08:00,ZGOW 130800Z 36003MPS 3500 RA SCT010 FEW024TCU OVC033 11/09 Q1017 NOSIG
ZGOW,2011-02-13 09:00,ZGOW 130900Z 04002MPS 4000 -RA BR SCT007 BKN033 11/10 Q1018 RERA NOSIG
ZGOW,2011-02-13 10:00,ZGOW 131000Z 34001MPS 6000 -RA SCT008 BKN040 11/10 Q1018 NOSIG
ZGOW,2011-02-13 11:00,ZGOW 131100Z 01002MPS 6000 -RA SCT014 BKN040 11/10 Q1019 NOSIG
ZGOW,2011-02-13 12:00,ZGOW 131200Z 34003MPS 9999 SCT014 BKN040 11/09 Q1019 NOSIG
ZGOW,2011-02-13 13:00,ZGOW 131300Z 32004MPS 9999 -RA SCT012 BKN033 11/07 Q1020 NOSIG
ZGOW,2011-02-13 14:00,ZGOW 131400Z 33002MPS 9999 SCT012 BKN033 10/07 Q1021 NOSIG
ZGOW,2011-02-13 15:00,ZGOW 131500Z 34003MPS 9999 FEW012 SCT040 10/07 Q1021 NOSIG
ZGOW,2011-02-13 16:00,ZGOW 131600Z 33002MPS 9999 SCT022 10/06 Q1021 NOSIG
ZGOW,2011-02-13 17:00,ZGOW 131700Z 32004MPS 9999 SCT022 10/06 Q1021 NOSIG
ZGOW,2011-02-13 18:00,ZGOW 131800Z AUTO 32003MPS 6000 ////// 09/06 Q1021
ZGOW,2011-02-13 19:00,ZGOW 131900Z AUTO 33004MPS 5000 ////// 09/05 Q1020
ZGOW,2011-02-13 20:00,ZGOW 132000Z 34005G10MPS 9999 SCT024 09/04 Q1020 NOSIG
ZGOW,2011-02-13 21:00,ZGOW 132100Z 33005MPS 9999 SCT026 09/04 Q1021 NOSIG
ZGOW,2011-02-13 22:00,ZGOW 132200Z 32005MPS 9999 SCT028 08/04 Q1022 NOSIG
ZGOW,2011-02-13 23:00,ZGOW 132300Z 33006G11MPS 9999 SCT026 BKN050 08/04 Q1022 NOSIG
ZGOW,2011-02-14 00:00,ZGOW 140000Z 33005G10MPS 9999 FEW026 BKN050 08/03 Q1023 NOSIG
ZGOW,2011-02-14 01:00,ZGOW 140100Z 33005MPS 9999 BKN050 09/04 Q1023 TEMPO 33006G11MPS
ZGOW,2011-02-14 02:00,ZGOW 140200Z 33004G10MPS 9999 BKN040 10/04 Q1024 NOSIG
ZGOW,2011-02-14 03:00,ZGOW 140300Z 33004MPS 9999 SCT020 BKN033 11/04 Q1023 NOSIG
ZGOW,2011-02-14 04:00,ZGOW 140400Z 36003MPS 9999 SCT020 BKN050 12/04 Q1022 NOSIG
ZGOW,2011-02-14 05:00,ZGOW 140500Z 32004MPS 9999 SCT020 BKN050 12/04 Q1022 NOSIG
ZGOW,2011-02-14 06:00,ZGOW 140600Z 32003MPS 9999 SCT020 BKN040 13/04 Q1021 NOSIG
ZGOW,2011-02-14 07:00,ZGOW 140700Z 01002MPS 9999 BKN033 13/04 Q1020 NOSIG
ZGOW,2011-02-14 08:00,ZGOW 140800Z 36002MPS 9999 BKN033 13/05 Q1021 NOSIG
ZGOW,2011-02-14 09:00,ZGOW 140900Z 34003MPS 9999 BKN033 12/04 Q1022 NOSIG
ZGOW,2011-02-14 10:00,ZGOW 141000Z 04002MPS 9999 BKN033 12/06 Q1022 NOSIG
ZGOW,2011-02-14 11:00,ZGOW 141100Z 07002MPS 9999 BKN030 11/06 Q1022 NOSIG
ZGOW,2011-02-14 12:00,ZGOW 141200Z 06003MPS 9999 SCT050 10/06 Q1023 NOSIG
ZGOW,2011-02-14 13:00,ZGOW 141300Z 08006MPS 9999 SCT050 10/07 Q1024 NOSIG
ZGOW,2011-02-14 14:00,ZGOW 141400Z 08006MPS 9999 SCT020 10/06 Q1024 NOSIG
ZGOW,2011-02-14 15:00,ZGOW 141500Z 08007MPS 9999 BKN018 10/06 Q1025 TEMPO 08008G13MPS
ZGOW,2011-02-14 16:00,ZGOW 141600Z 08007MPS 9999 BKN026 10/05 Q1025 TEMPO 08008G13MPS
ZGOW,2011-02-14 17:00,ZGOW 141700Z 08007MPS 9999 BKN026 09/05 Q1024 TEMPO 08008G13MPS
ZGOW,2011-02-14 18:00,ZGOW 141800Z AUTO 06007MPS 3500 // ////// 09/05 Q1024
ZGOW,2011-02-14 19:00,ZGOW 141900Z AUTO 06007MPS 3600 // ////// 09/04 Q1024
ZGOW,2011-02-14 20:00,ZGOW 142000Z 07006MPS 9999 SCT020 09/03 Q1024 NOSIG
ZGOW,2011-02-14 21:00,ZGOW 142100Z 06007MPS 9999 SCT020 08/03 Q1024 NOSIG
ZGOW,2011-02-14 22:00,ZGOW 142200Z 07005MPS 9999 SCT020 08/02 Q1024 NOSIG
ZGOW,2011-02-14 23:00,ZGOW 142300Z 06006MPS 4000 -RA HZ SCT020 08/02 Q1024 NOSIG
ZGOW,2011-02-15 00:00,ZGOW 150000Z 07009MPS 5000 -RA HZ SCT020 08/02 Q1023 TEMPO 08009G14MPS
ZGOW,2011-02-15 01:00,ZGOW 150100Z 06008MPS 5000 -RA HZ SCT020 BKN040 08/03 Q1024 NOSIG
ZGOW,2011-02-15 02:00,ZGOW 150200Z 07008MPS 7000 SCT026 BKN040 09/04 Q1025 NOSIG
ZGOW,2011-02-15 03:00,ZGOW 150300Z 06005MPS 6000 SCT026 BKN040 09/03 Q1025 NOSIG
ZGOW,2011-02-15 04:00,ZGOW 150400Z 05004MPS 5000 -RA HZ SCT026 BKN036 09/04 Q1024 NOSIG
ZGOW,2011-02-15 05:00,ZGOW 150500Z 06003MPS 3500 -RA BR SCT026 BKN033 09/06 Q1023 NOSIG
ZGOW,2011-02-15 06:00,ZGOW 150600Z 06003MPS 3200 -RA BR SCT020 BKN033 08/06 Q1023 NOSIG
ZGOW,2011-02-15 07:00,ZGOW 150700Z 06004MPS 2500 -RA BR SCT020 BKN033 09/06 Q1022 NOSIG
ZGOW,2011-02-15 08:00,ZGOW 150800Z 06004MPS 2800 BR SCT014 BKN040 09/06 Q1021 NOSIG
ZGOW,2011-02-15 09:00,ZGOW 150900Z 05003MPS 2500 -RA BR SCT016 BKN033 09/07 Q1022 NOSIG
ZGOW,2011-02-15 10:00,ZGOW 151000Z 06004MPS 1800 -RA BR SCT012 BKN033 09/07 Q1022 NOSIG
ZGOW,2011-02-15 11:00,ZGOW 151100Z 04004MPS 1800 -RA BR SCT014 BKN030 09/07 Q1022 NOSIG
ZGOW,2011-02-15 12:00,ZGOW 151200Z 05004MPS 2800 BR SCT014 BKN030 09/07 Q1022 NOSIG
ZGOW,2011-02-15 13:00,ZGOW 151300Z 04005MPS 2800 BR SCT018 BKN040 09/07 Q1023 TEMPO 3500 BR
ZGOW,2011-02-15 14:00,ZGOW 151400Z 03003MPS 2800 BR SCT016 BKN033 09/07 Q1023 NOSIG
ZGOW,2011-02-15 15:00,ZGOW 151500Z 04003MPS 3500 BR SCT016 BKN030 09/07 Q1023 NOSIG
ZGOW,2011-02-15 16:00,ZGOW 151600Z 04003MPS 4000 BR SCT016 BKN030 09/07 Q1023 NOSIG
ZGOW,2011-02-15 17:00,ZGOW 151700Z 03004MPS 5000 BR SCT014 BKN033 10/07 Q1022 NOSIG
ZGOW,2011-02-15 18:00,ZGOW 151800Z AUTO 03004MPS 2700 // ////// 10/07 Q1021
ZGOW,2011-02-15 19:00,ZGOW 151900Z AUTO 02003MPS 2700 // ////// 10/07 Q1021
ZGOW,2011-02-15 20:00,ZGOW 152000Z 04003MPS 4000 BR SCT014 BKN033 10/08 Q1020 NOSIG
ZGOW,2011-02-15 21:00,ZGOW 152100Z 02003MPS 3500 BR SCT014 BKN033 10/08 Q1020 TEMPO 2500 BR
ZGOW,2011-02-15 22:00,ZGOW 152200Z 36002MPS 4000 BR SCT014 BKN033 10/08 Q1020 NOSIG
ZGOW,2011-02-15 23:00,ZGOW 152300Z 34001MPS 3500 BR SCT012 BKN033 10/08 Q1021 NOSIG
ZGOW,2011-02-16 00:00,ZGOW 160000Z 34001MPS 2500 BR SCT010 BKN030 10/08 Q1021 TEMPO 1500 BR
ZGOW,2011-02-16 01:00,ZGOW 160100Z 32001MPS 1000 R04/0800V0900N -DZ BR SCT004 OVC023 10/09 Q1021 BECMG FM0200 1500 BR
ZGOW,2011-02-16 02:00,ZGOW 160200Z 34002MPS 1000 R04/0900V1000N -DZ BR SCT003 OVC023 11/09 Q1021 REDZ BECMG FM0230 1500 BR
ZGOW,2011-02-16 03:00,ZGOW 160300Z 33002MPS 1500 R04/1200V1400N -DZ BR SCT006 OVC026 11/09 Q1021 NOSIG
ZGOW,2011-02-16 04:00,ZGOW 160400Z 01001MPS 1800 BR SCT006 OVC026 11/10 Q1020 BECMG FM0500 3000 BR
ZGOW,2011-02-16 05:00,ZGOW 160500Z 36001MPS 1800 R04/1400V1600N BR SCT006 OVC026 12/10 Q1019 BECMG 3000 BR
ZGOW,2011-02-16 06:00,ZGOW 160600Z 33002MPS 1800 R04/1400V1600N BR SCT005 SCT014 OVC033 12/10 Q1017 BECMG 3000 BR
ZGOW,2011-02-16 07:00,ZGOW 160700Z 33002MPS 1800 R04/1400N BR SCT006 SCT014 OVC033 12/10 Q1017 NOSIG
ZGOW,2011-02-16 08:00,ZGOW 160800Z 32002MPS 1000 R04/0900V1000N -DZ BR SCT003 OVC026 12/10 Q1017 NOSIG
ZGOW,2011-02-16 09:00,ZGOW 160900Z 35001MPS 0800 R04/0800V0900N FG BKN003 OVC026 12/10 Q1017 NOSIG
ZGOW,2011-02-16 10:00,ZGOW 161000Z 34001MPS 0800 R04/0900V1000N -RA FG BKN003 OVC026 12/11 Q1017 NOSIG
ZGOW,2011-02-16 11:00,ZGOW 161100Z 04001MPS 1500 R04/1400N BR SCT003 OVC026 12/11 Q1017 NOSIG
ZGOW,2011-02-16 12:00,ZGOW 161200Z 03001MPS 1500 R04/1000V1200U BR SCT003 SCT014 OVC028 12/11 Q1018 NOSIG
ZGOW,2011-02-16 13:00,ZGOW 161300Z 02001MPS 1500 R04/1200V1400N BR SCT003 SCT014 OVC030 12/11 Q1018 NOSIG
ZGOW,2011-02-16 14:00,ZGOW 161400Z 05001MPS 1800 BR SCT003 BKN030 12/11 Q1018 NOSIG
ZGOW,2011-02-16 15:00,ZGOW 161500Z 04002MPS 1500 R04/1400V1800D BR SCT003 OVC026 12/11 Q1018 NOSIG
ZGOW,2011-02-16 16:00,ZGOW 161600Z 36001MPS 1200 R04/1200V1400N BR BKN003 OVC024 12/11 Q1018 NOSIG
ZGOW,2011-02-16 17:00,ZGOW 161700Z AUTO 35001MPS 1000 R04/1400V1600N // ////// 12/11 Q1018
ZGOW,2011-02-16 18:00,ZGOW 161800Z AUTO 04001MPS 0900 R04/1400V1600N // ////// 12/11 Q1018
ZGOW,2011-02-16 19:00,ZGOW 161900Z AUTO 07001MPS 1000 R04/1200V1800U // ////// 12/11 Q1017
ZGOW,2011-02-16 20:00,ZGOW 162000Z 08002MPS 1800 R04/1200V1600N BR SCT004 OVC030 12/11 Q1017 NOSIG
ZGOW,2011-02-16 21:00,ZGOW 162100Z 05001MPS 1800 BR SCT004 OVC030 12/11 Q1017 NOSIG
ZGOW,2011-02-16 22:00,ZGOW 162200Z 04002MPS 1800 BR SCT003 SCT014 OVC030 12/11 Q1017 NOSIG
ZGOW,2011-02-16 23:00,ZGOW 162300Z 06001MPS 1600 R04/1400V1800N BR SCT004 SCT014 OVC030 12/11 Q1018 NOSIG
ZGOW,2011-02-17 00:00,ZGOW 170000Z 04002MPS 0800 R04/0900U FG BKN003 OVC026 13/12 Q1018 NOSIG
ZGOW,2011-02-17 01:00,ZGOW 170100Z 05001MPS 1000 R04/1000V1200N BR BKN003 OVC024 13/12 Q1018 BECMG 1600 BR SCT003 BKN024
ZGOW,2011-02-17 02:00,ZGOW 170200Z 08001MPS 1600 R04/1400V1600N BR BKN004 OVC024 13/12 Q1018 BECMG SCT004 BKN024
ZGOW,2011-02-17 03:00,ZGOW 170300Z 04003MPS 1500 R04/1200V1400N -DZ BR BKN003 OVC024 14/13 Q1018 BECMG SCT004 BKN024
ZGOW,2011-02-17 04:00,ZGOW 170400Z 03002MPS 1600 R04/1400V1600D BR BKN004 OVC024 14/13 Q1017 BECMG SCT004 BKN024
ZGOW,2011-02-17 05:00,ZGOW 170500Z 27001MPS 1600 R04/1200V1400N BR SCT006 BKN030 16/14 Q1016 NOSIG
ZGOW,2011-02-17 06:00,ZGOW 170600Z 20002MPS 1600 R04/1400V1600N BR SCT018 BKN030 17/14 Q1014 NOSIG
ZGOW,2011-02-17 07:00,ZGOW 170700Z 16002MPS 2200 BR SCT018 19/15 Q1013 NOSIG
ZGOW,2011-02-17 08:00,ZGOW 170800Z 14002MPS 2200 BR SCT014 18/14 Q1013 NOSIG
ZGOW,2011-02-17 09:00,ZGOW 170900Z 13003MPS 2500 BR SCT014 16/13 Q1013 NOSIG
ZGOW,2011-02-17 10:00,ZGOW 171000Z 14003MPS 2800 BR BKN016 15/13 Q1014 NOSIG
ZGOW,2011-02-17 11:00,ZGOW 171100Z 13002MPS 2800 BR SCT020 14/12 Q1014 NOSIG
ZGOW,2011-02-17 12:00,ZGOW 171200Z 11001MPS 2500 BR SCT010 BKN030 14/12 Q1015 NOSIG
ZGOW,2011-02-17 13:00,ZGOW 171300Z 09002MPS 2800 BR SCT010 BKN030 14/12 Q1016 NOSIG
ZGOW,2011-02-17 14:00,ZGOW 171400Z 05003MPS 2000 BR SCT003 BKN028 14/12 Q1016 NOSIG
ZGOW,2011-02-17 15:00,ZGOW 171500Z 06006MPS 2000 R04/1200VP2000U BR SCT004 BKN028 13/11 Q1017 NOSIG
ZGOW,2011-02-17 16:00,ZGOW 171600Z 07006MPS 2500 BR SCT004 BKN028 12/11 Q1017 NOSIG
ZGOW,2011-02-17 17:00,ZGOW 171700Z AUTO 07008MPS 2300 // ////// 12/11 Q1017
ZGOW,2011-02-17 18:00,ZGOW 171800Z AUTO 07007MPS 1700 // ////// 12/11 Q1017
ZGOW,2011-02-17 19:00,ZGOW 171900Z AUTO 07006MPS 1800 // ////// 12/11 Q1017
ZGOW,2011-02-17 20:00,ZGOW 172000Z 08005MPS 2800 BR SCT005 BKN028 12/11 Q1017 NOSIG
ZGOW,2011-02-17 21:00,ZGOW 172100Z 08004MPS 2000 BR SCT005 BKN028 12/11 Q1017 NOSIG
ZGOW,2011-02-17 22:00,ZGOW 172200Z 07005MPS 2500 BR SCT010 BKN028 12/11 Q1017 NOSIG
ZGOW,2011-02-17 23:00,ZGOW 172300Z 08006MPS 2000 R04/1400V1800N -RA BR SCT012 BKN028 12/10 Q1018 NOSIG
ZGOW,2011-02-18 00:00,ZGOW 180000Z 08006MPS 5000 BR SCT007 BKN028 12/10 Q1019 NOSIG
ZGOW,2011-02-18 01:00,ZGOW 180100Z 07007MPS 7000 SCT007 BKN030 12/10 Q1020 NOSIG
ZGOW,2011-02-18 02:00,ZGOW 180200Z 07006MPS 8000 SCT010 BKN033 12/10 Q1020 NOSIG
ZGOW,2011-02-18 03:00,ZGOW 180300Z 07007MPS 9999 SCT012 BKN033 13/10 Q1020 NOSIG
ZGOW,2011-02-18 04:00,ZGOW 180400Z 06006MPS 9999 SCT012 BKN033 13/10 Q1020 NOSIG
ZGOW,2011-02-18 05:00,ZGOW 180500Z 08005MPS 9999 SCT010 BKN033 13/10 Q1018 NOSIG
ZGOW,2011-02-18 06:00,ZGOW 180600Z 07006MPS 9999 SCT014 BKN040 13/09 Q1017 NOSIG
ZGOW,2011-02-18 07:00,ZGOW 180700Z 08004MPS 9999 SCT012 BKN040 13/10 Q1017 NOSIG
ZGOW,2011-02-18 08:00,ZGOW 180800Z 08005MPS 9999 SCT014 BKN040 13/09 Q1017 NOSIG
ZGOW,2011-02-18 09:00,ZGOW 180900Z 08004MPS 9999 SCT018 BKN040 12/09 Q1018 NOSIG
ZGOW,2011-02-18 10:00,ZGOW 181000Z 07007MPS 8000 SCT016 BKN040 12/09 Q1018 NOSIG
ZGOW,2011-02-18 11:00,ZGOW 181100Z 07006MPS 9999 SCT016 BKN040 12/08 Q1018 NOSIG
ZGOW,2011-02-18 12:00,ZGOW 181200Z 08006MPS 9999 SCT020 BKN040 12/09 Q1018 NOSIG
ZGOW,2011-02-18 13:00,ZGOW 181300Z 06006MPS 9999 SCT018 BKN040 12/09 Q1019 NOSIG
ZGOW,2011-02-18 14:00,ZGOW 181400Z 07006MPS 9999 SCT020 BKN040 12/09 Q1019 NOSIG
ZGOW,2011-02-18 15:00,ZGOW 181500Z 07006MPS 9999 SCT024 BKN040 12/08 Q1019 NOSIG
ZGOW,2011-02-18 16:00,ZGOW 181600Z 08005MPS 9999 SCT020 BKN040 12/08 Q1019 NOSIG
ZGOW,2011-02-18 17:00,ZGOW 181700Z 08007G12MPS 9999 SCT018 BKN040 12/08 Q1019 NOSIG
ZGOW,2011-02-18 18:00,ZGOW 181800Z AUTO 08007MPS 7000 ////// 11/08 Q1019
ZGOW,2011-02-18 19:00,ZGOW 181900Z AUTO 08006MPS 6000 ////// 11/08 Q1019
ZGOW,2011-02-18 20:00,ZGOW 182000Z 07005MPS 9999 SCT018 BKN040 11/08 Q1019 NOSIG
ZGOW,2011-02-18 21:00,ZGOW 182100Z 07006MPS 6000 SCT018 BKN040 11/08 Q1019 NOSIG
ZGOW,2011-02-18 22:00,ZGOW 182200Z 06005MPS 5000 BR SCT012 BKN040 11/09 Q1019 NOSIG
ZGOW,2011-02-18 23:00,ZGOW 182300Z 06004MPS 4000 BR SCT010 BKN040 11/09 Q1020 TEMPO 2500 -RA BR
ZGOW,2011-02-19 00:00,ZGOW 190000Z 06005MPS 4000 BR SCT012 BKN040 11/09 Q1020 TEMPO 2500 -RA BR
ZGOW,2011-02-19 01:00,ZGOW 190100Z 04002MPS 5000 BR SCT010 SCT024 OVC040 12/09 Q1021 TEMPO 2500 -RA BR
ZGOW,2011-02-19 02:00,ZGOW 190200Z 06002MPS 4000 BR SCT012 OVC026 12/09 Q1021 TEMPO 2500 -RA BR
ZGOW,2011-02-19 03:00,ZGOW 190300Z 04002MPS 4000 BR SCT010 SCT024 OVC040 13/10 Q1020 TEMPO 2500 -RA BR
ZGOW,2011-02-19 04:00,ZGOW 190400Z 03001MPS 5000 BR SCT012 BKN033 13/10 Q1020 TEMPO 2500 -RA BR
ZGOW,2011-02-19 05:00,ZGOW 190500Z 06003MPS 6000 FEW012 SCT022 OVC040 13/10 Q1019 TEMPO 2500 -RA BR
ZGOW,2011-02-19 06:00,ZGOW 190600Z 08003MPS 8000 FEW012 SCT020 OVC040 13/10 Q1018 TEMPO 2500 -RA BR
ZGOW,2011-02-19 07:00,ZGOW 190700Z 08004MPS 4000 -RA BR FEW010 SCT020 OVC033 12/10 Q1017 NOSIG
ZGOW,2011-02-19 08:00,ZGOW 190800Z 07004MPS 6000 -RA FEW008 SCT018 OVC033 12/10 Q1018 NOSIG
ZGOW,2011-02-19 09:00,ZGOW 190900Z 05003MPS 6000 -RA SCT014 OVC033 12/10 Q1018 NOSIG
ZGOW,2011-02-19 10:00,ZGOW 191000Z 07003MPS 6000 SCT014 OVC033 12/10 Q1018 NOSIG
ZGOW,2011-02-19 11:00,ZGOW 191100Z 04003MPS 5000 BR FEW010 SCT018 BKN033 12/10 Q1018 NOSIG
ZGOW,2011-02-19 12:00,ZGOW 191200Z 04002MPS 5000 BR FEW006 SCT018 BKN033 12/10 Q1019 NOSIG
ZGOW,2011-02-19 13:00,ZGOW 191300Z 05002MPS 4000 BR SCT006 OVC030 12/11 Q1019 TEMPO 2500 -RA BR
ZGOW,2011-02-19 14:00,ZGOW 191400Z 06002MPS 3500 -RA BR SCT004 OVC030 12/11 Q1020 NOSIG
ZGOW,2011-02-19 15:00,ZGOW 191500Z 05002MPS 3500 -RA BR SCT005 SCT016 OVC033 12/11 Q1020 NOSIG
ZGOW,2011-02-19 16:00,ZGOW 191600Z 05002MPS 3500 BR SCT006 SCT018 BKN033 12/11 Q1021 NOSIG
ZGOW,2011-02-19 17:00,ZGOW 191700Z 29001MPS 4000 -RA BR SCT006 SCT016 BKN033 12/11 Q1021 NOSIG
ZGOW,2011-02-19 18:00,ZGOW 191800Z AUTO 01002MPS 9999 ////// 11/10 Q1020
ZGOW,2011-02-19 19:00,ZGOW 191900Z AUTO 01002MPS 9999 ////// 11/10 Q1020
ZGOW,2011-02-19 20:00,ZGOW 192000Z 36002MPS 9999 SCT010 BKN040 11/10 Q1020 NOSIG
ZGOW,2011-02-19 21:00,ZGOW 192100Z 34001MPS 9999 SCT020 BKN040 12/09 Q1020 NOSIG
ZGOW,2011-02-19 22:00,ZGOW 192200Z 02002MPS 9999 SCT018 BKN040 11/10 Q1020 NOSIG
ZGOW,2011-02-19 23:00,ZGOW 192300Z 34002MPS 9999 FEW009 SCT018 BKN040 11/10 Q1021 NOSIG
ZGOW,2011-02-20 00:00,ZGOW 200000Z 36001MPS 9999 SCT018 BKN040 12/09 Q1021 NOSIG
ZGOW,2011-02-20 01:00,ZGOW 200100Z 01001MPS 9999 SCT018 BKN040 13/10 Q1022 NOSIG
ZGOW,2011-02-20 02:00,ZGOW 200200Z 02001MPS 8000 SCT010 BKN040 13/10 Q1022 NOSIG
ZGOW,2011-02-20 03:00,ZGOW 200300Z 07002MPS 8000 SCT014 BKN040 14/11 Q1022 NOSIG
ZGOW,2011-02-20 04:00,ZGOW 200400Z 07002MPS 5000 BR SCT014 BKN040 15/11 Q1021 NOSIG
ZGOW,2011-02-20 05:00,ZGOW 200500Z 09002MPS 5000 BR FEW014 SCT040 16/12 Q1020 NOSIG
ZGOW,2011-02-20 06:00,ZGOW 200600Z 12003MPS 5000 BR FEW014 BKN040 16/12 Q1020 NOSIG
ZGOW,2011-02-20 07:00,ZGOW 200700Z 12004MPS 5000 BR FEW014 15/11 Q1019 NOSIG
ZGOW,2011-02-20 08:00,ZGOW 200800Z 14003MPS 5000 BR SCT015 15/11 Q1019 NOSIG
ZGOW,2011-02-20 09:00,ZGOW 200900Z 12002MPS 5000 BR SCT030 14/11 Q1019 NOSIG
ZGOW,2011-02-20 10:00,ZGOW 201000Z 08004MPS 5000 BR SCT030 13/10 Q1020 NOSIG
ZGOW,2011-02-20 11:00,ZGOW 201100Z 08003MPS 6000 BKN033 13/10 Q1020 NOSIG
ZGOW,2011-02-20 12:00,ZGOW 201200Z 08004MPS 5000 BR BKN033 13/09 Q1021 NOSIG
ZGOW,2011-02-20 13:00,ZGOW 201300Z 10002MPS 5000 BR BKN033 13/09 Q1021 NOSIG
ZGOW,2011-02-20 14:00,ZGOW 201400Z 09004MPS 5000 BR BKN040 13/09 Q1021 NOSIG
ZGOW,2011-02-20 15:00,ZGOW 201500Z 08004MPS 5000 BR BKN026 13/09 Q1021 NOSIG
ZGOW,2011-02-20 16:00,ZGOW 201600Z 07004MPS 5000 BR BKN024 12/09 Q1021 NOSIG
ZGOW,2011-02-20 17:00,ZGOW 201700Z 08004MPS 6000 BKN024 12/08 Q1021 NOSIG
ZGOW,2011-02-20 18:00,ZGOW 201800Z AUTO 07005MPS 5000 ////// 12/08 Q1020
ZGOW,2011-02-20 19:00,ZGOW 201900Z AUTO 06005MPS 7000 ////// 12/08 Q1020
ZGOW,2011-02-20 20:00,ZGOW 202000Z 06004MPS 6000 FEW018 12/08 Q1020 NOSIG
ZGOW,2011-02-20 21:00,ZGOW 202100Z 07002MPS 8000 SCT020 12/08 Q1020 NOSIG
ZGOW,2011-02-20 22:00,ZGOW 202200Z 04002MPS 8000 SCT020 BKN033 12/08 Q1021 NOSIG
ZGOW,2011-02-20 23:00,ZGOW 202300Z 06002MPS 9999 SCT020 BKN033 12/08 Q1022 NOSIG
ZGOW,2011-02-21 00:00,ZGOW 210000Z 08002MPS 9999 SCT020 BKN033 13/08 Q1022 NOSIG
ZGOW,2011-02-21 01:00,ZGOW 210100Z 07003MPS 9999 SCT024 BKN033 13/07 Q1023 NOSIG
ZGOW,2011-02-21 02:00,ZGOW 210200Z 06004MPS 9999 SCT024 BKN040 14/07 Q1023 NOSIG
ZGOW,2011-02-21 03:00,ZGOW 210300Z 05003MPS 9999 SCT026 BKN050 16/08 Q1022 NOSIG
ZGOW,2011-02-21 04:00,ZGOW 210400Z 05003MPS 8000 SCT026 17/09 Q1021 NOSIG
ZGOW,2011-02-21 05:00,ZGOW 210500Z 08002MPS 7000 SCT028 17/10 Q1020 NOSIG
ZGOW,2011-02-21 06:00,ZGOW 210600Z 12004MPS 8000 FEW028 16/09 Q1019 NOSIG
ZGOW,2011-02-21 07:00,ZGOW 210700Z 13003MPS 7000 NSC 16/09 Q1018 NOSIG
ZGOW,2011-02-21 09:00,ZGOW 210900Z 12004MPS 7000 NSC 14/09 Q1019 NOSIG
ZGOW,2011-02-21 10:00,ZGOW 211000Z 12003MPS 6000 NSC 14/09 Q1019 NOSIG
ZGOW,2011-02-21 11:00,ZGOW 211100Z 08003MPS 7000 NSC 14/08 Q1019 NOSIG
ZGOW,2011-02-21 12:00,ZGOW 211200Z 07005MPS 8000 NSC 13/08 Q1020 NOSIG
ZGOW,2011-02-21 13:00,ZGOW 211300Z 07006MPS 6000 NSC 13/08 Q1020 NOSIG
ZGOW,2011-02-21 14:00,ZGOW 211400Z 08005MPS 6000 NSC 12/07 Q1021 NOSIG
ZGOW,2011-02-21 15:00,ZGOW 211500Z 08006MPS 7000 SCT026 12/06 Q1021 NOSIG
ZGOW,2011-02-21 16:00,ZGOW 211600Z 09004MPS 8000 FEW026 12/06 Q1020 NOSIG
ZGOW,2011-02-21 17:00,ZGOW 211700Z 08004MPS 7000 FEW026 12/06 Q1020 NOSIG
ZGOW,2011-02-21 18:00,ZGOW 211800Z 06004MPS 7000 FEW026 11/05 Q1021 NOSIG
ZGOW,2011-02-21 19:00,ZGOW 211900Z 06004MPS 8000 FEW026 12/04 Q1020 NOSIG
ZGOW,2011-02-21 20:00,ZGOW 212000Z 07002MPS 7000 FEW026 12/04 Q1020 NOSIG
ZGOW,2011-02-21 21:00,ZGOW 212100Z 04002MPS 6000 FEW026 12/06 Q1021 NOSIG
ZGOW,2011-02-21 22:00,ZGOW 212200Z 01001MPS 6000 FEW026 12/05 Q1021 NOSIG
ZGOW,2011-02-21 23:00,ZGOW 212300Z 01002MPS 7000 NSC 12/04 Q1022 NOSIG
ZGOW,2011-02-22 00:00,ZGOW 220000Z 34001MPS 5000 HZ NSC 13/07 Q1022 NOSIG
ZGOW,2011-02-22 01:00,ZGOW 220100Z 34001MPS 5000 BR NSC 14/08 Q1023 NOSIG
ZGOW,2011-02-22 02:00,ZGOW 220200Z 04002MPS 7000 NSC 16/04 Q1023 NOSIG
ZGOW,2011-02-22 03:00,ZGOW 220300Z 06003MPS CAVOK 17/03 Q1022 NOSIG
ZGOW,2011-02-22 04:00,ZGOW 220400Z 10003MPS CAVOK 18/05 Q1021 NOSIG
ZGOW,2011-02-22 05:00,ZGOW 220500Z 07005MPS CAVOK 19/05 Q1020 NOSIG
ZGOW,2011-02-22 06:00,ZGOW 220600Z 13004MPS CAVOK 18/07 Q1019 NOSIG
ZGOW,2011-02-22 07:00,ZGOW 220700Z 13003MPS CAVOK 18/08 Q1018 NOSIG
ZGOW,2011-02-22 08:00,ZGOW 220800Z 14002MPS CAVOK 17/09 Q1018 NOSIG
ZGOW,2011-02-22 09:00,ZGOW 220900Z 11004MPS 9999 SCT050 16/09 Q1018 NOSIG
ZGOW,2011-02-22 10:00,ZGOW 221000Z 12004MPS 7000 SCT050 14/09 Q1019 NOSIG
ZGOW,2011-02-22 11:00,ZGOW 221100Z 00000MPS 7000 SCT050 14/10 Q1019 NOSIG
ZGOW,2011-02-22 12:00,ZGOW 221200Z 09004MPS 7000 SCT050 15/09 Q1019 NOSIG
ZGOW,2011-02-22 13:00,ZGOW 221300Z 06005MPS 9999 SCT050 14/08 Q1019 NOSIG
ZGOW,2011-02-22 14:00,ZGOW 221400Z 07006MPS 9999 SCT050 14/10 Q1019 NOSIG
ZGOW,2011-02-22 15:00,ZGOW 221500Z 06005MPS CAVOK 13/09 Q1020 NOSIG
ZGOW,2011-02-22 16:00,ZGOW 221600Z 06004MPS CAVOK 13/09 Q1020 NOSIG
ZGOW,2011-02-22 17:00,ZGOW 221700Z 05005MPS CAVOK 14/09 Q1019 NOSIG
ZGOW,2011-02-22 18:00,ZGOW 221800Z AUTO 09002MPS 9999 ////// 14/09 Q1019
ZGOW,2011-02-22 19:00,ZGOW 221900Z AUTO 04002MPS 9999 ////// 14/09 Q1019
ZGOW,2011-02-22 20:00,ZGOW 222000Z 04002MPS 7000 NSC 14/09 Q1019 NOSIG
ZGOW,2011-02-22 22:00,ZGOW 222200Z 02002MPS 5000 HZ BKN050 14/09 Q1019 NOSIG
ZGOW,2011-02-22 23:00,ZGOW 222300Z 35001MPS 5000 HZ BKN050 14/10 Q1020 NOSIG
ZGOW,2011-02-23 00:00,ZGOW 230000Z 34002MPS 5000 HZ BKN050 15/10 Q1020 NOSIG
ZGOW,2011-02-23 01:00,ZGOW 230100Z 36002MPS 6000 BKN040 16/10 Q1020 NOSIG
ZGOW,2011-02-23 02:00,ZGOW 230200Z 35001MPS 8000 SCT050 17/10 Q1020 NOSIG
ZGOW,2011-02-23 03:00,ZGOW 230300Z 07002MPS CAVOK 19/10 Q1019 NOSIG
ZGOW,2011-02-23 04:00,ZGOW 230400Z 07002MPS CAVOK 20/10 Q1019 NOSIG
ZGOW,2011-02-23 05:00,ZGOW 230500Z 09002MPS CAVOK 21/10 Q1017 NOSIG
ZGOW,2011-02-23 06:00,ZGOW 230600Z 12003MPS CAVOK 21/09 Q1016 NOSIG
ZGOW,2011-02-23 07:00,ZGOW 230700Z 14004MPS CAVOK 19/11 Q1016 NOSIG
ZGOW,2011-02-23 08:00,ZGOW 230800Z 14005MPS CAVOK 19/11 Q1016 NOSIG
ZGOW,2011-02-23 09:00,ZGOW 230900Z 12004MPS CAVOK 17/11 Q1016 NOSIG
ZGOW,2011-02-23 10:00,ZGOW 231000Z 12003MPS CAVOK 16/11 Q1017 NOSIG
ZGOW,2011-02-23 11:00,ZGOW 231100Z 12002MPS CAVOK 15/10 Q1017 NOSIG
ZGOW,2011-02-23 12:00,ZGOW 231200Z 14001MPS CAVOK 15/11 Q1018 NOSIG
ZGOW,2011-02-23 13:00,ZGOW 231300Z 04001MPS CAVOK 14/10 Q1018 NOSIG
ZGOW,2011-02-23 14:00,ZGOW 231400Z 04003MPS CAVOK 14/10 Q1019 NOSIG
ZGOW,2011-02-23 15:00,ZGOW 231500Z 02003MPS CAVOK 14/10 Q1019 NOSIG
ZGOW,2011-02-23 16:00,ZGOW 231600Z 09002MPS CAVOK 14/11 Q1019 NOSIG
ZGOW,2011-02-23 17:00,ZGOW 231700Z 02001MPS 7000 NSC 14/11 Q1019 NOSIG
ZGOW,2011-02-23 18:00,ZGOW 231800Z 04003MPS 7000 NSC 14/10 Q1018 NOSIG
ZGOW,2011-02-23 19:00,ZGOW 231900Z AUTO 06002MPS CAVOK 13/10 Q1018
ZGOW,2011-02-23 20:00,ZGOW 232000Z 02002MPS 9999 SCT050 14/10 Q1017 NOSIG
ZGOW,2011-02-23 21:00,ZGOW 232100Z 35001MPS 7000 NSC 15/09 Q1017 NOSIG
ZGOW,2011-02-23 22:00,ZGOW 232200Z 00000MPS 7000 NSC 15/10 Q1017 NOSIG
ZGOW,2011-02-23 23:00,ZGOW 232300Z 34001MPS 5000 HZ NSC 14/10 Q1018 NOSIG
ZGOW,2011-02-24 00:00,ZGOW 240000Z 33001MPS 4000 HZ NSC 16/11 Q1018 NOSIG
ZGOW,2011-02-24 01:00,ZGOW 240100Z 02001MPS 6000 NSC 18/10 Q1018 NOSIG
ZGOW,2011-02-24 02:00,ZGOW 240200Z 09001MPS CAVOK 19/10 Q1019 NOSIG
ZGOW,2011-02-24 03:00,ZGOW 240300Z 05002MPS CAVOK 20/11 Q1018 NOSIG
ZGOW,2011-02-24 04:00,ZGOW 240400Z 07004MPS CAVOK 21/10 Q1017 NOSIG
ZGOW,2011-02-24 05:00,ZGOW 240500Z 11004MPS CAVOK 21/11 Q1016 NOSIG
ZGOW,2011-02-24 06:00,ZGOW 240600Z 12004MPS CAVOK 21/11 Q1016 NOSIG
ZGOW,2011-02-24 07:00,ZGOW 240700Z 12005MPS CAVOK 20/12 Q1015 NOSIG
ZGOW,2011-02-24 08:00,ZGOW 240800Z 12005MPS 6000 NSC 18/12 Q1015 NOSIG
ZGOW,2011-02-24 09:00,ZGOW 240900Z 12004MPS 7000 SKC 17/11 Q1015 NOSIG
ZGOW,2011-02-24 10:00,ZGOW 241000Z 12004MPS 7000 SKC 16/11 Q1016 NOSIG
ZGOW,2011-02-24 11:00,ZGOW 241100Z 09001MPS 7000 SKC 15/11 Q1016 NOSIG
ZGOW,2011-02-24 12:00,ZGOW 241200Z 06005MPS 7000 SKC 16/12 Q1017 NOSIG
ZGOW,2011-02-24 13:00,ZGOW 241300Z 05006MPS 7000 SKC 15/12 Q1017 NOSIG
ZGOW,2011-02-24 14:00,ZGOW 241400Z 08004MPS 7000 SKC 15/12 Q1018 NOSIG
ZGOW,2011-02-24 15:00,ZGOW 241500Z 04003MPS 5000 BR SKC 15/12 Q1018 NOSIG
ZGOW,2011-02-24 16:00,ZGOW 241600Z 06005MPS 5000 BR SKC 15/12 Q1017 NOSIG
ZGOW,2011-02-24 17:00,ZGOW 241700Z 05003MPS 5000 BR SKC 14/12 Q1017 NOSIG
ZGOW,2011-02-24 18:00,ZGOW 241800Z 01001MPS 5000 BR SKC 14/12 Q1017 NOSIG
ZGOW,2011-02-24 20:00,ZGOW 242000Z 00000MPS 4000 BR NSC 14/12 Q1016 NOSIG
ZGOW,2011-02-24 21:00,ZGOW 242100Z 34001MPS 4000 BR NSC 15/12 Q1016 TEMPO 2500 BR
ZGOW,2011-02-24 22:00,ZGOW 242200Z 00000MPS 2800 BR NSC 14/12 Q1017 TEMPO 2500 BR
ZGOW,2011-02-24 23:00,ZGOW 242300Z 00000MPS 2500 BR NSC 14/12 Q1018 NOSIG
ZGOW,2011-02-25 00:00,ZGOW 250000Z 13001MPS 2500 BR NSC 15/13 Q1019 NOSIG
ZGOW,2011-02-25 01:00,ZGOW 250100Z 03001MPS 3500 BR NSC 17/13 Q1019 NOSIG
ZGOW,2011-02-25 02:00,ZGOW 250200Z 08004MPS 4000 HZ SCT014 19/14 Q1020 NOSIG
ZGOW,2011-02-25 03:00,ZGOW 250300Z 09007MPS 4000 HZ SCT016 20/15 Q1019 NOSIG
ZGOW,2011-02-25 04:00,ZGOW 250400Z 08006MPS 6000 FEW016 21/15 Q1018 NOSIG
ZGOW,2011-02-25 05:00,ZGOW 250500Z 08006MPS 6000 SKC 22/15 Q1017 NOSIG
ZGOW,2011-02-25 06:00,ZGOW 250600Z 08006MPS 5000 HZ SKC 22/15 Q1017 NOSIG
ZGOW,2011-02-25 07:00,ZGOW 250700Z 09003MPS 6000 SKC 22/15 Q1016 NOSIG
ZGOW,2011-02-25 08:00,ZGOW 250800Z 13001MPS 6000 SKC 21/14 Q1016 NOSIG
ZGOW,2011-02-25 09:00,ZGOW 250900Z 09007MPS 6000 SKC 20/14 Q1016 NOSIG
ZGOW,2011-02-25 10:00,ZGOW 251000Z 08008G13MPS 5000 BR SKC 18/14 Q1017 NOSIG
ZGOW,2011-02-25 11:00,ZGOW 251100Z 08007MPS 6000 SKC 17/13 Q1017 TEMPO 08008G13MPS
ZGOW,2011-02-25 12:00,ZGOW 251200Z 08007MPS 6000 SKC 16/12 Q1018 TEMPO 08008G13MPS
ZGOW,2011-02-25 13:00,ZGOW 251300Z 08009G14MPS 7000 SKC 16/11 Q1018 NOSIG
ZGOW,2011-02-25 14:00,ZGOW 251400Z 09009G14MPS 7000 SKC 16/11 Q1019 NOSIG
ZGOW,2011-02-25 15:00,ZGOW 251500Z 07011G17MPS 7000 SKC 16/11 Q1019 NOSIG
ZGOW,2011-02-25 16:00,ZGOW 251600Z 07010G15MPS 7000 SKC 16/11 Q1019 NOSIG
ZGOW,2011-02-25 17:00,ZGOW 251700Z 06007MPS 6000 SKC 16/11 Q1019 TEMPO 06008G13MPS
ZGOW,2011-02-25 18:00,ZGOW 251800Z AUTO 07007MPS CAVOK 16/11 Q1019
ZGOW,2011-02-25 19:00,ZGOW 251900Z AUTO 05005MPS CAVOK 15/11 Q1019
ZGOW,2011-02-25 20:00,ZGOW 252000Z 08003MPS 6000 SKC 15/10 Q1019 NOSIG
ZGOW,2011-02-25 21:00,ZGOW 252100Z 05003MPS 5000 BR NSC 14/10 Q1019 NOSIG
ZGOW,2011-02-25 22:00,ZGOW 252200Z 05002MPS 5000 BR NSC 14/10 Q1019 NOSIG
ZGOW,2011-02-25 23:00,ZGOW 252300Z 06002MPS 7000 NSC 15/10 Q1020 NOSIG
ZGOW,2011-02-26 00:00,ZGOW 260000Z 04002MPS 7000 NSC 17/10 Q1020 NOSIG
ZGOW,2011-02-26 01:00,ZGOW 260100Z 04005MPS 8000 NSC 19/10 Q1020 NOSIG
ZGOW,2011-02-26 02:00,ZGOW 260200Z 03003MPS CAVOK 20/11 Q1020 NOSIG
ZGOW,2011-02-26 03:00,ZGOW 260300Z 07005MPS CAVOK 21/11 Q1020 NOSIG
ZGOW,2011-02-26 04:00,ZGOW 260400Z 08005MPS CAVOK 23/13 Q1019 NOSIG
ZGOW,2011-02-26 05:00,ZGOW 260500Z 07006MPS CAVOK 23/12 Q1018 NOSIG
ZGOW,2011-02-26 06:00,ZGOW 260600Z 09004MPS CAVOK 23/12 Q1017 NOSIG
ZGOW,2011-02-26 07:00,ZGOW 260700Z 13004MPS CAVOK 21/13 Q1016 NOSIG
ZGOW,2011-02-26 08:00,ZGOW 260800Z 12005MPS CAVOK 19/13 Q1016 NOSIG
ZGOW,2011-02-26 09:00,ZGOW 260900Z 13005MPS CAVOK 17/12 Q1016 NOSIG
ZGOW,2011-02-26 10:00,ZGOW 261000Z 13001MPS CAVOK 16/12 Q1016 NOSIG
ZGOW,2011-02-26 11:00,ZGOW 261100Z 15001MPS 7000 SKC 16/13 Q1017 NOSIG
ZGOW,2011-02-26 12:00,ZGOW 261200Z 24002MPS 7000 NSC 16/12 Q1018 NOSIG
ZGOW,2011-02-26 13:00,ZGOW 261300Z 06003MPS 7000 NSC 16/12 Q1019 NOSIG
ZGOW,2011-02-26 14:00,ZGOW 261400Z 06003MPS 7000 SKC 15/12 Q1019 NOSIG
ZGOW,2011-02-26 15:00,ZGOW 261500Z 05005MPS 6000 SKC 15/12 Q1019 NOSIG
ZGOW,2011-02-26 16:00,ZGOW 261600Z 07006MPS 5000 BR SCT005 SCT040 15/13 Q1020 NOSIG
ZGOW,2011-02-26 17:00,ZGOW 261700Z 06006MPS 4000 BR SCT004 BKN026 15/13 Q1019 NOSIG
ZGOW,2011-02-26 18:00,ZGOW 261800Z AUTO 06004MPS 8000 ////// 15/13 Q1019
ZGOW,2011-02-26 19:00,ZGOW 261900Z AUTO 06004MPS 9999 ////// 15/13 Q1019
ZGOW,2011-02-26 20:00,ZGOW 262000Z 05004MPS 4000 BR SCT004 15/13 Q1018 NOSIG
ZGOW,2011-02-26 21:00,ZGOW 262100Z 05005MPS 4000 BR SCT004 BKN030 15/14 Q1018 NOSIG
ZGOW,2011-02-26 22:00,ZGOW 262200Z 06003MPS 4000 BR SCT004 BKN030 15/14 Q1018 NOSIG
ZGOW,2011-02-26 23:00,ZGOW 262300Z 07001MPS 3000 BR SCT005 BKN030 15/14 Q1019 TEMPO 2500 BR
ZGOW,2011-02-27 00:00,ZGOW 270000Z 04003MPS 3000 BR SCT006 BKN030 16/14 Q1019 NOSIG
ZGOW,2011-02-27 01:00,ZGOW 270100Z 03002MPS 3500 BR SKC 17/14 Q1019 NOSIG
ZGOW,2011-02-27 02:00,ZGOW 270200Z 08002MPS 4000 HZ SKC 19/14 Q1019 NOSIG
ZGOW,2011-02-27 03:00,ZGOW 270300Z 13002MPS 4000 HZ SKC 20/15 Q1018 NOSIG
ZGOW,2011-02-27 04:00,ZGOW 270400Z 13002MPS 4000 HZ SKC 21/15 Q1018 NOSIG
ZGOW,2011-02-27 05:00,ZGOW 270500Z 14003MPS 5000 HZ SKC 22/15 Q1017 NOSIG
ZGOW,2011-02-27 06:00,ZGOW 270600Z 15004MPS 5000 HZ SKC 21/15 Q1016 NOSIG
ZGOW,2011-02-27 07:00,ZGOW 270700Z 13005MPS 5000 HZ SKC 20/15 Q1015 NOSIG
ZGOW,2011-02-27 08:00,ZGOW 270800Z 14005MPS 5000 HZ SKC 19/14 Q1015 NOSIG
ZGOW,2011-02-27 09:00,ZGOW 270900Z 14005MPS 4000 BR SKC 18/14 Q1015 NOSIG
ZGOW,2011-02-27 10:00,ZGOW 271000Z 15003MPS 3000 BR SKC 17/15 Q1015 TEMPO 2100 BR
ZGOW,2011-02-27 11:00,ZGOW 271100Z 12002MPS 2500 BR SKC 17/15 Q1015 NOSIG
ZGOW,2011-02-27 12:00,ZGOW 271200Z 15002MPS 2500 BR SKC 17/15 Q1015 NOSIG
ZGOW,2011-02-27 13:00,ZGOW 271300Z 06001MPS 1800 BR SKC 16/14 Q1016 TEMPO 1300 BR
ZGOW,2011-02-27 14:00,ZGOW 271400Z 07001MPS 1800 BR SKC 16/14 Q1016 TEMPO 1200 BR
ZGOW,2011-02-27 15:00,ZGOW 271500Z 00000MPS 1600 BR SKC 16/14 Q1016 TEMPO 1200 BR
ZGOW,2011-02-27 16:00,ZGOW 271600Z 00000MPS 1600 BR SKC 16/15 Q1016 TEMPO 1200 BR
ZGOW,2011-02-27 17:00,ZGOW 271700Z 20001MPS 1500 BR FEW010 15/14 Q1015 TEMPO 1200 BR
ZGOW,2011-02-27 20:00,ZGOW 272000Z 32001MPS 1800 BR SKC 16/14 Q1015 TEMPO 1200 BR
ZGOW,2011-02-27 21:00,ZGOW 272100Z 29001MPS 1800 BR SKC 15/14 Q1015 TEMPO 1200 BR
ZGOW,2011-02-27 22:00,ZGOW 272200Z 32002MPS 1600 BR NSC 15/14 Q1016 TEMPO 1200 BR
ZGOW,2011-02-27 23:00,ZGOW 272300Z 32002MPS 1200 R04/1000N BR BKN043 16/15 Q1016 NOSIG
ZGOW,2011-02-28 00:00,ZGOW 280000Z 32003MPS 1200 R04/1200N BR NSC 17/15 Q1017 NOSIG
ZGOW,2011-02-28 01:00,ZGOW 280100Z 34003MPS 1800 BR NSC 19/15 Q1017 NOSIG
ZGOW,2011-02-28 02:00,ZGOW 280200Z 35002MPS 2800 BR NSC 22/16 Q1017 TEMPO 3500 BR
ZGOW,2011-02-28 03:00,ZGOW 280300Z 35001MPS 4000 HZ SKC 25/16 Q1016 NOSIG
ZGOW,2011-02-28 04:00,ZGOW 280400Z 26001MPS CAVOK 27/15 Q1015 NOSIG
ZGOW,2011-02-28 05:00,ZGOW 280500Z 13004MPS 6000 SKC 27/16 Q1014 NOSIG
ZGOW,2011-02-28 06:00,ZGOW 280600Z 13004MPS 7000 SKC 26/14 Q1013 NOSIG
ZGOW,2011-02-28 07:00,ZGOW 280700Z 13004MPS 6000 SKC 26/16 Q1012 NOSIG
ZGOW,2011-02-28 08:00,ZGOW 280800Z 14004MPS 3500 HZ SKC 23/15 Q1012 TEMPO 2500 BR
ZGOW,2011-02-28 09:00,ZGOW 280900Z 14005MPS 3500 HZ SKC 22/15 Q1012 TEMPO 2500 BR
ZGOW,2011-02-28 10:00,ZGOW 281000Z 13003MPS 2800 HZ SKC 21/16 Q1013 NOSIG
ZGOW,2011-02-28 11:00,ZGOW 281100Z 09002MPS 1800 BR SKC 19/16 Q1013 TEMPO 1500 BR
ZGOW,2011-02-28 12:00,ZGOW 281200Z 06003MPS 2500 BR SKC 18/15 Q1014 NOSIG
ZGOW,2011-02-28 13:00,ZGOW 281300Z 06004MPS 2500 BR SKC 17/15 Q1015 NOSIG
ZGOW,2011-02-28 14:00,ZGOW 281400Z 07005MPS 1800 BR BKN004 16/14 Q1015 NOSIG
ZGOW,2011-02-28 15:00,ZGOW 281500Z 07005MPS 1800 BR BKN003 15/14 Q1016 TEMPO 1300 BR
ZGOW,2011-03-01 00:00,ZGOW 010000Z 07004MPS 2000 BR BKN008 16/14 Q1018 NOSIG
ZGOW,2011-03-01 01:00,ZGOW 010100Z 07004MPS 2500 BR SCT010 BKN033 17/14 Q1018 BECMG 4000 BR
ZGOW,2011-03-01 02:00,ZGOW 010200Z 07003MPS 3000 BR SCT010 BKN028 19/14 Q1018 NOSIG
ZGOW,2011-03-01 03:00,ZGOW 010300Z 07003MPS 3000 BR FEW012 20/14 Q1018 NOSIG
ZGOW,2011-03-01 04:00,ZGOW 010400Z 09002MPS 3000 HZ FEW016 22/15 Q1016 NOSIG
ZGOW,2011-03-01 05:00,ZGOW 010500Z 13004MPS 4000 HZ NSC 20/14 Q1015 NOSIG
ZGOW,2011-03-01 06:00,ZGOW 010600Z 14003MPS 4000 HZ NSC 20/14 Q1014 NOSIG
ZGOW,2011-03-01 07:00,ZGOW 010700Z 12004MPS 4000 HZ SKC 20/14 Q1014 NOSIG
ZGOW,2011-03-01 08:00,ZGOW 010800Z 11005MPS 5000 HZ SKC 19/14 Q1014 NOSIG
ZGOW,2011-03-01 09:00,ZGOW 010900Z 13003MPS 5000 BR NSC 18/14 Q1014 NOSIG
ZGOW,2011-03-01 10:00,ZGOW 011000Z 09006MPS 6000 FEW014 17/13 Q1015 NOSIG
ZGOW,2011-03-01 11:00,ZGOW 011100Z 07008MPS 7000 FEW014 15/12 Q1016 NOSIG
ZGOW,2011-03-01 12:00,ZGOW 011200Z 07008MPS 7000 SCT030 15/12 Q1017 NOSIG
ZGOW,2011-03-01 13:00,ZGOW 011300Z 08007MPS 7000 SCT030 15/12 Q1018 NOSIG
ZGOW,2011-03-01 14:00,ZGOW 011400Z 07007MPS 8000 BKN028 15/12 Q1018 NOSIG
ZGOW,2011-03-01 15:00,ZGOW 011500Z 08009MPS 8000 BKN040 14/11 Q1019 NOSIG
ZGOW,2011-03-01 16:00,ZGOW 011600Z 07008MPS 8000 BKN030 14/11 Q1019 NOSIG
ZGOW,2011-03-01 17:00,ZGOW 011700Z 08005MPS 7000 BKN026 14/11 Q1019 NOSIG
ZGOW,2011-03-01 18:00,ZGOW 011800Z 07006MPS 7000 BKN028 14/11 Q1018 NOSIG
ZGOW,2011-03-01 19:00,ZGOW 011900Z AUTO 07006MPS 4500 // ///////// 14/11 Q1018
ZGOW,2011-03-01 20:00,ZGOW 012000Z 08006MPS 5000 BR SCT024 14/11 Q1019 NOSIG
ZGOW,2011-03-01 21:00,ZGOW 012100Z 07006MPS 5000 BR SCT024 14/11 Q1019 NOSIG
ZGOW,2011-03-01 22:00,ZGOW 012200Z 06006MPS 4000 BR SCT030 14/11 Q1019 NOSIG
ZGOW,2011-03-01 23:00,ZGOW 012300Z 06004MPS 4000 BR SCT016 BKN040 14/11 Q1020 NOSIG
ZGOW,2011-03-02 00:00,ZGOW 020000Z 06004MPS 4000 BR SCT020 BKN040 14/11 Q1021 NOSIG
ZGOW,2011-03-02 01:00,ZGOW 020100Z 06005MPS 5000 BR SCT018 BKN040 15/11 Q1021 NOSIG
ZGOW,2011-03-02 02:00,ZGOW 020200Z 07005MPS 6000 SCT020 BKN040 15/11 Q1021 NOSIG
ZGOW,2011-03-02 03:00,ZGOW 020300Z 08004MPS 6000 SCT018 SCT033 16/11 Q1020 NOSIG
ZGOW,2011-03-02 04:00,ZGOW 020400Z 08004MPS 5000 HZ SCT018 BKN033 16/11 Q1020 NOSIG
ZGOW,2011-03-02 05:00,ZGOW 020500Z 10003MPS 5000 HZ SCT020 BKN040 16/10 Q1019 NOSIG
ZGOW,2011-03-02 06:00,ZGOW 020600Z 09004MPS 4000 HZ FEW025 18/10 Q1018 NOSIG
ZGOW,2011-03-02 07:00,ZGOW 020700Z 13004MPS 3500 HZ NSC 17/11 Q1017 NOSIG
ZGOW,2011-03-02 08:00,ZGOW 020800Z 09005MPS 3500 HZ NSC 17/10 Q1017 NOSIG
ZGOW,2011-03-02 09:00,ZGOW 020900Z 12003MPS 3500 HZ NSC 15/11 Q1017 NOSIG
ZGOW,2011-03-02 10:00,ZGOW 021000Z 07004MPS 3500 HZ FEW018 15/10 Q1018 NOSIG
ZGOW,2011-03-02 11:00,ZGOW 021100Z 08005MPS 4500 HZ NSC 14/09 Q1019 NOSIG
ZGOW,2011-03-02 12:00,ZGOW 021200Z 08006MPS 6000 NSC 13/09 Q1020 NOSIG
ZGOW,2011-03-02 13:00,ZGOW 021300Z 08008MPS 7000 NSC 13/08 Q1020 TEMPO 08009G14MPS
ZGOW,2011-03-02 14:00,ZGOW 021400Z 08008MPS 7000 NSC 13/08 Q1021 NOSIG
ZGOW,2011-03-02 15:00,ZGOW 021500Z 08007MPS 7000 SCT032 13/07 Q1021 NOSIG
ZGOW,2011-03-02 16:00,ZGOW 021600Z 08007MPS 7000 SCT028 13/07 Q1021 NOSIG
ZGOW,2011-03-02 17:00,ZGOW 021700Z 08006MPS 6000 BKN026 13/08 Q1021 NOSIG
ZGOW,2011-03-02 18:00,ZGOW 021800Z 06007MPS 6000 BKN026 13/07 Q1020 NOSIG
ZGOW,2011-03-02 19:00,ZGOW 021900Z AUTO 05006MPS 4700 // ////// 13/08 Q1020
ZGOW,2011-03-02 20:00,ZGOW 022000Z 07005MPS 6000 SCT028 13/07 Q1020 NOSIG
ZGOW,2011-03-02 21:00,ZGOW 022100Z 07005MPS 6000 NSC 13/07 Q1020 NOSIG
ZGOW,2011-03-02 22:00,ZGOW 022200Z 06005MPS 5000 HZ FEW028 14/08 Q1021 NOSIG
ZGOW,2011-03-02 23:00,ZGOW 022300Z 06004MPS 5000 HZ NSC 14/08 Q1021 NOSIG
ZGOW,2011-03-03 00:00,ZGOW 030000Z 04003MPS 4000 HZ NSC 14/08 Q1021 NOSIG
ZGOW,2011-03-03 01:00,ZGOW 030100Z 05003MPS 4000 HZ NSC 15/08 Q1022 NOSIG
ZGOW,2011-03-03 02:00,ZGOW 030200Z 08005MPS 7000 NSC 16/09 Q1022 NOSIG
ZGOW,2011-03-03 03:00,ZGOW 030300Z 08004MPS 7000 NSC 17/08 Q1021 NOSIG
ZGOW,2011-03-03 04:00,ZGOW 030400Z 12004MPS 7000 NSC 18/10 Q1020 NOSIG
ZGOW,2011-03-03 05:00,ZGOW 030500Z 13004MPS 6000 SKC 18/09 Q1019 NOSIG
ZGOW,2011-03-03 06:00,ZGOW 030600Z 08005MPS 6000 SKC 17/10 Q1018 NOSIG
ZGOW,2011-03-03 07:00,ZGOW 030700Z 10006MPS 5000 HZ SKC 17/09 Q1018 NOSIG
ZGOW,2011-03-03 08:00,ZGOW 030800Z 08006MPS 6000 SKC 16/09 Q1017 NOSIG
ZGOW,2011-03-03 09:00,ZGOW 030900Z 08006MPS 5000 HZ SKC 15/09 Q1018 NOSIG
ZGOW,2011-03-03 10:00,ZGOW 031000Z 08007MPS 5000 HZ SKC 13/09 Q1019 NOSIG
ZGOW,2011-03-03 11:00,ZGOW 031100Z 08006MPS 5000 HZ SKC 14/09 Q1020 TEMPO 08008G13MPS
ZGOW,2011-03-03 12:00,ZGOW 031200Z 08006MPS 5000 HZ SKC 13/08 Q1021 TEMPO 08008G13MPS
ZGOW,2011-03-03 13:00,ZGOW 031300Z 07009MPS 5000 HZ SKC 13/08 Q1021 TEMPO 08010G15MPS
ZGOW,2011-03-03 14:00,ZGOW 031400Z 07009MPS 5000 HZ SKC 13/08 Q1022 TEMPO 08010G15MPS
ZGOW,2011-03-03 15:00,ZGOW 031500Z 07007MPS 4000 HZ SKC 12/07 Q1023 TEMPO 08008G13MPS
ZGOW,2011-03-03 16:00,ZGOW 031600Z 07009G14MPS 4000 HZ SKC 12/07 Q1023 NOSIG
ZGOW,2011-03-03 17:00,ZGOW 031700Z 06008MPS 4000 HZ SKC 12/07 Q1023 NOSIG
ZGOW,2011-03-03 18:00,ZGOW 031800Z AUTO 07008MPS 3900 // ////// 12/06 Q1022
ZGOW,2011-03-03 19:00,ZGOW 031900Z AUTO 08006MPS 4200 // ////// 12/06 Q1022
ZGOW,2011-03-03 20:00,ZGOW 032000Z 08005MPS 4000 HZ SCT033 12/06 Q1022 NOSIG
ZGOW,2011-03-03 21:00,ZGOW 032100Z 07005MPS 4000 HZ SCT033 12/06 Q1022 NOSIG
ZGOW,2011-03-03 22:00,ZGOW 032200Z 08004MPS 4000 HZ SCT033 12/06 Q1022 NOSIG
ZGOW,2011-03-03 23:00,ZGOW 032300Z 08004MPS 4000 HZ BKN050 12/06 Q1023 NOSIG
ZGOW,2011-03-04 00:00,ZGOW 040000Z 07004MPS 3500 HZ BKN046 12/06 Q1023 NOSIG
ZGOW,2011-03-04 01:00,ZGOW 040100Z 06006MPS 4500 HZ BKN050 13/06 Q1024 NOSIG
ZGOW,2011-03-04 02:00,ZGOW 040200Z 07005MPS 4500 HZ BKN050 14/06 Q1024 NOSIG
ZGOW,2011-03-04 03:00,ZGOW 040300Z 08005MPS 4500 HZ BKN050 15/06 Q1023 NOSIG
ZGOW,2011-03-04 04:00,ZGOW 040400Z 08005MPS 4500 HZ NSC 15/06 Q1023 NOSIG
ZGOW,2011-03-04 05:00,ZGOW 040500Z 09005MPS 6000 NSC 16/06 Q1021 NOSIG
ZGOW,2011-03-04 06:00,ZGOW 040600Z 08006MPS 6000 SCT040 17/06 Q1020 NOSIG
ZGOW,2011-03-04 07:00,ZGOW 040700Z 09007MPS 6000 FEW040 16/06 Q1019 NOSIG
ZGOW,2011-03-04 08:00,ZGOW 040800Z 08009MPS 6000 FEW040 15/05 Q1019 TEMPO 07010G15MPS
ZGOW,2011-03-04 09:00,ZGOW 040900Z 07008MPS 7000 BKN040 14/06 Q1019 TEMPO 07010G15MPS
ZGOW,2011-03-04 10:00,ZGOW 041000Z 08006G11MPS 8000 SCT040 13/07 Q1020 TEMPO 07010G15MPS
ZGOW,2011-03-04 11:00,ZGOW 041100Z 06008G13MPS 9999 SCT040 14/06 Q1020 TEMPO 07010G15MPS
ZGOW,2011-03-04 12:00,ZGOW 041200Z 07009G14MPS 9999 SCT040 13/07 Q1021 TEMPO 07010G15MPS
ZGOW,2011-03-04 13:00,ZGOW 041300Z 08006G11MPS 9999 FEW040 13/07 Q1022 NOSIG
ZGOW,2011-03-04 14:00,ZGOW 041400Z 09006MPS 9999 FEW040 12/07 Q1022 NOSIG
ZGOW,2011-03-04 15:00,ZGOW 041500Z 08007MPS 7000 NSC 12/07 Q1023 NOSIG
ZGOW,2011-03-04 16:00,ZGOW 041600Z 08008MPS 5000 HZ NSC 12/06 Q1023 NOSIG
ZGOW,2011-03-04 17:00,ZGOW 041700Z AUTO 08008MPS 6000 NCD 12/05 Q1023
ZGOW,2011-03-04 18:00,ZGOW 041800Z AUTO 08008MPS 5000 NCD 12/05 Q1022
ZGOW,2011-03-04 19:00,ZGOW 041900Z AUTO 07006MPS 6000 NCD 12/05 Q1022
ZGOW,2011-03-04 21:00,ZGOW 042100Z 03004MPS 4500 HZ SCT036 12/05 Q1021 NOSIG
ZGOW,2011-03-04 22:00,ZGOW 042200Z 04003MPS 4500 HZ SCT040 12/05 Q1021 NOSIG
ZGOW,2011-03-04 23:00,ZGOW 042300Z 03004MPS 5000 HZ BKN033 12/05 Q1021 NOSIG
ZGOW,2011-03-05 00:00,ZGOW 050000Z 02004MPS 5000 HZ BKN036 13/05 Q1021 NOSIG
ZGOW,2011-03-05 01:00,ZGOW 050100Z 02004MPS 6000 BKN036 14/06 Q1022 NOSIG
ZGOW,2011-03-05 02:00,ZGOW 050200Z 05004MPS 6000 SCT018 BKN036 15/05 Q1022 NOSIG
ZGOW,2011-03-05 03:00,ZGOW 050300Z 06005MPS 6000 SCT018 BKN036 16/06 Q1022 NOSIG
ZGOW,2011-03-05 04:00,ZGOW 050400Z 07006MPS 6000 SCT018 BKN036 16/07 Q1021 NOSIG
ZGOW,2011-03-05 05:00,ZGOW 050500Z 08006MPS 6000 SCT018 BKN040 16/07 Q1019 NOSIG
ZGOW,2011-03-05 06:00,ZGOW 050600Z 09004MPS 5000 HZ SCT018 BKN032 16/07 Q1018 NOSIG
ZGOW,2011-03-05 07:00,ZGOW 050700Z 08003MPS 5000 HZ BKN040 17/07 Q1017 NOSIG
ZGOW,2011-03-05 08:00,ZGOW 050800Z 09003MPS 5000 HZ SCT018 BKN033 16/08 Q1017 NOSIG
ZGOW,2011-03-05 09:00,ZGOW 050900Z 12003MPS 4500 HZ SCT018 BKN033 15/09 Q1018 NOSIG
ZGOW,2011-03-05 10:00,ZGOW 051000Z 12002MPS 4000 HZ SCT018 BKN033 15/10 Q1018 NOSIG
ZGOW,2011-03-05 11:00,ZGOW 051100Z 06001MPS 3500 HZ BKN030 15/10 Q1018 NOSIG
ZGOW,2011-03-05 12:00,ZGOW 051200Z 07004MPS 4000 HZ BKN032 14/10 Q1019 NOSIG
ZGOW,2011-03-05 13:00,ZGOW 051300Z 07004MPS 4000 BR BKN030 14/10 Q1019 NOSIG
ZGOW,2011-03-05 14:00,ZGOW 051400Z 07004MPS 4000 BR BKN030 14/10 Q1019 NOSIG
ZGOW,2011-03-05 15:00,ZGOW 051500Z 06004MPS 4000 BR BKN030 14/10 Q1019 NOSIG
ZGOW,2011-03-05 16:00,ZGOW 051600Z 06004MPS 4000 BR BKN030 14/11 Q1019 NOSIG
ZGOW,2011-03-05 17:00,ZGOW 051700Z 05003MPS 3500 BR BKN028 14/10 Q1018 NOSIG
ZGOW,2011-03-05 18:00,ZGOW 051800Z 04005MPS 4000 BR BKN028 15/10 Q1018 NOSIG
ZGOW,2011-03-05 19:00,ZGOW 051900Z 05004MPS 4500 BR BKN028 15/10 Q1017 NOSIG
ZGOW,2011-03-05 20:00,ZGOW 052000Z 04003MPS 4500 BR BKN028 15/11 Q1017 NOSIG
ZGOW,2011-03-05 21:00,ZGOW 052100Z 05003MPS 4500 BR BKN028 15/11 Q1017 NOSIG
ZGOW,2011-03-05 22:00,ZGOW 052200Z 06004MPS 4000 BR BKN028 15/11 Q1017 NOSIG
ZGOW,2011-03-05 23:00,ZGOW 052300Z 05002MPS 3200 BR BKN024 15/11 Q1018 TEMPO 2100 BR
ZGOW,2011-03-06 00:00,ZGOW 060000Z 05002MPS 2800 BR SCT020 BKN040 15/11 Q1018 TEMPO 3500 BR
ZGOW,2011-03-06 01:00,ZGOW 060100Z 01001MPS 2500 HZ SCT020 BKN043 16/11 Q1018 BECMG TL0200 3000 HZ
ZGOW,2011-03-06 02:00,ZGOW 060200Z 04001MPS 2500 HZ SCT020 BKN043 17/11 Q1018 BECMG TL0230 3000 HZ
ZGOW,2011-03-06 03:00,ZGOW 060300Z 07003MPS 4000 HZ SCT020 18/11 Q1018 NOSIG
ZGOW,2011-03-06 04:00,ZGOW 060400Z 08003MPS 4000 HZ SCT020 19/11 Q1017 NOSIG
ZGOW,2011-03-06 05:00,ZGOW 060500Z 09002MPS 3500 HZ SCT020 19/11 Q1015 NOSIG
ZGOW,2011-03-06 06:00,ZGOW 060600Z 14002MPS 3500 HZ SCT020 20/12 Q1014 NOSIG
ZGOW,2011-03-06 07:00,ZGOW 060700Z 11001MPS 3500 HZ SCT020 BKN040 19/12 Q1014 NOSIG
ZGOW,2011-03-06 08:00,ZGOW 060800Z 11001MPS 2800 HZ SCT020 BKN040 18/13 Q1013 NOSIG
ZGOW,2011-03-06 09:00,ZGOW 060900Z 14001MPS 2000 BR SCT020 BKN040 17/14 Q1013 TEMPO 1200 -RA BR
ZGOW,2011-03-06 10:00,ZGOW 061000Z 00000MPS 1600 -RA BR SCT020 BKN040 17/14 Q1013 TEMPO 1200 -RA BR
ZGOW,2011-03-06 11:00,ZGOW 061100Z 00000MPS 1600 BR SCT016 BKN040 17/14 Q1014 TEMPO 1200 -RA BR
ZGOW,2011-03-06 12:00,ZGOW 061200Z 00000MPS 1600 BR SCT016 BKN040 17/14 Q1014 TEMPO 1200 -RA BR
ZGOW,2011-03-06 13:00,ZGOW 061300Z 00000MPS 1600 R04/0900V1600D -RA BR SCT016 BKN040 17/15 Q1015 TEMPO 1200 -RA BR
ZGOW,2011-03-06 14:00,ZGOW 061400Z 00000MPS 1600 R04/1000V1200N -RA BR SCT014 17/15 Q1015 TEMPO 1200 -RA BR
ZGOW,2011-03-06 15:00,ZGOW 061500Z 28001MPS 1600 R04/1200V1400N BR SCT014 17/15 Q1015 TEMPO 1200 -SHRA BR SCT006 FEW030CB BKN033
ZGOW,2011-03-06 16:00,ZGOW 061600Z 23001MPS 1600 R04/1000V1200D BR SCT014 18/16 Q1015 TEMPO 1200 -RA BR
ZGOW,2011-03-06 17:00,ZGOW 061700Z 24001MPS 1200 R04/1200V1400N BR FEW014 17/15 Q1015 TEMPO 0700 -RA FG
ZGOW,2011-03-06 18:00,ZGOW 061800Z AUTO 25001MPS 0600 R04/1000V1200N // ////// 17/15 Q1015
ZGOW,2011-03-06 19:00,ZGOW 061900Z AUTO 30003MPS 0800 R04/1200V1400U // ////// 18/15 Q1014
ZGOW,2011-03-06 20:00,ZGOW 062000Z 32005MPS 4000 BR BKN030 18/15 Q1014 NOSIG
ZGOW,2011-03-06 21:00,ZGOW 062100Z 32006MPS 9999 BKN030 17/12 Q1015 TEMPO 32007G12MPS
ZGOW,2011-03-06 22:00,ZGOW 062200Z 32007MPS 9999 BKN030 16/11 Q1016 NOSIG
ZGOW,2011-03-06 23:00,ZGOW 062300Z 33004MPS CAVOK 16/10 Q1017 NOSIG
ZGOW,2011-03-07 00:00,ZGOW 070000Z 01003MPS CAVOK 16/11 Q1019 NOSIG
ZGOW,2011-03-07 01:00,ZGOW 070100Z 08005MPS 9999 SCT024 BKN050 16/12 Q1020 NOSIG
ZGOW,2011-03-07 02:00,ZGOW 070200Z 09005MPS 9999 FEW012 SCT050 16/12 Q1020 NOSIG
ZGOW,2011-03-07 03:00,ZGOW 070300Z 08005MPS 9999 SCT012 BKN050 16/12 Q1020 NOSIG
ZGOW,2011-03-07 04:00,ZGOW 070400Z 08006MPS 9999 SCT010 BKN040 16/11 Q1020 NOSIG
ZGOW,2011-03-07 05:00,ZGOW 070500Z 08007MPS 9999 SCT012 BKN040 16/11 Q1019 NOSIG
ZGOW,2011-03-07 06:00,ZGOW 070600Z 08008MPS 6000 NSC 16/11 Q1018 NOSIG
ZGOW,2011-03-07 07:00,ZGOW 070700Z 08008MPS 5000 HZ FEW016 16/11 Q1017 NOSIG
ZGOW,2011-03-07 08:00,ZGOW 070800Z 09007MPS 4500 HZ SCT020 BKN050 16/11 Q1017 NOSIG
ZGOW,2011-03-07 09:00,ZGOW 070900Z 08008G13MPS 4000 BR SCT018 BKN043 14/10 Q1018 BECMG 2500 BR
ZGOW,2011-03-07 10:00,ZGOW 071000Z 07008MPS 6000 SCT020 BKN043 14/08 Q1019 NOSIG
ZGOW,2011-03-07 11:00,ZGOW 071100Z 07008G13MPS 8000 SCT026 BKN046 14/08 Q1020 NOSIG
ZGOW,2011-03-07 12:00,ZGOW 071200Z 07008MPS 9999 SCT028 BKN046 14/07 Q1021 NOSIG
ZGOW,2011-03-07 13:00,ZGOW 071300Z 07007MPS 9999 SCT026 BKN046 14/07 Q1022 NOSIG
ZGOW,2011-03-07 14:00,ZGOW 071400Z 05004MPS 8000 SCT026 BKN040 14/08 Q1022 NOSIG
ZGOW,2011-03-07 15:00,ZGOW 071500Z 05004MPS 9000 BKN046 14/06 Q1022 NOSIG
ZGOW,2011-03-07 16:00,ZGOW 071600Z 06007MPS 9999 BKN050 14/03 Q1022 NOSIG
ZGOW,2011-03-07 17:00,ZGOW 071700Z 06005MPS 9999 BKN050 13/04 Q1022 NOSIG
ZGOW,2011-03-07 21:00,ZGOW 072100Z 06005MPS 5000 HZ BKN050 12/03 Q1021 NOSIG
ZGOW,2011-03-07 22:00,ZGOW 072200Z 06004MPS 4000 HZ NSC 12/03 Q1022 NOSIG
ZGOW,2011-03-07 23:00,ZGOW 072300Z 06005MPS 4000 HZ NSC 12/03 Q1022 NOSIG
ZGOW,2011-03-08 00:00,ZGOW 080000Z 07005MPS 5000 HZ NSC 12/03 Q1023 NOSIG
ZGOW,2011-03-08 01:00,ZGOW 080100Z 08004MPS 5000 HZ NSC 13/04 Q1024 NOSIG
ZGOW,2011-03-08 02:00,ZGOW 080200Z 09004MPS 7000 NSC 13/04 Q1024 NOSIG
ZGOW,2011-03-08 03:00,ZGOW 080300Z 07004MPS 7000 NSC 15/04 Q1023 NOSIG
ZGOW,2011-03-08 04:00,ZGOW 080400Z 08004MPS 5000 HZ NSC 16/04 Q1023 NOSIG
ZGOW,2011-03-08 05:00,ZGOW 080500Z 09005MPS 5000 HZ NSC 17/04 Q1022 NOSIG
ZGOW,2011-03-08 06:00,ZGOW 080600Z 09005MPS 5000 HZ NSC 17/02 Q1021 NOSIG
ZGOW,2011-03-08 07:00,ZGOW 080700Z 11004MPS 7000 NSC 17/03 Q1020 NOSIG
ZGOW,2011-03-08 08:00,ZGOW 080800Z 12004MPS CAVOK 16/03 Q1020 NOSIG
ZGOW,2011-03-08 09:00,ZGOW 080900Z 09005MPS CAVOK 16/02 Q1020 NOSIG
ZGOW,2011-03-08 10:00,ZGOW 081000Z 08007MPS CAVOK 15/02 Q1020 NOSIG
ZGOW,2011-03-08 11:00,ZGOW 081100Z 08007MPS CAVOK 14/04 Q1021 NOSIG
ZGOW,2011-03-08 12:00,ZGOW 081200Z 08006MPS CAVOK 14/05 Q1022 NOSIG
ZGOW,2011-03-08 13:00,ZGOW 081300Z 08007MPS CAVOK 14/06 Q1023 NOSIG
ZGOW,2011-03-08 14:00,ZGOW 081400Z 08007MPS CAVOK 14/06 Q1023 NOSIG
ZGOW,2011-03-08 15:00,ZGOW 081500Z 08008MPS CAVOK 14/06 Q1024 NOSIG
ZGOW,2011-03-08 16:00,ZGOW 081600Z 08007MPS CAVOK 14/05 Q1023 NOSIG
ZGOW,2011-03-08 17:00,ZGOW 081700Z 07008MPS CAVOK 14/05 Q1023 NOSIG
ZGOW,2011-03-08 18:00,ZGOW 081800Z 06004MPS CAVOK 13/05 Q1023 NOSIG
ZGOW,2011-03-08 19:00,ZGOW 081900Z AUTO 04002MPS CAVOK 12/05 Q1022
ZGOW,2011-03-08 20:00,ZGOW 082000Z 04001MPS CAVOK 11/04 Q1023 NOSIG
ZGOW,2011-03-08 21:00,ZGOW 082100Z 00000MPS CAVOK 12/05 Q1023 NOSIG
ZGOW,2011-03-08 22:00,ZGOW 082200Z 02001MPS CAVOK 12/05 Q1023 NOSIG
ZGOW,2011-03-08 23:00,ZGOW 082300Z 02001MPS CAVOK 13/04 Q1023 NOSIG
ZGOW,2011-03-09 00:00,ZGOW 090000Z 01002MPS CAVOK 14/02 Q1024 NOSIG
ZGOW,2011-03-09 01:00,ZGOW 090100Z 03003MPS 9999 FEW033 15/01 Q1024 NOSIG
ZGOW,2011-03-09 02:00,ZGOW 090200Z 32002MPS 9999 SCT040 16/03 Q1025 TEMPO 2800 -RA SCT012 BKN033
ZGOW,2011-03-09 03:00,ZGOW 090300Z 34001MPS 9999 SCT040 17/02 Q1024 NOSIG
ZGOW,2011-03-09 04:00,ZGOW 090400Z 07003MPS 9999 FEW033 18/03 Q1024 NOSIG
ZGOW,2011-03-09 05:00,ZGOW 090500Z 06003MPS 9999 BKN050 19/04 Q1023 NOSIG
ZGOW,2011-03-09 06:00,ZGOW 090600Z 08004MPS 9999 BKN050 18/05 Q1023 NOSIG
ZGOW,2011-03-09 07:00,ZGOW 090700Z 08004MPS CAVOK 18/06 Q1022 NOSIG
ZGOW,2011-03-09 08:00,ZGOW 090800Z 08004MPS CAVOK 18/08 Q1022 TEMPO 2800 -RA SCT012 BKN033
ZGOW,2011-03-09 09:00,ZGOW 090900Z 09004MPS 9999 SCT033 17/08 Q1022 TEMPO 2800 -RA SCT012 BKN033
ZGOW,2011-03-09 10:00,ZGOW 091000Z 06001MPS 8000 -RA BKN040 16/09 Q1023 NOSIG
ZGOW,2011-03-09 11:00,ZGOW 091100Z 07005MPS 9999 SCT040 16/09 Q1023 NOSIG
ZGOW,2011-03-09 12:00,ZGOW 091200Z 08002MPS 9999 SCT040 15/10 Q1024 NOSIG
ZGOW,2011-03-09 13:00,ZGOW 091300Z 10002MPS 9999 SCT050 15/10 Q1024 NOSIG
ZGOW,2011-03-09 14:00,ZGOW 091400Z 04002MPS 9999 SCT050 16/10 Q1025 NOSIG
ZGOW,2011-03-09 15:00,ZGOW 091500Z 08003MPS 9999 FEW040 15/10 Q1024 NOSIG
ZGOW,2011-03-09 16:00,ZGOW 091600Z 02002MPS 9999 SCT040 15/10 Q1024 TEMPO 2800 -RA SCT012 BKN040
ZGOW,2011-03-09 17:00,ZGOW 091700Z 32002MPS 5000 FU FEW020 SCT040 16/09 Q1024 TEMPO 2800 -RA SCT012 BKN040
ZGOW,2011-03-09 18:00,ZGOW 091800Z AUTO 31002MPS 4100 // ////// 15/10 Q1024
ZGOW,2011-03-09 19:00,ZGOW 091900Z AUTO 34002MPS 6000 ////// 15/09 Q1024
ZGOW,2011-03-09 20:00,ZGOW 092000Z 34002MPS 6000 NSC 14/09 Q1023 NOSIG
ZGOW,2011-03-09 21:00,ZGOW 092100Z 35001MPS 6000 NSC 15/09 Q1024 NOSIG
ZGOW,2011-03-09 22:00,ZGOW 092200Z 18001MPS 5000 BR BKN050 14/10 Q1024 NOSIG
ZGOW,2011-03-09 23:00,ZGOW 092300Z 31001MPS 5000 BR NSC 15/10 Q1024 NOSIG
ZGOW,2011-03-10 00:00,ZGOW 100000Z 29002MPS 5000 HZ NSC 15/09 Q1025 NOSIG
ZGOW,2011-03-10 01:00,ZGOW 100100Z 35001MPS 6000 SCT050 17/08 Q1024 NOSIG
ZGOW,2011-03-10 02:00,ZGOW 100200Z 05003MPS 9999 BKN050 18/06 Q1025 NOSIG
ZGOW,2011-03-10 03:00,ZGOW 100300Z 07005MPS 9999 BKN050 18/07 Q1024 NOSIG
ZGOW,2011-03-10 04:00,ZGOW 100400Z 07007MPS 9999 BKN050 19/06 Q1023 NOSIG
ZGOW,2011-03-10 05:00,ZGOW 100500Z 08007MPS 9999 BKN050 18/07 Q1022 NOSIG
ZGOW,2011-03-10 06:00,ZGOW 100600Z 08006MPS 9999 BKN050 18/08 Q1021 NOSIG
ZGOW,2011-03-10 07:00,ZGOW 100700Z 07006MPS 9999 BKN050 17/09 Q1021 NOSIG
ZGOW,2011-03-10 08:00,ZGOW 100800Z 08006MPS 6000 BKN050 16/08 Q1021 NOSIG
ZGOW,2011-03-10 09:00,ZGOW 100900Z 07006MPS 5000 HZ BKN050 16/09 Q1021 NOSIG
ZGOW,2011-03-10 10:00,ZGOW 101000Z 06007MPS 5000 HZ BKN050 15/09 Q1021 NOSIG
ZGOW,2011-03-10 11:00,ZGOW 101100Z 06005MPS 6000 BKN050 15/09 Q1021 NOSIG
ZGOW,2011-03-10 12:00,ZGOW 101200Z 06005MPS 6000 BKN050 15/09 Q1022 NOSIG
ZGOW,2011-03-10 13:00,ZGOW 101300Z 06004MPS 5000 HZ BKN050 15/09 Q1023 NOSIG
ZGOW,2011-03-10 14:00,ZGOW 101400Z 07004MPS 4000 HZ BKN050 15/10 Q1023 NOSIG
ZGOW,2011-03-10 15:00,ZGOW 101500Z 07003MPS 3500 HZ BKN050 15/10 Q1023 NOSIG
ZGOW,2011-03-10 16:00,ZGOW 101600Z 06003MPS 3500 BR BKN043 14/10 Q1023 NOSIG
ZGOW,2011-03-10 17:00,ZGOW 101700Z 08003MPS 3200 BR BKN043 14/11 Q1023 NOSIG
ZGOW,2011-03-10 18:00,ZGOW 101800Z AUTO 07002MPS 3400 // ////// 14/10 Q1022
ZGOW,2011-03-10 19:00,ZGOW 101900Z AUTO 07002MPS 3900 // ////// 14/10 Q1022
ZGOW,2011-03-10 20:00,ZGOW 102000Z 06001MPS 3200 BR BKN040 14/11 Q1022 NOSIG
ZGOW,2011-03-10 21:00,ZGOW 102100Z 12002MPS 3500 HZ BKN040 14/10 Q1021 TEMPO 2100 BR
ZGOW,2011-03-10 22:00,ZGOW 102200Z 02002MPS 3500 BR BKN040 14/10 Q1022 TEMPO 2100 BR
ZGOW,2011-03-10 23:00,ZGOW 102300Z 07002MPS 3500 BR BKN040 14/10 Q1022 NOSIG
ZGOW,2011-03-11 00:00,ZGOW 110000Z 06005MPS 4000 HZ BKN040 15/10 Q1023 NOSIG
ZGOW,2011-03-11 01:00,ZGOW 110100Z 08007MPS 8000 BKN040 15/09 Q1023 NOSIG
ZGOW,2011-03-11 02:00,ZGOW 110200Z 08007MPS 6000 BKN040 16/09 Q1023 NOSIG
ZGOW,2011-03-11 03:00,ZGOW 110300Z 07007MPS 7000 BKN033 16/09 Q1023 NOSIG
ZGOW,2011-03-11 04:00,ZGOW 110400Z 08006MPS 6000 BKN033 16/09 Q1022 NOSIG
ZGOW,2011-03-11 05:00,ZGOW 110500Z 07007MPS 6000 BKN033 17/10 Q1021 NOSIG
ZGOW,2011-03-11 06:00,ZGOW 110600Z 07007MPS 6000 BKN033 16/10 Q1020 NOSIG
ZGOW,2011-03-11 07:00,ZGOW 110700Z 08006MPS 6000 BKN040 16/10 Q1019 NOSIG
ZGOW,2011-03-11 08:00,ZGOW 110800Z 08006MPS 5000 HZ BKN040 16/11 Q1019 NOSIG
ZGOW,2011-03-11 09:00,ZGOW 110900Z 08006MPS 5000 HZ BKN040 16/10 Q1019 NOSIG
ZGOW,2011-03-11 10:00,ZGOW 111000Z 08006MPS 5000 HZ BKN040 15/10 Q1020 NOSIG
ZGOW,2011-03-11 11:00,ZGOW 111100Z 09005MPS 4000 BR BKN036 15/10 Q1019 NOSIG
ZGOW,2011-03-11 12:00,ZGOW 111200Z 08006MPS 4000 BR BKN033 14/10 Q1020 NOSIG
ZGOW,2011-03-11 13:00,ZGOW 111300Z 08006MPS 4000 BR BKN033 14/10 Q1021 NOSIG
ZGOW,2011-03-11 14:00,ZGOW 111400Z 07005MPS 4000 BR BKN033 14/10 Q1021 NOSIG
ZGOW,2011-03-11 15:00,ZGOW 111500Z 07004MPS 4000 BR BKN033 14/10 Q1021 NOSIG
ZGOW,2011-03-11 16:00,ZGOW 111600Z 08004MPS 4000 BR BKN033 14/10 Q1021 NOSIG
ZGOW,2011-03-11 17:00,ZGOW 111700Z 07003MPS 4000 BR BKN033 14/10 Q1021 NOSIG
ZGOW,2011-03-11 18:00,ZGOW 111800Z AUTO 08002MPS 3900 // ////// 14/10 Q1020
ZGOW,2011-03-11 19:00,ZGOW 111900Z AUTO 07003MPS 4200 // ////// 14/10 Q1020
ZGOW,2011-03-11 20:00,ZGOW 112000Z AUTO 05003MPS 4000 // ////// 14/10 Q1020
ZGOW,2011-03-11 21:00,ZGOW 112100Z 08002MPS 4000 BR BKN033 14/11 Q1020 NOSIG
ZGOW,2011-03-11 22:00,ZGOW 112200Z 07002MPS 4000 BR BKN040 14/10 Q1020 NOSIG
ZGOW,2011-03-11 23:00,ZGOW 112300Z 04002MPS 4000 BR BKN033 14/11 Q1021 NOSIG
ZGOW,2011-03-12 00:00,ZGOW 120000Z 07003MPS 4000 BR BKN033 15/11 Q1021 NOSIG
ZGOW,2011-03-12 01:00,ZGOW 120100Z 06002MPS 5000 BR SCT024 BKN043 16/11 Q1021 NOSIG
ZGOW,2011-03-12 02:00,ZGOW 120200Z 07002MPS 6000 BKN033 17/11 Q1021 NOSIG
ZGOW,2011-03-12 03:00,ZGOW 120300Z 08001MPS 7000 NSC 18/11 Q1020 NOSIG
ZGOW,2011-03-12 04:00,ZGOW 120400Z 02001MPS 7000 NSC 20/12 Q1019 NOSIG
ZGOW,2011-03-12 05:00,ZGOW 120500Z 13005MPS 7000 NSC 20/12 Q1018 NOSIG
ZGOW,2011-03-12 06:00,ZGOW 120600Z 13003MPS 6000 BKN050 18/12 Q1017 NOSIG
ZGOW,2011-03-12 07:00,ZGOW 120700Z 15004MPS 5000 HZ BKN050 17/12 Q1017 NOSIG
ZGOW,2011-03-12 08:00,ZGOW 120800Z 14003MPS 5000 HZ NSC 17/12 Q1016 NOSIG
ZGOW,2011-03-12 09:00,ZGOW 120900Z 14002MPS 5000 HZ BKN050 17/12 Q1016 NOSIG
ZGOW,2011-03-12 10:00,ZGOW 121000Z 13003MPS 5000 HZ BKN050 16/11 Q1016 NOSIG
ZGOW,2011-03-12 11:00,ZGOW 121100Z 14002MPS 5000 BR NSC 16/12 Q1017 NOSIG
ZGOW,2011-03-12 12:00,ZGOW 121200Z 16001MPS 5000 BR NSC 16/12 Q1018 NOSIG
ZGOW,2011-03-12 13:00,ZGOW 121300Z 12001MPS 5000 BR NSC 16/13 Q1018 NOSIG
ZGOW,2011-03-12 14:00,ZGOW 121400Z 08001MPS 5000 BR NSC 16/13 Q1018 NOSIG
ZGOW,2011-03-12 15:00,ZGOW 121500Z 14001MPS 4000 BR NSC 16/13 Q1018 NOSIG
ZGOW,2011-03-12 16:00,ZGOW 121600Z 01001MPS 3500 BR NSC 16/13 Q1018 NOSIG
ZGOW,2011-03-12 17:00,ZGOW 121700Z AUTO 13001MPS 1800 // NCD 15/13 Q1017
ZGOW,2011-03-12 19:00,ZGOW 121900Z AUTO 00000MPS 1500 // NCD 14/13 Q1017
ZGOW,2011-03-12 20:00,ZGOW 122000Z 06001MPS 2500 R04/1400VP2000D BR NSC 14/12 Q1017 NOSIG
ZGOW,2011-03-12 21:00,ZGOW 122100Z 00000MPS 1600 R04/1000V1200N BR NSC 14/13 Q1017 NOSIG
ZGOW,2011-03-12 22:00,ZGOW 122200Z 06001MPS 1600 R04/1200VP2000D BR NSC 13/12 Q1017 NOSIG
ZGOW,2011-03-12 23:00,ZGOW 122300Z 08001MPS 1500 R04/1200V1400N BR NSC 14/12 Q1018 NOSIG
ZGOW,2011-03-13 00:00,ZGOW 130000Z 05002MPS 1800 BR NSC 16/13 Q1019 TEMPO 3200 BR
ZGOW,2011-03-13 01:00,ZGOW 130100Z 05003MPS 2500 HZ SKC 18/13 Q1019 BECMG TL0130 3000 HZ
ZGOW,2011-03-13 02:00,ZGOW 130200Z 08004MPS 3000 HZ SKC 19/12 Q1019 NOSIG
ZGOW,2011-03-13 03:00,ZGOW 130300Z 18003MPS 3500 HZ SKC 21/13 Q1018 NOSIG
ZGOW,2011-03-13 04:00,ZGOW 130400Z 18004MPS 3500 HZ SKC 21/14 Q1017 NOSIG
ZGOW,2011-03-13 05:00,ZGOW 130500Z 14003MPS 3500 HZ SKC 22/14 Q1016 NOSIG
ZGOW,2011-03-13 06:00,ZGOW 130600Z 12005MPS 3500 HZ SKC 21/15 Q1015 NOSIG
ZGOW,2011-03-13 07:00,ZGOW 130700Z 12005MPS 3500 HZ SKC 21/14 Q1014 NOSIG
ZGOW,2011-03-13 08:00,ZGOW 130800Z 12004MPS 3500 BR SKC 20/15 Q1014 BECMG TL0900 2500 BR
ZGOW,2011-03-13 09:00,ZGOW 130900Z 12004MPS 3200 BR SKC 19/15 Q1014 BECMG TL1000 2500 BR
ZGOW,2011-03-13 10:00,ZGOW 131000Z 12002MPS 3200 BR SKC 18/15 Q1015 BECMG 2500 BR
ZGOW,2011-03-13 11:00,ZGOW 131100Z 13002MPS 2500 BR SKC 17/14 Q1015 NOSIG
ZGOW,2011-03-13 12:00,ZGOW 131200Z 12002MPS 2500 BR SKC 17/14 Q1016 NOSIG
ZGOW,2011-03-13 13:00,ZGOW 131300Z 17001MPS 1800 BR SCT007 15/14 Q1016 TEMPO 1200 BR
ZGOW,2011-03-13 14:00,ZGOW 131400Z 21002MPS 1600 R04/1400V1800U BR SCT007 15/14 Q1017 TEMPO 1200 BR
ZGOW,2011-03-13 15:00,ZGOW 131500Z 22001MPS 1600 BR SCT006 16/14 Q1017 TEMPO 1200 BR
ZGOW,2011-03-13 16:00,ZGOW 131600Z 18001MPS 1800 BR SCT005 16/15 Q1017 TEMPO 1200 BR
ZGOW,2011-03-13 17:00,ZGOW 131700Z 15002MPS 1800 BR SCT005 16/14 Q1017 TEMPO 1200 BR
ZGOW,2011-03-13 18:00,ZGOW 131800Z AUTO 00000MPS 1600 // ////// 16/14 Q1016
ZGOW,2011-03-13 19:00,ZGOW 131900Z AUTO 36002MPS 1900 // ////// 16/15 Q1016
ZGOW,2011-03-13 20:00,ZGOW 132000Z 03002MPS 2000 BR SCT009 16/15 Q1015 NOSIG
ZGOW,2011-03-13 21:00,ZGOW 132100Z 31001MPS 2500 BR SCT008 17/15 Q1016 NOSIG
ZGOW,2011-03-13 22:00,ZGOW 132200Z 01001MPS 2500 BR SCT008 17/15 Q1016 NOSIG
ZGOW,2011-03-13 23:00,ZGOW 132300Z 32001MPS 2000 BR SCT010 17/15 Q1017 NOSIG
ZGOW,2011-03-14 00:00,ZGOW 140000Z 33002MPS 2000 BR SCT010 SCT040 18/15 Q1017 BECMG TL0100 3000 BR
ZGOW,2011-03-14 01:00,ZGOW 140100Z 35003MPS 1800 BR FEW010 20/16 Q1018 BECMG 3000 HZ
ZGOW,2011-03-14 02:00,ZGOW 140200Z 31001MPS 3200 BR NSC 22/15 Q1017 NOSIG
ZGOW,2011-03-14 03:00,ZGOW 140300Z 31003MPS 4000 HZ NSC 24/15 Q1017 NOSIG
ZGOW,2011-03-14 04:00,ZGOW 140400Z 34002MPS 5000 HZ NSC 26/16 Q1015 NOSIG
ZGOW,2011-03-14 05:00,ZGOW 140500Z 31003MPS 7000 NSC 27/16 Q1014 NOSIG
ZGOW,2011-03-14 06:00,ZGOW 140600Z 11003MPS 3500 HZ SKC 28/17 Q1012 NOSIG
ZGOW,2011-03-14 07:00,ZGOW 140700Z 14005MPS 2500 HZ SKC 25/17 Q1012 NOSIG
ZGOW,2011-03-14 08:00,ZGOW 140800Z 14005MPS 2800 HZ SKC 21/15 Q1012 NOSIG
ZGOW,2011-03-14 09:00,ZGOW 140900Z 14003MPS 2800 HZ NSC 21/15 Q1012 BECMG 2100 BR
ZGOW,2011-03-14 10:00,ZGOW 141000Z 15003MPS 2500 BR NSC 21/16 Q1013 BECMG 1500 BR
ZGOW,2011-03-14 11:00,ZGOW 141100Z 12002MPS 2000 BR NSC 19/17 Q1014 BECMG 1500 BR
ZGOW,2011-03-14 12:00,ZGOW 141200Z 12002MPS 2000 BR NSC 19/17 Q1015 BECMG 1500 BR
ZGOW,2011-03-14 13:00,ZGOW 141300Z 07001MPS 1800 BR NSC 18/16 Q1016 BECMG 1500 BR
ZGOW,2011-03-14 14:00,ZGOW 141400Z 36001MPS 1600 R04/1400VP2000U BR SKC 19/17 Q1017 BECMG 1500 BR
ZGOW,2011-03-14 15:00,ZGOW 141500Z 06001MPS 1200 R04/1200V1600D BR SKC 19/17 Q1016 TEMPO 0700 FG
ZGOW,2011-03-14 16:00,ZGOW 141600Z 04002MPS 1000 R04/1600N BR SKC 18/16 Q1016 TEMPO 0700 FG
ZGOW,2011-03-14 17:00,ZGOW 141700Z 08001MPS 1000 R04/1600N BR SKC 18/16 Q1016 TEMPO 0700 FG
ZGOW,2011-03-14 18:00,ZGOW 141800Z AUTO 33001MPS 1100 R04/1600N // ////// 19/17 Q1015
ZGOW,2011-03-14 19:00,ZGOW 141900Z AUTO 07002MPS 0900 R04/1400V1600N // ////// 18/17 Q1016
ZGOW,2011-03-14 20:00,ZGOW 142000Z AUTO 08010MPS 3300 // ////// 18/14 Q1016
ZGOW,2011-03-14 21:00,ZGOW 142100Z 08010G16MPS 4000 HZ SKC 18/12 Q1017 NOSIG
ZGOW,2011-03-14 22:00,ZGOW 142200Z 08009G14MPS 4000 HZ BKN040 18/12 Q1018 NOSIG
ZGOW,2011-03-14 23:00,ZGOW 142300Z 08008MPS 3500 HZ BKN040 17/12 Q1019 NOSIG
ZGOW,2011-03-15 00:00,ZGOW 150000Z 07011G16MPS 4000 HZ BKN040 18/12 Q1019 NOSIG
ZGOW,2011-03-15 01:00,ZGOW 150100Z 07011G17MPS 4000 HZ BKN046 19/12 Q1020 TEMPO 06015MPS
ZGOW,2011-03-15 02:00,ZGOW 150200Z 06012G17MPS 4000 HZ BKN046 19/10 Q1020 NOSIG
ZGOW,2011-03-15 03:00,ZGOW 150300Z 07011G17MPS 5000 HZ SCT046 21/11 Q1020 NOSIG
ZGOW,2011-03-15 04:00,ZGOW 150400Z 07011G16MPS 9999 BKN050 20/10 Q1019 NOSIG
ZGOW,2011-03-15 05:00,ZGOW 150500Z 07008G13MPS 9999 FEW050 21/11 Q1018 NOSIG
ZGOW,2011-03-15 06:00,ZGOW 150600Z 08007G12MPS CAVOK 21/10 Q1018 NOSIG
ZGOW,2011-03-15 07:00,ZGOW 150700Z 09007MPS 9999 SCT050 20/10 Q1018 NOSIG
ZGOW,2011-03-15 08:00,ZGOW 150800Z 03006MPS 9999 SCT020 BKN040 17/11 Q1019 NOSIG
ZGOW,2011-03-15 09:00,ZGOW 150900Z 31004MPS 5000 -RA SCT016 BKN033 14/12 Q1020 NOSIG
ZGOW,2011-03-15 10:00,ZGOW 151000Z 33005MPS 9999 -RA SCT016 BKN033 13/10 Q1021 NOSIG
ZGOW,2011-03-15 11:00,ZGOW 151100Z 34005MPS 9999 -RA SCT018 BKN033 13/09 Q1022 NOSIG
ZGOW,2011-03-15 12:00,ZGOW 151200Z 34003MPS 9999 BKN028 13/09 Q1024 NOSIG
ZGOW,2011-03-15 13:00,ZGOW 151300Z 34004MPS 9999 SCT024 BKN046 14/08 Q1025 NOSIG
ZGOW,2011-03-15 14:00,ZGOW 151400Z 34003MPS 9999 BKN028 13/07 Q1025 NOSIG
ZGOW,2011-03-15 15:00,ZGOW 151500Z 35003MPS 9999 SCT024 BKN040 13/07 Q1025 NOSIG
ZGOW,2011-03-15 17:00,ZGOW 151700Z 34003MPS 9999 SCT024 BKN050 13/07 Q1023 NOSIG
ZGOW,2011-03-15 18:00,ZGOW 151800Z AUTO 35003MPS 9999 ////// 13/06 Q1023
ZGOW,2011-03-15 19:00,ZGOW 151900Z AUTO 34003MPS 9999 ////// 13/06 Q1023
ZGOW,2011-03-15 20:00,ZGOW 152000Z 34004MPS 9999 SCT024 12/06 Q1023 NOSIG
ZGOW,2011-03-15 21:00,ZGOW 152100Z 34003MPS 9999 FEW024 12/06 Q1023 NOSIG
ZGOW,2011-03-15 22:00,ZGOW 152200Z 34003MPS 9999 SCT026 12/06 Q1024 NOSIG
ZGOW,2011-03-15 23:00,ZGOW 152300Z 34002MPS 9999 SCT024 BKN050 12/06 Q1025 NOSIG
ZGOW,2011-03-16 00:00,ZGOW 160000Z 35001MPS 9999 SCT024 BKN046 13/06 Q1026 NOSIG
ZGOW,2011-03-16 01:00,ZGOW 160100Z 01001MPS 9999 SCT024 BKN050 13/06 Q1026 NOSIG
ZGOW,2011-03-16 02:00,ZGOW 160200Z 01002MPS 9999 SCT024 BKN050 14/06 Q1026 NOSIG
ZGOW,2011-03-16 03:00,ZGOW 160300Z 07003MPS 9999 SCT024 15/07 Q1026 NOSIG
ZGOW,2011-03-16 04:00,ZGOW 160400Z 10005MPS 7000 NSC 16/08 Q1025 NOSIG
ZGOW,2011-03-16 05:00,ZGOW 160500Z 07005MPS 7000 FEW032 16/07 Q1024 NOSIG
ZGOW,2011-03-16 06:00,ZGOW 160600Z 08006MPS 7000 NSC 17/07 Q1023 NOSIG
ZGOW,2011-03-16 07:00,ZGOW 160700Z 08008MPS 8000 SKC 16/05 Q1022 NOSIG
ZGOW,2011-03-16 08:00,ZGOW 160800Z 08008MPS 8000 NSC 16/05 Q1021 NOSIG
ZGOW,2011-03-16 09:00,ZGOW 160900Z 08008MPS 8000 NSC 15/05 Q1021 NOSIG
ZGOW,2011-03-16 10:00,ZGOW 161000Z 07009MPS 8000 NSC 14/06 Q1022 NOSIG
ZGOW,2011-03-16 11:00,ZGOW 161100Z 07008MPS CAVOK 13/05 Q1022 NOSIG
ZGOW,2011-03-16 12:00,ZGOW 161200Z 07008MPS 9999 FEW020 13/06 Q1023 NOSIG
ZGOW,2011-03-16 13:00,ZGOW 161300Z 07008MPS CAVOK 13/07 Q1024 NOSIG
ZGOW,2011-03-16 14:00,ZGOW 161400Z 07007MPS CAVOK 13/06 Q1025 NOSIG
ZGOW,2011-03-16 15:00,ZGOW 161500Z 08007MPS CAVOK 13/06 Q1025 NOSIG
ZGOW,2011-03-16 16:00,ZGOW 161600Z 08006MPS CAVOK 13/05 Q1025 NOSIG
ZGOW,2011-03-16 17:00,ZGOW 161700Z 08006MPS CAVOK 13/05 Q1025 NOSIG
ZGOW,2011-03-16 18:00,ZGOW 161800Z AUTO 08005MPS 8000 NCD 13/05 Q1024
ZGOW,2011-03-16 19:00,ZGOW 161900Z AUTO 07006MPS 8000 NCD 13/04 Q1024
ZGOW,2011-03-16 20:00,ZGOW 162000Z 08006MPS 8000 NSC 12/04 Q1024 NOSIG
ZGOW,2011-03-16 21:00,ZGOW 162100Z 07005MPS 8000 NSC 12/03 Q1024 NOSIG
ZGOW,2011-03-16 22:00,ZGOW 162200Z 05005MPS 7000 NSC 12/03 Q1024 NOSIG
ZGOW,2011-03-16 23:00,ZGOW 162300Z 04004MPS 6000 NSC 13/04 Q1025 NOSIG
ZGOW,2011-03-17 00:00,ZGOW 170000Z 04005MPS 6000 NSC 14/03 Q1025 NOSIG
ZGOW,2011-03-17 01:00,ZGOW 170100Z 03004MPS 6000 NSC 14/04 Q1025 NOSIG
ZGOW,2011-03-17 02:00,ZGOW 170200Z 05006MPS 7000 NSC 16/01 Q1025 NOSIG
ZGOW,2011-03-17 03:00,ZGOW 170300Z 07006MPS 8000 NSC 18/01 Q1024 NOSIG
ZGOW,2011-03-17 04:00,ZGOW 170400Z 07009MPS CAVOK 18/M00 Q1024 NOSIG
ZGOW,2011-03-17 05:00,ZGOW 170500Z 08008MPS CAVOK 19/01 Q1022 NOSIG
ZGOW,2011-03-17 06:00,ZGOW 170600Z 09010MPS CAVOK 18/01 Q1021 NOSIG
ZGOW,2011-03-17 07:00,ZGOW 170700Z 09008MPS CAVOK 18/02 Q1021 NOSIG
ZGOW,2011-03-17 08:00,ZGOW 170800Z 08008MPS CAVOK 17/02 Q1021 NOSIG
ZGOW,2011-03-17 09:00,ZGOW 170900Z 08009MPS CAVOK 16/04 Q1021 NOSIG
ZGOW,2011-03-17 10:00,ZGOW 171000Z 09009MPS CAVOK 15/03 Q1021 NOSIG
ZGOW,2011-03-17 11:00,ZGOW 171100Z 08008MPS CAVOK 15/05 Q1022 NOSIG
ZGOW,2011-03-17 12:00,ZGOW 171200Z 08006MPS CAVOK 15/05 Q1022 NOSIG
ZGOW,2011-03-17 13:00,ZGOW 171300Z 08008G14MPS CAVOK 15/06 Q1023 NOSIG
ZGOW,2011-03-17 14:00,ZGOW 171400Z 08007MPS CAVOK 15/04 Q1023 NOSIG
ZGOW,2011-03-17 15:00,ZGOW 171500Z 08007MPS CAVOK 15/05 Q1023 NOSIG
ZGOW,2011-03-17 16:00,ZGOW 171600Z 07008MPS CAVOK 15/05 Q1022 NOSIG
ZGOW,2011-03-17 17:00,ZGOW 171700Z AUTO 08006MPS 9000 ////// 15/05 Q1022
ZGOW,2011-03-17 18:00,ZGOW 171800Z AUTO 09004MPS 9999 ////// 14/05 Q1022
ZGOW,2011-03-17 20:00,ZGOW 172000Z 03003MPS 7000 BKN040 12/07 Q1020 NOSIG
ZGOW,2011-03-17 21:00,ZGOW 172100Z 02003MPS 7000 -RA BKN040 12/06 Q1020 NOSIG
ZGOW,2011-03-17 22:00,ZGOW 172200Z 02002MPS 6000 -RA BKN040 12/07 Q1021 NOSIG
ZGOW,2011-03-17 23:00,ZGOW 172300Z 03002MPS 4000 BR BKN040 12/08 Q1020 NOSIG
ZGOW,2011-03-18 00:00,ZGOW 180000Z 04001MPS 4000 BR BKN040 13/08 Q1021 NOSIG
ZGOW,2011-03-18 01:00,ZGOW 180100Z 01001MPS 4000 BR BKN030 13/08 Q1022 NOSIG
ZGOW,2011-03-18 02:00,ZGOW 180200Z 36003MPS 6000 BKN030 14/08 Q1022 NOSIG
ZGOW,2011-03-18 03:00,ZGOW 180300Z 35003MPS 6000 BKN030 14/09 Q1021 NOSIG
ZGOW,2011-03-18 04:00,ZGOW 180400Z 04003MPS 9999 BKN028 15/09 Q1021 NOSIG
ZGOW,2011-03-18 05:00,ZGOW 180500Z 04004MPS 9999 BKN028 15/08 Q1020 NOSIG
ZGOW,2011-03-18 06:00,ZGOW 180600Z 06004MPS 9999 BKN030 15/09 Q1018 NOSIG
ZGOW,2011-03-18 07:00,ZGOW 180700Z 05004MPS 9999 BKN030 15/09 Q1018 NOSIG
ZGOW,2011-03-18 08:00,ZGOW 180800Z 05004MPS 9999 BKN030 16/09 Q1017 NOSIG
ZGOW,2011-03-18 09:00,ZGOW 180900Z 07004MPS 9999 BKN030 15/10 Q1018 NOSIG
ZGOW,2011-03-18 10:00,ZGOW 181000Z 05004MPS 9999 OVC030 15/10 Q1018 NOSIG
ZGOW,2011-03-18 11:00,ZGOW 181100Z 05003MPS 9999 OVC030 15/11 Q1018 NOSIG
ZGOW,2011-03-18 12:00,ZGOW 181200Z 08006MPS 9999 BKN033 15/11 Q1019 NOSIG
ZGOW,2011-03-18 13:00,ZGOW 181300Z 08009G15MPS 9999 BKN030 15/12 Q1019 NOSIG
ZGOW,2011-03-18 14:00,ZGOW 181400Z 07007MPS 7000 SCT022 BKN036 14/12 Q1019 NOSIG
ZGOW,2011-03-18 15:00,ZGOW 181500Z 08007MPS 5000 BR SCT022 BKN036 14/12 Q1019 NOSIG
ZGOW,2011-03-18 16:00,ZGOW 181600Z 06006MPS 5000 BR SCT020 BKN033 14/12 Q1019 NOSIG
ZGOW,2011-03-18 17:00,ZGOW 181700Z AUTO 04004MPS 2000 // ////// 15/12 Q1018
ZGOW,2011-03-18 20:00,ZGOW 182000Z AUTO 33002MPS 1000 R04/1400V1600N // ////// 13/12 Q1016
ZGOW,2011-03-18 21:00,ZGOW 182100Z 34002MPS 3000 -RA BR SCT004 BKN026 14/13 Q1016 NOSIG
ZGOW,2011-03-18 22:00,ZGOW 182200Z 35002MPS 3000 -RA BR SCT004 OVC030 14/13 Q1016 NOSIG
ZGOW,2011-03-18 23:00,ZGOW 182300Z 34002MPS 3000 R04/1200V1600N -RA BR FEW003 SCT016 OVC033 14/13 Q1016 NOSIG
ZGOW,2011-03-19 00:00,ZGOW 190000Z 34001MPS 2000 R04/1200V1400D -RA BR SCT003 SCT016 OVC033 14/13 Q1017 TEMPO 1500 RA
ZGOW,2011-03-19 01:00,ZGOW 190100Z 05002MPS 1000 R04/0800V1000N -RA BR SCT003 SCT020 OVC033 15/14 Q1017 NOSIG
ZGOW,2011-03-19 02:00,ZGOW 190200Z 05003MPS 3000 -RA BR SCT005 SCT020 OVC033 15/14 Q1017 NOSIG
ZGOW,2011-03-19 03:00,ZGOW 190300Z 04003MPS 3000 -RA BR SCT003 SCT020 OVC033 15/14 Q1016 TEMPO 2000 -RA BR
ZGOW,2011-03-19 04:00,ZGOW 190400Z 06004MPS 2000 -RA BR SCT003 SCT020 OVC033 15/14 Q1016 TEMPO 1300 -RA BR
ZGOW,2011-03-19 05:00,ZGOW 190500Z 06005MPS 2500 -RA BR SCT003 SCT020 OVC033 15/14 Q1015 TEMPO 1300 -RA BR
ZGOW,2011-03-19 06:00,ZGOW 190600Z 06005MPS 1500 R04/1200V1800D -RA BR SCT003 SCT020 OVC033 15/14 Q1014 TEMPO 1200 RA BR
ZGOW,2011-03-19 07:00,ZGOW 190700Z 06006MPS 1600 R04/1000V1600D -RA BR SCT003 SCT020 OVC033 15/14 Q1013 TEMPO 1200 RA BR
ZGOW,2011-03-19 08:00,ZGOW 190800Z 06004MPS 1600 R04/1200V1400U -RA BR SCT003 SCT020 OVC033 15/14 Q1013 TEMPO 1200 RA BR
ZGOW,2011-03-19 09:00,ZGOW 190900Z 05003MPS 1600 R04/1200V1800U -RA BR SCT003 SCT020 OVC033 15/14 Q1013 RERA TEMPO 1200 RA BR
ZGOW,2011-03-19 10:00,ZGOW 191000Z 07001MPS 1600 R04/1200V1400N -RA BR SCT003 SCT020 OVC033 16/15 Q1013 TEMPO 1200 RA BR
ZGOW,2011-03-19 11:00,ZGOW 191100Z 06003MPS 1600 RA BR SCT003 SCT020 OVC033 16/15 Q1013 TEMPO 1200 RA BR
ZGOW,2011-03-19 12:00,ZGOW 191200Z 07003MPS 2000 -RA BR SCT003 SCT020 OVC033 16/15 Q1014 TEMPO BKN003 OVC026
ZGOW,2011-03-19 13:00,ZGOW 191300Z 06003MPS 2000 -RA BR SCT003 SCT020 OVC033 16/15 Q1014 TEMPO BKN003 OVC026
ZGOW,2011-03-19 14:00,ZGOW 191400Z 06004MPS 2500 -RA BR SCT003 OVC033 16/15 Q1015 TEMPO BKN003 OVC026
ZGOW,2011-03-19 15:00,ZGOW 191500Z 04002MPS 2500 -RA BR SCT004 BKN033 16/15 Q1015 TEMPO BKN003 OVC026
ZGOW,2011-03-19 16:00,ZGOW 191600Z 36002MPS 2000 -RA BR SCT003 BKN033 16/15 Q1015 TEMPO 1300 -RA BR BKN003 OVC026
ZGOW,2011-03-19 17:00,ZGOW 191700Z 35001MPS 1500 R04/1200V1400N -RA BR SCT002 BKN033 16/15 Q1014 TEMPO 1200 -RA BR BKN002 OVC026
ZGOW,2011-03-19 18:00,ZGOW 191800Z AUTO 35001MPS 0800 R04/1200V1400N // ////// 16/15 Q1014
ZGOW,2011-03-19 19:00,ZGOW 191900Z AUTO 32002MPS 0900 R04/1400V1600N // ////// 16/15 Q1014
ZGOW,2011-03-19 20:00,ZGOW 192000Z 28001MPS 1600 R04/1400V1600D BR SCT003 BKN033 16/15 Q1013 NOSIG
ZGOW,2011-03-19 21:00,ZGOW 192100Z 00000MPS 1600 R04/1000V1200N BR SCT004 BKN033 17/16 Q1013 TEMPO 1000 BR
ZGOW,2011-03-19 22:00,ZGOW 192200Z 00000MPS 1500 R04/1200N -RA BR SCT004 BKN033 17/16 Q1013 TEMPO 1000 BR
ZGOW,2011-03-19 23:00,ZGOW 192300Z 00000MPS 0700 R04/0600D FG SCT002 OVC033 17/16 Q1013 TEMPO 0600 FG
ZGOW,2011-03-20 00:00,ZGOW 200000Z 32002MPS 0600 R04/0600V0700N FG SCT002 OVC033 17/16 Q1014 TEMPO 0550 FG
ZGOW,2011-03-20 01:00,ZGOW 200100Z 32001MPS 0500 R04/0450D FG SCT003 OVC033 17/16 Q1014 NOSIG
ZGOW,2011-03-20 02:00,ZGOW 200200Z 33001MPS 0600 R04/0500D FG SCT003 OVC033 18/17 Q1014 NOSIG
ZGOW,2011-03-20 03:00,ZGOW 200300Z 29001MPS 1000 R04/0800N BR SCT003 OVC033 18/17 Q1014 NOSIG
ZGOW,2011-03-20 04:00,ZGOW 200400Z 00000MPS 0750 R04/0800V1000D -RA FG SCT003 OVC033 18/17 Q1013 NOSIG
ZGOW,2011-03-20 05:00,ZGOW 200500Z 34001MPS 0900 R04/1000N FG SCT003 OVC033 19/18 Q1012 NOSIG
ZGOW,2011-03-20 06:00,ZGOW 200600Z 29001MPS 1400 R04/1200V1400N BR SCT004 19/18 Q1011 NOSIG
ZGOW,2011-03-20 07:00,ZGOW 200700Z 00000MPS 1600 BR SCT005 20/19 Q1010 NOSIG
ZGOW,2011-03-20 08:00,ZGOW 200800Z 34001MPS 1600 R04/1400V1600N BR SCT005 20/19 Q1010 NOSIG
ZGOW,2011-03-20 09:00,ZGOW 200900Z 00000MPS 1200 R04/1200N BR SCT005 20/18 Q1010 NOSIG
ZGOW,2011-03-20 10:00,ZGOW 201000Z 00000MPS 0900 R04/0900V1000N FG SCT003 OVC050 20/18 Q1010 TEMPO 0700 FG
ZGOW,2011-03-20 11:00,ZGOW 201100Z 07001MPS 0700 R04/0800V0900N DZ FG SCT003 OVC050 20/18 Q1011 TEMPO 0500 FG
ZGOW,2011-03-20 12:00,ZGOW 201200Z 12002MPS 0300 R04/0200V0250N +DZ FG VV010 18/17 Q1011 NOSIG
ZGOW,2011-03-20 13:00,ZGOW 201300Z 00000MPS 0300 R04/0250N +DZ FG VV010 19/18 Q1012 NOSIG
ZGOW,2011-03-20 14:00,ZGOW 201400Z AUTO 13001MPS 0200 R04/0500N // ////// 19/18 Q1013
ZGOW,2011-03-20 15:00,ZGOW 201500Z AUTO 00000MPS 0250 R04/0600U // ////// 19/18 Q1013
ZGOW,2011-03-20 16:00,ZGOW 201600Z AUTO 00000MPS 0500 R04/0800V1000N // ////// 18/17 Q1013
ZGOW,2011-03-20 17:00,ZGOW 201700Z AUTO 00000MPS 0350 R04/0800D // ////// 18/17 Q1012
ZGOW,2011-03-20 19:00,ZGOW 201900Z AUTO 32001MPS 0050 R04/0150N // ////// 19/18 Q1012
ZGOW,2011-03-20 20:00,ZGOW 202000Z 00000MPS 0100 R04/0125N FG VV003 19/18 Q1011 REDZ NOSIG
ZGOW,2011-03-20 21:00,ZGOW 202100Z 00000MPS 0100 R04/0100N FG VV003 19/18 Q1012 NOSIG
ZGOW,2011-03-20 22:00,ZGOW 202200Z 00000MPS 0100 R04/0150N FG VV003 19/18 Q1012 NOSIG
ZGOW,2011-03-20 23:00,ZGOW 202300Z 00000MPS 0100 R04/0100N FG VV003 19/18 Q1013 NOSIG
ZGOW,2011-03-21 00:00,ZGOW 210000Z 00000MPS 0100 R04/0075V0100N FG VV003 20/19 Q1014 NOSIG
ZGOW,2011-03-21 01:00,ZGOW 210100Z 12001MPS 0600 R04/0900U FG BKN003 OVC033 21/20 Q1014 BECMG TL0130 0800 FG BKN003
ZGOW,2011-03-21 02:00,ZGOW 210200Z 13001MPS 2500 BR BKN005 21/20 Q1014 BECMG 3000 BR SCT012
ZGOW,2011-03-21 03:00,ZGOW 210300Z 15001MPS 7000 SCT006 SCT040 24/20 Q1014 NOSIG
ZGOW,2011-03-21 04:00,ZGOW 210400Z 17002MPS 130V210 9999 SCT012 26/21 Q1013 NOSIG
ZGOW,2011-03-21 05:00,ZGOW 210500Z 14003MPS 100V170 9999 FEW016 27/21 Q1012 NOSIG
ZGOW,2011-03-21 06:00,ZGOW 210600Z 15004MPS 120V200 CAVOK 27/21 Q1011 NOSIG
ZGOW,2011-03-21 07:00,ZGOW 210700Z 16005MPS 9999 SCT040 26/20 Q1010 NOSIG
ZGOW,2011-03-21 08:00,ZGOW 210800Z 14003MPS 8000 NSC 24/20 Q1011 NOSIG
ZGOW,2011-03-21 09:00,ZGOW 210900Z 16003MPS 7000 NSC 24/20 Q1011 NOSIG
ZGOW,2011-03-21 10:00,ZGOW 211000Z 13002MPS 5000 BR NSC 22/20 Q1011 BECMG 2100 BR SCT006 SCT030
ZGOW,2011-03-21 11:00,ZGOW 211100Z 12002MPS 2000 BR SCT001 SCT050 21/19 Q1012 BECMG 1200 BR BKN002
ZGOW,2011-03-21 12:00,ZGOW 211200Z 14001MPS 0400 R04/0700D FG VV/// 20/19 Q1012 TEMPO  FG BKN001
ZGOW,2011-03-21 13:00,ZGOW 211300Z 10001MPS 0200 R04/0200V0250N FG VV/// 20/19 Q1013 NOSIG
ZGOW,2011-03-21 14:00,ZGOW 211400Z 13001MPS 0200 R04/0150N FG VV/// 20/20 Q1014 NOSIG
ZGOW,2011-03-21 15:00,ZGOW 211500Z 11002MPS 0250 R04/0400N FG VV/// 21/20 Q1014 NOSIG
ZGOW,2011-03-21 16:00,ZGOW 211600Z 08002MPS 0200 R04/0250N FG VV/// 21/20 Q1014 NOSIG
ZGOW,2011-03-21 17:00,ZGOW 211700Z 12001MPS 0200 R04/0225D FG VV/// 21/20 Q1014 NOSIG
ZGOW,2011-03-21 18:00,ZGOW 211800Z 05001MPS 0300 R04/0450U FG VV/// 21/20 Q1015 NOSIG
ZGOW,2011-03-21 19:00,ZGOW 211900Z 06005MPS 3500 BR SCT003 BKN030 16/16 Q1015 NOSIG
ZGOW,2011-03-21 20:00,ZGOW 212000Z 06007MPS 6000 SCT005 BKN030 15/14 Q1016 NOSIG
ZGOW,2011-03-21 21:00,ZGOW 212100Z 07009G14MPS 8000 SCT007 BKN033 15/13 Q1016 NOSIG
ZGOW,2011-03-21 22:00,ZGOW 212200Z 07007MPS 8000 SCT012 BKN040 15/13 Q1017 NOSIG
ZGOW,2011-03-21 23:00,ZGOW 212300Z 07010MPS 9999 SCT016 BKN040 15/12 Q1018 NOSIG
ZGOW,2011-03-22 00:00,ZGOW 220000Z 06010G15MPS 9999 SCT010 OVC040 14/12 Q1019 NOSIG
ZGOW,2011-03-22 01:00,ZGOW 220100Z 07010G15MPS 9999 SCT014 OVC040 14/12 Q1021 NOSIG
ZGOW,2011-03-22 02:00,ZGOW 220200Z 07008G13MPS 9999 SCT014 BKN040 14/11 Q1021 NOSIG
ZGOW,2011-03-22 03:00,ZGOW 220300Z 07009G14MPS 9999 SCT018 BKN040 15/12 Q1022 NOSIG
ZGOW,2011-03-22 04:00,ZGOW 220400Z 07007G12MPS 9999 FEW010 SCT020 BKN050 15/12 Q1021 NOSIG
ZGOW,2011-03-22 05:00,ZGOW 220500Z 07006MPS 2500 R04/1200VP2000D -RA BR SCT010 SCT018 OVC040 14/12 Q1021 NOSIG
ZGOW,2011-03-22 06:00,ZGOW 220600Z 08005MPS 2000 R04/1400V1800N -DZ BR SCT007 OVC030 14/12 Q1020 NOSIG
ZGOW,2011-03-22 07:00,ZGOW 220700Z 07006MPS 4000 BR SCT012 OVC033 15/11 Q1019 NOSIG
ZGOW,2011-03-22 08:00,ZGOW 220800Z 08006MPS 7000 SCT016 OVC033 15/11 Q1019 NOSIG
ZGOW,2011-03-22 09:00,ZGOW 220900Z 07008MPS 9999 SCT016 OVC033 14/10 Q1020 NOSIG
ZGOW,2011-03-22 10:00,ZGOW 221000Z 08008MPS 9999 SCT022 OVC033 14/10 Q1020 NOSIG
ZGOW,2011-03-22 11:00,ZGOW 221100Z 07007MPS 9999 OVC028 14/10 Q1021 NOSIG
ZGOW,2011-03-22 12:00,ZGOW 221200Z 08007MPS 9999 BKN028 13/09 Q1022 NOSIG
ZGOW,2011-03-22 13:00,ZGOW 221300Z 08008MPS 9999 BKN026 13/09 Q1023 NOSIG
ZGOW,2011-03-22 14:00,ZGOW 221400Z 08007MPS 9999 SCT020 BKN040 13/09 Q1023 NOSIG
ZGOW,2011-03-22 15:00,ZGOW 221500Z 07008MPS 9999 SCT020 BKN040 13/08 Q1023 NOSIG
ZGOW,2011-03-22 16:00,ZGOW 221600Z 07008MPS 9999 SCT022 BKN040 13/08 Q1023 NOSIG
ZGOW,2011-03-22 17:00,ZGOW 221700Z 07007MPS 9999 SCT022 BKN046 13/08 Q1024 NOSIG
ZGOW,2011-03-22 18:00,ZGOW 221800Z AUTO 07007MPS 3100 // ////// 12/07 Q1024
ZGOW,2011-03-22 19:00,ZGOW 221900Z AUTO 05007MPS 3100 // ////// 12/07 Q1024
ZGOW,2011-03-22 20:00,ZGOW 222000Z 06005MPS 9999 FEW020 BKN050 12/07 Q1024 NOSIG
ZGOW,2011-03-22 21:00,ZGOW 222100Z 06006MPS 9999 SCT020 BKN040 12/07 Q1024 NOSIG
ZGOW,2011-03-22 22:00,ZGOW 222200Z 06005MPS 9999 FEW018 BKN033 12/07 Q1024 NOSIG
ZGOW,2011-03-22 23:00,ZGOW 222300Z 06005MPS 9999 SCT020 BKN040 12/07 Q1025 NOSIG
ZGOW,2011-03-23 00:00,ZGOW 230000Z 06005MPS 9999 SCT020 BKN040 13/07 Q1025 NOSIG
ZGOW,2011-03-23 01:00,ZGOW 230100Z 06005MPS 7000 SCT024 BKN040 13/07 Q1025 NOSIG
ZGOW,2011-03-23 02:00,ZGOW 230200Z 06004MPS 7000 SCT024 BKN040 14/07 Q1025 NOSIG
ZGOW,2011-03-23 03:00,ZGOW 230300Z 06004MPS 7000 SCT024 BKN040 15/08 Q1025 NOSIG
ZGOW,2011-03-23 04:00,ZGOW 230400Z 07004MPS 7000 SCT028 BKN040 16/08 Q1024 NOSIG
ZGOW,2011-03-23 05:00,ZGOW 230500Z 09003MPS 7000 SCT028 BKN040 16/08 Q1022 NOSIG
ZGOW,2011-03-23 06:00,ZGOW 230600Z 09004MPS 7000 BKN032 16/08 Q1021 NOSIG
ZGOW,2011-03-23 07:00,ZGOW 230700Z 08004MPS 7000 BKN030 16/07 Q1021 NOSIG
ZGOW,2011-03-23 08:00,ZGOW 230800Z 09005MPS 7000 BKN030 15/07 Q1020 NOSIG
ZGOW,2011-03-23 09:00,ZGOW 230900Z 08005MPS 7000 BKN032 15/07 Q1021 NOSIG
ZGOW,2011-03-23 10:00,ZGOW 231000Z 09006MPS 8000 BKN033 14/07 Q1021 TEMPO 09007G12MPS
ZGOW,2011-03-23 11:00,ZGOW 231100Z 08007MPS 9999 BKN033 13/07 Q1021 TEMPO 08008G13MPS
ZGOW,2011-03-23 12:00,ZGOW 231200Z 08007MPS 9999 BKN033 13/07 Q1022 TEMPO 08008G13MPS
ZGOW,2011-03-23 13:00,ZGOW 231300Z 08007MPS 9999 BKN033 13/07 Q1023 TEMPO 08008G13MPS
ZGOW,2011-03-23 14:00,ZGOW 231400Z 08007MPS 9999 BKN033 13/05 Q1023 TEMPO 08008G13MPS
ZGOW,2011-03-23 15:00,ZGOW 231500Z 08006MPS 9999 BKN033 13/04 Q1023 TEMPO 08008G13MPS
ZGOW,2011-03-23 16:00,ZGOW 231600Z 06007MPS 9999 BKN032 13/04 Q1024 TEMPO 08008G13MPS
ZGOW,2011-03-23 17:00,ZGOW 231700Z 05006MPS 9999 BKN032 13/04 Q1024 NOSIG
ZGOW,2011-03-23 18:00,ZGOW 231800Z AUTO 07005MPS 5000 ////// 13/04 Q1024
ZGOW,2011-03-23 19:00,ZGOW 231900Z AUTO 04003MPS 5000 ////// 13/05 Q1024
ZGOW,2011-03-23 20:00,ZGOW 232000Z 04002MPS 8000 BKN032 13/05 Q1024 NOSIG
ZGOW,2011-03-23 21:00,ZGOW 232100Z 04002MPS 8000 BKN032 13/05 Q1024 NOSIG
ZGOW,2011-03-23 22:00,ZGOW 232200Z 04002MPS 8000 BKN040 13/06 Q1024 NOSIG
ZGOW,2011-03-23 23:00,ZGOW 232300Z 04003MPS 9999 BKN040 13/06 Q1024 NOSIG
ZGOW,2011-03-24 00:00,ZGOW 240000Z 05003MPS 9999 BKN040 14/05 Q1024 NOSIG
ZGOW,2011-03-24 01:00,ZGOW 240100Z 02004MPS 7000 BKN040 15/05 Q1024 NOSIG
ZGOW,2011-03-24 02:00,ZGOW 240200Z 06004MPS 8000 BKN040 16/04 Q1024 NOSIG
ZGOW,2011-03-24 03:00,ZGOW 240300Z 06004MPS 8000 BKN040 17/04 Q1024 NOSIG
ZGOW,2011-03-24 04:00,ZGOW 240400Z 08004MPS 8000 BKN040 18/06 Q1023 NOSIG
ZGOW,2011-03-24 05:00,ZGOW 240500Z 08003MPS 8000 BKN040 18/06 Q1022 NOSIG
ZGOW,2011-03-24 06:00,ZGOW 240600Z 08003MPS 8000 BKN040 19/07 Q1021 NOSIG
ZGOW,2011-03-24 07:00,ZGOW 240700Z 11004MPS 8000 BKN050 18/07 Q1020 NOSIG
ZGOW,2011-03-24 08:00,ZGOW 240800Z 08004MPS 8000 BKN050 16/08 Q1020 NOSIG
ZGOW,2011-03-24 09:00,ZGOW 240900Z 07004MPS 5000 HZ BKN050 16/08 Q1021 NOSIG
ZGOW,2011-03-24 10:00,ZGOW 241000Z 07005MPS 5000 HZ BKN050 15/08 Q1021 NOSIG
ZGOW,2011-03-24 11:00,ZGOW 241100Z 06005MPS 5000 HZ BKN050 15/07 Q1022 NOSIG
ZGOW,2011-03-24 12:00,ZGOW 241200Z 07006MPS 5000 HZ BKN050 14/06 Q1023 NOSIG
ZGOW,2011-03-24 13:00,ZGOW 241300Z 07006MPS 5000 HZ BKN050 14/06 Q1024 NOSIG
ZGOW,2011-03-24 14:00,ZGOW 241400Z 08006MPS 5000 HZ BKN050 14/06 Q1024 NOSIG
ZGOW,2011-03-24 15:00,ZGOW 241500Z 07005MPS 5000 HZ BKN050 14/06 Q1025 NOSIG
ZGOW,2011-03-24 16:00,ZGOW 241600Z 06003MPS 5000 HZ BKN050 14/07 Q1025 NOSIG
ZGOW,2011-03-24 17:00,ZGOW 241700Z 07003MPS 5000 HZ BKN050 14/07 Q1025 NOSIG
ZGOW,2011-03-24 18:00,ZGOW 241800Z 07003MPS 5000 HZ BKN050 14/07 Q1025 NOSIG
ZGOW,2011-03-24 19:00,ZGOW 241900Z AUTO 04002MPS 3000 // ////// 14/07 Q1024
ZGOW,2011-03-24 20:00,ZGOW 242000Z 07002MPS 5000 HZ BKN050 14/07 Q1024 NOSIG
ZGOW,2011-03-24 21:00,ZGOW 242100Z 07002MPS 5000 HZ BKN050 14/07 Q1024 NOSIG
ZGOW,2011-03-24 22:00,ZGOW 242200Z 04001MPS 4000 HZ BKN050 13/07 Q1025 NOSIG
ZGOW,2011-03-24 23:00,ZGOW 242300Z 08001MPS 4000 HZ NSC 13/08 Q1025 NOSIG
ZGOW,2011-03-25 00:00,ZGOW 250000Z 07002MPS 4000 HZ SKC 15/07 Q1026 NOSIG
ZGOW,2011-03-25 01:00,ZGOW 250100Z 04003MPS 6000 SKC 16/05 Q1026 NOSIG
ZGOW,2011-03-25 02:00,ZGOW 250200Z 04004MPS 6000 NSC 18/05 Q1025 NOSIG
ZGOW,2011-03-25 03:00,ZGOW 250300Z 08005MPS 6000 NSC 19/05 Q1025 NOSIG
ZGOW,2011-03-25 04:00,ZGOW 250400Z 09008MPS 7000 SKC 19/05 Q1024 NOSIG
ZGOW,2011-03-25 05:00,ZGOW 250500Z 09008MPS 6000 SKC 19/04 Q1023 NOSIG
ZGOW,2011-03-25 06:00,ZGOW 250600Z 08009MPS 5000 HZ SKC 19/03 Q1022 NOSIG
ZGOW,2011-03-25 07:00,ZGOW 250700Z 08010MPS 6000 NSC 19/03 Q1022 NOSIG
ZGOW,2011-03-25 08:00,ZGOW 250800Z 08009MPS 7000 NSC 18/03 Q1022 NOSIG
ZGOW,2011-03-25 09:00,ZGOW 250900Z 08009G14MPS 7000 NSC 17/03 Q1022 NOSIG
ZGOW,2011-03-25 10:00,ZGOW 251000Z 08009G14MPS 7000 NSC 16/05 Q1023 NOSIG
ZGOW,2011-03-25 11:00,ZGOW 251100Z 07009G15MPS 7000 NSC 15/06 Q1024 NOSIG
ZGOW,2011-03-25 12:00,ZGOW 251200Z 07010G15MPS 6000 NSC 14/07 Q1025 NOSIG
ZGOW,2011-03-25 13:00,ZGOW 251300Z 07011G16MPS 8000 NSC 14/05 Q1025 NOSIG
ZGOW,2011-03-25 14:00,ZGOW 251400Z 07008G13MPS CAVOK 14/05 Q1026 NOSIG
ZGOW,2011-03-25 15:00,ZGOW 251500Z 07008MPS CAVOK 14/05 Q1026 NOSIG
ZGOW,2011-03-25 16:00,ZGOW 251600Z 08007MPS CAVOK 14/05 Q1025 NOSIG
ZGOW,2011-03-25 17:00,ZGOW 251700Z 08006MPS CAVOK 14/05 Q1025 NOSIG
ZGOW,2011-03-25 18:00,ZGOW 251800Z 07005MPS CAVOK 14/06 Q1025 NOSIG
ZGOW,2011-03-25 19:00,ZGOW 251900Z AUTO 07005MPS 3300 // ////// 14/05 Q1025
ZGOW,2011-03-25 20:00,ZGOW 252000Z AUTO 07003MPS 3300 // ////// 13/05 Q1025
ZGOW,2011-03-25 21:00,ZGOW 252100Z 08005MPS 5000 HZ NSC 13/05 Q1025 NOSIG
ZGOW,2011-03-25 22:00,ZGOW 252200Z 07007MPS 5000 HZ NSC 13/04 Q1025 NOSIG
ZGOW,2011-03-25 23:00,ZGOW 252300Z 08004MPS 6000 NSC 13/04 Q1026 NOSIG
ZGOW,2011-03-26 00:00,ZGOW 260000Z 06003MPS 6000 NSC 14/04 Q1026 NOSIG
ZGOW,2011-03-26 01:00,ZGOW 260100Z 04006MPS 7000 NSC 15/02 Q1026 NOSIG
ZGOW,2011-03-26 02:00,ZGOW 260200Z 06005MPS 8000 NSC 15/02 Q1026 NOSIG
ZGOW,2011-03-26 04:00,ZGOW 260400Z 08005MPS 9999 SCT040 15/03 Q1025 NOSIG
ZGOW,2011-03-26 05:00,ZGOW 260500Z 09005MPS CAVOK 17/03 Q1024 NOSIG
ZGOW,2011-03-26 06:00,ZGOW 260600Z 09006MPS CAVOK 17/04 Q1023 NOSIG
ZGOW,2011-03-26 07:00,ZGOW 260700Z 09006MPS CAVOK 16/04 Q1022 NOSIG
ZGOW,2011-03-26 08:00,ZGOW 260800Z 08006MPS CAVOK 15/05 Q1022 NOSIG
ZGOW,2011-03-26 09:00,ZGOW 260900Z 08007MPS CAVOK 15/04 Q1022 TEMPO 08008G13MPS
ZGOW,2011-03-26 10:00,ZGOW 261000Z 08006MPS CAVOK 14/05 Q1023 TEMPO 08008G13MPS
ZGOW,2011-03-26 11:00,ZGOW 261100Z 08006MPS CAVOK 14/06 Q1024 TEMPO 08007G12MPS
ZGOW,2011-03-26 12:00,ZGOW 261200Z 08007MPS CAVOK 14/05 Q1025 TEMPO 08008G13MPS
ZGOW,2011-03-26 13:00,ZGOW 261300Z 08008MPS CAVOK 13/06 Q1025 TEMPO 08008G13MPS
ZGOW,2011-03-26 14:00,ZGOW 261400Z 08006MPS CAVOK 13/06 Q1025 NOSIG
ZGOW,2011-03-26 15:00,ZGOW 261500Z 06004MPS CAVOK 13/06 Q1025 NOSIG
ZGOW,2011-03-26 16:00,ZGOW 261600Z 06004MPS CAVOK 13/05 Q1025 NOSIG
ZGOW,2011-03-26 17:00,ZGOW 261700Z 07004MPS 9999 FEW040 13/05 Q1025 NOSIG
ZGOW,2011-03-26 18:00,ZGOW 261800Z AUTO 07003MPS 4800 // ////// 13/05 Q1025
ZGOW,2011-03-26 19:00,ZGOW 261900Z AUTO 06003MPS 4400 // ////// 13/04 Q1024
ZGOW,2011-03-26 20:00,ZGOW 262000Z AUTO 06003MPS 4400 // ////// 13/04 Q1024
ZGOW,2011-03-26 21:00,ZGOW 262100Z 04002MPS CAVOK 13/05 Q1024 NOSIG
ZGOW,2011-03-26 22:00,ZGOW 262200Z 02005MPS 9999 SCT050 13/03 Q1024 NOSIG
ZGOW,2011-03-26 23:00,ZGOW 262300Z 04003MPS 9999 BKN050 12/04 Q1024 NOSIG
ZGOW,2011-03-27 00:00,ZGOW 270000Z 04003MPS 9999 BKN050 13/03 Q1025 TEMPO 2800 -RA SCT020 OVC033
ZGOW,2011-03-27 01:00,ZGOW 270100Z 06003MPS 8000 BKN050 13/04 Q1025 NOSIG
ZGOW,2011-03-27 02:00,ZGOW 270200Z 04005MPS 8000 NSC 14/03 Q1025 NOSIG
ZGOW,2011-03-27 03:00,ZGOW 270300Z 03005MPS 8000 NSC 14/03 Q1025 NOSIG
ZGOW,2011-03-27 04:00,ZGOW 270400Z 05006MPS 8000 NSC 16/04 Q1024 NOSIG
ZGOW,2011-03-27 05:00,ZGOW 270500Z 06005MPS 8000 SCT018 15/03 Q1023 TEMPO 2100 -RA BR SCT014 BKN033
ZGOW,2011-03-27 06:00,ZGOW 270600Z 06003MPS 8000 SCT018 15/05 Q1022 TEMPO 2100 -RA BR SCT014 BKN033
ZGOW,2011-03-27 07:00,ZGOW 270700Z 09005MPS 7000 SCT018 14/06 Q1022 TEMPO 2100 -RA BR SCT014 BKN033
ZGOW,2011-03-27 08:00,ZGOW 270800Z 08005MPS 8000 SCT018 14/06 Q1022 NOSIG
ZGOW,2011-03-27 09:00,ZGOW 270900Z 08006MPS 8000 SCT018 14/06 Q1022 NOSIG
ZGOW,2011-03-27 10:00,ZGOW 271000Z 07004MPS 8000 NSC 14/06 Q1023 NOSIG
ZGOW,2011-03-27 11:00,ZGOW 271100Z 07004MPS 8000 NSC 13/06 Q1023 NOSIG
ZGOW,2011-03-27 12:00,ZGOW 271200Z 07004MPS 8000 NSC 14/05 Q1024 NOSIG
ZGOW,2011-03-27 13:00,ZGOW 271300Z 06003MPS 8000 NSC 13/06 Q1025 NOSIG
ZGOW,2011-03-27 14:00,ZGOW 271400Z 07004MPS 8000 NSC 13/05 Q1025 NOSIG
ZGOW,2011-03-27 15:00,ZGOW 271500Z 06004MPS 8000 NSC 13/06 Q1025 NOSIG
ZGOW,2011-03-27 16:00,ZGOW 271600Z 04003MPS 8000 NSC 12/06 Q1025 NOSIG
ZGOW,2011-03-27 17:00,ZGOW 271700Z 05002MPS 8000 NSC 12/06 Q1024 NOSIG
ZGOW,2011-03-27 18:00,ZGOW 271800Z 07002MPS 7000 NSC 12/07 Q1024 NOSIG
ZGOW,2011-03-27 19:00,ZGOW 271900Z 05001MPS 8000 NSC 12/06 Q1024 NOSIG
ZGOW,2011-03-27 20:00,ZGOW 272000Z AUTO 09001MPS 3200 // NCD 12/06 Q1023
ZGOW,2011-03-27 21:00,ZGOW 272100Z 00000MPS 8000 NSC 12/07 Q1023 NOSIG
ZGOW,2011-03-27 22:00,ZGOW 272200Z 04001MPS 8000 NSC 12/06 Q1024 NOSIG
ZGOW,2011-03-27 23:00,ZGOW 272300Z 00000MPS 8000 NSC 12/06 Q1025 NOSIG
ZGOW,2011-03-28 00:00,ZGOW 280000Z 06003MPS 7000 NSC 14/04 Q1025 NOSIG
ZGOW,2011-03-28 01:00,ZGOW 280100Z 03004MPS CAVOK 16/04 Q1025 NOSIG
ZGOW,2011-03-28 02:00,ZGOW 280200Z 05005MPS CAVOK 17/M01 Q1025 NOSIG
ZGOW,2011-03-28 03:00,ZGOW 280300Z 12003MPS CAVOK 18/02 Q1025 NOSIG
ZGOW,2011-03-28 04:00,ZGOW 280400Z 10004MPS CAVOK 18/01 Q1023 NOSIG
ZGOW,2011-03-28 05:00,ZGOW 280500Z 09005MPS CAVOK 20/01 Q1022 NOSIG
ZGOW,2011-03-28 06:00,ZGOW 280600Z 12005MPS CAVOK 19/04 Q1021 NOSIG
ZGOW,2011-03-28 07:00,ZGOW 280700Z 13004MPS CAVOK 19/03 Q1021 NOSIG
ZGOW,2011-03-28 08:00,ZGOW 280800Z 12004MPS CAVOK 18/03 Q1020 NOSIG
ZGOW,2011-03-28 09:00,ZGOW 280900Z 08005MPS CAVOK 17/02 Q1021 NOSIG
ZGOW,2011-03-28 10:00,ZGOW 281000Z 09006MPS 7000 NSC 16/03 Q1022 NOSIG
ZGOW,2011-03-28 11:00,ZGOW 281100Z 09005MPS CAVOK 15/04 Q1022 NOSIG
ZGOW,2011-03-28 12:00,ZGOW 281200Z 07006MPS CAVOK 15/03 Q1023 NOSIG
ZGOW,2011-03-28 13:00,ZGOW 281300Z 06008MPS CAVOK 15/02 Q1023 NOSIG
ZGOW,2011-03-28 14:00,ZGOW 281400Z 07005MPS CAVOK 14/04 Q1024 NOSIG
ZGOW,2011-03-28 15:00,ZGOW 281500Z 05003MPS 7000 NSC 12/04 Q1025 NOSIG
ZGOW,2011-03-28 16:00,ZGOW 281600Z 06006MPS 1600 R04/1400V1800N BR BKN002 15/13 Q1016 TEMPO 1300 BR
ZGOW,2011-03-28 17:00,ZGOW 281700Z 07007MPS 1600 BR BKN003 14/13 Q1016 TEMPO 1300 BR
ZGOW,2011-03-28 18:00,ZGOW 281800Z 07007MPS 1800 BR BKN004 14/13 Q1016 TEMPO 1300 BR
ZGOW,2011-03-28 19:00,ZGOW 281900Z AUTO 06007MPS 2000 // ////// 15/13 Q1015
ZGOW,2011-03-28 20:00,ZGOW 282000Z AUTO 07005MPS 2000 // ////// 15/13 Q1015
ZGOW,2011-03-28 21:00,ZGOW 282100Z 05005MPS 2000 BR BKN006 15/13 Q1016 NOSIG
ZGOW,2011-03-28 22:00,ZGOW 282200Z 07005MPS 2000 BR BKN006 16/14 Q1017 NOSIG
ZGOW,2011-03-28 23:00,ZGOW 282300Z 05003MPS 1600 BR BKN006 16/14 Q1017 NOSIG
ZGOW,2011-03-29 00:00,ZGOW 290000Z 34001MPS 3500 HZ NSC 14/08 Q1025 NOSIG
ZGOW,2011-03-29 01:00,ZGOW 290100Z 36001MPS 3500 HZ NSC 17/05 Q1026 NOSIG
ZGOW,2011-03-29 02:00,ZGOW 290200Z 08003MPS 4000 HZ NSC 19/03 Q1025 NOSIG
ZGOW,2011-03-29 03:00,ZGOW 290300Z 08003MPS 6000 NSC 20/M00 Q1025 NOSIG
ZGOW,2011-03-29 04:00,ZGOW 290400Z 10004MPS 7000 NSC 22/00 Q1024 NOSIG
ZGOW,2011-03-29 05:00,ZGOW 290500Z 13004MPS 7000 NSC 22/04 Q1023 NOSIG
ZGOW,2011-03-29 06:00,ZGOW 290600Z 14003MPS 8000 NSC 21/02 Q1022 NOSIG
ZGOW,2011-03-29 07:00,ZGOW 290700Z 12002MPS 8000 NSC 20/04 Q1022 NOSIG
ZGOW,2011-03-29 08:00,ZGOW 290800Z 09005MPS CAVOK 20/01 Q1021 NOSIG
ZGOW,2011-03-29 09:00,ZGOW 290900Z 08005MPS CAVOK 19/01 Q1021 NOSIG
ZGOW,2011-03-29 10:00,ZGOW 291000Z 08006MPS CAVOK 18/01 Q1021 NOSIG
ZGOW,2011-03-29 11:00,ZGOW 291100Z 06005MPS CAVOK 16/05 Q1021 NOSIG
ZGOW,2011-03-29 12:00,ZGOW 291200Z 06006MPS CAVOK 16/04 Q1022 TEMPO 06007G12MPS
ZGOW,2011-03-29 13:00,ZGOW 291300Z 07007MPS CAVOK 17/04 Q1022 TEMPO 06007G12MPS
ZGOW,2011-03-29 14:00,ZGOW 291400Z 08004MPS CAVOK 16/04 Q1023 NOSIG
ZGOW,2011-03-29 16:00,ZGOW 291600Z 09002MPS CAVOK 16/02 Q1023 NOSIG
ZGOW,2011-03-29 17:00,ZGOW 291700Z 00000MPS 9999 FEW050 15/05 Q1022 NOSIG
ZGOW,2011-03-29 18:00,ZGOW 291800Z AUTO 28001MPS 4900 // NCD 15/05 Q1022
ZGOW,2011-03-29 21:00,ZGOW 292100Z 00000MPS 5000 HZ NSC 14/07 Q1021 NOSIG
ZGOW,2011-03-29 22:00,ZGOW 292200Z 13001MPS 5000 HZ NSC 13/07 Q1022 NOSIG
ZGOW,2011-03-29 23:00,ZGOW 292300Z 00000MPS 5000 HZ NSC 14/08 Q1022 NOSIG
ZGOW,2011-03-30 00:00,ZGOW 300000Z 11001MPS 6000 NSC 16/04 Q1023 NOSIG
ZGOW,2011-03-30 01:00,ZGOW 300100Z 07006MPS CAVOK 18/05 Q1024 NOSIG
ZGOW,2011-03-30 02:00,ZGOW 300200Z 08005MPS CAVOK 18/05 Q1024 NOSIG
ZGOW,2011-03-30 03:00,ZGOW 300300Z 08005MPS 7000 NSC 18/06 Q1024 NOSIG
ZGOW,2011-03-30 04:00,ZGOW 300400Z 08006MPS 7000 NSC 18/06 Q1023 NOSIG
ZGOW,2011-03-30 05:00,ZGOW 300500Z 08005MPS 7000 NSC 18/06 Q1022 NOSIG
ZGOW,2011-03-30 06:00,ZGOW 300600Z 08006MPS 7000 NSC 19/06 Q1021 NOSIG
ZGOW,2011-03-30 07:00,ZGOW 300700Z 14004MPS 7000 NSC 18/09 Q1021 NOSIG
ZGOW,2011-03-30 08:00,ZGOW 300800Z 12004MPS 7000 NSC 17/09 Q1020 NOSIG
ZGOW,2011-03-30 09:00,ZGOW 300900Z 10003MPS 7000 NSC 17/08 Q1020 NOSIG
ZGOW,2011-03-30 10:00,ZGOW 301000Z 08004MPS 7000 NSC 16/07 Q1020 NOSIG
ZGOW,2011-03-30 11:00,ZGOW 301100Z 08004MPS 7000 NSC 15/06 Q1021 NOSIG
ZGOW,2011-03-30 12:00,ZGOW 301200Z 08004MPS 7000 NSC 15/07 Q1022 NOSIG
ZGOW,2011-03-30 13:00,ZGOW 301300Z 08003MPS 7000 NSC 15/07 Q1022 NOSIG
ZGOW,2011-03-30 14:00,ZGOW 301400Z 07004MPS 7000 NSC 14/07 Q1023 NOSIG
ZGOW,2011-03-30 15:00,ZGOW 301500Z 07005MPS CAVOK 14/08 Q1023 NOSIG
ZGOW,2011-03-30 16:00,ZGOW 301600Z 08005MPS CAVOK 14/07 Q1022 NOSIG
ZGOW,2011-03-30 17:00,ZGOW 301700Z 06004MPS CAVOK 14/07 Q1022 NOSIG
ZGOW,2011-03-30 19:00,ZGOW 301900Z AUTO 03001MPS 7000 NCD 13/08 Q1021
ZGOW,2011-03-30 21:00,ZGOW 302100Z 03002MPS 7000 NSC 13/07 Q1021 NOSIG
ZGOW,2011-03-30 22:00,ZGOW 302200Z 04002MPS 7000 NSC 13/07 Q1020 NOSIG
ZGOW,2011-03-30 23:00,ZGOW 302300Z 05001MPS 5000 HZ NSC 14/06 Q1021 NOSIG
ZGOW,2011-03-31 00:00,ZGOW 310000Z 36001MPS 7000 NSC 15/06 Q1022 NOSIG
ZGOW,2011-03-31 01:00,ZGOW 310100Z 04003MPS 7000 NSC 17/06 Q1022 NOSIG
ZGOW,2011-03-31 02:00,ZGOW 310200Z 06004MPS 7000 NSC 19/06 Q1022 NOSIG
ZGOW,2011-03-31 03:00,ZGOW 310300Z 08005MPS 8000 NSC 19/06 Q1021 NOSIG
ZGOW,2011-03-31 04:00,ZGOW 310400Z 08005MPS 8000 NSC 19/08 Q1020 NOSIG
ZGOW,2011-03-31 05:00,ZGOW 310500Z 09004MPS CAVOK 21/07 Q1019 NOSIG
ZGOW,2011-03-31 06:00,ZGOW 310600Z 13004MPS CAVOK 20/09 Q1018 NOSIG
ZGOW,2011-03-31 07:00,ZGOW 310700Z 12004MPS CAVOK 19/10 Q1018 NOSIG
ZGOW,2011-03-31 08:00,ZGOW 310800Z 12005MPS CAVOK 19/11 Q1017 NOSIG
ZGOW,2011-03-31 09:00,ZGOW 310900Z 10003MPS CAVOK 18/11 Q1017 NOSIG
ZGOW,2011-03-31 10:00,ZGOW 311000Z 11003MPS CAVOK 16/11 Q1018 NOSIG
ZGOW,2011-03-31 11:00,ZGOW 311100Z 06003MPS CAVOK 16/11 Q1018 NOSIG
ZGOW,2011-03-31 12:00,ZGOW 311200Z 06006MPS CAVOK 15/11 Q1019 NOSIG
ZGOW,2011-03-31 13:00,ZGOW 311300Z 06007MPS CAVOK 15/11 Q1019 NOSIG
ZGOW,2011-03-31 14:00,ZGOW 311400Z 08007MPS CAVOK 15/10 Q1020 NOSIG
ZGOW,2011-03-31 15:00,ZGOW 311500Z 08006MPS CAVOK 15/11 Q1020 NOSIG
ZGOW,2011-04-01 00:00,ZGOW 010000Z 34003MPS 4500 BR NSC 15/11 Q1019 NOSIG
ZGOW,2011-04-01 01:00,ZGOW 010100Z 36002MPS 6000 NSC 18/11 Q1020 NOSIG
ZGOW,2011-04-01 02:00,ZGOW 010200Z 06004MPS 6000 NSC 20/12 Q1019 NOSIG
ZGOW,2011-04-01 03:00,ZGOW 010300Z 07004MPS CAVOK 21/12 Q1019 NOSIG
ZGOW,2011-04-01 04:00,ZGOW 010400Z 07004MPS CAVOK 22/13 Q1018 NOSIG
ZGOW,2011-04-01 05:00,ZGOW 010500Z 13003MPS CAVOK 23/12 Q1017 NOSIG
ZGOW,2011-04-01 06:00,ZGOW 010600Z 09003MPS CAVOK 24/12 Q1016 NOSIG
ZGOW,2011-04-01 07:00,ZGOW 010700Z 13003MPS CAVOK 24/12 Q1015 NOSIG
ZGOW,2011-04-01 08:00,ZGOW 010800Z 12006MPS CAVOK 21/13 Q1015 NOSIG
ZGOW,2011-04-01 09:00,ZGOW 010900Z 12005MPS 7000 SKC 19/14 Q1015 NOSIG
ZGOW,2011-04-01 10:00,ZGOW 011000Z 11005MPS 7000 SKC 18/13 Q1015 NOSIG
ZGOW,2011-04-01 11:00,ZGOW 011100Z 12003MPS 6000 SKC 17/13 Q1016 NOSIG
ZGOW,2011-04-01 12:00,ZGOW 011200Z 13001MPS 6000 NSC 17/13 Q1017 NOSIG
ZGOW,2011-04-01 13:00,ZGOW 011300Z 24001MPS 5000 BR NSC 17/13 Q1018 NOSIG
ZGOW,2011-04-01 14:00,ZGOW 011400Z 04003MPS 5000 BR NSC 16/13 Q1018 NOSIG
ZGOW,2011-04-01 15:00,ZGOW 011500Z 05002MPS 5000 BR NSC 15/13 Q1018 NOSIG
ZGOW,2011-04-01 16:00,ZGOW 011600Z 06002MPS 3500 BR NSC 15/13 Q1018 BECMG TL1700 2000 BR
ZGOW,2011-04-01 17:00,ZGOW 011700Z 01001MPS 3500 BR NSC 16/13 Q1018 TEMPO 2000 BR
ZGOW,2011-04-01 21:00,ZGOW 012100Z 31001MPS 3000 BR NSC 15/13 Q1016 NOSIG
ZGOW,2011-04-01 22:00,ZGOW 012200Z 35001MPS 2500 BR NSC 15/13 Q1017 NOSIG
ZGOW,2011-04-01 23:00,ZGOW 012300Z 30001MPS 2500 BR SKC 16/13 Q1017 NOSIG
ZGOW,2011-04-02 00:00,ZGOW 020000Z 32003MPS 2500 BR SKC 17/13 Q1018 BECMG TL0030 3000 BR
ZGOW,2011-04-02 01:00,ZGOW 020100Z 29002MPS 4000 HZ SKC 20/14 Q1018 NOSIG
ZGOW,2011-04-02 02:00,ZGOW 020200Z 08002MPS 4000 HZ SKC 23/13 Q1018 NOSIG
ZGOW,2011-04-02 03:00,ZGOW 020300Z 09003MPS 6000 SKC 24/13 Q1017 NOSIG
ZGOW,2011-04-02 04:00,ZGOW 020400Z 09003MPS 6000 NSC 24/13 Q1016 NOSIG
ZGOW,2011-04-02 05:00,ZGOW 020500Z 09003MPS 6000 NSC 25/14 Q1014 NOSIG
ZGOW,2011-04-02 06:00,ZGOW 020600Z 13005MPS 7000 NSC 24/14 Q1013 NOSIG
ZGOW,2011-04-02 07:00,ZGOW 020700Z 14005MPS 7000 SKC 23/14 Q1013 NOSIG
ZGOW,2011-04-02 08:00,ZGOW 020800Z 12004MPS 7000 SKC 23/15 Q1012 NOSIG
ZGOW,2011-04-02 09:00,ZGOW 020900Z 14004MPS 5000 HZ SKC 21/15 Q1012 NOSIG
ZGOW,2011-04-02 10:00,ZGOW 021000Z 15004MPS 4000 HZ SKC 20/15 Q1013 NOSIG
ZGOW,2011-04-02 11:00,ZGOW 021100Z 13003MPS 4000 HZ SKC 19/16 Q1013 NOSIG
ZGOW,2011-04-02 12:00,ZGOW 021200Z 12002MPS 3500 HZ SKC 18/16 Q1014 NOSIG
ZGOW,2011-04-02 13:00,ZGOW 021300Z 09002MPS 3500 HZ SKC 18/15 Q1015 NOSIG
ZGOW,2011-04-02 14:00,ZGOW 021400Z 10001MPS 3500 HZ SKC 18/15 Q1016 NOSIG
ZGOW,2011-04-02 15:00,ZGOW 021500Z 08001MPS 3500 BR SKC 17/15 Q1015 NOSIG
ZGOW,2011-04-02 16:00,ZGOW 021600Z 07001MPS 3000 BR SKC 17/16 Q1016 NOSIG
ZGOW,2011-04-02 17:00,ZGOW 021700Z 00000MPS 3000 BR SKC 17/15 Q1015 NOSIG
ZGOW,2011-04-02 21:00,ZGOW 022100Z 00000MPS 2500 BR SKC 17/15 Q1015 NOSIG
ZGOW,2011-04-02 22:00,ZGOW 022200Z 00000MPS 1800 BR SKC 16/14 Q1015 NOSIG
ZGOW,2011-04-02 23:00,ZGOW 022300Z 02001MPS 1800 R04/1400V1800D BR SKC 17/15 Q1015 NOSIG
ZGOW,2011-04-03 00:00,ZGOW 030000Z 08001MPS 2000 BR SKC 19/16 Q1016 BECMG TL0130 3000 BR
ZGOW,2011-04-03 01:00,ZGOW 030100Z 09002MPS 2500 HZ SKC 20/16 Q1016 BECMG TL0200 3000 BR
ZGOW,2011-04-03 02:00,ZGOW 030200Z 07002MPS 3500 HZ SKC 23/16 Q1016 NOSIG
ZGOW,2011-04-03 03:00,ZGOW 030300Z 14004MPS 3000 BR SKC 21/16 Q1016 NOSIG
ZGOW,2011-04-03 04:00,ZGOW 030400Z 14003MPS 3500 HZ SKC 22/16 Q1015 NOSIG
ZGOW,2011-04-03 05:00,ZGOW 030500Z 12004MPS 3500 HZ SKC 22/17 Q1014 NOSIG
ZGOW,2011-04-03 06:00,ZGOW 030600Z 12005MPS 4000 HZ SKC 22/16 Q1013 NOSIG
ZGOW,2011-04-03 07:00,ZGOW 030700Z 11005MPS 3500 HZ SKC 22/16 Q1013 NOSIG
ZGOW,2011-04-03 08:00,ZGOW 030800Z 13005MPS 3500 HZ NSC 21/16 Q1012 NOSIG
ZGOW,2011-04-03 09:00,ZGOW 030900Z 11004MPS 4000 BR NSC 20/16 Q1012 NOSIG
ZGOW,2011-04-03 10:00,ZGOW 031000Z 10003MPS 3200 BR NSC 20/16 Q1013 NOSIG
ZGOW,2011-04-03 11:00,ZGOW 031100Z 08004MPS 3500 BR NSC 19/16 Q1014 NOSIG
ZGOW,2011-04-03 12:00,ZGOW 031200Z 07008MPS 3200 BR SCT006 18/16 Q1014 TEMPO BKN004 BKN030
ZGOW,2011-04-03 13:00,ZGOW 031300Z 06006MPS 4500 BR SCT006 17/15 Q1016 TEMPO BKN004 BKN030
ZGOW,2011-04-03 14:00,ZGOW 031400Z 07009G14MPS 5000 BR SCT007 16/14 Q1016 NOSIG
ZGOW,2011-04-03 15:00,ZGOW 031500Z 07008MPS 6000 SCT008 16/13 Q1017 NOSIG
ZGOW,2011-04-03 16:00,ZGOW 031600Z 08008MPS 7000 SCT020 16/13 Q1017 NOSIG
ZGOW,2011-04-03 17:00,ZGOW 031700Z 08007G12MPS 7000 SCT020 16/13 Q1017 NOSIG
ZGOW,2011-04-03 18:00,ZGOW 031800Z AUTO 08008MPS 9999 ////// 16/12 Q1016
ZGOW,2011-04-03 19:00,ZGOW 031900Z AUTO 08007MPS 9999 ////// 15/12 Q1017
ZGOW,2011-04-03 20:00,ZGOW 032000Z AUTO 07008MPS 9999 ////// 15/12 Q1017
ZGOW,2011-04-03 21:00,ZGOW 032100Z 07009G14MPS 9999 SCT020 15/12 Q1017 NOSIG
ZGOW,2011-04-03 22:00,ZGOW 032200Z 07008MPS 8000 SCT016 BKN040 15/11 Q1018 NOSIG
ZGOW,2011-04-03 23:00,ZGOW 032300Z 07007MPS 9999 SCT016 BKN040 15/11 Q1019 NOSIG
ZGOW,2011-04-04 00:00,ZGOW 040000Z 07006MPS 9999 SCT018 BKN040 15/11 Q1019 NOSIG
ZGOW,2011-04-04 01:00,ZGOW 040100Z 07006MPS 9999 SCT022 BKN040 16/12 Q1020 NOSIG
ZGOW,2011-04-04 02:00,ZGOW 040200Z 06005MPS 9999 SCT024 BKN050 16/12 Q1020 NOSIG
ZGOW,2011-04-04 03:00,ZGOW 040300Z 08004MPS 9999 SCT022 BKN050 16/12 Q1020 NOSIG
ZGOW,2011-04-04 04:00,ZGOW 040400Z 07005MPS 9999 SCT024 BKN050 17/12 Q1019 NOSIG
ZGOW,2011-04-04 05:00,ZGOW 040500Z 06004MPS 9999 SCT024 BKN050 17/12 Q1019 NOSIG
ZGOW,2011-04-04 06:00,ZGOW 040600Z 06005MPS 7000 SCT020 17/12 Q1018 NOSIG
ZGOW,2011-04-04 07:00,ZGOW 040700Z 08005MPS 6000 SCT018 BKN050 17/12 Q1017 NOSIG
ZGOW,2011-04-04 08:00,ZGOW 040800Z 09005MPS 8000 SCT020 16/11 Q1017 NOSIG
ZGOW,2011-04-04 09:00,ZGOW 040900Z 09004MPS 7000 SCT020 16/11 Q1018 NOSIG
ZGOW,2011-04-04 10:00,ZGOW 041000Z 08004MPS 7000 BKN032 16/11 Q1018 NOSIG
ZGOW,2011-04-04 11:00,ZGOW 041100Z 08004MPS 8000 SCT020 BKN040 15/11 Q1019 NOSIG
ZGOW,2011-04-04 12:00,ZGOW 041200Z 08006MPS 8000 SCT025 15/11 Q1020 NOSIG
ZGOW,2011-04-04 13:00,ZGOW 041300Z 09006MPS 7000 NSC 15/11 Q1021 NOSIG
ZGOW,2011-04-04 14:00,ZGOW 041400Z 08006MPS 8000 NSC 14/11 Q1021 NOSIG
ZGOW,2011-04-04 15:00,ZGOW 041500Z 08006MPS 7000 SCT020 14/10 Q1021 NOSIG
ZGOW,2011-04-04 16:00,ZGOW 041600Z 08006MPS 8000 SCT020 14/09 Q1021 NOSIG
ZGOW,2011-04-04 17:00,ZGOW 041700Z 07007MPS 9999 SCT023 14/09 Q1020 NOSIG
ZGOW,2011-04-04 18:00,ZGOW 041800Z AUTO 08005MPS 9999 ////// 15/09 Q1020
ZGOW,2011-04-04 19:00,ZGOW 041900Z AUTO 07007MPS 9999 ////// 15/08 Q1020
ZGOW,2011-04-04 20:00,ZGOW 042000Z AUTO 06006MPS 9999 ////// 15/07 Q1020
ZGOW,2011-04-04 21:00,ZGOW 042100Z 06003MPS 6000 BKN040 15/07 Q1020 NOSIG
ZGOW,2011-04-04 22:00,ZGOW 042200Z 06003MPS 7000 BKN040 15/08 Q1021 NOSIG
ZGOW,2011-04-04 23:00,ZGOW 042300Z 06002MPS 7000 BKN043 15/08 Q1022 NOSIG
ZGOW,2011-04-05 00:00,ZGOW 050000Z 08004MPS 9999 BKN050 16/09 Q1022 NOSIG
ZGOW,2011-04-05 01:00,ZGOW 050100Z 09004MPS 9999 SCT050 16/08 Q1023 NOSIG
ZGOW,2011-04-05 02:00,ZGOW 050200Z 08005MPS 9999 SCT040 19/09 Q1023 NOSIG
ZGOW,2011-04-05 03:00,ZGOW 050300Z 08006MPS 9999 SCT050 18/08 Q1022 NOSIG
ZGOW,2011-04-05 04:00,ZGOW 050400Z 08007MPS CAVOK 19/08 Q1021 NOSIG
ZGOW,2011-04-05 05:00,ZGOW 050500Z 08008MPS CAVOK 19/08 Q1020 NOSIG
ZGOW,2011-04-05 06:00,ZGOW 050600Z 09008MPS CAVOK 19/07 Q1019 NOSIG
ZGOW,2011-04-05 07:00,ZGOW 050700Z 10005MPS 9999 SCT050 20/09 Q1019 NOSIG
ZGOW,2011-04-05 08:00,ZGOW 050800Z 08008MPS CAVOK 18/08 Q1018 NOSIG
ZGOW,2011-04-05 09:00,ZGOW 050900Z 08008MPS 9999 SCT046 17/07 Q1019 NOSIG
ZGOW,2011-04-05 10:00,ZGOW 051000Z 08007MPS 9999 SCT043 15/08 Q1019 NOSIG
ZGOW,2011-04-05 11:00,ZGOW 051100Z 08007MPS 9999 SCT050 15/09 Q1020 NOSIG
ZGOW,2011-04-05 12:00,ZGOW 051200Z 08007MPS 9999 FEW043 15/08 Q1020 NOSIG
ZGOW,2011-04-05 13:00,ZGOW 051300Z 09004MPS CAVOK 15/08 Q1021 NOSIG
ZGOW,2011-04-05 14:00,ZGOW 051400Z 08005G10MPS 9999 BKN050 15/07 Q1021 NOSIG
ZGOW,2011-04-05 15:00,ZGOW 051500Z 09005G10MPS 9999 BKN050 15/07 Q1021 NOSIG
ZGOW,2011-04-05 16:00,ZGOW 051600Z 08006MPS 9999 BKN046 15/08 Q1021 NOSIG
ZGOW,2011-04-05 17:00,ZGOW 051700Z AUTO 07006MPS 6000 ////// 15/08 Q1021
ZGOW,2011-04-05 18:00,ZGOW 051800Z AUTO 07006MPS 9999 ////// 15/05 Q1020
ZGOW,2011-04-05 19:00,ZGOW 051900Z AUTO 06005MPS 9999 ////// 15/05 Q1020
ZGOW,2011-04-05 20:00,ZGOW 052000Z AUTO 06006MPS 9999 ////// 15/05 Q1020
ZGOW,2011-04-05 21:00,ZGOW 052100Z 05004MPS 9999 SCT040 14/06 Q1021 NOSIG
ZGOW,2011-04-05 22:00,ZGOW 052200Z 04003MPS CAVOK 14/07 Q1021 NOSIG
ZGOW,2011-04-05 23:00,ZGOW 052300Z 04003MPS CAVOK 15/07 Q1022 NOSIG
ZGOW,2011-04-06 00:00,ZGOW 060000Z 06003MPS CAVOK 16/06 Q1022 NOSIG
ZGOW,2011-04-06 01:00,ZGOW 060100Z 06004MPS CAVOK 17/07 Q1022 NOSIG
ZGOW,2011-04-06 02:00,ZGOW 060200Z 07005MPS CAVOK 18/06 Q1022 NOSIG
ZGOW,2011-04-06 03:00,ZGOW 060300Z 06004MPS CAVOK 19/05 Q1021 NOSIG
ZGOW,2011-04-06 04:00,ZGOW 060400Z 10004MPS CAVOK 20/06 Q1020 NOSIG
ZGOW,2011-04-06 05:00,ZGOW 060500Z 12003MPS CAVOK 22/03 Q1019 NOSIG
ZGOW,2011-04-06 06:00,ZGOW 060600Z 14004MPS CAVOK 20/09 Q1018 NOSIG
ZGOW,2011-04-06 07:00,ZGOW 060700Z 11005MPS CAVOK 19/10 Q1017 NOSIG
ZGOW,2011-04-06 08:00,ZGOW 060800Z 10004MPS CAVOK 19/09 Q1016 NOSIG
ZGOW,2011-04-06 09:00,ZGOW 060900Z 13004MPS CAVOK 18/12 Q1016 NOSIG
ZGOW,2011-04-06 10:00,ZGOW 061000Z 13004MPS 7000 SKC 17/13 Q1017 NOSIG
ZGOW,2011-04-06 11:00,ZGOW 061100Z 13003MPS 7000 SKC 16/13 Q1017 NOSIG
ZGOW,2011-04-06 12:00,ZGOW 061200Z 13001MPS 7000 SKC 16/12 Q1018 NOSIG
ZGOW,2011-04-06 13:00,ZGOW 061300Z 09001MPS 7000 SKC 15/12 Q1019 NOSIG
ZGOW,2011-04-06 14:00,ZGOW 061400Z 08002MPS 7000 SKC 15/13 Q1019 NOSIG
ZGOW,2011-04-06 15:00,ZGOW 061500Z 04002MPS 7000 SKC 15/12 Q1019 NOSIG
ZGOW,2011-04-06 17:00,ZGOW 061700Z 03002MPS 5000 BR SKC 14/12 Q1019 NOSIG
ZGOW,2011-04-06 21:00,ZGOW 062100Z 35001MPS 5000 BR SKC 15/13 Q1019 NOSIG
ZGOW,2011-04-06 22:00,ZGOW 062200Z 31001MPS 4000 BR SKC 15/12 Q1019 NOSIG
ZGOW,2011-04-06 23:00,ZGOW 062300Z 31002MPS 3500 BR NSC 15/13 Q1020 NOSIG
ZGOW,2011-04-07 00:00,ZGOW 070000Z 31003MPS 4000 BR NSC 16/13 Q1020 NOSIG
ZGOW,2011-04-07 01:00,ZGOW 070100Z 34002MPS 3500 HZ SKC 19/13 Q1020 NOSIG
ZGOW,2011-04-07 02:00,ZGOW 070200Z 32003MPS 4000 HZ SKC 20/13 Q1020 NOSIG
ZGOW,2011-04-07 03:00,ZGOW 070300Z 32002MPS 4000 HZ SKC 23/12 Q1019 NOSIG
ZGOW,2011-04-07 04:00,ZGOW 070400Z 28002MPS 7000 SKC 25/09 Q1018 NOSIG
ZGOW,2011-04-07 05:00,ZGOW 070500Z 13004MPS 7000 SKC 24/13 Q1017 NOSIG
ZGOW,2011-04-07 06:00,ZGOW 070600Z 14004MPS 8000 SKC 25/12 Q1016 NOSIG
ZGOW,2011-04-07 07:00,ZGOW 070700Z 13004MPS CAVOK 23/13 Q1015 NOSIG
ZGOW,2011-04-07 08:00,ZGOW 070800Z 14005MPS CAVOK 22/13 Q1014 NOSIG
ZGOW,2011-04-07 09:00,ZGOW 070900Z 14004MPS CAVOK 20/14 Q1014 NOSIG
ZGOW,2011-04-07 10:00,ZGOW 071000Z 14004MPS 5000 BR SKC 19/15 Q1015 NOSIG
ZGOW,2011-04-07 11:00,ZGOW 071100Z 12003MPS 3500 BR SKC 18/16 Q1016 NOSIG
ZGOW,2011-04-07 12:00,ZGOW 071200Z 13003MPS 3500 BR SKC 18/15 Q1016 NOSIG
ZGOW,2011-04-07 13:00,ZGOW 071300Z 11002MPS 3500 BR SKC 18/15 Q1017 NOSIG
ZGOW,2011-04-07 14:00,ZGOW 071400Z 00000MPS 3500 BR NSC 17/15 Q1018 NOSIG
ZGOW,2011-04-07 15:00,ZGOW 071500Z 00000MPS 3500 BR NSC 18/15 Q1018 NOSIG
ZGOW,2011-04-07 16:00,ZGOW 071600Z 00000MPS 2500 BR NSC 17/15 Q1018 NOSIG
ZGOW,2011-04-07 17:00,ZGOW 071700Z 00000MPS 1800 BR NSC 17/15 Q1018 NOSIG
ZGOW,2011-04-07 21:00,ZGOW 072100Z 32001MPS 2000 BR NSC 17/14 Q1017 NOSIG
ZGOW,2011-04-07 22:00,ZGOW 072200Z 00000MPS 1800 BR NSC 16/14 Q1018 TEMPO 1500 BR
ZGOW,2011-04-07 23:00,ZGOW 072300Z 30001MPS 1800 BR NSC 17/15 Q1018 NOSIG
ZGOW,2011-04-08 00:00,ZGOW 080000Z 34001MPS 2000 HZ SKC 20/15 Q1019 TEMPO 3300 HZ
ZGOW,2011-04-08 01:00,ZGOW 080100Z 32002MPS 3500 HZ SKC 22/13 Q1020 NOSIG
ZGOW,2011-04-08 02:00,ZGOW 080200Z 32001MPS 3500 HZ SKC 25/15 Q1020 NOSIG
ZGOW,2011-04-08 03:00,ZGOW 080300Z 20002MPS 5000 HZ SKC 26/15 Q1019 NOSIG
ZGOW,2011-04-08 04:00,ZGOW 080400Z 19002MPS 6000 NSC 28/15 Q1018 NOSIG
ZGOW,2011-04-08 05:00,ZGOW 080500Z 17004MPS 7000 NSC 28/16 Q1017 NOSIG
ZGOW,2011-04-08 06:00,ZGOW 080600Z 14004MPS CAVOK 28/17 Q1017 NOSIG
ZGOW,2011-04-08 07:00,ZGOW 080700Z 15005MPS CAVOK 27/16 Q1016 NOSIG
ZGOW,2011-04-08 08:00,ZGOW 080800Z 12006MPS 7000 SKC 24/18 Q1016 NOSIG
ZGOW,2011-04-08 09:00,ZGOW 080900Z 12006MPS 6000 SKC 21/16 Q1016 NOSIG
ZGOW,2011-04-08 10:00,ZGOW 081000Z 12004MPS 3500 BR SKC 19/16 Q1017 TEMPO 2500 BR
ZGOW,2011-04-08 11:00,ZGOW 081100Z 09002MPS 3200 BR SKC 19/16 Q1018 NOSIG
ZGOW,2011-04-08 12:00,ZGOW 081200Z 07005MPS 4000 BR SKC 18/15 Q1019 NOSIG
ZGOW,2011-04-08 13:00,ZGOW 081300Z 07006MPS 4000 BR FEW012 17/15 Q1020 NOSIG
ZGOW,2011-04-08 14:00,ZGOW 081400Z 07008G13MPS 5000 BR SCT010 17/14 Q1020 NOSIG
ZGOW,2011-04-08 15:00,ZGOW 081500Z 06007MPS 6000 FEW010 17/14 Q1021 NOSIG
ZGOW,2011-04-08 16:00,ZGOW 081600Z 08008MPS 8000 SKC 17/13 Q1021 NOSIG
ZGOW,2011-04-08 21:00,ZGOW 082100Z 07006MPS 6000 SKC 16/13 Q1021 NOSIG
ZGOW,2011-04-08 22:00,ZGOW 082200Z 08006MPS 4000 BR SKC 16/13 Q1022 NOSIG
ZGOW,2011-04-08 23:00,ZGOW 082300Z 07005MPS 5000 BR SKC 17/13 Q1022 NOSIG
ZGOW,2011-04-09 00:00,ZGOW 090000Z 06006MPS 6000 SKC 19/13 Q1023 NOSIG
ZGOW,2011-04-09 01:00,ZGOW 090100Z 08005MPS 7000 SKC 20/13 Q1023 NOSIG
ZGOW,2011-04-09 02:00,ZGOW 090200Z 08003MPS 7000 SKC 21/14 Q1023 NOSIG
ZGOW,2011-04-09 03:00,ZGOW 090300Z 08003MPS 6000 SKC 22/15 Q1022 NOSIG
ZGOW,2011-04-09 04:00,ZGOW 090400Z 10002MPS 6000 SKC 23/15 Q1021 NOSIG
ZGOW,2011-04-09 05:00,ZGOW 090500Z 13005MPS 6000 SKC 23/14 Q1020 NOSIG
ZGOW,2011-04-09 06:00,ZGOW 090600Z 12005MPS CAVOK 22/14 Q1020 NOSIG
ZGOW,2011-04-09 07:00,ZGOW 090700Z 13005MPS CAVOK 22/14 Q1019 NOSIG
ZGOW,2011-04-09 08:00,ZGOW 090800Z 11004MPS CAVOK 22/14 Q1018 NOSIG
ZGOW,2011-04-09 09:00,ZGOW 090900Z 13004MPS CAVOK 21/14 Q1018 NOSIG
ZGOW,2011-04-09 10:00,ZGOW 091000Z 12004MPS CAVOK 19/14 Q1019 NOSIG
ZGOW,2011-04-09 11:00,ZGOW 091100Z 14001MPS 7000 SKC 19/15 Q1019 NOSIG
ZGOW,2011-04-09 12:00,ZGOW 091200Z 09003MPS 7000 SKC 19/15 Q1020 NOSIG
ZGOW,2011-04-09 13:00,ZGOW 091300Z 07002MPS 6000 SKC 18/15 Q1021 NOSIG
ZGOW,2011-04-09 14:00,ZGOW 091400Z 08004MPS 6000 NSC 18/15 Q1021 NOSIG
ZGOW,2011-04-09 15:00,ZGOW 091500Z 05002MPS 5000 BR SKC 17/14 Q1021 NOSIG
ZGOW,2011-04-09 16:00,ZGOW 091600Z 06004MPS 4000 BR SKC 18/14 Q1021 NOSIG
ZGOW,2011-04-09 17:00,ZGOW 091700Z 06005MPS 4000 BR NSC 17/13 Q1020 NOSIG
ZGOW,2011-04-09 21:00,ZGOW 092100Z 07002MPS 4000 HZ FEW020 17/12 Q1020 NOSIG
ZGOW,2011-04-09 22:00,ZGOW 092200Z 36002MPS 4000 HZ NSC 17/12 Q1021 NOSIG
ZGOW,2011-04-09 23:00,ZGOW 092300Z 02002MPS 4000 HZ SKC 18/13 Q1022 NOSIG
ZGOW,2011-04-10 00:00,ZGOW 100000Z 04003MPS 4000 HZ SKC 19/13 Q1022 NOSIG
ZGOW,2011-04-10 01:00,ZGOW 100100Z 07003MPS 4000 HZ SKC 21/14 Q1022 NOSIG
ZGOW,2011-04-10 02:00,ZGOW 100200Z 08002MPS 4000 HZ SKC 22/14 Q1022 NOSIG
ZGOW,2011-04-10 03:00,ZGOW 100300Z 09003MPS 5000 HZ SKC 23/14 Q1021 NOSIG
ZGOW,2011-04-10 04:00,ZGOW 100400Z 12002MPS 5000 HZ SKC 24/15 Q1020 NOSIG
ZGOW,2011-04-10 05:00,ZGOW 100500Z 13004MPS 5000 HZ SKC 24/15 Q1018 NOSIG
ZGOW,2011-04-10 06:00,ZGOW 100600Z 13004MPS 5000 HZ SKC 24/16 Q1017 NOSIG
ZGOW,2011-04-10 07:00,ZGOW 100700Z 13004MPS 7000 SKC 25/16 Q1016 NOSIG
ZGOW,2011-04-10 08:00,ZGOW 100800Z 15003MPS 7000 SKC 24/16 Q1015 NOSIG
ZGOW,2011-04-10 09:00,ZGOW 100900Z 14004MPS 7000 SKC 23/16 Q1015 NOSIG
ZGOW,2011-04-10 10:00,ZGOW 101000Z 14002MPS 6000 SKC 22/16 Q1015 NOSIG
ZGOW,2011-04-10 11:00,ZGOW 101100Z 16002MPS 4000 BR SKC 21/17 Q1015 NOSIG
ZGOW,2011-04-10 12:00,ZGOW 101200Z 16003MPS 4000 BR SKC 20/18 Q1016 NOSIG
ZGOW,2011-04-10 13:00,ZGOW 101300Z 15002MPS 3000 BR SKC 20/18 Q1016 NOSIG
ZGOW,2011-04-10 14:00,ZGOW 101400Z 12001MPS 2000 BR SKC 20/18 Q1016 NOSIG
ZGOW,2011-04-10 15:00,ZGOW 101500Z 11001MPS 1600 BR SKC 19/17 Q1016 NOSIG
ZGOW,2011-04-10 16:00,ZGOW 101600Z 07001MPS 1200 R04/1200V1400N BR SKC 19/17 Q1016 NOSIG
ZGOW,2011-04-10 17:00,ZGOW 101700Z 06001MPS 1000 R04/1000V1200N BR SKC 19/18 Q1015 NOSIG
ZGOW,2011-04-10 21:00,ZGOW 102100Z 00000MPS 0800 R04/1000V1400U FG SKC 19/18 Q1015 BECMG FM2230 1500 BR
ZGOW,2011-04-10 22:00,ZGOW 102200Z 00000MPS 0800 R04/0700U FG SKC 19/18 Q1016 BECMG FM2230 1500 BR
ZGOW,2011-04-10 23:00,ZGOW 102300Z 13001MPS 0800 R04/0600V0700N FG SKC 19/19 Q1016 BECMG FM2330 1500 BR
ZGOW,2011-04-11 00:00,ZGOW 110000Z 11002MPS 0500 R04/0700D FG SKC 20/19 Q1017 BECMG 1200 BR
ZGOW,2011-04-11 01:00,ZGOW 110100Z 07004MPS 1800 BR FEW010 22/19 Q1018 TEMPO 2500 BR
ZGOW,2011-04-11 02:00,ZGOW 110200Z 09003MPS 2500 HZ SKC 23/18 Q1018 TEMPO 3500 BR
ZGOW,2011-04-11 03:00,ZGOW 110300Z 07006MPS 2200 BR NSC 23/19 Q1018 TEMPO 3500 BR
ZGOW,2011-04-11 04:00,ZGOW 110400Z 08006MPS 3200 HZ NSC 24/19 Q1017 NOSIG
ZGOW,2011-04-11 05:00,ZGOW 110500Z 09007MPS 3500 HZ FEW016 24/18 Q1017 NOSIG
ZGOW,2011-04-11 06:00,ZGOW 110600Z 09009MPS 3500 HZ NSC 24/18 Q1016 NOSIG
ZGOW,2011-04-11 07:00,ZGOW 110700Z 10006MPS 070V140 4000 HZ SKC 24/17 Q1015 NOSIG
ZGOW,2011-04-11 08:00,ZGOW 110800Z 11005MPS 4000 HZ SKC 24/16 Q1015 NOSIG
ZGOW,2011-04-11 09:00,ZGOW 110900Z 11006G11MPS 5000 HZ SKC 23/16 Q1015 NOSIG
ZGOW,2011-04-11 10:00,ZGOW 111000Z 09008G13MPS 6000 SKC 22/16 Q1015 NOSIG
ZGOW,2011-04-11 11:00,ZGOW 111100Z 09008G13MPS 6000 SKC 21/14 Q1016 NOSIG
ZGOW,2011-04-11 12:00,ZGOW 111200Z 09006G11MPS 7000 SKC 20/15 Q1017 NOSIG
ZGOW,2011-04-11 13:00,ZGOW 111300Z 09006G11MPS 5000 BR SKC 19/15 Q1018 NOSIG
ZGOW,2011-04-11 14:00,ZGOW 111400Z 08008MPS 3500 BR FEW012 18/15 Q1018 NOSIG
ZGOW,2011-04-11 15:00,ZGOW 111500Z 08007G12MPS 4000 BR SCT050 18/13 Q1019 NOSIG
ZGOW,2011-04-11 16:00,ZGOW 111600Z 09007G12MPS 6000 BKN050 18/13 Q1019 NOSIG
ZGOW,2011-04-11 17:00,ZGOW 111700Z 09006G11MPS 6000 BKN050 18/13 Q1018 NOSIG
ZGOW,2011-04-11 18:00,ZGOW 111800Z AUTO 08006MPS 3500 // ////// 18/12 Q1018
ZGOW,2011-04-11 21:00,ZGOW 112100Z 08006MPS 6000 BKN050 18/10 Q1019 NOSIG
ZGOW,2011-04-11 22:00,ZGOW 112200Z 08007MPS 4000 BR NSC 18/10 Q1019 NOSIG
ZGOW,2011-04-11 23:00,ZGOW 112300Z 08008MPS 5000 HZ NSC 18/08 Q1020 NOSIG
ZGOW,2011-04-12 00:00,ZGOW 120000Z 08007MPS 6000 NSC 18/10 Q1020 NOSIG
ZGOW,2011-04-12 01:00,ZGOW 120100Z 07006MPS 6000 NSC 20/10 Q1021 NOSIG
ZGOW,2011-04-12 02:00,ZGOW 120200Z 07008MPS 6000 NSC 20/09 Q1021 NOSIG
ZGOW,2011-04-12 03:00,ZGOW 120300Z 08010MPS 6000 NSC 21/08 Q1020 NOSIG
ZGOW,2011-04-12 04:00,ZGOW 120400Z 07009MPS 7000 NSC 22/08 Q1020 NOSIG
ZGOW,2011-04-12 05:00,ZGOW 120500Z 09005MPS 6000 FEW040 22/08 Q1019 NOSIG
ZGOW,2011-04-12 06:00,ZGOW 120600Z 10003MPS 6000 SCT040 23/10 Q1018 NOSIG
ZGOW,2011-04-12 07:00,ZGOW 120700Z 13004MPS 9999 FEW040 21/10 Q1018 NOSIG
ZGOW,2011-04-12 08:00,ZGOW 120800Z 08006MPS CAVOK 21/07 Q1017 NOSIG
ZGOW,2011-04-12 09:00,ZGOW 120900Z 08007MPS CAVOK 20/08 Q1017 NOSIG
ZGOW,2011-04-12 10:00,ZGOW 121000Z 07006MPS CAVOK 18/09 Q1018 NOSIG
ZGOW,2011-04-12 11:00,ZGOW 121100Z 06007MPS CAVOK 18/10 Q1018 NOSIG
ZGOW,2011-04-12 12:00,ZGOW 121200Z 07005MPS CAVOK 17/10 Q1019 NOSIG
ZGOW,2011-04-12 13:00,ZGOW 121300Z 07006MPS 9999 SCT040 18/11 Q1020 NOSIG
ZGOW,2011-04-12 14:00,ZGOW 121400Z 07005MPS 9999 BKN043 18/12 Q1021 NOSIG
ZGOW,2011-04-12 15:00,ZGOW 121500Z 06005MPS 9999 BKN043 17/12 Q1021 NOSIG
ZGOW,2011-04-12 16:00,ZGOW 121600Z 06005MPS 9999 BKN040 17/13 Q1020 NOSIG
ZGOW,2011-04-12 17:00,ZGOW 121700Z 05005MPS 9999 BKN040 17/12 Q1020 NOSIG
ZGOW,2011-04-12 18:00,ZGOW 121800Z AUTO 06005MPS 9999 ////// 17/12 Q1019
ZGOW,2011-04-12 19:00,ZGOW 121900Z AUTO 06005MPS 9999 ////// 17/11 Q1019
ZGOW,2011-04-12 20:00,ZGOW 122000Z AUTO 03004MPS 9999 ////// 17/11 Q1018
ZGOW,2011-04-12 21:00,ZGOW 122100Z 34002MPS 9999 SCT050 17/10 Q1019 NOSIG
ZGOW,2011-04-12 22:00,ZGOW 122200Z 34001MPS 9999 SCT050 17/11 Q1019 NOSIG
ZGOW,2011-04-12 23:00,ZGOW 122300Z 01001MPS 9999 BKN050 18/10 Q1020 NOSIG
ZGOW,2011-04-13 00:00,ZGOW 130000Z 02002MPS 9999 BKN050 19/09 Q1020 NOSIG
ZGOW,2011-04-13 01:00,ZGOW 130100Z 36001MPS 9999 BKN050 20/09 Q1020 NOSIG
ZGOW,2011-04-13 02:00,ZGOW 130200Z 02001MPS CAVOK 21/08 Q1020 NOSIG
ZGOW,2011-04-13 03:00,ZGOW 130300Z 08002MPS CAVOK 23/07 Q1019 NOSIG
ZGOW,2011-04-13 04:00,ZGOW 130400Z 06002MPS 7000 NSC 25/08 Q1018 NOSIG
ZGOW,2011-04-13 05:00,ZGOW 130500Z 15002MPS 7000 NSC 25/09 Q1017 NOSIG
ZGOW,2011-04-13 06:00,ZGOW 130600Z 13004MPS 7000 NSC 24/11 Q1016 NOSIG
ZGOW,2011-04-13 07:00,ZGOW 130700Z 14004MPS CAVOK 23/12 Q1015 NOSIG
ZGOW,2011-04-13 08:00,ZGOW 130800Z 14005MPS CAVOK 22/13 Q1015 NOSIG
ZGOW,2011-04-13 09:00,ZGOW 130900Z 14004MPS CAVOK 21/12 Q1014 NOSIG
ZGOW,2011-04-13 10:00,ZGOW 131000Z 14004MPS CAVOK 20/15 Q1015 NOSIG
ZGOW,2011-04-13 11:00,ZGOW 131100Z 12003MPS CAVOK 19/15 Q1015 NOSIG
ZGOW,2011-04-13 12:00,ZGOW 131200Z 10002MPS CAVOK 19/15 Q1016 NOSIG
ZGOW,2011-04-13 13:00,ZGOW 131300Z 10002MPS 7000 SKC 19/16 Q1017 NOSIG
ZGOW,2011-04-13 14:00,ZGOW 131400Z 04002MPS 6000 SKC 18/15 Q1017 NOSIG
ZGOW,2011-04-13 15:00,ZGOW 131500Z 06002MPS 4000 BR SKC 18/16 Q1017 NOSIG
ZGOW,2011-04-13 16:00,ZGOW 131600Z 06001MPS 2800 BR SKC 17/15 Q1016 NOSIG
ZGOW,2011-04-13 17:00,ZGOW 131700Z 05002MPS 2000 BR SKC 18/16 Q1016 NOSIG
ZGOW,2011-04-13 18:00,ZGOW 131800Z AUTO 06002MPS 2200 // ////// 18/16 Q1015
ZGOW,2011-04-13 21:00,ZGOW 132100Z 00000MPS 4000 BR SKC 17/15 Q1015 NOSIG
ZGOW,2011-04-13 22:00,ZGOW 132200Z 32001MPS 2800 BR SKC 18/15 Q1015 NOSIG
ZGOW,2011-04-13 23:00,ZGOW 132300Z 00000MPS 2500 BR SKC 19/16 Q1015 BECMG 4000 BR
ZGOW,2011-04-14 00:00,ZGOW 140000Z 36001MPS 3000 HZ SKC 21/16 Q1016 NOSIG
ZGOW,2011-04-14 01:00,ZGOW 140100Z 29001MPS 4000 HZ SKC 22/16 Q1016 NOSIG
ZGOW,2011-04-14 02:00,ZGOW 140200Z 30002MPS 4000 HZ SKC 24/16 Q1015 NOSIG
ZGOW,2011-04-14 03:00,ZGOW 140300Z 26002MPS 3500 HZ SKC 26/17 Q1014 NOSIG
ZGOW,2011-04-14 04:00,ZGOW 140400Z 28003MPS 7000 SKC 28/17 Q1014 NOSIG
ZGOW,2011-04-14 05:00,ZGOW 140500Z 14004MPS 6000 SKC 28/18 Q1012 NOSIG
ZGOW,2011-04-14 06:00,ZGOW 140600Z 18005MPS 5000 HZ SKC 28/18 Q1011 NOSIG
ZGOW,2011-04-14 07:00,ZGOW 140700Z 16005MPS 6000 SKC 27/18 Q1011 NOSIG
ZGOW,2011-04-14 08:00,ZGOW 140800Z 15005MPS 6000 SKC 25/19 Q1010 NOSIG
ZGOW,2011-04-14 09:00,ZGOW 140900Z 14004MPS 100V200 4500 HZ SKC 24/19 Q1010 NOSIG
ZGOW,2011-04-14 10:00,ZGOW 141000Z 17004G09MPS 140V250 4500 BR SKC 23/19 Q1010 NOSIG
ZGOW,2011-04-14 11:00,ZGOW 141100Z 15003MPS 120V190 3500 BR SKC 22/19 Q1011 TEMPO 2500 BR
ZGOW,2011-04-14 12:00,ZGOW 141200Z 16003MPS 3500 BR SKC 22/19 Q1011 TEMPO 2500 BR
ZGOW,2011-04-14 13:00,ZGOW 141300Z 16002MPS 2800 BR SKC 22/20 Q1012 NOSIG
ZGOW,2011-04-14 14:00,ZGOW 141400Z 16002MPS 2500 BR SKC 22/20 Q1012 NOSIG
ZGOW,2011-04-14 15:00,ZGOW 141500Z 14001MPS 1800 BR SCT008 21/20 Q1012 NOSIG
ZGOW,2011-04-14 16:00,ZGOW 141600Z 16001MPS 1600 BR FEW015 21/20 Q1012 NOSIG
ZGOW,2011-04-14 17:00,ZGOW 141700Z 14001MPS 1600 BR SCT010 21/19 Q1012 TEMPO 1200 BR
ZGOW,2011-04-14 20:00,ZGOW 142000Z AUTO 00000MPS 1500 // ////// 20/19 Q1010
ZGOW,2011-04-14 21:00,ZGOW 142100Z 00000MPS 1800 BR SKC 20/19 Q1011 NOSIG
ZGOW,2011-04-14 22:00,ZGOW 142200Z 03001MPS 1300 R04/0900V1400D BR SKC 20/18 Q1011 NOSIG
ZGOW,2011-04-14 23:00,ZGOW 142300Z 28001MPS 1400 R04/1400N BR SCT014 21/20 Q1012 NOSIG
ZGOW,2011-04-15 00:00,ZGOW 150000Z 30001MPS 2500 BR FEW015 23/20 Q1012 NOSIG
ZGOW,2011-04-15 01:00,ZGOW 150100Z 31002MPS 3000 BR NSC 24/19 Q1012 NOSIG
ZGOW,2011-04-15 02:00,ZGOW 150200Z 26002MPS 3000 HZ NSC 26/19 Q1012 NOSIG
ZGOW,2011-04-15 03:00,ZGOW 150300Z 26002MPS 5000 HZ FEW014 27/18 Q1012 NOSIG
ZGOW,2011-04-15 04:00,ZGOW 150400Z 27003MPS 9999 FEW016 28/17 Q1011 NOSIG
ZGOW,2011-04-15 05:00,ZGOW 150500Z 19003MPS 7000 FEW016 29/18 Q1010 NOSIG
ZGOW,2011-04-15 06:00,ZGOW 150600Z 15005MPS 7000 FEW016 29/18 Q1008 NOSIG
ZGOW,2011-04-15 07:00,ZGOW 150700Z 16005MPS 7000 NSC 29/18 Q1008 NOSIG
ZGOW,2011-04-15 08:00,ZGOW 150800Z 17006MPS CAVOK 28/18 Q1007 NOSIG
ZGOW,2011-04-15 09:00,ZGOW 150900Z 17005G10MPS CAVOK 27/18 Q1007 NOSIG
ZGOW,2011-04-15 10:00,ZGOW 151000Z 18004MPS CAVOK 26/18 Q1007 NOSIG
ZGOW,2011-04-15 11:00,ZGOW 151100Z 18003MPS CAVOK 24/19 Q1008 NOSIG
ZGOW,2011-04-15 12:00,ZGOW 151200Z 19004MPS 7000 NSC 24/19 Q1009 NOSIG
ZGOW,2011-04-15 13:00,ZGOW 151300Z 19003MPS 7000 NSC 23/20 Q1010 NOSIG
ZGOW,2011-04-15 14:00,ZGOW 151400Z 20001MPS 6000 SKC 23/20 Q1010 NOSIG
ZGOW,2011-04-15 15:00,ZGOW 151500Z 16002MPS 5000 BR NSC 22/20 Q1010 NOSIG
ZGOW,2011-04-15 16:00,ZGOW 151600Z 15002MPS 5000 BR SKC 22/20 Q1009 NOSIG
ZGOW,2011-04-15 17:00,ZGOW 151700Z 00000MPS 4000 BR NSC 22/20 Q1010 NOSIG
ZGOW,2011-04-15 21:00,ZGOW 152100Z 00000MPS 3000 BR NSC 22/19 Q1009 NOSIG
ZGOW,2011-04-15 23:00,ZGOW 152300Z 00000MPS 1800 R04/1200V1400N BR NSC 22/20 Q1010 NOSIG
ZGOW,2011-04-16 00:00,ZGOW 160000Z 21002MPS 3000 BR NSC 24/20 Q1011 BECMG 4000 BR
ZGOW,2011-04-16 01:00,ZGOW 160100Z 23003MPS 4000 HZ NSC 25/19 Q1011 NOSIG
ZGOW,2011-04-16 02:00,ZGOW 160200Z 25003MPS 4000 HZ NSC 26/19 Q1011 NOSIG
ZGOW,2011-04-16 03:00,ZGOW 160300Z 24003MPS 5000 HZ NSC 27/20 Q1011 NOSIG
ZGOW,2011-04-16 04:00,ZGOW 160400Z 24004MPS 5000 HZ NSC 29/19 Q1010 NOSIG
ZGOW,2011-04-16 05:00,ZGOW 160500Z 23005MPS 5000 HZ NSC 30/20 Q1009 NOSIG
ZGOW,2011-04-16 06:00,ZGOW 160600Z 24005MPS 5000 HZ NSC 31/19 Q1007 NOSIG
ZGOW,2011-04-16 07:00,ZGOW 160700Z 17004MPS 8000 SKC 31/21 Q1006 NOSIG
ZGOW,2011-04-16 08:00,ZGOW 160800Z 14004MPS CAVOK 30/21 Q1006 NOSIG
ZGOW,2011-04-16 09:00,ZGOW 160900Z 19005MPS 8000 SKC 29/21 Q1006 NOSIG
ZGOW,2011-04-16 10:00,ZGOW 161000Z 20003MPS 7000 SKC 28/21 Q1006 NOSIG
ZGOW,2011-04-16 11:00,ZGOW 161100Z 19003MPS 7000 SKC 26/20 Q1007 NOSIG
ZGOW,2011-04-16 12:00,ZGOW 161200Z 19002MPS 5000 HZ SKC 26/21 Q1008 NOSIG
ZGOW,2011-04-16 13:00,ZGOW 161300Z 21001MPS 5000 HZ SKC 26/21 Q1008 NOSIG
ZGOW,2011-04-16 14:00,ZGOW 161400Z 02001MPS 3500 BR SKC 24/21 Q1009 NOSIG
ZGOW,2011-04-16 15:00,ZGOW 161500Z 07001MPS 2800 BR SKC 23/21 Q1009 BECMG TL1600 06007G12MPS
ZGOW,2011-04-16 16:00,ZGOW 161600Z 05002MPS 2800 BR SKC 23/21 Q1009 BECMG TL1700 06007G12MPS
ZGOW,2011-04-16 17:00,ZGOW 161700Z 06007MPS 2800 BR SCT007 19/17 Q1010 TEMPO 08009G14MPS
ZGOW,2011-04-16 18:00,ZGOW 161800Z 07007MPS 2800 BR SCT007 19/17 Q1010 TEMPO 08009G14MPS
ZGOW,2011-04-16 19:00,ZGOW 161900Z 08007MPS 4000 BR SCT015 18/16 Q1010 TEMPO 08009G14MPS
ZGOW,2011-04-16 20:00,ZGOW 162000Z 07005MPS 4000 BR SCT015 19/16 Q1010 NOSIG
ZGOW,2011-04-16 21:00,ZGOW 162100Z 07005MPS 5000 BR SCT015 19/16 Q1010 NOSIG
ZGOW,2011-04-16 22:00,ZGOW 162200Z 08002MPS 5000 BR SCT015 BKN033 20/17 Q1011 NOSIG
ZGOW,2011-04-16 23:00,ZGOW 162300Z 06006MPS 4000 BR SCT015 BKN033 19/16 Q1011 NOSIG
ZGOW,2011-04-17 00:00,ZGOW 170000Z 07005MPS 4000 BR SCT015 BKN050 20/16 Q1012 NOSIG
ZGOW,2011-04-17 01:00,ZGOW 170100Z 06005MPS 6000 SCT015 BKN050 21/17 Q1012 NOSIG
ZGOW,2011-04-17 02:00,ZGOW 170200Z 13002MPS 5000 BR SCT014 BKN050 21/17 Q1011 NOSIG
ZGOW,2011-04-17 03:00,ZGOW 170300Z 06003MPS 6000 SCT014 BKN050 21/17 Q1011 NOSIG
ZGOW,2011-04-17 04:00,ZGOW 170400Z 07003MPS 5000 HZ SCT016 BKN050 22/17 Q1011 NOSIG
ZGOW,2011-04-17 05:00,ZGOW 170500Z 11003MPS 4000 BR SCT014 BKN040 21/17 Q1010 NOSIG
ZGOW,2011-04-17 06:00,ZGOW 170600Z 13004MPS 3500 BR SCT014 BKN040 20/17 Q1009 TEMPO VRB07MPS 2000 -TSRA SCT010 FEW030CB BKN040
ZGOW,2011-04-17 07:00,ZGOW 170700Z 12003MPS 3200 BR SCT012 FEW030TCU BKN040 20/17 Q1008 TEMPO VRB07MPS 2000 -TSRA SCT010 FEW030CB BKN040
ZGOW,2011-04-17 08:00,ZGOW 170800Z 12002MPS 2800 BR SCT010 FEW030TCU BKN040 20/17 Q1008 TEMPO FM0900 VRB07G12MPS 2000 TSRA SCT006 SCT030CB BKN033
ZGOW,2011-04-17 09:00,ZGOW 170900Z 07002MPS 2200 TSRA SCT010 SCT030CB BKN040 19/17 Q1009 TEMPO VRB07MPS 1500 TSRA
ZGOW,2011-04-17 10:00,ZGOW 171000Z 03003MPS 1600 R04/1200VP2000U SHRA SCT005 SCT030CB BKN033 19/17 Q1008 RETS TEMPO VRB07MPS 1300 TSRA
ZGOW,2011-04-17 11:00,ZGOW 171100Z 04003MPS 1600 SHRA SCT008 FEW030CB BKN033 19/17 Q1010 NOSIG
ZGOW,2011-04-17 12:00,ZGOW 171200Z 08002MPS 2000 -SHRA SCT015 FEW030TCU BKN033 19/17 Q1010 RESHRA NOSIG
ZGOW,2011-04-17 13:00,ZGOW 171300Z 09002MPS 2000 -SHRA SCT010 FEW030CB BKN033 19/17 Q1011 NOSIG
ZGOW,2011-04-17 14:00,ZGOW 171400Z 10001MPS 2500 BR FEW030TCU BKN050 19/17 Q1011 NOSIG
ZGOW,2011-04-17 15:00,ZGOW 171500Z 13002MPS 4000 BR SCT008 FEW030TCU BKN050 19/17 Q1011 NOSIG
ZGOW,2011-04-17 16:00,ZGOW 171600Z 02001MPS 5000 BR SCT007 FEW030TCU BKN050 19/17 Q1011 NOSIG
ZGOW,2011-04-17 17:00,ZGOW 171700Z 03003MPS 3500 BR SCT007 FEW030TCU BKN050 19/17 Q1010 NOSIG
ZGOW,2011-04-17 18:00,ZGOW 171800Z 02001MPS 3500 BR SCT014 BKN050 19/17 Q1010 NOSIG
ZGOW,2011-04-17 19:00,ZGOW 171900Z 05002MPS 2500 BR SCT012 BKN050 19/17 Q1009 NOSIG
ZGOW,2011-04-17 20:00,ZGOW 172000Z 13001MPS 2000 BR SCT005 BKN040 19/18 Q1009 NOSIG
ZGOW,2011-04-17 21:00,ZGOW 172100Z 09002MPS 2000 BR SCT005 FEW030TCU OVC040 19/18 Q1009 NOSIG
ZGOW,2011-04-17 22:00,ZGOW 172200Z 04002MPS 1600 BR SCT005 OVC040 19/18 Q1010 NOSIG
ZGOW,2011-04-17 23:00,ZGOW 172300Z 06002MPS 1600 R04/1400V1600N BR SCT006 OVC040 19/18 Q1010 NOSIG
ZGOW,2011-04-18 00:00,ZGOW 180000Z 06003MPS 2500 BR SCT008 OVC050 20/18 Q1011 NOSIG
ZGOW,2011-04-18 01:00,ZGOW 180100Z 07003MPS 2500 BR SCT010 BKN040 21/18 Q1012 BECMG 3500 BR
ZGOW,2011-04-18 02:00,ZGOW 180200Z 08002MPS 2500 BR SCT010 BKN040 22/18 Q1012 BECMG 3500 BR
ZGOW,2011-04-18 03:00,ZGOW 180300Z 04001MPS 3000 BR FEW010 BKN050 23/19 Q1012 NOSIG
ZGOW,2011-04-18 04:00,ZGOW 180400Z 02002MPS 3000 BR FEW012 SCT050 25/19 Q1011 NOSIG
ZGOW,2011-04-18 05:00,ZGOW 180500Z 06003MPS 5000 HZ FEW012 SCT050 27/18 Q1011 NOSIG
ZGOW,2011-04-18 06:00,ZGOW 180600Z 07004MPS 9999 SCT050 27/16 Q1010 NOSIG
ZGOW,2011-04-18 07:00,ZGOW 180700Z 10004MPS 9999 SCT050 26/16 Q1009 NOSIG
ZGOW,2011-04-18 08:00,ZGOW 180800Z 12003MPS 7000 NSC 25/17 Q1009 NOSIG
ZGOW,2011-04-18 09:00,ZGOW 180900Z 13004MPS 5000 HZ NSC 24/17 Q1010 NOSIG
ZGOW,2011-04-18 10:00,ZGOW 181000Z 12003MPS 5000 HZ NSC 23/16 Q1010 NOSIG
ZGOW,2011-04-18 11:00,ZGOW 181100Z 10003MPS 6000 NSC 22/16 Q1011 NOSIG
ZGOW,2011-04-18 12:00,ZGOW 181200Z 10002MPS 7000 NSC 21/15 Q1011 NOSIG
ZGOW,2011-04-18 13:00,ZGOW 181300Z 07003MPS 8000 NSC 21/14 Q1013 NOSIG
ZGOW,2011-04-18 14:00,ZGOW 181400Z 07005MPS 8000 NSC 21/14 Q1013 NOSIG
ZGOW,2011-04-18 15:00,ZGOW 181500Z 07004MPS 7000 NSC 21/15 Q1013 NOSIG
ZGOW,2011-04-18 16:00,ZGOW 181600Z 07002MPS 6000 NSC 20/15 Q1014 NOSIG
ZGOW,2011-04-18 17:00,ZGOW 181700Z 03003MPS 5000 BR NSC 20/15 Q1013 NOSIG
ZGOW,2011-04-18 21:00,ZGOW 182100Z 04002MPS 4000 BR NSC 18/14 Q1014 NOSIG
ZGOW,2011-04-18 22:00,ZGOW 182200Z 08002MPS 4000 BR NSC 18/14 Q1015 NOSIG
ZGOW,2011-04-18 23:00,ZGOW 182300Z 07005MPS 4000 BR SKC 19/14 Q1016 NOSIG
ZGOW,2011-04-19 00:00,ZGOW 190000Z 08006MPS 4000 HZ SKC 21/14 Q1017 NOSIG
ZGOW,2011-04-19 01:00,ZGOW 190100Z 07006MPS 4000 HZ SKC 22/14 Q1017 NOSIG
ZGOW,2011-04-19 02:00,ZGOW 190200Z 08007MPS 7000 SKC 23/14 Q1017 NOSIG
ZGOW,2011-04-19 03:00,ZGOW 190300Z 08007MPS 8000 SKC 24/13 Q1017 NOSIG
ZGOW,2011-04-19 04:00,ZGOW 190400Z 12005MPS 7000 SKC 24/16 Q1017 NOSIG
ZGOW,2011-04-19 05:00,ZGOW 190500Z 11005MPS CAVOK 24/14 Q1016 NOSIG
ZGOW,2011-04-19 06:00,ZGOW 190600Z 11005MPS CAVOK 25/15 Q1015 NOSIG
ZGOW,2011-04-19 07:00,ZGOW 190700Z 08005MPS CAVOK 24/15 Q1015 NOSIG
ZGOW,2011-04-19 08:00,ZGOW 190800Z 06007MPS CAVOK 23/14 Q1014 NOSIG
ZGOW,2011-04-19 09:00,ZGOW 190900Z 07005MPS CAVOK 23/14 Q1014 NOSIG
ZGOW,2011-04-19 10:00,ZGOW 191000Z 06005MPS CAVOK 21/13 Q1015 NOSIG
ZGOW,2011-04-19 11:00,ZGOW 191100Z 08006MPS CAVOK 20/13 Q1016 NOSIG
ZGOW,2011-04-19 12:00,ZGOW 191200Z 08008MPS CAVOK 19/13 Q1016 NOSIG
ZGOW,2011-04-19 13:00,ZGOW 191300Z 08008MPS CAVOK 19/14 Q1017 NOSIG
ZGOW,2011-04-19 14:00,ZGOW 191400Z 08007MPS CAVOK 19/13 Q1018 NOSIG
ZGOW,2011-04-19 15:00,ZGOW 191500Z 07009G14MPS CAVOK 19/13 Q1018 NOSIG
ZGOW,2011-04-19 16:00,ZGOW 191600Z 06011MPS CAVOK 19/12 Q1018 NOSIG
ZGOW,2011-04-19 17:00,ZGOW 191700Z 07009MPS CAVOK 18/12 Q1018 NOSIG
ZGOW,2011-04-19 21:00,ZGOW 192100Z 06005MPS 7000 SKC 17/11 Q1018 NOSIG
ZGOW,2011-04-19 22:00,ZGOW 192200Z 07005MPS 7000 SKC 17/11 Q1019 NOSIG
ZGOW,2011-04-19 23:00,ZGOW 192300Z 07005MPS CAVOK 18/10 Q1019 NOSIG
ZGOW,2011-04-20 00:00,ZGOW 200000Z 06006MPS CAVOK 20/09 Q1020 NOSIG
ZGOW,2011-04-20 01:00,ZGOW 200100Z 07008MPS CAVOK 21/09 Q1020 NOSIG
ZGOW,2011-04-20 02:00,ZGOW 200200Z 07007MPS CAVOK 22/10 Q1020 NOSIG
ZGOW,2011-04-20 03:00,ZGOW 200300Z 07008MPS CAVOK 23/10 Q1020 NOSIG
ZGOW,2011-04-20 04:00,ZGOW 200400Z 08007MPS CAVOK 24/10 Q1019 NOSIG
ZGOW,2011-04-20 05:00,ZGOW 200500Z 08006MPS CAVOK 24/10 Q1019 NOSIG
ZGOW,2011-04-20 06:00,ZGOW 200600Z 11004MPS CAVOK 24/10 Q1018 NOSIG
ZGOW,2011-04-20 07:00,ZGOW 200700Z 11004MPS 060V180 CAVOK 24/13 Q1017 NOSIG
ZGOW,2011-04-20 08:00,ZGOW 200800Z 08004MPS CAVOK 23/11 Q1016 NOSIG
ZGOW,2011-04-20 09:00,ZGOW 200900Z 13003MPS CAVOK 22/13 Q1016 NOSIG
ZGOW,2011-04-20 10:00,ZGOW 201000Z 11003MPS CAVOK 21/13 Q1016 NOSIG
ZGOW,2011-04-20 11:00,ZGOW 201100Z 10003MPS CAVOK 20/14 Q1017 NOSIG
ZGOW,2011-04-20 12:00,ZGOW 201200Z 08003MPS CAVOK 19/12 Q1018 NOSIG
ZGOW,2011-04-20 13:00,ZGOW 201300Z 07002MPS CAVOK 18/12 Q1018 NOSIG
ZGOW,2011-04-20 14:00,ZGOW 201400Z 08003MPS CAVOK 18/13 Q1018 NOSIG
ZGOW,2011-04-20 15:00,ZGOW 201500Z 06003MPS CAVOK 17/14 Q1018 NOSIG
ZGOW,2011-04-20 16:00,ZGOW 201600Z 05003MPS CAVOK 17/14 Q1018 NOSIG
ZGOW,2011-04-20 17:00,ZGOW 201700Z 06003MPS CAVOK 17/15 Q1018 NOSIG
ZGOW,2011-04-20 18:00,ZGOW 201800Z 04004MPS CAVOK 16/14 Q1017 NOSIG
ZGOW,2011-04-20 19:00,ZGOW 201900Z 04003MPS 9999 SCT030 17/13 Q1017 NOSIG
ZGOW,2011-04-20 20:00,ZGOW 202000Z 03003MPS 9999 SCT030 17/13 Q1017 NOSIG
ZGOW,2011-04-20 21:00,ZGOW 202100Z 04003MPS CAVOK 17/12 Q1017 NOSIG
ZGOW,2011-04-20 22:00,ZGOW 202200Z 02002MPS 9999 SCT033 17/12 Q1017 NOSIG
ZGOW,2011-04-20 23:00,ZGOW 202300Z 02002MPS 9999 BKN026 18/11 Q1017 NOSIG
ZGOW,2011-04-21 00:00,ZGOW 210000Z 04003MPS 9999 SCT026 BKN040 19/11 Q1018 NOSIG
ZGOW,2011-04-21 01:00,ZGOW 210100Z 03003MPS 9999 BKN028 20/11 Q1018 NOSIG
ZGOW,2011-04-21 02:00,ZGOW 210200Z 07002MPS 9999 SCT022 22/12 Q1018 NOSIG
ZGOW,2011-04-21 03:00,ZGOW 210300Z 10002MPS 9999 FEW028 24/14 Q1017 NOSIG
ZGOW,2011-04-21 04:00,ZGOW 210400Z 04001MPS 9999 SCT040 25/14 Q1017 NOSIG
ZGOW,2011-04-21 05:00,ZGOW 210500Z VRB02MPS 9999 FEW040 25/16 Q1016 NOSIG
ZGOW,2011-04-21 06:00,ZGOW 210600Z 15004MPS 9999 FEW040 26/16 Q1015 NOSIG
ZGOW,2011-04-21 07:00,ZGOW 210700Z 17004MPS 9999 FEW020 25/17 Q1014 NOSIG
ZGOW,2011-04-21 08:00,ZGOW 210800Z 16004MPS CAVOK 25/17 Q1013 NOSIG
ZGOW,2011-04-21 09:00,ZGOW 210900Z 14003MPS CAVOK 24/17 Q1013 NOSIG
ZGOW,2011-04-21 10:00,ZGOW 211000Z 14003MPS CAVOK 22/17 Q1013 NOSIG
ZGOW,2011-04-21 11:00,ZGOW 211100Z 13002MPS CAVOK 21/17 Q1014 NOSIG
ZGOW,2011-04-21 12:00,ZGOW 211200Z 16002MPS CAVOK 21/17 Q1014 NOSIG
ZGOW,2011-04-21 13:00,ZGOW 211300Z 16002MPS CAVOK 21/17 Q1014 NOSIG
ZGOW,2011-04-21 14:00,ZGOW 211400Z 18001MPS CAVOK 21/18 Q1015 NOSIG
ZGOW,2011-04-21 15:00,ZGOW 211500Z 12001MPS 7000 SCT050 21/18 Q1015 NOSIG
ZGOW,2011-04-21 16:00,ZGOW 211600Z 05001MPS 5000 BR SCT050 19/17 Q1014 NOSIG
ZGOW,2011-04-21 17:00,ZGOW 211700Z 10001MPS 3000 BR SCT050 20/18 Q1013 NOSIG
ZGOW,2011-04-21 19:00,ZGOW 211900Z AUTO 00000MPS 1200 R04/1800VP2000D // ////// 20/18 Q1012
ZGOW,2011-04-21 21:00,ZGOW 212100Z 28001MPS 3000 BR FEW020 20/18 Q1012 NOSIG
ZGOW,2011-04-21 22:00,ZGOW 212200Z 31001MPS 3000 BR FEW016 SCT030 21/19 Q1012 NOSIG
ZGOW,2011-04-21 23:00,ZGOW 212300Z 00000MPS 2500 R04/1400V1600N BR NSC 21/19 Q1013 NOSIG
ZGOW,2011-04-22 00:00,ZGOW 220000Z 25001MPS 2500 BR FEW014 23/19 Q1013 BECMG 4000 BR
ZGOW,2011-04-22 01:00,ZGOW 220100Z 24001MPS 4000 BR SCT014 24/19 Q1013 NOSIG
ZGOW,2011-04-22 02:00,ZGOW 220200Z 27002MPS 3500 HZ SCT014 24/19 Q1013 NOSIG
ZGOW,2011-04-22 03:00,ZGOW 220300Z 27002MPS 3500 HZ SCT014 25/19 Q1013 NOSIG
ZGOW,2011-04-22 04:00,ZGOW 220400Z 26003MPS 4000 HZ SCT014 26/17 Q1012 NOSIG
ZGOW,2011-04-22 05:00,ZGOW 220500Z 25004MPS 8000 SCT014 28/16 Q1011 NOSIG
ZGOW,2011-04-22 06:00,ZGOW 220600Z 23002MPS 9999 FEW020 29/16 Q1010 NOSIG
ZGOW,2011-04-22 07:00,ZGOW 220700Z 13004MPS 9999 SCT020 27/19 Q1009 NOSIG
ZGOW,2011-04-22 08:00,ZGOW 220800Z 12003MPS 9999 SCT020 BKN050 27/19 Q1009 NOSIG
ZGOW,2011-04-22 09:00,ZGOW 220900Z 12003MPS 7000 SCT020 FEW030TCU BKN050 26/19 Q1009 NOSIG
ZGOW,2011-04-22 10:00,ZGOW 221000Z 11002MPS 4000 BR SCT020 FEW030TCU BKN050 24/21 Q1010 NOSIG
ZGOW,2011-04-22 11:00,ZGOW 221100Z 35003MPS 5000 HZ SCT020 FEW030TCU BKN050 26/17 Q1011 NOSIG
ZGOW,2011-04-22 12:00,ZGOW 221200Z 33004MPS 5000 HZ SCT020 FEW030TCU BKN050 24/18 Q1011 TEMPO 2500 SHRA
ZGOW,2011-04-22 13:00,ZGOW 221300Z 31002MPS 5000 HZ FEW030 24/18 Q1012 TEMPO 2500 SHRA
ZGOW,2011-04-22 14:00,ZGOW 221400Z 32003MPS 6000 NSC 23/19 Q1012 TEMPO 2500 SHRA
ZGOW,2011-04-22 15:00,ZGOW 221500Z 35001MPS 6000 NSC 23/18 Q1012 NOSIG
ZGOW,2011-04-22 16:00,ZGOW 221600Z 34003MPS 7000 NSC 22/17 Q1012 NOSIG
ZGOW,2011-04-22 17:00,ZGOW 221700Z 33002MPS 6000 NSC 22/17 Q1012 NOSIG
ZGOW,2011-04-22 18:00,ZGOW 221800Z 35001MPS 7000 BKN026 22/17 Q1013 NOSIG
ZGOW,2011-04-22 19:00,ZGOW 221900Z AUTO 03001MPS 4700 // ////// 22/17 Q1012
ZGOW,2011-04-22 20:00,ZGOW 222000Z AUTO 07006MPS 2900 // ////// 20/18 Q1013
ZGOW,2011-04-22 21:00,ZGOW 222100Z 08007MPS 4000 -SHRA FEW030TCU BKN030 19/17 Q1014 NOSIG
ZGOW,2011-04-22 22:00,ZGOW 222200Z 05004MPS 2500 -SHRA FEW030TCU BKN030 19/17 Q1014 NOSIG
ZGOW,2011-04-22 23:00,ZGOW 222300Z 06006MPS 2000 BR BKN030 19/17 Q1015 NOSIG
ZGOW,2011-04-23 00:00,ZGOW 230000Z 07006MPS 2000 -RA BR SCT012 BKN030 20/17 Q1016 TEMPO 3000 BR
ZGOW,2011-04-23 01:00,ZGOW 230100Z 07007MPS 2000 BR SCT016 FEW026TCU BKN033 20/17 Q1016 TEMPO 3000 BR
ZGOW,2011-04-23 02:00,ZGOW 230200Z 07007MPS 2500 BR SCT018 FEW028TCU BKN040 20/17 Q1016 BECMG 3000 BR
ZGOW,2011-04-23 03:00,ZGOW 230300Z 08006MPS 3500 BR SCT018 BKN040 20/16 Q1016 NOSIG
ZGOW,2011-04-23 04:00,ZGOW 230400Z 09005MPS 3200 HZ SCT020 BKN050 21/16 Q1016 NOSIG
ZGOW,2011-04-23 05:00,ZGOW 230500Z 09003MPS 3200 HZ SCT020 22/16 Q1015 NOSIG
ZGOW,2011-04-23 06:00,ZGOW 230600Z 10002MPS 3200 HZ SCT020 23/16 Q1014 NOSIG
ZGOW,2011-04-23 07:00,ZGOW 230700Z 14002MPS 3200 HZ SCT020 22/16 Q1014 NOSIG
ZGOW,2011-04-23 08:00,ZGOW 230800Z 13002MPS 3200 HZ SCT020 22/16 Q1014 NOSIG
ZGOW,2011-04-23 09:00,ZGOW 230900Z 12003MPS 4000 HZ SCT020 22/13 Q1013 NOSIG
ZGOW,2011-04-23 10:00,ZGOW 231000Z 10004MPS 9999 SCT020 21/10 Q1014 NOSIG
ZGOW,2011-04-23 11:00,ZGOW 231100Z 09003MPS 9999 SCT025 21/11 Q1015 NOSIG
ZGOW,2011-04-23 12:00,ZGOW 231200Z 09002MPS 9999 FEW026 20/12 Q1015 NOSIG
ZGOW,2011-04-23 13:00,ZGOW 231300Z 07001MPS CAVOK 19/11 Q1016 NOSIG
ZGOW,2011-04-23 14:00,ZGOW 231400Z 05003MPS CAVOK 18/10 Q1016 NOSIG
ZGOW,2011-04-23 15:00,ZGOW 231500Z 04001MPS CAVOK 18/11 Q1016 NOSIG
ZGOW,2011-04-23 16:00,ZGOW 231600Z 00000MPS 6000 SKC 17/12 Q1016 NOSIG
ZGOW,2011-04-23 17:00,ZGOW 231700Z AUTO 00000MPS 5000 ////// 18/12 Q1016
ZGOW,2011-04-23 21:00,ZGOW 232100Z 00000MPS 3500 BR SKC 16/14 Q1015 NOSIG
ZGOW,2011-04-23 22:00,ZGOW 232200Z 31001MPS 2500 BR SKC 16/14 Q1015 BECMG 3500 BR
ZGOW,2011-04-23 23:00,ZGOW 232300Z 31002MPS 2500 BR SKC 18/15 Q1016 BECMG 3500 BR
ZGOW,2011-04-24 00:00,ZGOW 240000Z 32001MPS 3200 HZ SKC 20/15 Q1016 NOSIG
ZGOW,2011-04-24 01:00,ZGOW 240100Z 30001MPS 4000 HZ SKC 22/12 Q1016 NOSIG
ZGOW,2011-04-24 02:00,ZGOW 240200Z 09002MPS 6000 NSC 25/04 Q1017 NOSIG
ZGOW,2011-04-24 03:00,ZGOW 240300Z 07002MPS 7000 NSC 26/05 Q1016 NOSIG
ZGOW,2011-04-24 04:00,ZGOW 240400Z 06003MPS CAVOK 28/03 Q1015 NOSIG
ZGOW,2011-04-24 05:00,ZGOW 240500Z 09003MPS CAVOK 28/02 Q1015 NOSIG
ZGOW,2011-04-24 06:00,ZGOW 240600Z 12003MPS CAVOK 28/04 Q1013 NOSIG
ZGOW,2011-04-24 07:00,ZGOW 240700Z 14003MPS CAVOK 27/04 Q1013 NOSIG
ZGOW,2011-04-24 08:00,ZGOW 240800Z 15005MPS CAVOK 26/07 Q1013 NOSIG
ZGOW,2011-04-24 09:00,ZGOW 240900Z 14003MPS CAVOK 25/07 Q1013 NOSIG
ZGOW,2011-04-24 10:00,ZGOW 241000Z 15003MPS CAVOK 24/08 Q1013 NOSIG
ZGOW,2011-04-24 11:00,ZGOW 241100Z 16002MPS CAVOK 23/11 Q1014 NOSIG
ZGOW,2011-04-24 12:00,ZGOW 241200Z 15001MPS CAVOK 22/13 Q1014 NOSIG
ZGOW,2011-04-24 13:00,ZGOW 241300Z 16001MPS CAVOK 21/13 Q1015 NOSIG
ZGOW,2011-04-24 14:00,ZGOW 241400Z 00000MPS CAVOK 21/13 Q1015 NOSIG
ZGOW,2011-04-24 15:00,ZGOW 241500Z 00000MPS 7000 NSC 20/13 Q1015 NOSIG
ZGOW,2011-04-24 16:00,ZGOW 241600Z 00000MPS 6000 NSC 20/13 Q1015 NOSIG
ZGOW,2011-04-24 17:00,ZGOW 241700Z 14001MPS 5000 HZ NSC 20/14 Q1014 NOSIG
ZGOW,2011-04-24 21:00,ZGOW 242100Z 30001MPS 4000 BR NSC 19/15 Q1013 NOSIG
ZGOW,2011-04-24 22:00,ZGOW 242200Z 00000MPS 4000 BR NSC 19/15 Q1014 NOSIG
ZGOW,2011-04-24 23:00,ZGOW 242300Z 00000MPS 3000 BR NSC 20/16 Q1014 NOSIG
ZGOW,2011-04-25 00:00,ZGOW 250000Z 34001MPS 4000 HZ NSC 23/14 Q1015 NOSIG
ZGOW,2011-04-25 01:00,ZGOW 250100Z 13001MPS 6000 NSC 25/12 Q1015 NOSIG
ZGOW,2011-04-25 02:00,ZGOW 250200Z 17002MPS 6000 NSC 27/09 Q1014 NOSIG
ZGOW,2011-04-25 03:00,ZGOW 250300Z 12003MPS CAVOK 28/09 Q1014 NOSIG
ZGOW,2011-04-25 04:00,ZGOW 250400Z 14004MPS CAVOK 28/09 Q1014 NOSIG
ZGOW,2011-04-25 05:00,ZGOW 250500Z 16005MPS CAVOK 28/10 Q1013 NOSIG
ZGOW,2011-04-25 06:00,ZGOW 250600Z 14005MPS CAVOK 28/09 Q1012 NOSIG
ZGOW,2011-04-25 07:00,ZGOW 250700Z 16005MPS CAVOK 27/11 Q1012 NOSIG
ZGOW,2011-04-25 08:00,ZGOW 250800Z 15006MPS CAVOK 27/10 Q1011 NOSIG
ZGOW,2011-04-25 09:00,ZGOW 250900Z 16005MPS CAVOK 25/12 Q1011 NOSIG
ZGOW,2011-04-25 10:00,ZGOW 251000Z 16003MPS CAVOK 25/14 Q1011 NOSIG
ZGOW,2011-04-25 11:00,ZGOW 251100Z 17002MPS CAVOK 24/13 Q1011 NOSIG
ZGOW,2011-04-25 12:00,ZGOW 251200Z 18002MPS CAVOK 24/15 Q1012 NOSIG
ZGOW,2011-04-25 13:00,ZGOW 251300Z 17001MPS CAVOK 23/15 Q1012 NOSIG
ZGOW,2011-04-25 14:00,ZGOW 251400Z 21002MPS 7000 SKC 22/16 Q1013 NOSIG
ZGOW,2011-04-25 15:00,ZGOW 251500Z 21002MPS 7000 SKC 22/16 Q1013 NOSIG
ZGOW,2011-04-25 16:00,ZGOW 251600Z 19002MPS 7000 SKC 22/16 Q1012 NOSIG
ZGOW,2011-04-25 17:00,ZGOW 251700Z 18001MPS CAVOK 21/16 Q1012 NOSIG
ZGOW,2011-04-25 21:00,ZGOW 252100Z 00000MPS 7000 SKC 19/16 Q1011 NOSIG
ZGOW,2011-04-25 22:00,ZGOW 252200Z 00000MPS 4000 BR SKC 18/16 Q1011 NOSIG
ZGOW,2011-04-25 23:00,ZGOW 252300Z 31002MPS 4000 BR SKC 20/17 Q1012 NOSIG
ZGOW,2011-04-26 00:00,ZGOW 260000Z 30002MPS 6000 NSC 22/17 Q1012 NOSIG
ZGOW,2011-04-26 01:00,ZGOW 260100Z 29002MPS 5000 HZ NSC 25/16 Q1012 NOSIG
ZGOW,2011-04-26 02:00,ZGOW 260200Z 29002MPS 220V010 7000 NSC 26/15 Q1012 NOSIG
ZGOW,2011-04-26 03:00,ZGOW 260300Z 24003MPS 210V300 CAVOK 27/11 Q1012 NOSIG
ZGOW,2011-04-26 04:00,ZGOW 260400Z 25003MPS 190V260 CAVOK 29/09 Q1011 NOSIG
ZGOW,2011-04-26 05:00,ZGOW 260500Z 23004MPS 200V270 CAVOK 29/11 Q1009 NOSIG
ZGOW,2011-04-26 06:00,ZGOW 260600Z 18005MPS CAVOK 27/18 Q1008 NOSIG
ZGOW,2011-04-26 07:00,ZGOW 260700Z 15005MPS CAVOK 27/18 Q1008 NOSIG
ZGOW,2011-04-26 08:00,ZGOW 260800Z 17005MPS CAVOK 27/17 Q1007 NOSIG
ZGOW,2011-04-26 09:00,ZGOW 260900Z 17005MPS CAVOK 26/18 Q1007 NOSIG
ZGOW,2011-04-26 10:00,ZGOW 261000Z 19007MPS CAVOK 26/17 Q1007 NOSIG
ZGOW,2011-04-26 11:00,ZGOW 261100Z 20005MPS 5000 NSC 25/17 Q1007 NOSIG
ZGOW,2011-04-26 12:00,ZGOW 261200Z 17002MPS 8000 NSC 24/17 Q1007 NOSIG
ZGOW,2011-04-26 13:00,ZGOW 261300Z 00000MPS CAVOK 24/18 Q1008 NOSIG
ZGOW,2011-04-26 14:00,ZGOW 261400Z 23003MPS CAVOK 24/17 Q1008 NOSIG
ZGOW,2011-04-26 15:00,ZGOW 261500Z 26002MPS CAVOK 24/17 Q1008 NOSIG
ZGOW,2011-04-26 16:00,ZGOW 261600Z 26002MPS CAVOK 23/17 Q1008 NOSIG
ZGOW,2011-04-26 17:00,ZGOW 261700Z 00000MPS CAVOK 23/16 Q1007 NOSIG
ZGOW,2011-04-26 21:00,ZGOW 262100Z 00000MPS 5000 BR NSC 22/18 Q1007 NOSIG
ZGOW,2011-04-26 22:00,ZGOW 262200Z 27002MPS 4000 BR NSC 22/18 Q1007 NOSIG
ZGOW,2011-04-26 23:00,ZGOW 262300Z 00000MPS 3500 BR NSC 22/19 Q1008 NOSIG
ZGOW,2011-04-27 00:00,ZGOW 270000Z 22001MPS 3500 BR NSC 24/18 Q1008 NOSIG
ZGOW,2011-04-27 01:00,ZGOW 270100Z 22002MPS 3500 HZ NSC 26/18 Q1009 NOSIG
ZGOW,2011-04-27 02:00,ZGOW 270200Z 26002MPS 4000 HZ NSC 28/16 Q1009 NOSIG
ZGOW,2011-04-27 03:00,ZGOW 270300Z 24002MPS 5000 HZ NSC 30/15 Q1008 NOSIG
ZGOW,2011-04-27 04:00,ZGOW 270400Z 23002MPS 5000 HZ NSC 31/16 Q1007 NOSIG
ZGOW,2011-04-27 05:00,ZGOW 270500Z 22002MPS 6000 NSC 32/15 Q1006 NOSIG
ZGOW,2011-04-27 06:00,ZGOW 270600Z 15005MPS 6000 NSC 31/19 Q1006 NOSIG
ZGOW,2011-04-27 07:00,ZGOW 270700Z 17004MPS 6000 NSC 30/20 Q1005 NOSIG
ZGOW,2011-04-27 08:00,ZGOW 270800Z 18004MPS 6000 NSC 30/19 Q1005 NOSIG
ZGOW,2011-04-27 09:00,ZGOW 270900Z 18004MPS 6000 NSC 28/20 Q1005 NOSIG
ZGOW,2011-04-27 10:00,ZGOW 271000Z 20002MPS 5000 HZ NSC 27/21 Q1005 NOSIG
ZGOW,2011-04-27 11:00,ZGOW 271100Z 18002MPS 5000 HZ NSC 26/21 Q1006 NOSIG
ZGOW,2011-04-27 12:00,ZGOW 271200Z 17001MPS 5000 BR NSC 26/21 Q1006 NOSIG
ZGOW,2011-04-27 13:00,ZGOW 271300Z 05001MPS 4000 BR NSC 23/21 Q1007 NOSIG
ZGOW,2011-04-27 14:00,ZGOW 271400Z 06002MPS 3500 BR NSC 23/21 Q1008 NOSIG
ZGOW,2011-04-27 15:00,ZGOW 271500Z 07002MPS 3500 BR NSC 23/21 Q1008 TEMPO 2500 BR
ZGOW,2011-04-27 16:00,ZGOW 271600Z 07002MPS 3500 BR NSC 23/21 Q1008 TEMPO 2500 BR
ZGOW,2011-04-27 17:00,ZGOW 271700Z AUTO 10001MPS 0750 R04/1000V1600N // ////// 22/21 Q1008
ZGOW,2011-04-27 18:00,ZGOW 271800Z AUTO 10001MPS 0100 R04/0200V0250N // ////// 22/21 Q1008
ZGOW,2011-04-27 20:00,ZGOW 272000Z AUTO 09004MPS 0600 R04/0800V1000N // ////// 22/21 Q1009
ZGOW,2011-04-27 21:00,ZGOW 272100Z 09004MPS 3000 BR SCT004 BKN030 22/22 Q1010 NOSIG
ZGOW,2011-04-27 22:00,ZGOW 272200Z 07006MPS 3000 BR SCT006 BKN030 22/21 Q1010 NOSIG
ZGOW,2011-04-27 23:00,ZGOW 272300Z 07007MPS 3000 BR FEW007 SCT016 BKN040 22/21 Q1012 NOSIG
ZGOW,2011-04-28 00:00,ZGOW 280000Z 08008MPS 3500 BR SCT018 BKN040 23/20 Q1013 NOSIG
ZGOW,2011-04-28 01:00,ZGOW 280100Z 07010MPS 5000 BR SCT020 BKN040 23/19 Q1013 NOSIG
ZGOW,2011-04-28 02:00,ZGOW 280200Z 08008MPS 5000 BR SCT020 BKN040 23/19 Q1014 NOSIG
ZGOW,2011-04-28 03:00,ZGOW 280300Z 08007MPS 5000 HZ SCT030 24/19 Q1013 NOSIG
ZGOW,2011-04-28 04:00,ZGOW 280400Z 08005MPS 5000 HZ SCT020 24/19 Q1013 NOSIG
ZGOW,2011-04-28 05:00,ZGOW 280500Z 08005MPS 5000 HZ SCT020 25/19 Q1012 NOSIG
ZGOW,2011-04-28 06:00,ZGOW 280600Z 08003MPS 5000 HZ SCT020 24/19 Q1012 NOSIG
ZGOW,2011-04-28 07:00,ZGOW 280700Z 11003MPS 5000 HZ SCT030 25/19 Q1012 NOSIG
ZGOW,2011-04-28 08:00,ZGOW 280800Z 13004MPS 5000 HZ SCT030 24/19 Q1011 NOSIG
ZGOW,2011-04-28 09:00,ZGOW 280900Z 11004MPS 6000 NSC 24/19 Q1011 NOSIG
ZGOW,2011-04-28 10:00,ZGOW 281000Z 14003MPS 4000 BR NSC 23/19 Q1011 TEMPO 2100 BR
ZGOW,2011-04-28 11:00,ZGOW 281100Z 10003MPS 4000 BR NSC 22/19 Q1012 TEMPO 2100 BR
ZGOW,2011-04-28 12:00,ZGOW 281200Z 07001MPS 4000 BR NSC 22/19 Q1013 TEMPO 2100 BR
ZGOW,2011-04-28 13:00,ZGOW 281300Z 04002MPS 5000 BR NSC 21/18 Q1013 NOSIG
ZGOW,2011-04-28 14:00,ZGOW 281400Z 04002MPS 4000 BR NSC 21/18 Q1014 NOSIG
ZGOW,2011-04-28 15:00,ZGOW 281500Z 04002MPS 4000 BR NSC 21/18 Q1014 NOSIG
ZGOW,2011-04-28 16:00,ZGOW 281600Z 04004MPS 5000 BR SCT030 21/18 Q1013 NOSIG
ZGOW,2011-04-28 17:00,ZGOW 281700Z 07002MPS 5000 BR SCT030 22/18 Q1013 NOSIG
ZGOW,2011-04-28 18:00,ZGOW 281800Z AUTO 06003MPS 6000 ////// 21/18 Q1012
ZGOW,2011-04-28 19:00,ZGOW 281900Z AUTO 04003MPS 4000 // ////// 21/18 Q1012
ZGOW,2011-04-28 20:00,ZGOW 282000Z AUTO 05002MPS 3900 // ////// 21/18 Q1012
ZGOW,2011-04-28 21:00,ZGOW 282100Z 09001MPS 2800 BR NSC 21/18 Q1012 NOSIG
ZGOW,2011-04-28 22:00,ZGOW 282200Z 08002MPS 2800 BR SCT030 21/18 Q1013 BECMG TL2300 3000 BR
ZGOW,2011-04-28 23:00,ZGOW 282300Z 03003MPS 2800 -RA BR FEW030CB SCT030 21/18 Q1013 BECMG 3000 -RA BR
ZGOW,2011-04-29 00:00,ZGOW 290000Z 04002MPS 2500 -RA BR FEW030CB SCT030 21/18 Q1013 BECMG 3000 -RA BR
ZGOW,2011-04-29 01:00,ZGOW 290100Z 03002MPS 2500 -RA BR FEW030CB SCT030 21/19 Q1014 NOSIG
ZGOW,2011-04-29 02:00,ZGOW 290200Z 04003MPS 1200 R04/1200VP2000D -RA BR SCT020 FEW030TCU 21/19 Q1014 NOSIG
ZGOW,2011-04-29 03:00,ZGOW 290300Z 01003MPS 1800 -SHRA BR SCT020 FEW033TCU BKN050 21/19 Q1014 NOSIG
ZGOW,2011-04-29 04:00,ZGOW 290400Z 07003MPS 1800 -SHRA BR SCT009 FEW033TCU BKN050 21/19 Q1014 TEMPO 1300 SHRA SCT006 FEW030CB BKN030
ZGOW,2011-04-29 05:00,ZGOW 290500Z 05001MPS 2000 -SHRA BR SCT009 FEW033TCU BKN050 21/19 Q1013 NOSIG
ZGOW,2011-04-29 06:00,ZGOW 290600Z 06003MPS 1600 R04/1400V1800U -SHRA BR SCT007 FEW033TCU BKN050 21/19 Q1013 NOSIG
ZGOW,2011-04-29 07:00,ZGOW 290700Z 07002MPS 1400 R04/1400V1600N SHRA BR SCT008 FEW033TCU BKN040 21/20 Q1013 NOSIG
ZGOW,2011-04-29 08:00,ZGOW 290800Z 07003MPS 1300 R04/1400V1600N SHRA BR SCT007 FEW030CB OVC040 21/19 Q1012 NOSIG
ZGOW,2011-04-29 09:00,ZGOW 290900Z 08001MPS 1000 R04/1200V1400N SHRA BR SCT004 FEW030CB OVC040 21/20 Q1012 TEMPO -TSRA
ZGOW,2011-04-29 11:00,ZGOW 291100Z 34001MPS 1200 R04/1800VP2000N -SHRA BR SCT009 FEW030CB OVC040 21/20 Q1012 TEMPO 0800 SHRA FG
ZGOW,2011-04-29 12:00,ZGOW 291200Z 15002MPS 1400 R04/P2000 -SHRA BR SCT006 FEW030TCU BKN050 21/20 Q1013 NOSIG
ZGOW,2011-04-29 13:00,ZGOW 291300Z 16001MPS 1800 -SHRA BR SCT006 FEW030TCU BKN040 21/20 Q1014 TEMPO 1200 SHRA BR SCT004 FEW030CB BKN030
ZGOW,2011-04-29 14:00,ZGOW 291400Z 13001MPS 1600 -SHRA BR SCT005 FEW030TCU BKN040 21/20 Q1014 TEMPO 1200 SHRA BR SCT004 FEW030CB BKN030
ZGOW,2011-04-29 15:00,ZGOW 291500Z 11001MPS 1800 -SHRA BR SCT006 FEW030TCU BKN040 21/20 Q1014 TEMPO 1200 SHRA BR SCT004 FEW030CB BKN030
ZGOW,2011-04-29 16:00,ZGOW 291600Z 12001MPS 1600 -SHRA BR SCT006 FEW030TCU BKN040 21/20 Q1013 NOSIG
ZGOW,2011-04-29 19:00,ZGOW 291900Z AUTO 01001MPS 1200 R04/1800VP2000D // ////// 21/20 Q1011
ZGOW,2011-04-29 20:00,ZGOW 292000Z AUTO 03001MPS 1500 // ////// 21/20 Q1011
ZGOW,2011-04-29 21:00,ZGOW 292100Z 00000MPS 2000 BR SCT006 BKN040 21/20 Q1011 NOSIG
ZGOW,2011-04-29 22:00,ZGOW 292200Z 36001MPS 1200 R04/1000V1400D BR SCT010 BKN040 21/20 Q1011 NOSIG
ZGOW,2011-04-29 23:00,ZGOW 292300Z 32002MPS 1200 R04/1000V1200N BR SCT010 BKN040 22/21 Q1011 NOSIG
ZGOW,2011-04-30 00:00,ZGOW 300000Z 30002MPS 1600 R04/1400V1600D BR SCT007 OVC033 22/21 Q1012 NOSIG
ZGOW,2011-04-30 01:00,ZGOW 300100Z 32002MPS 1500 R04/1200N BR SCT004 FEW024TCU BKN033 22/21 Q1013 TEMPO 1800 BR
ZGOW,2011-04-30 02:00,ZGOW 300200Z 36001MPS 1500 R04/1200V1400U BR SCT005 FEW024TCU BKN033 23/21 Q1012 TEMPO 1800 BR
ZGOW,2011-04-30 03:00,ZGOW 300300Z 28001MPS 1500 R04/1200V1400N BR SCT007 BKN033 24/22 Q1012 TEMPO 1800 BR
ZGOW,2011-04-30 05:00,ZGOW 300500Z 15002MPS 1800 -SHRA BR SCT010 FEW024TCU BKN040 26/23 Q1011 NOSIG
ZGOW,2011-04-30 06:00,ZGOW 300600Z 16002MPS 1600 R04/1400V1600N -SHRA BR SCT012 FEW024TCU OVC033 25/23 Q1010 NOSIG
ZGOW,2011-04-30 07:00,ZGOW 300700Z 16002MPS 1500 R04/1200N -SHRA BR SCT012 FEW024TCU OVC033 24/23 Q1010 NOSIG
ZGOW,2011-04-30 08:00,ZGOW 300800Z 17001MPS 1500 R04/1400N BR FEW012 BKN033 25/23 Q1010 NOSIG
ZGOW,2011-04-30 09:00,ZGOW 300900Z 16002MPS 1800 -RA BR SCT010 BKN033 24/23 Q1010 NOSIG
ZGOW,2011-04-30 10:00,ZGOW 301000Z 13002MPS 1600 -RA BR SCT008 SCT016 OVC033 24/23 Q1010 NOSIG
ZGOW,2011-04-30 11:00,ZGOW 301100Z 17003MPS 1600 BR FEW005 SCT016 OVC040 23/22 Q1010 NOSIG
ZGOW,2011-04-30 12:00,ZGOW 301200Z 18001MPS 1600 BR SCT004 BKN030 23/22 Q1010 NOSIG
ZGOW,2011-04-30 13:00,ZGOW 301300Z 16001MPS 1600 BR SCT004 BKN030 23/22 Q1011 NOSIG
ZGOW,2011-04-30 14:00,ZGOW 301400Z 08001MPS 1200 R04/1200V1400N BR SCT006 BKN030 23/22 Q1011 TEMPO 0800 FG
ZGOW,2011-04-30 15:00,ZGOW 301500Z 07001MPS 0800 R04/0900V1200N FG SCT003 BKN026 23/22 Q1011 TEMPO 0600 FG
ZGOW,2011-05-01 00:00,ZGOW 010000Z 00000MPS 0800 R04/0800U -RA FG SCT003 BKN026 23/23 Q1012 TEMPO 1000 -RA BR SCT003 BKN015
ZGOW,2011-05-01 01:00,ZGOW 010100Z 00000MPS 0800 R04/1000N -RA FG SCT004 BKN026 24/23 Q1012 BECMG FM0200 1600 BR
ZGOW,2011-05-01 02:00,ZGOW 010200Z 23001MPS 1000 R04/1000V1200N BR SCT008 BKN050 26/24 Q1012 BECMG 1600 BR
ZGOW,2011-05-01 03:00,ZGOW 010300Z 20001MPS 1800 BR SCT018 27/23 Q1012 BECMG 3000 BR
ZGOW,2011-05-01 04:00,ZGOW 010400Z VRB01MPS 2500 BR SCT018 28/23 Q1011 BECMG 3000 BR
ZGOW,2011-05-01 05:00,ZGOW 010500Z 12002MPS 2500 BR SCT018 27/23 Q1010 NOSIG
ZGOW,2011-05-01 06:00,ZGOW 010600Z 13002MPS 3000 BR SCT018 27/24 Q1010 NOSIG
ZGOW,2011-05-01 07:00,ZGOW 010700Z 16003MPS 6000 SCT018 27/23 Q1010 NOSIG
ZGOW,2011-05-01 08:00,ZGOW 010800Z 18002MPS 6000 -SHRA SCT018 FEW026TCU 27/23 Q1009 NOSIG
ZGOW,2011-05-01 09:00,ZGOW 010900Z 17001MPS 5000 BR SCT018 FEW026TCU 27/23 Q1009 BECMG FM1000 2500 BR
ZGOW,2011-05-01 10:00,ZGOW 011000Z 15001MPS 2800 -SHRA BR SCT018 FEW026TCU 26/23 Q1009 NOSIG
ZGOW,2011-05-01 11:00,ZGOW 011100Z 20001MPS 2800 BR SCT018 FEW026TCU 25/23 Q1010 NOSIG
ZGOW,2011-05-01 12:00,ZGOW 011200Z 17001MPS 2800 BR SCT018 25/23 Q1011 NOSIG
ZGOW,2011-05-01 13:00,ZGOW 011300Z 04001MPS 2500 BR SCT018 24/22 Q1012 NOSIG
ZGOW,2011-05-01 14:00,ZGOW 011400Z 10001MPS 2200 BR SCT016 24/23 Q1012 NOSIG
ZGOW,2011-05-01 15:00,ZGOW 011500Z 13001MPS 2200 TS BR SCT016 FEW030CB 24/23 Q1011 NOSIG
ZGOW,2011-05-01 16:00,ZGOW 011600Z 06001MPS 1400 R04/1800VP2000N BR SCT016 23/22 Q1012 RETS NOSIG
ZGOW,2011-05-01 17:00,ZGOW 011700Z 06001MPS 0700 R04/1200V1400N FG VV002 23/22 Q1012 TEMPO 0500 FG
ZGOW,2011-05-01 18:00,ZGOW 011800Z 05001MPS 0350 R04/0500D FG VV002 23/22 Q1011 NOSIG
ZGOW,2011-05-01 19:00,ZGOW 011900Z 07002MPS 0300 R04/0450U FG VV002 23/22 Q1010 NOSIG
ZGOW,2011-05-01 20:00,ZGOW 012000Z 08001MPS 0400 R04/0700D FG VV002 23/22 Q1010 NOSIG
ZGOW,2011-05-01 21:00,ZGOW 012100Z 10001MPS 1200 R04/1600V1800N BR VV002 23/22 Q1010 NOSIG
ZGOW,2011-05-01 22:00,ZGOW 012200Z 08001MPS 1000 R04/1000V1200D BR SCT004 23/22 Q1011 NOSIG
ZGOW,2011-05-01 23:00,ZGOW 012300Z 00000MPS 1200 R04/1000V1600U BR SCT004 23/23 Q1012 NOSIG
ZGOW,2011-05-02 00:00,ZGOW 020000Z 07001MPS 2500 BR SCT004 23/23 Q1012 BECMG 3000 BR
ZGOW,2011-05-02 01:00,ZGOW 020100Z 08003MPS 2200 BR SCT005 FEW030TCU BKN050 24/23 Q1012 NOSIG
ZGOW,2011-05-02 02:00,ZGOW 020200Z 11002MPS 2500 BR SCT007 BKN040 25/23 Q1012 NOSIG
ZGOW,2011-05-02 03:00,ZGOW 020300Z 12004MPS 2500 BR SCT004 BKN026 BKN050 25/23 Q1012 NOSIG
ZGOW,2011-05-02 04:00,ZGOW 020400Z 12003MPS 3100 BR SCT009 BKN026 BKN050 25/23 Q1012 NOSIG
ZGOW,2011-05-02 05:00,ZGOW 020500Z 12004MPS 3500 BR SCT012 BKN050 27/22 Q1011 NOSIG
ZGOW,2011-05-02 06:00,ZGOW 020600Z 11005MPS 4000 BR SCT014 BKN050 26/22 Q1010 NOSIG
ZGOW,2011-05-02 07:00,ZGOW 020700Z 10005MPS 070V150 3200 BR SCT014 BKN050 25/22 Q1009 BECMG TL0800 2200 BR
ZGOW,2011-05-02 08:00,ZGOW 020800Z 12006MPS 2800 BR SCT007 BKN016 BKN050 24/22 Q1009 NOSIG
ZGOW,2011-05-02 09:00,ZGOW 020900Z 11005MPS 2200 BR SCT007 BKN020 FEW033TCU BKN050 23/21 Q1009 BECMG TL1000 1300 BR
ZGOW,2011-05-02 10:00,ZGOW 021000Z 10005MPS 2500 BR SCT006 SCT020 FEW033TCU BKN050 23/21 Q1009 NOSIG
ZGOW,2011-05-02 11:00,ZGOW 021100Z 11004MPS 1800 BR SCT005 BKN020 BKN050 22/21 Q1009 TEMPO 1200 BR
ZGOW,2011-05-02 12:00,ZGOW 021200Z 11003MPS 2200 BR SCT005 FEW026TCU BKN040 22/21 Q1010 TEMPO 1200 BR
ZGOW,2011-05-02 13:00,ZGOW 021300Z 12004MPS 2000 BR SCT004 FEW028TCU BKN040 22/21 Q1010 TEMPO 1200 BR
ZGOW,2011-05-02 14:00,ZGOW 021400Z 10003MPS 2500 BR SCT004 BKN033 22/21 Q1010 NOSIG
ZGOW,2011-05-02 15:00,ZGOW 021500Z 08004MPS 2800 BR SCT005 BKN033 22/21 Q1010 NOSIG
ZGOW,2011-05-02 16:00,ZGOW 021600Z 04003MPS 3500 BR SCT005 BKN040 22/21 Q1010 NOSIG
ZGOW,2011-05-02 17:00,ZGOW 021700Z 06004MPS 3200 BR SCT005 BKN040 22/20 Q1010 NOSIG
ZGOW,2011-05-02 18:00,ZGOW 021800Z 07003MPS 4000 BR SCT006 BKN040 22/20 Q1010 NOSIG
ZGOW,2011-05-02 19:00,ZGOW 021900Z 08002MPS 4000 BR SCT006 BKN040 22/20 Q1009 NOSIG
ZGOW,2011-05-02 20:00,ZGOW 022000Z AUTO 08002MPS 2900 // ////// 22/20 Q1009
ZGOW,2011-05-02 21:00,ZGOW 022100Z 07001MPS 3500 BR SCT006 BKN040 22/20 Q1009 NOSIG
ZGOW,2011-05-02 22:00,ZGOW 022200Z 06001MPS 2500 BR SCT006 BKN040 22/20 Q1010 NOSIG
ZGOW,2011-05-02 23:00,ZGOW 022300Z 08002MPS 2500 BR SCT006 BKN040 22/21 Q1010 NOSIG
ZGOW,2011-05-03 00:00,ZGOW 030000Z 09002MPS 2500 BR SCT006 SCT020 BKN040 23/21 Q1011 NOSIG
ZGOW,2011-05-03 01:00,ZGOW 030100Z 12002MPS 3000 BR SCT005 SCT020 BKN040 23/21 Q1011 NOSIG
ZGOW,2011-05-03 02:00,ZGOW 030200Z 12001MPS 2200 BR SCT004 SCT016 OVC040 23/21 Q1012 NOSIG
ZGOW,2011-05-03 03:00,ZGOW 030300Z 11001MPS 2500 BR SCT005 BKN033 23/22 Q1011 NOSIG
ZGOW,2011-05-03 04:00,ZGOW 030400Z 12002MPS 2500 -SHRA BR SCT007 FEW028CB OVC033 23/21 Q1011 TEMPO 1500 -TSRA
ZGOW,2011-05-03 05:00,ZGOW 030500Z 12002MPS 2500 -SHRA BR SCT005 FEW028CB OVC040 23/22 Q1010 TEMPO 1500 -TSRA
ZGOW,2011-05-03 06:00,ZGOW 030600Z 12002MPS 2500 -SHRA BR SCT005 FEW028CB OVC040 23/22 Q1009 TEMPO 1500 TSRA
ZGOW,2011-05-03 07:00,ZGOW 030700Z 12001MPS 2200 -SHRA BR SCT005 FEW033CB BKN033 23/22 Q1010 TEMPO 1500 TSRA
ZGOW,2011-05-03 08:00,ZGOW 030800Z 10001MPS 1800 -SHRA BR SCT004 SCT014 FEW030CB OVC040 23/22 Q1010 TEMPO 1500 TSRA
ZGOW,2011-05-03 09:00,ZGOW 030900Z 11001MPS 2200 -SHRA BR SCT004 SCT014 FEW030CB OVC040 23/22 Q1010 TEMPO 1500 TSRA
ZGOW,2011-05-03 10:00,ZGOW 031000Z 09001MPS 2000 -SHRA BR SCT004 SCT014 FEW030CB OVC040 23/22 Q1010 TEMPO 1500 TSRA SCT003 SCT025CB BKN030
ZGOW,2011-05-03 11:00,ZGOW 031100Z 13002MPS 2000 -SHRA BR SCT004 FEW030CB BKN030 23/22 Q1011 TEMPO 1500 TSRA SCT003 SCT025CB BKN030
ZGOW,2011-05-03 12:00,ZGOW 031200Z 10002MPS 2500 -SHRA BR SCT005 FEW028CB OVC040 23/22 Q1011 NOSIG
ZGOW,2011-05-03 13:00,ZGOW 031300Z 10002MPS 2500 -RA BR SCT004 FEW024TCU BKN033 23/22 Q1012 NOSIG
ZGOW,2011-05-03 14:00,ZGOW 031400Z 06005MPS 2500 -RA BR SCT004 FEW024TCU BKN033 22/21 Q1013 NOSIG
ZGOW,2011-05-03 15:00,ZGOW 031500Z 07009MPS 4000 -RA BR SCT006 FEW024TCU BKN033 20/19 Q1013 NOSIG
ZGOW,2011-05-03 16:00,ZGOW 031600Z 07009MPS 7000 FEW007 SCT014 BKN040 20/18 Q1013 NOSIG
ZGOW,2011-05-03 17:00,ZGOW 031700Z 07009G14MPS 9999 FEW009 SCT016 BKN040 19/18 Q1012 NOSIG
ZGOW,2011-05-03 18:00,ZGOW 031800Z AUTO 07009MPS 5000 ////// 19/18 Q1012
ZGOW,2011-05-03 19:00,ZGOW 031900Z AUTO 07007MPS 6000 ////// 19/17 Q1011
ZGOW,2011-05-03 20:00,ZGOW 032000Z AUTO 07008MPS 5000 ////// 19/17 Q1011
ZGOW,2011-05-03 21:00,ZGOW 032100Z 07006MPS 7000 SCT012 BKN040 19/17 Q1011 NOSIG
ZGOW,2011-05-03 22:00,ZGOW 032200Z 07006MPS 7000 SCT012 BKN040 19/17 Q1011 NOSIG
ZGOW,2011-05-03 23:00,ZGOW 032300Z 07006MPS 8000 SCT014 BKN040 19/17 Q1012 NOSIG
ZGOW,2011-05-04 00:00,ZGOW 040000Z 06007MPS 8000 SCT014 BKN040 19/17 Q1013 NOSIG
ZGOW,2011-05-04 01:00,ZGOW 040100Z 06006MPS 5000 BR SCT014 BKN040 19/17 Q1013 NOSIG
ZGOW,2011-05-04 02:00,ZGOW 040200Z 06005MPS 3500 -RA BR SCT014 OVC040 19/18 Q1013 NOSIG
ZGOW,2011-05-04 03:00,ZGOW 040300Z 06005MPS 5000 BR SCT012 FEW033TCU BKN033 19/17 Q1013 NOSIG
ZGOW,2011-05-04 04:00,ZGOW 040400Z 06005MPS 6000 SCT014 FEW033TCU BKN040 20/17 Q1013 NOSIG
ZGOW,2011-05-04 05:00,ZGOW 040500Z 07005MPS 6000 SCT014 FEW033TCU BKN050 20/17 Q1012 NOSIG
ZGOW,2011-05-04 06:00,ZGOW 040600Z 06004MPS 6000 SCT014 FEW033TCU BKN050 20/17 Q1012 NOSIG
ZGOW,2011-05-04 07:00,ZGOW 040700Z 06004MPS 5000 BR SCT014 BKN050 20/17 Q1011 NOSIG
ZGOW,2011-05-04 08:00,ZGOW 040800Z 06005MPS 5000 BR SCT014 FEW033TCU BKN050 20/17 Q1011 NOSIG
ZGOW,2011-05-04 09:00,ZGOW 040900Z 05005MPS 4000 BR SCT012 FEW033TCU BKN050 20/17 Q1011 NOSIG
ZGOW,2011-05-04 10:00,ZGOW 041000Z 05003MPS 1200 R04/1400V1600N -SHRA BR SCT012 FEW030TCU OVC033 19/17 Q1012 NOSIG
ZGOW,2011-05-04 11:00,ZGOW 041100Z 04004MPS 1300 R04/P2000 -SHRA BR SCT004 FEW026TCU OVC033 19/18 Q1013 NOSIG
ZGOW,2011-05-04 12:00,ZGOW 041200Z 07003MPS 1600 -RA BR SCT005 FEW026TCU OVC033 19/18 Q1013 NOSIG
ZGOW,2011-05-04 13:00,ZGOW 041300Z 08003MPS 1800 -RA BR SCT004 FEW026TCU OVC033 19/18 Q1013 NOSIG
ZGOW,2011-05-04 14:00,ZGOW 041400Z 09002MPS 2000 -RA BR SCT004 SCT020 BKN040 19/18 Q1014 NOSIG
ZGOW,2011-05-04 15:00,ZGOW 041500Z 08002MPS 2500 BR SCT009 SCT020 BKN040 19/18 Q1014 NOSIG
ZGOW,2011-05-04 16:00,ZGOW 041600Z 06001MPS 3500 BR SCT006 SCT020 BKN050 19/18 Q1013 NOSIG
ZGOW,2011-05-04 17:00,ZGOW 041700Z 05002MPS 4000 BR SCT008 BKN033 19/18 Q1012 NOSIG
ZGOW,2011-05-04 18:00,ZGOW 041800Z AUTO 05002MPS 1800 // ////// 19/18 Q1012
ZGOW,2011-05-04 19:00,ZGOW 041900Z AUTO 06003MPS 1700 // ////// 19/18 Q1012
ZGOW,2011-05-04 20:00,ZGOW 042000Z AUTO 04002MPS 1400 R04/P2000 // ////// 19/18 Q1012
ZGOW,2011-05-04 21:00,ZGOW 042100Z 05002MPS 3500 BR SCT018 BKN040 19/18 Q1012 NOSIG
ZGOW,2011-05-04 22:00,ZGOW 042200Z 06002MPS 3200 BR SCT012 BKN040 19/18 Q1012 NOSIG
ZGOW,2011-05-04 23:00,ZGOW 042300Z 06002MPS 3200 BR SCT012 BKN040 20/18 Q1013 NOSIG
ZGOW,2011-05-05 00:00,ZGOW 050000Z 06002MPS 3500 BR SCT010 OVC040 20/18 Q1013 NOSIG
ZGOW,2011-05-05 01:00,ZGOW 050100Z 05003MPS 3500 BR SCT010 BKN040 20/18 Q1013 NOSIG
ZGOW,2011-05-05 02:00,ZGOW 050200Z 05003MPS 5000 BR SCT010 BKN040 21/18 Q1013 NOSIG
ZGOW,2011-05-05 03:00,ZGOW 050300Z 06003MPS 5000 BR SCT014 BKN040 22/18 Q1013 NOSIG
ZGOW,2011-05-05 04:00,ZGOW 050400Z 07002MPS 5000 BR SCT014 BKN040 23/18 Q1012 NOSIG
ZGOW,2011-05-05 05:00,ZGOW 050500Z 06001MPS 5000 HZ SCT016 BKN040 23/18 Q1012 NOSIG
ZGOW,2011-05-05 06:00,ZGOW 050600Z 12002MPS 5000 HZ SCT016 BKN050 24/19 Q1012 NOSIG
ZGOW,2011-05-05 07:00,ZGOW 050700Z 10002MPS 5000 HZ SCT020 24/19 Q1011 NOSIG
ZGOW,2011-05-05 08:00,ZGOW 050800Z 14002MPS 5000 BR SCT020 23/19 Q1011 NOSIG
ZGOW,2011-05-05 09:00,ZGOW 050900Z 13002MPS 5000 BR SCT020 23/19 Q1011 NOSIG
ZGOW,2011-05-05 10:00,ZGOW 051000Z 11001MPS 5000 BR SCT018 22/19 Q1011 NOSIG
ZGOW,2011-05-05 11:00,ZGOW 051100Z 12002MPS 4000 BR SCT016 BKN050 22/19 Q1011 NOSIG
ZGOW,2011-05-05 12:00,ZGOW 051200Z 12002MPS 4500 BR SCT016 BKN050 22/19 Q1012 NOSIG
ZGOW,2011-05-05 13:00,ZGOW 051300Z 11002MPS 4500 BR SCT014 BKN050 22/19 Q1013 NOSIG
ZGOW,2011-05-05 14:00,ZGOW 051400Z 10001MPS 4500 BR SCT014 BKN050 22/20 Q1013 NOSIG
ZGOW,2011-05-05 15:00,ZGOW 051500Z 05002MPS 4500 BR SCT014 BKN050 22/20 Q1013 NOSIG
ZGOW,2011-05-05 16:00,ZGOW 051600Z 07002MPS 3500 BR SCT012 BKN050 22/20 Q1012 NOSIG
ZGOW,2011-05-05 17:00,ZGOW 051700Z 08001MPS 3000 BR SCT012 BKN050 22/20 Q1011 NOSIG
ZGOW,2011-05-05 18:00,ZGOW 051800Z AUTO 00000MPS 2100 // ////// 22/20 Q1011
ZGOW,2011-05-05 19:00,ZGOW 051900Z AUTO 12001MPS 1400 R04/P2000 // ////// 21/20 Q1010
ZGOW,2011-05-05 20:00,ZGOW 052000Z AUTO 00000MPS 1400 R04/1800VP2000U // ////// 22/20 Q1011
ZGOW,2011-05-05 21:00,ZGOW 052100Z 00000MPS 1800 BR SCT004 BKN033 22/20 Q1011 NOSIG
ZGOW,2011-05-05 22:00,ZGOW 052200Z 30001MPS 1200 R04/1000V1200U BR SCT006 BKN033 21/20 Q1011 NOSIG
ZGOW,2011-05-05 23:00,ZGOW 052300Z 00000MPS 1200 R04/0900V1000N BR SCT004 BKN033 22/20 Q1012 NOSIG
ZGOW,2011-05-06 00:00,ZGOW 060000Z 00000MPS 1800 BR SCT005 BKN033 23/21 Q1012 TEMPO 1300 BR
ZGOW,2011-05-06 01:00,ZGOW 060100Z 10001MPS 1800 BR SCT008 BKN033 24/21 Q1012 TEMPO 2300 BR
ZGOW,2011-05-06 02:00,ZGOW 060200Z 31002MPS 2200 BR SCT008 BKN033 26/21 Q1012 NOSIG
ZGOW,2011-05-06 03:00,ZGOW 060300Z 26002MPS 2200 BR SCT014 BKN040 26/21 Q1012 NOSIG
ZGOW,2011-05-06 04:00,ZGOW 060400Z 20002MPS 2800 BR SCT014 BKN040 26/22 Q1011 NOSIG
ZGOW,2011-05-06 05:00,ZGOW 060500Z 17001MPS 3000 HZ SCT018 28/22 Q1011 NOSIG
ZGOW,2011-05-06 06:00,ZGOW 060600Z 15003MPS 4000 HZ SCT020 27/23 Q1010 NOSIG
ZGOW,2011-05-06 07:00,ZGOW 060700Z 17005MPS 7000 FEW020 28/23 Q1009 NOSIG
ZGOW,2011-05-06 08:00,ZGOW 060800Z 15004MPS 7000 FEW016 27/22 Q1009 NOSIG
ZGOW,2011-05-06 09:00,ZGOW 060900Z 14004MPS 6000 FEW016 26/22 Q1009 NOSIG
ZGOW,2011-05-06 10:00,ZGOW 061000Z 14004MPS 4500 BR SCT007 25/22 Q1009 NOSIG
ZGOW,2011-05-06 11:00,ZGOW 061100Z 15003MPS 3500 BR SCT008 25/22 Q1009 TEMPO 2500 BR
ZGOW,2011-05-06 12:00,ZGOW 061200Z 15002MPS 3500 BR SCT006 FEW030CB 24/23 Q1010 TEMPO 2500 BR
ZGOW,2011-05-06 13:00,ZGOW 061300Z 16003MPS 3500 BR SCT005 FEW030CB 24/23 Q1010 TEMPO 2500 BR
ZGOW,2011-05-06 14:00,ZGOW 061400Z 18001MPS 3500 BR SCT008 FEW030CB 24/23 Q1010 TEMPO 2500 BR
ZGOW,2011-05-06 15:00,ZGOW 061500Z 00000MPS 4500 BR FEW010 FEW030CB SCT050 24/22 Q1010 NOSIG
ZGOW,2011-05-06 16:00,ZGOW 061600Z 15001MPS 4500 BR FEW010 FEW030CB 24/22 Q1010 NOSIG
ZGOW,2011-05-06 17:00,ZGOW 061700Z 17001MPS 4500 BR FEW010 FEW030CB 24/22 Q1009 NOSIG
ZGOW,2011-05-06 21:00,ZGOW 062100Z 30001MPS 4000 BR FEW018 SCT050 24/22 Q1009 NOSIG
ZGOW,2011-05-06 22:00,ZGOW 062200Z 21001MPS 3500 BR FEW018 23/22 Q1009 NOSIG
ZGOW,2011-05-06 23:00,ZGOW 062300Z 13001MPS 3000 BR NSC 24/23 Q1009 NOSIG
ZGOW,2011-05-07 00:00,ZGOW 070000Z 19002MPS 4000 BR NSC 26/22 Q1010 NOSIG
ZGOW,2011-05-07 01:00,ZGOW 070100Z 22001MPS 6000 SCT018 27/22 Q1010 NOSIG
ZGOW,2011-05-07 02:00,ZGOW 070200Z 25002MPS 6000 SCT018 28/22 Q1010 NOSIG
ZGOW,2011-05-07 03:00,ZGOW 070300Z 26002MPS 6000 SCT020 29/22 Q1010 NOSIG
ZGOW,2011-05-07 04:00,ZGOW 070400Z 12002MPS 5000 HZ SCT020 28/23 Q1009 NOSIG
ZGOW,2011-05-07 05:00,ZGOW 070500Z 11003MPS 7000 SCT020 29/23 Q1009 NOSIG
ZGOW,2011-05-07 06:00,ZGOW 070600Z 14004MPS 9999 SCT020 29/22 Q1008 NOSIG
ZGOW,2011-05-07 07:00,ZGOW 070700Z 16005MPS 9999 FEW020 29/22 Q1008 NOSIG
ZGOW,2011-05-07 08:00,ZGOW 070800Z 15005MPS 9999 FEW020 27/23 Q1008 NOSIG
ZGOW,2011-05-07 09:00,ZGOW 070900Z 17003MPS 9999 FEW020 FEW028CB 27/23 Q1008 NOSIG
ZGOW,2011-05-07 10:00,ZGOW 071000Z 14002MPS 9999 FEW020 FEW028CB 26/23 Q1008 NOSIG
ZGOW,2011-05-07 11:00,ZGOW 071100Z 15003MPS 9999 FEW020 FEW028CB 25/23 Q1009 NOSIG
ZGOW,2011-05-07 12:00,ZGOW 071200Z 07002MPS 8000 SCT005 FEW028CB BKN050 25/23 Q1010 NOSIG
ZGOW,2011-05-07 13:00,ZGOW 071300Z 08003MPS 8000 SCT006 FEW028CB BKN050 25/23 Q1011 TEMPO VRB06MPS 2800 -TSRA
ZGOW,2011-05-07 14:00,ZGOW 071400Z 08003MPS 9999 FEW018 FEW028TCU 24/21 Q1011 NOSIG
ZGOW,2011-05-07 15:00,ZGOW 071500Z 08001MPS 9999 FEW018 FEW028TCU 24/20 Q1011 NOSIG
ZGOW,2011-05-07 16:00,ZGOW 071600Z 10001MPS 9999 FEW018 24/20 Q1010 NOSIG
ZGOW,2011-05-07 17:00,ZGOW 071700Z 13001MPS 9999 FEW018 23/20 Q1010 NOSIG
ZGOW,2011-05-07 18:00,ZGOW 071800Z 00000MPS 8000 FEW018 23/20 Q1009 NOSIG
ZGOW,2011-05-07 19:00,ZGOW 071900Z 01001MPS 8000 SCT010 BKN050 23/20 Q1009 NOSIG
ZGOW,2011-05-07 20:00,ZGOW 072000Z 33001MPS 8000 SCT012 BKN050 23/20 Q1009 NOSIG
ZGOW,2011-05-07 21:00,ZGOW 072100Z 00000MPS 8000 SCT014 BKN050 23/20 Q1009 NOSIG
ZGOW,2011-05-07 22:00,ZGOW 072200Z 02001MPS 5000 BR SCT014 23/21 Q1010 NOSIG
ZGOW,2011-05-07 23:00,ZGOW 072300Z 06002MPS 4000 BR SCT018 24/21 Q1010 NOSIG
ZGOW,2011-05-08 00:00,ZGOW 080000Z 08002MPS 5000 BR NSC 25/21 Q1010 NOSIG
ZGOW,2011-05-08 01:00,ZGOW 080100Z 36001MPS 6000 FEW020 27/21 Q1010 NOSIG
ZGOW,2011-05-08 02:00,ZGOW 080200Z 09002MPS 7000 SCT025 29/22 Q1010 NOSIG
ZGOW,2011-05-08 03:00,ZGOW 080300Z 08003MPS 9999 FEW026 29/21 Q1010 NOSIG
ZGOW,2011-05-08 04:00,ZGOW 080400Z 11003MPS 9999 FEW026 29/20 Q1010 NOSIG
ZGOW,2011-05-08 05:00,ZGOW 080500Z 12005MPS 9999 FEW024 29/21 Q1009 NOSIG
ZGOW,2011-05-08 06:00,ZGOW 080600Z 12005MPS 9999 FEW024 29/21 Q1009 NOSIG
ZGOW,2011-05-08 07:00,ZGOW 080700Z 12004MPS 9999 FEW026 29/22 Q1008 NOSIG
ZGOW,2011-05-08 08:00,ZGOW 080800Z 16004MPS 9999 FEW026 29/22 Q1008 NOSIG
ZGOW,2011-05-08 09:00,ZGOW 080900Z 12003MPS 9999 FEW026 28/22 Q1008 NOSIG
ZGOW,2011-05-08 10:00,ZGOW 081000Z 13002MPS CAVOK 27/22 Q1008 NOSIG
ZGOW,2011-05-08 11:00,ZGOW 081100Z 14002MPS CAVOK 26/22 Q1009 NOSIG
ZGOW,2011-05-08 12:00,ZGOW 081200Z 12001MPS CAVOK 26/22 Q1009 NOSIG
ZGOW,2011-05-08 13:00,ZGOW 081300Z 04001MPS CAVOK 25/23 Q1009 NOSIG
ZGOW,2011-05-08 14:00,ZGOW 081400Z 06001MPS CAVOK 25/22 Q1009 NOSIG
ZGOW,2011-05-08 15:00,ZGOW 081500Z 29001MPS CAVOK 26/22 Q1009 NOSIG
ZGOW,2011-05-08 16:00,ZGOW 081600Z 30001MPS CAVOK 25/22 Q1009 NOSIG
ZGOW,2011-05-08 17:00,ZGOW 081700Z 30002MPS 9999 SCT026 25/22 Q1009 NOSIG
ZGOW,2011-05-08 21:00,ZGOW 082100Z 29001MPS 5000 BR SCT026 25/22 Q1008 NOSIG
ZGOW,2011-05-08 22:00,ZGOW 082200Z 32001MPS 4000 BR SCT026 25/22 Q1009 NOSIG
ZGOW,2011-05-08 23:00,ZGOW 082300Z 32001MPS 3500 BR BKN033 26/22 Q1009 NOSIG
ZGOW,2011-05-09 00:00,ZGOW 090000Z 31001MPS 3500 BR BKN033 27/22 Q1009 NOSIG
ZGOW,2011-05-09 01:00,ZGOW 090100Z 30001MPS 5000 HZ BKN033 29/23 Q1009 NOSIG
ZGOW,2011-05-09 02:00,ZGOW 090200Z 17003MPS 9999 SCT028 30/22 Q1009 NOSIG
ZGOW,2011-05-09 03:00,ZGOW 090300Z 16004MPS 9999 SCT040 31/22 Q1009 NOSIG
ZGOW,2011-05-09 04:00,ZGOW 090400Z 16005MPS 9999 SCT040 31/22 Q1009 NOSIG
ZGOW,2011-05-09 05:00,ZGOW 090500Z 17005MPS 9999 BKN043 30/21 Q1008 NOSIG
ZGOW,2011-05-09 06:00,ZGOW 090600Z 16004MPS 9999 SCT036 31/21 Q1007 NOSIG
ZGOW,2011-05-09 07:00,ZGOW 090700Z 22005MPS 9999 SCT033 32/21 Q1006 NOSIG
ZGOW,2011-05-09 08:00,ZGOW 090800Z 18005G11MPS 9999 FEW033 32/21 Q1006 NOSIG
ZGOW,2011-05-09 09:00,ZGOW 090900Z 17005MPS 9999 FEW040 31/21 Q1005 NOSIG
ZGOW,2011-05-09 10:00,ZGOW 091000Z 17005MPS CAVOK 29/21 Q1006 NOSIG
ZGOW,2011-05-09 11:00,ZGOW 091100Z 16003MPS CAVOK 28/21 Q1006 NOSIG
ZGOW,2011-05-09 12:00,ZGOW 091200Z 17002MPS CAVOK 27/21 Q1007 NOSIG
ZGOW,2011-05-09 13:00,ZGOW 091300Z 19002MPS CAVOK 27/22 Q1007 NOSIG
ZGOW,2011-05-09 14:00,ZGOW 091400Z 21002MPS CAVOK 27/22 Q1008 NOSIG
ZGOW,2011-05-09 15:00,ZGOW 091500Z 23002MPS 9999 FEW040 27/22 Q1008 NOSIG
ZGOW,2011-05-09 16:00,ZGOW 091600Z 28001MPS CAVOK 26/21 Q1007 NOSIG
ZGOW,2011-05-09 17:00,ZGOW 091700Z 30001MPS 9999 FEW040 26/22 Q1007 NOSIG
ZGOW,2011-05-09 21:00,ZGOW 092100Z 30001MPS 6000 NSC 25/22 Q1007 NOSIG
ZGOW,2011-05-09 22:00,ZGOW 092200Z 30001MPS 6000 SKC 25/22 Q1007 NOSIG
ZGOW,2011-05-09 23:00,ZGOW 092300Z 30001MPS 5000 BR SCT043 26/22 Q1008 NOSIG
ZGOW,2011-05-10 00:00,ZGOW 100000Z 29002MPS 6000 BKN043 28/22 Q1008 NOSIG
ZGOW,2011-05-10 01:00,ZGOW 100100Z 27004MPS 9999 SCT018 BKN040 28/21 Q1008 NOSIG
ZGOW,2011-05-10 02:00,ZGOW 100200Z 27002MPS 9999 BKN040 30/21 Q1008 NOSIG
ZGOW,2011-05-10 03:00,ZGOW 100300Z 21002MPS 9999 BKN033 31/22 Q1007 NOSIG
ZGOW,2011-05-10 04:00,ZGOW 100400Z 15003MPS 9999 SCT033 32/22 Q1006 NOSIG
ZGOW,2011-05-10 05:00,ZGOW 100500Z 17002MPS 9999 SCT033 33/22 Q1006 NOSIG
ZGOW,2011-05-10 06:00,ZGOW 100600Z 16006MPS 9999 SCT033 33/22 Q1005 NOSIG
ZGOW,2011-05-10 07:00,ZGOW 100700Z 16006MPS 9999 FEW030 32/23 Q1004 NOSIG
ZGOW,2011-05-10 08:00,ZGOW 100800Z 15005MPS 9999 FEW030 32/23 Q1004 NOSIG
ZGOW,2011-05-10 09:00,ZGOW 100900Z 16005MPS 9999 FEW030 31/23 Q1003 NOSIG
ZGOW,2011-05-10 10:00,ZGOW 101000Z 19005MPS 9999 FEW030 30/23 Q1004 NOSIG
ZGOW,2011-05-10 11:00,ZGOW 101100Z 20005MPS 9999 FEW030 29/22 Q1004 NOSIG
ZGOW,2011-05-10 12:00,ZGOW 101200Z 20005MPS 9999 FEW030 29/22 Q1004 NOSIG
ZGOW,2011-05-10 13:00,ZGOW 101300Z 21005MPS CAVOK 28/23 Q1005 NOSIG
ZGOW,2011-05-10 14:00,ZGOW 101400Z 23005MPS CAVOK 28/23 Q1005 NOSIG
ZGOW,2011-05-10 15:00,ZGOW 101500Z 23003MPS CAVOK 28/22 Q1005 NOSIG
ZGOW,2011-05-10 16:00,ZGOW 101600Z 23003MPS CAVOK 28/22 Q1005 NOSIG
ZGOW,2011-05-10 17:00,ZGOW 101700Z 23003MPS CAVOK 27/22 Q1005 NOSIG
ZGOW,2011-05-10 19:00,ZGOW 101900Z AUTO 21002MPS CAVOK 27/22 Q1004
ZGOW,2011-05-10 20:00,ZGOW 102000Z AUTO 23005MPS CAVOK 27/22 Q1004
ZGOW,2011-05-10 21:00,ZGOW 102100Z 24003MPS CAVOK 27/22 Q1005 NOSIG
ZGOW,2011-05-10 22:00,ZGOW 102200Z 00000MPS 8000 FEW030 26/22 Q1005 NOSIG
ZGOW,2011-05-10 23:00,ZGOW 102300Z 26003MPS 7000 NSC 28/23 Q1006 NOSIG
ZGOW,2011-05-11 00:00,ZGOW 110000Z 25003MPS 7000 NSC 28/23 Q1006 NOSIG
ZGOW,2011-05-11 01:00,ZGOW 110100Z 24003MPS 7000 NSC 29/23 Q1007 NOSIG
ZGOW,2011-05-11 02:00,ZGOW 110200Z 24004MPS 8000 NSC 30/23 Q1007 NOSIG
ZGOW,2011-05-11 03:00,ZGOW 110300Z 24004MPS 9999 FEW030TCU 32/24 Q1007 NOSIG
ZGOW,2011-05-11 04:00,ZGOW 110400Z 22004MPS 9999 FEW030TCU BKN036 33/24 Q1006 NOSIG
ZGOW,2011-05-11 05:00,ZGOW 110500Z 23004MPS 9999 FEW026TCU BKN040 33/23 Q1006 NOSIG
ZGOW,2011-05-11 06:00,ZGOW 110600Z 17005MPS 9999 SCT020 FEW030CB 33/25 Q1005 NOSIG
ZGOW,2011-05-11 07:00,ZGOW 110700Z 16005MPS 9999 SCT020 FEW030CB BKN043 32/25 Q1004 NOSIG
ZGOW,2011-05-11 08:00,ZGOW 110800Z 19006G13MPS 9999 FEW020 FEW030CB SCT036 32/25 Q1003 NOSIG
ZGOW,2011-05-11 09:00,ZGOW 110900Z 18004MPS 9999 -SHRA FEW010 FEW030CB SCT046 29/26 Q1004 RESHRA BECMG AT0910 NSW
ZGOW,2011-05-11 10:00,ZGOW 111000Z 18005MPS 9999 FEW016 FEW025TCU 29/25 Q1004 NOSIG
ZGOW,2011-05-11 11:00,ZGOW 111100Z 19004MPS 9999 FEW030 29/24 Q1005 NOSIG
ZGOW,2011-05-11 12:00,ZGOW 111200Z 20003MPS 9999 FEW033 29/24 Q1006 NOSIG
ZGOW,2011-05-11 13:00,ZGOW 111300Z 22004MPS 9999 BKN050 29/24 Q1007 NOSIG
ZGOW,2011-05-11 14:00,ZGOW 111400Z 22003MPS 9999 FEW024 29/24 Q1007 NOSIG
ZGOW,2011-05-11 15:00,ZGOW 111500Z 00000MPS 9999 FEW050 28/24 Q1008 NOSIG
ZGOW,2011-05-11 16:00,ZGOW 111600Z 20003MPS 9999 FEW050 27/24 Q1008 NOSIG
ZGOW,2011-05-11 17:00,ZGOW 111700Z AUTO 00000MPS 6000 NCD 28/24 Q1007
ZGOW,2011-05-11 21:00,ZGOW 112100Z 00000MPS 6000 FEW028 27/24 Q1007 NOSIG
ZGOW,2011-05-11 22:00,ZGOW 112200Z 12001MPS 6000 NSC 26/24 Q1007 NOSIG
ZGOW,2011-05-11 23:00,ZGOW 112300Z 00000MPS 6000 NSC 28/25 Q1008 NOSIG
ZGOW,2011-05-12 00:00,ZGOW 120000Z 25003MPS 9999 FEW014 30/24 Q1008 NOSIG
ZGOW,2011-05-12 01:00,ZGOW 120100Z 23003MPS 9999 FEW014 31/24 Q1008 NOSIG
ZGOW,2011-05-12 02:00,ZGOW 120200Z 22003MPS 9999 FEW018 32/23 Q1008 NOSIG
ZGOW,2011-05-12 03:00,ZGOW 120300Z 24005MPS 9999 SCT018 33/23 Q1008 NOSIG
ZGOW,2011-05-12 04:00,ZGOW 120400Z 18003MPS 9999 SCT030 34/23 Q1008 NOSIG
ZGOW,2011-05-12 05:00,ZGOW 120500Z 16006MPS 9999 FEW030 33/26 Q1007 NOSIG
ZGOW,2011-05-12 06:00,ZGOW 120600Z 17006MPS 9999 FEW030 33/25 Q1006 NOSIG
ZGOW,2011-05-12 07:00,ZGOW 120700Z 17006MPS 9999 FEW030CB FEW030 33/25 Q1005 NOSIG
ZGOW,2011-05-12 08:00,ZGOW 120800Z 19007MPS 9999 FEW030CB FEW030 31/25 Q1005 NOSIG
ZGOW,2011-05-12 09:00,ZGOW 120900Z 17005MPS 9999 FEW030CB FEW030 30/24 Q1006 NOSIG
ZGOW,2011-05-12 10:00,ZGOW 121000Z 19006MPS 9999 FEW030CB FEW030 29/24 Q1007 NOSIG
ZGOW,2011-05-12 11:00,ZGOW 121100Z 19006MPS 9999 FEW012 FEW030CB 29/25 Q1008 NOSIG
ZGOW,2011-05-12 12:00,ZGOW 121200Z 20006MPS 9999 FEW018 FEW030CB 29/25 Q1009 NOSIG
ZGOW,2011-05-12 13:00,ZGOW 121300Z 20005MPS 9999 FEW018 FEW030CB 29/25 Q1010 NOSIG
ZGOW,2011-05-12 14:00,ZGOW 121400Z 22003MPS 9999 FEW018 FEW028TCU 29/24 Q1011 NOSIG
ZGOW,2011-05-12 15:00,ZGOW 121500Z 00000MPS 9999 FEW020 FEW028TCU 28/24 Q1010 NOSIG
ZGOW,2011-05-12 16:00,ZGOW 121600Z 00000MPS 8000 FEW020 FEW030CB 28/25 Q1010 NOSIG
ZGOW,2011-05-12 17:00,ZGOW 121700Z 35004MPS 8000 TS SCT016 FEW030CB 27/21 Q1010 TEMPO 2500 -TSRA
ZGOW,2011-05-12 18:00,ZGOW 121800Z 00000MPS 8000 -TSRA SCT030CB SCT030 25/22 Q1010 NOSIG
ZGOW,2011-05-12 19:00,ZGOW 121900Z 00000MPS 9999 TS SCT030CB SCT030 24/22 Q1009 NOSIG
ZGOW,2011-05-12 20:00,ZGOW 122000Z 07005MPS 9999 TS FEW030CB SCT030 25/23 Q1009 NOSIG
ZGOW,2011-05-12 21:00,ZGOW 122100Z 07005MPS 8000 TS SCT007 FEW030CB SCT030 24/22 Q1010 NOSIG
ZGOW,2011-05-12 22:00,ZGOW 122200Z 06006MPS 8000 SCT008 FEW030CB SCT030 24/22 Q1010 RETS NOSIG
ZGOW,2011-05-12 23:00,ZGOW 122300Z 06006MPS 7000 -SHRA SCT008 FEW030CB SCT030 23/22 Q1011 TEMPO 2500 -TSRA
ZGOW,2011-05-13 00:00,ZGOW 130000Z 06006MPS 9999 SCT008 FEW030CB SCT030 24/22 Q1011 NOSIG
ZGOW,2011-05-13 01:00,ZGOW 130100Z 08006MPS 3000 SHRA SCT008 SCT028CB BKN033 23/21 Q1012 TEMPO 1500 TSRA SCT005 SCT026CB BKN030
ZGOW,2011-05-13 02:00,ZGOW 130200Z 07006MPS 5000 -SHRA SCT007 SCT030CB BKN040 24/22 Q1012 RESHRA TEMPO 1500 TSRA SCT005 SCT026CB BKN030
ZGOW,2011-05-13 03:00,ZGOW 130300Z 08005MPS 4000 -SHRA SCT009 SCT028CB BKN040 24/22 Q1012 TEMPO 1500 TSRA SCT005 SCT026CB BKN030
ZGOW,2011-05-13 04:00,ZGOW 130400Z 07005MPS 1500 SHRA SCT007 SCT028CB BKN033 23/21 Q1012 TEMPO TSRA SCT005 SCT026CB BKN030
ZGOW,2011-05-13 05:00,ZGOW 130500Z 08004MPS 3500 -SHRA SCT006 SCT028CB BKN040 24/22 Q1012 RESHRA NOSIG
ZGOW,2011-05-13 06:00,ZGOW 130600Z 07005MPS 7000 -SHRA SCT007 SCT028CB BKN040 23/21 Q1011 NOSIG
ZGOW,2011-05-13 07:00,ZGOW 130700Z 08006MPS 7000 -SHRA SCT007 FEW030CB BKN040 23/21 Q1011 NOSIG
ZGOW,2011-05-13 08:00,ZGOW 130800Z 06005MPS 9999 -SHRA SCT014 FEW030CB SCT030 23/21 Q1011 NOSIG
ZGOW,2011-05-13 09:00,ZGOW 130900Z 07004MPS 9999 -SHRA SCT012 FEW026TCU BKN040 23/20 Q1011 NOSIG
ZGOW,2011-05-13 10:00,ZGOW 131000Z 07006MPS 9999 -SHRA FEW012 FEW026TCU BKN040 22/20 Q1011 NOSIG
ZGOW,2011-05-13 11:00,ZGOW 131100Z 07005MPS 9999 SCT016 FEW026TCU BKN040 22/20 Q1012 NOSIG
ZGOW,2011-05-13 12:00,ZGOW 131200Z 07006MPS 9999 SCT012 BKN040 22/20 Q1012 NOSIG
ZGOW,2011-05-13 13:00,ZGOW 131300Z 08007MPS 9999 SCT014 FEW026TCU BKN040 22/19 Q1013 NOSIG
ZGOW,2011-05-13 14:00,ZGOW 131400Z 07007MPS 9999 SCT012 BKN033 22/19 Q1013 NOSIG
ZGOW,2011-05-13 15:00,ZGOW 131500Z 07008MPS 9999 FEW012 SCT018 BKN040 22/19 Q1014 NOSIG
ZGOW,2011-05-13 16:00,ZGOW 131600Z 08007MPS 9999 SCT010 FEW025TCU BKN040 22/19 Q1013 NOSIG
ZGOW,2011-05-13 17:00,ZGOW 131700Z 08006MPS 7000 FEW012 SCT022 BKN046 22/19 Q1013 NOSIG
ZGOW,2011-05-13 18:00,ZGOW 131800Z 08005MPS 7000 FEW012 SCT022 BKN040 22/19 Q1013 NOSIG
ZGOW,2011-05-13 19:00,ZGOW 131900Z AUTO 07006MPS 7000 ////// 22/19 Q1013
ZGOW,2011-05-13 20:00,ZGOW 132000Z AUTO 07005MPS 7000 ////// 22/19 Q1012
ZGOW,2011-05-13 21:00,ZGOW 132100Z 06004MPS 9999 SCT026 22/19 Q1013 NOSIG
ZGOW,2011-05-13 22:00,ZGOW 132200Z 07005MPS 9999 SCT024 BKN046 22/19 Q1013 NOSIG
ZGOW,2011-05-13 23:00,ZGOW 132300Z 07005MPS 9999 FEW012 FEW025TCU BKN040 22/19 Q1014 NOSIG
ZGOW,2011-05-14 00:00,ZGOW 140000Z 06005MPS 9999 SCT012 FEW026TCU BKN040 23/19 Q1015 NOSIG
ZGOW,2011-05-14 01:00,ZGOW 140100Z 08005MPS 9999 SCT012 FEW026TCU BKN040 23/19 Q1015 NOSIG
ZGOW,2011-05-14 02:00,ZGOW 140200Z 08005MPS 9999 SCT016 BKN040 23/19 Q1015 NOSIG
ZGOW,2011-05-14 03:00,ZGOW 140300Z 08005MPS 9999 SCT016 BKN050 24/19 Q1015 NOSIG
ZGOW,2011-05-14 04:00,ZGOW 140400Z 08004MPS 9999 SCT016 BKN050 24/19 Q1015 NOSIG
ZGOW,2011-05-14 05:00,ZGOW 140500Z 08005MPS 9999 SCT018 FEW028TCU BKN050 25/19 Q1014 NOSIG
ZGOW,2011-05-14 06:00,ZGOW 140600Z 08006MPS 9999 SCT018 FEW030CB BKN040 25/19 Q1013 NOSIG
ZGOW,2011-05-14 07:00,ZGOW 140700Z 07006MPS 7000 SCT018 FEW030CB BKN040 24/20 Q1013 TEMPO 2500 SHRA
ZGOW,2011-05-14 08:00,ZGOW 140800Z 08006MPS 5000 -SHRA BR SCT018 FEW030CB BKN040 23/20 Q1013 TEMPO 2500 SHRA
ZGOW,2011-05-14 09:00,ZGOW 140900Z 08005MPS 5000 -SHRA BR SCT014 FEW030CB BKN040 23/19 Q1013 NOSIG
ZGOW,2011-05-14 10:00,ZGOW 141000Z 08008MPS 3200 -SHRA BR SCT014 FEW030CB BKN040 22/19 Q1013 TEMPO 2500 -SHRA BR
ZGOW,2011-05-14 11:00,ZGOW 141100Z 07006MPS 3000 -SHRA BR SCT014 FEW030CB BKN040 21/19 Q1014 TEMPO 2500 -SHRA BR
ZGOW,2011-05-14 12:00,ZGOW 141200Z 08006MPS 3000 BR SCT014 FEW030CB BKN040 22/19 Q1015 TEMPO 2500 -SHRA BR
ZGOW,2011-05-14 13:00,ZGOW 141300Z 08007MPS 3500 BR SCT018 BKN040 22/19 Q1015 NOSIG
ZGOW,2011-05-14 14:00,ZGOW 141400Z 08007MPS 3000 BR SCT012 BKN040 22/19 Q1016 NOSIG
ZGOW,2011-05-14 15:00,ZGOW 141500Z 07007MPS 3500 BR SCT014 BKN040 22/19 Q1016 NOSIG
ZGOW,2011-05-14 16:00,ZGOW 141600Z 07007MPS 3500 BR SCT012 BKN040 21/18 Q1016 NOSIG
ZGOW,2011-05-14 17:00,ZGOW 141700Z 07006MPS 3500 BR SCT014 BKN033 21/18 Q1015 NOSIG
ZGOW,2011-05-14 18:00,ZGOW 141800Z AUTO 07007MPS 3600 // ////// 21/18 Q1015
ZGOW,2011-05-14 19:00,ZGOW 141900Z AUTO 07005MPS 3800 // ////// 21/17 Q1015
ZGOW,2011-05-14 20:00,ZGOW 142000Z AUTO 07004MPS 3600 // ////// 21/17 Q1014
ZGOW,2011-05-14 21:00,ZGOW 142100Z 07006MPS 4500 BR SCT020 BKN050 21/17 Q1015 NOSIG
ZGOW,2011-05-14 22:00,ZGOW 142200Z 08004MPS 3500 BR BKN030 21/17 Q1015 NOSIG
ZGOW,2011-05-14 23:00,ZGOW 142300Z 06004MPS 6000 FEW024TCU BKN024 21/16 Q1016 NOSIG
ZGOW,2011-05-15 00:00,ZGOW 150000Z 07006MPS 6000 BKN022 22/16 Q1016 NOSIG
ZGOW,2011-05-15 01:00,ZGOW 150100Z 07005MPS 6000 SCT022 BKN046 23/17 Q1017 NOSIG
ZGOW,2011-05-15 02:00,ZGOW 150200Z 07005MPS 6000 SCT022 BKN036 24/17 Q1017 NOSIG
ZGOW,2011-05-15 03:00,ZGOW 150300Z 06004MPS 6000 BKN033 25/18 Q1017 NOSIG
ZGOW,2011-05-15 04:00,ZGOW 150400Z 07001MPS 5000 HZ SCT020 BKN040 24/18 Q1016 NOSIG
ZGOW,2011-05-15 05:00,ZGOW 150500Z 06002MPS 5000 HZ SCT020 BKN050 24/18 Q1016 NOSIG
ZGOW,2011-05-15 06:00,ZGOW 150600Z 06002MPS 5000 HZ FEW020 BKN040 25/19 Q1015 NOSIG
ZGOW,2011-05-15 07:00,ZGOW 150700Z 08003MPS 5000 HZ BKN043 25/19 Q1014 NOSIG
ZGOW,2011-05-15 08:00,ZGOW 150800Z 10002MPS 5000 HZ SCT020 BKN050 25/19 Q1014 NOSIG
ZGOW,2011-05-15 09:00,ZGOW 150900Z 08003MPS 6000 BKN026 25/19 Q1014 NOSIG
ZGOW,2011-05-15 10:00,ZGOW 151000Z 10002MPS 5000 HZ FEW024TCU FEW024 BKN050 24/18 Q1014 NOSIG
ZGOW,2011-05-15 11:00,ZGOW 151100Z 13002MPS 5000 BR FEW024TCU FEW024 BKN050 23/19 Q1015 NOSIG
ZGOW,2011-05-15 12:00,ZGOW 151200Z 12002MPS 5000 BR SCT022 BKN050 23/20 Q1015 NOSIG
ZGOW,2011-05-15 13:00,ZGOW 151300Z 10002MPS 5000 BR FEW012 SCT022 BKN050 23/20 Q1016 NOSIG
ZGOW,2011-05-15 14:00,ZGOW 151400Z 08002MPS 5000 BR SCT020 FEW026TCU BKN043 23/20 Q1016 NOSIG
ZGOW,2011-05-15 15:00,ZGOW 151500Z 09001MPS 4000 BR SCT020 FEW026TCU BKN040 23/20 Q1016 NOSIG
ZGOW,2011-05-15 16:00,ZGOW 151600Z 14001MPS 4000 BR SCT010 FEW030CB BKN040 23/20 Q1015 NOSIG
ZGOW,2011-05-15 17:00,ZGOW 151700Z AUTO 13001MPS 3800 // ////// 23/20 Q1015
ZGOW,2011-05-15 18:00,ZGOW 151800Z AUTO 04002MPS 2800 // ////// 22/20 Q1014
ZGOW,2011-05-15 19:00,ZGOW 151900Z AUTO 11001MPS 2400 // ////// 22/20 Q1014
ZGOW,2011-05-15 20:00,ZGOW 152000Z AUTO 14002MPS 1700 // ////// 22/20 Q1013
ZGOW,2011-05-15 21:00,ZGOW 152100Z 12001MPS 2500 BR SCT008 BKN033 22/20 Q1013 NOSIG
ZGOW,2011-05-15 22:00,ZGOW 152200Z 10001MPS 2500 BR SCT008 BKN033 22/20 Q1014 NOSIG
ZGOW,2011-05-15 23:00,ZGOW 152300Z 12001MPS 3000 BR SCT008 BKN033 22/20 Q1014 NOSIG
ZGOW,2011-05-16 00:00,ZGOW 160000Z 08002MPS 1600 R04/1400V1600N -SHRA BR SCT005 FEW028CB OVC033 22/20 Q1015 NOSIG
ZGOW,2011-05-16 01:00,ZGOW 160100Z 00000MPS 2000 -SHRA BR SCT010 FEW028CB OVC040 22/20 Q1015 NOSIG
ZGOW,2011-05-16 02:00,ZGOW 160200Z 11002MPS 3500 BR SCT010 FEW026TCU BKN040 23/20 Q1015 NOSIG
ZGOW,2011-05-16 03:00,ZGOW 160300Z 10002MPS 3500 BR SCT010 FEW026TCU BKN040 23/20 Q1014 NOSIG
ZGOW,2011-05-16 04:00,ZGOW 160400Z 12002MPS 4500 BR SCT008 FEW026TCU BKN040 24/20 Q1014 NOSIG
ZGOW,2011-05-16 05:00,ZGOW 160500Z 13002MPS 3500 BR SCT007 FEW028CB BKN040 24/21 Q1013 NOSIG
ZGOW,2011-05-16 06:00,ZGOW 160600Z 10001MPS 4000 BR SCT008 FEW028CB BKN040 24/20 Q1012 NOSIG
ZGOW,2011-05-16 07:00,ZGOW 160700Z 10002MPS 3500 BR SCT007 SCT028CB BKN040 23/21 Q1012 TEMPO 1500 TSRA
ZGOW,2011-05-16 08:00,ZGOW 160800Z 08001MPS 1600 SHRA SCT005 SCT028CB BKN040 23/21 Q1011 TEMPO 1400 TSRA
ZGOW,2011-05-16 09:00,ZGOW 160900Z 08002MPS 1600 TSRA SCT005 SCT028CB BKN040 22/21 Q1012 NOSIG
ZGOW,2011-05-16 10:00,ZGOW 161000Z 11002MPS 1400 R04/1400VP2000U +TSRA SCT005 SCT028CB OVC040 22/21 Q1012 BECMG FM1130 1600 SHRA
ZGOW,2011-05-16 11:00,ZGOW 161100Z 05003MPS 2500 TSRA SCT005 SCT028CB OVC040 22/20 Q1013 BECMG FM1130 SHRA
ZGOW,2011-05-16 12:00,ZGOW 161200Z 06003MPS 5000 SHRA SCT004 SCT028CB BKN040 22/20 Q1013 TEMPO -SHRA
ZGOW,2011-05-16 13:00,ZGOW 161300Z 07003MPS 6000 -SHRA SCT006 FEW028CB BKN040 22/20 Q1013 NOSIG
ZGOW,2011-05-16 14:00,ZGOW 161400Z 08004MPS 6000 -SHRA SCT007 FEW028CB BKN040 22/20 Q1014 NOSIG
ZGOW,2011-05-16 15:00,ZGOW 161500Z 08004MPS 3000 BR SCT008 FEW028TCU BKN040 22/20 Q1014 NOSIG
ZGOW,2011-05-16 16:00,ZGOW 161600Z 08005MPS 2500 -SHRA BR SCT004 FEW028TCU BKN040 21/19 Q1013 NOSIG
ZGOW,2011-05-16 17:00,ZGOW 161700Z AUTO 07005MPS 2700 // ////// 21/19 Q1013
ZGOW,2011-05-16 18:00,ZGOW 161800Z AUTO 07006MPS 2500 // ////// 21/19 Q1012
ZGOW,2011-05-16 19:00,ZGOW 161900Z AUTO 08004MPS 3200 // ////// 20/19 Q1012
ZGOW,2011-05-16 20:00,ZGOW 162000Z AUTO 06005MPS 3400 // ////// 20/18 Q1012
ZGOW,2011-05-16 21:00,ZGOW 162100Z 08006MPS 5000 -SHRA BR SCT010 FEW028TCU BKN040 20/18 Q1012 NOSIG
ZGOW,2011-05-16 22:00,ZGOW 162200Z 08005MPS 4000 -SHRA BR SCT010 FEW028TCU BKN040 20/18 Q1012 NOSIG
ZGOW,2011-05-16 23:00,ZGOW 162300Z 07004MPS 6000 -SHRA SCT009 FEW028TCU BKN040 20/18 Q1013 NOSIG
ZGOW,2011-05-17 00:00,ZGOW 170000Z 08003MPS 9999 SCT009 FEW028TCU BKN040 20/18 Q1013 NOSIG
ZGOW,2011-05-17 01:00,ZGOW 170100Z 08003MPS 9999 SCT009 FEW030TCU BKN040 21/18 Q1013 NOSIG
ZGOW,2011-05-17 02:00,ZGOW 170200Z 08003MPS 8000 SCT009 FEW030TCU BKN040 22/18 Q1014 NOSIG
ZGOW,2011-05-17 03:00,ZGOW 170300Z 08002MPS 8000 SCT009 FEW030TCU BKN040 23/19 Q1013 NOSIG
ZGOW,2011-05-17 04:00,ZGOW 170400Z 09003MPS 9999 SCT017 BKN040 24/19 Q1013 NOSIG
ZGOW,2011-05-17 05:00,ZGOW 170500Z 10003MPS 9999 BKN040 25/18 Q1012 NOSIG
ZGOW,2011-05-17 06:00,ZGOW 170600Z 10004MPS CAVOK 25/17 Q1012 NOSIG
ZGOW,2011-05-17 07:00,ZGOW 170700Z 13003MPS CAVOK 26/19 Q1011 NOSIG
ZGOW,2011-05-17 08:00,ZGOW 170800Z 12004MPS CAVOK 26/18 Q1011 NOSIG
ZGOW,2011-05-17 09:00,ZGOW 170900Z 11004MPS CAVOK 25/15 Q1010 NOSIG
ZGOW,2011-05-17 10:00,ZGOW 171000Z 12003MPS CAVOK 24/16 Q1011 NOSIG
ZGOW,2011-05-17 11:00,ZGOW 171100Z 13002MPS 7000 NSC 22/16 Q1011 NOSIG
ZGOW,2011-05-17 12:00,ZGOW 171200Z 12002MPS 7000 NSC 22/16 Q1011 NOSIG
ZGOW,2011-05-17 13:00,ZGOW 171300Z 09002MPS 7000 NSC 21/16 Q1012 NOSIG
ZGOW,2011-05-17 14:00,ZGOW 171400Z 11002MPS 7000 NSC 21/16 Q1012 NOSIG
ZGOW,2011-05-17 15:00,ZGOW 171500Z 00000MPS 7000 NSC 21/16 Q1012 NOSIG
ZGOW,2011-05-17 16:00,ZGOW 171600Z 00000MPS 6000 SKC 20/17 Q1012 NOSIG
ZGOW,2011-05-17 17:00,ZGOW 171700Z 07001MPS 6000 SKC 20/17 Q1012 NOSIG
ZGOW,2011-05-17 21:00,ZGOW 172100Z 00000MPS 4000 BR NSC 19/16 Q1012 NOSIG
ZGOW,2011-05-17 23:00,ZGOW 172300Z 31001MPS 4000 BR NSC 20/16 Q1012 NOSIG
ZGOW,2011-05-18 00:00,ZGOW 180000Z 34002MPS 6000 NSC 22/14 Q1012 NOSIG
ZGOW,2011-05-18 01:00,ZGOW 180100Z 36001MPS 8000 NSC 24/12 Q1012 NOSIG
ZGOW,2011-05-18 02:00,ZGOW 180200Z 01001MPS CAVOK 25/14 Q1012 NOSIG
ZGOW,2011-05-18 03:00,ZGOW 180300Z 06003MPS CAVOK 27/16 Q1011 NOSIG
ZGOW,2011-05-18 04:00,ZGOW 180400Z 07004MPS CAVOK 27/15 Q1011 NOSIG
ZGOW,2011-05-18 05:00,ZGOW 180500Z 12004MPS CAVOK 27/17 Q1011 NOSIG
ZGOW,2011-05-18 06:00,ZGOW 180600Z 13005MPS CAVOK 27/19 Q1010 NOSIG
ZGOW,2011-05-18 07:00,ZGOW 180700Z 13006MPS CAVOK 26/19 Q1010 NOSIG
ZGOW,2011-05-18 08:00,ZGOW 180800Z 13005MPS CAVOK 25/19 Q1009 NOSIG
ZGOW,2011-05-18 09:00,ZGOW 180900Z 13005MPS CAVOK 25/19 Q1009 NOSIG
ZGOW,2011-05-18 10:00,ZGOW 181000Z 13004MPS CAVOK 24/19 Q1009 NOSIG
ZGOW,2011-05-18 11:00,ZGOW 181100Z 12003MPS 6000 NSC 23/19 Q1010 NOSIG
ZGOW,2011-05-18 12:00,ZGOW 181200Z 11001MPS 6000 NSC 22/19 Q1011 NOSIG
ZGOW,2011-05-18 13:00,ZGOW 181300Z 08002MPS 6000 NSC 22/19 Q1012 NOSIG
ZGOW,2011-05-18 14:00,ZGOW 181400Z 09002MPS 5000 BR NSC 22/19 Q1012 NOSIG
ZGOW,2011-05-18 15:00,ZGOW 181500Z 07003MPS 4000 BR FEW050 22/19 Q1013 NOSIG
ZGOW,2011-05-18 16:00,ZGOW 181600Z 04002MPS 4000 BR NSC 21/19 Q1012 NOSIG
ZGOW,2011-05-18 17:00,ZGOW 181700Z 10001MPS 3500 BR SCT010 22/20 Q1012 NOSIG
ZGOW,2011-05-18 18:00,ZGOW 181800Z AUTO 06002MPS 2600 // ////// 21/19 Q1012
ZGOW,2011-05-18 21:00,ZGOW 182100Z 02002MPS 3000 BR FEW014 21/19 Q1011 NOSIG
ZGOW,2011-05-18 22:00,ZGOW 182200Z 02003MPS 3000 BR FEW014 21/19 Q1011 NOSIG
ZGOW,2011-05-18 23:00,ZGOW 182300Z 03003MPS 3500 BR NSC 22/19 Q1012 NOSIG
ZGOW,2011-05-19 00:00,ZGOW 190000Z 04002MPS 4000 BR NSC 23/19 Q1012 NOSIG
ZGOW,2011-05-19 01:00,ZGOW 190100Z 03003MPS 7000 NSC 25/18 Q1012 NOSIG
ZGOW,2011-05-19 02:00,ZGOW 190200Z 09004MPS CAVOK 26/19 Q1013 NOSIG
ZGOW,2011-05-19 03:00,ZGOW 190300Z 06006MPS CAVOK 27/19 Q1012 NOSIG
ZGOW,2011-05-19 04:00,ZGOW 190400Z 08005MPS 9999 FEW033 28/18 Q1012 NOSIG
ZGOW,2011-05-19 05:00,ZGOW 190500Z 09003MPS 9999 SCT033 28/19 Q1012 NOSIG
ZGOW,2011-05-19 06:00,ZGOW 190600Z 12003MPS 9999 FEW030TCU SCT030 27/19 Q1011 NOSIG
ZGOW,2011-05-19 07:00,ZGOW 190700Z 13003MPS 9999 FEW030CB SCT030 28/20 Q1010 NOSIG
ZGOW,2011-05-19 08:00,ZGOW 190800Z 12004MPS 9999 FEW030CB SCT030 26/20 Q1010 NOSIG
ZGOW,2011-05-19 09:00,ZGOW 190900Z 12004MPS 9999 FEW030TCU SCT030 25/20 Q1009 NOSIG
ZGOW,2011-05-19 10:00,ZGOW 191000Z 12003MPS 9999 FEW030TCU SCT030 BKN050 25/20 Q1010 NOSIG
ZGOW,2011-05-19 11:00,ZGOW 191100Z 13002MPS 9999 FEW030TCU SCT030 BKN050 24/20 Q1010 NOSIG
ZGOW,2011-05-19 12:00,ZGOW 191200Z 12002MPS 8000 FEW030TCU SCT030 24/20 Q1010 NOSIG
ZGOW,2011-05-19 13:00,ZGOW 191300Z 09001MPS 8000 SCT030 24/21 Q1010 NOSIG
ZGOW,2011-05-19 14:00,ZGOW 191400Z 08001MPS 7000 SCT020 SCT050 24/21 Q1011 NOSIG
ZGOW,2011-05-19 15:00,ZGOW 191500Z 08001MPS 8000 SCT020 SCT050 24/21 Q1011 NOSIG
ZGOW,2011-05-19 16:00,ZGOW 191600Z 09002MPS 8000 SCT020 SCT050 24/21 Q1011 NOSIG
ZGOW,2011-05-19 17:00,ZGOW 191700Z AUTO 06002MPS 3800 // ////// 24/21 Q1010
ZGOW,2011-05-19 18:00,ZGOW 191800Z AUTO 04002MPS 3800 // ////// 24/21 Q1010
ZGOW,2011-05-19 19:00,ZGOW 191900Z AUTO 04002MPS 3700 // ////// 23/21 Q1010
ZGOW,2011-05-19 20:00,ZGOW 192000Z AUTO 05001MPS 3500 // ////// 23/21 Q1009
ZGOW,2011-05-19 21:00,ZGOW 192100Z 05001MPS 2000 BR SCT009 BKN033 23/21 Q1009 NOSIG
ZGOW,2011-05-19 22:00,ZGOW 192200Z 03002MPS 2000 BR SCT009 BKN033 23/21 Q1010 BECMG 3000 BR
ZGOW,2011-05-19 23:00,ZGOW 192300Z 04002MPS 3500 BR SCT018 SCT040 24/21 Q1010 NOSIG
ZGOW,2011-05-20 00:00,ZGOW 200000Z 06003MPS 7000 SCT018 FEW026TCU SCT040 25/22 Q1010 NOSIG
ZGOW,2011-05-20 01:00,ZGOW 200100Z 07003MPS 5000 BR SCT012 FEW026TCU BKN040 25/21 Q1010 NOSIG
ZGOW,2011-05-20 02:00,ZGOW 200200Z 06002MPS 7000 SCT020 SCT040 27/22 Q1010 NOSIG
ZGOW,2011-05-20 03:00,ZGOW 200300Z 11003MPS 9999 SCT020 SCT040 28/22 Q1010 NOSIG
ZGOW,2011-05-20 04:00,ZGOW 200400Z 12004MPS CAVOK 29/23 Q1010 NOSIG
ZGOW,2011-05-20 05:00,ZGOW 200500Z 13005MPS 9999 FEW020 28/22 Q1009 NOSIG
ZGOW,2011-05-20 06:00,ZGOW 200600Z 12006MPS CAVOK 28/22 Q1008 NOSIG
ZGOW,2011-05-20 07:00,ZGOW 200700Z 12006MPS CAVOK 27/23 Q1008 NOSIG
ZGOW,2011-05-20 08:00,ZGOW 200800Z 12006MPS 7000 FEW014 26/22 Q1008 NOSIG
ZGOW,2011-05-20 09:00,ZGOW 200900Z 14005MPS 5000 BR FEW012 25/22 Q1008 NOSIG
ZGOW,2011-05-20 10:00,ZGOW 201000Z 13003MPS 3500 BR FEW009 25/22 Q1008 NOSIG
ZGOW,2011-05-20 11:00,ZGOW 201100Z 13003MPS 3500 BR SCT007 BKN050 25/22 Q1008 NOSIG
ZGOW,2011-05-20 12:00,ZGOW 201200Z 08003MPS 3500 BR SCT007 BKN050 25/22 Q1009 NOSIG
ZGOW,2011-05-20 13:00,ZGOW 201300Z 06002MPS 5000 BR FEW007 BKN050 25/23 Q1009 NOSIG
ZGOW,2011-05-20 14:00,ZGOW 201400Z 09001MPS 5000 BR FEW007 BKN050 25/22 Q1009 NOSIG
ZGOW,2011-05-20 15:00,ZGOW 201500Z 12002MPS 5000 BR FEW007 BKN050 25/23 Q1009 NOSIG
ZGOW,2011-05-20 16:00,ZGOW 201600Z 09001MPS 5000 BR FEW007 BKN050 25/23 Q1009 NOSIG
ZGOW,2011-05-20 17:00,ZGOW 201700Z 08001MPS 4000 BR SCT007 BKN050 24/23 Q1009 NOSIG
ZGOW,2011-05-20 18:00,ZGOW 201800Z 09001MPS 4000 BR SKC 24/22 Q1008 NOSIG
ZGOW,2011-05-20 19:00,ZGOW 201900Z 00000MPS 4000 BR FEW007 BKN050 24/22 Q1008 NOSIG
ZGOW,2011-05-20 20:00,ZGOW 202000Z 06001MPS 4000 BR FEW007 BKN050 24/22 Q1008 NOSIG
ZGOW,2011-05-20 21:00,ZGOW 202100Z 03001MPS 4000 BR BKN050 23/22 Q1008 NOSIG
ZGOW,2011-05-20 23:00,ZGOW 202300Z 07001MPS 2500 BR SCT009 25/23 Q1008 BECMG TL2330 3000 BR
ZGOW,2011-05-21 00:00,ZGOW 210000Z 01002MPS 5000 BR SCT014 27/22 Q1009 NOSIG
ZGOW,2011-05-21 01:00,ZGOW 210100Z 05001MPS 9999 SCT020 28/21 Q1008 NOSIG
ZGOW,2011-05-21 02:00,ZGOW 210200Z 10004MPS 9999 SCT022 28/22 Q1008 NOSIG
ZGOW,2011-05-21 03:00,ZGOW 210300Z 12004MPS 9999 SCT012 28/22 Q1008 NOSIG
ZGOW,2011-05-21 04:00,ZGOW 210400Z 12004MPS 9999 SCT014 28/22 Q1008 NOSIG
ZGOW,2011-05-21 05:00,ZGOW 210500Z 14005MPS 9999 FEW014 29/22 Q1008 NOSIG
ZGOW,2011-05-21 06:00,ZGOW 210600Z 13005MPS 9999 FEW026TCU 29/22 Q1007 NOSIG
ZGOW,2011-05-21 07:00,ZGOW 210700Z 13005MPS 9999 FEW026TCU 29/22 Q1006 NOSIG
ZGOW,2011-05-21 08:00,ZGOW 210800Z 12005MPS 9999 FEW016 28/22 Q1006 NOSIG
ZGOW,2011-05-21 09:00,ZGOW 210900Z 12005MPS 9999 FEW016 27/22 Q1006 NOSIG
ZGOW,2011-05-21 10:00,ZGOW 211000Z 13004MPS 9999 FEW016 26/22 Q1006 NOSIG
ZGOW,2011-05-21 11:00,ZGOW 211100Z 14003MPS 9999 SCT010 25/22 Q1007 NOSIG
ZGOW,2011-05-21 12:00,ZGOW 211200Z 13002MPS 9999 SCT009 FEW026TCU 25/22 Q1008 NOSIG
ZGOW,2011-05-21 13:00,ZGOW 211300Z 10002MPS 9999 SCT014 25/22 Q1008 NOSIG
ZGOW,2011-05-21 14:00,ZGOW 211400Z 07001MPS 9999 SCT012 25/22 Q1008 NOSIG
ZGOW,2011-05-21 15:00,ZGOW 211500Z 12001MPS 9999 FEW012 25/22 Q1008 NOSIG
ZGOW,2011-05-21 16:00,ZGOW 211600Z 10001MPS 9999 FEW012 24/22 Q1008 NOSIG
ZGOW,2011-05-21 17:00,ZGOW 211700Z 00000MPS 7000 SCT012 24/22 Q1007 NOSIG
ZGOW,2011-05-21 18:00,ZGOW 211800Z 00000MPS 7000 SCT036 24/22 Q1007 NOSIG
ZGOW,2011-05-21 19:00,ZGOW 211900Z 10002MPS 7000 NSC 24/22 Q1007 NOSIG
ZGOW,2011-05-21 20:00,ZGOW 212000Z 09001MPS 7000 FEW008 SCT033 24/22 Q1007 NOSIG
ZGOW,2011-05-21 21:00,ZGOW 212100Z 07002MPS 7000 FEW009 FEW024TCU BKN050 24/22 Q1007 NOSIG
ZGOW,2011-05-21 22:00,ZGOW 212200Z 07004MPS 9999 SCT008 24/22 Q1007 NOSIG
ZGOW,2011-05-21 23:00,ZGOW 212300Z 06005MPS 9999 BKN030 25/22 Q1008 NOSIG
ZGOW,2011-05-22 00:00,ZGOW 220000Z 08003MPS 9999 SCT018 FEW030TCU BKN040 25/22 Q1008 NOSIG
ZGOW,2011-05-22 01:00,ZGOW 220100Z 08003MPS 9999 -SHRA SCT020 FEW030TCU BKN040 25/22 Q1008 TEMPO 2100 SHRA SCT011 SCT026CB BKN030
ZGOW,2011-05-22 02:00,ZGOW 220200Z 10003MPS 8000 -SHRA SCT010 FEW030CB BKN040 25/23 Q1009 TEMPO 2100 SHRA SCT011 SCT026CB BKN030
ZGOW,2011-05-22 03:00,ZGOW 220300Z 10003MPS 2800 SHRA SCT012 SCT030CB BKN040 24/22 Q1009 NOSIG
ZGOW,2011-05-22 04:00,ZGOW 220400Z 11004MPS 3500 SHRA SCT006 SCT030CB BKN040 24/22 Q1008 NOSIG
ZGOW,2011-05-22 05:00,ZGOW 220500Z 11003MPS 2500 -SHRA SCT006 SCT030CB BKN036 25/23 Q1008 RESHRA NOSIG
ZGOW,2011-05-22 06:00,ZGOW 220600Z 11004MPS 5000 -SHRA SCT005 FEW030CB BKN036 25/23 Q1007 NOSIG
ZGOW,2011-05-22 07:00,ZGOW 220700Z 12004MPS 4000 -SHRA SCT006 FEW030CB BKN033 25/23 Q1007 NOSIG
ZGOW,2011-05-22 08:00,ZGOW 220800Z 08002MPS 6000 -SHRA SCT006 SCT030CB BKN040 25/23 Q1007 NOSIG
ZGOW,2011-05-22 09:00,ZGOW 220900Z 05002MPS 7000 -SHRA SCT006 SCT030CB BKN040 25/23 Q1006 NOSIG
ZGOW,2011-05-22 10:00,ZGOW 221000Z 08002MPS 6000 -SHRA SCT015 SCT030CB BKN040 25/23 Q1006 TEMPO 2100 TSRA
ZGOW,2011-05-22 11:00,ZGOW 221100Z 01002MPS 2500 SHRA SCT016 SCT030CB BKN040 24/22 Q1007 TEMPO TSRA
ZGOW,2011-05-22 12:00,ZGOW 221200Z 10002MPS 5000 -TSRA SCT007 SCT030CB BKN040 24/22 Q1007 RESHRA TEMPO FM1240 2100 SHRA
ZGOW,2011-05-22 13:00,ZGOW 221300Z 08001MPS 7000 -SHRA SCT012 FEW030CB BKN040 24/22 Q1007 RETS NOSIG
ZGOW,2011-05-22 14:00,ZGOW 221400Z 11001MPS 7000 -SHRA SCT016 FEW030CB BKN050 24/22 Q1008 NOSIG
ZGOW,2011-05-22 15:00,ZGOW 221500Z 08001MPS 8000 -SHRA FEW004 SCT016 FEW030CB BKN050 24/22 Q1008 NOSIG
ZGOW,2011-05-22 16:00,ZGOW 221600Z 12002MPS 6000 -SHRA SCT003 SCT020 FEW030CB BKN050 24/23 Q1007 NOSIG
ZGOW,2011-05-22 17:00,ZGOW 221700Z 14002MPS 9999 SCT003 FEW030CB BKN040 24/22 Q1007 NOSIG
ZGOW,2011-05-22 18:00,ZGOW 221800Z 14002MPS 9999 SCT005 FEW030CB BKN040 24/22 Q1006 NOSIG
ZGOW,2011-05-22 19:00,ZGOW 221900Z AUTO 12002MPS 8000 ////// 24/22 Q1005
ZGOW,2011-05-22 20:00,ZGOW 222000Z AUTO 12002MPS 3700 // ////// 24/22 Q1005
ZGOW,2011-05-22 21:00,ZGOW 222100Z 09001MPS 6000 SCT005 FEW033TCU BKN050 24/23 Q1005 NOSIG
ZGOW,2011-05-22 22:00,ZGOW 222200Z 11001MPS 4000 BR SCT005 FEW033CB BKN050 24/23 Q1006 NOSIG
ZGOW,2011-05-22 23:00,ZGOW 222300Z 00000MPS 2500 SHRA SCT003 SCT030CB BKN040 24/23 Q1006 NOSIG
ZGOW,2011-05-23 00:00,ZGOW 230000Z 06001MPS 3500 -SHRA SCT002 SCT030CB BKN040 25/23 Q1007 RESHRA NOSIG
ZGOW,2011-05-23 01:00,ZGOW 230100Z 22001MPS 2800 -SHRA SCT004 SCT030CB BKN040 25/23 Q1007 NOSIG
ZGOW,2011-05-23 02:00,ZGOW 230200Z 25002MPS 2800 -SHRA SCT004 SCT030CB BKN040 25/23 Q1008 NOSIG
ZGOW,2011-05-23 03:00,ZGOW 230300Z 24002MPS 6000 -SHRA SCT007 SCT030CB OVC040 25/23 Q1008 NOSIG
ZGOW,2011-05-23 04:00,ZGOW 230400Z 24002MPS 7000 SCT007 SCT030CB OVC040 26/23 Q1008 NOSIG
ZGOW,2011-05-23 05:00,ZGOW 230500Z 24003MPS 6000 SCT012 FEW030CB OVC040 25/22 Q1007 NOSIG
ZGOW,2011-05-23 06:00,ZGOW 230600Z 30002MPS 5000 BR SCT012 FEW030CB OVC040 24/22 Q1007 NOSIG
ZGOW,2011-05-23 07:00,ZGOW 230700Z 32003MPS 7000 SCT012 FEW030CB OVC040 25/21 Q1007 NOSIG
ZGOW,2011-05-23 08:00,ZGOW 230800Z 34002MPS 8000 SCT012 FEW030CB OVC040 25/21 Q1007 NOSIG
ZGOW,2011-05-23 09:00,ZGOW 230900Z 33003MPS 9999 SCT012 FEW030CB OVC040 24/19 Q1007 NOSIG
ZGOW,2011-05-23 10:00,ZGOW 231000Z 32003MPS 9999 SCT012 FEW030CB OVC040 24/19 Q1007 NOSIG
ZGOW,2011-05-23 11:00,ZGOW 231100Z 32003MPS 9999 SCT012 OVC040 23/18 Q1008 NOSIG
ZGOW,2011-05-23 12:00,ZGOW 231200Z 32003MPS 9999 SCT012 OVC040 23/18 Q1008 NOSIG
ZGOW,2011-05-23 13:00,ZGOW 231300Z 32003MPS 9999 OVC030 23/18 Q1009 NOSIG
ZGOW,2011-05-23 14:00,ZGOW 231400Z 32004MPS 9999 OVC030 22/17 Q1009 NOSIG
ZGOW,2011-05-23 15:00,ZGOW 231500Z 32004MPS 9999 OVC030 22/17 Q1010 NOSIG
ZGOW,2011-05-23 16:00,ZGOW 231600Z 34002MPS 9999 OVC030 22/17 Q1009 NOSIG
ZGOW,2011-05-23 17:00,ZGOW 231700Z 34003MPS 9999 OVC040 22/16 Q1009 NOSIG
ZGOW,2011-05-23 18:00,ZGOW 231800Z AUTO 32003MPS 7000 ////// 21/16 Q1009
ZGOW,2011-05-23 19:00,ZGOW 231900Z AUTO 33003MPS 8000 ////// 21/16 Q1009
ZGOW,2011-05-23 20:00,ZGOW 232000Z AUTO 32002MPS 8000 ////// 21/16 Q1009
ZGOW,2011-05-23 21:00,ZGOW 232100Z 35002MPS 9999 OVC040 21/16 Q1009 NOSIG
ZGOW,2011-05-23 22:00,ZGOW 232200Z 33003MPS 7000 FEW030TCU OVC040 20/16 Q1010 NOSIG
ZGOW,2011-05-23 23:00,ZGOW 232300Z 36002MPS 5000 BR FEW016 FEW030TCU OVC040 19/17 Q1010 TEMPO 2500 -SHRA SCT012 FEW030CB OVC040
ZGOW,2011-05-24 00:00,ZGOW 240000Z 36001MPS 3000 -SHRA FEW014 FEW030TCU OVC040 20/17 Q1011 NOSIG
ZGOW,2011-05-24 01:00,ZGOW 240100Z 32001MPS 4000 -SHRA BR SCT014 FEW030TCU OVC040 20/17 Q1011 NOSIG
ZGOW,2011-05-24 02:00,ZGOW 240200Z 32002MPS 2000 -SHRA BR SCT010 FEW028TCU OVC040 20/18 Q1012 TEMPO 2000 SHRA SCT006 FEW030CB BKN033
ZGOW,2011-05-24 03:00,ZGOW 240300Z 34003MPS 2500 -SHRA BR SCT010 FEW028TCU OVC040 20/18 Q1011 NOSIG
ZGOW,2011-05-24 04:00,ZGOW 240400Z 32001MPS 3500 BR SCT009 FEW028TCU BKN040 20/18 Q1011 TEMPO 2100 SHRA SCT006 FEW030CB BKN033
ZGOW,2011-05-24 05:00,ZGOW 240500Z 32001MPS 3500 BR SCT010 FEW028TCU BKN040 21/18 Q1011 NOSIG
ZGOW,2011-05-24 06:00,ZGOW 240600Z 03002MPS 3500 BR SCT012 FEW028TCU BKN040 22/19 Q1010 NOSIG
ZGOW,2011-05-24 07:00,ZGOW 240700Z 34003MPS 3500 BR SCT012 FEW028TCU BKN040 21/18 Q1010 NOSIG
ZGOW,2011-05-24 08:00,ZGOW 240800Z 32003MPS 3000 -SHRA BR SCT005 FEW028TCU BKN040 20/18 Q1010 NOSIG
ZGOW,2011-05-24 09:00,ZGOW 240900Z 32003MPS 2500 -SHRA BR SCT005 FEW028TCU BKN040 20/18 Q1010 NOSIG
ZGOW,2011-05-24 10:00,ZGOW 241000Z 32003MPS 2500 BR SCT005 FEW028TCU BKN040 20/18 Q1010 NOSIG
ZGOW,2011-05-24 11:00,ZGOW 241100Z 34003MPS 3300 -SHRA BR SCT009 FEW028TCU BKN040 19/18 Q1011 NOSIG
ZGOW,2011-05-24 12:00,ZGOW 241200Z 34002MPS 4000 BR SCT010 FEW028TCU BKN040 19/18 Q1011 NOSIG
ZGOW,2011-05-24 13:00,ZGOW 241300Z 02001MPS 3500 BR SCT004 BKN033 20/18 Q1012 NOSIG
ZGOW,2011-05-24 14:00,ZGOW 241400Z 02003MPS 8000 SCT014 BKN033 20/18 Q1012 NOSIG
ZGOW,2011-05-24 15:00,ZGOW 241500Z 01003MPS 8000 SCT014 BKN033 20/18 Q1012 NOSIG
ZGOW,2011-05-24 16:00,ZGOW 241600Z 36003MPS 4000 BR SCT012 BKN033 20/18 Q1011 NOSIG
ZGOW,2011-05-24 17:00,ZGOW 241700Z 31001MPS 3500 BR SCT012 BKN033 20/18 Q1011 NOSIG
ZGOW,2011-05-24 18:00,ZGOW 241800Z AUTO 31002MPS 3500 // ////// 20/18 Q1011
ZGOW,2011-05-24 19:00,ZGOW 241900Z AUTO 33002MPS 6000 ////// 20/18 Q1011
ZGOW,2011-05-24 20:00,ZGOW 242000Z AUTO 35002MPS 8000 ////// 20/17 Q1011
ZGOW,2011-05-24 21:00,ZGOW 242100Z 35003MPS 8000 SCT018 BKN040 20/17 Q1011 NOSIG
ZGOW,2011-05-24 22:00,ZGOW 242200Z 35001MPS 9999 SCT018 BKN040 20/17 Q1011 NOSIG
ZGOW,2011-05-24 23:00,ZGOW 242300Z 35001MPS 9999 SCT018 FEW028TCU BKN040 20/17 Q1011 NOSIG
ZGOW,2011-05-25 00:00,ZGOW 250000Z 35001MPS 9999 SCT012 BKN040 21/18 Q1012 NOSIG
ZGOW,2011-05-25 01:00,ZGOW 250100Z 34002MPS 9999 SCT012 FEW025TCU BKN050 22/18 Q1012 NOSIG
ZGOW,2011-05-25 02:00,ZGOW 250200Z 02001MPS 9999 SCT014 FEW030CB BKN050 23/18 Q1012 NOSIG
ZGOW,2011-05-25 03:00,ZGOW 250300Z 09004MPS 9999 SCT016 FEW026TCU 24/19 Q1011 NOSIG
ZGOW,2011-05-25 04:00,ZGOW 250400Z 07003MPS 9999 SCT020 FEW026TCU 25/20 Q1011 NOSIG
ZGOW,2011-05-25 05:00,ZGOW 250500Z 08005MPS 9999 SCT020 26/19 Q1010 NOSIG
ZGOW,2011-05-25 06:00,ZGOW 250600Z 08003MPS 9999 SCT020 26/19 Q1009 NOSIG
ZGOW,2011-05-25 07:00,ZGOW 250700Z 09003MPS 9999 FEW020 FEW026TCU 26/20 Q1009 NOSIG
ZGOW,2011-05-25 08:00,ZGOW 250800Z 07003MPS 9999 FEW020 26/20 Q1008 NOSIG
ZGOW,2011-05-25 09:00,ZGOW 250900Z 06002MPS 9999 BKN050 25/19 Q1008 NOSIG
ZGOW,2011-05-25 10:00,ZGOW 251000Z 09002MPS 9999 FEW030TCU BKN030 25/19 Q1009 NOSIG
ZGOW,2011-05-25 11:00,ZGOW 251100Z 13003MPS 7000 FEW030TCU BKN030 24/20 Q1009 NOSIG
ZGOW,2011-05-25 12:00,ZGOW 251200Z 06001MPS 7000 SCT014 FEW030TCU BKN040 23/20 Q1010 NOSIG
ZGOW,2011-05-25 13:00,ZGOW 251300Z 07003MPS 7000 SCT020 BKN040 23/20 Q1011 NOSIG
ZGOW,2011-05-25 14:00,ZGOW 251400Z 08004MPS 7000 SCT016 FEW030CB BKN040 23/19 Q1011 NOSIG
ZGOW,2011-05-25 15:00,ZGOW 251500Z 08003MPS 9999 FEW016 FEW026TCU BKN050 23/19 Q1011 NOSIG
ZGOW,2011-05-25 16:00,ZGOW 251600Z 04003MPS 9999 FEW016 FEW026TCU BKN040 23/19 Q1011 NOSIG
ZGOW,2011-05-25 17:00,ZGOW 251700Z AUTO 33002MPS 2800 // ////// 23/20 Q1010
ZGOW,2011-05-25 18:00,ZGOW 251800Z AUTO 34003MPS 3900 // ////// 22/19 Q1010
ZGOW,2011-05-25 19:00,ZGOW 251900Z AUTO 33002MPS 4300 // ////// 22/18 Q1009
ZGOW,2011-05-25 20:00,ZGOW 252000Z AUTO 33003MPS 4700 // ////// 22/18 Q1009
ZGOW,2011-05-25 21:00,ZGOW 252100Z 32003MPS 9999 SCT024 22/18 Q1009 NOSIG
ZGOW,2011-05-25 22:00,ZGOW 252200Z 33003MPS 9999 SCT040 22/18 Q1010 NOSIG
ZGOW,2011-05-25 23:00,ZGOW 252300Z 32002MPS 9999 BKN050 22/18 Q1011 NOSIG
ZGOW,2011-05-26 00:00,ZGOW 260000Z 34004MPS 9999 BKN050 23/18 Q1010 NOSIG
ZGOW,2011-05-26 01:00,ZGOW 260100Z 31004MPS 9999 SCT043 25/18 Q1011 NOSIG
ZGOW,2011-05-26 02:00,ZGOW 260200Z 32003MPS 9999 BKN043 25/19 Q1011 NOSIG
ZGOW,2011-05-26 03:00,ZGOW 260300Z 34002MPS 9999 FEW020 BKN050 26/19 Q1010 NOSIG
ZGOW,2011-05-26 04:00,ZGOW 260400Z 34002MPS CAVOK 28/19 Q1010 NOSIG
ZGOW,2011-05-26 05:00,ZGOW 260500Z 08002MPS 9999 SCT025 SCT050 29/19 Q1009 NOSIG
ZGOW,2011-05-26 06:00,ZGOW 260600Z 11004MPS 9999 FEW025 SCT050 27/20 Q1008 NOSIG
ZGOW,2011-05-26 07:00,ZGOW 260700Z 12004MPS 7000 NSC 27/21 Q1008 NOSIG
ZGOW,2011-05-26 08:00,ZGOW 260800Z 12004MPS 5000 HZ NSC 26/20 Q1007 NOSIG
ZGOW,2011-05-26 09:00,ZGOW 260900Z 12004MPS 6000 SKC 26/20 Q1007 NOSIG
ZGOW,2011-05-26 10:00,ZGOW 261000Z 12004MPS 8000 SKC 25/19 Q1008 NOSIG
ZGOW,2011-05-26 11:00,ZGOW 261100Z 12002MPS CAVOK 24/20 Q1008 NOSIG
ZGOW,2011-05-26 12:00,ZGOW 261200Z 12002MPS 9999 SCT043 24/20 Q1009 NOSIG
ZGOW,2011-05-26 13:00,ZGOW 261300Z 07001MPS 9999 SCT043 24/20 Q1010 NOSIG
ZGOW,2011-05-26 14:00,ZGOW 261400Z 08004MPS 9999 FEW033TCU SCT040 25/18 Q1010 NOSIG
ZGOW,2011-05-26 15:00,ZGOW 261500Z 08004MPS 9999 FEW033TCU BKN033 24/18 Q1010 NOSIG
ZGOW,2011-05-26 16:00,ZGOW 261600Z 07002MPS 9999 BKN033 24/19 Q1010 NOSIG
ZGOW,2011-05-26 17:00,ZGOW 261700Z 04002MPS 9999 BKN040 24/18 Q1009 NOSIG
ZGOW,2011-05-26 18:00,ZGOW 261800Z 04002MPS 9999 BKN040 23/18 Q1008 NOSIG
ZGOW,2011-05-26 19:00,ZGOW 261900Z 34002MPS 9999 BKN040 24/19 Q1008 NOSIG
ZGOW,2011-05-26 20:00,ZGOW 262000Z AUTO 34001MPS 4500 // ////// 24/19 Q1008
ZGOW,2011-05-26 21:00,ZGOW 262100Z 01001MPS 6000 BKN040 23/19 Q1008 NOSIG
ZGOW,2011-05-26 22:00,ZGOW 262200Z 00000MPS 5000 BR BKN040 23/20 Q1008 NOSIG
ZGOW,2011-05-26 23:00,ZGOW 262300Z 32002MPS 5000 BR SCT040 24/20 Q1008 NOSIG
ZGOW,2011-05-27 00:00,ZGOW 270000Z 34003MPS 6000 SKC 26/20 Q1008 NOSIG
ZGOW,2011-05-27 01:00,ZGOW 270100Z 36002MPS CAVOK 27/20 Q1008 NOSIG
ZGOW,2011-05-27 02:00,ZGOW 270200Z 03002MPS 9999 FEW014 29/20 Q1008 NOSIG
ZGOW,2011-05-27 03:00,ZGOW 270300Z 12003MPS 9999 FEW014 30/21 Q1008 NOSIG
ZGOW,2011-05-27 04:00,ZGOW 270400Z 12005MPS 9999 FEW014 29/19 Q1007 NOSIG
ZGOW,2011-05-27 05:00,ZGOW 270500Z 12005MPS 9999 FEW014 29/21 Q1007 NOSIG
ZGOW,2011-05-27 06:00,ZGOW 270600Z 12005MPS 9999 FEW014 29/21 Q1006 NOSIG
ZGOW,2011-05-27 07:00,ZGOW 270700Z 12005MPS 9999 FEW014 29/21 Q1006 NOSIG
ZGOW,2011-05-27 08:00,ZGOW 270800Z 12004MPS 9999 FEW014 28/20 Q1005 NOSIG
ZGOW,2011-05-27 09:00,ZGOW 270900Z 12004MPS 9999 FEW014 28/20 Q1005 NOSIG
ZGOW,2011-05-27 10:00,ZGOW 271000Z 08005MPS 9999 FEW014 27/20 Q1005 NOSIG
ZGOW,2011-05-27 11:00,ZGOW 271100Z 08002MPS 7000 FEW014 BKN050 26/20 Q1006 NOSIG
ZGOW,2011-05-27 12:00,ZGOW 271200Z 08003MPS 7000 FEW014 BKN050 25/20 Q1006 NOSIG
ZGOW,2011-05-27 13:00,ZGOW 271300Z 08003MPS 7000 FEW014 BKN050 25/20 Q1006 NOSIG
ZGOW,2011-05-27 14:00,ZGOW 271400Z 08005MPS 5000 HZ FEW014 24/19 Q1007 NOSIG
ZGOW,2011-05-27 15:00,ZGOW 271500Z 08003MPS 4000 BR FEW014 BKN050 24/19 Q1006 NOSIG
ZGOW,2011-05-27 16:00,ZGOW 271600Z 08002MPS 4000 BR FEW014 24/20 Q1006 NOSIG
ZGOW,2011-05-27 17:00,ZGOW 271700Z 03001MPS 4000 BR FEW014 BKN050 24/20 Q1005 NOSIG
ZGOW,2011-05-27 18:00,ZGOW 271800Z 03001MPS 4000 BR FEW014 BKN050 23/20 Q1004 NOSIG
ZGOW,2011-05-27 19:00,ZGOW 271900Z 28001MPS 4000 BR FEW014 BKN050 24/20 Q1004 NOSIG
ZGOW,2011-05-27 20:00,ZGOW 272000Z 28002MPS 2500 BR FEW014 24/20 Q1005 NOSIG
ZGOW,2011-05-27 21:00,ZGOW 272100Z 00000MPS 2500 BR FEW014 23/20 Q1005 NOSIG
ZGOW,2011-05-27 22:00,ZGOW 272200Z 24001MPS 2000 R04/1000V1200N BR NSC 23/21 Q1005 NOSIG
ZGOW,2011-05-27 23:00,ZGOW 272300Z 00000MPS 1600 R04/1000V1200N BR NSC 24/21 Q1005 NOSIG
ZGOW,2011-05-28 00:00,ZGOW 280000Z 30001MPS 2800 BR NSC 26/20 Q1006 BECMG 3500 BR
ZGOW,2011-05-28 01:00,ZGOW 280100Z 34002MPS 6000 NSC 27/19 Q1006 NOSIG
ZGOW,2011-05-28 02:00,ZGOW 280200Z 34003MPS 7000 NSC 28/19 Q1006 NOSIG
ZGOW,2011-05-28 03:00,ZGOW 280300Z 29002MPS CAVOK 30/19 Q1006 NOSIG
ZGOW,2011-05-28 04:00,ZGOW 280400Z VRB01MPS CAVOK 32/18 Q1005 NOSIG
ZGOW,2011-05-28 05:00,ZGOW 280500Z 13004MPS 9999 FEW030TCU 32/21 Q1005 NOSIG
ZGOW,2011-05-28 06:00,ZGOW 280600Z 15004MPS 7000 FEW030TCU 31/22 Q1004 NOSIG
ZGOW,2011-05-28 07:00,ZGOW 280700Z 16006MPS 5000 HZ FEW030TCU 30/22 Q1004 NOSIG
ZGOW,2011-05-28 08:00,ZGOW 280800Z 16005MPS 110V190 8000 FEW030TCU 30/21 Q1004 NOSIG
ZGOW,2011-05-28 09:00,ZGOW 280900Z 16004MPS 120V210 8000 FEW040 29/20 Q1004 NOSIG
ZGOW,2011-05-28 10:00,ZGOW 281000Z 17003MPS 8000 SCT026 29/20 Q1005 NOSIG
ZGOW,2011-05-28 11:00,ZGOW 281100Z 12003MPS 6000 FEW026 27/21 Q1006 NOSIG
ZGOW,2011-05-28 12:00,ZGOW 281200Z 11005MPS 5000 BR NSC 26/23 Q1007 NOSIG
ZGOW,2011-05-28 13:00,ZGOW 281300Z 10006MPS 4000 BR FEW020 25/22 Q1008 NOSIG
ZGOW,2011-05-28 14:00,ZGOW 281400Z 09005MPS 4000 BR SCT012 24/21 Q1009 NOSIG
ZGOW,2011-05-28 15:00,ZGOW 281500Z 10003MPS 4000 BR SCT016 SCT040 24/20 Q1010 NOSIG
ZGOW,2011-05-28 16:00,ZGOW 281600Z 08004MPS 5000 BR SCT018 SCT040 24/20 Q1009 NOSIG
ZGOW,2011-05-28 17:00,ZGOW 281700Z 07005MPS 5000 BR SCT020 SCT040 24/20 Q1009 NOSIG
ZGOW,2011-05-28 19:00,ZGOW 281900Z AUTO 07003MPS 3100 // ////// 24/20 Q1010
ZGOW,2011-05-28 20:00,ZGOW 282000Z AUTO 06002MPS 3300 // ////// 24/20 Q1010
ZGOW,2011-05-28 21:00,ZGOW 282100Z 06003MPS 6000 BKN040 24/20 Q1010 NOSIG
ZGOW,2011-05-28 22:00,ZGOW 282200Z 07004MPS 5000 BR BKN040 23/20 Q1011 NOSIG
ZGOW,2011-05-28 23:00,ZGOW 282300Z 08004MPS 5000 BR SCT040 24/20 Q1012 NOSIG
ZGOW,2011-05-29 00:00,ZGOW 290000Z 09004MPS 6000 NSC 25/20 Q1012 NOSIG
ZGOW,2011-05-29 01:00,ZGOW 290100Z 08005MPS 5000 HZ SCT020 FEW026TCU BKN050 25/20 Q1013 NOSIG
ZGOW,2011-05-29 02:00,ZGOW 290200Z 08004MPS 6000 SCT020 FEW026TCU 25/20 Q1013 NOSIG
ZGOW,2011-05-29 03:00,ZGOW 290300Z 10004MPS 6000 SCT022 27/19 Q1013 NOSIG
ZGOW,2011-05-29 04:00,ZGOW 290400Z 13005MPS 7000 SCT020 26/20 Q1013 NOSIG
ZGOW,2011-05-29 05:00,ZGOW 290500Z 12005MPS 7000 SCT020 27/20 Q1013 NOSIG
ZGOW,2011-05-29 06:00,ZGOW 290600Z 12005MPS 7000 FEW020 27/19 Q1012 NOSIG
ZGOW,2011-05-29 07:00,ZGOW 290700Z 11005MPS 7000 FEW020 27/19 Q1012 NOSIG
ZGOW,2011-05-29 08:00,ZGOW 290800Z 12005MPS CAVOK 26/18 Q1011 NOSIG
ZGOW,2011-05-29 09:00,ZGOW 290900Z 11006MPS CAVOK 25/18 Q1012 NOSIG
ZGOW,2011-05-29 10:00,ZGOW 291000Z 11004MPS CAVOK 24/19 Q1012 NOSIG
ZGOW,2011-05-29 11:00,ZGOW 291100Z 11003MPS 7000 NSC 24/19 Q1012 NOSIG
ZGOW,2011-05-29 12:00,ZGOW 291200Z 08003MPS 6000 NSC 23/19 Q1013 NOSIG
ZGOW,2011-05-29 13:00,ZGOW 291300Z 09004MPS 6000 NSC 23/18 Q1013 NOSIG
ZGOW,2011-05-29 14:00,ZGOW 291400Z 09005MPS 6000 FEW020 FEW026TCU 23/18 Q1014 NOSIG
ZGOW,2011-05-29 15:00,ZGOW 291500Z 07006MPS 6000 FEW020 23/18 Q1014 NOSIG
ZGOW,2011-05-29 16:00,ZGOW 291600Z 08006MPS 7000 SCT030 23/17 Q1014 NOSIG
ZGOW,2011-05-29 17:00,ZGOW 291700Z 08005MPS 7000 SCT030 23/17 Q1014 NOSIG
ZGOW,2011-05-29 21:00,ZGOW 292100Z 04002MPS 7000 NSC 20/17 Q1013 NOSIG
ZGOW,2011-05-29 22:00,ZGOW 292200Z 07001MPS 6000 NSC 21/17 Q1013 NOSIG
ZGOW,2011-05-29 23:00,ZGOW 292300Z 04002MPS 5000 HZ NSC 23/17 Q1014 NOSIG
ZGOW,2011-05-30 00:00,ZGOW 300000Z 07003MPS CAVOK 25/16 Q1014 NOSIG
ZGOW,2011-05-30 01:00,ZGOW 300100Z 08004MPS CAVOK 26/15 Q1014 NOSIG
ZGOW,2011-05-30 02:00,ZGOW 300200Z 07005MPS CAVOK 26/14 Q1014 NOSIG
ZGOW,2011-05-30 03:00,ZGOW 300300Z 09005MPS CAVOK 27/13 Q1014 NOSIG
ZGOW,2011-05-30 04:00,ZGOW 300400Z 13004MPS CAVOK 27/14 Q1013 NOSIG
ZGOW,2011-05-30 05:00,ZGOW 300500Z 13005MPS CAVOK 26/16 Q1013 NOSIG
ZGOW,2011-05-30 06:00,ZGOW 300600Z 12006MPS CAVOK 26/16 Q1012 NOSIG
ZGOW,2011-05-30 07:00,ZGOW 300700Z 13005MPS CAVOK 26/17 Q1011 NOSIG
ZGOW,2011-05-30 08:00,ZGOW 300800Z 13004MPS CAVOK 26/17 Q1010 NOSIG
ZGOW,2011-05-30 09:00,ZGOW 300900Z 13004MPS CAVOK 25/17 Q1010 NOSIG
ZGOW,2011-05-30 10:00,ZGOW 301000Z 12003MPS CAVOK 24/17 Q1009 NOSIG
ZGOW,2011-05-30 11:00,ZGOW 301100Z 12002MPS 7000 SKC 24/18 Q1010 NOSIG
ZGOW,2011-05-30 12:00,ZGOW 301200Z 12003MPS 7000 SKC 23/18 Q1010 NOSIG
ZGOW,2011-05-30 13:00,ZGOW 301300Z 13002MPS 7000 SKC 23/19 Q1011 NOSIG
ZGOW,2011-05-30 14:00,ZGOW 301400Z 12001MPS 7000 SKC 22/19 Q1012 NOSIG
ZGOW,2011-05-30 15:00,ZGOW 301500Z 12002MPS 6000 SKC 22/19 Q1011 NOSIG
ZGOW,2011-05-30 16:00,ZGOW 301600Z 00000MPS 0300 R04/0175D FG BKN003 BKN026 22/21 Q1011 NOSIG
ZGOW,2011-05-30 17:00,ZGOW 301700Z AUTO 00000MPS 0050 R04/0100D // ////// 22/22 Q1010
ZGOW,2011-05-30 18:00,ZGOW 301800Z AUTO 00000MPS 0250 R04/0600U // ////// 22/22 Q1010
ZGOW,2011-05-30 19:00,ZGOW 301900Z AUTO 18001MPS 0450 R04/0800V0900N // ////// 23/22 Q1009
ZGOW,2011-05-30 20:00,ZGOW 302000Z AUTO 07001MPS 0100 R04/0200V0250N // ////// 23/22 Q1010
ZGOW,2011-05-30 21:00,ZGOW 302100Z 00000MPS 0100 R04/0150N FG VV/// 23/22 Q1010 NOSIG
ZGOW,2011-05-30 22:00,ZGOW 302200Z 23001MPS 0300 R04/0400N FG VV002 23/22 Q1011 NOSIG
ZGOW,2011-05-30 23:00,ZGOW 302300Z 00000MPS 0400 R04/0450D FG VV002 23/23 Q1012 TEMPO 0600 FG SCT003 BKN015
ZGOW,2011-05-31 00:00,ZGOW 310000Z 33002MPS 4000 HZ NSC 24/18 Q1009 NOSIG
ZGOW,2011-05-31 01:00,ZGOW 310100Z 05001MPS 5000 HZ NSC 26/16 Q1009 NOSIG
ZGOW,2011-05-31 02:00,ZGOW 310200Z 09002MPS 5000 HZ NSC 28/16 Q1009 NOSIG
ZGOW,2011-05-31 03:00,ZGOW 310300Z 11003MPS 7000 NSC 28/17 Q1009 NOSIG
ZGOW,2011-05-31 04:00,ZGOW 310400Z 12004MPS CAVOK 28/16 Q1008 NOSIG
ZGOW,2011-05-31 05:00,ZGOW 310500Z 12003MPS 8000 FEW026TCU 26/19 Q1008 NOSIG
ZGOW,2011-05-31 06:00,ZGOW 310600Z 12004MPS 8000 FEW030CB FEW030 BKN050 27/19 Q1007 NOSIG
ZGOW,2011-05-31 07:00,ZGOW 310700Z 14004MPS 8000 FEW030CB BKN043 25/18 Q1007 NOSIG
ZGOW,2011-05-31 08:00,ZGOW 310800Z 02001MPS 9999 FEW030CB SCT030 24/20 Q1007 RESHRA NOSIG
ZGOW,2011-05-31 09:00,ZGOW 310900Z 11002MPS 9999 FEW024TCU BKN040 26/20 Q1007 NOSIG
ZGOW,2011-05-31 10:00,ZGOW 311000Z 12003MPS 9999 SCT020 FEW026TCU BKN050 26/20 Q1007 NOSIG
ZGOW,2011-05-31 11:00,ZGOW 311100Z 12003MPS 9999 SCT016 FEW033CB BKN033 25/21 Q1007 TEMPO 2100 SHRA SCT011 SCT025CB BKN036
ZGOW,2011-05-31 12:00,ZGOW 311200Z 11003MPS 7000 FEW030CB SCT030 25/22 Q1008 TEMPO 2100 SHRA SCT011 SCT025CB BKN036
ZGOW,2011-05-31 13:00,ZGOW 311300Z 07001MPS 5000 -SHRA BR FEW012 FEW033CB BKN033 24/22 Q1008 NOSIG
ZGOW,2011-05-31 14:00,ZGOW 311400Z 05002MPS 4000 -SHRA BR SCT009 FEW028CB BKN036 24/22 Q1009 NOSIG
ZGOW,2011-05-31 15:00,ZGOW 311500Z 04003MPS 4000 BR FEW006 SCT014 FEW030CB 24/22 Q1008 NOSIG
ZGOW,2011-06-01 00:00,ZGOW 010000Z 06003MPS 3500 -SHRA BR SCT008 FEW028CB OVC033 25/22 Q1007 TEMPO 2100 SHRA
ZGOW,2011-06-01 01:00,ZGOW 010100Z 03004MPS 1800 R04/1400VP2000D -SHRA BR SCT006 FEW028TCU OVC033 24/22 Q1007 NOSIG
ZGOW,2011-06-01 02:00,ZGOW 010200Z 04004MPS 5000 BR SCT005 FEW028TCU OVC040 25/23 Q1007 NOSIG
ZGOW,2011-06-01 03:00,ZGOW 010300Z 05004MPS 4000 -SHRA BR SCT005 BKN020 FEW030TCU BKN040 25/23 Q1007 NOSIG
ZGOW,2011-06-01 04:00,ZGOW 010400Z 04003MPS 3200 -SHRA BR SCT005 SCT020 FEW030CB BKN040 25/23 Q1007 RESHRA NOSIG
ZGOW,2011-06-01 05:00,ZGOW 010500Z 08005MPS 9999 SCT010 27/24 Q1006 NOSIG
ZGOW,2011-06-01 06:00,ZGOW 010600Z 08006MPS 9999 SCT014 FEW026TCU 27/22 Q1006 NOSIG
ZGOW,2011-06-01 07:00,ZGOW 010700Z 08005MPS 9999 SCT016 FEW030TCU BKN050 27/23 Q1006 NOSIG
ZGOW,2011-06-01 08:00,ZGOW 010800Z 08006MPS 9999 SCT014 FEW033TCU 27/22 Q1005 NOSIG
ZGOW,2011-06-01 09:00,ZGOW 010900Z 08006MPS 9999 SCT020 FEW033TCU 26/22 Q1006 NOSIG
ZGOW,2011-06-01 10:00,ZGOW 011000Z 09004MPS 9999 SCT020 26/22 Q1006 NOSIG
ZGOW,2011-06-01 11:00,ZGOW 011100Z 08003MPS 9999 SCT020 26/22 Q1007 NOSIG
ZGOW,2011-06-01 12:00,ZGOW 011200Z 08003MPS 9999 FEW025 25/22 Q1008 NOSIG
ZGOW,2011-06-01 13:00,ZGOW 011300Z 08003MPS CAVOK 25/22 Q1008 NOSIG
ZGOW,2011-06-01 14:00,ZGOW 011400Z 09003MPS CAVOK 25/22 Q1009 NOSIG
ZGOW,2011-06-01 15:00,ZGOW 011500Z 09002MPS 7000 NSC 25/22 Q1009 NOSIG
ZGOW,2011-06-01 16:00,ZGOW 011600Z 10001MPS 7000 NSC 25/22 Q1009 NOSIG
ZGOW,2011-06-01 19:00,ZGOW 011900Z AUTO 00000MPS 2500 // NCD 24/22 Q1008
ZGOW,2011-06-01 20:00,ZGOW 012000Z AUTO 25001MPS 2600 // ////// 24/22 Q1009
ZGOW,2011-06-01 21:00,ZGOW 012100Z 21001MPS 4000 BR BKN026 25/22 Q1009 NOSIG
ZGOW,2011-06-01 22:00,ZGOW 012200Z 00000MPS 3500 BR BKN033 25/22 Q1010 NOSIG
ZGOW,2011-06-01 23:00,ZGOW 012300Z 13001MPS 3200 BR FEW012 BKN040 25/23 Q1010 NOSIG
ZGOW,2011-06-02 00:00,ZGOW 020000Z 16001MPS 3500 BR FEW010 BKN040 26/23 Q1010 NOSIG
ZGOW,2011-06-02 01:00,ZGOW 020100Z 12001MPS 8000 FEW015 BKN040 28/23 Q1011 NOSIG
ZGOW,2011-06-02 02:00,ZGOW 020200Z 14003MPS 6000 SCT015 27/23 Q1011 NOSIG
ZGOW,2011-06-02 03:00,ZGOW 020300Z 17003MPS 7000 SCT015 FEW030TCU 26/23 Q1011 NOSIG
ZGOW,2011-06-02 04:00,ZGOW 020400Z 16004MPS 7000 FEW015 FEW030TCU 28/23 Q1010 NOSIG
ZGOW,2011-06-02 05:00,ZGOW 020500Z 16003MPS 7000 FEW014 FEW030TCU 28/22 Q1010 NOSIG
ZGOW,2011-06-02 06:00,ZGOW 020600Z 14005MPS 8000 FEW010 28/23 Q1009 NOSIG
ZGOW,2011-06-02 07:00,ZGOW 020700Z 13006MPS 9999 SCT010 27/23 Q1009 NOSIG
ZGOW,2011-06-02 08:00,ZGOW 020800Z 14005MPS 9999 SCT012 27/23 Q1009 NOSIG
ZGOW,2011-06-02 09:00,ZGOW 020900Z 14005MPS 9999 SCT012 26/22 Q1008 NOSIG
ZGOW,2011-06-02 10:00,ZGOW 021000Z 14003MPS 9999 SCT012 26/22 Q1009 NOSIG
ZGOW,2011-06-02 11:00,ZGOW 021100Z 13004MPS 7000 SCT012 25/22 Q1009 NOSIG
ZGOW,2011-06-02 12:00,ZGOW 021200Z 12003MPS 7000 SCT012 25/22 Q1010 NOSIG
ZGOW,2011-06-02 13:00,ZGOW 021300Z 13003MPS 6000 SCT020 25/22 Q1011 NOSIG
ZGOW,2011-06-02 14:00,ZGOW 021400Z 13004MPS 4000 BR SCT012 25/22 Q1012 NOSIG
ZGOW,2011-06-02 15:00,ZGOW 021500Z 12003MPS 4000 BR SCT012 25/22 Q1012 NOSIG
ZGOW,2011-06-02 17:00,ZGOW 021700Z 13002MPS 4000 BR SCT012 25/22 Q1011 NOSIG
ZGOW,2011-06-02 18:00,ZGOW 021800Z AUTO 12002MPS 2200 // ////// 25/22 Q1011
ZGOW,2011-06-02 19:00,ZGOW 021900Z AUTO 09001MPS 2600 // ////// 25/22 Q1011
ZGOW,2011-06-02 20:00,ZGOW 022000Z AUTO 13002MPS 2500 // ////// 25/22 Q1010
ZGOW,2011-06-02 21:00,ZGOW 022100Z 14002MPS 2500 BR SCT012 25/22 Q1011 NOSIG
ZGOW,2011-06-02 22:00,ZGOW 022200Z 11001MPS 1400 R04/1400N BR SCT012 24/22 Q1011 NOSIG
ZGOW,2011-06-02 23:00,ZGOW 022300Z 08001MPS 1800 BR SCT012 25/23 Q1011 BECMG 3500 BR
ZGOW,2011-06-03 00:00,ZGOW 030000Z 12002MPS 2500 BR SCT012 26/23 Q1011 BECMG 3500 BR
ZGOW,2011-06-03 01:00,ZGOW 030100Z 13003MPS 3500 BR SCT008 FEW024TCU BKN040 26/22 Q1011 NOSIG
ZGOW,2011-06-03 02:00,ZGOW 030200Z 11003MPS 4500 BR SCT010 FEW024TCU BKN040 26/22 Q1011 NOSIG
ZGOW,2011-06-03 03:00,ZGOW 030300Z 12003MPS 4500 BR SCT012 BKN040 27/22 Q1011 NOSIG
ZGOW,2011-06-03 04:00,ZGOW 030400Z 11003MPS 6000 SCT012 BKN040 27/22 Q1011 NOSIG
ZGOW,2011-06-03 05:00,ZGOW 030500Z 12003MPS 6000 SCT014 BKN040 27/22 Q1010 NOSIG
ZGOW,2011-06-03 06:00,ZGOW 030600Z 13004MPS 6000 FEW014 SCT040 27/23 Q1010 NOSIG
ZGOW,2011-06-03 07:00,ZGOW 030700Z 14004MPS 6000 SCT012 28/23 Q1009 NOSIG
ZGOW,2011-06-03 08:00,ZGOW 030800Z 12004MPS 5000 BR SCT010 FEW024TCU 27/23 Q1009 NOSIG
ZGOW,2011-06-03 09:00,ZGOW 030900Z 15005MPS 5000 BR SCT010 27/23 Q1009 NOSIG
ZGOW,2011-06-03 10:00,ZGOW 031000Z 16004MPS 6000 SCT012 26/23 Q1008 NOSIG
ZGOW,2011-06-03 11:00,ZGOW 031100Z 14003MPS 6000 SCT010 FEW024TCU 26/23 Q1009 NOSIG
ZGOW,2011-06-03 12:00,ZGOW 031200Z 16003MPS 5000 BR SCT010 26/23 Q1009 NOSIG
ZGOW,2011-06-03 13:00,ZGOW 031300Z 15003MPS 4500 BR SCT008 26/23 Q1010 NOSIG
ZGOW,2011-06-03 14:00,ZGOW 031400Z 14002MPS 4500 BR SCT012 26/23 Q1010 NOSIG
ZGOW,2011-06-03 15:00,ZGOW 031500Z 16002MPS 4500 BR SCT012 FEW024TCU 25/23 Q1011 NOSIG
ZGOW,2011-06-03 16:00,ZGOW 031600Z 14001MPS 4000 BR SCT012 25/23 Q1010 NOSIG
ZGOW,2011-06-03 17:00,ZGOW 031700Z 15001MPS 3500 BR SCT012 25/23 Q1010 NOSIG
ZGOW,2011-06-03 18:00,ZGOW 031800Z 14001MPS 3500 BR SCT010 25/23 Q1010 NOSIG
ZGOW,2011-06-03 19:00,ZGOW 031900Z AUTO 18001MPS 2400 // NCD 24/22 Q1010
ZGOW,2011-06-03 21:00,ZGOW 032100Z 17001MPS 3500 BR NSC 24/22 Q1010 TEMPO 2100 BR
ZGOW,2011-06-03 22:00,ZGOW 032200Z 00000MPS 3500 BR NSC 24/22 Q1010 TEMPO 2100 BR
ZGOW,2011-06-03 23:00,ZGOW 032300Z 13001MPS 3500 BR NSC 26/23 Q1010 NOSIG
ZGOW,2011-06-04 00:00,ZGOW 040000Z 16002MPS 4000 BR FEW012 28/23 Q1010 NOSIG
ZGOW,2011-06-04 01:00,ZGOW 040100Z 22002MPS 5000 BR SCT022 28/22 Q1010 NOSIG
ZGOW,2011-06-04 02:00,ZGOW 040200Z 24001MPS 6000 SCT024 29/22 Q1010 NOSIG
ZGOW,2011-06-04 03:00,ZGOW 040300Z 16004MPS 6000 SCT024 30/23 Q1010 NOSIG
ZGOW,2011-06-04 04:00,ZGOW 040400Z 16005MPS 6000 SCT020 FEW030TCU 30/24 Q1010 NOSIG
ZGOW,2011-06-04 05:00,ZGOW 040500Z 18005MPS 7000 FEW025 FEW030TCU 31/23 Q1009 NOSIG
ZGOW,2011-06-04 06:00,ZGOW 040600Z 17006MPS 7000 FEW025 FEW033TCU 31/23 Q1008 NOSIG
ZGOW,2011-06-04 07:00,ZGOW 040700Z 19005MPS 150V240 9999 FEW025 31/22 Q1008 NOSIG
ZGOW,2011-06-04 08:00,ZGOW 040800Z 19005MPS 150V220 9999 FEW025 31/22 Q1007 NOSIG
ZGOW,2011-06-04 09:00,ZGOW 040900Z 19005MPS CAVOK 30/23 Q1007 NOSIG
ZGOW,2011-06-04 10:00,ZGOW 041000Z 19006MPS CAVOK 29/22 Q1007 NOSIG
ZGOW,2011-06-04 11:00,ZGOW 041100Z 20003MPS CAVOK 28/22 Q1008 NOSIG
ZGOW,2011-06-04 12:00,ZGOW 041200Z 19003MPS CAVOK 28/22 Q1008 NOSIG
ZGOW,2011-06-04 13:00,ZGOW 041300Z 20005MPS 7000 NSC 27/23 Q1009 NOSIG
ZGOW,2011-06-04 14:00,ZGOW 041400Z 18002MPS 7000 NSC 27/23 Q1009 NOSIG
ZGOW,2011-06-04 15:00,ZGOW 041500Z 19002MPS 7000 FEW018 27/23 Q1009 NOSIG
ZGOW,2011-06-04 16:00,ZGOW 041600Z 20001MPS 7000 FEW018 26/23 Q1009 NOSIG
ZGOW,2011-06-04 17:00,ZGOW 041700Z AUTO 23002MPS 5000 NCD 27/23 Q1009
ZGOW,2011-06-04 21:00,ZGOW 042100Z 00000MPS 7000 SCT016 SCT040 26/23 Q1009 NOSIG
ZGOW,2011-06-04 22:00,ZGOW 042200Z 00000MPS 6000 SCT014 26/23 Q1009 NOSIG
ZGOW,2011-06-04 23:00,ZGOW 042300Z 00000MPS 5000 BR SCT014 27/23 Q1010 NOSIG
ZGOW,2011-06-05 00:00,ZGOW 050000Z 08001MPS 5000 HZ SCT014 29/24 Q1010 NOSIG
ZGOW,2011-06-05 01:00,ZGOW 050100Z 08001MPS 7000 SCT014 30/24 Q1011 NOSIG
ZGOW,2011-06-05 02:00,ZGOW 050200Z 07002MPS 8000 SCT014 30/24 Q1011 NOSIG
ZGOW,2011-06-05 03:00,ZGOW 050300Z 16003MPS 9999 SCT014 FEW030TCU 31/24 Q1010 NOSIG
ZGOW,2011-06-05 04:00,ZGOW 050400Z 17005MPS 9999 SCT014 FEW030TCU 31/25 Q1010 NOSIG
ZGOW,2011-06-05 05:00,ZGOW 050500Z 19006MPS 9999 FEW020 32/25 Q1010 NOSIG
ZGOW,2011-06-05 06:00,ZGOW 050600Z 20005MPS 9999 FEW020 32/25 Q1009 NOSIG
ZGOW,2011-06-05 07:00,ZGOW 050700Z 20007MPS 9999 FEW020 32/25 Q1008 NOSIG
ZGOW,2011-06-05 08:00,ZGOW 050800Z 20007MPS 9999 FEW020 31/25 Q1008 NOSIG
ZGOW,2011-06-05 09:00,ZGOW 050900Z 19007MPS 9999 FEW020 30/25 Q1008 NOSIG
ZGOW,2011-06-05 10:00,ZGOW 051000Z 20006MPS 9999 FEW020 30/24 Q1008 NOSIG
ZGOW,2011-06-05 11:00,ZGOW 051100Z 22004MPS 9999 FEW020 29/24 Q1008 NOSIG
ZGOW,2011-06-05 12:00,ZGOW 051200Z 21003MPS 9999 FEW020 28/24 Q1009 NOSIG
ZGOW,2011-06-05 13:00,ZGOW 051300Z 21004MPS CAVOK 28/24 Q1010 NOSIG
ZGOW,2011-06-05 14:00,ZGOW 051400Z 22003MPS CAVOK 28/23 Q1010 NOSIG
ZGOW,2011-06-05 15:00,ZGOW 051500Z 24004MPS CAVOK 28/23 Q1010 NOSIG
ZGOW,2011-06-05 16:00,ZGOW 051600Z 20002MPS CAVOK 28/23 Q1009 NOSIG
ZGOW,2011-06-05 17:00,ZGOW 051700Z 20003MPS CAVOK 27/24 Q1008 NOSIG
ZGOW,2011-06-05 18:00,ZGOW 051800Z AUTO 20003MPS 5000 NCD 27/24 Q1008
ZGOW,2011-06-05 19:00,ZGOW 051900Z AUTO 25001MPS 5000 ////// 27/24 Q1008
ZGOW,2011-06-05 20:00,ZGOW 052000Z AUTO 26001MPS 5000 ////// 27/24 Q1009
ZGOW,2011-06-05 21:00,ZGOW 052100Z 20001MPS CAVOK 26/24 Q1009 NOSIG
ZGOW,2011-06-05 22:00,ZGOW 052200Z 00000MPS CAVOK 27/24 Q1009 NOSIG
ZGOW,2011-06-05 23:00,ZGOW 052300Z 22002MPS CAVOK 28/24 Q1010 NOSIG
ZGOW,2011-06-06 00:00,ZGOW 060000Z 24003MPS CAVOK 30/23 Q1010 NOSIG
ZGOW,2011-06-06 01:00,ZGOW 060100Z 25004MPS 9999 FEW024 31/24 Q1010 NOSIG
ZGOW,2011-06-06 02:00,ZGOW 060200Z 26003MPS 9999 SCT024 31/24 Q1010 NOSIG
ZGOW,2011-06-06 03:00,ZGOW 060300Z 24004MPS 9999 FEW024 33/23 Q1009 NOSIG
ZGOW,2011-06-06 04:00,ZGOW 060400Z 24006MPS 9999 SCT026 34/22 Q1009 NOSIG
ZGOW,2011-06-06 05:00,ZGOW 060500Z 24005MPS 9999 SCT030 FEW033TCU 34/21 Q1008 NOSIG
ZGOW,2011-06-06 06:00,ZGOW 060600Z 19006MPS 9999 SCT030 34/24 Q1007 NOSIG
ZGOW,2011-06-06 07:00,ZGOW 060700Z 19008MPS 9999 FEW026 33/24 Q1007 NOSIG
ZGOW,2011-06-06 08:00,ZGOW 060800Z 19007MPS 9999 FEW030TCU 33/24 Q1006 NOSIG
ZGOW,2011-06-06 09:00,ZGOW 060900Z 20007MPS 9999 FEW030TCU 32/24 Q1006 NOSIG
ZGOW,2011-06-06 10:00,ZGOW 061000Z 21006MPS 9999 FEW030 31/23 Q1007 NOSIG
ZGOW,2011-06-06 11:00,ZGOW 061100Z 21005MPS CAVOK 30/23 Q1007 NOSIG
ZGOW,2011-06-06 12:00,ZGOW 061200Z 22005MPS CAVOK 29/24 Q1007 NOSIG
ZGOW,2011-06-06 13:00,ZGOW 061300Z 24006MPS 9999 FEW024 29/24 Q1007 NOSIG
ZGOW,2011-06-06 14:00,ZGOW 061400Z 23005MPS CAVOK 29/23 Q1008 NOSIG
ZGOW,2011-06-06 15:00,ZGOW 061500Z 22003MPS CAVOK 29/23 Q1008 NOSIG
ZGOW,2011-06-06 16:00,ZGOW 061600Z 23002MPS 9999 SCT020 28/24 Q1008 NOSIG
ZGOW,2011-06-06 17:00,ZGOW 061700Z AUTO 22002MPS 6000 NCD 28/24 Q1008
ZGOW,2011-06-06 18:00,ZGOW 061800Z AUTO 22003MPS 6000 NCD 28/24 Q1007
ZGOW,2011-06-06 19:00,ZGOW 061900Z AUTO 19003MPS 6000 NCD 28/24 Q1007
ZGOW,2011-06-06 20:00,ZGOW 062000Z AUTO 21002MPS 6000 NCD 27/24 Q1007
ZGOW,2011-06-06 21:00,ZGOW 062100Z 21002MPS CAVOK 27/24 Q1007 NOSIG
ZGOW,2011-06-06 22:00,ZGOW 062200Z 22002MPS 9999 FEW028 28/24 Q1008 NOSIG
ZGOW,2011-06-06 23:00,ZGOW 062300Z 21003MPS 9999 FEW020 29/24 Q1008 NOSIG
ZGOW,2011-06-07 00:00,ZGOW 070000Z 22004MPS 9999 FEW020 30/23 Q1008 NOSIG
ZGOW,2011-06-07 01:00,ZGOW 070100Z 23005MPS 9999 SCT028 FEW033TCU 31/23 Q1008 NOSIG
ZGOW,2011-06-07 02:00,ZGOW 070200Z 23005MPS 9999 SCT028 FEW033TCU 32/23 Q1007 NOSIG
ZGOW,2011-06-07 03:00,ZGOW 070300Z 24004MPS 9999 SCT030 FEW036TCU 32/23 Q1007 NOSIG
ZGOW,2011-06-07 04:00,ZGOW 070400Z 22006MPS 9999 SCT026 FEW033CB 33/23 Q1007 NOSIG
ZGOW,2011-06-07 05:00,ZGOW 070500Z 18004MPS 130V230 9999 SCT026 FEW040CB 32/24 Q1006 RETS NOSIG
ZGOW,2011-06-07 06:00,ZGOW 070600Z 19006MPS 9999 FEW028 FEW033TCU 33/25 Q1005 NOSIG
ZGOW,2011-06-07 07:00,ZGOW 070700Z 19008MPS 170V240 9999 FEW028 FEW033TCU 33/24 Q1004 NOSIG
ZGOW,2011-06-07 09:00,ZGOW 070900Z 18006MPS 9999 FEW028 FEW033TCU 32/24 Q1004 NOSIG
ZGOW,2011-06-07 10:00,ZGOW 071000Z 18005MPS 9999 FEW028 FEW033TCU 31/24 Q1005 NOSIG
ZGOW,2011-06-07 11:00,ZGOW 071100Z 20005MPS 9999 FEW028 30/24 Q1005 NOSIG
ZGOW,2011-06-07 12:00,ZGOW 071200Z 21005MPS 9999 FEW028 30/24 Q1006 NOSIG
ZGOW,2011-06-07 13:00,ZGOW 071300Z 22005MPS CAVOK 29/23 Q1007 NOSIG
ZGOW,2011-06-07 14:00,ZGOW 071400Z 23003MPS 9999 FEW020 29/24 Q1007 NOSIG
ZGOW,2011-06-07 15:00,ZGOW 071500Z 18003MPS 9999 FEW020 29/23 Q1007 NOSIG
ZGOW,2011-06-07 16:00,ZGOW 071600Z 22003MPS 9999 FEW020 28/23 Q1007 NOSIG
ZGOW,2011-06-07 17:00,ZGOW 071700Z AUTO 24003MPS 7000 NCD 28/23 Q1007
ZGOW,2011-06-07 18:00,ZGOW 071800Z AUTO 22002MPS 7000 NCD 28/23 Q1006
ZGOW,2011-06-07 19:00,ZGOW 071900Z AUTO 23003MPS 7000 NCD 28/23 Q1006
ZGOW,2011-06-07 20:00,ZGOW 072000Z AUTO 23001MPS 6000 NCD 28/23 Q1006
ZGOW,2011-06-07 21:00,ZGOW 072100Z 00000MPS 6000 FEW020 27/23 Q1006 NOSIG
ZGOW,2011-06-07 22:00,ZGOW 072200Z 00000MPS 7000 FEW020 27/24 Q1007 NOSIG
ZGOW,2011-06-07 23:00,ZGOW 072300Z 24001MPS 8000 NSC 29/24 Q1007 NOSIG
ZGOW,2011-06-08 00:00,ZGOW 080000Z 24003MPS 9999 FEW022 30/24 Q1007 NOSIG
ZGOW,2011-06-08 01:00,ZGOW 080100Z 24003MPS 9999 FEW020 31/23 Q1007 NOSIG
ZGOW,2011-06-08 02:00,ZGOW 080200Z 25005MPS 9999 SCT020 32/22 Q1007 NOSIG
ZGOW,2011-06-08 03:00,ZGOW 080300Z 25004MPS 9999 SCT020 33/22 Q1007 NOSIG
ZGOW,2011-06-08 04:00,ZGOW 080400Z 17005MPS 9999 SCT020 32/25 Q1007 NOSIG
ZGOW,2011-06-08 05:00,ZGOW 080500Z 17005MPS 9999 SCT020 FEW026TCU 33/25 Q1007 NOSIG
ZGOW,2011-06-08 06:00,ZGOW 080600Z 17006MPS 9999 SCT020 FEW026TCU 33/25 Q1006 NOSIG
ZGOW,2011-06-08 07:00,ZGOW 080700Z 17007MPS 9999 SCT020 31/25 Q1005 NOSIG
ZGOW,2011-06-08 08:00,ZGOW 080800Z 16006MPS 9999 SCT020 32/24 Q1005 NOSIG
ZGOW,2011-06-08 09:00,ZGOW 080900Z 18006MPS 9999 SCT033 31/24 Q1005 NOSIG
ZGOW,2011-06-08 10:00,ZGOW 081000Z 17005MPS 9999 SCT033 30/24 Q1006 NOSIG
ZGOW,2011-06-08 11:00,ZGOW 081100Z 17005MPS 9999 SCT033 29/24 Q1006 NOSIG
ZGOW,2011-06-08 12:00,ZGOW 081200Z 18006MPS 9999 SCT012 28/25 Q1007 NOSIG
ZGOW,2011-06-08 13:00,ZGOW 081300Z 18004MPS 9999 SCT012 28/24 Q1008 NOSIG
ZGOW,2011-06-08 14:00,ZGOW 081400Z 19005MPS 9999 SCT012 28/24 Q1008 NOSIG
ZGOW,2011-06-08 15:00,ZGOW 081500Z 19004MPS 9999 SCT012 28/24 Q1008 NOSIG
ZGOW,2011-06-08 16:00,ZGOW 081600Z 18002MPS 9999 FEW012 28/24 Q1008 NOSIG
ZGOW,2011-06-08 17:00,ZGOW 081700Z AUTO 19002MPS CAVOK 27/24 Q1007
ZGOW,2011-06-08 18:00,ZGOW 081800Z AUTO 18002MPS CAVOK 27/24 Q1007
ZGOW,2011-06-08 19:00,ZGOW 081900Z AUTO 00000MPS CAVOK 27/24 Q1007
ZGOW,2011-06-08 20:00,ZGOW 082000Z AUTO 00000MPS CAVOK 27/23 Q1007
ZGOW,2011-06-08 21:00,ZGOW 082100Z 00000MPS CAVOK 26/23 Q1007 NOSIG
ZGOW,2011-06-08 22:00,ZGOW 082200Z 00000MPS CAVOK 26/24 Q1008 NOSIG
ZGOW,2011-06-08 23:00,ZGOW 082300Z 21003MPS CAVOK 29/24 Q1008 NOSIG
ZGOW,2011-06-09 00:00,ZGOW 090000Z 21002MPS CAVOK 30/23 Q1009 NOSIG
ZGOW,2011-06-09 01:00,ZGOW 090100Z 17003MPS 9999 SCT024 31/23 Q1009 NOSIG
ZGOW,2011-06-09 02:00,ZGOW 090200Z 12005MPS 9999 SCT024 30/25 Q1009 NOSIG
ZGOW,2011-06-09 03:00,ZGOW 090300Z 12005MPS 9999 SCT010 FEW024TCU 31/25 Q1008 NOSIG
ZGOW,2011-06-09 04:00,ZGOW 090400Z 12005MPS 9999 SCT012 31/25 Q1008 NOSIG
ZGOW,2011-06-09 05:00,ZGOW 090500Z 12005MPS 9999 SCT012 31/25 Q1007 NOSIG
ZGOW,2011-06-09 06:00,ZGOW 090600Z 12006MPS 9999 FEW014 31/24 Q1006 NOSIG
ZGOW,2011-06-09 07:00,ZGOW 090700Z 14005MPS 9999 FEW012 31/23 Q1006 NOSIG
ZGOW,2011-06-09 08:00,ZGOW 090800Z 14005MPS 9999 FEW014 30/24 Q1005 NOSIG
ZGOW,2011-06-09 09:00,ZGOW 090900Z 13005MPS CAVOK 30/24 Q1005 NOSIG
ZGOW,2011-06-09 10:00,ZGOW 091000Z 14004MPS CAVOK 29/24 Q1005 NOSIG
ZGOW,2011-06-09 11:00,ZGOW 091100Z 13003MPS CAVOK 28/24 Q1006 NOSIG
ZGOW,2011-06-09 12:00,ZGOW 091200Z 11003MPS 9999 FEW010 28/25 Q1007 NOSIG
ZGOW,2011-06-09 13:00,ZGOW 091300Z 09002MPS 9999 FEW010 27/25 Q1007 NOSIG
ZGOW,2011-06-09 14:00,ZGOW 091400Z 08002MPS 9999 FEW012 27/24 Q1007 NOSIG
ZGOW,2011-06-09 15:00,ZGOW 091500Z 09002MPS 9999 FEW030 27/24 Q1007 NOSIG
ZGOW,2011-06-09 16:00,ZGOW 091600Z 09001MPS 9999 SCT012 27/24 Q1007 NOSIG
ZGOW,2011-06-09 17:00,ZGOW 091700Z 08002MPS 9999 SCT012 27/25 Q1006 NOSIG
ZGOW,2011-06-09 18:00,ZGOW 091800Z 08003MPS 9999 SCT012 SCT033 27/25 Q1005 NOSIG
ZGOW,2011-06-09 19:00,ZGOW 091900Z AUTO 08002MPS CAVOK 27/24 Q1005
ZGOW,2011-06-09 20:00,ZGOW 092000Z AUTO 07002MPS CAVOK 27/24 Q1005
ZGOW,2011-06-09 21:00,ZGOW 092100Z 05002MPS 9999 FEW030TCU SCT050 27/25 Q1005 NOSIG
ZGOW,2011-06-09 22:00,ZGOW 092200Z 09002MPS 9999 SCT033 27/25 Q1005 NOSIG
ZGOW,2011-06-09 23:00,ZGOW 092300Z 10004MPS 9999 FEW014 28/25 Q1005 NOSIG
ZGOW,2011-06-10 00:00,ZGOW 100000Z 10004MPS 9999 FEW014 FEW024TCU 29/25 Q1006 NOSIG
ZGOW,2011-06-10 01:00,ZGOW 100100Z 12004MPS 9999 SCT010 FEW028CB 29/25 Q1006 NOSIG
ZGOW,2011-06-10 02:00,ZGOW 100200Z 16004MPS 9999 -SHRA SCT010 FEW028CB 29/26 Q1006 TEMPO 2500 SHRA SCT008 FEW028CB BKN040
ZGOW,2011-06-10 03:00,ZGOW 100300Z 16004MPS 9999 FEW014 FEW028TCU 32/26 Q1005 NOSIG
ZGOW,2011-06-10 04:00,ZGOW 100400Z 15005MPS 9999 FEW014 FEW028TCU 32/25 Q1005 NOSIG
ZGOW,2011-06-10 05:00,ZGOW 100500Z 15005MPS 9999 SCT014 FEW030CB 32/25 Q1005 NOSIG
ZGOW,2011-06-10 06:00,ZGOW 100600Z 15005MPS 9999 SCT014 FEW030CB 31/25 Q1004 TEMPO 2500 SHRA SCT008 SCT028CB BKN040
ZGOW,2011-06-10 07:00,ZGOW 100700Z 14005MPS 120V180 9999 SCT014 FEW030CB 32/23 Q1004 TEMPO 2500 SHRA SCT008 SCT028CB BKN040
ZGOW,2011-06-10 08:00,ZGOW 100800Z 11005MPS 9999 SCT016 FEW030CB 30/25 Q1004 NOSIG
ZGOW,2011-06-10 09:00,ZGOW 100900Z 11005MPS 9999 SCT016 FEW030CB 30/24 Q1004 NOSIG
ZGOW,2011-06-10 10:00,ZGOW 101000Z 10004MPS 9999 SCT020 FEW030CB 29/23 Q1004 NOSIG
ZGOW,2011-06-10 11:00,ZGOW 101100Z 09003MPS 9999 SCT020 FEW028TCU 28/23 Q1004 NOSIG
ZGOW,2011-06-10 12:00,ZGOW 101200Z 07005MPS 9999 SCT020 FEW028TCU 28/23 Q1004 NOSIG
ZGOW,2011-06-10 13:00,ZGOW 101300Z 07004MPS 9999 SCT024 FEW028TCU 27/23 Q1004 NOSIG
ZGOW,2011-06-10 14:00,ZGOW 101400Z 08004MPS 9999 SCT024 FEW030CB 28/24 Q1005 NOSIG
ZGOW,2011-06-10 15:00,ZGOW 101500Z 07005MPS 9999 FEW024 FEW030TCU SCT050 28/24 Q1004 NOSIG
ZGOW,2011-06-10 16:00,ZGOW 101600Z 07005MPS 9999 FEW018 FEW030TCU SCT040 28/24 Q1004 NOSIG
ZGOW,2011-06-10 17:00,ZGOW 101700Z AUTO 07007MPS 9999 ////// 27/24 Q1003
ZGOW,2011-06-10 18:00,ZGOW 101800Z AUTO 07006MPS 9999 ////// 26/25 Q1002
ZGOW,2011-06-10 19:00,ZGOW 101900Z AUTO 06007MPS 9999 ////// 26/25 Q1002
ZGOW,2011-06-10 20:00,ZGOW 102000Z AUTO 06007MPS 1800 // ////// 26/25 Q1001
ZGOW,2011-06-10 21:00,ZGOW 102100Z AUTO 07008MPS 3100 // ////// 26/24 Q0999
ZGOW,2011-06-10 22:00,ZGOW 102200Z 04009MPS 6000 SCT005 FEW030CB BKN040 26/24 Q0998 NOSIG
ZGOW,2011-06-10 23:00,ZGOW 102300Z 34006G11MPS 310V030 1800 SHRA SCT007 SCT030CB BKN040 26/24 Q0998 TEMPO 1500 +SHRA SCT005 SCT030CB BKN040
ZGOW,2011-06-11 00:00,ZGOW 110000Z 26007G13MPS 3500 R04/1000VP2000U SHRA SCT006 SCT030CB BKN040 25/24 Q1001 TEMPO 1500 +SHRA SCT005 SCT030CB BKN040
ZGOW,2011-06-11 01:00,ZGOW 110100Z 26008G13MPS 3500 R04/0800VP2000U TSRA SCT007 SCT030CB BKN040 25/24 Q1002 RESHRA TEMPO 1600 SHRA
ZGOW,2011-06-11 02:00,ZGOW 110200Z 23006MPS 7000 -SHRA SCT012 SCT033CB BKN050 26/23 Q1005 RETS TEMPO 2500 SHRA
ZGOW,2011-06-11 03:00,ZGOW 110300Z 24005MPS 9999 SCT016 SCT033CB BKN040 26/23 Q1005 TEMPO 2500 SHRA
ZGOW,2011-06-11 04:00,ZGOW 110400Z 22004MPS 5000 -SHRA SCT012 FEW033CB BKN043 26/23 Q1005 TEMPO 2500 SHRA
ZGOW,2011-06-11 05:00,ZGOW 110500Z 19002MPS 6000 -SHRA SCT015 FEW033CB BKN043 26/23 Q1005 TEMPO 2500 SHRA
ZGOW,2011-06-11 06:00,ZGOW 110600Z 19004MPS 7000 -SHRA SCT018 FEW033TCU BKN050 27/25 Q1005 NOSIG
ZGOW,2011-06-11 07:00,ZGOW 110700Z 18004MPS 9999 SCT010 FEW033CB BKN050 28/25 Q1004 NOSIG
ZGOW,2011-06-11 08:00,ZGOW 110800Z 19004MPS 9999 SCT020 FEW033TCU 28/25 Q1004 NOSIG
ZGOW,2011-06-11 09:00,ZGOW 110900Z 19006MPS 150V240 9999 SCT012 FEW033TCU 28/24 Q1005 NOSIG
ZGOW,2011-06-11 10:00,ZGOW 111000Z 20006MPS 9999 SCT012 FEW033TCU BKN050 27/24 Q1005 NOSIG
ZGOW,2011-06-11 11:00,ZGOW 111100Z 20006MPS 9999 SCT012 FEW033TCU BKN050 27/24 Q1005 NOSIG
ZGOW,2011-06-11 12:00,ZGOW 111200Z 19005MPS 9999 SCT012 FEW033TCU BKN050 27/24 Q1006 NOSIG
ZGOW,2011-06-11 13:00,ZGOW 111300Z 18004MPS 9999 SCT010 FEW033TCU BKN050 27/24 Q1007 NOSIG
ZGOW,2011-06-11 14:00,ZGOW 111400Z 20002MPS 9999 SCT016 FEW030TCU 27/24 Q1008 NOSIG
ZGOW,2011-06-11 15:00,ZGOW 111500Z 18002MPS 9999 SCT020 FEW030TCU 27/25 Q1008 NOSIG
ZGOW,2011-06-11 16:00,ZGOW 111600Z 20002MPS 9999 SCT023 FEW030TCU 27/24 Q1008 NOSIG
ZGOW,2011-06-11 17:00,ZGOW 111700Z 18002MPS 9999 SCT023 FEW030TCU BKN050 27/25 Q1007 NOSIG
ZGOW,2011-06-11 18:00,ZGOW 111800Z 22003MPS 9999 SCT023 FEW030CB BKN050 27/24 Q1007 NOSIG
ZGOW,2011-06-11 19:00,ZGOW 111900Z 22003MPS 9999 SCT023 FEW030CB 27/23 Q1007 TEMPO 2500 SHRA
ZGOW,2011-06-11 20:00,ZGOW 112000Z 00000MPS 9999 SCT023 FEW030TCU BKN050 27/23 Q1007 TEMPO 2500 SHRA
ZGOW,2011-06-11 21:00,ZGOW 112100Z 00000MPS 9999 SCT023 FEW030TCU BKN050 27/24 Q1007 TEMPO 2500 SHRA
ZGOW,2011-06-11 22:00,ZGOW 112200Z 17001MPS 9999 SCT014 FEW030CB BKN050 27/24 Q1008 TEMPO 2500 SHRA
ZGOW,2011-06-11 23:00,ZGOW 112300Z 17003MPS 9999 -SHRA SCT014 SCT030CB BKN050 27/25 Q1008 TEMPO 2500 TSRA
ZGOW,2011-06-12 00:00,ZGOW 120000Z 24003MPS 7000 -SHRA SCT010 SCT030CB BKN050 25/24 Q1009 RESHRA NOSIG
ZGOW,2011-06-12 01:00,ZGOW 120100Z 24002MPS 8000 -SHRA FEW012 SCT030CB BKN050 26/24 Q1009 NOSIG
ZGOW,2011-06-12 02:00,ZGOW 120200Z 21002MPS 8000 -SHRA SCT016 SCT030CB BKN036 27/24 Q1009 NOSIG
ZGOW,2011-06-12 03:00,ZGOW 120300Z 00000MPS 9999 FEW016 FEW030CB SCT030 28/24 Q1009 NOSIG
ZGOW,2011-06-12 04:00,ZGOW 120400Z 22002MPS 9999 FEW020 FEW030CB 29/24 Q1008 NOSIG
ZGOW,2011-06-12 05:00,ZGOW 120500Z 18007G12MPS 4500 SHRA SCT016 SCT028CB BKN040 26/23 Q1008 TEMPO 2100 TSRA
ZGOW,2011-06-12 06:00,ZGOW 120600Z 26004MPS 8000 -SHRA SCT014 SCT028CB BKN033 26/23 Q1008 TEMPO 2100 TSRA
ZGOW,2011-06-12 07:00,ZGOW 120700Z 24005MPS 2500 TSRA SCT008 SCT018 SCT028CB OVC033 25/23 Q1008 RESHRA TEMPO 1500 TSRA
ZGOW,2011-06-12 08:00,ZGOW 120800Z 00000MPS 9999 -SHRA FEW014 FEW030CB SCT043 25/23 Q1008 NOSIG
ZGOW,2011-06-12 09:00,ZGOW 120900Z 00000MPS 9999 FEW020 FEW030TCU 26/24 Q1007 NOSIG
ZGOW,2011-06-12 10:00,ZGOW 121000Z 00000MPS 9999 FEW030TCU FEW030 27/24 Q1007 NOSIG
ZGOW,2011-06-12 11:00,ZGOW 121100Z 00000MPS 9999 SCT050 26/24 Q1007 NOSIG
ZGOW,2011-06-12 12:00,ZGOW 121200Z 16001MPS CAVOK 26/24 Q1008 NOSIG
ZGOW,2011-06-12 13:00,ZGOW 121300Z 12001MPS CAVOK 26/24 Q1009 NOSIG
ZGOW,2011-06-12 14:00,ZGOW 121400Z 00000MPS CAVOK 25/24 Q1009 NOSIG
ZGOW,2011-06-12 15:00,ZGOW 121500Z 00000MPS 7000 FEW012 25/23 Q1010 NOSIG
ZGOW,2011-06-12 16:00,ZGOW 121600Z 00000MPS 7000 FEW012 25/24 Q1010 NOSIG
ZGOW,2011-06-12 17:00,ZGOW 121700Z 00000MPS 7000 NSC 25/23 Q1009 NOSIG
ZGOW,2011-06-12 18:00,ZGOW 121800Z 00000MPS 5000 BR FEW012 25/23 Q1009 NOSIG
ZGOW,2011-06-12 19:00,ZGOW 121900Z AUTO 00000MPS 1400 R22/1200VP2000D // ////// 25/24 Q1009
ZGOW,2011-06-12 20:00,ZGOW 122000Z AUTO 00000MPS 2700 // ////// 25/24 Q1008
ZGOW,2011-06-12 21:00,ZGOW 122100Z 00000MPS 2500 R22/1400U BR FEW003 25/24 Q1009 NOSIG
ZGOW,2011-06-12 22:00,ZGOW 122200Z 00000MPS 0700 R22/0600U FG SCT004 25/23 Q1009 NOSIG
ZGOW,2011-06-12 23:00,ZGOW 122300Z 00000MPS 2000 R22/1400VP2000U BR SCT005 27/25 Q1009 TEMPO 3000 BR
ZGOW,2011-06-13 00:00,ZGOW 130000Z 00000MPS 4000 BR SCT040 28/24 Q1010 NOSIG
ZGOW,2011-06-13 01:00,ZGOW 130100Z 25002MPS 6000 FEW020 29/24 Q1010 NOSIG
ZGOW,2011-06-13 02:00,ZGOW 130200Z 12003MPS 7000 SCT024 30/24 Q1009 NOSIG
ZGOW,2011-06-13 03:00,ZGOW 130300Z 15003MPS 120V200 7000 SCT022 FEW030TCU 30/24 Q1009 NOSIG
ZGOW,2011-06-13 04:00,ZGOW 130400Z 16004MPS 120V200 9999 SCT024 FEW030TCU 31/25 Q1008 NOSIG
ZGOW,2011-06-13 05:00,ZGOW 130500Z 16004MPS 130V200 9999 SCT024 FEW033CB 31/25 Q1008 NOSIG
ZGOW,2011-06-13 06:00,ZGOW 130600Z 15005MPS 110V200 9999 FEW024 FEW033CB 31/24 Q1007 NOSIG
ZGOW,2011-06-13 07:00,ZGOW 130700Z 14005MPS 120V190 9999 FEW024 FEW033TCU 32/24 Q1007 NOSIG
ZGOW,2011-06-13 08:00,ZGOW 130800Z 16005MPS 9999 FEW024 FEW033TCU 31/23 Q1006 NOSIG
ZGOW,2011-06-13 09:00,ZGOW 130900Z 19007MPS 9999 FEW026 31/24 Q1006 NOSIG
ZGOW,2011-06-13 10:00,ZGOW 131000Z 19005MPS 9999 SCT026 29/24 Q1006 NOSIG
ZGOW,2011-06-13 11:00,ZGOW 131100Z 19005MPS 9999 SCT020 29/24 Q1007 NOSIG
ZGOW,2011-06-13 12:00,ZGOW 131200Z 20006MPS 9999 SCT020 28/24 Q1008 NOSIG
ZGOW,2011-06-13 13:00,ZGOW 131300Z 19005MPS 9999 SCT020 28/25 Q1009 NOSIG
ZGOW,2011-06-13 14:00,ZGOW 131400Z 21004MPS 9999 FEW016 28/25 Q1009 NOSIG
ZGOW,2011-06-13 15:00,ZGOW 131500Z 19002MPS 9999 FEW016 28/24 Q1009 NOSIG
ZGOW,2011-06-13 16:00,ZGOW 131600Z 19004MPS 9999 FEW016 28/24 Q1009 NOSIG
ZGOW,2011-06-13 17:00,ZGOW 131700Z 20002MPS 9999 FEW014 28/25 Q1008 NOSIG
ZGOW,2011-06-13 18:00,ZGOW 131800Z AUTO 17002MPS 9999 ////// 27/25 Q1008
ZGOW,2011-06-13 19:00,ZGOW 131900Z AUTO 19002MPS CAVOK 27/25 Q1007
ZGOW,2011-06-13 20:00,ZGOW 132000Z AUTO 19002MPS 9000 NCD 27/25 Q1007
ZGOW,2011-06-13 21:00,ZGOW 132100Z 19002MPS 9999 FEW014 27/25 Q1007 NOSIG
ZGOW,2011-06-13 22:00,ZGOW 132200Z 18001MPS 9999 FEW016 27/25 Q1008 NOSIG
ZGOW,2011-06-13 23:00,ZGOW 132300Z 18002MPS 9999 SCT016 28/25 Q1008 NOSIG
ZGOW,2011-06-14 00:00,ZGOW 140000Z 19004MPS 9999 SCT018 30/25 Q1008 NOSIG
ZGOW,2011-06-14 01:00,ZGOW 140100Z 18005MPS 9999 SCT018 FEW030CB 31/25 Q1008 NOSIG
ZGOW,2011-06-14 02:00,ZGOW 140200Z 17005MPS 9999 SCT018 FEW028TCU 31/25 Q1009 NOSIG
ZGOW,2011-06-14 03:00,ZGOW 140300Z 19005MPS 9999 SCT018 FEW026TCU 32/25 Q1008 NOSIG
ZGOW,2011-06-14 04:00,ZGOW 140400Z 18005MPS 9999 SCT020 FEW030CB 32/25 Q1008 NOSIG
ZGOW,2011-06-14 05:00,ZGOW 140500Z 18006MPS 9999 SCT020 FEW030CB 32/25 Q1007 NOSIG
ZGOW,2011-06-14 06:00,ZGOW 140600Z 18006MPS 9999 SCT026 33/24 Q1006 NOSIG
ZGOW,2011-06-14 07:00,ZGOW 140700Z 18006MPS 9999 FEW026TCU SCT026 33/24 Q1006 NOSIG
ZGOW,2011-06-14 08:00,ZGOW 140800Z 18006MPS 9999 FEW026TCU SCT026 32/24 Q1006 NOSIG
ZGOW,2011-06-14 09:00,ZGOW 140900Z 18006MPS 9999 FEW026 32/25 Q1006 NOSIG
ZGOW,2011-06-14 10:00,ZGOW 141000Z 19005MPS 9999 FEW026 31/24 Q1006 NOSIG
ZGOW,2011-06-14 11:00,ZGOW 141100Z 19004MPS 9999 FEW026 30/24 Q1006 NOSIG
ZGOW,2011-06-14 12:00,ZGOW 141200Z 19004MPS 9999 FEW026 29/24 Q1006 NOSIG
ZGOW,2011-06-14 13:00,ZGOW 141300Z 19005MPS 9999 FEW020 29/25 Q1007 NOSIG
ZGOW,2011-06-14 14:00,ZGOW 141400Z 19005MPS 9999 FEW012 28/25 Q1007 NOSIG
ZGOW,2011-06-14 15:00,ZGOW 141500Z 19005MPS 9999 SCT012 28/25 Q1007 NOSIG
ZGOW,2011-06-14 16:00,ZGOW 141600Z 20004MPS 9999 SCT014 28/25 Q1007 NOSIG
ZGOW,2011-06-14 17:00,ZGOW 141700Z 19003MPS 9999 SCT014 28/25 Q1007 NOSIG
ZGOW,2011-06-14 18:00,ZGOW 141800Z 19003MPS 9999 SCT012 28/25 Q1006 NOSIG
ZGOW,2011-06-14 19:00,ZGOW 141900Z AUTO 19003MPS 8000 NCD 28/25 Q1006
ZGOW,2011-06-14 20:00,ZGOW 142000Z AUTO 19003MPS 9000 ////// 28/24 Q1006
ZGOW,2011-06-14 21:00,ZGOW 142100Z 19003MPS 9999 SCT012 28/25 Q1007 NOSIG
ZGOW,2011-06-14 22:00,ZGOW 142200Z 19004MPS 9999 FEW012 28/24 Q1007 NOSIG
ZGOW,2011-06-14 23:00,ZGOW 142300Z 19004MPS 9999 FEW012 29/25 Q1007 NOSIG
ZGOW,2011-06-15 00:00,ZGOW 150000Z 20004MPS 9999 SCT020 30/24 Q1007 NOSIG
ZGOW,2011-06-15 01:00,ZGOW 150100Z 21004MPS 9999 SCT024 31/25 Q1007 NOSIG
ZGOW,2011-06-15 02:00,ZGOW 150200Z 22004MPS 9999 SCT026 31/23 Q1007 NOSIG
ZGOW,2011-06-15 03:00,ZGOW 150300Z 19004MPS 9999 SCT026 32/24 Q1007 NOSIG
ZGOW,2011-06-15 04:00,ZGOW 150400Z 18006MPS 9999 FEW026 FEW030CB 33/25 Q1007 NOSIG
ZGOW,2011-06-15 05:00,ZGOW 150500Z 18007MPS 9999 FEW026 FEW030CB 33/24 Q1007 NOSIG
ZGOW,2011-06-15 06:00,ZGOW 150600Z 19007MPS 9999 FEW022 FEW030TCU 32/24 Q1006 NOSIG
ZGOW,2011-06-15 07:00,ZGOW 150700Z 18006MPS 9999 SCT024 FEW030CB 32/25 Q1006 NOSIG
ZGOW,2011-06-15 08:00,ZGOW 150800Z 20005MPS 9999 FEW024 32/23 Q1005 NOSIG
ZGOW,2011-06-15 09:00,ZGOW 150900Z 18005MPS 9999 FEW024 31/24 Q1005 NOSIG
ZGOW,2011-06-15 10:00,ZGOW 151000Z 17006MPS CAVOK 30/24 Q1005 NOSIG
ZGOW,2011-06-15 11:00,ZGOW 151100Z 18004MPS CAVOK 29/24 Q1005 NOSIG
ZGOW,2011-06-15 12:00,ZGOW 151200Z 19004MPS 9999 FEW018 29/24 Q1006 NOSIG
ZGOW,2011-06-15 13:00,ZGOW 151300Z 19004MPS 9999 FEW014 28/24 Q1007 NOSIG
ZGOW,2011-06-15 14:00,ZGOW 151400Z 18003MPS 9999 FEW016 28/25 Q1008 NOSIG
ZGOW,2011-06-15 15:00,ZGOW 151500Z 18002MPS 9999 FEW016 28/25 Q1008 NOSIG
ZGOW,2011-06-15 16:00,ZGOW 151600Z 20002MPS 9999 FEW020 28/24 Q1008 NOSIG
ZGOW,2011-06-15 17:00,ZGOW 151700Z 13001MPS 9999 FEW020 28/24 Q1007 NOSIG
ZGOW,2011-06-15 18:00,ZGOW 151800Z 14002MPS 9999 FEW020 FEW026TCU 27/24 Q1007 NOSIG
ZGOW,2011-06-15 19:00,ZGOW 151900Z AUTO 11002MPS CAVOK 27/24 Q1006
ZGOW,2011-06-15 21:00,ZGOW 152100Z 00000MPS 3500 BR FEW006 27/25 Q1006 NOSIG
ZGOW,2011-06-15 22:00,ZGOW 152200Z 00000MPS 4000 BR FEW014 27/25 Q1007 NOSIG
ZGOW,2011-06-15 23:00,ZGOW 152300Z 10003MPS 9999 SCT008 FEW030CB BKN050 28/25 Q1007 NOSIG
ZGOW,2011-06-16 00:00,ZGOW 160000Z 10003MPS 8000 -SHRA SCT008 SCT030CB BKN040 28/26 Q1008 TEMPO VRB08G13MPS 2000 TSRA SCT006 SCT030CB BKN033
ZGOW,2011-06-16 01:00,ZGOW 160100Z 14004MPS 100V190 6000 -TSRA SCT004 SCT030CB BKN040 26/23 Q1009 RESHRA TEMPO VRB08G13MPS 1500 TSRA
ZGOW,2011-06-16 02:00,ZGOW 160200Z 19001MPS 4000 SHRA SCT010 SCT030CB OVC040 26/24 Q1009 RETS TEMPO VRB08G13MPS 1500 TSRA
ZGOW,2011-06-16 03:00,ZGOW 160300Z 09003MPS 7000 -SHRA SCT010 SCT030CB BKN050 26/25 Q1008 RESHRA NOSIG
ZGOW,2011-06-16 04:00,ZGOW 160400Z 08003MPS 9999 -SHRA SCT006 SCT030CB BKN050 27/25 Q1008 NOSIG
ZGOW,2011-06-16 05:00,ZGOW 160500Z 07004MPS 9999 SCT016 SCT030CB BKN050 27/25 Q1007 TEMPO 1500 TSRA
ZGOW,2011-06-16 06:00,ZGOW 160600Z 08004MPS 7000 -SHRA SCT014 SCT030CB BKN050 27/25 Q1007 TEMPO 1500 TSRA
ZGOW,2011-06-16 07:00,ZGOW 160700Z 07003MPS 7000 -SHRA SCT015 SCT030CB BKN040 27/25 Q1007 TEMPO 1500 TSRA
ZGOW,2011-06-16 08:00,ZGOW 160800Z 08003MPS 9999 SCT020 FEW030CB BKN040 27/25 Q1006 TEMPO 1500 TSRA
ZGOW,2011-06-16 09:00,ZGOW 160900Z 08003MPS 9999 SCT020 SCT030CB BKN050 27/25 Q1006 TEMPO 1500 TSRA
ZGOW,2011-06-16 10:00,ZGOW 161000Z 10005MPS 9999 SCT020 SCT030CB BKN040 27/25 Q1006 TEMPO 1500 TSRA
ZGOW,2011-06-16 11:00,ZGOW 161100Z 10005MPS 9999 TS SCT014 SCT030CB BKN040 27/25 Q1006 TEMPO 1500 TSRA
ZGOW,2011-06-16 12:00,ZGOW 161200Z 12004MPS 080V160 9999 TS SCT009 SCT030CB BKN040 27/25 Q1007 TEMPO 2100 SHRA
ZGOW,2011-06-16 13:00,ZGOW 161300Z 10004MPS 070V150 7000 -SHRA SCT012 SCT030CB BKN040 27/25 Q1007 RETSRA NOSIG
ZGOW,2011-06-16 14:00,ZGOW 161400Z 11004MPS 9999 SCT010 FEW030CB BKN040 27/25 Q1008 NOSIG
ZGOW,2011-06-16 15:00,ZGOW 161500Z 11004MPS 9999 SCT020 SCT030CB BKN040 27/25 Q1009 NOSIG
ZGOW,2011-06-16 16:00,ZGOW 161600Z 12004MPS 6000 SCT020 FEW030CB BKN040 27/25 Q1008 NOSIG
ZGOW,2011-06-16 17:00,ZGOW 161700Z AUTO 12003MPS 4500 // ////// 27/25 Q1008
ZGOW,2011-06-16 18:00,ZGOW 161800Z AUTO 11003MPS 3700 // ////// 27/25 Q1008
ZGOW,2011-06-16 19:00,ZGOW 161900Z AUTO 12002MPS 3500 // ////// 27/25 Q1007
ZGOW,2011-06-16 20:00,ZGOW 162000Z AUTO 11003MPS 3700 // ////// 27/25 Q1007
ZGOW,2011-06-16 21:00,ZGOW 162100Z 12003MPS 4000 BR SCT018 FEW030CB BKN040 27/25 Q1007 NOSIG
ZGOW,2011-06-16 22:00,ZGOW 162200Z 11003MPS 5000 BR FEW012 FEW030CB BKN050 27/25 Q1007 NOSIG
ZGOW,2011-06-16 23:00,ZGOW 162300Z 11003MPS 7000 FEW018 SCT050 28/26 Q1008 NOSIG
ZGOW,2011-06-17 00:00,ZGOW 170000Z 13003MPS 8000 FEW007 FEW026TCU SCT050 29/26 Q1009 NOSIG
ZGOW,2011-06-17 01:00,ZGOW 170100Z 14003MPS 9999 SCT010 FEW026TCU 30/26 Q1009 NOSIG
ZGOW,2011-06-17 02:00,ZGOW 170200Z 16005MPS 9999 SCT010 FEW026TCU 30/25 Q1009 NOSIG
ZGOW,2011-06-17 03:00,ZGOW 170300Z 14004MPS 9999 SCT014 FEW026TCU 30/26 Q1009 NOSIG
ZGOW,2011-06-17 04:00,ZGOW 170400Z 14005MPS 9999 SCT014 FEW026CB 31/26 Q1009 TEMPO VRB08MPS 2100 TSRA SCT008 SCT030CB BKN040
ZGOW,2011-06-17 05:00,ZGOW 170500Z 14005MPS 9999 SCT014 SCT026CB 30/26 Q1009 TEMPO VRB08MPS 2100 TSRA SCT008 SCT030CB BKN040
ZGOW,2011-06-17 06:00,ZGOW 170600Z 13004MPS 9999 SCT014 SCT026CB 29/26 Q1008 TEMPO VRB08MPS 2100 TSRA SCT008 SCT030CB BKN040
ZGOW,2011-06-17 07:00,ZGOW 170700Z 12004MPS 9999 SCT014 SCT026CB 29/26 Q1008 TEMPO VRB08MPS 2100 TSRA SCT008 SCT030CB BKN040
ZGOW,2011-06-17 08:00,ZGOW 170800Z 11003MPS 9999 -SHRA SCT014 SCT026CB 28/25 Q1007 NOSIG
ZGOW,2011-06-17 09:00,ZGOW 170900Z 13001MPS 9999 SCT014 FEW026CB 28/26 Q1007 NOSIG
ZGOW,2011-06-17 10:00,ZGOW 171000Z 16002MPS 9999 SCT014 FEW026CB 28/26 Q1007 NOSIG
ZGOW,2011-06-17 11:00,ZGOW 171100Z 12002MPS 9999 SCT014 FEW026CB 28/26 Q1007 NOSIG
ZGOW,2011-06-17 12:00,ZGOW 171200Z 12002MPS 9999 SCT014 FEW026CB 28/26 Q1008 NOSIG
ZGOW,2011-06-17 13:00,ZGOW 171300Z 12001MPS 9999 FEW014 27/25 Q1008 NOSIG
ZGOW,2011-06-17 14:00,ZGOW 171400Z 10002MPS 9999 SCT014 27/26 Q1009 NOSIG
ZGOW,2011-06-17 15:00,ZGOW 171500Z 12002MPS 7000 FEW004 SCT012 27/25 Q1010 NOSIG
ZGOW,2011-06-17 16:00,ZGOW 171600Z 11002MPS 7000 FEW003 SCT012 27/25 Q1009 NOSIG
ZGOW,2011-06-17 17:00,ZGOW 171700Z 10002MPS 7000 FEW003 SCT012 27/25 Q1009 NOSIG
ZGOW,2011-06-17 18:00,ZGOW 171800Z 10001MPS 3000 BR FEW003 SCT012 26/25 Q1008 NOSIG
ZGOW,2011-06-17 19:00,ZGOW 171900Z AUTO 08001MPS 3000 // NCD 26/25 Q1008
ZGOW,2011-06-17 20:00,ZGOW 172000Z AUTO 09001MPS 4700 // ////// 27/25 Q1007
ZGOW,2011-06-17 21:00,ZGOW 172100Z 07001MPS 7000 FEW003 SCT012 27/25 Q1007 NOSIG
ZGOW,2011-06-17 22:00,ZGOW 172200Z 09001MPS 7000 SCT012 27/25 Q1008 NOSIG
ZGOW,2011-06-17 23:00,ZGOW 172300Z 12002MPS 9999 SCT012 28/26 Q1008 NOSIG
ZGOW,2011-06-18 00:00,ZGOW 180000Z 14003MPS 9999 SCT012 29/26 Q1008 NOSIG
ZGOW,2011-06-18 01:00,ZGOW 180100Z 16005MPS 9999 SCT012 FEW030CB 30/25 Q1008 TEMPO -SHRA
ZGOW,2011-06-18 02:00,ZGOW 180200Z 16005MPS 9999 SCT014 FEW030TCU 30/25 Q1008 NOSIG
ZGOW,2011-06-18 03:00,ZGOW 180300Z 16005MPS 9999 SCT016 31/25 Q1008 NOSIG
ZGOW,2011-06-18 04:00,ZGOW 180400Z 17005MPS 9999 SCT016 31/25 Q1008 NOSIG
ZGOW,2011-06-18 05:00,ZGOW 180500Z 17004MPS 9999 SCT020 32/26 Q1007 NOSIG
ZGOW,2011-06-18 06:00,ZGOW 180600Z 17004MPS 9999 SCT024 32/24 Q1007 NOSIG
ZGOW,2011-06-18 07:00,ZGOW 180700Z 14004MPS 9999 FEW022 FEW030CB 32/25 Q1006 NOSIG
ZGOW,2011-06-18 08:00,ZGOW 180800Z 15004MPS 9999 FEW022 FEW030TCU 31/25 Q1006 NOSIG
ZGOW,2011-06-18 09:00,ZGOW 180900Z 14004MPS 9999 FEW014 30/25 Q1005 NOSIG
ZGOW,2011-06-18 10:00,ZGOW 181000Z 12004MPS 9999 FEW014 30/25 Q1005 NOSIG
ZGOW,2011-06-18 11:00,ZGOW 181100Z 12003MPS 9999 FEW014 29/26 Q1006 NOSIG
ZGOW,2011-06-18 12:00,ZGOW 181200Z 12002MPS 9999 FEW012 28/25 Q1006 NOSIG
ZGOW,2011-06-18 13:00,ZGOW 181300Z 12003MPS 9999 FEW014 28/25 Q1007 NOSIG
ZGOW,2011-06-18 14:00,ZGOW 181400Z 11003MPS 9999 FEW014 28/25 Q1007 NOSIG
ZGOW,2011-06-18 15:00,ZGOW 181500Z 09001MPS 9999 FEW005 27/25 Q1007 NOSIG
ZGOW,2011-06-18 16:00,ZGOW 181600Z 08001MPS 9999 FEW006 SCT014 FEW030TCU 27/25 Q1007 NOSIG
ZGOW,2011-06-18 17:00,ZGOW 181700Z AUTO 08002MPS 9000 NCD 27/25 Q1006
ZGOW,2011-06-18 18:00,ZGOW 181800Z AUTO 08001MPS CAVOK 27/25 Q1006
ZGOW,2011-06-18 19:00,ZGOW 181900Z AUTO 09002MPS 9000 NCD 27/25 Q1005
ZGOW,2011-06-18 20:00,ZGOW 182000Z AUTO 09001MPS 8000 ////// 27/25 Q1005
ZGOW,2011-06-18 21:00,ZGOW 182100Z 09002MPS 9999 FEW014 27/25 Q1005 NOSIG
ZGOW,2011-06-18 22:00,ZGOW 182200Z 08001MPS 9999 FEW006 SCT040 27/25 Q1005 NOSIG
ZGOW,2011-06-18 23:00,ZGOW 182300Z 06003MPS 9999 FEW006 28/25 Q1006 NOSIG
ZGOW,2011-06-19 00:00,ZGOW 190000Z 10002MPS 9999 FEW014 29/25 Q1005 NOSIG
ZGOW,2011-06-19 01:00,ZGOW 190100Z 12003MPS 080V170 9999 SCT014 30/25 Q1006 NOSIG
ZGOW,2011-06-19 02:00,ZGOW 190200Z 12003MPS 070V160 9999 SCT016 31/25 Q1006 NOSIG
ZGOW,2011-06-19 03:00,ZGOW 190300Z 11004MPS 070V160 9999 SCT016 FEW030TCU 31/25 Q1006 NOSIG
ZGOW,2011-06-19 04:00,ZGOW 190400Z 12004MPS 9999 SCT016 FEW030TCU 31/26 Q1005 NOSIG
ZGOW,2011-06-19 05:00,ZGOW 190500Z 11004MPS 9999 SCT018 FEW030TCU 31/25 Q1005 NOSIG
ZGOW,2011-06-19 06:00,ZGOW 190600Z 12004MPS 9999 SCT022 FEW030TCU 31/25 Q1005 NOSIG
ZGOW,2011-06-19 07:00,ZGOW 190700Z 13005MPS 9999 FEW016 FEW030TCU 31/25 Q1004 NOSIG
ZGOW,2011-06-19 08:00,ZGOW 190800Z 13005MPS 9999 SCT020 FEW030TCU 31/25 Q1004 NOSIG
ZGOW,2011-06-19 09:00,ZGOW 190900Z 13005MPS 9999 SCT014 FEW030TCU 30/25 Q1005 NOSIG
ZGOW,2011-06-19 10:00,ZGOW 191000Z 13004MPS 9999 FEW010 FEW030TCU 29/26 Q1005 NOSIG
ZGOW,2011-06-19 11:00,ZGOW 191100Z 12004MPS 9999 SCT010 FEW030TCU 28/26 Q1005 NOSIG
ZGOW,2011-06-19 12:00,ZGOW 191200Z 09002MPS 9999 SCT007 28/25 Q1005 NOSIG
ZGOW,2011-06-19 13:00,ZGOW 191300Z 12002MPS 9999 SCT016 28/26 Q1006 NOSIG
ZGOW,2011-06-19 14:00,ZGOW 191400Z 10001MPS 9999 SCT016 28/25 Q1006 NOSIG
ZGOW,2011-06-19 15:00,ZGOW 191500Z 06001MPS 9999 SCT020 27/25 Q1006 NOSIG
ZGOW,2011-06-19 16:00,ZGOW 191600Z 10001MPS 9999 SCT016 28/25 Q1006 NOSIG
ZGOW,2011-06-19 17:00,ZGOW 191700Z 09001MPS 9999 SCT016 27/25 Q1005 NOSIG
ZGOW,2011-06-19 21:00,ZGOW 192100Z 32001MPS 5000 BR SCT016 27/25 Q1004 NOSIG
ZGOW,2011-06-19 22:00,ZGOW 192200Z 34002MPS 5000 BR FEW020 27/25 Q1005 NOSIG
ZGOW,2011-06-19 23:00,ZGOW 192300Z 34002MPS 6000 FEW025 28/25 Q1005 NOSIG
ZGOW,2011-06-20 00:00,ZGOW 200000Z 33002MPS 7000 FEW025 29/25 Q1005 NOSIG
ZGOW,2011-06-20 01:00,ZGOW 200100Z 32003MPS 9999 FEW020 31/24 Q1006 NOSIG
ZGOW,2011-06-20 02:00,ZGOW 200200Z 33002MPS 9999 SCT020 31/23 Q1006 NOSIG
ZGOW,2011-06-20 03:00,ZGOW 200300Z 05001MPS 9999 SCT020 33/25 Q1005 NOSIG
ZGOW,2011-06-20 04:00,ZGOW 200400Z 11001MPS 9999 SCT020 33/23 Q1005 NOSIG
ZGOW,2011-06-20 05:00,ZGOW 200500Z 13004MPS 9999 SCT020 33/25 Q1004 NOSIG
ZGOW,2011-06-20 06:00,ZGOW 200600Z 12003MPS 9999 FEW020 33/24 Q1004 NOSIG
ZGOW,2011-06-20 07:00,ZGOW 200700Z 12004MPS 9999 FEW020 32/25 Q1003 NOSIG
ZGOW,2011-06-20 08:00,ZGOW 200800Z 11005MPS 9999 FEW020 31/25 Q1003 NOSIG
ZGOW,2011-06-20 09:00,ZGOW 200900Z 10004MPS 9999 FEW020 31/24 Q1003 NOSIG
ZGOW,2011-06-20 10:00,ZGOW 201000Z 10005MPS 9999 FEW020 29/24 Q1003 NOSIG
ZGOW,2011-06-20 11:00,ZGOW 201100Z 11006MPS 9999 FEW020 28/24 Q1004 NOSIG
ZGOW,2011-06-20 12:00,ZGOW 201200Z 09005MPS 9999 FEW020 28/25 Q1005 NOSIG
ZGOW,2011-06-20 13:00,ZGOW 201300Z 10003MPS 9999 FEW020 28/25 Q1006 NOSIG
ZGOW,2011-06-20 14:00,ZGOW 201400Z 09003MPS 9999 FEW014 28/25 Q1007 NOSIG
ZGOW,2011-06-20 15:00,ZGOW 201500Z 06002MPS 9999 FEW014 27/24 Q1007 NOSIG
ZGOW,2011-06-20 16:00,ZGOW 201600Z 04003MPS 9999 FEW014 27/24 Q1006 NOSIG
ZGOW,2011-06-20 17:00,ZGOW 201700Z 08004MPS 9999 FEW014 28/24 Q1006 NOSIG
ZGOW,2011-06-20 18:00,ZGOW 201800Z AUTO 07003MPS 9999 ////// 27/24 Q1005
ZGOW,2011-06-20 19:00,ZGOW 201900Z AUTO 06004MPS 9999 ////// 27/24 Q1004
ZGOW,2011-06-20 20:00,ZGOW 202000Z AUTO 08004MPS 9999 ////// 27/24 Q1004
ZGOW,2011-06-20 21:00,ZGOW 202100Z 08005MPS 9999 SCT014 27/24 Q1004 NOSIG
ZGOW,2011-06-20 22:00,ZGOW 202200Z 06005MPS 9999 FEW014 27/24 Q1005 NOSIG
ZGOW,2011-06-20 23:00,ZGOW 202300Z 05007MPS 9999 FEW014 28/24 Q1005 NOSIG
ZGOW,2011-06-21 00:00,ZGOW 210000Z 07006MPS 9999 FEW014 29/24 Q1005 NOSIG
ZGOW,2011-06-21 01:00,ZGOW 210100Z 07007MPS 9999 FEW016 30/24 Q1005 NOSIG
ZGOW,2011-06-21 02:00,ZGOW 210200Z 08006MPS 9999 SCT020 SCT040 30/24 Q1005 NOSIG
ZGOW,2011-06-21 03:00,ZGOW 210300Z 08007MPS 9999 SCT020 FEW032TCU SCT050 31/25 Q1005 NOSIG
ZGOW,2011-06-21 04:00,ZGOW 210400Z 09004MPS 9999 SCT024 FEW033TCU BKN050 30/24 Q1005 NOSIG
ZGOW,2011-06-21 05:00,ZGOW 210500Z 08007MPS 9999 FEW024 FEW033TCU 31/24 Q1004 NOSIG
ZGOW,2011-06-21 06:00,ZGOW 210600Z 12008MPS 080V150 9999 FEW024 FEW033CB BKN050 30/24 Q1004 TEMPO 10008G13MPS 2800 -SHRA
ZGOW,2011-06-21 07:00,ZGOW 210700Z 10005MPS 9999 FEW026 FEW033CB 29/23 Q1004 TEMPO 10008G13MPS 2800 -SHRA
ZGOW,2011-06-21 08:00,ZGOW 210800Z 09007MPS 9999 SCT025 FEW033CB BKN043 28/23 Q1003 TEMPO 2500 SHRA
ZGOW,2011-06-21 09:00,ZGOW 210900Z 08006MPS 9999 SCT016 FEW033CB BKN050 28/24 Q1004 TEMPO 2800 -SHRA
ZGOW,2011-06-21 10:00,ZGOW 211000Z 06006MPS 9999 SCT018 BKN050 27/23 Q1004 NOSIG
ZGOW,2011-06-21 11:00,ZGOW 211100Z 07006MPS 9999 FEW020 FEW033TCU 27/24 Q1004 NOSIG
ZGOW,2011-06-21 12:00,ZGOW 211200Z 07008MPS 9999 -SHRA SCT020 FEW033CB BKN050 27/24 Q1004 TEMPO 2500 SHRA
ZGOW,2011-06-21 13:00,ZGOW 211300Z 08005MPS 9999 -SHRA SCT020 FEW033CB BKN050 27/24 Q1004 TEMPO 2500 SHRA
ZGOW,2011-06-21 14:00,ZGOW 211400Z 07006MPS 9999 SCT020 FEW033CB BKN050 27/24 Q1005 TEMPO 2500 SHRA
ZGOW,2011-06-21 15:00,ZGOW 211500Z 07007G12MPS 4000 SHRA SCT013 SCT033CB BKN040 26/24 Q1005 RETS NOSIG
ZGOW,2011-06-21 16:00,ZGOW 211600Z 12005MPS 080V170 8000 -SHRA SCT012 FEW033CB BKN040 26/25 Q1005 RESHRA NOSIG
ZGOW,2011-06-21 17:00,ZGOW 211700Z 12009G15MPS 2500 R04/0800VP2000U SHRA SCT012 SCT033CB BKN040 25/24 Q1004 RESHRA TEMPO 1400 TSRA
ZGOW,2011-06-21 18:00,ZGOW 211800Z 10004MPS 6000 -SHRA SCT015 FEW033CB BKN040 26/24 Q1004 RESHRA TEMPO VRB07G12MPS 2500 TSRA
ZGOW,2011-06-21 19:00,ZGOW 211900Z AUTO 10005MPS CAVOK 26/24 Q1003
ZGOW,2011-06-21 20:00,ZGOW 212000Z AUTO 10005MPS CAVOK 26/24 Q1003
ZGOW,2011-06-21 21:00,ZGOW 212100Z 09005MPS 9999 -SHRA SCT015 FEW033CB BKN040 26/24 Q1003 NOSIG
ZGOW,2011-06-21 22:00,ZGOW 212200Z 09005MPS 9999 SHRA SCT010 FEW033CB BKN040 26/25 Q1003 NOSIG
ZGOW,2011-06-21 23:00,ZGOW 212300Z 10007MPS 9999 -SHRA SCT012 FEW033TCU BKN050 26/24 Q1003 RESHRA TEMPO 10008G13MPS
ZGOW,2011-06-22 00:00,ZGOW 220000Z 09005MPS 9999 SCT012 FEW033TCU OVC050 27/24 Q1003 NOSIG
ZGOW,2011-06-22 01:00,ZGOW 220100Z 10008MPS 9999 SCT018 FEW030CB BKN050 28/25 Q1004 NOSIG
ZGOW,2011-06-22 02:00,ZGOW 220200Z 10007MPS 9999 SCT010 FEW030TCU 28/24 Q1003 NOSIG
ZGOW,2011-06-22 03:00,ZGOW 220300Z 10007MPS 9999 SCT012 FEW030TCU BKN043 30/25 Q1003 NOSIG
ZGOW,2011-06-22 04:00,ZGOW 220400Z 10008MPS 9999 SCT012 FEW028CB BKN050 29/25 Q1003 NOSIG
ZGOW,2011-06-22 05:00,ZGOW 220500Z 12007G12MPS 9999 SCT010 FEW028CB SCT050 28/26 Q1002 RESHRA TEMPO 2100 TSRA
ZGOW,2011-06-22 06:00,ZGOW 220600Z 10008G13MPS 9999 SCT010 FEW028CB SCT050 28/24 Q1002 TEMPO 2100 TSRA
ZGOW,2011-06-22 07:00,ZGOW 220700Z 10008G13MPS 9999 SCT014 SCT030CB BKN050 28/25 Q1002 TEMPO 2100 TSRA
ZGOW,2011-06-22 08:00,ZGOW 220800Z 11006G11MPS 5000 SHRA SCT012 SCT028CB BKN040 27/25 Q1002 TEMPO 2100 TSRA
ZGOW,2011-06-22 09:00,ZGOW 220900Z 10006MPS 7000 SHRA SCT007 SCT028CB BKN040 27/25 Q1002 TEMPO 2100 TSRA
ZGOW,2011-06-22 10:00,ZGOW 221000Z 13010G15MPS 2000 TSRA SCT005 SCT017 SCT028CB OVC040 25/24 Q1002 TEMPO VRB10G15MPS 1200 TSRA
ZGOW,2011-06-22 12:00,ZGOW 221200Z 12008G13MPS 9999 -SHRA SCT008 FEW028CB OVC040 26/24 Q1004 RESHRA NOSIG
ZGOW,2011-06-22 13:00,ZGOW 221300Z 12006MPS 9999 FEW010 FEW030TCU SCT030 26/24 Q1004 NOSIG
ZGOW,2011-06-22 14:00,ZGOW 221400Z 10005MPS 9999 FEW012 SCT050 26/24 Q1004 NOSIG
ZGOW,2011-06-22 15:00,ZGOW 221500Z 09005MPS 9999 FEW012 SCT050 27/24 Q1004 NOSIG
ZGOW,2011-06-22 16:00,ZGOW 221600Z 10003MPS 9999 SCT016 FEW030CB BKN040 27/24 Q1004 NOSIG
ZGOW,2011-06-22 17:00,ZGOW 221700Z AUTO 11004MPS 9999 ////// 27/24 Q1003
ZGOW,2011-06-22 18:00,ZGOW 221800Z AUTO 11004MPS 9999 ////// 27/25 Q1002
ZGOW,2011-06-22 19:00,ZGOW 221900Z AUTO 11004MPS CAVOK 27/25 Q1002
ZGOW,2011-06-22 20:00,ZGOW 222000Z AUTO 10004MPS 9999 ////// 27/25 Q1001
ZGOW,2011-06-22 21:00,ZGOW 222100Z 11005MPS 9999 SCT016 FEW030CB BKN050 27/24 Q1001 NOSIG
ZGOW,2011-06-22 22:00,ZGOW 222200Z 12005MPS 9999 SCT016 FEW033CB SCT033 27/25 Q1002 NOSIG
ZGOW,2011-06-22 23:00,ZGOW 222300Z 12005MPS 5000 -SHRA SCT014 FEW030CB BKN040 28/25 Q1002 NOSIG
ZGOW,2011-06-23 00:00,ZGOW 230000Z 12005MPS 9999 SCT016 FEW030CB BKN050 28/25 Q1002 NOSIG
ZGOW,2011-06-23 01:00,ZGOW 230100Z 13006MPS 9999 SCT014 FEW030CB 29/26 Q1003 NOSIG
ZGOW,2011-06-23 02:00,ZGOW 230200Z 12005MPS 9999 SCT012 FEW030CB 30/26 Q1003 NOSIG
ZGOW,2011-06-23 03:00,ZGOW 230300Z 14006MPS 9999 SCT012 FEW030CB 30/26 Q1003 NOSIG
ZGOW,2011-06-23 05:00,ZGOW 230500Z 13006MPS 9999 FEW018 FEW030CB 31/26 Q1002 NOSIG
ZGOW,2011-06-23 06:00,ZGOW 230600Z 11007MPS 9999 SCT014 FEW030CB 30/25 Q1002 NOSIG
ZGOW,2011-06-23 07:00,ZGOW 230700Z 13006MPS 9999 SCT014 FEW030CB 30/25 Q1002 NOSIG
ZGOW,2011-06-23 08:00,ZGOW 230800Z 13005MPS 9999 SCT014 FEW030TCU 30/25 Q1001 NOSIG
ZGOW,2011-06-23 09:00,ZGOW 230900Z 10005MPS 9999 SCT014 FEW030TCU 28/24 Q1001 NOSIG
ZGOW,2011-06-23 10:00,ZGOW 231000Z 10003MPS 9999 SCT014 FEW030TCU 29/25 Q1001 NOSIG
ZGOW,2011-06-23 11:00,ZGOW 231100Z 09003MPS 9999 FEW014 FEW030TCU 28/25 Q1002 NOSIG
ZGOW,2011-06-23 12:00,ZGOW 231200Z 09002MPS 9999 FEW014 FEW030TCU 28/25 Q1002 NOSIG
ZGOW,2011-06-23 13:00,ZGOW 231300Z 08001MPS 9999 FEW020 FEW030TCU 27/24 Q1002 NOSIG
ZGOW,2011-06-23 14:00,ZGOW 231400Z 07001MPS 9999 FEW020 27/24 Q1003 NOSIG
ZGOW,2011-06-23 15:00,ZGOW 231500Z 07002MPS 9999 FEW020 27/24 Q1002 NOSIG
ZGOW,2011-06-23 16:00,ZGOW 231600Z 06001MPS 7000 SCT026 27/24 Q1002 NOSIG
ZGOW,2011-06-23 17:00,ZGOW 231700Z 04002MPS 7000 FEW026 26/24 Q1001 NOSIG
ZGOW,2011-06-23 18:00,ZGOW 231800Z 31001MPS 7000 FEW026 27/24 Q1000 NOSIG
ZGOW,2011-06-23 19:00,ZGOW 231900Z 31002MPS 7000 FEW026 26/24 Q1000 NOSIG
ZGOW,2011-06-23 20:00,ZGOW 232000Z 31002MPS 7000 NSC 26/24 Q1000 NOSIG
ZGOW,2011-06-23 21:00,ZGOW 232100Z 32002MPS 9999 NSC 26/23 Q1000 NOSIG
ZGOW,2011-06-23 22:00,ZGOW 232200Z 32002MPS CAVOK 26/24 Q1000 NOSIG
ZGOW,2011-06-23 23:00,ZGOW 232300Z 32002MPS CAVOK 27/24 Q1000 NOSIG
ZGOW,2011-06-24 00:00,ZGOW 240000Z 35002MPS CAVOK 28/23 Q1000 NOSIG
ZGOW,2011-06-24 01:00,ZGOW 240100Z 31002MPS CAVOK 30/24 Q1000 NOSIG
ZGOW,2011-06-24 02:00,ZGOW 240200Z 30003MPS CAVOK 31/23 Q1000 BECMG TL0300 10005MPS
ZGOW,2011-06-24 03:00,ZGOW 240300Z 28004MPS 9999 FEW025 32/23 Q1000 NOSIG
ZGOW,2011-06-24 04:00,ZGOW 240400Z 32002MPS 9999 SCT025 33/22 Q1000 NOSIG
ZGOW,2011-06-24 05:00,ZGOW 240500Z 30002MPS 9999 SCT025 34/23 Q0999 NOSIG
ZGOW,2011-06-24 06:00,ZGOW 240600Z 26004MPS 210V330 9999 FEW025 FEW030TCU 35/23 Q0998 NOSIG
ZGOW,2011-06-24 07:00,ZGOW 240700Z 26004MPS 210V320 9999 FEW025 FEW030TCU 35/22 Q0998 NOSIG
ZGOW,2011-06-24 08:00,ZGOW 240800Z 25005MPS 220V290 9999 FEW026 35/22 Q0997 NOSIG
ZGOW,2011-06-24 09:00,ZGOW 240900Z 25005MPS 9999 FEW030TCU 35/22 Q0996 NOSIG
ZGOW,2011-06-24 10:00,ZGOW 241000Z 26005MPS 9999 FEW030TCU 34/23 Q0997 NOSIG
ZGOW,2011-06-24 11:00,ZGOW 241100Z 25003MPS 9999 FEW030TCU 33/23 Q0998 NOSIG
ZGOW,2011-06-24 12:00,ZGOW 241200Z 25003MPS 9999 FEW030TCU 32/25 Q0998 NOSIG
ZGOW,2011-06-24 13:00,ZGOW 241300Z 24003MPS 9999 FEW030TCU 31/24 Q0999 NOSIG
ZGOW,2011-06-24 14:00,ZGOW 241400Z 25003MPS 9999 FEW025 31/24 Q0999 NOSIG
ZGOW,2011-06-24 15:00,ZGOW 241500Z 22002MPS CAVOK 30/24 Q0999 NOSIG
ZGOW,2011-06-24 16:00,ZGOW 241600Z 27001MPS CAVOK 30/24 Q0999 NOSIG
ZGOW,2011-06-24 17:00,ZGOW 241700Z 03002MPS 9999 FEW020 FEW030TCU 28/25 Q0999 NOSIG
ZGOW,2011-06-24 18:00,ZGOW 241800Z 04001MPS 9999 FEW020 FEW030TCU 28/25 Q0998 NOSIG
ZGOW,2011-06-24 19:00,ZGOW 241900Z AUTO 27001MPS CAVOK 28/24 Q0998
ZGOW,2011-06-24 20:00,ZGOW 242000Z AUTO 29001MPS CAVOK 28/23 Q0998
ZGOW,2011-06-24 21:00,ZGOW 242100Z 27002MPS 9999 FEW020 28/23 Q0998 NOSIG
ZGOW,2011-06-24 22:00,ZGOW 242200Z 30002MPS 9999 FEW020 28/22 Q0998 NOSIG
ZGOW,2011-06-24 23:00,ZGOW 242300Z 28002MPS CAVOK 29/23 Q0998 NOSIG
ZGOW,2011-06-25 00:00,ZGOW 250000Z 28002MPS CAVOK 30/23 Q0999 NOSIG
ZGOW,2011-06-25 01:00,ZGOW 250100Z 27003MPS CAVOK 32/24 Q1000 NOSIG
ZGOW,2011-06-25 02:00,ZGOW 250200Z 27003MPS CAVOK 32/23 Q0999 NOSIG
ZGOW,2011-06-25 03:00,ZGOW 250300Z 26003MPS CAVOK 34/24 Q0999 NOSIG
ZGOW,2011-06-25 04:00,ZGOW 250400Z 22004MPS CAVOK 35/22 Q0999 NOSIG
ZGOW,2011-06-25 05:00,ZGOW 250500Z 22004MPS CAVOK 35/20 Q0998 NOSIG
ZGOW,2011-06-25 06:00,ZGOW 250600Z 21004MPS 9999 FEW026TCU SCT043 35/24 Q0997 NOSIG
ZGOW,2011-06-25 07:00,ZGOW 250700Z 20005MPS 9999 FEW026TCU 35/25 Q0997 NOSIG
ZGOW,2011-06-25 08:00,ZGOW 250800Z 21006MPS 9999 FEW026TCU 35/24 Q0996 NOSIG
ZGOW,2011-06-25 09:00,ZGOW 250900Z 21005MPS 9999 FEW026TCU 33/24 Q0997 NOSIG
ZGOW,2011-06-25 10:00,ZGOW 251000Z 21005MPS 9999 FEW026TCU 32/24 Q0997 NOSIG
ZGOW,2011-06-25 11:00,ZGOW 251100Z 21005MPS 9999 FEW033CB FEW033 31/24 Q0999 TEMPO FM1200 2500 -TSRA SCT011 SCT030CB BKN033
ZGOW,2011-06-25 12:00,ZGOW 251200Z 19004MPS 9999 FEW030CB SCT050 30/24 Q0999 TEMPO FM1300 2500 -TSRA SCT011 SCT030CB BKN033
ZGOW,2011-06-25 13:00,ZGOW 251300Z 24003MPS 9999 SCT030CB BKN040 30/24 Q1001 TEMPO FM1400 2500 -TSRA SCT011 SCT030CB BKN033
ZGOW,2011-06-25 14:00,ZGOW 251400Z 32004MPS 8000 -TSRA SCT020 SCT028CB BKN040 27/23 Q1002 TEMPO 2000 TSRA
ZGOW,2011-06-25 15:00,ZGOW 251500Z 35002MPS 1400 R22/1600VP2000U +TSRA SCT003 BKN016 SCT028CB OVC033 25/24 Q1003 NOSIG
ZGOW,2011-06-25 16:00,ZGOW 251600Z 27004MPS 3000 TSRA SCT010 BKN020 SCT030CB OVC046 25/24 Q1002 NOSIG
ZGOW,2011-06-25 17:00,ZGOW 251700Z 23004MPS 7000 -TSRA SCT016 SCT030CB BKN046 25/23 Q1003 RESHRA NOSIG
ZGOW,2011-06-25 18:00,ZGOW 251800Z 34001MPS 8000 -SHRA SCT016 SCT030CB BKN046 25/23 Q1002 RETS NOSIG
ZGOW,2011-06-25 19:00,ZGOW 251900Z 29001MPS 8000 -SHRA SCT012 SCT030CB BKN046 25/23 Q1002 NOSIG
ZGOW,2011-06-25 20:00,ZGOW 252000Z 31003MPS 6000 -SHRA SCT020 FEW030CB BKN046 26/24 Q1002 NOSIG
ZGOW,2011-06-25 21:00,ZGOW 252100Z 32002MPS 8000 -SHRA SCT020 FEW030CB BKN046 25/23 Q1002 NOSIG
ZGOW,2011-06-25 22:00,ZGOW 252200Z 27002MPS 7000 -SHRA FEW020 FEW030TCU BKN050 26/24 Q1002 NOSIG
ZGOW,2011-06-25 23:00,ZGOW 252300Z 33002MPS 9999 FEW007 FEW030TCU SCT030 26/24 Q1003 NOSIG
ZGOW,2011-06-26 00:00,ZGOW 260000Z 29003MPS 9999 FEW007 FEW030TCU 27/24 Q1003 NOSIG
ZGOW,2011-06-26 01:00,ZGOW 260100Z 28003MPS 9999 FEW012 FEW030TCU 29/24 Q1003 NOSIG
ZGOW,2011-06-26 02:00,ZGOW 260200Z 31003MPS 9999 FEW012 FEW030TCU 29/23 Q1003 NOSIG
ZGOW,2011-06-26 03:00,ZGOW 260300Z 33002MPS 9999 FEW012 FEW030TCU 31/24 Q1003 NOSIG
ZGOW,2011-06-26 04:00,ZGOW 260400Z 30002MPS 9999 FEW012 FEW030TCU 31/23 Q1003 NOSIG
ZGOW,2011-06-26 05:00,ZGOW 260500Z 18001MPS 9999 FEW012 FEW030TCU 32/26 Q1002 NOSIG
ZGOW,2011-06-26 06:00,ZGOW 260600Z 18004MPS 9999 FEW012 FEW030TCU 32/25 Q1002 NOSIG
ZGOW,2011-06-26 07:00,ZGOW 260700Z 17005MPS 9999 FEW012 FEW030TCU 30/24 Q1002 NOSIG
ZGOW,2011-06-26 08:00,ZGOW 260800Z 18005MPS 9999 FEW014 FEW030CB 31/24 Q1001 NOSIG
ZGOW,2011-06-26 09:00,ZGOW 260900Z 19004MPS 9999 FEW014 FEW030CB 30/25 Q1002 NOSIG
ZGOW,2011-06-26 10:00,ZGOW 261000Z 21003MPS 9999 FEW014 FEW030CB 30/25 Q1002 NOSIG
ZGOW,2011-06-26 11:00,ZGOW 261100Z 28003MPS 9999 -SHRA FEW014 FEW030CB SCT033 29/25 Q1003 NOSIG
ZGOW,2011-06-26 12:00,ZGOW 261200Z 32003MPS 9999 FEW014 FEW030CB 27/24 Q1004 NOSIG
ZGOW,2011-06-26 13:00,ZGOW 261300Z 32001MPS 9999 FEW020 FEW030TCU 27/24 Q1004 NOSIG
ZGOW,2011-06-26 14:00,ZGOW 261400Z 32002MPS 9999 FEW020 FEW030TCU 27/24 Q1004 NOSIG
ZGOW,2011-06-26 15:00,ZGOW 261500Z 32001MPS 7000 NSC 27/24 Q1005 NOSIG
ZGOW,2011-06-26 16:00,ZGOW 261600Z 30002MPS 7000 NSC 27/24 Q1004 NOSIG
ZGOW,2011-06-26 17:00,ZGOW 261700Z AUTO 30001MPS 7000 NCD 27/24 Q1004
ZGOW,2011-06-26 18:00,ZGOW 261800Z AUTO 29001MPS 5000 NCD 27/24 Q1003
ZGOW,2011-06-26 19:00,ZGOW 261900Z AUTO 30002MPS 6000 NCD 26/24 Q1003
ZGOW,2011-06-26 21:00,ZGOW 262100Z 00000MPS 6000 SCT023 26/24 Q1003 NOSIG
ZGOW,2011-06-26 22:00,ZGOW 262200Z 00000MPS 4000 BR SCT023 26/24 Q1004 NOSIG
ZGOW,2011-06-26 23:00,ZGOW 262300Z 32001MPS 4000 BR FEW009 SCT023 27/24 Q1004 NOSIG
ZGOW,2011-06-27 00:00,ZGOW 270000Z 36001MPS 4000 BR FEW009 SCT020 28/24 Q1004 NOSIG
ZGOW,2011-06-27 01:00,ZGOW 270100Z 25001MPS 5000 BR SCT014 29/24 Q1005 NOSIG
ZGOW,2011-06-27 02:00,ZGOW 270200Z 34001MPS 5000 BR SCT020 31/24 Q1004 NOSIG
ZGOW,2011-06-27 03:00,ZGOW 270300Z 11002MPS 4000 BR SCT016 FEW026TCU 30/25 Q1004 NOSIG
ZGOW,2011-06-27 04:00,ZGOW 270400Z 13003MPS 4000 BR SCT016 FEW028CB 31/26 Q1004 TEMPO VRB07MPS 2500 -TSRA
ZGOW,2011-06-27 05:00,ZGOW 270500Z 15005MPS 4000 HZ FEW016 FEW028CB 31/25 Q1003 TEMPO VRB07MPS 2500 -TSRA
ZGOW,2011-06-27 06:00,ZGOW 270600Z 17006MPS 7000 FEW016 FEW028CB 31/25 Q1003 TEMPO VRB07MPS 2500 -TSRA
ZGOW,2011-06-27 07:00,ZGOW 270700Z 19006MPS 7000 SCT016 FEW030CB 31/25 Q1002 TEMPO VRB07MPS 2500 -TSRA
ZGOW,2011-06-27 08:00,ZGOW 270800Z 20007MPS 9999 SCT014 FEW030CB 29/25 Q1003 TEMPO VRB07MPS 2500 -TSRA
ZGOW,2011-06-27 09:00,ZGOW 270900Z 21005MPS 9999 SCT016 FEW030CB BKN050 29/24 Q1003 TEMPO VRB07MPS 2500 -TSRA
ZGOW,2011-06-27 10:00,ZGOW 271000Z 22005MPS 9999 SCT018 FEW030CB BKN043 29/24 Q1003 TEMPO VRB07MPS 2500 -TSRA
ZGOW,2011-06-27 11:00,ZGOW 271100Z 25003MPS 9999 SCT018 FEW028CB BKN043 28/24 Q1004 NOSIG
ZGOW,2011-06-27 12:00,ZGOW 271200Z 25002MPS 9999 FEW018 FEW026TCU SCT043 28/23 Q1004 NOSIG
ZGOW,2011-06-27 13:00,ZGOW 271300Z 25002MPS 9999 FEW018 FEW026TCU 28/23 Q1005 NOSIG
ZGOW,2011-06-27 14:00,ZGOW 271400Z 25002MPS 9999 FEW018 28/24 Q1005 NOSIG
ZGOW,2011-06-27 15:00,ZGOW 271500Z 26002MPS 7000 FEW018 FEW026TCU 28/24 Q1006 NOSIG
ZGOW,2011-06-27 16:00,ZGOW 271600Z 24002MPS 7000 SCT018 FEW026TCU 28/24 Q1005 NOSIG
ZGOW,2011-06-27 17:00,ZGOW 271700Z 25002MPS 7000 SCT014 FEW026TCU 27/24 Q1005 NOSIG
ZGOW,2011-06-27 18:00,ZGOW 271800Z AUTO 29002MPS 9999 ////// 27/24 Q1004
ZGOW,2011-06-27 19:00,ZGOW 271900Z AUTO 27001MPS 8000 ////// 27/24 Q1004
ZGOW,2011-06-27 20:00,ZGOW 272000Z AUTO 26001MPS 5000 ////// 27/24 Q1004
ZGOW,2011-06-27 21:00,ZGOW 272100Z 31001MPS 5000 BR FEW030TCU FEW030 27/24 Q1004 NOSIG
ZGOW,2011-06-27 22:00,ZGOW 272200Z 35001MPS 5000 BR SCT040 27/24 Q1004 NOSIG
ZGOW,2011-06-27 23:00,ZGOW 272300Z 01001MPS 5000 BR SCT040 28/24 Q1005 NOSIG
ZGOW,2011-06-28 00:00,ZGOW 280000Z 21001MPS 4000 BR SCT018 29/24 Q1005 NOSIG
ZGOW,2011-06-28 01:00,ZGOW 280100Z 23003MPS 7000 SCT020 FEW030TCU 30/24 Q1005 NOSIG
ZGOW,2011-06-28 02:00,ZGOW 280200Z 19002MPS 8000 SCT025 FEW033CB 31/25 Q1005 TEMPO 2500 SHRA
ZGOW,2011-06-28 03:00,ZGOW 280300Z 19007G16MPS 5000 TSRA SCT012 SCT030CB BKN050 27/24 Q1005 TEMPO 1500 TSRA
ZGOW,2011-06-28 04:00,ZGOW 280400Z 23004MPS 7000 -TSRA SCT010 SCT030CB BKN050 25/23 Q1005 TEMPO 1500 TSRA
ZGOW,2011-06-28 05:00,ZGOW 280500Z 22005MPS 9999 -SHRA SCT014 FEW030CB 26/23 Q1005 RETS TEMPO 1500 TSRA
ZGOW,2011-06-28 06:00,ZGOW 280600Z 23004MPS 9999 SCT018 FEW033TCU 27/23 Q1004 TEMPO 2100 SHRA
ZGOW,2011-06-28 07:00,ZGOW 280700Z 22006MPS 9999 -SHRA SCT018 FEW033CB BKN043 27/24 Q1005 TEMPO 2100 SHRA
ZGOW,2011-06-28 08:00,ZGOW 280800Z 23004MPS 9999 SCT020 FEW033CB BKN050 28/23 Q1004 TEMPO 2100 SHRA
ZGOW,2011-06-28 09:00,ZGOW 280900Z 21003MPS 9999 SCT020 FEW033TCU BKN050 27/23 Q1005 TEMPO 2100 SHRA
ZGOW,2011-06-28 10:00,ZGOW 281000Z 15003MPS 9999 SCT020 FEW033TCU 26/24 Q1005 TEMPO 2100 SHRA
ZGOW,2011-06-28 11:00,ZGOW 281100Z 18002MPS 4000 FU FEW025 FEW033TCU 26/23 Q1005 NOSIG
ZGOW,2011-06-28 12:00,ZGOW 281200Z 17001MPS 9000 FEW025 FEW033TCU 27/23 Q1006 NOSIG
ZGOW,2011-06-28 13:00,ZGOW 281300Z 19002MPS 8000 SCT026 FEW033CB BKN050 26/23 Q1007 TEMPO 2100 SHRA
ZGOW,2011-06-28 14:00,ZGOW 281400Z 17002MPS 9999 SCT020 FEW033CB BKN050 25/23 Q1007 NOSIG
ZGOW,2011-06-28 15:00,ZGOW 281500Z 00000MPS 9999 SCT020 SCT033CB BKN043 25/24 Q1007 TEMPO 2000 TSRA
ZGOW,2011-06-28 16:00,ZGOW 281600Z 17002MPS 4000 -SHRA SCT010 SCT033CB BKN040 26/23 Q1008 TEMPO 2000 TSRA
ZGOW,2011-06-28 17:00,ZGOW 281700Z 17002MPS 7000 -SHRA SCT015 FEW033CB BKN050 24/23 Q1007 RESHRA TEMPO 2100 -TSRA
ZGOW,2011-06-28 18:00,ZGOW 281800Z 12001MPS 6000 -SHRA SCT012 FEW033TCU BKN050 25/23 Q1007 TEMPO 2500 SHRA
ZGOW,2011-06-28 19:00,ZGOW 281900Z AUTO 12002MPS 8000 NCD 24/23 Q1007
ZGOW,2011-06-28 20:00,ZGOW 282000Z AUTO 10001MPS 5000 ////// 24/23 Q1007
ZGOW,2011-06-28 21:00,ZGOW 282100Z 06002MPS 4000 BR SCT012 BKN040 25/23 Q1007 NOSIG
ZGOW,2011-06-28 22:00,ZGOW 282200Z 07002MPS 3500 BR SCT012 BKN040 25/24 Q1007 NOSIG
ZGOW,2011-06-28 23:00,ZGOW 282300Z 10002MPS 3500 -SHRA SCT004 FEW030TCU BKN040 25/24 Q1008 NOSIG
ZGOW,2011-06-29 00:00,ZGOW 290000Z 14002MPS 5000 -SHRA SCT010 FEW030TCU BKN036 26/25 Q1008 NOSIG
ZGOW,2011-06-29 01:00,ZGOW 290100Z 13002MPS 4000 R04/1400VP2000D -SHRA SCT010 FEW030CB BKN036 27/25 Q1008 TEMPO 1800 +SHRA SCT007 SCT030CB BKN033
ZGOW,2011-06-29 02:00,ZGOW 290200Z 14003MPS 7000 -SHRA SCT010 FEW030CB BKN050 27/25 Q1009 NOSIG
ZGOW,2011-06-29 03:00,ZGOW 290300Z 16004MPS 7000 SCT010 FEW030CB BKN050 28/25 Q1009 NOSIG
ZGOW,2011-06-29 04:00,ZGOW 290400Z 15004MPS 7000 SCT010 FEW030CB BKN050 29/25 Q1008 NOSIG
ZGOW,2011-06-29 05:00,ZGOW 290500Z 12004MPS 5000 -SHRA BR SCT007 FEW030CB BKN050 28/25 Q1008 NOSIG
ZGOW,2011-06-29 06:00,ZGOW 290600Z 16002MPS 6000 -SHRA SCT007 SCT030CB BKN050 27/25 Q1008 RESHRA TEMPO 1500 TSRA SCT007 SCT030CB BKN033
ZGOW,2011-06-29 07:00,ZGOW 290700Z 15004MPS 8000 SCT010 FEW030CB 28/25 Q1007 TEMPO 1500 TSRA SCT007 SCT030CB BKN033
ZGOW,2011-06-29 08:00,ZGOW 290800Z 15004MPS 9999 SCT010 FEW030CB 28/25 Q1007 NOSIG
ZGOW,2011-06-29 09:00,ZGOW 290900Z 14004MPS 9999 SCT010 SCT030CB 27/25 Q1007 NOSIG
ZGOW,2011-06-29 10:00,ZGOW 291000Z 16003MPS 7000 SCT010 SCT030CB 28/25 Q1007 NOSIG
ZGOW,2011-06-29 11:00,ZGOW 291100Z 16004MPS 5000 BR SCT010 SCT030CB 27/25 Q1008 TEMPO 1800 TSRA SCT007 SCT030CB BKN033
ZGOW,2011-06-29 12:00,ZGOW 291200Z 17003MPS 7000 -SHRA SCT010 SCT030CB 27/25 Q1008 TEMPO 1800 TSRA SCT007 SCT030CB BKN033
ZGOW,2011-06-29 13:00,ZGOW 291300Z 18002MPS 9999 SCT014 FEW030CB 26/24 Q1009 RESHRA NOSIG
ZGOW,2011-06-29 14:00,ZGOW 291400Z 35001MPS 9999 SCT010 FEW030CB 26/24 Q1009 NOSIG
ZGOW,2011-06-29 15:00,ZGOW 291500Z 12002MPS 5000 BR SCT014 FEW030TCU 26/25 Q1010 NOSIG
ZGOW,2011-06-29 16:00,ZGOW 291600Z 17002MPS 3500 -SHRA SCT007 FEW030CB 26/25 Q1010 NOSIG
ZGOW,2011-06-29 17:00,ZGOW 291700Z 16003MPS 7000 SCT007 FEW030CB 26/24 Q1009 NOSIG
ZGOW,2011-06-29 18:00,ZGOW 291800Z AUTO 17003MPS 5000 R04/1400VP2000D ////// 26/24 Q1009
ZGOW,2011-06-29 19:00,ZGOW 291900Z AUTO 15001MPS 7000 NCD 26/24 Q1008
ZGOW,2011-06-29 20:00,ZGOW 292000Z AUTO 12002MPS 4500 // ////// 26/24 Q1008
ZGOW,2011-06-29 21:00,ZGOW 292100Z 14002MPS 5000 BR SCT014 FEW030TCU 26/24 Q1009 NOSIG
ZGOW,2011-06-29 22:00,ZGOW 292200Z 11001MPS 5000 BR SCT014 FEW030TCU 26/24 Q1009 NOSIG
ZGOW,2011-06-29 23:00,ZGOW 292300Z 14001MPS 6000 SCT014 FEW030TCU 26/25 Q1010 NOSIG
ZGOW,2011-06-30 00:00,ZGOW 300000Z 15003MPS 9999 SCT014 FEW030TCU 28/25 Q1010 NOSIG
ZGOW,2011-06-30 01:00,ZGOW 300100Z 14004MPS 9999 SCT012 FEW030CB 29/25 Q1010 NOSIG
ZGOW,2011-06-30 02:00,ZGOW 300200Z 12004MPS 9999 SCT012 FEW030TCU 29/25 Q1010 NOSIG
ZGOW,2011-06-30 03:00,ZGOW 300300Z 13005MPS 9999 SCT012 FEW030TCU 30/26 Q1010 NOSIG
ZGOW,2011-06-30 04:00,ZGOW 300400Z 12005MPS 9999 SCT012 FEW030CB 29/25 Q1009 NOSIG
ZGOW,2011-06-30 05:00,ZGOW 300500Z 13005MPS 9999 SCT012 FEW030CB 30/25 Q1009 TEMPO -TSRA
ZGOW,2011-06-30 06:00,ZGOW 300600Z 14006MPS 9999 SCT012 FEW030CB 30/25 Q1009 TEMPO -TSRA
ZGOW,2011-06-30 07:00,ZGOW 300700Z 16005MPS 9999 SCT012 FEW030CB 30/25 Q1009 NOSIG
ZGOW,2011-06-30 08:00,ZGOW 300800Z 17006MPS 9999 SCT012 FEW030CB 30/23 Q1009 NOSIG
ZGOW,2011-06-30 09:00,ZGOW 300900Z 16005MPS 9999 SCT018 FEW030CB 30/24 Q1008 NOSIG
ZGOW,2011-06-30 10:00,ZGOW 301000Z 16004MPS 9999 SCT018 FEW030CB 28/25 Q1009 NOSIG
ZGOW,2011-06-30 11:00,ZGOW 301100Z 16002MPS 9999 SCT018 FEW030CB 28/24 Q1009 NOSIG
ZGOW,2011-06-30 12:00,ZGOW 301200Z 00000MPS 9999 SCT018 FEW030TCU 28/25 Q1010 NOSIG
ZGOW,2011-06-30 13:00,ZGOW 301300Z 13002MPS 9999 SCT016 FEW030TCU 27/25 Q1010 NOSIG
ZGOW,2011-06-30 14:00,ZGOW 301400Z 12002MPS 9999 SCT016 FEW030TCU 27/25 Q1011 NOSIG
ZGOW,2011-06-30 15:00,ZGOW 301500Z 13001MPS 9999 SCT016 27/25 Q1011 NOSIG
ZGOW,2011-07-01 00:00,ZGOW 010000Z 12002MPS 9999 SCT012 28/25 Q1011 NOSIG
ZGOW,2011-07-01 01:00,ZGOW 010100Z 13003MPS 9999 SCT012 FEW030TCU BKN050 29/25 Q1011 NOSIG
ZGOW,2011-07-01 02:00,ZGOW 010200Z 12003MPS 9999 SCT014 FEW030TCU 30/24 Q1011 NOSIG
ZGOW,2011-07-01 04:00,ZGOW 010400Z 13004MPS 9999 SCT016 FEW030TCU 30/24 Q1011 NOSIG
ZGOW,2011-07-01 05:00,ZGOW 010500Z 14005MPS 110V190 9999 SCT016 FEW030TCU 30/24 Q1010 NOSIG
ZGOW,2011-07-01 06:00,ZGOW 010600Z 14005MPS 9999 FEW020 FEW030TCU 31/24 Q1010 NOSIG
ZGOW,2011-07-01 07:00,ZGOW 010700Z 14005G11MPS 9999 FEW025 FEW030TCU 30/25 Q1009 NOSIG
ZGOW,2011-07-01 08:00,ZGOW 010800Z 15005MPS 110V190 9999 FEW016 30/25 Q1009 NOSIG
ZGOW,2011-07-01 09:00,ZGOW 010900Z 15004MPS 9999 SCT014 30/24 Q1008 NOSIG
ZGOW,2011-07-01 10:00,ZGOW 011000Z 14004MPS 9999 SCT020 29/24 Q1008 NOSIG
ZGOW,2011-07-01 11:00,ZGOW 011100Z 14003MPS 110V190 9999 FEW020 28/24 Q1009 NOSIG
ZGOW,2011-07-01 12:00,ZGOW 011200Z 16003MPS 9999 SCT014 28/24 Q1010 NOSIG
ZGOW,2011-07-01 13:00,ZGOW 011300Z 16003MPS 9999 SCT016 27/24 Q1010 NOSIG
ZGOW,2011-07-01 14:00,ZGOW 011400Z 00000MPS 9999 SCT016 27/24 Q1011 NOSIG
ZGOW,2011-07-01 15:00,ZGOW 011500Z 16002MPS 9999 SCT016 27/24 Q1011 NOSIG
ZGOW,2011-07-01 16:00,ZGOW 011600Z 15001MPS 9999 SCT018 27/24 Q1010 NOSIG
ZGOW,2011-07-01 17:00,ZGOW 011700Z 00000MPS 9999 SCT012 27/24 Q1009 NOSIG
ZGOW,2011-07-01 18:00,ZGOW 011800Z AUTO 00000MPS CAVOK 27/24 Q1009
ZGOW,2011-07-01 19:00,ZGOW 011900Z AUTO 00000MPS CAVOK 27/24 Q1009
ZGOW,2011-07-01 20:00,ZGOW 012000Z AUTO 00000MPS 9999 ////// 27/24 Q1009
ZGOW,2011-07-01 21:00,ZGOW 012100Z 00000MPS 6000 SCT012 27/24 Q1009 NOSIG
ZGOW,2011-07-01 22:00,ZGOW 012200Z 00000MPS 7000 SCT012 27/24 Q1009 NOSIG
ZGOW,2011-07-01 23:00,ZGOW 012300Z 00000MPS 8000 SCT016 28/24 Q1009 NOSIG
ZGOW,2011-07-02 00:00,ZGOW 020000Z 24002MPS 9999 SCT016 29/24 Q1009 NOSIG
ZGOW,2011-07-02 01:00,ZGOW 020100Z 22003MPS 9999 SCT020 30/23 Q1009 NOSIG
ZGOW,2011-07-02 02:00,ZGOW 020200Z 28002MPS 9999 SCT020 31/23 Q1009 NOSIG
ZGOW,2011-07-02 03:00,ZGOW 020300Z 25003MPS 9999 SCT030 31/23 Q1009 NOSIG
ZGOW,2011-07-02 04:00,ZGOW 020400Z 16004MPS 9999 SCT030 FEW036TCU 31/25 Q1009 NOSIG
ZGOW,2011-07-03 06:00,ZGOW 030600Z 16007MPS 9999 FEW026 33/25 Q1007 NOSIG
ZGOW,2011-07-03 07:00,ZGOW 030700Z 17007MPS 9999 FEW028 32/25 Q1007 NOSIG
ZGOW,2011-07-03 08:00,ZGOW 030800Z 16006MPS CAVOK 32/25 Q1006 NOSIG
ZGOW,2011-07-03 09:00,ZGOW 030900Z 18005MPS CAVOK 32/25 Q1006 NOSIG
ZGOW,2011-07-03 10:00,ZGOW 031000Z 17004MPS CAVOK 31/24 Q1006 NOSIG
ZGOW,2011-07-03 11:00,ZGOW 031100Z 18004MPS CAVOK 30/24 Q1006 NOSIG
ZGOW,2011-07-03 12:00,ZGOW 031200Z 17003MPS CAVOK 29/24 Q1007 NOSIG
ZGOW,2011-07-03 13:00,ZGOW 031300Z 18003MPS CAVOK 29/24 Q1008 NOSIG
ZGOW,2011-07-03 14:00,ZGOW 031400Z 00000MPS CAVOK 28/24 Q1008 NOSIG
ZGOW,2011-07-03 15:00,ZGOW 031500Z 18002MPS 9999 SCT050 28/24 Q1009 NOSIG
ZGOW,2011-07-03 16:00,ZGOW 031600Z 00000MPS 9999 SCT050 28/24 Q1009 NOSIG
ZGOW,2011-07-03 17:00,ZGOW 031700Z 00000MPS 9999 FEW050 28/24 Q1008 NOSIG
ZGOW,2011-07-03 18:00,ZGOW 031800Z 00000MPS CAVOK 28/24 Q1008 NOSIG
ZGOW,2011-07-03 19:00,ZGOW 031900Z 23001MPS CAVOK 28/23 Q1008 NOSIG
ZGOW,2011-07-03 20:00,ZGOW 032000Z 23001MPS CAVOK 28/24 Q1009 NOSIG
ZGOW,2011-07-03 21:00,ZGOW 032100Z 23001MPS 9999 FEW020 27/23 Q1009 NOSIG
ZGOW,2011-07-03 22:00,ZGOW 032200Z 00000MPS CAVOK 27/24 Q1010 NOSIG
ZGOW,2011-07-03 23:00,ZGOW 032300Z 00000MPS CAVOK 28/24 Q1010 NOSIG
ZGOW,2011-07-04 00:00,ZGOW 040000Z 25003MPS CAVOK 30/24 Q1010 NOSIG
ZGOW,2011-07-04 01:00,ZGOW 040100Z 24003MPS 9999 SCT026 31/23 Q1010 NOSIG
ZGOW,2011-07-04 02:00,ZGOW 040200Z 29002MPS 9999 SCT026 FEW033TCU 31/23 Q1010 NOSIG
ZGOW,2011-07-04 03:00,ZGOW 040300Z 24003MPS 9999 FEW026 FEW033TCU 32/22 Q1010 NOSIG
ZGOW,2011-07-04 04:00,ZGOW 040400Z 23003MPS 9999 SCT026 FEW033TCU 33/22 Q1010 NOSIG
ZGOW,2011-07-04 05:00,ZGOW 040500Z 22002MPS 9999 SCT026 FEW033TCU 34/22 Q1009 NOSIG
ZGOW,2011-07-04 06:00,ZGOW 040600Z 14005MPS 120V190 9999 FEW026 FEW033TCU 33/25 Q1008 NOSIG
ZGOW,2011-07-04 07:00,ZGOW 040700Z 14005MPS 9999 SCT028 33/24 Q1007 NOSIG
ZGOW,2011-07-04 08:00,ZGOW 040800Z 15005MPS 9999 FEW028 33/24 Q1007 NOSIG
ZGOW,2011-07-04 09:00,ZGOW 040900Z 17006MPS 9999 FEW028 32/23 Q1007 NOSIG
ZGOW,2011-07-04 10:00,ZGOW 041000Z 17005MPS CAVOK 31/23 Q1008 NOSIG
ZGOW,2011-07-04 11:00,ZGOW 041100Z 18005MPS CAVOK 29/23 Q1008 NOSIG
ZGOW,2011-07-04 12:00,ZGOW 041200Z 19006MPS CAVOK 29/24 Q1009 NOSIG
ZGOW,2011-07-04 13:00,ZGOW 041300Z 20004MPS CAVOK 29/24 Q1009 NOSIG
ZGOW,2011-07-04 14:00,ZGOW 041400Z 00000MPS CAVOK 28/24 Q1009 NOSIG
ZGOW,2011-07-04 15:00,ZGOW 041500Z 00000MPS CAVOK 28/24 Q1009 NOSIG
ZGOW,2011-07-04 16:00,ZGOW 041600Z 14002MPS CAVOK 28/24 Q1009 NOSIG
ZGOW,2011-07-04 17:00,ZGOW 041700Z AUTO 00000MPS CAVOK 27/24 Q1008
ZGOW,2011-07-04 18:00,ZGOW 041800Z AUTO 00000MPS CAVOK 27/24 Q1008
ZGOW,2011-07-04 19:00,ZGOW 041900Z AUTO 00000MPS CAVOK 27/24 Q1008
ZGOW,2011-07-04 20:00,ZGOW 042000Z AUTO 00000MPS CAVOK 28/24 Q1008
ZGOW,2011-07-04 21:00,ZGOW 042100Z 00000MPS 6000 NSC 27/24 Q1008 NOSIG
ZGOW,2011-07-04 22:00,ZGOW 042200Z 00000MPS 6000 FEW016 27/24 Q1009 NOSIG
ZGOW,2011-07-04 23:00,ZGOW 042300Z 15002MPS 7000 FEW020 28/25 Q1009 NOSIG
ZGOW,2011-07-05 00:00,ZGOW 050000Z 21001MPS 9999 FEW020 29/24 Q1009 NOSIG
ZGOW,2011-07-05 01:00,ZGOW 050100Z 22001MPS 9999 SCT020 31/24 Q1009 NOSIG
ZGOW,2011-07-05 02:00,ZGOW 050200Z 23003MPS 9999 SCT020 32/23 Q1009 NOSIG
ZGOW,2011-07-05 03:00,ZGOW 050300Z 23003MPS 9999 SCT020 32/23 Q1008 NOSIG
ZGOW,2011-07-05 04:00,ZGOW 050400Z 22002MPS 9999 SCT020 FEW030TCU 34/22 Q1008 NOSIG
ZGOW,2011-07-05 05:00,ZGOW 050500Z 14004MPS 9999 SCT020 FEW030TCU 34/24 Q1007 NOSIG
ZGOW,2011-07-05 06:00,ZGOW 050600Z 17005MPS 9999 SCT020 FEW030TCU 33/24 Q1007 NOSIG
ZGOW,2011-07-05 07:00,ZGOW 050700Z 18007MPS 9999 SCT020 FEW030TCU 33/24 Q1006 NOSIG
ZGOW,2011-07-05 08:00,ZGOW 050800Z 17006MPS 9999 FEW020 FEW030TCU 32/24 Q1006 NOSIG
ZGOW,2011-07-05 09:00,ZGOW 050900Z 17006MPS 9999 FEW020 FEW030TCU 31/24 Q1005 NOSIG
ZGOW,2011-07-05 10:00,ZGOW 051000Z 18005MPS 9999 FEW020 30/24 Q1005 NOSIG
ZGOW,2011-07-05 11:00,ZGOW 051100Z 18004MPS 9999 FEW020 29/24 Q1006 NOSIG
ZGOW,2011-07-05 12:00,ZGOW 051200Z 18005MPS CAVOK 29/24 Q1006 NOSIG
ZGOW,2011-07-05 13:00,ZGOW 051300Z 18004MPS CAVOK 28/24 Q1007 NOSIG
ZGOW,2011-07-05 14:00,ZGOW 051400Z 18003MPS CAVOK 28/24 Q1007 NOSIG
ZGOW,2011-07-05 15:00,ZGOW 051500Z 18003MPS CAVOK 28/24 Q1007 NOSIG
ZGOW,2011-07-05 16:00,ZGOW 051600Z 19003MPS CAVOK 28/24 Q1007 NOSIG
ZGOW,2011-07-05 17:00,ZGOW 051700Z 00000MPS CAVOK 28/24 Q1006 NOSIG
ZGOW,2011-07-05 18:00,ZGOW 051800Z AUTO 00000MPS 9999 ////// 28/24 Q1006
ZGOW,2011-07-05 19:00,ZGOW 051900Z AUTO 19001MPS 9999 ////// 27/24 Q1006
ZGOW,2011-07-05 20:00,ZGOW 052000Z AUTO 19002MPS CAVOK 27/24 Q1006
ZGOW,2011-07-05 21:00,ZGOW 052100Z 22003MPS CAVOK 28/24 Q1005 NOSIG
ZGOW,2011-07-05 22:00,ZGOW 052200Z 24003MPS CAVOK 27/23 Q1005 NOSIG
ZGOW,2011-07-05 23:00,ZGOW 052300Z 24003MPS 9999 SCT020 28/24 Q1006 NOSIG
ZGOW,2011-07-06 00:00,ZGOW 060000Z 25002MPS 9999 SCT020 29/24 Q1006 NOSIG
ZGOW,2011-07-06 01:00,ZGOW 060100Z 24002MPS 9999 SCT020 FEW030TCU 30/24 Q1006 NOSIG
ZGOW,2011-07-06 02:00,ZGOW 060200Z 24002MPS 9999 SCT026 32/23 Q1005 NOSIG
ZGOW,2011-07-06 03:00,ZGOW 060300Z 22003MPS 9999 SCT026 32/23 Q1005 NOSIG
ZGOW,2011-07-06 04:00,ZGOW 060400Z 22004MPS 9999 SCT026 34/22 Q1004 NOSIG
ZGOW,2011-07-06 05:00,ZGOW 060500Z 16006MPS 9999 FEW026 33/25 Q1004 NOSIG
ZGOW,2011-07-06 06:00,ZGOW 060600Z 17006MPS 9999 FEW026 33/23 Q1003 NOSIG
ZGOW,2011-07-06 07:00,ZGOW 060700Z 17006MPS 9999 FEW026 33/23 Q1003 NOSIG
ZGOW,2011-07-06 08:00,ZGOW 060800Z 18005MPS 9999 FEW022 33/22 Q1002 NOSIG
ZGOW,2011-07-06 09:00,ZGOW 060900Z 18005MPS CAVOK 32/22 Q1002 NOSIG
ZGOW,2011-07-06 10:00,ZGOW 061000Z 17004MPS CAVOK 32/23 Q1002 NOSIG
ZGOW,2011-07-06 11:00,ZGOW 061100Z 18004MPS CAVOK 30/23 Q1002 NOSIG
ZGOW,2011-07-06 12:00,ZGOW 061200Z 19003MPS CAVOK 29/24 Q1003 NOSIG
ZGOW,2011-07-06 13:00,ZGOW 061300Z 18001MPS CAVOK 29/24 Q1003 NOSIG
ZGOW,2011-07-06 14:00,ZGOW 061400Z 00000MPS CAVOK 29/24 Q1003 NOSIG
ZGOW,2011-07-06 15:00,ZGOW 061500Z 00000MPS CAVOK 28/24 Q1003 NOSIG
ZGOW,2011-07-06 16:00,ZGOW 061600Z 00000MPS CAVOK 27/24 Q1003 NOSIG
ZGOW,2011-07-06 17:00,ZGOW 061700Z AUTO 00000MPS 7000 NCD 27/24 Q1003
ZGOW,2011-07-06 18:00,ZGOW 061800Z AUTO 00000MPS 8000 NCD 27/24 Q1003
ZGOW,2011-07-06 19:00,ZGOW 061900Z AUTO 25001MPS 9000 NCD 28/24 Q1003
ZGOW,2011-07-06 20:00,ZGOW 062000Z AUTO 26002MPS 7000 ////// 28/24 Q1003
ZGOW,2011-07-06 21:00,ZGOW 062100Z 26002MPS 9999 FEW018 27/24 Q1003 NOSIG
ZGOW,2011-07-06 22:00,ZGOW 062200Z 23002MPS 9999 FEW020 27/24 Q1004 NOSIG
ZGOW,2011-07-06 23:00,ZGOW 062300Z 26002MPS 9999 FEW020 28/24 Q1005 NOSIG
ZGOW,2011-07-07 00:00,ZGOW 070000Z 29002MPS 9999 FEW018 29/23 Q1005 NOSIG
ZGOW,2011-07-07 01:00,ZGOW 070100Z 27002MPS 9999 SCT025 30/23 Q1005 NOSIG
ZGOW,2011-07-07 02:00,ZGOW 070200Z 24004MPS 9999 SCT025 32/22 Q1005 NOSIG
ZGOW,2011-07-07 03:00,ZGOW 070300Z 22004MPS 170V260 9999 SCT025 32/22 Q1005 NOSIG
ZGOW,2011-07-07 04:00,ZGOW 070400Z 23003MPS 9999 SCT026 FEW030TCU 33/21 Q1004 NOSIG
ZGOW,2011-07-07 05:00,ZGOW 070500Z 22003MPS 9999 SCT026 FEW030TCU 34/21 Q1003 NOSIG
ZGOW,2011-07-07 06:00,ZGOW 070600Z 22003MPS 9999 FEW026 FEW030TCU 35/20 Q1003 NOSIG
ZGOW,2011-07-07 07:00,ZGOW 070700Z 17005MPS 140V210 9999 FEW026 35/20 Q1002 NOSIG
ZGOW,2011-07-07 08:00,ZGOW 070800Z 16005MPS 9999 FEW026 34/24 Q1002 NOSIG
ZGOW,2011-07-07 09:00,ZGOW 070900Z 17005MPS 140V230 CAVOK 34/23 Q1001 NOSIG
ZGOW,2011-07-07 10:00,ZGOW 071000Z 18004MPS CAVOK 32/23 Q1002 NOSIG
ZGOW,2011-07-07 11:00,ZGOW 071100Z 18004MPS CAVOK 31/23 Q1002 NOSIG
ZGOW,2011-07-07 12:00,ZGOW 071200Z 18003MPS CAVOK 30/24 Q1003 NOSIG
ZGOW,2011-07-07 13:00,ZGOW 071300Z 19001MPS CAVOK 29/24 Q1004 NOSIG
ZGOW,2011-07-07 14:00,ZGOW 071400Z 22002MPS CAVOK 30/24 Q1004 NOSIG
ZGOW,2011-07-07 15:00,ZGOW 071500Z 22003MPS CAVOK 30/24 Q1005 NOSIG
ZGOW,2011-07-07 16:00,ZGOW 071600Z 25002MPS CAVOK 29/24 Q1004 NOSIG
ZGOW,2011-07-07 17:00,ZGOW 071700Z AUTO 24002MPS CAVOK 29/24 Q1004
ZGOW,2011-07-07 18:00,ZGOW 071800Z AUTO 23003MPS CAVOK 29/24 Q1004
ZGOW,2011-07-07 19:00,ZGOW 071900Z AUTO 24002MPS CAVOK 28/24 Q1004
ZGOW,2011-07-07 20:00,ZGOW 072000Z AUTO 24002MPS CAVOK 28/24 Q1004
ZGOW,2011-07-07 21:00,ZGOW 072100Z 24003MPS 8000 NSC 28/24 Q1004 NOSIG
ZGOW,2011-07-07 22:00,ZGOW 072200Z 25002MPS 6000 NSC 28/24 Q1005 NOSIG
ZGOW,2011-07-07 23:00,ZGOW 072300Z 25002MPS 5000 BR NSC 28/25 Q1005 NOSIG
ZGOW,2011-07-08 00:00,ZGOW 080000Z 26002MPS 7000 FEW020 30/24 Q1005 NOSIG
ZGOW,2011-07-08 01:00,ZGOW 080100Z 25003MPS CAVOK 31/23 Q1005 NOSIG
ZGOW,2011-07-08 02:00,ZGOW 080200Z 24003MPS 9999 FEW020 32/23 Q1005 NOSIG
ZGOW,2011-07-08 03:00,ZGOW 080300Z 23003MPS 9999 SCT020 33/23 Q1005 NOSIG
ZGOW,2011-07-08 04:00,ZGOW 080400Z 22003MPS 9999 SCT020 34/23 Q1004 NOSIG
ZGOW,2011-07-08 05:00,ZGOW 080500Z 21002MPS 9999 SCT020 35/23 Q1003 NOSIG
ZGOW,2011-07-08 06:00,ZGOW 080600Z 21003MPS 9999 FEW020 36/23 Q1002 NOSIG
ZGOW,2011-07-08 07:00,ZGOW 080700Z 15006MPS 9999 FEW020 34/25 Q1002 NOSIG
ZGOW,2011-07-08 08:00,ZGOW 080800Z 17006MPS 9999 FEW020 34/25 Q1001 NOSIG
ZGOW,2011-07-08 09:00,ZGOW 080900Z 19006MPS 9999 FEW020 32/25 Q1001 NOSIG
ZGOW,2011-07-08 10:00,ZGOW 081000Z 19004MPS CAVOK 32/24 Q1002 NOSIG
ZGOW,2011-07-08 11:00,ZGOW 081100Z 17003MPS CAVOK 31/24 Q1002 NOSIG
ZGOW,2011-07-08 12:00,ZGOW 081200Z 18002MPS CAVOK 30/25 Q1003 NOSIG
ZGOW,2011-07-08 13:00,ZGOW 081300Z 22002MPS CAVOK 30/25 Q1003 NOSIG
ZGOW,2011-07-08 14:00,ZGOW 081400Z 24002MPS 9999 FEW050 30/25 Q1004 NOSIG
ZGOW,2011-07-08 15:00,ZGOW 081500Z 22002MPS 9999 FEW050 30/25 Q1004 NOSIG
ZGOW,2011-07-08 16:00,ZGOW 081600Z 25002MPS CAVOK 30/25 Q1004 NOSIG
ZGOW,2011-07-08 17:00,ZGOW 081700Z 24003MPS 9999 FEW030 30/25 Q1003 NOSIG
ZGOW,2011-07-08 18:00,ZGOW 081800Z AUTO 25002MPS CAVOK 29/25 Q1003
ZGOW,2011-07-08 19:00,ZGOW 081900Z AUTO 24002MPS CAVOK 29/25 Q1003
ZGOW,2011-07-08 20:00,ZGOW 082000Z AUTO 27002MPS 7000 NCD 29/25 Q1002
ZGOW,2011-07-08 21:00,ZGOW 082100Z 26002MPS 7000 NSC 28/25 Q1002 NOSIG
ZGOW,2011-07-08 22:00,ZGOW 082200Z 25001MPS 5000 BR NSC 29/25 Q1003 NOSIG
ZGOW,2011-07-08 23:00,ZGOW 082300Z 28002MPS 5000 BR FEW012 29/25 Q1003 NOSIG
ZGOW,2011-07-09 00:00,ZGOW 090000Z 27003MPS 6000 FEW018 30/25 Q1004 NOSIG
ZGOW,2011-07-09 01:00,ZGOW 090100Z 26003MPS 9999 FEW018 31/25 Q1004 NOSIG
ZGOW,2011-07-09 02:00,ZGOW 090200Z 25004MPS 9999 FEW018 33/25 Q1004 NOSIG
ZGOW,2011-07-09 03:00,ZGOW 090300Z 23002MPS 9999 FEW018 34/25 Q1004 NOSIG
ZGOW,2011-07-09 04:00,ZGOW 090400Z 19002MPS 9999 FEW020 35/26 Q1003 NOSIG
ZGOW,2011-07-09 05:00,ZGOW 090500Z 22002MPS 9999 FEW020 36/25 Q1002 NOSIG
ZGOW,2011-07-09 06:00,ZGOW 090600Z 16006MPS 9999 FEW020 35/26 Q1001 NOSIG
ZGOW,2011-07-09 07:00,ZGOW 090700Z 19004MPS 9999 FEW020 35/25 Q1001 NOSIG
ZGOW,2011-07-09 08:00,ZGOW 090800Z 20005MPS 9999 FEW020 SCT033CB 34/25 Q1001 TEMPO VRB07G12MPS 2500 TSRA SCT010 SCT030CB BKN040
ZGOW,2011-07-09 09:00,ZGOW 090900Z 27002MPS 9999 FEW020 31/21 Q1001 NOSIG
ZGOW,2011-07-09 10:00,ZGOW 091000Z 15001MPS 5000 HZ FEW020 32/23 Q1001 NOSIG
ZGOW,2011-07-09 11:00,ZGOW 091100Z 24003MPS 7000 FEW020 32/24 Q1002 NOSIG
ZGOW,2011-07-09 12:00,ZGOW 091200Z 28002MPS 7000 FEW020 31/25 Q1003 NOSIG
ZGOW,2011-07-09 13:00,ZGOW 091300Z 28003MPS 7000 NSC 30/25 Q1003 NOSIG
ZGOW,2011-07-09 14:00,ZGOW 091400Z 30002MPS 5000 HZ NSC 30/25 Q1003 NOSIG
ZGOW,2011-07-09 15:00,ZGOW 091500Z 00000MPS 5000 HZ NSC 30/25 Q1003 NOSIG
ZGOW,2011-07-09 16:00,ZGOW 091600Z 00000MPS 4000 HZ NSC 29/24 Q1003 NOSIG
ZGOW,2011-07-09 17:00,ZGOW 091700Z 08001MPS 4000 BR NSC 28/25 Q1003 NOSIG
ZGOW,2011-07-09 18:00,ZGOW 091800Z 10002MPS 5000 BR NSC 28/25 Q1003 NOSIG
ZGOW,2011-07-09 19:00,ZGOW 091900Z 13002MPS 5000 BR NSC 27/24 Q1002 NOSIG
ZGOW,2011-07-09 20:00,ZGOW 092000Z 16001MPS 4000 BR SKC 27/25 Q1002 NOSIG
ZGOW,2011-07-09 21:00,ZGOW 092100Z 09003MPS 2800 BR SKC 27/24 Q1002 NOSIG
ZGOW,2011-07-09 22:00,ZGOW 092200Z 09002MPS 2500 BR NSC 26/24 Q1002 NOSIG
ZGOW,2011-07-09 23:00,ZGOW 092300Z 14002MPS 2500 BR NSC 27/25 Q1003 NOSIG
ZGOW,2011-07-10 00:00,ZGOW 100000Z 16003MPS 2800 BR NSC 28/24 Q1003 BECMG TL0100 3200 BR
ZGOW,2011-07-10 01:00,ZGOW 100100Z 17003MPS 2200 BR FEW005 SCT022 28/25 Q1004 BECMG TL0200 3500 BR
ZGOW,2011-07-10 02:00,ZGOW 100200Z 16002MPS 2500 BR FEW008 29/25 Q1003 BECMG TL0300 3500 BR
ZGOW,2011-07-10 03:00,ZGOW 100300Z 14002MPS 3500 BR SCT043 31/25 Q1003 NOSIG
ZGOW,2011-07-10 04:00,ZGOW 100400Z 14004MPS 4000 HZ SCT043 32/26 Q1003 NOSIG
ZGOW,2011-07-10 05:00,ZGOW 100500Z 14003MPS 5000 HZ SCT050 30/24 Q1002 NOSIG
ZGOW,2011-07-10 06:00,ZGOW 100600Z 15003MPS 5000 HZ FEW020 30/25 Q1002 NOSIG
ZGOW,2011-07-10 07:00,ZGOW 100700Z 14004MPS 6000 FEW030CB FEW030 31/24 Q1001 TEMPO 2100 TSRA
ZGOW,2011-07-10 08:00,ZGOW 100800Z 14004MPS 7000 FEW030CB SCT040 29/24 Q1001 TEMPO 2100 TSRA
ZGOW,2011-07-10 09:00,ZGOW 100900Z 14003MPS 7000 -SHRA SCT020 FEW030CB BKN040 28/24 Q1001 NOSIG
ZGOW,2011-07-10 10:00,ZGOW 101000Z 15003MPS 7000 FEW030CB SCT030 28/24 Q1001 NOSIG
ZGOW,2011-07-10 11:00,ZGOW 101100Z 13003MPS 7000 FEW020 FEW030TCU 27/24 Q1001 NOSIG
ZGOW,2011-07-10 12:00,ZGOW 101200Z 13002MPS 7000 SCT040 27/24 Q1002 TEMPO 2100 SHRA
ZGOW,2011-07-10 13:00,ZGOW 101300Z 11001MPS 7000 FEW030CB SCT030 27/24 Q1003 TEMPO 1500 TSRA
ZGOW,2011-07-10 14:00,ZGOW 101400Z 03001MPS 7000 TS FEW020 SCT030CB BKN040 27/24 Q1003 TEMPO 1500 TSRA
ZGOW,2011-07-10 15:00,ZGOW 101500Z 10002MPS 9999 -TSRA SCT020 SCT030CB BKN040 27/24 Q1003 TEMPO 1500 TSRA
ZGOW,2011-07-10 16:00,ZGOW 101600Z 04003MPS 6000 -TSRA SCT014 SCT030CB BKN040 27/24 Q1003 TEMPO 1500 TSRA
ZGOW,2011-07-10 17:00,ZGOW 101700Z 22002MPS 6000 -TSRA SCT014 SCT030CB BKN040 27/25 Q1002 TEMPO 1500 TSRA
ZGOW,2011-07-10 18:00,ZGOW 101800Z AUTO 36001MPS 8000 ////// 27/25 Q1001
ZGOW,2011-07-10 19:00,ZGOW 101900Z AUTO 31002MPS 9999 ////// 26/24 Q1002
ZGOW,2011-07-10 20:00,ZGOW 102000Z AUTO 32002MPS CAVOK 26/23 Q1001
ZGOW,2011-07-10 21:00,ZGOW 102100Z 32002MPS 9999 FEW033 26/23 Q1002 NOSIG
ZGOW,2011-07-10 22:00,ZGOW 102200Z 33002MPS 9999 FEW033 26/24 Q1002 NOSIG
ZGOW,2011-07-10 23:00,ZGOW 102300Z 36002MPS 9999 FEW010 27/24 Q1002 NOSIG
ZGOW,2011-07-11 00:00,ZGOW 110000Z 05002MPS 9999 FEW040 28/24 Q1002 NOSIG
ZGOW,2011-07-11 01:00,ZGOW 110100Z 07003MPS 9999 SCT012 FEW028TCU BKN040 28/24 Q1003 NOSIG
ZGOW,2011-07-11 02:00,ZGOW 110200Z 13002MPS 9999 -SHRA SCT012 FEW028TCU 29/24 Q1003 NOSIG
ZGOW,2011-07-11 03:00,ZGOW 110300Z 12002MPS 9999 -SHRA SCT012 FEW028TCU BKN040 29/24 Q1003 NOSIG
ZGOW,2011-07-11 04:00,ZGOW 110400Z 13002MPS 9999 SCT012 FEW028TCU BKN040 30/24 Q1002 NOSIG
ZGOW,2011-07-11 05:00,ZGOW 110500Z 13004MPS 9999 FEW012 FEW028TCU 30/25 Q1002 NOSIG
ZGOW,2011-07-11 06:00,ZGOW 110600Z 13003MPS 9999 FEW016 FEW030TCU 29/24 Q1001 NOSIG
ZGOW,2011-07-11 07:00,ZGOW 110700Z 12005MPS 9999 FEW028TCU 29/24 Q1001 NOSIG
ZGOW,2011-07-11 08:00,ZGOW 110800Z 14005MPS 9999 FEW012 FEW028TCU 29/24 Q1001 NOSIG
ZGOW,2011-07-11 09:00,ZGOW 110900Z 13003MPS 7000 FEW014 FEW028TCU 28/24 Q1000 NOSIG
ZGOW,2011-07-11 10:00,ZGOW 111000Z 13004MPS 7000 FEW014 FEW028TCU 27/24 Q1001 NOSIG
ZGOW,2011-07-11 11:00,ZGOW 111100Z 12002MPS 5000 BR FEW010 FEW028CB 27/24 Q1001 NOSIG
ZGOW,2011-07-11 12:00,ZGOW 111200Z 08003MPS 4000 BR FEW007 FEW028CB BKN050 27/24 Q1002 NOSIG
ZGOW,2011-07-11 13:00,ZGOW 111300Z 08002MPS 4000 BR SCT018 FEW028CB BKN050 27/24 Q1003 NOSIG
ZGOW,2011-07-11 14:00,ZGOW 111400Z 04002MPS 2000 SHRA SCT018 FEW028CB BKN033 26/24 Q1003 NOSIG
ZGOW,2011-07-11 15:00,ZGOW 111500Z 15002MPS 4000 BR SCT005 FEW028CB BKN050 26/24 Q1003 RESHRA TEMPO FM1620 2100 SHRA SCT005 SCT026CB BKN030
ZGOW,2011-07-11 16:00,ZGOW 111600Z 14003MPS 4000 TS BR SCT005 FEW028CB BKN050 26/24 Q1003 TEMPO FM1620 2100 TSRA SCT005 SCT026CB BKN030
ZGOW,2011-07-11 17:00,ZGOW 111700Z AUTO 17003MPS 8000 ////// 26/24 Q1003
ZGOW,2011-07-11 18:00,ZGOW 111800Z AUTO 16003MPS 4400 // ////// 25/24 Q1002
ZGOW,2011-07-11 19:00,ZGOW 111900Z AUTO 17002MPS 7000 ////// 26/24 Q1002
ZGOW,2011-07-11 20:00,ZGOW 112000Z AUTO 00000MPS CAVOK 26/24 Q1002
ZGOW,2011-07-11 21:00,ZGOW 112100Z 13002MPS 6000 SCT004 BKN050 25/24 Q1002 NOSIG
ZGOW,2011-07-11 22:00,ZGOW 112200Z 08002MPS 6000 SCT005 BKN040 25/24 Q1002 NOSIG
ZGOW,2011-07-11 23:00,ZGOW 112300Z 09002MPS 8000 SCT018 BKN040 26/24 Q1003 NOSIG
ZGOW,2011-07-12 00:00,ZGOW 120000Z 08002MPS 8000 SCT007 BKN040 26/24 Q1003 NOSIG
ZGOW,2011-07-12 01:00,ZGOW 120100Z 10003MPS 9999 SCT012 FEW030TCU BKN040 28/24 Q1003 NOSIG
ZGOW,2011-07-12 02:00,ZGOW 120200Z 09004MPS 9999 SCT012 FEW030CB BKN040 27/24 Q1004 TEMPO 2800 SHRA
ZGOW,2011-07-12 03:00,ZGOW 120300Z 10005MPS 9999 SCT014 FEW030CB BKN040 29/24 Q1004 TEMPO 2800 SHRA
ZGOW,2011-07-12 04:00,ZGOW 120400Z 11005MPS 9999 SCT014 FEW030TCU 30/24 Q1003 NOSIG
ZGOW,2011-07-12 05:00,ZGOW 120500Z 11006MPS 9999 SCT014 FEW030TCU 29/24 Q1003 NOSIG
ZGOW,2011-07-12 06:00,ZGOW 120600Z 11004MPS 9999 SCT014 FEW030TCU 29/24 Q1003 NOSIG
ZGOW,2011-07-12 07:00,ZGOW 120700Z 12003MPS 9999 SCT014 FEW030TCU 29/24 Q1002 NOSIG
ZGOW,2011-07-12 08:00,ZGOW 120800Z 11004MPS 9999 SCT014 FEW030TCU 29/24 Q1002 NOSIG
ZGOW,2011-07-12 09:00,ZGOW 120900Z 12004MPS 9999 SCT014 FEW030TCU 28/24 Q1002 NOSIG
ZGOW,2011-07-12 10:00,ZGOW 121000Z 11004MPS 6000 SCT014 FEW030TCU 28/24 Q1003 NOSIG
ZGOW,2011-07-12 11:00,ZGOW 121100Z 10003MPS 5000 BR SCT014 27/24 Q1003 NOSIG
ZGOW,2011-07-12 12:00,ZGOW 121200Z 12003MPS 6000 SCT014 27/24 Q1004 NOSIG
ZGOW,2011-07-12 13:00,ZGOW 121300Z 10003MPS 7000 SCT014 27/24 Q1004 NOSIG
ZGOW,2011-07-12 14:00,ZGOW 121400Z 10002MPS CAVOK 27/23 Q1005 NOSIG
ZGOW,2011-07-12 15:00,ZGOW 121500Z 07002MPS 7000 SCT020 26/24 Q1005 NOSIG
ZGOW,2011-07-12 16:00,ZGOW 121600Z 07002MPS 6000 SCT020 26/24 Q1005 NOSIG
ZGOW,2011-07-12 17:00,ZGOW 121700Z AUTO 08002MPS CAVOK 26/24 Q1004
ZGOW,2011-07-12 18:00,ZGOW 121800Z AUTO 07001MPS 6000 NCD 26/24 Q1004
ZGOW,2011-07-12 19:00,ZGOW 121900Z AUTO 07002MPS 8000 ////// 26/24 Q1003
ZGOW,2011-07-12 20:00,ZGOW 122000Z AUTO 08002MPS 7000 ////// 26/24 Q1003
ZGOW,2011-07-12 21:00,ZGOW 122100Z 06003MPS 5000 BR SCT012 27/25 Q1003 NOSIG
ZGOW,2011-07-12 22:00,ZGOW 122200Z 06003MPS 7000 SCT012 26/24 Q1004 NOSIG
ZGOW,2011-07-12 23:00,ZGOW 122300Z 08002MPS 7000 SCT012 27/25 Q1004 NOSIG
ZGOW,2011-07-13 00:00,ZGOW 130000Z 08003MPS 9999 FEW012 29/25 Q1004 NOSIG
ZGOW,2011-07-13 01:00,ZGOW 130100Z 09004MPS 9999 SCT012 FEW026TCU 30/24 Q1004 NOSIG
ZGOW,2011-07-13 02:00,ZGOW 130200Z 10006MPS 9999 FEW012 30/25 Q1005 NOSIG
ZGOW,2011-07-13 03:00,ZGOW 130300Z 10006MPS 9999 FEW014 FEW026TCU 30/25 Q1005 NOSIG
ZGOW,2011-07-13 04:00,ZGOW 130400Z 11005MPS 9999 FEW016 31/25 Q1004 NOSIG
ZGOW,2011-07-13 05:00,ZGOW 130500Z 10005MPS 9999 FEW016 31/25 Q1004 NOSIG
ZGOW,2011-07-13 06:00,ZGOW 130600Z 12005MPS 9999 FEW026 FEW030TCU 31/24 Q1003 NOSIG
ZGOW,2011-07-13 07:00,ZGOW 130700Z 13005MPS 9999 FEW022 31/24 Q1003 NOSIG
ZGOW,2011-07-13 08:00,ZGOW 130800Z 12006MPS 9999 FEW022 30/25 Q1003 NOSIG
ZGOW,2011-07-13 09:00,ZGOW 130900Z 12005MPS 9999 FEW026TCU 29/25 Q1003 NOSIG
ZGOW,2011-07-13 10:00,ZGOW 131000Z 10004MPS 9999 FEW026TCU 28/24 Q1003 NOSIG
ZGOW,2011-07-13 11:00,ZGOW 131100Z 10004MPS 9999 FEW020 27/24 Q1003 NOSIG
ZGOW,2011-07-13 12:00,ZGOW 131200Z 10003MPS 9999 FEW040 27/24 Q1004 NOSIG
ZGOW,2011-07-13 13:00,ZGOW 131300Z 10003MPS 9999 FEW040 27/24 Q1005 NOSIG
ZGOW,2011-07-13 14:00,ZGOW 131400Z 09003MPS 9999 FEW012 27/24 Q1005 NOSIG
ZGOW,2011-07-13 15:00,ZGOW 131500Z 08002MPS 9999 FEW012 27/24 Q1005 NOSIG
ZGOW,2011-07-13 16:00,ZGOW 131600Z 08002MPS 9999 FEW012 SCT040 26/24 Q1004 NOSIG
ZGOW,2011-07-13 17:00,ZGOW 131700Z 08003MPS 9999 FEW012 FEW030CB 26/24 Q1004 NOSIG
ZGOW,2011-07-13 18:00,ZGOW 131800Z AUTO 08004MPS CAVOK 26/24 Q1003
ZGOW,2011-07-13 19:00,ZGOW 131900Z AUTO 06004MPS CAVOK 26/24 Q1003
ZGOW,2011-07-13 20:00,ZGOW 132000Z AUTO 07004MPS 9999 ////// 27/25 Q1004
ZGOW,2011-07-13 21:00,ZGOW 132100Z 08002MPS 9999 FEW010 FEW028CB SCT046 26/24 Q1003 NOSIG
ZGOW,2011-07-13 22:00,ZGOW 132200Z 09003MPS 9999 FEW007 FEW028CB BKN040 26/24 Q1004 NOSIG
ZGOW,2011-07-13 23:00,ZGOW 132300Z 08004MPS 9999 FEW006 FEW028CB BKN033 26/24 Q1004 NOSIG
ZGOW,2011-07-14 00:00,ZGOW 140000Z 11003MPS 9999 SCT007 FEW028CB BKN040 27/24 Q1004 NOSIG
ZGOW,2011-07-14 01:00,ZGOW 140100Z 06003MPS 9999 SCT007 FEW028CB BKN050 28/25 Q1004 NOSIG
ZGOW,2011-07-14 02:00,ZGOW 140200Z 08006MPS 9999 SCT012 FEW028TCU 30/24 Q1004 NOSIG
ZGOW,2011-07-14 03:00,ZGOW 140300Z 10005MPS 9999 SCT016 FEW028TCU 30/24 Q1004 NOSIG
ZGOW,2011-07-14 04:00,ZGOW 140400Z 09005MPS 9999 SCT016 FEW028TCU 31/24 Q1003 NOSIG
ZGOW,2011-07-14 05:00,ZGOW 140500Z 09004MPS 9999 SCT020 FEW028CB 31/24 Q1003 NOSIG
ZGOW,2011-07-14 06:00,ZGOW 140600Z 12006MPS 9999 FEW020 FEW028CB 31/24 Q1002 NOSIG
ZGOW,2011-07-14 07:00,ZGOW 140700Z 10005MPS 9999 FEW020 FEW028CB 31/24 Q1002 NOSIG
ZGOW,2011-07-14 08:00,ZGOW 140800Z 10004MPS 9999 FEW020 FEW028CB 31/24 Q1002 NOSIG
ZGOW,2011-07-14 09:00,ZGOW 140900Z 12005MPS 9999 FEW020 FEW028TCU 30/24 Q1002 NOSIG
ZGOW,2011-07-14 10:00,ZGOW 141000Z 12005MPS 9999 FEW028TCU FEW028 29/24 Q1002 NOSIG
ZGOW,2011-07-14 11:00,ZGOW 141100Z 12003MPS 9999 FEW028CB SCT028 27/24 Q1003 TEMPO 2500 SHRA FEW008 SCT026CB BKN030
ZGOW,2011-07-14 12:00,ZGOW 141200Z 15003MPS 9999 SCT007 FEW028CB 27/24 Q1004 TEMPO 2500 SHRA FEW008 SCT026CB BKN030
ZGOW,2011-07-14 13:00,ZGOW 141300Z 13002MPS 9999 SCT007 FEW028CB SCT028 27/24 Q1004 NOSIG
ZGOW,2011-07-14 14:00,ZGOW 141400Z 09003MPS 9999 SCT007 FEW028CB BKN028 26/24 Q1004 NOSIG
ZGOW,2011-07-14 15:00,ZGOW 141500Z 09003MPS 9999 SCT007 FEW028CB BKN028 26/24 Q1004 NOSIG
ZGOW,2011-07-14 16:00,ZGOW 141600Z 08002MPS 9999 SCT016 FEW028CB BKN028 27/24 Q1004 NOSIG
ZGOW,2011-07-14 17:00,ZGOW 141700Z 06003MPS 9999 SCT018 FEW028CB BKN028 27/24 Q1003 NOSIG
ZGOW,2011-07-14 18:00,ZGOW 141800Z AUTO 36001MPS 6000 ////// 26/24 Q1003
ZGOW,2011-07-14 19:00,ZGOW 141900Z AUTO 08002MPS 9999 ////// 26/24 Q1003
ZGOW,2011-07-14 20:00,ZGOW 142000Z AUTO 14003MPS 9999 ////// 26/24 Q1003
ZGOW,2011-07-14 21:00,ZGOW 142100Z 19002MPS 6000 -SHRA SCT006 SCT028CB BKN033 26/24 Q1003 NOSIG
ZGOW,2011-07-14 22:00,ZGOW 142200Z 20002MPS 9999 -SHRA SCT010 SCT028CB BKN033 26/24 Q1003 NOSIG
ZGOW,2011-07-14 23:00,ZGOW 142300Z 19004MPS 9999 -SHRA SCT010 FEW028CB BKN033 26/24 Q1004 NOSIG
ZGOW,2011-07-15 00:00,ZGOW 150000Z 19001MPS 9999 -SHRA SCT010 FEW028CB BKN033 26/24 Q1004 NOSIG
ZGOW,2011-07-15 01:00,ZGOW 150100Z 19003MPS 9999 -SHRA SCT010 FEW030CB 26/24 Q1005 NOSIG
ZGOW,2011-07-15 02:00,ZGOW 150200Z 20005MPS 7000 -SHRA SCT010 FEW030CB 26/24 Q1005 TEMPO 2500 SHRA SCT005 FEW030CB BKN040
ZGOW,2011-07-15 03:00,ZGOW 150300Z 20004MPS 9999 SCT010 FEW030CB 28/25 Q1004 TEMPO VRB07G12MPS 2500 TSRA SCT005 SCT030CB BKN040
ZGOW,2011-07-15 04:00,ZGOW 150400Z 18004MPS 5000 -SHRA SCT007 SCT030CB 26/24 Q1005 RESHRA TEMPO VRB07MPS 2500 SHRA SCT005 SCT030CB BKN040
ZGOW,2011-07-15 05:00,ZGOW 150500Z 19006MPS 9999 -SHRA SCT007 SCT030CB 26/24 Q1004 TEMPO VRB08MPS 2500 SHRA BKN006 SCT030CB BKN040
ZGOW,2011-07-15 06:00,ZGOW 150600Z 19005MPS 9999 SCT008 FEW030CB 27/24 Q1004 TEMPO VRB08MPS 2500 SHRA BKN006 SCT030CB BKN040
ZGOW,2011-07-15 07:00,ZGOW 150700Z 18004MPS 9999 -SHRA SCT010 FEW030CB 27/24 Q1004 TEMPO VRB08MPS 2500 SHRA BKN006 SCT030CB BKN040
ZGOW,2011-07-15 08:00,ZGOW 150800Z 18006MPS 9999 -SHRA SCT007 SCT030CB 25/23 Q1003 RESHRA TEMPO VRB07G12MPS 2000 SHRA BKN006 SCT030CB BKN033
ZGOW,2011-07-15 09:00,ZGOW 150900Z 18005MPS 3500 -SHRA SCT007 SCT030CB 25/23 Q1003 TEMPO 2500 SHRA BKN006 SCT030CB BKN033
ZGOW,2011-07-15 10:00,ZGOW 151000Z 16002MPS 9999 -SHRA SCT007 FEW030CB 26/24 Q1003 TEMPO 2500 SHRA BKN006 SCT030CB BKN033
ZGOW,2011-07-15 11:00,ZGOW 151100Z 12003MPS 9999 -SHRA SCT007 FEW030CB 26/24 Q1004 TEMPO 2500 SHRA BKN006 SCT030CB BKN033
ZGOW,2011-07-15 12:00,ZGOW 151200Z 17005MPS 9999 SCT014 FEW030CB 26/24 Q1004 TEMPO 2500 SHRA BKN006 SCT030CB BKN033
ZGOW,2011-07-15 13:00,ZGOW 151300Z 16003MPS 9999 SCT014 FEW030CB 26/23 Q1004
ZGOW,2011-07-15 14:00,ZGOW 151400Z 13002MPS 9999 SCT020 FEW030CB 26/24 Q1005 NOSIG
ZGOW,2011-07-15 15:00,ZGOW 151500Z 12002MPS 9999 SCT020 FEW030CB 26/24 Q1005 NOSIG
ZGOW,2011-07-15 16:00,ZGOW 151600Z 12003MPS 9999 SCT020 FEW030CB 26/24 Q1004 TEMPO 12006G11MPS 2500 SHRA SCT006 SCT030CB BKN040
ZGOW,2011-07-15 17:00,ZGOW 151700Z 17005G10MPS 4000 SHRA SCT007 SCT030CB 25/23 Q1004 NOSIG
ZGOW,2011-07-15 18:00,ZGOW 151800Z 14004MPS 2500 SHRA SCT005 SCT030CB 24/23 Q1003 NOSIG
ZGOW,2011-07-15 19:00,ZGOW 151900Z 17003MPS 9999 -SHRA SCT012 SCT030CB 25/24 Q1002 RESHRA NOSIG
ZGOW,2011-07-15 20:00,ZGOW 152000Z 18007MPS 9999 -SHRA SCT012 SCT030CB 26/24 Q1002 NOSIG
ZGOW,2011-07-15 21:00,ZGOW 152100Z 16004MPS 9999 -SHRA SCT012 SCT030CB 26/24 Q1002 TEMPO VRB08MPS 2500 -TSRA
ZGOW,2011-07-15 22:00,ZGOW 152200Z 15004MPS 5000 -SHRA SCT012 SCT030CB 26/24 Q1003 TEMPO VRB08MPS 2500 SHRA
ZGOW,2011-07-15 23:00,ZGOW 152300Z 19004MPS 5000 BR SCT012 FEW030CB 25/23 Q1003 NOSIG
ZGOW,2011-07-16 00:00,ZGOW 160000Z 18004MPS 9999 SCT012 FEW030CB 26/24 Q1003 TEMPO 2500 SHRA SCT006 FEW030CB BKN040
ZGOW,2011-07-16 01:00,ZGOW 160100Z 18005G10MPS 9999 SCT012 FEW030CB BKN050 26/23 Q1004 TEMPO 2500 SHRA SCT006 FEW030CB BKN040
ZGOW,2011-07-16 02:00,ZGOW 160200Z 18003MPS 9999 -SHRA SCT009 FEW030CB BKN040 26/24 Q1004 TEMPO 2500 SHRA SCT006 FEW030CB BKN040
ZGOW,2011-07-16 03:00,ZGOW 160300Z 17003MPS 9999 -SHRA SCT010 FEW030CB BKN050 27/24 Q1004 TEMPO 2500 SHRA SCT006 FEW030CB BKN040
ZGOW,2011-07-16 04:00,ZGOW 160400Z 19004MPS 9999 SCT010 FEW030CB BKN050 27/24 Q1003 NOSIG
ZGOW,2011-07-16 05:00,ZGOW 160500Z 18004MPS 9999 SCT016 FEW026TCU 28/24 Q1003 NOSIG
ZGOW,2011-07-16 06:00,ZGOW 160600Z 18004MPS 9999 -SHRA SCT010 SCT020 FEW030CB BKN050 27/25 Q1002 NOSIG
ZGOW,2011-07-16 07:00,ZGOW 160700Z 18005MPS 9999 SCT012 FEW026TCU BKN050 27/24 Q1002 NOSIG
ZGOW,2011-07-16 08:00,ZGOW 160800Z 19004MPS 9999 SCT018 FEW026TCU BKN050 28/24 Q1001 NOSIG
ZGOW,2011-07-16 09:00,ZGOW 160900Z 20005MPS 9999 BKN020 FEW026TCU BKN050 28/23 Q1001 NOSIG
ZGOW,2011-07-16 10:00,ZGOW 161000Z 18004MPS 9999 -SHRA BKN020 FEW026TCU BKN043 27/23 Q1001 NOSIG
ZGOW,2011-07-16 11:00,ZGOW 161100Z 17004MPS 9999 SCT020 FEW026TCU 26/24 Q1001 NOSIG
ZGOW,2011-07-16 12:00,ZGOW 161200Z 17002MPS 9999 SCT020 FEW026TCU 26/23 Q1002 NOSIG
ZGOW,2011-07-16 13:00,ZGOW 161300Z 18003MPS 9999 SCT010 FEW030CB 26/24 Q1002 NOSIG
ZGOW,2011-07-16 14:00,ZGOW 161400Z 17004MPS 9999 SCT008 FEW030CB 26/24 Q1002 NOSIG
ZGOW,2011-07-16 15:00,ZGOW 161500Z 18004MPS 9999 FEW008 FEW030CB 26/24 Q1002 NOSIG
ZGOW,2011-07-16 16:00,ZGOW 161600Z 17003MPS 9999 FEW008 SCT020 FEW030CB 26/23 Q1002 NOSIG
ZGOW,2011-07-16 17:00,ZGOW 161700Z 16002MPS 4000 -SHRA SCT007 SCT020 FEW030CB BKN040 25/24 Q1001 RESHRA TEMPO 2100 SHRA SCT005 SCT026CB BKN030
ZGOW,2011-07-16 18:00,ZGOW 161800Z 16002MPS 4000 -SHRA SCT007 FEW028CB BKN040 25/24 Q1001 TEMPO 2100 SHRA SCT005 SCT026CB BKN030
ZGOW,2011-07-16 19:00,ZGOW 161900Z AUTO 20003MPS 9999 ////// 26/24 Q1000
ZGOW,2011-07-16 20:00,ZGOW 162000Z AUTO 18003MPS CAVOK 26/24 Q1000
ZGOW,2011-07-16 21:00,ZGOW 162100Z 18002MPS 9999 FEW006 SCT033 26/24 Q1000 NOSIG
ZGOW,2011-07-16 22:00,ZGOW 162200Z 18002MPS 9999 FEW006 FEW030CB BKN046 26/24 Q1000 NOSIG
ZGOW,2011-07-16 23:00,ZGOW 162300Z 19001MPS 9999 FEW030CB BKN046 26/24 Q1000 NOSIG
ZGOW,2011-07-17 00:00,ZGOW 170000Z 23003MPS 9999 FEW026TCU BKN043 27/24 Q1001 NOSIG
ZGOW,2011-07-17 01:00,ZGOW 170100Z 23004MPS 9999 SCT020 FEW030TCU 27/24 Q1001 NOSIG
ZGOW,2011-07-17 02:00,ZGOW 170200Z 23003MPS 9999 -SHRA SCT012 FEW030CB 27/24 Q1001 TEMPO 2100 TSRA
ZGOW,2011-07-17 03:00,ZGOW 170300Z 24003MPS 9999 -SHRA SCT012 FEW030CB 27/24 Q1001 NOSIG
ZGOW,2011-07-17 04:00,ZGOW 170400Z 23004MPS 9999 -SHRA SCT012 FEW030CB 28/24 Q1001 NOSIG
ZGOW,2011-07-17 05:00,ZGOW 170500Z 21004MPS 9999 SCT014 FEW030CB 29/24 Q1000 NOSIG
ZGOW,2011-07-17 06:00,ZGOW 170600Z 22004MPS 9999 SCT014 FEW030CB 30/25 Q0999 NOSIG
ZGOW,2011-07-17 07:00,ZGOW 170700Z 23004MPS 9999 SCT014 FEW030CB 31/24 Q0999 NOSIG
ZGOW,2011-07-17 08:00,ZGOW 170800Z 18003MPS 9999 SCT014 FEW030CB 30/25 Q0998 TEMPO 2100 SHRA
ZGOW,2011-07-17 09:00,ZGOW 170900Z 20004G13MPS 9999 SCT014 SCT030CB 29/25 Q0999 TEMPO 2100 SHRA
ZGOW,2011-07-17 10:00,ZGOW 171000Z 21005MPS 9999 SCT014 FEW030CB 28/25 Q0999 TEMPO 2100 SHRA
ZGOW,2011-07-17 11:00,ZGOW 171100Z 21003MPS 9999 SCT014 FEW030CB 27/24 Q0999 TEMPO 2100 SHRA
ZGOW,2011-07-17 12:00,ZGOW 171200Z 21003MPS 9999 FEW020 FEW030CB 28/24 Q0999 TEMPO 2100 SHRA
ZGOW,2011-07-17 13:00,ZGOW 171300Z 00000MPS 9999 FEW020 FEW030CB 27/24 Q1000 TEMPO 2100 SHRA
ZGOW,2011-07-17 14:00,ZGOW 171400Z 21002MPS 9999 FEW020 FEW030TCU 27/24 Q1000 NOSIG
ZGOW,2011-07-17 15:00,ZGOW 171500Z 22001MPS 9999 FEW020 27/24 Q1000 NOSIG
ZGOW,2011-07-17 16:00,ZGOW 171600Z 00000MPS 9999 FEW020 27/24 Q1000 NOSIG
ZGOW,2011-07-17 17:00,ZGOW 171700Z 00000MPS 9999 FEW020 27/24 Q0999 NOSIG
ZGOW,2011-07-17 18:00,ZGOW 171800Z 00000MPS 9999 FEW020 27/24 Q0999 NOSIG
ZGOW,2011-07-17 19:00,ZGOW 171900Z AUTO 00000MPS CAVOK 27/24 Q0999
ZGOW,2011-07-17 20:00,ZGOW 172000Z AUTO 00000MPS CAVOK 27/24 Q0999
ZGOW,2011-07-17 21:00,ZGOW 172100Z 00000MPS 7000 FEW014 26/24 Q0998 NOSIG
ZGOW,2011-07-17 22:00,ZGOW 172200Z 00000MPS 7000 FEW014 26/24 Q0999 NOSIG
ZGOW,2011-07-17 23:00,ZGOW 172300Z 00000MPS 4000 BR SCT020 FEW033CB 26/24 Q0999 NOSIG
ZGOW,2011-07-18 00:00,ZGOW 180000Z 04002MPS 4000 BR SCT020 FEW033CB 27/25 Q0999 NOSIG
ZGOW,2011-07-18 01:00,ZGOW 180100Z 02001MPS 6000 FEW020 FEW033TCU 29/25 Q0999 NOSIG
ZGOW,2011-07-18 02:00,ZGOW 180200Z 15002MPS 7000 SCT009 FEW030TCU BKN050 28/25 Q0999 NOSIG
ZGOW,2011-07-18 03:00,ZGOW 180300Z 22001MPS 6000 SCT016 BKN043 29/24 Q0999 NOSIG
ZGOW,2011-07-18 04:00,ZGOW 180400Z 31001MPS 7000 SCT016 FEW030TCU BKN050 30/25 Q0999 NOSIG
ZGOW,2011-07-18 05:00,ZGOW 180500Z 26001MPS 7000 SCT022 FEW030TCU BKN050 30/25 Q0998 NOSIG
ZGOW,2011-07-18 06:00,ZGOW 180600Z 26003MPS 6000 SCT022 FEW030TCU BKN050 31/25 Q0998 NOSIG
ZGOW,2011-07-18 07:00,ZGOW 180700Z 26002MPS 8000 SCT025 FEW033TCU BKN050 31/24 Q0998 NOSIG
ZGOW,2011-07-18 08:00,ZGOW 180800Z 22004MPS 180V270 9000 SCT025 FEW033CB 31/24 Q0997 TEMPO VRB07MPS 2800 -TSRA
ZGOW,2011-07-18 09:00,ZGOW 180900Z 22003MPS 5000 HZ FEW025 FEW033TCU 31/25 Q0997 NOSIG
ZGOW,2011-07-18 10:00,ZGOW 181000Z 22004MPS 7000 FEW025 FEW033TCU 31/25 Q0997 NOSIG
ZGOW,2011-07-18 11:00,ZGOW 181100Z 23004MPS 6000 FEW026 29/25 Q0997 NOSIG
ZGOW,2011-07-18 12:00,ZGOW 181200Z 26002MPS 6000 FEW026 29/25 Q0998 NOSIG
ZGOW,2011-07-18 13:00,ZGOW 181300Z 27002MPS 5000 BR NSC 29/25 Q0999 NOSIG
ZGOW,2011-07-18 14:00,ZGOW 181400Z 20002MPS 3500 BR NSC 28/25 Q0999 NOSIG
ZGOW,2011-07-18 15:00,ZGOW 181500Z 14002MPS 3500 BR NSC 27/25 Q0999 NOSIG
ZGOW,2011-07-18 16:00,ZGOW 181600Z 23002MPS 4000 BR NSC 28/25 Q0999 NOSIG
ZGOW,2011-07-18 17:00,ZGOW 181700Z 22002MPS 4000 BR NSC 28/25 Q0999 NOSIG
ZGOW,2011-07-18 19:00,ZGOW 181900Z AUTO 22003MPS 3500 // NCD 27/24 Q0999
ZGOW,2011-07-18 21:00,ZGOW 182100Z 23002MPS 5000 BR NSC 27/24 Q0999 NOSIG
ZGOW,2011-07-18 22:00,ZGOW 182200Z 24001MPS 4500 BR NSC 27/24 Q0999 NOSIG
ZGOW,2011-07-18 23:00,ZGOW 182300Z 25001MPS 5000 BR NSC 28/24 Q0999 NOSIG
ZGOW,2011-07-19 00:00,ZGOW 190000Z 24002MPS 3500 BR SCT020 28/24 Q0999 NOSIG
ZGOW,2011-07-19 02:00,ZGOW 190200Z 27003MPS 4000 HZ FEW016 31/24 Q1000 NOSIG
ZGOW,2011-07-19 03:00,ZGOW 190300Z 23004MPS 5000 HZ NSC 32/23 Q1000 NOSIG
ZGOW,2011-07-19 04:00,ZGOW 190400Z 24005MPS 6000 NSC 33/23 Q0999 NOSIG
ZGOW,2011-07-19 05:00,ZGOW 190500Z 16004MPS 6000 FEW024TCU SCT046 33/25 Q0999 NOSIG
ZGOW,2011-07-19 06:00,ZGOW 190600Z 19007MPS 7000 FEW020 33/24 Q0999 NOSIG
ZGOW,2011-07-19 07:00,ZGOW 190700Z 19007MPS 9999 FEW020 FEW030CB 33/25 Q0998 NOSIG
ZGOW,2011-07-19 08:00,ZGOW 190800Z 19006MPS 9999 FEW020 FEW030CB 32/25 Q0999 NOSIG
ZGOW,2011-07-19 09:00,ZGOW 190900Z 31002MPS 9999 TS BKN024 FEW030CB 29/23 Q0999 TEMPO 2100 TSRA
ZGOW,2011-07-19 10:00,ZGOW 191000Z 06001MPS 9999 FEW028CB BKN028 29/24 Q1000 RETS NOSIG
ZGOW,2011-07-19 11:00,ZGOW 191100Z 31002MPS 9999 TS SCT020 SCT030CB BKN050 28/23 Q1001 TEMPO 2100 TSRA
ZGOW,2011-07-19 12:00,ZGOW 191200Z 00000MPS 9999 SCT020 FEW030CB BKN050 27/24 Q1001 RETS TEMPO 2100 SHRA
ZGOW,2011-07-19 13:00,ZGOW 191300Z 00000MPS 9999 SCT020 28/24 Q1001 TEMPO 2100 SHRA
ZGOW,2011-07-19 14:00,ZGOW 191400Z 19002MPS 9999 FEW022 28/24 Q1002 NOSIG
ZGOW,2011-07-19 15:00,ZGOW 191500Z 18002MPS 9999 SCT040 27/24 Q1002 NOSIG
ZGOW,2011-07-19 16:00,ZGOW 191600Z 08002MPS 9999 FEW016 27/24 Q1002 NOSIG
ZGOW,2011-07-19 17:00,ZGOW 191700Z 00000MPS 9999 FEW016 27/24 Q1002 NOSIG
ZGOW,2011-07-19 18:00,ZGOW 191800Z AUTO 17002MPS 9999 ////// 27/23 Q1002
ZGOW,2011-07-19 19:00,ZGOW 191900Z AUTO 00000MPS CAVOK 27/23 Q1001
ZGOW,2011-07-19 20:00,ZGOW 192000Z AUTO 00000MPS 9999 ////// 27/23 Q1002
ZGOW,2011-07-19 21:00,ZGOW 192100Z 19002MPS 9999 SCT033 26/24 Q1002 NOSIG
ZGOW,2011-07-19 22:00,ZGOW 192200Z 14002MPS 3500 R22/1400VP2000U -SHRA SCT020 FEW030CB BKN040 26/24 Q1002 NOSIG
ZGOW,2011-07-19 23:00,ZGOW 192300Z 15002MPS 9999 FEW006 SCT014 FEW030CB BKN040 26/25 Q1003 NOSIG
ZGOW,2011-07-20 00:00,ZGOW 200000Z 12002MPS 4500 -SHRA SCT004 SCT028CB BKN040 26/25 Q1003 TEMPO VRB08G13MPS 1500 TSRA
ZGOW,2011-07-20 01:00,ZGOW 200100Z 14002MPS 2500 SHRA SCT004 SCT028CB OVC040 25/24 Q1004 BECMG FM0140 3500 -SHRA
ZGOW,2011-07-20 02:00,ZGOW 200200Z 16002MPS 2000 SHRA SCT004 SCT028CB BKN040 25/24 Q1004 NOSIG
ZGOW,2011-07-20 03:00,ZGOW 200300Z 17002MPS 7000 SHRA SCT010 SCT028CB BKN040 26/24 Q1004 NOSIG
ZGOW,2011-07-20 04:00,ZGOW 200400Z 18001MPS 9999 SCT010 FEW028CB BKN050 27/24 Q1004 RESHRA NOSIG
ZGOW,2011-07-20 05:00,ZGOW 200500Z 18002MPS 9999 SCT009 FEW028CB BKN050 28/25 Q1004 NOSIG
ZGOW,2011-07-20 06:00,ZGOW 200600Z 16003MPS 9999 SCT008 FEW028CB BKN050 28/25 Q1003 NOSIG
ZGOW,2011-07-20 07:00,ZGOW 200700Z 20005MPS 9999 SCT012 FEW028CB BKN050 28/24 Q1003 NOSIG
ZGOW,2011-07-20 08:00,ZGOW 200800Z 19005MPS 9999 SCT012 FEW028CB 28/24 Q1003 NOSIG
ZGOW,2011-07-20 09:00,ZGOW 200900Z 19004MPS 9999 SCT012 FEW028CB 28/24 Q1003 NOSIG
ZGOW,2011-07-20 10:00,ZGOW 201000Z 19004MPS 9999 SCT012 FEW028CB 28/24 Q1003 NOSIG
ZGOW,2011-07-20 11:00,ZGOW 201100Z 21002MPS 9999 SCT012 FEW028TCU 27/24 Q1003 NOSIG
ZGOW,2011-07-20 12:00,ZGOW 201200Z 21002MPS 9999 FEW012 FEW028TCU 27/24 Q1004 NOSIG
ZGOW,2011-07-20 13:00,ZGOW 201300Z 13001MPS 9999 FEW012 FEW028TCU BKN040 27/24 Q1005 NOSIG
ZGOW,2011-07-20 14:00,ZGOW 201400Z 16001MPS 9999 FEW012 FEW028TCU 26/24 Q1005 NOSIG
ZGOW,2011-07-20 15:00,ZGOW 201500Z 15001MPS 7000 SCT007 FEW028TCU 26/24 Q1005 NOSIG
ZGOW,2011-07-20 16:00,ZGOW 201600Z 18002MPS 8000 SCT006 FEW028TCU 26/24 Q1005 NOSIG
ZGOW,2011-07-20 17:00,ZGOW 201700Z 18002MPS 9999 SCT006 FEW028TCU 26/24 Q1005 NOSIG
ZGOW,2011-07-20 18:00,ZGOW 201800Z 21002MPS 9999 -SHRA SCT006 FEW028CB BKN050 26/24 Q1005 NOSIG
ZGOW,2011-07-20 19:00,ZGOW 201900Z AUTO 18002MPS 9999 ////// 26/24 Q1004
ZGOW,2011-07-20 20:00,ZGOW 202000Z AUTO 19003MPS 9999 ////// 26/24 Q1005
ZGOW,2011-07-20 21:00,ZGOW 202100Z 20001MPS 9999 SCT010 FEW028CB 26/24 Q1005 NOSIG
ZGOW,2011-07-20 22:00,ZGOW 202200Z 19001MPS 9999 SCT018 FEW026TCU 26/24 Q1005 NOSIG
ZGOW,2011-07-20 23:00,ZGOW 202300Z 20001MPS 9999 SCT018 FEW028CB 27/25 Q1005 NOSIG
ZGOW,2011-07-21 00:00,ZGOW 210000Z 20002MPS 9999 -SHRA SCT010 FEW028CB BKN050 27/25 Q1006 NOSIG
ZGOW,2011-07-21 01:00,ZGOW 210100Z 15002MPS 9999 SCT010 FEW030CB 28/25 Q1006 TEMPO 2500 SHRA
ZGOW,2011-07-21 02:00,ZGOW 210200Z 16004MPS 9999 SCT007 FEW030CB 28/26 Q1006 NOSIG
ZGOW,2011-07-21 03:00,ZGOW 210300Z 20004MPS 9999 SCT014 FEW030CB 31/25 Q1006 NOSIG
ZGOW,2011-07-21 04:00,ZGOW 210400Z 18005MPS 9999 SCT014 FEW030CB 31/25 Q1005 NOSIG
ZGOW,2011-07-21 05:00,ZGOW 210500Z 20005MPS 9999 SCT014 FEW030CB 31/26 Q1005 TEMPO VRB08G13MPS 2500 TSRA SCT010 SCT030CB BKN040
ZGOW,2011-07-21 06:00,ZGOW 210600Z 20001MPS 9999 SCT012 FEW030CB 28/26 Q1005 TEMPO VRB08MPS 2500 -TSRA
ZGOW,2011-07-21 07:00,ZGOW 210700Z 19004MPS 9999 SCT014 FEW030CB 31/26 Q1005 NOSIG
ZGOW,2011-07-21 08:00,ZGOW 210800Z 17005MPS 9999 FEW014 FEW030CB 30/24 Q1005 NOSIG
ZGOW,2011-07-21 09:00,ZGOW 210900Z 16004MPS 9999 FEW014 FEW030CB 31/24 Q1004 NOSIG
ZGOW,2011-07-21 10:00,ZGOW 211000Z 16004MPS 9999 FEW014 FEW030CB 30/24 Q1005 NOSIG
ZGOW,2011-07-21 11:00,ZGOW 211100Z 16003MPS 9999 FEW014 FEW030CB 28/25 Q1005 NOSIG
ZGOW,2011-07-21 12:00,ZGOW 211200Z 16002MPS 9999 FEW014 FEW030CB 27/25 Q1005 NOSIG
ZGOW,2011-07-21 13:00,ZGOW 211300Z 19003MPS 9999 FEW014 FEW030CB 28/25 Q1006 NOSIG
ZGOW,2011-07-21 14:00,ZGOW 211400Z 17001MPS 9999 FEW014 27/25 Q1007 NOSIG
ZGOW,2011-07-21 15:00,ZGOW 211500Z 16003MPS 9999 FEW014 27/25 Q1007 NOSIG
ZGOW,2011-07-21 16:00,ZGOW 211600Z 18002MPS 9999 FEW014 27/25 Q1006 NOSIG
ZGOW,2011-07-21 17:00,ZGOW 211700Z 14001MPS 9999 FEW014 27/25 Q1006 NOSIG
ZGOW,2011-07-21 18:00,ZGOW 211800Z AUTO 13001MPS CAVOK 26/25 Q1006
ZGOW,2011-07-21 20:00,ZGOW 212000Z AUTO 12001MPS 4100 // ////// 26/25 Q1006
ZGOW,2011-07-21 21:00,ZGOW 212100Z 00000MPS 4000 BR FEW014 26/24 Q1006 NOSIG
ZGOW,2011-07-21 22:00,ZGOW 212200Z 16001MPS 4000 BR SKC 26/25 Q1006 NOSIG
ZGOW,2011-07-21 23:00,ZGOW 212300Z 00000MPS 8000 SKC 28/26 Q1007 NOSIG
ZGOW,2011-07-22 00:00,ZGOW 220000Z 28001MPS 8000 SCT014 29/25 Q1007 NOSIG
ZGOW,2011-07-22 01:00,ZGOW 220100Z 24004MPS 9999 FEW020 30/23 Q1008 NOSIG
ZGOW,2011-07-22 02:00,ZGOW 220200Z 23003MPS 9999 FEW024 32/23 Q1007 NOSIG
ZGOW,2011-07-22 03:00,ZGOW 220300Z 15004MPS 9999 SCT024 30/25 Q1008 NOSIG
ZGOW,2011-07-22 04:00,ZGOW 220400Z 19003MPS 9999 SCT020 32/25 Q1007 NOSIG
ZGOW,2011-07-22 05:00,ZGOW 220500Z 18005MPS 9999 SCT026 32/25 Q1007 NOSIG
ZGOW,2011-07-22 06:00,ZGOW 220600Z 18005MPS 9999 FEW026 FEW030TCU 33/25 Q1006 NOSIG
ZGOW,2011-07-22 07:00,ZGOW 220700Z 19006MPS 9999 FEW026 FEW030TCU 32/25 Q1006 NOSIG
ZGOW,2011-07-22 08:00,ZGOW 220800Z 17006MPS 9999 FEW026 32/24 Q1005 NOSIG
ZGOW,2011-07-22 09:00,ZGOW 220900Z 18005MPS 9999 FEW026 32/25 Q1005 NOSIG
ZGOW,2011-07-22 10:00,ZGOW 221000Z 19005MPS CAVOK 30/25 Q1005 NOSIG
ZGOW,2011-07-22 11:00,ZGOW 221100Z 19004MPS CAVOK 29/25 Q1006 NOSIG
ZGOW,2011-07-22 12:00,ZGOW 221200Z 19004MPS CAVOK 28/25 Q1006 NOSIG
ZGOW,2011-07-22 13:00,ZGOW 221300Z 18003MPS CAVOK 28/25 Q1007 NOSIG
ZGOW,2011-07-22 14:00,ZGOW 221400Z 17002MPS CAVOK 28/25 Q1008 NOSIG
ZGOW,2011-07-22 15:00,ZGOW 221500Z 20001MPS 9999 FEW020 28/25 Q1008 NOSIG
ZGOW,2011-07-22 16:00,ZGOW 221600Z 00000MPS 9999 FEW020 27/24 Q1007 NOSIG
ZGOW,2011-07-22 17:00,ZGOW 221700Z 00000MPS 9999 FEW014 27/24 Q1007 NOSIG
ZGOW,2011-07-22 18:00,ZGOW 221800Z AUTO 17002MPS 4300 // NCD 27/25 Q1007
ZGOW,2011-07-22 19:00,ZGOW 221900Z AUTO 00000MPS 6000 NCD 27/24 Q1007
ZGOW,2011-07-22 20:00,ZGOW 222000Z AUTO 00000MPS 5000 NCD 27/24 Q1007
ZGOW,2011-07-22 21:00,ZGOW 222100Z 00000MPS 7000 NSC 27/24 Q1007 NOSIG
ZGOW,2011-07-22 22:00,ZGOW 222200Z 00000MPS 7000 SKC 26/24 Q1007 NOSIG
ZGOW,2011-07-22 23:00,ZGOW 222300Z 30002MPS 5000 BR SKC 27/25 Q1008 NOSIG
ZGOW,2011-07-23 00:00,ZGOW 230000Z 29002MPS 5000 BR FEW014 29/25 Q1008 NOSIG
ZGOW,2011-07-23 01:00,ZGOW 230100Z 28002MPS 9999 SCT022 31/24 Q1008 NOSIG
ZGOW,2011-07-23 02:00,ZGOW 230200Z 30003MPS 9999 BKN030 31/23 Q1008 NOSIG
ZGOW,2011-07-23 03:00,ZGOW 230300Z 28003MPS 9999 BKN030 32/24 Q1008 NOSIG
ZGOW,2011-07-23 04:00,ZGOW 230400Z 26002MPS 9999 SCT030 33/23 Q1007 NOSIG
ZGOW,2011-07-23 05:00,ZGOW 230500Z 20002MPS 9999 SCT030 34/24 Q1007 NOSIG
ZGOW,2011-07-23 06:00,ZGOW 230600Z 22002MPS 9999 FEW030 35/22 Q1006 NOSIG
ZGOW,2011-07-23 07:00,ZGOW 230700Z 16005MPS 9999 FEW030 34/25 Q1006 NOSIG
ZGOW,2011-07-23 08:00,ZGOW 230800Z 17006MPS 9999 FEW030 33/25 Q1006 NOSIG
ZGOW,2011-07-23 09:00,ZGOW 230900Z 17005MPS 9999 FEW030 32/24 Q1006 NOSIG
ZGOW,2011-07-23 10:00,ZGOW 231000Z 17004MPS CAVOK 31/24 Q1006 NOSIG
ZGOW,2011-07-23 11:00,ZGOW 231100Z 18004MPS CAVOK 29/24 Q1006 NOSIG
ZGOW,2011-07-23 12:00,ZGOW 231200Z 19003MPS 7000 SKC 29/25 Q1007 NOSIG
ZGOW,2011-07-23 13:00,ZGOW 231300Z 19002MPS 8000 SKC 29/24 Q1007 NOSIG
ZGOW,2011-07-23 14:00,ZGOW 231400Z 00000MPS 6000 SKC 29/24 Q1008 NOSIG
ZGOW,2011-07-23 15:00,ZGOW 231500Z 00000MPS 7000 SKC 29/24 Q1008 NOSIG
ZGOW,2011-07-23 16:00,ZGOW 231600Z 00000MPS 8000 SKC 28/24 Q1008 NOSIG
ZGOW,2011-07-23 17:00,ZGOW 231700Z 00000MPS CAVOK 27/25 Q1008 NOSIG
ZGOW,2011-07-23 18:00,ZGOW 231800Z AUTO 00000MPS CAVOK 28/24 Q1008
ZGOW,2011-07-23 19:00,ZGOW 231900Z AUTO 00000MPS 6000 NCD 28/25 Q1007
ZGOW,2011-07-23 20:00,ZGOW 232000Z AUTO 00000MPS 6000 NCD 28/24 Q1007
ZGOW,2011-07-23 21:00,ZGOW 232100Z 29002MPS 6000 NSC 27/25 Q1007 NOSIG
ZGOW,2011-07-23 22:00,ZGOW 232200Z 00000MPS 8000 NSC 27/24 Q1007 NOSIG
ZGOW,2011-07-23 23:00,ZGOW 232300Z 29001MPS 7000 NSC 28/24 Q1007 NOSIG
ZGOW,2011-07-24 00:00,ZGOW 240000Z 28002MPS CAVOK 30/25 Q1007 NOSIG
ZGOW,2011-07-24 01:00,ZGOW 240100Z 29002MPS CAVOK 31/25 Q1007 NOSIG
ZGOW,2011-07-24 02:00,ZGOW 240200Z 30003MPS CAVOK 33/26 Q1007 NOSIG
ZGOW,2011-07-24 03:00,ZGOW 240300Z 32003MPS CAVOK 34/25 Q1007 NOSIG
ZGOW,2011-07-24 04:00,ZGOW 240400Z 12003MPS CAVOK 35/26 Q1006 NOSIG
ZGOW,2011-07-24 05:00,ZGOW 240500Z 12004MPS CAVOK 35/27 Q1006 NOSIG
ZGOW,2011-07-24 06:00,ZGOW 240600Z 13005MPS CAVOK 35/26 Q1006 NOSIG
ZGOW,2011-07-24 07:00,ZGOW 240700Z 14005MPS CAVOK 34/26 Q1006 NOSIG
ZGOW,2011-07-24 08:00,ZGOW 240800Z 17006MPS CAVOK 33/25 Q1005 NOSIG
ZGOW,2011-07-24 09:00,ZGOW 240900Z 16004MPS CAVOK 33/24 Q1005 NOSIG
ZGOW,2011-07-24 10:00,ZGOW 241000Z 18003MPS CAVOK 32/23 Q1005 NOSIG
ZGOW,2011-07-24 11:00,ZGOW 241100Z 20002MPS 7000 SKC 31/23 Q1006 NOSIG
ZGOW,2011-07-24 12:00,ZGOW 241200Z 12002MPS 5000 HZ SKC 30/24 Q1006 NOSIG
ZGOW,2011-07-24 13:00,ZGOW 241300Z 10002MPS 5000 HZ SKC 28/25 Q1007 NOSIG
ZGOW,2011-07-24 14:00,ZGOW 241400Z 08002MPS 5000 BR SKC 27/25 Q1007 NOSIG
ZGOW,2011-07-24 15:00,ZGOW 241500Z 07002MPS 4000 BR SKC 27/25 Q1007 NOSIG
ZGOW,2011-07-24 16:00,ZGOW 241600Z 06002MPS 4000 BR SKC 27/25 Q1007 NOSIG
ZGOW,2011-07-24 17:00,ZGOW 241700Z 08002MPS 4000 BR SKC 26/24 Q1007 NOSIG
ZGOW,2011-07-24 21:00,ZGOW 242100Z 10001MPS 4000 BR SKC 26/24 Q1007 NOSIG
ZGOW,2011-07-24 22:00,ZGOW 242200Z 00000MPS 2500 BR SKC 26/24 Q1007 NOSIG
ZGOW,2011-07-24 23:00,ZGOW 242300Z 10001MPS 2500 BR FEW014 27/25 Q1008 NOSIG
ZGOW,2011-07-25 00:00,ZGOW 250000Z 00000MPS 4000 BR SKC 29/26 Q1008 NOSIG
ZGOW,2011-07-25 01:00,ZGOW 250100Z 32001MPS 3500 BR SCT014 30/25 Q1008 NOSIG
ZGOW,2011-07-25 02:00,ZGOW 250200Z 31001MPS 3500 HZ FEW014 33/25 Q1007 NOSIG
ZGOW,2011-07-25 03:00,ZGOW 250300Z 12003MPS 4000 HZ SCT020 33/27 Q1008 NOSIG
ZGOW,2011-07-25 04:00,ZGOW 250400Z 14004MPS 4500 HZ FEW020 33/26 Q1007 NOSIG
ZGOW,2011-07-25 05:00,ZGOW 250500Z 15005MPS 6000 FEW020 33/26 Q1007 NOSIG
ZGOW,2011-07-25 06:00,ZGOW 250600Z 17006MPS CAVOK 32/26 Q1006 NOSIG
ZGOW,2011-07-25 07:00,ZGOW 250700Z 17006MPS 9999 FEW026TCU 32/25 Q1006 NOSIG
ZGOW,2011-07-25 08:00,ZGOW 250800Z 19005MPS 9999 FEW026TCU 32/25 Q1006 NOSIG
ZGOW,2011-07-25 09:00,ZGOW 250900Z 17005MPS CAVOK 31/25 Q1006 NOSIG
ZGOW,2011-07-25 10:00,ZGOW 251000Z 17004MPS CAVOK 30/25 Q1007 NOSIG
ZGOW,2011-07-25 11:00,ZGOW 251100Z 17003MPS CAVOK 29/25 Q1007 NOSIG
ZGOW,2011-07-25 12:00,ZGOW 251200Z 14003MPS CAVOK 28/24 Q1007 NOSIG
ZGOW,2011-07-25 13:00,ZGOW 251300Z 15003MPS CAVOK 27/25 Q1007 NOSIG
ZGOW,2011-07-25 14:00,ZGOW 251400Z 15002MPS 7000 NSC 27/25 Q1008 NOSIG
ZGOW,2011-07-25 15:00,ZGOW 251500Z 12002MPS 6000 SCT012 27/25 Q1008 NOSIG
ZGOW,2011-07-25 16:00,ZGOW 251600Z 13002MPS 5000 BR SCT014 27/25 Q1008 NOSIG
ZGOW,2011-07-25 17:00,ZGOW 251700Z AUTO 12002MPS 6000 ////// 27/25 Q1008
ZGOW,2011-07-25 18:00,ZGOW 251800Z AUTO 11001MPS 3900 // ////// 27/24 Q1008
ZGOW,2011-07-25 19:00,ZGOW 251900Z AUTO 10001MPS 5000 NCD 26/25 Q1007
ZGOW,2011-07-25 21:00,ZGOW 252100Z 13001MPS 3500 BR SKC 26/25 Q1008 TEMPO 2500 BR
ZGOW,2011-07-25 22:00,ZGOW 252200Z 06001MPS 3500 BR NSC 26/24 Q1008 TEMPO 2500 BR
ZGOW,2011-07-25 23:00,ZGOW 252300Z 05001MPS 4000 BR NSC 27/25 Q1009 NOSIG
ZGOW,2011-07-26 00:00,ZGOW 260000Z 10002MPS 5000 BR FEW014 28/25 Q1009 NOSIG
ZGOW,2011-07-26 01:00,ZGOW 260100Z 13002MPS 9999 FEW020 FEW033TCU 29/25 Q1010 NOSIG
ZGOW,2011-07-26 02:00,ZGOW 260200Z 14002MPS 9999 FEW022 FEW033TCU 31/25 Q1010 NOSIG
ZGOW,2011-07-26 03:00,ZGOW 260300Z 13003MPS 9999 FEW024 FEW033TCU 32/24 Q1010 NOSIG
ZGOW,2011-07-26 04:00,ZGOW 260400Z 13003MPS 9999 FEW024 FEW033TCU 32/25 Q1009 NOSIG
ZGOW,2011-07-26 05:00,ZGOW 260500Z 13005MPS 090V190 9999 FEW024 FEW033TCU 32/25 Q1009 NOSIG
ZGOW,2011-07-26 06:00,ZGOW 260600Z 14005MPS 090V180 9999 FEW020 FEW033CB 31/25 Q1008 NOSIG
ZGOW,2011-07-26 07:00,ZGOW 260700Z 14004MPS 9999 FEW020 FEW033CB 31/25 Q1008 NOSIG
ZGOW,2011-07-26 08:00,ZGOW 260800Z 14004MPS 9999 FEW018 FEW033TCU 31/25 Q1007 NOSIG
ZGOW,2011-07-26 09:00,ZGOW 260900Z 14003MPS 9999 FEW018 FEW033TCU 31/24 Q1006 NOSIG
ZGOW,2011-07-26 10:00,ZGOW 261000Z 15004MPS 9999 FEW016 FEW033TCU 30/25 Q1006 NOSIG
ZGOW,2011-07-26 11:00,ZGOW 261100Z 14004MPS 6000 SCT010 28/25 Q1007 NOSIG
ZGOW,2011-07-26 12:00,ZGOW 261200Z 13002MPS 6000 SCT008 28/25 Q1008 NOSIG
ZGOW,2011-07-26 13:00,ZGOW 261300Z 12002MPS 8000 FEW010 28/25 Q1008 NOSIG
ZGOW,2011-07-26 14:00,ZGOW 261400Z 14001MPS 9999 FEW016 27/25 Q1009 NOSIG
ZGOW,2011-07-26 15:00,ZGOW 261500Z 05001MPS CAVOK 27/25 Q1009 NOSIG
ZGOW,2011-07-26 16:00,ZGOW 261600Z 08001MPS CAVOK 27/25 Q1009 NOSIG
ZGOW,2011-07-26 17:00,ZGOW 261700Z 00000MPS 9999 FEW012 27/25 Q1008 NOSIG
ZGOW,2011-07-26 18:00,ZGOW 261800Z AUTO 35001MPS 9999 ////// 27/24 Q1008
ZGOW,2011-07-26 19:00,ZGOW 261900Z AUTO 33002MPS 9000 ////// 27/24 Q1008
ZGOW,2011-07-26 20:00,ZGOW 262000Z AUTO 34001MPS 9999 ////// 27/24 Q1008
ZGOW,2011-07-26 21:00,ZGOW 262100Z 33001MPS 9999 FEW020 FEW033TCU SCT050 27/24 Q1007 NOSIG
ZGOW,2011-07-26 22:00,ZGOW 262200Z 31001MPS 9999 FEW020 FEW033TCU SCT040 27/24 Q1008 NOSIG
ZGOW,2011-07-26 23:00,ZGOW 262300Z 33001MPS 9999 FEW020 28/24 Q1008 NOSIG
ZGOW,2011-07-27 00:00,ZGOW 270000Z 32003MPS 9999 BKN030 FEW040TCU 29/23 Q1008 NOSIG
ZGOW,2011-07-27 01:00,ZGOW 270100Z 33002MPS 9999 SCT020 FEW030TCU 31/24 Q1009 NOSIG
ZGOW,2011-07-27 02:00,ZGOW 270200Z 30002MPS 9999 SCT020 FEW030TCU 31/24 Q1009 NOSIG
ZGOW,2011-07-27 03:00,ZGOW 270300Z 22002MPS 9999 SCT020 FEW030TCU 32/24 Q1009 NOSIG
ZGOW,2011-07-27 04:00,ZGOW 270400Z 27002MPS 9999 SCT020 FEW030TCU 33/24 Q1008 NOSIG
ZGOW,2011-07-27 05:00,ZGOW 270500Z 20002MPS 9999 SCT020 FEW030TCU 33/23 Q1007 NOSIG
ZGOW,2011-07-27 06:00,ZGOW 270600Z 18004MPS 9999 SCT020 FEW030TCU 33/24 Q1007 NOSIG
ZGOW,2011-07-27 07:00,ZGOW 270700Z 16003MPS 9999 SCT020 34/24 Q1006 NOSIG
ZGOW,2011-07-27 08:00,ZGOW 270800Z 17004MPS 9999 SCT020 34/23 Q1006 NOSIG
ZGOW,2011-07-27 09:00,ZGOW 270900Z 16004MPS 9999 FEW020 33/23 Q1005 NOSIG
ZGOW,2011-07-27 10:00,ZGOW 271000Z 17003MPS 9999 FEW020 32/23 Q1005 NOSIG
ZGOW,2011-07-27 11:00,ZGOW 271100Z 17004MPS 9999 FEW020 30/23 Q1006 NOSIG
ZGOW,2011-07-27 12:00,ZGOW 271200Z 17002MPS 9999 FEW020 30/23 Q1006 NOSIG
ZGOW,2011-07-27 13:00,ZGOW 271300Z 21002MPS 9999 FEW020 30/22 Q1006 NOSIG
ZGOW,2011-07-27 14:00,ZGOW 271400Z 28001MPS 9999 FEW020 30/22 Q1006 NOSIG
ZGOW,2011-07-27 15:00,ZGOW 271500Z 11002MPS 9999 FEW020 29/23 Q1006 NOSIG
ZGOW,2011-07-27 16:00,ZGOW 271600Z 11003MPS 9999 FEW020 28/24 Q1007 NOSIG
ZGOW,2011-07-27 17:00,ZGOW 271700Z 13002MPS 9999 FEW020 28/24 Q1006 NOSIG
ZGOW,2011-07-27 18:00,ZGOW 271800Z 08002MPS 9999 FEW020 27/24 Q1006 NOSIG
ZGOW,2011-07-27 19:00,ZGOW 271900Z AUTO 00000MPS CAVOK 27/24 Q1005
ZGOW,2011-07-27 20:00,ZGOW 272000Z AUTO 03002MPS 9999 ////// 27/23 Q1005
ZGOW,2011-07-27 21:00,ZGOW 272100Z 32002MPS 9999 BKN040 28/24 Q1006 NOSIG
ZGOW,2011-07-27 22:00,ZGOW 272200Z 00000MPS 9999 BKN040 28/24 Q1006 NOSIG
ZGOW,2011-07-27 23:00,ZGOW 272300Z 05001MPS CAVOK 29/24 Q1006 NOSIG
ZGOW,2011-07-28 00:00,ZGOW 280000Z 04002MPS CAVOK 30/24 Q1006 NOSIG
ZGOW,2011-07-28 01:00,ZGOW 280100Z 11003MPS 9999 SCT018 FEW026TCU 30/24 Q1007 NOSIG
ZGOW,2011-07-28 02:00,ZGOW 280200Z 12003MPS 9999 FEW020 31/24 Q1007 NOSIG
ZGOW,2011-07-28 03:00,ZGOW 280300Z 13005MPS 9999 FEW020 31/25 Q1007 NOSIG
ZGOW,2011-07-28 04:00,ZGOW 280400Z 12005MPS 9999 FEW020 31/25 Q1006 NOSIG
ZGOW,2011-07-28 05:00,ZGOW 280500Z 12005MPS 9999 FEW020 32/25 Q1006 NOSIG
ZGOW,2011-07-28 06:00,ZGOW 280600Z 12005MPS CAVOK 31/23 Q1005 NOSIG
ZGOW,2011-07-28 07:00,ZGOW 280700Z 12005MPS CAVOK 32/23 Q1004 NOSIG
ZGOW,2011-07-28 08:00,ZGOW 280800Z 11006MPS CAVOK 31/24 Q1004 NOSIG
ZGOW,2011-07-28 09:00,ZGOW 280900Z 11006MPS CAVOK 31/23 Q1004 NOSIG
ZGOW,2011-07-28 10:00,ZGOW 281000Z 11005MPS CAVOK 30/23 Q1005 NOSIG
ZGOW,2011-07-28 11:00,ZGOW 281100Z 10003MPS CAVOK 29/23 Q1006 NOSIG
ZGOW,2011-07-28 12:00,ZGOW 281200Z 09002MPS CAVOK 29/23 Q1006 NOSIG
ZGOW,2011-07-28 13:00,ZGOW 281300Z 10002MPS CAVOK 28/23 Q1007 NOSIG
ZGOW,2011-07-28 14:00,ZGOW 281400Z 10003MPS CAVOK 28/23 Q1007 NOSIG
ZGOW,2011-07-28 15:00,ZGOW 281500Z 06003MPS CAVOK 28/24 Q1007 NOSIG
ZGOW,2011-07-28 16:00,ZGOW 281600Z 07002MPS CAVOK 28/24 Q1007 NOSIG
ZGOW,2011-07-28 17:00,ZGOW 281700Z 07003MPS 9999 FEW040 28/24 Q1006 NOSIG
ZGOW,2011-07-28 18:00,ZGOW 281800Z AUTO 06004MPS 9999 ////// 28/24 Q1006
ZGOW,2011-07-28 19:00,ZGOW 281900Z AUTO 06005MPS CAVOK 28/24 Q1005
ZGOW,2011-07-28 20:00,ZGOW 282000Z AUTO 07005MPS 9999 ////// 28/24 Q1005
ZGOW,2011-07-28 21:00,ZGOW 282100Z 07005MPS 9999 SCT020 FEW030CB 28/24 Q1005 NOSIG
ZGOW,2011-07-28 22:00,ZGOW 282200Z 07005MPS 9999 SCT020 FEW030CB BKN050 28/24 Q1005 NOSIG
ZGOW,2011-07-28 23:00,ZGOW 282300Z 08005MPS 9999 SCT018 FEW030CB BKN050 28/24 Q1005 NOSIG
ZGOW,2011-07-29 00:00,ZGOW 290000Z 10005MPS 9999 SCT018 FEW030CB BKN050 29/25 Q1006 NOSIG
ZGOW,2011-07-29 01:00,ZGOW 290100Z 10006MPS 9999 FEW020 FEW033TCU 30/25 Q1006 NOSIG
ZGOW,2011-07-29 02:00,ZGOW 290200Z 11006MPS 060V150 9999 SCT025 FEW033TCU 30/25 Q1006 NOSIG
ZGOW,2011-07-29 03:00,ZGOW 290300Z 11006MPS 080V150 9999 FEW026 FEW033TCU 31/25 Q1006 NOSIG
ZGOW,2011-07-29 04:00,ZGOW 290400Z 11007MPS 9999 SCT012 FEW033CB BKN050 30/25 Q1006 NOSIG
ZGOW,2011-07-29 05:00,ZGOW 290500Z 12004MPS 080V170 9999 FEW020 FEW033TCU 31/23 Q1006 NOSIG
ZGOW,2011-07-29 06:00,ZGOW 290600Z 12006MPS 080V160 9999 FEW020 FEW033CB BKN050 31/24 Q1005 TEMPO 12007G12MPS 2500 SHRA
ZGOW,2011-07-29 07:00,ZGOW 290700Z 12004MPS 9999 FEW020 FEW033CB 28/25 Q1005 TEMPO 12007G12MPS 2500 SHRA
ZGOW,2011-07-29 08:00,ZGOW 290800Z 11006MPS 070V140 9999 SCT009 FEW033CB BKN050 29/25 Q1004 TEMPO 12007G12MPS 2100 SHRA
ZGOW,2011-07-29 09:00,ZGOW 290900Z 10002MPS 9999 SCT016 FEW040CB 27/24 Q1005 RESHRA NOSIG
ZGOW,2011-07-29 10:00,ZGOW 291000Z 09004MPS 9999 SCT020 FEW033TCU 26/24 Q1005 NOSIG
ZGOW,2011-07-29 11:00,ZGOW 291100Z 09003MPS 9999 SCT014 FEW033TCU BKN050 27/23 Q1006 NOSIG
ZGOW,2011-07-29 12:00,ZGOW 291200Z 09003MPS 9999 SCT012 FEW033TCU BKN040 26/24 Q1007 NOSIG
ZGOW,2011-07-29 13:00,ZGOW 291300Z 11004MPS 9999 SCT018 BKN050 26/24 Q1007 NOSIG
ZGOW,2011-07-29 14:00,ZGOW 291400Z 09001MPS 9999 SCT014 BKN050 27/24 Q1007 NOSIG
ZGOW,2011-07-29 15:00,ZGOW 291500Z 07002MPS 9999 SCT014 BKN050 26/24 Q1008 NOSIG
ZGOW,2011-07-29 16:00,ZGOW 291600Z 04002MPS 9999 FEW016 26/24 Q1007 NOSIG
ZGOW,2011-07-29 17:00,ZGOW 291700Z 05001MPS 9999 SCT018 BKN050 27/24 Q1007 NOSIG
ZGOW,2011-07-29 18:00,ZGOW 291800Z 06002MPS 9999 SCT010 BKN040 26/24 Q1006 NOSIG
ZGOW,2011-07-29 19:00,ZGOW 291900Z 05001MPS 9999 FEW016 SCT050 26/24 Q1005 NOSIG
ZGOW,2011-07-29 20:00,ZGOW 292000Z 07002MPS 9999 FEW016 SCT050 26/24 Q1005 NOSIG
ZGOW,2011-07-29 21:00,ZGOW 292100Z 07003MPS 9999 FEW016 SCT050 26/24 Q1005 NOSIG
ZGOW,2011-07-29 22:00,ZGOW 292200Z 06001MPS 9999 FEW016 26/24 Q1005 NOSIG
ZGOW,2011-07-29 23:00,ZGOW 292300Z 07003MPS 9999 SCT018 27/25 Q1006 NOSIG
ZGOW,2011-07-30 00:00,ZGOW 300000Z 06004MPS 9999 SCT010 FEW030TCU BKN050 27/24 Q1006 NOSIG
ZGOW,2011-07-30 01:00,ZGOW 300100Z 08003MPS 9999 SCT020 29/24 Q1006 NOSIG
ZGOW,2011-07-30 02:00,ZGOW 300200Z 07004MPS 9999 SCT020 30/24 Q1006 NOSIG
ZGOW,2011-07-30 03:00,ZGOW 300300Z 10004MPS 9999 SCT020 31/24 Q1006 NOSIG
ZGOW,2011-07-30 04:00,ZGOW 300400Z 11004MPS 9999 SCT020 FEW030TCU 30/24 Q1006 NOSIG
ZGOW,2011-07-30 05:00,ZGOW 300500Z 10003MPS 9999 SCT020 FEW030TCU 30/24 Q1006 NOSIG
ZGOW,2011-07-30 06:00,ZGOW 300600Z 12004MPS 9999 SCT020 FEW030TCU 31/23 Q1005 NOSIG
ZGOW,2011-07-30 07:00,ZGOW 300700Z 12005MPS 9999 SCT020 FEW030TCU 31/24 Q1004 NOSIG
ZGOW,2011-07-30 08:00,ZGOW 300800Z 12005MPS 9999 FEW020 FEW030TCU 30/24 Q1004 NOSIG
ZGOW,2011-07-30 09:00,ZGOW 300900Z 12004MPS 9999 FEW020 FEW030TCU 29/24 Q1004 NOSIG
ZGOW,2011-07-30 10:00,ZGOW 301000Z 11004MPS 9999 FEW020 FEW030TCU 29/24 Q1004 NOSIG
ZGOW,2011-07-30 11:00,ZGOW 301100Z 10003MPS 9999 FEW020 FEW030TCU 27/24 Q1005 NOSIG
ZGOW,2011-07-30 12:00,ZGOW 301200Z 10002MPS CAVOK 27/23 Q1006 NOSIG
ZGOW,2011-07-30 13:00,ZGOW 301300Z 09001MPS CAVOK 27/24 Q1006 NOSIG
ZGOW,2011-07-30 14:00,ZGOW 301400Z 09001MPS CAVOK 27/24 Q1007 NOSIG
ZGOW,2011-07-30 15:00,ZGOW 301500Z 00000MPS CAVOK 27/24 Q1007 NOSIG
ZGOW,2011-07-30 16:00,ZGOW 301600Z 00000MPS 9999 FEW016 27/25 Q1011 NOSIG
ZGOW,2011-07-30 17:00,ZGOW 301700Z 00000MPS 9999 FEW016 26/24 Q1011 NOSIG
ZGOW,2011-07-30 18:00,ZGOW 301800Z AUTO 29001MPS CAVOK 27/24 Q1005
ZGOW,2011-07-30 19:00,ZGOW 301900Z AUTO 00000MPS 7000 NCD 26/24 Q1010
ZGOW,2011-07-30 20:00,ZGOW 302000Z AUTO 13002MPS 8000 NCD 26/24 Q1010
ZGOW,2011-07-30 21:00,ZGOW 302100Z 12002MPS 7000 FEW018 26/24 Q1010 NOSIG
ZGOW,2011-07-30 22:00,ZGOW 302200Z 00000MPS 6000 FEW016 26/24 Q1010 NOSIG
ZGOW,2011-07-30 23:00,ZGOW 302300Z 08001MPS 6000 SCT014 27/25 Q1011 NOSIG
ZGOW,2011-07-31 00:00,ZGOW 310000Z 32003MPS CAVOK 28/24 Q1005 NOSIG
ZGOW,2011-07-31 01:00,ZGOW 310100Z 02001MPS CAVOK 31/23 Q1006 NOSIG
ZGOW,2011-07-31 02:00,ZGOW 310200Z 05001MPS 9999 FEW024 32/22 Q1006 NOSIG
ZGOW,2011-07-31 03:00,ZGOW 310300Z 13002MPS CAVOK 33/23 Q1006 NOSIG
ZGOW,2011-07-31 04:00,ZGOW 310400Z 12003MPS 9999 FEW024 33/23 Q1006 NOSIG
ZGOW,2011-07-31 05:00,ZGOW 310500Z 16004MPS CAVOK 33/22 Q1005 NOSIG
ZGOW,2011-07-31 06:00,ZGOW 310600Z 16005MPS CAVOK 33/23 Q1004 NOSIG
ZGOW,2011-07-31 07:00,ZGOW 310700Z 16005MPS CAVOK 33/23 Q1003 NOSIG
ZGOW,2011-07-31 08:00,ZGOW 310800Z 16005G12MPS 6000 R22/0700D NSC 32/23 Q1003 NOSIG
ZGOW,2011-07-31 09:00,ZGOW 310900Z 16005MPS CAVOK 33/22 Q1003 NOSIG
ZGOW,2011-07-31 10:00,ZGOW 311000Z 16004MPS CAVOK 31/23 Q1003 NOSIG
ZGOW,2011-07-31 11:00,ZGOW 311100Z 16003MPS CAVOK 30/23 Q1004 NOSIG
ZGOW,2011-07-31 12:00,ZGOW 311200Z 16002MPS CAVOK 30/23 Q1004 NOSIG
ZGOW,2011-07-31 13:00,ZGOW 311300Z 16002MPS 9999 SCT050 29/24 Q1005 NOSIG
ZGOW,2011-07-31 14:00,ZGOW 311400Z 16001MPS CAVOK 29/24 Q1006 NOSIG
ZGOW,2011-07-31 15:00,ZGOW 311500Z 15002MPS CAVOK 29/23 Q1006 NOSIG
ZGOW,2011-08-01 00:00,ZGOW 010000Z 27003MPS 5000 HZ NSC 30/24 Q1005 NOSIG
ZGOW,2011-08-01 01:00,ZGOW 010100Z 29002MPS 8000 SKC 31/23 Q1005 NOSIG
ZGOW,2011-08-01 02:00,ZGOW 010200Z 13002MPS 9999 FEW025 FEW040TCU 33/22 Q1006 NOSIG
ZGOW,2011-08-01 03:00,ZGOW 010300Z 14003MPS 100V230 6000 FEW026 FEW040TCU 33/24 Q1006 NOSIG
ZGOW,2011-08-01 04:00,ZGOW 010400Z 14003MPS 090V210 7000 FEW026 FEW040TCU 34/23 Q1005 NOSIG
ZGOW,2011-08-01 05:00,ZGOW 010500Z 14004MPS 8000 FEW026 FEW040TCU 34/23 Q1005 NOSIG
ZGOW,2011-08-01 06:00,ZGOW 010600Z 16006MPS 9999 FEW033TCU 34/23 Q1004 NOSIG
ZGOW,2011-08-01 07:00,ZGOW 010700Z 17005MPS 120V210 9999 FEW026 34/22 Q1004 NOSIG
ZGOW,2011-08-01 08:00,ZGOW 010800Z 16006MPS 9999 FEW033TCU 33/21 Q1003 NOSIG
ZGOW,2011-08-01 09:00,ZGOW 010900Z 17006MPS 9999 FEW033TCU 32/22 Q1004 NOSIG
ZGOW,2011-08-01 10:00,ZGOW 011000Z 17005MPS 9999 FEW033TCU 31/21 Q1004 NOSIG
ZGOW,2011-08-01 11:00,ZGOW 011100Z 16001MPS CAVOK 30/22 Q1005 NOSIG
ZGOW,2011-08-01 12:00,ZGOW 011200Z 00000MPS CAVOK 30/21 Q1005 NOSIG
ZGOW,2011-08-01 13:00,ZGOW 011300Z 08001MPS CAVOK 28/23 Q1006 NOSIG
ZGOW,2011-08-01 14:00,ZGOW 011400Z 12002MPS CAVOK 28/24 Q1007 NOSIG
ZGOW,2011-08-01 15:00,ZGOW 011500Z 06001MPS CAVOK 27/24 Q1007 NOSIG
ZGOW,2011-08-01 16:00,ZGOW 011600Z 07001MPS CAVOK 27/25 Q1007 NOSIG
ZGOW,2011-08-01 17:00,ZGOW 011700Z 04002MPS 7000 SCT015 27/25 Q1007 NOSIG
ZGOW,2011-08-01 18:00,ZGOW 011800Z AUTO 09002MPS 5000 NCD 27/24 Q1006
ZGOW,2011-08-01 20:00,ZGOW 012000Z AUTO 11001MPS 3500 // ////// 27/25 Q1006
ZGOW,2011-08-01 21:00,ZGOW 012100Z 04001MPS 6000 FEW020 27/25 Q1006 NOSIG
ZGOW,2011-08-01 22:00,ZGOW 012200Z 07002MPS 6000 FEW020 26/24 Q1006 NOSIG
ZGOW,2011-08-01 23:00,ZGOW 012300Z 32001MPS 6000 FEW020 28/24 Q1007 NOSIG
ZGOW,2011-08-02 00:00,ZGOW 020000Z 06002MPS 9999 SCT043 29/23 Q1007 NOSIG
ZGOW,2011-08-02 01:00,ZGOW 020100Z 09003MPS 9999 FEW046 31/23 Q1007 NOSIG
ZGOW,2011-08-02 02:00,ZGOW 020200Z 09002MPS 9999 FEW015 32/24 Q1007 NOSIG
ZGOW,2011-08-02 03:00,ZGOW 020300Z 08003MPS 9999 FEW015 33/23 Q1007 NOSIG
ZGOW,2011-08-02 04:00,ZGOW 020400Z 12003MPS 9999 FEW015 34/22 Q1007 NOSIG
ZGOW,2011-08-02 05:00,ZGOW 020500Z 13003MPS 9999 FEW015 33/23 Q1006 NOSIG
ZGOW,2011-08-02 06:00,ZGOW 020600Z 13004MPS 9999 FEW015 33/23 Q1006 NOSIG
ZGOW,2011-08-02 07:00,ZGOW 020700Z 14005MPS CAVOK 33/22 Q1005 NOSIG
ZGOW,2011-08-02 08:00,ZGOW 020800Z 16004MPS CAVOK 32/23 Q1005 NOSIG
ZGOW,2011-08-02 09:00,ZGOW 020900Z 14005MPS 7000 SKC 31/25 Q1005 NOSIG
ZGOW,2011-08-02 10:00,ZGOW 021000Z 15004MPS 7000 SKC 30/24 Q1005 NOSIG
ZGOW,2011-08-02 11:00,ZGOW 021100Z 12003MPS 5000 HZ SKC 29/24 Q1005 NOSIG
ZGOW,2011-08-02 12:00,ZGOW 021200Z 14001MPS 7000 SKC 29/25 Q1006 NOSIG
ZGOW,2011-08-02 13:00,ZGOW 021300Z 14001MPS 7000 SKC 29/24 Q1007 NOSIG
ZGOW,2011-08-02 14:00,ZGOW 021400Z 10001MPS 7000 SKC 29/24 Q1007 NOSIG
ZGOW,2011-08-02 15:00,ZGOW 021500Z 00000MPS 7000 SKC 28/25 Q1008 NOSIG
ZGOW,2011-08-02 16:00,ZGOW 021600Z 00000MPS 6000 SKC 28/25 Q1007 NOSIG
ZGOW,2011-08-02 17:00,ZGOW 021700Z 00000MPS 7000 SKC 28/25 Q1007 NOSIG
ZGOW,2011-08-02 18:00,ZGOW 021800Z AUTO 00000MPS 5000 NCD 27/25 Q1006
ZGOW,2011-08-02 19:00,ZGOW 021900Z AUTO 00000MPS 5000 NCD 27/25 Q1006
ZGOW,2011-08-02 20:00,ZGOW 022000Z AUTO 00000MPS 5000 NCD 27/25 Q1006
ZGOW,2011-08-02 21:00,ZGOW 022100Z 00000MPS 7000 SKC 27/24 Q1006 NOSIG
ZGOW,2011-08-02 22:00,ZGOW 022200Z 00000MPS 7000 SKC 27/24 Q1006 NOSIG
ZGOW,2011-08-02 23:00,ZGOW 022300Z 00000MPS 4000 BR SCT040 28/25 Q1007 NOSIG
ZGOW,2011-08-03 00:00,ZGOW 030000Z 06002MPS 4000 BR SCT015 BKN040 29/25 Q1007 NOSIG
ZGOW,2011-08-03 01:00,ZGOW 030100Z 08002MPS 4000 BR SCT014 30/25 Q1007 NOSIG
ZGOW,2011-08-03 02:00,ZGOW 030200Z 08002MPS 4000 HZ SCT014 31/24 Q1007 NOSIG
ZGOW,2011-08-03 03:00,ZGOW 030300Z 14001MPS 4000 HZ SCT014 33/25 Q1006 NOSIG
ZGOW,2011-08-03 04:00,ZGOW 030400Z 14004MPS 6000 SCT016 32/25 Q1006 NOSIG
ZGOW,2011-08-03 05:00,ZGOW 030500Z 13004MPS 6000 SCT016 FEW028CB 32/25 Q1005 NOSIG
ZGOW,2011-08-03 06:00,ZGOW 030600Z 13004MPS 6000 FEW016 FEW028CB 32/25 Q1004 NOSIG
ZGOW,2011-08-03 07:00,ZGOW 030700Z 14005MPS 6000 FEW020 FEW030CB 31/25 Q1004 NOSIG
ZGOW,2011-08-03 08:00,ZGOW 030800Z 13005MPS 7000 FEW030CB 31/25 Q1003 NOSIG
ZGOW,2011-08-03 09:00,ZGOW 030900Z 16003MPS 7000 FEW026TCU 32/23 Q1002 NOSIG
ZGOW,2011-08-03 10:00,ZGOW 031000Z 10002MPS 6000 NSC 31/25 Q1003 NOSIG
ZGOW,2011-08-03 11:00,ZGOW 031100Z 09002MPS 5000 BR NSC 30/25 Q1003 NOSIG
ZGOW,2011-08-03 12:00,ZGOW 031200Z 08002MPS 5000 BR NSC 29/25 Q1003 NOSIG
ZGOW,2011-08-03 13:00,ZGOW 031300Z 08002MPS 5000 BR NSC 28/25 Q1004 NOSIG
ZGOW,2011-08-03 14:00,ZGOW 031400Z 08001MPS 5000 BR NSC 28/25 Q1004 NOSIG
ZGOW,2011-08-03 15:00,ZGOW 031500Z 09002MPS 4000 BR NSC 28/25 Q1004 NOSIG
ZGOW,2011-08-03 16:00,ZGOW 031600Z 09001MPS 4000 BR NSC 28/25 Q1004 NOSIG
ZGOW,2011-08-03 17:00,ZGOW 031700Z 00000MPS 4000 BR NSC 28/25 Q1004 NOSIG
ZGOW,2011-08-03 21:00,ZGOW 032100Z 00000MPS 4000 BR NSC 28/25 Q1003 NOSIG
ZGOW,2011-08-03 22:00,ZGOW 032200Z 16001MPS 4000 BR NSC 28/25 Q1003 NOSIG
ZGOW,2011-08-03 23:00,ZGOW 032300Z 00000MPS 3500 BR FEW016 29/25 Q1003 NOSIG
ZGOW,2011-08-04 00:00,ZGOW 040000Z 09002MPS 3000 BR SCT050 29/26 Q1004 NOSIG
ZGOW,2011-08-04 01:00,ZGOW 040100Z 11001MPS 2800 BR SCT050 30/26 Q1004 NOSIG
ZGOW,2011-08-04 02:00,ZGOW 040200Z 11003MPS 4000 HZ NSC 30/25 Q1004 NOSIG
ZGOW,2011-08-04 03:00,ZGOW 040300Z 12004MPS 4000 HZ FEW026 32/25 Q1003 NOSIG
ZGOW,2011-08-04 04:00,ZGOW 040400Z 11004MPS 080V180 3500 HZ FEW026 32/25 Q1003 NOSIG
ZGOW,2011-08-04 05:00,ZGOW 040500Z 13004MPS 4000 HZ FEW030TCU 32/24 Q1002 NOSIG
ZGOW,2011-08-04 06:00,ZGOW 040600Z 14004MPS 100V180 5000 HZ FEW030TCU 32/25 Q1001 NOSIG
ZGOW,2011-08-04 07:00,ZGOW 040700Z 14004MPS 4000 HZ FEW030TCU 32/25 Q1001 NOSIG
ZGOW,2011-08-04 08:00,ZGOW 040800Z 14004MPS 4000 HZ SKC 31/24 Q1000 NOSIG
ZGOW,2011-08-04 09:00,ZGOW 040900Z 14004MPS 3500 HZ SKC 31/24 Q1000 NOSIG
ZGOW,2011-08-04 10:00,ZGOW 041000Z 12003MPS 3500 HZ NSC 30/24 Q1001 NOSIG
ZGOW,2011-08-04 11:00,ZGOW 041100Z 11002MPS 3500 BR NSC 29/24 Q1001 NOSIG
ZGOW,2011-08-04 12:00,ZGOW 041200Z 11003MPS 4000 BR NSC 29/25 Q1002 NOSIG
ZGOW,2011-08-04 13:00,ZGOW 041300Z 09003MPS 4500 BR NSC 28/25 Q1002 NOSIG
ZGOW,2011-08-04 14:00,ZGOW 041400Z 12003MPS 7000 NSC 28/24 Q1003 NOSIG
ZGOW,2011-08-04 15:00,ZGOW 041500Z 12002MPS 8000 NSC 28/24 Q1003 NOSIG
ZGOW,2011-08-04 16:00,ZGOW 041600Z 08003MPS 5000 BR FEW020 27/24 Q1003 NOSIG
ZGOW,2011-08-04 17:00,ZGOW 041700Z 10002MPS 6000 FEW020 27/24 Q1002 NOSIG
ZGOW,2011-08-04 21:00,ZGOW 042100Z 10002MPS 4000 BR FEW012 27/24 Q1001 NOSIG
ZGOW,2011-08-04 22:00,ZGOW 042200Z 16003MPS 2500 BR FEW016 27/25 Q1001 NOSIG
ZGOW,2011-08-04 23:00,ZGOW 042300Z 14002MPS 2000 R04/1400VP2000U BR FEW014 FEW030TCU SCT050 27/25 Q1002 BECMG FM0030 3200 BR
ZGOW,2011-08-05 00:00,ZGOW 050000Z 15002MPS 5000 BR FEW020 FEW030TCU 28/24 Q1002 NOSIG
ZGOW,2011-08-05 01:00,ZGOW 050100Z 14001MPS 5000 HZ SCT020 29/24 Q1003 NOSIG
ZGOW,2011-08-05 02:00,ZGOW 050200Z 09002MPS 7000 NSC 31/24 Q1002 NOSIG
ZGOW,2011-08-05 03:00,ZGOW 050300Z 07002MPS 8000 NSC 31/23 Q1002 NOSIG
ZGOW,2011-08-05 04:00,ZGOW 050400Z 08002MPS 8000 NSC 33/24 Q1002 NOSIG
ZGOW,2011-08-05 05:00,ZGOW 050500Z 11003MPS 8000 SKC 33/23 Q1001 NOSIG
ZGOW,2011-08-05 06:00,ZGOW 050600Z 12004MPS CAVOK 33/24 Q1001 NOSIG
ZGOW,2011-08-05 07:00,ZGOW 050700Z 13004MPS CAVOK 33/23 Q1000 NOSIG
ZGOW,2011-08-05 08:00,ZGOW 050800Z 12004MPS CAVOK 31/23 Q1000 NOSIG
ZGOW,2011-08-05 09:00,ZGOW 050900Z 14004MPS 8000 NSC 30/24 Q1000 NOSIG
ZGOW,2011-08-05 10:00,ZGOW 051000Z 14002MPS 6000 NSC 29/25 Q1000 NOSIG
ZGOW,2011-08-05 11:00,ZGOW 051100Z 12001MPS 4000 BR NSC 29/25 Q1000 NOSIG
ZGOW,2011-08-05 12:00,ZGOW 051200Z 12002MPS 2800 BR NSC 29/25 Q1000 NOSIG
ZGOW,2011-08-05 13:00,ZGOW 051300Z 26002MPS 5000 HZ NSC 29/22 Q1001 NOSIG
ZGOW,2011-08-05 14:00,ZGOW 051400Z 01001MPS 7000 NSC 29/23 Q1001 NOSIG
ZGOW,2011-08-05 15:00,ZGOW 051500Z 12001MPS 6000 NSC 28/25 Q1001 NOSIG
ZGOW,2011-08-05 16:00,ZGOW 051600Z 30002MPS 8000 NSC 28/23 Q1001 NOSIG
ZGOW,2011-08-05 17:00,ZGOW 051700Z 32001MPS 8000 NSC 27/23 Q1000 NOSIG
ZGOW,2011-08-05 18:00,ZGOW 051800Z AUTO 28001MPS 9000 NCD 27/23 Q1000
ZGOW,2011-08-05 19:00,ZGOW 051900Z AUTO 27002MPS 7000 NCD 27/23 Q0999
ZGOW,2011-08-05 20:00,ZGOW 052000Z AUTO 31001MPS 8000 NCD 27/23 Q0999
ZGOW,2011-08-05 21:00,ZGOW 052100Z 31002MPS 7000 SKC 27/23 Q0999 NOSIG
ZGOW,2011-08-05 22:00,ZGOW 052200Z 33002MPS 5000 BR SKC 27/23 Q0999 NOSIG
ZGOW,2011-08-05 23:00,ZGOW 052300Z 32003MPS 5000 BR SKC 27/23 Q1000 NOSIG
ZGOW,2011-08-06 00:00,ZGOW 060000Z 31002MPS 6000 SKC 28/24 Q1000 NOSIG
ZGOW,2011-08-06 01:00,ZGOW 060100Z 29002MPS 5000 HZ SKC 30/24 Q1001 NOSIG
ZGOW,2011-08-06 02:00,ZGOW 060200Z 26003MPS 5000 HZ SKC 32/23 Q1000 NOSIG
ZGOW,2011-08-06 03:00,ZGOW 060300Z 24003MPS CAVOK 34/23 Q1000 NOSIG
ZGOW,2011-08-06 04:00,ZGOW 060400Z 25003MPS 9999 FEW020 34/23 Q0999 NOSIG
ZGOW,2011-08-06 05:00,ZGOW 060500Z 23003MPS 9999 FEW020 35/24 Q0998 NOSIG
ZGOW,2011-08-06 06:00,ZGOW 060600Z 22004MPS 9999 FEW020 36/23 Q0998 NOSIG
ZGOW,2011-08-06 07:00,ZGOW 060700Z 17006MPS 9999 FEW026 34/24 Q0997 NOSIG
ZGOW,2011-08-06 08:00,ZGOW 060800Z 18006G11MPS 9999 FEW026 FEW030TCU 35/24 Q0997 NOSIG
ZGOW,2011-08-06 09:00,ZGOW 060900Z 19006MPS 9999 FEW022 FEW030CB 34/23 Q0997 NOSIG
ZGOW,2011-08-06 10:00,ZGOW 061000Z 19005MPS 9999 TS FEW022 FEW030CB SCT050 33/23 Q0998 NOSIG
ZGOW,2011-08-06 11:00,ZGOW 061100Z 22002MPS 9999 TS FEW022 FEW030CB SCT050 32/24 Q0999 TEMPO 2500 TSRA
ZGOW,2011-08-06 12:00,ZGOW 061200Z 28001MPS 7000 -TSRA SCT020 SCT030CB BKN050 28/25 Q1000 TEMPO 2500 TSRA
ZGOW,2011-08-06 13:00,ZGOW 061300Z 00000MPS 7000 -SHRA FEW020 FEW030CB BKN046 28/25 Q1000 RETS NOSIG
ZGOW,2011-08-06 14:00,ZGOW 061400Z 03003MPS 7000 FEW030TCU FEW030 28/25 Q1001 NOSIG
ZGOW,2011-08-06 15:00,ZGOW 061500Z 00000MPS 7000 FEW030TCU FEW030 28/24 Q1001 TEMPO 2100 TSRA
ZGOW,2011-08-06 16:00,ZGOW 061600Z 00000MPS 7000 SCT040 28/25 Q1000 TEMPO 2500 SHRA
ZGOW,2011-08-06 17:00,ZGOW 061700Z AUTO 00000MPS 7000 NCD 29/25 Q1000
ZGOW,2011-08-06 18:00,ZGOW 061800Z AUTO 00000MPS 4400 // NCD 29/25 Q1000
ZGOW,2011-08-06 19:00,ZGOW 061900Z AUTO 00000MPS 5000 NCD 28/24 Q0999
ZGOW,2011-08-06 20:00,ZGOW 062000Z AUTO 00000MPS 6000 NCD 28/24 Q1000
ZGOW,2011-08-06 21:00,ZGOW 062100Z 00000MPS 7000 NSC 28/24 Q1000 NOSIG
ZGOW,2011-08-06 22:00,ZGOW 062200Z 00000MPS 5000 BR NSC 28/24 Q1001 NOSIG
ZGOW,2011-08-06 23:00,ZGOW 062300Z 00000MPS 4000 BR SCT040 29/25 Q1002 NOSIG
ZGOW,2011-08-07 00:00,ZGOW 070000Z 00000MPS 4000 BR FEW040 30/26 Q1002 NOSIG
ZGOW,2011-08-07 01:00,ZGOW 070100Z 21001MPS 4000 HZ FEW040 31/25 Q1002 NOSIG
ZGOW,2011-08-07 02:00,ZGOW 070200Z 13003MPS 6000 FEW026 33/25 Q1002 NOSIG
ZGOW,2011-08-07 03:00,ZGOW 070300Z 26002MPS 6000 FEW026 FEW030TCU 34/24 Q1002 NOSIG
ZGOW,2011-08-07 04:00,ZGOW 070400Z 27002MPS 6000 FEW026 FEW033TCU SCT040 35/24 Q1002 NOSIG
ZGOW,2011-08-07 05:00,ZGOW 070500Z 14005MPS 100V190 8000 FEW026 FEW033TCU SCT040 35/25 Q1001 NOSIG
ZGOW,2011-08-07 06:00,ZGOW 070600Z 15005MPS 9000 FEW040CB SCT050 35/25 Q1001 NOSIG
ZGOW,2011-08-07 07:00,ZGOW 070700Z 16005MPS 130V210 9999 SCT033CB SCT050 35/24 Q1001 TEMPO 2500 TSRA
ZGOW,2011-08-07 08:00,ZGOW 070800Z 19004MPS 9999 FEW033CB 31/25 Q1001 NOSIG
ZGOW,2011-08-07 09:00,ZGOW 070900Z 32003MPS 260V020 7000 FEW033TCU 30/23 Q1002 NOSIG
ZGOW,2011-08-07 10:00,ZGOW 071000Z 36001MPS 7000 FEW033TCU 30/23 Q1002 NOSIG
ZGOW,2011-08-07 11:00,ZGOW 071100Z 32001MPS 6000 FEW020 29/23 Q1002 NOSIG
ZGOW,2011-08-07 12:00,ZGOW 071200Z 32001MPS 6000 FEW025 29/23 Q1004 NOSIG
ZGOW,2011-08-07 13:00,ZGOW 071300Z 00000MPS 6000 NSC 29/23 Q1004 NOSIG
ZGOW,2011-08-07 14:00,ZGOW 071400Z 00000MPS 5000 HZ NSC 29/24 Q1005 NOSIG
ZGOW,2011-08-07 15:00,ZGOW 071500Z 00000MPS 6000 NSC 29/24 Q1005 NOSIG
ZGOW,2011-08-07 16:00,ZGOW 071600Z 00000MPS 5000 BR FEW022 29/24 Q1004 NOSIG
ZGOW,2011-08-07 17:00,ZGOW 071700Z 32001MPS 4000 BR FEW022 28/24 Q1004 NOSIG
ZGOW,2011-08-07 18:00,ZGOW 071800Z AUTO 00000MPS 4600 // NCD 28/24 Q1004
ZGOW,2011-08-07 21:00,ZGOW 072100Z 32001MPS 4000 BR FEW022 28/24 Q1004 NOSIG
ZGOW,2011-08-07 22:00,ZGOW 072200Z 30001MPS 3500 BR FEW022 28/24 Q1004 NOSIG
ZGOW,2011-08-07 23:00,ZGOW 072300Z 35001MPS 3500 BR FEW020 28/25 Q1005 NOSIG
ZGOW,2011-08-08 00:00,ZGOW 080000Z 10001MPS 3200 HZ FEW020 30/25 Q1005 NOSIG
ZGOW,2011-08-08 01:00,ZGOW 080100Z 07001MPS 3000 HZ SCT017 FEW030TCU 32/25 Q1006 NOSIG
ZGOW,2011-08-08 02:00,ZGOW 080200Z 05003MPS 4000 HZ SCT017 FEW030TCU 32/25 Q1005 NOSIG
ZGOW,2011-08-08 03:00,ZGOW 080300Z 08002MPS 5000 HZ SCT017 FEW030CB 33/25 Q1005 NOSIG
ZGOW,2011-08-08 04:00,ZGOW 080400Z 12005MPS 9999 SCT017 FEW030TCU 33/25 Q1005 NOSIG
ZGOW,2011-08-08 05:00,ZGOW 080500Z 13006MPS 9999 SCT017 FEW030CB 32/25 Q1005 NOSIG
ZGOW,2011-08-08 06:00,ZGOW 080600Z 15006MPS 9999 SCT017 FEW030CB 29/24 Q1005 NOSIG
ZGOW,2011-08-08 07:00,ZGOW 080700Z 16004MPS 9999 SCT017 FEW030CB 29/24 Q1004 NOSIG
ZGOW,2011-08-08 08:00,ZGOW 080800Z 14003MPS 9999 SCT017 FEW030TCU 29/24 Q1004 NOSIG
ZGOW,2011-08-08 09:00,ZGOW 080900Z 14003MPS 9999 SCT017 FEW030TCU 29/23 Q1004 NOSIG
ZGOW,2011-08-08 10:00,ZGOW 081000Z 11001MPS 9999 SCT017 FEW030TCU 28/24 Q1004 NOSIG
ZGOW,2011-08-08 11:00,ZGOW 081100Z 12002MPS 9999 SCT017 27/24 Q1005 NOSIG
ZGOW,2011-08-08 12:00,ZGOW 081200Z 12002MPS 9999 FEW017 27/24 Q1005 NOSIG
ZGOW,2011-08-08 13:00,ZGOW 081300Z 12001MPS 9999 FEW017 27/24 Q1005 NOSIG
ZGOW,2011-08-08 14:00,ZGOW 081400Z 09001MPS 9999 FEW017 27/24 Q1005 NOSIG
ZGOW,2011-08-08 15:00,ZGOW 081500Z 11001MPS 9999 FEW017 27/24 Q1005 NOSIG
ZGOW,2011-08-08 16:00,ZGOW 081600Z 13001MPS 9999 FEW017 27/24 Q1005 NOSIG
ZGOW,2011-08-08 17:00,ZGOW 081700Z 04001MPS CAVOK 27/24 Q1005 NOSIG
ZGOW,2011-08-08 18:00,ZGOW 081800Z AUTO 07001MPS CAVOK 27/24 Q1004
ZGOW,2011-08-08 19:00,ZGOW 081900Z AUTO 00000MPS 9999 ////// 27/24 Q1004
ZGOW,2011-08-08 20:00,ZGOW 082000Z AUTO 11002MPS 9000 ////// 27/24 Q1004
ZGOW,2011-08-08 21:00,ZGOW 082100Z 21003MPS 9999 SCT040 26/24 Q1004 NOSIG
ZGOW,2011-08-08 22:00,ZGOW 082200Z 29001MPS 9999 FEW030TCU BKN040 26/23 Q1005 NOSIG
ZGOW,2011-08-08 23:00,ZGOW 082300Z 24001MPS 9999 FEW030TCU BKN040 26/23 Q1005 NOSIG
ZGOW,2011-08-09 00:00,ZGOW 090000Z 18002MPS 9999 SCT010 FEW030TCU BKN040 27/24 Q1006 NOSIG
ZGOW,2011-08-09 01:00,ZGOW 090100Z 19002MPS 9999 SCT012 FEW030TCU BKN046 28/24 Q1006 NOSIG
ZGOW,2011-08-09 02:00,ZGOW 090200Z 17003MPS 9999 SCT016 FEW030TCU BKN050 29/24 Q1006 NOSIG
ZGOW,2011-08-09 03:00,ZGOW 090300Z 14003MPS 9999 SCT020 30/24 Q1006 NOSIG
ZGOW,2011-08-09 04:00,ZGOW 090400Z 15004MPS 9999 SCT020 FEW026TCU 30/23 Q1006 NOSIG
ZGOW,2011-08-09 05:00,ZGOW 090500Z 15005MPS 9999 SCT020 FEW026TCU 31/24 Q1005 NOSIG
ZGOW,2011-08-09 06:00,ZGOW 090600Z 13005MPS 9999 FEW020 31/24 Q1005 NOSIG
ZGOW,2011-08-09 07:00,ZGOW 090700Z 14005MPS 9999 FEW020 FEW030TCU 30/24 Q1005 NOSIG
ZGOW,2011-08-09 08:00,ZGOW 090800Z 13006MPS 9999 FEW030TCU 30/23 Q1005 NOSIG
ZGOW,2011-08-09 09:00,ZGOW 090900Z 14005MPS 9999 FEW030TCU 29/23 Q1005 NOSIG
ZGOW,2011-08-09 10:00,ZGOW 091000Z 13004MPS 9999 FEW020 28/24 Q1005 NOSIG
ZGOW,2011-08-09 11:00,ZGOW 091100Z 12002MPS 9999 FEW030TCU 27/24 Q1006 NOSIG
ZGOW,2011-08-09 12:00,ZGOW 091200Z 10004MPS 9999 FEW016 27/24 Q1006 NOSIG
ZGOW,2011-08-09 13:00,ZGOW 091300Z 10003MPS 9999 FEW016 FEW030CB 27/24 Q1007 NOSIG
ZGOW,2011-08-09 14:00,ZGOW 091400Z 11002MPS 9999 FEW016 FEW030CB SCT050 28/24 Q1007 NOSIG
ZGOW,2011-08-09 15:00,ZGOW 091500Z 12003MPS 7000 -SHRA SCT010 FEW028CB BKN046 27/25 Q1007 NOSIG
ZGOW,2011-08-09 16:00,ZGOW 091600Z 11001MPS 9999 SCT012 FEW028CB BKN046 27/25 Q1007 NOSIG
ZGOW,2011-08-09 17:00,ZGOW 091700Z 08002MPS 9999 SCT012 FEW028CB BKN050 27/25 Q1007 TEMPO 2100 SHRA
ZGOW,2011-08-09 18:00,ZGOW 091800Z AUTO 09003MPS CAVOK 27/25 Q1006
ZGOW,2011-08-09 19:00,ZGOW 091900Z AUTO 11002MPS CAVOK 26/23 Q1006
ZGOW,2011-08-09 20:00,ZGOW 092000Z AUTO 07002MPS CAVOK 26/24 Q1006
ZGOW,2011-08-09 21:00,ZGOW 092100Z 10003MPS 9999 FEW006 SCT018 FEW030CB 26/24 Q1006 NOSIG
ZGOW,2011-08-09 22:00,ZGOW 092200Z 10002MPS 9999 FEW010 FEW030CB 26/24 Q1006 NOSIG
ZGOW,2011-08-09 23:00,ZGOW 092300Z 08003MPS 9999 FEW020 27/25 Q1008 NOSIG
ZGOW,2011-08-10 00:00,ZGOW 100000Z 08003MPS 9999 SCT010 FEW025TCU 29/24 Q1008 NOSIG
ZGOW,2011-08-10 01:00,ZGOW 100100Z 08004MPS 9999 SCT014 FEW030TCU 29/24 Q1008 NOSIG
ZGOW,2011-08-10 02:00,ZGOW 100200Z 10004MPS 9999 SCT016 FEW033TCU 31/25 Q1009 NOSIG
ZGOW,2011-08-10 03:00,ZGOW 100300Z 12004MPS 9999 SCT016 FEW033TCU 31/24 Q1008 NOSIG
ZGOW,2011-08-10 04:00,ZGOW 100400Z 15005MPS 9999 SCT018 FEW033CB 32/25 Q1008 NOSIG
ZGOW,2011-08-10 05:00,ZGOW 100500Z 16006MPS 120V210 9999 SCT018 FEW033CB 32/25 Q1008 NOSIG
ZGOW,2011-08-10 06:00,ZGOW 100600Z 15006MPS 110V190 9999 SCT018 FEW033CB 32/24 Q1007 NOSIG
ZGOW,2011-08-10 07:00,ZGOW 100700Z 14005MPS 100V190 9999 SCT022 FEW033CB 31/24 Q1006 NOSIG
ZGOW,2011-08-10 08:00,ZGOW 100800Z 15004G11MPS 120V190 9999 SCT022 FEW033CB 32/23 Q1006 NOSIG
ZGOW,2011-08-10 09:00,ZGOW 100900Z 14004MPS 110V180 9999 SCT022 FEW033TCU 31/24 Q1006 TEMPO FM1010 2500 SHRA
ZGOW,2011-08-10 10:00,ZGOW 101000Z 15005MPS 9999 SCT022 FEW033TCU 30/25 Q1007 TEMPO FM1050 2500 SHRA
ZGOW,2011-08-10 11:00,ZGOW 101100Z 13004MPS 9999 SCT014 FEW033TCU SCT050 29/24 Q1007 NOSIG
ZGOW,2011-08-10 12:00,ZGOW 101200Z 18002MPS 9999 FEW020 28/23 Q1008 NOSIG
ZGOW,2011-08-10 13:00,ZGOW 101300Z 14002MPS 9999 FEW020 28/23 Q1009 NOSIG
ZGOW,2011-08-10 14:00,ZGOW 101400Z 12002MPS 9999 FEW020 27/23 Q1009 NOSIG
ZGOW,2011-08-10 15:00,ZGOW 101500Z 11002MPS 9999 FEW020 27/24 Q1009 NOSIG
ZGOW,2011-08-10 16:00,ZGOW 101600Z 09001MPS 9999 FEW023 27/24 Q1009 NOSIG
ZGOW,2011-08-10 17:00,ZGOW 101700Z 09001MPS 9999 SCT040 27/24 Q1009 NOSIG
ZGOW,2011-08-10 18:00,ZGOW 101800Z 10001MPS 9999 SCT012 FEW030TCU SCT040 27/23 Q1009 NOSIG
ZGOW,2011-08-10 19:00,ZGOW 101900Z 12001MPS 9999 SCT020 FEW030TCU SCT036 27/24 Q1008 NOSIG
ZGOW,2011-08-10 20:00,ZGOW 102000Z AUTO 12002MPS 9999 ////// 27/24 Q1008
ZGOW,2011-08-10 21:00,ZGOW 102100Z 12001MPS 9999 SCT020 SCT050 27/23 Q1008 NOSIG
ZGOW,2011-08-10 22:00,ZGOW 102200Z 10002MPS 9999 SCT020 SCT050 26/24 Q1009 NOSIG
ZGOW,2011-08-10 23:00,ZGOW 102300Z 15001MPS 9999 FEW030TCU 27/24 Q1009 NOSIG
ZGOW,2011-08-11 00:00,ZGOW 110000Z 09001MPS 9999 SCT016 FEW033TCU BKN050 29/24 Q1010 NOSIG
ZGOW,2011-08-11 01:00,ZGOW 110100Z 12003MPS 9999 SCT014 FEW030TCU 30/25 Q1010 NOSIG
ZGOW,2011-08-11 02:00,ZGOW 110200Z 13003MPS 9999 SCT014 FEW030TCU 31/24 Q1010 NOSIG
ZGOW,2011-08-11 03:00,ZGOW 110300Z 14004MPS 9999 SCT014 FEW030TCU 32/24 Q1010 NOSIG
ZGOW,2011-08-11 04:00,ZGOW 110400Z 16007MPS 9999 SCT014 FEW030CB 30/24 Q1010 TEMPO 2500 -TSRA SCT012 SCT030CB BKN040
ZGOW,2011-08-11 05:00,ZGOW 110500Z 17002MPS 9999 SCT014 FEW030CB 28/24 Q1009 TEMPO 2500 -TSRA SCT012 SCT030CB BKN040
ZGOW,2011-08-11 06:00,ZGOW 110600Z 16004MPS 9999 SCT014 FEW030CB 29/24 Q1009 NOSIG
ZGOW,2011-08-11 07:00,ZGOW 110700Z 15003MPS 9999 SCT014 FEW030TCU 31/23 Q1008 NOSIG
ZGOW,2011-08-11 08:00,ZGOW 110800Z 16005MPS 9999 SCT014 31/24 Q1007 NOSIG
ZGOW,2011-08-11 09:00,ZGOW 110900Z 16004MPS 9999 SCT014 30/24 Q1008 NOSIG
ZGOW,2011-08-11 10:00,ZGOW 111000Z 15003MPS 9999 SCT014 29/24 Q1008 NOSIG
ZGOW,2011-08-11 11:00,ZGOW 111100Z 19003MPS 9999 FEW014 29/24 Q1008 NOSIG
ZGOW,2011-08-11 12:00,ZGOW 111200Z 18002MPS 9999 FEW014 29/24 Q1009 NOSIG
ZGOW,2011-08-11 13:00,ZGOW 111300Z 17001MPS 9999 FEW014 28/24 Q1010 NOSIG
ZGOW,2011-08-11 14:00,ZGOW 111400Z 12001MPS 9999 FEW014 28/24 Q1010 NOSIG
ZGOW,2011-08-11 15:00,ZGOW 111500Z 16002MPS 9999 FEW014 27/24 Q1010 NOSIG
ZGOW,2011-08-11 16:00,ZGOW 111600Z 16001MPS 9999 FEW014 27/24 Q1010 NOSIG
ZGOW,2011-08-11 17:00,ZGOW 111700Z 11001MPS 7000 FEW014 27/24 Q1009 NOSIG
ZGOW,2011-08-11 18:00,ZGOW 111800Z 13001MPS 7000 FEW014 27/24 Q1008 NOSIG
ZGOW,2011-08-11 19:00,ZGOW 111900Z AUTO 12001MPS 5000 NCD 27/24 Q1008
ZGOW,2011-08-11 20:00,ZGOW 112000Z AUTO 12001MPS 5000 NCD 27/25 Q1008
ZGOW,2011-08-11 21:00,ZGOW 112100Z 12001MPS 7000 SKC 26/24 Q1008 NOSIG
ZGOW,2011-08-11 22:00,ZGOW 112200Z 00000MPS 7000 SKC 26/24 Q1008 NOSIG
ZGOW,2011-08-11 23:00,ZGOW 112300Z 00000MPS 7000 SCT014 FEW030TCU 27/25 Q1009 NOSIG
ZGOW,2011-08-12 00:00,ZGOW 120000Z 14001MPS 9999 SCT014 FEW030TCU 30/25 Q1009 NOSIG
ZGOW,2011-08-12 01:00,ZGOW 120100Z 32002MPS 7000 FEW014 FEW028TCU 29/25 Q1010 NOSIG
ZGOW,2011-08-12 02:00,ZGOW 120200Z 24002MPS 9999 FEW020 FEW026TCU 32/24 Q1010 NOSIG
ZGOW,2011-08-12 03:00,ZGOW 120300Z 16002MPS 9999 SCT020 FEW030CB 33/22 Q1010 NOSIG
ZGOW,2011-08-12 04:00,ZGOW 120400Z 13003MPS 9999 FEW020 FEW030CB 33/25 Q1009 NOSIG
ZGOW,2011-08-12 05:00,ZGOW 120500Z 16004MPS 9999 SCT020 FEW030CB 31/24 Q1009 NOSIG
ZGOW,2011-08-12 06:00,ZGOW 120600Z 15003MPS 9999 FEW020 FEW030CB 32/25 Q1008 NOSIG
ZGOW,2011-08-12 07:00,ZGOW 120700Z 16005MPS 9999 FEW020 FEW026TCU 33/24 Q1007 NOSIG
ZGOW,2011-08-12 08:00,ZGOW 120800Z 17005MPS 9999 FEW020 32/23 Q1007 NOSIG
ZGOW,2011-08-12 09:00,ZGOW 120900Z 19005MPS 9000 FEW020 31/24 Q1007 NOSIG
ZGOW,2011-08-12 10:00,ZGOW 121000Z 20005MPS CAVOK 30/24 Q1007 NOSIG
ZGOW,2011-08-12 11:00,ZGOW 121100Z 19004MPS CAVOK 29/24 Q1007 NOSIG
ZGOW,2011-08-12 12:00,ZGOW 121200Z 19003MPS CAVOK 29/24 Q1008 NOSIG
ZGOW,2011-08-12 13:00,ZGOW 121300Z 21002MPS CAVOK 29/24 Q1008 NOSIG
ZGOW,2011-08-12 14:00,ZGOW 121400Z 19003MPS CAVOK 29/24 Q1009 NOSIG
ZGOW,2011-08-12 15:00,ZGOW 121500Z 20003MPS CAVOK 28/25 Q1009 NOSIG
ZGOW,2011-08-12 16:00,ZGOW 121600Z 21002MPS CAVOK 28/24 Q1009 NOSIG
ZGOW,2011-08-12 17:00,ZGOW 121700Z 20002MPS 9999 FEW016 28/24 Q1008 NOSIG
ZGOW,2011-08-12 18:00,ZGOW 121800Z AUTO 22001MPS 7000 NCD 28/24 Q1008
ZGOW,2011-08-12 19:00,ZGOW 121900Z AUTO 22002MPS 7000 ////// 28/25 Q1008
ZGOW,2011-08-12 20:00,ZGOW 122000Z AUTO 22001MPS 6000 NCD 28/24 Q1008
ZGOW,2011-08-12 21:00,ZGOW 122100Z 31001MPS 9999 FEW016 27/24 Q1008 NOSIG
ZGOW,2011-08-12 22:00,ZGOW 122200Z 32001MPS 9999 FEW020 27/24 Q1008 NOSIG
ZGOW,2011-08-12 23:00,ZGOW 122300Z 30001MPS 9999 FEW020 28/25 Q1009 NOSIG
ZGOW,2011-08-13 00:00,ZGOW 130000Z 33002MPS 9999 FEW018 29/24 Q1009 NOSIG
ZGOW,2011-08-13 01:00,ZGOW 130100Z 27001MPS 9999 SCT022 FEW030TCU 30/24 Q1010 NOSIG
ZGOW,2011-08-13 02:00,ZGOW 130200Z 26002MPS 9999 SCT026 FEW033TCU 32/24 Q1009 NOSIG
ZGOW,2011-08-13 03:00,ZGOW 130300Z 27003MPS 190V350 9999 SCT030 FEW040TCU 33/22 Q1009 NOSIG
ZGOW,2011-08-13 04:00,ZGOW 130400Z 15003MPS 9999 SCT030 FEW040TCU 33/24 Q1009 NOSIG
ZGOW,2011-08-13 05:00,ZGOW 130500Z 15005MPS 9999 FEW026 FEW040TCU 32/24 Q1009 NOSIG
ZGOW,2011-08-13 06:00,ZGOW 130600Z 17006MPS 9999 FEW026 33/24 Q1008 NOSIG
ZGOW,2011-08-13 07:00,ZGOW 130700Z 16006MPS 9999 FEW033TCU 32/23 Q1008 NOSIG
ZGOW,2011-08-13 08:00,ZGOW 130800Z 17006MPS 9999 FEW033TCU 32/24 Q1008 NOSIG
ZGOW,2011-08-13 09:00,ZGOW 130900Z 16005MPS 9999 FEW033TCU 32/24 Q1008 NOSIG
ZGOW,2011-08-13 10:00,ZGOW 131000Z 17005MPS 9999 FEW033TCU 30/24 Q1008 NOSIG
ZGOW,2011-08-13 11:00,ZGOW 131100Z 17004MPS 9999 FEW026 30/24 Q1008 NOSIG
ZGOW,2011-08-13 12:00,ZGOW 131200Z 19005MPS 9999 FEW026 29/24 Q1009 NOSIG
ZGOW,2011-08-13 13:00,ZGOW 131300Z 18004MPS CAVOK 29/24 Q1010 NOSIG
ZGOW,2011-08-13 14:00,ZGOW 131400Z 19004MPS CAVOK 29/24 Q1011 NOSIG
ZGOW,2011-08-13 15:00,ZGOW 131500Z 18002MPS CAVOK 29/24 Q1011 NOSIG
ZGOW,2011-08-13 16:00,ZGOW 131600Z 16001MPS CAVOK 28/24 Q1011 NOSIG
ZGOW,2011-08-13 17:00,ZGOW 131700Z 14003MPS 8000 FEW025 28/25 Q1010 NOSIG
ZGOW,2011-08-13 18:00,ZGOW 131800Z 00000MPS 7000 FEW025 27/25 Q1010 NOSIG
ZGOW,2011-08-13 19:00,ZGOW 131900Z 00000MPS 8000 FEW025 28/24 Q1010 NOSIG
ZGOW,2011-08-13 20:00,ZGOW 132000Z 00000MPS 8000 FEW025 28/24 Q1010 NOSIG
ZGOW,2011-08-13 21:00,ZGOW 132100Z 00000MPS 7000 FEW020 27/25 Q1010 NOSIG
ZGOW,2011-08-13 22:00,ZGOW 132200Z 00000MPS 6000 FEW020 27/24 Q1010 NOSIG
ZGOW,2011-08-13 23:00,ZGOW 132300Z 14001MPS 8000 FEW020 29/25 Q1011 NOSIG
ZGOW,2011-08-14 00:00,ZGOW 140000Z 13002MPS 9999 SCT018 FEW030TCU 30/24 Q1011 NOSIG
ZGOW,2011-08-14 01:00,ZGOW 140100Z 19003MPS 9999 FEW020 FEW030TCU 32/22 Q1012 NOSIG
ZGOW,2011-08-14 02:00,ZGOW 140200Z 00000MPS 9999 FEW020 FEW030TCU 32/23 Q1012 NOSIG
ZGOW,2011-08-14 03:00,ZGOW 140300Z 12003MPS 9999 FEW020 FEW030TCU 32/23 Q1012 NOSIG
ZGOW,2011-08-14 04:00,ZGOW 140400Z 15005MPS 9999 FEW020 33/23 Q1012 NOSIG
ZGOW,2011-08-14 05:00,ZGOW 140500Z 12004MPS 9999 FEW020 33/24 Q1011 NOSIG
ZGOW,2011-08-14 06:00,ZGOW 140600Z 12005MPS 9999 FEW020 33/24 Q1011 NOSIG
ZGOW,2011-08-14 07:00,ZGOW 140700Z 15005MPS 9999 FEW020 33/24 Q1010 NOSIG
ZGOW,2011-08-14 08:00,ZGOW 140800Z 14005MPS 9999 FEW020 32/24 Q1010 NOSIG
ZGOW,2011-08-14 09:00,ZGOW 140900Z 14005MPS 9999 FEW020 31/24 Q1010 NOSIG
ZGOW,2011-08-14 10:00,ZGOW 141000Z 16004MPS CAVOK 30/25 Q1010 NOSIG
ZGOW,2011-08-14 11:00,ZGOW 141100Z 15004MPS CAVOK 29/25 Q1010 NOSIG
ZGOW,2011-08-14 12:00,ZGOW 141200Z 15003MPS CAVOK 29/25 Q1011 NOSIG
ZGOW,2011-08-14 13:00,ZGOW 141300Z 15002MPS CAVOK 28/25 Q1011 NOSIG
ZGOW,2011-08-14 14:00,ZGOW 141400Z 14002MPS CAVOK 28/25 Q1012 NOSIG
ZGOW,2011-08-14 15:00,ZGOW 141500Z 13001MPS CAVOK 28/25 Q1012 NOSIG
ZGOW,2011-08-14 16:00,ZGOW 141600Z 10001MPS CAVOK 27/25 Q1012 NOSIG
ZGOW,2011-08-14 17:00,ZGOW 141700Z 12001MPS CAVOK 27/25 Q1012 NOSIG
ZGOW,2011-08-14 19:00,ZGOW 141900Z AUTO 06001MPS 6000 NCD 27/25 Q1011
ZGOW,2011-08-14 20:00,ZGOW 142000Z AUTO 00000MPS 8000 NCD 27/24 Q1011
ZGOW,2011-08-14 21:00,ZGOW 142100Z 10001MPS 6000 SKC 27/24 Q1011 NOSIG
ZGOW,2011-08-14 22:00,ZGOW 142200Z 07001MPS 7000 NSC 27/25 Q1011 NOSIG
ZGOW,2011-08-14 23:00,ZGOW 142300Z 06001MPS 7000 FEW020 FEW030TCU 28/25 Q1012 NOSIG
ZGOW,2011-08-15 00:00,ZGOW 150000Z 31001MPS 9999 SCT014 FEW030TCU 30/25 Q1012 NOSIG
ZGOW,2011-08-15 01:00,ZGOW 150100Z 08001MPS 9999 SCT018 FEW030TCU 31/24 Q1012 NOSIG
ZGOW,2011-08-15 02:00,ZGOW 150200Z 14003MPS 9999 SCT018 FEW030TCU 31/24 Q1013 NOSIG
ZGOW,2011-08-15 03:00,ZGOW 150300Z 12003MPS 9999 SCT022 33/24 Q1012 NOSIG
ZGOW,2011-08-15 04:00,ZGOW 150400Z 16004MPS 9999 FEW020 33/23 Q1012 NOSIG
ZGOW,2011-08-15 05:00,ZGOW 150500Z 13004MPS 9999 FEW020 33/22 Q1011 NOSIG
ZGOW,2011-08-15 06:00,ZGOW 150600Z 12005MPS 9999 FEW020 33/22 Q1011 NOSIG
ZGOW,2011-08-15 07:00,ZGOW 150700Z 15005MPS CAVOK 33/22 Q1010 NOSIG
ZGOW,2011-08-15 08:00,ZGOW 150800Z 15005G11MPS CAVOK 32/22 Q1010 NOSIG
ZGOW,2011-08-15 09:00,ZGOW 150900Z 17004MPS CAVOK 32/23 Q1010 NOSIG
ZGOW,2011-08-15 10:00,ZGOW 151000Z 16004MPS CAVOK 30/23 Q1010 NOSIG
ZGOW,2011-08-15 11:00,ZGOW 151100Z 16003MPS CAVOK 29/24 Q1010 NOSIG
ZGOW,2011-08-15 12:00,ZGOW 151200Z 16003MPS CAVOK 29/25 Q1011 NOSIG
ZGOW,2011-08-15 13:00,ZGOW 151300Z 16003MPS 9999 FEW020 29/25 Q1011 NOSIG
ZGOW,2011-08-15 14:00,ZGOW 151400Z 12001MPS CAVOK 28/25 Q1011 NOSIG
ZGOW,2011-08-15 15:00,ZGOW 151500Z 00000MPS 7000 NSC 28/25 Q1011 NOSIG
ZGOW,2011-08-15 16:00,ZGOW 151600Z 00000MPS 7000 NSC 28/25 Q1011 NOSIG
ZGOW,2011-08-15 17:00,ZGOW 151700Z 00000MPS 6000 SCT018 28/25 Q1011 NOSIG
ZGOW,2011-08-15 21:00,ZGOW 152100Z 00000MPS 7000 SKC 28/24 Q1010 NOSIG
ZGOW,2011-08-15 22:00,ZGOW 152200Z 00000MPS 5000 BR FEW014 27/25 Q1010 NOSIG
ZGOW,2011-08-15 23:00,ZGOW 152300Z 00000MPS 5000 BR NSC 28/25 Q1011 NOSIG
ZGOW,2011-08-16 00:00,ZGOW 160000Z 04001MPS 7000 FEW016 30/25 Q1011 NOSIG
ZGOW,2011-08-16 01:00,ZGOW 160100Z 27002MPS 9999 SCT020 FEW026TCU 30/24 Q1012 NOSIG
ZGOW,2011-08-16 02:00,ZGOW 160200Z VRB02MPS 9999 SCT020 FEW026TCU 31/24 Q1012 NOSIG
ZGOW,2011-08-16 03:00,ZGOW 160300Z 14004MPS 9999 SCT020 FEW026TCU 33/24 Q1011 NOSIG
ZGOW,2011-08-16 04:00,ZGOW 160400Z 12004MPS 9999 SCT026 33/24 Q1011 NOSIG
ZGOW,2011-08-16 05:00,ZGOW 160500Z 12005MPS 9999 SCT026 33/24 Q1010 NOSIG
ZGOW,2011-08-16 06:00,ZGOW 160600Z 13005MPS 9999 FEW028 33/23 Q1010 NOSIG
ZGOW,2011-08-16 07:00,ZGOW 160700Z 13005MPS CAVOK 32/22 Q1009 NOSIG
ZGOW,2011-08-16 08:00,ZGOW 160800Z 12005MPS CAVOK 32/24 Q1009 NOSIG
ZGOW,2011-08-16 09:00,ZGOW 160900Z 15005MPS CAVOK 31/23 Q1009 NOSIG
ZGOW,2011-08-16 10:00,ZGOW 161000Z 14004MPS CAVOK 30/24 Q1009 NOSIG
ZGOW,2011-08-16 11:00,ZGOW 161100Z 15003MPS CAVOK 29/25 Q1009 NOSIG
ZGOW,2011-08-16 12:00,ZGOW 161200Z 15003MPS 9999 FEW026TCU 29/25 Q1009 NOSIG
ZGOW,2011-08-16 13:00,ZGOW 161300Z 09002MPS 9999 FEW020 28/25 Q1010 NOSIG
ZGOW,2011-08-16 14:00,ZGOW 161400Z 00000MPS 9999 FEW020 28/25 Q1010 NOSIG
ZGOW,2011-08-16 15:00,ZGOW 161500Z 00000MPS 9999 FEW020 27/25 Q1010 NOSIG
ZGOW,2011-08-16 16:00,ZGOW 161600Z 06001MPS 9999 FEW018 27/25 Q1011 NOSIG
ZGOW,2011-08-16 17:00,ZGOW 161700Z 05001MPS 9999 FEW018 27/25 Q1010 NOSIG
ZGOW,2011-08-16 18:00,ZGOW 161800Z 10001MPS 5000 BR SCT018 27/25 Q1010 NOSIG
ZGOW,2011-08-16 19:00,ZGOW 161900Z AUTO 06002MPS 4900 // NCD 27/24 Q1009
ZGOW,2011-08-16 21:00,ZGOW 162100Z 05002MPS 6000 SCT014 26/24 Q1009 NOSIG
ZGOW,2011-08-16 22:00,ZGOW 162200Z 05001MPS 6000 SCT014 27/25 Q1010 NOSIG
ZGOW,2011-08-16 23:00,ZGOW 162300Z 04003MPS 6000 FEW016 28/25 Q1010 NOSIG
ZGOW,2011-08-17 00:00,ZGOW 170000Z 03002MPS 9999 SCT016 29/25 Q1010 NOSIG
ZGOW,2011-08-17 01:00,ZGOW 170100Z 05002MPS 9999 SCT014 FEW030TCU 31/24 Q1010 NOSIG
ZGOW,2011-08-17 02:00,ZGOW 170200Z 08003MPS 9999 SCT014 FEW030TCU 31/24 Q1010 NOSIG
ZGOW,2011-08-17 03:00,ZGOW 170300Z 12003MPS 9999 FEW014 FEW030TCU 32/24 Q1010 NOSIG
ZGOW,2011-08-17 04:00,ZGOW 170400Z 11004MPS 9999 FEW014 FEW030TCU 33/24 Q1010 NOSIG
ZGOW,2011-08-17 05:00,ZGOW 170500Z 14004MPS 9999 FEW014 FEW030TCU 33/24 Q1009 NOSIG
ZGOW,2011-08-17 06:00,ZGOW 170600Z 13005MPS 9999 FEW014 FEW030TCU 33/24 Q1009 NOSIG
ZGOW,2011-08-17 07:00,ZGOW 170700Z 14005MPS 9999 FEW020 33/24 Q1009 NOSIG
ZGOW,2011-08-17 08:00,ZGOW 170800Z 13005MPS 9999 FEW020 32/23 Q1008 NOSIG
ZGOW,2011-08-17 09:00,ZGOW 170900Z 12005MPS 9999 FEW020 31/23 Q1008 NOSIG
ZGOW,2011-08-17 10:00,ZGOW 171000Z 14004MPS 9999 FEW020 31/24 Q1009 NOSIG
ZGOW,2011-08-17 11:00,ZGOW 171100Z 14003MPS 9999 FEW020 29/24 Q1009 NOSIG
ZGOW,2011-08-17 12:00,ZGOW 171200Z 15003MPS 9999 FEW020 29/25 Q1010 NOSIG
ZGOW,2011-08-17 13:00,ZGOW 171300Z 17002MPS 9999 FEW020 29/24 Q1011 NOSIG
ZGOW,2011-08-17 14:00,ZGOW 171400Z 18002MPS 9999 FEW020 29/24 Q1011 NOSIG
ZGOW,2011-08-17 15:00,ZGOW 171500Z 19001MPS 9999 FEW015 29/24 Q1011 NOSIG
ZGOW,2011-08-17 16:00,ZGOW 171600Z 09001MPS 9999 FEW015 29/24 Q1011 NOSIG
ZGOW,2011-08-17 17:00,ZGOW 171700Z 00000MPS 9999 FEW015 29/24 Q1010 NOSIG
ZGOW,2011-08-17 18:00,ZGOW 171800Z 26001MPS 9999 FEW015 28/24 Q1010 NOSIG
ZGOW,2011-08-17 19:00,ZGOW 171900Z AUTO 00000MPS 8000 NCD 28/24 Q1009
ZGOW,2011-08-17 20:00,ZGOW 172000Z AUTO 00000MPS 6000 NCD 28/25 Q1010
ZGOW,2011-08-17 21:00,ZGOW 172100Z 09001MPS 5000 BR SKC 27/25 Q1010 NOSIG
ZGOW,2011-08-17 22:00,ZGOW 172200Z 00000MPS 5000 BR SKC 27/25 Q1010 NOSIG
ZGOW,2011-08-17 23:00,ZGOW 172300Z 00000MPS 6000 FEW010 28/26 Q1010 NOSIG
ZGOW,2011-08-18 00:00,ZGOW 180000Z 07002MPS 6000 SCT014 30/25 Q1011 NOSIG
ZGOW,2011-08-18 01:00,ZGOW 180100Z 08001MPS 9999 FEW020 31/24 Q1011 NOSIG
ZGOW,2011-08-18 02:00,ZGOW 180200Z 10003MPS 9999 FEW020 32/23 Q1011 NOSIG
ZGOW,2011-08-18 03:00,ZGOW 180300Z 10003MPS 9999 FEW020 32/22 Q1011 NOSIG
ZGOW,2011-08-18 04:00,ZGOW 180400Z 12003MPS 9999 FEW020 33/23 Q1010 NOSIG
ZGOW,2011-08-18 05:00,ZGOW 180500Z 13003MPS 9999 FEW020 33/22 Q1010 NOSIG
ZGOW,2011-08-18 06:00,ZGOW 180600Z 14004MPS 9999 FEW020 33/23 Q1010 NOSIG
ZGOW,2011-08-18 07:00,ZGOW 180700Z 16006MPS CAVOK 33/24 Q1010 NOSIG
ZGOW,2011-08-18 08:00,ZGOW 180800Z 14005MPS CAVOK 32/24 Q1009 NOSIG
ZGOW,2011-08-18 09:00,ZGOW 180900Z 16004MPS CAVOK 32/23 Q1009 NOSIG
ZGOW,2011-08-18 10:00,ZGOW 181000Z 15004MPS CAVOK 30/23 Q1009 NOSIG
ZGOW,2011-08-18 11:00,ZGOW 181100Z 16003MPS CAVOK 29/24 Q1010 NOSIG
ZGOW,2011-08-18 12:00,ZGOW 181200Z 15002MPS CAVOK 29/25 Q1011 NOSIG
ZGOW,2011-08-18 13:00,ZGOW 181300Z 14002MPS CAVOK 28/25 Q1012 NOSIG
ZGOW,2011-08-18 14:00,ZGOW 181400Z 13002MPS 7000 NSC 28/25 Q1012 NOSIG
ZGOW,2011-08-18 15:00,ZGOW 181500Z 17001MPS 5000 BR FEW020 28/25 Q1012 NOSIG
ZGOW,2011-08-18 16:00,ZGOW 181600Z 00000MPS 5000 BR FEW018 28/25 Q1011 NOSIG
ZGOW,2011-08-18 17:00,ZGOW 181700Z 24001MPS 9999 FEW018 29/24 Q1011 NOSIG
ZGOW,2011-08-18 18:00,ZGOW 181800Z AUTO 00000MPS 5000 NCD 28/24 Q1011
ZGOW,2011-08-18 21:00,ZGOW 182100Z 09001MPS 5000 BR SKC 27/25 Q1010 NOSIG
ZGOW,2011-08-18 22:00,ZGOW 182200Z 04002MPS 4000 BR NSC 27/24 Q1010 NOSIG
ZGOW,2011-08-18 23:00,ZGOW 182300Z 09001MPS 5000 BR NSC 29/25 Q1011 NOSIG
ZGOW,2011-08-19 00:00,ZGOW 190000Z 10002MPS 5000 BR SCT012 30/25 Q1011 NOSIG
ZGOW,2011-08-19 01:00,ZGOW 190100Z 24002MPS 6000 SCT014 31/25 Q1011 NOSIG
ZGOW,2011-08-19 02:00,ZGOW 190200Z 13003MPS 9999 SCT014 32/25 Q1012 NOSIG
ZGOW,2011-08-19 03:00,ZGOW 190300Z 13003MPS 9999 SCT014 33/23 Q1012 NOSIG
ZGOW,2011-08-19 04:00,ZGOW 190400Z 17004MPS 9999 SCT014 34/22 Q1012 NOSIG
ZGOW,2011-08-19 05:00,ZGOW 190500Z 16005MPS 9999 SCT014 34/22 Q1011 NOSIG
ZGOW,2011-08-19 06:00,ZGOW 190600Z 15006MPS 9999 FEW014 34/23 Q1011 NOSIG
ZGOW,2011-08-19 07:00,ZGOW 190700Z 16006MPS 9999 FEW020 33/23 Q1010 NOSIG
ZGOW,2011-08-19 08:00,ZGOW 190800Z 16006MPS 9999 FEW020 33/24 Q1010 NOSIG
ZGOW,2011-08-19 09:00,ZGOW 190900Z 16005MPS 9999 FEW020 32/24 Q1010 NOSIG
ZGOW,2011-08-19 10:00,ZGOW 191000Z 15004MPS 9999 FEW020 30/24 Q1011 NOSIG
ZGOW,2011-08-19 11:00,ZGOW 191100Z 08001MPS 7000 FEW020 29/25 Q1012 NOSIG
ZGOW,2011-08-19 12:00,ZGOW 191200Z 32002MPS 5000 HZ FEW020 28/21 Q1012 NOSIG
ZGOW,2011-08-19 13:00,ZGOW 191300Z 31003MPS 5000 HZ FEW020 28/20 Q1013 NOSIG
ZGOW,2011-08-19 14:00,ZGOW 191400Z 31002MPS 5000 HZ FEW020 27/20 Q1013 NOSIG
ZGOW,2011-08-19 15:00,ZGOW 191500Z 30002MPS 5000 HZ FEW020 27/20 Q1012 NOSIG
ZGOW,2011-08-19 16:00,ZGOW 191600Z 31002MPS 6000 SKC 27/20 Q1012 NOSIG
ZGOW,2011-08-19 17:00,ZGOW 191700Z 32003MPS 7000 SKC 27/21 Q1012 NOSIG
ZGOW,2011-08-19 18:00,ZGOW 191800Z 31001MPS 7000 SKC 26/20 Q1011 NOSIG
ZGOW,2011-08-19 19:00,ZGOW 191900Z AUTO 32002MPS 6000 NCD 26/21 Q1011
ZGOW,2011-08-19 20:00,ZGOW 192000Z AUTO 32002MPS 5000 NCD 26/20 Q1011
ZGOW,2011-08-19 21:00,ZGOW 192100Z 31002MPS 6000 SKC 25/20 Q1011 NOSIG
ZGOW,2011-08-19 22:00,ZGOW 192200Z 30002MPS 6000 SKC 25/20 Q1012 NOSIG
ZGOW,2011-08-19 23:00,ZGOW 192300Z 32002MPS 7000 SKC 26/20 Q1012 NOSIG
ZGOW,2011-08-20 00:00,ZGOW 200000Z 32003MPS 7000 SKC 28/21 Q1012 NOSIG
ZGOW,2011-08-20 01:00,ZGOW 200100Z 31003MPS CAVOK 30/20 Q1012 NOSIG
ZGOW,2011-08-20 02:00,ZGOW 200200Z 31003MPS CAVOK 32/21 Q1012 NOSIG
ZGOW,2011-08-20 03:00,ZGOW 200300Z 26002MPS CAVOK 34/20 Q1012 NOSIG
ZGOW,2011-08-20 04:00,ZGOW 200400Z 25003MPS CAVOK 35/18 Q1011 NOSIG
ZGOW,2011-08-20 05:00,ZGOW 200500Z 22003MPS 9999 FEW025 35/19 Q1011 NOSIG
ZGOW,2011-08-20 06:00,ZGOW 200600Z 16005MPS 9999 FEW025 FEW033TCU 34/21 Q1010 NOSIG
ZGOW,2011-08-20 07:00,ZGOW 200700Z 16006MPS 9999 FEW033TCU 35/21 Q1010 NOSIG
ZGOW,2011-08-20 08:00,ZGOW 200800Z 17006MPS 9999 FEW026 34/20 Q1009 NOSIG
ZGOW,2011-08-20 09:00,ZGOW 200900Z 17005MPS 9999 FEW026 33/20 Q1009 NOSIG
ZGOW,2011-08-20 10:00,ZGOW 201000Z 17005MPS 9999 FEW026 32/21 Q1010 NOSIG
ZGOW,2011-08-20 11:00,ZGOW 201100Z 18004MPS CAVOK 30/22 Q1010 NOSIG
ZGOW,2011-08-20 12:00,ZGOW 201200Z 19004MPS 7000 NSC 30/23 Q1010 NOSIG
ZGOW,2011-08-20 13:00,ZGOW 201300Z 20003MPS 8000 NSC 29/23 Q1011 NOSIG
ZGOW,2011-08-20 14:00,ZGOW 201400Z 28001MPS 8000 FEW020 29/24 Q1011 NOSIG
ZGOW,2011-08-20 15:00,ZGOW 201500Z 00000MPS 8000 SKC 29/23 Q1011 NOSIG
ZGOW,2011-08-20 16:00,ZGOW 201600Z 00000MPS 7000 SKC 29/24 Q1010 NOSIG
ZGOW,2011-08-20 17:00,ZGOW 201700Z 00000MPS 6000 SKC 28/24 Q1010 NOSIG
ZGOW,2011-08-20 18:00,ZGOW 201800Z AUTO 00000MPS 3900 // NCD 28/24 Q1010
ZGOW,2011-08-20 19:00,ZGOW 201900Z AUTO 00000MPS 3400 // NCD 28/24 Q1010
ZGOW,2011-08-20 21:00,ZGOW 202100Z 00000MPS 5000 BR SKC 28/24 Q1010 NOSIG
ZGOW,2011-08-20 22:00,ZGOW 202200Z 00000MPS 5000 BR SKC 28/23 Q1010 NOSIG
ZGOW,2011-08-20 23:00,ZGOW 202300Z 00000MPS 6000 SKC 29/23 Q1011 NOSIG
ZGOW,2011-08-21 00:00,ZGOW 210000Z 00000MPS 6000 SKC 30/22 Q1011 NOSIG
ZGOW,2011-08-21 01:00,ZGOW 210100Z 28002MPS CAVOK 32/21 Q1011 NOSIG
ZGOW,2011-08-21 02:00,ZGOW 210200Z 23002MPS CAVOK 33/19 Q1011 NOSIG
ZGOW,2011-08-21 03:00,ZGOW 210300Z 31002MPS CAVOK 34/20 Q1010 NOSIG
ZGOW,2011-08-21 04:00,ZGOW 210400Z 17004MPS CAVOK 34/22 Q1010 NOSIG
ZGOW,2011-08-21 05:00,ZGOW 210500Z 14005MPS CAVOK 34/22 Q1009 NOSIG
ZGOW,2011-08-21 06:00,ZGOW 210600Z 14006MPS 9999 FEW020 33/23 Q1008 NOSIG
ZGOW,2011-08-21 07:00,ZGOW 210700Z 14006MPS 9999 FEW020 33/23 Q1008 NOSIG
ZGOW,2011-08-21 08:00,ZGOW 210800Z 14006MPS 9999 FEW030CB 33/23 Q1008 NOSIG
ZGOW,2011-08-21 09:00,ZGOW 210900Z 15005MPS 9999 FEW026TCU 32/23 Q1008 NOSIG
ZGOW,2011-08-21 10:00,ZGOW 211000Z 16004MPS CAVOK 31/23 Q1008 NOSIG
ZGOW,2011-08-21 11:00,ZGOW 211100Z 16004MPS CAVOK 30/24 Q1009 NOSIG
ZGOW,2011-08-21 12:00,ZGOW 211200Z 17003MPS CAVOK 30/24 Q1009 NOSIG
ZGOW,2011-08-21 13:00,ZGOW 211300Z 17002MPS CAVOK 30/24 Q1010 NOSIG
ZGOW,2011-08-21 14:00,ZGOW 211400Z 14002MPS CAVOK 29/24 Q1010 NOSIG
ZGOW,2011-08-21 15:00,ZGOW 211500Z 13001MPS CAVOK 29/24 Q1010 NOSIG
ZGOW,2011-08-21 16:00,ZGOW 211600Z 18003MPS CAVOK 29/25 Q1009 NOSIG
ZGOW,2011-08-21 17:00,ZGOW 211700Z 20001MPS 9999 FEW020 29/24 Q1009 NOSIG
ZGOW,2011-08-21 18:00,ZGOW 211800Z AUTO 00000MPS 6000 NCD 29/24 Q1008
ZGOW,2011-08-21 19:00,ZGOW 211900Z AUTO 23002MPS 5000 NCD 29/24 Q1008
ZGOW,2011-08-21 20:00,ZGOW 212000Z AUTO 25002MPS 5000 NCD 29/24 Q1008
ZGOW,2011-08-21 21:00,ZGOW 212100Z 00000MPS 7000 SKC 28/24 Q1008 NOSIG
ZGOW,2011-08-21 22:00,ZGOW 212200Z 00000MPS 5000 BR NSC 28/24 Q1008 NOSIG
ZGOW,2011-08-21 23:00,ZGOW 212300Z 00000MPS 5000 BR SKC 29/25 Q1009 NOSIG
ZGOW,2011-08-22 00:00,ZGOW 220000Z 04001MPS 6000 FEW016 30/24 Q1009 NOSIG
ZGOW,2011-08-22 01:00,ZGOW 220100Z 07001MPS 4000 HZ SCT020 31/24 Q1009 NOSIG
ZGOW,2011-08-22 02:00,ZGOW 220200Z 14002MPS 5000 -SHRA SCT020 FEW026TCU 32/24 Q1009 NOSIG
ZGOW,2011-08-22 03:00,ZGOW 220300Z 16003MPS 8000 SCT020 FEW026CB 33/23 Q1009 NOSIG
ZGOW,2011-08-22 04:00,ZGOW 220400Z 14003MPS 8000 SCT020 FEW026CB 30/24 Q1009 NOSIG
ZGOW,2011-08-22 05:00,ZGOW 220500Z 16005MPS 9999 FEW025 FEW030TCU 33/22 Q1008 NOSIG
ZGOW,2011-08-22 06:00,ZGOW 220600Z 16005MPS 9999 FEW025 FEW030TCU 33/23 Q1007 NOSIG
ZGOW,2011-08-22 07:00,ZGOW 220700Z 16004MPS CAVOK 32/22 Q1007 NOSIG
ZGOW,2011-08-22 08:00,ZGOW 220800Z 16004MPS 9999 FEW030CB 31/23 Q1007 NOSIG
ZGOW,2011-08-22 09:00,ZGOW 220900Z 16003MPS 110V190 CAVOK 31/23 Q1007 NOSIG
ZGOW,2011-08-22 10:00,ZGOW 221000Z 16003MPS 120V200 CAVOK 30/24 Q1007 NOSIG
ZGOW,2011-08-22 11:00,ZGOW 221100Z 17002MPS 7000 NSC 29/24 Q1007 NOSIG
ZGOW,2011-08-22 12:00,ZGOW 221200Z 12002MPS 6000 NSC 29/25 Q1008 NOSIG
ZGOW,2011-08-22 13:00,ZGOW 221300Z 14002MPS 7000 NSC 28/25 Q1008 NOSIG
ZGOW,2011-08-22 14:00,ZGOW 221400Z 14002MPS 7000 NSC 28/24 Q1008 NOSIG
ZGOW,2011-08-22 15:00,ZGOW 221500Z 12002MPS 8000 NSC 28/25 Q1008 NOSIG
ZGOW,2011-08-22 16:00,ZGOW 221600Z 16001MPS 8000 NSC 28/25 Q1008 NOSIG
ZGOW,2011-08-22 17:00,ZGOW 221700Z AUTO 22002MPS 6000 NCD 28/24 Q1007
ZGOW,2011-08-22 18:00,ZGOW 221800Z AUTO 27001MPS 4900 // NCD 28/24 Q1007
ZGOW,2011-08-22 21:00,ZGOW 222100Z 28001MPS 4000 BR SKC 28/24 Q1007 NOSIG
ZGOW,2011-08-22 22:00,ZGOW 222200Z 33001MPS 3200 BR SKC 27/25 Q1007 NOSIG
ZGOW,2011-08-22 23:00,ZGOW 222300Z 32001MPS 3200 BR FEW020 28/25 Q1007 NOSIG
ZGOW,2011-08-23 00:00,ZGOW 230000Z 30001MPS 4000 HZ FEW016 29/24 Q1007 NOSIG
ZGOW,2011-08-23 01:00,ZGOW 230100Z 33001MPS 6000 SCT020 31/24 Q1007 NOSIG
ZGOW,2011-08-23 02:00,ZGOW 230200Z 27001MPS 8000 SCT020 32/23 Q1007 NOSIG
ZGOW,2011-08-23 03:00,ZGOW 230300Z 18002MPS 7000 SCT020 33/23 Q1007 NOSIG
ZGOW,2011-08-23 04:00,ZGOW 230400Z 14005MPS 8000 SCT020 34/24 Q1006 NOSIG
ZGOW,2011-08-23 05:00,ZGOW 230500Z 16006MPS 8000 FEW020 FEW028CB 33/24 Q1006 NOSIG
ZGOW,2011-08-23 06:00,ZGOW 230600Z 16006MPS 9999 FEW020 FEW030CB 34/22 Q1005 NOSIG
ZGOW,2011-08-23 07:00,ZGOW 230700Z 17006MPS 9999 FEW020 34/23 Q1005 NOSIG
ZGOW,2011-08-23 08:00,ZGOW 230800Z 19007MPS 9999 FEW020 33/24 Q1005 NOSIG
ZGOW,2011-08-23 09:00,ZGOW 230900Z 19006MPS 9999 FEW020 32/24 Q1005 NOSIG
ZGOW,2011-08-23 10:00,ZGOW 231000Z 18003MPS 9999 FEW020 FEW030TCU 31/25 Q1005 NOSIG
ZGOW,2011-08-23 11:00,ZGOW 231100Z 18004MPS 9999 FEW020 FEW030TCU 30/25 Q1005 NOSIG
ZGOW,2011-08-23 12:00,ZGOW 231200Z 18003MPS 9999 FEW020 30/24 Q1006 NOSIG
ZGOW,2011-08-23 13:00,ZGOW 231300Z 20001MPS 9999 FEW020 30/24 Q1007 NOSIG
ZGOW,2011-08-23 14:00,ZGOW 231400Z 22002MPS CAVOK 29/24 Q1007 NOSIG
ZGOW,2011-08-23 15:00,ZGOW 231500Z 17002MPS CAVOK 29/25 Q1007 NOSIG
ZGOW,2011-08-23 16:00,ZGOW 231600Z 00000MPS 9999 FEW020 29/25 Q1007 NOSIG
ZGOW,2011-08-23 17:00,ZGOW 231700Z AUTO 15001MPS CAVOK 28/25 Q1007
ZGOW,2011-08-23 18:00,ZGOW 231800Z AUTO 00000MPS CAVOK 28/25 Q1007
ZGOW,2011-08-23 19:00,ZGOW 231900Z AUTO 00000MPS CAVOK 28/25 Q1007
ZGOW,2011-08-23 20:00,ZGOW 232000Z AUTO 00000MPS CAVOK 28/25 Q1006
ZGOW,2011-08-23 21:00,ZGOW 232100Z 00000MPS CAVOK 28/25 Q1006 NOSIG
ZGOW,2011-08-23 22:00,ZGOW 232200Z 00000MPS CAVOK 28/25 Q1006 NOSIG
ZGOW,2011-08-23 23:00,ZGOW 232300Z 00000MPS 9999 FEW014 28/26 Q1007 NOSIG
ZGOW,2011-08-24 00:00,ZGOW 240000Z 00000MPS 9999 FEW016 29/25 Q1007 NOSIG
ZGOW,2011-08-24 01:00,ZGOW 240100Z 23002MPS 9999 SCT026 32/24 Q1007 NOSIG
ZGOW,2011-08-24 02:00,ZGOW 240200Z 25003MPS 9999 SCT026 FEW030TCU 31/24 Q1007 NOSIG
ZGOW,2011-08-24 03:00,ZGOW 240300Z 10004MPS 060V130 9999 SCT026 FEW030TCU 33/26 Q1007 NOSIG
ZGOW,2011-08-24 04:00,ZGOW 240400Z 13005MPS 9999 SCT026 FEW030CB 33/25 Q1006 NOSIG
ZGOW,2011-08-24 05:00,ZGOW 240500Z 13005MPS 9999 FEW026 FEW030CB 33/25 Q1005 NOSIG
ZGOW,2011-08-24 06:00,ZGOW 240600Z 14006MPS 9999 SCT026 FEW030CB 32/25 Q1005 NOSIG
ZGOW,2011-08-24 07:00,ZGOW 240700Z 15005MPS 9999 FEW026 FEW030CB 33/25 Q1005 TEMPO 2500 -TSRA
ZGOW,2011-08-24 08:00,ZGOW 240800Z 15005MPS 9999 FEW026 FEW030CB 31/25 Q1004 TEMPO 2500 -TSRA
ZGOW,2011-08-24 09:00,ZGOW 240900Z 26006G14MPS 220V320 1000 R22/1400VP2000N TSRA SCT020 SCT030CB 26/24 Q1006 TEMPO VRB08G15MPS 1200 TSRA
ZGOW,2011-08-24 10:00,ZGOW 241000Z 00000MPS 9999 -SHRA SCT025 FEW033TCU 25/24 Q1005 RETSRA NOSIG
ZGOW,2011-08-24 11:00,ZGOW 241100Z 00000MPS 9999 FEW026 26/25 Q1006 NOSIG
ZGOW,2011-08-24 12:00,ZGOW 241200Z 28002MPS 9999 FEW025 FEW040CB BKN050 26/25 Q1007 NOSIG
ZGOW,2011-08-24 13:00,ZGOW 241300Z 31007MPS 9999 -SHRA FEW018 FEW033CB BKN050 24/23 Q1008 TEMPO 2100 TSRA
ZGOW,2011-08-24 14:00,ZGOW 241400Z 34002MPS 9999 -SHRA FEW007 FEW033CB BKN040 24/23 Q1008 RESHRA TEMPO 2100 TSRA
ZGOW,2011-08-24 15:00,ZGOW 241500Z 27002MPS 9999 FEW020 FEW033TCU 24/23 Q1006 NOSIG
ZGOW,2011-08-24 16:00,ZGOW 241600Z 32002MPS 9999 FEW020 24/23 Q1007 NOSIG
ZGOW,2011-08-24 17:00,ZGOW 241700Z AUTO 28002MPS 4700 // NCD 25/24 Q1007
ZGOW,2011-08-24 19:00,ZGOW 241900Z AUTO 30001MPS 4500 // NCD 25/23 Q1006
ZGOW,2011-08-24 20:00,ZGOW 242000Z AUTO 30002MPS 3600 // ////// 25/24 Q1006
ZGOW,2011-08-24 21:00,ZGOW 242100Z 30002MPS 4000 BR SCT012 SCT040 25/24 Q1006 NOSIG
ZGOW,2011-08-24 22:00,ZGOW 242200Z 32002MPS 4000 BR SCT012 SCT040 25/24 Q1006 NOSIG
ZGOW,2011-08-24 23:00,ZGOW 242300Z 33001MPS 5000 BR FEW025 26/24 Q1007 NOSIG
ZGOW,2011-08-25 00:00,ZGOW 250000Z 33002MPS 8000 SCT050 27/24 Q1007 NOSIG
ZGOW,2011-08-25 01:00,ZGOW 250100Z 31002MPS 6000 SCT020 BKN050 28/25 Q1008 NOSIG
ZGOW,2011-08-25 02:00,ZGOW 250200Z 31002MPS 7000 SCT020 FEW026TCU BKN050 29/25 Q1008 NOSIG
ZGOW,2011-08-25 03:00,ZGOW 250300Z 31002MPS 8000 FEW020 FEW026TCU 29/25 Q1007 NOSIG
ZGOW,2011-08-25 04:00,ZGOW 250400Z VRB02MPS 8000 FEW020 FEW026TCU 32/25 Q1006 NOSIG
ZGOW,2011-08-25 05:00,ZGOW 250500Z 12002MPS 7000 FEW020 FEW028CB 32/25 Q1005 NOSIG
ZGOW,2011-08-25 06:00,ZGOW 250600Z 14004MPS 6000 FEW020 FEW028CB 29/25 Q1005 TEMPO 2100 -TSRA
ZGOW,2011-08-25 07:00,ZGOW 250700Z 13004MPS 6000 FEW020 FEW028CB 29/25 Q1005 NOSIG
ZGOW,2011-08-25 08:00,ZGOW 250800Z 13003MPS 6000 FEW028CB 29/25 Q1004 NOSIG
ZGOW,2011-08-25 09:00,ZGOW 250900Z 12004MPS 4000 BR FEW028TCU 29/25 Q1004 NOSIG
ZGOW,2011-08-25 10:00,ZGOW 251000Z 13004MPS 4000 BR FEW028TCU 28/25 Q1004 NOSIG
ZGOW,2011-08-25 11:00,ZGOW 251100Z 12003MPS 2500 BR FEW028CB 27/25 Q1005 NOSIG
ZGOW,2011-08-25 12:00,ZGOW 251200Z 12003MPS 2500 BR FEW028CB SCT028 27/25 Q1006 NOSIG
ZGOW,2011-08-25 13:00,ZGOW 251300Z 07002MPS 5000 BR FEW028CB SCT028 27/24 Q1007 NOSIG
ZGOW,2011-08-25 14:00,ZGOW 251400Z 07005MPS 9999 FEW028CB FEW028 28/21 Q1007 NOSIG
ZGOW,2011-08-25 15:00,ZGOW 251500Z 07003MPS 9999 FEW028CB SCT050 28/24 Q1007 NOSIG
ZGOW,2011-08-25 16:00,ZGOW 251600Z 08003MPS 9999 FEW028TCU SCT050 27/25 Q1007 NOSIG
ZGOW,2011-08-25 17:00,ZGOW 251700Z 07003MPS 9999 FEW030CB SCT050 27/24 Q1007 NOSIG
ZGOW,2011-08-25 18:00,ZGOW 251800Z 00000MPS 9999 FEW028TCU SCT050 27/25 Q1007 NOSIG
ZGOW,2011-08-25 19:00,ZGOW 251900Z AUTO 32001MPS 8000 ////// 27/24 Q1007
ZGOW,2011-08-25 20:00,ZGOW 252000Z AUTO 35001MPS 7000 ////// 27/24 Q1006
ZGOW,2011-08-25 21:00,ZGOW 252100Z 35001MPS 7000 NSC 27/24 Q1006 NOSIG
ZGOW,2011-08-25 22:00,ZGOW 252200Z 31003MPS 8000 NSC 26/24 Q1006 NOSIG
ZGOW,2011-08-25 23:00,ZGOW 252300Z 33002MPS 7000 FEW026TCU 27/24 Q1007 NOSIG
ZGOW,2011-08-26 00:00,ZGOW 260000Z 31003MPS CAVOK 28/24 Q1007 NOSIG
ZGOW,2011-08-26 01:00,ZGOW 260100Z 31003MPS CAVOK 30/24 Q1007 NOSIG
ZGOW,2011-08-26 02:00,ZGOW 260200Z 32003MPS 9999 FEW024 31/24 Q1007 NOSIG
ZGOW,2011-08-26 03:00,ZGOW 260300Z 31002MPS 9999 FEW026 32/23 Q1007 NOSIG
ZGOW,2011-08-26 04:00,ZGOW 260400Z 33001MPS 9999 SCT030 32/22 Q1006 NOSIG
ZGOW,2011-08-26 05:00,ZGOW 260500Z 09002MPS 9999 SCT026 FEW033TCU 34/23 Q1005 NOSIG
ZGOW,2011-08-26 06:00,ZGOW 260600Z 13002MPS 9999 SCT030 33/23 Q1004 NOSIG
ZGOW,2011-08-26 07:00,ZGOW 260700Z 13005MPS 9999 FEW026 32/22 Q1004 NOSIG
ZGOW,2011-08-26 08:00,ZGOW 260800Z 13004MPS 9999 FEW026 FEW030TCU 32/23 Q1004 NOSIG
ZGOW,2011-08-26 09:00,ZGOW 260900Z 14005MPS 9999 FEW026TCU 30/22 Q1004 NOSIG
ZGOW,2011-08-26 10:00,ZGOW 261000Z 14004MPS 9999 FEW030CB 29/23 Q1005 NOSIG
ZGOW,2011-08-26 11:00,ZGOW 261100Z 10002MPS 9999 FEW030CB SCT050 28/24 Q1005 NOSIG
ZGOW,2011-08-26 12:00,ZGOW 261200Z 08003MPS 9999 FEW030CB SCT043 28/24 Q1006 NOSIG
ZGOW,2011-08-26 13:00,ZGOW 261300Z 09002MPS 9999 FEW030CB SCT043 28/24 Q1007 NOSIG
ZGOW,2011-08-26 14:00,ZGOW 261400Z 10001MPS 9999 FEW030CB BKN040 28/24 Q1007 NOSIG
ZGOW,2011-08-26 15:00,ZGOW 261500Z 04003MPS 9999 FEW030TCU BKN040 27/25 Q1006 NOSIG
ZGOW,2011-08-26 16:00,ZGOW 261600Z 31002MPS 7000 FEW018 BKN046 28/25 Q1006 NOSIG
ZGOW,2011-08-26 17:00,ZGOW 261700Z 30001MPS 6000 FEW018 SCT050 28/25 Q1006 NOSIG
ZGOW,2011-08-26 18:00,ZGOW 261800Z 31002MPS 5000 BR FEW016 SCT046 27/25 Q1005 NOSIG
ZGOW,2011-08-26 20:00,ZGOW 262000Z AUTO 31003MPS CAVOK 27/24 Q1004
ZGOW,2011-08-26 21:00,ZGOW 262100Z 29002MPS 7000 SKC 27/24 Q1004 NOSIG
ZGOW,2011-08-26 22:00,ZGOW 262200Z 32003MPS 7000 NSC 26/24 Q1004 NOSIG
ZGOW,2011-08-26 23:00,ZGOW 262300Z 32002MPS 6000 SCT050 27/25 Q1005 NOSIG
ZGOW,2011-08-27 00:00,ZGOW 270000Z 31004MPS 8000 SKC 29/25 Q1005 NOSIG
ZGOW,2011-08-27 01:00,ZGOW 270100Z 32004MPS CAVOK 31/24 Q1005 NOSIG
ZGOW,2011-08-27 02:00,ZGOW 270200Z 35003MPS 9999 FEW020 33/24 Q1005 NOSIG
ZGOW,2011-08-27 03:00,ZGOW 270300Z 02005MPS 350V080 9999 SCT025 FEW033TCU 34/22 Q1005 NOSIG
ZGOW,2011-08-27 04:00,ZGOW 270400Z 06004MPS 010V100 9999 SCT025 FEW033TCU 34/24 Q1004 NOSIG
ZGOW,2011-08-27 05:00,ZGOW 270500Z 10004MPS 060V140 9999 SCT025 FEW033TCU 35/23 Q1003 NOSIG
ZGOW,2011-08-27 06:00,ZGOW 270600Z 14003MPS 9999 SCT025 FEW033TCU 34/24 Q1002 NOSIG
ZGOW,2011-08-27 07:00,ZGOW 270700Z 13002MPS 9999 SCT026 FEW033TCU 34/23 Q1002 NOSIG
ZGOW,2011-08-27 08:00,ZGOW 270800Z 13004MPS 9999 SCT028 FEW033TCU 33/24 Q1002 NOSIG
ZGOW,2011-08-27 09:00,ZGOW 270900Z 13005MPS 9999 FEW028 FEW040CB 30/25 Q1002 NOSIG
ZGOW,2011-08-27 10:00,ZGOW 271000Z 14004MPS 090V160 9999 FEW028 FEW040CB 29/25 Q1002 NOSIG
ZGOW,2011-08-27 11:00,ZGOW 271100Z 10001MPS 9999 FEW040CB 28/25 Q1003 NOSIG
ZGOW,2011-08-27 12:00,ZGOW 271200Z 10004MPS 9999 FEW040CB BKN050 29/24 Q1004 NOSIG
ZGOW,2011-08-27 13:00,ZGOW 271300Z 06002MPS 9999 FEW033CB BKN040 28/24 Q1004 NOSIG
ZGOW,2011-08-27 14:00,ZGOW 271400Z 25001MPS 9999 SCT026 BKN040 29/25 Q1005 NOSIG
ZGOW,2011-08-27 15:00,ZGOW 271500Z 32004MPS 270V010 9999 FEW026 BKN050 28/25 Q1004 NOSIG
ZGOW,2011-08-27 16:00,ZGOW 271600Z 31003MPS 9999 FEW026 FEW033TCU BKN050 28/25 Q1004 NOSIG
ZGOW,2011-08-27 17:00,ZGOW 271700Z AUTO 30003MPS 9000 ////// 27/25 Q1004
ZGOW,2011-08-27 19:00,ZGOW 271900Z AUTO 32002MPS 6000 NCD 27/25 Q1003
ZGOW,2011-08-27 21:00,ZGOW 272100Z 31003MPS 6000 NSC 26/24 Q1002 NOSIG
ZGOW,2011-08-27 22:00,ZGOW 272200Z 31002MPS 5000 BR NSC 26/25 Q1003 NOSIG
ZGOW,2011-08-27 23:00,ZGOW 272300Z 31003MPS 6000 NSC 27/24 Q1002 NOSIG
ZGOW,2011-08-28 00:00,ZGOW 280000Z 31005MPS CAVOK 29/24 Q1003 NOSIG
ZGOW,2011-08-28 01:00,ZGOW 280100Z 32005MPS CAVOK 31/24 Q1003 NOSIG
ZGOW,2011-08-28 02:00,ZGOW 280200Z 33004MPS CAVOK 33/24 Q1003 NOSIG
ZGOW,2011-08-28 03:00,ZGOW 280300Z 32004MPS 9999 SCT050 33/23 Q1002 NOSIG
ZGOW,2011-08-28 04:00,ZGOW 280400Z 34003MPS 9999 SCT050 33/23 Q1001 NOSIG
ZGOW,2011-08-28 05:00,ZGOW 280500Z 35003MPS 9999 FEW020 SCT050 34/23 Q1001 NOSIG
ZGOW,2011-08-28 06:00,ZGOW 280600Z 32003MPS 9999 FEW020 SCT050 34/23 Q1000 NOSIG
ZGOW,2011-08-28 07:00,ZGOW 280700Z 32004MPS 9999 SCT020 FEW028CB SCT050 35/23 Q0999 NOSIG
ZGOW,2011-08-28 08:00,ZGOW 280800Z 19003MPS 9999 FEW020 FEW028CB 30/25 Q0999 RETS TEMPO 2500 TSRA SCT014 SCT030CB BKN040
ZGOW,2011-08-28 09:00,ZGOW 280900Z 31001MPS 9999 FEW020 FEW028CB 33/23 Q0999 TEMPO 2500 TSRA SCT014 SCT030CB BKN040
ZGOW,2011-08-28 10:00,ZGOW 281000Z 12004MPS 9999 TS FEW020 FEW028CB SCT050 30/24 Q1000 NOSIG
ZGOW,2011-08-28 11:00,ZGOW 281100Z 10001MPS 9999 FEW020 FEW028CB 28/24 Q1000 RETS NOSIG
ZGOW,2011-08-28 12:00,ZGOW 281200Z 16001MPS 9999 FEW020 FEW028CB 28/25 Q1001 NOSIG
ZGOW,2011-08-28 13:00,ZGOW 281300Z 16001MPS 9999 FEW020 29/25 Q1001 NOSIG
ZGOW,2011-08-28 14:00,ZGOW 281400Z 30002MPS 9999 FEW020 29/25 Q1001 NOSIG
ZGOW,2011-08-28 15:00,ZGOW 281500Z 27002MPS 9999 FEW020 29/25 Q1001 NOSIG
ZGOW,2011-08-28 16:00,ZGOW 281600Z 28002MPS 9999 FEW030 29/25 Q1001 NOSIG
ZGOW,2011-08-28 17:00,ZGOW 281700Z 30003MPS 9999 FEW030 29/24 Q1001 NOSIG
ZGOW,2011-08-28 18:00,ZGOW 281800Z AUTO 30003MPS 9999 ////// 29/24 Q1000
ZGOW,2011-08-28 19:00,ZGOW 281900Z AUTO 32004MPS 9999 ////// 29/24 Q1000
ZGOW,2011-08-28 20:00,ZGOW 282000Z AUTO 31003MPS 9999 ////// 29/23 Q1000
ZGOW,2011-08-28 21:00,ZGOW 282100Z 32003MPS 9999 FEW028TCU 29/23 Q1000 NOSIG
ZGOW,2011-08-28 22:00,ZGOW 282200Z 32004MPS 9999 FEW040 29/23 Q1000 NOSIG
ZGOW,2011-08-28 23:00,ZGOW 282300Z 32004MPS 9999 SCT040 29/23 Q1000 NOSIG
ZGOW,2011-08-29 00:00,ZGOW 290000Z 31005MPS 9999 SCT040 29/23 Q1001 NOSIG
ZGOW,2011-08-29 01:00,ZGOW 290100Z 31005MPS 9999 -RA FEW030TCU SCT030 29/23 Q1001 NOSIG
ZGOW,2011-08-29 02:00,ZGOW 290200Z 31005MPS 9999 SCT040 30/23 Q1001 NOSIG
ZGOW,2011-08-29 03:00,ZGOW 290300Z 31005MPS 290V350 9999 -RA FEW030TCU SCT030 BKN050 29/23 Q1002 NOSIG
ZGOW,2011-08-29 04:00,ZGOW 290400Z 29004MPS 9999 -RA FEW030TCU SCT030 27/24 Q1002 NOSIG
ZGOW,2011-08-29 05:00,ZGOW 290500Z 30003MPS 9999 -RA FEW026TCU SCT026 BKN043 28/23 Q1002 NOSIG
ZGOW,2011-08-29 06:00,ZGOW 290600Z 28003MPS 9999 FEW030TCU SCT030 28/24 Q1001 NOSIG
ZGOW,2011-08-29 07:00,ZGOW 290700Z 29003MPS 9999 -RA FEW030TCU BKN050 28/23 Q1000 NOSIG
ZGOW,2011-08-29 08:00,ZGOW 290800Z 32003MPS 9999 SCT040 28/24 Q1000 NOSIG
ZGOW,2011-08-29 09:00,ZGOW 290900Z 32003MPS 9999 -RA BKN040 29/24 Q1000 NOSIG
ZGOW,2011-08-29 10:00,ZGOW 291000Z 32003MPS 9999 FEW026TCU SCT040 28/24 Q1000 NOSIG
ZGOW,2011-08-29 11:00,ZGOW 291100Z 32003MPS 9999 FEW030TCU SCT030 28/22 Q1000 NOSIG
ZGOW,2011-08-29 12:00,ZGOW 291200Z 32003MPS 9999 -RA FEW030TCU SCT030 28/23 Q1000 NOSIG
ZGOW,2011-08-29 13:00,ZGOW 291300Z 32004MPS 300V360 9999 -RA FEW030TCU SCT030 27/22 Q1001 NOSIG
ZGOW,2011-08-29 14:00,ZGOW 291400Z 32004MPS 280V360 9999 -RA FEW030TCU SCT030 27/22 Q1001 NOSIG
ZGOW,2011-08-29 15:00,ZGOW 291500Z 31003MPS 9999 -SHRA FEW030TCU BKN040 27/22 Q1001 TEMPO 2500 SHRA SCT010 FEW030CB BKN040
ZGOW,2011-08-29 16:00,ZGOW 291600Z 29003MPS 9999 -SHRA FEW026TCU BKN040 26/22 Q1000 NOSIG
ZGOW,2011-08-29 17:00,ZGOW 291700Z AUTO 28003MPS 9999 ////// 27/22 Q0999
ZGOW,2011-08-29 18:00,ZGOW 291800Z AUTO 29003MPS CAVOK 27/21 Q0999
ZGOW,2011-08-29 19:00,ZGOW 291900Z AUTO 28004MPS CAVOK 27/21 Q0998
ZGOW,2011-08-29 20:00,ZGOW 292000Z AUTO 30003MPS CAVOK 27/20 Q0998
ZGOW,2011-08-29 21:00,ZGOW 292100Z 30004MPS 9999 SCT040 27/21 Q0998 NOSIG
ZGOW,2011-08-29 23:00,ZGOW 292300Z 30002MPS 9999 -SHRA FEW026TCU SCT026 BKN050 25/22 Q0998 NOSIG
ZGOW,2011-08-30 00:00,ZGOW 300000Z 28003MPS 9999 -SHRA FEW030TCU SCT030 26/22 Q0999 NOSIG
ZGOW,2011-08-30 01:00,ZGOW 300100Z 28004MPS 7000 -SHRA SCT020 FEW036TCU BKN036 26/23 Q0999 NOSIG
ZGOW,2011-08-30 02:00,ZGOW 300200Z 28005MPS 7000 -SHRA SCT020 FEW036TCU SCT036 26/24 Q0999 NOSIG
ZGOW,2011-08-30 03:00,ZGOW 300300Z 28005MPS 7000 -SHRA SCT015 FEW036TCU SCT036 26/24 Q0999 NOSIG
ZGOW,2011-08-30 04:00,ZGOW 300400Z 28005MPS 7000 -SHRA SCT015 FEW036TCU SCT036 26/23 Q0999 NOSIG
ZGOW,2011-08-30 05:00,ZGOW 300500Z 28006MPS 7000 -SHRA SCT015 FEW036TCU SCT036 26/24 Q0998 NOSIG
ZGOW,2011-08-30 06:00,ZGOW 300600Z 28007MPS 7000 -SHRA SCT015 FEW036TCU SCT036 26/23 Q0998 NOSIG
ZGOW,2011-08-30 07:00,ZGOW 300700Z 29005MPS 7000 -SHRA SCT015 FEW036TCU SCT036 26/24 Q0997 NOSIG
ZGOW,2011-08-30 08:00,ZGOW 300800Z 28004MPS 9999 -SHRA SCT015 FEW036TCU SCT036 26/23 Q0997 NOSIG
ZGOW,2011-08-30 09:00,ZGOW 300900Z 28004MPS 9999 -SHRA SCT015 FEW036TCU SCT036 26/23 Q0997 NOSIG
ZGOW,2011-08-30 10:00,ZGOW 301000Z 28004MPS 9999 SCT015 FEW036TCU SCT036 26/23 Q0997 NOSIG
ZGOW,2011-08-30 11:00,ZGOW 301100Z 29003MPS 9999 SCT015 FEW036TCU 26/22 Q0998 NOSIG
ZGOW,2011-08-30 12:00,ZGOW 301200Z 28003MPS 7000 SCT015 FEW036TCU 25/23 Q0998 NOSIG
ZGOW,2011-08-30 13:00,ZGOW 301300Z 27003MPS 5000 -SHRA SCT015 SCT036TCU 24/23 Q0999 NOSIG
ZGOW,2011-08-30 14:00,ZGOW 301400Z 27004MPS 7000 -SHRA SCT015 SCT036TCU 24/23 Q0999 NOSIG
ZGOW,2011-08-30 15:00,ZGOW 301500Z 26005MPS 4000 -SHRA SCT015 SCT030TCU BKN050 24/23 Q0999 NOSIG
ZGOW,2011-08-30 16:00,ZGOW 301600Z 27005MPS 5000 -SHRA SCT015 SCT030TCU BKN050 24/23 Q0999 NOSIG
ZGOW,2011-08-30 17:00,ZGOW 301700Z 28005MPS 9999 SCT015 FEW030TCU 24/22 Q0998 NOSIG
ZGOW,2011-08-30 18:00,ZGOW 301800Z AUTO 28004MPS 9999 ////// 25/22 Q0998
ZGOW,2011-08-30 19:00,ZGOW 301900Z AUTO 28004MPS CAVOK 25/22 Q0997
ZGOW,2011-08-30 20:00,ZGOW 302000Z AUTO 27003MPS CAVOK 25/22 Q0997
ZGOW,2011-08-30 21:00,ZGOW 302100Z 29002MPS 9999 SCT015 25/22 Q0997 NOSIG
ZGOW,2011-08-30 22:00,ZGOW 302200Z 28004MPS 9999 SCT015 25/22 Q0998 NOSIG
ZGOW,2011-08-30 23:00,ZGOW 302300Z 28005MPS 9999 SCT015 24/22 Q0998 NOSIG
ZGOW,2011-08-31 00:00,ZGOW 310000Z 28004MPS 7000 -SHRA SCT015 FEW040TCU BKN040 24/23 Q0998 NOSIG
ZGOW,2011-08-31 01:00,ZGOW 310100Z 28004MPS 9999 FEW023 FEW040TCU BKN050 25/23 Q0998 NOSIG
ZGOW,2011-08-31 02:00,ZGOW 310200Z 28005MPS 9999 SCT022 27/23 Q0998 NOSIG
ZGOW,2011-08-31 03:00,ZGOW 310300Z 27004MPS 9999 SCT022 27/23 Q0998 NOSIG
ZGOW,2011-08-31 04:00,ZGOW 310400Z 27003MPS 9999 SCT025 27/23 Q0998 NOSIG
ZGOW,2011-08-31 05:00,ZGOW 310500Z 26004MPS 9999 FEW025 BKN043 28/23 Q0998 NOSIG
ZGOW,2011-08-31 06:00,ZGOW 310600Z 26004MPS 220V330 9999 SCT024 BKN043 28/23 Q0997 NOSIG
ZGOW,2011-08-31 07:00,ZGOW 310700Z 24003MPS 210V310 9999 SCT022 FEW030TCU BKN050 28/23 Q0997 NOSIG
ZGOW,2011-08-31 08:00,ZGOW 310800Z 28003MPS 9999 -SHRA FEW022 FEW030TCU 26/23 Q0997 NOSIG
ZGOW,2011-08-31 09:00,ZGOW 310900Z 27004MPS 9999 -SHRA FEW022 FEW030TCU BKN050 26/23 Q0997 NOSIG
ZGOW,2011-08-31 10:00,ZGOW 311000Z 27002MPS 9999 FEW024 BKN050 26/24 Q0998 NOSIG
ZGOW,2011-08-31 11:00,ZGOW 311100Z 26003MPS 9999 SCT026 26/24 Q0998 NOSIG
ZGOW,2011-08-31 12:00,ZGOW 311200Z 27002MPS 9999 SCT026 26/24 Q0998 NOSIG
ZGOW,2011-08-31 13:00,ZGOW 311300Z 26002MPS 9999 SCT026 26/24 Q0999 NOSIG
ZGOW,2011-08-31 14:00,ZGOW 311400Z 24002MPS 9999 SCT026 BKN050 26/24 Q0999 NOSIG
ZGOW,2011-08-31 15:00,ZGOW 311500Z 25002MPS 9999 FEW025 BKN050 26/24 Q0999 NOSIG
ZGOW,2011-08-31 16:00,ZGOW 311600Z 16002MPS 9999 SCT043 28/24 Q1006 NOSIG
ZGOW,2011-08-31 17:00,ZGOW 311700Z AUTO 14002MPS CAVOK 28/24 Q1006
ZGOW,2011-08-31 18:00,ZGOW 311800Z AUTO 20001MPS 9999 ////// 28/24 Q1005
ZGOW,2011-08-31 19:00,ZGOW 311900Z AUTO 21001MPS CAVOK 29/24 Q1005
ZGOW,2011-08-31 20:00,ZGOW 312000Z AUTO 27001MPS CAVOK 28/24 Q1005
ZGOW,2011-08-31 21:00,ZGOW 312100Z 00000MPS 7000 SCT050 28/24 Q1005 NOSIG
ZGOW,2011-08-31 22:00,ZGOW 312200Z 30001MPS 5000 BR FEW050 28/24 Q1005 NOSIG
ZGOW,2011-08-31 23:00,ZGOW 312300Z 29002MPS 5000 BR NSC 29/24 Q1005 NOSIG
ZGOW,2011-09-01 00:00,ZGOW 010000Z 08001MPS 9999 SCT012 26/24 Q1001 NOSIG
ZGOW,2011-09-01 01:00,ZGOW 010100Z 11002MPS CAVOK 28/24 Q1001 NOSIG
ZGOW,2011-09-01 02:00,ZGOW 010200Z 12003MPS 090V150 CAVOK 28/24 Q1002 NOSIG
ZGOW,2011-09-01 03:00,ZGOW 010300Z 17003MPS 120V230 9999 FEW020 29/24 Q1001 NOSIG
ZGOW,2011-09-01 04:00,ZGOW 010400Z 16003MPS 9999 SCT024 30/25 Q1001 NOSIG
ZGOW,2011-09-01 05:00,ZGOW 010500Z 17004MPS CAVOK 31/25 Q1000 NOSIG
ZGOW,2011-09-01 06:00,ZGOW 010600Z 13004MPS 8000 FEW028CB 29/25 Q1000 NOSIG
ZGOW,2011-09-01 07:00,ZGOW 010700Z 13004MPS 8000 FEW028CB 28/25 Q1000 NOSIG
ZGOW,2011-09-01 08:00,ZGOW 010800Z 12004MPS 9999 FEW028CB 28/25 Q1000 NOSIG
ZGOW,2011-09-01 09:00,ZGOW 010900Z 12003MPS 5000 BR FEW028CB 28/25 Q1000 NOSIG
ZGOW,2011-09-01 10:00,ZGOW 011000Z 12003MPS 3500 BR SCT016 FEW028CB 28/25 Q1001 NOSIG
ZGOW,2011-09-01 11:00,ZGOW 011100Z 12002MPS 3000 BR FEW016 FEW028CB 27/25 Q1001 BECMG 2500 BR
ZGOW,2011-09-01 12:00,ZGOW 011200Z 12002MPS 4500 BR FEW028CB 26/24 Q1002 NOSIG
ZGOW,2011-09-01 13:00,ZGOW 011300Z 09002MPS 3500 BR SCT016 FEW028TCU 27/24 Q1002 NOSIG
ZGOW,2011-09-01 14:00,ZGOW 011400Z 06002MPS 2500 BR SCT008 FEW028TCU 27/25 Q1003 NOSIG
ZGOW,2011-09-01 15:00,ZGOW 011500Z 08002MPS 1800 BR FEW018 FEW028CB 27/26 Q1003 NOSIG
ZGOW,2011-09-01 16:00,ZGOW 011600Z 12003MPS 1800 BR FEW018 FEW028CB 26/25 Q1002 NOSIG
ZGOW,2011-09-01 17:00,ZGOW 011700Z AUTO 12002MPS 2200 // NCD 26/25 Q1002
ZGOW,2011-09-01 19:00,ZGOW 011900Z AUTO 09001MPS 4500 // ////// 25/24 Q1002
ZGOW,2011-09-01 20:00,ZGOW 012000Z AUTO 04002MPS 3800 // ////// 26/25 Q1002
ZGOW,2011-09-01 21:00,ZGOW 012100Z 07002MPS 3500 BR SCT010 FEW028CB 26/25 Q1002 NOSIG
ZGOW,2011-09-01 22:00,ZGOW 012200Z 05002MPS 3000 BR SCT010 FEW028CB BKN040 26/25 Q1002 NOSIG
ZGOW,2011-09-01 23:00,ZGOW 012300Z 07002MPS 2200 BR SCT007 SCT028CB BKN050 26/25 Q1003 NOSIG
ZGOW,2011-09-02 00:00,ZGOW 020000Z 06003MPS 3000 BR SCT008 FEW028CB BKN050 26/25 Q1004 NOSIG
ZGOW,2011-09-02 01:00,ZGOW 020100Z 07002MPS 3000 BR SCT012 FEW030CB BKN050 27/25 Q1004 NOSIG
ZGOW,2011-09-02 02:00,ZGOW 020200Z 09004MPS 3500 BR SCT010 FEW030CB BKN050 27/25 Q1005 NOSIG
ZGOW,2011-09-02 03:00,ZGOW 020300Z 16003MPS 2500 TSRA SCT008 SCT030CB BKN050 26/25 Q1005 TEMPO 1500 TSRA SCT004 BKN020 SCT026CB
ZGOW,2011-09-02 04:00,ZGOW 020400Z 27002MPS 5000 -SHRA SCT008 FEW030CB BKN050 26/25 Q1005 RETSRA TEMPO 2100 SHRA
ZGOW,2011-09-02 05:00,ZGOW 020500Z 19002MPS 6000 SCT010 FEW030CB BKN050 27/25 Q1004 NOSIG
ZGOW,2011-09-02 06:00,ZGOW 020600Z 16002MPS 6000 SCT010 FEW030CB BKN050 28/25 Q1004 NOSIG
ZGOW,2011-09-02 07:00,ZGOW 020700Z 00000MPS 7000 SCT015 FEW030CB BKN050 28/25 Q1003 NOSIG
ZGOW,2011-09-02 08:00,ZGOW 020800Z 04001MPS 7000 SCT015 FEW030TCU 29/25 Q1003 NOSIG
ZGOW,2011-09-02 09:00,ZGOW 020900Z 09002MPS 7000 FEW015 FEW030TCU 27/25 Q1003 NOSIG
ZGOW,2011-09-02 10:00,ZGOW 021000Z 07003MPS 7000 SCT015 FEW030TCU 27/25 Q1004 NOSIG
ZGOW,2011-09-02 11:00,ZGOW 021100Z 08003MPS 5000 BR SCT015 FEW030TCU 26/24 Q1005 NOSIG
ZGOW,2011-09-02 12:00,ZGOW 021200Z 10004MPS 4000 BR SCT012 FEW030TCU 25/24 Q1005 NOSIG
ZGOW,2011-09-02 13:00,ZGOW 021300Z 09002MPS 4000 BR SCT012 FEW030TCU 26/24 Q1006 NOSIG
ZGOW,2011-09-02 14:00,ZGOW 021400Z 10003MPS 5000 BR SCT012 FEW030TCU 26/24 Q1007 NOSIG
ZGOW,2011-09-02 15:00,ZGOW 021500Z 09002MPS 7000 FEW017 FEW030TCU 26/24 Q1006 NOSIG
ZGOW,2011-09-02 16:00,ZGOW 021600Z 12002MPS 3000 BR SCT017 FEW030TCU 25/24 Q1006 NOSIG
ZGOW,2011-09-02 17:00,ZGOW 021700Z 11002MPS 3000 BR SCT017 25/24 Q1006 NOSIG
ZGOW,2011-09-02 18:00,ZGOW 021800Z AUTO 05002MPS 2700 // ////// 25/24 Q1006
ZGOW,2011-09-02 19:00,ZGOW 021900Z AUTO 04002MPS 2000 // ////// 25/24 Q1006
ZGOW,2011-09-02 20:00,ZGOW 022000Z AUTO 11001MPS 2000 // ////// 25/25 Q1006
ZGOW,2011-09-02 21:00,ZGOW 022100Z 06002MPS 2000 BR SCT012 BKN050 25/24 Q1006 NOSIG
ZGOW,2011-09-02 22:00,ZGOW 022200Z 06003MPS 2000 BR SCT012 BKN050 26/25 Q1007 NOSIG
ZGOW,2011-09-02 23:00,ZGOW 022300Z 06004MPS 2500 BR SCT012 FEW030CB BKN050 26/24 Q1007 TEMPO 2100 TSRA
ZGOW,2011-09-03 00:00,ZGOW 030000Z 06003MPS 2800 BR SCT015 FEW030CB BKN050 27/25 Q1008 TEMPO 2100 TSRA
ZGOW,2011-09-03 01:00,ZGOW 030100Z 25004MPS 3500 -SHRA BR FEW006 SCT020 SCT030CB BKN050 24/24 Q1009 TEMPO 2100 TSRA
ZGOW,2011-09-03 02:00,ZGOW 030200Z 26003MPS 2500 SHRA SCT018 SCT030CB BKN050 24/23 Q1009 TEMPO 1500 TSRA
ZGOW,2011-09-03 03:00,ZGOW 030300Z 27001MPS 6000 -SHRA SCT018 SCT030CB BKN050 25/24 Q1009 NOSIG
ZGOW,2011-09-03 04:00,ZGOW 030400Z 30001MPS 6000 SCT020 FEW030CB 28/24 Q1009 NOSIG
ZGOW,2011-09-03 05:00,ZGOW 030500Z 36002MPS 4500 BR SCT014 FEW030CB 28/24 Q1008 NOSIG
ZGOW,2011-09-03 06:00,ZGOW 030600Z 33001MPS 4500 BR FEW020 FEW030TCU 30/24 Q1007 NOSIG
ZGOW,2011-09-03 07:00,ZGOW 030700Z 07003MPS 5000 BR FEW020 29/24 Q1007 NOSIG
ZGOW,2011-09-03 08:00,ZGOW 030800Z 07003MPS 5000 BR FEW020 30/25 Q1007 NOSIG
ZGOW,2011-09-03 09:00,ZGOW 030900Z 09003MPS 7000 NSC 28/24 Q1007 NOSIG
ZGOW,2011-09-03 10:00,ZGOW 031000Z 10003MPS 6000 NSC 27/24 Q1007 NOSIG
ZGOW,2011-09-03 11:00,ZGOW 031100Z 12001MPS 5000 BR NSC 27/24 Q1008 NOSIG
ZGOW,2011-09-03 12:00,ZGOW 031200Z 09002MPS 5000 BR NSC 26/24 Q1008 NOSIG
ZGOW,2011-09-03 13:00,ZGOW 031300Z 07001MPS 4000 BR NSC 26/24 Q1009 NOSIG
ZGOW,2011-09-03 14:00,ZGOW 031400Z 24001MPS 3500 BR NSC 26/24 Q1009 NOSIG
ZGOW,2011-09-03 15:00,ZGOW 031500Z 07001MPS 3500 BR NSC 26/25 Q1009 NOSIG
ZGOW,2011-09-03 16:00,ZGOW 031600Z 00000MPS 3500 BR NSC 26/25 Q1009 NOSIG
ZGOW,2011-09-03 17:00,ZGOW 031700Z AUTO 00000MPS 2000 // NCD 26/25 Q1009
ZGOW,2011-09-03 18:00,ZGOW 031800Z AUTO 00000MPS 3100 // ////// 26/24 Q1008
ZGOW,2011-09-03 20:00,ZGOW 032000Z AUTO 00000MPS 2300 // ////// 26/24 Q1008
ZGOW,2011-09-03 21:00,ZGOW 032100Z 31001MPS 3000 BR NSC 25/25 Q1008 NOSIG
ZGOW,2011-09-03 22:00,ZGOW 032200Z 34001MPS 1800 R04/1400V1600N BR NSC 25/24 Q1008 NOSIG
ZGOW,2011-09-03 23:00,ZGOW 032300Z 34001MPS 1800 R04/1400V1600U BR NSC 26/25 Q1009 BECMG 3000 BR
ZGOW,2011-09-04 00:00,ZGOW 040000Z 34001MPS 2200 BR NSC 27/25 Q1009 BECMG 3000 BR
ZGOW,2011-09-04 01:00,ZGOW 040100Z 00000MPS 2500 BR SCT012 28/24 Q1009 BECMG 3000 BR
ZGOW,2011-09-04 02:00,ZGOW 040200Z 30001MPS 3500 BR SCT016 29/24 Q1009 NOSIG
ZGOW,2011-09-04 03:00,ZGOW 040300Z 08001MPS 4000 HZ FEW020 31/23 Q1009 NOSIG
ZGOW,2011-09-04 04:00,ZGOW 040400Z 09002MPS 3500 HZ FEW020 31/24 Q1008 NOSIG
ZGOW,2011-09-04 05:00,ZGOW 040500Z 12004MPS 4000 HZ FEW020 31/26 Q1008 NOSIG
ZGOW,2011-09-04 06:00,ZGOW 040600Z 12004MPS 3500 HZ FEW025 30/25 Q1007 NOSIG
ZGOW,2011-09-04 07:00,ZGOW 040700Z 12005MPS 4000 HZ FEW025 30/24 Q1007 NOSIG
ZGOW,2011-09-04 08:00,ZGOW 040800Z 14005MPS 4000 HZ FEW025 29/25 Q1007 NOSIG
ZGOW,2011-09-04 09:00,ZGOW 040900Z 15004MPS 4000 BR SKC 29/25 Q1007 NOSIG
ZGOW,2011-09-04 10:00,ZGOW 041000Z 14003MPS 4000 BR FEW030TCU 27/24 Q1007 NOSIG
ZGOW,2011-09-04 11:00,ZGOW 041100Z 15002MPS 4000 BR SKC 27/25 Q1008 NOSIG
ZGOW,2011-09-04 12:00,ZGOW 041200Z 12001MPS 4500 BR SKC 27/25 Q1008 NOSIG
ZGOW,2011-09-04 13:00,ZGOW 041300Z 11001MPS 3500 BR SKC 26/25 Q1009 NOSIG
ZGOW,2011-09-04 14:00,ZGOW 041400Z 12001MPS 2500 BR SKC 26/25 Q1009 NOSIG
ZGOW,2011-09-04 15:00,ZGOW 041500Z 16001MPS 2800 BR SKC 26/25 Q1008 NOSIG
ZGOW,2011-09-04 16:00,ZGOW 041600Z 00000MPS 2200 BR SKC 25/25 Q1008 NOSIG
ZGOW,2011-09-04 17:00,ZGOW 041700Z 16001MPS 2500 BR SKC 26/25 Q1008 NOSIG
ZGOW,2011-09-04 18:00,ZGOW 041800Z 10001MPS 1600 BR SKC 25/24 Q1008 NOSIG
ZGOW,2011-09-04 21:00,ZGOW 042100Z 00000MPS 1600 BR SCT014 26/25 Q1008 NOSIG
ZGOW,2011-09-04 22:00,ZGOW 042200Z 09001MPS 0900 R04/0900V1400D FG SCT006 26/25 Q1008 NOSIG
ZGOW,2011-09-04 23:00,ZGOW 042300Z 11001MPS 0900 R04/0800V0900N FG SCT008 26/25 Q1008 BECMG 1600 BR
ZGOW,2011-09-05 00:00,ZGOW 050000Z 09001MPS 1200 R04/1200V1400N BR SCT006 27/25 Q1009 BECMG 1600 BR
ZGOW,2011-09-05 01:00,ZGOW 050100Z 09002MPS 1600 R04/1400V1600N BR SCT007 SCT015 29/25 Q1009 BECMG 3000 BR
ZGOW,2011-09-05 02:00,ZGOW 050200Z 08002MPS 2000 BR SCT007 SCT015 30/25 Q1009 BECMG 3500 BR
ZGOW,2011-09-05 03:00,ZGOW 050300Z 08002MPS 2500 HZ SCT017 31/24 Q1009 BECMG 3500 BR
ZGOW,2011-09-05 04:00,ZGOW 050400Z 13004MPS 2800 HZ SCT017 30/25 Q1009 BECMG 3500 HZ
ZGOW,2011-09-05 05:00,ZGOW 050500Z 12005MPS 2800 HZ FEW017 30/25 Q1008 NOSIG
ZGOW,2011-09-05 06:00,ZGOW 050600Z 13005MPS 4000 HZ FEW017 30/24 Q1007 NOSIG
ZGOW,2011-09-05 07:00,ZGOW 050700Z 12005MPS 8000 SKC 30/23 Q1007 NOSIG
ZGOW,2011-09-05 08:00,ZGOW 050800Z 13005MPS 8000 SKC 29/22 Q1006 NOSIG
ZGOW,2011-09-05 09:00,ZGOW 050900Z 14004MPS 8000 SKC 28/23 Q1007 NOSIG
ZGOW,2011-09-05 10:00,ZGOW 051000Z 13003MPS 4000 BR SKC 27/23 Q1007 NOSIG
ZGOW,2011-09-05 11:00,ZGOW 051100Z 12002MPS 4000 BR SKC 27/24 Q1008 NOSIG
ZGOW,2011-09-05 12:00,ZGOW 051200Z 12002MPS 2500 BR SKC 26/24 Q1008 NOSIG
ZGOW,2011-09-05 13:00,ZGOW 051300Z 12001MPS 2000 BR SKC 26/24 Q1009 TEMPO 1500 BR
ZGOW,2011-09-05 14:00,ZGOW 051400Z 07001MPS 2000 BR SKC 26/24 Q1009 TEMPO 1500 BR
ZGOW,2011-09-05 15:00,ZGOW 051500Z 00000MPS 2000 BR SKC 26/23 Q1009 TEMPO 1500 BR
ZGOW,2011-09-05 16:00,ZGOW 051600Z 00000MPS 2000 BR SKC 26/23 Q1009 TEMPO 1500 BR
ZGOW,2011-09-05 17:00,ZGOW 051700Z 10001MPS 2000 BR SKC 26/24 Q1008 TEMPO 1500 BR
ZGOW,2011-09-05 19:00,ZGOW 051900Z AUTO 13002MPS 2400 // NCD 26/24 Q1008
ZGOW,2011-09-05 21:00,ZGOW 052100Z 09001MPS 1800 BR SKC 26/24 Q1008 NOSIG
ZGOW,2011-09-05 22:00,ZGOW 052200Z 10001MPS 1800 BR NSC 26/24 Q1009 TEMPO 0700 FG
ZGOW,2011-09-05 23:00,ZGOW 052300Z 12001MPS 1800 BR NSC 27/24 Q1009 NOSIG
ZGOW,2011-09-06 00:00,ZGOW 060000Z 07001MPS 3500 BR NSC 28/24 Q1009 NOSIG
ZGOW,2011-09-06 01:00,ZGOW 060100Z 09001MPS 4000 BR NSC 28/23 Q1010 NOSIG
ZGOW,2011-09-06 02:00,ZGOW 060200Z 07001MPS 4000 HZ NSC 29/23 Q1010 NOSIG
ZGOW,2011-09-06 03:00,ZGOW 060300Z 11002MPS 5000 HZ FEW020 30/24 Q1009 NOSIG
ZGOW,2011-09-06 04:00,ZGOW 060400Z 11003MPS 5000 HZ FEW020 30/23 Q1009 NOSIG
ZGOW,2011-09-06 05:00,ZGOW 060500Z 12004MPS 5000 HZ FEW020 30/24 Q1008 NOSIG
ZGOW,2011-09-06 06:00,ZGOW 060600Z 12004MPS 5000 HZ FEW020 29/24 Q1007 NOSIG
ZGOW,2011-09-06 07:00,ZGOW 060700Z 12004MPS 7000 NSC 29/22 Q1007 NOSIG
ZGOW,2011-09-06 08:00,ZGOW 060800Z 12006MPS 7000 NSC 28/23 Q1006 NOSIG
ZGOW,2011-09-06 09:00,ZGOW 060900Z 12004MPS 7000 SKC 28/22 Q1007 NOSIG
ZGOW,2011-09-06 10:00,ZGOW 061000Z 11004MPS 7000 NSC 27/23 Q1007 NOSIG
ZGOW,2011-09-06 11:00,ZGOW 061100Z 12003MPS 7000 NSC 27/23 Q1007 NOSIG
ZGOW,2011-09-06 12:00,ZGOW 061200Z 13003MPS 6000 NSC 26/24 Q1008 NOSIG
ZGOW,2011-09-06 13:00,ZGOW 061300Z 12003MPS 6000 SKC 26/24 Q1008 NOSIG
ZGOW,2011-09-06 14:00,ZGOW 061400Z 13002MPS 5000 BR SCT033 26/23 Q1009 NOSIG
ZGOW,2011-09-06 15:00,ZGOW 061500Z 12001MPS 4000 BR SCT036 26/24 Q1009 NOSIG
ZGOW,2011-09-06 16:00,ZGOW 061600Z 12001MPS 3500 BR SCT036 26/24 Q1009 NOSIG
ZGOW,2011-09-06 17:00,ZGOW 061700Z 13002MPS 3500 BR SCT036 26/23 Q1008 NOSIG
ZGOW,2011-09-06 19:00,ZGOW 061900Z AUTO 00000MPS 4400 // ////// 26/23 Q1007
ZGOW,2011-09-06 21:00,ZGOW 062100Z 08001MPS 4000 BR NSC 26/24 Q1007 NOSIG
ZGOW,2011-09-06 22:00,ZGOW 062200Z 09001MPS 4000 BR FEW014 26/24 Q1008 NOSIG
ZGOW,2011-09-06 23:00,ZGOW 062300Z 03001MPS 4000 BR FEW014 26/24 Q1008 NOSIG
ZGOW,2011-09-07 00:00,ZGOW 070000Z 06002MPS 4000 BR FEW014 28/24 Q1008 NOSIG
ZGOW,2011-09-07 01:00,ZGOW 070100Z 09002MPS 5000 BR FEW018 29/23 Q1008 NOSIG
ZGOW,2011-09-07 02:00,ZGOW 070200Z 06002MPS 6000 FEW025 29/23 Q1008 NOSIG
ZGOW,2011-09-07 03:00,ZGOW 070300Z 10002MPS 7000 FEW025 30/22 Q1008 NOSIG
ZGOW,2011-09-07 04:00,ZGOW 070400Z 09002MPS 7000 FEW028 30/23 Q1008 NOSIG
ZGOW,2011-09-07 05:00,ZGOW 070500Z 12004MPS 7000 FEW028 30/23 Q1007 NOSIG
ZGOW,2011-09-07 06:00,ZGOW 070600Z 13005MPS 7000 FEW028 30/23 Q1006 NOSIG
ZGOW,2011-09-07 07:00,ZGOW 070700Z 12004MPS 8000 FEW028 30/21 Q1006 NOSIG
ZGOW,2011-09-07 08:00,ZGOW 070800Z 14004MPS 100V190 6000 FEW028 29/24 Q1006 NOSIG
ZGOW,2011-09-07 09:00,ZGOW 070900Z 14003MPS 8000 FEW028 28/22 Q1006 NOSIG
ZGOW,2011-09-07 10:00,ZGOW 071000Z 13003MPS 7000 NSC 27/24 Q1006 NOSIG
ZGOW,2011-09-07 11:00,ZGOW 071100Z 12002MPS 5000 BR NSC 27/24 Q1007 NOSIG
ZGOW,2011-09-07 12:00,ZGOW 071200Z 12002MPS 5000 BR SKC 27/24 Q1007 NOSIG
ZGOW,2011-09-07 13:00,ZGOW 071300Z 08001MPS 4000 BR SKC 26/24 Q1008 NOSIG
ZGOW,2011-09-07 14:00,ZGOW 071400Z 09001MPS 4000 BR SKC 26/24 Q1008 NOSIG
ZGOW,2011-09-07 15:00,ZGOW 071500Z 09001MPS 4000 BR SKC 26/24 Q1008 NOSIG
ZGOW,2011-09-07 16:00,ZGOW 071600Z 07001MPS 3500 BR SKC 26/24 Q1008 NOSIG
ZGOW,2011-09-07 17:00,ZGOW 071700Z AUTO 08001MPS 2400 // NCD 26/24 Q1008
ZGOW,2011-09-07 18:00,ZGOW 071800Z AUTO 00000MPS 3000 // ////// 25/24 Q1007
ZGOW,2011-09-07 19:00,ZGOW 071900Z AUTO 05001MPS 2700 // ////// 26/24 Q1007
ZGOW,2011-09-07 20:00,ZGOW 072000Z 04002MPS 3500 BR SKC 25/24 Q1007 NOSIG
ZGOW,2011-09-07 21:00,ZGOW 072100Z 02003MPS 3200 BR SKC 25/24 Q1007 NOSIG
ZGOW,2011-09-07 22:00,ZGOW 072200Z 04002MPS 2500 BR SKC 25/23 Q1008 NOSIG
ZGOW,2011-09-07 23:00,ZGOW 072300Z 02002MPS 3200 BR SKC 26/23 Q1009 NOSIG
ZGOW,2011-09-08 00:00,ZGOW 080000Z 04003MPS 4000 BR SKC 27/23 Q1009 NOSIG
ZGOW,2011-09-08 01:00,ZGOW 080100Z 06003MPS 5000 HZ SKC 29/23 Q1009 NOSIG
ZGOW,2011-09-08 02:00,ZGOW 080200Z 07003MPS 6000 SKC 30/23 Q1009 NOSIG
ZGOW,2011-09-08 03:00,ZGOW 080300Z 07003MPS 8000 NSC 31/22 Q1009 NOSIG
ZGOW,2011-09-08 04:00,ZGOW 080400Z 13003MPS 8000 NSC 31/23 Q1009 NOSIG
ZGOW,2011-09-08 05:00,ZGOW 080500Z 12004MPS 7000 SCT028 30/24 Q1008 NOSIG
ZGOW,2011-09-08 06:00,ZGOW 080600Z 14004MPS 8000 SKC 31/25 Q1008 NOSIG
ZGOW,2011-09-08 07:00,ZGOW 080700Z 14005MPS 8000 NSC 30/25 Q1007 NOSIG
ZGOW,2011-09-08 08:00,ZGOW 080800Z 14005MPS 8000 NSC 30/25 Q1007 NOSIG
ZGOW,2011-09-08 09:00,ZGOW 080900Z 13004MPS 8000 NSC 29/25 Q1007 NOSIG
ZGOW,2011-09-08 10:00,ZGOW 081000Z 12004MPS 7000 NSC 28/25 Q1008 NOSIG
ZGOW,2011-09-08 11:00,ZGOW 081100Z 13002MPS 7000 NSC 27/25 Q1008 NOSIG
ZGOW,2011-09-08 12:00,ZGOW 081200Z 12002MPS 6000 SKC 27/25 Q1009 NOSIG
ZGOW,2011-09-08 13:00,ZGOW 081300Z 12002MPS 6000 SKC 27/25 Q1010 NOSIG
ZGOW,2011-09-08 14:00,ZGOW 081400Z 00000MPS 5000 BR SKC 27/25 Q1010 NOSIG
ZGOW,2011-09-08 15:00,ZGOW 081500Z 06001MPS 5000 BR SKC 26/25 Q1011 NOSIG
ZGOW,2011-09-08 16:00,ZGOW 081600Z 00000MPS 5000 BR SKC 26/25 Q1011 NOSIG
ZGOW,2011-09-08 17:00,ZGOW 081700Z 00000MPS 5000 BR SKC 26/24 Q1011 NOSIG
ZGOW,2011-09-08 19:00,ZGOW 081900Z AUTO 06001MPS 2500 // NCD 26/25 Q1010
ZGOW,2011-09-08 21:00,ZGOW 082100Z 04002MPS 2500 BR SKC 25/24 Q1010 NOSIG
ZGOW,2011-09-08 22:00,ZGOW 082200Z 04003MPS 1800 BR SKC 25/24 Q1011 BECMG 3200 BR
ZGOW,2011-09-08 23:00,ZGOW 082300Z 04002MPS 1600 R04/1000V1400U BR SKC 26/25 Q1011 BECMG 3200 BR
ZGOW,2011-09-09 00:00,ZGOW 090000Z 04002MPS 3500 BR SKC 28/25 Q1012 NOSIG
ZGOW,2011-09-09 01:00,ZGOW 090100Z 02002MPS 5000 HZ SKC 30/24 Q1012 NOSIG
ZGOW,2011-09-09 02:00,ZGOW 090200Z 07003MPS 7000 SKC 31/23 Q1012 NOSIG
ZGOW,2011-09-09 03:00,ZGOW 090300Z 07003MPS CAVOK 32/22 Q1012 NOSIG
ZGOW,2011-09-09 04:00,ZGOW 090400Z 11004MPS CAVOK 32/23 Q1011 NOSIG
ZGOW,2011-09-09 05:00,ZGOW 090500Z 11003MPS CAVOK 32/23 Q1011 NOSIG
ZGOW,2011-09-09 06:00,ZGOW 090600Z 12003MPS CAVOK 31/24 Q1010 NOSIG
ZGOW,2011-09-09 07:00,ZGOW 090700Z 12004MPS CAVOK 30/22 Q1010 NOSIG
ZGOW,2011-09-09 08:00,ZGOW 090800Z 12005MPS CAVOK 30/22 Q1010 NOSIG
ZGOW,2011-09-09 09:00,ZGOW 090900Z 13004MPS CAVOK 29/23 Q1010 NOSIG
ZGOW,2011-09-09 10:00,ZGOW 091000Z 14004MPS CAVOK 28/23 Q1010 NOSIG
ZGOW,2011-09-09 11:00,ZGOW 091100Z 12002MPS 7000 NSC 28/23 Q1011 NOSIG
ZGOW,2011-09-09 12:00,ZGOW 091200Z 10002MPS 6000 NSC 27/24 Q1012 NOSIG
ZGOW,2011-09-09 13:00,ZGOW 091300Z 12002MPS 5000 BR NSC 27/24 Q1013 NOSIG
ZGOW,2011-09-09 14:00,ZGOW 091400Z 12002MPS 4000 BR NSC 27/25 Q1013 NOSIG
ZGOW,2011-09-09 15:00,ZGOW 091500Z 09002MPS 3500 BR SCT046 27/25 Q1013 NOSIG
ZGOW,2011-09-09 16:00,ZGOW 091600Z 07003MPS 3500 BR SCT043 27/25 Q1013 NOSIG
ZGOW,2011-09-09 17:00,ZGOW 091700Z 09003MPS 4000 BR BKN036 27/25 Q1013 NOSIG
ZGOW,2011-09-09 18:00,ZGOW 091800Z AUTO 08003MPS 5000 ////// 27/24 Q1012
ZGOW,2011-09-09 19:00,ZGOW 091900Z AUTO 09002MPS 5000 ////// 27/24 Q1012
ZGOW,2011-09-09 20:00,ZGOW 092000Z AUTO 08003MPS 5000 ////// 27/24 Q1012
ZGOW,2011-09-09 21:00,ZGOW 092100Z 08004MPS 7000 SCT050 26/24 Q1012 NOSIG
ZGOW,2011-09-09 22:00,ZGOW 092200Z 07003MPS 9999 FEW050 26/23 Q1012 NOSIG
ZGOW,2011-09-09 23:00,ZGOW 092300Z 06004MPS CAVOK 27/23 Q1013 NOSIG
ZGOW,2011-09-10 00:00,ZGOW 100000Z 04003MPS 9999 FEW020 28/23 Q1013 NOSIG
ZGOW,2011-09-10 01:00,ZGOW 100100Z 07005MPS 9999 FEW026 29/23 Q1013 NOSIG
ZGOW,2011-09-10 02:00,ZGOW 100200Z 07004MPS 9999 SCT028 FEW033TCU 30/23 Q1013 NOSIG
ZGOW,2011-09-10 03:00,ZGOW 100300Z 08005MPS 9999 SCT028 30/23 Q1013 NOSIG
ZGOW,2011-09-10 04:00,ZGOW 100400Z 08007MPS 9999 FEW030 31/23 Q1012 NOSIG
ZGOW,2011-09-10 05:00,ZGOW 100500Z 08007MPS 9999 FEW030 32/23 Q1012 NOSIG
ZGOW,2011-09-10 06:00,ZGOW 100600Z 12007MPS 9999 FEW030 31/24 Q1011 NOSIG
ZGOW,2011-09-10 07:00,ZGOW 100700Z 12006MPS 9999 FEW026 31/24 Q1011 NOSIG
ZGOW,2011-09-10 08:00,ZGOW 100800Z 11006MPS 9999 FEW026 30/25 Q1011 NOSIG
ZGOW,2011-09-10 09:00,ZGOW 100900Z 10005MPS 9999 FEW026 29/24 Q1011 NOSIG
ZGOW,2011-09-10 10:00,ZGOW 101000Z 10004MPS 9999 FEW026 29/24 Q1011 NOSIG
ZGOW,2011-09-10 11:00,ZGOW 101100Z 10003MPS CAVOK 28/23 Q1011 NOSIG
ZGOW,2011-09-10 12:00,ZGOW 101200Z 08005MPS CAVOK 28/23 Q1012 NOSIG
ZGOW,2011-09-10 13:00,ZGOW 101300Z 08003MPS CAVOK 27/24 Q1013 NOSIG
ZGOW,2011-09-10 14:00,ZGOW 101400Z 08005MPS CAVOK 27/24 Q1013 NOSIG
ZGOW,2011-09-10 15:00,ZGOW 101500Z 08004MPS CAVOK 27/24 Q1013 NOSIG
ZGOW,2011-09-10 16:00,ZGOW 101600Z 09004MPS 9999 FEW014 27/25 Q1013 NOSIG
ZGOW,2011-09-10 17:00,ZGOW 101700Z 09003MPS 9999 FEW014 27/24 Q1012 NOSIG
ZGOW,2011-09-10 19:00,ZGOW 101900Z AUTO 09004MPS 8000 NCD 27/24 Q1011
ZGOW,2011-09-10 21:00,ZGOW 102100Z 04002MPS 6000 FEW015 26/24 Q1011 NOSIG
ZGOW,2011-09-10 22:00,ZGOW 102200Z 02001MPS 7000 FEW015 26/23 Q1011 NOSIG
ZGOW,2011-09-10 23:00,ZGOW 102300Z 33001MPS 6000 NSC 27/23 Q1012 NOSIG
ZGOW,2011-09-11 00:00,ZGOW 110000Z 03003MPS CAVOK 29/23 Q1012 NOSIG
ZGOW,2011-09-11 01:00,ZGOW 110100Z 05005MPS CAVOK 30/23 Q1012 NOSIG
ZGOW,2011-09-11 02:00,ZGOW 110200Z 06005MPS CAVOK 31/23 Q1013 NOSIG
ZGOW,2011-09-11 03:00,ZGOW 110300Z 07005MPS CAVOK 31/24 Q1012 NOSIG
ZGOW,2011-09-11 04:00,ZGOW 110400Z 08005MPS CAVOK 33/25 Q1012 NOSIG
ZGOW,2011-09-11 05:00,ZGOW 110500Z 09007MPS CAVOK 32/23 Q1011 NOSIG
ZGOW,2011-09-11 06:00,ZGOW 110600Z 12005MPS CAVOK 32/24 Q1010 NOSIG
ZGOW,2011-09-11 07:00,ZGOW 110700Z 08007MPS CAVOK 31/23 Q1010 NOSIG
ZGOW,2011-09-11 08:00,ZGOW 110800Z 08007MPS CAVOK 31/24 Q1009 NOSIG
ZGOW,2011-09-11 09:00,ZGOW 110900Z 09006MPS CAVOK 30/24 Q1009 NOSIG
ZGOW,2011-09-11 10:00,ZGOW 111000Z 09006MPS CAVOK 28/24 Q1010 NOSIG
ZGOW,2011-09-11 11:00,ZGOW 111100Z 08005MPS CAVOK 28/23 Q1011 NOSIG
ZGOW,2011-09-11 12:00,ZGOW 111200Z 08006MPS CAVOK 28/23 Q1012 NOSIG
ZGOW,2011-09-11 13:00,ZGOW 111300Z 09005MPS CAVOK 28/23 Q1013 NOSIG
ZGOW,2011-09-11 14:00,ZGOW 111400Z 11003MPS CAVOK 27/25 Q1013 NOSIG
ZGOW,2011-09-11 15:00,ZGOW 111500Z 11003MPS 7000 NSC 27/25 Q1014 NOSIG
ZGOW,2011-09-11 16:00,ZGOW 111600Z 09002MPS 7000 NSC 27/24 Q1013 NOSIG
ZGOW,2011-09-11 17:00,ZGOW 111700Z AUTO 09003MPS 7000 ////// 27/24 Q1013
ZGOW,2011-09-11 21:00,ZGOW 112100Z 07003MPS 7000 SKC 26/23 Q1011 NOSIG
ZGOW,2011-09-11 22:00,ZGOW 112200Z 04002MPS 5000 BR SKC 25/24 Q1011 NOSIG
ZGOW,2011-09-11 23:00,ZGOW 112300Z 04002MPS 8000 SKC 27/24 Q1011 NOSIG
ZGOW,2011-09-12 00:00,ZGOW 120000Z 03003MPS CAVOK 29/23 Q1012 NOSIG
ZGOW,2011-09-12 01:00,ZGOW 120100Z 06004MPS CAVOK 30/22 Q1012 NOSIG
ZGOW,2011-09-12 02:00,ZGOW 120200Z 06004MPS CAVOK 31/22 Q1012 NOSIG
ZGOW,2011-09-12 03:00,ZGOW 120300Z 06003MPS CAVOK 32/22 Q1012 NOSIG
ZGOW,2011-09-12 04:00,ZGOW 120400Z 08004MPS CAVOK 32/24 Q1012 NOSIG
ZGOW,2011-09-12 05:00,ZGOW 120500Z 13003MPS 9999 FEW024 32/25 Q1011 NOSIG
ZGOW,2011-09-12 06:00,ZGOW 120600Z 12003MPS CAVOK 31/24 Q1011 NOSIG
ZGOW,2011-09-12 07:00,ZGOW 120700Z 10004MPS CAVOK 31/23 Q1010 NOSIG
ZGOW,2011-09-12 08:00,ZGOW 120800Z 13004MPS 9999 SCT043 30/24 Q1010 NOSIG
ZGOW,2011-09-12 09:00,ZGOW 120900Z 11004MPS 9999 FEW043 30/24 Q1009 NOSIG
ZGOW,2011-09-12 10:00,ZGOW 121000Z 10004MPS 9999 FEW040 29/23 Q1010 NOSIG
ZGOW,2011-09-12 11:00,ZGOW 121100Z 10005MPS 9999 FEW050 28/23 Q1011 NOSIG
ZGOW,2011-09-12 12:00,ZGOW 121200Z 13004MPS 9999 FEW050 27/24 Q1011 NOSIG
ZGOW,2011-09-12 13:00,ZGOW 121300Z 13002MPS CAVOK 27/24 Q1012 NOSIG
ZGOW,2011-09-12 14:00,ZGOW 121400Z 09004MPS CAVOK 27/24 Q1012 NOSIG
ZGOW,2011-09-12 15:00,ZGOW 121500Z 10002MPS CAVOK 27/24 Q1012 NOSIG
ZGOW,2011-09-12 16:00,ZGOW 121600Z AUTO 00000MPS 7000 NCD 26/24 Q1011
ZGOW,2011-09-12 17:00,ZGOW 121700Z AUTO 07001MPS 6000 ////// 26/24 Q1010
ZGOW,2011-09-12 21:00,ZGOW 122100Z 32003MPS 5000 BR SKC 26/24 Q1010 NOSIG
ZGOW,2011-09-12 22:00,ZGOW 122200Z 33002MPS 5000 BR NSC 26/24 Q1010 NOSIG
ZGOW,2011-09-12 23:00,ZGOW 122300Z 33003MPS 5000 BR NSC 26/24 Q1010 NOSIG
ZGOW,2011-09-13 00:00,ZGOW 130000Z 34002MPS 6000 NSC 28/24 Q1010 NOSIG
ZGOW,2011-09-13 01:00,ZGOW 130100Z 04004MPS 7000 NSC 30/23 Q1010 NOSIG
ZGOW,2011-09-13 02:00,ZGOW 130200Z 05005MPS 9999 FEW026 32/22 Q1010 NOSIG
ZGOW,2011-09-13 03:00,ZGOW 130300Z 06005MPS 9999 SCT036 33/23 Q1010 NOSIG
ZGOW,2011-09-13 04:00,ZGOW 130400Z 09005MPS 9999 FEW026 BKN046 31/23 Q1009 NOSIG
ZGOW,2011-09-13 05:00,ZGOW 130500Z 10006MPS 9999 FEW026 BKN050 31/23 Q1009 NOSIG
ZGOW,2011-09-13 06:00,ZGOW 130600Z 12004MPS 9999 FEW026 BKN050 31/23 Q1008 NOSIG
ZGOW,2011-09-13 07:00,ZGOW 130700Z 12006MPS CAVOK 30/24 Q1008 NOSIG
ZGOW,2011-09-13 08:00,ZGOW 130800Z 12006MPS 9999 FEW030TCU 30/24 Q1008 NOSIG
ZGOW,2011-09-13 09:00,ZGOW 130900Z 12006MPS CAVOK 29/24 Q1008 NOSIG
ZGOW,2011-09-13 10:00,ZGOW 131000Z 11003MPS CAVOK 28/24 Q1008 NOSIG
ZGOW,2011-09-13 11:00,ZGOW 131100Z 10003MPS CAVOK 28/24 Q1009 NOSIG
ZGOW,2011-09-13 12:00,ZGOW 131200Z 14002MPS CAVOK 27/24 Q1009 NOSIG
ZGOW,2011-09-13 13:00,ZGOW 131300Z 08003MPS CAVOK 27/23 Q1009 NOSIG
ZGOW,2011-09-13 14:00,ZGOW 131400Z 08003MPS CAVOK 27/23 Q1009 NOSIG
ZGOW,2011-09-13 15:00,ZGOW 131500Z 04001MPS CAVOK 26/24 Q1009 NOSIG
ZGOW,2011-09-13 16:00,ZGOW 131600Z 06001MPS CAVOK 27/24 Q1009 NOSIG
ZGOW,2011-09-13 17:00,ZGOW 131700Z 34001MPS CAVOK 27/23 Q1008 NOSIG
ZGOW,2011-09-13 18:00,ZGOW 131800Z AUTO 31002MPS 5000 NCD 27/24 Q1008
ZGOW,2011-09-13 19:00,ZGOW 131900Z AUTO 30002MPS 5000 NCD 26/24 Q1007
ZGOW,2011-09-13 21:00,ZGOW 132100Z 33002MPS 6000 NSC 26/24 Q1007 NOSIG
ZGOW,2011-09-13 22:00,ZGOW 132200Z 34002MPS 6000 NSC 26/24 Q1007 NOSIG
ZGOW,2011-09-13 23:00,ZGOW 132300Z 34002MPS 6000 SKC 27/24 Q1008 NOSIG
ZGOW,2011-09-14 00:00,ZGOW 140000Z 34002MPS 7000 SKC 29/24 Q1008 NOSIG
ZGOW,2011-09-14 01:00,ZGOW 140100Z 02002MPS CAVOK 30/22 Q1008 NOSIG
ZGOW,2011-09-14 02:00,ZGOW 140200Z 05006MPS 9999 FEW017 32/20 Q1008 NOSIG
ZGOW,2011-09-14 03:00,ZGOW 140300Z 04005MPS 9999 SCT020 32/22 Q1008 NOSIG
ZGOW,2011-09-14 04:00,ZGOW 140400Z 10004MPS 9999 FEW020 32/23 Q1008 NOSIG
ZGOW,2011-09-14 05:00,ZGOW 140500Z 07004MPS 9999 FEW020 33/22 Q1007 NOSIG
ZGOW,2011-09-14 06:00,ZGOW 140600Z 14004MPS CAVOK 32/23 Q1006 NOSIG
ZGOW,2011-09-14 07:00,ZGOW 140700Z 13005MPS 9999 FEW020 31/24 Q1006 NOSIG
ZGOW,2011-09-14 08:00,ZGOW 140800Z 12006MPS CAVOK 30/24 Q1005 NOSIG
ZGOW,2011-09-14 09:00,ZGOW 140900Z 10005MPS CAVOK 30/24 Q1005 NOSIG
ZGOW,2011-09-14 10:00,ZGOW 141000Z 10003MPS CAVOK 29/24 Q1006 NOSIG
ZGOW,2011-09-14 11:00,ZGOW 141100Z 11003MPS 7000 SKC 28/24 Q1006 NOSIG
ZGOW,2011-09-14 12:00,ZGOW 141200Z 08003MPS CAVOK 28/24 Q1007 NOSIG
ZGOW,2011-09-14 13:00,ZGOW 141300Z 08003MPS CAVOK 28/24 Q1007 NOSIG
ZGOW,2011-09-14 14:00,ZGOW 141400Z 08005MPS CAVOK 28/24 Q1008 NOSIG
ZGOW,2011-09-14 15:00,ZGOW 141500Z 09004MPS CAVOK 28/25 Q1008 NOSIG
ZGOW,2011-09-14 16:00,ZGOW 141600Z 09004MPS CAVOK 28/25 Q1007 NOSIG
ZGOW,2011-09-14 17:00,ZGOW 141700Z 10003MPS CAVOK 27/25 Q1008 NOSIG
ZGOW,2011-09-14 18:00,ZGOW 141800Z AUTO 09003MPS 9999 ////// 27/25 Q1008
ZGOW,2011-09-14 19:00,ZGOW 141900Z AUTO 04003MPS 9999 ////// 27/24 Q1008
ZGOW,2011-09-14 21:00,ZGOW 142100Z 36001MPS 7000 BKN040 28/24 Q1007 NOSIG
ZGOW,2011-09-14 22:00,ZGOW 142200Z 34002MPS 7000 BKN040 27/24 Q1007 NOSIG
ZGOW,2011-09-14 23:00,ZGOW 142300Z 34002MPS 7000 BKN040 28/24 Q1007 NOSIG
ZGOW,2011-09-15 00:00,ZGOW 150000Z 04002MPS 9999 BKN040 29/24 Q1008 NOSIG
ZGOW,2011-09-15 01:00,ZGOW 150100Z 05003MPS CAVOK 31/23 Q1008 NOSIG
ZGOW,2011-09-15 02:00,ZGOW 150200Z 06006MPS 9999 FEW020 31/22 Q1008 NOSIG
ZGOW,2011-09-15 03:00,ZGOW 150300Z 07004MPS 9999 FEW020 SCT040 31/23 Q1008 NOSIG
ZGOW,2011-09-15 04:00,ZGOW 150400Z 08005MPS 9999 FEW020 33/23 Q1007 NOSIG
ZGOW,2011-09-15 05:00,ZGOW 150500Z 08005MPS 9999 SCT040 33/23 Q1007 NOSIG
ZGOW,2011-09-15 06:00,ZGOW 150600Z 10004MPS CAVOK 33/23 Q1006 NOSIG
ZGOW,2011-09-15 07:00,ZGOW 150700Z 12004MPS CAVOK 32/24 Q1006 NOSIG
ZGOW,2011-09-15 08:00,ZGOW 150800Z 12005MPS CAVOK 31/25 Q1006 NOSIG
ZGOW,2011-09-15 09:00,ZGOW 150900Z 11005MPS CAVOK 30/25 Q1006 NOSIG
ZGOW,2011-09-15 10:00,ZGOW 151000Z 11003MPS CAVOK 29/25 Q1006 NOSIG
ZGOW,2011-09-15 11:00,ZGOW 151100Z 10003MPS CAVOK 28/24 Q1007 NOSIG
ZGOW,2011-09-15 12:00,ZGOW 151200Z 08004MPS CAVOK 28/25 Q1008 NOSIG
ZGOW,2011-09-15 13:00,ZGOW 151300Z 08004MPS 9999 FEW014 27/25 Q1008 NOSIG
ZGOW,2011-09-15 14:00,ZGOW 151400Z 09004MPS 9999 FEW014 27/25 Q1008 NOSIG
ZGOW,2011-09-15 15:00,ZGOW 151500Z 09003MPS 9999 FEW012 27/25 Q1008 NOSIG
ZGOW,2011-09-15 16:00,ZGOW 151600Z 09002MPS 9999 SCT030 27/25 Q1008 NOSIG
ZGOW,2011-09-15 17:00,ZGOW 151700Z 08003MPS 9999 FEW016 SCT036 27/25 Q1008 NOSIG
ZGOW,2011-09-15 18:00,ZGOW 151800Z AUTO 08003MPS 9000 NCD 26/25 Q1008
ZGOW,2011-09-15 19:00,ZGOW 151900Z AUTO 07003MPS 8000 ////// 27/25 Q1007
ZGOW,2011-09-15 20:00,ZGOW 152000Z AUTO 07003MPS CAVOK 27/24 Q1007
ZGOW,2011-09-15 21:00,ZGOW 152100Z 05004MPS 9999 FEW018 SCT033 27/24 Q1007 NOSIG
ZGOW,2011-09-15 22:00,ZGOW 152200Z 04002MPS 9999 FEW020 SCT046 26/23 Q1007 NOSIG
ZGOW,2011-09-15 23:00,ZGOW 152300Z 04003MPS 9999 FEW020 SCT046 27/23 Q1007 NOSIG
ZGOW,2011-09-16 00:00,ZGOW 160000Z 04004MPS CAVOK 28/23 Q1007 NOSIG
ZGOW,2011-09-16 01:00,ZGOW 160100Z 06004MPS 9999 FEW020 30/23 Q1007 NOSIG
ZGOW,2011-09-16 02:00,ZGOW 160200Z 07004MPS 9999 FEW020 31/23 Q1007 NOSIG
ZGOW,2011-09-16 03:00,ZGOW 160300Z 09004MPS 9999 SCT025 31/24 Q1007 NOSIG
ZGOW,2011-09-16 04:00,ZGOW 160400Z 13004MPS 100V180 9999 SCT026 31/23 Q1007 NOSIG
ZGOW,2011-09-16 05:00,ZGOW 160500Z 12004MPS 080V160 9999 FEW026 30/24 Q1006 NOSIG
ZGOW,2011-09-16 06:00,ZGOW 160600Z 11006MPS CAVOK 31/24 Q1005 NOSIG
ZGOW,2011-09-16 07:00,ZGOW 160700Z 12005MPS CAVOK 30/24 Q1005 NOSIG
ZGOW,2011-09-16 08:00,ZGOW 160800Z 12006MPS CAVOK 30/24 Q1005 NOSIG
ZGOW,2011-09-16 09:00,ZGOW 160900Z 12006MPS CAVOK 28/24 Q1005 NOSIG
ZGOW,2011-09-16 10:00,ZGOW 161000Z 12005MPS CAVOK 28/24 Q1005 NOSIG
ZGOW,2011-09-16 11:00,ZGOW 161100Z 13003MPS CAVOK 27/24 Q1006 NOSIG
ZGOW,2011-09-16 12:00,ZGOW 161200Z 13003MPS 9999 FEW020 27/25 Q1006 NOSIG
ZGOW,2011-09-16 13:00,ZGOW 161300Z 12001MPS 9999 FEW020 27/25 Q1007 NOSIG
ZGOW,2011-09-16 14:00,ZGOW 161400Z 11002MPS 9999 SCT012 27/25 Q1007 NOSIG
ZGOW,2011-09-16 15:00,ZGOW 161500Z 08001MPS 7000 FEW015 26/25 Q1007 NOSIG
ZGOW,2011-09-16 16:00,ZGOW 161600Z 04002MPS 7000 FEW020 26/24 Q1006 NOSIG
ZGOW,2011-09-16 17:00,ZGOW 161700Z 05003MPS 8000 NSC 26/24 Q1006 NOSIG
ZGOW,2011-09-16 18:00,ZGOW 161800Z 05001MPS 5000 BR NSC 25/23 Q1005 NOSIG
ZGOW,2011-09-16 21:00,ZGOW 162100Z 02002MPS 6000 NSC 25/23 Q1005 NOSIG
ZGOW,2011-09-16 22:00,ZGOW 162200Z 02002MPS 6000 NSC 25/23 Q1005 NOSIG
ZGOW,2011-09-16 23:00,ZGOW 162300Z 36001MPS 5000 BR SKC 26/24 Q1005 NOSIG
ZGOW,2011-09-17 00:00,ZGOW 170000Z 03002MPS 8000 SKC 28/24 Q1005 NOSIG
ZGOW,2011-09-17 01:00,ZGOW 170100Z 08003MPS CAVOK 29/23 Q1005 NOSIG
ZGOW,2011-09-17 02:00,ZGOW 170200Z 06004MPS 9999 FEW020 30/23 Q1006 NOSIG
ZGOW,2011-09-17 03:00,ZGOW 170300Z 08005MPS 9999 FEW020 31/20 Q1006 NOSIG
ZGOW,2011-09-17 04:00,ZGOW 170400Z 09004MPS 9999 FEW020 31/21 Q1006 NOSIG
ZGOW,2011-09-17 05:00,ZGOW 170500Z 13003MPS CAVOK 32/22 Q1006 NOSIG
ZGOW,2011-09-17 06:00,ZGOW 170600Z 12003MPS CAVOK 31/22 Q1005 NOSIG
ZGOW,2011-09-17 07:00,ZGOW 170700Z 13004MPS CAVOK 31/22 Q1004 NOSIG
ZGOW,2011-09-17 08:00,ZGOW 170800Z 12004MPS CAVOK 30/23 Q1004 NOSIG
ZGOW,2011-09-17 09:00,ZGOW 170900Z 13005MPS CAVOK 29/23 Q1004 NOSIG
ZGOW,2011-09-17 10:00,ZGOW 171000Z 12004MPS CAVOK 28/22 Q1005 NOSIG
ZGOW,2011-09-17 11:00,ZGOW 171100Z 12001MPS CAVOK 27/22 Q1006 NOSIG
ZGOW,2011-09-17 12:00,ZGOW 171200Z 11002MPS CAVOK 26/23 Q1006 NOSIG
ZGOW,2011-09-17 13:00,ZGOW 171300Z 13002MPS CAVOK 26/23 Q1007 NOSIG
ZGOW,2011-09-17 14:00,ZGOW 171400Z 11001MPS CAVOK 26/23 Q1007 NOSIG
ZGOW,2011-09-17 15:00,ZGOW 171500Z 08001MPS CAVOK 26/23 Q1007 NOSIG
ZGOW,2011-09-17 16:00,ZGOW 171600Z 06001MPS CAVOK 26/23 Q1007 NOSIG
ZGOW,2011-09-17 17:00,ZGOW 171700Z 07002MPS 7000 NSC 25/23 Q1007 NOSIG
ZGOW,2011-09-17 21:00,ZGOW 172100Z 34002MPS 5000 BR SKC 25/22 Q1007 NOSIG
ZGOW,2011-09-17 22:00,ZGOW 172200Z 32001MPS 5000 BR SKC 25/22 Q1007 NOSIG
ZGOW,2011-09-17 23:00,ZGOW 172300Z 00000MPS 5000 BR SKC 26/23 Q1008 NOSIG
ZGOW,2011-09-18 00:00,ZGOW 180000Z 05002MPS 5000 BR SKC 27/24 Q1009 NOSIG
ZGOW,2011-09-18 01:00,ZGOW 180100Z 06003MPS CAVOK 29/23 Q1009 NOSIG
ZGOW,2011-09-18 02:00,ZGOW 180200Z 07004MPS CAVOK 31/22 Q1009 NOSIG
ZGOW,2011-09-18 03:00,ZGOW 180300Z 09005MPS CAVOK 32/22 Q1009 NOSIG
ZGOW,2011-09-18 04:00,ZGOW 180400Z 10005MPS CAVOK 32/21 Q1009 NOSIG
ZGOW,2011-09-18 05:00,ZGOW 180500Z 14005MPS CAVOK 32/23 Q1008 NOSIG
ZGOW,2011-09-18 06:00,ZGOW 180600Z 12005MPS 7000 NSC 31/24 Q1007 NOSIG
ZGOW,2011-09-18 07:00,ZGOW 180700Z 12005MPS CAVOK 30/23 Q1007 NOSIG
ZGOW,2011-09-18 08:00,ZGOW 180800Z 12006MPS 9999 FEW024 29/23 Q1007 NOSIG
ZGOW,2011-09-18 09:00,ZGOW 180900Z 14005G11MPS 100V160 CAVOK 29/24 Q1008 NOSIG
ZGOW,2011-09-18 10:00,ZGOW 181000Z 11003MPS CAVOK 28/24 Q1008 NOSIG
ZGOW,2011-09-18 11:00,ZGOW 181100Z 10003MPS 7000 NSC 28/24 Q1008 NOSIG
ZGOW,2011-09-18 12:00,ZGOW 181200Z 08004MPS 7000 SCT043 28/24 Q1009 NOSIG
ZGOW,2011-09-18 13:00,ZGOW 181300Z 08004MPS 7000 SCT040 28/24 Q1010 NOSIG
ZGOW,2011-09-18 14:00,ZGOW 181400Z 06004MPS 7000 FEW020 SCT046 28/24 Q1010 NOSIG
ZGOW,2011-09-18 15:00,ZGOW 181500Z 05002MPS 7000 FEW030CB SCT050 26/23 Q1010 NOSIG
ZGOW,2011-09-18 16:00,ZGOW 181600Z 03002MPS 7000 FEW024 26/23 Q1010 NOSIG
ZGOW,2011-09-18 17:00,ZGOW 181700Z 04002MPS 7000 SCT020 27/23 Q1010 NOSIG
ZGOW,2011-09-18 18:00,ZGOW 181800Z 06002MPS 6000 FEW018 SCT040 27/23 Q1010 NOSIG
ZGOW,2011-09-18 19:00,ZGOW 181900Z AUTO 06001MPS 6000 ////// 26/23 Q1010
ZGOW,2011-09-18 20:00,ZGOW 182000Z AUTO 01002MPS CAVOK 26/23 Q1009
ZGOW,2011-09-18 21:00,ZGOW 182100Z 05003MPS 6000 SCT040 26/23 Q1009 NOSIG
ZGOW,2011-09-18 22:00,ZGOW 182200Z 04003MPS 5000 BR SCT030 27/23 Q1010 NOSIG
ZGOW,2011-09-18 23:00,ZGOW 182300Z 05003MPS 5000 BR FEW030TCU SCT030 27/23 Q1010 NOSIG
ZGOW,2011-09-19 00:00,ZGOW 190000Z 02003MPS 5000 BR SCT033 28/24 Q1010 NOSIG
ZGOW,2011-09-19 01:00,ZGOW 190100Z 06004MPS 7000 FEW020 BKN033 28/23 Q1011 NOSIG
ZGOW,2011-09-19 02:00,ZGOW 190200Z 07005MPS 9999 FEW020 FEW030TCU BKN050 28/23 Q1011 NOSIG
ZGOW,2011-09-19 03:00,ZGOW 190300Z 08005MPS 9999 FEW020 BKN050 29/22 Q1011 NOSIG
ZGOW,2011-09-19 04:00,ZGOW 190400Z 09006MPS 9999 FEW020 BKN050 30/22 Q1010 NOSIG
ZGOW,2011-09-19 05:00,ZGOW 190500Z 08005MPS 9999 SCT030 30/22 Q1010 NOSIG
ZGOW,2011-09-19 06:00,ZGOW 190600Z 09004MPS 9999 SCT030 30/22 Q1009 NOSIG
ZGOW,2011-09-19 07:00,ZGOW 190700Z 12005MPS 9999 SCT024 29/23 Q1009 NOSIG
ZGOW,2011-09-19 08:00,ZGOW 190800Z 11005MPS 9999 SCT024 FEW030TCU 28/23 Q1008 NOSIG
ZGOW,2011-09-19 09:00,ZGOW 190900Z 11003MPS 9999 FEW030CB SCT030 28/23 Q1008 NOSIG
ZGOW,2011-09-19 10:00,ZGOW 191000Z 12003MPS 7000 FEW022 FEW030CB SCT050 27/23 Q1009 NOSIG
ZGOW,2011-09-19 11:00,ZGOW 191100Z 13002MPS 7000 FEW022 FEW030CB SCT050 27/23 Q1010 TEMPO VRB07MPS 2500 -TSRA SCT012 FEW030CB BKN040
ZGOW,2011-09-19 12:00,ZGOW 191200Z 06003MPS 6000 -SHRA FEW018 FEW030CB SCT050 27/23 Q1011 NOSIG
ZGOW,2011-09-19 13:00,ZGOW 191300Z 04001MPS 7000 FEW018 FEW030CB SCT050 26/23 Q1012 NOSIG
ZGOW,2011-09-19 14:00,ZGOW 191400Z 07004MPS 8000 FEW018 FEW030CB SCT050 26/23 Q1012 NOSIG
ZGOW,2011-09-19 15:00,ZGOW 191500Z 08002MPS 8000 FEW018 FEW030CB SCT050 26/23 Q1012 NOSIG
ZGOW,2011-09-19 16:00,ZGOW 191600Z 07003MPS 8000 SCT018 FEW030CB SCT050 26/23 Q1011 NOSIG
ZGOW,2011-09-19 17:00,ZGOW 191700Z 04003MPS 8000 SCT014 FEW030CB SCT050 26/23 Q1011 NOSIG
ZGOW,2011-09-19 18:00,ZGOW 191800Z AUTO 32003MPS 9999 ////// 25/23 Q1011
ZGOW,2011-09-19 19:00,ZGOW 191900Z AUTO 32002MPS 8000 ////// 25/23 Q1011
ZGOW,2011-09-19 20:00,ZGOW 192000Z AUTO 34002MPS 7000 ////// 25/23 Q1010
ZGOW,2011-09-19 21:00,ZGOW 192100Z 34003MPS 8000 FEW014 SCT040 25/22 Q1011 NOSIG
ZGOW,2011-09-19 22:00,ZGOW 192200Z 34003MPS 7000 FEW014 24/22 Q1012 NOSIG
ZGOW,2011-09-19 23:00,ZGOW 192300Z 34003MPS 7000 NSC 24/21 Q1012 NOSIG
ZGOW,2011-09-20 00:00,ZGOW 200000Z 32004MPS 7000 NSC 25/21 Q1013 NOSIG
ZGOW,2011-09-20 01:00,ZGOW 200100Z 33004MPS 8000 NSC 26/21 Q1014 NOSIG
ZGOW,2011-09-20 02:00,ZGOW 200200Z 33004MPS 7000 NSC 26/21 Q1014 NOSIG
ZGOW,2011-09-20 03:00,ZGOW 200300Z 31004MPS 7000 NSC 26/21 Q1013 NOSIG
ZGOW,2011-09-20 04:00,ZGOW 200400Z 32003MPS 7000 NSC 27/21 Q1013 NOSIG
ZGOW,2011-09-20 05:00,ZGOW 200500Z 31004MPS 7000 FEW024 28/22 Q1012 NOSIG
ZGOW,2011-09-20 06:00,ZGOW 200600Z 36001MPS 7000 BKN030 28/21 Q1011 NOSIG
ZGOW,2011-09-20 07:00,ZGOW 200700Z 08001MPS 7000 BKN030 28/21 Q1010 NOSIG
ZGOW,2011-09-20 08:00,ZGOW 200800Z 09002MPS 7000 BKN040 28/21 Q1010 NOSIG
ZGOW,2011-09-20 09:00,ZGOW 200900Z 14002MPS 7000 SCT040 28/21 Q1010 NOSIG
ZGOW,2011-09-20 10:00,ZGOW 201000Z 12002MPS 6000 BKN036 27/23 Q1010 NOSIG
ZGOW,2011-09-20 11:00,ZGOW 201100Z 13002MPS 6000 SCT033 26/23 Q1011 NOSIG
ZGOW,2011-09-20 12:00,ZGOW 201200Z 05003MPS 7000 SCT022 26/23 Q1011 NOSIG
ZGOW,2011-09-20 13:00,ZGOW 201300Z 08002MPS 6000 SCT022 26/23 Q1012 NOSIG
ZGOW,2011-09-20 14:00,ZGOW 201400Z 05001MPS 5000 -SHRA SCT016 FEW030TCU BKN050 26/23 Q1012 NOSIG
ZGOW,2011-09-20 15:00,ZGOW 201500Z 04001MPS 7000 SCT018 BKN030 25/23 Q1012 NOSIG
ZGOW,2011-09-20 16:00,ZGOW 201600Z 33004MPS 9999 FEW020 BKN050 24/19 Q1012 NOSIG
ZGOW,2011-09-20 17:00,ZGOW 201700Z AUTO 34004MPS 9999 ////// 24/18 Q1012
ZGOW,2011-09-20 18:00,ZGOW 201800Z AUTO 34003MPS 9999 ////// 23/19 Q1011
ZGOW,2011-09-20 19:00,ZGOW 201900Z AUTO 32004MPS 9999 ////// 23/18 Q1011
ZGOW,2011-09-20 20:00,ZGOW 202000Z AUTO 32004MPS 9999 ////// 23/18 Q1011
ZGOW,2011-09-20 21:00,ZGOW 202100Z 33003MPS 9999 BKN030 23/18 Q1011 NOSIG
ZGOW,2011-09-20 22:00,ZGOW 202200Z 34004MPS 9999 BKN040 23/17 Q1011 NOSIG
ZGOW,2011-09-20 23:00,ZGOW 202300Z 34003MPS 9999 BKN040 23/17 Q1012 NOSIG
ZGOW,2011-09-21 00:00,ZGOW 210000Z 32003MPS 9999 BKN026 23/18 Q1013 NOSIG
ZGOW,2011-09-21 01:00,ZGOW 210100Z 32004MPS 9999 SCT030 OVC050 23/17 Q1013 NOSIG
ZGOW,2011-09-21 02:00,ZGOW 210200Z 34004MPS 9999 SCT030 OVC050 24/17 Q1013 NOSIG
ZGOW,2011-09-21 03:00,ZGOW 210300Z 33004MPS 9999 SCT030 OVC050 25/18 Q1012 NOSIG
ZGOW,2011-09-21 04:00,ZGOW 210400Z 33004MPS 9999 SCT030 OVC050 26/18 Q1012 NOSIG
ZGOW,2011-09-21 05:00,ZGOW 210500Z 34003MPS 9999 SCT030 OVC050 26/19 Q1011 NOSIG
ZGOW,2011-09-21 06:00,ZGOW 210600Z 33003MPS 9999 SCT030 OVC050 27/19 Q1010 NOSIG
ZGOW,2011-09-21 07:00,ZGOW 210700Z 05003MPS 9999 BKN050 28/19 Q1010 NOSIG
ZGOW,2011-09-21 08:00,ZGOW 210800Z 07003MPS 9999 FEW020 28/20 Q1009 NOSIG
ZGOW,2011-09-21 09:00,ZGOW 210900Z 08004MPS 8000 FEW020 27/20 Q1010 NOSIG
ZGOW,2011-09-21 10:00,ZGOW 211000Z 08004MPS 5000 HZ FEW020 BKN050 26/21 Q1010 NOSIG
ZGOW,2011-09-21 11:00,ZGOW 211100Z 09004MPS 6000 FEW020 BKN050 26/21 Q1011 NOSIG
ZGOW,2011-09-21 12:00,ZGOW 211200Z 08004MPS 6000 FEW020 BKN050 26/21 Q1012 NOSIG
ZGOW,2011-09-21 13:00,ZGOW 211300Z 08006MPS 6000 FEW020 BKN050 25/21 Q1013 NOSIG
ZGOW,2011-09-21 14:00,ZGOW 211400Z 07004MPS 5000 BR FEW020 BKN050 25/21 Q1013 NOSIG
ZGOW,2011-09-21 15:00,ZGOW 211500Z 05004MPS 5000 BR SCT023 BKN040 25/21 Q1013 NOSIG
ZGOW,2011-09-21 16:00,ZGOW 211600Z 04003MPS 5000 BR SCT023 BKN040 25/21 Q1012 NOSIG
ZGOW,2011-09-21 17:00,ZGOW 211700Z 06005MPS 6000 SCT023 BKN040 25/19 Q1012 NOSIG
ZGOW,2011-09-21 18:00,ZGOW 211800Z 02005MPS 5000 BR BKN040 24/20 Q1011 NOSIG
ZGOW,2011-09-21 19:00,ZGOW 211900Z AUTO 01004MPS 9999 ////// 24/19 Q1011
ZGOW,2011-09-21 21:00,ZGOW 212100Z 02003MPS 5000 BR SKC 23/18 Q1011 NOSIG
ZGOW,2011-09-21 22:00,ZGOW 212200Z 04003MPS 5000 BR SKC 22/18 Q1012 NOSIG
ZGOW,2011-09-21 23:00,ZGOW 212300Z 05002MPS 6000 SKC 23/19 Q1012 NOSIG
ZGOW,2011-09-22 00:00,ZGOW 220000Z 04003MPS 6000 BKN050 24/18 Q1013 NOSIG
ZGOW,2011-09-22 01:00,ZGOW 220100Z 03004MPS 7000 NSC 26/19 Q1013 NOSIG
ZGOW,2011-09-22 02:00,ZGOW 220200Z 05004MPS CAVOK 27/18 Q1013 NOSIG
ZGOW,2011-09-22 03:00,ZGOW 220300Z 04005MPS CAVOK 28/19 Q1013 NOSIG
ZGOW,2011-09-22 04:00,ZGOW 220400Z 05006MPS CAVOK 27/19 Q1012 NOSIG
ZGOW,2011-09-22 05:00,ZGOW 220500Z 05005MPS 9999 FEW033 28/19 Q1011 NOSIG
ZGOW,2011-09-22 06:00,ZGOW 220600Z 07004MPS 9999 FEW033 28/18 Q1011 NOSIG
ZGOW,2011-09-22 07:00,ZGOW 220700Z 09005MPS CAVOK 27/19 Q1010 NOSIG
ZGOW,2011-09-22 08:00,ZGOW 220800Z 08006MPS 7000 NSC 27/19 Q1010 NOSIG
ZGOW,2011-09-22 09:00,ZGOW 220900Z 08006MPS 7000 NSC 26/19 Q1010 NOSIG
ZGOW,2011-09-22 10:00,ZGOW 221000Z 08007MPS 6000 BKN046 25/19 Q1011 TEMPO 08008G13MPS
ZGOW,2011-09-22 11:00,ZGOW 221100Z 08007MPS 6000 BKN046 25/19 Q1011 TEMPO 08008G13MPS
ZGOW,2011-09-22 12:00,ZGOW 221200Z 07007MPS 6000 SCT046 25/19 Q1012 NOSIG
ZGOW,2011-09-22 13:00,ZGOW 221300Z 08006MPS 6000 NSC 24/19 Q1012 NOSIG
ZGOW,2011-09-22 14:00,ZGOW 221400Z 08007MPS 6000 NSC 24/18 Q1012 NOSIG
ZGOW,2011-09-22 15:00,ZGOW 221500Z 06006MPS 6000 FEW040 24/18 Q1012 NOSIG
ZGOW,2011-09-22 16:00,ZGOW 221600Z 06007MPS 6000 FEW040 24/17 Q1012 NOSIG
ZGOW,2011-09-22 17:00,ZGOW 221700Z 06008MPS 5000 HZ FEW040 23/17 Q1012 NOSIG
ZGOW,2011-09-22 18:00,ZGOW 221800Z AUTO 05005MPS CAVOK 23/17 Q1011
ZGOW,2011-09-22 21:00,ZGOW 222100Z 02003MPS 5000 BR NSC 22/18 Q1011 NOSIG
ZGOW,2011-09-22 22:00,ZGOW 222200Z 03004MPS 5000 BR NSC 22/17 Q1011 NOSIG
ZGOW,2011-09-22 23:00,ZGOW 222300Z 03003MPS 5000 HZ NSC 23/17 Q1012 NOSIG
ZGOW,2011-09-23 00:00,ZGOW 230000Z 03005MPS 6000 NSC 24/17 Q1012 NOSIG
ZGOW,2011-09-23 01:00,ZGOW 230100Z 05005MPS 7000 FEW026 26/17 Q1013 NOSIG
ZGOW,2011-09-23 02:00,ZGOW 230200Z 05005MPS CAVOK 26/17 Q1013 NOSIG
ZGOW,2011-09-23 03:00,ZGOW 230300Z 08007MPS CAVOK 28/17 Q1012 NOSIG
ZGOW,2011-09-23 04:00,ZGOW 230400Z 07007MPS CAVOK 28/17 Q1012 NOSIG
ZGOW,2011-09-23 05:00,ZGOW 230500Z 08007MPS CAVOK 29/18 Q1011 NOSIG
ZGOW,2011-09-23 06:00,ZGOW 230600Z 08007MPS CAVOK 28/19 Q1010 NOSIG
ZGOW,2011-09-23 07:00,ZGOW 230700Z 09007MPS CAVOK 27/19 Q1009 NOSIG
ZGOW,2011-09-23 08:00,ZGOW 230800Z 08007G12MPS CAVOK 26/18 Q1009 NOSIG
ZGOW,2011-09-23 09:00,ZGOW 230900Z 08007G12MPS 9999 BKN050 26/19 Q1010 NOSIG
ZGOW,2011-09-23 10:00,ZGOW 231000Z 07007MPS CAVOK 26/19 Q1010 NOSIG
ZGOW,2011-09-23 11:00,ZGOW 231100Z 07008MPS CAVOK 25/18 Q1011 NOSIG
ZGOW,2011-09-23 12:00,ZGOW 231200Z 08008MPS CAVOK 25/18 Q1011 NOSIG
ZGOW,2011-09-23 13:00,ZGOW 231300Z 08008MPS CAVOK 25/17 Q1012 NOSIG
ZGOW,2011-09-23 14:00,ZGOW 231400Z 08008MPS CAVOK 25/18 Q1013 NOSIG
ZGOW,2011-09-23 15:00,ZGOW 231500Z 07009G14MPS CAVOK 25/17 Q1012 NOSIG
ZGOW,2011-09-23 16:00,ZGOW 231600Z 06007MPS 9999 BKN050 24/16 Q1012 NOSIG
ZGOW,2011-09-23 17:00,ZGOW 231700Z 06006MPS 9999 BKN050 24/15 Q1011 NOSIG
ZGOW,2011-09-23 18:00,ZGOW 231800Z AUTO 06007MPS 9999 ////// 24/13 Q1011
ZGOW,2011-09-23 19:00,ZGOW 231900Z AUTO 06006MPS 9999 ////// 24/14 Q1010
ZGOW,2011-09-23 20:00,ZGOW 232000Z AUTO 06006MPS 9999 ////// 23/14 Q1010
ZGOW,2011-09-23 21:00,ZGOW 232100Z 03004MPS 9999 BKN050 23/13 Q1011 NOSIG
ZGOW,2011-09-23 22:00,ZGOW 232200Z 03004MPS 9999 BKN050 23/15 Q1011 NOSIG
ZGOW,2011-09-23 23:00,ZGOW 232300Z 04003MPS 9999 BKN050 23/15 Q1012 NOSIG
ZGOW,2011-09-24 00:00,ZGOW 240000Z 02005MPS 9999 BKN050 25/15 Q1012 NOSIG
ZGOW,2011-09-24 01:00,ZGOW 240100Z 02006MPS 9999 BKN050 26/15 Q1012 NOSIG
ZGOW,2011-09-24 02:00,ZGOW 240200Z 04006MPS 9999 BKN050 26/16 Q1013 NOSIG
ZGOW,2011-09-24 03:00,ZGOW 240300Z 07005MPS 9999 FEW050 28/17 Q1012 NOSIG
ZGOW,2011-09-24 04:00,ZGOW 240400Z 06006MPS CAVOK 29/18 Q1011 NOSIG
ZGOW,2011-09-24 05:00,ZGOW 240500Z 07007MPS CAVOK 29/18 Q1010 NOSIG
ZGOW,2011-09-24 06:00,ZGOW 240600Z 09006MPS CAVOK 28/19 Q1010 NOSIG
ZGOW,2011-09-24 07:00,ZGOW 240700Z 08006MPS CAVOK 27/19 Q1010 NOSIG
ZGOW,2011-09-24 08:00,ZGOW 240800Z 08007MPS 9999 FEW030CB BKN050 26/19 Q1010 NOSIG
ZGOW,2011-09-24 09:00,ZGOW 240900Z 08007MPS 9999 FEW030CB BKN050 26/20 Q1010 NOSIG
ZGOW,2011-09-24 10:00,ZGOW 241000Z 08006MPS 9999 FEW030TCU 25/20 Q1011 NOSIG
ZGOW,2011-09-24 11:00,ZGOW 241100Z 07007MPS 9999 FEW030TCU 25/20 Q1011 NOSIG
ZGOW,2011-09-24 12:00,ZGOW 241200Z 06006MPS 9999 FEW050 25/20 Q1011 NOSIG
ZGOW,2011-09-24 13:00,ZGOW 241300Z 07006MPS CAVOK 25/20 Q1012 NOSIG
ZGOW,2011-09-24 14:00,ZGOW 241400Z 06006MPS CAVOK 25/20 Q1012 NOSIG
ZGOW,2011-09-24 15:00,ZGOW 241500Z 07005MPS CAVOK 25/19 Q1012 NOSIG
ZGOW,2011-09-24 16:00,ZGOW 241600Z 06004MPS 9999 FEW050 24/19 Q1011 NOSIG
ZGOW,2011-09-24 17:00,ZGOW 241700Z 08003MPS CAVOK 24/19 Q1011 NOSIG
ZGOW,2011-09-24 18:00,ZGOW 241800Z AUTO 07005MPS CAVOK 24/19 Q1010
ZGOW,2011-09-24 19:00,ZGOW 241900Z AUTO 05003MPS CAVOK 24/19 Q1010
ZGOW,2011-09-24 21:00,ZGOW 242100Z 06002MPS 7000 NSC 23/20 Q1010 NOSIG
ZGOW,2011-09-24 22:00,ZGOW 242200Z 04003MPS 8000 SCT030 23/20 Q1011 NOSIG
ZGOW,2011-09-24 23:00,ZGOW 242300Z 05003MPS 9999 SCT030 24/20 Q1011 NOSIG
ZGOW,2011-09-25 00:00,ZGOW 250000Z 06006MPS 9999 FEW030 25/20 Q1012 NOSIG
ZGOW,2011-09-25 01:00,ZGOW 250100Z 04005MPS 9999 BKN050 26/20 Q1012 NOSIG
ZGOW,2011-09-25 02:00,ZGOW 250200Z 04005MPS 9999 BKN050 27/20 Q1012 NOSIG
ZGOW,2011-09-25 03:00,ZGOW 250300Z 06005MPS 9999 BKN050 28/20 Q1011 NOSIG
ZGOW,2011-09-25 04:00,ZGOW 250400Z 08005MPS 9999 BKN050 28/21 Q1011 NOSIG
ZGOW,2011-09-25 05:00,ZGOW 250500Z 08006MPS 9999 BKN050 28/21 Q1010 NOSIG
ZGOW,2011-09-25 06:00,ZGOW 250600Z 09007MPS CAVOK 28/21 Q1010 NOSIG
ZGOW,2011-09-25 07:00,ZGOW 250700Z 09006MPS 9999 BKN050 27/21 Q1009 NOSIG
ZGOW,2011-09-25 08:00,ZGOW 250800Z 07007MPS 9999 BKN050 27/21 Q1009 NOSIG
ZGOW,2011-09-25 09:00,ZGOW 250900Z 08005MPS 9999 BKN050 27/22 Q1010 NOSIG
ZGOW,2011-09-25 10:00,ZGOW 251000Z 08005MPS 9999 BKN050 27/21 Q1010 TEMPO 2100 -SHRA
ZGOW,2011-09-25 11:00,ZGOW 251100Z 06007MPS 7000 BKN050 26/22 Q1010 TEMPO 2100 -SHRA
ZGOW,2011-09-25 12:00,ZGOW 251200Z 08005MPS CAVOK 26/22 Q1011 NOSIG
ZGOW,2011-09-25 13:00,ZGOW 251300Z 07005MPS CAVOK 26/22 Q1012 TEMPO 3000 SHRA
ZGOW,2011-09-25 14:00,ZGOW 251400Z 07005MPS CAVOK 26/22 Q1012 TEMPO 3000 SHRA
ZGOW,2011-09-25 15:00,ZGOW 251500Z 08006MPS CAVOK 25/22 Q1012 TEMPO 3000 SHRA
ZGOW,2011-09-25 16:00,ZGOW 251600Z 08005MPS 9999 BKN050 26/22 Q1011 NOSIG
ZGOW,2011-09-25 17:00,ZGOW 251700Z 07004MPS 9999 BKN050 25/22 Q1011 NOSIG
ZGOW,2011-09-25 18:00,ZGOW 251800Z AUTO 06005MPS 9999 ////// 26/21 Q1010
ZGOW,2011-09-25 19:00,ZGOW 251900Z AUTO 04003MPS CAVOK 25/21 Q1010
ZGOW,2011-09-25 20:00,ZGOW 252000Z AUTO 05004MPS CAVOK 25/21 Q1010
ZGOW,2011-09-25 21:00,ZGOW 252100Z 02002MPS 9999 FEW050 24/21 Q1010 NOSIG
ZGOW,2011-09-25 22:00,ZGOW 252200Z 08001MPS 7000 FEW050 24/21 Q1011 NOSIG
ZGOW,2011-09-25 23:00,ZGOW 252300Z 06003MPS 8000 BKN050 25/22 Q1011 NOSIG
ZGOW,2011-09-26 00:00,ZGOW 260000Z 06005MPS CAVOK 26/22 Q1012 NOSIG
ZGOW,2011-09-26 01:00,ZGOW 260100Z 05005MPS 9999 SCT033 28/21 Q1011 NOSIG
ZGOW,2011-09-26 02:00,ZGOW 260200Z 06004MPS 9999 SCT033 29/21 Q1012 NOSIG
ZGOW,2011-09-26 03:00,ZGOW 260300Z 06004MPS 9999 SCT030 29/21 Q1011 NOSIG
ZGOW,2011-09-26 04:00,ZGOW 260400Z 07004MPS 9999 FEW030 30/22 Q1010 NOSIG
ZGOW,2011-09-26 05:00,ZGOW 260500Z 08006MPS CAVOK 31/22 Q1009 NOSIG
ZGOW,2011-09-26 06:00,ZGOW 260600Z 09006MPS CAVOK 30/22 Q1009 NOSIG
ZGOW,2011-09-26 07:00,ZGOW 260700Z 08007MPS 9999 SCT043 30/22 Q1008 NOSIG
ZGOW,2011-09-26 08:00,ZGOW 260800Z 09006MPS 9999 SCT050 30/22 Q1008 NOSIG
ZGOW,2011-09-26 09:00,ZGOW 260900Z 10004MPS 9999 SCT050 28/23 Q1008 NOSIG
ZGOW,2011-09-26 10:00,ZGOW 261000Z 11002MPS CAVOK 27/23 Q1008 NOSIG
ZGOW,2011-09-26 11:00,ZGOW 261100Z 10002MPS CAVOK 26/23 Q1009 NOSIG
ZGOW,2011-09-26 12:00,ZGOW 261200Z 07001MPS CAVOK 26/23 Q1009 NOSIG
ZGOW,2011-09-26 13:00,ZGOW 261300Z 08003MPS 9999 FEW020 26/23 Q1010 NOSIG
ZGOW,2011-09-26 14:00,ZGOW 261400Z 07004MPS 9999 FEW050 26/23 Q1010 NOSIG
ZGOW,2011-09-26 15:00,ZGOW 261500Z 07002MPS 7000 FEW050 25/23 Q1010 NOSIG
ZGOW,2011-09-26 16:00,ZGOW 261600Z 08003MPS CAVOK 25/23 Q1009 NOSIG
ZGOW,2011-09-26 17:00,ZGOW 261700Z 06002MPS CAVOK 24/22 Q1009 NOSIG
ZGOW,2011-09-26 18:00,ZGOW 261800Z 07001MPS 7000 NSC 24/23 Q1008 NOSIG
ZGOW,2011-09-26 19:00,ZGOW 261900Z 00000MPS 7000 NSC 25/23 Q1007 NOSIG
ZGOW,2011-09-26 20:00,ZGOW 262000Z 00000MPS 4500 BR NSC 24/22 Q1007 NOSIG
ZGOW,2011-09-26 21:00,ZGOW 262100Z 09001MPS 2500 BR NSC 24/23 Q1007 NOSIG
ZGOW,2011-09-26 22:00,ZGOW 262200Z 05001MPS 3000 BR NSC 23/22 Q1007 NOSIG
ZGOW,2011-09-26 23:00,ZGOW 262300Z 05001MPS 5000 BR NSC 25/23 Q1008 NOSIG
ZGOW,2011-09-27 00:00,ZGOW 270000Z 08003MPS 9999 SCT050 26/22 Q1009 NOSIG
ZGOW,2011-09-27 01:00,ZGOW 270100Z 07005MPS 9999 SCT050 28/20 Q1009 NOSIG
ZGOW,2011-09-27 02:00,ZGOW 270200Z 08005MPS 9999 SCT050 29/20 Q1009 NOSIG
ZGOW,2011-09-27 03:00,ZGOW 270300Z 09005MPS 9999 SCT050 29/20 Q1008 NOSIG
ZGOW,2011-09-27 04:00,ZGOW 270400Z 09005MPS CAVOK 30/20 Q1007 NOSIG
ZGOW,2011-09-27 05:00,ZGOW 270500Z 09003MPS CAVOK 31/19 Q1006 NOSIG
ZGOW,2011-09-27 06:00,ZGOW 270600Z 11004MPS CAVOK 32/20 Q1005 NOSIG
ZGOW,2011-09-27 07:00,ZGOW 270700Z 14003MPS CAVOK 31/21 Q1004 NOSIG
ZGOW,2011-09-27 08:00,ZGOW 270800Z 12005MPS CAVOK 30/22 Q1004 NOSIG
ZGOW,2011-09-27 09:00,ZGOW 270900Z 12005MPS CAVOK 28/23 Q1004 NOSIG
ZGOW,2011-09-27 10:00,ZGOW 271000Z 06002MPS CAVOK 27/23 Q1004 NOSIG
ZGOW,2011-09-27 11:00,ZGOW 271100Z 08003MPS CAVOK 27/23 Q1005 NOSIG
ZGOW,2011-09-27 12:00,ZGOW 271200Z 06006MPS CAVOK 27/23 Q1006 NOSIG
ZGOW,2011-09-27 13:00,ZGOW 271300Z 06006MPS CAVOK 27/23 Q1006 NOSIG
ZGOW,2011-09-27 14:00,ZGOW 271400Z 08002MPS CAVOK 26/24 Q1006 NOSIG
ZGOW,2011-09-27 15:00,ZGOW 271500Z 08001MPS CAVOK 26/23 Q1006 NOSIG
ZGOW,2011-09-27 16:00,ZGOW 271600Z 08002MPS CAVOK 26/23 Q1006 NOSIG
ZGOW,2011-09-27 17:00,ZGOW 271700Z AUTO 04002MPS CAVOK 25/22 Q1005
ZGOW,2011-09-27 18:00,ZGOW 271800Z AUTO 02001MPS CAVOK 25/22 Q1005
ZGOW,2011-09-27 21:00,ZGOW 272100Z 29001MPS 4500 BR SKC 25/23 Q1005 NOSIG
ZGOW,2011-09-27 22:00,ZGOW 272200Z 31002MPS 4000 BR SKC 25/23 Q1005 NOSIG
ZGOW,2011-09-27 23:00,ZGOW 272300Z 34002MPS 5000 BR NSC 26/23 Q1005 NOSIG
ZGOW,2011-09-28 00:00,ZGOW 280000Z 13002MPS 6000 FEW040 28/23 Q1006 NOSIG
ZGOW,2011-09-28 01:00,ZGOW 280100Z 05003MPS 9999 FEW020 31/22 Q1006 NOSIG
ZGOW,2011-09-28 02:00,ZGOW 280200Z 07004MPS 9999 FEW040 31/22 Q1006 NOSIG
ZGOW,2011-09-28 03:00,ZGOW 280300Z 09005MPS 9999 FEW040 32/23 Q1006 NOSIG
ZGOW,2011-09-28 04:00,ZGOW 280400Z 09006MPS 9999 FEW040 32/23 Q1006 NOSIG
ZGOW,2011-09-28 05:00,ZGOW 280500Z 08007G12MPS 9999 SCT030 31/23 Q1005 NOSIG
ZGOW,2011-09-28 06:00,ZGOW 280600Z 08008MPS CAVOK 31/24 Q1004 NOSIG
ZGOW,2011-09-28 07:00,ZGOW 280700Z 08008G13MPS CAVOK 31/24 Q1003 NOSIG
ZGOW,2011-09-28 08:00,ZGOW 280800Z 09008MPS CAVOK 30/24 Q1004 NOSIG
ZGOW,2011-09-28 09:00,ZGOW 280900Z 08008G13MPS 9999 FEW028TCU 29/24 Q1004 NOSIG
ZGOW,2011-09-28 10:00,ZGOW 281000Z 07008G14MPS 9999 FEW028TCU BKN050 28/25 Q1005 NOSIG
ZGOW,2011-09-28 11:00,ZGOW 281100Z 07008MPS 9999 FEW028TCU BKN050 28/24 Q1005 NOSIG
ZGOW,2011-09-28 12:00,ZGOW 281200Z 07008MPS 9999 BKN040 28/24 Q1006 NOSIG
ZGOW,2011-09-28 13:00,ZGOW 281300Z 07006MPS 9999 FEW028TCU BKN033 28/25 Q1007 NOSIG
ZGOW,2011-09-28 14:00,ZGOW 281400Z 07007MPS 9999 -SHRA FEW028TCU SCT030 BKN043 28/25 Q1007 NOSIG
ZGOW,2011-09-28 15:00,ZGOW 281500Z 07007MPS 7000 -SHRA FEW028TCU SCT030 BKN043 27/25 Q1007 NOSIG
ZGOW,2011-09-28 16:00,ZGOW 281600Z 07007MPS 7000 -SHRA FEW028TCU SCT030 BKN050 27/25 Q1007 NOSIG
ZGOW,2011-09-28 17:00,ZGOW 281700Z 07007MPS 7000 -SHRA SCT018 FEW028TCU BKN040 27/25 Q1007 NOSIG
ZGOW,2011-09-28 18:00,ZGOW 281800Z 08005MPS 7000 -SHRA SCT018 FEW026TCU BKN050 26/25 Q1006 NOSIG
ZGOW,2011-09-28 19:00,ZGOW 281900Z AUTO 07007MPS 9999 ////// 27/25 Q1006
ZGOW,2011-09-28 20:00,ZGOW 282000Z AUTO 08007MPS 9999 ////// 27/25 Q1006
ZGOW,2011-09-28 21:00,ZGOW 282100Z 09006MPS 9999 SCT020 FEW026TCU BKN050 27/24 Q1006 NOSIG
ZGOW,2011-09-28 22:00,ZGOW 282200Z 09008MPS 9999 SCT020 FEW026CB BKN043 28/25 Q1007 NOSIG
ZGOW,2011-09-28 23:00,ZGOW 282300Z 09009G15MPS 9999 FEW020 FEW028CB 28/25 Q1007 NOSIG
ZGOW,2011-09-29 00:00,ZGOW 290000Z 09009G14MPS 8000 SCT020 FEW028CB 29/25 Q1008 NOSIG
ZGOW,2011-09-29 01:00,ZGOW 290100Z 10010G16MPS 9999 SCT018 FEW028CB 29/25 Q1008 NOSIG
ZGOW,2011-09-29 02:00,ZGOW 290200Z 10009G14MPS 9999 SCT020 FEW030CB 30/26 Q1009 NOSIG
ZGOW,2011-09-29 03:00,ZGOW 290300Z 09011G16MPS 9999 SCT020 FEW030CB 31/26 Q1009 NOSIG
ZGOW,2011-09-29 04:00,ZGOW 290400Z 10009G14MPS 9999 SCT020 FEW026TCU 31/25 Q1009 NOSIG
ZGOW,2011-09-29 05:00,ZGOW 290500Z 10008G13MPS 9999 SCT014 FEW026TCU 31/26 Q1009 NOSIG
ZGOW,2011-09-29 06:00,ZGOW 290600Z 10008G13MPS 9999 SCT010 FEW026TCU 30/26 Q1009 NOSIG
ZGOW,2011-09-29 07:00,ZGOW 290700Z 10007G12MPS 9999 FEW012 FEW026TCU 30/26 Q1008 NOSIG
ZGOW,2011-09-29 08:00,ZGOW 290800Z 10007G12MPS 9999 FEW012 FEW026TCU 30/26 Q1008 NOSIG
ZGOW,2011-09-29 09:00,ZGOW 290900Z 10005MPS 9999 FEW012 FEW026TCU 29/26 Q1009 NOSIG
ZGOW,2011-09-29 10:00,ZGOW 291000Z 10005MPS 9999 FEW016 FEW030CB 28/26 Q1009 NOSIG
ZGOW,2011-09-29 11:00,ZGOW 291100Z 09005MPS 9999 SCT016 FEW030CB 28/25 Q1010 NOSIG
ZGOW,2011-09-29 12:00,ZGOW 291200Z 09004MPS 9999 FEW018 27/25 Q1010 NOSIG
ZGOW,2011-09-29 13:00,ZGOW 291300Z 09003MPS 9999 FEW020 FEW026TCU 27/25 Q1011 NOSIG
ZGOW,2011-09-29 14:00,ZGOW 291400Z 09003MPS 9999 SCT016 FEW026TCU 27/25 Q1012 NOSIG
ZGOW,2011-09-29 15:00,ZGOW 291500Z 09003MPS 9999 SCT012 FEW026TCU 27/25 Q1012 NOSIG
ZGOW,2011-09-29 16:00,ZGOW 291600Z 08003MPS 9999 FEW012 FEW026TCU 27/25 Q1012 NOSIG
ZGOW,2011-09-29 17:00,ZGOW 291700Z 08002MPS 7000 FEW010 SCT024 27/25 Q1011 NOSIG
ZGOW,2011-09-29 18:00,ZGOW 291800Z AUTO 08002MPS 5000 ////// 27/26 Q1011
ZGOW,2011-09-29 19:00,ZGOW 291900Z AUTO 08002MPS 6000 NCD 27/25 Q1011
ZGOW,2011-09-29 20:00,ZGOW 292000Z AUTO 08002MPS 6000 ////// 26/25 Q1011
ZGOW,2011-09-29 21:00,ZGOW 292100Z 08002MPS 5000 BR FEW016 FEW030CB 26/25 Q1011 NOSIG
ZGOW,2011-09-29 22:00,ZGOW 292200Z 08003MPS 5000 BR SCT014 FEW030CB 26/25 Q1011 NOSIG
ZGOW,2011-09-29 23:00,ZGOW 292300Z 08004MPS 5000 BR SCT014 FEW030CB SCT050 27/26 Q1011 NOSIG
ZGOW,2011-09-30 00:00,ZGOW 300000Z 07005MPS 6000 FEW008 FEW030CB BKN050 28/26 Q1012 NOSIG
ZGOW,2011-09-30 01:00,ZGOW 300100Z 07005MPS 8000 SCT010 FEW030CB BKN050 29/26 Q1012 NOSIG
ZGOW,2011-09-30 02:00,ZGOW 300200Z 08004MPS 9999 SCT014 FEW030CB 30/25 Q1012 NOSIG
ZGOW,2011-09-30 03:00,ZGOW 300300Z 12004MPS 9999 SCT016 31/25 Q1012 NOSIG
ZGOW,2011-09-30 04:00,ZGOW 300400Z 11005MPS 9999 SCT018 31/25 Q1012 NOSIG
ZGOW,2011-09-30 05:00,ZGOW 300500Z 11004MPS 9999 FEW024 FEW028TCU 32/25 Q1011 NOSIG
ZGOW,2011-09-30 06:00,ZGOW 300600Z 11006MPS 9999 FEW028TCU FEW028 31/24 Q1010 NOSIG
ZGOW,2011-09-30 07:00,ZGOW 300700Z 12006MPS 9999 FEW028TCU FEW028 30/25 Q1010 NOSIG
ZGOW,2011-09-30 08:00,ZGOW 300800Z 10006MPS 9999 FEW028TCU FEW028 30/25 Q1010 TEMPO 09008G13MPS
ZGOW,2011-09-30 09:00,ZGOW 300900Z 10005MPS 9999 FEW020TCU FEW020 29/25 Q1010 TEMPO 09008G13MPS
ZGOW,2011-09-30 10:00,ZGOW 301000Z 10004MPS 9999 SCT016 FEW026TCU SCT050 28/25 Q1011 NOSIG
ZGOW,2011-09-30 11:00,ZGOW 301100Z 08006MPS 9999 SCT016 FEW026TCU SCT050 28/25 Q1011 TEMPO 08008G13MPS
ZGOW,2011-09-30 12:00,ZGOW 301200Z 08008G13MPS 9999 SCT016 FEW028CB SCT050 27/24 Q1012 NOSIG
ZGOW,2011-09-30 13:00,ZGOW 301300Z 08009G14MPS 9999 SCT014 FEW028CB SCT050 27/24 Q1013 NOSIG
ZGOW,2011-09-30 14:00,ZGOW 301400Z 08009G14MPS 9999 -RA SCT014 BKN050 26/23 Q1014 NOSIG
ZGOW,2011-09-30 15:00,ZGOW 301500Z 09007G12MPS 9999 SCT018 BKN050 26/23 Q1014 NOSIG
ZGOW,2011-10-01 00:00,ZGOW 010000Z 07005MPS 9999 SCT033 27/21 Q1013 NOSIG
ZGOW,2011-10-01 01:00,ZGOW 010100Z 06005MPS 9999 SCT033 BKN050 27/21 Q1013 NOSIG
ZGOW,2011-10-01 02:00,ZGOW 010200Z 05006MPS 9999 SCT026 BKN050 27/21 Q1012 NOSIG
ZGOW,2011-10-01 03:00,ZGOW 010300Z 07005MPS 9999 SCT026 BKN050 27/20 Q1012 NOSIG
ZGOW,2011-10-01 04:00,ZGOW 010400Z 07007MPS 9999 SCT026 BKN050 27/21 Q1012 NOSIG
ZGOW,2011-10-01 05:00,ZGOW 010500Z 06005MPS 9999 SCT026 BKN050 27/21 Q1012 NOSIG
ZGOW,2011-10-01 06:00,ZGOW 010600Z 08003MPS 9999 SCT026 BKN050 27/21 Q1012 NOSIG
ZGOW,2011-10-01 07:00,ZGOW 010700Z 09005MPS 9999 SCT030 BKN050 26/21 Q1011 NOSIG
ZGOW,2011-10-01 08:00,ZGOW 010800Z 09004MPS 9999 SCT030 BKN050 26/21 Q1011 NOSIG
ZGOW,2011-10-01 09:00,ZGOW 010900Z 08005MPS 9999 SCT030 BKN050 26/21 Q1011 NOSIG
ZGOW,2011-10-01 10:00,ZGOW 011000Z 08005MPS 9999 SCT030 BKN050 26/21 Q1011 NOSIG
ZGOW,2011-10-01 11:00,ZGOW 011100Z 06005MPS 9999 SCT030 BKN050 26/20 Q1011 NOSIG
ZGOW,2011-10-01 12:00,ZGOW 011200Z 06006MPS 9999 BKN040 26/20 Q1011 NOSIG
ZGOW,2011-10-01 13:00,ZGOW 011300Z 07006MPS 9999 BKN040 26/19 Q1012 NOSIG
ZGOW,2011-10-01 14:00,ZGOW 011400Z 06005MPS 9999 FEW040 25/20 Q1012 NOSIG
ZGOW,2011-10-01 15:00,ZGOW 011500Z 05006MPS 9999 FEW040 25/19 Q1012 NOSIG
ZGOW,2011-10-01 16:00,ZGOW 011600Z 04007MPS 9999 FEW040 25/19 Q1011 NOSIG
ZGOW,2011-10-01 17:00,ZGOW 011700Z 05009MPS 9999 FEW040 25/18 Q1011 NOSIG
ZGOW,2011-10-01 18:00,ZGOW 011800Z 06008MPS 9999 FEW040 25/18 Q1011 NOSIG
ZGOW,2011-10-01 19:00,ZGOW 011900Z AUTO 05007MPS CAVOK 25/18 Q1010
ZGOW,2011-10-01 21:00,ZGOW 012100Z 03003MPS CAVOK 24/18 Q1010 NOSIG
ZGOW,2011-10-01 22:00,ZGOW 012200Z 04003MPS 9999 SCT040 23/18 Q1010 NOSIG
ZGOW,2011-10-01 23:00,ZGOW 012300Z 05004MPS 9999 SCT040 25/18 Q1010 NOSIG
ZGOW,2011-10-02 00:00,ZGOW 020000Z 05004MPS 9999 SCT040 25/18 Q1011 NOSIG
ZGOW,2011-10-02 01:00,ZGOW 020100Z 06006MPS 9999 FEW020 SCT050 26/17 Q1011 NOSIG
ZGOW,2011-10-02 02:00,ZGOW 020200Z 06005MPS 9999 FEW020 FEW033TCU 26/18 Q1012 NOSIG
ZGOW,2011-10-02 03:00,ZGOW 020300Z 06006MPS 9999 FEW020 FEW033TCU 26/17 Q1012 NOSIG
ZGOW,2011-10-02 04:00,ZGOW 020400Z 06007MPS 7000 -SHRA FEW020 FEW033TCU 24/18 Q1011 NOSIG
ZGOW,2011-10-02 05:00,ZGOW 020500Z 03005MPS 6000 -SHRA FEW020 FEW033TCU 23/20 Q1011 NOSIG
ZGOW,2011-10-02 06:00,ZGOW 020600Z 02003MPS 5000 -SHRA FEW016 FEW033TCU 22/20 Q1010 NOSIG
ZGOW,2011-10-02 07:00,ZGOW 020700Z 03003MPS 4000 -SHRA FEW020 FEW033TCU 22/20 Q1010 NOSIG
ZGOW,2011-10-02 08:00,ZGOW 020800Z 04002MPS 5000 -SHRA SCT020 FEW033TCU 22/21 Q1010 NOSIG
ZGOW,2011-10-02 09:00,ZGOW 020900Z 04005MPS 9999 BKN040 23/20 Q1010 NOSIG
ZGOW,2011-10-02 10:00,ZGOW 021000Z 03005MPS 9999 SCT040 23/19 Q1010 NOSIG
ZGOW,2011-10-02 11:00,ZGOW 021100Z 03005MPS 9999 SCT040 23/18 Q1010 NOSIG
ZGOW,2011-10-02 12:00,ZGOW 021200Z 04006MPS 9999 SCT020 BKN040 23/18 Q1011 NOSIG
ZGOW,2011-10-02 13:00,ZGOW 021300Z 06007MPS 020V090 9999 FEW020 BKN040 24/18 Q1012 NOSIG
ZGOW,2011-10-02 14:00,ZGOW 021400Z 05009G15MPS 9999 FEW020 BKN040 24/18 Q1012 NOSIG
ZGOW,2011-10-02 15:00,ZGOW 021500Z 05010G15MPS 9999 FEW020 BKN040 24/17 Q1011 NOSIG
ZGOW,2011-10-02 16:00,ZGOW 021600Z 04006MPS 9999 FEW020 BKN040 24/18 Q1011 NOSIG
ZGOW,2011-10-02 17:00,ZGOW 021700Z 06006MPS 9999 FEW020 BKN040 24/18 Q1011 NOSIG
ZGOW,2011-10-02 18:00,ZGOW 021800Z 06006MPS 9999 FEW020 BKN036 24/17 Q1011 NOSIG
ZGOW,2011-10-02 19:00,ZGOW 021900Z 06006MPS 9999 FEW020 BKN036 24/18 Q1011 NOSIG
ZGOW,2011-10-02 20:00,ZGOW 022000Z AUTO 05007MPS 9000 ////// 24/17 Q1010
ZGOW,2011-10-02 21:00,ZGOW 022100Z 05011MPS 9999 BKN040 24/17 Q1010 NOSIG
ZGOW,2011-10-02 22:00,ZGOW 022200Z 05010MPS 9999 BKN036 24/16 Q1011 NOSIG
ZGOW,2011-10-02 23:00,ZGOW 022300Z 06009G15MPS 9999 BKN036 24/17 Q1011 NOSIG
ZGOW,2011-10-03 00:00,ZGOW 030000Z 05010G15MPS 9999 SCT020 BKN040 24/16 Q1012 NOSIG
ZGOW,2011-10-03 01:00,ZGOW 030100Z 06010G15MPS 9999 BKN040 25/17 Q1012 NOSIG
ZGOW,2011-10-03 02:00,ZGOW 030200Z 06009MPS 9999 BKN040 25/16 Q1013 NOSIG
ZGOW,2011-10-03 03:00,ZGOW 030300Z 06008MPS 9999 BKN040 26/17 Q1013 NOSIG
ZGOW,2011-10-03 04:00,ZGOW 030400Z 06009MPS 9999 BKN040 25/16 Q1012 NOSIG
ZGOW,2011-10-03 05:00,ZGOW 030500Z 06010MPS 9999 BKN040 25/17 Q1012 NOSIG
ZGOW,2011-10-03 06:00,ZGOW 030600Z 06009MPS 9999 BKN040 25/16 Q1011 NOSIG
ZGOW,2011-10-03 07:00,ZGOW 030700Z 06008MPS 9999 BKN040 25/17 Q1011 NOSIG
ZGOW,2011-10-03 08:00,ZGOW 030800Z 07006MPS 9999 BKN040 25/17 Q1011 NOSIG
ZGOW,2011-10-03 09:00,ZGOW 030900Z 07007MPS 9999 BKN040 24/16 Q1011 NOSIG
ZGOW,2011-10-03 10:00,ZGOW 031000Z 05008G14MPS 9999 BKN040 24/16 Q1012 NOSIG
ZGOW,2011-10-03 11:00,ZGOW 031100Z 05010G15MPS 9999 BKN040 24/16 Q1012 NOSIG
ZGOW,2011-10-03 12:00,ZGOW 031200Z 06009G14MPS 9999 BKN040 23/16 Q1013 NOSIG
ZGOW,2011-10-03 13:00,ZGOW 031300Z 06008MPS 9999 SCT040 23/16 Q1014 NOSIG
ZGOW,2011-10-03 14:00,ZGOW 031400Z 06006MPS 9999 SCT040 23/16 Q1014 NOSIG
ZGOW,2011-10-03 15:00,ZGOW 031500Z 05006MPS 9999 SCT040 23/16 Q1014 NOSIG
ZGOW,2011-10-03 16:00,ZGOW 031600Z 06005MPS 9999 SCT040 22/16 Q1013 NOSIG
ZGOW,2011-10-03 17:00,ZGOW 031700Z 07006MPS 9999 SCT040 22/16 Q1013 NOSIG
ZGOW,2011-10-03 18:00,ZGOW 031800Z AUTO 06005MPS 9999 ////// 22/16 Q1013
ZGOW,2011-10-03 19:00,ZGOW 031900Z AUTO 06006MPS 9999 ////// 22/16 Q1012
ZGOW,2011-10-03 20:00,ZGOW 032000Z AUTO 05004MPS CAVOK 21/16 Q1012
ZGOW,2011-10-03 21:00,ZGOW 032100Z 04003MPS 9999 SCT040 21/16 Q1013 NOSIG
ZGOW,2011-10-03 22:00,ZGOW 032200Z 05002MPS 9999 BKN040 21/16 Q1014 NOSIG
ZGOW,2011-10-03 23:00,ZGOW 032300Z 03004MPS 9999 BKN050 22/16 Q1014 NOSIG
ZGOW,2011-10-04 00:00,ZGOW 040000Z 03004MPS CAVOK 23/17 Q1014 NOSIG
ZGOW,2011-10-04 01:00,ZGOW 040100Z 03004MPS CAVOK 24/17 Q1015 NOSIG
ZGOW,2011-10-04 02:00,ZGOW 040200Z 05005MPS CAVOK 26/16 Q1015 NOSIG
ZGOW,2011-10-04 03:00,ZGOW 040300Z 08005MPS CAVOK 25/17 Q1014 NOSIG
ZGOW,2011-10-04 05:00,ZGOW 040500Z 08007MPS CAVOK 26/18 Q1013 NOSIG
ZGOW,2011-10-04 06:00,ZGOW 040600Z 09007MPS CAVOK 26/18 Q1012 NOSIG
ZGOW,2011-10-04 07:00,ZGOW 040700Z 08006MPS CAVOK 26/18 Q1012 NOSIG
ZGOW,2011-10-04 08:00,ZGOW 040800Z 08007MPS 9999 BKN050 25/18 Q1012 NOSIG
ZGOW,2011-10-04 09:00,ZGOW 040900Z 08006MPS CAVOK 25/19 Q1012 NOSIG
ZGOW,2011-10-04 10:00,ZGOW 041000Z 08006MPS CAVOK 24/19 Q1012 NOSIG
ZGOW,2011-10-04 11:00,ZGOW 041100Z 08006MPS CAVOK 24/19 Q1013 NOSIG
ZGOW,2011-10-04 12:00,ZGOW 041200Z 08004MPS CAVOK 24/20 Q1014 NOSIG
ZGOW,2011-10-04 13:00,ZGOW 041300Z 08005G10MPS 9999 BKN040 24/19 Q1015 NOSIG
ZGOW,2011-10-04 14:00,ZGOW 041400Z 08006MPS CAVOK 24/19 Q1015 NOSIG
ZGOW,2011-10-04 15:00,ZGOW 041500Z 08006MPS 9999 SCT043 24/19 Q1015 NOSIG
ZGOW,2011-10-04 16:00,ZGOW 041600Z 08004MPS 9999 SCT033 24/19 Q1015 NOSIG
ZGOW,2011-10-04 17:00,ZGOW 041700Z 08005MPS 9999 SCT032 24/19 Q1014 NOSIG
ZGOW,2011-10-04 18:00,ZGOW 041800Z AUTO 06003MPS 9999 ////// 23/19 Q1014
ZGOW,2011-10-04 19:00,ZGOW 041900Z AUTO 07003MPS 9999 ////// 23/19 Q1014
ZGOW,2011-10-04 20:00,ZGOW 042000Z AUTO 02004MPS 9999 ////// 23/19 Q1014
ZGOW,2011-10-04 21:00,ZGOW 042100Z 04003MPS 9999 SCT032 23/19 Q1014 NOSIG
ZGOW,2011-10-04 22:00,ZGOW 042200Z 04003MPS CAVOK 23/19 Q1014 NOSIG
ZGOW,2011-10-04 23:00,ZGOW 042300Z 05002MPS 9999 FEW033 24/19 Q1015 NOSIG
ZGOW,2011-10-05 00:00,ZGOW 050000Z 08003MPS CAVOK 26/20 Q1015 NOSIG
ZGOW,2011-10-05 01:00,ZGOW 050100Z 06004MPS 9999 SCT026 26/19 Q1015 NOSIG
ZGOW,2011-10-05 02:00,ZGOW 050200Z 08004MPS 9999 FEW026 27/20 Q1015 NOSIG
ZGOW,2011-10-05 03:00,ZGOW 050300Z 10005MPS 9999 FEW026 28/20 Q1015 NOSIG
ZGOW,2011-10-05 04:00,ZGOW 050400Z 09005MPS 9999 SCT036 28/20 Q1015 NOSIG
ZGOW,2011-10-05 05:00,ZGOW 050500Z 12004MPS 9999 FEW024 SCT040 28/20 Q1014 NOSIG
ZGOW,2011-10-05 06:00,ZGOW 050600Z 13004MPS 9999 FEW024 SCT040 27/21 Q1013 NOSIG
ZGOW,2011-10-05 07:00,ZGOW 050700Z 09004MPS 9999 SCT043 28/20 Q1013 NOSIG
ZGOW,2011-10-05 08:00,ZGOW 050800Z 09004MPS CAVOK 27/20 Q1013 NOSIG
ZGOW,2011-10-05 09:00,ZGOW 050900Z 09004MPS 9999 FEW033 26/20 Q1013 NOSIG
ZGOW,2011-10-05 10:00,ZGOW 051000Z 08005MPS 9999 SCT033 25/20 Q1014 NOSIG
ZGOW,2011-10-05 11:00,ZGOW 051100Z 08005MPS 9999 SCT033 24/21 Q1015 NOSIG
ZGOW,2011-10-05 12:00,ZGOW 051200Z 08003MPS 9999 FEW040 24/21 Q1016 NOSIG
ZGOW,2011-10-05 13:00,ZGOW 051300Z 07004MPS 9999 FEW040 24/21 Q1016 NOSIG
ZGOW,2011-10-05 14:00,ZGOW 051400Z 08004MPS 9999 SCT030 24/21 Q1016 NOSIG
ZGOW,2011-10-05 15:00,ZGOW 051500Z 07004MPS 9999 SCT030 24/21 Q1016 NOSIG
ZGOW,2011-10-05 16:00,ZGOW 051600Z 08004MPS 9999 SCT030 24/21 Q1016 NOSIG
ZGOW,2011-10-05 17:00,ZGOW 051700Z AUTO 07004MPS 7000 ////// 24/21 Q1015
ZGOW,2011-10-05 18:00,ZGOW 051800Z AUTO 06004MPS 7000 ////// 23/21 Q1015
ZGOW,2011-10-05 19:00,ZGOW 051900Z AUTO 06004MPS 6000 ////// 24/20 Q1015
ZGOW,2011-10-05 21:00,ZGOW 052100Z 05004MPS 7000 NSC 23/20 Q1014 NOSIG
ZGOW,2011-10-05 22:00,ZGOW 052200Z 06002MPS 7000 NSC 23/20 Q1015 NOSIG
ZGOW,2011-10-05 23:00,ZGOW 052300Z 05003MPS 7000 SCT033 24/21 Q1015 NOSIG
ZGOW,2011-10-06 00:00,ZGOW 060000Z 06003MPS 8000 FEW016 25/20 Q1016 NOSIG
ZGOW,2011-10-06 01:00,ZGOW 060100Z 08004MPS 9999 SCT025 26/20 Q1016 NOSIG
ZGOW,2011-10-06 02:00,ZGOW 060200Z 06005MPS 9999 SCT022 28/21 Q1016 NOSIG
ZGOW,2011-10-06 03:00,ZGOW 060300Z 08005MPS 9999 FEW025 28/20 Q1016 NOSIG
ZGOW,2011-10-06 04:00,ZGOW 060400Z 09006MPS 9999 FEW025 28/20 Q1016 NOSIG
ZGOW,2011-10-06 05:00,ZGOW 060500Z 09005MPS 9999 FEW026 28/20 Q1015 NOSIG
ZGOW,2011-10-06 06:00,ZGOW 060600Z 09004MPS 8000 SCT040 28/20 Q1015 NOSIG
ZGOW,2011-10-06 08:00,ZGOW 060800Z 11004MPS 7000 SCT040 26/21 Q1015 NOSIG
ZGOW,2011-10-06 09:00,ZGOW 060900Z 08006MPS 6000 SCT040 25/20 Q1015 NOSIG
ZGOW,2011-10-06 10:00,ZGOW 061000Z 08005MPS 6000 NSC 25/21 Q1015 NOSIG
ZGOW,2011-10-06 11:00,ZGOW 061100Z 08006MPS 6000 NSC 25/20 Q1016 NOSIG
ZGOW,2011-10-06 12:00,ZGOW 061200Z 08006MPS 6000 NSC 24/21 Q1016 NOSIG
ZGOW,2011-10-06 13:00,ZGOW 061300Z 07006MPS 7000 NSC 24/20 Q1017 NOSIG
ZGOW,2011-10-06 14:00,ZGOW 061400Z 07006MPS 6000 NSC 24/20 Q1017 NOSIG
ZGOW,2011-10-06 15:00,ZGOW 061500Z 06007MPS 6000 NSC 24/20 Q1017 NOSIG
ZGOW,2011-10-06 16:00,ZGOW 061600Z 06005MPS 6000 NSC 24/19 Q1017 NOSIG
ZGOW,2011-10-06 17:00,ZGOW 061700Z AUTO 06002MPS 3200 // NCD 23/19 Q1016
ZGOW,2011-10-06 21:00,ZGOW 062100Z 06001MPS 3500 BR NSC 22/19 Q1015 NOSIG
ZGOW,2011-10-06 22:00,ZGOW 062200Z 06001MPS 3200 BR NSC 22/19 Q1016 NOSIG
ZGOW,2011-10-06 23:00,ZGOW 062300Z 07002MPS 3500 BR NSC 23/18 Q1016 NOSIG
ZGOW,2011-10-07 00:00,ZGOW 070000Z 07004MPS 6000 NSC 25/16 Q1017 NOSIG
ZGOW,2011-10-07 01:00,ZGOW 070100Z 07005MPS 8000 NSC 26/16 Q1018 NOSIG
ZGOW,2011-10-07 02:00,ZGOW 070200Z 08006MPS CAVOK 27/16 Q1018 NOSIG
ZGOW,2011-10-07 03:00,ZGOW 070300Z 08007MPS CAVOK 28/15 Q1018 NOSIG
ZGOW,2011-10-07 04:00,ZGOW 070400Z 09007MPS CAVOK 28/15 Q1017 NOSIG
ZGOW,2011-10-07 05:00,ZGOW 070500Z 08006MPS CAVOK 29/15 Q1016 NOSIG
ZGOW,2011-10-07 06:00,ZGOW 070600Z 09006MPS CAVOK 29/15 Q1015 NOSIG
ZGOW,2011-10-07 07:00,ZGOW 070700Z 08005MPS CAVOK 29/16 Q1014 NOSIG
ZGOW,2011-10-07 08:00,ZGOW 070800Z 08004MPS CAVOK 28/17 Q1014 NOSIG
ZGOW,2011-10-07 09:00,ZGOW 070900Z 08005MPS CAVOK 26/18 Q1014 NOSIG
ZGOW,2011-10-07 10:00,ZGOW 071000Z 09004MPS 7000 NSC 25/19 Q1015 NOSIG
ZGOW,2011-10-07 11:00,ZGOW 071100Z 09005MPS 7000 BKN043 25/20 Q1015 NOSIG
ZGOW,2011-10-07 12:00,ZGOW 071200Z 08006MPS 6000 BKN050 25/20 Q1016 NOSIG
ZGOW,2011-10-07 13:00,ZGOW 071300Z 08008MPS 7000 BKN050 24/20 Q1016 NOSIG
ZGOW,2011-10-07 14:00,ZGOW 071400Z 08008MPS 7000 SCT050 24/19 Q1016 NOSIG
ZGOW,2011-10-07 15:00,ZGOW 071500Z 07009MPS 7000 SCT050 24/19 Q1016 TEMPO 08009G15MPS
ZGOW,2011-10-07 16:00,ZGOW 071600Z 06006MPS 7000 SCT050 24/18 Q1016 NOSIG
ZGOW,2011-10-07 17:00,ZGOW 071700Z 06004MPS 9999 BKN046 23/18 Q1015 NOSIG
ZGOW,2011-10-07 18:00,ZGOW 071800Z AUTO 04004MPS 5000 NCD 23/19 Q1015
ZGOW,2011-10-07 19:00,ZGOW 071900Z AUTO 03003MPS 4300 // NCD 22/19 Q1015
ZGOW,2011-10-07 21:00,ZGOW 072100Z 35001MPS 4000 BR NSC 22/19 Q1015 NOSIG
ZGOW,2011-10-07 22:00,ZGOW 072200Z 03001MPS 4000 BR NSC 22/18 Q1015 NOSIG
ZGOW,2011-10-07 23:00,ZGOW 072300Z 17001MPS 4000 BR SKC 23/19 Q1016 NOSIG
ZGOW,2011-10-08 00:00,ZGOW 080000Z 08001MPS 3500 HZ SKC 25/19 Q1016 NOSIG
ZGOW,2011-10-08 01:00,ZGOW 080100Z 07004MPS CAVOK 27/18 Q1017 NOSIG
ZGOW,2011-10-08 02:00,ZGOW 080200Z 06004MPS CAVOK 28/17 Q1017 NOSIG
ZGOW,2011-10-08 03:00,ZGOW 080300Z 08004MPS CAVOK 29/18 Q1016 NOSIG
ZGOW,2011-10-08 04:00,ZGOW 080400Z 07004MPS CAVOK 29/18 Q1016 NOSIG
ZGOW,2011-10-08 05:00,ZGOW 080500Z 09005MPS CAVOK 30/18 Q1015 NOSIG
ZGOW,2011-10-08 06:00,ZGOW 080600Z 09006MPS CAVOK 29/19 Q1014 NOSIG
ZGOW,2011-10-08 07:00,ZGOW 080700Z 09005MPS CAVOK 29/19 Q1013 NOSIG
ZGOW,2011-10-08 08:00,ZGOW 080800Z 12002MPS CAVOK 28/20 Q1013 NOSIG
ZGOW,2011-10-08 09:00,ZGOW 080900Z 12002MPS 7000 NSC 27/21 Q1014 NOSIG
ZGOW,2011-10-08 10:00,ZGOW 081000Z 08004MPS 7000 NSC 26/20 Q1014 NOSIG
ZGOW,2011-10-08 11:00,ZGOW 081100Z 09005MPS 7000 NSC 26/20 Q1014 NOSIG
ZGOW,2011-10-08 12:00,ZGOW 081200Z 07005MPS 7000 NSC 25/20 Q1015 NOSIG
ZGOW,2011-10-08 13:00,ZGOW 081300Z 08006MPS 8000 NSC 25/20 Q1016 NOSIG
ZGOW,2011-10-08 14:00,ZGOW 081400Z 08006MPS 6000 NSC 25/20 Q1016 NOSIG
ZGOW,2011-10-08 15:00,ZGOW 081500Z 09004MPS 5000 BR NSC 24/20 Q1016 NOSIG
ZGOW,2011-10-08 16:00,ZGOW 081600Z 06002MPS 4000 BR NSC 23/20 Q1015 NOSIG
ZGOW,2011-10-08 17:00,ZGOW 081700Z 00000MPS 4000 BR NSC 23/20 Q1015 NOSIG
ZGOW,2011-10-08 21:00,ZGOW 082100Z 01001MPS 8000 NSC 23/18 Q1013 NOSIG
ZGOW,2011-10-08 22:00,ZGOW 082200Z 14001MPS 6000 NSC 22/19 Q1014 NOSIG
ZGOW,2011-10-08 23:00,ZGOW 082300Z 00000MPS 5000 BR NSC 23/19 Q1014 NOSIG
ZGOW,2011-10-09 00:00,ZGOW 090000Z 08001MPS 6000 SCT033 25/20 Q1015 NOSIG
ZGOW,2011-10-09 01:00,ZGOW 090100Z 08003MPS 8000 SCT033 27/19 Q1016 NOSIG
ZGOW,2011-10-09 02:00,ZGOW 090200Z 06004MPS 8000 SCT033 28/19 Q1015 NOSIG
ZGOW,2011-10-09 03:00,ZGOW 090300Z 09006MPS 8000 NSC 28/20 Q1015 NOSIG
ZGOW,2011-10-09 04:00,ZGOW 090400Z 08007MPS 8000 NSC 28/20 Q1014 NOSIG
ZGOW,2011-10-09 05:00,ZGOW 090500Z 08009MPS 8000 NSC 29/20 Q1013 NOSIG
ZGOW,2011-10-09 06:00,ZGOW 090600Z 09007MPS 8000 NSC 28/20 Q1012 NOSIG
ZGOW,2011-10-09 08:00,ZGOW 090800Z 08007MPS 8000 NSC 28/20 Q1012 NOSIG
ZGOW,2011-10-09 09:00,ZGOW 090900Z 08006MPS 8000 NSC 27/20 Q1012 NOSIG
ZGOW,2011-10-09 10:00,ZGOW 091000Z 08006MPS 6000 NSC 26/20 Q1012 NOSIG
ZGOW,2011-10-09 11:00,ZGOW 091100Z 08006MPS 6000 NSC 26/21 Q1013 NOSIG
ZGOW,2011-10-09 12:00,ZGOW 091200Z 08004MPS 6000 NSC 25/21 Q1013 NOSIG
ZGOW,2011-10-09 13:00,ZGOW 091300Z 08004MPS 6000 NSC 25/21 Q1014 NOSIG
ZGOW,2011-10-09 14:00,ZGOW 091400Z 08005MPS 6000 NSC 25/21 Q1014 NOSIG
ZGOW,2011-10-09 15:00,ZGOW 091500Z 08004MPS 6000 NSC 25/21 Q1014 NOSIG
ZGOW,2011-10-09 16:00,ZGOW 091600Z 08004MPS 6000 NSC 25/21 Q1014 NOSIG
ZGOW,2011-10-09 17:00,ZGOW 091700Z 07005MPS 6000 NSC 25/21 Q1014 NOSIG
ZGOW,2011-10-09 19:00,ZGOW 091900Z AUTO 07005MPS 5000 ////// 25/21 Q1013
ZGOW,2011-10-09 20:00,ZGOW 092000Z AUTO 06003MPS 4900 // ////// 25/21 Q1012
ZGOW,2011-10-09 21:00,ZGOW 092100Z 04003MPS 6000 BKN040 24/21 Q1012 NOSIG
ZGOW,2011-10-09 22:00,ZGOW 092200Z 06001MPS 6000 NSC 23/21 Q1013 NOSIG
ZGOW,2011-10-09 23:00,ZGOW 092300Z 07002MPS 6000 NSC 25/22 Q1013 NOSIG
ZGOW,2011-10-10 00:00,ZGOW 100000Z 06004MPS 6000 NSC 26/22 Q1014 NOSIG
ZGOW,2011-10-10 01:00,ZGOW 100100Z 04003MPS 7000 BKN050 27/21 Q1015 NOSIG
ZGOW,2011-10-10 02:00,ZGOW 100200Z 06005MPS 7000 BKN050 28/21 Q1015 NOSIG
ZGOW,2011-10-10 03:00,ZGOW 100300Z 06007MPS 8000 BKN050 28/21 Q1014 NOSIG
ZGOW,2011-10-10 04:00,ZGOW 100400Z 08007MPS 9999 BKN046 28/21 Q1014 NOSIG
ZGOW,2011-10-10 05:00,ZGOW 100500Z 08007MPS 9999 BKN050 28/22 Q1013 NOSIG
ZGOW,2011-10-10 06:00,ZGOW 100600Z 09006MPS 9999 BKN046 27/22 Q1012 NOSIG
ZGOW,2011-10-10 07:00,ZGOW 100700Z 09005MPS 8000 -SHRA FEW025 FEW033TCU BKN050 27/22 Q1012 NOSIG
ZGOW,2011-10-10 08:00,ZGOW 100800Z 10004MPS 9999 FEW025 FEW040CB BKN050 26/22 Q1012 NOSIG
ZGOW,2011-10-10 09:00,ZGOW 100900Z 09004MPS 9999 FEW025 FEW040TCU BKN050 26/22 Q1013 NOSIG
ZGOW,2011-10-10 10:00,ZGOW 101000Z 07007MPS 9999 FEW025 FEW040CB BKN046 26/22 Q1013 TEMPO 2100 SHRA
ZGOW,2011-10-10 11:00,ZGOW 101100Z 06002MPS 9999 -SHRA FEW025 FEW033CB BKN043 25/22 Q1014 TEMPO 2100 SHRA
ZGOW,2011-10-10 12:00,ZGOW 101200Z 12004MPS 8000 -SHRA SCT008 FEW030CB BKN040 25/23 Q1015 TEMPO 2100 SHRA
ZGOW,2011-10-10 13:00,ZGOW 101300Z 11003MPS 9999 -SHRA FEW020 FEW033TCU 24/23 Q1015 TEMPO 2100 SHRA
ZGOW,2011-10-10 14:00,ZGOW 101400Z 09003MPS 9999 -SHRA FEW016 FEW033TCU 24/23 Q1016 TEMPO 2100 SHRA
ZGOW,2011-10-10 15:00,ZGOW 101500Z 09003MPS 6000 -SHRA SCT008 FEW033TCU BKN050 24/23 Q1016 TEMPO 2100 SHRA
ZGOW,2011-10-10 16:00,ZGOW 101600Z 09002MPS 6000 -SHRA SCT014 FEW033TCU BKN050 24/24 Q1015 TEMPO 2100 SHRA
ZGOW,2011-10-10 17:00,ZGOW 101700Z 10002MPS 5000 -SHRA SCT007 FEW033TCU BKN040 24/24 Q1015 NOSIG
ZGOW,2011-10-10 18:00,ZGOW 101800Z AUTO 09002MPS 3300 // ////// 24/23 Q1014
ZGOW,2011-10-10 19:00,ZGOW 101900Z AUTO 07002MPS 4900 // ////// 24/23 Q1014
ZGOW,2011-10-10 20:00,ZGOW 102000Z AUTO 07003MPS 5000 ////// 24/23 Q1014
ZGOW,2011-10-10 21:00,ZGOW 102100Z 07006MPS 5000 SCT010 FEW033TCU BKN040 24/23 Q1014 NOSIG
ZGOW,2011-10-10 22:00,ZGOW 102200Z 07004MPS 4000 BR SCT010 FEW033TCU BKN040 24/23 Q1014 NOSIG
ZGOW,2011-10-10 23:00,ZGOW 102300Z 08003MPS 7000 -SHRA SCT010 FEW033TCU BKN040 24/23 Q1015 NOSIG
ZGOW,2011-10-11 00:00,ZGOW 110000Z 08004MPS 7000 -SHRA SCT010 FEW033TCU BKN040 25/23 Q1015 TEMPO 2100 SHRA
ZGOW,2011-10-11 01:00,ZGOW 110100Z 07006MPS 7000 SCT010 FEW026TCU BKN046 25/23 Q1016 TEMPO 2100 SHRA
ZGOW,2011-10-11 02:00,ZGOW 110200Z 08005MPS 9999 SCT014 BKN046 26/24 Q1016 NOSIG
ZGOW,2011-10-11 03:00,ZGOW 110300Z 09005MPS 9999 SCT016 BKN040 26/23 Q1016 NOSIG
ZGOW,2011-10-11 04:00,ZGOW 110400Z 08006MPS 9999 FEW020 BKN040 27/23 Q1015 NOSIG
ZGOW,2011-10-11 05:00,ZGOW 110500Z 10006MPS 9999 BKN040 28/23 Q1014 NOSIG
ZGOW,2011-10-11 06:00,ZGOW 110600Z 09006MPS 9999 FEW030CB BKN046 27/22 Q1014 NOSIG
ZGOW,2011-10-11 07:00,ZGOW 110700Z 10004MPS 9999 FEW030CB BKN050 27/23 Q1013 NOSIG
ZGOW,2011-10-11 08:00,ZGOW 110800Z 08007MPS 9999 FEW030TCU BKN050 27/22 Q1013 NOSIG
ZGOW,2011-10-11 09:00,ZGOW 110900Z 08007MPS 9999 FEW030TCU BKN050 26/22 Q1013 TEMPO 08008G13MPS
ZGOW,2011-10-11 10:00,ZGOW 111000Z 08007G12MPS 9999 BKN050 26/23 Q1013 NOSIG
ZGOW,2011-10-11 11:00,ZGOW 111100Z 08006MPS 9999 SCT014 BKN046 25/23 Q1014 NOSIG
ZGOW,2011-10-11 13:00,ZGOW 111300Z 08007MPS 9999 FEW016 BKN046 25/23 Q1016 TEMPO 08008G13MPS
ZGOW,2011-10-11 14:00,ZGOW 111400Z 08005MPS 9999 SCT016 BKN046 25/23 Q1016 TEMPO 08008G13MPS
ZGOW,2011-10-11 15:00,ZGOW 111500Z 08006MPS 9999 SCT016 BKN046 25/23 Q1016 NOSIG
ZGOW,2011-10-11 16:00,ZGOW 111600Z 09006MPS 9999 SCT018 BKN050 25/22 Q1016 NOSIG
ZGOW,2011-10-11 17:00,ZGOW 111700Z AUTO 09005MPS 9000 ////// 24/22 Q1015
ZGOW,2011-10-11 18:00,ZGOW 111800Z AUTO 09005MPS 9999 ////// 25/22 Q1015
ZGOW,2011-10-11 19:00,ZGOW 111900Z AUTO 08005MPS 9000 ////// 25/22 Q1014
ZGOW,2011-10-11 20:00,ZGOW 112000Z AUTO 09003MPS 9000 ////// 25/22 Q1014
ZGOW,2011-10-11 21:00,ZGOW 112100Z 08005MPS 9999 SCT033 25/22 Q1014 NOSIG
ZGOW,2011-10-11 22:00,ZGOW 112200Z 08005MPS 9999 SCT024 BKN050 24/22 Q1014 NOSIG
ZGOW,2011-10-11 23:00,ZGOW 112300Z 07005MPS 9999 SCT020 BKN043 24/22 Q1015 NOSIG
ZGOW,2011-10-12 00:00,ZGOW 120000Z 06006MPS 9999 BKN040 25/22 Q1015 NOSIG
ZGOW,2011-10-12 01:00,ZGOW 120100Z 06006MPS 9999 SCT040 26/23 Q1015 NOSIG
ZGOW,2011-10-12 02:00,ZGOW 120200Z 07006MPS 9999 SCT040 27/23 Q1015 NOSIG
ZGOW,2011-10-12 03:00,ZGOW 120300Z 07007MPS 9999 SCT040 27/22 Q1014 NOSIG
ZGOW,2011-10-12 04:00,ZGOW 120400Z 08005MPS 9999 SCT040 27/22 Q1014 NOSIG
ZGOW,2011-10-12 05:00,ZGOW 120500Z 09006MPS 9999 SCT040 28/23 Q1013 NOSIG
ZGOW,2011-10-12 06:00,ZGOW 120600Z 08005MPS 9999 SCT040 27/23 Q1012 NOSIG
ZGOW,2011-10-12 07:00,ZGOW 120700Z 10003MPS 5000 -SHRA FEW033CB BKN040 25/23 Q1012 NOSIG
ZGOW,2011-10-12 08:00,ZGOW 120800Z 10004MPS 9999 FEW020 BKN040 26/23 Q1012 NOSIG
ZGOW,2011-10-12 09:00,ZGOW 120900Z 09004MPS 9999 FEW020 BKN040 25/22 Q1012 NOSIG
ZGOW,2011-10-12 10:00,ZGOW 121000Z 08004MPS 9999 FEW020 BKN040 25/23 Q1012 NOSIG
ZGOW,2011-10-12 11:00,ZGOW 121100Z 08004MPS 9999 -SHRA FEW030CB BKN040 24/23 Q1013 TEMPO 3000 -SHRA SCT012 FEW030CB BKN033
ZGOW,2011-10-12 12:00,ZGOW 121200Z 08003MPS 9999 -SHRA FEW030CB BKN040 24/23 Q1013 TEMPO 3000 -SHRA SCT012 FEW030CB BKN033
ZGOW,2011-10-12 13:00,ZGOW 121300Z 08003MPS 9999 BKN040 24/23 Q1013 NOSIG
ZGOW,2011-10-12 14:00,ZGOW 121400Z 07003MPS 9999 BKN040 24/23 Q1014 NOSIG
ZGOW,2011-10-12 15:00,ZGOW 121500Z 08004MPS 9999 BKN040 24/23 Q1013 NOSIG
ZGOW,2011-10-12 16:00,ZGOW 121600Z 08003MPS 9999 BKN040 24/23 Q1013 NOSIG
ZGOW,2011-10-12 17:00,ZGOW 121700Z 08004MPS 9999 BKN040 24/22 Q1013 NOSIG
ZGOW,2011-10-12 18:00,ZGOW 121800Z AUTO 09003MPS 6000 ////// 24/22 Q1012
ZGOW,2011-10-12 19:00,ZGOW 121900Z AUTO 09003MPS 5000 ////// 24/22 Q1012
ZGOW,2011-10-12 20:00,ZGOW 122000Z AUTO 09002MPS 6000 ////// 24/22 Q1012
ZGOW,2011-10-12 21:00,ZGOW 122100Z 11002MPS 9999 BKN040 24/22 Q1012 NOSIG
ZGOW,2011-10-12 22:00,ZGOW 122200Z 07002MPS 9999 BKN040 24/22 Q1012 NOSIG
ZGOW,2011-10-12 23:00,ZGOW 122300Z 08005MPS 9999 BKN040 25/22 Q1012 NOSIG
ZGOW,2011-10-13 00:00,ZGOW 130000Z 06006MPS 9999 FEW014 FEW033CB BKN040 25/22 Q1013 NOSIG
ZGOW,2011-10-13 01:00,ZGOW 130100Z 07005MPS 8000 -SHRA FEW020 FEW033TCU BKN040 25/23 Q1013 NOSIG
ZGOW,2011-10-13 02:00,ZGOW 130200Z 06005MPS 9999 FEW023 FEW033TCU BKN050 25/23 Q1013 NOSIG
ZGOW,2011-10-13 03:00,ZGOW 130300Z 05006MPS 9999 SCT025 BKN050 26/23 Q1013 NOSIG
ZGOW,2011-10-13 04:00,ZGOW 130400Z 05004MPS 7000 -SHRA SCT012 FEW033TCU BKN050 26/24 Q1012 NOSIG
ZGOW,2011-10-13 05:00,ZGOW 130500Z 07003MPS 9999 FEW016 FEW040TCU 26/23 Q1011 NOSIG
ZGOW,2011-10-13 06:00,ZGOW 130600Z 07003MPS 7000 -SHRA FEW016 FEW040TCU BKN050 26/23 Q1011 NOSIG
ZGOW,2011-10-13 07:00,ZGOW 130700Z 06004MPS 8000 SCT016 FEW040TCU BKN050 27/23 Q1010 NOSIG
ZGOW,2011-10-13 08:00,ZGOW 130800Z 08003MPS 7000 SCT020 BKN050 26/23 Q1010 NOSIG
ZGOW,2011-10-13 09:00,ZGOW 130900Z 08003MPS 6000 FEW025 26/22 Q1010 NOSIG
ZGOW,2011-10-13 10:00,ZGOW 131000Z 12001MPS 7000 SCT026 BKN050 25/23 Q1010 NOSIG
ZGOW,2011-10-13 11:00,ZGOW 131100Z 06003MPS 6000 FEW020 FEW033TCU 25/23 Q1010 NOSIG
ZGOW,2011-10-13 12:00,ZGOW 131200Z 06001MPS 8000 FEW023 FEW033TCU 25/22 Q1011 NOSIG
ZGOW,2011-10-13 13:00,ZGOW 131300Z 08002MPS 7000 SCT026 25/23 Q1011 NOSIG
ZGOW,2011-10-13 14:00,ZGOW 131400Z 07003MPS 6000 SCT026 25/22 Q1011 NOSIG
ZGOW,2011-10-13 15:00,ZGOW 131500Z 06002MPS 5000 BR FEW026 24/23 Q1012 NOSIG
ZGOW,2011-10-13 16:00,ZGOW 131600Z 08003MPS 4000 BR SCT026 24/23 Q1011 NOSIG
ZGOW,2011-10-13 17:00,ZGOW 131700Z 06003MPS 4000 BR SCT026 24/23 Q1011 NOSIG
ZGOW,2011-10-13 18:00,ZGOW 131800Z 08002MPS 6000 NSC 24/22 Q1011 NOSIG
ZGOW,2011-10-13 19:00,ZGOW 131900Z AUTO 05002MPS 3700 // ////// 24/22 Q1011
ZGOW,2011-10-13 20:00,ZGOW 132000Z AUTO 04001MPS 3300 // ////// 23/22 Q1011
ZGOW,2011-10-13 21:00,ZGOW 132100Z 06002MPS 6000 SCT025 BKN050 24/23 Q1011 NOSIG
ZGOW,2011-10-13 23:00,ZGOW 132300Z 04002MPS 5000 BR NSC 25/23 Q1011 NOSIG
ZGOW,2011-10-14 00:00,ZGOW 140000Z 02003MPS 6000 NSC 26/23 Q1011 NOSIG
ZGOW,2011-10-14 01:00,ZGOW 140100Z 05002MPS 6000 FEW026 28/23 Q1011 NOSIG
ZGOW,2011-10-14 02:00,ZGOW 140200Z 09002MPS 6000 SCT020 29/23 Q1011 NOSIG
ZGOW,2011-10-14 03:00,ZGOW 140300Z 08003MPS 7000 FEW020TCU SCT020 29/23 Q1011 NOSIG
ZGOW,2011-10-14 04:00,ZGOW 140400Z 07002MPS 8000 FEW024TCU SCT024 29/23 Q1010 NOSIG
ZGOW,2011-10-14 05:00,ZGOW 140500Z 01001MPS 9999 FEW028TCU FEW028 31/22 Q1009 NOSIG
ZGOW,2011-10-14 06:00,ZGOW 140600Z 12002MPS 9999 FEW028TCU FEW028 31/22 Q1008 NOSIG
ZGOW,2011-10-14 07:00,ZGOW 140700Z 12005MPS 9999 FEW028 FEW030CB 29/22 Q1009 NOSIG
ZGOW,2011-10-14 08:00,ZGOW 140800Z 13005MPS 8000 FEW028 FEW030CB 27/22 Q1009 NOSIG
ZGOW,2011-10-14 09:00,ZGOW 140900Z 12003MPS 5000 BR SCT020 FEW030CB 27/23 Q1009 NOSIG
ZGOW,2011-10-14 10:00,ZGOW 141000Z 10003MPS 6000 SCT018 FEW030CB BKN040 26/23 Q1009 NOSIG
ZGOW,2011-10-14 11:00,ZGOW 141100Z 10002MPS 6000 SCT018 FEW028TCU BKN040 25/23 Q1010 NOSIG
ZGOW,2011-10-14 12:00,ZGOW 141200Z 09002MPS 7000 FEW024TCU BKN024 26/22 Q1011 NOSIG
ZGOW,2011-10-14 13:00,ZGOW 141300Z 07003MPS 8000 FEW024TCU BKN030 25/23 Q1012 NOSIG
ZGOW,2011-10-14 14:00,ZGOW 141400Z 08002MPS 8000 FEW016 FEW024TCU BKN050 25/23 Q1012 NOSIG
ZGOW,2011-10-14 15:00,ZGOW 141500Z 06003MPS 7000 FEW020 FEW024TCU BKN050 25/23 Q1012 NOSIG
ZGOW,2011-10-14 16:00,ZGOW 141600Z 04003MPS 7000 SCT016 FEW024TCU BKN050 25/23 Q1012 NOSIG
ZGOW,2011-10-14 17:00,ZGOW 141700Z 34002MPS 6000 -SHRA SCT014 FEW024TCU BKN050 24/23 Q1012 NOSIG
ZGOW,2011-10-14 18:00,ZGOW 141800Z AUTO 33003MPS 6000 ////// 24/22 Q1011
ZGOW,2011-10-14 19:00,ZGOW 141900Z AUTO 34002MPS 7000 ////// 24/21 Q1011
ZGOW,2011-10-14 20:00,ZGOW 142000Z AUTO 34003MPS 7000 ////// 24/21 Q1011
ZGOW,2011-10-14 21:00,ZGOW 142100Z 34002MPS 8000 BKN024 23/21 Q1011 NOSIG
ZGOW,2011-10-14 22:00,ZGOW 142200Z 33004MPS 8000 FEW016 BKN028 23/20 Q1012 NOSIG
ZGOW,2011-10-14 23:00,ZGOW 142300Z 34003MPS 7000 BKN036 24/20 Q1012 NOSIG
ZGOW,2011-10-15 00:00,ZGOW 150000Z 35002MPS 9999 SCT020 BKN036 24/20 Q1013 NOSIG
ZGOW,2011-10-15 01:00,ZGOW 150100Z 35002MPS 9999 SCT020 BKN036 24/21 Q1014 NOSIG
ZGOW,2011-10-15 02:00,ZGOW 150200Z 35001MPS 7000 -RA SCT010 SCT022 OVC040 23/21 Q1014 NOSIG
ZGOW,2011-10-15 03:00,ZGOW 150300Z 34003MPS 3500 -RA FEW007 SCT016 OVC033 23/21 Q1014 TEMPO 2500 -RA
ZGOW,2011-10-15 04:00,ZGOW 150400Z 30002MPS 4000 BR SCT009 SCT020 OVC036 23/22 Q1013 TEMPO 2500 -RA
ZGOW,2011-10-15 05:00,ZGOW 150500Z 28001MPS 1800 R04/1400V1800U RA SCT006 SCT016 OVC033 22/21 Q1013 TEMPO 1500 RA SCT006 OVC030
ZGOW,2011-10-15 06:00,ZGOW 150600Z 31001MPS 4000 BR FEW010 SCT020 BKN040 24/22 Q1012 RERA NOSIG
ZGOW,2011-10-15 07:00,ZGOW 150700Z 06003MPS 7000 BKN046 26/22 Q1011 NOSIG
ZGOW,2011-10-15 08:00,ZGOW 150800Z 07002MPS 7000 BKN050 26/21 Q1012 NOSIG
ZGOW,2011-10-15 09:00,ZGOW 150900Z 10003MPS 7000 BKN040 25/21 Q1012 NOSIG
ZGOW,2011-10-15 10:00,ZGOW 151000Z 09001MPS 6000 BKN040 25/21 Q1012 NOSIG
ZGOW,2011-10-15 11:00,ZGOW 151100Z 07003MPS 6000 BKN040 25/21 Q1013 NOSIG
ZGOW,2011-10-15 12:00,ZGOW 151200Z 07003MPS 6000 BKN040 24/20 Q1014 NOSIG
ZGOW,2011-10-15 13:00,ZGOW 151300Z 08004MPS 9999 BKN036 24/18 Q1014 NOSIG
ZGOW,2011-10-15 14:00,ZGOW 151400Z 08003MPS 9999 BKN033 24/19 Q1014 NOSIG
ZGOW,2011-10-15 15:00,ZGOW 151500Z 04003MPS 9999 BKN033 24/20 Q1014 NOSIG
ZGOW,2011-10-15 16:00,ZGOW 151600Z 04001MPS 9999 BKN040 24/20 Q1014 NOSIG
ZGOW,2011-10-15 17:00,ZGOW 151700Z 04002MPS 9999 SCT040 22/20 Q1014 NOSIG
ZGOW,2011-10-15 21:00,ZGOW 152100Z 04003MPS 7000 NSC 21/19 Q1013 NOSIG
ZGOW,2011-10-15 22:00,ZGOW 152200Z 36001MPS 6000 NSC 21/19 Q1014 NOSIG
ZGOW,2011-10-15 23:00,ZGOW 152300Z 34002MPS 5000 BR NSC 22/20 Q1015 NOSIG
ZGOW,2011-10-16 00:00,ZGOW 160000Z 32003MPS 8000 NSC 23/19 Q1016 NOSIG
ZGOW,2011-10-16 01:00,ZGOW 160100Z 31003MPS CAVOK 25/18 Q1016 NOSIG
ZGOW,2011-10-16 02:00,ZGOW 160200Z 35003MPS CAVOK 28/16 Q1016 NOSIG
ZGOW,2011-10-16 03:00,ZGOW 160300Z 02005MPS CAVOK 30/12 Q1015 NOSIG
ZGOW,2011-10-16 04:00,ZGOW 160400Z 07006MPS CAVOK 30/11 Q1014 NOSIG
ZGOW,2011-10-16 05:00,ZGOW 160500Z 05004MPS CAVOK 30/12 Q1013 NOSIG
ZGOW,2011-10-16 06:00,ZGOW 160600Z 09003MPS CAVOK 30/12 Q1012 NOSIG
ZGOW,2011-10-16 07:00,ZGOW 160700Z 12004MPS CAVOK 28/17 Q1012 NOSIG
ZGOW,2011-10-16 08:00,ZGOW 160800Z 12005MPS CAVOK 27/19 Q1012 NOSIG
ZGOW,2011-10-16 09:00,ZGOW 160900Z 10004MPS CAVOK 26/19 Q1013 NOSIG
ZGOW,2011-10-16 10:00,ZGOW 161000Z 09005MPS 7000 NSC 25/18 Q1013 NOSIG
ZGOW,2011-10-16 11:00,ZGOW 161100Z 09004MPS 7000 NSC 24/19 Q1014 NOSIG
ZGOW,2011-10-16 12:00,ZGOW 161200Z 08006MPS 7000 NSC 24/19 Q1015 NOSIG
ZGOW,2011-10-16 13:00,ZGOW 161300Z 07006MPS 7000 NSC 24/19 Q1015 NOSIG
ZGOW,2011-10-16 14:00,ZGOW 161400Z 07006MPS 7000 NSC 24/20 Q1015 NOSIG
ZGOW,2011-10-16 15:00,ZGOW 161500Z 06003MPS 7000 NSC 23/19 Q1015 NOSIG
ZGOW,2011-10-16 16:00,ZGOW 161600Z 07002MPS 7000 NSC 22/18 Q1015 NOSIG
ZGOW,2011-10-16 17:00,ZGOW 161700Z 36002MPS 7000 NSC 22/19 Q1015 NOSIG
ZGOW,2011-10-16 21:00,ZGOW 162100Z 00000MPS 4000 BR SKC 21/18 Q1015 NOSIG
ZGOW,2011-10-16 22:00,ZGOW 162200Z 02001MPS 2500 BR SKC 21/18 Q1016 NOSIG
ZGOW,2011-10-16 23:00,ZGOW 162300Z 35001MPS 2800 BR SKC 21/19 Q1017 BECMG 3500 BR
ZGOW,2011-10-17 00:00,ZGOW 170000Z 02002MPS 4000 HZ SKC 23/18 Q1017 NOSIG
ZGOW,2011-10-17 01:00,ZGOW 170100Z 03002MPS 5000 HZ SKC 25/16 Q1018 NOSIG
ZGOW,2011-10-17 02:00,ZGOW 170200Z 08002MPS 6000 NSC 26/17 Q1017 NOSIG
ZGOW,2011-10-17 03:00,ZGOW 170300Z 08003MPS 7000 NSC 26/17 Q1017 NOSIG
ZGOW,2011-10-17 04:00,ZGOW 170400Z 09003MPS 7000 NSC 28/17 Q1016 NOSIG
ZGOW,2011-10-17 05:00,ZGOW 170500Z 09003MPS CAVOK 28/16 Q1016 NOSIG
ZGOW,2011-10-17 06:00,ZGOW 170600Z 13005MPS CAVOK 27/18 Q1015 NOSIG
ZGOW,2011-10-17 07:00,ZGOW 170700Z 12006MPS CAVOK 26/18 Q1015 NOSIG
ZGOW,2011-10-17 08:00,ZGOW 170800Z 11005MPS CAVOK 26/18 Q1015 NOSIG
ZGOW,2011-10-17 09:00,ZGOW 170900Z 08004MPS 7000 SKC 25/17 Q1016 NOSIG
ZGOW,2011-10-17 10:00,ZGOW 171000Z 08004MPS 6000 SKC 24/18 Q1016 NOSIG
ZGOW,2011-10-17 11:00,ZGOW 171100Z 08004MPS 7000 NSC 23/18 Q1016 NOSIG
ZGOW,2011-10-17 12:00,ZGOW 171200Z 08006MPS 6000 NSC 23/18 Q1017 NOSIG
ZGOW,2011-10-17 13:00,ZGOW 171300Z 08005MPS 6000 NSC 23/18 Q1017 NOSIG
ZGOW,2011-10-17 14:00,ZGOW 171400Z 08004MPS 7000 NSC 23/18 Q1018 NOSIG
ZGOW,2011-10-17 15:00,ZGOW 171500Z 09005MPS 7000 NSC 23/16 Q1018 NOSIG
ZGOW,2011-10-17 16:00,ZGOW 171600Z 06002MPS 5000 BR NSC 21/17 Q1018 NOSIG
ZGOW,2011-10-17 17:00,ZGOW 171700Z 02002MPS 4000 BR NSC 20/17 Q1017 NOSIG
ZGOW,2011-10-17 19:00,ZGOW 171900Z AUTO 05001MPS 3100 // NCD 20/17 Q1017
ZGOW,2011-10-17 21:00,ZGOW 172100Z 05002MPS 5000 HZ NSC 19/14 Q1017 NOSIG
ZGOW,2011-10-17 22:00,ZGOW 172200Z 05002MPS 5000 HZ NSC 19/14 Q1018 NOSIG
ZGOW,2011-10-17 23:00,ZGOW 172300Z 02002MPS 6000 SKC 20/14 Q1018 NOSIG
ZGOW,2011-10-18 00:00,ZGOW 180000Z 03003MPS 6000 SKC 23/14 Q1019 NOSIG
ZGOW,2011-10-18 01:00,ZGOW 180100Z 05005MPS 7000 SKC 25/13 Q1019 NOSIG
ZGOW,2011-10-18 02:00,ZGOW 180200Z 04005MPS 9000 SKC 26/12 Q1019 NOSIG
ZGOW,2011-10-18 03:00,ZGOW 180300Z 05005MPS 010V090 CAVOK 27/13 Q1019 NOSIG
ZGOW,2011-10-18 04:00,ZGOW 180400Z 05005MPS CAVOK 27/13 Q1018 NOSIG
ZGOW,2011-10-18 05:00,ZGOW 180500Z 09006MPS CAVOK 28/15 Q1017 NOSIG
ZGOW,2011-10-18 06:00,ZGOW 180600Z 08006MPS CAVOK 28/13 Q1016 NOSIG
ZGOW,2011-10-18 07:00,ZGOW 180700Z 08005MPS 8000 NSC 28/13 Q1016 NOSIG
ZGOW,2011-10-18 08:00,ZGOW 180800Z 09007MPS 7000 NSC 26/15 Q1016 NOSIG
ZGOW,2011-10-18 09:00,ZGOW 180900Z 09008MPS 050V120 8000 SKC 25/17 Q1016 NOSIG
ZGOW,2011-10-18 10:00,ZGOW 181000Z 09007MPS 6000 SKC 24/17 Q1016 NOSIG
ZGOW,2011-10-18 11:00,ZGOW 181100Z 08007MPS 7000 SKC 23/17 Q1017 NOSIG
ZGOW,2011-10-18 12:00,ZGOW 181200Z 08008G13MPS 7000 SKC 23/17 Q1017 NOSIG
ZGOW,2011-10-18 13:00,ZGOW 181300Z 08008G13MPS CAVOK 23/17 Q1018 NOSIG
ZGOW,2011-10-18 14:00,ZGOW 181400Z 08007MPS CAVOK 23/16 Q1018 NOSIG
ZGOW,2011-10-18 15:00,ZGOW 181500Z 07006MPS CAVOK 22/16 Q1017 NOSIG
ZGOW,2011-10-18 16:00,ZGOW 181600Z 05005MPS CAVOK 21/15 Q1017 NOSIG
ZGOW,2011-10-18 17:00,ZGOW 181700Z 04004MPS 7000 SKC 21/14 Q1017 NOSIG
ZGOW,2011-10-18 19:00,ZGOW 181900Z AUTO 04002MPS 3600 // NCD 19/14 Q1017
ZGOW,2011-10-18 21:00,ZGOW 182100Z 02001MPS 6000 SKC 18/13 Q1017 NOSIG
ZGOW,2011-10-18 22:00,ZGOW 182200Z 05001MPS 5000 BR NSC 18/13 Q1017 NOSIG
ZGOW,2011-10-18 23:00,ZGOW 182300Z 36002MPS 6000 NSC 20/13 Q1018 NOSIG
ZGOW,2011-10-19 00:00,ZGOW 190000Z 02004MPS CAVOK 22/12 Q1019 NOSIG
ZGOW,2011-10-19 01:00,ZGOW 190100Z 04006MPS CAVOK 24/12 Q1019 NOSIG
ZGOW,2011-10-19 02:00,ZGOW 190200Z 06005MPS CAVOK 25/12 Q1018 NOSIG
ZGOW,2011-10-19 03:00,ZGOW 190300Z 07005MPS CAVOK 26/14 Q1018 NOSIG
ZGOW,2011-10-19 04:00,ZGOW 190400Z 09006MPS CAVOK 25/14 Q1017 NOSIG
ZGOW,2011-10-19 05:00,ZGOW 190500Z 09005MPS CAVOK 26/14 Q1016 NOSIG
ZGOW,2011-10-19 06:00,ZGOW 190600Z 08005MPS CAVOK 26/13 Q1015 NOSIG
ZGOW,2011-10-19 07:00,ZGOW 190700Z 08006MPS CAVOK 26/13 Q1015 NOSIG
ZGOW,2011-10-19 08:00,ZGOW 190800Z 08006MPS CAVOK 25/14 Q1015 NOSIG
ZGOW,2011-10-19 09:00,ZGOW 190900Z 08005MPS CAVOK 23/15 Q1015 NOSIG
ZGOW,2011-10-19 10:00,ZGOW 191000Z 08005MPS CAVOK 22/16 Q1015 NOSIG
ZGOW,2011-10-19 11:00,ZGOW 191100Z 08006MPS CAVOK 22/16 Q1016 NOSIG
ZGOW,2011-10-19 12:00,ZGOW 191200Z 07006MPS CAVOK 22/16 Q1016 NOSIG
ZGOW,2011-10-19 13:00,ZGOW 191300Z 07007MPS CAVOK 22/16 Q1017 NOSIG
ZGOW,2011-10-19 14:00,ZGOW 191400Z 07006MPS CAVOK 22/16 Q1017 NOSIG
ZGOW,2011-10-19 15:00,ZGOW 191500Z 06005MPS CAVOK 21/15 Q1017 NOSIG
ZGOW,2011-10-19 16:00,ZGOW 191600Z 07005MPS CAVOK 21/14 Q1017 NOSIG
ZGOW,2011-10-19 17:00,ZGOW 191700Z AUTO 02002MPS 7000 NCD 19/14 Q1017
ZGOW,2011-10-19 19:00,ZGOW 191900Z AUTO 01002MPS 6000 NCD 19/14 Q1016
ZGOW,2011-10-19 20:00,ZGOW 192000Z 36001MPS 7000 SKC 19/14 Q1016 NOSIG
ZGOW,2011-10-19 21:00,ZGOW 192100Z 35001MPS 7000 SKC 19/13 Q1016 NOSIG
ZGOW,2011-10-19 22:00,ZGOW 192200Z 33002MPS 7000 NSC 18/14 Q1016 NOSIG
ZGOW,2011-10-19 23:00,ZGOW 192300Z 32002MPS 6000 NSC 19/16 Q1017 NOSIG
ZGOW,2011-10-20 00:00,ZGOW 200000Z 34002MPS CAVOK 21/16 Q1017 NOSIG
ZGOW,2011-10-20 01:00,ZGOW 200100Z 01001MPS CAVOK 23/15 Q1017 NOSIG
ZGOW,2011-10-20 02:00,ZGOW 200200Z 02002MPS CAVOK 25/15 Q1017 NOSIG
ZGOW,2011-10-20 03:00,ZGOW 200300Z 05004MPS CAVOK 25/16 Q1016 NOSIG
ZGOW,2011-10-20 04:00,ZGOW 200400Z 07005MPS CAVOK 27/16 Q1015 NOSIG
ZGOW,2011-10-20 05:00,ZGOW 200500Z 06004MPS CAVOK 28/15 Q1014 NOSIG
ZGOW,2011-10-20 06:00,ZGOW 200600Z 08003MPS 9999 FEW030 28/16 Q1014 NOSIG
ZGOW,2011-10-20 07:00,ZGOW 200700Z 12004MPS CAVOK 27/18 Q1014 NOSIG
ZGOW,2011-10-20 08:00,ZGOW 200800Z 12003MPS CAVOK 26/18 Q1014 NOSIG
ZGOW,2011-10-20 09:00,ZGOW 200900Z 11003MPS CAVOK 25/19 Q1014 NOSIG
ZGOW,2011-10-20 10:00,ZGOW 201000Z 08003MPS CAVOK 24/18 Q1014 NOSIG
ZGOW,2011-10-20 11:00,ZGOW 201100Z 09003MPS CAVOK 23/19 Q1014 NOSIG
ZGOW,2011-10-20 12:00,ZGOW 201200Z 08004MPS 7000 NSC 23/19 Q1015 NOSIG
ZGOW,2011-10-20 13:00,ZGOW 201300Z 07003MPS 6000 NSC 23/19 Q1016 NOSIG
ZGOW,2011-10-20 14:00,ZGOW 201400Z 00000MPS 5000 BR NSC 22/19 Q1016 NOSIG
ZGOW,2011-10-20 15:00,ZGOW 201500Z 08003MPS 5000 BR NSC 22/19 Q1016 NOSIG
ZGOW,2011-10-20 16:00,ZGOW 201600Z 06002MPS 3500 BR NSC 20/19 Q1015 NOSIG
ZGOW,2011-10-20 17:00,ZGOW 201700Z AUTO 03002MPS 2300 // NCD 20/18 Q1015
ZGOW,2011-10-20 19:00,ZGOW 201900Z AUTO 32002MPS 3100 // ////// 21/18 Q1014
ZGOW,2011-10-20 20:00,ZGOW 202000Z AUTO 32003MPS 3200 // ////// 21/19 Q1014
ZGOW,2011-10-20 21:00,ZGOW 202100Z 32002MPS 4000 BR SCT033 21/19 Q1014 NOSIG
ZGOW,2011-10-20 22:00,ZGOW 202200Z 34002MPS 5000 BR SCT033 21/18 Q1015 NOSIG
ZGOW,2011-10-20 23:00,ZGOW 202300Z 32003MPS 5000 BR SCT040 21/18 Q1015 NOSIG
ZGOW,2011-10-21 00:00,ZGOW 210000Z 32004MPS 6000 SCT040 22/17 Q1016 NOSIG
ZGOW,2011-10-21 01:00,ZGOW 210100Z 32003MPS 7000 NSC 24/17 Q1016 NOSIG
ZGOW,2011-10-21 02:00,ZGOW 210200Z 32003MPS 8000 NSC 26/18 Q1016 NOSIG
ZGOW,2011-10-21 03:00,ZGOW 210300Z 08003MPS 9999 FEW033 28/18 Q1015 NOSIG
ZGOW,2011-10-21 04:00,ZGOW 210400Z 09005MPS 9999 FEW033 29/18 Q1014 NOSIG
ZGOW,2011-10-21 05:00,ZGOW 210500Z 13003MPS 9999 FEW033 29/19 Q1014 NOSIG
ZGOW,2011-10-21 06:00,ZGOW 210600Z 14003MPS CAVOK 28/19 Q1013 NOSIG
ZGOW,2011-10-21 07:00,ZGOW 210700Z 13004MPS 9999 FEW033 28/20 Q1013 NOSIG
ZGOW,2011-10-21 08:00,ZGOW 210800Z 12004MPS 7000 FEW033 26/20 Q1012 NOSIG
ZGOW,2011-10-21 09:00,ZGOW 210900Z 13004MPS 7000 FEW033 25/20 Q1013 NOSIG
ZGOW,2011-10-21 10:00,ZGOW 211000Z 13002MPS 6000 FEW033 24/20 Q1013 NOSIG
ZGOW,2011-10-21 11:00,ZGOW 211100Z 13002MPS 6000 SKC 24/20 Q1014 NOSIG
ZGOW,2011-10-21 12:00,ZGOW 211200Z 13002MPS 6000 SKC 23/20 Q1014 NOSIG
ZGOW,2011-10-21 13:00,ZGOW 211300Z 09001MPS 6000 SKC 23/20 Q1015 NOSIG
ZGOW,2011-10-21 14:00,ZGOW 211400Z 07002MPS 6000 SKC 22/19 Q1015 NOSIG
ZGOW,2011-10-21 15:00,ZGOW 211500Z 06002MPS 5000 BR SKC 22/20 Q1015 NOSIG
ZGOW,2011-10-21 16:00,ZGOW 211600Z 07003MPS 5000 BR SKC 23/20 Q1014 NOSIG
ZGOW,2011-10-21 17:00,ZGOW 211700Z 08003MPS 5000 BR FEW020 23/21 Q1014 NOSIG
ZGOW,2011-10-21 19:00,ZGOW 211900Z AUTO 08004MPS 4600 // ////// 23/20 Q1013
ZGOW,2011-10-21 21:00,ZGOW 212100Z 05004MPS 4000 BR SKC 22/19 Q1014 NOSIG
ZGOW,2011-10-21 22:00,ZGOW 212200Z 06002MPS 4000 BR SKC 22/19 Q1014 NOSIG
ZGOW,2011-10-21 23:00,ZGOW 212300Z 06003MPS 5000 BR SKC 22/19 Q1015 NOSIG
ZGOW,2011-10-22 00:00,ZGOW 220000Z 06003MPS 7000 NSC 24/19 Q1016 NOSIG
ZGOW,2011-10-22 01:00,ZGOW 220100Z 07005MPS CAVOK 26/18 Q1016 NOSIG
ZGOW,2011-10-22 02:00,ZGOW 220200Z 08004MPS CAVOK 26/18 Q1016 NOSIG
ZGOW,2011-10-22 03:00,ZGOW 220300Z 09005MPS CAVOK 27/18 Q1016 NOSIG
ZGOW,2011-10-22 04:00,ZGOW 220400Z 08005MPS CAVOK 28/17 Q1016 NOSIG
ZGOW,2011-10-22 05:00,ZGOW 220500Z 13005MPS 090V170 CAVOK 28/19 Q1015 NOSIG
ZGOW,2011-10-22 06:00,ZGOW 220600Z 12005MPS CAVOK 27/19 Q1014 NOSIG
ZGOW,2011-10-22 07:00,ZGOW 220700Z 11005MPS 060V150 CAVOK 27/19 Q1013 NOSIG
ZGOW,2011-10-22 08:00,ZGOW 220800Z 08005MPS CAVOK 27/18 Q1013 NOSIG
ZGOW,2011-10-22 09:00,ZGOW 220900Z 08005MPS 8000 SKC 25/18 Q1013 NOSIG
ZGOW,2011-10-22 10:00,ZGOW 221000Z 08005MPS 5000 BR SKC 24/19 Q1014 NOSIG
ZGOW,2011-10-22 11:00,ZGOW 221100Z 07005MPS 7000 SKC 24/20 Q1014 NOSIG
ZGOW,2011-10-22 12:00,ZGOW 221200Z 08005MPS 8000 SKC 23/19 Q1015 NOSIG
ZGOW,2011-10-22 13:00,ZGOW 221300Z 08005MPS 8000 SKC 23/19 Q1015 NOSIG
ZGOW,2011-10-22 14:00,ZGOW 221400Z 08005MPS CAVOK 23/18 Q1015 NOSIG
ZGOW,2011-10-22 15:00,ZGOW 221500Z 08005MPS CAVOK 23/17 Q1015 NOSIG
ZGOW,2011-10-22 16:00,ZGOW 221600Z 08005MPS CAVOK 23/17 Q1015 NOSIG
ZGOW,2011-10-22 17:00,ZGOW 221700Z 07005MPS CAVOK 22/18 Q1014 NOSIG
ZGOW,2011-10-22 20:00,ZGOW 222000Z AUTO 05004MPS 5000 ////// 22/16 Q1014
ZGOW,2011-10-22 21:00,ZGOW 222100Z 36002MPS 6000 NSC 22/17 Q1014 NOSIG
ZGOW,2011-10-22 22:00,ZGOW 222200Z 08001MPS 4000 BR NSC 21/17 Q1015 NOSIG
ZGOW,2011-10-22 23:00,ZGOW 222300Z 00000MPS 3200 BR SCT050 22/18 Q1016 NOSIG
ZGOW,2011-10-23 00:00,ZGOW 230000Z 06004MPS 5000 HZ SCT050 24/18 Q1016 NOSIG
ZGOW,2011-10-23 01:00,ZGOW 230100Z 07004MPS 7000 NSC 25/17 Q1017 NOSIG
ZGOW,2011-10-23 02:00,ZGOW 230200Z 06004MPS CAVOK 26/15 Q1016 NOSIG
ZGOW,2011-10-23 03:00,ZGOW 230300Z 08003MPS CAVOK 27/16 Q1016 NOSIG
ZGOW,2011-10-23 04:00,ZGOW 230400Z 08004MPS CAVOK 27/15 Q1015 NOSIG
ZGOW,2011-10-23 05:00,ZGOW 230500Z 14004MPS CAVOK 28/16 Q1014 NOSIG
ZGOW,2011-10-23 06:00,ZGOW 230600Z 13004MPS CAVOK 27/19 Q1013 NOSIG
ZGOW,2011-10-23 07:00,ZGOW 230700Z 12004MPS CAVOK 26/19 Q1013 NOSIG
ZGOW,2011-10-23 08:00,ZGOW 230800Z 13004MPS CAVOK 25/19 Q1013 NOSIG
ZGOW,2011-10-23 09:00,ZGOW 230900Z 12005MPS CAVOK 24/20 Q1014 NOSIG
ZGOW,2011-10-23 10:00,ZGOW 231000Z 11002MPS CAVOK 23/20 Q1014 NOSIG
ZGOW,2011-10-23 11:00,ZGOW 231100Z 10002MPS CAVOK 23/20 Q1015 NOSIG
ZGOW,2011-10-23 12:00,ZGOW 231200Z 11001MPS CAVOK 23/20 Q1015 NOSIG
ZGOW,2011-10-23 13:00,ZGOW 231300Z 04003MPS 7000 NSC 22/20 Q1016 NOSIG
ZGOW,2011-10-23 14:00,ZGOW 231400Z 08002MPS 7000 NSC 22/20 Q1016 NOSIG
ZGOW,2011-10-23 15:00,ZGOW 231500Z 04002MPS 7000 NSC 22/20 Q1016 NOSIG
ZGOW,2011-10-23 16:00,ZGOW 231600Z 03002MPS 6000 NSC 22/20 Q1015 NOSIG
ZGOW,2011-10-23 17:00,ZGOW 231700Z AUTO 01001MPS 2500 // NCD 22/19 Q1015
ZGOW,2011-10-23 19:00,ZGOW 231900Z AUTO 04002MPS 3300 // NCD 20/19 Q1014
ZGOW,2011-10-23 21:00,ZGOW 232100Z 08001MPS 4000 BR FEW012 21/20 Q1014 NOSIG
ZGOW,2011-10-23 22:00,ZGOW 232200Z 04001MPS 4000 BR FEW014 21/20 Q1014 NOSIG
ZGOW,2011-10-23 23:00,ZGOW 232300Z 03002MPS 3500 BR NSC 22/20 Q1015 NOSIG
ZGOW,2011-10-24 00:00,ZGOW 240000Z 01002MPS 4000 BR FEW014 23/21 Q1016 NOSIG
ZGOW,2011-10-24 01:00,ZGOW 240100Z 03002MPS 5000 HZ FEW014 25/20 Q1016 NOSIG
ZGOW,2011-10-24 02:00,ZGOW 240200Z 03002MPS 7000 SKC 27/19 Q1016 NOSIG
ZGOW,2011-10-24 03:00,ZGOW 240300Z 36002MPS 7000 SKC 28/19 Q1015 NOSIG
ZGOW,2011-10-24 04:00,ZGOW 240400Z 29002MPS 6000 SKC 29/20 Q1014 NOSIG
ZGOW,2011-10-24 05:00,ZGOW 240500Z 27002MPS 6000 SKC 30/19 Q1013 NOSIG
ZGOW,2011-10-24 06:00,ZGOW 240600Z 14003MPS 6000 SKC 29/20 Q1012 NOSIG
ZGOW,2011-10-24 07:00,ZGOW 240700Z 16004MPS 6000 SKC 29/21 Q1012 NOSIG
ZGOW,2011-10-24 08:00,ZGOW 240800Z 14004MPS 6000 SKC 28/21 Q1012 NOSIG
ZGOW,2011-10-24 09:00,ZGOW 240900Z 14003MPS 6000 SKC 26/20 Q1012 NOSIG
ZGOW,2011-10-24 10:00,ZGOW 241000Z 15002MPS 5000 HZ SKC 25/21 Q1013 NOSIG
ZGOW,2011-10-24 11:00,ZGOW 241100Z 16003MPS 4000 BR SKC 25/21 Q1013 NOSIG
ZGOW,2011-10-24 12:00,ZGOW 241200Z 13002MPS 3500 BR SKC 24/21 Q1014 NOSIG
ZGOW,2011-10-24 13:00,ZGOW 241300Z 14002MPS 3000 BR SKC 24/21 Q1015 NOSIG
ZGOW,2011-10-24 14:00,ZGOW 241400Z 08001MPS 2500 BR SKC 23/21 Q1015 NOSIG
ZGOW,2011-10-24 15:00,ZGOW 241500Z 05001MPS 1800 BR SKC 23/22 Q1015 NOSIG
ZGOW,2011-10-24 16:00,ZGOW 241600Z 04001MPS 2000 BR SKC 23/21 Q1014 NOSIG
ZGOW,2011-10-24 17:00,ZGOW 241700Z 05002MPS 2000 BR SKC 22/20 Q1014 NOSIG
ZGOW,2011-10-24 21:00,ZGOW 242100Z 07005MPS 4000 BR FEW016 23/21 Q1015 NOSIG
ZGOW,2011-10-24 23:00,ZGOW 242300Z 07005MPS 6000 FEW016 BKN050 24/20 Q1017 NOSIG
ZGOW,2011-10-25 00:00,ZGOW 250000Z 08006MPS 6000 SCT016 24/20 Q1018 NOSIG
ZGOW,2011-10-25 01:00,ZGOW 250100Z 07009G14MPS 9999 FEW017 25/19 Q1018 NOSIG
ZGOW,2011-10-25 02:00,ZGOW 250200Z 08008MPS 9999 FEW017 25/19 Q1018 NOSIG
ZGOW,2011-10-25 03:00,ZGOW 250300Z 08009G14MPS 9999 FEW017 26/19 Q1018 NOSIG
ZGOW,2011-10-25 04:00,ZGOW 250400Z 08008MPS 9999 SCT017 25/19 Q1017 NOSIG
ZGOW,2011-10-25 05:00,ZGOW 250500Z 08008MPS 9999 SCT017 25/18 Q1017 NOSIG
ZGOW,2011-10-25 06:00,ZGOW 250600Z 08006MPS 9999 BKN033 25/19 Q1016 NOSIG
ZGOW,2011-10-25 07:00,ZGOW 250700Z 08006MPS 9999 SCT033 BKN050 24/18 Q1016 NOSIG
ZGOW,2011-10-25 08:00,ZGOW 250800Z 08008MPS 9999 SCT033 BKN050 24/18 Q1016 NOSIG
ZGOW,2011-10-25 09:00,ZGOW 250900Z 08006MPS 9999 SCT030 BKN050 23/18 Q1016 NOSIG
ZGOW,2011-10-25 10:00,ZGOW 251000Z 08007MPS 9999 SCT030 BKN050 23/18 Q1017 NOSIG
ZGOW,2011-10-25 11:00,ZGOW 251100Z 08008MPS 9999 SCT030 BKN050 22/17 Q1018 NOSIG
ZGOW,2011-10-25 12:00,ZGOW 251200Z 07010MPS 9999 SCT030 BKN050 22/16 Q1018 NOSIG
ZGOW,2011-10-25 13:00,ZGOW 251300Z 08009G15MPS 9999 BKN033 22/16 Q1019 NOSIG
ZGOW,2011-10-25 14:00,ZGOW 251400Z 07009G15MPS 9999 BKN033 22/16 Q1020 NOSIG
ZGOW,2011-10-25 15:00,ZGOW 251500Z 08009MPS 9999 BKN033 21/15 Q1019 NOSIG
ZGOW,2011-10-25 16:00,ZGOW 251600Z 07008G13MPS 7000 BKN033 21/15 Q1019 NOSIG
ZGOW,2011-10-25 17:00,ZGOW 251700Z 07008MPS 7000 BKN033 21/15 Q1019 NOSIG
ZGOW,2011-10-25 18:00,ZGOW 251800Z AUTO 07006MPS 5000 ////// 20/14 Q1018
ZGOW,2011-10-25 19:00,ZGOW 251900Z AUTO 06004MPS 5000 NCD 20/14 Q1018
ZGOW,2011-10-25 21:00,ZGOW 252100Z 05003MPS 7000 SKC 18/14 Q1018 NOSIG
ZGOW,2011-10-25 22:00,ZGOW 252200Z 04002MPS 7000 SKC 18/14 Q1019 NOSIG
ZGOW,2011-10-25 23:00,ZGOW 252300Z 06002MPS 7000 SKC 19/15 Q1019 NOSIG
ZGOW,2011-10-26 00:00,ZGOW 260000Z 05003MPS CAVOK 22/14 Q1020 NOSIG
ZGOW,2011-10-26 01:00,ZGOW 260100Z 05004MPS CAVOK 23/14 Q1020 NOSIG
ZGOW,2011-10-26 02:00,ZGOW 260200Z 07005MPS CAVOK 24/13 Q1020 NOSIG
ZGOW,2011-10-26 03:00,ZGOW 260300Z 08005MPS CAVOK 25/14 Q1019 NOSIG
ZGOW,2011-10-26 04:00,ZGOW 260400Z 09005MPS CAVOK 25/15 Q1018 NOSIG
ZGOW,2011-10-26 05:00,ZGOW 260500Z 09005MPS CAVOK 25/14 Q1017 NOSIG
ZGOW,2011-10-26 06:00,ZGOW 260600Z 10003MPS CAVOK 26/15 Q1016 NOSIG
ZGOW,2011-10-26 07:00,ZGOW 260700Z 12004MPS CAVOK 25/16 Q1016 NOSIG
ZGOW,2011-10-26 08:00,ZGOW 260800Z 08006MPS CAVOK 24/16 Q1016 NOSIG
ZGOW,2011-10-26 09:00,ZGOW 260900Z 09006MPS CAVOK 22/16 Q1016 NOSIG
ZGOW,2011-10-26 10:00,ZGOW 261000Z 08006MPS 9999 BKN043 22/17 Q1017 NOSIG
ZGOW,2011-10-26 11:00,ZGOW 261100Z 08007MPS 9999 BKN040 22/17 Q1018 NOSIG
ZGOW,2011-10-26 12:00,ZGOW 261200Z 07006MPS 9999 BKN046 22/16 Q1019 NOSIG
ZGOW,2011-10-26 13:00,ZGOW 261300Z 06007MPS 9999 BKN043 22/16 Q1019 NOSIG
ZGOW,2011-10-26 14:00,ZGOW 261400Z 07008MPS 9999 BKN043 22/15 Q1019 NOSIG
ZGOW,2011-10-26 15:00,ZGOW 261500Z 07008MPS 9999 BKN050 21/14 Q1019 NOSIG
ZGOW,2011-10-26 16:00,ZGOW 261600Z 06006MPS 9999 BKN050 21/15 Q1019 NOSIG
ZGOW,2011-10-26 17:00,ZGOW 261700Z 06007MPS 9999 BKN043 21/14 Q1019 NOSIG
ZGOW,2011-10-26 18:00,ZGOW 261800Z AUTO 06005MPS 7000 ////// 21/13 Q1019
ZGOW,2011-10-26 19:00,ZGOW 261900Z AUTO 06004MPS 6000 ////// 20/14 Q1018
ZGOW,2011-10-26 21:00,ZGOW 262100Z 05002MPS 8000 SKC 18/14 Q1018 NOSIG
ZGOW,2011-10-26 22:00,ZGOW 262200Z 04001MPS 6000 SKC 18/14 Q1019 NOSIG
ZGOW,2011-10-26 23:00,ZGOW 262300Z 06002MPS 7000 SKC 19/15 Q1019 NOSIG
ZGOW,2011-10-27 00:00,ZGOW 270000Z 04004MPS CAVOK 22/14 Q1020 NOSIG
ZGOW,2011-10-27 01:00,ZGOW 270100Z 06004MPS CAVOK 24/14 Q1020 NOSIG
ZGOW,2011-10-27 02:00,ZGOW 270200Z 05005MPS CAVOK 24/13 Q1020 NOSIG
ZGOW,2011-10-27 03:00,ZGOW 270300Z 08004MPS CAVOK 25/14 Q1020 NOSIG
ZGOW,2011-10-27 04:00,ZGOW 270400Z 06004MPS CAVOK 26/15 Q1019 NOSIG
ZGOW,2011-10-27 05:00,ZGOW 270500Z 09004MPS CAVOK 26/15 Q1018 NOSIG
ZGOW,2011-10-27 06:00,ZGOW 270600Z 08003MPS CAVOK 26/15 Q1017 NOSIG
ZGOW,2011-10-27 07:00,ZGOW 270700Z 14003MPS CAVOK 26/16 Q1017 NOSIG
ZGOW,2011-10-27 08:00,ZGOW 270800Z 12004MPS CAVOK 25/17 Q1017 NOSIG
ZGOW,2011-10-27 09:00,ZGOW 270900Z 12003MPS CAVOK 24/17 Q1017 NOSIG
ZGOW,2011-10-27 10:00,ZGOW 271000Z 08003MPS CAVOK 22/17 Q1017 NOSIG
ZGOW,2011-10-27 11:00,ZGOW 271100Z 10003MPS 9999 BKN050 23/18 Q1018 NOSIG
ZGOW,2011-10-27 12:00,ZGOW 271200Z 09002MPS 9999 BKN050 23/18 Q1019 NOSIG
ZGOW,2011-10-27 13:00,ZGOW 271300Z 07005MPS 9999 BKN043 22/18 Q1019 NOSIG
ZGOW,2011-10-27 14:00,ZGOW 271400Z 07006MPS 9999 BKN043 23/17 Q1020 NOSIG
ZGOW,2011-10-27 15:00,ZGOW 271500Z 07006MPS 9999 BKN050 22/17 Q1020 NOSIG
ZGOW,2011-10-27 16:00,ZGOW 271600Z 08005MPS 9999 SCT050 22/16 Q1019 NOSIG
ZGOW,2011-10-27 17:00,ZGOW 271700Z 06002MPS 9999 SCT050 20/17 Q1019 NOSIG
ZGOW,2011-10-27 19:00,ZGOW 271900Z AUTO 06001MPS 3900 // NCD 19/17 Q1018
ZGOW,2011-10-27 21:00,ZGOW 272100Z 05001MPS 6000 SKC 19/16 Q1018 NOSIG
ZGOW,2011-10-27 22:00,ZGOW 272200Z 04001MPS 9999 SCT033 20/15 Q1018 NOSIG
ZGOW,2011-10-27 23:00,ZGOW 272300Z 31001MPS 9999 BKN040 20/16 Q1019 NOSIG
ZGOW,2011-10-28 00:00,ZGOW 280000Z 36002MPS 9999 FEW040 22/15 Q1019 NOSIG
ZGOW,2011-10-28 01:00,ZGOW 280100Z 03002MPS CAVOK 24/15 Q1020 NOSIG
ZGOW,2011-10-28 02:00,ZGOW 280200Z 09004MPS CAVOK 26/15 Q1020 NOSIG
ZGOW,2011-10-28 03:00,ZGOW 280300Z 07004MPS CAVOK 26/16 Q1019 NOSIG
ZGOW,2011-10-28 04:00,ZGOW 280400Z 10003MPS 9999 FEW020 26/16 Q1019 NOSIG
ZGOW,2011-10-28 05:00,ZGOW 280500Z 08004MPS CAVOK 27/16 Q1018 NOSIG
ZGOW,2011-10-28 06:00,ZGOW 280600Z 09004MPS CAVOK 27/16 Q1017 NOSIG
ZGOW,2011-10-28 07:00,ZGOW 280700Z 13004MPS CAVOK 27/18 Q1017 NOSIG
ZGOW,2011-10-28 08:00,ZGOW 280800Z 10004MPS CAVOK 26/18 Q1016 NOSIG
ZGOW,2011-10-28 09:00,ZGOW 280900Z 11003MPS CAVOK 25/19 Q1017 NOSIG
ZGOW,2011-10-28 10:00,ZGOW 281000Z 10003MPS CAVOK 23/19 Q1017 NOSIG
ZGOW,2011-10-28 11:00,ZGOW 281100Z 08003MPS CAVOK 22/18 Q1018 NOSIG
ZGOW,2011-10-28 12:00,ZGOW 281200Z 08003MPS CAVOK 22/19 Q1018 NOSIG
ZGOW,2011-10-28 13:00,ZGOW 281300Z 08002MPS CAVOK 22/19 Q1018 NOSIG
ZGOW,2011-10-28 14:00,ZGOW 281400Z 06003MPS 7000 SKC 22/19 Q1018 NOSIG
ZGOW,2011-10-28 15:00,ZGOW 281500Z 05003MPS 7000 SKC 22/19 Q1018 NOSIG
ZGOW,2011-10-28 16:00,ZGOW 281600Z 07003MPS 7000 SKC 22/19 Q1018 NOSIG
ZGOW,2011-10-28 17:00,ZGOW 281700Z 05003MPS 7000 SKC 21/18 Q1018 NOSIG
ZGOW,2011-10-28 19:00,ZGOW 281900Z AUTO 11001MPS 3400 // NCD 20/18 Q1017
ZGOW,2011-10-28 21:00,ZGOW 282100Z 36001MPS 3000 BR SKC 20/18 Q1017 NOSIG
ZGOW,2011-10-28 22:00,ZGOW 282200Z 33002MPS 4000 BR SKC 20/17 Q1017 NOSIG
ZGOW,2011-10-28 23:00,ZGOW 282300Z 33002MPS 5000 BR SKC 20/17 Q1018 NOSIG
ZGOW,2011-10-29 00:00,ZGOW 290000Z 33003MPS 7000 SKC 22/18 Q1018 NOSIG
ZGOW,2011-10-29 01:00,ZGOW 290100Z 32002MPS 7000 SKC 24/18 Q1018 NOSIG
ZGOW,2011-10-29 02:00,ZGOW 290200Z 36002MPS CAVOK 26/18 Q1018 NOSIG
ZGOW,2011-10-29 03:00,ZGOW 290300Z 07004MPS CAVOK 27/17 Q1018 NOSIG
ZGOW,2011-10-29 04:00,ZGOW 290400Z 08003MPS CAVOK 28/17 Q1017 NOSIG
ZGOW,2011-10-29 05:00,ZGOW 290500Z 13004MPS CAVOK 28/17 Q1015 NOSIG
ZGOW,2011-10-29 06:00,ZGOW 290600Z 13005MPS 080V170 CAVOK 27/18 Q1015 NOSIG
ZGOW,2011-10-29 07:00,ZGOW 290700Z 12004MPS CAVOK 26/19 Q1014 NOSIG
ZGOW,2011-10-29 08:00,ZGOW 290800Z 11004MPS 9999 FEW026 SCT050 25/19 Q1014 NOSIG
ZGOW,2011-10-29 09:00,ZGOW 290900Z 09002MPS 9999 SCT050 24/20 Q1015 NOSIG
ZGOW,2011-10-29 10:00,ZGOW 291000Z 08004MPS 9999 BKN040 24/19 Q1015 NOSIG
ZGOW,2011-10-29 11:00,ZGOW 291100Z 09003MPS 9999 SCT040 23/19 Q1015 NOSIG
ZGOW,2011-10-29 12:00,ZGOW 291200Z 09004MPS 9999 SCT040 23/19 Q1016 NOSIG
ZGOW,2011-10-29 13:00,ZGOW 291300Z 09003MPS 8000 BKN040 23/19 Q1016 NOSIG
ZGOW,2011-10-29 14:00,ZGOW 291400Z 08005MPS 9999 BKN040 23/19 Q1016 NOSIG
ZGOW,2011-10-29 15:00,ZGOW 291500Z 09005MPS 9999 BKN033 23/19 Q1016 NOSIG
ZGOW,2011-10-29 16:00,ZGOW 291600Z 07005MPS 9999 SCT040 22/19 Q1016 NOSIG
ZGOW,2011-10-29 17:00,ZGOW 291700Z 05003MPS 8000 FEW040 21/18 Q1015 NOSIG
ZGOW,2011-10-29 18:00,ZGOW 291800Z 03002MPS 7000 SCT033 21/18 Q1015 NOSIG
ZGOW,2011-10-29 19:00,ZGOW 291900Z AUTO 05003MPS 3900 // ////// 21/18 Q1015
ZGOW,2011-10-29 20:00,ZGOW 292000Z AUTO 05001MPS 4600 // ////// 21/19 Q1015
ZGOW,2011-10-29 21:00,ZGOW 292100Z 05001MPS 5000 BR SCT033 20/18 Q1015 NOSIG
ZGOW,2011-10-29 22:00,ZGOW 292200Z 04002MPS 4500 BR SCT040 19/17 Q1016 NOSIG
ZGOW,2011-10-29 23:00,ZGOW 292300Z 01002MPS 5000 BR SCT050 21/18 Q1016 NOSIG
ZGOW,2011-10-30 00:00,ZGOW 300000Z 34002MPS 6000 SKC 23/18 Q1017 NOSIG
ZGOW,2011-10-30 01:00,ZGOW 300100Z 03002MPS 7000 SKC 25/17 Q1017 NOSIG
ZGOW,2011-10-30 02:00,ZGOW 300200Z 06005MPS 9999 FEW030 26/16 Q1018 NOSIG
ZGOW,2011-10-30 03:00,ZGOW 300300Z 03006MPS 9999 FEW030 27/15 Q1017 NOSIG
ZGOW,2011-10-30 04:00,ZGOW 300400Z 05005MPS 9999 SCT040 27/16 Q1016 NOSIG
ZGOW,2011-10-30 05:00,ZGOW 300500Z 10004MPS 9999 FEW040 28/17 Q1015 NOSIG
ZGOW,2011-10-30 06:00,ZGOW 300600Z 09004MPS 9999 SCT040 28/17 Q1015 NOSIG
ZGOW,2011-10-30 07:00,ZGOW 300700Z 12004MPS CAVOK 27/17 Q1015 NOSIG
ZGOW,2011-10-30 08:00,ZGOW 300800Z 10004MPS CAVOK 26/18 Q1015 NOSIG
ZGOW,2011-10-30 09:00,ZGOW 300900Z 09004MPS 9999 FEW030 24/18 Q1015 NOSIG
ZGOW,2011-10-30 10:00,ZGOW 301000Z 08006MPS 7000 FEW030 23/18 Q1016 NOSIG
ZGOW,2011-10-30 11:00,ZGOW 301100Z 08005MPS 7000 NSC 23/18 Q1017 NOSIG
ZGOW,2011-10-30 12:00,ZGOW 301200Z 07005MPS 7000 NSC 23/18 Q1018 NOSIG
ZGOW,2011-10-30 13:00,ZGOW 301300Z 07006MPS 7000 NSC 23/18 Q1018 NOSIG
ZGOW,2011-10-30 14:00,ZGOW 301400Z 08005MPS 7000 NSC 23/18 Q1018 NOSIG
ZGOW,2011-10-30 15:00,ZGOW 301500Z 08005MPS 7000 NSC 22/17 Q1018 NOSIG
ZGOW,2011-10-30 16:00,ZGOW 301600Z 08009G14MPS 8000 SCT018 BKN050 26/22 Q1014 NOSIG
ZGOW,2011-10-30 17:00,ZGOW 301700Z 08009G14MPS 8000 SCT020 BKN050 26/22 Q1013 NOSIG
ZGOW,2011-10-30 18:00,ZGOW 301800Z 08006MPS 8000 SCT020 BKN050 26/22 Q1013 NOSIG
ZGOW,2011-10-30 19:00,ZGOW 301900Z AUTO 07005MPS 8000 ////// 26/22 Q1012
ZGOW,2011-10-30 20:00,ZGOW 302000Z AUTO 08008MPS 9000 ////// 26/21 Q1012
ZGOW,2011-10-30 21:00,ZGOW 302100Z 09006G11MPS 9999 BKN030 26/21 Q1012 NOSIG
ZGOW,2011-10-30 22:00,ZGOW 302200Z 08006MPS 9999 BKN032 25/21 Q1013 NOSIG
ZGOW,2011-10-30 23:00,ZGOW 302300Z 08005MPS 9999 SCT040 26/21 Q1013 NOSIG
ZGOW,2011-10-31 00:00,ZGOW 310000Z 04003MPS CAVOK 23/15 Q1019 NOSIG
ZGOW,2011-10-31 01:00,ZGOW 310100Z 04004MPS CAVOK 24/15 Q1019 NOSIG
ZGOW,2011-10-31 02:00,ZGOW 310200Z 04005MPS CAVOK 25/13 Q1018 NOSIG
ZGOW,2011-10-31 03:00,ZGOW 310300Z 08004MPS CAVOK 26/14 Q1018 NOSIG
ZGOW,2011-10-31 04:00,ZGOW 310400Z 08004MPS CAVOK 27/14 Q1017 NOSIG
ZGOW,2011-10-31 05:00,ZGOW 310500Z 09006MPS CAVOK 27/14 Q1016 NOSIG
ZGOW,2011-10-31 06:00,ZGOW 310600Z 09005MPS CAVOK 27/16 Q1016 NOSIG
ZGOW,2011-10-31 07:00,ZGOW 310700Z 13005MPS CAVOK 26/17 Q1015 NOSIG
ZGOW,2011-10-31 08:00,ZGOW 310800Z 11004MPS CAVOK 25/17 Q1015 NOSIG
ZGOW,2011-10-31 09:00,ZGOW 310900Z 08005MPS CAVOK 23/17 Q1016 NOSIG
ZGOW,2011-10-31 10:00,ZGOW 311000Z 08005MPS CAVOK 22/17 Q1016 NOSIG
ZGOW,2011-10-31 11:00,ZGOW 311100Z 08005MPS CAVOK 22/17 Q1017 NOSIG
ZGOW,2011-10-31 12:00,ZGOW 311200Z 07006MPS CAVOK 22/17 Q1017 NOSIG
ZGOW,2011-10-31 13:00,ZGOW 311300Z 07005MPS CAVOK 22/17 Q1018 NOSIG
ZGOW,2011-10-31 14:00,ZGOW 311400Z 08006MPS 9999 BKN050 22/17 Q1018 NOSIG
ZGOW,2011-10-31 15:00,ZGOW 311500Z 08004MPS 9999 BKN050 22/16 Q1018 NOSIG
ZGOW,2011-11-01 00:00,ZGOW 010000Z 34003MPS 5000 BR FEW040 22/17 Q1017 NOSIG
ZGOW,2011-11-01 01:00,ZGOW 010100Z 36003MPS 8000 SKC 24/16 Q1017 NOSIG
ZGOW,2011-11-01 02:00,ZGOW 010200Z 04006MPS CAVOK 27/15 Q1017 NOSIG
ZGOW,2011-11-01 03:00,ZGOW 010300Z 05004MPS CAVOK 28/17 Q1017 NOSIG
ZGOW,2011-11-01 04:00,ZGOW 010400Z 07004MPS CAVOK 28/17 Q1016 NOSIG
ZGOW,2011-11-01 05:00,ZGOW 010500Z 10004MPS CAVOK 29/17 Q1015 NOSIG
ZGOW,2011-11-01 06:00,ZGOW 010600Z 09003MPS CAVOK 29/16 Q1015 NOSIG
ZGOW,2011-11-01 07:00,ZGOW 010700Z 13004MPS CAVOK 27/19 Q1014 NOSIG
ZGOW,2011-11-01 08:00,ZGOW 010800Z 11004MPS CAVOK 26/19 Q1014 NOSIG
ZGOW,2011-11-01 09:00,ZGOW 010900Z 09004MPS CAVOK 25/18 Q1014 NOSIG
ZGOW,2011-11-01 10:00,ZGOW 011000Z 09004MPS CAVOK 24/18 Q1014 NOSIG
ZGOW,2011-11-01 11:00,ZGOW 011100Z 07007MPS CAVOK 24/18 Q1015 NOSIG
ZGOW,2011-11-01 12:00,ZGOW 011200Z 07005MPS CAVOK 23/20 Q1016 NOSIG
ZGOW,2011-11-01 13:00,ZGOW 011300Z 07006MPS CAVOK 23/19 Q1016 NOSIG
ZGOW,2011-11-01 14:00,ZGOW 011400Z 07003MPS CAVOK 23/19 Q1016 NOSIG
ZGOW,2011-11-01 15:00,ZGOW 011500Z 07006MPS CAVOK 23/18 Q1016 NOSIG
ZGOW,2011-11-01 16:00,ZGOW 011600Z 07003MPS CAVOK 23/19 Q1016 NOSIG
ZGOW,2011-11-01 17:00,ZGOW 011700Z 04002MPS CAVOK 22/19 Q1016 NOSIG
ZGOW,2011-11-01 18:00,ZGOW 011800Z AUTO 00000MPS 8000 ////// 22/19 Q1016
ZGOW,2011-11-01 19:00,ZGOW 011900Z AUTO 31001MPS 4000 // ////// 22/19 Q1015
ZGOW,2011-11-01 21:00,ZGOW 012100Z 30001MPS 5000 BR SKC 22/19 Q1014 NOSIG
ZGOW,2011-11-01 22:00,ZGOW 012200Z 34001MPS 5000 BR SKC 22/18 Q1015 NOSIG
ZGOW,2011-11-01 23:00,ZGOW 012300Z 32003MPS 7000 SKC 22/18 Q1015 NOSIG
ZGOW,2011-11-02 00:00,ZGOW 020000Z 32003MPS CAVOK 23/18 Q1015 NOSIG
ZGOW,2011-11-02 01:00,ZGOW 020100Z 31002MPS CAVOK 25/18 Q1016 NOSIG
ZGOW,2011-11-02 02:00,ZGOW 020200Z 36002MPS 9999 SCT033 26/18 Q1016 NOSIG
ZGOW,2011-11-02 03:00,ZGOW 020300Z 02004MPS 9999 FEW025 28/18 Q1015 NOSIG
ZGOW,2011-11-02 04:00,ZGOW 020400Z 03003MPS 9999 SCT036 30/19 Q1014 NOSIG
ZGOW,2011-11-02 05:00,ZGOW 020500Z 07002MPS 9999 BKN036 29/19 Q1013 NOSIG
ZGOW,2011-11-02 06:00,ZGOW 020600Z 14003MPS 9999 SCT050 29/20 Q1013 NOSIG
ZGOW,2011-11-02 07:00,ZGOW 020700Z 13004MPS 9999 FEW050 28/20 Q1012 NOSIG
ZGOW,2011-11-02 08:00,ZGOW 020800Z 13003MPS CAVOK 27/21 Q1012 NOSIG
ZGOW,2011-11-02 09:00,ZGOW 020900Z 12004MPS CAVOK 25/21 Q1013 NOSIG
ZGOW,2011-11-02 10:00,ZGOW 021000Z 12003MPS 7000 SKC 24/21 Q1013 NOSIG
ZGOW,2011-11-02 11:00,ZGOW 021100Z 10001MPS 7000 SKC 24/21 Q1014 NOSIG
ZGOW,2011-11-02 12:00,ZGOW 021200Z 08004MPS 8000 SKC 24/21 Q1014 NOSIG
ZGOW,2011-11-02 13:00,ZGOW 021300Z 08003MPS CAVOK 23/21 Q1014 NOSIG
ZGOW,2011-11-02 14:00,ZGOW 021400Z 08003MPS CAVOK 23/22 Q1014 NOSIG
ZGOW,2011-11-02 15:00,ZGOW 021500Z 08003MPS 8000 SKC 23/21 Q1014 NOSIG
ZGOW,2011-11-02 16:00,ZGOW 021600Z 04001MPS 6000 SKC 23/21 Q1014 NOSIG
ZGOW,2011-11-02 18:00,ZGOW 021800Z 00000MPS 6000 SKC 22/21 Q1013 NOSIG
ZGOW,2011-11-02 19:00,ZGOW 021900Z AUTO 00000MPS 3000 // ////// 22/21 Q1013
ZGOW,2011-11-02 20:00,ZGOW 022000Z AUTO 00000MPS 3500 // ////// 23/21 Q1013
ZGOW,2011-11-02 21:00,ZGOW 022100Z 34001MPS 3500 BR SCT040 23/21 Q1013 NOSIG
ZGOW,2011-11-02 22:00,ZGOW 022200Z 00000MPS 3200 BR SCT040 23/21 Q1014 NOSIG
ZGOW,2011-11-02 23:00,ZGOW 022300Z 28001MPS 2500 BR SCT040 23/21 Q1015 BECMG 3200 BR
ZGOW,2011-11-03 00:00,ZGOW 030000Z 06002MPS 4000 BR FEW016 SCT033 25/21 Q1015 NOSIG
ZGOW,2011-11-03 01:00,ZGOW 030100Z 08005MPS 9999 FEW016 SCT033 26/22 Q1016 NOSIG
ZGOW,2011-11-03 02:00,ZGOW 030200Z 04006MPS 9999 FEW020 28/21 Q1016 NOSIG
ZGOW,2011-11-03 03:00,ZGOW 030300Z 08004MPS 9999 SCT024 29/22 Q1015 NOSIG
ZGOW,2011-11-03 04:00,ZGOW 030400Z 07005MPS 9999 FEW024 30/21 Q1014 NOSIG
ZGOW,2011-11-03 05:00,ZGOW 030500Z 09005MPS 9999 FEW026 29/21 Q1013 NOSIG
ZGOW,2011-11-03 06:00,ZGOW 030600Z 11004MPS CAVOK 29/22 Q1013 NOSIG
ZGOW,2011-11-03 07:00,ZGOW 030700Z 10005MPS CAVOK 28/21 Q1013 NOSIG
ZGOW,2011-11-03 08:00,ZGOW 030800Z 08006MPS CAVOK 27/21 Q1013 NOSIG
ZGOW,2011-11-03 09:00,ZGOW 030900Z 08006MPS CAVOK 26/21 Q1013 NOSIG
ZGOW,2011-11-03 10:00,ZGOW 031000Z 06003MPS CAVOK 25/21 Q1014 NOSIG
ZGOW,2011-11-03 11:00,ZGOW 031100Z 07004MPS CAVOK 25/21 Q1014 NOSIG
ZGOW,2011-11-03 12:00,ZGOW 031200Z 08004MPS CAVOK 25/21 Q1015 NOSIG
ZGOW,2011-11-03 13:00,ZGOW 031300Z 08003MPS CAVOK 24/21 Q1015 NOSIG
ZGOW,2011-11-03 14:00,ZGOW 031400Z 08002MPS CAVOK 24/21 Q1015 NOSIG
ZGOW,2011-11-03 15:00,ZGOW 031500Z 08002MPS CAVOK 24/21 Q1015 NOSIG
ZGOW,2011-11-03 16:00,ZGOW 031600Z 08001MPS CAVOK 24/21 Q1015 NOSIG
ZGOW,2011-11-03 17:00,ZGOW 031700Z AUTO 04001MPS 7000 NCD 23/21 Q1014
ZGOW,2011-11-03 20:00,ZGOW 032000Z AUTO 05002MPS 9999 ////// 23/21 Q1014
ZGOW,2011-11-03 21:00,ZGOW 032100Z 08001MPS 8000 BKN040 23/21 Q1014 NOSIG
ZGOW,2011-11-03 22:00,ZGOW 032200Z 08001MPS 6000 BKN036 23/22 Q1015 NOSIG
ZGOW,2011-11-03 23:00,ZGOW 032300Z 01001MPS 7000 NSC 24/22 Q1015 NOSIG
ZGOW,2011-11-04 00:00,ZGOW 040000Z 32001MPS 4500 BR NSC 25/22 Q1015 NOSIG
ZGOW,2011-11-04 01:00,ZGOW 040100Z 03001MPS 4500 BR SCT030 27/22 Q1016 NOSIG
ZGOW,2011-11-04 02:00,ZGOW 040200Z 07003MPS 6000 NSC 28/21 Q1015 NOSIG
ZGOW,2011-11-04 03:00,ZGOW 040300Z 09004MPS CAVOK 30/21 Q1015 NOSIG
ZGOW,2011-11-04 04:00,ZGOW 040400Z 08003MPS CAVOK 30/21 Q1014 NOSIG
ZGOW,2011-11-04 05:00,ZGOW 040500Z 12004MPS CAVOK 31/21 Q1013 NOSIG
ZGOW,2011-11-04 06:00,ZGOW 040600Z 13003MPS CAVOK 30/21 Q1013 NOSIG
ZGOW,2011-11-04 07:00,ZGOW 040700Z 13004MPS CAVOK 29/22 Q1012 NOSIG
ZGOW,2011-11-04 08:00,ZGOW 040800Z 12004MPS CAVOK 28/22 Q1013 NOSIG
ZGOW,2011-11-04 09:00,ZGOW 040900Z 13003MPS CAVOK 26/22 Q1013 NOSIG
ZGOW,2011-11-04 10:00,ZGOW 041000Z 13003MPS 7000 NSC 25/23 Q1013 NOSIG
ZGOW,2011-11-04 11:00,ZGOW 041100Z 13002MPS 7000 NSC 25/22 Q1014 NOSIG
ZGOW,2011-11-04 12:00,ZGOW 041200Z 10002MPS 7000 NSC 25/23 Q1014 NOSIG
ZGOW,2011-11-04 13:00,ZGOW 041300Z 09001MPS 7000 FEW014 24/22 Q1015 NOSIG
ZGOW,2011-11-04 14:00,ZGOW 041400Z 08004MPS 7000 FEW012 24/22 Q1015 NOSIG
ZGOW,2011-11-04 15:00,ZGOW 041500Z 08003MPS 7000 FEW012 24/22 Q1015 NOSIG
ZGOW,2011-11-04 16:00,ZGOW 041600Z 08003MPS 7000 FEW010 24/23 Q1015 NOSIG
ZGOW,2011-11-04 17:00,ZGOW 041700Z 09002MPS 9999 SCT012 24/22 Q1014 NOSIG
ZGOW,2011-11-04 18:00,ZGOW 041800Z 04001MPS 9999 SCT010 SCT033 24/22 Q1014 NOSIG
ZGOW,2011-11-04 19:00,ZGOW 041900Z AUTO 07001MPS 4400 // ////// 23/22 Q1014
ZGOW,2011-11-04 20:00,ZGOW 042000Z AUTO 35001MPS 5000 ////// 24/23 Q1014
ZGOW,2011-11-04 21:00,ZGOW 042100Z 15001MPS 6000 FEW016 SCT046 24/22 Q1014 NOSIG
ZGOW,2011-11-04 22:00,ZGOW 042200Z 03002MPS 5000 BR SCT043 24/22 Q1015 NOSIG
ZGOW,2011-11-04 23:00,ZGOW 042300Z 04001MPS 5000 BR FEW043 24/22 Q1015 NOSIG
ZGOW,2011-11-05 00:00,ZGOW 050000Z 07002MPS 5000 BR SCT033 26/23 Q1015 NOSIG
ZGOW,2011-11-05 01:00,ZGOW 050100Z 06001MPS 7000 SCT020 27/22 Q1016 NOSIG
ZGOW,2011-11-05 02:00,ZGOW 050200Z 08003MPS 9999 SCT020 28/22 Q1016 NOSIG
ZGOW,2011-11-05 03:00,ZGOW 050300Z 11004MPS 9999 SCT020 29/22 Q1015 NOSIG
ZGOW,2011-11-05 04:00,ZGOW 050400Z 08003MPS 9999 SCT020 29/22 Q1014 NOSIG
ZGOW,2011-11-05 05:00,ZGOW 050500Z 11002MPS CAVOK 30/22 Q1013 NOSIG
ZGOW,2011-11-05 06:00,ZGOW 050600Z 14004MPS CAVOK 29/23 Q1012 NOSIG
ZGOW,2011-11-05 07:00,ZGOW 050700Z 14003MPS CAVOK 28/22 Q1011 NOSIG
ZGOW,2011-11-05 08:00,ZGOW 050800Z 13005MPS 7000 SKC 26/22 Q1012 NOSIG
ZGOW,2011-11-05 09:00,ZGOW 050900Z 13005MPS 7000 SKC 25/22 Q1012 NOSIG
ZGOW,2011-11-05 10:00,ZGOW 051000Z 13003MPS 7000 SKC 24/22 Q1012 NOSIG
ZGOW,2011-11-05 11:00,ZGOW 051100Z 13003MPS 7000 SKC 24/22 Q1013 NOSIG
ZGOW,2011-11-05 12:00,ZGOW 051200Z 12002MPS 7000 BKN050 24/22 Q1014 NOSIG
ZGOW,2011-11-05 13:00,ZGOW 051300Z 13002MPS 7000 BKN050 24/22 Q1014 NOSIG
ZGOW,2011-11-05 14:00,ZGOW 051400Z 06002MPS 7000 BKN050 24/22 Q1015 NOSIG
ZGOW,2011-11-05 15:00,ZGOW 051500Z 07006MPS 7000 BKN030 24/21 Q1015 NOSIG
ZGOW,2011-11-05 16:00,ZGOW 051600Z 07005MPS 7000 SCT017 BKN030 24/22 Q1015 NOSIG
ZGOW,2011-11-05 17:00,ZGOW 051700Z AUTO 08005MPS 7000 ////// 24/22 Q1014
ZGOW,2011-11-05 18:00,ZGOW 051800Z AUTO 08005MPS 8000 ////// 24/21 Q1014
ZGOW,2011-11-05 19:00,ZGOW 051900Z AUTO 08004MPS 9999 ////// 24/21 Q1013
ZGOW,2011-11-05 20:00,ZGOW 052000Z AUTO 08003MPS 9999 ////// 24/22 Q1013
ZGOW,2011-11-05 21:00,ZGOW 052100Z 02002MPS 5000 BR SCT017 BKN030 24/22 Q1013 NOSIG
ZGOW,2011-11-05 22:00,ZGOW 052200Z 09001MPS 4000 BR BKN030 23/22 Q1013 NOSIG
ZGOW,2011-11-05 23:00,ZGOW 052300Z 04001MPS 4000 BR NSC 23/22 Q1014 NOSIG
ZGOW,2011-11-06 00:00,ZGOW 060000Z 34002MPS 5000 BR NSC 25/22 Q1014 NOSIG
ZGOW,2011-11-06 01:00,ZGOW 060100Z 35001MPS 5000 BR NSC 27/22 Q1015 NOSIG
ZGOW,2011-11-06 02:00,ZGOW 060200Z 08002MPS 7000 SCT020 28/21 Q1015 NOSIG
ZGOW,2011-11-06 03:00,ZGOW 060300Z 07004MPS 9999 SCT024 30/21 Q1014 NOSIG
ZGOW,2011-11-06 04:00,ZGOW 060400Z 08006MPS 9999 SCT033 30/21 Q1014 NOSIG
ZGOW,2011-11-06 05:00,ZGOW 060500Z 09007MPS 9999 FEW033 30/21 Q1013 NOSIG
ZGOW,2011-11-06 06:00,ZGOW 060600Z 09008MPS 9999 FEW033 30/21 Q1012 NOSIG
ZGOW,2011-11-06 07:00,ZGOW 060700Z 09007MPS CAVOK 30/21 Q1012 NOSIG
ZGOW,2011-11-06 08:00,ZGOW 060800Z 11004MPS CAVOK 28/22 Q1012 NOSIG
ZGOW,2011-11-06 09:00,ZGOW 060900Z 09006MPS CAVOK 26/21 Q1013 NOSIG
ZGOW,2011-11-06 10:00,ZGOW 061000Z 08005MPS CAVOK 25/21 Q1013 NOSIG
ZGOW,2011-11-06 11:00,ZGOW 061100Z 08006MPS CAVOK 25/21 Q1014 NOSIG
ZGOW,2011-11-06 12:00,ZGOW 061200Z 09005MPS CAVOK 25/21 Q1015 NOSIG
ZGOW,2011-11-06 13:00,ZGOW 061300Z 08006G12MPS CAVOK 25/21 Q1014 NOSIG
ZGOW,2011-11-06 14:00,ZGOW 061400Z 06009MPS CAVOK 25/21 Q1014 NOSIG
ZGOW,2011-11-06 15:00,ZGOW 061500Z 06006MPS CAVOK 25/21 Q1015 NOSIG
ZGOW,2011-11-06 16:00,ZGOW 061600Z 08005MPS CAVOK 25/21 Q1015 NOSIG
ZGOW,2011-11-06 17:00,ZGOW 061700Z AUTO 08006MPS CAVOK 24/21 Q1014
ZGOW,2011-11-06 19:00,ZGOW 061900Z AUTO 01003MPS CAVOK 24/20 Q1012
ZGOW,2011-11-06 20:00,ZGOW 062000Z AUTO 02003MPS CAVOK 25/20 Q1012
ZGOW,2011-11-06 21:00,ZGOW 062100Z 10001MPS CAVOK 23/20 Q1012 NOSIG
ZGOW,2011-11-06 22:00,ZGOW 062200Z 07001MPS CAVOK 24/20 Q1012 NOSIG
ZGOW,2011-11-06 23:00,ZGOW 062300Z 07005G10MPS CAVOK 25/19 Q1013 NOSIG
ZGOW,2011-11-07 00:00,ZGOW 070000Z 08006MPS 8000 NSC 25/20 Q1014 NOSIG
ZGOW,2011-11-07 01:00,ZGOW 070100Z 07007MPS CAVOK 26/20 Q1014 NOSIG
ZGOW,2011-11-07 02:00,ZGOW 070200Z 08007G12MPS CAVOK 26/20 Q1014 NOSIG
ZGOW,2011-11-07 03:00,ZGOW 070300Z 06009G14MPS 9999 FEW023 FEW033TCU 26/20 Q1013 NOSIG
ZGOW,2011-11-07 04:00,ZGOW 070400Z 07009MPS 9999 SCT020 FEW033TCU 25/20 Q1013 NOSIG
ZGOW,2011-11-07 05:00,ZGOW 070500Z 07006MPS 9999 FEW020 FEW030TCU 25/20 Q1012 NOSIG
ZGOW,2011-11-07 06:00,ZGOW 070600Z 04005MPS 8000 -SHRA FEW020 FEW033TCU 25/21 Q1012 NOSIG
ZGOW,2011-11-07 07:00,ZGOW 070700Z 06005MPS 8000 -SHRA FEW020 FEW030TCU 24/20 Q1012 NOSIG
ZGOW,2011-11-07 08:00,ZGOW 070800Z 04007MPS 7000 -SHRA FEW020 FEW030TCU 24/20 Q1012 NOSIG
ZGOW,2011-11-07 09:00,ZGOW 070900Z 06003MPS 7000 SCT020 FEW030TCU BKN050 23/20 Q1012 NOSIG
ZGOW,2011-11-07 10:00,ZGOW 071000Z 05004MPS 4000 -SHRA BR SCT010 FEW030TCU OVC040 22/21 Q1013 NOSIG
ZGOW,2011-11-07 11:00,ZGOW 071100Z 06003MPS 3500 -RA BR SCT006 BKN025 BKN040 22/21 Q1013 NOSIG
ZGOW,2011-11-07 12:00,ZGOW 071200Z 02004MPS 4500 -RA BR SCT015 BKN026 BKN040 22/21 Q1014 NOSIG
ZGOW,2011-11-07 13:00,ZGOW 071300Z 04004MPS 5000 -RA BR SCT015 BKN028 BKN040 22/20 Q1014 NOSIG
ZGOW,2011-11-07 14:00,ZGOW 071400Z 03003MPS 3500 -RA BR SCT010 BKN025 BKN040 22/21 Q1014 NOSIG
ZGOW,2011-11-07 15:00,ZGOW 071500Z 06003MPS 5000 -RA BR SCT010 BKN025 BKN040 21/21 Q1014 NOSIG
ZGOW,2011-11-07 16:00,ZGOW 071600Z 04004MPS 3500 -RA BR SCT008 BKN025 BKN040 21/20 Q1013 NOSIG
ZGOW,2011-11-07 17:00,ZGOW 071700Z AUTO 02004MPS 8000 ////// 21/20 Q1012
ZGOW,2011-11-07 18:00,ZGOW 071800Z AUTO 01004MPS 9999 ////// 21/20 Q1012
ZGOW,2011-11-07 19:00,ZGOW 071900Z AUTO 03004MPS 3900 // ////// 21/20 Q1012
ZGOW,2011-11-07 20:00,ZGOW 072000Z AUTO 03005MPS 3800 // ////// 21/20 Q1011
ZGOW,2011-11-07 21:00,ZGOW 072100Z 02004MPS 6000 -RA SCT008 BKN025 BKN040 21/20 Q1011 NOSIG
ZGOW,2011-11-07 22:00,ZGOW 072200Z 02004MPS 6000 -RA SCT012 BKN025 BKN040 21/20 Q1011 NOSIG
ZGOW,2011-11-07 23:00,ZGOW 072300Z 03005MPS 5000 -SHRA BKN024 FEW033TCU OVC040 21/20 Q1012 NOSIG
ZGOW,2011-11-08 00:00,ZGOW 080000Z 02004MPS 8000 -SHRA BKN020 SCT033TCU OVC043 21/20 Q1012 NOSIG
ZGOW,2011-11-08 01:00,ZGOW 080100Z 04005MPS 9999 -SHRA BKN020 FEW026TCU OVC040 22/21 Q1013 NOSIG
ZGOW,2011-11-08 02:00,ZGOW 080200Z 04005MPS 9999 -SHRA FEW009 SCT020 FEW026TCU OVC040 22/21 Q1012 NOSIG
ZGOW,2011-11-08 03:00,ZGOW 080300Z 03005MPS 9999 -SHRA FEW010 SCT020 FEW030TCU OVC040 22/21 Q1012 NOSIG
ZGOW,2011-11-08 04:00,ZGOW 080400Z 04005MPS 4000 -SHRA FEW010 SCT020 FEW030CB OVC040 22/21 Q1011 TEMPO 2000 SHRA
ZGOW,2011-11-08 05:00,ZGOW 080500Z 04003MPS 3000 -SHRA SCT005 FEW028CB OVC040 22/21 Q1010 RESHRA NOSIG
ZGOW,2011-11-08 06:00,ZGOW 080600Z 06004MPS 3000 -SHRA SCT005 SCT018 FEW030CB OVC040 22/21 Q1010 NOSIG
ZGOW,2011-11-08 07:00,ZGOW 080700Z 05005MPS 8000 -SHRA SCT008 SCT022 FEW030CB OVC040 22/21 Q1010 NOSIG
ZGOW,2011-11-08 08:00,ZGOW 080800Z 05003MPS 2800 SHRA SCT005 SCT018 FEW033CB BKN033 22/21 Q1010 NOSIG
ZGOW,2011-11-08 09:00,ZGOW 080900Z 06007MPS 7000 -SHRA SCT007 FEW028CB OVC033 21/21 Q1010 RESHRA NOSIG
ZGOW,2011-11-08 10:00,ZGOW 081000Z 07005MPS 6000 -SHRA SCT012 FEW028CB OVC033 21/21 Q1010 NOSIG
ZGOW,2011-11-08 11:00,ZGOW 081100Z 06007MPS 6000 -SHRA SCT016 FEW028TCU BKN033 21/20 Q1011 NOSIG
ZGOW,2011-11-08 12:00,ZGOW 081200Z 05005MPS 6000 -SHRA SCT016 FEW028TCU BKN033 21/20 Q1011 NOSIG
ZGOW,2011-11-08 13:00,ZGOW 081300Z 07003MPS 2800 SHRA SCT010 FEW028CB OVC040 21/20 Q1011 NOSIG
ZGOW,2011-11-08 14:00,ZGOW 081400Z 06005MPS 3500 SHRA FEW004 SCT016 FEW028CB OVC036 21/20 Q1011 NOSIG
ZGOW,2011-11-08 15:00,ZGOW 081500Z 06003MPS 3500 SHRA SCT005 SCT016 FEW028CB OVC036 21/20 Q1012 NOSIG
ZGOW,2011-11-08 16:00,ZGOW 081600Z 07003MPS 3500 SHRA SCT005 FEW028CB OVC033 20/20 Q1011 NOSIG
ZGOW,2011-11-08 17:00,ZGOW 081700Z AUTO 06005MPS 7000 ////// 20/20 Q1010
ZGOW,2011-11-08 18:00,ZGOW 081800Z AUTO 06005MPS 9999 ////// 20/19 Q1010
ZGOW,2011-11-08 19:00,ZGOW 081900Z AUTO 04004MPS 5000 ////// 20/19 Q1010
ZGOW,2011-11-08 20:00,ZGOW 082000Z AUTO 04004MPS 9999 ////// 20/19 Q1009
ZGOW,2011-11-08 21:00,ZGOW 082100Z 34002MPS 6000 -SHRA SCT012 FEW030TCU BKN030 20/19 Q1009 NOSIG
ZGOW,2011-11-08 22:00,ZGOW 082200Z 35002MPS 6000 -SHRA SCT012 BKN024 FEW030TCU 20/19 Q1010 NOSIG
ZGOW,2011-11-08 23:00,ZGOW 082300Z 02003MPS 6000 -SHRA SCT008 BKN016 FEW030TCU 20/19 Q1011 TEMPO 2000 SHRA
ZGOW,2011-11-09 00:00,ZGOW 090000Z 01004MPS 6000 -SHRA SCT012 FEW028CB OVC033 20/19 Q1011 TEMPO 2000 SHRA
ZGOW,2011-11-09 01:00,ZGOW 090100Z 04004MPS 5000 -SHRA SCT012 FEW033CB BKN033 20/19 Q1011 NOSIG
ZGOW,2011-11-09 02:00,ZGOW 090200Z 03004MPS 9999 -SHRA SCT012 FEW033CB BKN033 20/19 Q1011 NOSIG
ZGOW,2011-11-09 03:00,ZGOW 090300Z 04004MPS 7000 -SHRA SCT012 FEW033CB BKN033 20/19 Q1010 NOSIG
ZGOW,2011-11-09 04:00,ZGOW 090400Z 01003MPS 9999 -SHRA SCT012 FEW033CB BKN033 20/19 Q1010 NOSIG
ZGOW,2011-11-09 05:00,ZGOW 090500Z 02003MPS 6000 -SHRA SCT008 FEW033CB BKN033 20/19 Q1009 RESHRA TEMPO 2100 SHRA
ZGOW,2011-11-09 06:00,ZGOW 090600Z 04005MPS 6000 -SHRA SCT008 FEW033CB BKN033 20/19 Q1008 TEMPO 2100 SHRA
ZGOW,2011-11-09 07:00,ZGOW 090700Z 05004MPS 2800 -SHRA SCT008 FEW033CB BKN033 19/19 Q1008 TEMPO 2100 SHRA
ZGOW,2011-11-09 08:00,ZGOW 090800Z 02004MPS 2800 -SHRA FEW005 SCT008 FEW033CB BKN033 19/18 Q1008 TEMPO 2100 SHRA
ZGOW,2011-11-09 09:00,ZGOW 090900Z 06003MPS 2500 -SHRA FEW005 SCT008 FEW033CB BKN033 19/18 Q1008 TEMPO 2100 SHRA
ZGOW,2011-11-09 10:00,ZGOW 091000Z 05004MPS 2500 -SHRA FEW005 SCT008 FEW033CB BKN033 19/18 Q1009 TEMPO 2100 SHRA
ZGOW,2011-11-09 11:00,ZGOW 091100Z 07003MPS 2800 -SHRA FEW005 SCT008 FEW033CB BKN033 19/18 Q1010 TEMPO 2100 SHRA
ZGOW,2011-11-09 12:00,ZGOW 091200Z 01003MPS 4000 -SHRA FEW005 SCT008 FEW033CB BKN033 19/19 Q1011 NOSIG
ZGOW,2011-11-09 13:00,ZGOW 091300Z 34002MPS 4000 -SHRA SCT005 FEW033CB BKN033 19/18 Q1011 NOSIG
ZGOW,2011-11-09 14:00,ZGOW 091400Z 35002MPS 6000 -SHRA SCT005 FEW033CB BKN033 18/18 Q1011 NOSIG
ZGOW,2011-11-09 15:00,ZGOW 091500Z 33002MPS 7000 -SHRA SCT005 FEW033CB BKN033 18/18 Q1011 NOSIG
ZGOW,2011-11-09 16:00,ZGOW 091600Z 02002MPS 5000 -SHRA SCT005 FEW033CB BKN033 18/18 Q1010 NOSIG
ZGOW,2011-11-09 17:00,ZGOW 091700Z AUTO 33002MPS 9999 ////// 18/18 Q1010
ZGOW,2011-11-09 18:00,ZGOW 091800Z AUTO 35002MPS 8000 ////// 18/18 Q1010
ZGOW,2011-11-09 19:00,ZGOW 091900Z AUTO 32002MPS 9999 ////// 18/18 Q1010
ZGOW,2011-11-09 20:00,ZGOW 092000Z AUTO 31003MPS 6000 ////// 18/17 Q1010
ZGOW,2011-11-09 21:00,ZGOW 092100Z 34002MPS 2800 -SHRA SCT005 FEW033CB BKN033 18/17 Q1010 NOSIG
ZGOW,2011-11-09 22:00,ZGOW 092200Z 34001MPS 7000 -RA SCT005 FEW033CB BKN033 18/17 Q1011 NOSIG
ZGOW,2011-11-09 23:00,ZGOW 092300Z 33002MPS 4000 -RA FEW005 SCT015 FEW033CB BKN033 18/17 Q1011 NOSIG
ZGOW,2011-11-10 00:00,ZGOW 100000Z 34002MPS 9999 FEW005 SCT020 OVC033 18/17 Q1012 NOSIG
ZGOW,2011-11-10 01:00,ZGOW 100100Z 34003MPS 300V030 9999 FEW015 BKN033 BKN050 19/17 Q1013 NOSIG
ZGOW,2011-11-10 02:00,ZGOW 100200Z 34003MPS 270V030 9999 BKN040 19/17 Q1012 NOSIG
ZGOW,2011-11-10 03:00,ZGOW 100300Z 36003MPS 9999 SCT040 21/17 Q1012 NOSIG
ZGOW,2011-11-10 04:00,ZGOW 100400Z 01002MPS 9999 SCT024 SCT040 22/17 Q1011 NOSIG
ZGOW,2011-11-10 05:00,ZGOW 100500Z 34003MPS 280V040 9999 SCT026 SCT040 22/17 Q1010 NOSIG
ZGOW,2011-11-10 06:00,ZGOW 100600Z 34002MPS 9999 BKN030 22/17 Q1010 NOSIG
ZGOW,2011-11-10 07:00,ZGOW 100700Z 33003MPS 280V030 9999 BKN030 21/16 Q1010 NOSIG
ZGOW,2011-11-10 08:00,ZGOW 100800Z 33002MPS 9999 BKN040 21/16 Q1011 NOSIG
ZGOW,2011-11-10 09:00,ZGOW 100900Z 34002MPS 9999 SCT033 OVC050 21/16 Q1011 NOSIG
ZGOW,2011-11-10 10:00,ZGOW 101000Z 34003MPS 9999 SCT026 OVC050 20/15 Q1012 NOSIG
ZGOW,2011-11-10 11:00,ZGOW 101100Z 34003MPS 300V020 9999 FEW030 20/15 Q1012 NOSIG
ZGOW,2011-11-10 12:00,ZGOW 101200Z 34003MPS 9999 FEW030 19/15 Q1013 NOSIG
ZGOW,2011-11-10 13:00,ZGOW 101300Z 33003MPS 290V030 9999 SCT030 19/15 Q1014 NOSIG
ZGOW,2011-11-10 14:00,ZGOW 101400Z 34003MPS 300V030 9999 SCT030 19/15 Q1014 NOSIG
ZGOW,2011-11-10 15:00,ZGOW 101500Z 33003MPS 9999 SCT030 19/14 Q1014 NOSIG
ZGOW,2011-11-10 16:00,ZGOW 101600Z 32003MPS 9999 SCT030 19/14 Q1014 NOSIG
ZGOW,2011-11-10 17:00,ZGOW 101700Z AUTO 33003MPS 9999 ////// 18/14 Q1014
ZGOW,2011-11-10 18:00,ZGOW 101800Z AUTO 33004MPS 9999 ////// 18/14 Q1014
ZGOW,2011-11-10 19:00,ZGOW 101900Z AUTO 33004MPS CAVOK 18/14 Q1013
ZGOW,2011-11-10 20:00,ZGOW 102000Z AUTO 32003MPS 9999 ////// 18/14 Q1014
ZGOW,2011-11-10 21:00,ZGOW 102100Z 33003MPS 9999 BKN050 18/14 Q1014 NOSIG
ZGOW,2011-11-10 22:00,ZGOW 102200Z 32004MPS 280V360 CAVOK 18/13 Q1014 NOSIG
ZGOW,2011-11-10 23:00,ZGOW 102300Z 34003MPS 300V030 9999 BKN050 18/13 Q1015 NOSIG
ZGOW,2011-11-11 00:00,ZGOW 110000Z 34004MPS 300V030 CAVOK 18/14 Q1015 NOSIG
ZGOW,2011-11-11 01:00,ZGOW 110100Z 34003MPS CAVOK 18/14 Q1016 NOSIG
ZGOW,2011-11-11 02:00,ZGOW 110200Z 32004MPS CAVOK 20/14 Q1016 NOSIG
ZGOW,2011-11-11 03:00,ZGOW 110300Z 32003MPS 9999 FEW026 20/15 Q1016 NOSIG
ZGOW,2011-11-11 04:00,ZGOW 110400Z 34003MPS CAVOK 22/14 Q1015 NOSIG
ZGOW,2011-11-11 05:00,ZGOW 110500Z 34002MPS 9999 BKN040 22/15 Q1014 NOSIG
ZGOW,2011-11-11 06:00,ZGOW 110600Z 04001MPS 9999 BKN040 22/15 Q1014 NOSIG
ZGOW,2011-11-11 07:00,ZGOW 110700Z 08002MPS CAVOK 22/16 Q1014 NOSIG
ZGOW,2011-11-11 08:00,ZGOW 110800Z 09001MPS 9999 SCT033 22/16 Q1014 NOSIG
ZGOW,2011-11-11 09:00,ZGOW 110900Z 09002MPS CAVOK 21/16 Q1014 NOSIG
ZGOW,2011-11-11 10:00,ZGOW 111000Z 08001MPS CAVOK 20/17 Q1014 NOSIG
ZGOW,2011-11-11 11:00,ZGOW 111100Z 06002MPS CAVOK 20/17 Q1015 NOSIG
ZGOW,2011-11-11 12:00,ZGOW 111200Z 07002MPS 8000 BKN040 20/18 Q1016 NOSIG
ZGOW,2011-11-11 13:00,ZGOW 111300Z 07003MPS 8000 SCT028 BKN040 20/17 Q1016 NOSIG
ZGOW,2011-11-11 14:00,ZGOW 111400Z 08004MPS 8000 SCT040 20/16 Q1016 NOSIG
ZGOW,2011-11-11 15:00,ZGOW 111500Z 05004MPS 8000 SCT040 19/16 Q1016 NOSIG
ZGOW,2011-11-11 16:00,ZGOW 111600Z 06003MPS 7000 BKN033 19/16 Q1016 NOSIG
ZGOW,2011-11-11 17:00,ZGOW 111700Z AUTO 04002MPS 9000 ////// 19/16 Q1016
ZGOW,2011-11-11 18:00,ZGOW 111800Z AUTO 01001MPS 5000 ////// 19/17 Q1016
ZGOW,2011-11-11 19:00,ZGOW 111900Z AUTO 34001MPS 7000 ////// 19/17 Q1016
ZGOW,2011-11-11 20:00,ZGOW 112000Z AUTO 34001MPS 9999 ////// 19/16 Q1015
ZGOW,2011-11-11 21:00,ZGOW 112100Z 34001MPS 9999 BKN033 19/16 Q1016 NOSIG
ZGOW,2011-11-11 22:00,ZGOW 112200Z 04001MPS 9999 BKN033 19/16 Q1017 NOSIG
ZGOW,2011-11-11 23:00,ZGOW 112300Z 04001MPS 9999 BKN033 19/16 Q1018 NOSIG
ZGOW,2011-11-12 00:00,ZGOW 120000Z 04002MPS 9999 BKN032 20/16 Q1018 NOSIG
ZGOW,2011-11-12 01:00,ZGOW 120100Z 06003MPS 9999 BKN033 21/16 Q1019 NOSIG
ZGOW,2011-11-12 02:00,ZGOW 120200Z 07004MPS 9999 BKN030 21/17 Q1019 NOSIG
ZGOW,2011-11-12 03:00,ZGOW 120300Z 07004MPS 9999 BKN030 22/16 Q1018 NOSIG
ZGOW,2011-11-12 04:00,ZGOW 120400Z 09004MPS 9999 BKN030 22/17 Q1018 NOSIG
ZGOW,2011-11-12 05:00,ZGOW 120500Z 08004MPS 9999 BKN030 22/16 Q1017 NOSIG
ZGOW,2011-11-12 06:00,ZGOW 120600Z 08005MPS 9999 BKN030 21/17 Q1016 NOSIG
ZGOW,2011-11-12 07:00,ZGOW 120700Z 08004MPS 9999 BKN033 22/17 Q1016 NOSIG
ZGOW,2011-11-12 08:00,ZGOW 120800Z 08004MPS 9999 BKN050 23/17 Q1016 NOSIG
ZGOW,2011-11-12 09:00,ZGOW 120900Z 09002MPS 9999 BKN036 21/18 Q1017 NOSIG
ZGOW,2011-11-12 10:00,ZGOW 121000Z 08003MPS 7000 BKN040 20/17 Q1017 NOSIG
ZGOW,2011-11-12 11:00,ZGOW 121100Z 09002MPS 6000 BKN040 20/17 Q1017 NOSIG
ZGOW,2011-11-12 12:00,ZGOW 121200Z 09002MPS 6000 SCT040 20/17 Q1018 NOSIG
ZGOW,2011-11-12 13:00,ZGOW 121300Z 07004MPS 6000 SCT040 20/17 Q1018 NOSIG
ZGOW,2011-11-12 14:00,ZGOW 121400Z 06004MPS 6000 NSC 20/17 Q1018 NOSIG
ZGOW,2011-11-12 15:00,ZGOW 121500Z 06004MPS 6000 SCT050 20/17 Q1018 NOSIG
ZGOW,2011-11-12 16:00,ZGOW 121600Z 07005MPS 6000 SCT050 20/17 Q1018 NOSIG
ZGOW,2011-11-12 17:00,ZGOW 121700Z AUTO 08004MPS 9999 ////// 20/17 Q1018
ZGOW,2011-11-12 18:00,ZGOW 121800Z AUTO 07005MPS 9999 ////// 20/16 Q1018
ZGOW,2011-11-12 19:00,ZGOW 121900Z AUTO 03003MPS 6000 ////// 20/17 Q1017
ZGOW,2011-11-12 20:00,ZGOW 122000Z AUTO 01002MPS 7000 ////// 20/17 Q1017
ZGOW,2011-11-12 21:00,ZGOW 122100Z 36001MPS 5000 BR BKN040 20/17 Q1018 NOSIG
ZGOW,2011-11-12 22:00,ZGOW 122200Z 32001MPS 5000 BR BKN040 19/17 Q1018 NOSIG
ZGOW,2011-11-12 23:00,ZGOW 122300Z 34001MPS 4000 BR BKN043 20/17 Q1019 NOSIG
ZGOW,2011-11-13 00:00,ZGOW 130000Z 36002MPS 4000 BR BKN043 21/17 Q1019 NOSIG
ZGOW,2011-11-13 01:00,ZGOW 130100Z 35001MPS 4000 BR BKN050 22/17 Q1019 NOSIG
ZGOW,2011-11-13 02:00,ZGOW 130200Z 09002MPS 7000 BKN050 23/17 Q1019 NOSIG
ZGOW,2011-11-13 03:00,ZGOW 130300Z 05003MPS 7000 NSC 24/18 Q1018 NOSIG
ZGOW,2011-11-13 04:00,ZGOW 130400Z 09004MPS 8000 NSC 24/17 Q1018 NOSIG
ZGOW,2011-11-13 05:00,ZGOW 130500Z 13003MPS 7000 NSC 24/18 Q1017 NOSIG
ZGOW,2011-11-13 06:00,ZGOW 130600Z 08004MPS 7000 NSC 24/17 Q1016 NOSIG
ZGOW,2011-11-13 07:00,ZGOW 130700Z 09004MPS 8000 NSC 23/17 Q1016 NOSIG
ZGOW,2011-11-13 08:00,ZGOW 130800Z 08004MPS 8000 NSC 22/17 Q1016 NOSIG
ZGOW,2011-11-13 09:00,ZGOW 130900Z 08002MPS 7000 NSC 22/18 Q1016 NOSIG
ZGOW,2011-11-13 10:00,ZGOW 131000Z 08002MPS 5000 BR NSC 21/18 Q1017 NOSIG
ZGOW,2011-11-13 11:00,ZGOW 131100Z 07006MPS 5000 BR NSC 21/17 Q1018 NOSIG
ZGOW,2011-11-13 12:00,ZGOW 131200Z 08005MPS 5000 BR NSC 21/17 Q1018 NOSIG
ZGOW,2011-11-13 13:00,ZGOW 131300Z 08004MPS 5000 BR NSC 21/17 Q1018 NOSIG
ZGOW,2011-11-13 14:00,ZGOW 131400Z 08004MPS 5000 BR NSC 21/17 Q1019 NOSIG
ZGOW,2011-11-13 15:00,ZGOW 131500Z 08006MPS 5000 BR NSC 21/17 Q1019 NOSIG
ZGOW,2011-11-13 16:00,ZGOW 131600Z 07005MPS 6000 BKN033 21/17 Q1018 NOSIG
ZGOW,2011-11-13 17:00,ZGOW 131700Z AUTO 07004MPS 6000 ////// 21/17 Q1018
ZGOW,2011-11-13 18:00,ZGOW 131800Z AUTO 05003MPS 6000 ////// 20/17 Q1018
ZGOW,2011-11-13 19:00,ZGOW 131900Z AUTO 04003MPS 4500 // NCD 19/17 Q1018
ZGOW,2011-11-13 21:00,ZGOW 132100Z 04002MPS 4000 BR NSC 18/17 Q1018 NOSIG
ZGOW,2011-11-13 22:00,ZGOW 132200Z 04003MPS 4000 BR NSC 19/17 Q1019 NOSIG
ZGOW,2011-11-13 23:00,ZGOW 132300Z 00000MPS 3000 BR NSC 19/17 Q1019 NOSIG
ZGOW,2011-11-14 00:00,ZGOW 140000Z 06002MPS 3000 BR NSC 20/18 Q1020 NOSIG
ZGOW,2011-11-14 01:00,ZGOW 140100Z 05003MPS 6000 NSC 22/16 Q1020 NOSIG
ZGOW,2011-11-14 02:00,ZGOW 140200Z 07003MPS 7000 NSC 24/15 Q1020 NOSIG
ZGOW,2011-11-14 03:00,ZGOW 140300Z 08005MPS 8000 NSC 24/13 Q1019 NOSIG
ZGOW,2011-11-14 04:00,ZGOW 140400Z 08006MPS 050V120 8000 NSC 25/12 Q1019 NOSIG
ZGOW,2011-11-14 05:00,ZGOW 140500Z 08006MPS CAVOK 25/12 Q1018 NOSIG
ZGOW,2011-11-14 06:00,ZGOW 140600Z 09006MPS CAVOK 25/12 Q1017 NOSIG
ZGOW,2011-11-14 07:00,ZGOW 140700Z 08005MPS CAVOK 24/13 Q1017 NOSIG
ZGOW,2011-11-14 08:00,ZGOW 140800Z 09005MPS 7000 NSC 23/14 Q1017 NOSIG
ZGOW,2011-11-14 09:00,ZGOW 140900Z 08005MPS 5000 HZ NSC 22/15 Q1018 NOSIG
ZGOW,2011-11-14 10:00,ZGOW 141000Z 09005MPS 5000 HZ NSC 22/16 Q1018 NOSIG
ZGOW,2011-11-14 11:00,ZGOW 141100Z 09006MPS 6000 NSC 22/15 Q1019 NOSIG
ZGOW,2011-11-14 12:00,ZGOW 141200Z 08005MPS 6000 NSC 22/16 Q1020 NOSIG
ZGOW,2011-11-14 13:00,ZGOW 141300Z 08005MPS 6000 NSC 22/15 Q1020 NOSIG
ZGOW,2011-11-14 14:00,ZGOW 141400Z 08004MPS 6000 NSC 21/14 Q1020 NOSIG
ZGOW,2011-11-14 15:00,ZGOW 141500Z 07003MPS 6000 NSC 21/14 Q1020 NOSIG
ZGOW,2011-11-14 16:00,ZGOW 141600Z 07003MPS 7000 NSC 21/13 Q1020 NOSIG
ZGOW,2011-11-14 17:00,ZGOW 141700Z AUTO 03002MPS 5000 ////// 21/14 Q1020
ZGOW,2011-11-14 18:00,ZGOW 141800Z AUTO 04002MPS 4400 // ////// 20/14 Q1019
ZGOW,2011-11-14 19:00,ZGOW 141900Z AUTO 35001MPS 5000 ////// 21/14 Q1019
ZGOW,2011-11-14 20:00,ZGOW 142000Z AUTO 13001MPS 4100 // ////// 20/15 Q1019
ZGOW,2011-11-14 21:00,ZGOW 142100Z 08002MPS 4500 BR NSC 18/14 Q1019 NOSIG
ZGOW,2011-11-14 22:00,ZGOW 142200Z 00000MPS 4500 BR NSC 19/14 Q1020 NOSIG
ZGOW,2011-11-14 23:00,ZGOW 142300Z 04002MPS 6000 NSC 19/14 Q1020 NOSIG
ZGOW,2011-11-15 00:00,ZGOW 150000Z 04002MPS 6000 NSC 22/13 Q1020 NOSIG
ZGOW,2011-11-15 01:00,ZGOW 150100Z 03003MPS 7000 NSC 24/11 Q1020 NOSIG
ZGOW,2011-11-15 02:00,ZGOW 150200Z 03004MPS 8000 NSC 25/13 Q1020 NOSIG
ZGOW,2011-11-15 03:00,ZGOW 150300Z 07004MPS 8000 NSC 26/14 Q1020 NOSIG
ZGOW,2011-11-15 04:00,ZGOW 150400Z 08005MPS 8000 NSC 27/15 Q1020 NOSIG
ZGOW,2011-11-15 05:00,ZGOW 150500Z 08007MPS 8000 NSC 26/16 Q1018 NOSIG
ZGOW,2011-11-15 06:00,ZGOW 150600Z 08008MPS 7000 NSC 26/16 Q1017 NOSIG
ZGOW,2011-11-15 07:00,ZGOW 150700Z 11004MPS 6000 NSC 26/17 Q1017 NOSIG
ZGOW,2011-11-15 08:00,ZGOW 150800Z 09007MPS 6000 SKC 24/17 Q1017 NOSIG
ZGOW,2011-11-15 09:00,ZGOW 150900Z 08008MPS 7000 NSC 22/18 Q1017 NOSIG
ZGOW,2011-11-15 10:00,ZGOW 151000Z 08007G13MPS 7000 NSC 21/18 Q1018 NOSIG
ZGOW,2011-11-15 11:00,ZGOW 151100Z 07009G14MPS 9999 SCT016 21/18 Q1019 NOSIG
ZGOW,2011-11-15 12:00,ZGOW 151200Z 07007MPS 9999 FEW016 21/18 Q1019 NOSIG
ZGOW,2011-11-15 13:00,ZGOW 151300Z 07006MPS CAVOK 21/18 Q1020 NOSIG
ZGOW,2011-11-15 14:00,ZGOW 151400Z 08007MPS CAVOK 21/17 Q1020 NOSIG
ZGOW,2011-11-15 15:00,ZGOW 151500Z 08006MPS CAVOK 21/17 Q1020 NOSIG
ZGOW,2011-11-15 16:00,ZGOW 151600Z 08005MPS 8000 NSC 21/17 Q1019 NOSIG
ZGOW,2011-11-15 20:00,ZGOW 152000Z AUTO 00000MPS 5000 ////// 20/17 Q1018
ZGOW,2011-11-15 21:00,ZGOW 152100Z 32001MPS 3500 BR NSC 19/17 Q1017 NOSIG
ZGOW,2011-11-15 22:00,ZGOW 152200Z 33002MPS 3000 BR NSC 19/18 Q1017 NOSIG
ZGOW,2011-11-15 23:00,ZGOW 152300Z 31002MPS 2500 BR NSC 19/18 Q1017 BECMG 3200 BR
ZGOW,2011-11-16 00:00,ZGOW 160000Z 32001MPS 2500 BR NSC 20/18 Q1018 BECMG 3200 BR
ZGOW,2011-11-16 01:00,ZGOW 160100Z 32001MPS 2800 BR NSC 23/18 Q1018 BECMG 3200 BR
ZGOW,2011-11-16 02:00,ZGOW 160200Z 09002MPS 4500 HZ NSC 24/18 Q1018 NOSIG
ZGOW,2011-11-16 03:00,ZGOW 160300Z 07004MPS 9999 BKN030 25/18 Q1018 NOSIG
ZGOW,2011-11-16 04:00,ZGOW 160400Z 08007MPS 9999 BKN033 25/18 Q1017 TEMPO 07008G13MPS
ZGOW,2011-11-16 05:00,ZGOW 160500Z 08005MPS 9999 FEW033 25/18 Q1016 TEMPO 07008G13MPS
ZGOW,2011-11-16 06:00,ZGOW 160600Z 09005MPS 9999 SCT036 26/19 Q1016 NOSIG
ZGOW,2011-11-16 07:00,ZGOW 160700Z 08005MPS CAVOK 26/19 Q1015 NOSIG
ZGOW,2011-11-16 08:00,ZGOW 160800Z 08004MPS CAVOK 26/19 Q1015 NOSIG
ZGOW,2011-11-16 09:00,ZGOW 160900Z 08003MPS 9999 BKN040 24/19 Q1015 NOSIG
ZGOW,2011-11-16 10:00,ZGOW 161000Z 07003MPS 9999 BKN033 24/19 Q1015 NOSIG
ZGOW,2011-11-16 11:00,ZGOW 161100Z 10002MPS 9999 BKN033 24/19 Q1016 NOSIG
ZGOW,2011-11-16 12:00,ZGOW 161200Z 08001MPS 9999 BKN033 23/20 Q1016 NOSIG
ZGOW,2011-11-16 13:00,ZGOW 161300Z 09002MPS 9999 BKN033 23/20 Q1016 NOSIG
ZGOW,2011-11-16 14:00,ZGOW 161400Z 09001MPS 9999 BKN033 23/20 Q1016 NOSIG
ZGOW,2011-11-16 15:00,ZGOW 161500Z 08001MPS 7000 BKN036 23/20 Q1017 NOSIG
ZGOW,2011-11-16 16:00,ZGOW 161600Z 16001MPS 7000 BKN033 23/20 Q1016 NOSIG
ZGOW,2011-11-16 17:00,ZGOW 161700Z AUTO 06003MPS 7000 ////// 23/19 Q1016
ZGOW,2011-11-16 18:00,ZGOW 161800Z AUTO 36002MPS 9000 ////// 23/20 Q1015
ZGOW,2011-11-16 19:00,ZGOW 161900Z AUTO 29001MPS 4700 // NCD 22/20 Q1014
ZGOW,2011-11-16 20:00,ZGOW 162000Z AUTO 29001MPS 5000 ////// 22/20 Q1014
ZGOW,2011-11-16 21:00,ZGOW 162100Z 00000MPS 5000 BR SCT043 22/20 Q1015 NOSIG
ZGOW,2011-11-16 22:00,ZGOW 162200Z 00000MPS 4000 BR BKN046 22/19 Q1015 NOSIG
ZGOW,2011-11-16 23:00,ZGOW 162300Z 03001MPS 6000 BKN040 22/20 Q1015 NOSIG
ZGOW,2011-11-17 00:00,ZGOW 170000Z 05003MPS 8000 BKN040 23/20 Q1015 NOSIG
ZGOW,2011-11-17 01:00,ZGOW 170100Z 04004MPS 5000 -RA BR FEW014 BKN033 23/20 Q1016 NOSIG
ZGOW,2011-11-17 02:00,ZGOW 170200Z 05003MPS 7000 FEW014 BKN033 24/20 Q1016 NOSIG
ZGOW,2011-11-17 03:00,ZGOW 170300Z 06006MPS 7000 FEW014 BKN033 24/20 Q1015 NOSIG
ZGOW,2011-11-17 04:00,ZGOW 170400Z 07006MPS 7000 FEW014 BKN033 24/21 Q1014 NOSIG
ZGOW,2011-11-17 05:00,ZGOW 170500Z 06004MPS 2500 -SHRA SCT014 FEW033CB BKN033 22/21 Q1013 NOSIG
ZGOW,2011-11-17 06:00,ZGOW 170600Z 03004MPS 2500 R04/1400VP2000U -SHRA SCT014 FEW033CB BKN033 22/22 Q1013 NOSIG
ZGOW,2011-11-17 07:00,ZGOW 170700Z 04004MPS 2800 -SHRA SCT014 FEW033CB BKN033 22/22 Q1012 NOSIG
ZGOW,2011-11-17 08:00,ZGOW 170800Z 06004MPS 2800 -SHRA SCT007 FEW033CB BKN033 22/22 Q1012 TEMPO 1400 SHRA SCT004 FEW030CB BKN033
ZGOW,2011-11-17 09:00,ZGOW 170900Z 07004MPS 2800 -SHRA SCT007 FEW033CB BKN033 22/21 Q1012 TEMPO 1400 SHRA SCT004 FEW030CB BKN033
ZGOW,2011-11-17 10:00,ZGOW 171000Z 06005MPS 2500 -SHRA SCT007 FEW033CB BKN033 22/21 Q1012 TEMPO 1400 SHRA SCT004 FEW030CB BKN033
ZGOW,2011-11-17 11:00,ZGOW 171100Z 06003MPS 2500 -SHRA SCT007 FEW033CB BKN033 22/21 Q1013 TEMPO 1400 SHRA SCT004 FEW030CB BKN033
ZGOW,2011-11-17 12:00,ZGOW 171200Z 07003MPS 2500 -SHRA SCT007 FEW033CB BKN033 22/21 Q1013 NOSIG
ZGOW,2011-11-17 13:00,ZGOW 171300Z 07004MPS 4000 -SHRA SCT007 FEW033CB BKN033 22/21 Q1013 NOSIG
ZGOW,2011-11-17 14:00,ZGOW 171400Z 07004MPS 3500 -SHRA SCT007 FEW033CB BKN033 22/21 Q1013 NOSIG
ZGOW,2011-11-17 15:00,ZGOW 171500Z 07007MPS 2800 -SHRA SCT007 FEW033CB BKN033 22/21 Q1012 NOSIG
ZGOW,2011-11-17 16:00,ZGOW 171600Z 07006MPS 2500 -SHRA SCT007 FEW033CB BKN033 22/21 Q1012 TEMPO 1400 SHRA BKN005 FEW033CB BKN033
ZGOW,2011-11-17 17:00,ZGOW 171700Z AUTO 08006MPS 2600 // ////// 22/21 Q1011
ZGOW,2011-11-17 18:00,ZGOW 171800Z AUTO 07005MPS 2300 // ////// 22/21 Q1011
ZGOW,2011-11-17 19:00,ZGOW 171900Z AUTO 07006MPS 2400 // ////// 22/21 Q1010
ZGOW,2011-11-17 20:00,ZGOW 172000Z AUTO 07006MPS 2100 // ////// 22/21 Q1010
ZGOW,2011-11-17 21:00,ZGOW 172100Z 08006MPS 2500 -SHRA SCT007 FEW033CB BKN033 22/21 Q1009 NOSIG
ZGOW,2011-11-17 22:00,ZGOW 172200Z 08005MPS 5000 -SHRA FEW033CB BKN033 22/21 Q1010 NOSIG
ZGOW,2011-11-17 23:00,ZGOW 172300Z 08005MPS 4000 -SHRA SCT014 FEW033CB BKN033 22/21 Q1010 NOSIG
ZGOW,2011-11-18 00:00,ZGOW 180000Z 07003MPS 4000 -SHRA SCT012 FEW033CB BKN033 22/22 Q1011 TEMPO 2000 SHRA BKN005 FEW033CB BKN033
ZGOW,2011-11-18 01:00,ZGOW 180100Z 08004MPS 2500 SHRA SCT006 FEW033CB BKN033 22/22 Q1011 TEMPO 1400 SHRA BKN004 FEW033CB BKN033
ZGOW,2011-11-18 02:00,ZGOW 180200Z 12004MPS 2500 SHRA SCT006 SCT033CB BKN033 23/23 Q1011 TEMPO 1400 SHRA BKN004 SCT033CB BKN033
ZGOW,2011-11-18 03:00,ZGOW 180300Z 12004MPS 2800 SHRA SCT005 SCT033CB BKN033 23/22 Q1010 TEMPO 1400 SHRA BKN004 SCT033CB BKN033
ZGOW,2011-11-18 04:00,ZGOW 180400Z 21004MPS 4000 SHRA SCT004 SCT033CB BKN033 24/23 Q1010 TEMPO 1400 SHRA BKN004 SCT033CB BKN033
ZGOW,2011-11-18 05:00,ZGOW 180500Z 18003MPS 8000 SCT007 FEW033CB BKN033 25/24 Q1009 RESHRA NOSIG
ZGOW,2011-11-18 06:00,ZGOW 180600Z 20004MPS 9999 SCT022 FEW033CB BKN040 26/24 Q1008 NOSIG
ZGOW,2011-11-18 07:00,ZGOW 180700Z 20004MPS 9999 SCT016 FEW033CB 27/24 Q1008 NOSIG
ZGOW,2011-11-18 08:00,ZGOW 180800Z 20002MPS 9999 FEW016 FEW033TCU 27/24 Q1008 NOSIG
ZGOW,2011-11-18 09:00,ZGOW 180900Z 23002MPS 9999 FEW020 27/23 Q1008 NOSIG
ZGOW,2011-11-18 10:00,ZGOW 181000Z 16002MPS 9999 FEW020 26/24 Q1009 NOSIG
ZGOW,2011-11-18 11:00,ZGOW 181100Z 17002MPS 7000 FEW020 25/23 Q1010 NOSIG
ZGOW,2011-11-18 12:00,ZGOW 181200Z 17001MPS 8000 NSC 25/23 Q1010 NOSIG
ZGOW,2011-11-18 13:00,ZGOW 181300Z 00000MPS 4000 BR NSC 24/23 Q1011 NOSIG
ZGOW,2011-11-18 14:00,ZGOW 181400Z 19001MPS 5000 BR NSC 24/23 Q1011 NOSIG
ZGOW,2011-11-18 15:00,ZGOW 181500Z 06001MPS 3500 BR NSC 24/23 Q1010 NOSIG
ZGOW,2011-11-18 16:00,ZGOW 181600Z 00000MPS 2000 BR FEW033 24/23 Q1010 NOSIG
ZGOW,2011-11-18 17:00,ZGOW 181700Z 06001MPS 1800 R04/1200V1800U BR NSC 23/23 Q1010 NOSIG
ZGOW,2011-11-18 18:00,ZGOW 181800Z 00000MPS 1800 BR FEW005 FEW033CB 24/23 Q1009 NOSIG
ZGOW,2011-11-18 19:00,ZGOW 181900Z 22001MPS 1800 SHRA BKN004 FEW033CB BKN050 24/23 Q1010 TEMPO 1400 SHRA BKN004 SCT030CB BKN033
ZGOW,2011-11-18 21:00,ZGOW 182100Z 00000MPS 2500 BR SCT004 23/23 Q1009 NOSIG
ZGOW,2011-11-18 22:00,ZGOW 182200Z 00000MPS 1800 BR SCT004 23/23 Q1010 NOSIG
ZGOW,2011-11-18 23:00,ZGOW 182300Z 36001MPS 3000 BR FEW004 23/23 Q1010 NOSIG
ZGOW,2011-11-19 00:00,ZGOW 190000Z 03001MPS 3000 -SHRA BR FEW004 FEW030TCU 23/23 Q1012 NOSIG
ZGOW,2011-11-19 01:00,ZGOW 190100Z 29001MPS 2200 -SHRA BR SCT003 FEW026TCU BKN040 24/23 Q1012 NOSIG
ZGOW,2011-11-19 02:00,ZGOW 190200Z 32001MPS 4000 -SHRA BR FEW004 FEW026TCU BKN043 24/23 Q1013 NOSIG
ZGOW,2011-11-19 03:00,ZGOW 190300Z 35002MPS 4000 -SHRA BR SCT016 FEW030CB OVC043 24/23 Q1013 NOSIG
ZGOW,2011-11-19 04:00,ZGOW 190400Z 32002MPS 4000 -TSRA FEW006 SCT018 SCT030CB OVC050 23/23 Q1013 RESHRA TEMPO 2100 TSRA
ZGOW,2011-11-19 05:00,ZGOW 190500Z 33003MPS 7000 -SHRA SCT014 FEW033CB SCT033 23/22 Q1012 RETS NOSIG
ZGOW,2011-11-19 06:00,ZGOW 190600Z 01001MPS 9999 FEW026TCU SCT040 24/23 Q1011 NOSIG
ZGOW,2011-11-19 07:00,ZGOW 190700Z 36002MPS 9999 FEW012 SCT040 26/23 Q1011 NOSIG
ZGOW,2011-11-19 08:00,ZGOW 190800Z 01001MPS 9999 FEW020 26/22 Q1012 NOSIG
ZGOW,2011-11-19 09:00,ZGOW 190900Z 12001MPS 7000 NSC 25/23 Q1013 NOSIG
ZGOW,2011-11-19 10:00,ZGOW 191000Z 06001MPS 9999 BKN033 24/22 Q1014 NOSIG
ZGOW,2011-11-19 11:00,ZGOW 191100Z 03002MPS 9999 BKN033 24/22 Q1014 NOSIG
ZGOW,2011-11-19 12:00,ZGOW 191200Z 07002MPS 9999 BKN050 24/22 Q1015 NOSIG
ZGOW,2011-11-19 13:00,ZGOW 191300Z 07002MPS 9999 BKN030 23/22 Q1016 NOSIG
ZGOW,2011-11-19 14:00,ZGOW 191400Z 08005MPS 9999 SCT030 22/21 Q1017 NOSIG
ZGOW,2011-11-19 15:00,ZGOW 191500Z 08006MPS 9999 SCT033 22/21 Q1017 NOSIG
ZGOW,2011-11-19 16:00,ZGOW 191600Z 07005MPS 9999 FEW033 22/20 Q1017 NOSIG
ZGOW,2011-11-19 17:00,ZGOW 191700Z AUTO 07004MPS 9999 ////// 22/20 Q1017
ZGOW,2011-11-19 18:00,ZGOW 191800Z AUTO 08005MPS 9999 ////// 22/20 Q1017
ZGOW,2011-11-19 19:00,ZGOW 191900Z AUTO 05005MPS 9999 ////// 21/20 Q1018
ZGOW,2011-11-19 20:00,ZGOW 192000Z AUTO 06006MPS 9999 ////// 21/19 Q1018
ZGOW,2011-11-19 21:00,ZGOW 192100Z 08003MPS 9999 SCT018 21/19 Q1018 NOSIG
ZGOW,2011-11-19 22:00,ZGOW 192200Z 07004MPS 9999 SCT016 21/19 Q1019 NOSIG
ZGOW,2011-11-19 23:00,ZGOW 192300Z 08008MPS 9999 SCT024 21/18 Q1020 NOSIG
ZGOW,2011-11-20 00:00,ZGOW 200000Z 07009MPS 9999 SCT020 BKN036 21/18 Q1021 NOSIG
ZGOW,2011-11-20 01:00,ZGOW 200100Z 06008MPS 9999 SCT036 23/18 Q1022 NOSIG
ZGOW,2011-11-20 02:00,ZGOW 200200Z 08009MPS 9999 SCT036 23/17 Q1022 NOSIG
ZGOW,2011-11-20 03:00,ZGOW 200300Z 08007MPS 9999 BKN036 23/17 Q1022 NOSIG
ZGOW,2011-11-20 04:00,ZGOW 200400Z 08009MPS CAVOK 24/17 Q1021 NOSIG
ZGOW,2011-11-20 05:00,ZGOW 200500Z 08009MPS CAVOK 24/17 Q1020 NOSIG
ZGOW,2011-11-20 06:00,ZGOW 200600Z 08009MPS CAVOK 23/16 Q1020 NOSIG
ZGOW,2011-11-20 07:00,ZGOW 200700Z 09009MPS CAVOK 22/15 Q1020 NOSIG
ZGOW,2011-11-20 08:00,ZGOW 200800Z 08008MPS 8000 NSC 22/16 Q1020 NOSIG
ZGOW,2011-11-20 09:00,ZGOW 200900Z 08007MPS 8000 NSC 21/16 Q1021 NOSIG
ZGOW,2011-11-20 10:00,ZGOW 201000Z 08008MPS 6000 NSC 20/15 Q1021 NOSIG
ZGOW,2011-11-20 11:00,ZGOW 201100Z 08007MPS 6000 NSC 20/15 Q1022 NOSIG
ZGOW,2011-11-20 12:00,ZGOW 201200Z 08009MPS 7000 NSC 19/14 Q1023 NOSIG
ZGOW,2011-11-20 13:00,ZGOW 201300Z 08009MPS 7000 NSC 19/13 Q1023 NOSIG
ZGOW,2011-11-20 14:00,ZGOW 201400Z 07008MPS 7000 NSC 19/13 Q1024 NOSIG
ZGOW,2011-11-20 15:00,ZGOW 201500Z 06008MPS 7000 NSC 19/10 Q1024 NOSIG
ZGOW,2011-11-20 16:00,ZGOW 201600Z 06006MPS 7000 NSC 18/10 Q1024 NOSIG
ZGOW,2011-11-20 17:00,ZGOW 201700Z AUTO 07005MPS 9999 ////// 18/09 Q1024
ZGOW,2011-11-20 18:00,ZGOW 201800Z AUTO 06005MPS 9999 ////// 18/08 Q1024
ZGOW,2011-11-20 19:00,ZGOW 201900Z AUTO 06001MPS 9999 ////// 18/10 Q1024
ZGOW,2011-11-20 20:00,ZGOW 202000Z AUTO 03002MPS 9999 ////// 17/09 Q1024
ZGOW,2011-11-20 21:00,ZGOW 202100Z 06003MPS 7000 NSC 18/09 Q1024 NOSIG
ZGOW,2011-11-20 22:00,ZGOW 202200Z 06003MPS 7000 NSC 17/10 Q1024 NOSIG
ZGOW,2011-11-20 23:00,ZGOW 202300Z 04003MPS CAVOK 18/10 Q1025 NOSIG
ZGOW,2011-11-21 00:00,ZGOW 210000Z 08007MPS CAVOK 19/09 Q1025 NOSIG
ZGOW,2011-11-21 01:00,ZGOW 210100Z 07007G12MPS CAVOK 20/10 Q1026 NOSIG
ZGOW,2011-11-21 02:00,ZGOW 210200Z 06008MPS CAVOK 21/10 Q1025 NOSIG
ZGOW,2011-11-21 03:00,ZGOW 210300Z 06008MPS CAVOK 21/11 Q1025 NOSIG
ZGOW,2011-11-21 04:00,ZGOW 210400Z 05007MPS CAVOK 23/11 Q1024 NOSIG
ZGOW,2011-11-21 05:00,ZGOW 210500Z 06007MPS CAVOK 23/12 Q1022 NOSIG
ZGOW,2011-11-21 06:00,ZGOW 210600Z 07006MPS 050V110 CAVOK 22/12 Q1021 NOSIG
ZGOW,2011-11-21 07:00,ZGOW 210700Z 08005MPS CAVOK 22/14 Q1021 NOSIG
ZGOW,2011-11-21 08:00,ZGOW 210800Z 09005MPS CAVOK 22/14 Q1021 NOSIG
ZGOW,2011-11-21 09:00,ZGOW 210900Z 09005MPS CAVOK 20/14 Q1021 NOSIG
ZGOW,2011-11-21 10:00,ZGOW 211000Z 09006MPS CAVOK 20/14 Q1021 NOSIG
ZGOW,2011-11-21 11:00,ZGOW 211100Z 09006MPS CAVOK 20/14 Q1022 NOSIG
ZGOW,2011-11-21 12:00,ZGOW 211200Z 08007MPS CAVOK 20/14 Q1023 NOSIG
ZGOW,2011-11-21 13:00,ZGOW 211300Z 08006MPS CAVOK 19/13 Q1023 NOSIG
ZGOW,2011-11-21 14:00,ZGOW 211400Z 08006MPS CAVOK 19/13 Q1023 NOSIG
ZGOW,2011-11-21 15:00,ZGOW 211500Z 08005MPS CAVOK 19/13 Q1023 NOSIG
ZGOW,2011-11-21 16:00,ZGOW 211600Z 07003MPS CAVOK 18/13 Q1023 NOSIG
ZGOW,2011-11-21 17:00,ZGOW 211700Z AUTO 09003MPS CAVOK 17/13 Q1022
ZGOW,2011-11-21 18:00,ZGOW 211800Z AUTO 03002MPS CAVOK 16/13 Q1022
ZGOW,2011-11-21 19:00,ZGOW 211900Z AUTO 02001MPS CAVOK 16/13 Q1022
ZGOW,2011-11-21 20:00,ZGOW 212000Z AUTO 34001MPS 9999 ////// 17/13 Q1022
ZGOW,2011-11-21 21:00,ZGOW 212100Z 36001MPS 9999 BKN040 17/13 Q1022 NOSIG
ZGOW,2011-11-21 22:00,ZGOW 212200Z 30001MPS 9999 SCT040 17/14 Q1023 NOSIG
ZGOW,2011-11-21 23:00,ZGOW 212300Z 32003MPS 8000 NSC 18/14 Q1023 NOSIG
ZGOW,2011-11-22 00:00,ZGOW 220000Z 31001MPS 7000 NSC 18/15 Q1023 NOSIG
ZGOW,2011-11-22 01:00,ZGOW 220100Z 33002MPS 7000 NSC 19/14 Q1024 NOSIG
ZGOW,2011-11-22 02:00,ZGOW 220200Z 32002MPS CAVOK 22/14 Q1023 NOSIG
ZGOW,2011-11-22 03:00,ZGOW 220300Z 33002MPS CAVOK 23/14 Q1023 NOSIG
ZGOW,2011-11-22 04:00,ZGOW 220400Z 06004MPS CAVOK 23/14 Q1022 NOSIG
ZGOW,2011-11-22 05:00,ZGOW 220500Z 07003MPS CAVOK 23/14 Q1020 NOSIG
ZGOW,2011-11-22 06:00,ZGOW 220600Z 07003MPS CAVOK 23/15 Q1019 NOSIG
ZGOW,2011-11-22 07:00,ZGOW 220700Z 08003MPS CAVOK 24/15 Q1019 NOSIG
ZGOW,2011-11-22 08:00,ZGOW 220800Z 07002MPS CAVOK 22/15 Q1019 NOSIG
ZGOW,2011-11-22 09:00,ZGOW 220900Z 15002MPS CAVOK 21/16 Q1020 NOSIG
ZGOW,2011-11-22 10:00,ZGOW 221000Z 00000MPS CAVOK 20/16 Q1020 NOSIG
ZGOW,2011-11-22 11:00,ZGOW 221100Z 00000MPS CAVOK 20/16 Q1020 NOSIG
ZGOW,2011-11-22 12:00,ZGOW 221200Z 06002MPS CAVOK 19/18 Q1021 NOSIG
ZGOW,2011-11-22 13:00,ZGOW 221300Z 08002MPS CAVOK 19/17 Q1022 NOSIG
ZGOW,2011-11-22 14:00,ZGOW 221400Z 04003MPS CAVOK 19/17 Q1022 NOSIG
ZGOW,2011-11-22 15:00,ZGOW 221500Z 05004MPS CAVOK 19/17 Q1022 NOSIG
ZGOW,2011-11-22 16:00,ZGOW 221600Z 02002MPS 9999 SCT050 19/17 Q1022 NOSIG
ZGOW,2011-11-22 17:00,ZGOW 221700Z AUTO 03003MPS CAVOK 19/16 Q1021
ZGOW,2011-11-22 19:00,ZGOW 221900Z AUTO 34002MPS 6000 NCD 18/16 Q1020
ZGOW,2011-11-22 21:00,ZGOW 222100Z 32002MPS 7000 NSC 18/16 Q1020 NOSIG
ZGOW,2011-11-22 22:00,ZGOW 222200Z 32002MPS 7000 NSC 18/16 Q1020 NOSIG
ZGOW,2011-11-22 23:00,ZGOW 222300Z 34001MPS 7000 NSC 18/15 Q1021 NOSIG
ZGOW,2011-11-23 00:00,ZGOW 230000Z 31002MPS 7000 NSC 18/15 Q1022 NOSIG
ZGOW,2011-11-23 01:00,ZGOW 230100Z 32003MPS CAVOK 20/15 Q1022 NOSIG
ZGOW,2011-11-23 02:00,ZGOW 230200Z 31002MPS CAVOK 22/15 Q1022 NOSIG
ZGOW,2011-11-23 03:00,ZGOW 230300Z 05003MPS CAVOK 24/14 Q1022 NOSIG
ZGOW,2011-11-23 04:00,ZGOW 230400Z 07003MPS CAVOK 25/12 Q1021 NOSIG
ZGOW,2011-11-23 05:00,ZGOW 230500Z 09005MPS CAVOK 25/15 Q1020 NOSIG
ZGOW,2011-11-23 06:00,ZGOW 230600Z 08005MPS CAVOK 24/14 Q1020 NOSIG
ZGOW,2011-11-23 07:00,ZGOW 230700Z 08004MPS CAVOK 23/15 Q1019 NOSIG
ZGOW,2011-11-23 08:00,ZGOW 230800Z 08006MPS CAVOK 23/16 Q1020 NOSIG
ZGOW,2011-11-23 09:00,ZGOW 230900Z 08005MPS 8000 NSC 21/17 Q1020 NOSIG
ZGOW,2011-11-23 10:00,ZGOW 231000Z 07005MPS 7000 NSC 20/17 Q1021 NOSIG
ZGOW,2011-11-23 11:00,ZGOW 231100Z 08006MPS 7000 SKC 20/17 Q1021 NOSIG
ZGOW,2011-11-23 12:00,ZGOW 231200Z 07007MPS 7000 SKC 20/16 Q1022 NOSIG
ZGOW,2011-11-23 13:00,ZGOW 231300Z 07008MPS 7000 SKC 20/15 Q1022 NOSIG
ZGOW,2011-11-23 14:00,ZGOW 231400Z 07008MPS 6000 NSC 20/15 Q1023 NOSIG
ZGOW,2011-11-23 15:00,ZGOW 231500Z 07008MPS 6000 NSC 19/14 Q1023 NOSIG
ZGOW,2011-11-23 16:00,ZGOW 231600Z 07006MPS 6000 NSC 19/14 Q1023 NOSIG
ZGOW,2011-11-23 17:00,ZGOW 231700Z AUTO 07003MPS CAVOK 18/14 Q1022
ZGOW,2011-11-23 21:00,ZGOW 232100Z 04005MPS 5000 BR SKC 17/13 Q1022 NOSIG
ZGOW,2011-11-23 22:00,ZGOW 232200Z 02005MPS 5000 HZ NSC 17/12 Q1023 NOSIG
ZGOW,2011-11-23 23:00,ZGOW 232300Z 03003MPS 5000 HZ NSC 16/12 Q1023 NOSIG
ZGOW,2011-11-24 00:00,ZGOW 240000Z 04004MPS 7000 SKC 18/12 Q1024 NOSIG
ZGOW,2011-11-24 01:00,ZGOW 240100Z 02003MPS 7000 SKC 20/12 Q1024 NOSIG
ZGOW,2011-11-24 02:00,ZGOW 240200Z 06005MPS 8000 SKC 21/11 Q1024 NOSIG
ZGOW,2011-11-24 03:00,ZGOW 240300Z 07006MPS 8000 SKC 22/10 Q1023 NOSIG
ZGOW,2011-11-24 04:00,ZGOW 240400Z 09006MPS 8000 SKC 22/11 Q1023 NOSIG
ZGOW,2011-11-24 05:00,ZGOW 240500Z 08006MPS 8000 NSC 22/10 Q1022 NOSIG
ZGOW,2011-11-24 06:00,ZGOW 240600Z 09006MPS 8000 NSC 22/11 Q1021 NOSIG
ZGOW,2011-11-24 07:00,ZGOW 240700Z 08006MPS 7000 NSC 21/11 Q1020 NOSIG
ZGOW,2011-11-24 08:00,ZGOW 240800Z 08006MPS 7000 NSC 21/12 Q1020 NOSIG
ZGOW,2011-11-24 09:00,ZGOW 240900Z 08004MPS 6000 NSC 19/13 Q1020 NOSIG
ZGOW,2011-11-24 10:00,ZGOW 241000Z 08003MPS 6000 NSC 18/13 Q1021 NOSIG
ZGOW,2011-11-24 11:00,ZGOW 241100Z 08004MPS 6000 NSC 18/14 Q1022 NOSIG
ZGOW,2011-11-24 12:00,ZGOW 241200Z 07007MPS 7000 NSC 18/14 Q1022 NOSIG
ZGOW,2011-11-24 13:00,ZGOW 241300Z 08004MPS 6000 NSC 18/14 Q1023 NOSIG
ZGOW,2011-11-24 14:00,ZGOW 241400Z 08005MPS 6000 NSC 17/13 Q1023 NOSIG
ZGOW,2011-11-24 15:00,ZGOW 241500Z 08007MPS 8000 NSC 17/11 Q1023 NOSIG
ZGOW,2011-11-24 16:00,ZGOW 241600Z 08005MPS 8000 NSC 17/11 Q1023 NOSIG
ZGOW,2011-11-24 17:00,ZGOW 241700Z AUTO 08006MPS CAVOK 17/10 Q1023
ZGOW,2011-11-24 18:00,ZGOW 241800Z AUTO 08004MPS CAVOK 16/10 Q1022
ZGOW,2011-11-24 19:00,ZGOW 241900Z AUTO 04002MPS 8000 NCD 14/10 Q1022
ZGOW,2011-11-24 21:00,ZGOW 242100Z 13001MPS 5000 BR NSC 15/11 Q1022 NOSIG
ZGOW,2011-11-24 22:00,ZGOW 242200Z 03002MPS 4000 BR NSC 15/12 Q1022 NOSIG
ZGOW,2011-11-24 23:00,ZGOW 242300Z 04002MPS 4000 BR NSC 15/11 Q1023 NOSIG
ZGOW,2011-11-25 00:00,ZGOW 250000Z 31001MPS 4000 HZ NSC 17/12 Q1024 NOSIG
ZGOW,2011-11-25 01:00,ZGOW 250100Z 30002MPS 4000 HZ NSC 18/11 Q1024 NOSIG
ZGOW,2011-11-25 02:00,ZGOW 250200Z 03004MPS 5000 HZ NSC 20/10 Q1024 NOSIG
ZGOW,2011-11-25 03:00,ZGOW 250300Z 07006G11MPS 030V090 CAVOK 21/11 Q1023 NOSIG
ZGOW,2011-11-25 04:00,ZGOW 250400Z 08005MPS CAVOK 22/11 Q1022 NOSIG
ZGOW,2011-11-25 05:00,ZGOW 250500Z 08003MPS CAVOK 22/12 Q1021 NOSIG
ZGOW,2011-11-25 06:00,ZGOW 250600Z 10003MPS CAVOK 22/12 Q1020 NOSIG
ZGOW,2011-11-25 07:00,ZGOW 250700Z 08004MPS 9999 FEW024 22/12 Q1020 NOSIG
ZGOW,2011-11-25 08:00,ZGOW 250800Z 09004MPS CAVOK 21/13 Q1020 NOSIG
ZGOW,2011-11-25 09:00,ZGOW 250900Z 09003MPS CAVOK 20/14 Q1019 NOSIG
ZGOW,2011-11-25 10:00,ZGOW 251000Z 08003MPS CAVOK 20/14 Q1020 NOSIG
ZGOW,2011-11-25 11:00,ZGOW 251100Z 08004MPS CAVOK 19/15 Q1020 NOSIG
ZGOW,2011-11-25 12:00,ZGOW 251200Z 09005MPS CAVOK 20/15 Q1021 NOSIG
ZGOW,2011-11-25 13:00,ZGOW 251300Z 09005MPS CAVOK 20/14 Q1022 NOSIG
ZGOW,2011-11-25 14:00,ZGOW 251400Z 08004MPS CAVOK 19/14 Q1022 NOSIG
ZGOW,2011-11-25 15:00,ZGOW 251500Z 08004MPS CAVOK 19/14 Q1022 NOSIG
ZGOW,2011-11-25 16:00,ZGOW 251600Z 07004MPS CAVOK 19/13 Q1021 NOSIG
ZGOW,2011-11-25 17:00,ZGOW 251700Z AUTO 04002MPS CAVOK 18/14 Q1021
ZGOW,2011-11-25 18:00,ZGOW 251800Z AUTO 05002MPS CAVOK 17/14 Q1021
ZGOW,2011-11-25 19:00,ZGOW 251900Z AUTO 02002MPS CAVOK 17/13 Q1020
ZGOW,2011-11-25 20:00,ZGOW 252000Z AUTO 32002MPS CAVOK 18/13 Q1020
ZGOW,2011-11-25 21:00,ZGOW 252100Z 34001MPS 7000 NSC 18/13 Q1020 NOSIG
ZGOW,2011-11-25 22:00,ZGOW 252200Z 30001MPS 6000 NSC 17/14 Q1020 NOSIG
ZGOW,2011-11-25 23:00,ZGOW 252300Z 31002MPS 5000 BR NSC 17/15 Q1021 NOSIG
ZGOW,2011-11-26 00:00,ZGOW 260000Z 33002MPS 5000 BR NSC 18/14 Q1021 NOSIG
ZGOW,2011-11-26 01:00,ZGOW 260100Z 34003MPS 7000 NSC 20/13 Q1021 NOSIG
ZGOW,2011-11-26 02:00,ZGOW 260200Z 35002MPS 7000 NSC 21/13 Q1021 NOSIG
ZGOW,2011-11-26 03:00,ZGOW 260300Z 04003MPS CAVOK 23/13 Q1021 NOSIG
ZGOW,2011-11-26 04:00,ZGOW 260400Z 06005MPS CAVOK 23/14 Q1020 NOSIG
ZGOW,2011-11-26 05:00,ZGOW 260500Z 05005MPS CAVOK 22/14 Q1019 NOSIG
ZGOW,2011-11-26 06:00,ZGOW 260600Z 05005MPS CAVOK 22/14 Q1018 NOSIG
ZGOW,2011-11-26 07:00,ZGOW 260700Z 04003MPS CAVOK 22/15 Q1018 NOSIG
ZGOW,2011-11-26 08:00,ZGOW 260800Z 01003MPS CAVOK 21/15 Q1018 NOSIG
ZGOW,2011-11-26 09:00,ZGOW 260900Z 02003MPS 8000 NSC 21/15 Q1019 NOSIG
ZGOW,2011-11-26 10:00,ZGOW 261000Z 04003MPS 5000 -RA BR SCT050 20/16 Q1019 NOSIG
ZGOW,2011-11-26 11:00,ZGOW 261100Z 04003MPS 7000 NSC 20/15 Q1019 NOSIG
ZGOW,2011-11-26 12:00,ZGOW 261200Z 05001MPS 7000 NSC 19/16 Q1019 NOSIG
ZGOW,2011-11-26 13:00,ZGOW 261300Z 06002MPS 5000 BR NSC 19/16 Q1019 NOSIG
ZGOW,2011-11-26 14:00,ZGOW 261400Z 04002MPS 5000 BR NSC 19/16 Q1019 NOSIG
ZGOW,2011-11-26 15:00,ZGOW 261500Z 18001MPS 5000 BR NSC 18/16 Q1019 NOSIG
ZGOW,2011-11-26 16:00,ZGOW 261600Z 00000MPS 4000 BR NSC 18/16 Q1018 NOSIG
ZGOW,2011-11-26 17:00,ZGOW 261700Z AUTO 32001MPS 8000 NCD 19/15 Q1018
ZGOW,2011-11-26 19:00,ZGOW 261900Z AUTO 34001MPS CAVOK 18/15 Q1017
ZGOW,2011-11-26 20:00,ZGOW 262000Z AUTO 31001MPS CAVOK 18/15 Q1017
ZGOW,2011-11-26 21:00,ZGOW 262100Z 30002MPS 6000 NSC 18/15 Q1017 NOSIG
ZGOW,2011-11-26 22:00,ZGOW 262200Z 31002MPS 8000 NSC 17/15 Q1017 NOSIG
ZGOW,2011-11-26 23:00,ZGOW 262300Z 31002MPS 8000 FEW040 17/15 Q1018 NOSIG
ZGOW,2011-11-27 00:00,ZGOW 270000Z 32002MPS 8000 NSC 18/16 Q1018 NOSIG
ZGOW,2011-11-27 01:00,ZGOW 270100Z 32002MPS 8000 NSC 21/15 Q1019 NOSIG
ZGOW,2011-11-27 02:00,ZGOW 270200Z 29002MPS 8000 NSC 22/15 Q1019 NOSIG
ZGOW,2011-11-27 03:00,ZGOW 270300Z 08003MPS CAVOK 24/16 Q1018 NOSIG
ZGOW,2011-11-27 04:00,ZGOW 270400Z 06004MPS CAVOK 25/16 Q1017 NOSIG
ZGOW,2011-11-27 05:00,ZGOW 270500Z 09004MPS CAVOK 25/16 Q1016 NOSIG
ZGOW,2011-11-27 06:00,ZGOW 270600Z 12003MPS CAVOK 25/17 Q1015 NOSIG
ZGOW,2011-11-27 07:00,ZGOW 270700Z 12004MPS CAVOK 24/17 Q1014 NOSIG
ZGOW,2011-11-27 08:00,ZGOW 270800Z 12004MPS CAVOK 23/18 Q1015 NOSIG
ZGOW,2011-11-27 09:00,ZGOW 270900Z 11004MPS CAVOK 21/18 Q1015 NOSIG
ZGOW,2011-11-27 10:00,ZGOW 271000Z 12002MPS CAVOK 20/18 Q1015 NOSIG
ZGOW,2011-11-27 11:00,ZGOW 271100Z 10002MPS CAVOK 20/18 Q1016 NOSIG
ZGOW,2011-11-27 12:00,ZGOW 271200Z 08003MPS 7000 NSC 19/18 Q1016 NOSIG
ZGOW,2011-11-27 13:00,ZGOW 271300Z 08003MPS 6000 NSC 19/18 Q1016 NOSIG
ZGOW,2011-11-27 14:00,ZGOW 271400Z 08002MPS 4000 BR NSC 19/18 Q1016 NOSIG
ZGOW,2011-11-27 15:00,ZGOW 271500Z 08002MPS 4000 BR NSC 19/18 Q1016 NOSIG
ZGOW,2011-11-27 16:00,ZGOW 271600Z 04002MPS 3000 BR NSC 18/17 Q1016 NOSIG
ZGOW,2011-11-27 17:00,ZGOW 271700Z AUTO 00000MPS 2500 // NCD 19/18 Q1016
ZGOW,2011-11-27 19:00,ZGOW 271900Z AUTO 32002MPS 1400 R04/P2000 // ////// 18/17 Q1015
ZGOW,2011-11-27 21:00,ZGOW 272100Z 32002MPS 2500 BR NSC 18/17 Q1015 NOSIG
ZGOW,2011-11-27 22:00,ZGOW 272200Z 32002MPS 2500 BR NSC 17/16 Q1015 NOSIG
ZGOW,2011-11-27 23:00,ZGOW 272300Z 32001MPS 3000 BR BKN033 18/16 Q1016 NOSIG
ZGOW,2011-11-28 00:00,ZGOW 280000Z 32004MPS 3000 BR NSC 18/17 Q1016 NOSIG
ZGOW,2011-11-28 01:00,ZGOW 280100Z 31004MPS 4000 BR SKC 20/17 Q1016 NOSIG
ZGOW,2011-11-28 02:00,ZGOW 280200Z 34002MPS 4000 HZ SKC 23/17 Q1016 NOSIG
ZGOW,2011-11-28 03:00,ZGOW 280300Z 03002MPS 7000 SKC 25/17 Q1015 NOSIG
ZGOW,2011-11-28 04:00,ZGOW 280400Z 09004MPS 9999 FEW020 26/17 Q1014 NOSIG
ZGOW,2011-11-28 05:00,ZGOW 280500Z 08005MPS 9999 FEW020 26/17 Q1013 NOSIG
ZGOW,2011-11-28 06:00,ZGOW 280600Z 10003MPS 050V140 9999 FEW026 26/17 Q1013 NOSIG
ZGOW,2011-11-28 07:00,ZGOW 280700Z 14004MPS CAVOK 24/18 Q1012 NOSIG
ZGOW,2011-11-28 08:00,ZGOW 280800Z 13004MPS CAVOK 24/18 Q1012 NOSIG
ZGOW,2011-11-28 09:00,ZGOW 280900Z 13002MPS CAVOK 23/18 Q1013 NOSIG
ZGOW,2011-11-28 10:00,ZGOW 281000Z 14001MPS CAVOK 21/18 Q1013 NOSIG
ZGOW,2011-11-28 11:00,ZGOW 281100Z 17001MPS CAVOK 20/18 Q1014 NOSIG
ZGOW,2011-11-28 12:00,ZGOW 281200Z 06003MPS CAVOK 20/18 Q1015 NOSIG
ZGOW,2011-11-28 13:00,ZGOW 281300Z 06004MPS CAVOK 20/18 Q1015 NOSIG
ZGOW,2011-11-28 14:00,ZGOW 281400Z 06001MPS CAVOK 19/18 Q1015 NOSIG
ZGOW,2011-11-28 15:00,ZGOW 281500Z 07003MPS CAVOK 20/18 Q1015 NOSIG
ZGOW,2011-11-28 16:00,ZGOW 281600Z 06002MPS CAVOK 19/18 Q1015 NOSIG
ZGOW,2011-11-28 17:00,ZGOW 281700Z AUTO 00000MPS 3800 // NCD 19/18 Q1015
ZGOW,2011-11-28 19:00,ZGOW 281900Z AUTO 31002MPS 2000 // NCD 19/18 Q1015
ZGOW,2011-11-28 21:00,ZGOW 282100Z 32001MPS 2500 BR SCT033 19/18 Q1015 NOSIG
ZGOW,2011-11-28 22:00,ZGOW 282200Z 00000MPS 2500 BR NSC 19/18 Q1016 NOSIG
ZGOW,2011-11-28 23:00,ZGOW 282300Z 33002MPS 1800 R04/1200V1600N BR NSC 19/18 Q1016 NOSIG
ZGOW,2011-11-29 00:00,ZGOW 290000Z 28002MPS 2200 BR NSC 20/18 Q1017 BECMG TL0100 3200 BR
ZGOW,2011-11-29 01:00,ZGOW 290100Z 32003MPS 2800 BR SCT017 21/19 Q1017 BECMG 3200 BR
ZGOW,2011-11-29 02:00,ZGOW 290200Z 35002MPS 4000 HZ NSC 24/18 Q1017 NOSIG
ZGOW,2011-11-29 03:00,ZGOW 290300Z 07002MPS 7000 FEW017 25/17 Q1016 NOSIG
ZGOW,2011-11-29 04:00,ZGOW 290400Z 05003MPS 9999 FEW017 27/17 Q1015 NOSIG
ZGOW,2011-11-29 05:00,ZGOW 290500Z 08004MPS 9999 FEW017 27/18 Q1014 NOSIG
ZGOW,2011-11-29 06:00,ZGOW 290600Z 09004MPS CAVOK 27/18 Q1013 NOSIG
ZGOW,2011-11-29 07:00,ZGOW 290700Z 15004MPS CAVOK 25/18 Q1013 NOSIG
ZGOW,2011-11-29 08:00,ZGOW 290800Z 12004MPS CAVOK 24/18 Q1013 NOSIG
ZGOW,2011-11-29 09:00,ZGOW 290900Z 11003MPS CAVOK 23/18 Q1014 NOSIG
ZGOW,2011-11-29 10:00,ZGOW 291000Z 10002MPS 8000 SKC 22/19 Q1015 NOSIG
ZGOW,2011-11-29 11:00,ZGOW 291100Z 11002MPS 8000 FEW050 22/19 Q1015 NOSIG
ZGOW,2011-11-29 12:00,ZGOW 291200Z 08005MPS 9999 FEW050 22/19 Q1016 NOSIG
ZGOW,2011-11-29 13:00,ZGOW 291300Z 08003MPS 9999 FEW015 21/19 Q1017 NOSIG
ZGOW,2011-11-29 14:00,ZGOW 291400Z 09002MPS 9999 SCT050 21/19 Q1017 NOSIG
ZGOW,2011-11-29 15:00,ZGOW 291500Z 10002MPS CAVOK 20/19 Q1017 NOSIG
ZGOW,2011-11-29 16:00,ZGOW 291600Z 09001MPS CAVOK 20/19 Q1016 NOSIG
ZGOW,2011-11-29 17:00,ZGOW 291700Z AUTO 00000MPS 3700 // NCD 19/18 Q1016
ZGOW,2011-11-29 21:00,ZGOW 292100Z 33001MPS 2500 BR SKC 19/18 Q1015 NOSIG
ZGOW,2011-11-29 22:00,ZGOW 292200Z 32001MPS 2000 BR SKC 19/18 Q1015 TEMPO 1400 BR
ZGOW,2011-11-29 23:00,ZGOW 292300Z 31001MPS 2800 BR SKC 19/18 Q1015 BECMG 3200 BR
ZGOW,2011-11-30 00:00,ZGOW 300000Z 34001MPS 3500 BR SKC 20/19 Q1015 NOSIG
ZGOW,2011-11-30 01:00,ZGOW 300100Z 32003MPS 3500 BR SKC 22/19 Q1016 NOSIG
ZGOW,2011-11-30 02:00,ZGOW 300200Z 32002MPS 4000 BR SKC 23/18 Q1016 NOSIG
ZGOW,2011-11-30 03:00,ZGOW 300300Z 32002MPS 6000 SKC 25/18 Q1015 NOSIG
ZGOW,2011-11-30 04:00,ZGOW 300400Z 35002MPS 7000 NSC 27/18 Q1014 NOSIG
ZGOW,2011-11-30 05:00,ZGOW 300500Z 30003MPS 7000 FEW030 27/18 Q1013 NOSIG
ZGOW,2011-11-30 06:00,ZGOW 300600Z 12004MPS 6000 SKC 26/19 Q1012 NOSIG
ZGOW,2011-11-30 07:00,ZGOW 300700Z 12005MPS CAVOK 25/18 Q1012 NOSIG
ZGOW,2011-11-30 08:00,ZGOW 300800Z 13005MPS CAVOK 23/18 Q1012 NOSIG
ZGOW,2011-11-30 09:00,ZGOW 300900Z 10003MPS CAVOK 22/18 Q1013 NOSIG
ZGOW,2011-11-30 10:00,ZGOW 301000Z 09001MPS 5000 BR NSC 21/18 Q1013 NOSIG
ZGOW,2011-11-30 11:00,ZGOW 301100Z 05003MPS 6000 NSC 21/18 Q1014 NOSIG
ZGOW,2011-11-30 12:00,ZGOW 301200Z 07003MPS 5000 BR NSC 20/18 Q1014 NOSIG
ZGOW,2011-11-30 13:00,ZGOW 301300Z 08004MPS 6000 NSC 21/19 Q1015 NOSIG
ZGOW,2011-11-30 14:00,ZGOW 301400Z 06003MPS 6000 NSC 20/19 Q1016 NOSIG
ZGOW,2011-11-30 15:00,ZGOW 301500Z 02001MPS 6000 NSC 20/18 Q1016 NOSIG
ZGOW,2011-12-01 00:00,ZGOW 010000Z 34004MPS 9999 SCT020 BKN050 17/12 Q1018 NOSIG
ZGOW,2011-12-01 01:00,ZGOW 010100Z 34003MPS 280V020 9999 SCT024 BKN050 17/12 Q1019 NOSIG
ZGOW,2011-12-01 02:00,ZGOW 010200Z 33004MPS 7000 SCT024 BKN050 17/12 Q1019 NOSIG
ZGOW,2011-12-01 03:00,ZGOW 010300Z 33004MPS 9999 SCT026 BKN050 17/11 Q1019 NOSIG
ZGOW,2011-12-01 04:00,ZGOW 010400Z 32006MPS 9999 SCT024 BKN050 17/10 Q1018 NOSIG
ZGOW,2011-12-01 05:00,ZGOW 010500Z 34005MPS 9999 SCT026 BKN050 17/10 Q1017 NOSIG
ZGOW,2011-12-01 06:00,ZGOW 010600Z 34003MPS 300V030 9999 SCT026 BKN050 17/10 Q1016 NOSIG
ZGOW,2011-12-01 07:00,ZGOW 010700Z 34004MPS 280V020 9999 SCT026 BKN050 18/10 Q1016 NOSIG
ZGOW,2011-12-01 08:00,ZGOW 010800Z 34004MPS 9999 BKN033 17/10 Q1016 NOSIG
ZGOW,2011-12-01 09:00,ZGOW 010900Z 32004MPS 270V010 9999 BKN033 16/10 Q1017 NOSIG
ZGOW,2011-12-01 10:00,ZGOW 011000Z 33006MPS 290V020 9999 BKN033 15/09 Q1018 TEMPO 33007G12MPS
ZGOW,2011-12-01 11:00,ZGOW 011100Z 32005G10MPS 9999 BKN033 15/08 Q1018 NOSIG
ZGOW,2011-12-01 12:00,ZGOW 011200Z 33005MPS 280V010 9999 BKN033 14/08 Q1019 NOSIG
ZGOW,2011-12-01 13:00,ZGOW 011300Z 34004MPS 290V020 9999 BKN030 14/08 Q1020 NOSIG
ZGOW,2011-12-01 14:00,ZGOW 011400Z 31004MPS 270V360 9999 BKN030 14/07 Q1020 NOSIG
ZGOW,2011-12-01 15:00,ZGOW 011500Z 32004MPS 9999 BKN030 13/07 Q1020 NOSIG
ZGOW,2011-12-01 16:00,ZGOW 011600Z 33005G11MPS 9999 BKN030 13/07 Q1019 NOSIG
ZGOW,2011-12-01 17:00,ZGOW 011700Z AUTO 33005MPS 8000 ////// 13/07 Q1019
ZGOW,2011-12-01 23:00,ZGOW 012300Z 33003MPS 280V030 9999 BKN033 11/06 Q1018 NOSIG
ZGOW,2011-12-02 00:00,ZGOW 020000Z 34004MPS 300V050 9999 SCT030 BKN040 11/06 Q1018 NOSIG
ZGOW,2011-12-02 01:00,ZGOW 020100Z 33006G11MPS 300V020 9999 BKN040 13/06 Q1019 NOSIG
ZGOW,2011-12-02 02:00,ZGOW 020200Z 33005MPS 300V020 9999 BKN040 14/06 Q1019 NOSIG
ZGOW,2011-12-02 03:00,ZGOW 020300Z 34003MPS 9999 BKN040 15/07 Q1019 NOSIG
ZGOW,2011-12-02 04:00,ZGOW 020400Z 34004MPS 290V040 CAVOK 17/07 Q1017 NOSIG
ZGOW,2011-12-02 05:00,ZGOW 020500Z 32003MPS CAVOK 18/06 Q1016 NOSIG
ZGOW,2011-12-02 06:00,ZGOW 020600Z 32003MPS 290V020 CAVOK 18/07 Q1015 NOSIG
ZGOW,2011-12-02 07:00,ZGOW 020700Z 31003MPS 260V350 CAVOK 19/07 Q1015 NOSIG
ZGOW,2011-12-02 08:00,ZGOW 020800Z 34003MPS 280V040 CAVOK 18/06 Q1015 NOSIG
ZGOW,2011-12-02 09:00,ZGOW 020900Z 31004MPS CAVOK 17/06 Q1015 NOSIG
ZGOW,2011-12-02 10:00,ZGOW 021000Z 33004MPS 300V020 CAVOK 16/06 Q1016 NOSIG
ZGOW,2011-12-02 11:00,ZGOW 021100Z 34004MPS 310V010 CAVOK 15/06 Q1017 NOSIG
ZGOW,2011-12-02 12:00,ZGOW 021200Z 33002MPS CAVOK 13/06 Q1017 NOSIG
ZGOW,2011-12-02 13:00,ZGOW 021300Z 32004MPS 290V360 CAVOK 13/06 Q1017 NOSIG
ZGOW,2011-12-02 14:00,ZGOW 021400Z 33004MPS 300V010 CAVOK 12/06 Q1017 NOSIG
ZGOW,2011-12-02 15:00,ZGOW 021500Z 31002MPS CAVOK 11/06 Q1017 NOSIG
ZGOW,2011-12-02 16:00,ZGOW 021600Z 31003MPS CAVOK 11/06 Q1018 NOSIG
ZGOW,2011-12-02 17:00,ZGOW 021700Z AUTO 31002MPS CAVOK 10/05 Q1018
ZGOW,2011-12-02 18:00,ZGOW 021800Z AUTO 32004MPS CAVOK 10/05 Q1018
ZGOW,2011-12-02 19:00,ZGOW 021900Z AUTO 34002MPS 8000 NCD 10/05 Q1018
ZGOW,2011-12-02 21:00,ZGOW 022100Z 34002MPS CAVOK 09/05 Q1017 NOSIG
ZGOW,2011-12-02 22:00,ZGOW 022200Z 33002MPS CAVOK 08/05 Q1018 NOSIG
ZGOW,2011-12-02 23:00,ZGOW 022300Z 32003MPS CAVOK 08/04 Q1019 NOSIG
ZGOW,2011-12-03 00:00,ZGOW 030000Z 32004MPS CAVOK 10/05 Q1019 NOSIG
ZGOW,2011-12-03 01:00,ZGOW 030100Z 31003MPS CAVOK 12/04 Q1020 NOSIG
ZGOW,2011-12-03 02:00,ZGOW 030200Z 33003MPS CAVOK 14/04 Q1020 NOSIG
ZGOW,2011-12-03 03:00,ZGOW 030300Z 31003MPS CAVOK 16/02 Q1019 NOSIG
ZGOW,2011-12-03 04:00,ZGOW 030400Z 34002MPS CAVOK 17/03 Q1018 NOSIG
ZGOW,2011-12-03 05:00,ZGOW 030500Z 07005MPS CAVOK 20/01 Q1016 NOSIG
ZGOW,2011-12-03 06:00,ZGOW 030600Z 08005MPS CAVOK 20/02 Q1015 NOSIG
ZGOW,2011-12-03 07:00,ZGOW 030700Z 09005MPS 060V130 CAVOK 19/04 Q1015 NOSIG
ZGOW,2011-12-03 08:00,ZGOW 030800Z 09004MPS CAVOK 19/03 Q1016 NOSIG
ZGOW,2011-12-03 09:00,ZGOW 030900Z 11004MPS CAVOK 18/06 Q1017 NOSIG
ZGOW,2011-12-03 10:00,ZGOW 031000Z 09004MPS CAVOK 16/08 Q1018 NOSIG
ZGOW,2011-12-03 11:00,ZGOW 031100Z 07005MPS CAVOK 16/09 Q1018 NOSIG
ZGOW,2011-12-03 12:00,ZGOW 031200Z 05005MPS CAVOK 15/10 Q1019 NOSIG
ZGOW,2011-12-03 13:00,ZGOW 031300Z 06004MPS CAVOK 14/10 Q1020 NOSIG
ZGOW,2011-12-03 14:00,ZGOW 031400Z 07006MPS CAVOK 15/09 Q1020 NOSIG
ZGOW,2011-12-03 15:00,ZGOW 031500Z 08006MPS CAVOK 15/07 Q1021 NOSIG
ZGOW,2011-12-03 16:00,ZGOW 031600Z 06008MPS CAVOK 14/06 Q1021 NOSIG
ZGOW,2011-12-03 17:00,ZGOW 031700Z AUTO 05004MPS 7000 NCD 13/06 Q1021
ZGOW,2011-12-03 18:00,ZGOW 031800Z AUTO 02004MPS 8000 NCD 13/05 Q1021
ZGOW,2011-12-03 19:00,ZGOW 031900Z AUTO 02005MPS CAVOK 13/05 Q1020
ZGOW,2011-12-03 21:00,ZGOW 032100Z 32003MPS CAVOK 12/06 Q1021 NOSIG
ZGOW,2011-12-03 22:00,ZGOW 032200Z 33003MPS CAVOK 12/07 Q1022 NOSIG
ZGOW,2011-12-03 23:00,ZGOW 032300Z 33003MPS CAVOK 12/06 Q1022 NOSIG
ZGOW,2011-12-04 00:00,ZGOW 040000Z 34003MPS CAVOK 13/06 Q1023 NOSIG
ZGOW,2011-12-04 01:00,ZGOW 040100Z 36003MPS CAVOK 15/07 Q1022 NOSIG
ZGOW,2011-12-04 02:00,ZGOW 040200Z 02003MPS CAVOK 18/05 Q1022 BECMG TL0300 08006MPS
ZGOW,2011-12-04 03:00,ZGOW 040300Z 04005MPS CAVOK 19/06 Q1021 NOSIG
ZGOW,2011-12-04 04:00,ZGOW 040400Z 08004MPS CAVOK 20/07 Q1020 NOSIG
ZGOW,2011-12-04 05:00,ZGOW 040500Z 07004MPS CAVOK 20/08 Q1019 NOSIG
ZGOW,2011-12-04 06:00,ZGOW 040600Z 08004MPS CAVOK 21/09 Q1018 NOSIG
ZGOW,2011-12-04 07:00,ZGOW 040700Z 09005MPS CAVOK 21/08 Q1018 NOSIG
ZGOW,2011-12-04 09:00,ZGOW 040900Z 09005MPS 7000 SKC 18/11 Q1018 NOSIG
ZGOW,2011-12-04 10:00,ZGOW 041000Z 09004MPS 7000 SKC 18/12 Q1019 NOSIG
ZGOW,2011-12-04 11:00,ZGOW 041100Z 08005MPS 7000 SKC 17/13 Q1019 NOSIG
ZGOW,2011-12-04 12:00,ZGOW 041200Z 07006MPS 7000 SKC 17/13 Q1020 TEMPO 08007G12MPS
ZGOW,2011-12-04 13:00,ZGOW 041300Z 07007MPS 7000 SKC 17/13 Q1020 TEMPO 08008G13MPS
ZGOW,2011-12-04 14:00,ZGOW 041400Z 06005MPS 7000 SKC 17/13 Q1020 NOSIG
ZGOW,2011-12-04 15:00,ZGOW 041500Z 09004MPS 7000 NSC 17/12 Q1020 NOSIG
ZGOW,2011-12-04 16:00,ZGOW 041600Z 04003MPS 5000 BR NSC 16/12 Q1020 NOSIG
ZGOW,2011-12-04 17:00,ZGOW 041700Z AUTO 35002MPS 3600 // ////// 17/11 Q1020
ZGOW,2011-12-04 18:00,ZGOW 041800Z AUTO 35002MPS 3500 // ////// 17/11 Q1020
ZGOW,2011-12-04 19:00,ZGOW 041900Z AUTO 34003MPS 3500 // ////// 16/12 Q1020
ZGOW,2011-12-04 20:00,ZGOW 042000Z AUTO 34002MPS 3400 // ////// 16/11 Q1020
ZGOW,2011-12-04 21:00,ZGOW 042100Z 32001MPS 5000 BR NSC 16/11 Q1020 NOSIG
ZGOW,2011-12-04 22:00,ZGOW 042200Z 29001MPS 5000 BR NSC 16/12 Q1020 NOSIG
ZGOW,2011-12-04 23:00,ZGOW 042300Z 32001MPS 5000 BR NSC 16/11 Q1021 NOSIG
ZGOW,2011-12-05 00:00,ZGOW 050000Z 34001MPS 4000 BR NSC 17/11 Q1021 NOSIG
ZGOW,2011-12-05 01:00,ZGOW 050100Z 09001MPS 4000 HZ NSC 17/12 Q1021 NOSIG
ZGOW,2011-12-05 02:00,ZGOW 050200Z 34001MPS 4000 HZ FEW012 SCT040 18/13 Q1022 NOSIG
ZGOW,2011-12-05 03:00,ZGOW 050300Z 08002MPS 5000 HZ SCT040 19/13 Q1021 NOSIG
ZGOW,2011-12-05 04:00,ZGOW 050400Z 07003MPS 6000 SCT028 20/13 Q1021 NOSIG
ZGOW,2011-12-05 05:00,ZGOW 050500Z 08003MPS 6000 SCT033 20/14 Q1019 NOSIG
ZGOW,2011-12-05 06:00,ZGOW 050600Z 07002MPS 7000 SCT040 20/14 Q1018 NOSIG
ZGOW,2011-12-05 07:00,ZGOW 050700Z 09003MPS 7000 SCT050 20/14 Q1018 NOSIG
ZGOW,2011-12-05 08:00,ZGOW 050800Z 06004MPS 7000 SCT040 20/15 Q1018 NOSIG
ZGOW,2011-12-05 09:00,ZGOW 050900Z 08002MPS 7000 SCT033 20/15 Q1018 NOSIG
ZGOW,2011-12-05 10:00,ZGOW 051000Z 08005MPS 7000 SCT033 19/15 Q1018 NOSIG
ZGOW,2011-12-05 11:00,ZGOW 051100Z 07004MPS 9999 FEW033 19/15 Q1018 NOSIG
ZGOW,2011-12-05 12:00,ZGOW 051200Z 07006MPS 050V120 9999 SCT033 19/15 Q1019 NOSIG
ZGOW,2011-12-05 13:00,ZGOW 051300Z 08005MPS 9999 FEW020 SCT040 19/16 Q1020 NOSIG
ZGOW,2011-12-05 14:00,ZGOW 051400Z 05004MPS 9999 FEW020 SCT040 18/16 Q1020 NOSIG
ZGOW,2011-12-05 15:00,ZGOW 051500Z 06002MPS 7000 -RA SCT020 BKN050 18/16 Q1020 NOSIG
ZGOW,2011-12-05 16:00,ZGOW 051600Z 07001MPS 4000 -RA SCT020 BKN036 18/16 Q1020 NOSIG
ZGOW,2011-12-05 17:00,ZGOW 051700Z AUTO 02001MPS 3000 // NCD 17/16 Q1019
ZGOW,2011-12-05 19:00,ZGOW 051900Z AUTO 09001MPS 2600 // ////// 17/16 Q1019
ZGOW,2011-12-05 20:00,ZGOW 052000Z AUTO 13001MPS 2500 // ////// 17/16 Q1019
ZGOW,2011-12-05 21:00,ZGOW 052100Z 28001MPS 3500 BR SCT020 BKN040 17/17 Q1019 TEMPO 2500 -RA
ZGOW,2011-12-05 22:00,ZGOW 052200Z 00000MPS 3500 BR SCT024 17/17 Q1019 TEMPO 2500 -RA
ZGOW,2011-12-05 23:00,ZGOW 052300Z 33001MPS 3500 BR SCT024 17/17 Q1020 NOSIG
ZGOW,2011-12-06 00:00,ZGOW 060000Z 06001MPS 5000 BR SCT020 BKN050 18/17 Q1021 NOSIG
ZGOW,2011-12-06 01:00,ZGOW 060100Z 04002MPS 5000 BR FEW014 BKN050 19/17 Q1021 NOSIG
ZGOW,2011-12-06 02:00,ZGOW 060200Z 01001MPS 5000 BR FEW014 BKN050 20/17 Q1021 NOSIG
ZGOW,2011-12-06 03:00,ZGOW 060300Z 25001MPS 5000 BR FEW014 BKN050 21/17 Q1020 NOSIG
ZGOW,2011-12-06 04:00,ZGOW 060400Z 32001MPS 5000 BR BKN050 22/17 Q1019 NOSIG
ZGOW,2011-12-06 05:00,ZGOW 060500Z 36002MPS 5000 HZ BKN050 23/17 Q1018 NOSIG
ZGOW,2011-12-06 06:00,ZGOW 060600Z 05001MPS 7000 BKN050 23/16 Q1017 NOSIG
ZGOW,2011-12-06 07:00,ZGOW 060700Z 10001MPS 7000 BKN050 23/17 Q1017 NOSIG
ZGOW,2011-12-06 08:00,ZGOW 060800Z 10001MPS 7000 BKN050 22/18 Q1017 NOSIG
ZGOW,2011-12-06 09:00,ZGOW 060900Z 14001MPS 7000 BKN050 21/18 Q1018 NOSIG
ZGOW,2011-12-06 11:00,ZGOW 061100Z 06002MPS 5000 BR BKN050 20/18 Q1018 NOSIG
ZGOW,2011-12-06 12:00,ZGOW 061200Z 04002MPS 5000 BR BKN050 20/18 Q1019 NOSIG
ZGOW,2011-12-06 13:00,ZGOW 061300Z 04002MPS 5000 BR BKN050 20/17 Q1019 NOSIG
ZGOW,2011-12-06 14:00,ZGOW 061400Z 05002MPS 5000 BR BKN050 19/18 Q1019 NOSIG
ZGOW,2011-12-06 15:00,ZGOW 061500Z 04001MPS 5000 BR BKN050 19/17 Q1019 NOSIG
ZGOW,2011-12-06 16:00,ZGOW 061600Z 16001MPS 5000 BR BKN050 19/17 Q1019 NOSIG
ZGOW,2011-12-06 17:00,ZGOW 061700Z AUTO 00000MPS 2200 // NCD 19/17 Q1019
ZGOW,2011-12-06 19:00,ZGOW 061900Z AUTO 35001MPS 2400 // ////// 19/17 Q1018
ZGOW,2011-12-06 20:00,ZGOW 062000Z AUTO 32001MPS 2400 // ////// 19/18 Q1018
ZGOW,2011-12-06 21:00,ZGOW 062100Z 28001MPS 2500 BR BKN050 19/18 Q1018 NOSIG
ZGOW,2011-12-06 22:00,ZGOW 062200Z 31001MPS 2500 BR BKN050 19/18 Q1018 TEMPO 1400 BR
ZGOW,2011-12-06 23:00,ZGOW 062300Z 32001MPS 2500 BR BKN050 19/17 Q1019 NOSIG
ZGOW,2011-12-07 00:00,ZGOW 070000Z 36001MPS 6000 BKN050 21/17 Q1019 NOSIG
ZGOW,2011-12-07 01:00,ZGOW 070100Z 34002MPS 7000 NSC 23/17 Q1019 NOSIG
ZGOW,2011-12-07 02:00,ZGOW 070200Z 34002MPS 8000 NSC 24/17 Q1019 NOSIG
ZGOW,2011-12-07 03:00,ZGOW 070300Z 02001MPS 9000 BKN046 26/17 Q1018 NOSIG
ZGOW,2011-12-07 04:00,ZGOW 070400Z 04001MPS 9999 BKN046 26/18 Q1017 NOSIG
ZGOW,2011-12-07 05:00,ZGOW 070500Z 12003MPS 8000 BKN046 25/18 Q1016 NOSIG
ZGOW,2011-12-07 06:00,ZGOW 070600Z 12002MPS 7000 BKN046 25/19 Q1015 NOSIG
ZGOW,2011-12-07 07:00,ZGOW 070700Z 07001MPS 8000 BKN043 25/18 Q1015 NOSIG
ZGOW,2011-12-07 08:00,ZGOW 070800Z 09002MPS 6000 BKN046 25/19 Q1014 NOSIG
ZGOW,2011-12-07 09:00,ZGOW 070900Z 13001MPS 6000 SCT050 22/18 Q1015 BECMG TL1000 2500 BR
ZGOW,2011-12-07 10:00,ZGOW 071000Z 09001MPS 3500 BR BKN046 22/19 Q1015 BECMG 2100 BR
ZGOW,2011-12-07 11:00,ZGOW 071100Z 13002MPS 5000 BR BKN043 22/19 Q1016 NOSIG
ZGOW,2011-12-07 12:00,ZGOW 071200Z 00000MPS 5000 BR BKN043 21/19 Q1016 NOSIG
ZGOW,2011-12-07 13:00,ZGOW 071300Z 14001MPS 4000 BR NSC 21/19 Q1017 NOSIG
ZGOW,2011-12-07 14:00,ZGOW 071400Z 07002MPS 4000 BR NSC 21/19 Q1017 NOSIG
ZGOW,2011-12-07 15:00,ZGOW 071500Z 06003MPS 5000 BR NSC 21/19 Q1017 NOSIG
ZGOW,2011-12-07 16:00,ZGOW 071600Z 07004MPS 4000 BR NSC 20/19 Q1017 NOSIG
ZGOW,2011-12-07 17:00,ZGOW 071700Z AUTO 05003MPS 2900 // ////// 20/19 Q1017
ZGOW,2011-12-07 18:00,ZGOW 071800Z AUTO 06004MPS 3400 // ////// 20/19 Q1017
ZGOW,2011-12-07 19:00,ZGOW 071900Z AUTO 06003MPS 3600 // ////// 20/19 Q1017
ZGOW,2011-12-07 20:00,ZGOW 072000Z AUTO 04002MPS 4500 // ////// 20/19 Q1017
ZGOW,2011-12-07 21:00,ZGOW 072100Z 35002MPS 6000 SCT022 BKN050 21/19 Q1017 NOSIG
ZGOW,2011-12-07 22:00,ZGOW 072200Z 32003MPS 7000 SCT022 BKN050 20/16 Q1017 NOSIG
ZGOW,2011-12-07 23:00,ZGOW 072300Z 33004MPS 9999 SCT018 BKN040 19/15 Q1018 NOSIG
ZGOW,2011-12-08 00:00,ZGOW 080000Z 33005MPS 9999 SCT018 BKN040 19/13 Q1019 TEMPO 33007G12MPS
ZGOW,2011-12-08 01:00,ZGOW 080100Z 34004MPS 9999 SCT020 BKN040 19/13 Q1020 NOSIG
ZGOW,2011-12-08 02:00,ZGOW 080200Z 33006G11MPS 290V020 9999 BKN033 20/13 Q1020 NOSIG
ZGOW,2011-12-08 03:00,ZGOW 080300Z 34005MPS 300V030 9999 BKN028 20/12 Q1020 NOSIG
ZGOW,2011-12-08 04:00,ZGOW 080400Z 32005MPS 270V030 9999 BKN028 21/12 Q1019 NOSIG
ZGOW,2011-12-08 05:00,ZGOW 080500Z 34004MPS 290V030 9999 BKN030 22/13 Q1018 NOSIG
ZGOW,2011-12-08 06:00,ZGOW 080600Z 34004MPS 290V030 9999 BKN028 22/13 Q1017 NOSIG
ZGOW,2011-12-08 07:00,ZGOW 080700Z 34004MPS 270V030 9999 BKN033 22/12 Q1017 NOSIG
ZGOW,2011-12-08 08:00,ZGOW 080800Z 35004MPS 320V060 9999 BKN033 21/12 Q1017 NOSIG
ZGOW,2011-12-08 09:00,ZGOW 080900Z 33005MPS 9999 BKN036 20/11 Q1018 TEMPO 33007G12MPS
ZGOW,2011-12-08 10:00,ZGOW 081000Z 34004MPS 280V030 9999 BKN036 19/10 Q1018 TEMPO 33007G12MPS
ZGOW,2011-12-08 11:00,ZGOW 081100Z 34004G09MPS 280V030 9999 BKN033 17/10 Q1019 TEMPO 33007G12MPS
ZGOW,2011-12-08 12:00,ZGOW 081200Z 34004MPS 300V030 9999 BKN033 17/09 Q1020 TEMPO 33007G12MPS
ZGOW,2011-12-08 13:00,ZGOW 081300Z 34004MPS 300V030 9999 SCT022 BKN036 16/09 Q1021 NOSIG
ZGOW,2011-12-08 14:00,ZGOW 081400Z 34004MPS 280V030 9999 BKN028 15/09 Q1022 NOSIG
ZGOW,2011-12-08 15:00,ZGOW 081500Z 35004MPS 280V030 9999 SCT022 BKN040 15/09 Q1022 NOSIG
ZGOW,2011-12-08 16:00,ZGOW 081600Z 34005MPS 9999 SCT022 BKN040 14/08 Q1022 NOSIG
ZGOW,2011-12-08 17:00,ZGOW 081700Z AUTO 34004MPS 9000 ////// 14/08 Q1022
ZGOW,2011-12-08 18:00,ZGOW 081800Z AUTO 34004MPS 9000 ////// 14/08 Q1022
ZGOW,2011-12-08 19:00,ZGOW 081900Z AUTO 34004MPS 8000 ////// 14/08 Q1022
ZGOW,2011-12-08 20:00,ZGOW 082000Z AUTO 35004MPS 8000 ////// 14/08 Q1022
ZGOW,2011-12-08 21:00,ZGOW 082100Z 34004MPS 9999 BKN033 13/07 Q1023 NOSIG
ZGOW,2011-12-08 22:00,ZGOW 082200Z 34003MPS 300V030 9999 BKN033 13/07 Q1023 NOSIG
ZGOW,2011-12-08 23:00,ZGOW 082300Z 34003MPS 9999 BKN033 13/07 Q1024 NOSIG
ZGOW,2011-12-09 00:00,ZGOW 090000Z 33003MPS 9999 SCT033 14/07 Q1024 NOSIG
ZGOW,2011-12-09 01:00,ZGOW 090100Z 34003MPS 9999 SCT033 14/07 Q1025 NOSIG
ZGOW,2011-12-09 02:00,ZGOW 090200Z 32005MPS 9999 BKN033 14/08 Q1025 NOSIG
ZGOW,2011-12-09 03:00,ZGOW 090300Z 34004MPS 9999 SCT030 14/09 Q1025 NOSIG
ZGOW,2011-12-09 04:00,ZGOW 090400Z 34004MPS 9999 SCT030 14/09 Q1024 NOSIG
ZGOW,2011-12-09 05:00,ZGOW 090500Z 02004MPS 9999 -RA SCT030 14/09 Q1023 NOSIG
ZGOW,2011-12-09 06:00,ZGOW 090600Z 03005MPS CAVOK 16/08 Q1022 NOSIG
ZGOW,2011-12-09 07:00,ZGOW 090700Z 03004MPS 9999 FEW020 16/08 Q1022 NOSIG
ZGOW,2011-12-09 08:00,ZGOW 090800Z 35002MPS 9999 FEW020 15/08 Q1022 NOSIG
ZGOW,2011-12-09 09:00,ZGOW 090900Z 36003MPS 9999 FEW020 15/08 Q1022 NOSIG
ZGOW,2011-12-09 10:00,ZGOW 091000Z 33004MPS 9999 SCT020 14/07 Q1023 NOSIG
ZGOW,2011-12-09 11:00,ZGOW 091100Z 33004MPS 9999 SCT020 13/07 Q1024 NOSIG
ZGOW,2011-12-09 12:00,ZGOW 091200Z 34003MPS CAVOK 13/07 Q1024 NOSIG
ZGOW,2011-12-09 13:00,ZGOW 091300Z 34003MPS 9999 BKN050 13/07 Q1025 NOSIG
ZGOW,2011-12-09 14:00,ZGOW 091400Z 34004MPS 9999 BKN050 12/07 Q1025 NOSIG
ZGOW,2011-12-09 15:00,ZGOW 091500Z 33003MPS 9999 BKN050 12/06 Q1025 NOSIG
ZGOW,2011-12-09 16:00,ZGOW 091600Z 34004MPS 9999 BKN050 12/06 Q1025 NOSIG
ZGOW,2011-12-09 17:00,ZGOW 091700Z AUTO 34003MPS 7000 NCD 12/05 Q1024
ZGOW,2011-12-09 21:00,ZGOW 092100Z 35003MPS 7000 BKN050 11/05 Q1024 NOSIG
ZGOW,2011-12-09 22:00,ZGOW 092200Z 33005MPS 7000 NSC 11/04 Q1024 NOSIG
ZGOW,2011-12-09 23:00,ZGOW 092300Z 32006MPS 7000 NSC 11/03 Q1025 NOSIG
ZGOW,2011-12-10 00:00,ZGOW 100000Z 33005MPS 8000 NSC 11/04 Q1025 NOSIG
ZGOW,2011-12-10 01:00,ZGOW 100100Z 34004MPS 8000 NSC 12/04 Q1026 NOSIG
ZGOW,2011-12-10 02:00,ZGOW 100200Z 33005MPS 8000 NSC 12/04 Q1026 NOSIG
ZGOW,2011-12-10 03:00,ZGOW 100300Z 34004MPS 8000 NSC 14/05 Q1025 NOSIG
ZGOW,2011-12-10 04:00,ZGOW 100400Z 32003MPS 8000 NSC 16/05 Q1025 NOSIG
ZGOW,2011-12-10 05:00,ZGOW 100500Z 07004MPS 8000 NSC 17/05 Q1023 NOSIG
ZGOW,2011-12-10 06:00,ZGOW 100600Z 31003MPS CAVOK 17/05 Q1022 NOSIG
ZGOW,2011-12-10 07:00,ZGOW 100700Z 30003MPS 9999 FEW046 17/05 Q1022 NOSIG
ZGOW,2011-12-10 08:00,ZGOW 100800Z 33002MPS 9999 SCT050 17/05 Q1022 NOSIG
ZGOW,2011-12-10 09:00,ZGOW 100900Z 34003MPS CAVOK 16/04 Q1022 NOSIG
ZGOW,2011-12-10 10:00,ZGOW 101000Z 02002MPS CAVOK 14/05 Q1023 NOSIG
ZGOW,2011-12-10 11:00,ZGOW 101100Z 34002MPS 9999 SCT040 14/04 Q1023 NOSIG
ZGOW,2011-12-10 12:00,ZGOW 101200Z 34003MPS CAVOK 13/03 Q1023 NOSIG
ZGOW,2011-12-10 13:00,ZGOW 101300Z 34003MPS CAVOK 13/03 Q1024 NOSIG
ZGOW,2011-12-10 14:00,ZGOW 101400Z 34004MPS CAVOK 12/01 Q1024 NOSIG
ZGOW,2011-12-10 15:00,ZGOW 101500Z 34003MPS CAVOK 11/01 Q1024 NOSIG
ZGOW,2011-12-10 16:00,ZGOW 101600Z 33004MPS CAVOK 10/M00 Q1024 NOSIG
ZGOW,2011-12-10 17:00,ZGOW 101700Z AUTO 34004MPS 8000 NCD 10/M00 Q1024
ZGOW,2011-12-10 19:00,ZGOW 101900Z AUTO 34003MPS 8000 NCD 09/M01 Q1023
ZGOW,2011-12-10 20:00,ZGOW 102000Z AUTO 34003MPS CAVOK 09/M01 Q1023
ZGOW,2011-12-10 21:00,ZGOW 102100Z 34003MPS CAVOK 08/M00 Q1023 NOSIG
ZGOW,2011-12-10 22:00,ZGOW 102200Z 34003MPS CAVOK 08/M01 Q1023 NOSIG
ZGOW,2011-12-10 23:00,ZGOW 102300Z 35002MPS CAVOK 08/M00 Q1024 NOSIG
ZGOW,2011-12-11 00:00,ZGOW 110000Z 35003MPS CAVOK 09/M01 Q1025 NOSIG
ZGOW,2011-12-11 01:00,ZGOW 110100Z 32003MPS CAVOK 11/M00 Q1025 NOSIG
ZGOW,2011-12-11 02:00,ZGOW 110200Z 32002MPS CAVOK 12/M00 Q1026 NOSIG
ZGOW,2011-12-11 03:00,ZGOW 110300Z 03003MPS 310V090 CAVOK 14/01 Q1025 BECMG TL0400 09005MPS
ZGOW,2011-12-11 04:00,ZGOW 110400Z 03003MPS 340V110 CAVOK 16/02 Q1024 NOSIG
ZGOW,2011-12-11 05:00,ZGOW 110500Z 07006MPS CAVOK 17/01 Q1022 TEMPO 08008G13MPS
ZGOW,2011-12-11 06:00,ZGOW 110600Z 07005MPS CAVOK 17/02 Q1022 TEMPO 08008G13MPS
ZGOW,2011-12-11 07:00,ZGOW 110700Z 08004MPS CAVOK 17/03 Q1021 NOSIG
ZGOW,2011-12-11 08:00,ZGOW 110800Z 08003MPS CAVOK 17/05 Q1021 NOSIG
ZGOW,2011-12-11 09:00,ZGOW 110900Z 08002MPS CAVOK 16/07 Q1021 NOSIG
ZGOW,2011-12-11 12:00,ZGOW 111200Z 05003MPS 7000 NSC 13/08 Q1022 NOSIG
ZGOW,2011-12-11 13:00,ZGOW 111300Z 04004MPS CAVOK 13/05 Q1022 NOSIG
ZGOW,2011-12-11 14:00,ZGOW 111400Z 03003MPS CAVOK 12/04 Q1023 NOSIG
ZGOW,2011-12-11 15:00,ZGOW 111500Z 03002MPS CAVOK 11/04 Q1023 NOSIG
ZGOW,2011-12-11 16:00,ZGOW 111600Z 33001MPS CAVOK 12/05 Q1023 NOSIG
ZGOW,2011-12-11 17:00,ZGOW 111700Z AUTO 33003MPS 6000 NCD 11/03 Q1022
ZGOW,2011-12-11 18:00,ZGOW 111800Z AUTO 34004MPS 9000 NCD 11/02 Q1022
ZGOW,2011-12-11 21:00,ZGOW 112100Z 33003MPS CAVOK 10/02 Q1021 NOSIG
ZGOW,2011-12-11 22:00,ZGOW 112200Z 34003MPS 300V020 CAVOK 10/02 Q1021 NOSIG
ZGOW,2011-12-11 23:00,ZGOW 112300Z 33004MPS 290V020 CAVOK 10/02 Q1022 NOSIG
ZGOW,2011-12-12 00:00,ZGOW 120000Z 32004MPS 280V010 CAVOK 11/02 Q1022 NOSIG
ZGOW,2011-12-12 01:00,ZGOW 120100Z 33004MPS CAVOK 13/02 Q1022 NOSIG
ZGOW,2011-12-12 02:00,ZGOW 120200Z 33004MPS CAVOK 15/03 Q1023 NOSIG
ZGOW,2011-12-12 03:00,ZGOW 120300Z 34004MPS CAVOK 17/05 Q1022 NOSIG
ZGOW,2011-12-12 04:00,ZGOW 120400Z 34003MPS CAVOK 19/07 Q1021 NOSIG
ZGOW,2011-12-12 05:00,ZGOW 120500Z 01003MPS CAVOK 20/08 Q1020 NOSIG
ZGOW,2011-12-12 06:00,ZGOW 120600Z 08005MPS CAVOK 20/09 Q1019 NOSIG
ZGOW,2011-12-12 07:00,ZGOW 120700Z 09003MPS CAVOK 20/10 Q1019 NOSIG
ZGOW,2011-12-12 08:00,ZGOW 120800Z 09004MPS CAVOK 19/11 Q1019 NOSIG
ZGOW,2011-12-12 09:00,ZGOW 120900Z 08004MPS CAVOK 19/12 Q1019 NOSIG
ZGOW,2011-12-12 10:00,ZGOW 121000Z 08003MPS CAVOK 17/12 Q1019 NOSIG
ZGOW,2011-12-12 11:00,ZGOW 121100Z 07005MPS CAVOK 17/13 Q1019 NOSIG
ZGOW,2011-12-12 12:00,ZGOW 121200Z 06003MPS CAVOK 16/13 Q1020 NOSIG
ZGOW,2011-12-12 13:00,ZGOW 121300Z 06003MPS 7000 SKC 15/13 Q1020 NOSIG
ZGOW,2011-12-12 14:00,ZGOW 121400Z 07002MPS 7000 SKC 14/12 Q1021 NOSIG
ZGOW,2011-12-12 15:00,ZGOW 121500Z 04001MPS 5000 BR SKC 14/12 Q1021 NOSIG
ZGOW,2011-12-12 16:00,ZGOW 121600Z 32001MPS 5000 BR SKC 14/12 Q1021 NOSIG
ZGOW,2011-12-12 17:00,ZGOW 121700Z AUTO 00000MPS 2800 // ////// 14/11 Q1020
ZGOW,2011-12-12 20:00,ZGOW 122000Z AUTO 32004MPS 7000 ////// 13/07 Q1020
ZGOW,2011-12-12 21:00,ZGOW 122100Z 32003MPS 7000 SKC 13/07 Q1020 NOSIG
ZGOW,2011-12-12 22:00,ZGOW 122200Z 32004MPS 7000 NSC 13/07 Q1020 NOSIG
ZGOW,2011-12-12 23:00,ZGOW 122300Z 34001MPS 7000 NSC 12/06 Q1021 NOSIG
ZGOW,2011-12-13 00:00,ZGOW 130000Z 32003MPS CAVOK 14/07 Q1021 NOSIG
ZGOW,2011-12-13 01:00,ZGOW 130100Z 33003MPS CAVOK 15/07 Q1022 NOSIG
ZGOW,2011-12-13 02:00,ZGOW 130200Z 31002MPS CAVOK 17/08 Q1022 NOSIG
ZGOW,2011-12-13 03:00,ZGOW 130300Z 32002MPS 8000 NSC 19/09 Q1021 NOSIG
ZGOW,2011-12-13 04:00,ZGOW 130400Z VRB01MPS CAVOK 21/11 Q1020 NOSIG
ZGOW,2011-12-13 05:00,ZGOW 130500Z 09004MPS 060V130 CAVOK 21/12 Q1019 NOSIG
ZGOW,2011-12-13 06:00,ZGOW 130600Z 09004MPS 050V120 CAVOK 21/13 Q1019 NOSIG
ZGOW,2011-12-13 07:00,ZGOW 130700Z 09004MPS CAVOK 20/13 Q1018 NOSIG
ZGOW,2011-12-13 08:00,ZGOW 130800Z 08004MPS 060V120 CAVOK 19/13 Q1018 NOSIG
ZGOW,2011-12-13 09:00,ZGOW 130900Z 09006MPS 8000 NSC 18/13 Q1018 NOSIG
ZGOW,2011-12-13 10:00,ZGOW 131000Z 09004MPS 8000 NSC 18/14 Q1019 NOSIG
ZGOW,2011-12-13 11:00,ZGOW 131100Z 07004MPS 8000 NSC 18/14 Q1019 NOSIG
ZGOW,2011-12-13 12:00,ZGOW 131200Z 07004MPS 8000 NSC 18/13 Q1019 NOSIG
ZGOW,2011-12-13 13:00,ZGOW 131300Z 08005MPS 8000 NSC 18/13 Q1020 NOSIG
ZGOW,2011-12-13 14:00,ZGOW 131400Z 07005MPS 8000 NSC 18/13 Q1020 NOSIG
ZGOW,2011-12-13 15:00,ZGOW 131500Z 07007MPS 8000 NSC 18/14 Q1020 NOSIG
ZGOW,2011-12-13 16:00,ZGOW 131600Z 07006MPS 8000 NSC 17/14 Q1020 NOSIG
ZGOW,2011-12-13 17:00,ZGOW 131700Z AUTO 06004MPS 4000 // ////// 17/13 Q1020
ZGOW,2011-12-13 18:00,ZGOW 131800Z AUTO 06002MPS 3600 // ////// 17/13 Q1020
ZGOW,2011-12-13 19:00,ZGOW 131900Z AUTO 02002MPS 3700 // ////// 17/13 Q1019
ZGOW,2011-12-13 20:00,ZGOW 132000Z AUTO 35001MPS 2700 // ////// 17/13 Q1019
ZGOW,2011-12-13 21:00,ZGOW 132100Z 32001MPS 7000 NSC 17/13 Q1019 NOSIG
ZGOW,2011-12-13 22:00,ZGOW 132200Z 32001MPS 7000 NSC 17/13 Q1020 NOSIG
ZGOW,2011-12-13 23:00,ZGOW 132300Z 33001MPS 6000 NSC 16/12 Q1020 NOSIG
ZGOW,2011-12-14 00:00,ZGOW 140000Z 32003MPS 6000 NSC 17/11 Q1020 NOSIG
ZGOW,2011-12-14 01:00,ZGOW 140100Z 33002MPS 7000 NSC 18/11 Q1021 NOSIG
ZGOW,2011-12-14 02:00,ZGOW 140200Z 32002MPS 7000 NSC 18/11 Q1021 NOSIG
ZGOW,2011-12-14 03:00,ZGOW 140300Z 32002MPS 7000 NSC 20/12 Q1020 NOSIG
ZGOW,2011-12-14 04:00,ZGOW 140400Z 34002MPS 7000 NSC 21/12 Q1020 NOSIG
ZGOW,2011-12-14 05:00,ZGOW 140500Z 02003MPS 7000 SCT033 22/14 Q1018 NOSIG
ZGOW,2011-12-14 06:00,ZGOW 140600Z 06004MPS 7000 SCT033 22/14 Q1018 NOSIG
ZGOW,2011-12-14 07:00,ZGOW 140700Z 12003MPS 5000 HZ SCT033 21/15 Q1017 NOSIG
ZGOW,2011-12-14 08:00,ZGOW 140800Z 07002MPS 5000 HZ SCT033 21/15 Q1018 NOSIG
ZGOW,2011-12-14 09:00,ZGOW 140900Z 06003MPS 5000 HZ SCT033 20/15 Q1018 NOSIG
ZGOW,2011-12-14 10:00,ZGOW 141000Z 08002MPS 5000 HZ SCT033 20/15 Q1018 NOSIG
ZGOW,2011-12-14 11:00,ZGOW 141100Z 06002MPS 5000 HZ SCT033 20/15 Q1019 NOSIG
ZGOW,2011-12-14 12:00,ZGOW 141200Z 06003MPS 5000 BR SCT033 19/15 Q1019 NOSIG
ZGOW,2011-12-14 13:00,ZGOW 141300Z 07002MPS 4000 BR NSC 19/15 Q1019 NOSIG
ZGOW,2011-12-14 14:00,ZGOW 141400Z 05002MPS 4000 BR NSC 19/15 Q1020 NOSIG
ZGOW,2011-12-14 15:00,ZGOW 141500Z 07002MPS 4000 BR NSC 18/14 Q1020 NOSIG
ZGOW,2011-12-14 16:00,ZGOW 141600Z 07001MPS 4000 BR NSC 18/14 Q1020 NOSIG
ZGOW,2011-12-14 17:00,ZGOW 141700Z 00000MPS 2800 BR NSC 18/16 Q1020 NOSIG
ZGOW,2011-12-14 18:00,ZGOW 141800Z AUTO 00000MPS 3500 BR ///////// 18/16 Q1019
ZGOW,2011-12-14 19:00,ZGOW 141900Z AUTO 05002MPS 020V080 3600 BR ///////// 18/16 Q1019
ZGOW,2011-12-14 20:00,ZGOW 142000Z AUTO 08001MPS 4100 BR ///////// 18/15 Q1019
ZGOW,2011-12-14 21:00,ZGOW 142100Z 08002MPS 4000 BR NSC 18/15 Q1019 NOSIG
ZGOW,2011-12-14 22:00,ZGOW 142200Z VRB01MPS 3500 BR NSC 17/15 Q1019 NOSIG
ZGOW,2011-12-14 23:00,ZGOW 142300Z VRB01MPS 4000 BR NSC 16/14 Q1020 NOSIG
ZGOW,2011-12-15 00:00,ZGOW 150000Z VRB01MPS 5000 HZ SCT030 17/12 Q1021 NOSIG
ZGOW,2011-12-15 01:00,ZGOW 150100Z 23001MPS 3100 BR SCT030 17/13 Q1022 NOSIG
ZGOW,2011-12-15 02:00,ZGOW 150200Z VRB01MPS 3500 BR SCT030 18/13 Q1022 NOSIG
ZGOW,2011-12-15 03:00,ZGOW 150300Z 36002MPS 290V050 5000 HZ SCT030 19/11 Q1022 NOSIG
ZGOW,2011-12-15 04:00,ZGOW 150400Z 01004MPS 7000 BKN050 20/11 Q1020 NOSIG
ZGOW,2011-12-15 05:00,ZGOW 150500Z 08003MPS 010V130 7000 NSC 21/12 Q1019 NOSIG
ZGOW,2011-12-15 06:00,ZGOW 150600Z 10003MPS 070V140 8000 NSC 22/13 Q1018 NOSIG
ZGOW,2011-12-15 07:00,ZGOW 150700Z 08004MPS 7000 SCT040 23/13 Q1018 NOSIG
ZGOW,2011-12-15 08:00,ZGOW 150800Z 12003MPS 5000 HZ NSC 22/14 Q1018 NOSIG
ZGOW,2011-12-15 09:00,ZGOW 150900Z 09005MPS 4000 HZ SCT040 21/14 Q1018 NOSIG
ZGOW,2011-12-15 10:00,ZGOW 151000Z 11003MPS 3500 HZ SCT040 19/14 Q1019 NOSIG
ZGOW,2011-12-15 11:00,ZGOW 151100Z 10003MPS 3500 BR SCT040 18/14 Q1020 NOSIG
ZGOW,2011-12-15 12:00,ZGOW 151200Z 04002MPS 330V090 3500 BR FEW040 18/13 Q1020 NOSIG
ZGOW,2011-12-15 13:00,ZGOW 151300Z 08003MPS 4000 BR BKN040 18/13 Q1021 NOSIG
ZGOW,2011-12-15 14:00,ZGOW 151400Z 05003MPS 020V080 4000 BR FEW040 17/14 Q1022 NOSIG
ZGOW,2011-12-15 15:00,ZGOW 151500Z 05004MPS 020V080 7000 NSC 17/10 Q1022 NOSIG
ZGOW,2011-12-15 16:00,ZGOW 151600Z 07004MPS 7000 BKN040 16/10 Q1022 NOSIG
ZGOW,2011-12-15 17:00,ZGOW 151700Z 05004MPS 7000 BKN040 16/09 Q1023 NOSIG
ZGOW,2011-12-15 18:00,ZGOW 151800Z AUTO 04003MPS 7000 ///////// 16/08 Q1023
ZGOW,2011-12-15 19:00,ZGOW 151900Z AUTO 02003MPS 7000 ///////// 16/08 Q1023
ZGOW,2011-12-15 20:00,ZGOW 152000Z AUTO 02004MPS 7000 ///////// 16/07 Q1023
ZGOW,2011-12-15 21:00,ZGOW 152100Z 02005MPS 7000 BKN040 16/07 Q1023 NOSIG
ZGOW,2011-12-15 22:00,ZGOW 152200Z 02004MPS 7000 BKN040 15/07 Q1024 NOSIG
ZGOW,2011-12-15 23:00,ZGOW 152300Z 01005MPS 5000 HZ BKN040 15/07 Q1024 NOSIG
ZGOW,2011-12-16 00:00,ZGOW 160000Z 01004MPS 7000 BKN040 14/07 Q1025 NOSIG
ZGOW,2011-12-16 01:00,ZGOW 160100Z 01005MPS 7000 BKN040 15/07 Q1025 NOSIG
ZGOW,2011-12-16 02:00,ZGOW 160200Z 01005MPS 6000 SCT033 16/07 Q1026 NOSIG
ZGOW,2011-12-16 03:00,ZGOW 160300Z 02005MPS 6000 FEW030 17/08 Q1025 NOSIG
ZGOW,2011-12-16 04:00,ZGOW 160400Z 36003MPS 340V040 6000 NSC 18/08 Q1024 NOSIG
ZGOW,2011-12-16 05:00,ZGOW 160500Z 02003MPS 340V070 7000 NSC 19/08 Q1023 NOSIG
ZGOW,2011-12-16 06:00,ZGOW 160600Z 36003MPS 310V040 7000 FEW026 20/08 Q1022 NOSIG
ZGOW,2011-12-16 07:00,ZGOW 160700Z 36002MPS 300V050 7000 SCT033 20/08 Q1021 NOSIG
ZGOW,2011-12-16 08:00,ZGOW 160800Z 12005MPS 090V150 3500 HZ BKN030 19/11 Q1022 NOSIG
ZGOW,2011-12-16 09:00,ZGOW 160900Z 11006MPS 3000 HZ NSC 17/11 Q1022 TEMPO 2500 BR
ZGOW,2011-12-16 10:00,ZGOW 161000Z 12004MPS 090V150 4000 HZ SCT050 16/11 Q1023 NOSIG
ZGOW,2011-12-16 11:00,ZGOW 161100Z 11005MPS 4500 HZ SCT050 16/10 Q1024 NOSIG
ZGOW,2011-12-16 12:00,ZGOW 161200Z 10004MPS 5000 HZ SCT050 15/10 Q1025 NOSIG
ZGOW,2011-12-16 13:00,ZGOW 161300Z 11004MPS 5000 HZ SCT050 15/10 Q1025 NOSIG
ZGOW,2011-12-16 14:00,ZGOW 161400Z 11004MPS 5000 HZ SCT050 15/09 Q1025 NOSIG
ZGOW,2011-12-16 15:00,ZGOW 161500Z 12004MPS 5000 HZ BKN040 14/08 Q1026 NOSIG
ZGOW,2011-12-16 16:00,ZGOW 161600Z 11005MPS 5000 HZ BKN040 14/07 Q1026 NOSIG
ZGOW,2011-12-16 17:00,ZGOW 161700Z 10005MPS 6000 BKN033 14/07 Q1027 NOSIG
ZGOW,2011-12-16 18:00,ZGOW 161800Z 10004MPS 6000 BKN040 13/06 Q1027 NOSIG
ZGOW,2011-12-16 19:00,ZGOW 161900Z AUTO 08004MPS 6000 ///////// 13/06 Q1026
ZGOW,2011-12-16 20:00,ZGOW 162000Z AUTO 09003MPS 6000 ///////// 12/06 Q1026
ZGOW,2011-12-16 21:00,ZGOW 162100Z 10003MPS 5000 HZ SCT030 12/06 Q1027 NOSIG
ZGOW,2011-12-16 22:00,ZGOW 162200Z 09003MPS 6000 NSC 12/05 Q1027 NOSIG
ZGOW,2011-12-16 23:00,ZGOW 162300Z 08003MPS 4500 HZ NSC 11/06 Q1027 NOSIG
ZGOW,2011-12-17 00:00,ZGOW 170000Z 12002MPS 4000 HZ NSC 12/06 Q1028 NOSIG
ZGOW,2011-12-17 01:00,ZGOW 170100Z VRB01MPS 4500 HZ SKC 13/07 Q1028 NOSIG
ZGOW,2011-12-17 02:00,ZGOW 170200Z 06004MPS 020V100 5000 HZ SKC 14/05 Q1028 NOSIG
ZGOW,2011-12-17 03:00,ZGOW 170300Z 08004MPS 7000 FEW030 15/06 Q1027 NOSIG
ZGOW,2011-12-17 04:00,ZGOW 170400Z VRB02MPS 8000 FEW033 16/06 Q1026 NOSIG
ZGOW,2011-12-17 05:00,ZGOW 170500Z 12003MPS 8000 FEW033 17/06 Q1024 NOSIG
ZGOW,2011-12-17 06:00,ZGOW 170600Z 11003MPS 060V210 8000 SKC 17/06 Q1023 NOSIG
ZGOW,2011-12-17 07:00,ZGOW 170700Z 12004MPS 090V160 8000 SKC 17/06 Q1023 NOSIG
ZGOW,2011-12-17 08:00,ZGOW 170800Z 10005MPS 8000 SKC 16/07 Q1023 TEMPO 11007G12MPS
ZGOW,2011-12-17 09:00,ZGOW 170900Z 12005MPS 8000 SKC 15/08 Q1023 NOSIG
ZGOW,2011-12-17 10:00,ZGOW 171000Z 11005MPS 7000 SKC 14/08 Q1023 NOSIG
ZGOW,2011-12-17 11:00,ZGOW 171100Z 10005MPS 7000 SKC 14/08 Q1024 NOSIG
ZGOW,2011-12-17 12:00,ZGOW 171200Z 09005MPS 6000 SKC 13/08 Q1025 NOSIG
ZGOW,2011-12-17 13:00,ZGOW 171300Z 08004MPS 6000 SKC 13/08 Q1026 NOSIG
ZGOW,2011-12-17 14:00,ZGOW 171400Z 09004MPS 6000 SKC 13/07 Q1026 NOSIG
ZGOW,2011-12-17 15:00,ZGOW 171500Z 05003MPS 5000 BR SKC 12/08 Q1026 NOSIG
ZGOW,2011-12-17 16:00,ZGOW 171600Z 04002MPS 330V080 4500 BR SKC 11/07 Q1026 NOSIG
ZGOW,2011-12-17 17:00,ZGOW 171700Z AUTO 35001MPS 3200 BR NCD 10/07 Q1026
ZGOW,2011-12-17 20:00,ZGOW 172000Z AUTO 00000MPS 2800 BR ///////// 10/08 Q1025
ZGOW,2011-12-17 21:00,ZGOW 172100Z 00000MPS 3000 BR NSC 10/08 Q1025 TEMPO 2100 BR
ZGOW,2011-12-17 22:00,ZGOW 172200Z 12001MPS 3200 BR SKC 10/08 Q1025 NOSIG
ZGOW,2011-12-17 23:00,ZGOW 172300Z 13001MPS 3000 BR NSC 10/08 Q1026 TEMPO 2500 BR
ZGOW,2011-12-18 00:00,ZGOW 180000Z VRB01MPS 3000 BR SKC 11/08 Q1026 BECMG 3500 BR
ZGOW,2011-12-18 01:00,ZGOW 180100Z VRB01MPS 4000 HZ SKC 13/07 Q1027 NOSIG
ZGOW,2011-12-18 02:00,ZGOW 180200Z 04002MPS 340V100 7000 NSC 15/06 Q1027 NOSIG
ZGOW,2011-12-18 03:00,ZGOW 180300Z 05002MPS 360V140 9000 NSC 16/06 Q1026 NOSIG
ZGOW,2011-12-18 04:00,ZGOW 180400Z VRB02MPS CAVOK 17/07 Q1025 NOSIG
ZGOW,2011-12-18 05:00,ZGOW 180500Z 10004MPS CAVOK 19/08 Q1023 NOSIG
ZGOW,2011-12-18 06:00,ZGOW 180600Z 12004MPS CAVOK 19/08 Q1022 NOSIG
ZGOW,2011-12-18 07:00,ZGOW 180700Z 16003MPS 100V210 CAVOK 20/09 Q1021 NOSIG
ZGOW,2011-12-18 08:00,ZGOW 180800Z 20004MPS 170V230 CAVOK 18/10 Q1021 NOSIG
ZGOW,2011-12-18 09:00,ZGOW 180900Z 12004MPS 8000 NSC 18/10 Q1022 NOSIG
ZGOW,2011-12-18 10:00,ZGOW 181000Z 11005MPS 6000 NSC 16/11 Q1022 NOSIG
ZGOW,2011-12-18 11:00,ZGOW 181100Z 12004MPS 5000 BR NSC 15/11 Q1023 NOSIG
ZGOW,2011-12-18 12:00,ZGOW 181200Z 11003MPS 070V130 5000 BR NSC 15/12 Q1024 NOSIG
ZGOW,2011-12-18 13:00,ZGOW 181300Z 08002MPS 5000 BR NSC 15/11 Q1024 NOSIG
ZGOW,2011-12-18 14:00,ZGOW 181400Z 08002MPS 4500 BR SKC 14/11 Q1024 NOSIG
ZGOW,2011-12-18 15:00,ZGOW 181500Z 04003MPS 4000 BR SKC 13/11 Q1024 NOSIG
ZGOW,2011-12-18 16:00,ZGOW 181600Z 35001MPS 2500 BR SKC 13/11 Q1024 TEMPO 2300 BR
ZGOW,2011-12-18 17:00,ZGOW 181700Z 33002MPS 2500 BR SKC 12/11 Q1024 TEMPO 2300 BR
ZGOW,2011-12-18 19:00,ZGOW 181900Z AUTO VRB01MPS 1800 BR NCD 11/10 Q1023
ZGOW,2011-12-18 21:00,ZGOW 182100Z 00000MPS 2000 BR SKC 10/10 Q1022 TEMPO 1500 BR
ZGOW,2011-12-18 22:00,ZGOW 182200Z 00000MPS 2000 BR SKC 10/09 Q1023 TEMPO 1500 BR
ZGOW,2011-12-18 23:00,ZGOW 182300Z VRB01MPS 1600 BR NSC 10/09 Q1024 NOSIG
ZGOW,2011-12-19 00:00,ZGOW 190000Z 00000MPS 2200 BR NSC 11/10 Q1024 NOSIG
ZGOW,2011-12-19 01:00,ZGOW 190100Z VRB01MPS 4500 HZ NSC 13/09 Q1024 NOSIG
ZGOW,2011-12-19 02:00,ZGOW 190200Z VRB01MPS 5000 HZ NSC 15/09 Q1024 NOSIG
ZGOW,2011-12-19 03:00,ZGOW 190300Z 08002MPS 010V140 8000 SKC 17/09 Q1023 NOSIG
ZGOW,2011-12-19 04:00,ZGOW 190400Z 09002MPS 010V130 CAVOK 19/09 Q1022 NOSIG
ZGOW,2011-12-19 05:00,ZGOW 190500Z 11003MPS 060V160 CAVOK 19/09 Q1021 NOSIG
ZGOW,2011-12-19 06:00,ZGOW 190600Z VRB01MPS CAVOK 20/09 Q1020 NOSIG
ZGOW,2011-12-19 07:00,ZGOW 190700Z 13004MPS 100V180 CAVOK 20/09 Q1019 NOSIG
ZGOW,2011-12-19 08:00,ZGOW 190800Z 12004MPS CAVOK 19/09 Q1019 NOSIG
ZGOW,2011-12-19 09:00,ZGOW 190900Z 12003MPS 040V170 8000 SKC 19/10 Q1019 NOSIG
ZGOW,2011-12-19 10:00,ZGOW 191000Z 13004MPS 6000 SKC 17/11 Q1020 NOSIG
ZGOW,2011-12-19 11:00,ZGOW 191100Z 09002MPS 060V120 6000 SKC 16/11 Q1020 NOSIG
ZGOW,2011-12-19 12:00,ZGOW 191200Z 09002MPS 070V130 6000 SKC 16/11 Q1021 NOSIG
ZGOW,2011-12-19 13:00,ZGOW 191300Z 12001MPS 8000 SKC 15/11 Q1021 NOSIG
ZGOW,2011-12-19 14:00,ZGOW 191400Z 01001MPS 8000 SCT050 14/11 Q1022 NOSIG
ZGOW,2011-12-19 15:00,ZGOW 191500Z 36002MPS 320V020 6000 SCT050 14/11 Q1022 NOSIG
ZGOW,2011-12-19 16:00,ZGOW 191600Z AUTO VRB01MPS 4500 BR ///////// 14/11 Q1022
ZGOW,2011-12-19 17:00,ZGOW 191700Z AUTO 00000MPS 3600 BR ///////// 13/11 Q1021
ZGOW,2011-12-19 18:00,ZGOW 191800Z AUTO 33002MPS 4800 BR ///////// 14/10 Q1021
ZGOW,2011-12-19 19:00,ZGOW 191900Z AUTO 05001MPS 4400 BR ///////// 14/11 Q1021
ZGOW,2011-12-19 20:00,ZGOW 192000Z AUTO VRB01MPS 3100 BR ///////// 14/11 Q1021
ZGOW,2011-12-19 21:00,ZGOW 192100Z 00000MPS 4000 BR BKN040 14/11 Q1021 NOSIG
ZGOW,2011-12-19 22:00,ZGOW 192200Z 00000MPS 4000 BR BKN040 15/11 Q1021 NOSIG
ZGOW,2011-12-19 23:00,ZGOW 192300Z VRB01MPS 5000 BR BKN040 15/11 Q1021 NOSIG
ZGOW,2011-12-20 00:00,ZGOW 200000Z VRB01MPS 6000 BKN040 15/10 Q1022 NOSIG
ZGOW,2011-12-20 01:00,ZGOW 200100Z VRB01MPS 6000 BKN040 16/11 Q1022 NOSIG
ZGOW,2011-12-20 02:00,ZGOW 200200Z 02004MPS 8000 BKN050 18/10 Q1023 NOSIG
ZGOW,2011-12-20 03:00,ZGOW 200300Z 02003MPS 9999 BKN050 18/09 Q1022 NOSIG
ZGOW,2011-12-20 04:00,ZGOW 200400Z 08003MPS 050V120 9999 BKN050 19/10 Q1021 NOSIG
ZGOW,2011-12-20 05:00,ZGOW 200500Z 07003MPS 020V110 9999 BKN050 20/10 Q1019 NOSIG
ZGOW,2011-12-20 06:00,ZGOW 200600Z 06002MPS 020V090 9999 BKN050 20/11 Q1018 NOSIG
ZGOW,2011-12-20 07:00,ZGOW 200700Z 05002MPS 350V080 9999 BKN050 20/11 Q1018 NOSIG
ZGOW,2011-12-20 08:00,ZGOW 200800Z 11003MPS 070V150 9999 BKN050 20/12 Q1018 NOSIG
ZGOW,2011-12-20 09:00,ZGOW 200900Z 12004MPS 9999 BKN050 19/12 Q1018 NOSIG
ZGOW,2011-12-20 10:00,ZGOW 201000Z 11003MPS 6000 SCT040 19/12 Q1018 NOSIG
ZGOW,2011-12-20 11:00,ZGOW 201100Z 10003MPS 7000 SCT040 18/13 Q1019 NOSIG
ZGOW,2011-12-20 12:00,ZGOW 201200Z 11003MPS 7000 BKN040 18/13 Q1019 NOSIG
ZGOW,2011-12-20 13:00,ZGOW 201300Z 07002MPS 040V100 5000 HZ SCT040 18/13 Q1019 NOSIG
ZGOW,2011-12-20 14:00,ZGOW 201400Z 11002MPS 5000 BR SCT040 18/13 Q1019 NOSIG
ZGOW,2011-12-20 15:00,ZGOW 201500Z VRB01MPS 5000 BR BKN050 17/14 Q1019 NOSIG
ZGOW,2011-12-20 16:00,ZGOW 201600Z 00000MPS 4000 BR BKN050 17/14 Q1018 NOSIG
ZGOW,2011-12-20 17:00,ZGOW 201700Z VRB01MPS 3300 BR SCT026 BKN050 17/14 Q1018 NOSIG
ZGOW,2011-12-20 18:00,ZGOW 201800Z AUTO VRB01MPS 4300 ///////// 17/13 Q1018
ZGOW,2011-12-20 19:00,ZGOW 201900Z AUTO 12002MPS 3100 BR ///////// 17/14 Q1018
ZGOW,2011-12-20 20:00,ZGOW 202000Z AUTO 00000MPS 3200 BR ///////// 17/14 Q1018
ZGOW,2011-12-20 21:00,ZGOW 202100Z 00000MPS 3200 BR BKN040 16/14 Q1018 NOSIG
ZGOW,2011-12-20 22:00,ZGOW 202200Z VRB01MPS 3500 -RA BR SCT024 BKN050 17/14 Q1019 TEMPO 2500 BR
ZGOW,2011-12-20 23:00,ZGOW 202300Z 10002MPS 3500 BR BKN050 17/13 Q1020 TEMPO 2500 BR
ZGOW,2011-12-21 00:00,ZGOW 210000Z 07003MPS 4500 HZ BKN050 18/13 Q1020 NOSIG
ZGOW,2011-12-21 01:00,ZGOW 210100Z 03002MPS 9999 BKN050 19/12 Q1021 NOSIG
ZGOW,2011-12-21 02:00,ZGOW 210200Z 02005MPS 9999 BKN050 19/12 Q1021 NOSIG
ZGOW,2011-12-21 03:00,ZGOW 210300Z 03003MPS 350V070 9999 BKN050 20/12 Q1020 NOSIG
ZGOW,2011-12-21 04:00,ZGOW 210400Z 05002MPS 330V090 9999 BKN050 21/12 Q1019 NOSIG
ZGOW,2011-12-21 05:00,ZGOW 210500Z 01002MPS 340V060 CAVOK 21/12 Q1018 NOSIG
ZGOW,2011-12-21 06:00,ZGOW 210600Z 14002MPS 070V170 CAVOK 22/12 Q1017 NOSIG
ZGOW,2011-12-21 07:00,ZGOW 210700Z 12003MPS CAVOK 22/12 Q1016 NOSIG
ZGOW,2011-12-21 08:00,ZGOW 210800Z VRB01MPS CAVOK 23/12 Q1016 NOSIG
ZGOW,2011-12-21 09:00,ZGOW 210900Z 12003MPS 090V150 6000 SKC 21/14 Q1016 NOSIG
ZGOW,2011-12-21 10:00,ZGOW 211000Z 10004MPS 6000 SKC 19/14 Q1017 NOSIG
ZGOW,2011-12-21 11:00,ZGOW 211100Z 10004MPS 060V120 7000 SKC 18/13 Q1018 NOSIG
ZGOW,2011-12-21 12:00,ZGOW 211200Z 11003MPS 7000 SKC 17/13 Q1019 NOSIG
ZGOW,2011-12-21 13:00,ZGOW 211300Z 11003MPS 7000 SKC 17/13 Q1020 NOSIG
ZGOW,2011-12-21 14:00,ZGOW 211400Z 10002MPS 070V130 7000 SKC 17/13 Q1020 NOSIG
ZGOW,2011-12-21 15:00,ZGOW 211500Z 01002MPS 5000 BR SKC 15/13 Q1020 NOSIG
ZGOW,2011-12-21 16:00,ZGOW 211600Z VRB01MPS 3500 BR SKC 15/13 Q1020 BECMG 2500 BR
ZGOW,2011-12-21 17:00,ZGOW 211700Z AUTO VRB01MPS 2000 BR NCD 14/13 Q1020
ZGOW,2011-12-21 21:00,ZGOW 212100Z 00000MPS 5000 BR SKC 13/12 Q1019 NOSIG
ZGOW,2011-12-21 22:00,ZGOW 212200Z VRB01MPS 5000 BR SKC 13/11 Q1020 NOSIG
ZGOW,2011-12-21 23:00,ZGOW 212300Z 03002MPS 360V060 4500 BR SKC 14/10 Q1020 NOSIG
ZGOW,2011-12-22 00:00,ZGOW 220000Z VRB01MPS 4500 BR SKC 14/11 Q1021 NOSIG
ZGOW,2011-12-22 01:00,ZGOW 220100Z 02002MPS 350V050 5000 HZ SKC 16/10 Q1021 NOSIG
ZGOW,2011-12-22 02:00,ZGOW 220200Z VRB03MPS 5000 HZ FEW033 17/09 Q1021 NOSIG
ZGOW,2011-12-22 03:00,ZGOW 220300Z 03004MPS 360V080 5000 HZ SKC 18/09 Q1021 NOSIG
ZGOW,2011-12-22 04:00,ZGOW 220400Z 07003MPS 040V110 6000 SKC 19/10 Q1020 NOSIG
ZGOW,2011-12-22 05:00,ZGOW 220500Z 03004MPS 340V080 6000 SKC 20/10 Q1018 NOSIG
ZGOW,2011-12-22 06:00,ZGOW 220600Z 04004MPS 360V070 7000 SKC 20/10 Q1017 NOSIG
ZGOW,2011-12-22 07:00,ZGOW 220700Z 06002MPS 6000 FEW040 20/09 Q1017 NOSIG
ZGOW,2011-12-22 08:00,ZGOW 220800Z 11005MPS 4000 HZ FEW040 19/13 Q1017 NOSIG
ZGOW,2011-12-22 09:00,ZGOW 220900Z 11006MPS 3500 HZ SCT040 17/12 Q1018 TEMPO 2500 BR
ZGOW,2011-12-22 10:00,ZGOW 221000Z 11006MPS 4000 HZ SCT040 16/12 Q1018 NOSIG
ZGOW,2011-12-22 11:00,ZGOW 221100Z 11005MPS 5000 BR BKN040 15/11 Q1019 NOSIG
ZGOW,2011-12-22 12:00,ZGOW 221200Z 11004MPS 5000 BR SCT040 15/11 Q1020 NOSIG
ZGOW,2011-12-22 13:00,ZGOW 221300Z 09004MPS 5000 BR FEW040 15/11 Q1020 NOSIG
ZGOW,2011-12-22 14:00,ZGOW 221400Z 04005MPS 5000 HZ SCT040 14/07 Q1021 NOSIG
ZGOW,2011-12-22 15:00,ZGOW 221500Z 02005MPS 5000 HZ SCT033 13/07 Q1021 NOSIG
ZGOW,2011-12-22 16:00,ZGOW 221600Z 01004MPS 5000 HZ BKN040 13/07 Q1021 NOSIG
ZGOW,2011-12-22 17:00,ZGOW 221700Z AUTO /////MPS //// // ///////// 13/07 
ZGOW,2011-12-22 19:00,ZGOW 221900Z AUTO /////MPS //// // ///////// 13/07 
ZGOW,2011-12-22 21:00,ZGOW 222100Z 04002MPS 4000 HZ BKN033 12/06 Q1021 NOSIG
ZGOW,2011-12-22 22:00,ZGOW 222200Z 03003MPS 4000 HZ BKN033 12/06 Q1022 NOSIG
ZGOW,2011-12-22 23:00,ZGOW 222300Z 03003MPS 4000 HZ SCT023 BKN033 12/06 Q1022 NOSIG
ZGOW,2011-12-23 00:00,ZGOW 230000Z 02002MPS 4000 HZ SCT023 BKN033 12/06 Q1023 NOSIG
ZGOW,2011-12-23 01:00,ZGOW 230100Z 01003MPS 4000 HZ SCT023 BKN050 13/06 Q1023 NOSIG
ZGOW,2011-12-23 02:00,ZGOW 230200Z 02004MPS 4500 HZ BKN033 13/07 Q1023 NOSIG
ZGOW,2011-12-23 03:00,ZGOW 230300Z 01004MPS 350V060 5000 HZ SKC 15/07 Q1023 NOSIG
ZGOW,2011-12-23 04:00,ZGOW 230400Z 06002MPS 010V120 5000 HZ SKC 15/07 Q1021 NOSIG
ZGOW,2011-12-23 05:00,ZGOW 230500Z VRB02MPS 5000 HZ BKN040 17/07 Q1020 NOSIG
ZGOW,2011-12-23 06:00,ZGOW 230600Z 01004MPS 340V040 6000 SCT040 16/07 Q1020 NOSIG
ZGOW,2011-12-23 07:00,ZGOW 230700Z 02006MPS 6000 BKN040 15/07 Q1019 NOSIG
ZGOW,2011-12-23 08:00,ZGOW 230800Z 36006MPS 6000 BKN040 15/06 Q1020 NOSIG
ZGOW,2011-12-23 09:00,ZGOW 230900Z 36006MPS 330V030 6000 SCT033 BKN050 13/06 Q1020 NOSIG
ZGOW,2011-12-23 10:00,ZGOW 231000Z 36007MPS 320V020 7000 SCT040 13/06 Q1021 NOSIG
ZGOW,2011-12-23 11:00,ZGOW 231100Z 36007MPS 7000 FEW040 12/05 Q1022 NOSIG
ZGOW,2011-12-23 12:00,ZGOW 231200Z 36006MPS 8000 SKC 12/05 Q1022 NOSIG
ZGOW,2011-12-23 14:00,ZGOW 231400Z 36005MPS 330V030 9999 BKN040 12/05 Q1023 NOSIG
ZGOW,2011-12-23 15:00,ZGOW 231500Z 01004MPS 8000 FEW040 11/04 Q1023 NOSIG
ZGOW,2011-12-23 16:00,ZGOW 231600Z 02003MPS 5000 HZ FEW040 11/03 Q1024 NOSIG
ZGOW,2011-12-23 17:00,ZGOW 231700Z 02003MPS 5000 HZ SKC 11/02 Q1024 NOSIG
ZGOW,2011-12-23 19:00,ZGOW 231900Z AUTO 01004MPS 7000 ///////// 11/01 Q1023
ZGOW,2011-12-23 20:00,ZGOW 232000Z AUTO 36005MPS 320V020 7000 ///////// 10/M01 Q1023
ZGOW,2011-12-23 21:00,ZGOW 232100Z 03003MPS 7000 SKC 10/M01 Q1023 NOSIG
ZGOW,2011-12-23 22:00,ZGOW 232200Z 01004MPS 8000 SKC 09/M02 Q1023 NOSIG
ZGOW,2011-12-23 23:00,ZGOW 232300Z 36005MPS 8000 SKC 09/M04 Q1024 NOSIG
ZGOW,2011-12-24 00:00,ZGOW 240000Z 01006MPS 8000 SKC 09/M04 Q1025 NOSIG
ZGOW,2011-12-24 01:00,ZGOW 240100Z 01007MPS 8000 SKC 10/M04 Q1025 NOSIG
ZGOW,2011-12-24 02:00,ZGOW 240200Z 36006MPS 9000 SKC 11/M04 Q1025 NOSIG
ZGOW,2011-12-24 03:00,ZGOW 240300Z 02005MPS 340V040 CAVOK 13/M04 Q1025 NOSIG
ZGOW,2011-12-24 04:00,ZGOW 240400Z 02005MPS 340V040 CAVOK 14/M04 Q1024 NOSIG
ZGOW,2011-12-24 05:00,ZGOW 240500Z 02004MPS 350V050 CAVOK 15/M04 Q1023 NOSIG
ZGOW,2011-12-24 06:00,ZGOW 240600Z 36004MPS 300V030 CAVOK 16/M03 Q1022 NOSIG
ZGOW,2011-12-24 07:00,ZGOW 240700Z 36004MPS 320V020 CAVOK 16/M03 Q1022 NOSIG
ZGOW,2011-12-24 08:00,ZGOW 240800Z 36006MPS CAVOK 15/M03 Q1022 NOSIG
ZGOW,2011-12-24 09:00,ZGOW 240900Z 36005MPS CAVOK 15/M03 Q1022 NOSIG
ZGOW,2011-12-24 10:00,ZGOW 241000Z 36004MPS 330V030 CAVOK 14/M02 Q1023 NOSIG
ZGOW,2011-12-24 11:00,ZGOW 241100Z 04004MPS 010V070 CAVOK 13/M02 Q1024 NOSIG
ZGOW,2011-12-24 12:00,ZGOW 241200Z 08002MPS 040V100 7000 SKC 13/M01 Q1024 NOSIG
ZGOW,2011-12-24 13:00,ZGOW 241300Z 04001MPS 9000 SKC 10/M01 Q1025 NOSIG
ZGOW,2011-12-24 14:00,ZGOW 241400Z VRB01MPS 9000 SKC 09/M00 Q1025 NOSIG
ZGOW,2011-12-24 15:00,ZGOW 241500Z VRB01MPS 8000 SKC 09/M01 Q1025 NOSIG
ZGOW,2011-12-24 16:00,ZGOW 241600Z 00000MPS 8000 SKC 09/M01 Q1025 NOSIG
ZGOW,2011-12-24 17:00,ZGOW 241700Z AUTO VRB01MPS 6000 NCD 08/01 Q1025
ZGOW,2011-12-24 19:00,ZGOW 241900Z AUTO VRB01MPS 4000 NCD 07/02 Q1025
ZGOW,2011-12-24 21:00,ZGOW 242100Z VRB01MPS 6000 SKC 06/02 Q1026 NOSIG
ZGOW,2011-12-24 22:00,ZGOW 242200Z VRB01MPS 7000 SKC 06/01 Q1026 NOSIG
ZGOW,2011-12-24 23:00,ZGOW 242300Z VRB01MPS 9000 NSC 06/M01 Q1026 NOSIG
ZGOW,2011-12-25 00:00,ZGOW 250000Z VRB01MPS CAVOK 08/M02 Q1027 NOSIG
ZGOW,2011-12-25 01:00,ZGOW 250100Z 02004MPS CAVOK 10/M03 Q1028 NOSIG
ZGOW,2011-12-25 02:00,ZGOW 250200Z 04004MPS CAVOK 12/M04 Q1028 NOSIG
ZGOW,2011-12-25 03:00,ZGOW 250300Z 03003MPS 350V080 CAVOK 13/M03 Q1027 NOSIG
ZGOW,2011-12-25 04:00,ZGOW 250400Z 03003MPS 310V090 CAVOK 15/M03 Q1026 NOSIG
ZGOW,2011-12-25 05:00,ZGOW 250500Z VRB03MPS CAVOK 15/M03 Q1025 NOSIG
ZGOW,2011-12-25 06:00,ZGOW 250600Z 08003MPS 360V120 CAVOK 16/M02 Q1024 NOSIG
ZGOW,2011-12-25 07:00,ZGOW 250700Z 10003MPS 070V140 CAVOK 17/M02 Q1023 NOSIG
ZGOW,2011-12-25 08:00,ZGOW 250800Z 10003MPS 060V120 CAVOK 17/M01 Q1023 NOSIG
ZGOW,2011-12-25 09:00,ZGOW 250900Z 13003MPS 7000 NSC 16/01 Q1024 NOSIG
ZGOW,2011-12-25 10:00,ZGOW 251000Z 12003MPS 5000 HZ NSC 15/04 Q1024 NOSIG
ZGOW,2011-12-25 11:00,ZGOW 251100Z 11004MPS 6000 NSC 14/05 Q1025 NOSIG
ZGOW,2011-12-25 12:00,ZGOW 251200Z 11003MPS 6000 NSC 14/05 Q1026 NOSIG
ZGOW,2011-12-25 13:00,ZGOW 251300Z 09003MPS 6000 NSC 14/06 Q1026 NOSIG
ZGOW,2011-12-25 14:00,ZGOW 251400Z 08003MPS 7000 NSC 13/05 Q1026 NOSIG
ZGOW,2011-12-25 15:00,ZGOW 251500Z 07003MPS 6000 NSC 13/05 Q1026 NOSIG
ZGOW,2011-12-25 16:00,ZGOW 251600Z 11002MPS 6000 NSC 12/05 Q1026 NOSIG
ZGOW,2011-12-25 17:00,ZGOW 251700Z AUTO 09002MPS 6000 ///////// 13/05 Q1026
ZGOW,2011-12-25 18:00,ZGOW 251800Z AUTO 01001MPS 6000 ///////// 12/06 Q1026
ZGOW,2011-12-25 19:00,ZGOW 251900Z AUTO VRB01MPS 7000 ///////// 12/05 Q1026
ZGOW,2011-12-25 20:00,ZGOW 252000Z AUTO 01001MPS 8000 ///////// 12/04 Q1026
ZGOW,2011-12-25 21:00,ZGOW 252100Z 00000MPS 5000 HZ NSC 11/05 Q1026 NOSIG
ZGOW,2011-12-25 22:00,ZGOW 252200Z 36001MPS 5000 HZ NSC 11/04 Q1026 NOSIG
ZGOW,2011-12-25 23:00,ZGOW 252300Z VRB01MPS 5000 HZ NSC 12/04 Q1026 NOSIG
ZGOW,2011-12-26 00:00,ZGOW 260000Z 03002MPS 7000 NSC 12/03 Q1027 NOSIG
ZGOW,2011-12-26 01:00,ZGOW 260100Z 02002MPS 7000 NSC 13/03 Q1028 NOSIG
ZGOW,2011-12-26 02:00,ZGOW 260200Z 01002MPS CAVOK 13/02 Q1028 NOSIG
ZGOW,2011-12-26 03:00,ZGOW 260300Z VRB01MPS CAVOK 14/04 Q1027 NOSIG
ZGOW,2011-12-26 04:00,ZGOW 260400Z VRB01MPS CAVOK 15/04 Q1027 NOSIG
ZGOW,2011-12-26 05:00,ZGOW 260500Z VRB01MPS CAVOK 16/04 Q1025 NOSIG
ZGOW,2011-12-26 06:00,ZGOW 260600Z 10002MPS 010V120 CAVOK 16/05 Q1025 NOSIG
ZGOW,2011-12-26 07:00,ZGOW 260700Z VRB01MPS CAVOK 17/06 Q1024 NOSIG
ZGOW,2011-12-26 08:00,ZGOW 260800Z 11003MPS 8000 NSC 16/07 Q1024 NOSIG
ZGOW,2011-12-26 09:00,ZGOW 260900Z 10002MPS 7000 NSC 17/08 Q1024 NOSIG
ZGOW,2011-12-26 10:00,ZGOW 261000Z 09002MPS 060V120 6000 NSC 16/09 Q1024 NOSIG
ZGOW,2011-12-26 11:00,ZGOW 261100Z 11003MPS 5000 HZ NSC 16/08 Q1025 NOSIG
ZGOW,2011-12-26 12:00,ZGOW 261200Z 08003MPS 5000 HZ NSC 15/09 Q1025 NOSIG
ZGOW,2011-12-26 13:00,ZGOW 261300Z VRB01MPS 4000 BR NSC 13/09 Q1026 NOSIG
ZGOW,2011-12-26 14:00,ZGOW 261400Z VRB01MPS 4000 BR NSC 12/08 Q1026 NOSIG
ZGOW,2011-12-26 15:00,ZGOW 261500Z VRB01MPS 3500 BR NSC 12/08 Q1026 TEMPO 2500 BR
ZGOW,2011-12-26 16:00,ZGOW 261600Z VRB01MPS 2500 BR NSC 11/08 Q1026 NOSIG
ZGOW,2011-12-26 17:00,ZGOW 261700Z AUTO 01002MPS 3400 BR ///////// 12/08 Q1026
ZGOW,2011-12-26 18:00,ZGOW 261800Z AUTO 01002MPS 350V050 2500 BR ///////// 11/08 Q1026
ZGOW,2011-12-26 19:00,ZGOW 261900Z AUTO 00000MPS 2100 BR NCD 11/08 Q1025
ZGOW,2011-12-26 21:00,ZGOW 262100Z VRB01MPS 2500 BR NSC 09/08 Q1025 TEMPO 1500 BR
ZGOW,2011-12-26 22:00,ZGOW 262200Z 24001MPS 2200 BR NSC 09/08 Q1025 TEMPO 1500 BR
ZGOW,2011-12-26 23:00,ZGOW 262300Z 24001MPS 1800 BR NSC 09/08 Q1025 TEMPO 1300 BR
ZGOW,2011-12-27 00:00,ZGOW 270000Z 00000MPS 1800 BR NSC 11/09 Q1026 NOSIG
ZGOW,2011-12-27 01:00,ZGOW 270100Z VRB01MPS 1800 BR NSC 12/09 Q1027 TEMPO 3200 BR
ZGOW,2011-12-27 02:00,ZGOW 270200Z VRB01MPS 3500 HZ NSC 14/09 Q1027 NOSIG
ZGOW,2011-12-27 03:00,ZGOW 270300Z VRB01MPS 5000 HZ NSC 17/10 Q1026 NOSIG
ZGOW,2011-12-27 04:00,ZGOW 270400Z 08002MPS 040V160 7000 NSC 18/10 Q1025 NOSIG
ZGOW,2011-12-27 05:00,ZGOW 270500Z 06002MPS 330V120 8000 SKC 19/10 Q1023 NOSIG
ZGOW,2011-12-27 06:00,ZGOW 270600Z VRB02MPS CAVOK 20/10 Q1022 NOSIG
ZGOW,2011-12-27 07:00,ZGOW 270700Z 10002MPS 050V160 CAVOK 20/11 Q1022 NOSIG
ZGOW,2011-12-27 08:00,ZGOW 270800Z 13004MPS CAVOK 20/11 Q1021 NOSIG
ZGOW,2011-12-27 09:00,ZGOW 270900Z 11006MPS CAVOK 19/11 Q1022 NOSIG
ZGOW,2011-12-27 10:00,ZGOW 271000Z 12004MPS 6000 NSC 17/11 Q1022 NOSIG
ZGOW,2011-12-27 11:00,ZGOW 271100Z 10002MPS 070V130 6000 SKC 16/11 Q1023 NOSIG
ZGOW,2011-12-27 12:00,ZGOW 271200Z 11003MPS 6000 SKC 16/11 Q1024 NOSIG
ZGOW,2011-12-27 13:00,ZGOW 271300Z 08002MPS 050V120 7000 SKC 15/11 Q1024 NOSIG
ZGOW,2011-12-27 14:00,ZGOW 271400Z VRB01MPS 6000 SKC 14/11 Q1024 NOSIG
ZGOW,2011-12-27 15:00,ZGOW 271500Z 02002MPS 350V060 5000 BR SKC 14/11 Q1024 NOSIG
ZGOW,2011-12-27 16:00,ZGOW 271600Z 32002MPS 3500 BR SKC 13/11 Q1024 NOSIG
ZGOW,2011-12-27 17:00,ZGOW 271700Z AUTO VRB01MPS 2500 BR NCD 13/10 Q1024
ZGOW,2011-12-27 21:00,ZGOW 272100Z 00000MPS 2200 BR SKC 11/10 Q1024 NOSIG
ZGOW,2011-12-27 22:00,ZGOW 272200Z 00000MPS 2000 R04/1300U BR SKC 11/10 Q1024 BECMG 3200 BR
ZGOW,2011-12-27 23:00,ZGOW 272300Z VRB01MPS 1400 R04/1100V1400D BR SKC 10/10 Q1024 BECMG 3200 BR
ZGOW,2011-12-28 00:00,ZGOW 280000Z VRB01MPS 1600 BR SKC 12/11 Q1025 BECMG 3200 BR
ZGOW,2011-12-28 01:00,ZGOW 280100Z 11001MPS 2000 BR SKC 14/11 Q1025 BECMG 3200 BR
ZGOW,2011-12-28 02:00,ZGOW 280200Z VRB01MPS 2500 HZ SKC 16/11 Q1025 BECMG 3200 BR
ZGOW,2011-12-28 03:00,ZGOW 280300Z VRB01MPS 5000 HZ SKC 19/11 Q1024 NOSIG
ZGOW,2011-12-28 04:00,ZGOW 280400Z 11002MPS 060V190 8000 SKC 20/10 Q1023 NOSIG
ZGOW,2011-12-28 05:00,ZGOW 280500Z 12002MPS 060V160 7000 SKC 21/10 Q1022 NOSIG
ZGOW,2011-12-28 06:00,ZGOW 280600Z 12003MPS 8000 SKC 22/11 Q1021 NOSIG
ZGOW,2011-12-28 07:00,ZGOW 280700Z 21004MPS 5000 HZ SKC 21/12 Q1020 NOSIG
ZGOW,2011-12-28 08:00,ZGOW 280800Z 13005MPS 100V170 5000 HZ SKC 20/13 Q1020 NOSIG
ZGOW,2011-12-28 09:00,ZGOW 280900Z 10005MPS 070V140 5000 HZ SKC 18/13 Q1021 NOSIG
ZGOW,2011-12-28 10:00,ZGOW 281000Z 10005MPS 5000 HZ SKC 17/12 Q1021 NOSIG
ZGOW,2011-12-28 11:00,ZGOW 281100Z 11004MPS 7000 SKC 16/13 Q1021 NOSIG
ZGOW,2011-12-28 12:00,ZGOW 281200Z 10003MPS 7000 SKC 16/13 Q1022 NOSIG
ZGOW,2011-12-28 13:00,ZGOW 281300Z 11002MPS 7000 SKC 15/13 Q1022 NOSIG
ZGOW,2011-12-28 14:00,ZGOW 281400Z 11002MPS 7000 SKC 15/13 Q1022 NOSIG
ZGOW,2011-12-28 15:00,ZGOW 281500Z 36001MPS 5000 BR SKC 14/12 Q1022 NOSIG
ZGOW,2011-12-28 16:00,ZGOW 281600Z VRB01MPS 4000 BR SKC 13/12 Q1021 TEMPO 2100 BR
ZGOW,2011-12-28 17:00,ZGOW 281700Z VRB01MPS 4000 BR SKC 13/12 Q1021 TEMPO 2100 BR
ZGOW,2011-12-28 18:00,ZGOW 281800Z AUTO 00000MPS 1900 BR ///////// 13/12 Q1021
ZGOW,2011-12-28 19:00,ZGOW 281900Z AUTO VRB01MPS 2000 BR ///////// 13/12 Q1021
ZGOW,2011-12-28 20:00,ZGOW 282000Z AUTO 00000MPS 1900 BR ///////// 13/12 Q1021
ZGOW,2011-12-28 21:00,ZGOW 282100Z VRB01MPS 2500 BR SKC 12/12 Q1021 NOSIG
ZGOW,2011-12-28 22:00,ZGOW 282200Z 00000MPS 2500 BR SKC 13/12 Q1021 TEMPO 1400 BR
ZGOW,2011-12-28 23:00,ZGOW 282300Z 00000MPS 1400 R04/1600D BR NSC 12/11 Q1022 NOSIG
ZGOW,2011-12-29 00:00,ZGOW 290000Z VRB01MPS 1000 R04/1000V1200N BR NSC 13/12 Q1023 BECMG 2000 BR
ZGOW,2011-12-29 01:00,ZGOW 290100Z VRB01MPS 1200 R04/1200V1400U BR NSC 15/13 Q1023 BECMG 2000 BR
ZGOW,2011-12-29 02:00,ZGOW 290200Z VRB01MPS 1800 BR NSC 17/13 Q1024 BECMG 3200 BR
ZGOW,2011-12-29 03:00,ZGOW 290300Z 08002MPS 030V160 4500 HZ SKC 18/13 Q1023 NOSIG
ZGOW,2011-12-29 04:00,ZGOW 290400Z 06002MPS 020V130 6000 NSC 19/13 Q1022 NOSIG
ZGOW,2011-12-29 05:00,ZGOW 290500Z VRB02MPS 8000 NSC 20/12 Q1020 NOSIG
ZGOW,2011-12-29 06:00,ZGOW 290600Z 09003MPS 040V130 CAVOK 21/12 Q1019 NOSIG
ZGOW,2011-12-29 07:00,ZGOW 290700Z 07003MPS 010V120 CAVOK 22/12 Q1018 NOSIG
ZGOW,2011-12-29 08:00,ZGOW 290800Z 14002MPS 090V170 CAVOK 22/13 Q1018 NOSIG
ZGOW,2011-12-29 09:00,ZGOW 290900Z 12005MPS CAVOK 20/13 Q1019 NOSIG
ZGOW,2011-12-29 10:00,ZGOW 291000Z 13005MPS CAVOK 18/12 Q1020 NOSIG
ZGOW,2011-12-29 11:00,ZGOW 291100Z 12005MPS CAVOK 17/12 Q1021 NOSIG
ZGOW,2011-12-29 12:00,ZGOW 291200Z 12005MPS 8000 NSC 17/12 Q1021 NOSIG
ZGOW,2011-12-29 13:00,ZGOW 291300Z 12003MPS 8000 BKN040 17/12 Q1022 NOSIG
ZGOW,2011-12-29 14:00,ZGOW 291400Z 10004MPS 9999 BKN040 17/12 Q1022 NOSIG
ZGOW,2011-12-29 15:00,ZGOW 291500Z 09002MPS 060V120 8000 BKN033 17/12 Q1022 NOSIG
ZGOW,2011-12-29 16:00,ZGOW 291600Z 05002MPS 020V090 8000 SCT040 17/12 Q1022 NOSIG
ZGOW,2011-12-29 17:00,ZGOW 291700Z VRB01MPS 7000 BKN033 16/12 Q1023 NOSIG
ZGOW,2011-12-29 19:00,ZGOW 291900Z AUTO 06002MPS 020V080 6000 ///////// 17/12 Q1022
ZGOW,2011-12-29 20:00,ZGOW 292000Z AUTO 00000MPS 6000 ///////// 16/12 Q1022
ZGOW,2011-12-29 21:00,ZGOW 292100Z 11001MPS 4000 BR SCT030 16/12 Q1023 NOSIG
ZGOW,2011-12-29 22:00,ZGOW 292200Z 10001MPS 4000 BR SCT030 16/12 Q1023 NOSIG
ZGOW,2011-12-29 23:00,ZGOW 292300Z 08002MPS 3200 BR SCT020 BKN033 16/12 Q1024 TEMPO 2500 BR
ZGOW,2011-12-30 00:00,ZGOW 300000Z 02004MPS 4000 -RA BR SCT014 OVC033 16/13 Q1025 NOSIG
ZGOW,2011-12-30 01:00,ZGOW 300100Z 03003MPS 4000 -RA BR SCT017 OVC033 15/13 Q1026 NOSIG
ZGOW,2011-12-30 02:00,ZGOW 300200Z 07003MPS 4000 -RA BR SCT020 OVC033 15/13 Q1025 NOSIG
ZGOW,2011-12-30 03:00,ZGOW 300300Z VRB01MPS 5000 BR SCT015 OVC033 16/13 Q1025 NOSIG
ZGOW,2011-12-30 04:00,ZGOW 300400Z VRB01MPS 5000 BR SCT015 OVC033 16/13 Q1024 NOSIG
ZGOW,2011-12-30 05:00,ZGOW 300500Z 05002MPS 020V080 5000 BR SCT014 OVC033 16/13 Q1023 NOSIG
ZGOW,2011-12-30 06:00,ZGOW 300600Z 08004MPS 8000 FEW014 OVC033 16/12 Q1023 NOSIG
ZGOW,2011-12-30 07:00,ZGOW 300700Z 05002MPS 360V080 8000 -RA SCT014 OVC033 16/12 Q1022 NOSIG
ZGOW,2011-12-30 08:00,ZGOW 300800Z 06004MPS 020V100 6000 -RA SCT014 OVC033 16/12 Q1023 NOSIG
ZGOW,2011-12-30 09:00,ZGOW 300900Z 02003MPS 6000 -RA SCT014 OVC033 16/13 Q1023 NOSIG
ZGOW,2011-12-30 10:00,ZGOW 301000Z 02003MPS 4000 BR SCT014 OVC033 15/13 Q1024 NOSIG
ZGOW,2011-12-30 11:00,ZGOW 301100Z 03003MPS 5000 BR SCT020 OVC033 15/13 Q1024 NOSIG
ZGOW,2011-12-30 12:00,ZGOW 301200Z 36001MPS 5000 BR SCT020 OVC033 15/13 Q1024 NOSIG
ZGOW,2011-12-30 13:00,ZGOW 301300Z 02002MPS 7000 SCT033 OVC053 15/13 Q1024 NOSIG
ZGOW,2011-12-30 14:00,ZGOW 301400Z 36002MPS 7000 SCT033 OVC060 15/12 Q1025 NOSIG
ZGOW,2011-12-30 15:00,ZGOW 301500Z 00000MPS 7000 SCT026 OVC060 15/13 Q1024 NOSIG
ZGOW,2011-12-30 16:00,ZGOW 301600Z 35002MPS 6000 NSC 21/19 Q1016 NOSIG
ZGOW,2011-12-30 17:00,ZGOW 301700Z AUTO VRB01MPS 7000 ///////// 15/12 Q1025
ZGOW,2011-12-30 18:00,ZGOW 301800Z AUTO 01001MPS 6000 ///////// 14/12 Q1025
ZGOW,2011-12-30 20:00,ZGOW 302000Z AUTO 00000MPS 4300 ///////// 14/12 Q1024
ZGOW,2011-12-30 21:00,ZGOW 302100Z 34003MPS 6000 SCT050 18/14 Q1016 NOSIG
ZGOW,2011-12-30 22:00,ZGOW 302200Z 34003MPS 7000 BKN028 18/14 Q1016 NOSIG
ZGOW,2011-12-30 23:00,ZGOW 302300Z 35003MPS 7000 BKN025 18/13 Q1017 NOSIG
