station,valid,metar
ZGOW,2010-01-01 00:00,ZGOW 010000Z AUTO 04002KT 9SM 12/04 A3015 RMK SLP214 T01240044 52015 IEM_DS3505
ZGOW,2010-01-01 01:00,ZGOW 010100Z AUTO 05006KT 4SM 13/08 A3015 RMK T01300080 IEM_DS3505
ZGOW,2010-01-01 02:00,ZGOW 010200Z AUTO 05008KT 4SM 14/08 A3015 RMK T01400080 IEM_DS3505
ZGOW,2010-01-01 03:00,ZGOW 010300Z AUTO 07002KT 9SM 14/04 A3015 RMK SLP210 T01410038 57004 IEM_DS3505
ZGOW,2010-01-01 04:00,ZGOW 010400Z AUTO 06006KT 4SM 14/08 A3015 RMK T01400080 IEM_DS3505
ZGOW,2010-01-01 05:00,ZGOW 010500Z AUTO 03006KT 4SM 14/07 A3012 RMK T01400070 IEM_DS3505
ZGOW,2010-01-01 06:00,ZGOW 010600Z AUTO 07004KT 6SM 14/07 A3009 RMK SLP186 T01350066 57024 IEM_DS3505
ZGOW,2010-01-01 07:00,ZGOW 010700Z AUTO 08004KT 3SM 14/10 A3006 RMK T01400100 IEM_DS3505
ZGOW,2010-01-01 08:00,ZGOW 010800Z AUTO 07006KT 2 1/2SM 14/10 A3006 RMK T01400100 IEM_DS3505
ZGOW,2010-01-01 09:00,ZGOW 010900Z AUTO 07004KT 6SM 14/06 A3006 RMK SLP176 T01440065 57010 IEM_DS3505
ZGOW,2010-01-01 10:00,ZGOW 011000Z AUTO 06006KT 3SM 14/10 A3006 RMK T01400100 IEM_DS3505
ZGOW,2010-01-01 11:00,ZGOW 011100Z AUTO 07002KT 4SM 14/11 A3009 RMK T01400110 IEM_DS3505
ZGOW,2010-01-01 12:00,ZGOW 011200Z AUTO 09004KT 6SM 14/08 A3009 RMK 60000 SLP192 T01420075 52016 IEM_DS3505
ZGOW,2010-01-01 13:00,ZGOW 011300Z AUTO 04004KT 4SM 14/11 A3012 RMK T01400110 IEM_DS3505
ZGOW,2010-01-01 14:00,ZGOW 011400Z AUTO 02004KT 4SM 14/11 A3012 RMK T01400110 IEM_DS3505
ZGOW,2010-01-01 15:00,ZGOW 011500Z AUTO 00000KT 6SM 14/09 RMK SLP201 T01400088 52009 IEM_DS3505
ZGOW,2010-01-01 17:00,ZGOW 011700Z AUTO 00000KT 1 1/2SM 13/12 A3006 RMK T01300120 IEM_DS3505
ZGOW,2010-01-01 18:00,ZGOW 011800Z AUTO 00000KT 6SM 14/10 A3003 RMK SLP171 T01380096 57030 IEM_DS3505
ZGOW,2010-01-01 19:00,ZGOW 011900Z AUTO 32004KT 1 1/2SM 13/12 A3003 RMK T01300120 IEM_DS3505
ZGOW,2010-01-01 20:00,ZGOW 012000Z AUTO 33004KT 1 1/4SM 14/12 A3003 RMK T01400120 IEM_DS3505
ZGOW,2010-01-01 21:00,ZGOW 012100Z AUTO 00000KT 4SM 14/11 A3000 RMK 70000 SLP163 T01380110 57008 IEM_DS3505
ZGOW,2010-01-01 22:00,ZGOW 012200Z AUTO 34002KT 2 1/2SM 14/13 A3003 RMK T01400130 IEM_DS3505
ZGOW,2010-01-01 23:00,ZGOW 012300Z AUTO 31004KT 1 1/2SM 14/13 A3006 RMK T01400130 IEM_DS3505
ZGOW,2010-01-02 00:00,ZGOW 020000Z AUTO 00000KT 2 1/2SM 14/12 A3006 RMK 70000 SLP178 T01420119 52015 IEM_DS3505
ZGOW,2010-01-02 01:00,ZGOW 020100Z AUTO 31002KT 1 1/4SM 15/14 A3006 RMK T01500140 IEM_DS3505
ZGOW,2010-01-02 02:00,ZGOW 020200Z AUTO 12002KT 1 1/4SM 15/14 A3006 RMK T01500140 IEM_DS3505
ZGOW,2010-01-02 03:00,ZGOW 020300Z AUTO 09002KT 3SM 16/13 A3006 RMK SLP173 T01640126 57005 IEM_DS3505
ZGOW,2010-01-02 04:00,ZGOW 020400Z AUTO 04004KT 2SM 17/14 A3003 RMK T01700140 IEM_DS3505
ZGOW,2010-01-02 05:00,ZGOW 020500Z AUTO 02002KT 2SM 17/14 A3000 RMK T01700140 IEM_DS3505
ZGOW,2010-01-02 06:00,ZGOW 020600Z AUTO 09002KT 4SM 18/13 A2997 RMK 60000 SLP151 T01760133 57022 IEM_DS3505
ZGOW,2010-01-02 07:00,ZGOW 020700Z AUTO 35004KT 1 1/4SM 16/16 A2997 RMK T01600160 IEM_DS3505
ZGOW,2010-01-02 08:00,ZGOW 020800Z AUTO 34004KT 1 1/4SM 16/16 A3000 RMK T01600160 IEM_DS3505
ZGOW,2010-01-02 09:00,ZGOW 020900Z AUTO 14002KT 4SM 16/14 A3000 RMK SLP161 T01600145 52010 IEM_DS3505
ZGOW,2010-01-02 10:00,ZGOW 021000Z AUTO 36004KT 2 1/2SM 15/15 A3003 RMK T01500150 IEM_DS3505
ZGOW,2010-01-02 11:00,ZGOW 021100Z AUTO 36002KT 2 1/2SM 16/16 A3003 RMK T01600160 IEM_DS3505
ZGOW,2010-01-02 12:00,ZGOW 021200Z AUTO 00000KT 3SM 16/15 A3006 RMK 60008 SLP181 T01560148 52020 IEM_DS3505
ZGOW,2010-01-02 13:00,ZGOW 021300Z AUTO 36004KT 2 1/2SM 15/ A3009 RMK IEM_DS3505
ZGOW,2010-01-02 14:00,ZGOW 021400Z AUTO 35002KT 2 1/2SM 15/15 A3009 RMK T01500150 IEM_DS3505
ZGOW,2010-01-02 15:00,ZGOW 021500Z AUTO 07002KT 1 1/4SM 15/15 A3009 RMK SLP182 T01520146 52001 IEM_DS3505
ZGOW,2010-01-02 16:00,ZGOW 021600Z AUTO 06006KT 2SM 15/15 A3006 RMK T01500150 IEM_DS3505
ZGOW,2010-01-02 18:00,ZGOW 021800Z AUTO 36002KT 2 1/2SM 15/14 A3006 RMK 60051 SLP176 T01500144 57006 IEM_DS3505
ZGOW,2010-01-02 19:00,ZGOW 021900Z AUTO 04008KT 3SM 14/ A3006 RMK IEM_DS3505
ZGOW,2010-01-02 20:00,ZGOW 022000Z AUTO 07006KT 4SM 14/14 A3006 RMK T01400140 IEM_DS3505
ZGOW,2010-01-02 21:00,ZGOW 022100Z AUTO 09004KT 4SM 14/13 A3006 RMK 70067 SLP179 T01440134 52003 IEM_DS3505
ZGOW,2010-01-02 22:00,ZGOW 022200Z AUTO 06008KT 7SM 14/14 A3006 RMK T01400140 IEM_DS3505
ZGOW,2010-01-02 23:00,ZGOW 022300Z AUTO 04004KT 7SM 14/14 A3009 RMK T01400140 IEM_DS3505
ZGOW,2010-01-03 00:00,ZGOW 030000Z AUTO 07002KT 5SM 15/14 A3009 RMK 60008 70067 SLP189 T01480137 52010 IEM_DS3505
ZGOW,2010-01-03 01:00,ZGOW 030100Z AUTO 09002KT 4SM 15/15 A3012 RMK T01500150 IEM_DS3505
ZGOW,2010-01-03 02:00,ZGOW 030200Z AUTO 08006KT 7SM 16/16 A3012 RMK T01600160 IEM_DS3505
ZGOW,2010-01-03 03:00,ZGOW 030300Z AUTO 09002KT 7SM 17/14 A3009 RMK SLP192 T01700139 52003 IEM_DS3505
ZGOW,2010-01-03 04:00,ZGOW 030400Z AUTO 07008KT 7SM 18/14 A3006 RMK T01800140 IEM_DS3505
ZGOW,2010-01-03 05:00,ZGOW 030500Z AUTO 08008KT 6SM 19/14 A3003 RMK T01900140 IEM_DS3505
ZGOW,2010-01-03 06:00,ZGOW 030600Z AUTO 07006KT 7SM 19/12 A3003 RMK SLP164 T01890119 57028 IEM_DS3505
ZGOW,2010-01-03 07:00,ZGOW 030700Z AUTO 08008KT 6SM 19/13 A3000 RMK T01900130 IEM_DS3505
ZGOW,2010-01-03 08:00,ZGOW 030800Z AUTO 12006KT 6SM 18/14 A3003 RMK T01800140 IEM_DS3505
ZGOW,2010-01-03 09:00,ZGOW 030900Z AUTO 11004KT 6SM 17/12 A3003 RMK SLP166 T01710118 52002 IEM_DS3505
ZGOW,2010-01-03 10:00,ZGOW 031000Z AUTO 10004KT 4SM 16/14 A3003 RMK T01600140 IEM_DS3505
ZGOW,2010-01-03 11:00,ZGOW 031100Z AUTO 08004KT 4SM 14/13 A3006 RMK T01400130 IEM_DS3505
ZGOW,2010-01-03 12:00,ZGOW 031200Z AUTO 09004KT 6SM 16/13 A3006 RMK SLP180 T01590126 52014 IEM_DS3505
ZGOW,2010-01-03 13:00,ZGOW 031300Z AUTO 08004KT 4SM 14/13 A3006 RMK T01400130 IEM_DS3505
ZGOW,2010-01-03 14:00,ZGOW 031400Z AUTO 05004KT 2 1/2SM 14/14 A3006 RMK T01400140 IEM_DS3505
ZGOW,2010-01-03 15:00,ZGOW 031500Z AUTO 04002KT 5SM 15/13 A3006 RMK SLP180 T01470126 54000 IEM_DS3505
ZGOW,2010-01-03 16:00,ZGOW 031600Z AUTO 06008KT 1 1/4SM 14/13 A3006 RMK T01400130 IEM_DS3505
ZGOW,2010-01-03 17:00,ZGOW 031700Z AUTO 05006KT 1 1/4SM 13/12 A3006 RMK T01300120 IEM_DS3505
ZGOW,2010-01-03 18:00,ZGOW 031800Z AUTO 00000KT 2 1/2SM 14/12 A3003 RMK SLP172 T01350121 57008 IEM_DS3505
ZGOW,2010-01-03 19:00,ZGOW 031900Z AUTO 04004KT 1SM 12/12 A3003 RMK T01200120 IEM_DS3505
ZGOW,2010-01-03 21:00,ZGOW 032100Z AUTO 00000KT 1 1/4SM 14/12 A3003 RMK 70000 SLP170 T01360118 57002 IEM_DS3505
ZGOW,2010-01-03 22:00,ZGOW 032200Z AUTO 35002KT 1SM 12/12 A3003 RMK T01200120 IEM_DS3505
ZGOW,2010-01-03 23:00,ZGOW 032300Z AUTO 32002KT 1SM 12/12 A3006 RMK T01200120 IEM_DS3505
ZGOW,2010-01-04 00:00,ZGOW 040000Z AUTO 09002KT 3SM 13/12 A3006 RMK SLP178 T01320119 52008 IEM_DS3505
ZGOW,2010-01-04 01:00,ZGOW 040100Z AUTO 02004KT 1 1/2SM 14/14 A3006 RMK T01400140 IEM_DS3505
ZGOW,2010-01-04 02:00,ZGOW 040200Z AUTO 04002KT 2SM 16/13 A3006 RMK T01600130 IEM_DS3505
ZGOW,2010-01-04 03:00,ZGOW 040300Z AUTO 07004KT 5SM 18/12 A3003 RMK SLP170 T01790117 57008 IEM_DS3505
ZGOW,2010-01-04 04:00,ZGOW 040400Z AUTO 07004KT 2 1/2SM 19/13 A3000 RMK T01900130 IEM_DS3505
ZGOW,2010-01-04 05:00,ZGOW 040500Z AUTO 08004KT 3SM 20/14 A2997 RMK T02000140 IEM_DS3505
ZGOW,2010-01-04 06:00,ZGOW 040600Z AUTO 14004KT 4SM 20/12 A2994 RMK SLP139 T01980116 57031 IEM_DS3505
ZGOW,2010-01-04 07:00,ZGOW 040700Z AUTO 13006KT 4SM 19/14 A2994 RMK T01900140 IEM_DS3505
ZGOW,2010-01-04 08:00,ZGOW 040800Z AUTO 13008KT 4SM 18/13 A2994 RMK T01800130 IEM_DS3505
ZGOW,2010-01-04 09:00,ZGOW 040900Z AUTO 14004KT 4SM 17/12 A2994 RMK SLP138 T01730122 57001 IEM_DS3505
ZGOW,2010-01-04 10:00,ZGOW 041000Z AUTO 14004KT 1 1/2SM 16/15 A2997 RMK T01600150 IEM_DS3505
ZGOW,2010-01-04 11:00,ZGOW 041100Z AUTO 09002KT 1 1/4SM 15/15 A2997 RMK T01500150 IEM_DS3505
ZGOW,2010-01-04 12:00,ZGOW 041200Z AUTO 07002KT 4SM 17/14 A3000 RMK SLP161 T01670143 52023 IEM_DS3505
ZGOW,2010-01-04 13:00,ZGOW 041300Z AUTO 07004KT 1 1/4SM 15/14 A3003 RMK T01500140 IEM_DS3505
ZGOW,2010-01-04 14:00,ZGOW 041400Z AUTO 04006KT 1SM 14/14 A3003 RMK T01400140 IEM_DS3505
ZGOW,2010-01-04 15:00,ZGOW 041500Z AUTO 09002KT 4SM 16/14 A3000 RMK SLP164 T01550135 52003 IEM_DS3505
ZGOW,2010-01-04 16:00,ZGOW 041600Z AUTO 05006KT 1 1/4SM 13/13 A3003 RMK T01300130 IEM_DS3505
ZGOW,2010-01-04 17:00,ZGOW 041700Z AUTO 02004KT 1 1/2SM 14/14 A3003 RMK T01400140 IEM_DS3505
ZGOW,2010-01-04 18:00,ZGOW 041800Z AUTO 00000KT 2 1/2SM 15/13 A3003 RMK SLP170 T01520132 52006 IEM_DS3505
ZGOW,2010-01-04 19:00,ZGOW 041900Z AUTO 08004KT 2SM 15/14 A3003 RMK T01500140 IEM_DS3505
ZGOW,2010-01-04 20:00,ZGOW 042000Z AUTO 08002KT 1 1/2SM 14/14 A3003 RMK T01400140 IEM_DS3505
ZGOW,2010-01-04 21:00,ZGOW 042100Z AUTO 07004KT 5SM 15/12 A3003 RMK SLP172 T01530122 52002 IEM_DS3505
ZGOW,2010-01-04 22:00,ZGOW 042200Z AUTO 08012KT 4SM 15/13 A3003 RMK T01500130 IEM_DS3505
ZGOW,2010-01-04 23:00,ZGOW 042300Z AUTO 08014KT 2 1/2SM 15/12 A3003 RMK T01500120 IEM_DS3505
ZGOW,2010-01-05 00:00,ZGOW 050000Z AUTO 07004KT 5SM 16/12 A3009 RMK SLP189 T01560116 52017 IEM_DS3505
ZGOW,2010-01-05 01:00,ZGOW 050100Z AUTO 07014KT 3SM 17/14 A3009 RMK T01700140 IEM_DS3505
ZGOW,2010-01-05 02:00,ZGOW 050200Z AUTO 08012KT 2 1/2SM 17/14 A3012 RMK T01700140 IEM_DS3505
ZGOW,2010-01-05 03:00,ZGOW 050300Z AUTO 07008KT 4SM 17/12 A3012 RMK SLP194 T01660117 52005 IEM_DS3505
ZGOW,2010-01-05 04:00,ZGOW 050400Z AUTO 07017KT 2 1/2SM 17/13 A3009 RMK T01700130 IEM_DS3505
ZGOW,2010-01-05 05:00,ZGOW 050500Z AUTO 08016KT 2 1/2SM 16/13 A3006 RMK T01600130 IEM_DS3505
ZGOW,2010-01-05 06:00,ZGOW 050600Z AUTO 04008KT 5SM 16/11 A3003 RMK SLP171 T01620109 57023 IEM_DS3505
ZGOW,2010-01-05 07:00,ZGOW 050700Z AUTO 08016KT 2 1/2SM 15/12 A3003 RMK T01500120 IEM_DS3505
ZGOW,2010-01-05 08:00,ZGOW 050800Z AUTO 08016G25KT 2 1/2SM 15/12 A3003 RMK T01500120 IEM_DS3505
ZGOW,2010-01-05 09:00,ZGOW 050900Z AUTO 09006G23KT 4SM 15/10 A3003 RMK SLP168 T01530105 57003 IEM_DS3505
ZGOW,2010-01-05 10:00,ZGOW 051000Z AUTO 07017G27KT 2 1/2SM 14/12 A3003 RMK T01400120 IEM_DS3505
ZGOW,2010-01-05 11:00,ZGOW 051100Z AUTO 08017KT 2 1/2SM 14/12 A3003 RMK T01400120 IEM_DS3505
ZGOW,2010-01-05 12:00,ZGOW 051200Z AUTO 07008G27KT 4SM 14/10 A3006 RMK SLP178 T01400102 52010 IEM_DS3505
ZGOW,2010-01-05 13:00,ZGOW 051300Z AUTO 08019G29KT 2 1/2SM 13/11 A3006 RMK T01300110 IEM_DS3505
ZGOW,2010-01-05 14:00,ZGOW 051400Z AUTO 07017G27KT 3SM 13/11 A3009 RMK T01300110 IEM_DS3505
ZGOW,2010-01-05 15:00,ZGOW 051500Z AUTO 09008G29KT 4SM 13/10 A3006 RMK SLP185 T01310097 52007 IEM_DS3505
ZGOW,2010-01-05 16:00,ZGOW 051600Z AUTO 07016G25KT 3SM 12/11 A3006 RMK T01200110 IEM_DS3505
ZGOW,2010-01-05 17:00,ZGOW 051700Z AUTO 07014G23KT 3SM 13/11 A3006 RMK T01300110 IEM_DS3505
ZGOW,2010-01-05 18:00,ZGOW 051800Z AUTO 07008KT 4SM 13/10 A3009 RMK SLP186 T01270095 52001 IEM_DS3505
ZGOW,2010-01-05 19:00,ZGOW 051900Z AUTO 06012KT 2 1/2SM 12/11 A3009 RMK T01200110 IEM_DS3505
ZGOW,2010-01-05 20:00,ZGOW 052000Z AUTO 05008KT 1 1/4SM 11/11 A3009 RMK T01100110 IEM_DS3505
ZGOW,2010-01-05 21:00,ZGOW 052100Z AUTO 00000KT 2 1/2SM 12/11 A3009 RMK 70011 SLP192 T01170106 52006 IEM_DS3505
ZGOW,2010-01-05 22:00,ZGOW 052200Z AUTO 06008KT 2 1/2SM 12/12 A3009 RMK T01200120 IEM_DS3505
ZGOW,2010-01-05 23:00,ZGOW 052300Z AUTO 05008KT 2 1/2SM 12/12 A3012 RMK T01200120 IEM_DS3505
ZGOW,2010-01-06 00:00,ZGOW 060000Z AUTO 04002KT 4SM 12/11 A3015 RMK 60020 70019 SLP207 T01200109 52015 IEM_DS3505
ZGOW,2010-01-06 01:00,ZGOW 060100Z AUTO 05004KT 1 1/2SM 12/12 A3015 RMK T01200120 IEM_DS3505
ZGOW,2010-01-06 02:00,ZGOW 060200Z AUTO 07008KT 3SM 13/13 A3018 RMK T01300130 IEM_DS3505
ZGOW,2010-01-06 03:00,ZGOW 060300Z AUTO 07008KT 7SM 13/11 A3015 RMK SLP214 T01270109 52007 IEM_DS3505
ZGOW,2010-01-06 04:00,ZGOW 060400Z AUTO 03004KT 4SM 13/13 A3015 RMK T01300130 IEM_DS3505
ZGOW,2010-01-06 05:00,ZGOW 060500Z AUTO 07006KT 7SM 14/13 A3012 RMK T01400130 IEM_DS3505
ZGOW,2010-01-06 06:00,ZGOW 060600Z AUTO 07006KT 9SM 14/12 A3012 RMK 60012 SLP195 T01390118 57019 IEM_DS3505
ZGOW,2010-01-06 07:00,ZGOW 060700Z AUTO 07012KT 7SM 13/13 A3012 RMK T01300130 IEM_DS3505
ZGOW,2010-01-06 08:00,ZGOW 060800Z AUTO 07014KT 4SM 13/12 A3012 RMK T01300120 IEM_DS3505
ZGOW,2010-01-06 09:00,ZGOW 060900Z AUTO 07008KT 7SM 13/11 A3012 RMK SLP202 T01320109 52007 IEM_DS3505
ZGOW,2010-01-06 10:00,ZGOW 061000Z AUTO 06012KT 4SM 13/12 A3015 RMK T01300120 IEM_DS3505
ZGOW,2010-01-06 11:00,ZGOW 061100Z AUTO 07010KT 4SM 13/12 A3015 RMK T01300120 IEM_DS3505
ZGOW,2010-01-06 12:00,ZGOW 061200Z AUTO 07008KT 7SM 13/10 A3018 RMK 60000 SLP217 T01310105 52015 IEM_DS3505
ZGOW,2010-01-06 13:00,ZGOW 061300Z AUTO 07014KT 4SM 13/12 A3018 RMK T01300120 IEM_DS3505
ZGOW,2010-01-06 14:00,ZGOW 061400Z AUTO 06012KT 4SM 13/11 A3021 RMK T01300110 IEM_DS3505
ZGOW,2010-01-06 15:00,ZGOW 061500Z AUTO 07006KT 6SM 13/10 A3018 RMK SLP223 T01270097 52006 IEM_DS3505
ZGOW,2010-01-06 16:00,ZGOW 061600Z AUTO 02006KT 4SM 12/11 A3018 RMK T01200110 IEM_DS3505
ZGOW,2010-01-06 17:00,ZGOW 061700Z AUTO 04004KT 3SM 12/12 A3018 RMK T01200120 IEM_DS3505
ZGOW,2010-01-06 18:00,ZGOW 061800Z AUTO 00000KT 7SM 12/10 A3018 RMK SLP222 T01210098 57001 IEM_DS3505
ZGOW,2010-01-06 19:00,ZGOW 061900Z AUTO 33004KT 7SM 12/11 A3021 RMK T01200110 IEM_DS3505
ZGOW,2010-01-06 20:00,ZGOW 062000Z AUTO 33006KT 7SM 11/11 A3021 RMK T01100110 IEM_DS3505
ZGOW,2010-01-06 21:00,ZGOW 062100Z AUTO 20002KT 7SM 12/09 A3021 RMK 70019 SLP226 T01150089 52004 IEM_DS3505
ZGOW,2010-01-06 22:00,ZGOW 062200Z AUTO 33006KT 7SM 11/10 A3021 RMK T01100100 IEM_DS3505
ZGOW,2010-01-06 23:00,ZGOW 062300Z AUTO 33006KT 4SM 11/10 A3021 RMK T01100100 IEM_DS3505
ZGOW,2010-01-07 00:00,ZGOW 070000Z AUTO 09002KT 7SM 11/09 A3024 RMK 70011 SLP236 T01120089 52010 IEM_DS3505
ZGOW,2010-01-07 01:00,ZGOW 070100Z AUTO 33006KT 7SM 11/10 A3024 RMK T01100100 IEM_DS3505
ZGOW,2010-01-07 02:00,ZGOW 070200Z AUTO 32006KT 7SM 12/10 A3024 RMK T01200100 IEM_DS3505
ZGOW,2010-01-07 03:00,ZGOW 070300Z AUTO 27002KT 10SM 13/09 A3024 RMK SLP242 T01300091 52006 IEM_DS3505
ZGOW,2010-01-07 04:00,ZGOW 070400Z AUTO 35004KT 7SM 13/11 A3021 RMK T01300110 IEM_DS3505
ZGOW,2010-01-07 05:00,ZGOW 070500Z AUTO 03004KT 7SM 14/12 A3018 RMK T01400120 IEM_DS3505
ZGOW,2010-01-07 06:00,ZGOW 070600Z AUTO 04002KT 9SM 14/10 A3015 RMK SLP206 T01380100 57036 IEM_DS3505
ZGOW,2010-01-07 07:00,ZGOW 070700Z AUTO 08010KT 7SM 14/12 A3015 RMK T01400120 IEM_DS3505
ZGOW,2010-01-07 08:00,ZGOW 070800Z AUTO 07010KT 7SM 14/11 A3015 RMK T01400110 IEM_DS3505
ZGOW,2010-01-07 09:00,ZGOW 070900Z AUTO 07006KT 7SM 13/10 A3015 RMK SLP209 T01330103 52003 IEM_DS3505
ZGOW,2010-01-07 10:00,ZGOW 071000Z AUTO 08010KT 3SM 13/12 A3015 RMK T01300120 IEM_DS3505
ZGOW,2010-01-07 11:00,ZGOW 071100Z AUTO 07010KT 5SM 13/11 A3018 RMK T01300110 IEM_DS3505
ZGOW,2010-01-07 12:00,ZGOW 071200Z AUTO 04006KT 6SM 13/10 A3018 RMK 60000 SLP223 T01290101 52014 IEM_DS3505
ZGOW,2010-01-07 13:00,ZGOW 071300Z AUTO 06010KT 3SM 12/11 A3021 RMK T01200110 IEM_DS3505
ZGOW,2010-01-07 14:00,ZGOW 071400Z AUTO 04010KT 3SM 12/11 A3021 RMK T01200110 IEM_DS3505
ZGOW,2010-01-07 15:00,ZGOW 071500Z AUTO 00000KT 4SM 12/11 A3021 RMK SLP229 T01170106 52006 IEM_DS3505
ZGOW,2010-01-07 16:00,ZGOW 071600Z AUTO 02006KT 2 1/2SM 11/11 A3021 RMK T01100110 IEM_DS3505
ZGOW,2010-01-07 17:00,ZGOW 071700Z AUTO 02006KT 3SM 11/11 A3018 RMK T01100110 IEM_DS3505
ZGOW,2010-01-07 18:00,ZGOW 071800Z AUTO 00000KT 4SM 11/10 A3018 RMK 60020 SLP217 T01090101 57012 IEM_DS3505
ZGOW,2010-01-07 19:00,ZGOW 071900Z AUTO 34004KT 4SM 11/11 A3018 RMK T01100110 IEM_DS3505
ZGOW,2010-01-07 20:00,ZGOW 072000Z AUTO 34004KT 6SM 11/11 A3015 RMK T01100110 IEM_DS3505
ZGOW,2010-01-07 21:00,ZGOW 072100Z AUTO 04002KT 7SM 11/10 A3015 RMK 70022 SLP211 T01080096 57006 IEM_DS3505
ZGOW,2010-01-07 22:00,ZGOW 072200Z AUTO 34006KT 4SM 11/10 A3018 RMK T01100100 IEM_DS3505
ZGOW,2010-01-07 23:00,ZGOW 072300Z AUTO 33004KT 7SM 11/10 A3018 RMK T01100100 IEM_DS3505
ZGOW,2010-01-08 00:00,ZGOW 080000Z AUTO 16002KT 9SM 11/09 A3021 RMK 60000 70022 SLP226 T01110092 52015 IEM_DS3505
ZGOW,2010-01-08 01:00,ZGOW 080100Z AUTO 34006KT 7SM 11/11 A3024 RMK T01100110 IEM_DS3505
ZGOW,2010-01-08 02:00,ZGOW 080200Z AUTO 34006KT 7SM 11/11 A3024 RMK T01100110 IEM_DS3505
ZGOW,2010-01-08 03:00,ZGOW 080300Z AUTO 36002KT 9SM 12/09 A3024 RMK SLP236 T01220090 52010 IEM_DS3505
ZGOW,2010-01-08 04:00,ZGOW 080400Z AUTO 35004KT 7SM 13/11 A3021 RMK T01300110 IEM_DS3505
ZGOW,2010-01-08 05:00,ZGOW 080500Z AUTO 35004KT 7SM 13/11 A3018 RMK T01300110 IEM_DS3505
ZGOW,2010-01-08 06:00,ZGOW 080600Z AUTO 04002KT 9SM 14/09 A3015 RMK SLP204 T01350092 57032 IEM_DS3505
ZGOW,2010-01-08 07:00,ZGOW 080700Z AUTO 00000KT 7SM 14/11 A3012 RMK T01400110 IEM_DS3505
ZGOW,2010-01-08 08:00,ZGOW 080800Z AUTO 07008KT 7SM 14/12 A3012 RMK T01400120 IEM_DS3505
ZGOW,2010-01-08 09:00,ZGOW 080900Z AUTO 09002KT 6SM 13/10 A3012 RMK SLP199 T01340102 57005 IEM_DS3505
ZGOW,2010-01-08 10:00,ZGOW 081000Z AUTO 08010KT 4SM 13/11 A3012 RMK T01300110 IEM_DS3505
ZGOW,2010-01-08 11:00,ZGOW 081100Z AUTO 08012KT 3SM 13/11 A3015 RMK T01300110 IEM_DS3505
ZGOW,2010-01-08 12:00,ZGOW 081200Z AUTO 07008KT 6SM 12/10 A3015 RMK 60000 SLP214 T01230095 52015 IEM_DS3505
ZGOW,2010-01-08 13:00,ZGOW 081300Z AUTO 07016KT 4SM 12/10 A3018 RMK T01200100 IEM_DS3505
ZGOW,2010-01-08 14:00,ZGOW 081400Z AUTO 06016KT 7SM 12/09 A3018 RMK T01200090 IEM_DS3505
ZGOW,2010-01-08 15:00,ZGOW 081500Z AUTO 07004KT 7SM 12/08 A3018 RMK SLP220 T01210082 52006 IEM_DS3505
ZGOW,2010-01-08 16:00,ZGOW 081600Z AUTO 06008KT 7SM 11/09 A3018 RMK T01100090 IEM_DS3505
ZGOW,2010-01-08 18:00,ZGOW 081800Z AUTO 00000KT 7SM 10/08 A3018 RMK 60000 SLP219 T00980077 57001 IEM_DS3505
ZGOW,2010-01-08 19:00,ZGOW 081900Z AUTO 00000KT 2 1/2SM 08/08 A3015 RMK T00800080 IEM_DS3505
ZGOW,2010-01-08 20:00,ZGOW 082000Z AUTO 00000KT 2 1/2SM 09/09 A3015 RMK T00900090 IEM_DS3505
ZGOW,2010-01-08 21:00,ZGOW 082100Z AUTO 00000KT 3SM 09/08 A3015 RMK 70000 SLP213 T00880080 57006 IEM_DS3505
ZGOW,2010-01-08 22:00,ZGOW 082200Z AUTO 32004KT 2 1/2SM 09/09 A3018 RMK T00900090 IEM_DS3505
ZGOW,2010-01-08 23:00,ZGOW 082300Z AUTO 31004KT 2 1/2SM 09/09 A3018 RMK T00900090 IEM_DS3505
ZGOW,2010-01-09 00:00,ZGOW 090000Z AUTO 00000KT 2 1/2SM 10/09 A3021 RMK 70000 SLP229 T01010092 52016 IEM_DS3505
ZGOW,2010-01-09 01:00,ZGOW 090100Z AUTO 31006KT 6SM 12/10 A3021 RMK T01200100 IEM_DS3505
ZGOW,2010-01-09 02:00,ZGOW 090200Z AUTO 31004KT 6SM 14/11 A3021 RMK T01400110 IEM_DS3505
ZGOW,2010-01-09 03:00,ZGOW 090300Z AUTO 07004KT 6SM 15/08 A3018 RMK SLP223 T01540084 57006 IEM_DS3505
ZGOW,2010-01-09 04:00,ZGOW 090400Z AUTO 03006KT 6SM 16/11 A3015 RMK T01600110 IEM_DS3505
ZGOW,2010-01-09 05:00,ZGOW 090500Z AUTO 04006KT 6SM 17/11 A3012 RMK T01700110 IEM_DS3505
ZGOW,2010-01-09 06:00,ZGOW 090600Z AUTO 27004KT 9SM 18/06 A3009 RMK SLP188 T01760062 57035 IEM_DS3505
ZGOW,2010-01-09 07:00,ZGOW 090700Z AUTO 16002KT 6SM 19/10 A3006 RMK T01900100 IEM_DS3505
ZGOW,2010-01-09 08:00,ZGOW 090800Z AUTO 12008KT 6SM 17/11 A3006 RMK T01700110 IEM_DS3505
ZGOW,2010-01-09 09:00,ZGOW 090900Z AUTO 11006KT 8SM 16/08 A3009 RMK SLP184 T01550083 57004 IEM_DS3505
ZGOW,2010-01-09 10:00,ZGOW 091000Z AUTO 12006KT 3SM 14/13 A3009 RMK T01400130 IEM_DS3505
ZGOW,2010-01-09 11:00,ZGOW 091100Z AUTO 11006KT 2 1/2SM 14/13 A3009 RMK T01400130 IEM_DS3505
ZGOW,2010-01-09 12:00,ZGOW 091200Z AUTO 09004KT 5SM 14/12 A3012 RMK SLP197 T01450122 52013 IEM_DS3505
ZGOW,2010-01-09 13:00,ZGOW 091300Z AUTO 08006KT 2SM 13/13 A3012 RMK T01300130 IEM_DS3505
ZGOW,2010-01-09 14:00,ZGOW 091400Z AUTO 06008KT 1 1/2SM 13/13 A3015 RMK T01300130 IEM_DS3505
ZGOW,2010-01-09 15:00,ZGOW 091500Z AUTO 07004KT 4SM 14/12 A3015 RMK SLP207 T01370119 52010 IEM_DS3505
ZGOW,2010-01-09 16:00,ZGOW 091600Z AUTO 06012KT 1 1/2SM 13/13 A3015 RMK T01300130 IEM_DS3505
ZGOW,2010-01-09 18:00,ZGOW 091800Z AUTO 07002KT 4SM 13/11 A3012 RMK SLP199 T01300114 57008 IEM_DS3505
ZGOW,2010-01-09 19:00,ZGOW 091900Z AUTO 03006KT 1SM 12/12 A3009 RMK T01200120 IEM_DS3505
ZGOW,2010-01-09 21:00,ZGOW 092100Z AUTO 00000KT 4SM 12/11 A3009 RMK SLP191 T01220109 57008 IEM_DS3505
ZGOW,2010-01-09 22:00,ZGOW 092200Z AUTO 35002KT 1 1/4SM 12/12 A3012 RMK T01200120 IEM_DS3505
ZGOW,2010-01-09 23:00,ZGOW 092300Z AUTO 32004KT 1 1/4SM 12/12 A3012 RMK T01200120 IEM_DS3505
ZGOW,2010-01-10 00:00,ZGOW 100000Z AUTO 00000KT 2SM 13/11 A3015 RMK SLP211 T01310113 52020 IEM_DS3505
ZGOW,2010-01-10 01:00,ZGOW 100100Z AUTO 03006KT 1 1/2SM 14/13 A3015 RMK T01400130 IEM_DS3505
ZGOW,2010-01-10 02:00,ZGOW 100200Z AUTO 31004KT 2 1/2SM 15/13 A3015 RMK T01500130 IEM_DS3505
ZGOW,2010-01-10 03:00,ZGOW 100300Z AUTO 29002KT 4SM 15/11 A3015 RMK SLP205 T01530111 57006 IEM_DS3505
ZGOW,2010-01-10 04:00,ZGOW 100400Z AUTO 00000KT 3SM 17/13 A3012 RMK T01700130 IEM_DS3505
ZGOW,2010-01-10 05:00,ZGOW 100500Z AUTO 08002KT 3SM 17/13 A3006 RMK T01700130 IEM_DS3505
ZGOW,2010-01-10 06:00,ZGOW 100600Z AUTO 07002KT 4SM 19/11 A3003 RMK SLP167 T01920113 57038 IEM_DS3505
ZGOW,2010-01-10 07:00,ZGOW 100700Z AUTO 35002KT 3SM 19/14 A3003 RMK T01900140 IEM_DS3505
ZGOW,2010-01-10 08:00,ZGOW 100800Z AUTO 08004KT 4SM 18/14 A3000 RMK T01800140 IEM_DS3505
ZGOW,2010-01-10 09:00,ZGOW 100900Z AUTO 00000KT 4SM 19/12 A3000 RMK SLP162 T01890119 57005 IEM_DS3505
ZGOW,2010-01-10 10:00,ZGOW 101000Z AUTO 09002KT 2 1/2SM 16/14 A3003 RMK T01600140 IEM_DS3505
ZGOW,2010-01-10 11:00,ZGOW 101100Z AUTO 04002KT 3SM 15/14 A3003 RMK T01500140 IEM_DS3505
ZGOW,2010-01-10 12:00,ZGOW 101200Z AUTO 00000KT 4SM 15/12 A3003 RMK SLP173 T01540125 52011 IEM_DS3505
ZGOW,2010-01-10 13:00,ZGOW 101300Z AUTO 14002KT 2SM 14/14 A3006 RMK T01400140 IEM_DS3505
ZGOW,2010-01-10 14:00,ZGOW 101400Z AUTO 05002KT 2SM 14/14 A3006 RMK T01400140 IEM_DS3505
ZGOW,2010-01-10 15:00,ZGOW 101500Z AUTO 00000KT 3SM 15/13 A3006 RMK SLP182 T01540131 52009 IEM_DS3505
ZGOW,2010-01-10 16:00,ZGOW 101600Z AUTO 09002KT 2 1/2SM 15/14 A3006 RMK T01500140 IEM_DS3505
ZGOW,2010-01-10 18:00,ZGOW 101800Z AUTO 04002KT 2 1/2SM 15/13 RMK SLP177 T01520129 57005 IEM_DS3505
ZGOW,2010-01-10 19:00,ZGOW 101900Z AUTO 06010KT 1 1/2SM 15/15 A3003 RMK T01500150 IEM_DS3505
ZGOW,2010-01-10 20:00,ZGOW 102000Z AUTO 06008KT 1 1/2SM 15/15 A3006 RMK T01500150 IEM_DS3505
ZGOW,2010-01-10 21:00,ZGOW 102100Z AUTO 07004KT 4SM 15/13 A3006 RMK SLP175 T01510131 57002 IEM_DS3505
ZGOW,2010-01-10 22:00,ZGOW 102200Z AUTO 06014KT 3SM 15/14 A3006 RMK T01500140 IEM_DS3505
ZGOW,2010-01-10 23:00,ZGOW 102300Z AUTO 07012KT 2SM 15/14 A3009 RMK T01500140 IEM_DS3505
ZGOW,2010-01-11 00:00,ZGOW 110000Z AUTO 07006KT 5SM 15/13 A3009 RMK SLP188 T01500129 52013 IEM_DS3505
ZGOW,2010-01-11 01:00,ZGOW 110100Z AUTO 08010KT 2 1/2SM 15/14 A3012 RMK T01500140 IEM_DS3505
ZGOW,2010-01-11 02:00,ZGOW 110200Z AUTO 06010KT 2 1/2SM 15/14 A3012 RMK T01500140 IEM_DS3505
ZGOW,2010-01-11 03:00,ZGOW 110300Z AUTO 07006KT 4SM 16/13 A3012 RMK SLP199 T01560131 52011 IEM_DS3505
ZGOW,2010-01-11 04:00,ZGOW 110400Z AUTO 05006KT 2 1/2SM 16/14 A3009 RMK T01600140 IEM_DS3505
ZGOW,2010-01-11 05:00,ZGOW 110500Z AUTO 33004KT 2 1/2SM 15/14 A3006 RMK T01500140 IEM_DS3505
ZGOW,2010-01-11 06:00,ZGOW 110600Z AUTO 29004KT 5SM 15/12 A3006 RMK 60000 SLP180 T01460121 57019 IEM_DS3505
ZGOW,2010-01-11 07:00,ZGOW 110700Z AUTO 32006KT 3SM 14/13 A3006 RMK T01400130 IEM_DS3505
ZGOW,2010-01-11 08:00,ZGOW 110800Z AUTO 33006KT 3SM 13/13 A3006 RMK T01300130 IEM_DS3505
ZGOW,2010-01-11 09:00,ZGOW 110900Z AUTO 04002KT 4SM 13/12 A3006 RMK SLP185 T01330120 52005 IEM_DS3505
ZGOW,2010-01-11 10:00,ZGOW 111000Z AUTO 32006KT 3SM 12/12 A3009 RMK T01200120 IEM_DS3505
ZGOW,2010-01-11 11:00,ZGOW 111100Z AUTO 32008KT 3SM 12/12 A3012 RMK T01200120 IEM_DS3505
ZGOW,2010-01-11 12:00,ZGOW 111200Z AUTO 29004KT 6SM 12/10 A3012 RMK 60016 SLP202 T01200104 52017 IEM_DS3505
ZGOW,2010-01-11 13:00,ZGOW 111300Z AUTO 32012KT 7SM 11/11 A3015 RMK T01100110 IEM_DS3505
ZGOW,2010-01-11 14:00,ZGOW 111400Z AUTO 32010KT 7SM 11/10 A3015 RMK T01100100 IEM_DS3505
ZGOW,2010-01-11 15:00,ZGOW 111500Z AUTO 34002KT 12SM 11/08 A3018 RMK SLP218 T01140081 52016 IEM_DS3505
ZGOW,2010-01-11 17:00,ZGOW 111700Z AUTO 34012G21KT 7SM 10/08 A3018 RMK T01000080 IEM_DS3505
ZGOW,2010-01-11 18:00,ZGOW 111800Z AUTO 16002KT 12SM 10/07 A3018 RMK 60000 SLP221 T01010066 52003 IEM_DS3505
ZGOW,2010-01-11 19:00,ZGOW 111900Z AUTO 32010KT 7SM 10/08 A3018 RMK T01000080 IEM_DS3505
ZGOW,2010-01-11 21:00,ZGOW 112100Z AUTO 32004KT 9SM 10/06 RMK 70016 SLP226 T00970055 52005 IEM_DS3505
ZGOW,2010-01-11 23:00,ZGOW 112300Z AUTO 34008KT 7SM 09/07 A3024 RMK T00900070 IEM_DS3505
ZGOW,2010-01-12 00:00,ZGOW 120000Z AUTO 25002KT 11SM 09/05 A3027 RMK 70016 SLP248 T00940046 52022 IEM_DS3505
ZGOW,2010-01-12 01:00,ZGOW 120100Z AUTO 32010KT 7SM 09/06 A3027 RMK T00900060 IEM_DS3505
ZGOW,2010-01-12 02:00,ZGOW 120200Z AUTO 35010KT 7SM 11/07 A3030 RMK T01100070 IEM_DS3505
ZGOW,2010-01-12 03:00,ZGOW 120300Z AUTO 07004KT 11SM 12/05 A3027 RMK SLP249 T01170049 52001 IEM_DS3505
ZGOW,2010-01-12 04:00,ZGOW 120400Z AUTO 31008KT 7SM 13/08 A3027 RMK T01300080 IEM_DS3505
ZGOW,2010-01-12 05:00,ZGOW 120500Z AUTO 32010KT 7SM 14/08 A3024 RMK T01400080 IEM_DS3505
ZGOW,2010-01-12 06:00,ZGOW 120600Z AUTO 18004KT 9SM 13/05 A3021 RMK SLP228 T01330047 57021 IEM_DS3505
ZGOW,2010-01-12 07:00,ZGOW 120700Z AUTO 33010KT 6SM 13/07 A3018 RMK T01300070 IEM_DS3505
ZGOW,2010-01-12 08:00,ZGOW 120800Z AUTO 31006KT 6SM 13/07 A3018 RMK T01300070 IEM_DS3505
ZGOW,2010-01-12 09:00,ZGOW 120900Z AUTO 18002KT 9SM 12/04 A3021 RMK SLP225 T01250035 57003 IEM_DS3505
ZGOW,2010-01-12 10:00,ZGOW 121000Z AUTO 35006KT 4SM 11/06 A3021 RMK T01100060 IEM_DS3505
ZGOW,2010-01-12 11:00,ZGOW 121100Z AUTO 33006KT 4SM 11/06 A3024 RMK T01100060 IEM_DS3505
ZGOW,2010-01-12 12:00,ZGOW 121200Z AUTO 09002KT 8SM 10/04 A3024 RMK SLP241 T01050040 52016 IEM_DS3505
ZGOW,2010-01-12 13:00,ZGOW 121300Z AUTO 34004KT 4SM 10/06 A3027 RMK T01000060 IEM_DS3505
ZGOW,2010-01-12 14:00,ZGOW 121400Z AUTO 33004KT 4SM 09/06 A3027 RMK T00900060 IEM_DS3505
ZGOW,2010-01-12 15:00,ZGOW 121500Z AUTO 11002KT 8SM 09/03 A3030 RMK SLP256 T00900032 52015 IEM_DS3505
ZGOW,2010-01-12 16:00,ZGOW 121600Z AUTO 34004KT 4SM 09/05 A3030 RMK T00900050 IEM_DS3505
ZGOW,2010-01-12 17:00,ZGOW 121700Z AUTO 34006KT 3SM 08/05 A3030 RMK T00800050 IEM_DS3505
ZGOW,2010-01-12 18:00,ZGOW 121800Z AUTO 09002KT 9SM 08/02 A3033 RMK SLP267 T00790022 52011 IEM_DS3505
ZGOW,2010-01-12 21:00,ZGOW 122100Z AUTO 00000KT 9SM 07/02 A3033 RMK SLP270 T00700017 52003 IEM_DS3505
ZGOW,2010-01-12 22:00,ZGOW 122200Z AUTO 34004KT 3SM 07/04 A3036 RMK T00700040 IEM_DS3505
ZGOW,2010-01-12 23:00,ZGOW 122300Z AUTO 36006KT 3SM 07/04 A3036 RMK T00700040 IEM_DS3505
ZGOW,2010-01-13 00:00,ZGOW 130000Z AUTO 07002KT 9SM 08/02 A3039 RMK SLP285 T00790019 52015 IEM_DS3505
ZGOW,2010-01-13 01:00,ZGOW 130100Z AUTO 34002KT 4SM 09/04 A3039 RMK T00900040 IEM_DS3505
ZGOW,2010-01-13 02:00,ZGOW 130200Z AUTO 31004KT 4SM 11/04 A3042 RMK T01100040 IEM_DS3505
ZGOW,2010-01-13 03:00,ZGOW 130300Z AUTO 04004KT 7SM 13/M01 A3039 RMK SLP293 T01311012 52008 IEM_DS3505
ZGOW,2010-01-13 04:00,ZGOW 130400Z AUTO 05008KT 6SM 15/01 A3039 RMK T01500010 IEM_DS3505
ZGOW,2010-01-13 05:00,ZGOW 130500Z AUTO 07006KT 6SM 15/01 A3033 RMK T01500010 IEM_DS3505
ZGOW,2010-01-13 06:00,ZGOW 130600Z AUTO 34002KT 12SM 16/M03 A3030 RMK SLP257 T01581031 57036 IEM_DS3505
ZGOW,2010-01-13 07:00,ZGOW 130700Z AUTO 09010KT 6SM 16/04 A3027 RMK T01600040 IEM_DS3505
ZGOW,2010-01-13 08:00,ZGOW 130800Z AUTO 08010KT 6SM 16/03 A3030 RMK T01600030 IEM_DS3505
ZGOW,2010-01-13 09:00,ZGOW 130900Z AUTO 07004KT 7SM 15/M01 A3033 RMK SLP262 T01471006 52005 IEM_DS3505
ZGOW,2010-01-13 10:00,ZGOW 131000Z AUTO 08008KT 6SM 12/06 A3033 RMK T01200060 IEM_DS3505
ZGOW,2010-01-13 11:00,ZGOW 131100Z AUTO 08010KT 6SM 12/07 A3033 RMK T01200070 IEM_DS3505
ZGOW,2010-01-13 12:00,ZGOW 131200Z AUTO 07004KT 9SM 12/04 A3036 RMK SLP276 T01220039 52014 IEM_DS3505
ZGOW,2010-01-13 13:00,ZGOW 131300Z AUTO 08010KT 6SM 11/08 A3036 RMK T01100080 IEM_DS3505
ZGOW,2010-01-13 14:00,ZGOW 131400Z AUTO 07010KT 6SM 11/08 A3039 RMK T01100080 IEM_DS3505
ZGOW,2010-01-13 15:00,ZGOW 131500Z AUTO 07006KT 7SM 12/05 A3039 RMK SLP291 T01150054 52015 IEM_DS3505
ZGOW,2010-01-13 16:00,ZGOW 131600Z AUTO 06006KT 6SM 09/07 A3039 RMK T00900070 IEM_DS3505
ZGOW,2010-01-13 18:00,ZGOW 131800Z AUTO 07002KT 7SM 10/04 RMK SLP292 T01000042 52001 IEM_DS3505
ZGOW,2010-01-13 19:00,ZGOW 131900Z AUTO 04004KT 3SM 08/06 A3039 RMK T00800060 IEM_DS3505
ZGOW,2010-01-13 21:00,ZGOW 132100Z AUTO 00000KT 6SM 09/05 A3039 RMK SLP291 T00910053 57001 IEM_DS3505
ZGOW,2010-01-13 22:00,ZGOW 132200Z AUTO 05006KT 3SM 08/06 A3039 RMK T00800060 IEM_DS3505
ZGOW,2010-01-13 23:00,ZGOW 132300Z AUTO 08008KT 4SM 09/05 A3042 RMK T00900050 IEM_DS3505
ZGOW,2010-01-14 00:00,ZGOW 140000Z AUTO 07006KT 7SM 10/02 A3042 RMK SLP301 T01020016 52010 IEM_DS3505
ZGOW,2010-01-14 01:00,ZGOW 140100Z AUTO 07012KT 6SM 12/03 A3045 RMK T01200030 IEM_DS3505
ZGOW,2010-01-14 02:00,ZGOW 140200Z AUTO 06012KT 6SM 13/04 A3045 RMK T01300040 IEM_DS3505
ZGOW,2010-01-14 03:00,ZGOW 140300Z AUTO 07006KT 9SM 14/M01 A3042 RMK SLP297 T01381014 57004 IEM_DS3505
ZGOW,2010-01-14 04:00,ZGOW 140400Z AUTO 07008KT 6SM 15/04 A3039 RMK T01500040 IEM_DS3505
ZGOW,2010-01-14 05:00,ZGOW 140500Z AUTO 07008KT 6SM 16/05 A3033 RMK T01600050 IEM_DS3505
ZGOW,2010-01-14 06:00,ZGOW 140600Z AUTO 09006KT 8SM 16/M00 A3033 RMK SLP263 T01571001 57034 IEM_DS3505
ZGOW,2010-01-14 07:00,ZGOW 140700Z AUTO 10006KT 6SM 16/05 A3030 RMK T01600050 IEM_DS3505
ZGOW,2010-01-14 08:00,ZGOW 140800Z AUTO 13006KT 6SM 16/06 A3030 RMK T01600060 IEM_DS3505
ZGOW,2010-01-14 09:00,ZGOW 140900Z AUTO 14004KT 8SM 15/03 A3030 RMK SLP255 T01470029 57008 IEM_DS3505
ZGOW,2010-01-14 10:00,ZGOW 141000Z AUTO 08004KT 6SM 13/08 A3030 RMK T01300080 IEM_DS3505
ZGOW,2010-01-14 11:00,ZGOW 141100Z AUTO 08004KT 6SM 12/08 A3033 RMK T01200080 IEM_DS3505
ZGOW,2010-01-14 12:00,ZGOW 141200Z AUTO 09004KT 5SM 13/05 A3033 RMK SLP268 T01300052 52013 IEM_DS3505
ZGOW,2010-01-14 13:00,ZGOW 141300Z AUTO 07008KT 6SM 12/09 A3033 RMK T01200090 IEM_DS3505
ZGOW,2010-01-14 14:00,ZGOW 141400Z AUTO 06006KT 6SM 11/09 A3033 RMK T01100090 IEM_DS3505
ZGOW,2010-01-14 15:00,ZGOW 141500Z AUTO 04002KT 5SM 12/08 A3033 RMK SLP271 T01190080 52003 IEM_DS3505
ZGOW,2010-01-14 16:00,ZGOW 141600Z AUTO 01006KT 6SM 10/09 A3033 RMK T01000090 IEM_DS3505
ZGOW,2010-01-14 17:00,ZGOW 141700Z AUTO 03006KT 4SM 10/09 A3033 RMK T01000090 IEM_DS3505
ZGOW,2010-01-14 18:00,ZGOW 141800Z AUTO 00000KT 5SM 10/08 RMK SLP271 T01030077 54000 IEM_DS3505
ZGOW,2010-01-14 19:00,ZGOW 141900Z AUTO 01004KT 3SM 09/08 A3033 RMK T00900080 IEM_DS3505
ZGOW,2010-01-14 21:00,ZGOW 142100Z AUTO 09002KT 4SM 09/07 RMK SLP272 T00860066 52001 IEM_DS3505
ZGOW,2010-01-14 23:00,ZGOW 142300Z AUTO 26002KT 2SM 07/06 A3036 RMK T00700060 IEM_DS3505
ZGOW,2010-01-15 00:00,ZGOW 150000Z AUTO 36002KT 4SM 10/06 A3039 RMK SLP286 T00960063 52014 IEM_DS3505
ZGOW,2010-01-15 01:00,ZGOW 150100Z AUTO 33008KT 2 1/2SM 11/08 A3039 RMK T01100080 IEM_DS3505
ZGOW,2010-01-15 02:00,ZGOW 150200Z AUTO 32006KT 4SM 13/09 A3039 RMK T01300090 IEM_DS3505
ZGOW,2010-01-15 03:00,ZGOW 150300Z AUTO 07004KT 5SM 16/03 A3036 RMK SLP282 T01590033 57004 IEM_DS3505
ZGOW,2010-01-15 04:00,ZGOW 150400Z AUTO 02006KT 4SM 18/06 A3033 RMK T01800060 IEM_DS3505
ZGOW,2010-01-15 05:00,ZGOW 150500Z AUTO 08006KT 4SM 19/06 A3030 RMK T01900060 IEM_DS3505
ZGOW,2010-01-15 06:00,ZGOW 150600Z AUTO 09006KT 7SM 20/M01 A3027 RMK SLP244 T01971009 57038 IEM_DS3505
ZGOW,2010-01-15 07:00,ZGOW 150700Z AUTO 13006KT 4SM 18/10 A3024 RMK T01800100 IEM_DS3505
ZGOW,2010-01-15 08:00,ZGOW 150800Z AUTO 12006KT 4SM 17/12 A3024 RMK T01700120 IEM_DS3505
ZGOW,2010-01-15 09:00,ZGOW 150900Z AUTO 11004KT 9SM 16/08 A3024 RMK SLP240 T01630078 57004 IEM_DS3505
ZGOW,2010-01-15 10:00,ZGOW 151000Z AUTO 07006KT 3SM 14/11 A3027 RMK T01400110 IEM_DS3505
ZGOW,2010-01-15 11:00,ZGOW 151100Z AUTO 08006KT 3SM 14/12 A3027 RMK T01400120 IEM_DS3505
ZGOW,2010-01-15 12:00,ZGOW 151200Z AUTO 07006KT 7SM 15/09 A3030 RMK SLP254 T01480094 52014 IEM_DS3505
ZGOW,2010-01-15 13:00,ZGOW 151300Z AUTO 05010KT 2 1/2SM 13/12 A3030 RMK T01300120 IEM_DS3505
ZGOW,2010-01-15 14:00,ZGOW 151400Z AUTO 04004KT 2 1/2SM 12/11 A3033 RMK T01200110 IEM_DS3505
ZGOW,2010-01-15 15:00,ZGOW 151500Z AUTO 00000KT 6SM 13/10 RMK SLP268 T01260098 52014 IEM_DS3505
ZGOW,2010-01-15 16:00,ZGOW 151600Z AUTO 00000KT 2 1/2SM 11/10 A3033 RMK T01100100 IEM_DS3505
ZGOW,2010-01-15 17:00,ZGOW 151700Z AUTO 00000KT 2 1/2SM 11/10 A3033 RMK T01100100 IEM_DS3505
ZGOW,2010-01-15 18:00,ZGOW 151800Z AUTO 00000KT 4SM 10/09 A3030 RMK SLP265 T01010089 57003 IEM_DS3505
ZGOW,2010-01-15 19:00,ZGOW 151900Z AUTO 32004KT 1 1/4SM 11/11 A3030 RMK T01100110 IEM_DS3505
ZGOW,2010-01-15 21:00,ZGOW 152100Z AUTO 00000KT 3SM 10/08 A3030 RMK SLP259 T01010085 57006 IEM_DS3505
ZGOW,2010-01-15 22:00,ZGOW 152200Z AUTO 30006KT 1 1/4SM 10/10 A3033 RMK T01000100 IEM_DS3505
ZGOW,2010-01-15 23:00,ZGOW 152300Z AUTO 00000KT 1 1/4SM 10/09 A3033 RMK T01000090 IEM_DS3505
ZGOW,2010-01-16 00:00,ZGOW 160000Z AUTO 07004KT 4SM 11/09 A3036 RMK SLP278 T01130092 52019 IEM_DS3505
ZGOW,2010-01-16 01:00,ZGOW 160100Z AUTO 00000KT 3SM 13/09 A3036 RMK T01300090 IEM_DS3505
ZGOW,2010-01-16 02:00,ZGOW 160200Z AUTO 31004KT 3SM 14/10 A3039 RMK T01400100 IEM_DS3505
ZGOW,2010-01-16 03:00,ZGOW 160300Z AUTO 07002KT 5SM 17/09 A3036 RMK SLP278 T01710088 54000 IEM_DS3505
ZGOW,2010-01-16 04:00,ZGOW 160400Z AUTO 07012KT 6SM 18/13 A3033 RMK T01800130 IEM_DS3505
ZGOW,2010-01-16 05:00,ZGOW 160500Z AUTO 08014KT 6SM 19/13 A3030 RMK T01900130 IEM_DS3505
ZGOW,2010-01-16 06:00,ZGOW 160600Z AUTO 09010KT 9SM 18/11 A3027 RMK SLP250 T01830109 57028 IEM_DS3505
ZGOW,2010-01-16 07:00,ZGOW 160700Z AUTO 08016KT 6SM 19/13 A3027 RMK T01900130 IEM_DS3505
ZGOW,2010-01-16 08:00,ZGOW 160800Z AUTO 08014KT 5SM 18/13 A3027 RMK T01800130 IEM_DS3505
ZGOW,2010-01-16 09:00,ZGOW 160900Z AUTO 09006G23KT 8SM 17/11 A3027 RMK SLP250 T01730109 54000 IEM_DS3505
ZGOW,2010-01-16 10:00,ZGOW 161000Z AUTO 08016KT 6SM 16/12 A3030 RMK T01600120 IEM_DS3505
ZGOW,2010-01-16 11:00,ZGOW 161100Z AUTO 07012KT 6SM 15/12 A3033 RMK T01500120 IEM_DS3505
ZGOW,2010-01-16 12:00,ZGOW 161200Z AUTO 07006G23KT 7SM 16/11 A3033 RMK SLP272 T01560108 52022 IEM_DS3505
ZGOW,2010-01-16 13:00,ZGOW 161300Z AUTO 08014KT 6SM 15/13 A3036 RMK T01500130 IEM_DS3505
ZGOW,2010-01-16 14:00,ZGOW 161400Z AUTO 08012KT 6SM 14/12 A3036 RMK T01400120 IEM_DS3505
ZGOW,2010-01-16 15:00,ZGOW 161500Z AUTO 07004KT 6SM 15/11 A3036 RMK SLP279 T01460110 52007 IEM_DS3505
ZGOW,2010-01-16 16:00,ZGOW 161600Z AUTO 06006KT 4SM 13/11 A3036 RMK T01300110 IEM_DS3505
ZGOW,2010-01-16 17:00,ZGOW 161700Z AUTO 04004KT 4SM 12/11 A3036 RMK T01200110 IEM_DS3505
ZGOW,2010-01-16 18:00,ZGOW 161800Z AUTO 07004KT 6SM 14/10 RMK SLP277 T01350105 57002 IEM_DS3505
ZGOW,2010-01-16 19:00,ZGOW 161900Z AUTO 32002KT 1 1/2SM 12/11 A3036 RMK T01200110 IEM_DS3505
ZGOW,2010-01-16 21:00,ZGOW 162100Z AUTO 09002KT 6SM 13/10 A3033 RMK SLP271 T01260101 57006 IEM_DS3505
ZGOW,2010-01-16 22:00,ZGOW 162200Z AUTO 29002KT 1 1/2SM 11/11 A3033 RMK T01100110 IEM_DS3505
ZGOW,2010-01-16 23:00,ZGOW 162300Z AUTO 32004KT 1SM 11/11 A3036 RMK T01100110 IEM_DS3505
ZGOW,2010-01-17 00:00,ZGOW 170000Z AUTO 02002KT 4SM 13/11 A3036 RMK SLP281 T01260107 52010 IEM_DS3505
ZGOW,2010-01-17 01:00,ZGOW 170100Z AUTO 32004KT 1 1/2SM 14/13 A3036 RMK T01400130 IEM_DS3505
ZGOW,2010-01-17 02:00,ZGOW 170200Z AUTO 03008KT 2 1/2SM 17/13 A3036 RMK T01700130 IEM_DS3505
ZGOW,2010-01-17 03:00,ZGOW 170300Z AUTO 07006KT 6SM 18/10 A3036 RMK SLP276 T01850101 57005 IEM_DS3505
ZGOW,2010-01-17 04:00,ZGOW 170400Z AUTO 09010KT 7SM 19/13 A3033 RMK T01900130 IEM_DS3505
ZGOW,2010-01-17 05:00,ZGOW 170500Z AUTO 09014KT 6SM 19/13 A3030 RMK T01900130 IEM_DS3505
ZGOW,2010-01-17 06:00,ZGOW 170600Z AUTO 11008KT 7SM 20/11 A3027 RMK SLP247 T01960106 57029 IEM_DS3505
ZGOW,2010-01-17 07:00,ZGOW 170700Z AUTO 13008KT 6SM 19/14 A3024 RMK T01900140 IEM_DS3505
ZGOW,2010-01-17 08:00,ZGOW 170800Z AUTO 11006KT 6SM 19/14 A3024 RMK T01900140 IEM_DS3505
ZGOW,2010-01-17 09:00,ZGOW 170900Z AUTO 11006KT 7SM 18/11 A3027 RMK SLP245 T01800111 57002 IEM_DS3505
ZGOW,2010-01-17 10:00,ZGOW 171000Z AUTO 11006KT 4SM 16/13 A3027 RMK T01600130 IEM_DS3505
ZGOW,2010-01-17 11:00,ZGOW 171100Z AUTO 07010KT 4SM 16/13 A3030 RMK T01600130 IEM_DS3505
ZGOW,2010-01-17 12:00,ZGOW 171200Z AUTO 07006KT 6SM 16/11 A3030 RMK SLP258 T01590113 52013 IEM_DS3505
ZGOW,2010-01-17 13:00,ZGOW 171300Z AUTO 08014KT 6SM 15/12 A3033 RMK T01500120 IEM_DS3505
ZGOW,2010-01-17 14:00,ZGOW 171400Z AUTO 09012KT 6SM 15/12 A3033 RMK T01500120 IEM_DS3505
ZGOW,2010-01-17 15:00,ZGOW 171500Z AUTO 07008KT 6SM 15/10 A3033 RMK SLP267 T01510101 52009 IEM_DS3505
ZGOW,2010-01-17 16:00,ZGOW 171600Z AUTO 09010KT 6SM 14/11 A3033 RMK T01400110 IEM_DS3505
ZGOW,2010-01-17 17:00,ZGOW 171700Z AUTO 09008KT 6SM 14/11 A3033 RMK T01400110 IEM_DS3505
ZGOW,2010-01-17 18:00,ZGOW 171800Z AUTO 07004KT 6SM 14/10 RMK SLP264 T01410097 57003 IEM_DS3505
ZGOW,2010-01-17 19:00,ZGOW 171900Z AUTO 03002KT 3SM 12/10 A3030 RMK T01200100 IEM_DS3505
ZGOW,2010-01-17 21:00,ZGOW 172100Z AUTO 00000KT 5SM 12/10 A3030 RMK SLP257 T01200102 57007 IEM_DS3505
ZGOW,2010-01-17 22:00,ZGOW 172200Z AUTO 32002KT 3SM 11/11 A3030 RMK T01100110 IEM_DS3505
ZGOW,2010-01-17 23:00,ZGOW 172300Z AUTO 00000KT 2SM 10/10 A3030 RMK T01000100 IEM_DS3505
ZGOW,2010-01-18 00:00,ZGOW 180000Z AUTO 00000KT 5SM 13/12 A3033 RMK SLP266 T01280115 52009 IEM_DS3505
ZGOW,2010-01-18 01:00,ZGOW 180100Z AUTO 32004KT 1 1/4SM 14/12 A3033 RMK T01400120 IEM_DS3505
ZGOW,2010-01-18 02:00,ZGOW 180200Z AUTO 04004KT 2 1/2SM 17/12 A3033 RMK T01700120 IEM_DS3505
ZGOW,2010-01-18 03:00,ZGOW 180300Z AUTO 07006KT 6SM 18/10 A3030 RMK SLP259 T01840100 57007 IEM_DS3505
ZGOW,2010-01-18 04:00,ZGOW 180400Z AUTO 07010KT 6SM 19/13 A3027 RMK T01900130 IEM_DS3505
ZGOW,2010-01-18 05:00,ZGOW 180500Z AUTO 08012KT 6SM 20/13 A3024 RMK T02000130 IEM_DS3505
ZGOW,2010-01-18 06:00,ZGOW 180600Z AUTO 11006KT 6SM 20/11 A3021 RMK SLP226 T01960111 57033 IEM_DS3505
ZGOW,2010-01-18 07:00,ZGOW 180700Z AUTO 12008KT 6SM 19/14 A3018 RMK T01900140 IEM_DS3505
ZGOW,2010-01-18 08:00,ZGOW 180800Z AUTO 10008KT 6SM 19/14 A3018 RMK T01900140 IEM_DS3505
ZGOW,2010-01-18 09:00,ZGOW 180900Z AUTO 11006KT 6SM 17/12 A3018 RMK SLP222 T01720119 57004 IEM_DS3505
ZGOW,2010-01-18 10:00,ZGOW 181000Z AUTO 08010KT 4SM 16/14 A3021 RMK T01600140 IEM_DS3505
ZGOW,2010-01-18 11:00,ZGOW 181100Z AUTO 08008KT 4SM 15/13 A3021 RMK T01500130 IEM_DS3505
ZGOW,2010-01-18 12:00,ZGOW 181200Z 06006MPS 7000 NSC 15/13 Q1024 NOSIG
ZGOW,2010-01-18 13:00,ZGOW 181300Z AUTO 06012KT 4SM 15/14 A3024 RMK T01500140 IEM_DS3505
ZGOW,2010-01-18 14:00,ZGOW 181400Z AUTO 06008KT 3SM 14/14 A3024 RMK T01400140 IEM_DS3505
ZGOW,2010-01-18 15:00,ZGOW 181500Z AUTO 07006KT 6SM 15/13 A3024 RMK SLP241 T01490126 52003 IEM_DS3505
ZGOW,2010-01-18 16:00,ZGOW 181600Z AUTO 07008KT 3SM 14/14 A3024 RMK T01400140 IEM_DS3505
ZGOW,2010-01-18 18:00,ZGOW 181800Z AUTO 07002KT 6SM 14/12 A3024 RMK SLP237 T01410125 57004 IEM_DS3505
ZGOW,2010-01-18 19:00,ZGOW 181900Z AUTO 36004KT 1 1/2SM 14/13 A3021 RMK T01400130 IEM_DS3505
ZGOW,2010-01-18 21:00,ZGOW 182100Z AUTO 00000KT 4SM 13/12 A3021 RMK SLP227 T01330117 57010 IEM_DS3505
ZGOW,2010-01-18 22:00,ZGOW 182200Z AUTO 34004KT 1 1/4SM 13/13 A3021 RMK T01300130 IEM_DS3505
ZGOW,2010-01-18 23:00,ZGOW 182300Z AUTO 34004KT 1SM 13/13 A3021 RMK T01300130 IEM_DS3505
ZGOW,2010-01-19 00:00,ZGOW 190000Z AUTO 00000KT 3SM 14/12 A3024 RMK SLP235 T01370121 52008 IEM_DS3505
ZGOW,2010-01-19 01:00,ZGOW 190100Z AUTO 31006KT 1 1/2SM 15/14 A3024 RMK T01500140 IEM_DS3505
ZGOW,2010-01-19 02:00,ZGOW 190200Z AUTO 34004KT 2 1/2SM 17/15 A3024 RMK T01700150 IEM_DS3505
ZGOW,2010-01-19 03:00,ZGOW 190300Z AUTO 07002KT 4SM 19/13 A3024 RMK SLP233 T01910131 57002 IEM_DS3505
ZGOW,2010-01-19 04:00,ZGOW 190400Z AUTO 08008KT 4SM 20/15 A3018 RMK T02000150 IEM_DS3505
ZGOW,2010-01-19 05:00,ZGOW 190500Z AUTO 09006KT 4SM 21/16 A3015 RMK T02100160 IEM_DS3505
ZGOW,2010-01-19 06:00,ZGOW 190600Z AUTO 09004KT 6SM 21/13 A3015 RMK SLP202 T02130132 57031 IEM_DS3505
ZGOW,2010-01-19 07:00,ZGOW 190700Z AUTO 09006KT 4SM 21/16 A3012 RMK T02100160 IEM_DS3505
ZGOW,2010-01-19 08:00,ZGOW 190800Z AUTO 11006KT 3SM 20/16 A3012 RMK T02000160 IEM_DS3505
ZGOW,2010-01-19 09:00,ZGOW 190900Z AUTO 11004KT 5SM 20/13 A3012 RMK SLP199 T01950134 57003 IEM_DS3505
ZGOW,2010-01-19 10:00,ZGOW 191000Z AUTO 10002KT 2 1/2SM 18/16 A3015 RMK T01800160 IEM_DS3505
ZGOW,2010-01-19 11:00,ZGOW 191100Z AUTO 06006KT 2 1/2SM 17/16 A3015 RMK T01700160 IEM_DS3505
ZGOW,2010-01-19 12:00,ZGOW 191200Z AUTO 07002KT 5SM 18/14 A3015 RMK 60000 SLP211 T01770144 52012 IEM_DS3505
ZGOW,2010-01-19 13:00,ZGOW 191300Z AUTO 04006KT 3SM 17/16 A3015 RMK T01700160 IEM_DS3505
ZGOW,2010-01-19 14:00,ZGOW 191400Z AUTO 02004KT 2 1/2SM 17/16 A3018 RMK T01700160 IEM_DS3505
ZGOW,2010-01-19 15:00,ZGOW 191500Z AUTO 00000KT 5SM 18/14 A3018 RMK SLP217 T01790144 52006 IEM_DS3505
ZGOW,2010-01-19 16:00,ZGOW 191600Z AUTO 34002KT 2 1/2SM 18/16 A3015 RMK T01800160 IEM_DS3505
ZGOW,2010-01-19 17:00,ZGOW 191700Z AUTO 33002KT 1 1/2SM 18/16 A3015 RMK T01800160 IEM_DS3505
ZGOW,2010-01-19 18:00,ZGOW 191800Z AUTO 29002KT 2 1/2SM 18/15 A3015 RMK 60000 SLP206 T01800154 57011 IEM_DS3505
ZGOW,2010-01-19 19:00,ZGOW 191900Z AUTO 35002KT 1 1/4SM 18/17 A3012 RMK T01800170 IEM_DS3505
ZGOW,2010-01-19 20:00,ZGOW 192000Z AUTO 34002KT 1SM 18/17 A3012 RMK T01800170 IEM_DS3505
ZGOW,2010-01-19 21:00,ZGOW 192100Z AUTO 27002KT 2 1/2SM 18/16 A3015 RMK 70000 SLP206 T01810159 54000 IEM_DS3505
ZGOW,2010-01-19 22:00,ZGOW 192200Z AUTO 33002KT 1 1/2SM 18/17 A3015 RMK T01800170 IEM_DS3505
ZGOW,2010-01-19 23:00,ZGOW 192300Z AUTO 33002KT 1 1/4SM 19/17 A3015 RMK T01900170 IEM_DS3505
ZGOW,2010-01-20 00:00,ZGOW 200000Z AUTO 00000KT 1 1/4SM 18/16 A3018 RMK 70000 SLP217 T01850165 52011 IEM_DS3505
ZGOW,2010-01-20 01:00,ZGOW 200100Z AUTO 32004KT 1SM 19/18 A3018 RMK T01900180 IEM_DS3505
ZGOW,2010-01-20 02:00,ZGOW 200200Z AUTO 32002KT 1 1/4SM 21/19 A3021 RMK T02100190 IEM_DS3505
ZGOW,2010-01-20 03:00,ZGOW 200300Z AUTO 00000KT 2 1/2SM 22/17 A3018 RMK SLP218 T02250170 52001 IEM_DS3505
ZGOW,2010-01-20 04:00,ZGOW 200400Z AUTO 04004KT 2 1/2SM 23/19 A3015 RMK T02300190 IEM_DS3505
ZGOW,2010-01-20 05:00,ZGOW 200500Z AUTO 04002KT 4SM 23/19 A3015 RMK T02300190 IEM_DS3505
ZGOW,2010-01-20 06:00,ZGOW 200600Z AUTO 00000KT 2 1/2SM 22/18 A3012 RMK SLP197 T02200178 57021 IEM_DS3505
ZGOW,2010-01-20 07:00,ZGOW 200700Z AUTO 10002KT 7SM 23/20 A3009 RMK T02300200 IEM_DS3505
ZGOW,2010-01-20 08:00,ZGOW 200800Z AUTO 07004KT 7SM 23/20 A3012 RMK T02300200 IEM_DS3505
ZGOW,2010-01-20 09:00,ZGOW 200900Z AUTO 07002KT 3SM 23/18 A3012 RMK SLP196 T02260179 57001 IEM_DS3505
ZGOW,2010-01-20 10:00,ZGOW 201000Z AUTO 00000KT 3SM 20/18 A3012 RMK T02000180 IEM_DS3505
ZGOW,2010-01-20 11:00,ZGOW 201100Z AUTO 08002KT 2 1/2SM 20/18 A3015 RMK T02000180 IEM_DS3505
ZGOW,2010-01-20 12:00,ZGOW 201200Z AUTO 00000KT 5SM 21/18 A3015 RMK SLP207 T02070177 52011 IEM_DS3505
ZGOW,2010-01-20 13:00,ZGOW 201300Z AUTO 28002KT 2SM 20/18 A3015 RMK T02000180 IEM_DS3505
ZGOW,2010-01-20 14:00,ZGOW 201400Z AUTO 34002KT 2SM 20/18 A3015 RMK T02000180 IEM_DS3505
ZGOW,2010-01-20 15:00,ZGOW 201500Z AUTO 00000KT 3SM 20/17 A3015 RMK SLP207 T02000174 54000 IEM_DS3505
ZGOW,2010-01-20 16:00,ZGOW 201600Z AUTO 31004KT 1 1/4SM 20/19 A3015 RMK T02000190 IEM_DS3505
ZGOW,2010-01-20 17:00,ZGOW 201700Z AUTO 00000KT 1SM 19/19 A3012 RMK T01900190 IEM_DS3505
ZGOW,2010-01-20 18:00,ZGOW 201800Z AUTO 00000KT 1 1/4SM 19/18 A3012 RMK SLP198 T01910183 57009 IEM_DS3505
ZGOW,2010-01-20 19:00,ZGOW 201900Z AUTO 31004KT 1SM 20/20 A3009 RMK T02000200 IEM_DS3505
ZGOW,2010-01-20 20:00,ZGOW 202000Z AUTO 31002KT 1SM 20/20 A3009 RMK T02000200 IEM_DS3505
ZGOW,2010-01-20 21:00,ZGOW 202100Z AUTO 00000KT 1SM 19/18 A3009 RMK 70000 SLP191 T01910183 57007 IEM_DS3505
ZGOW,2010-01-20 22:00,ZGOW 202200Z AUTO 00000KT 1 1/4SM 19/19 A3009 RMK T01900190 IEM_DS3505
ZGOW,2010-01-20 23:00,ZGOW 202300Z AUTO 00000KT 1SM 19/19 A3009 RMK T01900190 IEM_DS3505
ZGOW,2010-01-21 00:00,ZGOW 210000Z AUTO 00000KT 1SM 19/19 A3009 RMK 70000 SLP193 T01940187 52002 IEM_DS3505
ZGOW,2010-01-21 01:00,ZGOW 210100Z AUTO 00000KT 1SM 22/21 A3012 RMK T02200210 IEM_DS3505
ZGOW,2010-01-21 02:00,ZGOW 210200Z AUTO 32002KT 1 1/2SM 24/22 A3012 RMK T02400220 IEM_DS3505
ZGOW,2010-01-21 03:00,ZGOW 210300Z AUTO 11004KT 4SM 25/19 A3012 RMK SLP197 T02520193 52004 IEM_DS3505
ZGOW,2010-01-21 04:00,ZGOW 210400Z AUTO 16006KT 7SM 26/22 A3009 RMK T02600220 IEM_DS3505
ZGOW,2010-01-21 05:00,ZGOW 210500Z AUTO 15006KT 7SM 26/22 A3006 RMK T02600220 IEM_DS3505
ZGOW,2010-01-21 06:00,ZGOW 210600Z AUTO 16004KT 10SM 26/20 A3006 RMK SLP170 T02650199 57027 IEM_DS3505
ZGOW,2010-01-21 07:00,ZGOW 210700Z AUTO 14008KT 7SM 26/22 A3003 RMK T02600220 IEM_DS3505
ZGOW,2010-01-21 08:00,ZGOW 210800Z AUTO 14008KT 7SM 25/22 A3003 RMK T02500220 IEM_DS3505
ZGOW,2010-01-21 09:00,ZGOW 210900Z AUTO 11004KT 11SM 24/20 A3006 RMK SLP173 T02350201 52003 IEM_DS3505
ZGOW,2010-01-21 10:00,ZGOW 211000Z AUTO 11006KT 2 1/2SM 22/21 A3006 RMK T02200210 IEM_DS3505
ZGOW,2010-01-21 11:00,ZGOW 211100Z AUTO 12006KT 2 1/2SM 21/20 A3009 RMK T02100200 IEM_DS3505
ZGOW,2010-01-21 12:00,ZGOW 211200Z AUTO 11008KT 7SM 22/17 A3012 RMK SLP202 T02150171 52029 IEM_DS3505
ZGOW,2010-01-21 13:00,ZGOW 211300Z AUTO 07016KT 2 1/2SM 16/16 A3018 RMK T01600160 IEM_DS3505
ZGOW,2010-01-21 14:00,ZGOW 211400Z AUTO 07017KT 2 1/2SM 15/15 A3018 RMK T01500150 IEM_DS3505
ZGOW,2010-01-21 15:00,ZGOW 211500Z AUTO 07012G31KT 7SM 16/13 A3018 RMK SLP223 T01580131 52021 IEM_DS3505
ZGOW,2010-01-21 16:00,ZGOW 211600Z AUTO 08017G31KT 2 1/2SM 15/14 A3018 RMK T01500140 IEM_DS3505
ZGOW,2010-01-21 17:00,ZGOW 211700Z AUTO 08021G31KT 3SM 15/13 A3018 RMK T01500130 IEM_DS3505
ZGOW,2010-01-21 18:00,ZGOW 211800Z AUTO 04008KT 9SM 15/12 A3018 RMK SLP222 T01500121 57001 IEM_DS3505
ZGOW,2010-01-21 19:00,ZGOW 211900Z AUTO 07017KT 2SM 14/13 A3018 RMK T01400130 IEM_DS3505
ZGOW,2010-01-21 20:00,ZGOW 212000Z AUTO 08019KT 2 1/2SM 14/13 A3018 RMK T01400130 IEM_DS3505
ZGOW,2010-01-21 21:00,ZGOW 212100Z AUTO 07010KT 9SM 15/11 A3018 RMK SLP223 T01460112 52001 IEM_DS3505
ZGOW,2010-01-21 22:00,ZGOW 212200Z AUTO 07016KT 3SM 14/13 A3021 RMK T01400130 IEM_DS3505
ZGOW,2010-01-21 23:00,ZGOW 212300Z AUTO 07017KT 4SM 14/12 A3024 RMK T01400120 IEM_DS3505
ZGOW,2010-01-22 00:00,ZGOW 220000Z AUTO 07008KT 9SM 15/11 A3024 RMK SLP241 T01470107 52018 IEM_DS3505
ZGOW,2010-01-22 01:00,ZGOW 220100Z AUTO 08016KT 7SM 15/13 A3027 RMK T01500130 IEM_DS3505
ZGOW,2010-01-22 02:00,ZGOW 220200Z AUTO 07014KT 7SM 15/12 A3027 RMK T01500120 IEM_DS3505
ZGOW,2010-01-22 03:00,ZGOW 220300Z AUTO 09008KT 10SM 16/11 A3027 RMK SLP251 T01570109 52010 IEM_DS3505
ZGOW,2010-01-22 04:00,ZGOW 220400Z AUTO 08016KT 7SM 15/13 A3027 RMK T01500130 IEM_DS3505
ZGOW,2010-01-22 05:00,ZGOW 220500Z AUTO 07017KT 7SM 15/12 A3024 RMK T01500120 IEM_DS3505
ZGOW,2010-01-22 06:00,ZGOW 220600Z AUTO 07010KT 10SM 16/11 A3021 RMK SLP227 T01590113 57024 IEM_DS3505
ZGOW,2010-01-22 07:00,ZGOW 220700Z AUTO 07016KT 5SM 14/12 A3021 RMK T01400120 IEM_DS3505
ZGOW,2010-01-22 08:00,ZGOW 220800Z AUTO 07016G25KT 5SM 14/11 A3021 RMK T01400110 IEM_DS3505
ZGOW,2010-01-22 09:00,ZGOW 220900Z AUTO 07008KT 8SM 14/10 A3021 RMK SLP231 T01430099 52004 IEM_DS3505
ZGOW,2010-01-22 10:00,ZGOW 221000Z AUTO 08014KT 4SM 14/12 A3024 RMK T01400120 IEM_DS3505
ZGOW,2010-01-22 11:00,ZGOW 221100Z AUTO 08014KT 5SM 13/12 A3027 RMK T01300120 IEM_DS3505
ZGOW,2010-01-22 12:00,ZGOW 221200Z AUTO 07010KT 6SM 14/10 A3027 RMK SLP248 T01370103 52017 IEM_DS3505
ZGOW,2010-01-22 13:00,ZGOW 221300Z AUTO 06017KT 6SM 13/11 A3027 RMK T01300110 IEM_DS3505
ZGOW,2010-01-22 14:00,ZGOW 221400Z AUTO 07017KT 7SM 13/11 A3030 RMK T01300110 IEM_DS3505
ZGOW,2010-01-22 15:00,ZGOW 221500Z AUTO 07008KT 6SM 13/10 A3030 RMK SLP255 T01330103 52007 IEM_DS3505
ZGOW,2010-01-22 16:00,ZGOW 221600Z AUTO 07014KT 7SM 13/11 A3030 RMK T01300110 IEM_DS3505
ZGOW,2010-01-22 17:00,ZGOW 221700Z AUTO 08012KT 1 1/2SM 13/11 A3027 RMK T01300110 IEM_DS3505
ZGOW,2010-01-22 18:00,ZGOW 221800Z AUTO 07006KT 7SM 13/10 A3027 RMK SLP245 T01330095 57010 IEM_DS3505
ZGOW,2010-01-22 19:00,ZGOW 221900Z AUTO 06014KT 2SM 13/11 A3024 RMK T01300110 IEM_DS3505
ZGOW,2010-01-22 20:00,ZGOW 222000Z AUTO 07012KT 2SM 13/11 A3024 RMK T01300110 IEM_DS3505
ZGOW,2010-01-22 21:00,ZGOW 222100Z AUTO 09006KT 7SM 13/10 A3024 RMK SLP237 T01340095 57008 IEM_DS3505
ZGOW,2010-01-22 22:00,ZGOW 222200Z AUTO 08016KT 4SM 13/10 A3024 RMK T01300100 IEM_DS3505
ZGOW,2010-01-22 23:00,ZGOW 222300Z AUTO 07017KT 4SM 13/10 A3027 RMK T01300100 IEM_DS3505
ZGOW,2010-01-23 00:00,ZGOW 230000Z AUTO 07010KT 6SM 12/09 A3027 RMK SLP253 T01250090 52016 IEM_DS3505
ZGOW,2010-01-23 01:00,ZGOW 230100Z AUTO 06014KT 4SM 13/10 A3030 RMK T01300100 IEM_DS3505
ZGOW,2010-01-23 02:00,ZGOW 230200Z AUTO 06014KT 4SM 14/11 A3033 RMK T01400110 IEM_DS3505
ZGOW,2010-01-23 03:00,ZGOW 230300Z AUTO 07008KT 7SM 14/10 A3030 RMK SLP258 T01450095 52005 IEM_DS3505
ZGOW,2010-01-23 04:00,ZGOW 230400Z AUTO 07014KT 7SM 15/11 A3027 RMK T01500110 IEM_DS3505
ZGOW,2010-01-23 05:00,ZGOW 230500Z AUTO 08012KT 7SM 15/11 A3024 RMK T01500110 IEM_DS3505
ZGOW,2010-01-23 06:00,ZGOW 230600Z AUTO 09008KT 7SM 14/09 A3021 RMK 60000 SLP231 T01430087 57027 IEM_DS3505
ZGOW,2010-01-23 07:00,ZGOW 230700Z AUTO 08012KT 7SM 15/11 A3021 RMK T01500110 IEM_DS3505
ZGOW,2010-01-23 08:00,ZGOW 230800Z AUTO 07014KT 7SM 14/11 A3021 RMK T01400110 IEM_DS3505
ZGOW,2010-01-23 09:00,ZGOW 230900Z AUTO 07006KT 7SM 14/10 A3021 RMK SLP229 T01380095 57002 IEM_DS3505
ZGOW,2010-01-23 10:00,ZGOW 231000Z AUTO 07012KT 4SM 13/11 A3024 RMK T01300110 IEM_DS3505
ZGOW,2010-01-23 11:00,ZGOW 231100Z AUTO 07010KT 4SM 13/11 A3024 RMK T01300110 IEM_DS3505
ZGOW,2010-01-23 12:00,ZGOW 231200Z AUTO 09006KT 5SM 14/10 A3024 RMK 60000 SLP240 T01350097 52011 IEM_DS3505
ZGOW,2010-01-23 13:00,ZGOW 231300Z AUTO 07012KT 7SM 13/11 A3024 RMK T01300110 IEM_DS3505
ZGOW,2010-01-23 14:00,ZGOW 231400Z AUTO 08010KT 7SM 13/11 A3027 RMK T01300110 IEM_DS3505
ZGOW,2010-01-23 15:00,ZGOW 231500Z AUTO 07006KT 5SM 13/10 A3027 RMK SLP247 T01340098 52007 IEM_DS3505
ZGOW,2010-01-23 16:00,ZGOW 231600Z AUTO 06012KT 7SM 13/11 A3024 RMK T01300110 IEM_DS3505
ZGOW,2010-01-23 17:00,ZGOW 231700Z AUTO 07010KT 1 1/4SM 13/11 A3024 RMK T01300110 IEM_DS3505
ZGOW,2010-01-23 18:00,ZGOW 231800Z AUTO 07006KT 5SM 13/10 A3021 RMK SLP233 T01310099 57014 IEM_DS3505
ZGOW,2010-01-23 19:00,ZGOW 231900Z AUTO 06010KT 1 1/4SM 13/12 A3021 RMK T01300120 IEM_DS3505
ZGOW,2010-01-23 20:00,ZGOW 232000Z AUTO 06010KT 1 1/4SM 13/12 A3021 RMK T01300120 IEM_DS3505
ZGOW,2010-01-23 21:00,ZGOW 232100Z AUTO 07008KT 5SM 13/10 A3018 RMK 70000 SLP223 T01290103 57010 IEM_DS3505
ZGOW,2010-01-23 22:00,ZGOW 232200Z AUTO 07012KT 4SM 13/12 A3021 RMK T01300120 IEM_DS3505
ZGOW,2010-01-23 23:00,ZGOW 232300Z AUTO 07010KT 3SM 13/12 A3021 RMK T01300120 IEM_DS3505
ZGOW,2010-01-24 00:00,ZGOW 240000Z AUTO 07006KT 6SM 13/11 A3024 RMK 70000 SLP238 T01330107 52015 IEM_DS3505
ZGOW,2010-01-24 01:00,ZGOW 240100Z AUTO 06010KT 5SM 14/12 A3024 RMK T01400120 IEM_DS3505
ZGOW,2010-01-24 02:00,ZGOW 240200Z AUTO 07010KT 4SM 14/12 A3024 RMK T01400120 IEM_DS3505
ZGOW,2010-01-24 03:00,ZGOW 240300Z AUTO 07006KT 6SM 15/11 A3024 RMK SLP238 T01500112 54000 IEM_DS3505
ZGOW,2010-01-24 04:00,ZGOW 240400Z AUTO 06010KT 5SM 16/13 A3021 RMK T01600130 IEM_DS3505
ZGOW,2010-01-24 05:00,ZGOW 240500Z AUTO 07006KT 7SM 16/13 A3018 RMK T01600130 IEM_DS3505
ZGOW,2010-01-24 06:00,ZGOW 240600Z AUTO 07006KT 8SM 17/12 A3015 RMK SLP205 T01690116 57033 IEM_DS3505
ZGOW,2010-01-24 07:00,ZGOW 240700Z AUTO 07008KT 6SM 17/14 A3012 RMK T01700140 IEM_DS3505
ZGOW,2010-01-24 08:00,ZGOW 240800Z AUTO 10006KT 6SM 17/14 A3012 RMK T01700140 IEM_DS3505
ZGOW,2010-01-24 09:00,ZGOW 240900Z AUTO 07002KT 6SM 17/12 A3012 RMK SLP200 T01660120 57005 IEM_DS3505
ZGOW,2010-01-24 10:00,ZGOW 241000Z AUTO 10002KT 3SM 16/14 A3015 RMK T01600140 IEM_DS3505
ZGOW,2010-01-24 11:00,ZGOW 241100Z AUTO 07006KT 2 1/2SM 15/14 A3015 RMK T01500140 IEM_DS3505
ZGOW,2010-01-24 12:00,ZGOW 241200Z AUTO 09002KT 5SM 16/12 A3018 RMK SLP215 T01550121 52015 IEM_DS3505
ZGOW,2010-01-24 13:00,ZGOW 241300Z AUTO 06002KT 2 1/2SM 14/14 A3018 RMK T01400140 IEM_DS3505
ZGOW,2010-01-24 14:00,ZGOW 241400Z AUTO 06004KT 2 1/2SM 15/14 A3015 RMK T01500140 IEM_DS3505
ZGOW,2010-01-24 15:00,ZGOW 241500Z AUTO 00000KT 4SM 16/13 A3018 RMK SLP214 T01550126 57001 IEM_DS3505
ZGOW,2010-01-24 16:00,ZGOW 241600Z AUTO 08002KT 2 1/2SM 15/14 A3015 RMK T01500140 IEM_DS3505
ZGOW,2010-01-24 17:00,ZGOW 241700Z AUTO 10002KT 2 1/2SM 15/14 A3015 RMK T01500140 IEM_DS3505
ZGOW,2010-01-24 18:00,ZGOW 241800Z AUTO 04002KT 4SM 16/13 A3012 RMK SLP202 T01550128 57012 IEM_DS3505
ZGOW,2010-01-24 19:00,ZGOW 241900Z AUTO 02002KT 1 1/4SM 15/14 A3012 RMK T01500140 IEM_DS3505
ZGOW,2010-01-24 20:00,ZGOW 242000Z AUTO 00000KT 1SM 15/14 A3012 RMK T01500140 IEM_DS3505
ZGOW,2010-01-24 21:00,ZGOW 242100Z AUTO 27002KT 4SM 15/13 A3012 RMK SLP203 T01490129 52001 IEM_DS3505
ZGOW,2010-01-24 22:00,ZGOW 242200Z AUTO 02002KT 1 1/4SM 15/14 A3015 RMK T01500140 IEM_DS3505
ZGOW,2010-01-24 23:00,ZGOW 242300Z AUTO 00000KT 1 1/4SM 15/14 A3018 RMK T01500140 IEM_DS3505
ZGOW,2010-01-25 00:00,ZGOW 250000Z AUTO 00000KT 4SM 16/14 A3018 RMK SLP222 T01600135 52019 IEM_DS3505
ZGOW,2010-01-25 01:00,ZGOW 250100Z AUTO 00000KT 1 1/4SM 16/15 A3021 RMK T01600150 IEM_DS3505
ZGOW,2010-01-25 02:00,ZGOW 250200Z AUTO 34004KT 2 1/2SM 18/16 A3021 RMK T01800160 IEM_DS3505
ZGOW,2010-01-25 03:00,ZGOW 250300Z AUTO 27004KT 4SM 18/14 A3021 RMK SLP230 T01820143 52008 IEM_DS3505
ZGOW,2010-01-25 04:00,ZGOW 250400Z AUTO 34006KT 2 1/2SM 20/17 A3018 RMK T02000170 IEM_DS3505
ZGOW,2010-01-25 05:00,ZGOW 250500Z AUTO 34006KT 3SM 22/18 A3015 RMK T02200180 IEM_DS3505
ZGOW,2010-01-25 06:00,ZGOW 250600Z AUTO 29004KT 5SM 23/16 A3012 RMK SLP196 T02290157 57034 IEM_DS3505
ZGOW,2010-01-25 07:00,ZGOW 250700Z AUTO 03002KT 6SM 24/18 A3009 RMK T02400180 IEM_DS3505
ZGOW,2010-01-25 08:00,ZGOW 250800Z AUTO 11008KT 2 1/2SM 18/16 A3012 RMK T01800160 IEM_DS3505
ZGOW,2010-01-25 09:00,ZGOW 250900Z AUTO 07006KT 5SM 18/15 A3015 RMK SLP206 T01820147 52010 IEM_DS3505
ZGOW,2010-01-25 10:00,ZGOW 251000Z AUTO 07016G27KT 2 1/2SM 16/15 A3018 RMK T01600150 IEM_DS3505
ZGOW,2010-01-25 11:00,ZGOW 251100Z AUTO 08017G27KT 4SM 16/15 A3021 RMK T01600150 IEM_DS3505
ZGOW,2010-01-25 12:00,ZGOW 251200Z AUTO 07010KT 4SM 16/13 A3021 RMK SLP233 T01580129 52027 IEM_DS3505
ZGOW,2010-01-25 13:00,ZGOW 251300Z AUTO 07021G31KT 5SM 15/13 A3024 RMK T01500130 IEM_DS3505
ZGOW,2010-01-25 14:00,ZGOW 251400Z AUTO 07019KT 7SM 15/13 A3024 RMK T01500130 IEM_DS3505
ZGOW,2010-01-25 15:00,ZGOW 251500Z AUTO 07012G31KT 5SM 14/10 A3027 RMK SLP244 T01440104 52011 IEM_DS3505
ZGOW,2010-01-25 16:00,ZGOW 251600Z AUTO 08019G29KT 7SM 14/11 A3024 RMK T01400110 IEM_DS3505
ZGOW,2010-01-25 17:00,ZGOW 251700Z AUTO 06019G29KT 7SM 14/12 A3024 RMK T01400120 IEM_DS3505
ZGOW,2010-01-25 18:00,ZGOW 251800Z AUTO 07006KT 5SM 14/10 A3024 RMK 60000 SLP240 T01370101 57004 IEM_DS3505
ZGOW,2010-01-25 19:00,ZGOW 251900Z AUTO 06014KT 2SM 13/11 A3024 RMK T01300110 IEM_DS3505
ZGOW,2010-01-25 20:00,ZGOW 252000Z AUTO 06010KT 2SM 13/11 A3024 RMK T01300110 IEM_DS3505
ZGOW,2010-01-25 21:00,ZGOW 252100Z AUTO 07008KT 7SM 14/09 A3027 RMK 70000 SLP244 T01360091 52004 IEM_DS3505
ZGOW,2010-01-25 22:00,ZGOW 252200Z AUTO 07012KT 4SM 13/10 A3030 RMK T01300100 IEM_DS3505
ZGOW,2010-01-25 23:00,ZGOW 252300Z AUTO 08010KT 3SM 13/09 A3030 RMK T01300090 IEM_DS3505
ZGOW,2010-01-26 00:00,ZGOW 260000Z AUTO 09008KT 9SM 14/06 A3033 RMK 70000 SLP266 T01380057 52022 IEM_DS3505
ZGOW,2010-01-26 01:00,ZGOW 260100Z AUTO 06014KT 4SM 14/07 A3036 RMK T01400070 IEM_DS3505
ZGOW,2010-01-26 02:00,ZGOW 260200Z AUTO 06012KT 7SM 14/08 A3036 RMK T01400080 IEM_DS3505
ZGOW,2010-01-26 03:00,ZGOW 260300Z AUTO 07004KT 7SM 15/07 A3036 RMK SLP273 T01460067 52007 IEM_DS3505
ZGOW,2010-01-26 04:00,ZGOW 260400Z AUTO 07012KT 7SM 15/09 A3030 RMK T01500090 IEM_DS3505
ZGOW,2010-01-26 05:00,ZGOW 260500Z AUTO 07010KT 4SM 15/10 A3030 RMK T01500100 IEM_DS3505
ZGOW,2010-01-26 06:00,ZGOW 260600Z AUTO 07004KT 7SM 15/08 A3027 RMK SLP244 T01460083 57029 IEM_DS3505
ZGOW,2010-01-26 07:00,ZGOW 260700Z AUTO 07010KT 4SM 16/10 A3024 RMK T01600100 IEM_DS3505
ZGOW,2010-01-26 08:00,ZGOW 260800Z AUTO 08010KT 4SM 15/10 A3024 RMK T01500100 IEM_DS3505
ZGOW,2010-01-26 09:00,ZGOW 260900Z AUTO 07006KT 7SM 15/08 A3024 RMK SLP235 T01520082 57009 IEM_DS3505
ZGOW,2010-01-26 10:00,ZGOW 261000Z AUTO 07008KT 4SM 14/11 A3021 RMK T01400110 IEM_DS3505
ZGOW,2010-01-26 11:00,ZGOW 261100Z AUTO 07010KT 4SM 14/11 A3024 RMK T01400110 IEM_DS3505
ZGOW,2010-01-26 12:00,ZGOW 261200Z AUTO 07006KT 6SM 15/09 A3024 RMK SLP241 T01470091 52006 IEM_DS3505
ZGOW,2010-01-26 13:00,ZGOW 261300Z AUTO 09008KT 6SM 14/11 A3024 RMK T01400110 IEM_DS3505
ZGOW,2010-01-26 14:00,ZGOW 261400Z AUTO 09008KT 6SM 14/10 A3027 RMK T01400100 IEM_DS3505
ZGOW,2010-01-26 15:00,ZGOW 261500Z AUTO 11006KT 6SM 14/10 A3027 RMK SLP247 T01430095 52006 IEM_DS3505
ZGOW,2010-01-26 16:00,ZGOW 261600Z AUTO 10006KT 7SM 13/11 A3027 RMK T01300110 IEM_DS3505
ZGOW,2010-01-26 17:00,ZGOW 261700Z AUTO 07010KT 7SM 14/11 A3024 RMK T01400110 IEM_DS3505
ZGOW,2010-01-26 18:00,ZGOW 261800Z AUTO 07006KT 6SM 14/10 A3021 RMK SLP232 T01390099 57015 IEM_DS3505
ZGOW,2010-01-26 19:00,ZGOW 261900Z AUTO 04012KT 3SM 14/11 A3018 RMK T01400110 IEM_DS3505
ZGOW,2010-01-26 20:00,ZGOW 262000Z AUTO 07006KT 3SM 14/11 A3018 RMK T01400110 IEM_DS3505
ZGOW,2010-01-26 21:00,ZGOW 262100Z AUTO 07004KT 6SM 14/10 A3018 RMK 70000 SLP219 T01390101 57013 IEM_DS3505
ZGOW,2010-01-26 22:00,ZGOW 262200Z AUTO 04004KT 4SM 14/12 A3018 RMK T01400120 IEM_DS3505
ZGOW,2010-01-26 23:00,ZGOW 262300Z AUTO 05004KT 3SM 14/12 A3018 RMK T01400120 IEM_DS3505
ZGOW,2010-01-27 00:00,ZGOW 270000Z AUTO 09002KT 6SM 14/10 A3018 RMK 70000 SLP223 T01440104 52004 IEM_DS3505
ZGOW,2010-01-27 01:00,ZGOW 270100Z AUTO 04006KT 4SM 16/12 A3021 RMK T01600120 IEM_DS3505
ZGOW,2010-01-27 02:00,ZGOW 270200Z AUTO 06010KT 5SM 16/13 A3021 RMK T01600130 IEM_DS3505
ZGOW,2010-01-27 03:00,ZGOW 270300Z AUTO 07006KT 7SM 17/11 A3018 RMK SLP222 T01720110 57001 IEM_DS3505
ZGOW,2010-01-27 04:00,ZGOW 270400Z AUTO 04006KT 7SM 17/13 A3015 RMK T01700130 IEM_DS3505
ZGOW,2010-01-27 05:00,ZGOW 270500Z AUTO 07006KT 7SM 18/13 A3012 RMK T01800130 IEM_DS3505
ZGOW,2010-01-27 06:00,ZGOW 270600Z AUTO 04002KT 7SM 18/12 A3009 RMK SLP186 T01840115 57036 IEM_DS3505
ZGOW,2010-01-27 07:00,ZGOW 270700Z AUTO 08004KT 7SM 18/14 A3006 RMK T01800140 IEM_DS3505
ZGOW,2010-01-27 08:00,ZGOW 270800Z AUTO 06004KT 7SM 18/14 A3006 RMK T01800140 IEM_DS3505
ZGOW,2010-01-27 09:00,ZGOW 270900Z AUTO 07002KT 6SM 18/12 A3006 RMK SLP179 T01820118 57007 IEM_DS3505
ZGOW,2010-01-27 10:00,ZGOW 271000Z AUTO 05004KT 4SM 17/14 A3009 RMK T01700140 IEM_DS3505
ZGOW,2010-01-27 11:00,ZGOW 271100Z AUTO 00000KT 3SM 17/14 A3009 RMK T01700140 IEM_DS3505
ZGOW,2010-01-27 12:00,ZGOW 271200Z AUTO 00000KT 5SM 18/12 A3009 RMK SLP191 T01780123 52012 IEM_DS3505
ZGOW,2010-01-27 13:00,ZGOW 271300Z AUTO 00000KT 3SM 17/15 A3012 RMK T01700150 IEM_DS3505
ZGOW,2010-01-27 14:00,ZGOW 271400Z AUTO 00000KT 2 1/2SM 17/15 A3009 RMK T01700150 IEM_DS3505
ZGOW,2010-01-27 15:00,ZGOW 271500Z AUTO 00000KT 5SM 18/14 A3009 RMK SLP191 T01750140 54000 IEM_DS3505
ZGOW,2010-01-27 16:00,ZGOW 271600Z AUTO 00000KT 2 1/2SM 16/15 A3009 RMK T01600150 IEM_DS3505
ZGOW,2010-01-27 17:00,ZGOW 271700Z AUTO 00000KT 1 1/2SM 17/15 A3009 RMK T01700150 IEM_DS3505
ZGOW,2010-01-27 18:00,ZGOW 271800Z AUTO 00000KT 4SM 17/14 A3009 RMK SLP183 T01730142 57008 IEM_DS3505
ZGOW,2010-01-27 19:00,ZGOW 271900Z AUTO 00000KT 1SM 17/16 A3006 RMK T01700160 IEM_DS3505
ZGOW,2010-01-27 20:00,ZGOW 272000Z AUTO 32006KT 1SM 17/15 A3006 RMK T01700150 IEM_DS3505
ZGOW,2010-01-27 21:00,ZGOW 272100Z AUTO 00000KT 2 1/2SM 17/14 A3003 RMK SLP173 T01720143 57010 IEM_DS3505
ZGOW,2010-01-27 22:00,ZGOW 272200Z AUTO 00000KT 1SM 17/16 A3006 RMK T01700160 IEM_DS3505
ZGOW,2010-01-27 23:00,ZGOW 272300Z AUTO 28002KT 1SM 17/16 A3006 RMK T01700160 IEM_DS3505
ZGOW,2010-01-28 00:00,ZGOW 280000Z AUTO 00000KT 1SM 17/15 A3006 RMK SLP180 T01730148 52007 IEM_DS3505
ZGOW,2010-01-28 01:00,ZGOW 280100Z AUTO 30002KT 1SM 19/17 A3009 RMK T01900170 IEM_DS3505
ZGOW,2010-01-28 02:00,ZGOW 280200Z AUTO 29002KT 1SM 20/17 A3009 RMK T02000170 IEM_DS3505
ZGOW,2010-01-28 03:00,ZGOW 280300Z AUTO 29002KT 2 1/2SM 21/17 A3009 RMK SLP191 T02120170 52011 IEM_DS3505
ZGOW,2010-01-28 04:00,ZGOW 280400Z AUTO 34004KT 2 1/2SM 24/20 A3006 RMK T02400200 IEM_DS3505
ZGOW,2010-01-28 05:00,ZGOW 280500Z AUTO 31004KT 3SM 25/20 A3003 RMK T02500200 IEM_DS3505
ZGOW,2010-01-28 06:00,ZGOW 280600Z AUTO 25004KT 6SM 24/18 A3000 RMK SLP159 T02440183 57032 IEM_DS3505
ZGOW,2010-01-28 07:00,ZGOW 280700Z AUTO 10004KT 1 1/2SM 25/20 A2997 RMK T02500200 IEM_DS3505
ZGOW,2010-01-28 08:00,ZGOW 280800Z AUTO 16006KT 2SM 23/20 A2997 RMK T02300200 IEM_DS3505
ZGOW,2010-01-28 09:00,ZGOW 280900Z AUTO 14002KT 7SM 24/18 A3000 RMK SLP155 T02410178 57004 IEM_DS3505
ZGOW,2010-01-28 10:00,ZGOW 281000Z AUTO 13006KT 1 1/4SM 20/19 A3003 RMK T02000190 IEM_DS3505
ZGOW,2010-01-28 11:00,ZGOW 281100Z AUTO 10004KT 1SM 19/18 A3003 RMK T01900180 IEM_DS3505
ZGOW,2010-01-28 12:00,ZGOW 281200Z AUTO 11006KT 4SM 19/17 A3006 RMK SLP178 T01920172 52023 IEM_DS3505
ZGOW,2010-01-28 13:00,ZGOW 281300Z AUTO 07006KT 1SM 17/17 A3009 RMK T01700170 IEM_DS3505
ZGOW,2010-01-28 14:00,ZGOW 281400Z AUTO 07012KT 1 1/2SM 16/16 A3009 RMK T01600160 IEM_DS3505
ZGOW,2010-01-28 15:00,ZGOW 281500Z AUTO 04004KT 1 1/4SM 16/15 A3012 RMK SLP196 T01650147 52018 IEM_DS3505
ZGOW,2010-01-28 16:00,ZGOW 281600Z AUTO 08016KT 2 1/2SM 15/15 A3012 RMK T01500150 IEM_DS3505
ZGOW,2010-01-28 17:00,ZGOW 281700Z AUTO 08014KT 3SM 15/15 A3012 RMK T01500150 IEM_DS3505
ZGOW,2010-01-28 18:00,ZGOW 281800Z AUTO 07006KT 5SM 16/14 A3012 RMK SLP199 T01610138 52003 IEM_DS3505
ZGOW,2010-01-28 19:00,ZGOW 281900Z AUTO 08012KT 2SM 15/15 A3012 RMK T01500150 IEM_DS3505
ZGOW,2010-01-28 20:00,ZGOW 282000Z AUTO 08012KT 2SM 16/14 A3012 RMK T01600140 IEM_DS3505
ZGOW,2010-01-28 21:00,ZGOW 282100Z AUTO 09006KT 6SM 16/13 A3012 RMK SLP201 T01620131 52002 IEM_DS3505
ZGOW,2010-01-28 22:00,ZGOW 282200Z AUTO 07010KT 2 1/2SM 16/15 A3015 RMK T01600150 IEM_DS3505
ZGOW,2010-01-28 23:00,ZGOW 282300Z AUTO 09008KT 3SM 16/14 A3015 RMK T01600140 IEM_DS3505
ZGOW,2010-01-29 00:00,ZGOW 290000Z AUTO 09006KT 7SM 17/13 A3018 RMK SLP218 T01670128 52017 IEM_DS3505
ZGOW,2010-01-29 01:00,ZGOW 290100Z AUTO 08012KT 4SM 17/15 A3021 RMK T01700150 IEM_DS3505
ZGOW,2010-01-29 02:00,ZGOW 290200Z AUTO 07012KT 4SM 18/14 A3024 RMK T01800140 IEM_DS3505
ZGOW,2010-01-29 03:00,ZGOW 290300Z AUTO 11006KT 6SM 19/13 A3021 RMK SLP228 T01900130 52010 IEM_DS3505
ZGOW,2010-01-29 04:00,ZGOW 290400Z AUTO 09012KT 4SM 20/15 A3018 RMK T02000150 IEM_DS3505
ZGOW,2010-01-29 05:00,ZGOW 290500Z AUTO 13008KT 3SM 20/15 A3015 RMK T02000150 IEM_DS3505
ZGOW,2010-01-29 06:00,ZGOW 290600Z AUTO 09006KT 7SM 20/13 A3012 RMK SLP191 T01990129 57037 IEM_DS3505
ZGOW,2010-01-29 07:00,ZGOW 290700Z AUTO 12006KT 2 1/2SM 21/16 A3009 RMK T02100160 IEM_DS3505
ZGOW,2010-01-29 08:00,ZGOW 290800Z AUTO 13008KT 2SM 19/15 A3009 RMK T01900150 IEM_DS3505
ZGOW,2010-01-29 09:00,ZGOW 290900Z AUTO 11004KT 6SM 19/12 A3009 RMK SLP187 T01890124 57004 IEM_DS3505
ZGOW,2010-01-29 10:00,ZGOW 291000Z AUTO 09006KT 1 1/2SM 18/14 A3009 RMK T01800140 IEM_DS3505
ZGOW,2010-01-29 11:00,ZGOW 291100Z AUTO 09006KT 1 1/2SM 17/14 A3012 RMK T01700140 IEM_DS3505
ZGOW,2010-01-29 12:00,ZGOW 291200Z AUTO 14004KT 4SM 17/13 A3012 RMK SLP201 T01710130 52014 IEM_DS3505
ZGOW,2010-01-29 13:00,ZGOW 291300Z AUTO 12004KT 1 1/2SM 16/15 A3012 RMK T01600150 IEM_DS3505
ZGOW,2010-01-29 14:00,ZGOW 291400Z AUTO 14004KT 1 1/2SM 16/15 A3015 RMK T01600150 IEM_DS3505
ZGOW,2010-01-29 15:00,ZGOW 291500Z AUTO 11004KT 4SM 16/13 A3015 RMK SLP207 T01650132 52006 IEM_DS3505
ZGOW,2010-01-29 16:00,ZGOW 291600Z AUTO 07014KT 1 1/2SM 16/14 A3015 RMK T01600140 IEM_DS3505
ZGOW,2010-01-29 17:00,ZGOW 291700Z AUTO 08014KT 1 1/2SM 16/14 A3015 RMK T01600140 IEM_DS3505
ZGOW,2010-01-29 18:00,ZGOW 291800Z AUTO 09004KT 5SM 16/13 A3012 RMK SLP202 T01620129 57005 IEM_DS3505
ZGOW,2010-01-29 19:00,ZGOW 291900Z AUTO 07012KT 1SM 15/14 A3012 RMK T01500140 IEM_DS3505
ZGOW,2010-01-29 20:00,ZGOW 292000Z AUTO 06008KT 1 1/4SM 16/15 A3012 RMK T01600150 IEM_DS3505
ZGOW,2010-01-29 21:00,ZGOW 292100Z AUTO 07006KT 4SM 16/13 A3012 RMK SLP196 T01620127 57006 IEM_DS3505
ZGOW,2010-01-29 22:00,ZGOW 292200Z AUTO 05014KT 2 1/2SM 16/14 A3012 RMK T01600140 IEM_DS3505
ZGOW,2010-01-29 23:00,ZGOW 292300Z AUTO 03006KT 2SM 16/14 A3015 RMK T01600140 IEM_DS3505
ZGOW,2010-01-30 00:00,ZGOW 300000Z AUTO 07004KT 4SM 17/13 A3018 RMK SLP215 T01660129 52019 IEM_DS3505
ZGOW,2010-01-30 01:00,ZGOW 300100Z AUTO 05008KT 2 1/2SM 18/15 A3018 RMK T01800150 IEM_DS3505
ZGOW,2010-01-30 02:00,ZGOW 300200Z AUTO 07006KT 3SM 19/15 A3018 RMK T01900150 IEM_DS3505
ZGOW,2010-01-30 03:00,ZGOW 300300Z AUTO 07004KT 5SM 20/14 A3015 RMK SLP209 T02000135 57006 IEM_DS3505
ZGOW,2010-01-30 04:00,ZGOW 300400Z AUTO 08006KT 4SM 21/16 A3009 RMK T02100160 IEM_DS3505
ZGOW,2010-01-30 05:00,ZGOW 300500Z AUTO 08006KT 3SM 21/16 A3006 RMK T02100160 IEM_DS3505
ZGOW,2010-01-30 06:00,ZGOW 300600Z AUTO 14006KT 5SM 22/14 A3003 RMK SLP167 T02170141 57042 IEM_DS3505
ZGOW,2010-01-30 07:00,ZGOW 300700Z AUTO 12008KT 3SM 20/16 A3003 RMK T02000160 IEM_DS3505
ZGOW,2010-01-30 08:00,ZGOW 300800Z AUTO 13004KT 3SM 20/15 A3003 RMK T02000150 IEM_DS3505
ZGOW,2010-01-30 09:00,ZGOW 300900Z AUTO 11006KT 5SM 19/13 A3003 RMK SLP165 T01900134 57002 IEM_DS3505
ZGOW,2010-01-30 10:00,ZGOW 301000Z AUTO 13006KT 1 1/2SM 17/15 A3003 RMK T01700150 IEM_DS3505
ZGOW,2010-01-30 11:00,ZGOW 301100Z AUTO 14004KT 1 1/2SM 16/15 A3003 RMK T01600150 IEM_DS3505
ZGOW,2010-01-30 12:00,ZGOW 301200Z AUTO 14002KT 4SM 17/14 A3006 RMK SLP178 T01690138 52013 IEM_DS3505
ZGOW,2010-01-30 13:00,ZGOW 301300Z AUTO 14004KT 2SM 16/15 A3006 RMK T01600150 IEM_DS3505
ZGOW,2010-01-30 14:00,ZGOW 301400Z AUTO 15002KT 2SM 16/15 A3006 RMK T01600150 IEM_DS3505
ZGOW,2010-01-30 15:00,ZGOW 301500Z AUTO 09002KT 4SM 16/14 A3009 RMK SLP185 T01650140 52007 IEM_DS3505
ZGOW,2010-01-30 16:00,ZGOW 301600Z AUTO 02004KT 1 1/4SM 14/14 A3009 RMK T01400140 IEM_DS3505
ZGOW,2010-01-30 17:00,ZGOW 301700Z AUTO 04002KT 1 1/4SM 15/14 A3006 RMK T01500140 IEM_DS3505
ZGOW,2010-01-30 18:00,ZGOW 301800Z AUTO 00000KT 4SM 14/13 A3006 RMK SLP178 T01440130 57007 IEM_DS3505
ZGOW,2010-01-30 19:00,ZGOW 301900Z AUTO 00000KT 1 1/4SM 15/15 A3006 RMK T01500150 IEM_DS3505
ZGOW,2010-01-30 20:00,ZGOW 302000Z AUTO 00000KT 1 1/4SM 16/15 A3006 RMK T01600150 IEM_DS3505
ZGOW,2010-01-30 21:00,ZGOW 302100Z AUTO 00000KT 4SM 16/14 A3006 RMK SLP181 T01620140 52003 IEM_DS3505
ZGOW,2010-01-30 22:00,ZGOW 302200Z AUTO 34004KT 1SM 16/16 A3009 RMK T01600160 IEM_DS3505
ZGOW,2010-01-30 23:00,ZGOW 302300Z AUTO 33006KT 1SM 16/16 A3006 RMK T01600160 IEM_DS3505
ZGOW,2010-01-31 00:00,ZGOW 310000Z AUTO 00000KT 2SM 17/15 A3009 RMK SLP190 T01710146 52009 IEM_DS3505
ZGOW,2010-01-31 01:00,ZGOW 310100Z AUTO 31006KT 1 1/4SM 18/16 A3009 RMK T01800160 IEM_DS3505
ZGOW,2010-01-31 02:00,ZGOW 310200Z AUTO 30004KT 1 1/2SM 20/17 A3009 RMK T02000170 IEM_DS3505
ZGOW,2010-01-31 03:00,ZGOW 310300Z AUTO 16002KT 2SM 23/17 A3006 RMK SLP179 T02290169 57011 IEM_DS3505
ZGOW,2010-01-31 04:00,ZGOW 310400Z AUTO 03002KT 2 1/2SM 26/19 A3003 RMK T02600190 IEM_DS3505
ZGOW,2010-01-31 05:00,ZGOW 310500Z AUTO 16008KT 2SM 25/19 A3000 RMK T02500190 IEM_DS3505
ZGOW,2010-01-31 06:00,ZGOW 310600Z AUTO 14006KT 4SM 26/17 A2997 RMK SLP150 T02550172 57029 IEM_DS3505
ZGOW,2010-01-31 07:00,ZGOW 310700Z AUTO 15008KT 2SM 25/20 A2997 RMK T02500200 IEM_DS3505
ZGOW,2010-01-31 08:00,ZGOW 310800Z AUTO 15008KT 1 1/2SM 23/19 A2997 RMK T02300190 IEM_DS3505
ZGOW,2010-01-31 09:00,ZGOW 310900Z AUTO 14006KT 7SM 23/18 A2997 RMK SLP143 T02310178 57007 IEM_DS3505
ZGOW,2010-01-31 10:00,ZGOW 311000Z AUTO 15006KT 1 1/4SM 20/17 A2997 RMK T02000170 IEM_DS3505
ZGOW,2010-01-31 11:00,ZGOW 311100Z AUTO 15006KT 2SM 19/18 A2997 RMK T01900180 IEM_DS3505
ZGOW,2010-01-31 12:00,ZGOW 311200Z AUTO 14004KT 6SM 20/16 A3000 RMK SLP153 T01990165 52010 IEM_DS3505
ZGOW,2010-01-31 13:00,ZGOW 311300Z AUTO 13004KT 1 1/2SM 18/17 A3000 RMK T01800170 IEM_DS3505
ZGOW,2010-01-31 14:00,ZGOW 311400Z AUTO 15004KT 1 1/2SM 18/18 A3000 RMK T01800180 IEM_DS3505
ZGOW,2010-01-31 15:00,ZGOW 311500Z AUTO 00000KT 5SM 19/17 A3000 RMK SLP157 T01880169 52004 IEM_DS3505
ZGOW,2010-01-31 16:00,ZGOW 311600Z AUTO 00000KT 1SM 17/17 A2997 RMK T01700170 IEM_DS3505
ZGOW,2010-01-31 17:00,ZGOW 311700Z AUTO 04002KT 1SM 17/17 A3000 RMK T01700170 IEM_DS3505
ZGOW,2010-01-31 18:00,ZGOW 311800Z AUTO 04002KT 1 1/4SM 18/16 RMK SLP156 T01810164 57001 IEM_DS3505
ZGOW,2010-01-31 19:00,ZGOW 311900Z AUTO 00000KT 1/2SM 17/17 A2997 RMK T01700170 IEM_DS3505
ZGOW,2010-01-31 21:00,ZGOW 312100Z AUTO 00000KT 1SM 18/17 RMK SLP154 T01760168 57002 IEM_DS3505
ZGOW,2010-01-31 22:00,ZGOW 312200Z AUTO 00000KT 1SM 16/16 A3000 RMK T01600160 IEM_DS3505
ZGOW,2010-01-31 23:00,ZGOW 312300Z AUTO 00000KT 1/2SM 16/16 A3000 RMK T01600160 IEM_DS3505
ZGOW,2010-02-01 00:00,ZGOW 010000Z AUTO 00000KT 1SM 18/17 A3003 RMK SLP165 T01760170 52011 IEM_DS3505
ZGOW,2010-02-01 01:00,ZGOW 010100Z AUTO 28002KT 1SM 19/19 A3003 RMK T01900190 IEM_DS3505
ZGOW,2010-02-01 02:00,ZGOW 010200Z AUTO 30006KT 1SM 22/20 A3003 RMK T02200200 IEM_DS3505
ZGOW,2010-02-01 03:00,ZGOW 010300Z AUTO 25002KT 4SM 23/18 A3000 RMK SLP160 T02300179 57005 IEM_DS3505
ZGOW,2010-02-01 04:00,ZGOW 010400Z AUTO 30002KT 2SM 26/20 A2997 RMK T02600200 IEM_DS3505
ZGOW,2010-02-01 05:00,ZGOW 010500Z AUTO 32004KT 2 1/2SM 27/20 A2994 RMK T02700200 IEM_DS3505
ZGOW,2010-02-01 06:00,ZGOW 010600Z AUTO 25004KT 5SM 28/15 A2991 RMK SLP129 T02770147 57031 IEM_DS3505
ZGOW,2010-02-01 07:00,ZGOW 010700Z AUTO 26004KT 4SM 28/18 A2991 RMK T02800180 IEM_DS3505
ZGOW,2010-02-01 08:00,ZGOW 010800Z AUTO 19008KT 4SM 27/20 A2991 RMK T02700200 IEM_DS3505
ZGOW,2010-02-01 09:00,ZGOW 010900Z AUTO 14002KT 5SM 25/16 A2991 RMK SLP131 T02500162 52002 IEM_DS3505
ZGOW,2010-02-01 10:00,ZGOW 011000Z AUTO 19006KT 4SM 24/20 A2994 RMK T02400200 IEM_DS3505
ZGOW,2010-02-01 11:00,ZGOW 011100Z AUTO 17004KT 4SM 22/20 A2994 RMK T02200200 IEM_DS3505
ZGOW,2010-02-01 12:00,ZGOW 011200Z AUTO 00000KT 5SM 21/17 A2997 RMK SLP145 T02140174 52014 IEM_DS3505
ZGOW,2010-02-01 13:00,ZGOW 011300Z AUTO 06010KT 3SM 19/18 A3000 RMK T01900180 IEM_DS3505
ZGOW,2010-02-01 14:00,ZGOW 011400Z AUTO 08010KT 2SM 17/17 A3000 RMK T01700170 IEM_DS3505
ZGOW,2010-02-01 15:00,ZGOW 011500Z AUTO 07008KT 4SM 17/15 A3000 RMK SLP163 T01720154 52018 IEM_DS3505
ZGOW,2010-02-01 16:00,ZGOW 011600Z AUTO 07016KT 1 1/2SM 16/16 A3003 RMK T01600160 IEM_DS3505
ZGOW,2010-02-01 17:00,ZGOW 011700Z AUTO 07017KT 1SM 16/15 A3003 RMK T01600150 IEM_DS3505
ZGOW,2010-02-01 18:00,ZGOW 011800Z AUTO 09006KT 4SM 16/14 A3003 RMK SLP168 T01610139 52005 IEM_DS3505
ZGOW,2010-02-01 19:00,ZGOW 011900Z AUTO 08016KT 1 1/4SM 15/15 A3003 RMK T01500150 IEM_DS3505
ZGOW,2010-02-01 20:00,ZGOW 012000Z AUTO 08014KT 1 1/4SM 15/14 A3003 RMK T01500140 IEM_DS3505
ZGOW,2010-02-01 21:00,ZGOW 012100Z AUTO 07010G25KT 4SM 15/13 A3003 RMK SLP170 T01530130 52002 IEM_DS3505
ZGOW,2010-02-01 22:00,ZGOW 012200Z AUTO 07016G25KT 3SM 15/14 A3006 RMK T01500140 IEM_DS3505
ZGOW,2010-02-01 23:00,ZGOW 012300Z AUTO 07017KT 2 1/2SM 15/14 A3006 RMK T01500140 IEM_DS3505
ZGOW,2010-02-02 00:00,ZGOW 020000Z AUTO 07010KT 4SM 16/12 A3006 RMK SLP182 T01550119 52012 IEM_DS3505
ZGOW,2010-02-02 01:00,ZGOW 020100Z AUTO 07017KT 3SM 16/13 A3009 RMK T01600130 IEM_DS3505
ZGOW,2010-02-02 02:00,ZGOW 020200Z AUTO 07017KT 3SM 16/13 A3009 RMK T01600130 IEM_DS3505
ZGOW,2010-02-02 03:00,ZGOW 020300Z AUTO 09008KT 4SM 17/12 A3009 RMK SLP186 T01710118 52004 IEM_DS3505
ZGOW,2010-02-02 04:00,ZGOW 020400Z AUTO 06014KT 4SM 18/14 A3006 RMK T01800140 IEM_DS3505
ZGOW,2010-02-02 05:00,ZGOW 020500Z AUTO 07010KT 4SM 17/14 A3003 RMK T01700140 IEM_DS3505
ZGOW,2010-02-02 06:00,ZGOW 020600Z AUTO 07006KT 5SM 18/12 A3000 RMK SLP161 T01850123 57025 IEM_DS3505
ZGOW,2010-02-02 07:00,ZGOW 020700Z AUTO 08006KT 4SM 18/14 A3000 RMK T01800140 IEM_DS3505
ZGOW,2010-02-02 08:00,ZGOW 020800Z AUTO 13006KT 3SM 18/15 A3000 RMK T01800150 IEM_DS3505
ZGOW,2010-02-02 09:00,ZGOW 020900Z AUTO 14002KT 5SM 17/13 A3003 RMK SLP163 T01720131 52002 IEM_DS3505
ZGOW,2010-02-02 10:00,ZGOW 021000Z AUTO 09002KT 2 1/2SM 17/14 A3003 RMK T01700140 IEM_DS3505
ZGOW,2010-02-02 11:00,ZGOW 021100Z AUTO 04006KT 2 1/2SM 15/14 A3006 RMK T01500140 IEM_DS3505
ZGOW,2010-02-02 12:00,ZGOW 021200Z AUTO 11002KT 4SM 16/13 A3003 RMK SLP172 T01650128 52009 IEM_DS3505
ZGOW,2010-02-02 13:00,ZGOW 021300Z AUTO 07006KT 2 1/2SM 15/14 A3006 RMK T01500140 IEM_DS3505
ZGOW,2010-02-02 14:00,ZGOW 021400Z AUTO 04008KT 2 1/2SM 15/14 A3006 RMK T01500140 IEM_DS3505
ZGOW,2010-02-02 15:00,ZGOW 021500Z AUTO 04004KT 4SM 16/12 A3003 RMK SLP174 T01580125 52002 IEM_DS3505
ZGOW,2010-02-02 16:00,ZGOW 021600Z AUTO 06008KT 2 1/2SM 15/14 A3006 RMK T01500140 IEM_DS3505
ZGOW,2010-02-02 17:00,ZGOW 021700Z AUTO 06010KT 2 1/2SM 15/14 A3006 RMK T01500140 IEM_DS3505
ZGOW,2010-02-02 18:00,ZGOW 021800Z AUTO 07004KT 3SM 15/12 A3006 RMK SLP172 T01530122 57002 IEM_DS3505
ZGOW,2010-02-02 19:00,ZGOW 021900Z AUTO 06008KT 2 1/2SM 15/14 A3003 RMK T01500140 IEM_DS3505
ZGOW,2010-02-02 20:00,ZGOW 022000Z AUTO 06008KT 2 1/2SM 15/14 A3003 RMK T01500140 IEM_DS3505
ZGOW,2010-02-02 21:00,ZGOW 022100Z AUTO 07004KT 4SM 15/13 A3006 RMK SLP173 T01530126 52001 IEM_DS3505
ZGOW,2010-02-02 22:00,ZGOW 022200Z AUTO 07010KT 2 1/2SM 15/14 A3006 RMK T01500140 IEM_DS3505
ZGOW,2010-02-02 23:00,ZGOW 022300Z AUTO 07012KT 2 1/2SM 15/14 A3009 RMK T01500140 IEM_DS3505
ZGOW,2010-02-03 00:00,ZGOW 030000Z AUTO 07004KT 5SM 16/13 A3009 RMK SLP189 T01550130 52016 IEM_DS3505
ZGOW,2010-02-03 01:00,ZGOW 030100Z AUTO 07016KT 2 1/2SM 15/14 A3009 RMK T01500140 IEM_DS3505
ZGOW,2010-02-03 02:00,ZGOW 030200Z AUTO 07016KT 3SM 15/14 A3012 RMK T01500140 IEM_DS3505
ZGOW,2010-02-03 03:00,ZGOW 030300Z AUTO 07006KT 5SM 15/13 A3012 RMK SLP199 T01510126 52010 IEM_DS3505
ZGOW,2010-02-03 04:00,ZGOW 030400Z AUTO 06016KT 7SM 15/13 A3012 RMK T01500130 IEM_DS3505
ZGOW,2010-02-03 05:00,ZGOW 030500Z AUTO 08016KT 7SM 15/13 A3006 RMK T01500130 IEM_DS3505
ZGOW,2010-02-03 06:00,ZGOW 030600Z AUTO 07006KT 5SM 16/12 A3003 RMK SLP173 T01580122 57026 IEM_DS3505
ZGOW,2010-02-03 07:00,ZGOW 030700Z AUTO 07016KT 6SM 16/14 A3003 RMK T01600140 IEM_DS3505
ZGOW,2010-02-03 08:00,ZGOW 030800Z AUTO 08012KT 6SM 16/14 A3003 RMK T01600140 IEM_DS3505
ZGOW,2010-02-03 09:00,ZGOW 030900Z AUTO 07004KT 6SM 16/12 A3006 RMK SLP174 T01600124 52001 IEM_DS3505
ZGOW,2010-02-03 10:00,ZGOW 031000Z AUTO 07008KT 7SM 15/13 A3009 RMK T01500130 IEM_DS3505
ZGOW,2010-02-03 11:00,ZGOW 031100Z AUTO 06012KT 7SM 15/13 A3009 RMK T01500130 IEM_DS3505
ZGOW,2010-02-03 12:00,ZGOW 031200Z AUTO 04004KT 4SM 15/12 A3012 RMK SLP198 T01510119 52024 IEM_DS3505
ZGOW,2010-02-03 13:00,ZGOW 031300Z AUTO 07014KT 7SM 14/13 A3012 RMK T01400130 IEM_DS3505
ZGOW,2010-02-03 14:00,ZGOW 031400Z AUTO 07014KT 7SM 14/13 A3015 RMK T01400130 IEM_DS3505
ZGOW,2010-02-03 15:00,ZGOW 031500Z AUTO 07006KT 4SM 14/12 A3012 RMK SLP204 T01430118 52006 IEM_DS3505
ZGOW,2010-02-03 16:00,ZGOW 031600Z AUTO 07014KT 7SM 14/13 A3012 RMK T01400130 IEM_DS3505
ZGOW,2010-02-03 17:00,ZGOW 031700Z AUTO 07012KT 7SM 14/13 A3012 RMK T01400130 IEM_DS3505
ZGOW,2010-02-03 18:00,ZGOW 031800Z AUTO 07008KT 4SM 14/12 A3012 RMK SLP200 T01430118 57004 IEM_DS3505
ZGOW,2010-02-03 19:00,ZGOW 031900Z AUTO 07012KT 7SM 14/13 A3012 RMK T01400130 IEM_DS3505
ZGOW,2010-02-03 20:00,ZGOW 032000Z AUTO 08010KT 4SM 14/13 A3009 RMK T01400130 IEM_DS3505
ZGOW,2010-02-03 21:00,ZGOW 032100Z AUTO 07004KT 5SM 14/12 A3009 RMK 70000 SLP188 T01430116 57012 IEM_DS3505
ZGOW,2010-02-03 22:00,ZGOW 032200Z AUTO 07012KT 4SM 14/13 A3012 RMK T01400130 IEM_DS3505
ZGOW,2010-02-03 23:00,ZGOW 032300Z AUTO 07012KT 4SM 14/13 A3012 RMK T01400130 IEM_DS3505
ZGOW,2010-02-04 00:00,ZGOW 040000Z AUTO 07008KT 6SM 14/11 A3015 RMK 70000 SLP205 T01440114 52017 IEM_DS3505
ZGOW,2010-02-04 01:00,ZGOW 040100Z AUTO 06016KT 7SM 15/13 A3015 RMK T01500130 IEM_DS3505
ZGOW,2010-02-04 02:00,ZGOW 040200Z AUTO 07014KT 7SM 15/13 A3015 RMK T01500130 IEM_DS3505
ZGOW,2010-02-04 03:00,ZGOW 040300Z AUTO 07006KT 7SM 15/12 A3015 RMK SLP208 T01510119 52003 IEM_DS3505
ZGOW,2010-02-04 04:00,ZGOW 040400Z AUTO 06012KT 7SM 15/14 A3012 RMK T01500140 IEM_DS3505
ZGOW,2010-02-04 05:00,ZGOW 040500Z AUTO 06014KT 7SM 15/13 A3009 RMK T01500130 IEM_DS3505
ZGOW,2010-02-04 06:00,ZGOW 040600Z AUTO 09004KT 7SM 16/12 A3006 RMK SLP179 T01600122 57029 IEM_DS3505
ZGOW,2010-02-04 07:00,ZGOW 040700Z AUTO 07010KT 7SM 16/14 A3006 RMK T01600140 IEM_DS3505
ZGOW,2010-02-04 08:00,ZGOW 040800Z AUTO 07008KT 7SM 16/14 A3006 RMK T01600140 IEM_DS3505
ZGOW,2010-02-04 09:00,ZGOW 040900Z AUTO 09004KT 7SM 16/12 A3006 RMK SLP176 T01560122 57003 IEM_DS3505
ZGOW,2010-02-04 10:00,ZGOW 041000Z AUTO 07006KT 7SM 15/14 A3006 RMK T01500140 IEM_DS3505
ZGOW,2010-02-04 11:00,ZGOW 041100Z AUTO 07008KT 7SM 15/13 A3009 RMK T01500130 IEM_DS3505
ZGOW,2010-02-04 12:00,ZGOW 041200Z AUTO 07006KT 5SM 15/12 A3012 RMK SLP195 T01540123 52019 IEM_DS3505
ZGOW,2010-02-04 13:00,ZGOW 041300Z AUTO 08012KT 7SM 15/13 A3012 RMK T01500130 IEM_DS3505
ZGOW,2010-02-04 14:00,ZGOW 041400Z AUTO 07012KT 7SM 15/13 A3012 RMK T01500130 IEM_DS3505
ZGOW,2010-02-04 15:00,ZGOW 041500Z AUTO 07004KT 5SM 15/12 A3012 RMK SLP198 T01480118 52003 IEM_DS3505
ZGOW,2010-02-04 16:00,ZGOW 041600Z AUTO 07012KT 7SM 14/13 A3012 RMK T01400130 IEM_DS3505
ZGOW,2010-02-04 17:00,ZGOW 041700Z AUTO 08008KT 7SM 14/13 A3012 RMK T01400130 IEM_DS3505
ZGOW,2010-02-04 18:00,ZGOW 041800Z AUTO 07004KT 5SM 14/12 A3012 RMK SLP194 T01440116 57004 IEM_DS3505
ZGOW,2010-02-04 19:00,ZGOW 041900Z AUTO 06010KT 3SM 14/13 A3012 RMK T01400130 IEM_DS3505
ZGOW,2010-02-04 20:00,ZGOW 042000Z AUTO 08008KT 3SM 14/13 A3009 RMK T01400130 IEM_DS3505
ZGOW,2010-02-04 21:00,ZGOW 042100Z AUTO 09006KT 5SM 14/12 A3009 RMK SLP189 T01400117 57005 IEM_DS3505
ZGOW,2010-02-04 22:00,ZGOW 042200Z AUTO 07010KT 4SM 14/13 A3012 RMK T01400130 IEM_DS3505
ZGOW,2010-02-04 23:00,ZGOW 042300Z AUTO 07010KT 5SM 14/13 A3012 RMK T01400130 IEM_DS3505
ZGOW,2010-02-05 00:00,ZGOW 050000Z AUTO 07006KT 5SM 14/12 A3015 RMK SLP205 T01420115 52016 IEM_DS3505
ZGOW,2010-02-05 01:00,ZGOW 050100Z AUTO 07014KT 7SM 15/13 A3015 RMK T01500130 IEM_DS3505
ZGOW,2010-02-05 02:00,ZGOW 050200Z AUTO 06014KT 7SM 15/13 A3018 RMK T01500130 IEM_DS3505
ZGOW,2010-02-05 03:00,ZGOW 050300Z AUTO 07006KT 6SM 16/12 A3015 RMK SLP207 T01550115 52002 IEM_DS3505
ZGOW,2010-02-05 04:00,ZGOW 050400Z AUTO 08010KT 7SM 16/14 A3012 RMK T01600140 IEM_DS3505
ZGOW,2010-02-05 05:00,ZGOW 050500Z AUTO 08008KT 7SM 17/14 A3009 RMK T01700140 IEM_DS3505
ZGOW,2010-02-05 06:00,ZGOW 050600Z AUTO 09004KT 6SM 17/12 A3006 RMK SLP178 T01700119 57029 IEM_DS3505
ZGOW,2010-02-05 07:00,ZGOW 050700Z AUTO 09006KT 7SM 17/14 A3006 RMK T01700140 IEM_DS3505
ZGOW,2010-02-05 08:00,ZGOW 050800Z AUTO 08006KT 7SM 17/14 A3006 RMK T01700140 IEM_DS3505
ZGOW,2010-02-05 09:00,ZGOW 050900Z AUTO 07004KT 6SM 16/12 A3006 RMK SLP181 T01650125 52003 IEM_DS3505
ZGOW,2010-02-05 10:00,ZGOW 051000Z AUTO 08006KT 7SM 16/14 A3009 RMK T01600140 IEM_DS3505
ZGOW,2010-02-05 11:00,ZGOW 051100Z AUTO 08004KT 7SM 16/14 A3009 RMK T01600140 IEM_DS3505
ZGOW,2010-02-05 12:00,ZGOW 051200Z AUTO 14002KT 4SM 16/13 A3012 RMK SLP195 T01580129 52014 IEM_DS3505
ZGOW,2010-02-05 13:00,ZGOW 051300Z AUTO 08006KT 7SM 15/14 A3012 RMK T01500140 IEM_DS3505
ZGOW,2010-02-05 14:00,ZGOW 051400Z AUTO 08004KT 7SM 15/14 A3012 RMK T01500140 IEM_DS3505
ZGOW,2010-02-05 15:00,ZGOW 051500Z AUTO 09004KT 6SM 16/13 A3012 RMK SLP200 T01560129 52005 IEM_DS3505
ZGOW,2010-02-05 16:00,ZGOW 051600Z AUTO 08012KT 4SM 15/14 A3012 RMK T01500140 IEM_DS3505
ZGOW,2010-02-05 17:00,ZGOW 051700Z AUTO 08008KT 4SM 15/14 A3012 RMK T01500140 IEM_DS3505
ZGOW,2010-02-05 18:00,ZGOW 051800Z AUTO 08008KT 4SM 15/14 A3009 RMK T01500140 IEM_DS3505
ZGOW,2010-02-05 19:00,ZGOW 051900Z AUTO 07006KT 3SM 15/14 A3009 RMK T01500140 IEM_DS3505
ZGOW,2010-02-05 20:00,ZGOW 052000Z AUTO 06010KT 3SM 15/14 A3006 RMK T01500140 IEM_DS3505
ZGOW,2010-02-05 21:00,ZGOW 052100Z AUTO 07004KT 5SM 15/12 A3006 RMK SLP179 T01520125 57013 IEM_DS3505
ZGOW,2010-02-05 22:00,ZGOW 052200Z AUTO 07010KT 4SM 15/14 A3009 RMK T01500140 IEM_DS3505
ZGOW,2010-02-05 23:00,ZGOW 052300Z AUTO 06012KT 3SM 15/14 A3009 RMK T01500140 IEM_DS3505
ZGOW,2010-02-06 00:00,ZGOW 060000Z AUTO 07006KT 5SM 15/13 A3012 RMK SLP199 T01530126 52020 IEM_DS3505
ZGOW,2010-02-06 01:00,ZGOW 060100Z AUTO 06010KT 4SM 16/14 A3012 RMK T01600140 IEM_DS3505
ZGOW,2010-02-06 02:00,ZGOW 060200Z AUTO 07004KT 2SM 15/15 A3015 RMK T01500150 IEM_DS3505
ZGOW,2010-02-06 03:00,ZGOW 060300Z AUTO 04002KT 6SM 17/14 A3015 RMK SLP206 T01720137 52007 IEM_DS3505
ZGOW,2010-02-06 04:00,ZGOW 060400Z AUTO 08006KT 3SM 17/15 A3012 RMK T01700150 IEM_DS3505
ZGOW,2010-02-06 05:00,ZGOW 060500Z AUTO 04008KT 4SM 18/15 A3009 RMK T01800150 IEM_DS3505
ZGOW,2010-02-06 06:00,ZGOW 060600Z AUTO 14004KT 6SM 18/14 A3006 RMK SLP180 T01750138 57026 IEM_DS3505
ZGOW,2010-02-06 07:00,ZGOW 060700Z AUTO 06010KT 3SM 17/15 A3006 RMK T01700150 IEM_DS3505
ZGOW,2010-02-06 08:00,ZGOW 060800Z AUTO 07010KT 4SM 16/15 A3006 RMK T01600150 IEM_DS3505
ZGOW,2010-02-06 09:00,ZGOW 060900Z AUTO 09004KT 4SM 16/13 A3009 RMK SLP184 T01640133 52004 IEM_DS3505
ZGOW,2010-02-06 10:00,ZGOW 061000Z AUTO 07014KT 7SM 15/14 A3009 RMK T01500140 IEM_DS3505
ZGOW,2010-02-06 11:00,ZGOW 061100Z AUTO 07014KT 5SM 15/14 A3009 RMK T01500140 IEM_DS3505
ZGOW,2010-02-06 12:00,ZGOW 061200Z AUTO 07006KT 4SM 15/13 A3012 RMK 60000 SLP196 T01520131 52012 IEM_DS3505
ZGOW,2010-02-06 13:00,ZGOW 061300Z AUTO 07012KT 7SM 15/14 A3012 RMK T01500140 IEM_DS3505
ZGOW,2010-02-06 14:00,ZGOW 061400Z AUTO 06008KT 7SM 15/15 A3015 RMK T01500150 IEM_DS3505
ZGOW,2010-02-06 15:00,ZGOW 061500Z AUTO 11002KT 5SM 15/13 A3015 RMK SLP206 T01540134 52010 IEM_DS3505
ZGOW,2010-02-06 16:00,ZGOW 061600Z AUTO 11004KT 4SM 16/15 A3012 RMK T01600150 IEM_DS3505
ZGOW,2010-02-06 17:00,ZGOW 061700Z AUTO 08004KT 5SM 15/15 A3012 RMK T01500150 IEM_DS3505
ZGOW,2010-02-06 18:00,ZGOW 061800Z AUTO 09004KT 5SM 15/13 A3012 RMK 60000 SLP196 T01520129 57010 IEM_DS3505
ZGOW,2010-02-06 19:00,ZGOW 061900Z AUTO 08012KT 2 1/2SM 15/14 A3009 RMK T01500140 IEM_DS3505
ZGOW,2010-02-06 20:00,ZGOW 062000Z AUTO 11006KT 4SM 15/15 A3009 RMK T01500150 IEM_DS3505
ZGOW,2010-02-06 21:00,ZGOW 062100Z AUTO 00000KT 5SM 15/14 A3012 RMK 70005 SLP194 T01490136 57002 IEM_DS3505
ZGOW,2010-02-06 22:00,ZGOW 062200Z AUTO 04006KT 2 1/2SM 15/15 A3012 RMK T01500150 IEM_DS3505
ZGOW,2010-02-06 23:00,ZGOW 062300Z AUTO 06006KT 3SM 15/15 A3012 RMK T01500150 IEM_DS3505
ZGOW,2010-02-07 00:00,ZGOW 070000Z AUTO 09002KT 4SM 15/14 A3012 RMK 60012 70011 SLP201 T01490136 52007 IEM_DS3505
ZGOW,2010-02-07 01:00,ZGOW 070100Z AUTO 02008KT 3SM 15/15 A3015 RMK T01500150 IEM_DS3505
ZGOW,2010-02-07 02:00,ZGOW 070200Z AUTO 06004KT 4SM 16/16 A3018 RMK T01600160 IEM_DS3505
ZGOW,2010-02-07 03:00,ZGOW 070300Z AUTO 11004KT 4SM 16/14 A3015 RMK SLP212 T01650143 52011 IEM_DS3505
ZGOW,2010-02-07 04:00,ZGOW 070400Z AUTO 06002KT 2 1/2SM 16/16 A3012 RMK T01600160 IEM_DS3505
ZGOW,2010-02-07 05:00,ZGOW 070500Z AUTO 00000KT 3SM 16/16 A3012 RMK T01600160 IEM_DS3505
ZGOW,2010-02-07 06:00,ZGOW 070600Z AUTO 00000KT 4SM 16/15 A3009 RMK 60016 SLP188 T01620147 57024 IEM_DS3505
ZGOW,2010-02-07 07:00,ZGOW 070700Z AUTO 16002KT 3SM 16/16 A3006 RMK T01600160 IEM_DS3505
ZGOW,2010-02-07 08:00,ZGOW 070800Z AUTO 00000KT 4SM 16/16 A3006 RMK T01600160 IEM_DS3505
ZGOW,2010-02-07 09:00,ZGOW 070900Z AUTO 09002KT 4SM 16/15 A3006 RMK SLP176 T01620147 57012 IEM_DS3505
ZGOW,2010-02-07 10:00,ZGOW 071000Z AUTO 33004KT 1 1/4SM 16/16 A3006 RMK T01600160 IEM_DS3505
ZGOW,2010-02-07 11:00,ZGOW 071100Z AUTO 00000KT 1 1/4SM 16/16 A3003 RMK T01600160 IEM_DS3505
ZGOW,2010-02-07 12:00,ZGOW 071200Z AUTO 00000KT 3SM 16/15 A3006 RMK 60008 SLP179 T01600150 52003 IEM_DS3505
ZGOW,2010-02-07 13:00,ZGOW 071300Z AUTO 00000KT 1 1/4SM 16/16 A3006 RMK T01600160 IEM_DS3505
ZGOW,2010-02-07 14:00,ZGOW 071400Z AUTO 00000KT 1SM 16/16 A3009 RMK T01600160 IEM_DS3505
ZGOW,2010-02-07 15:00,ZGOW 071500Z AUTO 14002KT 2 1/2SM 16/15 A3006 RMK SLP180 T01600152 52001 IEM_DS3505
ZGOW,2010-02-07 16:00,ZGOW 071600Z AUTO 22002KT 1SM 16/16 A3006 RMK T01600160 IEM_DS3505
ZGOW,2010-02-07 17:00,ZGOW 071700Z AUTO 00000KT 1SM 16/16 A3006 RMK T01600160 IEM_DS3505
ZGOW,2010-02-07 18:00,ZGOW 071800Z AUTO 00000KT 1 1/4SM 16/15 RMK 60002 SLP179 T01590153 57001 IEM_DS3505
ZGOW,2010-02-07 19:00,ZGOW 071900Z AUTO 12002KT 1/2SM 16/16 A3006 RMK T01600160 IEM_DS3505
ZGOW,2010-02-07 20:00,ZGOW 072000Z AUTO 11002KT 1/2SM 16/16 A3003 RMK T01600160 IEM_DS3505
ZGOW,2010-02-07 21:00,ZGOW 072100Z AUTO 14002KT 1 1/4SM 16/16 A3003 RMK 70030 SLP171 T01610155 57008 IEM_DS3505
ZGOW,2010-02-07 22:00,ZGOW 072200Z AUTO 00000KT 1 1/2SM 16/16 A3006 RMK T01600160 IEM_DS3505
ZGOW,2010-02-07 23:00,ZGOW 072300Z AUTO 04004KT 1SM 16/16 A3006 RMK T01600160 IEM_DS3505
ZGOW,2010-02-08 00:00,ZGOW 080000Z AUTO 29002KT 4SM 16/15 A3009 RMK 60000 70025 SLP187 T01630153 52016 IEM_DS3505
ZGOW,2010-02-08 01:00,ZGOW 080100Z AUTO 06008KT 1 1/2SM 16/16 A3009 RMK T01600160 IEM_DS3505
ZGOW,2010-02-08 02:00,ZGOW 080200Z AUTO 06012KT 1 1/4SM 16/16 A3012 RMK T01600160 IEM_DS3505
ZGOW,2010-02-08 03:00,ZGOW 080300Z AUTO 09006KT 5SM 17/15 A3012 RMK SLP195 T01700152 52008 IEM_DS3505
ZGOW,2010-02-08 04:00,ZGOW 080400Z AUTO 06010KT 3SM 17/16 A3009 RMK T01700160 IEM_DS3505
ZGOW,2010-02-08 05:00,ZGOW 080500Z AUTO 07012KT 5SM 17/16 A3006 RMK T01700160 IEM_DS3505
ZGOW,2010-02-08 06:00,ZGOW 080600Z AUTO 09006KT 6SM 19/15 A3003 RMK SLP165 T01890146 57030 IEM_DS3505
ZGOW,2010-02-08 07:00,ZGOW 080700Z AUTO 06012KT 7SM 18/16 A3000 RMK T01800160 IEM_DS3505
ZGOW,2010-02-08 08:00,ZGOW 080800Z AUTO 08008KT 7SM 18/16 A3000 RMK T01800160 IEM_DS3505
ZGOW,2010-02-08 09:00,ZGOW 080900Z AUTO 07006KT 6SM 18/14 A2997 RMK SLP154 T01780141 57011 IEM_DS3505
ZGOW,2010-02-08 10:00,ZGOW 081000Z AUTO 13006KT 4SM 17/16 A3000 RMK T01700160 IEM_DS3505
ZGOW,2010-02-08 11:00,ZGOW 081100Z AUTO 00000KT 4SM 17/16 A3003 RMK T01700160 IEM_DS3505
ZGOW,2010-02-08 12:00,ZGOW 081200Z AUTO 00000KT 5SM 17/15 A3003 RMK SLP167 T01700150 52013 IEM_DS3505
ZGOW,2010-02-08 13:00,ZGOW 081300Z AUTO 00000KT 4SM 17/16 A3003 RMK T01700160 IEM_DS3505
ZGOW,2010-02-08 14:00,ZGOW 081400Z AUTO 00000KT 4SM 17/16 A3006 RMK T01700160 IEM_DS3505
ZGOW,2010-02-08 15:00,ZGOW 081500Z AUTO 11002KT 5SM 17/15 A3006 RMK SLP174 T01670151 52007 IEM_DS3505
ZGOW,2010-02-08 16:00,ZGOW 081600Z AUTO 12006KT 4SM 16/16 A3003 RMK T01600160 IEM_DS3505
ZGOW,2010-02-08 17:00,ZGOW 081700Z AUTO 00000KT 4SM 16/16 A3006 RMK T01600160 IEM_DS3505
ZGOW,2010-02-08 18:00,ZGOW 081800Z AUTO 36002KT 4SM 17/15 A3003 RMK SLP171 T01660151 57003 IEM_DS3505
ZGOW,2010-02-08 19:00,ZGOW 081900Z AUTO 03004KT 3SM 16/16 A3003 RMK T01600160 IEM_DS3505
ZGOW,2010-02-08 20:00,ZGOW 082000Z AUTO 06002KT 3SM 16/16 A3000 RMK T01600160 IEM_DS3505
ZGOW,2010-02-08 21:00,ZGOW 082100Z AUTO 09002KT 4SM 17/15 A3000 RMK SLP157 T01660150 57014 IEM_DS3505
ZGOW,2010-02-08 22:00,ZGOW 082200Z AUTO 08004KT 3SM 16/16 A3000 RMK T01600160 IEM_DS3505
ZGOW,2010-02-08 23:00,ZGOW 082300Z AUTO 01002KT 2 1/2SM 16/16 A3003 RMK T01600160 IEM_DS3505
ZGOW,2010-02-09 00:00,ZGOW 090000Z AUTO 07002KT 3SM 17/15 A3006 RMK SLP180 T01670152 52023 IEM_DS3505
ZGOW,2010-02-09 01:00,ZGOW 090100Z AUTO 10002KT 2 1/2SM 18/17 A3009 RMK T01800170 IEM_DS3505
ZGOW,2010-02-09 02:00,ZGOW 090200Z AUTO 08002KT 1 1/2SM 19/18 A3009 RMK T01900180 IEM_DS3505
ZGOW,2010-02-09 03:00,ZGOW 090300Z AUTO 16002KT 2 1/2SM 20/17 A3006 RMK SLP182 T01960170 52002 IEM_DS3505
ZGOW,2010-02-09 04:00,ZGOW 090400Z AUTO 09002KT 2SM 19/18 A3003 RMK T01900180 IEM_DS3505
ZGOW,2010-02-09 05:00,ZGOW 090500Z AUTO 12004KT 1 1/4SM 19/19 A3000 RMK T01900190 IEM_DS3505
ZGOW,2010-02-09 06:00,ZGOW 090600Z AUTO 07004KT 4SM 20/17 A2997 RMK SLP150 T01970173 57032 IEM_DS3505
ZGOW,2010-02-09 07:00,ZGOW 090700Z AUTO 08004KT 1 1/2SM 19/19 A2997 RMK T01900190 IEM_DS3505
ZGOW,2010-02-09 08:00,ZGOW 090800Z AUTO 08004KT 1 1/2SM 19/19 A2997 RMK T01900190 IEM_DS3505
ZGOW,2010-02-09 09:00,ZGOW 090900Z AUTO 07002KT 2SM 19/18 A2997 RMK SLP150 T01900178 54000 IEM_DS3505
ZGOW,2010-02-09 10:00,ZGOW 091000Z AUTO 08002KT 1 1/2SM 19/19 A2997 RMK T01900190 IEM_DS3505
ZGOW,2010-02-09 11:00,ZGOW 091100Z AUTO 09002KT 1 1/2SM 19/19 A3000 RMK T01900190 IEM_DS3505
ZGOW,2010-02-09 12:00,ZGOW 091200Z AUTO 07002KT 1SM 19/18 A3000 RMK SLP153 T01880178 52003 IEM_DS3505
ZGOW,2010-02-09 13:00,ZGOW 091300Z AUTO 08002KT 1/8SM 19/19 A2997 RMK T01900190 IEM_DS3505
ZGOW,2010-02-09 14:00,ZGOW 091400Z AUTO 00000KT 1/8SM 19/19 A3000 RMK T01900190 IEM_DS3505
ZGOW,2010-02-09 15:00,ZGOW 091500Z AUTO 00000KT 1/4SM 19/18 A2997 RMK SLP151 T01860181 57002 IEM_DS3505
ZGOW,2010-02-09 17:00,ZGOW 091700Z AUTO 08002KT 1/8SM 19/19 A2997 RMK T01900190 IEM_DS3505
ZGOW,2010-02-09 18:00,ZGOW 091800Z AUTO 00000KT 1/8SM 19/18 RMK SLP144 T01870184 57007 IEM_DS3505
ZGOW,2010-02-09 19:00,ZGOW 091900Z AUTO 06002KT 1/8SM 18/ A2994 RMK IEM_DS3505
ZGOW,2010-02-09 21:00,ZGOW 092100Z AUTO 07002KT 1/8SM 19/18 A2994 RMK SLP142 T01860183 57002 IEM_DS3505
ZGOW,2010-02-09 22:00,ZGOW 092200Z AUTO 00000KT 3/8SM 19/19 A2997 RMK T01900190 IEM_DS3505
ZGOW,2010-02-09 23:00,ZGOW 092300Z AUTO 00000KT 1/8SM 19/19 A3000 RMK T01900190 IEM_DS3505
ZGOW,2010-02-10 00:00,ZGOW 100000Z AUTO 09002KT 1/8SM 19/19 A3000 RMK SLP161 T01910188 52019 IEM_DS3505
ZGOW,2010-02-10 01:00,ZGOW 100100Z AUTO 12002KT 1/8SM 20/20 A3003 RMK T02000200 IEM_DS3505
ZGOW,2010-02-10 02:00,ZGOW 100200Z AUTO 14004KT 1SM 20/ A3003 RMK IEM_DS3505
ZGOW,2010-02-10 03:00,ZGOW 100300Z AUTO 16002KT 5SM 21/21 A3003 RMK SLP163 T02120209 52002 IEM_DS3505
ZGOW,2010-02-10 04:00,ZGOW 100400Z AUTO 13006KT 1SM 20/20 A3000 RMK T02000200 IEM_DS3505
ZGOW,2010-02-10 05:00,ZGOW 100500Z AUTO 16008KT 2 1/2SM 21/21 A2997 RMK T02100210 IEM_DS3505
ZGOW,2010-02-10 06:00,ZGOW 100600Z AUTO 18004KT 6SM 24/21 A2991 RMK SLP132 T02400207 57031 IEM_DS3505
ZGOW,2010-02-10 07:00,ZGOW 100700Z AUTO 12006KT 2 1/2SM 22/22 A2991 RMK T02200220 IEM_DS3505
ZGOW,2010-02-10 08:00,ZGOW 100800Z AUTO 15008KT 2SM 22/22 A2991 RMK T02200220 IEM_DS3505
ZGOW,2010-02-10 09:00,ZGOW 100900Z AUTO 14006KT 6SM 23/21 A2991 RMK SLP125 T02270210 57007 IEM_DS3505
ZGOW,2010-02-10 10:00,ZGOW 101000Z AUTO 17008KT 1 1/2SM 22/22 A2991 RMK T02200220 IEM_DS3505
ZGOW,2010-02-10 11:00,ZGOW 101100Z AUTO 18006KT 2 1/2SM 22/22 A2994 RMK T02200220 IEM_DS3505
ZGOW,2010-02-10 12:00,ZGOW 101200Z AUTO 18006KT 6SM 23/22 A2994 RMK SLP136 T02270215 52011 IEM_DS3505
ZGOW,2010-02-10 13:00,ZGOW 101300Z AUTO 18004KT 4SM 23/23 A2994 RMK T02300230 IEM_DS3505
ZGOW,2010-02-10 14:00,ZGOW 101400Z AUTO 21010KT 4SM 23/23 A2997 RMK T02300230 IEM_DS3505
ZGOW,2010-02-10 15:00,ZGOW 101500Z AUTO 16004KT 6SM 22/21 A2997 RMK SLP145 T02250213 52009 IEM_DS3505
ZGOW,2010-02-10 16:00,ZGOW 101600Z AUTO 18004KT 3SM 22/22 A2997 RMK T02200220 IEM_DS3505
ZGOW,2010-02-10 17:00,ZGOW 101700Z AUTO 18002KT 2 1/2SM 22/22 A2994 RMK T02200220 IEM_DS3505
ZGOW,2010-02-10 18:00,ZGOW 101800Z AUTO 14002KT 6SM 22/21 A2994 RMK SLP138 T02240214 57007 IEM_DS3505
ZGOW,2010-02-10 19:00,ZGOW 101900Z AUTO 20008KT 2 1/2SM 22/22 A2994 RMK T02200220 IEM_DS3505
ZGOW,2010-02-10 20:00,ZGOW 102000Z AUTO 17004KT 2 1/2SM 22/22 A2991 RMK T02200220 IEM_DS3505
ZGOW,2010-02-10 21:00,ZGOW 102100Z AUTO 14002KT 5SM 22/21 A2994 RMK SLP137 T02180210 57001 IEM_DS3505
ZGOW,2010-02-10 22:00,ZGOW 102200Z AUTO 16004KT 1 1/2SM 21/21 A2994 RMK T02100210 IEM_DS3505
ZGOW,2010-02-10 23:00,ZGOW 102300Z AUTO 12002KT 1 1/4SM 21/21 A2997 RMK T02100210 IEM_DS3505
ZGOW,2010-02-11 00:00,ZGOW 110000Z AUTO 11004KT 4SM 22/22 A3000 RMK SLP157 T02220215 52020 IEM_DS3505
ZGOW,2010-02-11 01:00,ZGOW 110100Z AUTO 16006KT 2SM 23/23 A3000 RMK T02300230 IEM_DS3505
ZGOW,2010-02-11 02:00,ZGOW 110200Z AUTO 21008KT 4SM 25/24 A3000 RMK T02500240 IEM_DS3505
ZGOW,2010-02-11 03:00,ZGOW 110300Z AUTO 14006KT 7SM 25/22 A3000 RMK SLP158 T02480223 52001 IEM_DS3505
ZGOW,2010-02-11 04:00,ZGOW 110400Z AUTO 17010KT 5SM 24/23 A3000 RMK T02400230 IEM_DS3505
ZGOW,2010-02-11 05:00,ZGOW 110500Z AUTO 17008KT 7SM 25/24 A2997 RMK T02500240 IEM_DS3505
ZGOW,2010-02-11 06:00,ZGOW 110600Z AUTO 16006KT 11SM 27/22 A2991 RMK SLP130 T02710225 57028 IEM_DS3505
ZGOW,2010-02-11 07:00,ZGOW 110700Z AUTO 18012KT 7SM 28/24 A2991 RMK T02800240 IEM_DS3505
ZGOW,2010-02-11 08:00,ZGOW 110800Z AUTO 19010KT 7SM 27/24 A2991 RMK T02700240 IEM_DS3505
ZGOW,2010-02-11 09:00,ZGOW 110900Z AUTO 16004KT 11SM 25/22 A2991 RMK SLP131 T02520217 52001 IEM_DS3505
ZGOW,2010-02-11 10:00,ZGOW 111000Z AUTO 20010KT 3SM 24/23 A2994 RMK T02400230 IEM_DS3505
ZGOW,2010-02-11 11:00,ZGOW 111100Z AUTO 20010KT 3SM 24/23 A2994 RMK T02400230 IEM_DS3505
ZGOW,2010-02-11 12:00,ZGOW 111200Z AUTO 20004KT 9SM 24/22 A2997 RMK SLP144 T02380219 52013 IEM_DS3505
ZGOW,2010-02-11 13:00,ZGOW 111300Z AUTO 20002KT 3SM 23/23 A2997 RMK T02300230 IEM_DS3505
ZGOW,2010-02-11 14:00,ZGOW 111400Z AUTO 20004KT 2 1/2SM 23/23 A3000 RMK T02300230 IEM_DS3505
ZGOW,2010-02-11 15:00,ZGOW 111500Z AUTO 00000KT 9SM 23/22 A3000 RMK SLP158 T02270215 52014 IEM_DS3505
ZGOW,2010-02-11 16:00,ZGOW 111600Z AUTO 17002KT 2SM 22/ A3000 RMK IEM_DS3505
ZGOW,2010-02-11 17:00,ZGOW 111700Z AUTO 34008KT 2 1/2SM 20/18 A3003 RMK T02000180 IEM_DS3505
ZGOW,2010-02-11 18:00,ZGOW 111800Z AUTO 11004KT 7SM 17/15 A3006 RMK 60008 SLP176 T01710147 52018 IEM_DS3505
ZGOW,2010-02-11 19:00,ZGOW 111900Z AUTO 33008KT 4SM 16/15 A3006 RMK T01600150 IEM_DS3505
ZGOW,2010-02-11 20:00,ZGOW 112000Z AUTO 33014KT 6SM 15/13 A3009 RMK T01500130 IEM_DS3505
ZGOW,2010-02-11 21:00,ZGOW 112100Z AUTO 07004KT 14SM 15/11 A3012 RMK 70033 SLP195 T01490111 52019 IEM_DS3505
ZGOW,2010-02-11 22:00,ZGOW 112200Z AUTO 06010KT 4SM 14/14 A3015 RMK T01400140 IEM_DS3505
ZGOW,2010-02-11 23:00,ZGOW 112300Z AUTO 34008KT 4SM 12/12 A3018 RMK T01200120 IEM_DS3505
ZGOW,2010-02-12 00:00,ZGOW 120000Z AUTO 14004KT 14SM 13/09 A3021 RMK 60024 70033 SLP228 T01290094 52033 IEM_DS3505
ZGOW,2010-02-12 01:00,ZGOW 120100Z AUTO 34008KT 7SM 13/11 A3024 RMK T01300110 IEM_DS3505
ZGOW,2010-02-12 02:00,ZGOW 120200Z AUTO 35006KT 7SM 13/11 A3024 RMK T01300110 IEM_DS3505
ZGOW,2010-02-12 03:00,ZGOW 120300Z AUTO 04004KT 14SM 13/09 A3024 RMK SLP242 T01310086 52014 IEM_DS3505
ZGOW,2010-02-12 04:00,ZGOW 120400Z AUTO 34006KT 7SM 13/10 A3024 RMK T01300100 IEM_DS3505
ZGOW,2010-02-12 05:00,ZGOW 120500Z AUTO 33008KT 7SM 13/10 A3021 RMK T01300100 IEM_DS3505
ZGOW,2010-02-12 06:00,ZGOW 120600Z AUTO 04002KT 14SM 14/08 A3021 RMK SLP222 T01350081 57020 IEM_DS3505
ZGOW,2010-02-12 07:00,ZGOW 120700Z AUTO 34008KT 7SM 12/09 A3018 RMK T01200090 IEM_DS3505
ZGOW,2010-02-12 08:00,ZGOW 120800Z AUTO 34008KT 7SM 12/09 A3018 RMK T01200090 IEM_DS3505
ZGOW,2010-02-12 09:00,ZGOW 120900Z AUTO 09002KT 12SM 12/07 A3021 RMK SLP225 T01220069 52003 IEM_DS3505
ZGOW,2010-02-12 10:00,ZGOW 121000Z AUTO 34004KT 7SM 12/09 A3021 RMK T01200090 IEM_DS3505
ZGOW,2010-02-12 11:00,ZGOW 121100Z AUTO 01008KT 7SM 11/10 A3024 RMK T01100100 IEM_DS3505
ZGOW,2010-02-12 12:00,ZGOW 121200Z AUTO 14002KT 8SM 12/07 A3024 RMK SLP241 T01160069 52016 IEM_DS3505
ZGOW,2010-02-12 13:00,ZGOW 121300Z AUTO 33006KT 7SM 10/09 A3027 RMK T01000090 IEM_DS3505
ZGOW,2010-02-12 14:00,ZGOW 121400Z AUTO 34006KT 7SM 10/09 A3027 RMK T01000090 IEM_DS3505
ZGOW,2010-02-12 15:00,ZGOW 121500Z AUTO 07002KT 8SM 11/07 A3027 RMK SLP245 T01060067 52004 IEM_DS3505
ZGOW,2010-02-12 16:00,ZGOW 121600Z AUTO 33006KT 5SM 10/09 A3024 RMK T01000090 IEM_DS3505
ZGOW,2010-02-12 17:00,ZGOW 121700Z AUTO 34008KT 4SM 09/09 A3024 RMK T00900090 IEM_DS3505
ZGOW,2010-02-12 18:00,ZGOW 121800Z AUTO 11002KT 7SM 09/08 A3024 RMK 60012 SLP242 T00870075 57003 IEM_DS3505
ZGOW,2010-02-12 19:00,ZGOW 121900Z AUTO 33008KT 3SM 08/08 A3024 RMK T00800080 IEM_DS3505
ZGOW,2010-02-12 20:00,ZGOW 122000Z AUTO 35006KT 3SM 08/08 A3021 RMK T00800080 IEM_DS3505
ZGOW,2010-02-12 21:00,ZGOW 122100Z AUTO 16002KT 7SM 08/07 A3021 RMK 70015 SLP234 T00830072 57008 IEM_DS3505
ZGOW,2010-02-12 22:00,ZGOW 122200Z AUTO 35006KT 2 1/2SM 08/08 A3024 RMK T00800080 IEM_DS3505
ZGOW,2010-02-12 23:00,ZGOW 122300Z AUTO 35006KT 4SM 08/08 A3024 RMK T00800080 IEM_DS3505
ZGOW,2010-02-13 00:00,ZGOW 130000Z AUTO 36002KT 11SM 09/07 A3027 RMK 60003 70015 SLP247 T00860072 52013 IEM_DS3505
ZGOW,2010-02-13 01:00,ZGOW 130100Z AUTO 03008KT 7SM 09/09 A3027 RMK T00900090 IEM_DS3505
ZGOW,2010-02-13 02:00,ZGOW 130200Z AUTO 03008KT 7SM 10/09 A3027 RMK T01000090 IEM_DS3505
ZGOW,2010-02-13 03:00,ZGOW 130300Z AUTO 18002KT 10SM 10/08 A3027 RMK SLP251 T00960079 52004 IEM_DS3505
ZGOW,2010-02-13 04:00,ZGOW 130400Z AUTO 03008KT 7SM 10/10 A3024 RMK T01000100 IEM_DS3505
ZGOW,2010-02-13 05:00,ZGOW 130500Z AUTO 04008KT 7SM 11/10 A3021 RMK T01100100 IEM_DS3505
ZGOW,2010-02-13 06:00,ZGOW 130600Z AUTO 07004KT 9SM 11/08 A3018 RMK SLP216 T01090083 57035 IEM_DS3505
ZGOW,2010-02-13 07:00,ZGOW 130700Z AUTO 06014KT 7SM 11/10 A3015 RMK T01100100 IEM_DS3505
ZGOW,2010-02-13 08:00,ZGOW 130800Z AUTO 06014KT 7SM 11/10 A3012 RMK T01100100 IEM_DS3505
ZGOW,2010-02-13 09:00,ZGOW 130900Z AUTO 07008KT 9SM 11/08 A3012 RMK SLP197 T01120082 57019 IEM_DS3505
ZGOW,2010-02-13 10:00,ZGOW 131000Z AUTO 06016KT 7SM 11/10 A3012 RMK T01100100 IEM_DS3505
ZGOW,2010-02-13 11:00,ZGOW 131100Z AUTO 07017KT 7SM 11/10 A3012 RMK T01100100 IEM_DS3505
ZGOW,2010-02-13 12:00,ZGOW 131200Z AUTO 07006KT 7SM 11/09 A3015 RMK SLP208 T01110087 52011 IEM_DS3505
ZGOW,2010-02-13 13:00,ZGOW 131300Z AUTO 07016KT 3SM 11/10 A3012 RMK T01100100 IEM_DS3505
ZGOW,2010-02-13 14:00,ZGOW 131400Z AUTO 07016KT 3SM 11/10 A3012 RMK T01100100 IEM_DS3505
ZGOW,2010-02-13 15:00,ZGOW 131500Z AUTO 07006KT 9SM 11/09 A3012 RMK SLP200 T01110088 57008 IEM_DS3505
ZGOW,2010-02-13 16:00,ZGOW 131600Z AUTO 06014KT 2 1/2SM 11/11 A3012 RMK T01100110 IEM_DS3505
ZGOW,2010-02-13 17:00,ZGOW 131700Z AUTO 06012KT 2 1/2SM 11/11 A3009 RMK T01100110 IEM_DS3505
ZGOW,2010-02-13 18:00,ZGOW 131800Z AUTO 07002KT 7SM 11/10 A3006 RMK SLP184 T01090095 57016 IEM_DS3505
ZGOW,2010-02-13 19:00,ZGOW 131900Z AUTO 32004KT 2SM 11/11 A3006 RMK T01100110 IEM_DS3505
ZGOW,2010-02-13 20:00,ZGOW 132000Z AUTO 34002KT 2 1/2SM 11/11 A3003 RMK T01100110 IEM_DS3505
ZGOW,2010-02-13 21:00,ZGOW 132100Z AUTO 07004KT 5SM 11/10 A3003 RMK 70000 SLP163 T01110097 57021 IEM_DS3505
ZGOW,2010-02-13 22:00,ZGOW 132200Z AUTO 36004KT 3SM 11/11 A3003 RMK T01100110 IEM_DS3505
ZGOW,2010-02-13 23:00,ZGOW 132300Z AUTO 03004KT 2 1/2SM 11/11 A3003 RMK T01100110 IEM_DS3505
ZGOW,2010-02-14 00:00,ZGOW 140000Z AUTO 00000KT 1 1/4SM 11/10 A3006 RMK SLP180 T01120104 52017 IEM_DS3505
ZGOW,2010-02-14 01:00,ZGOW 140100Z AUTO 01004KT 1 1/4SM 12/12 A3006 RMK T01200120 IEM_DS3505
ZGOW,2010-02-14 02:00,ZGOW 140200Z AUTO 33002KT 1SM 12/12 A3009 RMK T01200120 IEM_DS3505
ZGOW,2010-02-14 03:00,ZGOW 140300Z AUTO 09002KT 1SM 12/12 A3006 RMK SLP180 T01250119 54000 IEM_DS3505
ZGOW,2010-02-14 04:00,ZGOW 140400Z AUTO 04008KT 1 1/4SM 13/13 A3006 RMK T01300130 IEM_DS3505
ZGOW,2010-02-14 05:00,ZGOW 140500Z AUTO 06010KT 1 1/4SM 13/13 A3003 RMK T01300130 IEM_DS3505
ZGOW,2010-02-14 06:00,ZGOW 140600Z AUTO 07004KT 1 1/4SM 13/12 A3000 RMK 60000 SLP156 T01280120 57024 IEM_DS3505
ZGOW,2010-02-14 07:00,ZGOW 140700Z AUTO 07006KT 1SM 13/13 A2997 RMK T01300130 IEM_DS3505
ZGOW,2010-02-14 08:00,ZGOW 140800Z AUTO 07006KT 1 1/4SM 13/13 A2997 RMK T01300130 IEM_DS3505
ZGOW,2010-02-14 09:00,ZGOW 140900Z AUTO 07002KT 1 1/4SM 13/12 A2997 RMK SLP150 T01300124 57006 IEM_DS3505
ZGOW,2010-02-14 10:00,ZGOW 141000Z AUTO 06004KT 1SM 13/13 A3000 RMK T01300130 IEM_DS3505
ZGOW,2010-02-14 11:00,ZGOW 141100Z AUTO 04004KT 1SM 13/13 A3000 RMK T01300130 IEM_DS3505
ZGOW,2010-02-14 12:00,ZGOW 141200Z AUTO 07002KT 1SM 13/12 A3003 RMK 60002 SLP168 T01300125 52018 IEM_DS3505
ZGOW,2010-02-14 13:00,ZGOW 141300Z AUTO 00000KT 1 1/4SM 13/13 A3006 RMK T01300130 IEM_DS3505
ZGOW,2010-02-14 14:00,ZGOW 141400Z AUTO 02002KT 1 1/4SM 13/ A3006 RMK IEM_DS3505
ZGOW,2010-02-14 15:00,ZGOW 141500Z AUTO 04002KT 2 1/2SM 13/12 A3009 RMK SLP185 T01300124 52017 IEM_DS3505
ZGOW,2010-02-14 16:00,ZGOW 141600Z AUTO 00000KT 1 1/2SM 13/13 A3009 RMK T01300130 IEM_DS3505
ZGOW,2010-02-14 17:00,ZGOW 141700Z AUTO 34004KT 2 1/2SM 13/13 A3009 RMK T01300130 IEM_DS3505
ZGOW,2010-02-14 18:00,ZGOW 141800Z AUTO 27002KT 12SM 13/11 A3006 RMK 60002 SLP181 T01270114 57004 IEM_DS3505
ZGOW,2010-02-14 19:00,ZGOW 141900Z AUTO 34002KT 2 1/2SM 13/13 A3006 RMK T01300130 IEM_DS3505
ZGOW,2010-02-14 20:00,ZGOW 142000Z AUTO 32004KT 1 1/4SM 12/ A3006 RMK IEM_DS3505
ZGOW,2010-02-14 21:00,ZGOW 142100Z AUTO 00000KT 6SM 12/11 A3006 RMK 70004 SLP179 T01190111 57002 IEM_DS3505
ZGOW,2010-02-14 22:00,ZGOW 142200Z AUTO 32006KT 1 1/4SM 12/12 A3009 RMK T01200120 IEM_DS3505
ZGOW,2010-02-14 23:00,ZGOW 142300Z AUTO 33006KT 1 1/4SM 11/11 A3009 RMK T01100110 IEM_DS3505
ZGOW,2010-02-15 00:00,ZGOW 150000Z AUTO 04002KT 5SM 11/10 A3012 RMK 60002 70006 SLP200 T01100101 52021 IEM_DS3505
ZGOW,2010-02-15 01:00,ZGOW 150100Z AUTO 32008KT 5SM 11/11 A3015 RMK T01100110 IEM_DS3505
ZGOW,2010-02-15 02:00,ZGOW 150200Z AUTO 33008KT 7SM 11/11 A3015 RMK T01100110 IEM_DS3505
ZGOW,2010-02-15 03:00,ZGOW 150300Z AUTO 04004KT 9SM 11/09 A3015 RMK SLP212 T01120093 52012 IEM_DS3505
ZGOW,2010-02-15 04:00,ZGOW 150400Z AUTO 33008KT 3SM 11/11 A3015 RMK T01100110 IEM_DS3505
ZGOW,2010-02-15 05:00,ZGOW 150500Z AUTO 32008KT 7SM 11/11 A3012 RMK T01100110 IEM_DS3505
ZGOW,2010-02-15 06:00,ZGOW 150600Z AUTO 11002KT 6SM 11/10 A3012 RMK 60000 SLP198 T01120096 57014 IEM_DS3505
ZGOW,2010-02-15 07:00,ZGOW 150700Z AUTO 33008KT 2SM 11/11 A3009 RMK T01100110 IEM_DS3505
ZGOW,2010-02-15 08:00,ZGOW 150800Z AUTO 32008KT 4SM 11/10 A3009 RMK T01100100 IEM_DS3505
ZGOW,2010-02-15 09:00,ZGOW 150900Z AUTO 09002KT 6SM 10/09 A3012 RMK SLP199 T01050088 52001 IEM_DS3505
ZGOW,2010-02-15 10:00,ZGOW 151000Z AUTO 33008KT 2 1/2SM 10/10 A3012 RMK T01000100 IEM_DS3505
ZGOW,2010-02-15 11:00,ZGOW 151100Z AUTO 34006KT 2 1/2SM 10/10 A3015 RMK T01000100 IEM_DS3505
ZGOW,2010-02-15 12:00,ZGOW 151200Z AUTO 36002KT 6SM 10/08 A3015 RMK 60000 SLP214 T00960080 52015 IEM_DS3505
ZGOW,2010-02-15 13:00,ZGOW 151300Z AUTO 33006KT 4SM 09/09 A3018 RMK T00900090 IEM_DS3505
ZGOW,2010-02-15 14:00,ZGOW 151400Z AUTO 33008KT 5SM 09/09 A3021 RMK T00900090 IEM_DS3505
ZGOW,2010-02-15 15:00,ZGOW 151500Z AUTO 04002KT 6SM 09/07 A3021 RMK SLP233 T00860071 52019 IEM_DS3505
ZGOW,2010-02-15 16:00,ZGOW 151600Z AUTO 33010G19KT 7SM 09/08 A3024 RMK T00900080 IEM_DS3505
ZGOW,2010-02-15 17:00,ZGOW 151700Z AUTO 34010KT 7SM 08/08 A3024 RMK T00800080 IEM_DS3505
ZGOW,2010-02-15 18:00,ZGOW 151800Z AUTO 09002KT 9SM 08/06 A3021 RMK 60008 SLP233 T00820063 54000 IEM_DS3505
ZGOW,2010-02-15 19:00,ZGOW 151900Z AUTO 33010KT 1 1/2SM 08/08 A3024 RMK T00800080 IEM_DS3505
ZGOW,2010-02-15 20:00,ZGOW 152000Z AUTO 33008KT 2 1/2SM 08/07 A3021 RMK T00800070 IEM_DS3505
ZGOW,2010-02-15 21:00,ZGOW 152100Z AUTO 20002KT 7SM 07/06 A3021 RMK 70018 SLP236 T00740060 52003 IEM_DS3505
ZGOW,2010-02-15 22:00,ZGOW 152200Z AUTO 34006KT 3SM 07/07 A3024 RMK T00700070 IEM_DS3505
ZGOW,2010-02-15 23:00,ZGOW 152300Z AUTO 34006KT 7SM 07/07 A3024 RMK T00700070 IEM_DS3505
ZGOW,2010-02-16 00:00,ZGOW 160000Z AUTO 07004KT 14SM 08/06 A3027 RMK 60016 70025 SLP245 T00770057 52009 IEM_DS3505
ZGOW,2010-02-16 01:00,ZGOW 160100Z AUTO 34004KT 7SM 08/08 A3027 RMK T00800080 IEM_DS3505
ZGOW,2010-02-16 02:00,ZGOW 160200Z AUTO 35004KT 7SM 08/08 A3027 RMK T00800080 IEM_DS3505
ZGOW,2010-02-16 03:00,ZGOW 160300Z AUTO 36002KT 16SM 09/06 A3027 RMK SLP248 T00900061 52003 IEM_DS3505
ZGOW,2010-02-16 04:00,ZGOW 160400Z AUTO 35006KT 7SM 10/08 A3024 RMK T01000080 IEM_DS3505
ZGOW,2010-02-16 05:00,ZGOW 160500Z AUTO 34006KT 7SM 10/09 A3021 RMK T01000090 IEM_DS3505
ZGOW,2010-02-16 06:00,ZGOW 160600Z AUTO 16002KT 16SM 10/06 A3021 RMK 60000 SLP226 T01000062 57022 IEM_DS3505
ZGOW,2010-02-16 07:00,ZGOW 160700Z AUTO 33008KT 7SM 10/08 A3018 RMK T01000080 IEM_DS3505
ZGOW,2010-02-16 08:00,ZGOW 160800Z AUTO 32006KT 7SM 09/08 A3018 RMK T00900080 IEM_DS3505
ZGOW,2010-02-16 09:00,ZGOW 160900Z AUTO 29002KT 9SM 09/07 A3018 RMK SLP223 T00900071 57003 IEM_DS3505
ZGOW,2010-02-16 10:00,ZGOW 161000Z AUTO 34006KT 4SM 09/09 A3018 RMK T00900090 IEM_DS3505
ZGOW,2010-02-16 11:00,ZGOW 161100Z AUTO 34004KT 2 1/2SM 08/08 A3018 RMK T00800080 IEM_DS3505
ZGOW,2010-02-16 12:00,ZGOW 161200Z AUTO 27002KT 5SM 08/08 A3021 RMK 60008 SLP233 T00850077 52010 IEM_DS3505
ZGOW,2010-02-16 13:00,ZGOW 161300Z AUTO 35006KT 3SM 08/08 A3024 RMK T00800080 IEM_DS3505
ZGOW,2010-02-16 14:00,ZGOW 161400Z AUTO 33006KT 3SM 08/ A3024 RMK IEM_DS3505
ZGOW,2010-02-16 15:00,ZGOW 161500Z AUTO 16002KT 4SM 08/07 A3027 RMK SLP248 T00820074 52015 IEM_DS3505
ZGOW,2010-02-16 16:00,ZGOW 161600Z AUTO 33006KT 4SM 08/08 A3027 RMK T00800080 IEM_DS3505
ZGOW,2010-02-16 17:00,ZGOW 161700Z AUTO 35006KT 4SM 08/08 A3024 RMK T00800080 IEM_DS3505
ZGOW,2010-02-16 18:00,ZGOW 161800Z AUTO 11002KT 6SM 08/07 A3024 RMK 60004 SLP238 T00850068 57010 IEM_DS3505
ZGOW,2010-02-16 19:00,ZGOW 161900Z AUTO 34006KT 2SM 08/08 A3021 RMK T00800080 IEM_DS3505
ZGOW,2010-02-16 20:00,ZGOW 162000Z AUTO 33008KT 2SM 08/08 A3021 RMK T00800080 IEM_DS3505
ZGOW,2010-02-16 21:00,ZGOW 162100Z AUTO 04002KT 9SM 08/07 A3021 RMK 70030 SLP226 T00800069 57012 IEM_DS3505
ZGOW,2010-02-16 22:00,ZGOW 162200Z AUTO 34004KT 7SM 08/08 A3021 RMK T00800080 IEM_DS3505
ZGOW,2010-02-16 23:00,ZGOW 162300Z AUTO 34004KT 7SM 08/08 A3024 RMK T00800080 IEM_DS3505
ZGOW,2010-02-17 00:00,ZGOW 170000Z AUTO 20002KT 9SM 08/07 A3024 RMK 60020 70033 SLP242 T00820071 52016 IEM_DS3505
ZGOW,2010-02-17 01:00,ZGOW 170100Z AUTO 33006KT 7SM 08/08 A3027 RMK T00800080 IEM_DS3505
ZGOW,2010-02-17 02:00,ZGOW 170200Z AUTO 34006KT 7SM 09/09 A3027 RMK T00900090 IEM_DS3505
ZGOW,2010-02-17 03:00,ZGOW 170300Z AUTO 27002KT 10SM 09/07 A3024 RMK SLP244 T00930074 52002 IEM_DS3505
ZGOW,2010-02-17 04:00,ZGOW 170400Z AUTO 31008KT 7SM 10/09 A3021 RMK T01000090 IEM_DS3505
ZGOW,2010-02-17 05:00,ZGOW 170500Z AUTO 33004KT 7SM 10/09 A3018 RMK T01000090 IEM_DS3505
ZGOW,2010-02-17 06:00,ZGOW 170600Z AUTO 07002KT 11SM 10/07 A3018 RMK 60008 SLP221 T01010070 57023 IEM_DS3505
ZGOW,2010-02-17 07:00,ZGOW 170700Z AUTO 33008KT 7SM 10/09 A3018 RMK T01000090 IEM_DS3505
ZGOW,2010-02-17 08:00,ZGOW 170800Z AUTO 33010KT 7SM 09/08 A3018 RMK T00900080 IEM_DS3505
ZGOW,2010-02-17 09:00,ZGOW 170900Z AUTO 32002KT 7SM 08/06 A3021 RMK SLP228 T00840062 52007 IEM_DS3505
ZGOW,2010-02-17 10:00,ZGOW 171000Z AUTO 34006KT 4SM 08/08 A3021 RMK T00800080 IEM_DS3505
ZGOW,2010-02-17 11:00,ZGOW 171100Z AUTO 33008KT 4SM 08/08 A3024 RMK T00800080 IEM_DS3505
ZGOW,2010-02-17 12:00,ZGOW 171200Z AUTO 18002KT 12SM 08/06 A3024 RMK 60001 SLP240 T00830056 52012 IEM_DS3505
ZGOW,2010-02-17 13:00,ZGOW 171300Z AUTO 33006KT 4SM 08/07 A3027 RMK T00800070 IEM_DS3505
ZGOW,2010-02-17 14:00,ZGOW 171400Z AUTO 32008KT 4SM 08/07 A3027 RMK T00800070 IEM_DS3505
ZGOW,2010-02-17 15:00,ZGOW 171500Z AUTO 11002KT 12SM 08/05 A3027 RMK SLP248 T00840052 52008 IEM_DS3505
ZGOW,2010-02-17 16:00,ZGOW 171600Z AUTO 32008KT 7SM 08/07 A3027 RMK T00800070 IEM_DS3505
ZGOW,2010-02-17 17:00,ZGOW 171700Z AUTO 34008KT 7SM 08/06 A3027 RMK T00800060 IEM_DS3505
ZGOW,2010-02-17 18:00,ZGOW 171800Z AUTO 36002KT 11SM 08/04 A3024 RMK SLP243 T00830045 57005 IEM_DS3505
ZGOW,2010-02-17 19:00,ZGOW 171900Z AUTO 34006KT 2 1/2SM 08/06 A3024 RMK T00800060 IEM_DS3505
ZGOW,2010-02-17 20:00,ZGOW 172000Z AUTO 35004KT 2 1/2SM 08/06 A3024 RMK T00800060 IEM_DS3505
ZGOW,2010-02-17 21:00,ZGOW 172100Z AUTO 07002KT 11SM 08/04 A3024 RMK 70021 SLP239 T00820044 57004 IEM_DS3505
ZGOW,2010-02-17 22:00,ZGOW 172200Z AUTO 34008KT 4SM 08/06 A3024 RMK T00800060 IEM_DS3505
ZGOW,2010-02-17 23:00,ZGOW 172300Z AUTO 33006KT 4SM 08/06 A3027 RMK T00800060 IEM_DS3505
ZGOW,2010-02-18 00:00,ZGOW 180000Z AUTO 18002KT 11SM 08/04 A3030 RMK 70009 SLP258 T00830043 52019 IEM_DS3505
ZGOW,2010-02-18 01:00,ZGOW 180100Z AUTO 35006KT 4SM 09/06 A3030 RMK T00900060 IEM_DS3505
ZGOW,2010-02-18 02:00,ZGOW 180200Z AUTO 34006KT 5SM 09/06 A3030 RMK T00900060 IEM_DS3505
ZGOW,2010-02-18 03:00,ZGOW 180300Z AUTO 18002KT 9SM 10/04 A3033 RMK SLP264 T00960044 52006 IEM_DS3505
ZGOW,2010-02-18 04:00,ZGOW 180400Z AUTO 33010KT 7SM 10/06 A3030 RMK T01000060 IEM_DS3505
ZGOW,2010-02-18 05:00,ZGOW 180500Z AUTO 32008KT 7SM 10/06 A3027 RMK T01000060 IEM_DS3505
ZGOW,2010-02-18 06:00,ZGOW 180600Z AUTO 02004KT 9SM 11/04 A3021 RMK SLP234 T01070044 57030 IEM_DS3505
ZGOW,2010-02-18 07:00,ZGOW 180700Z AUTO 33006KT 7SM 11/07 A3021 RMK T01100070 IEM_DS3505
ZGOW,2010-02-18 08:00,ZGOW 180800Z AUTO 34006KT 7SM 10/07 A3021 RMK T01000070 IEM_DS3505
ZGOW,2010-02-18 09:00,ZGOW 180900Z AUTO 14002KT 9SM 10/04 A3021 RMK SLP234 T00990045 54000 IEM_DS3505
ZGOW,2010-02-18 10:00,ZGOW 181000Z AUTO 34008KT 4SM 09/06 A3024 RMK T00900060 IEM_DS3505
ZGOW,2010-02-18 11:00,ZGOW 181100Z AUTO 32008KT 5SM 08/07 A3027 RMK T00800070 IEM_DS3505
ZGOW,2010-02-18 12:00,ZGOW 181200Z AUTO 07004KT 6SM 08/06 A3030 RMK SLP257 T00760059 52023 IEM_DS3505
ZGOW,2010-02-18 13:00,ZGOW 181300Z AUTO 34004KT 2 1/2SM 07/07 A3030 RMK T00700070 IEM_DS3505
ZGOW,2010-02-18 14:00,ZGOW 181400Z AUTO 33006KT 2 1/2SM 07/07 A3030 RMK T00700070 IEM_DS3505
ZGOW,2010-02-18 15:00,ZGOW 181500Z AUTO 27002KT 4SM 07/06 A3027 RMK SLP255 T00730064 57002 IEM_DS3505
ZGOW,2010-02-18 16:00,ZGOW 181600Z AUTO 34008KT 2 1/2SM 07/07 A3030 RMK T00700070 IEM_DS3505
ZGOW,2010-02-18 17:00,ZGOW 181700Z AUTO 34006KT 3SM 07/07 A3027 RMK T00700070 IEM_DS3505
ZGOW,2010-02-18 18:00,ZGOW 181800Z AUTO 02002KT 4SM 07/06 A3027 RMK 60031 SLP245 T00740063 57010 IEM_DS3505
ZGOW,2010-02-18 19:00,ZGOW 181900Z AUTO 35002KT 2 1/2SM 07/07 A3024 RMK T00700070 IEM_DS3505
ZGOW,2010-02-18 20:00,ZGOW 182000Z AUTO 36004KT 2 1/2SM 07/07 A3021 RMK T00700070 IEM_DS3505
ZGOW,2010-02-18 21:00,ZGOW 182100Z AUTO 00000KT 6SM 08/06 A3021 RMK 70034 SLP232 T00750063 57013 IEM_DS3505
ZGOW,2010-02-18 22:00,ZGOW 182200Z AUTO 33004KT 2 1/2SM 08/08 A3024 RMK T00800080 IEM_DS3505
ZGOW,2010-02-18 23:00,ZGOW 182300Z AUTO 33004KT 2SM 08/08 A3024 RMK T00800080 IEM_DS3505
ZGOW,2010-02-19 00:00,ZGOW 190000Z AUTO 04002KT 6SM 08/07 A3027 RMK 60016 70045 SLP245 T00760067 52013 IEM_DS3505
ZGOW,2010-02-19 01:00,ZGOW 190100Z AUTO 32004KT 2 1/2SM 08/08 A3027 RMK T00800080 IEM_DS3505
ZGOW,2010-02-19 03:00,ZGOW 190300Z AUTO 02002KT 5SM 09/08 RMK SLP246 T00930081 52001 IEM_DS3505
ZGOW,2010-02-19 05:00,ZGOW 190500Z AUTO 35002KT 7SM 11/10 A3021 RMK T01100100 IEM_DS3505
ZGOW,2010-02-19 06:00,ZGOW 190600Z AUTO 11002KT 9SM 11/08 A3018 RMK 60004 SLP216 T01100080 57030 IEM_DS3505
ZGOW,2010-02-19 07:00,ZGOW 190700Z AUTO 05004KT 7SM 11/09 A3015 RMK T01100090 IEM_DS3505
ZGOW,2010-02-19 08:00,ZGOW 190800Z AUTO 08006KT 7SM 11/09 A3015 RMK T01100090 IEM_DS3505
ZGOW,2010-02-19 09:00,ZGOW 190900Z AUTO 04002KT 8SM 11/08 A3018 RMK SLP217 T01070078 52001 IEM_DS3505
ZGOW,2010-02-19 10:00,ZGOW 191000Z AUTO 35004KT 2 1/2SM 09/09 A3018 RMK T00900090 IEM_DS3505
ZGOW,2010-02-19 11:00,ZGOW 191100Z AUTO 36004KT 2 1/2SM 09/09 A3021 RMK T00900090 IEM_DS3505
ZGOW,2010-02-19 12:00,ZGOW 191200Z AUTO 00000KT 4SM 09/08 A3021 RMK 60000 SLP230 T00930084 52013 IEM_DS3505
ZGOW,2010-02-19 13:00,ZGOW 191300Z AUTO 04006KT 7SM 09/09 A3021 RMK T00900090 IEM_DS3505
ZGOW,2010-02-19 14:00,ZGOW 191400Z AUTO 00000KT 7SM 10/09 A3021 RMK T01000090 IEM_DS3505
ZGOW,2010-02-19 15:00,ZGOW 191500Z AUTO 00000KT 6SM 10/08 A3021 RMK SLP228 T00960082 57002 IEM_DS3505
ZGOW,2010-02-19 16:00,ZGOW 191600Z AUTO 36004KT 7SM 10/09 A3021 RMK T01000090 IEM_DS3505
ZGOW,2010-02-19 17:00,ZGOW 191700Z AUTO 34002KT 7SM 10/09 A3021 RMK T01000090 IEM_DS3505
ZGOW,2010-02-19 18:00,ZGOW 191800Z AUTO 00000KT 6SM 10/08 A3018 RMK SLP223 T00950081 57005 IEM_DS3505
ZGOW,2010-02-19 19:00,ZGOW 191900Z AUTO 35004KT 2 1/2SM 09/09 A3018 RMK T00900090 IEM_DS3505
ZGOW,2010-02-19 21:00,ZGOW 192100Z AUTO 00000KT 7SM 07/06 A3015 RMK 70016 SLP212 T00720061 57011 IEM_DS3505
ZGOW,2010-02-19 22:00,ZGOW 192200Z AUTO 00000KT 4SM 08/08 A3015 RMK T00800080 IEM_DS3505
ZGOW,2010-02-19 23:00,ZGOW 192300Z AUTO 00000KT 3SM 07/07 A3018 RMK T00700070 IEM_DS3505
ZGOW,2010-02-20 00:00,ZGOW 200000Z AUTO 00000KT 7SM 08/08 A3021 RMK 70006 SLP228 T00850079 52016 IEM_DS3505
ZGOW,2010-02-20 01:00,ZGOW 200100Z AUTO 32004KT 6SM 11/10 A3021 RMK T01100100 IEM_DS3505
ZGOW,2010-02-20 02:00,ZGOW 200200Z AUTO 02002KT 6SM 12/10 A3021 RMK T01200100 IEM_DS3505
ZGOW,2010-02-20 03:00,ZGOW 200300Z AUTO 11002KT 11SM 14/07 A3018 RMK SLP221 T01400071 57007 IEM_DS3505
ZGOW,2010-02-20 04:00,ZGOW 200400Z AUTO 08006KT 6SM 15/09 A3015 RMK T01500090 IEM_DS3505
ZGOW,2010-02-20 05:00,ZGOW 200500Z AUTO 09006KT 6SM 15/10 A3015 RMK T01500100 IEM_DS3505
ZGOW,2010-02-20 06:00,ZGOW 200600Z AUTO 09004KT 11SM 16/06 A3012 RMK SLP197 T01560061 57024 IEM_DS3505
ZGOW,2010-02-20 07:00,ZGOW 200700Z AUTO 14006KT 6SM 15/10 A3009 RMK T01500100 IEM_DS3505
ZGOW,2010-02-20 08:00,ZGOW 200800Z AUTO 12006KT 6SM 15/10 A3009 RMK T01500100 IEM_DS3505
ZGOW,2010-02-20 09:00,ZGOW 200900Z AUTO 11004KT 9SM 14/08 A3009 RMK SLP185 T01420075 57012 IEM_DS3505
ZGOW,2010-02-20 10:00,ZGOW 201000Z AUTO 10004KT 4SM 13/11 A3009 RMK T01300110 IEM_DS3505
ZGOW,2010-02-20 11:00,ZGOW 201100Z AUTO 06006KT 4SM 12/11 A3009 RMK T01200110 IEM_DS3505
ZGOW,2010-02-20 12:00,ZGOW 201200Z AUTO 04004KT 9SM 13/09 A3012 RMK SLP201 T01290094 52016 IEM_DS3505
ZGOW,2010-02-20 13:00,ZGOW 201300Z AUTO 09004KT 4SM 12/11 A3015 RMK T01200110 IEM_DS3505
ZGOW,2010-02-20 14:00,ZGOW 201400Z AUTO 09006KT 4SM 13/12 A3015 RMK T01300120 IEM_DS3505
ZGOW,2010-02-20 15:00,ZGOW 201500Z AUTO 09002KT 8SM 12/10 A3012 RMK SLP199 T01240100 57002 IEM_DS3505
ZGOW,2010-02-20 16:00,ZGOW 201600Z AUTO 05004KT 4SM 12/11 A3012 RMK T01200110 IEM_DS3505
ZGOW,2010-02-20 17:00,ZGOW 201700Z AUTO 04004KT 4SM 12/11 A3012 RMK T01200110 IEM_DS3505
ZGOW,2010-02-20 18:00,ZGOW 201800Z AUTO 00000KT 6SM 12/10 A3012 RMK SLP197 T01230104 57002 IEM_DS3505
ZGOW,2010-02-20 19:00,ZGOW 201900Z AUTO 02002KT 2SM 12/11 A3009 RMK T01200110 IEM_DS3505
ZGOW,2010-02-20 20:00,ZGOW 202000Z AUTO 36002KT 3SM 12/11 A3009 RMK T01200110 IEM_DS3505
ZGOW,2010-02-20 21:00,ZGOW 202100Z AUTO 00000KT 6SM 12/10 A3009 RMK SLP188 T01210097 57009 IEM_DS3505
ZGOW,2010-02-20 22:00,ZGOW 202200Z AUTO 36002KT 3SM 12/11 A3009 RMK T01200110 IEM_DS3505
ZGOW,2010-02-20 23:00,ZGOW 202300Z AUTO 34002KT 2 1/2SM 12/11 A3012 RMK T01200110 IEM_DS3505
ZGOW,2010-02-21 00:00,ZGOW 210000Z AUTO 00000KT 6SM 13/10 A3012 RMK SLP203 T01280098 52015 IEM_DS3505
ZGOW,2010-02-21 01:00,ZGOW 210100Z AUTO 36004KT 4SM 14/11 A3015 RMK T01400110 IEM_DS3505
ZGOW,2010-02-21 02:00,ZGOW 210200Z AUTO 04006KT 7SM 15/12 A3015 RMK T01500120 IEM_DS3505
ZGOW,2010-02-21 03:00,ZGOW 210300Z AUTO 11002KT 6SM 17/10 A3012 RMK SLP199 T01680102 57004 IEM_DS3505
ZGOW,2010-02-21 04:00,ZGOW 210400Z AUTO 08004KT 6SM 18/12 A3009 RMK T01800120 IEM_DS3505
ZGOW,2010-02-21 05:00,ZGOW 210500Z AUTO 6SM 19/13 A3006 RMK T01900130 IEM_DS3505
ZGOW,2010-02-21 06:00,ZGOW 210600Z AUTO 09004KT 9SM 19/07 A3003 RMK SLP163 T01940068 57036 IEM_DS3505
ZGOW,2010-02-21 07:00,ZGOW 210700Z AUTO 13008KT 6SM 19/11 A3000 RMK T01900110 IEM_DS3505
ZGOW,2010-02-21 08:00,ZGOW 210800Z AUTO 12008KT 6SM 18/13 A3000 RMK T01800130 IEM_DS3505
ZGOW,2010-02-21 09:00,ZGOW 210900Z AUTO 14004KT 10SM 17/08 A3003 RMK SLP161 T01700082 57002 IEM_DS3505
ZGOW,2010-02-21 10:00,ZGOW 211000Z AUTO 14006KT 5SM 15/13 A3003 RMK T01500130 IEM_DS3505
ZGOW,2010-02-21 11:00,ZGOW 211100Z AUTO 10004KT 4SM 14/13 A3006 RMK T01400130 IEM_DS3505
ZGOW,2010-02-21 12:00,ZGOW 211200Z AUTO 09002KT 6SM 15/12 A3003 RMK SLP178 T01530119 52017 IEM_DS3505
ZGOW,2010-02-21 13:00,ZGOW 211300Z AUTO 04002KT 5SM 14/13 A3006 RMK T01400130 IEM_DS3505
ZGOW,2010-02-21 14:00,ZGOW 211400Z AUTO 05004KT 4SM 14/13 A3006 RMK T01400130 IEM_DS3505
ZGOW,2010-02-21 15:00,ZGOW 211500Z AUTO 00000KT 4SM 15/12 A3006 RMK SLP180 T01490124 52002 IEM_DS3505
ZGOW,2010-02-21 16:00,ZGOW 211600Z AUTO 00000KT 4SM 14/14 A3003 RMK T01400140 IEM_DS3505
ZGOW,2010-02-21 17:00,ZGOW 211700Z AUTO 09002KT 4SM 14/14 A3000 RMK T01400140 IEM_DS3505
ZGOW,2010-02-21 18:00,ZGOW 211800Z AUTO 00000KT 5SM 15/12 A3003 RMK SLP165 T01470117 57015 IEM_DS3505
ZGOW,2010-02-21 19:00,ZGOW 211900Z AUTO 35004KT 4SM 14/13 A3003 RMK T01400130 IEM_DS3505
ZGOW,2010-02-21 20:00,ZGOW 212000Z AUTO 04006KT 2SM 14/13 A3000 RMK T01400130 IEM_DS3505
ZGOW,2010-02-21 21:00,ZGOW 212100Z AUTO 00000KT 7SM 14/12 A3000 RMK SLP160 T01430120 57005 IEM_DS3505
ZGOW,2010-02-21 22:00,ZGOW 212200Z AUTO 35002KT 3SM 14/13 A3003 RMK T01400130 IEM_DS3505
ZGOW,2010-02-21 23:00,ZGOW 212300Z AUTO 05002KT 2 1/2SM 14/13 A3006 RMK T01400130 IEM_DS3505
ZGOW,2010-02-22 00:00,ZGOW 220000Z AUTO 14002KT 6SM 15/12 A3006 RMK SLP173 T01460121 52013 IEM_DS3505
ZGOW,2010-02-22 01:00,ZGOW 220100Z AUTO 00000KT 2 1/2SM 15/14 A3006 RMK T01500140 IEM_DS3505
ZGOW,2010-02-22 02:00,ZGOW 220200Z AUTO 05004KT 2 1/2SM 15/14 A3009 RMK T01500140 IEM_DS3505
ZGOW,2010-02-22 03:00,ZGOW 220300Z AUTO 00000KT 3SM 15/13 A3009 RMK SLP190 T01460133 52017 IEM_DS3505
ZGOW,2010-02-22 04:00,ZGOW 220400Z AUTO 25002KT 1SM 14/14 A3006 RMK T01400140 IEM_DS3505
ZGOW,2010-02-22 05:00,ZGOW 220500Z AUTO 22002KT 1/2SM 15/15 A3003 RMK T01500150 IEM_DS3505
ZGOW,2010-02-22 06:00,ZGOW 220600Z AUTO 27002KT 3SM 16/15 A3000 RMK 60043 SLP159 T01640149 57031 IEM_DS3505
ZGOW,2010-02-22 07:00,ZGOW 220700Z AUTO 34002KT 1 1/4SM 17/17 A2997 RMK T01700170 IEM_DS3505
ZGOW,2010-02-22 08:00,ZGOW 220800Z AUTO 00000KT 1 1/2SM 18/17 A2997 RMK T01800170 IEM_DS3505
ZGOW,2010-02-22 09:00,ZGOW 220900Z AUTO 00000KT 3SM 18/15 A2997 RMK SLP153 T01780151 57006 IEM_DS3505
ZGOW,2010-02-22 10:00,ZGOW 221000Z AUTO 28002KT 1 1/4SM 17/16 A3000 RMK T01700160 IEM_DS3505
ZGOW,2010-02-22 11:00,ZGOW 221100Z AUTO 15004KT 1SM 15/15 A3000 RMK T01500150 IEM_DS3505
ZGOW,2010-02-22 12:00,ZGOW 221200Z AUTO 25002KT 1SM 15/14 A3000 RMK 60000 SLP164 T01530145 52011 IEM_DS3505
ZGOW,2010-02-22 13:00,ZGOW 221300Z AUTO 00000KT 3/8SM 15/15 A3000 RMK T01500150 IEM_DS3505
ZGOW,2010-02-22 14:00,ZGOW 221400Z AUTO 27002KT 3/8SM 15/15 A3003 RMK T01500150 IEM_DS3505
ZGOW,2010-02-22 15:00,ZGOW 221500Z AUTO 00000KT 1SM 14/14 A3003 RMK SLP162 T01430137 57002 IEM_DS3505
ZGOW,2010-02-22 16:00,ZGOW 221600Z AUTO 00000KT 1/8SM 13/13 A3003 RMK T01300130 IEM_DS3505
ZGOW,2010-02-22 18:00,ZGOW 221800Z AUTO 00000KT 1/4SM 13/12 A3000 RMK SLP158 T01280123 57004 IEM_DS3505
ZGOW,2010-02-22 19:00,ZGOW 221900Z AUTO 00000KT 0SM 14/14 A2997 RMK T01400140 IEM_DS3505
ZGOW,2010-02-22 20:00,ZGOW 222000Z AUTO 34002KT 1/8SM 14/ A2997 RMK IEM_DS3505
ZGOW,2010-02-22 21:00,ZGOW 222100Z AUTO 18002KT 1/8SM 14/14 A2997 RMK 70042 SLP150 T01400137 57008 IEM_DS3505
ZGOW,2010-02-22 22:00,ZGOW 222200Z AUTO 29002KT 1/8SM 14/14 A2997 RMK T01400140 IEM_DS3505
ZGOW,2010-02-22 23:00,ZGOW 222300Z AUTO 32002KT 1/8SM 14/14 A3000 RMK T01400140 IEM_DS3505
ZGOW,2010-02-23 00:00,ZGOW 230000Z AUTO 00000KT 1/8SM 14/14 A3003 RMK 70042 SLP164 T01400137 52014 IEM_DS3505
ZGOW,2010-02-23 01:00,ZGOW 230100Z AUTO 32006KT 3/8SM 15/15 A3003 RMK T01500150 IEM_DS3505
ZGOW,2010-02-23 02:00,ZGOW 230200Z AUTO 33004KT 1SM 16/16 A3003 RMK T01600160 IEM_DS3505
ZGOW,2010-02-23 03:00,ZGOW 230300Z AUTO 00000KT 2SM 18/17 A3000 RMK SLP162 T01750172 57002 IEM_DS3505
ZGOW,2010-02-23 04:00,ZGOW 230400Z AUTO 30002KT 3SM 21/19 A3000 RMK T02100190 IEM_DS3505
ZGOW,2010-02-23 05:00,ZGOW 230500Z AUTO 12008KT 2 1/2SM 22/20 A2997 RMK T02200200 IEM_DS3505
ZGOW,2010-02-23 06:00,ZGOW 230600Z AUTO 11006KT 6SM 22/16 A2994 RMK SLP131 T02240160 57031 IEM_DS3505
ZGOW,2010-02-23 07:00,ZGOW 230700Z AUTO 14010KT 6SM 19/18 A2991 RMK T01900180 IEM_DS3505
ZGOW,2010-02-23 08:00,ZGOW 230800Z AUTO 13008KT 2 1/2SM 19/17 A2991 RMK T01900170 IEM_DS3505
ZGOW,2010-02-23 09:00,ZGOW 230900Z AUTO 11006KT 6SM 19/15 A2991 RMK SLP129 T01930150 57002 IEM_DS3505
ZGOW,2010-02-23 10:00,ZGOW 231000Z AUTO 15006KT 1 1/2SM 16/16 A2994 RMK T01600160 IEM_DS3505
ZGOW,2010-02-23 11:00,ZGOW 231100Z AUTO 12006KT 1/2SM 15/15 A2994 RMK T01500150 IEM_DS3505
ZGOW,2010-02-23 12:00,ZGOW 231200Z AUTO 11004KT 2 1/2SM 15/14 A2994 RMK SLP143 T01540143 52014 IEM_DS3505
ZGOW,2010-02-23 13:00,ZGOW 231300Z AUTO 12004KT 1/8SM 14/14 A2997 RMK T01400140 IEM_DS3505
ZGOW,2010-02-23 14:00,ZGOW 231400Z AUTO 09002KT 1/8SM 14/14 A2997 RMK T01400140 IEM_DS3505
ZGOW,2010-02-23 15:00,ZGOW 231500Z AUTO 09002KT 1SM 14/14 A2997 RMK SLP146 T01450139 52003 IEM_DS3505
ZGOW,2010-02-23 16:00,ZGOW 231600Z AUTO 00000KT 1/8SM 14/ A2997 RMK IEM_DS3505
ZGOW,2010-02-23 17:00,ZGOW 231700Z AUTO 26002KT 1/4SM 14/ A2997 RMK IEM_DS3505
ZGOW,2010-02-23 18:00,ZGOW 231800Z AUTO 07004KT 1/4SM 15/15 A2994 RMK SLP136 T01510146 57010 IEM_DS3505
ZGOW,2010-02-23 19:00,ZGOW 231900Z AUTO 01002KT 3/8SM 15/15 A2991 RMK T01500150 IEM_DS3505
ZGOW,2010-02-23 20:00,ZGOW 232000Z AUTO 08002KT 3/8SM 15/ A2991 RMK IEM_DS3505
ZGOW,2010-02-23 21:00,ZGOW 232100Z AUTO 07002KT 3SM 16/14 A2991 RMK SLP126 T01550145 57010 IEM_DS3505
ZGOW,2010-02-23 22:00,ZGOW 232200Z AUTO 00000KT 1SM 15/15 A2991 RMK T01500150 IEM_DS3505
ZGOW,2010-02-23 23:00,ZGOW 232300Z AUTO 09006KT 1SM 15/15 A2991 RMK T01500150 IEM_DS3505
ZGOW,2010-02-24 00:00,ZGOW 240000Z AUTO 00000KT 2SM 16/15 A2994 RMK SLP135 T01640153 52009 IEM_DS3505
ZGOW,2010-02-24 01:00,ZGOW 240100Z AUTO 00000KT 1 1/4SM 16/16 A2994 RMK T01600160 IEM_DS3505
ZGOW,2010-02-24 02:00,ZGOW 240200Z AUTO 08002KT 1 1/4SM 17/17 A2994 RMK T01700170 IEM_DS3505
ZGOW,2010-02-24 03:00,ZGOW 240300Z AUTO 14004KT 4SM 18/16 A2994 RMK SLP140 T01770155 52005 IEM_DS3505
ZGOW,2010-02-24 04:00,ZGOW 240400Z AUTO 19004KT 2SM 19/18 A2991 RMK T01900180 IEM_DS3505
ZGOW,2010-02-24 05:00,ZGOW 240500Z AUTO 17004KT 2 1/2SM 19/18 A2988 RMK T01900180 IEM_DS3505
ZGOW,2010-02-24 06:00,ZGOW 240600Z AUTO 17002KT 2 1/2SM 19/18 A2985 RMK T01900180 IEM_DS3505
ZGOW,2010-02-24 07:00,ZGOW 240700Z AUTO 08004KT 2 1/2SM 19/19 A2985 RMK T01900190 IEM_DS3505
ZGOW,2010-02-24 08:00,ZGOW 240800Z AUTO 12004KT 2SM 19/19 A2983 RMK T01900190 IEM_DS3505
ZGOW,2010-02-24 09:00,ZGOW 240900Z AUTO 14004KT 4SM 20/18 A2983 RMK SLP102 T01950178 57010 IEM_DS3505
ZGOW,2010-02-24 10:00,ZGOW 241000Z AUTO 14004KT 1SM 18/18 A2985 RMK T01800180 IEM_DS3505
ZGOW,2010-02-24 11:00,ZGOW 241100Z AUTO 12002KT 1SM 17/17 A2985 RMK T01700170 IEM_DS3505
ZGOW,2010-02-24 12:00,ZGOW 241200Z AUTO 14002KT 1/2SM 18/17 A2988 RMK SLP115 T01760170 52013 IEM_DS3505
ZGOW,2010-02-24 13:00,ZGOW 241300Z AUTO 22002KT 3/8SM 18/18 A2988 RMK T01800180 IEM_DS3505
ZGOW,2010-02-24 14:00,ZGOW 241400Z AUTO 00000KT 1/4SM 18/18 A2988 RMK T01800180 IEM_DS3505
ZGOW,2010-02-24 15:00,ZGOW 241500Z AUTO 07002KT 3/8SM 18/17 A2988 RMK SLP116 T01790174 52001 IEM_DS3505
ZGOW,2010-02-24 16:00,ZGOW 241600Z AUTO 05004KT 1/8SM 18/18 A2985 RMK T01800180 IEM_DS3505
ZGOW,2010-02-24 17:00,ZGOW 241700Z AUTO 05004KT 1/8SM 18/ A2985 RMK IEM_DS3505
ZGOW,2010-02-24 18:00,ZGOW 241800Z AUTO 00000KT 1/8SM 18/18 A2985 RMK SLP109 T01820179 57007 IEM_DS3505
ZGOW,2010-02-24 19:00,ZGOW 241900Z AUTO 05002KT 1SM 18/18 A2985 RMK T01800180 IEM_DS3505
ZGOW,2010-02-24 20:00,ZGOW 242000Z AUTO 10002KT 1SM 18/18 A2983 RMK T01800180 IEM_DS3505
ZGOW,2010-02-24 21:00,ZGOW 242100Z AUTO 07002KT 1/4SM 18/18 A2983 RMK 70005 SLP101 T01850182 57008 IEM_DS3505
ZGOW,2010-02-24 22:00,ZGOW 242200Z AUTO 05002KT 1SM 19/19 A2983 RMK T01900190 IEM_DS3505
ZGOW,2010-02-24 23:00,ZGOW 242300Z AUTO 09002KT 1/2SM 19/19 A2985 RMK T01900190 IEM_DS3505
ZGOW,2010-02-25 00:00,ZGOW 250000Z AUTO 09002KT 1 1/4SM 19/19 A2988 RMK 60075 70074 SLP115 T01900187 52014 IEM_DS3505
ZGOW,2010-02-25 01:00,ZGOW 250100Z AUTO 13002KT 1SM 20/20 A2988 RMK T02000200 IEM_DS3505
ZGOW,2010-02-25 02:00,ZGOW 250200Z AUTO 11004KT 1 1/4SM 20/20 A2988 RMK T02000200 IEM_DS3505
ZGOW,2010-02-25 03:00,ZGOW 250300Z AUTO 07002KT 2 1/2SM 21/20 A2988 RMK SLP117 T02120202 52002 IEM_DS3505
ZGOW,2010-02-25 04:00,ZGOW 250400Z AUTO 12004KT 1 1/4SM 21/21 A2985 RMK T02100210 IEM_DS3505
ZGOW,2010-02-25 05:00,ZGOW 250500Z AUTO 12006KT 1SM 21/21 A2983 RMK T02100210 IEM_DS3505
ZGOW,2010-02-25 06:00,ZGOW 250600Z AUTO 18004KT 2 1/2SM 24/22 A2983 RMK 60000 SLP090 T02360219 57027 IEM_DS3505
ZGOW,2010-02-25 07:00,ZGOW 250700Z AUTO 13004KT 1 1/2SM 23/23 A2980 RMK T02300230 IEM_DS3505
ZGOW,2010-02-25 08:00,ZGOW 250800Z AUTO 19010KT 2SM 24/24 A2980 RMK T02400240 IEM_DS3505
ZGOW,2010-02-25 09:00,ZGOW 250900Z AUTO 14004KT 3SM 24/22 A2980 RMK SLP086 T02350219 57004 IEM_DS3505
ZGOW,2010-02-25 10:00,ZGOW 251000Z AUTO 19010KT 1 1/2SM 23/23 A2980 RMK T02300230 IEM_DS3505
ZGOW,2010-02-25 11:00,ZGOW 251100Z AUTO 20010KT 1 1/2SM 23/23 A2980 RMK T02300230 IEM_DS3505
ZGOW,2010-02-25 12:00,ZGOW 251200Z AUTO 20004KT 3SM 23/22 A2983 RMK 60000 SLP101 T02330223 52015 IEM_DS3505
ZGOW,2010-02-25 13:00,ZGOW 251300Z AUTO 20010KT 2SM 23/23 A2985 RMK T02300230 IEM_DS3505
ZGOW,2010-02-25 14:00,ZGOW 251400Z AUTO 20010KT 2SM 23/23 A2985 RMK T02300230 IEM_DS3505
ZGOW,2010-02-25 15:00,ZGOW 251500Z AUTO 18006KT 4SM 23/22 A2985 RMK SLP109 T02330223 52008 IEM_DS3505
ZGOW,2010-02-25 16:00,ZGOW 251600Z AUTO 20006KT 2 1/2SM 23/23 A2985 RMK T02300230 IEM_DS3505
ZGOW,2010-02-25 17:00,ZGOW 251700Z AUTO 21010KT 3SM 23/23 A2983 RMK T02300230 IEM_DS3505
ZGOW,2010-02-25 18:00,ZGOW 251800Z AUTO 18002KT 5SM 22/22 A2983 RMK SLP097 T02250217 57012 IEM_DS3505
ZGOW,2010-02-25 19:00,ZGOW 251900Z AUTO 24002KT 1 1/2SM 22/ A2983 RMK IEM_DS3505
ZGOW,2010-02-25 20:00,ZGOW 252000Z AUTO 00000KT 1/8SM 21/21 A2983 RMK T02100210 IEM_DS3505
ZGOW,2010-02-25 21:00,ZGOW 252100Z AUTO 00000KT 3SM 22/21 A2983 RMK 70069 SLP094 T02170212 57003 IEM_DS3505
ZGOW,2010-02-25 22:00,ZGOW 252200Z AUTO 00000KT 1/4SM 20/ A2983 RMK IEM_DS3505
ZGOW,2010-02-25 23:00,ZGOW 252300Z AUTO 05002KT 1/8SM 20/20 A2985 RMK T02000200 IEM_DS3505
ZGOW,2010-02-26 00:00,ZGOW 260000Z AUTO 14002KT 2 1/2SM 22/22 A2985 RMK 70000 SLP110 T02230220 52016 IEM_DS3505
ZGOW,2010-02-26 01:00,ZGOW 260100Z AUTO 14002KT 1/2SM 23/23 A2988 RMK T02300230 IEM_DS3505
ZGOW,2010-02-26 02:00,ZGOW 260200Z AUTO 18004KT 2 1/2SM 24/24 A2988 RMK T02400240 IEM_DS3505
ZGOW,2010-02-26 03:00,ZGOW 260300Z AUTO 18002KT 10SM 26/23 A2985 RMK SLP113 T02610230 52003 IEM_DS3505
ZGOW,2010-02-26 04:00,ZGOW 260400Z AUTO 20010KT 5SM 27/26 A2985 RMK T02700260 IEM_DS3505
ZGOW,2010-02-26 05:00,ZGOW 260500Z AUTO 19010KT 5SM 28/26 A2983 RMK T02800260 IEM_DS3505
ZGOW,2010-02-26 06:00,ZGOW 260600Z AUTO 18008KT 10SM 28/23 A2980 RMK SLP088 T02830228 57025 IEM_DS3505
ZGOW,2010-02-26 07:00,ZGOW 260700Z AUTO 19010KT 7SM 28/25 A2977 RMK T02800250 IEM_DS3505
ZGOW,2010-02-26 08:00,ZGOW 260800Z AUTO 19010KT 7SM 28/25 A2977 RMK T02800250 IEM_DS3505
ZGOW,2010-02-26 09:00,ZGOW 260900Z AUTO 20008KT 7SM 27/22 A2977 RMK SLP080 T02690217 57008 IEM_DS3505
ZGOW,2010-02-26 10:00,ZGOW 261000Z AUTO 19008KT 4SM 24/23 A2980 RMK T02400230 IEM_DS3505
ZGOW,2010-02-26 11:00,ZGOW 261100Z AUTO 19008KT 4SM 23/23 A2980 RMK T02300230 IEM_DS3505
ZGOW,2010-02-26 12:00,ZGOW 261200Z AUTO 20002KT 7SM 24/22 A2983 RMK SLP100 T02400217 52020 IEM_DS3505
ZGOW,2010-02-26 13:00,ZGOW 261300Z AUTO 16004KT 4SM 23/23 A2985 RMK T02300230 IEM_DS3505
ZGOW,2010-02-26 14:00,ZGOW 261400Z AUTO 08004KT 1 1/4SM 22/22 A2988 RMK T02200220 IEM_DS3505
ZGOW,2010-02-26 15:00,ZGOW 261500Z AUTO 14002KT 6SM 23/22 A2988 RMK SLP115 T02300220 52015 IEM_DS3505
ZGOW,2010-02-26 16:00,ZGOW 261600Z AUTO 10002KT 1/8SM 22/22 A2988 RMK T02200220 IEM_DS3505
ZGOW,2010-02-26 17:00,ZGOW 261700Z AUTO 09002KT 1/8SM 22/22 A2988 RMK T02200220 IEM_DS3505
ZGOW,2010-02-26 18:00,ZGOW 261800Z AUTO 00000KT 4SM 22/22 RMK 60004 SLP111 T02240217 57004 IEM_DS3505
ZGOW,2010-02-26 19:00,ZGOW 261900Z AUTO 00000KT 1/8SM 22/22 A2985 RMK T02200220 IEM_DS3505
ZGOW,2010-02-26 20:00,ZGOW 262000Z AUTO 01002KT 1SM 21/ A2985 RMK IEM_DS3505
ZGOW,2010-02-26 21:00,ZGOW 262100Z AUTO 09002KT 1SM 22/22 A2985 RMK 70004 SLP105 T02200215 57006 IEM_DS3505
ZGOW,2010-02-26 22:00,ZGOW 262200Z AUTO 11002KT 1/8SM 22/22 A2985 RMK T02200220 IEM_DS3505
ZGOW,2010-02-26 23:00,ZGOW 262300Z AUTO 14002KT 1/8SM 21/ A2988 RMK IEM_DS3505
ZGOW,2010-02-27 00:00,ZGOW 270000Z AUTO 07002KT 3/8SM 22/22 A2988 RMK 70004 SLP117 T02220219 52012 IEM_DS3505
ZGOW,2010-02-27 01:00,ZGOW 270100Z AUTO 20004KT 1/4SM 23/23 A2988 RMK T02300230 IEM_DS3505
ZGOW,2010-02-27 02:00,ZGOW 270200Z AUTO 21004KT 2 1/2SM 24/24 A2991 RMK T02400240 IEM_DS3505
ZGOW,2010-02-27 03:00,ZGOW 270300Z AUTO 29002KT 9SM 26/23 A2994 RMK SLP133 T02570230 52016 IEM_DS3505
ZGOW,2010-02-27 04:00,ZGOW 270400Z AUTO 10004KT 2 1/2SM 25/24 A2991 RMK T02500240 IEM_DS3505
ZGOW,2010-02-27 05:00,ZGOW 270500Z AUTO 12004KT 2 1/2SM 27/25 A2988 RMK T02700250 IEM_DS3505
ZGOW,2010-02-27 06:00,ZGOW 270600Z AUTO 14004KT 4SM 28/23 A2985 RMK SLP111 T02750233 57022 IEM_DS3505
ZGOW,2010-02-27 07:00,ZGOW 270700Z AUTO 18008KT 7SM 28/25 A2985 RMK T02800250 IEM_DS3505
ZGOW,2010-02-27 08:00,ZGOW 270800Z AUTO 19010KT 6SM 27/25 A2983 RMK T02700250 IEM_DS3505
ZGOW,2010-02-27 09:00,ZGOW 270900Z AUTO 18004KT 9SM 27/23 A2983 RMK SLP102 T02660227 57009 IEM_DS3505
ZGOW,2010-02-27 10:00,ZGOW 271000Z AUTO 19008KT 5SM 25/24 A2985 RMK T02500240 IEM_DS3505
ZGOW,2010-02-27 11:00,ZGOW 271100Z AUTO 19008KT 4SM 24/23 A2985 RMK T02400230 IEM_DS3505
ZGOW,2010-02-27 12:00,ZGOW 271200Z AUTO 18002KT 6SM 24/22 A2991 RMK SLP123 T02350221 52021 IEM_DS3505
ZGOW,2010-02-27 13:00,ZGOW 271300Z AUTO 00000KT 2 1/2SM 23/23 A2991 RMK T02300230 IEM_DS3505
ZGOW,2010-02-27 14:00,ZGOW 271400Z AUTO 07004KT 1 1/2SM 21/21 A2994 RMK T02100210 IEM_DS3505
ZGOW,2010-02-27 15:00,ZGOW 271500Z AUTO 07004KT 4SM 23/22 A2997 RMK SLP143 T02330223 52020 IEM_DS3505
ZGOW,2010-02-27 16:00,ZGOW 271600Z AUTO 08006KT 1/8SM 21/21 A2997 RMK T02100210 IEM_DS3505
ZGOW,2010-02-27 18:00,ZGOW 271800Z AUTO 11004KT 1SM 20/20 RMK SLP146 T02020199 52003 IEM_DS3505
ZGOW,2010-02-27 19:00,ZGOW 271900Z AUTO 07006KT 1SM 19/19 A2997 RMK T01900190 IEM_DS3505
ZGOW,2010-02-27 20:00,ZGOW 272000Z AUTO 07004KT 1SM 19/19 A2997 RMK T01900190 IEM_DS3505
ZGOW,2010-02-27 21:00,ZGOW 272100Z AUTO 07004KT 1 1/4SM 20/19 A2997 RMK SLP145 T01950190 57001 IEM_DS3505
ZGOW,2010-02-27 22:00,ZGOW 272200Z AUTO 08004KT 1SM 19/19 A2997 RMK T01900190 IEM_DS3505
ZGOW,2010-02-27 23:00,ZGOW 272300Z AUTO 07006KT 1SM 19/19 A3000 RMK T01900190 IEM_DS3505
ZGOW,2010-02-28 00:00,ZGOW 280000Z AUTO 07004KT 1SM 20/19 A3003 RMK SLP162 T01980191 52017 IEM_DS3505
ZGOW,2010-02-28 01:00,ZGOW 280100Z AUTO 07010KT 3SM 18/18 A3006 RMK T01800180 IEM_DS3505
ZGOW,2010-02-28 02:00,ZGOW 280200Z AUTO 06014KT 4SM 19/19 A3006 RMK T01900190 IEM_DS3505
ZGOW,2010-02-28 03:00,ZGOW 280300Z AUTO 07006KT 6SM 20/18 A3006 RMK SLP178 T02030182 52016 IEM_DS3505
ZGOW,2010-02-28 04:00,ZGOW 280400Z AUTO 07014KT 5SM 20/19 A3003 RMK T02000190 IEM_DS3505
ZGOW,2010-02-28 05:00,ZGOW 280500Z AUTO 13006KT 4SM 20/20 A3003 RMK T02000200 IEM_DS3505
ZGOW,2010-02-28 06:00,ZGOW 280600Z AUTO 11002KT 6SM 20/18 A3000 RMK SLP156 T01980178 57022 IEM_DS3505
ZGOW,2010-02-28 07:00,ZGOW 280700Z AUTO 08006KT 3SM 20/19 A2997 RMK T02000190 IEM_DS3505
ZGOW,2010-02-28 08:00,ZGOW 280800Z AUTO 07010KT 3SM 19/19 A2997 RMK T01900190 IEM_DS3505
ZGOW,2010-02-28 09:00,ZGOW 280900Z AUTO 00000KT 5SM 20/18 A2997 RMK SLP149 T01950176 57007 IEM_DS3505
ZGOW,2010-02-28 10:00,ZGOW 281000Z AUTO 06008KT 2SM 19/18 A3000 RMK T01900180 IEM_DS3505
ZGOW,2010-02-28 11:00,ZGOW 281100Z AUTO 05004KT 2SM 18/18 A3000 RMK T01800180 IEM_DS3505
ZGOW,2010-02-28 12:00,ZGOW 281200Z AUTO 14004KT 5SM 18/17 A3003 RMK 60000 SLP164 T01830168 52015 IEM_DS3505
ZGOW,2010-02-28 13:00,ZGOW 281300Z AUTO 00000KT 1SM 18/18 A3003 RMK T01800180 IEM_DS3505
ZGOW,2010-02-28 14:00,ZGOW 281400Z AUTO 16002KT 1SM 18/18 A3003 RMK T01800180 IEM_DS3505
ZGOW,2010-02-28 15:00,ZGOW 281500Z AUTO 00000KT 2 1/2SM 18/18 RMK SLP169 T01850177 52005 IEM_DS3505
ZGOW,2010-02-28 16:00,ZGOW 281600Z AUTO 07004KT 3/8SM 18/18 A3003 RMK T01800180 IEM_DS3505
ZGOW,2010-02-28 17:00,ZGOW 281700Z AUTO 04004KT 3/8SM 18/18 A3000 RMK T01800180 IEM_DS3505
ZGOW,2010-02-28 18:00,ZGOW 281800Z AUTO 07004KT 2SM 18/18 A3000 RMK 60000 SLP154 T01800175 57015 IEM_DS3505
ZGOW,2010-02-28 19:00,ZGOW 281900Z AUTO 04004KT 1/2SM 18/18 A3000 RMK T01800180 IEM_DS3505
ZGOW,2010-02-28 20:00,ZGOW 282000Z AUTO 03004KT 1/2SM 18/18 A2997 RMK T01800180 IEM_DS3505
ZGOW,2010-02-28 21:00,ZGOW 282100Z AUTO 07002KT 2SM 18/18 A2997 RMK 70000 SLP153 T01810175 57001 IEM_DS3505
ZGOW,2010-02-28 22:00,ZGOW 282200Z AUTO 10002KT 1SM 18/18 A3000 RMK T01800180 IEM_DS3505
ZGOW,2010-02-28 23:00,ZGOW 282300Z AUTO 00000KT 1/2SM 18/18 A3000 RMK T01800180 IEM_DS3505
ZGOW,2010-03-01 00:00,ZGOW 010000Z AUTO 00000KT 1SM 19/18 A3003 RMK 70000 SLP168 T01920180 52015 IEM_DS3505
ZGOW,2010-03-01 01:00,ZGOW 010100Z AUTO 18002KT 1SM 20/20 A3003 RMK T02000200 IEM_DS3505
ZGOW,2010-03-01 02:00,ZGOW 010200Z AUTO 13004KT 1 1/4SM 22/21 A3003 RMK T02200210 IEM_DS3505
ZGOW,2010-03-01 03:00,ZGOW 010300Z AUTO 11004KT 4SM 24/20 A3003 RMK SLP161 T02380201 57007 IEM_DS3505
ZGOW,2010-03-01 04:00,ZGOW 010400Z AUTO 15006KT 1 1/2SM 22/21 A3000 RMK T02200210 IEM_DS3505
ZGOW,2010-03-01 05:00,ZGOW 010500Z AUTO 15006KT 2 1/2SM 24/22 A2994 RMK T02400220 IEM_DS3505
ZGOW,2010-03-01 06:00,ZGOW 010600Z AUTO 14004KT 4SM 26/21 A2994 RMK SLP132 T02600206 57029 IEM_DS3505
ZGOW,2010-03-01 07:00,ZGOW 010700Z AUTO 14006KT 2SM 24/22 A2991 RMK T02400220 IEM_DS3505
ZGOW,2010-03-01 08:00,ZGOW 010800Z AUTO 16010KT 3SM 24/22 A2988 RMK T02400220 IEM_DS3505
ZGOW,2010-03-01 09:00,ZGOW 010900Z AUTO 16006KT 6SM 23/20 A2988 RMK SLP119 T02340200 57013 IEM_DS3505
ZGOW,2010-03-01 10:00,ZGOW 011000Z AUTO 13006KT 1 1/2SM 21/21 A2988 RMK T02100210 IEM_DS3505
ZGOW,2010-03-01 11:00,ZGOW 011100Z AUTO 20006KT 1 1/2SM 21/21 A2991 RMK T02100210 IEM_DS3505
ZGOW,2010-03-01 12:00,ZGOW 011200Z AUTO 18002KT 5SM 22/20 A2991 RMK SLP127 T02160204 52008 IEM_DS3505
ZGOW,2010-03-01 13:00,ZGOW 011300Z AUTO 20006KT 1 1/2SM 21/21 A2994 RMK T02100210 IEM_DS3505
ZGOW,2010-03-01 14:00,ZGOW 011400Z AUTO 00000KT 1 1/2SM 21/21 A2994 RMK T02100210 IEM_DS3505
ZGOW,2010-03-01 15:00,ZGOW 011500Z AUTO 25002KT 5SM 21/20 A2994 RMK SLP137 T02120200 52010 IEM_DS3505
ZGOW,2010-03-01 16:00,ZGOW 011600Z AUTO 18002KT 1 1/4SM 20/20 A2994 RMK T02000200 IEM_DS3505
ZGOW,2010-03-01 17:00,ZGOW 011700Z AUTO 36002KT 1 1/4SM 20/20 A2991 RMK T02000200 IEM_DS3505
ZGOW,2010-03-01 18:00,ZGOW 011800Z AUTO 02002KT 2SM 21/20 A2991 RMK SLP125 T02100205 57012 IEM_DS3505
ZGOW,2010-03-01 19:00,ZGOW 011900Z AUTO 09002KT 1SM 20/ A2991 RMK IEM_DS3505
ZGOW,2010-03-01 21:00,ZGOW 012100Z AUTO 04002KT 2SM 21/20 A2988 RMK SLP121 T02100200 57004 IEM_DS3505
ZGOW,2010-03-01 22:00,ZGOW 012200Z AUTO 00000KT 1SM 20/ A2991 RMK IEM_DS3505
ZGOW,2010-03-01 23:00,ZGOW 012300Z AUTO 17002KT 1SM 20/20 A2994 RMK T02000200 IEM_DS3505
ZGOW,2010-03-02 00:00,ZGOW 020000Z AUTO 11002KT 4SM 22/21 A2994 RMK SLP138 T02220212 52017 IEM_DS3505
ZGOW,2010-03-02 01:00,ZGOW 020100Z AUTO 14002KT 1 1/2SM 24/23 A2997 RMK T02400230 IEM_DS3505
ZGOW,2010-03-02 02:00,ZGOW 020200Z AUTO 19004KT 2SM 25/23 A2997 RMK T02500230 IEM_DS3505
ZGOW,2010-03-02 03:00,ZGOW 020300Z AUTO 14006KT 6SM 26/21 A2994 RMK SLP137 T02640212 57001 IEM_DS3505
ZGOW,2010-03-02 04:00,ZGOW 020400Z AUTO 16008KT 2 1/2SM 25/23 A2991 RMK T02500230 IEM_DS3505
ZGOW,2010-03-02 05:00,ZGOW 020500Z AUTO 16010KT 2 1/2SM 25/24 A2991 RMK T02500240 IEM_DS3505
ZGOW,2010-03-02 06:00,ZGOW 020600Z AUTO 16008KT 6SM 25/22 A2988 RMK SLP118 T02520217 57019 IEM_DS3505
ZGOW,2010-03-02 07:00,ZGOW 020700Z AUTO 14010KT 2SM 24/23 A2988 RMK T02400230 IEM_DS3505
ZGOW,2010-03-02 08:00,ZGOW 020800Z AUTO 12008KT 2SM 23/22 A2988 RMK T02300220 IEM_DS3505
ZGOW,2010-03-02 09:00,ZGOW 020900Z AUTO 11006KT 5SM 24/21 A2988 RMK SLP114 T02350214 57004 IEM_DS3505
ZGOW,2010-03-02 10:00,ZGOW 021000Z AUTO 12008KT 1SM 21/21 A2988 RMK T02100210 IEM_DS3505
ZGOW,2010-03-02 11:00,ZGOW 021100Z AUTO 12006KT 1SM 20/20 A2991 RMK T02000200 IEM_DS3505
ZGOW,2010-03-02 12:00,ZGOW 021200Z AUTO 11004KT 1 1/4SM 21/20 A2994 RMK SLP132 T02130201 52018 IEM_DS3505
ZGOW,2010-03-02 13:00,ZGOW 021300Z AUTO 13004KT 1SM 19/19 A2994 RMK T01900190 IEM_DS3505
ZGOW,2010-03-02 14:00,ZGOW 021400Z AUTO 08006KT 1SM 19/19 A2994 RMK T01900190 IEM_DS3505
ZGOW,2010-03-02 15:00,ZGOW 021500Z AUTO 11004KT 1SM 20/20 A2994 RMK SLP142 T02040196 52010 IEM_DS3505
ZGOW,2010-03-02 16:00,ZGOW 021600Z AUTO 08006KT 1SM 19/19 A2994 RMK T01900190 IEM_DS3505
ZGOW,2010-03-02 17:00,ZGOW 021700Z AUTO 10002KT 1/2SM 19/19 A2994 RMK T01900190 IEM_DS3505
ZGOW,2010-03-02 18:00,ZGOW 021800Z AUTO 11004KT 1/2SM 20/20 A2991 RMK SLP132 T02000195 57010 IEM_DS3505
ZGOW,2010-03-02 19:00,ZGOW 021900Z AUTO 07010KT 1SM 18/18 A2991 RMK T01800180 IEM_DS3505
ZGOW,2010-03-02 20:00,ZGOW 022000Z AUTO 07010KT 1 1/2SM 17/ A2991 RMK IEM_DS3505
ZGOW,2010-03-02 21:00,ZGOW 022100Z AUTO 07006KT 1 1/4SM 18/17 A2994 RMK 70000 SLP135 T01760171 52003 IEM_DS3505
ZGOW,2010-03-02 22:00,ZGOW 022200Z AUTO 08010KT 3SM 17/17 A2994 RMK T01700170 IEM_DS3505
ZGOW,2010-03-02 23:00,ZGOW 022300Z AUTO 07010KT 2 1/2SM 17/17 A2997 RMK T01700170 IEM_DS3505
ZGOW,2010-03-03 00:00,ZGOW 030000Z AUTO 09002KT 5SM 18/17 A2997 RMK 60000 70000 SLP151 T01780167 52016 IEM_DS3505
ZGOW,2010-03-03 01:00,ZGOW 030100Z AUTO 07008KT 2 1/2SM 17/17 A3000 RMK T01700170 IEM_DS3505
ZGOW,2010-03-03 02:00,ZGOW 030200Z AUTO 08008KT 2 1/2SM 18/18 A3000 RMK T01800180 IEM_DS3505
ZGOW,2010-03-03 03:00,ZGOW 030300Z AUTO 07002KT 4SM 18/17 A3000 RMK SLP157 T01820167 52006 IEM_DS3505
ZGOW,2010-03-03 04:00,ZGOW 030400Z AUTO 06008KT 1 1/2SM 18/17 A2997 RMK T01800170 IEM_DS3505
ZGOW,2010-03-03 05:00,ZGOW 030500Z AUTO 07010KT 2 1/2SM 18/18 A2994 RMK T01800180 IEM_DS3505
ZGOW,2010-03-03 06:00,ZGOW 030600Z AUTO 09004KT 4SM 19/17 A2994 RMK 60000 SLP139 T01900170 57018 IEM_DS3505
ZGOW,2010-03-03 07:00,ZGOW 030700Z AUTO 07006KT 2SM 20/19 A2991 RMK T02000190 IEM_DS3505
ZGOW,2010-03-03 08:00,ZGOW 030800Z AUTO 08008KT 2SM 19/19 A2991 RMK T01900190 IEM_DS3505
ZGOW,2010-03-03 09:00,ZGOW 030900Z AUTO 09004KT 2SM 19/17 A2991 RMK SLP132 T01930173 57007 IEM_DS3505
ZGOW,2010-03-03 10:00,ZGOW 031000Z AUTO 14004KT 1 1/2SM 18/18 A2991 RMK T01800180 IEM_DS3505
ZGOW,2010-03-03 11:00,ZGOW 031100Z AUTO 06008KT 1 1/2SM 18/18 A2991 RMK T01800180 IEM_DS3505
ZGOW,2010-03-03 12:00,ZGOW 031200Z AUTO 07004KT 2 1/2SM 18/17 A2994 RMK 60000 SLP138 T01840171 52006 IEM_DS3505
ZGOW,2010-03-03 13:00,ZGOW 031300Z AUTO 06008KT 1 1/2SM 18/18 A2994 RMK T01800180 IEM_DS3505
ZGOW,2010-03-03 14:00,ZGOW 031400Z AUTO 07004KT 1 1/2SM 18/18 A2997 RMK T01800180 IEM_DS3505
ZGOW,2010-03-03 15:00,ZGOW 031500Z AUTO 07002KT 1 1/4SM 18/17 A2997 RMK SLP146 T01780170 52008 IEM_DS3505
ZGOW,2010-03-03 16:00,ZGOW 031600Z AUTO 07002KT 1SM 17/17 A2997 RMK T01700170 IEM_DS3505
ZGOW,2010-03-03 17:00,ZGOW 031700Z AUTO 07002KT 1SM 18/18 A2994 RMK T01800180 IEM_DS3505
ZGOW,2010-03-03 18:00,ZGOW 031800Z AUTO 09002KT 1SM 18/17 A2994 RMK 60000 SLP133 T01790174 57013 IEM_DS3505
ZGOW,2010-03-03 19:00,ZGOW 031900Z AUTO 05002KT 1SM 18/18 A2991 RMK T01800180 IEM_DS3505
ZGOW,2010-03-03 20:00,ZGOW 032000Z AUTO 00000KT 1SM 18/18 A2988 RMK T01800180 IEM_DS3505
ZGOW,2010-03-03 21:00,ZGOW 032100Z AUTO 00000KT 1/2SM 18/18 A2988 RMK 70001 SLP123 T01810176 57010 IEM_DS3505
ZGOW,2010-03-03 22:00,ZGOW 032200Z AUTO 03002KT 1/2SM 18/18 A2991 RMK T01800180 IEM_DS3505
ZGOW,2010-03-03 23:00,ZGOW 032300Z AUTO 07002KT 3/8SM 18/18 A2991 RMK T01800180 IEM_DS3505
ZGOW,2010-03-04 00:00,ZGOW 040000Z AUTO 07002KT 3/8SM 19/18 A2994 RMK 60000 70002 SLP139 T01870184 52016 IEM_DS3505
ZGOW,2010-03-04 01:00,ZGOW 040100Z AUTO 04004KT 1/2SM 19/19 A2994 RMK T01900190 IEM_DS3505
ZGOW,2010-03-04 02:00,ZGOW 040200Z AUTO 07002KT 1SM 20/20 A2997 RMK T02000200 IEM_DS3505
ZGOW,2010-03-04 03:00,ZGOW 040300Z AUTO 07002KT 1 1/4SM 21/19 A2997 RMK SLP147 T02060193 52008 IEM_DS3505
ZGOW,2010-03-04 04:00,ZGOW 040400Z AUTO 09004KT 1 1/4SM 21/21 A2994 RMK T02100210 IEM_DS3505
ZGOW,2010-03-04 05:00,ZGOW 040500Z AUTO 1 1/2SM 23/22 A2991 RMK T02300220 IEM_DS3505
ZGOW,2010-03-04 06:00,ZGOW 040600Z AUTO 16002KT 3SM 22/20 A2988 RMK 60000 SLP118 T02240199 57029 IEM_DS3505
ZGOW,2010-03-04 07:00,ZGOW 040700Z AUTO 12004KT 3SM 22/21 A2988 RMK T02200210 IEM_DS3505
ZGOW,2010-03-04 08:00,ZGOW 040800Z AUTO 12004KT 3SM 21/21 A2988 RMK T02100210 IEM_DS3505
ZGOW,2010-03-04 09:00,ZGOW 040900Z AUTO 14002KT 3SM 22/20 A2988 RMK SLP113 T02210198 57005 IEM_DS3505
ZGOW,2010-03-04 10:00,ZGOW 041000Z AUTO 13004KT 2 1/2SM 21/21 A2988 RMK T02100210 IEM_DS3505
ZGOW,2010-03-04 11:00,ZGOW 041100Z AUTO 18004KT 2SM 20/20 A2988 RMK T02000200 IEM_DS3505
ZGOW,2010-03-04 12:00,ZGOW 041200Z AUTO 11004KT 3SM 21/20 A2991 RMK SLP123 T02120202 52010 IEM_DS3505
ZGOW,2010-03-04 13:00,ZGOW 041300Z AUTO 10002KT 3/8SM 20/20 A2991 RMK T02000200 IEM_DS3505
ZGOW,2010-03-04 14:00,ZGOW 041400Z AUTO 00000KT 1/4SM 20/ A2991 RMK IEM_DS3505
ZGOW,2010-03-04 15:00,ZGOW 041500Z AUTO 00000KT 4SM 21/20 A2991 RMK SLP132 T02120202 52009 IEM_DS3505
ZGOW,2010-03-04 16:00,ZGOW 041600Z AUTO 00000KT 1SM 20/20 A2991 RMK T02000200 IEM_DS3505
ZGOW,2010-03-04 17:00,ZGOW 041700Z AUTO 00000KT 3/8SM 20/ A2991 RMK IEM_DS3505
ZGOW,2010-03-04 18:00,ZGOW 041800Z AUTO 07002KT 4SM 22/21 A2991 RMK 60000 SLP128 T02150207 57004 IEM_DS3505
ZGOW,2010-03-04 19:00,ZGOW 041900Z AUTO 08002KT 1/8SM 20/ A2991 RMK IEM_DS3505
ZGOW,2010-03-04 20:00,ZGOW 042000Z AUTO 10002KT 1/8SM 21/21 A2991 RMK T02100210 IEM_DS3505
ZGOW,2010-03-04 21:00,ZGOW 042100Z AUTO 14004KT 1SM 21/21 A2988 RMK 70000 SLP121 T02090206 57007 IEM_DS3505
ZGOW,2010-03-04 22:00,ZGOW 042200Z AUTO 12004KT 1/4SM 20/20 A2991 RMK T02000200 IEM_DS3505
ZGOW,2010-03-04 23:00,ZGOW 042300Z AUTO 13004KT 1/4SM 20/20 A2994 RMK T02000200 IEM_DS3505
ZGOW,2010-03-05 00:00,ZGOW 050000Z AUTO 09002KT 1SM 21/20 A2994 RMK 70000 SLP138 T02070202 52017 IEM_DS3505
ZGOW,2010-03-05 01:00,ZGOW 050100Z AUTO 12006KT 1/2SM 20/20 A2994 RMK T02000200 IEM_DS3505
ZGOW,2010-03-05 02:00,ZGOW 050200Z AUTO 11006KT 1 1/4SM 20/20 A2994 RMK T02000200 IEM_DS3505
ZGOW,2010-03-05 03:00,ZGOW 050300Z AUTO 11006KT 1 1/4SM 21/19 A2994 RMK SLP140 T02070194 52002 IEM_DS3505
ZGOW,2010-03-05 04:00,ZGOW 050400Z AUTO 13006KT 1SM 21/21 A2991 RMK T02100210 IEM_DS3505
ZGOW,2010-03-05 05:00,ZGOW 050500Z AUTO 13008KT 1 1/4SM 22/22 A2988 RMK T02200220 IEM_DS3505
ZGOW,2010-03-05 06:00,ZGOW 050600Z AUTO 09010KT 6SM 22/19 A2988 RMK SLP113 T02220194 57027 IEM_DS3505
ZGOW,2010-03-05 07:00,ZGOW 050700Z AUTO 12008KT 1 1/4SM 21/21 A2985 RMK T02100210 IEM_DS3505
ZGOW,2010-03-05 08:00,ZGOW 050800Z AUTO 13006KT 1 1/4SM 22/22 A2985 RMK T02200220 IEM_DS3505
ZGOW,2010-03-05 09:00,ZGOW 050900Z AUTO 14002KT 3SM 21/20 A2985 RMK SLP110 T02110197 57003 IEM_DS3505
ZGOW,2010-03-05 10:00,ZGOW 051000Z AUTO 13006KT 1SM 21/21 A2985 RMK T02100210 IEM_DS3505
ZGOW,2010-03-05 11:00,ZGOW 051100Z AUTO 12006KT 1SM 21/21 A2985 RMK T02100210 IEM_DS3505
ZGOW,2010-03-05 12:00,ZGOW 051200Z AUTO 14004KT 1 1/4SM 21/21 A2988 RMK SLP116 T02140207 52006 IEM_DS3505
ZGOW,2010-03-05 13:00,ZGOW 051300Z AUTO 10004KT 1/2SM 21/21 A2988 RMK T02100210 IEM_DS3505
ZGOW,2010-03-05 14:00,ZGOW 051400Z AUTO 12004KT 1SM 21/21 A2991 RMK T02100210 IEM_DS3505
ZGOW,2010-03-05 15:00,ZGOW 051500Z AUTO 14004KT 2SM 22/21 A2991 RMK SLP129 T02180211 52013 IEM_DS3505
ZGOW,2010-03-05 16:00,ZGOW 051600Z AUTO 13006KT 1/8SM 21/21 A2991 RMK T02100210 IEM_DS3505
ZGOW,2010-03-05 17:00,ZGOW 051700Z AUTO 14002KT 1/8SM 20/ A2991 RMK IEM_DS3505
ZGOW,2010-03-05 18:00,ZGOW 051800Z AUTO 09004KT 1SM 21/20 A2991 RMK SLP125 T02100205 57004 IEM_DS3505
ZGOW,2010-03-05 21:00,ZGOW 052100Z AUTO 11004KT 1SM 21/20 A2991 RMK 70000 SLP123 T02100205 57002 IEM_DS3505
ZGOW,2010-03-05 22:00,ZGOW 052200Z AUTO 13004KT 1/4SM 21/21 A2991 RMK T02100210 IEM_DS3505
ZGOW,2010-03-05 23:00,ZGOW 052300Z AUTO 12006KT 1/4SM 21/21 A2994 RMK T02100210 IEM_DS3505
ZGOW,2010-03-06 00:00,ZGOW 060000Z AUTO 09002KT 1SM 21/20 A2994 RMK SLP141 T02100205 52018 IEM_DS3505
ZGOW,2010-03-06 01:00,ZGOW 060100Z AUTO 12006KT 1/4SM 21/21 A2997 RMK T02100210 IEM_DS3505
ZGOW,2010-03-06 02:00,ZGOW 060200Z AUTO 12006KT 1SM 22/22 A3000 RMK T02200220 IEM_DS3505
ZGOW,2010-03-06 03:00,ZGOW 060300Z AUTO 11004KT 6SM 24/22 A2997 RMK SLP150 T02380219 52009 IEM_DS3505
ZGOW,2010-03-06 04:00,ZGOW 060400Z AUTO 13004KT 1SM 22/22 A2997 RMK T02200220 IEM_DS3505
ZGOW,2010-03-06 05:00,ZGOW 060500Z AUTO 14008KT 2SM 24/24 A2994 RMK T02400240 IEM_DS3505
ZGOW,2010-03-06 06:00,ZGOW 060600Z AUTO 16006KT 7SM 26/22 A2991 RMK SLP124 T02630224 57026 IEM_DS3505
ZGOW,2010-03-06 07:00,ZGOW 060700Z AUTO 17010KT 4SM 26/24 A2988 RMK T02600240 IEM_DS3505
ZGOW,2010-03-06 08:00,ZGOW 060800Z AUTO 14008KT 4SM 25/24 A2988 RMK T02500240 IEM_DS3505
ZGOW,2010-03-06 09:00,ZGOW 060900Z AUTO 18006KT 9SM 25/21 A2988 RMK SLP121 T02530214 57003 IEM_DS3505
ZGOW,2010-03-06 10:00,ZGOW 061000Z AUTO 19010KT 7SM 25/23 A2991 RMK T02500230 IEM_DS3505
ZGOW,2010-03-06 11:00,ZGOW 061100Z AUTO 13006KT 7SM 23/23 A2991 RMK T02300230 IEM_DS3505
ZGOW,2010-03-06 12:00,ZGOW 061200Z AUTO 14004KT 6SM 24/22 A2994 RMK SLP137 T02380221 52016 IEM_DS3505
ZGOW,2010-03-06 13:00,ZGOW 061300Z AUTO 13006KT 2SM 21/21 A2997 RMK T02100210 IEM_DS3505
ZGOW,2010-03-06 14:00,ZGOW 061400Z AUTO 10006KT 2 1/2SM 21/21 A2997 RMK T02100210 IEM_DS3505
ZGOW,2010-03-06 15:00,ZGOW 061500Z AUTO 09002KT 4SM 21/20 A3000 RMK SLP156 T02080195 52019 IEM_DS3505
ZGOW,2010-03-06 16:00,ZGOW 061600Z AUTO 08006KT 2SM 19/19 A3000 RMK T01900190 IEM_DS3505
ZGOW,2010-03-06 17:00,ZGOW 061700Z AUTO 05008KT 2SM 19/19 A3000 RMK T01900190 IEM_DS3505
ZGOW,2010-03-06 18:00,ZGOW 061800Z AUTO 09004KT 5SM 20/18 A2997 RMK SLP151 T01970182 57005 IEM_DS3505
ZGOW,2010-03-06 19:00,ZGOW 061900Z AUTO 04012KT 2 1/2SM 17/17 A3000 RMK T01700170 IEM_DS3505
ZGOW,2010-03-06 20:00,ZGOW 062000Z AUTO 06014KT 1SM 16/ A3000 RMK IEM_DS3505
ZGOW,2010-03-06 21:00,ZGOW 062100Z AUTO 07004KT 3SM 16/15 A3003 RMK 70007 SLP165 T01640153 52014 IEM_DS3505
ZGOW,2010-03-06 22:00,ZGOW 062200Z AUTO 04006KT 2 1/2SM 15/15 A3006 RMK T01500150 IEM_DS3505
ZGOW,2010-03-06 23:00,ZGOW 062300Z AUTO 03008KT 4SM 15/15 A3006 RMK T01500150 IEM_DS3505
ZGOW,2010-03-07 00:00,ZGOW 070000Z AUTO 16002KT 7SM 15/14 A3012 RMK 60035 70036 SLP193 T01500135 52028 IEM_DS3505
ZGOW,2010-03-07 01:00,ZGOW 070100Z AUTO 02006KT 3SM 14/14 A3012 RMK T01400140 IEM_DS3505
ZGOW,2010-03-07 02:00,ZGOW 070200Z AUTO 34006KT 1 1/4SM 14/14 A3012 RMK T01400140 IEM_DS3505
ZGOW,2010-03-07 03:00,ZGOW 070300Z AUTO 16002KT 4SM 14/13 A3012 RMK SLP201 T01390128 52008 IEM_DS3505
ZGOW,2010-03-07 04:00,ZGOW 070400Z AUTO 33006KT 1 1/4SM 14/14 A3012 RMK T01400140 IEM_DS3505
ZGOW,2010-03-07 05:00,ZGOW 070500Z AUTO 01004KT 1 1/2SM 14/14 A3006 RMK T01400140 IEM_DS3505
ZGOW,2010-03-07 06:00,ZGOW 070600Z AUTO 04004KT 6SM 14/13 A3006 RMK 60000 SLP177 T01450129 57024 IEM_DS3505
ZGOW,2010-03-07 07:00,ZGOW 070700Z AUTO 06006KT 1 1/2SM 14/14 A3003 RMK T01400140 IEM_DS3505
ZGOW,2010-03-07 08:00,ZGOW 070800Z AUTO 08012KT 2 1/2SM 14/14 A3003 RMK T01400140 IEM_DS3505
ZGOW,2010-03-07 09:00,ZGOW 070900Z AUTO 09008KT 2SM 14/13 A3003 RMK SLP173 T01400131 57004 IEM_DS3505
ZGOW,2010-03-07 10:00,ZGOW 071000Z AUTO 07014KT 2 1/2SM 14/14 A3006 RMK T01400140 IEM_DS3505
ZGOW,2010-03-07 11:00,ZGOW 071100Z AUTO 07017KT 7SM 14/14 A3006 RMK T01400140 IEM_DS3505
ZGOW,2010-03-07 12:00,ZGOW 071200Z AUTO 07008KT 8SM 14/12 A3009 RMK 60002 SLP189 T01450125 52016 IEM_DS3505
ZGOW,2010-03-07 13:00,ZGOW 071300Z AUTO 06017KT 7SM 14/14 A3009 RMK T01400140 IEM_DS3505
ZGOW,2010-03-07 14:00,ZGOW 071400Z AUTO 07017G27KT 3SM 13/13 A3012 RMK T01300130 IEM_DS3505
ZGOW,2010-03-07 15:00,ZGOW 071500Z AUTO 07006G25KT 5SM 13/12 A3012 RMK SLP200 T01300119 52011 IEM_DS3505
ZGOW,2010-03-07 16:00,ZGOW 071600Z AUTO 07017KT 2 1/2SM 13/13 A3012 RMK T01300130 IEM_DS3505
ZGOW,2010-03-07 17:00,ZGOW 071700Z AUTO 07016KT 1SM 13/13 A3012 RMK T01300130 IEM_DS3505
ZGOW,2010-03-07 18:00,ZGOW 071800Z AUTO 07006KT 7SM 13/12 A3009 RMK 60000 SLP193 T01330117 57007 IEM_DS3505
ZGOW,2010-03-07 19:00,ZGOW 071900Z AUTO 07016KT 1SM 13/12 A3009 RMK T01300120 IEM_DS3505
ZGOW,2010-03-07 20:00,ZGOW 072000Z AUTO 07016KT 1SM 13/12 A3009 RMK T01300120 IEM_DS3505
ZGOW,2010-03-07 21:00,ZGOW 072100Z AUTO 07010KT 9SM 13/10 A3009 RMK 70031 SLP188 T01300105 57005 IEM_DS3505
ZGOW,2010-03-07 22:00,ZGOW 072200Z AUTO 07016KT 3SM 13/12 A3009 RMK T01300120 IEM_DS3505
ZGOW,2010-03-07 23:00,ZGOW 072300Z AUTO 08014KT 4SM 13/12 A3012 RMK T01300120 IEM_DS3505
ZGOW,2010-03-08 00:00,ZGOW 080000Z AUTO 09008KT 9SM 13/11 A3012 RMK 60000 70003 SLP203 T01300107 52015 IEM_DS3505
ZGOW,2010-03-08 01:00,ZGOW 080100Z AUTO 07016KT 7SM 13/12 A3015 RMK T01300120 IEM_DS3505
ZGOW,2010-03-08 02:00,ZGOW 080200Z AUTO 07014KT 7SM 13/12 A3015 RMK T01300120 IEM_DS3505
ZGOW,2010-03-08 03:00,ZGOW 080300Z AUTO 07004KT 11SM 14/11 A3012 RMK SLP204 T01380110 52001 IEM_DS3505
ZGOW,2010-03-08 04:00,ZGOW 080400Z AUTO 07012KT 7SM 14/13 A3012 RMK T01400130 IEM_DS3505
ZGOW,2010-03-08 05:00,ZGOW 080500Z AUTO 06010KT 7SM 14/13 A3009 RMK T01400130 IEM_DS3505
ZGOW,2010-03-08 06:00,ZGOW 080600Z AUTO 04004KT 9SM 14/11 A3006 RMK SLP178 T01400113 57026 IEM_DS3505
ZGOW,2010-03-08 07:00,ZGOW 080700Z AUTO 06008KT 7SM 14/13 A3003 RMK T01400130 IEM_DS3505
ZGOW,2010-03-08 08:00,ZGOW 080800Z AUTO 06008KT 4SM 14/13 A3003 RMK T01400130 IEM_DS3505
ZGOW,2010-03-08 09:00,ZGOW 080900Z AUTO 07004KT 7SM 14/12 A3006 RMK SLP173 T01420121 57005 IEM_DS3505
ZGOW,2010-03-08 10:00,ZGOW 081000Z AUTO 05006KT 4SM 14/13 A3006 RMK T01400130 IEM_DS3505
ZGOW,2010-03-08 11:00,ZGOW 081100Z AUTO 06006KT 1 1/2SM 13/13 A3006 RMK T01300130 IEM_DS3505
ZGOW,2010-03-08 12:00,ZGOW 081200Z AUTO 00000KT 2SM 14/13 A3009 RMK 60003 SLP194 T01370129 52021 IEM_DS3505
ZGOW,2010-03-08 13:00,ZGOW 081300Z AUTO 35008KT 2SM 13/13 A3012 RMK T01300130 IEM_DS3505
ZGOW,2010-03-08 14:00,ZGOW 081400Z AUTO 32008KT 2 1/2SM 12/12 A3012 RMK T01200120 IEM_DS3505
ZGOW,2010-03-08 15:00,ZGOW 081500Z AUTO 34002KT 2 1/2SM 12/11 A3015 RMK SLP210 T01190108 52016 IEM_DS3505
ZGOW,2010-03-08 16:00,ZGOW 081600Z AUTO 33012KT 3SM 11/11 A3015 RMK T01100110 IEM_DS3505
ZGOW,2010-03-08 17:00,ZGOW 081700Z AUTO 34010KT 5SM 11/11 A3015 RMK T01100110 IEM_DS3505
ZGOW,2010-03-08 18:00,ZGOW 081800Z AUTO 09004KT 9SM 10/08 A3018 RMK 60003 SLP215 T01050079 52005 IEM_DS3505
ZGOW,2010-03-08 19:00,ZGOW 081900Z AUTO 33012KT 2 1/2SM 09/09 A3018 RMK T00900090 IEM_DS3505
ZGOW,2010-03-08 20:00,ZGOW 082000Z AUTO 34010KT 2 1/2SM 09/09 A3018 RMK T00900090 IEM_DS3505
ZGOW,2010-03-08 21:00,ZGOW 082100Z AUTO 32008KT 9SM 09/07 A3018 RMK 70007 SLP225 T00900066 52010 IEM_DS3505
ZGOW,2010-03-08 23:00,ZGOW 082300Z AUTO 32014G25KT 4SM 08/08 A3027 RMK T00800080 IEM_DS3505
ZGOW,2010-03-09 00:00,ZGOW 090000Z AUTO 29004KT 11SM 08/06 A3030 RMK 60008 70012 SLP259 T00810057 52034 IEM_DS3505
ZGOW,2010-03-09 01:00,ZGOW 090100Z AUTO 32012G21KT 7SM 08/07 A3030 RMK T00800070 IEM_DS3505
ZGOW,2010-03-09 02:00,ZGOW 090200Z AUTO 33010G21KT 7SM 08/07 A3033 RMK T00800070 IEM_DS3505
ZGOW,2010-03-09 03:00,ZGOW 090300Z AUTO 27006G21KT 11SM 09/05 A3033 RMK SLP269 T00860053 52010 IEM_DS3505
ZGOW,2010-03-09 04:00,ZGOW 090400Z AUTO 32012G23KT 7SM 09/07 A3030 RMK T00900070 IEM_DS3505
ZGOW,2010-03-09 05:00,ZGOW 090500Z AUTO 33016G25KT 7SM 10/07 A3027 RMK T01000070 IEM_DS3505
ZGOW,2010-03-09 06:00,ZGOW 090600Z AUTO 11004G23KT 11SM 10/04 A3027 RMK 60008 SLP250 T01030038 57019 IEM_DS3505
ZGOW,2010-03-09 07:00,ZGOW 090700Z AUTO 32012G21KT 7SM 12/07 A3027 RMK T01200070 IEM_DS3505
ZGOW,2010-03-09 08:00,ZGOW 090800Z AUTO 33012G23KT 7SM 12/06 A3027 RMK T01200060 IEM_DS3505
ZGOW,2010-03-09 09:00,ZGOW 090900Z AUTO 20004G21KT 11SM 11/02 A3030 RMK SLP258 T01110016 52008 IEM_DS3505
ZGOW,2010-03-09 10:00,ZGOW 091000Z AUTO 34010G19KT 6SM 10/05 A3033 RMK T01000050 IEM_DS3505
ZGOW,2010-03-09 11:00,ZGOW 091100Z AUTO 35006KT 6SM 10/04 A3036 RMK T01000040 IEM_DS3505
ZGOW,2010-03-09 12:00,ZGOW 091200Z AUTO 11004KT 11SM 09/00 A3039 RMK SLP284 T00870004 52026 IEM_DS3505
ZGOW,2010-03-09 13:00,ZGOW 091300Z AUTO 34008KT 6SM 09/04 A3039 RMK T00900040 IEM_DS3505
ZGOW,2010-03-09 14:00,ZGOW 091400Z AUTO 33008KT 6SM 08/04 A3042 RMK T00800040 IEM_DS3505
ZGOW,2010-03-09 15:00,ZGOW 091500Z AUTO 11002KT 11SM 08/M00 A3042 RMK SLP303 T00781004 52019 IEM_DS3505
ZGOW,2010-03-09 16:00,ZGOW 091600Z AUTO 34008KT 6SM 08/03 A3042 RMK T00800030 IEM_DS3505
ZGOW,2010-03-09 17:00,ZGOW 091700Z AUTO 32014KT 6SM 07/03 A3042 RMK T00700030 IEM_DS3505
ZGOW,2010-03-09 18:00,ZGOW 091800Z AUTO 18002KT 11SM 07/M03 RMK SLP297 T00681032 57006 IEM_DS3505
ZGOW,2010-03-09 19:00,ZGOW 091900Z AUTO 35006KT 3SM RMK IEM_DS3505
ZGOW,2010-03-09 20:00,ZGOW 092000Z AUTO 34006KT 0SM 04/M05 RMK T00401050 IEM_DS3505
ZGOW,2010-03-09 21:00,ZGOW 092100Z AUTO 27006KT 10SM 06/M06 A3036 RMK 70012 SLP287 T00591057 57010 IEM_DS3505
ZGOW,2010-03-09 22:00,ZGOW 092200Z AUTO 34006KT 6SM 05/M02 A3039 RMK T00501020 IEM_DS3505
ZGOW,2010-03-09 23:00,ZGOW 092300Z AUTO 34006KT 6SM 05/M01 A3042 RMK T00501010 IEM_DS3505
ZGOW,2010-03-10 00:00,ZGOW 100000Z AUTO 04004KT 16SM 07/M06 A3042 RMK 70007 SLP306 T00661057 52019 IEM_DS3505
ZGOW,2010-03-10 01:00,ZGOW 100100Z AUTO 34008KT 6SM 08/M01 A3045 RMK T00801010 IEM_DS3505
ZGOW,2010-03-10 02:00,ZGOW 100200Z AUTO 35006KT 6SM 10/00 A3045 RMK T01000000 IEM_DS3505
ZGOW,2010-03-10 03:00,ZGOW 100300Z AUTO 07004KT 14SM 12/M03 A3042 RMK SLP299 T01181032 57007 IEM_DS3505
ZGOW,2010-03-10 04:00,ZGOW 100400Z AUTO 08010KT 6SM 13/02 A3039 RMK T01300020 IEM_DS3505
ZGOW,2010-03-10 05:00,ZGOW 100500Z AUTO 07006KT 6SM 13/02 A3036 RMK T01300020 IEM_DS3505
ZGOW,2010-03-10 06:00,ZGOW 100600Z AUTO 16004KT 12SM 14/M04 A3033 RMK SLP267 T01381035 57032 IEM_DS3505
ZGOW,2010-03-10 07:00,ZGOW 100700Z AUTO 11008KT 6SM 14/04 A3030 RMK T01400040 IEM_DS3505
ZGOW,2010-03-10 08:00,ZGOW 100800Z AUTO 13010KT 6SM 14/07 A3030 RMK T01400070 IEM_DS3505
ZGOW,2010-03-10 09:00,ZGOW 100900Z AUTO 11008KT 12SM 12/02 A3030 RMK SLP255 T01250015 57012 IEM_DS3505
ZGOW,2010-03-10 10:00,ZGOW 101000Z AUTO 12006KT 6SM 12/07 A3030 RMK T01200070 IEM_DS3505
ZGOW,2010-03-10 11:00,ZGOW 101100Z AUTO 07006KT 6SM 10/07 A3033 RMK T01000070 IEM_DS3505
ZGOW,2010-03-10 12:00,ZGOW 101200Z AUTO 07002KT 9SM 11/04 A3033 RMK SLP270 T01120042 52015 IEM_DS3505
ZGOW,2010-03-10 13:00,ZGOW 101300Z AUTO 07008KT 6SM 10/08 A3036 RMK T01000080 IEM_DS3505
ZGOW,2010-03-10 14:00,ZGOW 101400Z AUTO 07006KT 6SM 10/08 A3039 RMK T01000080 IEM_DS3505
ZGOW,2010-03-10 15:00,ZGOW 101500Z AUTO 07004KT 9SM 10/05 A3036 RMK SLP284 T01050053 52014 IEM_DS3505
ZGOW,2010-03-10 16:00,ZGOW 101600Z AUTO 05006KT 6SM 08/07 A3036 RMK T00800070 IEM_DS3505
ZGOW,2010-03-10 17:00,ZGOW 101700Z AUTO 04008KT 2 1/2SM 08/08 A3036 RMK T00800080 IEM_DS3505
ZGOW,2010-03-10 18:00,ZGOW 101800Z AUTO 00000KT 9SM 09/06 RMK SLP272 T00880061 57012 IEM_DS3505
ZGOW,2010-03-10 19:00,ZGOW 101900Z AUTO 03006KT 2 1/2SM 07/06 A3033 RMK T00700060 IEM_DS3505
ZGOW,2010-03-10 20:00,ZGOW 102000Z AUTO 05006KT 2 1/2SM 06/06 A3030 RMK T00600060 IEM_DS3505
ZGOW,2010-03-10 21:00,ZGOW 102100Z AUTO 00000KT 7SM 08/05 A3030 RMK SLP263 T00850051 57009 IEM_DS3505
ZGOW,2010-03-10 22:00,ZGOW 102200Z AUTO 01004KT 3SM 07/06 A3033 RMK T00700060 IEM_DS3505
ZGOW,2010-03-10 23:00,ZGOW 102300Z AUTO 01006KT 3SM 08/06 A3033 RMK T00800060 IEM_DS3505
ZGOW,2010-03-11 00:00,ZGOW 110000Z AUTO 04002KT 7SM 10/06 A3036 RMK SLP277 T00960061 52014 IEM_DS3505
ZGOW,2010-03-11 01:00,ZGOW 110100Z AUTO 03004KT 3SM 11/07 A3036 RMK T01100070 IEM_DS3505
ZGOW,2010-03-11 02:00,ZGOW 110200Z AUTO 05004KT 4SM 13/08 A3036 RMK T01300080 IEM_DS3505
ZGOW,2010-03-11 03:00,ZGOW 110300Z AUTO 09004KT 7SM 14/02 A3033 RMK SLP264 T01420024 57013 IEM_DS3505
ZGOW,2010-03-11 04:00,ZGOW 110400Z AUTO 07006KT 4SM 15/07 A3030 RMK T01500070 IEM_DS3505
ZGOW,2010-03-11 05:00,ZGOW 110500Z AUTO 08006KT 4SM 16/07 A3024 RMK T01600070 IEM_DS3505
ZGOW,2010-03-11 06:00,ZGOW 110600Z AUTO 11004KT 7SM 17/04 A3024 RMK SLP232 T01680038 57032 IEM_DS3505
ZGOW,2010-03-11 07:00,ZGOW 110700Z AUTO 12006KT 5SM 16/08 A3021 RMK T01600080 IEM_DS3505
ZGOW,2010-03-11 08:00,ZGOW 110800Z AUTO 13006KT 6SM 16/09 A3021 RMK T01600090 IEM_DS3505
ZGOW,2010-03-11 09:00,ZGOW 110900Z AUTO 09004KT 7SM 15/03 A3021 RMK SLP223 T01520030 57009 IEM_DS3505
ZGOW,2010-03-11 10:00,ZGOW 111000Z AUTO 13004KT 4SM 14/09 A3021 RMK T01400090 IEM_DS3505
ZGOW,2010-03-11 11:00,ZGOW 111100Z AUTO 10002KT 4SM 13/09 A3021 RMK T01300090 IEM_DS3505
ZGOW,2010-03-11 12:00,ZGOW 111200Z AUTO 11004KT 9SM 14/06 A3024 RMK SLP236 T01420061 52013 IEM_DS3505
ZGOW,2010-03-11 13:00,ZGOW 111300Z AUTO 06006KT 5SM 12/09 A3024 RMK T01200090 IEM_DS3505
ZGOW,2010-03-11 14:00,ZGOW 111400Z AUTO 05006KT 4SM 12/11 A3027 RMK T01200110 IEM_DS3505
ZGOW,2010-03-11 15:00,ZGOW 111500Z AUTO 07002KT 7SM 13/08 A3024 RMK SLP243 T01330084 52007 IEM_DS3505
ZGOW,2010-03-11 16:00,ZGOW 111600Z AUTO 01004KT 5SM 13/10 A3024 RMK T01300100 IEM_DS3505
ZGOW,2010-03-11 17:00,ZGOW 111700Z AUTO 36004KT 3SM 13/10 A3021 RMK T01300100 IEM_DS3505
ZGOW,2010-03-11 18:00,ZGOW 111800Z AUTO 00000KT 9SM 13/05 A3021 RMK SLP226 T01320054 57017 IEM_DS3505
ZGOW,2010-03-11 19:00,ZGOW 111900Z AUTO 34002KT 2 1/2SM 13/09 A3018 RMK T01300090 IEM_DS3505
ZGOW,2010-03-11 20:00,ZGOW 112000Z AUTO 30004KT 2 1/2SM 13/10 A3018 RMK T01300100 IEM_DS3505
ZGOW,2010-03-11 21:00,ZGOW 112100Z AUTO 00000KT 7SM 14/05 A3018 RMK SLP222 T01370053 57004 IEM_DS3505
ZGOW,2010-03-11 22:00,ZGOW 112200Z AUTO 35002KT 2 1/2SM 13/10 A3018 RMK T01300100 IEM_DS3505
ZGOW,2010-03-11 23:00,ZGOW 112300Z AUTO 33004KT 2 1/2SM 14/10 A3021 RMK T01400100 IEM_DS3505
ZGOW,2010-03-12 00:00,ZGOW 120000Z AUTO 36002KT 5SM 14/09 A3021 RMK SLP234 T01350092 52012 IEM_DS3505
ZGOW,2010-03-12 01:00,ZGOW 120100Z AUTO 31004KT 2 1/2SM 14/11 A3024 RMK T01400110 IEM_DS3505
ZGOW,2010-03-12 02:00,ZGOW 120200Z AUTO 34004KT 2 1/2SM 14/11 A3024 RMK T01400110 IEM_DS3505
ZGOW,2010-03-12 03:00,ZGOW 120300Z AUTO 14002KT 4SM 14/09 A3021 RMK SLP230 T01400086 57004 IEM_DS3505
ZGOW,2010-03-12 04:00,ZGOW 120400Z AUTO 33006KT 2 1/2SM 15/12 A3018 RMK T01500120 IEM_DS3505
ZGOW,2010-03-12 05:00,ZGOW 120500Z AUTO 34004KT 2 1/2SM 15/12 A3015 RMK T01500120 IEM_DS3505
ZGOW,2010-03-12 06:00,ZGOW 120600Z AUTO 00000KT 4SM 15/11 A3012 RMK 60000 SLP196 T01510109 57034 IEM_DS3505
ZGOW,2010-03-12 07:00,ZGOW 120700Z AUTO 34004KT 2 1/2SM 15/13 A3009 RMK T01500130 IEM_DS3505
ZGOW,2010-03-12 08:00,ZGOW 120800Z AUTO 33004KT 1 1/2SM 15/13 A3009 RMK T01500130 IEM_DS3505
ZGOW,2010-03-12 09:00,ZGOW 120900Z AUTO 07002KT 3SM 15/12 A3009 RMK SLP187 T01480121 57009 IEM_DS3505
ZGOW,2010-03-12 10:00,ZGOW 121000Z AUTO 33004KT 1 1/4SM 14/14 A3009 RMK T01400140 IEM_DS3505
ZGOW,2010-03-12 11:00,ZGOW 121100Z AUTO 32006KT 1 1/2SM 14/14 A3009 RMK T01400140 IEM_DS3505
ZGOW,2010-03-12 12:00,ZGOW 121200Z AUTO 00000KT 1 1/4SM 14/13 A3009 RMK 60000 SLP193 T01440130 52006 IEM_DS3505
ZGOW,2010-03-12 13:00,ZGOW 121300Z AUTO 31002KT 1SM 14/14 A3012 RMK T01400140 IEM_DS3505
ZGOW,2010-03-12 14:00,ZGOW 121400Z AUTO 33002KT 1SM 14/14 A3009 RMK T01400140 IEM_DS3505
ZGOW,2010-03-12 15:00,ZGOW 121500Z AUTO 27002KT 1SM 15/14 A3012 RMK SLP197 T01470137 52004 IEM_DS3505
ZGOW,2010-03-12 16:00,ZGOW 121600Z AUTO 31004KT 1SM 15/15 A3012 RMK T01500150 IEM_DS3505
ZGOW,2010-03-12 17:00,ZGOW 121700Z AUTO 32006KT 1SM 15/15 A3009 RMK T01500150 IEM_DS3505
ZGOW,2010-03-12 18:00,ZGOW 121800Z AUTO 00000KT 1SM 15/14 A3009 RMK 60000 SLP186 T01490138 57011 IEM_DS3505
ZGOW,2010-03-12 19:00,ZGOW 121900Z AUTO 32004KT 1SM 15/15 A3006 RMK T01500150 IEM_DS3505
ZGOW,2010-03-12 20:00,ZGOW 122000Z AUTO 31002KT 2SM 15/15 A3006 RMK T01500150 IEM_DS3505
ZGOW,2010-03-12 21:00,ZGOW 122100Z AUTO 00000KT 1 1/4SM 15/14 A3006 RMK 70002 SLP175 T01520142 57011 IEM_DS3505
ZGOW,2010-03-12 23:00,ZGOW 122300Z AUTO 00000KT 1 1/2SM 15/15 A3009 RMK T01500150 IEM_DS3505
ZGOW,2010-03-13 00:00,ZGOW 130000Z AUTO 00000KT 2SM 16/15 A3009 RMK 70001 SLP193 T01590149 52018 IEM_DS3505
ZGOW,2010-03-13 01:00,ZGOW 130100Z AUTO 35002KT 1 1/2SM 17/17 A3012 RMK T01700170 IEM_DS3505
ZGOW,2010-03-13 02:00,ZGOW 130200Z AUTO 32004KT 1 1/2SM 17/17 A3012 RMK T01700170 IEM_DS3505
ZGOW,2010-03-13 03:00,ZGOW 130300Z AUTO 00000KT 2 1/2SM 18/15 A3012 RMK SLP196 T01820153 52003 IEM_DS3505
ZGOW,2010-03-13 04:00,ZGOW 130400Z AUTO 03004KT 1 1/2SM 19/18 A3009 RMK T01900180 IEM_DS3505
ZGOW,2010-03-13 05:00,ZGOW 130500Z AUTO 06006KT 1 1/2SM 20/18 A3006 RMK T02000180 IEM_DS3505
ZGOW,2010-03-13 06:00,ZGOW 130600Z AUTO 07002KT 4SM 20/16 A3003 RMK 60000 SLP163 T02000160 57033 IEM_DS3505
ZGOW,2010-03-13 07:00,ZGOW 130700Z AUTO 05006KT 2 1/2SM 19/18 A3000 RMK T01900180 IEM_DS3505
ZGOW,2010-03-13 08:00,ZGOW 130800Z AUTO 05008KT 2 1/2SM 19/18 A2997 RMK T01900180 IEM_DS3505
ZGOW,2010-03-13 09:00,ZGOW 130900Z AUTO 04004KT 4SM 19/16 A2997 RMK SLP154 T01900160 57009 IEM_DS3505
ZGOW,2010-03-13 10:00,ZGOW 131000Z AUTO 07008KT 3SM 19/17 A3000 RMK T01900170 IEM_DS3505
ZGOW,2010-03-13 11:00,ZGOW 131100Z AUTO 05004KT 3SM 18/17 A3000 RMK T01800170 IEM_DS3505
ZGOW,2010-03-13 12:00,ZGOW 131200Z AUTO 00000KT 4SM 18/16 A3003 RMK SLP164 T01850163 52010 IEM_DS3505
ZGOW,2010-03-13 13:00,ZGOW 131300Z AUTO 05006KT 2 1/2SM 18/18 A3003 RMK T01800180 IEM_DS3505
ZGOW,2010-03-13 14:00,ZGOW 131400Z AUTO 07002KT 2 1/2SM 18/18 A3003 RMK T01800180 IEM_DS3505
ZGOW,2010-03-13 15:00,ZGOW 131500Z AUTO 04002KT 4SM 18/17 A3003 RMK SLP169 T01830168 52005 IEM_DS3505
ZGOW,2010-03-13 16:00,ZGOW 131600Z AUTO 04006KT 3SM 18/18 A3003 RMK T01800180 IEM_DS3505
ZGOW,2010-03-13 17:00,ZGOW 131700Z AUTO 07004KT 2SM 18/18 A3003 RMK T01800180 IEM_DS3505
ZGOW,2010-03-13 18:00,ZGOW 131800Z AUTO 00000KT 4SM 18/17 A3000 RMK 60000 SLP161 T01820167 57008 IEM_DS3505
ZGOW,2010-03-13 19:00,ZGOW 131900Z AUTO 06008KT 1 1/2SM 18/18 A3000 RMK T01800180 IEM_DS3505
ZGOW,2010-03-13 20:00,ZGOW 132000Z AUTO 04006KT 1 1/2SM 18/18 A3000 RMK T01800180 IEM_DS3505
ZGOW,2010-03-13 21:00,ZGOW 132100Z AUTO 04002KT 2SM 18/17 A2997 RMK 70000 SLP154 T01810170 57007 IEM_DS3505
ZGOW,2010-03-13 22:00,ZGOW 132200Z AUTO 05006KT 1 1/2SM 18/18 A3000 RMK T01800180 IEM_DS3505
ZGOW,2010-03-13 23:00,ZGOW 132300Z AUTO 03006KT 1SM 18/18 A3000 RMK T01800180 IEM_DS3505
ZGOW,2010-03-14 00:00,ZGOW 140000Z AUTO 00000KT 1SM 18/17 A3003 RMK 70000 SLP171 T01820174 52017 IEM_DS3505
ZGOW,2010-03-14 01:00,ZGOW 140100Z AUTO 34002KT 1SM 19/19 A3003 RMK T01900190 IEM_DS3505
ZGOW,2010-03-14 02:00,ZGOW 140200Z AUTO 07004KT 1 1/4SM 20/20 A3003 RMK T02000200 IEM_DS3505
ZGOW,2010-03-14 03:00,ZGOW 140300Z AUTO 07004KT 2SM 21/19 A3003 RMK SLP164 T02120188 57007 IEM_DS3505
ZGOW,2010-03-14 04:00,ZGOW 140400Z AUTO 15004KT 2SM 22/21 A3000 RMK T02200210 IEM_DS3505
ZGOW,2010-03-14 05:00,ZGOW 140500Z AUTO 17004KT 2SM 22/21 A2997 RMK T02200210 IEM_DS3505
ZGOW,2010-03-14 06:00,ZGOW 140600Z AUTO 14004KT 5SM 24/20 A2994 RMK SLP139 T02350199 57025 IEM_DS3505
ZGOW,2010-03-14 07:00,ZGOW 140700Z AUTO 16004KT 2 1/2SM 23/22 A2991 RMK T02300220 IEM_DS3505
ZGOW,2010-03-14 08:00,ZGOW 140800Z AUTO 16004KT 3SM 23/22 A2991 RMK T02300220 IEM_DS3505
ZGOW,2010-03-14 09:00,ZGOW 140900Z AUTO 14004KT 5SM 23/20 A2991 RMK SLP129 T02310197 57010 IEM_DS3505
ZGOW,2010-03-14 10:00,ZGOW 141000Z AUTO 16006KT 1 1/2SM 19/19 A2994 RMK T01900190 IEM_DS3505
ZGOW,2010-03-14 11:00,ZGOW 141100Z AUTO 13002KT 1 1/2SM 19/19 A2997 RMK T01900190 IEM_DS3505
ZGOW,2010-03-14 12:00,ZGOW 141200Z AUTO 00000KT 2SM 20/19 A2997 RMK SLP149 T01980190 52020 IEM_DS3505
ZGOW,2010-03-14 13:00,ZGOW 141300Z AUTO 15002KT 1/2SM 19/19 A3000 RMK T01900190 IEM_DS3505
ZGOW,2010-03-14 14:00,ZGOW 141400Z AUTO 00000KT 1/4SM 19/19 A3000 RMK T01900190 IEM_DS3505
ZGOW,2010-03-14 15:00,ZGOW 141500Z AUTO 00000KT 1SM 20/19 A3000 RMK SLP159 T02010194 52010 IEM_DS3505
ZGOW,2010-03-14 16:00,ZGOW 141600Z AUTO 00000KT 3/8SM 19/ A3000 RMK IEM_DS3505
ZGOW,2010-03-14 17:00,ZGOW 141700Z AUTO 00000KT 1SM 19/ A3000 RMK IEM_DS3505
ZGOW,2010-03-14 18:00,ZGOW 141800Z AUTO 27002KT 1SM 20/19 A2997 RMK SLP148 T01950190 57011 IEM_DS3505
ZGOW,2010-03-14 19:00,ZGOW 141900Z AUTO 05002KT 1SM 19/ A2997 RMK IEM_DS3505
ZGOW,2010-03-14 20:00,ZGOW 142000Z AUTO 00000KT 1SM 19/ A2994 RMK IEM_DS3505
ZGOW,2010-03-14 21:00,ZGOW 142100Z AUTO 00000KT 1/2SM 20/19 A2994 RMK SLP140 T02000193 57008 IEM_DS3505
ZGOW,2010-03-14 22:00,ZGOW 142200Z AUTO 00000KT 1SM 19/19 A2994 RMK T01900190 IEM_DS3505
ZGOW,2010-03-14 23:00,ZGOW 142300Z AUTO 00000KT 1/2SM 19/19 A2997 RMK T01900190 IEM_DS3505
ZGOW,2010-03-15 00:00,ZGOW 150000Z AUTO 25002KT 1/8SM 20/20 A3000 RMK SLP160 T02010198 52020 IEM_DS3505
ZGOW,2010-03-15 01:00,ZGOW 150100Z AUTO 20004KT 1/4SM 21/21 A3000 RMK T02100210 IEM_DS3505
ZGOW,2010-03-15 02:00,ZGOW 150200Z AUTO 00000KT 1/2SM 22/22 A3003 RMK T02200220 IEM_DS3505
ZGOW,2010-03-15 03:00,ZGOW 150300Z AUTO 25004KT 4SM 25/22 A3000 RMK SLP163 T02480223 52003 IEM_DS3505
ZGOW,2010-03-15 04:00,ZGOW 150400Z AUTO 12006KT 2 1/2SM 25/23 A3000 RMK T02500230 IEM_DS3505
ZGOW,2010-03-15 05:00,ZGOW 150500Z AUTO 16008KT 4SM 26/24 A2997 RMK T02600240 IEM_DS3505
ZGOW,2010-03-15 06:00,ZGOW 150600Z AUTO 14004KT 7SM 27/22 A2994 RMK SLP135 T02670217 57028 IEM_DS3505
ZGOW,2010-03-15 07:00,ZGOW 150700Z AUTO 12008KT 5SM 25/23 A2991 RMK T02500230 IEM_DS3505
ZGOW,2010-03-15 08:00,ZGOW 150800Z AUTO 16008KT 6SM 25/23 A2994 RMK T02500230 IEM_DS3505
ZGOW,2010-03-15 09:00,ZGOW 150900Z AUTO 14004KT 9SM 25/21 A2994 RMK SLP133 T02460209 57002 IEM_DS3505
ZGOW,2010-03-15 10:00,ZGOW 151000Z AUTO 15004KT 5SM 23/22 A2994 RMK T02300220 IEM_DS3505
ZGOW,2010-03-15 11:00,ZGOW 151100Z AUTO 09004KT 4SM 22/21 A2994 RMK T02200210 IEM_DS3505
ZGOW,2010-03-15 12:00,ZGOW 151200Z AUTO 11002KT 6SM 23/21 A2997 RMK SLP152 T02270206 52019 IEM_DS3505
ZGOW,2010-03-15 13:00,ZGOW 151300Z AUTO 12004KT 3SM 21/21 A3000 RMK T02100210 IEM_DS3505
ZGOW,2010-03-15 14:00,ZGOW 151400Z AUTO 08004KT 4SM 20/20 A3003 RMK T02000200 IEM_DS3505
ZGOW,2010-03-15 15:00,ZGOW 151500Z AUTO 04002KT 4SM 22/20 A3003 RMK SLP168 T02190205 52016 IEM_DS3505
ZGOW,2010-03-15 16:00,ZGOW 151600Z AUTO 00000KT 1 1/2SM 20/20 A3006 RMK T02000200 IEM_DS3505
ZGOW,2010-03-15 17:00,ZGOW 151700Z AUTO 01002KT 1 1/2SM 21/21 A3006 RMK T02100210 IEM_DS3505
ZGOW,2010-03-15 18:00,ZGOW 151800Z AUTO 00000KT 4SM 22/20 A3003 RMK SLP173 T02200205 52005 IEM_DS3505
ZGOW,2010-03-15 19:00,ZGOW 151900Z AUTO 07014KT 1SM 16/16 A3009 RMK T01600160 IEM_DS3505
ZGOW,2010-03-15 20:00,ZGOW 152000Z AUTO 07019KT 1 1/2SM 15/15 A3009 RMK T01500150 IEM_DS3505
ZGOW,2010-03-15 21:00,ZGOW 152100Z AUTO 07010KT 4SM 15/14 A3012 RMK 70001 SLP198 T01530140 52025 IEM_DS3505
ZGOW,2010-03-15 22:00,ZGOW 152200Z AUTO 06012KT 1 1/4SM 15/15 A3015 RMK T01500150 IEM_DS3505
ZGOW,2010-03-15 23:00,ZGOW 152300Z AUTO 07014KT 1 1/4SM 15/15 A3018 RMK T01500150 IEM_DS3505
ZGOW,2010-03-16 00:00,ZGOW 160000Z AUTO 09008KT 4SM 15/14 A3024 RMK 60004 70006 SLP235 T01490141 52037 IEM_DS3505
ZGOW,2010-03-16 01:00,ZGOW 160100Z AUTO 08014G23KT 2 1/2SM 14/14 A3024 RMK T01400140 IEM_DS3505
ZGOW,2010-03-16 02:00,ZGOW 160200Z AUTO 08014G23KT 4SM 14/14 A3024 RMK T01400140 IEM_DS3505
ZGOW,2010-03-16 03:00,ZGOW 160300Z AUTO 09006G23KT 6SM 15/12 A3024 RMK SLP241 T01500121 52006 IEM_DS3505
ZGOW,2010-03-16 04:00,ZGOW 160400Z AUTO 08017KT 7SM 15/13 A3024 RMK T01500130 IEM_DS3505
ZGOW,2010-03-16 05:00,ZGOW 160500Z AUTO 08016KT 7SM 15/12 A3021 RMK T01500120 IEM_DS3505
ZGOW,2010-03-16 06:00,ZGOW 160600Z AUTO 09006KT 7SM 15/11 A3018 RMK 60000 SLP222 T01520112 57019 IEM_DS3505
ZGOW,2010-03-16 07:00,ZGOW 160700Z AUTO 08014KT 4SM 15/13 A3015 RMK T01500130 IEM_DS3505
ZGOW,2010-03-16 08:00,ZGOW 160800Z AUTO 08010KT 4SM 15/13 A3018 RMK T01500130 IEM_DS3505
ZGOW,2010-03-16 09:00,ZGOW 160900Z AUTO 09006KT 7SM 16/11 A3018 RMK SLP216 T01570113 57006 IEM_DS3505
ZGOW,2010-03-16 10:00,ZGOW 161000Z AUTO 07012KT 4SM 15/13 A3021 RMK T01500130 IEM_DS3505
ZGOW,2010-03-16 11:00,ZGOW 161100Z AUTO 08010KT 7SM 15/13 A3021 RMK T01500130 IEM_DS3505
ZGOW,2010-03-16 12:00,ZGOW 161200Z AUTO 07006KT 7SM 15/11 A3021 RMK SLP233 T01520110 52017 IEM_DS3505
ZGOW,2010-03-16 13:00,ZGOW 161300Z AUTO 07012KT 7SM 15/12 A3024 RMK T01500120 IEM_DS3505
ZGOW,2010-03-16 14:00,ZGOW 161400Z AUTO 08012KT 7SM 15/12 A3027 RMK T01500120 IEM_DS3505
ZGOW,2010-03-16 15:00,ZGOW 161500Z AUTO 07006KT 7SM 15/10 A3024 RMK SLP239 T01490099 52006 IEM_DS3505
ZGOW,2010-03-16 16:00,ZGOW 161600Z AUTO 08016KT 7SM 15/09 A3024 RMK T01500090 IEM_DS3505
ZGOW,2010-03-16 17:00,ZGOW 161700Z AUTO 07016KT 7SM 15/08 A3021 RMK T01500080 IEM_DS3505
ZGOW,2010-03-16 18:00,ZGOW 161800Z AUTO 07006KT 11SM 15/04 A3021 RMK SLP229 T01470044 57010 IEM_DS3505
ZGOW,2010-03-16 19:00,ZGOW 161900Z AUTO 07012KT 4SM 15/07 A3021 RMK T01500070 IEM_DS3505
ZGOW,2010-03-16 20:00,ZGOW 162000Z AUTO 07010KT 4SM 15/08 A3021 RMK T01500080 IEM_DS3505
ZGOW,2010-03-16 21:00,ZGOW 162100Z AUTO 09004KT 9SM 15/06 A3021 RMK 70006 SLP229 T01510059 54000 IEM_DS3505
ZGOW,2010-03-16 22:00,ZGOW 162200Z AUTO 06010KT 7SM 15/09 A3024 RMK T01500090 IEM_DS3505
ZGOW,2010-03-16 23:00,ZGOW 162300Z AUTO 04006KT 7SM 15/10 A3027 RMK T01500100 IEM_DS3505
ZGOW,2010-03-17 00:00,ZGOW 170000Z AUTO 07004KT 9SM 16/06 A3027 RMK 70001 SLP250 T01560055 52021 IEM_DS3505
ZGOW,2010-03-17 01:00,ZGOW 170100Z AUTO 03004KT 7SM 16/10 A3030 RMK T01600100 IEM_DS3505
ZGOW,2010-03-17 02:00,ZGOW 170200Z AUTO 08008KT 7SM 17/11 A3030 RMK T01700110 IEM_DS3505
ZGOW,2010-03-17 03:00,ZGOW 170300Z AUTO 07006KT 9SM 18/06 A3027 RMK SLP249 T01850064 57001 IEM_DS3505
ZGOW,2010-03-17 04:00,ZGOW 170400Z AUTO 07008KT 7SM 19/12 A3024 RMK T01900120 IEM_DS3505
ZGOW,2010-03-17 05:00,ZGOW 170500Z AUTO 05008KT 7SM 19/13 A3021 RMK T01900130 IEM_DS3505
ZGOW,2010-03-17 06:00,ZGOW 170600Z AUTO 14002KT 9SM 21/08 A3021 RMK SLP223 T02060083 57026 IEM_DS3505
ZGOW,2010-03-17 07:00,ZGOW 170700Z AUTO 10002KT 7SM 20/13 A3018 RMK T02000130 IEM_DS3505
ZGOW,2010-03-17 08:00,ZGOW 170800Z AUTO 12004KT 7SM 19/13 A3018 RMK T01900130 IEM_DS3505
ZGOW,2010-03-17 09:00,ZGOW 170900Z AUTO 14004KT 7SM 19/10 A3018 RMK SLP212 T01870103 57011 IEM_DS3505
ZGOW,2010-03-17 10:00,ZGOW 171000Z AUTO 12004KT 4SM 17/14 A3018 RMK T01700140 IEM_DS3505
ZGOW,2010-03-17 11:00,ZGOW 171100Z AUTO 12004KT 5SM 17/14 A3018 RMK T01700140 IEM_DS3505
ZGOW,2010-03-17 12:00,ZGOW 171200Z AUTO 07004KT 6SM 17/11 A3021 RMK SLP227 T01740108 52015 IEM_DS3505
ZGOW,2010-03-17 13:00,ZGOW 171300Z AUTO 10004KT 4SM 17/14 A3021 RMK T01700140 IEM_DS3505
ZGOW,2010-03-17 14:00,ZGOW 171400Z AUTO 07002KT 4SM 16/14 A3021 RMK T01600140 IEM_DS3505
ZGOW,2010-03-17 15:00,ZGOW 171500Z AUTO 14002KT 6SM 18/13 A3021 RMK SLP231 T01750126 52004 IEM_DS3505
ZGOW,2010-03-17 16:00,ZGOW 171600Z AUTO 00000KT 4SM 16/15 A3021 RMK T01600150 IEM_DS3505
ZGOW,2010-03-17 17:00,ZGOW 171700Z AUTO 00000KT 4SM 16/15 A3018 RMK T01600150 IEM_DS3505
ZGOW,2010-03-17 18:00,ZGOW 171800Z AUTO 00000KT 6SM 16/12 A3015 RMK SLP210 T01650125 57021 IEM_DS3505
ZGOW,2010-03-17 19:00,ZGOW 171900Z AUTO 00000KT 4SM 16/14 A3015 RMK T01600140 IEM_DS3505
ZGOW,2010-03-17 20:00,ZGOW 172000Z AUTO 34004KT 2SM 16/15 A3015 RMK T01600150 IEM_DS3505
ZGOW,2010-03-17 21:00,ZGOW 172100Z AUTO 00000KT 5SM 15/13 A3015 RMK SLP211 T01490133 52001 IEM_DS3505
ZGOW,2010-03-17 22:00,ZGOW 172200Z AUTO 00000KT 2 1/2SM 16/15 A3015 RMK T01600150 IEM_DS3505
ZGOW,2010-03-17 23:00,ZGOW 172300Z AUTO 32002KT 2 1/2SM 16/15 A3018 RMK T01600150 IEM_DS3505
ZGOW,2010-03-18 00:00,ZGOW 180000Z AUTO 07002KT 5SM 18/15 A3021 RMK SLP226 T01770146 52015 IEM_DS3505
ZGOW,2010-03-18 01:00,ZGOW 180100Z AUTO 10002KT 2 1/2SM 19/17 A3021 RMK T01900170 IEM_DS3505
ZGOW,2010-03-18 02:00,ZGOW 180200Z AUTO 07004KT 3SM 20/17 A3024 RMK T02000170 IEM_DS3505
ZGOW,2010-03-18 03:00,ZGOW 180300Z AUTO 07004KT 6SM 21/15 A3021 RMK SLP227 T02080149 52001 IEM_DS3505
ZGOW,2010-03-18 04:00,ZGOW 180400Z AUTO 13006KT 4SM 20/17 A3018 RMK T02000170 IEM_DS3505
ZGOW,2010-03-18 05:00,ZGOW 180500Z AUTO 13004KT 4SM 21/17 A3015 RMK T02100170 IEM_DS3505
ZGOW,2010-03-18 06:00,ZGOW 180600Z AUTO 09004KT 6SM 22/14 A3012 RMK SLP196 T02240143 57031 IEM_DS3505
ZGOW,2010-03-18 07:00,ZGOW 180700Z AUTO 12004KT 3SM 22/18 A3009 RMK T02200180 IEM_DS3505
ZGOW,2010-03-18 08:00,ZGOW 180800Z AUTO 14006KT 2 1/2SM 21/17 A3009 RMK T02100170 IEM_DS3505
ZGOW,2010-03-18 09:00,ZGOW 180900Z AUTO 14004KT 6SM 21/14 A3009 RMK SLP180 T02110135 57016 IEM_DS3505
ZGOW,2010-03-18 10:00,ZGOW 181000Z AUTO 14006KT 3SM 19/14 A3009 RMK T01900140 IEM_DS3505
ZGOW,2010-03-18 11:00,ZGOW 181100Z AUTO 13002KT 4SM 17/15 A3009 RMK T01700150 IEM_DS3505
ZGOW,2010-03-18 12:00,ZGOW 181200Z AUTO 16002KT 7SM 18/12 A3012 RMK SLP194 T01750115 52014 IEM_DS3505
ZGOW,2010-03-18 13:00,ZGOW 181300Z AUTO 14004KT 3SM 16/15 A3012 RMK T01600150 IEM_DS3505
ZGOW,2010-03-18 14:00,ZGOW 181400Z AUTO 17002KT 3SM 16/15 A3012 RMK T01600150 IEM_DS3505
ZGOW,2010-03-18 15:00,ZGOW 181500Z AUTO 00000KT 7SM 15/12 A3012 RMK SLP201 T01520122 52007 IEM_DS3505
ZGOW,2010-03-18 16:00,ZGOW 181600Z AUTO 36002KT 5SM 16/14 A3012 RMK T01600140 IEM_DS3505
ZGOW,2010-03-18 17:00,ZGOW 181700Z AUTO 00000KT 3SM 15/13 A3009 RMK T01500130 IEM_DS3505
ZGOW,2010-03-18 18:00,ZGOW 181800Z AUTO 00000KT 6SM 14/12 RMK SLP185 T01390118 57016 IEM_DS3505
ZGOW,2010-03-18 19:00,ZGOW 181900Z AUTO 02004KT 2SM 14/13 A3006 RMK T01400130 IEM_DS3505
ZGOW,2010-03-18 21:00,ZGOW 182100Z AUTO 07002KT 5SM 13/11 A3006 RMK SLP179 T01280114 57006 IEM_DS3505
ZGOW,2010-03-18 22:00,ZGOW 182200Z AUTO 00000KT 2SM 13/12 A3006 RMK T01300120 IEM_DS3505
ZGOW,2010-03-18 23:00,ZGOW 182300Z AUTO 35002KT 2SM 14/13 A3009 RMK T01400130 IEM_DS3505
ZGOW,2010-03-19 00:00,ZGOW 190000Z AUTO 02002KT 4SM 17/13 A3009 RMK SLP194 T01680129 52015 IEM_DS3505
ZGOW,2010-03-19 01:00,ZGOW 190100Z AUTO 05004KT 3SM 19/14 A3009 RMK T01900140 IEM_DS3505
ZGOW,2010-03-19 02:00,ZGOW 190200Z AUTO 03006KT 4SM 20/14 A3009 RMK T02000140 IEM_DS3505
ZGOW,2010-03-19 03:00,ZGOW 190300Z AUTO 09004KT 6SM 22/07 A3006 RMK SLP180 T02190070 57014 IEM_DS3505
ZGOW,2010-03-19 04:00,ZGOW 190400Z AUTO 03004KT 6SM 23/13 A3006 RMK T02300130 IEM_DS3505
ZGOW,2010-03-19 05:00,ZGOW 190500Z AUTO 04002KT 6SM 25/14 A3000 RMK T02500140 IEM_DS3505
ZGOW,2010-03-19 06:00,ZGOW 190600Z AUTO 27004KT 5SM 25/12 A2997 RMK SLP153 T02530125 57027 IEM_DS3505
ZGOW,2010-03-19 07:00,ZGOW 190700Z AUTO 12008KT 6SM 24/17 A2997 RMK T02400170 IEM_DS3505
ZGOW,2010-03-19 08:00,ZGOW 190800Z AUTO 14006KT 4SM 22/17 A2997 RMK T02200170 IEM_DS3505
ZGOW,2010-03-19 09:00,ZGOW 190900Z AUTO 11004KT 6SM 22/12 A2994 RMK SLP141 T02190116 57012 IEM_DS3505
ZGOW,2010-03-19 10:00,ZGOW 191000Z AUTO 13006KT 4SM 19/16 A2997 RMK T01900160 IEM_DS3505
ZGOW,2010-03-19 11:00,ZGOW 191100Z AUTO 13002KT 4SM 19/16 A2997 RMK T01900160 IEM_DS3505
ZGOW,2010-03-19 12:00,ZGOW 191200Z AUTO 14002KT 7SM 20/10 A2997 RMK SLP150 T02030101 52009 IEM_DS3505
ZGOW,2010-03-19 13:00,ZGOW 191300Z AUTO 16002KT 5SM 19/17 A3000 RMK T01900170 IEM_DS3505
ZGOW,2010-03-19 14:00,ZGOW 191400Z AUTO 08002KT 5SM 19/17 A2997 RMK T01900170 IEM_DS3505
ZGOW,2010-03-19 15:00,ZGOW 191500Z AUTO 22002KT 9SM 21/12 A3000 RMK SLP154 T02060121 52004 IEM_DS3505
ZGOW,2010-03-19 16:00,ZGOW 191600Z AUTO 21002KT 4SM 20/18 A2997 RMK T02000180 IEM_DS3505
ZGOW,2010-03-19 17:00,ZGOW 191700Z AUTO 12002KT 3SM 20/19 A2997 RMK T02000190 IEM_DS3505
ZGOW,2010-03-19 18:00,ZGOW 191800Z AUTO 11002KT 7SM 20/15 A2994 RMK SLP137 T02040152 57017 IEM_DS3505
ZGOW,2010-03-19 19:00,ZGOW 191900Z AUTO 00000KT 1 1/4SM 19/19 A2991 RMK T01900190 IEM_DS3505
ZGOW,2010-03-19 20:00,ZGOW 192000Z AUTO 00000KT 1 1/4SM 19/19 A2991 RMK T01900190 IEM_DS3505
ZGOW,2010-03-19 21:00,ZGOW 192100Z AUTO 00000KT 7SM 20/16 A2991 RMK SLP124 T02040162 57013 IEM_DS3505
ZGOW,2010-03-19 22:00,ZGOW 192200Z AUTO 00000KT 2SM 19/19 A2991 RMK T01900190 IEM_DS3505
ZGOW,2010-03-19 23:00,ZGOW 192300Z AUTO 00000KT 1 1/2SM 20/19 A2994 RMK T02000190 IEM_DS3505
ZGOW,2010-03-20 00:00,ZGOW 200000Z AUTO 29004KT 4SM 21/17 A2994 RMK SLP139 T02140172 52015 IEM_DS3505
ZGOW,2010-03-20 01:00,ZGOW 200100Z AUTO 00000KT 1 1/2SM 22/20 A2994 RMK T02200200 IEM_DS3505
ZGOW,2010-03-20 02:00,ZGOW 200200Z AUTO 30004KT 2SM 23/20 A2997 RMK T02300200 IEM_DS3505
ZGOW,2010-03-20 03:00,ZGOW 200300Z AUTO 22006KT 5SM 24/19 A2994 RMK SLP144 T02350194 52005 IEM_DS3505
ZGOW,2010-03-20 04:00,ZGOW 200400Z AUTO 30004KT 3SM 25/23 A2994 RMK T02500230 IEM_DS3505
ZGOW,2010-03-20 05:00,ZGOW 200500Z AUTO 32002KT 2 1/2SM 26/21 A2991 RMK T02600210 IEM_DS3505
ZGOW,2010-03-20 06:00,ZGOW 200600Z AUTO 25004KT 7SM 27/19 A2988 RMK SLP120 T02660192 57024 IEM_DS3505
ZGOW,2010-03-20 07:00,ZGOW 200700Z AUTO 26006KT 4SM 27/22 A2988 RMK T02700220 IEM_DS3505
ZGOW,2010-03-20 08:00,ZGOW 200800Z AUTO 24006KT 4SM 27/22 A2985 RMK T02700220 IEM_DS3505
ZGOW,2010-03-20 09:00,ZGOW 200900Z AUTO 18004KT 9SM 26/20 A2985 RMK SLP112 T02580199 57008 IEM_DS3505
ZGOW,2010-03-20 10:00,ZGOW 201000Z AUTO 16004KT 1 1/2SM 23/21 A2988 RMK T02300210 IEM_DS3505
ZGOW,2010-03-20 11:00,ZGOW 201100Z AUTO 12004KT 1 1/2SM 22/21 A2988 RMK T02200210 IEM_DS3505
ZGOW,2010-03-20 12:00,ZGOW 201200Z AUTO 07002KT 7SM 22/20 A2991 RMK SLP127 T02240198 52015 IEM_DS3505
ZGOW,2010-03-20 13:00,ZGOW 201300Z AUTO 00000KT 1 1/2SM 21/20 A2991 RMK T02100200 IEM_DS3505
ZGOW,2010-03-20 14:00,ZGOW 201400Z AUTO 04002KT 1 1/4SM 20/20 A2994 RMK T02000200 IEM_DS3505
ZGOW,2010-03-20 15:00,ZGOW 201500Z AUTO 09002KT 4SM 22/20 A2994 RMK SLP138 T02170198 52011 IEM_DS3505
ZGOW,2010-03-20 16:00,ZGOW 201600Z AUTO 00000KT 1SM 20/20 A2994 RMK T02000200 IEM_DS3505
ZGOW,2010-03-20 17:00,ZGOW 201700Z AUTO 00000KT 1SM 20/20 A2994 RMK T02000200 IEM_DS3505
ZGOW,2010-03-20 18:00,ZGOW 201800Z AUTO 00000KT 3SM 20/19 RMK SLP132 T01990187 57006 IEM_DS3505
ZGOW,2010-03-20 19:00,ZGOW 201900Z AUTO 32004KT 1 1/2SM 20/20 A2991 RMK T02000200 IEM_DS3505
ZGOW,2010-03-20 21:00,ZGOW 202100Z AUTO 00000KT 2SM 19/18 A2991 RMK SLP127 T01860179 57005 IEM_DS3505
ZGOW,2010-03-20 22:00,ZGOW 202200Z AUTO 00000KT 1 1/4SM 19/19 A2994 RMK T01900190 IEM_DS3505
ZGOW,2010-03-20 23:00,ZGOW 202300Z AUTO 08004KT 1SM 19/19 A2997 RMK T01900190 IEM_DS3505
ZGOW,2010-03-21 00:00,ZGOW 210000Z AUTO 07002KT 3SM 22/19 A3000 RMK SLP154 T02170194 52027 IEM_DS3505
ZGOW,2010-03-21 01:00,ZGOW 210100Z AUTO 09010KT 1 1/2SM 22/20 A3000 RMK T02200200 IEM_DS3505
ZGOW,2010-03-21 02:00,ZGOW 210200Z AUTO 08017KT 2 1/2SM 22/20 A3003 RMK T02200200 IEM_DS3505
ZGOW,2010-03-21 03:00,ZGOW 210300Z AUTO 09014G33KT 5SM 22/16 A3000 RMK SLP162 T02210159 52008 IEM_DS3505
ZGOW,2010-03-21 04:00,ZGOW 210400Z AUTO 07023G33KT 1 1/2SM 21/15 A3000 RMK T02100150 IEM_DS3505
ZGOW,2010-03-21 05:00,ZGOW 210500Z AUTO 07023G33KT 1 1/2SM 22/12 A2997 RMK T02200120 IEM_DS3505
ZGOW,2010-03-21 06:00,ZGOW 210600Z AUTO 09008G31KT 6SM 22/06 A2997 RMK SLP149 T02170056 57013 IEM_DS3505
ZGOW,2010-03-21 07:00,ZGOW 210700Z AUTO 08019G29KT 1 1/2SM 21/10 A2994 RMK T02100100 IEM_DS3505
ZGOW,2010-03-21 08:00,ZGOW 210800Z AUTO 08017KT 1 1/2SM 21/11 A2994 RMK T02100110 IEM_DS3505
ZGOW,2010-03-21 09:00,ZGOW 210900Z AUTO 09008KT 4SM 21/06 A2994 RMK SLP138 T02110062 57011 IEM_DS3505
ZGOW,2010-03-21 10:00,ZGOW 211000Z AUTO 07016G25KT 1 1/2SM 20/09 A2994 RMK T02000090 IEM_DS3505
ZGOW,2010-03-21 11:00,ZGOW 211100Z AUTO 08016KT 2SM 19/09 A2997 RMK T01900090 IEM_DS3505
ZGOW,2010-03-21 12:00,ZGOW 211200Z AUTO 07010G27KT 4SM 20/03 A2997 RMK SLP153 T01980026 52015 IEM_DS3505
ZGOW,2010-03-21 13:00,ZGOW 211300Z AUTO 07014KT 2 1/2SM 19/10 A3000 RMK T01900100 IEM_DS3505
ZGOW,2010-03-21 14:00,ZGOW 211400Z AUTO 07016KT 2 1/2SM 19/10 A3000 RMK T01900100 IEM_DS3505
ZGOW,2010-03-21 15:00,ZGOW 211500Z AUTO 09004KT 4SM 19/06 A3000 RMK SLP160 T01900055 52007 IEM_DS3505
ZGOW,2010-03-21 16:00,ZGOW 211600Z AUTO 07010KT 2 1/2SM 18/10 A3000 RMK T01800100 IEM_DS3505
ZGOW,2010-03-21 17:00,ZGOW 211700Z AUTO 07010KT 3SM 18/10 A3000 RMK T01800100 IEM_DS3505
ZGOW,2010-03-21 20:00,ZGOW 212000Z AUTO 07012KT 1 1/2SM 18/12 A2994 RMK T01800120 IEM_DS3505
ZGOW,2010-03-21 21:00,ZGOW 212100Z AUTO 07004KT 5SM 18/08 A2994 RMK SLP143 T01800077 57006 IEM_DS3505
ZGOW,2010-03-21 22:00,ZGOW 212200Z AUTO 07010KT 2 1/2SM 18/12 A2997 RMK T01800120 IEM_DS3505
ZGOW,2010-03-21 23:00,ZGOW 212300Z AUTO 05008KT 2SM 17/13 A2997 RMK T01700130 IEM_DS3505
ZGOW,2010-03-22 00:00,ZGOW 220000Z AUTO 07004KT 4SM 18/09 A3000 RMK SLP160 T01840089 52017 IEM_DS3505
ZGOW,2010-03-22 01:00,ZGOW 220100Z AUTO 04006KT 2SM 19/14 A3000 RMK T01900140 IEM_DS3505
ZGOW,2010-03-22 02:00,ZGOW 220200Z AUTO 04004KT 1 1/2SM 21/13 A3000 RMK T02100130 IEM_DS3505
ZGOW,2010-03-22 03:00,ZGOW 220300Z AUTO 29002KT 4SM 21/10 A3003 RMK SLP162 T02120095 52002 IEM_DS3505
ZGOW,2010-03-22 04:00,ZGOW 220400Z AUTO 30002KT 1 1/2SM 22/13 A3000 RMK T02200130 IEM_DS3505
ZGOW,2010-03-22 05:00,ZGOW 220500Z AUTO 12002KT 1 1/2SM 24/16 A2997 RMK T02400160 IEM_DS3505
ZGOW,2010-03-22 06:00,ZGOW 220600Z AUTO 27004KT 4SM 24/11 A2994 RMK SLP137 T02440110 57025 IEM_DS3505
ZGOW,2010-03-22 07:00,ZGOW 220700Z AUTO 12004KT 2SM 24/17 A2991 RMK T02400170 IEM_DS3505
ZGOW,2010-03-22 08:00,ZGOW 220800Z AUTO 13004KT 2SM 24/17 A2988 RMK T02400170 IEM_DS3505
ZGOW,2010-03-22 09:00,ZGOW 220900Z AUTO 11004KT 4SM 24/13 A2988 RMK SLP115 T02410130 57022 IEM_DS3505
ZGOW,2010-03-22 10:00,ZGOW 221000Z AUTO 13004KT 2SM 20/16 A2988 RMK T02000160 IEM_DS3505
ZGOW,2010-03-22 11:00,ZGOW 221100Z AUTO 13004KT 2SM 19/17 A2988 RMK T01900170 IEM_DS3505
ZGOW,2010-03-22 12:00,ZGOW 221200Z AUTO 07002KT 4SM 21/13 A2991 RMK SLP127 T02060133 52012 IEM_DS3505
ZGOW,2010-03-22 13:00,ZGOW 221300Z AUTO 14002KT 2SM 18/17 A2991 RMK T01800170 IEM_DS3505
ZGOW,2010-03-22 14:00,ZGOW 221400Z AUTO 00000KT 2SM 19/17 A2994 RMK T01900170 IEM_DS3505
ZGOW,2010-03-22 15:00,ZGOW 221500Z AUTO 07002KT 4SM 21/14 A2991 RMK SLP131 T02100137 52004 IEM_DS3505
ZGOW,2010-03-22 16:00,ZGOW 221600Z AUTO 08004KT 2SM 19/17 A2991 RMK T01900170 IEM_DS3505
ZGOW,2010-03-22 17:00,ZGOW 221700Z AUTO 07002KT 1 1/2SM 19/18 A2991 RMK T01900180 IEM_DS3505
ZGOW,2010-03-22 18:00,ZGOW 221800Z AUTO 00000KT 4SM 20/15 A2991 RMK SLP124 T02050146 57007 IEM_DS3505
ZGOW,2010-03-22 19:00,ZGOW 221900Z AUTO 00000KT 1 1/2SM 20/18 A2988 RMK T02000180 IEM_DS3505
ZGOW,2010-03-22 20:00,ZGOW 222000Z AUTO 00000KT 1 1/2SM 19/18 A2988 RMK T01900180 IEM_DS3505
ZGOW,2010-03-22 21:00,ZGOW 222100Z AUTO 00000KT 4SM 21/16 A2988 RMK SLP119 T02070165 57005 IEM_DS3505
ZGOW,2010-03-22 22:00,ZGOW 222200Z AUTO 00000KT 1 1/2SM 20/19 A2988 RMK T02000190 IEM_DS3505
ZGOW,2010-03-22 23:00,ZGOW 222300Z AUTO 00000KT 1 1/2SM 21/19 A2991 RMK T02100190 IEM_DS3505
ZGOW,2010-03-23 00:00,ZGOW 230000Z AUTO 07002KT 4SM 22/19 A2991 RMK SLP133 T02170187 52014 IEM_DS3505
ZGOW,2010-03-23 01:00,ZGOW 230100Z AUTO 31002KT 1 1/4SM 23/21 A2994 RMK T02300210 IEM_DS3505
ZGOW,2010-03-23 02:00,ZGOW 230200Z AUTO 12002KT 2SM 24/22 A2991 RMK T02400220 IEM_DS3505
ZGOW,2010-03-23 03:00,ZGOW 230300Z AUTO 25002KT 4SM 25/20 A2988 RMK SLP123 T02490204 57010 IEM_DS3505
ZGOW,2010-03-23 04:00,ZGOW 230400Z AUTO 22004KT 2 1/2SM 27/23 A2985 RMK T02700230 IEM_DS3505
ZGOW,2010-03-23 05:00,ZGOW 230500Z AUTO 15006KT 4SM 27/24 A2983 RMK T02700240 IEM_DS3505
ZGOW,2010-03-23 06:00,ZGOW 230600Z AUTO 09004KT 7SM 27/22 A2983 RMK SLP092 T02700217 57031 IEM_DS3505
ZGOW,2010-03-23 07:00,ZGOW 230700Z AUTO 17008KT 7SM 27/24 A2977 RMK T02700240 IEM_DS3505
ZGOW,2010-03-23 08:00,ZGOW 230800Z AUTO 17006KT 7SM 25/23 A2977 RMK T02500230 IEM_DS3505
ZGOW,2010-03-23 09:00,ZGOW 230900Z AUTO 14004KT 9SM 25/21 A2980 RMK SLP083 T02530212 57009 IEM_DS3505
ZGOW,2010-03-23 10:00,ZGOW 231000Z AUTO 15004KT 1 1/2SM 23/23 A2980 RMK T02300230 IEM_DS3505
ZGOW,2010-03-23 11:00,ZGOW 231100Z AUTO 16006KT 2SM 22/22 A2980 RMK T02200220 IEM_DS3505
ZGOW,2010-03-23 12:00,ZGOW 231200Z AUTO 16004KT 6SM 22/21 A2983 RMK SLP100 T02250211 52017 IEM_DS3505
ZGOW,2010-03-23 13:00,ZGOW 231300Z AUTO 10002KT 1SM 21/21 A2985 RMK T02100210 IEM_DS3505
ZGOW,2010-03-23 14:00,ZGOW 231400Z AUTO 04004KT 1/2SM 21/21 A2988 RMK T02100210 IEM_DS3505
ZGOW,2010-03-23 15:00,ZGOW 231500Z AUTO 00000KT 5SM 22/21 A2988 RMK SLP115 T02210211 52015 IEM_DS3505
ZGOW,2010-03-23 16:00,ZGOW 231600Z AUTO 00000KT 1/4SM 21/21 A2988 RMK T02100210 IEM_DS3505
ZGOW,2010-03-23 17:00,ZGOW 231700Z AUTO 08002KT 1/8SM 21/21 A2985 RMK T02100210 IEM_DS3505
ZGOW,2010-03-23 18:00,ZGOW 231800Z AUTO 07002KT 2SM 21/20 A2985 RMK SLP110 T02100203 57005 IEM_DS3505
ZGOW,2010-03-23 20:00,ZGOW 232000Z AUTO 00000KT 1/2SM 21/21 A2985 RMK T02100210 IEM_DS3505
ZGOW,2010-03-23 21:00,ZGOW 232100Z AUTO 00000KT 4SM 21/20 A2985 RMK SLP104 T02120205 57006 IEM_DS3505
ZGOW,2010-03-23 22:00,ZGOW 232200Z AUTO 12004KT 1/8SM 20/20 A2985 RMK T02000200 IEM_DS3505
ZGOW,2010-03-23 23:00,ZGOW 232300Z AUTO 11004KT 1/2SM 20/20 A2988 RMK T02000200 IEM_DS3505
ZGOW,2010-03-24 00:00,ZGOW 240000Z AUTO 09004KT 2SM 21/20 A2988 RMK SLP120 T02120205 52016 IEM_DS3505
ZGOW,2010-03-24 01:00,ZGOW 240100Z AUTO 08004KT 1SM 21/21 A2991 RMK T02100210 IEM_DS3505
ZGOW,2010-03-24 02:00,ZGOW 240200Z AUTO 07006KT 2 1/2SM 21/21 A2991 RMK T02100210 IEM_DS3505
ZGOW,2010-03-24 03:00,ZGOW 240300Z AUTO 11004KT 2 1/2SM 22/21 A2991 RMK SLP123 T02210207 52003 IEM_DS3505
ZGOW,2010-03-24 04:00,ZGOW 240400Z AUTO 08006KT 2 1/2SM 21/21 A2988 RMK T02100210 IEM_DS3505
ZGOW,2010-03-24 05:00,ZGOW 240500Z AUTO 13006KT 3SM 24/23 A2985 RMK T02400230 IEM_DS3505
ZGOW,2010-03-24 06:00,ZGOW 240600Z AUTO 11006KT 6SM 24/20 A2983 RMK SLP094 T02420199 57029 IEM_DS3505
ZGOW,2010-03-24 07:00,ZGOW 240700Z AUTO 12008KT 3SM 22/21 A2980 RMK T02200210 IEM_DS3505
ZGOW,2010-03-24 08:00,ZGOW 240800Z AUTO 10008KT 3SM 22/21 A2980 RMK T02200210 IEM_DS3505
ZGOW,2010-03-24 09:00,ZGOW 240900Z AUTO 11006KT 6SM 22/19 A2980 RMK SLP087 T02180190 57007 IEM_DS3505
ZGOW,2010-03-24 10:00,ZGOW 241000Z AUTO 12010KT 1 1/2SM 19/19 A2983 RMK T01900190 IEM_DS3505
ZGOW,2010-03-24 11:00,ZGOW 241100Z AUTO 12006KT 1 1/4SM 19/19 A2985 RMK T01900190 IEM_DS3505
ZGOW,2010-03-24 12:00,ZGOW 241200Z AUTO 09004KT 4SM 20/18 A2985 RMK SLP105 T02000185 52018 IEM_DS3505
ZGOW,2010-03-24 13:00,ZGOW 241300Z AUTO 08004KT 1 1/2SM 20/20 A2988 RMK T02000200 IEM_DS3505
ZGOW,2010-03-24 14:00,ZGOW 241400Z AUTO 06006KT 1 1/2SM 19/19 A2988 RMK T01900190 IEM_DS3505
ZGOW,2010-03-24 15:00,ZGOW 241500Z AUTO 07002KT 1 1/4SM 20/18 A2991 RMK SLP125 T01950183 52020 IEM_DS3505
ZGOW,2010-03-24 16:00,ZGOW 241600Z AUTO 07004KT 1SM 19/19 A2991 RMK T01900190 IEM_DS3505
ZGOW,2010-03-24 17:00,ZGOW 241700Z AUTO 35010KT 2 1/2SM 18/18 A2994 RMK T01800180 IEM_DS3505
ZGOW,2010-03-24 18:00,ZGOW 241800Z AUTO 18004G27KT 7SM 16/14 A2994 RMK 60000 SLP144 T01630136 52019 IEM_DS3505
ZGOW,2010-03-24 19:00,ZGOW 241900Z AUTO 33014G25KT 7SM 15/13 A2997 RMK T01500130 IEM_DS3505
ZGOW,2010-03-24 20:00,ZGOW 242000Z AUTO 33014KT 7SM 15/12 A2997 RMK T01500120 IEM_DS3505
ZGOW,2010-03-24 21:00,ZGOW 242100Z AUTO 27004KT 14SM 15/10 A3000 RMK 70000 SLP159 T01480100 52015 IEM_DS3505
ZGOW,2010-03-24 22:00,ZGOW 242200Z AUTO 33014KT 7SM 14/12 A3003 RMK T01400120 IEM_DS3505
ZGOW,2010-03-24 23:00,ZGOW 242300Z AUTO 33012KT 4SM 14/11 A3006 RMK T01400110 IEM_DS3505
ZGOW,2010-03-25 00:00,ZGOW 250000Z AUTO 14004KT 16SM 14/09 A3012 RMK 60000 70001 SLP195 T01380093 52036 IEM_DS3505
ZGOW,2010-03-25 01:00,ZGOW 250100Z AUTO 33008G17KT 7SM 14/11 A3012 RMK T01400110 IEM_DS3505
ZGOW,2010-03-25 02:00,ZGOW 250200Z AUTO 35008KT 7SM 14/11 A3015 RMK T01400110 IEM_DS3505
ZGOW,2010-03-25 03:00,ZGOW 250300Z AUTO 14004KT 16SM 15/08 A3012 RMK SLP202 T01500078 52007 IEM_DS3505
ZGOW,2010-03-25 04:00,ZGOW 250400Z AUTO 35008KT 7SM 15/10 A3012 RMK T01500100 IEM_DS3505
ZGOW,2010-03-25 05:00,ZGOW 250500Z AUTO 35008KT 7SM 14/10 A3009 RMK T01400100 IEM_DS3505
ZGOW,2010-03-25 06:00,ZGOW 250600Z AUTO 14002KT 16SM 17/07 A3006 RMK 60004 SLP181 T01660073 57021 IEM_DS3505
ZGOW,2010-03-25 07:00,ZGOW 250700Z AUTO 34006KT 7SM 17/11 A3006 RMK T01700110 IEM_DS3505
ZGOW,2010-03-25 08:00,ZGOW 250800Z AUTO 35006KT 7SM 18/11 A3003 RMK T01800110 IEM_DS3505
ZGOW,2010-03-25 09:00,ZGOW 250900Z AUTO 22004KT 14SM 19/06 A3006 RMK SLP173 T01860061 57008 IEM_DS3505
ZGOW,2010-03-25 10:00,ZGOW 251000Z AUTO 32004KT 7SM 18/11 A3009 RMK T01800110 IEM_DS3505
ZGOW,2010-03-25 11:00,ZGOW 251100Z AUTO 08006KT 7SM 16/13 A3009 RMK T01600130 IEM_DS3505
ZGOW,2010-03-25 12:00,ZGOW 251200Z AUTO 07006KT 9SM 17/10 A3012 RMK SLP202 T01690105 52029 IEM_DS3505
ZGOW,2010-03-25 13:00,ZGOW 251300Z AUTO 07012KT 7SM 16/14 A3015 RMK T01600140 IEM_DS3505
ZGOW,2010-03-25 14:00,ZGOW 251400Z AUTO 07008KT 7SM 16/14 A3018 RMK T01600140 IEM_DS3505
ZGOW,2010-03-25 15:00,ZGOW 251500Z AUTO 07002KT 9SM 16/12 A3018 RMK SLP223 T01620124 52021 IEM_DS3505
ZGOW,2010-03-25 16:00,ZGOW 251600Z AUTO 06008KT 6SM 15/11 A3018 RMK T01500110 IEM_DS3505
ZGOW,2010-03-25 17:00,ZGOW 251700Z AUTO 06008KT 6SM 15/10 A3018 RMK T01500100 IEM_DS3505
ZGOW,2010-03-25 18:00,ZGOW 251800Z AUTO 04002KT 10SM 15/07 A3018 RMK SLP217 T01530071 57006 IEM_DS3505
ZGOW,2010-03-25 20:00,ZGOW 252000Z AUTO 05006KT 4SM 14/09 A3018 RMK T01400090 IEM_DS3505
ZGOW,2010-03-25 21:00,ZGOW 252100Z AUTO 07002KT 10SM 14/06 A3018 RMK 70005 SLP219 T01450058 52002 IEM_DS3505
ZGOW,2010-03-25 22:00,ZGOW 252200Z AUTO 05008KT 6SM 12/10 A3021 RMK T01200100 IEM_DS3505
ZGOW,2010-03-25 23:00,ZGOW 252300Z AUTO 04006KT 6SM 13/10 A3024 RMK T01300100 IEM_DS3505
ZGOW,2010-03-26 00:00,ZGOW 260000Z AUTO 09002KT 11SM 15/06 A3024 RMK 70004 SLP238 T01500063 52019 IEM_DS3505
ZGOW,2010-03-26 01:00,ZGOW 260100Z AUTO 36006KT 6SM 16/09 A3024 RMK T01600090 IEM_DS3505
ZGOW,2010-03-26 02:00,ZGOW 260200Z AUTO 05016KT 6SM 18/08 A3024 RMK T01800080 IEM_DS3505
ZGOW,2010-03-26 03:00,ZGOW 260300Z AUTO 09008KT 12SM 19/02 A3024 RMK SLP234 T01860024 57004 IEM_DS3505
ZGOW,2010-03-26 04:00,ZGOW 260400Z AUTO 09014KT 6SM 19/10 A3021 RMK T01900100 IEM_DS3505
ZGOW,2010-03-26 05:00,ZGOW 260500Z AUTO 08014KT 6SM 19/10 A3018 RMK T01900100 IEM_DS3505
ZGOW,2010-03-26 06:00,ZGOW 260600Z AUTO 11008KT 14SM 19/06 A3015 RMK SLP203 T01910056 57031 IEM_DS3505
ZGOW,2010-03-26 07:00,ZGOW 260700Z AUTO 08014KT 6SM 19/12 A3012 RMK T01900120 IEM_DS3505
ZGOW,2010-03-26 08:00,ZGOW 260800Z AUTO 08014KT 6SM 18/12 A3012 RMK T01800120 IEM_DS3505
ZGOW,2010-03-26 09:00,ZGOW 260900Z AUTO 11008KT 7SM 17/08 A3012 RMK SLP199 T01730076 57004 IEM_DS3505
ZGOW,2010-03-26 10:00,ZGOW 261000Z AUTO 08016KT 4SM 16/11 A3015 RMK T01600110 IEM_DS3505
ZGOW,2010-03-26 11:00,ZGOW 261100Z AUTO 09012KT 4SM 15/11 A3018 RMK T01500110 IEM_DS3505
ZGOW,2010-03-26 12:00,ZGOW 261200Z AUTO 09006KT 6SM 15/08 A3018 RMK SLP222 T01520080 52023 IEM_DS3505
ZGOW,2010-03-26 13:00,ZGOW 261300Z AUTO 09014KT 4SM 14/10 A3021 RMK T01400100 IEM_DS3505
ZGOW,2010-03-26 14:00,ZGOW 261400Z AUTO 08016G25KT 6SM 14/10 A3024 RMK T01400100 IEM_DS3505
ZGOW,2010-03-26 15:00,ZGOW 261500Z AUTO 07012G27KT 6SM 14/07 A3024 RMK SLP239 T01420070 52017 IEM_DS3505
ZGOW,2010-03-26 16:00,ZGOW 261600Z AUTO 08016G25KT 6SM 13/10 A3024 RMK T01300100 IEM_DS3505
ZGOW,2010-03-26 17:00,ZGOW 261700Z AUTO 08016G25KT 6SM 13/08 A3024 RMK T01300080 IEM_DS3505
ZGOW,2010-03-26 18:00,ZGOW 261800Z AUTO 07006KT 9SM 13/03 RMK SLP231 T01320027 57008 IEM_DS3505
ZGOW,2010-03-26 19:00,ZGOW 261900Z AUTO 03008KT 2SM 11/09 A3021 RMK T01100090 IEM_DS3505
ZGOW,2010-03-26 21:00,ZGOW 262100Z AUTO 04004KT 9SM 12/06 A3021 RMK SLP231 T01200063 54000 IEM_DS3505
ZGOW,2010-03-26 22:00,ZGOW 262200Z AUTO 02002KT 2 1/2SM 10/07 A3024 RMK T01000070 IEM_DS3505
ZGOW,2010-03-26 23:00,ZGOW 262300Z AUTO 36006KT 2 1/2SM 12/09 A3024 RMK T01200090 IEM_DS3505
ZGOW,2010-03-27 00:00,ZGOW 270000Z AUTO 36002KT 5SM 14/09 A3027 RMK SLP247 T01350086 52016 IEM_DS3505
ZGOW,2010-03-27 01:00,ZGOW 270100Z AUTO 35004KT 2 1/2SM 15/10 A3027 RMK T01500100 IEM_DS3505
ZGOW,2010-03-27 02:00,ZGOW 270200Z AUTO 06010KT 4SM 17/09 A3027 RMK T01700090 IEM_DS3505
ZGOW,2010-03-27 03:00,ZGOW 270300Z AUTO 09004KT 6SM 18/05 A3027 RMK SLP244 T01820051 57003 IEM_DS3505
ZGOW,2010-03-27 04:00,ZGOW 270400Z AUTO 08008KT 5SM 19/11 A3024 RMK T01900110 IEM_DS3505
ZGOW,2010-03-27 05:00,ZGOW 270500Z AUTO 07006KT 5SM 19/10 A3018 RMK T01900100 IEM_DS3505
ZGOW,2010-03-27 06:00,ZGOW 270600Z AUTO 07004KT 7SM 19/06 A3015 RMK SLP209 T01940058 57035 IEM_DS3505
ZGOW,2010-03-27 07:00,ZGOW 270700Z AUTO 10006KT 4SM 19/13 A3012 RMK T01900130 IEM_DS3505
ZGOW,2010-03-27 08:00,ZGOW 270800Z AUTO 13004KT 4SM 18/13 A3012 RMK T01800130 IEM_DS3505
ZGOW,2010-03-27 09:00,ZGOW 270900Z AUTO 11004KT 7SM 18/09 A3012 RMK SLP200 T01770093 57009 IEM_DS3505
ZGOW,2010-03-27 10:00,ZGOW 271000Z AUTO 13002KT 4SM 17/13 A3015 RMK T01700130 IEM_DS3505
ZGOW,2010-03-27 11:00,ZGOW 271100Z AUTO 09004KT 6SM 16/13 A3015 RMK T01600130 IEM_DS3505
ZGOW,2010-03-27 12:00,ZGOW 271200Z AUTO 04002KT 7SM 17/10 A3015 RMK SLP208 T01670105 52008 IEM_DS3505
ZGOW,2010-03-27 13:00,ZGOW 271300Z AUTO 07010KT 6SM 16/14 A3018 RMK T01600140 IEM_DS3505
ZGOW,2010-03-27 14:00,ZGOW 271400Z AUTO 07010KT 6SM 15/14 A3018 RMK T01500140 IEM_DS3505
ZGOW,2010-03-27 15:00,ZGOW 271500Z AUTO 07006KT 8SM 16/12 A3018 RMK SLP218 T01560124 52010 IEM_DS3505
ZGOW,2010-03-27 16:00,ZGOW 271600Z AUTO 05008KT 6SM 15/14 A3018 RMK T01500140 IEM_DS3505
ZGOW,2010-03-27 18:00,ZGOW 271800Z AUTO 00000KT 7SM 15/12 RMK SLP211 T01500116 57007 IEM_DS3505
ZGOW,2010-03-27 21:00,ZGOW 272100Z AUTO 00000KT 6SM 14/11 A3015 RMK SLP210 T01370114 57001 IEM_DS3505
ZGOW,2010-03-27 22:00,ZGOW 272200Z AUTO 34002KT 2 1/2SM 13/13 A3018 RMK T01300130 IEM_DS3505
ZGOW,2010-03-27 23:00,ZGOW 272300Z AUTO 33004KT 2SM 14/13 A3018 RMK T01400130 IEM_DS3505
ZGOW,2010-03-28 00:00,ZGOW 280000Z AUTO 02002KT 4SM 15/12 A3021 RMK SLP227 T01540122 52017 IEM_DS3505
ZGOW,2010-03-28 01:00,ZGOW 280100Z AUTO 35004KT 2 1/2SM 17/14 A3021 RMK T01700140 IEM_DS3505
ZGOW,2010-03-28 02:00,ZGOW 280200Z AUTO 07004KT 3SM 19/14 A3021 RMK T01900140 IEM_DS3505
ZGOW,2010-03-28 03:00,ZGOW 280300Z AUTO 09006KT 5SM 21/09 A3021 RMK SLP226 T02080091 57001 IEM_DS3505
ZGOW,2010-03-28 04:00,ZGOW 280400Z AUTO 08008KT 4SM 22/14 A3018 RMK T02200140 IEM_DS3505
ZGOW,2010-03-28 05:00,ZGOW 280500Z AUTO 10008KT 4SM 22/14 A3015 RMK T02200140 IEM_DS3505
ZGOW,2010-03-28 06:00,ZGOW 280600Z AUTO 11006KT 6SM 21/09 A3012 RMK SLP198 T02110094 57028 IEM_DS3505
ZGOW,2010-03-28 07:00,ZGOW 280700Z AUTO 11014KT 6SM 21/13 A3009 RMK T02100130 IEM_DS3505
ZGOW,2010-03-28 08:00,ZGOW 280800Z AUTO 09012KT 6SM 22/09 A3009 RMK T02200090 IEM_DS3505
ZGOW,2010-03-28 09:00,ZGOW 280900Z AUTO 09004KT 7SM 21/05 A3009 RMK SLP188 T02060054 57010 IEM_DS3505
ZGOW,2010-03-28 10:00,ZGOW 281000Z AUTO 08016KT 4SM 18/10 A3012 RMK T01800100 IEM_DS3505
ZGOW,2010-03-28 11:00,ZGOW 281100Z AUTO 08016G29KT 6SM 17/09 A3015 RMK T01700090 IEM_DS3505
ZGOW,2010-03-28 12:00,ZGOW 281200Z AUTO 07012G33KT 9SM 18/04 A3015 RMK SLP214 T01760045 52026 IEM_DS3505
ZGOW,2010-03-28 13:00,ZGOW 281300Z AUTO 06023KT 6SM 17/08 A3018 RMK T01700080 IEM_DS3505
ZGOW,2010-03-28 14:00,ZGOW 281400Z AUTO 07021KT 6SM 17/06 A3018 RMK T01700060 IEM_DS3505
ZGOW,2010-03-28 15:00,ZGOW 281500Z AUTO 07008KT 11SM 17/M00 A3021 RMK SLP230 T01721005 52016 IEM_DS3505
ZGOW,2010-03-28 16:00,ZGOW 281600Z AUTO 06014KT 6SM 16/07 A3021 RMK T01600070 IEM_DS3505
ZGOW,2010-03-28 17:00,ZGOW 281700Z AUTO 03004KT 6SM 13/07 A3021 RMK T01300070 IEM_DS3505
ZGOW,2010-03-28 18:00,ZGOW 281800Z AUTO 07004KT 11SM 16/02 RMK SLP218 T01590020 57012 IEM_DS3505
ZGOW,2010-03-28 19:00,ZGOW 281900Z AUTO 06012KT 4SM 15/08 A3015 RMK T01500080 IEM_DS3505
ZGOW,2010-03-28 21:00,ZGOW 282100Z AUTO 07002KT 11SM 14/02 A3015 RMK SLP213 T01430016 57005 IEM_DS3505
ZGOW,2010-03-28 22:00,ZGOW 282200Z AUTO 00000KT 6SM 14/06 A3018 RMK T01400060 IEM_DS3505
ZGOW,2010-03-28 23:00,ZGOW 282300Z AUTO 34002KT 7SM 12/08 A3018 RMK T01200080 IEM_DS3505
ZGOW,2010-03-29 00:00,ZGOW 290000Z AUTO 07004KT 12SM 16/02 A3021 RMK SLP228 T01640021 52015 IEM_DS3505
ZGOW,2010-03-29 01:00,ZGOW 290100Z AUTO 05008KT 6SM 18/07 A3021 RMK T01800070 IEM_DS3505
ZGOW,2010-03-29 02:00,ZGOW 290200Z AUTO 07012KT 6SM 19/08 A3021 RMK T01900080 IEM_DS3505
ZGOW,2010-03-29 03:00,ZGOW 290300Z AUTO 09008G27KT 12SM 20/02 A3021 RMK SLP223 T02030017 57005 IEM_DS3505
ZGOW,2010-03-29 04:00,ZGOW 290400Z AUTO 08016G25KT 6SM 20/09 A3018 RMK T02000090 IEM_DS3505
ZGOW,2010-03-29 05:00,ZGOW 290500Z AUTO 08017KT 7SM 20/10 A3015 RMK T02000100 IEM_DS3505
ZGOW,2010-03-29 06:00,ZGOW 290600Z AUTO 07008KT 14SM 21/05 A3012 RMK SLP201 T02080052 57022 IEM_DS3505
ZGOW,2010-03-29 07:00,ZGOW 290700Z AUTO 08017KT 7SM 20/12 A3012 RMK T02000120 IEM_DS3505
ZGOW,2010-03-29 08:00,ZGOW 290800Z AUTO 09014G23KT 6SM 20/12 A3009 RMK T02000120 IEM_DS3505
ZGOW,2010-03-29 09:00,ZGOW 290900Z AUTO 11008KT 10SM 19/09 A3012 RMK SLP192 T01930089 57009 IEM_DS3505
ZGOW,2010-03-29 10:00,ZGOW 291000Z AUTO 09014KT 6SM 18/13 A3012 RMK T01800130 IEM_DS3505
ZGOW,2010-03-29 11:00,ZGOW 291100Z AUTO 08016G25KT 6SM 18/13 A3012 RMK T01800130 IEM_DS3505
ZGOW,2010-03-29 12:00,ZGOW 291200Z AUTO 07012G27KT 9SM 18/10 A3015 RMK SLP206 T01790100 52014 IEM_DS3505
ZGOW,2010-03-29 13:00,ZGOW 291300Z AUTO 09016G25KT 6SM 17/14 A3015 RMK T01700140 IEM_DS3505
ZGOW,2010-03-29 14:00,ZGOW 291400Z AUTO 09010G19KT 7SM 17/13 A3018 RMK T01700130 IEM_DS3505
ZGOW,2010-03-29 15:00,ZGOW 291500Z AUTO 07010G19KT 11SM 17/10 A3018 RMK SLP219 T01740101 52013 IEM_DS3505
ZGOW,2010-03-29 16:00,ZGOW 291600Z AUTO 09010KT 7SM 17/13 A3018 RMK T01700130 IEM_DS3505
ZGOW,2010-03-29 18:00,ZGOW 291800Z AUTO 07008KT 11SM 16/10 RMK SLP206 T01650097 57013 IEM_DS3505
ZGOW,2010-03-29 19:00,ZGOW 291900Z AUTO 08010KT 3SM 16/13 A3015 RMK T01600130 IEM_DS3505
ZGOW,2010-03-29 21:00,ZGOW 292100Z AUTO 09004KT 11SM 17/10 A3012 RMK SLP201 T01670099 57005 IEM_DS3505
ZGOW,2010-03-29 22:00,ZGOW 292200Z AUTO 07008KT 7SM 16/13 A3012 RMK T01600130 IEM_DS3505
ZGOW,2010-03-29 23:00,ZGOW 292300Z AUTO 06006KT 7SM 16/14 A3015 RMK T01600140 IEM_DS3505
ZGOW,2010-03-30 00:00,ZGOW 300000Z AUTO 09004KT 12SM 17/11 A3018 RMK SLP218 T01740112 52017 IEM_DS3505
ZGOW,2010-03-30 01:00,ZGOW 300100Z AUTO 07008KT 7SM 19/15 A3018 RMK T01900150 IEM_DS3505
ZGOW,2010-03-30 02:00,ZGOW 300200Z AUTO 07012KT 6SM 20/15 A3018 RMK T02000150 IEM_DS3505
ZGOW,2010-03-30 03:00,ZGOW 300300Z AUTO 09006KT 12SM 21/11 A3018 RMK SLP211 T02060110 57007 IEM_DS3505
ZGOW,2010-03-30 04:00,ZGOW 300400Z AUTO 09012KT 6SM 21/16 A3015 RMK T02100160 IEM_DS3505
ZGOW,2010-03-30 05:00,ZGOW 300500Z AUTO 08010KT 6SM 23/16 A3012 RMK T02300160 IEM_DS3505
ZGOW,2010-03-30 06:00,ZGOW 300600Z AUTO 14008KT 9SM 20/12 A3009 RMK SLP188 T02010118 57023 IEM_DS3505
ZGOW,2010-03-30 07:00,ZGOW 300700Z AUTO 14006KT 4SM 21/16 A3006 RMK T02100160 IEM_DS3505
ZGOW,2010-03-30 08:00,ZGOW 300800Z AUTO 13004KT 4SM 20/16 A3006 RMK T02000160 IEM_DS3505
ZGOW,2010-03-30 09:00,ZGOW 300900Z AUTO 09004KT 7SM 20/12 A3006 RMK SLP172 T02050125 57016 IEM_DS3505
ZGOW,2010-03-30 10:00,ZGOW 301000Z AUTO 12004KT 4SM 19/16 A3006 RMK T01900160 IEM_DS3505
ZGOW,2010-03-30 11:00,ZGOW 301100Z AUTO 04006KT 4SM 18/16 A3006 RMK T01800160 IEM_DS3505
ZGOW,2010-03-30 12:00,ZGOW 301200Z AUTO 09004KT 6SM 19/13 A3009 RMK SLP189 T01900127 52017 IEM_DS3505
ZGOW,2010-03-30 13:00,ZGOW 301300Z AUTO 04006KT 6SM 17/16 A3012 RMK T01700160 IEM_DS3505
ZGOW,2010-03-30 14:00,ZGOW 301400Z AUTO 07004KT 4SM 18/16 A3012 RMK T01800160 IEM_DS3505
ZGOW,2010-03-30 15:00,ZGOW 301500Z AUTO 07002KT 6SM 19/14 A3012 RMK SLP197 T01870144 52008 IEM_DS3505
ZGOW,2010-03-30 16:00,ZGOW 301600Z AUTO 08004KT 4SM 17/16 A3012 RMK T01700160 IEM_DS3505
ZGOW,2010-03-30 17:00,ZGOW 301700Z AUTO 02004KT 2SM 17/16 A3009 RMK T01700160 IEM_DS3505
ZGOW,2010-03-30 18:00,ZGOW 301800Z AUTO 00000KT 6SM 18/15 A3006 RMK SLP182 T01810150 57015 IEM_DS3505
ZGOW,2010-03-30 19:00,ZGOW 301900Z AUTO 06006KT 2SM 17/16 A3006 RMK T01700160 IEM_DS3505
ZGOW,2010-03-30 20:00,ZGOW 302000Z AUTO 06004KT 2SM 17/16 A3003 RMK T01700160 IEM_DS3505
ZGOW,2010-03-30 21:00,ZGOW 302100Z AUTO 07004KT 6SM 18/15 A3003 RMK SLP173 T01820147 57009 IEM_DS3505
ZGOW,2010-03-30 22:00,ZGOW 302200Z AUTO 08004KT 2 1/2SM 18/16 A3006 RMK T01800160 IEM_DS3505
ZGOW,2010-03-30 23:00,ZGOW 302300Z AUTO 05006KT 2 1/2SM 18/17 A3006 RMK T01800170 IEM_DS3505
ZGOW,2010-03-31 00:00,ZGOW 310000Z AUTO 07004KT 6SM 19/15 A3009 RMK SLP185 T01930150 52012 IEM_DS3505
ZGOW,2010-03-31 01:00,ZGOW 310100Z AUTO 04008KT 3SM 20/17 A3009 RMK T02000170 IEM_DS3505
ZGOW,2010-03-31 02:00,ZGOW 310200Z AUTO 06004KT 3SM 20/17 A3009 RMK T02000170 IEM_DS3505
ZGOW,2010-03-31 03:00,ZGOW 310300Z AUTO 09002KT 4SM 21/16 A3009 RMK SLP187 T02100158 52002 IEM_DS3505
ZGOW,2010-03-31 04:00,ZGOW 310400Z AUTO 08004KT 2 1/2SM 22/18 A3006 RMK T02200180 IEM_DS3505
ZGOW,2010-03-31 05:00,ZGOW 310500Z AUTO 13006KT 2 1/2SM 23/18 A3003 RMK T02300180 IEM_DS3505
ZGOW,2010-03-31 06:00,ZGOW 310600Z AUTO 11006KT 7SM 24/17 A3000 RMK SLP159 T02440169 57028 IEM_DS3505
ZGOW,2010-03-31 07:00,ZGOW 310700Z AUTO 16004KT 5SM 25/20 A2997 RMK T02500200 IEM_DS3505
ZGOW,2010-03-31 08:00,ZGOW 310800Z AUTO 13004KT 7SM 24/20 A2997 RMK T02400200 IEM_DS3505
ZGOW,2010-03-31 09:00,ZGOW 310900Z AUTO 11004KT 9SM 24/18 A2997 RMK SLP142 T02420182 57017 IEM_DS3505
ZGOW,2010-03-31 10:00,ZGOW 311000Z AUTO 09004KT 4SM 22/19 A2997 RMK T02200190 IEM_DS3505
ZGOW,2010-03-31 11:00,ZGOW 311100Z AUTO 12004KT 3SM 20/18 A2997 RMK T02000180 IEM_DS3505
ZGOW,2010-03-31 12:00,ZGOW 311200Z AUTO 11004KT 8SM 22/18 A3000 RMK SLP153 T02170177 52011 IEM_DS3505
ZGOW,2010-03-31 13:00,ZGOW 311300Z AUTO 13002KT 3SM 19/18 A3000 RMK T01900180 IEM_DS3505
ZGOW,2010-03-31 14:00,ZGOW 311400Z AUTO 00000KT 2SM 19/18 A3003 RMK T01900180 IEM_DS3505
ZGOW,2010-03-31 15:00,ZGOW 311500Z AUTO 00000KT 6SM 19/17 A3003 RMK SLP163 T01920172 52010 IEM_DS3505
ZGOW,2010-03-31 16:00,ZGOW 311600Z AUTO 11002KT 2SM 18/18 A3000 RMK T01800180 IEM_DS3505
ZGOW,2010-03-31 17:00,ZGOW 311700Z AUTO 00000KT 2SM 19/18 A3000 RMK T01900180 IEM_DS3505
ZGOW,2010-03-31 18:00,ZGOW 311800Z AUTO 00000KT 4SM 19/17 A3000 RMK SLP154 T01860171 57009 IEM_DS3505
ZGOW,2010-03-31 19:00,ZGOW 311900Z AUTO 00000KT 1 1/4SM 19/18 A2997 RMK T01900180 IEM_DS3505
ZGOW,2010-03-31 20:00,ZGOW 312000Z AUTO 00000KT 1SM 19/19 A2997 RMK T01900190 IEM_DS3505
ZGOW,2010-03-31 21:00,ZGOW 312100Z AUTO 00000KT 4SM 20/18 A2994 RMK SLP141 T02010181 57013 IEM_DS3505
ZGOW,2010-03-31 22:00,ZGOW 312200Z AUTO 05002KT 1 1/4SM 19/19 A2997 RMK T01900190 IEM_DS3505
ZGOW,2010-03-31 23:00,ZGOW 312300Z AUTO 00000KT 1 1/4SM 20/20 A2997 RMK T02000200 IEM_DS3505
ZGOW,2010-04-01 00:00,ZGOW 010000Z AUTO 34002KT 3SM 22/19 A3000 RMK SLP157 T02170191 52016 IEM_DS3505
ZGOW,2010-04-01 01:00,ZGOW 010100Z AUTO 30002KT 1 1/2SM 22/21 A3000 RMK T02200210 IEM_DS3505
ZGOW,2010-04-01 02:00,ZGOW 010200Z AUTO 25002KT 2 1/2SM 24/22 A3000 RMK T02400220 IEM_DS3505
ZGOW,2010-04-01 03:00,ZGOW 010300Z AUTO 20002KT 5SM 24/20 A3000 RMK SLP154 T02440201 57003 IEM_DS3505
ZGOW,2010-04-01 04:00,ZGOW 010400Z AUTO 16002KT 3SM 26/22 A2997 RMK T02600220 IEM_DS3505
ZGOW,2010-04-01 05:00,ZGOW 010500Z AUTO 16006KT 3SM 26/23 A2994 RMK T02600230 IEM_DS3505
ZGOW,2010-04-01 06:00,ZGOW 010600Z AUTO 14004KT 9SM 26/20 A2988 RMK SLP122 T02580204 57032 IEM_DS3505
ZGOW,2010-04-01 07:00,ZGOW 010700Z AUTO 17008KT 7SM 25/23 A2988 RMK T02500230 IEM_DS3505
ZGOW,2010-04-01 08:00,ZGOW 010800Z AUTO 18006KT 7SM 25/23 A2988 RMK T02500230 IEM_DS3505
ZGOW,2010-04-01 09:00,ZGOW 010900Z AUTO 14006KT 8SM 25/21 A2988 RMK SLP114 T02490208 57008 IEM_DS3505
ZGOW,2010-04-01 10:00,ZGOW 011000Z AUTO 16006KT 2 1/2SM 23/22 A2988 RMK T02300220 IEM_DS3505
ZGOW,2010-04-01 11:00,ZGOW 011100Z AUTO 16006KT 2 1/2SM 22/22 A2988 RMK T02200220 IEM_DS3505
ZGOW,2010-04-01 12:00,ZGOW 011200Z AUTO 22002KT 7SM 22/20 A2988 RMK SLP122 T02220205 52008 IEM_DS3505
ZGOW,2010-04-01 13:00,ZGOW 011300Z AUTO 12002KT 2SM 21/21 A2991 RMK T02100210 IEM_DS3505
ZGOW,2010-04-01 14:00,ZGOW 011400Z AUTO 00000KT 1 1/4SM 20/20 A2994 RMK T02000200 IEM_DS3505
ZGOW,2010-04-01 15:00,ZGOW 011500Z AUTO 00000KT 4SM 22/20 A2994 RMK SLP137 T02150201 52015 IEM_DS3505
ZGOW,2010-04-01 16:00,ZGOW 011600Z AUTO 13004KT 1SM 20/20 A2994 RMK T02000200 IEM_DS3505
ZGOW,2010-04-01 17:00,ZGOW 011700Z AUTO 00000KT 3/8SM 21/21 A2994 RMK T02100210 IEM_DS3505
ZGOW,2010-04-01 18:00,ZGOW 011800Z AUTO 07002KT 3SM 21/20 A2991 RMK SLP129 T02100200 57008 IEM_DS3505
ZGOW,2010-04-01 19:00,ZGOW 011900Z AUTO 03002KT 1/4SM 21/21 A2991 RMK T02100210 IEM_DS3505
ZGOW,2010-04-01 20:00,ZGOW 012000Z AUTO 03002KT 1/4SM 21/21 A2988 RMK T02100210 IEM_DS3505
ZGOW,2010-04-01 21:00,ZGOW 012100Z AUTO 00000KT 1SM 21/20 A2991 RMK SLP128 T02070202 57001 IEM_DS3505
ZGOW,2010-04-01 22:00,ZGOW 012200Z AUTO 34002KT 1SM 21/21 A2994 RMK T02100210 IEM_DS3505
ZGOW,2010-04-01 23:00,ZGOW 012300Z AUTO 04002KT 1SM 21/21 A2997 RMK T02100210 IEM_DS3505
ZGOW,2010-04-02 00:00,ZGOW 020000Z AUTO 07010KT 4SM 18/16 A3003 RMK SLP161 T01820165 52033 IEM_DS3505
ZGOW,2010-04-02 01:00,ZGOW 020100Z AUTO 07017KT 4SM 17/17 A3006 RMK T01700170 IEM_DS3505
ZGOW,2010-04-02 02:00,ZGOW 020200Z AUTO 07017G27KT 4SM 17/16 A3006 RMK T01700160 IEM_DS3505
ZGOW,2010-04-02 03:00,ZGOW 020300Z AUTO 07012G29KT 6SM 17/15 A3003 RMK SLP173 T01730149 52012 IEM_DS3505
ZGOW,2010-04-02 04:00,ZGOW 020400Z AUTO 07019G29KT 5SM 17/15 A3003 RMK T01700150 IEM_DS3505
ZGOW,2010-04-02 05:00,ZGOW 020500Z AUTO 08019G29KT 4SM 17/15 A3006 RMK T01700150 IEM_DS3505
ZGOW,2010-04-02 06:00,ZGOW 020600Z AUTO 07008G27KT 7SM 17/13 A3003 RMK 60000 SLP169 T01740129 57004 IEM_DS3505
ZGOW,2010-04-02 07:00,ZGOW 020700Z AUTO 08016KT 7SM 17/14 A3003 RMK T01700140 IEM_DS3505
ZGOW,2010-04-02 08:00,ZGOW 020800Z AUTO 08017KT 4SM 16/14 A3003 RMK T01600140 IEM_DS3505
ZGOW,2010-04-02 09:00,ZGOW 020900Z AUTO 07008KT 5SM 15/14 A3006 RMK SLP177 T01530137 52008 IEM_DS3505
ZGOW,2010-04-02 10:00,ZGOW 021000Z AUTO 08016KT 1 1/4SM 15/15 A3006 RMK T01500150 IEM_DS3505
ZGOW,2010-04-02 11:00,ZGOW 021100Z AUTO 08014KT 1SM 15/15 A3006 RMK T01500150 IEM_DS3505
ZGOW,2010-04-02 12:00,ZGOW 021200Z AUTO 07006KT 4SM 15/13 A3009 RMK 60035 SLP188 T01500134 52011 IEM_DS3505
ZGOW,2010-04-02 13:00,ZGOW 021300Z AUTO 07019KT 5SM 15/14 A3012 RMK T01500140 IEM_DS3505
ZGOW,2010-04-02 14:00,ZGOW 021400Z AUTO 06014KT 5SM 15/14 A3015 RMK T01500140 IEM_DS3505
ZGOW,2010-04-02 15:00,ZGOW 021500Z AUTO 07006KT 6SM 15/13 A3012 RMK SLP203 T01540129 52015 IEM_DS3505
ZGOW,2010-04-02 16:00,ZGOW 021600Z AUTO 07010KT 7SM 15/15 A3012 RMK T01500150 IEM_DS3505
ZGOW,2010-04-02 17:00,ZGOW 021700Z AUTO 08012KT 7SM 15/13 A3012 RMK T01500130 IEM_DS3505
ZGOW,2010-04-02 18:00,ZGOW 021800Z AUTO 07004KT 7SM 15/12 RMK 60000 SLP194 T01540122 57009 IEM_DS3505
ZGOW,2010-04-02 19:00,ZGOW 021900Z AUTO 08010KT 2SM 15/14 A3009 RMK T01500140 IEM_DS3505
ZGOW,2010-04-02 20:00,ZGOW 022000Z AUTO 08010KT 2SM 15/13 A3009 RMK T01500130 IEM_DS3505
ZGOW,2010-04-02 21:00,ZGOW 022100Z AUTO 07006KT 9SM 15/12 A3009 RMK 70035 SLP195 T01530117 52001 IEM_DS3505
ZGOW,2010-04-02 22:00,ZGOW 022200Z AUTO 08014KT 4SM 15/13 A3012 RMK T01500130 IEM_DS3505
ZGOW,2010-04-02 23:00,ZGOW 022300Z AUTO 07014KT 4SM 15/13 A3012 RMK T01500130 IEM_DS3505
ZGOW,2010-04-03 00:00,ZGOW 030000Z AUTO 07008KT 9SM 16/11 A3015 RMK 70035 SLP204 T01580108 52009 IEM_DS3505
ZGOW,2010-04-03 01:00,ZGOW 030100Z AUTO 07017KT 7SM 16/13 A3015 RMK T01600130 IEM_DS3505
ZGOW,2010-04-03 02:00,ZGOW 030200Z AUTO 07014KT 7SM 16/13 A3015 RMK T01600130 IEM_DS3505
ZGOW,2010-04-03 03:00,ZGOW 030300Z AUTO 07010KT 9SM 16/12 A3015 RMK SLP210 T01620116 52006 IEM_DS3505
ZGOW,2010-04-03 04:00,ZGOW 030400Z AUTO 08014KT 7SM 16/14 A3015 RMK T01600140 IEM_DS3505
ZGOW,2010-04-03 05:00,ZGOW 030500Z AUTO 08012KT 7SM 17/14 A3012 RMK T01700140 IEM_DS3505
ZGOW,2010-04-03 06:00,ZGOW 030600Z AUTO 07006KT 9SM 17/12 A3009 RMK SLP185 T01730122 57025 IEM_DS3505
ZGOW,2010-04-03 07:00,ZGOW 030700Z AUTO 08014KT 7SM 17/14 A3006 RMK T01700140 IEM_DS3505
ZGOW,2010-04-03 08:00,ZGOW 030800Z AUTO 08012KT 7SM 17/14 A3006 RMK T01700140 IEM_DS3505
ZGOW,2010-04-03 09:00,ZGOW 030900Z AUTO 09006KT 7SM 17/12 A3006 RMK SLP180 T01690122 57005 IEM_DS3505
ZGOW,2010-04-03 10:00,ZGOW 031000Z AUTO 09008KT 7SM 16/14 A3006 RMK T01600140 IEM_DS3505
ZGOW,2010-04-03 11:00,ZGOW 031100Z AUTO 07012KT 7SM 16/14 A3006 RMK T01600140 IEM_DS3505
ZGOW,2010-04-03 12:00,ZGOW 031200Z AUTO 07010KT 7SM 16/12 A3009 RMK SLP183 T01650121 52003 IEM_DS3505
ZGOW,2010-04-03 13:00,ZGOW 031300Z AUTO 08014KT 7SM 16/14 A3009 RMK T01600140 IEM_DS3505
ZGOW,2010-04-03 14:00,ZGOW 031400Z AUTO 08014KT 7SM 16/14 A3009 RMK T01600140 IEM_DS3505
ZGOW,2010-04-03 15:00,ZGOW 031500Z AUTO 07008KT 7SM 16/12 A3009 RMK SLP193 T01620122 52010 IEM_DS3505
ZGOW,2010-04-03 16:00,ZGOW 031600Z AUTO 06010KT 7SM 16/14 A3009 RMK T01600140 IEM_DS3505
ZGOW,2010-04-03 17:00,ZGOW 031700Z AUTO 06010KT 7SM 16/14 A3009 RMK T01600140 IEM_DS3505
ZGOW,2010-04-03 18:00,ZGOW 031800Z AUTO 07004KT 7SM 16/12 A3009 RMK SLP183 T01590125 57010 IEM_DS3505
ZGOW,2010-04-03 19:00,ZGOW 031900Z AUTO 08006KT 3SM 16/14 A3003 RMK T01600140 IEM_DS3505
ZGOW,2010-04-03 20:00,ZGOW 032000Z AUTO 08010KT 4SM 16/14 A3003 RMK T01600140 IEM_DS3505
ZGOW,2010-04-03 21:00,ZGOW 032100Z AUTO 07004KT 6SM 16/12 A3003 RMK SLP170 T01580125 57013 IEM_DS3505
ZGOW,2010-04-03 22:00,ZGOW 032200Z AUTO 07008KT 7SM 16/14 A3006 RMK T01600140 IEM_DS3505
ZGOW,2010-04-03 23:00,ZGOW 032300Z AUTO 04006KT 4SM 16/14 A3006 RMK T01600140 IEM_DS3505
ZGOW,2010-04-04 00:00,ZGOW 040000Z AUTO 09006KT 6SM 16/13 A3006 RMK SLP179 T01620131 52009 IEM_DS3505
ZGOW,2010-04-04 01:00,ZGOW 040100Z AUTO 05006KT 4SM 17/15 A3009 RMK T01700150 IEM_DS3505
ZGOW,2010-04-04 02:00,ZGOW 040200Z AUTO 04004KT 4SM 17/15 A3006 RMK T01700150 IEM_DS3505
ZGOW,2010-04-04 03:00,ZGOW 040300Z AUTO 29002KT 6SM 18/14 A3003 RMK SLP172 T01840137 57007 IEM_DS3505
ZGOW,2010-04-04 04:00,ZGOW 040400Z AUTO 06004KT 4SM 19/16 A3003 RMK T01900160 IEM_DS3505
ZGOW,2010-04-04 05:00,ZGOW 040500Z AUTO 09004KT 5SM 19/16 A2997 RMK T01900160 IEM_DS3505
ZGOW,2010-04-04 06:00,ZGOW 040600Z AUTO 11002KT 6SM 20/15 A2994 RMK SLP140 T02040150 57032 IEM_DS3505
ZGOW,2010-04-04 07:00,ZGOW 040700Z AUTO 08004KT 4SM 20/17 A2994 RMK T02000170 IEM_DS3505
ZGOW,2010-04-04 08:00,ZGOW 040800Z AUTO 13006KT 5SM 19/17 A2991 RMK T01900170 IEM_DS3505
ZGOW,2010-04-04 09:00,ZGOW 040900Z AUTO 11006KT 6SM 19/15 A2991 RMK SLP129 T01940151 57011 IEM_DS3505
ZGOW,2010-04-04 10:00,ZGOW 041000Z AUTO 13004KT 4SM 18/17 A2994 RMK T01800170 IEM_DS3505
ZGOW,2010-04-04 11:00,ZGOW 041100Z AUTO 12006KT 7SM 18/17 A2994 RMK T01800170 IEM_DS3505
ZGOW,2010-04-04 12:00,ZGOW 041200Z AUTO 14004KT 6SM 18/15 A2994 RMK SLP139 T01790152 52010 IEM_DS3505
ZGOW,2010-04-04 13:00,ZGOW 041300Z AUTO 14004KT 7SM 17/17 A2997 RMK T01700170 IEM_DS3505
ZGOW,2010-04-04 14:00,ZGOW 041400Z AUTO 14004KT 7SM 17/16 A2997 RMK T01700160 IEM_DS3505
ZGOW,2010-04-04 15:00,ZGOW 041500Z AUTO 11004KT 6SM 18/15 A2997 RMK SLP150 T01780152 52011 IEM_DS3505
ZGOW,2010-04-04 16:00,ZGOW 041600Z AUTO 00000KT 7SM 17/17 A2997 RMK T01700170 IEM_DS3505
ZGOW,2010-04-04 17:00,ZGOW 041700Z AUTO 00000KT 4SM 17/17 A2997 RMK T01700170 IEM_DS3505
ZGOW,2010-04-04 18:00,ZGOW 041800Z AUTO 00000KT 5SM 18/15 A2994 RMK SLP137 T01760152 57013 IEM_DS3505
ZGOW,2010-04-04 21:00,ZGOW 042100Z AUTO 00000KT 5SM 18/16 A2991 RMK SLP134 T01770157 57003 IEM_DS3505
ZGOW,2010-04-04 22:00,ZGOW 042200Z AUTO 00000KT 1 1/2SM 17/16 A2994 RMK T01700160 IEM_DS3505
ZGOW,2010-04-04 23:00,ZGOW 042300Z AUTO 00000KT 1 1/2SM 18/17 A2994 RMK T01800170 IEM_DS3505
ZGOW,2010-04-05 00:00,ZGOW 050000Z AUTO 25002KT 3SM 19/16 A2997 RMK SLP148 T01860164 52014 IEM_DS3505
ZGOW,2010-04-05 01:00,ZGOW 050100Z AUTO 08004KT 1 1/2SM 19/18 A2997 RMK T01900180 IEM_DS3505
ZGOW,2010-04-05 02:00,ZGOW 050200Z AUTO 09002KT 2 1/2SM 20/18 A2997 RMK T02000180 IEM_DS3505
ZGOW,2010-04-05 03:00,ZGOW 050300Z AUTO 07002KT 4SM 21/17 A2997 RMK SLP143 T02130169 57005 IEM_DS3505
ZGOW,2010-04-05 04:00,ZGOW 050400Z AUTO 14006KT 4SM 22/19 A2994 RMK T02200190 IEM_DS3505
ZGOW,2010-04-05 05:00,ZGOW 050500Z AUTO 13006KT 3SM 22/19 A2991 RMK T02200190 IEM_DS3505
ZGOW,2010-04-05 06:00,ZGOW 050600Z AUTO 11004KT 6SM 23/17 A2991 RMK SLP121 T02280173 57022 IEM_DS3505
ZGOW,2010-04-05 07:00,ZGOW 050700Z AUTO 12006KT 3SM 22/19 A2988 RMK T02200190 IEM_DS3505
ZGOW,2010-04-05 08:00,ZGOW 050800Z AUTO 13006KT 3SM 22/19 A2988 RMK T02200190 IEM_DS3505
ZGOW,2010-04-05 09:00,ZGOW 050900Z AUTO 11004KT 6SM 22/18 A2988 RMK SLP112 T02200176 57009 IEM_DS3505
ZGOW,2010-04-05 10:00,ZGOW 051000Z AUTO 12006KT 1 1/2SM 19/19 A2988 RMK T01900190 IEM_DS3505
ZGOW,2010-04-05 11:00,ZGOW 051100Z AUTO 12006KT 1 1/2SM 19/18 A2988 RMK T01900180 IEM_DS3505
ZGOW,2010-04-05 12:00,ZGOW 051200Z AUTO 09006KT 6SM 20/17 A2991 RMK SLP124 T01970171 52012 IEM_DS3505
ZGOW,2010-04-05 13:00,ZGOW 051300Z AUTO 06004KT 1 1/2SM 18/18 A2994 RMK T01800180 IEM_DS3505
ZGOW,2010-04-05 14:00,ZGOW 051400Z AUTO 07004KT 1 1/2SM 18/18 A2994 RMK T01800180 IEM_DS3505
ZGOW,2010-04-05 15:00,ZGOW 051500Z AUTO 09002KT 5SM 19/16 A2994 RMK SLP138 T01900164 52014 IEM_DS3505
ZGOW,2010-04-05 16:00,ZGOW 051600Z AUTO 05004KT 1 1/4SM 18/17 A2994 RMK T01800170 IEM_DS3505
ZGOW,2010-04-05 18:00,ZGOW 051800Z AUTO 00000KT 2 1/2SM 19/16 RMK SLP136 T01860164 57002 IEM_DS3505
ZGOW,2010-04-05 20:00,ZGOW 052000Z AUTO 08004KT 1SM 18/18 A2991 RMK T01800180 IEM_DS3505
ZGOW,2010-04-05 21:00,ZGOW 052100Z AUTO 00000KT 2 1/2SM 19/17 A2988 RMK SLP120 T01880166 57016 IEM_DS3505
ZGOW,2010-04-05 22:00,ZGOW 052200Z AUTO 08002KT 1 1/2SM 18/18 A2991 RMK T01800180 IEM_DS3505
ZGOW,2010-04-05 23:00,ZGOW 052300Z AUTO 05004KT 2SM 18/18 A2994 RMK T01800180 IEM_DS3505
ZGOW,2010-04-06 00:00,ZGOW 060000Z AUTO 11002KT 4SM 19/17 A2997 RMK SLP144 T01910167 52024 IEM_DS3505
ZGOW,2010-04-06 01:00,ZGOW 060100Z AUTO 05008KT 2SM 19/18 A2997 RMK T01900180 IEM_DS3505
ZGOW,2010-04-06 02:00,ZGOW 060200Z AUTO 06008KT 2 1/2SM 20/19 A2997 RMK T02000190 IEM_DS3505
ZGOW,2010-04-06 03:00,ZGOW 060300Z AUTO 09004KT 4SM 21/17 A2997 RMK SLP144 T02060172 54000 IEM_DS3505
ZGOW,2010-04-06 04:00,ZGOW 060400Z AUTO 08004KT 3SM 22/19 A2994 RMK T02200190 IEM_DS3505
ZGOW,2010-04-06 05:00,ZGOW 060500Z AUTO 07004KT 3SM 22/19 A2991 RMK T02200190 IEM_DS3505
ZGOW,2010-04-06 06:00,ZGOW 060600Z AUTO 27006KT 5SM 22/18 A2991 RMK SLP125 T02170175 57019 IEM_DS3505
ZGOW,2010-04-06 07:00,ZGOW 060700Z AUTO 31002KT 3SM 22/20 A2988 RMK T02200200 IEM_DS3505
ZGOW,2010-04-06 08:00,ZGOW 060800Z AUTO 26002KT 2 1/2SM 23/20 A2988 RMK T02300200 IEM_DS3505
ZGOW,2010-04-06 09:00,ZGOW 060900Z AUTO 29002KT 4SM 22/19 A2988 RMK SLP116 T02180186 57009 IEM_DS3505
ZGOW,2010-04-06 10:00,ZGOW 061000Z AUTO 35004KT 1 1/4SM 22/20 A2991 RMK T02200200 IEM_DS3505
ZGOW,2010-04-06 11:00,ZGOW 061100Z AUTO 09006KT 1 1/2SM 20/20 A2991 RMK T02000200 IEM_DS3505
ZGOW,2010-04-06 12:00,ZGOW 061200Z AUTO 11004KT 4SM 20/18 A2994 RMK 60000 SLP141 T02020181 52025 IEM_DS3505
ZGOW,2010-04-06 15:00,ZGOW 061500Z AUTO 00000KT 4SM 19/18 A3000 RMK SLP158 T01930176 52017 IEM_DS3505
ZGOW,2010-04-06 16:00,ZGOW 061600Z AUTO 06008KT 1 1/4SM 19/19 A3000 RMK T01900190 IEM_DS3505
ZGOW,2010-04-06 17:00,ZGOW 061700Z AUTO 07008KT 1 1/4SM 19/19 A3000 RMK T01900190 IEM_DS3505
ZGOW,2010-04-06 18:00,ZGOW 061800Z AUTO 09004KT 2SM 19/18 A3000 RMK 60002 SLP159 T01900183 52001 IEM_DS3505
ZGOW,2010-04-06 19:00,ZGOW 061900Z AUTO 08016KT 1SM 18/18 A3000 RMK T01800180 IEM_DS3505
ZGOW,2010-04-06 20:00,ZGOW 062000Z AUTO 08016KT 2SM 17/17 A3000 RMK T01700170 IEM_DS3505
ZGOW,2010-04-06 21:00,ZGOW 062100Z AUTO 07010KT 6SM 17/16 A3000 RMK 70005 SLP164 T01740157 52005 IEM_DS3505
ZGOW,2010-04-06 22:00,ZGOW 062200Z AUTO 07021KT 7SM 17/16 A3003 RMK T01700160 IEM_DS3505
ZGOW,2010-04-06 23:00,ZGOW 062300Z AUTO 08017G27KT 7SM 17/16 A3006 RMK T01700160 IEM_DS3505
ZGOW,2010-04-07 00:00,ZGOW 070000Z AUTO 07008KT 14SM 18/14 A3009 RMK 60002 70005 SLP196 T01770140 52032 IEM_DS3505
ZGOW,2010-04-07 01:00,ZGOW 070100Z AUTO 08012KT 7SM 18/16 A3015 RMK T01800160 IEM_DS3505
ZGOW,2010-04-07 02:00,ZGOW 070200Z AUTO 08014G23KT 7SM 18/16 A3012 RMK T01800160 IEM_DS3505
ZGOW,2010-04-07 03:00,ZGOW 070300Z AUTO 07008KT 11SM 18/14 A3015 RMK SLP205 T01820137 52009 IEM_DS3505
ZGOW,2010-04-07 04:00,ZGOW 070400Z AUTO 09014KT 4SM 19/16 A3012 RMK T01900160 IEM_DS3505
ZGOW,2010-04-07 05:00,ZGOW 070500Z AUTO 08014KT 4SM 19/15 A3009 RMK T01900150 IEM_DS3505
ZGOW,2010-04-07 06:00,ZGOW 070600Z AUTO 07010KT 7SM 19/13 A3009 RMK 60000 SLP183 T01930128 57022 IEM_DS3505
ZGOW,2010-04-07 07:00,ZGOW 070700Z AUTO 08017KT 7SM 19/14 A3003 RMK T01900140 IEM_DS3505
ZGOW,2010-04-07 08:00,ZGOW 070800Z AUTO 09012KT 7SM 18/14 A3006 RMK T01800140 IEM_DS3505
ZGOW,2010-04-07 09:00,ZGOW 070900Z AUTO 07008KT 7SM 18/11 A3006 RMK SLP181 T01790112 57002 IEM_DS3505
ZGOW,2010-04-07 10:00,ZGOW 071000Z AUTO 08014KT 5SM 17/13 A3009 RMK T01700130 IEM_DS3505
ZGOW,2010-04-07 11:00,ZGOW 071100Z AUTO 09016KT 7SM 17/13 A3012 RMK T01700130 IEM_DS3505
ZGOW,2010-04-07 12:00,ZGOW 071200Z AUTO 07010KT 6SM 17/09 A3012 RMK SLP198 T01730090 52017 IEM_DS3505
ZGOW,2010-04-07 13:00,ZGOW 071300Z AUTO 08016KT 7SM 16/13 A3015 RMK T01600130 IEM_DS3505
ZGOW,2010-04-07 14:00,ZGOW 071400Z AUTO 08017G27KT 7SM 16/11 A3015 RMK T01600110 IEM_DS3505
ZGOW,2010-04-07 15:00,ZGOW 071500Z AUTO 07010KT 6SM 16/08 A3015 RMK SLP206 T01630083 52008 IEM_DS3505
ZGOW,2010-04-07 16:00,ZGOW 071600Z AUTO 07016KT 7SM 16/09 A3012 RMK T01600090 IEM_DS3505
ZGOW,2010-04-07 17:00,ZGOW 071700Z AUTO 07014KT 7SM 16/10 A3012 RMK T01600100 IEM_DS3505
ZGOW,2010-04-07 18:00,ZGOW 071800Z AUTO 07004KT 7SM 16/07 A3012 RMK 60000 SLP196 T01580071 57010 IEM_DS3505
ZGOW,2010-04-07 19:00,ZGOW 071900Z AUTO 07010KT 5SM 14/10 A3009 RMK T01400100 IEM_DS3505
ZGOW,2010-04-07 20:00,ZGOW 072000Z AUTO 07012KT 2 1/2SM 13/12 A3006 RMK T01300120 IEM_DS3505
ZGOW,2010-04-07 21:00,ZGOW 072100Z AUTO 07008KT 9SM 14/10 A3006 RMK 70000 SLP182 T01370105 57014 IEM_DS3505
ZGOW,2010-04-07 22:00,ZGOW 072200Z AUTO 07016KT 4SM 14/12 A3006 RMK T01400120 IEM_DS3505
ZGOW,2010-04-07 23:00,ZGOW 072300Z AUTO 07014KT 4SM 14/12 A3006 RMK T01400120 IEM_DS3505
ZGOW,2010-04-08 00:00,ZGOW 080000Z AUTO 07008KT 9SM 14/11 A3006 RMK 70000 SLP182 T01400110 54000 IEM_DS3505
ZGOW,2010-04-08 01:00,ZGOW 080100Z AUTO 06016KT 4SM 13/12 A3009 RMK T01300120 IEM_DS3505
ZGOW,2010-04-08 02:00,ZGOW 080200Z AUTO 04008KT 1 1/2SM 13/13 A3012 RMK T01300130 IEM_DS3505
ZGOW,2010-04-08 03:00,ZGOW 080300Z AUTO 07002KT 6SM 14/12 A3009 RMK SLP189 T01360123 52007 IEM_DS3505
ZGOW,2010-04-08 04:00,ZGOW 080400Z AUTO 05006KT 1 1/2SM 14/14 A3006 RMK T01400140 IEM_DS3505
ZGOW,2010-04-08 05:00,ZGOW 080500Z AUTO 31004KT 1 1/4SM 14/14 A3006 RMK T01400140 IEM_DS3505
ZGOW,2010-04-08 06:00,ZGOW 080600Z AUTO 22002KT 4SM 14/13 A3000 RMK 60039 SLP163 T01420131 57026 IEM_DS3505
ZGOW,2010-04-08 07:00,ZGOW 080700Z AUTO 07002KT 1SM 14/14 A2997 RMK T01400140 IEM_DS3505
ZGOW,2010-04-08 08:00,ZGOW 080800Z AUTO 12004KT 2 1/2SM 15/15 A2994 RMK T01500150 IEM_DS3505
ZGOW,2010-04-08 09:00,ZGOW 080900Z AUTO 00000KT 4SM 15/14 A2994 RMK SLP144 T01480138 57019 IEM_DS3505
ZGOW,2010-04-08 10:00,ZGOW 081000Z AUTO 00000KT 2 1/2SM 15/15 A2997 RMK T01500150 IEM_DS3505
ZGOW,2010-04-08 11:00,ZGOW 081100Z AUTO 06004KT 2 1/2SM 15/15 A2997 RMK T01500150 IEM_DS3505
ZGOW,2010-04-08 12:00,ZGOW 081200Z AUTO 07004KT 4SM 15/14 A3000 RMK 60055 SLP154 T01490139 52010 IEM_DS3505
ZGOW,2010-04-08 13:00,ZGOW 081300Z AUTO 09002KT 7SM 15/15 A3003 RMK T01500150 IEM_DS3505
ZGOW,2010-04-08 14:00,ZGOW 081400Z AUTO 07006KT 7SM 15/15 A3003 RMK T01500150 IEM_DS3505
ZGOW,2010-04-08 15:00,ZGOW 081500Z AUTO 02002KT 6SM 15/14 A3003 RMK SLP169 T01520141 52015 IEM_DS3505
ZGOW,2010-04-08 16:00,ZGOW 081600Z AUTO 06006KT 7SM 15/15 A3003 RMK T01500150 IEM_DS3505
ZGOW,2010-04-08 17:00,ZGOW 081700Z AUTO 06004KT 7SM 15/15 A3003 RMK T01500150 IEM_DS3505
ZGOW,2010-04-08 18:00,ZGOW 081800Z AUTO 04004KT 6SM 15/14 A3000 RMK 60000 SLP158 T01520137 57011 IEM_DS3505
ZGOW,2010-04-08 19:00,ZGOW 081900Z AUTO 06004KT 2SM 15/15 A2997 RMK T01500150 IEM_DS3505
ZGOW,2010-04-08 20:00,ZGOW 082000Z AUTO 05004KT 2SM 15/15 A2997 RMK T01500150 IEM_DS3505
ZGOW,2010-04-08 21:00,ZGOW 082100Z AUTO 04002KT 6SM 15/14 A3000 RMK 70095 SLP156 T01520139 57002 IEM_DS3505
ZGOW,2010-04-08 22:00,ZGOW 082200Z AUTO 03004KT 4SM 15/15 A3000 RMK T01500150 IEM_DS3505
ZGOW,2010-04-08 23:00,ZGOW 082300Z AUTO 04008KT 4SM 15/15 A3000 RMK T01500150 IEM_DS3505
ZGOW,2010-04-09 00:00,ZGOW 090000Z AUTO 02002KT 6SM 16/14 A3003 RMK 60000 70095 SLP164 T01590137 52008 IEM_DS3505
ZGOW,2010-04-09 01:00,ZGOW 090100Z AUTO 06006KT 7SM 16/15 A3003 RMK T01600150 IEM_DS3505
ZGOW,2010-04-09 02:00,ZGOW 090200Z AUTO 07006KT 7SM 17/15 A3003 RMK T01700150 IEM_DS3505
ZGOW,2010-04-09 03:00,ZGOW 090300Z AUTO 09004KT 6SM 17/14 A3000 RMK SLP160 T01700137 57004 IEM_DS3505
ZGOW,2010-04-09 04:00,ZGOW 090400Z AUTO 06002KT 7SM 18/16 A2997 RMK T01800160 IEM_DS3505
ZGOW,2010-04-09 05:00,ZGOW 090500Z AUTO 10002KT 7SM 18/16 A2994 RMK T01800160 IEM_DS3505
ZGOW,2010-04-09 06:00,ZGOW 090600Z AUTO 11004KT 6SM 19/14 A2991 RMK SLP124 T01900145 57036 IEM_DS3505
ZGOW,2010-04-09 07:00,ZGOW 090700Z AUTO 24002KT 3SM 20/17 A2988 RMK T02000170 IEM_DS3505
ZGOW,2010-04-09 08:00,ZGOW 090800Z AUTO 16004KT 5SM 21/16 A2985 RMK T02100160 IEM_DS3505
ZGOW,2010-04-09 09:00,ZGOW 090900Z AUTO 25004KT 4SM 20/15 A2985 RMK SLP109 T02030151 57015 IEM_DS3505
ZGOW,2010-04-09 10:00,ZGOW 091000Z AUTO 15006KT 4SM 18/16 A2988 RMK T01800160 IEM_DS3505
ZGOW,2010-04-09 11:00,ZGOW 091100Z AUTO 16006KT 4SM 17/16 A2988 RMK T01700160 IEM_DS3505
ZGOW,2010-04-09 12:00,ZGOW 091200Z AUTO 09004KT 7SM 18/14 A2991 RMK SLP128 T01750142 52019 IEM_DS3505
ZGOW,2010-04-09 13:00,ZGOW 091300Z AUTO 15004KT 7SM 17/16 A2994 RMK T01700160 IEM_DS3505
ZGOW,2010-04-09 14:00,ZGOW 091400Z AUTO 14004KT 7SM 18/17 A2997 RMK T01800170 IEM_DS3505
ZGOW,2010-04-09 15:00,ZGOW 091500Z AUTO 09002KT 7SM 18/15 A2997 RMK SLP145 T01800153 52017 IEM_DS3505
ZGOW,2010-04-09 16:00,ZGOW 091600Z AUTO 08002KT 3SM 17/17 A2994 RMK T01700170 IEM_DS3505
ZGOW,2010-04-09 17:00,ZGOW 091700Z AUTO 04006KT 2 1/2SM 17/17 A2994 RMK T01700170 IEM_DS3505
ZGOW,2010-04-09 18:00,ZGOW 091800Z AUTO 07004KT 6SM 17/15 A2994 RMK SLP133 T01730153 57012 IEM_DS3505
ZGOW,2010-04-09 19:00,ZGOW 091900Z AUTO 05006KT 1 1/4SM 16/16 A2991 RMK T01600160 IEM_DS3505
ZGOW,2010-04-09 20:00,ZGOW 092000Z AUTO 03006KT 1 1/4SM 17/17 A2991 RMK T01700170 IEM_DS3505
ZGOW,2010-04-09 21:00,ZGOW 092100Z AUTO 07004KT 5SM 17/15 A2991 RMK SLP127 T01700150 57006 IEM_DS3505
ZGOW,2010-04-09 22:00,ZGOW 092200Z AUTO 05008KT 2 1/2SM 17/17 A2991 RMK T01700170 IEM_DS3505
ZGOW,2010-04-09 23:00,ZGOW 092300Z AUTO 08008KT 3SM 17/16 A2991 RMK T01700160 IEM_DS3505
ZGOW,2010-04-10 00:00,ZGOW 100000Z AUTO 09004KT 7SM 18/15 A2994 RMK SLP137 T01810154 52010 IEM_DS3505
ZGOW,2010-04-10 01:00,ZGOW 100100Z AUTO 06012KT 5SM 18/17 A2997 RMK T01800170 IEM_DS3505
ZGOW,2010-04-10 02:00,ZGOW 100200Z AUTO 07012KT 4SM 19/17 A2997 RMK T01900170 IEM_DS3505
ZGOW,2010-04-10 03:00,ZGOW 100300Z AUTO 07004KT 6SM 19/15 A2997 RMK SLP145 T01930154 52008 IEM_DS3505
ZGOW,2010-04-10 04:00,ZGOW 100400Z AUTO 08006KT 4SM 20/17 A2994 RMK T02000170 IEM_DS3505
ZGOW,2010-04-10 05:00,ZGOW 100500Z AUTO 07006KT 4SM 20/17 A2991 RMK T02000170 IEM_DS3505
ZGOW,2010-04-10 06:00,ZGOW 100600Z AUTO 14002KT 7SM 21/15 A2988 RMK SLP116 T02080149 57029 IEM_DS3505
ZGOW,2010-04-10 07:00,ZGOW 100700Z AUTO 06004KT 7SM 20/17 A2985 RMK T02000170 IEM_DS3505
ZGOW,2010-04-10 08:00,ZGOW 100800Z AUTO 06006KT 4SM 20/17 A2985 RMK T02000170 IEM_DS3505
ZGOW,2010-04-10 09:00,ZGOW 100900Z AUTO 07004KT 6SM 20/16 A2985 RMK SLP104 T01960155 57012 IEM_DS3505
ZGOW,2010-04-10 10:00,ZGOW 101000Z AUTO 04004KT 4SM 19/17 A2985 RMK T01900170 IEM_DS3505
ZGOW,2010-04-10 11:00,ZGOW 101100Z AUTO 00000KT 4SM 19/17 A2988 RMK T01900170 IEM_DS3505
ZGOW,2010-04-10 12:00,ZGOW 101200Z AUTO 00000KT 6SM 20/16 A2988 RMK 60000 SLP122 T01980161 52018 IEM_DS3505
ZGOW,2010-04-10 13:00,ZGOW 101300Z AUTO 01002KT 3SM 20/18 A2991 RMK T02000180 IEM_DS3505
ZGOW,2010-04-10 14:00,ZGOW 101400Z AUTO 00000KT 2 1/2SM 20/18 A2991 RMK T02000180 IEM_DS3505
ZGOW,2010-04-10 15:00,ZGOW 101500Z AUTO 00000KT 6SM 20/16 A2991 RMK SLP125 T01980163 52003 IEM_DS3505
ZGOW,2010-04-10 16:00,ZGOW 101600Z AUTO 34002KT 2 1/2SM 20/18 A2988 RMK T02000180 IEM_DS3505
ZGOW,2010-04-10 17:00,ZGOW 101700Z AUTO 00000KT 2 1/2SM 19/18 A2988 RMK T01900180 IEM_DS3505
ZGOW,2010-04-10 18:00,ZGOW 101800Z AUTO 00000KT 4SM 19/17 A2988 RMK SLP115 T01940170 57010 IEM_DS3505
ZGOW,2010-04-10 19:00,ZGOW 101900Z AUTO 10002KT 1SM 19/19 A2985 RMK T01900190 IEM_DS3505
ZGOW,2010-04-10 20:00,ZGOW 102000Z AUTO 08002KT 1 1/4SM 19/19 A2985 RMK T01900190 IEM_DS3505
ZGOW,2010-04-10 21:00,ZGOW 102100Z AUTO 00000KT 2SM 19/17 A2985 RMK 70000 SLP106 T01920172 57009 IEM_DS3505
ZGOW,2010-04-10 22:00,ZGOW 102200Z AUTO 03002KT 1 1/2SM 19/19 A2985 RMK T01900190 IEM_DS3505
ZGOW,2010-04-10 23:00,ZGOW 102300Z AUTO 36004KT 1 1/4SM 19/19 A2988 RMK T01900190 IEM_DS3505
ZGOW,2010-04-11 00:00,ZGOW 110000Z AUTO 00000KT 2SM 20/17 A2988 RMK 60000 70000 SLP118 T01960174 52012 IEM_DS3505
ZGOW,2010-04-11 01:00,ZGOW 110100Z AUTO 34002KT 1 1/2SM 20/20 A2988 RMK T02000200 IEM_DS3505
ZGOW,2010-04-11 02:00,ZGOW 110200Z AUTO 00000KT 1 1/2SM 21/20 A2991 RMK T02100200 IEM_DS3505
ZGOW,2010-04-11 03:00,ZGOW 110300Z AUTO 00000KT 1SM 21/19 A2988 RMK SLP117 T02090187 57001 IEM_DS3505
ZGOW,2010-04-11 04:00,ZGOW 110400Z AUTO 13002KT 2SM 22/21 A2985 RMK T02200210 IEM_DS3505
ZGOW,2010-04-11 05:00,ZGOW 110500Z AUTO 12006KT 2SM 24/22 A2983 RMK T02400220 IEM_DS3505
ZGOW,2010-04-11 06:00,ZGOW 110600Z AUTO 14006KT 3SM 23/20 A2980 RMK SLP086 T02330199 57031 IEM_DS3505
ZGOW,2010-04-11 07:00,ZGOW 110700Z AUTO 14008KT 1 1/4SM 23/22 A2977 RMK T02300220 IEM_DS3505
ZGOW,2010-04-11 08:00,ZGOW 110800Z AUTO 14006KT 1 1/4SM 22/21 A2977 RMK T02200210 IEM_DS3505
ZGOW,2010-04-11 09:00,ZGOW 110900Z AUTO 14006KT 4SM 22/20 A2977 RMK SLP071 T02200196 57015 IEM_DS3505
ZGOW,2010-04-11 10:00,ZGOW 111000Z AUTO 13004KT 1SM 21/21 A2977 RMK T02100210 IEM_DS3505
ZGOW,2010-04-11 11:00,ZGOW 111100Z AUTO 09002KT 1/4SM 20/20 A2980 RMK T02000200 IEM_DS3505
ZGOW,2010-04-11 12:00,ZGOW 111200Z AUTO 11002KT 3SM 21/20 A2980 RMK SLP087 T02130199 52016 IEM_DS3505
ZGOW,2010-04-11 13:00,ZGOW 111300Z AUTO 13004KT 1/2SM 21/21 A2983 RMK T02100210 IEM_DS3505
ZGOW,2010-04-11 14:00,ZGOW 111400Z AUTO 08002KT 3/8SM 21/21 A2983 RMK T02100210 IEM_DS3505
ZGOW,2010-04-11 15:00,ZGOW 111500Z AUTO 09002KT 2 1/2SM 22/20 A2983 RMK SLP098 T02160204 52011 IEM_DS3505
ZGOW,2010-04-11 16:00,ZGOW 111600Z AUTO 13002KT 1SM 21/21 A2983 RMK T02100210 IEM_DS3505
ZGOW,2010-04-11 17:00,ZGOW 111700Z AUTO 00000KT 1SM 21/21 A2983 RMK T02100210 IEM_DS3505
ZGOW,2010-04-11 18:00,ZGOW 111800Z AUTO 11002KT 1 1/4SM 21/20 A2983 RMK SLP094 T02130203 57004 IEM_DS3505
ZGOW,2010-04-11 19:00,ZGOW 111900Z AUTO 00000KT 1SM 21/21 A2980 RMK T02100210 IEM_DS3505
ZGOW,2010-04-11 20:00,ZGOW 112000Z AUTO 00000KT 3/8SM 21/21 A2980 RMK T02100210 IEM_DS3505
ZGOW,2010-04-11 21:00,ZGOW 112100Z AUTO 11002KT 1SM 21/21 A2980 RMK 70000 SLP090 T02140207 57004 IEM_DS3505
ZGOW,2010-04-11 22:00,ZGOW 112200Z AUTO 00000KT 1/4SM 21/21 A2983 RMK T02100210 IEM_DS3505
ZGOW,2010-04-11 23:00,ZGOW 112300Z AUTO 09002KT 1/4SM 21/21 A2983 RMK T02100210 IEM_DS3505
ZGOW,2010-04-12 00:00,ZGOW 120000Z AUTO 00000KT 1SM 22/22 A2985 RMK SLP108 T02220215 52018 IEM_DS3505
ZGOW,2010-04-12 01:00,ZGOW 120100Z AUTO 00000KT 1SM 23/23 A2988 RMK T02300230 IEM_DS3505
ZGOW,2010-04-12 02:00,ZGOW 120200Z AUTO 00000KT 1 1/4SM 24/24 A2988 RMK T02400240 IEM_DS3505
ZGOW,2010-04-12 03:00,ZGOW 120300Z AUTO 14002KT 4SM 26/23 A2988 RMK SLP114 T02630232 52006 IEM_DS3505
ZGOW,2010-04-12 04:00,ZGOW 120400Z AUTO 00000KT 3SM 27/26 A2985 RMK T02700260 IEM_DS3505
ZGOW,2010-04-12 05:00,ZGOW 120500Z AUTO 00000KT 4SM 28/26 A2983 RMK T02800260 IEM_DS3505
ZGOW,2010-04-12 06:00,ZGOW 120600Z AUTO 16004KT 6SM 27/24 A2983 RMK SLP094 T02670238 57020 IEM_DS3505
ZGOW,2010-04-12 07:00,ZGOW 120700Z AUTO 15008KT 3SM 26/25 A2980 RMK T02600250 IEM_DS3505
ZGOW,2010-04-12 08:00,ZGOW 120800Z AUTO 16008KT 4SM 27/26 A2980 RMK T02700260 IEM_DS3505
ZGOW,2010-04-12 09:00,ZGOW 120900Z AUTO 20004KT 7SM 27/24 A2980 RMK SLP085 T02720239 57009 IEM_DS3505
ZGOW,2010-04-12 10:00,ZGOW 121000Z AUTO 17008KT 1 1/2SM 25/25 A2980 RMK T02500250 IEM_DS3505
ZGOW,2010-04-12 11:00,ZGOW 121100Z AUTO 14006KT 1 1/4SM 24/24 A2983 RMK T02400240 IEM_DS3505
ZGOW,2010-04-12 12:00,ZGOW 121200Z AUTO 16002KT 4SM 24/23 A2985 RMK SLP107 T02420232 52022 IEM_DS3505
ZGOW,2010-04-12 13:00,ZGOW 121300Z AUTO 12004KT 1SM 23/23 A2988 RMK T02300230 IEM_DS3505
ZGOW,2010-04-12 14:00,ZGOW 121400Z AUTO 08002KT 1SM 23/23 A2991 RMK T02300230 IEM_DS3505
ZGOW,2010-04-12 15:00,ZGOW 121500Z AUTO 16002KT 4SM 24/24 A2991 RMK SLP126 T02450236 52019 IEM_DS3505
ZGOW,2010-04-12 16:00,ZGOW 121600Z AUTO 00000KT 3/8SM 23/23 A2991 RMK T02300230 IEM_DS3505
ZGOW,2010-04-12 17:00,ZGOW 121700Z AUTO 05004KT 1SM 23/23 A2991 RMK T02300230 IEM_DS3505
ZGOW,2010-04-12 18:00,ZGOW 121800Z AUTO 00000KT 1 1/4SM 24/24 A2991 RMK SLP124 T02440237 57002 IEM_DS3505
ZGOW,2010-04-12 19:00,ZGOW 121900Z AUTO 00000KT 1/8SM 24/24 A2991 RMK T02400240 IEM_DS3505
ZGOW,2010-04-12 21:00,ZGOW 122100Z AUTO 09004KT 1SM 24/23 A2991 RMK SLP130 T02390232 52006 IEM_DS3505
ZGOW,2010-04-12 22:00,ZGOW 122200Z AUTO 13008KT 1/4SM 23/23 A2994 RMK T02300230 IEM_DS3505
ZGOW,2010-04-12 23:00,ZGOW 122300Z AUTO 04006KT 3/8SM 23/23 A2997 RMK T02300230 IEM_DS3505
ZGOW,2010-04-13 00:00,ZGOW 130000Z AUTO 07006KT 1/2SM 22/21 A3000 RMK SLP158 T02190214 52028 IEM_DS3505
ZGOW,2010-04-13 01:00,ZGOW 130100Z AUTO 07014G23KT 1 1/4SM 18/18 A3003 RMK T01800180 IEM_DS3505
ZGOW,2010-04-13 02:00,ZGOW 130200Z AUTO 08017G27KT 3SM 19/19 A3006 RMK T01900190 IEM_DS3505
ZGOW,2010-04-13 03:00,ZGOW 130300Z AUTO 09006KT 6SM 20/18 A3006 RMK SLP172 T01990179 52014 IEM_DS3505
ZGOW,2010-04-13 04:00,ZGOW 130400Z AUTO 07019G33KT 2 1/2SM 19/19 A3003 RMK T01900190 IEM_DS3505
ZGOW,2010-04-13 05:00,ZGOW 130500Z AUTO 07021G31KT 2 1/2SM 19/19 A3000 RMK T01900190 IEM_DS3505
ZGOW,2010-04-13 06:00,ZGOW 130600Z AUTO 07010G29KT 9SM 19/17 A3000 RMK 60003 SLP157 T01940170 57015 IEM_DS3505
ZGOW,2010-04-13 07:00,ZGOW 130700Z AUTO 08017G27KT 4SM 19/18 A2997 RMK T01900180 IEM_DS3505
ZGOW,2010-04-13 08:00,ZGOW 130800Z AUTO 07016G25KT 4SM 18/18 A2997 RMK T01800180 IEM_DS3505
ZGOW,2010-04-13 09:00,ZGOW 130900Z AUTO 07010G25KT 7SM 19/16 A3000 RMK SLP155 T01870161 57002 IEM_DS3505
ZGOW,2010-04-13 10:00,ZGOW 131000Z AUTO 08019G29KT 5SM 18/16 A3000 RMK T01800160 IEM_DS3505
ZGOW,2010-04-13 11:00,ZGOW 131100Z AUTO 08019G29KT 7SM 17/16 A3003 RMK T01700160 IEM_DS3505
ZGOW,2010-04-13 12:00,ZGOW 131200Z AUTO 07008G29KT 8SM 18/14 A3006 RMK 60000 SLP181 T01750140 52026 IEM_DS3505
ZGOW,2010-04-13 13:00,ZGOW 131300Z AUTO 07021G31KT 7SM 16/15 A3009 RMK T01600150 IEM_DS3505
ZGOW,2010-04-13 14:00,ZGOW 131400Z AUTO 08021G35KT 7SM 16/15 A3012 RMK T01600150 IEM_DS3505
ZGOW,2010-04-13 15:00,ZGOW 131500Z AUTO 07010G33KT 7SM 16/13 A3012 RMK SLP204 T01630127 52023 IEM_DS3505
ZGOW,2010-04-13 16:00,ZGOW 131600Z AUTO 07023G33KT 7SM 16/14 A3012 RMK T01600140 IEM_DS3505
ZGOW,2010-04-13 17:00,ZGOW 131700Z AUTO 07021G31KT 7SM 16/14 A3012 RMK T01600140 IEM_DS3505
ZGOW,2010-04-13 18:00,ZGOW 131800Z AUTO 07012G29KT 7SM 16/12 A3009 RMK 60000 SLP195 T01590119 57009 IEM_DS3505
ZGOW,2010-04-13 19:00,ZGOW 131900Z AUTO 06017KT 1 1/2SM 15/13 A3009 RMK T01500130 IEM_DS3505
ZGOW,2010-04-13 20:00,ZGOW 132000Z AUTO 06014KT 1 1/2SM 16/13 A3009 RMK T01600130 IEM_DS3505
ZGOW,2010-04-13 21:00,ZGOW 132100Z AUTO 07012KT 9SM 16/12 A3009 RMK 70003 SLP190 T01610115 57005 IEM_DS3505
ZGOW,2010-04-13 22:00,ZGOW 132200Z AUTO 08016G25KT 7SM 16/13 A3012 RMK T01600130 IEM_DS3505
ZGOW,2010-04-13 23:00,ZGOW 132300Z AUTO 08017G27KT 7SM 15/13 A3012 RMK T01500130 IEM_DS3505
ZGOW,2010-04-14 00:00,ZGOW 140000Z AUTO 07008G27KT 9SM 16/11 A3012 RMK 70003 SLP201 T01600114 52011 IEM_DS3505
ZGOW,2010-04-14 01:00,ZGOW 140100Z AUTO 08019G29KT 7SM 16/13 A3012 RMK T01600130 IEM_DS3505
ZGOW,2010-04-14 02:00,ZGOW 140200Z AUTO 07019G29KT 6SM 18/14 A3012 RMK T01800140 IEM_DS3505
ZGOW,2010-04-14 03:00,ZGOW 140300Z AUTO 07012KT 11SM 18/12 A3009 RMK SLP192 T01830121 57009 IEM_DS3505
ZGOW,2010-04-14 04:00,ZGOW 140400Z AUTO 07017KT 7SM 19/15 A3009 RMK T01900150 IEM_DS3505
ZGOW,2010-04-14 05:00,ZGOW 140500Z AUTO 08010KT 7SM 20/16 A3006 RMK T02000160 IEM_DS3505
ZGOW,2010-04-14 06:00,ZGOW 140600Z AUTO 07008KT 11SM 20/13 A3003 RMK SLP164 T02010131 57028 IEM_DS3505
ZGOW,2010-04-14 07:00,ZGOW 140700Z AUTO 08008KT 7SM 20/15 A3000 RMK T02000150 IEM_DS3505
ZGOW,2010-04-14 08:00,ZGOW 140800Z AUTO 09006KT 4SM 19/16 A3000 RMK T01900160 IEM_DS3505
ZGOW,2010-04-14 09:00,ZGOW 140900Z AUTO 16004KT 7SM 19/14 A3000 RMK SLP157 T01860143 57007 IEM_DS3505
ZGOW,2010-04-14 10:00,ZGOW 141000Z AUTO 10004KT 5SM 18/16 A3003 RMK T01800160 IEM_DS3505
ZGOW,2010-04-14 11:00,ZGOW 141100Z AUTO 08008KT 7SM 17/16 A3003 RMK T01700160 IEM_DS3505
ZGOW,2010-04-14 12:00,ZGOW 141200Z AUTO 11004KT 7SM 18/14 A3006 RMK SLP177 T01790144 52020 IEM_DS3505
ZGOW,2010-04-14 13:00,ZGOW 141300Z AUTO 07006KT 7SM 17/16 A3009 RMK T01700160 IEM_DS3505
ZGOW,2010-04-14 14:00,ZGOW 141400Z AUTO 07010KT 7SM 17/16 A3009 RMK T01700160 IEM_DS3505
ZGOW,2010-04-14 15:00,ZGOW 141500Z AUTO 09008KT 7SM 17/14 A3009 RMK SLP191 T01720141 52014 IEM_DS3505
ZGOW,2010-04-14 16:00,ZGOW 141600Z AUTO 08010KT 7SM 17/15 A3009 RMK T01700150 IEM_DS3505
ZGOW,2010-04-14 17:00,ZGOW 141700Z AUTO 07012KT 7SM 16/15 A3006 RMK T01600150 IEM_DS3505
ZGOW,2010-04-14 18:00,ZGOW 141800Z AUTO 07008KT 9SM 17/13 A3006 RMK SLP181 T01670132 57010 IEM_DS3505
ZGOW,2010-04-14 19:00,ZGOW 141900Z AUTO 07016KT 2SM 16/15 A3003 RMK T01600150 IEM_DS3505
ZGOW,2010-04-14 20:00,ZGOW 142000Z AUTO 07016KT 2SM 16/15 A3006 RMK T01600150 IEM_DS3505
ZGOW,2010-04-14 21:00,ZGOW 142100Z AUTO 04008KT 7SM 16/14 A3006 RMK SLP178 T01550137 57003 IEM_DS3505
ZGOW,2010-04-14 22:00,ZGOW 142200Z AUTO 07010KT 1SM 15/15 A3006 RMK T01500150 IEM_DS3505
ZGOW,2010-04-14 23:00,ZGOW 142300Z AUTO 07010KT 1 1/4SM 15/15 A3009 RMK T01500150 IEM_DS3505
ZGOW,2010-04-15 00:00,ZGOW 150000Z AUTO 07004KT 5SM 15/14 A3009 RMK 60000 70000 SLP192 T01540143 52014 IEM_DS3505
ZGOW,2010-04-15 01:00,ZGOW 150100Z AUTO 01004KT 1 1/4SM 15/15 A3012 RMK T01500150 IEM_DS3505
ZGOW,2010-04-15 02:00,ZGOW 150200Z AUTO 35006KT 1 1/4SM 15/15 A3015 RMK T01500150 IEM_DS3505
ZGOW,2010-04-15 03:00,ZGOW 150300Z AUTO 04002KT 6SM 15/13 A3015 RMK SLP204 T01480133 52012 IEM_DS3505
ZGOW,2010-04-15 04:00,ZGOW 150400Z AUTO 34010KT 1 1/2SM 13/13 A3015 RMK T01300130 IEM_DS3505
ZGOW,2010-04-15 05:00,ZGOW 150500Z AUTO 34004KT 1 1/2SM 13/13 A3012 RMK T01300130 IEM_DS3505
ZGOW,2010-04-15 06:00,ZGOW 150600Z AUTO 00000KT 5SM 14/12 A3012 RMK 60001 SLP194 T01380125 57010 IEM_DS3505
ZGOW,2010-04-15 07:00,ZGOW 150700Z AUTO 05006KT 4SM 14/14 A3009 RMK T01400140 IEM_DS3505
ZGOW,2010-04-15 08:00,ZGOW 150800Z AUTO 34006KT 7SM 13/13 A3009 RMK T01300130 IEM_DS3505
ZGOW,2010-04-15 09:00,ZGOW 150900Z AUTO 29002KT 5SM 14/12 A3012 RMK SLP194 T01360120 54000 IEM_DS3505
ZGOW,2010-04-15 10:00,ZGOW 151000Z AUTO 34006KT 4SM 13/12 A3012 RMK T01300120 IEM_DS3505
ZGOW,2010-04-15 11:00,ZGOW 151100Z AUTO 34004KT 4SM 12/12 A3015 RMK T01200120 IEM_DS3505
ZGOW,2010-04-15 12:00,ZGOW 151200Z AUTO 16002KT 5SM 12/11 A3018 RMK 60043 SLP219 T01220109 52025 IEM_DS3505
ZGOW,2010-04-15 13:00,ZGOW 151300Z AUTO 35002KT 5SM 12/12 A3018 RMK T01200120 IEM_DS3505
ZGOW,2010-04-15 14:00,ZGOW 151400Z AUTO 35004KT 5SM 12/12 A3018 RMK T01200120 IEM_DS3505
ZGOW,2010-04-15 15:00,ZGOW 151500Z AUTO 27002KT 6SM 12/11 A3018 RMK SLP227 T01230107 52008 IEM_DS3505
ZGOW,2010-04-15 16:00,ZGOW 151600Z AUTO 00000KT 7SM 12/12 A3018 RMK T01200120 IEM_DS3505
ZGOW,2010-04-15 17:00,ZGOW 151700Z AUTO 36002KT 7SM 12/12 A3018 RMK T01200120 IEM_DS3505
ZGOW,2010-04-15 18:00,ZGOW 151800Z AUTO 00000KT 7SM 13/10 A3018 RMK 60012 SLP216 T01260105 57011 IEM_DS3505
ZGOW,2010-04-15 19:00,ZGOW 151900Z AUTO 35004KT 3SM 12/12 A3015 RMK T01200120 IEM_DS3505
ZGOW,2010-04-15 20:00,ZGOW 152000Z AUTO 33002KT 3SM 12/12 A3015 RMK T01200120 IEM_DS3505
ZGOW,2010-04-15 21:00,ZGOW 152100Z AUTO 36002KT 9SM 13/10 A3015 RMK 70057 SLP211 T01260103 57005 IEM_DS3505
ZGOW,2010-04-15 22:00,ZGOW 152200Z AUTO 33004KT 4SM 13/12 A3018 RMK T01300120 IEM_DS3505
ZGOW,2010-04-15 23:00,ZGOW 152300Z AUTO 35004KT 4SM 13/12 A3018 RMK T01300120 IEM_DS3505
ZGOW,2010-04-16 00:00,ZGOW 160000Z AUTO 07002KT 9SM 14/10 A3018 RMK 70056 SLP221 T01350105 52010 IEM_DS3505
ZGOW,2010-04-16 01:00,ZGOW 160100Z AUTO 06004KT 7SM 14/13 A3021 RMK T01400130 IEM_DS3505
ZGOW,2010-04-16 02:00,ZGOW 160200Z AUTO 05006KT 7SM 16/14 A3021 RMK T01600140 IEM_DS3505
ZGOW,2010-04-16 03:00,ZGOW 160300Z AUTO 36002KT 9SM 17/12 A3021 RMK SLP225 T01710124 52004 IEM_DS3505
ZGOW,2010-04-16 04:00,ZGOW 160400Z AUTO 08006KT 4SM 18/15 A3018 RMK T01800150 IEM_DS3505
ZGOW,2010-04-16 05:00,ZGOW 160500Z AUTO 07008KT 4SM 18/15 A3015 RMK T01800150 IEM_DS3505
ZGOW,2010-04-16 06:00,ZGOW 160600Z AUTO 09004KT 7SM 18/13 A3012 RMK SLP200 T01840133 57025 IEM_DS3505
ZGOW,2010-04-16 07:00,ZGOW 160700Z AUTO 09008KT 4SM 18/15 A3012 RMK T01800150 IEM_DS3505
ZGOW,2010-04-16 08:00,ZGOW 160800Z AUTO 08008KT 7SM 17/15 A3012 RMK T01700150 IEM_DS3505
ZGOW,2010-04-16 09:00,ZGOW 160900Z AUTO 07006KT 7SM 17/13 A3012 RMK SLP197 T01740127 57003 IEM_DS3505
ZGOW,2010-04-16 10:00,ZGOW 161000Z AUTO 08012KT 7SM 16/14 A3012 RMK T01600140 IEM_DS3505
ZGOW,2010-04-16 11:00,ZGOW 161100Z AUTO 08010KT 7SM 16/14 A3015 RMK T01600140 IEM_DS3505
ZGOW,2010-04-16 12:00,ZGOW 161200Z AUTO 07010KT 9SM 16/12 A3015 RMK SLP208 T01630121 52011 IEM_DS3505
ZGOW,2010-04-16 13:00,ZGOW 161300Z AUTO 07012KT 7SM 15/13 A3018 RMK T01500130 IEM_DS3505
ZGOW,2010-04-16 14:00,ZGOW 161400Z AUTO 08014KT 7SM 15/14 A3018 RMK T01500140 IEM_DS3505
ZGOW,2010-04-16 15:00,ZGOW 161500Z AUTO 09006KT 8SM 15/12 A3018 RMK SLP218 T01530124 52010 IEM_DS3505
ZGOW,2010-04-16 16:00,ZGOW 161600Z AUTO 08012KT 7SM 15/13 A3018 RMK T01500130 IEM_DS3505
ZGOW,2010-04-16 17:00,ZGOW 161700Z AUTO 07012KT 7SM 15/13 A3018 RMK T01500130 IEM_DS3505
ZGOW,2010-04-16 18:00,ZGOW 161800Z AUTO 07008KT 7SM 15/12 A3018 RMK SLP214 T01480119 57004 IEM_DS3505
ZGOW,2010-04-16 20:00,ZGOW 162000Z AUTO 07010KT 2 1/2SM 15/13 A3015 RMK T01500130 IEM_DS3505
ZGOW,2010-04-16 21:00,ZGOW 162100Z AUTO 07002KT 7SM 15/11 A3015 RMK SLP213 T01480112 57001 IEM_DS3505
ZGOW,2010-04-16 22:00,ZGOW 162200Z AUTO 04004KT 4SM 14/13 A3018 RMK T01400130 IEM_DS3505
ZGOW,2010-04-16 23:00,ZGOW 162300Z AUTO 05004KT 3SM 14/13 A3018 RMK T01400130 IEM_DS3505
ZGOW,2010-04-17 00:00,ZGOW 170000Z AUTO 07002KT 7SM 16/12 A3018 RMK SLP224 T01560118 52011 IEM_DS3505
ZGOW,2010-04-17 01:00,ZGOW 170100Z AUTO 03006KT 4SM 17/14 A3021 RMK T01700140 IEM_DS3505
ZGOW,2010-04-17 02:00,ZGOW 170200Z AUTO 06006KT 4SM 17/14 A3021 RMK T01700140 IEM_DS3505
ZGOW,2010-04-17 03:00,ZGOW 170300Z AUTO 04004KT 6SM 17/12 A3021 RMK SLP224 T01720117 54000 IEM_DS3505
ZGOW,2010-04-17 04:00,ZGOW 170400Z AUTO 06008KT 5SM 18/14 A3018 RMK T01800140 IEM_DS3505
ZGOW,2010-04-17 05:00,ZGOW 170500Z AUTO 07010KT 4SM 18/14 A3015 RMK T01800140 IEM_DS3505
ZGOW,2010-04-17 06:00,ZGOW 170600Z AUTO 09006KT 7SM 19/12 A3012 RMK SLP201 T01860124 57023 IEM_DS3505
ZGOW,2010-04-17 07:00,ZGOW 170700Z AUTO 07010KT 5SM 19/15 A3012 RMK T01900150 IEM_DS3505
ZGOW,2010-04-17 08:00,ZGOW 170800Z AUTO 07012KT 5SM 18/15 A3009 RMK T01800150 IEM_DS3505
ZGOW,2010-04-17 09:00,ZGOW 170900Z AUTO 07006KT 7SM 18/13 A3009 RMK SLP187 T01850127 57014 IEM_DS3505
ZGOW,2010-04-17 10:00,ZGOW 171000Z AUTO 07012KT 5SM 17/15 A3009 RMK T01700150 IEM_DS3505
ZGOW,2010-04-17 11:00,ZGOW 171100Z AUTO 08012KT 5SM 17/15 A3012 RMK T01700150 IEM_DS3505
ZGOW,2010-04-17 12:00,ZGOW 171200Z AUTO 09008KT 7SM 18/13 A3012 RMK SLP195 T01770134 52008 IEM_DS3505
ZGOW,2010-04-17 13:00,ZGOW 171300Z AUTO 06010KT 7SM 17/16 A3012 RMK T01700160 IEM_DS3505
ZGOW,2010-04-17 14:00,ZGOW 171400Z AUTO 04008KT 5SM 17/16 A3012 RMK T01700160 IEM_DS3505
ZGOW,2010-04-17 15:00,ZGOW 171500Z AUTO 00000KT 7SM 17/14 A3015 RMK SLP207 T01740141 52012 IEM_DS3505
ZGOW,2010-04-17 16:00,ZGOW 171600Z AUTO 00000KT 4SM 17/15 A3012 RMK T01700150 IEM_DS3505
ZGOW,2010-04-17 17:00,ZGOW 171700Z AUTO 28002KT 2SM 17/16 A3012 RMK T01700160 IEM_DS3505
ZGOW,2010-04-17 18:00,ZGOW 171800Z AUTO 00000KT 6SM 17/14 A3009 RMK SLP193 T01720143 57014 IEM_DS3505
ZGOW,2010-04-17 19:00,ZGOW 171900Z AUTO 24002KT 1SM 17/16 A3012 RMK T01700160 IEM_DS3505
ZGOW,2010-04-17 20:00,ZGOW 172000Z AUTO 12002KT 1SM 16/16 A3009 RMK T01600160 IEM_DS3505
ZGOW,2010-04-17 21:00,ZGOW 172100Z AUTO 27002KT 1 1/4SM 16/15 A3009 RMK 70043 SLP195 T01620154 52002 IEM_DS3505
ZGOW,2010-04-17 22:00,ZGOW 172200Z AUTO 27002KT 1 1/4SM 16/16 A3009 RMK T01600160 IEM_DS3505
ZGOW,2010-04-17 23:00,ZGOW 172300Z AUTO 10002KT 1SM 16/16 A3009 RMK T01600160 IEM_DS3505
ZGOW,2010-04-18 00:00,ZGOW 180000Z AUTO 07002KT 1SM 17/16 A3009 RMK 60102 70102 SLP190 T01670161 57005 IEM_DS3505
ZGOW,2010-04-18 01:00,ZGOW 180100Z AUTO 05006KT 1 1/4SM 17/17 A3012 RMK T01700170 IEM_DS3505
ZGOW,2010-04-18 02:00,ZGOW 180200Z AUTO 03004KT 1 1/4SM 17/17 A3012 RMK T01700170 IEM_DS3505
ZGOW,2010-04-18 03:00,ZGOW 180300Z AUTO 04002KT 3SM 18/17 A3009 RMK SLP192 T01810166 52002 IEM_DS3505
ZGOW,2010-04-18 04:00,ZGOW 180400Z AUTO 05006KT 3SM 19/19 A3006 RMK T01900190 IEM_DS3505
ZGOW,2010-04-18 05:00,ZGOW 180500Z AUTO 06006KT 3SM 19/19 A3003 RMK T01900190 IEM_DS3505
ZGOW,2010-04-18 06:00,ZGOW 180600Z AUTO 07002KT 4SM 20/17 A3003 RMK 60000 SLP163 T01960174 57029 IEM_DS3505
ZGOW,2010-04-18 07:00,ZGOW 180700Z AUTO 06006KT 2 1/2SM 19/19 A3000 RMK T01900190 IEM_DS3505
ZGOW,2010-04-18 08:00,ZGOW 180800Z AUTO 06006KT 3SM 19/19 A2997 RMK T01900190 IEM_DS3505
ZGOW,2010-04-18 09:00,ZGOW 180900Z AUTO 02004KT 4SM 19/17 A2997 RMK SLP147 T01940174 57016 IEM_DS3505
ZGOW,2010-04-18 10:00,ZGOW 181000Z AUTO 07006KT 7SM 19/19 A2997 RMK T01900190 IEM_DS3505
ZGOW,2010-04-18 11:00,ZGOW 181100Z AUTO 07006KT 7SM 19/19 A2997 RMK T01900190 IEM_DS3505
ZGOW,2010-04-18 12:00,ZGOW 181200Z AUTO 04002KT 5SM 19/17 A3000 RMK 60000 SLP156 T01910172 52009 IEM_DS3505
ZGOW,2010-04-18 13:00,ZGOW 181300Z AUTO 04006KT 7SM 19/18 A3000 RMK T01900180 IEM_DS3505
ZGOW,2010-04-18 14:00,ZGOW 181400Z AUTO 05002KT 7SM 19/19 A3000 RMK T01900190 IEM_DS3505
ZGOW,2010-04-18 15:00,ZGOW 181500Z AUTO 00000KT 4SM 19/18 A3000 RMK SLP158 T01880178 52002 IEM_DS3505
ZGOW,2010-04-18 16:00,ZGOW 181600Z AUTO 04002KT 2 1/2SM 19/19 A2997 RMK T01900190 IEM_DS3505
ZGOW,2010-04-18 17:00,ZGOW 181700Z AUTO 35002KT 2SM 19/19 A2997 RMK T01900190 IEM_DS3505
ZGOW,2010-04-18 18:00,ZGOW 181800Z AUTO 00000KT 2SM 19/18 A2994 RMK 60004 SLP142 T01880180 57016 IEM_DS3505
ZGOW,2010-04-18 19:00,ZGOW 181900Z AUTO 00000KT 1SM 19/19 A2994 RMK T01900190 IEM_DS3505
ZGOW,2010-04-18 20:00,ZGOW 182000Z AUTO 00000KT 1SM 19/19 A2991 RMK T01900190 IEM_DS3505
ZGOW,2010-04-18 21:00,ZGOW 182100Z AUTO 00000KT 1 1/4SM 19/18 A2994 RMK 70063 SLP134 T01890182 57008 IEM_DS3505
ZGOW,2010-04-18 22:00,ZGOW 182200Z AUTO 00000KT 1SM 19/19 A2991 RMK T01900190 IEM_DS3505
ZGOW,2010-04-18 23:00,ZGOW 182300Z AUTO 30002KT 1SM 19/19 A2994 RMK T01900190 IEM_DS3505
ZGOW,2010-04-19 00:00,ZGOW 190000Z AUTO 00000KT 1SM 20/19 A2994 RMK 70004 SLP143 T01970189 52009 IEM_DS3505
ZGOW,2010-04-19 01:00,ZGOW 190100Z AUTO 34002KT 1SM 21/20 A2997 RMK T02100200 IEM_DS3505
ZGOW,2010-04-19 02:00,ZGOW 190200Z AUTO 35002KT 1 1/2SM 22/21 A2997 RMK T02200210 IEM_DS3505
ZGOW,2010-04-19 03:00,ZGOW 190300Z AUTO 22002KT 1 1/4SM 22/19 A2997 RMK SLP145 T02150194 52002 IEM_DS3505
ZGOW,2010-04-19 04:00,ZGOW 190400Z AUTO 08004KT 3SM 23/21 A2994 RMK T02300210 IEM_DS3505
ZGOW,2010-04-19 05:00,ZGOW 190500Z AUTO 10004KT 4SM 24/22 A2991 RMK T02400220 IEM_DS3505
ZGOW,2010-04-19 06:00,ZGOW 190600Z AUTO 16004KT 4SM 24/20 A2988 RMK 60000 SLP119 T02430202 57026 IEM_DS3505
ZGOW,2010-04-19 07:00,ZGOW 190700Z AUTO 08006KT 4SM 25/23 A2985 RMK T02500230 IEM_DS3505
ZGOW,2010-04-19 08:00,ZGOW 190800Z AUTO 10004KT 2 1/2SM 24/22 A2985 RMK T02400220 IEM_DS3505
ZGOW,2010-04-19 09:00,ZGOW 190900Z AUTO 11004KT 6SM 24/20 A2985 RMK SLP104 T02440205 57015 IEM_DS3505
ZGOW,2010-04-19 10:00,ZGOW 191000Z AUTO 14004KT 2 1/2SM 22/21 A2985 RMK T02200210 IEM_DS3505
ZGOW,2010-04-19 11:00,ZGOW 191100Z AUTO 13004KT 1 1/2SM 21/21 A2988 RMK T02100210 IEM_DS3505
ZGOW,2010-04-19 12:00,ZGOW 191200Z AUTO 14004KT 4SM 22/20 A2988 RMK SLP117 T02150198 52013 IEM_DS3505
ZGOW,2010-04-19 13:00,ZGOW 191300Z AUTO 16004KT 1 1/2SM 21/21 A2988 RMK T02100210 IEM_DS3505
ZGOW,2010-04-19 14:00,ZGOW 191400Z AUTO 13004KT 1SM 21/21 A2988 RMK T02100210 IEM_DS3505
ZGOW,2010-04-19 15:00,ZGOW 191500Z AUTO 22002KT 2 1/2SM 21/20 A2988 RMK SLP123 T02090201 52006 IEM_DS3505
ZGOW,2010-04-19 16:00,ZGOW 191600Z AUTO 00000KT 1SM 21/21 A2988 RMK T02100210 IEM_DS3505
ZGOW,2010-04-19 17:00,ZGOW 191700Z AUTO 00000KT 3/8SM 21/21 A2988 RMK T02100210 IEM_DS3505
ZGOW,2010-04-19 18:00,ZGOW 191800Z AUTO 00000KT 3/8SM 21/20 A2985 RMK SLP112 T02100205 57011 IEM_DS3505
ZGOW,2010-04-19 19:00,ZGOW 191900Z AUTO 00000KT 1/8SM 21/21 A2985 RMK T02100210 IEM_DS3505
ZGOW,2010-04-19 20:00,ZGOW 192000Z AUTO 13002KT 1/8SM 21/21 A2983 RMK T02100210 IEM_DS3505
ZGOW,2010-04-19 21:00,ZGOW 192100Z AUTO 11002KT 1/2SM 21/20 A2985 RMK 70000 SLP108 T02090204 57004 IEM_DS3505
ZGOW,2010-04-19 22:00,ZGOW 192200Z AUTO 14002KT 1/8SM 21/21 A2988 RMK T02100210 IEM_DS3505
ZGOW,2010-04-19 23:00,ZGOW 192300Z AUTO 00000KT 3/8SM 21/21 A2988 RMK T02100210 IEM_DS3505
ZGOW,2010-04-20 00:00,ZGOW 200000Z AUTO 14002KT 1SM 21/21 A2991 RMK 70000 SLP127 T02120207 52019 IEM_DS3505
ZGOW,2010-04-20 01:00,ZGOW 200100Z AUTO 17004KT 2SM 22/22 A2994 RMK T02200220 IEM_DS3505
ZGOW,2010-04-20 02:00,ZGOW 200200Z AUTO 19002KT 3SM 22/22 A2991 RMK T02200220 IEM_DS3505
ZGOW,2010-04-20 03:00,ZGOW 200300Z AUTO 20002KT 7SM 23/21 A2991 RMK SLP127 T02340211 54000 IEM_DS3505
ZGOW,2010-04-20 04:00,ZGOW 200400Z AUTO 14004KT 4SM 24/23 A2988 RMK T02400230 IEM_DS3505
ZGOW,2010-04-20 05:00,ZGOW 200500Z AUTO 16006KT 4SM 25/23 A2988 RMK T02500230 IEM_DS3505
ZGOW,2010-04-20 06:00,ZGOW 200600Z AUTO 09004KT 7SM 25/21 A2985 RMK SLP105 T02530210 57022 IEM_DS3505
ZGOW,2010-04-20 07:00,ZGOW 200700Z AUTO 11006KT 7SM 24/23 A2983 RMK T02400230 IEM_DS3505
ZGOW,2010-04-20 08:00,ZGOW 200800Z AUTO 13006KT 7SM 25/23 A2980 RMK T02500230 IEM_DS3505
ZGOW,2010-04-20 09:00,ZGOW 200900Z AUTO 14008KT 7SM 25/21 A2980 RMK SLP087 T02510214 57018 IEM_DS3505
ZGOW,2010-04-20 10:00,ZGOW 201000Z AUTO 12004KT 3SM 23/23 A2983 RMK T02300230 IEM_DS3505
ZGOW,2010-04-20 11:00,ZGOW 201100Z AUTO 17006KT 2 1/2SM 23/23 A2985 RMK T02300230 IEM_DS3505
ZGOW,2010-04-20 12:00,ZGOW 201200Z AUTO 00000KT 7SM 23/22 A2985 RMK SLP112 T02300215 52025 IEM_DS3505
ZGOW,2010-04-20 13:00,ZGOW 201300Z AUTO 00000KT 2SM 22/22 A2988 RMK T02200220 IEM_DS3505
ZGOW,2010-04-20 14:00,ZGOW 201400Z AUTO 20002KT 1 1/2SM 23/23 A2988 RMK T02300230 IEM_DS3505
ZGOW,2010-04-20 15:00,ZGOW 201500Z AUTO 00000KT 9SM 23/21 A2988 RMK SLP122 T02260214 52010 IEM_DS3505
ZGOW,2010-04-20 16:00,ZGOW 201600Z AUTO 08002KT 1SM 22/22 A2988 RMK T02200220 IEM_DS3505
ZGOW,2010-04-20 17:00,ZGOW 201700Z AUTO 04002KT 1SM 22/22 A2988 RMK T02200220 IEM_DS3505
ZGOW,2010-04-20 18:00,ZGOW 201800Z AUTO 00000KT 3SM 23/22 A2985 RMK SLP109 T02300218 57013 IEM_DS3505
ZGOW,2010-04-20 19:00,ZGOW 201900Z AUTO 00000KT 1/4SM 22/ A2985 RMK IEM_DS3505
ZGOW,2010-04-20 20:00,ZGOW 202000Z AUTO 00000KT 1/8SM 23/23 A2985 RMK T02300230 IEM_DS3505
ZGOW,2010-04-20 21:00,ZGOW 202100Z AUTO 00000KT 4SM 23/22 A2985 RMK SLP106 T02270219 57003 IEM_DS3505
ZGOW,2010-04-20 22:00,ZGOW 202200Z AUTO 04002KT 1/8SM 22/22 A2985 RMK T02200220 IEM_DS3505
ZGOW,2010-04-20 23:00,ZGOW 202300Z AUTO 01002KT 1/2SM 23/23 A2988 RMK T02300230 IEM_DS3505
ZGOW,2010-04-21 00:00,ZGOW 210000Z AUTO 09002KT 3SM 24/23 A2991 RMK SLP124 T02380226 52018 IEM_DS3505
ZGOW,2010-04-21 01:00,ZGOW 210100Z AUTO 16004KT 2 1/2SM 25/25 A2991 RMK T02500250 IEM_DS3505
ZGOW,2010-04-21 02:00,ZGOW 210200Z AUTO 17002KT 7SM 27/25 A2991 RMK T02700250 IEM_DS3505
ZGOW,2010-04-21 03:00,ZGOW 210300Z AUTO 25004KT 14SM 28/23 A2988 RMK SLP121 T02750231 57003 IEM_DS3505
ZGOW,2010-04-21 04:00,ZGOW 210400Z AUTO 18008KT 7SM 28/25 A2988 RMK T02800250 IEM_DS3505
ZGOW,2010-04-21 05:00,ZGOW 210500Z AUTO 16008KT 7SM 29/26 A2985 RMK T02900260 IEM_DS3505
ZGOW,2010-04-21 06:00,ZGOW 210600Z AUTO 14008KT 14SM 29/22 A2983 RMK SLP096 T02920222 57024 IEM_DS3505
ZGOW,2010-04-21 07:00,ZGOW 210700Z AUTO 16010KT 7SM 29/26 A2980 RMK T02900260 IEM_DS3505
ZGOW,2010-04-21 08:00,ZGOW 210800Z AUTO 15010KT 7SM 28/25 A2980 RMK T02800250 IEM_DS3505
ZGOW,2010-04-21 09:00,ZGOW 210900Z AUTO 18006KT 14SM 29/21 A2980 RMK SLP090 T02860214 57007 IEM_DS3505
ZGOW,2010-04-21 10:00,ZGOW 211000Z AUTO 21010KT 7SM 27/24 A2980 RMK T02700240 IEM_DS3505
ZGOW,2010-04-21 11:00,ZGOW 211100Z AUTO 18006KT 7SM 26/24 A2983 RMK T02600240 IEM_DS3505
ZGOW,2010-04-21 12:00,ZGOW 211200Z AUTO 18002KT 10SM 25/22 A2985 RMK SLP106 T02500225 52016 IEM_DS3505
ZGOW,2010-04-21 13:00,ZGOW 211300Z AUTO 15004KT 4SM 24/24 A2985 RMK T02400240 IEM_DS3505
ZGOW,2010-04-21 14:00,ZGOW 211400Z AUTO 16004KT 4SM 24/24 A2985 RMK T02400240 IEM_DS3505
ZGOW,2010-04-21 15:00,ZGOW 211500Z AUTO 18002KT 6SM 24/22 A2985 RMK SLP107 T02380221 52001 IEM_DS3505
ZGOW,2010-04-21 16:00,ZGOW 211600Z AUTO 12002KT 1/4SM 22/22 A2985 RMK T02200220 IEM_DS3505
ZGOW,2010-04-21 17:00,ZGOW 211700Z AUTO 10002KT 1/8SM 23/23 A2985 RMK T02300230 IEM_DS3505
ZGOW,2010-04-21 18:00,ZGOW 211800Z AUTO 17004KT 1/8SM 23/23 A2983 RMK T02300230 IEM_DS3505
ZGOW,2010-04-21 19:00,ZGOW 211900Z AUTO 15002KT 1/8SM 22/ A2980 RMK IEM_DS3505
ZGOW,2010-04-21 20:00,ZGOW 212000Z AUTO 17004KT 1/8SM 22/ A2980 RMK IEM_DS3505
ZGOW,2010-04-21 21:00,ZGOW 212100Z AUTO 14004KT 2 1/2SM 23/22 A2980 RMK SLP091 T02320225 57007 IEM_DS3505
ZGOW,2010-04-21 22:00,ZGOW 212200Z AUTO 06004KT 1/4SM 22/22 A2983 RMK T02200220 IEM_DS3505
ZGOW,2010-04-21 23:00,ZGOW 212300Z AUTO 13002KT 1SM 23/23 A2985 RMK T02300230 IEM_DS3505
ZGOW,2010-04-22 00:00,ZGOW 220000Z AUTO 14004KT 6SM 25/24 A2985 RMK SLP110 T02460236 52018 IEM_DS3505
ZGOW,2010-04-22 01:00,ZGOW 220100Z AUTO 12006KT 2SM 24/24 A2988 RMK T02400240 IEM_DS3505
ZGOW,2010-04-22 02:00,ZGOW 220200Z AUTO 17006KT 3SM 26/26 A2988 RMK T02600260 IEM_DS3505
ZGOW,2010-04-22 03:00,ZGOW 220300Z AUTO 14006KT 9SM 28/24 A2988 RMK SLP113 T02840240 52003 IEM_DS3505
ZGOW,2010-04-22 04:00,ZGOW 220400Z AUTO 19012KT 4SM 28/26 A2985 RMK T02800260 IEM_DS3505
ZGOW,2010-04-22 05:00,ZGOW 220500Z AUTO 20014KT 7SM 29/26 A2985 RMK T02900260 IEM_DS3505
ZGOW,2010-04-22 06:00,ZGOW 220600Z AUTO 18010KT 12SM 30/23 A2983 RMK SLP095 T02970234 57017 IEM_DS3505
ZGOW,2010-04-22 07:00,ZGOW 220700Z AUTO 19016KT 7SM 29/26 A2980 RMK T02900260 IEM_DS3505
ZGOW,2010-04-22 08:00,ZGOW 220800Z AUTO 19016KT 7SM 29/26 A2980 RMK T02900260 IEM_DS3505
ZGOW,2010-04-22 09:00,ZGOW 220900Z AUTO 22008KT 11SM 28/23 A2980 RMK SLP094 T02800229 57002 IEM_DS3505
ZGOW,2010-04-22 10:00,ZGOW 221000Z AUTO 33006KT 7SM 26/24 A2983 RMK T02600240 IEM_DS3505
ZGOW,2010-04-22 11:00,ZGOW 221100Z AUTO 32006KT 7SM 24/23 A2985 RMK T02400230 IEM_DS3505
ZGOW,2010-04-22 12:00,ZGOW 221200Z AUTO 25004KT 9SM 23/20 A2991 RMK SLP125 T02290197 52031 IEM_DS3505
ZGOW,2010-04-22 13:00,ZGOW 221300Z AUTO 33008KT 7SM 22/20 A2994 RMK T02200200 IEM_DS3505
ZGOW,2010-04-22 14:00,ZGOW 221400Z AUTO 32010KT 7SM 21/20 A2994 RMK T02100200 IEM_DS3505
ZGOW,2010-04-22 15:00,ZGOW 221500Z AUTO 20002KT 9SM 21/18 A2994 RMK SLP144 T02120178 52019 IEM_DS3505
ZGOW,2010-04-22 16:00,ZGOW 221600Z AUTO 32006KT 7SM 20/18 A2997 RMK T02000180 IEM_DS3505
ZGOW,2010-04-22 17:00,ZGOW 221700Z AUTO 33014G23KT 7SM 19/17 A2997 RMK T01900170 IEM_DS3505
ZGOW,2010-04-22 18:00,ZGOW 221800Z AUTO 11002KT 9SM 19/15 A2997 RMK SLP145 T01930150 52001 IEM_DS3505
ZGOW,2010-04-22 20:00,ZGOW 222000Z AUTO 33008KT 4SM 18/16 A2997 RMK T01800160 IEM_DS3505
ZGOW,2010-04-22 21:00,ZGOW 222100Z AUTO 14004KT 10SM 17/14 A3000 RMK 70000 SLP155 T01720139 52010 IEM_DS3505
ZGOW,2010-04-22 22:00,ZGOW 222200Z AUTO 35006KT 4SM 16/16 A3003 RMK T01600160 IEM_DS3505
ZGOW,2010-04-22 23:00,ZGOW 222300Z AUTO 01002KT 7SM 17/16 A3003 RMK T01700160 IEM_DS3505
ZGOW,2010-04-23 00:00,ZGOW 230000Z AUTO 02004KT 11SM 17/14 A3009 RMK 60000 70000 SLP184 T01680144 52029 IEM_DS3505
ZGOW,2010-04-23 01:00,ZGOW 230100Z AUTO 33004KT 2 1/2SM 16/16 A3009 RMK T01600160 IEM_DS3505
ZGOW,2010-04-23 02:00,ZGOW 230200Z AUTO 36002KT 2 1/2SM 16/16 A3012 RMK T01600160 IEM_DS3505
ZGOW,2010-04-23 03:00,ZGOW 230300Z AUTO 07006KT 10SM 18/14 A3009 RMK SLP189 T01790144 52005 IEM_DS3505
ZGOW,2010-04-23 04:00,ZGOW 230400Z AUTO 06006KT 1 1/2SM 18/18 A3009 RMK T01800180 IEM_DS3505
ZGOW,2010-04-23 05:00,ZGOW 230500Z AUTO 06006KT 3SM 19/18 A3006 RMK T01900180 IEM_DS3505
ZGOW,2010-04-23 06:00,ZGOW 230600Z AUTO 07004KT 9SM 19/15 A3006 RMK 60000 SLP174 T01890152 57015 IEM_DS3505
ZGOW,2010-04-23 07:00,ZGOW 230700Z AUTO 08006KT 7SM 18/17 A3006 RMK T01800170 IEM_DS3505
ZGOW,2010-04-23 08:00,ZGOW 230800Z AUTO 09008KT 5SM 18/17 A3006 RMK T01800170 IEM_DS3505
ZGOW,2010-04-23 09:00,ZGOW 230900Z AUTO 07008KT 9SM 18/15 A3006 RMK SLP179 T01810154 52005 IEM_DS3505
ZGOW,2010-04-23 10:00,ZGOW 231000Z AUTO 08008KT 3SM 18/17 A3006 RMK T01800170 IEM_DS3505
ZGOW,2010-04-23 11:00,ZGOW 231100Z AUTO 08008KT 4SM 18/17 A3009 RMK T01800170 IEM_DS3505
ZGOW,2010-04-23 12:00,ZGOW 231200Z AUTO 07006KT 6SM 18/16 A3012 RMK 60000 SLP197 T01750155 52018 IEM_DS3505
ZGOW,2010-04-23 13:00,ZGOW 231300Z AUTO 02004KT 2 1/2SM 17/17 A3012 RMK T01700170 IEM_DS3505
ZGOW,2010-04-23 14:00,ZGOW 231400Z AUTO 04002KT 3SM 17/17 A3015 RMK T01700170 IEM_DS3505
ZGOW,2010-04-23 15:00,ZGOW 231500Z AUTO 07002KT 6SM 18/15 A3012 RMK SLP203 T01800153 52006 IEM_DS3505
ZGOW,2010-04-23 16:00,ZGOW 231600Z AUTO 04002KT 4SM 17/17 A3012 RMK T01700170 IEM_DS3505
ZGOW,2010-04-23 17:00,ZGOW 231700Z AUTO 04004KT 5SM 17/16 A3009 RMK T01700160 IEM_DS3505
ZGOW,2010-04-23 18:00,ZGOW 231800Z AUTO 00000KT 6SM 18/15 A3009 RMK 60000 SLP184 T01800149 57019 IEM_DS3505
ZGOW,2010-04-23 19:00,ZGOW 231900Z AUTO 04004KT 3SM 17/16 A3006 RMK T01700160 IEM_DS3505
ZGOW,2010-04-23 20:00,ZGOW 232000Z AUTO 05004KT 3SM 17/16 A3006 RMK T01700160 IEM_DS3505
ZGOW,2010-04-23 21:00,ZGOW 232100Z AUTO 00000KT 8SM 18/14 A3009 RMK 70000 SLP187 T01790136 52003 IEM_DS3505
ZGOW,2010-04-23 22:00,ZGOW 232200Z AUTO 01002KT 7SM 17/13 A3009 RMK T01700130 IEM_DS3505
ZGOW,2010-04-23 23:00,ZGOW 232300Z AUTO 00000KT 7SM 18/14 A3012 RMK T01800140 IEM_DS3505
ZGOW,2010-04-24 00:00,ZGOW 240000Z AUTO 07004KT 9SM 20/07 A3012 RMK 70000 SLP200 T02040074 52013 IEM_DS3505
ZGOW,2010-04-24 01:00,ZGOW 240100Z AUTO 05006KT 6SM 21/12 A3012 RMK T02100120 IEM_DS3505
ZGOW,2010-04-24 02:00,ZGOW 240200Z AUTO 07014KT 6SM 22/13 A3012 RMK T02200130 IEM_DS3505
ZGOW,2010-04-24 03:00,ZGOW 240300Z AUTO 07010KT 9SM 22/06 A3012 RMK SLP199 T02220060 57001 IEM_DS3505
ZGOW,2010-04-24 04:00,ZGOW 240400Z AUTO 08016KT 6SM 23/12 A3009 RMK T02300120 IEM_DS3505
ZGOW,2010-04-24 05:00,ZGOW 240500Z AUTO 08016KT 6SM 23/13 A3009 RMK T02300130 IEM_DS3505
ZGOW,2010-04-24 06:00,ZGOW 240600Z AUTO 09008KT 12SM 24/07 A3006 RMK SLP180 T02360068 57019 IEM_DS3505
ZGOW,2010-04-24 07:00,ZGOW 240700Z AUTO 09016KT 4SM 23/12 A3006 RMK T02300120 IEM_DS3505
ZGOW,2010-04-24 08:00,ZGOW 240800Z AUTO 08014KT 4SM 22/13 A3006 RMK T02200130 IEM_DS3505
ZGOW,2010-04-24 09:00,ZGOW 240900Z AUTO 09004KT 11SM 22/09 A3006 RMK SLP175 T02170086 57005 IEM_DS3505
ZGOW,2010-04-24 10:00,ZGOW 241000Z AUTO 08017G29KT 4SM 19/12 A3006 RMK T01900120 IEM_DS3505
ZGOW,2010-04-24 11:00,ZGOW 241100Z AUTO 09017KT 4SM 18/12 A3009 RMK T01800120 IEM_DS3505
ZGOW,2010-04-24 12:00,ZGOW 241200Z AUTO 09008G33KT 7SM 19/07 A3009 RMK SLP191 T01890070 52016 IEM_DS3505
ZGOW,2010-04-24 13:00,ZGOW 241300Z AUTO 09016KT 4SM 18/12 A3012 RMK T01800120 IEM_DS3505
ZGOW,2010-04-24 14:00,ZGOW 241400Z AUTO 09012G25KT 4SM 17/11 A3015 RMK T01700110 IEM_DS3505
ZGOW,2010-04-24 15:00,ZGOW 241500Z AUTO 09010KT 6SM 18/07 A3012 RMK SLP203 T01790067 52012 IEM_DS3505
ZGOW,2010-04-24 16:00,ZGOW 241600Z AUTO 07014KT 4SM 17/10 A3012 RMK T01700100 IEM_DS3505
ZGOW,2010-04-24 17:00,ZGOW 241700Z AUTO 06014KT 4SM 17/09 A3009 RMK T01700090 IEM_DS3505
ZGOW,2010-04-24 18:00,ZGOW 241800Z AUTO 06012KT 3SM 17/07 A3009 RMK T01700070 IEM_DS3505
ZGOW,2010-04-24 19:00,ZGOW 241900Z AUTO 06012KT 3SM 17/06 A3009 RMK T01700060 IEM_DS3505
ZGOW,2010-04-24 20:00,ZGOW 242000Z AUTO 04008KT 3SM 16/08 A3009 RMK T01600080 IEM_DS3505
ZGOW,2010-04-24 21:00,ZGOW 242100Z AUTO 04006KT 4SM 17/10 A3009 RMK T01700100 IEM_DS3505
ZGOW,2010-04-24 22:00,ZGOW 242200Z AUTO 04006KT 4SM 16/11 A3009 RMK T01600110 IEM_DS3505
ZGOW,2010-04-24 23:00,ZGOW 242300Z AUTO 04004KT 4SM 17/11 A3012 RMK T01700110 IEM_DS3505
ZGOW,2010-04-25 00:00,ZGOW 250000Z AUTO 07008KT 9SM 19/05 A3012 RMK SLP197 T01860051 52013 IEM_DS3505
ZGOW,2010-04-25 02:00,ZGOW 250200Z AUTO 07014KT 6SM 20/13 A3012 RMK T02000130 IEM_DS3505
ZGOW,2010-04-25 03:00,ZGOW 250300Z AUTO 07006KT 9SM 21/09 A3012 RMK SLP198 T02070087 52001 IEM_DS3505
ZGOW,2010-04-25 04:00,ZGOW 250400Z AUTO 08012KT 6SM 21/15 A3009 RMK T02100150 IEM_DS3505
ZGOW,2010-04-25 05:00,ZGOW 250500Z AUTO 09012KT 6SM 22/15 A3009 RMK T02200150 IEM_DS3505
ZGOW,2010-04-25 06:00,ZGOW 250600Z AUTO 09006KT 9SM 22/10 A3006 RMK SLP176 T02190104 57022 IEM_DS3505
ZGOW,2010-04-25 07:00,ZGOW 250700Z AUTO 13006KT 6SM 21/17 A3006 RMK T02100170 IEM_DS3505
ZGOW,2010-04-25 08:00,ZGOW 250800Z AUTO 13006KT 6SM 21/16 A3003 RMK T02100160 IEM_DS3505
ZGOW,2010-04-25 09:00,ZGOW 250900Z AUTO 11006KT 9SM 20/12 A3003 RMK SLP168 T02050122 57008 IEM_DS3505
ZGOW,2010-04-25 10:00,ZGOW 251000Z AUTO 09008KT 7SM 20/17 A3003 RMK T02000170 IEM_DS3505
ZGOW,2010-04-25 11:00,ZGOW 251100Z AUTO 08010KT 7SM 19/16 A3006 RMK T01900160 IEM_DS3505
ZGOW,2010-04-25 12:00,ZGOW 251200Z AUTO 07008KT 7SM 19/14 A3006 RMK SLP180 T01930137 52012 IEM_DS3505
ZGOW,2010-04-25 13:00,ZGOW 251300Z AUTO 07010KT 7SM 18/17 A3009 RMK T01800170 IEM_DS3505
ZGOW,2010-04-25 14:00,ZGOW 251400Z AUTO 06008KT 7SM 18/17 A3012 RMK T01800170 IEM_DS3505
ZGOW,2010-04-25 15:00,ZGOW 251500Z AUTO 09004KT 7SM 19/16 A3012 RMK SLP191 T01880155 52011 IEM_DS3505
ZGOW,2010-04-25 16:00,ZGOW 251600Z AUTO 07010KT 7SM 18/17 A3009 RMK T01800170 IEM_DS3505
ZGOW,2010-04-25 17:00,ZGOW 251700Z AUTO 05010KT 2SM 18/17 A3009 RMK T01800170 IEM_DS3505
ZGOW,2010-04-25 18:00,ZGOW 251800Z AUTO 07004KT 7SM 18/16 A3006 RMK SLP179 T01830156 57012 IEM_DS3505
ZGOW,2010-04-25 19:00,ZGOW 251900Z AUTO 05004KT 2SM 18/17 A3006 RMK T01800170 IEM_DS3505
ZGOW,2010-04-25 21:00,ZGOW 252100Z AUTO 00000KT 6SM 18/16 A3003 RMK SLP172 T01810159 57007 IEM_DS3505
ZGOW,2010-04-25 22:00,ZGOW 252200Z AUTO 08002KT 2 1/2SM 17/17 A3006 RMK T01700170 IEM_DS3505
ZGOW,2010-04-25 23:00,ZGOW 252300Z AUTO 00000KT 2 1/2SM 19/18 A3006 RMK T01900180 IEM_DS3505
ZGOW,2010-04-26 00:00,ZGOW 260000Z AUTO 07002KT 6SM 20/16 A3009 RMK SLP186 T01950162 52014 IEM_DS3505
ZGOW,2010-04-26 01:00,ZGOW 260100Z AUTO 36002KT 3SM 20/18 A3009 RMK T02000180 IEM_DS3505
ZGOW,2010-04-26 02:00,ZGOW 260200Z AUTO 01004KT 4SM 22/19 A3009 RMK T02200190 IEM_DS3505
ZGOW,2010-04-26 03:00,ZGOW 260300Z AUTO 04002KT 6SM 22/16 A3006 RMK SLP178 T02250165 57008 IEM_DS3505
ZGOW,2010-04-26 04:00,ZGOW 260400Z AUTO 32006KT 2 1/2SM 22/19 A3006 RMK T02200190 IEM_DS3505
ZGOW,2010-04-26 05:00,ZGOW 260500Z AUTO 33006KT 2SM 23/19 A3006 RMK T02300190 IEM_DS3505
ZGOW,2010-04-26 06:00,ZGOW 260600Z AUTO 32002KT 6SM 23/17 A3003 RMK SLP164 T02330168 57014 IEM_DS3505
ZGOW,2010-04-26 07:00,ZGOW 260700Z AUTO 32008KT 4SM 23/18 A3000 RMK T02300180 IEM_DS3505
ZGOW,2010-04-26 08:00,ZGOW 260800Z AUTO 34008KT 3SM 23/18 A3000 RMK T02300180 IEM_DS3505
ZGOW,2010-04-26 09:00,ZGOW 260900Z AUTO 29002KT 6SM 24/16 A3000 RMK SLP155 T02370157 57009 IEM_DS3505
ZGOW,2010-04-26 10:00,ZGOW 261000Z AUTO 32006KT 3SM 22/18 A3000 RMK T02200180 IEM_DS3505
ZGOW,2010-04-26 11:00,ZGOW 261100Z AUTO 34006KT 3SM 22/18 A3003 RMK T02200180 IEM_DS3505
ZGOW,2010-04-26 12:00,ZGOW 261200Z AUTO 34004KT 6SM 22/16 A3003 RMK SLP166 T02160163 52011 IEM_DS3505
ZGOW,2010-04-26 13:00,ZGOW 261300Z AUTO 33008KT 5SM 20/19 A3003 RMK T02000190 IEM_DS3505
ZGOW,2010-04-26 14:00,ZGOW 261400Z AUTO 34004KT 4SM 20/18 A3006 RMK T02000180 IEM_DS3505
ZGOW,2010-04-26 15:00,ZGOW 261500Z AUTO 27002KT 6SM 20/16 A3006 RMK SLP181 T02050165 52015 IEM_DS3505
ZGOW,2010-04-26 16:00,ZGOW 261600Z AUTO 32002KT 7SM 20/18 A3006 RMK T02000180 IEM_DS3505
ZGOW,2010-04-26 17:00,ZGOW 261700Z AUTO 33004KT 7SM 19/19 A3003 RMK T01900190 IEM_DS3505
ZGOW,2010-04-26 18:00,ZGOW 261800Z AUTO 20002KT 6SM 20/16 A3000 RMK 60000 SLP161 T01950165 57020 IEM_DS3505
ZGOW,2010-04-26 19:00,ZGOW 261900Z AUTO 33004KT 2 1/2SM 19/18 A3000 RMK T01900180 IEM_DS3505
ZGOW,2010-04-26 20:00,ZGOW 262000Z AUTO 31004KT 2 1/2SM 18/18 A3000 RMK T01800180 IEM_DS3505
ZGOW,2010-04-26 21:00,ZGOW 262100Z AUTO 00000KT 8SM 19/16 A3000 RMK 70004 SLP160 T01870163 57001 IEM_DS3505
ZGOW,2010-04-26 22:00,ZGOW 262200Z AUTO 33004KT 4SM 18/18 A3000 RMK T01800180 IEM_DS3505
ZGOW,2010-04-26 23:00,ZGOW 262300Z AUTO 31004KT 4SM 19/18 A3003 RMK T01900180 IEM_DS3505
ZGOW,2010-04-27 00:00,ZGOW 270000Z AUTO 04002KT 9SM 20/16 A3006 RMK 60003 70004 SLP177 T01980161 52017 IEM_DS3505
ZGOW,2010-04-27 01:00,ZGOW 270100Z AUTO 36004KT 7SM 21/19 A3009 RMK T02100190 IEM_DS3505
ZGOW,2010-04-27 02:00,ZGOW 270200Z AUTO 02002KT 7SM 22/19 A3006 RMK T02200190 IEM_DS3505
ZGOW,2010-04-27 03:00,ZGOW 270300Z AUTO 11006KT 9SM 24/17 A3006 RMK SLP177 T02350173 54000 IEM_DS3505
ZGOW,2010-04-27 04:00,ZGOW 270400Z AUTO 09008KT 6SM 24/19 A3006 RMK T02400190 IEM_DS3505
ZGOW,2010-04-27 05:00,ZGOW 270500Z AUTO 10006KT 6SM 24/19 A3003 RMK T02400190 IEM_DS3505
ZGOW,2010-04-27 06:00,ZGOW 270600Z AUTO 09006KT 9SM 24/14 A3000 RMK SLP158 T02400144 57019 IEM_DS3505
ZGOW,2010-04-27 07:00,ZGOW 270700Z AUTO 13006KT 4SM 24/19 A2997 RMK T02400190 IEM_DS3505
ZGOW,2010-04-27 08:00,ZGOW 270800Z AUTO 13008KT 3SM 23/19 A2997 RMK T02300190 IEM_DS3505
ZGOW,2010-04-27 09:00,ZGOW 270900Z AUTO 11006KT 7SM 23/13 A2997 RMK SLP147 T02320131 57011 IEM_DS3505
ZGOW,2010-04-27 10:00,ZGOW 271000Z AUTO 13006KT 6SM 22/17 A2997 RMK T02200170 IEM_DS3505
ZGOW,2010-04-27 11:00,ZGOW 271100Z AUTO 08006KT 6SM 21/16 A2997 RMK T02100160 IEM_DS3505
ZGOW,2010-04-27 12:00,ZGOW 271200Z AUTO 07002KT 9SM 22/11 A3000 RMK SLP158 T02150112 52011 IEM_DS3505
ZGOW,2010-04-27 13:00,ZGOW 271300Z AUTO 10002KT 6SM 20/15 A3000 RMK T02000150 IEM_DS3505
ZGOW,2010-04-27 14:00,ZGOW 271400Z AUTO 11002KT 6SM 19/17 A3000 RMK T01900170 IEM_DS3505
ZGOW,2010-04-27 15:00,ZGOW 271500Z AUTO 16002KT 9SM 20/14 A3003 RMK SLP166 T02000144 52008 IEM_DS3505
ZGOW,2010-04-27 16:00,ZGOW 271600Z AUTO 00000KT 6SM 19/18 A3003 RMK T01900180 IEM_DS3505
ZGOW,2010-04-27 17:00,ZGOW 271700Z AUTO 31002KT 4SM 19/17 A3000 RMK T01900170 IEM_DS3505
ZGOW,2010-04-27 18:00,ZGOW 271800Z AUTO 29002KT 9SM 20/16 RMK SLP157 T01970156 57009 IEM_DS3505
ZGOW,2010-04-27 21:00,ZGOW 272100Z AUTO 00000KT 7SM 20/14 RMK 70000 SLP149 T01960144 57008 IEM_DS3505
ZGOW,2010-04-27 22:00,ZGOW 272200Z AUTO 36002KT 3SM 19/17 A2997 RMK T01900170 IEM_DS3505
ZGOW,2010-04-27 23:00,ZGOW 272300Z AUTO 31002KT 2 1/2SM 20/17 A3000 RMK T02000170 IEM_DS3505
ZGOW,2010-04-28 00:00,ZGOW 280000Z AUTO 29004KT 4SM 21/12 A3000 RMK SLP156 T02080125 52007 IEM_DS3505
ZGOW,2010-04-28 01:00,ZGOW 280100Z AUTO 25004KT 2 1/2SM 22/17 A3000 RMK T02200170 IEM_DS3505
ZGOW,2010-04-28 02:00,ZGOW 280200Z AUTO 30004KT 2 1/2SM 23/17 A3000 RMK T02300170 IEM_DS3505
ZGOW,2010-04-28 03:00,ZGOW 280300Z AUTO 29002KT 6SM 24/11 A3000 RMK SLP156 T02420108 54000 IEM_DS3505
ZGOW,2010-04-28 04:00,ZGOW 280400Z AUTO 32004KT 2 1/2SM 25/15 A2997 RMK T02500150 IEM_DS3505
ZGOW,2010-04-28 05:00,ZGOW 280500Z AUTO 25004KT 4SM 27/13 A2994 RMK T02700130 IEM_DS3505
ZGOW,2010-04-28 06:00,ZGOW 280600Z AUTO 27004KT 8SM 27/11 A2991 RMK SLP130 T02660107 57026 IEM_DS3505
ZGOW,2010-04-28 07:00,ZGOW 280700Z AUTO 14006KT 4SM 27/18 A2988 RMK T02700180 IEM_DS3505
ZGOW,2010-04-28 08:00,ZGOW 280800Z AUTO 16008KT 4SM 25/16 A2988 RMK T02500160 IEM_DS3505
ZGOW,2010-04-28 09:00,ZGOW 280900Z AUTO 20004KT 6SM 25/11 A2988 RMK SLP120 T02470106 57010 IEM_DS3505
ZGOW,2010-04-28 10:00,ZGOW 281000Z AUTO 14004KT 7SM 23/16 A2991 RMK T02300160 IEM_DS3505
ZGOW,2010-04-28 11:00,ZGOW 281100Z AUTO 12006KT 7SM 22/18 A2991 RMK T02200180 IEM_DS3505
ZGOW,2010-04-28 12:00,ZGOW 281200Z AUTO 11004KT 7SM 22/12 A2994 RMK SLP139 T02240118 52019 IEM_DS3505
ZGOW,2010-04-28 13:00,ZGOW 281300Z AUTO 09004KT 7SM 21/19 A2997 RMK T02100190 IEM_DS3505
ZGOW,2010-04-28 14:00,ZGOW 281400Z AUTO 08002KT 7SM 20/18 A2997 RMK T02000180 IEM_DS3505
ZGOW,2010-04-28 15:00,ZGOW 281500Z AUTO 09002KT 7SM 22/13 A2997 RMK SLP152 T02170133 52013 IEM_DS3505
ZGOW,2010-04-28 16:00,ZGOW 281600Z AUTO 09002KT 7SM 20/18 A3000 RMK T02000180 IEM_DS3505
ZGOW,2010-04-28 17:00,ZGOW 281700Z AUTO 00000KT 7SM 19/18 A2997 RMK T01900180 IEM_DS3505
ZGOW,2010-04-28 18:00,ZGOW 281800Z AUTO 07002KT 7SM 21/16 RMK SLP146 T02070161 57006 IEM_DS3505
ZGOW,2010-04-28 19:00,ZGOW 281900Z AUTO 00000KT 1 1/4SM 19/19 A2997 RMK T01900190 IEM_DS3505
ZGOW,2010-04-28 21:00,ZGOW 282100Z AUTO 00000KT 6SM 20/16 A2997 RMK SLP145 T02010163 57001 IEM_DS3505
ZGOW,2010-04-28 22:00,ZGOW 282200Z AUTO 31004KT 2 1/2SM 19/18 A2997 RMK T01900180 IEM_DS3505
ZGOW,2010-04-28 23:00,ZGOW 282300Z AUTO 07010KT 2SM 21/18 A3000 RMK T02100180 IEM_DS3505
ZGOW,2010-04-29 00:00,ZGOW 290000Z AUTO 09008KT 9SM 21/15 A3003 RMK SLP167 T02140150 52022 IEM_DS3505
ZGOW,2010-04-29 01:00,ZGOW 290100Z AUTO 08019G33KT 3SM 21/18 A3003 RMK T02100180 IEM_DS3505
ZGOW,2010-04-29 02:00,ZGOW 290200Z AUTO 08021G31KT 4SM 22/17 A3006 RMK T02200170 IEM_DS3505
ZGOW,2010-04-29 03:00,ZGOW 290300Z AUTO 07014G33KT 9SM 22/15 A3003 RMK SLP171 T02220146 52004 IEM_DS3505
ZGOW,2010-04-29 04:00,ZGOW 290400Z AUTO 08021G33KT 4SM 22/17 A3003 RMK T02200170 IEM_DS3505
ZGOW,2010-04-29 05:00,ZGOW 290500Z AUTO 08019G31KT 4SM 21/16 A3000 RMK T02100160 IEM_DS3505
ZGOW,2010-04-29 06:00,ZGOW 290600Z AUTO 09010G23KT 9SM 21/13 A3000 RMK SLP155 T02130132 57016 IEM_DS3505
ZGOW,2010-04-29 07:00,ZGOW 290700Z AUTO 07016KT 4SM 20/15 A3000 RMK T02000150 IEM_DS3505
ZGOW,2010-04-29 08:00,ZGOW 290800Z AUTO 04006KT 2 1/2SM 19/17 A3003 RMK T01900170 IEM_DS3505
ZGOW,2010-04-29 09:00,ZGOW 290900Z AUTO 14002KT 5SM 18/15 A3003 RMK SLP173 T01780154 52018 IEM_DS3505
ZGOW,2010-04-29 10:00,ZGOW 291000Z AUTO 13004KT 1 1/2SM 17/17 A3009 RMK T01700170 IEM_DS3505
ZGOW,2010-04-29 11:00,ZGOW 291100Z AUTO 13004KT 2SM 17/17 A3009 RMK T01700170 IEM_DS3505
ZGOW,2010-04-29 12:00,ZGOW 291200Z AUTO 07002KT 4SM 18/16 A3012 RMK 60067 SLP196 T01770162 52023 IEM_DS3505
ZGOW,2010-04-29 13:00,ZGOW 291300Z AUTO 05004KT 2 1/2SM 17/17 A3012 RMK T01700170 IEM_DS3505
ZGOW,2010-04-29 14:00,ZGOW 291400Z AUTO 04004KT 4SM 17/17 A3012 RMK T01700170 IEM_DS3505
ZGOW,2010-04-29 15:00,ZGOW 291500Z AUTO 07004KT 4SM 17/16 A3012 RMK SLP197 T01740157 52001 IEM_DS3505
ZGOW,2010-04-29 16:00,ZGOW 291600Z AUTO 04002KT 3SM 17/17 A3009 RMK T01700170 IEM_DS3505
ZGOW,2010-04-29 17:00,ZGOW 291700Z AUTO 08006KT 3SM 17/17 A3006 RMK T01700170 IEM_DS3505
ZGOW,2010-04-29 18:00,ZGOW 291800Z AUTO 14002KT 4SM 17/16 RMK 60012 SLP181 T01730160 57016 IEM_DS3505
ZGOW,2010-04-29 19:00,ZGOW 291900Z AUTO 33004KT 1 1/4SM 17/17 A3006 RMK T01700170 IEM_DS3505
ZGOW,2010-04-29 20:00,ZGOW 292000Z AUTO 21002KT 1SM 17/17 A3006 RMK T01700170 IEM_DS3505
ZGOW,2010-04-29 21:00,ZGOW 292100Z AUTO 00000KT 4SM 18/16 A3006 RMK 70080 SLP181 T01750158 54000 IEM_DS3505
ZGOW,2010-04-29 22:00,ZGOW 292200Z AUTO 01002KT 1 1/4SM 17/17 A3009 RMK T01700170 IEM_DS3505
ZGOW,2010-04-29 23:00,ZGOW 292300Z AUTO 36004KT 1 1/4SM 18/18 A3009 RMK T01800180 IEM_DS3505
ZGOW,2010-04-30 00:00,ZGOW 300000Z AUTO 34002KT 5SM 20/16 A3012 RMK 60001 70080 SLP193 T01960163 52012 IEM_DS3505
ZGOW,2010-04-30 01:00,ZGOW 300100Z AUTO 04006KT 6SM 21/17 A3009 RMK T02100170 IEM_DS3505
ZGOW,2010-04-30 02:00,ZGOW 300200Z AUTO 06008KT 6SM 23/16 A3012 RMK T02300160 IEM_DS3505
ZGOW,2010-04-30 03:00,ZGOW 300300Z AUTO 07008KT 9SM 24/16 A3009 RMK SLP189 T02350158 57004 IEM_DS3505
ZGOW,2010-04-30 04:00,ZGOW 300400Z AUTO 06010KT 6SM 24/18 A3006 RMK T02400180 IEM_DS3505
ZGOW,2010-04-30 05:00,ZGOW 300500Z AUTO 08008KT 6SM 25/18 A3003 RMK T02500180 IEM_DS3505
ZGOW,2010-04-30 06:00,ZGOW 300600Z AUTO 04002KT 12SM 26/14 A3000 RMK SLP159 T02550137 57030 IEM_DS3505
ZGOW,2010-04-30 07:00,ZGOW 300700Z AUTO 15008KT 6SM 24/18 A3000 RMK T02400180 IEM_DS3505
ZGOW,2010-04-30 08:00,ZGOW 300800Z AUTO 14006KT 6SM 24/18 A2997 RMK T02400180 IEM_DS3505
ZGOW,2010-04-30 09:00,ZGOW 300900Z AUTO 09008KT 10SM 24/13 A2997 RMK SLP148 T02360132 57011 IEM_DS3505
ZGOW,2010-04-30 10:00,ZGOW 301000Z AUTO 14006KT 6SM 22/18 A2997 RMK T02200180 IEM_DS3505
ZGOW,2010-04-30 11:00,ZGOW 301100Z AUTO 13006KT 6SM 21/18 A3000 RMK T02100180 IEM_DS3505
ZGOW,2010-04-30 12:00,ZGOW 301200Z AUTO 11004KT 10SM 21/16 A3003 RMK SLP162 T02140161 52014 IEM_DS3505
ZGOW,2010-04-30 13:00,ZGOW 301300Z AUTO 11004KT 4SM 20/18 A3003 RMK T02000180 IEM_DS3505
ZGOW,2010-04-30 14:00,ZGOW 301400Z AUTO 00000KT 4SM 19/18 A3006 RMK T01900180 IEM_DS3505
ZGOW,2010-04-30 15:00,ZGOW 301500Z AUTO 09004KT 10SM 21/17 A3006 RMK SLP173 T02070169 52011 IEM_DS3505
ZGOW,2010-04-30 16:00,ZGOW 301600Z AUTO 02002KT 4SM 19/18 A3003 RMK T01900180 IEM_DS3505
ZGOW,2010-04-30 17:00,ZGOW 301700Z AUTO 02002KT 4SM 19/18 A3003 RMK T01900180 IEM_DS3505
ZGOW,2010-04-30 18:00,ZGOW 301800Z AUTO 00000KT 6SM 19/17 A3003 RMK SLP163 T01910169 57010 IEM_DS3505
ZGOW,2010-04-30 19:00,ZGOW 301900Z AUTO 33002KT 1 1/2SM 19/18 A3000 RMK T01900180 IEM_DS3505
ZGOW,2010-04-30 20:00,ZGOW 302000Z AUTO 34004KT 1 1/4SM 19/18 A3000 RMK T01900180 IEM_DS3505
ZGOW,2010-04-30 21:00,ZGOW 302100Z AUTO 04002KT 5SM 19/17 A3000 RMK SLP160 T01920172 57003 IEM_DS3505
ZGOW,2010-04-30 22:00,ZGOW 302200Z AUTO 30002KT 3SM 19/18 A3003 RMK T01900180 IEM_DS3505
ZGOW,2010-04-30 23:00,ZGOW 302300Z AUTO 35002KT 4SM 20/18 A3003 RMK T02000180 IEM_DS3505
ZGOW,2010-05-01 00:00,ZGOW 010000Z AUTO 07002KT 6SM 21/17 A3006 RMK SLP174 T02090169 52014 IEM_DS3505
ZGOW,2010-05-01 01:00,ZGOW 010100Z AUTO 34004KT 4SM 22/18 A3006 RMK T02200180 IEM_DS3505
ZGOW,2010-05-01 02:00,ZGOW 010200Z AUTO 28004KT 7SM 23/19 A3006 RMK T02300190 IEM_DS3505
ZGOW,2010-05-01 03:00,ZGOW 010300Z AUTO 29002KT 6SM 25/16 A3006 RMK SLP176 T02490161 52002 IEM_DS3505
ZGOW,2010-05-01 04:00,ZGOW 010400Z AUTO 28004KT 7SM 26/20 A3003 RMK T02600200 IEM_DS3505
ZGOW,2010-05-01 05:00,ZGOW 010500Z AUTO 31002KT 7SM 26/21 A3000 RMK T02600210 IEM_DS3505
ZGOW,2010-05-01 06:00,ZGOW 010600Z AUTO 27002KT 7SM 27/19 A2997 RMK SLP148 T02680187 57028 IEM_DS3505
ZGOW,2010-05-01 07:00,ZGOW 010700Z AUTO 12008KT 6SM 25/20 A2997 RMK T02500200 IEM_DS3505
ZGOW,2010-05-01 08:00,ZGOW 010800Z AUTO 13006KT 6SM 24/19 A2994 RMK T02400190 IEM_DS3505
ZGOW,2010-05-01 09:00,ZGOW 010900Z AUTO 09006KT 9SM 25/17 A2994 RMK SLP135 T02470167 57013 IEM_DS3505
ZGOW,2010-05-01 10:00,ZGOW 011000Z AUTO 18004KT 6SM 23/20 A2994 RMK T02300200 IEM_DS3505
ZGOW,2010-05-01 11:00,ZGOW 011100Z AUTO 15002KT 6SM 22/19 A2997 RMK T02200190 IEM_DS3505
ZGOW,2010-05-01 12:00,ZGOW 011200Z AUTO 16004KT 7SM 22/18 A2997 RMK SLP147 T02250181 52012 IEM_DS3505
ZGOW,2010-05-01 13:00,ZGOW 011300Z AUTO 15004KT 6SM 21/20 A2997 RMK T02100200 IEM_DS3505
ZGOW,2010-05-01 14:00,ZGOW 011400Z AUTO 00000KT 6SM 21/20 A2997 RMK T02100200 IEM_DS3505
ZGOW,2010-05-01 15:00,ZGOW 011500Z AUTO 00000KT 7SM 21/19 A3000 RMK SLP152 T02100186 52005 IEM_DS3505
ZGOW,2010-05-01 16:00,ZGOW 011600Z AUTO 12002KT 1 1/2SM 20/20 A2997 RMK T02000200 IEM_DS3505
ZGOW,2010-05-01 17:00,ZGOW 011700Z AUTO 06002KT 1SM 20/20 A2997 RMK T02000200 IEM_DS3505
ZGOW,2010-05-01 18:00,ZGOW 011800Z AUTO 00000KT 4SM 20/18 RMK SLP145 T02020185 57007 IEM_DS3505
ZGOW,2010-05-01 20:00,ZGOW 012000Z AUTO 03002KT 1SM 20/20 A2994 RMK T02000200 IEM_DS3505
ZGOW,2010-05-01 21:00,ZGOW 012100Z AUTO 00000KT 4SM 21/19 A2994 RMK SLP136 T02070190 57009 IEM_DS3505
ZGOW,2010-05-01 22:00,ZGOW 012200Z AUTO 00000KT 1SM 20/20 A2994 RMK T02000200 IEM_DS3505
ZGOW,2010-05-01 23:00,ZGOW 012300Z AUTO 00000KT 1SM 21/21 A2997 RMK T02100210 IEM_DS3505
ZGOW,2010-05-02 00:00,ZGOW 020000Z AUTO 00000KT 3SM 22/19 A2997 RMK SLP149 T02230193 52013 IEM_DS3505
ZGOW,2010-05-02 01:00,ZGOW 020100Z AUTO 09002KT 2SM 24/22 A2997 RMK T02400220 IEM_DS3505
ZGOW,2010-05-02 02:00,ZGOW 020200Z AUTO 13004KT 2 1/2SM 25/23 A2997 RMK T02500230 IEM_DS3505
ZGOW,2010-05-02 03:00,ZGOW 020300Z AUTO 25004KT 5SM 27/20 A2997 RMK SLP147 T02700199 57002 IEM_DS3505
ZGOW,2010-05-02 04:00,ZGOW 020400Z AUTO 12006KT 2 1/2SM 26/23 A2994 RMK T02600230 IEM_DS3505
ZGOW,2010-05-02 05:00,ZGOW 020500Z AUTO 14008KT 3SM 26/22 A2991 RMK T02600220 IEM_DS3505
ZGOW,2010-05-02 06:00,ZGOW 020600Z AUTO 14006KT 6SM 27/19 A2988 RMK SLP120 T02730189 57027 IEM_DS3505
ZGOW,2010-05-02 07:00,ZGOW 020700Z AUTO 14008KT 2 1/2SM 26/21 A2988 RMK T02600210 IEM_DS3505
ZGOW,2010-05-02 08:00,ZGOW 020800Z AUTO 13010KT 3SM 24/21 A2985 RMK T02400210 IEM_DS3505
ZGOW,2010-05-02 09:00,ZGOW 020900Z AUTO 14004KT 6SM 25/19 A2985 RMK SLP107 T02510192 57013 IEM_DS3505
ZGOW,2010-05-02 10:00,ZGOW 021000Z AUTO 13008KT 1 1/2SM 23/21 A2988 RMK T02300210 IEM_DS3505
ZGOW,2010-05-02 11:00,ZGOW 021100Z AUTO 13008KT 1 1/4SM 22/21 A2988 RMK T02200210 IEM_DS3505
ZGOW,2010-05-02 12:00,ZGOW 021200Z AUTO 09004KT 5SM 22/20 A2991 RMK SLP127 T02250195 52020 IEM_DS3505
ZGOW,2010-05-02 13:00,ZGOW 021300Z AUTO 11006KT 1 1/2SM 21/21 A2991 RMK T02100210 IEM_DS3505
ZGOW,2010-05-02 14:00,ZGOW 021400Z AUTO 10004KT 3SM 21/20 A2994 RMK T02100200 IEM_DS3505
ZGOW,2010-05-02 15:00,ZGOW 021500Z AUTO 07004KT 6SM 22/18 A2994 RMK SLP138 T02210185 52011 IEM_DS3505
ZGOW,2010-05-02 16:00,ZGOW 021600Z AUTO 05006KT 5SM 20/20 A2994 RMK T02000200 IEM_DS3505
ZGOW,2010-05-02 17:00,ZGOW 021700Z AUTO 05006KT 1SM 20/20 A2991 RMK T02000200 IEM_DS3505
ZGOW,2010-05-02 18:00,ZGOW 021800Z AUTO 07002KT 7SM 21/19 A2991 RMK SLP129 T02130189 57009 IEM_DS3505
ZGOW,2010-05-02 19:00,ZGOW 021900Z AUTO 06002KT 1 1/4SM 20/20 A2991 RMK T02000200 IEM_DS3505
ZGOW,2010-05-02 21:00,ZGOW 022100Z AUTO 00000KT 7SM 20/19 A2991 RMK SLP130 T02020189 52001 IEM_DS3505
ZGOW,2010-05-02 22:00,ZGOW 022200Z AUTO 00000KT 1 1/4SM 20/20 A2991 RMK T02000200 IEM_DS3505
ZGOW,2010-05-02 23:00,ZGOW 022300Z AUTO 35002KT 1 1/2SM 21/21 A2994 RMK T02100210 IEM_DS3505
ZGOW,2010-05-03 00:00,ZGOW 030000Z AUTO 00000KT 6SM 23/19 A2994 RMK SLP140 T02340189 52010 IEM_DS3505
ZGOW,2010-05-03 01:00,ZGOW 030100Z AUTO 08006KT 4SM 25/21 A2997 RMK T02500210 IEM_DS3505
ZGOW,2010-05-03 02:00,ZGOW 030200Z AUTO 08012KT 7SM 25/21 A2997 RMK T02500210 IEM_DS3505
ZGOW,2010-05-03 03:00,ZGOW 030300Z AUTO 09008KT 9SM 26/19 A2997 RMK SLP146 T02620191 52006 IEM_DS3505
ZGOW,2010-05-03 04:00,ZGOW 030400Z AUTO 09016KT 7SM 27/22 A2994 RMK T02700220 IEM_DS3505
ZGOW,2010-05-03 05:00,ZGOW 030500Z AUTO 08014KT 7SM 27/22 A2991 RMK T02700220 IEM_DS3505
ZGOW,2010-05-03 06:00,ZGOW 030600Z AUTO 09006KT 14SM 28/19 A2988 RMK SLP121 T02770192 57025 IEM_DS3505
ZGOW,2010-05-03 07:00,ZGOW 030700Z AUTO 10010KT 6SM 26/22 A2988 RMK T02600220 IEM_DS3505
ZGOW,2010-05-03 08:00,ZGOW 030800Z AUTO 10010KT 6SM 25/22 A2985 RMK T02500220 IEM_DS3505
ZGOW,2010-05-03 09:00,ZGOW 030900Z AUTO 11006KT 11SM 25/19 A2985 RMK SLP110 T02530187 57011 IEM_DS3505
ZGOW,2010-05-03 10:00,ZGOW 031000Z AUTO 10008KT 6SM 24/22 A2985 RMK T02400220 IEM_DS3505
ZGOW,2010-05-03 11:00,ZGOW 031100Z AUTO 06004KT 6SM 23/21 A2988 RMK T02300210 IEM_DS3505
ZGOW,2010-05-03 12:00,ZGOW 031200Z AUTO 07006KT 10SM 24/20 A2991 RMK SLP123 T02370196 52013 IEM_DS3505
ZGOW,2010-05-03 13:00,ZGOW 031300Z AUTO 08008KT 6SM 22/22 A2991 RMK T02200220 IEM_DS3505
ZGOW,2010-05-03 14:00,ZGOW 031400Z AUTO 08010KT 7SM 22/21 A2994 RMK T02200210 IEM_DS3505
ZGOW,2010-05-03 15:00,ZGOW 031500Z AUTO 07006KT 10SM 23/20 A2991 RMK SLP131 T02290195 52008 IEM_DS3505
ZGOW,2010-05-03 16:00,ZGOW 031600Z AUTO 07008KT 7SM 22/21 A2991 RMK T02200210 IEM_DS3505
ZGOW,2010-05-03 17:00,ZGOW 031700Z AUTO 07006KT 7SM 22/21 A2991 RMK T02200210 IEM_DS3505
ZGOW,2010-05-03 18:00,ZGOW 031800Z AUTO 09004KT 11SM 22/19 RMK SLP116 T02240188 57015 IEM_DS3505
ZGOW,2010-05-03 21:00,ZGOW 032100Z AUTO 00000KT 9SM 22/19 A2988 RMK SLP114 T02160190 57002 IEM_DS3505
ZGOW,2010-05-03 22:00,ZGOW 032200Z AUTO 05004KT 4SM 20/20 A2988 RMK T02000200 IEM_DS3505
ZGOW,2010-05-03 23:00,ZGOW 032300Z AUTO 01002KT 4SM 22/21 A2988 RMK T02200210 IEM_DS3505
ZGOW,2010-05-04 00:00,ZGOW 040000Z AUTO 07004KT 11SM 24/19 A2991 RMK SLP123 T02370188 52009 IEM_DS3505
ZGOW,2010-05-04 01:00,ZGOW 040100Z AUTO 08010KT 7SM 25/22 A2988 RMK T02500220 IEM_DS3505
ZGOW,2010-05-04 02:00,ZGOW 040200Z AUTO 08010KT 7SM 25/21 A2988 RMK T02500210 IEM_DS3505
ZGOW,2010-05-04 03:00,ZGOW 040300Z AUTO 14006KT 12SM 26/19 A2988 RMK SLP117 T02580190 57006 IEM_DS3505
ZGOW,2010-05-04 04:00,ZGOW 040400Z AUTO 15004KT 7SM 27/22 A2985 RMK T02700220 IEM_DS3505
ZGOW,2010-05-04 05:00,ZGOW 040500Z AUTO 12008KT 6SM 27/22 A2983 RMK T02700220 IEM_DS3505
ZGOW,2010-05-04 06:00,ZGOW 040600Z AUTO 09006KT 14SM 27/19 A2983 RMK SLP098 T02700191 57019 IEM_DS3505
ZGOW,2010-05-04 07:00,ZGOW 040700Z AUTO 12006KT 6SM 26/23 A2983 RMK T02600230 IEM_DS3505
ZGOW,2010-05-04 08:00,ZGOW 040800Z AUTO 12006KT 6SM 25/22 A2980 RMK T02500220 IEM_DS3505
ZGOW,2010-05-04 09:00,ZGOW 040900Z AUTO 14004KT 11SM 26/20 A2980 RMK SLP083 T02580197 57015 IEM_DS3505
ZGOW,2010-05-04 10:00,ZGOW 041000Z AUTO 11004KT 6SM 24/22 A2980 RMK T02400220 IEM_DS3505
ZGOW,2010-05-04 11:00,ZGOW 041100Z AUTO 12008KT 6SM 23/22 A2980 RMK T02300220 IEM_DS3505
ZGOW,2010-05-04 12:00,ZGOW 041200Z AUTO 14002KT 10SM 23/20 A2980 RMK SLP087 T02340200 52004 IEM_DS3505
ZGOW,2010-05-04 13:00,ZGOW 041300Z AUTO 11006KT 4SM 22/22 A2980 RMK T02200220 IEM_DS3505
ZGOW,2010-05-04 14:00,ZGOW 041400Z AUTO 00000KT 3SM 22/22 A2983 RMK T02200220 IEM_DS3505
ZGOW,2010-05-04 15:00,ZGOW 041500Z AUTO 07002KT 10SM 23/20 A2983 RMK SLP097 T02320202 52010 IEM_DS3505
ZGOW,2010-05-04 16:00,ZGOW 041600Z AUTO 17002KT 3SM 22/22 A2980 RMK T02200220 IEM_DS3505
ZGOW,2010-05-04 18:00,ZGOW 041800Z AUTO 00000KT 9SM 23/20 A2980 RMK SLP083 T02300202 57014 IEM_DS3505
ZGOW,2010-05-04 19:00,ZGOW 041900Z AUTO 00000KT 2SM 22/22 A2977 RMK T02200220 IEM_DS3505
ZGOW,2010-05-04 20:00,ZGOW 042000Z AUTO 10002KT 1 1/2SM 22/22 A2977 RMK T02200220 IEM_DS3505
ZGOW,2010-05-04 21:00,ZGOW 042100Z AUTO 04002KT 9SM 23/20 A2977 RMK SLP077 T02330197 57006 IEM_DS3505
ZGOW,2010-05-04 22:00,ZGOW 042200Z AUTO 00000KT 2 1/2SM 23/23 A2977 RMK T02300230 IEM_DS3505
ZGOW,2010-05-04 23:00,ZGOW 042300Z AUTO 14002KT 2 1/2SM 23/23 A2980 RMK T02300230 IEM_DS3505
ZGOW,2010-05-05 00:00,ZGOW 050000Z AUTO 11002KT 6SM 24/21 A2980 RMK 60000 70000 SLP089 T02400213 52012 IEM_DS3505
ZGOW,2010-05-05 01:00,ZGOW 050100Z AUTO 13002KT 3SM 25/24 A2980 RMK T02500240 IEM_DS3505
ZGOW,2010-05-05 02:00,ZGOW 050200Z AUTO 16004KT 4SM 26/24 A2980 RMK T02600240 IEM_DS3505
ZGOW,2010-05-05 03:00,ZGOW 050300Z AUTO 14004KT 6SM 27/23 A2980 RMK SLP086 T02670232 57003 IEM_DS3505
ZGOW,2010-05-05 04:00,ZGOW 050400Z AUTO 12004KT 4SM 26/25 A2977 RMK T02600250 IEM_DS3505
ZGOW,2010-05-05 05:00,ZGOW 050500Z AUTO 15006KT 4SM 27/25 A2977 RMK T02700250 IEM_DS3505
ZGOW,2010-05-05 06:00,ZGOW 050600Z AUTO 18004KT 9SM 28/24 A2974 RMK SLP067 T02800240 57018 IEM_DS3505
ZGOW,2010-05-05 07:00,ZGOW 050700Z AUTO 16008KT 7SM 27/26 A2974 RMK T02700260 IEM_DS3505
ZGOW,2010-05-05 08:00,ZGOW 050800Z AUTO 16006KT 4SM 27/26 A2974 RMK T02700260 IEM_DS3505
ZGOW,2010-05-05 09:00,ZGOW 050900Z AUTO 14004KT 7SM 27/24 A2974 RMK SLP063 T02710242 57004 IEM_DS3505
ZGOW,2010-05-05 10:00,ZGOW 051000Z AUTO 16004KT 3SM 26/26 A2974 RMK T02600260 IEM_DS3505
ZGOW,2010-05-05 11:00,ZGOW 051100Z AUTO 12004KT 2 1/2SM 26/25 A2977 RMK T02600250 IEM_DS3505
ZGOW,2010-05-05 12:00,ZGOW 051200Z AUTO 11002KT 9SM 26/24 A2977 RMK SLP082 T02570239 52018 IEM_DS3505
ZGOW,2010-05-05 13:00,ZGOW 051300Z AUTO 13004KT 2 1/2SM 25/25 A2980 RMK T02500250 IEM_DS3505
ZGOW,2010-05-05 14:00,ZGOW 051400Z AUTO 13004KT 2 1/2SM 25/25 A2980 RMK T02500250 IEM_DS3505
ZGOW,2010-05-05 15:00,ZGOW 051500Z AUTO 16002KT 6SM 25/24 A2983 RMK SLP095 T02510235 52014 IEM_DS3505
ZGOW,2010-05-05 16:00,ZGOW 051600Z AUTO 12002KT 1 1/2SM 24/24 A2980 RMK T02400240 IEM_DS3505
ZGOW,2010-05-05 17:00,ZGOW 051700Z AUTO 08002KT 1SM 24/ A2980 RMK IEM_DS3505
ZGOW,2010-05-05 18:00,ZGOW 051800Z AUTO 18002KT 9SM 25/23 A2977 RMK SLP080 T02480232 57015 IEM_DS3505
ZGOW,2010-05-05 19:00,ZGOW 051900Z AUTO 12002KT 1 1/2SM 24/ A2977 RMK IEM_DS3505
ZGOW,2010-05-05 20:00,ZGOW 052000Z AUTO 11002KT 1SM 24/ A2977 RMK IEM_DS3505
ZGOW,2010-05-05 21:00,ZGOW 052100Z AUTO 09002KT 7SM 25/23 A2977 RMK 70000 SLP075 T02510233 57005 IEM_DS3505
ZGOW,2010-05-05 22:00,ZGOW 052200Z AUTO 06006KT 2 1/2SM 24/24 A2977 RMK T02400240 IEM_DS3505
ZGOW,2010-05-05 23:00,ZGOW 052300Z AUTO 09004KT 2 1/2SM 23/23 A2980 RMK T02300230 IEM_DS3505
ZGOW,2010-05-06 00:00,ZGOW 060000Z AUTO 07004KT 6SM 24/23 A2980 RMK 60001 70001 SLP091 T02380226 52015 IEM_DS3505
ZGOW,2010-05-06 01:00,ZGOW 060100Z AUTO 08002KT 3SM 24/24 A2983 RMK T02400240 IEM_DS3505
ZGOW,2010-05-06 02:00,ZGOW 060200Z AUTO 09002KT 2SM 24/24 A2983 RMK T02400240 IEM_DS3505
ZGOW,2010-05-06 03:00,ZGOW 060300Z AUTO 11004KT 5SM 25/24 A2980 RMK SLP092 T02470237 52001 IEM_DS3505
ZGOW,2010-05-06 04:00,ZGOW 060400Z AUTO 12004KT 1SM 24/24 A2980 RMK T02400240 IEM_DS3505
ZGOW,2010-05-06 05:00,ZGOW 060500Z AUTO 13006KT 1SM 24/24 A2980 RMK T02400240 IEM_DS3505
ZGOW,2010-05-06 06:00,ZGOW 060600Z AUTO 14008KT 5SM 25/24 A2977 RMK 60012 SLP069 T02510244 57023 IEM_DS3505
ZGOW,2010-05-06 07:00,ZGOW 060700Z AUTO 17010KT 1SM 25/25 A2971 RMK T02500250 IEM_DS3505
ZGOW,2010-05-06 08:00,ZGOW 060800Z AUTO 16008KT 1 1/4SM 25/25 A2974 RMK T02500250 IEM_DS3505
ZGOW,2010-05-06 09:00,ZGOW 060900Z AUTO 18006KT 5SM 26/25 A2974 RMK SLP063 T02550246 57005 IEM_DS3505
ZGOW,2010-05-06 10:00,ZGOW 061000Z AUTO 15006KT 1 1/4SM 25/25 A2974 RMK T02500250 IEM_DS3505
ZGOW,2010-05-06 11:00,ZGOW 061100Z AUTO 20008KT 1 1/4SM 25/25 A2974 RMK T02500250 IEM_DS3505
ZGOW,2010-05-06 12:00,ZGOW 061200Z AUTO 14004KT 6SM 25/24 A2980 RMK 60016 SLP082 T02540245 52018 IEM_DS3505
ZGOW,2010-05-06 13:00,ZGOW 061300Z AUTO 36004KT 1 1/4SM 25/25 A2983 RMK T02500250 IEM_DS3505
ZGOW,2010-05-06 14:00,ZGOW 061400Z AUTO 17014KT 4SM 24/24 A2977 RMK T02400240 IEM_DS3505
ZGOW,2010-05-06 15:00,ZGOW 061500Z AUTO 22006KT 6SM 24/23 A2977 RMK SLP081 T02360226 57001 IEM_DS3505
ZGOW,2010-05-06 16:00,ZGOW 061600Z AUTO 26006KT 7SM 24/24 A2977 RMK T02400240 IEM_DS3505
ZGOW,2010-05-06 17:00,ZGOW 061700Z AUTO 27002KT 7SM 24/24 A2974 RMK T02400240 IEM_DS3505
ZGOW,2010-05-06 18:00,ZGOW 061800Z AUTO 00000KT 7SM 24/23 A2971 RMK 60051 SLP060 T02390229 57021 IEM_DS3505
ZGOW,2010-05-06 19:00,ZGOW 061900Z AUTO 34004KT 4SM 24/24 A2974 RMK T02400240 IEM_DS3505
ZGOW,2010-05-06 20:00,ZGOW 062000Z AUTO 30002KT 4SM 24/24 A2974 RMK T02400240 IEM_DS3505
ZGOW,2010-05-06 21:00,ZGOW 062100Z AUTO 18002KT 5SM 24/23 A2974 RMK 70083 SLP065 T02370230 52005 IEM_DS3505
ZGOW,2010-05-06 22:00,ZGOW 062200Z AUTO 00000KT 1 1/2SM 24/24 A2977 RMK T02400240 IEM_DS3505
ZGOW,2010-05-06 23:00,ZGOW 062300Z AUTO 04002KT 1 1/4SM 24/24 A2977 RMK T02400240 IEM_DS3505
ZGOW,2010-05-07 00:00,ZGOW 070000Z AUTO 00000KT 5SM 25/24 A2977 RMK 60008 70087 SLP076 T02500241 52011 IEM_DS3505
ZGOW,2010-05-07 01:00,ZGOW 070100Z AUTO 08004KT 1 1/2SM 26/26 A2977 RMK T02600260 IEM_DS3505
ZGOW,2010-05-07 02:00,ZGOW 070200Z AUTO 15006KT 1 1/2SM 26/26 A2977 RMK T02600260 IEM_DS3505
ZGOW,2010-05-07 03:00,ZGOW 070300Z AUTO 18006KT 6SM 28/25 A2977 RMK SLP077 T02830253 52002 IEM_DS3505
ZGOW,2010-05-07 04:00,ZGOW 070400Z AUTO 21008KT 4SM 31/29 A2977 RMK T03100290 IEM_DS3505
ZGOW,2010-05-07 05:00,ZGOW 070500Z AUTO 19008KT 5SM 31/29 A2974 RMK T03100290 IEM_DS3505
ZGOW,2010-05-07 06:00,ZGOW 070600Z AUTO 16004KT 10SM 28/25 A2974 RMK SLP062 T02820250 57015 IEM_DS3505
ZGOW,2010-05-07 07:00,ZGOW 070700Z AUTO 19008KT 7SM 28/27 A2971 RMK T02800270 IEM_DS3505
ZGOW,2010-05-07 08:00,ZGOW 070800Z AUTO 19008KT 7SM 28/27 A2971 RMK T02800270 IEM_DS3505
ZGOW,2010-05-07 09:00,ZGOW 070900Z AUTO 20002KT 7SM 27/25 A2971 RMK SLP057 T02720250 57005 IEM_DS3505
ZGOW,2010-05-07 10:00,ZGOW 071000Z AUTO 22004KT 7SM 27/27 A2971 RMK T02700270 IEM_DS3505
ZGOW,2010-05-07 11:00,ZGOW 071100Z AUTO 07010KT 4SM 24/24 A2974 RMK T02400240 IEM_DS3505
ZGOW,2010-05-07 12:00,ZGOW 071200Z AUTO 07006KT 6SM 24/22 A2977 RMK SLP075 T02440225 52017 IEM_DS3505
ZGOW,2010-05-07 13:00,ZGOW 071300Z AUTO 06012KT 4SM 21/21 A2980 RMK T02100210 IEM_DS3505
ZGOW,2010-05-07 14:00,ZGOW 071400Z AUTO 07012KT 7SM 21/21 A2983 RMK T02100210 IEM_DS3505
ZGOW,2010-05-07 15:00,ZGOW 071500Z AUTO 09006KT 6SM 22/20 A2980 RMK SLP093 T02190196 52018 IEM_DS3505
ZGOW,2010-05-07 16:00,ZGOW 071600Z AUTO 08016KT 4SM 21/21 A2980 RMK T02100210 IEM_DS3505
ZGOW,2010-05-07 17:00,ZGOW 071700Z AUTO 08016KT 4SM 21/21 A2980 RMK T02100210 IEM_DS3505
ZGOW,2010-05-07 18:00,ZGOW 071800Z AUTO 07006KT 5SM 21/20 A2977 RMK 60001 SLP080 T02120197 57013 IEM_DS3505
ZGOW,2010-05-07 19:00,ZGOW 071900Z AUTO 07010KT 2 1/2SM 21/21 A2977 RMK T02100210 IEM_DS3505
ZGOW,2010-05-07 20:00,ZGOW 072000Z AUTO 08008KT 3SM 21/21 A2977 RMK T02100210 IEM_DS3505
ZGOW,2010-05-07 21:00,ZGOW 072100Z AUTO 07002KT 6SM 21/20 A2977 RMK 70007 SLP081 T02140197 52001 IEM_DS3505
ZGOW,2010-05-07 22:00,ZGOW 072200Z AUTO 08008KT 2 1/2SM 21/21 A2977 RMK T02100210 IEM_DS3505
ZGOW,2010-05-07 23:00,ZGOW 072300Z AUTO 06010KT 2 1/2SM 21/21 A2980 RMK T02100210 IEM_DS3505
ZGOW,2010-05-08 00:00,ZGOW 080000Z AUTO 07004KT 5SM 22/20 A2983 RMK 60001 70002 SLP092 T02210200 52011 IEM_DS3505
ZGOW,2010-05-08 01:00,ZGOW 080100Z AUTO 05008KT 4SM 23/22 A2983 RMK T02300220 IEM_DS3505
ZGOW,2010-05-08 02:00,ZGOW 080200Z AUTO 06010KT 4SM 23/22 A2983 RMK T02300220 IEM_DS3505
ZGOW,2010-05-08 03:00,ZGOW 080300Z AUTO 00000KT 6SM 24/20 A2980 RMK SLP093 T02380205 52001 IEM_DS3505
ZGOW,2010-05-08 04:00,ZGOW 080400Z AUTO 07006KT 4SM 23/22 A2980 RMK T02300220 IEM_DS3505
ZGOW,2010-05-08 05:00,ZGOW 080500Z AUTO 06004KT 4SM 23/22 A2977 RMK T02300220 IEM_DS3505
ZGOW,2010-05-08 06:00,ZGOW 080600Z AUTO 14002KT 5SM 24/21 A2974 RMK SLP070 T02380209 57023 IEM_DS3505
ZGOW,2010-05-08 07:00,ZGOW 080700Z AUTO 16004KT 2SM 24/23 A2974 RMK T02400230 IEM_DS3505
ZGOW,2010-05-08 08:00,ZGOW 080800Z AUTO 17004KT 2SM 23/23 A2971 RMK T02300230 IEM_DS3505
ZGOW,2010-05-08 09:00,ZGOW 080900Z AUTO 14004KT 5SM 23/21 A2971 RMK SLP059 T02330206 57011 IEM_DS3505
ZGOW,2010-05-08 10:00,ZGOW 081000Z AUTO 14006KT 2SM 22/22 A2971 RMK T02200220 IEM_DS3505
ZGOW,2010-05-08 11:00,ZGOW 081100Z AUTO 13006KT 2SM 22/21 A2974 RMK T02200210 IEM_DS3505
ZGOW,2010-05-08 12:00,ZGOW 081200Z AUTO 14002KT 4SM 22/20 A2974 RMK SLP071 T02210200 52012 IEM_DS3505
ZGOW,2010-05-08 13:00,ZGOW 081300Z AUTO 12006KT 1 1/2SM 22/22 A2977 RMK T02200220 IEM_DS3505
ZGOW,2010-05-08 14:00,ZGOW 081400Z AUTO 13004KT 2SM 22/22 A2977 RMK T02200220 IEM_DS3505
ZGOW,2010-05-08 15:00,ZGOW 081500Z AUTO 07002KT 3SM 22/20 A2977 RMK SLP075 T02190205 52004 IEM_DS3505
ZGOW,2010-05-08 16:00,ZGOW 081600Z AUTO 11004KT 1 1/2SM 22/22 A2974 RMK T02200220 IEM_DS3505
ZGOW,2010-05-08 17:00,ZGOW 081700Z AUTO 12002KT 1 1/4SM 22/22 A2974 RMK T02200220 IEM_DS3505
ZGOW,2010-05-08 18:00,ZGOW 081800Z AUTO 00000KT 1SM 22/21 A2974 RMK SLP065 T02180210 57010 IEM_DS3505
ZGOW,2010-05-08 20:00,ZGOW 082000Z AUTO 08002KT 1SM 22/22 A2971 RMK T02200220 IEM_DS3505
ZGOW,2010-05-08 21:00,ZGOW 082100Z AUTO 00000KT 1/2SM 22/21 A2971 RMK 70000 SLP058 T02180213 57007 IEM_DS3505
ZGOW,2010-05-08 22:00,ZGOW 082200Z AUTO 08002KT 1SM 22/22 A2971 RMK T02200220 IEM_DS3505
ZGOW,2010-05-08 23:00,ZGOW 082300Z AUTO 08002KT 1SM 22/22 A2974 RMK T02200220 IEM_DS3505
ZGOW,2010-05-09 00:00,ZGOW 090000Z AUTO 18002KT 1/2SM 22/22 A2974 RMK SLP069 T02220217 52011 IEM_DS3505
ZGOW,2010-05-09 01:00,ZGOW 090100Z AUTO 14002KT 1SM 22/22 A2977 RMK T02200220 IEM_DS3505
ZGOW,2010-05-09 02:00,ZGOW 090200Z AUTO 06002KT 1SM 23/23 A2977 RMK T02300230 IEM_DS3505
ZGOW,2010-05-09 03:00,ZGOW 090300Z AUTO 00000KT 1 1/4SM 24/22 A2977 RMK SLP073 T02410225 52004 IEM_DS3505
ZGOW,2010-05-09 04:00,ZGOW 090400Z AUTO 00000KT 1SM 23/23 A2974 RMK T02300230 IEM_DS3505
ZGOW,2010-05-09 05:00,ZGOW 090500Z AUTO 12002KT 1SM 24/24 A2971 RMK T02400240 IEM_DS3505
ZGOW,2010-05-09 06:00,ZGOW 090600Z AUTO 29002KT 2SM 25/23 A2968 RMK SLP051 T02520233 57022 IEM_DS3505
ZGOW,2010-05-09 07:00,ZGOW 090700Z AUTO 10002KT 1SM 25/25 A2968 RMK T02500250 IEM_DS3505
ZGOW,2010-05-09 08:00,ZGOW 090800Z AUTO 14002KT 1 1/4SM 24/24 A2965 RMK T02400240 IEM_DS3505
ZGOW,2010-05-09 09:00,ZGOW 090900Z AUTO 11002KT 2SM 26/24 A2965 RMK SLP043 T02550241 57008 IEM_DS3505
ZGOW,2010-05-09 10:00,ZGOW 091000Z AUTO 08004KT 1SM 24/24 A2968 RMK T02400240 IEM_DS3505
ZGOW,2010-05-09 11:00,ZGOW 091100Z AUTO 06006KT 3/8SM 24/24 A2971 RMK T02400240 IEM_DS3505
ZGOW,2010-05-09 12:00,ZGOW 091200Z AUTO 04004KT 1/2SM 24/24 A2974 RMK 60000 SLP066 T02450240 52023 IEM_DS3505
ZGOW,2010-05-09 13:00,ZGOW 091300Z AUTO 08006KT 1SM 24/24 A2977 RMK T02400240 IEM_DS3505
ZGOW,2010-05-09 14:00,ZGOW 091400Z AUTO 06012KT 5SM 24/24 A2974 RMK T02400240 IEM_DS3505
ZGOW,2010-05-09 15:00,ZGOW 091500Z AUTO 00000KT 7SM 24/23 A2977 RMK SLP074 T02450226 52008 IEM_DS3505
ZGOW,2010-05-09 16:00,ZGOW 091600Z AUTO 30002KT 7SM 24/24 A2974 RMK T02400240 IEM_DS3505
ZGOW,2010-05-09 17:00,ZGOW 091700Z AUTO 31002KT 7SM 24/24 A2974 RMK T02400240 IEM_DS3505
ZGOW,2010-05-09 18:00,ZGOW 091800Z AUTO 00000KT 7SM 24/22 A2971 RMK SLP061 T02410220 57013 IEM_DS3505
ZGOW,2010-05-09 19:00,ZGOW 091900Z AUTO 32004KT 7SM 24/24 A2974 RMK T02400240 IEM_DS3505
ZGOW,2010-05-09 20:00,ZGOW 092000Z AUTO 36002KT 4SM 24/24 A2971 RMK T02400240 IEM_DS3505
ZGOW,2010-05-09 21:00,ZGOW 092100Z AUTO 00000KT 6SM 24/22 A2971 RMK 70000 SLP060 T02390223 57001 IEM_DS3505
ZGOW,2010-05-09 22:00,ZGOW 092200Z AUTO 04006KT 4SM 24/24 A2971 RMK T02400240 IEM_DS3505
ZGOW,2010-05-09 23:00,ZGOW 092300Z AUTO 20006KT 4SM 24/24 A2974 RMK T02400240 IEM_DS3505
ZGOW,2010-05-10 00:00,ZGOW 100000Z AUTO 00000KT 5SM 25/23 A2974 RMK 60000 70000 SLP071 T02480227 52011 IEM_DS3505
ZGOW,2010-05-10 01:00,ZGOW 100100Z AUTO 34004KT 7SM 26/25 A2980 RMK T02600250 IEM_DS3505
ZGOW,2010-05-10 02:00,ZGOW 100200Z AUTO 01006KT 7SM 25/24 A2980 RMK T02500240 IEM_DS3505
ZGOW,2010-05-10 03:00,ZGOW 100300Z AUTO 02002KT 7SM 26/21 A2980 RMK SLP087 T02570214 52016 IEM_DS3505
ZGOW,2010-05-10 04:00,ZGOW 100400Z AUTO 07010KT 2SM 24/23 A2980 RMK T02400230 IEM_DS3505
ZGOW,2010-05-10 05:00,ZGOW 100500Z AUTO 08006KT 2 1/2SM 23/23 A2980 RMK T02300230 IEM_DS3505
ZGOW,2010-05-10 06:00,ZGOW 100600Z AUTO 04002KT 1 1/4SM 23/22 A2980 RMK 60004 SLP091 T02290217 52004 IEM_DS3505
ZGOW,2010-05-10 07:00,ZGOW 100700Z AUTO 05006KT 1 1/4SM 22/22 A2980 RMK T02200220 IEM_DS3505
ZGOW,2010-05-10 08:00,ZGOW 100800Z AUTO 08010KT 2 1/2SM 22/22 A2980 RMK T02200220 IEM_DS3505
ZGOW,2010-05-10 09:00,ZGOW 100900Z AUTO 07004KT 6SM 23/21 A2980 RMK SLP087 T02270208 57004 IEM_DS3505
ZGOW,2010-05-10 10:00,ZGOW 101000Z AUTO 07006KT 1 1/4SM 21/21 A2983 RMK T02100210 IEM_DS3505
ZGOW,2010-05-10 11:00,ZGOW 101100Z AUTO 08012KT 2 1/2SM 20/20 A2983 RMK T02000200 IEM_DS3505
ZGOW,2010-05-10 12:00,ZGOW 101200Z AUTO 07004KT 4SM 21/20 A2985 RMK 60035 SLP110 T02100195 52023 IEM_DS3505
ZGOW,2010-05-10 13:00,ZGOW 101300Z AUTO 07016KT 7SM 20/20 A2988 RMK T02000200 IEM_DS3505
ZGOW,2010-05-10 14:00,ZGOW 101400Z AUTO 07010KT 7SM 20/20 A2988 RMK T02000200 IEM_DS3505
ZGOW,2010-05-10 15:00,ZGOW 101500Z AUTO 07006KT 6SM 21/18 A2988 RMK SLP122 T02060180 52012 IEM_DS3505
ZGOW,2010-05-10 16:00,ZGOW 101600Z AUTO 07010KT 7SM 20/19 A2988 RMK T02000190 IEM_DS3505
ZGOW,2010-05-10 17:00,ZGOW 101700Z AUTO 07010KT 4SM 20/19 A2985 RMK T02000190 IEM_DS3505
ZGOW,2010-05-10 18:00,ZGOW 101800Z AUTO 09006KT 7SM 20/17 RMK 60000 SLP110 T02040170 57012 IEM_DS3505
ZGOW,2010-05-10 19:00,ZGOW 101900Z AUTO 09008KT 3SM 20/19 A2985 RMK T02000190 IEM_DS3505
ZGOW,2010-05-10 20:00,ZGOW 102000Z AUTO 06008KT 3SM 20/19 A2988 RMK T02000190 IEM_DS3505
ZGOW,2010-05-10 21:00,ZGOW 102100Z AUTO 04002KT 7SM 20/17 A2988 RMK 70041 SLP117 T02020170 52007 IEM_DS3505
ZGOW,2010-05-10 22:00,ZGOW 102200Z AUTO 07006KT 4SM 20/19 A2988 RMK T02000190 IEM_DS3505
ZGOW,2010-05-10 23:00,ZGOW 102300Z AUTO 05004KT 4SM 20/19 A2991 RMK T02000190 IEM_DS3505
ZGOW,2010-05-11 00:00,ZGOW 110000Z AUTO 00000KT 7SM 22/17 A2994 RMK 70041 SLP135 T02160174 52018 IEM_DS3505
ZGOW,2010-05-11 01:00,ZGOW 110100Z AUTO 06008KT 7SM 22/19 A2994 RMK T02200190 IEM_DS3505
ZGOW,2010-05-11 02:00,ZGOW 110200Z AUTO 05006KT 7SM 22/20 A2997 RMK T02200200 IEM_DS3505
ZGOW,2010-05-11 03:00,ZGOW 110300Z AUTO 11004KT 7SM 23/17 A2994 RMK SLP143 T02310169 52008 IEM_DS3505
ZGOW,2010-05-11 04:00,ZGOW 110400Z AUTO 04006KT 6SM 24/19 A2994 RMK T02400190 IEM_DS3505
ZGOW,2010-05-11 05:00,ZGOW 110500Z AUTO 07006KT 6SM 24/20 A2991 RMK T02400200 IEM_DS3505
ZGOW,2010-05-11 06:00,ZGOW 110600Z AUTO 07008KT 9SM 26/17 A2988 RMK SLP121 T02550169 57022 IEM_DS3505
ZGOW,2010-05-11 07:00,ZGOW 110700Z AUTO 08008KT 6SM 25/20 A2988 RMK T02500200 IEM_DS3505
ZGOW,2010-05-11 08:00,ZGOW 110800Z AUTO 09008KT 6SM 24/20 A2988 RMK T02400200 IEM_DS3505
ZGOW,2010-05-11 09:00,ZGOW 110900Z AUTO 07006KT 7SM 25/18 A2988 RMK SLP116 T02470179 57005 IEM_DS3505
ZGOW,2010-05-11 10:00,ZGOW 111000Z AUTO 12004KT 4SM 23/20 A2988 RMK T02300200 IEM_DS3505
ZGOW,2010-05-11 11:00,ZGOW 111100Z AUTO 10004KT 4SM 22/21 A2991 RMK T02200210 IEM_DS3505
ZGOW,2010-05-11 12:00,ZGOW 111200Z AUTO 09004KT 9SM 23/19 A2991 RMK SLP130 T02260186 52014 IEM_DS3505
ZGOW,2010-05-11 13:00,ZGOW 111300Z AUTO 07008KT 7SM 21/19 A2994 RMK T02100190 IEM_DS3505
ZGOW,2010-05-11 14:00,ZGOW 111400Z AUTO 08012KT 6SM 21/19 A2994 RMK T02100190 IEM_DS3505
ZGOW,2010-05-11 15:00,ZGOW 111500Z AUTO 07006KT 11SM 21/18 A2994 RMK SLP143 T02130175 52013 IEM_DS3505
ZGOW,2010-05-11 16:00,ZGOW 111600Z AUTO 08010KT 7SM 20/19 A2994 RMK T02000190 IEM_DS3505
ZGOW,2010-05-11 17:00,ZGOW 111700Z AUTO 08008KT 7SM 20/19 A2994 RMK T02000190 IEM_DS3505
ZGOW,2010-05-11 18:00,ZGOW 111800Z AUTO 07004KT 10SM 21/17 A2991 RMK SLP131 T02080174 57012 IEM_DS3505
ZGOW,2010-05-11 19:00,ZGOW 111900Z AUTO 07008KT 7SM 20/19 A2991 RMK T02000190 IEM_DS3505
ZGOW,2010-05-11 20:00,ZGOW 112000Z AUTO 10008KT 7SM 20/19 A2991 RMK T02000190 IEM_DS3505
ZGOW,2010-05-11 21:00,ZGOW 112100Z AUTO 04002KT 9SM 21/17 A2991 RMK SLP132 T02080172 52001 IEM_DS3505
ZGOW,2010-05-11 22:00,ZGOW 112200Z AUTO 07010KT 6SM 20/19 A2991 RMK T02000190 IEM_DS3505
ZGOW,2010-05-11 23:00,ZGOW 112300Z AUTO 06008KT 6SM 21/19 A2994 RMK T02100190 IEM_DS3505
ZGOW,2010-05-12 00:00,ZGOW 120000Z AUTO 07004KT 9SM 22/18 A2997 RMK SLP144 T02210175 52012 IEM_DS3505
ZGOW,2010-05-12 01:00,ZGOW 120100Z AUTO 06012KT 6SM 23/19 A2997 RMK T02300190 IEM_DS3505
ZGOW,2010-05-12 02:00,ZGOW 120200Z AUTO 06010KT 6SM 24/20 A2997 RMK T02400200 IEM_DS3505
ZGOW,2010-05-12 03:00,ZGOW 120300Z AUTO 09006KT 6SM 24/17 A2997 RMK SLP143 T02450172 57001 IEM_DS3505
ZGOW,2010-05-12 04:00,ZGOW 120400Z AUTO 06012KT 6SM 25/20 A2994 RMK T02500200 IEM_DS3505
ZGOW,2010-05-12 05:00,ZGOW 120500Z AUTO 06010KT 7SM 25/20 A2994 RMK T02500200 IEM_DS3505
ZGOW,2010-05-12 06:00,ZGOW 120600Z AUTO 09004KT 7SM 25/17 A2991 RMK SLP128 T02530172 57015 IEM_DS3505
ZGOW,2010-05-12 07:00,ZGOW 120700Z AUTO 13006KT 7SM 24/21 A2991 RMK T02400210 IEM_DS3505
ZGOW,2010-05-12 08:00,ZGOW 120800Z AUTO 12006KT 5SM 23/21 A2988 RMK T02300210 IEM_DS3505
ZGOW,2010-05-12 09:00,ZGOW 120900Z AUTO 14006KT 6SM 24/19 A2988 RMK SLP118 T02380189 57010 IEM_DS3505
ZGOW,2010-05-12 10:00,ZGOW 121000Z AUTO 10004KT 5SM 23/21 A2988 RMK T02300210 IEM_DS3505
ZGOW,2010-05-12 11:00,ZGOW 121100Z AUTO 08006KT 5SM 22/19 A2991 RMK T02200190 IEM_DS3505
ZGOW,2010-05-12 12:00,ZGOW 121200Z AUTO 07004KT 6SM 22/18 A2994 RMK SLP133 T02210179 52015 IEM_DS3505
ZGOW,2010-05-12 13:00,ZGOW 121300Z AUTO 08010KT 5SM 21/19 A2994 RMK T02100190 IEM_DS3505
ZGOW,2010-05-12 14:00,ZGOW 121400Z AUTO 08010KT 7SM 21/19 A2997 RMK T02100190 IEM_DS3505
ZGOW,2010-05-12 15:00,ZGOW 121500Z AUTO 07002KT 6SM 22/18 A2997 RMK SLP146 T02170175 52013 IEM_DS3505
ZGOW,2010-05-12 16:00,ZGOW 121600Z AUTO 08008KT 7SM 21/19 A2994 RMK T02100190 IEM_DS3505
ZGOW,2010-05-12 17:00,ZGOW 121700Z AUTO 07010KT 7SM 21/18 A2994 RMK T02100180 IEM_DS3505
ZGOW,2010-05-12 18:00,ZGOW 121800Z AUTO 04002KT 9SM 21/17 A2994 RMK SLP134 T02140166 57012 IEM_DS3505
ZGOW,2010-05-12 19:00,ZGOW 121900Z AUTO 00000KT 7SM 21/18 A2991 RMK T02100180 IEM_DS3505
ZGOW,2010-05-12 20:00,ZGOW 122000Z AUTO 06006KT 7SM 21/18 A2991 RMK T02100180 IEM_DS3505
ZGOW,2010-05-12 21:00,ZGOW 122100Z AUTO 07004KT 9SM 22/16 A2991 RMK SLP122 T02160163 57012 IEM_DS3505
ZGOW,2010-05-12 22:00,ZGOW 122200Z AUTO 04002KT 7SM 21/19 A2991 RMK T02100190 IEM_DS3505
ZGOW,2010-05-12 23:00,ZGOW 122300Z AUTO 06004KT 7SM 22/19 A2991 RMK T02200190 IEM_DS3505
ZGOW,2010-05-13 00:00,ZGOW 130000Z AUTO 07006KT 9SM 23/17 A2991 RMK SLP126 T02340169 52004 IEM_DS3505
ZGOW,2010-05-13 01:00,ZGOW 130100Z AUTO 06008KT 7SM 23/19 A2991 RMK T02300190 IEM_DS3505
ZGOW,2010-05-13 02:00,ZGOW 130200Z AUTO 06010KT 7SM 25/20 A2991 RMK T02500200 IEM_DS3505
ZGOW,2010-05-13 03:00,ZGOW 130300Z AUTO 09004KT 9SM 25/18 A2991 RMK SLP125 T02490176 57001 IEM_DS3505
ZGOW,2010-05-13 04:00,ZGOW 130400Z AUTO 07008KT 7SM 25/20 A2988 RMK T02500200 IEM_DS3505
ZGOW,2010-05-13 05:00,ZGOW 130500Z AUTO 06006KT 7SM 25/21 A2988 RMK T02500210 IEM_DS3505
ZGOW,2010-05-13 06:00,ZGOW 130600Z AUTO 14004KT 9SM 25/18 A2985 RMK SLP108 T02500184 57017 IEM_DS3505
ZGOW,2010-05-13 07:00,ZGOW 130700Z AUTO 10004KT 7SM 24/21 A2985 RMK T02400210 IEM_DS3505
ZGOW,2010-05-13 08:00,ZGOW 130800Z AUTO 13004KT 7SM 24/21 A2983 RMK T02400210 IEM_DS3505
ZGOW,2010-05-13 09:00,ZGOW 130900Z AUTO 14004KT 9SM 24/18 A2983 RMK SLP094 T02390181 57014 IEM_DS3505
ZGOW,2010-05-13 10:00,ZGOW 131000Z AUTO 06006KT 7SM 23/20 A2983 RMK T02300200 IEM_DS3505
ZGOW,2010-05-13 11:00,ZGOW 131100Z AUTO 08006KT 7SM 22/20 A2983 RMK T02200200 IEM_DS3505
ZGOW,2010-05-13 12:00,ZGOW 131200Z AUTO 07002KT 7SM 23/19 A2985 RMK SLP105 T02280188 52011 IEM_DS3505
ZGOW,2010-05-13 13:00,ZGOW 131300Z AUTO 06006KT 7SM 22/21 A2988 RMK T02200210 IEM_DS3505
ZGOW,2010-05-13 14:00,ZGOW 131400Z AUTO 06004KT 7SM 22/21 A2988 RMK T02200210 IEM_DS3505
ZGOW,2010-05-13 15:00,ZGOW 131500Z AUTO 07004KT 9SM 22/19 A2988 RMK SLP119 T02220194 52014 IEM_DS3505
ZGOW,2010-05-13 16:00,ZGOW 131600Z AUTO 08008KT 7SM 21/21 A2988 RMK T02100210 IEM_DS3505
ZGOW,2010-05-13 17:00,ZGOW 131700Z AUTO 06006KT 4SM 21/21 A2985 RMK T02100210 IEM_DS3505
ZGOW,2010-05-13 18:00,ZGOW 131800Z AUTO 07004KT 7SM 22/20 A2985 RMK SLP105 T02160197 57014 IEM_DS3505
ZGOW,2010-05-13 19:00,ZGOW 131900Z AUTO 06008KT 2SM 21/20 A2985 RMK T02100200 IEM_DS3505
ZGOW,2010-05-13 20:00,ZGOW 132000Z AUTO 08010KT 1SM 20/20 A2983 RMK T02000200 IEM_DS3505
ZGOW,2010-05-13 21:00,ZGOW 132100Z AUTO 07004KT 3SM 20/20 A2985 RMK SLP105 T02050195 54000 IEM_DS3505
ZGOW,2010-05-13 22:00,ZGOW 132200Z AUTO 06008KT 2SM 20/20 A2985 RMK T02000200 IEM_DS3505
ZGOW,2010-05-13 23:00,ZGOW 132300Z AUTO 06010KT 2SM 20/20 A2985 RMK T02000200 IEM_DS3505
ZGOW,2010-05-14 00:00,ZGOW 140000Z AUTO 04004KT 4SM 21/19 A2988 RMK 60000 70000 SLP118 T02100193 52013 IEM_DS3505
ZGOW,2010-05-14 01:00,ZGOW 140100Z AUTO 06010KT 2SM 21/21 A2988 RMK T02100210 IEM_DS3505
ZGOW,2010-05-14 02:00,ZGOW 140200Z AUTO 06010KT 2 1/2SM 22/21 A2991 RMK T02200210 IEM_DS3505
ZGOW,2010-05-14 03:00,ZGOW 140300Z AUTO 07004KT 6SM 22/20 A2988 RMK SLP119 T02240199 52001 IEM_DS3505
ZGOW,2010-05-14 04:00,ZGOW 140400Z AUTO 07010KT 2 1/2SM 23/22 A2988 RMK T02300220 IEM_DS3505
ZGOW,2010-05-14 05:00,ZGOW 140500Z AUTO 07010KT 2 1/2SM 23/22 A2985 RMK T02300220 IEM_DS3505
ZGOW,2010-05-14 06:00,ZGOW 140600Z AUTO 09006KT 5SM 23/20 A2983 RMK 60000 SLP097 T02330203 57022 IEM_DS3505
ZGOW,2010-05-14 07:00,ZGOW 140700Z AUTO 06010KT 2SM 23/22 A2983 RMK T02300220 IEM_DS3505
ZGOW,2010-05-14 08:00,ZGOW 140800Z AUTO 08008KT 2SM 23/22 A2980 RMK T02300220 IEM_DS3505
ZGOW,2010-05-14 09:00,ZGOW 140900Z AUTO 09002KT 4SM 22/20 A2980 RMK SLP091 T02250204 57006 IEM_DS3505
ZGOW,2010-05-14 10:00,ZGOW 141000Z AUTO 06010KT 2 1/2SM 21/20 A2980 RMK T02100200 IEM_DS3505
ZGOW,2010-05-14 11:00,ZGOW 141100Z AUTO 06012KT 2 1/2SM 20/20 A2983 RMK T02000200 IEM_DS3505
ZGOW,2010-05-14 12:00,ZGOW 141200Z AUTO 09004KT 4SM 21/19 A2983 RMK SLP100 T02070188 52009 IEM_DS3505
ZGOW,2010-05-14 13:00,ZGOW 141300Z AUTO 06010KT 7SM 20/20 A2985 RMK T02000200 IEM_DS3505
ZGOW,2010-05-14 14:00,ZGOW 141400Z AUTO 07010KT 7SM 20/20 A2985 RMK T02000200 IEM_DS3505
ZGOW,2010-05-14 15:00,ZGOW 141500Z AUTO 07004KT 4SM 20/19 A2988 RMK SLP114 T02030186 52014 IEM_DS3505
ZGOW,2010-05-14 16:00,ZGOW 141600Z AUTO 07010KT 7SM 20/20 A2988 RMK T02000200 IEM_DS3505
ZGOW,2010-05-14 17:00,ZGOW 141700Z AUTO 07012KT 7SM 20/19 A2985 RMK T02000190 IEM_DS3505
ZGOW,2010-05-14 18:00,ZGOW 141800Z AUTO 07006KT 6SM 20/18 A2985 RMK 60000 SLP109 T02030182 57005 IEM_DS3505
ZGOW,2010-05-14 19:00,ZGOW 141900Z AUTO 08008KT 2 1/2SM 20/19 A2985 RMK T02000190 IEM_DS3505
ZGOW,2010-05-14 20:00,ZGOW 142000Z AUTO 07010KT 3SM 20/19 A2985 RMK T02000190 IEM_DS3505
ZGOW,2010-05-14 21:00,ZGOW 142100Z AUTO 07004KT 6SM 20/18 A2985 RMK 70000 SLP105 T02050175 57004 IEM_DS3505
ZGOW,2010-05-14 22:00,ZGOW 142200Z AUTO 06008KT 3SM 20/19 A2985 RMK T02000190 IEM_DS3505
ZGOW,2010-05-14 23:00,ZGOW 142300Z AUTO 05008KT 4SM 20/20 A2988 RMK T02000200 IEM_DS3505
ZGOW,2010-05-15 00:00,ZGOW 150000Z AUTO 07006KT 6SM 20/18 A2988 RMK 60002 70002 SLP117 T02040182 52012 IEM_DS3505
ZGOW,2010-05-15 01:00,ZGOW 150100Z AUTO 05008KT 4SM 21/20 A2988 RMK T02100200 IEM_DS3505
ZGOW,2010-05-15 02:00,ZGOW 150200Z AUTO 05012KT 4SM 22/20 A2988 RMK T02200200 IEM_DS3505
ZGOW,2010-05-15 03:00,ZGOW 150300Z AUTO 09006KT 7SM 22/18 A2988 RMK SLP119 T02250183 52002 IEM_DS3505
ZGOW,2010-05-15 04:00,ZGOW 150400Z AUTO 11006KT 7SM 23/20 A2988 RMK T02300200 IEM_DS3505
ZGOW,2010-05-15 05:00,ZGOW 150500Z AUTO 07004KT 7SM 24/21 A2985 RMK T02400210 IEM_DS3505
ZGOW,2010-05-15 06:00,ZGOW 150600Z AUTO 07004KT 7SM 24/19 A2985 RMK 60000 SLP104 T02400191 57015 IEM_DS3505
ZGOW,2010-05-15 07:00,ZGOW 150700Z AUTO 10006KT 7SM 24/21 A2983 RMK T02400210 IEM_DS3505
ZGOW,2010-05-15 08:00,ZGOW 150800Z AUTO 09004KT 4SM 23/21 A2983 RMK T02300210 IEM_DS3505
ZGOW,2010-05-15 09:00,ZGOW 150900Z AUTO 11004KT 7SM 23/19 A2983 RMK SLP094 T02310193 57010 IEM_DS3505
ZGOW,2010-05-15 10:00,ZGOW 151000Z AUTO 12006KT 4SM 22/21 A2983 RMK T02200210 IEM_DS3505
ZGOW,2010-05-15 11:00,ZGOW 151100Z AUTO 11006KT 4SM 21/21 A2985 RMK T02100210 IEM_DS3505
ZGOW,2010-05-15 12:00,ZGOW 151200Z AUTO 11004KT 6SM 22/19 A2985 RMK SLP109 T02190193 52015 IEM_DS3505
ZGOW,2010-05-15 13:00,ZGOW 151300Z AUTO 07006KT 5SM 21/21 A2988 RMK T02100210 IEM_DS3505
ZGOW,2010-05-15 14:00,ZGOW 151400Z AUTO 08006KT 5SM 21/21 A2988 RMK T02100210 IEM_DS3505
ZGOW,2010-05-15 15:00,ZGOW 151500Z AUTO 07002KT 6SM 22/19 A2988 RMK SLP120 T02170194 52011 IEM_DS3505
ZGOW,2010-05-15 16:00,ZGOW 151600Z AUTO 04006KT 4SM 21/21 A2988 RMK T02100210 IEM_DS3505
ZGOW,2010-05-15 17:00,ZGOW 151700Z AUTO 07008KT 3SM 21/21 A2988 RMK T02100210 IEM_DS3505
ZGOW,2010-05-15 18:00,ZGOW 151800Z AUTO 09002KT 7SM 21/19 A2988 RMK SLP114 T02130192 57006 IEM_DS3505
ZGOW,2010-05-15 19:00,ZGOW 151900Z AUTO 05008KT 3SM 21/21 A2988 RMK T02100210 IEM_DS3505
ZGOW,2010-05-15 20:00,ZGOW 152000Z AUTO 08004KT 3SM 21/21 A2988 RMK T02100210 IEM_DS3505
ZGOW,2010-05-15 21:00,ZGOW 152100Z AUTO 07002KT 6SM 21/19 A2988 RMK 70002 SLP113 T02140191 57001 IEM_DS3505
ZGOW,2010-05-15 22:00,ZGOW 152200Z AUTO 06006KT 4SM 21/21 A2988 RMK T02100210 IEM_DS3505
ZGOW,2010-05-15 23:00,ZGOW 152300Z AUTO 07006KT 3SM 22/21 A2991 RMK T02200210 IEM_DS3505
ZGOW,2010-05-16 00:00,ZGOW 160000Z AUTO 09002KT 6SM 22/19 A2991 RMK 70000 SLP130 T02190193 52017 IEM_DS3505
ZGOW,2010-05-16 01:00,ZGOW 160100Z AUTO 06002KT 4SM 23/21 A2991 RMK T02300210 IEM_DS3505
ZGOW,2010-05-16 02:00,ZGOW 160200Z AUTO 07004KT 4SM 24/22 A2991 RMK T02400220 IEM_DS3505
ZGOW,2010-05-16 03:00,ZGOW 160300Z AUTO 11004KT 6SM 25/20 A2991 RMK SLP128 T02480201 57002 IEM_DS3505
ZGOW,2010-05-16 04:00,ZGOW 160400Z AUTO 09006KT 7SM 25/23 A2991 RMK T02500230 IEM_DS3505
ZGOW,2010-05-16 05:00,ZGOW 160500Z AUTO 10004KT 7SM 25/23 A2991 RMK T02500230 IEM_DS3505
ZGOW,2010-05-16 06:00,ZGOW 160600Z AUTO 07004KT 7SM 26/20 A2988 RMK SLP115 T02570205 57013 IEM_DS3505
ZGOW,2010-05-16 07:00,ZGOW 160700Z AUTO 14006KT 7SM 25/22 A2988 RMK T02500220 IEM_DS3505
ZGOW,2010-05-16 08:00,ZGOW 160800Z AUTO 14006KT 7SM 25/23 A2985 RMK T02500230 IEM_DS3505
ZGOW,2010-05-16 09:00,ZGOW 160900Z AUTO 14006KT 7SM 25/20 A2985 RMK SLP106 T02500203 57009 IEM_DS3505
ZGOW,2010-05-16 10:00,ZGOW 161000Z AUTO 13004KT 6SM 24/22 A2985 RMK T02400220 IEM_DS3505
ZGOW,2010-05-16 11:00,ZGOW 161100Z AUTO 13004KT 4SM 23/22 A2988 RMK T02300220 IEM_DS3505
ZGOW,2010-05-16 12:00,ZGOW 161200Z AUTO 00000KT 6SM 24/20 A2991 RMK SLP124 T02370200 52018 IEM_DS3505
ZGOW,2010-05-16 13:00,ZGOW 161300Z AUTO 07004KT 4SM 23/22 A2991 RMK T02300220 IEM_DS3505
ZGOW,2010-05-16 14:00,ZGOW 161400Z AUTO 04008KT 4SM 23/22 A2994 RMK T02300220 IEM_DS3505
ZGOW,2010-05-16 15:00,ZGOW 161500Z AUTO 07004KT 6SM 23/21 A2991 RMK SLP134 T02330206 52010 IEM_DS3505
ZGOW,2010-05-16 16:00,ZGOW 161600Z AUTO 06010KT 7SM 23/22 A2991 RMK T02300220 IEM_DS3505
ZGOW,2010-05-16 17:00,ZGOW 161700Z AUTO 07008KT 3SM 23/22 A2991 RMK T02300220 IEM_DS3505
ZGOW,2010-05-16 18:00,ZGOW 161800Z AUTO 06010KT 3SM 23/22 A2991 RMK T02300220 IEM_DS3505
ZGOW,2010-05-16 19:00,ZGOW 161900Z AUTO 08006KT 3SM 23/22 A2988 RMK T02300220 IEM_DS3505
ZGOW,2010-05-16 20:00,ZGOW 162000Z AUTO 00000KT 3SM 23/22 A2991 RMK T02300220 IEM_DS3505
ZGOW,2010-05-16 21:00,ZGOW 162100Z AUTO 00000KT 7SM 23/21 A2991 RMK SLP130 T02260209 52007 IEM_DS3505
ZGOW,2010-05-16 22:00,ZGOW 162200Z AUTO 07006KT 3SM 22/22 A2991 RMK T02200220 IEM_DS3505
ZGOW,2010-05-16 23:00,ZGOW 162300Z AUTO 08004KT 3SM 23/22 A2994 RMK T02300220 IEM_DS3505
ZGOW,2010-05-17 00:00,ZGOW 170000Z AUTO 11004KT 6SM 24/21 A2994 RMK SLP137 T02430208 52007 IEM_DS3505
ZGOW,2010-05-17 01:00,ZGOW 170100Z AUTO 12004KT 7SM 25/23 A2994 RMK T02500230 IEM_DS3505
ZGOW,2010-05-17 02:00,ZGOW 170200Z AUTO 10004KT 7SM 26/24 A2994 RMK T02600240 IEM_DS3505
ZGOW,2010-05-17 03:00,ZGOW 170300Z AUTO 14006KT 9SM 26/21 A2991 RMK SLP131 T02620212 57006 IEM_DS3505
ZGOW,2010-05-17 04:00,ZGOW 170400Z AUTO 14006KT 7SM 27/24 A2991 RMK T02700240 IEM_DS3505
ZGOW,2010-05-17 05:00,ZGOW 170500Z AUTO 11006KT 7SM 27/24 A2988 RMK T02700240 IEM_DS3505
ZGOW,2010-05-17 06:00,ZGOW 170600Z AUTO 16006KT 14SM 28/22 A2985 RMK SLP111 T02770220 57020 IEM_DS3505
ZGOW,2010-05-17 07:00,ZGOW 170700Z AUTO 13010KT 6SM 26/24 A2985 RMK T02600240 IEM_DS3505
ZGOW,2010-05-17 08:00,ZGOW 170800Z AUTO 16008KT 6SM 27/24 A2983 RMK T02700240 IEM_DS3505
ZGOW,2010-05-17 09:00,ZGOW 170900Z AUTO 16006KT 14SM 27/22 A2983 RMK SLP097 T02700215 57014 IEM_DS3505
ZGOW,2010-05-17 10:00,ZGOW 171000Z AUTO 15008KT 6SM 25/24 A2983 RMK T02500240 IEM_DS3505
ZGOW,2010-05-17 11:00,ZGOW 171100Z AUTO 17006KT 6SM 24/24 A2985 RMK T02400240 IEM_DS3505
ZGOW,2010-05-17 12:00,ZGOW 171200Z AUTO 20004KT 11SM 24/22 A2985 RMK SLP108 T02410216 52011 IEM_DS3505
ZGOW,2010-05-17 13:00,ZGOW 171300Z AUTO 16004KT 6SM 24/23 A2988 RMK T02400230 IEM_DS3505
ZGOW,2010-05-17 14:00,ZGOW 171400Z AUTO 16004KT 6SM 24/23 A2988 RMK T02400230 IEM_DS3505
ZGOW,2010-05-17 15:00,ZGOW 171500Z 15001MPS 9999 FEW008 23/23 Q1012 NOSIG
ZGOW,2010-05-17 16:00,ZGOW 171600Z AUTO 10002KT 4SM 23/23 A2988 RMK T02300230 IEM_DS3505
ZGOW,2010-05-17 17:00,ZGOW 171700Z AUTO 10002KT 4SM 23/23 A2988 RMK T02300230 IEM_DS3505
ZGOW,2010-05-17 18:00,ZGOW 171800Z AUTO 22002KT 7SM 23/22 RMK SLP113 T02320218 57006 IEM_DS3505
ZGOW,2010-05-17 19:00,ZGOW 171900Z AUTO 00000KT 1 1/2SM 22/22 A2985 RMK T02200220 IEM_DS3505
ZGOW,2010-05-17 21:00,ZGOW 172100Z AUTO 00000KT 5SM 23/22 A2985 RMK SLP112 T02270219 57001 IEM_DS3505
ZGOW,2010-05-17 22:00,ZGOW 172200Z AUTO 00000KT 1 1/2SM 22/22 A2988 RMK T02200220 IEM_DS3505
ZGOW,2010-05-17 23:00,ZGOW 172300Z AUTO 30002KT 1 1/2SM 24/24 A2988 RMK T02400240 IEM_DS3505
ZGOW,2010-05-18 00:00,ZGOW 180000Z AUTO 27006KT 7SM 25/22 A2988 RMK SLP117 T02490224 52005 IEM_DS3505
ZGOW,2010-05-18 01:00,ZGOW 180100Z AUTO 33004KT 2 1/2SM 26/25 A2988 RMK T02600250 IEM_DS3505
ZGOW,2010-05-18 02:00,ZGOW 180200Z AUTO 30004KT 2SM 28/26 A2985 RMK T02800260 IEM_DS3505
ZGOW,2010-05-18 03:00,ZGOW 180300Z AUTO 25006KT 12SM 29/23 A2985 RMK SLP109 T02890229 57007 IEM_DS3505
ZGOW,2010-05-18 04:00,ZGOW 180400Z AUTO 17010KT 4SM 29/26 A2983 RMK T02900260 IEM_DS3505
ZGOW,2010-05-18 05:00,ZGOW 180500Z AUTO 17012KT 5SM 30/26 A2983 RMK T03000260 IEM_DS3505
ZGOW,2010-05-18 06:00,ZGOW 180600Z AUTO 22006KT 12SM 32/24 A2980 RMK SLP085 T03150236 57024 IEM_DS3505
ZGOW,2010-05-18 07:00,ZGOW 180700Z AUTO 19012KT 7SM 31/27 A2977 RMK T03100270 IEM_DS3505
ZGOW,2010-05-18 08:00,ZGOW 180800Z AUTO 19012KT 7SM 30/26 A2974 RMK T03000260 IEM_DS3505
ZGOW,2010-05-18 09:00,ZGOW 180900Z AUTO 18008KT 11SM 30/23 A2974 RMK SLP072 T02980233 57013 IEM_DS3505
ZGOW,2010-05-18 10:00,ZGOW 181000Z AUTO 20010KT 6SM 28/26 A2974 RMK T02800260 IEM_DS3505
ZGOW,2010-05-18 11:00,ZGOW 181100Z AUTO 19008KT 6SM 27/25 A2977 RMK T02700250 IEM_DS3505
ZGOW,2010-05-18 12:00,ZGOW 181200Z AUTO 22004KT 9SM 28/23 A2977 RMK SLP083 T02750231 52011 IEM_DS3505
ZGOW,2010-05-18 13:00,ZGOW 181300Z AUTO 20008KT 4SM 26/25 A2980 RMK T02600250 IEM_DS3505
ZGOW,2010-05-18 14:00,ZGOW 181400Z AUTO 25002KT 4SM 27/25 A2983 RMK T02700250 IEM_DS3505
ZGOW,2010-05-18 15:00,ZGOW 181500Z AUTO 20004KT 9SM 26/23 A2983 RMK SLP101 T02630232 52018 IEM_DS3505
ZGOW,2010-05-18 16:00,ZGOW 181600Z AUTO 21004KT 4SM 25/25 A2983 RMK T02500250 IEM_DS3505
ZGOW,2010-05-18 17:00,ZGOW 181700Z AUTO 27002KT 4SM 25/25 A2983 RMK T02500250 IEM_DS3505
ZGOW,2010-05-18 18:00,ZGOW 181800Z AUTO 00000KT 9SM 25/23 A2980 RMK SLP088 T02530230 57013 IEM_DS3505
ZGOW,2010-05-18 19:00,ZGOW 181900Z AUTO 00000KT 3SM 24/24 A2980 RMK T02400240 IEM_DS3505
ZGOW,2010-05-18 20:00,ZGOW 182000Z AUTO 00000KT 3SM 24/24 A2980 RMK T02400240 IEM_DS3505
ZGOW,2010-05-18 21:00,ZGOW 182100Z AUTO 00000KT 6SM 24/23 A2980 RMK SLP092 T02400228 52004 IEM_DS3505
ZGOW,2010-05-18 22:00,ZGOW 182200Z AUTO 00000KT 3SM 24/ A2983 RMK IEM_DS3505
ZGOW,2010-05-18 23:00,ZGOW 182300Z AUTO 18002KT 3SM 26/26 A2983 RMK T02600260 IEM_DS3505
ZGOW,2010-05-19 00:00,ZGOW 190000Z AUTO 20002KT 9SM 28/24 A2983 RMK SLP099 T02760242 52007 IEM_DS3505
ZGOW,2010-05-19 01:00,ZGOW 190100Z AUTO 22002KT 7SM 29/27 A2983 RMK T02900270 IEM_DS3505
ZGOW,2010-05-19 02:00,ZGOW 190200Z AUTO 19008KT 7SM 30/27 A2983 RMK T03000270 IEM_DS3505
ZGOW,2010-05-19 03:00,ZGOW 190300Z AUTO 20006KT 9SM 30/24 A2983 RMK SLP098 T02970243 57001 IEM_DS3505
ZGOW,2010-05-19 04:00,ZGOW 190400Z AUTO 19010KT 7SM 30/27 A2983 RMK T03000270 IEM_DS3505
ZGOW,2010-05-19 05:00,ZGOW 190500Z AUTO 19010KT 7SM 31/27 A2977 RMK T03100270 IEM_DS3505
ZGOW,2010-05-19 06:00,ZGOW 190600Z AUTO 22010KT 11SM 32/22 A2977 RMK SLP078 T03220223 57020 IEM_DS3505
ZGOW,2010-05-19 07:00,ZGOW 190700Z AUTO 20012KT 7SM 32/27 A2974 RMK T03200270 IEM_DS3505
ZGOW,2010-05-19 08:00,ZGOW 190800Z AUTO 21012KT 7SM 31/27 A2974 RMK T03100270 IEM_DS3505
ZGOW,2010-05-19 09:00,ZGOW 190900Z AUTO 18004KT 11SM 30/23 A2974 RMK SLP070 T03020231 57008 IEM_DS3505
ZGOW,2010-05-19 10:00,ZGOW 191000Z AUTO 20010KT 7SM 29/26 A2977 RMK T02900260 IEM_DS3505
ZGOW,2010-05-19 11:00,ZGOW 191100Z AUTO 21010KT 7SM 28/26 A2980 RMK T02800260 IEM_DS3505
ZGOW,2010-05-19 12:00,ZGOW 191200Z AUTO 22004KT 9SM 28/24 A2980 RMK SLP088 T02820242 52018 IEM_DS3505
ZGOW,2010-05-19 13:00,ZGOW 191300Z AUTO 28006KT 7SM 28/24 A2983 RMK T02800240 IEM_DS3505
ZGOW,2010-05-19 14:00,ZGOW 191400Z AUTO 34004KT 7SM 27/24 A2983 RMK T02700240 IEM_DS3505
ZGOW,2010-05-19 15:00,ZGOW 191500Z AUTO 34002KT 7SM 26/23 A2983 RMK SLP098 T02600229 52010 IEM_DS3505
ZGOW,2010-05-19 16:00,ZGOW 191600Z AUTO 29004KT 1 1/4SM 25/24 A2985 RMK T02500240 IEM_DS3505
ZGOW,2010-05-19 17:00,ZGOW 191700Z AUTO 14004KT 2SM 24/24 A2980 RMK T02400240 IEM_DS3505
ZGOW,2010-05-19 18:00,ZGOW 191800Z AUTO 27002KT 7SM 24/22 A2980 RMK 60031 SLP087 T02410222 57011 IEM_DS3505
ZGOW,2010-05-19 19:00,ZGOW 191900Z AUTO 00000KT 4SM 24/24 A2980 RMK T02400240 IEM_DS3505
ZGOW,2010-05-19 20:00,ZGOW 192000Z AUTO 00000KT 3SM 24/24 A2983 RMK T02400240 IEM_DS3505
ZGOW,2010-05-19 21:00,ZGOW 192100Z AUTO 00000KT 7SM 24/23 A2983 RMK 70031 SLP093 T02380226 52006 IEM_DS3505
ZGOW,2010-05-19 22:00,ZGOW 192200Z AUTO 00000KT 2 1/2SM 24/24 A2983 RMK T02400240 IEM_DS3505
ZGOW,2010-05-19 23:00,ZGOW 192300Z AUTO 32004KT 2 1/2SM 25/25 A2985 RMK T02500250 IEM_DS3505
ZGOW,2010-05-20 00:00,ZGOW 200000Z AUTO 29004KT 11SM 26/22 A2985 RMK 60000 70031 SLP113 T02610222 52020 IEM_DS3505
ZGOW,2010-05-20 01:00,ZGOW 200100Z AUTO 27004KT 7SM 26/24 A2988 RMK T02600240 IEM_DS3505
ZGOW,2010-05-20 02:00,ZGOW 200200Z AUTO 28004KT 7SM 28/25 A2988 RMK T02800250 IEM_DS3505
ZGOW,2010-05-20 03:00,ZGOW 200300Z AUTO 22002KT 12SM 28/23 A2988 RMK SLP113 T02820233 54000 IEM_DS3505
ZGOW,2010-05-20 04:00,ZGOW 200400Z AUTO 22008KT 7SM 30/26 A2985 RMK T03000260 IEM_DS3505
ZGOW,2010-05-20 05:00,ZGOW 200500Z AUTO 21012KT 7SM 30/27 A2985 RMK T03000270 IEM_DS3505
ZGOW,2010-05-20 06:00,ZGOW 200600Z AUTO 20004KT 16SM 31/25 A2983 RMK SLP100 T03070251 57013 IEM_DS3505
ZGOW,2010-05-20 07:00,ZGOW 200700Z AUTO 21004KT 7SM 30/27 A2980 RMK T03000270 IEM_DS3505
ZGOW,2010-05-20 08:00,ZGOW 200800Z AUTO 16012KT 7SM 29/26 A2980 RMK T02900260 IEM_DS3505
ZGOW,2010-05-20 09:00,ZGOW 200900Z AUTO 18004KT 19SM 28/24 A2980 RMK SLP087 T02850236 57013 IEM_DS3505
ZGOW,2010-05-20 10:00,ZGOW 201000Z AUTO 19008KT 6SM 28/26 A2980 RMK T02800260 IEM_DS3505
ZGOW,2010-05-20 11:00,ZGOW 201100Z AUTO 15006KT 6SM 27/26 A2983 RMK T02700260 IEM_DS3505
ZGOW,2010-05-20 12:00,ZGOW 201200Z AUTO 20004KT 9SM 27/23 A2985 RMK SLP104 T02670234 52017 IEM_DS3505
ZGOW,2010-05-20 13:00,ZGOW 201300Z AUTO 19006KT 6SM 27/25 A2985 RMK T02700250 IEM_DS3505
ZGOW,2010-05-20 14:00,ZGOW 201400Z AUTO 21006KT 6SM 26/25 A2985 RMK T02600250 IEM_DS3505
ZGOW,2010-05-20 15:00,ZGOW 201500Z AUTO 22004KT 11SM 26/23 A2988 RMK SLP114 T02620229 52010 IEM_DS3505
ZGOW,2010-05-20 16:00,ZGOW 201600Z AUTO 28002KT 6SM 26/25 A2985 RMK T02600250 IEM_DS3505
ZGOW,2010-05-20 17:00,ZGOW 201700Z AUTO 27002KT 6SM 26/25 A2985 RMK T02600250 IEM_DS3505
ZGOW,2010-05-20 18:00,ZGOW 201800Z AUTO 27002KT 7SM 26/23 A2983 RMK SLP101 T02620231 57013 IEM_DS3505
ZGOW,2010-05-20 20:00,ZGOW 202000Z AUTO 08002KT 4SM 25/25 A2985 RMK T02500250 IEM_DS3505
ZGOW,2010-05-20 21:00,ZGOW 202100Z AUTO 00000KT 9SM 25/23 A2985 RMK SLP104 T02490230 52003 IEM_DS3505
ZGOW,2010-05-20 22:00,ZGOW 202200Z AUTO 00000KT 6SM 24/24 A2985 RMK T02400240 IEM_DS3505
ZGOW,2010-05-20 23:00,ZGOW 202300Z AUTO 15002KT 6SM 27/26 A2985 RMK T02700260 IEM_DS3505
ZGOW,2010-05-21 00:00,ZGOW 210000Z AUTO 18002KT 12SM 29/24 A2985 RMK SLP110 T02880241 52006 IEM_DS3505
ZGOW,2010-05-21 01:00,ZGOW 210100Z AUTO 20006KT 7SM 29/26 A2985 RMK T02900260 IEM_DS3505
ZGOW,2010-05-21 02:00,ZGOW 210200Z AUTO 22004KT 7SM 30/27 A2985 RMK T03000270 IEM_DS3505
ZGOW,2010-05-21 03:00,ZGOW 210300Z AUTO 22006KT 14SM 32/24 A2983 RMK SLP101 T03150244 57009 IEM_DS3505
ZGOW,2010-05-21 04:00,ZGOW 210400Z AUTO 17010KT 7SM 31/28 A2983 RMK T03100280 IEM_DS3505
ZGOW,2010-05-21 05:00,ZGOW 210500Z AUTO 19010KT 7SM 32/28 A2980 RMK T03200280 IEM_DS3505
ZGOW,2010-05-21 06:00,ZGOW 210600Z AUTO 16008KT 16SM 31/26 A2977 RMK SLP082 T03110257 57019 IEM_DS3505
ZGOW,2010-05-21 07:00,ZGOW 210700Z AUTO 19012KT 7SM 31/28 A2977 RMK T03100280 IEM_DS3505
ZGOW,2010-05-21 08:00,ZGOW 210800Z AUTO 20012KT 7SM 31/28 A2974 RMK T03100280 IEM_DS3505
ZGOW,2010-05-21 09:00,ZGOW 210900Z AUTO 20006KT 12SM 31/25 A2974 RMK SLP068 T03070248 57014 IEM_DS3505
ZGOW,2010-05-21 10:00,ZGOW 211000Z AUTO 20010KT 7SM 29/28 A2974 RMK T02900280 IEM_DS3505
ZGOW,2010-05-21 11:00,ZGOW 211100Z AUTO 19010KT 7SM 28/28 A2974 RMK T02800280 IEM_DS3505
ZGOW,2010-05-21 12:00,ZGOW 211200Z AUTO 20006KT 9SM 28/25 A2977 RMK SLP076 T02800254 52008 IEM_DS3505
ZGOW,2010-05-21 13:00,ZGOW 211300Z AUTO 19010KT 4SM 28/27 A2977 RMK T02800270 IEM_DS3505
ZGOW,2010-05-21 14:00,ZGOW 211400Z AUTO 20008KT 4SM 28/27 A2977 RMK T02800270 IEM_DS3505
ZGOW,2010-05-21 15:00,ZGOW 211500Z AUTO 16002KT 9SM 28/26 A2977 RMK SLP076 T02780256 54000 IEM_DS3505
ZGOW,2010-05-21 16:00,ZGOW 211600Z AUTO 20010KT 4SM 28/27 A2974 RMK T02800270 IEM_DS3505
ZGOW,2010-05-21 17:00,ZGOW 211700Z AUTO 20010KT 4SM 28/27 A2974 RMK T02800270 IEM_DS3505
ZGOW,2010-05-21 18:00,ZGOW 211800Z AUTO 18006KT 9SM 27/25 A2971 RMK SLP059 T02740254 57017 IEM_DS3505
ZGOW,2010-05-21 19:00,ZGOW 211900Z AUTO 20008KT 3SM 27/27 A2971 RMK T02700270 IEM_DS3505
ZGOW,2010-05-21 20:00,ZGOW 212000Z AUTO 21008KT 3SM 27/27 A2971 RMK T02700270 IEM_DS3505
ZGOW,2010-05-21 21:00,ZGOW 212100Z AUTO 20002KT 7SM 27/26 A2971 RMK 70033 SLP056 T02680258 57003 IEM_DS3505
ZGOW,2010-05-21 22:00,ZGOW 212200Z AUTO 21008KT 2 1/2SM 27/27 A2971 RMK T02700270 IEM_DS3505
ZGOW,2010-05-21 23:00,ZGOW 212300Z AUTO 22006KT 2 1/2SM 27/27 A2974 RMK T02700270 IEM_DS3505
ZGOW,2010-05-22 00:00,ZGOW 220000Z AUTO 20004KT 9SM 28/26 A2974 RMK 60035 70035 SLP066 T02770261 52010 IEM_DS3505
ZGOW,2010-05-22 01:00,ZGOW 220100Z AUTO 21010KT 4SM 29/28 A2971 RMK T02900280 IEM_DS3505
ZGOW,2010-05-22 02:00,ZGOW 220200Z AUTO 22008KT 4SM 29/28 A2974 RMK T02900280 IEM_DS3505
ZGOW,2010-05-22 03:00,ZGOW 220300Z AUTO 18006KT 12SM 30/26 A2971 RMK SLP057 T02970263 57009 IEM_DS3505
ZGOW,2010-05-22 04:00,ZGOW 220400Z AUTO 22008KT 1 1/4SM 26/26 A2971 RMK T02600260 IEM_DS3505
ZGOW,2010-05-22 05:00,ZGOW 220500Z AUTO 21012KT 7SM 30/28 A2968 RMK T03000280 IEM_DS3505
ZGOW,2010-05-22 06:00,ZGOW 220600Z AUTO 25012G27KT 5SM 26/24 A2968 RMK 60067 SLP050 T02560240 57007 IEM_DS3505
ZGOW,2010-05-22 07:00,ZGOW 220700Z AUTO 28006KT 7SM 25/25 A2965 RMK T02500250 IEM_DS3505
ZGOW,2010-05-22 08:00,ZGOW 220800Z AUTO 25002KT 7SM 26/26 A2962 RMK T02600260 IEM_DS3505
ZGOW,2010-05-22 09:00,ZGOW 220900Z AUTO 18004KT 7SM 28/26 A2962 RMK SLP023 T02770261 57027 IEM_DS3505
ZGOW,2010-05-22 10:00,ZGOW 221000Z AUTO 20008KT 7SM 28/27 A2959 RMK T02800270 IEM_DS3505
ZGOW,2010-05-22 11:00,ZGOW 221100Z AUTO 20008KT 7SM 28/27 A2962 RMK T02800270 IEM_DS3505
ZGOW,2010-05-22 12:00,ZGOW 221200Z AUTO 18004KT 11SM 28/26 A2962 RMK 60012 SLP025 T02780258 52002 IEM_DS3505
ZGOW,2010-05-22 13:00,ZGOW 221300Z AUTO 20010KT 7SM 28/28 A2962 RMK T02800280 IEM_DS3505
ZGOW,2010-05-22 14:00,ZGOW 221400Z AUTO 20010KT 7SM 28/27 A2962 RMK T02800270 IEM_DS3505
ZGOW,2010-05-22 15:00,ZGOW 221500Z AUTO 20002KT 11SM 28/26 A2962 RMK SLP027 T02790257 52002 IEM_DS3505
ZGOW,2010-05-22 16:00,ZGOW 221600Z AUTO 19006KT 4SM 28/28 A2959 RMK T02800280 IEM_DS3505
ZGOW,2010-05-22 17:00,ZGOW 221700Z AUTO 20010KT 7SM 27/27 A2956 RMK T02700270 IEM_DS3505
ZGOW,2010-05-22 18:00,ZGOW 221800Z AUTO 18004KT 6SM 28/26 A2953 RMK 60008 SLP999 T02750259 57028 IEM_DS3505
ZGOW,2010-05-22 19:00,ZGOW 221900Z AUTO 22008KT 1 1/2SM 27/ A2953 RMK IEM_DS3505
ZGOW,2010-05-22 20:00,ZGOW 222000Z AUTO 24010KT 2 1/2SM 26/26 A2950 RMK T02600260 IEM_DS3505
ZGOW,2010-05-22 21:00,ZGOW 222100Z AUTO 22008G27KT 5SM 25/24 A2953 RMK 70280 SLP003 T02480236 52004 IEM_DS3505
ZGOW,2010-05-22 22:00,ZGOW 222200Z AUTO 27004KT 4SM 25/25 A2953 RMK T02500250 IEM_DS3505
ZGOW,2010-05-22 23:00,ZGOW 222300Z AUTO 24006KT 2 1/2SM 25/25 A2959 RMK T02500250 IEM_DS3505
ZGOW,2010-05-23 00:00,ZGOW 230000Z AUTO 27004KT 5SM 25/24 A2959 RMK 60236 70326 SLP021 T02480239 52018 IEM_DS3505
ZGOW,2010-05-23 01:00,ZGOW 230100Z AUTO 32008KT 3SM 24/24 A2962 RMK T02400240 IEM_DS3505
ZGOW,2010-05-23 02:00,ZGOW 230200Z AUTO 30008KT 7SM 24/23 A2962 RMK T02400230 IEM_DS3505
ZGOW,2010-05-23 03:00,ZGOW 230300Z AUTO 29004KT 7SM 26/22 A2962 RMK SLP025 T02640223 52004 IEM_DS3505
ZGOW,2010-05-23 04:00,ZGOW 230400Z AUTO 32008KT 7SM 28/25 A2962 RMK T02800250 IEM_DS3505
ZGOW,2010-05-23 05:00,ZGOW 230500Z AUTO 33010KT 7SM 28/23 A2959 RMK T02800230 IEM_DS3505
ZGOW,2010-05-23 06:00,ZGOW 230600Z AUTO 27010KT 9SM 29/20 A2956 RMK 60002 SLP009 T02880205 57016 IEM_DS3505
ZGOW,2010-05-23 07:00,ZGOW 230700Z AUTO 30008KT 7SM 29/23 A2956 RMK T02900230 IEM_DS3505
ZGOW,2010-05-23 08:00,ZGOW 230800Z AUTO 32012KT 7SM 27/21 A2959 RMK T02700210 IEM_DS3505
ZGOW,2010-05-23 09:00,ZGOW 230900Z AUTO 32002KT 11SM 27/18 A2959 RMK SLP021 T02730180 52012 IEM_DS3505
ZGOW,2010-05-23 10:00,ZGOW 231000Z AUTO 31008KT 7SM 26/21 A2962 RMK T02600210 IEM_DS3505
ZGOW,2010-05-23 11:00,ZGOW 231100Z AUTO 30008KT 7SM 26/20 A2965 RMK T02600200 IEM_DS3505
ZGOW,2010-05-23 12:00,ZGOW 231200Z AUTO 29006KT 9SM 26/17 A2968 RMK SLP045 T02560167 52024 IEM_DS3505
ZGOW,2010-05-23 13:00,ZGOW 231300Z AUTO 36004KT 6SM 24/20 A2968 RMK T02400200 IEM_DS3505
ZGOW,2010-05-23 14:00,ZGOW 231400Z AUTO 32004KT 6SM 24/21 A2968 RMK T02400210 IEM_DS3505
ZGOW,2010-05-23 15:00,ZGOW 231500Z AUTO 29002KT 9SM 24/17 A2968 RMK SLP052 T02420170 52007 IEM_DS3505
ZGOW,2010-05-23 16:00,ZGOW 231600Z AUTO 31004KT 6SM 22/20 A2968 RMK T02200200 IEM_DS3505
ZGOW,2010-05-23 18:00,ZGOW 231800Z AUTO 00000KT 9SM 20/18 RMK SLP047 T02010179 57005 IEM_DS3505
ZGOW,2010-05-23 21:00,ZGOW 232100Z AUTO 04002KT 9SM 21/16 RMK 70051 SLP055 T02090165 52007 IEM_DS3505
ZGOW,2010-05-24 00:00,ZGOW 240000Z AUTO 07004KT 11SM 24/17 A2980 RMK 70002 SLP084 T02420172 52029 IEM_DS3505
ZGOW,2010-05-24 01:00,ZGOW 240100Z AUTO 08010KT 7SM 25/22 A2980 RMK T02500220 IEM_DS3505
ZGOW,2010-05-24 02:00,ZGOW 240200Z AUTO 08010KT 7SM 25/22 A2980 RMK T02500220 IEM_DS3505
ZGOW,2010-05-24 03:00,ZGOW 240300Z AUTO 09006KT 11SM 26/20 A2980 RMK SLP088 T02650196 52004 IEM_DS3505
ZGOW,2010-05-24 04:00,ZGOW 240400Z AUTO 07008KT 7SM 27/21 A2977 RMK T02700210 IEM_DS3505
ZGOW,2010-05-24 05:00,ZGOW 240500Z AUTO 12006KT 7SM 27/21 A2977 RMK T02700210 IEM_DS3505
ZGOW,2010-05-24 06:00,ZGOW 240600Z AUTO 11004KT 11SM 28/16 A2974 RMK SLP069 T02780164 57019 IEM_DS3505
ZGOW,2010-05-24 07:00,ZGOW 240700Z AUTO 13006KT 7SM 27/23 A2971 RMK T02700230 IEM_DS3505
ZGOW,2010-05-24 08:00,ZGOW 240800Z AUTO 14006KT 7SM 27/23 A2971 RMK T02700230 IEM_DS3505
ZGOW,2010-05-24 09:00,ZGOW 240900Z AUTO 11008KT 11SM 26/16 A2971 RMK SLP058 T02650161 57011 IEM_DS3505
ZGOW,2010-05-24 10:00,ZGOW 241000Z AUTO 14008KT 7SM 25/22 A2971 RMK T02500220 IEM_DS3505
ZGOW,2010-05-24 11:00,ZGOW 241100Z AUTO 13006KT 6SM 24/21 A2974 RMK T02400210 IEM_DS3505
ZGOW,2010-05-24 12:00,ZGOW 241200Z AUTO 14004KT 10SM 24/18 A2977 RMK SLP076 T02430183 52018 IEM_DS3505
ZGOW,2010-05-24 13:00,ZGOW 241300Z AUTO 10002KT 6SM 23/21 A2980 RMK T02300210 IEM_DS3505
ZGOW,2010-05-24 14:00,ZGOW 241400Z AUTO 08002KT 6SM 22/21 A2980 RMK T02200210 IEM_DS3505
ZGOW,2010-05-24 15:00,ZGOW 241500Z AUTO 07004KT 10SM 24/19 A2980 RMK SLP089 T02370192 52013 IEM_DS3505
ZGOW,2010-05-24 16:00,ZGOW 241600Z AUTO 04004KT 6SM 21/21 A2980 RMK T02100210 IEM_DS3505
ZGOW,2010-05-24 17:00,ZGOW 241700Z AUTO 04006KT 6SM 21/20 A2980 RMK T02100200 IEM_DS3505
ZGOW,2010-05-24 18:00,ZGOW 241800Z AUTO 07002KT 6SM 22/19 A2977 RMK SLP080 T02230193 57009 IEM_DS3505
ZGOW,2010-05-24 19:00,ZGOW 241900Z AUTO 34002KT 4SM 22/21 A2977 RMK T02200210 IEM_DS3505
ZGOW,2010-05-24 21:00,ZGOW 242100Z AUTO 00000KT 6SM 21/20 A2977 RMK SLP079 T02140195 57001 IEM_DS3505
ZGOW,2010-05-24 22:00,ZGOW 242200Z AUTO 33004KT 4SM 21/21 A2977 RMK T02100210 IEM_DS3505
ZGOW,2010-05-24 23:00,ZGOW 242300Z AUTO 32004KT 4SM 22/22 A2980 RMK T02200220 IEM_DS3505
ZGOW,2010-05-25 00:00,ZGOW 250000Z AUTO 27002KT 7SM 24/20 A2980 RMK SLP091 T02430196 52012 IEM_DS3505
ZGOW,2010-05-25 01:00,ZGOW 250100Z AUTO 35002KT 6SM 26/21 A2980 RMK T02600210 IEM_DS3505
ZGOW,2010-05-25 02:00,ZGOW 250200Z AUTO 14006KT 6SM 27/23 A2980 RMK T02700230 IEM_DS3505
ZGOW,2010-05-25 03:00,ZGOW 250300Z AUTO 16004KT 11SM 28/18 A2983 RMK SLP094 T02800181 52004 IEM_DS3505
ZGOW,2010-05-25 04:00,ZGOW 250400Z AUTO 14006KT 6SM 28/23 A2980 RMK T02800230 IEM_DS3505
ZGOW,2010-05-25 05:00,ZGOW 250500Z AUTO 12006KT 6SM 29/22 A2980 RMK T02900220 IEM_DS3505
ZGOW,2010-05-25 06:00,ZGOW 250600Z AUTO 09006KT 12SM 29/16 A2977 RMK SLP077 T02930161 57017 IEM_DS3505
ZGOW,2010-05-25 07:00,ZGOW 250700Z AUTO 13008KT 6SM 29/22 A2974 RMK T02900220 IEM_DS3505
ZGOW,2010-05-25 08:00,ZGOW 250800Z AUTO 13008KT 6SM 29/22 A2974 RMK T02900220 IEM_DS3505
ZGOW,2010-05-25 09:00,ZGOW 250900Z AUTO 11006KT 11SM 29/14 A2974 RMK SLP067 T02880135 57010 IEM_DS3505
ZGOW,2010-05-25 10:00,ZGOW 251000Z AUTO 10006KT 6SM 26/20 A2974 RMK T02600200 IEM_DS3505
ZGOW,2010-05-25 11:00,ZGOW 251100Z AUTO 10006KT 6SM 25/20 A2977 RMK T02500200 IEM_DS3505
ZGOW,2010-05-25 12:00,ZGOW 251200Z AUTO 09006KT 11SM 26/15 A2980 RMK SLP087 T02580146 52019 IEM_DS3505
ZGOW,2010-05-25 13:00,ZGOW 251300Z AUTO 09002KT 6SM 23/20 A2983 RMK T02300200 IEM_DS3505
ZGOW,2010-05-25 14:00,ZGOW 251400Z AUTO 04004KT 6SM 23/19 A2985 RMK T02300190 IEM_DS3505
ZGOW,2010-05-25 15:00,ZGOW 251500Z AUTO 07004KT 9SM 24/17 A2983 RMK SLP101 T02420172 52015 IEM_DS3505
ZGOW,2010-05-25 16:00,ZGOW 251600Z AUTO 04006KT 6SM 21/20 A2983 RMK T02100200 IEM_DS3505
ZGOW,2010-05-25 17:00,ZGOW 251700Z AUTO 04006KT 3SM 21/19 A2983 RMK T02100190 IEM_DS3505
ZGOW,2010-05-25 18:00,ZGOW 251800Z AUTO 07002KT 9SM 24/17 A2980 RMK SLP088 T02360169 57013 IEM_DS3505
ZGOW,2010-05-25 19:00,ZGOW 251900Z AUTO 01006KT 3SM 22/17 A2980 RMK T02200170 IEM_DS3505
ZGOW,2010-05-25 21:00,ZGOW 252100Z AUTO 07002KT 9SM 23/12 A2977 RMK SLP079 T02290125 57009 IEM_DS3505
ZGOW,2010-05-25 22:00,ZGOW 252200Z AUTO 02006KT 7SM 22/18 A2980 RMK T02200180 IEM_DS3505
ZGOW,2010-05-25 23:00,ZGOW 252300Z AUTO 04006KT 7SM 24/18 A2980 RMK T02400180 IEM_DS3505
ZGOW,2010-05-26 00:00,ZGOW 260000Z AUTO 09002KT 12SM 26/12 A2980 RMK SLP088 T02600117 52009 IEM_DS3505
ZGOW,2010-05-26 01:00,ZGOW 260100Z AUTO 06008KT 7SM 25/18 A2983 RMK T02500180 IEM_DS3505
ZGOW,2010-05-26 02:00,ZGOW 260200Z AUTO 07012KT 7SM 26/18 A2980 RMK T02600180 IEM_DS3505
ZGOW,2010-05-26 03:00,ZGOW 260300Z AUTO 07006KT 7SM 27/14 A2983 RMK SLP096 T02710138 52007 IEM_DS3505
ZGOW,2010-05-26 04:00,ZGOW 260400Z AUTO 08008KT 7SM 26/21 A2983 RMK T02600210 IEM_DS3505
ZGOW,2010-05-26 05:00,ZGOW 260500Z AUTO 08010KT 7SM 26/22 A2980 RMK T02600220 IEM_DS3505
ZGOW,2010-05-26 06:00,ZGOW 260600Z AUTO 07006KT 7SM 27/17 A2977 RMK SLP078 T02720171 57017 IEM_DS3505
ZGOW,2010-05-26 07:00,ZGOW 260700Z AUTO 08010KT 7SM 26/23 A2977 RMK T02600230 IEM_DS3505
ZGOW,2010-05-26 08:00,ZGOW 260800Z AUTO 08010KT 7SM 25/22 A2977 RMK T02500220 IEM_DS3505
ZGOW,2010-05-26 09:00,ZGOW 260900Z AUTO 04004KT 7SM 26/19 A2974 RMK SLP072 T02600192 57007 IEM_DS3505
ZGOW,2010-05-26 10:00,ZGOW 261000Z AUTO 07010KT 4SM 25/23 A2977 RMK T02500230 IEM_DS3505
ZGOW,2010-05-26 11:00,ZGOW 261100Z AUTO 07012KT 4SM 25/23 A2980 RMK T02500230 IEM_DS3505
ZGOW,2010-05-26 12:00,ZGOW 261200Z AUTO 09008KT 6SM 25/21 A2983 RMK 60000 SLP094 T02540213 52022 IEM_DS3505
ZGOW,2010-05-26 13:00,ZGOW 261300Z AUTO 08016KT 4SM 24/23 A2983 RMK T02400230 IEM_DS3505
ZGOW,2010-05-26 14:00,ZGOW 261400Z AUTO 07010KT 3SM 23/23 A2985 RMK T02300230 IEM_DS3505
ZGOW,2010-05-26 15:00,ZGOW 261500Z AUTO 07008KT 5SM 24/22 A2983 RMK SLP104 T02400217 52010 IEM_DS3505
ZGOW,2010-05-26 16:00,ZGOW 261600Z AUTO 05017KT 7SM 24/23 A2983 RMK T02400230 IEM_DS3505
ZGOW,2010-05-26 17:00,ZGOW 261700Z AUTO 06012KT 7SM 24/22 A2983 RMK T02400220 IEM_DS3505
ZGOW,2010-05-26 18:00,ZGOW 261800Z AUTO 09004KT 6SM 24/21 A2980 RMK 60002 SLP090 T02420207 57013 IEM_DS3505
ZGOW,2010-05-26 19:00,ZGOW 261900Z AUTO 07014KT 1 1/4SM 23/22 A2980 RMK T02300220 IEM_DS3505
ZGOW,2010-05-26 20:00,ZGOW 262000Z AUTO 07012KT 1SM 22/22 A2980 RMK T02200220 IEM_DS3505
ZGOW,2010-05-26 21:00,ZGOW 262100Z AUTO 07008KT 3SM 22/21 A2980 RMK 70013 SLP091 T02210211 54000 IEM_DS3505
ZGOW,2010-05-26 22:00,ZGOW 262200Z AUTO 05010KT 1SM 22/22 A2980 RMK T02200220 IEM_DS3505
ZGOW,2010-05-26 23:00,ZGOW 262300Z AUTO 04008KT 1 1/4SM 22/22 A2980 RMK T02200220 IEM_DS3505
ZGOW,2010-05-27 00:00,ZGOW 270000Z AUTO 07004KT 4SM 23/21 A2983 RMK 60012 70013 SLP097 T02300211 52006 IEM_DS3505
ZGOW,2010-05-27 01:00,ZGOW 270100Z AUTO 04010KT 3SM 24/23 A2983 RMK T02400230 IEM_DS3505
ZGOW,2010-05-27 02:00,ZGOW 270200Z AUTO 05014KT 7SM 25/24 A2983 RMK T02500240 IEM_DS3505
ZGOW,2010-05-27 03:00,ZGOW 270300Z AUTO 07010KT 4SM 24/22 A2983 RMK SLP096 T02430222 57001 IEM_DS3505
ZGOW,2010-05-27 04:00,ZGOW 270400Z AUTO 07016KT 4SM 24/24 A2983 RMK T02400240 IEM_DS3505
ZGOW,2010-05-27 05:00,ZGOW 270500Z AUTO 06014KT 4SM 25/25 A2980 RMK T02500250 IEM_DS3505
ZGOW,2010-05-27 06:00,ZGOW 270600Z AUTO 07008KT 7SM 25/22 A2977 RMK 60000 SLP082 T02480223 57014 IEM_DS3505
ZGOW,2010-05-27 07:00,ZGOW 270700Z AUTO 07016KT 5SM 25/24 A2977 RMK T02500240 IEM_DS3505
ZGOW,2010-05-27 08:00,ZGOW 270800Z AUTO 07016KT 4SM 24/23 A2977 RMK T02400230 IEM_DS3505
ZGOW,2010-05-27 09:00,ZGOW 270900Z AUTO 07010KT 6SM 24/22 A2977 RMK SLP076 T02360219 57006 IEM_DS3505
ZGOW,2010-05-27 10:00,ZGOW 271000Z AUTO 07017KT 4SM 23/23 A2977 RMK T02300230 IEM_DS3505
ZGOW,2010-05-27 11:00,ZGOW 271100Z AUTO 07016KT 5SM 23/23 A2977 RMK T02300230 IEM_DS3505
ZGOW,2010-05-27 12:00,ZGOW 271200Z AUTO 07008G29KT 6SM 23/21 A2980 RMK 60000 SLP091 T02310214 52015 IEM_DS3505
ZGOW,2010-05-27 13:00,ZGOW 271300Z AUTO 06014KT 4SM 23/23 A2983 RMK T02300230 IEM_DS3505
ZGOW,2010-05-27 14:00,ZGOW 271400Z AUTO 06012KT 4SM 23/23 A2983 RMK T02300230 IEM_DS3505
ZGOW,2010-05-27 15:00,ZGOW 271500Z AUTO 07006KT 7SM 24/21 A2983 RMK SLP100 T02370214 52009 IEM_DS3505
ZGOW,2010-05-27 16:00,ZGOW 271600Z AUTO 07012KT 7SM 23/23 A2983 RMK T02300230 IEM_DS3505
ZGOW,2010-05-27 17:00,ZGOW 271700Z AUTO 07012KT 4SM 23/23 A2980 RMK T02300230 IEM_DS3505
ZGOW,2010-05-27 18:00,ZGOW 271800Z AUTO 07006KT 7SM 23/21 A2980 RMK 60000 SLP084 T02280214 57016 IEM_DS3505
ZGOW,2010-05-27 19:00,ZGOW 271900Z AUTO 05006KT 2SM 23/23 A2980 RMK T02300230 IEM_DS3505
ZGOW,2010-05-27 20:00,ZGOW 272000Z AUTO 05006KT 2SM 23/23 A2977 RMK T02300230 IEM_DS3505
ZGOW,2010-05-27 21:00,ZGOW 272100Z AUTO 00000KT 9SM 23/22 A2977 RMK 70002 SLP082 T02320215 57002 IEM_DS3505
ZGOW,2010-05-27 22:00,ZGOW 272200Z AUTO 06004KT 7SM 23/23 A2980 RMK T02300230 IEM_DS3505
ZGOW,2010-05-27 23:00,ZGOW 272300Z AUTO 04004KT 7SM 24/23 A2980 RMK T02400230 IEM_DS3505
ZGOW,2010-05-28 00:00,ZGOW 280000Z AUTO 07002KT 8SM 25/22 A2980 RMK 60000 70001 SLP090 T02460217 52008 IEM_DS3505
ZGOW,2010-05-28 01:00,ZGOW 280100Z AUTO 04006KT 7SM 26/24 A2980 RMK T02600240 IEM_DS3505
ZGOW,2010-05-28 02:00,ZGOW 280200Z AUTO 08006KT 7SM 26/24 A2983 RMK T02600240 IEM_DS3505
ZGOW,2010-05-28 03:00,ZGOW 280300Z AUTO 00000KT 7SM 27/22 A2983 RMK SLP096 T02690219 52006 IEM_DS3505
ZGOW,2010-05-28 04:00,ZGOW 280400Z AUTO 10004KT 7SM 26/24 A2980 RMK T02600240 IEM_DS3505
ZGOW,2010-05-28 05:00,ZGOW 280500Z AUTO 08006KT 7SM 28/25 A2977 RMK T02800250 IEM_DS3505
ZGOW,2010-05-28 06:00,ZGOW 280600Z AUTO 00000KT 6SM 29/22 A2974 RMK SLP072 T02920224 57023 IEM_DS3505
ZGOW,2010-05-28 07:00,ZGOW 280700Z AUTO 12008KT 7SM 28/25 A2974 RMK T02800250 IEM_DS3505
ZGOW,2010-05-28 08:00,ZGOW 280800Z AUTO 14006KT 7SM 27/25 A2974 RMK T02700250 IEM_DS3505
ZGOW,2010-05-28 09:00,ZGOW 280900Z AUTO 14006KT 9SM 26/23 A2974 RMK SLP064 T02650230 57009 IEM_DS3505
ZGOW,2010-05-28 10:00,ZGOW 281000Z AUTO 16008KT 7SM 25/24 A2974 RMK T02500240 IEM_DS3505
ZGOW,2010-05-28 11:00,ZGOW 281100Z AUTO 15008KT 4SM 24/24 A2977 RMK T02400240 IEM_DS3505
ZGOW,2010-05-28 12:00,ZGOW 281200Z AUTO 14004KT 7SM 25/22 A2980 RMK SLP086 T02470224 52022 IEM_DS3505
ZGOW,2010-05-28 13:00,ZGOW 281300Z AUTO 16006KT 4SM 24/24 A2980 RMK T02400240 IEM_DS3505
ZGOW,2010-05-28 14:00,ZGOW 281400Z AUTO 13006KT 3SM 24/24 A2983 RMK T02400240 IEM_DS3505
ZGOW,2010-05-28 15:00,ZGOW 281500Z AUTO 11002KT 4SM 24/23 A2983 RMK SLP100 T02360228 52014 IEM_DS3505
ZGOW,2010-05-28 16:00,ZGOW 281600Z AUTO 12004KT 1 1/2SM 23/23 A2980 RMK T02300230 IEM_DS3505
ZGOW,2010-05-28 17:00,ZGOW 281700Z AUTO 10002KT 1 1/2SM 23/23 A2980 RMK T02300230 IEM_DS3505
ZGOW,2010-05-28 18:00,ZGOW 281800Z AUTO 14002KT 3SM 24/23 A2977 RMK 60075 SLP078 T02370229 57021 IEM_DS3505
ZGOW,2010-05-28 19:00,ZGOW 281900Z AUTO 00000KT 1 1/2SM 23/23 A2977 RMK T02300230 IEM_DS3505
ZGOW,2010-05-28 20:00,ZGOW 282000Z AUTO 00000KT 1 1/2SM 23/23 A2977 RMK T02300230 IEM_DS3505
ZGOW,2010-05-28 21:00,ZGOW 282100Z AUTO 00000KT 4SM 24/23 A2977 RMK 70073 SLP075 T02380230 57004 IEM_DS3505
ZGOW,2010-05-28 22:00,ZGOW 282200Z AUTO 00000KT 1 1/2SM 24/24 A2977 RMK T02400240 IEM_DS3505
ZGOW,2010-05-28 23:00,ZGOW 282300Z AUTO 00000KT 1 1/2SM 24/24 A2977 RMK T02400240 IEM_DS3505
ZGOW,2010-05-29 00:00,ZGOW 290000Z AUTO 22002KT 3SM 25/23 A2980 RMK 60000 70073 SLP085 T02480234 52010 IEM_DS3505
ZGOW,2010-05-29 01:00,ZGOW 290100Z AUTO 02002KT 1 1/4SM 25/25 A2977 RMK T02500250 IEM_DS3505
ZGOW,2010-05-29 02:00,ZGOW 290200Z AUTO 01002KT 1 1/2SM 27/26 A2977 RMK T02700260 IEM_DS3505
ZGOW,2010-05-29 03:00,ZGOW 290300Z AUTO 25004KT 6SM 29/24 A2977 RMK SLP075 T02910238 57009 IEM_DS3505
ZGOW,2010-05-29 04:00,ZGOW 290400Z AUTO 13006KT 1 1/2SM 28/27 A2974 RMK T02800270 IEM_DS3505
ZGOW,2010-05-29 05:00,ZGOW 290500Z AUTO 14008KT 2SM 29/27 A2971 RMK T02900270 IEM_DS3505
ZGOW,2010-05-29 06:00,ZGOW 290600Z AUTO 16008KT 9SM 30/25 A2971 RMK SLP055 T02970248 57020 IEM_DS3505
ZGOW,2010-05-29 07:00,ZGOW 290700Z AUTO 16010KT 4SM 29/27 A2968 RMK T02900270 IEM_DS3505
ZGOW,2010-05-29 08:00,ZGOW 290800Z AUTO 16010KT 2 1/2SM 27/26 A2968 RMK T02700260 IEM_DS3505
ZGOW,2010-05-29 09:00,ZGOW 290900Z AUTO 18004KT 7SM 26/24 A2968 RMK SLP049 T02630242 57006 IEM_DS3505
ZGOW,2010-05-29 10:00,ZGOW 291000Z AUTO 16008KT 1 1/2SM 26/26 A2971 RMK T02600260 IEM_DS3505
ZGOW,2010-05-29 11:00,ZGOW 291100Z AUTO 14004KT 1 1/4SM 26/26 A2971 RMK T02600260 IEM_DS3505
ZGOW,2010-05-29 12:00,ZGOW 291200Z AUTO 00000KT 2 1/2SM 26/25 A2971 RMK 60047 SLP060 T02590250 52011 IEM_DS3505
ZGOW,2010-05-29 13:00,ZGOW 291300Z AUTO 14002KT 2SM 26/26 A2974 RMK T02600260 IEM_DS3505
ZGOW,2010-05-29 14:00,ZGOW 291400Z AUTO 06002KT 1 1/4SM 25/25 A2974 RMK T02500250 IEM_DS3505
ZGOW,2010-05-29 15:00,ZGOW 291500Z AUTO 00000KT 4SM 26/25 A2974 RMK SLP064 T02570250 52004 IEM_DS3505
ZGOW,2010-05-29 16:00,ZGOW 291600Z AUTO 06014KT 7SM 24/24 A2974 RMK T02400240 IEM_DS3505
ZGOW,2010-05-29 17:00,ZGOW 291700Z AUTO 07014KT 7SM 23/23 A2971 RMK T02300230 IEM_DS3505
ZGOW,2010-05-29 18:00,ZGOW 291800Z AUTO 07004KT 7SM 24/23 A2971 RMK 60087 SLP059 T02360226 57005 IEM_DS3505
ZGOW,2010-05-29 19:00,ZGOW 291900Z AUTO 07012KT 2SM 23/23 A2971 RMK T02300230 IEM_DS3505
ZGOW,2010-05-29 20:00,ZGOW 292000Z AUTO 06008KT 2SM 23/23 A2971 RMK T02300230 IEM_DS3505
ZGOW,2010-05-29 21:00,ZGOW 292100Z AUTO 07004KT 9SM 23/22 A2971 RMK 70136 SLP063 T02320218 52003 IEM_DS3505
ZGOW,2010-05-29 22:00,ZGOW 292200Z AUTO 07006KT 7SM 23/23 A2971 RMK T02300230 IEM_DS3505
ZGOW,2010-05-29 23:00,ZGOW 292300Z AUTO 07010KT 7SM 23/23 A2974 RMK T02300230 IEM_DS3505
ZGOW,2010-05-30 00:00,ZGOW 300000Z AUTO 07004KT 9SM 24/22 A2974 RMK 60002 70137 SLP071 T02400221 52008 IEM_DS3505
ZGOW,2010-05-30 01:00,ZGOW 300100Z AUTO 07010KT 7SM 24/24 A2977 RMK T02400240 IEM_DS3505
ZGOW,2010-05-30 02:00,ZGOW 300200Z AUTO 08004KT 7SM 24/24 A2977 RMK T02400240 IEM_DS3505
ZGOW,2010-05-30 03:00,ZGOW 300300Z AUTO 14002KT 8SM 24/22 A2977 RMK SLP077 T02390222 52006 IEM_DS3505
ZGOW,2010-05-30 04:00,ZGOW 300400Z AUTO 08004KT 5SM 23/23 A2977 RMK T02300230 IEM_DS3505
ZGOW,2010-05-30 05:00,ZGOW 300500Z AUTO 08006KT 2 1/2SM 23/23 A2977 RMK T02300230 IEM_DS3505
ZGOW,2010-05-30 06:00,ZGOW 300600Z AUTO 07006KT 4SM 23/22 A2974 RMK 60002 SLP069 T02280220 57008 IEM_DS3505
ZGOW,2010-05-30 07:00,ZGOW 300700Z AUTO 07010KT 2 1/2SM 22/22 A2974 RMK T02200220 IEM_DS3505
ZGOW,2010-05-30 08:00,ZGOW 300800Z AUTO 07010KT 1 1/4SM 22/22 A2974 RMK T02200220 IEM_DS3505
ZGOW,2010-05-30 09:00,ZGOW 300900Z AUTO 07006KT 4SM 22/21 A2974 RMK SLP066 T02190212 57003 IEM_DS3505
ZGOW,2010-05-30 10:00,ZGOW 301000Z AUTO 08010KT 4SM 22/22 A2974 RMK T02200220 IEM_DS3505
ZGOW,2010-05-30 11:00,ZGOW 301100Z AUTO 08010KT 2 1/2SM 21/21 A2977 RMK T02100210 IEM_DS3505
ZGOW,2010-05-30 12:00,ZGOW 301200Z AUTO 07006KT 4SM 22/21 A2977 RMK 60051 SLP081 T02150207 52015 IEM_DS3505
ZGOW,2010-05-30 13:00,ZGOW 301300Z AUTO 08010KT 4SM 21/21 A2980 RMK T02100210 IEM_DS3505
ZGOW,2010-05-30 14:00,ZGOW 301400Z AUTO 07012KT 4SM 21/21 A2980 RMK T02100210 IEM_DS3505
ZGOW,2010-05-30 15:00,ZGOW 301500Z AUTO 07004KT 9SM 22/21 A2980 RMK SLP089 T02200206 52008 IEM_DS3505
ZGOW,2010-05-30 16:00,ZGOW 301600Z AUTO 07008KT 5SM 22/21 A2980 RMK T02200210 IEM_DS3505
ZGOW,2010-05-30 18:00,ZGOW 301800Z AUTO 04004KT 9SM 22/20 RMK 60001 SLP081 T02220197 57008 IEM_DS3505
ZGOW,2010-05-30 19:00,ZGOW 301900Z AUTO 07006KT 2SM 22/21 A2977 RMK T02200210 IEM_DS3505
ZGOW,2010-05-30 20:00,ZGOW 302000Z AUTO 10004KT 2SM 22/21 A2977 RMK T02200210 IEM_DS3505
ZGOW,2010-05-30 21:00,ZGOW 302100Z AUTO 04004KT 7SM 22/20 A2977 RMK 70053 SLP078 T02230195 57003 IEM_DS3505
ZGOW,2010-05-30 22:00,ZGOW 302200Z AUTO 06006KT 7SM 22/19 A2980 RMK T02200190 IEM_DS3505
ZGOW,2010-05-30 23:00,ZGOW 302300Z AUTO 06004KT 7SM 22/20 A2980 RMK T02200200 IEM_DS3505
ZGOW,2010-05-31 00:00,ZGOW 310000Z AUTO 09004KT 7SM 23/18 A2980 RMK 70052 SLP089 T02310182 52011 IEM_DS3505
ZGOW,2010-05-31 01:00,ZGOW 310100Z AUTO 06008KT 7SM 23/21 A2980 RMK T02300210 IEM_DS3505
ZGOW,2010-05-31 02:00,ZGOW 310200Z AUTO 07008KT 7SM 24/21 A2983 RMK T02400210 IEM_DS3505
ZGOW,2010-05-31 03:00,ZGOW 310300Z AUTO 09004KT 7SM 25/19 A2983 RMK SLP092 T02470186 52003 IEM_DS3505
ZGOW,2010-05-31 04:00,ZGOW 310400Z AUTO 06004KT 7SM 25/21 A2980 RMK T02500210 IEM_DS3505
ZGOW,2010-05-31 05:00,ZGOW 310500Z AUTO 09004KT 6SM 26/22 A2980 RMK T02600220 IEM_DS3505
ZGOW,2010-05-31 06:00,ZGOW 310600Z AUTO 09004KT 9SM 26/17 A2977 RMK SLP078 T02650167 57014 IEM_DS3505
ZGOW,2010-05-31 07:00,ZGOW 310700Z AUTO 13004KT 6SM 26/22 A2977 RMK T02600220 IEM_DS3505
ZGOW,2010-05-31 08:00,ZGOW 310800Z AUTO 15004KT 6SM 25/22 A2977 RMK T02500220 IEM_DS3505
ZGOW,2010-05-31 09:00,ZGOW 310900Z AUTO 14004KT 4SM 26/19 A2974 RMK SLP073 T02570189 57005 IEM_DS3505
ZGOW,2010-05-31 10:00,ZGOW 311000Z AUTO 14006KT 6SM 24/22 A2977 RMK T02400220 IEM_DS3505
ZGOW,2010-05-31 11:00,ZGOW 311100Z AUTO 11004KT 6SM 24/22 A2980 RMK T02400220 IEM_DS3505
ZGOW,2010-05-31 12:00,ZGOW 311200Z AUTO 09002KT 6SM 24/19 A2980 RMK SLP093 T02430192 52020 IEM_DS3505
ZGOW,2010-05-31 13:00,ZGOW 311300Z AUTO 08004KT 6SM 23/21 A2983 RMK T02300210 IEM_DS3505
ZGOW,2010-05-31 14:00,ZGOW 311400Z AUTO 03002KT 6SM 22/21 A2983 RMK T02200210 IEM_DS3505
ZGOW,2010-05-31 15:00,ZGOW 311500Z AUTO 04002KT 6SM 24/19 A2985 RMK SLP105 T02350188 52012 IEM_DS3505
ZGOW,2010-05-31 16:00,ZGOW 311600Z AUTO 07006KT 6SM 22/21 A2983 RMK T02200210 IEM_DS3505
ZGOW,2010-05-31 18:00,ZGOW 311800Z AUTO 09002KT 6SM 23/18 A2980 RMK SLP090 T02290176 57015 IEM_DS3505
ZGOW,2010-05-31 21:00,ZGOW 312100Z AUTO 00000KT 5SM 22/19 A2980 RMK SLP090 T02170194 54000 IEM_DS3505
ZGOW,2010-05-31 22:00,ZGOW 312200Z AUTO 02002KT 3SM 20/20 A2980 RMK T02000200 IEM_DS3505
ZGOW,2010-05-31 23:00,ZGOW 312300Z AUTO 03002KT 3SM 22/22 A2983 RMK T02200220 IEM_DS3505
ZGOW,2010-06-01 00:00,ZGOW 010000Z AUTO 07004KT 7SM 24/18 A2983 RMK SLP101 T02430178 52011 IEM_DS3505
ZGOW,2010-06-01 01:00,ZGOW 010100Z AUTO 09010KT 6SM 25/21 A2985 RMK T02500210 IEM_DS3505
ZGOW,2010-06-01 02:00,ZGOW 010200Z AUTO 09012KT 4SM 25/20 A2985 RMK T02500200 IEM_DS3505
ZGOW,2010-06-01 03:00,ZGOW 010300Z AUTO 07012KT 8SM 26/13 A2983 RMK SLP101 T02580133 54000 IEM_DS3505
ZGOW,2010-06-01 04:00,ZGOW 010400Z AUTO 09014KT 6SM 26/19 A2983 RMK T02600190 IEM_DS3505
ZGOW,2010-06-01 05:00,ZGOW 010500Z AUTO 12010KT 6SM 26/19 A2983 RMK T02600190 IEM_DS3505
ZGOW,2010-06-01 06:00,ZGOW 010600Z AUTO 11008KT 9SM 27/14 A2980 RMK SLP087 T02710135 57014 IEM_DS3505
ZGOW,2010-06-01 07:00,ZGOW 010700Z AUTO 12010KT 7SM 26/21 A2980 RMK T02600210 IEM_DS3505
ZGOW,2010-06-01 08:00,ZGOW 010800Z AUTO 10006KT 6SM 25/21 A2980 RMK T02500210 IEM_DS3505
ZGOW,2010-06-01 09:00,ZGOW 010900Z AUTO 09006KT 9SM 25/17 A2980 RMK SLP085 T02460166 57002 IEM_DS3505
ZGOW,2010-06-01 10:00,ZGOW 011000Z AUTO 11006KT 6SM 24/21 A2980 RMK T02400210 IEM_DS3505
ZGOW,2010-06-01 11:00,ZGOW 011100Z AUTO 08012KT 7SM 23/19 A2980 RMK T02300190 IEM_DS3505
ZGOW,2010-06-01 12:00,ZGOW 011200Z AUTO 07008KT 9SM 24/15 A2983 RMK SLP093 T02380148 52008 IEM_DS3505
ZGOW,2010-06-01 13:00,ZGOW 011300Z AUTO 08014KT 7SM 23/19 A2983 RMK T02300190 IEM_DS3505
ZGOW,2010-06-01 14:00,ZGOW 011400Z AUTO 07014KT 7SM 23/20 A2985 RMK T02300200 IEM_DS3505
ZGOW,2010-06-01 15:00,ZGOW 011500Z AUTO 07008KT 9SM 23/17 A2983 RMK SLP104 T02300168 52011 IEM_DS3505
ZGOW,2010-06-01 16:00,ZGOW 011600Z AUTO 06016KT 7SM 22/20 A2983 RMK T02200200 IEM_DS3505
ZGOW,2010-06-01 17:00,ZGOW 011700Z AUTO 06017KT 7SM 22/19 A2980 RMK T02200190 IEM_DS3505
ZGOW,2010-06-01 18:00,ZGOW 011800Z AUTO 07006KT 9SM 23/14 A2980 RMK SLP090 T02270143 57014 IEM_DS3505
ZGOW,2010-06-01 19:00,ZGOW 011900Z AUTO 06010KT 3SM 22/17 A2980 RMK T02200170 IEM_DS3505
ZGOW,2010-06-01 20:00,ZGOW 012000Z AUTO 05014KT 2 1/2SM 21/17 A2980 RMK T02100170 IEM_DS3505
ZGOW,2010-06-01 21:00,ZGOW 012100Z AUTO 07006KT 7SM 19/16 A2983 RMK 70011 SLP093 T01940162 52003 IEM_DS3505
ZGOW,2010-06-01 22:00,ZGOW 012200Z AUTO 07008KT 2 1/2SM 18/18 A2983 RMK T01800180 IEM_DS3505
ZGOW,2010-06-01 23:00,ZGOW 012300Z AUTO 36006KT 4SM 18/17 A2985 RMK T01800170 IEM_DS3505
ZGOW,2010-06-02 00:00,ZGOW 020000Z AUTO 04004KT 7SM 19/16 A2985 RMK 60020 70020 SLP109 T01900157 52016 IEM_DS3505
ZGOW,2010-06-02 01:00,ZGOW 020100Z AUTO 03008KT 2 1/2SM 19/17 A2988 RMK T01900170 IEM_DS3505
ZGOW,2010-06-02 02:00,ZGOW 020200Z AUTO 02010KT 2 1/2SM 19/18 A2988 RMK T01900180 IEM_DS3505
ZGOW,2010-06-02 03:00,ZGOW 020300Z AUTO 02004KT 6SM 20/16 A2985 RMK SLP113 T01950163 52004 IEM_DS3505
ZGOW,2010-06-02 04:00,ZGOW 020400Z AUTO 03012KT 3SM 19/18 A2985 RMK T01900180 IEM_DS3505
ZGOW,2010-06-02 05:00,ZGOW 020500Z AUTO 03010KT 4SM 19/18 A2985 RMK T01900180 IEM_DS3505
ZGOW,2010-06-02 06:00,ZGOW 020600Z AUTO 07006KT 7SM 20/16 A2985 RMK 60000 SLP105 T02030159 57008 IEM_DS3505
ZGOW,2010-06-02 07:00,ZGOW 020700Z AUTO 03010KT 4SM 20/18 A2983 RMK T02000180 IEM_DS3505
ZGOW,2010-06-02 08:00,ZGOW 020800Z AUTO 02010KT 3SM 19/19 A2983 RMK T01900190 IEM_DS3505
ZGOW,2010-06-02 09:00,ZGOW 020900Z AUTO 04004KT 4SM 19/18 A2985 RMK SLP105 T01870175 54000 IEM_DS3505
ZGOW,2010-06-02 10:00,ZGOW 021000Z AUTO 02008KT 1 1/4SM 19/19 A2985 RMK T01900190 IEM_DS3505
ZGOW,2010-06-02 11:00,ZGOW 021100Z AUTO 02010KT 2 1/2SM 18/18 A2985 RMK T01800180 IEM_DS3505
ZGOW,2010-06-02 12:00,ZGOW 021200Z AUTO 02002KT 4SM 19/18 A2988 RMK 60035 SLP114 T01870179 52009 IEM_DS3505
ZGOW,2010-06-02 13:00,ZGOW 021300Z AUTO 02006KT 3SM 18/18 A2988 RMK T01800180 IEM_DS3505
ZGOW,2010-06-02 14:00,ZGOW 021400Z AUTO 01004KT 2 1/2SM 18/18 A2988 RMK T01800180 IEM_DS3505
ZGOW,2010-06-02 15:00,ZGOW 021500Z AUTO 00000KT 4SM 18/18 A2991 RMK SLP124 T01850179 52010 IEM_DS3505
ZGOW,2010-06-02 16:00,ZGOW 021600Z AUTO 03006KT 2 1/2SM 18/18 A2988 RMK T01800180 IEM_DS3505
ZGOW,2010-06-02 18:00,ZGOW 021800Z AUTO 02002KT 6SM 19/18 RMK 60039 SLP106 T01880178 57018 IEM_DS3505
ZGOW,2010-06-02 21:00,ZGOW 022100Z AUTO 09002KT 9SM 19/18 A2983 RMK 70087 SLP102 T01880178 57004 IEM_DS3505
ZGOW,2010-06-02 22:00,ZGOW 022200Z AUTO 34004KT 2 1/2SM 19/19 A2985 RMK T01900190 IEM_DS3505
ZGOW,2010-06-02 23:00,ZGOW 022300Z AUTO 35006KT 2SM 19/19 A2985 RMK T01900190 IEM_DS3505
ZGOW,2010-06-03 00:00,ZGOW 030000Z AUTO 11002KT 5SM 19/18 A2988 RMK 60016 70091 SLP111 T01920185 52009 IEM_DS3505
ZGOW,2010-06-03 01:00,ZGOW 030100Z AUTO 36004KT 2 1/2SM 19/19 A2988 RMK T01900190 IEM_DS3505
ZGOW,2010-06-03 02:00,ZGOW 030200Z AUTO 01006KT 3SM 20/20 A2988 RMK T02000200 IEM_DS3505
ZGOW,2010-06-03 03:00,ZGOW 030300Z AUTO 07002KT 6SM 20/19 A2988 RMK SLP116 T02000192 52005 IEM_DS3505
ZGOW,2010-06-03 04:00,ZGOW 030400Z AUTO 36006KT 2 1/2SM 20/20 A2985 RMK T02000200 IEM_DS3505
ZGOW,2010-06-03 05:00,ZGOW 030500Z AUTO 36002KT 2 1/2SM 20/20 A2985 RMK T02000200 IEM_DS3505
ZGOW,2010-06-03 06:00,ZGOW 030600Z AUTO 07002KT 4SM 21/20 A2985 RMK 60031 SLP105 T02080198 57011 IEM_DS3505
ZGOW,2010-06-03 07:00,ZGOW 030700Z AUTO 03006KT 2 1/2SM 21/21 A2985 RMK T02100210 IEM_DS3505
ZGOW,2010-06-03 08:00,ZGOW 030800Z AUTO 04006KT 4SM 21/21 A2983 RMK T02100210 IEM_DS3505
ZGOW,2010-06-03 09:00,ZGOW 030900Z AUTO 04004KT 4SM 21/20 A2983 RMK SLP103 T02080196 57002 IEM_DS3505
ZGOW,2010-06-03 10:00,ZGOW 031000Z AUTO 05004KT 3SM 21/21 A2985 RMK T02100210 IEM_DS3505
ZGOW,2010-06-03 11:00,ZGOW 031100Z AUTO 04004KT 2 1/2SM 21/21 A2985 RMK T02100210 IEM_DS3505
ZGOW,2010-06-03 12:00,ZGOW 031200Z AUTO 07004KT 4SM 21/20 A2988 RMK 60004 SLP114 T02070199 52011 IEM_DS3505
ZGOW,2010-06-03 13:00,ZGOW 031300Z AUTO 06004KT 4SM 20/20 A2988 RMK T02000200 IEM_DS3505
ZGOW,2010-06-03 14:00,ZGOW 031400Z AUTO 08002KT 4SM 20/20 A2988 RMK T02000200 IEM_DS3505
ZGOW,2010-06-03 15:00,ZGOW 031500Z AUTO 11002KT 7SM 21/20 A2988 RMK SLP118 T02060198 52004 IEM_DS3505
ZGOW,2010-06-03 16:00,ZGOW 031600Z AUTO 10002KT 7SM 20/20 A2985 RMK T02000200 IEM_DS3505
ZGOW,2010-06-03 17:00,ZGOW 031700Z AUTO 02002KT 2SM 20/ A2985 RMK IEM_DS3505
ZGOW,2010-06-03 18:00,ZGOW 031800Z AUTO 00000KT 7SM 21/20 A2985 RMK 60004 SLP105 T02060198 57013 IEM_DS3505
ZGOW,2010-06-03 19:00,ZGOW 031900Z AUTO 29002KT 1 1/2SM 21/21 A2983 RMK T02100210 IEM_DS3505
ZGOW,2010-06-03 20:00,ZGOW 032000Z AUTO 32002KT 1 1/2SM 20/ A2983 RMK IEM_DS3505
ZGOW,2010-06-03 21:00,ZGOW 032100Z AUTO 00000KT 4SM 21/20 A2983 RMK 70051 SLP102 T02060199 57003 IEM_DS3505
ZGOW,2010-06-03 22:00,ZGOW 032200Z AUTO 25002KT 2 1/2SM 21/21 A2985 RMK T02100210 IEM_DS3505
ZGOW,2010-06-03 23:00,ZGOW 032300Z AUTO 28004KT 2SM 21/21 A2985 RMK T02100210 IEM_DS3505
ZGOW,2010-06-04 00:00,ZGOW 040000Z AUTO 27004KT 4SM 22/21 A2985 RMK 70039 SLP112 T02230208 52010 IEM_DS3505
ZGOW,2010-06-04 01:00,ZGOW 040100Z AUTO 31006KT 2SM 23/22 A2985 RMK T02300220 IEM_DS3505
ZGOW,2010-06-04 02:00,ZGOW 040200Z AUTO 28004KT 2 1/2SM 24/23 A2985 RMK T02400230 IEM_DS3505
ZGOW,2010-06-04 03:00,ZGOW 040300Z AUTO 25004KT 7SM 25/21 A2985 RMK SLP110 T02540213 57002 IEM_DS3505
ZGOW,2010-06-04 04:00,ZGOW 040400Z AUTO 22002KT 4SM 26/22 A2983 RMK T02600220 IEM_DS3505
ZGOW,2010-06-04 05:00,ZGOW 040500Z AUTO 15006KT 4SM 27/24 A2983 RMK T02700240 IEM_DS3505
ZGOW,2010-06-04 06:00,ZGOW 040600Z AUTO 14004KT 9SM 27/21 A2980 RMK SLP089 T02710207 57021 IEM_DS3505
ZGOW,2010-06-04 07:00,ZGOW 040700Z AUTO 17006KT 7SM 27/24 A2980 RMK T02700240 IEM_DS3505
ZGOW,2010-06-04 08:00,ZGOW 040800Z AUTO 14006KT 7SM 27/23 A2980 RMK T02700230 IEM_DS3505
ZGOW,2010-06-04 09:00,ZGOW 040900Z AUTO 11006KT 9SM 26/20 A2980 RMK SLP083 T02590198 57006 IEM_DS3505
ZGOW,2010-06-04 10:00,ZGOW 041000Z AUTO 12006KT 7SM 24/22 A2980 RMK T02400220 IEM_DS3505
ZGOW,2010-06-04 11:00,ZGOW 041100Z AUTO 12006KT 7SM 24/22 A2980 RMK T02400220 IEM_DS3505
ZGOW,2010-06-04 12:00,ZGOW 041200Z AUTO 09002KT 7SM 24/20 A2983 RMK 60008 SLP097 T02360199 52014 IEM_DS3505
ZGOW,2010-06-04 13:00,ZGOW 041300Z AUTO 07008KT 7SM 23/22 A2983 RMK T02300220 IEM_DS3505
ZGOW,2010-06-04 14:00,ZGOW 041400Z AUTO 08008KT 6SM 23/22 A2983 RMK T02300220 IEM_DS3505
ZGOW,2010-06-04 15:00,ZGOW 041500Z AUTO 07004KT 6SM 23/20 A2983 RMK SLP099 T02270200 52002 IEM_DS3505
ZGOW,2010-06-04 16:00,ZGOW 041600Z AUTO 08008KT 7SM 22/21 A2983 RMK T02200210 IEM_DS3505
ZGOW,2010-06-04 17:00,ZGOW 041700Z AUTO 08004KT 7SM 22/22 A2983 RMK T02200220 IEM_DS3505
ZGOW,2010-06-04 18:00,ZGOW 041800Z AUTO 00000KT 11SM 23/20 A2980 RMK 60000 SLP093 T02260203 57006 IEM_DS3505
ZGOW,2010-06-04 19:00,ZGOW 041900Z AUTO 31002KT 2 1/2SM 22/22 A2980 RMK T02200220 IEM_DS3505
ZGOW,2010-06-04 20:00,ZGOW 042000Z AUTO 30002KT 2SM 22/22 A2983 RMK T02200220 IEM_DS3505
ZGOW,2010-06-04 21:00,ZGOW 042100Z AUTO 00000KT 9SM 22/20 A2983 RMK 70006 SLP097 T02190205 52004 IEM_DS3505
ZGOW,2010-06-04 22:00,ZGOW 042200Z AUTO 00000KT 2 1/2SM 22/22 A2983 RMK T02200220 IEM_DS3505
ZGOW,2010-06-04 23:00,ZGOW 042300Z AUTO 35002KT 2 1/2SM 22/22 A2985 RMK T02200220 IEM_DS3505
ZGOW,2010-06-05 00:00,ZGOW 050000Z AUTO 00000KT 5SM 23/21 A2985 RMK 60000 70006 SLP111 T02310208 52014 IEM_DS3505
ZGOW,2010-06-05 01:00,ZGOW 050100Z AUTO 34004KT 4SM 23/22 A2985 RMK T02300220 IEM_DS3505
ZGOW,2010-06-05 02:00,ZGOW 050200Z AUTO 32004KT 3SM 23/23 A2985 RMK T02300230 IEM_DS3505
ZGOW,2010-06-05 03:00,ZGOW 050300Z AUTO 11002KT 6SM 25/21 A2985 RMK SLP104 T02460209 57007 IEM_DS3505
ZGOW,2010-06-05 04:00,ZGOW 050400Z AUTO 08004KT 2 1/2SM 26/23 A2983 RMK T02600230 IEM_DS3505
ZGOW,2010-06-05 05:00,ZGOW 050500Z AUTO 11004KT 2 1/2SM 26/24 A2980 RMK T02600240 IEM_DS3505
ZGOW,2010-06-05 06:00,ZGOW 050600Z AUTO 14004KT 7SM 26/21 A2980 RMK SLP087 T02600214 57017 IEM_DS3505
ZGOW,2010-06-05 07:00,ZGOW 050700Z AUTO 12010KT 4SM 25/23 A2980 RMK T02500230 IEM_DS3505
ZGOW,2010-06-05 08:00,ZGOW 050800Z AUTO 12008KT 4SM 25/22 A2980 RMK T02500220 IEM_DS3505
ZGOW,2010-06-05 09:00,ZGOW 050900Z AUTO 11004KT 7SM 25/20 A2980 RMK SLP084 T02520200 57003 IEM_DS3505
ZGOW,2010-06-05 10:00,ZGOW 051000Z AUTO 09008KT 6SM 24/22 A2980 RMK T02400220 IEM_DS3505
ZGOW,2010-06-05 11:00,ZGOW 051100Z AUTO 09006KT 6SM 23/22 A2983 RMK T02300220 IEM_DS3505
ZGOW,2010-06-05 12:00,ZGOW 051200Z AUTO 07004KT 7SM 24/20 A2983 RMK SLP098 T02360201 52014 IEM_DS3505
ZGOW,2010-06-05 13:00,ZGOW 051300Z AUTO 09008KT 6SM 22/21 A2985 RMK T02200210 IEM_DS3505
ZGOW,2010-06-05 14:00,ZGOW 051400Z AUTO 09010KT 6SM 23/20 A2985 RMK T02300200 IEM_DS3505
ZGOW,2010-06-05 15:00,ZGOW 051500Z AUTO 09004KT 11SM 23/18 A2985 RMK SLP107 T02330184 52009 IEM_DS3505
ZGOW,2010-06-05 16:00,ZGOW 051600Z AUTO 08010KT 6SM 22/20 A2985 RMK T02200200 IEM_DS3505
ZGOW,2010-06-05 17:00,ZGOW 051700Z AUTO 08008KT 3SM 22/20 A2983 RMK T02200200 IEM_DS3505
ZGOW,2010-06-05 18:00,ZGOW 051800Z AUTO 07004KT 12SM 23/18 A2983 RMK SLP099 T02270180 57008 IEM_DS3505
ZGOW,2010-06-05 19:00,ZGOW 051900Z AUTO 06002KT 3SM 22/20 A2983 RMK T02200200 IEM_DS3505
ZGOW,2010-06-05 20:00,ZGOW 052000Z AUTO 34002KT 3SM 22/21 A2983 RMK T02200210 IEM_DS3505
ZGOW,2010-06-05 21:00,ZGOW 052100Z AUTO 29002KT 10SM 22/19 A2983 RMK SLP101 T02220190 52002 IEM_DS3505
ZGOW,2010-06-05 22:00,ZGOW 052200Z AUTO 35002KT 3SM 22/22 A2985 RMK T02200220 IEM_DS3505
ZGOW,2010-06-05 23:00,ZGOW 052300Z AUTO 00000KT 3SM 22/22 A2985 RMK T02200220 IEM_DS3505
ZGOW,2010-06-06 00:00,ZGOW 060000Z AUTO 00000KT 6SM 23/20 A2988 RMK SLP116 T02320198 52015 IEM_DS3505
ZGOW,2010-06-06 01:00,ZGOW 060100Z AUTO 11002KT 7SM 25/23 A2988 RMK T02500230 IEM_DS3505
ZGOW,2010-06-06 02:00,ZGOW 060200Z AUTO 12002KT 7SM 26/22 A2985 RMK T02600220 IEM_DS3505
ZGOW,2010-06-06 03:00,ZGOW 060300Z AUTO 25004KT 8SM 26/18 A2985 RMK SLP112 T02600184 57004 IEM_DS3505
ZGOW,2010-06-06 04:00,ZGOW 060400Z AUTO 13006KT 7SM 27/21 A2985 RMK T02700210 IEM_DS3505
ZGOW,2010-06-06 05:00,ZGOW 060500Z AUTO 14006KT 6SM 27/22 A2983 RMK T02700220 IEM_DS3505
ZGOW,2010-06-06 06:00,ZGOW 060600Z AUTO 14004KT 9SM 28/19 A2980 RMK SLP090 T02760191 57022 IEM_DS3505
ZGOW,2010-06-06 07:00,ZGOW 060700Z AUTO 14008KT 7SM 26/21 A2980 RMK T02600210 IEM_DS3505
ZGOW,2010-06-06 08:00,ZGOW 060800Z AUTO 13008KT 6SM 26/22 A2980 RMK T02600220 IEM_DS3505
ZGOW,2010-06-06 09:00,ZGOW 060900Z AUTO 11006KT 11SM 26/19 A2980 RMK SLP084 T02590186 57006 IEM_DS3505
ZGOW,2010-06-06 10:00,ZGOW 061000Z AUTO 12008KT 7SM 24/21 A2980 RMK T02400210 IEM_DS3505
ZGOW,2010-06-06 11:00,ZGOW 061100Z AUTO 13004KT 7SM 23/21 A2983 RMK T02300210 IEM_DS3505
ZGOW,2010-06-06 12:00,ZGOW 061200Z AUTO 14004KT 11SM 24/19 A2985 RMK SLP105 T02410190 52021 IEM_DS3505
ZGOW,2010-06-06 13:00,ZGOW 061300Z AUTO 09004KT 7SM 23/21 A2985 RMK T02300210 IEM_DS3505
ZGOW,2010-06-06 14:00,ZGOW 061400Z AUTO 07004KT 7SM 22/21 A2988 RMK T02200210 IEM_DS3505
ZGOW,2010-06-06 15:00,ZGOW 061500Z AUTO 09002KT 9SM 23/20 A2988 RMK SLP115 T02320198 52010 IEM_DS3505
ZGOW,2010-06-06 16:00,ZGOW 061600Z AUTO 06006KT 7SM 22/21 A2985 RMK T02200210 IEM_DS3505
ZGOW,2010-06-06 17:00,ZGOW 061700Z AUTO 06008KT 2 1/2SM 22/21 A2985 RMK T02200210 IEM_DS3505
ZGOW,2010-06-06 18:00,ZGOW 061800Z AUTO 07004KT 9SM 23/19 A2985 RMK SLP107 T02300190 57008 IEM_DS3505
ZGOW,2010-06-06 19:00,ZGOW 061900Z AUTO 06004KT 3SM 22/21 A2985 RMK T02200210 IEM_DS3505
ZGOW,2010-06-06 20:00,ZGOW 062000Z AUTO 00000KT 3SM 22/21 A2985 RMK T02200210 IEM_DS3505
ZGOW,2010-06-06 21:00,ZGOW 062100Z AUTO 00000KT 10SM 23/19 A2985 RMK SLP113 T02290187 52006 IEM_DS3505
ZGOW,2010-06-06 22:00,ZGOW 062200Z AUTO 33002KT 7SM 22/21 A2988 RMK T02200210 IEM_DS3505
ZGOW,2010-06-06 23:00,ZGOW 062300Z AUTO 36002KT 7SM 24/21 A2991 RMK T02400210 IEM_DS3505
ZGOW,2010-06-07 00:00,ZGOW 070000Z AUTO 02002KT 10SM 25/19 A2991 RMK SLP127 T02470191 52014 IEM_DS3505
ZGOW,2010-06-07 01:00,ZGOW 070100Z AUTO 36002KT 6SM 26/22 A2988 RMK T02600220 IEM_DS3505
ZGOW,2010-06-07 02:00,ZGOW 070200Z AUTO 10006KT 6SM 27/21 A2988 RMK T02700210 IEM_DS3505
ZGOW,2010-06-07 03:00,ZGOW 070300Z AUTO 11004KT 10SM 27/15 A2988 RMK SLP119 T02720146 57008 IEM_DS3505
ZGOW,2010-06-07 04:00,ZGOW 070400Z AUTO 12006KT 6SM 27/21 A2988 RMK T02700210 IEM_DS3505
ZGOW,2010-06-07 05:00,ZGOW 070500Z AUTO 13006KT 6SM 27/22 A2988 RMK T02700220 IEM_DS3505
ZGOW,2010-06-07 06:00,ZGOW 070600Z AUTO 11006KT 16SM 27/16 A2985 RMK SLP109 T02690165 57010 IEM_DS3505
ZGOW,2010-06-07 07:00,ZGOW 070700Z AUTO 12008KT 6SM 26/23 A2983 RMK T02600230 IEM_DS3505
ZGOW,2010-06-07 08:00,ZGOW 070800Z AUTO 12008KT 6SM 26/23 A2985 RMK T02600230 IEM_DS3505
ZGOW,2010-06-07 09:00,ZGOW 070900Z AUTO 11006KT 16SM 26/18 A2983 RMK SLP100 T02570181 57009 IEM_DS3505
ZGOW,2010-06-07 10:00,ZGOW 071000Z AUTO 13006KT 6SM 25/22 A2983 RMK T02500220 IEM_DS3505
ZGOW,2010-06-07 11:00,ZGOW 071100Z AUTO 13006KT 6SM 24/22 A2983 RMK T02400220 IEM_DS3505
ZGOW,2010-06-07 12:00,ZGOW 071200Z AUTO 09004KT 10SM 24/20 A2985 RMK SLP108 T02430198 52008 IEM_DS3505
ZGOW,2010-06-07 13:00,ZGOW 071300Z AUTO 09006KT 6SM 23/22 A2988 RMK T02300220 IEM_DS3505
ZGOW,2010-06-07 14:00,ZGOW 071400Z AUTO 08006KT 7SM 23/22 A2988 RMK T02300220 IEM_DS3505
ZGOW,2010-06-07 15:00,ZGOW 071500Z AUTO 07004KT 10SM 24/20 A2988 RMK SLP117 T02360203 52009 IEM_DS3505
ZGOW,2010-06-07 16:00,ZGOW 071600Z AUTO 08004KT 7SM 22/22 A2988 RMK T02200220 IEM_DS3505
ZGOW,2010-06-07 17:00,ZGOW 071700Z AUTO 07004KT 7SM 22/22 A2988 RMK T02200220 IEM_DS3505
ZGOW,2010-06-07 18:00,ZGOW 071800Z AUTO 07004KT 9SM 23/20 RMK SLP109 T02290199 57008 IEM_DS3505
ZGOW,2010-06-07 19:00,ZGOW 071900Z AUTO 09004KT 2SM 22/21 A2985 RMK T02200210 IEM_DS3505
ZGOW,2010-06-07 21:00,ZGOW 072100Z AUTO 07004KT 9SM 23/20 A2985 RMK SLP112 T02260196 52003 IEM_DS3505
ZGOW,2010-06-07 22:00,ZGOW 072200Z AUTO 05004KT 3SM 21/21 A2988 RMK T02100210 IEM_DS3505
ZGOW,2010-06-07 23:00,ZGOW 072300Z AUTO 05008KT 4SM 22/22 A2988 RMK T02200220 IEM_DS3505
ZGOW,2010-06-08 00:00,ZGOW 080000Z AUTO 07006KT 9SM 24/20 A2988 RMK SLP122 T02400197 52010 IEM_DS3505
ZGOW,2010-06-08 01:00,ZGOW 080100Z AUTO 08010KT 7SM 25/22 A2988 RMK T02500220 IEM_DS3505
ZGOW,2010-06-08 02:00,ZGOW 080200Z AUTO 07010KT 7SM 26/23 A2988 RMK T02600230 IEM_DS3505
ZGOW,2010-06-08 03:00,ZGOW 080300Z AUTO 14004KT 9SM 27/20 A2985 RMK SLP110 T02660197 57012 IEM_DS3505
ZGOW,2010-06-08 04:00,ZGOW 080400Z AUTO 12006KT 7SM 27/24 A2985 RMK T02700240 IEM_DS3505
ZGOW,2010-06-08 05:00,ZGOW 080500Z AUTO 11006KT 7SM 27/24 A2985 RMK T02700240 IEM_DS3505
ZGOW,2010-06-08 06:00,ZGOW 080600Z AUTO 14004KT 11SM 28/20 A2983 RMK SLP101 T02760204 57009 IEM_DS3505
ZGOW,2010-06-08 07:00,ZGOW 080700Z AUTO 13010KT 7SM 26/24 A2983 RMK T02600240 IEM_DS3505
ZGOW,2010-06-08 08:00,ZGOW 080800Z AUTO 12012KT 7SM 26/23 A2980 RMK T02600230 IEM_DS3505
ZGOW,2010-06-08 09:00,ZGOW 080900Z AUTO 11004KT 9SM 26/21 A2980 RMK SLP090 T02570207 57011 IEM_DS3505
ZGOW,2010-06-08 10:00,ZGOW 081000Z AUTO 12006KT 7SM 25/23 A2983 RMK T02500230 IEM_DS3505
ZGOW,2010-06-08 11:00,ZGOW 081100Z AUTO 12008KT 4SM 24/23 A2983 RMK T02400230 IEM_DS3505
ZGOW,2010-06-08 12:00,ZGOW 081200Z AUTO 14004KT 9SM 24/21 A2983 RMK SLP102 T02440213 52012 IEM_DS3505
ZGOW,2010-06-08 13:00,ZGOW 081300Z AUTO 12004KT 4SM 24/23 A2985 RMK T02400230 IEM_DS3505
ZGOW,2010-06-08 14:00,ZGOW 081400Z AUTO 11006KT 4SM 24/23 A2985 RMK T02400230 IEM_DS3505
ZGOW,2010-06-08 15:00,ZGOW 081500Z AUTO 11004KT 8SM 24/22 A2985 RMK SLP102 T02400217 54000 IEM_DS3505
ZGOW,2010-06-08 16:00,ZGOW 081600Z AUTO 06006KT 3SM 23/23 A2985 RMK T02300230 IEM_DS3505
ZGOW,2010-06-08 17:00,ZGOW 081700Z AUTO 07004KT 2SM 23/23 A2983 RMK T02300230 IEM_DS3505
ZGOW,2010-06-08 18:00,ZGOW 081800Z AUTO 09004KT 6SM 24/22 A2980 RMK SLP090 T02380217 57011 IEM_DS3505
ZGOW,2010-06-08 19:00,ZGOW 081900Z AUTO 04004KT 1 1/4SM 23/23 A2980 RMK T02300230 IEM_DS3505
ZGOW,2010-06-08 20:00,ZGOW 082000Z AUTO 05004KT 1 1/2SM 23/23 A2980 RMK T02300230 IEM_DS3505
ZGOW,2010-06-08 21:00,ZGOW 082100Z AUTO 00000KT 6SM 24/22 A2980 RMK SLP088 T02390218 57003 IEM_DS3505
ZGOW,2010-06-08 22:00,ZGOW 082200Z AUTO 08006KT 2 1/2SM 23/23 A2980 RMK T02300230 IEM_DS3505
ZGOW,2010-06-08 23:00,ZGOW 082300Z AUTO 07006KT 2SM 24/24 A2983 RMK T02400240 IEM_DS3505
ZGOW,2010-06-09 00:00,ZGOW 090000Z AUTO 07002KT 4SM 24/22 A2983 RMK SLP101 T02430220 52013 IEM_DS3505
ZGOW,2010-06-09 01:00,ZGOW 090100Z AUTO 07006KT 2 1/2SM 24/24 A2985 RMK T02400240 IEM_DS3505
ZGOW,2010-06-09 02:00,ZGOW 090200Z AUTO 13006KT 7SM 25/24 A2983 RMK T02500240 IEM_DS3505
ZGOW,2010-06-09 03:00,ZGOW 090300Z AUTO 09006KT 5SM 25/22 A2983 RMK SLP100 T02490220 57001 IEM_DS3505
ZGOW,2010-06-09 04:00,ZGOW 090400Z AUTO 09008KT 4SM 25/24 A2983 RMK T02500240 IEM_DS3505
ZGOW,2010-06-09 05:00,ZGOW 090500Z AUTO 07006KT 4SM 26/25 A2980 RMK T02600250 IEM_DS3505
ZGOW,2010-06-09 06:00,ZGOW 090600Z AUTO 11004KT 7SM 26/23 A2977 RMK 60000 SLP081 T02650232 57019 IEM_DS3505
ZGOW,2010-06-09 07:00,ZGOW 090700Z AUTO 12004KT 4SM 27/25 A2977 RMK T02700250 IEM_DS3505
ZGOW,2010-06-09 08:00,ZGOW 090800Z AUTO 12004KT 4SM 26/25 A2977 RMK T02600250 IEM_DS3505
ZGOW,2010-06-09 09:00,ZGOW 090900Z AUTO 11002KT 7SM 26/23 A2977 RMK SLP073 T02610232 57008 IEM_DS3505
ZGOW,2010-06-09 10:00,ZGOW 091000Z AUTO 09004KT 4SM 25/25 A2977 RMK T02500250 IEM_DS3505
ZGOW,2010-06-09 11:00,ZGOW 091100Z AUTO 10004KT 3SM 25/25 A2977 RMK T02500250 IEM_DS3505
ZGOW,2010-06-09 12:00,ZGOW 091200Z AUTO 09004KT 5SM 25/23 A2980 RMK 60000 SLP084 T02540233 52011 IEM_DS3505
ZGOW,2010-06-09 13:00,ZGOW 091300Z AUTO 07004KT 3SM 25/25 A2980 RMK T02500250 IEM_DS3505
ZGOW,2010-06-09 14:00,ZGOW 091400Z AUTO 09004KT 2 1/2SM 24/24 A2983 RMK T02400240 IEM_DS3505
ZGOW,2010-06-09 15:00,ZGOW 091500Z AUTO 14004KT 4SM 25/24 A2983 RMK SLP096 T02510235 52012 IEM_DS3505
ZGOW,2010-06-09 16:00,ZGOW 091600Z AUTO 08002KT 2 1/2SM 25/25 A2983 RMK T02500250 IEM_DS3505
ZGOW,2010-06-09 17:00,ZGOW 091700Z AUTO 13002KT 2SM 25/25 A2980 RMK T02500250 IEM_DS3505
ZGOW,2010-06-09 18:00,ZGOW 091800Z AUTO 00000KT 4SM 25/24 A2977 RMK 60000 SLP080 T02490237 57015 IEM_DS3505
ZGOW,2010-06-09 19:00,ZGOW 091900Z AUTO 09002KT 1SM 24/ A2977 RMK IEM_DS3505
ZGOW,2010-06-09 20:00,ZGOW 092000Z AUTO 09002KT 1 1/4SM 24/ A2977 RMK IEM_DS3505
ZGOW,2010-06-09 21:00,ZGOW 092100Z AUTO 11002KT 5SM 25/24 A2977 RMK 70001 SLP076 T02490237 57004 IEM_DS3505
ZGOW,2010-06-09 22:00,ZGOW 092200Z AUTO 00000KT 1 1/2SM 24/24 A2977 RMK T02400240 IEM_DS3505
ZGOW,2010-06-09 23:00,ZGOW 092300Z AUTO 13002KT 1 1/2SM 25/25 A2980 RMK T02500250 IEM_DS3505
ZGOW,2010-06-10 00:00,ZGOW 100000Z AUTO 00000KT 5SM 26/24 A2980 RMK 60004 70006 SLP090 T02550243 52013 IEM_DS3505
ZGOW,2010-06-10 01:00,ZGOW 100100Z AUTO 20002KT 1 1/4SM 25/25 A2983 RMK T02500250 IEM_DS3505
ZGOW,2010-06-10 02:00,ZGOW 100200Z AUTO 16002KT 2SM 26/26 A2980 RMK T02600260 IEM_DS3505
ZGOW,2010-06-10 03:00,ZGOW 100300Z AUTO 22004KT 5SM 26/24 A2980 RMK SLP093 T02630243 52003 IEM_DS3505
ZGOW,2010-06-10 04:00,ZGOW 100400Z AUTO 21004KT 1 1/4SM 26/26 A2980 RMK T02600260 IEM_DS3505
ZGOW,2010-06-10 05:00,ZGOW 100500Z AUTO 20006KT 1 1/2SM 26/26 A2977 RMK T02600260 IEM_DS3505
ZGOW,2010-06-10 06:00,ZGOW 100600Z AUTO 25004KT 5SM 26/25 A2977 RMK 60039 SLP076 T02640246 57016 IEM_DS3505
ZGOW,2010-06-10 07:00,ZGOW 100700Z AUTO 24008KT 1 1/2SM 27/26 A2977 RMK T02700260 IEM_DS3505
ZGOW,2010-06-10 08:00,ZGOW 100800Z AUTO 24006KT 3SM 26/25 A2974 RMK T02600250 IEM_DS3505
ZGOW,2010-06-10 09:00,ZGOW 100900Z AUTO 27002KT 6SM 26/24 A2974 RMK SLP069 T02590236 57007 IEM_DS3505
ZGOW,2010-06-10 10:00,ZGOW 101000Z AUTO 26002KT 2 1/2SM 26/26 A2974 RMK T02600260 IEM_DS3505
ZGOW,2010-06-10 11:00,ZGOW 101100Z AUTO 25002KT 2SM 26/26 A2974 RMK T02600260 IEM_DS3505
ZGOW,2010-06-10 12:00,ZGOW 101200Z AUTO 25002KT 7SM 25/24 A2977 RMK 60002 SLP077 T02540238 52008 IEM_DS3505
ZGOW,2010-06-10 13:00,ZGOW 101300Z AUTO 31002KT 2 1/2SM 25/25 A2980 RMK T02500250 IEM_DS3505
ZGOW,2010-06-10 14:00,ZGOW 101400Z AUTO 21002KT 2SM 25/25 A2980 RMK T02500250 IEM_DS3505
ZGOW,2010-06-10 15:00,ZGOW 101500Z AUTO 22002KT 7SM 25/24 A2980 RMK SLP092 T02520240 52015 IEM_DS3505
ZGOW,2010-06-10 16:00,ZGOW 101600Z AUTO 23002KT 3SM 25/25 A2980 RMK T02500250 IEM_DS3505
ZGOW,2010-06-10 17:00,ZGOW 101700Z AUTO 28002KT 4SM 25/25 A2977 RMK T02500250 IEM_DS3505
ZGOW,2010-06-10 18:00,ZGOW 101800Z AUTO 00000KT 6SM 25/24 A2977 RMK 60000 SLP076 T02480238 57016 IEM_DS3505
ZGOW,2010-06-10 19:00,ZGOW 101900Z AUTO 00000KT 1SM 25/25 A2977 RMK T02500250 IEM_DS3505
ZGOW,2010-06-10 20:00,ZGOW 102000Z AUTO 31002KT 1 1/2SM 25/25 A2977 RMK T02500250 IEM_DS3505
ZGOW,2010-06-10 21:00,ZGOW 102100Z AUTO 25004KT 7SM 25/24 A2977 RMK 70048 SLP081 T02510239 52005 IEM_DS3505
ZGOW,2010-06-10 22:00,ZGOW 102200Z AUTO 31002KT 2SM 25/25 A2980 RMK T02500250 IEM_DS3505
ZGOW,2010-06-10 23:00,ZGOW 102300Z AUTO 28002KT 2 1/2SM 26/26 A2980 RMK T02600260 IEM_DS3505
ZGOW,2010-06-11 00:00,ZGOW 110000Z AUTO 27004KT 7SM 26/23 A2980 RMK 70043 SLP093 T02590232 52011 IEM_DS3505
ZGOW,2010-06-11 01:00,ZGOW 110100Z AUTO 32002KT 3SM 27/26 A2983 RMK T02700260 IEM_DS3505
ZGOW,2010-06-11 02:00,ZGOW 110200Z AUTO 33002KT 2 1/2SM 28/26 A2983 RMK T02800260 IEM_DS3505
ZGOW,2010-06-11 03:00,ZGOW 110300Z AUTO 22002KT 7SM 27/23 A2983 RMK SLP097 T02740234 52005 IEM_DS3505
ZGOW,2010-06-11 04:00,ZGOW 110400Z AUTO 08006KT 2SM 28/27 A2983 RMK T02800270 IEM_DS3505
ZGOW,2010-06-11 05:00,ZGOW 110500Z AUTO 12008KT 2 1/2SM 27/26 A2980 RMK T02700260 IEM_DS3505
ZGOW,2010-06-11 06:00,ZGOW 110600Z AUTO 11004KT 5SM 26/23 A2980 RMK SLP085 T02610232 57013 IEM_DS3505
ZGOW,2010-06-11 07:00,ZGOW 110700Z AUTO 09006KT 4SM 26/25 A2977 RMK T02600250 IEM_DS3505
ZGOW,2010-06-11 08:00,ZGOW 110800Z AUTO 13006KT 5SM 25/25 A2980 RMK T02500250 IEM_DS3505
ZGOW,2010-06-11 09:00,ZGOW 110900Z AUTO 11002KT 4SM 24/23 A2980 RMK SLP084 T02430231 57001 IEM_DS3505
ZGOW,2010-06-11 10:00,ZGOW 111000Z AUTO 10006KT 2 1/2SM 24/24 A2980 RMK T02400240 IEM_DS3505
ZGOW,2010-06-11 11:00,ZGOW 111100Z AUTO 09002KT 2 1/2SM 24/24 A2980 RMK T02400240 IEM_DS3505
ZGOW,2010-06-11 12:00,ZGOW 111200Z AUTO 07004KT 6SM 24/23 A2980 RMK 60016 SLP093 T02430229 52009 IEM_DS3505
ZGOW,2010-06-11 13:00,ZGOW 111300Z AUTO 08002KT 3SM 24/24 A2983 RMK T02400240 IEM_DS3505
ZGOW,2010-06-11 14:00,ZGOW 111400Z AUTO 09004KT 3SM 24/24 A2983 RMK T02400240 IEM_DS3505
ZGOW,2010-06-11 15:00,ZGOW 111500Z AUTO 09002KT 6SM 24/23 A2983 RMK SLP094 T02430227 52002 IEM_DS3505
ZGOW,2010-06-11 16:00,ZGOW 111600Z AUTO 00000KT 2 1/2SM 24/24 A2983 RMK T02400240 IEM_DS3505
ZGOW,2010-06-11 17:00,ZGOW 111700Z AUTO 05002KT 1 1/2SM 24/24 A2983 RMK T02400240 IEM_DS3505
ZGOW,2010-06-11 18:00,ZGOW 111800Z AUTO 07002KT 5SM 24/23 A2980 RMK SLP086 T02430227 57009 IEM_DS3505
ZGOW,2010-06-11 19:00,ZGOW 111900Z AUTO 02004KT 2 1/2SM 24/24 A2980 RMK T02400240 IEM_DS3505
ZGOW,2010-06-11 20:00,ZGOW 112000Z AUTO 31004KT 1 1/2SM 24/24 A2977 RMK T02400240 IEM_DS3505
ZGOW,2010-06-11 21:00,ZGOW 112100Z AUTO 00000KT 6SM 24/22 A2977 RMK 70017 SLP084 T02420223 57002 IEM_DS3505
ZGOW,2010-06-11 22:00,ZGOW 112200Z AUTO 36004KT 2 1/2SM 24/24 A2980 RMK T02400240 IEM_DS3505
ZGOW,2010-06-11 23:00,ZGOW 112300Z AUTO 32004KT 2 1/2SM 24/24 A2980 RMK T02400240 IEM_DS3505
ZGOW,2010-06-12 00:00,ZGOW 120000Z AUTO 27002KT 4SM 26/22 A2980 RMK 70017 SLP094 T02560225 52010 IEM_DS3505
ZGOW,2010-06-12 01:00,ZGOW 120100Z AUTO 30004KT 2 1/2SM 26/25 A2983 RMK T02600250 IEM_DS3505
ZGOW,2010-06-12 02:00,ZGOW 120200Z AUTO 31002KT 2 1/2SM 28/26 A2983 RMK T02800260 IEM_DS3505
ZGOW,2010-06-12 03:00,ZGOW 120300Z AUTO 22004KT 5SM 28/24 A2980 RMK SLP093 T02750237 54000 IEM_DS3505
ZGOW,2010-06-12 04:00,ZGOW 120400Z AUTO 11006KT 1 1/2SM 28/26 A2980 RMK T02800260 IEM_DS3505
ZGOW,2010-06-12 05:00,ZGOW 120500Z AUTO 14006KT 1 1/2SM 28/26 A2980 RMK T02800260 IEM_DS3505
ZGOW,2010-06-12 06:00,ZGOW 120600Z AUTO 11004KT 7SM 28/24 A2977 RMK SLP076 T02820240 57017 IEM_DS3505
ZGOW,2010-06-12 07:00,ZGOW 120700Z AUTO 17008KT 1 1/4SM 27/26 A2977 RMK T02700260 IEM_DS3505
ZGOW,2010-06-12 08:00,ZGOW 120800Z AUTO 14006KT 1SM 25/25 A2974 RMK T02500250 IEM_DS3505
ZGOW,2010-06-12 09:00,ZGOW 120900Z AUTO 16006KT 4SM 26/24 A2977 RMK SLP073 T02600242 57004 IEM_DS3505
ZGOW,2010-06-12 10:00,ZGOW 121000Z AUTO 13004KT 1 1/2SM 25/25 A2977 RMK T02500250 IEM_DS3505
ZGOW,2010-06-12 11:00,ZGOW 121100Z AUTO 13004KT 1 1/2SM 25/25 A2977 RMK T02500250 IEM_DS3505
ZGOW,2010-06-12 12:00,ZGOW 121200Z AUTO 16002KT 2 1/2SM 26/24 A2980 RMK 60024 SLP088 T02550243 52015 IEM_DS3505
ZGOW,2010-06-12 13:00,ZGOW 121300Z AUTO 11002KT 1 1/4SM 25/25 A2980 RMK T02500250 IEM_DS3505
ZGOW,2010-06-12 14:00,ZGOW 121400Z AUTO 10002KT 1 1/4SM 25/25 A2980 RMK T02500250 IEM_DS3505
ZGOW,2010-06-12 15:00,ZGOW 121500Z AUTO 14004KT 3SM 25/24 A2980 RMK SLP089 T02530244 52002 IEM_DS3505
ZGOW,2010-06-12 16:00,ZGOW 121600Z AUTO 11002KT 1 1/4SM 25/25 A2977 RMK T02500250 IEM_DS3505
ZGOW,2010-06-12 17:00,ZGOW 121700Z AUTO 12002KT 1 1/4SM 25/25 A2977 RMK T02500250 IEM_DS3505
ZGOW,2010-06-12 18:00,ZGOW 121800Z AUTO 07002KT 3SM 25/24 A2977 RMK 60004 SLP075 T02540245 57014 IEM_DS3505
ZGOW,2010-06-12 19:00,ZGOW 121900Z AUTO 06002KT 1SM 25/25 A2974 RMK T02500250 IEM_DS3505
ZGOW,2010-06-12 20:00,ZGOW 122000Z AUTO 00000KT 1SM 25/25 A2974 RMK T02500250 IEM_DS3505
ZGOW,2010-06-12 21:00,ZGOW 122100Z AUTO 16002KT 1 1/4SM 25/24 A2974 RMK 70030 SLP072 T02540245 57003 IEM_DS3505
ZGOW,2010-06-12 22:00,ZGOW 122200Z AUTO 00000KT 1SM 25/25 A2974 RMK T02500250 IEM_DS3505
ZGOW,2010-06-12 23:00,ZGOW 122300Z AUTO 00000KT 1 1/4SM 26/26 A2977 RMK T02600260 IEM_DS3505
ZGOW,2010-06-13 00:00,ZGOW 130000Z AUTO 25004KT 6SM 27/25 A2977 RMK 70030 SLP080 T02660248 52008 IEM_DS3505
ZGOW,2010-06-13 01:00,ZGOW 130100Z AUTO 27004KT 4SM 28/27 A2977 RMK T02800270 IEM_DS3505
ZGOW,2010-06-13 02:00,ZGOW 130200Z AUTO 26006KT 3SM 27/27 A2977 RMK T02700270 IEM_DS3505
ZGOW,2010-06-13 03:00,ZGOW 130300Z AUTO 20004KT 7SM 27/25 A2977 RMK SLP079 T02740254 57001 IEM_DS3505
ZGOW,2010-06-13 04:00,ZGOW 130400Z AUTO 26006KT 7SM 30/28 A2974 RMK T03000280 IEM_DS3505
ZGOW,2010-06-13 05:00,ZGOW 130500Z AUTO 26010KT 7SM 31/28 A2974 RMK T03100280 IEM_DS3505
ZGOW,2010-06-13 06:00,ZGOW 130600Z AUTO 27006KT 11SM 31/25 A2971 RMK 60004 SLP065 T03120253 57014 IEM_DS3505
ZGOW,2010-06-13 07:00,ZGOW 130700Z AUTO 24008KT 7SM 31/28 A2971 RMK T03100280 IEM_DS3505
ZGOW,2010-06-13 08:00,ZGOW 130800Z AUTO 24006KT 5SM 29/28 A2971 RMK T02900280 IEM_DS3505
ZGOW,2010-06-13 09:00,ZGOW 130900Z AUTO 14004KT 9SM 29/26 A2971 RMK SLP062 T02900262 57003 IEM_DS3505
ZGOW,2010-06-13 10:00,ZGOW 131000Z AUTO 16006KT 4SM 28/28 A2971 RMK T02800280 IEM_DS3505
ZGOW,2010-06-13 11:00,ZGOW 131100Z AUTO 20008KT 4SM 28/28 A2974 RMK T02800280 IEM_DS3505
ZGOW,2010-06-13 12:00,ZGOW 131200Z AUTO 22004KT 11SM 28/26 A2974 RMK 60000 SLP071 T02850255 52009 IEM_DS3505
ZGOW,2010-06-13 13:00,ZGOW 131300Z AUTO 20006KT 7SM 28/27 A2977 RMK T02800270 IEM_DS3505
ZGOW,2010-06-13 14:00,ZGOW 131400Z AUTO 20004KT 7SM 27/27 A2977 RMK T02700270 IEM_DS3505
ZGOW,2010-06-13 15:00,ZGOW 131500Z AUTO 20002KT 11SM 28/26 A2977 RMK SLP077 T02760256 52006 IEM_DS3505
ZGOW,2010-06-13 16:00,ZGOW 131600Z AUTO 18004KT 7SM 27/27 A2974 RMK T02700270 IEM_DS3505
ZGOW,2010-06-13 17:00,ZGOW 131700Z AUTO 20004KT 2SM 27/27 A2977 RMK T02700270 IEM_DS3505
ZGOW,2010-06-13 18:00,ZGOW 131800Z AUTO 20004KT 2 1/2SM 27/27 A2974 RMK T02700270 IEM_DS3505
ZGOW,2010-06-13 19:00,ZGOW 131900Z AUTO 20004KT 2 1/2SM 27/27 A2974 RMK T02700270 IEM_DS3505
ZGOW,2010-06-13 20:00,ZGOW 132000Z AUTO 21006KT 2SM 27/27 A2974 RMK T02700270 IEM_DS3505
ZGOW,2010-06-13 21:00,ZGOW 132100Z AUTO 22006KT 10SM 26/25 A2974 RMK 70013 SLP068 T02650253 57001 IEM_DS3505
ZGOW,2010-06-13 22:00,ZGOW 132200Z AUTO 23008KT 7SM 26/26 A2974 RMK T02600260 IEM_DS3505
ZGOW,2010-06-13 23:00,ZGOW 132300Z AUTO 22012KT 7SM 27/26 A2974 RMK T02700260 IEM_DS3505
ZGOW,2010-06-14 00:00,ZGOW 140000Z AUTO 25006KT 12SM 27/24 A2974 RMK 60008 70013 SLP074 T02720241 52006 IEM_DS3505
ZGOW,2010-06-14 01:00,ZGOW 140100Z AUTO 24012KT 7SM 29/26 A2974 RMK T02900260 IEM_DS3505
ZGOW,2010-06-14 02:00,ZGOW 140200Z AUTO 25012KT 7SM 31/28 A2974 RMK T03100280 IEM_DS3505
ZGOW,2010-06-14 03:00,ZGOW 140300Z AUTO 22008KT 12SM 30/26 A2974 RMK SLP070 T03030256 57004 IEM_DS3505
ZGOW,2010-06-14 04:00,ZGOW 140400Z AUTO 23010KT 7SM 31/28 A2974 RMK T03100280 IEM_DS3505
ZGOW,2010-06-14 05:00,ZGOW 140500Z AUTO 22010KT 7SM 31/29 A2971 RMK T03100290 IEM_DS3505
ZGOW,2010-06-14 06:00,ZGOW 140600Z AUTO 22008KT 12SM 31/26 A2971 RMK SLP058 T03120260 57012 IEM_DS3505
ZGOW,2010-06-14 07:00,ZGOW 140700Z AUTO 22012KT 7SM 30/28 A2971 RMK T03000280 IEM_DS3505
ZGOW,2010-06-14 08:00,ZGOW 140800Z AUTO 23012KT 7SM 30/28 A2971 RMK T03000280 IEM_DS3505
ZGOW,2010-06-14 09:00,ZGOW 140900Z AUTO 22006KT 12SM 29/26 A2968 RMK SLP051 T02920260 57007 IEM_DS3505
ZGOW,2010-06-14 10:00,ZGOW 141000Z AUTO 22010KT 7SM 29/28 A2968 RMK T02900280 IEM_DS3505
ZGOW,2010-06-14 11:00,ZGOW 141100Z AUTO 21006KT 7SM 29/28 A2971 RMK T02900280 IEM_DS3505
ZGOW,2010-06-14 12:00,ZGOW 141200Z AUTO 22006KT 11SM 29/26 A2974 RMK 60002 SLP065 T02860258 52014 IEM_DS3505
ZGOW,2010-06-14 13:00,ZGOW 141300Z AUTO 20006KT 7SM 28/28 A2974 RMK T02800280 IEM_DS3505
ZGOW,2010-06-14 14:00,ZGOW 141400Z AUTO 20008KT 7SM 28/28 A2974 RMK T02800280 IEM_DS3505
ZGOW,2010-06-14 15:00,ZGOW 141500Z AUTO 20004KT 11SM 28/26 A2974 RMK SLP070 T02790261 52005 IEM_DS3505
ZGOW,2010-06-14 16:00,ZGOW 141600Z AUTO 20008KT 7SM 28/28 A2974 RMK T02800280 IEM_DS3505
ZGOW,2010-06-14 17:00,ZGOW 141700Z AUTO 20004KT 7SM 28/28 A2974 RMK T02800280 IEM_DS3505
ZGOW,2010-06-14 18:00,ZGOW 141800Z AUTO 20004KT 8SM 28/26 A2971 RMK SLP061 T02780260 57009 IEM_DS3505
ZGOW,2010-06-14 19:00,ZGOW 141900Z AUTO 21008KT 7SM 27/27 A2971 RMK T02700270 IEM_DS3505
ZGOW,2010-06-14 20:00,ZGOW 142000Z AUTO 22010KT 7SM 27/27 A2971 RMK T02700270 IEM_DS3505
ZGOW,2010-06-14 21:00,ZGOW 142100Z AUTO 18004KT 9SM 27/26 A2971 RMK 70015 SLP053 T02680259 57008 IEM_DS3505
ZGOW,2010-06-14 22:00,ZGOW 142200Z AUTO 22010KT 4SM 27/27 A2971 RMK T02700270 IEM_DS3505
ZGOW,2010-06-14 23:00,ZGOW 142300Z AUTO 21008KT 4SM 27/27 A2971 RMK T02700270 IEM_DS3505
ZGOW,2010-06-15 00:00,ZGOW 150000Z AUTO 20006KT 9SM 27/25 A2974 RMK 60035 70038 SLP066 T02700254 52013 IEM_DS3505
ZGOW,2010-06-15 01:00,ZGOW 150100Z AUTO 24008KT 1SM 26/26 A2974 RMK T02600260 IEM_DS3505
ZGOW,2010-06-15 02:00,ZGOW 150200Z AUTO 25006KT 2 1/2SM 26/26 A2977 RMK T02600260 IEM_DS3505
ZGOW,2010-06-15 03:00,ZGOW 150300Z AUTO 25004KT 5SM 26/25 A2974 RMK SLP072 T02590252 52006 IEM_DS3505
ZGOW,2010-06-15 04:00,ZGOW 150400Z AUTO 25010KT 2SM 25/25 A2977 RMK T02500250 IEM_DS3505
ZGOW,2010-06-15 05:00,ZGOW 150500Z AUTO 24006KT 4SM 26/26 A2974 RMK T02600260 IEM_DS3505
ZGOW,2010-06-15 06:00,ZGOW 150600Z AUTO 20002KT 9SM 27/26 A2971 RMK 60264 SLP062 T02670257 57010 IEM_DS3505
ZGOW,2010-06-15 07:00,ZGOW 150700Z AUTO 24002KT 7SM 27/27 A2971 RMK T02700270 IEM_DS3505
ZGOW,2010-06-15 08:00,ZGOW 150800Z AUTO 26004KT 7SM 28/28 A2971 RMK T02800280 IEM_DS3505
ZGOW,2010-06-15 09:00,ZGOW 150900Z AUTO 00000KT 11SM 29/26 A2971 RMK SLP058 T02890261 57004 IEM_DS3505
ZGOW,2010-06-15 10:00,ZGOW 151000Z AUTO 16004KT 4SM 28/28 A2971 RMK T02800280 IEM_DS3505
ZGOW,2010-06-15 11:00,ZGOW 151100Z AUTO 16006KT 4SM 27/27 A2971 RMK T02700270 IEM_DS3505
ZGOW,2010-06-15 12:00,ZGOW 151200Z AUTO 18002KT 7SM 28/26 A2974 RMK 60000 SLP070 T02770261 52012 IEM_DS3505
ZGOW,2010-06-15 13:00,ZGOW 151300Z AUTO 20006KT 4SM 27/27 A2977 RMK T02700270 IEM_DS3505
ZGOW,2010-06-15 14:00,ZGOW 151400Z AUTO 20004KT 3SM 27/27 A2977 RMK T02700270 IEM_DS3505
ZGOW,2010-06-15 15:00,ZGOW 151500Z AUTO 20004KT 7SM 27/25 A2977 RMK SLP075 T02670251 52005 IEM_DS3505
ZGOW,2010-06-15 16:00,ZGOW 151600Z AUTO 22004KT 4SM 27/27 A2977 RMK T02700270 IEM_DS3505
ZGOW,2010-06-15 17:00,ZGOW 151700Z AUTO 00000KT 4SM 26/26 A2974 RMK T02600260 IEM_DS3505
ZGOW,2010-06-15 18:00,ZGOW 151800Z AUTO 32002KT 6SM 26/25 RMK 60016 SLP073 T02580248 57002 IEM_DS3505
ZGOW,2010-06-15 19:00,ZGOW 151900Z AUTO 00000KT 2 1/2SM 26/26 A2974 RMK T02600260 IEM_DS3505
ZGOW,2010-06-15 20:00,ZGOW 152000Z AUTO 12002KT 7SM 25/ A2974 RMK IEM_DS3505
ZGOW,2010-06-15 21:00,ZGOW 152100Z AUTO 11002KT 6SM 26/25 A2974 RMK 70311 SLP066 T02560247 57007 IEM_DS3505
ZGOW,2010-06-15 23:00,ZGOW 152300Z AUTO 14002KT 2 1/2SM 25/25 A2977 RMK T02500250 IEM_DS3505
ZGOW,2010-06-16 00:00,ZGOW 160000Z AUTO 16002KT 6SM 28/26 A2974 RMK 60079 70356 SLP071 T02760265 52005 IEM_DS3505
ZGOW,2010-06-16 01:00,ZGOW 160100Z AUTO 21008KT 4SM 28/28 A2977 RMK T02800280 IEM_DS3505
ZGOW,2010-06-16 02:00,ZGOW 160200Z AUTO 22006KT 2 1/2SM 27/27 A2977 RMK T02700270 IEM_DS3505
ZGOW,2010-06-16 03:00,ZGOW 160300Z AUTO 22004KT 4SM 27/26 A2977 RMK SLP080 T02710264 52009 IEM_DS3505
ZGOW,2010-06-16 04:00,ZGOW 160400Z AUTO 22006KT 2SM 27/27 A2977 RMK T02700270 IEM_DS3505
ZGOW,2010-06-16 05:00,ZGOW 160500Z AUTO 26008KT 1 1/2SM 27/27 A2977 RMK T02700270 IEM_DS3505
ZGOW,2010-06-16 06:00,ZGOW 160600Z AUTO 27006KT 9SM 25/24 A2977 RMK 60079 SLP079 T02480239 57002 IEM_DS3505
ZGOW,2010-06-16 07:00,ZGOW 160700Z AUTO 18002KT 2 1/2SM 25/25 A2977 RMK T02500250 IEM_DS3505
ZGOW,2010-06-16 08:00,ZGOW 160800Z AUTO 00000KT 3SM 25/25 A2974 RMK T02500250 IEM_DS3505
ZGOW,2010-06-16 09:00,ZGOW 160900Z AUTO 00000KT 7SM 26/25 A2974 RMK SLP065 T02570248 57013 IEM_DS3505
ZGOW,2010-06-16 10:00,ZGOW 161000Z AUTO 07002KT 3SM 26/26 A2974 RMK T02600260 IEM_DS3505
ZGOW,2010-06-16 11:00,ZGOW 161100Z AUTO 13004KT 1 1/2SM 26/26 A2974 RMK T02600260 IEM_DS3505
ZGOW,2010-06-16 12:00,ZGOW 161200Z AUTO 27004KT 6SM 26/24 A2977 RMK 60059 SLP077 T02580244 52012 IEM_DS3505
ZGOW,2010-06-16 13:00,ZGOW 161300Z AUTO 25002KT 4SM 25/25 A2977 RMK T02500250 IEM_DS3505
ZGOW,2010-06-16 14:00,ZGOW 161400Z AUTO 24002KT 7SM 25/25 A2980 RMK T02500250 IEM_DS3505
ZGOW,2010-06-16 15:00,ZGOW 161500Z AUTO 00000KT 7SM 25/24 A2977 RMK SLP083 T02470238 52006 IEM_DS3505
ZGOW,2010-06-16 16:00,ZGOW 161600Z AUTO 00000KT 5SM 25/25 A2977 RMK T02500250 IEM_DS3505
ZGOW,2010-06-16 17:00,ZGOW 161700Z AUTO 07002KT 4SM 25/25 A2977 RMK T02500250 IEM_DS3505
ZGOW,2010-06-16 18:00,ZGOW 161800Z AUTO 00000KT 7SM 25/24 A2974 RMK 60012 SLP071 T02490244 57013 IEM_DS3505
ZGOW,2010-06-16 19:00,ZGOW 161900Z AUTO 00000KT 3SM 25/25 A2974 RMK T02500250 IEM_DS3505
ZGOW,2010-06-16 20:00,ZGOW 162000Z AUTO 00000KT 3SM 26/26 A2974 RMK T02600260 IEM_DS3505
ZGOW,2010-06-16 21:00,ZGOW 162100Z AUTO 00000KT 5SM 25/25 A2974 RMK 70216 SLP069 T02530248 57001 IEM_DS3505
ZGOW,2010-06-16 22:00,ZGOW 162200Z AUTO 05002KT 3SM 26/26 A2974 RMK T02600260 IEM_DS3505
ZGOW,2010-06-16 23:00,ZGOW 162300Z AUTO 21004KT 4SM 27/27 A2977 RMK T02700270 IEM_DS3505
ZGOW,2010-06-17 00:00,ZGOW 170000Z AUTO 22004KT 7SM 27/27 A2977 RMK T02700270 IEM_DS3505
ZGOW,2010-06-17 01:00,ZGOW 170100Z AUTO 22004KT 4SM 28/27 A2980 RMK T02800270 IEM_DS3505
ZGOW,2010-06-17 02:00,ZGOW 170200Z AUTO 21004KT 3SM 28/28 A2980 RMK T02800280 IEM_DS3505
ZGOW,2010-06-17 03:00,ZGOW 170300Z AUTO 18002KT 6SM 28/27 A2980 RMK SLP088 T02790267 52008 IEM_DS3505
ZGOW,2010-06-17 04:00,ZGOW 170400Z AUTO 20010KT 7SM 28/28 A2977 RMK T02800280 IEM_DS3505
ZGOW,2010-06-17 05:00,ZGOW 170500Z AUTO 21012KT 7SM 29/28 A2977 RMK T02900280 IEM_DS3505
ZGOW,2010-06-17 06:00,ZGOW 170600Z AUTO 22004KT 7SM 30/26 A2974 RMK 60012 SLP073 T02960264 57015 IEM_DS3505
ZGOW,2010-06-17 07:00,ZGOW 170700Z AUTO 21008KT 7SM 29/28 A2974 RMK T02900280 IEM_DS3505
ZGOW,2010-06-17 08:00,ZGOW 170800Z AUTO 20006KT 7SM 29/28 A2974 RMK T02900280 IEM_DS3505
ZGOW,2010-06-17 09:00,ZGOW 170900Z AUTO 20006KT 7SM 29/26 A2974 RMK SLP068 T02900260 57005 IEM_DS3505
ZGOW,2010-06-17 10:00,ZGOW 171000Z AUTO 20004KT 5SM 28/28 A2974 RMK T02800280 IEM_DS3505
ZGOW,2010-06-17 11:00,ZGOW 171100Z AUTO 20004KT 4SM 28/28 A2977 RMK T02800280 IEM_DS3505
ZGOW,2010-06-17 12:00,ZGOW 171200Z AUTO 16004KT 9SM 28/26 A2977 RMK 60000 SLP078 T02800260 52010 IEM_DS3505
ZGOW,2010-06-17 13:00,ZGOW 171300Z AUTO 19008KT 7SM 27/27 A2980 RMK T02700270 IEM_DS3505
ZGOW,2010-06-17 14:00,ZGOW 171400Z AUTO 17006KT 7SM 27/27 A2977 RMK T02700270 IEM_DS3505
ZGOW,2010-06-17 15:00,ZGOW 171500Z AUTO 18002KT 9SM 27/26 A2980 RMK SLP085 T02740260 52007 IEM_DS3505
ZGOW,2010-06-17 16:00,ZGOW 171600Z AUTO 19006KT 7SM 27/27 A2977 RMK T02700270 IEM_DS3505
ZGOW,2010-06-17 17:00,ZGOW 171700Z AUTO 19004KT 7SM 27/27 A2977 RMK T02700270 IEM_DS3505
ZGOW,2010-06-17 18:00,ZGOW 171800Z AUTO 16002KT 8SM 27/26 A2977 RMK SLP073 T02720260 57012 IEM_DS3505
ZGOW,2010-06-17 19:00,ZGOW 171900Z AUTO 20006KT 7SM 27/27 A2977 RMK T02700270 IEM_DS3505
ZGOW,2010-06-17 20:00,ZGOW 172000Z AUTO 21004KT 7SM 26/26 A2977 RMK T02600260 IEM_DS3505
ZGOW,2010-06-17 21:00,ZGOW 172100Z AUTO 22004KT 9SM 27/25 A2974 RMK 70012 SLP071 T02690253 57002 IEM_DS3505
ZGOW,2010-06-17 22:00,ZGOW 172200Z AUTO 22004KT 7SM 27/27 A2977 RMK T02700270 IEM_DS3505
ZGOW,2010-06-17 23:00,ZGOW 172300Z AUTO 18002KT 7SM 28/28 A2980 RMK T02800280 IEM_DS3505
ZGOW,2010-06-18 00:00,ZGOW 180000Z AUTO 20004KT 12SM 30/26 A2980 RMK 70011 SLP087 T02960258 52016 IEM_DS3505
ZGOW,2010-06-18 01:00,ZGOW 180100Z AUTO 23012KT 7SM 30/27 A2980 RMK T03000270 IEM_DS3505
ZGOW,2010-06-18 02:00,ZGOW 180200Z AUTO 24012KT 7SM 31/28 A2980 RMK T03100280 IEM_DS3505
ZGOW,2010-06-18 03:00,ZGOW 180300Z AUTO 22006KT 16SM 32/25 A2980 RMK SLP087 T03210252 54000 IEM_DS3505
ZGOW,2010-06-18 04:00,ZGOW 180400Z AUTO 19012KT 7SM 31/29 A2977 RMK T03100290 IEM_DS3505
ZGOW,2010-06-18 05:00,ZGOW 180500Z AUTO 20012KT 7SM 32/29 A2977 RMK T03200290 IEM_DS3505
ZGOW,2010-06-18 06:00,ZGOW 180600Z AUTO 20008KT 19SM 33/25 A2974 RMK SLP070 T03310251 57017 IEM_DS3505
ZGOW,2010-06-18 07:00,ZGOW 180700Z AUTO 20016KT 7SM 32/29 A2971 RMK T03200290 IEM_DS3505
ZGOW,2010-06-18 08:00,ZGOW 180800Z AUTO 23012KT 7SM 33/28 A2971 RMK T03300280 IEM_DS3505
ZGOW,2010-06-18 09:00,ZGOW 180900Z AUTO 22008KT 16SM 32/25 A2971 RMK SLP065 T03160252 57005 IEM_DS3505
ZGOW,2010-06-18 10:00,ZGOW 181000Z AUTO 20010KT 7SM 30/28 A2971 RMK T03000280 IEM_DS3505
ZGOW,2010-06-18 11:00,ZGOW 181100Z AUTO 22008KT 7SM 29/27 A2974 RMK T02900270 IEM_DS3505
ZGOW,2010-06-18 12:00,ZGOW 181200Z AUTO 20004KT 12SM 29/25 A2977 RMK SLP077 T02900254 52012 IEM_DS3505
ZGOW,2010-06-18 13:00,ZGOW 181300Z AUTO 19010KT 7SM 28/28 A2980 RMK T02800280 IEM_DS3505
ZGOW,2010-06-18 14:00,ZGOW 181400Z AUTO 19006KT 7SM 28/28 A2980 RMK T02800280 IEM_DS3505
ZGOW,2010-06-18 15:00,ZGOW 181500Z AUTO 18002KT 12SM 28/26 A2980 RMK SLP093 T02800260 52016 IEM_DS3505
ZGOW,2010-06-18 16:00,ZGOW 181600Z AUTO 19006KT 7SM 27/27 A2980 RMK T02700270 IEM_DS3505
ZGOW,2010-06-18 17:00,ZGOW 181700Z AUTO 18004KT 7SM 27/27 A2980 RMK T02700270 IEM_DS3505
ZGOW,2010-06-18 18:00,ZGOW 181800Z AUTO 22002KT 12SM 27/26 A2980 RMK SLP083 T02730257 57010 IEM_DS3505
ZGOW,2010-06-18 19:00,ZGOW 181900Z AUTO 19004KT 6SM 27/27 A2977 RMK T02700270 IEM_DS3505
ZGOW,2010-06-18 20:00,ZGOW 182000Z AUTO 20002KT 6SM 27/27 A2977 RMK T02700270 IEM_DS3505
ZGOW,2010-06-18 21:00,ZGOW 182100Z AUTO 00000KT 12SM 27/25 A2980 RMK SLP083 T02660254 54000 IEM_DS3505
ZGOW,2010-06-18 22:00,ZGOW 182200Z AUTO 20004KT 7SM 27/27 A2980 RMK T02700270 IEM_DS3505
ZGOW,2010-06-18 23:00,ZGOW 182300Z AUTO 25004KT 7SM 28/28 A2980 RMK T02800280 IEM_DS3505
ZGOW,2010-06-19 00:00,ZGOW 190000Z AUTO 20004KT 14SM 30/26 A2980 RMK SLP091 T02980255 52008 IEM_DS3505
ZGOW,2010-06-19 01:00,ZGOW 190100Z AUTO 24006KT 7SM 30/28 A2980 RMK T03000280 IEM_DS3505
ZGOW,2010-06-19 02:00,ZGOW 190200Z AUTO 26008KT 7SM 31/27 A2980 RMK T03100270 IEM_DS3505
ZGOW,2010-06-19 03:00,ZGOW 190300Z AUTO 16004KT 15SM 32/25 A2980 RMK SLP085 T03180252 57006 IEM_DS3505
ZGOW,2010-06-19 04:00,ZGOW 190400Z AUTO 20010KT 7SM 31/29 A2980 RMK T03100290 IEM_DS3505
ZGOW,2010-06-19 05:00,ZGOW 190500Z AUTO 19012KT 7SM 32/29 A2977 RMK T03200290 IEM_DS3505
ZGOW,2010-06-19 06:00,ZGOW 190600Z AUTO 20008KT 16SM 33/24 A2977 RMK SLP080 T03300245 57005 IEM_DS3505
ZGOW,2010-06-19 07:00,ZGOW 190700Z AUTO 19012KT 7SM 31/29 A2974 RMK T03100290 IEM_DS3505
ZGOW,2010-06-19 08:00,ZGOW 190800Z AUTO 19014KT 7SM 31/29 A2974 RMK T03100290 IEM_DS3505
ZGOW,2010-06-19 09:00,ZGOW 190900Z AUTO 22008KT 12SM 32/26 A2974 RMK SLP068 T03170256 57012 IEM_DS3505
ZGOW,2010-06-19 10:00,ZGOW 191000Z AUTO 19010KT 7SM 30/29 A2974 RMK T03000290 IEM_DS3505
ZGOW,2010-06-19 11:00,ZGOW 191100Z AUTO 19010KT 7SM 29/28 A2974 RMK T02900280 IEM_DS3505
ZGOW,2010-06-19 12:00,ZGOW 191200Z AUTO 20002KT 11SM 29/26 A2977 RMK SLP075 T02870261 52007 IEM_DS3505
ZGOW,2010-06-19 13:00,ZGOW 191300Z AUTO 20010KT 4SM 28/28 A2977 RMK T02800280 IEM_DS3505
ZGOW,2010-06-19 14:00,ZGOW 191400Z AUTO 20008KT 7SM 28/28 A2977 RMK T02800280 IEM_DS3505
ZGOW,2010-06-19 15:00,ZGOW 191500Z AUTO 18006KT 11SM 28/26 A2977 RMK SLP078 T02810263 52003 IEM_DS3505
ZGOW,2010-06-19 16:00,ZGOW 191600Z AUTO 20008KT 7SM 28/28 A2974 RMK T02800280 IEM_DS3505
ZGOW,2010-06-19 17:00,ZGOW 191700Z AUTO 21006KT 7SM 28/28 A2977 RMK T02800280 IEM_DS3505
ZGOW,2010-06-19 18:00,ZGOW 191800Z AUTO 18004KT 11SM 28/26 A2974 RMK SLP070 T02770261 57008 IEM_DS3505
ZGOW,2010-06-19 19:00,ZGOW 191900Z AUTO 20006KT 7SM 28/28 A2974 RMK T02800280 IEM_DS3505
ZGOW,2010-06-19 20:00,ZGOW 192000Z AUTO 20010KT 6SM 28/28 A2971 RMK T02800280 IEM_DS3505
ZGOW,2010-06-19 21:00,ZGOW 192100Z AUTO 20006KT 11SM 28/26 A2974 RMK SLP068 T02770257 57002 IEM_DS3505
ZGOW,2010-06-19 23:00,ZGOW 192300Z AUTO 20002KT 7SM 29/28 A2977 RMK T02900280 IEM_DS3505
ZGOW,2010-06-20 00:00,ZGOW 200000Z AUTO 22002KT 10SM 29/26 A2977 RMK SLP079 T02940260 52011 IEM_DS3505
ZGOW,2010-06-20 01:00,ZGOW 200100Z AUTO 23006KT 7SM 30/28 A2977 RMK T03000280 IEM_DS3505
ZGOW,2010-06-20 02:00,ZGOW 200200Z AUTO 22006KT 7SM 31/28 A2977 RMK T03100280 IEM_DS3505
ZGOW,2010-06-20 03:00,ZGOW 200300Z AUTO 22004KT 12SM 32/26 A2977 RMK SLP077 T03190257 57002 IEM_DS3505
ZGOW,2010-06-20 04:00,ZGOW 200400Z AUTO 17010KT 7SM 31/29 A2977 RMK T03100290 IEM_DS3505
ZGOW,2010-06-20 05:00,ZGOW 200500Z AUTO 19012KT 7SM 31/29 A2974 RMK T03100290 IEM_DS3505
ZGOW,2010-06-20 06:00,ZGOW 200600Z AUTO 18006KT 17SM 31/27 A2974 RMK SLP067 T03140269 57010 IEM_DS3505
ZGOW,2010-06-20 07:00,ZGOW 200700Z AUTO 21010KT 7SM 31/29 A2971 RMK T03100290 IEM_DS3505
ZGOW,2010-06-20 08:00,ZGOW 200800Z AUTO 19010KT 7SM 31/29 A2971 RMK T03100290 IEM_DS3505
ZGOW,2010-06-20 09:00,ZGOW 200900Z AUTO 20004KT 19SM 32/26 A2971 RMK SLP059 T03200256 57008 IEM_DS3505
ZGOW,2010-06-20 10:00,ZGOW 201000Z AUTO 19008KT 7SM 30/28 A2971 RMK T03000280 IEM_DS3505
ZGOW,2010-06-20 11:00,ZGOW 201100Z AUTO 18006KT 7SM 29/28 A2971 RMK T02900280 IEM_DS3505
ZGOW,2010-06-20 12:00,ZGOW 201200Z AUTO 18008KT 12SM 29/26 A2974 RMK SLP069 T02870259 52010 IEM_DS3505
ZGOW,2010-06-20 13:00,ZGOW 201300Z AUTO 19010KT 7SM 28/28 A2974 RMK T02800280 IEM_DS3505
ZGOW,2010-06-20 14:00,ZGOW 201400Z AUTO 19006KT 7SM 28/28 A2977 RMK T02800280 IEM_DS3505
ZGOW,2010-06-20 15:00,ZGOW 201500Z AUTO 18004KT 12SM 28/26 A2980 RMK SLP085 T02830263 52016 IEM_DS3505
ZGOW,2010-06-20 16:00,ZGOW 201600Z AUTO 19008KT 7SM 28/28 A2977 RMK T02800280 IEM_DS3505
ZGOW,2010-06-20 17:00,ZGOW 201700Z AUTO 21006KT 7SM 28/28 A2977 RMK T02800280 IEM_DS3505
ZGOW,2010-06-20 18:00,ZGOW 201800Z AUTO 00000KT 12SM 28/26 A2974 RMK SLP071 T02770259 57014 IEM_DS3505
ZGOW,2010-06-20 19:00,ZGOW 201900Z AUTO 19006KT 7SM 28/28 A2974 RMK T02800280 IEM_DS3505
ZGOW,2010-06-20 20:00,ZGOW 202000Z AUTO 20008KT 7SM 28/28 A2974 RMK T02800280 IEM_DS3505
ZGOW,2010-06-20 21:00,ZGOW 202100Z AUTO 18004KT 12SM 27/26 A2974 RMK SLP068 T02740258 57003 IEM_DS3505
ZGOW,2010-06-20 22:00,ZGOW 202200Z AUTO 20006KT 7SM 28/27 A2974 RMK T02800270 IEM_DS3505
ZGOW,2010-06-20 23:00,ZGOW 202300Z AUTO 22006KT 7SM 28/28 A2977 RMK T02800280 IEM_DS3505
ZGOW,2010-06-21 00:00,ZGOW 210000Z AUTO 18004KT 14SM 29/26 A2977 RMK SLP075 T02940256 52007 IEM_DS3505
ZGOW,2010-06-21 01:00,ZGOW 210100Z AUTO 23008KT 7SM 30/27 A2977 RMK T03000270 IEM_DS3505
ZGOW,2010-06-21 02:00,ZGOW 210200Z AUTO 20006KT 4SM 29/28 A2977 RMK T02900280 IEM_DS3505
ZGOW,2010-06-21 03:00,ZGOW 210300Z AUTO 18008KT 12SM 32/26 A2977 RMK SLP076 T03170260 52001 IEM_DS3505
ZGOW,2010-06-21 04:00,ZGOW 210400Z AUTO 19012KT 7SM 32/29 A2974 RMK T03200290 IEM_DS3505
ZGOW,2010-06-21 05:00,ZGOW 210500Z AUTO 19012KT 7SM 31/29 A2974 RMK T03100290 IEM_DS3505
ZGOW,2010-06-21 06:00,ZGOW 210600Z AUTO 25006KT 12SM 30/25 A2974 RMK SLP069 T03010252 57007 IEM_DS3505
ZGOW,2010-06-21 07:00,ZGOW 210700Z AUTO 22004KT 7SM 30/28 A2974 RMK T03000280 IEM_DS3505
ZGOW,2010-06-21 08:00,ZGOW 210800Z AUTO 24014G27KT 1/2SM 30/25 A2974 RMK T03000250 IEM_DS3505
ZGOW,2010-06-21 09:00,ZGOW 210900Z AUTO 29002KT 9SM 28/25 A2974 RMK SLP067 T02800248 57002 IEM_DS3505
ZGOW,2010-06-21 10:00,ZGOW 211000Z AUTO 24004KT 7SM 28/25 A2974 RMK T02800250 IEM_DS3505
ZGOW,2010-06-21 11:00,ZGOW 211100Z AUTO 00000KT 7SM 28/25 A2977 RMK T02800250 IEM_DS3505
ZGOW,2010-06-21 12:00,ZGOW 211200Z AUTO 00000KT 9SM 28/26 A2980 RMK 60008 SLP084 T02790259 52017 IEM_DS3505
ZGOW,2010-06-21 13:00,ZGOW 211300Z AUTO 00000KT 7SM 27/26 A2980 RMK T02700260 IEM_DS3505
ZGOW,2010-06-21 14:00,ZGOW 211400Z AUTO 15004KT 7SM 27/26 A2980 RMK T02700260 IEM_DS3505
ZGOW,2010-06-21 15:00,ZGOW 211500Z AUTO 14002KT 9SM 28/25 A2983 RMK SLP096 T02780254 52012 IEM_DS3505
ZGOW,2010-06-21 16:00,ZGOW 211600Z AUTO 20004KT 7SM 27/25 A2980 RMK T02700250 IEM_DS3505
ZGOW,2010-06-21 17:00,ZGOW 211700Z AUTO 21002KT 7SM 27/25 A2977 RMK T02700250 IEM_DS3505
ZGOW,2010-06-21 18:00,ZGOW 211800Z AUTO 20002KT 11SM 28/25 A2977 RMK SLP082 T02750253 57014 IEM_DS3505
ZGOW,2010-06-21 19:00,ZGOW 211900Z AUTO 18004KT 7SM 27/26 A2980 RMK T02700260 IEM_DS3505
ZGOW,2010-06-21 20:00,ZGOW 212000Z AUTO 19004KT 6SM 27/25 A2977 RMK T02700250 IEM_DS3505
ZGOW,2010-06-21 21:00,ZGOW 212100Z AUTO 27002KT 11SM 27/26 A2977 RMK 70009 SLP084 T02710255 52002 IEM_DS3505
ZGOW,2010-06-21 22:00,ZGOW 212200Z AUTO 00000KT 7SM 27/26 A2980 RMK T02700260 IEM_DS3505
ZGOW,2010-06-21 23:00,ZGOW 212300Z AUTO 32004KT 3SM 27/26 A2983 RMK T02700260 IEM_DS3505
ZGOW,2010-06-22 00:00,ZGOW 220000Z AUTO 27002KT 7SM 27/26 A2983 RMK 60003 70011 SLP096 T02690255 52012 IEM_DS3505
ZGOW,2010-06-22 01:00,ZGOW 220100Z AUTO 34002KT 3SM 28/26 A2983 RMK T02800260 IEM_DS3505
ZGOW,2010-06-22 02:00,ZGOW 220200Z AUTO 28002KT 4SM 29/26 A2983 RMK T02900260 IEM_DS3505
ZGOW,2010-06-22 03:00,ZGOW 220300Z AUTO 25004KT 11SM 30/26 A2980 RMK SLP095 T03030256 57001 IEM_DS3505
ZGOW,2010-06-22 04:00,ZGOW 220400Z AUTO 19012KT 1SM 27/25 A2983 RMK T02700250 IEM_DS3505
ZGOW,2010-06-22 05:00,ZGOW 220500Z AUTO 16008KT 4SM 29/26 A2980 RMK T02900260 IEM_DS3505
ZGOW,2010-06-22 06:00,ZGOW 220600Z AUTO 16004KT 14SM 29/27 A2977 RMK 60083 SLP079 T02900272 57016 IEM_DS3505
ZGOW,2010-06-22 07:00,ZGOW 220700Z AUTO 20010KT 7SM 30/26 A2977 RMK T03000260 IEM_DS3505
ZGOW,2010-06-22 08:00,ZGOW 220800Z AUTO 19010KT 7SM 28/26 A2977 RMK T02800260 IEM_DS3505
ZGOW,2010-06-22 09:00,ZGOW 220900Z AUTO 18004KT 12SM 28/26 A2974 RMK SLP073 T02800256 57006 IEM_DS3505
ZGOW,2010-06-22 10:00,ZGOW 221000Z AUTO 19004KT 7SM 28/26 A2977 RMK T02800260 IEM_DS3505
ZGOW,2010-06-22 11:00,ZGOW 221100Z AUTO 20004KT 7SM 28/26 A2980 RMK T02800260 IEM_DS3505
ZGOW,2010-06-22 12:00,ZGOW 221200Z AUTO 20002KT 11SM 28/26 A2980 RMK 60000 SLP093 T02780256 52020 IEM_DS3505
ZGOW,2010-06-22 13:00,ZGOW 221300Z AUTO 19006KT 7SM 28/26 A2983 RMK T02800260 IEM_DS3505
ZGOW,2010-06-22 14:00,ZGOW 221400Z AUTO 20006KT 7SM 27/26 A2983 RMK T02700260 IEM_DS3505
ZGOW,2010-06-22 15:00,ZGOW 221500Z AUTO 18004KT 12SM 27/25 A2983 RMK SLP100 T02740250 52007 IEM_DS3505
ZGOW,2010-06-22 16:00,ZGOW 221600Z AUTO 20004KT 7SM 27/25 A2983 RMK T02700250 IEM_DS3505
ZGOW,2010-06-22 17:00,ZGOW 221700Z AUTO 20002KT 6SM 27/25 A2980 RMK T02700250 IEM_DS3505
ZGOW,2010-06-22 18:00,ZGOW 221800Z AUTO 25002KT 12SM 27/25 A2980 RMK 60000 SLP090 T02690251 57010 IEM_DS3505
ZGOW,2010-06-22 19:00,ZGOW 221900Z AUTO 00000KT 4SM 26/25 A2980 RMK T02600250 IEM_DS3505
ZGOW,2010-06-22 20:00,ZGOW 222000Z AUTO 19002KT 6SM 27/26 A2980 RMK T02700260 IEM_DS3505
ZGOW,2010-06-22 21:00,ZGOW 222100Z AUTO 00000KT 11SM 27/25 A2977 RMK 70085 SLP084 T02670253 57006 IEM_DS3505
ZGOW,2010-06-22 22:00,ZGOW 222200Z AUTO 13002KT 7SM 26/26 A2980 RMK T02600260 IEM_DS3505
ZGOW,2010-06-22 23:00,ZGOW 222300Z AUTO 22002KT 7SM 27/26 A2980 RMK T02700260 IEM_DS3505
ZGOW,2010-06-23 00:00,ZGOW 230000Z AUTO 25004KT 12SM 29/26 A2980 RMK 70083 SLP089 T02890257 52005 IEM_DS3505
ZGOW,2010-06-23 01:00,ZGOW 230100Z AUTO 23006KT 7SM 30/26 A2980 RMK T03000260 IEM_DS3505
ZGOW,2010-06-23 02:00,ZGOW 230200Z AUTO 24006KT 7SM 29/25 A2980 RMK T02900250 IEM_DS3505
ZGOW,2010-06-23 03:00,ZGOW 230300Z AUTO 18004KT 16SM 30/26 A2977 RMK SLP084 T02990256 57005 IEM_DS3505
ZGOW,2010-06-23 04:00,ZGOW 230400Z AUTO 21002KT 7SM 25/24 A2977 RMK T02500240 IEM_DS3505
ZGOW,2010-06-23 05:00,ZGOW 230500Z AUTO 20008KT 7SM 30/27 A2974 RMK T03000270 IEM_DS3505
ZGOW,2010-06-23 06:00,ZGOW 230600Z AUTO 20004KT 12SM 30/25 A2974 RMK 60035 SLP073 T02950253 57011 IEM_DS3505
ZGOW,2010-06-23 07:00,ZGOW 230700Z AUTO 22004KT 7SM 28/26 A2974 RMK T02800260 IEM_DS3505
ZGOW,2010-06-23 08:00,ZGOW 230800Z AUTO 02002KT 4SM 28/26 A2971 RMK T02800260 IEM_DS3505
ZGOW,2010-06-23 09:00,ZGOW 230900Z AUTO 00000KT 11SM 28/25 A2971 RMK SLP058 T02820254 57015 IEM_DS3505
ZGOW,2010-06-23 10:00,ZGOW 231000Z AUTO 00000KT 4SM 27/26 A2971 RMK T02700260 IEM_DS3505
ZGOW,2010-06-23 11:00,ZGOW 231100Z AUTO 00000KT 3SM 27/26 A2971 RMK T02700260 IEM_DS3505
ZGOW,2010-06-23 12:00,ZGOW 231200Z AUTO 25004KT 11SM 28/24 A2974 RMK 60000 SLP066 T02790243 52008 IEM_DS3505
ZGOW,2010-06-23 13:00,ZGOW 231300Z AUTO 17002KT 4SM 27/25 A2974 RMK T02700250 IEM_DS3505
ZGOW,2010-06-23 14:00,ZGOW 231400Z AUTO 15004KT 5SM 27/25 A2977 RMK T02700250 IEM_DS3505
ZGOW,2010-06-23 15:00,ZGOW 231500Z AUTO 14002KT 10SM 27/25 A2974 RMK SLP068 T02720247 52002 IEM_DS3505
ZGOW,2010-06-23 16:00,ZGOW 231600Z AUTO 15004KT 5SM 26/25 A2974 RMK T02600250 IEM_DS3505
ZGOW,2010-06-23 17:00,ZGOW 231700Z AUTO 20002KT 5SM 27/25 A2971 RMK T02700250 IEM_DS3505
ZGOW,2010-06-23 18:00,ZGOW 231800Z AUTO 22002KT 10SM 27/25 A2971 RMK SLP055 T02690253 57013 IEM_DS3505
ZGOW,2010-06-23 19:00,ZGOW 231900Z AUTO 12002KT 6SM 26/25 A2968 RMK T02600250 IEM_DS3505
ZGOW,2010-06-23 20:00,ZGOW 232000Z AUTO 13002KT 4SM 26/25 A2965 RMK T02600250 IEM_DS3505
ZGOW,2010-06-23 21:00,ZGOW 232100Z AUTO 00000KT 9SM 26/25 A2968 RMK 70034 SLP047 T02650253 57008 IEM_DS3505
ZGOW,2010-06-23 22:00,ZGOW 232200Z AUTO 09002KT 3SM 26/25 A2968 RMK T02600250 IEM_DS3505
ZGOW,2010-06-23 23:00,ZGOW 232300Z AUTO 19006KT 7SM 26/25 A2968 RMK T02600250 IEM_DS3505
ZGOW,2010-06-24 00:00,ZGOW 240000Z AUTO 22004KT 11SM 26/25 A2971 RMK 60031 70067 SLP056 T02590247 52009 IEM_DS3505
ZGOW,2010-06-24 01:00,ZGOW 240100Z AUTO 20004KT 7SM 27/25 A2968 RMK T02700250 IEM_DS3505
ZGOW,2010-06-24 02:00,ZGOW 240200Z AUTO 19012KT 7SM 28/25 A2971 RMK T02800250 IEM_DS3505
ZGOW,2010-06-24 03:00,ZGOW 240300Z AUTO 18006KT 16SM 29/25 A2968 RMK SLP048 T02890251 57008 IEM_DS3505
ZGOW,2010-06-24 04:00,ZGOW 240400Z AUTO 20012KT 7SM 30/25 A2965 RMK T03000250 IEM_DS3505
ZGOW,2010-06-24 05:00,ZGOW 240500Z AUTO 20012KT 7SM 30/26 A2962 RMK T03000260 IEM_DS3505
ZGOW,2010-06-24 06:00,ZGOW 240600Z AUTO 22008G25KT 11SM 26/24 A2965 RMK 60020 SLP036 T02590245 57012 IEM_DS3505
ZGOW,2010-06-24 07:00,ZGOW 240700Z AUTO 20006KT 7SM 26/24 A2962 RMK T02600240 IEM_DS3505
ZGOW,2010-06-24 08:00,ZGOW 240800Z AUTO 24006KT 7SM 27/25 A2962 RMK T02700250 IEM_DS3505
ZGOW,2010-06-24 09:00,ZGOW 240900Z AUTO 20002KT 11SM 27/25 A2959 RMK SLP016 T02730248 57020 IEM_DS3505
ZGOW,2010-06-24 10:00,ZGOW 241000Z AUTO 22004KT 7SM 27/25 A2959 RMK T02700250 IEM_DS3505
ZGOW,2010-06-24 11:00,ZGOW 241100Z AUTO 12004KT 4SM 27/26 A2959 RMK T02700260 IEM_DS3505
ZGOW,2010-06-24 12:00,ZGOW 241200Z AUTO 20002KT 10SM 27/26 A2962 RMK 60003 SLP025 T02730259 52009 IEM_DS3505
ZGOW,2010-06-24 13:00,ZGOW 241300Z AUTO 16002KT 7SM 27/26 A2962 RMK T02700260 IEM_DS3505
ZGOW,2010-06-24 14:00,ZGOW 241400Z AUTO 19006KT 7SM 27/26 A2962 RMK T02700260 IEM_DS3505
ZGOW,2010-06-24 15:00,ZGOW 241500Z AUTO 20002KT 9SM 28/26 A2962 RMK SLP024 T02770255 57001 IEM_DS3505
ZGOW,2010-06-24 16:00,ZGOW 241600Z AUTO 20004KT 7SM 28/26 A2959 RMK T02800260 IEM_DS3505
ZGOW,2010-06-24 17:00,ZGOW 241700Z AUTO 18002KT 7SM 27/26 A2959 RMK T02700260 IEM_DS3505
ZGOW,2010-06-24 18:00,ZGOW 241800Z AUTO 22014G23KT 5SM 25/24 A2959 RMK 60146 SLP024 T02520245 54000 IEM_DS3505
ZGOW,2010-06-24 19:00,ZGOW 241900Z AUTO 20008KT 2SM 25/25 A2956 RMK T02500250 IEM_DS3505
ZGOW,2010-06-24 20:00,ZGOW 242000Z AUTO 21014KT 2SM 25/25 A2956 RMK T02500250 IEM_DS3505
ZGOW,2010-06-24 21:00,ZGOW 242100Z AUTO 20006KT 9SM 26/24 A2959 RMK 70370 SLP014 T02550245 57010 IEM_DS3505
ZGOW,2010-06-24 22:00,ZGOW 242200Z AUTO 21008KT 4SM 26/25 A2956 RMK T02600250 IEM_DS3505
ZGOW,2010-06-24 23:00,ZGOW 242300Z AUTO 22006KT 4SM 26/25 A2959 RMK T02600250 IEM_DS3505
ZGOW,2010-06-25 00:00,ZGOW 250000Z AUTO 25006KT 9SM 26/24 A2959 RMK 60189 70359 SLP023 T02570245 52009 IEM_DS3505
ZGOW,2010-06-25 01:00,ZGOW 250100Z AUTO 23010KT 4SM 26/24 A2959 RMK T02600240 IEM_DS3505
ZGOW,2010-06-25 02:00,ZGOW 250200Z AUTO 21008KT 3SM 26/25 A2962 RMK T02600250 IEM_DS3505
ZGOW,2010-06-25 03:00,ZGOW 250300Z AUTO 22004KT 9SM 26/25 A2959 RMK SLP023 T02650249 54000 IEM_DS3505
ZGOW,2010-06-25 04:00,ZGOW 250400Z AUTO 26004KT 1 1/2SM 27/26 A2962 RMK T02700260 IEM_DS3505
ZGOW,2010-06-25 05:00,ZGOW 250500Z AUTO 25002KT 4SM 25/24 A2956 RMK T02500240 IEM_DS3505
ZGOW,2010-06-25 06:00,ZGOW 250600Z AUTO 27002KT 11SM 27/26 A2956 RMK 60130 SLP013 T02690257 57010 IEM_DS3505
ZGOW,2010-06-25 07:00,ZGOW 250700Z AUTO 11002KT 4SM 28/26 A2956 RMK T02800260 IEM_DS3505
ZGOW,2010-06-25 08:00,ZGOW 250800Z AUTO 07004KT 4SM 27/26 A2956 RMK T02700260 IEM_DS3505
ZGOW,2010-06-25 09:00,ZGOW 250900Z AUTO 22010KT 6SM 26/24 A2956 RMK SLP013 T02640241 54000 IEM_DS3505
ZGOW,2010-06-25 10:00,ZGOW 251000Z AUTO 24004KT 2 1/2SM 26/25 A2956 RMK T02600250 IEM_DS3505
ZGOW,2010-06-25 11:00,ZGOW 251100Z AUTO 16002KT 5SM 26/25 A2959 RMK T02600250 IEM_DS3505
ZGOW,2010-06-25 12:00,ZGOW 251200Z AUTO 00000KT 9SM 26/25 A2959 RMK 60051 SLP019 T02590250 52006 IEM_DS3505
ZGOW,2010-06-25 13:00,ZGOW 251300Z AUTO 00000KT 4SM 26/25 A2962 RMK T02600250 IEM_DS3505
ZGOW,2010-06-25 14:00,ZGOW 251400Z AUTO 00000KT 4SM 26/25 A2962 RMK T02600250 IEM_DS3505
ZGOW,2010-06-25 15:00,ZGOW 251500Z AUTO 00000KT 11SM 26/25 A2962 RMK SLP030 T02610252 52011 IEM_DS3505
ZGOW,2010-06-25 16:00,ZGOW 251600Z AUTO 14004KT 7SM 26/25 A2965 RMK T02600250 IEM_DS3505
ZGOW,2010-06-25 17:00,ZGOW 251700Z AUTO 21002KT 5SM 26/25 A2962 RMK T02600250 IEM_DS3505
ZGOW,2010-06-25 18:00,ZGOW 251800Z AUTO 16002KT 9SM 26/25 A2962 RMK 60031 SLP028 T02590252 57002 IEM_DS3505
ZGOW,2010-06-25 19:00,ZGOW 251900Z AUTO 23002KT 7SM 26/25 A2962 RMK T02600250 IEM_DS3505
ZGOW,2010-06-25 20:00,ZGOW 252000Z AUTO 12002KT 6SM 25/25 A2962 RMK T02500250 IEM_DS3505
ZGOW,2010-06-25 21:00,ZGOW 252100Z AUTO 00000KT 12SM 26/25 A2962 RMK 70241 SLP030 T02570250 52002 IEM_DS3505
ZGOW,2010-06-25 22:00,ZGOW 252200Z AUTO 11002KT 7SM 25/25 A2965 RMK T02500250 IEM_DS3505
ZGOW,2010-06-25 23:00,ZGOW 252300Z AUTO 17004KT 7SM 25/25 A2968 RMK T02500250 IEM_DS3505
ZGOW,2010-06-26 00:00,ZGOW 260000Z AUTO 16002KT 12SM 26/25 A2968 RMK 60008 70219 SLP050 T02610251 52020 IEM_DS3505
ZGOW,2010-06-26 01:00,ZGOW 260100Z AUTO 17008KT 7SM 26/25 A2971 RMK T02600250 IEM_DS3505
ZGOW,2010-06-26 02:00,ZGOW 260200Z AUTO 19010KT 2SM 26/25 A2974 RMK T02600250 IEM_DS3505
ZGOW,2010-06-26 03:00,ZGOW 260300Z AUTO 22004KT 10SM 26/25 A2974 RMK SLP063 T02620253 52013 IEM_DS3505
ZGOW,2010-06-26 04:00,ZGOW 260400Z AUTO 24008KT 7SM 27/25 A2971 RMK T02700250 IEM_DS3505
ZGOW,2010-06-26 05:00,ZGOW 260500Z AUTO 24008KT 7SM 27/25 A2974 RMK T02700250 IEM_DS3505
ZGOW,2010-06-26 06:00,ZGOW 260600Z AUTO 22004KT 10SM 26/24 A2971 RMK 60051 SLP058 T02620244 57005 IEM_DS3505
ZGOW,2010-06-26 07:00,ZGOW 260700Z AUTO 24004KT 7SM 26/25 A2968 RMK T02600250 IEM_DS3505
ZGOW,2010-06-26 08:00,ZGOW 260800Z AUTO 20002KT 7SM 26/25 A2968 RMK T02600250 IEM_DS3505
ZGOW,2010-06-26 09:00,ZGOW 260900Z AUTO 22004KT 10SM 26/25 A2968 RMK SLP054 T02650247 57004 IEM_DS3505
ZGOW,2010-06-26 10:00,ZGOW 261000Z AUTO 26002KT 7SM 26/25 A2971 RMK T02600250 IEM_DS3505
ZGOW,2010-06-26 11:00,ZGOW 261100Z AUTO 20002KT 3SM 26/25 A2971 RMK T02600250 IEM_DS3505
ZGOW,2010-06-26 12:00,ZGOW 261200Z AUTO 25002KT 9SM 26/25 A2974 RMK 60004 SLP066 T02600248 52012 IEM_DS3505
ZGOW,2010-06-26 13:00,ZGOW 261300Z AUTO 11002KT 7SM 25/25 A2974 RMK T02500250 IEM_DS3505
ZGOW,2010-06-26 14:00,ZGOW 261400Z AUTO 14004KT 7SM 25/25 A2977 RMK T02500250 IEM_DS3505
ZGOW,2010-06-26 15:00,ZGOW 261500Z AUTO 14002KT 7SM 26/25 A2977 RMK SLP077 T02580249 52011 IEM_DS3505
ZGOW,2010-06-26 16:00,ZGOW 261600Z AUTO 14004KT 7SM 25/25 A2977 RMK T02500250 IEM_DS3505
ZGOW,2010-06-26 17:00,ZGOW 261700Z AUTO 14006KT 4SM 25/24 A2977 RMK T02500240 IEM_DS3505
ZGOW,2010-06-26 18:00,ZGOW 261800Z AUTO 14004KT 9SM 26/25 A2977 RMK 60002 SLP072 T02570248 57005 IEM_DS3505
ZGOW,2010-06-26 19:00,ZGOW 261900Z AUTO 15004KT 7SM 25/25 A2974 RMK T02500250 IEM_DS3505
ZGOW,2010-06-26 20:00,ZGOW 262000Z AUTO 16004KT 7SM 25/24 A2977 RMK T02500240 IEM_DS3505
ZGOW,2010-06-26 21:00,ZGOW 262100Z AUTO 11002KT 7SM 26/25 A2977 RMK 70060 SLP071 T02560246 57001 IEM_DS3505
ZGOW,2010-06-26 22:00,ZGOW 262200Z AUTO 16006KT 4SM 25/24 A2974 RMK T02500240 IEM_DS3505
ZGOW,2010-06-26 23:00,ZGOW 262300Z AUTO 16004KT 4SM 25/24 A2977 RMK T02500240 IEM_DS3505
ZGOW,2010-06-27 00:00,ZGOW 270000Z AUTO 00000KT 11SM 26/25 A2980 RMK 60000 70061 SLP084 T02650247 52013 IEM_DS3505
ZGOW,2010-06-27 01:00,ZGOW 270100Z AUTO 12004KT 7SM 27/25 A2980 RMK T02700250 IEM_DS3505
ZGOW,2010-06-27 02:00,ZGOW 270200Z AUTO 15004KT 7SM 27/25 A2980 RMK T02700250 IEM_DS3505
ZGOW,2010-06-27 03:00,ZGOW 270300Z AUTO 18006KT 11SM 28/26 A2980 RMK SLP086 T02820260 52002 IEM_DS3505
ZGOW,2010-06-27 04:00,ZGOW 270400Z AUTO 17008KT 7SM 29/27 A2980 RMK T02900270 IEM_DS3505
ZGOW,2010-06-27 05:00,ZGOW 270500Z AUTO 20010KT 7SM 30/25 A2977 RMK T03000250 IEM_DS3505
ZGOW,2010-06-27 06:00,ZGOW 270600Z AUTO 25006KT 15SM 30/25 A2977 RMK 60000 SLP078 T02950248 57008 IEM_DS3505
ZGOW,2010-06-27 07:00,ZGOW 270700Z AUTO 23006KT 7SM 30/25 A2977 RMK T03000250 IEM_DS3505
ZGOW,2010-06-27 08:00,ZGOW 270800Z AUTO 14006KT 4SM 28/25 A2974 RMK T02800250 IEM_DS3505
ZGOW,2010-06-27 09:00,ZGOW 270900Z AUTO 22004KT 14SM 28/25 A2974 RMK SLP069 T02830251 57009 IEM_DS3505
ZGOW,2010-06-27 10:00,ZGOW 271000Z AUTO 20004KT 7SM 28/25 A2974 RMK T02800250 IEM_DS3505
ZGOW,2010-06-27 11:00,ZGOW 271100Z AUTO 15004KT 7SM 27/25 A2974 RMK T02700250 IEM_DS3505
ZGOW,2010-06-27 12:00,ZGOW 271200Z AUTO 14002KT 11SM 26/25 A2977 RMK 60008 SLP073 T02650247 52004 IEM_DS3505
ZGOW,2010-06-27 13:00,ZGOW 271300Z AUTO 13002KT 7SM 26/25 A2977 RMK T02600250 IEM_DS3505
ZGOW,2010-06-27 14:00,ZGOW 271400Z AUTO 16004KT 7SM 26/25 A2980 RMK T02600250 IEM_DS3505
ZGOW,2010-06-27 15:00,ZGOW 271500Z AUTO 14004KT 11SM 26/25 A2980 RMK SLP090 T02580248 52017 IEM_DS3505
ZGOW,2010-06-27 16:00,ZGOW 271600Z AUTO 36002KT 7SM 25/24 A2980 RMK T02500240 IEM_DS3505
ZGOW,2010-06-27 17:00,ZGOW 271700Z AUTO 14004KT 4SM 25/24 A2980 RMK T02500240 IEM_DS3505
ZGOW,2010-06-27 18:00,ZGOW 271800Z AUTO 14002KT 11SM 26/25 A2980 RMK SLP082 T02560247 57008 IEM_DS3505
ZGOW,2010-06-27 19:00,ZGOW 271900Z AUTO 10002KT 2 1/2SM 25/25 A2977 RMK T02500250 IEM_DS3505
ZGOW,2010-06-27 20:00,ZGOW 272000Z AUTO 10002KT 3SM 25/25 A2977 RMK T02500250 IEM_DS3505
ZGOW,2010-06-27 21:00,ZGOW 272100Z AUTO 07002KT 9SM 26/25 A2977 RMK 70007 SLP073 T02580248 57009 IEM_DS3505
ZGOW,2010-06-27 22:00,ZGOW 272200Z AUTO 00000KT 3SM 25/25 A2977 RMK T02500250 IEM_DS3505
ZGOW,2010-06-27 23:00,ZGOW 272300Z AUTO 08004KT 3SM 26/25 A2977 RMK T02600250 IEM_DS3505
ZGOW,2010-06-28 00:00,ZGOW 280000Z AUTO 11004KT 6SM 27/26 A2977 RMK 60008 70015 SLP079 T02680261 52006 IEM_DS3505
ZGOW,2010-06-28 01:00,ZGOW 280100Z AUTO 11006KT 3SM 28/26 A2980 RMK T02800260 IEM_DS3505
ZGOW,2010-06-28 02:00,ZGOW 280200Z AUTO 12008KT 7SM 29/26 A2980 RMK T02900260 IEM_DS3505
ZGOW,2010-06-28 03:00,ZGOW 280300Z AUTO 16006KT 9SM 30/26 A2980 RMK SLP091 T02960260 52012 IEM_DS3505
ZGOW,2010-06-28 04:00,ZGOW 280400Z AUTO 15006KT 7SM 29/26 A2980 RMK T02900260 IEM_DS3505
ZGOW,2010-06-28 05:00,ZGOW 280500Z AUTO 14008KT 7SM 30/26 A2980 RMK T03000260 IEM_DS3505
ZGOW,2010-06-28 06:00,ZGOW 280600Z AUTO 16006KT 12SM 30/25 A2980 RMK SLP083 T02960254 57008 IEM_DS3505
ZGOW,2010-06-28 07:00,ZGOW 280700Z AUTO 16006KT 7SM 30/26 A2977 RMK T03000260 IEM_DS3505
ZGOW,2010-06-28 08:00,ZGOW 280800Z AUTO 16008KT 7SM 29/25 A2974 RMK T02900250 IEM_DS3505
ZGOW,2010-06-28 09:00,ZGOW 280900Z AUTO 16004KT 11SM 29/26 A2974 RMK SLP071 T02890255 57012 IEM_DS3505
ZGOW,2010-06-28 10:00,ZGOW 281000Z AUTO 17006KT 7SM 28/26 A2977 RMK T02800260 IEM_DS3505
ZGOW,2010-06-28 11:00,ZGOW 281100Z AUTO 20004KT 7SM 28/25 A2977 RMK T02800250 IEM_DS3505
ZGOW,2010-06-28 12:00,ZGOW 281200Z AUTO 20002KT 11SM 28/24 A2980 RMK SLP088 T02770245 52017 IEM_DS3505
ZGOW,2010-06-28 13:00,ZGOW 281300Z AUTO 16004KT 7SM 27/25 A2980 RMK T02700250 IEM_DS3505
ZGOW,2010-06-28 14:00,ZGOW 281400Z AUTO 09004KT 7SM 27/25 A2977 RMK T02700250 IEM_DS3505
ZGOW,2010-06-28 15:00,ZGOW 281500Z AUTO 16002KT 11SM 27/25 A2977 RMK SLP077 T02660246 57011 IEM_DS3505
ZGOW,2010-06-28 16:00,ZGOW 281600Z AUTO 14004KT 7SM 26/25 A2977 RMK T02600250 IEM_DS3505
ZGOW,2010-06-28 17:00,ZGOW 281700Z AUTO 14002KT 7SM 26/24 A2977 RMK T02600240 IEM_DS3505
ZGOW,2010-06-28 18:00,ZGOW 281800Z AUTO 00000KT 10SM 25/24 A2980 RMK SLP085 T02530243 52008 IEM_DS3505
ZGOW,2010-06-28 19:00,ZGOW 281900Z AUTO 08002KT 7SM 25/24 A2980 RMK T02500240 IEM_DS3505
ZGOW,2010-06-28 20:00,ZGOW 282000Z AUTO 00000KT 7SM 26/25 A2980 RMK T02600250 IEM_DS3505
ZGOW,2010-06-28 21:00,ZGOW 282100Z AUTO 00000KT 5SM 25/24 A2980 RMK 70007 SLP093 T02480241 52008 IEM_DS3505
ZGOW,2010-06-28 22:00,ZGOW 282200Z AUTO 00000KT 7SM 25/24 A2983 RMK T02500240 IEM_DS3505
ZGOW,2010-06-28 23:00,ZGOW 282300Z AUTO 31002KT 4SM 27/25 A2983 RMK T02700250 IEM_DS3505
ZGOW,2010-06-29 00:00,ZGOW 290000Z AUTO 00000KT 11SM 28/25 A2983 RMK SLP103 T02810249 52010 IEM_DS3505
ZGOW,2010-06-29 01:00,ZGOW 290100Z AUTO 29002KT 7SM 30/24 A2983 RMK T03000240 IEM_DS3505
ZGOW,2010-06-29 02:00,ZGOW 290200Z AUTO 13002KT 7SM 31/25 A2983 RMK T03100250 IEM_DS3505
ZGOW,2010-06-29 03:00,ZGOW 290300Z AUTO 25002KT 16SM 31/24 A2983 RMK SLP097 T03080242 57006 IEM_DS3505
ZGOW,2010-06-29 04:00,ZGOW 290400Z AUTO 15004KT 4SM 33/25 A2980 RMK T03300250 IEM_DS3505
ZGOW,2010-06-29 05:00,ZGOW 290500Z AUTO 12006KT 7SM 32/24 A2980 RMK T03200240 IEM_DS3505
ZGOW,2010-06-29 06:00,ZGOW 290600Z AUTO 18006KT 12SM 30/25 A2980 RMK SLP087 T03050246 57010 IEM_DS3505
ZGOW,2010-06-29 07:00,ZGOW 290700Z AUTO 15008KT 7SM 30/25 A2977 RMK T03000250 IEM_DS3505
ZGOW,2010-06-29 08:00,ZGOW 290800Z AUTO 16008KT 7SM 31/25 A2977 RMK T03100250 IEM_DS3505
ZGOW,2010-06-29 09:00,ZGOW 290900Z AUTO 14004KT 12SM 30/25 A2977 RMK SLP079 T02960249 57008 IEM_DS3505
ZGOW,2010-06-29 10:00,ZGOW 291000Z AUTO 15010KT 7SM 29/25 A2977 RMK T02900250 IEM_DS3505
ZGOW,2010-06-29 11:00,ZGOW 291100Z AUTO 16008KT 7SM 28/25 A2980 RMK T02800250 IEM_DS3505
ZGOW,2010-06-29 12:00,ZGOW 291200Z AUTO 18002KT 12SM 28/25 A2980 RMK SLP091 T02780248 52012 IEM_DS3505
ZGOW,2010-06-29 13:00,ZGOW 291300Z AUTO 14004KT 7SM 27/25 A2983 RMK T02700250 IEM_DS3505
ZGOW,2010-06-29 14:00,ZGOW 291400Z AUTO 15004KT 6SM 27/25 A2983 RMK T02700250 IEM_DS3505
ZGOW,2010-06-29 15:00,ZGOW 291500Z AUTO 00000KT 12SM 27/25 A2985 RMK SLP104 T02710251 52013 IEM_DS3505
ZGOW,2010-06-29 16:00,ZGOW 291600Z AUTO 21002KT 7SM 27/25 A2983 RMK T02700250 IEM_DS3505
ZGOW,2010-06-29 17:00,ZGOW 291700Z AUTO 18002KT 7SM 27/25 A2983 RMK T02700250 IEM_DS3505
ZGOW,2010-06-29 18:00,ZGOW 291800Z AUTO 00000KT 11SM 26/25 A2983 RMK SLP094 T02600250 57010 IEM_DS3505
ZGOW,2010-06-29 19:00,ZGOW 291900Z AUTO 00000KT 3SM 26/25 A2980 RMK T02600250 IEM_DS3505
ZGOW,2010-06-29 20:00,ZGOW 292000Z AUTO 00000KT 3SM 26/25 A2980 RMK T02600250 IEM_DS3505
ZGOW,2010-06-29 21:00,ZGOW 292100Z AUTO 25002KT 9SM 26/25 A2980 RMK 70000 SLP092 T02570248 57002 IEM_DS3505
ZGOW,2010-06-29 22:00,ZGOW 292200Z AUTO 32002KT 3SM 26/25 A2980 RMK T02600250 IEM_DS3505
ZGOW,2010-06-29 23:00,ZGOW 292300Z AUTO 33002KT 4SM 27/26 A2983 RMK T02700260 IEM_DS3505
ZGOW,2010-06-30 00:00,ZGOW 300000Z AUTO 02002KT 7SM 28/25 A2983 RMK 70000 SLP096 T02840254 52004 IEM_DS3505
ZGOW,2010-06-30 01:00,ZGOW 300100Z AUTO 31004KT 4SM 29/25 A2983 RMK T02900250 IEM_DS3505
ZGOW,2010-06-30 02:00,ZGOW 300200Z AUTO 25002KT 4SM 31/25 A2983 RMK T03100250 IEM_DS3505
ZGOW,2010-06-30 03:00,ZGOW 300300Z AUTO 25004KT 11SM 31/24 A2983 RMK SLP099 T03130239 52003 IEM_DS3505
ZGOW,2010-06-30 04:00,ZGOW 300400Z AUTO 14006KT 3SM 32/25 A2983 RMK T03200250 IEM_DS3505
ZGOW,2010-06-30 05:00,ZGOW 300500Z AUTO 15010KT 3SM 32/26 A2980 RMK T03200260 IEM_DS3505
ZGOW,2010-06-30 06:00,ZGOW 300600Z AUTO 14006KT 16SM 32/26 A2980 RMK SLP090 T03190257 57009 IEM_DS3505
ZGOW,2010-06-30 07:00,ZGOW 300700Z AUTO 16010KT 7SM 33/25 A2977 RMK T03300250 IEM_DS3505
ZGOW,2010-06-30 08:00,ZGOW 300800Z AUTO 17008KT 7SM 33/24 A2977 RMK T03300240 IEM_DS3505
ZGOW,2010-06-30 09:00,ZGOW 300900Z AUTO 14004G19KT 12SM 31/25 A2974 RMK SLP070 T03120246 57020 IEM_DS3505
ZGOW,2010-06-30 10:00,ZGOW 301000Z AUTO 18006KT 7SM 30/24 A2974 RMK T03000240 IEM_DS3505
ZGOW,2010-06-30 11:00,ZGOW 301100Z AUTO 18006KT 7SM 29/24 A2974 RMK T02900240 IEM_DS3505
ZGOW,2010-06-30 12:00,ZGOW 301200Z AUTO 16002KT 11SM 29/25 A2974 RMK SLP070 T02860248 54000 IEM_DS3505
ZGOW,2010-06-30 13:00,ZGOW 301300Z AUTO 14002KT 7SM 28/25 A2977 RMK T02800250 IEM_DS3505
ZGOW,2010-06-30 14:00,ZGOW 301400Z AUTO 16004KT 7SM 28/25 A2980 RMK T02800250 IEM_DS3505
ZGOW,2010-06-30 15:00,ZGOW 301500Z AUTO 18002KT 11SM 28/25 A2980 RMK SLP084 T02800252 52014 IEM_DS3505
ZGOW,2010-06-30 16:00,ZGOW 301600Z AUTO 20002KT 7SM 28/25 A2977 RMK T02800250 IEM_DS3505
ZGOW,2010-06-30 17:00,ZGOW 301700Z AUTO 24002KT 7SM 28/25 A2977 RMK T02800250 IEM_DS3505
ZGOW,2010-06-30 18:00,ZGOW 301800Z AUTO 25002KT 10SM 27/26 A2974 RMK SLP073 T02690257 57011 IEM_DS3505
ZGOW,2010-06-30 19:00,ZGOW 301900Z AUTO 00000KT 3SM 27/25 A2977 RMK T02700250 IEM_DS3505
ZGOW,2010-06-30 21:00,ZGOW 302100Z AUTO 22002KT 10SM 27/26 A2977 RMK SLP082 T02660256 52009 IEM_DS3505
ZGOW,2010-06-30 22:00,ZGOW 302200Z AUTO 18002KT 3SM 27/25 A2980 RMK T02700250 IEM_DS3505
ZGOW,2010-06-30 23:00,ZGOW 302300Z AUTO 24002KT 4SM 28/25 A2980 RMK T02800250 IEM_DS3505
ZGOW,2010-07-01 00:00,ZGOW 010000Z AUTO 22002KT 14SM 29/25 A2980 RMK SLP094 T02870253 52012 IEM_DS3505
ZGOW,2010-07-01 01:00,ZGOW 010100Z AUTO 30004KT 6SM 31/24 A2980 RMK T03100240 IEM_DS3505
ZGOW,2010-07-01 02:00,ZGOW 010200Z AUTO 34004KT 7SM 32/25 A2980 RMK T03200250 IEM_DS3505
ZGOW,2010-07-01 03:00,ZGOW 010300Z AUTO 25006KT 19SM 32/24 A2980 RMK SLP087 T03250243 57007 IEM_DS3505
ZGOW,2010-07-01 04:00,ZGOW 010400Z AUTO 22006KT 7SM 34/23 A2977 RMK T03400230 IEM_DS3505
ZGOW,2010-07-01 05:00,ZGOW 010500Z AUTO 26006KT 7SM 35/23 A2974 RMK T03500230 IEM_DS3505
ZGOW,2010-07-01 06:00,ZGOW 010600Z AUTO 27008KT 16SM 35/22 A2974 RMK SLP069 T03460216 57018 IEM_DS3505
ZGOW,2010-07-01 07:00,ZGOW 010700Z AUTO 16012KT 6SM 34/26 A2971 RMK T03400260 IEM_DS3505
ZGOW,2010-07-01 08:00,ZGOW 010800Z AUTO 18012KT 6SM 33/26 A2971 RMK T03300260 IEM_DS3505
ZGOW,2010-07-01 09:00,ZGOW 010900Z AUTO 22006KT 15SM 33/24 A2971 RMK SLP058 T03290238 57011 IEM_DS3505
ZGOW,2010-07-01 10:00,ZGOW 011000Z AUTO 19010KT 6SM 32/26 A2971 RMK T03200260 IEM_DS3505
ZGOW,2010-07-01 11:00,ZGOW 011100Z AUTO 19008KT 7SM 30/26 A2971 RMK T03000260 IEM_DS3505
ZGOW,2010-07-01 12:00,ZGOW 011200Z AUTO 18004KT 12SM 30/25 A2971 RMK SLP062 T02970254 52004 IEM_DS3505
ZGOW,2010-07-01 13:00,ZGOW 011300Z AUTO 20004KT 6SM 29/25 A2974 RMK T02900250 IEM_DS3505
ZGOW,2010-07-01 14:00,ZGOW 011400Z AUTO 20004KT 6SM 29/25 A2974 RMK T02900250 IEM_DS3505
ZGOW,2010-07-01 15:00,ZGOW 011500Z AUTO 22006KT 12SM 29/25 A2977 RMK SLP074 T02900254 52012 IEM_DS3505
ZGOW,2010-07-01 16:00,ZGOW 011600Z AUTO 23004KT 7SM 29/25 A2974 RMK T02900250 IEM_DS3505
ZGOW,2010-07-01 17:00,ZGOW 011700Z AUTO 24008KT 6SM 29/25 A2974 RMK T02900250 IEM_DS3505
ZGOW,2010-07-01 18:00,ZGOW 011800Z AUTO 25004KT 11SM 28/26 A2974 RMK SLP065 T02840256 57009 IEM_DS3505
ZGOW,2010-07-01 19:00,ZGOW 011900Z AUTO 28004KT 6SM 28/25 A2971 RMK T02800250 IEM_DS3505
ZGOW,2010-07-01 20:00,ZGOW 012000Z AUTO 29002KT 6SM 28/25 A2971 RMK T02800250 IEM_DS3505
ZGOW,2010-07-01 21:00,ZGOW 012100Z AUTO 27002KT 11SM 28/25 A2974 RMK SLP066 T02750253 52001 IEM_DS3505
ZGOW,2010-07-01 22:00,ZGOW 012200Z AUTO 22002KT 6SM 28/25 A2974 RMK T02800250 IEM_DS3505
ZGOW,2010-07-01 23:00,ZGOW 012300Z AUTO 25006KT 6SM 29/25 A2977 RMK T02900250 IEM_DS3505
ZGOW,2010-07-02 00:00,ZGOW 020000Z AUTO 25004KT 11SM 30/26 A2977 RMK SLP078 T02970257 52012 IEM_DS3505
ZGOW,2010-07-02 01:00,ZGOW 020100Z AUTO 26006KT 7SM 31/25 A2977 RMK T03100250 IEM_DS3505
ZGOW,2010-07-02 02:00,ZGOW 020200Z AUTO 26006KT 7SM 33/25 A2977 RMK T03300250 IEM_DS3505
ZGOW,2010-07-02 03:00,ZGOW 020300Z AUTO 25006KT 11SM 33/26 A2974 RMK SLP072 T03260259 57006 IEM_DS3505
ZGOW,2010-07-02 04:00,ZGOW 020400Z AUTO 23006KT 7SM 35/24 A2971 RMK T03500240 IEM_DS3505
ZGOW,2010-07-02 05:00,ZGOW 020500Z AUTO 23010KT 7SM 36/24 A2971 RMK T03600240 IEM_DS3505
ZGOW,2010-07-02 06:00,ZGOW 020600Z AUTO 22006KT 16SM 36/22 A2968 RMK SLP055 T03550217 57017 IEM_DS3505
ZGOW,2010-07-02 07:00,ZGOW 020700Z AUTO 19012KT 7SM 35/27 A2968 RMK T03500270 IEM_DS3505
ZGOW,2010-07-02 08:00,ZGOW 020800Z AUTO 19010KT 7SM 35/26 A2968 RMK T03500260 IEM_DS3505
ZGOW,2010-07-02 09:00,ZGOW 020900Z AUTO 20008KT 12SM 34/24 A2965 RMK SLP043 T03420239 57012 IEM_DS3505
ZGOW,2010-07-02 10:00,ZGOW 021000Z AUTO 20010KT 6SM 33/26 A2965 RMK T03300260 IEM_DS3505
ZGOW,2010-07-02 11:00,ZGOW 021100Z AUTO 21008KT 6SM 32/26 A2968 RMK T03200260 IEM_DS3505
ZGOW,2010-07-02 12:00,ZGOW 021200Z AUTO 20006KT 12SM 31/26 A2968 RMK SLP052 T03100265 52009 IEM_DS3505
ZGOW,2010-07-02 13:00,ZGOW 021300Z AUTO 23008KT 6SM 31/26 A2971 RMK T03100260 IEM_DS3505
ZGOW,2010-07-02 14:00,ZGOW 021400Z AUTO 23006KT 6SM 31/26 A2971 RMK T03100260 IEM_DS3505
ZGOW,2010-07-02 15:00,ZGOW 021500Z AUTO 22006KT 11SM 30/26 A2971 RMK SLP063 T03010261 52011 IEM_DS3505
ZGOW,2010-07-02 16:00,ZGOW 021600Z AUTO 25004KT 6SM 30/26 A2971 RMK T03000260 IEM_DS3505
ZGOW,2010-07-02 17:00,ZGOW 021700Z AUTO 25004KT 7SM 30/26 A2971 RMK T03000260 IEM_DS3505
ZGOW,2010-07-02 18:00,ZGOW 021800Z AUTO 27004KT 11SM 29/25 A2971 RMK SLP060 T02900254 57003 IEM_DS3505
ZGOW,2010-07-02 19:00,ZGOW 021900Z AUTO 25004KT 6SM 29/25 A2971 RMK T02900250 IEM_DS3505
ZGOW,2010-07-02 21:00,ZGOW 022100Z AUTO 22002KT 11SM 28/25 A2974 RMK SLP071 T02820252 52011 IEM_DS3505
ZGOW,2010-07-02 22:00,ZGOW 022200Z AUTO 25004KT 4SM 29/25 A2977 RMK T02900250 IEM_DS3505
ZGOW,2010-07-02 23:00,ZGOW 022300Z AUTO 26004KT 4SM 30/25 A2977 RMK T03000250 IEM_DS3505
ZGOW,2010-07-03 00:00,ZGOW 030000Z AUTO 25006KT 14SM 30/25 A2980 RMK SLP087 T03020253 52016 IEM_DS3505
ZGOW,2010-07-03 01:00,ZGOW 030100Z AUTO 25010KT 6SM 32/24 A2977 RMK T03200240 IEM_DS3505
ZGOW,2010-07-03 02:00,ZGOW 030200Z AUTO 26008KT 6SM 33/25 A2977 RMK T03300250 IEM_DS3505
ZGOW,2010-07-03 03:00,ZGOW 030300Z AUTO 25008KT 14SM 34/24 A2977 RMK SLP078 T03380241 57009 IEM_DS3505
ZGOW,2010-07-03 04:00,ZGOW 030400Z AUTO 25010KT 7SM 35/24 A2974 RMK T03500240 IEM_DS3505
ZGOW,2010-07-03 05:00,ZGOW 030500Z AUTO 27012KT 7SM 36/22 A2974 RMK T03600220 IEM_DS3505
ZGOW,2010-07-03 06:00,ZGOW 030600Z AUTO 25008KT 16SM 36/22 A2971 RMK SLP061 T03550217 57017 IEM_DS3505
ZGOW,2010-07-03 07:00,ZGOW 030700Z AUTO 25010KT 7SM 37/23 A2968 RMK T03700230 IEM_DS3505
ZGOW,2010-07-03 08:00,ZGOW 030800Z AUTO 20010KT 7SM 35/26 A2968 RMK T03500260 IEM_DS3505
ZGOW,2010-07-03 09:00,ZGOW 030900Z AUTO 20008KT 16SM 34/24 A2968 RMK SLP054 T03350241 57007 IEM_DS3505
ZGOW,2010-07-03 10:00,ZGOW 031000Z AUTO 21010KT 7SM 32/26 A2968 RMK T03200260 IEM_DS3505
ZGOW,2010-07-03 11:00,ZGOW 031100Z AUTO 21008KT 6SM 32/26 A2971 RMK T03200260 IEM_DS3505
ZGOW,2010-07-03 12:00,ZGOW 031200Z AUTO 22008KT 11SM 31/26 A2971 RMK SLP064 T03070258 52010 IEM_DS3505
ZGOW,2010-07-03 13:00,ZGOW 031300Z AUTO 23010KT 6SM 31/25 A2974 RMK T03100250 IEM_DS3505
ZGOW,2010-07-03 14:00,ZGOW 031400Z AUTO 23010KT 6SM 30/24 A2974 RMK T03000240 IEM_DS3505
ZGOW,2010-07-03 15:00,ZGOW 031500Z AUTO 25010KT 11SM 30/24 A2974 RMK SLP073 T02990243 52009 IEM_DS3505
ZGOW,2010-07-03 16:00,ZGOW 031600Z AUTO 24006KT 6SM 30/25 A2974 RMK T03000250 IEM_DS3505
ZGOW,2010-07-03 17:00,ZGOW 031700Z AUTO 24008KT 6SM 29/25 A2974 RMK T02900250 IEM_DS3505
ZGOW,2010-07-03 18:00,ZGOW 031800Z AUTO 25008KT 11SM 29/25 A2974 RMK SLP067 T02890253 57006 IEM_DS3505
ZGOW,2010-07-03 19:00,ZGOW 031900Z AUTO 25008KT 6SM 29/24 A2974 RMK T02900240 IEM_DS3505
ZGOW,2010-07-03 20:00,ZGOW 032000Z AUTO 25006KT 6SM 29/25 A2974 RMK T02900250 IEM_DS3505
ZGOW,2010-07-03 21:00,ZGOW 032100Z AUTO 22006KT 11SM 28/25 A2974 RMK SLP071 T02850249 52004 IEM_DS3505
ZGOW,2010-07-03 22:00,ZGOW 032200Z AUTO 27002KT 6SM 28/25 A2977 RMK T02800250 IEM_DS3505
ZGOW,2010-07-03 23:00,ZGOW 032300Z AUTO 30002KT 6SM 30/25 A2977 RMK T03000250 IEM_DS3505
ZGOW,2010-07-04 00:00,ZGOW 040000Z AUTO 25006KT 16SM 30/26 A2980 RMK SLP087 T03040255 52016 IEM_DS3505
ZGOW,2010-07-04 01:00,ZGOW 040100Z AUTO 29010KT 6SM 32/25 A2980 RMK T03200250 IEM_DS3505
ZGOW,2010-07-04 02:00,ZGOW 040200Z AUTO 26010KT 6SM 34/24 A2977 RMK T03400240 IEM_DS3505
ZGOW,2010-07-04 03:00,ZGOW 040300Z AUTO 27008KT 16SM 34/24 A2977 RMK SLP078 T03380244 57009 IEM_DS3505
ZGOW,2010-07-04 04:00,ZGOW 040400Z AUTO 28010KT 7SM 35/24 A2974 RMK T03500240 IEM_DS3505
ZGOW,2010-07-04 05:00,ZGOW 040500Z AUTO 25010KT 7SM 36/24 A2974 RMK T03600240 IEM_DS3505
ZGOW,2010-07-04 06:00,ZGOW 040600Z AUTO 25008KT 17SM 36/21 A2971 RMK SLP062 T03600214 57016 IEM_DS3505
ZGOW,2010-07-04 07:00,ZGOW 040700Z AUTO 20012KT 7SM 35/26 A2968 RMK T03500260 IEM_DS3505
ZGOW,2010-07-04 08:00,ZGOW 040800Z AUTO 19016KT 7SM 34/26 A2968 RMK T03400260 IEM_DS3505
ZGOW,2010-07-04 09:00,ZGOW 040900Z AUTO 22010KT 19SM 34/24 A2968 RMK SLP054 T03350235 57008 IEM_DS3505
ZGOW,2010-07-04 10:00,ZGOW 041000Z AUTO 22014KT 6SM 33/25 A2968 RMK T03300250 IEM_DS3505
ZGOW,2010-07-04 11:00,ZGOW 041100Z AUTO 22014KT 6SM 31/25 A2971 RMK T03100250 IEM_DS3505
ZGOW,2010-07-04 12:00,ZGOW 041200Z AUTO 22008KT 17SM 30/26 A2971 RMK SLP064 T03020257 52010 IEM_DS3505
ZGOW,2010-07-04 13:00,ZGOW 041300Z AUTO 23010KT 6SM 30/26 A2971 RMK T03000260 IEM_DS3505
ZGOW,2010-07-04 14:00,ZGOW 041400Z AUTO 24010KT 6SM 30/25 A2974 RMK T03000250 IEM_DS3505
ZGOW,2010-07-04 15:00,ZGOW 041500Z AUTO 25006KT 16SM 30/26 A2974 RMK SLP068 T02950259 52004 IEM_DS3505
ZGOW,2010-07-04 16:00,ZGOW 041600Z AUTO 26006KT 6SM 30/25 A2974 RMK T03000250 IEM_DS3505
ZGOW,2010-07-04 17:00,ZGOW 041700Z AUTO 26002KT 6SM 29/26 A2971 RMK T02900260 IEM_DS3505
ZGOW,2010-07-04 18:00,ZGOW 041800Z AUTO 27002KT 12SM 29/26 A2971 RMK SLP057 T02870259 57011 IEM_DS3505
ZGOW,2010-07-04 19:00,ZGOW 041900Z AUTO 24002KT 6SM 29/25 A2971 RMK T02900250 IEM_DS3505
ZGOW,2010-07-04 20:00,ZGOW 042000Z AUTO 25002KT 6SM 29/26 A2968 RMK T02900260 IEM_DS3505
ZGOW,2010-07-04 21:00,ZGOW 042100Z AUTO 22002KT 11SM 28/26 A2971 RMK SLP055 T02800260 57002 IEM_DS3505
ZGOW,2010-07-04 22:00,ZGOW 042200Z AUTO 25002KT 7SM 29/26 A2971 RMK T02900260 IEM_DS3505
ZGOW,2010-07-04 23:00,ZGOW 042300Z AUTO 25006KT 7SM 29/25 A2971 RMK T02900250 IEM_DS3505
ZGOW,2010-07-05 00:00,ZGOW 050000Z AUTO 25006KT 12SM 30/26 A2971 RMK SLP064 T03000257 52009 IEM_DS3505
ZGOW,2010-07-05 01:00,ZGOW 050100Z AUTO 26010KT 7SM 32/26 A2971 RMK T03200260 IEM_DS3505
ZGOW,2010-07-05 02:00,ZGOW 050200Z AUTO 26008KT 7SM 33/25 A2971 RMK T03300250 IEM_DS3505
ZGOW,2010-07-05 03:00,ZGOW 050300Z AUTO 25008KT 12SM 34/24 A2968 RMK SLP056 T03390245 57008 IEM_DS3505
ZGOW,2010-07-05 04:00,ZGOW 050400Z AUTO 25010KT 7SM 35/23 A2968 RMK T03500230 IEM_DS3505
ZGOW,2010-07-05 05:00,ZGOW 050500Z AUTO 26010KT 7SM 36/23 A2965 RMK T03600230 IEM_DS3505
ZGOW,2010-07-05 06:00,ZGOW 050600Z AUTO 22008KT 16SM 36/22 A2965 RMK SLP037 T03630217 57019 IEM_DS3505
ZGOW,2010-07-05 07:00,ZGOW 050700Z AUTO 19014KT 7SM 35/26 A2962 RMK T03500260 IEM_DS3505
ZGOW,2010-07-05 08:00,ZGOW 050800Z AUTO 20014KT 7SM 35/26 A2962 RMK T03500260 IEM_DS3505
ZGOW,2010-07-05 09:00,ZGOW 050900Z AUTO 22008KT 12SM 34/24 A2962 RMK SLP029 T03440243 57008 IEM_DS3505
ZGOW,2010-07-05 10:00,ZGOW 051000Z AUTO 21010KT 7SM 33/26 A2962 RMK T03300260 IEM_DS3505
ZGOW,2010-07-05 11:00,ZGOW 051100Z AUTO 23012KT 7SM 32/26 A2962 RMK T03200260 IEM_DS3505
ZGOW,2010-07-05 12:00,ZGOW 051200Z AUTO 22006KT 11SM 31/25 A2965 RMK SLP044 T03060252 52015 IEM_DS3505
ZGOW,2010-07-05 13:00,ZGOW 051300Z AUTO 23014KT 7SM 31/25 A2965 RMK T03100250 IEM_DS3505
ZGOW,2010-07-05 14:00,ZGOW 051400Z AUTO 23006KT 7SM 30/25 A2968 RMK T03000250 IEM_DS3505
ZGOW,2010-07-05 15:00,ZGOW 051500Z AUTO 25008KT 11SM 30/24 A2971 RMK SLP057 T02970241 52013 IEM_DS3505
ZGOW,2010-07-05 16:00,ZGOW 051600Z AUTO 24008KT 7SM 30/24 A2971 RMK T03000240 IEM_DS3505
ZGOW,2010-07-05 17:00,ZGOW 051700Z AUTO 25010KT 7SM 29/25 A2971 RMK T02900250 IEM_DS3505
ZGOW,2010-07-05 18:00,ZGOW 051800Z AUTO 25008KT 11SM 29/25 RMK SLP049 T02910249 57008 IEM_DS3505
ZGOW,2010-07-05 21:00,ZGOW 052100Z AUTO 25006KT 11SM 29/25 A2968 RMK SLP050 T02910251 52001 IEM_DS3505
ZGOW,2010-07-05 22:00,ZGOW 052200Z AUTO 28004KT 6SM 29/25 A2968 RMK T02900250 IEM_DS3505
ZGOW,2010-07-05 23:00,ZGOW 052300Z AUTO 28002KT 7SM 29/25 A2971 RMK T02900250 IEM_DS3505
ZGOW,2010-07-06 00:00,ZGOW 060000Z AUTO 27006KT 12SM 30/26 A2971 RMK SLP064 T03040257 52014 IEM_DS3505
ZGOW,2010-07-06 01:00,ZGOW 060100Z AUTO 24010KT 7SM 31/25 A2971 RMK T03100250 IEM_DS3505
ZGOW,2010-07-06 02:00,ZGOW 060200Z AUTO 26010KT 7SM 33/25 A2971 RMK T03300250 IEM_DS3505
ZGOW,2010-07-06 03:00,ZGOW 060300Z AUTO 25010KT 17SM 33/24 A2971 RMK SLP063 T03340243 57001 IEM_DS3505
ZGOW,2010-07-06 04:00,ZGOW 060400Z AUTO 26008KT 7SM 35/23 A2971 RMK T03500230 IEM_DS3505
ZGOW,2010-07-06 05:00,ZGOW 060500Z AUTO 27010KT 7SM 36/24 A2968 RMK T03600240 IEM_DS3505
ZGOW,2010-07-06 06:00,ZGOW 060600Z AUTO 25008KT 16SM 36/22 A2965 RMK SLP046 T03580220 57017 IEM_DS3505
ZGOW,2010-07-06 07:00,ZGOW 060700Z AUTO 22008KT 7SM 36/27 A2965 RMK T03600270 IEM_DS3505
ZGOW,2010-07-06 08:00,ZGOW 060800Z AUTO 20014KT 7SM 34/26 A2965 RMK T03400260 IEM_DS3505
ZGOW,2010-07-06 09:00,ZGOW 060900Z AUTO 22006KT 16SM 34/25 A2965 RMK SLP042 T03350247 57004 IEM_DS3505
ZGOW,2010-07-06 10:00,ZGOW 061000Z AUTO 22008KT 7SM 33/26 A2965 RMK T03300260 IEM_DS3505
ZGOW,2010-07-06 11:00,ZGOW 061100Z AUTO 22008KT 7SM 32/26 A2968 RMK T03200260 IEM_DS3505
ZGOW,2010-07-06 12:00,ZGOW 061200Z AUTO 22008KT 11SM 31/26 A2968 RMK SLP054 T03060259 52012 IEM_DS3505
ZGOW,2010-07-06 13:00,ZGOW 061300Z AUTO 24012KT 7SM 31/25 A2971 RMK T03100250 IEM_DS3505
ZGOW,2010-07-06 14:00,ZGOW 061400Z AUTO 23010KT 6SM 30/25 A2974 RMK T03000250 IEM_DS3505
ZGOW,2010-07-06 15:00,ZGOW 061500Z AUTO 22008KT 10SM 30/26 A2974 RMK SLP070 T02960258 52016 IEM_DS3505
ZGOW,2010-07-06 16:00,ZGOW 061600Z AUTO 24010KT 6SM 30/25 A2971 RMK T03000250 IEM_DS3505
ZGOW,2010-07-06 17:00,ZGOW 061700Z AUTO 24006KT 6SM 29/25 A2971 RMK T02900250 IEM_DS3505
ZGOW,2010-07-06 18:00,ZGOW 061800Z AUTO 25006KT 11SM 29/26 A2971 RMK SLP060 T02900256 57010 IEM_DS3505
ZGOW,2010-07-06 19:00,ZGOW 061900Z AUTO 24008KT 6SM 29/25 A2971 RMK T02900250 IEM_DS3505
ZGOW,2010-07-06 20:00,ZGOW 062000Z AUTO 24008KT 6SM 29/25 A2971 RMK T02900250 IEM_DS3505
ZGOW,2010-07-06 21:00,ZGOW 062100Z AUTO 22004KT 11SM 29/26 A2974 RMK SLP068 T02880256 52008 IEM_DS3505
ZGOW,2010-07-06 22:00,ZGOW 062200Z AUTO 24004KT 6SM 29/25 A2974 RMK T02900250 IEM_DS3505
ZGOW,2010-07-06 23:00,ZGOW 062300Z AUTO 24008KT 7SM 30/25 A2977 RMK T03000250 IEM_DS3505
ZGOW,2010-07-07 00:00,ZGOW 070000Z AUTO 25006KT 16SM 31/26 A2977 RMK SLP080 T03060257 52012 IEM_DS3505
ZGOW,2010-07-07 01:00,ZGOW 070100Z AUTO 27008KT 7SM 32/25 A2977 RMK T03200250 IEM_DS3505
ZGOW,2010-07-07 02:00,ZGOW 070200Z AUTO 26008KT 7SM 32/25 A2977 RMK T03200250 IEM_DS3505
ZGOW,2010-07-07 03:00,ZGOW 070300Z AUTO 27006KT 14SM 33/25 A2977 RMK SLP078 T03310248 57002 IEM_DS3505
ZGOW,2010-07-07 04:00,ZGOW 070400Z AUTO 25008KT 7SM 34/24 A2977 RMK T03400240 IEM_DS3505
ZGOW,2010-07-07 05:00,ZGOW 070500Z AUTO 23008KT 7SM 35/24 A2974 RMK T03500240 IEM_DS3505
ZGOW,2010-07-07 06:00,ZGOW 070600Z AUTO 22008KT 14SM 35/24 A2974 RMK SLP070 T03470243 57008 IEM_DS3505
ZGOW,2010-07-07 07:00,ZGOW 070700Z AUTO 20012KT 7SM 34/26 A2974 RMK T03400260 IEM_DS3505
ZGOW,2010-07-07 08:00,ZGOW 070800Z AUTO 18010KT 7SM 33/26 A2971 RMK T03300260 IEM_DS3505
ZGOW,2010-07-07 09:00,ZGOW 070900Z AUTO 16004KT 12SM 33/25 A2971 RMK SLP065 T03260252 57005 IEM_DS3505
ZGOW,2010-07-07 10:00,ZGOW 071000Z AUTO 20012KT 7SM 31/25 A2974 RMK T03100250 IEM_DS3505
ZGOW,2010-07-07 11:00,ZGOW 071100Z AUTO 21008KT 7SM 30/26 A2974 RMK T03000260 IEM_DS3505
ZGOW,2010-07-07 12:00,ZGOW 071200Z AUTO 22006KT 11SM 30/26 A2977 RMK SLP077 T03010256 52012 IEM_DS3505
ZGOW,2010-07-07 13:00,ZGOW 071300Z AUTO 22008KT 7SM 30/25 A2977 RMK T03000250 IEM_DS3505
ZGOW,2010-07-07 14:00,ZGOW 071400Z AUTO 24006KT 7SM 30/25 A2980 RMK T03000250 IEM_DS3505
ZGOW,2010-07-07 15:00,ZGOW 071500Z AUTO 22004KT 11SM 29/25 A2980 RMK SLP091 T02940252 52014 IEM_DS3505
ZGOW,2010-07-07 16:00,ZGOW 071600Z AUTO 23008KT 7SM 30/25 A2980 RMK T03000250 IEM_DS3505
ZGOW,2010-07-07 17:00,ZGOW 071700Z AUTO 24006KT 7SM 29/24 A2980 RMK T02900240 IEM_DS3505
ZGOW,2010-07-07 18:00,ZGOW 071800Z AUTO 22004KT 11SM 29/25 A2977 RMK SLP079 T02870253 57012 IEM_DS3505
ZGOW,2010-07-07 19:00,ZGOW 071900Z AUTO 24006KT 7SM 29/25 A2977 RMK T02900250 IEM_DS3505
ZGOW,2010-07-07 20:00,ZGOW 072000Z AUTO 22002KT 6SM 28/25 A2977 RMK T02800250 IEM_DS3505
ZGOW,2010-07-07 21:00,ZGOW 072100Z AUTO 22004KT 11SM 28/25 A2977 RMK SLP076 T02800252 57003 IEM_DS3505
ZGOW,2010-07-07 22:00,ZGOW 072200Z AUTO 26004KT 7SM 28/25 A2977 RMK T02800250 IEM_DS3505
ZGOW,2010-07-07 23:00,ZGOW 072300Z AUTO 26006KT 7SM 29/25 A2977 RMK T02900250 IEM_DS3505
ZGOW,2010-07-08 00:00,ZGOW 080000Z AUTO 25006KT 19SM 30/25 A2980 RMK SLP087 T03010252 52011 IEM_DS3505
ZGOW,2010-07-08 01:00,ZGOW 080100Z AUTO 24008KT 7SM 32/24 A2980 RMK T03200240 IEM_DS3505
ZGOW,2010-07-08 02:00,ZGOW 080200Z AUTO 27008KT 7SM 33/24 A2980 RMK T03300240 IEM_DS3505
ZGOW,2010-07-08 03:00,ZGOW 080300Z AUTO 25006KT 19SM 33/24 A2980 RMK SLP089 T03260241 52002 IEM_DS3505
ZGOW,2010-07-08 04:00,ZGOW 080400Z AUTO 16010KT 7SM 33/26 A2977 RMK T03300260 IEM_DS3505
ZGOW,2010-07-08 05:00,ZGOW 080500Z AUTO 17010KT 7SM 33/26 A2974 RMK T03300260 IEM_DS3505
ZGOW,2010-07-08 06:00,ZGOW 080600Z AUTO 20006KT 19SM 34/25 A2974 RMK SLP069 T03430254 57020 IEM_DS3505
ZGOW,2010-07-08 07:00,ZGOW 080700Z AUTO 19012KT 7SM 34/26 A2971 RMK T03400260 IEM_DS3505
ZGOW,2010-07-08 08:00,ZGOW 080800Z AUTO 19014KT 7SM 33/25 A2971 RMK T03300250 IEM_DS3505
ZGOW,2010-07-08 09:00,ZGOW 080900Z AUTO 20008KT 19SM 33/26 A2968 RMK SLP055 T03290257 57014 IEM_DS3505
ZGOW,2010-07-08 10:00,ZGOW 081000Z AUTO 19012KT 7SM 31/26 A2971 RMK T03100260 IEM_DS3505
ZGOW,2010-07-08 11:00,ZGOW 081100Z AUTO 19010KT 7SM 30/26 A2971 RMK T03000260 IEM_DS3505
ZGOW,2010-07-08 12:00,ZGOW 081200Z AUTO 20006KT 16SM 30/26 A2974 RMK SLP069 T02970259 52014 IEM_DS3505
ZGOW,2010-07-08 13:00,ZGOW 081300Z AUTO 19010KT 7SM 29/26 A2977 RMK T02900260 IEM_DS3505
ZGOW,2010-07-08 14:00,ZGOW 081400Z AUTO 21012KT 7SM 29/26 A2980 RMK T02900260 IEM_DS3505
ZGOW,2010-07-08 15:00,ZGOW 081500Z AUTO 22004KT 9SM 29/26 A2980 RMK SLP091 T02910261 52022 IEM_DS3505
ZGOW,2010-07-08 16:00,ZGOW 081600Z AUTO 22010KT 7SM 30/25 A2980 RMK T03000250 IEM_DS3505
ZGOW,2010-07-08 17:00,ZGOW 081700Z AUTO 20002KT 7SM 29/25 A2980 RMK T02900250 IEM_DS3505
ZGOW,2010-07-08 18:00,ZGOW 081800Z AUTO 20002KT 12SM 29/26 RMK SLP078 T02870259 57013 IEM_DS3505
ZGOW,2010-07-08 19:00,ZGOW 081900Z AUTO 21004KT 6SM 29/25 A2977 RMK T02900250 IEM_DS3505
ZGOW,2010-07-08 20:00,ZGOW 082000Z AUTO 21004KT 6SM 29/25 A2977 RMK T02900250 IEM_DS3505
ZGOW,2010-07-08 21:00,ZGOW 082100Z AUTO 20002KT 12SM 28/26 A2977 RMK SLP074 T02830255 57004 IEM_DS3505
ZGOW,2010-07-08 22:00,ZGOW 082200Z AUTO 20004KT 6SM 28/26 A2977 RMK T02800260 IEM_DS3505
ZGOW,2010-07-08 23:00,ZGOW 082300Z AUTO 22004KT 6SM 29/25 A2977 RMK T02900250 IEM_DS3505
ZGOW,2010-07-09 00:00,ZGOW 090000Z AUTO 22006KT 12SM 30/25 A2980 RMK SLP086 T02970252 52012 IEM_DS3505
ZGOW,2010-07-09 01:00,ZGOW 090100Z AUTO 26006KT 7SM 31/25 A2980 RMK T03100250 IEM_DS3505
ZGOW,2010-07-09 02:00,ZGOW 090200Z AUTO 26008KT 7SM 31/24 A2980 RMK T03100240 IEM_DS3505
ZGOW,2010-07-09 03:00,ZGOW 090300Z AUTO 25006KT 12SM 32/25 A2977 RMK SLP083 T03230254 57003 IEM_DS3505
ZGOW,2010-07-09 04:00,ZGOW 090400Z AUTO 18006KT 7SM 32/26 A2977 RMK T03200260 IEM_DS3505
ZGOW,2010-07-09 05:00,ZGOW 090500Z AUTO 19008KT 7SM 33/25 A2974 RMK T03300250 IEM_DS3505
ZGOW,2010-07-09 06:00,ZGOW 090600Z AUTO 22008KT 16SM 34/25 A2974 RMK SLP071 T03400248 57012 IEM_DS3505
ZGOW,2010-07-09 07:00,ZGOW 090700Z AUTO 23014KT 7SM 33/22 A2974 RMK T03300220 IEM_DS3505
ZGOW,2010-07-09 08:00,ZGOW 090800Z AUTO 21012KT 6SM 34/22 A2971 RMK T03400220 IEM_DS3505
ZGOW,2010-07-09 09:00,ZGOW 090900Z AUTO 22006KT 14SM 33/22 A2971 RMK SLP063 T03320220 57008 IEM_DS3505
ZGOW,2010-07-09 10:00,ZGOW 091000Z AUTO 20010KT 6SM 31/24 A2971 RMK T03100240 IEM_DS3505
ZGOW,2010-07-09 11:00,ZGOW 091100Z AUTO 21010KT 7SM 30/24 A2974 RMK T03000240 IEM_DS3505
ZGOW,2010-07-09 12:00,ZGOW 091200Z AUTO 16002KT 11SM 30/24 A2977 RMK SLP076 T03000242 52013 IEM_DS3505
ZGOW,2010-07-09 13:00,ZGOW 091300Z AUTO 20008KT 6SM 29/25 A2977 RMK T02900250 IEM_DS3505
ZGOW,2010-07-09 14:00,ZGOW 091400Z AUTO 21006KT 6SM 29/24 A2980 RMK T02900240 IEM_DS3505
ZGOW,2010-07-09 15:00,ZGOW 091500Z AUTO 20004KT 11SM 29/25 A2980 RMK SLP093 T02870249 52017 IEM_DS3505
ZGOW,2010-07-09 16:00,ZGOW 091600Z AUTO 22006KT 6SM 28/25 A2980 RMK T02800250 IEM_DS3505
ZGOW,2010-07-09 17:00,ZGOW 091700Z AUTO 24006KT 7SM 29/25 A2980 RMK T02900250 IEM_DS3505
ZGOW,2010-07-09 18:00,ZGOW 091800Z AUTO 27002KT 12SM 28/26 A2980 RMK SLP087 T02810255 57006 IEM_DS3505
ZGOW,2010-07-09 19:00,ZGOW 091900Z AUTO 21002KT 6SM 28/25 A2980 RMK T02800250 IEM_DS3505
ZGOW,2010-07-09 20:00,ZGOW 092000Z AUTO 23006KT 6SM 28/25 A2977 RMK T02800250 IEM_DS3505
ZGOW,2010-07-09 21:00,ZGOW 092100Z AUTO 22004KT 12SM 28/26 A2977 RMK SLP083 T02820256 57004 IEM_DS3505
ZGOW,2010-07-09 22:00,ZGOW 092200Z AUTO 25004KT 7SM 29/25 A2980 RMK T02900250 IEM_DS3505
ZGOW,2010-07-09 23:00,ZGOW 092300Z AUTO 25006KT 7SM 29/24 A2980 RMK T02900240 IEM_DS3505
ZGOW,2010-07-10 00:00,ZGOW 100000Z AUTO 25006KT 14SM 30/25 A2980 RMK SLP093 T03010247 52010 IEM_DS3505
ZGOW,2010-07-10 01:00,ZGOW 100100Z AUTO 24006KT 7SM 31/24 A2983 RMK T03100240 IEM_DS3505
ZGOW,2010-07-10 02:00,ZGOW 100200Z AUTO 27008KT 7SM 32/23 A2980 RMK T03200230 IEM_DS3505
ZGOW,2010-07-10 03:00,ZGOW 100300Z AUTO 25006KT 14SM 32/25 A2983 RMK SLP097 T03200248 52004 IEM_DS3505
ZGOW,2010-07-10 04:00,ZGOW 100400Z AUTO 19004KT 7SM 30/27 A2980 RMK T03000270 IEM_DS3505
ZGOW,2010-07-10 05:00,ZGOW 100500Z AUTO 20010KT 7SM 33/25 A2980 RMK T03300250 IEM_DS3505
ZGOW,2010-07-10 06:00,ZGOW 100600Z AUTO 22006KT 16SM 33/25 A2980 RMK 60000 SLP083 T03270250 57014 IEM_DS3505
ZGOW,2010-07-10 07:00,ZGOW 100700Z AUTO 20010KT 7SM 32/25 A2977 RMK T03200250 IEM_DS3505
ZGOW,2010-07-10 08:00,ZGOW 100800Z AUTO 19012KT 7SM 32/25 A2977 RMK T03200250 IEM_DS3505
ZGOW,2010-07-10 09:00,ZGOW 100900Z AUTO 14008KT 16SM 32/24 A2974 RMK SLP072 T03220240 57011 IEM_DS3505
ZGOW,2010-07-10 10:00,ZGOW 101000Z AUTO 20012KT 7SM 31/25 A2977 RMK T03100250 IEM_DS3505
ZGOW,2010-07-10 11:00,ZGOW 101100Z AUTO 20008KT 7SM 30/25 A2977 RMK T03000250 IEM_DS3505
ZGOW,2010-07-10 12:00,ZGOW 101200Z AUTO 18006KT 14SM 29/25 A2980 RMK SLP086 T02940247 52014 IEM_DS3505
ZGOW,2010-07-10 13:00,ZGOW 101300Z AUTO 22006KT 6SM 29/25 A2980 RMK T02900250 IEM_DS3505
ZGOW,2010-07-10 14:00,ZGOW 101400Z AUTO 19006KT 6SM 29/25 A2983 RMK T02900250 IEM_DS3505
ZGOW,2010-07-10 15:00,ZGOW 101500Z AUTO 20004KT 12SM 29/25 A2985 RMK SLP105 T02880254 52019 IEM_DS3505
ZGOW,2010-07-10 16:00,ZGOW 101600Z AUTO 20008KT 7SM 28/25 A2983 RMK T02800250 IEM_DS3505
ZGOW,2010-07-10 17:00,ZGOW 101700Z AUTO 23006KT 7SM 29/25 A2983 RMK T02900250 IEM_DS3505
ZGOW,2010-07-10 18:00,ZGOW 101800Z AUTO 25004KT 11SM 28/26 A2980 RMK SLP093 T02820256 57012 IEM_DS3505
ZGOW,2010-07-10 19:00,ZGOW 101900Z AUTO 25002KT 6SM 28/25 A2980 RMK T02800250 IEM_DS3505
ZGOW,2010-07-10 20:00,ZGOW 102000Z AUTO 24004KT 6SM 28/25 A2980 RMK T02800250 IEM_DS3505
ZGOW,2010-07-10 21:00,ZGOW 102100Z AUTO 20002KT 11SM 28/26 A2980 RMK 70001 SLP090 T02760256 57003 IEM_DS3505
ZGOW,2010-07-10 22:00,ZGOW 102200Z AUTO 00000KT 7SM 27/26 A2980 RMK T02700260 IEM_DS3505
ZGOW,2010-07-10 23:00,ZGOW 102300Z AUTO 20002KT 7SM 29/25 A2983 RMK T02900250 IEM_DS3505
ZGOW,2010-07-11 00:00,ZGOW 110000Z AUTO 25004KT 12SM 30/26 A2983 RMK 70001 SLP102 T02970257 52012 IEM_DS3505
ZGOW,2010-07-11 01:00,ZGOW 110100Z AUTO 25010KT 1 1/4SM 28/26 A2985 RMK T02800260 IEM_DS3505
ZGOW,2010-07-11 02:00,ZGOW 110200Z AUTO 25004KT 7SM 29/26 A2983 RMK T02900260 IEM_DS3505
ZGOW,2010-07-11 03:00,ZGOW 110300Z AUTO 27004KT 12SM 31/26 A2983 RMK SLP097 T03130256 57005 IEM_DS3505
ZGOW,2010-07-11 04:00,ZGOW 110400Z AUTO 19004KT 7SM 33/26 A2980 RMK T03300260 IEM_DS3505
ZGOW,2010-07-11 05:00,ZGOW 110500Z AUTO 18010KT 7SM 33/25 A2980 RMK T03300250 IEM_DS3505
ZGOW,2010-07-11 06:00,ZGOW 110600Z AUTO 20006KT 19SM 34/25 A2977 RMK 60024 SLP076 T03370251 57021 IEM_DS3505
ZGOW,2010-07-11 07:00,ZGOW 110700Z AUTO 18010KT 7SM 34/25 A2974 RMK T03400250 IEM_DS3505
ZGOW,2010-07-11 08:00,ZGOW 110800Z AUTO 19012KT 7SM 33/25 A2974 RMK T03300250 IEM_DS3505
ZGOW,2010-07-11 09:00,ZGOW 110900Z AUTO 18006KT 17SM 33/25 A2974 RMK SLP069 T03260249 57007 IEM_DS3505
ZGOW,2010-07-11 10:00,ZGOW 111000Z AUTO 19012KT 7SM 31/24 A2974 RMK T03100240 IEM_DS3505
ZGOW,2010-07-11 11:00,ZGOW 111100Z AUTO 18008KT 7SM 30/25 A2974 RMK T03000250 IEM_DS3505
ZGOW,2010-07-11 12:00,ZGOW 111200Z AUTO 22006KT 16SM 29/25 A2977 RMK SLP076 T02920250 52007 IEM_DS3505
ZGOW,2010-07-11 13:00,ZGOW 111300Z AUTO 20008KT 7SM 29/25 A2980 RMK T02900250 IEM_DS3505
ZGOW,2010-07-11 14:00,ZGOW 111400Z AUTO 19004KT 7SM 29/26 A2980 RMK T02900260 IEM_DS3505
ZGOW,2010-07-11 15:00,ZGOW 111500Z AUTO 20004KT 12SM 28/26 A2983 RMK SLP097 T02850257 52021 IEM_DS3505
ZGOW,2010-07-11 16:00,ZGOW 111600Z AUTO 19006KT 7SM 28/26 A2983 RMK T02800260 IEM_DS3505
ZGOW,2010-07-11 17:00,ZGOW 111700Z AUTO 20006KT 7SM 28/26 A2983 RMK T02800260 IEM_DS3505
ZGOW,2010-07-11 18:00,ZGOW 111800Z AUTO 22004KT 12SM 28/26 A2980 RMK SLP092 T02820258 57005 IEM_DS3505
ZGOW,2010-07-11 19:00,ZGOW 111900Z AUTO 20002KT 7SM 28/26 A2980 RMK T02800260 IEM_DS3505
ZGOW,2010-07-11 20:00,ZGOW 112000Z AUTO 21002KT 7SM 28/26 A2980 RMK T02800260 IEM_DS3505
ZGOW,2010-07-11 21:00,ZGOW 112100Z AUTO 25002KT 12SM 28/26 A2980 RMK 70025 SLP090 T02790257 57002 IEM_DS3505
ZGOW,2010-07-11 22:00,ZGOW 112200Z AUTO 07002KT 7SM 27/26 A2980 RMK T02700260 IEM_DS3505
ZGOW,2010-07-11 23:00,ZGOW 112300Z AUTO 25002KT 7SM 29/25 A2980 RMK T02900250 IEM_DS3505
ZGOW,2010-07-12 00:00,ZGOW 120000Z AUTO 22004KT 16SM 30/25 A2980 RMK 70025 SLP092 T02990254 52002 IEM_DS3505
ZGOW,2010-07-12 01:00,ZGOW 120100Z AUTO 26004KT 7SM 31/24 A2980 RMK T03100240 IEM_DS3505
ZGOW,2010-07-12 02:00,ZGOW 120200Z AUTO 19004KT 7SM 30/25 A2980 RMK T03000250 IEM_DS3505
ZGOW,2010-07-12 03:00,ZGOW 120300Z AUTO 22004KT 19SM 32/25 A2980 RMK SLP088 T03210249 57004 IEM_DS3505
ZGOW,2010-07-12 04:00,ZGOW 120400Z AUTO 18008KT 7SM 33/25 A2977 RMK T03300250 IEM_DS3505
ZGOW,2010-07-12 05:00,ZGOW 120500Z AUTO 16012KT 7SM 33/26 A2977 RMK T03300260 IEM_DS3505
ZGOW,2010-07-12 06:00,ZGOW 120600Z AUTO 16004KT 19SM 33/26 A2977 RMK SLP076 T03290257 57012 IEM_DS3505
ZGOW,2010-07-12 07:00,ZGOW 120700Z AUTO 16010KT 7SM 34/26 A2974 RMK T03400260 IEM_DS3505
ZGOW,2010-07-12 08:00,ZGOW 120800Z AUTO 16010KT 7SM 33/24 A2974 RMK T03300240 IEM_DS3505
ZGOW,2010-07-12 09:00,ZGOW 120900Z AUTO 18006KT 19SM 32/25 A2974 RMK SLP068 T03200248 57008 IEM_DS3505
ZGOW,2010-07-12 10:00,ZGOW 121000Z AUTO 17010KT 7SM 31/24 A2974 RMK T03100240 IEM_DS3505
ZGOW,2010-07-12 11:00,ZGOW 121100Z AUTO 17010KT 7SM 30/25 A2974 RMK T03000250 IEM_DS3505
ZGOW,2010-07-12 12:00,ZGOW 121200Z AUTO 18004KT 12SM 29/26 A2977 RMK SLP077 T02910255 52009 IEM_DS3505
ZGOW,2010-07-12 13:00,ZGOW 121300Z AUTO 16006KT 6SM 29/25 A2980 RMK T02900250 IEM_DS3505
ZGOW,2010-07-12 14:00,ZGOW 121400Z AUTO 14004KT 6SM 28/26 A2980 RMK T02800260 IEM_DS3505
ZGOW,2010-07-12 15:00,ZGOW 121500Z AUTO 14002KT 11SM 28/26 A2983 RMK SLP096 T02850257 52019 IEM_DS3505
ZGOW,2010-07-12 16:00,ZGOW 121600Z AUTO 12004KT 7SM 27/26 A2980 RMK T02700260 IEM_DS3505
ZGOW,2010-07-12 17:00,ZGOW 121700Z AUTO 15004KT 6SM 27/26 A2980 RMK T02700260 IEM_DS3505
ZGOW,2010-07-12 18:00,ZGOW 121800Z AUTO 18004KT 10SM 28/26 A2980 RMK SLP091 T02800260 57005 IEM_DS3505
ZGOW,2010-07-12 21:00,ZGOW 122100Z AUTO 00000KT 10SM 28/25 A2980 RMK SLP091 T02780254 54000 IEM_DS3505
ZGOW,2010-07-12 22:00,ZGOW 122200Z AUTO 05002KT 7SM 27/26 A2980 RMK T02700260 IEM_DS3505
ZGOW,2010-07-12 23:00,ZGOW 122300Z AUTO 06004KT 7SM 28/26 A2980 RMK T02800260 IEM_DS3505
ZGOW,2010-07-13 00:00,ZGOW 130000Z AUTO 00000KT 10SM 29/26 A2983 RMK SLP096 T02870261 52005 IEM_DS3505
ZGOW,2010-07-13 01:00,ZGOW 130100Z AUTO 08004KT 7SM 31/26 A2983 RMK T03100260 IEM_DS3505
ZGOW,2010-07-13 02:00,ZGOW 130200Z AUTO 12006KT 7SM 31/26 A2983 RMK T03100260 IEM_DS3505
ZGOW,2010-07-13 03:00,ZGOW 130300Z AUTO 18004KT 12SM 32/26 A2983 RMK SLP093 T03160257 57003 IEM_DS3505
ZGOW,2010-07-13 04:00,ZGOW 130400Z AUTO 12008KT 7SM 31/26 A2983 RMK T03100260 IEM_DS3505
ZGOW,2010-07-13 05:00,ZGOW 130500Z AUTO 14008KT 7SM 32/26 A2980 RMK T03200260 IEM_DS3505
ZGOW,2010-07-13 06:00,ZGOW 130600Z AUTO 11006G23KT 16SM 32/25 A2980 RMK SLP083 T03180252 57010 IEM_DS3505
ZGOW,2010-07-13 07:00,ZGOW 130700Z AUTO 15010KT 7SM 32/25 A2977 RMK T03200250 IEM_DS3505
ZGOW,2010-07-13 08:00,ZGOW 130800Z AUTO 14008KT 7SM 31/26 A2977 RMK T03100260 IEM_DS3505
ZGOW,2010-07-13 09:00,ZGOW 130900Z AUTO 11006KT 16SM 31/26 A2974 RMK SLP073 T03080259 57010 IEM_DS3505
ZGOW,2010-07-13 10:00,ZGOW 131000Z AUTO 12006KT 7SM 29/26 A2977 RMK T02900260 IEM_DS3505
ZGOW,2010-07-13 11:00,ZGOW 131100Z AUTO 13006KT 7SM 28/25 A2980 RMK T02800250 IEM_DS3505
ZGOW,2010-07-13 12:00,ZGOW 131200Z AUTO 16004KT 12SM 29/25 A2980 RMK SLP088 T02900254 52015 IEM_DS3505
ZGOW,2010-07-13 13:00,ZGOW 131300Z AUTO 11004KT 7SM 27/26 A2983 RMK T02700260 IEM_DS3505
ZGOW,2010-07-13 14:00,ZGOW 131400Z AUTO 13004KT 7SM 27/26 A2985 RMK T02700260 IEM_DS3505
ZGOW,2010-07-13 15:00,ZGOW 131500Z AUTO 11004KT 11SM 28/26 A2985 RMK SLP108 T02840262 52020 IEM_DS3505
ZGOW,2010-07-13 16:00,ZGOW 131600Z AUTO 00000KT 7SM 27/25 A2983 RMK T02700250 IEM_DS3505
ZGOW,2010-07-13 17:00,ZGOW 131700Z AUTO 04002KT 7SM 27/25 A2983 RMK T02700250 IEM_DS3505
ZGOW,2010-07-13 18:00,ZGOW 131800Z AUTO 07004KT 9SM 28/26 A2980 RMK SLP091 T02810257 57017 IEM_DS3505
ZGOW,2010-07-13 19:00,ZGOW 131900Z AUTO 08002KT 7SM 27/26 A2980 RMK T02700260 IEM_DS3505
ZGOW,2010-07-13 21:00,ZGOW 132100Z AUTO 07002KT 9SM 28/26 A2980 RMK SLP086 T02780260 57005 IEM_DS3505
ZGOW,2010-07-13 22:00,ZGOW 132200Z AUTO 04004KT 3SM 27/26 A2980 RMK T02700260 IEM_DS3505
ZGOW,2010-07-13 23:00,ZGOW 132300Z AUTO 06006KT 4SM 28/26 A2980 RMK T02800260 IEM_DS3505
ZGOW,2010-07-14 00:00,ZGOW 140000Z AUTO 11002KT 12SM 30/26 A2980 RMK SLP088 T02990259 52002 IEM_DS3505
ZGOW,2010-07-14 01:00,ZGOW 140100Z AUTO 09006KT 7SM 30/26 A2980 RMK T03000260 IEM_DS3505
ZGOW,2010-07-14 02:00,ZGOW 140200Z AUTO 09008KT 7SM 31/26 A2983 RMK T03100260 IEM_DS3505
ZGOW,2010-07-14 03:00,ZGOW 140300Z AUTO 09006KT 14SM 31/26 A2983 RMK SLP097 T03140257 52009 IEM_DS3505
ZGOW,2010-07-14 04:00,ZGOW 140400Z AUTO 14008KT 7SM 33/26 A2983 RMK T03300260 IEM_DS3505
ZGOW,2010-07-14 05:00,ZGOW 140500Z AUTO 13010KT 7SM 33/26 A2983 RMK T03300260 IEM_DS3505
ZGOW,2010-07-14 06:00,ZGOW 140600Z AUTO 11006KT 16SM 32/26 A2980 RMK SLP091 T03220255 57006 IEM_DS3505
ZGOW,2010-07-14 07:00,ZGOW 140700Z AUTO 11008KT 7SM 33/26 A2980 RMK T03300260 IEM_DS3505
ZGOW,2010-07-14 08:00,ZGOW 140800Z AUTO 12010KT 7SM 32/26 A2980 RMK T03200260 IEM_DS3505
ZGOW,2010-07-14 09:00,ZGOW 140900Z AUTO 09006KT 16SM 32/25 A2977 RMK SLP081 T03150251 57010 IEM_DS3505
ZGOW,2010-07-14 10:00,ZGOW 141000Z AUTO 12006KT 7SM 31/25 A2980 RMK T03100250 IEM_DS3505
ZGOW,2010-07-14 11:00,ZGOW 141100Z AUTO 10006KT 7SM 29/25 A2980 RMK T02900250 IEM_DS3505
ZGOW,2010-07-14 12:00,ZGOW 141200Z AUTO 09004KT 12SM 30/26 A2983 RMK SLP095 T02960258 52014 IEM_DS3505
ZGOW,2010-07-14 13:00,ZGOW 141300Z AUTO 10006KT 7SM 29/25 A2983 RMK T02900250 IEM_DS3505
ZGOW,2010-07-14 14:00,ZGOW 141400Z AUTO 10006KT 7SM 29/25 A2983 RMK T02900250 IEM_DS3505
ZGOW,2010-07-14 15:00,ZGOW 141500Z AUTO 09006KT 11SM 29/25 A2983 RMK SLP096 T02910253 52001 IEM_DS3505
ZGOW,2010-07-14 16:00,ZGOW 141600Z AUTO 08004KT 7SM 28/25 A2980 RMK T02800250 IEM_DS3505
ZGOW,2010-07-14 17:00,ZGOW 141700Z AUTO 08006KT 7SM 28/26 A2980 RMK T02800260 IEM_DS3505
ZGOW,2010-07-14 18:00,ZGOW 141800Z AUTO 09004KT 9SM 29/26 A2980 RMK SLP086 T02880258 57010 IEM_DS3505
ZGOW,2010-07-14 19:00,ZGOW 141900Z AUTO 08006KT 7SM 28/26 A2980 RMK T02800260 IEM_DS3505
ZGOW,2010-07-14 20:00,ZGOW 142000Z AUTO 08006KT 7SM 28/26 A2980 RMK T02800260 IEM_DS3505
ZGOW,2010-07-14 21:00,ZGOW 142100Z AUTO 09002KT 9SM 28/26 A2980 RMK SLP085 T02840256 57001 IEM_DS3505
ZGOW,2010-07-14 22:00,ZGOW 142200Z AUTO 07004KT 7SM 27/26 A2980 RMK T02700260 IEM_DS3505
ZGOW,2010-07-14 23:00,ZGOW 142300Z AUTO 08006KT 7SM 28/26 A2980 RMK T02800260 IEM_DS3505
ZGOW,2010-07-15 00:00,ZGOW 150000Z AUTO 09006KT 14SM 30/26 A2980 RMK SLP094 T03020259 52009 IEM_DS3505
ZGOW,2010-07-15 01:00,ZGOW 150100Z AUTO 09008KT 7SM 30/26 A2983 RMK T03000260 IEM_DS3505
ZGOW,2010-07-15 02:00,ZGOW 150200Z AUTO 09010KT 7SM 32/26 A2983 RMK T03200260 IEM_DS3505
ZGOW,2010-07-15 03:00,ZGOW 150300Z AUTO 09008KT 16SM 31/25 A2980 RMK SLP093 T03140253 57001 IEM_DS3505
ZGOW,2010-07-15 04:00,ZGOW 150400Z AUTO 10012KT 7SM 32/25 A2980 RMK T03200250 IEM_DS3505
ZGOW,2010-07-15 05:00,ZGOW 150500Z AUTO 11010KT 7SM 33/25 A2980 RMK T03300250 IEM_DS3505
ZGOW,2010-07-15 06:00,ZGOW 150600Z AUTO 11006KT 16SM 32/26 A2977 RMK SLP080 T03190260 57013 IEM_DS3505
ZGOW,2010-07-15 07:00,ZGOW 150700Z AUTO 11010KT 7SM 32/26 A2977 RMK T03200260 IEM_DS3505
ZGOW,2010-07-15 08:00,ZGOW 150800Z AUTO 10010KT 7SM 32/26 A2974 RMK T03200260 IEM_DS3505
ZGOW,2010-07-15 09:00,ZGOW 150900Z AUTO 14006KT 16SM 31/26 A2974 RMK SLP072 T03070255 57008 IEM_DS3505
ZGOW,2010-07-15 10:00,ZGOW 151000Z AUTO 12008KT 7SM 30/25 A2977 RMK T03000250 IEM_DS3505
ZGOW,2010-07-15 11:00,ZGOW 151100Z AUTO 11006KT 6SM 29/25 A2977 RMK T02900250 IEM_DS3505
ZGOW,2010-07-15 12:00,ZGOW 151200Z AUTO 09006KT 16SM 29/26 A2980 RMK SLP088 T02910255 52016 IEM_DS3505
ZGOW,2010-07-15 13:00,ZGOW 151300Z AUTO 10008KT 7SM 28/25 A2983 RMK T02800250 IEM_DS3505
ZGOW,2010-07-15 14:00,ZGOW 151400Z AUTO 10006KT 6SM 28/25 A2985 RMK T02800250 IEM_DS3505
ZGOW,2010-07-15 15:00,ZGOW 151500Z AUTO 11004KT 16SM 28/25 A2985 RMK SLP107 T02810251 52019 IEM_DS3505
ZGOW,2010-07-15 16:00,ZGOW 151600Z AUTO 10004KT 7SM 27/25 A2985 RMK T02700250 IEM_DS3505
ZGOW,2010-07-15 17:00,ZGOW 151700Z AUTO 11008KT 7SM 27/25 A2983 RMK T02700250 IEM_DS3505
ZGOW,2010-07-15 18:00,ZGOW 151800Z AUTO 11004KT 11SM 28/25 A2980 RMK SLP092 T02750249 57015 IEM_DS3505
ZGOW,2010-07-15 19:00,ZGOW 151900Z AUTO 07004KT 6SM 26/24 A2980 RMK T02600240 IEM_DS3505
ZGOW,2010-07-15 20:00,ZGOW 152000Z AUTO 10002KT 6SM 26/24 A2980 RMK T02600240 IEM_DS3505
ZGOW,2010-07-15 21:00,ZGOW 152100Z AUTO 07006KT 11SM 27/25 A2980 RMK 70000 SLP088 T02710246 57004 IEM_DS3505
ZGOW,2010-07-15 22:00,ZGOW 152200Z AUTO 05006KT 6SM 26/25 A2980 RMK T02600250 IEM_DS3505
ZGOW,2010-07-15 23:00,ZGOW 152300Z AUTO 05006KT 6SM 27/26 A2983 RMK T02700260 IEM_DS3505
ZGOW,2010-07-16 00:00,ZGOW 160000Z AUTO 07004KT 16SM 30/25 A2983 RMK 70000 SLP097 T02960254 52009 IEM_DS3505
ZGOW,2010-07-16 01:00,ZGOW 160100Z AUTO 08006KT 7SM 30/24 A2983 RMK T03000240 IEM_DS3505
ZGOW,2010-07-16 02:00,ZGOW 160200Z AUTO 11010KT 7SM 31/25 A2983 RMK T03100250 IEM_DS3505
ZGOW,2010-07-16 03:00,ZGOW 160300Z AUTO 11010KT 17SM 32/24 A2983 RMK SLP099 T03150244 52002 IEM_DS3505
ZGOW,2010-07-16 04:00,ZGOW 160400Z AUTO 13010KT 7SM 32/25 A2983 RMK T03200250 IEM_DS3505
ZGOW,2010-07-16 05:00,ZGOW 160500Z AUTO 12014KT 7SM 32/25 A2983 RMK T03200250 IEM_DS3505
ZGOW,2010-07-16 06:00,ZGOW 160600Z AUTO 11008KT 16SM 32/25 A2980 RMK 60002 SLP088 T03150254 57011 IEM_DS3505
ZGOW,2010-07-16 07:00,ZGOW 160700Z AUTO 12012KT 7SM 31/25 A2980 RMK T03100250 IEM_DS3505
ZGOW,2010-07-16 08:00,ZGOW 160800Z AUTO 12010KT 7SM 31/25 A2980 RMK T03100250 IEM_DS3505
ZGOW,2010-07-16 09:00,ZGOW 160900Z AUTO 14006KT 16SM 31/25 A2980 RMK SLP086 T03080254 57002 IEM_DS3505
ZGOW,2010-07-16 10:00,ZGOW 161000Z AUTO 11006KT 7SM 30/25 A2980 RMK T03000250 IEM_DS3505
ZGOW,2010-07-16 11:00,ZGOW 161100Z AUTO 10006KT 7SM 29/25 A2980 RMK T02900250 IEM_DS3505
ZGOW,2010-07-16 12:00,ZGOW 161200Z AUTO 11008KT 12SM 28/25 A2985 RMK SLP107 T02770247 52021 IEM_DS3505
ZGOW,2010-07-16 13:00,ZGOW 161300Z AUTO 21004KT 7SM 27/24 A2985 RMK T02700240 IEM_DS3505
ZGOW,2010-07-16 14:00,ZGOW 161400Z AUTO 11006KT 7SM 27/25 A2988 RMK T02700250 IEM_DS3505
ZGOW,2010-07-16 15:00,ZGOW 161500Z AUTO 00000KT 12SM 28/25 A2985 RMK SLP113 T02760250 52006 IEM_DS3505
ZGOW,2010-07-16 16:00,ZGOW 161600Z AUTO 11004KT 7SM 27/25 A2985 RMK T02700250 IEM_DS3505
ZGOW,2010-07-16 17:00,ZGOW 161700Z AUTO 07002KT 7SM 27/25 A2985 RMK T02700250 IEM_DS3505
ZGOW,2010-07-16 18:00,ZGOW 161800Z AUTO 07004KT 12SM 27/26 A2983 RMK 60016 SLP103 T02740258 57010 IEM_DS3505
ZGOW,2010-07-16 19:00,ZGOW 161900Z AUTO 13002KT 7SM 27/25 A2983 RMK T02700250 IEM_DS3505
ZGOW,2010-07-16 20:00,ZGOW 162000Z AUTO 06002KT 7SM 26/25 A2983 RMK T02600250 IEM_DS3505
ZGOW,2010-07-16 21:00,ZGOW 162100Z AUTO 07002KT 12SM 27/26 A2983 RMK 70017 SLP100 T02710257 57003 IEM_DS3505
ZGOW,2010-07-16 22:00,ZGOW 162200Z AUTO 08004KT 7SM 27/26 A2985 RMK T02700260 IEM_DS3505
ZGOW,2010-07-16 23:00,ZGOW 162300Z AUTO 08004KT 7SM 28/26 A2985 RMK T02800260 IEM_DS3505
ZGOW,2010-07-17 00:00,ZGOW 170000Z AUTO 07004KT 16SM 29/26 A2988 RMK 70017 SLP115 T02930263 52015 IEM_DS3505
ZGOW,2010-07-17 01:00,ZGOW 170100Z AUTO 11006KT 7SM 31/26 A2988 RMK T03100260 IEM_DS3505
ZGOW,2010-07-17 02:00,ZGOW 170200Z AUTO 12006KT 7SM 32/25 A2988 RMK T03200250 IEM_DS3505
ZGOW,2010-07-17 03:00,ZGOW 170300Z AUTO 11002KT 17SM 31/25 A2988 RMK SLP119 T03140250 52004 IEM_DS3505
ZGOW,2010-07-17 04:00,ZGOW 170400Z AUTO 11006KT 7SM 31/25 A2988 RMK T03100250 IEM_DS3505
ZGOW,2010-07-17 05:00,ZGOW 170500Z AUTO 12010KT 7SM 30/23 A2988 RMK T03000230 IEM_DS3505
ZGOW,2010-07-17 06:00,ZGOW 170600Z AUTO 16006KT 17SM 32/26 A2985 RMK SLP108 T03170258 57011 IEM_DS3505
ZGOW,2010-07-17 07:00,ZGOW 170700Z AUTO 12008KT 7SM 31/25 A2985 RMK T03100250 IEM_DS3505
ZGOW,2010-07-17 08:00,ZGOW 170800Z AUTO 12006KT 7SM 31/25 A2985 RMK T03100250 IEM_DS3505
ZGOW,2010-07-17 09:00,ZGOW 170900Z AUTO 11006KT 14SM 31/24 A2983 RMK SLP102 T03110245 57006 IEM_DS3505
ZGOW,2010-07-17 10:00,ZGOW 171000Z AUTO 12008KT 7SM 30/25 A2985 RMK T03000250 IEM_DS3505
ZGOW,2010-07-17 11:00,ZGOW 171100Z AUTO 12006KT 7SM 28/25 A2988 RMK T02800250 IEM_DS3505
ZGOW,2010-07-17 12:00,ZGOW 171200Z AUTO 14002KT 12SM 29/25 A2988 RMK SLP121 T02880252 52019 IEM_DS3505
ZGOW,2010-07-17 13:00,ZGOW 171300Z AUTO 12004KT 7SM 28/25 A2991 RMK T02800250 IEM_DS3505
ZGOW,2010-07-17 14:00,ZGOW 171400Z AUTO 13004KT 4SM 27/26 A2991 RMK T02700260 IEM_DS3505
ZGOW,2010-07-17 15:00,ZGOW 171500Z AUTO 14002KT 11SM 28/26 A2991 RMK SLP132 T02830261 52011 IEM_DS3505
ZGOW,2010-07-17 16:00,ZGOW 171600Z AUTO 04002KT 2SM 27/26 A2991 RMK T02700260 IEM_DS3505
ZGOW,2010-07-17 17:00,ZGOW 171700Z AUTO 07002KT 2SM 27/26 A2991 RMK T02700260 IEM_DS3505
ZGOW,2010-07-17 18:00,ZGOW 171800Z AUTO 09002KT 7SM 28/26 RMK SLP122 T02800262 57010 IEM_DS3505
ZGOW,2010-07-17 19:00,ZGOW 171900Z AUTO 00000KT 3SM 27/26 A2988 RMK T02700260 IEM_DS3505
ZGOW,2010-07-17 21:00,ZGOW 172100Z AUTO 00000KT 6SM 28/26 A2985 RMK SLP114 T02770259 57008 IEM_DS3505
ZGOW,2010-07-17 22:00,ZGOW 172200Z AUTO 04002KT 4SM 27/25 A2985 RMK T02700250 IEM_DS3505
ZGOW,2010-07-17 23:00,ZGOW 172300Z AUTO 04004KT 5SM 27/26 A2985 RMK T02700260 IEM_DS3505
ZGOW,2010-07-18 00:00,ZGOW 180000Z AUTO 09002KT 11SM 29/26 A2985 RMK SLP113 T02920260 57001 IEM_DS3505
ZGOW,2010-07-18 01:00,ZGOW 180100Z AUTO 02002KT 7SM 31/25 A2985 RMK T03100250 IEM_DS3505
ZGOW,2010-07-18 02:00,ZGOW 180200Z AUTO 23002KT 7SM 32/24 A2985 RMK T03200240 IEM_DS3505
ZGOW,2010-07-18 03:00,ZGOW 180300Z AUTO 22004KT 14SM 33/25 A2985 RMK SLP116 T03280246 52003 IEM_DS3505
ZGOW,2010-07-18 04:00,ZGOW 180400Z AUTO 16008KT 7SM 33/25 A2985 RMK T03300250 IEM_DS3505
ZGOW,2010-07-18 05:00,ZGOW 180500Z AUTO 17008KT 7SM 33/24 A2985 RMK T03300240 IEM_DS3505
ZGOW,2010-07-18 06:00,ZGOW 180600Z AUTO 14006KT 19SM 33/25 A2983 RMK SLP104 T03310246 57012 IEM_DS3505
ZGOW,2010-07-18 07:00,ZGOW 180700Z AUTO 16010KT 7SM 33/24 A2983 RMK T03300240 IEM_DS3505
ZGOW,2010-07-18 08:00,ZGOW 180800Z AUTO 16008KT 7SM 31/26 A2980 RMK T03100260 IEM_DS3505
ZGOW,2010-07-18 09:00,ZGOW 180900Z AUTO 16006KT 19SM 31/25 A2980 RMK SLP093 T03070248 57011 IEM_DS3505
ZGOW,2010-07-18 10:00,ZGOW 181000Z AUTO 19006KT 7SM 31/24 A2983 RMK T03100240 IEM_DS3505
ZGOW,2010-07-18 11:00,ZGOW 181100Z AUTO 20006KT 7SM 30/24 A2983 RMK T03000240 IEM_DS3505
ZGOW,2010-07-18 12:00,ZGOW 181200Z AUTO 20004KT 16SM 30/24 A2985 RMK SLP104 T02990245 52011 IEM_DS3505
ZGOW,2010-07-18 13:00,ZGOW 181300Z AUTO 20004KT 7SM 30/25 A2985 RMK T03000250 IEM_DS3505
ZGOW,2010-07-18 14:00,ZGOW 181400Z AUTO 19002KT 7SM 29/25 A2985 RMK T02900250 IEM_DS3505
ZGOW,2010-07-18 15:00,ZGOW 181500Z AUTO 20002KT 11SM 28/25 A2985 RMK SLP109 T02850251 52005 IEM_DS3505
ZGOW,2010-07-18 16:00,ZGOW 181600Z AUTO 23002KT 7SM 29/25 A2985 RMK T02900250 IEM_DS3505
ZGOW,2010-07-18 17:00,ZGOW 181700Z AUTO 28002KT 7SM 29/25 A2983 RMK T02900250 IEM_DS3505
ZGOW,2010-07-18 18:00,ZGOW 181800Z AUTO 29002KT 6SM 28/25 A2983 RMK SLP098 T02840250 57011 IEM_DS3505
ZGOW,2010-07-18 21:00,ZGOW 182100Z AUTO 00000KT 4SM 28/25 A2983 RMK SLP095 T02760248 57003 IEM_DS3505
ZGOW,2010-07-18 22:00,ZGOW 182200Z AUTO 04002KT 2 1/2SM 27/25 A2983 RMK T02700250 IEM_DS3505
ZGOW,2010-07-18 23:00,ZGOW 182300Z AUTO 13004KT 2 1/2SM 28/26 A2983 RMK T02800260 IEM_DS3505
ZGOW,2010-07-19 00:00,ZGOW 190000Z AUTO 07002KT 4SM 30/26 A2983 RMK SLP099 T02960258 52004 IEM_DS3505
ZGOW,2010-07-19 01:00,ZGOW 190100Z AUTO 12004KT 7SM 31/26 A2983 RMK T03100260 IEM_DS3505
ZGOW,2010-07-19 02:00,ZGOW 190200Z AUTO 11004KT 7SM 32/25 A2983 RMK T03200250 IEM_DS3505
ZGOW,2010-07-19 03:00,ZGOW 190300Z AUTO 11002KT 5SM 31/24 A2983 RMK SLP096 T03130244 57003 IEM_DS3505
ZGOW,2010-07-19 04:00,ZGOW 190400Z AUTO 21002KT 7SM 33/25 A2980 RMK T03300250 IEM_DS3505
ZGOW,2010-07-19 05:00,ZGOW 190500Z AUTO 12006KT 7SM 32/25 A2980 RMK T03200250 IEM_DS3505
ZGOW,2010-07-19 06:00,ZGOW 190600Z AUTO 14006KT 6SM 33/25 A2980 RMK SLP086 T03270253 57010 IEM_DS3505
ZGOW,2010-07-19 07:00,ZGOW 190700Z AUTO 15010KT 6SM 31/25 A2977 RMK T03100250 IEM_DS3505
ZGOW,2010-07-19 08:00,ZGOW 190800Z AUTO 15010KT 6SM 31/24 A2977 RMK T03100240 IEM_DS3505
ZGOW,2010-07-19 09:00,ZGOW 190900Z AUTO 14006KT 6SM 31/25 A2977 RMK SLP075 T03100254 57011 IEM_DS3505
ZGOW,2010-07-19 10:00,ZGOW 191000Z AUTO 14010KT 7SM 29/24 A2977 RMK T02900240 IEM_DS3505
ZGOW,2010-07-19 11:00,ZGOW 191100Z AUTO 16006KT 7SM 29/24 A2980 RMK T02900240 IEM_DS3505
ZGOW,2010-07-19 12:00,ZGOW 191200Z AUTO 14006KT 6SM 29/24 A2980 RMK SLP090 T02920243 52015 IEM_DS3505
ZGOW,2010-07-19 13:00,ZGOW 191300Z AUTO 13002KT 7SM 28/25 A2983 RMK T02800250 IEM_DS3505
ZGOW,2010-07-19 14:00,ZGOW 191400Z AUTO 13002KT 6SM 28/25 A2983 RMK T02800250 IEM_DS3505
ZGOW,2010-07-19 15:00,ZGOW 191500Z AUTO 00000KT 9SM 28/25 A2983 RMK SLP101 T02820248 52011 IEM_DS3505
ZGOW,2010-07-19 16:00,ZGOW 191600Z AUTO 09002KT 7SM 28/25 A2980 RMK T02800250 IEM_DS3505
ZGOW,2010-07-19 17:00,ZGOW 191700Z AUTO 06002KT 7SM 27/25 A2980 RMK T02700250 IEM_DS3505
ZGOW,2010-07-19 18:00,ZGOW 191800Z AUTO 00000KT 7SM 28/25 A2980 RMK SLP083 T02790251 57018 IEM_DS3505
ZGOW,2010-07-19 19:00,ZGOW 191900Z AUTO 08002KT 2SM 27/25 A2980 RMK T02700250 IEM_DS3505
ZGOW,2010-07-19 20:00,ZGOW 192000Z AUTO 00000KT 2SM 27/25 A2980 RMK T02700250 IEM_DS3505
ZGOW,2010-07-19 21:00,ZGOW 192100Z AUTO 07002KT 5SM 28/25 A2980 RMK SLP086 T02770253 52003 IEM_DS3505
ZGOW,2010-07-19 22:00,ZGOW 192200Z AUTO 11002KT 2 1/2SM 27/25 A2980 RMK T02700250 IEM_DS3505
ZGOW,2010-07-19 23:00,ZGOW 192300Z AUTO 09002KT 4SM 28/25 A2980 RMK T02800250 IEM_DS3505
ZGOW,2010-07-20 00:00,ZGOW 200000Z AUTO 09004KT 9SM 30/26 A2983 RMK SLP098 T03000255 52012 IEM_DS3505
ZGOW,2010-07-20 01:00,ZGOW 200100Z AUTO 08006KT 7SM 31/24 A2983 RMK T03100240 IEM_DS3505
ZGOW,2010-07-20 02:00,ZGOW 200200Z AUTO 12006KT 7SM 32/24 A2985 RMK T03200240 IEM_DS3505
ZGOW,2010-07-20 03:00,ZGOW 200300Z AUTO 14004KT 16SM 32/23 A2983 RMK SLP102 T03250226 52004 IEM_DS3505
ZGOW,2010-07-20 04:00,ZGOW 200400Z AUTO 12006KT 7SM 33/22 A2983 RMK T03300220 IEM_DS3505
ZGOW,2010-07-20 05:00,ZGOW 200500Z AUTO 09006KT 7SM 34/22 A2980 RMK T03400220 IEM_DS3505
ZGOW,2010-07-20 06:00,ZGOW 200600Z AUTO 11004KT 16SM 34/22 A2980 RMK SLP086 T03350216 57016 IEM_DS3505
ZGOW,2010-07-20 07:00,ZGOW 200700Z AUTO 14010KT 7SM 34/22 A2977 RMK T03400220 IEM_DS3505
ZGOW,2010-07-20 08:00,ZGOW 200800Z AUTO 14010KT 7SM 33/24 A2977 RMK T03300240 IEM_DS3505
ZGOW,2010-07-20 09:00,ZGOW 200900Z AUTO 14008KT 12SM 32/23 A2977 RMK SLP075 T03160234 57011 IEM_DS3505
ZGOW,2010-07-20 10:00,ZGOW 201000Z AUTO 15006KT 7SM 31/25 A2977 RMK T03100250 IEM_DS3505
ZGOW,2010-07-20 11:00,ZGOW 201100Z AUTO 13006KT 7SM 29/26 A2977 RMK T02900260 IEM_DS3505
ZGOW,2010-07-20 12:00,ZGOW 201200Z AUTO 14006KT 11SM 30/26 A2980 RMK SLP087 T02970263 52012 IEM_DS3505
ZGOW,2010-07-20 13:00,ZGOW 201300Z AUTO 12006KT 7SM 29/27 A2980 RMK T02900270 IEM_DS3505
ZGOW,2010-07-20 14:00,ZGOW 201400Z AUTO 12008KT 7SM 29/27 A2983 RMK T02900270 IEM_DS3505
ZGOW,2010-07-20 15:00,ZGOW 201500Z AUTO 14006KT 11SM 29/27 A2983 RMK SLP103 T02930267 52016 IEM_DS3505
ZGOW,2010-07-20 16:00,ZGOW 201600Z AUTO 09004KT 7SM 28/27 A2983 RMK T02800270 IEM_DS3505
ZGOW,2010-07-20 17:00,ZGOW 201700Z AUTO 08004KT 7SM 29/26 A2980 RMK T02900260 IEM_DS3505
ZGOW,2010-07-20 18:00,ZGOW 201800Z AUTO 07004KT 9SM 29/27 A2980 RMK SLP085 T02940266 57018 IEM_DS3505
ZGOW,2010-07-20 19:00,ZGOW 201900Z AUTO 05006KT 7SM 28/26 A2977 RMK T02800260 IEM_DS3505
ZGOW,2010-07-20 20:00,ZGOW 202000Z AUTO 06006KT 7SM 28/26 A2977 RMK T02800260 IEM_DS3505
ZGOW,2010-07-20 21:00,ZGOW 202100Z AUTO 09006KT 10SM 29/27 A2977 RMK 70000 SLP081 T02880266 57004 IEM_DS3505
ZGOW,2010-07-20 22:00,ZGOW 202200Z AUTO 07008KT 7SM 28/26 A2980 RMK T02800260 IEM_DS3505
ZGOW,2010-07-20 23:00,ZGOW 202300Z AUTO 07010KT 7SM 28/26 A2980 RMK T02800260 IEM_DS3505
ZGOW,2010-07-21 00:00,ZGOW 210000Z AUTO 11004KT 10SM 28/26 A2980 RMK 60008 70008 SLP094 T02810265 52013 IEM_DS3505
ZGOW,2010-07-21 01:00,ZGOW 210100Z AUTO 09004KT 7SM 27/26 A2983 RMK T02700260 IEM_DS3505
ZGOW,2010-07-21 02:00,ZGOW 210200Z AUTO 12008KT 7SM 26/24 A2983 RMK T02600240 IEM_DS3505
ZGOW,2010-07-21 03:00,ZGOW 210300Z AUTO 09004KT 11SM 27/25 A2983 RMK SLP101 T02720254 52007 IEM_DS3505
ZGOW,2010-07-21 04:00,ZGOW 210400Z AUTO 07010KT 7SM 29/26 A2983 RMK T02900260 IEM_DS3505
ZGOW,2010-07-21 05:00,ZGOW 210500Z AUTO 09008KT 7SM 30/26 A2983 RMK T03000260 IEM_DS3505
ZGOW,2010-07-21 06:00,ZGOW 210600Z AUTO 11006KT 12SM 30/25 A2980 RMK 60063 SLP086 T03010250 57015 IEM_DS3505
ZGOW,2010-07-21 07:00,ZGOW 210700Z AUTO 09008KT 7SM 30/25 A2980 RMK T03000250 IEM_DS3505
ZGOW,2010-07-21 08:00,ZGOW 210800Z AUTO 11010KT 7SM 30/24 A2977 RMK T03000240 IEM_DS3505
ZGOW,2010-07-21 09:00,ZGOW 210900Z AUTO 11004KT 14SM 28/24 A2980 RMK SLP084 T02820238 57002 IEM_DS3505
ZGOW,2010-07-21 10:00,ZGOW 211000Z AUTO 09004KT 7SM 28/24 A2980 RMK T02800240 IEM_DS3505
ZGOW,2010-07-21 11:00,ZGOW 211100Z AUTO 08006KT 7SM 27/25 A2980 RMK T02700250 IEM_DS3505
ZGOW,2010-07-21 12:00,ZGOW 211200Z AUTO 09006KT 10SM 27/24 A2983 RMK 60016 SLP094 T02690244 52010 IEM_DS3505
ZGOW,2010-07-21 13:00,ZGOW 211300Z AUTO 09004KT 7SM 27/24 A2983 RMK T02700240 IEM_DS3505
ZGOW,2010-07-21 14:00,ZGOW 211400Z AUTO 08006KT 7SM 27/25 A2985 RMK T02700250 IEM_DS3505
ZGOW,2010-07-21 15:00,ZGOW 211500Z AUTO 07006KT 9SM 27/25 A2983 RMK SLP102 T02730253 52008 IEM_DS3505
ZGOW,2010-07-21 16:00,ZGOW 211600Z AUTO 07008KT 7SM 27/25 A2983 RMK T02700250 IEM_DS3505
ZGOW,2010-07-21 17:00,ZGOW 211700Z AUTO 07006KT 7SM 27/25 A2983 RMK T02700250 IEM_DS3505
ZGOW,2010-07-21 18:00,ZGOW 211800Z AUTO 07004KT 9SM 27/26 A2980 RMK 60000 SLP090 T02730257 57012 IEM_DS3505
ZGOW,2010-07-21 19:00,ZGOW 211900Z AUTO 07008KT 7SM 27/25 A2980 RMK T02700250 IEM_DS3505
ZGOW,2010-07-21 20:00,ZGOW 212000Z AUTO 07008KT 7SM 27/26 A2977 RMK T02700260 IEM_DS3505
ZGOW,2010-07-21 21:00,ZGOW 212100Z AUTO 09004KT 4SM 27/26 A2977 RMK 70146 SLP081 T02680259 57009 IEM_DS3505
ZGOW,2010-07-21 22:00,ZGOW 212200Z AUTO 09008KT 4SM 25/24 A2980 RMK T02500240 IEM_DS3505
ZGOW,2010-07-21 23:00,ZGOW 212300Z AUTO 11008KT 7SM 25/24 A2980 RMK T02500240 IEM_DS3505
ZGOW,2010-07-22 00:00,ZGOW 220000Z AUTO 11006KT 11SM 26/24 A2983 RMK 60075 70153 SLP094 T02560238 52013 IEM_DS3505
ZGOW,2010-07-22 01:00,ZGOW 220100Z AUTO 08008KT 3SM 26/24 A2983 RMK T02600240 IEM_DS3505
ZGOW,2010-07-22 02:00,ZGOW 220200Z AUTO 12002KT 2 1/2SM 26/25 A2983 RMK T02600250 IEM_DS3505
ZGOW,2010-07-22 03:00,ZGOW 220300Z AUTO 09004KT 7SM 26/24 A2985 RMK SLP110 T02550245 52016 IEM_DS3505
ZGOW,2010-07-22 04:00,ZGOW 220400Z AUTO 07004KT 4SM 26/25 A2985 RMK T02600250 IEM_DS3505
ZGOW,2010-07-22 05:00,ZGOW 220500Z AUTO 03004KT 7SM 26/25 A2983 RMK T02600250 IEM_DS3505
ZGOW,2010-07-22 06:00,ZGOW 220600Z AUTO 04002KT 8SM 27/26 A2983 RMK 60130 SLP094 T02670255 57016 IEM_DS3505
ZGOW,2010-07-22 07:00,ZGOW 220700Z AUTO 06004KT 7SM 28/25 A2980 RMK T02800250 IEM_DS3505
ZGOW,2010-07-22 08:00,ZGOW 220800Z AUTO 08006KT 7SM 28/26 A2980 RMK T02800260 IEM_DS3505
ZGOW,2010-07-22 09:00,ZGOW 220900Z AUTO 07006KT 10SM 28/25 A2977 RMK SLP081 T02800248 57013 IEM_DS3505
ZGOW,2010-07-22 10:00,ZGOW 221000Z AUTO 10004KT 7SM 25/24 A2980 RMK T02500240 IEM_DS3505
ZGOW,2010-07-22 11:00,ZGOW 221100Z AUTO 08002KT 4SM 26/25 A2983 RMK T02600250 IEM_DS3505
ZGOW,2010-07-22 12:00,ZGOW 221200Z AUTO 04002KT 9SM 26/25 A2980 RMK 60035 SLP094 T02630253 52013 IEM_DS3505
ZGOW,2010-07-22 13:00,ZGOW 221300Z AUTO 11004KT 4SM 26/24 A2985 RMK T02600240 IEM_DS3505
ZGOW,2010-07-22 14:00,ZGOW 221400Z AUTO 10008G21KT 7SM 26/24 A2988 RMK T02600240 IEM_DS3505
ZGOW,2010-07-22 15:00,ZGOW 221500Z AUTO 07004KT 7SM 26/24 A2985 RMK SLP108 T02570243 52013 IEM_DS3505
ZGOW,2010-07-22 16:00,ZGOW 221600Z AUTO 05006KT 7SM 25/24 A2983 RMK T02500240 IEM_DS3505
ZGOW,2010-07-22 17:00,ZGOW 221700Z AUTO 03002KT 7SM 25/24 A2980 RMK T02500240 IEM_DS3505
ZGOW,2010-07-22 18:00,ZGOW 221800Z AUTO 00000KT 9SM 25/24 A2980 RMK 60051 SLP087 T02540244 57020 IEM_DS3505
ZGOW,2010-07-22 19:00,ZGOW 221900Z AUTO 04006KT 7SM 25/24 A2977 RMK T02500240 IEM_DS3505
ZGOW,2010-07-22 20:00,ZGOW 222000Z AUTO 02002KT 7SM 25/24 A2977 RMK T02500240 IEM_DS3505
ZGOW,2010-07-22 21:00,ZGOW 222100Z AUTO 04002KT 9SM 25/24 A2977 RMK 70231 SLP076 T02530243 57011 IEM_DS3505
ZGOW,2010-07-22 22:00,ZGOW 222200Z AUTO 05006KT 7SM 25/24 A2977 RMK T02500240 IEM_DS3505
ZGOW,2010-07-22 23:00,ZGOW 222300Z AUTO 07006KT 7SM 26/25 A2980 RMK T02600250 IEM_DS3505
ZGOW,2010-07-23 00:00,ZGOW 230000Z AUTO 09006KT 7SM 26/24 A2983 RMK 60016 70233 SLP095 T02550243 52019 IEM_DS3505
ZGOW,2010-07-23 01:00,ZGOW 230100Z AUTO 10006KT 4SM 25/24 A2983 RMK T02500240 IEM_DS3505
ZGOW,2010-07-23 02:00,ZGOW 230200Z AUTO 11010KT 4SM 26/25 A2983 RMK T02600250 IEM_DS3505
ZGOW,2010-07-23 03:00,ZGOW 230300Z AUTO 09006KT 11SM 28/24 A2983 RMK SLP098 T02810237 52003 IEM_DS3505
ZGOW,2010-07-23 04:00,ZGOW 230400Z AUTO 12008KT 7SM 28/25 A2983 RMK T02800250 IEM_DS3505
ZGOW,2010-07-23 05:00,ZGOW 230500Z AUTO 12010KT 7SM 28/25 A2983 RMK T02800250 IEM_DS3505
ZGOW,2010-07-23 06:00,ZGOW 230600Z AUTO 11008KT 12SM 29/25 A2980 RMK 60008 SLP089 T02870247 57009 IEM_DS3505
ZGOW,2010-07-23 07:00,ZGOW 230700Z AUTO 11008KT 7SM 28/25 A2980 RMK T02800250 IEM_DS3505
ZGOW,2010-07-23 08:00,ZGOW 230800Z AUTO 11006KT 7SM 28/24 A2977 RMK T02800240 IEM_DS3505
ZGOW,2010-07-23 09:00,ZGOW 230900Z AUTO 14004KT 12SM 28/24 A2977 RMK SLP079 T02830245 57010 IEM_DS3505
ZGOW,2010-07-23 10:00,ZGOW 231000Z AUTO 10004KT 7SM 27/24 A2977 RMK T02700240 IEM_DS3505
ZGOW,2010-07-23 11:00,ZGOW 231100Z AUTO 10004KT 7SM 27/25 A2980 RMK T02700250 IEM_DS3505
ZGOW,2010-07-23 12:00,ZGOW 231200Z AUTO 09002KT 11SM 27/25 A2980 RMK SLP092 T02730249 52013 IEM_DS3505
ZGOW,2010-07-23 13:00,ZGOW 231300Z AUTO 05004KT 7SM 26/24 A2983 RMK T02600240 IEM_DS3505
ZGOW,2010-07-23 14:00,ZGOW 231400Z AUTO 04004KT 7SM 26/24 A2983 RMK T02600240 IEM_DS3505
ZGOW,2010-07-23 15:00,ZGOW 231500Z AUTO 07002KT 11SM 27/24 A2983 RMK SLP096 T02660237 52004 IEM_DS3505
ZGOW,2010-07-23 16:00,ZGOW 231600Z AUTO 02004KT 7SM 26/23 A2983 RMK T02600230 IEM_DS3505
ZGOW,2010-07-23 17:00,ZGOW 231700Z AUTO 05004KT 7SM 26/23 A2983 RMK T02600230 IEM_DS3505
ZGOW,2010-07-23 18:00,ZGOW 231800Z AUTO 09002KT 11SM 26/24 A2980 RMK SLP092 T02550237 57004 IEM_DS3505
ZGOW,2010-07-23 19:00,ZGOW 231900Z AUTO 00000KT 6SM 25/23 A2980 RMK T02500230 IEM_DS3505
ZGOW,2010-07-23 20:00,ZGOW 232000Z AUTO 32002KT 6SM 25/23 A2980 RMK T02500230 IEM_DS3505
ZGOW,2010-07-23 21:00,ZGOW 232100Z AUTO 09002KT 9SM 26/24 A2977 RMK 70026 SLP083 T02550241 57009 IEM_DS3505
ZGOW,2010-07-23 22:00,ZGOW 232200Z AUTO 32004KT 7SM 25/24 A2980 RMK T02500240 IEM_DS3505
ZGOW,2010-07-23 23:00,ZGOW 232300Z AUTO 32004KT 7SM 26/24 A2980 RMK T02600240 IEM_DS3505
ZGOW,2010-07-24 00:00,ZGOW 240000Z AUTO 07002KT 11SM 27/24 A2983 RMK 70009 SLP096 T02710240 52013 IEM_DS3505
ZGOW,2010-07-24 01:00,ZGOW 240100Z AUTO 35002KT 7SM 29/24 A2980 RMK T02900240 IEM_DS3505
ZGOW,2010-07-24 02:00,ZGOW 240200Z AUTO 08006KT 7SM 30/24 A2980 RMK T03000240 IEM_DS3505
ZGOW,2010-07-24 03:00,ZGOW 240300Z AUTO 27002KT 11SM 30/24 A2980 RMK SLP087 T03030235 57009 IEM_DS3505
ZGOW,2010-07-24 04:00,ZGOW 240400Z AUTO 12004KT 7SM 32/24 A2980 RMK T03200240 IEM_DS3505
ZGOW,2010-07-24 05:00,ZGOW 240500Z AUTO 12006KT 7SM 32/24 A2977 RMK T03200240 IEM_DS3505
ZGOW,2010-07-24 06:00,ZGOW 240600Z AUTO 16004KT 11SM 32/24 A2974 RMK SLP071 T03250243 57016 IEM_DS3505
ZGOW,2010-07-24 07:00,ZGOW 240700Z AUTO 14010KT 7SM 30/25 A2974 RMK T03000250 IEM_DS3505
ZGOW,2010-07-24 08:00,ZGOW 240800Z AUTO 14010KT 7SM 30/24 A2971 RMK T03000240 IEM_DS3505
ZGOW,2010-07-24 09:00,ZGOW 240900Z AUTO 09006KT 9SM 30/24 A2971 RMK SLP062 T02980240 57009 IEM_DS3505
ZGOW,2010-07-24 10:00,ZGOW 241000Z AUTO 14006KT 7SM 29/25 A2974 RMK T02900250 IEM_DS3505
ZGOW,2010-07-24 11:00,ZGOW 241100Z AUTO 14004KT 7SM 28/25 A2974 RMK T02800250 IEM_DS3505
ZGOW,2010-07-24 12:00,ZGOW 241200Z AUTO 16002KT 9SM 28/25 A2977 RMK SLP082 T02830251 52020 IEM_DS3505
ZGOW,2010-07-24 13:00,ZGOW 241300Z AUTO 16002KT 7SM 28/25 A2980 RMK T02800250 IEM_DS3505
ZGOW,2010-07-24 14:00,ZGOW 241400Z AUTO 16002KT 7SM 28/25 A2980 RMK T02800250 IEM_DS3505
ZGOW,2010-07-24 15:00,ZGOW 241500Z AUTO 00000KT 9SM 28/25 A2980 RMK SLP086 T02750253 52004 IEM_DS3505
ZGOW,2010-07-24 16:00,ZGOW 241600Z AUTO 00000KT 7SM 27/25 A2980 RMK T02700250 IEM_DS3505
ZGOW,2010-07-24 17:00,ZGOW 241700Z AUTO 00000KT 4SM 27/25 A2977 RMK T02700250 IEM_DS3505
ZGOW,2010-07-24 18:00,ZGOW 241800Z AUTO 00000KT 6SM 27/25 A2974 RMK SLP072 T02660254 57014 IEM_DS3505
ZGOW,2010-07-24 19:00,ZGOW 241900Z AUTO 00000KT 2 1/2SM 27/26 A2974 RMK T02700260 IEM_DS3505
ZGOW,2010-07-24 21:00,ZGOW 242100Z AUTO 00000KT 2 1/2SM 26/26 A2974 RMK SLP067 T02650255 57005 IEM_DS3505
ZGOW,2010-07-24 22:00,ZGOW 242200Z AUTO 06004KT 2SM 27/26 A2977 RMK T02700260 IEM_DS3505
ZGOW,2010-07-24 23:00,ZGOW 242300Z AUTO 05004KT 2 1/2SM 27/25 A2977 RMK T02700250 IEM_DS3505
ZGOW,2010-07-25 00:00,ZGOW 250000Z AUTO 00000KT 3SM 28/26 A2977 RMK SLP082 T02790257 52015 IEM_DS3505
ZGOW,2010-07-25 01:00,ZGOW 250100Z AUTO 03002KT 3SM 30/24 A2977 RMK T03000240 IEM_DS3505
ZGOW,2010-07-25 02:00,ZGOW 250200Z AUTO 06006KT 4SM 31/24 A2977 RMK T03100240 IEM_DS3505
ZGOW,2010-07-25 03:00,ZGOW 250300Z AUTO 16004KT 5SM 32/25 A2977 RMK SLP078 T03170253 57004 IEM_DS3505
ZGOW,2010-07-25 04:00,ZGOW 250400Z AUTO 12006KT 5SM 33/24 A2977 RMK T03300240 IEM_DS3505
ZGOW,2010-07-25 05:00,ZGOW 250500Z AUTO 11008KT 7SM 32/25 A2974 RMK T03200250 IEM_DS3505
ZGOW,2010-07-25 06:00,ZGOW 250600Z AUTO 11008KT 9SM 32/24 A2974 RMK SLP067 T03230238 57011 IEM_DS3505
ZGOW,2010-07-25 07:00,ZGOW 250700Z AUTO 14010KT 7SM 31/25 A2971 RMK T03100250 IEM_DS3505
ZGOW,2010-07-25 08:00,ZGOW 250800Z AUTO 13010KT 7SM 30/25 A2971 RMK T03000250 IEM_DS3505
ZGOW,2010-07-25 09:00,ZGOW 250900Z AUTO 11006KT 11SM 30/25 A2971 RMK SLP057 T02970248 57010 IEM_DS3505
ZGOW,2010-07-25 10:00,ZGOW 251000Z AUTO 13006KT 7SM 29/25 A2971 RMK T02900250 IEM_DS3505
ZGOW,2010-07-25 11:00,ZGOW 251100Z AUTO 13004KT 7SM 29/25 A2974 RMK T02900250 IEM_DS3505
ZGOW,2010-07-25 12:00,ZGOW 251200Z AUTO 09004KT 9SM 29/25 A2977 RMK SLP076 T02870251 52019 IEM_DS3505
ZGOW,2010-07-25 13:00,ZGOW 251300Z AUTO 08004KT 7SM 28/25 A2980 RMK T02800250 IEM_DS3505
ZGOW,2010-07-25 14:00,ZGOW 251400Z AUTO 08002KT 7SM 28/25 A2980 RMK T02800250 IEM_DS3505
ZGOW,2010-07-25 15:00,ZGOW 251500Z AUTO 14002KT 9SM 28/26 A2983 RMK SLP095 T02840256 52019 IEM_DS3505
ZGOW,2010-07-25 16:00,ZGOW 251600Z AUTO 09002KT 4SM 28/26 A2980 RMK T02800260 IEM_DS3505
ZGOW,2010-07-25 17:00,ZGOW 251700Z AUTO 00000KT 4SM 28/26 A2980 RMK T02800260 IEM_DS3505
ZGOW,2010-07-25 18:00,ZGOW 251800Z AUTO 00000KT 10SM 27/25 A2977 RMK SLP078 T02730253 57017 IEM_DS3505
ZGOW,2010-07-25 20:00,ZGOW 252000Z AUTO 36002KT 3SM 27/26 A2974 RMK T02700260 IEM_DS3505
ZGOW,2010-07-25 21:00,ZGOW 252100Z AUTO 00000KT 10SM 27/26 A2974 RMK SLP073 T02740256 57005 IEM_DS3505
ZGOW,2010-07-25 22:00,ZGOW 252200Z AUTO 33002KT 2 1/2SM 27/25 A2974 RMK T02700250 IEM_DS3505
ZGOW,2010-07-25 23:00,ZGOW 252300Z AUTO 00000KT 2 1/2SM 28/25 A2977 RMK T02800250 IEM_DS3505
ZGOW,2010-07-26 00:00,ZGOW 260000Z AUTO 00000KT 9SM 30/25 A2977 RMK SLP077 T02950253 52004 IEM_DS3505
ZGOW,2010-07-26 01:00,ZGOW 260100Z AUTO 04002KT 4SM 30/25 A2977 RMK T03000250 IEM_DS3505
ZGOW,2010-07-26 02:00,ZGOW 260200Z AUTO 11002KT 4SM 32/24 A2977 RMK T03200240 IEM_DS3505
ZGOW,2010-07-26 03:00,ZGOW 260300Z AUTO 14004KT 9SM 31/26 A2977 RMK SLP077 T03110255 54000 IEM_DS3505
ZGOW,2010-07-26 04:00,ZGOW 260400Z AUTO 15008KT 7SM 32/25 A2974 RMK T03200250 IEM_DS3505
ZGOW,2010-07-26 05:00,ZGOW 260500Z AUTO 14010KT 7SM 32/25 A2974 RMK T03200250 IEM_DS3505
ZGOW,2010-07-26 06:00,ZGOW 260600Z AUTO 14008KT 12SM 32/25 A2971 RMK SLP065 T03170253 57012 IEM_DS3505
ZGOW,2010-07-26 07:00,ZGOW 260700Z AUTO 17010KT 7SM 31/25 A2971 RMK T03100250 IEM_DS3505
ZGOW,2010-07-26 08:00,ZGOW 260800Z AUTO 18010KT 7SM 30/25 A2971 RMK T03000250 IEM_DS3505
ZGOW,2010-07-26 09:00,ZGOW 260900Z AUTO 14006KT 11SM 29/25 A2971 RMK SLP059 T02940252 57006 IEM_DS3505
ZGOW,2010-07-26 10:00,ZGOW 261000Z AUTO 18004KT 7SM 29/25 A2971 RMK T02900250 IEM_DS3505
ZGOW,2010-07-26 11:00,ZGOW 261100Z AUTO 19008KT 7SM 29/25 A2974 RMK T02900250 IEM_DS3505
ZGOW,2010-07-26 12:00,ZGOW 261200Z AUTO 20004KT 9SM 28/26 A2977 RMK 60001 SLP076 T02820258 52017 IEM_DS3505
ZGOW,2010-07-26 13:00,ZGOW 261300Z AUTO 22004KT 7SM 28/25 A2977 RMK T02800250 IEM_DS3505
ZGOW,2010-07-26 14:00,ZGOW 261400Z AUTO 24002KT 7SM 28/26 A2977 RMK T02800260 IEM_DS3505
ZGOW,2010-07-26 15:00,ZGOW 261500Z AUTO 25004KT 9SM 28/25 A2977 RMK SLP082 T02810253 52006 IEM_DS3505
ZGOW,2010-07-26 16:00,ZGOW 261600Z AUTO 00000KT 3SM 28/26 A2977 RMK T02800260 IEM_DS3505
ZGOW,2010-07-26 17:00,ZGOW 261700Z AUTO 32002KT 3SM 27/26 A2974 RMK T02700260 IEM_DS3505
ZGOW,2010-07-26 18:00,ZGOW 261800Z AUTO 22004KT 9SM 27/25 A2971 RMK 60002 SLP063 T02700246 57019 IEM_DS3505
ZGOW,2010-07-26 19:00,ZGOW 261900Z AUTO 26002KT 6SM 27/25 A2971 RMK T02700250 IEM_DS3505
ZGOW,2010-07-26 20:00,ZGOW 262000Z AUTO 24002KT 7SM 27/25 A2971 RMK T02700250 IEM_DS3505
ZGOW,2010-07-26 21:00,ZGOW 262100Z AUTO 27002KT 9SM 27/25 A2971 RMK 70003 SLP065 T02710251 52002 IEM_DS3505
ZGOW,2010-07-26 22:00,ZGOW 262200Z AUTO 31002KT 3SM 27/25 A2974 RMK T02700250 IEM_DS3505
ZGOW,2010-07-26 23:00,ZGOW 262300Z AUTO 24002KT 3SM 28/25 A2974 RMK T02800250 IEM_DS3505
ZGOW,2010-07-27 00:00,ZGOW 270000Z AUTO 22004KT 7SM 27/25 A2974 RMK 70003 SLP072 T02740250 52007 IEM_DS3505
ZGOW,2010-07-27 01:00,ZGOW 270100Z AUTO 22004KT 7SM 28/25 A2977 RMK T02800250 IEM_DS3505
ZGOW,2010-07-27 02:00,ZGOW 270200Z AUTO 17006KT 7SM 27/25 A2977 RMK T02700250 IEM_DS3505
ZGOW,2010-07-27 03:00,ZGOW 270300Z AUTO 22004KT 7SM 28/25 A2977 RMK SLP084 T02750253 52012 IEM_DS3505
ZGOW,2010-07-27 04:00,ZGOW 270400Z AUTO 19004KT 7SM 27/25 A2977 RMK T02700250 IEM_DS3505
ZGOW,2010-07-27 05:00,ZGOW 270500Z AUTO 21006KT 7SM 29/25 A2977 RMK T02900250 IEM_DS3505
ZGOW,2010-07-27 06:00,ZGOW 270600Z AUTO 22006KT 14SM 28/25 A2977 RMK 60000 SLP078 T02780246 57006 IEM_DS3505
ZGOW,2010-07-27 07:00,ZGOW 270700Z AUTO 22010KT 4SM 27/25 A2977 RMK T02700250 IEM_DS3505
ZGOW,2010-07-27 08:00,ZGOW 270800Z AUTO 25010KT 7SM 27/24 A2977 RMK T02700240 IEM_DS3505
ZGOW,2010-07-27 09:00,ZGOW 270900Z AUTO 25002KT 10SM 27/25 A2977 RMK SLP077 T02660250 57001 IEM_DS3505
ZGOW,2010-07-27 10:00,ZGOW 271000Z AUTO 25004KT 7SM 26/25 A2977 RMK T02600250 IEM_DS3505
ZGOW,2010-07-27 11:00,ZGOW 271100Z AUTO 23006KT 7SM 26/25 A2980 RMK T02600250 IEM_DS3505
ZGOW,2010-07-27 12:00,ZGOW 271200Z AUTO 25006KT 7SM 26/24 A2980 RMK 60012 SLP085 T02610243 52008 IEM_DS3505
ZGOW,2010-07-27 13:00,ZGOW 271300Z AUTO 27004KT 7SM 26/24 A2980 RMK T02600240 IEM_DS3505
ZGOW,2010-07-27 14:00,ZGOW 271400Z AUTO 25002KT 7SM 26/24 A2980 RMK T02600240 IEM_DS3505
ZGOW,2010-07-27 15:00,ZGOW 271500Z AUTO 29002KT 9SM 26/24 A2980 RMK SLP093 T02620244 52008 IEM_DS3505
ZGOW,2010-07-27 16:00,ZGOW 271600Z AUTO 28002KT 7SM 26/24 A2980 RMK T02600240 IEM_DS3505
ZGOW,2010-07-27 17:00,ZGOW 271700Z AUTO 28002KT 4SM 26/25 A2980 RMK T02600250 IEM_DS3505
ZGOW,2010-07-27 18:00,ZGOW 271800Z AUTO 00000KT 5SM 26/25 A2977 RMK 60000 SLP079 T02610247 57014 IEM_DS3505
ZGOW,2010-07-27 19:00,ZGOW 271900Z AUTO 28002KT 2 1/2SM 26/25 A2977 RMK T02600250 IEM_DS3505
ZGOW,2010-07-27 20:00,ZGOW 272000Z AUTO 25004KT 4SM 26/24 A2974 RMK T02600240 IEM_DS3505
ZGOW,2010-07-27 21:00,ZGOW 272100Z AUTO 22002KT 5SM 25/24 A2977 RMK 70014 SLP076 T02540245 57003 IEM_DS3505
ZGOW,2010-07-27 22:00,ZGOW 272200Z AUTO 35002KT 4SM 26/24 A2977 RMK T02600240 IEM_DS3505
ZGOW,2010-07-28 00:00,ZGOW 280000Z AUTO 00000KT 7SM 27/24 A2980 RMK 70014 SLP088 T02740245 52012 IEM_DS3505
ZGOW,2010-07-28 01:00,ZGOW 280100Z AUTO 23002KT 4SM 28/25 A2980 RMK T02800250 IEM_DS3505
ZGOW,2010-07-28 02:00,ZGOW 280200Z AUTO 20004KT 7SM 28/25 A2983 RMK T02800250 IEM_DS3505
ZGOW,2010-07-28 03:00,ZGOW 280300Z AUTO 20004KT 7SM 28/25 A2980 RMK SLP095 T02820246 52007 IEM_DS3505
ZGOW,2010-07-28 04:00,ZGOW 280400Z AUTO 24008KT 7SM 29/25 A2980 RMK T02900250 IEM_DS3505
ZGOW,2010-07-28 05:00,ZGOW 280500Z AUTO 23008KT 7SM 30/24 A2977 RMK T03000240 IEM_DS3505
ZGOW,2010-07-28 06:00,ZGOW 280600Z AUTO 25008KT 9SM 29/25 A2977 RMK SLP080 T02940254 57015 IEM_DS3505
ZGOW,2010-07-28 07:00,ZGOW 280700Z AUTO 26008KT 7SM 29/24 A2977 RMK T02900240 IEM_DS3505
ZGOW,2010-07-28 08:00,ZGOW 280800Z AUTO 24008KT 7SM 29/24 A2974 RMK T02900240 IEM_DS3505
ZGOW,2010-07-28 09:00,ZGOW 280900Z AUTO 20004KT 9SM 28/24 A2974 RMK SLP070 T02830243 57010 IEM_DS3505
ZGOW,2010-07-28 10:00,ZGOW 281000Z AUTO 24010KT 7SM 28/23 A2977 RMK T02800230 IEM_DS3505
ZGOW,2010-07-28 11:00,ZGOW 281100Z AUTO 24008KT 7SM 28/23 A2974 RMK T02800230 IEM_DS3505
ZGOW,2010-07-28 12:00,ZGOW 281200Z AUTO 25006KT 11SM 27/24 A2977 RMK SLP076 T02680241 52006 IEM_DS3505
ZGOW,2010-07-28 13:00,ZGOW 281300Z AUTO 24008KT 7SM 27/24 A2977 RMK T02700240 IEM_DS3505
ZGOW,2010-07-28 14:00,ZGOW 281400Z AUTO 25006KT 7SM 27/24 A2977 RMK T02700240 IEM_DS3505
ZGOW,2010-07-28 15:00,ZGOW 281500Z AUTO 25006KT 11SM 26/24 A2977 RMK SLP079 T02650236 52003 IEM_DS3505
ZGOW,2010-07-28 16:00,ZGOW 281600Z AUTO 24006KT 7SM 27/23 A2974 RMK T02700230 IEM_DS3505
ZGOW,2010-07-28 17:00,ZGOW 281700Z AUTO 27004KT 7SM 26/23 A2974 RMK T02600230 IEM_DS3505
ZGOW,2010-07-28 18:00,ZGOW 281800Z AUTO 29002KT 11SM 26/24 A2971 RMK SLP060 T02590238 57019 IEM_DS3505
ZGOW,2010-07-28 19:00,ZGOW 281900Z AUTO 28002KT 6SM 26/24 A2971 RMK T02600240 IEM_DS3505
ZGOW,2010-07-28 20:00,ZGOW 282000Z AUTO 25002KT 7SM 26/24 A2971 RMK T02600240 IEM_DS3505
ZGOW,2010-07-28 21:00,ZGOW 282100Z AUTO 00000KT 11SM 25/24 A2971 RMK SLP065 T02480238 52005 IEM_DS3505
ZGOW,2010-07-28 22:00,ZGOW 282200Z AUTO 00000KT 4SM 25/24 A2974 RMK T02500240 IEM_DS3505
ZGOW,2010-07-28 23:00,ZGOW 282300Z AUTO 31002KT 4SM 27/24 A2974 RMK T02700240 IEM_DS3505
ZGOW,2010-07-29 00:00,ZGOW 290000Z AUTO 00000KT 9SM 28/24 A2974 RMK SLP073 T02800238 52008 IEM_DS3505
ZGOW,2010-07-29 01:00,ZGOW 290100Z AUTO 23002KT 4SM 29/24 A2977 RMK T02900240 IEM_DS3505
ZGOW,2010-07-29 02:00,ZGOW 290200Z AUTO 18004KT 5SM 30/25 A2974 RMK T03000250 IEM_DS3505
ZGOW,2010-07-29 03:00,ZGOW 290300Z AUTO 22004KT 11SM 29/25 A2974 RMK SLP074 T02920252 52001 IEM_DS3505
ZGOW,2010-07-29 04:00,ZGOW 290400Z AUTO 24006KT 7SM 31/26 A2974 RMK T03100260 IEM_DS3505
ZGOW,2010-07-29 05:00,ZGOW 290500Z AUTO 18006KT 7SM 32/26 A2971 RMK T03200260 IEM_DS3505
ZGOW,2010-07-29 06:00,ZGOW 290600Z AUTO 18004KT 11SM 30/26 A2968 RMK SLP051 T02980258 57023 IEM_DS3505
ZGOW,2010-07-29 07:00,ZGOW 290700Z AUTO 27004KT 3SM 25/24 A2968 RMK T02500240 IEM_DS3505
ZGOW,2010-07-29 08:00,ZGOW 290800Z AUTO 23008KT 7SM 26/25 A2968 RMK T02600250 IEM_DS3505
ZGOW,2010-07-29 09:00,ZGOW 290900Z AUTO 22004KT 12SM 26/24 A2971 RMK SLP059 T02600240 52008 IEM_DS3505
ZGOW,2010-07-29 10:00,ZGOW 291000Z AUTO 24004KT 7SM 27/25 A2968 RMK T02700250 IEM_DS3505
ZGOW,2010-07-29 11:00,ZGOW 291100Z AUTO 27002KT 7SM 26/24 A2971 RMK T02600240 IEM_DS3505
ZGOW,2010-07-29 12:00,ZGOW 291200Z AUTO 00000KT 9SM 25/24 A2974 RMK 60087 SLP070 T02530243 52011 IEM_DS3505
ZGOW,2010-07-29 13:00,ZGOW 291300Z AUTO 24004KT 4SM 26/24 A2974 RMK T02600240 IEM_DS3505
ZGOW,2010-07-29 14:00,ZGOW 291400Z AUTO 21002KT 4SM 26/23 A2974 RMK T02600230 IEM_DS3505
ZGOW,2010-07-29 15:00,ZGOW 291500Z AUTO 00000KT 9SM 25/24 A2974 RMK SLP066 T02520243 57004 IEM_DS3505
ZGOW,2010-07-29 16:00,ZGOW 291600Z AUTO 28002KT 3SM 26/24 A2971 RMK T02600240 IEM_DS3505
ZGOW,2010-07-29 17:00,ZGOW 291700Z AUTO 22002KT 2SM 26/24 A2968 RMK T02600240 IEM_DS3505
ZGOW,2010-07-29 18:00,ZGOW 291800Z AUTO 22004KT 6SM 25/24 A2968 RMK 60000 SLP052 T02520242 57014 IEM_DS3505
ZGOW,2010-07-29 19:00,ZGOW 291900Z AUTO 27002KT 3SM 26/24 A2968 RMK T02600240 IEM_DS3505
ZGOW,2010-07-29 20:00,ZGOW 292000Z AUTO 27004KT 3SM 26/24 A2968 RMK T02600240 IEM_DS3505
ZGOW,2010-07-29 21:00,ZGOW 292100Z AUTO 27004KT 5SM 26/25 A2971 RMK 70089 SLP057 T02560246 52005 IEM_DS3505
ZGOW,2010-07-29 22:00,ZGOW 292200Z AUTO 28002KT 2SM 25/24 A2974 RMK T02500240 IEM_DS3505
ZGOW,2010-07-29 23:00,ZGOW 292300Z AUTO 00000KT 2SM 26/25 A2974 RMK T02600250 IEM_DS3505
ZGOW,2010-07-30 00:00,ZGOW 300000Z AUTO 00000KT 5SM 27/25 A2977 RMK 70089 SLP079 T02660246 52022 IEM_DS3505
ZGOW,2010-07-30 01:00,ZGOW 300100Z AUTO 29002KT 3SM 29/25 A2977 RMK T02900250 IEM_DS3505
ZGOW,2010-07-30 02:00,ZGOW 300200Z AUTO 24004KT 4SM 30/25 A2977 RMK T03000250 IEM_DS3505
ZGOW,2010-07-30 03:00,ZGOW 300300Z AUTO 25004KT 9SM 30/25 A2977 RMK SLP079 T02980253 54000 IEM_DS3505
ZGOW,2010-07-30 04:00,ZGOW 300400Z AUTO 25008KT 7SM 32/26 A2974 RMK T03200260 IEM_DS3505
ZGOW,2010-07-30 05:00,ZGOW 300500Z AUTO 26006KT 7SM 32/25 A2974 RMK T03200250 IEM_DS3505
ZGOW,2010-07-30 06:00,ZGOW 300600Z AUTO 14004KT 9SM 31/27 A2971 RMK SLP065 T03130266 57014 IEM_DS3505
ZGOW,2010-07-30 07:00,ZGOW 300700Z AUTO 17010KT 7SM 31/26 A2968 RMK T03100260 IEM_DS3505
ZGOW,2010-07-30 08:00,ZGOW 300800Z AUTO 20010KT 7SM 31/25 A2971 RMK T03100250 IEM_DS3505
ZGOW,2010-07-30 09:00,ZGOW 300900Z AUTO 27004KT 10SM 27/23 A2971 RMK SLP061 T02720228 57004 IEM_DS3505
ZGOW,2010-07-30 10:00,ZGOW 301000Z AUTO 00000KT 7SM 27/23 A2974 RMK T02700230 IEM_DS3505
ZGOW,2010-07-30 11:00,ZGOW 301100Z AUTO 03002KT 7SM 27/24 A2974 RMK T02700240 IEM_DS3505
ZGOW,2010-07-30 12:00,ZGOW 301200Z AUTO 00000KT 9SM 27/24 A2974 RMK 60000 SLP070 T02710240 52009 IEM_DS3505
ZGOW,2010-07-30 13:00,ZGOW 301300Z AUTO 05002KT 7SM 26/24 A2977 RMK T02600240 IEM_DS3505
ZGOW,2010-07-30 14:00,ZGOW 301400Z AUTO 10002KT 4SM 26/25 A2980 RMK T02600250 IEM_DS3505
ZGOW,2010-07-30 15:00,ZGOW 301500Z AUTO 00000KT 6SM 27/25 A2977 RMK SLP082 T02700246 52012 IEM_DS3505
ZGOW,2010-07-30 16:00,ZGOW 301600Z AUTO 00000KT 4SM 26/25 A2977 RMK T02600250 IEM_DS3505
ZGOW,2010-07-30 17:00,ZGOW 301700Z AUTO 00000KT 3SM 26/25 A2977 RMK T02600250 IEM_DS3505
ZGOW,2010-07-30 18:00,ZGOW 301800Z AUTO 00000KT 6SM 26/25 A2977 RMK SLP071 T02650251 57011 IEM_DS3505
ZGOW,2010-07-30 21:00,ZGOW 302100Z AUTO 07002KT 6SM 26/25 A2977 RMK 70001 SLP078 T02590247 52007 IEM_DS3505
ZGOW,2010-07-30 22:00,ZGOW 302200Z AUTO 00000KT 1SM 26/25 A2977 RMK T02600250 IEM_DS3505
ZGOW,2010-07-30 23:00,ZGOW 302300Z AUTO 05004KT 3/8SM 27/26 A2980 RMK T02700260 IEM_DS3505
ZGOW,2010-07-31 00:00,ZGOW 310000Z AUTO 07002KT 6SM 29/26 A2980 RMK 70001 SLP088 T02880258 52010 IEM_DS3505
ZGOW,2010-07-31 01:00,ZGOW 310100Z AUTO 13002KT 2SM 29/26 A2980 RMK T02900260 IEM_DS3505
ZGOW,2010-07-31 02:00,ZGOW 310200Z AUTO 10002KT 4SM 31/26 A2980 RMK T03100260 IEM_DS3505
ZGOW,2010-07-31 03:00,ZGOW 310300Z AUTO 18002KT 8SM 31/26 A2980 RMK SLP090 T03140255 52002 IEM_DS3505
ZGOW,2010-07-31 04:00,ZGOW 310400Z AUTO 14008KT 7SM 31/27 A2980 RMK T03100270 IEM_DS3505
ZGOW,2010-07-31 05:00,ZGOW 310500Z AUTO 15008KT 7SM 31/27 A2977 RMK T03100270 IEM_DS3505
ZGOW,2010-07-31 06:00,ZGOW 310600Z AUTO 18006KT 11SM 32/27 A2977 RMK SLP079 T03200268 57011 IEM_DS3505
ZGOW,2010-07-31 07:00,ZGOW 310700Z AUTO 15010KT 7SM 32/27 A2977 RMK T03200270 IEM_DS3505
ZGOW,2010-07-31 08:00,ZGOW 310800Z AUTO 15010KT 7SM 31/26 A2977 RMK T03100260 IEM_DS3505
ZGOW,2010-07-31 09:00,ZGOW 310900Z AUTO 16008KT 11SM 31/26 A2974 RMK SLP073 T03100256 57006 IEM_DS3505
ZGOW,2010-07-31 10:00,ZGOW 311000Z AUTO 16010KT 7SM 30/26 A2977 RMK T03000260 IEM_DS3505
ZGOW,2010-07-31 11:00,ZGOW 311100Z AUTO 17006KT 7SM 29/26 A2980 RMK T02900260 IEM_DS3505
ZGOW,2010-07-31 12:00,ZGOW 311200Z AUTO 16004KT 9SM 29/26 A2983 RMK SLP096 T02880264 52023 IEM_DS3505
ZGOW,2010-07-31 13:00,ZGOW 311300Z AUTO 19006KT 7SM 29/26 A2985 RMK T02900260 IEM_DS3505
ZGOW,2010-07-31 14:00,ZGOW 311400Z AUTO 20002KT 7SM 29/26 A2985 RMK T02900260 IEM_DS3505
ZGOW,2010-07-31 15:00,ZGOW 311500Z AUTO 18004KT 9SM 28/26 A2985 RMK SLP107 T02830263 52011 IEM_DS3505
ZGOW,2010-07-31 16:00,ZGOW 311600Z AUTO 15004KT 7SM 28/26 A2985 RMK T02800260 IEM_DS3505
ZGOW,2010-07-31 17:00,ZGOW 311700Z AUTO 14002KT 7SM 27/26 A2983 RMK T02700260 IEM_DS3505
ZGOW,2010-07-31 18:00,ZGOW 311800Z AUTO 18002KT 9SM 28/26 A2983 RMK SLP096 T02760262 57011 IEM_DS3505
ZGOW,2010-07-31 19:00,ZGOW 311900Z AUTO 13004KT 2 1/2SM 27/26 A2983 RMK T02700260 IEM_DS3505
ZGOW,2010-07-31 20:00,ZGOW 312000Z AUTO 11002KT 2 1/2SM 27/26 A2983 RMK T02700260 IEM_DS3505
ZGOW,2010-07-31 21:00,ZGOW 312100Z AUTO 00000KT 7SM 27/26 A2983 RMK SLP103 T02710260 52007 IEM_DS3505
ZGOW,2010-07-31 22:00,ZGOW 312200Z AUTO 06002KT 3/8SM 26/26 A2985 RMK T02600260 IEM_DS3505
ZGOW,2010-07-31 23:00,ZGOW 312300Z AUTO 09002KT 1/2SM 27/26 A2985 RMK T02700260 IEM_DS3505
ZGOW,2010-08-01 00:00,ZGOW 010000Z AUTO 00000KT 11SM 29/26 A2985 RMK SLP113 T02880262 52010 IEM_DS3505
ZGOW,2010-08-01 01:00,ZGOW 010100Z AUTO 11004KT 7SM 31/26 A2985 RMK T03100260 IEM_DS3505
ZGOW,2010-08-01 02:00,ZGOW 010200Z AUTO 21002KT 7SM 31/25 A2988 RMK T03100250 IEM_DS3505
ZGOW,2010-08-01 03:00,ZGOW 010300Z AUTO 18002KT 14SM 31/25 A2988 RMK SLP117 T03090253 52004 IEM_DS3505
ZGOW,2010-08-01 04:00,ZGOW 010400Z AUTO 12006KT 7SM 32/25 A2985 RMK T03200250 IEM_DS3505
ZGOW,2010-08-01 05:00,ZGOW 010500Z AUTO 11006KT 7SM 32/26 A2985 RMK T03200260 IEM_DS3505
ZGOW,2010-08-01 06:00,ZGOW 010600Z AUTO 11004KT 19SM 33/24 A2983 RMK SLP103 T03300245 57014 IEM_DS3505
ZGOW,2010-08-01 07:00,ZGOW 010700Z AUTO 15008KT 7SM 32/24 A2983 RMK T03200240 IEM_DS3505
ZGOW,2010-08-01 08:00,ZGOW 010800Z AUTO 15010KT 7SM 32/24 A2980 RMK T03200240 IEM_DS3505
ZGOW,2010-08-01 09:00,ZGOW 010900Z AUTO 16006KT 19SM 32/23 A2980 RMK SLP092 T03160234 57011 IEM_DS3505
ZGOW,2010-08-01 10:00,ZGOW 011000Z AUTO 16008KT 7SM 30/25 A2983 RMK T03000250 IEM_DS3505
ZGOW,2010-08-01 11:00,ZGOW 011100Z AUTO 16008KT 7SM 28/25 A2985 RMK T02800250 IEM_DS3505
ZGOW,2010-08-01 12:00,ZGOW 011200Z AUTO 11004KT 16SM 29/26 A2985 RMK SLP112 T02890257 52020 IEM_DS3505
ZGOW,2010-08-01 13:00,ZGOW 011300Z AUTO 11002KT 6SM 28/26 A2988 RMK T02800260 IEM_DS3505
ZGOW,2010-08-01 14:00,ZGOW 011400Z AUTO 12002KT 6SM 28/26 A2988 RMK T02800260 IEM_DS3505
ZGOW,2010-08-01 15:00,ZGOW 011500Z AUTO 00000KT 16SM 28/26 A2991 RMK SLP125 T02820262 52013 IEM_DS3505
ZGOW,2010-08-01 16:00,ZGOW 011600Z AUTO 09002KT 7SM 28/26 A2988 RMK T02800260 IEM_DS3505
ZGOW,2010-08-01 17:00,ZGOW 011700Z AUTO 08002KT 7SM 27/26 A2988 RMK T02700260 IEM_DS3505
ZGOW,2010-08-01 18:00,ZGOW 011800Z AUTO 00000KT 10SM 28/26 A2985 RMK SLP113 T02810263 57012 IEM_DS3505
ZGOW,2010-08-01 21:00,ZGOW 012100Z AUTO 00000KT 9SM 28/26 A2985 RMK SLP111 T02750261 57002 IEM_DS3505
ZGOW,2010-08-01 22:00,ZGOW 012200Z AUTO 34002KT 3SM 27/26 A2985 RMK T02700260 IEM_DS3505
ZGOW,2010-08-01 23:00,ZGOW 012300Z AUTO 34004KT 4SM 28/26 A2985 RMK T02800260 IEM_DS3505
ZGOW,2010-08-02 00:00,ZGOW 020000Z AUTO 00000KT 7SM 30/26 A2985 RMK SLP112 T02970257 52001 IEM_DS3505
ZGOW,2010-08-02 01:00,ZGOW 020100Z AUTO 31004KT 7SM 31/25 A2985 RMK T03100250 IEM_DS3505
ZGOW,2010-08-02 02:00,ZGOW 020200Z AUTO 01002KT 7SM 32/26 A2985 RMK T03200260 IEM_DS3505
ZGOW,2010-08-02 03:00,ZGOW 020300Z AUTO 27006KT 11SM 32/25 A2985 RMK SLP107 T03210249 57005 IEM_DS3505
ZGOW,2010-08-02 04:00,ZGOW 020400Z AUTO 17004KT 7SM 33/25 A2983 RMK T03300250 IEM_DS3505
ZGOW,2010-08-02 05:00,ZGOW 020500Z AUTO 17008KT 4SM 33/26 A2983 RMK T03300260 IEM_DS3505
ZGOW,2010-08-02 06:00,ZGOW 020600Z AUTO 18008KT 11SM 33/26 A2980 RMK SLP092 T03280261 57015 IEM_DS3505
ZGOW,2010-08-02 07:00,ZGOW 020700Z AUTO 17010KT 7SM 33/26 A2980 RMK T03300260 IEM_DS3505
ZGOW,2010-08-02 08:00,ZGOW 020800Z AUTO 20012KT 6SM 33/25 A2977 RMK T03300250 IEM_DS3505
ZGOW,2010-08-02 09:00,ZGOW 020900Z AUTO 18006KT 11SM 32/25 A2977 RMK SLP076 T03240247 57016 IEM_DS3505
ZGOW,2010-08-02 10:00,ZGOW 021000Z AUTO 20010KT 7SM 31/25 A2977 RMK T03100250 IEM_DS3505
ZGOW,2010-08-02 11:00,ZGOW 021100Z AUTO 21008KT 7SM 30/25 A2980 RMK T03000250 IEM_DS3505
ZGOW,2010-08-02 12:00,ZGOW 021200Z AUTO 22008KT 9SM 30/25 A2980 RMK SLP093 T02990252 52017 IEM_DS3505
ZGOW,2010-08-02 13:00,ZGOW 021300Z AUTO 24006KT 6SM 30/25 A2983 RMK T03000250 IEM_DS3505
ZGOW,2010-08-02 14:00,ZGOW 021400Z AUTO 24006KT 6SM 30/25 A2983 RMK T03000250 IEM_DS3505
ZGOW,2010-08-02 15:00,ZGOW 021500Z AUTO 25004KT 9SM 29/25 A2980 RMK SLP094 T02890251 52001 IEM_DS3505
ZGOW,2010-08-02 16:00,ZGOW 021600Z AUTO 26004KT 6SM 29/25 A2980 RMK T02900250 IEM_DS3505
ZGOW,2010-08-02 17:00,ZGOW 021700Z AUTO 29002KT 6SM 28/25 A2977 RMK T02800250 IEM_DS3505
ZGOW,2010-08-02 18:00,ZGOW 021800Z AUTO 27004KT 7SM 28/24 A2974 RMK SLP071 T02810245 57023 IEM_DS3505
ZGOW,2010-08-02 19:00,ZGOW 021900Z AUTO 30002KT 6SM 28/25 A2974 RMK T02800250 IEM_DS3505
ZGOW,2010-08-02 20:00,ZGOW 022000Z AUTO 27002KT 6SM 28/25 A2974 RMK T02800250 IEM_DS3505
ZGOW,2010-08-02 21:00,ZGOW 022100Z AUTO 29002KT 6SM 27/25 A2974 RMK SLP068 T02730248 57003 IEM_DS3505
ZGOW,2010-08-02 22:00,ZGOW 022200Z AUTO 28002KT 6SM 27/25 A2974 RMK T02700250 IEM_DS3505
ZGOW,2010-08-02 23:00,ZGOW 022300Z AUTO 28002KT 6SM 28/25 A2974 RMK T02800250 IEM_DS3505
ZGOW,2010-08-03 00:00,ZGOW 030000Z AUTO 27004KT 9SM 29/25 A2974 RMK SLP074 T02900254 52006 IEM_DS3505
ZGOW,2010-08-03 01:00,ZGOW 030100Z AUTO 30004KT 4SM 31/26 A2977 RMK T03100260 IEM_DS3505
ZGOW,2010-08-03 02:00,ZGOW 030200Z AUTO 25004KT 5SM 32/26 A2974 RMK T03200260 IEM_DS3505
ZGOW,2010-08-03 03:00,ZGOW 030300Z AUTO 22004KT 12SM 33/25 A2974 RMK SLP071 T03270247 57003 IEM_DS3505
ZGOW,2010-08-03 04:00,ZGOW 030400Z AUTO 25006KT 7SM 34/25 A2971 RMK T03400250 IEM_DS3505
ZGOW,2010-08-03 05:00,ZGOW 030500Z AUTO 25004KT 7SM 35/23 A2971 RMK T03500230 IEM_DS3505
ZGOW,2010-08-03 06:00,ZGOW 030600Z AUTO 25006KT 12SM 36/24 A2968 RMK SLP053 T03550238 57018 IEM_DS3505
ZGOW,2010-08-03 07:00,ZGOW 030700Z AUTO 17008KT 7SM 35/26 A2965 RMK T03500260 IEM_DS3505
ZGOW,2010-08-03 08:00,ZGOW 030800Z AUTO 16008KT 7SM 35/26 A2965 RMK T03500260 IEM_DS3505
ZGOW,2010-08-03 09:00,ZGOW 030900Z AUTO 16006G19KT 12SM 35/24 A2962 RMK SLP034 T03480241 57019 IEM_DS3505
ZGOW,2010-08-03 10:00,ZGOW 031000Z AUTO 19008KT 5SM 34/25 A2965 RMK T03400250 IEM_DS3505
ZGOW,2010-08-03 11:00,ZGOW 031100Z AUTO 19004KT 4SM 32/26 A2968 RMK T03200260 IEM_DS3505
ZGOW,2010-08-03 12:00,ZGOW 031200Z AUTO 20002KT 6SM 31/25 A2968 RMK SLP050 T03140253 52016 IEM_DS3505
ZGOW,2010-08-03 13:00,ZGOW 031300Z AUTO 00000KT 3SM 31/26 A2968 RMK T03100260 IEM_DS3505
ZGOW,2010-08-03 14:00,ZGOW 031400Z AUTO 04006KT 3SM 29/27 A2971 RMK T02900270 IEM_DS3505
ZGOW,2010-08-03 15:00,ZGOW 031500Z AUTO 07004KT 5SM 31/27 A2968 RMK SLP050 T03100269 54000 IEM_DS3505
ZGOW,2010-08-03 16:00,ZGOW 031600Z AUTO 09002KT 3SM 29/26 A2965 RMK T02900260 IEM_DS3505
ZGOW,2010-08-03 17:00,ZGOW 031700Z AUTO 00000KT 3SM 29/26 A2965 RMK T02900260 IEM_DS3505
ZGOW,2010-08-03 18:00,ZGOW 031800Z AUTO 00000KT 4SM 30/27 RMK SLP034 T02970267 57016 IEM_DS3505
ZGOW,2010-08-03 20:00,ZGOW 032000Z AUTO 32004KT 4SM 28/25 A2962 RMK T02800250 IEM_DS3505
ZGOW,2010-08-03 21:00,ZGOW 032100Z AUTO 00000KT 4SM 28/25 A2965 RMK SLP035 T02850249 52001 IEM_DS3505
ZGOW,2010-08-03 23:00,ZGOW 032300Z AUTO 31004KT 6SM 29/25 A2968 RMK T02900250 IEM_DS3505
ZGOW,2010-08-04 00:00,ZGOW 040000Z AUTO 25002KT 6SM 31/25 A2968 RMK SLP049 T03090253 52014 IEM_DS3505
ZGOW,2010-08-04 01:00,ZGOW 040100Z AUTO 33002KT 4SM 32/26 A2968 RMK T03200260 IEM_DS3505
ZGOW,2010-08-04 02:00,ZGOW 040200Z AUTO 12002KT 4SM 34/24 A2968 RMK T03400240 IEM_DS3505
ZGOW,2010-08-04 03:00,ZGOW 040300Z AUTO 18002KT 4SM 34/25 A2968 RMK SLP051 T03430248 52002 IEM_DS3505
ZGOW,2010-08-04 04:00,ZGOW 040400Z AUTO 12008KT 3SM 33/26 A2968 RMK T03300260 IEM_DS3505
ZGOW,2010-08-04 05:00,ZGOW 040500Z AUTO 16008KT 4SM 34/25 A2965 RMK T03400250 IEM_DS3505
ZGOW,2010-08-04 06:00,ZGOW 040600Z AUTO 16006KT 7SM 34/26 A2965 RMK SLP036 T03420256 57015 IEM_DS3505
ZGOW,2010-08-04 07:00,ZGOW 040700Z AUTO 14008KT 2SM 34/25 A2962 RMK T03400250 IEM_DS3505
ZGOW,2010-08-04 08:00,ZGOW 040800Z AUTO 13008KT 2SM 33/25 A2962 RMK T03300250 IEM_DS3505
ZGOW,2010-08-04 09:00,ZGOW 040900Z AUTO 11004KT 7SM 33/24 A2962 RMK SLP023 T03290241 57013 IEM_DS3505
ZGOW,2010-08-04 10:00,ZGOW 041000Z AUTO 13002KT 1 1/2SM 31/24 A2962 RMK T03100240 IEM_DS3505
ZGOW,2010-08-04 11:00,ZGOW 041100Z AUTO 06002KT 1 1/4SM 30/25 A2965 RMK T03000250 IEM_DS3505
ZGOW,2010-08-04 12:00,ZGOW 041200Z AUTO 04002KT 4SM 31/24 A2968 RMK SLP051 T03110235 52028 IEM_DS3505
ZGOW,2010-08-04 13:00,ZGOW 041300Z AUTO 26002KT 2 1/2SM 30/25 A2968 RMK T03000250 IEM_DS3505
ZGOW,2010-08-04 14:00,ZGOW 041400Z AUTO 34004KT 4SM 30/24 A2971 RMK T03000240 IEM_DS3505
ZGOW,2010-08-04 15:00,ZGOW 041500Z AUTO 07002KT 4SM 30/23 A2968 RMK SLP051 T03000234 54000 IEM_DS3505
ZGOW,2010-08-04 16:00,ZGOW 041600Z AUTO 32004KT 4SM 29/24 A2968 RMK T02900240 IEM_DS3505
ZGOW,2010-08-04 17:00,ZGOW 041700Z AUTO 32004KT 4SM 28/24 A2965 RMK T02800240 IEM_DS3505
ZGOW,2010-08-04 18:00,ZGOW 041800Z AUTO 27002KT 6SM 29/24 A2962 RMK SLP035 T02880237 57016 IEM_DS3505
ZGOW,2010-08-04 19:00,ZGOW 041900Z AUTO 35004KT 6SM 28/24 A2965 RMK T02800240 IEM_DS3505
ZGOW,2010-08-04 20:00,ZGOW 042000Z AUTO 34004KT 6SM 28/24 A2965 RMK T02800240 IEM_DS3505
ZGOW,2010-08-04 21:00,ZGOW 042100Z AUTO 09002KT 9SM 28/24 A2968 RMK SLP045 T02830241 52010 IEM_DS3505
ZGOW,2010-08-04 22:00,ZGOW 042200Z AUTO 35002KT 6SM 28/24 A2968 RMK T02800240 IEM_DS3505
ZGOW,2010-08-04 23:00,ZGOW 042300Z AUTO 25002KT 4SM 28/24 A2971 RMK T02800240 IEM_DS3505
ZGOW,2010-08-05 00:00,ZGOW 050000Z AUTO 07002KT 9SM 30/24 A2971 RMK SLP064 T03020244 52019 IEM_DS3505
ZGOW,2010-08-05 01:00,ZGOW 050100Z AUTO 08008KT 5SM 31/24 A2974 RMK T03100240 IEM_DS3505
ZGOW,2010-08-05 02:00,ZGOW 050200Z AUTO 08010KT 4SM 33/24 A2971 RMK T03300240 IEM_DS3505
ZGOW,2010-08-05 03:00,ZGOW 050300Z AUTO 11004KT 9SM 33/24 A2971 RMK SLP062 T03270245 57002 IEM_DS3505
ZGOW,2010-08-05 04:00,ZGOW 050400Z AUTO 13006KT 3SM 33/25 A2971 RMK T03300250 IEM_DS3505
ZGOW,2010-08-05 05:00,ZGOW 050500Z AUTO 13008KT 3SM 32/26 A2968 RMK T03200260 IEM_DS3505
ZGOW,2010-08-05 06:00,ZGOW 050600Z AUTO 14006KT 7SM 31/26 A2968 RMK SLP048 T03120255 57014 IEM_DS3505
ZGOW,2010-08-05 07:00,ZGOW 050700Z AUTO 11008KT 2 1/2SM 29/26 A2965 RMK T02900260 IEM_DS3505
ZGOW,2010-08-05 08:00,ZGOW 050800Z AUTO 05004KT 2SM 28/25 A2968 RMK T02800250 IEM_DS3505
ZGOW,2010-08-05 09:00,ZGOW 050900Z AUTO 09004G27KT 6SM 27/24 A2971 RMK SLP052 T02730235 52004 IEM_DS3505
ZGOW,2010-08-05 10:00,ZGOW 051000Z AUTO 29004KT 4SM 26/24 A2971 RMK T02600240 IEM_DS3505
ZGOW,2010-08-05 11:00,ZGOW 051100Z AUTO 31004KT 7SM 26/24 A2971 RMK T02600240 IEM_DS3505
ZGOW,2010-08-05 12:00,ZGOW 051200Z AUTO 27002KT 5SM 26/24 A2974 RMK 60016 SLP066 T02610241 52014 IEM_DS3505
ZGOW,2010-08-05 13:00,ZGOW 051300Z AUTO 35002KT 7SM 26/24 A2974 RMK T02600240 IEM_DS3505
ZGOW,2010-08-05 14:00,ZGOW 051400Z AUTO 34004KT 7SM 26/24 A2974 RMK T02600240 IEM_DS3505
ZGOW,2010-08-05 15:00,ZGOW 051500Z AUTO 25002KT 6SM 26/24 A2974 RMK SLP072 T02610240 52006 IEM_DS3505
ZGOW,2010-08-05 16:00,ZGOW 051600Z AUTO 31004KT 7SM 26/23 A2974 RMK T02600230 IEM_DS3505
ZGOW,2010-08-05 17:00,ZGOW 051700Z AUTO 31004KT 7SM 26/23 A2971 RMK T02600230 IEM_DS3505
ZGOW,2010-08-05 18:00,ZGOW 051800Z AUTO 29002KT 6SM 26/23 A2971 RMK SLP060 T02600233 57012 IEM_DS3505
ZGOW,2010-08-05 19:00,ZGOW 051900Z AUTO 32006KT 7SM 25/23 A2971 RMK T02500230 IEM_DS3505
ZGOW,2010-08-05 20:00,ZGOW 052000Z AUTO 32004KT 7SM 25/23 A2971 RMK T02500230 IEM_DS3505
ZGOW,2010-08-05 21:00,ZGOW 052100Z AUTO 04002KT 4SM 26/24 A2971 RMK 70015 SLP055 T02580235 57005 IEM_DS3505
ZGOW,2010-08-05 22:00,ZGOW 052200Z AUTO 33004KT 7SM 25/23 A2971 RMK T02500230 IEM_DS3505
ZGOW,2010-08-05 23:00,ZGOW 052300Z AUTO 33006KT 7SM 26/23 A2974 RMK T02600230 IEM_DS3505
ZGOW,2010-08-06 00:00,ZGOW 060000Z AUTO 07002KT 7SM 27/23 A2974 RMK 70015 SLP069 T02730233 52014 IEM_DS3505
ZGOW,2010-08-06 01:00,ZGOW 060100Z AUTO 33004KT 6SM 29/24 A2974 RMK T02900240 IEM_DS3505
ZGOW,2010-08-06 02:00,ZGOW 060200Z AUTO 35004KT 6SM 31/24 A2974 RMK T03100240 IEM_DS3505
ZGOW,2010-08-06 03:00,ZGOW 060300Z AUTO 09004KT 9SM 32/24 A2974 RMK SLP067 T03220240 57002 IEM_DS3505
ZGOW,2010-08-06 04:00,ZGOW 060400Z AUTO 06008KT 7SM 32/25 A2971 RMK T03200250 IEM_DS3505
ZGOW,2010-08-06 05:00,ZGOW 060500Z AUTO 14006KT 7SM 32/24 A2971 RMK T03200240 IEM_DS3505
ZGOW,2010-08-06 06:00,ZGOW 060600Z AUTO 11008KT 8SM 32/24 A2971 RMK SLP054 T03230244 57013 IEM_DS3505
ZGOW,2010-08-06 07:00,ZGOW 060700Z AUTO 10004KT 7SM 32/25 A2968 RMK T03200250 IEM_DS3505
ZGOW,2010-08-06 08:00,ZGOW 060800Z AUTO 14004KT 7SM 31/25 A2965 RMK T03100250 IEM_DS3505
ZGOW,2010-08-06 09:00,ZGOW 060900Z AUTO 11004KT 6SM 31/25 A2965 RMK SLP044 T03100251 57010 IEM_DS3505
ZGOW,2010-08-06 10:00,ZGOW 061000Z AUTO 13006KT 6SM 29/25 A2968 RMK T02900250 IEM_DS3505
ZGOW,2010-08-06 11:00,ZGOW 061100Z AUTO 10002KT 4SM 28/25 A2968 RMK T02800250 IEM_DS3505
ZGOW,2010-08-06 12:00,ZGOW 061200Z AUTO 07004KT 7SM 29/25 A2971 RMK SLP055 T02930246 52011 IEM_DS3505
ZGOW,2010-08-06 13:00,ZGOW 061300Z AUTO 09004KT 6SM 28/25 A2971 RMK T02800250 IEM_DS3505
ZGOW,2010-08-06 14:00,ZGOW 061400Z AUTO 08006KT 6SM 28/25 A2974 RMK T02800250 IEM_DS3505
ZGOW,2010-08-06 15:00,ZGOW 061500Z AUTO 07004KT 7SM 29/25 A2974 RMK SLP069 T02870247 52014 IEM_DS3505
ZGOW,2010-08-06 16:00,ZGOW 061600Z AUTO 08008KT 7SM 28/25 A2974 RMK T02800250 IEM_DS3505
ZGOW,2010-08-06 17:00,ZGOW 061700Z AUTO 08006KT 7SM 28/25 A2971 RMK T02800250 IEM_DS3505
ZGOW,2010-08-06 18:00,ZGOW 061800Z AUTO 07004KT 9SM 28/25 A2968 RMK SLP054 T02820248 57015 IEM_DS3505
ZGOW,2010-08-06 19:00,ZGOW 061900Z AUTO 07004KT 7SM 27/25 A2968 RMK T02700250 IEM_DS3505
ZGOW,2010-08-06 20:00,ZGOW 062000Z AUTO 04004KT 6SM 27/25 A2968 RMK T02700250 IEM_DS3505
ZGOW,2010-08-06 21:00,ZGOW 062100Z AUTO 09002KT 9SM 28/25 A2968 RMK SLP049 T02750253 57005 IEM_DS3505
ZGOW,2010-08-06 22:00,ZGOW 062200Z AUTO 31004KT 7SM 27/25 A2968 RMK T02700250 IEM_DS3505
ZGOW,2010-08-06 23:00,ZGOW 062300Z AUTO 31006KT 4SM 28/25 A2968 RMK T02800250 IEM_DS3505
ZGOW,2010-08-07 00:00,ZGOW 070000Z AUTO 00000KT 10SM 30/26 A2968 RMK SLP053 T02960256 52004 IEM_DS3505
ZGOW,2010-08-07 01:00,ZGOW 070100Z AUTO 32004KT 4SM 31/25 A2968 RMK T03100250 IEM_DS3505
ZGOW,2010-08-07 02:00,ZGOW 070200Z AUTO 06002KT 5SM 33/25 A2968 RMK T03300250 IEM_DS3505
ZGOW,2010-08-07 03:00,ZGOW 070300Z AUTO 25006KT 10SM 32/26 A2965 RMK SLP045 T03150258 57008 IEM_DS3505
ZGOW,2010-08-07 04:00,ZGOW 070400Z AUTO 10010KT 7SM 33/25 A2965 RMK T03300250 IEM_DS3505
ZGOW,2010-08-07 05:00,ZGOW 070500Z AUTO 13010KT 7SM 32/25 A2965 RMK T03200250 IEM_DS3505
ZGOW,2010-08-07 06:00,ZGOW 070600Z AUTO 09008KT 10SM 33/24 A2962 RMK SLP030 T03270242 57015 IEM_DS3505
ZGOW,2010-08-07 07:00,ZGOW 070700Z AUTO 12008KT 7SM 31/25 A2959 RMK T03100250 IEM_DS3505
ZGOW,2010-08-07 08:00,ZGOW 070800Z AUTO 09010KT 7SM 31/25 A2959 RMK T03100250 IEM_DS3505
ZGOW,2010-08-07 09:00,ZGOW 070900Z AUTO 09010KT 9SM 31/25 A2959 RMK SLP016 T03130249 57014 IEM_DS3505
ZGOW,2010-08-07 10:00,ZGOW 071000Z AUTO 10014KT 7SM 29/25 A2959 RMK T02900250 IEM_DS3505
ZGOW,2010-08-07 11:00,ZGOW 071100Z AUTO 06008KT 7SM 29/25 A2965 RMK T02900250 IEM_DS3505
ZGOW,2010-08-07 12:00,ZGOW 071200Z AUTO 09006KT 7SM 29/25 A2965 RMK SLP038 T02940247 52022 IEM_DS3505
ZGOW,2010-08-07 13:00,ZGOW 071300Z AUTO 09016KT 7SM 29/24 A2965 RMK T02900240 IEM_DS3505
ZGOW,2010-08-07 14:00,ZGOW 071400Z AUTO 09014KT 7SM 29/24 A2968 RMK T02900240 IEM_DS3505
ZGOW,2010-08-07 15:00,ZGOW 071500Z AUTO 09006KT 9SM 29/24 A2968 RMK SLP054 T02920243 52016 IEM_DS3505
ZGOW,2010-08-07 16:00,ZGOW 071600Z AUTO 10008KT 7SM 29/24 A2968 RMK T02900240 IEM_DS3505
ZGOW,2010-08-07 17:00,ZGOW 071700Z AUTO 10006KT 7SM 28/24 A2965 RMK T02800240 IEM_DS3505
ZGOW,2010-08-07 18:00,ZGOW 071800Z AUTO 07006KT 9SM 29/24 A2965 RMK SLP038 T02880237 57016 IEM_DS3505
ZGOW,2010-08-07 19:00,ZGOW 071900Z AUTO 07008KT 7SM 28/23 A2965 RMK T02800230 IEM_DS3505
ZGOW,2010-08-07 20:00,ZGOW 072000Z AUTO 07002KT 7SM 27/24 A2965 RMK T02700240 IEM_DS3505
ZGOW,2010-08-07 21:00,ZGOW 072100Z AUTO 00000KT 9SM 28/24 A2962 RMK SLP034 T02780242 57004 IEM_DS3505
ZGOW,2010-08-07 22:00,ZGOW 072200Z AUTO 34004KT 6SM 28/25 A2965 RMK T02800250 IEM_DS3505
ZGOW,2010-08-07 23:00,ZGOW 072300Z AUTO 30004KT 6SM 29/24 A2965 RMK T02900240 IEM_DS3505
ZGOW,2010-08-08 00:00,ZGOW 080000Z AUTO 20002KT 12SM 30/25 A2965 RMK SLP040 T03030247 52006 IEM_DS3505
ZGOW,2010-08-08 01:00,ZGOW 080100Z AUTO 03006KT 6SM 32/22 A2965 RMK T03200220 IEM_DS3505
ZGOW,2010-08-08 02:00,ZGOW 080200Z AUTO 07008KT 6SM 32/22 A2965 RMK T03200220 IEM_DS3505
ZGOW,2010-08-08 03:00,ZGOW 080300Z AUTO 09008KT 16SM 34/22 A2965 RMK SLP038 T03360221 57002 IEM_DS3505
ZGOW,2010-08-08 04:00,ZGOW 080400Z AUTO 14008KT 7SM 33/24 A2965 RMK T03300240 IEM_DS3505
ZGOW,2010-08-08 05:00,ZGOW 080500Z AUTO 13010KT 7SM 32/24 A2962 RMK T03200240 IEM_DS3505
ZGOW,2010-08-08 06:00,ZGOW 080600Z AUTO 14006KT 14SM 32/23 A2962 RMK SLP029 T03160226 57009 IEM_DS3505
ZGOW,2010-08-08 07:00,ZGOW 080700Z AUTO 13008KT 7SM 30/24 A2959 RMK T03000240 IEM_DS3505
ZGOW,2010-08-08 08:00,ZGOW 080800Z AUTO 10008KT 6SM 30/24 A2959 RMK T03000240 IEM_DS3505
ZGOW,2010-08-08 09:00,ZGOW 080900Z AUTO 09004KT 14SM 31/23 A2959 RMK SLP016 T03130231 57013 IEM_DS3505
ZGOW,2010-08-08 10:00,ZGOW 081000Z AUTO 08008KT 6SM 30/24 A2959 RMK T03000240 IEM_DS3505
ZGOW,2010-08-08 11:00,ZGOW 081100Z AUTO 14004KT 6SM 29/24 A2959 RMK T02900240 IEM_DS3505
ZGOW,2010-08-08 12:00,ZGOW 081200Z AUTO 11004KT 10SM 29/24 A2962 RMK SLP031 T02930237 52015 IEM_DS3505
ZGOW,2010-08-08 13:00,ZGOW 081300Z AUTO 10006KT 6SM 28/23 A2965 RMK T02800230 IEM_DS3505
ZGOW,2010-08-08 14:00,ZGOW 081400Z AUTO 09006KT 6SM 28/24 A2965 RMK T02800240 IEM_DS3505
ZGOW,2010-08-08 15:00,ZGOW 081500Z AUTO 07004KT 9SM 29/24 A2968 RMK SLP045 T02880239 52014 IEM_DS3505
ZGOW,2010-08-08 16:00,ZGOW 081600Z AUTO 08002KT 7SM 28/24 A2965 RMK T02800240 IEM_DS3505
ZGOW,2010-08-08 17:00,ZGOW 081700Z AUTO 11002KT 7SM 27/24 A2965 RMK T02700240 IEM_DS3505
ZGOW,2010-08-08 18:00,ZGOW 081800Z AUTO 09004KT 9SM 28/24 A2962 RMK SLP030 T02830239 57015 IEM_DS3505
ZGOW,2010-08-08 19:00,ZGOW 081900Z AUTO 11002KT 6SM 27/24 A2962 RMK T02700240 IEM_DS3505
ZGOW,2010-08-08 20:00,ZGOW 082000Z AUTO 00000KT 6SM 27/24 A2962 RMK T02700240 IEM_DS3505
ZGOW,2010-08-08 21:00,ZGOW 082100Z AUTO 22002KT 9SM 27/25 A2962 RMK SLP027 T02690246 57003 IEM_DS3505
ZGOW,2010-08-08 22:00,ZGOW 082200Z AUTO 29002KT 6SM 27/24 A2962 RMK T02700240 IEM_DS3505
ZGOW,2010-08-08 23:00,ZGOW 082300Z AUTO 28002KT 6SM 28/24 A2962 RMK T02800240 IEM_DS3505
ZGOW,2010-08-09 00:00,ZGOW 090000Z AUTO 27006KT 7SM 28/25 A2965 RMK SLP038 T02840252 52011 IEM_DS3505
ZGOW,2010-08-09 01:00,ZGOW 090100Z AUTO 26004KT 4SM 29/25 A2965 RMK T02900250 IEM_DS3505
ZGOW,2010-08-09 02:00,ZGOW 090200Z AUTO 24004KT 4SM 30/25 A2965 RMK T03000250 IEM_DS3505
ZGOW,2010-08-09 03:00,ZGOW 090300Z AUTO 25006KT 7SM 31/25 A2965 RMK SLP042 T03060247 52004 IEM_DS3505
ZGOW,2010-08-09 04:00,ZGOW 090400Z AUTO 24004KT 4SM 33/24 A2965 RMK T03300240 IEM_DS3505
ZGOW,2010-08-09 05:00,ZGOW 090500Z AUTO 16008KT 5SM 32/25 A2962 RMK T03200250 IEM_DS3505
ZGOW,2010-08-09 06:00,ZGOW 090600Z AUTO 14006KT 7SM 33/23 A2962 RMK SLP031 T03300228 57011 IEM_DS3505
ZGOW,2010-08-09 07:00,ZGOW 090700Z AUTO 17012KT 7SM 32/24 A2962 RMK T03200240 IEM_DS3505
ZGOW,2010-08-09 08:00,ZGOW 090800Z AUTO 18010KT 7SM 32/23 A2962 RMK T03200230 IEM_DS3505
ZGOW,2010-08-09 09:00,ZGOW 090900Z AUTO 18004G19KT 10SM 31/23 A2962 RMK SLP025 T03080229 57006 IEM_DS3505
ZGOW,2010-08-09 10:00,ZGOW 091000Z AUTO 18006KT 7SM 30/23 A2962 RMK T03000230 IEM_DS3505
ZGOW,2010-08-09 11:00,ZGOW 091100Z AUTO 19008KT 7SM 29/24 A2962 RMK T02900240 IEM_DS3505
ZGOW,2010-08-09 12:00,ZGOW 091200Z AUTO 18002KT 10SM 29/25 A2965 RMK SLP045 T02900248 52020 IEM_DS3505
ZGOW,2010-08-09 13:00,ZGOW 091300Z AUTO 19004KT 7SM 29/25 A2968 RMK T02900250 IEM_DS3505
ZGOW,2010-08-09 14:00,ZGOW 091400Z AUTO 19006KT 7SM 29/25 A2968 RMK T02900250 IEM_DS3505
ZGOW,2010-08-09 15:00,ZGOW 091500Z AUTO 22002KT 9SM 29/25 A2971 RMK SLP057 T02860250 52012 IEM_DS3505
ZGOW,2010-08-09 16:00,ZGOW 091600Z AUTO 00000KT 6SM 28/25 A2971 RMK T02800250 IEM_DS3505
ZGOW,2010-08-09 17:00,ZGOW 091700Z AUTO 22002KT 6SM 28/25 A2968 RMK T02800250 IEM_DS3505
ZGOW,2010-08-09 18:00,ZGOW 091800Z AUTO 00000KT 9SM 28/25 A2968 RMK SLP049 T02780254 57008 IEM_DS3505
ZGOW,2010-08-09 20:00,ZGOW 092000Z AUTO 30002KT 4SM 28/25 A2968 RMK T02800250 IEM_DS3505
ZGOW,2010-08-09 21:00,ZGOW 092100Z AUTO 27002KT 7SM 27/25 A2968 RMK SLP049 T02710253 54000 IEM_DS3505
ZGOW,2010-08-09 22:00,ZGOW 092200Z AUTO 00000KT 3SM 27/25 A2968 RMK T02700250 IEM_DS3505
ZGOW,2010-08-09 23:00,ZGOW 092300Z AUTO 29002KT 3SM 28/26 A2971 RMK T02800260 IEM_DS3505
ZGOW,2010-08-10 00:00,ZGOW 100000Z AUTO 00000KT 9SM 29/25 A2971 RMK SLP062 T02940252 52013 IEM_DS3505
ZGOW,2010-08-10 01:00,ZGOW 100100Z AUTO 26002KT 4SM 32/25 A2974 RMK T03200250 IEM_DS3505
ZGOW,2010-08-10 02:00,ZGOW 100200Z AUTO 12004KT 3SM 32/26 A2974 RMK T03200260 IEM_DS3505
ZGOW,2010-08-10 03:00,ZGOW 100300Z AUTO 25002KT 9SM 33/25 A2974 RMK SLP070 T03310251 52008 IEM_DS3505
ZGOW,2010-08-10 04:00,ZGOW 100400Z AUTO 16008KT 5SM 33/26 A2974 RMK T03300260 IEM_DS3505
ZGOW,2010-08-10 05:00,ZGOW 100500Z AUTO 15010KT 7SM 33/26 A2971 RMK T03300260 IEM_DS3505
ZGOW,2010-08-10 06:00,ZGOW 100600Z AUTO 14008KT 9SM 33/25 A2971 RMK SLP055 T03330253 57015 IEM_DS3505
ZGOW,2010-08-10 07:00,ZGOW 100700Z AUTO 16012KT 7SM 33/26 A2968 RMK T03300260 IEM_DS3505
ZGOW,2010-08-10 08:00,ZGOW 100800Z AUTO 17010KT 7SM 32/26 A2968 RMK T03200260 IEM_DS3505
ZGOW,2010-08-10 09:00,ZGOW 100900Z AUTO 16006KT 9SM 32/26 A2968 RMK SLP053 T03180261 57002 IEM_DS3505
ZGOW,2010-08-10 10:00,ZGOW 101000Z AUTO 18010KT 7SM 31/25 A2971 RMK T03100250 IEM_DS3505
ZGOW,2010-08-10 11:00,ZGOW 101100Z AUTO 17008KT 7SM 30/26 A2974 RMK T03000260 IEM_DS3505
ZGOW,2010-08-10 12:00,ZGOW 101200Z AUTO 20004KT 9SM 30/26 A2974 RMK SLP073 T02960258 52020 IEM_DS3505
ZGOW,2010-08-10 13:00,ZGOW 101300Z AUTO 20008KT 7SM 30/26 A2977 RMK T03000260 IEM_DS3505
ZGOW,2010-08-10 14:00,ZGOW 101400Z AUTO 20004KT 7SM 29/26 A2977 RMK T02900260 IEM_DS3505
ZGOW,2010-08-10 15:00,ZGOW 101500Z AUTO 00000KT 7SM 29/26 A2977 RMK SLP079 T02890255 52006 IEM_DS3505
ZGOW,2010-08-10 16:00,ZGOW 101600Z AUTO 19002KT 7SM 29/25 A2977 RMK T02900250 IEM_DS3505
ZGOW,2010-08-10 17:00,ZGOW 101700Z AUTO 15004KT 7SM 28/26 A2977 RMK T02800260 IEM_DS3505
ZGOW,2010-08-10 18:00,ZGOW 101800Z AUTO 18002KT 7SM 28/26 A2977 RMK SLP076 T02840260 57003 IEM_DS3505
ZGOW,2010-08-10 19:00,ZGOW 101900Z AUTO 00000KT 6SM 28/26 A2974 RMK T02800260 IEM_DS3505
ZGOW,2010-08-10 20:00,ZGOW 102000Z AUTO 27002KT 6SM 28/25 A2974 RMK T02800250 IEM_DS3505
ZGOW,2010-08-10 21:00,ZGOW 102100Z AUTO 22002KT 7SM 28/26 A2977 RMK SLP075 T02800260 57001 IEM_DS3505
ZGOW,2010-08-10 22:00,ZGOW 102200Z AUTO 00000KT 7SM 28/26 A2977 RMK T02800260 IEM_DS3505
ZGOW,2010-08-10 23:00,ZGOW 102300Z AUTO 10002KT 7SM 29/27 A2980 RMK T02900270 IEM_DS3505
ZGOW,2010-08-11 00:00,ZGOW 110000Z AUTO 00000KT 11SM 31/26 A2980 RMK SLP090 T03070262 52015 IEM_DS3505
ZGOW,2010-08-11 01:00,ZGOW 110100Z AUTO 13004KT 7SM 30/25 A2983 RMK T03000250 IEM_DS3505
ZGOW,2010-08-11 02:00,ZGOW 110200Z AUTO 12004KT 7SM 32/26 A2983 RMK T03200260 IEM_DS3505
ZGOW,2010-08-11 03:00,ZGOW 110300Z AUTO 25004KT 11SM 33/25 A2983 RMK SLP095 T03310251 52005 IEM_DS3505
ZGOW,2010-08-11 04:00,ZGOW 110400Z AUTO 12008G19KT 7SM 33/25 A2980 RMK T03300250 IEM_DS3505
ZGOW,2010-08-11 05:00,ZGOW 110500Z AUTO 12010KT 7SM 33/25 A2980 RMK T03300250 IEM_DS3505
ZGOW,2010-08-11 06:00,ZGOW 110600Z AUTO 14006KT 11SM 33/24 A2977 RMK SLP080 T03310237 57015 IEM_DS3505
ZGOW,2010-08-11 07:00,ZGOW 110700Z AUTO 13010KT 7SM 32/26 A2977 RMK T03200260 IEM_DS3505
ZGOW,2010-08-11 08:00,ZGOW 110800Z AUTO 16010KT 7SM 32/26 A2977 RMK T03200260 IEM_DS3505
ZGOW,2010-08-11 09:00,ZGOW 110900Z AUTO 16006KT 11SM 32/26 A2977 RMK SLP082 T03170260 52002 IEM_DS3505
ZGOW,2010-08-11 10:00,ZGOW 111000Z AUTO 20008KT 7SM 31/26 A2980 RMK T03100260 IEM_DS3505
ZGOW,2010-08-11 11:00,ZGOW 111100Z AUTO 19004KT 7SM 30/25 A2980 RMK T03000250 IEM_DS3505
ZGOW,2010-08-11 12:00,ZGOW 111200Z AUTO 25004KT 11SM 29/26 A2983 RMK SLP094 T02930257 52012 IEM_DS3505
ZGOW,2010-08-11 13:00,ZGOW 111300Z AUTO 28004KT 7SM 30/25 A2983 RMK T03000250 IEM_DS3505
ZGOW,2010-08-11 14:00,ZGOW 111400Z AUTO 29004KT 7SM 29/25 A2985 RMK T02900250 IEM_DS3505
ZGOW,2010-08-11 15:00,ZGOW 111500Z AUTO 27002KT 6SM 28/26 A2985 RMK SLP109 T02840256 52015 IEM_DS3505
ZGOW,2010-08-11 16:00,ZGOW 111600Z AUTO 00000KT 7SM 29/25 A2983 RMK T02900250 IEM_DS3505
ZGOW,2010-08-11 17:00,ZGOW 111700Z AUTO 26002KT 7SM 29/25 A2983 RMK T02900250 IEM_DS3505
ZGOW,2010-08-11 18:00,ZGOW 111800Z AUTO 00000KT 7SM 28/26 RMK SLP096 T02810255 57013 IEM_DS3505
ZGOW,2010-08-11 19:00,ZGOW 111900Z AUTO 21004KT 6SM 28/25 A2983 RMK T02800250 IEM_DS3505
ZGOW,2010-08-11 20:00,ZGOW 112000Z AUTO 22004KT 6SM 29/25 A2983 RMK T02900250 IEM_DS3505
ZGOW,2010-08-11 21:00,ZGOW 112100Z AUTO 00000KT 7SM 28/26 A2983 RMK SLP096 T02810259 54000 IEM_DS3505
ZGOW,2010-08-11 22:00,ZGOW 112200Z AUTO 33004KT 7SM 28/25 A2983 RMK T02800250 IEM_DS3505
ZGOW,2010-08-11 23:00,ZGOW 112300Z AUTO 32004KT 4SM 28/25 A2983 RMK T02800250 IEM_DS3505
ZGOW,2010-08-12 00:00,ZGOW 120000Z AUTO 25002KT 11SM 29/25 A2983 RMK SLP105 T02940254 52009 IEM_DS3505
ZGOW,2010-08-12 01:00,ZGOW 120100Z AUTO 28002KT 7SM 30/25 A2985 RMK T03000250 IEM_DS3505
ZGOW,2010-08-12 02:00,ZGOW 120200Z AUTO 28002KT 7SM 31/25 A2985 RMK T03100250 IEM_DS3505
ZGOW,2010-08-12 03:00,ZGOW 120300Z AUTO 27006KT 11SM 32/24 A2983 RMK SLP105 T03250245 54000 IEM_DS3505
ZGOW,2010-08-12 04:00,ZGOW 120400Z AUTO 15006KT 7SM 33/25 A2983 RMK T03300250 IEM_DS3505
ZGOW,2010-08-12 05:00,ZGOW 120500Z AUTO 17010KT 7SM 31/25 A2980 RMK T03100250 IEM_DS3505
ZGOW,2010-08-12 06:00,ZGOW 120600Z AUTO 14006KT 12SM 31/26 A2980 RMK SLP087 T03060263 57018 IEM_DS3505
ZGOW,2010-08-12 07:00,ZGOW 120700Z AUTO 16010KT 7SM 31/27 A2977 RMK T03100270 IEM_DS3505
ZGOW,2010-08-12 08:00,ZGOW 120800Z AUTO 17012KT 7SM 32/26 A2977 RMK T03200260 IEM_DS3505
ZGOW,2010-08-12 09:00,ZGOW 120900Z AUTO 14006KT 16SM 32/26 A2977 RMK SLP079 T03170258 57008 IEM_DS3505
ZGOW,2010-08-12 10:00,ZGOW 121000Z AUTO 19010KT 7SM 30/26 A2977 RMK T03000260 IEM_DS3505
ZGOW,2010-08-12 11:00,ZGOW 121100Z AUTO 19010KT 7SM 30/26 A2977 RMK T03000260 IEM_DS3505
ZGOW,2010-08-12 12:00,ZGOW 121200Z AUTO 16004KT 11SM 30/26 A2980 RMK SLP092 T02970259 52013 IEM_DS3505
ZGOW,2010-08-12 13:00,ZGOW 121300Z AUTO 20008KT 6SM 30/26 A2983 RMK T03000260 IEM_DS3505
ZGOW,2010-08-12 14:00,ZGOW 121400Z AUTO 19004KT 6SM 29/25 A2983 RMK T02900250 IEM_DS3505
ZGOW,2010-08-12 15:00,ZGOW 121500Z AUTO 00000KT 11SM 29/26 A2983 RMK SLP097 T02910255 52005 IEM_DS3505
ZGOW,2010-08-12 16:00,ZGOW 121600Z AUTO 22004KT 6SM 29/25 A2980 RMK T02900250 IEM_DS3505
ZGOW,2010-08-12 17:00,ZGOW 121700Z AUTO 23006KT 6SM 29/25 A2980 RMK T02900250 IEM_DS3505
ZGOW,2010-08-12 18:00,ZGOW 121800Z AUTO 25002KT 10SM 28/26 RMK SLP082 T02840258 57015 IEM_DS3505
ZGOW,2010-08-12 20:00,ZGOW 122000Z AUTO 24002KT 4SM 28/25 A2977 RMK T02800250 IEM_DS3505
ZGOW,2010-08-12 21:00,ZGOW 122100Z AUTO 25002KT 10SM 28/26 A2980 RMK 70001 SLP084 T02810257 52002 IEM_DS3505
ZGOW,2010-08-12 22:00,ZGOW 122200Z AUTO 00000KT 4SM 28/25 A2980 RMK T02800250 IEM_DS3505
ZGOW,2010-08-12 23:00,ZGOW 122300Z AUTO 23002KT 5SM 29/25 A2980 RMK T02900250 IEM_DS3505
ZGOW,2010-08-13 00:00,ZGOW 130000Z AUTO 22004KT 14SM 30/26 A2980 RMK 70001 SLP093 T02970259 52009 IEM_DS3505
ZGOW,2010-08-13 01:00,ZGOW 130100Z AUTO 24004KT 7SM 31/25 A2983 RMK T03100250 IEM_DS3505
ZGOW,2010-08-13 02:00,ZGOW 130200Z AUTO 25006KT 7SM 32/25 A2983 RMK T03200250 IEM_DS3505
ZGOW,2010-08-13 03:00,ZGOW 130300Z AUTO 18004KT 16SM 32/26 A2983 RMK SLP096 T03200256 52003 IEM_DS3505
ZGOW,2010-08-13 04:00,ZGOW 130400Z AUTO 15006KT 7SM 32/26 A2980 RMK T03200260 IEM_DS3505
ZGOW,2010-08-13 05:00,ZGOW 130500Z AUTO 16008KT 7SM 33/26 A2980 RMK T03300260 IEM_DS3505
ZGOW,2010-08-13 06:00,ZGOW 130600Z AUTO 14008KT 17SM 33/26 A2977 RMK SLP081 T03320255 57015 IEM_DS3505
ZGOW,2010-08-13 07:00,ZGOW 130700Z AUTO 17012KT 7SM 33/25 A2977 RMK T03300250 IEM_DS3505
ZGOW,2010-08-13 08:00,ZGOW 130800Z AUTO 19010KT 7SM 33/25 A2974 RMK T03300250 IEM_DS3505
ZGOW,2010-08-13 09:00,ZGOW 130900Z AUTO 20006KT 14SM 32/26 A2974 RMK SLP066 T03250258 57015 IEM_DS3505
ZGOW,2010-08-13 10:00,ZGOW 131000Z AUTO 17010KT 7SM 31/25 A2974 RMK T03100250 IEM_DS3505
ZGOW,2010-08-13 11:00,ZGOW 131100Z AUTO 19006KT 6SM 30/25 A2974 RMK T03000250 IEM_DS3505
ZGOW,2010-08-13 12:00,ZGOW 131200Z AUTO 16006KT 11SM 30/26 A2977 RMK SLP080 T02980258 52014 IEM_DS3505
ZGOW,2010-08-13 13:00,ZGOW 131300Z AUTO 19008KT 6SM 29/26 A2980 RMK T02900260 IEM_DS3505
ZGOW,2010-08-13 14:00,ZGOW 131400Z AUTO 19008KT 7SM 29/26 A2980 RMK T02900260 IEM_DS3505
ZGOW,2010-08-13 15:00,ZGOW 131500Z AUTO 22004KT 11SM 29/26 A2980 RMK SLP086 T02890257 52006 IEM_DS3505
ZGOW,2010-08-13 16:00,ZGOW 131600Z AUTO 21004KT 6SM 29/25 A2980 RMK T02900250 IEM_DS3505
ZGOW,2010-08-13 17:00,ZGOW 131700Z AUTO 19004KT 6SM 29/25 A2980 RMK T02900250 IEM_DS3505
ZGOW,2010-08-13 18:00,ZGOW 131800Z AUTO 22004KT 10SM 28/25 RMK SLP085 T02840254 57001 IEM_DS3505
ZGOW,2010-08-13 19:00,ZGOW 131900Z AUTO 21002KT 3SM 28/25 A2980 RMK T02800250 IEM_DS3505
ZGOW,2010-08-13 21:00,ZGOW 132100Z AUTO 00000KT 9SM 28/25 A2977 RMK SLP082 T02760252 57003 IEM_DS3505
ZGOW,2010-08-13 22:00,ZGOW 132200Z AUTO 00000KT 7SM 27/25 A2977 RMK T02700250 IEM_DS3505
ZGOW,2010-08-13 23:00,ZGOW 132300Z AUTO 00000KT 7SM 30/25 A2980 RMK T03000250 IEM_DS3505
ZGOW,2010-08-14 00:00,ZGOW 140000Z AUTO 27004KT 12SM 30/26 A2980 RMK SLP098 T03000255 52016 IEM_DS3505
ZGOW,2010-08-14 01:00,ZGOW 140100Z AUTO 00000KT 7SM 31/25 A2983 RMK T03100250 IEM_DS3505
ZGOW,2010-08-14 02:00,ZGOW 140200Z AUTO 14004KT 7SM 32/25 A2983 RMK T03200250 IEM_DS3505
ZGOW,2010-08-14 03:00,ZGOW 140300Z AUTO 25004KT 19SM 33/22 A2983 RMK SLP096 T03330224 57002 IEM_DS3505
ZGOW,2010-08-14 04:00,ZGOW 140400Z AUTO 13008KT 7SM 33/26 A2980 RMK T03300260 IEM_DS3505
ZGOW,2010-08-14 05:00,ZGOW 140500Z AUTO 14010KT 7SM 33/24 A2980 RMK T03300240 IEM_DS3505
ZGOW,2010-08-14 06:00,ZGOW 140600Z AUTO 14008KT 19SM 34/24 A2980 RMK SLP084 T03360245 57012 IEM_DS3505
ZGOW,2010-08-14 07:00,ZGOW 140700Z AUTO 15010KT 7SM 33/25 A2977 RMK T03300250 IEM_DS3505
ZGOW,2010-08-14 08:00,ZGOW 140800Z AUTO 16012KT 7SM 32/25 A2977 RMK T03200250 IEM_DS3505
ZGOW,2010-08-14 09:00,ZGOW 140900Z AUTO 18006KT 16SM 32/24 A2977 RMK SLP077 T03180244 57007 IEM_DS3505
ZGOW,2010-08-14 10:00,ZGOW 141000Z AUTO 16008KT 6SM 31/26 A2977 RMK T03100260 IEM_DS3505
ZGOW,2010-08-14 11:00,ZGOW 141100Z AUTO 16006KT 7SM 30/26 A2980 RMK T03000260 IEM_DS3505
ZGOW,2010-08-14 12:00,ZGOW 141200Z AUTO 14006KT 12SM 30/26 A2983 RMK SLP094 T02970261 52017 IEM_DS3505
ZGOW,2010-08-14 13:00,ZGOW 141300Z AUTO 16004KT 7SM 29/26 A2983 RMK T02900260 IEM_DS3505
ZGOW,2010-08-14 14:00,ZGOW 141400Z AUTO 17006KT 6SM 29/26 A2985 RMK T02900260 IEM_DS3505
ZGOW,2010-08-14 15:00,ZGOW 141500Z AUTO 20002KT 12SM 29/26 A2985 RMK SLP108 T02910255 52014 IEM_DS3505
ZGOW,2010-08-14 16:00,ZGOW 141600Z AUTO 19002KT 7SM 29/25 A2985 RMK T02900250 IEM_DS3505
ZGOW,2010-08-14 17:00,ZGOW 141700Z AUTO 21002KT 7SM 29/25 A2985 RMK T02900250 IEM_DS3505
ZGOW,2010-08-14 18:00,ZGOW 141800Z AUTO 14002KT 11SM 29/25 A2983 RMK SLP102 T02880252 57006 IEM_DS3505
ZGOW,2010-08-14 21:00,ZGOW 142100Z AUTO 22002KT 11SM 28/25 A2985 RMK SLP107 T02820252 52005 IEM_DS3505
ZGOW,2010-08-14 22:00,ZGOW 142200Z AUTO 07002KT 6SM 27/25 A2985 RMK T02700250 IEM_DS3505
ZGOW,2010-08-14 23:00,ZGOW 142300Z AUTO 12002KT 6SM 29/26 A2985 RMK T02900260 IEM_DS3505
ZGOW,2010-08-15 00:00,ZGOW 150000Z AUTO 27002KT 16SM 29/25 A2985 RMK SLP111 T02920252 52004 IEM_DS3505
ZGOW,2010-08-15 01:00,ZGOW 150100Z AUTO 13006KT 7SM 32/26 A2985 RMK T03200260 IEM_DS3505
ZGOW,2010-08-15 02:00,ZGOW 150200Z AUTO 13008KT 7SM 31/25 A2985 RMK T03100250 IEM_DS3505
ZGOW,2010-08-15 03:00,ZGOW 150300Z AUTO 11006KT 16SM 31/25 A2985 RMK SLP112 T03130249 52001 IEM_DS3505
ZGOW,2010-08-15 04:00,ZGOW 150400Z AUTO 15010KT 7SM 33/25 A2983 RMK T03300250 IEM_DS3505
ZGOW,2010-08-15 05:00,ZGOW 150500Z AUTO 14010KT 7SM 33/26 A2983 RMK T03300260 IEM_DS3505
ZGOW,2010-08-15 06:00,ZGOW 150600Z AUTO 14008KT 16SM 33/25 A2983 RMK 60000 SLP092 T03320249 57020 IEM_DS3505
ZGOW,2010-08-15 07:00,ZGOW 150700Z AUTO 15012KT 7SM 32/26 A2980 RMK T03200260 IEM_DS3505
ZGOW,2010-08-15 08:00,ZGOW 150800Z AUTO 16010KT 7SM 32/26 A2980 RMK T03200260 IEM_DS3505
ZGOW,2010-08-15 09:00,ZGOW 150900Z AUTO 18004KT 16SM 32/25 A2977 RMK SLP082 T03170251 57010 IEM_DS3505
ZGOW,2010-08-15 10:00,ZGOW 151000Z AUTO 17010KT 7SM 31/24 A2980 RMK T03100240 IEM_DS3505
ZGOW,2010-08-15 11:00,ZGOW 151100Z AUTO 18008KT 7SM 30/25 A2980 RMK T03000250 IEM_DS3505
ZGOW,2010-08-15 12:00,ZGOW 151200Z AUTO 20002KT 12SM 29/25 A2983 RMK SLP101 T02930248 52019 IEM_DS3505
ZGOW,2010-08-15 13:00,ZGOW 151300Z AUTO 19006KT 7SM 29/25 A2985 RMK T02900250 IEM_DS3505
ZGOW,2010-08-15 14:00,ZGOW 151400Z AUTO 19006KT 7SM 29/25 A2985 RMK T02900250 IEM_DS3505
ZGOW,2010-08-15 15:00,ZGOW 151500Z AUTO 18004KT 12SM 29/25 A2988 RMK SLP115 T02870253 52014 IEM_DS3505
ZGOW,2010-08-15 16:00,ZGOW 151600Z AUTO 20006KT 7SM 29/25 A2985 RMK T02900250 IEM_DS3505
ZGOW,2010-08-15 17:00,ZGOW 151700Z AUTO 22006KT 7SM 29/25 A2985 RMK T02900250 IEM_DS3505
ZGOW,2010-08-15 18:00,ZGOW 151800Z AUTO 25006KT 12SM 28/25 A2985 RMK SLP106 T02840250 57009 IEM_DS3505
ZGOW,2010-08-15 20:00,ZGOW 152000Z AUTO 25004KT 7SM 28/25 A2983 RMK T02800250 IEM_DS3505
ZGOW,2010-08-15 21:00,ZGOW 152100Z AUTO 25002KT 12SM 28/25 A2983 RMK 70000 SLP095 T02790249 57011 IEM_DS3505
ZGOW,2010-08-15 22:00,ZGOW 152200Z AUTO 00000KT 7SM 28/24 A2983 RMK T02800240 IEM_DS3505
ZGOW,2010-08-15 23:00,ZGOW 152300Z AUTO 28002KT 7SM 29/24 A2983 RMK T02900240 IEM_DS3505
ZGOW,2010-08-16 00:00,ZGOW 160000Z AUTO 27002KT 11SM 30/24 A2983 RMK 70000 SLP105 T02960245 52010 IEM_DS3505
ZGOW,2010-08-16 01:00,ZGOW 160100Z AUTO 17002KT 7SM 30/24 A2985 RMK T03000240 IEM_DS3505
ZGOW,2010-08-16 02:00,ZGOW 160200Z AUTO 14004KT 7SM 31/25 A2985 RMK T03100250 IEM_DS3505
ZGOW,2010-08-16 03:00,ZGOW 160300Z AUTO 18004KT 11SM 31/24 A2985 RMK SLP108 T03110242 52003 IEM_DS3505
ZGOW,2010-08-16 04:00,ZGOW 160400Z AUTO 16010KT 7SM 31/25 A2983 RMK T03100250 IEM_DS3505
ZGOW,2010-08-16 05:00,ZGOW 160500Z AUTO 20008KT 7SM 33/24 A2983 RMK T03300240 IEM_DS3505
ZGOW,2010-08-16 06:00,ZGOW 160600Z AUTO 25006KT 16SM 33/25 A2980 RMK 60004 SLP092 T03260246 57016 IEM_DS3505
ZGOW,2010-08-16 07:00,ZGOW 160700Z AUTO 22010KT 7SM 29/24 A2980 RMK T02900240 IEM_DS3505
ZGOW,2010-08-16 08:00,ZGOW 160800Z AUTO 16008KT 7SM 32/24 A2980 RMK T03200240 IEM_DS3505
ZGOW,2010-08-16 09:00,ZGOW 160900Z AUTO 18004KT 14SM 32/25 A2977 RMK SLP079 T03150249 57013 IEM_DS3505
ZGOW,2010-08-16 10:00,ZGOW 161000Z AUTO 19008KT 7SM 30/24 A2980 RMK T03000240 IEM_DS3505
ZGOW,2010-08-16 11:00,ZGOW 161100Z AUTO 18008KT 7SM 29/25 A2980 RMK T02900250 IEM_DS3505
ZGOW,2010-08-16 12:00,ZGOW 161200Z AUTO 16004KT 12SM 29/25 A2983 RMK SLP097 T02880250 52018 IEM_DS3505
ZGOW,2010-08-16 13:00,ZGOW 161300Z AUTO 19006KT 7SM 29/24 A2983 RMK T02900240 IEM_DS3505
ZGOW,2010-08-16 14:00,ZGOW 161400Z AUTO 21004KT 6SM 28/24 A2985 RMK T02800240 IEM_DS3505
ZGOW,2010-08-16 15:00,ZGOW 161500Z AUTO 22002KT 12SM 28/25 A2985 RMK SLP111 T02820250 52014 IEM_DS3505
ZGOW,2010-08-16 16:00,ZGOW 161600Z AUTO 00000KT 6SM 28/25 A2985 RMK T02800250 IEM_DS3505
ZGOW,2010-08-16 17:00,ZGOW 161700Z AUTO 14002KT 6SM 27/25 A2983 RMK T02700250 IEM_DS3505
ZGOW,2010-08-16 18:00,ZGOW 161800Z AUTO 22002KT 12SM 28/25 RMK SLP099 T02750246 57012 IEM_DS3505
ZGOW,2010-08-16 19:00,ZGOW 161900Z AUTO 24002KT 3SM 27/24 A2983 RMK T02700240 IEM_DS3505
ZGOW,2010-08-16 21:00,ZGOW 162100Z AUTO 25002KT 12SM 27/24 A2980 RMK 70005 SLP094 T02700239 57005 IEM_DS3505
ZGOW,2010-08-16 22:00,ZGOW 162200Z AUTO 29002KT 6SM 27/24 A2983 RMK T02700240 IEM_DS3505
ZGOW,2010-08-16 23:00,ZGOW 162300Z AUTO 00000KT 6SM 28/24 A2983 RMK T02800240 IEM_DS3505
ZGOW,2010-08-17 00:00,ZGOW 170000Z AUTO 27004KT 12SM 30/24 A2985 RMK 70005 SLP109 T02950241 52015 IEM_DS3505
ZGOW,2010-08-17 01:00,ZGOW 170100Z AUTO 29002KT 7SM 30/24 A2985 RMK T03000240 IEM_DS3505
ZGOW,2010-08-17 02:00,ZGOW 170200Z AUTO 26004KT 7SM 32/24 A2985 RMK T03200240 IEM_DS3505
ZGOW,2010-08-17 03:00,ZGOW 170300Z AUTO 27006KT 17SM 32/24 A2985 RMK SLP108 T03210236 57001 IEM_DS3505
ZGOW,2010-08-17 04:00,ZGOW 170400Z AUTO 16006KT 7SM 32/25 A2983 RMK T03200250 IEM_DS3505
ZGOW,2010-08-17 05:00,ZGOW 170500Z AUTO 17010KT 7SM 33/25 A2983 RMK T03300250 IEM_DS3505
ZGOW,2010-08-17 06:00,ZGOW 170600Z AUTO 14006KT 19SM 33/25 A2980 RMK SLP092 T03280246 57016 IEM_DS3505
ZGOW,2010-08-17 07:00,ZGOW 170700Z AUTO 16012KT 7SM 32/24 A2980 RMK T03200240 IEM_DS3505
ZGOW,2010-08-17 08:00,ZGOW 170800Z AUTO 17010KT 7SM 32/25 A2977 RMK T03200250 IEM_DS3505
ZGOW,2010-08-17 09:00,ZGOW 170900Z AUTO 18008KT 14SM 31/24 A2977 RMK SLP081 T03120241 57011 IEM_DS3505
ZGOW,2010-08-17 10:00,ZGOW 171000Z AUTO 18010KT 6SM 31/23 A2980 RMK T03100230 IEM_DS3505
ZGOW,2010-08-17 11:00,ZGOW 171100Z AUTO 18008KT 7SM 30/23 A2983 RMK T03000230 IEM_DS3505
ZGOW,2010-08-17 12:00,ZGOW 171200Z AUTO 18002KT 12SM 29/24 A2985 RMK SLP108 T02930242 52027 IEM_DS3505
ZGOW,2010-08-17 13:00,ZGOW 171300Z AUTO 18006KT 7SM 29/24 A2988 RMK T02900240 IEM_DS3505
ZGOW,2010-08-17 14:00,ZGOW 171400Z AUTO 18002KT 6SM 29/24 A2988 RMK T02900240 IEM_DS3505
ZGOW,2010-08-17 15:00,ZGOW 171500Z AUTO 00000KT 12SM 29/25 A2988 RMK SLP122 T02880248 52014 IEM_DS3505
ZGOW,2010-08-17 16:00,ZGOW 171600Z AUTO 00000KT 6SM 28/24 A2988 RMK T02800240 IEM_DS3505
ZGOW,2010-08-17 17:00,ZGOW 171700Z AUTO 08002KT 6SM 27/25 A2988 RMK T02700250 IEM_DS3505
ZGOW,2010-08-17 18:00,ZGOW 171800Z AUTO 00000KT 12SM 28/24 A2985 RMK SLP114 T02810245 57008 IEM_DS3505
ZGOW,2010-08-17 21:00,ZGOW 172100Z AUTO 07002KT 7SM 28/26 A2988 RMK SLP115 T02790255 52001 IEM_DS3505
ZGOW,2010-08-17 22:00,ZGOW 172200Z AUTO 12017G29KT 1 1/2SM 26/23 A2988 RMK T02600230 IEM_DS3505
ZGOW,2010-08-17 23:00,ZGOW 172300Z AUTO 18006KT 5SM 25/23 A2991 RMK T02500230 IEM_DS3505
ZGOW,2010-08-18 00:00,ZGOW 180000Z AUTO 14002KT 9SM 26/24 A2991 RMK 60012 70013 SLP129 T02630238 52014 IEM_DS3505
ZGOW,2010-08-18 01:00,ZGOW 180100Z AUTO 24002KT 7SM 28/25 A2991 RMK T02800250 IEM_DS3505
ZGOW,2010-08-18 02:00,ZGOW 180200Z AUTO 28004KT 7SM 30/24 A2991 RMK T03000240 IEM_DS3505
ZGOW,2010-08-18 03:00,ZGOW 180300Z AUTO 20002KT 16SM 30/25 A2991 RMK SLP133 T02970248 52004 IEM_DS3505
ZGOW,2010-08-18 04:00,ZGOW 180400Z AUTO 13006KT 7SM 32/23 A2991 RMK T03200230 IEM_DS3505
ZGOW,2010-08-18 05:00,ZGOW 180500Z AUTO 12006KT 7SM 33/24 A2991 RMK T03300240 IEM_DS3505
ZGOW,2010-08-18 06:00,ZGOW 180600Z AUTO 14006KT 14SM 33/26 A2988 RMK 60008 SLP120 T03280256 57013 IEM_DS3505
ZGOW,2010-08-18 07:00,ZGOW 180700Z AUTO 13008KT 7SM 31/24 A2988 RMK T03100240 IEM_DS3505
ZGOW,2010-08-18 08:00,ZGOW 180800Z AUTO 17004KT 7SM 31/24 A2988 RMK T03100240 IEM_DS3505
ZGOW,2010-08-18 09:00,ZGOW 180900Z AUTO 14004KT 11SM 31/25 A2985 RMK SLP112 T03070246 57008 IEM_DS3505
ZGOW,2010-08-18 10:00,ZGOW 181000Z AUTO 16002KT 7SM 30/24 A2985 RMK T03000240 IEM_DS3505
ZGOW,2010-08-18 11:00,ZGOW 181100Z AUTO 12002KT 7SM 29/24 A2988 RMK T02900240 IEM_DS3505
ZGOW,2010-08-18 12:00,ZGOW 181200Z AUTO 11004KT 11SM 30/25 A2988 RMK SLP122 T02950246 52010 IEM_DS3505
ZGOW,2010-08-18 13:00,ZGOW 181300Z AUTO 08002KT 7SM 29/24 A2991 RMK T02900240 IEM_DS3505
ZGOW,2010-08-18 14:00,ZGOW 181400Z AUTO 12002KT 7SM 28/25 A2994 RMK T02800250 IEM_DS3505
ZGOW,2010-08-18 15:00,ZGOW 181500Z AUTO 00000KT 11SM 29/25 A2994 RMK SLP142 T02920250 52020 IEM_DS3505
ZGOW,2010-08-18 16:00,ZGOW 181600Z AUTO 08002KT 7SM 28/25 A2994 RMK T02800250 IEM_DS3505
ZGOW,2010-08-18 17:00,ZGOW 181700Z AUTO 00000KT 7SM 28/25 A2994 RMK T02800250 IEM_DS3505
ZGOW,2010-08-18 18:00,ZGOW 181800Z AUTO 00000KT 7SM 28/25 RMK SLP131 T02800248 57011 IEM_DS3505
ZGOW,2010-08-18 19:00,ZGOW 181900Z AUTO 06002KT 2SM 28/25 A2991 RMK T02800250 IEM_DS3505
ZGOW,2010-08-18 21:00,ZGOW 182100Z AUTO 00000KT 7SM 27/25 A2991 RMK 70019 SLP126 T02740248 57005 IEM_DS3505
ZGOW,2010-08-18 22:00,ZGOW 182200Z AUTO 00000KT 5SM 27/22 A2991 RMK T02700220 IEM_DS3505
ZGOW,2010-08-18 23:00,ZGOW 182300Z AUTO 36004KT 5SM 28/25 A2994 RMK T02800250 IEM_DS3505
ZGOW,2010-08-19 00:00,ZGOW 190000Z AUTO 00000KT 11SM 29/25 A2994 RMK 60075 70082 SLP139 T02880250 52013 IEM_DS3505
ZGOW,2010-08-19 01:00,ZGOW 190100Z AUTO 05006KT 7SM 30/25 A2994 RMK T03000250 IEM_DS3505
ZGOW,2010-08-19 02:00,ZGOW 190200Z AUTO 13004KT 7SM 30/25 A2997 RMK T03000250 IEM_DS3505
ZGOW,2010-08-19 03:00,ZGOW 190300Z AUTO 22002KT 12SM 30/24 A2997 RMK SLP148 T03040245 52009 IEM_DS3505
ZGOW,2010-08-19 04:00,ZGOW 190400Z AUTO 14004KT 7SM 32/25 A2994 RMK T03200250 IEM_DS3505
ZGOW,2010-08-19 05:00,ZGOW 190500Z AUTO 11006KT 7SM 32/25 A2994 RMK T03200250 IEM_DS3505
ZGOW,2010-08-19 06:00,ZGOW 190600Z AUTO 14006KT 12SM 32/25 A2991 RMK SLP126 T03240250 57022 IEM_DS3505
ZGOW,2010-08-19 07:00,ZGOW 190700Z AUTO 15008KT 7SM 32/25 A2988 RMK T03200250 IEM_DS3505
ZGOW,2010-08-19 08:00,ZGOW 190800Z AUTO 13008KT 7SM 31/25 A2988 RMK T03100250 IEM_DS3505
ZGOW,2010-08-19 09:00,ZGOW 190900Z AUTO 16002KT 12SM 30/25 A2988 RMK SLP119 T03000249 57007 IEM_DS3505
ZGOW,2010-08-19 10:00,ZGOW 191000Z AUTO 12004KT 7SM 29/24 A2991 RMK T02900240 IEM_DS3505
ZGOW,2010-08-19 11:00,ZGOW 191100Z AUTO 08004KT 7SM 29/25 A2991 RMK T02900250 IEM_DS3505
ZGOW,2010-08-19 12:00,ZGOW 191200Z AUTO 04002KT 10SM 30/25 A2994 RMK SLP138 T02950246 52019 IEM_DS3505
ZGOW,2010-08-19 13:00,ZGOW 191300Z AUTO 09004KT 7SM 29/24 A2994 RMK T02900240 IEM_DS3505
ZGOW,2010-08-19 14:00,ZGOW 191400Z AUTO 05006KT 7SM 28/24 A2997 RMK T02800240 IEM_DS3505
ZGOW,2010-08-19 15:00,ZGOW 191500Z AUTO 02002KT 9SM 28/25 A2997 RMK SLP149 T02840246 52011 IEM_DS3505
ZGOW,2010-08-19 16:00,ZGOW 191600Z AUTO 05004KT 7SM 28/23 A2997 RMK T02800230 IEM_DS3505
ZGOW,2010-08-19 17:00,ZGOW 191700Z 33003MPS 9999 SCT033 28/23 Q1014 NOSIG
ZGOW,2010-08-19 18:00,ZGOW 191800Z AUTO 07002KT 9SM 28/24 A2994 RMK SLP136 T02780240 57013 IEM_DS3505
ZGOW,2010-08-19 19:00,ZGOW 191900Z AUTO 32004KT 7SM 27/24 A2991 RMK T02700240 IEM_DS3505
ZGOW,2010-08-19 20:00,ZGOW 192000Z AUTO 33004KT 7SM 27/24 A2991 RMK T02700240 IEM_DS3505
ZGOW,2010-08-19 21:00,ZGOW 192100Z AUTO 04002KT 9SM 27/24 A2991 RMK 70076 SLP131 T02710236 57005 IEM_DS3505
ZGOW,2010-08-19 22:00,ZGOW 192200Z AUTO 30004KT 7SM 27/24 A2991 RMK T02700240 IEM_DS3505
ZGOW,2010-08-19 23:00,ZGOW 192300Z AUTO 33006KT 6SM 27/23 A2994 RMK T02700230 IEM_DS3505
ZGOW,2010-08-20 00:00,ZGOW 200000Z AUTO 07002KT 9SM 30/24 A2994 RMK SLP140 T02990238 52009 IEM_DS3505
ZGOW,2010-08-20 01:00,ZGOW 200100Z AUTO 35004KT 6SM 31/24 A2994 RMK T03100240 IEM_DS3505
ZGOW,2010-08-20 02:00,ZGOW 200200Z AUTO 07004KT 7SM 33/23 A2994 RMK T03300230 IEM_DS3505
ZGOW,2010-08-20 03:00,ZGOW 200300Z AUTO 09004KT 9SM 33/23 A2994 RMK SLP135 T03260227 57005 IEM_DS3505
ZGOW,2010-08-20 04:00,ZGOW 200400Z AUTO 07008KT 7SM 34/23 A2991 RMK T03400230 IEM_DS3505
ZGOW,2010-08-20 05:00,ZGOW 200500Z AUTO 13008KT 7SM 33/24 A2988 RMK T03300240 IEM_DS3505
ZGOW,2010-08-20 06:00,ZGOW 200600Z AUTO 14006KT 11SM 32/24 A2985 RMK SLP107 T03250243 57028 IEM_DS3505
ZGOW,2010-08-20 07:00,ZGOW 200700Z AUTO 12010KT 7SM 32/23 A2983 RMK T03200230 IEM_DS3505
ZGOW,2010-08-20 08:00,ZGOW 200800Z AUTO 12010KT 7SM 31/24 A2983 RMK T03100240 IEM_DS3505
ZGOW,2010-08-20 09:00,ZGOW 200900Z AUTO 11006KT 10SM 32/25 A2983 RMK SLP098 T03150249 57009 IEM_DS3505
ZGOW,2010-08-20 10:00,ZGOW 201000Z AUTO 09010KT 7SM 30/24 A2985 RMK T03000240 IEM_DS3505
ZGOW,2010-08-20 11:00,ZGOW 201100Z AUTO 09012KT 7SM 29/24 A2985 RMK T02900240 IEM_DS3505
ZGOW,2010-08-20 12:00,ZGOW 201200Z AUTO 09006KT 9SM 29/24 A2988 RMK SLP118 T02940238 52020 IEM_DS3505
ZGOW,2010-08-20 13:00,ZGOW 201300Z AUTO 09010KT 7SM 29/24 A2988 RMK T02900240 IEM_DS3505
ZGOW,2010-08-20 14:00,ZGOW 201400Z AUTO 08006KT 7SM 28/24 A2991 RMK T02800240 IEM_DS3505
ZGOW,2010-08-20 15:00,ZGOW 201500Z AUTO 07002KT 10SM 29/25 A2991 RMK SLP130 T02880246 52012 IEM_DS3505
ZGOW,2010-08-20 16:00,ZGOW 201600Z AUTO 08004KT 7SM 27/25 A2988 RMK T02700250 IEM_DS3505
ZGOW,2010-08-20 17:00,ZGOW 201700Z AUTO 06004KT 7SM 27/25 A2985 RMK T02700250 IEM_DS3505
ZGOW,2010-08-20 18:00,ZGOW 201800Z AUTO 29004KT 8SM 27/25 A2985 RMK SLP108 T02740248 57022 IEM_DS3505
ZGOW,2010-08-20 19:00,ZGOW 201900Z AUTO 31006KT 5SM 27/24 A2983 RMK T02700240 IEM_DS3505
ZGOW,2010-08-20 21:00,ZGOW 202100Z AUTO 00000KT 6SM 27/24 A2983 RMK SLP101 T02660244 57007 IEM_DS3505
ZGOW,2010-08-20 22:00,ZGOW 202200Z AUTO 22002KT 4SM 26/24 A2983 RMK T02600240 IEM_DS3505
ZGOW,2010-08-20 23:00,ZGOW 202300Z AUTO 32006KT 4SM 27/24 A2983 RMK T02700240 IEM_DS3505
ZGOW,2010-08-21 00:00,ZGOW 210000Z AUTO 00000KT 7SM 29/24 A2985 RMK SLP108 T02920245 52007 IEM_DS3505
ZGOW,2010-08-21 01:00,ZGOW 210100Z AUTO 30004KT 6SM 30/24 A2985 RMK T03000240 IEM_DS3505
ZGOW,2010-08-21 02:00,ZGOW 210200Z AUTO 04010G21KT 7SM 32/22 A2985 RMK T03200220 IEM_DS3505
ZGOW,2010-08-21 03:00,ZGOW 210300Z AUTO 07006KT 9SM 32/22 A2985 RMK SLP107 T03240222 57001 IEM_DS3505
ZGOW,2010-08-21 04:00,ZGOW 210400Z AUTO 07010KT 7SM 34/23 A2983 RMK T03400230 IEM_DS3505
ZGOW,2010-08-21 05:00,ZGOW 210500Z AUTO 05010KT 7SM 34/23 A2983 RMK T03400230 IEM_DS3505
ZGOW,2010-08-21 06:00,ZGOW 210600Z AUTO 11006KT 9SM 33/23 A2980 RMK SLP086 T03310228 57021 IEM_DS3505
ZGOW,2010-08-21 07:00,ZGOW 210700Z AUTO 12008KT 7SM 32/24 A2977 RMK T03200240 IEM_DS3505
ZGOW,2010-08-21 08:00,ZGOW 210800Z AUTO 08010KT 7SM 33/24 A2977 RMK T03300240 IEM_DS3505
ZGOW,2010-08-21 09:00,ZGOW 210900Z AUTO 11006KT 9SM 31/24 A2977 RMK SLP077 T03140245 57009 IEM_DS3505
ZGOW,2010-08-21 10:00,ZGOW 211000Z AUTO 10010KT 6SM 30/24 A2977 RMK T03000240 IEM_DS3505
ZGOW,2010-08-21 11:00,ZGOW 211100Z AUTO 09010KT 6SM 29/24 A2977 RMK T02900240 IEM_DS3505
ZGOW,2010-08-21 12:00,ZGOW 211200Z AUTO 07004KT 9SM 30/24 A2980 RMK SLP088 T02950241 52011 IEM_DS3505
ZGOW,2010-08-21 13:00,ZGOW 211300Z AUTO 09008KT 6SM 28/24 A2980 RMK T02800240 IEM_DS3505
ZGOW,2010-08-21 14:00,ZGOW 211400Z AUTO 09008KT 6SM 28/25 A2983 RMK T02800250 IEM_DS3505
ZGOW,2010-08-21 15:00,ZGOW 211500Z AUTO 07008KT 9SM 29/25 A2983 RMK SLP099 T02880248 52011 IEM_DS3505
ZGOW,2010-08-21 16:00,ZGOW 211600Z AUTO 08010KT 6SM 28/24 A2983 RMK T02800240 IEM_DS3505
ZGOW,2010-08-21 17:00,ZGOW 211700Z AUTO 09008KT 6SM 28/24 A2980 RMK T02800240 IEM_DS3505
ZGOW,2010-08-21 18:00,ZGOW 211800Z AUTO 07006KT 9SM 28/24 A2980 RMK SLP088 T02850241 57011 IEM_DS3505
ZGOW,2010-08-21 19:00,ZGOW 211900Z AUTO 06004KT 6SM 27/24 A2980 RMK T02700240 IEM_DS3505
ZGOW,2010-08-21 20:00,ZGOW 212000Z AUTO 04002KT 6SM 26/24 A2980 RMK T02600240 IEM_DS3505
ZGOW,2010-08-21 21:00,ZGOW 212100Z AUTO 00000KT 8SM 27/25 A2980 RMK SLP084 T02740250 57004 IEM_DS3505
ZGOW,2010-08-21 22:00,ZGOW 212200Z AUTO 34004KT 3SM 27/25 A2980 RMK T02700250 IEM_DS3505
ZGOW,2010-08-21 23:00,ZGOW 212300Z AUTO 33002KT 4SM 28/25 A2980 RMK T02800250 IEM_DS3505
ZGOW,2010-08-22 00:00,ZGOW 220000Z AUTO 09004KT 6SM 30/25 A2980 RMK SLP096 T03000253 52012 IEM_DS3505
ZGOW,2010-08-22 01:00,ZGOW 220100Z AUTO 06010KT 7SM 32/24 A2980 RMK T03200240 IEM_DS3505
ZGOW,2010-08-22 02:00,ZGOW 220200Z AUTO 08012KT 7SM 32/23 A2983 RMK T03200230 IEM_DS3505
ZGOW,2010-08-22 03:00,ZGOW 220300Z AUTO 09008KT 11SM 32/22 A2983 RMK SLP097 T03180225 52001 IEM_DS3505
ZGOW,2010-08-22 04:00,ZGOW 220400Z AUTO 09014KT 7SM 33/23 A2983 RMK T03300230 IEM_DS3505
ZGOW,2010-08-22 05:00,ZGOW 220500Z AUTO 08014KT 7SM 34/22 A2980 RMK T03400220 IEM_DS3505
ZGOW,2010-08-22 06:00,ZGOW 220600Z AUTO 11008KT 11SM 32/23 A2980 RMK SLP085 T03250226 57012 IEM_DS3505
ZGOW,2010-08-22 07:00,ZGOW 220700Z AUTO 12012KT 7SM 31/24 A2977 RMK T03100240 IEM_DS3505
ZGOW,2010-08-22 08:00,ZGOW 220800Z AUTO 11012KT 7SM 31/24 A2977 RMK T03100240 IEM_DS3505
ZGOW,2010-08-22 09:00,ZGOW 220900Z AUTO 11006KT 11SM 31/24 A2974 RMK SLP070 T03130237 57015 IEM_DS3505
ZGOW,2010-08-22 10:00,ZGOW 221000Z AUTO 11008KT 7SM 30/24 A2974 RMK T03000240 IEM_DS3505
ZGOW,2010-08-22 11:00,ZGOW 221100Z AUTO 14004KT 7SM 29/24 A2977 RMK T02900240 IEM_DS3505
ZGOW,2010-08-22 12:00,ZGOW 221200Z AUTO 09006KT 9SM 29/25 A2980 RMK SLP088 T02910253 52018 IEM_DS3505
ZGOW,2010-08-22 13:00,ZGOW 221300Z AUTO 07006KT 7SM 29/25 A2980 RMK T02900250 IEM_DS3505
ZGOW,2010-08-22 14:00,ZGOW 221400Z AUTO 09004KT 7SM 28/25 A2983 RMK T02800250 IEM_DS3505
ZGOW,2010-08-22 15:00,ZGOW 221500Z AUTO 07004KT 9SM 29/25 A2983 RMK SLP103 T02860254 52015 IEM_DS3505
ZGOW,2010-08-22 16:00,ZGOW 221600Z AUTO 08008KT 7SM 28/25 A2983 RMK T02800250 IEM_DS3505
ZGOW,2010-08-22 17:00,ZGOW 221700Z AUTO 10004KT 7SM 28/25 A2983 RMK T02800250 IEM_DS3505
ZGOW,2010-08-22 18:00,ZGOW 221800Z AUTO 07004KT 9SM 28/25 A2980 RMK SLP093 T02830253 57010 IEM_DS3505
ZGOW,2010-08-22 19:00,ZGOW 221900Z AUTO 08010KT 7SM 28/25 A2980 RMK T02800250 IEM_DS3505
ZGOW,2010-08-22 20:00,ZGOW 222000Z AUTO 09006KT 7SM 28/25 A2977 RMK T02800250 IEM_DS3505
ZGOW,2010-08-22 21:00,ZGOW 222100Z AUTO 09004KT 11SM 28/25 A2980 RMK SLP085 T02810253 57008 IEM_DS3505
ZGOW,2010-08-22 22:00,ZGOW 222200Z AUTO 09004KT 7SM 27/25 A2983 RMK T02700250 IEM_DS3505
ZGOW,2010-08-22 23:00,ZGOW 222300Z AUTO 10004KT 7SM 28/25 A2983 RMK T02800250 IEM_DS3505
ZGOW,2010-08-23 00:00,ZGOW 230000Z AUTO 07004KT 9SM 29/25 A2985 RMK SLP109 T02860254 52024 IEM_DS3505
ZGOW,2010-08-23 01:00,ZGOW 230100Z AUTO 08006KT 7SM 29/25 A2985 RMK T02900250 IEM_DS3505
ZGOW,2010-08-23 02:00,ZGOW 230200Z AUTO 06008KT 7SM 29/25 A2983 RMK T02900250 IEM_DS3505
ZGOW,2010-08-23 03:00,ZGOW 230300Z AUTO 09004KT 9SM 30/25 A2983 RMK SLP096 T03030251 57013 IEM_DS3505
ZGOW,2010-08-23 04:00,ZGOW 230400Z AUTO 12008KT 7SM 31/25 A2980 RMK T03100250 IEM_DS3505
ZGOW,2010-08-23 05:00,ZGOW 230500Z AUTO 12004KT 7SM 32/26 A2980 RMK T03200260 IEM_DS3505
ZGOW,2010-08-23 06:00,ZGOW 230600Z AUTO 16006KT 9SM 32/25 A2980 RMK SLP085 T03150249 57011 IEM_DS3505
ZGOW,2010-08-23 07:00,ZGOW 230700Z AUTO 14010KT 7SM 32/25 A2977 RMK T03200250 IEM_DS3505
ZGOW,2010-08-23 08:00,ZGOW 230800Z AUTO 14008KT 7SM 31/25 A2977 RMK T03100250 IEM_DS3505
ZGOW,2010-08-23 09:00,ZGOW 230900Z AUTO 16006KT 9SM 31/26 A2977 RMK SLP080 T03060257 57005 IEM_DS3505
ZGOW,2010-08-23 10:00,ZGOW 231000Z AUTO 16006KT 7SM 29/25 A2977 RMK T02900250 IEM_DS3505
ZGOW,2010-08-23 11:00,ZGOW 231100Z AUTO 16004KT 7SM 29/25 A2980 RMK T02900250 IEM_DS3505
ZGOW,2010-08-23 12:00,ZGOW 231200Z AUTO 18004KT 9SM 29/25 A2983 RMK SLP096 T02860248 52016 IEM_DS3505
ZGOW,2010-08-23 13:00,ZGOW 231300Z AUTO 20006KT 7SM 29/25 A2985 RMK T02900250 IEM_DS3505
ZGOW,2010-08-23 14:00,ZGOW 231400Z AUTO 15002KT 7SM 28/25 A2985 RMK T02800250 IEM_DS3505
ZGOW,2010-08-23 15:00,ZGOW 231500Z AUTO 00000KT 9SM 28/25 A2985 RMK SLP113 T02830251 52017 IEM_DS3505
ZGOW,2010-08-23 16:00,ZGOW 231600Z AUTO 14002KT 7SM 28/25 A2985 RMK T02800250 IEM_DS3505
ZGOW,2010-08-23 17:00,ZGOW 231700Z AUTO 16002KT 7SM 28/25 A2985 RMK T02800250 IEM_DS3505
ZGOW,2010-08-23 18:00,ZGOW 231800Z AUTO 22002KT 9SM 28/25 A2983 RMK SLP105 T02800250 57008 IEM_DS3505
ZGOW,2010-08-23 19:00,ZGOW 231900Z AUTO 25004KT 7SM 28/25 A2983 RMK T02800250 IEM_DS3505
ZGOW,2010-08-23 20:00,ZGOW 232000Z AUTO 35004KT 7SM 27/23 A2985 RMK T02700230 IEM_DS3505
ZGOW,2010-08-23 21:00,ZGOW 232100Z AUTO 00000KT 8SM 26/24 A2985 RMK SLP106 T02630238 52001 IEM_DS3505
ZGOW,2010-08-23 22:00,ZGOW 232200Z AUTO 35004KT 7SM 26/24 A2985 RMK T02600240 IEM_DS3505
ZGOW,2010-08-23 23:00,ZGOW 232300Z AUTO 02002KT 7SM 26/24 A2985 RMK T02600240 IEM_DS3505
ZGOW,2010-08-24 00:00,ZGOW 240000Z AUTO 09002KT 7SM 27/24 A2985 RMK 60002 70002 SLP110 T02740245 52004 IEM_DS3505
ZGOW,2010-08-24 01:00,ZGOW 240100Z AUTO 07004KT 7SM 29/25 A2985 RMK T02900250 IEM_DS3505
ZGOW,2010-08-24 02:00,ZGOW 240200Z AUTO 11002KT 7SM 30/25 A2985 RMK T03000250 IEM_DS3505
ZGOW,2010-08-24 03:00,ZGOW 240300Z AUTO 20004KT 9SM 31/24 A2985 RMK SLP115 T03100236 52005 IEM_DS3505
ZGOW,2010-08-24 04:00,ZGOW 240400Z AUTO 17006KT 7SM 32/23 A2985 RMK T03200230 IEM_DS3505
ZGOW,2010-08-24 05:00,ZGOW 240500Z AUTO 14006KT 7SM 31/24 A2983 RMK T03100240 IEM_DS3505
ZGOW,2010-08-24 06:00,ZGOW 240600Z AUTO 18002KT 9SM 31/24 A2980 RMK SLP090 T03130239 57025 IEM_DS3505
ZGOW,2010-08-24 07:00,ZGOW 240700Z AUTO 14008KT 7SM 31/25 A2980 RMK T03100250 IEM_DS3505
ZGOW,2010-08-24 08:00,ZGOW 240800Z AUTO 16008KT 7SM 31/23 A2980 RMK T03100230 IEM_DS3505
ZGOW,2010-08-24 09:00,ZGOW 240900Z AUTO 22006KT 11SM 31/25 A2980 RMK SLP090 T03060250 54000 IEM_DS3505
ZGOW,2010-08-24 10:00,ZGOW 241000Z AUTO 20006KT 7SM 30/24 A2983 RMK T03000240 IEM_DS3505
ZGOW,2010-08-24 11:00,ZGOW 241100Z AUTO 21008KT 7SM 29/24 A2983 RMK T02900240 IEM_DS3505
ZGOW,2010-08-24 12:00,ZGOW 241200Z AUTO 20002KT 9SM 29/25 A2985 RMK SLP110 T02880252 52020 IEM_DS3505
ZGOW,2010-08-24 13:00,ZGOW 241300Z AUTO 26002KT 7SM 29/24 A2985 RMK T02900240 IEM_DS3505
ZGOW,2010-08-24 14:00,ZGOW 241400Z AUTO 26004KT 7SM 29/24 A2985 RMK T02900240 IEM_DS3505
ZGOW,2010-08-24 15:00,ZGOW 241500Z AUTO 00000KT 9SM 28/25 A2988 RMK SLP115 T02800250 52005 IEM_DS3505
ZGOW,2010-08-24 16:00,ZGOW 241600Z AUTO 32002KT 7SM 28/24 A2985 RMK T02800240 IEM_DS3505
ZGOW,2010-08-24 17:00,ZGOW 241700Z AUTO 31002KT 7SM 28/24 A2985 RMK T02800240 IEM_DS3505
ZGOW,2010-08-24 18:00,ZGOW 241800Z AUTO 00000KT 9SM 28/25 A2985 RMK 60000 SLP107 T02790249 57008 IEM_DS3505
ZGOW,2010-08-24 19:00,ZGOW 241900Z AUTO 32004KT 6SM 27/24 A2985 RMK T02700240 IEM_DS3505
ZGOW,2010-08-24 20:00,ZGOW 242000Z AUTO 32004KT 7SM 27/24 A2983 RMK T02700240 IEM_DS3505
ZGOW,2010-08-24 21:00,ZGOW 242100Z AUTO 00000KT 7SM 27/24 A2983 RMK 70002 SLP101 T02700245 57006 IEM_DS3505
ZGOW,2010-08-24 22:00,ZGOW 242200Z AUTO 31002KT 4SM 26/24 A2983 RMK T02600240 IEM_DS3505
ZGOW,2010-08-24 23:00,ZGOW 242300Z AUTO 31002KT 4SM 27/24 A2985 RMK T02700240 IEM_DS3505
ZGOW,2010-08-25 00:00,ZGOW 250000Z AUTO 27004KT 6SM 28/25 A2985 RMK 70000 SLP111 T02810251 52010 IEM_DS3505
ZGOW,2010-08-25 01:00,ZGOW 250100Z AUTO 30004KT 7SM 30/24 A2985 RMK T03000240 IEM_DS3505
ZGOW,2010-08-25 02:00,ZGOW 250200Z AUTO 24004KT 7SM 31/24 A2988 RMK T03100240 IEM_DS3505
ZGOW,2010-08-25 03:00,ZGOW 250300Z AUTO 25006KT 9SM 32/24 A2985 RMK SLP112 T03170235 52001 IEM_DS3505
ZGOW,2010-08-25 04:00,ZGOW 250400Z AUTO 12006KT 7SM 32/24 A2983 RMK T03200240 IEM_DS3505
ZGOW,2010-08-25 05:00,ZGOW 250500Z AUTO 15006KT 7SM 33/24 A2983 RMK T03300240 IEM_DS3505
ZGOW,2010-08-25 06:00,ZGOW 250600Z AUTO 25004KT 11SM 34/23 A2980 RMK SLP088 T03400228 57024 IEM_DS3505
ZGOW,2010-08-25 07:00,ZGOW 250700Z AUTO 13008KT 7SM 31/25 A2977 RMK T03100250 IEM_DS3505
ZGOW,2010-08-25 08:00,ZGOW 250800Z AUTO 15006KT 7SM 31/25 A2977 RMK T03100250 IEM_DS3505
ZGOW,2010-08-25 09:00,ZGOW 250900Z AUTO 14006KT 11SM 31/24 A2977 RMK SLP077 T03140243 57011 IEM_DS3505
ZGOW,2010-08-25 10:00,ZGOW 251000Z AUTO 16006KT 7SM 30/24 A2977 RMK T03000240 IEM_DS3505
ZGOW,2010-08-25 11:00,ZGOW 251100Z AUTO 19004KT 7SM 30/25 A2980 RMK T03000250 IEM_DS3505
ZGOW,2010-08-25 12:00,ZGOW 251200Z AUTO 22004KT 11SM 29/25 A2980 RMK SLP092 T02930251 52015 IEM_DS3505
ZGOW,2010-08-25 13:00,ZGOW 251300Z AUTO 22002KT 7SM 29/25 A2983 RMK T02900250 IEM_DS3505
ZGOW,2010-08-25 14:00,ZGOW 251400Z AUTO 27004KT 7SM 29/24 A2983 RMK T02900240 IEM_DS3505
ZGOW,2010-08-25 15:00,ZGOW 251500Z AUTO 27002KT 11SM 28/24 A2983 RMK SLP096 T02840244 52004 IEM_DS3505
ZGOW,2010-08-25 16:00,ZGOW 251600Z AUTO 29002KT 7SM 28/24 A2983 RMK T02800240 IEM_DS3505
ZGOW,2010-08-25 17:00,ZGOW 251700Z AUTO 31002KT 7SM 28/25 A2983 RMK T02800250 IEM_DS3505
ZGOW,2010-08-25 18:00,ZGOW 251800Z AUTO 09002KT 6SM 28/24 RMK SLP091 T02800244 57005 IEM_DS3505
ZGOW,2010-08-25 19:00,ZGOW 251900Z AUTO 32004KT 6SM 27/25 A2977 RMK T02700250 IEM_DS3505
ZGOW,2010-08-25 20:00,ZGOW 252000Z AUTO 32002KT 6SM 27/24 A2980 RMK T02700240 IEM_DS3505
ZGOW,2010-08-25 21:00,ZGOW 252100Z AUTO 00000KT 6SM 27/24 A2977 RMK SLP083 T02660241 57008 IEM_DS3505
ZGOW,2010-08-25 22:00,ZGOW 252200Z AUTO 33002KT 4SM 27/24 A2980 RMK T02700240 IEM_DS3505
ZGOW,2010-08-25 23:00,ZGOW 252300Z AUTO 00000KT 4SM 28/25 A2980 RMK T02800250 IEM_DS3505
ZGOW,2010-08-26 00:00,ZGOW 260000Z AUTO 00000KT 6SM 29/24 A2980 RMK SLP093 T02870243 52010 IEM_DS3505
ZGOW,2010-08-26 01:00,ZGOW 260100Z AUTO 07002KT 4SM 31/25 A2980 RMK T03100250 IEM_DS3505
ZGOW,2010-08-26 02:00,ZGOW 260200Z AUTO 08004KT 4SM 32/25 A2980 RMK T03200250 IEM_DS3505
ZGOW,2010-08-26 03:00,ZGOW 260300Z AUTO 07002KT 7SM 31/25 A2980 RMK SLP093 T03080249 54000 IEM_DS3505
ZGOW,2010-08-26 04:00,ZGOW 260400Z AUTO 12006KT 5SM 33/25 A2980 RMK T03300250 IEM_DS3505
ZGOW,2010-08-26 05:00,ZGOW 260500Z AUTO 13008KT 5SM 33/25 A2980 RMK T03300250 IEM_DS3505
ZGOW,2010-08-26 06:00,ZGOW 260600Z AUTO 14006KT 9SM 33/24 A2977 RMK SLP074 T03260244 57019 IEM_DS3505
ZGOW,2010-08-26 07:00,ZGOW 260700Z AUTO 16010KT 7SM 32/23 A2974 RMK T03200230 IEM_DS3505
ZGOW,2010-08-26 08:00,ZGOW 260800Z AUTO 16010KT 7SM 32/23 A2974 RMK T03200230 IEM_DS3505
ZGOW,2010-08-26 09:00,ZGOW 260900Z AUTO 11006KT 9SM 31/24 A2974 RMK SLP068 T03060245 57006 IEM_DS3505
ZGOW,2010-08-26 10:00,ZGOW 261000Z AUTO 16006KT 5SM 30/25 A2977 RMK T03000250 IEM_DS3505
ZGOW,2010-08-26 11:00,ZGOW 261100Z AUTO 17004KT 5SM 29/25 A2977 RMK T02900250 IEM_DS3505
ZGOW,2010-08-26 12:00,ZGOW 261200Z AUTO 18002KT 11SM 29/24 A2980 RMK SLP087 T02920241 52019 IEM_DS3505
ZGOW,2010-08-26 13:00,ZGOW 261300Z AUTO 16004KT 6SM 29/24 A2980 RMK T02900240 IEM_DS3505
ZGOW,2010-08-26 14:00,ZGOW 261400Z AUTO 18002KT 6SM 29/25 A2980 RMK T02900250 IEM_DS3505
ZGOW,2010-08-26 15:00,ZGOW 261500Z AUTO 22002KT 11SM 28/24 A2983 RMK SLP095 T02840244 52008 IEM_DS3505
ZGOW,2010-08-26 16:00,ZGOW 261600Z AUTO 32002KT 4SM 28/24 A2980 RMK T02800240 IEM_DS3505
ZGOW,2010-08-26 17:00,ZGOW 261700Z AUTO 28002KT 4SM 28/24 A2977 RMK T02800240 IEM_DS3505
ZGOW,2010-08-26 18:00,ZGOW 261800Z AUTO 09002KT 7SM 28/24 A2977 RMK SLP078 T02750239 57017 IEM_DS3505
ZGOW,2010-08-26 19:00,ZGOW 261900Z AUTO 32004KT 4SM 27/24 A2977 RMK T02700240 IEM_DS3505
ZGOW,2010-08-26 20:00,ZGOW 262000Z AUTO 31004KT 4SM 27/24 A2974 RMK T02700240 IEM_DS3505
ZGOW,2010-08-26 21:00,ZGOW 262100Z AUTO 00000KT 7SM 27/24 A2974 RMK SLP071 T02660237 57007 IEM_DS3505
ZGOW,2010-08-26 22:00,ZGOW 262200Z AUTO 31002KT 4SM 26/24 A2974 RMK T02600240 IEM_DS3505
ZGOW,2010-08-26 23:00,ZGOW 262300Z AUTO 32004KT 4SM 27/24 A2977 RMK T02700240 IEM_DS3505
ZGOW,2010-08-27 00:00,ZGOW 270000Z AUTO 00000KT 7SM 28/25 A2977 RMK SLP079 T02850249 52008 IEM_DS3505
ZGOW,2010-08-27 01:00,ZGOW 270100Z AUTO 32002KT 4SM 30/24 A2977 RMK T03000240 IEM_DS3505
ZGOW,2010-08-27 02:00,ZGOW 270200Z AUTO 06002KT 4SM 33/24 A2980 RMK T03300240 IEM_DS3505
ZGOW,2010-08-27 03:00,ZGOW 270300Z AUTO 27002KT 6SM 31/25 A2977 RMK SLP082 T03100251 52003 IEM_DS3505
ZGOW,2010-08-27 04:00,ZGOW 270400Z AUTO 14008KT 4SM 32/23 A2977 RMK T03200230 IEM_DS3505
ZGOW,2010-08-27 05:00,ZGOW 270500Z AUTO 14008KT 4SM 32/23 A2974 RMK T03200230 IEM_DS3505
ZGOW,2010-08-27 06:00,ZGOW 270600Z AUTO 14004KT 8SM 33/23 A2971 RMK SLP063 T03290233 57019 IEM_DS3505
ZGOW,2010-08-27 07:00,ZGOW 270700Z AUTO 14010KT 7SM 32/22 A2971 RMK T03200220 IEM_DS3505
ZGOW,2010-08-27 08:00,ZGOW 270800Z AUTO 14010KT 7SM 32/23 A2968 RMK T03200230 IEM_DS3505
ZGOW,2010-08-27 09:00,ZGOW 270900Z AUTO 14004KT 9SM 31/23 A2968 RMK SLP050 T03130234 57013 IEM_DS3505
ZGOW,2010-08-27 10:00,ZGOW 271000Z AUTO 15006KT 7SM 30/24 A2971 RMK T03000240 IEM_DS3505
ZGOW,2010-08-27 11:00,ZGOW 271100Z AUTO 13006KT 7SM 29/24 A2971 RMK T02900240 IEM_DS3505
ZGOW,2010-08-27 12:00,ZGOW 271200Z AUTO 14002KT 8SM 29/24 A2974 RMK SLP068 T02920245 52018 IEM_DS3505
ZGOW,2010-08-27 13:00,ZGOW 271300Z AUTO 11002KT 4SM 28/25 A2977 RMK T02800250 IEM_DS3505
ZGOW,2010-08-27 14:00,ZGOW 271400Z AUTO 12004KT 3SM 28/24 A2977 RMK T02800240 IEM_DS3505
ZGOW,2010-08-27 15:00,ZGOW 271500Z AUTO 14002KT 8SM 29/25 A2977 RMK SLP077 T02880250 52009 IEM_DS3505
ZGOW,2010-08-27 16:00,ZGOW 271600Z AUTO 09002KT 3SM 27/25 A2977 RMK T02700250 IEM_DS3505
ZGOW,2010-08-27 17:00,ZGOW 271700Z AUTO 08002KT 3SM 28/25 A2977 RMK T02800250 IEM_DS3505
ZGOW,2010-08-27 18:00,ZGOW 271800Z AUTO 00000KT 7SM 28/25 A2974 RMK SLP070 T02790249 57007 IEM_DS3505
ZGOW,2010-08-27 21:00,ZGOW 272100Z AUTO 04002KT 6SM 27/24 A2971 RMK SLP059 T02720245 57011 IEM_DS3505
ZGOW,2010-08-27 22:00,ZGOW 272200Z AUTO 33004KT 3SM 27/24 A2971 RMK T02700240 IEM_DS3505
ZGOW,2010-08-27 23:00,ZGOW 272300Z AUTO 31004KT 3SM 27/24 A2974 RMK T02700240 IEM_DS3505
ZGOW,2010-08-28 00:00,ZGOW 280000Z AUTO 27002KT 5SM 29/24 A2974 RMK SLP068 T02860240 52009 IEM_DS3505
ZGOW,2010-08-28 01:00,ZGOW 280100Z AUTO 03002KT 4SM 31/24 A2974 RMK T03100240 IEM_DS3505
ZGOW,2010-08-28 02:00,ZGOW 280200Z AUTO 04008KT 7SM 32/24 A2974 RMK T03200240 IEM_DS3505
ZGOW,2010-08-28 03:00,ZGOW 280300Z AUTO 09002KT 6SM 32/24 A2977 RMK SLP074 T03190237 52006 IEM_DS3505
ZGOW,2010-08-28 04:00,ZGOW 280400Z AUTO 13008KT 3SM 32/25 A2974 RMK T03200250 IEM_DS3505
ZGOW,2010-08-28 05:00,ZGOW 280500Z AUTO 13010KT 3SM 32/25 A2974 RMK T03200250 IEM_DS3505
ZGOW,2010-08-28 06:00,ZGOW 280600Z AUTO 14004KT 10SM 31/24 A2974 RMK SLP067 T03140240 57007 IEM_DS3505
ZGOW,2010-08-28 07:00,ZGOW 280700Z AUTO 13012KT 7SM 31/24 A2971 RMK T03100240 IEM_DS3505
ZGOW,2010-08-28 08:00,ZGOW 280800Z AUTO 12010KT 7SM 31/25 A2968 RMK T03100250 IEM_DS3505
ZGOW,2010-08-28 09:00,ZGOW 280900Z AUTO 14006KT 9SM 30/24 A2974 RMK SLP065 T02990245 57002 IEM_DS3505
ZGOW,2010-08-28 10:00,ZGOW 281000Z AUTO 11006KT 7SM 29/25 A2974 RMK T02900250 IEM_DS3505
ZGOW,2010-08-28 11:00,ZGOW 281100Z AUTO 09004KT 7SM 29/25 A2977 RMK T02900250 IEM_DS3505
ZGOW,2010-08-28 12:00,ZGOW 281200Z AUTO 09004KT 9SM 29/24 A2977 RMK SLP079 T02910244 52014 IEM_DS3505
ZGOW,2010-08-28 13:00,ZGOW 281300Z AUTO 08004KT 7SM 28/25 A2980 RMK T02800250 IEM_DS3505
ZGOW,2010-08-28 14:00,ZGOW 281400Z AUTO 05006KT 7SM 28/25 A2980 RMK T02800250 IEM_DS3505
ZGOW,2010-08-28 15:00,ZGOW 281500Z AUTO 07004KT 8SM 28/25 A2980 RMK SLP084 T02850251 52005 IEM_DS3505
ZGOW,2010-08-28 16:00,ZGOW 281600Z AUTO 09004KT 7SM 27/25 A2980 RMK T02700250 IEM_DS3505
ZGOW,2010-08-28 17:00,ZGOW 281700Z AUTO 07004KT 5SM 27/25 A2980 RMK T02700250 IEM_DS3505
ZGOW,2010-08-28 18:00,ZGOW 281800Z AUTO 04002KT 7SM 28/25 A2977 RMK SLP082 T02790247 57002 IEM_DS3505
ZGOW,2010-08-28 19:00,ZGOW 281900Z AUTO 05004KT 3SM 26/25 A2977 RMK T02600250 IEM_DS3505
ZGOW,2010-08-28 21:00,ZGOW 282100Z AUTO 09002KT 5SM 27/24 A2974 RMK SLP070 T02680243 57012 IEM_DS3505
ZGOW,2010-08-28 22:00,ZGOW 282200Z AUTO 03006KT 4SM 26/24 A2974 RMK T02600240 IEM_DS3505
ZGOW,2010-08-28 23:00,ZGOW 282300Z AUTO 34002KT 6SM 27/24 A2974 RMK T02700240 IEM_DS3505
ZGOW,2010-08-29 00:00,ZGOW 290000Z AUTO 07002KT 9SM 29/24 A2977 RMK SLP076 T02860235 52006 IEM_DS3505
ZGOW,2010-08-29 01:00,ZGOW 290100Z AUTO 04010KT 7SM 31/22 A2977 RMK T03100220 IEM_DS3505
ZGOW,2010-08-29 02:00,ZGOW 290200Z AUTO 06010KT 7SM 32/21 A2977 RMK T03200210 IEM_DS3505
ZGOW,2010-08-29 03:00,ZGOW 290300Z AUTO 09006KT 14SM 32/20 A2974 RMK SLP074 T03250204 57002 IEM_DS3505
ZGOW,2010-08-29 04:00,ZGOW 290400Z AUTO 07010KT 7SM 33/22 A2974 RMK T03300220 IEM_DS3505
ZGOW,2010-08-29 05:00,ZGOW 290500Z AUTO 14010KT 7SM 32/24 A2974 RMK T03200240 IEM_DS3505
ZGOW,2010-08-29 06:00,ZGOW 290600Z AUTO 11008KT 12SM 31/22 A2971 RMK SLP058 T03140221 57016 IEM_DS3505
ZGOW,2010-08-29 07:00,ZGOW 290700Z AUTO 10010KT 7SM 32/24 A2968 RMK T03200240 IEM_DS3505
ZGOW,2010-08-29 08:00,ZGOW 290800Z AUTO 10012KT 7SM 30/24 A2968 RMK T03000240 IEM_DS3505
ZGOW,2010-08-29 09:00,ZGOW 290900Z AUTO 11008KT 9SM 29/25 A2968 RMK SLP052 T02900254 57006 IEM_DS3505
ZGOW,2010-08-29 10:00,ZGOW 291000Z AUTO 10010KT 5SM 29/25 A2971 RMK T02900250 IEM_DS3505
ZGOW,2010-08-29 11:00,ZGOW 291100Z AUTO 10006KT 4SM 28/25 A2971 RMK T02800250 IEM_DS3505
ZGOW,2010-08-29 12:00,ZGOW 291200Z AUTO 09004KT 7SM 29/26 A2974 RMK SLP065 T02860256 52013 IEM_DS3505
ZGOW,2010-08-29 13:00,ZGOW 291300Z AUTO 08010KT 7SM 28/25 A2974 RMK T02800250 IEM_DS3505
ZGOW,2010-08-29 14:00,ZGOW 291400Z AUTO 06010KT 7SM 28/24 A2974 RMK T02800240 IEM_DS3505
ZGOW,2010-08-29 15:00,ZGOW 291500Z AUTO 04002KT 7SM 28/25 A2971 RMK SLP065 T02820254 54000 IEM_DS3505
ZGOW,2010-08-29 16:00,ZGOW 291600Z AUTO 09006KT 7SM 28/25 A2971 RMK T02800250 IEM_DS3505
ZGOW,2010-08-29 17:00,ZGOW 291700Z AUTO 06006KT 7SM 27/25 A2971 RMK T02700250 IEM_DS3505
ZGOW,2010-08-29 18:00,ZGOW 291800Z AUTO 14002KT 7SM 28/24 A2968 RMK SLP049 T02780242 57016 IEM_DS3505
ZGOW,2010-08-29 19:00,ZGOW 291900Z AUTO 03004MPS 9999 ////// 27/24 Q1005
ZGOW,2010-08-29 20:00,ZGOW 292000Z AUTO 35004KT 7SM 28/23 A2965 RMK T02800230 IEM_DS3505
ZGOW,2010-08-29 21:00,ZGOW 292100Z AUTO 04002KT 7SM 28/24 A2965 RMK SLP042 T02750237 57007 IEM_DS3505
ZGOW,2010-08-29 22:00,ZGOW 292200Z AUTO 09002KT 7SM 26/24 A2968 RMK T02600240 IEM_DS3505
ZGOW,2010-08-29 23:00,ZGOW 292300Z AUTO 03006KT 7SM 28/24 A2968 RMK T02800240 IEM_DS3505
ZGOW,2010-08-30 00:00,ZGOW 300000Z AUTO 07004KT 9SM 29/23 A2968 RMK 60000 70000 SLP049 T02940234 52007 IEM_DS3505
ZGOW,2010-08-30 01:00,ZGOW 300100Z AUTO 04014KT 7SM 30/22 A2968 RMK T03000220 IEM_DS3505
ZGOW,2010-08-30 02:00,ZGOW 300200Z AUTO 06012KT 7SM 32/23 A2968 RMK T03200230 IEM_DS3505
ZGOW,2010-08-30 03:00,ZGOW 300300Z AUTO 07008KT 9SM 32/23 A2968 RMK SLP046 T03160234 57003 IEM_DS3505
ZGOW,2010-08-30 04:00,ZGOW 300400Z AUTO 09014KT 5SM 32/24 A2965 RMK T03200240 IEM_DS3505
ZGOW,2010-08-30 05:00,ZGOW 300500Z AUTO 08014KT 5SM 33/24 A2962 RMK T03300240 IEM_DS3505
ZGOW,2010-08-30 06:00,ZGOW 300600Z AUTO 07008KT 8SM 31/24 A2962 RMK SLP029 T03100236 57017 IEM_DS3505
ZGOW,2010-08-30 07:00,ZGOW 300700Z AUTO 09012KT 7SM 30/23 A2962 RMK T03000230 IEM_DS3505
ZGOW,2010-08-30 08:00,ZGOW 300800Z AUTO 10008KT 7SM 30/24 A2959 RMK T03000240 IEM_DS3505
ZGOW,2010-08-30 09:00,ZGOW 300900Z AUTO 11008KT 9SM 29/25 A2962 RMK SLP025 T02900250 57004 IEM_DS3505
ZGOW,2010-08-30 10:00,ZGOW 301000Z AUTO 06008KT 7SM 28/25 A2962 RMK T02800250 IEM_DS3505
ZGOW,2010-08-30 11:00,ZGOW 301100Z AUTO 07010KT 7SM 28/25 A2962 RMK T02800250 IEM_DS3505
ZGOW,2010-08-30 12:00,ZGOW 301200Z AUTO 07006KT 9SM 28/25 A2965 RMK SLP036 T02820252 52011 IEM_DS3505
ZGOW,2010-08-30 13:00,ZGOW 301300Z AUTO 07010KT 7SM 28/25 A2965 RMK T02800250 IEM_DS3505
ZGOW,2010-08-30 14:00,ZGOW 301400Z AUTO 05006KT 7SM 28/24 A2965 RMK T02800240 IEM_DS3505
ZGOW,2010-08-30 15:00,ZGOW 301500Z AUTO 04002KT 9SM 28/24 A2965 RMK SLP036 T02800244 54000 IEM_DS3505
ZGOW,2010-08-30 16:00,ZGOW 301600Z AUTO 07004KT 7SM 27/23 A2962 RMK T02700230 IEM_DS3505
ZGOW,2010-08-30 17:00,ZGOW 301700Z AUTO 09002KT 7SM 27/23 A2962 RMK T02700230 IEM_DS3505
ZGOW,2010-08-30 18:00,ZGOW 301800Z AUTO 00000KT 7SM 28/24 A2962 RMK SLP025 T02770237 57011 IEM_DS3505
ZGOW,2010-08-30 19:00,ZGOW 301900Z AUTO 03004KT 7SM 27/23 A2959 RMK T02700230 IEM_DS3505
ZGOW,2010-08-30 21:00,ZGOW 302100Z AUTO 00000KT 7SM 28/24 A2959 RMK 70000 SLP021 T02750239 57004 IEM_DS3505
ZGOW,2010-08-30 22:00,ZGOW 302200Z AUTO 34004KT 3SM 27/23 A2959 RMK T02700230 IEM_DS3505
ZGOW,2010-08-30 23:00,ZGOW 302300Z AUTO 32004KT 4SM 28/24 A2959 RMK T02800240 IEM_DS3505
ZGOW,2010-08-31 00:00,ZGOW 310000Z AUTO 04004KT 9SM 29/24 A2962 RMK SLP027 T02940236 52006 IEM_DS3505
ZGOW,2010-08-31 01:00,ZGOW 310100Z AUTO 34004KT 4SM 30/25 A2962 RMK T03000250 IEM_DS3505
ZGOW,2010-08-31 02:00,ZGOW 310200Z AUTO 34004KT 5SM 32/24 A2962 RMK T03200240 IEM_DS3505
ZGOW,2010-08-31 03:00,ZGOW 310300Z AUTO 29002KT 9SM 33/22 A2959 RMK SLP020 T03310225 57007 IEM_DS3505
ZGOW,2010-08-31 04:00,ZGOW 310400Z AUTO 13004KT 7SM 35/23 A2956 RMK T03500230 IEM_DS3505
ZGOW,2010-08-31 05:00,ZGOW 310500Z AUTO 12006KT 7SM 33/22 A2956 RMK T03300220 IEM_DS3505
ZGOW,2010-08-31 06:00,ZGOW 310600Z AUTO 14004KT 9SM 29/24 A2956 RMK 60002 SLP004 T02880244 57016 IEM_DS3505
ZGOW,2010-08-31 07:00,ZGOW 310700Z AUTO 29006KT 4SM 28/25 A2953 RMK T02800250 IEM_DS3505
ZGOW,2010-08-31 08:00,ZGOW 310800Z AUTO 30004KT 5SM 28/25 A2953 RMK T02800250 IEM_DS3505
ZGOW,2010-08-31 09:00,ZGOW 310900Z AUTO 00000KT 9SM 28/25 A2953 RMK SLP998 T02820252 57006 IEM_DS3505
ZGOW,2010-08-31 10:00,ZGOW 311000Z AUTO 00000KT 4SM 29/25 A2953 RMK T02900250 IEM_DS3505
ZGOW,2010-08-31 11:00,ZGOW 311100Z AUTO 17002KT 3SM 28/25 A2953 RMK T02800250 IEM_DS3505
ZGOW,2010-08-31 12:00,ZGOW 311200Z AUTO 00000KT 7SM 28/25 A2956 RMK 60035 SLP009 T02810249 52011 IEM_DS3505
ZGOW,2010-08-31 13:00,ZGOW 311300Z AUTO 00000KT 4SM 28/25 A2959 RMK T02800250 IEM_DS3505
ZGOW,2010-08-31 14:00,ZGOW 311400Z AUTO 00000KT 5SM 27/24 A2959 RMK T02700240 IEM_DS3505
ZGOW,2010-08-31 15:00,ZGOW 311500Z AUTO 22002KT 7SM 27/25 A2959 RMK SLP018 T02700250 52009 IEM_DS3505
ZGOW,2010-08-31 16:00,ZGOW 311600Z AUTO 28004KT 3SM 27/25 A2956 RMK T02700250 IEM_DS3505
ZGOW,2010-08-31 17:00,ZGOW 311700Z AUTO 31002KT 2 1/2SM 27/25 A2956 RMK T02700250 IEM_DS3505
ZGOW,2010-08-31 18:00,ZGOW 311800Z AUTO 27002KT 6SM 27/25 RMK 60002 SLP997 T02670251 57021 IEM_DS3505
ZGOW,2010-08-31 21:00,ZGOW 312100Z AUTO 27002KT 6SM 27/24 A2953 RMK 70039 SLP986 T02660244 57011 IEM_DS3505
ZGOW,2010-08-31 22:00,ZGOW 312200Z AUTO 00000KT 2SM 27/25 A2956 RMK T02700250 IEM_DS3505
ZGOW,2010-08-31 23:00,ZGOW 312300Z AUTO 00000KT 2SM 28/25 A2956 RMK T02800250 IEM_DS3505
ZGOW,2010-09-01 00:00,ZGOW 010000Z AUTO 27002KT 5SM 29/24 A2956 RMK 70039 SLP992 T02870243 52006 IEM_DS3505
ZGOW,2010-09-01 01:00,ZGOW 010100Z AUTO 31008KT 2 1/2SM 29/24 A2956 RMK T02900240 IEM_DS3505
ZGOW,2010-09-01 02:00,ZGOW 010200Z AUTO 33008KT 4SM 30/24 A2956 RMK T03000240 IEM_DS3505
ZGOW,2010-09-01 03:00,ZGOW 010300Z AUTO 22004KT 4SM 31/24 A2956 RMK SLP012 T03060238 52020 IEM_DS3505
ZGOW,2010-09-01 04:00,ZGOW 010400Z AUTO 33004KT 4SM 29/24 A2959 RMK T02900240 IEM_DS3505
ZGOW,2010-09-01 05:00,ZGOW 010500Z AUTO 34006KT 4SM 27/25 A2956 RMK T02700250 IEM_DS3505
ZGOW,2010-09-01 06:00,ZGOW 010600Z AUTO 20002KT 6SM 28/24 A2959 RMK 60000 SLP018 T02790241 52006 IEM_DS3505
ZGOW,2010-09-01 07:00,ZGOW 010700Z AUTO 31006KT 3SM 27/24 A2956 RMK T02700240 IEM_DS3505
ZGOW,2010-09-01 08:00,ZGOW 010800Z AUTO 30008KT 3SM 27/24 A2956 RMK T02700240 IEM_DS3505
ZGOW,2010-09-01 09:00,ZGOW 010900Z AUTO 27006KT 6SM 27/24 A2959 RMK SLP020 T02680245 52002 IEM_DS3505
ZGOW,2010-09-01 10:00,ZGOW 011000Z AUTO 27002KT 2 1/2SM 27/24 A2959 RMK T02700240 IEM_DS3505
ZGOW,2010-09-01 11:00,ZGOW 011100Z AUTO 09002KT 1 1/4SM 26/25 A2962 RMK T02600250 IEM_DS3505
ZGOW,2010-09-01 12:00,ZGOW 011200Z AUTO 29002KT 4SM 26/25 A2962 RMK 60012 SLP026 T02600248 52006 IEM_DS3505
ZGOW,2010-09-01 13:00,ZGOW 011300Z AUTO 28004KT 2SM 26/25 A2962 RMK T02600250 IEM_DS3505
ZGOW,2010-09-01 14:00,ZGOW 011400Z AUTO 26004KT 2SM 26/25 A2962 RMK T02600250 IEM_DS3505
ZGOW,2010-09-01 15:00,ZGOW 011500Z AUTO 25004KT 6SM 26/25 A2962 RMK SLP034 T02640250 52008 IEM_DS3505
ZGOW,2010-09-01 16:00,ZGOW 011600Z AUTO 26004KT 3SM 26/25 A2962 RMK T02600250 IEM_DS3505
ZGOW,2010-09-01 17:00,ZGOW 011700Z AUTO 26004KT 2SM 27/25 A2962 RMK T02700250 IEM_DS3505
ZGOW,2010-09-01 18:00,ZGOW 011800Z AUTO 27004KT 4SM 26/25 A2959 RMK 60008 SLP019 T02650249 57015 IEM_DS3505
ZGOW,2010-09-01 19:00,ZGOW 011900Z AUTO 28004KT 2 1/2SM 27/25 A2956 RMK T02700250 IEM_DS3505
ZGOW,2010-09-01 20:00,ZGOW 012000Z AUTO 28004KT 2 1/2SM 27/25 A2956 RMK T02700250 IEM_DS3505
ZGOW,2010-09-01 21:00,ZGOW 012100Z AUTO 27004KT 4SM 27/25 A2956 RMK 70020 SLP011 T02660246 57008 IEM_DS3505
ZGOW,2010-09-01 22:00,ZGOW 012200Z AUTO 29006KT 3SM 27/24 A2956 RMK T02700240 IEM_DS3505
ZGOW,2010-09-01 23:00,ZGOW 012300Z AUTO 27004KT 2SM 27/25 A2956 RMK T02700250 IEM_DS3505
ZGOW,2010-09-02 00:00,ZGOW 020000Z AUTO 27004KT 3SM 27/25 A2956 RMK 60002 70021 SLP012 T02700246 52001 IEM_DS3505
ZGOW,2010-09-02 01:00,ZGOW 020100Z AUTO 24010KT 2SM 27/25 A2956 RMK T02700250 IEM_DS3505
ZGOW,2010-09-02 02:00,ZGOW 020200Z AUTO 23010KT 2SM 27/25 A2956 RMK T02700250 IEM_DS3505
ZGOW,2010-09-02 03:00,ZGOW 020300Z AUTO 22006KT 2 1/2SM 26/25 A2959 RMK SLP020 T02630249 52008 IEM_DS3505
ZGOW,2010-09-02 04:00,ZGOW 020400Z AUTO 17008KT 1 1/2SM 26/25 A2959 RMK T02600250 IEM_DS3505
ZGOW,2010-09-02 05:00,ZGOW 020500Z AUTO 15008KT 1 1/2SM 27/25 A2959 RMK T02700250 IEM_DS3505
ZGOW,2010-09-02 06:00,ZGOW 020600Z AUTO 00000KT 3SM 27/26 A2959 RMK 60067 SLP020 T02680258 54000 IEM_DS3505
ZGOW,2010-09-02 07:00,ZGOW 020700Z AUTO 08006KT 1 1/2SM 27/25 A2959 RMK T02700250 IEM_DS3505
ZGOW,2010-09-02 08:00,ZGOW 020800Z AUTO 15006KT 2 1/2SM 27/25 A2959 RMK T02700250 IEM_DS3505
ZGOW,2010-09-02 09:00,ZGOW 020900Z AUTO 14006KT 3SM 27/25 A2959 RMK SLP019 T02680248 57001 IEM_DS3505
ZGOW,2010-09-02 10:00,ZGOW 021000Z AUTO 12008KT 2 1/2SM 26/25 A2962 RMK T02600250 IEM_DS3505
ZGOW,2010-09-02 11:00,ZGOW 021100Z AUTO 10008KT 2 1/2SM 26/25 A2962 RMK T02600250 IEM_DS3505
ZGOW,2010-09-02 12:00,ZGOW 021200Z AUTO 11006KT 4SM 27/26 A2965 RMK 60003 SLP034 T02680256 52015 IEM_DS3505
ZGOW,2010-09-02 13:00,ZGOW 021300Z AUTO 12010KT 4SM 26/25 A2965 RMK T02600250 IEM_DS3505
ZGOW,2010-09-02 14:00,ZGOW 021400Z AUTO 14010KT 2 1/2SM 26/25 A2968 RMK T02600250 IEM_DS3505
ZGOW,2010-09-02 15:00,ZGOW 021500Z AUTO 14006KT 6SM 27/25 A2968 RMK SLP047 T02680254 52013 IEM_DS3505
ZGOW,2010-09-02 16:00,ZGOW 021600Z AUTO 15008KT 4SM 26/25 A2968 RMK T02600250 IEM_DS3505
ZGOW,2010-09-02 17:00,ZGOW 021700Z AUTO 15010KT 3SM 27/25 A2968 RMK T02700250 IEM_DS3505
ZGOW,2010-09-02 18:00,ZGOW 021800Z AUTO 11006KT 4SM 26/25 A2968 RMK 60071 SLP043 T02590250 57004 IEM_DS3505
ZGOW,2010-09-02 19:00,ZGOW 021900Z AUTO 13012KT 4SM 27/25 A2965 RMK T02700250 IEM_DS3505
ZGOW,2010-09-02 20:00,ZGOW 022000Z AUTO 13016KT 4SM 27/25 A2965 RMK T02700250 IEM_DS3505
ZGOW,2010-09-02 21:00,ZGOW 022100Z AUTO 14008KT 4SM 26/25 A2965 RMK 70263 SLP044 T02600246 52001 IEM_DS3505
ZGOW,2010-09-02 22:00,ZGOW 022200Z AUTO 13010KT 3SM 27/24 A2968 RMK T02700240 IEM_DS3505
ZGOW,2010-09-02 23:00,ZGOW 022300Z AUTO 13010KT 7SM 27/25 A2971 RMK T02700250 IEM_DS3505
ZGOW,2010-09-03 00:00,ZGOW 030000Z AUTO 14006KT 6SM 28/25 A2974 RMK 60122 70263 SLP063 T02750253 52019 IEM_DS3505
ZGOW,2010-09-03 01:00,ZGOW 030100Z AUTO 16008KT 1 1/2SM 27/25 A2974 RMK T02700250 IEM_DS3505
ZGOW,2010-09-03 02:00,ZGOW 030200Z AUTO 14008KT 4SM 28/25 A2974 RMK T02800250 IEM_DS3505
ZGOW,2010-09-03 03:00,ZGOW 030300Z AUTO 14006KT 6SM 26/24 A2974 RMK SLP070 T02550239 52007 IEM_DS3505
ZGOW,2010-09-03 04:00,ZGOW 030400Z AUTO 14008KT 4SM 25/23 A2974 RMK T02500230 IEM_DS3505
ZGOW,2010-09-03 05:00,ZGOW 030500Z AUTO 16004KT 1 1/2SM 26/24 A2971 RMK T02600240 IEM_DS3505
ZGOW,2010-09-03 06:00,ZGOW 030600Z AUTO 11008KT 9SM 27/25 A2968 RMK 60039 SLP052 T02660246 57018 IEM_DS3505
ZGOW,2010-09-03 07:00,ZGOW 030700Z AUTO 12012KT 4SM 26/24 A2968 RMK T02600240 IEM_DS3505
ZGOW,2010-09-03 08:00,ZGOW 030800Z AUTO 11008KT 7SM 26/25 A2968 RMK T02600250 IEM_DS3505
ZGOW,2010-09-03 09:00,ZGOW 030900Z AUTO 11004KT 9SM 27/25 A2971 RMK SLP053 T02680250 52001 IEM_DS3505
ZGOW,2010-09-03 10:00,ZGOW 031000Z AUTO 14008KT 7SM 27/25 A2971 RMK T02700250 IEM_DS3505
ZGOW,2010-09-03 11:00,ZGOW 031100Z AUTO 11008KT 7SM 27/24 A2971 RMK T02700240 IEM_DS3505
ZGOW,2010-09-03 12:00,ZGOW 031200Z AUTO 11004KT 9SM 27/25 A2974 RMK 60000 SLP064 T02720252 52011 IEM_DS3505
ZGOW,2010-09-03 13:00,ZGOW 031300Z AUTO 12008KT 7SM 27/25 A2974 RMK T02700250 IEM_DS3505
ZGOW,2010-09-03 14:00,ZGOW 031400Z AUTO 13006KT 7SM 27/25 A2974 RMK T02700250 IEM_DS3505
ZGOW,2010-09-03 15:00,ZGOW 031500Z AUTO 09002KT 9SM 27/25 A2974 RMK SLP071 T02700252 52007 IEM_DS3505
ZGOW,2010-09-03 16:00,ZGOW 031600Z AUTO 12006KT 7SM 26/24 A2974 RMK T02600240 IEM_DS3505
ZGOW,2010-09-03 17:00,ZGOW 031700Z AUTO 09002KT 7SM 26/24 A2974 RMK T02600240 IEM_DS3505
ZGOW,2010-09-03 18:00,ZGOW 031800Z AUTO 07002KT 10SM 26/25 A2971 RMK 60004 SLP062 T02630253 57009 IEM_DS3505
ZGOW,2010-09-03 19:00,ZGOW 031900Z AUTO 07002KT 7SM 26/24 A2971 RMK T02600240 IEM_DS3505
ZGOW,2010-09-03 20:00,ZGOW 032000Z AUTO 10006KT 7SM 25/24 A2971 RMK T02500240 IEM_DS3505
ZGOW,2010-09-03 21:00,ZGOW 032100Z AUTO 07002KT 9SM 25/24 A2971 RMK 70050 SLP059 T02540240 57003 IEM_DS3505
ZGOW,2010-09-03 22:00,ZGOW 032200Z AUTO 08004KT 7SM 25/24 A2971 RMK T02500240 IEM_DS3505
ZGOW,2010-09-03 23:00,ZGOW 032300Z AUTO 10004KT 7SM 28/25 A2974 RMK T02800250 IEM_DS3505
ZGOW,2010-09-04 00:00,ZGOW 040000Z AUTO 07002KT 11SM 27/26 A2977 RMK 60063 70106 SLP072 T02710255 52013 IEM_DS3505
ZGOW,2010-09-04 01:00,ZGOW 040100Z AUTO 12010KT 7SM 29/26 A2977 RMK T02900260 IEM_DS3505
ZGOW,2010-09-04 02:00,ZGOW 040200Z AUTO 12012KT 7SM 29/26 A2977 RMK T02900260 IEM_DS3505
ZGOW,2010-09-04 03:00,ZGOW 040300Z AUTO 14008KT 16SM 30/25 A2977 RMK SLP078 T02980249 52006 IEM_DS3505
ZGOW,2010-09-04 04:00,ZGOW 040400Z AUTO 12010KT 7SM 30/26 A2974 RMK T03000260 IEM_DS3505
ZGOW,2010-09-04 05:00,ZGOW 040500Z AUTO 11012KT 7SM 31/26 A2974 RMK T03100260 IEM_DS3505
ZGOW,2010-09-04 06:00,ZGOW 040600Z AUTO 11008KT 14SM 30/25 A2971 RMK SLP061 T02980251 57017 IEM_DS3505
ZGOW,2010-09-04 07:00,ZGOW 040700Z AUTO 11012KT 7SM 30/25 A2971 RMK T03000250 IEM_DS3505
ZGOW,2010-09-04 08:00,ZGOW 040800Z AUTO 11012KT 7SM 30/25 A2971 RMK T03000250 IEM_DS3505
ZGOW,2010-09-04 09:00,ZGOW 040900Z AUTO 11006KT 11SM 29/25 A2971 RMK SLP060 T02900250 57001 IEM_DS3505
ZGOW,2010-09-04 10:00,ZGOW 041000Z AUTO 11008KT 7SM 28/23 A2971 RMK T02800230 IEM_DS3505
ZGOW,2010-09-04 11:00,ZGOW 041100Z AUTO 10004KT 7SM 27/25 A2974 RMK T02700250 IEM_DS3505
ZGOW,2010-09-04 12:00,ZGOW 041200Z AUTO 11002KT 9SM 28/25 A2977 RMK SLP073 T02780248 52013 IEM_DS3505
ZGOW,2010-09-04 13:00,ZGOW 041300Z AUTO 08010KT 4SM 27/25 A2977 RMK T02700250 IEM_DS3505
ZGOW,2010-09-04 14:00,ZGOW 041400Z AUTO 08012KT 7SM 28/25 A2977 RMK T02800250 IEM_DS3505
ZGOW,2010-09-04 15:00,ZGOW 041500Z AUTO 07004KT 7SM 28/26 A2977 RMK SLP081 T02750255 52008 IEM_DS3505
ZGOW,2010-09-04 16:00,ZGOW 041600Z AUTO 08010KT 7SM 27/25 A2977 RMK T02700250 IEM_DS3505
ZGOW,2010-09-04 17:00,ZGOW 041700Z AUTO 08008KT 6SM 27/25 A2974 RMK T02700250 IEM_DS3505
ZGOW,2010-09-04 18:00,ZGOW 041800Z AUTO 04002KT 7SM 27/25 A2974 RMK SLP070 T02700250 57011 IEM_DS3505
ZGOW,2010-09-04 19:00,ZGOW 041900Z AUTO 04006KT 6SM 26/23 A2974 RMK T02600230 IEM_DS3505
ZGOW,2010-09-04 20:00,ZGOW 042000Z AUTO 03006KT 6SM 26/23 A2974 RMK T02600230 IEM_DS3505
ZGOW,2010-09-04 21:00,ZGOW 042100Z AUTO 00000KT 9SM 26/23 A2974 RMK 70056 SLP070 T02590234 54000 IEM_DS3505
ZGOW,2010-09-04 22:00,ZGOW 042200Z AUTO 04006KT 7SM 25/23 A2977 RMK T02500230 IEM_DS3505
ZGOW,2010-09-04 23:00,ZGOW 042300Z AUTO 04004KT 7SM 27/23 A2977 RMK T02700230 IEM_DS3505
ZGOW,2010-09-05 00:00,ZGOW 050000Z AUTO 00000KT 14SM 29/24 A2977 RMK SLP083 T02880235 52013 IEM_DS3505
ZGOW,2010-09-05 01:00,ZGOW 050100Z AUTO 07010KT 7SM 30/23 A2980 RMK T03000230 IEM_DS3505
ZGOW,2010-09-05 02:00,ZGOW 050200Z AUTO 07008KT 6SM 30/24 A2980 RMK T03000240 IEM_DS3505
ZGOW,2010-09-05 03:00,ZGOW 050300Z AUTO 11006KT 17SM 31/24 A2977 RMK SLP078 T03060238 57005 IEM_DS3505
ZGOW,2010-09-05 04:00,ZGOW 050400Z AUTO 09008KT 7SM 31/23 A2977 RMK T03100230 IEM_DS3505
ZGOW,2010-09-05 05:00,ZGOW 050500Z AUTO 12006KT 7SM 32/25 A2974 RMK T03200250 IEM_DS3505
ZGOW,2010-09-05 06:00,ZGOW 050600Z AUTO 09004KT 19SM 31/24 A2971 RMK SLP060 T03110235 57018 IEM_DS3505
ZGOW,2010-09-05 07:00,ZGOW 050700Z AUTO 13008KT 6SM 31/24 A2971 RMK T03100240 IEM_DS3505
ZGOW,2010-09-05 08:00,ZGOW 050800Z AUTO 12010KT 6SM 30/24 A2971 RMK T03000240 IEM_DS3505
ZGOW,2010-09-05 09:00,ZGOW 050900Z AUTO 11006KT 19SM 30/24 A2971 RMK SLP058 T03010243 57002 IEM_DS3505
ZGOW,2010-09-05 10:00,ZGOW 051000Z AUTO 14008KT 7SM 28/25 A2971 RMK T02800250 IEM_DS3505
ZGOW,2010-09-05 11:00,ZGOW 051100Z AUTO 13006KT 4SM 28/25 A2974 RMK T02800250 IEM_DS3505
ZGOW,2010-09-05 12:00,ZGOW 051200Z AUTO 14004KT 12SM 28/25 A2977 RMK SLP079 T02810251 52021 IEM_DS3505
ZGOW,2010-09-05 13:00,ZGOW 051300Z AUTO 12002KT 4SM 28/25 A2980 RMK T02800250 IEM_DS3505
ZGOW,2010-09-05 14:00,ZGOW 051400Z AUTO 00000KT 4SM 27/25 A2980 RMK T02700250 IEM_DS3505
ZGOW,2010-09-05 15:00,ZGOW 051500Z AUTO 16002KT 11SM 28/25 A2980 RMK SLP089 T02780248 52010 IEM_DS3505
ZGOW,2010-09-05 16:00,ZGOW 051600Z AUTO 07002KT 4SM 27/25 A2980 RMK T02700250 IEM_DS3505
ZGOW,2010-09-05 17:00,ZGOW 051700Z AUTO 04002KT 4SM 27/25 A2977 RMK T02700250 IEM_DS3505
ZGOW,2010-09-05 18:00,ZGOW 051800Z AUTO 00000KT 10SM 28/26 RMK SLP071 T02750255 57018 IEM_DS3505
ZGOW,2010-09-05 19:00,ZGOW 051900Z AUTO 36002KT 2 1/2SM 26/25 A2974 RMK T02600250 IEM_DS3505
ZGOW,2010-09-05 21:00,ZGOW 052100Z AUTO 07002KT 9SM 26/24 A2974 RMK SLP071 T02640244 54000 IEM_DS3505
ZGOW,2010-09-05 22:00,ZGOW 052200Z AUTO 34004KT 2 1/2SM 26/24 A2977 RMK T02600240 IEM_DS3505
ZGOW,2010-09-05 23:00,ZGOW 052300Z AUTO 35004KT 2 1/2SM 27/24 A2977 RMK T02700240 IEM_DS3505
ZGOW,2010-09-06 00:00,ZGOW 060000Z AUTO 09002KT 7SM 28/24 A2977 RMK SLP083 T02750241 52012 IEM_DS3505
ZGOW,2010-09-06 01:00,ZGOW 060100Z AUTO 34004KT 7SM 29/24 A2977 RMK T02900240 IEM_DS3505
ZGOW,2010-09-06 02:00,ZGOW 060200Z AUTO 02002KT 7SM 31/24 A2977 RMK T03100240 IEM_DS3505
ZGOW,2010-09-06 03:00,ZGOW 060300Z AUTO 22004KT 9SM 30/25 A2977 RMK SLP078 T03040252 57005 IEM_DS3505
ZGOW,2010-09-06 04:00,ZGOW 060400Z AUTO 12006KT 7SM 31/25 A2977 RMK T03100250 IEM_DS3505
ZGOW,2010-09-06 05:00,ZGOW 060500Z AUTO 16006KT 7SM 32/24 A2974 RMK T03200240 IEM_DS3505
ZGOW,2010-09-06 06:00,ZGOW 060600Z AUTO 16004KT 7SM 31/25 A2971 RMK SLP062 T03140253 57016 IEM_DS3505
ZGOW,2010-09-06 07:00,ZGOW 060700Z AUTO 16008KT 7SM 32/25 A2971 RMK T03200250 IEM_DS3505
ZGOW,2010-09-06 08:00,ZGOW 060800Z AUTO 17006KT 4SM 31/26 A2968 RMK T03100260 IEM_DS3505
ZGOW,2010-09-06 09:00,ZGOW 060900Z AUTO 18006KT 7SM 31/25 A2971 RMK SLP055 T03130254 57007 IEM_DS3505
ZGOW,2010-09-06 10:00,ZGOW 061000Z AUTO 16004KT 4SM 30/26 A2971 RMK T03000260 IEM_DS3505
ZGOW,2010-09-06 11:00,ZGOW 061100Z AUTO 19004KT 4SM 30/25 A2974 RMK T03000250 IEM_DS3505
ZGOW,2010-09-06 12:00,ZGOW 061200Z AUTO 25004KT 7SM 29/25 A2974 RMK SLP071 T02930253 52016 IEM_DS3505
ZGOW,2010-09-06 13:00,ZGOW 061300Z AUTO 00000KT 4SM 29/25 A2977 RMK T02900250 IEM_DS3505
ZGOW,2010-09-06 14:00,ZGOW 061400Z AUTO 10002KT 4SM 29/26 A2977 RMK T02900260 IEM_DS3505
ZGOW,2010-09-06 15:00,ZGOW 061500Z AUTO 00000KT 7SM 28/26 A2977 RMK SLP078 T02820256 52007 IEM_DS3505
ZGOW,2010-09-06 16:00,ZGOW 061600Z AUTO 26002KT 7SM 29/25 A2977 RMK T02900250 IEM_DS3505
ZGOW,2010-09-06 17:00,ZGOW 061700Z AUTO 27002KT 4SM 28/25 A2974 RMK T02800250 IEM_DS3505
ZGOW,2010-09-06 18:00,ZGOW 061800Z AUTO 27002KT 5SM 28/26 A2974 RMK SLP068 T02780260 57010 IEM_DS3505
ZGOW,2010-09-06 19:00,ZGOW 061900Z AUTO 29002KT 2SM 28/25 A2971 RMK T02800250 IEM_DS3505
ZGOW,2010-09-06 21:00,ZGOW 062100Z AUTO 29002KT 4SM 27/26 A2971 RMK SLP063 T02710255 57005 IEM_DS3505
ZGOW,2010-09-06 22:00,ZGOW 062200Z AUTO 00000KT 2 1/2SM 27/25 A2974 RMK T02700250 IEM_DS3505
ZGOW,2010-09-06 23:00,ZGOW 062300Z AUTO 27002KT 2SM 28/25 A2974 RMK T02800250 IEM_DS3505
ZGOW,2010-09-07 00:00,ZGOW 070000Z AUTO 27004KT 6SM 29/26 A2977 RMK SLP075 T02880258 52012 IEM_DS3505
ZGOW,2010-09-07 01:00,ZGOW 070100Z AUTO 29004KT 2 1/2SM 31/25 A2977 RMK T03100250 IEM_DS3505
ZGOW,2010-09-07 02:00,ZGOW 070200Z AUTO 26004KT 3SM 32/25 A2977 RMK T03200250 IEM_DS3505
ZGOW,2010-09-07 03:00,ZGOW 070300Z AUTO 27004KT 6SM 32/26 A2974 RMK SLP075 T03230256 54000 IEM_DS3505
ZGOW,2010-09-07 04:00,ZGOW 070400Z AUTO 33002KT 4SM 35/23 A2974 RMK T03500230 IEM_DS3505
ZGOW,2010-09-07 05:00,ZGOW 070500Z AUTO 16006KT 2 1/2SM 34/26 A2971 RMK T03400260 IEM_DS3505
ZGOW,2010-09-07 06:00,ZGOW 070600Z AUTO 27006KT 6SM 34/24 A2968 RMK SLP054 T03450238 57021 IEM_DS3505
ZGOW,2010-09-07 07:00,ZGOW 070700Z AUTO 18008KT 4SM 34/25 A2968 RMK T03400250 IEM_DS3505
ZGOW,2010-09-07 08:00,ZGOW 070800Z AUTO 17008KT 7SM 33/25 A2965 RMK T03300250 IEM_DS3505
ZGOW,2010-09-07 09:00,ZGOW 070900Z AUTO 20004KT 7SM 33/26 A2965 RMK SLP039 T03300258 57015 IEM_DS3505
ZGOW,2010-09-07 10:00,ZGOW 071000Z AUTO 18004KT 7SM 32/26 A2965 RMK T03200260 IEM_DS3505
ZGOW,2010-09-07 11:00,ZGOW 071100Z AUTO 14004KT 5SM 31/26 A2968 RMK T03100260 IEM_DS3505
ZGOW,2010-09-07 12:00,ZGOW 071200Z AUTO 18002KT 7SM 31/27 A2971 RMK SLP055 T03080267 52016 IEM_DS3505
ZGOW,2010-09-07 13:00,ZGOW 071300Z AUTO 24002KT 6SM 30/27 A2971 RMK T03000270 IEM_DS3505
ZGOW,2010-09-07 14:00,ZGOW 071400Z AUTO 00000KT 6SM 30/25 A2974 RMK T03000250 IEM_DS3505
ZGOW,2010-09-07 15:00,ZGOW 071500Z AUTO 00000KT 7SM 29/26 A2974 RMK SLP071 T02900258 52016 IEM_DS3505
ZGOW,2010-09-07 16:00,ZGOW 071600Z AUTO 07004KT 7SM 29/26 A2974 RMK T02900260 IEM_DS3505
ZGOW,2010-09-07 17:00,ZGOW 071700Z AUTO 05006KT 4SM 29/27 A2974 RMK T02900270 IEM_DS3505
ZGOW,2010-09-07 18:00,ZGOW 071800Z AUTO 00000KT 7SM 29/26 A2971 RMK SLP062 T02910257 57009 IEM_DS3505
ZGOW,2010-09-07 19:00,ZGOW 071900Z AUTO 34002KT 3SM 28/25 A2971 RMK T02800250 IEM_DS3505
ZGOW,2010-09-07 20:00,ZGOW 072000Z AUTO 32002KT 2 1/2SM 28/25 A2971 RMK T02800250 IEM_DS3505
ZGOW,2010-09-07 21:00,ZGOW 072100Z AUTO 00000KT 6SM 28/26 A2968 RMK SLP052 T02810259 57010 IEM_DS3505
ZGOW,2010-09-07 22:00,ZGOW 072200Z AUTO 31004KT 2 1/2SM 27/25 A2971 RMK T02700250 IEM_DS3505
ZGOW,2010-09-07 23:00,ZGOW 072300Z AUTO 31004KT 2 1/2SM 28/25 A2971 RMK T02800250 IEM_DS3505
ZGOW,2010-09-08 00:00,ZGOW 080000Z AUTO 00000KT 6SM 30/26 A2971 RMK SLP061 T02970259 52009 IEM_DS3505
ZGOW,2010-09-08 01:00,ZGOW 080100Z AUTO 32004KT 4SM 31/25 A2974 RMK T03100250 IEM_DS3505
ZGOW,2010-09-08 02:00,ZGOW 080200Z AUTO 28002KT 4SM 33/25 A2974 RMK T03300250 IEM_DS3505
ZGOW,2010-09-08 03:00,ZGOW 080300Z AUTO 25004KT 6SM 32/26 A2971 RMK SLP061 T03240255 54000 IEM_DS3505
ZGOW,2010-09-08 04:00,ZGOW 080400Z AUTO 29004KT 4SM 34/25 A2968 RMK T03400250 IEM_DS3505
ZGOW,2010-09-08 05:00,ZGOW 080500Z AUTO 14008KT 3SM 34/25 A2968 RMK T03400250 IEM_DS3505
ZGOW,2010-09-08 06:00,ZGOW 080600Z AUTO 14006KT 7SM 33/26 A2965 RMK SLP035 T03300255 57026 IEM_DS3505
ZGOW,2010-09-08 07:00,ZGOW 080700Z AUTO 15010KT 4SM 33/24 A2962 RMK T03300240 IEM_DS3505
ZGOW,2010-09-08 08:00,ZGOW 080800Z AUTO 15008KT 5SM 32/24 A2962 RMK T03200240 IEM_DS3505
ZGOW,2010-09-08 09:00,ZGOW 080900Z AUTO 14008KT 9SM 31/24 A2965 RMK SLP037 T03130244 52002 IEM_DS3505
ZGOW,2010-09-08 10:00,ZGOW 081000Z AUTO 12010G19KT 7SM 30/24 A2965 RMK T03000240 IEM_DS3505
ZGOW,2010-09-08 11:00,ZGOW 081100Z AUTO 12002KT 7SM 29/24 A2971 RMK T02900240 IEM_DS3505
ZGOW,2010-09-08 12:00,ZGOW 081200Z AUTO 09006KT 9SM 30/25 A2971 RMK SLP063 T02990248 52026 IEM_DS3505
ZGOW,2010-09-08 13:00,ZGOW 081300Z AUTO 07010KT 7SM 29/25 A2974 RMK T02900250 IEM_DS3505
ZGOW,2010-09-08 15:00,ZGOW 081500Z AUTO 07006KT 9SM 29/25 A2974 RMK SLP070 T02900254 52007 IEM_DS3505
ZGOW,2010-09-08 16:00,ZGOW 081600Z AUTO 08010KT 7SM 29/25 A2971 RMK T02900250 IEM_DS3505
ZGOW,2010-09-08 17:00,ZGOW 081700Z AUTO 06012KT 7SM 28/25 A2971 RMK T02800250 IEM_DS3505
ZGOW,2010-09-08 18:00,ZGOW 081800Z AUTO 07008KT 9SM 29/25 A2968 RMK SLP055 T02880252 57015 IEM_DS3505
ZGOW,2010-09-08 19:00,ZGOW 081900Z AUTO 07008KT 6SM 28/25 A2971 RMK T02800250 IEM_DS3505
ZGOW,2010-09-08 20:00,ZGOW 082000Z AUTO 06010KT 6SM 28/25 A2971 RMK T02800250 IEM_DS3505
ZGOW,2010-09-08 21:00,ZGOW 082100Z AUTO 07004KT 9SM 28/24 A2974 RMK SLP065 T02830245 52010 IEM_DS3505
ZGOW,2010-09-08 22:00,ZGOW 082200Z AUTO 06006KT 7SM 28/24 A2971 RMK T02800240 IEM_DS3505
ZGOW,2010-09-08 23:00,ZGOW 082300Z AUTO 06006KT 7SM 28/25 A2971 RMK T02800250 IEM_DS3505
ZGOW,2010-09-09 00:00,ZGOW 090000Z AUTO 07004KT 9SM 29/25 A2974 RMK SLP065 T02890249 54000 IEM_DS3505
ZGOW,2010-09-09 01:00,ZGOW 090100Z AUTO 07010KT 7SM 28/25 A2974 RMK T02800250 IEM_DS3505
ZGOW,2010-09-09 02:00,ZGOW 090200Z AUTO 03010KT 7SM 27/24 A2974 RMK T02700240 IEM_DS3505
ZGOW,2010-09-09 03:00,ZGOW 090300Z AUTO 07004KT 9SM 27/24 A2974 RMK SLP065 T02740238 54000 IEM_DS3505
ZGOW,2010-09-09 04:00,ZGOW 090400Z AUTO 35008KT 7SM 27/24 A2971 RMK T02700240 IEM_DS3505
ZGOW,2010-09-09 05:00,ZGOW 090500Z AUTO 32006KT 7SM 27/24 A2971 RMK T02700240 IEM_DS3505
ZGOW,2010-09-09 06:00,ZGOW 090600Z AUTO 25002KT 9SM 27/24 A2968 RMK 60000 SLP050 T02740245 57015 IEM_DS3505
ZGOW,2010-09-09 07:00,ZGOW 090700Z AUTO 31006KT 7SM 29/24 A2965 RMK T02900240 IEM_DS3505
ZGOW,2010-09-09 08:00,ZGOW 090800Z AUTO 32008KT 7SM 28/24 A2962 RMK T02800240 IEM_DS3505
ZGOW,2010-09-09 09:00,ZGOW 090900Z AUTO 25006KT 9SM 28/24 A2962 RMK SLP031 T02770243 57019 IEM_DS3505
ZGOW,2010-09-09 10:00,ZGOW 091000Z AUTO 26008KT 7SM 28/24 A2962 RMK T02800240 IEM_DS3505
ZGOW,2010-09-09 11:00,ZGOW 091100Z AUTO 26004KT 7SM 27/24 A2965 RMK T02700240 IEM_DS3505
ZGOW,2010-09-09 12:00,ZGOW 091200Z AUTO 27004KT 9SM 27/24 A2965 RMK 60000 SLP041 T02670244 52010 IEM_DS3505
ZGOW,2010-09-09 13:00,ZGOW 091300Z AUTO 00000KT 4SM 26/24 A2968 RMK T02600240 IEM_DS3505
ZGOW,2010-09-09 14:00,ZGOW 091400Z AUTO 26002KT 7SM 27/24 A2968 RMK T02700240 IEM_DS3505
ZGOW,2010-09-09 15:00,ZGOW 091500Z AUTO 27004KT 9SM 27/24 A2968 RMK SLP052 T02660244 52011 IEM_DS3505
ZGOW,2010-09-09 16:00,ZGOW 091600Z AUTO 26006KT 7SM 26/24 A2968 RMK T02600240 IEM_DS3505
ZGOW,2010-09-09 17:00,ZGOW 091700Z AUTO 30004KT 4SM 25/24 A2968 RMK T02500240 IEM_DS3505
ZGOW,2010-09-09 18:00,ZGOW 091800Z AUTO 25002KT 8SM 26/24 A2965 RMK 60004 SLP043 T02570236 57009 IEM_DS3505
ZGOW,2010-09-09 19:00,ZGOW 091900Z AUTO 28002KT 7SM 26/24 A2965 RMK T02600240 IEM_DS3505
ZGOW,2010-09-09 20:00,ZGOW 092000Z AUTO 21004KT 7SM 26/24 A2965 RMK T02600240 IEM_DS3505
ZGOW,2010-09-09 21:00,ZGOW 092100Z AUTO 00000KT 7SM 26/23 A2965 RMK T02600230 IEM_DS3505
ZGOW,2010-09-09 22:00,ZGOW 092200Z AUTO 27002KT 7SM 26/24 A2965 RMK T02600240 IEM_DS3505
ZGOW,2010-09-09 23:00,ZGOW 092300Z AUTO 27004KT 7SM 26/24 A2968 RMK T02600240 IEM_DS3505
ZGOW,2010-09-10 00:00,ZGOW 100000Z AUTO 27004KT 9SM 27/24 A2968 RMK 70004 SLP054 T02740236 52011 IEM_DS3505
ZGOW,2010-09-10 01:00,ZGOW 100100Z AUTO 24004KT 6SM 29/24 A2968 RMK T02900240 IEM_DS3505
ZGOW,2010-09-10 02:00,ZGOW 100200Z AUTO 27004KT 7SM 31/25 A2971 RMK T03100250 IEM_DS3505
ZGOW,2010-09-10 03:00,ZGOW 100300Z AUTO 27004KT 10SM 31/24 A2971 RMK SLP062 T03080242 52008 IEM_DS3505
ZGOW,2010-09-10 04:00,ZGOW 100400Z AUTO 27004KT 7SM 32/24 A2971 RMK T03200240 IEM_DS3505
ZGOW,2010-09-10 05:00,ZGOW 100500Z AUTO 17008KT 7SM 30/26 A2968 RMK T03000260 IEM_DS3505
ZGOW,2010-09-10 06:00,ZGOW 100600Z AUTO 14008KT 9SM 30/26 A2968 RMK SLP045 T03020257 57017 IEM_DS3505
ZGOW,2010-09-10 07:00,ZGOW 100700Z AUTO 17012KT 7SM 31/26 A2965 RMK T03100260 IEM_DS3505
ZGOW,2010-09-10 08:00,ZGOW 100800Z AUTO 17012KT 7SM 30/25 A2965 RMK T03000250 IEM_DS3505
ZGOW,2010-09-10 09:00,ZGOW 100900Z AUTO 16006KT 9SM 29/26 A2968 RMK SLP046 T02930255 52001 IEM_DS3505
ZGOW,2010-09-10 10:00,ZGOW 101000Z AUTO 17008KT 7SM 29/25 A2968 RMK T02900250 IEM_DS3505
ZGOW,2010-09-10 11:00,ZGOW 101100Z AUTO 16006KT 7SM 29/26 A2971 RMK T02900260 IEM_DS3505
ZGOW,2010-09-10 12:00,ZGOW 101200Z AUTO 18004KT 9SM 28/26 A2974 RMK SLP065 T02820258 52019 IEM_DS3505
ZGOW,2010-09-10 13:00,ZGOW 101300Z AUTO 16002KT 7SM 28/25 A2974 RMK T02800250 IEM_DS3505
ZGOW,2010-09-10 14:00,ZGOW 101400Z AUTO 16004KT 7SM 28/26 A2977 RMK T02800260 IEM_DS3505
ZGOW,2010-09-10 15:00,ZGOW 101500Z AUTO 16006KT 8SM 28/26 A2977 RMK SLP082 T02810255 52017 IEM_DS3505
ZGOW,2010-09-10 16:00,ZGOW 101600Z AUTO 20002KT 7SM 27/25 A2977 RMK T02700250 IEM_DS3505
ZGOW,2010-09-10 17:00,ZGOW 101700Z AUTO 09002KT 7SM 26/25 A2974 RMK T02600250 IEM_DS3505
ZGOW,2010-09-10 18:00,ZGOW 101800Z AUTO 14002KT 8SM 27/25 A2974 RMK 60001 SLP071 T02720252 57011 IEM_DS3505
ZGOW,2010-09-10 19:00,ZGOW 101900Z AUTO 17002KT 6SM 26/25 A2974 RMK T02600250 IEM_DS3505
ZGOW,2010-09-10 20:00,ZGOW 102000Z AUTO 09002KT 6SM 26/25 A2974 RMK T02600250 IEM_DS3505
ZGOW,2010-09-10 21:00,ZGOW 102100Z AUTO 00000KT 9SM 26/25 A2977 RMK 70027 SLP074 T02600248 52003 IEM_DS3505
ZGOW,2010-09-10 22:00,ZGOW 102200Z AUTO 07002KT 7SM 26/25 A2977 RMK T02600250 IEM_DS3505
ZGOW,2010-09-10 23:00,ZGOW 102300Z AUTO 08002KT 4SM 26/25 A2980 RMK T02600250 IEM_DS3505
ZGOW,2010-09-11 00:00,ZGOW 110000Z AUTO 07004KT 9SM 27/26 A2980 RMK 60028 70028 SLP091 T02690255 52017 IEM_DS3505
ZGOW,2010-09-11 01:00,ZGOW 110100Z AUTO 06002KT 7SM 28/25 A2983 RMK T02800250 IEM_DS3505
ZGOW,2010-09-11 02:00,ZGOW 110200Z AUTO 04002KT 7SM 29/26 A2983 RMK T02900260 IEM_DS3505
ZGOW,2010-09-11 03:00,ZGOW 110300Z AUTO 09004KT 11SM 30/25 A2983 RMK SLP094 T02990250 52003 IEM_DS3505
ZGOW,2010-09-11 04:00,ZGOW 110400Z AUTO 10008KT 7SM 29/25 A2980 RMK T02900250 IEM_DS3505
ZGOW,2010-09-11 05:00,ZGOW 110500Z AUTO 12008KT 7SM 30/25 A2980 RMK T03000250 IEM_DS3505
ZGOW,2010-09-11 06:00,ZGOW 110600Z AUTO 11008KT 11SM 30/25 A2977 RMK 60000 SLP076 T02980249 57018 IEM_DS3505
ZGOW,2010-09-11 07:00,ZGOW 110700Z AUTO 12008KT 7SM 29/25 A2977 RMK T02900250 IEM_DS3505
ZGOW,2010-09-11 08:00,ZGOW 110800Z AUTO 13008KT 7SM 29/24 A2974 RMK T02900240 IEM_DS3505
ZGOW,2010-09-11 09:00,ZGOW 110900Z AUTO 14006KT 9SM 28/25 A2977 RMK SLP075 T02820246 57001 IEM_DS3505
ZGOW,2010-09-11 10:00,ZGOW 111000Z AUTO 22006KT 7SM 28/24 A2977 RMK T02800240 IEM_DS3505
ZGOW,2010-09-11 11:00,ZGOW 111100Z AUTO 18002KT 7SM 27/24 A2980 RMK T02700240 IEM_DS3505
ZGOW,2010-09-11 12:00,ZGOW 111200Z AUTO 14002KT 8SM 27/25 A2983 RMK 60008 SLP095 T02670251 52020 IEM_DS3505
ZGOW,2010-09-11 13:00,ZGOW 111300Z AUTO 15004KT 7SM 27/24 A2985 RMK T02700240 IEM_DS3505
ZGOW,2010-09-11 14:00,ZGOW 111400Z AUTO 18002KT 7SM 27/24 A2985 RMK T02700240 IEM_DS3505
ZGOW,2010-09-11 15:00,ZGOW 111500Z AUTO 14002KT 8SM 27/25 A2985 RMK SLP108 T02660246 52013 IEM_DS3505
ZGOW,2010-09-11 16:00,ZGOW 111600Z AUTO 16004KT 7SM 27/25 A2985 RMK T02700250 IEM_DS3505
ZGOW,2010-09-11 17:00,ZGOW 111700Z AUTO 15008KT 7SM 27/24 A2985 RMK T02700240 IEM_DS3505
ZGOW,2010-09-11 18:00,ZGOW 111800Z AUTO 20002KT 8SM 26/24 A2983 RMK 60000 SLP101 T02630245 57007 IEM_DS3505
ZGOW,2010-09-11 19:00,ZGOW 111900Z AUTO 11002KT 6SM 26/24 A2983 RMK T02600240 IEM_DS3505
ZGOW,2010-09-11 20:00,ZGOW 112000Z AUTO 00000KT 7SM 26/24 A2983 RMK T02600240 IEM_DS3505
ZGOW,2010-09-11 21:00,ZGOW 112100Z AUTO 00000KT 9SM 26/24 A2983 RMK 70010 SLP101 T02560244 54000 IEM_DS3505
ZGOW,2010-09-11 22:00,ZGOW 112200Z AUTO 18006KT 4SM 26/24 A2985 RMK T02600240 IEM_DS3505
ZGOW,2010-09-11 23:00,ZGOW 112300Z AUTO 16004KT 7SM 26/24 A2985 RMK T02600240 IEM_DS3505
ZGOW,2010-09-12 00:00,ZGOW 120000Z AUTO 18002KT 12SM 28/25 A2985 RMK 60000 70009 SLP116 T02780246 52015 IEM_DS3505
ZGOW,2010-09-12 01:00,ZGOW 120100Z AUTO 13006KT 4SM 28/25 A2988 RMK T02800250 IEM_DS3505
ZGOW,2010-09-12 02:00,ZGOW 120200Z AUTO 16012KT 7SM 30/25 A2988 RMK T03000250 IEM_DS3505
ZGOW,2010-09-12 03:00,ZGOW 120300Z AUTO 18008KT 16SM 30/24 A2988 RMK SLP120 T03030245 52004 IEM_DS3505
ZGOW,2010-09-12 04:00,ZGOW 120400Z AUTO 17010KT 7SM 31/25 A2988 RMK T03100250 IEM_DS3505
ZGOW,2010-09-12 05:00,ZGOW 120500Z AUTO 18012KT 7SM 31/24 A2985 RMK T03100240 IEM_DS3505
ZGOW,2010-09-12 06:00,ZGOW 120600Z AUTO 18006KT 16SM 31/25 A2985 RMK SLP107 T03080249 57013 IEM_DS3505
ZGOW,2010-09-12 07:00,ZGOW 120700Z AUTO 18010KT 7SM 31/24 A2983 RMK T03100240 IEM_DS3505
ZGOW,2010-09-12 08:00,ZGOW 120800Z AUTO 16010KT 7SM 30/24 A2983 RMK T03000240 IEM_DS3505
ZGOW,2010-09-12 09:00,ZGOW 120900Z AUTO 16004KT 16SM 30/24 A2983 RMK SLP099 T02990238 57008 IEM_DS3505
ZGOW,2010-09-12 10:00,ZGOW 121000Z AUTO 17006KT 7SM 29/23 A2983 RMK T02900230 IEM_DS3505
ZGOW,2010-09-12 11:00,ZGOW 121100Z AUTO 20004KT 7SM 28/24 A2985 RMK T02800240 IEM_DS3505
ZGOW,2010-09-12 12:00,ZGOW 121200Z AUTO 16004KT 12SM 28/24 A2988 RMK SLP115 T02790235 52016 IEM_DS3505
ZGOW,2010-09-12 13:00,ZGOW 121300Z AUTO 14002KT 6SM 27/24 A2988 RMK T02700240 IEM_DS3505
ZGOW,2010-09-12 14:00,ZGOW 121400Z AUTO 16002KT 6SM 27/24 A2991 RMK T02700240 IEM_DS3505
ZGOW,2010-09-12 15:00,ZGOW 121500Z AUTO 00000KT 9SM 27/24 A2991 RMK SLP128 T02670240 52013 IEM_DS3505
ZGOW,2010-09-12 16:00,ZGOW 121600Z AUTO 00000KT 6SM 27/24 A2991 RMK T02700240 IEM_DS3505
ZGOW,2010-09-12 17:00,ZGOW 121700Z AUTO 31002KT 7SM 27/24 A2988 RMK T02700240 IEM_DS3505
ZGOW,2010-09-12 18:00,ZGOW 121800Z AUTO 00000KT 9SM 26/24 A2988 RMK SLP118 T02650238 57010 IEM_DS3505
ZGOW,2010-09-12 21:00,ZGOW 122100Z AUTO 07002KT 9SM 26/24 A2985 RMK 70000 SLP112 T02590243 57006 IEM_DS3505
ZGOW,2010-09-12 22:00,ZGOW 122200Z AUTO 36002KT 4SM 26/24 A2988 RMK T02600240 IEM_DS3505
ZGOW,2010-09-12 23:00,ZGOW 122300Z AUTO 03004KT 7SM 27/25 A2988 RMK T02700250 IEM_DS3505
ZGOW,2010-09-13 00:00,ZGOW 130000Z AUTO 07004KT 7SM 27/24 A2988 RMK SLP122 T02740243 52010 IEM_DS3505
ZGOW,2010-09-13 01:00,ZGOW 130100Z AUTO 08004KT 7SM 28/24 A2991 RMK T02800240 IEM_DS3505
ZGOW,2010-09-13 02:00,ZGOW 130200Z AUTO 07006KT 7SM 30/24 A2991 RMK T03000240 IEM_DS3505
ZGOW,2010-09-13 03:00,ZGOW 130300Z AUTO 07006KT 11SM 31/24 A2988 RMK SLP123 T03090236 52001 IEM_DS3505
ZGOW,2010-09-13 04:00,ZGOW 130400Z AUTO 14006KT 7SM 32/22 A2988 RMK T03200220 IEM_DS3505
ZGOW,2010-09-13 05:00,ZGOW 130500Z AUTO 13006KT 7SM 31/24 A2988 RMK T03100240 IEM_DS3505
ZGOW,2010-09-13 06:00,ZGOW 130600Z AUTO 18004KT 14SM 32/20 A2985 RMK SLP110 T03220201 57013 IEM_DS3505
ZGOW,2010-09-13 07:00,ZGOW 130700Z AUTO 12006KT 7SM 31/24 A2983 RMK T03100240 IEM_DS3505
ZGOW,2010-09-13 08:00,ZGOW 130800Z AUTO 17006KT 7SM 31/23 A2983 RMK T03100230 IEM_DS3505
ZGOW,2010-09-13 09:00,ZGOW 130900Z AUTO 18004KT 14SM 30/23 A2983 RMK SLP100 T03020226 57010 IEM_DS3505
ZGOW,2010-09-13 10:00,ZGOW 131000Z AUTO 14004KT 7SM 29/24 A2983 RMK T02900240 IEM_DS3505
ZGOW,2010-09-13 11:00,ZGOW 131100Z AUTO 13004KT 7SM 28/25 A2983 RMK T02800250 IEM_DS3505
ZGOW,2010-09-13 12:00,ZGOW 131200Z AUTO 18002KT 11SM 28/25 A2985 RMK SLP108 T02810247 52008 IEM_DS3505
ZGOW,2010-09-13 13:00,ZGOW 131300Z AUTO 15004KT 7SM 28/24 A2988 RMK T02800240 IEM_DS3505
ZGOW,2010-09-13 14:00,ZGOW 131400Z AUTO 14002KT 7SM 28/24 A2991 RMK T02800240 IEM_DS3505
ZGOW,2010-09-13 15:00,ZGOW 131500Z AUTO 00000KT 11SM 27/25 A2988 RMK SLP122 T02700246 52014 IEM_DS3505
ZGOW,2010-09-13 16:00,ZGOW 131600Z AUTO 00000KT 7SM 27/24 A2988 RMK T02700240 IEM_DS3505
ZGOW,2010-09-13 17:00,ZGOW 131700Z AUTO 30002KT 7SM 27/24 A2988 RMK T02700240 IEM_DS3505
ZGOW,2010-09-13 18:00,ZGOW 131800Z AUTO 00000KT 8SM 27/25 A2988 RMK SLP117 T02720252 57005 IEM_DS3505
ZGOW,2010-09-13 21:00,ZGOW 132100Z AUTO 04002KT 6SM 26/25 A2988 RMK SLP115 T02640248 57002 IEM_DS3505
ZGOW,2010-09-13 22:00,ZGOW 132200Z AUTO 31002KT 4SM 26/24 A2988 RMK T02600240 IEM_DS3505
ZGOW,2010-09-13 23:00,ZGOW 132300Z AUTO 31002KT 4SM 26/24 A2991 RMK T02600240 IEM_DS3505
ZGOW,2010-09-14 00:00,ZGOW 140000Z AUTO 27002KT 7SM 28/24 A2991 RMK SLP127 T02790245 52012 IEM_DS3505
ZGOW,2010-09-14 01:00,ZGOW 140100Z AUTO 34002KT 4SM 30/24 A2991 RMK T03000240 IEM_DS3505
ZGOW,2010-09-14 02:00,ZGOW 140200Z AUTO 33002KT 7SM 32/24 A2991 RMK T03200240 IEM_DS3505
ZGOW,2010-09-14 03:00,ZGOW 140300Z AUTO 07004KT 8SM 32/22 A2988 RMK SLP125 T03240216 57002 IEM_DS3505
ZGOW,2010-09-14 04:00,ZGOW 140400Z AUTO 08006KT 6SM 32/22 A2988 RMK T03200220 IEM_DS3505
ZGOW,2010-09-14 05:00,ZGOW 140500Z AUTO 13006KT 7SM 32/22 A2988 RMK T03200220 IEM_DS3505
ZGOW,2010-09-14 06:00,ZGOW 140600Z AUTO 16004KT 9SM 32/20 A2985 RMK SLP109 T03210197 57016 IEM_DS3505
ZGOW,2010-09-14 07:00,ZGOW 140700Z AUTO 13006KT 7SM 31/23 A2985 RMK T03100230 IEM_DS3505
ZGOW,2010-09-14 08:00,ZGOW 140800Z AUTO 14008KT 6SM 31/24 A2985 RMK T03100240 IEM_DS3505
ZGOW,2010-09-14 09:00,ZGOW 140900Z AUTO 14004G17KT 9SM 31/20 A2985 RMK SLP104 T03110204 57005 IEM_DS3505
ZGOW,2010-09-14 10:00,ZGOW 141000Z AUTO 14004KT 6SM 29/24 A2985 RMK T02900240 IEM_DS3505
ZGOW,2010-09-14 11:00,ZGOW 141100Z AUTO 13004KT 6SM 28/24 A2985 RMK T02800240 IEM_DS3505
ZGOW,2010-09-14 12:00,ZGOW 141200Z AUTO 11004KT 9SM 29/24 A2988 RMK SLP114 T02860240 52010 IEM_DS3505
ZGOW,2010-09-14 13:00,ZGOW 141300Z AUTO 12002KT 7SM 28/24 A2988 RMK T02800240 IEM_DS3505
ZGOW,2010-09-14 14:00,ZGOW 141400Z AUTO 00000KT 7SM 27/24 A2991 RMK T02700240 IEM_DS3505
ZGOW,2010-09-14 15:00,ZGOW 141500Z AUTO 11002KT 9SM 28/24 A2991 RMK SLP131 T02830245 52017 IEM_DS3505
ZGOW,2010-09-14 16:00,ZGOW 141600Z AUTO 08002KT 3SM 27/25 A2991 RMK T02700250 IEM_DS3505
ZGOW,2010-09-14 17:00,ZGOW 141700Z AUTO 06002KT 2 1/2SM 27/25 A2988 RMK T02700250 IEM_DS3505
ZGOW,2010-09-14 18:00,ZGOW 141800Z AUTO 00000KT 9SM 27/25 RMK SLP119 T02740248 57012 IEM_DS3505
ZGOW,2010-09-14 19:00,ZGOW 141900Z AUTO 00000KT 1 1/2SM 27/25 A2988 RMK T02700250 IEM_DS3505
ZGOW,2010-09-14 21:00,ZGOW 142100Z AUTO 07002KT 6SM 27/25 A2988 RMK SLP115 T02670249 57004 IEM_DS3505
ZGOW,2010-09-14 22:00,ZGOW 142200Z AUTO 34002KT 2SM 26/24 A2988 RMK T02600240 IEM_DS3505
ZGOW,2010-09-14 23:00,ZGOW 142300Z AUTO 07002KT 1 1/2SM 27/25 A2988 RMK T02700250 IEM_DS3505
ZGOW,2010-09-15 00:00,ZGOW 150000Z AUTO 00000KT 6SM 28/25 A2991 RMK SLP127 T02830249 52012 IEM_DS3505
ZGOW,2010-09-15 01:00,ZGOW 150100Z AUTO 09002KT 7SM 30/22 A2991 RMK T03000220 IEM_DS3505
ZGOW,2010-09-15 02:00,ZGOW 150200Z AUTO 10004KT 7SM 31/23 A2991 RMK T03100230 IEM_DS3505
ZGOW,2010-09-15 03:00,ZGOW 150300Z AUTO 25004KT 7SM 30/24 A2991 RMK SLP125 T03030242 57002 IEM_DS3505
ZGOW,2010-09-15 04:00,ZGOW 150400Z AUTO 10006KT 7SM 32/23 A2988 RMK T03200230 IEM_DS3505
ZGOW,2010-09-15 05:00,ZGOW 150500Z AUTO 13006KT 7SM 32/22 A2985 RMK T03200220 IEM_DS3505
ZGOW,2010-09-15 06:00,ZGOW 150600Z AUTO 09004KT 11SM 33/23 A2983 RMK SLP102 T03290233 57023 IEM_DS3505
ZGOW,2010-09-15 07:00,ZGOW 150700Z AUTO 15006KT 7SM 32/22 A2983 RMK T03200220 IEM_DS3505
ZGOW,2010-09-15 08:00,ZGOW 150800Z AUTO 15008KT 7SM 31/23 A2980 RMK T03100230 IEM_DS3505
ZGOW,2010-09-15 09:00,ZGOW 150900Z AUTO 16006KT 11SM 31/23 A2983 RMK SLP094 T03100231 57008 IEM_DS3505
ZGOW,2010-09-15 10:00,ZGOW 151000Z AUTO 16006KT 7SM 29/24 A2983 RMK T02900240 IEM_DS3505
ZGOW,2010-09-15 11:00,ZGOW 151100Z AUTO 15004KT 6SM 29/24 A2985 RMK T02900240 IEM_DS3505
ZGOW,2010-09-15 12:00,ZGOW 151200Z AUTO 20002KT 11SM 28/24 A2985 RMK SLP108 T02830245 52014 IEM_DS3505
ZGOW,2010-09-15 13:00,ZGOW 151300Z AUTO 21004KT 6SM 28/24 A2985 RMK T02800240 IEM_DS3505
ZGOW,2010-09-15 14:00,ZGOW 151400Z AUTO 21002KT 7SM 28/24 A2988 RMK T02800240 IEM_DS3505
ZGOW,2010-09-15 15:00,ZGOW 151500Z AUTO 22002KT 9SM 28/25 A2988 RMK SLP115 T02770249 52007 IEM_DS3505
ZGOW,2010-09-15 16:00,ZGOW 151600Z AUTO 22002KT 5SM 28/25 A2985 RMK T02800250 IEM_DS3505
ZGOW,2010-09-15 17:00,ZGOW 151700Z AUTO 28002KT 6SM 28/25 A2985 RMK T02800250 IEM_DS3505
ZGOW,2010-09-15 18:00,ZGOW 151800Z AUTO 00000KT 9SM 27/25 RMK SLP105 T02700250 57010 IEM_DS3505
ZGOW,2010-09-15 20:00,ZGOW 152000Z AUTO 28002KT 3SM 27/24 A2983 RMK T02700240 IEM_DS3505
ZGOW,2010-09-15 21:00,ZGOW 152100Z AUTO 29004KT 7SM 26/24 A2983 RMK SLP100 T02650245 57005 IEM_DS3505
ZGOW,2010-09-15 22:00,ZGOW 152200Z AUTO 32002KT 3SM 26/24 A2983 RMK T02600240 IEM_DS3505
ZGOW,2010-09-15 23:00,ZGOW 152300Z AUTO 28002KT 3SM 27/24 A2985 RMK T02700240 IEM_DS3505
ZGOW,2010-09-16 00:00,ZGOW 160000Z AUTO 34002KT 7SM 29/24 A2985 RMK SLP109 T02890245 52009 IEM_DS3505
ZGOW,2010-09-16 01:00,ZGOW 160100Z AUTO 31004KT 4SM 30/24 A2985 RMK T03000240 IEM_DS3505
ZGOW,2010-09-16 02:00,ZGOW 160200Z AUTO 31006KT 4SM 31/24 A2985 RMK T03100240 IEM_DS3505
ZGOW,2010-09-16 03:00,ZGOW 160300Z AUTO 25006KT 7SM 32/25 A2985 RMK SLP106 T03250253 57003 IEM_DS3505
ZGOW,2010-09-16 04:00,ZGOW 160400Z AUTO 10006KT 4SM 33/25 A2983 RMK T03300250 IEM_DS3505
ZGOW,2010-09-16 05:00,ZGOW 160500Z AUTO 10008KT 5SM 33/24 A2980 RMK T03300240 IEM_DS3505
ZGOW,2010-09-16 06:00,ZGOW 160600Z AUTO 14004KT 7SM 33/24 A2980 RMK SLP083 T03310237 57023 IEM_DS3505
ZGOW,2010-09-16 07:00,ZGOW 160700Z AUTO 14010KT 6SM 32/25 A2977 RMK T03200250 IEM_DS3505
ZGOW,2010-09-16 08:00,ZGOW 160800Z AUTO 13008KT 6SM 31/25 A2977 RMK T03100250 IEM_DS3505
ZGOW,2010-09-16 09:00,ZGOW 160900Z AUTO 11004KT 7SM 31/25 A2977 RMK SLP076 T03060247 57007 IEM_DS3505
ZGOW,2010-09-16 10:00,ZGOW 161000Z AUTO 14004KT 4SM 30/25 A2977 RMK T03000250 IEM_DS3505
ZGOW,2010-09-16 11:00,ZGOW 161100Z AUTO 13002KT 4SM 29/25 A2980 RMK T02900250 IEM_DS3505
ZGOW,2010-09-16 12:00,ZGOW 161200Z AUTO 00000KT 9SM 29/25 A2983 RMK SLP095 T02880246 52019 IEM_DS3505
ZGOW,2010-09-16 13:00,ZGOW 161300Z AUTO 00000KT 4SM 29/24 A2983 RMK T02900240 IEM_DS3505
ZGOW,2010-09-16 14:00,ZGOW 161400Z AUTO 08004KT 4SM 28/25 A2983 RMK T02800250 IEM_DS3505
ZGOW,2010-09-16 15:00,ZGOW 161500Z AUTO 00000KT 9SM 27/24 A2983 RMK SLP100 T02740245 52005 IEM_DS3505
ZGOW,2010-09-16 16:00,ZGOW 161600Z AUTO 05002KT 4SM 28/25 A2983 RMK T02800250 IEM_DS3505
ZGOW,2010-09-16 17:00,ZGOW 161700Z AUTO 08002KT 3SM 28/25 A2980 RMK T02800250 IEM_DS3505
ZGOW,2010-09-16 18:00,ZGOW 161800Z AUTO 00000KT 7SM 28/25 A2980 RMK SLP085 T02770251 57015 IEM_DS3505
ZGOW,2010-09-16 19:00,ZGOW 161900Z AUTO 06002KT 1 1/4SM 27/25 A2980 RMK T02700250 IEM_DS3505
ZGOW,2010-09-16 20:00,ZGOW 162000Z AUTO 04004KT 1SM 27/25 A2980 RMK T02700250 IEM_DS3505
ZGOW,2010-09-16 21:00,ZGOW 162100Z AUTO 00000KT 5SM 27/25 A2977 RMK SLP083 T02730253 57002 IEM_DS3505
ZGOW,2010-09-16 22:00,ZGOW 162200Z AUTO 06002KT 1 1/4SM 26/24 A2980 RMK T02600240 IEM_DS3505
ZGOW,2010-09-16 23:00,ZGOW 162300Z AUTO 04002KT 2SM 27/25 A2983 RMK T02700250 IEM_DS3505
ZGOW,2010-09-17 00:00,ZGOW 170000Z AUTO 27002KT 4SM 29/26 A2983 RMK SLP096 T02890257 52013 IEM_DS3505
ZGOW,2010-09-17 01:00,ZGOW 170100Z AUTO 36002KT 1 1/2SM 30/25 A2983 RMK T03000250 IEM_DS3505
ZGOW,2010-09-17 02:00,ZGOW 170200Z AUTO 28002KT 2SM 31/25 A2983 RMK T03100250 IEM_DS3505
ZGOW,2010-09-17 03:00,ZGOW 170300Z AUTO 25004KT 3SM 32/26 A2980 RMK SLP093 T03170260 57003 IEM_DS3505
ZGOW,2010-09-17 04:00,ZGOW 170400Z AUTO 12006KT 2 1/2SM 33/25 A2980 RMK T03300250 IEM_DS3505
ZGOW,2010-09-17 05:00,ZGOW 170500Z AUTO 13004KT 3SM 30/26 A2977 RMK T03000260 IEM_DS3505
ZGOW,2010-09-17 06:00,ZGOW 170600Z AUTO 29004KT 6SM 30/23 A2974 RMK 60000 SLP070 T03010233 57023 IEM_DS3505
ZGOW,2010-09-17 07:00,ZGOW 170700Z AUTO 13004KT 4SM 30/24 A2977 RMK T03000240 IEM_DS3505
ZGOW,2010-09-17 08:00,ZGOW 170800Z AUTO 04004KT 4SM 27/23 A2974 RMK T02700230 IEM_DS3505
ZGOW,2010-09-17 09:00,ZGOW 170900Z AUTO 29002KT 7SM 29/23 A2974 RMK SLP072 T02940234 52002 IEM_DS3505
ZGOW,2010-09-17 10:00,ZGOW 171000Z AUTO 10004KT 4SM 29/24 A2977 RMK T02900240 IEM_DS3505
ZGOW,2010-09-17 11:00,ZGOW 171100Z AUTO 11004KT 4SM 28/25 A2977 RMK T02800250 IEM_DS3505
ZGOW,2010-09-17 12:00,ZGOW 171200Z AUTO 11004KT 7SM 29/24 A2980 RMK 60000 SLP091 T02920245 52019 IEM_DS3505
ZGOW,2010-09-17 13:00,ZGOW 171300Z AUTO 14002KT 4SM 28/25 A2980 RMK T02800250 IEM_DS3505
ZGOW,2010-09-17 14:00,ZGOW 171400Z AUTO 27002KT 2 1/2SM 28/25 A2980 RMK T02800250 IEM_DS3505
ZGOW,2010-09-17 15:00,ZGOW 171500Z AUTO 27002KT 5SM 27/25 A2983 RMK SLP095 T02710246 52004 IEM_DS3505
ZGOW,2010-09-17 16:00,ZGOW 171600Z AUTO 10002KT 2SM 27/25 A2980 RMK T02700250 IEM_DS3505
ZGOW,2010-09-17 17:00,ZGOW 171700Z AUTO 06004KT 1 1/2SM 27/25 A2980 RMK T02700250 IEM_DS3505
ZGOW,2010-09-17 18:00,ZGOW 171800Z AUTO 00000KT 5SM 27/25 RMK 60000 SLP083 T02720250 57012 IEM_DS3505
ZGOW,2010-09-17 19:00,ZGOW 171900Z AUTO 04006KT 1 1/4SM 26/24 A2977 RMK T02600240 IEM_DS3505
ZGOW,2010-09-17 21:00,ZGOW 172100Z AUTO 00000KT 4SM 27/25 A2977 RMK 70000 SLP084 T02690251 52001 IEM_DS3505
ZGOW,2010-09-17 22:00,ZGOW 172200Z AUTO 04004KT 2 1/2SM 26/24 A2980 RMK T02600240 IEM_DS3505
ZGOW,2010-09-17 23:00,ZGOW 172300Z AUTO 04004KT 2 1/2SM 27/25 A2980 RMK T02700250 IEM_DS3505
ZGOW,2010-09-18 00:00,ZGOW 180000Z AUTO 07002KT 4SM 28/25 A2983 RMK 70000 SLP094 T02800250 52010 IEM_DS3505
ZGOW,2010-09-18 01:00,ZGOW 180100Z AUTO 08004KT 2 1/2SM 29/24 A2983 RMK T02900240 IEM_DS3505
ZGOW,2010-09-18 02:00,ZGOW 180200Z AUTO 08004KT 4SM 29/24 A2983 RMK T02900240 IEM_DS3505
ZGOW,2010-09-18 03:00,ZGOW 180300Z AUTO 00000KT 5SM 30/25 A2980 RMK SLP085 T03000246 57009 IEM_DS3505
ZGOW,2010-09-18 04:00,ZGOW 180400Z AUTO 08004KT 4SM 31/23 A2977 RMK T03100230 IEM_DS3505
ZGOW,2010-09-18 05:00,ZGOW 180500Z AUTO 11008KT 4SM 30/23 A2977 RMK T03000230 IEM_DS3505
ZGOW,2010-09-18 06:00,ZGOW 180600Z AUTO 14006KT 7SM 30/24 A2974 RMK SLP069 T02990241 57016 IEM_DS3505
ZGOW,2010-09-18 07:00,ZGOW 180700Z AUTO 13006KT 7SM 30/23 A2971 RMK T03000230 IEM_DS3505
ZGOW,2010-09-18 08:00,ZGOW 180800Z AUTO 13008KT 7SM 29/23 A2971 RMK T02900230 IEM_DS3505
ZGOW,2010-09-18 09:00,ZGOW 180900Z AUTO 14004KT 6SM 29/24 A2971 RMK SLP061 T02870240 57008 IEM_DS3505
ZGOW,2010-09-18 10:00,ZGOW 181000Z AUTO 15004KT 4SM 28/23 A2974 RMK T02800230 IEM_DS3505
ZGOW,2010-09-18 11:00,ZGOW 181100Z AUTO 17002KT 4SM 28/23 A2974 RMK T02800230 IEM_DS3505
ZGOW,2010-09-18 12:00,ZGOW 181200Z AUTO 16002KT 6SM 28/24 A2977 RMK SLP079 T02790235 52018 IEM_DS3505
ZGOW,2010-09-18 13:00,ZGOW 181300Z AUTO 16002KT 6SM 27/23 A2977 RMK T02700230 IEM_DS3505
ZGOW,2010-09-18 14:00,ZGOW 181400Z AUTO 16002KT 4SM 27/23 A2977 RMK T02700230 IEM_DS3505
ZGOW,2010-09-18 15:00,ZGOW 181500Z AUTO 27002KT 6SM 28/24 A2977 RMK SLP073 T02760240 57006 IEM_DS3505
ZGOW,2010-09-18 16:00,ZGOW 181600Z AUTO 09004KT 3SM 26/24 A2974 RMK T02600240 IEM_DS3505
ZGOW,2010-09-18 17:00,ZGOW 181700Z AUTO 00000KT 3SM 27/24 A2974 RMK T02700240 IEM_DS3505
ZGOW,2010-09-18 18:00,ZGOW 181800Z AUTO 25002KT 6SM 27/24 A2971 RMK SLP058 T02670245 57015 IEM_DS3505
ZGOW,2010-09-18 21:00,ZGOW 182100Z AUTO 00000KT 2SM 26/24 A2968 RMK SLP047 T02600244 57011 IEM_DS3505
ZGOW,2010-09-18 22:00,ZGOW 182200Z AUTO 31004KT 1 1/2SM 26/24 A2968 RMK T02600240 IEM_DS3505
ZGOW,2010-09-18 23:00,ZGOW 182300Z AUTO 29004KT 1 1/2SM 26/24 A2968 RMK T02600240 IEM_DS3505
ZGOW,2010-09-19 00:00,ZGOW 190000Z AUTO 25006KT 2 1/2SM 27/25 A2971 RMK SLP056 T02730248 52009 IEM_DS3505
ZGOW,2010-09-19 01:00,ZGOW 190100Z AUTO 30006KT 2 1/2SM 30/24 A2968 RMK T03000240 IEM_DS3505
ZGOW,2010-09-19 02:00,ZGOW 190200Z AUTO 32010KT 3SM 31/24 A2968 RMK T03100240 IEM_DS3505
ZGOW,2010-09-19 03:00,ZGOW 190300Z AUTO 27006KT 3SM 32/25 A2962 RMK SLP032 T03190253 57024 IEM_DS3505
ZGOW,2010-09-19 04:00,ZGOW 190400Z AUTO 31010KT 3SM 33/24 A2959 RMK T03300240 IEM_DS3505
ZGOW,2010-09-19 05:00,ZGOW 190500Z AUTO 31012KT 4SM 35/24 A2956 RMK T03500240 IEM_DS3505
ZGOW,2010-09-19 06:00,ZGOW 190600Z AUTO 29008KT 5SM 35/23 A2953 RMK SLP997 T03500233 57035 IEM_DS3505
ZGOW,2010-09-19 07:00,ZGOW 190700Z AUTO 32012KT 4SM 34/22 A2950 RMK T03400220 IEM_DS3505
ZGOW,2010-09-19 08:00,ZGOW 190800Z AUTO 32010KT 4SM 34/22 A2947 RMK T03400220 IEM_DS3505
ZGOW,2010-09-19 09:00,ZGOW 190900Z AUTO 29006KT 4SM 34/22 A2950 RMK SLP983 T03360217 57014 IEM_DS3505
ZGOW,2010-09-19 10:00,ZGOW 191000Z AUTO 28008KT 4SM 33/23 A2947 RMK T03300230 IEM_DS3505
ZGOW,2010-09-19 11:00,ZGOW 191100Z AUTO 28010KT 2 1/2SM 33/23 A2947 RMK T03300230 IEM_DS3505
ZGOW,2010-09-19 12:00,ZGOW 191200Z AUTO 29006KT 5SM 32/22 A2947 RMK SLP979 T03230221 57004 IEM_DS3505
ZGOW,2010-09-19 13:00,ZGOW 191300Z AUTO 30010KT 4SM 33/22 A2947 RMK T03300220 IEM_DS3505
ZGOW,2010-09-19 14:00,ZGOW 191400Z AUTO 29008KT 4SM 32/21 A2944 RMK T03200210 IEM_DS3505
ZGOW,2010-09-19 15:00,ZGOW 191500Z AUTO 29006KT 5SM 32/19 A2944 RMK SLP975 T03200189 57004 IEM_DS3505
ZGOW,2010-09-19 16:00,ZGOW 191600Z AUTO 30010KT 5SM 33/20 A2944 RMK T03300200 IEM_DS3505
ZGOW,2010-09-19 17:00,ZGOW 191700Z AUTO 30008KT 5SM 32/20 A2941 RMK T03200200 IEM_DS3505
ZGOW,2010-09-19 18:00,ZGOW 191800Z AUTO 29008KT 6SM 32/19 A2941 RMK SLP956 T03160193 57019 IEM_DS3505
ZGOW,2010-09-19 21:00,ZGOW 192100Z AUTO 27010KT 6SM 30/20 A2932 RMK 70000 SLP933 T02990199 57023 IEM_DS3505
ZGOW,2010-09-19 22:00,ZGOW 192200Z AUTO 27012KT 4SM 29/22 A2932 RMK T02900220 IEM_DS3505
ZGOW,2010-09-19 23:00,ZGOW 192300Z AUTO 28014G23KT 2SM 26/23 A2932 RMK T02600230 IEM_DS3505
ZGOW,2010-09-20 00:00,ZGOW 200000Z AUTO 27008G23KT 4SM 26/24 A2935 RMK 60035 70035 SLP938 T02550241 52005 IEM_DS3505
ZGOW,2010-09-20 01:00,ZGOW 200100Z AUTO 26012KT 1 1/4SM 25/23 A2935 RMK T02500230 IEM_DS3505
ZGOW,2010-09-20 02:00,ZGOW 200200Z AUTO 27010KT 1 1/4SM 25/24 A2932 RMK T02500240 IEM_DS3505
ZGOW,2010-09-20 03:00,ZGOW 200300Z AUTO 27002KT 2 1/2SM 25/24 A2932 RMK SLP930 T02460237 57008 IEM_DS3505
ZGOW,2010-09-20 04:00,ZGOW 200400Z AUTO 13008KT 1 1/2SM 25/24 A2935 RMK T02500240 IEM_DS3505
ZGOW,2010-09-20 05:00,ZGOW 200500Z AUTO 14014G23KT 1 1/2SM 25/23 A2935 RMK T02500230 IEM_DS3505
ZGOW,2010-09-20 06:00,ZGOW 200600Z AUTO 11012G25KT 4SM 25/24 A2938 RMK 60102 SLP938 T02480238 52008 IEM_DS3505
ZGOW,2010-09-20 07:00,ZGOW 200700Z AUTO 11016G29KT 2SM 24/23 A2935 RMK T02400230 IEM_DS3505
ZGOW,2010-09-20 08:00,ZGOW 200800Z AUTO 14017G31KT 2SM 25/24 A2935 RMK T02500240 IEM_DS3505
ZGOW,2010-09-20 09:00,ZGOW 200900Z AUTO 16008G27KT 4SM 25/24 A2935 RMK SLP940 T02540242 52002 IEM_DS3505
ZGOW,2010-09-20 10:00,ZGOW 201000Z AUTO 18016G25KT 2SM 25/24 A2944 RMK T02500240 IEM_DS3505
ZGOW,2010-09-20 11:00,ZGOW 201100Z AUTO 19016G25KT 2SM 25/23 A2950 RMK T02500230 IEM_DS3505
ZGOW,2010-09-20 12:00,ZGOW 201200Z AUTO 14006G25KT 4SM 26/24 A2956 RMK 60016 SLP010 T02550241 52070 IEM_DS3505
ZGOW,2010-09-20 13:00,ZGOW 201300Z AUTO 16016G25KT 2 1/2SM 24/23 A2962 RMK T02400230 IEM_DS3505
ZGOW,2010-09-20 14:00,ZGOW 201400Z AUTO 15010KT 2 1/2SM 24/23 A2968 RMK T02400230 IEM_DS3505
ZGOW,2010-09-20 15:00,ZGOW 201500Z AUTO 11006KT 6SM 25/24 A2971 RMK SLP051 T02490237 52041 IEM_DS3505
ZGOW,2010-09-20 16:00,ZGOW 201600Z AUTO 15012KT 4SM 27/25 A2968 RMK T02700250 IEM_DS3505
ZGOW,2010-09-20 17:00,ZGOW 201700Z AUTO 16014KT 4SM 27/25 A2968 RMK T02700250 IEM_DS3505
ZGOW,2010-09-20 18:00,ZGOW 201800Z AUTO 16008KT 9SM 28/26 A2971 RMK 60122 SLP055 T02770257 52004 IEM_DS3505
ZGOW,2010-09-20 20:00,ZGOW 202000Z AUTO 16012KT 4SM 27/25 A2971 RMK T02700250 IEM_DS3505
ZGOW,2010-09-20 21:00,ZGOW 202100Z AUTO 22006KT 9SM 25/23 A2974 RMK 70300 SLP070 T02460230 52014 IEM_DS3505
ZGOW,2010-09-20 22:00,ZGOW 202200Z AUTO 20008KT 2 1/2SM 25/23 A2977 RMK T02500230 IEM_DS3505
ZGOW,2010-09-20 23:00,ZGOW 202300Z AUTO 16004KT 4SM 25/23 A2980 RMK T02500230 IEM_DS3505
ZGOW,2010-09-21 00:00,ZGOW 210000Z AUTO 11002KT 8SM 25/24 A2983 RMK 60031 70266 SLP094 T02520236 52024 IEM_DS3505
ZGOW,2010-09-21 01:00,ZGOW 210100Z AUTO 14008KT 4SM 26/24 A2983 RMK T02600240 IEM_DS3505
ZGOW,2010-09-21 02:00,ZGOW 210200Z AUTO 16014G27KT 2 1/2SM 26/25 A2985 RMK T02600250 IEM_DS3505
ZGOW,2010-09-21 03:00,ZGOW 210300Z AUTO 14008KT 9SM 30/26 A2983 RMK SLP102 T02950263 52009 IEM_DS3505
ZGOW,2010-09-21 04:00,ZGOW 210400Z AUTO 16012KT 7SM 28/24 A2983 RMK T02800240 IEM_DS3505
ZGOW,2010-09-21 05:00,ZGOW 210500Z AUTO 17006KT 7SM 27/25 A2983 RMK T02700250 IEM_DS3505
ZGOW,2010-09-21 06:00,ZGOW 210600Z AUTO 14010G19KT 3SM 26/25 A2980 RMK 60071 SLP093 T02580246 57009 IEM_DS3505
ZGOW,2010-09-21 07:00,ZGOW 210700Z AUTO 20008KT 7SM 24/22 A2980 RMK T02400220 IEM_DS3505
ZGOW,2010-09-21 08:00,ZGOW 210800Z AUTO 14006KT 5SM 26/23 A2983 RMK T02600230 IEM_DS3505
ZGOW,2010-09-21 09:00,ZGOW 210900Z AUTO 18002KT 9SM 25/24 A2983 RMK SLP105 T02520242 52011 IEM_DS3505
ZGOW,2010-09-21 10:00,ZGOW 211000Z AUTO 18004KT 2 1/2SM 25/23 A2985 RMK T02500230 IEM_DS3505
ZGOW,2010-09-21 11:00,ZGOW 211100Z AUTO 13002KT 7SM 24/23 A2988 RMK T02400230 IEM_DS3505
ZGOW,2010-09-21 12:00,ZGOW 211200Z AUTO 11004KT 9SM 25/23 A2988 RMK 60197 SLP118 T02480234 52013 IEM_DS3505
ZGOW,2010-09-21 13:00,ZGOW 211300Z AUTO 12004KT 7SM 24/23 A2991 RMK T02400230 IEM_DS3505
ZGOW,2010-09-21 14:00,ZGOW 211400Z AUTO 09004KT 7SM 24/23 A2991 RMK T02400230 IEM_DS3505
ZGOW,2010-09-21 15:00,ZGOW 211500Z AUTO 09002KT 9SM 25/23 A2991 RMK SLP133 T02480234 52016 IEM_DS3505
ZGOW,2010-09-21 16:00,ZGOW 211600Z AUTO 05004KT 7SM 25/23 A2991 RMK T02500230 IEM_DS3505
ZGOW,2010-09-21 17:00,ZGOW 211700Z AUTO 02004KT 7SM 24/23 A2991 RMK T02400230 IEM_DS3505
ZGOW,2010-09-21 18:00,ZGOW 211800Z AUTO 00000KT 9SM 24/24 A2988 RMK SLP122 T02450235 57012 IEM_DS3505
ZGOW,2010-09-21 19:00,ZGOW 211900Z AUTO 36002KT 7SM 25/23 A2988 RMK T02500230 IEM_DS3505
ZGOW,2010-09-21 20:00,ZGOW 212000Z AUTO 28002KT 7SM 25/23 A2988 RMK T02500230 IEM_DS3505
ZGOW,2010-09-21 21:00,ZGOW 212100Z AUTO 07004KT 7SM 24/23 A2985 RMK 70267 SLP115 T02430231 57007 IEM_DS3505
ZGOW,2010-09-21 22:00,ZGOW 212200Z AUTO 05004KT 7SM 24/23 A2988 RMK T02400230 IEM_DS3505
ZGOW,2010-09-21 23:00,ZGOW 212300Z AUTO 04002KT 7SM 25/23 A2991 RMK T02500230 IEM_DS3505
ZGOW,2010-09-22 00:00,ZGOW 220000Z AUTO 04002KT 6SM 26/24 A2994 RMK 70266 SLP137 T02590239 52022 IEM_DS3505
ZGOW,2010-09-22 01:00,ZGOW 220100Z AUTO 07008KT 7SM 26/24 A2994 RMK T02600240 IEM_DS3505
ZGOW,2010-09-22 02:00,ZGOW 220200Z AUTO 08006KT 7SM 27/24 A2994 RMK T02700240 IEM_DS3505
ZGOW,2010-09-22 03:00,ZGOW 220300Z AUTO 11004KT 7SM 27/24 A2994 RMK SLP140 T02680239 52003 IEM_DS3505
ZGOW,2010-09-22 04:00,ZGOW 220400Z AUTO 10002KT 4SM 26/24 A2994 RMK T02600240 IEM_DS3505
ZGOW,2010-09-22 05:00,ZGOW 220500Z AUTO 14002KT 7SM 26/24 A2991 RMK T02600240 IEM_DS3505
ZGOW,2010-09-22 06:00,ZGOW 220600Z AUTO 27002KT 7SM 27/24 A2988 RMK 60004 SLP124 T02660243 57016 IEM_DS3505
ZGOW,2010-09-22 07:00,ZGOW 220700Z AUTO 28004KT 7SM 27/24 A2988 RMK T02700240 IEM_DS3505
ZGOW,2010-09-22 08:00,ZGOW 220800Z AUTO 30002KT 7SM 28/24 A2988 RMK T02800240 IEM_DS3505
ZGOW,2010-09-22 09:00,ZGOW 220900Z AUTO 00000KT 7SM 27/24 A2988 RMK SLP115 T02720243 57009 IEM_DS3505
ZGOW,2010-09-22 10:00,ZGOW 221000Z AUTO 32004KT 7SM 27/24 A2988 RMK T02700240 IEM_DS3505
ZGOW,2010-09-22 11:00,ZGOW 221100Z AUTO 33002KT 4SM 26/24 A2988 RMK T02600240 IEM_DS3505
ZGOW,2010-09-22 12:00,ZGOW 221200Z AUTO 00000KT 5SM 26/24 A2991 RMK 60000 SLP131 T02560244 52016 IEM_DS3505
ZGOW,2010-09-22 13:00,ZGOW 221300Z AUTO 28002KT 2SM 26/24 A2994 RMK T02600240 IEM_DS3505
ZGOW,2010-09-22 14:00,ZGOW 221400Z AUTO 32002KT 1 1/2SM 26/24 A2994 RMK T02600240 IEM_DS3505
ZGOW,2010-09-22 15:00,ZGOW 221500Z AUTO 00000KT 1SM 25/24 A2994 RMK SLP141 T02490242 52010 IEM_DS3505
ZGOW,2010-09-22 16:00,ZGOW 221600Z AUTO 31002KT 1SM 25/24 A2994 RMK T02500240 IEM_DS3505
ZGOW,2010-09-22 17:00,ZGOW 221700Z AUTO 31004KT 1SM 25/24 A2991 RMK T02500240 IEM_DS3505
ZGOW,2010-09-22 18:00,ZGOW 221800Z AUTO 00000KT 1 1/4SM 24/24 RMK SLP126 T02450240 57015 IEM_DS3505
ZGOW,2010-09-22 21:00,ZGOW 222100Z AUTO 00000KT 1SM 24/23 A2988 RMK 70004 SLP117 T02380233 57009 IEM_DS3505
ZGOW,2010-09-22 22:00,ZGOW 222200Z AUTO 29002KT 5SM 24/23 A2988 RMK T02400230 IEM_DS3505
ZGOW,2010-09-22 23:00,ZGOW 222300Z AUTO 31004KT 6SM 25/23 A2988 RMK T02500230 IEM_DS3505
ZGOW,2010-09-23 00:00,ZGOW 230000Z AUTO 27002KT 6SM 26/24 A2991 RMK 70004 SLP126 T02600242 52009 IEM_DS3505
ZGOW,2010-09-23 01:00,ZGOW 230100Z AUTO 32006KT 6SM 28/24 A2991 RMK T02800240 IEM_DS3505
ZGOW,2010-09-23 02:00,ZGOW 230200Z AUTO 32004KT 6SM 29/24 A2991 RMK T02900240 IEM_DS3505
ZGOW,2010-09-23 03:00,ZGOW 230300Z AUTO 22004KT 7SM 29/25 A2991 RMK SLP134 T02910253 52009 IEM_DS3505
ZGOW,2010-09-23 04:00,ZGOW 230400Z AUTO 34002KT 7SM 31/24 A2991 RMK T03100240 IEM_DS3505
ZGOW,2010-09-23 05:00,ZGOW 230500Z AUTO 08006KT 7SM 31/22 A2988 RMK T03100220 IEM_DS3505
ZGOW,2010-09-23 06:00,ZGOW 230600Z AUTO 14004KT 9SM 30/24 A2985 RMK SLP112 T03010235 57022 IEM_DS3505
ZGOW,2010-09-23 07:00,ZGOW 230700Z AUTO 14008KT 7SM 31/24 A2985 RMK T03100240 IEM_DS3505
ZGOW,2010-09-23 08:00,ZGOW 230800Z AUTO 12008KT 7SM 29/24 A2985 RMK T02900240 IEM_DS3505
ZGOW,2010-09-23 09:00,ZGOW 230900Z AUTO 11004KT 9SM 28/24 A2985 RMK SLP110 T02820244 57003 IEM_DS3505
ZGOW,2010-09-23 10:00,ZGOW 231000Z AUTO 08004KT 7SM 27/24 A2985 RMK T02700240 IEM_DS3505
ZGOW,2010-09-23 11:00,ZGOW 231100Z AUTO 08004KT 7SM 27/24 A2988 RMK T02700240 IEM_DS3505
ZGOW,2010-09-23 12:00,ZGOW 231200Z AUTO 00000KT 7SM 27/25 A2988 RMK 60000 SLP120 T02730248 52011 IEM_DS3505
ZGOW,2010-09-23 13:00,ZGOW 231300Z AUTO 07006KT 7SM 27/25 A2991 RMK T02700250 IEM_DS3505
ZGOW,2010-09-23 14:00,ZGOW 231400Z AUTO 06006KT 7SM 27/25 A2991 RMK T02700250 IEM_DS3505
ZGOW,2010-09-23 15:00,ZGOW 231500Z AUTO 07004KT 6SM 27/25 A2991 RMK SLP129 T02670247 52009 IEM_DS3505
ZGOW,2010-09-23 16:00,ZGOW 231600Z AUTO 07006KT 4SM 26/25 A2991 RMK T02600250 IEM_DS3505
ZGOW,2010-09-23 17:00,ZGOW 231700Z AUTO 07008KT 6SM 26/24 A2988 RMK T02600240 IEM_DS3505
ZGOW,2010-09-23 18:00,ZGOW 231800Z AUTO 07004KT 6SM 26/24 A2988 RMK 60002 SLP119 T02600244 57010 IEM_DS3505
ZGOW,2010-09-23 20:00,ZGOW 232000Z AUTO 08004KT 7SM 26/24 A2985 RMK T02600240 IEM_DS3505
ZGOW,2010-09-23 21:00,ZGOW 232100Z AUTO 00000KT 6SM 26/24 A2988 RMK 70002 SLP115 T02590243 57004 IEM_DS3505
ZGOW,2010-09-23 22:00,ZGOW 232200Z AUTO 08008KT 7SM 26/24 A2988 RMK T02600240 IEM_DS3505
ZGOW,2010-09-23 23:00,ZGOW 232300Z AUTO 08006KT 7SM 26/24 A2991 RMK T02600240 IEM_DS3505
ZGOW,2010-09-24 00:00,ZGOW 240000Z AUTO 00000KT 6SM 25/24 A2991 RMK 60024 70026 SLP132 T02530243 52016 IEM_DS3505
ZGOW,2010-09-24 01:00,ZGOW 240100Z AUTO 06006KT 7SM 27/24 A2991 RMK T02700240 IEM_DS3505
ZGOW,2010-09-24 02:00,ZGOW 240200Z AUTO 07006KT 7SM 27/24 A2994 RMK T02700240 IEM_DS3505
ZGOW,2010-09-24 03:00,ZGOW 240300Z AUTO 14004KT 6SM 29/24 A2991 RMK SLP132 T02870243 52001 IEM_DS3505
ZGOW,2010-09-24 04:00,ZGOW 240400Z AUTO 11006KT 7SM 30/24 A2988 RMK T03000240 IEM_DS3505
ZGOW,2010-09-24 05:00,ZGOW 240500Z AUTO 12008KT 7SM 29/24 A2988 RMK T02900240 IEM_DS3505
ZGOW,2010-09-24 06:00,ZGOW 240600Z AUTO 11004KT 11SM 30/24 A2985 RMK 60001 SLP109 T02950237 57023 IEM_DS3505
ZGOW,2010-09-24 07:00,ZGOW 240700Z AUTO 11010KT 7SM 29/24 A2983 RMK T02900240 IEM_DS3505
ZGOW,2010-09-24 08:00,ZGOW 240800Z AUTO 12008KT 7SM 28/24 A2985 RMK T02800240 IEM_DS3505
ZGOW,2010-09-24 09:00,ZGOW 240900Z AUTO 07002KT 9SM 27/24 A2985 RMK SLP111 T02720239 52002 IEM_DS3505
ZGOW,2010-09-24 10:00,ZGOW 241000Z AUTO 08006KT 7SM 26/23 A2985 RMK T02600230 IEM_DS3505
ZGOW,2010-09-24 11:00,ZGOW 241100Z AUTO 08008KT 7SM 26/23 A2988 RMK T02600230 IEM_DS3505
ZGOW,2010-09-24 12:00,ZGOW 241200Z AUTO 07002KT 9SM 26/24 A2988 RMK 60012 SLP123 T02620237 52011 IEM_DS3505
ZGOW,2010-09-24 13:00,ZGOW 241300Z AUTO 08008KT 7SM 26/23 A2991 RMK T02600230 IEM_DS3505
ZGOW,2010-09-24 14:00,ZGOW 241400Z AUTO 07006KT 7SM 26/23 A2991 RMK T02600230 IEM_DS3505
ZGOW,2010-09-24 15:00,ZGOW 241500Z AUTO 09002KT 9SM 26/23 A2994 RMK SLP135 T02580233 52013 IEM_DS3505
ZGOW,2010-09-24 16:00,ZGOW 241600Z AUTO 08008KT 7SM 26/22 A2991 RMK T02600220 IEM_DS3505
ZGOW,2010-09-24 17:00,ZGOW 241700Z AUTO 07010KT 7SM 25/22 A2991 RMK T02500220 IEM_DS3505
ZGOW,2010-09-24 18:00,ZGOW 241800Z AUTO 07004KT 9SM 25/23 A2991 RMK SLP123 T02540229 57012 IEM_DS3505
ZGOW,2010-09-24 19:00,ZGOW 241900Z AUTO 08006KT 7SM 25/22 A2988 RMK T02500220 IEM_DS3505
ZGOW,2010-09-24 20:00,ZGOW 242000Z AUTO 09008KT 7SM 25/22 A2988 RMK T02500220 IEM_DS3505
ZGOW,2010-09-24 21:00,ZGOW 242100Z AUTO 07006KT 9SM 25/23 A2991 RMK 70036 SLP125 T02520227 52001 IEM_DS3505
ZGOW,2010-09-24 22:00,ZGOW 242200Z AUTO 08008KT 4SM 25/22 A2991 RMK T02500220 IEM_DS3505
ZGOW,2010-09-24 23:00,ZGOW 242300Z AUTO 07008KT 5SM 25/22 A2994 RMK T02500220 IEM_DS3505
ZGOW,2010-09-25 00:00,ZGOW 250000Z AUTO 07006KT 7SM 25/22 A2994 RMK 70012 SLP145 T02540223 52020 IEM_DS3505
ZGOW,2010-09-25 01:00,ZGOW 250100Z AUTO 08006KT 7SM 26/22 A2997 RMK T02600220 IEM_DS3505
ZGOW,2010-09-25 02:00,ZGOW 250200Z AUTO 06010KT 7SM 27/23 A2997 RMK T02700230 IEM_DS3505
ZGOW,2010-09-25 03:00,ZGOW 250300Z AUTO 07008KT 9SM 29/23 A2994 RMK SLP144 T02870229 57001 IEM_DS3505
ZGOW,2010-09-25 04:00,ZGOW 250400Z AUTO 09008KT 7SM 29/22 A2994 RMK T02900220 IEM_DS3505
ZGOW,2010-09-25 05:00,ZGOW 250500Z AUTO 09008KT 7SM 30/23 A2991 RMK T03000230 IEM_DS3505
ZGOW,2010-09-25 06:00,ZGOW 250600Z AUTO 14006KT 11SM 29/23 A2988 RMK SLP122 T02860226 57021 IEM_DS3505
ZGOW,2010-09-25 07:00,ZGOW 250700Z AUTO 12010KT 7SM 28/23 A2988 RMK T02800230 IEM_DS3505
ZGOW,2010-09-25 08:00,ZGOW 250800Z AUTO 10010KT 7SM 28/23 A2988 RMK T02800230 IEM_DS3505
ZGOW,2010-09-25 09:00,ZGOW 250900Z AUTO 11006KT 11SM 28/21 A2988 RMK SLP122 T02780214 57001 IEM_DS3505
ZGOW,2010-09-25 10:00,ZGOW 251000Z AUTO 11006KT 7SM 27/22 A2991 RMK T02700220 IEM_DS3505
ZGOW,2010-09-25 11:00,ZGOW 251100Z AUTO 09002KT 7SM 26/22 A2991 RMK T02600220 IEM_DS3505
ZGOW,2010-09-25 12:00,ZGOW 251200Z AUTO 09004KT 9SM 26/22 A2994 RMK SLP137 T02640220 52015 IEM_DS3505
ZGOW,2010-09-25 13:00,ZGOW 251300Z AUTO 08004KT 7SM 25/22 A2994 RMK T02500220 IEM_DS3505
ZGOW,2010-09-25 14:00,ZGOW 251400Z AUTO 07004KT 6SM 25/22 A2994 RMK T02500220 IEM_DS3505
ZGOW,2010-09-25 15:00,ZGOW 251500Z AUTO 09002KT 9SM 26/22 A2994 RMK SLP141 T02590218 52005 IEM_DS3505
ZGOW,2010-09-25 16:00,ZGOW 251600Z AUTO 08002KT 7SM 25/22 A2994 RMK T02500220 IEM_DS3505
ZGOW,2010-09-25 17:00,ZGOW 251700Z AUTO 07002KT 4SM 25/22 A2994 RMK T02500220 IEM_DS3505
ZGOW,2010-09-25 18:00,ZGOW 251800Z AUTO 00000KT 9SM 25/23 A2994 RMK SLP137 T02540231 57005 IEM_DS3505
ZGOW,2010-09-25 19:00,ZGOW 251900Z AUTO 01004KT 2 1/2SM 25/22 A2994 RMK T02500220 IEM_DS3505
ZGOW,2010-09-25 21:00,ZGOW 252100Z AUTO 00000KT 4SM 24/23 A2994 RMK SLP141 T02420226 52004 IEM_DS3505
ZGOW,2010-09-25 22:00,ZGOW 252200Z AUTO 03004KT 2 1/2SM 24/22 A2994 RMK T02400220 IEM_DS3505
ZGOW,2010-09-25 23:00,ZGOW 252300Z AUTO 35002KT 2 1/2SM 25/23 A2997 RMK T02500230 IEM_DS3505
ZGOW,2010-09-26 00:00,ZGOW 260000Z AUTO 02002KT 4SM 26/23 A2997 RMK SLP155 T02640231 52014 IEM_DS3505
ZGOW,2010-09-26 01:00,ZGOW 260100Z AUTO 08006KT 2 1/2SM 28/23 A3000 RMK T02800230 IEM_DS3505
ZGOW,2010-09-26 02:00,ZGOW 260200Z AUTO 07006KT 4SM 29/22 A3000 RMK T02900220 IEM_DS3505
ZGOW,2010-09-26 03:00,ZGOW 260300Z AUTO 07004KT 6SM 29/22 A3000 RMK SLP156 T02930220 52001 IEM_DS3505
ZGOW,2010-09-26 04:00,ZGOW 260400Z AUTO 12004KT 4SM 30/22 A2997 RMK T03000220 IEM_DS3505
ZGOW,2010-09-26 05:00,ZGOW 260500Z AUTO 13008KT 4SM 30/23 A2994 RMK T03000230 IEM_DS3505
ZGOW,2010-09-26 06:00,ZGOW 260600Z AUTO 11004KT 8SM 30/23 A2991 RMK SLP131 T02990226 57024 IEM_DS3505
ZGOW,2010-09-26 07:00,ZGOW 260700Z AUTO 12008KT 6SM 29/22 A2991 RMK T02900220 IEM_DS3505
ZGOW,2010-09-26 08:00,ZGOW 260800Z AUTO 13008KT 6SM 29/21 A2988 RMK T02900210 IEM_DS3505
ZGOW,2010-09-26 09:00,ZGOW 260900Z AUTO 14006KT 9SM 29/21 A2988 RMK SLP123 T02870212 57009 IEM_DS3505
ZGOW,2010-09-26 10:00,ZGOW 261000Z AUTO 13004KT 6SM 27/22 A2991 RMK T02700220 IEM_DS3505
ZGOW,2010-09-26 11:00,ZGOW 261100Z AUTO 12004KT 6SM 27/23 A2991 RMK T02700230 IEM_DS3505
ZGOW,2010-09-26 12:00,ZGOW 261200Z AUTO 11004KT 9SM 27/22 A2994 RMK SLP138 T02710225 52015 IEM_DS3505
ZGOW,2010-09-26 13:00,ZGOW 261300Z AUTO 10002KT 6SM 26/23 A2994 RMK T02600230 IEM_DS3505
ZGOW,2010-09-26 14:00,ZGOW 261400Z AUTO 00000KT 6SM 26/23 A2994 RMK T02600230 IEM_DS3505
ZGOW,2010-09-26 15:00,ZGOW 261500Z AUTO 00000KT 8SM 26/24 A2994 RMK SLP140 T02650238 52003 IEM_DS3505
ZGOW,2010-09-26 16:00,ZGOW 261600Z AUTO 00000KT 6SM 26/24 A2994 RMK T02600240 IEM_DS3505
ZGOW,2010-09-26 17:00,ZGOW 261700Z AUTO 00000KT 6SM 26/23 A2991 RMK T02600230 IEM_DS3505
ZGOW,2010-09-26 18:00,ZGOW 261800Z AUTO 00000KT 6SM 26/23 A2991 RMK SLP131 T02550232 57009 IEM_DS3505
ZGOW,2010-09-26 19:00,ZGOW 261900Z AUTO 00000KT 1 1/2SM 25/24 A2991 RMK T02500240 IEM_DS3505
ZGOW,2010-09-26 21:00,ZGOW 262100Z AUTO 00000KT 5SM 25/23 A2994 RMK SLP137 T02500232 52005 IEM_DS3505
ZGOW,2010-09-26 22:00,ZGOW 262200Z AUTO 33002KT 2SM 25/22 A2994 RMK T02500220 IEM_DS3505
ZGOW,2010-09-26 23:00,ZGOW 262300Z AUTO 00000KT 2 1/2SM 26/23 A2994 RMK T02600230 IEM_DS3505
ZGOW,2010-09-27 00:00,ZGOW 270000Z AUTO 00000KT 6SM 27/24 A2994 RMK SLP145 T02700239 52008 IEM_DS3505
ZGOW,2010-09-27 01:00,ZGOW 270100Z AUTO 06002KT 4SM 29/22 A2994 RMK T02900220 IEM_DS3505
ZGOW,2010-09-27 02:00,ZGOW 270200Z AUTO 08002KT 4SM 30/22 A2997 RMK T03000220 IEM_DS3505
ZGOW,2010-09-27 03:00,ZGOW 270300Z AUTO 09004KT 6SM 31/22 A2994 RMK SLP142 T03100218 57002 IEM_DS3505
ZGOW,2010-09-27 04:00,ZGOW 270400Z AUTO 09006KT 6SM 31/23 A2994 RMK T03100230 IEM_DS3505
ZGOW,2010-09-27 05:00,ZGOW 270500Z AUTO 13006KT 6SM 31/22 A2991 RMK T03100220 IEM_DS3505
ZGOW,2010-09-27 06:00,ZGOW 270600Z AUTO 14004KT 6SM 32/21 A2988 RMK SLP119 T03150214 57023 IEM_DS3505
ZGOW,2010-09-27 07:00,ZGOW 270700Z AUTO 14008KT 6SM 30/22 A2988 RMK T03000220 IEM_DS3505
ZGOW,2010-09-27 08:00,ZGOW 270800Z AUTO 13008KT 7SM 30/23 A2985 RMK T03000230 IEM_DS3505
ZGOW,2010-09-27 09:00,ZGOW 270900Z AUTO 11006KT 7SM 30/21 A2985 RMK SLP112 T02990207 57007 IEM_DS3505
ZGOW,2010-09-27 10:00,ZGOW 271000Z AUTO 13006KT 6SM 28/23 A2988 RMK T02800230 IEM_DS3505
ZGOW,2010-09-27 11:00,ZGOW 271100Z AUTO 13004KT 5SM 27/23 A2988 RMK T02700230 IEM_DS3505
ZGOW,2010-09-27 12:00,ZGOW 271200Z AUTO 11002KT 7SM 28/23 A2991 RMK SLP131 T02790226 52019 IEM_DS3505
ZGOW,2010-09-27 13:00,ZGOW 271300Z AUTO 13002KT 6SM 27/24 A2994 RMK T02700240 IEM_DS3505
ZGOW,2010-09-27 14:00,ZGOW 271400Z AUTO 12002KT 4SM 27/24 A2994 RMK T02700240 IEM_DS3505
ZGOW,2010-09-27 15:00,ZGOW 271500Z AUTO 14002KT 7SM 27/24 A2994 RMK SLP141 T02710238 52010 IEM_DS3505
ZGOW,2010-09-27 16:00,ZGOW 271600Z AUTO 10002KT 4SM 26/24 A2994 RMK T02600240 IEM_DS3505
ZGOW,2010-09-27 17:00,ZGOW 271700Z AUTO 03002KT 2 1/2SM 26/24 A2994 RMK T02600240 IEM_DS3505
ZGOW,2010-09-27 18:00,ZGOW 271800Z AUTO 04002KT 6SM 27/24 RMK SLP133 T02670242 57008 IEM_DS3505
ZGOW,2010-09-27 20:00,ZGOW 272000Z AUTO 06002KT 2 1/2SM 25/23 A2994 RMK T02500230 IEM_DS3505
ZGOW,2010-09-27 21:00,ZGOW 272100Z AUTO 00000KT 6SM 26/24 A2994 RMK SLP136 T02620235 52003 IEM_DS3505
ZGOW,2010-09-27 22:00,ZGOW 272200Z AUTO 02002KT 3SM 26/24 A2994 RMK T02600240 IEM_DS3505
ZGOW,2010-09-27 23:00,ZGOW 272300Z AUTO 00000KT 2 1/2SM 26/24 A2994 RMK T02600240 IEM_DS3505
ZGOW,2010-09-28 00:00,ZGOW 280000Z AUTO 00000KT 5SM 28/24 A2997 RMK SLP147 T02750239 52011 IEM_DS3505
ZGOW,2010-09-28 01:00,ZGOW 280100Z AUTO 08004KT 3SM 29/24 A2997 RMK T02900240 IEM_DS3505
ZGOW,2010-09-28 02:00,ZGOW 280200Z AUTO 07008KT 7SM 30/25 A2997 RMK T03000250 IEM_DS3505
ZGOW,2010-09-28 03:00,ZGOW 280300Z AUTO 09006KT 7SM 30/24 A2997 RMK SLP145 T03030245 57002 IEM_DS3505
ZGOW,2010-09-28 04:00,ZGOW 280400Z AUTO 11008KT 7SM 31/24 A2994 RMK T03100240 IEM_DS3505
ZGOW,2010-09-28 05:00,ZGOW 280500Z AUTO 12006KT 7SM 31/25 A2991 RMK T03100250 IEM_DS3505
ZGOW,2010-09-28 06:00,ZGOW 280600Z AUTO 11006KT 7SM 31/24 A2988 RMK SLP120 T03060243 57025 IEM_DS3505
ZGOW,2010-09-28 07:00,ZGOW 280700Z AUTO 12010KT 7SM 30/24 A2988 RMK T03000240 IEM_DS3505
ZGOW,2010-09-28 08:00,ZGOW 280800Z AUTO 12012KT 7SM 29/24 A2988 RMK T02900240 IEM_DS3505
ZGOW,2010-09-28 09:00,ZGOW 280900Z AUTO 11006KT 7SM 29/23 A2988 RMK SLP120 T02940229 54000 IEM_DS3505
ZGOW,2010-09-28 10:00,ZGOW 281000Z AUTO 10008KT 7SM 28/23 A2991 RMK T02800230 IEM_DS3505
ZGOW,2010-09-28 11:00,ZGOW 281100Z AUTO 10006KT 7SM 27/24 A2991 RMK T02700240 IEM_DS3505
ZGOW,2010-09-28 12:00,ZGOW 281200Z AUTO 09004KT 9SM 28/24 A2994 RMK SLP138 T02800238 52018 IEM_DS3505
ZGOW,2010-09-28 13:00,ZGOW 281300Z AUTO 08006KT 7SM 27/24 A2994 RMK T02700240 IEM_DS3505
ZGOW,2010-09-28 14:00,ZGOW 281400Z AUTO 09006KT 7SM 27/24 A2997 RMK T02700240 IEM_DS3505
ZGOW,2010-09-28 15:00,ZGOW 281500Z AUTO 07006KT 9SM 28/24 A2997 RMK SLP146 T02760240 52008 IEM_DS3505
ZGOW,2010-09-28 16:00,ZGOW 281600Z AUTO 08008KT 7SM 27/24 A2997 RMK T02700240 IEM_DS3505
ZGOW,2010-09-28 17:00,ZGOW 281700Z AUTO 09010KT 7SM 27/24 A2997 RMK T02700240 IEM_DS3505
ZGOW,2010-09-28 18:00,ZGOW 281800Z AUTO 07006KT 9SM 27/24 RMK SLP137 T02710240 57009 IEM_DS3505
ZGOW,2010-09-28 19:00,ZGOW 281900Z AUTO 08008KT 3SM 27/24 A2994 RMK T02700240 IEM_DS3505
ZGOW,2010-09-28 20:00,ZGOW 282000Z AUTO 08006KT 3SM 27/24 A2994 RMK T02700240 IEM_DS3505
ZGOW,2010-09-28 21:00,ZGOW 282100Z AUTO 09006KT 7SM 27/23 A2994 RMK SLP141 T02680233 52004 IEM_DS3505
ZGOW,2010-09-28 22:00,ZGOW 282200Z AUTO 07012KT 3SM 26/23 A2994 RMK T02600230 IEM_DS3505
ZGOW,2010-09-28 23:00,ZGOW 282300Z AUTO 06008KT 4SM 27/23 A2997 RMK T02700230 IEM_DS3505
ZGOW,2010-09-29 00:00,ZGOW 290000Z AUTO 09004KT 6SM 28/23 A2997 RMK SLP151 T02840229 52010 IEM_DS3505
ZGOW,2010-09-29 01:00,ZGOW 290100Z AUTO 08010KT 6SM 29/22 A2997 RMK T02900220 IEM_DS3505
ZGOW,2010-09-29 02:00,ZGOW 290200Z AUTO 08010KT 7SM 30/23 A2997 RMK T03000230 IEM_DS3505
ZGOW,2010-09-29 03:00,ZGOW 290300Z AUTO 11006KT 7SM 30/23 A2997 RMK SLP146 T03010228 57005 IEM_DS3505
ZGOW,2010-09-29 04:00,ZGOW 290400Z AUTO 08010KT 7SM 31/23 A2994 RMK T03100230 IEM_DS3505
ZGOW,2010-09-29 05:00,ZGOW 290500Z AUTO 09010KT 7SM 30/22 A2991 RMK T03000220 IEM_DS3505
ZGOW,2010-09-29 06:00,ZGOW 290600Z AUTO 09008KT 11SM 30/23 A2988 RMK SLP124 T03050232 57022 IEM_DS3505
ZGOW,2010-09-29 07:00,ZGOW 290700Z AUTO 10010KT 7SM 30/23 A2988 RMK T03000230 IEM_DS3505
ZGOW,2010-09-29 08:00,ZGOW 290800Z AUTO 11010KT 7SM 29/23 A2988 RMK T02900230 IEM_DS3505
ZGOW,2010-09-29 09:00,ZGOW 290900Z AUTO 09010KT 11SM 28/23 A2991 RMK SLP125 T02850230 52001 IEM_DS3505
ZGOW,2010-09-29 10:00,ZGOW 291000Z AUTO 09006KT 7SM 28/23 A2991 RMK T02800230 IEM_DS3505
ZGOW,2010-09-29 11:00,ZGOW 291100Z AUTO 08010KT 7SM 27/22 A2994 RMK T02700220 IEM_DS3505
ZGOW,2010-09-29 12:00,ZGOW 291200Z AUTO 09006KT 9SM 28/22 A2994 RMK SLP144 T02780225 52019 IEM_DS3505
ZGOW,2010-09-29 13:00,ZGOW 291300Z AUTO 07012KT 7SM 27/23 A2997 RMK T02700230 IEM_DS3505
ZGOW,2010-09-29 14:00,ZGOW 291400Z AUTO 08012KT 7SM 27/23 A2997 RMK T02700230 IEM_DS3505
ZGOW,2010-09-29 15:00,ZGOW 291500Z AUTO 09006KT 9SM 27/23 A2997 RMK SLP150 T02680233 52006 IEM_DS3505
ZGOW,2010-09-29 16:00,ZGOW 291600Z AUTO 07012KT 7SM 26/23 A2997 RMK T02600230 IEM_DS3505
ZGOW,2010-09-29 17:00,ZGOW 291700Z AUTO 07010KT 7SM 26/23 A2994 RMK T02600230 IEM_DS3505
ZGOW,2010-09-29 18:00,ZGOW 291800Z AUTO 07010KT 9SM 27/23 A2994 RMK SLP135 T02660229 57015 IEM_DS3505
ZGOW,2010-09-29 19:00,ZGOW 291900Z AUTO 06008KT 7SM 26/22 A2994 RMK T02600220 IEM_DS3505
ZGOW,2010-09-29 21:00,ZGOW 292100Z AUTO 07002KT 8SM 26/22 A2994 RMK SLP138 T02580225 52003 IEM_DS3505
ZGOW,2010-09-29 22:00,ZGOW 292200Z AUTO 06004KT 7SM 26/22 A2994 RMK T02600220 IEM_DS3505
ZGOW,2010-09-29 23:00,ZGOW 292300Z AUTO 07004KT 4SM 26/22 A2997 RMK T02600220 IEM_DS3505
ZGOW,2010-09-30 00:00,ZGOW 300000Z AUTO 07002KT 9SM 28/23 A2997 RMK SLP150 T02760230 52012 IEM_DS3505
ZGOW,2010-09-30 01:00,ZGOW 300100Z AUTO 07010KT 7SM 28/22 A3000 RMK T02800220 IEM_DS3505
ZGOW,2010-09-30 02:00,ZGOW 300200Z AUTO 07012KT 7SM 29/22 A2997 RMK T02900220 IEM_DS3505
ZGOW,2010-09-30 03:00,ZGOW 300300Z AUTO 09008KT 9SM 30/23 A2997 RMK SLP145 T02960226 57005 IEM_DS3505
ZGOW,2010-09-30 04:00,ZGOW 300400Z AUTO 09012KT 7SM 29/23 A2994 RMK T02900230 IEM_DS3505
ZGOW,2010-09-30 05:00,ZGOW 300500Z AUTO 13010KT 7SM 30/23 A2991 RMK T03000230 IEM_DS3505
ZGOW,2010-09-30 06:00,ZGOW 300600Z AUTO 09008KT 12SM 30/23 A2991 RMK SLP125 T02950230 57020 IEM_DS3505
ZGOW,2010-09-30 07:00,ZGOW 300700Z AUTO 09010KT 6SM 29/23 A2988 RMK T02900230 IEM_DS3505
ZGOW,2010-09-30 08:00,ZGOW 300800Z AUTO 09012KT 6SM 28/22 A2988 RMK T02800220 IEM_DS3505
ZGOW,2010-09-30 09:00,ZGOW 300900Z AUTO 09008KT 9SM 28/22 A2988 RMK SLP123 T02820224 57002 IEM_DS3505
ZGOW,2010-09-30 10:00,ZGOW 301000Z AUTO 08012KT 6SM 26/22 A2991 RMK T02600220 IEM_DS3505
ZGOW,2010-09-30 11:00,ZGOW 301100Z AUTO 09014G23KT 6SM 26/22 A2991 RMK T02600220 IEM_DS3505
ZGOW,2010-09-30 12:00,ZGOW 301200Z AUTO 07004KT 9SM 27/22 A2994 RMK SLP143 T02660224 52019 IEM_DS3505
ZGOW,2010-09-30 13:00,ZGOW 301300Z AUTO 09014KT 7SM 26/22 A2997 RMK T02600220 IEM_DS3505
ZGOW,2010-09-30 14:00,ZGOW 301400Z AUTO 08016KT 7SM 26/22 A2997 RMK T02600220 IEM_DS3505
ZGOW,2010-09-30 15:00,ZGOW 301500Z AUTO 07010KT 7SM 26/22 A2997 RMK SLP154 T02640225 52012 IEM_DS3505
ZGOW,2010-09-30 16:00,ZGOW 301600Z AUTO 06016KT 7SM 26/21 A2997 RMK T02600210 IEM_DS3505
ZGOW,2010-09-30 17:00,ZGOW 301700Z AUTO 07012KT 7SM 26/21 A2997 RMK T02600210 IEM_DS3505
ZGOW,2010-09-30 18:00,ZGOW 301800Z AUTO 07006KT 9SM 26/21 A2994 RMK SLP141 T02580212 57013 IEM_DS3505
ZGOW,2010-09-30 19:00,ZGOW 301900Z AUTO 06008KT 7SM 25/21 A2994 RMK T02500210 IEM_DS3505
ZGOW,2010-09-30 20:00,ZGOW 302000Z AUTO 08004KT 7SM 25/21 A2994 RMK T02500210 IEM_DS3505
ZGOW,2010-09-30 21:00,ZGOW 302100Z AUTO 09004KT 9SM 25/21 A2994 RMK SLP137 T02540213 57005 IEM_DS3505
ZGOW,2010-09-30 22:00,ZGOW 302200Z AUTO 07008KT 7SM 25/21 A2994 RMK T02500210 IEM_DS3505
ZGOW,2010-09-30 23:00,ZGOW 302300Z AUTO 05006KT 7SM 26/21 A2994 RMK T02600210 IEM_DS3505
ZGOW,2010-10-01 00:00,ZGOW 010000Z AUTO 07004KT 9SM 26/21 A2994 RMK SLP143 T02600212 52006 IEM_DS3505
ZGOW,2010-10-01 01:00,ZGOW 010100Z AUTO 07006KT 7SM 27/21 A2994 RMK T02700210 IEM_DS3505
ZGOW,2010-10-01 02:00,ZGOW 010200Z AUTO 08010KT 7SM 28/22 A2994 RMK T02800220 IEM_DS3505
ZGOW,2010-10-01 03:00,ZGOW 010300Z AUTO 09006KT 9SM 28/22 A2994 RMK SLP140 T02840217 57002 IEM_DS3505
ZGOW,2010-10-01 04:00,ZGOW 010400Z AUTO 09016KT 7SM 29/21 A2991 RMK T02900210 IEM_DS3505
ZGOW,2010-10-01 05:00,ZGOW 010500Z AUTO 08016KT 7SM 29/21 A2991 RMK T02900210 IEM_DS3505
ZGOW,2010-10-01 06:00,ZGOW 010600Z AUTO 09008KT 11SM 29/22 A2988 RMK SLP117 T02940219 57023 IEM_DS3505
ZGOW,2010-10-01 07:00,ZGOW 010700Z AUTO 08014KT 6SM 29/22 A2985 RMK T02900220 IEM_DS3505
ZGOW,2010-10-01 08:00,ZGOW 010800Z AUTO 09014KT 6SM 28/22 A2988 RMK T02800220 IEM_DS3505
ZGOW,2010-10-01 09:00,ZGOW 010900Z AUTO 11006KT 8SM 28/22 A2988 RMK SLP116 T02820220 57001 IEM_DS3505
ZGOW,2010-10-01 10:00,ZGOW 011000Z AUTO 09010KT 6SM 27/22 A2988 RMK T02700220 IEM_DS3505
ZGOW,2010-10-01 11:00,ZGOW 011100Z AUTO 09010KT 6SM 26/22 A2988 RMK T02600220 IEM_DS3505
ZGOW,2010-10-01 12:00,ZGOW 011200Z AUTO 07006KT 8SM 27/22 A2991 RMK SLP134 T02690225 52017 IEM_DS3505
ZGOW,2010-10-01 13:00,ZGOW 011300Z AUTO 08008KT 6SM 26/22 A2994 RMK T02600220 IEM_DS3505
ZGOW,2010-10-01 14:00,ZGOW 011400Z AUTO 08008KT 6SM 26/22 A2994 RMK T02600220 IEM_DS3505
ZGOW,2010-10-01 15:00,ZGOW 011500Z AUTO 07002KT 7SM 26/22 A2991 RMK SLP133 T02620225 54000 IEM_DS3505
ZGOW,2010-10-01 16:00,ZGOW 011600Z AUTO 05004KT 6SM 25/22 A2991 RMK T02500220 IEM_DS3505
ZGOW,2010-10-01 17:00,ZGOW 011700Z AUTO 00000KT 7SM 25/22 A2991 RMK T02500220 IEM_DS3505
ZGOW,2010-10-01 18:00,ZGOW 011800Z AUTO 00000KT 7SM 25/23 A2988 RMK SLP120 T02510226 57013 IEM_DS3505
ZGOW,2010-10-01 19:00,ZGOW 011900Z AUTO 34002KT 3SM 25/22 A2988 RMK T02500220 IEM_DS3505
ZGOW,2010-10-01 20:00,ZGOW 012000Z AUTO 32002KT 2 1/2SM 25/22 A2988 RMK T02500220 IEM_DS3505
ZGOW,2010-10-01 21:00,ZGOW 012100Z AUTO 00000KT 6SM 25/22 A2988 RMK SLP117 T02520225 57003 IEM_DS3505
ZGOW,2010-10-01 22:00,ZGOW 012200Z AUTO 33002KT 2 1/2SM 25/22 A2988 RMK T02500220 IEM_DS3505
ZGOW,2010-10-01 23:00,ZGOW 012300Z AUTO 35002KT 2 1/2SM 25/22 A2991 RMK T02500220 IEM_DS3505
ZGOW,2010-10-02 00:00,ZGOW 020000Z AUTO 00000KT 7SM 27/23 A2994 RMK SLP136 T02710234 52018 IEM_DS3505
ZGOW,2010-10-02 01:00,ZGOW 020100Z AUTO 01006KT 6SM 28/22 A2994 RMK T02800220 IEM_DS3505
ZGOW,2010-10-02 02:00,ZGOW 020200Z AUTO 06010KT 6SM 29/21 A2994 RMK T02900210 IEM_DS3505
ZGOW,2010-10-02 03:00,ZGOW 020300Z AUTO 07004KT 9SM 31/21 A2994 RMK SLP136 T03060214 52001 IEM_DS3505
ZGOW,2010-10-02 04:00,ZGOW 020400Z AUTO 07010KT 6SM 32/22 A2991 RMK T03200220 IEM_DS3505
ZGOW,2010-10-02 05:00,ZGOW 020500Z AUTO 08006KT 7SM 32/23 A2988 RMK T03200230 IEM_DS3505
ZGOW,2010-10-02 06:00,ZGOW 020600Z AUTO 07004KT 11SM 32/21 A2985 RMK SLP112 T03210213 57024 IEM_DS3505
ZGOW,2010-10-02 07:00,ZGOW 020700Z AUTO 13006KT 7SM 31/23 A2985 RMK T03100230 IEM_DS3505
ZGOW,2010-10-02 08:00,ZGOW 020800Z AUTO 13006KT 7SM 30/23 A2983 RMK T03000230 IEM_DS3505
ZGOW,2010-10-02 09:00,ZGOW 020900Z AUTO 09004KT 11SM 30/23 A2985 RMK SLP105 T03030232 57007 IEM_DS3505
ZGOW,2010-10-02 10:00,ZGOW 021000Z AUTO 13006KT 6SM 28/24 A2985 RMK T02800240 IEM_DS3505
ZGOW,2010-10-02 11:00,ZGOW 021100Z AUTO 13006KT 6SM 27/24 A2988 RMK T02700240 IEM_DS3505
ZGOW,2010-10-02 12:00,ZGOW 021200Z AUTO 09004KT 8SM 28/24 A2988 RMK SLP121 T02820238 52016 IEM_DS3505
ZGOW,2010-10-02 13:00,ZGOW 021300Z AUTO 12002KT 6SM 27/24 A2991 RMK T02700240 IEM_DS3505
ZGOW,2010-10-02 14:00,ZGOW 021400Z AUTO 08004KT 6SM 26/24 A2991 RMK T02600240 IEM_DS3505
ZGOW,2010-10-02 15:00,ZGOW 021500Z AUTO 07004KT 8SM 27/24 A2991 RMK SLP131 T02740243 52010 IEM_DS3505
ZGOW,2010-10-02 16:00,ZGOW 021600Z AUTO 05006KT 7SM 26/24 A2991 RMK T02600240 IEM_DS3505
ZGOW,2010-10-02 17:00,ZGOW 021700Z AUTO 07004KT 7SM 26/24 A2991 RMK T02600240 IEM_DS3505
ZGOW,2010-10-02 18:00,ZGOW 021800Z AUTO 09002KT 8SM 27/25 A2988 RMK SLP124 T02690247 57007 IEM_DS3505
ZGOW,2010-10-02 21:00,ZGOW 022100Z AUTO 07002KT 5SM 26/24 A2991 RMK SLP129 T02620242 52005 IEM_DS3505
ZGOW,2010-10-02 22:00,ZGOW 022200Z AUTO 34002KT 4SM 26/24 A2994 RMK T02600240 IEM_DS3505
ZGOW,2010-10-02 23:00,ZGOW 022300Z AUTO 35006KT 4SM 26/22 A2994 RMK T02600220 IEM_DS3505
ZGOW,2010-10-03 00:00,ZGOW 030000Z AUTO 00000KT 7SM 27/22 A2994 RMK SLP143 T02730223 52014 IEM_DS3505
ZGOW,2010-10-03 01:00,ZGOW 030100Z AUTO 31006KT 5SM 28/22 A2994 RMK T02800220 IEM_DS3505
ZGOW,2010-10-03 02:00,ZGOW 030200Z AUTO 32004KT 6SM 30/23 A2994 RMK T03000230 IEM_DS3505
ZGOW,2010-10-03 03:00,ZGOW 030300Z AUTO 07004KT 7SM 31/22 A2994 RMK SLP137 T03120220 57006 IEM_DS3505
ZGOW,2010-10-03 04:00,ZGOW 030400Z AUTO 07006KT 7SM 32/22 A2991 RMK T03200220 IEM_DS3505
ZGOW,2010-10-03 05:00,ZGOW 030500Z AUTO 07008KT 7SM 33/23 A2988 RMK T03300230 IEM_DS3505
ZGOW,2010-10-03 06:00,ZGOW 030600Z AUTO 14004KT 6SM 30/23 A2988 RMK SLP117 T03000234 57020 IEM_DS3505
ZGOW,2010-10-03 07:00,ZGOW 030700Z AUTO 14008KT 7SM 28/24 A2985 RMK T02800240 IEM_DS3505
ZGOW,2010-10-03 08:00,ZGOW 030800Z AUTO 13008KT 7SM 28/23 A2988 RMK T02800230 IEM_DS3505
ZGOW,2010-10-03 09:00,ZGOW 030900Z AUTO 09004KT 6SM 28/24 A2988 RMK SLP117 T02750244 54000 IEM_DS3505
ZGOW,2010-10-03 10:00,ZGOW 031000Z AUTO 11004KT 3SM 27/25 A2988 RMK T02700250 IEM_DS3505
ZGOW,2010-10-03 11:00,ZGOW 031100Z AUTO 06004KT 5SM 27/24 A2991 RMK T02700240 IEM_DS3505
ZGOW,2010-10-03 12:00,ZGOW 031200Z AUTO 07002KT 6SM 28/24 A2994 RMK 60071 SLP136 T02760244 52019 IEM_DS3505
ZGOW,2010-10-03 13:00,ZGOW 031300Z AUTO 04008KT 7SM 26/24 A2994 RMK T02600240 IEM_DS3505
ZGOW,2010-10-03 14:00,ZGOW 031400Z AUTO 06012KT 7SM 26/23 A2994 RMK T02600230 IEM_DS3505
ZGOW,2010-10-03 15:00,ZGOW 031500Z AUTO 02002KT 6SM 26/24 A2994 RMK SLP141 T02570236 52005 IEM_DS3505
ZGOW,2010-10-03 16:00,ZGOW 031600Z AUTO 05012KT 7SM 26/23 A2994 RMK T02600230 IEM_DS3505
ZGOW,2010-10-03 17:00,ZGOW 031700Z AUTO 06016KT 7SM 25/22 A2994 RMK T02500220 IEM_DS3505
ZGOW,2010-10-03 18:00,ZGOW 031800Z AUTO 07008KT 6SM 25/23 A2994 RMK 60003 SLP135 T02500227 57006 IEM_DS3505
ZGOW,2010-10-03 19:00,ZGOW 031900Z AUTO 06010KT 4SM 25/22 A2994 RMK T02500220 IEM_DS3505
ZGOW,2010-10-03 20:00,ZGOW 032000Z AUTO 05010KT 4SM 25/22 A2991 RMK T02500220 IEM_DS3505
ZGOW,2010-10-03 21:00,ZGOW 032100Z AUTO 04002KT 7SM 25/22 A2994 RMK 70074 SLP138 T02490216 52002 IEM_DS3505
ZGOW,2010-10-03 22:00,ZGOW 032200Z AUTO 34004KT 7SM 24/21 A2994 RMK T02400210 IEM_DS3505
ZGOW,2010-10-03 23:00,ZGOW 032300Z AUTO 34004KT 7SM 23/20 A2997 RMK T02300200 IEM_DS3505
ZGOW,2010-10-04 00:00,ZGOW 040000Z AUTO 00000KT 6SM 23/20 A3000 RMK 60000 70074 SLP158 T02310204 52020 IEM_DS3505
ZGOW,2010-10-04 01:00,ZGOW 040100Z AUTO 35004KT 5SM 24/18 A3000 RMK T02400180 IEM_DS3505
ZGOW,2010-10-04 02:00,ZGOW 040200Z AUTO 01004KT 5SM 25/19 A3000 RMK T02500190 IEM_DS3505
ZGOW,2010-10-04 03:00,ZGOW 040300Z AUTO 09002KT 6SM 25/20 A3000 RMK SLP157 T02510199 57001 IEM_DS3505
ZGOW,2010-10-04 04:00,ZGOW 040400Z AUTO 03006KT 4SM 26/20 A2997 RMK T02600200 IEM_DS3505
ZGOW,2010-10-04 05:00,ZGOW 040500Z AUTO 05008KT 4SM 27/19 A2994 RMK T02700190 IEM_DS3505
ZGOW,2010-10-04 06:00,ZGOW 040600Z AUTO 07004KT 7SM 27/20 A2994 RMK SLP140 T02720203 57017 IEM_DS3505
ZGOW,2010-10-04 07:00,ZGOW 040700Z AUTO 08010KT 4SM 27/19 A2994 RMK T02700190 IEM_DS3505
ZGOW,2010-10-04 08:00,ZGOW 040800Z AUTO 08010KT 4SM 27/19 A2994 RMK T02700190 IEM_DS3505
ZGOW,2010-10-04 09:00,ZGOW 040900Z AUTO 09006KT 4SM 26/20 A2994 RMK SLP138 T02610200 57002 IEM_DS3505
ZGOW,2010-10-04 10:00,ZGOW 041000Z AUTO 08010KT 4SM 25/20 A2994 RMK T02500200 IEM_DS3505
ZGOW,2010-10-04 11:00,ZGOW 041100Z AUTO 08010KT 3SM 25/20 A2997 RMK T02500200 IEM_DS3505
ZGOW,2010-10-04 12:00,ZGOW 041200Z AUTO 09004KT 5SM 25/20 A2997 RMK SLP148 T02530201 52010 IEM_DS3505
ZGOW,2010-10-04 13:00,ZGOW 041300Z AUTO 08010KT 3SM 25/20 A3000 RMK T02500200 IEM_DS3505
ZGOW,2010-10-04 14:00,ZGOW 041400Z AUTO 07010KT 3SM 25/20 A3000 RMK T02500200 IEM_DS3505
ZGOW,2010-10-04 15:00,ZGOW 041500Z AUTO 07006KT 6SM 25/20 A3000 RMK SLP156 T02490199 52008 IEM_DS3505
ZGOW,2010-10-04 16:00,ZGOW 041600Z AUTO 08010KT 4SM 24/19 A3000 RMK T02400190 IEM_DS3505
ZGOW,2010-10-04 17:00,ZGOW 041700Z AUTO 06008KT 4SM 24/19 A2997 RMK T02400190 IEM_DS3505
ZGOW,2010-10-04 18:00,ZGOW 041800Z AUTO 07002KT 6SM 24/19 RMK SLP148 T02400191 57008 IEM_DS3505
ZGOW,2010-10-04 20:00,ZGOW 042000Z AUTO 07010KT 4SM 23/17 A2994 RMK T02300170 IEM_DS3505
ZGOW,2010-10-04 21:00,ZGOW 042100Z AUTO 07006KT 9SM 23/17 A2994 RMK SLP144 T02330173 57004 IEM_DS3505
ZGOW,2010-10-04 22:00,ZGOW 042200Z AUTO 05010KT 3SM 22/17 A2997 RMK T02200170 IEM_DS3505
ZGOW,2010-10-04 23:00,ZGOW 042300Z AUTO 04006KT 4SM 23/17 A2997 RMK T02300170 IEM_DS3505
ZGOW,2010-10-05 00:00,ZGOW 050000Z AUTO 07004KT 7SM 24/16 A3000 RMK SLP158 T02370162 52014 IEM_DS3505
ZGOW,2010-10-05 01:00,ZGOW 050100Z AUTO 05008KT 6SM 24/16 A3000 RMK T02400160 IEM_DS3505
ZGOW,2010-10-05 02:00,ZGOW 050200Z AUTO 06010KT 6SM 25/16 A3003 RMK T02500160 IEM_DS3505
ZGOW,2010-10-05 03:00,ZGOW 050300Z AUTO 07008KT 7SM 26/15 A3000 RMK SLP163 T02560153 52005 IEM_DS3505
ZGOW,2010-10-05 04:00,ZGOW 050400Z AUTO 08012KT 6SM 27/16 A3000 RMK T02700160 IEM_DS3505
ZGOW,2010-10-05 05:00,ZGOW 050500Z AUTO 07012KT 6SM 26/17 A2997 RMK T02600170 IEM_DS3505
ZGOW,2010-10-05 06:00,ZGOW 050600Z AUTO 07006KT 7SM 26/15 A2994 RMK SLP138 T02610149 57025 IEM_DS3505
ZGOW,2010-10-05 07:00,ZGOW 050700Z AUTO 08008KT 6SM 25/17 A2991 RMK T02500170 IEM_DS3505
ZGOW,2010-10-05 08:00,ZGOW 050800Z AUTO 09006KT 6SM 25/18 A2994 RMK T02500180 IEM_DS3505
ZGOW,2010-10-05 09:00,ZGOW 050900Z AUTO 09004KT 7SM 25/16 A2994 RMK SLP139 T02530162 52001 IEM_DS3505
ZGOW,2010-10-05 10:00,ZGOW 051000Z AUTO 08004KT 4SM 24/18 A2994 RMK T02400180 IEM_DS3505
ZGOW,2010-10-05 11:00,ZGOW 051100Z AUTO 08008KT 4SM 24/18 A2997 RMK T02400180 IEM_DS3505
ZGOW,2010-10-05 12:00,ZGOW 051200Z AUTO 07006KT 6SM 25/17 A2997 RMK SLP149 T02470174 52010 IEM_DS3505
ZGOW,2010-10-05 13:00,ZGOW 051300Z AUTO 07008KT 6SM 24/18 A2997 RMK T02400180 IEM_DS3505
ZGOW,2010-10-05 14:00,ZGOW 051400Z AUTO 06008KT 6SM 24/18 A3000 RMK T02400180 IEM_DS3505
ZGOW,2010-10-05 15:00,ZGOW 051500Z AUTO 07004KT 6SM 24/18 A3000 RMK SLP159 T02430178 52010 IEM_DS3505
ZGOW,2010-10-05 16:00,ZGOW 051600Z AUTO 04008KT 6SM 23/18 A3000 RMK T02300180 IEM_DS3505
ZGOW,2010-10-05 17:00,ZGOW 051700Z AUTO 06008KT 6SM 23/16 A2997 RMK T02300160 IEM_DS3505
ZGOW,2010-10-05 18:00,ZGOW 051800Z AUTO 07006KT 6SM 24/14 RMK SLP149 T02360143 57010 IEM_DS3505
ZGOW,2010-10-05 21:00,ZGOW 052100Z AUTO 20002KT 7SM 22/17 A2997 RMK SLP147 T02250172 57002 IEM_DS3505
ZGOW,2010-10-05 22:00,ZGOW 052200Z AUTO 02006KT 3SM 22/16 A2997 RMK T02200160 IEM_DS3505
ZGOW,2010-10-05 23:00,ZGOW 052300Z AUTO 01004KT 3SM 23/17 A3000 RMK T02300170 IEM_DS3505
ZGOW,2010-10-06 00:00,ZGOW 060000Z AUTO 07004KT 6SM 23/16 A3000 RMK SLP160 T02330159 52013 IEM_DS3505
ZGOW,2010-10-06 01:00,ZGOW 060100Z AUTO 04008KT 4SM 24/16 A3000 RMK T02400160 IEM_DS3505
ZGOW,2010-10-06 02:00,ZGOW 060200Z AUTO 04008KT 5SM 24/15 A3000 RMK T02400150 IEM_DS3505
ZGOW,2010-10-06 03:00,ZGOW 060300Z AUTO 07008KT 7SM 24/14 A3000 RMK SLP155 T02450140 57005 IEM_DS3505
ZGOW,2010-10-06 04:00,ZGOW 060400Z AUTO 06008KT 4SM 25/16 A2997 RMK T02500160 IEM_DS3505
ZGOW,2010-10-06 05:00,ZGOW 060500Z AUTO 08010KT 4SM 25/17 A2997 RMK T02500170 IEM_DS3505
ZGOW,2010-10-06 06:00,ZGOW 060600Z AUTO 09006KT 6SM 25/17 A2994 RMK SLP140 T02460166 57015 IEM_DS3505
ZGOW,2010-10-06 07:00,ZGOW 060700Z AUTO 08008KT 4SM 24/18 A2994 RMK T02400180 IEM_DS3505
ZGOW,2010-10-06 08:00,ZGOW 060800Z AUTO 06012KT 4SM 25/18 A2991 RMK T02500180 IEM_DS3505
ZGOW,2010-10-06 09:00,ZGOW 060900Z AUTO 09006KT 6SM 24/17 A2994 RMK SLP135 T02450167 57005 IEM_DS3505
ZGOW,2010-10-06 10:00,ZGOW 061000Z AUTO 08008KT 4SM 24/17 A2994 RMK T02400170 IEM_DS3505
ZGOW,2010-10-06 11:00,ZGOW 061100Z AUTO 07010KT 4SM 24/18 A2997 RMK T02400180 IEM_DS3505
ZGOW,2010-10-06 12:00,ZGOW 061200Z AUTO 07004KT 6SM 24/17 A2997 RMK 60000 SLP152 T02430173 52017 IEM_DS3505
ZGOW,2010-10-06 13:00,ZGOW 061300Z AUTO 08006KT 4SM 24/19 A3000 RMK T02400190 IEM_DS3505
ZGOW,2010-10-06 14:00,ZGOW 061400Z AUTO 05006KT 4SM 23/19 A3000 RMK T02300190 IEM_DS3505
ZGOW,2010-10-06 15:00,ZGOW 061500Z AUTO 07006KT 5SM 24/18 A3000 RMK SLP159 T02390179 52007 IEM_DS3505
ZGOW,2010-10-06 16:00,ZGOW 061600Z AUTO 05006KT 4SM 23/18 A3000 RMK T02300180 IEM_DS3505
ZGOW,2010-10-06 17:00,ZGOW 061700Z AUTO 06004KT 4SM 22/18 A2997 RMK T02200180 IEM_DS3505
ZGOW,2010-10-06 18:00,ZGOW 061800Z AUTO 07004KT 6SM 23/17 RMK SLP141 T02310173 57018 IEM_DS3505
ZGOW,2010-10-06 21:00,ZGOW 062100Z AUTO 00000KT 5SM 22/18 A2991 RMK 70000 SLP132 T02220180 57009 IEM_DS3505
ZGOW,2010-10-06 22:00,ZGOW 062200Z AUTO 03004KT 2 1/2SM 21/17 A2994 RMK T02100170 IEM_DS3505
ZGOW,2010-10-06 23:00,ZGOW 062300Z AUTO 03006KT 2 1/2SM 23/18 A2994 RMK T02300180 IEM_DS3505
ZGOW,2010-10-07 00:00,ZGOW 070000Z AUTO 07006KT 5SM 24/18 A2997 RMK 70000 SLP147 T02440181 52015 IEM_DS3505
ZGOW,2010-10-07 01:00,ZGOW 070100Z AUTO 07008KT 4SM 26/18 A2997 RMK T02600180 IEM_DS3505
ZGOW,2010-10-07 02:00,ZGOW 070200Z AUTO 08012KT 6SM 26/19 A2997 RMK T02600190 IEM_DS3505
ZGOW,2010-10-07 03:00,ZGOW 070300Z AUTO 07008KT 6SM 27/19 A2994 RMK SLP144 T02670188 57003 IEM_DS3505
ZGOW,2010-10-07 04:00,ZGOW 070400Z AUTO 06012KT 6SM 28/19 A2994 RMK T02800190 IEM_DS3505
ZGOW,2010-10-07 05:00,ZGOW 070500Z AUTO 08012KT 6SM 27/19 A2991 RMK T02700190 IEM_DS3505
ZGOW,2010-10-07 06:00,ZGOW 070600Z AUTO 07008KT 9SM 26/19 A2991 RMK SLP125 T02650194 57019 IEM_DS3505
ZGOW,2010-10-07 07:00,ZGOW 070700Z AUTO 07008KT 4SM 26/20 A2988 RMK T02600200 IEM_DS3505
ZGOW,2010-10-07 08:00,ZGOW 070800Z AUTO 08008KT 4SM 26/20 A2988 RMK T02600200 IEM_DS3505
ZGOW,2010-10-07 09:00,ZGOW 070900Z AUTO 07004KT 6SM 26/20 A2988 RMK SLP119 T02640203 57006 IEM_DS3505
ZGOW,2010-10-07 10:00,ZGOW 071000Z AUTO 09006KT 3SM 26/20 A2988 RMK T02600200 IEM_DS3505
ZGOW,2010-10-07 11:00,ZGOW 071100Z AUTO 08006KT 4SM 25/21 A2991 RMK T02500210 IEM_DS3505
ZGOW,2010-10-07 12:00,ZGOW 071200Z AUTO 07004KT 7SM 26/21 A2991 RMK SLP133 T02580206 52014 IEM_DS3505
ZGOW,2010-10-07 13:00,ZGOW 071300Z AUTO 08008KT 4SM 25/21 A2994 RMK T02500210 IEM_DS3505
ZGOW,2010-10-07 14:00,ZGOW 071400Z AUTO 08008KT 4SM 25/21 A2994 RMK T02500210 IEM_DS3505
ZGOW,2010-10-07 15:00,ZGOW 071500Z AUTO 07004KT 6SM 25/21 A2994 RMK SLP136 T02530210 52003 IEM_DS3505
ZGOW,2010-10-07 16:00,ZGOW 071600Z AUTO 06006KT 3SM 25/21 A2991 RMK T02500210 IEM_DS3505
ZGOW,2010-10-07 17:00,ZGOW 071700Z AUTO 06006KT 2 1/2SM 24/21 A2988 RMK T02400210 IEM_DS3505
ZGOW,2010-10-07 18:00,ZGOW 071800Z AUTO 07004KT 6SM 25/21 RMK SLP118 T02460211 57018 IEM_DS3505
ZGOW,2010-10-07 19:00,ZGOW 071900Z AUTO 07008KT 3SM 24/20 A2985 RMK T02400200 IEM_DS3505
ZGOW,2010-10-07 21:00,ZGOW 072100Z AUTO 07006KT 6SM 24/20 A2985 RMK 70000 SLP112 T02440199 57006 IEM_DS3505
ZGOW,2010-10-07 22:00,ZGOW 072200Z AUTO 04004KT 2SM 23/20 A2988 RMK T02300200 IEM_DS3505
ZGOW,2010-10-07 23:00,ZGOW 072300Z AUTO 06004KT 2SM 24/20 A2988 RMK T02400200 IEM_DS3505
ZGOW,2010-10-08 00:00,ZGOW 080000Z AUTO 09002KT 5SM 25/20 A2991 RMK 60000 70000 SLP131 T02460203 52019 IEM_DS3505
ZGOW,2010-10-08 01:00,ZGOW 080100Z AUTO 06008KT 2 1/2SM 25/20 A2991 RMK T02500200 IEM_DS3505
ZGOW,2010-10-08 02:00,ZGOW 080200Z AUTO 06012KT 3SM 25/20 A2991 RMK T02500200 IEM_DS3505
ZGOW,2010-10-08 03:00,ZGOW 080300Z AUTO 07006KT 4SM 26/20 A2991 RMK SLP129 T02600201 57002 IEM_DS3505
ZGOW,2010-10-08 04:00,ZGOW 080400Z AUTO 08010KT 4SM 25/20 A2988 RMK T02500200 IEM_DS3505
ZGOW,2010-10-08 05:00,ZGOW 080500Z AUTO 07010KT 4SM 26/21 A2985 RMK T02600210 IEM_DS3505
ZGOW,2010-10-08 06:00,ZGOW 080600Z AUTO 11006KT 4SM 27/21 A2985 RMK SLP104 T02690207 57025 IEM_DS3505
ZGOW,2010-10-08 07:00,ZGOW 080700Z AUTO 08008KT 4SM 26/20 A2983 RMK T02600200 IEM_DS3505
ZGOW,2010-10-08 08:00,ZGOW 080800Z AUTO 09008KT 4SM 25/20 A2983 RMK T02500200 IEM_DS3505
ZGOW,2010-10-08 09:00,ZGOW 080900Z AUTO 07006KT 4SM 26/20 A2983 RMK SLP102 T02610204 57002 IEM_DS3505
ZGOW,2010-10-08 10:00,ZGOW 081000Z AUTO 08008KT 3SM 25/20 A2985 RMK T02500200 IEM_DS3505
ZGOW,2010-10-08 11:00,ZGOW 081100Z AUTO 08008KT 3SM 25/21 A2985 RMK T02500210 IEM_DS3505
ZGOW,2010-10-08 12:00,ZGOW 081200Z AUTO 09004KT 5SM 25/21 A2985 RMK SLP113 T02500209 52011 IEM_DS3505
ZGOW,2010-10-08 13:00,ZGOW 081300Z AUTO 08010KT 7SM 25/20 A2988 RMK T02500200 IEM_DS3505
ZGOW,2010-10-08 14:00,ZGOW 081400Z AUTO 06010KT 7SM 24/20 A2988 RMK T02400200 IEM_DS3505
ZGOW,2010-10-08 15:00,ZGOW 081500Z AUTO 09006KT 7SM 25/20 A2988 RMK SLP115 T02460201 52002 IEM_DS3505
ZGOW,2010-10-08 16:00,ZGOW 081600Z AUTO 07010KT 7SM 24/20 A2985 RMK T02400200 IEM_DS3505
ZGOW,2010-10-08 17:00,ZGOW 081700Z AUTO 08008KT 7SM 24/20 A2985 RMK T02400200 IEM_DS3505
ZGOW,2010-10-08 18:00,ZGOW 081800Z AUTO 09004KT 7SM 24/20 A2983 RMK SLP103 T02400197 57012 IEM_DS3505
ZGOW,2010-10-08 19:00,ZGOW 081900Z AUTO 06006KT 6SM 23/19 A2983 RMK T02300190 IEM_DS3505
ZGOW,2010-10-08 20:00,ZGOW 082000Z AUTO 09004KT 6SM 23/20 A2983 RMK T02300200 IEM_DS3505
ZGOW,2010-10-08 21:00,ZGOW 082100Z AUTO 00000KT 6SM 23/20 A2983 RMK SLP097 T02340202 57006 IEM_DS3505
ZGOW,2010-10-08 22:00,ZGOW 082200Z AUTO 02006KT 3SM 23/20 A2983 RMK T02300200 IEM_DS3505
ZGOW,2010-10-08 23:00,ZGOW 082300Z AUTO 04004KT 3SM 23/20 A2985 RMK T02300200 IEM_DS3505
ZGOW,2010-10-09 00:00,ZGOW 090000Z AUTO 07004KT 7SM 25/20 A2985 RMK 60000 70000 SLP111 T02460197 52014 IEM_DS3505
ZGOW,2010-10-09 01:00,ZGOW 090100Z AUTO 11002KT 4SM 25/20 A2988 RMK T02500200 IEM_DS3505
ZGOW,2010-10-09 02:00,ZGOW 090200Z AUTO 09002KT 4SM 26/20 A2988 RMK T02600200 IEM_DS3505
ZGOW,2010-10-09 03:00,ZGOW 090300Z AUTO 04002KT 7SM 27/19 A2985 RMK SLP112 T02670191 52001 IEM_DS3505
ZGOW,2010-10-09 04:00,ZGOW 090400Z AUTO 06006KT 7SM 27/19 A2983 RMK T02700190 IEM_DS3505
ZGOW,2010-10-09 05:00,ZGOW 090500Z AUTO 07006KT 7SM 27/20 A2983 RMK T02700200 IEM_DS3505
ZGOW,2010-10-09 06:00,ZGOW 090600Z AUTO 11006KT 7SM 27/19 A2980 RMK SLP090 T02690193 57022 IEM_DS3505
ZGOW,2010-10-09 07:00,ZGOW 090700Z AUTO 13004KT 4SM 27/20 A2980 RMK T02700200 IEM_DS3505
ZGOW,2010-10-09 08:00,ZGOW 090800Z AUTO 11004KT 4SM 26/20 A2980 RMK T02600200 IEM_DS3505
ZGOW,2010-10-09 09:00,ZGOW 090900Z AUTO 07004KT 6SM 26/20 A2980 RMK SLP086 T02590195 57004 IEM_DS3505
ZGOW,2010-10-09 10:00,ZGOW 091000Z AUTO 08006KT 4SM 25/19 A2980 RMK T02500190 IEM_DS3505
ZGOW,2010-10-09 11:00,ZGOW 091100Z AUTO 08008KT 7SM 25/19 A2983 RMK T02500190 IEM_DS3505
ZGOW,2010-10-09 12:00,ZGOW 091200Z AUTO 07004KT 6SM 25/20 A2985 RMK 60000 SLP104 T02510201 52018 IEM_DS3505
ZGOW,2010-10-09 13:00,ZGOW 091300Z AUTO 07008KT 7SM 24/20 A2985 RMK T02400200 IEM_DS3505
ZGOW,2010-10-09 14:00,ZGOW 091400Z AUTO 08008KT 7SM 24/18 A2985 RMK T02400180 IEM_DS3505
ZGOW,2010-10-09 15:00,ZGOW 091500Z AUTO 07006KT 7SM 25/19 A2985 RMK SLP112 T02490191 52008 IEM_DS3505
ZGOW,2010-10-09 16:00,ZGOW 091600Z AUTO 05006KT 6SM 24/17 A2985 RMK T02400170 IEM_DS3505
ZGOW,2010-10-09 17:00,ZGOW 091700Z AUTO 07004KT 7SM 23/17 A2985 RMK T02300170 IEM_DS3505
ZGOW,2010-10-09 18:00,ZGOW 091800Z AUTO 07006KT 7SM 24/15 A2983 RMK SLP103 T02450152 57009 IEM_DS3505
ZGOW,2010-10-09 19:00,ZGOW 091900Z AUTO 07010KT 6SM 24/16 A2983 RMK T02400160 IEM_DS3505
ZGOW,2010-10-09 20:00,ZGOW 092000Z AUTO 07010KT 6SM 24/16 A2983 RMK T02400160 IEM_DS3505
ZGOW,2010-10-09 21:00,ZGOW 092100Z AUTO 07006KT 9SM 24/16 A2983 RMK 70000 SLP101 T02370165 57002 IEM_DS3505
ZGOW,2010-10-09 22:00,ZGOW 092200Z AUTO 05008KT 7SM 23/17 A2983 RMK T02300170 IEM_DS3505
ZGOW,2010-10-09 23:00,ZGOW 092300Z AUTO 03008KT 6SM 23/16 A2985 RMK T02300160 IEM_DS3505
ZGOW,2010-10-10 00:00,ZGOW 100000Z AUTO 07004KT 11SM 24/16 A2985 RMK 70000 SLP114 T02380163 52013 IEM_DS3505
ZGOW,2010-10-10 01:00,ZGOW 100100Z AUTO 04006KT 7SM 25/17 A2988 RMK T02500170 IEM_DS3505
ZGOW,2010-10-10 02:00,ZGOW 100200Z AUTO 07012KT 7SM 26/19 A2988 RMK T02600190 IEM_DS3505
ZGOW,2010-10-10 03:00,ZGOW 100300Z AUTO 09008KT 10SM 27/19 A2988 RMK SLP120 T02670191 52006 IEM_DS3505
ZGOW,2010-10-10 04:00,ZGOW 100400Z AUTO 07014KT 7SM 27/20 A2985 RMK T02700200 IEM_DS3505
ZGOW,2010-10-10 05:00,ZGOW 100500Z AUTO 07016KT 7SM 27/20 A2983 RMK T02700200 IEM_DS3505
ZGOW,2010-10-10 06:00,ZGOW 100600Z AUTO 09006KT 10SM 26/20 A2983 RMK SLP103 T02640200 57017 IEM_DS3505
ZGOW,2010-10-10 07:00,ZGOW 100700Z AUTO 07012KT 7SM 26/20 A2983 RMK T02600200 IEM_DS3505
ZGOW,2010-10-10 08:00,ZGOW 100800Z AUTO 07014KT 7SM 26/20 A2983 RMK T02600200 IEM_DS3505
ZGOW,2010-10-10 09:00,ZGOW 100900Z AUTO 09006KT 7SM 26/21 A2985 RMK SLP106 T02600208 52003 IEM_DS3505
ZGOW,2010-10-10 10:00,ZGOW 101000Z AUTO 09010KT 7SM 25/20 A2985 RMK T02500200 IEM_DS3505
ZGOW,2010-10-10 11:00,ZGOW 101100Z AUTO 09010KT 7SM 25/20 A2985 RMK T02500200 IEM_DS3505
ZGOW,2010-10-10 12:00,ZGOW 101200Z AUTO 07008KT 6SM 26/20 A2988 RMK SLP115 T02550205 52009 IEM_DS3505
ZGOW,2010-10-10 13:00,ZGOW 101300Z AUTO 08010KT 7SM 25/21 A2988 RMK T02500210 IEM_DS3505
ZGOW,2010-10-10 14:00,ZGOW 101400Z AUTO 07012KT 7SM 25/21 A2991 RMK T02500210 IEM_DS3505
ZGOW,2010-10-10 15:00,ZGOW 101500Z AUTO 07006KT 6SM 25/21 A2988 RMK SLP124 T02510210 52009 IEM_DS3505
ZGOW,2010-10-10 16:00,ZGOW 101600Z AUTO 08014KT 7SM 25/20 A2988 RMK T02500200 IEM_DS3505
ZGOW,2010-10-10 17:00,ZGOW 101700Z AUTO 08012KT 7SM 25/20 A2988 RMK T02500200 IEM_DS3505
ZGOW,2010-10-10 18:00,ZGOW 101800Z AUTO 07006KT 6SM 25/21 A2988 RMK SLP118 T02470206 57006 IEM_DS3505
ZGOW,2010-10-10 19:00,ZGOW 101900Z AUTO 08010KT 7SM 24/20 A2988 RMK T02400200 IEM_DS3505
ZGOW,2010-10-10 20:00,ZGOW 102000Z AUTO 07010KT 7SM 24/20 A2988 RMK T02400200 IEM_DS3505
ZGOW,2010-10-10 21:00,ZGOW 102100Z AUTO 02004KT 6SM 24/21 A2988 RMK SLP118 T02450208 54000 IEM_DS3505
ZGOW,2010-10-10 22:00,ZGOW 102200Z AUTO 05008KT 7SM 24/20 A2988 RMK T02400200 IEM_DS3505
ZGOW,2010-10-10 23:00,ZGOW 102300Z AUTO 02004KT 4SM 25/21 A2991 RMK T02500210 IEM_DS3505
ZGOW,2010-10-11 00:00,ZGOW 110000Z AUTO 09002KT 5SM 24/21 A2991 RMK 60001 70001 SLP134 T02410210 52016 IEM_DS3505
ZGOW,2010-10-11 01:00,ZGOW 110100Z AUTO 06008KT 3SM 26/22 A2994 RMK T02600220 IEM_DS3505
ZGOW,2010-10-11 02:00,ZGOW 110200Z AUTO 07010KT 4SM 27/21 A2994 RMK T02700210 IEM_DS3505
ZGOW,2010-10-11 03:00,ZGOW 110300Z AUTO 09006KT 7SM 28/21 A2994 RMK SLP142 T02760212 52008 IEM_DS3505
ZGOW,2010-10-11 04:00,ZGOW 110400Z AUTO 07010KT 6SM 29/22 A2994 RMK T02900220 IEM_DS3505
ZGOW,2010-10-11 05:00,ZGOW 110500Z AUTO 08006KT 7SM 29/21 A2991 RMK T02900210 IEM_DS3505
ZGOW,2010-10-11 06:00,ZGOW 110600Z AUTO 11002KT 9SM 29/22 A2991 RMK 60000 SLP122 T02890222 57019 IEM_DS3505
ZGOW,2010-10-11 07:00,ZGOW 110700Z AUTO 12004KT 7SM 29/22 A2988 RMK T02900220 IEM_DS3505
ZGOW,2010-10-11 08:00,ZGOW 110800Z AUTO 12008KT 7SM 27/22 A2991 RMK T02700220 IEM_DS3505
ZGOW,2010-10-11 09:00,ZGOW 110900Z AUTO 11004KT 4SM 27/22 A2991 RMK SLP125 T02710223 52002 IEM_DS3505
ZGOW,2010-10-11 10:00,ZGOW 111000Z AUTO 09002KT 4SM 26/22 A2991 RMK T02600220 IEM_DS3505
ZGOW,2010-10-11 11:00,ZGOW 111100Z AUTO 09002KT 4SM 25/22 A2991 RMK T02500220 IEM_DS3505
ZGOW,2010-10-11 12:00,ZGOW 111200Z AUTO 00000KT 4SM 26/23 A2994 RMK SLP137 T02580229 52012 IEM_DS3505
ZGOW,2010-10-11 13:00,ZGOW 111300Z AUTO 09002KT 4SM 25/22 A2994 RMK T02500220 IEM_DS3505
ZGOW,2010-10-11 14:00,ZGOW 111400Z AUTO 05004KT 3SM 24/22 A2994 RMK T02400220 IEM_DS3505
ZGOW,2010-10-11 15:00,ZGOW 111500Z AUTO 07002KT 3SM 25/23 A2994 RMK SLP142 T02540231 52005 IEM_DS3505
ZGOW,2010-10-11 16:00,ZGOW 111600Z AUTO 00000KT 3SM 24/23 A2994 RMK T02400230 IEM_DS3505
ZGOW,2010-10-11 17:00,ZGOW 111700Z AUTO 00000KT 3SM 25/22 A2997 RMK T02500220 IEM_DS3505
ZGOW,2010-10-11 18:00,ZGOW 111800Z AUTO 00000KT 3SM 25/23 RMK SLP140 T02490228 57002 IEM_DS3505
ZGOW,2010-10-11 19:00,ZGOW 111900Z AUTO 36002KT 2 1/2SM 24/22 A2991 RMK T02400220 IEM_DS3505
ZGOW,2010-10-11 21:00,ZGOW 112100Z AUTO 00000KT 2 1/2SM 24/23 A2991 RMK 70001 SLP133 T02410227 57007 IEM_DS3505
ZGOW,2010-10-11 22:00,ZGOW 112200Z AUTO 35002KT 1 1/2SM 24/22 A2994 RMK T02400220 IEM_DS3505
ZGOW,2010-10-11 23:00,ZGOW 112300Z AUTO 09002KT 1 1/4SM 24/23 A2994 RMK T02400230 IEM_DS3505
ZGOW,2010-10-12 00:00,ZGOW 120000Z AUTO 04002KT 4SM 26/23 A2994 RMK 70000 SLP145 T02600233 52012 IEM_DS3505
ZGOW,2010-10-12 01:00,ZGOW 120100Z AUTO 04004KT 2SM 27/23 A2997 RMK T02700230 IEM_DS3505
ZGOW,2010-10-12 02:00,ZGOW 120200Z AUTO 07006KT 2 1/2SM 29/22 A2997 RMK T02900220 IEM_DS3505
ZGOW,2010-10-12 03:00,ZGOW 120300Z AUTO 09004KT 6SM 30/23 A2997 RMK SLP147 T02970232 52003 IEM_DS3505
ZGOW,2010-10-12 04:00,ZGOW 120400Z AUTO 12006KT 4SM 29/23 A2994 RMK T02900230 IEM_DS3505
ZGOW,2010-10-12 05:00,ZGOW 120500Z AUTO 12006KT 4SM 30/23 A2991 RMK T03000230 IEM_DS3505
ZGOW,2010-10-12 06:00,ZGOW 120600Z AUTO 07004KT 6SM 30/23 A2991 RMK SLP125 T02950232 57022 IEM_DS3505
ZGOW,2010-10-12 07:00,ZGOW 120700Z AUTO 12006KT 7SM 29/23 A2988 RMK T02900230 IEM_DS3505
ZGOW,2010-10-12 08:00,ZGOW 120800Z AUTO 13006KT 7SM 29/23 A2988 RMK T02900230 IEM_DS3505
ZGOW,2010-10-12 09:00,ZGOW 120900Z AUTO 11004KT 6SM 28/24 A2988 RMK SLP119 T02810235 57007 IEM_DS3505
ZGOW,2010-10-12 10:00,ZGOW 121000Z AUTO 11006KT 3SM 26/23 A2988 RMK T02600230 IEM_DS3505
ZGOW,2010-10-12 11:00,ZGOW 121100Z AUTO 07004KT 2 1/2SM 26/23 A2991 RMK T02600230 IEM_DS3505
ZGOW,2010-10-12 12:00,ZGOW 121200Z AUTO 09004KT 6SM 26/24 A2994 RMK SLP140 T02650238 52021 IEM_DS3505
ZGOW,2010-10-12 13:00,ZGOW 121300Z AUTO 08006KT 4SM 26/23 A2997 RMK T02600230 IEM_DS3505
ZGOW,2010-10-12 14:00,ZGOW 121400Z AUTO 08006KT 4SM 25/23 A2997 RMK T02500230 IEM_DS3505
ZGOW,2010-10-12 15:00,ZGOW 121500Z AUTO 00000KT 6SM 26/23 A2994 RMK SLP142 T02580233 52003 IEM_DS3505
ZGOW,2010-10-12 16:00,ZGOW 121600Z AUTO 06006KT 4SM 25/23 A2994 RMK T02500230 IEM_DS3505
ZGOW,2010-10-12 17:00,ZGOW 121700Z AUTO 06002KT 4SM 25/23 A2994 RMK T02500230 IEM_DS3505
ZGOW,2010-10-12 18:00,ZGOW 121800Z AUTO 07002KT 6SM 25/23 A2994 RMK SLP134 T02540233 57008 IEM_DS3505
ZGOW,2010-10-12 19:00,ZGOW 121900Z AUTO 08002KT 3SM 24/23 A2991 RMK T02400230 IEM_DS3505
ZGOW,2010-10-12 21:00,ZGOW 122100Z AUTO 00000KT 6SM 25/23 A2991 RMK SLP131 T02480229 57004 IEM_DS3505
ZGOW,2010-10-12 22:00,ZGOW 122200Z AUTO 05004KT 4SM 24/22 A2991 RMK T02400220 IEM_DS3505
ZGOW,2010-10-12 23:00,ZGOW 122300Z AUTO 00000KT 3SM 25/23 A2994 RMK T02500230 IEM_DS3505
ZGOW,2010-10-13 00:00,ZGOW 130000Z AUTO 09004KT 6SM 27/23 A2994 RMK SLP141 T02700228 52010 IEM_DS3505
ZGOW,2010-10-13 01:00,ZGOW 130100Z AUTO 07008KT 7SM 28/22 A2994 RMK T02800220 IEM_DS3505
ZGOW,2010-10-13 02:00,ZGOW 130200Z AUTO 06008KT 7SM 29/22 A2994 RMK T02900220 IEM_DS3505
ZGOW,2010-10-13 03:00,ZGOW 130300Z AUTO 16002KT 6SM 29/22 A2991 RMK SLP132 T02920222 57008 IEM_DS3505
ZGOW,2010-10-13 04:00,ZGOW 130400Z AUTO 14004KT 4SM 31/23 A2988 RMK T03100230 IEM_DS3505
ZGOW,2010-10-13 05:00,ZGOW 130500Z AUTO 12006KT 4SM 30/23 A2988 RMK T03000230 IEM_DS3505
ZGOW,2010-10-13 06:00,ZGOW 130600Z AUTO 16006KT 7SM 30/23 A2985 RMK SLP108 T02970232 57024 IEM_DS3505
ZGOW,2010-10-13 07:00,ZGOW 130700Z AUTO 12010KT 5SM 29/23 A2983 RMK T02900230 IEM_DS3505
ZGOW,2010-10-13 08:00,ZGOW 130800Z AUTO 13008KT 5SM 28/23 A2983 RMK T02800230 IEM_DS3505
ZGOW,2010-10-13 09:00,ZGOW 130900Z AUTO 14004KT 9SM 28/23 A2983 RMK SLP101 T02790231 57007 IEM_DS3505
ZGOW,2010-10-13 10:00,ZGOW 131000Z AUTO 12006KT 3SM 27/23 A2985 RMK T02700230 IEM_DS3505
ZGOW,2010-10-13 11:00,ZGOW 131100Z AUTO 13006KT 3SM 26/23 A2985 RMK T02600230 IEM_DS3505
ZGOW,2010-10-13 12:00,ZGOW 131200Z AUTO 09004KT 6SM 27/24 A2988 RMK SLP119 T02690236 52018 IEM_DS3505
ZGOW,2010-10-13 13:00,ZGOW 131300Z AUTO 09002KT 3SM 26/23 A2988 RMK T02600230 IEM_DS3505
ZGOW,2010-10-13 14:00,ZGOW 131400Z AUTO 07002KT 3SM 26/24 A2988 RMK T02600240 IEM_DS3505
ZGOW,2010-10-13 15:00,ZGOW 131500Z AUTO 00000KT 4SM 27/24 A2988 RMK SLP121 T02670238 52002 IEM_DS3505
ZGOW,2010-10-13 16:00,ZGOW 131600Z AUTO 10002KT 3SM 26/24 A2988 RMK T02600240 IEM_DS3505
ZGOW,2010-10-13 17:00,ZGOW 131700Z AUTO 09002KT 3SM 26/24 A2988 RMK T02600240 IEM_DS3505
ZGOW,2010-10-13 18:00,ZGOW 131800Z AUTO 07002KT 4SM 26/24 RMK SLP112 T02640239 57009 IEM_DS3505
ZGOW,2010-10-13 19:00,ZGOW 131900Z AUTO 08004KT 4SM 25/23 A2985 RMK T02500230 IEM_DS3505
ZGOW,2010-10-13 20:00,ZGOW 132000Z AUTO 08004KT 3SM 26/23 A2988 RMK T02600230 IEM_DS3505
ZGOW,2010-10-13 21:00,ZGOW 132100Z AUTO 11002KT 4SM 26/24 A2988 RMK SLP117 T02640235 52005 IEM_DS3505
ZGOW,2010-10-13 22:00,ZGOW 132200Z AUTO 07008KT 4SM 26/23 A2988 RMK T02600230 IEM_DS3505
ZGOW,2010-10-13 23:00,ZGOW 132300Z AUTO 07008KT 4SM 26/23 A2988 RMK T02600230 IEM_DS3505
ZGOW,2010-10-14 00:00,ZGOW 140000Z AUTO 07004KT 6SM 27/24 A2991 RMK SLP128 T02660237 52010 IEM_DS3505
ZGOW,2010-10-14 01:00,ZGOW 140100Z AUTO 08008KT 7SM 28/23 A2991 RMK T02800230 IEM_DS3505
ZGOW,2010-10-14 02:00,ZGOW 140200Z AUTO 07006KT 7SM 28/24 A2991 RMK T02800240 IEM_DS3505
ZGOW,2010-10-14 03:00,ZGOW 140300Z AUTO 07002KT 7SM 29/23 A2991 RMK SLP125 T02900232 57002 IEM_DS3505
ZGOW,2010-10-14 04:00,ZGOW 140400Z AUTO 08008KT 7SM 30/23 A2988 RMK T03000230 IEM_DS3505
ZGOW,2010-10-14 05:00,ZGOW 140500Z AUTO 10008KT 7SM 30/23 A2985 RMK T03000230 IEM_DS3505
ZGOW,2010-10-14 06:00,ZGOW 140600Z AUTO 20004KT 7SM 30/24 A2983 RMK SLP100 T03030240 57025 IEM_DS3505
ZGOW,2010-10-14 07:00,ZGOW 140700Z AUTO 13008KT 7SM 29/24 A2983 RMK T02900240 IEM_DS3505
ZGOW,2010-10-14 08:00,ZGOW 140800Z AUTO 12008KT 6SM 29/24 A2983 RMK T02900240 IEM_DS3505
ZGOW,2010-10-14 09:00,ZGOW 140900Z AUTO 11006KT 7SM 28/23 A2983 RMK SLP096 T02810232 57004 IEM_DS3505
ZGOW,2010-10-14 10:00,ZGOW 141000Z AUTO 11008KT 4SM 26/24 A2983 RMK T02600240 IEM_DS3505
ZGOW,2010-10-14 11:00,ZGOW 141100Z AUTO 08002KT 4SM 26/24 A2985 RMK T02600240 IEM_DS3505
ZGOW,2010-10-14 12:00,ZGOW 141200Z AUTO 09004KT 7SM 27/24 A2988 RMK SLP116 T02680241 52020 IEM_DS3505
ZGOW,2010-10-14 13:00,ZGOW 141300Z AUTO 08008KT 7SM 26/23 A2988 RMK T02600230 IEM_DS3505
ZGOW,2010-10-14 14:00,ZGOW 141400Z AUTO 08008KT 7SM 26/23 A2988 RMK T02600230 IEM_DS3505
ZGOW,2010-10-14 15:00,ZGOW 141500Z AUTO 09004KT 6SM 27/24 A2988 RMK SLP123 T02660237 52007 IEM_DS3505
ZGOW,2010-10-14 16:00,ZGOW 141600Z AUTO 08008KT 7SM 26/23 A2988 RMK T02600230 IEM_DS3505
ZGOW,2010-10-14 17:00,ZGOW 141700Z AUTO 08010KT 7SM 26/23 A2988 RMK T02600230 IEM_DS3505
ZGOW,2010-10-14 18:00,ZGOW 141800Z AUTO 09006KT 6SM 26/24 A2988 RMK SLP116 T02650236 57007 IEM_DS3505
ZGOW,2010-10-14 19:00,ZGOW 141900Z AUTO 07014KT 7SM 26/23 A2988 RMK T02600230 IEM_DS3505
ZGOW,2010-10-14 20:00,ZGOW 142000Z AUTO 07014KT 7SM 25/22 A2988 RMK T02500220 IEM_DS3505
ZGOW,2010-10-14 21:00,ZGOW 142100Z AUTO 07008KT 9SM 25/23 A2991 RMK SLP128 T02530226 52011 IEM_DS3505
ZGOW,2010-10-14 22:00,ZGOW 142200Z AUTO 08014KT 7SM 25/22 A2991 RMK T02500220 IEM_DS3505
ZGOW,2010-10-14 23:00,ZGOW 142300Z AUTO 07016KT 7SM 25/21 A2994 RMK T02500210 IEM_DS3505
ZGOW,2010-10-15 00:00,ZGOW 150000Z AUTO 07010KT 11SM 25/22 A2997 RMK SLP150 T02490218 52022 IEM_DS3505
ZGOW,2010-10-15 01:00,ZGOW 150100Z AUTO 05012KT 7SM 25/21 A3000 RMK T02500210 IEM_DS3505
ZGOW,2010-10-15 02:00,ZGOW 150200Z AUTO 06010KT 7SM 25/21 A3000 RMK T02500210 IEM_DS3505
ZGOW,2010-10-15 03:00,ZGOW 150300Z AUTO 07008KT 10SM 26/21 A2997 RMK SLP152 T02560213 52002 IEM_DS3505
ZGOW,2010-10-15 04:00,ZGOW 150400Z AUTO 06012KT 7SM 26/21 A2997 RMK T02600210 IEM_DS3505
ZGOW,2010-10-15 05:00,ZGOW 150500Z AUTO 05010KT 7SM 25/21 A2994 RMK T02500210 IEM_DS3505
ZGOW,2010-10-15 06:00,ZGOW 150600Z AUTO 04004KT 10SM 25/21 A2991 RMK SLP132 T02520213 57020 IEM_DS3505
ZGOW,2010-10-15 07:00,ZGOW 150700Z AUTO 08010KT 7SM 25/20 A2991 RMK T02500200 IEM_DS3505
ZGOW,2010-10-15 08:00,ZGOW 150800Z AUTO 08012KT 7SM 25/20 A2994 RMK T02500200 IEM_DS3505
ZGOW,2010-10-15 09:00,ZGOW 150900Z AUTO 07010KT 9SM 25/20 A2994 RMK SLP140 T02490204 52008 IEM_DS3505
ZGOW,2010-10-15 10:00,ZGOW 151000Z AUTO 07012KT 7SM 25/20 A2997 RMK T02500200 IEM_DS3505
ZGOW,2010-10-15 11:00,ZGOW 151100Z AUTO 07012KT 7SM 25/20 A2997 RMK T02500200 IEM_DS3505
ZGOW,2010-10-15 12:00,ZGOW 151200Z AUTO 07006KT 8SM 25/20 A3000 RMK SLP157 T02460203 52017 IEM_DS3505
ZGOW,2010-10-15 13:00,ZGOW 151300Z AUTO 07008KT 7SM 24/20 A3000 RMK T02400200 IEM_DS3505
ZGOW,2010-10-15 14:00,ZGOW 151400Z AUTO 08014KT 7SM 24/19 A3000 RMK T02400190 IEM_DS3505
ZGOW,2010-10-15 15:00,ZGOW 151500Z AUTO 07004KT 9SM 24/20 A3000 RMK SLP164 T02420197 52007 IEM_DS3505
ZGOW,2010-10-15 16:00,ZGOW 151600Z AUTO 08008KT 7SM 24/19 A3000 RMK T02400190 IEM_DS3505
ZGOW,2010-10-15 17:00,ZGOW 151700Z AUTO 06010KT 7SM 24/19 A3000 RMK T02400190 IEM_DS3505
ZGOW,2010-10-15 18:00,ZGOW 151800Z AUTO 07006KT 9SM 24/19 A2997 RMK SLP154 T02380187 57010 IEM_DS3505
ZGOW,2010-10-15 19:00,ZGOW 151900Z AUTO 08010KT 7SM 23/18 A2997 RMK T02300180 IEM_DS3505
ZGOW,2010-10-15 20:00,ZGOW 152000Z AUTO 08006KT 7SM 23/18 A2997 RMK T02300180 IEM_DS3505
ZGOW,2010-10-15 21:00,ZGOW 152100Z AUTO 07006KT 9SM 23/18 A2997 RMK SLP147 T02340181 57007 IEM_DS3505
ZGOW,2010-10-15 22:00,ZGOW 152200Z AUTO 07006KT 7SM 23/18 A2997 RMK T02300180 IEM_DS3505
ZGOW,2010-10-15 23:00,ZGOW 152300Z AUTO 06008KT 7SM 23/18 A3000 RMK T02300180 IEM_DS3505
ZGOW,2010-10-16 00:00,ZGOW 160000Z AUTO 07006KT 14SM 24/18 A3000 RMK SLP158 T02450180 52011 IEM_DS3505
ZGOW,2010-10-16 01:00,ZGOW 160100Z AUTO 06010KT 7SM 26/18 A3000 RMK T02600180 IEM_DS3505
ZGOW,2010-10-16 02:00,ZGOW 160200Z AUTO 05012KT 7SM 27/18 A3000 RMK T02700180 IEM_DS3505
ZGOW,2010-10-16 03:00,ZGOW 160300Z AUTO 07008KT 16SM 28/18 A2997 RMK SLP150 T02760183 57008 IEM_DS3505
ZGOW,2010-10-16 04:00,ZGOW 160400Z AUTO 08008KT 7SM 28/20 A2994 RMK T02800200 IEM_DS3505
ZGOW,2010-10-16 05:00,ZGOW 160500Z AUTO 09012KT 7SM 28/19 A2994 RMK T02800190 IEM_DS3505
ZGOW,2010-10-16 06:00,ZGOW 160600Z AUTO 09006KT 12SM 29/19 A2991 RMK SLP128 T02880189 57022 IEM_DS3505
ZGOW,2010-10-16 07:00,ZGOW 160700Z AUTO 09012KT 7SM 28/19 A2991 RMK T02800190 IEM_DS3505
ZGOW,2010-10-16 08:00,ZGOW 160800Z AUTO 08008KT 6SM 28/19 A2991 RMK T02800190 IEM_DS3505
ZGOW,2010-10-16 09:00,ZGOW 160900Z AUTO 11004KT 9SM 27/20 A2991 RMK SLP134 T02720203 52006 IEM_DS3505
ZGOW,2010-10-16 10:00,ZGOW 161000Z AUTO 08008KT 4SM 26/20 A2994 RMK T02600200 IEM_DS3505
ZGOW,2010-10-16 11:00,ZGOW 161100Z AUTO 08010KT 4SM 26/20 A2994 RMK T02600200 IEM_DS3505
ZGOW,2010-10-16 12:00,ZGOW 161200Z AUTO 11004KT 6SM 26/21 A2997 RMK SLP149 T02640207 52015 IEM_DS3505
ZGOW,2010-10-16 13:00,ZGOW 161300Z AUTO 08012KT 7SM 26/20 A2997 RMK T02600200 IEM_DS3505
ZGOW,2010-10-16 14:00,ZGOW 161400Z AUTO 08012KT 7SM 26/20 A3000 RMK T02600200 IEM_DS3505
ZGOW,2010-10-16 15:00,ZGOW 161500Z AUTO 09006KT 6SM 26/20 A3000 RMK SLP158 T02580197 52009 IEM_DS3505
ZGOW,2010-10-16 16:00,ZGOW 161600Z AUTO 07010KT 7SM 25/19 A2997 RMK T02500190 IEM_DS3505
ZGOW,2010-10-16 17:00,ZGOW 161700Z AUTO 06014KT 7SM 25/19 A2997 RMK T02500190 IEM_DS3505
ZGOW,2010-10-16 18:00,ZGOW 161800Z AUTO 09004KT 6SM 25/19 A2997 RMK SLP148 T02470191 57010 IEM_DS3505
ZGOW,2010-10-16 19:00,ZGOW 161900Z AUTO 06010KT 7SM 24/19 A2997 RMK T02400190 IEM_DS3505
ZGOW,2010-10-16 20:00,ZGOW 162000Z AUTO 03010KT 7SM 24/19 A2994 RMK T02400190 IEM_DS3505
ZGOW,2010-10-16 21:00,ZGOW 162100Z AUTO 14002KT 6SM 24/19 A2997 RMK SLP146 T02370190 57002 IEM_DS3505
ZGOW,2010-10-16 22:00,ZGOW 162200Z AUTO 00000KT 4SM 23/19 A2997 RMK T02300190 IEM_DS3505
ZGOW,2010-10-16 23:00,ZGOW 162300Z AUTO 01002KT 4SM 24/19 A3000 RMK T02400190 IEM_DS3505
ZGOW,2010-10-17 00:00,ZGOW 170000Z AUTO 07004KT 9SM 26/19 A3000 RMK SLP164 T02610193 52018 IEM_DS3505
ZGOW,2010-10-17 01:00,ZGOW 170100Z AUTO 07006KT 5SM 27/19 A3003 RMK T02700190 IEM_DS3505
ZGOW,2010-10-17 02:00,ZGOW 170200Z AUTO 07010KT 7SM 28/19 A3000 RMK T02800190 IEM_DS3505
ZGOW,2010-10-17 03:00,ZGOW 170300Z AUTO 07008KT 9SM 29/19 A2997 RMK SLP150 T02900190 57014 IEM_DS3505
ZGOW,2010-10-17 04:00,ZGOW 170400Z AUTO 08017KT 7SM 29/19 A2994 RMK T02900190 IEM_DS3505
ZGOW,2010-10-17 05:00,ZGOW 170500Z AUTO 08014KT 6SM 29/20 A2991 RMK T02900200 IEM_DS3505
ZGOW,2010-10-17 06:00,ZGOW 170600Z AUTO 09010KT 12SM 30/20 A2988 RMK SLP122 T02980195 57027 IEM_DS3505
ZGOW,2010-10-17 07:00,ZGOW 170700Z AUTO 09016KT 6SM 29/20 A2988 RMK T02900200 IEM_DS3505
ZGOW,2010-10-17 08:00,ZGOW 170800Z AUTO 09016KT 7SM 27/20 A2988 RMK T02700200 IEM_DS3505
ZGOW,2010-10-17 09:00,ZGOW 170900Z AUTO 09006KT 9SM 28/20 A2991 RMK SLP127 T02750201 52004 IEM_DS3505
ZGOW,2010-10-17 10:00,ZGOW 171000Z AUTO 08012KT 4SM 26/20 A2991 RMK T02600200 IEM_DS3505
ZGOW,2010-10-17 11:00,ZGOW 171100Z AUTO 08016KT 4SM 26/20 A2994 RMK T02600200 IEM_DS3505
ZGOW,2010-10-17 12:00,ZGOW 171200Z AUTO 07008KT 9SM 26/20 A2997 RMK SLP146 T02610200 52019 IEM_DS3505
ZGOW,2010-10-17 13:00,ZGOW 171300Z AUTO 08017KT 5SM 25/19 A2997 RMK T02500190 IEM_DS3505
ZGOW,2010-10-17 14:00,ZGOW 171400Z AUTO 08010G19KT 5SM 25/19 A2997 RMK T02500190 IEM_DS3505
ZGOW,2010-10-17 15:00,ZGOW 171500Z AUTO 07004KT 7SM 25/19 A2997 RMK SLP147 T02480192 52001 IEM_DS3505
ZGOW,2010-10-17 16:00,ZGOW 171600Z AUTO 03004KT 5SM 23/19 A2994 RMK T02300190 IEM_DS3505
ZGOW,2010-10-17 17:00,ZGOW 171700Z AUTO 06004KT 5SM 23/18 A2994 RMK T02300180 IEM_DS3505
ZGOW,2010-10-17 18:00,ZGOW 171800Z AUTO 07002KT 6SM 24/18 RMK SLP139 T02420184 57008 IEM_DS3505
ZGOW,2010-10-17 20:00,ZGOW 172000Z AUTO 02004KT 4SM 22/18 A2991 RMK T02200180 IEM_DS3505
ZGOW,2010-10-17 21:00,ZGOW 172100Z AUTO 04002KT 6SM 23/17 A2991 RMK SLP134 T02280168 57005 IEM_DS3505
ZGOW,2010-10-17 22:00,ZGOW 172200Z AUTO 01006KT 6SM 23/15 A2994 RMK T02300150 IEM_DS3505
ZGOW,2010-10-17 23:00,ZGOW 172300Z AUTO 01002KT 6SM 22/17 A2994 RMK T02200170 IEM_DS3505
ZGOW,2010-10-18 00:00,ZGOW 180000Z AUTO 11002KT 6SM 25/20 A2994 RMK SLP146 T02480201 52012 IEM_DS3505
ZGOW,2010-10-18 01:00,ZGOW 180100Z AUTO 34004KT 4SM 25/17 A2997 RMK T02500170 IEM_DS3505
ZGOW,2010-10-18 02:00,ZGOW 180200Z AUTO 04008KT 7SM 27/14 A2997 RMK T02700140 IEM_DS3505
ZGOW,2010-10-18 03:00,ZGOW 180300Z AUTO 07006KT 7SM 27/13 A2994 RMK SLP136 T02740130 57010 IEM_DS3505
ZGOW,2010-10-18 04:00,ZGOW 180400Z AUTO 07008KT 6SM 28/17 A2991 RMK T02800170 IEM_DS3505
ZGOW,2010-10-18 05:00,ZGOW 180500Z AUTO 10006KT 6SM 28/16 A2988 RMK T02800160 IEM_DS3505
ZGOW,2010-10-18 06:00,ZGOW 180600Z AUTO 07006KT 7SM 28/14 A2985 RMK SLP108 T02840135 57027 IEM_DS3505
ZGOW,2010-10-18 07:00,ZGOW 180700Z AUTO 09006KT 7SM 29/17 A2985 RMK T02900170 IEM_DS3505
ZGOW,2010-10-18 08:00,ZGOW 180800Z AUTO 09004KT 5SM 27/18 A2985 RMK T02700180 IEM_DS3505
ZGOW,2010-10-18 09:00,ZGOW 180900Z AUTO 09004KT 6SM 27/17 A2985 RMK SLP108 T02720171 57001 IEM_DS3505
ZGOW,2010-10-18 10:00,ZGOW 181000Z AUTO 12004KT 2 1/2SM 26/20 A2985 RMK T02600200 IEM_DS3505
ZGOW,2010-10-18 11:00,ZGOW 181100Z AUTO 10006KT 3SM 26/19 A2988 RMK T02600190 IEM_DS3505
ZGOW,2010-10-18 12:00,ZGOW 181200Z AUTO 07008KT 6SM 27/17 A2991 RMK SLP126 T02660171 52018 IEM_DS3505
ZGOW,2010-10-18 13:00,ZGOW 181300Z AUTO 06006KT 4SM 26/19 A2988 RMK T02600190 IEM_DS3505
ZGOW,2010-10-18 14:00,ZGOW 181400Z AUTO 09006KT 5SM 26/19 A2988 RMK T02600190 IEM_DS3505
ZGOW,2010-10-18 15:00,ZGOW 181500Z AUTO 07004KT 6SM 26/18 A2988 RMK SLP119 T02610177 57006 IEM_DS3505
ZGOW,2010-10-18 16:00,ZGOW 181600Z AUTO 08008KT 6SM 25/19 A2988 RMK T02500190 IEM_DS3505
ZGOW,2010-10-18 17:00,ZGOW 181700Z AUTO 08004KT 5SM 25/20 A2985 RMK T02500200 IEM_DS3505
ZGOW,2010-10-18 18:00,ZGOW 181800Z AUTO 02002KT 6SM 26/17 A2983 RMK SLP101 T02550169 57018 IEM_DS3505
ZGOW,2010-10-18 19:00,ZGOW 181900Z AUTO 04006KT 4SM 25/18 A2983 RMK T02500180 IEM_DS3505
ZGOW,2010-10-18 20:00,ZGOW 182000Z AUTO 04006KT 5SM 25/17 A2983 RMK T02500170 IEM_DS3505
ZGOW,2010-10-18 21:00,ZGOW 182100Z AUTO 07002KT 6SM 25/18 A2983 RMK SLP100 T02500177 57001 IEM_DS3505
ZGOW,2010-10-18 22:00,ZGOW 182200Z AUTO 36004KT 4SM 25/17 A2985 RMK T02500170 IEM_DS3505
ZGOW,2010-10-18 23:00,ZGOW 182300Z AUTO 35004KT 4SM 25/18 A2985 RMK T02500180 IEM_DS3505
ZGOW,2010-10-19 00:00,ZGOW 190000Z AUTO 07002KT 7SM 25/15 A2988 RMK SLP121 T02500151 52020 IEM_DS3505
ZGOW,2010-10-19 01:00,ZGOW 190100Z AUTO 32002KT 4SM 25/17 A2988 RMK T02500170 IEM_DS3505
ZGOW,2010-10-19 02:00,ZGOW 190200Z AUTO 36002KT 4SM 26/18 A2988 RMK T02600180 IEM_DS3505
ZGOW,2010-10-19 03:00,ZGOW 190300Z AUTO 27002KT 7SM 26/15 A2988 RMK SLP116 T02590147 57005 IEM_DS3505
ZGOW,2010-10-19 04:00,ZGOW 190400Z AUTO 35006KT 4SM 27/18 A2983 RMK T02700180 IEM_DS3505
ZGOW,2010-10-19 05:00,ZGOW 190500Z AUTO 03010KT 5SM 28/18 A2983 RMK T02800180 IEM_DS3505
ZGOW,2010-10-19 06:00,ZGOW 190600Z AUTO 04004KT 7SM 28/16 A2980 RMK SLP085 T02760156 57030 IEM_DS3505
ZGOW,2010-10-19 07:00,ZGOW 190700Z AUTO 01006KT 7SM 27/18 A2977 RMK T02700180 IEM_DS3505
ZGOW,2010-10-19 08:00,ZGOW 190800Z AUTO 03008KT 7SM 28/18 A2977 RMK T02800180 IEM_DS3505
ZGOW,2010-10-19 09:00,ZGOW 190900Z AUTO 07002KT 7SM 27/17 A2977 RMK SLP081 T02710173 57004 IEM_DS3505
ZGOW,2010-10-19 10:00,ZGOW 191000Z AUTO 34002KT 4SM 26/19 A2980 RMK T02600190 IEM_DS3505
ZGOW,2010-10-19 11:00,ZGOW 191100Z AUTO 08002KT 3SM 26/19 A2980 RMK T02600190 IEM_DS3505
ZGOW,2010-10-19 12:00,ZGOW 191200Z AUTO 07004KT 6SM 27/19 A2983 RMK SLP098 T02670193 52016 IEM_DS3505
ZGOW,2010-10-19 13:00,ZGOW 191300Z AUTO 04004KT 4SM 25/20 A2983 RMK T02500200 IEM_DS3505
ZGOW,2010-10-19 14:00,ZGOW 191400Z AUTO 05004KT 4SM 25/20 A2983 RMK T02500200 IEM_DS3505
ZGOW,2010-10-19 15:00,ZGOW 191500Z AUTO 07002KT 6SM 26/19 A2980 RMK SLP092 T02620191 57005 IEM_DS3505
ZGOW,2010-10-19 16:00,ZGOW 191600Z AUTO 04006KT 4SM 26/20 A2980 RMK T02600200 IEM_DS3505
ZGOW,2010-10-19 17:00,ZGOW 191700Z AUTO 03004KT 7SM 26/19 A2977 RMK T02600190 IEM_DS3505
ZGOW,2010-10-19 18:00,ZGOW 191800Z AUTO 07002KT 6SM 26/19 A2977 RMK SLP073 T02600189 57019 IEM_DS3505
ZGOW,2010-10-19 19:00,ZGOW 191900Z AUTO 07002KT 4SM 25/20 A2974 RMK T02500200 IEM_DS3505
ZGOW,2010-10-19 20:00,ZGOW 192000Z AUTO 01004KT 7SM 25/19 A2974 RMK T02500190 IEM_DS3505
ZGOW,2010-10-19 21:00,ZGOW 192100Z AUTO 07002KT 6SM 26/19 A2974 RMK SLP066 T02600187 57007 IEM_DS3505
ZGOW,2010-10-19 22:00,ZGOW 192200Z AUTO 05004KT 7SM 25/19 A2977 RMK T02500190 IEM_DS3505
ZGOW,2010-10-19 23:00,ZGOW 192300Z AUTO 02006KT 7SM 26/19 A2977 RMK T02600190 IEM_DS3505
ZGOW,2010-10-20 00:00,ZGOW 200000Z AUTO 07004KT 7SM 27/19 A2977 RMK SLP082 T02720188 52016 IEM_DS3505
ZGOW,2010-10-20 01:00,ZGOW 200100Z AUTO 04010KT 7SM 28/20 A2980 RMK T02800200 IEM_DS3505
ZGOW,2010-10-20 02:00,ZGOW 200200Z AUTO 04012KT 7SM 27/19 A2980 RMK T02700190 IEM_DS3505
ZGOW,2010-10-20 03:00,ZGOW 200300Z AUTO 04004KT 8SM 28/18 A2977 RMK SLP079 T02810185 57003 IEM_DS3505
ZGOW,2010-10-20 04:00,ZGOW 200400Z AUTO 03012KT 7SM 28/19 A2974 RMK T02800190 IEM_DS3505
ZGOW,2010-10-20 05:00,ZGOW 200500Z AUTO 03012KT 7SM 28/19 A2971 RMK T02800190 IEM_DS3505
ZGOW,2010-10-20 06:00,ZGOW 200600Z AUTO 04004KT 7SM 29/18 A2968 RMK SLP051 T02870182 57028 IEM_DS3505
ZGOW,2010-10-20 07:00,ZGOW 200700Z AUTO 04014KT 7SM 28/20 A2968 RMK T02800200 IEM_DS3505
ZGOW,2010-10-20 08:00,ZGOW 200800Z AUTO 06008KT 7SM 28/20 A2968 RMK T02800200 IEM_DS3505
ZGOW,2010-10-20 09:00,ZGOW 200900Z AUTO 02002KT 7SM 28/18 A2968 RMK SLP048 T02800184 57003 IEM_DS3505
ZGOW,2010-10-20 10:00,ZGOW 201000Z AUTO 04010KT 7SM 27/19 A2968 RMK T02700190 IEM_DS3505
ZGOW,2010-10-20 11:00,ZGOW 201100Z AUTO 07008KT 7SM 27/20 A2974 RMK T02700200 IEM_DS3505
ZGOW,2010-10-20 12:00,ZGOW 201200Z AUTO 09006KT 7SM 27/20 A2977 RMK SLP081 T02660197 52033 IEM_DS3505
ZGOW,2010-10-20 13:00,ZGOW 201300Z AUTO 06017KT 6SM 25/20 A2974 RMK T02500200 IEM_DS3505
ZGOW,2010-10-20 14:00,ZGOW 201400Z AUTO 06006KT 7SM 24/20 A2974 RMK T02400200 IEM_DS3505
ZGOW,2010-10-20 15:00,ZGOW 201500Z AUTO 07004KT 7SM 25/20 A2971 RMK SLP058 T02510204 57023 IEM_DS3505
ZGOW,2010-10-20 16:00,ZGOW 201600Z AUTO 03004KT 7SM 25/20 A2971 RMK T02500200 IEM_DS3505
ZGOW,2010-10-20 17:00,ZGOW 201700Z AUTO 06006KT 7SM 25/19 A2971 RMK T02500190 IEM_DS3505
ZGOW,2010-10-20 18:00,ZGOW 201800Z AUTO 07004KT 9SM 26/18 A2968 RMK 60000 SLP046 T02570181 57012 IEM_DS3505
ZGOW,2010-10-20 19:00,ZGOW 201900Z AUTO 02008KT 7SM 25/18 A2965 RMK T02500180 IEM_DS3505
ZGOW,2010-10-20 20:00,ZGOW 202000Z AUTO 06008KT 7SM 23/20 A2968 RMK T02300200 IEM_DS3505
ZGOW,2010-10-20 21:00,ZGOW 202100Z AUTO 07004KT 7SM 23/20 RMK 70009 SLP049 T02270202 52003 IEM_DS3505
ZGOW,2010-10-20 22:00,ZGOW 202200Z AUTO 02012KT 7SM 22/20 A2968 RMK T02200200 IEM_DS3505
ZGOW,2010-10-20 23:00,ZGOW 202300Z AUTO 02010KT 7SM 22/20 A2971 RMK T02200200 IEM_DS3505
ZGOW,2010-10-21 00:00,ZGOW 210000Z AUTO 07004KT 6SM 22/20 A2974 RMK 60039 70041 SLP067 T02210202 52017 IEM_DS3505
ZGOW,2010-10-21 01:00,ZGOW 210100Z AUTO 03012KT 7SM 23/20 A2971 RMK T02300200 IEM_DS3505
ZGOW,2010-10-21 02:00,ZGOW 210200Z AUTO 02012KT 7SM 25/20 A2971 RMK T02500200 IEM_DS3505
ZGOW,2010-10-21 03:00,ZGOW 210300Z AUTO 07004G21KT 11SM 25/20 A2968 RMK SLP050 T02490197 57016 IEM_DS3505
ZGOW,2010-10-21 04:00,ZGOW 210400Z AUTO 03012KT 7SM 26/19 A2968 RMK T02600190 IEM_DS3505
ZGOW,2010-10-21 05:00,ZGOW 210500Z AUTO 02012KT 7SM 26/19 A2962 RMK T02600190 IEM_DS3505
ZGOW,2010-10-21 06:00,ZGOW 210600Z AUTO 07004KT 12SM 26/19 A2962 RMK 60002 SLP033 T02570194 57017 IEM_DS3505
ZGOW,2010-10-21 07:00,ZGOW 210700Z AUTO 02014KT 7SM 26/19 A2962 RMK T02600190 IEM_DS3505
ZGOW,2010-10-21 08:00,ZGOW 210800Z AUTO 03008KT 7SM 24/20 A2962 RMK T02400200 IEM_DS3505
ZGOW,2010-10-21 09:00,ZGOW 210900Z AUTO 07002KT 9SM 24/20 A2962 RMK SLP032 T02370200 57002 IEM_DS3505
ZGOW,2010-10-21 10:00,ZGOW 211000Z AUTO 01008KT 7SM 23/19 A2962 RMK T02300190 IEM_DS3505
ZGOW,2010-10-21 11:00,ZGOW 211100Z AUTO 01006KT 7SM 23/19 A2965 RMK T02300190 IEM_DS3505
ZGOW,2010-10-21 12:00,ZGOW 211200Z AUTO 07004KT 8SM 22/20 A2968 RMK 60008 SLP049 T02250195 52017 IEM_DS3505
ZGOW,2010-10-21 13:00,ZGOW 211300Z AUTO 04014KT 7SM 22/19 A2968 RMK T02200190 IEM_DS3505
ZGOW,2010-10-21 14:00,ZGOW 211400Z AUTO 04012KT 7SM 22/19 A2968 RMK T02200190 IEM_DS3505
ZGOW,2010-10-21 15:00,ZGOW 211500Z AUTO 07002KT 7SM 22/19 RMK SLP046 T02180190 57003 IEM_DS3505
ZGOW,2010-10-21 16:00,ZGOW 211600Z AUTO 04008KT 7SM 22/18 A2965 RMK T02200180 IEM_DS3505
ZGOW,2010-10-21 17:00,ZGOW 211700Z AUTO 03012G21KT 7SM 22/18 A2965 RMK T02200180 IEM_DS3505
ZGOW,2010-10-21 18:00,ZGOW 211800Z AUTO 07004KT 7SM 23/17 A2962 RMK 60004 SLP030 T02260171 57015 IEM_DS3505
ZGOW,2010-10-21 19:00,ZGOW 211900Z AUTO 02016KT 7SM 23/16 A2959 RMK T02300160 IEM_DS3505
ZGOW,2010-10-21 20:00,ZGOW 212000Z AUTO 01010KT 7SM 22/16 A2962 RMK T02200160 IEM_DS3505
ZGOW,2010-10-21 21:00,ZGOW 212100Z AUTO 04004KT 9SM 21/17 A2962 RMK 70046 SLP034 T02140172 52003 IEM_DS3505
ZGOW,2010-10-21 22:00,ZGOW 212200Z AUTO 01012KT 6SM 21/16 A2965 RMK T02100160 IEM_DS3505
ZGOW,2010-10-21 23:00,ZGOW 212300Z AUTO 34008KT 7SM 20/17 A2965 RMK T02000170 IEM_DS3505
ZGOW,2010-10-22 00:00,ZGOW 220000Z AUTO 09002KT 9SM 20/18 A2965 RMK 60008 70022 SLP046 T02010175 52012 IEM_DS3505
ZGOW,2010-10-22 01:00,ZGOW 220100Z AUTO 34008KT 7SM 21/17 A2965 RMK T02100170 IEM_DS3505
ZGOW,2010-10-22 02:00,ZGOW 220200Z AUTO 33010KT 7SM 21/17 A2965 RMK T02100170 IEM_DS3505
ZGOW,2010-10-22 03:00,ZGOW 220300Z AUTO 16004KT 9SM 21/17 A2962 RMK SLP026 T02080172 57020 IEM_DS3505
ZGOW,2010-10-22 04:00,ZGOW 220400Z AUTO 33008KT 5SM 20/18 A2962 RMK T02000180 IEM_DS3505
ZGOW,2010-10-22 05:00,ZGOW 220500Z AUTO 33012KT 7SM 21/18 A2959 RMK T02100180 IEM_DS3505
ZGOW,2010-10-22 06:00,ZGOW 220600Z AUTO 25004G23KT 11SM 22/17 A2956 RMK 60004 SLP011 T02160174 57015 IEM_DS3505
ZGOW,2010-10-22 07:00,ZGOW 220700Z AUTO 32012KT 7SM 21/18 A2956 RMK T02100180 IEM_DS3505
ZGOW,2010-10-22 08:00,ZGOW 220800Z AUTO 33010G21KT 7SM 21/18 A2956 RMK T02100180 IEM_DS3505
ZGOW,2010-10-22 09:00,ZGOW 220900Z AUTO 20002G25KT 9SM 22/18 A2956 RMK SLP013 T02200176 52002 IEM_DS3505
ZGOW,2010-10-22 10:00,ZGOW 221000Z AUTO 32012G21KT 5SM 21/18 A2956 RMK T02100180 IEM_DS3505
ZGOW,2010-10-22 11:00,ZGOW 221100Z AUTO 32012KT 7SM 21/18 A2956 RMK T02100180 IEM_DS3505
ZGOW,2010-10-22 12:00,ZGOW 221200Z AUTO 22004KT 9SM 22/18 A2956 RMK 60003 SLP016 T02160180 52003 IEM_DS3505
ZGOW,2010-10-22 13:00,ZGOW 221300Z AUTO 32012KT 7SM 21/18 A2959 RMK T02100180 IEM_DS3505
ZGOW,2010-10-22 14:00,ZGOW 221400Z AUTO 32014KT 7SM 21/17 A2956 RMK T02100170 IEM_DS3505
ZGOW,2010-10-22 15:00,ZGOW 221500Z AUTO 32004KT 9SM 22/17 A2956 RMK SLP011 T02190173 57005 IEM_DS3505
ZGOW,2010-10-22 16:00,ZGOW 221600Z AUTO 32014KT 7SM 22/17 A2953 RMK T02200170 IEM_DS3505
ZGOW,2010-10-22 17:00,ZGOW 221700Z AUTO 32016KT 7SM 22/17 A2953 RMK T02200170 IEM_DS3505
ZGOW,2010-10-22 18:00,ZGOW 221800Z AUTO 29004KT 9SM 22/17 A2950 RMK 60000 SLP994 T02200174 57017 IEM_DS3505
ZGOW,2010-10-22 19:00,ZGOW 221900Z AUTO 32014KT 7SM 21/17 A2950 RMK T02100170 IEM_DS3505
ZGOW,2010-10-22 20:00,ZGOW 222000Z AUTO 31016KT 7SM 21/17 A2947 RMK T02100170 IEM_DS3505
ZGOW,2010-10-22 21:00,ZGOW 222100Z AUTO 29008KT 12SM 22/18 A2947 RMK 70016 SLP987 T02170175 57007 IEM_DS3505
ZGOW,2010-10-22 22:00,ZGOW 222200Z AUTO 31017KT 7SM 21/17 A2950 RMK T02100170 IEM_DS3505
ZGOW,2010-10-22 23:00,ZGOW 222300Z AUTO 31019G33KT 7SM 21/17 A2950 RMK T02100170 IEM_DS3505
ZGOW,2010-10-23 00:00,ZGOW 230000Z AUTO 29014G25KT 12SM 21/18 A2953 RMK 60003 70009 SLP004 T02070177 52017 IEM_DS3505
ZGOW,2010-10-23 01:00,ZGOW 230100Z AUTO 29016G25KT 7SM 21/18 A2953 RMK T02100180 IEM_DS3505
ZGOW,2010-10-23 02:00,ZGOW 230200Z AUTO 29016G27KT 7SM 21/18 A2953 RMK T02100180 IEM_DS3505
ZGOW,2010-10-23 03:00,ZGOW 230300Z AUTO 27012G23KT 12SM 21/18 A2953 RMK SLP010 T02060182 52006 IEM_DS3505
ZGOW,2010-10-23 04:00,ZGOW 230400Z AUTO 27019G29KT 7SM 21/19 A2953 RMK T02100190 IEM_DS3505
ZGOW,2010-10-23 05:00,ZGOW 230500Z AUTO 28016G25KT 7SM 21/18 A2953 RMK T02100180 IEM_DS3505
ZGOW,2010-10-23 06:00,ZGOW 230600Z AUTO 27010G23KT 9SM 21/18 A2950 RMK 60008 SLP999 T02090183 57011 IEM_DS3505
ZGOW,2010-10-23 07:00,ZGOW 230700Z AUTO 28014KT 7SM 22/18 A2950 RMK T02200180 IEM_DS3505
ZGOW,2010-10-23 08:00,ZGOW 230800Z AUTO 28014G23KT 7SM 22/18 A2953 RMK T02200180 IEM_DS3505
ZGOW,2010-10-23 09:00,ZGOW 230900Z AUTO 27008G21KT 7SM 21/19 A2953 RMK SLP010 T02140186 52011 IEM_DS3505
ZGOW,2010-10-23 10:00,ZGOW 231000Z AUTO 27010KT 7SM 22/18 A2956 RMK T02200180 IEM_DS3505
ZGOW,2010-10-23 11:00,ZGOW 231100Z AUTO 27008KT 7SM 22/18 A2959 RMK T02200180 IEM_DS3505
ZGOW,2010-10-23 12:00,ZGOW 231200Z AUTO 29010KT 9SM 22/18 A2962 RMK 60001 SLP034 T02170179 52024 IEM_DS3505
ZGOW,2010-10-23 13:00,ZGOW 231300Z AUTO 29006KT 7SM 22/18 A2965 RMK T02200180 IEM_DS3505
ZGOW,2010-10-23 14:00,ZGOW 231400Z AUTO 27004KT 7SM 22/18 A2965 RMK T02200180 IEM_DS3505
ZGOW,2010-10-23 15:00,ZGOW 231500Z AUTO 27004KT 9SM 21/18 A2968 RMK SLP051 T02120178 52017 IEM_DS3505
ZGOW,2010-10-23 16:00,ZGOW 231600Z AUTO 26006KT 7SM 21/17 A2968 RMK T02100170 IEM_DS3505
ZGOW,2010-10-23 17:00,ZGOW 231700Z AUTO 25006KT 7SM 21/17 A2968 RMK T02100170 IEM_DS3505
ZGOW,2010-10-23 18:00,ZGOW 231800Z AUTO 27004KT 7SM 21/18 A2968 RMK 60000 SLP051 T02070181 54000 IEM_DS3505
ZGOW,2010-10-23 19:00,ZGOW 231900Z AUTO 26004KT 7SM 21/17 A2968 RMK T02100170 IEM_DS3505
ZGOW,2010-10-23 20:00,ZGOW 232000Z AUTO 26002KT 7SM 21/17 A2968 RMK T02100170 IEM_DS3505
ZGOW,2010-10-23 21:00,ZGOW 232100Z AUTO 27004KT 9SM 20/18 A2971 RMK 70011 SLP063 T02040176 52012 IEM_DS3505
ZGOW,2010-10-23 22:00,ZGOW 232200Z AUTO 27002KT 7SM 21/18 A2974 RMK T02100180 IEM_DS3505
ZGOW,2010-10-23 23:00,ZGOW 232300Z AUTO 27002KT 7SM 21/18 A2977 RMK T02100180 IEM_DS3505
ZGOW,2010-10-24 00:00,ZGOW 240000Z AUTO 27006KT 11SM 22/18 A2977 RMK 70010 SLP083 T02160178 52020 IEM_DS3505
ZGOW,2010-10-24 01:00,ZGOW 240100Z AUTO 29006KT 7SM 23/18 A2980 RMK T02300180 IEM_DS3505
ZGOW,2010-10-24 02:00,ZGOW 240200Z AUTO 30006KT 7SM 24/18 A2980 RMK T02400180 IEM_DS3505
ZGOW,2010-10-24 03:00,ZGOW 240300Z AUTO 25008KT 16SM 25/19 A2977 RMK SLP080 T02470189 57003 IEM_DS3505
ZGOW,2010-10-24 04:00,ZGOW 240400Z AUTO 28008KT 6SM 27/19 A2974 RMK T02700190 IEM_DS3505
ZGOW,2010-10-24 05:00,ZGOW 240500Z AUTO 32008KT 6SM 27/19 A2971 RMK T02700190 IEM_DS3505
ZGOW,2010-10-24 06:00,ZGOW 240600Z AUTO 27008KT 16SM 28/19 A2971 RMK SLP060 T02760191 57020 IEM_DS3505
ZGOW,2010-10-24 07:00,ZGOW 240700Z AUTO 32010KT 6SM 28/18 A2971 RMK T02800180 IEM_DS3505
ZGOW,2010-10-24 08:00,ZGOW 240800Z AUTO 31010KT 6SM 27/18 A2971 RMK T02700180 IEM_DS3505
ZGOW,2010-10-24 09:00,ZGOW 240900Z AUTO 29004KT 12SM 26/18 A2971 RMK SLP062 T02570181 52002 IEM_DS3505
ZGOW,2010-10-24 10:00,ZGOW 241000Z AUTO 32006KT 7SM 24/18 A2974 RMK T02400180 IEM_DS3505
ZGOW,2010-10-24 11:00,ZGOW 241100Z AUTO 32006KT 7SM 24/18 A2977 RMK T02400180 IEM_DS3505
ZGOW,2010-10-24 12:00,ZGOW 241200Z AUTO 32002KT 10SM 23/18 A2977 RMK SLP082 T02340183 52020 IEM_DS3505
ZGOW,2010-10-24 13:00,ZGOW 241300Z AUTO 30004KT 4SM 23/18 A2980 RMK T02300180 IEM_DS3505
ZGOW,2010-10-24 14:00,ZGOW 241400Z AUTO 30006KT 4SM 23/18 A2983 RMK T02300180 IEM_DS3505
ZGOW,2010-10-24 15:00,ZGOW 241500Z AUTO 25004KT 9SM 23/20 A2983 RMK SLP100 T02290197 52018 IEM_DS3505
ZGOW,2010-10-24 16:00,ZGOW 241600Z AUTO 34006KT 4SM 23/18 A2983 RMK T02300180 IEM_DS3505
ZGOW,2010-10-24 17:00,ZGOW 241700Z AUTO 34002KT 4SM 23/18 A2983 RMK T02300180 IEM_DS3505
ZGOW,2010-10-24 18:00,ZGOW 241800Z AUTO 29004KT 9SM 22/19 A2983 RMK SLP098 T02250191 57002 IEM_DS3505
ZGOW,2010-10-24 19:00,ZGOW 241900Z AUTO 35004KT 4SM 22/18 A2983 RMK T02200180 IEM_DS3505
ZGOW,2010-10-24 20:00,ZGOW 242000Z AUTO 33004KT 4SM 23/18 A2980 RMK T02300180 IEM_DS3505
ZGOW,2010-10-24 21:00,ZGOW 242100Z AUTO 29002KT 9SM 23/18 A2983 RMK SLP097 T02260182 57001 IEM_DS3505
ZGOW,2010-10-24 22:00,ZGOW 242200Z AUTO 34006KT 7SM 22/18 A2983 RMK T02200180 IEM_DS3505
ZGOW,2010-10-24 23:00,ZGOW 242300Z AUTO 34006KT 7SM 22/19 A2985 RMK T02200190 IEM_DS3505
ZGOW,2010-10-25 00:00,ZGOW 250000Z AUTO 11002KT 7SM 23/19 A2988 RMK SLP117 T02260186 52020 IEM_DS3505
ZGOW,2010-10-25 01:00,ZGOW 250100Z AUTO 34006KT 7SM 23/19 A2988 RMK T02300190 IEM_DS3505
ZGOW,2010-10-25 02:00,ZGOW 250200Z AUTO 32006KT 7SM 23/19 A2988 RMK T02300190 IEM_DS3505
ZGOW,2010-10-25 03:00,ZGOW 250300Z AUTO 29002KT 7SM 25/19 A2988 RMK SLP115 T02480190 57002 IEM_DS3505
ZGOW,2010-10-25 04:00,ZGOW 250400Z AUTO 32004KT 7SM 26/20 A2985 RMK T02600200 IEM_DS3505
ZGOW,2010-10-25 05:00,ZGOW 250500Z AUTO 35002KT 7SM 27/20 A2983 RMK T02700200 IEM_DS3505
ZGOW,2010-10-25 06:00,ZGOW 250600Z AUTO 07002KT 9SM 27/20 A2983 RMK SLP097 T02730201 57018 IEM_DS3505
ZGOW,2010-10-25 07:00,ZGOW 250700Z AUTO 13004KT 4SM 26/20 A2983 RMK T02600200 IEM_DS3505
ZGOW,2010-10-25 08:00,ZGOW 250800Z AUTO 10004KT 4SM 25/20 A2983 RMK T02500200 IEM_DS3505
ZGOW,2010-10-25 09:00,ZGOW 250900Z AUTO 09002KT 3SM 23/21 A2985 RMK SLP108 T02330214 52011 IEM_DS3505
ZGOW,2010-10-25 10:00,ZGOW 251000Z AUTO 35004KT 1 1/2SM 23/21 A2985 RMK T02300210 IEM_DS3505
ZGOW,2010-10-25 11:00,ZGOW 251100Z AUTO 06012KT 1 1/2SM 22/21 A2988 RMK T02200210 IEM_DS3505
ZGOW,2010-10-25 12:00,ZGOW 251200Z AUTO 07008KT 2SM 23/22 A2991 RMK 60039 SLP130 T02260216 52022 IEM_DS3505
ZGOW,2010-10-25 13:00,ZGOW 251300Z AUTO 04008KT 1 1/4SM 22/21 A2994 RMK T02200210 IEM_DS3505
ZGOW,2010-10-25 14:00,ZGOW 251400Z AUTO 06016KT 4SM 22/20 A2994 RMK T02200200 IEM_DS3505
ZGOW,2010-10-25 15:00,ZGOW 251500Z AUTO 07008KT 3SM 22/20 RMK SLP146 T02150201 52016 IEM_DS3505
ZGOW,2010-10-25 16:00,ZGOW 251600Z AUTO 06014KT 7SM 22/19 A2997 RMK T02200190 IEM_DS3505
ZGOW,2010-10-25 17:00,ZGOW 251700Z AUTO 06010KT 7SM 22/19 A2997 RMK T02200190 IEM_DS3505
ZGOW,2010-10-25 18:00,ZGOW 251800Z AUTO 07004KT 7SM 22/19 A2997 RMK 60012 SLP147 T02180190 52001 IEM_DS3505
ZGOW,2010-10-25 19:00,ZGOW 251900Z AUTO 06008KT 7SM 21/18 A2997 RMK T02100180 IEM_DS3505
ZGOW,2010-10-25 20:00,ZGOW 252000Z AUTO 07012KT 7SM 21/17 A2997 RMK T02100170 IEM_DS3505
ZGOW,2010-10-25 21:00,ZGOW 252100Z AUTO 07008KT 9SM 21/16 A2997 RMK 70049 SLP154 T02130165 52007 IEM_DS3505
ZGOW,2010-10-25 22:00,ZGOW 252200Z AUTO 05012KT 7SM 21/16 A3000 RMK T02100160 IEM_DS3505
ZGOW,2010-10-25 23:00,ZGOW 252300Z AUTO 06010KT 7SM 21/16 A3003 RMK T02100160 IEM_DS3505
ZGOW,2010-10-26 00:00,ZGOW 260000Z AUTO 07008KT 9SM 22/16 A3003 RMK 70049 SLP173 T02160157 52019 IEM_DS3505
ZGOW,2010-10-26 01:00,ZGOW 260100Z AUTO 07014KT 6SM 23/15 A3006 RMK T02300150 IEM_DS3505
ZGOW,2010-10-26 02:00,ZGOW 260200Z AUTO 08016KT 6SM 23/16 A3006 RMK T02300160 IEM_DS3505
ZGOW,2010-10-26 03:00,ZGOW 260300Z AUTO 07008KT 8SM 23/14 A3006 RMK SLP176 T02290137 52003 IEM_DS3505
ZGOW,2010-10-26 04:00,ZGOW 260400Z AUTO 09016KT 7SM 23/15 A3003 RMK T02300150 IEM_DS3505
ZGOW,2010-10-26 05:00,ZGOW 260500Z AUTO 08017KT 7SM 24/16 A3000 RMK T02400160 IEM_DS3505
ZGOW,2010-10-26 06:00,ZGOW 260600Z AUTO 09010G27KT 8SM 23/13 A3000 RMK SLP158 T02280133 57018 IEM_DS3505
ZGOW,2010-10-26 07:00,ZGOW 260700Z AUTO 08016G25KT 7SM 23/16 A3000 RMK T02300160 IEM_DS3505
ZGOW,2010-10-26 08:00,ZGOW 260800Z AUTO 08017G27KT 7SM 22/14 A3000 RMK T02200140 IEM_DS3505
ZGOW,2010-10-26 09:00,ZGOW 260900Z AUTO 07008G25KT 7SM 22/12 A3003 RMK SLP164 T02210124 52006 IEM_DS3505
ZGOW,2010-10-26 10:00,ZGOW 261000Z AUTO 07014KT 7SM 21/15 A3003 RMK T02100150 IEM_DS3505
ZGOW,2010-10-26 11:00,ZGOW 261100Z AUTO 06016KT 7SM 21/14 A3006 RMK T02100140 IEM_DS3505
ZGOW,2010-10-26 12:00,ZGOW 261200Z AUTO 07008KT 8SM 21/13 A3006 RMK SLP185 T02080128 52021 IEM_DS3505
ZGOW,2010-10-26 13:00,ZGOW 261300Z AUTO 06014KT 7SM 20/13 A3009 RMK T02000130 IEM_DS3505
ZGOW,2010-10-26 14:00,ZGOW 261400Z AUTO 05012KT 7SM 20/12 A3012 RMK T02000120 IEM_DS3505
ZGOW,2010-10-26 15:00,ZGOW 261500Z AUTO 09006KT 9SM 20/11 A3012 RMK SLP201 T02000110 52016 IEM_DS3505
ZGOW,2010-10-26 16:00,ZGOW 261600Z AUTO 04010KT 7SM 19/12 A3012 RMK T01900120 IEM_DS3505
ZGOW,2010-10-26 17:00,ZGOW 261700Z AUTO 02008KT 7SM 18/12 A3012 RMK T01800120 IEM_DS3505
ZGOW,2010-10-26 18:00,ZGOW 261800Z AUTO 07002KT 9SM 18/15 A3012 RMK SLP195 T01850150 57006 IEM_DS3505
ZGOW,2010-10-26 20:00,ZGOW 262000Z AUTO 01008KT 6SM 18/13 A3009 RMK T01800130 IEM_DS3505
ZGOW,2010-10-26 21:00,ZGOW 262100Z AUTO 07002KT 7SM 18/14 A3012 RMK SLP196 T01780135 52001 IEM_DS3505
ZGOW,2010-10-26 22:00,ZGOW 262200Z AUTO 01006KT 6SM 17/12 A3012 RMK T01700120 IEM_DS3505
ZGOW,2010-10-26 23:00,ZGOW 262300Z AUTO 02010KT 6SM 18/13 A3015 RMK T01800130 IEM_DS3505
ZGOW,2010-10-27 00:00,ZGOW 270000Z AUTO 07006KT 9SM 19/13 A3015 RMK SLP213 T01930128 52017 IEM_DS3505
ZGOW,2010-10-27 01:00,ZGOW 270100Z AUTO 03012KT 7SM 20/12 A3015 RMK T02000120 IEM_DS3505
ZGOW,2010-10-27 02:00,ZGOW 270200Z AUTO 03010KT 7SM 20/11 A3015 RMK T02000110 IEM_DS3505
ZGOW,2010-10-27 03:00,ZGOW 270300Z AUTO 18004KT 10SM 21/09 A3012 RMK SLP201 T02060089 57012 IEM_DS3505
ZGOW,2010-10-27 04:00,ZGOW 270400Z AUTO 03010KT 7SM 23/10 A3009 RMK T02300100 IEM_DS3505
ZGOW,2010-10-27 06:00,ZGOW 270600Z AUTO 14002KT 11SM 22/09 RMK SLP170 T02240089 57031 IEM_DS3505
ZGOW,2010-10-27 09:00,ZGOW 270900Z AUTO 25002KT 9SM 22/09 RMK SLP174 T02170089 52004 IEM_DS3505
ZGOW,2010-10-27 10:00,ZGOW 271000Z AUTO 10004KT 5SM 20/12 A3006 RMK T02000120 IEM_DS3505
ZGOW,2010-10-27 11:00,ZGOW 271100Z AUTO 28002KT 7SM 20/12 A3006 RMK T02000120 IEM_DS3505
ZGOW,2010-10-27 12:00,ZGOW 271200Z AUTO 14002KT 9SM 20/08 A3009 RMK SLP193 T02050085 52019 IEM_DS3505
ZGOW,2010-10-27 13:00,ZGOW 271300Z AUTO 04010KT 7SM 20/09 A3012 RMK T02000090 IEM_DS3505
ZGOW,2010-10-27 14:00,ZGOW 271400Z AUTO 33006KT 6SM 18/11 A3012 RMK T01800110 IEM_DS3505
ZGOW,2010-10-27 15:00,ZGOW 271500Z AUTO 02002KT 9SM 18/07 A3012 RMK SLP200 T01760068 52007 IEM_DS3505
ZGOW,2010-10-27 16:00,ZGOW 271600Z AUTO 34004KT 6SM 17/10 A3012 RMK T01700100 IEM_DS3505
ZGOW,2010-10-27 17:00,ZGOW 271700Z AUTO 34004KT 6SM 16/09 A3009 RMK T01600090 IEM_DS3505
ZGOW,2010-10-27 18:00,ZGOW 271800Z AUTO 18002KT 10SM 16/07 RMK SLP193 T01580068 57007 IEM_DS3505
ZGOW,2010-10-27 20:00,ZGOW 272000Z AUTO 33008KT 6SM 15/08 A3009 RMK T01500080 IEM_DS3505
ZGOW,2010-10-27 21:00,ZGOW 272100Z AUTO 16004KT 10SM 14/06 A3009 RMK SLP192 T01450061 57001 IEM_DS3505
ZGOW,2010-10-27 22:00,ZGOW 272200Z AUTO 34004KT 6SM 14/08 A3012 RMK T01400080 IEM_DS3505
ZGOW,2010-10-27 23:00,ZGOW 272300Z AUTO 31008KT 6SM 14/08 A3012 RMK T01400080 IEM_DS3505
ZGOW,2010-10-28 00:00,ZGOW 280000Z AUTO 27004KT 16SM 16/06 A3015 RMK SLP206 T01570056 52014 IEM_DS3505
ZGOW,2010-10-28 01:00,ZGOW 280100Z AUTO 33008KT 6SM 17/08 A3015 RMK T01700080 IEM_DS3505
ZGOW,2010-10-28 02:00,ZGOW 280200Z AUTO 34008KT 6SM 18/07 A3015 RMK T01800070 IEM_DS3505
ZGOW,2010-10-28 03:00,ZGOW 280300Z AUTO 04002KT 16SM 20/04 A3012 RMK SLP198 T02050045 57008 IEM_DS3505
ZGOW,2010-10-28 04:00,ZGOW 280400Z AUTO 02006KT 6SM 22/08 A3009 RMK T02200080 IEM_DS3505
ZGOW,2010-10-28 05:00,ZGOW 280500Z AUTO 05008KT 6SM 22/07 A3006 RMK T02200070 IEM_DS3505
ZGOW,2010-10-28 06:00,ZGOW 280600Z AUTO 29004KT 16SM 23/05 A3003 RMK SLP168 T02280053 57030 IEM_DS3505
ZGOW,2010-10-28 07:00,ZGOW 280700Z AUTO 08006KT 6SM 22/09 A3003 RMK T02200090 IEM_DS3505
ZGOW,2010-10-28 08:00,ZGOW 280800Z AUTO 10006KT 6SM 21/10 A3003 RMK T02100100 IEM_DS3505
ZGOW,2010-10-28 09:00,ZGOW 280900Z AUTO 14004KT 12SM 21/08 A3006 RMK SLP174 T02110077 52006 IEM_DS3505
ZGOW,2010-10-28 10:00,ZGOW 281000Z AUTO 08002KT 6SM 19/12 A3006 RMK T01900120 IEM_DS3505
ZGOW,2010-10-28 11:00,ZGOW 281100Z AUTO 10002KT 6SM 19/12 A3009 RMK T01900120 IEM_DS3505
ZGOW,2010-10-28 12:00,ZGOW 281200Z AUTO 07004KT 11SM 20/10 A3012 RMK SLP200 T01970104 52026 IEM_DS3505
ZGOW,2010-10-28 13:00,ZGOW 281300Z AUTO 05006KT 4SM 18/11 A3015 RMK T01800110 IEM_DS3505
ZGOW,2010-10-28 14:00,ZGOW 281400Z AUTO 05008KT 3SM 17/10 A3015 RMK T01700100 IEM_DS3505
ZGOW,2010-10-28 15:00,ZGOW 281500Z AUTO 07002KT 9SM 18/09 A3015 RMK SLP206 T01780089 52006 IEM_DS3505
ZGOW,2010-10-28 16:00,ZGOW 281600Z AUTO 04006KT 4SM 15/10 A3015 RMK T01500100 IEM_DS3505
ZGOW,2010-10-28 17:00,ZGOW 281700Z AUTO 03006KT 4SM 16/10 A3015 RMK T01600100 IEM_DS3505
ZGOW,2010-10-28 18:00,ZGOW 281800Z AUTO 11002KT 8SM 16/08 A3015 RMK SLP205 T01650082 57001 IEM_DS3505
ZGOW,2010-10-28 20:00,ZGOW 282000Z AUTO 35004KT 4SM 15/10 A3015 RMK T01500100 IEM_DS3505
ZGOW,2010-10-28 21:00,ZGOW 282100Z AUTO 00000KT 8SM 15/07 A3015 RMK SLP212 T01490070 52007 IEM_DS3505
ZGOW,2010-10-28 22:00,ZGOW 282200Z AUTO 34006KT 4SM 15/08 A3018 RMK T01500080 IEM_DS3505
ZGOW,2010-10-28 23:00,ZGOW 282300Z AUTO 35006KT 5SM 15/08 A3018 RMK T01500080 IEM_DS3505
ZGOW,2010-10-29 00:00,ZGOW 290000Z AUTO 16002KT 9SM 16/06 A3021 RMK SLP224 T01630064 52012 IEM_DS3505
ZGOW,2010-10-29 01:00,ZGOW 290100Z AUTO 35006KT 6SM 17/08 A3021 RMK T01700080 IEM_DS3505
ZGOW,2010-10-29 02:00,ZGOW 290200Z AUTO 35006KT 6SM 19/08 A3021 RMK T01900080 IEM_DS3505
ZGOW,2010-10-29 03:00,ZGOW 290300Z AUTO 07004KT 9SM 21/05 A3018 RMK SLP218 T02120047 57006 IEM_DS3505
ZGOW,2010-10-29 04:00,ZGOW 290400Z AUTO 07010KT 6SM 21/09 A3015 RMK T02100090 IEM_DS3505
ZGOW,2010-10-29 05:00,ZGOW 290500Z AUTO 08008KT 6SM 21/09 A3012 RMK T02100090 IEM_DS3505
ZGOW,2010-10-29 06:00,ZGOW 290600Z AUTO 07006KT 9SM 22/06 A3012 RMK SLP193 T02180065 57025 IEM_DS3505
ZGOW,2010-10-29 07:00,ZGOW 290700Z AUTO 08008KT 6SM 22/09 A3009 RMK T02200090 IEM_DS3505
ZGOW,2010-10-29 08:00,ZGOW 290800Z AUTO 08006KT 6SM 21/09 A3009 RMK T02100090 IEM_DS3505
ZGOW,2010-10-29 09:00,ZGOW 290900Z AUTO 07004KT 9SM 21/07 A3012 RMK SLP197 T02090068 52004 IEM_DS3505
ZGOW,2010-10-29 10:00,ZGOW 291000Z AUTO 08008KT 4SM 19/12 A3012 RMK T01900120 IEM_DS3505
ZGOW,2010-10-29 11:00,ZGOW 291100Z AUTO 08008KT 5SM 19/13 A3015 RMK T01900130 IEM_DS3505
ZGOW,2010-10-29 12:00,ZGOW 291200Z AUTO 07002KT 9SM 19/11 A3018 RMK SLP219 T01920113 52022 IEM_DS3505
ZGOW,2010-10-29 13:00,ZGOW 291300Z AUTO 06006KT 4SM 17/13 A3021 RMK T01700130 IEM_DS3505
ZGOW,2010-10-29 14:00,ZGOW 291400Z AUTO 06008KT 5SM 18/13 A3021 RMK T01800130 IEM_DS3505
ZGOW,2010-10-29 15:00,ZGOW 291500Z AUTO 00000KT 6SM 18/12 A3021 RMK SLP230 T01770122 52011 IEM_DS3505
ZGOW,2010-10-29 16:00,ZGOW 291600Z AUTO 36004KT 5SM 17/12 A3021 RMK T01700120 IEM_DS3505
ZGOW,2010-10-29 17:00,ZGOW 291700Z AUTO 33002KT 4SM 17/12 A3021 RMK T01700120 IEM_DS3505
ZGOW,2010-10-29 18:00,ZGOW 291800Z AUTO 18002KT 7SM 16/09 RMK SLP225 T01620087 57005 IEM_DS3505
ZGOW,2010-10-29 20:00,ZGOW 292000Z AUTO 33004KT 4SM 15/09 A3018 RMK T01500090 IEM_DS3505
ZGOW,2010-10-29 21:00,ZGOW 292100Z AUTO 02002KT 7SM 15/06 A3018 RMK SLP216 T01490059 57009 IEM_DS3505
ZGOW,2010-10-29 22:00,ZGOW 292200Z AUTO 34006KT 4SM 15/08 A3018 RMK T01500080 IEM_DS3505
ZGOW,2010-10-29 23:00,ZGOW 292300Z AUTO 34004KT 5SM 15/08 A3021 RMK T01500080 IEM_DS3505
ZGOW,2010-10-30 00:00,ZGOW 300000Z AUTO 02004KT 7SM 16/05 A3021 RMK SLP231 T01640051 52015 IEM_DS3505
ZGOW,2010-10-30 01:00,ZGOW 300100Z AUTO 33006KT 6SM 18/08 A3024 RMK T01800080 IEM_DS3505
ZGOW,2010-10-30 02:00,ZGOW 300200Z AUTO 35008KT 6SM 20/08 A3024 RMK T02000080 IEM_DS3505
ZGOW,2010-10-30 03:00,ZGOW 300300Z AUTO 07004KT 9SM 22/05 A3021 RMK SLP228 T02210047 57003 IEM_DS3505
ZGOW,2010-10-30 04:00,ZGOW 300400Z AUTO 03012KT 6SM 23/07 A3018 RMK T02300070 IEM_DS3505
ZGOW,2010-10-30 05:00,ZGOW 300500Z AUTO 07010KT 6SM 24/08 A3015 RMK T02400080 IEM_DS3505
ZGOW,2010-10-30 06:00,ZGOW 300600Z AUTO 09008KT 7SM 23/06 A3015 RMK SLP206 T02330057 57022 IEM_DS3505
ZGOW,2010-10-30 07:00,ZGOW 300700Z AUTO 10006KT 6SM 23/09 A3012 RMK T02300090 IEM_DS3505
ZGOW,2010-10-30 08:00,ZGOW 300800Z AUTO 08006KT 6SM 22/10 A3012 RMK T02200100 IEM_DS3505
ZGOW,2010-10-30 09:00,ZGOW 300900Z AUTO 00000KT 6SM 22/10 A3015 RMK SLP203 T02160095 57003 IEM_DS3505
ZGOW,2010-10-30 10:00,ZGOW 301000Z AUTO 08006KT 4SM 19/12 A3015 RMK T01900120 IEM_DS3505
ZGOW,2010-10-30 11:00,ZGOW 301100Z AUTO 08004KT 4SM 18/13 A3018 RMK T01800130 IEM_DS3505
ZGOW,2010-10-30 12:00,ZGOW 301200Z AUTO 07006KT 6SM 20/12 A3018 RMK SLP223 T01990122 52020 IEM_DS3505
ZGOW,2010-10-30 13:00,ZGOW 301300Z AUTO 07006KT 4SM 18/14 A3021 RMK T01800140 IEM_DS3505
ZGOW,2010-10-30 14:00,ZGOW 301400Z AUTO 08006KT 4SM 18/13 A3021 RMK T01800130 IEM_DS3505
ZGOW,2010-10-30 15:00,ZGOW 301500Z AUTO 07006KT 7SM 19/10 A3021 RMK SLP228 T01880104 52005 IEM_DS3505
ZGOW,2010-10-30 16:00,ZGOW 301600Z AUTO 04006KT 4SM 16/12 A3021 RMK T01600120 IEM_DS3505
ZGOW,2010-10-30 17:00,ZGOW 301700Z AUTO 04004KT 4SM 15/12 A3018 RMK T01500120 IEM_DS3505
ZGOW,2010-10-30 18:00,ZGOW 301800Z AUTO 00000KT 6SM 16/13 A3018 RMK SLP221 T01650130 57007 IEM_DS3505
ZGOW,2010-10-30 20:00,ZGOW 302000Z AUTO 34004KT 3SM 15/12 A3018 RMK T01500120 IEM_DS3505
ZGOW,2010-10-30 21:00,ZGOW 302100Z AUTO 32002KT 6SM 15/11 A3018 RMK SLP217 T01500110 57004 IEM_DS3505
ZGOW,2010-10-30 22:00,ZGOW 302200Z AUTO 28002KT 2 1/2SM 14/10 A3018 RMK T01400100 IEM_DS3505
ZGOW,2010-10-30 23:00,ZGOW 302300Z AUTO 33002KT 2 1/2SM 15/10 A3021 RMK T01500100 IEM_DS3505
ZGOW,2010-10-31 00:00,ZGOW 310000Z AUTO 14002KT 7SM 17/08 A3024 RMK SLP236 T01690083 52019 IEM_DS3505
ZGOW,2010-10-31 01:00,ZGOW 310100Z AUTO 08002KT 3SM 18/10 A3024 RMK T01800100 IEM_DS3505
ZGOW,2010-10-31 02:00,ZGOW 310200Z AUTO 05006KT 4SM 20/10 A3021 RMK T02000100 IEM_DS3505
ZGOW,2010-10-31 03:00,ZGOW 310300Z AUTO 09006KT 7SM 21/06 A3018 RMK SLP223 T02120059 57013 IEM_DS3505
ZGOW,2010-10-31 04:00,ZGOW 310400Z AUTO 06008KT 5SM 21/10 A3018 RMK T02100100 IEM_DS3505
ZGOW,2010-10-31 05:00,ZGOW 310500Z AUTO 08008KT 5SM 23/11 A3012 RMK T02300110 IEM_DS3505
ZGOW,2010-10-31 06:00,ZGOW 310600Z AUTO 07004KT 6SM 23/07 A3009 RMK SLP192 T02270069 57031 IEM_DS3505
ZGOW,2010-10-31 07:00,ZGOW 310700Z AUTO 09008KT 6SM 23/11 A3009 RMK T02300110 IEM_DS3505
ZGOW,2010-10-31 08:00,ZGOW 310800Z AUTO 08008KT 6SM 22/10 A3009 RMK T02200100 IEM_DS3505
ZGOW,2010-10-31 09:00,ZGOW 310900Z AUTO 09004KT 7SM 21/10 A3009 RMK SLP190 T02130099 57002 IEM_DS3505
ZGOW,2010-10-31 10:00,ZGOW 311000Z AUTO 08008KT 6SM 19/10 A3009 RMK T01900100 IEM_DS3505
ZGOW,2010-10-31 11:00,ZGOW 311100Z AUTO 08008KT 6SM 18/13 A3012 RMK T01800130 IEM_DS3505
ZGOW,2010-10-31 12:00,ZGOW 311200Z AUTO 07004KT 6SM 19/11 A3015 RMK SLP204 T01930113 52014 IEM_DS3505
ZGOW,2010-10-31 13:00,ZGOW 311300Z AUTO 08008KT 6SM 18/14 A3015 RMK T01800140 IEM_DS3505
ZGOW,2010-10-31 14:00,ZGOW 311400Z AUTO 09008KT 6SM 18/13 A3015 RMK T01800130 IEM_DS3505
ZGOW,2010-10-31 15:00,ZGOW 311500Z AUTO 07008KT 6SM 18/11 A3015 RMK SLP203 T01830109 57001 IEM_DS3505
ZGOW,2010-10-31 16:00,ZGOW 311600Z AUTO 07010KT 6SM 17/12 A3015 RMK T01700120 IEM_DS3505
ZGOW,2010-10-31 17:00,ZGOW 311700Z AUTO 07004KT 4SM 15/12 A3015 RMK T01500120 IEM_DS3505
ZGOW,2010-10-31 18:00,ZGOW 311800Z AUTO 00000KT 6SM 16/11 A3012 RMK SLP202 T01580114 57001 IEM_DS3505
ZGOW,2010-10-31 19:00,ZGOW 311900Z AUTO 00000KT 4SM 14/11 A3012 RMK T01400110 IEM_DS3505
ZGOW,2010-10-31 20:00,ZGOW 312000Z AUTO 00000KT 4SM 15/11 A3012 RMK T01500110 IEM_DS3505
ZGOW,2010-10-31 21:00,ZGOW 312100Z AUTO 00000KT 6SM 14/11 A3012 RMK SLP203 T01390114 52001 IEM_DS3505
ZGOW,2010-10-31 22:00,ZGOW 312200Z AUTO 32004KT 2 1/2SM 14/12 A3015 RMK T01400120 IEM_DS3505
ZGOW,2010-10-31 23:00,ZGOW 312300Z AUTO 33002KT 2 1/2SM 14/12 A3018 RMK T01400120 IEM_DS3505
ZGOW,2010-11-01 00:00,ZGOW 010000Z AUTO 04002KT 5SM 17/12 A3018 RMK SLP222 T01690120 52019 IEM_DS3505
ZGOW,2010-11-01 01:00,ZGOW 010100Z AUTO 03010KT 6SM 19/08 A3018 RMK T01900080 IEM_DS3505
ZGOW,2010-11-01 02:00,ZGOW 010200Z AUTO 06008KT 6SM 21/10 A3018 RMK T02100100 IEM_DS3505
ZGOW,2010-11-01 03:00,ZGOW 010300Z AUTO 07006KT 7SM 22/07 A3015 RMK SLP211 T02170072 57011 IEM_DS3505
ZGOW,2010-11-01 04:00,ZGOW 010400Z AUTO 09006KT 6SM 22/11 A3012 RMK T02200110 IEM_DS3505
ZGOW,2010-11-01 05:00,ZGOW 010500Z AUTO 09010KT 4SM 23/12 A3009 RMK T02300120 IEM_DS3505
ZGOW,2010-11-01 06:00,ZGOW 010600Z AUTO 09006KT 7SM 23/08 A3006 RMK SLP179 T02300083 57032 IEM_DS3505
ZGOW,2010-11-01 07:00,ZGOW 010700Z AUTO 08010KT 4SM 23/10 A3003 RMK T02300100 IEM_DS3505
ZGOW,2010-11-01 08:00,ZGOW 010800Z AUTO 08012KT 4SM 22/11 A3003 RMK T02200110 IEM_DS3505
ZGOW,2010-11-01 09:00,ZGOW 010900Z AUTO 09004KT 7SM 22/09 A3003 RMK SLP167 T02170086 57012 IEM_DS3505
ZGOW,2010-11-01 10:00,ZGOW 011000Z AUTO 08010KT 4SM 20/13 A3003 RMK T02000130 IEM_DS3505
ZGOW,2010-11-01 11:00,ZGOW 011100Z AUTO 08008KT 4SM 19/13 A3006 RMK T01900130 IEM_DS3505
ZGOW,2010-11-01 12:00,ZGOW 011200Z AUTO 09006G21KT 7SM 20/11 A3009 RMK SLP190 T01970112 52023 IEM_DS3505
ZGOW,2010-11-01 13:00,ZGOW 011300Z AUTO 08014G23KT 4SM 19/12 A3012 RMK T01900120 IEM_DS3505
ZGOW,2010-11-01 14:00,ZGOW 011400Z AUTO 08012KT 4SM 19/11 A3012 RMK T01900110 IEM_DS3505
ZGOW,2010-11-01 15:00,ZGOW 011500Z AUTO 07010KT 7SM 19/08 A3012 RMK SLP201 T01910081 52011 IEM_DS3505
ZGOW,2010-11-01 16:00,ZGOW 011600Z AUTO 07012KT 4SM 18/09 A3012 RMK T01800090 IEM_DS3505
ZGOW,2010-11-01 17:00,ZGOW 011700Z AUTO 04008KT 4SM 16/10 A3012 RMK T01600100 IEM_DS3505
ZGOW,2010-11-01 18:00,ZGOW 011800Z AUTO 09002KT 6SM 17/08 RMK SLP199 T01680085 57002 IEM_DS3505
ZGOW,2010-11-01 19:00,ZGOW 011900Z AUTO 25002KT 2SM 16/10 A3009 RMK T01600100 IEM_DS3505
ZGOW,2010-11-01 21:00,ZGOW 012100Z AUTO 04002KT 6SM 16/09 A3012 RMK SLP199 T01610093 54000 IEM_DS3505
ZGOW,2010-11-01 22:00,ZGOW 012200Z AUTO 31004KT 3SM 15/11 A3015 RMK T01500110 IEM_DS3505
ZGOW,2010-11-01 23:00,ZGOW 012300Z AUTO 32004KT 2 1/2SM 16/12 A3015 RMK T01600120 IEM_DS3505
ZGOW,2010-11-02 00:00,ZGOW 020000Z AUTO 34002KT 6SM 18/10 A3015 RMK SLP212 T01770098 52013 IEM_DS3505
ZGOW,2010-11-02 01:00,ZGOW 020100Z AUTO 01006KT 3SM 21/11 A3015 RMK T02100110 IEM_DS3505
ZGOW,2010-11-02 02:00,ZGOW 020200Z AUTO 04014KT 4SM 23/12 A3015 RMK T02300120 IEM_DS3505
ZGOW,2010-11-02 03:00,ZGOW 020300Z AUTO 09004KT 6SM 24/09 A3015 RMK SLP206 T02360092 57006 IEM_DS3505
ZGOW,2010-11-02 04:00,ZGOW 020400Z AUTO 06014KT 6SM 25/12 A3012 RMK T02500120 IEM_DS3505
ZGOW,2010-11-02 05:00,ZGOW 020500Z AUTO 04012KT 6SM 25/12 A3006 RMK T02500120 IEM_DS3505
ZGOW,2010-11-02 06:00,ZGOW 020600Z AUTO 07008KT 6SM 25/10 A3006 RMK SLP175 T02480099 57031 IEM_DS3505
ZGOW,2010-11-02 07:00,ZGOW 020700Z AUTO 08012KT 4SM 24/14 A3003 RMK T02400140 IEM_DS3505
ZGOW,2010-11-02 08:00,ZGOW 020800Z AUTO 09012KT 4SM 23/13 A3006 RMK T02300130 IEM_DS3505
ZGOW,2010-11-02 09:00,ZGOW 020900Z AUTO 09004KT 6SM 23/11 A3009 RMK SLP184 T02270111 52009 IEM_DS3505
ZGOW,2010-11-02 10:00,ZGOW 021000Z AUTO 08010KT 3SM 21/14 A3009 RMK T02100140 IEM_DS3505
ZGOW,2010-11-02 11:00,ZGOW 021100Z AUTO 08008KT 4SM 20/15 A3012 RMK T02000150 IEM_DS3505
ZGOW,2010-11-02 12:00,ZGOW 021200Z AUTO 07008KT 7SM 21/12 A3015 RMK SLP208 T02100124 52024 IEM_DS3505
ZGOW,2010-11-02 13:00,ZGOW 021300Z AUTO 08010KT 5SM 20/15 A3015 RMK T02000150 IEM_DS3505
ZGOW,2010-11-02 14:00,ZGOW 021400Z AUTO 08014KT 5SM 20/14 A3015 RMK T02000140 IEM_DS3505
ZGOW,2010-11-02 15:00,ZGOW 021500Z AUTO 07004KT 7SM 20/12 A3018 RMK SLP213 T01980121 52005 IEM_DS3505
ZGOW,2010-11-02 16:00,ZGOW 021600Z AUTO 04006KT 4SM 17/13 A3015 RMK T01700130 IEM_DS3505
ZGOW,2010-11-02 17:00,ZGOW 021700Z AUTO 04006KT 3SM 17/13 A3015 RMK T01700130 IEM_DS3505
ZGOW,2010-11-02 18:00,ZGOW 021800Z AUTO 09002KT 7SM 18/13 A3015 RMK SLP204 T01750126 57009 IEM_DS3505
ZGOW,2010-11-02 19:00,ZGOW 021900Z AUTO 03006KT 2SM 16/12 A3012 RMK T01600120 IEM_DS3505
ZGOW,2010-11-02 20:00,ZGOW 022000Z AUTO 04004KT 3SM 16/12 A3015 RMK T01600120 IEM_DS3505
ZGOW,2010-11-02 21:00,ZGOW 022100Z AUTO 07002KT 6SM 17/12 A3012 RMK SLP205 T01680121 52001 IEM_DS3505
ZGOW,2010-11-02 22:00,ZGOW 022200Z AUTO 01002KT 2 1/2SM 16/12 A3015 RMK T01600120 IEM_DS3505
ZGOW,2010-11-02 23:00,ZGOW 022300Z AUTO 00000KT 2SM 16/12 A3018 RMK T01600120 IEM_DS3505
ZGOW,2010-11-03 00:00,ZGOW 030000Z AUTO 07002KT 6SM 18/14 A3018 RMK SLP221 T01840137 52016 IEM_DS3505
ZGOW,2010-11-03 01:00,ZGOW 030100Z AUTO 02008KT 4SM 21/12 A3018 RMK T02100120 IEM_DS3505
ZGOW,2010-11-03 02:00,ZGOW 030200Z AUTO 02014KT 5SM 23/12 A3018 RMK T02300120 IEM_DS3505
ZGOW,2010-11-03 03:00,ZGOW 030300Z AUTO 07004KT 7SM 24/10 A3015 RMK SLP213 T02410097 57008 IEM_DS3505
ZGOW,2010-11-03 04:00,ZGOW 030400Z AUTO 06010KT 5SM 24/12 A3015 RMK T02400120 IEM_DS3505
ZGOW,2010-11-03 05:00,ZGOW 030500Z AUTO 08010KT 5SM 24/14 A3012 RMK T02400140 IEM_DS3505
ZGOW,2010-11-03 06:00,ZGOW 030600Z AUTO 07006KT 7SM 24/11 A3009 RMK SLP190 T02410114 57023 IEM_DS3505
ZGOW,2010-11-03 07:00,ZGOW 030700Z AUTO 09012KT 4SM 23/14 A3009 RMK T02300140 IEM_DS3505
ZGOW,2010-11-03 08:00,ZGOW 030800Z AUTO 10012KT 4SM 23/14 A3009 RMK T02300140 IEM_DS3505
ZGOW,2010-11-03 09:00,ZGOW 030900Z AUTO 09006KT 7SM 22/14 A3009 RMK SLP192 T02190135 52002 IEM_DS3505
ZGOW,2010-11-03 10:00,ZGOW 031000Z AUTO 08012KT 4SM 21/14 A3012 RMK T02100140 IEM_DS3505
ZGOW,2010-11-03 11:00,ZGOW 031100Z AUTO 08012KT 5SM 20/14 A3012 RMK T02000140 IEM_DS3505
ZGOW,2010-11-03 12:00,ZGOW 031200Z AUTO 07010KT 7SM 21/13 A3015 RMK SLP209 T02090131 52017 IEM_DS3505
ZGOW,2010-11-03 13:00,ZGOW 031300Z AUTO 07014KT 5SM 20/15 A3015 RMK T02000150 IEM_DS3505
ZGOW,2010-11-03 14:00,ZGOW 031400Z AUTO 08014KT 5SM 20/13 A3015 RMK T02000130 IEM_DS3505
ZGOW,2010-11-03 15:00,ZGOW 031500Z AUTO 09006KT 6SM 20/11 A3015 RMK SLP214 T02010111 52005 IEM_DS3505
ZGOW,2010-11-03 16:00,ZGOW 031600Z AUTO 07010KT 5SM 20/12 A3015 RMK T02000120 IEM_DS3505
ZGOW,2010-11-03 17:00,ZGOW 031700Z AUTO 04006KT 4SM 19/14 A3015 RMK T01900140 IEM_DS3505
ZGOW,2010-11-03 18:00,ZGOW 031800Z AUTO 07004KT 7SM 19/11 A3012 RMK SLP204 T01940112 57010 IEM_DS3505
ZGOW,2010-11-03 19:00,ZGOW 031900Z AUTO 04004KT 2SM 19/13 A3015 RMK T01900130 IEM_DS3505
ZGOW,2010-11-03 20:00,ZGOW 032000Z AUTO 04008KT 4SM 19/12 A3012 RMK T01900120 IEM_DS3505
ZGOW,2010-11-03 21:00,ZGOW 032100Z AUTO 14002KT 7SM 19/12 A3015 RMK SLP203 T01910117 57001 IEM_DS3505
ZGOW,2010-11-03 22:00,ZGOW 032200Z AUTO 04006KT 3SM 18/13 A3015 RMK T01800130 IEM_DS3505
ZGOW,2010-11-03 23:00,ZGOW 032300Z AUTO 03006KT 2 1/2SM 19/13 A3015 RMK T01900130 IEM_DS3505
ZGOW,2010-11-04 00:00,ZGOW 040000Z AUTO 20002KT 6SM 19/12 A3018 RMK SLP216 T01920125 52013 IEM_DS3505
ZGOW,2010-11-04 01:00,ZGOW 040100Z AUTO 35002KT 2 1/2SM 20/13 A3018 RMK T02000130 IEM_DS3505
ZGOW,2010-11-04 02:00,ZGOW 040200Z AUTO 35004KT 2 1/2SM 20/13 A3018 RMK T02000130 IEM_DS3505
ZGOW,2010-11-04 03:00,ZGOW 040300Z AUTO 07002KT 6SM 21/10 A3015 RMK SLP210 T02070105 57006 IEM_DS3505
ZGOW,2010-11-04 04:00,ZGOW 040400Z AUTO 06008KT 4SM 21/12 A3012 RMK T02100120 IEM_DS3505
ZGOW,2010-11-04 05:00,ZGOW 040500Z AUTO 07004KT 4SM 21/13 A3012 RMK T02100130 IEM_DS3505
ZGOW,2010-11-04 06:00,ZGOW 040600Z AUTO 11002KT 6SM 21/11 A3009 RMK SLP193 T02140114 57017 IEM_DS3505
ZGOW,2010-11-04 07:00,ZGOW 040700Z AUTO 09004KT 4SM 20/15 A3009 RMK T02000150 IEM_DS3505
ZGOW,2010-11-04 08:00,ZGOW 040800Z AUTO 06006KT 4SM 20/16 A3009 RMK T02000160 IEM_DS3505
ZGOW,2010-11-04 09:00,ZGOW 040900Z AUTO 09004KT 5SM 20/16 A3012 RMK SLP195 T01990158 52002 IEM_DS3505
ZGOW,2010-11-04 10:00,ZGOW 041000Z AUTO 09006KT 2 1/2SM 18/16 A3012 RMK T01800160 IEM_DS3505
ZGOW,2010-11-04 11:00,ZGOW 041100Z AUTO 08006KT 3SM 18/16 A3012 RMK T01800160 IEM_DS3505
ZGOW,2010-11-04 12:00,ZGOW 041200Z AUTO 07004KT 5SM 19/16 A3015 RMK 60004 SLP208 T01870159 52013 IEM_DS3505
ZGOW,2010-11-04 13:00,ZGOW 041300Z AUTO 06010KT 4SM 18/16 A3015 RMK T01800160 IEM_DS3505
ZGOW,2010-11-04 14:00,ZGOW 041400Z AUTO 08012KT 7SM 18/15 A3015 RMK T01800150 IEM_DS3505
ZGOW,2010-11-04 15:00,ZGOW 041500Z AUTO 09004KT 5SM 19/15 A3015 RMK SLP206 T01890146 57002 IEM_DS3505
ZGOW,2010-11-04 16:00,ZGOW 041600Z AUTO 08006KT 4SM 18/16 A3012 RMK T01800160 IEM_DS3505
ZGOW,2010-11-04 17:00,ZGOW 041700Z AUTO 06008KT 4SM 17/14 A3012 RMK T01700140 IEM_DS3505
ZGOW,2010-11-04 18:00,ZGOW 041800Z AUTO 07006KT 4SM 17/14 RMK 60002 SLP195 T01710142 57011 IEM_DS3505
ZGOW,2010-11-04 19:00,ZGOW 041900Z AUTO 06002KT 1SM 16/15 A3009 RMK T01600150 IEM_DS3505
ZGOW,2010-11-04 20:00,ZGOW 042000Z AUTO 07006KT 3SM 16/15 A3009 RMK T01600150 IEM_DS3505
ZGOW,2010-11-04 21:00,ZGOW 042100Z AUTO 07002KT 4SM 16/15 A3009 RMK 70020 SLP187 T01620152 57008 IEM_DS3505
ZGOW,2010-11-04 22:00,ZGOW 042200Z AUTO 36004KT 3SM 17/15 A3009 RMK T01700150 IEM_DS3505
ZGOW,2010-11-05 00:00,ZGOW 050000Z AUTO 00000KT 1 1/4SM 17/16 A3012 RMK 60035 70042 SLP197 T01720164 52010 IEM_DS3505
ZGOW,2010-11-05 01:00,ZGOW 050100Z AUTO 29004KT 1SM 18/17 A3015 RMK T01800170 IEM_DS3505
ZGOW,2010-11-05 02:00,ZGOW 050200Z AUTO 28002KT 1SM 19/17 A3012 RMK T01900170 IEM_DS3505
ZGOW,2010-11-05 03:00,ZGOW 050300Z AUTO 00000KT 1 1/4SM 19/18 A3009 RMK SLP193 T01940177 57004 IEM_DS3505
ZGOW,2010-11-05 04:00,ZGOW 050400Z AUTO 00000KT 1 1/4SM 20/18 A3009 RMK T02000180 IEM_DS3505
ZGOW,2010-11-05 05:00,ZGOW 050500Z AUTO 08004KT 2 1/2SM 21/16 A3006 RMK T02100160 IEM_DS3505
ZGOW,2010-11-05 06:00,ZGOW 050600Z AUTO 00000KT 2SM 20/18 A3003 RMK 60008 SLP171 T01980179 57022 IEM_DS3505
ZGOW,2010-11-05 07:00,ZGOW 050700Z AUTO 05002KT 2 1/2SM 20/17 A3003 RMK T02000170 IEM_DS3505
ZGOW,2010-11-05 08:00,ZGOW 050800Z AUTO 03002KT 2 1/2SM 20/17 A3003 RMK T02000170 IEM_DS3505
ZGOW,2010-11-05 09:00,ZGOW 050900Z AUTO 00000KT 3SM 19/17 A3003 RMK SLP173 T01920173 52002 IEM_DS3505
ZGOW,2010-11-05 10:00,ZGOW 051000Z AUTO 11002KT 1 1/2SM 19/17 A3006 RMK T01900170 IEM_DS3505
ZGOW,2010-11-05 11:00,ZGOW 051100Z AUTO 03002KT 1 1/2SM 19/17 A3006 RMK T01900170 IEM_DS3505
ZGOW,2010-11-05 12:00,ZGOW 051200Z AUTO 00000KT 2 1/2SM 19/18 A3009 RMK 60031 SLP191 T01860176 52018 IEM_DS3505
ZGOW,2010-11-05 13:00,ZGOW 051300Z AUTO 10002KT 1SM 19/17 A3009 RMK T01900170 IEM_DS3505
ZGOW,2010-11-05 14:00,ZGOW 051400Z AUTO 04002KT 1SM 19/18 A3009 RMK T01900180 IEM_DS3505
ZGOW,2010-11-05 15:00,ZGOW 051500Z AUTO 00000KT 1 1/4SM 19/18 A3009 RMK SLP188 T01870179 57003 IEM_DS3505
ZGOW,2010-11-05 16:00,ZGOW 051600Z AUTO 05004KT 1SM 19/18 A3006 RMK T01900180 IEM_DS3505
ZGOW,2010-11-05 17:00,ZGOW 051700Z AUTO 02004KT 1SM 19/18 A3006 RMK T01900180 IEM_DS3505
ZGOW,2010-11-05 18:00,ZGOW 051800Z AUTO 09002KT 1 1/4SM 19/18 A3003 RMK 60016 SLP173 T01860179 57015 IEM_DS3505
ZGOW,2010-11-05 19:00,ZGOW 051900Z AUTO 34002KT 1SM 19/17 A3003 RMK T01900170 IEM_DS3505
ZGOW,2010-11-05 20:00,ZGOW 052000Z AUTO 01004KT 2 1/2SM 18/17 A3003 RMK T01800170 IEM_DS3505
ZGOW,2010-11-05 21:00,ZGOW 052100Z AUTO 16002KT 3SM 18/17 A3003 RMK 70083 SLP169 T01800172 57004 IEM_DS3505
ZGOW,2010-11-05 22:00,ZGOW 052200Z AUTO 35004KT 2 1/2SM 18/17 A3003 RMK T01800170 IEM_DS3505
ZGOW,2010-11-05 23:00,ZGOW 052300Z AUTO 34004KT 2 1/2SM 18/16 A3006 RMK T01800160 IEM_DS3505
ZGOW,2010-11-06 00:00,ZGOW 060000Z AUTO 00000KT 3SM 18/17 A3006 RMK 60016 70070 SLP182 T01770169 52013 IEM_DS3505
ZGOW,2010-11-06 01:00,ZGOW 060100Z AUTO 33002KT 4SM 18/17 A3009 RMK T01800170 IEM_DS3505
ZGOW,2010-11-06 02:00,ZGOW 060200Z AUTO 06002KT 4SM 19/17 A3009 RMK T01900170 IEM_DS3505
ZGOW,2010-11-06 03:00,ZGOW 060300Z AUTO 00000KT 5SM 19/17 A3006 RMK SLP180 T01910171 57002 IEM_DS3505
ZGOW,2010-11-06 04:00,ZGOW 060400Z AUTO 31004KT 5SM 20/17 A3003 RMK T02000170 IEM_DS3505
ZGOW,2010-11-06 05:00,ZGOW 060500Z AUTO 33002KT 4SM 20/17 A3000 RMK T02000170 IEM_DS3505
ZGOW,2010-11-06 06:00,ZGOW 060600Z AUTO 04002KT 6SM 21/17 A2997 RMK 60000 SLP154 T02080166 57026 IEM_DS3505
ZGOW,2010-11-06 07:00,ZGOW 060700Z AUTO 36004KT 5SM 21/17 A2997 RMK T02100170 IEM_DS3505
ZGOW,2010-11-06 08:00,ZGOW 060800Z AUTO 04002KT 4SM 21/18 A2997 RMK T02100180 IEM_DS3505
ZGOW,2010-11-06 09:00,ZGOW 060900Z AUTO 00000KT 7SM 21/18 A2997 RMK SLP152 T02110177 57002 IEM_DS3505
ZGOW,2010-11-06 10:00,ZGOW 061000Z AUTO 09002KT 5SM 20/18 A2997 RMK T02000180 IEM_DS3505
ZGOW,2010-11-06 11:00,ZGOW 061100Z AUTO 02002KT 5SM 20/18 A3000 RMK T02000180 IEM_DS3505
ZGOW,2010-11-06 12:00,ZGOW 061200Z AUTO 07002KT 7SM 20/18 A3000 RMK 60000 SLP162 T02040180 52010 IEM_DS3505
ZGOW,2010-11-06 13:00,ZGOW 061300Z AUTO 07004KT 7SM 20/18 A3003 RMK T02000180 IEM_DS3505
ZGOW,2010-11-06 14:00,ZGOW 061400Z AUTO 08002KT 7SM 20/18 A3003 RMK T02000180 IEM_DS3505
ZGOW,2010-11-06 15:00,ZGOW 061500Z AUTO 00000KT 7SM 20/18 A3003 RMK SLP168 T01990177 52006 IEM_DS3505
ZGOW,2010-11-06 16:00,ZGOW 061600Z AUTO 35002KT 7SM 19/18 A3003 RMK T01900180 IEM_DS3505
ZGOW,2010-11-06 17:00,ZGOW 061700Z AUTO 35002KT 2 1/2SM 19/18 A3000 RMK T01900180 IEM_DS3505
ZGOW,2010-11-06 18:00,ZGOW 061800Z AUTO 00000KT 6SM 19/18 RMK 60000 SLP157 T01920179 57011 IEM_DS3505
ZGOW,2010-11-06 20:00,ZGOW 062000Z AUTO 30002KT 2SM 19/18 A2997 RMK T01900180 IEM_DS3505
ZGOW,2010-11-06 21:00,ZGOW 062100Z AUTO 00000KT 2 1/2SM 18/17 A2997 RMK 70011 SLP155 T01800172 57002 IEM_DS3505
ZGOW,2010-11-06 22:00,ZGOW 062200Z AUTO 31004KT 1 1/2SM 19/18 A3000 RMK T01900180 IEM_DS3505
ZGOW,2010-11-06 23:00,ZGOW 062300Z AUTO 32002KT 1 1/2SM 19/18 A3000 RMK T01900180 IEM_DS3505
ZGOW,2010-11-07 00:00,ZGOW 070000Z AUTO 00000KT 3SM 20/19 A3003 RMK 70002 SLP167 T01960189 52012 IEM_DS3505
ZGOW,2010-11-07 01:00,ZGOW 070100Z AUTO 32006KT 4SM 22/18 A3003 RMK T02200180 IEM_DS3505
ZGOW,2010-11-07 02:00,ZGOW 070200Z AUTO 34006KT 6SM 24/17 A3003 RMK T02400170 IEM_DS3505
ZGOW,2010-11-07 03:00,ZGOW 070300Z AUTO 04002KT 9SM 26/16 A3000 RMK SLP160 T02590165 57007 IEM_DS3505
ZGOW,2010-11-07 04:00,ZGOW 070400Z AUTO 07006KT 6SM 26/18 A2997 RMK T02600180 IEM_DS3505
ZGOW,2010-11-07 05:00,ZGOW 070500Z AUTO 08008KT 6SM 27/18 A2994 RMK T02700180 IEM_DS3505
ZGOW,2010-11-07 06:00,ZGOW 070600Z AUTO 09006KT 9SM 26/17 A2991 RMK SLP134 T02650170 57026 IEM_DS3505
ZGOW,2010-11-07 07:00,ZGOW 070700Z AUTO 14008KT 6SM 25/18 A2991 RMK T02500180 IEM_DS3505
ZGOW,2010-11-07 08:00,ZGOW 070800Z AUTO 11004KT 6SM 24/18 A2994 RMK T02400180 IEM_DS3505
ZGOW,2010-11-07 09:00,ZGOW 070900Z AUTO 11006KT 7SM 23/18 A2994 RMK SLP142 T02330177 52008 IEM_DS3505
ZGOW,2010-11-07 10:00,ZGOW 071000Z AUTO 16002KT 6SM 22/18 A2997 RMK T02200180 IEM_DS3505
ZGOW,2010-11-07 11:00,ZGOW 071100Z AUTO 00000KT 6SM 21/18 A2997 RMK T02100180 IEM_DS3505
ZGOW,2010-11-07 12:00,ZGOW 071200Z AUTO 00000KT 7SM 21/19 A3000 RMK SLP158 T02090188 52016 IEM_DS3505
ZGOW,2010-11-07 13:00,ZGOW 071300Z AUTO 17002KT 4SM 20/18 A3000 RMK T02000180 IEM_DS3505
ZGOW,2010-11-07 14:00,ZGOW 071400Z AUTO 00000KT 4SM 20/18 A3003 RMK T02000180 IEM_DS3505
ZGOW,2010-11-07 15:00,ZGOW 071500Z AUTO 29002KT 6SM 20/19 A3003 RMK SLP170 T02030191 52012 IEM_DS3505
ZGOW,2010-11-07 16:00,ZGOW 071600Z AUTO 04006KT 4SM 19/18 A3003 RMK T01900180 IEM_DS3505
ZGOW,2010-11-07 17:00,ZGOW 071700Z AUTO 04004KT 3SM 19/17 A3003 RMK T01900170 IEM_DS3505
ZGOW,2010-11-07 18:00,ZGOW 071800Z AUTO 00000KT 5SM 20/18 RMK SLP166 T01990180 57004 IEM_DS3505
ZGOW,2010-11-07 20:00,ZGOW 072000Z AUTO 31002KT 2 1/2SM 19/18 A3000 RMK T01900180 IEM_DS3505
ZGOW,2010-11-07 21:00,ZGOW 072100Z AUTO 00000KT 2 1/2SM 18/18 A3003 RMK SLP166 T01840176 54000 IEM_DS3505
ZGOW,2010-11-07 22:00,ZGOW 072200Z AUTO 31002KT 2SM 19/17 A3003 RMK T01900170 IEM_DS3505
ZGOW,2010-11-07 23:00,ZGOW 072300Z AUTO 31004KT 2 1/2SM 18/17 A3006 RMK T01800170 IEM_DS3505
ZGOW,2010-11-08 00:00,ZGOW 080000Z AUTO 00000KT 5SM 20/17 A3006 RMK SLP185 T02000172 52019 IEM_DS3505
ZGOW,2010-11-08 01:00,ZGOW 080100Z AUTO 32008KT 4SM 21/16 A3009 RMK T02100160 IEM_DS3505
ZGOW,2010-11-08 02:00,ZGOW 080200Z AUTO 32006KT 5SM 23/15 A3009 RMK T02300150 IEM_DS3505
ZGOW,2010-11-08 03:00,ZGOW 080300Z AUTO 27002KT 7SM 26/11 A3006 RMK SLP181 T02580108 57004 IEM_DS3505
ZGOW,2010-11-08 04:00,ZGOW 080400Z AUTO 07010KT 6SM 27/11 A3003 RMK T02700110 IEM_DS3505
ZGOW,2010-11-08 05:00,ZGOW 080500Z AUTO 10010KT 6SM 27/12 A3003 RMK T02700120 IEM_DS3505
ZGOW,2010-11-08 06:00,ZGOW 080600Z AUTO 11010KT 7SM 26/10 A3000 RMK SLP162 T02610103 57019 IEM_DS3505
ZGOW,2010-11-08 07:00,ZGOW 080700Z AUTO 12010KT 6SM 25/14 A3003 RMK T02500140 IEM_DS3505
ZGOW,2010-11-08 08:00,ZGOW 080800Z AUTO 08010KT 6SM 24/12 A3003 RMK T02400120 IEM_DS3505
ZGOW,2010-11-08 09:00,ZGOW 080900Z 08005MPS 8000 SKC 22/13 Q1017 NOSIG
ZGOW,2010-11-08 10:00,ZGOW 081000Z 09004MPS 7000 SKC 21/15 Q1018 NOSIG
ZGOW,2010-11-08 11:00,ZGOW 081100Z 07006MPS 7000 SKC 21/15 Q1019 NOSIG
ZGOW,2010-11-08 12:00,ZGOW 081200Z AUTO 07008KT 6SM 21/14 A3009 RMK SLP195 T02090136 52023 IEM_DS3505
ZGOW,2010-11-08 13:00,ZGOW 081300Z AUTO 07012G21KT 4SM 20/15 A3012 RMK T02000150 IEM_DS3505
ZGOW,2010-11-08 14:00,ZGOW 081400Z AUTO 06010KT 5SM 20/13 A3012 RMK T02000130 IEM_DS3505
ZGOW,2010-11-08 15:00,ZGOW 081500Z AUTO 07004KT 5SM 20/13 A3015 RMK SLP206 T01990129 52011 IEM_DS3505
ZGOW,2010-11-08 16:00,ZGOW 081600Z AUTO 04004KT 3SM 17/13 A3012 RMK T01700130 IEM_DS3505
ZGOW,2010-11-08 17:00,ZGOW 081700Z AUTO 03004KT 3SM 17/13 A3015 RMK T01700130 IEM_DS3505
ZGOW,2010-11-08 18:00,ZGOW 081800Z AUTO 04002KT 4SM 19/14 A3015 RMK SLP206 T01880143 54000 IEM_DS3505
ZGOW,2010-11-08 19:00,ZGOW 081900Z AUTO 00000KT 3SM 17/14 A3015 RMK T01700140 IEM_DS3505
ZGOW,2010-11-08 20:00,ZGOW 082000Z AUTO 04002KT 2 1/2SM 16/14 A3015 RMK T01600140 IEM_DS3505
ZGOW,2010-11-08 21:00,ZGOW 082100Z AUTO 00000KT 6SM 17/14 A3015 RMK SLP208 T01720141 52002 IEM_DS3505
ZGOW,2010-11-08 22:00,ZGOW 082200Z AUTO 02002KT 2 1/2SM 16/13 A3015 RMK T01600130 IEM_DS3505
ZGOW,2010-11-08 23:00,ZGOW 082300Z AUTO 03002KT 2SM 16/13 A3018 RMK T01600130 IEM_DS3505
ZGOW,2010-11-09 00:00,ZGOW 090000Z AUTO 02002KT 4SM 18/14 A3021 RMK SLP224 T01850144 52016 IEM_DS3505
ZGOW,2010-11-09 01:00,ZGOW 090100Z AUTO 04008KT 2 1/2SM 21/12 A3021 RMK T02100120 IEM_DS3505
ZGOW,2010-11-09 02:00,ZGOW 090200Z AUTO 06010KT 2 1/2SM 22/12 A3018 RMK T02200120 IEM_DS3505
ZGOW,2010-11-09 03:00,ZGOW 090300Z AUTO 04006KT 6SM 23/10 A3018 RMK SLP214 T02280096 57010 IEM_DS3505
ZGOW,2010-11-09 04:00,ZGOW 090400Z AUTO 08008KT 3SM 23/13 A3015 RMK T02300130 IEM_DS3505
ZGOW,2010-11-09 05:00,ZGOW 090500Z AUTO 09010KT 3SM 23/13 A3012 RMK T02300130 IEM_DS3505
ZGOW,2010-11-09 06:00,ZGOW 090600Z AUTO 11008KT 7SM 24/10 A3009 RMK SLP192 T02380098 57022 IEM_DS3505
ZGOW,2010-11-09 07:00,ZGOW 090700Z AUTO 12010KT 3SM 23/14 A3009 RMK T02300140 IEM_DS3505
ZGOW,2010-11-09 08:00,ZGOW 090800Z AUTO 08008KT 3SM 22/14 A3009 RMK T02200140 IEM_DS3505
ZGOW,2010-11-09 09:00,ZGOW 090900Z AUTO 07004KT 7SM 22/12 A3009 RMK SLP195 T02170123 52003 IEM_DS3505
ZGOW,2010-11-09 10:00,ZGOW 091000Z AUTO 09004KT 2 1/2SM 20/14 A3012 RMK T02000140 IEM_DS3505
ZGOW,2010-11-09 11:00,ZGOW 091100Z AUTO 09008KT 3SM 19/14 A3015 RMK T01900140 IEM_DS3505
ZGOW,2010-11-09 12:00,ZGOW 091200Z AUTO 09004KT 6SM 20/13 A3018 RMK SLP216 T01960128 52021 IEM_DS3505
ZGOW,2010-11-09 13:00,ZGOW 091300Z AUTO 09008KT 3SM 19/14 A3018 RMK T01900140 IEM_DS3505
ZGOW,2010-11-09 14:00,ZGOW 091400Z AUTO 08010KT 4SM 18/14 A3018 RMK T01800140 IEM_DS3505
ZGOW,2010-11-09 15:00,ZGOW 091500Z AUTO 07008KT 6SM 19/14 A3018 RMK SLP214 T01880141 57002 IEM_DS3505
ZGOW,2010-11-09 16:00,ZGOW 091600Z AUTO 04002KT 2 1/2SM 17/13 A3015 RMK T01700130 IEM_DS3505
ZGOW,2010-11-09 17:00,ZGOW 091700Z AUTO 04004KT 2 1/2SM 16/13 A3015 RMK T01600130 IEM_DS3505
ZGOW,2010-11-09 18:00,ZGOW 091800Z AUTO 00000KT 5SM 16/14 RMK SLP205 T01640135 57009 IEM_DS3505
ZGOW,2010-11-09 20:00,ZGOW 092000Z AUTO 00000KT 2SM 15/13 A3015 RMK T01500130 IEM_DS3505
ZGOW,2010-11-09 21:00,ZGOW 092100Z AUTO 09002KT 5SM 16/14 A3015 RMK SLP208 T01590136 52003 IEM_DS3505
ZGOW,2010-11-09 22:00,ZGOW 092200Z AUTO 32002KT 2SM 15/13 A3018 RMK T01500130 IEM_DS3505
ZGOW,2010-11-09 23:00,ZGOW 092300Z AUTO 02002KT 2SM 15/13 A3018 RMK T01500130 IEM_DS3505
ZGOW,2010-11-10 00:00,ZGOW 100000Z AUTO 04002KT 3SM 17/14 A3018 RMK SLP224 T01700141 52016 IEM_DS3505
ZGOW,2010-11-10 01:00,ZGOW 100100Z AUTO 06006KT 2SM 18/13 A3021 RMK T01800130 IEM_DS3505
ZGOW,2010-11-10 02:00,ZGOW 100200Z AUTO 07010KT 2 1/2SM 20/13 A3018 RMK T02000130 IEM_DS3505
ZGOW,2010-11-10 03:00,ZGOW 100300Z AUTO 09004KT 5SM 21/12 A3018 RMK SLP216 T02080122 57008 IEM_DS3505
ZGOW,2010-11-10 04:00,ZGOW 100400Z AUTO 07006KT 3SM 22/13 A3015 RMK T02200130 IEM_DS3505
ZGOW,2010-11-10 05:00,ZGOW 100500Z AUTO 09006KT 3SM 22/12 A3009 RMK T02200120 IEM_DS3505
ZGOW,2010-11-10 06:00,ZGOW 100600Z AUTO 04004KT 6SM 23/09 A3009 RMK SLP184 T02340087 57032 IEM_DS3505
ZGOW,2010-11-10 07:00,ZGOW 100700Z AUTO 10006KT 4SM 23/12 A3006 RMK T02300120 IEM_DS3505
ZGOW,2010-11-10 08:00,ZGOW 100800Z AUTO 08006KT 6SM 22/13 A3006 RMK T02200130 IEM_DS3505
ZGOW,2010-11-10 09:00,ZGOW 100900Z AUTO 11004KT 7SM 21/11 A3009 RMK SLP187 T02120110 52003 IEM_DS3505
ZGOW,2010-11-10 10:00,ZGOW 101000Z AUTO 08006KT 4SM 19/13 A3009 RMK T01900130 IEM_DS3505
ZGOW,2010-11-10 11:00,ZGOW 101100Z AUTO 07006KT 4SM 18/14 A3009 RMK T01800140 IEM_DS3505
ZGOW,2010-11-10 12:00,ZGOW 101200Z AUTO 07004KT 7SM 20/12 A3009 RMK SLP193 T01950125 52006 IEM_DS3505
ZGOW,2010-11-10 13:00,ZGOW 101300Z AUTO 07006KT 6SM 17/13 A3012 RMK T01700130 IEM_DS3505
ZGOW,2010-11-10 14:00,ZGOW 101400Z AUTO 07006KT 6SM 17/13 A3012 RMK T01700130 IEM_DS3505
ZGOW,2010-11-10 15:00,ZGOW 101500Z AUTO 07002KT 7SM 18/12 A3012 RMK SLP196 T01810117 52003 IEM_DS3505
ZGOW,2010-11-10 16:00,ZGOW 101600Z AUTO 00000KT 3SM 16/13 A3009 RMK T01600130 IEM_DS3505
ZGOW,2010-11-10 17:00,ZGOW 101700Z AUTO 00000KT 3SM 15/12 A3009 RMK T01500120 IEM_DS3505
ZGOW,2010-11-10 18:00,ZGOW 101800Z AUTO 00000KT 5SM 15/13 RMK SLP187 T01500130 57009 IEM_DS3505
ZGOW,2010-11-10 20:00,ZGOW 102000Z AUTO 32004KT 2 1/2SM 15/13 A3006 RMK T01500130 IEM_DS3505
ZGOW,2010-11-10 21:00,ZGOW 102100Z AUTO 00000KT 5SM 15/13 A3006 RMK SLP182 T01520131 57005 IEM_DS3505
ZGOW,2010-11-10 22:00,ZGOW 102200Z AUTO 24002KT 2SM 14/13 A3009 RMK T01400130 IEM_DS3505
ZGOW,2010-11-10 23:00,ZGOW 102300Z AUTO 32004KT 1 1/2SM 14/13 A3009 RMK T01400130 IEM_DS3505
ZGOW,2010-11-11 00:00,ZGOW 110000Z AUTO 00000KT 4SM 17/14 A3012 RMK SLP200 T01660137 52018 IEM_DS3505
ZGOW,2010-11-11 01:00,ZGOW 110100Z AUTO 32002KT 2 1/2SM 18/14 A3012 RMK T01800140 IEM_DS3505
ZGOW,2010-11-11 02:00,ZGOW 110200Z AUTO 36002KT 2 1/2SM 21/12 A3012 RMK T02100120 IEM_DS3505
ZGOW,2010-11-11 03:00,ZGOW 110300Z AUTO 07004KT 5SM 23/05 A3009 RMK SLP189 T02280048 57011 IEM_DS3505
ZGOW,2010-11-11 04:00,ZGOW 110400Z AUTO 09004KT 6SM 24/06 A3006 RMK T02400060 IEM_DS3505
ZGOW,2010-11-11 05:00,ZGOW 110500Z AUTO 09006KT 6SM 24/08 A3003 RMK T02400080 IEM_DS3505
ZGOW,2010-11-11 06:00,ZGOW 110600Z AUTO 09004KT 7SM 24/04 A3000 RMK SLP164 T02400044 57025 IEM_DS3505
ZGOW,2010-11-11 07:00,ZGOW 110700Z AUTO 13004KT 6SM 24/12 A3000 RMK T02400120 IEM_DS3505
ZGOW,2010-11-11 08:00,ZGOW 110800Z AUTO 13006KT 6SM 23/14 A3000 RMK T02300140 IEM_DS3505
ZGOW,2010-11-11 09:00,ZGOW 110900Z AUTO 09004KT 7SM 22/13 A3003 RMK SLP165 T02230126 52001 IEM_DS3505
ZGOW,2010-11-11 10:00,ZGOW 111000Z AUTO 08006KT 6SM 20/14 A3003 RMK T02000140 IEM_DS3505
ZGOW,2010-11-11 11:00,ZGOW 111100Z AUTO 08006KT 6SM 19/15 A3003 RMK T01900150 IEM_DS3505
ZGOW,2010-11-11 12:00,ZGOW 111200Z AUTO 07004KT 7SM 20/15 A3006 RMK SLP178 T02050146 52013 IEM_DS3505
ZGOW,2010-11-11 13:00,ZGOW 111300Z AUTO 05006KT 6SM 18/15 A3006 RMK T01800150 IEM_DS3505
ZGOW,2010-11-11 14:00,ZGOW 111400Z AUTO 07006KT 6SM 19/15 A3006 RMK T01900150 IEM_DS3505
ZGOW,2010-11-11 15:00,ZGOW 111500Z AUTO 00000KT 7SM 19/15 A3003 RMK SLP175 T01870152 57003 IEM_DS3505
ZGOW,2010-11-11 16:00,ZGOW 111600Z AUTO 32002KT 3SM 18/14 A3003 RMK T01800140 IEM_DS3505
ZGOW,2010-11-11 18:00,ZGOW 111800Z AUTO 09002KT 6SM 17/14 RMK SLP159 T01690142 57016 IEM_DS3505
ZGOW,2010-11-11 20:00,ZGOW 112000Z AUTO 32002KT 2 1/2SM 16/13 A2997 RMK T01600130 IEM_DS3505
ZGOW,2010-11-11 21:00,ZGOW 112100Z AUTO 00000KT 5SM 16/12 A2997 RMK SLP155 T01590125 57004 IEM_DS3505
ZGOW,2010-11-11 22:00,ZGOW 112200Z AUTO 00000KT 2 1/2SM 15/13 A3000 RMK T01500130 IEM_DS3505
ZGOW,2010-11-11 23:00,ZGOW 112300Z AUTO 30002KT 2 1/2SM 15/13 A3003 RMK T01500130 IEM_DS3505
ZGOW,2010-11-12 00:00,ZGOW 120000Z AUTO 27002KT 4SM 17/14 A3003 RMK SLP170 T01670140 52015 IEM_DS3505
ZGOW,2010-11-12 01:00,ZGOW 120100Z AUTO 30004KT 2 1/2SM 20/14 A3003 RMK T02000140 IEM_DS3505
ZGOW,2010-11-12 02:00,ZGOW 120200Z AUTO 36004KT 4SM 22/12 A3003 RMK T02200120 IEM_DS3505
ZGOW,2010-11-12 03:00,ZGOW 120300Z AUTO 04004KT 6SM 24/07 A3000 RMK SLP163 T02440067 57007 IEM_DS3505
ZGOW,2010-11-12 04:00,ZGOW 120400Z AUTO 06014KT 6SM 26/10 A2997 RMK T02600100 IEM_DS3505
ZGOW,2010-11-12 05:00,ZGOW 120500Z AUTO 08016KT 6SM 26/14 A2997 RMK T02600140 IEM_DS3505
ZGOW,2010-11-12 06:00,ZGOW 120600Z AUTO 09010KT 19SM 25/10 A2994 RMK SLP139 T02510098 57024 IEM_DS3505
ZGOW,2010-11-12 07:00,ZGOW 120700Z AUTO 09016KT 6SM 25/14 A2994 RMK T02500140 IEM_DS3505
ZGOW,2010-11-12 08:00,ZGOW 120800Z AUTO 09016KT 6SM 24/14 A2994 RMK T02400140 IEM_DS3505
ZGOW,2010-11-12 09:00,ZGOW 120900Z AUTO 09008G23KT 14SM 23/12 A2997 RMK SLP145 T02340124 52006 IEM_DS3505
ZGOW,2010-11-12 10:00,ZGOW 121000Z AUTO 09010KT 6SM 22/15 A2997 RMK T02200150 IEM_DS3505
ZGOW,2010-11-12 11:00,ZGOW 121100Z AUTO 07014KT 6SM 21/15 A3000 RMK T02100150 IEM_DS3505
ZGOW,2010-11-12 12:00,ZGOW 121200Z AUTO 07008KT 10SM 22/14 A3000 RMK SLP162 T02200139 52017 IEM_DS3505
ZGOW,2010-11-12 13:00,ZGOW 121300Z AUTO 07012KT 6SM 22/15 A3003 RMK T02200150 IEM_DS3505
ZGOW,2010-11-12 14:00,ZGOW 121400Z AUTO 06006KT 6SM 20/15 A3003 RMK T02000150 IEM_DS3505
ZGOW,2010-11-12 15:00,ZGOW 121500Z AUTO 00000KT 10SM 21/14 A3003 RMK SLP167 T02060138 52005 IEM_DS3505
ZGOW,2010-11-12 16:00,ZGOW 121600Z AUTO 03006KT 6SM 20/14 A3003 RMK T02000140 IEM_DS3505
ZGOW,2010-11-12 17:00,ZGOW 121700Z AUTO 03006KT 6SM 20/14 A3000 RMK T02000140 IEM_DS3505
ZGOW,2010-11-12 18:00,ZGOW 121800Z AUTO 00000KT 7SM 19/14 RMK SLP163 T01940140 57004 IEM_DS3505
ZGOW,2010-11-12 19:00,ZGOW 121900Z AUTO 31002KT 4SM 20/14 A3000 RMK T02000140 IEM_DS3505
ZGOW,2010-11-12 20:00,ZGOW 122000Z AUTO 33002KT 6SM 20/14 A3000 RMK T02000140 IEM_DS3505
ZGOW,2010-11-12 21:00,ZGOW 122100Z AUTO 00000KT 7SM 18/14 A3000 RMK SLP161 T01840145 57002 IEM_DS3505
ZGOW,2010-11-12 22:00,ZGOW 122200Z AUTO 32002KT 3SM 19/15 A3003 RMK T01900150 IEM_DS3505
ZGOW,2010-11-12 23:00,ZGOW 122300Z AUTO 31002KT 4SM 19/14 A3003 RMK T01900140 IEM_DS3505
ZGOW,2010-11-13 00:00,ZGOW 130000Z AUTO 07002KT 7SM 19/14 A3006 RMK SLP180 T01940142 52019 IEM_DS3505
ZGOW,2010-11-13 01:00,ZGOW 130100Z AUTO 30004KT 5SM 21/15 A3006 RMK T02100150 IEM_DS3505
ZGOW,2010-11-13 02:00,ZGOW 130200Z AUTO 31004KT 5SM 22/15 A3006 RMK T02200150 IEM_DS3505
ZGOW,2010-11-13 03:00,ZGOW 130300Z AUTO 09002KT 8SM 24/13 A3006 RMK SLP177 T02370133 57003 IEM_DS3505
ZGOW,2010-11-13 04:00,ZGOW 130400Z AUTO 06008KT 6SM 25/16 A3003 RMK T02500160 IEM_DS3505
ZGOW,2010-11-13 05:00,ZGOW 130500Z AUTO 10008KT 6SM 24/17 A3003 RMK T02400170 IEM_DS3505
ZGOW,2010-11-13 06:00,ZGOW 130600Z AUTO 09004KT 9SM 25/16 A3000 RMK SLP162 T02460155 57015 IEM_DS3505
ZGOW,2010-11-13 07:00,ZGOW 130700Z AUTO 09008KT 6SM 24/17 A3000 RMK T02400170 IEM_DS3505
ZGOW,2010-11-13 08:00,ZGOW 130800Z AUTO 08008KT 6SM 23/17 A3003 RMK T02300170 IEM_DS3505
ZGOW,2010-11-13 09:00,ZGOW 130900Z AUTO 11006KT 9SM 23/16 A3003 RMK SLP172 T02310164 52010 IEM_DS3505
ZGOW,2010-11-13 10:00,ZGOW 131000Z AUTO 10002KT 4SM 22/18 A3006 RMK T02200180 IEM_DS3505
ZGOW,2010-11-13 11:00,ZGOW 131100Z AUTO 10006KT 4SM 21/18 A3009 RMK T02100180 IEM_DS3505
ZGOW,2010-11-13 12:00,ZGOW 131200Z AUTO 09002KT 6SM 22/18 A3012 RMK SLP197 T02170181 52025 IEM_DS3505
ZGOW,2010-11-13 13:00,ZGOW 131300Z AUTO 08008KT 4SM 21/18 A3012 RMK T02100180 IEM_DS3505
ZGOW,2010-11-13 14:00,ZGOW 131400Z AUTO 09012KT 5SM 21/17 A3012 RMK T02100170 IEM_DS3505
ZGOW,2010-11-13 15:00,ZGOW 131500Z AUTO 07006KT 6SM 21/18 A3012 RMK SLP202 T02120178 52005 IEM_DS3505
ZGOW,2010-11-13 16:00,ZGOW 131600Z AUTO 06004KT 4SM 20/18 A3012 RMK T02000180 IEM_DS3505
ZGOW,2010-11-13 17:00,ZGOW 131700Z AUTO 08004KT 4SM 20/18 A3012 RMK T02000180 IEM_DS3505
ZGOW,2010-11-13 18:00,ZGOW 131800Z AUTO 07004KT 6SM 21/18 A3009 RMK SLP192 T02080180 57010 IEM_DS3505
ZGOW,2010-11-13 19:00,ZGOW 131900Z AUTO 01002KT 2 1/2SM 20/18 A3009 RMK T02000180 IEM_DS3505
ZGOW,2010-11-13 20:00,ZGOW 132000Z AUTO 34004KT 3SM 20/18 A3009 RMK T02000180 IEM_DS3505
ZGOW,2010-11-13 21:00,ZGOW 132100Z AUTO 07002KT 4SM 20/18 A3012 RMK SLP199 T01990179 52007 IEM_DS3505
ZGOW,2010-11-13 22:00,ZGOW 132200Z AUTO 06002KT 2 1/2SM 19/17 A3012 RMK T01900170 IEM_DS3505
ZGOW,2010-11-13 23:00,ZGOW 132300Z AUTO 30002KT 2SM 20/18 A3015 RMK T02000180 IEM_DS3505
ZGOW,2010-11-14 00:00,ZGOW 140000Z AUTO 00000KT 6SM 21/18 A3015 RMK SLP211 T02090175 52012 IEM_DS3505
ZGOW,2010-11-14 01:00,ZGOW 140100Z AUTO 33002KT 2 1/2SM 23/18 A3015 RMK T02300180 IEM_DS3505
ZGOW,2010-11-14 02:00,ZGOW 140200Z AUTO 01004KT 2 1/2SM 25/18 A3015 RMK T02500180 IEM_DS3505
ZGOW,2010-11-14 03:00,ZGOW 140300Z AUTO 25004KT 5SM 24/18 A3015 RMK SLP209 T02400184 57002 IEM_DS3505
ZGOW,2010-11-14 04:00,ZGOW 140400Z AUTO 10008KT 4SM 26/18 A3012 RMK T02600180 IEM_DS3505
ZGOW,2010-11-14 05:00,ZGOW 140500Z AUTO 16008KT 4SM 26/19 A3012 RMK T02600190 IEM_DS3505
ZGOW,2010-11-14 06:00,ZGOW 140600Z AUTO 09006KT 6SM 25/18 A3009 RMK SLP190 T02510185 57019 IEM_DS3505
ZGOW,2010-11-14 07:00,ZGOW 140700Z AUTO 10006KT 4SM 25/18 A3009 RMK T02500180 IEM_DS3505
ZGOW,2010-11-14 08:00,ZGOW 140800Z AUTO 10006KT 4SM 24/18 A3009 RMK T02400180 IEM_DS3505
ZGOW,2010-11-14 09:00,ZGOW 140900Z AUTO 11004KT 6SM 23/18 A3009 RMK SLP193 T02340181 52003 IEM_DS3505
ZGOW,2010-11-14 10:00,ZGOW 141000Z AUTO 10006KT 4SM 22/18 A3012 RMK T02200180 IEM_DS3505
ZGOW,2010-11-14 11:00,ZGOW 141100Z AUTO 07010KT 6SM 22/18 A3015 RMK T02200180 IEM_DS3505
ZGOW,2010-11-14 12:00,ZGOW 141200Z AUTO 09004KT 6SM 22/18 A3015 RMK SLP211 T02240184 52018 IEM_DS3505
ZGOW,2010-11-14 13:00,ZGOW 141300Z AUTO 07008KT 6SM 21/18 A3015 RMK T02100180 IEM_DS3505
ZGOW,2010-11-14 14:00,ZGOW 141400Z AUTO 07004KT 6SM 21/18 A3015 RMK T02100180 IEM_DS3505
ZGOW,2010-11-14 15:00,ZGOW 141500Z AUTO 07002KT 6SM 22/18 A3015 RMK SLP210 T02180184 57001 IEM_DS3505
ZGOW,2010-11-14 16:00,ZGOW 141600Z AUTO 00000KT 3SM 21/18 A3015 RMK T02100180 IEM_DS3505
ZGOW,2010-11-14 17:00,ZGOW 141700Z AUTO 00000KT 2 1/2SM 20/18 A3015 RMK T02000180 IEM_DS3505
ZGOW,2010-11-14 18:00,ZGOW 141800Z AUTO 09002KT 5SM 21/19 RMK SLP203 T02070186 57007 IEM_DS3505
ZGOW,2010-11-14 20:00,ZGOW 142000Z AUTO 20002KT 2SM 20/18 A3012 RMK T02000180 IEM_DS3505
ZGOW,2010-11-14 21:00,ZGOW 142100Z AUTO 00000KT 4SM 20/18 A3012 RMK SLP205 T01960184 52002 IEM_DS3505
ZGOW,2010-11-14 22:00,ZGOW 142200Z AUTO 00000KT 2SM 20/18 A3015 RMK T02000180 IEM_DS3505
ZGOW,2010-11-14 23:00,ZGOW 142300Z AUTO 00000KT 1SM 20/18 A3015 RMK T02000180 IEM_DS3505
ZGOW,2010-11-15 00:00,ZGOW 150000Z AUTO 07002KT 4SM 22/19 A3018 RMK SLP218 T02160192 52013 IEM_DS3505
ZGOW,2010-11-15 01:00,ZGOW 150100Z AUTO 07004KT 3SM 24/18 A3018 RMK T02400180 IEM_DS3505
ZGOW,2010-11-15 02:00,ZGOW 150200Z AUTO 07008KT 6SM 24/17 A3018 RMK T02400170 IEM_DS3505
ZGOW,2010-11-15 03:00,ZGOW 150300Z AUTO 11006KT 6SM 25/17 A3015 RMK SLP210 T02510171 57008 IEM_DS3505
ZGOW,2010-11-15 04:00,ZGOW 150400Z AUTO 08012KT 6SM 26/17 A3012 RMK T02600170 IEM_DS3505
ZGOW,2010-11-15 05:00,ZGOW 150500Z AUTO 09016KT 6SM 26/17 A3009 RMK T02600170 IEM_DS3505
ZGOW,2010-11-15 06:00,ZGOW 150600Z AUTO 09008KT 7SM 26/14 A3006 RMK SLP175 T02590141 57035 IEM_DS3505
ZGOW,2010-11-15 07:00,ZGOW 150700Z AUTO 08017KT 6SM 24/16 A3006 RMK T02400160 IEM_DS3505
ZGOW,2010-11-15 08:00,ZGOW 150800Z AUTO 08017KT 5SM 22/17 A3006 RMK T02200170 IEM_DS3505
ZGOW,2010-11-15 09:00,ZGOW 150900Z AUTO 09008G29KT 7SM 22/15 A3006 RMK SLP186 T02210152 52011 IEM_DS3505
ZGOW,2010-11-15 10:00,ZGOW 151000Z AUTO 08019G29KT 5SM 21/15 A3009 RMK T02100150 IEM_DS3505
ZGOW,2010-11-15 11:00,ZGOW 151100Z AUTO 08021KT 5SM 20/15 A3012 RMK T02000150 IEM_DS3505
ZGOW,2010-11-15 12:00,ZGOW 151200Z AUTO 09012KT 6SM 20/15 A3012 RMK SLP207 T01990149 52021 IEM_DS3505
ZGOW,2010-11-15 13:00,ZGOW 151300Z AUTO 08019KT 6SM 19/14 A3015 RMK T01900140 IEM_DS3505
ZGOW,2010-11-15 14:00,ZGOW 151400Z AUTO 07014KT 6SM 19/14 A3018 RMK T01900140 IEM_DS3505
ZGOW,2010-11-15 15:00,ZGOW 151500Z AUTO 07008KT 6SM 19/13 A3018 RMK SLP217 T01920127 52010 IEM_DS3505
ZGOW,2010-11-15 16:00,ZGOW 151600Z AUTO 07016KT 7SM 19/13 A3018 RMK T01900130 IEM_DS3505
ZGOW,2010-11-15 17:00,ZGOW 151700Z AUTO 07010KT 7SM 18/13 A3015 RMK T01800130 IEM_DS3505
ZGOW,2010-11-15 18:00,ZGOW 151800Z AUTO 07004KT 6SM 19/12 A3015 RMK SLP207 T01870120 57010 IEM_DS3505
ZGOW,2010-11-15 19:00,ZGOW 151900Z AUTO 08004KT 5SM 18/13 A3012 RMK T01800130 IEM_DS3505
ZGOW,2010-11-15 20:00,ZGOW 152000Z AUTO 04006KT 4SM 17/14 A3012 RMK T01700140 IEM_DS3505
ZGOW,2010-11-15 21:00,ZGOW 152100Z AUTO 07004KT 7SM 19/13 A3012 RMK SLP200 T01880130 57007 IEM_DS3505
ZGOW,2010-11-15 22:00,ZGOW 152200Z AUTO 04006KT 4SM 17/14 A3015 RMK T01700140 IEM_DS3505
ZGOW,2010-11-15 23:00,ZGOW 152300Z AUTO 04006KT 4SM 18/14 A3015 RMK T01800140 IEM_DS3505
ZGOW,2010-11-16 00:00,ZGOW 160000Z AUTO 04002KT 7SM 19/14 A3018 RMK SLP218 T01940136 52018 IEM_DS3505
ZGOW,2010-11-16 01:00,ZGOW 160100Z AUTO 34004KT 5SM 20/14 A3018 RMK T02000140 IEM_DS3505
ZGOW,2010-11-16 02:00,ZGOW 160200Z AUTO 36004KT 6SM 22/14 A3015 RMK T02200140 IEM_DS3505
ZGOW,2010-11-16 03:00,ZGOW 160300Z AUTO 34004KT 7SM 23/12 A3015 RMK SLP206 T02340121 57012 IEM_DS3505
ZGOW,2010-11-16 04:00,ZGOW 160400Z AUTO 10008KT 6SM 23/13 A3012 RMK T02300130 IEM_DS3505
ZGOW,2010-11-16 05:00,ZGOW 160500Z AUTO 08008KT 6SM 24/14 A3006 RMK T02400140 IEM_DS3505
ZGOW,2010-11-16 06:00,ZGOW 160600Z AUTO 09004KT 7SM 24/11 A3006 RMK SLP176 T02390113 57030 IEM_DS3505
ZGOW,2010-11-16 07:00,ZGOW 160700Z AUTO 11006KT 6SM 24/15 A3003 RMK T02400150 IEM_DS3505
ZGOW,2010-11-16 08:00,ZGOW 160800Z AUTO 12008KT 6SM 22/16 A3003 RMK T02200160 IEM_DS3505
ZGOW,2010-11-16 09:00,ZGOW 160900Z AUTO 09006KT 7SM 22/14 A3006 RMK SLP175 T02160140 57001 IEM_DS3505
ZGOW,2010-11-16 10:00,ZGOW 161000Z AUTO 09008KT 6SM 20/16 A3006 RMK T02000160 IEM_DS3505
ZGOW,2010-11-16 11:00,ZGOW 161100Z AUTO 08010KT 6SM 20/16 A3009 RMK T02000160 IEM_DS3505
ZGOW,2010-11-16 12:00,ZGOW 161200Z AUTO 04006KT 7SM 20/16 A3012 RMK SLP195 T02040156 52020 IEM_DS3505
ZGOW,2010-11-16 13:00,ZGOW 161300Z AUTO 07014KT 7SM 20/15 A3012 RMK T02000150 IEM_DS3505
ZGOW,2010-11-16 14:00,ZGOW 161400Z AUTO 07012KT 7SM 20/15 A3012 RMK T02000150 IEM_DS3505
ZGOW,2010-11-16 15:00,ZGOW 161500Z AUTO 09006KT 7SM 20/15 A3012 RMK SLP196 T01990149 52001 IEM_DS3505
ZGOW,2010-11-16 16:00,ZGOW 161600Z AUTO 06010KT 7SM 19/14 A3012 RMK T01900140 IEM_DS3505
ZGOW,2010-11-16 17:00,ZGOW 161700Z AUTO 06008KT 7SM 18/14 A3009 RMK T01800140 IEM_DS3505
ZGOW,2010-11-16 18:00,ZGOW 161800Z AUTO 07002KT 7SM 19/14 RMK SLP190 T01890135 57006 IEM_DS3505
ZGOW,2010-11-16 20:00,ZGOW 162000Z AUTO 34004KT 4SM 18/15 A3009 RMK T01800150 IEM_DS3505
ZGOW,2010-11-16 21:00,ZGOW 162100Z AUTO 34002KT 9SM 18/14 A3009 RMK SLP191 T01760139 52001 IEM_DS3505
ZGOW,2010-11-16 22:00,ZGOW 162200Z AUTO 34006KT 4SM 17/13 A3012 RMK T01700130 IEM_DS3505
ZGOW,2010-11-16 23:00,ZGOW 162300Z AUTO 34006KT 4SM 17/13 A3012 RMK T01700130 IEM_DS3505
ZGOW,2010-11-17 00:00,ZGOW 170000Z AUTO 07002KT 10SM 19/14 A3012 RMK SLP202 T01880139 52011 IEM_DS3505
ZGOW,2010-11-17 01:00,ZGOW 170100Z AUTO 35004KT 6SM 20/14 A3015 RMK T02000140 IEM_DS3505
ZGOW,2010-11-17 02:00,ZGOW 170200Z AUTO 05006KT 6SM 22/14 A3012 RMK T02200140 IEM_DS3505
ZGOW,2010-11-17 03:00,ZGOW 170300Z AUTO 07006KT 10SM 23/14 A3012 RMK SLP195 T02320137 57007 IEM_DS3505
ZGOW,2010-11-17 04:00,ZGOW 170400Z AUTO 08012KT 6SM 23/15 A3009 RMK T02300150 IEM_DS3505
ZGOW,2010-11-17 05:00,ZGOW 170500Z AUTO 08012KT 6SM 24/15 A3006 RMK T02400150 IEM_DS3505
ZGOW,2010-11-17 06:00,ZGOW 170600Z AUTO 07006KT 11SM 24/14 A3003 RMK SLP170 T02360143 57025 IEM_DS3505
ZGOW,2010-11-17 07:00,ZGOW 170700Z AUTO 09010KT 6SM 23/15 A3003 RMK T02300150 IEM_DS3505
ZGOW,2010-11-17 08:00,ZGOW 170800Z AUTO 08012KT 5SM 22/15 A3003 RMK T02200150 IEM_DS3505
ZGOW,2010-11-17 09:00,ZGOW 170900Z AUTO 07008KT 10SM 22/14 A3003 RMK SLP168 T02180142 57002 IEM_DS3505
ZGOW,2010-11-17 10:00,ZGOW 171000Z AUTO 08012KT 5SM 20/15 A3003 RMK T02000150 IEM_DS3505
ZGOW,2010-11-17 11:00,ZGOW 171100Z AUTO 07014KT 5SM 20/15 A3006 RMK T02000150 IEM_DS3505
ZGOW,2010-11-17 12:00,ZGOW 171200Z AUTO 07006G27KT 9SM 20/14 A3009 RMK SLP186 T02030144 52018 IEM_DS3505
ZGOW,2010-11-17 13:00,ZGOW 171300Z AUTO 07016KT 6SM 20/15 A3009 RMK T02000150 IEM_DS3505
ZGOW,2010-11-17 14:00,ZGOW 171400Z AUTO 07014KT 6SM 19/15 A3009 RMK T01900150 IEM_DS3505
ZGOW,2010-11-17 15:00,ZGOW 171500Z AUTO 07006KT 9SM 20/14 A3012 RMK SLP196 T01950143 52010 IEM_DS3505
ZGOW,2010-11-17 16:00,ZGOW 171600Z AUTO 06010KT 6SM 19/14 A3012 RMK T01900140 IEM_DS3505
ZGOW,2010-11-17 17:00,ZGOW 171700Z AUTO 05006KT 6SM 17/14 A3009 RMK T01700140 IEM_DS3505
ZGOW,2010-11-17 18:00,ZGOW 171800Z AUTO 07002KT 9SM 19/14 RMK SLP189 T01870142 57007 IEM_DS3505
ZGOW,2010-11-17 19:00,ZGOW 171900Z AUTO 04002KT 3SM 17/14 A3009 RMK T01700140 IEM_DS3505
ZGOW,2010-11-17 20:00,ZGOW 172000Z AUTO 36002KT 4SM 17/14 A3006 RMK T01700140 IEM_DS3505
ZGOW,2010-11-17 21:00,ZGOW 172100Z AUTO 00000KT 7SM 17/14 A3006 RMK SLP184 T01680143 57005 IEM_DS3505
ZGOW,2010-11-17 22:00,ZGOW 172200Z AUTO 00000KT 3SM 16/13 A3009 RMK T01600130 IEM_DS3505
ZGOW,2010-11-17 23:00,ZGOW 172300Z AUTO 32004KT 3SM 17/14 A3012 RMK T01700140 IEM_DS3505
ZGOW,2010-11-18 00:00,ZGOW 180000Z AUTO 04002KT 5SM 18/15 A3012 RMK SLP198 T01820153 52014 IEM_DS3505
ZGOW,2010-11-18 01:00,ZGOW 180100Z AUTO 31002KT 3SM 21/15 A3012 RMK T02100150 IEM_DS3505
ZGOW,2010-11-18 02:00,ZGOW 180200Z AUTO 04006KT 4SM 22/14 A3012 RMK T02200140 IEM_DS3505
ZGOW,2010-11-18 03:00,ZGOW 180300Z AUTO 11004KT 7SM 23/15 A3009 RMK SLP188 T02280146 57010 IEM_DS3505
ZGOW,2010-11-18 04:00,ZGOW 180400Z AUTO 08008KT 7SM 23/14 A3006 RMK T02300140 IEM_DS3505
ZGOW,2010-11-18 05:00,ZGOW 180500Z AUTO 09008KT 7SM 23/15 A3003 RMK T02300150 IEM_DS3505
ZGOW,2010-11-18 06:00,ZGOW 180600Z AUTO 09006KT 8SM 24/15 A3000 RMK SLP161 T02400150 57027 IEM_DS3505
ZGOW,2010-11-18 07:00,ZGOW 180700Z AUTO 13006KT 7SM 23/16 A3000 RMK T02300160 IEM_DS3505
ZGOW,2010-11-18 08:00,ZGOW 180800Z AUTO 11006KT 6SM 22/16 A3000 RMK T02200160 IEM_DS3505
ZGOW,2010-11-18 09:00,ZGOW 180900Z AUTO 11004KT 8SM 22/16 A3000 RMK SLP162 T02170155 52001 IEM_DS3505
ZGOW,2010-11-18 10:00,ZGOW 181000Z AUTO 09008KT 5SM 20/16 A3003 RMK T02000160 IEM_DS3505
ZGOW,2010-11-18 11:00,ZGOW 181100Z AUTO 09010KT 6SM 20/16 A3003 RMK T02000160 IEM_DS3505
ZGOW,2010-11-18 12:00,ZGOW 181200Z AUTO 07008KT 7SM 20/16 A3006 RMK SLP182 T02040160 52020 IEM_DS3505
ZGOW,2010-11-18 13:00,ZGOW 181300Z AUTO 08010KT 7SM 20/16 A3009 RMK T02000160 IEM_DS3505
ZGOW,2010-11-18 14:00,ZGOW 181400Z AUTO 07014KT 7SM 20/16 A3009 RMK T02000160 IEM_DS3505
ZGOW,2010-11-18 15:00,ZGOW 181500Z AUTO 09004KT 9SM 20/16 A3009 RMK SLP189 T01970158 52007 IEM_DS3505
ZGOW,2010-11-18 16:00,ZGOW 181600Z AUTO 07010KT 7SM 19/16 A3009 RMK T01900160 IEM_DS3505
ZGOW,2010-11-18 17:00,ZGOW 181700Z AUTO 04006KT 4SM 18/15 A3006 RMK T01800150 IEM_DS3505
ZGOW,2010-11-18 18:00,ZGOW 181800Z AUTO 09002KT 7SM 19/16 A3006 RMK SLP177 T01940159 57012 IEM_DS3505
ZGOW,2010-11-18 20:00,ZGOW 182000Z AUTO 33002KT 2 1/2SM 18/15 A3003 RMK T01800150 IEM_DS3505
ZGOW,2010-11-18 21:00,ZGOW 182100Z AUTO 00000KT 6SM 19/16 A3003 RMK SLP165 T01870159 57012 IEM_DS3505
ZGOW,2010-11-18 22:00,ZGOW 182200Z AUTO 35002KT 2SM 18/16 A3003 RMK T01800160 IEM_DS3505
ZGOW,2010-11-18 23:00,ZGOW 182300Z AUTO 00000KT 1 1/4SM 18/16 A3003 RMK T01800160 IEM_DS3505
ZGOW,2010-11-19 00:00,ZGOW 190000Z AUTO 07002KT 4SM 20/16 A3006 RMK SLP177 T01960164 52012 IEM_DS3505
ZGOW,2010-11-19 01:00,ZGOW 190100Z AUTO 32004KT 2SM 21/17 A3006 RMK T02100170 IEM_DS3505
ZGOW,2010-11-19 02:00,ZGOW 190200Z AUTO 32004KT 2SM 22/16 A3003 RMK T02200160 IEM_DS3505
ZGOW,2010-11-19 03:00,ZGOW 190300Z AUTO 04002KT 4SM 24/16 A3003 RMK SLP165 T02380158 57012 IEM_DS3505
ZGOW,2010-11-19 04:00,ZGOW 190400Z AUTO 01004KT 3SM 25/16 A2997 RMK T02500160 IEM_DS3505
ZGOW,2010-11-19 05:00,ZGOW 190500Z AUTO 06004KT 3SM 24/16 A2994 RMK T02400160 IEM_DS3505
ZGOW,2010-11-19 06:00,ZGOW 190600Z AUTO 11004KT 4SM 25/15 A2991 RMK SLP132 T02480149 57033 IEM_DS3505
ZGOW,2010-11-19 07:00,ZGOW 190700Z AUTO 14010KT 4SM 22/17 A2991 RMK T02200170 IEM_DS3505
ZGOW,2010-11-19 08:00,ZGOW 190800Z AUTO 13008KT 5SM 21/16 A2994 RMK T02100160 IEM_DS3505
ZGOW,2010-11-19 09:00,ZGOW 190900Z AUTO 11006KT 6SM 22/16 A2994 RMK SLP139 T02150165 52007 IEM_DS3505
ZGOW,2010-11-19 10:00,ZGOW 191000Z AUTO 13002KT 2 1/2SM 20/17 A2994 RMK T02000170 IEM_DS3505
ZGOW,2010-11-19 11:00,ZGOW 191100Z AUTO 08002KT 4SM 20/17 A2997 RMK T02000170 IEM_DS3505
ZGOW,2010-11-19 12:00,ZGOW 191200Z AUTO 07002KT 7SM 21/17 A3000 RMK SLP156 T02070173 52017 IEM_DS3505
ZGOW,2010-11-19 13:00,ZGOW 191300Z AUTO 09006KT 7SM 20/17 A3000 RMK T02000170 IEM_DS3505
ZGOW,2010-11-19 14:00,ZGOW 191400Z AUTO 07006KT 7SM 20/17 A3000 RMK T02000170 IEM_DS3505
ZGOW,2010-11-19 15:00,ZGOW 191500Z AUTO 07004KT 7SM 21/17 A3000 RMK SLP157 T02060168 52001 IEM_DS3505
ZGOW,2010-11-19 16:00,ZGOW 191600Z AUTO 08008KT 7SM 20/17 A2997 RMK T02000170 IEM_DS3505
ZGOW,2010-11-19 17:00,ZGOW 191700Z AUTO 08010KT 7SM 20/17 A2997 RMK T02000170 IEM_DS3505
ZGOW,2010-11-19 18:00,ZGOW 191800Z AUTO 09004KT 7SM 20/16 A2997 RMK SLP149 T01980163 57008 IEM_DS3505
ZGOW,2010-11-19 19:00,ZGOW 191900Z AUTO 09006KT 7SM 19/15 A2994 RMK T01900150 IEM_DS3505
ZGOW,2010-11-19 20:00,ZGOW 192000Z AUTO 07008KT 7SM 19/16 A2994 RMK T01900160 IEM_DS3505
ZGOW,2010-11-19 21:00,ZGOW 192100Z AUTO 07004KT 7SM 20/16 A2994 RMK SLP142 T01960161 57007 IEM_DS3505
ZGOW,2010-11-19 22:00,ZGOW 192200Z AUTO 01006KT 7SM 19/15 A2997 RMK T01900150 IEM_DS3505
ZGOW,2010-11-19 23:00,ZGOW 192300Z AUTO 34002KT 4SM 19/16 A2997 RMK T01900160 IEM_DS3505
ZGOW,2010-11-20 00:00,ZGOW 200000Z AUTO 04002KT 8SM 20/16 A2997 RMK SLP156 T02030157 52014 IEM_DS3505
ZGOW,2010-11-20 01:00,ZGOW 200100Z AUTO 03002KT 6SM 21/15 A3000 RMK T02100150 IEM_DS3505
ZGOW,2010-11-20 02:00,ZGOW 200200Z AUTO 04006KT 7SM 22/15 A2997 RMK T02200150 IEM_DS3505
ZGOW,2010-11-20 03:00,ZGOW 200300Z AUTO 02002KT 9SM 22/15 A2997 RMK SLP150 T02230154 57006 IEM_DS3505
ZGOW,2010-11-20 04:00,ZGOW 200400Z AUTO 12006KT 7SM 23/15 A2997 RMK T02300150 IEM_DS3505
ZGOW,2010-11-20 05:00,ZGOW 200500Z AUTO 13010KT 7SM 23/15 A2991 RMK T02300150 IEM_DS3505
ZGOW,2010-11-20 06:00,ZGOW 200600Z AUTO 16006KT 9SM 22/15 A2991 RMK SLP126 T02220153 57024 IEM_DS3505
ZGOW,2010-11-20 07:00,ZGOW 200700Z AUTO 12010KT 7SM 22/16 A2991 RMK T02200160 IEM_DS3505
ZGOW,2010-11-20 08:00,ZGOW 200800Z AUTO 12010KT 7SM 21/16 A2991 RMK T02100160 IEM_DS3505
ZGOW,2010-11-20 09:00,ZGOW 200900Z AUTO 09006KT 9SM 21/16 A2991 RMK SLP130 T02100158 52004 IEM_DS3505
ZGOW,2010-11-20 10:00,ZGOW 201000Z AUTO 09004KT 7SM 20/15 A2991 RMK T02000150 IEM_DS3505
ZGOW,2010-11-20 11:00,ZGOW 201100Z AUTO 08006KT 7SM 20/16 A2994 RMK T02000160 IEM_DS3505
ZGOW,2010-11-20 12:00,ZGOW 201200Z AUTO 09002KT 9SM 21/16 A2994 RMK SLP141 T02070159 52011 IEM_DS3505
ZGOW,2010-11-20 13:00,ZGOW 201300Z AUTO 07006KT 7SM 20/17 A2994 RMK T02000170 IEM_DS3505
ZGOW,2010-11-20 14:00,ZGOW 201400Z AUTO 08006KT 7SM 19/16 A2997 RMK T01900160 IEM_DS3505
ZGOW,2010-11-20 15:00,ZGOW 201500Z AUTO 07004KT 7SM 20/17 A2994 RMK SLP143 T02000168 52002 IEM_DS3505
ZGOW,2010-11-20 16:00,ZGOW 201600Z AUTO 07008KT 7SM 19/17 A2994 RMK T01900170 IEM_DS3505
ZGOW,2010-11-20 17:00,ZGOW 201700Z AUTO 07010KT 4SM 20/17 A2994 RMK T02000170 IEM_DS3505
ZGOW,2010-11-20 18:00,ZGOW 201800Z AUTO 07006KT 7SM 20/16 A2991 RMK SLP131 T01990163 57012 IEM_DS3505
ZGOW,2010-11-20 19:00,ZGOW 201900Z AUTO 05004KT 3SM 19/16 A2991 RMK T01900160 IEM_DS3505
ZGOW,2010-11-20 20:00,ZGOW 202000Z AUTO 36004KT 4SM 19/16 A2988 RMK T01900160 IEM_DS3505
ZGOW,2010-11-20 21:00,ZGOW 202100Z AUTO 00000KT 4SM 19/16 A2988 RMK SLP124 T01870159 57007 IEM_DS3505
ZGOW,2010-11-20 22:00,ZGOW 202200Z AUTO 32002KT 4SM 18/15 A2991 RMK T01800150 IEM_DS3505
ZGOW,2010-11-20 23:00,ZGOW 202300Z AUTO 00000KT 2 1/2SM 18/16 A2994 RMK T01800160 IEM_DS3505
ZGOW,2010-11-21 00:00,ZGOW 210000Z AUTO 00000KT 4SM 19/17 A2994 RMK SLP139 T01940166 52015 IEM_DS3505
ZGOW,2010-11-21 01:00,ZGOW 210100Z AUTO 34004KT 3SM 20/16 A2994 RMK T02000160 IEM_DS3505
ZGOW,2010-11-21 02:00,ZGOW 210200Z AUTO 03006KT 7SM 23/16 A2994 RMK T02300160 IEM_DS3505
ZGOW,2010-11-21 03:00,ZGOW 210300Z AUTO 09004KT 6SM 23/16 A2991 RMK SLP131 T02320158 57008 IEM_DS3505
ZGOW,2010-11-21 04:00,ZGOW 210400Z AUTO 05004KT 7SM 24/16 A2988 RMK T02400160 IEM_DS3505
ZGOW,2010-11-21 05:00,ZGOW 210500Z AUTO 07006KT 7SM 24/16 A2985 RMK T02400160 IEM_DS3505
ZGOW,2010-11-21 06:00,ZGOW 210600Z AUTO 09004KT 7SM 25/16 A2985 RMK SLP104 T02500162 57027 IEM_DS3505
ZGOW,2010-11-21 07:00,ZGOW 210700Z AUTO 14006KT 6SM 24/17 A2983 RMK T02400170 IEM_DS3505
ZGOW,2010-11-21 08:00,ZGOW 210800Z AUTO 14006KT 6SM 22/17 A2983 RMK T02200170 IEM_DS3505
ZGOW,2010-11-21 09:00,ZGOW 210900Z AUTO 14004KT 7SM 22/17 A2983 RMK SLP100 T02210168 57004 IEM_DS3505
ZGOW,2010-11-21 10:00,ZGOW 211000Z AUTO 15004KT 3SM 20/17 A2985 RMK T02000170 IEM_DS3505
ZGOW,2010-11-21 11:00,ZGOW 211100Z AUTO 13002KT 3SM 20/17 A2988 RMK T02000170 IEM_DS3505
ZGOW,2010-11-21 12:00,ZGOW 211200Z AUTO 00000KT 6SM 20/18 A2988 RMK SLP120 T02010177 52020 IEM_DS3505
ZGOW,2010-11-21 13:00,ZGOW 211300Z AUTO 00000KT 2 1/2SM 20/17 A2988 RMK T02000170 IEM_DS3505
ZGOW,2010-11-21 14:00,ZGOW 211400Z AUTO 04002KT 1 1/2SM 19/17 A2988 RMK T01900170 IEM_DS3505
ZGOW,2010-11-21 15:00,ZGOW 211500Z AUTO 27002KT 5SM 19/17 A2988 RMK SLP123 T01900173 52003 IEM_DS3505
ZGOW,2010-11-21 16:00,ZGOW 211600Z AUTO 00000KT 1 1/4SM 19/17 A2988 RMK T01900170 IEM_DS3505
ZGOW,2010-11-21 18:00,ZGOW 211800Z AUTO 00000KT 2 1/2SM 18/17 RMK SLP110 T01830171 57013 IEM_DS3505
ZGOW,2010-11-21 20:00,ZGOW 212000Z AUTO 31002KT 1 1/4SM 18/17 A2985 RMK T01800170 IEM_DS3505
ZGOW,2010-11-21 21:00,ZGOW 212100Z AUTO 00000KT 2SM 18/17 A2985 RMK SLP108 T01760166 57002 IEM_DS3505
ZGOW,2010-11-21 22:00,ZGOW 212200Z AUTO 30002KT 1 1/4SM 18/17 A2985 RMK T01800170 IEM_DS3505
ZGOW,2010-11-21 23:00,ZGOW 212300Z AUTO 00000KT 1SM 18/17 A2985 RMK T01800170 IEM_DS3505
ZGOW,2010-11-22 00:00,ZGOW 220000Z AUTO 07002KT 2SM 19/18 A2988 RMK SLP122 T01940177 52014 IEM_DS3505
ZGOW,2010-11-22 01:00,ZGOW 220100Z AUTO 32006KT 2SM 21/17 A2991 RMK T02100170 IEM_DS3505
ZGOW,2010-11-22 02:00,ZGOW 220200Z AUTO 31006KT 2 1/2SM 23/17 A2991 RMK T02300170 IEM_DS3505
ZGOW,2010-11-22 03:00,ZGOW 220300Z AUTO 36004KT 6SM 25/16 A2988 RMK SLP122 T02510165 54000 IEM_DS3505
ZGOW,2010-11-22 04:00,ZGOW 220400Z AUTO 34008KT 4SM 26/16 A2985 RMK T02600160 IEM_DS3505
ZGOW,2010-11-22 05:00,ZGOW 220500Z AUTO 32006KT 5SM 27/16 A2983 RMK T02700160 IEM_DS3505
ZGOW,2010-11-22 06:00,ZGOW 220600Z AUTO 32002KT 7SM 27/13 A2983 RMK SLP098 T02710127 57024 IEM_DS3505
ZGOW,2010-11-22 07:00,ZGOW 220700Z AUTO 13010KT 2 1/2SM 23/18 A2983 RMK T02300180 IEM_DS3505
ZGOW,2010-11-22 08:00,ZGOW 220800Z AUTO 10006KT 2 1/2SM 23/18 A2985 RMK T02300180 IEM_DS3505
ZGOW,2010-11-22 09:00,ZGOW 220900Z AUTO 11006KT 6SM 22/17 A2985 RMK SLP113 T02160172 52015 IEM_DS3505
ZGOW,2010-11-22 10:00,ZGOW 221000Z AUTO 09012KT 3SM 20/17 A2988 RMK T02000170 IEM_DS3505
ZGOW,2010-11-22 11:00,ZGOW 221100Z AUTO 08012KT 5SM 20/17 A2991 RMK T02000170 IEM_DS3505
ZGOW,2010-11-22 12:00,ZGOW 221200Z AUTO 07008KT 6SM 20/17 A2991 RMK SLP134 T02000166 52021 IEM_DS3505
ZGOW,2010-11-22 13:00,ZGOW 221300Z AUTO 08012KT 7SM 20/16 A2994 RMK T02000160 IEM_DS3505
ZGOW,2010-11-22 14:00,ZGOW 221400Z AUTO 08014KT 7SM 20/15 A2997 RMK T02000150 IEM_DS3505
ZGOW,2010-11-22 15:00,ZGOW 221500Z AUTO 07008KT 6SM 20/15 A2997 RMK SLP149 T01980150 52015 IEM_DS3505
ZGOW,2010-11-22 16:00,ZGOW 221600Z AUTO 07014KT 7SM 19/14 A2997 RMK T01900140 IEM_DS3505
ZGOW,2010-11-22 17:00,ZGOW 221700Z AUTO 07010KT 7SM 19/14 A3000 RMK T01900140 IEM_DS3505
ZGOW,2010-11-22 18:00,ZGOW 221800Z AUTO 09004KT 5SM 19/14 A3000 RMK 60000 SLP155 T01920142 52006 IEM_DS3505
ZGOW,2010-11-22 19:00,ZGOW 221900Z AUTO 09008KT 3SM 19/14 A2997 RMK T01900140 IEM_DS3505
ZGOW,2010-11-22 20:00,ZGOW 222000Z AUTO 07008KT 4SM 19/13 A2997 RMK T01900130 IEM_DS3505
ZGOW,2010-11-22 21:00,ZGOW 222100Z AUTO 07004KT 6SM 19/13 A2997 RMK 70000 SLP148 T01910133 57007 IEM_DS3505
ZGOW,2010-11-22 22:00,ZGOW 222200Z AUTO 04004KT 4SM 19/14 A2997 RMK T01900140 IEM_DS3505
ZGOW,2010-11-22 23:00,ZGOW 222300Z AUTO 04004KT 2 1/2SM 18/13 A3000 RMK T01800130 IEM_DS3505
ZGOW,2010-11-23 00:00,ZGOW 230000Z AUTO 11002KT 6SM 19/14 A3000 RMK 70000 SLP161 T01910139 52013 IEM_DS3505
ZGOW,2010-11-23 01:00,ZGOW 230100Z AUTO 06004KT 3SM 21/14 A3003 RMK T02100140 IEM_DS3505
ZGOW,2010-11-23 02:00,ZGOW 230200Z AUTO 07008KT 3SM 21/12 A3000 RMK T02100120 IEM_DS3505
ZGOW,2010-11-23 03:00,ZGOW 230300Z AUTO 09002KT 6SM 22/12 A3000 RMK SLP160 T02250125 57001 IEM_DS3505
ZGOW,2010-11-23 04:00,ZGOW 230400Z AUTO 06008KT 3SM 22/12 A3000 RMK T02200120 IEM_DS3505
ZGOW,2010-11-23 05:00,ZGOW 230500Z AUTO 09010KT 3SM 22/13 A2997 RMK T02200130 IEM_DS3505
ZGOW,2010-11-23 06:00,ZGOW 230600Z AUTO 11004KT 6SM 22/11 A2994 RMK SLP142 T02150112 57018 IEM_DS3505
ZGOW,2010-11-23 07:00,ZGOW 230700Z AUTO 11008KT 2 1/2SM 21/14 A2994 RMK T02100140 IEM_DS3505
ZGOW,2010-11-23 08:00,ZGOW 230800Z AUTO 08012KT 2 1/2SM 20/14 A2997 RMK T02000140 IEM_DS3505
ZGOW,2010-11-23 09:00,ZGOW 230900Z AUTO 07008KT 6SM 20/13 A2997 RMK SLP146 T02010126 52004 IEM_DS3505
ZGOW,2010-11-23 10:00,ZGOW 231000Z AUTO 08012KT 3SM 19/14 A2997 RMK T01900140 IEM_DS3505
ZGOW,2010-11-23 11:00,ZGOW 231100Z AUTO 07012KT 4SM 18/14 A3000 RMK T01800140 IEM_DS3505
ZGOW,2010-11-23 12:00,ZGOW 231200Z AUTO 07006KT 6SM 19/14 A3000 RMK SLP159 T01860143 52013 IEM_DS3505
ZGOW,2010-11-23 13:00,ZGOW 231300Z AUTO 08014G23KT 7SM 18/14 A3003 RMK T01800140 IEM_DS3505
ZGOW,2010-11-23 14:00,ZGOW 231400Z AUTO 07012KT 7SM 18/14 A3003 RMK T01800140 IEM_DS3505
ZGOW,2010-11-23 15:00,ZGOW 231500Z AUTO 07008KT 6SM 18/14 A3003 RMK SLP170 T01830140 52011 IEM_DS3505
ZGOW,2010-11-23 16:00,ZGOW 231600Z AUTO 07008KT 7SM 17/13 A3006 RMK T01700130 IEM_DS3505
ZGOW,2010-11-23 17:00,ZGOW 231700Z AUTO 06006KT 7SM 16/13 A3006 RMK T01600130 IEM_DS3505
ZGOW,2010-11-23 18:00,ZGOW 231800Z AUTO 07004KT 6SM 17/12 RMK SLP177 T01730124 52007 IEM_DS3505
ZGOW,2010-11-23 19:00,ZGOW 231900Z AUTO 01002KT 2 1/2SM 16/12 A3006 RMK T01600120 IEM_DS3505
ZGOW,2010-11-23 20:00,ZGOW 232000Z AUTO 31002KT 4SM 16/13 A3006 RMK T01600130 IEM_DS3505
ZGOW,2010-11-23 21:00,ZGOW 232100Z AUTO 09002KT 6SM 16/13 A3006 RMK SLP177 T01610132 54000 IEM_DS3505
ZGOW,2010-11-23 22:00,ZGOW 232200Z AUTO 00000KT 2 1/2SM 15/12 A3006 RMK T01500120 IEM_DS3505
ZGOW,2010-11-23 23:00,ZGOW 232300Z AUTO 07002KT 2 1/2SM 15/13 A3009 RMK T01500130 IEM_DS3505
ZGOW,2010-11-24 00:00,ZGOW 240000Z AUTO 07002KT 4SM 18/14 A3012 RMK SLP195 T01750138 52018 IEM_DS3505
ZGOW,2010-11-24 01:00,ZGOW 240100Z AUTO 06008KT 3SM 20/12 A3009 RMK T02000120 IEM_DS3505
ZGOW,2010-11-24 02:00,ZGOW 240200Z AUTO 03008KT 2 1/2SM 21/13 A3009 RMK T02100130 IEM_DS3505
ZGOW,2010-11-24 03:00,ZGOW 240300Z AUTO 07004KT 5SM 21/12 A3006 RMK SLP177 T02100119 57018 IEM_DS3505
ZGOW,2010-11-24 04:00,ZGOW 240400Z AUTO 08008KT 4SM 21/13 A3003 RMK T02100130 IEM_DS3505
ZGOW,2010-11-24 05:00,ZGOW 240500Z AUTO 08010KT 4SM 21/12 A3000 RMK T02100120 IEM_DS3505
ZGOW,2010-11-24 06:00,ZGOW 240600Z AUTO 14004KT 6SM 21/10 A2997 RMK SLP152 T02100099 57025 IEM_DS3505
ZGOW,2010-11-24 07:00,ZGOW 240700Z AUTO 12006KT 6SM 21/13 A2997 RMK T02100130 IEM_DS3505
ZGOW,2010-11-24 08:00,ZGOW 240800Z AUTO 12008KT 6SM 20/14 A3000 RMK T02000140 IEM_DS3505
ZGOW,2010-11-24 09:00,ZGOW 240900Z AUTO 11006KT 7SM 20/12 A3000 RMK SLP159 T01970117 52007 IEM_DS3505
ZGOW,2010-11-24 10:00,ZGOW 241000Z AUTO 09006KT 5SM 19/14 A3003 RMK T01900140 IEM_DS3505
ZGOW,2010-11-24 11:00,ZGOW 241100Z AUTO 07006KT 5SM 18/14 A3006 RMK T01800140 IEM_DS3505
ZGOW,2010-11-24 12:00,ZGOW 241200Z AUTO 07006KT 7SM 19/14 A3006 RMK SLP180 T01880143 52021 IEM_DS3505
ZGOW,2010-11-24 13:00,ZGOW 241300Z AUTO 07006KT 5SM 18/14 A3009 RMK T01800140 IEM_DS3505
ZGOW,2010-11-24 14:00,ZGOW 241400Z AUTO 06006KT 5SM 17/14 A3009 RMK T01700140 IEM_DS3505
ZGOW,2010-11-24 15:00,ZGOW 241500Z AUTO 07004KT 6SM 18/14 A3009 RMK SLP190 T01840145 52010 IEM_DS3505
ZGOW,2010-11-24 16:00,ZGOW 241600Z AUTO 01006KT 5SM 17/14 A3009 RMK T01700140 IEM_DS3505
ZGOW,2010-11-24 17:00,ZGOW 241700Z AUTO 04006KT 4SM 16/14 A3009 RMK T01600140 IEM_DS3505
ZGOW,2010-11-24 18:00,ZGOW 241800Z AUTO 07004KT 6SM 17/14 A3009 RMK SLP192 T01720145 52002 IEM_DS3505
ZGOW,2010-11-24 19:00,ZGOW 241900Z AUTO 34002KT 2 1/2SM 16/14 A3009 RMK T01600140 IEM_DS3505
ZGOW,2010-11-24 20:00,ZGOW 242000Z AUTO 35002KT 3SM 17/13 A3009 RMK T01700130 IEM_DS3505
ZGOW,2010-11-24 21:00,ZGOW 242100Z AUTO 00000KT 6SM 17/14 A3006 RMK SLP182 T01660139 57010 IEM_DS3505
ZGOW,2010-11-24 22:00,ZGOW 242200Z AUTO 00000KT 2 1/2SM 15/13 A3006 RMK T01500130 IEM_DS3505
ZGOW,2010-11-24 23:00,ZGOW 242300Z AUTO 33004KT 2 1/2SM 16/14 A3009 RMK T01600140 IEM_DS3505
ZGOW,2010-11-25 00:00,ZGOW 250000Z AUTO 11002KT 6SM 18/13 A3012 RMK SLP198 T01770134 52016 IEM_DS3505
ZGOW,2010-11-25 01:00,ZGOW 250100Z AUTO 34006KT 2 1/2SM 19/13 A3012 RMK T01900130 IEM_DS3505
ZGOW,2010-11-25 02:00,ZGOW 250200Z AUTO 34006KT 4SM 21/13 A3012 RMK T02100130 IEM_DS3505
ZGOW,2010-11-25 03:00,ZGOW 250300Z AUTO 07006KT 6SM 22/10 A3009 RMK SLP193 T02200099 57005 IEM_DS3505
ZGOW,2010-11-25 04:00,ZGOW 250400Z AUTO 08008KT 5SM 22/10 A3006 RMK T02200100 IEM_DS3505
ZGOW,2010-11-25 05:00,ZGOW 250500Z AUTO 07006KT 5SM 23/12 A3003 RMK T02300120 IEM_DS3505
ZGOW,2010-11-25 06:00,ZGOW 250600Z AUTO 11004KT 7SM 23/08 A3000 RMK SLP159 T02330078 57034 IEM_DS3505
ZGOW,2010-11-25 07:00,ZGOW 250700Z AUTO 12006KT 5SM 22/12 A3000 RMK T02200120 IEM_DS3505
ZGOW,2010-11-25 08:00,ZGOW 250800Z AUTO 10006KT 5SM 22/11 A3000 RMK T02200110 IEM_DS3505
ZGOW,2010-11-25 09:00,ZGOW 250900Z AUTO 07006KT 7SM 21/10 A3000 RMK SLP161 T02090098 52002 IEM_DS3505
ZGOW,2010-11-25 10:00,ZGOW 251000Z AUTO 08010KT 4SM 19/13 A3003 RMK T01900130 IEM_DS3505
ZGOW,2010-11-25 11:00,ZGOW 251100Z AUTO 08012KT 4SM 18/13 A3003 RMK T01800130 IEM_DS3505
ZGOW,2010-11-25 12:00,ZGOW 251200Z AUTO 07008KT 9SM 19/11 A3006 RMK SLP184 T01880106 52023 IEM_DS3505
ZGOW,2010-11-25 13:00,ZGOW 251300Z AUTO 07017G27KT 4SM 18/12 A3009 RMK T01800120 IEM_DS3505
ZGOW,2010-11-25 14:00,ZGOW 251400Z AUTO 07017G29KT 4SM 18/09 A3009 RMK T01800090 IEM_DS3505
ZGOW,2010-11-25 15:00,ZGOW 251500Z AUTO 07008KT 9SM 18/06 A3009 RMK SLP192 T01790058 52008 IEM_DS3505
ZGOW,2010-11-25 16:00,ZGOW 251600Z AUTO 06008KT 6SM 16/08 A3009 RMK T01600080 IEM_DS3505
ZGOW,2010-11-25 17:00,ZGOW 251700Z AUTO 07006KT 6SM 14/08 A3009 RMK T01400080 IEM_DS3505
ZGOW,2010-11-25 18:00,ZGOW 251800Z AUTO 07002KT 6SM 15/07 RMK SLP187 T01540074 57005 IEM_DS3505
ZGOW,2010-11-25 19:00,ZGOW 251900Z AUTO 00000KT 4SM 14/09 A3009 RMK T01400090 IEM_DS3505
ZGOW,2010-11-25 20:00,ZGOW 252000Z AUTO 04002KT 4SM 14/08 A3009 RMK T01400080 IEM_DS3505
ZGOW,2010-11-25 21:00,ZGOW 252100Z AUTO 27002KT 6SM 13/09 A3009 RMK SLP190 T01260091 52003 IEM_DS3505
ZGOW,2010-11-25 22:00,ZGOW 252200Z AUTO 33002KT 3SM 14/10 A3012 RMK T01400100 IEM_DS3505
ZGOW,2010-11-25 23:00,ZGOW 252300Z AUTO 36004KT 3SM 14/11 A3012 RMK T01400110 IEM_DS3505
ZGOW,2010-11-26 00:00,ZGOW 260000Z AUTO 07002KT 6SM 16/12 A3015 RMK SLP205 T01570119 52015 IEM_DS3505
ZGOW,2010-11-26 01:00,ZGOW 260100Z AUTO 04010KT 5SM 18/09 A3015 RMK T01800090 IEM_DS3505
ZGOW,2010-11-26 02:00,ZGOW 260200Z AUTO 04012KT 6SM 20/08 A3012 RMK T02000080 IEM_DS3505
ZGOW,2010-11-26 03:00,ZGOW 260300Z AUTO 07006KT 7SM 20/07 A3009 RMK SLP188 T02050068 57017 IEM_DS3505
ZGOW,2010-11-26 04:00,ZGOW 260400Z AUTO 07016KT 6SM 22/10 A3006 RMK T02200100 IEM_DS3505
ZGOW,2010-11-26 05:00,ZGOW 260500Z AUTO 08016KT 6SM 22/11 A3003 RMK T02200110 IEM_DS3505
ZGOW,2010-11-26 06:00,ZGOW 260600Z AUTO 07010KT 7SM 22/09 A3003 RMK SLP164 T02180090 57024 IEM_DS3505
ZGOW,2010-11-26 07:00,ZGOW 260700Z AUTO 08012KT 4SM 21/13 A3003 RMK T02100130 IEM_DS3505
ZGOW,2010-11-26 08:00,ZGOW 260800Z AUTO 08012KT 4SM 20/12 A3003 RMK T02000120 IEM_DS3505
ZGOW,2010-11-26 09:00,ZGOW 260900Z AUTO 09008KT 6SM 20/10 A3006 RMK SLP172 T01990095 52008 IEM_DS3505
ZGOW,2010-11-26 10:00,ZGOW 261000Z AUTO 08012KT 4SM 18/12 A3006 RMK T01800120 IEM_DS3505
ZGOW,2010-11-26 11:00,ZGOW 261100Z AUTO 08014KT 4SM 18/12 A3009 RMK T01800120 IEM_DS3505
ZGOW,2010-11-26 12:00,ZGOW 261200Z AUTO 07008KT 6SM 18/11 A3012 RMK SLP196 T01840112 52024 IEM_DS3505
ZGOW,2010-11-26 13:00,ZGOW 261300Z AUTO 08010G19KT 6SM 18/12 A3012 RMK T01800120 IEM_DS3505
ZGOW,2010-11-26 14:00,ZGOW 261400Z AUTO 08012KT 6SM 18/12 A3012 RMK T01800120 IEM_DS3505
ZGOW,2010-11-26 15:00,ZGOW 261500Z AUTO 07008KT 7SM 18/11 A3012 RMK SLP196 T01770106 54000 IEM_DS3505
ZGOW,2010-11-26 16:00,ZGOW 261600Z AUTO 06012KT 6SM 17/11 A3012 RMK T01700110 IEM_DS3505
ZGOW,2010-11-26 17:00,ZGOW 261700Z AUTO 05012KT 6SM 17/10 A3012 RMK T01700100 IEM_DS3505
ZGOW,2010-11-26 18:00,ZGOW 261800Z AUTO 04002KT 6SM 16/10 RMK SLP194 T01610095 57002 IEM_DS3505
ZGOW,2010-11-26 20:00,ZGOW 262000Z AUTO 02008KT 4SM 16/10 A3006 RMK T01600100 IEM_DS3505
ZGOW,2010-11-26 21:00,ZGOW 262100Z AUTO 02002KT 6SM 16/09 A3006 RMK SLP180 T01550087 57014 IEM_DS3505
ZGOW,2010-11-26 22:00,ZGOW 262200Z AUTO 00000KT 3SM 14/10 A3009 RMK T01400100 IEM_DS3505
ZGOW,2010-11-26 23:00,ZGOW 262300Z AUTO 00000KT 3SM 13/10 A3012 RMK T01300100 IEM_DS3505
ZGOW,2010-11-27 00:00,ZGOW 270000Z AUTO 00000KT 7SM 17/12 A3012 RMK SLP203 T01660115 52023 IEM_DS3505
ZGOW,2010-11-27 01:00,ZGOW 270100Z AUTO 36004KT 3SM 18/11 A3012 RMK T01800110 IEM_DS3505
ZGOW,2010-11-27 02:00,ZGOW 270200Z AUTO 06006KT 6SM 20/10 A3012 RMK T02000100 IEM_DS3505
ZGOW,2010-11-27 03:00,ZGOW 270300Z AUTO 04004KT 7SM 21/08 A3009 RMK SLP193 T02130082 57010 IEM_DS3505
ZGOW,2010-11-27 04:00,ZGOW 270400Z AUTO 08006KT 6SM 22/11 A3006 RMK T02200110 IEM_DS3505
ZGOW,2010-11-27 05:00,ZGOW 270500Z AUTO 10008KT 6SM 22/12 A3003 RMK T02200120 IEM_DS3505
ZGOW,2010-11-27 06:00,ZGOW 270600Z AUTO 14006KT 9SM 22/11 A3003 RMK SLP165 T02200108 57028 IEM_DS3505
ZGOW,2010-11-27 07:00,ZGOW 270700Z AUTO 12010KT 6SM 22/14 A3000 RMK T02200140 IEM_DS3505
ZGOW,2010-11-27 08:00,ZGOW 270800Z AUTO 12010KT 7SM 21/14 A3003 RMK T02100140 IEM_DS3505
ZGOW,2010-11-27 09:00,ZGOW 270900Z AUTO 11006KT 11SM 20/13 A3003 RMK SLP174 T01990127 52009 IEM_DS3505
ZGOW,2010-11-27 10:00,ZGOW 271000Z AUTO 09004KT 5SM 19/14 A3009 RMK T01900140 IEM_DS3505
ZGOW,2010-11-27 11:00,ZGOW 271100Z AUTO 08002KT 6SM 18/14 A3009 RMK T01800140 IEM_DS3505
ZGOW,2010-11-27 12:00,ZGOW 271200Z AUTO 09004KT 9SM 19/15 A3012 RMK SLP196 T01930152 52022 IEM_DS3505
ZGOW,2010-11-27 13:00,ZGOW 271300Z AUTO 07008KT 6SM 19/15 A3012 RMK T01900150 IEM_DS3505
ZGOW,2010-11-27 14:00,ZGOW 271400Z AUTO 08008KT 6SM 19/15 A3012 RMK T01900150 IEM_DS3505
ZGOW,2010-11-27 15:00,ZGOW 271500Z AUTO 07008KT 9SM 19/14 A3012 RMK SLP198 T01890144 52002 IEM_DS3505
ZGOW,2010-11-27 16:00,ZGOW 271600Z AUTO 05008KT 6SM 18/14 A3012 RMK T01800140 IEM_DS3505
ZGOW,2010-11-27 17:00,ZGOW 271700Z AUTO 02004KT 5SM 17/13 A3012 RMK T01700130 IEM_DS3505
ZGOW,2010-11-27 18:00,ZGOW 271800Z AUTO 07002KT 7SM 18/14 A3009 RMK SLP191 T01760141 57007 IEM_DS3505
ZGOW,2010-11-27 20:00,ZGOW 272000Z AUTO 29002KT 3SM 16/14 A3009 RMK T01600140 IEM_DS3505
ZGOW,2010-11-27 21:00,ZGOW 272100Z AUTO 00000KT 5SM 16/14 A3006 RMK SLP185 T01600145 57006 IEM_DS3505
ZGOW,2010-11-27 22:00,ZGOW 272200Z AUTO 31006KT 3SM 17/15 A3009 RMK T01700150 IEM_DS3505
ZGOW,2010-11-27 23:00,ZGOW 272300Z AUTO 33004KT 2 1/2SM 17/14 A3012 RMK T01700140 IEM_DS3505
ZGOW,2010-11-28 00:00,ZGOW 280000Z AUTO 29002KT 5SM 18/14 A3012 RMK SLP203 T01820145 52018 IEM_DS3505
ZGOW,2010-11-28 01:00,ZGOW 280100Z AUTO 05002KT 4SM 21/14 A3015 RMK T02100140 IEM_DS3505
ZGOW,2010-11-28 02:00,ZGOW 280200Z AUTO 02002KT 6SM 22/14 A3015 RMK T02200140 IEM_DS3505
ZGOW,2010-11-28 03:00,ZGOW 280300Z AUTO 09006KT 7SM 23/13 A3012 RMK SLP202 T02310133 57001 IEM_DS3505
ZGOW,2010-11-28 04:00,ZGOW 280400Z AUTO 06010KT 6SM 24/14 A3009 RMK T02400140 IEM_DS3505
ZGOW,2010-11-28 05:00,ZGOW 280500Z AUTO 10006KT 6SM 24/14 A3006 RMK T02400140 IEM_DS3505
ZGOW,2010-11-28 06:00,ZGOW 280600Z AUTO 14006KT 9SM 23/14 A3003 RMK SLP173 T02320139 57029 IEM_DS3505
ZGOW,2010-11-28 07:00,ZGOW 280700Z AUTO 12010KT 6SM 23/15 A3003 RMK T02300150 IEM_DS3505
ZGOW,2010-11-28 08:00,ZGOW 280800Z AUTO 12010KT 6SM 22/16 A3003 RMK T02200160 IEM_DS3505
ZGOW,2010-11-28 09:00,ZGOW 280900Z AUTO 11008KT 9SM 21/15 A3006 RMK SLP179 T02080151 52006 IEM_DS3505
ZGOW,2010-11-28 10:00,ZGOW 281000Z AUTO 08010KT 6SM 20/15 A3009 RMK T02000150 IEM_DS3505
ZGOW,2010-11-28 11:00,ZGOW 281100Z AUTO 08010KT 6SM 19/16 A3009 RMK T01900160 IEM_DS3505
ZGOW,2010-11-28 12:00,ZGOW 281200Z AUTO 07006KT 7SM 20/16 A3012 RMK SLP195 T01950156 52016 IEM_DS3505
ZGOW,2010-11-28 13:00,ZGOW 281300Z AUTO 07012KT 6SM 19/15 A3012 RMK T01900150 IEM_DS3505
ZGOW,2010-11-28 14:00,ZGOW 281400Z AUTO 08010KT 6SM 19/15 A3012 RMK T01900150 IEM_DS3505
ZGOW,2010-11-28 15:00,ZGOW 281500Z AUTO 07006KT 7SM 19/15 A3012 RMK SLP199 T01910154 52004 IEM_DS3505
ZGOW,2010-11-28 16:00,ZGOW 281600Z AUTO 08008KT 6SM 18/15 A3012 RMK T01800150 IEM_DS3505
ZGOW,2010-11-28 17:00,ZGOW 281700Z AUTO 04004KT 6SM 17/15 A3012 RMK T01700150 IEM_DS3505
ZGOW,2010-11-28 18:00,ZGOW 281800Z AUTO 04002KT 7SM 18/16 RMK SLP188 T01820155 57011 IEM_DS3505
ZGOW,2010-11-28 20:00,ZGOW 282000Z AUTO 00000KT 3SM 17/15 A3006 RMK T01700150 IEM_DS3505
ZGOW,2010-11-28 21:00,ZGOW 282100Z AUTO 00000KT 6SM 17/15 A3006 RMK SLP180 T01670152 57008 IEM_DS3505
ZGOW,2010-11-28 22:00,ZGOW 282200Z AUTO 36002KT 3SM 17/15 A3009 RMK T01700150 IEM_DS3505
ZGOW,2010-11-28 23:00,ZGOW 282300Z AUTO 03002KT 2 1/2SM 16/15 A3009 RMK T01600150 IEM_DS3505
ZGOW,2010-11-29 00:00,ZGOW 290000Z AUTO 00000KT 4SM 18/16 A3012 RMK SLP196 T01850159 52016 IEM_DS3505
ZGOW,2010-11-29 01:00,ZGOW 290100Z AUTO 05006KT 3SM 20/16 A3012 RMK T02000160 IEM_DS3505
ZGOW,2010-11-29 02:00,ZGOW 290200Z AUTO 07006KT 4SM 21/15 A3012 RMK T02100150 IEM_DS3505
ZGOW,2010-11-29 03:00,ZGOW 290300Z AUTO 07006KT 7SM 22/16 A3009 RMK SLP187 T02220156 57009 IEM_DS3505
ZGOW,2010-11-29 04:00,ZGOW 290400Z AUTO 09008KT 5SM 22/15 A3006 RMK T02200150 IEM_DS3505
ZGOW,2010-11-29 05:00,ZGOW 290500Z AUTO 10006KT 4SM 22/15 A3000 RMK T02200150 IEM_DS3505
ZGOW,2010-11-29 06:00,ZGOW 290600Z AUTO 04002KT 7SM 23/15 A3000 RMK SLP154 T02340152 57033 IEM_DS3505
ZGOW,2010-11-29 07:00,ZGOW 290700Z AUTO 08006KT 4SM 22/15 A3000 RMK T02200150 IEM_DS3505
ZGOW,2010-11-29 08:00,ZGOW 290800Z AUTO 13008KT 6SM 21/16 A3000 RMK T02100160 IEM_DS3505
ZGOW,2010-11-29 09:00,ZGOW 290900Z AUTO 11006KT 7SM 20/16 A3000 RMK SLP159 T02040162 52005 IEM_DS3505
ZGOW,2010-11-29 10:00,ZGOW 291000Z AUTO 12008KT 4SM 19/16 A3003 RMK T01900160 IEM_DS3505
ZGOW,2010-11-29 11:00,ZGOW 291100Z AUTO 05004KT 6SM 18/16 A3003 RMK T01800160 IEM_DS3505
ZGOW,2010-11-29 12:00,ZGOW 291200Z AUTO 09002KT 7SM 19/16 A3006 RMK SLP175 T01930165 52016 IEM_DS3505
ZGOW,2010-11-29 13:00,ZGOW 291300Z AUTO 07008KT 7SM 19/16 A3006 RMK T01900160 IEM_DS3505
ZGOW,2010-11-29 14:00,ZGOW 291400Z AUTO 07010KT 7SM 19/16 A3006 RMK T01900160 IEM_DS3505
ZGOW,2010-11-29 15:00,ZGOW 291500Z AUTO 07004KT 7SM 19/16 A3006 RMK SLP180 T01930163 52005 IEM_DS3505
ZGOW,2010-11-29 16:00,ZGOW 291600Z AUTO 07008KT 7SM 19/16 A3006 RMK T01900160 IEM_DS3505
ZGOW,2010-11-29 17:00,ZGOW 291700Z AUTO 07006KT 7SM 19/16 A3003 RMK T01900160 IEM_DS3505
ZGOW,2010-11-29 18:00,ZGOW 291800Z AUTO 07004KT 7SM 19/16 A3003 RMK SLP166 T01910161 57014 IEM_DS3505
ZGOW,2010-11-29 19:00,ZGOW 291900Z AUTO 31002KT 2 1/2SM 19/16 A3000 RMK T01900160 IEM_DS3505
ZGOW,2010-11-29 20:00,ZGOW 292000Z AUTO 01002KT 2 1/2SM 19/16 A3000 RMK T01900160 IEM_DS3505
ZGOW,2010-11-29 21:00,ZGOW 292100Z AUTO 00000KT 6SM 19/16 A3000 RMK SLP159 T01890161 57007 IEM_DS3505
ZGOW,2010-11-29 22:00,ZGOW 292200Z AUTO 00000KT 2 1/2SM 19/16 A3000 RMK T01900160 IEM_DS3505
ZGOW,2010-11-29 23:00,ZGOW 292300Z AUTO 08002KT 2SM 19/16 A3003 RMK T01900160 IEM_DS3505
ZGOW,2010-11-30 00:00,ZGOW 300000Z AUTO 07002KT 5SM 19/16 A3006 RMK SLP173 T01920161 52014 IEM_DS3505
ZGOW,2010-11-30 01:00,ZGOW 300100Z AUTO 07004KT 2SM 20/16 A3006 RMK T02000160 IEM_DS3505
ZGOW,2010-11-30 02:00,ZGOW 300200Z AUTO 34004KT 2SM 22/16 A3006 RMK T02200160 IEM_DS3505
ZGOW,2010-11-30 03:00,ZGOW 300300Z AUTO 07002KT 4SM 23/17 A3003 RMK SLP167 T02310166 57006 IEM_DS3505
ZGOW,2010-11-30 04:00,ZGOW 300400Z AUTO 33006KT 2 1/2SM 23/16 A3000 RMK T02300160 IEM_DS3505
ZGOW,2010-11-30 05:00,ZGOW 300500Z AUTO 02004KT 2 1/2SM 25/16 A2997 RMK T02500160 IEM_DS3505
ZGOW,2010-11-30 06:00,ZGOW 300600Z AUTO 18002KT 5SM 25/16 A2991 RMK SLP134 T02490163 57033 IEM_DS3505
ZGOW,2010-11-30 07:00,ZGOW 300700Z AUTO 13006KT 2 1/2SM 24/17 A2991 RMK T02400170 IEM_DS3505
ZGOW,2010-11-30 08:00,ZGOW 300800Z AUTO 13006KT 2 1/2SM 22/17 A2991 RMK T02200170 IEM_DS3505
ZGOW,2010-11-30 09:00,ZGOW 300900Z AUTO 11004KT 5SM 22/18 A2994 RMK SLP135 T02190175 52001 IEM_DS3505
ZGOW,2010-11-30 10:00,ZGOW 301000Z AUTO 12004KT 2SM 20/17 A2997 RMK T02000170 IEM_DS3505
ZGOW,2010-11-30 11:00,ZGOW 301100Z AUTO 13004KT 2SM 19/17 A2997 RMK T01900170 IEM_DS3505
ZGOW,2010-11-30 12:00,ZGOW 301200Z AUTO 07002KT 5SM 20/18 A3000 RMK SLP159 T02040176 52024 IEM_DS3505
ZGOW,2010-11-30 13:00,ZGOW 301300Z AUTO 04008KT 2SM 19/17 A3000 RMK T01900170 IEM_DS3505
ZGOW,2010-11-30 14:00,ZGOW 301400Z AUTO 07008KT 2 1/2SM 19/16 A3003 RMK T01900160 IEM_DS3505
ZGOW,2010-11-30 15:00,ZGOW 301500Z AUTO 09008KT 6SM 20/16 A3003 RMK SLP161 T01990163 52002 IEM_DS3505
ZGOW,2010-11-30 16:00,ZGOW 301600Z AUTO 08014KT 4SM 19/16 A3000 RMK T01900160 IEM_DS3505
ZGOW,2010-11-30 17:00,ZGOW 301700Z AUTO 07016KT 5SM 19/16 A3000 RMK T01900160 IEM_DS3505
ZGOW,2010-11-30 18:00,ZGOW 301800Z AUTO 08010KT 7SM 19/16 A3000 RMK T01900160 IEM_DS3505
ZGOW,2010-11-30 19:00,ZGOW 301900Z AUTO 08006KT 5SM 19/16 A3000 RMK T01900160 IEM_DS3505
ZGOW,2010-11-30 20:00,ZGOW 302000Z AUTO 06006KT 4SM 19/16 A3000 RMK T01900160 IEM_DS3505
ZGOW,2010-11-30 21:00,ZGOW 302100Z AUTO 04002KT 9SM 19/16 A3000 RMK SLP156 T01940162 57002 IEM_DS3505
ZGOW,2010-11-30 22:00,ZGOW 302200Z AUTO 34002KT 4SM 19/15 A3000 RMK T01900150 IEM_DS3505
ZGOW,2010-11-30 23:00,ZGOW 302300Z AUTO 32002KT 4SM 19/15 A3003 RMK T01900150 IEM_DS3505
ZGOW,2010-12-01 00:00,ZGOW 010000Z 34001MPS 8000 SCT030 19/15 Q1017 NOSIG
ZGOW,2010-12-01 01:00,ZGOW 010100Z 32002MPS 8000 BKN033 20/15 Q1017 NOSIG
ZGOW,2010-12-01 02:00,ZGOW 010200Z 30003MPS 7000 BKN033 21/15 Q1018 NOSIG
ZGOW,2010-12-01 03:00,ZGOW 010300Z 35002MPS 7000 SCT024 BKN050 22/15 Q1017 NOSIG
ZGOW,2010-12-01 04:00,ZGOW 010400Z 04001MPS 6000 SCT024 BKN050 23/15 Q1016 NOSIG
ZGOW,2010-12-01 05:00,ZGOW 010500Z 09002MPS 8000 SCT026 23/16 Q1015 NOSIG
ZGOW,2010-12-01 06:00,ZGOW 010600Z 12001MPS 9999 SCT030 23/15 Q1014 NOSIG
ZGOW,2010-12-01 07:00,ZGOW 010700Z 14003MPS 9999 SCT030 22/16 Q1014 NOSIG
ZGOW,2010-12-01 08:00,ZGOW 010800Z 14002MPS 9999 FEW030 22/16 Q1014 NOSIG
ZGOW,2010-12-01 09:00,ZGOW 010900Z 12002MPS CAVOK 21/16 Q1014 NOSIG
ZGOW,2010-12-01 10:00,ZGOW 011000Z 12002MPS 7000 NSC 20/16 Q1015 NOSIG
ZGOW,2010-12-01 11:00,ZGOW 011100Z 12001MPS 7000 NSC 19/16 Q1015 NOSIG
ZGOW,2010-12-01 12:00,ZGOW 011200Z 09001MPS CAVOK 19/16 Q1016 NOSIG
ZGOW,2010-12-01 13:00,ZGOW 011300Z 08002MPS 9999 SCT033 19/16 Q1016 NOSIG
ZGOW,2010-12-01 14:00,ZGOW 011400Z 07003MPS 9999 BKN030 20/16 Q1017 NOSIG
ZGOW,2010-12-01 15:00,ZGOW 011500Z 07004MPS 9999 BKN033 20/16 Q1017 NOSIG
ZGOW,2010-12-01 16:00,ZGOW 011600Z 06003MPS 9999 SCT020 BKN040 20/17 Q1017 NOSIG
ZGOW,2010-12-01 17:00,ZGOW 011700Z 06003MPS 9999 SCT018 BKN040 19/16 Q1017 NOSIG
ZGOW,2010-12-01 18:00,ZGOW 011800Z AUTO 09002MPS 5000 ////// 19/16 Q1016
ZGOW,2010-12-01 19:00,ZGOW 011900Z AUTO 05002MPS 4400 // ////// 18/15 Q1016
ZGOW,2010-12-01 20:00,ZGOW 012000Z 36001MPS 7000 SKC 18/16 Q1016 NOSIG
ZGOW,2010-12-01 21:00,ZGOW 012100Z 34001MPS 5000 BR SKC 18/16 Q1016 NOSIG
ZGOW,2010-12-01 22:00,ZGOW 012200Z 33001MPS 5000 BR SKC 17/14 Q1016 NOSIG
ZGOW,2010-12-01 23:00,ZGOW 012300Z 32002MPS 4000 BR SKC 17/15 Q1017 NOSIG
ZGOW,2010-12-02 00:00,ZGOW 020000Z 32002MPS 4000 BR NSC 18/15 Q1018 NOSIG
ZGOW,2010-12-02 01:00,ZGOW 020100Z 32002MPS 3500 BR SKC 20/16 Q1018 NOSIG
ZGOW,2010-12-02 02:00,ZGOW 020200Z 34002MPS 4000 BR SKC 21/15 Q1018 NOSIG
ZGOW,2010-12-02 03:00,ZGOW 020300Z 33003MPS 6000 SKC 23/14 Q1018 NOSIG
ZGOW,2010-12-02 04:00,ZGOW 020400Z 33001MPS 6000 SKC 24/14 Q1017 NOSIG
ZGOW,2010-12-02 05:00,ZGOW 020500Z 32002MPS 6000 SKC 25/13 Q1015 NOSIG
ZGOW,2010-12-02 06:00,ZGOW 020600Z 32002MPS 6000 SKC 26/14 Q1015 NOSIG
ZGOW,2010-12-02 07:00,ZGOW 020700Z 04002MPS 4000 HZ SKC 26/14 Q1014 NOSIG
ZGOW,2010-12-02 08:00,ZGOW 020800Z 13003MPS 3500 HZ SKC 24/15 Q1015 NOSIG
ZGOW,2010-12-02 09:00,ZGOW 020900Z 12002MPS 2500 R04/1300VP2000U FU SKC 23/15 Q1015 NOSIG
ZGOW,2010-12-02 10:00,ZGOW 021000Z 09001MPS 2200 FU BR SKC 21/17 Q1016 NOSIG
ZGOW,2010-12-02 11:00,ZGOW 021100Z 00000MPS 3200 BR SKC 19/16 Q1017 NOSIG
ZGOW,2010-12-02 12:00,ZGOW 021200Z 18001MPS 4000 BR SKC 20/16 Q1017 NOSIG
ZGOW,2010-12-02 13:00,ZGOW 021300Z 18001MPS 4000 BR SKC 20/17 Q1018 NOSIG
ZGOW,2010-12-02 14:00,ZGOW 021400Z 10001MPS 2500 R04/1200U BR SKC 19/16 Q1018 NOSIG
ZGOW,2010-12-02 15:00,ZGOW 021500Z 01002MPS 6000 SKC 18/13 Q1019 NOSIG
ZGOW,2010-12-02 16:00,ZGOW 021600Z 03003MPS 6000 SKC 18/12 Q1019 NOSIG
ZGOW,2010-12-02 17:00,ZGOW 021700Z 03002MPS 7000 SKC 17/12 Q1019 NOSIG
ZGOW,2010-12-02 18:00,ZGOW 021800Z AUTO 09002KT 6SM 18/12 RMK SLP190 T01800118 52003 IEM_DS3505
ZGOW,2010-12-02 19:00,ZGOW 021900Z AUTO 33002MPS 4300 // NCD 18/12 Q1019
ZGOW,2010-12-02 20:00,ZGOW 022000Z 35001MPS 4000 HZ SKC 17/11 Q1019 NOSIG
ZGOW,2010-12-02 21:00,ZGOW 022100Z 35001MPS 4000 HZ SKC 16/11 Q1019 NOSIG
ZGOW,2010-12-02 22:00,ZGOW 022200Z 32001MPS 4000 HZ SKC 16/11 Q1020 NOSIG
ZGOW,2010-12-02 23:00,ZGOW 022300Z 29001MPS 3500 BR SKC 16/12 Q1020 NOSIG
ZGOW,2010-12-03 00:00,ZGOW 030000Z 31001MPS 4000 HZ SKC 17/12 Q1021 NOSIG
ZGOW,2010-12-03 01:00,ZGOW 030100Z 30001MPS 4500 HZ SKC 19/12 Q1021 NOSIG
ZGOW,2010-12-03 02:00,ZGOW 030200Z 05003MPS 6000 SKC 22/11 Q1021 NOSIG
ZGOW,2010-12-03 03:00,ZGOW 030300Z 07006MPS CAVOK 23/12 Q1021 NOSIG
ZGOW,2010-12-03 04:00,ZGOW 030400Z 08008MPS CAVOK 24/10 Q1020 NOSIG
ZGOW,2010-12-03 05:00,ZGOW 030500Z 08006MPS CAVOK 24/10 Q1019 NOSIG
ZGOW,2010-12-03 06:00,ZGOW 030600Z 08008MPS CAVOK 24/10 Q1018 NOSIG
ZGOW,2010-12-03 07:00,ZGOW 030700Z 09008MPS CAVOK 23/11 Q1018 NOSIG
ZGOW,2010-12-03 08:00,ZGOW 030800Z 08007MPS CAVOK 22/11 Q1018 NOSIG
ZGOW,2010-12-03 09:00,ZGOW 030900Z 08007MPS CAVOK 21/10 Q1018 NOSIG
ZGOW,2010-12-03 10:00,ZGOW 031000Z 08008MPS CAVOK 20/11 Q1019 NOSIG
ZGOW,2010-12-03 11:00,ZGOW 031100Z 08007G12MPS CAVOK 19/11 Q1019 NOSIG
ZGOW,2010-12-03 12:00,ZGOW 031200Z 08007MPS CAVOK 19/10 Q1020 NOSIG
ZGOW,2010-12-03 13:00,ZGOW 031300Z 08006MPS CAVOK 18/11 Q1020 NOSIG
ZGOW,2010-12-03 14:00,ZGOW 031400Z 09006MPS CAVOK 18/12 Q1020 NOSIG
ZGOW,2010-12-03 15:00,ZGOW 031500Z 08006MPS CAVOK 18/12 Q1020 NOSIG
ZGOW,2010-12-03 16:00,ZGOW 031600Z AUTO 09010KT 6SM 17/11 A3012 RMK T01700110 IEM_DS3505
ZGOW,2010-12-03 17:00,ZGOW 031700Z 08005MPS CAVOK 16/11 Q1020 NOSIG
ZGOW,2010-12-03 18:00,ZGOW 031800Z AUTO 07006KT 7SM 17/08 RMK SLP194 T01680085 57008 IEM_DS3505
ZGOW,2010-12-03 19:00,ZGOW 031900Z AUTO 07005MPS 4800 // NCD 16/09 Q1019
ZGOW,2010-12-03 20:00,ZGOW 032000Z 06004MPS 8000 NSC 15/09 Q1019 NOSIG
ZGOW,2010-12-03 21:00,ZGOW 032100Z 05002MPS 8000 NSC 14/09 Q1020 NOSIG
ZGOW,2010-12-03 22:00,ZGOW 032200Z 03003MPS 6000 NSC 13/09 Q1020 NOSIG
ZGOW,2010-12-03 23:00,ZGOW 032300Z 02003MPS 4000 HZ NSC 15/09 Q1020 NOSIG
ZGOW,2010-12-04 00:00,ZGOW 040000Z 02003MPS 4000 HZ NSC 16/09 Q1021 NOSIG
ZGOW,2010-12-04 01:00,ZGOW 040100Z 02003MPS 5000 HZ NSC 18/08 Q1021 NOSIG
ZGOW,2010-12-04 02:00,ZGOW 040200Z 05003MPS 7000 NSC 20/08 Q1021 NOSIG
ZGOW,2010-12-04 03:00,ZGOW 040300Z 07003MPS CAVOK 21/07 Q1020 NOSIG
ZGOW,2010-12-04 04:00,ZGOW 040400Z 08004MPS CAVOK 22/09 Q1019 NOSIG
ZGOW,2010-12-04 05:00,ZGOW 040500Z 07003MPS CAVOK 22/11 Q1018 NOSIG
ZGOW,2010-12-04 06:00,ZGOW 040600Z 06003MPS CAVOK 23/09 Q1016 NOSIG
ZGOW,2010-12-04 07:00,ZGOW 040700Z 09003MPS 9999 FEW046 22/12 Q1016 NOSIG
ZGOW,2010-12-04 08:00,ZGOW 040800Z 08003MPS CAVOK 22/12 Q1016 NOSIG
ZGOW,2010-12-04 09:00,ZGOW 040900Z 16003MPS CAVOK 20/13 Q1016 NOSIG
ZGOW,2010-12-04 10:00,ZGOW 041000Z 12002MPS 7000 FEW040 19/14 Q1016 NOSIG
ZGOW,2010-12-04 11:00,ZGOW 041100Z 10001MPS 7000 FEW040 18/14 Q1017 NOSIG
ZGOW,2010-12-04 12:00,ZGOW 041200Z 07004MPS CAVOK 18/14 Q1017 NOSIG
ZGOW,2010-12-04 13:00,ZGOW 041300Z 07006MPS CAVOK 19/14 Q1017 NOSIG
ZGOW,2010-12-04 14:00,ZGOW 041400Z 07005MPS CAVOK 19/15 Q1017 NOSIG
ZGOW,2010-12-04 15:00,ZGOW 041500Z 05004MPS 9999 BKN046 19/15 Q1017 NOSIG
ZGOW,2010-12-04 16:00,ZGOW 041600Z 06003MPS 9999 BKN046 18/15 Q1017 NOSIG
ZGOW,2010-12-04 17:00,ZGOW 041700Z 01002MPS 9999 BKN050 18/14 Q1017 NOSIG
ZGOW,2010-12-04 18:00,ZGOW 041800Z AUTO 03001MPS 4600 // NCD 17/14 Q1016
ZGOW,2010-12-04 19:00,ZGOW 041900Z AUTO 00000MPS 4600 // NCD 17/13 Q1016
ZGOW,2010-12-04 20:00,ZGOW 042000Z 33001MPS 5000 BR SKC 17/14 Q1016 NOSIG
ZGOW,2010-12-04 21:00,ZGOW 042100Z 34001MPS 5000 BR SKC 17/13 Q1016 NOSIG
ZGOW,2010-12-04 22:00,ZGOW 042200Z 31001MPS 4000 BR FEW050 16/14 Q1016 NOSIG
ZGOW,2010-12-04 23:00,ZGOW 042300Z 32001MPS 4000 BR FEW026 16/14 Q1017 NOSIG
ZGOW,2010-12-05 00:00,ZGOW 050000Z 31002MPS 3500 BR SCT040 17/14 Q1017 NOSIG
ZGOW,2010-12-05 01:00,ZGOW 050100Z 32003MPS 3200 HZ FEW050 19/14 Q1018 NOSIG
ZGOW,2010-12-05 02:00,ZGOW 050200Z 32002MPS 4000 HZ FEW050 21/14 Q1017 NOSIG
ZGOW,2010-12-05 03:00,ZGOW 050300Z 02002MPS 5000 HZ FEW050 23/12 Q1016 NOSIG
ZGOW,2010-12-05 04:00,ZGOW 050400Z 12002MPS 6000 SCT050 25/13 Q1015 NOSIG
ZGOW,2010-12-05 05:00,ZGOW 050500Z 10002MPS 6000 NSC 25/12 Q1014 NOSIG
ZGOW,2010-12-05 06:00,ZGOW 050600Z 13003MPS 7000 SKC 25/12 Q1013 NOSIG
ZGOW,2010-12-05 07:00,ZGOW 050700Z 12002MPS 5000 HZ SKC 24/14 Q1013 NOSIG
ZGOW,2010-12-05 08:00,ZGOW 050800Z 12002MPS 5000 HZ SKC 23/16 Q1012 NOSIG
ZGOW,2010-12-05 09:00,ZGOW 050900Z 14003MPS 4000 HZ SKC 22/16 Q1013 NOSIG
ZGOW,2010-12-05 10:00,ZGOW 051000Z 13002MPS 3500 BR SKC 20/17 Q1013 NOSIG
ZGOW,2010-12-05 11:00,ZGOW 051100Z 13001MPS 5000 BR SKC 20/17 Q1014 NOSIG
ZGOW,2010-12-05 12:00,ZGOW 051200Z 08001MPS 4000 BR SKC 19/16 Q1014 NOSIG
ZGOW,2010-12-05 13:00,ZGOW 051300Z 08001MPS 3500 BR SKC 19/17 Q1015 NOSIG
ZGOW,2010-12-05 14:00,ZGOW 051400Z 00000MPS 3200 BR FEW050 19/17 Q1015 NOSIG
ZGOW,2010-12-05 15:00,ZGOW 051500Z 02001MPS 3200 BR SCT050 19/17 Q1015 NOSIG
ZGOW,2010-12-05 16:00,ZGOW 051600Z 02002MPS 3500 BR BKN050 19/17 Q1015 NOSIG
ZGOW,2010-12-05 17:00,ZGOW 051700Z AUTO 35002KT 2SM 20/17 A2997 RMK T02000170 IEM_DS3505
ZGOW,2010-12-05 18:00,ZGOW 051800Z AUTO 00000KT 5SM 19/17 A2997 RMK SLP148 T01910169 57004 IEM_DS3505
ZGOW,2010-12-05 19:00,ZGOW 051900Z AUTO 00000KT 1 1/4SM 19/16 A2997 RMK T01900160 IEM_DS3505
ZGOW,2010-12-05 20:00,ZGOW 052000Z AUTO 32002KT 2 1/2SM 19/16 A2994 RMK T01900160 IEM_DS3505
ZGOW,2010-12-05 21:00,ZGOW 052100Z AUTO 00000KT 5SM 18/16 A2997 RMK SLP149 T01840164 52001 IEM_DS3505
ZGOW,2010-12-05 22:00,ZGOW 052200Z AUTO 28002KT 2SM 19/16 A2997 RMK T01900160 IEM_DS3505
ZGOW,2010-12-05 23:00,ZGOW 052300Z 00000MPS 1300 R04/1100V1300N BR NSC 18/16 Q1016 BECMG TL2330 2000 BR
ZGOW,2010-12-06 00:00,ZGOW 060000Z 00000MPS 1800 R04/1400V1800U BR NSC 20/17 Q1016 BECMG TL0015 3200 BR
ZGOW,2010-12-06 01:00,ZGOW 060100Z 32001MPS 3000 HZ NSC 22/16 Q1017 NOSIG
ZGOW,2010-12-06 02:00,ZGOW 060200Z 11002MPS 2000 HZ NSC 23/17 Q1017 NOSIG
ZGOW,2010-12-06 03:00,ZGOW 060300Z 12003MPS 3500 HZ SKC 24/18 Q1017 NOSIG
ZGOW,2010-12-06 04:00,ZGOW 060400Z 12002MPS 4000 HZ SKC 24/17 Q1016 NOSIG
ZGOW,2010-12-06 05:00,ZGOW 060500Z 10002MPS 5000 HZ NSC 25/17 Q1014 NOSIG
ZGOW,2010-12-06 06:00,ZGOW 060600Z 10002MPS 6000 NSC 26/15 Q1014 NOSIG
ZGOW,2010-12-06 07:00,ZGOW 060700Z 13003MPS 6000 SKC 25/16 Q1013 NOSIG
ZGOW,2010-12-06 08:00,ZGOW 060800Z 12004MPS 3500 HZ FEW020 23/17 Q1014 NOSIG
ZGOW,2010-12-06 09:00,ZGOW 060900Z 08003MPS 4000 HZ NSC 23/16 Q1014 NOSIG
ZGOW,2010-12-06 10:00,ZGOW 061000Z 08005MPS 5000 HZ SCT050 21/15 Q1015 NOSIG
ZGOW,2010-12-06 11:00,ZGOW 061100Z 09004MPS 6000 SCT050 21/16 Q1016 NOSIG
ZGOW,2010-12-06 12:00,ZGOW 061200Z 09004MPS 7000 SCT043 20/15 Q1017 NOSIG
ZGOW,2010-12-06 13:00,ZGOW 061300Z 07009MPS 8000 NSC 21/13 Q1017 NOSIG
ZGOW,2010-12-06 14:00,ZGOW 061400Z 09006MPS 8000 NSC 20/13 Q1017 NOSIG
ZGOW,2010-12-06 15:00,ZGOW 061500Z 08002MPS 8000 NSC 19/13 Q1018 NOSIG
ZGOW,2010-12-06 16:00,ZGOW 061600Z 08003MPS 8000 SCT040 20/12 Q1018 NOSIG
ZGOW,2010-12-06 17:00,ZGOW 061700Z AUTO 08007MPS 7000 ////// 20/10 Q1018
ZGOW,2010-12-06 18:00,ZGOW 061800Z AUTO 09006KT 4SM 19/09 RMK SLP182 T01920088 52005 IEM_DS3505
ZGOW,2010-12-06 20:00,ZGOW 062000Z 04002MPS 4500 HZ SCT040 17/10 Q1019 NOSIG
ZGOW,2010-12-06 21:00,ZGOW 062100Z 04004MPS 4000 HZ SCT030 16/11 Q1019 NOSIG
ZGOW,2010-12-06 22:00,ZGOW 062200Z 03002MPS 4000 HZ SCT040 16/11 Q1020 NOSIG
ZGOW,2010-12-06 23:00,ZGOW 062300Z 01002MPS 3500 HZ NSC 16/11 Q1020 NOSIG
ZGOW,2010-12-07 00:00,ZGOW 070000Z 32002MPS 3200 HZ NSC 17/11 Q1021 NOSIG
ZGOW,2010-12-07 01:00,ZGOW 070100Z 35003MPS 3500 HZ NSC 18/11 Q1022 NOSIG
ZGOW,2010-12-07 02:00,ZGOW 070200Z 34004MPS 3500 HZ NSC 19/10 Q1021 NOSIG
ZGOW,2010-12-07 03:00,ZGOW 070300Z 35004MPS 3500 HZ NSC 20/10 Q1021 NOSIG
ZGOW,2010-12-07 04:00,ZGOW 070400Z 31005MPS 3200 HZ NSC 20/10 Q1019 NOSIG
ZGOW,2010-12-07 05:00,ZGOW 070500Z 32004MPS 3200 HZ NSC 21/09 Q1018 NOSIG
ZGOW,2010-12-07 06:00,ZGOW 070600Z 32005MPS 3500 HZ NSC 21/08 Q1017 NOSIG
ZGOW,2010-12-07 07:00,ZGOW 070700Z 31005MPS 4000 HZ SKC 21/06 Q1017 NOSIG
ZGOW,2010-12-07 08:00,ZGOW 070800Z 32005MPS 4500 HZ SKC 21/05 Q1017 NOSIG
ZGOW,2010-12-07 09:00,ZGOW 070900Z 33003MPS 4500 HZ SKC 19/04 Q1017 NOSIG
ZGOW,2010-12-07 10:00,ZGOW 071000Z 33003MPS 4500 HZ SKC 18/04 Q1018 NOSIG
ZGOW,2010-12-07 11:00,ZGOW 071100Z 34002MPS 5000 HZ SKC 18/04 Q1018 NOSIG
ZGOW,2010-12-07 12:00,ZGOW 071200Z 35002MPS 5000 HZ SKC 17/04 Q1019 NOSIG
ZGOW,2010-12-07 13:00,ZGOW 071300Z 35002MPS 5000 HZ SKC 16/03 Q1019 NOSIG
ZGOW,2010-12-07 14:00,ZGOW 071400Z 33003MPS 7000 SKC 16/02 Q1019 NOSIG
ZGOW,2010-12-07 15:00,ZGOW 071500Z 34003MPS 7000 SKC 15/01 Q1019 NOSIG
ZGOW,2010-12-07 16:00,ZGOW 071600Z 33003MPS 7000 SKC 14/01 Q1019 NOSIG
ZGOW,2010-12-07 17:00,ZGOW 071700Z 34003MPS CAVOK 14/00 Q1019 NOSIG
ZGOW,2010-12-07 18:00,ZGOW 071800Z AUTO 32004MPS CAVOK 14/M00 Q1019
ZGOW,2010-12-07 19:00,ZGOW 071900Z AUTO 33005MPS CAVOK 13/M02 Q1018
ZGOW,2010-12-07 20:00,ZGOW 072000Z 33004MPS CAVOK 13/M02 Q1019 NOSIG
ZGOW,2010-12-07 21:00,ZGOW 072100Z 31003MPS CAVOK 12/M02 Q1019 NOSIG
ZGOW,2010-12-07 22:00,ZGOW 072200Z 32003MPS CAVOK 11/M02 Q1019 NOSIG
ZGOW,2010-12-07 23:00,ZGOW 072300Z 32002MPS CAVOK 11/M02 Q1019 NOSIG
ZGOW,2010-12-08 00:00,ZGOW 080000Z 33002MPS CAVOK 12/M02 Q1020 NOSIG
ZGOW,2010-12-08 01:00,ZGOW 080100Z 32003MPS CAVOK 14/M03 Q1020 NOSIG
ZGOW,2010-12-08 02:00,ZGOW 080200Z 34002MPS CAVOK 16/M02 Q1019 NOSIG
ZGOW,2010-12-08 03:00,ZGOW 080300Z 01002MPS CAVOK 17/M04 Q1019 NOSIG
ZGOW,2010-12-08 04:00,ZGOW 080400Z 35001MPS CAVOK 18/M03 Q1018 NOSIG
ZGOW,2010-12-08 05:00,ZGOW 080500Z 35002MPS CAVOK 19/M05 Q1016 NOSIG
ZGOW,2010-12-08 06:00,ZGOW 080600Z 28002MPS CAVOK 19/M06 Q1015 NOSIG
ZGOW,2010-12-08 07:00,ZGOW 080700Z 14003MPS CAVOK 19/M00 Q1015 NOSIG
ZGOW,2010-12-08 08:00,ZGOW 080800Z 14003MPS CAVOK 18/00 Q1015 NOSIG
ZGOW,2010-12-08 09:00,ZGOW 080900Z 13002MPS CAVOK 16/02 Q1016 NOSIG
ZGOW,2010-12-08 10:00,ZGOW 081000Z 10001MPS CAVOK 15/03 Q1016 NOSIG
ZGOW,2010-12-08 11:00,ZGOW 081100Z 08001MPS CAVOK 14/04 Q1017 NOSIG
ZGOW,2010-12-08 12:00,ZGOW 081200Z 00000MPS CAVOK 14/06 Q1017 NOSIG
ZGOW,2010-12-08 13:00,ZGOW 081300Z 04001MPS CAVOK 13/06 Q1017 NOSIG
ZGOW,2010-12-08 14:00,ZGOW 081400Z 02001MPS 7000 NSC 12/07 Q1018 NOSIG
ZGOW,2010-12-08 15:00,ZGOW 081500Z 00000MPS 6000 NSC 12/08 Q1018 NOSIG
ZGOW,2010-12-08 16:00,ZGOW 081600Z 35001MPS 5000 HZ NSC 12/07 Q1018 NOSIG
ZGOW,2010-12-08 17:00,ZGOW 081700Z 33002MPS 5000 HZ NSC 12/05 Q1018 NOSIG
ZGOW,2010-12-08 18:00,ZGOW 081800Z AUTO 09002KT 5SM 11/05 RMK SLP178 T01140048 57004 IEM_DS3505
ZGOW,2010-12-08 20:00,ZGOW 082000Z 32003MPS CAVOK 10/04 Q1018 NOSIG
ZGOW,2010-12-08 21:00,ZGOW 082100Z 32002MPS CAVOK 10/04 Q1018 NOSIG
ZGOW,2010-12-08 22:00,ZGOW 082200Z 32002MPS CAVOK 09/04 Q1018 NOSIG
ZGOW,2010-12-08 23:00,ZGOW 082300Z 32002MPS CAVOK 09/04 Q1018 NOSIG
ZGOW,2010-12-09 00:00,ZGOW 090000Z 31001MPS CAVOK 11/04 Q1019 NOSIG
ZGOW,2010-12-09 01:00,ZGOW 090100Z 35002MPS CAVOK 13/04 Q1019 NOSIG
ZGOW,2010-12-09 02:00,ZGOW 090200Z 03003MPS CAVOK 16/01 Q1019 NOSIG
ZGOW,2010-12-09 03:00,ZGOW 090300Z 06004MPS CAVOK 18/00 Q1019 NOSIG
ZGOW,2010-12-09 04:00,ZGOW 090400Z 08005MPS CAVOK 19/00 Q1018 NOSIG
ZGOW,2010-12-09 05:00,ZGOW 090500Z 08007MPS CAVOK 20/03 Q1016 NOSIG
ZGOW,2010-12-09 06:00,ZGOW 090600Z 08007MPS CAVOK 20/06 Q1015 NOSIG
ZGOW,2010-12-09 07:00,ZGOW 090700Z 08006MPS CAVOK 20/07 Q1015 NOSIG
ZGOW,2010-12-09 08:00,ZGOW 090800Z 08004MPS CAVOK 19/08 Q1015 NOSIG
ZGOW,2010-12-09 09:00,ZGOW 090900Z 10003MPS CAVOK 18/08 Q1015 NOSIG
ZGOW,2010-12-09 10:00,ZGOW 091000Z 08002MPS CAVOK 15/08 Q1016 NOSIG
ZGOW,2010-12-09 11:00,ZGOW 091100Z 07002MPS CAVOK 14/09 Q1016 NOSIG
ZGOW,2010-12-09 12:00,ZGOW 091200Z 08002MPS CAVOK 14/09 Q1017 NOSIG
ZGOW,2010-12-09 13:00,ZGOW 091300Z 06004MPS CAVOK 14/09 Q1017 NOSIG
ZGOW,2010-12-09 14:00,ZGOW 091400Z 04002MPS CAVOK 14/09 Q1018 NOSIG
ZGOW,2010-12-09 15:00,ZGOW 091500Z 05004MPS CAVOK 13/09 Q1017 NOSIG
ZGOW,2010-12-09 16:00,ZGOW 091600Z 03004MPS CAVOK 13/09 Q1017 NOSIG
ZGOW,2010-12-09 17:00,ZGOW 091700Z 04003MPS 9999 SCT040 13/09 Q1016 NOSIG
ZGOW,2010-12-09 18:00,ZGOW 091800Z AUTO 01003MPS 9000 ////// 15/08 Q1016
ZGOW,2010-12-09 19:00,ZGOW 091900Z AUTO 35002MPS 8000 ////// 15/08 Q1016
ZGOW,2010-12-09 20:00,ZGOW 092000Z 32001MPS 9999 SCT040 14/08 Q1015 NOSIG
ZGOW,2010-12-09 21:00,ZGOW 092100Z 34002MPS 9999 SCT040 14/07 Q1015 NOSIG
ZGOW,2010-12-09 22:00,ZGOW 092200Z 32002MPS 9999 SCT040 14/07 Q1016 NOSIG
ZGOW,2010-12-09 23:00,ZGOW 092300Z 33002MPS 7000 SCT046 14/08 Q1017 NOSIG
ZGOW,2010-12-10 00:00,ZGOW 100000Z 35001MPS 6000 SCT020 15/08 Q1017 NOSIG
ZGOW,2010-12-10 01:00,ZGOW 100100Z 02001MPS 6000 NSC 15/08 Q1017 NOSIG
ZGOW,2010-12-10 02:00,ZGOW 100200Z 04001MPS 6000 NSC 17/07 Q1017 NOSIG
ZGOW,2010-12-10 03:00,ZGOW 100300Z 05002MPS 6000 NSC 18/07 Q1017 NOSIG
ZGOW,2010-12-10 04:00,ZGOW 100400Z 07004MPS 8000 NSC 19/07 Q1015 NOSIG
ZGOW,2010-12-10 05:00,ZGOW 100500Z 06004MPS 6000 NSC 19/08 Q1014 NOSIG
ZGOW,2010-12-10 06:00,ZGOW 100600Z 06002MPS 6000 BKN040 19/08 Q1013 NOSIG
ZGOW,2010-12-10 07:00,ZGOW 100700Z 07004MPS 8000 NSC 19/07 Q1013 NOSIG
ZGOW,2010-12-10 08:00,ZGOW 100800Z 05003MPS 8000 NSC 18/08 Q1013 NOSIG
ZGOW,2010-12-10 09:00,ZGOW 100900Z 06003MPS 8000 NSC 18/08 Q1013 NOSIG
ZGOW,2010-12-10 10:00,ZGOW 101000Z 06002MPS 7000 NSC 17/09 Q1014 NOSIG
ZGOW,2010-12-10 11:00,ZGOW 101100Z 07001MPS 7000 SCT040 17/10 Q1014 NOSIG
ZGOW,2010-12-10 12:00,ZGOW 101200Z 03002MPS 6000 NSC 17/10 Q1014 NOSIG
ZGOW,2010-12-10 13:00,ZGOW 101300Z 03002MPS 6000 SCT033 17/10 Q1015 NOSIG
ZGOW,2010-12-10 14:00,ZGOW 101400Z 04002MPS 5000 HZ NSC 17/09 Q1015 NOSIG
ZGOW,2010-12-10 15:00,ZGOW 101500Z 04002MPS 5000 HZ SCT033 16/10 Q1015 NOSIG
ZGOW,2010-12-10 16:00,ZGOW 101600Z 35002MPS 5000 HZ SCT033 17/10 Q1015 NOSIG
ZGOW,2010-12-10 17:00,ZGOW 101700Z 36002MPS 5000 HZ BKN033 17/10 Q1015 NOSIG
ZGOW,2010-12-10 18:00,ZGOW 101800Z AUTO 02003MPS 5000 ////// 17/10 Q1014
ZGOW,2010-12-10 19:00,ZGOW 101900Z AUTO 01002MPS 5000 ////// 17/10 Q1015
ZGOW,2010-12-10 20:00,ZGOW 102000Z 02003MPS 5000 HZ BKN033 17/09 Q1015 NOSIG
ZGOW,2010-12-10 21:00,ZGOW 102100Z 01001MPS 6000 NSC 16/10 Q1015 NOSIG
ZGOW,2010-12-10 22:00,ZGOW 102200Z 34001MPS 6000 NSC 16/10 Q1015 NOSIG
ZGOW,2010-12-10 23:00,ZGOW 102300Z 32001MPS 6000 NSC 16/10 Q1015 NOSIG
ZGOW,2010-12-11 00:00,ZGOW 110000Z 35001MPS 5000 HZ NSC 17/11 Q1016 NOSIG
ZGOW,2010-12-11 01:00,ZGOW 110100Z 04002MPS 5000 HZ BKN050 18/10 Q1016 NOSIG
ZGOW,2010-12-11 02:00,ZGOW 110200Z 04003MPS 7000 NSC 19/10 Q1016 NOSIG
ZGOW,2010-12-11 03:00,ZGOW 110300Z 07003MPS CAVOK 20/10 Q1016 NOSIG
ZGOW,2010-12-11 04:00,ZGOW 110400Z 07006MPS CAVOK 21/09 Q1014 NOSIG
ZGOW,2010-12-11 05:00,ZGOW 110500Z 06007MPS CAVOK 22/08 Q1013 NOSIG
ZGOW,2010-12-11 06:00,ZGOW 110600Z 07006MPS CAVOK 21/08 Q1012 NOSIG
ZGOW,2010-12-11 07:00,ZGOW 110700Z 08005MPS CAVOK 21/10 Q1012 NOSIG
ZGOW,2010-12-11 08:00,ZGOW 110800Z 08005MPS CAVOK 20/11 Q1012 NOSIG
ZGOW,2010-12-11 09:00,ZGOW 110900Z 08005MPS CAVOK 20/11 Q1012 NOSIG
ZGOW,2010-12-11 10:00,ZGOW 111000Z 08005MPS 7000 NSC 19/12 Q1013 NOSIG
ZGOW,2010-12-11 11:00,ZGOW 111100Z 08005MPS CAVOK 19/12 Q1013 NOSIG
ZGOW,2010-12-11 12:00,ZGOW 111200Z 08006MPS CAVOK 19/13 Q1014 NOSIG
ZGOW,2010-12-11 13:00,ZGOW 111300Z 07007MPS CAVOK 18/13 Q1014 NOSIG
ZGOW,2010-12-11 14:00,ZGOW 111400Z 08007G12MPS 9999 FEW020 18/12 Q1015 NOSIG
ZGOW,2010-12-11 15:00,ZGOW 111500Z 08009MPS 9999 FEW020 18/11 Q1014 NOSIG
ZGOW,2010-12-11 16:00,ZGOW 111600Z 07007MPS CAVOK 18/10 Q1014 NOSIG
ZGOW,2010-12-11 17:00,ZGOW 111700Z 06007MPS 9999 BKN050 18/10 Q1014 NOSIG
ZGOW,2010-12-11 18:00,ZGOW 111800Z AUTO 07010KT 9SM 18/09 RMK SLP128 T01790093 57014 IEM_DS3505
ZGOW,2010-12-11 20:00,ZGOW 112000Z 08005MPS 9999 BKN050 17/12 Q1012 NOSIG
ZGOW,2010-12-11 21:00,ZGOW 112100Z 07006MPS 9999 SCT050 17/12 Q1012 NOSIG
ZGOW,2010-12-11 22:00,ZGOW 112200Z 07005MPS 7000 SCT040 17/12 Q1012 NOSIG
ZGOW,2010-12-11 23:00,ZGOW 112300Z 06006MPS 6000 NSC 18/12 Q1013 NOSIG
ZGOW,2010-12-12 00:00,ZGOW 120000Z 03003MPS 6000 NSC 18/12 Q1014 NOSIG
ZGOW,2010-12-12 01:00,ZGOW 120100Z 05004MPS 7000 NSC 18/13 Q1014 NOSIG
ZGOW,2010-12-12 02:00,ZGOW 120200Z 06005MPS 7000 NSC 19/13 Q1015 NOSIG
ZGOW,2010-12-12 03:00,ZGOW 120300Z 07006MPS 6000 BKN033 19/13 Q1014 NOSIG
ZGOW,2010-12-12 04:00,ZGOW 120400Z 06006MPS 6000 SCT030 19/14 Q1013 NOSIG
ZGOW,2010-12-12 05:00,ZGOW 120500Z 07004MPS 6000 SCT033 20/13 Q1012 NOSIG
ZGOW,2010-12-12 06:00,ZGOW 120600Z 06005MPS 6000 NSC 20/14 Q1011 NOSIG
ZGOW,2010-12-12 07:00,ZGOW 120700Z 07004MPS 6000 NSC 20/13 Q1010 NOSIG
ZGOW,2010-12-12 08:00,ZGOW 120800Z 07004MPS 5000 HZ SCT026 BKN050 20/14 Q1010 NOSIG
ZGOW,2010-12-12 09:00,ZGOW 120900Z 07004MPS 5000 HZ SCT026 BKN050 19/15 Q1011 NOSIG
ZGOW,2010-12-12 10:00,ZGOW 121000Z 05003MPS 5000 BR SCT024 BKN050 19/16 Q1011 NOSIG
ZGOW,2010-12-12 11:00,ZGOW 121100Z 06003MPS 5000 BR SCT022 BKN050 19/16 Q1012 NOSIG
ZGOW,2010-12-12 12:00,ZGOW 121200Z 05003MPS 5000 BR SCT022 BKN040 19/15 Q1012 NOSIG
ZGOW,2010-12-12 13:00,ZGOW 121300Z 06004MPS 4500 BR SCT022 BKN040 19/15 Q1013 NOSIG
ZGOW,2010-12-12 14:00,ZGOW 121400Z 06004MPS 4500 BR SCT020 BKN040 19/16 Q1013 NOSIG
ZGOW,2010-12-12 15:00,ZGOW 121500Z 06005MPS 4500 BR SCT020 BKN040 19/16 Q1013 NOSIG
ZGOW,2010-12-12 16:00,ZGOW 121600Z 06003MPS 3500 BR SCT018 BKN033 19/16 Q1013 NOSIG
ZGOW,2010-12-12 17:00,ZGOW 121700Z 04002MPS 3500 BR SCT018 BKN033 19/17 Q1012 NOSIG
ZGOW,2010-12-12 18:00,ZGOW 121800Z AUTO 04003MPS 2700 // ////// 19/16 Q1012
ZGOW,2010-12-12 19:00,ZGOW 121900Z AUTO 04002MPS 2600 // ////// 19/16 Q1012
ZGOW,2010-12-12 20:00,ZGOW 122000Z 05002MPS 4000 BR FEW012 BKN030 18/16 Q1011 NOSIG
ZGOW,2010-12-12 21:00,ZGOW 122100Z 09001MPS 3500 BR SCT012 BKN030 18/16 Q1011 NOSIG
ZGOW,2010-12-12 22:00,ZGOW 122200Z 34001MPS 3500 BR SCT012 18/16 Q1011 NOSIG
ZGOW,2010-12-12 23:00,ZGOW 122300Z 32001MPS 2500 BR SCT012 OVC033 19/16 Q1012 NOSIG
ZGOW,2010-12-13 00:00,ZGOW 130000Z 31001MPS 2200 BR SCT010 BKN030 19/16 Q1013 BECMG TL0100 3000 BR
ZGOW,2010-12-13 01:00,ZGOW 130100Z 31001MPS 2200 BR FEW015 BKN030 20/16 Q1013 BECMG 3000 BR
ZGOW,2010-12-13 02:00,ZGOW 130200Z 35001MPS 2200 BR FEW015 BKN030 21/17 Q1013 BECMG 3000 BR
ZGOW,2010-12-13 03:00,ZGOW 130300Z 34002MPS 2500 BR FEW015 BKN030 22/18 Q1012 BECMG 3000 BR
ZGOW,2010-12-13 04:00,ZGOW 130400Z 31001MPS 2500 BR FEW012 BKN040 23/19 Q1011 NOSIG
ZGOW,2010-12-13 05:00,ZGOW 130500Z 00000MPS 2800 BR FEW012 BKN040 24/19 Q1010 NOSIG
ZGOW,2010-12-13 06:00,ZGOW 130600Z 00000MPS 2800 HZ SCT015 25/19 Q1010 NOSIG
ZGOW,2010-12-13 07:00,ZGOW 130700Z 13002MPS 2500 HZ FEW015 SCT040 25/20 Q1010 NOSIG
ZGOW,2010-12-13 08:00,ZGOW 130800Z 12003MPS 2800 BR FEW015 SCT040 23/19 Q1010 NOSIG
ZGOW,2010-12-13 09:00,ZGOW 130900Z 12001MPS 2500 BR FEW015 SCT040 22/19 Q1010 NOSIG
ZGOW,2010-12-13 10:00,ZGOW 131000Z 18003MPS 2500 BR FEW015 SCT040 21/19 Q1011 NOSIG
ZGOW,2010-12-13 11:00,ZGOW 131100Z 00000MPS 2500 BR FEW015 SCT040 20/18 Q1011 NOSIG
ZGOW,2010-12-13 12:00,ZGOW 131200Z 11002MPS 2000 BR FEW007 SCT040 20/18 Q1012 NOSIG
ZGOW,2010-12-13 13:00,ZGOW 131300Z 14001MPS 0800 R04/1200V1400N FG BKN003 SCT040 20/19 Q1012 TEMPO 0600 FG SCT002
ZGOW,2010-12-13 14:00,ZGOW 131400Z 00000MPS 0500 R04/0550U FG BKN003 20/19 Q1012 NOSIG
ZGOW,2010-12-13 15:00,ZGOW 131500Z 16002MPS 0700 R04/0700N FG DZ BKN003 20/19 Q1012 NOSIG
ZGOW,2010-12-13 16:00,ZGOW 131600Z 00000MPS 0400 R04/0450D FG BKN003 20/19 Q1012 REDZ NOSIG
ZGOW,2010-12-13 17:00,ZGOW 131700Z AUTO 00000MPS 0100 R04/0200N // ////// 20/19 Q1012
ZGOW,2010-12-13 18:00,ZGOW 131800Z AUTO 00000MPS 0150 R04/0200V0275N // ////// 20/19 Q1012
ZGOW,2010-12-13 19:00,ZGOW 131900Z AUTO 00000MPS 0100 R04/0225D // ////// 20/19 Q1011
ZGOW,2010-12-13 20:00,ZGOW 132000Z 20001MPS 0300 R04/0250N FG VV003 20/19 Q1012 NOSIG
ZGOW,2010-12-13 21:00,ZGOW 132100Z 00000MPS 0300 R04/0200V0300N FG VV003 20/19 Q1012 NOSIG
ZGOW,2010-12-13 22:00,ZGOW 132200Z 00000MPS 0600 R04/0600N FG VV003 20/19 Q1013 NOSIG
ZGOW,2010-12-13 23:00,ZGOW 132300Z 31003MPS 1200 R04/1000V1200D BR SCT003 BKN033 20/19 Q1014 BECMG TL0030 2100 BR SCT004 BKN030
ZGOW,2010-12-14 00:00,ZGOW 140000Z 31003MPS 1200 R04/1400N BR SCT003 BKN040 20/19 Q1015 BECMG TL0030 2100 BR SCT004 BKN030
ZGOW,2010-12-14 01:00,ZGOW 140100Z 30003MPS 3000 BR SCT010 BKN050 21/18 Q1016 NOSIG
ZGOW,2010-12-14 02:00,ZGOW 140200Z 07006MPS 2500 BR SCT005 FEW024TCU OVC040 21/18 Q1017 NOSIG
ZGOW,2010-12-14 03:00,ZGOW 140300Z 08007MPS 5000 BR SCT020 OVC040 20/17 Q1017 NOSIG
ZGOW,2010-12-14 04:00,ZGOW 140400Z 06006MPS 9999 SCT008 BKN033 20/17 Q1016 NOSIG
ZGOW,2010-12-14 05:00,ZGOW 140500Z 07008G13MPS 9999 SCT010 BKN033 19/16 Q1015 NOSIG
ZGOW,2010-12-14 06:00,ZGOW 140600Z 08008G13MPS 9999 FEW010 SCT020 BKN040 19/16 Q1015 NOSIG
ZGOW,2010-12-14 07:00,ZGOW 140700Z 08008G13MPS 9999 FEW010 SCT020 BKN040 19/15 Q1015 NOSIG
ZGOW,2010-12-14 08:00,ZGOW 140800Z 07008G13MPS 9999 BKN030 19/14 Q1015 NOSIG
ZGOW,2010-12-14 09:00,ZGOW 140900Z 08006G11MPS 9999 BKN033 19/14 Q1015 NOSIG
ZGOW,2010-12-14 10:00,ZGOW 141000Z 06007G12MPS 9999 BKN036 18/14 Q1015 NOSIG
ZGOW,2010-12-14 11:00,ZGOW 141100Z 07006MPS 9999 SCT018 BKN036 18/15 Q1016 NOSIG
ZGOW,2010-12-14 12:00,ZGOW 141200Z 08007MPS 9999 BKN033 18/14 Q1017 NOSIG
ZGOW,2010-12-14 13:00,ZGOW 141300Z 08007G12MPS 9999 BKN040 18/14 Q1017 NOSIG
ZGOW,2010-12-14 14:00,ZGOW 141400Z 08008G13MPS 9999 BKN040 18/13 Q1017 NOSIG
ZGOW,2010-12-14 15:00,ZGOW 141500Z 08008G13MPS 9999 BKN040 18/13 Q1017 NOSIG
ZGOW,2010-12-14 16:00,ZGOW 141600Z 08009G14MPS 9999 BKN040 18/13 Q1017 NOSIG
ZGOW,2010-12-14 17:00,ZGOW 141700Z 07008G13MPS 9999 BKN043 18/13 Q1016 NOSIG
ZGOW,2010-12-14 18:00,ZGOW 141800Z AUTO 07006MPS 9999 ////// 17/13 Q1016
ZGOW,2010-12-14 19:00,ZGOW 141900Z AUTO 08009MPS 9999 ////// 17/12 Q1015
ZGOW,2010-12-14 20:00,ZGOW 142000Z 07007MPS 9999 SCT033 17/13 Q1016 NOSIG
ZGOW,2010-12-14 21:00,ZGOW 142100Z 08008MPS 9999 BKN030 17/13 Q1016 NOSIG
ZGOW,2010-12-14 22:00,ZGOW 142200Z 07006MPS 9999 BKN028 17/12 Q1016 NOSIG
ZGOW,2010-12-14 23:00,ZGOW 142300Z 07005MPS 9999 BKN033 17/13 Q1017 NOSIG
ZGOW,2010-12-15 00:00,ZGOW 150000Z 08009MPS 9999 -SHRA FEW030TCU BKN030 17/12 Q1017 NOSIG
ZGOW,2010-12-15 01:00,ZGOW 150100Z 06010MPS 9999 FEW020 OVC030 17/12 Q1017 TEMPO 08011G16MPS
ZGOW,2010-12-15 02:00,ZGOW 150200Z 07008MPS 9999 FEW020 OVC030 17/12 Q1017 TEMPO 08011G16MPS
ZGOW,2010-12-15 03:00,ZGOW 150300Z 07009MPS 9999 FEW020 OVC033 17/12 Q1016 TEMPO 08011G16MPS
ZGOW,2010-12-15 04:00,ZGOW 150400Z 06007MPS 9999 FEW020 OVC030 17/12 Q1015 TEMPO 08011G16MPS
ZGOW,2010-12-15 05:00,ZGOW 150500Z 06006MPS 9999 FEW020 OVC030 18/13 Q1014 TEMPO 08008G13MPS
ZGOW,2010-12-15 06:00,ZGOW 150600Z 07006MPS 9999 FEW020 OVC030 17/13 Q1012 TEMPO 08008G13MPS
ZGOW,2010-12-15 07:00,ZGOW 150700Z 06006MPS 7000 -RA FEW020 OVC030 16/13 Q1012 TEMPO 08008G13MPS
ZGOW,2010-12-15 08:00,ZGOW 150800Z 06006MPS 4000 -RA BR SCT020 OVC030 15/13 Q1013 NOSIG
ZGOW,2010-12-15 09:00,ZGOW 150900Z 06004MPS 3500 -RA BR SCT007 OVC030 15/14 Q1013 NOSIG
ZGOW,2010-12-15 10:00,ZGOW 151000Z 05003MPS 2800 -RA BR SCT005 OVC030 15/14 Q1014 NOSIG
ZGOW,2010-12-15 11:00,ZGOW 151100Z 04005MPS 2800 -RA BR SCT005 OVC030 15/14 Q1014 NOSIG
ZGOW,2010-12-15 12:00,ZGOW 151200Z 05004MPS 2500 RA BR SCT005 OVC030 15/14 Q1015 NOSIG
ZGOW,2010-12-15 13:00,ZGOW 151300Z 33005MPS 4500 -RA BR SCT007 OVC030 13/11 Q1016 NOSIG
ZGOW,2010-12-15 14:00,ZGOW 151400Z 33005G11MPS 9999 -RA SCT007 OVC030 11/10 Q1017 NOSIG
ZGOW,2010-12-15 15:00,ZGOW 151500Z 32007G12MPS 6000 -RA SCT007 OVC030 10/09 Q1018 NOSIG
ZGOW,2010-12-15 16:00,ZGOW 151600Z 33006G11MPS 7000 -RA SCT007 OVC030 10/08 Q1018 NOSIG
ZGOW,2010-12-15 17:00,ZGOW 151700Z AUTO 33006MPS 8000 ////// 09/08 Q1018
ZGOW,2010-12-15 18:00,ZGOW 151800Z AUTO 33006MPS 2300 // ////// 09/07 Q1018
ZGOW,2010-12-15 19:00,ZGOW 151900Z AUTO 33006MPS 7000 ////// 08/06 Q1018
ZGOW,2010-12-15 20:00,ZGOW 152000Z 32008G13MPS 5000 RA SCT007 OVC030 07/06 Q1019 NOSIG
ZGOW,2010-12-15 21:00,ZGOW 152100Z 33006MPS 9999 -RA SCT007 OVC030 07/05 Q1019 RERA NOSIG
ZGOW,2010-12-15 22:00,ZGOW 152200Z 33006G13MPS 9999 -RA SCT007 OVC030 07/05 Q1019 NOSIG
ZGOW,2010-12-15 23:00,ZGOW 152300Z 32006MPS 9999 SCT007 OVC030 07/05 Q1021 NOSIG
ZGOW,2010-12-16 00:00,ZGOW 160000Z 32007G12MPS 9999 SCT007 OVC030 07/05 Q1021 NOSIG
ZGOW,2010-12-16 01:00,ZGOW 160100Z 32008G13MPS 9999 SCT015 BKN033 08/05 Q1022 NOSIG
ZGOW,2010-12-16 02:00,ZGOW 160200Z 32006G11MPS 9999 SCT018 BKN040 08/04 Q1022 NOSIG
ZGOW,2010-12-16 03:00,ZGOW 160300Z 32007G14MPS 9999 SCT020 BKN033 07/03 Q1022 NOSIG
ZGOW,2010-12-16 04:00,ZGOW 160400Z 32009G16MPS 9999 SCT020 BKN040 07/02 Q1022 NOSIG
ZGOW,2010-12-16 05:00,ZGOW 160500Z 32007G15MPS 9999 SCT020 BKN040 06/02 Q1022 NOSIG
ZGOW,2010-12-16 06:00,ZGOW 160600Z 32007G12MPS 9999 SCT020 BKN040 07/01 Q1021 NOSIG
ZGOW,2010-12-16 07:00,ZGOW 160700Z 32007G12MPS 9999 FEW025 BKN050 07/01 Q1021 NOSIG
ZGOW,2010-12-16 08:00,ZGOW 160800Z 34005G10MPS 9999 FEW025 07/01 Q1021 NOSIG
ZGOW,2010-12-16 09:00,ZGOW 160900Z 33005G10MPS 9999 FEW025 07/00 Q1021 NOSIG
ZGOW,2010-12-16 10:00,ZGOW 161000Z 33006MPS 9999 FEW025 07/M01 Q1021 NOSIG
ZGOW,2010-12-16 11:00,ZGOW 161100Z 35003MPS 9999 FEW025 07/M01 Q1022 NOSIG
ZGOW,2010-12-16 12:00,ZGOW 161200Z 33003MPS 9999 FEW025 07/M01 Q1022 NOSIG
ZGOW,2010-12-16 13:00,ZGOW 161300Z 32005MPS 9999 FEW025 06/M03 Q1023 NOSIG
ZGOW,2010-12-16 14:00,ZGOW 161400Z 33004G09MPS CAVOK 05/M02 Q1023 NOSIG
ZGOW,2010-12-16 15:00,ZGOW 161500Z 31003MPS CAVOK 05/M03 Q1023 NOSIG
ZGOW,2010-12-16 16:00,ZGOW 161600Z 32003MPS CAVOK 04/M03 Q1023 NOSIG
ZGOW,2010-12-16 17:00,ZGOW 161700Z 32004MPS CAVOK 04/M03 Q1023 NOSIG
ZGOW,2010-12-16 18:00,ZGOW 161800Z 31003MPS CAVOK 04/M03 Q1022 NOSIG
ZGOW,2010-12-16 19:00,ZGOW 161900Z 32003MPS CAVOK 03/M04 Q1022 NOSIG
ZGOW,2010-12-16 20:00,ZGOW 162000Z 31003MPS CAVOK 03/M05 Q1022 NOSIG
ZGOW,2010-12-16 21:00,ZGOW 162100Z 32004MPS CAVOK 03/M05 Q1022 NOSIG
ZGOW,2010-12-16 22:00,ZGOW 162200Z 32003MPS CAVOK 02/M05 Q1022 NOSIG
ZGOW,2010-12-16 23:00,ZGOW 162300Z 31003MPS CAVOK 02/M05 Q1023 NOSIG
ZGOW,2010-12-17 00:00,ZGOW 170000Z 33004MPS CAVOK 04/M04 Q1023 NOSIG
ZGOW,2010-12-17 01:00,ZGOW 170100Z 32005MPS CAVOK 05/M05 Q1023 NOSIG
ZGOW,2010-12-17 02:00,ZGOW 170200Z 31003MPS CAVOK 07/M04 Q1023 NOSIG
ZGOW,2010-12-17 03:00,ZGOW 170300Z 34002MPS CAVOK 10/M05 Q1022 NOSIG
ZGOW,2010-12-17 04:00,ZGOW 170400Z 05001MPS CAVOK 11/M05 Q1021 NOSIG
ZGOW,2010-12-17 05:00,ZGOW 170500Z 04001MPS CAVOK 12/M05 Q1020 NOSIG
ZGOW,2010-12-17 06:00,ZGOW 170600Z 29002MPS CAVOK 13/M04 Q1019 NOSIG
ZGOW,2010-12-17 07:00,ZGOW 170700Z 12002MPS CAVOK 13/M02 Q1019 NOSIG
ZGOW,2010-12-17 08:00,ZGOW 170800Z 08002MPS CAVOK 13/M02 Q1019 NOSIG
ZGOW,2010-12-17 09:00,ZGOW 170900Z 09002MPS CAVOK 12/M01 Q1019 NOSIG
ZGOW,2010-12-17 10:00,ZGOW 171000Z 09002MPS CAVOK 10/02 Q1020 NOSIG
ZGOW,2010-12-17 11:00,ZGOW 171100Z 04002MPS CAVOK 07/02 Q1020 NOSIG
ZGOW,2010-12-17 12:00,ZGOW 171200Z 00000MPS CAVOK 09/04 Q1020 NOSIG
ZGOW,2010-12-17 13:00,ZGOW 171300Z 02002MPS CAVOK 08/02 Q1021 NOSIG
ZGOW,2010-12-17 14:00,ZGOW 171400Z 01002MPS CAVOK 07/02 Q1021 NOSIG
ZGOW,2010-12-17 15:00,ZGOW 171500Z 02001MPS CAVOK 06/02 Q1021 NOSIG
ZGOW,2010-12-17 16:00,ZGOW 171600Z 32001MPS CAVOK 08/03 Q1021 NOSIG
ZGOW,2010-12-17 17:00,ZGOW 171700Z 34001MPS CAVOK 07/03 Q1021 NOSIG
ZGOW,2010-12-17 18:00,ZGOW 171800Z AUTO 09002KT 6SM 06/02 RMK SLP208 T00640019 57007 IEM_DS3505
ZGOW,2010-12-17 20:00,ZGOW 172000Z 00000MPS CAVOK 05/01 Q1021 NOSIG
ZGOW,2010-12-17 21:00,ZGOW 172100Z 00000MPS CAVOK 05/01 Q1021 NOSIG
ZGOW,2010-12-17 22:00,ZGOW 172200Z 30002MPS CAVOK 05/02 Q1021 NOSIG
ZGOW,2010-12-17 23:00,ZGOW 172300Z 34001MPS CAVOK 05/02 Q1021 NOSIG
ZGOW,2010-12-18 00:00,ZGOW 180000Z 30003MPS CAVOK 07/03 Q1022 NOSIG
ZGOW,2010-12-18 01:00,ZGOW 180100Z 32002MPS CAVOK 09/04 Q1022 NOSIG
ZGOW,2010-12-18 02:00,ZGOW 180200Z 36002MPS CAVOK 12/01 Q1022 NOSIG
ZGOW,2010-12-18 03:00,ZGOW 180300Z 02004MPS CAVOK 14/M01 Q1021 BECMG TL0400 08006MPS
ZGOW,2010-12-18 04:00,ZGOW 180400Z 06004MPS CAVOK 16/01 Q1020 NOSIG
ZGOW,2010-12-18 05:00,ZGOW 180500Z 06003MPS CAVOK 16/04 Q1019 NOSIG
ZGOW,2010-12-18 06:00,ZGOW 180600Z 07003MPS CAVOK 17/04 Q1018 NOSIG
ZGOW,2010-12-18 07:00,ZGOW 180700Z 07003MPS 9999 BKN040 17/07 Q1017 NOSIG
ZGOW,2010-12-18 08:00,ZGOW 180800Z 08004MPS 9999 FEW050 17/07 Q1017 NOSIG
ZGOW,2010-12-18 09:00,ZGOW 180900Z 10002MPS 9999 SCT050 16/08 Q1018 NOSIG
ZGOW,2010-12-18 10:00,ZGOW 181000Z 00000MPS 7000 NSC 14/08 Q1018 NOSIG
ZGOW,2010-12-18 11:00,ZGOW 181100Z 31001MPS 4000 FU SKC 13/08 Q1019 NOSIG
ZGOW,2010-12-18 12:00,ZGOW 181200Z 05002MPS 9999 SCT040 13/09 Q1019 NOSIG
ZGOW,2010-12-18 13:00,ZGOW 181300Z 06003MPS 9999 SCT040 13/09 Q1020 NOSIG
ZGOW,2010-12-18 14:00,ZGOW 181400Z 06003MPS 9999 SCT050 12/09 Q1020 NOSIG
ZGOW,2010-12-18 15:00,ZGOW 181500Z 04003MPS CAVOK 12/09 Q1020 NOSIG
ZGOW,2010-12-18 16:00,ZGOW 181600Z 01002MPS CAVOK 13/08 Q1020 NOSIG
ZGOW,2010-12-18 17:00,ZGOW 181700Z 02002MPS 9999 SCT036 14/08 Q1020 NOSIG
ZGOW,2010-12-18 18:00,ZGOW 181800Z AUTO 36001MPS 6000 ////// 14/08 Q1020
ZGOW,2010-12-18 19:00,ZGOW 181900Z AUTO 31002MPS 4600 // ////// 13/09 Q1020
ZGOW,2010-12-18 20:00,ZGOW 182000Z 33002MPS 5000 BR SCT040 12/09 Q1020 NOSIG
ZGOW,2010-12-18 21:00,ZGOW 182100Z 35001MPS 5000 BR FEW050 12/08 Q1020 NOSIG
ZGOW,2010-12-18 22:00,ZGOW 182200Z 09002MPS 4000 BR FEW050 11/08 Q1020 NOSIG
ZGOW,2010-12-18 23:00,ZGOW 182300Z 34002MPS 2500 BR SKC 11/09 Q1020 NOSIG
ZGOW,2010-12-19 00:00,ZGOW 190000Z 35001MPS 3200 BR SKC 13/09 Q1021 NOSIG
ZGOW,2010-12-19 01:00,ZGOW 190100Z 33002MPS 5000 HZ NSC 16/09 Q1021 NOSIG
ZGOW,2010-12-19 02:00,ZGOW 190200Z 04002MPS CAVOK 18/08 Q1021 NOSIG
ZGOW,2010-12-19 03:00,ZGOW 190300Z 05002MPS CAVOK 19/09 Q1021 NOSIG
ZGOW,2010-12-19 04:00,ZGOW 190400Z 08002MPS CAVOK 20/10 Q1020 NOSIG
ZGOW,2010-12-19 05:00,ZGOW 190500Z 01001MPS CAVOK 21/10 Q1019 NOSIG
ZGOW,2010-12-19 06:00,ZGOW 190600Z 15003MPS CAVOK 21/11 Q1017 NOSIG
ZGOW,2010-12-19 07:00,ZGOW 190700Z 15003MPS CAVOK 20/11 Q1017 NOSIG
ZGOW,2010-12-19 08:00,ZGOW 190800Z 14003MPS CAVOK 19/12 Q1017 NOSIG
ZGOW,2010-12-19 09:00,ZGOW 190900Z 13002MPS CAVOK 18/12 Q1017 NOSIG
ZGOW,2010-12-19 10:00,ZGOW 191000Z 14001MPS 7000 NSC 16/13 Q1018 NOSIG
ZGOW,2010-12-19 11:00,ZGOW 191100Z 12001MPS 7000 NSC 16/13 Q1018 NOSIG
ZGOW,2010-12-19 12:00,ZGOW 191200Z 09001MPS 6000 NSC 15/13 Q1019 NOSIG
ZGOW,2010-12-19 13:00,ZGOW 191300Z 05001MPS 5000 BR NSC 14/13 Q1019 NOSIG
ZGOW,2010-12-19 14:00,ZGOW 191400Z 03001MPS 3500 BR NSC 14/12 Q1019 NOSIG
ZGOW,2010-12-19 15:00,ZGOW 191500Z 00000MPS 3500 BR NSC 13/12 Q1019 NOSIG
ZGOW,2010-12-19 16:00,ZGOW 191600Z 00000MPS 3000 BR NSC 14/12 Q1019 NOSIG
ZGOW,2010-12-19 17:00,ZGOW 191700Z AUTO 00000MPS 1200 R04/1900U // NCD 13/12 Q1019
ZGOW,2010-12-19 18:00,ZGOW 191800Z AUTO 00000MPS 1100 R04/1800VP2000N // NCD 12/11 Q1019
ZGOW,2010-12-19 19:00,ZGOW 191900Z AUTO 32001MPS 1000 R04/1800VP2000D // NCD 13/12 Q1018
ZGOW,2010-12-19 20:00,ZGOW 192000Z 30001MPS 3000 BR SKC 13/12 Q1017 NOSIG
ZGOW,2010-12-19 21:00,ZGOW 192100Z 32001MPS 2500 BR SKC 12/11 Q1017 NOSIG
ZGOW,2010-12-19 22:00,ZGOW 192200Z 30001MPS 2500 BR SKC 12/11 Q1018 NOSIG
ZGOW,2010-12-19 23:00,ZGOW 192300Z 31001MPS 2200 R04/1400V1800D BR FEW004 12/11 Q1018 NOSIG
ZGOW,2010-12-20 00:00,ZGOW 200000Z 31001MPS 2200 R04/1400V1800U BR NSC 14/12 Q1018 NOSIG
ZGOW,2010-12-20 01:00,ZGOW 200100Z 32002MPS 4000 BR NSC 16/13 Q1018 NOSIG
ZGOW,2010-12-20 02:00,ZGOW 200200Z 32003MPS 5000 BR NSC 18/13 Q1018 NOSIG
ZGOW,2010-12-20 03:00,ZGOW 200300Z 35002MPS 7000 NSC 21/12 Q1018 NOSIG
ZGOW,2010-12-20 04:00,ZGOW 200400Z 09002MPS 7000 NSC 23/11 Q1017 NOSIG
ZGOW,2010-12-20 05:00,ZGOW 200500Z 08003MPS 7000 NSC 23/11 Q1015 NOSIG
ZGOW,2010-12-20 06:00,ZGOW 200600Z 12003MPS 7000 NSC 22/09 Q1014 NOSIG
ZGOW,2010-12-20 07:00,ZGOW 200700Z 12002MPS 7000 NSC 22/10 Q1014 NOSIG
ZGOW,2010-12-20 08:00,ZGOW 200800Z 06003MPS 6000 NSC 21/10 Q1014 NOSIG
ZGOW,2010-12-20 09:00,ZGOW 200900Z 09002MPS 5000 HZ NSC 19/13 Q1014 NOSIG
ZGOW,2010-12-20 10:00,ZGOW 201000Z 08002MPS 4000 BR NSC 17/13 Q1015 NOSIG
ZGOW,2010-12-20 11:00,ZGOW 201100Z 05003MPS 4000 BR NSC 16/12 Q1016 NOSIG
ZGOW,2010-12-20 12:00,ZGOW 201200Z 06002MPS 4000 BR NSC 16/13 Q1016 NOSIG
ZGOW,2010-12-20 13:00,ZGOW 201300Z 04002MPS 4000 BR NSC 16/13 Q1016 NOSIG
ZGOW,2010-12-20 14:00,ZGOW 201400Z 07003MPS 3500 BR NSC 15/13 Q1016 NOSIG
ZGOW,2010-12-20 15:00,ZGOW 201500Z 03002MPS 3500 BR NSC 15/13 Q1016 NOSIG
ZGOW,2010-12-20 16:00,ZGOW 201600Z 02003MPS 2800 BR NSC 15/13 Q1016 NOSIG
ZGOW,2010-12-20 17:00,ZGOW 201700Z 02002MPS 2800 BR NSC 15/13 Q1016 NOSIG
ZGOW,2010-12-20 18:00,ZGOW 201800Z AUTO 36001MPS 2800 // ////// 15/13 Q1015
ZGOW,2010-12-20 19:00,ZGOW 201900Z AUTO 34001MPS 2600 // ////// 15/12 Q1015
ZGOW,2010-12-20 20:00,ZGOW 202000Z AUTO 30002MPS 2800 // ////// 15/12 Q1015
ZGOW,2010-12-20 21:00,ZGOW 202100Z 00000MPS 2500 BR NSC 15/12 Q1015 NOSIG
ZGOW,2010-12-20 22:00,ZGOW 202200Z 28001MPS 2500 BR NSC 15/12 Q1015 NOSIG
ZGOW,2010-12-20 23:00,ZGOW 202300Z 35001MPS 1800 BR NSC 15/12 Q1016 NOSIG
ZGOW,2010-12-21 00:00,ZGOW 210000Z 32001MPS 2000 BR NSC 16/13 Q1016 NOSIG
ZGOW,2010-12-21 01:00,ZGOW 210100Z 30001MPS 2500 BR NSC 17/13 Q1016 BECMG 3000 BR
ZGOW,2010-12-21 02:00,ZGOW 210200Z 02002MPS 3500 BR SKC 19/12 Q1016 NOSIG
ZGOW,2010-12-21 03:00,ZGOW 210300Z 07002MPS 4000 HZ SKC 20/11 Q1016 NOSIG
ZGOW,2010-12-21 04:00,ZGOW 210400Z 12001MPS 5000 HZ SKC 22/11 Q1015 NOSIG
ZGOW,2010-12-21 05:00,ZGOW 210500Z 12002MPS 6000 NSC 21/13 Q1013 NOSIG
ZGOW,2010-12-21 06:00,ZGOW 210600Z 12003MPS 5000 HZ NSC 22/12 Q1012 NOSIG
ZGOW,2010-12-21 07:00,ZGOW 210700Z 14003MPS 4000 HZ SKC 21/13 Q1012 NOSIG
ZGOW,2010-12-21 08:00,ZGOW 210800Z 17003MPS 4000 HZ SKC 20/14 Q1012 NOSIG
ZGOW,2010-12-21 09:00,ZGOW 210900Z 14003MPS 3500 HZ SKC 19/14 Q1013 NOSIG
ZGOW,2010-12-21 10:00,ZGOW 211000Z 12001MPS 2500 BR SKC 18/14 Q1013 TEMPO 1500 BR
ZGOW,2010-12-21 11:00,ZGOW 211100Z 12001MPS 2800 BR SKC 17/14 Q1014 NOSIG
ZGOW,2010-12-21 12:00,ZGOW 211200Z 24001MPS 2500 BR NSC 17/14 Q1014 NOSIG
ZGOW,2010-12-21 13:00,ZGOW 211300Z 28001MPS 1800 BR SKC 16/14 Q1015 TEMPO 1000 BR
ZGOW,2010-12-21 14:00,ZGOW 211400Z 01001MPS 1600 R04/1400VP2000D BR SKC 15/13 Q1015 TEMPO 1000 BR
ZGOW,2010-12-21 15:00,ZGOW 211500Z 29001MPS 1600 BR SKC 16/14 Q1015 TEMPO 1000 BR
ZGOW,2010-12-21 16:00,ZGOW 211600Z 31001MPS 1400 R04/1600VP2000D BR SKC 16/14 Q1015 NOSIG
ZGOW,2010-12-21 17:00,ZGOW 211700Z 00000MPS 1300 R04/1600V1800U BR SKC 15/13 Q1015 NOSIG
ZGOW,2010-12-21 18:00,ZGOW 211800Z AUTO 07002KT 2SM 13/12 RMK SLP149 T01330125 57001 IEM_DS3505
ZGOW,2010-12-21 20:00,ZGOW 212000Z 33002MPS 6000 SKC 15/10 Q1015 NOSIG
ZGOW,2010-12-21 21:00,ZGOW 212100Z 34002MPS 6000 SKC 15/09 Q1015 NOSIG
ZGOW,2010-12-21 22:00,ZGOW 212200Z 33002MPS 7000 SKC 14/09 Q1015 NOSIG
ZGOW,2010-12-21 23:00,ZGOW 212300Z 00000MPS 5000 HZ SKC 14/08 Q1016 NOSIG
ZGOW,2010-12-22 00:00,ZGOW 220000Z 24001MPS 5000 HZ SKC 15/09 Q1017 NOSIG
ZGOW,2010-12-22 01:00,ZGOW 220100Z 33002MPS 5000 HZ SKC 16/09 Q1017 NOSIG
ZGOW,2010-12-22 02:00,ZGOW 220200Z 09003MPS 5000 HZ SKC 18/10 Q1017 NOSIG
ZGOW,2010-12-22 03:00,ZGOW 220300Z 07004MPS 7000 SKC 20/09 Q1017 NOSIG
ZGOW,2010-12-22 04:00,ZGOW 220400Z 05003MPS CAVOK 21/07 Q1016 NOSIG
ZGOW,2010-12-22 05:00,ZGOW 220500Z 07005MPS CAVOK 21/08 Q1014 NOSIG
ZGOW,2010-12-22 06:00,ZGOW 220600Z 08006MPS 7000 SKC 21/08 Q1014 NOSIG
ZGOW,2010-12-22 07:00,ZGOW 220700Z 08006MPS 7000 SKC 21/08 Q1014 NOSIG
ZGOW,2010-12-22 08:00,ZGOW 220800Z 08005MPS 7000 SKC 20/08 Q1014 NOSIG
ZGOW,2010-12-22 09:00,ZGOW 220900Z 07003MPS 5000 HZ SKC 19/09 Q1014 NOSIG
ZGOW,2010-12-22 10:00,ZGOW 221000Z 07001MPS 5000 HZ SKC 16/09 Q1015 NOSIG
ZGOW,2010-12-22 11:00,ZGOW 221100Z 06004MPS 4000 HZ SKC 15/11 Q1016 NOSIG
ZGOW,2010-12-22 12:00,ZGOW 221200Z 08005MPS 4000 HZ SKC 16/10 Q1016 NOSIG
ZGOW,2010-12-22 13:00,ZGOW 221300Z 08004MPS 4000 HZ SKC 15/10 Q1017 NOSIG
ZGOW,2010-12-22 14:00,ZGOW 221400Z 07004MPS 4000 HZ SKC 15/11 Q1017 NOSIG
ZGOW,2010-12-22 15:00,ZGOW 221500Z 08005MPS 5000 HZ SKC 15/09 Q1017 NOSIG
ZGOW,2010-12-22 16:00,ZGOW 221600Z 07005MPS 7000 SKC 15/07 Q1017 NOSIG
ZGOW,2010-12-22 17:00,ZGOW 221700Z 05003MPS 5000 HZ SKC 13/07 Q1017 NOSIG
ZGOW,2010-12-22 18:00,ZGOW 221800Z AUTO 04001MPS 3400 // NCD 12/07 Q1017
ZGOW,2010-12-22 21:00,ZGOW 222100Z 29001MPS 2500 BR NSC 12/09 Q1017 NOSIG
ZGOW,2010-12-22 22:00,ZGOW 222200Z 31001MPS 2500 BR SKC 12/09 Q1017 NOSIG
ZGOW,2010-12-22 23:00,ZGOW 222300Z 29001MPS 2500 BR NSC 12/09 Q1018 NOSIG
ZGOW,2010-12-23 00:00,ZGOW 230000Z 32003MPS 2800 BR NSC 12/09 Q1019 NOSIG
ZGOW,2010-12-23 01:00,ZGOW 230100Z 32003MPS 2800 HZ NSC 14/09 Q1020 BECMG 3500 BR
ZGOW,2010-12-23 02:00,ZGOW 230200Z 35002MPS 4000 HZ SKC 17/07 Q1019 NOSIG
ZGOW,2010-12-23 03:00,ZGOW 230300Z 03002MPS 6000 SKC 19/04 Q1018 NOSIG
ZGOW,2010-12-23 04:00,ZGOW 230400Z 07004MPS 7000 SKC 20/02 Q1017 NOSIG
ZGOW,2010-12-23 05:00,ZGOW 230500Z 08003MPS 6000 SKC 21/05 Q1016 NOSIG
ZGOW,2010-12-23 06:00,ZGOW 230600Z 09004MPS 6000 SKC 21/07 Q1015 NOSIG
ZGOW,2010-12-23 07:00,ZGOW 230700Z 09004G09MPS 050V150 6000 SKC 21/08 Q1015 NOSIG
ZGOW,2010-12-23 08:00,ZGOW 230800Z 13003MPS 6000 SKC 20/10 Q1015 NOSIG
ZGOW,2010-12-23 09:00,ZGOW 230900Z 12002MPS 4500 HZ NSC 18/12 Q1015 NOSIG
ZGOW,2010-12-23 10:00,ZGOW 231000Z 08003MPS 4000 HZ NSC 16/11 Q1015 BECMG FM1830 2500 BR
ZGOW,2010-12-23 11:00,ZGOW 231100Z 07004MPS 5000 HZ NSC 17/12 Q1016 NOSIG
ZGOW,2010-12-23 12:00,ZGOW 231200Z 06003MPS 5000 BR NSC 16/13 Q1016 NOSIG
ZGOW,2010-12-23 13:00,ZGOW 231300Z 08003MPS 6000 NSC 16/13 Q1017 NOSIG
ZGOW,2010-12-23 14:00,ZGOW 231400Z 07004MPS 6000 NSC 17/12 Q1017 NOSIG
ZGOW,2010-12-23 15:00,ZGOW 231500Z 07004MPS 5000 BR NSC 16/13 Q1017 NOSIG
ZGOW,2010-12-23 16:00,ZGOW 231600Z 07004MPS 5000 BR BKN050 16/12 Q1017 NOSIG
ZGOW,2010-12-23 17:00,ZGOW 231700Z 03003MPS 4000 BR SCT050 15/11 Q1017 NOSIG
ZGOW,2010-12-23 18:00,ZGOW 231800Z AUTO 00000KT 6SM 14/12 RMK SLP170 T01410116 52001 IEM_DS3505
ZGOW,2010-12-23 19:00,ZGOW 231900Z AUTO 33001MPS 2100 // NCD 14/11 Q1017
ZGOW,2010-12-23 20:00,ZGOW 232000Z 00000MPS 2500 BR NSC 13/10 Q1016 NOSIG
ZGOW,2010-12-23 21:00,ZGOW 232100Z 09003MPS 2800 BR NSC 13/11 Q1015 NOSIG
ZGOW,2010-12-23 22:00,ZGOW 232200Z 36002MPS 3500 BR NSC 14/11 Q1016 NOSIG
ZGOW,2010-12-23 23:00,ZGOW 232300Z 32003MPS 3200 BR NSC 13/11 Q1017 NOSIG
ZGOW,2010-12-24 00:00,ZGOW 240000Z 32003MPS 2500 BR SKC 14/11 Q1018 BECMG 3000 BR
ZGOW,2010-12-24 01:00,ZGOW 240100Z 30001MPS 3000 BR NSC 16/12 Q1018 BECMG 3200 BR
ZGOW,2010-12-24 02:00,ZGOW 240200Z 03005MPS 5000 HZ NSC 19/11 Q1018 NOSIG
ZGOW,2010-12-24 03:00,ZGOW 240300Z 07005MPS 4000 HZ NSC 19/12 Q1017 NOSIG
ZGOW,2010-12-24 04:00,ZGOW 240400Z 08006MPS 4000 HZ NSC 20/12 Q1017 NOSIG
ZGOW,2010-12-24 05:00,ZGOW 240500Z 08007MPS 4500 HZ NSC 21/12 Q1016 TEMPO 08009G14MPS
ZGOW,2010-12-24 06:00,ZGOW 240600Z 08008MPS 5000 HZ NSC 21/12 Q1015 TEMPO 08009G14MPS
ZGOW,2010-12-24 07:00,ZGOW 240700Z 09007MPS 4500 HZ NSC 20/12 Q1015 TEMPO 08009G14MPS
ZGOW,2010-12-24 08:00,ZGOW 240800Z 08007MPS 4500 HZ NSC 19/12 Q1015 TEMPO 08009G14MPS
ZGOW,2010-12-24 09:00,ZGOW 240900Z 09007MPS 6000 NSC 18/12 Q1015 TEMPO 08009G14MPS
ZGOW,2010-12-24 10:00,ZGOW 241000Z 08005MPS 6000 NSC 17/12 Q1016 TEMPO 08008G13MPS
ZGOW,2010-12-24 11:00,ZGOW 241100Z 08009G14MPS 7000 NSC 17/12 Q1016 NOSIG
ZGOW,2010-12-24 12:00,ZGOW 241200Z 08008G13MPS 9999 BKN050 17/12 Q1017 NOSIG
ZGOW,2010-12-24 13:00,ZGOW 241300Z 08009G14MPS 9999 SCT050 16/11 Q1017 NOSIG
ZGOW,2010-12-24 14:00,ZGOW 241400Z 08008G13MPS 9999 SCT022 BKN050 16/11 Q1018 NOSIG
ZGOW,2010-12-24 15:00,ZGOW 241500Z 09007G12MPS 9999 SCT024 15/11 Q1017 NOSIG
ZGOW,2010-12-24 16:00,ZGOW 241600Z 08008G13MPS 9999 SCT022 BKN050 15/11 Q1018 NOSIG
ZGOW,2010-12-24 17:00,ZGOW 241700Z 07008G14MPS 9999 SCT022 BKN043 15/11 Q1017 NOSIG
ZGOW,2010-12-24 18:00,ZGOW 241800Z AUTO 08007MPS 9999 ////// 15/11 Q1016
ZGOW,2010-12-24 19:00,ZGOW 241900Z AUTO 07008MPS 9999 ////// 15/10 Q1017
ZGOW,2010-12-24 20:00,ZGOW 242000Z 08006MPS 9999 SCT050 14/10 Q1016 NOSIG
ZGOW,2010-12-24 21:00,ZGOW 242100Z 07006MPS 9999 BKN033 15/10 Q1017 NOSIG
ZGOW,2010-12-24 22:00,ZGOW 242200Z 07006MPS 9999 BKN033 14/10 Q1017 NOSIG
ZGOW,2010-12-24 23:00,ZGOW 242300Z 08005MPS 9999 BKN030 14/10 Q1018 NOSIG
ZGOW,2010-12-25 00:00,ZGOW 250000Z 07005MPS 9999 BKN030 15/10 Q1019 NOSIG
ZGOW,2010-12-25 01:00,ZGOW 250100Z 07006MPS 9999 BKN030 15/10 Q1019 NOSIG
ZGOW,2010-12-25 02:00,ZGOW 250200Z 08007MPS 9999 BKN030 16/10 Q1019 NOSIG
ZGOW,2010-12-25 03:00,ZGOW 250300Z 07007MPS 9999 BKN030 16/10 Q1019 NOSIG
ZGOW,2010-12-25 04:00,ZGOW 250400Z 08006MPS 9999 BKN026 15/10 Q1018 NOSIG
ZGOW,2010-12-25 05:00,ZGOW 250500Z 07007MPS 9999 BKN040 16/10 Q1017 NOSIG
ZGOW,2010-12-25 06:00,ZGOW 250600Z 09004MPS 9999 BKN026 15/10 Q1017 NOSIG
ZGOW,2010-12-25 07:00,ZGOW 250700Z 08005MPS 9999 BKN030 14/10 Q1017 NOSIG
ZGOW,2010-12-25 08:00,ZGOW 250800Z 07004MPS 9999 BKN026 14/09 Q1017 NOSIG
ZGOW,2010-12-25 09:00,ZGOW 250900Z 05004MPS 9999 BKN026 14/10 Q1018 NOSIG
ZGOW,2010-12-25 10:00,ZGOW 251000Z 32004MPS 2800 -RA BR SCT006 BKN026 12/11 Q1019 TEMPO 2100 -RA BR SCT006 BKN020
ZGOW,2010-12-25 11:00,ZGOW 251100Z 32004MPS 5000 -RA BR SCT006 BKN026 11/10 Q1019 TEMPO 2100 -RA BR SCT006 BKN020
ZGOW,2010-12-25 12:00,ZGOW 251200Z 32004MPS 5000 RA BR SCT010 BKN026 11/09 Q1020 NOSIG
ZGOW,2010-12-25 13:00,ZGOW 251300Z 33004MPS 9999 -RA SCT015 11/08 Q1020 RERA NOSIG
ZGOW,2010-12-25 14:00,ZGOW 251400Z 32004MPS 9999 SCT015 BKN030 10/08 Q1021 NOSIG
ZGOW,2010-12-25 15:00,ZGOW 251500Z 33005MPS 9999 SCT015 BKN030 10/07 Q1021 NOSIG
ZGOW,2010-12-25 16:00,ZGOW 251600Z 33004MPS 9999 SCT015 BKN030 10/06 Q1022 NOSIG
ZGOW,2010-12-25 17:00,ZGOW 251700Z 31004MPS 9999 BKN030 10/06 Q1022 NOSIG
ZGOW,2010-12-25 18:00,ZGOW 251800Z AUTO 32003MPS 9999 ////// 10/05 Q1022
ZGOW,2010-12-25 19:00,ZGOW 251900Z AUTO 31004MPS 9999 ////// 09/05 Q1022
ZGOW,2010-12-25 20:00,ZGOW 252000Z 33005MPS CAVOK 09/04 Q1021 NOSIG
ZGOW,2010-12-25 21:00,ZGOW 252100Z 33005MPS CAVOK 08/04 Q1021 NOSIG
ZGOW,2010-12-25 22:00,ZGOW 252200Z 34004MPS CAVOK 09/03 Q1022 NOSIG
ZGOW,2010-12-25 23:00,ZGOW 252300Z 34004MPS CAVOK 08/03 Q1022 NOSIG
ZGOW,2010-12-26 00:00,ZGOW 260000Z 34004MPS CAVOK 09/02 Q1023 NOSIG
ZGOW,2010-12-26 01:00,ZGOW 260100Z 33006MPS CAVOK 10/02 Q1024 NOSIG
ZGOW,2010-12-26 02:00,ZGOW 260200Z 34003MPS CAVOK 11/02 Q1024 NOSIG
ZGOW,2010-12-26 03:00,ZGOW 260300Z 01004MPS CAVOK 14/M00 Q1023 NOSIG
ZGOW,2010-12-26 04:00,ZGOW 260400Z 34004MPS CAVOK 14/M01 Q1022 NOSIG
ZGOW,2010-12-26 05:00,ZGOW 260500Z 32004MPS CAVOK 15/M00 Q1021 NOSIG
ZGOW,2010-12-26 06:00,ZGOW 260600Z 34003MPS CAVOK 16/M00 Q1019 NOSIG
ZGOW,2010-12-26 07:00,ZGOW 260700Z 35002MPS CAVOK 16/M01 Q1019 NOSIG
ZGOW,2010-12-26 08:00,ZGOW 260800Z 07001MPS CAVOK 16/M00 Q1019 NOSIG
ZGOW,2010-12-26 09:00,ZGOW 260900Z 10001MPS CAVOK 15/01 Q1020 NOSIG
ZGOW,2010-12-26 10:00,ZGOW 261000Z 10001MPS CAVOK 13/03 Q1020 NOSIG
ZGOW,2010-12-26 11:00,ZGOW 261100Z 00000MPS CAVOK 12/04 Q1020 NOSIG
ZGOW,2010-12-26 12:00,ZGOW 261200Z 29002MPS CAVOK 12/00 Q1021 NOSIG
ZGOW,2010-12-26 13:00,ZGOW 261300Z 32002MPS CAVOK 11/01 Q1021 NOSIG
ZGOW,2010-12-26 14:00,ZGOW 261400Z 33001MPS CAVOK 10/01 Q1022 NOSIG
ZGOW,2010-12-26 15:00,ZGOW 261500Z 04001MPS CAVOK 09/01 Q1022 NOSIG
ZGOW,2010-12-26 16:00,ZGOW 261600Z 19001MPS CAVOK 08/03 Q1022 NOSIG
ZGOW,2010-12-26 17:00,ZGOW 261700Z 32002MPS CAVOK 08/01 Q1022 NOSIG
ZGOW,2010-12-26 18:00,ZGOW 261800Z AUTO 34001MPS CAVOK 08/00 Q1021
ZGOW,2010-12-26 19:00,ZGOW 261900Z AUTO 33002MPS CAVOK 08/M00 Q1021
ZGOW,2010-12-26 20:00,ZGOW 262000Z 33002MPS CAVOK 07/M01 Q1021 NOSIG
ZGOW,2010-12-26 21:00,ZGOW 262100Z 33001MPS CAVOK 07/M00 Q1021 NOSIG
ZGOW,2010-12-26 22:00,ZGOW 262200Z 31002MPS CAVOK 06/M00 Q1021 NOSIG
ZGOW,2010-12-26 23:00,ZGOW 262300Z 30001MPS CAVOK 06/00 Q1022 NOSIG
ZGOW,2010-12-27 00:00,ZGOW 270000Z 33002MPS CAVOK 07/01 Q1022 NOSIG
ZGOW,2010-12-27 01:00,ZGOW 270100Z 32003MPS CAVOK 09/M00 Q1023 NOSIG
ZGOW,2010-12-27 02:00,ZGOW 270200Z 32003MPS CAVOK 11/01 Q1022 NOSIG
ZGOW,2010-12-27 03:00,ZGOW 270300Z 01001MPS CAVOK 13/M02 Q1021 NOSIG
ZGOW,2010-12-27 04:00,ZGOW 270400Z 09003MPS CAVOK 15/M04 Q1020 NOSIG
ZGOW,2010-12-27 05:00,ZGOW 270500Z 16002MPS CAVOK 16/M03 Q1019 NOSIG
ZGOW,2010-12-27 06:00,ZGOW 270600Z 10002MPS CAVOK 16/M02 Q1018 NOSIG
ZGOW,2010-12-27 07:00,ZGOW 270700Z 12003MPS CAVOK 16/M01 Q1017 NOSIG
ZGOW,2010-12-27 08:00,ZGOW 270800Z 12003MPS CAVOK 15/00 Q1017 NOSIG
ZGOW,2010-12-27 09:00,ZGOW 270900Z 12002MPS CAVOK 14/03 Q1018 NOSIG
ZGOW,2010-12-27 10:00,ZGOW 271000Z 13001MPS CAVOK 13/03 Q1018 NOSIG
ZGOW,2010-12-27 11:00,ZGOW 271100Z 00000MPS 7000 SKC 11/04 Q1019 NOSIG
ZGOW,2010-12-27 12:00,ZGOW 271200Z 00000MPS 8000 SKC 11/04 Q1019 NOSIG
ZGOW,2010-12-27 13:00,ZGOW 271300Z 00000MPS 6000 SKC 11/06 Q1020 NOSIG
ZGOW,2010-12-27 14:00,ZGOW 271400Z 03001MPS 6000 SKC 09/06 Q1020 NOSIG
ZGOW,2010-12-27 15:00,ZGOW 271500Z 00000MPS 4000 BR SKC 09/06 Q1020 NOSIG
ZGOW,2010-12-27 16:00,ZGOW 271600Z 31002MPS 4000 BR SKC 09/06 Q1020 TEMPO 2500 BR
ZGOW,2010-12-27 17:00,ZGOW 271700Z 32003MPS 4500 BR SKC 09/05 Q1020 TEMPO 2500 BR
ZGOW,2010-12-27 18:00,ZGOW 271800Z AUTO 00000KT 6SM 07/04 RMK SLP198 T00690042 57006 IEM_DS3505
ZGOW,2010-12-27 21:00,ZGOW 272100Z 32002MPS 5000 BR SKC 08/05 Q1019 NOSIG
ZGOW,2010-12-27 22:00,ZGOW 272200Z 34001MPS 6000 SKC 07/04 Q1020 NOSIG
ZGOW,2010-12-27 23:00,ZGOW 272300Z 31001MPS 4500 BR SKC 07/04 Q1020 NOSIG
ZGOW,2010-12-28 00:00,ZGOW 280000Z 31003MPS 4500 BR SKC 08/04 Q1020 NOSIG
ZGOW,2010-12-28 01:00,ZGOW 280100Z 31003MPS 7000 SKC 11/05 Q1021 NOSIG
ZGOW,2010-12-28 02:00,ZGOW 280200Z 31003MPS 8000 SKC 13/05 Q1021 NOSIG
ZGOW,2010-12-28 03:00,ZGOW 280300Z 32003MPS 8000 SKC 16/04 Q1020 NOSIG
ZGOW,2010-12-28 04:00,ZGOW 280400Z 36002MPS CAVOK 19/05 Q1019 NOSIG
ZGOW,2010-12-28 05:00,ZGOW 280500Z 05002MPS CAVOK 20/08 Q1017 NOSIG
ZGOW,2010-12-28 06:00,ZGOW 280600Z 07003MPS CAVOK 21/04 Q1016 NOSIG
ZGOW,2010-12-28 07:00,ZGOW 280700Z 10003MPS CAVOK 21/05 Q1016 NOSIG
ZGOW,2010-12-28 08:00,ZGOW 280800Z 15003MPS CAVOK 19/08 Q1016 NOSIG
ZGOW,2010-12-28 09:00,ZGOW 280900Z 15003MPS CAVOK 17/09 Q1017 NOSIG
ZGOW,2010-12-28 10:00,ZGOW 281000Z 14001MPS 6000 SKC 15/10 Q1017 NOSIG
ZGOW,2010-12-28 11:00,ZGOW 281100Z 00000MPS 6000 SKC 14/11 Q1018 NOSIG
ZGOW,2010-12-28 12:00,ZGOW 281200Z 04001MPS 5000 BR SKC 13/11 Q1019 NOSIG
ZGOW,2010-12-28 13:00,ZGOW 281300Z 36001MPS 4000 BR SKC 13/11 Q1019 NOSIG
ZGOW,2010-12-28 14:00,ZGOW 281400Z 30001MPS 3000 BR SKC 13/11 Q1020 TEMPO 2200 BR
ZGOW,2010-12-28 15:00,ZGOW 281500Z 32002MPS 2200 BR SKC 12/11 Q1020 TEMPO 2000 BR
ZGOW,2010-12-28 16:00,ZGOW 281600Z 32002MPS 2200 BR SKC 11/09 Q1020 TEMPO 2000 BR
ZGOW,2010-12-28 17:00,ZGOW 281700Z 32002MPS 2800 BR SKC 11/08 Q1020 TEMPO 2000 BR
ZGOW,2010-12-28 18:00,ZGOW 281800Z AUTO 09002KT 5SM 10/08 RMK SLP194 T01000078 57003 IEM_DS3505
ZGOW,2010-12-28 20:00,ZGOW 282000Z 33001MPS 5000 BR SKC 09/06 Q1019 NOSIG
ZGOW,2010-12-28 21:00,ZGOW 282100Z 30001MPS 5000 BR SKC 09/07 Q1019 NOSIG
ZGOW,2010-12-28 22:00,ZGOW 282200Z 30001MPS 5000 BR SKC 09/06 Q1019 NOSIG
ZGOW,2010-12-28 23:00,ZGOW 282300Z 31002MPS 5000 BR SKC 09/06 Q1019 NOSIG
ZGOW,2010-12-29 00:00,ZGOW 290000Z 28001MPS 5000 BR SKC 10/07 Q1020 NOSIG
ZGOW,2010-12-29 01:00,ZGOW 290100Z 31001MPS 5000 HZ SKC 13/07 Q1021 NOSIG
ZGOW,2010-12-29 02:00,ZGOW 290200Z 01002MPS 6000 SKC 16/08 Q1020 NOSIG
ZGOW,2010-12-29 03:00,ZGOW 290300Z 06005MPS CAVOK 18/11 Q1020 NOSIG
ZGOW,2010-12-29 04:00,ZGOW 290400Z 06007MPS CAVOK 19/11 Q1018 NOSIG
ZGOW,2010-12-29 05:00,ZGOW 290500Z 08005MPS CAVOK 20/12 Q1017 NOSIG
ZGOW,2010-12-29 06:00,ZGOW 290600Z 05003MPS CAVOK 21/11 Q1016 NOSIG
ZGOW,2010-12-29 07:00,ZGOW 290700Z 08005MPS CAVOK 21/09 Q1015 NOSIG
ZGOW,2010-12-29 08:00,ZGOW 290800Z 14002MPS CAVOK 20/10 Q1016 NOSIG
ZGOW,2010-12-29 09:00,ZGOW 290900Z 10002MPS CAVOK 18/12 Q1016 NOSIG
ZGOW,2010-12-29 10:00,ZGOW 291000Z 12001MPS 6000 SKC 17/13 Q1017 NOSIG
ZGOW,2010-12-29 11:00,ZGOW 291100Z 11001MPS 7000 NSC 15/12 Q1018 NOSIG
ZGOW,2010-12-29 12:00,ZGOW 291200Z 36001MPS 6000 NSC 15/12 Q1018 NOSIG
ZGOW,2010-12-29 13:00,ZGOW 291300Z 04003MPS 4000 BR NSC 14/13 Q1019 NOSIG
ZGOW,2010-12-29 14:00,ZGOW 291400Z 04003MPS 4000 BR SKC 14/12 Q1019 NOSIG
ZGOW,2010-12-29 15:00,ZGOW 291500Z 02002MPS 4000 BR NSC 14/13 Q1020 NOSIG
ZGOW,2010-12-29 16:00,ZGOW 291600Z 36002MPS 3500 BR NSC 14/13 Q1020 NOSIG
ZGOW,2010-12-29 17:00,ZGOW 291700Z 35001MPS 3000 BR NSC 14/12 Q1019 NOSIG
ZGOW,2010-12-29 18:00,ZGOW 291800Z AUTO 30001MPS 1600 // NCD 13/11 Q1019
ZGOW,2010-12-29 21:00,ZGOW 292100Z 32002MPS 4500 BR SKC 12/09 Q1019 NOSIG
ZGOW,2010-12-29 22:00,ZGOW 292200Z 31004MPS 4500 BR SKC 12/09 Q1019 NOSIG
ZGOW,2010-12-29 23:00,ZGOW 292300Z 32001MPS 4000 BR SKC 11/08 Q1020 NOSIG
ZGOW,2010-12-30 00:00,ZGOW 300000Z 33001MPS 5000 BR SKC 12/08 Q1021 NOSIG
ZGOW,2010-12-30 01:00,ZGOW 300100Z 34002MPS CAVOK 15/07 Q1022 NOSIG
ZGOW,2010-12-30 02:00,ZGOW 300200Z 35003MPS CAVOK 17/07 Q1022 NOSIG
ZGOW,2010-12-30 03:00,ZGOW 300300Z 35003MPS CAVOK 19/06 Q1021 NOSIG
ZGOW,2010-12-30 04:00,ZGOW 300400Z 36002MPS CAVOK 21/07 Q1019 NOSIG
ZGOW,2010-12-30 05:00,ZGOW 300500Z 35002MPS CAVOK 22/05 Q1017 NOSIG
ZGOW,2010-12-30 06:00,ZGOW 300600Z 04002MPS CAVOK 23/05 Q1016 NOSIG
ZGOW,2010-12-30 07:00,ZGOW 300700Z 10003MPS CAVOK 22/07 Q1016 NOSIG
ZGOW,2010-12-30 08:00,ZGOW 300800Z 14004MPS 7000 SKC 19/10 Q1016 NOSIG
ZGOW,2010-12-30 09:00,ZGOW 300900Z 12002MPS 9000 SKC 18/11 Q1017 NOSIG
ZGOW,2010-12-30 10:00,ZGOW 301000Z 10001MPS 5000 HZ SKC 17/11 Q1017 NOSIG
ZGOW,2010-12-30 11:00,ZGOW 301100Z 01001MPS 5000 HZ SKC 16/10 Q1018 NOSIG
ZGOW,2010-12-30 12:00,ZGOW 301200Z 04003MPS 6000 SKC 15/11 Q1019 NOSIG
ZGOW,2010-12-30 13:00,ZGOW 301300Z 36001MPS 6000 SKC 15/11 Q1019 NOSIG
ZGOW,2010-12-30 14:00,ZGOW 301400Z 00000MPS 5000 BR SKC 14/11 Q1020 NOSIG
ZGOW,2010-12-30 15:00,ZGOW 301500Z 04001MPS 6000 SKC 13/11 Q1020 NOSIG
ZGOW,2010-12-30 16:00,ZGOW 301600Z 32001MPS 7000 SKC 14/05 Q1020 NOSIG
ZGOW,2010-12-30 17:00,ZGOW 301700Z 34002MPS CAVOK 13/04 Q1020 NOSIG
ZGOW,2010-12-30 18:00,ZGOW 301800Z AUTO 34002MPS 8000 NCD 13/02 Q1020
ZGOW,2010-12-30 19:00,ZGOW 301900Z AUTO 34003MPS 8000 NCD 12/01 Q1020
ZGOW,2010-12-30 20:00,ZGOW 302000Z 34003MPS CAVOK 12/01 Q1020 NOSIG
ZGOW,2010-12-30 21:00,ZGOW 302100Z 34002MPS CAVOK 11/M00 Q1020 NOSIG
ZGOW,2010-12-30 22:00,ZGOW 302200Z 33001MPS CAVOK 11/M01 Q1021 NOSIG
ZGOW,2010-12-30 23:00,ZGOW 302300Z 28001MPS CAVOK 10/01 Q1021 NOSIG
